No errors
No warnings
449 ms
data source=metars
4565 results
raw_text,station_id,observation_time,latitude,longitude,temp_c,dewpoint_c,wind_dir_degrees,wind_speed_kt,wind_gust_kt,visibility_statute_mi,altim_in_hg,sea_level_pressure_mb,corrected,auto,auto_station,maintenance_indicator_on,no_signal,lightning_sensor_off,freezing_rain_sensor_off,present_weather_sensor_off,wx_string,sky_cover,cloud_base_ft_agl,sky_cover,cloud_base_ft_agl,sky_cover,cloud_base_ft_agl,sky_cover,cloud_base_ft_agl,flight_category,three_hr_pressure_tendency_mb,maxT_c,minT_c,maxT24hr_c,minT24hr_c,precip_in,pcp3hr_in,pcp6hr_in,pcp24hr_in,snow_in,vert_vis_ft,metar_type,elevation_m
KCLK 122115Z AUTO 34015G28KT 10SM OVC019 03/M01 A3018 RMK AO2 PNO,KCLK,2019-01-12T21:15:00Z,35.53,-98.93,3.0,-1.0,340,15,28,10.0,30.180119,,,TRUE,TRUE,,,,,,,OVC,1900,,,,,,,MVFR,,,,,,,,,,,,METAR,492.0
KZPH 122115Z AUTO 12007KT 10SM SCT065 25/13 A3016 RMK AO2 T02500125,KZPH,2019-01-12T21:15:00Z,28.23,-82.15,25.0,12.5,120,7,,10.0,30.159449,,,TRUE,TRUE,,,,,,,SCT,6500,,,,,,,VFR,,,,,,,,,,,,METAR,26.0
KMBY 122115Z AUTO 04013KT 5SM -SN OVC006 00/M02 A3005 RMK AO2,KMBY,2019-01-12T21:15:00Z,39.47,-92.43,0.0,-2.0,40,13,,5.0,30.050198,,,TRUE,TRUE,,,,,,-SN,OVC,600,,,,,,,IFR,,,,,,,,,,,,METAR,264.0
KGGI 122115Z AUTO 05015KT 1SM -SN OVC009 M01/M02 A3022 RMK AO2 T10151025,KGGI,2019-01-12T21:15:00Z,41.72,-92.73,-1.5,-2.5,50,15,,1.0,30.221457,,,TRUE,TRUE,,,,,,-SN,OVC,900,,,,,,,IFR,,,,,,,,,,,,SPECI,307.0
KEZS 122115Z AUTO 07010KT 10SM OVC034 M02/M04 A3045 RMK AO2 T10161045,KEZS,2019-01-12T21:15:00Z,44.78,-88.57,-1.6,-4.5,70,10,,10.0,30.448818,,,TRUE,TRUE,,,,,,,OVC,3400,,,,,,,VFR,,,,,,,,,,,,SPECI,248.0
KFDW 122115Z AUTO 05007KT 10SM OVC037 05/M02 A3032 RMK AO1,KFDW,2019-01-12T21:15:00Z,34.32,-81.12,5.0,-2.0,50,7,,10.0,30.318897,,,TRUE,TRUE,,,,,,,OVC,3700,,,,,,,VFR,,,,,,,,,,,,METAR,176.0
K1S5 122115Z AUTO 00000KT 3SM BR OVC003 01/01 A3023 RMK AO2 T00070007,K1S5,2019-01-12T21:15:00Z,46.33,-119.97,0.7,0.7,0,0,,3.0,30.230314,,,TRUE,TRUE,,,,,,BR,OVC,300,,,,,,,LIFR,,,,,,,,,,,,METAR,234.0
KCKM 122115Z AUTO 14009KT 10SM OVC008 12/12 A2991 RMK A01,KCKM,2019-01-12T21:15:00Z,34.3,-90.52,12.0,12.0,140,9,,10.0,29.911417,,,TRUE,TRUE,,,,,,,OVC,800,,,,,,,IFR,,,,,,,,,,,,SPECI,53.0
KRRL 122115Z AUTO 09008KT 10SM OVC009 M04/M05 A3042 RMK AO2 T10381052 TSNO,KRRL,2019-01-12T21:15:00Z,45.2,-89.72,-3.8,-5.2,90,8,,10.0,30.41929,,,TRUE,TRUE,,,TRUE,,,,OVC,900,,,,,,,IFR,,,,,,,,,,,,SPECI,401.0
KRPD 122115Z AUTO 07007KT 10SM OVC017 M01/M04 A3040 RMK AO2 T10101042,KRPD,2019-01-12T21:15:00Z,45.42,-91.77,-1.0,-4.2,70,7,,10.0,30.398623,,,TRUE,TRUE,,,,,,,OVC,1700,,,,,,,MVFR,,,,,,,,,,,,SPECI,338.0
KIFA 122115Z AUTO 05007KT 2 1/2SM -SN BKN007 OVC029 M01/M02 A3027 RMK AO2 T10081020,KIFA,2019-01-12T21:15:00Z,42.47,-93.27,-0.8,-2.0,50,7,,2.5,30.268702,,,TRUE,TRUE,,,,,,-SN,BKN,700,OVC,2900,,,,,IFR,,,,,,,,,,,,SPECI,347.0
KEGV 122115Z AUTO 11007KT 10SM OVC017 M05/M09 A3042 RMK AO2 T10501092,KEGV,2019-01-12T21:15:00Z,45.93,-89.27,-5.0,-9.2,110,7,,10.0,30.41929,,,TRUE,TRUE,,,,,,,OVC,1700,,,,,,,MVFR,,,,,,,,,,,,SPECI,500.0
KCLI 122115Z AUTO 06008KT 10SM OVC015 M02/M05 A3044 RMK AO2 T10231050,KCLI,2019-01-12T21:15:00Z,44.62,-88.73,-2.3,-5.0,60,8,,10.0,30.43996,,,TRUE,TRUE,,,,,,,OVC,1500,,,,,,,MVFR,,,,,,,,,,,,SPECI,250.0
KUNU 122115Z AUTO 07010KT 10SM OVC025 M01/M05 A3036 RMK AO2 T10071052 TSNO,KUNU,2019-01-12T21:15:00Z,43.42,-88.7,-0.7,-5.2,70,10,,10.0,30.360237,,,TRUE,TRUE,,,TRUE,,,,OVC,2500,,,,,,,MVFR,,,,,,,,,,,,SPECI,285.0
KMAO 122115Z AUTO 04008KT 10SM OVC070 06/M04 A3037 RMK AO2,KMAO,2019-01-12T21:15:00Z,34.18,-79.33,6.0,-4.0,40,8,,10.0,30.369095,,,TRUE,TRUE,,,,,,,OVC,7000,,,,,,,VFR,,,,,,,,,,,,METAR,28.0
KGPH 122115Z AUTO 02006KT 1 3/4SM -SN 00/M01 A3008 RMK AO2,KGPH,2019-01-12T21:15:00Z,39.33,-94.32,0.0,-1.0,20,6,,1.75,30.079725,,,TRUE,TRUE,,,,,,-SN,,,,,,,,,,,,,,,,,,,,,METAR,235.0
KDCM 122115Z AUTO 04007KT 10SM OVC020 03/M04 A3035 RMK AO2,KDCM,2019-01-12T21:15:00Z,34.78,-81.2,3.0,-4.0,40,7,,10.0,30.351377,,,TRUE,TRUE,,,,,,,OVC,2000,,,,,,,MVFR,,,,,,,,,,,,METAR,200.0
KLQK 122115Z AUTO 07006KT 5SM -RA OVC036 03/M02 A3028 RMK AO2 T00301016,KLQK,2019-01-12T21:15:00Z,34.82,-82.7,3.0,-1.6,70,6,,5.0,30.280512,,,TRUE,TRUE,,,,,,-RA,OVC,3600,,,,,,,MVFR,,,,,,,,,,,,METAR,309.0
KLUL 122115Z AUTO 22003KT 3SM BKN007 OVC010 A2997 RMK AO2 P0002,KLUL,2019-01-12T21:15:00Z,31.67,-89.17,,,220,3,,3.0,29.970472,,,TRUE,TRUE,,,,,,,BKN,700,OVC,1000,,,,,IFR,,,,,,0.02,,,,,,METAR,73.0
KPGV 122115Z AUTO 06003KT 10SM SCT045 SCT120 06/M05 A3044 RMK AO2,KPGV,2019-01-12T21:15:00Z,35.62,-77.4,6.0,-5.0,60,3,,10.0,30.43996,,,TRUE,TRUE,,,,,,,SCT,4500,SCT,12000,,,,,VFR,,,,,,,,,,,,METAR,8.0
KPLD 122115Z AUTO 09003KT 1/2SM -SN BKN005 OVC010 M01/M01 A3026 RMK AO2,KPLD,2019-01-12T21:15:00Z,40.45,-84.98,-1.0,-1.0,90,3,,0.5,30.259842,,,TRUE,TRUE,,,,,,-SN,BKN,500,OVC,1000,,,,,LIFR,,,,,,,,,,,,SPECI,282.0
KSPA 122115Z AUTO 05009KT 10SM SCT031 OVC036 03/M06 A3032 RMK AO2,KSPA,2019-01-12T21:15:00Z,34.92,-81.93,3.0,-6.0,50,9,,10.0,30.318897,,,TRUE,TRUE,,,,,,,SCT,3100,OVC,3600,,,,,VFR,,,,,,,,,,,,METAR,303.0
KPBH 122115Z AUTO 10009KT 10SM OVC009 M04/M05 A3040 RMK AO2 T10421051,KPBH,2019-01-12T21:15:00Z,45.7,-90.4,-4.2,-5.1,100,9,,10.0,30.398623,,,TRUE,TRUE,,,,,,,OVC,900,,,,,,,IFR,,,,,,,,,,,,SPECI,449.0
KSUW 122115Z AUTO 08007KT 10SM SCT018 OVC039 M02/M05 A3045 RMK AO2 T10171055,KSUW,2019-01-12T21:15:00Z,46.68,-92.1,-1.7,-5.5,80,7,,10.0,30.448818,,,TRUE,TRUE,,,,,,,SCT,1800,OVC,3900,,,,,VFR,,,,,,,,,,,,SPECI,206.0
KLUX 122115Z AUTO 04007KT 10SM OVC020 03/M03 A3031 RMK AO2,KLUX,2019-01-12T21:15:00Z,34.5,-81.95,3.0,-3.0,40,7,,10.0,30.31004,,,TRUE,TRUE,,,,,,,OVC,2000,,,,,,,MVFR,,,,,,,,,,,,SPECI,213.0
KOIN 122115Z AUTO 35010KT 10SM OVC009 M01/M03 A3027 RMK AO1 T10131029,KOIN,2019-01-12T21:15:00Z,39.83,-100.53,-1.3,-2.9,350,10,,10.0,30.268702,,,TRUE,TRUE,,,,,,,OVC,900,,,,,,,IFR,,,,,,,,,,,,SPECI,824.0
KVNC 122115Z AUTO 18006KT CLR 25/16 A3015 RMK AO2,KVNC,2019-01-12T21:15:00Z,27.07,-82.43,25.0,16.0,180,6,,,30.15059,,,TRUE,TRUE,,,,,,,CLR,,,,,,,,,,,,,,,,,,,,SPECI,6.0
KGEV 122115Z AUTO 15004KT 10SM OVC020 M02/M07 A3026 RMK AO2 T10161074,KGEV,2019-01-12T21:15:00Z,36.43,-81.42,-1.6,-7.4,150,4,,10.0,30.259842,,,TRUE,TRUE,,,,,,,OVC,2000,,,,,,,MVFR,,,,,,,,,,,,SPECI,969.0
KEOE 122115Z AUTO 03005KT 10SM OVC018 04/M02 A3035 RMK AO2,KEOE,2019-01-12T21:15:00Z,34.32,-81.63,4.0,-2.0,30,5,,10.0,30.351377,,,TRUE,TRUE,,,,,,,OVC,1800,,,,,,,MVFR,,,,,,,,,,,,METAR,174.0
KDYA 122115Z AUTO 14008KT 7SM -RA BKN010 OVC014 13/12 A2998 RMK AO2 T01270117,KDYA,2019-01-12T21:15:00Z,32.47,-87.95,12.7,11.7,140,8,,7.0,29.97933,,,TRUE,TRUE,,,,,,-RA,BKN,1000,OVC,1400,,,,,MVFR,,,,,,,,,,,,METAR,34.0
KPRO 122115Z AUTO 04010KT 2SM -SN OVC007 M01/M02 A3024 RMK AO2 T10101016,KPRO,2019-01-12T21:15:00Z,41.83,-94.17,-1.0,-1.6,40,10,,2.0,30.239174,,,TRUE,TRUE,,,,,,-SN,OVC,700,,,,,,,IFR,,,,,,,,,,,,METAR,308.0
KMNI 122115Z AUTO 08005KT 10SM OVC075 08/01 A3034 RMK AO2,KMNI,2019-01-12T21:15:00Z,33.58,-80.22,8.0,1.0,80,5,,10.0,30.339567,,,TRUE,TRUE,,,,,,,OVC,7500,,,,,,,VFR,,,,,,,,,,,,METAR,32.0
KSPF 122115Z AUTO 33005KT 10SM CLR 05/M02 A3015 RMK AO2 PWINO,KSPF,2019-01-12T21:15:00Z,44.47,-103.77,5.0,-2.0,330,5,,10.0,30.15059,,,TRUE,TRUE,,,,,TRUE,,CLR,,,,,,,,VFR,,,,,,,,,,,,METAR,1188.0
KRCX 122115Z AUTO 08007KT 10SM OVC009 M02/M04 A3042 RMK AO2 T10201037,KRCX,2019-01-12T21:15:00Z,45.5,-91.0,-2.0,-3.7,80,7,,10.0,30.41929,,,TRUE,TRUE,,,,,,,OVC,900,,,,,,,IFR,,,,,,,,,,,,METAR,377.0
KGAF 122115Z AUTO 00000KT 8SM OVC007 M06/M07 A3043 RMK AO2 PWINO,KGAF,2019-01-12T21:15:00Z,48.4,-97.37,-6.0,-7.0,0,0,,8.0,30.431103,,,TRUE,TRUE,,,,,TRUE,,OVC,700,,,,,,,IFR,,,,,,,,,,,,METAR,252.0
KD57 122115Z AUTO 18009KT 10SM OVC012 M08/M12 A3028 RMK AO2 PWINO,KD57,2019-01-12T21:15:00Z,46.82,-101.87,-8.0,-12.0,180,9,,10.0,30.280512,,,TRUE,TRUE,,,,,TRUE,,OVC,1200,,,,,,,MVFR,,,,,,,,,,,,METAR,637.0
KBNL 122115Z AUTO 08008KT 10SM BKN065 OVC080 09/02 A3030 RMK AO2,KBNL,2019-01-12T21:15:00Z,33.25,-81.38,9.0,2.0,80,8,,10.0,30.301182,,,TRUE,TRUE,,,,,,,BKN,6500,OVC,8000,,,,,VFR,,,,,,,,,,,,METAR,75.0
K74V 122115Z AUTO 10004KT 10SM CLR M02/M06 A3025 RMK AO2,K74V,2019-01-12T21:15:00Z,40.28,-110.05,-2.0,-6.0,100,4,,10.0,30.250984,,,TRUE,TRUE,,,,,,,CLR,,,,,,,,VFR,,,,,,,,,,,,SPECI,1576.0
K96D 122115Z AUTO 12005KT 10SM M08/M08 A3039 RMK AO2,K96D,2019-01-12T21:15:00Z,48.93,-97.9,-8.0,-8.0,120,5,,10.0,30.389763,,,TRUE,TRUE,,,,,,,,,,,,,,,,,,,,,,,,,,,SPECI,290.0
KCCA 122115Z AUTO 00000KT 6SM BR OVC003 05/05 A2992 RMK AO2,KCCA,2019-01-12T21:15:00Z,35.6,-92.45,5.0,5.0,0,0,,6.0,29.920275,,,TRUE,TRUE,,,,,,BR,OVC,300,,,,,,,LIFR,,,,,,,,,,,,SPECI,157.0
KVTI 122115Z AUTO 04007KT 1 1/4SM -SN OVC007 M02/M02 A3026 RMK AO2 T10201025,KVTI,2019-01-12T21:15:00Z,42.22,-92.02,-2.0,-2.5,40,7,,1.25,30.259842,,,TRUE,TRUE,,,,,,-SN,OVC,700,,,,,,,IFR,,,,,,,,,,,,SPECI,255.0
KSEM 122115Z AUTO 13010KT 10SM -RA 14/10 A3003 RMK AO2,KSEM,2019-01-12T21:15:00Z,32.35,-86.98,14.0,10.0,130,10,,10.0,30.029528,,,TRUE,TRUE,,,,,,-RA,,,,,,,,,,,,,,,,,,,,,SPECI,51.0
KS32 122115Z AUTO 00000KT 4SM BR OVC003 M06/M06 A3037 RMK AO2,KS32,2019-01-12T21:15:00Z,47.42,-98.1,-6.0,-6.0,0,0,,4.0,30.369095,,,TRUE,TRUE,,,,,,BR,OVC,300,,,,,,,LIFR,,,,,,,,,,,,SPECI,684.0
KPCZ 122115Z AUTO 05009G15KT 10SM BKN009 OVC015 00/M03 A3042 RMK AO2 T10021031,KPCZ,2019-01-12T21:15:00Z,44.33,-89.02,-0.2,-3.1,50,9,15,10.0,30.41929,,,TRUE,TRUE,,,,,,,BKN,900,OVC,1500,,,,,IFR,,,,,,,,,,,,SPECI,252.0
KMCJ 122115Z AUTO 30008G14KT 280V010 10SM CLR 19/05 A3005 RMK A01,KMCJ,2019-01-12T21:15:00Z,29.72,-95.4,19.0,5.0,300,8,14,10.0,30.050198,,,TRUE,TRUE,,,,,,,CLR,,,,,,,,VFR,,,,,,,,,,,,SPECI,69.0
KGGE 122115Z AUTO 07007KT 10SM SCT070 BKN080 10/03 A3034 RMK AO2,KGGE,2019-01-12T21:15:00Z,33.32,-79.32,10.0,3.0,70,7,,10.0,30.339567,,,TRUE,TRUE,,,,,,,SCT,7000,BKN,8000,,,,,VFR,,,,,,,,,,,,SPECI,12.0
KTVY 122115Z AUTO 00000KT 3SM BR SCT012 OVC019 00/M02 A3026 RMK AO2,KTVY,2019-01-12T21:15:00Z,40.62,-112.35,0.0,-2.0,0,0,,3.0,30.259842,,,TRUE,TRUE,,,,,,BR,SCT,1200,OVC,1900,,,,,MVFR,,,,,,,,,,,,METAR,1317.0
KRUG 122115Z AUTO 18004KT 10SM OVC014 M09/M10 A3033 RMK AO2,KRUG,2019-01-12T21:15:00Z,48.38,-100.02,-9.0,-10.0,180,4,,10.0,30.33071,,,TRUE,TRUE,,,,,,,OVC,1400,,,,,,,MVFR,,,,,,,,,,,,METAR,472.0
KMAW 122115Z AUTO 12003KT 2 1/2SM -DZ OVC006 07/06 A2995 RMK AO2,KMAW,2019-01-12T21:15:00Z,36.6,-90.0,7.0,6.0,120,3,,2.5,29.949802,,,TRUE,TRUE,,,,,,-DZ,OVC,600,,,,,,,IFR,,,,,,,,,,,,METAR,90.0
KM25 122115Z AUTO 11009G16KT 10SM SCT011 SCT035 OVC075 06/05 A2996 RMK AO2,KM25,2019-01-12T21:15:00Z,36.77,-88.58,6.0,5.0,110,9,16,10.0,29.958662,,,TRUE,TRUE,,,,,,,SCT,1100,SCT,3500,OVC,7500,,,VFR,,,,,,,,,,,,METAR,160.0
KLUM 122115Z AUTO 07009KT 7SM OVC050 M02/M07 A3038 RMK AO2 T10161067,KLUM,2019-01-12T21:15:00Z,44.9,-91.87,-1.6,-6.7,70,9,,7.0,30.380905,,,TRUE,TRUE,,,,,,,OVC,5000,,,,,,,VFR,,,,,,,,,,,,METAR,273.0
KLNL 122115Z AUTO 12008KT 10SM SCT022 OVC029 M04/M10 A3044 RMK AO2 T10451102,KLNL,2019-01-12T21:15:00Z,46.15,-89.22,-4.5,-10.2,120,8,,10.0,30.43996,,,TRUE,TRUE,,,,,,,SCT,2200,OVC,2900,,,,,MVFR,,,,,,,,,,,,METAR,520.0
KLKR 122115Z AUTO 05006KT 10SM OVC055 04/M07 A3035 RMK AO2,KLKR,2019-01-12T21:15:00Z,34.72,-80.85,4.0,-7.0,50,6,,10.0,30.351377,,,TRUE,TRUE,,,,,,,OVC,5500,,,,,,,VFR,,,,,,,,,,,,METAR,149.0
KLBO 122115Z AUTO 02003KT 1/2SM FG OVC002 01/00 A2994 RMK AO2,KLBO,2019-01-12T21:15:00Z,37.65,-92.65,1.0,0.0,20,3,,0.5,29.940945,,,TRUE,TRUE,,,,,,FG,OVC,200,,,,,,,LIFR,,,,,,,,,,,,METAR,403.0
KJSO 122115Z AUTO 30012G19KT 10SM SCT038 10/03 A3007 RMK AO2 T01070037,KJSO,2019-01-12T21:15:00Z,31.87,-95.22,10.7,3.7,300,12,19,10.0,30.070866,,,TRUE,TRUE,,,,,,,SCT,3800,,,,,,,VFR,,,,,,,,,,,,METAR,206.0
KINF 122115Z AUTO 00000KT 10SM BKN065 23/13 A3017 RMK AO2,KINF,2019-01-12T21:15:00Z,28.8,-82.32,23.0,13.0,0,0,,10.0,30.171259,,,TRUE,TRUE,,,,,,,BKN,6500,,,,,,,VFR,,,,,,,,,,,,METAR,15.0
KEOK 122115Z AUTO 05012KT 1/2SM -SN OVC007 M01/M01 A3012 RMK AO2,KEOK,2019-01-12T21:15:00Z,40.47,-91.42,-1.0,-1.0,50,12,,0.5,30.121063,,,TRUE,TRUE,,,,,,-SN,OVC,700,,,,,,,LIFR,,,,,,,,,,,,METAR,205.0
KCLS 122115Z AUTO 00000KT 7SM CLR 11/06 A2999 RMK AO2,KCLS,2019-01-12T21:15:00Z,46.68,-122.98,11.0,6.0,0,0,,7.0,29.991142,,,TRUE,TRUE,,,,,,,CLR,,,,,,,,VFR,,,,,,,,,,,,METAR,54.0
KCKI 122115Z AUTO 04003KT 10SM OVC080 08/M02 A3035 RMK AO2,KCKI,2019-01-12T21:15:00Z,33.72,-79.85,8.0,-2.0,40,3,,10.0,30.351377,,,TRUE,TRUE,,,,,,,OVC,8000,,,,,,,VFR,,,,,,,,,,,,METAR,21.0
K2J9 122115Z AUTO 17015KT 10SM BKN036 BKN043 OVC060 20/12 A3015 RMK AO2,K2J9,2019-01-12T21:15:00Z,30.6,-84.55,20.0,12.0,170,15,,10.0,30.15059,,,TRUE,TRUE,,,,,,,BKN,3600,BKN,4300,OVC,6000,,,VFR,,,,,,,,,,,,METAR,69.0
KNUC 122113Z AUTO 27007KT BKN018 14/ A3001 RMK AO2 T0144 PNO $ ,KNUC,2019-01-12T21:13:00Z,33.02,-118.57,14.4,,270,7,,,30.008858,,,TRUE,TRUE,TRUE,,,,,,BKN,1800,,,,,,,,,,,,,,,,,,,SPECI,55.0
KSKX 122113Z AUTO 00000KT 5SM -SN BR BKN011 BKN019 OVC080 M01/M03 A3019 RMK AO2 UPB06E11SNB11 P0000 FZRANO $,KSKX,2019-01-12T21:13:00Z,36.45,-105.67,-1.0,-3.0,0,0,,5.0,30.188976,,,TRUE,TRUE,TRUE,,,TRUE,,-SN BR,BKN,1100,BKN,1900,OVC,8000,,,MVFR,,,,,,0.005,,,,,,SPECI,2161.0
KIWD 122113Z AUTO 12008KT 10SM BKN027 OVC036 M04/M08 A3045 RMK AO2 FZRANO PNO $,KIWD,2019-01-12T21:13:00Z,46.52,-90.12,-4.0,-8.0,120,8,,10.0,30.448818,,,TRUE,TRUE,TRUE,,,TRUE,,,BKN,2700,OVC,3600,,,,,MVFR,,,,,,,,,,,,SPECI,375.0
KFAM 122113Z AUTO 05007KT 1SM UP BR OVC003 01/01 A2996 RMK AO2 RAE11UPB11 P0000 FZRANO,KFAM,2019-01-12T21:13:00Z,37.77,-90.42,1.0,1.0,50,7,,1.0,29.958662,,,TRUE,TRUE,,,,TRUE,,BR UP,OVC,300,,,,,,,LIFR,,,,,,0.005,,,,,,SPECI,288.0
KBKX 122113Z AUTO 03006KT 8SM BKN011 M03/M06 A3031 RMK AO2 FZRANO,KBKX,2019-01-12T21:13:00Z,44.28,-96.82,-3.0,-6.0,30,6,,8.0,30.31004,,,TRUE,TRUE,,,,TRUE,,,BKN,1100,,,,,,,MVFR,,,,,,,,,,,,SPECI,502.0
CYZS 122112Z 08012KT 15SM IC SCT006 OVC070 M27/M30 A3026 RMK SC3AC5 SLP259,CYZS,2019-01-12T21:12:00Z,64.2,-83.37,-27.0,-30.0,80,12,,15.0,30.259842,1025.9,,,,,,,,,IC,SCT,600,OVC,7000,,,,,VFR,,,,,,,,,,,,SPECI,64.0
KNBG 122112Z 29004KT 3SM -RA BR OVC028 17/17 A3000 RMK AO2 P0002 T01670167 $ ,KNBG,2019-01-12T21:12:00Z,29.82,-90.02,16.7,16.7,290,4,,3.0,30.0,,,,TRUE,TRUE,,,,,-RA BR,OVC,2800,,,,,,,MVFR,,,,,,0.02,,,,,,SPECI,1.0
KBYS 122112Z AUTO 22001KT 4SM RA FEW027 BKN032 07/05 A3005 RMK AO2 SLP204 WND DATA ESTMD,KBYS,2019-01-12T21:12:00Z,35.28,-116.62,7.0,5.0,220,1,,4.0,30.050198,1020.4,,TRUE,TRUE,,,,,,RA,FEW,2700,BKN,3200,,,,,MVFR,,,,,,,,,,,,SPECI,716.0
KMSL 122112Z AUTO 10006KT 1 3/4SM +RA BR SCT023 BKN028 OVC050 08/06 A3002 RMK AO2 P0011 T00780061,KMSL,2019-01-12T21:12:00Z,34.75,-87.6,7.8,6.1,100,6,,1.75,30.02067,,,TRUE,TRUE,,,,,,+RA BR,SCT,2300,BKN,2800,OVC,5000,,,IFR,,,,,,0.11,,,,,,SPECI,164.0
KILN 122112Z AUTO 08008KT 3/4SM -SN BR OVC022 M02/M03 A3024 RMK AO2 P0001 T10171033,KILN,2019-01-12T21:12:00Z,39.43,-83.8,-1.7,-3.3,80,8,,0.75,30.239174,,,TRUE,TRUE,,,,,,-SN BR,OVC,2200,,,,,,,LIFR,,,,,,0.01,,,,,,SPECI,322.0
KHEI 122112Z AUTO 16006KT 1SM BR VV002 M07/M08 A3022 RMK AO2 T10671078,KHEI,2019-01-12T21:12:00Z,46.02,-102.65,-6.7,-7.8,160,6,,1.0,30.221457,,,TRUE,TRUE,,,,,,BR,OVX,0,,,,,,,LIFR,,,,,,,,,,,200,SPECI,828.0
KDVN 122112Z AUTO 07013KT 1/2SM -SN FZFG FEW008 OVC012 M01/M03 A3024 RMK AO2 P0000 T10111028,KDVN,2019-01-12T21:12:00Z,41.62,-90.58,-1.1,-2.8,70,13,,0.5,30.239174,,,TRUE,TRUE,,,,,,-SN FZFG,FEW,800,OVC,1200,,,,,LIFR,,,,,,0.005,,,,,,SPECI,230.0
KCAR 122112Z AUTO 30009KT 10SM SCT027 M14/M19 A3022 RMK AO2 T11391194,KCAR,2019-01-12T21:12:00Z,46.87,-68.02,-13.9,-19.4,300,9,,10.0,30.221457,,,TRUE,TRUE,,,,,,,SCT,2700,,,,,,,VFR,,,,,,,,,,,,SPECI,191.0
KBHK 122112Z AUTO 13007KT 1/2SM FZFG OVC002 M01/M01 A3017 RMK AO2 T10111011,KBHK,2019-01-12T21:12:00Z,46.35,-104.25,-1.1,-1.1,130,7,,0.5,30.171259,,,TRUE,TRUE,,,,,,FZFG,OVC,200,,,,,,,LIFR,,,,,,,,,,,,SPECI,902.0
KAMW 122112Z AUTO 1 1/2SM -SN BR BKN009 OVC036 M02/M03 A3025 RMK AO2 P0000 T10171028,KAMW,2019-01-12T21:12:00Z,41.98,-93.62,-1.7,-2.8,,,,1.5,30.250984,,,TRUE,TRUE,,,,,,-SN BR,BKN,900,OVC,3600,,,,,IFR,,,,,,0.005,,,,,,SPECI,279.0
CWLI 122111Z AUTO 34006KT ////SM //// FEW017 SCT027 BKN034 M27/M29 A////,CWLI,2019-01-12T21:11:00Z,69.58,-130.9,-27.0,-29.0,340,6,,,,,,TRUE,,,,,,,,FEW,1700,SCT,2700,BKN,3400,,,,,,,,,,,,,,,SPECI,102.0
CYVP 122111Z 31006KT 15SM BKN015 M19/M21 A3030 RMK SC5 SLP267,CYVP,2019-01-12T21:11:00Z,58.12,-68.42,-19.0,-21.0,310,6,,15.0,30.301182,1026.7,,,,,,,,,,BKN,1500,,,,,,,MVFR,,,,,,,,,,,,METAR,60.0
KMIB 122111Z AUTO 20011KT 10SM BKN008 OVC013 M09/M12 A3028 RMK AO2 CIG 006V008 SLP295,KMIB,2019-01-12T21:11:00Z,48.42,-101.33,-9.0,-12.0,200,11,,10.0,30.280512,1029.5,,TRUE,TRUE,,,,,,,BKN,800,OVC,1300,,,,,IFR,,,,,,,,,,,,SPECI,508.0
KFAF 122111Z AUTO 03004KT 8SM -RA FEW012 03/M04 M RMK AO2 RAB08 SLPNO $,KFAF,2019-01-12T21:11:00Z,37.12,-76.62,3.0,-4.0,30,4,,8.0,,,,TRUE,TRUE,TRUE,,,,,-RA,FEW,1200,,,,,,,VFR,,,,,,,,,,,,SPECI,4.0
ETIC 122111Z AUTO 25004KT 9999 -RA OVC006 01/01 A2983 RMK AO2 SNE2058RAB2058 SLP124 $,ETIC,2019-01-12T21:11:00Z,49.7,11.93,1.0,1.0,250,4,,6.21,29.828741,1012.4,,TRUE,TRUE,TRUE,,,,,-RA,OVC,600,,,,,,,IFR,,,,,,,,,,,,SPECI,415.0
EGUL 122111Z AUTO 26014KT 9999 OVC020 09/06 A2998 RMK AO2 CIG 017 RWY06 SLP156 $,EGUL,2019-01-12T21:11:00Z,52.42,0.57,9.0,6.0,260,14,,6.21,29.97933,1015.6,,TRUE,TRUE,TRUE,,,,,,OVC,2000,,,,,,,MVFR,,,,,,,,,,,,SPECI,10.0
KTZR 122111Z 09006KT 1/2SM SN OVC005 M02/M02 A3028,KTZR,2019-01-12T21:11:00Z,39.9,-83.13,-2.0,-2.0,90,6,,0.5,30.280512,,,,,,,,,,SN,OVC,500,,,,,,,LIFR,,,,,,,,,,,,SPECI,276.0
KCMI 122111Z 06017KT 5SM BR BKN007 OVC018 M01/M02 A3013 RMK AO2 P0001 T10061017,KCMI,2019-01-12T21:11:00Z,40.03,-88.27,-0.6,-1.7,60,17,,5.0,30.129921,,,,TRUE,,,,,,BR,BKN,700,OVC,1800,,,,,IFR,,,,,,0.01,,,,,,SPECI,228.0
KDMO 122111Z AUTO 03008KT 1 3/4SM -SN BR BKN004 OVC008 M01/M01 A3001 RMK AO2 P0000 T10111011 $,KDMO,2019-01-12T21:11:00Z,38.72,-93.17,-1.1,-1.1,30,8,,1.75,30.008858,,,TRUE,TRUE,TRUE,,,,,-SN BR,BKN,400,OVC,800,,,,,LIFR,,,,,,0.005,,,,,,SPECI,274.0
KCPS 122111Z 07007KT 3SM -RA BR OVC008 01/00 A3003 RMK AO2 P0001 T00110000,KCPS,2019-01-12T21:11:00Z,38.57,-90.15,1.1,0.0,70,7,,3.0,30.029528,,,,TRUE,,,,,,-RA BR,OVC,800,,,,,,,IFR,,,,,,0.01,,,,,,SPECI,126.0
TXKF 122111Z 36009KT 9999 VCSH SCT014 BKN042 BKN300 17/12 Q1026 ,TXKF,2019-01-12T21:11:00Z,32.37,-64.68,17.0,12.0,360,9,,6.21,30.295275,,,,,,,,,,VCSH,SCT,1400,BKN,4200,BKN,30000,,,VFR,,,,,,,,,,,,SPECI,6.0
KUIN 122111Z AUTO 06013KT 1/2SM SN FG OVC006 00/M02 A3008 RMK AO2 P0002 T00001017,KUIN,2019-01-12T21:11:00Z,39.95,-91.2,0.0,-1.7,60,13,,0.5,30.079725,,,TRUE,TRUE,,,,,,SN FG,OVC,600,,,,,,,LIFR,,,,,,0.02,,,,,,SPECI,234.0
KROA 122111Z 13004KT 10SM SCT008 BKN014 OVC026 M02/M03 A3041 RMK AO2 T10171033,KROA,2019-01-12T21:11:00Z,37.32,-79.97,-1.7,-3.3,130,4,,10.0,30.410433,,,,TRUE,,,,,,,SCT,800,BKN,1400,OVC,2600,,,MVFR,,,,,,,,,,,,SPECI,362.0
KPIT 122111Z 09004KT 1 1/2SM -SN BR SCT007 OVC014 M04/M05 A3034 RMK AO2 P0001 T10391050 $,KPIT,2019-01-12T21:11:00Z,40.5,-80.27,-3.9,-5.0,90,4,,1.5,30.339567,,,,TRUE,TRUE,,,,,-SN BR,SCT,700,OVC,1400,,,,,IFR,,,,,,0.01,,,,,,SPECI,357.0
KOWA 122111Z AUTO 07009KT 7SM OVC055 M01/M04 A3033 RMK AO2,KOWA,2019-01-12T21:11:00Z,44.12,-93.25,-1.0,-4.0,70,9,,7.0,30.33071,,,TRUE,TRUE,,,,,,,OVC,5500,,,,,,,VFR,,,,,,,,,,,,SPECI,350.0
KMFI 122111Z AUTO 10012KT 5SM BR OVC006 M02/M03 A3037 RMK AO2 T10171028,KMFI,2019-01-12T21:11:00Z,44.63,-90.18,-1.7,-2.8,100,12,,5.0,30.369095,,,TRUE,TRUE,,,,,,BR,OVC,600,,,,,,,IFR,,,,,,,,,,,,SPECI,389.0
KHHR 122111Z 11004KT 1 1/4SM HZ OVC022 15/11 A2999 RMK AO2 T01500106 $,KHHR,2019-01-12T21:11:00Z,33.92,-118.33,15.0,10.6,110,4,,1.25,29.991142,,,,TRUE,TRUE,,,,,HZ,OVC,2200,,,,,,,IFR,,,,,,,,,,,,SPECI,18.0
KFSM 122111Z 26007KT 1 3/4SM BR BKN006 OVC012 06/04 A2996 RMK AO2 T00610044,KFSM,2019-01-12T21:11:00Z,35.33,-94.37,6.1,4.4,260,7,,1.75,29.958662,,,,TRUE,,,,,,BR,BKN,600,OVC,1200,,,,,IFR,,,,,,,,,,,,SPECI,140.0
PPIT 122111Z AUTO 05027G32KT BKN004 OVC009 M26/M28 A2953 RMK AO2 PK WND 06034/2059 PWINO FZRANO TSNO $,PPIT,2019-01-12T21:11:00Z,60.9,-162.43,-26.0,-28.0,50,27,32,,29.530512,,,TRUE,TRUE,TRUE,,TRUE,TRUE,TRUE,,BKN,400,OVC,900,,,,,,,,,,,,,,,,,SPECI,4.0
KSOP 122111Z AUTO 05007KT 10SM BKN026 OVC050 04/M07 A3040 RMK AO2,KSOP,2019-01-12T21:11:00Z,35.22,-79.4,4.0,-7.0,50,7,,10.0,30.398623,,,TRUE,TRUE,,,,,,,BKN,2600,OVC,5000,,,,,MVFR,,,,,,,,,,,,SPECI,141.0
KGPZ 122111Z AUTO 00000KT 10SM FEW008 OVC013 M04/M05 A3041 RMK AO2 FZRANO,KGPZ,2019-01-12T21:11:00Z,47.22,-93.52,-4.0,-5.0,0,0,,10.0,30.410433,,,TRUE,TRUE,,,,TRUE,,,FEW,800,OVC,1300,,,,,MVFR,,,,,,,,,,,,SPECI,413.0
KSTK 122110Z AUTO 35007KT 10SM SCT042 07/M01 A3015 RMK AO2,KSTK,2019-01-12T21:10:00Z,40.62,-103.27,7.0,-1.0,350,7,,10.0,30.15059,,,TRUE,TRUE,,,,,,,SCT,4200,,,,,,,VFR,,,,,,,,,,,,METAR,1231.0
KIPJ 122110Z AUTO 03005KT 10SM OVC040 03/M04 A3036 RMK AO2 T00321039,KIPJ,2019-01-12T21:10:00Z,35.48,-81.17,3.2,-3.9,30,5,,10.0,30.360237,,,TRUE,TRUE,,,,,,,OVC,4000,,,,,,,VFR,,,,,,,,,,,,METAR,267.0
KJNX 122110Z AUTO 05005KT 10SM BKN110 05/M03 A3044 RMK AO2,KJNX,2019-01-12T21:10:00Z,35.53,-78.38,5.0,-3.0,50,5,,10.0,30.43996,,,TRUE,TRUE,,,,,,,BKN,11000,,,,,,,VFR,,,,,,,,,,,,METAR,50.0
KSIF 122110Z AUTO 10SM BKN050 OVC065 01/M03 A3042 RMK AO2 T00101032,KSIF,2019-01-12T21:10:00Z,36.43,-79.85,1.0,-3.2,,,,10.0,30.41929,,,TRUE,TRUE,,,,,,,BKN,5000,OVC,6500,,,,,VFR,,,,,,,,,,,,METAR,211.0
K2G4 122110Z AUTO 12010KT 1 1/2SM OVC007 M05/M06 A3024 RMK AO1,K2G4,2019-01-12T21:10:00Z,39.58,-79.33,-5.0,-6.0,120,10,,1.5,30.239174,,,TRUE,TRUE,,,,,,,OVC,700,,,,,,,IFR,,,,,,,,,,,,SPECI,894.0
K7N0 122110Z AUTO 18004KT 6SM -RA BR FEW009 BKN029 OVC060 17/16 A3000 RMK AO2 P0001,K7N0,2019-01-12T21:10:00Z,29.95,-90.07,17.0,16.0,180,4,,6.0,30.0,,,TRUE,TRUE,,,,,,-RA BR,FEW,900,BKN,2900,OVC,6000,,,MVFR,,,,,,0.01,,,,,,METAR,0.0
CYMO 122110Z AUTO 25007KT 9SM SCT013 M21/M23 A3068 RMK SLP392,CYMO,2019-01-12T21:10:00Z,51.28,-80.62,-21.0,-23.0,250,7,,9.0,30.679134,1039.2,,TRUE,,,,,,,,SCT,1300,,,,,,,VFR,,,,,,,,,,,,SPECI,10.0
CYZP 122110Z AUTO 12020KT 3SM -RA BR BKN007 OVC013 08/07 A2972 RMK SLP066,CYZP,2019-01-12T21:10:00Z,53.25,-131.82,8.0,7.0,120,20,,3.0,29.719488,1006.6,,TRUE,,,,,,,-RA BR,BKN,700,OVC,1300,,,,,IFR,,,,,,,,,,,,SPECI,6.0
CYPD 122110Z AUTO 27011G19KT 9SM OVC027 M10/M15 A3006 RMK SLP190,CYPD,2019-01-12T21:10:00Z,45.67,-61.37,-10.0,-15.0,270,11,19,9.0,30.059055,1019.0,,TRUE,,,,,,,,OVC,2700,,,,,,,MVFR,,,,,,,,,,,,SPECI,114.0
KQFT 122110Z AUTO 07001KT 3200 BR CLR M07/M08 A3027 RMK A02 TSNO,KQFT,2019-01-12T21:10:00Z,,,-7.0,-8.0,70,1,,1.99,30.268702,,,TRUE,TRUE,,,TRUE,,,BR,CLR,,,,,,,,IFR,,,,,,,,,,,,METAR,
KQFB 122110Z AUTO 29003KT M0400 FZFG CLR M05/M05 A3027 RMK A02 TSNO,KQFB,2019-01-12T21:10:00Z,,,-5.0,-5.0,290,3,,0.25,30.268702,,,TRUE,TRUE,,,TRUE,,,FZFG,CLR,,,,,,,,LIFR,,,,,,,,,,,,METAR,
KQEY 122110Z AUTO 08001KT M0400 FZFG CLR M04/M04 A2995 RMK A02 TSNO,KQEY,2019-01-12T21:10:00Z,,,-4.0,-4.0,80,1,,0.25,29.949802,,,TRUE,TRUE,,,TRUE,,,FZFG,CLR,,,,,,,,LIFR,,,,,,,,,,,,METAR,
KQEW 122110Z AUTO 34002KT M0400 FZFG CLR M05/M05 A3024 RMK A02 TSNO,KQEW,2019-01-12T21:10:00Z,,,-5.0,-5.0,340,2,,0.25,30.239174,,,TRUE,TRUE,,,TRUE,,,FZFG,CLR,,,,,,,,LIFR,,,,,,,,,,,,METAR,
KQEV 122110Z AUTO 21001KT 2000 BR CLR M05/M07 A3024 RMK A02 TSNO,KQEV,2019-01-12T21:10:00Z,,,-5.0,-7.0,210,1,,1.24,30.239174,,,TRUE,TRUE,,,TRUE,,,BR,CLR,,,,,,,,IFR,,,,,,,,,,,,METAR,
KQES 122110Z AUTO 17006KT 2000 BR OVC012 M03/M04 A3030 RMK A02 TSNO,KQES,2019-01-12T21:10:00Z,,,-3.0,-4.0,170,6,,1.24,30.301182,,,TRUE,TRUE,,,TRUE,,,BR,OVC,1200,,,,,,,IFR,,,,,,,,,,,,METAR,
KQER 122110Z AUTO 13001KT 4000 BR CLR M09/M11 A3021 RMK A02 TSNO,KQER,2019-01-12T21:10:00Z,,,-9.0,-11.0,130,1,,2.49,30.209646,,,TRUE,TRUE,,,TRUE,,,BR,CLR,,,,,,,,IFR,,,,,,,,,,,,METAR,
KQFX 122110Z AUTO 00000KT 2000 BR CLR M07/M08 A3026 RMK A02 TSNO,KQFX,2019-01-12T21:10:00Z,,,-7.0,-8.0,0,0,,1.24,30.259842,,,TRUE,TRUE,,,TRUE,,,BR,CLR,,,,,,,,IFR,,,,,,,,,,,,METAR,
KQFW 122110Z AUTO 23001KT 2000 // CLR M07/M08 A3028 RMK A02 TSNO,KQFW,2019-01-12T21:10:00Z,,,-7.0,-8.0,230,1,,1.24,30.280512,,,TRUE,TRUE,,,TRUE,,,,CLR,,,,,,,,IFR,,,,,,,,,,,,METAR,
KQFV 122110Z AUTO 00000KT 2800 // CLR M10/M11 A3026 RMK A02 TSNO,KQFV,2019-01-12T21:10:00Z,,,-10.0,-11.0,0,0,,1.74,30.259842,,,TRUE,TRUE,,,TRUE,,,,CLR,,,,,,,,IFR,,,,,,,,,,,,METAR,
RJOA 122110Z 02005KT 9999 FEW010 02/M01 Q1019 RMK 1CU010 A3010,RJOA,2019-01-12T21:10:00Z,34.42,132.92,2.0,-1.0,20,5,,6.21,30.088583,,,,,,,,,,,FEW,1000,,,,,,,VFR,,,,,,,,,,,,SPECI,6.0
RJFT 122110Z 00000KT 8000 SCT025 BKN030 07/07 Q1019 RMK 3CU025 7CU030 A3011,RJFT,2019-01-12T21:10:00Z,32.82,130.83,7.0,7.0,0,0,,4.97,30.088583,,,,,,,,,,,SCT,2500,BKN,3000,,,,,MVFR,,,,,,,,,,,,SPECI,196.0
ETIK 122110Z AUTO 24018G24KT 9999 -UP SCT010 BKN016 OVC029 02/02 A2991 RMK AO2 UPB00 CIG 012V016 SLP145 $,ETIK,2019-01-12T21:10:00Z,49.47,10.37,2.0,2.0,240,18,24,6.21,29.911417,1014.5,,TRUE,TRUE,TRUE,,,,,UP,SCT,1000,BKN,1600,OVC,2900,,,MVFR,,,,,,,,,,,,SPECI,325.0
KQEN 122110Z AUTO 28001KT 3200 BR CLR M08/M08 A3013 RMK A02 TSNO,KQEN,2019-01-12T21:10:00Z,,,-8.0,-8.0,280,1,,1.99,30.129921,,,TRUE,TRUE,,,TRUE,,,BR,CLR,,,,,,,,IFR,,,,,,,,,,,,METAR,
KQEL 122110Z AUTO 00000KT 3200 BR CLR M08/M09 A3036 RMK A02 TSNO,KQEL,2019-01-12T21:10:00Z,,,-8.0,-9.0,0,0,,1.99,30.360237,,,TRUE,TRUE,,,TRUE,,,BR,CLR,,,,,,,,IFR,,,,,,,,,,,,METAR,
KNMM 122110Z AUTO 00000KT 1 3/4SM RA BR OVC003 13/12 A2998 RMK AO2 P0003 T01280122 CHINO SOUTH VISNO SOUTH $,KNMM,2019-01-12T21:10:00Z,32.53,-88.57,12.8,12.2,0,0,,1.75,29.97933,,,TRUE,TRUE,TRUE,,,,,RA BR,OVC,300,,,,,,,LIFR,,,,,,0.03,,,,,,SPECI,97.0
KNSI 122110Z AUTO 29008KT 10SM SCT021 16/ A2998 RMK AO2 T0156 PNO $,KNSI,2019-01-12T21:10:00Z,33.22,-119.45,15.6,,290,8,,10.0,29.97933,,,TRUE,TRUE,TRUE,,,,,,SCT,2100,,,,,,,VFR,,,,,,,,,,,,SPECI,154.0
KSPW 122110Z AUTO 05008KT 8SM OVC015 00/M04 A3029 RMK AO2 T00001039,KSPW,2019-01-12T21:10:00Z,43.17,-95.22,0.0,-3.9,50,8,,8.0,30.28937,,,TRUE,TRUE,,,,,,,OVC,1500,,,,,,,MVFR,,,,,,,,,,,,SPECI,403.0
KPHD 122110Z AUTO 06004KT 3/4SM -SN BR VV019 M03/M04 A3035 RMK AO2 P0001 T10281044,KPHD,2019-01-12T21:10:00Z,40.47,-81.42,-2.8,-4.4,60,4,,0.75,30.351377,,,TRUE,TRUE,,,,,,-SN BR,OVX,0,,,,,,,LIFR,,,,,,0.01,,,,,1900,SPECI,272.0
KILM 122110Z 02010KT 10SM BKN023 OVC070 07/M02 A3040 RMK AO2 T00721022,KILM,2019-01-12T21:10:00Z,34.27,-77.9,7.2,-2.2,20,10,,10.0,30.398623,,,,TRUE,,,,,,,BKN,2300,OVC,7000,,,,,MVFR,,,,,,,,,,,,SPECI,9.0
KAVX 122110Z AUTO VRB04KT 3SM BR SCT003 SCT008 BKN014 12/11 A2999 RMK AO2 T01220111,KAVX,2019-01-12T21:10:00Z,33.4,-118.42,12.2,11.1,0,4,,3.0,29.991142,,,TRUE,TRUE,,,,,,BR,SCT,300,SCT,800,BKN,1400,,,MVFR,,,,,,,,,,,,SPECI,482.0
CYDL 122109Z AUTO 00000KT 9SM CLR M12/M14 A2992 RMK SLP187,CYDL,2019-01-12T21:09:00Z,58.42,-130.02,-12.0,-14.0,0,0,,9.0,29.920275,1018.7,,TRUE,,,,,,,,CLR,,,,,,,,VFR,,,,,,,,,,,,SPECI,816.0
YGEL 122109Z AUTO 19008KT 9999 // BKN015 19/17 Q1012 RF00.0/000.0,YGEL,2019-01-12T21:09:00Z,-28.8,114.7,19.0,17.0,190,8,,6.21,29.88189,,,TRUE,,,,,,,,BKN,1500,,,,,,,MVFR,,,,,,,,,,,,SPECI,37.0
CYTE 122109Z AUTO 11003KT 9SM OVC011 M24/M28 A3038 RMK SLP296,CYTE,2019-01-12T21:09:00Z,64.22,-76.52,-24.0,-28.0,110,3,,9.0,30.380905,1029.6,,TRUE,,,,,,,,OVC,1100,,,,,,,MVFR,,,,,,,,,,,,SPECI,47.0
KARR 122109Z 06013KT 1SM -SN BR SCT008 BKN025 OVC034 M01/M03 A3025 RMK AO2 P0000 T10111028,KARR,2019-01-12T21:09:00Z,41.77,-88.48,-1.1,-2.8,60,13,,1.0,30.250984,,,,TRUE,,,,,,-SN BR,SCT,800,BKN,2500,OVC,3400,,,IFR,,,,,,0.005,,,,,,METAR,215.0
KALW 122109Z 21006KT 1/2SM R20/1800V3000FT FG VV002 01/00 A3020 RMK AO2 T00110000,KALW,2019-01-12T21:09:00Z,46.1,-118.28,1.1,0.0,210,6,,0.5,30.200787,,,,TRUE,,,,,,FG,OVX,0,,,,,,,LIFR,,,,,,,,,,,200,METAR,363.0
KEET 122109Z AUTO VRB03KT 6SM -RA BKN021 OVC039 11/07 A3006 RMK AO2 P0001 T01060067,KEET,2019-01-12T21:09:00Z,33.18,-86.78,10.6,6.7,0,3,,6.0,30.059055,,,TRUE,TRUE,,,,,,-RA,BKN,2100,OVC,3900,,,,,MVFR,,,,,,0.01,,,,,,METAR,173.0
KIXD 122109Z 36014KT 2SM -SN BR OVC009 M01/M02 A3006 RMK AO2 P0000 T10111017 $,KIXD,2019-01-12T21:09:00Z,38.82,-94.88,-1.1,-1.7,360,14,,2.0,30.059055,,,,TRUE,TRUE,,,,,-SN BR,OVC,900,,,,,,,IFR,,,,,,0.005,,,,,,METAR,342.0
KHRO 122109Z AUTO 35003KT 1 1/2SM BR OVC003 03/02 A2991 RMK AO2 T00280022,KHRO,2019-01-12T21:09:00Z,36.27,-93.15,2.8,2.2,350,3,,1.5,29.911417,,,TRUE,TRUE,,,,,,BR,OVC,300,,,,,,,LIFR,,,,,,,,,,,,METAR,417.0
KHLC 122109Z AUTO 36017KT 4SM BR SCT011 BKN025 OVC031 M01/M03 A3023 RMK AO2 T10111033 $,KHLC,2019-01-12T21:09:00Z,39.37,-99.83,-1.1,-3.3,360,17,,4.0,30.230314,,,TRUE,TRUE,TRUE,,,,,BR,SCT,1100,BKN,2500,OVC,3100,,,MVFR,,,,,,,,,,,,METAR,669.0
KFDY 122109Z AUTO 06013KT 1 1/4SM -SN BR OVC021 M02/M04 A3031 RMK AO2 P0000 T10221044,KFDY,2019-01-12T21:09:00Z,41.02,-83.67,-2.2,-4.4,60,13,,1.25,30.31004,,,TRUE,TRUE,,,,,,-SN BR,OVC,2100,,,,,,,IFR,,,,,,0.005,,,,,,METAR,247.0
KLHQ 122109Z AUTO 10006KT 3/4SM -SN BR SCT008 OVC018 M02/M03 A3029 RMK AO2 P0000 T10171028,KLHQ,2019-01-12T21:09:00Z,39.75,-82.67,-1.7,-2.8,100,6,,0.75,30.28937,,,TRUE,TRUE,,,,,,-SN BR,SCT,800,OVC,1800,,,,,LIFR,,,,,,0.005,,,,,,METAR,260.0
KLYH 122109Z 19003KT 4SM -SN BR FEW006 BKN015 OVC026 M02/M03 A3042 RMK AO2 P0000 T10171028,KLYH,2019-01-12T21:09:00Z,37.32,-79.2,-1.7,-2.8,190,3,,4.0,30.41929,,,,TRUE,,,,,,-SN BR,FEW,600,BKN,1500,OVC,2600,,,MVFR,,,,,,0.005,,,,,,METAR,295.0
KLUK 122109Z 04005KT 6SM -RA BR BKN010 BKN043 OVC060 01/M01 A3025 RMK AO2 UPB2059E03 P0001 T00061006,KLUK,2019-01-12T21:09:00Z,39.1,-84.42,0.6,-0.6,40,5,,6.0,30.250984,,,,TRUE,,,,,,-RA BR,BKN,1000,BKN,4300,OVC,6000,,,MVFR,,,,,,0.01,,,,,,METAR,155.0
KMCB 122109Z AUTO 24005KT 9SM BKN009 BKN013 OVC027 17/16 A2995 RMK AO2 CIG 007V011 T01720156,KMCB,2019-01-12T21:09:00Z,31.18,-90.47,17.2,15.6,240,5,,9.0,29.949802,,,TRUE,TRUE,,,,,,,BKN,900,BKN,1300,OVC,2700,,,IFR,,,,,,,,,,,,METAR,124.0
KTUP 122109Z 17006KT 2 1/2SM -RA BR OVC005 09/08 A2997 RMK AO2 P0001 T00940083,KTUP,2019-01-12T21:09:00Z,34.27,-88.77,9.4,8.3,170,6,,2.5,29.970472,,,,TRUE,,,,,,-RA BR,OVC,500,,,,,,,IFR,,,,,,0.01,,,,,,SPECI,105.0
KPIB 122109Z AUTO VRB03KT 4SM -RA BR OVC004 15/14 A2998 RMK AO2 P0000,KPIB,2019-01-12T21:09:00Z,31.47,-89.32,15.0,14.0,0,3,,4.0,29.97933,,,TRUE,TRUE,,,,,,-RA BR,OVC,400,,,,,,,LIFR,,,,,,0.005,,,,,,METAR,91.0
PATL 122109Z AUTO 09003KT 10SM -SHSN OVC065 M29/M32 A2977 RMK AO2 SLP144,PATL,2019-01-12T21:09:00Z,62.9,-155.97,-29.0,-32.0,90,3,,10.0,29.769686,1014.4,,TRUE,TRUE,,,,,,-SHSN,OVC,6500,,,,,,,VFR,,,,,,,,,,,,SPECI,294.0
EHKD 122109Z AUTO 28014KT 250V320 9999 FEW011 SCT033 OVC050 08/07 Q1011 BLU,EHKD,2019-01-12T21:09:00Z,52.92,4.77,8.0,7.0,280,14,,6.21,29.852362,,,TRUE,,,,,,,,FEW,1100,SCT,3300,OVC,5000,,,VFR,,,,,,,,,,,,SPECI,14.0
CYNA 122108Z AUTO 30005KT 9SM -SN BKN032 OVC041 M04/M05 A2982 RMK SLP101,CYNA,2019-01-12T21:08:00Z,50.17,-61.82,-4.0,-5.0,300,5,,9.0,29.819881,1010.1,,TRUE,,,,,,,-SN,BKN,3200,OVC,4100,,,,,VFR,,,,,,,,,,,,SPECI,11.0
CZUM 122108Z AUTO 30013G18KT 5SM -SN BKN026 OVC044 M15/M18 A2988 RMK SLP160,CZUM,2019-01-12T21:08:00Z,53.53,-64.08,-15.0,-18.0,300,13,18,5.0,29.878937,1016.0,,TRUE,,,,,,,-SN,BKN,2600,OVC,4400,,,,,MVFR,,,,,,,,,,,,SPECI,440.0
KYKN 122108Z AUTO 33010KT 3SM BR OVC004 M04/M05 A3032 RMK AO2 FZRANO,KYKN,2019-01-12T21:08:00Z,42.92,-97.37,-4.0,-5.0,330,10,,3.0,30.318897,,,TRUE,TRUE,,,,TRUE,,BR,OVC,400,,,,,,,LIFR,,,,,,,,,,,,SPECI,398.0
KSUE 122108Z AUTO 05009KT 10SM BKN020 OVC039 M02/M06 A3047 RMK AO2 FZRANO,KSUE,2019-01-12T21:08:00Z,44.85,-87.42,-2.0,-6.0,50,9,,10.0,30.469488,,,TRUE,TRUE,,,,TRUE,,,BKN,2000,OVC,3900,,,,,MVFR,,,,,,,,,,,,SPECI,221.0
KPVU 122108Z 01004KT 4SM HZ OVC015 M01/M04 A3025 RMK AO2,KPVU,2019-01-12T21:08:00Z,40.22,-111.72,-1.0,-4.0,10,4,,4.0,30.250984,,,,TRUE,,,,,,HZ,OVC,1500,,,,,,,MVFR,,,,,,,,,,,,SPECI,1369.0
PASL 122108Z AUTO 00000KT 1 3/4SM -SN SCT026 OVC035 M29/M32 A2979 RMK AO2 P0000 FZRANO,PASL,2019-01-12T21:08:00Z,61.72,-157.15,-29.0,-32.0,0,0,,1.75,29.790354,,,TRUE,TRUE,,,,TRUE,,-SN,SCT,2600,OVC,3500,,,,,IFR,,,,,,0.005,,,,,,SPECI,55.0
PAGM 122108Z AUTO 03027G30KT 5SM HZ BKN012 M24/M27 A2991 RMK AO2 PK WND 02031/2107 FZRANO,PAGM,2019-01-12T21:08:00Z,63.77,-171.73,-24.0,-27.0,30,27,30,5.0,29.911417,,,TRUE,TRUE,,,,TRUE,,HZ,BKN,1200,,,,,,,MVFR,,,,,,,,,,,,SPECI,8.0
PABL 122108Z AUTO 00000KT 1SM BR OVC002 M46/ A3004 RMK AO2 FZRANO,PABL,2019-01-12T21:08:00Z,65.98,-161.15,-46.0,,0,0,,1.0,30.041338,,,TRUE,TRUE,,,,TRUE,,BR,OVC,200,,,,,,,LIFR,,,,,,,,,,,,SPECI,7.0
PASY 122108Z AUTO 04041G49KT 3/4SM -SN BR SCT010 OVC014 00/M01 A2890 RMK AO2 VIS 3/4V1 1/4 CIG 010V014 SLP790 RVRNO FZRANO $,PASY,2019-01-12T21:08:00Z,52.72,174.12,0.0,-1.0,40,41,49,0.75,28.898623,979.0,,TRUE,TRUE,TRUE,,,TRUE,,-SN BR,SCT,1000,OVC,1400,,,,,LIFR,,,,,,,,,,,,METAR,31.0
KROX 122108Z AUTO 14006KT 10SM OVC031 M03/M06 A3041 RMK AO2,KROX,2019-01-12T21:08:00Z,48.85,-95.7,-3.0,-6.0,140,6,,10.0,30.410433,,,TRUE,TRUE,,,,,,,OVC,3100,,,,,,,VFR,,,,,,,,,,,,METAR,323.0
KGEZ 122108Z AUTO 08011KT 1SM -SN BR FEW006 OVC020 00/M02 A3018 RMK AO2 P0003 T00001017,KGEZ,2019-01-12T21:08:00Z,39.58,-85.8,0.0,-1.7,80,11,,1.0,30.180119,,,TRUE,TRUE,,,,,,-SN BR,FEW,600,OVC,2000,,,,,IFR,,,,,,0.03,,,,,,METAR,245.0
KDPA 122108Z 07010KT 3/4SM R02L/P6000FT -SN BR SCT007 OVC019 M02/M03 A3027 RMK AO2 P0000 T10171033,KDPA,2019-01-12T21:08:00Z,41.92,-88.25,-1.7,-3.3,70,10,,0.75,30.268702,,,,TRUE,,,,,,-SN BR,SCT,700,OVC,1900,,,,,LIFR,,,,,,0.005,,,,,,METAR,231.0
KCKB 122108Z 00000KT 1/2SM SN FG VV012 00/M02 A3032 RMK AO2 P0001 T00001022 RVRNO,KCKB,2019-01-12T21:08:00Z,39.3,-80.22,0.0,-2.2,0,0,,0.5,30.318897,,,,TRUE,,,,,,SN FG,OVX,0,,,,,,,LIFR,,,,,,0.01,,,,,1200,METAR,360.0
ETAD 122108Z AUTO 26010KT 9999 FEW017 BKN023 OVC045 05/05 A2995 RMK AO2 RAE08 CIG 016 RWY23 SLP146 $,ETAD,2019-01-12T21:08:00Z,49.98,6.7,5.0,5.0,260,10,,6.21,29.949802,1014.6,,TRUE,TRUE,TRUE,,,,,,FEW,1700,BKN,2300,OVC,4500,,,MVFR,,,,,,,,,,,,SPECI,365.0
UMMS 122108Z 24003MPS 5000 -SN OVC014 M01/M01 Q0998 R31/590332 NOSIG,UMMS,2019-01-12T21:08:00Z,53.88,28.03,-1.0,-1.0,240,6,,3.11,29.468504,,,,,,TRUE,,,,-SN,OVC,1400,,,,,,,MVFR,,,,,,,,,,,,SPECI,205.0
KSMP 122108Z AUTO VRB06KT 1 3/4SM BR BKN002 00/M02 A3005 RMK AO2 VIS 1V5 T00001017 $,KSMP,2019-01-12T21:08:00Z,47.28,-121.33,0.0,-1.7,0,6,,1.75,30.050198,,,TRUE,TRUE,TRUE,,,,,BR,BKN,200,,,,,,,LIFR,,,,,,,,,,,,SPECI,1208.0
CYCA 122107Z AUTO VRB02KT 1 1/2SM -SN BKN005 BKN008 BKN015 OVC020 M04/M04 A2975 RMK ICG SLP078,CYCA,2019-01-12T21:07:00Z,53.68,-57.03,-4.0,-4.0,0,2,,1.5,29.749016,1007.8,,TRUE,,,,,,,-SN,BKN,500,BKN,800,BKN,1500,OVC,2000,IFR,,,,,,,,,,,,SPECI,12.0
PALP 122107Z 00000KT 6SM BR SCT006 M40/M45 A3040,PALP,2019-01-12T21:07:00Z,70.33,-150.93,-40.0,-45.0,0,0,,6.0,30.398623,,,,,,,,,,BR,SCT,600,,,,,,,VFR,,,,,,,,,,,,SPECI,5.0
SARP 122107Z 05003KT 8000 -RA SCT020 OVC055 32/23 Q1010,SARP,2019-01-12T21:07:00Z,-27.38,-55.97,32.0,23.0,50,3,,4.97,29.822834,,,,,,,,,,-RA,SCT,2000,OVC,5500,,,,,MVFR,,,,,,,,,,,,METAR,125.0
KENW 122107Z 09011KT 1/2SM -SN FZFG BKN008 OVC016 M01/M02 A3033 RMK AO2 P0000 T10061017,KENW,2019-01-12T21:07:00Z,42.6,-87.93,-0.6,-1.7,90,11,,0.5,30.33071,,,,TRUE,,,,,,-SN FZFG,BKN,800,OVC,1600,,,,,LIFR,,,,,,0.005,,,,,,SPECI,219.0
KRAP 122107Z 15007KT 3/4SM BR OVC002 M02/M03 A3019 RMK AO2 T10221033 RVRNO,KRAP,2019-01-12T21:07:00Z,44.05,-103.05,-2.2,-3.3,150,7,,0.75,30.188976,,,,TRUE,,,,,,BR,OVC,200,,,,,,,LIFR,,,,,,,,,,,,SPECI,965.0
KDVL 122107Z AUTO 00000KT 10SM SCT007 OVC023 M09/M10 A3036 RMK AO2 FZRANO,KDVL,2019-01-12T21:07:00Z,48.12,-98.92,-9.0,-10.0,0,0,,10.0,30.360237,,,TRUE,TRUE,,,,TRUE,,,SCT,700,OVC,2300,,,,,MVFR,,,,,,,,,,,,SPECI,443.0
KHOP 122107Z AUTO 12008KT 10SM OVC055 07/06 A3002 RMK AO2 DZE07 SLP171,KHOP,2019-01-12T21:07:00Z,36.67,-87.5,7.0,6.0,120,8,,10.0,30.02067,1017.1,,TRUE,TRUE,,,,,,,OVC,5500,,,,,,,VFR,,,,,,,,,,,,SPECI,174.0
EYSA 122107Z 22007KT 2500 BR BKN002 M05/M05 Q0997 R14L/29//95 AMB TEMPO OVC001 RED,EYSA,2019-01-12T21:07:00Z,55.9,23.4,-5.0,-5.0,220,7,,1.55,29.438976,,,,,,,,,,BR,BKN,200,,,,,,,LIFR,,,,,,,,,,,,METAR,135.0
K0CO 122106Z AUTO 27010KT 1/4SM SN BKN001 OVC013 M12/M19 A3008 RMK AO2,K0CO,2019-01-12T21:06:00Z,39.8,-105.77,-12.0,-19.0,270,10,,0.25,30.079725,,,TRUE,TRUE,,,,,,SN,BKN,100,OVC,1300,,,,,LIFR,,,,,,,,,,,,METAR,3807.0
CYYD 122106Z VRB02KT 1 1/2SM BR BKN003 OVC020 01/01 A2995 RMK FG6SF1SC1 VIS VRB 1-2 SLP162,CYYD,2019-01-12T21:06:00Z,54.82,-127.18,1.0,1.0,0,2,,1.5,29.949802,1016.2,,,,,,,,,BR,BKN,300,OVC,2000,,,,,LIFR,,,,,,,,,,,,SPECI,523.0
ETHS 122106Z 30013KT 9000 -RA BKN012 06/04 Q1005 GRN,ETHS,2019-01-12T21:06:00Z,52.92,10.18,6.0,4.0,300,13,,5.59,29.675198,,,,,,,,,,-RA,BKN,1200,,,,,,,MVFR,,,,,,,,,,,,SPECI,88.0
CYWJ 122106Z 26005KT 2SM -SN VV025 M31/M35 A3019 RMK SN8 CIG VRB SLP264,CYWJ,2019-01-12T21:06:00Z,65.22,-123.43,-31.0,-35.0,260,5,,2.0,30.188976,1026.4,,,,,,,,,-SN,OVX,0,,,,,,,LIFR,,,,,,,,,,,2500,SPECI,176.0
KHYS 122106Z AUTO 35018KT 8SM SCT014 OVC041 M02/M04 A3022 RMK AO2 FZRANO,KHYS,2019-01-12T21:06:00Z,38.85,-99.27,-2.0,-4.0,350,18,,8.0,30.221457,,,TRUE,TRUE,,,,TRUE,,,SCT,1400,OVC,4100,,,,,VFR,,,,,,,,,,,,SPECI,609.0
KMIW 122106Z AUTO 05013KT 3/4SM -SN BR FEW009 SCT013 OVC022 M02/M02 A3024 RMK AO2 P0000 T10171022,KMIW,2019-01-12T21:06:00Z,42.12,-92.92,-1.7,-2.2,50,13,,0.75,30.239174,,,TRUE,TRUE,,,,,,-SN BR,FEW,900,SCT,1300,OVC,2200,,,LIFR,,,,,,0.005,,,,,,SPECI,296.0
PAAK 122106Z AUTO 07022G29KT 8SM -RA FEW015 SCT025 OVC030 03/01 A2865 RMK AO2 PK WND 07029/2106 PNO $,PAAK,2019-01-12T21:06:00Z,52.22,-174.2,3.0,1.0,70,22,29,8.0,28.65059,,,TRUE,TRUE,TRUE,,,,,-RA,FEW,1500,SCT,2500,OVC,3000,,,MVFR,,,,,,,,,,,,SPECI,17.0
PARS 122106Z AUTO 06005KT 9SM -SN FEW026 BKN035 M26/M29 A2963 RMK AO2 P0000 FZRANO $,PARS,2019-01-12T21:06:00Z,61.77,-161.32,-26.0,-29.0,60,5,,9.0,29.630905,,,TRUE,TRUE,TRUE,,,TRUE,,-SN,FEW,2600,BKN,3500,,,,,VFR,,,,,,0.005,,,,,,SPECI,16.0
KXNA 122106Z 30010KT 2 1/2SM HZ OVC006 04/02 A2994 RMK AO2 T00440017,KXNA,2019-01-12T21:06:00Z,36.28,-94.3,4.4,1.7,300,10,,2.5,29.940945,,,,TRUE,,,,,,HZ,OVC,600,,,,,,,IFR,,,,,,,,,,,,SPECI,392.0
KPDT 122106Z 34005KT 3SM R25/1200VP6000FT BR OVC002 01/00 A3018 RMK AO2 T00060000 $,KPDT,2019-01-12T21:06:00Z,45.7,-118.83,0.6,0.0,340,5,,3.0,30.180119,,,,TRUE,TRUE,,,,,BR,OVC,200,,,,,,,LIFR,,,,,,,,,,,,SPECI,462.0
KOJC 122106Z 36010KT 1 1/4SM -SN BR BKN008 OVC011 M01/M02 A3005 RMK AO2 P0000 T10111017,KOJC,2019-01-12T21:06:00Z,38.85,-94.73,-1.1,-1.7,360,10,,1.25,30.050198,,,,TRUE,,,,,,-SN BR,BKN,800,OVC,1100,,,,,IFR,,,,,,0.005,,,,,,SPECI,326.0
KNEW 122106Z 22008KT 3SM -RA BR FEW029 BKN045 OVC070 16/15 A3000 RMK AO2 P0001 T01610150,KNEW,2019-01-12T21:06:00Z,30.05,-90.03,16.1,15.0,220,8,,3.0,30.0,,,,TRUE,,,,,,-RA BR,FEW,2900,BKN,4500,OVC,7000,,,MVFR,,,,,,0.01,,,,,,SPECI,3.0
KMRB 122106Z AUTO 15005KT 1 3/4SM -SN SCT027 BKN035 OVC042 M02/M04 A3044 RMK AO2 P0000 T10171039 $,KMRB,2019-01-12T21:06:00Z,39.4,-77.98,-1.7,-3.9,150,5,,1.75,30.43996,,,TRUE,TRUE,TRUE,,,,,-SN,SCT,2700,BKN,3500,OVC,4200,,,IFR,,,,,,0.005,,,,,,SPECI,164.0
KMHE 122106Z AUTO 34008KT 3SM BR OVC004 M05/M07 A3036 RMK AO2 I1001 T10501067,KMHE,2019-01-12T21:06:00Z,43.77,-98.02,-5.0,-6.7,340,8,,3.0,30.360237,,,TRUE,TRUE,,,,,,BR,OVC,400,,,,,,,LIFR,,,,,,,,,,,,SPECI,397.0
KJBR 122106Z AUTO 15006KT 1 3/4SM BR OVC004 08/08 A2991 RMK AO2 RAE2054 P0000 T00780078 $,KJBR,2019-01-12T21:06:00Z,35.83,-90.65,7.8,7.8,150,6,,1.75,29.911417,,,TRUE,TRUE,TRUE,,,,,BR,OVC,400,,,,,,,LIFR,,,,,,0.005,,,,,,SPECI,79.0
KICR 122106Z AUTO VRB04KT 1 3/4SM UP BR OVC003 M08/M09 A3031 RMK AO2 P0000 T10781094,KICR,2019-01-12T21:06:00Z,43.38,-99.85,-7.8,-9.4,0,4,,1.75,30.31004,,,TRUE,TRUE,,,,,,BR UP,OVC,300,,,,,,,LIFR,,,,,,0.005,,,,,,SPECI,621.0
KPAM 122106Z AUTO 14014KT 10SM SCT023 BKN170 19/16 A3009 RMK AO2 SLP193 $,KPAM,2019-01-12T21:06:00Z,30.07,-85.57,19.0,16.0,140,14,,10.0,30.088583,1019.3,,TRUE,TRUE,TRUE,,,,,,SCT,2300,BKN,17000,,,,,VFR,,,,,,,,,,,,SPECI,5.0
ETAR 122106Z 24008KT 9999 OVC011 05/04 A2998 RMK AO2A CIG 009V013 SLP163 $,ETAR,2019-01-12T21:06:00Z,49.42,7.58,5.0,4.0,240,8,,6.21,29.97933,1016.3,,,TRUE,TRUE,,,,,,OVC,1100,,,,,,,MVFR,,,,,,,,,,,,SPECI,238.0
EHEH 122106Z AUTO 27010KT 230V320 9999 FEW012 BKN015 BKN019 08/06 Q1014 WHT 27012KT 9999 FEW012 SCT015 BKN025 TEMPO 4000 -SHRA FEW010 SCT018CB BKN020,EHEH,2019-01-12T21:06:00Z,51.45,5.38,8.0,6.0,270,10,,6.21,29.940945,,,TRUE,,,,,,,,FEW,1200,BKN,1500,BKN,1900,FEW,1200,MVFR,,,,,,,,,,,,SPECI,22.0
EGVA 122106Z AUTO 28011KT 8000 HZ SCT023 BKN140 09/06 A3013 RMK AO2 SLP208 $,EGVA,2019-01-12T21:06:00Z,51.67,-1.77,9.0,6.0,280,11,,4.97,30.129921,1020.8,,TRUE,TRUE,TRUE,,,,,HZ,SCT,2300,BKN,14000,,,,,MVFR,,,,,,,,,,,,SPECI,87.0
ZSJN 122106Z 28002MPS 1200 R01/0450D BR NSC M03/M03 Q1028 NOSIG,ZSJN,2019-01-12T21:06:00Z,36.85,117.22,-3.0,-3.0,280,4,,0.75,30.35433,,,,,,TRUE,,,,BR,CLR,,,,,,,,LIFR,,,,,,,,,,,,SPECI,23.0
KBTP 122105Z AUTO 12004KT 6SM -SN BKN024 OVC030 M03/M06 A3035 RMK AO2 P0000 FZRANO,KBTP,2019-01-12T21:05:00Z,40.77,-79.95,-3.0,-6.0,120,4,,6.0,30.351377,,,TRUE,TRUE,,,,TRUE,,-SN,BKN,2400,OVC,3000,,,,,MVFR,,,,,,0.005,,,,,,SPECI,380.0
KEHO 122105Z AUTO 04004KT 10SM OVC040 03/M04 A3035 RMK AO2 T00331044,KEHO,2019-01-12T21:05:00Z,35.25,-81.6,3.3,-4.4,40,4,,10.0,30.351377,,,TRUE,TRUE,,,,,,,OVC,4000,,,,,,,VFR,,,,,,,,,,,,METAR,258.0
KHLG 122105Z 08007KT 1 3/4SM -SN FEW008 BKN029 OVC049 M02/M05 A3033 RMK AO2 P0000 T10221050,KHLG,2019-01-12T21:05:00Z,40.17,-80.65,-2.2,-5.0,80,7,,1.75,30.33071,,,,TRUE,,,,,,-SN,FEW,800,BKN,2900,OVC,4900,,,IFR,,,,,,0.005,,,,,,SPECI,372.0
KHKA 122105Z AUTO 16010KT 6SM -RA BR OVC009 08/06 A2993 RMK AO2 RAB01 P0001 T00780061 $,KHKA,2019-01-12T21:05:00Z,35.93,-89.83,7.8,6.1,160,10,,6.0,29.929134,,,TRUE,TRUE,TRUE,,,,,-RA BR,OVC,900,,,,,,,IFR,,,,,,0.01,,,,,,SPECI,78.0
KHNZ 122105Z AUTO 00000KT 10SM CLR 01/M07 A3042 RMK AO2 T00101071,KHNZ,2019-01-12T21:05:00Z,36.37,-78.53,1.0,-7.1,0,0,,10.0,30.41929,,,TRUE,TRUE,,,,,,,CLR,,,,,,,,VFR,,,,,,,,,,,,METAR,161.0
KIXA 122105Z AUTO 00000KT 10SM OVC090 02/M02 A3045 RMK AO2,KIXA,2019-01-12T21:05:00Z,36.33,-77.63,2.0,-2.0,0,0,,10.0,30.448818,,,TRUE,TRUE,,,,,,,OVC,9000,,,,,,,VFR,,,,,,,,,,,,METAR,44.0
KMEB 122105Z AUTO 06009KT 10SM SCT024 OVC065 06/M07 A3039 RMK AO2 T00561067,KMEB,2019-01-12T21:05:00Z,34.78,-79.37,5.6,-6.7,60,9,,10.0,30.389763,,,TRUE,TRUE,,,,,,,SCT,2400,OVC,6500,,,,,VFR,,,,,,,,,,,,SPECI,67.0
KMKL 122105Z VRB05KT 3SM -RA BR BKN009 08/07 A2995 RMK AO2 P0001 T00780067,KMKL,2019-01-12T21:05:00Z,35.6,-88.92,7.8,6.7,0,5,,3.0,29.949802,,,,TRUE,,,,,,-RA BR,BKN,900,,,,,,,IFR,,,,,,0.01,,,,,,SPECI,128.0
KTTA 122105Z AUTO 07003KT 10SM BKN055 04/M07 A3041 RMK AO2 T00401071,KTTA,2019-01-12T21:05:00Z,35.58,-79.1,4.0,-7.1,70,3,,10.0,30.410433,,,TRUE,TRUE,,,,,,,BKN,5500,,,,,,,VFR,,,,,,,,,,,,METAR,75.0
KMWK 122105Z AUTO 08005KT 10SM OVC046 02/M04 A3039 RMK AO2 T00201040,KMWK,2019-01-12T21:05:00Z,36.47,-80.55,2.0,-4.0,80,5,,10.0,30.389763,,,TRUE,TRUE,,,,,,,OVC,4600,,,,,,,VFR,,,,,,,,,,,,METAR,380.0
PAWN 122104Z AUTO 02004KT 1 3/4SM BR CLR M36/ A3010 RMK AO2 FZRANO,PAWN,2019-01-12T21:04:00Z,67.57,-162.98,-36.0,,20,4,,1.75,30.100393,,,TRUE,TRUE,,,,TRUE,,BR,CLR,,,,,,,,IFR,,,,,,,,,,,,METAR,30.0
LKLN 122104Z AUTO 23007KT 9999 -RA FEW009 BKN014 OVC021 02/01 Q1010,LKLN,2019-01-12T21:04:00Z,49.68,13.27,2.0,1.0,230,7,,6.21,29.822834,,,TRUE,,,,,,,-RA,FEW,900,BKN,1400,OVC,2100,,,MVFR,,,,,,,,,,,,SPECI,362.0
KAAO 122104Z AUTO 35017G26KT 10SM OVC015 00/M02 A3012 RMK AO2 PK WND 35026/2102 T00001017 $,KAAO,2019-01-12T21:04:00Z,37.75,-97.22,0.0,-1.7,350,17,26,10.0,30.121063,,,TRUE,TRUE,TRUE,,,,,,OVC,1500,,,,,,,MVFR,,,,,,,,,,,,METAR,434.0
KMDH 122104Z 09006KT 1 3/4SM -RA BR BKN015 OVC033 02/01 A2999 RMK AO2 RAB00UPB01E02 P0001 T00220011,KMDH,2019-01-12T21:04:00Z,37.78,-89.25,2.2,1.1,90,6,,1.75,29.991142,,,,TRUE,,,,,,-RA BR,BKN,1500,OVC,3300,,,,,IFR,,,,,,0.01,,,,,,SPECI,130.0
KIRK 122104Z AUTO 05016KT 1/2SM SN FZFG OVC008 M01/M01 A3009 RMK AO2 P0001 T10061006,KIRK,2019-01-12T21:04:00Z,40.1,-92.55,-0.6,-0.6,50,16,,0.5,30.088583,,,TRUE,TRUE,,,,,,SN FZFG,OVC,800,,,,,,,LIFR,,,,,,0.01,,,,,,METAR,293.0
KIAD 122104Z 17005KT 1SM R01R/P6000FT -SN OVC020 M01/M04 A3049 RMK AO2 P0000 T10061039,KIAD,2019-01-12T21:04:00Z,38.93,-77.45,-0.6,-3.9,170,5,,1.0,30.490158,,,,TRUE,,,,,,-SN,OVC,2000,,,,,,,IFR,,,,,,0.005,,,,,,SPECI,93.0
KELN 122104Z AUTO 28003KT 10SM SCT006 OVC011 03/00 A3019 RMK AO2 T00330000,KELN,2019-01-12T21:04:00Z,47.03,-120.53,3.3,0.0,280,3,,10.0,30.188976,,,TRUE,TRUE,,,,,,,SCT,600,OVC,1100,,,,,MVFR,,,,,,,,,,,,SPECI,519.0
KDRO 122104Z AUTO 06003KT 10SM FEW013 OVC030 M01/M03 A3016 RMK AO2 T10061028,KDRO,2019-01-12T21:04:00Z,37.15,-107.77,-0.6,-2.8,60,3,,10.0,30.159449,,,TRUE,TRUE,,,,,,,FEW,1300,OVC,3000,,,,,MVFR,,,,,,,,,,,,SPECI,2035.0
KBTR 122104Z 23008KT 10SM BKN017 BKN027 OVC031 20/16 A2996 RMK AO2 T02000156,KBTR,2019-01-12T21:04:00Z,30.53,-91.15,20.0,15.6,230,8,,10.0,29.958662,,,,TRUE,,,,,,,BKN,1700,BKN,2700,OVC,3100,,,MVFR,,,,,,,,,,,,METAR,21.0
KZZV 122104Z AUTO 06005KT 1/4SM SN FZFG VV011 M02/M03 A3031 RMK AO2 P0001 T10171028 $,KZZV,2019-01-12T21:04:00Z,39.95,-81.9,-1.7,-2.8,60,5,,0.25,30.31004,,,TRUE,TRUE,TRUE,,,,,SN FZFG,OVX,0,,,,,,,LIFR,,,,,,0.01,,,,,1100,SPECI,268.0
KSTL 122104Z 07009KT 1 1/4SM R30R/6000VP6000FT -SN BR OVC006 01/M01 A3003 RMK AO2 P0001 T00061006 $,KSTL,2019-01-12T21:04:00Z,38.75,-90.37,0.6,-0.6,70,9,,1.25,30.029528,,,,TRUE,TRUE,,,,,-SN BR,OVC,600,,,,,,,IFR,,,,,,0.01,,,,,,SPECI,171.0
KSGH 122104Z AUTO 09010KT 1/2SM SN FZFG FEW007 OVC013 M02/M03 A3026 RMK AO2 P0000,KSGH,2019-01-12T21:04:00Z,39.83,-83.83,-2.0,-3.0,90,10,,0.5,30.259842,,,TRUE,TRUE,,,,,,SN FZFG,FEW,700,OVC,1300,,,,,LIFR,,,,,,0.005,,,,,,SPECI,321.0
KGUS 122104Z 08012KT 1/2SM R05/4000V4500FT SN FZFG VV009 M02/M02 A3024 RMK AO2A SLP254 $,KGUS,2019-01-12T21:04:00Z,40.63,-86.15,-2.0,-2.0,80,12,,0.5,30.239174,1025.4,,,TRUE,TRUE,,,,,SN FZFG,OVX,0,,,,,,,LIFR,,,,,,,,,,,900,METAR,247.0
CYWK 122103Z 32011KT 12SM -SN OVC014 M15/M18 A2998 RMK SC8 SLP201,CYWK,2019-01-12T21:03:00Z,52.92,-66.87,-15.0,-18.0,320,11,,12.0,29.97933,1020.1,,,,,,,,,-SN,OVC,1400,,,,,,,MVFR,,,,,,,,,,,,SPECI,551.0
KMBL 122103Z AUTO 07012KT 10SM BKN022 OVC070 M02/M06 A3044 RMK AO2 FZRANO,KMBL,2019-01-12T21:03:00Z,44.27,-86.25,-2.0,-6.0,70,12,,10.0,30.43996,,,TRUE,TRUE,,,,TRUE,,,BKN,2200,OVC,7000,,,,,MVFR,,,,,,,,,,,,METAR,189.0
KSBN 122103Z 07011G17KT 1/4SM R27L/3500V4000FT SN FZFG VV009 M03/M04 A3030 RMK AO2 P0001 T10331044,KSBN,2019-01-12T21:03:00Z,41.7,-86.32,-3.3,-4.4,70,11,17,0.25,30.301182,,,,TRUE,,,,,,SN FZFG,OVX,0,,,,,,,LIFR,,,,,,0.01,,,,,900,METAR,237.0
KBJJ 122103Z AUTO 08007KT 3/4SM -SN BR VV018 M04/M06 A3034 RMK AO2 P0000 T10391056,KBJJ,2019-01-12T21:03:00Z,40.87,-81.88,-3.9,-5.6,80,7,,0.75,30.339567,,,TRUE,TRUE,,,,,,-SN BR,OVX,0,,,,,,,LIFR,,,,,,0.005,,,,,1800,METAR,343.0
KPQL 122103Z 17012G21KT 10SM SCT021 BKN027 OVC055 21/16 A3000 RMK AO2 T02060161,KPQL,2019-01-12T21:03:00Z,30.47,-88.53,20.6,16.1,170,12,21,10.0,30.0,,,,TRUE,,,,,,,SCT,2100,BKN,2700,OVC,5500,,,MVFR,,,,,,,,,,,,METAR,6.0
KPAH 122103Z AUTO 11009KT 6SM -RA BR SCT010 BKN014 OVC039 06/04 A2996 RMK AO2 RAB2055 P0000 T00610044,KPAH,2019-01-12T21:03:00Z,37.07,-88.77,6.1,4.4,110,9,,6.0,29.958662,,,TRUE,TRUE,,,,,,-RA BR,SCT,1000,BKN,1400,OVC,3900,,,MVFR,,,,,,0.005,,,,,,METAR,119.0
KLFT 122103Z 26009KT 10SM SCT024 BKN032 22/16 A2997 RMK AO2 T02170156,KLFT,2019-01-12T21:03:00Z,30.2,-92.0,21.7,15.6,260,9,,10.0,29.970472,,,,TRUE,,,,,,,SCT,2400,BKN,3200,,,,,VFR,,,,,,,,,,,,METAR,11.0
KGCK 122103Z 01015KT 6SM BR OVC009 M02/M03 A3020 RMK AO2 T10171033,KGCK,2019-01-12T21:03:00Z,37.92,-100.72,-1.7,-3.3,10,15,,6.0,30.200787,,,,TRUE,,,,,,BR,OVC,900,,,,,,,IFR,,,,,,,,,,,,METAR,877.0
KEMV 122103Z AUTO 00000KT 10SM SCT090 OVC110 03/M07 A3048 RMK AO2,KEMV,2019-01-12T21:03:00Z,36.68,-77.48,3.0,-7.0,0,0,,10.0,30.481298,,,TRUE,TRUE,,,,,,,SCT,9000,OVC,11000,,,,,VFR,,,,,,,,,,,,METAR,39.0
K2W6 122103Z AUTO 00000KT 10SM OVC046 01/M07 A3052 RMK AO1,K2W6,2019-01-12T21:03:00Z,38.32,-76.55,1.0,-7.0,0,0,,10.0,30.519686,,,TRUE,TRUE,,,,,,,OVC,4600,,,,,,,VFR,,,,,,,,,,,,SPECI,44.0
KCGS 122103Z AUTO 00000KT 10SM SCT032 SCT041 OVC050 00/M07 A3050 RMK AO1 T00001068,KCGS,2019-01-12T21:03:00Z,38.98,-76.92,0.0,-6.8,0,0,,10.0,30.499016,,,TRUE,TRUE,,,,,,,SCT,3200,SCT,4100,OVC,5000,,,VFR,,,,,,,,,,,,SPECI,15.0
YESP 122102Z AUTO 03017G27KT 9999 // NCD 23/09 Q1010,YESP,2019-01-12T21:02:00Z,-33.68,121.82,23.0,9.0,30,17,27,6.21,29.822834,,,TRUE,,,,,,,,CLR,,,,,,,,VFR,,,,,,,,,,,,SPECI,143.0
KCGI 122102Z 07005KT 2SM RA BR FEW006 BKN012 OVC025 05/04 A2996 RMK AO2 P0002 T00500039,KCGI,2019-01-12T21:02:00Z,37.23,-89.58,5.0,3.9,70,5,,2.0,29.958662,,,,TRUE,,,,,,RA BR,FEW,600,BKN,1200,OVC,2500,,,IFR,,,,,,0.02,,,,,,METAR,102.0
PADM 122102Z AUTO 05020KT 1SM -SN FEW013 SCT023 BKN055 M27/M30 A2962 RMK AO2 PK WND 04027/2011 SNB2055 P0000 FZRANO RVRNO,PADM,2019-01-12T21:02:00Z,61.87,-162.03,-27.0,-30.0,50,20,,1.0,29.619095,,,TRUE,TRUE,,,,TRUE,,-SN,FEW,1300,SCT,2300,BKN,5500,,,IFR,,,,,,0.005,,,,,,METAR,31.0
PASM 122102Z AUTO 06010KT 10SM BKN100 M26/M30 A2961 RMK AO2 SLP046 T12611300 58021 FZRANO,PASM,2019-01-12T21:02:00Z,62.07,-163.3,-26.1,-30.0,60,10,,10.0,29.610237,1004.6,,TRUE,TRUE,,,,TRUE,,,BKN,10000,,,,,,,VFR,-2.1,,,,,,,,,,,SPECI,92.0
PAMO 122102Z AUTO 04013KT 10SM FEW095 M27/M31 A2961 RMK AO2 SLP041 T12671306 58017 FZRANO,PAMO,2019-01-12T21:02:00Z,62.1,-163.68,-26.7,-30.6,40,13,,10.0,29.610237,1004.1,,TRUE,TRUE,,,,TRUE,,,FEW,9500,,,,,,,VFR,-1.7,,,,,,,,,,,SPECI,103.0
KVNY 122102Z 14007KT 10SM SCT024 BKN032 BKN100 14/09 A2998 RMK AO2 T01440089,KVNY,2019-01-12T21:02:00Z,34.22,-118.48,14.4,8.9,140,7,,10.0,29.97933,,,,TRUE,,,,,,,SCT,2400,BKN,3200,BKN,10000,,,VFR,,,,,,,,,,,,METAR,245.0
KLAF 122102Z AUTO 07012KT 1/2SM SN FZFG BKN008 BKN013 OVC020 M02/M02 A3021 RMK AO2 P0000 T10171022,KLAF,2019-01-12T21:02:00Z,40.42,-86.93,-1.7,-2.2,70,12,,0.5,30.209646,,,TRUE,TRUE,,,,,,SN FZFG,BKN,800,BKN,1300,OVC,2000,,,LIFR,,,,,,0.005,,,,,,METAR,182.0
KGLD 122102Z AUTO 01009KT 10SM BKN024 03/00 A3017 RMK AO2 T00330000,KGLD,2019-01-12T21:02:00Z,39.37,-101.7,3.3,0.0,10,9,,10.0,30.171259,,,TRUE,TRUE,,,,,,,BKN,2400,,,,,,,MVFR,,,,,,,,,,,,METAR,1113.0
KASD 122102Z AUTO VRB06KT 4SM -RA BR FEW010 SCT019 OVC040 17/16 A2999 RMK AO2 P0001 T01720156,KASD,2019-01-12T21:02:00Z,30.35,-89.82,17.2,15.6,0,6,,4.0,29.991142,,,TRUE,TRUE,,,,,,-RA BR,FEW,1000,SCT,1900,OVC,4000,,,MVFR,,,,,,0.01,,,,,,METAR,9.0
KAOH 122102Z AUTO 07010KT 3/4SM -SN BR FEW006 OVC015 M02/M04 A3028 RMK AO2 P0000 T10221044,KAOH,2019-01-12T21:02:00Z,40.7,-84.02,-2.2,-4.4,70,10,,0.75,30.280512,,,TRUE,TRUE,,,,,,-SN BR,FEW,600,OVC,1500,,,,,LIFR,,,,,,0.005,,,,,,METAR,296.0
KALO 122102Z 06010KT 1 1/4SM -SN BR BKN030 OVC038 M01/M03 A3027 RMK AO2 P0001 T10111028,KALO,2019-01-12T21:02:00Z,42.55,-92.4,-1.1,-2.8,60,10,,1.25,30.268702,,,,TRUE,,,,,,-SN BR,BKN,3000,OVC,3800,,,,,IFR,,,,,,0.01,,,,,,METAR,264.0
EHLW 122102Z AUTO 28014KT 250V310 9999 FEW047 BKN053 07/06 Q1009 BLU,EHLW,2019-01-12T21:02:00Z,53.22,5.75,7.0,6.0,280,14,,6.21,29.793306,,,TRUE,,,,,,,,FEW,4700,BKN,5300,,,,,VFR,,,,,,,,,,,,SPECI,2.0
KCNU 122101Z AUTO 35017KT 10SM OVC011 01/M01 A3006 RMK AO2 T00061011,KCNU,2019-01-12T21:01:00Z,37.67,-95.48,0.6,-1.1,350,17,,10.0,30.059055,,,TRUE,TRUE,,,,,,,OVC,1100,,,,,,,MVFR,,,,,,,,,,,,METAR,297.0
KAKQ 122101Z AUTO 03004KT 1/2SM SN VV015 01/M03 A3048 RMK AO2 P0001 T00061028,KAKQ,2019-01-12T21:01:00Z,36.98,-77.0,0.6,-2.8,30,4,,0.5,30.481298,,,TRUE,TRUE,,,,,,SN,OVX,0,,,,,,,LIFR,,,,,,0.01,,,,,1500,METAR,34.0
SECU 122101Z 21009KT 5000 +TSRAGS SCT030CB SCT040 16/14 Q1023,SECU,2019-01-12T21:01:00Z,-2.87,-78.97,16.0,14.0,210,9,,3.11,30.206694,,,,,,,,,,+TSRA +TSGS,SCT,3000,SCT,4000,,,,,MVFR,,,,,,,,,,,,SPECI,2531.0
PAMD 122101Z AUTO 10020G23KT 10SM -RA FEW019 BKN024 OVC035 03/00 A2969 RMK AO2 P0000,PAMD,2019-01-12T21:01:00Z,59.43,-146.3,3.0,0.0,100,20,23,10.0,29.68996,,,TRUE,TRUE,,,,,,-RA,FEW,1900,BKN,2400,OVC,3500,,,MVFR,,,,,,0.005,,,,,,METAR,14.0
PAFS 122101Z AUTO 07013KT 10SM BKN085 BKN100 M28/M31 A2982 RMK AO2 SNB2003E2021 SLP127 P0000 60000 T12781311 58005 FZRANO,PAFS,2019-01-12T21:01:00Z,63.02,-154.35,-27.8,-31.1,70,13,,10.0,29.819881,1012.7,,TRUE,TRUE,,,,TRUE,,,BKN,8500,BKN,10000,,,,,VFR,-0.5,,,,,0.005,0.005,,,,,SPECI,126.0
LDZD 122100Z 12003KT CAVOK M03/M04 Q1016 NOSIG,LDZD,2019-01-12T21:00:00Z,44.1,15.37,-3.0,-4.0,120,3,,6.21,30.0,,,,,,TRUE,,,,,CAVOK,,,,,,,,VFR,,,,,,,,,,,,METAR,84.0
GMFK 122100Z VRB02KT CAVOK 06/M06 Q1028 NOSIG,GMFK,2019-01-12T21:00:00Z,31.95,-4.4,6.0,-6.0,0,2,,6.21,30.35433,,,,,,TRUE,,,,,CAVOK,,,,,,,,VFR,,,,,,,,,,,,METAR,1045.0
WAMM 122100Z VRB01KT 9000 SCT010 24/24 Q1009 NOSIG,WAMM,2019-01-12T21:00:00Z,1.55,124.92,24.0,24.0,0,1,,5.59,29.793306,,,,,,TRUE,,,,,SCT,1000,,,,,,,VFR,,,,,,,,,,,,METAR,80.0
YMOR 122100Z AUTO 02012KT 9999 // NCD 26/13 Q1017,YMOR,2019-01-12T21:00:00Z,-29.5,149.85,26.0,13.0,20,12,,6.21,30.029528,,,TRUE,,,,,,,,CLR,,,,,,,,VFR,,,,,,,,,,,,METAR,214.0
YMML 122100Z 18007KT 9999 SCT018 SCT320 17/13 Q1020,YMML,2019-01-12T21:00:00Z,-37.67,144.82,17.0,13.0,180,7,,6.21,30.11811,,,,,,,,,,,SCT,1800,SCT,32000,,,,,VFR,,,,,,,,,,,,METAR,141.0
YMIA 122100Z AUTO 17010KT 9999 // NCD 17/07 Q1016,YMIA,2019-01-12T21:00:00Z,-34.23,142.08,17.0,7.0,170,10,,6.21,30.0,,,TRUE,,,,,,,,CLR,,,,,,,,VFR,,,,,,,,,,,,METAR,51.0
YMER 122100Z AUTO 20005KT 9999 // BKN034 21/15 Q1022,YMER,2019-01-12T21:00:00Z,-36.92,149.9,21.0,15.0,200,5,,6.21,30.177166,,,TRUE,,,,,,,,BKN,3400,,,,,,,VFR,,,,,,,,,,,,METAR,2.0
YMEN 122100Z AUTO 16010KT 9999 // NCD 18/13 Q1020,YMEN,2019-01-12T21:00:00Z,-37.72,144.9,18.0,13.0,160,10,,6.21,30.11811,,,TRUE,,,,,,,,CLR,,,,,,,,VFR,,,,,,,,,,,,METAR,86.0
YMEK 122100Z AUTO 22009KT 9999 // NCD 29/06 Q1010,YMEK,2019-01-12T21:00:00Z,-26.62,118.55,29.0,6.0,220,9,,6.21,29.822834,,,TRUE,,,,,,,,CLR,,,,,,,,VFR,,,,,,,,,,,,METAR,522.0
YMDG 122100Z AUTO 16005KT 9999 // NCD 25/18 Q1019,YMDG,2019-01-12T21:00:00Z,-32.57,149.62,25.0,18.0,160,5,,6.21,30.088583,,,TRUE,,,,,,,,CLR,,,,,,,,VFR,,,,,,,,,,,,METAR,471.0
YMAY 122100Z AUTO 14009KT 9999 // NCD 25/07 Q1015,YMAY,2019-01-12T21:00:00Z,-36.07,146.93,25.0,7.0,140,9,,6.21,29.970472,,,TRUE,,,,,,,,CLR,,,,,,,,VFR,,,,,,,,,,,,METAR,171.0
YMAV 122100Z AUTO 15012KT //// // SCT020 18/13 Q1020 RF00.0/000.0 PRESENT WEATHER SENSOR US,YMAV,2019-01-12T21:00:00Z,-38.03,144.48,18.0,13.0,150,12,,,30.11811,,,TRUE,,,,,,,,SCT,2000,,,,,,,,,,,,,,,,,,,METAR,8.0
YLRE 122100Z AUTO 06007KT //// // NCD 27/12 Q1013,YLRE,2019-01-12T21:00:00Z,-23.43,144.28,27.0,12.0,60,7,,,29.911417,,,TRUE,,,,,,,,CLR,,,,,,,,,,,,,,,,,,,,METAR,193.0
EICK 122100Z 29011KT 9999 BKN007 09/08 Q1028 NOSIG,EICK,2019-01-12T21:00:00Z,51.85,-8.47,9.0,8.0,290,11,,6.21,30.35433,,,,,,TRUE,,,,,BKN,700,,,,,,,IFR,,,,,,,,,,,,METAR,162.0
EINN 122100Z 26012KT 6000 -DZ FEW003 BKN005 09/08 Q1027 TEMPO SCT004,EINN,2019-01-12T21:00:00Z,52.7,-8.92,9.0,8.0,260,12,,3.73,30.324802,,,,,,,,,,-DZ,FEW,300,BKN,500,,,,,IFR,,,,,,,,,,,,METAR,20.0
EIDW 122100Z 26020KT 9999 SCT009 BKN011 10/08 Q1022 NOSIG,EIDW,2019-01-12T21:00:00Z,53.42,-6.25,10.0,8.0,260,20,,6.21,30.177166,,,,,,TRUE,,,,,SCT,900,BKN,1100,,,,,MVFR,,,,,,,,,,,,METAR,85.0
TLPC 122100Z 11008KT 9999 FEW028 27/20 Q1016 NOSIG,TLPC,2019-01-12T21:00:00Z,14.02,-61.0,27.0,20.0,110,8,,6.21,30.0,,,,,,TRUE,,,,,FEW,2800,,,,,,,VFR,,,,,,,,,,,,METAR,2.0
KNEL 122100Z AUTO 30004KT CLR A3048 RMK AO2 SLPNO 6//// 55010 PNO $,KNEL,2019-01-12T21:00:00Z,40.02,-74.33,,,300,4,,,30.481298,,,TRUE,TRUE,TRUE,,,,,,CLR,,,,,,,,,-1.0,,,,,,,,,,,METAR,31.0
SBNF 122100Z 11010KT 9999 FEW011 28/24 Q1014,SBNF,2019-01-12T21:00:00Z,-26.88,-48.65,28.0,24.0,110,10,,6.21,29.940945,,,,,,,,,,,FEW,1100,,,,,,,VFR,,,,,,,,,,,,METAR,5.0
UBBN 122100Z 02006KT 9999 FEW100 M07/M09 Q1016 R14R/CLRD// NOSIG RMK MT OP QFE687,UBBN,2019-01-12T21:00:00Z,39.18,45.45,-7.0,-9.0,20,6,,6.21,30.0,,,,,,TRUE,,,,,FEW,10000,,,,,,,VFR,,,,,,,,,,,,METAR,873.0
ORER 122100Z VRB02KT 9000 NSC 02/00 Q1019 NOSIG,ORER,2019-01-12T21:00:00Z,36.23,43.97,2.0,0.0,0,2,,5.59,30.088583,,,,,,TRUE,,,,,CLR,,,,,,,,VFR,,,,,,,,,,,,METAR,409.0
ORNI 122100Z 12013KT 8000 BKN040 09/01 Q1016 NOSIG,ORNI,2019-01-12T21:00:00Z,31.98,44.4,9.0,1.0,120,13,,4.97,30.0,,,,,,TRUE,,,,,BKN,4000,,,,,,,MVFR,,,,,,,,,,,,METAR,53.0
ORMM 122100Z 00000KT 9999 FEW035 OVC100 11/04 Q1019 NOSIG,ORMM,2019-01-12T21:00:00Z,30.57,47.67,11.0,4.0,0,0,,6.21,30.088583,,,,,,TRUE,,,,,FEW,3500,OVC,10000,,,,,VFR,,,,,,,,,,,,METAR,2.0
TGPY 122100Z 09015KT 9999 FEW022 28/21 Q1015 NOSIG,TGPY,2019-01-12T21:00:00Z,12.0,-61.78,28.0,21.0,90,15,,6.21,29.970472,,,,,,TRUE,,,,,FEW,2200,,,,,,,VFR,,,,,,,,,,,,METAR,7.0
VHHH 122100Z 09007KT 9999 FEW008 SCT018 19/17 Q1019 NOSIG,VHHH,2019-01-12T21:00:00Z,22.32,113.92,19.0,17.0,90,7,,6.21,30.088583,,,,,,TRUE,,,,,FEW,800,SCT,1800,,,,,VFR,,,,,,,,,,,,METAR,9.0
VOBL 122100Z 09004KT 050V130 4000 BR FEW010 15/15 Q1018 TEMPO 3000 BR,VOBL,2019-01-12T21:00:00Z,13.2,77.7,15.0,15.0,90,4,,2.49,30.059055,,,,,,,,,,BR,FEW,1000,,,,,,,IFR,,,,,,,,,,,,METAR,915.0
EPZG 122100Z 24011KT 5000 -RA BR OVC005 04/04 Q1003,EPZG,2019-01-12T21:00:00Z,52.13,15.8,4.0,4.0,240,11,,3.11,29.616142,,,,,,,,,,-RA BR,OVC,500,,,,,,,IFR,,,,,,,,,,,,METAR,59.0
EPWR 122100Z 25010KT 8000 RA BKN011 03/02 Q1004 R11/29//95,EPWR,2019-01-12T21:00:00Z,51.1,16.87,3.0,2.0,250,10,,4.97,29.64567,,,,,,,,,,RA,BKN,1100,,,,,,,MVFR,,,,,,,,,,,,METAR,121.0
EPSY 122100Z 20006KT 1400 R01/P2000N -DZ BR OVC002 00/M00 Q0999 R01/590293,EPSY,2019-01-12T21:00:00Z,53.47,20.93,0.0,0.0,200,6,,0.87,29.498032,,,,,,,,,,-DZ BR,OVC,200,,,,,,,LIFR,,,,,,,,,,,,METAR,141.0
EPSC 122100Z 23006KT 210V270 9999 FEW003 BKN005 05/04 Q0999,EPSC,2019-01-12T21:00:00Z,53.58,14.9,5.0,4.0,230,6,,6.21,29.498032,,,,,,,,,,,FEW,300,BKN,500,,,,,IFR,,,,,,,,,,,,METAR,47.0
EPMO 122100Z 22009KT 5000 -RA BR OVC003 01/01 Q1001,EPMO,2019-01-12T21:00:00Z,52.45,20.65,1.0,1.0,220,9,,3.11,29.557087,,,,,,,,,,-RA BR,OVC,300,,,,,,,LIFR,,,,,,,,,,,,METAR,104.0
EPLB 122100Z 24012KT 9999 BKN013 OVC035 01/M00 Q1003,EPLB,2019-01-12T21:00:00Z,51.23,22.72,1.0,0.0,240,12,,6.21,29.616142,,,,,,,,,,,BKN,1300,OVC,3500,,,,,MVFR,,,,,,,,,,,,METAR,206.0
EPKT 122100Z 22012KT 7000 FEW020 OVC024 01/M00 Q1005,EPKT,2019-01-12T21:00:00Z,50.47,19.08,1.0,0.0,220,12,,4.35,29.675198,,,,,,,,,,,FEW,2000,OVC,2400,,,,,MVFR,,,,,,,,,,,,METAR,284.0
EPBY 122100Z 24011KT 9999 -RA OVC006 03/03 Q1000,EPBY,2019-01-12T21:00:00Z,53.1,18.0,3.0,3.0,240,11,,6.21,29.52756,,,,,,,,,,-RA,OVC,600,,,,,,,IFR,,,,,,,,,,,,METAR,71.0
EPWA 122100Z 21005KT 5000 -DZ BR OVC005 01/01 Q1002 R33/2///95 TEMPO 4000 BR BKN003,EPWA,2019-01-12T21:00:00Z,52.17,20.97,1.0,1.0,210,5,,3.11,29.586615,,,,,,,,,,-DZ BR,OVC,500,,,,,,,IFR,,,,,,,,,,,,METAR,107.0
EPRZ 122100Z 21012KT 5000 -SNRA FEW003 SCT006 BKN011 M02/M04 Q1006 R27/1///95,EPRZ,2019-01-12T21:00:00Z,50.1,22.05,-2.0,-4.0,210,12,,3.11,29.704725,,,,,,,,,,-SN -RA,FEW,300,SCT,600,BKN,1100,,,MVFR,,,,,,,,,,,,METAR,202.0
EPPO 122100Z 25011KT 7000 -RA FEW006 BKN007 03/03 Q1001,EPPO,2019-01-12T21:00:00Z,52.42,16.82,3.0,3.0,250,11,,4.35,29.557087,,,,,,,,,,-RA,FEW,600,BKN,700,,,,,IFR,,,,,,,,,,,,METAR,92.0
EPLL 122100Z 22009KT 9000 SCT005 BKN007 02/02 Q1002 R25/29//95,EPLL,2019-01-12T21:00:00Z,51.72,19.4,2.0,2.0,220,9,,5.59,29.586615,,,,,,,,,,,SCT,500,BKN,700,,,,,IFR,,,,,,,,,,,,METAR,184.0
EPKK 122100Z 23008KT 9999 FEW036 BKN048 02/M00 Q1006 R25/51//95,EPKK,2019-01-12T21:00:00Z,50.07,19.8,2.0,0.0,230,8,,6.21,29.704725,,,,,,,,,,,FEW,3600,BKN,4800,,,,,VFR,,,,,,,,,,,,METAR,237.0
EPGD 122100Z 23007KT 9999 -RA FEW005 BKN009 02/01 Q0997,EPGD,2019-01-12T21:00:00Z,54.37,18.47,2.0,1.0,230,7,,6.21,29.438976,,,,,,,,,,-RA,FEW,500,BKN,900,,,,,IFR,,,,,,,,,,,,METAR,138.0
GMTT 122100Z 09015KT 9999 FEW016 12/04 Q1026 NOSIG,GMTT,2019-01-12T21:00:00Z,35.72,-5.9,12.0,4.0,90,15,,6.21,30.295275,,,,,,TRUE,,,,,FEW,1600,,,,,,,VFR,,,,,,,,,,,,METAR,21.0
GMMX 122100Z 19004KT CAVOK 12/M03 Q1024 NOSIG,GMMX,2019-01-12T21:00:00Z,31.62,-8.02,12.0,-3.0,190,4,,6.21,30.236221,,,,,,TRUE,,,,,CAVOK,,,,,,,,VFR,,,,,,,,,,,,METAR,466.0
GMMN 122100Z VRB02KT 7000 FEW008 10/08 Q1024 NOSIG,GMMN,2019-01-12T21:00:00Z,33.37,-7.57,10.0,8.0,0,2,,4.35,30.236221,,,,,,TRUE,,,,,FEW,800,,,,,,,MVFR,,,,,,,,,,,,METAR,206.0
GMME 122100Z 13003KT 080V180 CAVOK 09/07 Q1024 NOSIG,GMME,2019-01-12T21:00:00Z,34.03,-6.77,9.0,7.0,130,3,,6.21,30.236221,,,,,,TRUE,,,,,CAVOK,,,,,,,,VFR,,,,,,,,,,,,METAR,75.0
GMAD 122100Z 18010KT CAVOK 14/10 Q1022 NOSIG,GMAD,2019-01-12T21:00:00Z,30.32,-9.42,14.0,10.0,180,10,,6.21,30.177166,,,,,,TRUE,,,,,CAVOK,,,,,,,,VFR,,,,,,,,,,,,METAR,74.0
WSSS 122100Z VRB02KT 9999 FEW018 BKN300 26/24 Q1009 NOSIG,WSSS,2019-01-12T21:00:00Z,1.37,103.97,26.0,24.0,0,2,,6.21,29.793306,,,,,,TRUE,,,,,FEW,1800,BKN,30000,,,,,VFR,,,,,,,,,,,,METAR,16.0
WSAP 122100Z 05005KT CAVOK 27/24 Q1009,WSAP,2019-01-12T21:00:00Z,1.37,103.92,27.0,24.0,50,5,,6.21,29.793306,,,,,,,,,,,CAVOK,,,,,,,,VFR,,,,,,,,,,,,METAR,32.0
GMTN 122100Z 12003KT 070V160 CAVOK 10/03 Q1027 NOSIG,GMTN,2019-01-12T21:00:00Z,35.57,-5.32,10.0,3.0,120,3,,6.21,30.324802,,,,,,TRUE,,,,,CAVOK,,,,,,,,VFR,,,,,,,,,,,,METAR,10.0
GMTA 122100Z VRB02KT CAVOK 08/01 Q1028 NOSIG,GMTA,2019-01-12T21:00:00Z,35.17,-3.85,8.0,1.0,0,2,,6.21,30.35433,,,,,,TRUE,,,,,CAVOK,,,,,,,,VFR,,,,,,,,,,,,METAR,14.0
GMMW 122100Z 20003KT 170V250 CAVOK 04/M02 Q1028 NOSIG,GMMW,2019-01-12T21:00:00Z,34.98,-3.02,4.0,-2.0,200,3,,6.21,30.35433,,,,,,TRUE,,,,,CAVOK,,,,,,,,VFR,,,,,,,,,,,,METAR,175.0
GMML 122100Z 02007KT CAVOK 15/M02 Q1020 NOSIG,GMML,2019-01-12T21:00:00Z,27.13,-13.23,15.0,-2.0,20,7,,6.21,30.11811,,,,,,TRUE,,,,,CAVOK,,,,,,,,VFR,,,,,,,,,,,,METAR,6.0
GMMH 122100Z 03010KT 8000 NSC 17/11 Q1016 NOSIG,GMMH,2019-01-12T21:00:00Z,23.72,-15.93,17.0,11.0,30,10,,4.97,30.0,,,,,,TRUE,,,,,CLR,,,,,,,,MVFR,,,,,,,,,,,,METAR,11.0
GMFO 122100Z 20006KT CAVOK 02/M04 Q1028 NOSIG,GMFO,2019-01-12T21:00:00Z,34.77,-1.92,2.0,-4.0,200,6,,6.21,30.35433,,,,,,TRUE,,,,,CAVOK,,,,,,,,VFR,,,,,,,,,,,,METAR,470.0
GMFM 122100Z 12006KT CAVOK 07/M01 Q1024 NOSIG,GMFM,2019-01-12T21:00:00Z,33.87,-5.52,7.0,-1.0,120,6,,6.21,30.236221,,,,,,TRUE,,,,,CAVOK,,,,,,,,VFR,,,,,,,,,,,,METAR,549.0
KCVH 122100Z AUTO 15015G20KT 10SM FEW060 16/08 A2994 RMK A01,KCVH,2019-01-12T21:00:00Z,36.9,-121.42,16.0,8.0,150,15,20,10.0,29.940945,,,TRUE,TRUE,,,,,,,FEW,6000,,,,,,,VFR,,,,,,,,,,,,SPECI,70.0
K24A 122100Z AUTO 13006KT 10SM -RA OVC022 01/M04 A3021 RMK AO2 T00121039,K24A,2019-01-12T21:00:00Z,35.32,-83.2,1.2,-3.9,130,6,,10.0,30.209646,,,TRUE,TRUE,,,,,,-RA,OVC,2200,,,,,,,MVFR,,,,,,,,,,,,SPECI,871.0
KUKF 122100Z AUTO 00000KT 10SM OVC042 02/M06 A3041 RMK AO2,KUKF,2019-01-12T21:00:00Z,36.22,-81.1,2.0,-6.0,0,0,,10.0,30.410433,,,TRUE,TRUE,,,,,,,OVC,4200,,,,,,,VFR,,,,,,,,,,,,SPECI,396.0
KSYM 122100Z AUTO VRB05KT 9SM FEW023 SCT037 OVC043 01/M02 A3022 RMK AO2,KSYM,2019-01-12T21:00:00Z,38.22,-83.58,1.0,-2.0,0,5,,9.0,30.221457,,,TRUE,TRUE,,,,,,,FEW,2300,SCT,3700,OVC,4300,,,VFR,,,,,,,,,,,,METAR,313.0
KRHP 122100Z AUTO 21005KT 10SM -DZ BKN032 BKN038 OVC060 07/01 A3017 RMK AO2 T00710012,KRHP,2019-01-12T21:00:00Z,35.18,-83.85,7.1,1.2,210,5,,10.0,30.171259,,,TRUE,TRUE,,,,,,-DZ,BKN,3200,BKN,3800,OVC,6000,,,VFR,,,,,,,,,,,,SPECI,518.0
KOCW 122100Z AUTO 04005KT 10SM BKN060 OVC110 05/M03 A3044 RMK AO2 T00531029,KOCW,2019-01-12T21:00:00Z,35.57,-77.05,5.3,-2.9,40,5,,10.0,30.43996,,,TRUE,TRUE,,,,,,,BKN,6000,OVC,11000,,,,,VFR,,,,,,,,,,,,SPECI,12.0
KLHZ 122100Z AUTO 10SM OVC110 03/M05 A3046 RMK AO2,KLHZ,2019-01-12T21:00:00Z,36.02,-78.33,3.0,-5.0,,,,10.0,30.46063,,,TRUE,TRUE,,,,,,,OVC,11000,,,,,,,VFR,,,,,,,,,,,,SPECI,113.0
KGWW 122100Z AUTO 03005KT 10SM SCT037 BKN110 05/M03 A3044 RMK AO2 T00451031,KGWW,2019-01-12T21:00:00Z,35.47,-77.97,4.5,-3.1,30,5,,10.0,30.43996,,,TRUE,TRUE,,,,,,,SCT,3700,BKN,11000,,,,,VFR,,,,,,,,,,,,SPECI,41.0
KUKT 122100Z AUTO 00000KT 10SM FEW095 00/M15 A3046 RMK A01,KUKT,2019-01-12T21:00:00Z,40.43,-75.38,0.0,-15.0,0,0,,10.0,30.46063,,,TRUE,TRUE,,,,,,,FEW,9500,,,,,,,VFR,,,,,,,,,,,,METAR,160.0
RPLC 122100Z 34004KT 9999 FEW020 BKN100 24/20 Q1013 NOSIG RMK A2991,RPLC,2019-01-12T21:00:00Z,15.17,120.58,24.0,20.0,340,4,,6.21,29.911417,,,,,,TRUE,,,,,FEW,2000,BKN,10000,,,,,VFR,,,,,,,,,,,,METAR,196.0
RPVP 122100Z 27004KT 9999 FEW019 BKN240 25/22 Q1010 RMK A2983,RPVP,2019-01-12T21:00:00Z,9.75,118.72,25.0,22.0,270,4,,6.21,29.822834,,,,,,,,,,,FEW,1900,BKN,24000,,,,,VFR,,,,,,,,,,,,METAR,16.0
RPVD 122100Z 00000KT 9999 FEW015 26/23 Q1009 RMK A2980,RPVD,2019-01-12T21:00:00Z,9.33,123.3,26.0,23.0,0,0,,6.21,29.793306,,,,,,,,,,,FEW,1500,,,,,,,VFR,,,,,,,,,,,,METAR,8.0
LYKV 122100Z VRB01KT 9999 BKN023 M01/M03 Q1016 R14/////// NOSIG,LYKV,2019-01-12T21:00:00Z,43.82,20.58,-1.0,-3.0,0,1,,6.21,30.0,,,,,,TRUE,,,,,BKN,2300,,,,,,,MVFR,,,,,,,,,,,,METAR,209.0
LYBT 122100Z 22007KT 9999 BKN023 00/M03 Q1016 NOSIG,LYBT,2019-01-12T21:00:00Z,44.93,20.25,0.0,-3.0,220,7,,6.21,30.0,,,,,,TRUE,,,,,BKN,2300,,,,,,,MVFR,,,,,,,,,,,,METAR,80.0
LYBE 122100Z 25008KT 9999 BKN023 01/M01 Q1016 R12/2///95 NOSIG,LYBE,2019-01-12T21:00:00Z,44.82,20.28,1.0,-1.0,250,8,,6.21,30.0,,,,,,TRUE,,,,,BKN,2300,,,,,,,MVFR,,,,,,,,,,,,METAR,99.0
LKTB 122100Z 24006KT 9999 BKN019 OVC027 03/M00 Q1009 R27/29//95 NOSIG,LKTB,2019-01-12T21:00:00Z,49.13,16.68,3.0,0.0,240,6,,6.21,29.793306,,,,,,TRUE,,,,,BKN,1900,OVC,2700,,,,,MVFR,,,,,,,,,,,,METAR,246.0
LKPR 122100Z 24021KT 9999 -RASN SCT033 BKN038 02/00 Q1007 NOSIG,LKPR,2019-01-12T21:00:00Z,50.1,14.27,2.0,0.0,240,21,,6.21,29.734253,,,,,,TRUE,,,,-RA -SN,SCT,3300,BKN,3800,,,,,VFR,,,,,,,,,,,,METAR,365.0
LKMT 122100Z 22017KT 9999 -RA OVC028 02/M00 Q1007 R04/29//95 NOSIG,LKMT,2019-01-12T21:00:00Z,49.67,18.12,2.0,0.0,220,17,,6.21,29.734253,,,,,,TRUE,,,,-RA,OVC,2800,,,,,,,MVFR,,,,,,,,,,,,METAR,256.0
LKKV 122100Z 25010KT 200V280 4000 -SN BKN003 OVC012 M00/M00 Q1007 R29///////,LKKV,2019-01-12T21:00:00Z,50.2,12.92,0.0,0.0,250,10,,2.49,29.734253,,,,,,,,,,-SN,BKN,300,OVC,1200,,,,,LIFR,,,,,,,,,,,,METAR,604.0
LQTZ 122100Z 01004KT 340V050 1600 BR SCT015 BKN035 M02/M04 Q1016,LQTZ,2019-01-12T21:00:00Z,44.47,18.73,-2.0,-4.0,10,4,,0.99,30.0,,,,,,,,,,BR,SCT,1500,BKN,3500,,,,,LIFR,,,,,,,,,,,,METAR,306.0
LQSA 122100Z VRB02KT 3000 BR SCT030 BKN040 M04/M04 Q1016,LQSA,2019-01-12T21:00:00Z,43.82,18.32,-4.0,-4.0,0,2,,1.86,30.0,,,,,,,,,,BR,SCT,3000,BKN,4000,,,,,IFR,,,,,,,,,,,,METAR,511.0
LQMO 122100Z VRB04KT 9999 FEW050 06/M05 Q1013,LQMO,2019-01-12T21:00:00Z,43.28,17.83,6.0,-5.0,0,4,,6.21,29.911417,,,,,,,,,,,FEW,5000,,,,,,,VFR,,,,,,,,,,,,METAR,48.0
LQBK 122100Z 16005KT CAVOK 02/M02 Q1015 NOSIG,LQBK,2019-01-12T21:00:00Z,44.93,17.3,2.0,-2.0,160,5,,6.21,29.970472,,,,,,TRUE,,,,,CAVOK,,,,,,,,VFR,,,,,,,,,,,,METAR,122.0
RPMZ 122100Z 00000KT 9999 FEW017 23/22 Q1009 RMK A2980,RPMZ,2019-01-12T21:00:00Z,6.92,122.07,23.0,22.0,0,0,,6.21,29.793306,,,,,,,,,,,FEW,1700,,,,,,,VFR,,,,,,,,,,,,METAR,6.0
RPLI 122100Z 09004KT 9999 FEW018 21/21 Q1013 NOSIG RMK A2991,RPLI,2019-01-12T21:00:00Z,18.17,120.52,21.0,21.0,90,4,,6.21,29.911417,,,,,,TRUE,,,,,FEW,1800,,,,,,,VFR,,,,,,,,,,,,METAR,5.0
RPLB 122100Z 07008KT 9999 FEW020 BKN080 25/19 Q1013 NOSIG RMK A2991,RPLB,2019-01-12T21:00:00Z,14.8,120.27,25.0,19.0,70,8,,6.21,29.911417,,,,,,TRUE,,,,,FEW,2000,BKN,8000,,,,,VFR,,,,,,,,,,,,METAR,17.0
RPMD 122100Z 36005KT 330V040 9999 FEW016 24/23 Q1010 RMK A2983,RPMD,2019-01-12T21:00:00Z,7.12,125.65,24.0,23.0,360,5,,6.21,29.822834,,,,,,,,,,,FEW,1600,,,,,,,VFR,,,,,,,,,,,,METAR,18.0
RPVM 122100Z 36004KT 9999 SCT020 25/23 Q1011 RMK A2985,RPVM,2019-01-12T21:00:00Z,10.32,123.98,25.0,23.0,360,4,,6.21,29.852362,,,,,,,,,,,SCT,2000,,,,,,,VFR,,,,,,,,,,,,METAR,10.0
RPLL 122100Z 13002KT 9999 FEW023 26/22 Q1012 RMK A2988,RPLL,2019-01-12T21:00:00Z,14.52,121.0,26.0,22.0,130,2,,6.21,29.88189,,,,,,,,,,,FEW,2300,,,,,,,VFR,,,,,,,,,,,,METAR,21.0
WADL 122100Z 00000KT 7000 BKN016 25/24 Q1009 NOSIG,WADL,2019-01-12T21:00:00Z,-8.75,116.28,25.0,24.0,0,0,,4.35,29.793306,,,,,,TRUE,,,,,BKN,1600,,,,,,,MVFR,,,,,,,,,,,,METAR,97.0
MBPV 122100Z 04015KT 9999 SCT012 26/24 Q1018,MBPV,2019-01-12T21:00:00Z,21.77,-72.27,26.0,24.0,40,15,,6.21,30.059055,,,,,,,,,,,SCT,1200,,,,,,,VFR,,,,,,,,,,,,METAR,5.0
OPSK 122100Z 00000KT 3000 HZ NSC 11/09 Q1016 NOSIG,OPSK,2019-01-12T21:00:00Z,27.72,68.8,11.0,9.0,0,0,,1.86,30.0,,,,,,TRUE,,,,HZ,CLR,,,,,,,,IFR,,,,,,,,,,,,METAR,58.0
SBSJ 122100Z 14014KT 9999 TS FEW030 FEW040CB SCT070 27/21 Q1017,SBSJ,2019-01-12T21:00:00Z,-23.22,-45.87,27.0,21.0,140,14,,6.21,30.029528,,,,,,,,,,TS,FEW,3000,FEW,4000,SCT,7000,,,VFR,,,,,,,,,,,,METAR,646.0
MPBO 122100Z 34004KT 9999 FEW020 SCT100 Q1015 RMK DSTN TCU E,MPBO,2019-01-12T21:00:00Z,9.35,-82.25,,,340,4,,6.21,29.970472,,,,,,,,,,,FEW,2000,SCT,10000,,,,,VFR,,,,,,,,,,,,METAR,3.0
MPDA 122100Z 19009KT 9999 SCT020 32/21 Q1009,MPDA,2019-01-12T21:00:00Z,8.4,-82.43,32.0,21.0,190,9,,6.21,29.793306,,,,,,,,,,,SCT,2000,,,,,,,VFR,,,,,,,,,,,,METAR,27.0
SBAR 122100Z 10013KT 9999 FEW020 28/19 Q1014,SBAR,2019-01-12T21:00:00Z,-10.97,-37.07,28.0,19.0,100,13,,6.21,29.940945,,,,,,,,,,,FEW,2000,,,,,,,VFR,,,,,,,,,,,,METAR,9.0
MPPA 122100Z 01015KT 9999 FEW018 32/19 Q1010,MPPA,2019-01-12T21:00:00Z,8.92,-79.6,32.0,19.0,10,15,,6.21,29.822834,,,,,,,,,,,FEW,1800,,,,,,,VFR,,,,,,,,,,,,METAR,13.0
OSKL 122100Z 06006KT CAVOK 03/M03 Q1017,OSKL,2019-01-12T21:00:00Z,37.03,41.2,3.0,-3.0,60,6,,6.21,30.029528,,,,,,,,,,,CAVOK,,,,,,,,VFR,,,,,,,,,,,,METAR,455.0
OSLK 122100Z 03004KT 9999 FEW030 08/04 Q1009,OSLK,2019-01-12T21:00:00Z,35.4,35.95,8.0,4.0,30,4,,6.21,29.793306,,,,,,,,,,,FEW,3000,,,,,,,VFR,,,,,,,,,,,,METAR,48.0
OSDI 122100Z 26004KT CAVOK 02/M01 Q1011,OSDI,2019-01-12T21:00:00Z,33.42,36.52,2.0,-1.0,260,4,,6.21,29.852362,,,,,,,,,,,CAVOK,,,,,,,,VFR,,,,,,,,,,,,METAR,605.0
SBSL 122100Z 02007KT 9999 SCT020 27/23 Q1011,SBSL,2019-01-12T21:00:00Z,-2.6,-44.22,27.0,23.0,20,7,,6.21,29.852362,,,,,,,,,,,SCT,2000,,,,,,,VFR,,,,,,,,,,,,METAR,53.0
TUPJ 122100Z 14004KT 10SM SCT018 26/22 A3005 RMK Q1017,TUPJ,2019-01-12T21:00:00Z,18.43,-64.52,26.0,22.0,140,4,,10.0,30.050198,,,,,,,,,,,SCT,1800,,,,,,,VFR,,,,,,,,,,,,METAR,4.0
SBMN 122100Z 10004KT 9999 FEW020 30/23 Q1009,SBMN,2019-01-12T21:00:00Z,-3.13,-59.97,30.0,23.0,100,4,,6.21,29.793306,,,,,,,,,,,FEW,2000,,,,,,,VFR,,,,,,,,,,,,METAR,84.0
SBMO 122100Z 24006KT CAVOK 27/20 Q1013,SBMO,2019-01-12T21:00:00Z,-9.52,-35.77,27.0,20.0,240,6,,6.21,29.911417,,,,,,,,,,,CAVOK,,,,,,,,VFR,,,,,,,,,,,,METAR,115.0
SBBV 122100Z 10010KT 9999 FEW040 BKN080 33/18 Q1010,SBBV,2019-01-12T21:00:00Z,2.85,-60.7,33.0,18.0,100,10,,6.21,29.822834,,,,,,,,,,,FEW,4000,BKN,8000,,,,,VFR,,,,,,,,,,,,METAR,140.0
SBSV 122100Z 13007KT 110V170 9999 FEW020 29/22 Q1014,SBSV,2019-01-12T21:00:00Z,-12.9,-38.32,29.0,22.0,130,7,,6.21,29.940945,,,,,,,,,,,FEW,2000,,,,,,,VFR,,,,,,,,,,,,METAR,6.0
OJAI 122100Z 00000KT 7000 NSC 08/01 Q1011 NOSIG,OJAI,2019-01-12T21:00:00Z,31.72,36.0,8.0,1.0,0,0,,4.35,29.852362,,,,,,TRUE,,,,,CLR,,,,,,,,MVFR,,,,,,,,,,,,METAR,730.0
SBRF 122100Z 32004KT 260V340 9999 SCT019 BKN090 25/23 Q1013,SBRF,2019-01-12T21:00:00Z,-8.13,-34.92,25.0,23.0,320,4,,6.21,29.911417,,,,,,,,,,,SCT,1900,BKN,9000,,,,,VFR,,,,,,,,,,,,METAR,19.0
OPMT 122100Z 00000KT 1500 BR NSC 09/06 Q1018 NOSIG,OPMT,2019-01-12T21:00:00Z,30.18,71.42,9.0,6.0,0,0,,0.93,30.059055,,,,,,TRUE,,,,BR,CLR,,,,,,,,LIFR,,,,,,,,,,,,METAR,123.0
MHTG 122100Z 07010KT 9999 SCT030 26/12 Q1018 A3006 NOSIG,MHTG,2019-01-12T21:00:00Z,14.07,-87.22,26.0,12.0,70,10,,6.21,30.059055,,,,,,TRUE,,,,,SCT,3000,,,,,,,VFR,,,,,,,,,,,,METAR,1004.0
MHLM 122100Z 06010KT 9999 SCT028 29/19 Q1014 A2995 NOSIG,MHLM,2019-01-12T21:00:00Z,15.45,-87.93,29.0,19.0,60,10,,6.21,29.940945,,,,,,TRUE,,,,,SCT,2800,,,,,,,VFR,,,,,,,,,,,,METAR,26.0
MHRO 122100Z 07010KT 9999 FEW026 27/21 Q1015 A2997 NOSIG,MHRO,2019-01-12T21:00:00Z,16.32,-86.53,27.0,21.0,70,10,,6.21,29.970472,,,,,,TRUE,,,,,FEW,2600,,,,,,,VFR,,,,,,,,,,,,METAR,5.0
MRLM 122100Z 02007KT CAVOK 27/21 A2993,MRLM,2019-01-12T21:00:00Z,9.97,-83.03,27.0,21.0,20,7,,6.21,29.929134,,,,,,,,,,,CAVOK,,,,,,,,VFR,,,,,,,,,,,,METAR,2.0
SBPS 122100Z 12008KT 9999 FEW020 27/22 Q1014,SBPS,2019-01-12T21:00:00Z,-16.43,-39.07,27.0,22.0,120,8,,6.21,29.940945,,,,,,,,,,,FEW,2000,,,,,,,VFR,,,,,,,,,,,,METAR,51.0
SBFZ 122100Z 36005KT CAVOK 28/23 Q1011,SBFZ,2019-01-12T21:00:00Z,-3.77,-38.52,28.0,23.0,360,5,,6.21,29.852362,,,,,,,,,,,CAVOK,,,,,,,,VFR,,,,,,,,,,,,METAR,25.0
MGGT 122100Z VRB03KT 9999 FEW020 26/10 Q1023 A3021,MGGT,2019-01-12T21:00:00Z,14.57,-90.53,26.0,10.0,0,3,,6.21,30.206694,,,,,,,,,,,FEW,2000,,,,,,,VFR,,,,,,,,,,,,METAR,1509.0
SYEC 122100Z 03012KT 9999 SCT020 BKN100 28/22 Q1013 NOSIG,SYEC,2019-01-12T21:00:00Z,6.8,-58.1,28.0,22.0,30,12,,6.21,29.911417,,,,,,TRUE,,,,,SCT,2000,BKN,10000,,,,,VFR,,,,,,,,,,,,METAR,10.0
HAAB 122100Z 07002KT C A V O K 11/M06 Q1027,HAAB,2019-01-12T21:00:00Z,8.97,38.78,11.0,-6.0,70,2,,6.21,30.324802,,,,,,,,,,,CAVOK,,,,,,,,VFR,,,,,,,,,,,,METAR,2355.0
SBGO 122100Z 36005KT 9999 -TSRA FEW040 FEW045CB BKN100 20/19 Q1 016,SBGO,2019-01-12T21:00:00Z,-16.62,-49.22,20.0,19.0,360,5,,6.21,,,,,,,,,,,-TSRA,FEW,4000,FEW,4500,BKN,10000,,,VFR,,,,,,,,,,,,METAR,747.0
BKPR 122100Z 00000KT 7000 BKN065 M08/M11 Q1015 NOSIG RMK 17010095,BKPR,2019-01-12T21:00:00Z,42.58,21.03,-8.0,-11.0,0,0,,4.35,29.970472,,,,,,TRUE,,,,,BKN,6500,,,,,,,MVFR,,,,,,,,,,,,METAR,576.0
SPJC 122100Z 16017KT 9999 FEW014 BKN170 25/21 Q1012 NOSIG RMK DU PP000,SPJC,2019-01-12T21:00:00Z,-12.02,-77.12,25.0,21.0,160,17,,6.21,29.88189,,,,,,TRUE,,,,,FEW,1400,BKN,17000,,,,,VFR,,,,,,,,,,,,METAR,13.0
OBBI 122100Z 28006KT CAVOK 16/11 Q1019 NOSIG,OBBI,2019-01-12T21:00:00Z,26.27,50.63,16.0,11.0,280,6,,6.21,30.088583,,,,,,TRUE,,,,,CAVOK,,,,,,,,VFR,,,,,,,,,,,,METAR,2.0
WIII 122100Z 27003KT 3000 HZ SCT021 25/23 Q1008 NOSIG,WIII,2019-01-12T21:00:00Z,-6.13,106.67,25.0,23.0,270,3,,1.86,29.763779,,,,,,TRUE,,,,HZ,SCT,2100,,,,,,,IFR,,,,,,,,,,,,METAR,8.0
FNLU 122100Z 18004KT 9999 SCT023 BKN080 26/23 Q1011 NOSIG,FNLU,2019-01-12T21:00:00Z,-8.83,13.22,26.0,23.0,180,4,,6.21,29.852362,,,,,,TRUE,,,,,SCT,2300,BKN,8000,,,,,VFR,,,,,,,,,,,,METAR,70.0
MHSR 122100Z 36006KT 9999 FEW030 25/14 HZ,MHSR,2019-01-12T21:00:00Z,14.78,-88.78,25.0,14.0,360,6,,6.21,,,,,,,,,,,HZ,FEW,3000,,,,,,,VFR,,,,,,,,,,,,METAR,1079.0
MHCH 122100Z 00000KT 9999 BKN034 36/17 HZ,MHCH,2019-01-12T21:00:00Z,13.32,-87.15,36.0,17.0,0,0,,6.21,,,,,,,,,,,HZ,BKN,3400,,,,,,,VFR,,,,,,,,,,,,METAR,48.0
MHLE 122100Z 06006KT 9999 SCT024TCU 23/14 TCU S SW W WNW,MHLE,2019-01-12T21:00:00Z,14.32,-88.15,23.0,14.0,60,6,,6.21,,,,,,,,,,,,SCT,2400,,,,,,,VFR,,,,,,,,,,,,METAR,1100.0
MHGS 122100Z 36005KT 9999 SCT026TCU 28/15 TCU S ALL HZ,MHGS,2019-01-12T21:00:00Z,14.57,-88.6,28.0,15.0,360,5,,6.21,,,,,,,,,,,HZ,SCT,2600,,,,,,,VFR,,,,,,,,,,,,METAR,913.0
MHCA 122100Z 10004KT 9999 FEW030 BKN080 26/18 Q1016 HZ0 METAR ,MHCA,2019-01-12T21:00:00Z,14.9,-85.78,26.0,18.0,100,4,,6.21,30.0,,,,,,,,,,HZ,FEW,3000,BKN,8000,,,,,VFR,,,,,,,,,,,,METAR,442.0
MHPL 122100Z 30005KT 9999 FEW028TCU 26/22 Q1014 TCU E NE HZ,MHPL,2019-01-12T21:00:00Z,15.27,-83.78,26.0,22.0,300,5,,6.21,29.940945,,,,,,,,,,HZ,FEW,2800,,,,,,,VFR,,,,,,,,,,,,METAR,13.0
MHTR 122100Z 09009KT 9999 FEW026 27/19 Q1015 HZ,MHTR,2019-01-12T21:00:00Z,15.93,-85.93,27.0,19.0,90,9,,6.21,29.970472,,,,,,,,,,HZ,FEW,2600,,,,,,,VFR,,,,,,,,,,,,METAR,3.0
MHAM 122100Z 18008KT 9999 FEW032 33/22,MHAM,2019-01-12T21:00:00Z,13.27,-87.65,33.0,22.0,180,8,,6.21,,,,,,,,,,,,FEW,3200,,,,,,,VFR,,,,,,,,,,,,METAR,5.0
SKPE 122100Z 26004KT 9999 FEW017 28/19 A2996,SKPE,2019-01-12T21:00:00Z,4.82,-75.73,28.0,19.0,260,4,,6.21,29.958662,,,,,,,,,,,FEW,1700,,,,,,,VFR,,,,,,,,,,,,METAR,1346.0
SKBG 122100Z 32005KT 9999 SCT012 SCT070 24/19 A2997,SKBG,2019-01-12T21:00:00Z,7.13,-73.18,24.0,19.0,320,5,,6.21,29.970472,,,,,,,,,,,SCT,1200,SCT,7000,,,,,VFR,,,,,,,,,,,,METAR,1189.0
SKSP 122100Z 06009KT 030V090 9999 FEW018 28/22 A2994,SKSP,2019-01-12T21:00:00Z,12.57,-81.72,28.0,22.0,60,9,,6.21,29.940945,,,,,,,,,,,FEW,1800,,,,,,,VFR,,,,,,,,,,,,METAR,-2.0
SKRG 122100Z 12006KT 9999 SCT017TCU 19/13 A3023 RMK TCU/SW/NW,SKRG,2019-01-12T21:00:00Z,6.17,-75.42,19.0,13.0,120,6,,6.21,30.230314,,,,,,,,,,,SCT,1700,,,,,,,VFR,,,,,,,,,,,,METAR,2137.0
SKLT 122100Z VRB02KT 9999 SCT015 BKN100 30/25 A2981,SKLT,2019-01-12T21:00:00Z,-4.2,-69.93,30.0,25.0,0,2,,6.21,29.811024,,,,,,,,,,,SCT,1500,BKN,10000,,,,,VFR,,,,,,,,,,,,METAR,84.0
SKCC 122100Z 01005KT 340V040 9999 SCT020 SCT090 27/20 A2996,SKCC,2019-01-12T21:00:00Z,7.92,-72.52,27.0,20.0,10,5,,6.21,29.958662,,,,,,,,,,,SCT,2000,SCT,9000,,,,,VFR,,,,,,,,,,,,METAR,317.0
SKCG 122100Z 36011KT 320V050 9999 FEW017CB SCT070 29/23 A2983 RMK CB/SE,SKCG,2019-01-12T21:00:00Z,10.43,-75.52,29.0,23.0,360,11,,6.21,29.828741,,,,,,,,,,,FEW,1700,SCT,7000,,,,,VFR,,,,,,,,,,,,METAR,1.0
SKCL 122100Z 32014KT 9999 FEW030 30/18 A2988,SKCL,2019-01-12T21:00:00Z,3.53,-76.37,30.0,18.0,320,14,,6.21,29.878937,,,,,,,,,,,FEW,3000,,,,,,,VFR,,,,,,,,,,,,METAR,969.0
SKBO 122100Z 28010KT 9999 BKN020 18/09 A3026,SKBO,2019-01-12T21:00:00Z,4.7,-74.12,18.0,9.0,280,10,,6.21,30.259842,,,,,,,,,,,BKN,2000,,,,,,,MVFR,,,,,,,,,,,,METAR,2548.0
KGRY 122100Z AUTO 23008G20KT 190V270 10SM FEW060 FEW080 22/17 A3004 RMK A01,KGRY,2019-01-12T21:00:00Z,27.63,-90.45,22.0,17.0,230,8,20,10.0,30.041338,,,TRUE,TRUE,,,,,,,FEW,6000,FEW,8000,,,,,VFR,,,,,,,,,,,,METAR,58.0
GLRB 122100Z 00000KT 9000 SCT013 26/25 Q1011 RMK BRVC,GLRB,2019-01-12T21:00:00Z,6.25,-10.33,26.0,25.0,0,0,,5.59,29.852362,,,,,,,,,,,SCT,1300,,,,,,,VFR,,,,,,,,,,,,SPECI,18.0
OPST 122100Z 05006KT 4000 RA SCT040 SCT100 11/10 Q1020 TEMPO 31015G25KT 2500 TSRA FEW030CB RH94,OPST,2019-01-12T21:00:00Z,32.53,74.37,11.0,10.0,50,6,,2.49,30.11811,,,,,,,,,,RA,SCT,4000,SCT,10000,,,,,IFR,,,,,,,,,,,,METAR,247.0
SBSP 122100Z 14011KT 9999 BKN023 25/19 Q1019,SBSP,2019-01-12T21:00:00Z,-23.62,-46.63,25.0,19.0,140,11,,6.21,30.088583,,,,,,,,,,,BKN,2300,,,,,,,MVFR,,,,,,,,,,,,METAR,803.0
UBBL 122100Z 17005KT 9999 NSC 02/M04 Q1013 R33/CLRD// NOSIG RMK MT OBSC,UBBL,2019-01-12T21:00:00Z,38.75,48.82,2.0,-4.0,170,5,,6.21,29.911417,,,,,,TRUE,,,,,CLR,,,,,,,,VFR,,,,,,,,,,,,METAR,10.0
PLCH 122100Z 10013KT 9999 SCT020 29/24 Q1007,PLCH,2019-01-12T21:00:00Z,1.98,-157.35,29.0,24.0,100,13,,6.21,29.734253,,,,,,,,,,,SCT,2000,,,,,,,VFR,,,,,,,,,,,,METAR,3.0
SCEL 122100Z 21016KT CAVOK 25/11 Q1015 NOSIG,SCEL,2019-01-12T21:00:00Z,-33.37,-70.77,25.0,11.0,210,16,,6.21,29.970472,,,,,,TRUE,,,,,CAVOK,,,,,,,,VFR,,,,,,,,,,,,METAR,476.0
SBCF 122100Z 08008KT 9999 SCT040 28/15 Q1017,SBCF,2019-01-12T21:00:00Z,-19.63,-43.97,28.0,15.0,80,8,,6.21,30.029528,,,,,,,,,,,SCT,4000,,,,,,,VFR,,,,,,,,,,,,METAR,828.0
SBPV 122100Z 32002KT 9999 FEW008 SCT025 FEW035TCU BKN100 26/23 Q1010,SBPV,2019-01-12T21:00:00Z,-8.72,-63.9,26.0,23.0,320,2,,6.21,29.822834,,,,,,,,,,,FEW,800,SCT,2500,FEW,3500,BKN,10000,VFR,,,,,,,,,,,,METAR,88.0
SBBR 122100Z VRB03KT 9999 FEW035 SCT100 22/17 Q1017,SBBR,2019-01-12T21:00:00Z,-15.87,-47.92,22.0,17.0,0,3,,6.21,30.029528,,,,,,,,,,,FEW,3500,SCT,10000,,,,,VFR,,,,,,,,,,,,METAR,1061.0
LYNI 122100Z VRB01KT 6000 BKN027 M02/M03 Q1016 R11/1///94 NOSIG,LYNI,2019-01-12T21:00:00Z,43.32,21.88,-2.0,-3.0,0,1,,3.73,30.0,,,,,,TRUE,,,,,BKN,2700,,,,,,,MVFR,,,,,,,,,,,,METAR,202.0
LYPG 122100Z 14003KT 040V190 CAVOK M03/M06 Q1014 NOSIG,LYPG,2019-01-12T21:00:00Z,42.37,19.25,-3.0,-6.0,140,3,,6.21,29.940945,,,,,,TRUE,,,,,CAVOK,,,,,,,,VFR,,,,,,,,,,,,METAR,43.0
LYUZ 122100Z AUTO 25003KT 200V270 9999 OVC003/// M04/M05 Q1012,LYUZ,2019-01-12T21:00:00Z,43.9,19.7,-4.0,-5.0,250,3,,6.21,29.88189,,,TRUE,,,,,,,,OVC,300,,,,,,,LIFR,,,,,,,,,,,,METAR,904.0
LYTV 122100Z VRB04KT CAVOK 07/M07 Q1013,LYTV,2019-01-12T21:00:00Z,42.38,18.72,7.0,-7.0,0,4,,6.21,29.911417,,,,,,,,,,,CAVOK,,,,,,,,VFR,,,,,,,,,,,,METAR,5.0
LYVR 122100Z 16008KT 9999 BKN020 M00/M02 Q1015 R01/////// NOSIG,LYVR,2019-01-12T21:00:00Z,45.13,21.32,0.0,-2.0,160,8,,6.21,29.970472,,,,,,TRUE,,,,,BKN,2000,,,,,,,MVFR,,,,,,,,,,,,METAR,85.0
LZPP 122100Z AUTO 19003KT 9999 OVC041/// 03/M01 Q1010,LZPP,2019-01-12T21:00:00Z,48.62,17.83,3.0,-1.0,190,3,,6.21,29.822834,,,TRUE,,,,,,,,OVC,4100,,,,,,,VFR,,,,,,,,,,,,METAR,161.0
MRLB 122100Z 10012G22KT 9999 FEW040 32/18 A2984 NOSIG,MRLB,2019-01-12T21:00:00Z,10.6,-85.55,32.0,18.0,100,12,22,6.21,29.840551,,,,,,TRUE,,,,,FEW,4000,,,,,,,VFR,,,,,,,,,,,,METAR,82.0
MWCB 122100Z 10010KT 9999 FEW016 SCT032 27/22 Q1017,MWCB,2019-01-12T21:00:00Z,19.68,-79.88,27.0,22.0,100,10,,6.21,30.029528,,,,,,,,,,,FEW,1600,SCT,3200,,,,,VFR,,,,,,,,,,,,METAR,2.0
MWCR 122100Z 09016KT 9999 FEW016 SCT040 27/25 Q1016,MWCR,2019-01-12T21:00:00Z,19.3,-81.37,27.0,25.0,90,16,,6.21,30.0,,,,,,,,,,,FEW,1600,SCT,4000,,,,,VFR,,,,,,,,,,,,METAR,3.0
SAWH 122100Z 23034KT 9999 VCSH BKN027 SCT050 06/03 Q0998,SAWH,2019-01-12T21:00:00Z,-54.85,-68.3,6.0,3.0,230,34,,6.21,29.468504,,,,,,,,,,VCSH,BKN,2700,SCT,5000,,,,,MVFR,,,,,,,,,,,,METAR,14.0
SCVM 122100Z 30012KT CAVOK 21/13 Q1017,SCVM,2019-01-12T21:00:00Z,-32.95,-71.48,21.0,13.0,300,12,,6.21,30.029528,,,,,,,,,,,CAVOK,,,,,,,,VFR,,,,,,,,,,,,METAR,141.0
SBRB 122100Z 29004KT 9999 BKN011 SCT017 24/23 Q1011,SBRB,2019-01-12T21:00:00Z,-10.0,-67.78,24.0,23.0,290,4,,6.21,29.852362,,,,,,,,,,,BKN,1100,SCT,1700,,,,,MVFR,,,,,,,,,,,,METAR,143.0
SBMA 122100Z 02005KT 9999 FEW030 30/24 Q1010,SBMA,2019-01-12T21:00:00Z,-5.37,-49.13,30.0,24.0,20,5,,6.21,29.822834,,,,,,,,,,,FEW,3000,,,,,,,VFR,,,,,,,,,,,,METAR,102.0
SUMU 122100Z 13012KT 9999 FEW030 26/18 Q1014 NOSIG,SUMU,2019-01-12T21:00:00Z,-34.82,-56.0,26.0,18.0,130,12,,6.21,29.940945,,,,,,TRUE,,,,,FEW,3000,,,,,,,VFR,,,,,,,,,,,,METAR,32.0
HSSS 122100Z 36012KT CAVOK 26/08 Q1011 NOSIG,HSSS,2019-01-12T21:00:00Z,15.58,32.53,26.0,8.0,360,12,,6.21,29.852362,,,,,,TRUE,,,,,CAVOK,,,,,,,,VFR,,,,,,,,,,,,METAR,380.0
GVAC 122100Z 05005KT CAVOK 21/15 Q1015 NOSIG,GVAC,2019-01-12T21:00:00Z,16.72,-22.93,21.0,15.0,50,5,,6.21,29.970472,,,,,,TRUE,,,,,CAVOK,,,,,,,,VFR,,,,,,,,,,,,METAR,55.0
ZMUB 122100Z 00000MPS 8000NW NSC M24/M26 Q1019 NOSIG RMK QFE656.9 75 NT,ZMUB,2019-01-12T21:00:00Z,47.83,106.78,-24.0,-26.0,0,0,,4.97,30.088583,,,,,,TRUE,,,,,CLR,,,,,,,,MVFR,,,,,,,,,,,,METAR,1330.0
GVNP 122100Z 01007KT CAVOK 22/16 Q1015 NOSIG,GVNP,2019-01-12T21:00:00Z,14.95,-23.48,22.0,16.0,10,7,,6.21,29.970472,,,,,,TRUE,,,,,CAVOK,,,,,,,,VFR,,,,,,,,,,,,METAR,70.0
SBFN 122100Z 15003KT 100V200 9999 SCT020 26/25 Q1013,SBFN,2019-01-12T21:00:00Z,-3.85,-32.42,26.0,25.0,150,3,,6.21,29.911417,,,,,,,,,,,SCT,2000,,,,,,,VFR,,,,,,,,,,,,METAR,56.0
SBNT 122100Z 15011KT 9999 SCT025 BKN080 28/23 Q1012,SBNT,2019-01-12T21:00:00Z,-5.92,-35.25,28.0,23.0,150,11,,6.21,29.88189,,,,,,,,,,,SCT,2500,BKN,8000,,,,,VFR,,,,,,,,,,,,METAR,49.0
CYBR 122100Z 20007KT 15SM -SN OVC017 M09/M12 A3030 RMK SC8 SLP299,CYBR,2019-01-12T21:00:00Z,49.92,-99.95,-9.0,-12.0,200,7,,15.0,30.301182,1029.9,,,,,,,,,-SN,OVC,1700,,,,,,,MVFR,,,,,,,,,,,,METAR,409.0
LCLK 122100Z 32004KT 290V010 9999 FEW025 SCT030 09/06 Q1009 NOSIG,LCLK,2019-01-12T21:00:00Z,34.87,33.62,9.0,6.0,320,4,,6.21,29.793306,,,,,,TRUE,,,,,FEW,2500,SCT,3000,,,,,VFR,,,,,,,,,,,,METAR,2.0
BIRK 122100Z 02004KT 9999 -SN FEW011 BKN025 OVC042 01/M01 Q0996,BIRK,2019-01-12T21:00:00Z,64.13,-21.93,1.0,-1.0,20,4,,6.21,29.409449,,,,,,,,,,-SN,FEW,1100,BKN,2500,OVC,4200,,,MVFR,,,,,,,,,,,,METAR,61.0
BIKF 122100Z 36005KT 5000 -DZ FEW004 BKN006 BKN009 01/01 Q0996,BIKF,2019-01-12T21:00:00Z,63.98,-22.6,1.0,1.0,360,5,,3.11,29.409449,,,,,,,,,,-DZ,FEW,400,BKN,600,BKN,900,,,IFR,,,,,,,,,,,,METAR,54.0
BIEG 122100Z 36015KT 9999 FEW030 SCT073 BKN087 01/M01 Q0997 R04/720195,BIEG,2019-01-12T21:00:00Z,65.27,-14.4,1.0,-1.0,360,15,,6.21,29.438976,,,,,,,,,,,FEW,3000,SCT,7300,BKN,8700,,,VFR,,,,,,,,,,,,METAR,38.0
BIAR 122100Z 31008KT 9999 -SN OVC038 M00/M00 Q0999,BIAR,2019-01-12T21:00:00Z,65.67,-18.07,0.0,0.0,310,8,,6.21,29.498032,,,,,,,,,,-SN,OVC,3800,,,,,,,VFR,,,,,,,,,,,,METAR,27.0
LZZI 122100Z 27004KT 220V300 9999 BKN016 OVC022 01/00 Q1008,LZZI,2019-01-12T21:00:00Z,49.23,18.62,1.0,0.0,270,4,,6.21,29.763779,,,,,,,,,,,BKN,1600,OVC,2200,,,,,MVFR,,,,,,,,,,,,METAR,311.0
SULS 122100Z 01009KT 9999 FEW026 28/16 Q1013,SULS,2019-01-12T21:00:00Z,-34.87,-55.1,28.0,16.0,10,9,,6.21,29.911417,,,,,,,,,,,FEW,2600,,,,,,,VFR,,,,,,,,,,,,METAR,30.0
SUDU 122100Z 02010KT 9999 SCT030 28/20 Q1013,SUDU,2019-01-12T21:00:00Z,-33.35,-56.5,28.0,20.0,20,10,,6.21,29.911417,,,,,,,,,,,SCT,3000,,,,,,,VFR,,,,,,,,,,,,METAR,93.0
SACO 122100Z 07010KT 9999 BKN025 26/20 Q1011 NOSIG,SACO,2019-01-12T21:00:00Z,-31.32,-64.22,26.0,20.0,70,10,,6.21,29.852362,,,,,,TRUE,,,,,BKN,2500,,,,,,,MVFR,,,,,,,,,,,,METAR,474.0
SABE 122100Z 10011KT 9999 FEW030 26/18 Q1013 NOSIG,SABE,2019-01-12T21:00:00Z,-34.57,-58.42,26.0,18.0,100,11,,6.21,29.911417,,,,,,TRUE,,,,,FEW,3000,,,,,,,VFR,,,,,,,,,,,,METAR,6.0
SAAR 122100Z 09007KT CAVOK 29/20 Q1010,SAAR,2019-01-12T21:00:00Z,-32.92,-60.77,29.0,20.0,90,7,,6.21,29.822834,,,,,,,,,,,CAVOK,,,,,,,,VFR,,,,,,,,,,,,METAR,25.0
OPRN 122100Z 05008KT 4000 BR NSC 07/04 Q1020 NOSIG RMK A3015,OPRN,2019-01-12T21:00:00Z,33.62,73.08,7.0,4.0,50,8,,2.49,30.11811,,,,,,TRUE,,,,BR,CLR,,,,,,,,IFR,,,,,,,,,,,,METAR,508.0
OPNH 122100Z 00000KT 2500 FU NSC 10/06 Q1017 TEMPO 2000 FU,OPNH,2019-01-12T21:00:00Z,26.22,68.37,10.0,6.0,0,0,,1.55,30.029528,,,,,,,,,,FU,CLR,,,,,,,,IFR,,,,,,,,,,,,METAR,38.0
FQPB 122100Z 02004KT 9999 FEW020 BKN/// 26/24 Q1011,FQPB,2019-01-12T21:00:00Z,-12.97,40.5,26.0,24.0,20,4,,6.21,29.852362,,,,,,,,,,,FEW,2000,,,,,,,VFR,,,,,,,,,,,,METAR,50.0
FBSK 122100Z VRB02KT 9999 FEW030CB BKN070 27/18 Q1011 NOSIG,FBSK,2019-01-12T21:00:00Z,-24.55,25.92,27.0,18.0,0,2,,6.21,29.852362,,,,,,TRUE,,,,,FEW,3000,BKN,7000,,,,,VFR,,,,,,,,,,,,METAR,1005.0
MPMG 122100Z 35014KT 9999 FEW030 31/19 Q1010 NOSIG,MPMG,2019-01-12T21:00:00Z,8.98,-79.57,31.0,19.0,350,14,,6.21,29.822834,,,,,,TRUE,,,,,FEW,3000,,,,,,,VFR,,,,,,,,,,,,METAR,13.0
SUAA 122100Z 12009KT 9999 FEW033 26/14 Q1014,SUAA,2019-01-12T21:00:00Z,-34.77,-56.25,26.0,14.0,120,9,,6.21,29.940945,,,,,,,,,,,FEW,3300,,,,,,,VFR,,,,,,,,,,,,METAR,54.0
SADF 122100Z 07008KT CAVOK 27/17 Q1012,SADF,2019-01-12T21:00:00Z,-34.45,-58.58,27.0,17.0,70,8,,6.21,29.88189,,,,,,,,,,,CAVOK,,,,,,,,VFR,,,,,,,,,,,,METAR,4.0
NCPK 122100Z AUTO NIL,NCPK,2019-01-12T21:00:00Z,-10.88,-165.82,,,,,,,,,,TRUE,,,,,,,,,,,,,,,,,,,,,,,,,,,,METAR,3.0
NCRK 122100Z AUTO 35005KT //// ////// 32/24 Q1007,NCRK,2019-01-12T21:00:00Z,-10.05,-161.08,32.0,24.0,350,5,,,29.734253,,,TRUE,,,,,,,,,,,,,,,,,,,,,,,,,,,,METAR,5.0
NCMH 122100Z AUTO 36004KT //// ////// 31/25 Q1007,NCMH,2019-01-12T21:00:00Z,-10.38,-161.0,31.0,25.0,360,4,,,29.734253,,,TRUE,,,,,,,,,,,,,,,,,,,,,,,,,,,,METAR,0.0
NCPY 122100Z AUTO 36005KT //// ////// 29/24 Q1009,NCPY,2019-01-12T21:00:00Z,-9.02,-158.07,29.0,24.0,360,5,,,29.793306,,,TRUE,,,,,,,,,,,,,,,,,,,,,,,,,,,,METAR,2.0
NCMR 122100Z AUTO 16004KT //// ////// Q1005,NCMR,2019-01-12T21:00:00Z,-19.85,-157.7,,,160,4,,,29.675198,,,TRUE,,,,,,,,,,,,,,,,,,,,,,,,,,,,METAR,8.0
NCMK 122100Z AUTO 15007KT //// ////// 28/23 Q1005,NCMK,2019-01-12T21:00:00Z,-20.15,-157.38,28.0,23.0,150,7,,,29.675198,,,TRUE,,,,,,,,,,,,,,,,,,,,,,,,,,,,METAR,9.0
NCMG 122100Z AUTO 12009KT //// ////// 29/24 Q1002,NCMG,2019-01-12T21:00:00Z,-21.92,-157.95,29.0,24.0,120,9,,,29.586615,,,TRUE,,,,,,,,,,,,,,,,,,,,,,,,,,,,METAR,41.0
NCAT 122100Z AUTO 14003KT //// ////// Q1000,NCAT,2019-01-12T21:00:00Z,-19.97,-158.12,,,140,3,,,29.52756,,,TRUE,,,,,,,,,,,,,,,,,,,,,,,,,,,,METAR,11.0
NCRG 122100Z 12007KT 9999 SCT016 BKN045 29/24 Q1007,NCRG,2019-01-12T21:00:00Z,-21.2,-159.82,29.0,24.0,120,7,,6.21,29.734253,,,,,,,,,,,SCT,1600,BKN,4500,,,,,VFR,,,,,,,,,,,,METAR,7.0
SAZS 122100Z 32022KT 9999 FEW045 SCT050 BKN100 16/06 Q1017,SAZS,2019-01-12T21:00:00Z,-41.13,-71.17,16.0,6.0,320,22,,6.21,30.029528,,,,,,,,,,,FEW,4500,SCT,5000,BKN,10000,,,VFR,,,,,,,,,,,,METAR,840.0
SAZN 122100Z 25011KT 9999 -RA SCT040 36/M01 Q1013,SAZN,2019-01-12T21:00:00Z,-38.95,-68.15,36.0,-1.0,250,11,,6.21,29.911417,,,,,,,,,,-RA,SCT,4000,,,,,,,VFR,,,,,,,,,,,,METAR,271.0
SAZM 122100Z 34012KT CAVOK 28/13 Q1012,SAZM,2019-01-12T21:00:00Z,-37.92,-57.57,28.0,13.0,340,12,,6.21,29.88189,,,,,,,,,,,CAVOK,,,,,,,,VFR,,,,,,,,,,,,METAR,21.0
SAWE 122100Z 25023G34KT 9999 SCT025 15/00 Q0997,SAWE,2019-01-12T21:00:00Z,-53.78,-67.75,15.0,0.0,250,23,34,6.21,29.438976,,,,,,,,,,,SCT,2500,,,,,,,VFR,,,,,,,,,,,,METAR,22.0
SAVC 122100Z 05012KT 9999 FEW045 20/01 Q1010,SAVC,2019-01-12T21:00:00Z,-45.77,-67.47,20.0,1.0,50,12,,6.21,29.822834,,,,,,,,,,,FEW,4500,,,,,,,VFR,,,,,,,,,,,,METAR,46.0
SASJ 122100Z 05006KT 9999 BKN030 24/16 Q1012,SASJ,2019-01-12T21:00:00Z,-24.37,-65.1,24.0,16.0,50,6,,6.21,29.88189,,,,,,,,,,,BKN,3000,,,,,,,MVFR,,,,,,,,,,,,METAR,1167.0
SASA 122100Z 36008KT 9999 SCT018TCU SCT025 23/16 Q1013,SASA,2019-01-12T21:00:00Z,-24.85,-65.47,23.0,16.0,360,8,,6.21,29.911417,,,,,,,,,,,SCT,1800,SCT,2500,,,,,VFR,,,,,,,,,,,,METAR,1216.0
SARL 122100Z 07006KT 8000 TS SCT015 FEW045CB BKN100 23/22 Q1012,SARL,2019-01-12T21:00:00Z,-29.67,-57.13,23.0,22.0,70,6,,4.97,29.88189,,,,,,,,,,TS,SCT,1500,FEW,4500,BKN,10000,,,MVFR,,,,,,,,,,,,METAR,70.0
SARI 122100Z 05005KT 9999 FEW045TCU SCT100 28/22 Q1011,SARI,2019-01-12T21:00:00Z,-25.72,-54.47,28.0,22.0,50,5,,6.21,29.852362,,,,,,,,,,,FEW,4500,SCT,10000,,,,,VFR,,,,,,,,,,,,METAR,270.0
SARE 122100Z 19006KT 8000 -TSRA FEW012 SCT044TCU FEW056CB OVC060 24/24 Q1009,SARE,2019-01-12T21:00:00Z,-27.43,-59.03,24.0,24.0,190,6,,4.97,29.793306,,,,,,,,,,-TSRA,FEW,1200,SCT,4400,FEW,5600,OVC,6000,MVFR,,,,,,,,,,,,METAR,52.0
SARC 122100Z 16008KT 9999 TS FEW030 FEW050CB SCT100 24/23 Q1009 RMK CB OBS TODAS DIRECCIONES,SARC,2019-01-12T21:00:00Z,-27.43,-58.77,24.0,23.0,160,8,,6.21,29.793306,,,,,,,,,,TS,FEW,3000,FEW,5000,SCT,10000,,,VFR,,,,,,,,,,,,SPECI,62.0
SAOC 122100Z 05017KT 9999 FEW035 27/18 Q1010,SAOC,2019-01-12T21:00:00Z,-33.12,-64.27,27.0,18.0,50,17,,6.21,29.822834,,,,,,,,,,,FEW,3500,,,,,,,VFR,,,,,,,,,,,,METAR,421.0
SANT 122100Z 36004KT 9999 SCT020 BKN035 25/17 Q1009,SANT,2019-01-12T21:00:00Z,-26.85,-65.08,25.0,17.0,360,4,,6.21,29.793306,,,,,,,,,,,SCT,2000,BKN,3500,,,,,VFR,,,,,,,,,,,,METAR,450.0
SAME 122100Z 14006KT 9999 SCT045 29/14 Q1008,SAME,2019-01-12T21:00:00Z,-32.82,-68.77,29.0,14.0,140,6,,6.21,29.763779,,,,,,,,,,,SCT,4500,,,,,,,VFR,,,,,,,,,,,,METAR,704.0
SAEZ 122100Z 05009KT CAVOK 28/17 Q1012 NOSIG,SAEZ,2019-01-12T21:00:00Z,-34.82,-58.52,28.0,17.0,50,9,,6.21,29.88189,,,,,,TRUE,,,,,CAVOK,,,,,,,,VFR,,,,,,,,,,,,METAR,20.0
OIFM 122100Z 00000KT 8000 NSC M02/M04 Q1020 A3014,OIFM,2019-01-12T21:00:00Z,32.75,51.87,-2.0,-4.0,0,0,,4.97,30.11811,,,,,,,,,,,CLR,,,,,,,,MVFR,,,,,,,,,,,,METAR,1542.0
OIAW 122100Z 28004KT 7000 SCT040 BKN100 11/06 Q1019,OIAW,2019-01-12T21:00:00Z,31.32,48.77,11.0,6.0,280,4,,4.35,30.088583,,,,,,,,,,,SCT,4000,BKN,10000,,,,,MVFR,,,,,,,,,,,,METAR,22.0
OISY 122100Z 00000KT CAVOK 02/M08 Q1022,OISY,2019-01-12T21:00:00Z,30.7,51.55,2.0,-8.0,0,0,,6.21,30.177166,,,,,,,,,,,CAVOK,,,,,,,,VFR,,,,,,,,,,,,METAR,1811.0
OISL 122100Z 00000KT CAVOK 07/01 Q1018,OISL,2019-01-12T21:00:00Z,27.67,54.37,7.0,1.0,0,0,,6.21,30.059055,,,,,,,,,,,CAVOK,,,,,,,,VFR,,,,,,,,,,,,METAR,805.0
OINR 122100Z 22004KT CAVOK 05/02 Q1011,OINR,2019-01-12T21:00:00Z,36.88,50.67,5.0,2.0,220,4,,6.21,29.852362,,,,,,,,,,,CAVOK,,,,,,,,VFR,,,,,,,,,,,,METAR,-20.0
OINN 122100Z 20002KT CAVOK 05/M01 Q1012,OINN,2019-01-12T21:00:00Z,36.67,51.47,5.0,-1.0,200,2,,6.21,29.88189,,,,,,,,,,,CAVOK,,,,,,,,VFR,,,,,,,,,,,,METAR,-19.0
OIKQ 122100Z 00000KT 6000 NSC 14/03 Q1017,OIKQ,2019-01-12T21:00:00Z,26.75,55.9,14.0,3.0,0,0,,3.73,30.029528,,,,,,,,,,,CLR,,,,,,,,MVFR,,,,,,,,,,,,METAR,12.0
OIAM 122100Z 24006KT 9999 SCT040 11/06 Q1018,OIAM,2019-01-12T21:00:00Z,30.55,49.15,11.0,6.0,240,6,,6.21,30.059055,,,,,,,,,,,SCT,4000,,,,,,,VFR,,,,,,,,,,,,METAR,4.0
OIZJ 122100Z 06004KT 6000 NSC 20/11 Q1016,OIZJ,2019-01-12T21:00:00Z,25.65,57.8,20.0,11.0,60,4,,3.73,30.0,,,,,,,,,,,CLR,,,,,,,,MVFR,,,,,,,,,,,,METAR,4.0
OIMB 122100Z 11004KT CAVOK M03/M15 Q1022,OIMB,2019-01-12T21:00:00Z,32.9,59.28,-3.0,-15.0,110,4,,6.21,30.177166,,,,,,,,,,,CAVOK,,,,,,,,VFR,,,,,,,,,,,,METAR,1491.0
OIFS 122100Z 27002KT CAVOK M03/M08 Q1022,OIFS,2019-01-12T21:00:00Z,32.32,50.85,-3.0,-8.0,270,2,,6.21,30.177166,,,,,,,,,,,CAVOK,,,,,,,,VFR,,,,,,,,,,,,METAR,2078.0
OITM 122100Z 09006KT CAVOK M01/M11 Q1015,OITM,2019-01-12T21:00:00Z,37.35,46.15,-1.0,-11.0,90,6,,6.21,29.970472,,,,,,,,,,,CAVOK,,,,,,,,VFR,,,,,,,,,,,,METAR,1340.0
OINE 122100Z 00000KT CAVOK 07/M02 Q1012,OINE,2019-01-12T21:00:00Z,37.38,55.45,7.0,-2.0,0,0,,6.21,29.88189,,,,,,,,,,,CAVOK,,,,,,,,VFR,,,,,,,,,,,,METAR,130.0
OIMQ 122100Z AUTO 04004KT //// // ////// M01/M03 Q1021,OIMQ,2019-01-12T21:00:00Z,35.23,58.47,-1.0,-3.0,40,4,,,30.147638,,,TRUE,,,,,,,,,,,,,,,,,,,,,,,,,,,,METAR,1140.0
OIMD 122100Z AUTO 23010KT //// // ////// M00/M03 Q1020,OIMD,2019-01-12T21:00:00Z,34.38,58.63,0.0,-3.0,230,10,,,30.11811,,,TRUE,,,,,,,,,,,,,,,,,,,,,,,,,,,,METAR,1100.0
OIMC 122100Z AUTO 21016KT //// // ////// 09/M02 Q1016,OIMC,2019-01-12T21:00:00Z,36.5,61.07,9.0,-2.0,210,16,,,30.0,,,TRUE,,,,,,,,,,,,,,,,,,,,,,,,,,,,METAR,288.0
OIBL 122100Z 00000KT 8000 NSC 18/13 Q1018,OIBL,2019-01-12T21:00:00Z,26.53,54.82,18.0,13.0,0,0,,4.97,30.059055,,,,,,,,,,,CLR,,,,,,,,MVFR,,,,,,,,,,,,METAR,14.0
SBKP 122100Z 11012KT 080V140 9999 SCT045 26/18 Q1015,SBKP,2019-01-12T21:00:00Z,-23.0,-47.12,26.0,18.0,110,12,,6.21,29.970472,,,,,,,,,,,SCT,4500,,,,,,,VFR,,,,,,,,,,,,METAR,661.0
OIAH 122100Z 00000KT CAVOK 06/05 Q1020,OIAH,2019-01-12T21:00:00Z,30.33,50.83,6.0,5.0,0,0,,6.21,30.11811,,,,,,,,,,,CAVOK,,,,,,,,VFR,,,,,,,,,,,,METAR,738.0
OIZI 122100Z 02006KT CAVOK 10/M09 Q1020,OIZI,2019-01-12T21:00:00Z,27.23,60.72,10.0,-9.0,20,6,,6.21,30.11811,,,,,,,,,,,CAVOK,,,,,,,,VFR,,,,,,,,,,,,METAR,591.0
OIZB 122100Z 36004KT CAVOK 01/M13 Q1024,OIZB,2019-01-12T21:00:00Z,31.1,61.55,1.0,-13.0,360,4,,6.21,30.236221,,,,,,,,,,,CAVOK,,,,,,,,VFR,,,,,,,,,,,,METAR,489.0
OING 122100Z 00000KT CAVOK 00/M01 Q1013,OING,2019-01-12T21:00:00Z,36.9,54.4,0.0,-1.0,0,0,,6.21,29.911417,,,,,,,,,,,CAVOK,,,,,,,,VFR,,,,,,,,,,,,METAR,155.0
OIZH 122100Z 20004KT CAVOK M02/M15 Q1022 A3020,OIZH,2019-01-12T21:00:00Z,29.47,60.92,-2.0,-15.0,200,4,,6.21,30.177166,,,,,,,,,,,CAVOK,,,,,,,,VFR,,,,,,,,,,,,METAR,1370.0
OITT 122100Z 07004KT CAVOK M05/M09 Q1016 A3003 NOSIG,OITT,2019-01-12T21:00:00Z,38.13,46.23,-5.0,-9.0,70,4,,6.21,30.0,,,,,,TRUE,,,,,CAVOK,,,,,,,,VFR,,,,,,,,,,,,METAR,1361.0
OISS 122100Z 00000KT CAVOK 02/M05 Q1021 A3016,OISS,2019-01-12T21:00:00Z,29.52,52.57,2.0,-5.0,0,0,,6.21,30.147638,,,,,,,,,,,CAVOK,,,,,,,,VFR,,,,,,,,,,,,METAR,1491.0
OIMM 122100Z 13006KT 6000 NSC M01/M05 Q1018 A3007,OIMM,2019-01-12T21:00:00Z,36.23,59.62,-1.0,-5.0,130,6,,3.73,30.059055,,,,,,,,,,,CLR,,,,,,,,MVFR,,,,,,,,,,,,METAR,980.0
OIKK 122100Z 00000KT CAVOK M03/M19 Q1022 A3019,OIKK,2019-01-12T21:00:00Z,30.25,56.97,-3.0,-19.0,0,0,,6.21,30.177166,,,,,,,,,,,CAVOK,,,,,,,,VFR,,,,,,,,,,,,METAR,1754.0
OIKB 122100Z 00000KT 8000 NSC 14/01 Q1017 A3004,OIKB,2019-01-12T21:00:00Z,27.22,56.37,14.0,1.0,0,0,,4.97,30.029528,,,,,,,,,,,CLR,,,,,,,,MVFR,,,,,,,,,,,,METAR,10.0
OIII 122100Z 00000KT CAVOK 01/M07 Q1019 A3011 NOSIG,OIII,2019-01-12T21:00:00Z,35.68,51.3,1.0,-7.0,0,0,,6.21,30.088583,,,,,,TRUE,,,,,CAVOK,,,,,,,,VFR,,,,,,,,,,,,METAR,1191.0
OIBK 122100Z 00000KT 8000 NSC 19/15 Q1017,OIBK,2019-01-12T21:00:00Z,26.53,53.98,19.0,15.0,0,0,,4.97,30.029528,,,,,,,,,,,CLR,,,,,,,,MVFR,,,,,,,,,,,,METAR,30.0
OIAA 122100Z 27002KT 9999 FEW035CB FEW040 OVC100 10/03 Q1019,OIAA,2019-01-12T21:00:00Z,30.37,48.25,10.0,3.0,270,2,,6.21,30.088583,,,,,,,,,,,FEW,3500,FEW,4000,OVC,10000,,,VFR,,,,,,,,,,,,METAR,11.0
OITP 122100Z AUTO 24014KT //// // ////// 08/M06 Q1014,OITP,2019-01-12T21:00:00Z,39.6,47.88,8.0,-6.0,240,14,,,29.940945,,,TRUE,,,,,,,,,,,,,,,,,,,,,,,,,,,,METAR,77.0
OISF 122100Z 31004KT CAVOK 04/M02 Q1018,OISF,2019-01-12T21:00:00Z,28.9,53.72,4.0,-2.0,310,4,,6.21,30.059055,,,,,,,,,,,CAVOK,,,,,,,,VFR,,,,,,,,,,,,METAR,1383.0
SBVT 122100Z 07010KT 9999 SCT025 29/23 Q1015,SBVT,2019-01-12T21:00:00Z,-20.27,-40.27,29.0,23.0,70,10,,6.21,29.970472,,,,,,,,,,,SCT,2500,,,,,,,VFR,,,,,,,,,,,,METAR,4.0
ORSU 122100Z VRB02KT 8000 NSC M02/M02 Q1020,ORSU,2019-01-12T21:00:00Z,35.57,45.32,-2.0,-2.0,0,2,,4.97,30.11811,,,,,,,,,,,CLR,,,,,,,,MVFR,,,,,,,,,,,,METAR,761.0
SKBQ 122100Z 01011KT 9999 FEW020 29/22 A2984,SKBQ,2019-01-12T21:00:00Z,10.9,-74.77,29.0,22.0,10,11,,6.21,29.840551,,,,,,,,,,,FEW,2000,,,,,,,VFR,,,,,,,,,,,,METAR,10.0
LFAQ 122100Z AUTO 29012KT 9999 BKN017 BKN028 BKN062 08/07 Q1019,LFAQ,2019-01-12T21:00:00Z,49.97,2.7,8.0,7.0,290,12,,6.21,30.088583,,,TRUE,,,,,,,,BKN,1700,BKN,2800,BKN,6200,,,MVFR,,,,,,,,,,,,METAR,111.0
OIYY 122100Z 28002KT CAVOK 02/M16 Q1021,OIYY,2019-01-12T21:00:00Z,31.9,54.28,2.0,-16.0,280,2,,6.21,30.147638,,,,,,,,,,,CAVOK,,,,,,,,VFR,,,,,,,,,,,,METAR,1236.0
OITR 122100Z 27006KT CAVOK M08/M09 Q1015,OITR,2019-01-12T21:00:00Z,37.67,45.07,-8.0,-9.0,270,6,,6.21,29.970472,,,,,,,,,,,CAVOK,,,,,,,,VFR,,,,,,,,,,,,METAR,1312.0
OIIE 122100Z 27006KT CAVOK M02/M06 Q1020,OIIE,2019-01-12T21:00:00Z,35.42,51.15,-2.0,-6.0,270,6,,6.21,30.11811,,,,,,,,,,,CAVOK,,,,,,,,VFR,,,,,,,,,,,,METAR,1008.0
OIGG 122100Z 00000KT 5000 BR NSC 05/04 Q1012,OIGG,2019-01-12T21:00:00Z,37.33,49.6,5.0,4.0,0,0,,3.11,29.88189,,,,,,,,,,BR,CLR,,,,,,,,MVFR,,,,,,,,,,,,METAR,-13.0
OICC 122100Z 25004KT CAVOK 02/M09 Q1018 A3008,OICC,2019-01-12T21:00:00Z,34.35,47.17,2.0,-9.0,250,4,,6.21,30.059055,,,,,,,,,,,CAVOK,,,,,,,,VFR,,,,,,,,,,,,METAR,1322.0
LFBP 122100Z AUTO 18003KT 9999 SCT035 OVC044 06/02 Q1032 NOSIG,LFBP,2019-01-12T21:00:00Z,43.37,-0.42,6.0,2.0,180,3,,6.21,30.47244,,,TRUE,,,TRUE,,,,,SCT,3500,OVC,4400,,,,,VFR,,,,,,,,,,,,METAR,185.0
LFBO 122100Z AUTO 28010KT 9999 OVC044 07/03 Q1031 TEMPO BKN010,LFBO,2019-01-12T21:00:00Z,43.62,1.37,7.0,3.0,280,10,,6.21,30.442913,,,TRUE,,,,,,,,OVC,4400,,,,,,,VFR,,,,,,,,,,,,METAR,153.0
LFBL 122100Z AUTO 26007KT 230V290 3400 -DZ BR OVC002 04/03 Q1028 TEMPO 1200 -DZRA,LFBL,2019-01-12T21:00:00Z,45.87,1.17,4.0,3.0,260,7,,2.11,30.35433,,,TRUE,,,,,,,-DZ BR,OVC,200,,,,,,,LIFR,,,,,,,,,,,,METAR,402.0
LFBI 122100Z AUTO 24013KT 7000 OVC004 06/06 Q1028 TEMPO 2000 BR,LFBI,2019-01-12T21:00:00Z,46.57,0.32,6.0,6.0,240,13,,4.35,30.35433,,,TRUE,,,,,,,,OVC,400,,,,,,,LIFR,,,,,,,,,,,,METAR,120.0
LFMY 122100Z AUTO 24009KT 190V270 CAVOK 08/M01 Q1021,LFMY,2019-01-12T21:00:00Z,43.6,5.08,8.0,-1.0,240,9,,6.21,30.147638,,,TRUE,,,,,,,,CAVOK,,,,,,,,VFR,,,,,,,,,,,,METAR,60.0
LFMO 122100Z AUTO 33019KT CAVOK 07/M00 Q1023 TEMPO 35020G35KT,LFMO,2019-01-12T21:00:00Z,44.12,4.87,7.0,0.0,330,19,,6.21,30.206694,,,TRUE,,,,,,,,CAVOK,,,,,,,,VFR,,,,,,,,,,,,METAR,55.0
LFMC 122100Z AUTO 23007KT 200V270 9999 ////// 07/M01 Q1016,LFMC,2019-01-12T21:00:00Z,43.37,6.37,7.0,-1.0,230,7,,6.21,30.0,,,TRUE,,,,,,,,,,,,,,,,,,,,,,,,,,,,METAR,78.0
LFKS 122100Z AUTO 27007KT CAVOK 05/M02 Q1017,LFKS,2019-01-12T21:00:00Z,41.92,9.4,5.0,-2.0,270,7,,6.21,30.029528,,,TRUE,,,,,,,,CAVOK,,,,,,,,VFR,,,,,,,,,,,,METAR,22.0
LFBY 122100Z AUTO VRB01KT 8000 // NSC 08/05 Q1033,LFBY,2019-01-12T21:00:00Z,43.67,-1.07,8.0,5.0,0,1,,4.97,30.501968,,,TRUE,,,,,,,,CLR,,,,,,,,MVFR,,,,,,,,,,,,METAR,32.0
LFBM 122100Z AUTO 23002KT 9999 FEW024 OVC048 07/04 Q1033 NOSIG,LFBM,2019-01-12T21:00:00Z,43.92,-0.5,7.0,4.0,230,2,,6.21,30.501968,,,TRUE,,,TRUE,,,,,FEW,2400,OVC,4800,,,,,VFR,,,,,,,,,,,,METAR,63.0
LFBG 122100Z AUTO 21006KT 5000 BR OVC013 06/06 Q1030,LFBG,2019-01-12T21:00:00Z,45.67,-0.32,6.0,6.0,210,6,,3.11,30.413385,,,TRUE,,,,,,,BR,OVC,1300,,,,,,,MVFR,,,,,,,,,,,,METAR,31.0
LFBC 122100Z AUTO 20002KT 8000 OVC038 06/05 Q1032,LFBC,2019-01-12T21:00:00Z,44.52,-1.12,6.0,5.0,200,2,,4.97,30.47244,,,TRUE,,,,,,,,OVC,3800,,,,,,,MVFR,,,,,,,,,,,,METAR,33.0
LFPV 122100Z AUTO 29010KT 9999 BKN013 OVC019 08/07 Q1021 NOSIG,LFPV,2019-01-12T21:00:00Z,48.77,2.2,8.0,7.0,290,10,,6.21,30.147638,,,TRUE,,,TRUE,,,,,BKN,1300,OVC,1900,,,,,MVFR,,,,,,,,,,,,METAR,179.0
LFOA 122100Z AUTO 27014KT 4300 BR OVC004 06/06 Q1025,LFOA,2019-01-12T21:00:00Z,47.03,2.63,6.0,6.0,270,14,,2.67,30.265747,,,TRUE,,,,,,,BR,OVC,400,,,,,,,LIFR,,,,,,,,,,,,METAR,179.0
LFSN 122100Z AUTO 25007KT 220V300 8000 -RA OVC010 06/05 Q1018,LFSN,2019-01-12T21:00:00Z,48.67,6.22,6.0,5.0,250,7,,4.97,30.059055,,,TRUE,,,,,,,-RA,OVC,1000,,,,,,,MVFR,,,,,,,,,,,,METAR,217.0
LFQB 122100Z AUTO 25014KT 5000 DZ BR ////// 07/06 Q1021,LFQB,2019-01-12T21:00:00Z,48.32,4.02,7.0,6.0,250,14,,3.11,30.147638,,,TRUE,,,,,,,DZ BR,,,,,,,,,,,,,,,,,,,,,METAR,118.0
LFQA 122100Z AUTO 29006KT 9999 BKN010 BKN014 08/07 Q1019,LFQA,2019-01-12T21:00:00Z,49.2,4.15,8.0,7.0,290,6,,6.21,30.088583,,,TRUE,,,,,,,,BKN,1000,BKN,1400,,,,,MVFR,,,,,,,,,,,,METAR,95.0
LFOP 122100Z AUTO 29012KT 9999 OVC016 08/06 Q1021 TEMPO 1500 DZRA OVC003,LFOP,2019-01-12T21:00:00Z,49.37,1.17,8.0,6.0,290,12,,6.21,30.147638,,,TRUE,,,,,,,,OVC,1600,,,,,,,MVFR,,,,,,,,,,,,METAR,157.0
LFOH 122100Z AUTO 29012KT 250V310 9999 OVC013 09/08 Q1023,LFOH,2019-01-12T21:00:00Z,49.52,0.07,9.0,8.0,290,12,,6.21,30.206694,,,TRUE,,,,,,,,OVC,1300,,,,,,,MVFR,,,,,,,,,,,,METAR,103.0
LFLX 122100Z AUTO 24014KT 3400 -DZ BR OVC004 06/05 Q1026 NOSIG,LFLX,2019-01-12T21:00:00Z,46.85,1.72,6.0,5.0,240,14,,2.11,30.295275,,,TRUE,,,TRUE,,,,-DZ BR,OVC,400,,,,,,,LIFR,,,,,,,,,,,,METAR,157.0
LFLP 122100Z AUTO 34003KT 9999 OVC041 02/M01 Q1025,LFLP,2019-01-12T21:00:00Z,45.92,6.08,2.0,-1.0,340,3,,6.21,30.265747,,,TRUE,,,,,,,,OVC,4100,,,,,,,VFR,,,,,,,,,,,,METAR,463.0
LFCK 122100Z AUTO 30015KT 9999 SCT014 OVC042 05/04 Q1031 TEMPO 2000 DZ OVC004,LFCK,2019-01-12T21:00:00Z,43.55,2.28,5.0,4.0,300,15,,6.21,30.442913,,,TRUE,,,,,,,,SCT,1400,OVC,4200,,,,,VFR,,,,,,,,,,,,METAR,240.0
LFTW 122100Z AUTO 29005KT 260V320 CAVOK 05/M01 Q1023,LFTW,2019-01-12T21:00:00Z,43.75,4.42,5.0,-1.0,290,5,,6.21,30.206694,,,TRUE,,,,,,,,CAVOK,,,,,,,,VFR,,,,,,,,,,,,METAR,96.0
LFTH 122100Z AUTO 29005KT CAVOK 07/M00 Q1017 NOSIG,LFTH,2019-01-12T21:00:00Z,43.1,6.15,7.0,0.0,290,5,,6.21,30.029528,,,TRUE,,,TRUE,,,,,CAVOK,,,,,,,,VFR,,,,,,,,,,,,METAR,4.0
LFST 122100Z AUTO 19011KT 9999 -RA SCT025 BKN036 OVC042 04/03 Q1018 TEMPO 4000 -RA,LFST,2019-01-12T21:00:00Z,48.53,7.62,4.0,3.0,190,11,,6.21,30.059055,,,TRUE,,,,,,,-RA,SCT,2500,BKN,3600,OVC,4200,,,VFR,,,,,,,,,,,,METAR,154.0
LFRG 122100Z AUTO 27012KT 9999 BKN013 OVC018 08/07 Q1023 TEMPO 4000 RADZ BKN008 BECMG 26015G25KT,LFRG,2019-01-12T21:00:00Z,49.37,0.15,8.0,7.0,270,12,,6.21,30.206694,,,TRUE,,,,,,,,BKN,1300,OVC,1800,,,,,MVFR,,,,,,,,,,,,METAR,146.0
LFOT 122100Z AUTO 25010KT 9999 OVC007 08/07 Q1026 TEMPO 2000 -RADZ BKN003,LFOT,2019-01-12T21:00:00Z,47.43,0.72,8.0,7.0,250,10,,6.21,30.295275,,,TRUE,,,,,,,,OVC,700,,,,,,,IFR,,,,,,,,,,,,METAR,108.0
LFMH 122100Z AUTO 14003KT 9000 FEW016 BKN040 BKN052 03/02 Q1025 NOSIG,LFMH,2019-01-12T21:00:00Z,45.52,4.28,3.0,2.0,140,3,,5.59,30.265747,,,TRUE,,,TRUE,,,,,FEW,1600,BKN,4000,BKN,5200,,,VFR,,,,,,,,,,,,METAR,402.0
LFMD 122100Z AUTO VRB04KT CAVOK 02/M01 Q1015,LFMD,2019-01-12T21:00:00Z,43.53,6.95,2.0,-1.0,0,4,,6.21,29.970472,,,TRUE,,,,,,,,CAVOK,,,,,,,,VFR,,,,,,,,,,,,METAR,9.0
LFGJ 122100Z AUTO 19013KT 5000 -RA BR BKN010/// OVC016/// ///TCU 05/04 Q1024,LFGJ,2019-01-12T21:00:00Z,47.05,5.43,5.0,4.0,190,13,,3.11,30.236221,,,TRUE,,,,,,,-RA BR,BKN,1000,OVC,1600,,,,,MVFR,,,,,,,,,,,,METAR,196.0
LFBE 122100Z AUTO 23003KT 6000 FEW010 OVC040 04/04 Q1031 BECMG 2000 BR,LFBE,2019-01-12T21:00:00Z,44.82,0.52,4.0,4.0,230,3,,3.73,30.442913,,,TRUE,,,,,,,,FEW,1000,OVC,4000,,,,,MVFR,,,,,,,,,,,,METAR,52.0
LFSG 122100Z AUTO 23011KT //// R26///// // BKN008/// OVC012/// ///TCU 05/04 Q1019,LFSG,2019-01-12T21:00:00Z,48.33,6.07,5.0,4.0,230,11,,,30.088583,,,TRUE,,,,,,,,BKN,800,OVC,1200,,,,,,,,,,,,,,,,,METAR,330.0
LFRZ 122100Z AUTO 27010KT 9999 OVC033 09/08 Q1028 TEMPO 4500 -DZ BKN006,LFRZ,2019-01-12T21:00:00Z,47.32,-2.17,9.0,8.0,270,10,,6.21,30.35433,,,TRUE,,,,,,,,OVC,3300,,,,,,,VFR,,,,,,,,,,,,METAR,4.0
LFRV 122100Z AUTO 28005KT 9999 BKN024 OVC170 08/08 Q1028,LFRV,2019-01-12T21:00:00Z,47.72,-2.72,8.0,8.0,280,5,,6.21,30.35433,,,TRUE,,,,,,,,BKN,2400,OVC,17000,,,,,MVFR,,,,,,,,,,,,METAR,133.0
LFRO 122100Z AUTO 29013KT 9999 OVC016 10/08 Q1028 TEMPO BKN008,LFRO,2019-01-12T21:00:00Z,48.75,-3.47,10.0,8.0,290,13,,6.21,30.35433,,,TRUE,,,,,,,,OVC,1600,,,,,,,MVFR,,,,,,,,,,,,METAR,89.0
LFRM 122100Z AUTO 25005KT 210V290 9000 OVC006 09/08 Q1026,LFRM,2019-01-12T21:00:00Z,47.95,0.2,9.0,8.0,250,5,,5.59,30.295275,,,TRUE,,,,,,,,OVC,600,,,,,,,IFR,,,,,,,,,,,,METAR,52.0
LFRI 122100Z AUTO 29009KT 9999 OVC006 09/09 Q1029 TEMPO 3000 -DZ OVC004,LFRI,2019-01-12T21:00:00Z,46.7,-1.37,9.0,9.0,290,9,,6.21,30.383858,,,TRUE,,,,,,,,OVC,600,,,,,,,IFR,,,,,,,,,,,,METAR,91.0
LFMI 122100Z AUTO 32029G42KT CAVOK 08/M00 Q1021 NOSIG,LFMI,2019-01-12T21:00:00Z,43.52,4.92,8.0,0.0,320,29,42,6.21,30.147638,,,TRUE,,,TRUE,,,,,CAVOK,,,,,,,,VFR,,,,,,,,,,,,METAR,24.0
LFBA 122100Z AUTO 27006KT 9999 OVC018 07/04 Q1032 TEMPO 3000 -RA BKN011,LFBA,2019-01-12T21:00:00Z,44.17,0.6,7.0,4.0,270,6,,6.21,30.47244,,,TRUE,,,,,,,,OVC,1800,,,,,,,MVFR,,,,,,,,,,,,METAR,60.0
LFYR 122100Z AUTO 24007KT 4600 -RADZ BR BKN005 OVC009 07/07 Q1026,LFYR,2019-01-12T21:00:00Z,47.32,1.67,7.0,7.0,240,7,,2.86,30.295275,,,TRUE,,,,,,,-RA -DZ BR,BKN,500,OVC,900,,,,,IFR,,,,,,,,,,,,METAR,86.0
LFSX 122100Z AUTO 25012KT 7000 -RA OVC008 04/03 Q1021,LFSX,2019-01-12T21:00:00Z,47.77,6.33,4.0,3.0,250,12,,4.35,30.147638,,,TRUE,,,,,,,-RA,OVC,800,,,,,,,IFR,,,,,,,,,,,,METAR,273.0
LFSO 122100Z AUTO 24014KT 8000 -DZ BKN006 OVC010 05/05 Q1018,LFSO,2019-01-12T21:00:00Z,48.57,5.97,5.0,5.0,240,14,,4.97,30.059055,,,TRUE,,,,,,,-DZ,BKN,600,OVC,1000,,,,,IFR,,,,,,,,,,,,METAR,350.0
LFSI 122100Z AUTO 25013KT 7000 -RADZ OVC005 07/06 Q1019,LFSI,2019-01-12T21:00:00Z,48.62,4.9,7.0,6.0,250,13,,4.35,30.088583,,,TRUE,,,,,,,-RA -DZ,OVC,500,,,,,,,IFR,,,,,,,,,,,,METAR,140.0
LFRK 122100Z AUTO 27013KT 9999 BKN020 BKN110 09/08 Q1023 TEMPO 28015G25KT 4000 RADZ BKN012,LFRK,2019-01-12T21:00:00Z,49.17,-0.45,9.0,8.0,270,13,,6.21,30.206694,,,TRUE,,,,,,,,BKN,2000,BKN,11000,,,,,MVFR,,,,,,,,,,,,METAR,67.0
LFRC 122100Z AUTO 29015KT 9999 -RA OVC013/// ///TCU 09/07 Q1024,LFRC,2019-01-12T21:00:00Z,49.63,-1.47,9.0,7.0,290,15,,6.21,30.236221,,,TRUE,,,,,,,-RA,OVC,1300,,,,,,,MVFR,,,,,,,,,,,,METAR,138.0
LFPN 122100Z AUTO 27011KT 9999 BKN015 BKN030 OVC036 08/06 Q1021 TEMPO 2000 -DZRA BKN003,LFPN,2019-01-12T21:00:00Z,48.75,2.12,8.0,6.0,270,11,,6.21,30.147638,,,TRUE,,,,,,,,BKN,1500,BKN,3000,OVC,3600,,,MVFR,,,,,,,,,,,,METAR,164.0
LFJR 122100Z AUTO 27007KT 240V300 9999 BKN010 BKN014 OVC027 09/08 Q1027,LFJR,2019-01-12T21:00:00Z,47.57,-0.3,9.0,8.0,270,7,,6.21,30.324802,,,TRUE,,,,,,,,BKN,1000,BKN,1400,OVC,2700,,,MVFR,,,,,,,,,,,,METAR,60.0
LFGA 122100Z AUTO 18016KT 9999 -RA FEW022 BKN037 OVC047 04/02 Q1019,LFGA,2019-01-12T21:00:00Z,48.1,7.35,4.0,2.0,180,16,,6.21,30.088583,,,TRUE,,,,,,,-RA,FEW,2200,BKN,3700,OVC,4700,,,VFR,,,,,,,,,,,,METAR,191.0
LFBU 122100Z AUTO 22006KT 200V270 3900 -DZ BR FEW005 OVC012 05/05 Q1030 TEMPO 2000 -DZ BR OVC003,LFBU,2019-01-12T21:00:00Z,45.72,0.22,5.0,5.0,220,6,,2.42,30.413385,,,TRUE,,,,,,,-DZ BR,FEW,500,OVC,1200,,,,,IFR,,,,,,,,,,,,METAR,133.0
LFAT 122100Z AUTO 29010KT 260V320 9999 SCT029 OVC037 09/07 Q1019,LFAT,2019-01-12T21:00:00Z,50.52,1.62,9.0,7.0,290,10,,6.21,30.088583,,,TRUE,,,,,,,,SCT,2900,OVC,3700,,,,,VFR,,,,,,,,,,,,METAR,14.0
LFLL 122100Z 14004KT 9000 FEW030 SCT043 OVC058 04/03 Q1026 NOSIG,LFLL,2019-01-12T21:00:00Z,45.72,5.07,4.0,3.0,140,4,,5.59,30.295275,,,,,,TRUE,,,,,FEW,3000,SCT,4300,OVC,5800,,,VFR,,,,,,,,,,,,METAR,240.0
LFBH 122100Z AUTO 30009KT 9999 FEW010 BKN029 OVC034 09/09 Q1030 TEMPO OVC004,LFBH,2019-01-12T21:00:00Z,46.18,-1.2,9.0,9.0,300,9,,6.21,30.413385,,,TRUE,,,,,,,,FEW,1000,BKN,2900,OVC,3400,,,MVFR,,,,,,,,,,,,METAR,10.0
LFBD 122100Z AUTO 23005KT 6000 OVC034 06/06 Q1032 TEMPO 3000 -RA BR BKN005 OVC010,LFBD,2019-01-12T21:00:00Z,44.82,-0.7,6.0,6.0,230,5,,3.73,30.47244,,,TRUE,,,,,,,,OVC,3400,,,,,,,MVFR,,,,,,,,,,,,METAR,61.0
LFSB 122100Z 26009KT 230V290 9999 -RA FEW043 SCT053 BKN066 04/02 Q1021 NOSIG,LFSB,2019-01-12T21:00:00Z,47.6,7.52,4.0,2.0,260,9,,6.21,30.147638,,,,,,TRUE,,,,-RA,FEW,4300,SCT,5300,BKN,6600,,,VFR,,,,,,,,,,,,METAR,271.0
LFRN 122100Z AUTO 29011KT 9999 OVC023 10/08 Q1027 TEMPO 4000 DZ BKN009,LFRN,2019-01-12T21:00:00Z,48.07,-1.72,10.0,8.0,290,11,,6.21,30.324802,,,TRUE,,,,,,,,OVC,2300,,,,,,,MVFR,,,,,,,,,,,,METAR,37.0
LFRD 122100Z AUTO 30013KT 9999 BKN016 OVC024 10/08 Q1027 TEMPO 4000 DZ BKN008 BECMG 30015G25KT,LFRD,2019-01-12T21:00:00Z,48.58,-2.07,10.0,8.0,300,13,,6.21,30.324802,,,TRUE,,,,,,,,BKN,1600,OVC,2400,,,,,MVFR,,,,,,,,,,,,METAR,59.0
LFPB 122100Z AUTO 26008KT 9999 SCT017 BKN027 BKN034 09/07 Q1021 TEMPO 4000 -RADZ BKN007,LFPB,2019-01-12T21:00:00Z,48.97,2.45,9.0,7.0,260,8,,6.21,30.147638,,,TRUE,,,,,,,,SCT,1700,BKN,2700,BKN,3400,,,MVFR,,,,,,,,,,,,METAR,65.0
LFOK 122100Z AUTO 25014KT 9999 FEW007 BKN013 OVC018 07/07 Q1020 TEMPO 1200 DZRA OVC003,LFOK,2019-01-12T21:00:00Z,48.78,4.18,7.0,7.0,250,14,,6.21,30.11811,,,TRUE,,,,,,,,FEW,700,BKN,1300,OVC,1800,,,MVFR,,,,,,,,,,,,METAR,162.0
LFOB 122100Z AUTO 27012KT 9999 BKN021 BKN027 OVC032 09/06 Q1020 BECMG OVC013,LFOB,2019-01-12T21:00:00Z,49.47,2.12,9.0,6.0,270,12,,6.21,30.11811,,,TRUE,,,,,,,,BKN,2100,BKN,2700,OVC,3200,,,MVFR,,,,,,,,,,,,METAR,111.0
LFMU 122100Z AUTO 30010KT 9999 FEW046 07/00 Q1026,LFMU,2019-01-12T21:00:00Z,43.32,3.35,7.0,0.0,300,10,,6.21,30.295275,,,TRUE,,,,,,,,FEW,4600,,,,,,,VFR,,,,,,,,,,,,METAR,17.0
LFMT 122100Z AUTO 31006KT CAVOK 05/M01 Q1025 NOSIG,LFMT,2019-01-12T21:00:00Z,43.57,3.97,5.0,-1.0,310,6,,6.21,30.265747,,,TRUE,,,TRUE,,,,,CAVOK,,,,,,,,VFR,,,,,,,,,,,,METAR,6.0
LFMK 122100Z AUTO 29016KT 9999 OVC047 07/04 Q1030,LFMK,2019-01-12T21:00:00Z,43.22,2.32,7.0,4.0,290,16,,6.21,30.413385,,,TRUE,,,,,,,,OVC,4700,,,,,,,VFR,,,,,,,,,,,,METAR,130.0
LFLY 122100Z AUTO 15002KT 8000 -RA NSC 05/03 Q1026 NOSIG,LFLY,2019-01-12T21:00:00Z,45.72,4.95,5.0,3.0,150,2,,4.97,30.295275,,,TRUE,,,TRUE,,,,-RA,CLR,,,,,,,,MVFR,,,,,,,,,,,,METAR,201.0
LFML 122100Z AUTO 30020KT CAVOK 08/M00 Q1021 TEMPO 32025G37KT,LFML,2019-01-12T21:00:00Z,43.45,5.22,8.0,0.0,300,20,,6.21,30.147638,,,TRUE,,,,,,,,CAVOK,,,,,,,,VFR,,,,,,,,,,,,METAR,36.0
LFLB 122100Z AUTO 19004KT 9000 OVC052 03/01 Q1026 BECMG RA,LFLB,2019-01-12T21:00:00Z,45.63,5.87,3.0,1.0,190,4,,5.59,30.295275,,,TRUE,,,,,,,,OVC,5200,,,,,,,VFR,,,,,,,,,,,,METAR,239.0
LFKB 122100Z AUTO 20008KT 180V240 CAVOK 07/M02 Q1017 NOSIG,LFKB,2019-01-12T21:00:00Z,42.53,9.47,7.0,-2.0,200,8,,6.21,30.029528,,,TRUE,,,TRUE,,,,,CAVOK,,,,,,,,VFR,,,,,,,,,,,,METAR,12.0
LFBZ 122100Z AUTO VRB02KT 9999 FEW032 OVC054 10/05 Q1033 NOSIG,LFBZ,2019-01-12T21:00:00Z,43.47,-1.52,10.0,5.0,0,2,,6.21,30.501968,,,TRUE,,,TRUE,,,,,FEW,3200,OVC,5400,,,,,VFR,,,,,,,,,,,,METAR,71.0
LFBT 122100Z AUTO 20007KT 9999 OVC041 03/02 Q1032 NOSIG,LFBT,2019-01-12T21:00:00Z,43.17,0.0,3.0,2.0,200,7,,6.21,30.47244,,,TRUE,,,TRUE,,,,,OVC,4100,,,,,,,VFR,,,,,,,,,,,,METAR,363.0
VANP 122100Z 00000KT 2500 HZ NSC 17/15 Q1014 NOSIG,VANP,2019-01-12T21:00:00Z,21.08,79.05,17.0,15.0,0,0,,1.55,29.940945,,,,,,TRUE,,,,HZ,CLR,,,,,,,,IFR,,,,,,,,,,,,METAR,310.0
VOCL 122100Z 16002KT 4000 BR FEW012 24/21 Q1011 TEMPO 3000 BR,VOCL,2019-01-12T21:00:00Z,11.13,75.95,24.0,21.0,160,2,,2.49,29.852362,,,,,,,,,,BR,FEW,1200,,,,,,,IFR,,,,,,,,,,,,METAR,104.0
VOTV 122100Z 13004KT 3000 BR FEW015 26/24 Q1010 NOSIG,VOTV,2019-01-12T21:00:00Z,8.47,76.95,26.0,24.0,130,4,,1.86,29.822834,,,,,,TRUE,,,,BR,FEW,1500,,,,,,,IFR,,,,,,,,,,,,METAR,8.0
VOHS 122100Z 14004KT 5000 BR NSC 17/16 Q1017 NOSIG,VOHS,2019-01-12T21:00:00Z,17.23,78.43,17.0,16.0,140,4,,3.11,30.029528,,,,,,TRUE,,,,BR,CLR,,,,,,,,MVFR,,,,,,,,,,,,METAR,1.0
VEGT 122100Z 00000KT 2000 BR FEW018 13/12 Q1017 NOSIG,VEGT,2019-01-12T21:00:00Z,26.1,91.58,13.0,12.0,0,0,,1.24,30.029528,,,,,,TRUE,,,,BR,FEW,1800,,,,,,,IFR,,,,,,,,,,,,METAR,54.0
LFSL 122100Z AUTO VRB02KT 6000 SCT008 BKN035 OVC044 04/04 Q1029 BECMG 4000 -DZ OVC005,LFSL,2019-01-12T21:00:00Z,45.03,1.48,4.0,4.0,0,2,,3.73,30.383858,,,TRUE,,,,,,,,SCT,800,BKN,3500,OVC,4400,,,MVFR,,,,,,,,,,,,METAR,310.0
LFMV 122100Z AUTO 34017G27KT CAVOK 07/M01 Q1022,LFMV,2019-01-12T21:00:00Z,43.9,4.9,7.0,-1.0,340,17,27,6.21,30.177166,,,TRUE,,,,,,,,CAVOK,,,,,,,,VFR,,,,,,,,,,,,METAR,38.0
LFMP 122100Z AUTO 32015G27KT 290V010 CAVOK 09/01 Q1025 TEMPO 31025G45KT,LFMP,2019-01-12T21:00:00Z,42.72,2.87,9.0,1.0,320,15,27,6.21,30.265747,,,TRUE,,,,,,,,CAVOK,,,,,,,,VFR,,,,,,,,,,,,METAR,48.0
LFLS 122100Z AUTO 09004KT 9999 BKN030 BKN035 OVC049 03/00 Q1025,LFLS,2019-01-12T21:00:00Z,45.37,5.32,3.0,0.0,90,4,,6.21,30.265747,,,TRUE,,,,,,,,BKN,3000,BKN,3500,OVC,4900,,,MVFR,,,,,,,,,,,,METAR,386.0
LFLC 122100Z AUTO 27009KT 9999 FEW029 BKN042 OVC054 06/01 Q1026 NOSIG,LFLC,2019-01-12T21:00:00Z,45.77,3.17,6.0,1.0,270,9,,6.21,30.295275,,,TRUE,,,TRUE,,,,,FEW,2900,BKN,4200,OVC,5400,,,VFR,,,,,,,,,,,,METAR,330.0
LFKJ 122100Z AUTO 05004KT CAVOK 03/M01 Q1020 NOSIG,LFKJ,2019-01-12T21:00:00Z,41.92,8.8,3.0,-1.0,50,4,,6.21,30.11811,,,TRUE,,,TRUE,,,,,CAVOK,,,,,,,,VFR,,,,,,,,,,,,METAR,9.0
LFKF 122100Z AUTO 25009KT CAVOK 08/04 Q1019 NOSIG,LFKF,2019-01-12T21:00:00Z,41.5,9.08,8.0,4.0,250,9,,6.21,30.088583,,,TRUE,,,TRUE,,,,,CAVOK,,,,,,,,VFR,,,,,,,,,,,,METAR,23.0
LFKC 122100Z AUTO 16011KT CAVOK 08/M03 Q1016,LFKC,2019-01-12T21:00:00Z,42.52,8.8,8.0,-3.0,160,11,,6.21,30.0,,,TRUE,,,,,,,,CAVOK,,,,,,,,VFR,,,,,,,,,,,,METAR,58.0
LFJL 122100Z AUTO 25011KT 9999 -RA OVC006/// ///TCU 06/06 Q1017 TEMPO 3000 RA BKN003 BECMG 23015G25KT,LFJL,2019-01-12T21:00:00Z,48.97,6.25,6.0,6.0,250,11,,6.21,30.029528,,,TRUE,,,,,,,-RA,OVC,600,,,,,,,IFR,,,,,,,,,,,,METAR,264.0
LFCR 122100Z AUTO 28011KT 9999 BKN008 BKN012 OVC033 03/02 Q1028 BECMG 1500 BR OVC002,LFCR,2019-01-12T21:00:00Z,44.38,2.47,3.0,2.0,280,11,,6.21,30.35433,,,TRUE,,,,,,,,BKN,800,BKN,1200,OVC,3300,,,IFR,,,,,,,,,,,,METAR,580.0
LFRL 122100Z AUTO 31011KT 9999 BKN016 09/07 Q1029,LFRL,2019-01-12T21:00:00Z,48.27,-4.42,9.0,7.0,310,11,,6.21,30.383858,,,TRUE,,,,,,,,BKN,1600,,,,,,,MVFR,,,,,,,,,,,,METAR,82.0
LFRJ 122100Z AUTO 31007KT 9999 BKN019 BKN240 08/08 Q1029,LFRJ,2019-01-12T21:00:00Z,48.52,-4.15,8.0,8.0,310,7,,6.21,30.383858,,,TRUE,,,,,,,,BKN,1900,BKN,24000,,,,,MVFR,,,,,,,,,,,,METAR,115.0
LFOJ 122100Z AUTO 25014KT 9000 -DZ BKN008 OVC012 08/07 Q1023,LFOJ,2019-01-12T21:00:00Z,47.97,1.75,8.0,7.0,250,14,,5.59,30.206694,,,TRUE,,,,,,,-DZ,BKN,800,OVC,1200,,,,,IFR,,,,,,,,,,,,METAR,125.0
LFOE 122100Z AUTO 27011KT 9999 BKN022 OVC028 09/07 Q1022 TEMPO 3000 -DZRA BKN003,LFOE,2019-01-12T21:00:00Z,49.02,1.22,9.0,7.0,270,11,,6.21,30.177166,,,TRUE,,,,,,,,BKN,2200,OVC,2800,,,,,MVFR,,,,,,,,,,,,METAR,146.0
LFOC 122100Z AUTO 26013KT 9999 FEW008 BKN018 BKN023 08/07 Q1024,LFOC,2019-01-12T21:00:00Z,48.03,1.37,8.0,7.0,260,13,,6.21,30.236221,,,TRUE,,,,,,,,FEW,800,BKN,1800,BKN,2300,,,MVFR,,,,,,,,,,,,METAR,127.0
LFRS 122100Z AUTO 27005KT 9999 BKN009 BKN035 OVC170 09/08 Q1028 TEMPO 4500 -DZ,LFRS,2019-01-12T21:00:00Z,47.17,-1.6,9.0,8.0,270,5,,6.21,30.35433,,,TRUE,,,,,,,,BKN,900,BKN,3500,OVC,17000,,,IFR,,,,,,,,,,,,METAR,27.0
LFRB 122100Z AUTO 30005KT 270V330 9999 BKN017 09/07 Q1029 TEMPO BKN008 OVC010,LFRB,2019-01-12T21:00:00Z,48.45,-4.42,9.0,7.0,300,5,,6.21,30.383858,,,TRUE,,,,,,,,BKN,1700,,,,,,,MVFR,,,,,,,,,,,,METAR,103.0
LFQQ 122100Z AUTO 26011KT 9999 BKN031 OVC038 08/06 Q1018 BECMG OVC013,LFQQ,2019-01-12T21:00:00Z,50.57,3.1,8.0,6.0,260,11,,6.21,30.059055,,,TRUE,,,,,,,,BKN,3100,OVC,3800,,,,,VFR,,,,,,,,,,,,METAR,52.0
LFPO 122100Z 28008KT 9999 BKN019 09/07 Q1022 TEMPO 2000 -DZRA BKN004,LFPO,2019-01-12T21:00:00Z,48.72,2.38,9.0,7.0,280,8,,6.21,30.177166,,,,,,,,,,,BKN,1900,,,,,,,MVFR,,,,,,,,,,,,METAR,96.0
LFPG 122100Z 30012KT 9999 SCT014 BKN017 BKN040 09/07 Q1021 NOSIG,LFPG,2019-01-12T21:00:00Z,49.02,2.52,9.0,7.0,300,12,,6.21,30.147638,,,,,,TRUE,,,,,SCT,1400,BKN,1700,BKN,4000,,,MVFR,,,,,,,,,,,,METAR,109.0
LFMN 122100Z 33009KT CAVOK 06/M03 Q1015 NOSIG,LFMN,2019-01-12T21:00:00Z,43.63,7.2,6.0,-3.0,330,9,,6.21,29.970472,,,,,,TRUE,,,,,CAVOK,,,,,,,,VFR,,,,,,,,,,,,METAR,10.0
LPMA 122100Z 04013KT 360V070 9999 FEW015 17/12 Q1023,LPMA,2019-01-12T21:00:00Z,32.7,-16.77,17.0,12.0,40,13,,6.21,30.206694,,,,,,,,,,,FEW,1500,,,,,,,VFR,,,,,,,,,,,,METAR,55.0
LPFR 122100Z 02008KT CAVOK 10/01 Q1028,LPFR,2019-01-12T21:00:00Z,37.02,-7.97,10.0,1.0,20,8,,6.21,30.35433,,,,,,,,,,,CAVOK,,,,,,,,VFR,,,,,,,,,,,,METAR,4.0
GCHI 122100Z AUTO 16011KT 9999 SCT031/// 19/13 Q1020,GCHI,2019-01-12T21:00:00Z,27.82,-17.87,19.0,13.0,160,11,,6.21,30.11811,,,TRUE,,,,,,,,SCT,3100,,,,,,,VFR,,,,,,,,,,,,METAR,30.0
GCGM 122100Z AUTO VRB05KT 9999 NCD 17/07 Q1020 RMK R09/03006KT 350V070 ARP/04006KT 350V100,GCGM,2019-01-12T21:00:00Z,28.03,-17.22,17.0,7.0,0,5,,6.21,30.11811,,,TRUE,,,,,,,,CLR,,,,,,,,VFR,,,,,,,,,,,,METAR,219.0
LEZG 122100Z 28018KT CAVOK 07/03 Q1028,LEZG,2019-01-12T21:00:00Z,41.67,-1.02,7.0,3.0,280,18,,6.21,30.35433,,,,,,,,,,,CAVOK,,,,,,,,VFR,,,,,,,,,,,,METAR,258.0
LEVT 122100Z 01004KT 9999 FEW010 BKN022 05/04 Q1032,LEVT,2019-01-12T21:00:00Z,42.87,-2.72,5.0,4.0,10,4,,6.21,30.47244,,,,,,,,,,,FEW,1000,BKN,2200,,,,,MVFR,,,,,,,,,,,,METAR,509.0
LEJR 122100Z 00000KT CAVOK 05/02 Q1028,LEJR,2019-01-12T21:00:00Z,36.75,-6.07,5.0,2.0,0,0,,6.21,30.35433,,,,,,,,,,,CAVOK,,,,,,,,VFR,,,,,,,,,,,,METAR,30.0
LEST 122100Z 05007KT 020V100 CAVOK 06/03 Q1033 NOSIG,LEST,2019-01-12T21:00:00Z,42.88,-8.42,6.0,3.0,50,7,,6.21,30.501968,,,,,,TRUE,,,,,CAVOK,,,,,,,,VFR,,,,,,,,,,,,METAR,367.0
LEDA 122100Z AUTO 21006KT 9999 NCD 02/00 Q1026,LEDA,2019-01-12T21:00:00Z,41.73,0.53,2.0,0.0,210,6,,6.21,30.295275,,,TRUE,,,,,,,,CLR,,,,,,,,VFR,,,,,,,,,,,,METAR,350.0
LESA 122100Z AUTO 00000KT 6000 NSC M02/M03 Q1031,LESA,2019-01-12T21:00:00Z,40.95,-5.5,-2.0,-3.0,0,0,,3.73,30.442913,,,TRUE,,,,,,,,CLR,,,,,,,,MVFR,,,,,,,,,,,,METAR,795.0
LPBJ 122100Z 07005KT CAVOK 07/00 Q1028,LPBJ,2019-01-12T21:00:00Z,38.08,-7.93,7.0,0.0,70,5,,6.21,30.35433,,,,,,,,,,,CAVOK,,,,,,,,VFR,,,,,,,,,,,,METAR,194.0
LETL 122100Z AUTO 32004KT 9999 NCD M03/M05 Q1028,LETL,2019-01-12T21:00:00Z,40.42,-1.22,-3.0,-5.0,320,4,,6.21,30.35433,,,TRUE,,,,,,,,CLR,,,,,,,,VFR,,,,,,,,,,,,METAR,1013.0
LECH 122100Z AUTO 16001KT 9999 NCD 07/00 Q1027,LECH,2019-01-12T21:00:00Z,40.2,0.07,7.0,0.0,160,1,,6.21,30.324802,,,TRUE,,,,,,,,CLR,,,,,,,,VFR,,,,,,,,,,,,METAR,337.0
LEBG 122100Z AUTO 04010KT 010V070 9999 BKN019/// 04/02 Q1031,LEBG,2019-01-12T21:00:00Z,42.37,-3.62,4.0,2.0,40,10,,6.21,30.442913,,,TRUE,,,,,,,,BKN,1900,,,,,,,MVFR,,,,,,,,,,,,METAR,891.0
LEAG 122100Z AUTO 10011KT 060V140 CAVOK 14/05 Q1028,LEAG,2019-01-12T21:00:00Z,,,14.0,5.0,100,11,,6.21,30.35433,,,TRUE,,,,,,,,CAVOK,,,,,,,,VFR,,,,,,,,,,,,METAR,
LEMI 122100Z 27007KT CAVOK 05/M01 Q1028,LEMI,2019-01-12T21:00:00Z,,,5.0,-1.0,270,7,,6.21,30.35433,,,,,,,,,,,CAVOK,,,,,,,,VFR,,,,,,,,,,,,METAR,
GEML 122100Z AUTO VRB02KT 9999 NCD 11/02 Q1028,GEML,2019-01-12T21:00:00Z,35.27,-2.95,11.0,2.0,0,2,,6.21,30.35433,,,TRUE,,,,,,,,CLR,,,,,,,,VFR,,,,,,,,,,,,METAR,55.0
LELN 122100Z AUTO 30003KT 9000 NCD M05/M06 Q1031,LELN,2019-01-12T21:00:00Z,42.57,-5.65,-5.0,-6.0,300,3,,5.59,30.442913,,,TRUE,,,,,,,,CLR,,,,,,,,VFR,,,,,,,,,,,,METAR,914.0
LELC 122100Z 29004KT CAVOK 04/01 Q1028 NOSIG,LELC,2019-01-12T21:00:00Z,37.77,-0.8,4.0,1.0,290,4,,6.21,30.35433,,,,,,TRUE,,,,,CAVOK,,,,,,,,VFR,,,,,,,,,,,,METAR,3.0
LEXJ 122100Z 22005KT 9999 SCT028 OVC040 09/09 Q1034,LEXJ,2019-01-12T21:00:00Z,43.42,-3.82,9.0,9.0,220,5,,6.21,30.531496,,,,,,,,,,,SCT,2800,OVC,4000,,,,,VFR,,,,,,,,,,,,METAR,6.0
LEPP 122100Z 33015KT 9999 SCT022 BKN030 06/03 Q1031,LEPP,2019-01-12T21:00:00Z,42.77,-1.65,6.0,3.0,330,15,,6.21,30.442913,,,,,,,,,,,SCT,2200,BKN,3000,,,,,MVFR,,,,,,,,,,,,METAR,459.0
LESO 122100Z AUTO 33004KT 280V020 9999 FEW039/// SCT048/// OVC056/// 11/04 Q1033,LESO,2019-01-12T21:00:00Z,43.35,-1.8,11.0,4.0,330,4,,6.21,30.501968,,,TRUE,,,,,,,,FEW,3900,SCT,4800,OVC,5600,,,VFR,,,,,,,,,,,,METAR,8.0
LERS 122100Z 26018G28KT CAVOK 09/02 Q1026,LERS,2019-01-12T21:00:00Z,41.13,1.17,9.0,2.0,260,18,28,6.21,30.295275,,,,,,,,,,,CAVOK,,,,,,,,VFR,,,,,,,,,,,,METAR,76.0
LEMH 122100Z 31003KT 280V360 9999 BKN032 09/05 Q1026,LEMH,2019-01-12T21:00:00Z,39.87,4.22,9.0,5.0,310,3,,6.21,30.295275,,,,,,,,,,,BKN,3200,,,,,,,VFR,,,,,,,,,,,,METAR,82.0
LEGR 122100Z 00000KT CAVOK 00/M02 Q1028,LEGR,2019-01-12T21:00:00Z,37.17,-3.77,0.0,-2.0,0,0,,6.21,30.35433,,,,,,,,,,,CAVOK,,,,,,,,VFR,,,,,,,,,,,,METAR,559.0
LEGE 122100Z 00000KT CAVOK 01/M01 Q1025,LEGE,2019-01-12T21:00:00Z,41.88,2.77,1.0,-1.0,0,0,,6.21,30.265747,,,,,,,,,,,CAVOK,,,,,,,,VFR,,,,,,,,,,,,METAR,129.0
LECO 122100Z 04005KT 350V080 9999 BKN030 10/05 Q1034 NOSIG,LECO,2019-01-12T21:00:00Z,43.28,-8.37,10.0,5.0,40,5,,6.21,30.531496,,,,,,TRUE,,,,,BKN,3000,,,,,,,MVFR,,,,,,,,,,,,METAR,103.0
LEBB 122100Z 10003KT 040V120 9999 SCT030 BKN048 08/08 Q1034 NOSIG,LEBB,2019-01-12T21:00:00Z,43.28,-2.92,8.0,8.0,100,3,,6.21,30.531496,,,,,,TRUE,,,,,SCT,3000,BKN,4800,,,,,VFR,,,,,,,,,,,,METAR,34.0
LEAS 122100Z 17003KT 9999 FEW036 BKN042 09/06 Q1035 NOSIG,LEAS,2019-01-12T21:00:00Z,43.53,-6.02,9.0,6.0,170,3,,6.21,30.561024,,,,,,TRUE,,,,,FEW,3600,BKN,4200,,,,,VFR,,,,,,,,,,,,METAR,134.0
LEAM 122100Z 33007KT 300V040 CAVOK 09/04 Q1029,LEAM,2019-01-12T21:00:00Z,36.85,-2.37,9.0,4.0,330,7,,6.21,30.383858,,,,,,,,,,,CAVOK,,,,,,,,VFR,,,,,,,,,,,,METAR,21.0
LEZL 122100Z 04003KT 010V070 CAVOK 06/M01 Q1028 NOSIG,LEZL,2019-01-12T21:00:00Z,37.42,-5.9,6.0,-1.0,40,3,,6.21,30.35433,,,,,,TRUE,,,,,CAVOK,,,,,,,,VFR,,,,,,,,,,,,METAR,31.0
LEVX 122100Z VRB02KT CAVOK 06/03 Q1031 NOSIG,LEVX,2019-01-12T21:00:00Z,42.22,-8.62,6.0,3.0,0,2,,6.21,30.442913,,,,,,TRUE,,,,,CAVOK,,,,,,,,VFR,,,,,,,,,,,,METAR,256.0
LEVC 122100Z 30005KT CAVOK 04/01 Q1027 NOSIG,LEVC,2019-01-12T21:00:00Z,39.5,-0.47,4.0,1.0,300,5,,6.21,30.324802,,,,,,TRUE,,,,,CAVOK,,,,,,,,VFR,,,,,,,,,,,,METAR,62.0
LEPA 122100Z 06004KT 040V110 9999 FEW028 05/02 Q1027 NOSIG,LEPA,2019-01-12T21:00:00Z,39.53,2.72,5.0,2.0,60,4,,6.21,30.324802,,,,,,TRUE,,,,,FEW,2800,,,,,,,VFR,,,,,,,,,,,,METAR,8.0
LEMG 122100Z 28008KT 9999 FEW035 08/05 Q1029 NOSIG,LEMG,2019-01-12T21:00:00Z,36.67,-4.5,8.0,5.0,280,8,,6.21,30.383858,,,,,,TRUE,,,,,FEW,3500,,,,,,,VFR,,,,,,,,,,,,METAR,7.0
LEMD 122100Z 00000KT CAVOK 01/M02 Q1028 NOSIG,LEMD,2019-01-12T21:00:00Z,40.48,-3.57,1.0,-2.0,0,0,,6.21,30.35433,,,,,,TRUE,,,,,CAVOK,,,,,,,,VFR,,,,,,,,,,,,METAR,582.0
LEIB 122100Z 22009KT CAVOK 11/04 Q1028 NOSIG,LEIB,2019-01-12T21:00:00Z,38.87,1.37,11.0,4.0,220,9,,6.21,30.35433,,,,,,TRUE,,,,,CAVOK,,,,,,,,VFR,,,,,,,,,,,,METAR,12.0
LEBL 122100Z 33006KT CAVOK 05/00 Q1026 NOSIG,LEBL,2019-01-12T21:00:00Z,41.27,2.07,5.0,0.0,330,6,,6.21,30.295275,,,,,,TRUE,,,,,CAVOK,,,,,,,,VFR,,,,,,,,,,,,METAR,6.0
LEAL 122100Z 27007KT CAVOK 06/00 Q1028 NOSIG,LEAL,2019-01-12T21:00:00Z,38.27,-0.55,6.0,0.0,270,7,,6.21,30.35433,,,,,,TRUE,,,,,CAVOK,,,,,,,,VFR,,,,,,,,,,,,METAR,31.0
LPPD 122100Z 04011KT 010V070 9999 FEW020 BKN040 16/12 Q1027,LPPD,2019-01-12T21:00:00Z,37.72,-25.68,16.0,12.0,40,11,,6.21,30.324802,,,,,,,,,,,FEW,2000,BKN,4000,,,,,VFR,,,,,,,,,,,,METAR,72.0
LPAZ 122100Z 08018G29KT 9999 SCT017 BKN024 16/13 Q1025,LPAZ,2019-01-12T21:00:00Z,36.97,-25.17,16.0,13.0,80,18,29,6.21,30.265747,,,,,,,,,,,SCT,1700,BKN,2400,,,,,MVFR,,,,,,,,,,,,METAR,100.0
LFSD 122100Z AUTO 21009KT 9999 BKN021 BKN029 OVC098 05/04 Q1023,LFSD,2019-01-12T21:00:00Z,47.27,5.07,5.0,4.0,210,9,,6.21,30.206694,,,TRUE,,,,,,,,BKN,2100,BKN,2900,OVC,9800,,,MVFR,,,,,,,,,,,,METAR,227.0
LFRT 122100Z AUTO 31010KT 9999 BKN012 OVC020 09/07 Q1027,LFRT,2019-01-12T21:00:00Z,48.52,-2.85,9.0,7.0,310,10,,6.21,30.324802,,,TRUE,,,,,,,,BKN,1200,OVC,2000,,,,,MVFR,,,,,,,,,,,,METAR,136.0
LFRQ 122100Z AUTO 32009KT 9999 BKN021 09/08 Q1029 BECMG BKN009 BKN015,LFRQ,2019-01-12T21:00:00Z,47.97,-4.17,9.0,8.0,320,9,,6.21,30.383858,,,TRUE,,,,,,,,BKN,2100,,,,,,,MVFR,,,,,,,,,,,,METAR,94.0
LFRH 122100Z AUTO 29007KT 9999 FEW014 BKN024 09/07 Q1029 TEMPO BKN006,LFRH,2019-01-12T21:00:00Z,47.77,-3.45,9.0,7.0,290,7,,6.21,30.383858,,,TRUE,,,,,,,,FEW,1400,BKN,2400,,,,,MVFR,,,,,,,,,,,,METAR,44.0
LFPT 122100Z AUTO 29006KT 9999 BKN017 BKN029 OVC035 09/07 Q1021,LFPT,2019-01-12T21:00:00Z,49.1,2.03,9.0,7.0,290,6,,6.21,30.147638,,,TRUE,,,,,,,,BKN,1700,BKN,2900,OVC,3500,,,MVFR,,,,,,,,,,,,METAR,99.0
LFPM 122100Z AUTO 25011KT 9999 BKN019 OVC045 08/07 Q1021,LFPM,2019-01-12T21:00:00Z,48.62,2.67,8.0,7.0,250,11,,6.21,30.147638,,,TRUE,,,,,,,,BKN,1900,OVC,4500,,,,,MVFR,,,,,,,,,,,,METAR,92.0
LFLN 122100Z AUTO 25009KT 220V280 9999 -RA BKN013 BKN019 OVC031 05/04 Q1025 BECMG OVC008,LFLN,2019-01-12T21:00:00Z,46.42,4.02,5.0,4.0,250,9,,6.21,30.265747,,,TRUE,,,,,,,-RA,BKN,1300,BKN,1900,OVC,3100,,,MVFR,,,,,,,,,,,,METAR,244.0
GCXO 122100Z 13006KT 100V160 9999 SCT009 11/11 Q1021 NOSIG,GCXO,2019-01-12T21:00:00Z,28.48,-16.35,11.0,11.0,130,6,,6.21,30.147638,,,,,,TRUE,,,,,SCT,900,,,,,,,VFR,,,,,,,,,,,,METAR,632.0
GCTS 122100Z 07013KT 9999 FEW035 16/12 Q1020 NOSIG,GCTS,2019-01-12T21:00:00Z,28.05,-16.57,16.0,12.0,70,13,,6.21,30.11811,,,,,,TRUE,,,,,FEW,3500,,,,,,,VFR,,,,,,,,,,,,METAR,72.0
GCRR 122100Z 01006KT 9999 FEW025 17/12 Q1022,GCRR,2019-01-12T21:00:00Z,28.93,-13.58,17.0,12.0,10,6,,6.21,30.177166,,,,,,,,,,,FEW,2500,,,,,,,VFR,,,,,,,,,,,,METAR,40.0
GCLP 122100Z 29005KT 9999 FEW035 16/12 Q1021 NOSIG,GCLP,2019-01-12T21:00:00Z,27.92,-15.37,16.0,12.0,290,5,,6.21,30.147638,,,,,,TRUE,,,,,FEW,3500,,,,,,,VFR,,,,,,,,,,,,METAR,25.0
GCLA 122100Z 29006KT CAVOK 16/09 Q1020,GCLA,2019-01-12T21:00:00Z,28.62,-17.75,16.0,9.0,290,6,,6.21,30.11811,,,,,,,,,,,CAVOK,,,,,,,,VFR,,,,,,,,,,,,METAR,31.0
GCFV 122100Z 34006KT 300V020 9999 FEW025 17/13 Q1021,GCFV,2019-01-12T21:00:00Z,28.43,-13.87,17.0,13.0,340,6,,6.21,30.147638,,,,,,,,,,,FEW,2500,,,,,,,VFR,,,,,,,,,,,,METAR,23.0
KSVH 122100Z AUTO 00000KT 10SM OVC040 03/M03 A3036 RMK AO2 T00251035,KSVH,2019-01-12T21:00:00Z,35.75,-80.95,2.5,-3.5,0,0,,10.0,30.360237,,,TRUE,TRUE,,,,,,,OVC,4000,,,,,,,VFR,,,,,,,,,,,,METAR,294.0
KETC 122100Z AUTO 03003KT 10SM OVC110 04/M05 A3046 RMK AO2 T00451050,KETC,2019-01-12T21:00:00Z,35.93,-77.55,4.5,-5.0,30,3,,10.0,30.46063,,,TRUE,TRUE,,,,,,,OVC,11000,,,,,,,VFR,,,,,,,,,,,,METAR,17.0
KEDJ 122100Z AUTO 09007KT 1SM CLR M03/M03 A3027 RMK AO1 P0002,KEDJ,2019-01-12T21:00:00Z,40.37,-83.82,-3.0,-3.0,90,7,,1.0,30.268702,,,TRUE,TRUE,,,,,,,CLR,,,,,,,,IFR,,,,,,0.02,,,,,,SPECI,342.0
KASJ 122100Z AUTO 03004KT 10SM OVC110 04/M06 A3044 RMK AO2 T00401063,KASJ,2019-01-12T21:00:00Z,36.28,-77.17,4.0,-6.3,30,4,,10.0,30.43996,,,TRUE,TRUE,,,,,,,OVC,11000,,,,,,,VFR,,,,,,,,,,,,METAR,21.0
VABB 122100Z 18004KT 1800 HZ NSC 22/15 Q1013 NOSIG,VABB,2019-01-12T21:00:00Z,19.1,72.87,22.0,15.0,180,4,,1.12,29.911417,,,,,,TRUE,,,,HZ,CLR,,,,,,,,IFR,,,,,,,,,,,,METAR,8.0
VIDP 122100Z 00000KT 1500 R28/P2000 R29/P2000 BR FEW040 SCT100 11/09 Q1018 NOSIG,VIDP,2019-01-12T21:00:00Z,28.57,77.12,11.0,9.0,0,0,,0.93,30.059055,,,,,,TRUE,,,,BR,FEW,4000,SCT,10000,,,,,LIFR,,,,,,,,,,,,SPECI,233.0
MGPB 122100Z 03004KT 9999 SCT018 27/20 Q1014 A2994,MGPB,2019-01-12T21:00:00Z,15.72,-88.58,27.0,20.0,30,4,,6.21,29.940945,,,,,,,,,,,SCT,1800,,,,,,,VFR,,,,,,,,,,,,METAR,10.0
MGHT 122100Z 00000KT 9999 FEW020 26/04,MGHT,2019-01-12T21:00:00Z,15.32,-91.5,26.0,4.0,0,0,,6.21,,,,,,,,,,,,FEW,2000,,,,,,,VFR,,,,,,,,,,,,METAR,1901.0
MGMM 122100Z 09006KT 9999 FEW040 32/18 Q1015 A2997,MGMM,2019-01-12T21:00:00Z,16.97,-89.87,32.0,18.0,90,6,,6.21,29.970472,,,,,,,,,,,FEW,4000,,,,,,,VFR,,,,,,,,,,,,METAR,123.0
LPHR 122100Z 08018KT 9999 FEW020 SCT050 16/11 Q1027,LPHR,2019-01-12T21:00:00Z,38.52,-28.72,16.0,11.0,80,18,,6.21,30.324802,,,,,,,,,,,FEW,2000,SCT,5000,,,,,VFR,,,,,,,,,,,,METAR,41.0
LPLA 122100Z /////KT 9999 SCT020 SCT030 16/13 Q1029,LPLA,2019-01-12T21:00:00Z,38.77,-27.1,16.0,13.0,,,,6.21,30.383858,,,,,,,,,,,SCT,2000,SCT,3000,,,,,VFR,,,,,,,,,,,,METAR,55.0
LPPT 122100Z 33008KT CAVOK 09/04 Q1029,LPPT,2019-01-12T21:00:00Z,38.77,-9.12,9.0,4.0,330,8,,6.21,30.383858,,,,,,,,,,,CAVOK,,,,,,,,VFR,,,,,,,,,,,,METAR,123.0
LPPS 122100Z 10014KT 9999 SCT015 17/10 Q1023,LPPS,2019-01-12T21:00:00Z,33.07,-16.35,17.0,10.0,100,14,,6.21,30.206694,,,,,,,,,,,SCT,1500,,,,,,,VFR,,,,,,,,,,,,METAR,82.0
LPPR 122100Z 07004KT CAVOK 06/03 Q1031,LPPR,2019-01-12T21:00:00Z,41.22,-8.67,6.0,3.0,70,4,,6.21,30.442913,,,,,,,,,,,CAVOK,,,,,,,,VFR,,,,,,,,,,,,METAR,73.0
MGSJ 122100Z 14708KT 8000 SKC 32/17 Q1012 A2988 FU,MGSJ,2019-01-12T21:00:00Z,13.92,-90.83,32.0,17.0,147,8,,4.97,29.88189,,,,,,,,,,FU,SKC,,,,,,,,MVFR,,,,,,,,,,,,METAR,9.0
MGRT 122100Z 24008KT 9999 BKN022 32/20 Q1014 A2994 VOL. STA. MARIA Y SANTIAGUITO EN ACTIVIDAD,MGRT,2019-01-12T21:00:00Z,14.53,-91.7,32.0,20.0,240,8,,6.21,29.940945,,,,,,,,,,SA,BKN,2200,,,,,,,MVFR,,,,,,,,,,,,METAR,200.0
LJLJ 122100Z VRB02KT CAVOK M04/M05 Q1014 NOSIG,LJLJ,2019-01-12T21:00:00Z,46.22,14.47,-4.0,-5.0,0,2,,6.21,29.940945,,,,,,TRUE,,,,,CAVOK,,,,,,,,VFR,,,,,,,,,,,,METAR,385.0
VECC 122100Z 34003KT 2300 BR NSC 13/11 Q1015 NOSIG,VECC,2019-01-12T21:00:00Z,22.65,88.43,13.0,11.0,340,3,,1.43,29.970472,,,,,,TRUE,,,,BR,CLR,,,,,,,,IFR,,,,,,,,,,,,METAR,6.0
MGTU 122100Z 23006KT 9999 SCT018 32/23,MGTU,2019-01-12T21:00:00Z,,,32.0,23.0,230,6,,6.21,,,,,,,,,,,,SCT,1800,,,,,,,VFR,,,,,,,,,,,,METAR,
MGMT 122100Z 18004KT CAVOK 32/23,MGMT,2019-01-12T21:00:00Z,,,32.0,23.0,180,4,,6.21,,,,,,,,,,,,CAVOK,,,,,,,,VFR,,,,,,,,,,,,METAR,
MGES 122100Z 03004KT 9999 FEW020 29/10 QFE 909.1,MGES,2019-01-12T21:00:00Z,14.57,-89.32,29.0,10.0,30,4,,6.21,,,,,,,,,,,,FEW,2000,,,,,,,VFR,,,,,,,,,,,,METAR,965.0
MGZA 122100Z 04010KT CAVOK 33/16 QFE 986/2,MGZA,2019-01-12T21:00:00Z,14.97,-89.52,33.0,16.0,40,10,,6.21,,,,,,,,,,,,CAVOK,,,,,,,,VFR,,,,,,,,,,,,METAR,490.0
MGCB 122100Z 09006KT 9999 FEW018 24/16 QFE 870.8,MGCB,2019-01-12T21:00:00Z,15.48,-90.42,24.0,16.0,90,6,,6.21,,,,,,,,,,,,FEW,1800,,,,,,,VFR,,,,,,,,,,,,METAR,1316.0
MGQZ 122100Z 14008KT 9999 SCT018 20/12 QFE 772/0,MGQZ,2019-01-12T21:00:00Z,14.87,-91.5,20.0,12.0,140,8,,6.21,,,,,,,,,,,,SCT,1800,,,,,,,VFR,,,,,,,,,,,,METAR,2371.0
LRCL 122100Z 04003KT 350V070 0600 R25/0250N FZFG FEW001 SCT005 M08/M10 Q1013 R07/19//95,LRCL,2019-01-12T21:00:00Z,46.78,23.68,-8.0,-10.0,40,3,,0.37,29.911417,,,,,,,,,,FZFG,FEW,100,SCT,500,,,,,LIFR,,,,,,,,,,,,METAR,413.0
LRBM 122100Z AUTO 08003KT 2500 -SHSN FEW002/// BKN010/// M03/M04 Q1014,LRBM,2019-01-12T21:00:00Z,47.67,23.47,-3.0,-4.0,80,3,,1.55,29.940945,,,TRUE,,,,,,,-SHSN,FEW,200,BKN,1000,,,,,IFR,,,,,,,,,,,,METAR,185.0
LRAR 122100Z AUTO 16008KT 3300 R27/2000 BR OVC002 M02/M02 Q1014,LRAR,2019-01-12T21:00:00Z,46.18,21.27,-2.0,-2.0,160,8,,2.05,29.940945,,,TRUE,,,,,,,BR,OVC,200,,,,,,,LIFR,,,,,,,,,,,,METAR,118.0
LJPZ 122100Z 13008KT CAVOK 01/M02 Q1015,LJPZ,2019-01-12T21:00:00Z,45.47,13.62,1.0,-2.0,130,8,,6.21,29.970472,,,,,,,,,,,CAVOK,,,,,,,,VFR,,,,,,,,,,,,METAR,2.0
LJMB 122100Z VRB01KT CAVOK M01/M04 Q1013,LJMB,2019-01-12T21:00:00Z,46.47,15.67,-1.0,-4.0,0,1,,6.21,29.911417,,,,,,,,,,,CAVOK,,,,,,,,VFR,,,,,,,,,,,,METAR,265.0
LESB 122100Z AUTO 06003KT CAVOK 05/03 Q1028,LESB,2019-01-12T21:00:00Z,39.6,2.7,5.0,3.0,60,3,,6.21,30.35433,,,TRUE,,,,,,,,CAVOK,,,,,,,,VFR,,,,,,,,,,,,METAR,48.0
LELL 122100Z AUTO 29005KT 260V330 9999 NCD 04/00 Q1026,LELL,2019-01-12T21:00:00Z,41.52,2.1,4.0,0.0,290,5,,6.21,30.295275,,,TRUE,,,,,,,,CLR,,,,,,,,VFR,,,,,,,,,,,,METAR,250.0
LETU 122100Z AUTO 30018KT 9999 FEW038 08/02 Q1030,LETU,2019-01-12T21:00:00Z,,,8.0,2.0,300,18,,6.21,30.413385,,,TRUE,,,,,,,,FEW,3800,,,,,,,VFR,,,,,,,,,,,,METAR,
LEBR 122100Z AUTO 30016KT 9999 NCD 07/01 Q1030,LEBR,2019-01-12T21:00:00Z,42.2,-1.43,7.0,1.0,300,16,,6.21,30.413385,,,TRUE,,,,,,,,CLR,,,,,,,,VFR,,,,,,,,,,,,METAR,295.0
LELO 122100Z 25009KT 9999 FEW018 BKN040 07/04 Q1032,LELO,2019-01-12T21:00:00Z,42.45,-2.32,7.0,4.0,250,9,,6.21,30.47244,,,,,,,,,,,FEW,1800,BKN,4000,,,,,VFR,,,,,,,,,,,,METAR,363.0
LEBT 122100Z AUTO 36001KT 9999 NCD 03/M01 Q1027,LEBT,2019-01-12T21:00:00Z,39.58,-0.45,3.0,-1.0,360,1,,6.21,30.324802,,,TRUE,,,,,,,,CLR,,,,,,,,VFR,,,,,,,,,,,,METAR,50.0
LEHC 122100Z AUTO 26008KT 9999 NCD 03/M02 Q1025,LEHC,2019-01-12T21:00:00Z,42.08,-0.32,3.0,-2.0,260,8,,6.21,30.265747,,,TRUE,,,,,,,,CLR,,,,,,,,VFR,,,,,,,,,,,,METAR,539.0
LEBA 122100Z AUTO 07002KT 9999 NCD 02/M01 Q1028,LEBA,2019-01-12T21:00:00Z,37.85,-4.82,2.0,-1.0,70,2,,6.21,30.35433,,,TRUE,,,,,,,,CLR,,,,,,,,VFR,,,,,,,,,,,,METAR,92.0
OEDR 122100Z 00000KT CAVOK 12/05 Q1017 NOSIG,OEDR,2019-01-12T21:00:00Z,26.27,50.17,12.0,5.0,0,0,,6.21,30.029528,,,,,,TRUE,,,,,CAVOK,,,,,,,,VFR,,,,,,,,,,,,METAR,17.0
OIMN 122100Z 27008KT CAVOK 03/M10 Q1016,OIMN,2019-01-12T21:00:00Z,37.48,57.3,3.0,-10.0,270,8,,6.21,30.0,,,,,,,,,,,CAVOK,,,,,,,,VFR,,,,,,,,,,,,METAR,1074.0
RKNY 122100Z AUTO 27007KT 5000 BR NCD 01/M05 Q1024,RKNY,2019-01-12T21:00:00Z,38.07,128.67,1.0,-5.0,270,7,,3.11,30.236221,,,TRUE,,,,,,,BR,CLR,,,,,,,,MVFR,,,,,,,,,,,,METAR,74.0
RKJB 122100Z 11002KT 1700 BR FEW025 M00/M01 Q1025 NOSIG,RKJB,2019-01-12T21:00:00Z,34.98,126.38,0.0,-1.0,110,2,,1.06,30.265747,,,,,,TRUE,,,,BR,FEW,2500,,,,,,,IFR,,,,,,,,,,,,METAR,2.0
RKTN 122100Z 12002KT 0000 R31/0050 FG VV001 M02/M02 Q1023,RKTN,2019-01-12T21:00:00Z,35.88,128.65,-2.0,-2.0,120,2,,0.0,30.206694,,,,,,,,,,FG,OVX,0,,,,,,,LIFR,,,,,,,,,,,100,METAR,35.0
RKTU 122100Z 07002KT 4800 BR NSC M07/M08 Q1025,RKTU,2019-01-12T21:00:00Z,36.7,127.5,-7.0,-8.0,70,2,,2.98,30.265747,,,,,,,,,,BR,CLR,,,,,,,,IFR,,,,,,,,,,,,METAR,66.0
RKPK 122100Z 35006KT 4800 BR NSC 01/M02 Q1023,RKPK,2019-01-12T21:00:00Z,35.17,128.92,1.0,-2.0,350,6,,2.98,30.206694,,,,,,,,,,BR,CLR,,,,,,,,IFR,,,,,,,,,,,,METAR,15.0
RKPC 122100Z 36007KT 320V030 9999 BKN045 08/02 Q1024 NOSIG,RKPC,2019-01-12T21:00:00Z,33.5,126.48,8.0,2.0,360,7,,6.21,30.236221,,,,,,TRUE,,,,,BKN,4500,,,,,,,VFR,,,,,,,,,,,,METAR,27.0
RKSS 122100Z 22001KT 1400 0800NW R32L/1900D R32R/1900D PRFG FEW010 M07/M10 Q1025 NOSIG,RKSS,2019-01-12T21:00:00Z,37.53,126.78,-7.0,-10.0,220,1,,0.87,30.265747,,,,,,TRUE,,,,PRFG,FEW,1000,,,,,,,LIFR,,,,,,,,,,,,METAR,19.0
RKSI 122100Z 04005KT 3500 BR NSC M03/M08 Q1025 NOSIG,RKSI,2019-01-12T21:00:00Z,37.47,126.45,-3.0,-8.0,40,5,,2.17,30.265747,,,,,,TRUE,,,,BR,CLR,,,,,,,,IFR,,,,,,,,,,,,METAR,7.0
LRCT 122100Z 15004KT 1000 BR BKN006 OVC040 M05/M06 Q1014 AMB AMB,LRCT,2019-01-12T21:00:00Z,46.5,23.88,-5.0,-6.0,150,4,,0.62,29.940945,,,,,,,,,,BR,BKN,600,OVC,4000,,,,,LIFR,,,,,,,,,,,,METAR,331.0
CYPC 122100Z 02011KT 15SM FEW035 FEW100 M26/M29 A3016 RMK SC1AC1 SLP215,CYPC,2019-01-12T21:00:00Z,69.37,-124.07,-26.0,-29.0,20,11,,15.0,30.159449,1021.5,,,,,,,,,,FEW,3500,FEW,10000,,,,,VFR,,,,,,,,,,,,METAR,6.0
CWAE 122100Z 36002KT 15SM FEW007 SCT081 BKN099 02/01 A3004 RMK ST2AC2AC1 WND ESTD SLP191,CWAE,2019-01-12T21:00:00Z,50.13,-122.95,2.0,1.0,360,2,,15.0,30.041338,1019.1,,,,,,,,,,FEW,700,SCT,8100,BKN,9900,,,VFR,,,,,,,,,,,,METAR,658.0
UMGG 122100Z 24005G08MPS 9999 OVC035 M03/M04 Q1000 R28/410550 NOSIG,UMGG,2019-01-12T21:00:00Z,52.53,31.02,-3.0,-4.0,240,10,16,6.21,29.52756,,,,,,TRUE,,,,,OVC,3500,,,,,,,VFR,,,,,,,,,,,,METAR,144.0
MROC 122100Z 11010KT 080V140 9999 FEW040 27/14 A2998 NOSIG,MROC,2019-01-12T21:00:00Z,10.0,-84.22,27.0,14.0,110,10,,6.21,29.97933,,,,,,TRUE,,,,,FEW,4000,,,,,,,VFR,,,,,,,,,,,,METAR,920.0
YSRI 122100Z AUTO 14007KT 9999 // OVC017 OVC023 23/20 Q1019,YSRI,2019-01-12T21:00:00Z,-33.6,150.77,23.0,20.0,140,7,,6.21,30.088583,,,TRUE,,,,,,,,OVC,1700,OVC,2300,,,,,MVFR,,,,,,,,,,,,METAR,21.0
YSNF 122100Z AUTO 11010KT 9999 // BKN015 BKN021 23/19 Q1016,YSNF,2019-01-12T21:00:00Z,-29.02,167.92,23.0,19.0,110,10,,6.21,30.0,,,TRUE,,,,,,,,BKN,1500,BKN,2100,,,,,MVFR,,,,,,,,,,,,METAR,109.0
YSDU 122100Z AUTO 07013KT 9999 // NCD 29/18 Q1016 RF00.0/000.0,YSDU,2019-01-12T21:00:00Z,-32.22,148.57,29.0,18.0,70,13,,6.21,30.0,,,TRUE,,,,,,,,CLR,,,,,,,,VFR,,,,,,,,,,,,METAR,275.0
YSCB 122100Z AUTO 11007KT 9999 // NCD 20/07 Q1021 RF00.0/000.0,YSCB,2019-01-12T21:00:00Z,-35.28,149.17,20.0,7.0,110,7,,6.21,30.147638,,,TRUE,,,,,,,,CLR,,,,,,,,VFR,,,,,,,,,,,,METAR,577.0
YPPD 122100Z AUTO 24006KT //// // NCD 27/26 Q1006,YPPD,2019-01-12T21:00:00Z,-20.37,118.62,27.0,26.0,240,6,,,29.704725,,,TRUE,,,,,,,,CLR,,,,,,,,,,,,,,,,,,,,METAR,6.0
YPKG 122100Z AUTO 07008KT 9999 // NCD 28/05 Q1011 RF00.0/000.0,YPKG,2019-01-12T21:00:00Z,-30.77,121.45,28.0,5.0,70,8,,6.21,29.852362,,,TRUE,,,,,,,,CLR,,,,,,,,VFR,,,,,,,,,,,,METAR,360.0
YPGV 122100Z AUTO 08004KT 9999 // SCT019 27/25 Q1008 RF00.0/008.6,YPGV,2019-01-12T21:00:00Z,-12.27,136.82,27.0,25.0,80,4,,6.21,29.763779,,,TRUE,,,,,,,,SCT,1900,,,,,,,VFR,,,,,,,,,,,,METAR,55.0
YPEA 122100Z AUTO 29002KT 9999 // NCD 18/16 Q1010,YPEA,2019-01-12T21:00:00Z,-31.67,116.02,18.0,16.0,290,2,,6.21,29.822834,,,TRUE,,,,,,,,CLR,,,,,,,,VFR,,,,,,,,,,,,METAR,49.0
YMLT 122100Z AUTO 02003KT 9999 // NCD 15/09 Q1024 RF00.0/000.0,YMLT,2019-01-12T21:00:00Z,-41.52,147.18,15.0,9.0,20,3,,6.21,30.236221,,,TRUE,,,,,,,,CLR,,,,,,,,VFR,,,,,,,,,,,,METAR,178.0
YMHB 122100Z 35005KT 9999 FEW045 14/06 Q1024,YMHB,2019-01-12T21:00:00Z,-42.82,147.52,14.0,6.0,350,5,,6.21,30.236221,,,,,,,,,,,FEW,4500,,,,,,,VFR,,,,,,,,,,,,METAR,27.0
YFRT 122100Z AUTO 08012KT 9999 // NCD 17/11 Q1015 RF00.0/000.0,YFRT,2019-01-12T21:00:00Z,-30.83,128.12,17.0,11.0,80,12,,6.21,29.970472,,,TRUE,,,,,,,,CLR,,,,,,,,VFR,,,,,,,,,,,,METAR,156.0
YCIN 122100Z AUTO 01007KT 9999 // SCT022 BKN029 28/25 Q1007,YCIN,2019-01-12T21:00:00Z,-17.58,123.83,28.0,25.0,10,7,,6.21,29.734253,,,TRUE,,,,,,,,SCT,2200,BKN,2900,,,,,MVFR,,,,,,,,,,,,METAR,91.0
YBRM 122100Z AUTO 26010KT 9999 // SCT017 29/26 Q1006 RF00.0/000.0,YBRM,2019-01-12T21:00:00Z,-17.93,122.22,29.0,26.0,260,10,,6.21,29.704725,,,TRUE,,,,,,,,SCT,1700,,,,,,,VFR,,,,,,,,,,,,METAR,9.0
YBRK 122100Z AUTO 13007KT 9999 // NCD 23/18 Q1014 RF00.0/000.0,YBRK,2019-01-12T21:00:00Z,-23.37,150.47,23.0,18.0,130,7,,6.21,29.940945,,,TRUE,,,,,,,,CLR,,,,,,,,VFR,,,,,,,,,,,,METAR,14.0
YBMA 122100Z AUTO 10004KT 9999 // NCD 28/12 Q1011 RF00.0/000.0,YBMA,2019-01-12T21:00:00Z,-20.67,139.47,28.0,12.0,100,4,,6.21,29.852362,,,TRUE,,,,,,,,CLR,,,,,,,,VFR,,,,,,,,,,,,METAR,344.0
YBHM 122100Z AUTO 12019KT 9999 // BKN021 BKN027 26/23 Q1011,YBHM,2019-01-12T21:00:00Z,-20.35,148.95,26.0,23.0,120,19,,6.21,29.852362,,,TRUE,,,,,,,,BKN,2100,BKN,2700,,,,,MVFR,,,,,,,,,,,,METAR,5.0
YBCG 122100Z AUTO 19005KT 9999 // SCT030 25/20 Q1017 RF00.0/000.0,YBCG,2019-01-12T21:00:00Z,-28.17,153.5,25.0,20.0,190,5,,6.21,30.029528,,,TRUE,,,,,,,,SCT,3000,,,,,,,VFR,,,,,,,,,,,,METAR,6.0
YAMB 122100Z AUTO 19004KT 9999 // NCD 22/17 Q1017,YAMB,2019-01-12T21:00:00Z,-27.63,152.72,22.0,17.0,190,4,,6.21,30.029528,,,TRUE,,,,,,,,CLR,,,,,,,,VFR,,,,,,,,,,,,METAR,28.0
LJCE 122100Z AUTO VRB02KT 9999 NSC M03/M05 Q1015,LJCE,2019-01-12T21:00:00Z,45.9,15.52,-3.0,-5.0,0,2,,6.21,29.970472,,,TRUE,,,,,,,,CLR,,,,,,,,VFR,,,,,,,,,,,,METAR,155.0
VGHS 122100Z 32004KT 2200 BR NSC 16/13 Q1016 TEMPO S/VIS 1500M,VGHS,2019-01-12T21:00:00Z,23.85,90.4,16.0,13.0,320,4,,1.37,30.0,,,,,,,,,,BR,CLR,,,,,,,,IFR,,,,,,,,,,,,METAR,10.0
LRTC 122100Z AUTO 27005KT 6000 NCD M03/M05 Q1012,LRTC,2019-01-12T21:00:00Z,45.07,28.72,-3.0,-5.0,270,5,,3.73,29.88189,,,TRUE,,,,,,,,CLR,,,,,,,,MVFR,,,,,,,,,,,,METAR,6.0
LRSV 122100Z 25009KT 9999 OVC036 M05/M09 Q1008 R16/09//95,LRSV,2019-01-12T21:00:00Z,47.68,26.35,-5.0,-9.0,250,9,,6.21,29.763779,,,,,,,,,,,OVC,3600,,,,,,,VFR,,,,,,,,,,,,METAR,351.0
LRIA 122100Z 28006KT 250V310 9999 OVC044 M01/M08 Q1011 R14/950394,LRIA,2019-01-12T21:00:00Z,47.17,27.62,-1.0,-8.0,280,6,,6.21,29.852362,,,,,,,,,,,OVC,4400,,,,,,,VFR,,,,,,,,,,,,METAR,104.0
LRCV 122100Z AUTO 27006KT 9999 NCD M04/M06 Q1012,LRCV,2019-01-12T21:00:00Z,44.32,23.88,-4.0,-6.0,270,6,,6.21,29.88189,,,TRUE,,,,,,,,CLR,,,,,,,,VFR,,,,,,,,,,,,METAR,191.0
LRBC 122100Z 06003KT 020V110 CAVOK M04/M09 Q1011 R16/910294,LRBC,2019-01-12T21:00:00Z,46.52,26.92,-4.0,-9.0,60,3,,6.21,29.852362,,,,,,,,,,,CAVOK,,,,,,,,VFR,,,,,,,,,,,,METAR,185.0
LROP 122100Z 26004KT 0350 R08R/0350N R26L/0800N R08L/0600D R26R/0225N FZFG SCT003 M11/M12 Q1013 R88/19//95 TEMPO 0600,LROP,2019-01-12T21:00:00Z,44.57,26.1,-11.0,-12.0,260,4,,0.22,29.911417,,,,,,,,,,FZFG,SCT,300,,,,,,,LIFR,,,,,,,,,,,,METAR,95.0
LRTR 122100Z 17009KT 2000 BR SCT003 BKN010 OVC030 M02/M02 Q1014 R11/690293,LRTR,2019-01-12T21:00:00Z,45.82,21.33,-2.0,-2.0,170,9,,1.24,29.940945,,,,,,,,,,BR,SCT,300,BKN,1000,OVC,3000,,,IFR,,,,,,,,,,,,METAR,88.0
LRSB 122100Z VRB02KT 8000 BKN011 M06/M07 Q1013 R27/19//95,LRSB,2019-01-12T21:00:00Z,45.78,24.08,-6.0,-7.0,0,2,,4.97,29.911417,,,,,,,,,,,BKN,1100,,,,,,,MVFR,,,,,,,,,,,,METAR,444.0
LRCK 122100Z AUTO 27010KT 8000 FEW055/// BKN096/// M05/M06 Q1012 NOSIG,LRCK,2019-01-12T21:00:00Z,44.37,28.48,-5.0,-6.0,270,10,,4.97,29.88189,,,TRUE,,,TRUE,,,,,FEW,5500,BKN,9600,,,,,MVFR,,,,,,,,,,,,METAR,108.0
LRBS 122100Z 30002KT 5000 BR NSC M07/M07 Q1013 R07/19//95 BECMG 3000 BR,LRBS,2019-01-12T21:00:00Z,44.5,26.08,-7.0,-7.0,300,2,,3.11,29.911417,,,,,,,,,,BR,CLR,,,,,,,,MVFR,,,,,,,,,,,,METAR,91.0
LRTM 122100Z AUTO 00000KT 4800 BR OVC028/// M05/M06 Q1013,LRTM,2019-01-12T21:00:00Z,46.47,24.42,-5.0,-6.0,0,0,,2.98,29.911417,,,TRUE,,,,,,,BR,OVC,2800,,,,,,,IFR,,,,,,,,,,,,METAR,309.0
LRSM 122100Z AUTO 00000KT 6000 -SN OVC022/// M03/M04 Q1013,LRSM,2019-01-12T21:00:00Z,47.7,22.88,-3.0,-4.0,0,0,,3.73,29.911417,,,TRUE,,,,,,,-SN,OVC,2200,,,,,,,MVFR,,,,,,,,,,,,METAR,124.0
LROD 122100Z AUTO 16009KT 9999 SCT009/// OVC011/// M01/M03 Q1013,LROD,2019-01-12T21:00:00Z,47.03,21.92,-1.0,-3.0,160,9,,6.21,29.911417,,,TRUE,,,,,,,,SCT,900,OVC,1100,,,,,MVFR,,,,,,,,,,,,METAR,140.0
GMMZ 122100Z 19004KT CAVOK 11/M09 Q1025 NOSIG,GMMZ,2019-01-12T21:00:00Z,30.92,-6.9,11.0,-9.0,190,4,,6.21,30.265747,,,,,,TRUE,,,,,CAVOK,,,,,,,,VFR,,,,,,,,,,,,METAR,1140.0
GMMB 122100Z AUTO 04006KT //// R32/P2000N ////// 09/09 Q1025 NOSIG,GMMB,2019-01-12T21:00:00Z,33.65,-7.22,9.0,9.0,40,6,,1.24,30.265747,,,TRUE,,,TRUE,,,,,,,,,,,,,,,,,,,,,,,,,METAR,191.0
LETO 122100Z 36004KT CAVOK 01/M02 Q1029 NOSIG,LETO,2019-01-12T21:00:00Z,40.47,-3.47,1.0,-2.0,360,4,,6.21,30.383858,,,,,,TRUE,,,,,CAVOK,,,,,,,,VFR,,,,,,,,,,,,METAR,608.0
LERT 122100Z 08004KT CAVOK 06/03 Q1028 NOSIG,LERT,2019-01-12T21:00:00Z,36.63,-6.33,6.0,3.0,80,4,,6.21,30.35433,,,,,,TRUE,,,,,CAVOK,,,,,,,,VFR,,,,,,,,,,,,METAR,26.0
LEGT 122100Z 00000KT CAVOK 03/M02 Q1029,LEGT,2019-01-12T21:00:00Z,40.28,-3.72,3.0,-2.0,0,0,,6.21,30.383858,,,,,,,,,,,CAVOK,,,,,,,,VFR,,,,,,,,,,,,METAR,612.0
LEAB 122100Z 21003KT 170V240 CAVOK M02/M05 Q1028 NOSIG,LEAB,2019-01-12T21:00:00Z,38.95,-1.85,-2.0,-5.0,210,3,,6.21,30.35433,,,,,,TRUE,,,,,CAVOK,,,,,,,,VFR,,,,,,,,,,,,METAR,704.0
VOTR 122100Z 02006KT 2500 BR FEW016 21/19 Q1014 NOSIG,VOTR,2019-01-12T21:00:00Z,10.77,78.72,21.0,19.0,20,6,,1.55,29.940945,,,,,,TRUE,,,,BR,FEW,1600,,,,,,,IFR,,,,,,,,,,,,METAR,88.0
VAAH 122100Z 35002KT 4000 HZ NSC 13/07 Q1015 NOSIG,VAAH,2019-01-12T21:00:00Z,23.07,72.62,13.0,7.0,350,2,,2.49,29.970472,,,,,,TRUE,,,,HZ,CLR,,,,,,,,IFR,,,,,,,,,,,,METAR,55.0
MKJS 122100Z 10017KT 9999 FEW022 FEW024TCU BKN032 28/22 Q1015,MKJS,2019-01-12T21:00:00Z,18.5,-77.92,28.0,22.0,100,17,,6.21,29.970472,,,,,,,,,,,FEW,2200,FEW,2400,BKN,3200,,,VFR,,,,,,,,,,,,METAR,1.0
LKCV 122100Z 25016KT 9999 -RA SCT014 BKN025 OVC029 02/02 Q1007 NOSIG RMK BLU BLU,LKCV,2019-01-12T21:00:00Z,49.93,15.38,2.0,2.0,250,16,,6.21,29.734253,,,,,,TRUE,,,,-RA,SCT,1400,BKN,2500,OVC,2900,,,MVFR,,,,,,,,,,,,METAR,242.0
LKKB 122100Z 24018KT 9999 SCT011 OVC050 03/M01 Q1007 NOSIG,LKKB,2019-01-12T21:00:00Z,50.12,14.53,3.0,-1.0,240,18,,6.21,29.734253,,,,,,TRUE,,,,,SCT,1100,OVC,5000,,,,,VFR,,,,,,,,,,,,METAR,286.0
MNRS 122100Z 02006KT CAVOK 29/18 Q1012,MNRS,2019-01-12T21:00:00Z,11.42,-85.82,29.0,18.0,20,6,,6.21,29.88189,,,,,,,,,,,CAVOK,,,,,,,,VFR,,,,,,,,,,,,METAR,53.0
MNPC 122100Z 07004KT 6000 VCRA SCT016 29/25 Q1013 TCURA SE S,MNPC,2019-01-12T21:00:00Z,14.05,-83.38,29.0,25.0,70,4,,3.73,29.911417,,,,,,,,,,VCRA RA,SCT,1600,,,,,,,MVFR,,,,,,,,,,,,METAR,16.0
MNJG 122100Z 36004KT 9999 BKN016 20/17 Q1014,MNJG,2019-01-12T21:00:00Z,13.08,-86.02,20.0,17.0,360,4,,6.21,29.940945,,,,,,,,,,,BKN,1600,,,,,,,MVFR,,,,,,,,,,,,METAR,985.0
MNJU 122100Z 09006KT 9999 SCT020 31/22 Q1013,MNJU,2019-01-12T21:00:00Z,12.08,-85.37,31.0,22.0,90,6,,6.21,29.911417,,,,,,,,,,,SCT,2000,,,,,,,VFR,,,,,,,,,,,,METAR,90.0
FAGG 122100Z AUTO 34001KT CAVOK 17/13 Q1008,FAGG,2019-01-12T21:00:00Z,-34.0,22.37,17.0,13.0,340,1,,6.21,29.763779,,,TRUE,,,,,,,,CAVOK,,,,,,,,VFR,,,,,,,,,,,,METAR,193.0
FACT 122100Z 31009KT 9999 FEW033 SCT041 19/13 Q1010 NOSIG,FACT,2019-01-12T21:00:00Z,-33.97,18.6,19.0,13.0,310,9,,6.21,29.822834,,,,,,TRUE,,,,,FEW,3300,SCT,4100,,,,,VFR,,,,,,,,,,,,METAR,42.0
FAHS 122100Z AUTO 17014KT //// // ////// 25/21 Q1011,FAHS,2019-01-12T21:00:00Z,-24.37,31.02,25.0,21.0,170,14,,,29.852362,,,TRUE,,,,,,,,,,,,,,,,,,,,,,,,,,,,METAR,500.0
FALE 122100Z 03004KT 9999 SCT026 BKN031 22/19 Q1011 NOSIG,FALE,2019-01-12T21:00:00Z,-29.62,31.12,22.0,19.0,30,4,,6.21,29.852362,,,,,,TRUE,,,,,SCT,2600,BKN,3100,,,,,VFR,,,,,,,,,,,,METAR,109.0
FAKN 122100Z AUTO 07011KT //// // ////// 22/20 Q1015,FAKN,2019-01-12T21:00:00Z,-25.38,31.1,22.0,20.0,70,11,,,29.970472,,,TRUE,,,,,,,,,,,,,,,,,,,,,,,,,,,,METAR,862.0
FAKM 122100Z AUTO 24007KT //// // ////// 26/M02 Q1013,FAKM,2019-01-12T21:00:00Z,-28.8,24.77,26.0,-2.0,240,7,,,29.911417,,,TRUE,,,,,,,,,,,,,,,,,,,,,,,,,,,,METAR,1192.0
FAUT 122100Z AUTO 09009KT //// // ////// 19/16 Q1011,FAUT,2019-01-12T21:00:00Z,-31.52,28.67,19.0,16.0,90,9,,,29.852362,,,TRUE,,,,,,,,,,,,,,,,,,,,,,,,,,,,METAR,732.0
FAPP 122100Z AUTO 18001KT //// // ////// 24/19 Q1014,FAPP,2019-01-12T21:00:00Z,-23.83,29.45,24.0,19.0,180,1,,,29.940945,,,TRUE,,,,,,,,,,,,,,,,,,,,,,,,,,,,METAR,1242.0
FAPN 122100Z AUTO 22001KT //// // ////// ///// Q1012,FAPN,2019-01-12T21:00:00Z,-25.33,27.17,,,220,1,,,29.88189,,,TRUE,,,,,,,,,,,,,,,,,,,,,,,,,,,,METAR,1039.0
FAMM 122100Z AUTO 05004KT //// // ////// 23/15 Q1014,FAMM,2019-01-12T21:00:00Z,-25.8,25.52,23.0,15.0,50,4,,,29.940945,,,TRUE,,,,,,,,,,,,,,,,,,,,,,,,,,,,METAR,1277.0
FQTT 122100Z 00000KT 9999 BKN020 FEW025CB 26/23 Q1008 RMK CB TO N/NE/SE,FQTT,2019-01-12T21:00:00Z,-16.1,33.62,26.0,23.0,0,0,,6.21,29.763779,,,,,,,,,,,BKN,2000,FEW,2500,,,,,MVFR,,,,,,,,,,,,METAR,160.0
FQQL 122100Z 05005KT 9999 FEW020 28/25 Q1007,FQQL,2019-01-12T21:00:00Z,-17.87,36.87,28.0,25.0,50,5,,6.21,29.734253,,,,,,,,,,,FEW,2000,,,,,,,VFR,,,,,,,,,,,,METAR,16.0
FVRG 122100Z VRB02KT 9999 FEW040CB BKN300 21/18 Q1018 NOSIG,FVRG,2019-01-12T21:00:00Z,-17.93,31.1,21.0,18.0,0,2,,6.21,30.059055,,,,,,TRUE,,,,,FEW,4000,BKN,30000,,,,,VFR,,,,,,,,,,,,METAR,1490.0
ZYTX 122100Z VRB01MPS 2000 BR BKN033 M04/M06 Q1024 BECMG TL2230 1000,ZYTX,2019-01-12T21:00:00Z,41.63,123.48,-4.0,-6.0,0,2,,1.24,30.236221,,,,,,,,,,BR,BKN,3300,,,,,,,IFR,,,,,,,,,,,,METAR,35.0
ZYTL 122100Z 26004MPS 2500 BR NSC 01/M01 Q1025 NOSIG,ZYTL,2019-01-12T21:00:00Z,38.97,121.53,1.0,-1.0,260,8,,1.55,30.265747,,,,,,TRUE,,,,BR,CLR,,,,,,,,IFR,,,,,,,,,,,,METAR,97.0
ZWWW 122100Z 00000MPS 2500 FU NSC M11/M13 Q1036 NOSIG,ZWWW,2019-01-12T21:00:00Z,43.88,87.47,-11.0,-13.0,0,0,,1.55,30.590551,,,,,,TRUE,,,,FU,CLR,,,,,,,,IFR,,,,,,,,,,,,METAR,654.0
ZWSH 122100Z 26002MPS 210V290 6000 NSC M07/M12 Q1024 NOSIG,ZWSH,2019-01-12T21:00:00Z,39.55,76.02,-7.0,-12.0,260,4,,3.73,30.236221,,,,,,TRUE,,,,,CLR,,,,,,,,MVFR,,,,,,,,,,,,METAR,1380.0
ZSSS 122100Z 35003MPS 6000 BKN016 05/03 Q1027 NOSIG,ZSSS,2019-01-12T21:00:00Z,31.2,121.33,5.0,3.0,350,6,,3.73,30.324802,,,,,,TRUE,,,,,BKN,1600,,,,,,,MVFR,,,,,,,,,,,,METAR,7.0
ZSPD 122100Z 30004MPS 7000 BKN026 05/02 Q1026 NOSIG,ZSPD,2019-01-12T21:00:00Z,31.15,121.8,5.0,2.0,300,8,,4.35,30.295275,,,,,,TRUE,,,,,BKN,2600,,,,,,,MVFR,,,,,,,,,,,,METAR,4.0
ZSHC 122100Z 00000MPS 6000 BKN030 05/02 Q1027 NOSIG,ZSHC,2019-01-12T21:00:00Z,30.22,120.43,5.0,2.0,0,0,,3.73,30.324802,,,,,,TRUE,,,,,BKN,3000,,,,,,,MVFR,,,,,,,,,,,,METAR,43.0
ZGGG 122100Z VRB01MPS 6000 OVC023 17/13 Q1019 NOSIG,ZGGG,2019-01-12T21:00:00Z,23.4,113.3,17.0,13.0,0,2,,3.73,30.088583,,,,,,TRUE,,,,,OVC,2300,,,,,,,MVFR,,,,,,,,,,,,METAR,15.0
ZBYN 122100Z 01001MPS 4000 HZ NSC M10/M14 Q1026 NOSIG,ZBYN,2019-01-12T21:00:00Z,37.77,112.63,-10.0,-14.0,10,2,,2.49,30.295275,,,,,,TRUE,,,,HZ,CLR,,,,,,,,IFR,,,,,,,,,,,,METAR,779.0
ZBTJ 122100Z 35002MPS 0200 R34L/0650V0800N R34R/0500V0750U FZFG VV002 M06/M06 Q1027 BECMG TL2230 0400,ZBTJ,2019-01-12T21:00:00Z,39.12,117.35,-6.0,-6.0,350,4,,0.12,30.324802,,,,,,,,,,FZFG,OVX,0,,,,,,,LIFR,,,,,,,,,,,200,METAR,3.0
ZBSJ 122100Z VRB01MPS 0100 R33/0100N FZFG VV003 M09/M09 Q1027 NOSIG,ZBSJ,2019-01-12T21:00:00Z,38.28,114.7,-9.0,-9.0,0,2,,0.06,30.324802,,,,,,TRUE,,,,FZFG,OVX,0,,,,,,,LIFR,,,,,,,,,,,300,METAR,71.0
ZBAA 122100Z 35003MPS 7000 NSC M09/M14 Q1027 NOSIG,ZBAA,2019-01-12T21:00:00Z,40.07,116.58,-9.0,-14.0,350,6,,4.35,30.324802,,,,,,TRUE,,,,,CLR,,,,,,,,MVFR,,,,,,,,,,,,METAR,30.0
FAOR 122100Z 24005KT 9999 TS FEW040CB FEW045TCU 24/13 Q1019 NOSIG,FAOR,2019-01-12T21:00:00Z,-26.12,28.22,24.0,13.0,240,5,,6.21,30.088583,,,,,,TRUE,,,,TS,FEW,4000,FEW,4500,,,,,VFR,,,,,,,,,,,,METAR,1700.0
CYSY 122100Z 05011KT 4SM DRSN MIFG FEW005 FEW210 M33/M37 A3024 RMK ST2CI1 CI TR SLP260,CYSY,2019-01-12T21:00:00Z,72.0,-125.27,-33.0,-37.0,50,11,,4.0,30.239174,1026.0,,,,,,,,,DRSN MIFG,FEW,500,FEW,21000,,,,,MVFR,,,,,,,,,,,,METAR,86.0
UBBB 122100Z 34006KT CAVOK 03/02 Q1013 R88/CLRD// NOSIG,UBBB,2019-01-12T21:00:00Z,40.45,50.07,3.0,2.0,340,6,,6.21,29.911417,,,,,,TRUE,,,,,CAVOK,,,,,,,,VFR,,,,,,,,,,,,METAR,-6.0
SBTE 122100Z 30003KT 9999 FEW030 SCT100 28/24 Q1011,SBTE,2019-01-12T21:00:00Z,-5.03,-42.82,28.0,24.0,300,3,,6.21,29.852362,,,,,,,,,,,FEW,3000,SCT,10000,,,,,VFR,,,,,,,,,,,,METAR,69.0
SBCR 122100Z 04006KT 9999 FEW035 33/22 Q1008,SBCR,2019-01-12T21:00:00Z,-19.0,-57.67,33.0,22.0,40,6,,6.21,29.763779,,,,,,,,,,,FEW,3500,,,,,,,VFR,,,,,,,,,,,,METAR,141.0
TLPL 122100Z 08015KT 9999 FEW028 27/20 Q1016 NOSIG,TLPL,2019-01-12T21:00:00Z,13.75,-60.95,27.0,20.0,80,15,,6.21,30.0,,,,,,TRUE,,,,,FEW,2800,,,,,,,VFR,,,,,,,,,,,,METAR,3.0
OERK 122100Z 15004KT CAVOK 13/M05 Q1019 NOSIG,OERK,2019-01-12T21:00:00Z,24.95,46.72,13.0,-5.0,150,4,,6.21,30.088583,,,,,,TRUE,,,,,CAVOK,,,,,,,,VFR,,,,,,,,,,,,METAR,612.0
OEMA 122100Z 14003KT CAVOK 21/07 Q1014 NOSIG,OEMA,2019-01-12T21:00:00Z,24.55,39.7,21.0,7.0,140,3,,6.21,29.940945,,,,,,TRUE,,,,,CAVOK,,,,,,,,VFR,,,,,,,,,,,,METAR,631.0
OEJN 122100Z 00000KT CAVOK 24/19 Q1012 NOSIG,OEJN,2019-01-12T21:00:00Z,21.68,39.15,24.0,19.0,0,0,,6.21,29.88189,,,,,,TRUE,,,,,CAVOK,,,,,,,,VFR,,,,,,,,,,,,METAR,15.0
OEDF 122100Z 28003KT CAVOK 11/05 Q1019 NOSIG,OEDF,2019-01-12T21:00:00Z,26.47,49.8,11.0,5.0,280,3,,6.21,30.088583,,,,,,TRUE,,,,,CAVOK,,,,,,,,VFR,,,,,,,,,,,,METAR,22.0
MYNN 122100Z 11014KT 9999 FEW030 BKN040 24/17 A3016,MYNN,2019-01-12T21:00:00Z,25.03,-77.47,24.0,17.0,110,14,,6.21,30.159449,,,,,,,,,,,FEW,3000,BKN,4000,,,,,VFR,,,,,,,,,,,,METAR,3.0
SBMQ 122100Z 08007KT 9999 FEW027 SCT100 29/24 Q1011,SBMQ,2019-01-12T21:00:00Z,0.05,-51.07,29.0,24.0,80,7,,6.21,29.852362,,,,,,,,,,,FEW,2700,SCT,10000,,,,,VFR,,,,,,,,,,,,METAR,15.0
MZBZ 122100Z 09006KT 9999 SCT026 SCT042 27/20 A2998 Q1015 NOSIG,MZBZ,2019-01-12T21:00:00Z,17.52,-88.3,27.0,20.0,90,6,,6.21,29.970472,,,,,,TRUE,,,,,SCT,2600,SCT,4200,,,,,VFR,,,,,,,,,,,,METAR,5.0
SVMI 122100Z 05004KT 9999 BKN016 25/21 Q1013,SVMI,2019-01-12T21:00:00Z,10.58,-67.0,25.0,21.0,50,4,,6.21,29.911417,,,,,,,,,,,BKN,1600,,,,,,,MVFR,,,,,,,,,,,,METAR,48.0
SBSN 122100Z 09011KT 9999 FEW023 FEW027TCU 29/24 Q1009,SBSN,2019-01-12T21:00:00Z,-2.42,-54.78,29.0,24.0,90,11,,6.21,29.793306,,,,,,,,,,,FEW,2300,FEW,2700,,,,,VFR,,,,,,,,,,,,METAR,72.0
MBGT 122100Z 07016KT 9999 SCT020TCU SCT050 27/21 Q3006,MBGT,2019-01-12T21:00:00Z,21.43,-71.15,27.0,21.0,70,16,,6.21,,,,,,,,,,,,SCT,2000,SCT,5000,,,,,VFR,,,,,,,,,,,,METAR,4.0
MRPV 122100Z 09016KT 9999 FEW045 SCT090 25/15 A3001 NOSIG,MRPV,2019-01-12T21:00:00Z,9.95,-84.15,25.0,15.0,90,16,,6.21,30.008858,,,,,,TRUE,,,,,FEW,4500,SCT,9000,,,,,VFR,,,,,,,,,,,,METAR,994.0
OPPS 122100Z 36004KT 4000 BR FEW040 SCT120 05/04 Q1020,OPPS,2019-01-12T21:00:00Z,34.02,71.52,5.0,4.0,360,4,,2.49,30.11811,,,,,,,,,,BR,FEW,4000,SCT,12000,,,,,IFR,,,,,,,,,,,,METAR,360.0
SBCY 122100Z 29008KT 9999 SCT020 FEW025TCU SCT080 29/20 Q1010,SBCY,2019-01-12T21:00:00Z,-15.65,-56.12,29.0,20.0,290,8,,6.21,29.822834,,,,,,,,,,,SCT,2000,FEW,2500,SCT,8000,,,VFR,,,,,,,,,,,,METAR,182.0
TQPF 122100Z 10010KT 9999 SCT018 25/21 Q1018,TQPF,2019-01-12T21:00:00Z,18.18,-63.03,25.0,21.0,100,10,,6.21,30.059055,,,,,,,,,,,SCT,1800,,,,,,,VFR,,,,,,,,,,,,METAR,31.0
SBFL 122100Z 14010KT 9999 BKN030 SCT050 27/24 Q1014,SBFL,2019-01-12T21:00:00Z,-27.67,-48.53,27.0,24.0,140,10,,6.21,29.940945,,,,,,,,,,,BKN,3000,SCT,5000,,,,,MVFR,,,,,,,,,,,,METAR,5.0
KHVE 122100Z AUTO 10SM CLR 06/M05 A3018 RMK AO2,KHVE,2019-01-12T21:00:00Z,38.42,-110.7,6.0,-5.0,,,,10.0,30.180119,,,TRUE,TRUE,,,,,,,CLR,,,,,,,,VFR,,,,,,,,,,,,SPECI,1350.0
GBYD 122100Z 26005KT CAVOK 23/14 Q1012,GBYD,2019-01-12T21:00:00Z,13.33,-16.65,23.0,14.0,260,5,,6.21,29.88189,,,,,,,,,,,CAVOK,,,,,,,,VFR,,,,,,,,,,,,METAR,36.0
TNCM 122100Z 11008KT 080V150 9999 SCT016 25/21 Q1017 NOSIG RMK A3005 SHWRS DSNT NWRN QUAD,TNCM,2019-01-12T21:00:00Z,18.05,-63.12,25.0,21.0,110,8,,6.21,30.029528,,,,,,TRUE,,,,,SCT,1600,,,,,,,VFR,,,,,,,,,,,,METAR,4.0
UBBY 122100Z 13004KT 9999 NSC 07/M04 Q1013 R33/////// NOSIG RMK MT OP,UBBY,2019-01-12T21:00:00Z,41.57,46.67,7.0,-4.0,130,4,,6.21,29.911417,,,,,,TRUE,,,,,CLR,,,,,,,,VFR,,,,,,,,,,,,METAR,390.0
LZSL 122100Z 23006KT 9999 OVC025 01/M00 Q1009,LZSL,2019-01-12T21:00:00Z,48.63,19.13,1.0,0.0,230,6,,6.21,29.793306,,,,,,,,,,,OVC,2500,,,,,,,MVFR,,,,,,,,,,,,METAR,313.0
UAAA 122100Z 24001MPS 0000 R23R/0150N R23L/0150N FZFG VV001 M10/M11 Q1031 R23R/1///60 R23L/3///42 NOSIG RMK QBB030,UAAA,2019-01-12T21:00:00Z,43.35,77.03,-10.0,-11.0,240,2,,0.0,30.442913,,,,,,TRUE,,,,FZFG,OVX,0,,,,,,,LIFR,,,,,,,,,,,100,METAR,681.0
UACC 122100Z 20005MPS CAVOK M17/M18 Q1030 R22/8///65 NOSIG RMK QFE741/0988,UACC,2019-01-12T21:00:00Z,51.02,71.47,-17.0,-18.0,200,10,,6.21,30.413385,,,,,,TRUE,,,,,CAVOK,,,,,,,,VFR,,,,,,,,,,,,METAR,355.0
UADD 122100Z 24001MPS 4000 BR NSC M05/M06 Q1027 R13/0///65 NOSIG RMK QFE713/0950,UADD,2019-01-12T21:00:00Z,42.85,71.3,-5.0,-6.0,240,2,,2.49,30.324802,,,,,,TRUE,,,,BR,CLR,,,,,,,,IFR,,,,,,,,,,,,METAR,665.0
VEBS 122100Z 00000KT 2000 BR NSC 16/14 Q1016 NOSIG,VEBS,2019-01-12T21:00:00Z,20.25,85.82,16.0,14.0,0,0,,1.24,30.0,,,,,,TRUE,,,,BR,CLR,,,,,,,,IFR,,,,,,,,,,,,METAR,46.0
VERC 122100Z 00000KT 2000 HZ NSC 11/09 Q1018 NOSIG,VERC,2019-01-12T21:00:00Z,23.32,85.32,11.0,9.0,0,0,,1.24,30.059055,,,,,,TRUE,,,,HZ,CLR,,,,,,,,IFR,,,,,,,,,,,,METAR,652.0
RJAW 122100Z 27011KT 9999 FEW020 SCT030 22/19 Q1013 RMK 1CU020 4CU030 A2992,RJAW,2019-01-12T21:00:00Z,24.77,141.32,22.0,19.0,270,11,,6.21,29.911417,,,,,,,,,,,FEW,2000,SCT,3000,,,,,VFR,,,,,,,,,,,,METAR,116.0
TTCP 122100Z 11010KT 9999 FEW020 28/19 Q1014 NOSIG,TTCP,2019-01-12T21:00:00Z,11.15,-60.85,28.0,19.0,110,10,,6.21,29.940945,,,,,,TRUE,,,,,FEW,2000,,,,,,,VFR,,,,,,,,,,,,METAR,8.0
TTPP 122100Z 11011KT 9999 FEW020 28/19 Q1014 NOSIG,TTPP,2019-01-12T21:00:00Z,10.58,-61.35,28.0,19.0,110,11,,6.21,29.940945,,,,,,TRUE,,,,,FEW,2000,,,,,,,VFR,,,,,,,,,,,,METAR,15.0
TVSA 122100Z 07008KT 030V090 9999 FEW021 26/20 Q1015 NOSIG ,TVSA,2019-01-12T21:00:00Z,13.15,-61.15,26.0,20.0,70,8,,6.21,29.970472,,,,,,TRUE,,,,,FEW,2100,,,,,,,VFR,,,,,,,,,,,,METAR,17.0
SLET 122100Z 33008KT 9999 FEW015 SCT020 28/21 Q1009,SLET,2019-01-12T21:00:00Z,-17.8,-63.17,28.0,21.0,330,8,,6.21,29.793306,,,,,,,,,,,FEW,1500,SCT,2000,,,,,VFR,,,,,,,,,,,,METAR,414.0
FAVV 122100Z AUTO 32005KT //// // ////// 22/14 Q1016,FAVV,2019-01-12T21:00:00Z,-26.57,27.97,22.0,14.0,320,5,,,30.0,,,TRUE,,,,,,,,,,,,,,,,,,,,,,,,,,,,METAR,1483.0
SLVR 122100Z 36006KT 9999 FEW015 SCT020 SCT070 29/23 Q1010,SLVR,2019-01-12T21:00:00Z,-17.63,-63.12,29.0,23.0,360,6,,6.21,29.822834,,,,,,,,,,,FEW,1500,SCT,2000,SCT,7000,,,VFR,,,,,,,,,,,,METAR,373.0
SLTR 122100Z 00000KT 9999 FEW015 FEW020CB SCT080 BKN200 26/23 Q1009,SLTR,2019-01-12T21:00:00Z,-14.83,-64.92,26.0,23.0,0,0,,6.21,29.793306,,,,,,,,,,,FEW,1500,FEW,2000,SCT,8000,BKN,20000,VFR,,,,,,,,,,,,METAR,157.0
SLTJ 122100Z 19007KT 9999 SCT030 BKN070 23/16 Q1014,SLTJ,2019-01-12T21:00:00Z,-21.55,-64.72,23.0,16.0,190,7,,6.21,29.940945,,,,,,,,,,,SCT,3000,BKN,7000,,,,,VFR,,,,,,,,,,,,METAR,1858.0
SLLP 122100Z 08004KT 9999 SCT017 FEW020CB BKN200 12/04 Q1033,SLLP,2019-01-12T21:00:00Z,-16.52,-68.17,12.0,4.0,80,4,,6.21,30.501968,,,,,,,,,,,SCT,1700,FEW,2000,BKN,20000,,,VFR,,,,,,,,,,,,METAR,4014.0
SLCB 122100Z 23005KT 9999 FEW030 FEW033CB 26/09 Q1018,SLCB,2019-01-12T21:00:00Z,-17.42,-66.18,26.0,9.0,230,5,,6.21,30.059055,,,,,,,,,,,FEW,3000,FEW,3300,,,,,VFR,,,,,,,,,,,,METAR,2548.0
SGES 122100Z 00000KT 9999 TS SCT030 FEW040CB BKN080 26/22 Q1011,SGES,2019-01-12T21:00:00Z,-25.45,-54.85,26.0,22.0,0,0,,6.21,29.852362,,,,,,,,,,TS,SCT,3000,FEW,4000,BKN,8000,,,VFR,,,,,,,,,,,,METAR,849.0
SGAS 122100Z 02005KT 320V040 9999 FEW033 33/23 Q1008,SGAS,2019-01-12T21:00:00Z,-25.25,-57.52,33.0,23.0,20,5,,6.21,29.763779,,,,,,,,,,,FEW,3300,,,,,,,VFR,,,,,,,,,,,,METAR,101.0
SYCJ 122100Z 04010KT 9999 SCT018 SCT039 27/21 Q1013 NOSIG,SYCJ,2019-01-12T21:00:00Z,6.5,-58.25,27.0,21.0,40,10,,6.21,29.911417,,,,,,TRUE,,,,,SCT,1800,SCT,3900,,,,,VFR,,,,,,,,,,,,METAR,30.0
SBPP 122100Z 00000KT 9999 SCT020 26/22 Q1014,SBPP,2019-01-12T21:00:00Z,-22.55,-55.7,26.0,22.0,0,0,,6.21,29.940945,,,,,,,,,,,SCT,2000,,,,,,,VFR,,,,,,,,,,,,METAR,660.0
SBTF 122100Z 05003KT 9999 FEW020 FEW025TCU SCT090 29/24 Q1008,SBTF,2019-01-12T21:00:00Z,-3.37,-64.72,29.0,24.0,50,3,,6.21,29.763779,,,,,,,,,,,FEW,2000,FEW,2500,SCT,9000,,,VFR,,,,,,,,,,,,METAR,47.0
SBTT 122100Z 20003KT CAVOK 28/23 Q1010,SBTT,2019-01-12T21:00:00Z,-4.25,-69.93,28.0,23.0,200,3,,6.21,29.822834,,,,,,,,,,,CAVOK,,,,,,,,VFR,,,,,,,,,,,,METAR,85.0
SBSG 122100Z 20008KT 150V240 9999 VCSH BKN019 FEW029TCU BKN080 28/24 Q1012,SBSG,2019-01-12T21:00:00Z,-5.77,-35.37,28.0,24.0,200,8,,6.21,29.88189,,,,,,,,,,VCSH,BKN,1900,FEW,2900,BKN,8000,,,MVFR,,,,,,,,,,,,METAR,83.0
SBBE 122100Z 08008KT 9999 BKN020 FEW025TCU 23/21 Q1011,SBBE,2019-01-12T21:00:00Z,-1.37,-48.47,23.0,21.0,80,8,,6.21,29.852362,,,,,,,,,,,BKN,2000,FEW,2500,,,,,MVFR,,,,,,,,,,,,METAR,16.0
SLPS 122100Z 09004KT 9999 FEW020 BKN200 33/23 Q1007,SLPS,2019-01-12T21:00:00Z,-18.98,-57.82,33.0,23.0,90,4,,6.21,29.734253,,,,,,,,,,,FEW,2000,BKN,20000,,,,,VFR,,,,,,,,,,,,METAR,135.0
SLCO 122100Z 35005KT 9999 FEW015 SCT080 BKN200 26/23 Q1010,SLCO,2019-01-12T21:00:00Z,-11.03,-68.78,26.0,23.0,350,5,,6.21,29.822834,,,,,,,,,,,FEW,1500,SCT,8000,BKN,20000,,,VFR,,,,,,,,,,,,METAR,272.0
DAUH 122100Z 00000KT CAVOK 04/M04 Q1026,DAUH,2019-01-12T21:00:00Z,31.67,6.15,4.0,-4.0,0,0,,6.21,30.295275,,,,,,,,,,,CAVOK,,,,,,,,VFR,,,,,,,,,,,,METAR,142.0
DAOO 122100Z 00000KT CAVOK 05/01 Q1028,DAOO,2019-01-12T21:00:00Z,35.62,-0.6,5.0,1.0,0,0,,6.21,30.35433,,,,,,,,,,,CAVOK,,,,,,,,VFR,,,,,,,,,,,,METAR,90.0
DAON 122100Z 00000KT CAVOK 04/M07 Q1028,DAON,2019-01-12T21:00:00Z,35.02,-1.47,4.0,-7.0,0,0,,6.21,30.35433,,,,,,,,,,,CAVOK,,,,,,,,VFR,,,,,,,,,,,,METAR,247.0
DABC 122100Z 27006KT 250V310 8000 SCT010 OVC016 04/04 Q1025,DABC,2019-01-12T21:00:00Z,36.27,6.62,4.0,4.0,270,6,,4.97,30.265747,,,,,,,,,,,SCT,1000,OVC,1600,,,,,MVFR,,,,,,,,,,,,METAR,694.0
DABB 122100Z 24010KT 8000 -RA FEW016 FEW020TCU BKN030 08/07 Q1024,DABB,2019-01-12T21:00:00Z,36.82,7.82,8.0,7.0,240,10,,4.97,30.236221,,,,,,,,,,-RA,FEW,1600,FEW,2000,BKN,3000,,,MVFR,,,,,,,,,,,,METAR,4.0
DAAT 122100Z 12008KT CAVOK 09/M21 Q1023,DAAT,2019-01-12T21:00:00Z,22.82,5.47,9.0,-21.0,120,8,,6.21,30.206694,,,,,,,,,,,CAVOK,,,,,,,,VFR,,,,,,,,,,,,METAR,1377.0
DAAG 122100Z 27004KT 9999 FEW020 07/05 Q1029,DAAG,2019-01-12T21:00:00Z,36.72,3.22,7.0,5.0,270,4,,6.21,30.383858,,,,,,,,,,,FEW,2000,,,,,,,VFR,,,,,,,,,,,,METAR,25.0
DIST CB TO NE,DIST,2019-01-12T21:00:00Z,,,,,,,,,,,,,,,,,,,,,,,,,,,,,,,,,,,,,,,,METAR,
DIAP 122100Z 23008KT 8000 FEW020 29/25 Q1011 NOSIG,DIAP,2019-01-12T21:00:00Z,5.25,-3.92,29.0,25.0,230,8,,4.97,29.852362,,,,,,TRUE,,,,,FEW,2000,,,,,,,MVFR,,,,,,,,,,,,METAR,8.0
FOOL 122100Z 24008KT 210V270 8000 FEW012 28/26 Q1010 NOSIG,FOOL,2019-01-12T21:00:00Z,0.45,9.42,28.0,26.0,240,8,,4.97,29.822834,,,,,,TRUE,,,,,FEW,1200,,,,,,,MVFR,,,,,,,,,,,,METAR,15.0
SARF 122100Z 34004KT 9999 BKN025 FEW035TCU 32/24 Q1008,SARF,2019-01-12T21:00:00Z,-26.22,-58.22,32.0,24.0,340,4,,6.21,29.763779,,,,,,,,,,,BKN,2500,FEW,3500,,,,,MVFR,,,,,,,,,,,,METAR,60.0
DAUZ 122100Z 33005KT CAVOK 04/M08 Q1025,DAUZ,2019-01-12T21:00:00Z,28.05,9.62,4.0,-8.0,330,5,,6.21,30.265747,,,,,,,,,,,CAVOK,,,,,,,,VFR,,,,,,,,,,,,METAR,562.0
DABT 122100Z 28003KT 8000 SCT013 BKN020 03/02 Q1025,DABT,2019-01-12T21:00:00Z,35.75,6.32,3.0,2.0,280,3,,4.97,30.265747,,,,,,,,,,,SCT,1300,BKN,2000,,,,,MVFR,,,,,,,,,,,,METAR,823.0
DAAV 122100Z 32008KT 8000 SCT016 FEW026CB BKN030 11/08 Q1027,DAAV,2019-01-12T21:00:00Z,36.8,5.88,11.0,8.0,320,8,,4.97,30.324802,,,,,,,,,,,SCT,1600,FEW,2600,BKN,3000,,,MVFR,,,,,,,,,,,,METAR,11.0
DAAJ 122100Z 36016KT CAVOK 09/M05 Q1022,DAAJ,2019-01-12T21:00:00Z,24.28,9.47,9.0,-5.0,360,16,,6.21,30.177166,,,,,,,,,,,CAVOK,,,,,,,,VFR,,,,,,,,,,,,METAR,968.0
DAAE 122100Z 24009KT 7000 SCT020TCU BKN043 07/06 Q1028,DAAE,2019-01-12T21:00:00Z,36.72,5.07,7.0,6.0,240,9,,4.35,30.35433,,,,,,,,,,,SCT,2000,BKN,4300,,,,,MVFR,,,,,,,,,,,,METAR,2.0
DAOI 122100Z 00000KT CAVOK 05/02 Q1029,DAOI,2019-01-12T21:00:00Z,36.22,1.32,5.0,2.0,0,0,,6.21,30.383858,,,,,,,,,,,CAVOK,,,,,,,,VFR,,,,,,,,,,,,METAR,143.0
DAUG 122100Z 00000KT CAVOK 06/M07 Q1028,DAUG,2019-01-12T21:00:00Z,32.37,3.82,6.0,-7.0,0,0,,6.21,30.35433,,,,,,,,,,,CAVOK,,,,,,,,VFR,,,,,,,,,,,,METAR,450.0
DAUB 122100Z 30014KT 9999 SCT040 SCT100 11/03 Q1026,DAUB,2019-01-12T21:00:00Z,34.78,5.72,11.0,3.0,300,14,,6.21,30.295275,,,,,,,,,,,SCT,4000,SCT,10000,,,,,VFR,,,,,,,,,,,,METAR,87.0
DAUA 122100Z 01012KT CAVOK 08/M06 Q1026,DAUA,2019-01-12T21:00:00Z,27.83,-0.18,8.0,-6.0,10,12,,6.21,30.295275,,,,,,,,,,,CAVOK,,,,,,,,VFR,,,,,,,,,,,,METAR,263.0
DAOB 122100Z 17003KT 9999 FEW026 M03/M04 Q1028,DAOB,2019-01-12T21:00:00Z,35.33,1.47,-3.0,-4.0,170,3,,6.21,30.35433,,,,,,,,,,,FEW,2600,,,,,,,VFR,,,,,,,,,,,,METAR,989.0
DABS 122100Z 26004KT 9999 FEW026 SCT030 02/M01 Q1024,DABS,2019-01-12T21:00:00Z,35.43,8.12,2.0,-1.0,260,4,,6.21,30.236221,,,,,,,,,,,FEW,2600,SCT,3000,,,,,VFR,,,,,,,,,,,,METAR,813.0
DAAS 122100Z 32004KT 7000 FEW010 SCT026 02/01 Q1025,DAAS,2019-01-12T21:00:00Z,36.18,5.33,2.0,1.0,320,4,,4.35,30.265747,,,,,,,,,,,FEW,1000,SCT,2600,,,,,MVFR,,,,,,,,,,,,METAR,1038.0
VEPT 122100Z 00000KT 1400 R25/1500 BR NSC 09/09 Q1016 NOSIG,VEPT,2019-01-12T21:00:00Z,25.6,85.08,9.0,9.0,0,0,,0.87,30.0,,,,,,TRUE,,,,BR,CLR,,,,,,,,LIFR,,,,,,,,,,,,METAR,60.0
DTTZ 122100Z 25007KT 9999 SCT030 07/M05 Q1025 NOSIG,DTTZ,2019-01-12T21:00:00Z,33.92,8.08,7.0,-5.0,250,7,,6.21,30.265747,,,,,,TRUE,,,,,SCT,3000,,,,,,,VFR,,,,,,,,,,,,METAR,93.0
DTTJ 122100Z 32012KT 9999 SCT020 12/M01 Q1024 NOSIG,DTTJ,2019-01-12T21:00:00Z,33.87,10.77,12.0,-1.0,320,12,,6.21,30.236221,,,,,,TRUE,,,,,SCT,2000,,,,,,,VFR,,,,,,,,,,,,METAR,4.0
DTTG 122100Z 22008KT 9999 SCT030 06/01 Q1024 NOSIG,DTTG,2019-01-12T21:00:00Z,33.73,9.92,6.0,1.0,220,8,,6.21,30.236221,,,,,,TRUE,,,,,SCT,3000,,,,,,,VFR,,,,,,,,,,,,METAR,5.0
DTTF 122100Z 33007KT 8000 SCT030 08/M01 Q1025 NOSIG,DTTF,2019-01-12T21:00:00Z,34.42,8.82,8.0,-1.0,330,7,,4.97,30.265747,,,,,,TRUE,,,,,SCT,3000,,,,,,,MVFR,,,,,,,,,,,,METAR,314.0
DTTA 122100Z 26007KT 9999 FEW023 08/04 Q1022 NOSIG,DTTA,2019-01-12T21:00:00Z,36.85,10.22,8.0,4.0,260,7,,6.21,30.177166,,,,,,TRUE,,,,,FEW,2300,,,,,,,VFR,,,,,,,,,,,,METAR,4.0
DTNH 122100Z 27013KT CAVOK 08/03 Q1023,DTNH,2019-01-12T21:00:00Z,36.07,10.43,8.0,3.0,270,13,,6.21,30.206694,,,,,,,,,,,CAVOK,,,,,,,,VFR,,,,,,,,,,,,METAR,2.0
DTKA 122100Z AUTO 23009KT /// 09/06 Q1023,DTKA,2019-01-12T21:00:00Z,36.98,8.88,9.0,6.0,230,9,,,30.206694,,,TRUE,,,,,,,,,,,,,,,,,,,,,,,,,,,,METAR,21.0
UCFL 122100Z 35002MPS 9999 SCT030 BKN100 M06/M13 Q1025 R07/CLRD95,UCFL,2019-01-12T21:00:00Z,42.58,76.7,-6.0,-13.0,350,4,,6.21,30.265747,,,,,,,,,,,SCT,3000,BKN,10000,,,,,VFR,,,,,,,,,,,,METAR,1648.0
UCFO 122100Z 13001MPS 7000 SCT050 BKN083 M02/M04 Q1028 R12/CLRD95 NOSIG,UCFO,2019-01-12T21:00:00Z,40.6,72.8,-2.0,-4.0,130,2,,4.35,30.35433,,,,,,TRUE,,,,,SCT,5000,BKN,8300,,,,,MVFR,,,,,,,,,,,,METAR,884.0
UCFM 122100Z 12002MPS 030V140 1100 0800E R08/P1500U BCFG OVC006 M08/M09 Q1028 R08/19//95 NOSIG,UCFM,2019-01-12T21:00:00Z,43.07,74.48,-8.0,-9.0,120,4,,0.68,30.35433,,,,,,TRUE,,,,BCFG,OVC,600,,,,,,,LIFR,,,,,,,,,,,,METAR,633.0
UTDL 122100Z 08008MPS 2400 BR NSC 02/01 Q1028 R08/CLRD70 NOSIG RMK QFE731/0975,UTDL,2019-01-12T21:00:00Z,40.22,69.7,2.0,1.0,80,16,,1.49,30.35433,,,,,,TRUE,,,,BR,CLR,,,,,,,,IFR,,,,,,,,,,,,METAR,442.0
UTDT 122100Z 01002MPS 2400 BR FEW133 M00/M00 Q1027 R35/////// RMK QFE730/0974,UTDT,2019-01-12T21:00:00Z,37.87,68.87,0.0,0.0,10,4,,1.49,30.324802,,,,,,,,,,BR,FEW,13300,,,,,,,IFR,,,,,,,,,,,,METAR,449.0
UTDK 122100Z 01005MPS 9999 NSC M00/M04 Q1028 R01/09//70 RMK QFE713/0950,UTDK,2019-01-12T21:00:00Z,37.98,69.8,0.0,-4.0,10,10,,6.21,30.35433,,,,,,,,,,,CLR,,,,,,,,VFR,,,,,,,,,,,,METAR,699.0
UTDD 122100Z VRB02MPS 9999 NSC M02/M04 Q1028 R09/19//60 NOSIG RMK QFE702/0935,UTDD,2019-01-12T21:00:00Z,38.53,68.82,-2.0,-4.0,0,4,,6.21,30.35433,,,,,,TRUE,,,,,CLR,,,,,,,,VFR,,,,,,,,,,,,METAR,803.0
ZUUU 122100Z 00000MPS 1800 R02L/0275D R02R/1300D BCFG BR NSC 00/00 Q1024 BECMG TL2200 1400 BR,ZUUU,2019-01-12T21:00:00Z,30.58,103.95,0.0,0.0,0,0,,1.12,30.236221,,,,,,,,,,BCFG BR,CLR,,,,,,,,IFR,,,,,,,,,,,,METAR,508.0
ZUGY 122100Z 03003MPS 9999 -DZ SCT007 BKN013 OVC023 05/03 Q1021 NOSIG,ZUGY,2019-01-12T21:00:00Z,26.53,106.8,5.0,3.0,30,6,,6.21,30.147638,,,,,,TRUE,,,,-DZ,SCT,700,BKN,1300,OVC,2300,,,MVFR,,,,,,,,,,,,METAR,1074.0
ZSQD 122100Z 03001MPS 0700 R35/0600V2000U FZFG BKN008 M05/M06 Q1027 BECMG TL2200 0500 FZFG,ZSQD,2019-01-12T21:00:00Z,36.27,120.38,-5.0,-6.0,30,2,,0.43,30.324802,,,,,,,,,,FZFG,BKN,800,,,,,,,LIFR,,,,,,,,,,,,METAR,77.0
ZSNB 122100Z 34002MPS 310V010 8000 BKN030 06/00 Q1026 NOSIG,ZSNB,2019-01-12T21:00:00Z,29.83,121.47,6.0,0.0,340,4,,4.97,30.295275,,,,,,TRUE,,,,,BKN,3000,,,,,,,MVFR,,,,,,,,,,,,METAR,4.0
ZSFZ 122100Z 03005MPS 9999 FEW013 OVC023 11/09 Q1023 NOSIG,ZSFZ,2019-01-12T21:00:00Z,25.93,119.67,11.0,9.0,30,10,,6.21,30.206694,,,,,,TRUE,,,,,FEW,1300,OVC,2300,,,,,MVFR,,,,,,,,,,,,METAR,85.0
ZSAM 122100Z 09004MPS 9999 FEW023 OVC040 16/12 Q1021 NOSIG,ZSAM,2019-01-12T21:00:00Z,24.53,118.13,16.0,12.0,90,8,,6.21,30.147638,,,,,,TRUE,,,,,FEW,2300,OVC,4000,,,,,VFR,,,,,,,,,,,,METAR,18.0
ZPPP 122100Z 23005MPS CAVOK 05/04 Q1022 NOSIG,ZPPP,2019-01-12T21:00:00Z,25.0,102.75,5.0,4.0,230,10,,6.21,30.177166,,,,,,TRUE,,,,,CAVOK,,,,,,,,VFR,,,,,,,,,,,,METAR,1892.0
ZLXY 122100Z 24001MPS 1100 R05L/1700D R05R/1500D BR NSC M09/M10 Q1027 BECMG TL2250 0700 FZFG,ZLXY,2019-01-12T21:00:00Z,34.43,108.75,-9.0,-10.0,240,2,,0.68,30.324802,,,,,,,,,,BR,CLR,,,,,,,,LIFR,,,,,,,,,,,,METAR,479.0
ZGSZ 122100Z 00000MPS 3500 BR SCT013 OVC021 19/18 Q1019 NOSIG,ZGSZ,2019-01-12T21:00:00Z,22.63,113.8,19.0,18.0,0,0,,2.17,30.088583,,,,,,TRUE,,,,BR,SCT,1300,OVC,2100,,,,,IFR,,,,,,,,,,,,METAR,18.0
ZGOW 122100Z 10002MPS 5000 BR SCT005 OVC020 17/16 Q1020 NOSIG,ZGOW,2019-01-12T21:00:00Z,23.55,116.5,17.0,16.0,100,4,,3.11,30.11811,,,,,,TRUE,,,,BR,SCT,500,OVC,2000,,,,,MVFR,,,,,,,,,,,,METAR,3.0
ZGNN 122100Z 08002MPS 1500 R05/1300N BR FEW001 SCT003 OVC020 13/13 Q1018 NOSIG,ZGNN,2019-01-12T21:00:00Z,22.62,108.17,13.0,13.0,80,4,,0.93,30.059055,,,,,,TRUE,,,,BR,FEW,100,SCT,300,OVC,2000,,,LIFR,,,,,,,,,,,,METAR,73.0
ZGKL 122100Z VRB02MPS 5000 -RA BR SCT009 OVC026 07/06 Q1022 NOSIG,ZGKL,2019-01-12T21:00:00Z,25.22,110.03,7.0,6.0,0,4,,3.11,30.177166,,,,,,TRUE,,,,-RA BR,SCT,900,OVC,2600,,,,,MVFR,,,,,,,,,,,,METAR,166.0
UKDR 122100Z 28004MPS 5000 -SN OVC007 M04/M05 Q1006 R36/4950// NOSIG,UKDR,2019-01-12T21:00:00Z,48.05,33.22,-4.0,-5.0,280,8,,3.11,29.704725,,,,,,TRUE,,,,-SN,OVC,700,,,,,,,IFR,,,,,,,,,,,,METAR,124.0
UKLL 122100Z 25003MPS 9999 OVC020 M01/M05 Q1006 R31/610340 TEMPO -FZRASN BKN020CB,UKLL,2019-01-12T21:00:00Z,49.82,23.93,-1.0,-5.0,250,6,,6.21,29.704725,,,,,,,,,,,OVC,2000,,,,,,,MVFR,,,,,,,,,,,,METAR,325.0
UKDD 122100Z 28005MPS 6000 -SN OVC008 M04/M06 Q1005 R26/820550 TEMPO 1100 SHSN BKN002 BKN012CB,UKDD,2019-01-12T21:00:00Z,48.37,35.1,-4.0,-6.0,280,10,,3.73,29.675198,,,,,,,,,,-SN,OVC,800,,,,,,,IFR,,,,,,,,,,,,METAR,149.0
UKDE 122100Z 24005MPS 200V280 7000 -SHSN BKN010 BKN///CB M03/M04 Q1006 R20L/290360 NOSIG,UKDE,2019-01-12T21:00:00Z,47.87,35.32,-3.0,-4.0,240,10,,4.35,29.704725,,,,,,TRUE,,,,-SHSN,BKN,1000,,,,,,,MVFR,,,,,,,,,,,,METAR,113.0
UKHH 122100Z 23002MPS 3400 -SN BR SCT011 OVC023 M09/M11 Q1003 R25/450236 NOSIG,UKHH,2019-01-12T21:00:00Z,49.92,36.28,-9.0,-11.0,230,4,,2.11,29.616142,,,,,,TRUE,,,,-SN BR,SCT,1100,OVC,2300,,,,,IFR,,,,,,,,,,,,METAR,155.0
UKBB 122100Z 23003MPS 9999 OVC016 M03/M05 Q1004 R18L/451040 R18R/85//40 NOSIG,UKBB,2019-01-12T21:00:00Z,50.33,30.9,-3.0,-5.0,230,6,,6.21,29.64567,,,,,,TRUE,,,,,OVC,1600,,,,,,,MVFR,,,,,,,,,,,,METAR,119.0
YBDV 122100Z AUTO 04010KT //// // ////// 33/11 Q1009,YBDV,2019-01-12T21:00:00Z,-25.9,139.35,33.0,11.0,40,10,,,29.793306,,,TRUE,,,,,,,,,,,,,,,,,,,,,,,,,,,,METAR,47.0
YBCV 122100Z AUTO 36005KT 9999 // NCD 28/08 Q1015,YBCV,2019-01-12T21:00:00Z,-26.38,146.27,28.0,8.0,360,5,,6.21,29.970472,,,TRUE,,,,,,,,CLR,,,,,,,,VFR,,,,,,,,,,,,METAR,304.0
YBCS 122100Z AUTO 16007KT 9999 // SCT060 25/21 Q1010 RMK RF00.0/001.4 NOSIG,YBCS,2019-01-12T21:00:00Z,-16.87,145.75,25.0,21.0,160,7,,6.21,29.822834,,,TRUE,,,,,,,,SCT,6000,,,,,,,VFR,,,,,,,,,,,,METAR,7.0
YBBN 122100Z 18005KT 9999 FEW025 25/19 Q1016 FM2200 15009KT 9999 FEW030,YBBN,2019-01-12T21:00:00Z,-27.38,153.13,25.0,19.0,180,5,,6.21,30.0,,,,,,,,,,,FEW,2500,,,,,,,VFR,,,,,,,,,,,,METAR,5.0
YBAS 122100Z AUTO 00000KT 9999 // NCD 25/12 Q1014 RF00.0/003.2,YBAS,2019-01-12T21:00:00Z,-23.8,133.9,25.0,12.0,0,0,,6.21,29.940945,,,TRUE,,,,,,,,CLR,,,,,,,,VFR,,,,,,,,,,,,METAR,541.0
YAYE 122100Z AUTO 15008KT 9999 // NCD 29/06 Q1013,YAYE,2019-01-12T21:00:00Z,-25.18,130.98,29.0,6.0,150,8,,6.21,29.911417,,,TRUE,,,,,,,,CLR,,,,,,,,VFR,,,,,,,,,,,,METAR,496.0
YARG 122100Z AUTO 36007KT 9999 // NCD 28/24 Q1008,YARG,2019-01-12T21:00:00Z,-16.63,128.45,28.0,24.0,360,7,,6.21,29.763779,,,TRUE,,,,,,,,CLR,,,,,,,,VFR,,,,,,,,,,,,METAR,165.0
YABA 122100Z AUTO 22005KT 8000 // SCT014 17/17 Q1011,YABA,2019-01-12T21:00:00Z,-34.93,117.8,17.0,17.0,220,5,,4.97,29.852362,,,TRUE,,,,,,,,SCT,1400,,,,,,,MVFR,,,,,,,,,,,,METAR,69.0
UAUU 122100Z 18009MPS 7000 BLSN FEW011 OVC053CB M08/M10 Q1018 R15/450148 TEMPO 18015MPS 1000 BLSN VV003 RMK QFE747/0996,UAUU,2019-01-12T21:00:00Z,53.2,63.55,-8.0,-10.0,180,17,,4.35,30.059055,,,,,,,,,,BLSN,FEW,1100,OVC,5300,,,,,MVFR,,,,,,,,,,,,METAR,182.0
UATT 122100Z 18011MPS 6000 -SN BLSN OVC010 M05/M06 Q1012 R13/390140 NOSIG RMK QFE740/0986,UATT,2019-01-12T21:00:00Z,50.25,57.2,-5.0,-6.0,180,21,,3.73,29.88189,,,,,,TRUE,,,,-SN BLSN,OVC,1000,,,,,,,MVFR,,,,,,,,,,,,METAR,227.0
UATG 122100Z 17005MPS 5000 BR BKN033 M01/M01 Q1011 R14/82//65 NOSIG RMK QFE760/1014,UATG,2019-01-12T21:00:00Z,47.12,51.83,-1.0,-1.0,170,10,,3.11,29.852362,,,,,,TRUE,,,,BR,BKN,3300,,,,,,,MVFR,,,,,,,,,,,,METAR,-22.0
UATE 122100Z 08004MPS 9999 BKN024 05/02 Q1009 R12/0///70 NOSIG RMK QFE754/1006,UATE,2019-01-12T21:00:00Z,43.87,51.1,5.0,2.0,80,8,,6.21,29.793306,,,,,,TRUE,,,,,BKN,2400,,,,,,,MVFR,,,,,,,,,,,,METAR,22.0
UARR 122100Z 22010MPS 9999 BKN010 OVC023 00/M01 Q1004 R22/790132 NOSIG RMK QFE750/1000,UARR,2019-01-12T21:00:00Z,51.15,51.53,0.0,-1.0,220,19,,6.21,29.64567,,,,,,TRUE,,,,,BKN,1000,OVC,2300,,,,,MVFR,,,,,,,,,,,,METAR,38.0
UASP 122100Z 16002MPS CAVOK M22/M24 Q1034 R21/420260 NOSIG RMK QFE764/1019,UASP,2019-01-12T21:00:00Z,52.2,77.07,-22.0,-24.0,160,4,,6.21,30.531496,,,,,,TRUE,,,,,CAVOK,,,,,,,,VFR,,,,,,,,,,,,METAR,125.0
UASK 122100Z 00000MPS 1500 R12/P2000 BR PRFG BKN003 M22/M24 Q1038 R12/850248 NOSIG RMK QBB110 QFE752/1003,UASK,2019-01-12T21:00:00Z,50.03,82.5,-22.0,-24.0,0,0,,0.93,30.649607,,,,,,TRUE,,,,PRFG BR,BKN,300,,,,,,,LIFR,,,,,,,,,,,,METAR,286.0
UAOO 122100Z 13003MPS 9999 BKN030 M02/M03 Q1028 NOSIG RMK QFE759/1013,UAOO,2019-01-12T21:00:00Z,44.7,65.6,-2.0,-3.0,130,6,,6.21,30.35433,,,,,,TRUE,,,,,BKN,3000,,,,,,,MVFR,,,,,,,,,,,,METAR,129.0
UAKK 122100Z VRB01MPS 9999 SCT049 M11/M13 Q1030 R23/920555 NOSIG RMK QFE725/0967,UAKK,2019-01-12T21:00:00Z,49.67,73.33,-11.0,-13.0,0,2,,6.21,30.413385,,,,,,TRUE,,,,,SCT,4900,,,,,,,VFR,,,,,,,,,,,,METAR,538.0
UAII 122100Z VRB01MPS 5000 BR NSC M02/M03 Q1027 R10/0///70 NOSIG RMK QFE735/0980,UAII,2019-01-12T21:00:00Z,42.37,69.48,-2.0,-3.0,0,2,,3.11,30.324802,,,,,,TRUE,,,,BR,CLR,,,,,,,,MVFR,,,,,,,,,,,,METAR,422.0
EIME 122100Z 25017KT 9999 FEW007 BKN008 09/08 Q1023,EIME,2019-01-12T21:00:00Z,53.3,-6.45,9.0,8.0,250,17,,6.21,30.206694,,,,,,,,,,,FEW,700,BKN,800,,,,,IFR,,,,,,,,,,,,METAR,93.0
VOGO 122100Z 06003KT 3500 BR NSC 22/20 Q1012 NOSIG,VOGO,2019-01-12T21:00:00Z,15.38,73.83,22.0,20.0,60,3,,2.17,29.88189,,,,,,TRUE,,,,BR,CLR,,,,,,,,IFR,,,,,,,,,,,,METAR,52.0
VOGO 122100Z 06003KT 3500 BR NSC 22/20 Q1012 NOSIG,VOGO,2019-01-12T21:00:00Z,15.38,73.83,22.0,20.0,60,3,,2.17,29.88189,,,,,,TRUE,,,,BR,CLR,,,,,,,,IFR,,,,,,,,,,,,METAR,52.0
VOKN 122100Z 06004KT 3000 BR FEW015 23/22 Q1012 NOSIG,VOKN,2019-01-12T21:00:00Z,11.92,75.55,23.0,22.0,60,4,,1.86,29.88189,,,,,,TRUE,,,,BR,FEW,1500,,,,,,,IFR,,,,,,,,,,,,METAR,105.0
VOVZ 122100Z VRB02KT 2900 BR NSC 19/18 Q1015 NOSIG,VOVZ,2019-01-12T21:00:00Z,17.75,83.22,19.0,18.0,0,2,,1.8,29.970472,,,,,,TRUE,,,,BR,CLR,,,,,,,,IFR,,,,,,,,,,,,METAR,5.0
VOMM 122100Z 00000KT 3000 BR SCT020 23/20 Q1015 NOSIG,VOMM,2019-01-12T21:00:00Z,13.0,80.17,23.0,20.0,0,0,,1.86,29.970472,,,,,,TRUE,,,,BR,SCT,2000,,,,,,,IFR,,,,,,,,,,,,METAR,16.0
DTTB 122100Z 31006KT 9999 SCT020 SCT030 10/05 Q1022,DTTB,2019-01-12T21:00:00Z,37.25,9.8,10.0,5.0,310,6,,6.21,30.177166,,,,,,,,,,,SCT,2000,SCT,3000,,,,,VFR,,,,,,,,,,,,METAR,3.0
RJOH 122100Z 19004KT 9999 FEW040 SCT090 00/M02 Q1021,RJOH,2019-01-12T21:00:00Z,35.47,133.25,0.0,-2.0,190,4,,6.21,30.147638,,,,,,,,,,,FEW,4000,SCT,9000,,,,,VFR,,,,,,,,,,,,METAR,9.0
RJAH 122100Z 35006KT 9999 FEW030 OVC100 03/M05 Q1018,RJAH,2019-01-12T21:00:00Z,36.17,140.42,3.0,-5.0,350,6,,6.21,30.059055,,,,,,,,,,,FEW,3000,OVC,10000,,,,,VFR,,,,,,,,,,,,METAR,35.0
RJFR 122100Z 31004KT 280V050 9999 FEW005 SCT015 BKN060 09/07 Q1019,RJFR,2019-01-12T21:00:00Z,33.82,131.03,9.0,7.0,310,4,,6.21,30.088583,,,,,,,,,,,FEW,500,SCT,1500,BKN,6000,,,VFR,,,,,,,,,,,,METAR,6.0
GQPP 122100Z 36010KT 8000 NSC 19/07 Q1016 NOSIG,GQPP,2019-01-12T21:00:00Z,20.92,-17.02,19.0,7.0,360,10,,4.97,30.0,,,,,,TRUE,,,,,CLR,,,,,,,,MVFR,,,,,,,,,,,,METAR,3.0
DTTN 122100Z 21005KT 8000 SCT020 SCT030 07/05 Q1024,DTTN,2019-01-12T21:00:00Z,36.47,8.8,7.0,5.0,210,5,,4.97,30.236221,,,,,,,,,,,SCT,2000,SCT,3000,,,,,MVFR,,,,,,,,,,,,METAR,144.0
DTTL 122100Z AUTO 32004KT 290V360 NCD 09/02 Q1021,DTTL,2019-01-12T21:00:00Z,36.85,11.07,9.0,2.0,320,4,,,30.147638,,,TRUE,,,,,,,,CLR,,,,,,,,,,,,,,,,,,,,METAR,30.0
DTTK 122100Z 29004KT 230V360 9999 BKN023 09/02 Q1023,DTTK,2019-01-12T21:00:00Z,35.67,10.08,9.0,2.0,290,4,,6.21,30.206694,,,,,,,,,,,BKN,2300,,,,,,,MVFR,,,,,,,,,,,,METAR,68.0
DTTD 122100Z AUTO 29005KT 250V320 NCD 06/01 Q1025,DTTD,2019-01-12T21:00:00Z,32.32,10.4,6.0,1.0,290,5,,,30.265747,,,TRUE,,,,,,,,CLR,,,,,,,,,,,,,,,,,,,,METAR,301.0
ROIG 122100Z 02011KT 9999 FEW015 BKN060 20/17 Q1019,ROIG,2019-01-12T21:00:00Z,24.32,124.17,20.0,17.0,20,11,,6.21,30.088583,,,,,,,,,,,FEW,1500,BKN,6000,,,,,VFR,,,,,,,,,,,,METAR,7.0
ZLLL 122100Z 01002MPS CAVOK M11/M18 Q1021 NOSIG,ZLLL,2019-01-12T21:00:00Z,36.52,103.62,-11.0,-18.0,10,4,,6.21,30.147638,,,,,,TRUE,,,,,CAVOK,,,,,,,,VFR,,,,,,,,,,,,METAR,1947.0
ZJSY 122100Z VRB01MPS CAVOK 21/17 Q1016 NOSIG,ZJSY,2019-01-12T21:00:00Z,18.3,109.42,21.0,17.0,0,2,,6.21,30.0,,,,,,TRUE,,,,,CAVOK,,,,,,,,VFR,,,,,,,,,,,,METAR,27.0
ZJHK 122100Z 07002MPS 3000 R09/1400U BR BCFG SCT003 19/19 Q1016 NOSIG,ZJHK,2019-01-12T21:00:00Z,19.93,110.47,19.0,19.0,70,4,,1.86,30.0,,,,,,TRUE,,,,BCFG BR,SCT,300,,,,,,,IFR,,,,,,,,,,,,METAR,23.0
ZHHH 122100Z 34001MPS 2300 BR NSC 03/02 Q1026 NOSIG,ZHHH,2019-01-12T21:00:00Z,30.78,114.22,3.0,2.0,340,2,,1.43,30.295275,,,,,,TRUE,,,,BR,CLR,,,,,,,,IFR,,,,,,,,,,,,METAR,33.0
ZHCC 122100Z VRB01MPS 0100 R12R/0200N R12L/0200N FZFG VV002 M00/M01 Q1027 NOSIG,ZHCC,2019-01-12T21:00:00Z,34.52,113.83,0.0,-1.0,0,2,,0.06,30.324802,,,,,,TRUE,,,,FZFG,OVX,0,,,,,,,LIFR,,,,,,,,,,,200,METAR,151.0
ZGHA 122100Z 29002MPS 2000 BR FEW002 BKN004 OVC040 04/04 Q1026 NOSIG,ZGHA,2019-01-12T21:00:00Z,28.18,113.22,4.0,4.0,290,4,,1.24,30.295275,,,,,,TRUE,,,,BR,FEW,200,BKN,400,OVC,4000,,,LIFR,,,,,,,,,,,,METAR,66.0
ZBHH 122100Z 06002MPS 8000 NSC M18/M21 Q1026 NOSIG,ZBHH,2019-01-12T21:00:00Z,40.85,111.82,-18.0,-21.0,60,4,,4.97,30.295275,,,,,,TRUE,,,,,CLR,,,,,,,,MVFR,,,,,,,,,,,,METAR,1065.0
FMEP 122100Z AUTO 11003KT 070V150 CAVOK 26/21 Q1014,FMEP,2019-01-12T21:00:00Z,-21.32,55.42,26.0,21.0,110,3,,6.21,29.940945,,,TRUE,,,,,,,,CAVOK,,,,,,,,VFR,,,,,,,,,,,,METAR,18.0
FMEE 122100Z AUTO 13010KT 9999 BKN052 26/23 Q1015 TEMPO VRB15G25KT 3000 SHRA SCT014TCU,FMEE,2019-01-12T21:00:00Z,-20.87,55.52,26.0,23.0,130,10,,6.21,29.970472,,,TRUE,,,,,,,,BKN,5200,,,,,,,VFR,,,,,,,,,,,,METAR,25.0
UKKM 122100Z 25004MPS 9999 OVC037 M02/M03 Q1003 NOSIG,UKKM,2019-01-12T21:00:00Z,50.6,30.2,-2.0,-3.0,250,8,,6.21,29.616142,,,,,,TRUE,,,,,OVC,3700,,,,,,,VFR,,,,,,,,,,,,METAR,157.0
UKKK 122100Z 25004MPS 9999 OVC030 M03/M04 Q1003 R26/810340 NOSIG,UKKK,2019-01-12T21:00:00Z,50.4,30.45,-3.0,-4.0,250,8,,6.21,29.616142,,,,,,TRUE,,,,,OVC,3000,,,,,,,MVFR,,,,,,,,,,,,METAR,179.0
UKLI 122100Z 18003MPS 9999 BKN040 M05/M08 Q1007 R28/490335 NOSIG,UKLI,2019-01-12T21:00:00Z,48.88,24.68,-5.0,-8.0,180,6,,6.21,29.734253,,,,,,TRUE,,,,,BKN,4000,,,,,,,VFR,,,,,,,,,,,,METAR,280.0
RJTT 122100Z 36011KT 9999 FEW015 BKN040 OVC070 06/M00 Q1018 NOSIG RMK 1CU015 5SC040 8AS070 A3007,RJTT,2019-01-12T21:00:00Z,35.53,139.77,6.0,0.0,360,11,,6.21,30.059055,,,,,,TRUE,,,,,FEW,1500,BKN,4000,OVC,7000,,,VFR,,,,,,,,,,,,METAR,8.0
RJFF 122100Z 17003KT 9999 -SHRA FEW010 SCT020 BKN025 09/07 Q1019 NOSIG RMK 1CU010 3CU020 6CU025 A3010,RJFF,2019-01-12T21:00:00Z,33.57,130.43,9.0,7.0,170,3,,6.21,30.088583,,,,,,TRUE,,,,-SHRA,FEW,1000,SCT,2000,BKN,2500,,,MVFR,,,,,,,,,,,,METAR,12.0
RJFS 122100Z 27006KT 9999 FEW040 BKN060 09/07 Q1019,RJFS,2019-01-12T21:00:00Z,33.15,130.3,9.0,7.0,270,6,,6.21,30.088583,,,,,,,,,,,FEW,4000,BKN,6000,,,,,VFR,,,,,,,,,,,,METAR,5.0
ZSNJ 122100Z 00000MPS 2500 BR NSC 00/00 Q1027 NOSIG,ZSNJ,2019-01-12T21:00:00Z,31.75,118.87,0.0,0.0,0,0,,1.55,30.324802,,,,,,TRUE,,,,BR,CLR,,,,,,,,IFR,,,,,,,,,,,,METAR,33.0
CYDA 122100Z 24003KT 210V290 15SM OVC010 M27/M30 A3013 RMK ST8 SLP255,CYDA,2019-01-12T21:00:00Z,64.03,-139.12,-27.0,-30.0,240,3,,15.0,30.129921,1025.5,,,,,,,,,,OVC,1000,,,,,,,MVFR,,,,,,,,,,,,METAR,369.0
CYCG 122100Z 35005KT 15SM SCT023 BKN230 03/M01 A3026 RMK SC4CI3 SLP267,CYCG,2019-01-12T21:00:00Z,49.28,-117.62,3.0,-1.0,350,5,,15.0,30.259842,1026.7,,,,,,,,,,SCT,2300,BKN,23000,,,,,VFR,,,,,,,,,,,,METAR,495.0
CYCD 122100Z 14004KT 030V170 30SM FEW070 SCT130 BKN230 10/05 A2999 RMK AC2AC2CI2 SLP159,CYCD,2019-01-12T21:00:00Z,49.05,-123.87,10.0,5.0,140,4,,30.0,29.991142,1015.9,,,,,,,,,,FEW,7000,SCT,13000,BKN,23000,,,VFR,,,,,,,,,,,,METAR,30.0
CYBD 122100Z 00000KT 12SM -RA OVC080 05/04 A2996 RMK AC8 SLP148,CYBD,2019-01-12T21:00:00Z,52.37,-126.57,5.0,4.0,0,0,,12.0,29.958662,1014.8,,,,,,,,,-RA,OVC,8000,,,,,,,VFR,,,,,,,,,,,,METAR,35.0
CBBC 122100Z AUTO 11003KT 9SM OVC065 09/07 A2982 RMK SLP100,CBBC,2019-01-12T21:00:00Z,52.18,-128.15,9.0,7.0,110,3,,9.0,29.819881,1010.0,,TRUE,,,,,,,,OVC,6500,,,,,,,VFR,,,,,,,,,,,,METAR,43.0
CYWH 122100Z 04008KT 010V070 15SM FEW120 FEW220 BKN240 10/03 A2996 RMK AC1CC1CI3 PRESFR SLP148,CYWH,2019-01-12T21:00:00Z,48.42,-123.38,10.0,3.0,40,8,,15.0,29.958662,1014.8,,,,,,,,,,FEW,12000,FEW,22000,BKN,24000,,,VFR,,,,,,,,,,,,METAR,10.0
FBMN 122100Z 05008KT CAVOK 25/18 Q1012,FBMN,2019-01-12T21:00:00Z,-19.97,23.42,25.0,18.0,50,8,,6.21,29.88189,,,,,,,,,,,CAVOK,,,,,,,,VFR,,,,,,,,,,,,METAR,900.0
ZYHB 122100Z 22002MPS 0100 R23/0350N -SN FZFG VV001 M14/M15 Q1023 NOSIG,ZYHB,2019-01-12T21:00:00Z,45.62,126.25,-14.0,-15.0,220,4,,0.06,30.206694,,,,,,TRUE,,,,-SN FZFG,OVX,0,,,,,,,LIFR,,,,,,,,,,,100,METAR,140.0
ZYCC 122100Z 23002MPS 200V270 1600 BR FEW020 M05/M08 Q1023 NOSIG,ZYCC,2019-01-12T21:00:00Z,43.98,125.68,-5.0,-8.0,230,4,,0.99,30.206694,,,,,,TRUE,,,,BR,FEW,2000,,,,,,,LIFR,,,,,,,,,,,,METAR,238.0
ZUCK 122100Z VRB01MPS 6000 NSC 06/05 Q1024 NOSIG,ZUCK,2019-01-12T21:00:00Z,29.72,106.63,6.0,5.0,0,2,,3.73,30.236221,,,,,,TRUE,,,,,CLR,,,,,,,,MVFR,,,,,,,,,,,,METAR,416.0
ZSOF 122100Z 07001MPS 1000 R15/1700D BR NSC 01/00 Q1027 BECMG AT2140 0700,ZSOF,2019-01-12T21:00:00Z,31.98,116.97,1.0,0.0,70,2,,0.62,30.324802,,,,,,,,,,BR,CLR,,,,,,,,LIFR,,,,,,,,,,,,METAR,63.0
NFNA 122100Z 35003KT 9999 FEW022 29/25 Q1007,NFNA,2019-01-12T21:00:00Z,-18.05,178.57,29.0,25.0,350,3,,6.21,29.734253,,,,,,,,,,,FEW,2200,,,,,,,VFR,,,,,,,,,,,,METAR,5.0
CYIN 122100Z AUTO 14008KT 100V170 9SM CLR 01/M03 A3000 RMK SLP192,CYIN,2019-01-12T21:00:00Z,51.27,-121.68,1.0,-3.0,140,8,,9.0,30.0,1019.2,,TRUE,,,,,,,,CLR,,,,,,,,VFR,,,,,,,,,,,,METAR,1128.0
OICI 122100Z 12004KT 9999 FEW045 BKN100 05/M09 Q1020 A3013,OICI,2019-01-12T21:00:00Z,33.58,46.4,5.0,-9.0,120,4,,6.21,30.11811,,,,,,,,,,,FEW,4500,BKN,10000,,,,,VFR,,,,,,,,,,,,METAR,1343.0
CYKA 122100Z 10010KT 40SM FEW012 BKN250 04/00 A3015 RMK SF1CI6 SF TR SLP227,CYKA,2019-01-12T21:00:00Z,50.7,-120.45,4.0,0.0,100,10,,40.0,30.15059,1022.7,,,,,,,,,,FEW,1200,BKN,25000,,,,,VFR,,,,,,,,,,,,METAR,346.0
UDSG 122100Z 00000KT 4700 BR NSC M13/M15 Q1014 R02/CLRD70 NOSIG,UDSG,2019-01-12T21:00:00Z,40.75,43.87,-13.0,-15.0,0,0,,2.92,29.940945,,,,,,TRUE,,,,BR,CLR,,,,,,,,IFR,,,,,,,,,,,,METAR,1524.0
UDYZ 122100Z 07001KT 2300 BR NSC M06/M09 Q1017 R09/000070 NOSIG,UDYZ,2019-01-12T21:00:00Z,40.15,44.4,-6.0,-9.0,70,1,,1.43,30.029528,,,,,,TRUE,,,,BR,CLR,,,,,,,,IFR,,,,,,,,,,,,METAR,865.0
UTAT 122100Z 13012KT CAVOK 02/M00 Q1018 R08/CLRD70 NOSIG,UTAT,2019-01-12T21:00:00Z,41.77,59.83,2.0,0.0,130,12,,6.21,30.059055,,,,,,TRUE,,,,,CAVOK,,,,,,,,VFR,,,,,,,,,,,,METAR,83.0
UTAM 122100Z 11010G20KT 6000 SCT230 04/01 Q1020 NOSIG,UTAM,2019-01-12T21:00:00Z,37.62,61.9,4.0,1.0,110,10,20,3.73,30.11811,,,,,,TRUE,,,,,SCT,23000,,,,,,,MVFR,,,,,,,,,,,,METAR,222.0
UTAV 122100Z 12016KT CAVOK 04/01 Q1021 NOSIG,UTAV,2019-01-12T21:00:00Z,39.08,63.62,4.0,1.0,120,16,,6.21,30.147638,,,,,,TRUE,,,,,CAVOK,,,,,,,,VFR,,,,,,,,,,,,METAR,192.0
UTAK 122100Z 18008KT CAVOK 05/02 Q1012 R16R/CLRD70 NOSIG,UTAK,2019-01-12T21:00:00Z,40.05,53.0,5.0,2.0,180,8,,6.21,29.88189,,,,,,TRUE,,,,,CAVOK,,,,,,,,VFR,,,,,,,,,,,,METAR,85.0
UTAA 122100Z 24004KT 8000 SCT230 02/00 Q1011 R88/70D NOSIG,UTAA,2019-01-12T21:00:00Z,37.98,58.37,2.0,0.0,240,4,,4.97,29.852362,,,,,,TRUE,,,,,SCT,23000,,,,,,,MVFR,,,,,,,,,,,,METAR,210.0
CYYE 122100Z 04003KT 020V110 30SM SCT009 SCT063 BKN210 M18/M22 A3001 RMK SC3SC1CI1 SLP206,CYYE,2019-01-12T21:00:00Z,58.82,-122.57,-18.0,-22.0,40,3,,30.0,30.008858,1020.6,,,,,,,,,,SCT,900,SCT,6300,BKN,21000,,,VFR,,,,,,,,,,,,METAR,382.0
CYXY 122100Z 35004KT 20SM BKN010 OVC180 M22/M25 A2990 RMK ST7AC1 SLP213,CYXY,2019-01-12T21:00:00Z,60.72,-135.07,-22.0,-25.0,350,4,,20.0,29.899607,1021.3,,,,,,,,,,BKN,1000,OVC,18000,,,,,MVFR,,,,,,,,,,,,METAR,703.0
CYXT 122100Z 35004KT 320V020 1SM -RA BR BKN003 OVC010 01/00 A2996 RMK FG2SF3SC3 SLP156,CYXT,2019-01-12T21:00:00Z,54.47,-128.57,1.0,0.0,350,4,,1.0,29.958662,1015.6,,,,,,,,,-RA BR,BKN,300,OVC,1000,,,,,LIFR,,,,,,,,,,,,METAR,217.0
CYXJ 122100Z 17005KT 15SM FEW050 SCT080 BKN170 01/M01 A2992 RMK SC2AC2AC2 SLP166,CYXJ,2019-01-12T21:00:00Z,56.25,-120.73,1.0,-1.0,170,5,,15.0,29.920275,1016.6,,,,,,,,,,FEW,5000,SCT,8000,BKN,17000,,,VFR,,,,,,,,,,,,METAR,695.0
CYWL 122100Z 12009KT 15SM FEW100 OVC170 03/M02 A3000 RMK AC1AC7 SLP188,CYWL,2019-01-12T21:00:00Z,52.18,-122.07,3.0,-2.0,120,9,,15.0,30.0,1018.8,,,,,,,,,,FEW,10000,OVC,17000,,,,,VFR,,,,,,,,,,,,METAR,940.0
CYQU 122100Z 33004KT 25SM BKN079 BKN200 M02/M05 A2996 RMK AC5CI2 SLP189,CYQU,2019-01-12T21:00:00Z,55.18,-118.88,-2.0,-5.0,330,4,,25.0,29.958662,1018.9,,,,,,,,,,BKN,7900,BKN,20000,,,,,VFR,,,,,,,,,,,,METAR,669.0
CYQH 122100Z 00000KT 20SM FEW006 SCT095 OVC230 M26/M29 A2997 RMK SF1AC2CI5 SLP226,CYQH,2019-01-12T21:00:00Z,60.12,-128.82,-26.0,-29.0,0,0,,20.0,29.970472,1022.6,,,,,,,,,,FEW,600,SCT,9500,OVC,23000,,,VFR,,,,,,,,,,,,METAR,690.0
CYPW 122100Z 11006KT 20SM FEW110 BKN130 BKN270 09/05 A2998 RMK AC2AC4CI1 PRESFR SLP155,CYPW,2019-01-12T21:00:00Z,49.82,-124.5,9.0,5.0,110,6,,20.0,29.97933,1015.5,,,,,,,,,,FEW,11000,BKN,13000,BKN,27000,,,VFR,,,,,,,,,,,,METAR,130.0
CYOC 122100Z 08003KT 20SM IC MIFG SKC M39/M43 A3028 RMK IC FROIN SLP300,CYOC,2019-01-12T21:00:00Z,67.57,-139.82,-39.0,-43.0,80,3,,20.0,30.280512,1030.0,,,,,,,,,IC MIFG,SKC,,,,,,,,VFR,,,,,,,,,,,,METAR,251.0
CYMA 122100Z VRB02KT 20SM -SN OVC014 M23/M25 A3007 RMK SC8 SLP252,CYMA,2019-01-12T21:00:00Z,63.62,-135.87,-23.0,-25.0,0,2,,20.0,30.070866,1025.2,,,,,,,,,-SN,OVC,1400,,,,,,,MVFR,,,,,,,,,,,,METAR,504.0
CYLW 122100Z AUTO VRB02KT 9SM OVC009 01/01 A3020 RMK SLP249,CYLW,2019-01-12T21:00:00Z,49.95,-119.37,1.0,1.0,0,2,,9.0,30.200787,1024.9,,TRUE,,,,,,,,OVC,900,,,,,,,IFR,,,,,,,,,,,,METAR,430.0
CYYF 122100Z 15003KT 110V170 15SM SCT005 BKN010 02/M00 A3022 RMK SF3ST4 SLP251,CYYF,2019-01-12T21:00:00Z,49.47,-119.58,2.0,0.0,150,3,,15.0,30.221457,1025.1,,,,,,,,,,SCT,500,BKN,1000,,,,,MVFR,,,,,,,,,,,,METAR,344.0
CYZW 122100Z 10005KT 25SM FEW025 SCT080 OVC210 M14/M16 A2991 RMK ST1AC3CI4 SLP194,CYZW,2019-01-12T21:00:00Z,60.17,-132.75,-14.0,-16.0,100,5,,25.0,29.911417,1019.4,,,,,,,,,,FEW,2500,SCT,8000,OVC,21000,,,VFR,,,,,,,,,,,,METAR,705.0
CYZY 122100Z AUTO 14006KT 9SM FEW008 SCT080 OVC095 02/01 A2998 RMK SLP184,CYZY,2019-01-12T21:00:00Z,55.28,-123.12,2.0,1.0,140,6,,9.0,29.97933,1018.4,,TRUE,,,,,,,,FEW,800,SCT,8000,OVC,9500,,,VFR,,,,,,,,,,,,METAR,690.0
CZFA 122100Z 00000KT 30SM VCFG FEW006 SCT180 OVC200 M29/M32 A2996 RMK ST1AC3CI4 VIS N 5 SLP248,CZFA,2019-01-12T21:00:00Z,62.2,-133.37,-29.0,-32.0,0,0,,30.0,29.958662,1024.8,,,,,,,,,VCFG,FEW,600,SCT,18000,OVC,20000,,,VFR,,,,,,,,,,,,METAR,717.0
DAOL 122100Z 08006KT CAVOK 06/02 Q1028,DAOL,2019-01-12T21:00:00Z,35.53,-0.52,6.0,2.0,80,6,,6.21,30.35433,,,,,,,,,,,CAVOK,,,,,,,,VFR,,,,,,,,,,,,METAR,112.0
CZMT 122100Z 15007G15KT 060V190 8SM -SHRA BKN006 OVC010TCU 08/08 A2975 RMK ST5TCU3 SLP076,CZMT,2019-01-12T21:00:00Z,54.03,-132.13,8.0,8.0,150,7,15,8.0,29.749016,1007.6,,,,,,,,,-SHRA,BKN,600,OVC,1000,,,,,IFR,,,,,,,,,,,,METAR,8.0
CYBB 122100Z 07013KT 10SM DRSN BKN031 BKN090 M35/M39 A3017 RMK HZ2SC3AS1 HZ SLP221,CYBB,2019-01-12T21:00:00Z,68.52,-89.82,-35.0,-39.0,70,13,,10.0,30.171259,1022.1,,,,,,,,,DRSN,BKN,3100,BKN,9000,,,,,VFR,,,,,,,,,,,,METAR,15.0
CYCB 122100Z 05022KT 1/8SM +BLSN SCT006 BKN012 M30/M34 A2998 RMK BLSN3SF1SC3 SLP160,CYCB,2019-01-12T21:00:00Z,69.08,-105.12,-30.0,-34.0,50,22,,0.13,29.97933,1016.0,,,,,,,,,+BLSN,SCT,600,BKN,1200,,,,,LIFR,,,,,,,,,,,,METAR,27.0
CYCS 122100Z 14030G37KT 1/2SM -SN BLSN VV010 M16/M18 A2973 RMK BLSN8 -15.9/-32.0/0.4/39 ONE LOOSE LAST STFD OBS NXT 131500Z PRESFR SLP071,CYCS,2019-01-12T21:00:00Z,63.35,-90.72,-16.0,-18.0,140,30,37,0.5,29.731298,1007.1,,,,,,,,,-SN BLSN,OVX,0,,,,,,,LIFR,,,,,,,,,,,1000,METAR,11.0
CYCO 122100Z 26012KT 5SM -SN SCT057 OVC087 M27/M30 A3002 RMK SC3AC5 SLP170,CYCO,2019-01-12T21:00:00Z,67.82,-115.15,-27.0,-30.0,260,12,,5.0,30.02067,1017.0,,,,,,,,,-SN,SCT,5700,OVC,8700,,,,,MVFR,,,,,,,,,,,,METAR,22.0
LFOV 122100Z AUTO 29010KT 9999 FEW009 BKN013 BKN021 09/08 Q1026,LFOV,2019-01-12T21:00:00Z,48.03,-0.75,9.0,8.0,290,10,,6.21,30.295275,,,TRUE,,,,,,,,FEW,900,BKN,1300,BKN,2100,,,MVFR,,,,,,,,,,,,METAR,101.0
CYGH 122100Z 00000KT 20SM FEW030 FEW080 M33/M37 A3032 RMK SC1AC1 SC TR AC TR SLP286,CYGH,2019-01-12T21:00:00Z,66.27,-128.62,-33.0,-37.0,0,0,,20.0,30.318897,1028.6,,,,,,,,,,FEW,3000,FEW,8000,,,,,VFR,,,,,,,,,,,,METAR,66.0
CYFS 122100Z 31007KT 15SM FEW210 M28/M32 A3021 RMK CI2 SLP256,CYFS,2019-01-12T21:00:00Z,61.75,-121.22,-28.0,-32.0,310,7,,15.0,30.209646,1025.6,,,,,,,,,,FEW,21000,,,,,,,VFR,,,,,,,,,,,,METAR,169.0
CYHI 122100Z 07015KT 1 3/4SM IC -SN DRSN PRFG VCBLSN FEW015 BKN034 BKN047 BKN054 BKN063 M26/M30 A3018 RMK ST1ST4ST1ST1ST1 ST TR CIG RAG VIS S 4 SLP228,CYHI,2019-01-12T21:00:00Z,70.77,-117.78,-26.0,-30.0,70,15,,1.75,30.180119,1022.8,,,,,,,,,IC -SN DRSN PRFG,FEW,1500,BKN,3400,BKN,4700,BKN,5400,IFR,,,,,,,,,,,,METAR,36.0
CYHK 122100Z AUTO 07015KT 1 1/2SM -SN BKN030 M30/M33 A2998 RMK SLP165,CYHK,2019-01-12T21:00:00Z,68.62,-95.83,-30.0,-33.0,70,15,,1.5,29.97933,1016.5,,TRUE,,,,,,,-SN,BKN,3000,,,,,,,IFR,,,,,,,,,,,,METAR,46.0
CYHY 122100Z 30009KT 15SM BKN025 BKN210 M20/M23 A3012 RMK SC5CC2 SLP222,CYHY,2019-01-12T21:00:00Z,60.82,-115.77,-20.0,-23.0,300,9,,15.0,30.121063,1022.2,,,,,,,,,,BKN,2500,BKN,21000,,,,,MVFR,,,,,,,,,,,,METAR,166.0
CYKD 122100Z 30006KT 15SM FEW045 M30/M34 A3041 RMK SC1 SLP300,CYKD,2019-01-12T21:00:00Z,68.22,-135.0,-30.0,-34.0,300,6,,15.0,30.410433,1030.0,,,,,,,,,,FEW,4500,,,,,,,VFR,,,,,,,,,,,,METAR,7.0
CYOA 122100Z 31018G23KT 3SM -SN BLSN OVC025 M21/M23 A2973 RMK SC8,CYOA,2019-01-12T21:00:00Z,64.7,-110.62,-21.0,-23.0,310,18,23,3.0,29.731298,,,,,,,,,,-SN BLSN,OVC,2500,,,,,,,MVFR,,,,,,,,,,,,METAR,469.0
CYRA 122100Z 25004KT 210V290 15SM FEW025 M29/M33 A3009 RMK SC1 -21.7/-29.1/TR/35.0 SNW CVR/MUCH LOOSE LAST STFD OBS/NEXT 131500 UTC SLP224,CYRA,2019-01-12T21:00:00Z,64.12,-117.32,-29.0,-33.0,250,4,,15.0,30.088583,1022.4,,,,,,,,,,FEW,2500,,,,,,,VFR,,,,,,,,,,,,METAR,213.0
CYRT 122100Z 17020KT 1/2SM -SN BLSN VV010 M14/M16 A2962 RMK BLSN8 PRESFR SLP035,CYRT,2019-01-12T21:00:00Z,62.82,-92.12,-14.0,-16.0,170,20,,0.5,29.619095,1003.5,,,,,,,,,-SN BLSN,OVX,0,,,,,,,LIFR,,,,,,,,,,,1000,METAR,32.0
CYUT 122100Z 10014KT 10SM -SN DRSN FEW009 SCT017 BKN080 M27/M30 A3020 RMK ST1SC2AS3 -35.3/-38.8/TR/1 SNOW CVR LOOSE SNOW LAST STFD OBS NEXT OBS 131500Z SLP234,CYUT,2019-01-12T21:00:00Z,66.52,-86.25,-27.0,-30.0,100,14,,10.0,30.200787,1023.4,,,,,,,,,-SN DRSN,FEW,900,SCT,1700,BKN,8000,,,VFR,,,,,,,,,,,,METAR,24.0
CYVM 122100Z 00000KT 15SM SKC M36/M39 A3034 RMK SLP277,CYVM,2019-01-12T21:00:00Z,67.53,-64.02,-36.0,-39.0,0,0,,15.0,30.339567,1027.7,,,,,,,,,,SKC,,,,,,,,VFR,,,,,,,,,,,,METAR,6.0
CYWE 122100Z AUTO 29009KT 9SM CLR M24/M27 A2991 RMK SLP180,CYWE,2019-01-12T21:00:00Z,64.18,-114.08,-24.0,-27.0,290,9,,9.0,29.911417,1018.0,,TRUE,,,,,,,,CLR,,,,,,,,VFR,,,,,,,,,,,,METAR,371.0
CYBG 122100Z 32008KT 25SM SCT024 M19/M24 A3045 RMK SC3 WND ESTD SLP331,CYBG,2019-01-12T21:00:00Z,48.33,-70.98,-19.0,-24.0,320,8,,25.0,30.448818,1033.1,,,,,,,,,,SCT,2400,,,,,,,VFR,,,,,,,,,,,,METAR,159.0
CYZF 122100Z 30010G15KT 15SM -SN OVC017 M20/M23 A3004 RMK SC8 SLP200,CYZF,2019-01-12T21:00:00Z,62.47,-114.45,-20.0,-23.0,300,10,15,15.0,30.041338,1020.0,,,,,,,,,-SN,OVC,1700,,,,,,,MVFR,,,,,,,,,,,,METAR,206.0
CYZV 122100Z 28004KT 260V330 30SM FEW030 SCT075 BKN140 M07/M12 A3001 RMK CU1AC4AC2 CU TR SLP167,CYZV,2019-01-12T21:00:00Z,50.22,-66.27,-7.0,-12.0,280,4,,30.0,30.008858,1016.7,,,,,,,,,,FEW,3000,SCT,7500,BKN,14000,,,VFR,,,,,,,,,,,,METAR,55.0
CYZX 122100Z 28014G19KT 1SM -SN BLSN SCT011 OVC020 M10/M12 A3019 RMK SC4SC4 SLP227,CYZX,2019-01-12T21:00:00Z,44.98,-64.92,-10.0,-12.0,280,14,19,1.0,30.188976,1022.7,,,,,,,,,-SN BLSN,SCT,1100,OVC,2000,,,,,IFR,,,,,,,,,,,,METAR,28.0
CYAT 122100Z AUTO 25008KT 9SM CLR M22/M26 A3065 RMK SLP381,CYAT,2019-01-12T21:00:00Z,52.93,-82.43,-22.0,-26.0,250,8,,9.0,30.649607,1038.1,,TRUE,,,,,,,,CLR,,,,,,,,VFR,,,,,,,,,,,,METAR,9.0
CYBC 122100Z AUTO 27011KT 9SM OVC120 M11/M17 A3019 RMK SLP228,CYBC,2019-01-12T21:00:00Z,49.12,-68.2,-11.0,-17.0,270,11,,9.0,30.188976,1022.8,,TRUE,,,,,,,,OVC,12000,,,,,,,VFR,,,,,,,,,,,,METAR,22.0
CYBN 122100Z AUTO 02003KT 9SM CLR M08/M15 A3051 RMK SLP349,CYBN,2019-01-12T21:00:00Z,44.27,-79.92,-8.0,-15.0,20,3,,9.0,30.510826,1034.9,,TRUE,,,,,,,,CLR,,,,,,,,VFR,,,,,,,,,,,,METAR,223.0
CYCK 122100Z AUTO 08015G20KT 9SM M02/M06 A3041 RMK CLD MISG SLP308,CYCK,2019-01-12T21:00:00Z,42.3,-82.08,-2.0,-6.0,80,15,20,9.0,30.410433,1030.8,,TRUE,,,,,,,,,,,,,,,,,,,,,,,,,,,,METAR,198.0
CYGK 122100Z VRB02KT 15SM FEW030 BKN250 M08/M17 A3056 RMK CU1CI6 SLP357,CYGK,2019-01-12T21:00:00Z,44.22,-76.58,-8.0,-17.0,0,2,,15.0,30.561024,1035.7,,,,,,,,,,FEW,3000,BKN,25000,,,,,VFR,,,,,,,,,,,,METAR,93.0
CYER 122100Z AUTO 19011KT 9SM FEW095 M19/M23 A3046 RMK SLP319,CYER,2019-01-12T21:00:00Z,56.02,-87.68,-19.0,-23.0,190,11,,9.0,30.46063,1031.9,,TRUE,,,,,,,,FEW,9500,,,,,,,VFR,,,,,,,,,,,,METAR,16.0
CYKP 122100Z AUTO VRB02KT 9SM OVC110 M18/M22 A3061 RMK ICG INTMT SLP402,CYKP,2019-01-12T21:00:00Z,51.67,-85.9,-18.0,-22.0,0,2,,9.0,30.611221,1040.2,,TRUE,,,,,,,,OVC,11000,,,,,,,VFR,,,,,,,,,,,,METAR,179.0
CYKL 122100Z AUTO 33013G20KT 5SM -SN OVC010 M16/M18 A3000 RMK SLP212,CYKL,2019-01-12T21:00:00Z,54.78,-66.82,-16.0,-18.0,330,13,20,5.0,30.0,1021.2,,TRUE,,,,,,,-SN,OVC,1000,,,,,,,MVFR,,,,,,,,,,,,METAR,521.0
CYKF 122100Z AUTO 09007KT 9SM OVC065 M05/M10 A3045 RMK SLP334,CYKF,2019-01-12T21:00:00Z,43.47,-80.38,-5.0,-10.0,90,7,,9.0,30.448818,1033.4,,TRUE,,,,,,,,OVC,6500,,,,,,,VFR,,,,,,,,,,,,METAR,317.0
CYHM 122100Z 07012KT 15SM -SN BKN017 OVC023 M05/M08 A3047 RMK SC7SC1 PCPN VRY LGT SLP334,CYHM,2019-01-12T21:00:00Z,43.17,-79.93,-5.0,-8.0,70,12,,15.0,30.469488,1033.4,,,,,,,,,-SN,BKN,1700,OVC,2300,,,,,MVFR,,,,,,,,,,,,METAR,238.0
CYGQ 122100Z 17003KT 120V210 15SM FEW250 M15/M26 A3056 RMK CI2 SLP393,CYGQ,2019-01-12T21:00:00Z,49.77,-86.92,-15.0,-26.0,170,3,,15.0,30.561024,1039.3,,,,,,,,,,FEW,25000,,,,,,,VFR,,,,,,,,,,,,METAR,351.0
CYLD 122100Z 00000KT 15SM FEW270 M15/M20 A3051 RMK CI1 CI TR SLP390,CYLD,2019-01-12T21:00:00Z,47.82,-83.33,-15.0,-20.0,0,0,,15.0,30.510826,1039.0,,,,,,,,,,FEW,27000,,,,,,,VFR,,,,,,,,,,,,METAR,447.0
CYLH 122100Z AUTO 05004KT 9SM BKN110 M19/M22 A3054 RMK SLP382,CYLH,2019-01-12T21:00:00Z,52.2,-87.93,-19.0,-22.0,50,4,,9.0,30.540354,1038.2,,TRUE,,,,,,,,BKN,11000,,,,,,,VFR,,,,,,,,,,,,METAR,254.0
CYOO 122100Z AUTO 02005KT 9SM BKN210 OVC230 M06/M14 A3052 RMK SLP347,CYOO,2019-01-12T21:00:00Z,43.92,-78.9,-6.0,-14.0,20,5,,9.0,30.519686,1034.7,,TRUE,,,,,,,,BKN,21000,OVC,23000,,,,,VFR,,,,,,,,,,,,METAR,139.0
CYPL 122100Z 17006KT 15SM FEW100 FEW240 M13/M20 A3048 RMK AC1CI1 SLP369,CYPL,2019-01-12T21:00:00Z,51.47,-90.2,-13.0,-20.0,170,6,,15.0,30.481298,1036.9,,,,,,,,,,FEW,10000,FEW,24000,,,,,VFR,,,,,,,,,,,,METAR,373.0
CYPO 122100Z AUTO 21006KT 9SM CLR M22/M25 A3057 RMK SLP363,CYPO,2019-01-12T21:00:00Z,54.98,-85.43,-22.0,-25.0,210,6,,9.0,30.569881,1036.3,,TRUE,,,,,,,,CLR,,,,,,,,VFR,,,,,,,,,,,,METAR,53.0
CYQA 122100Z AUTO 29004KT 9SM CLR M10/M19 A3050 RMK ICG SLP355,CYQA,2019-01-12T21:00:00Z,44.97,-79.28,-10.0,-19.0,290,4,,9.0,30.499016,1035.5,,TRUE,,,,,,,,CLR,,,,,,,,VFR,,,,,,,,,,,,METAR,282.0
CYBQ 122100Z AUTO 23010G18KT 9SM -SN FEW020 OVC039 M10/M13 A2978 RMK SLP113,CYBQ,2019-01-12T21:00:00Z,58.7,-98.5,-10.0,-13.0,230,10,18,9.0,29.778543,1011.3,,TRUE,,,,,,,-SN,FEW,2000,OVC,3900,,,,,VFR,,,,,,,,,,,,METAR,262.0
CYYU 122100Z 09003KT 15SM FEW250 M20/M23 A3061 RMK CI1 CI TR SLP399,CYYU,2019-01-12T21:00:00Z,49.42,-82.47,-20.0,-23.0,90,3,,15.0,30.611221,1039.9,,,,,,,,,,FEW,25000,,,,,,,VFR,,,,,,,,,,,,METAR,227.0
CYYH 122100Z 05021KT 3/4SM IC BR DRSN FEW025 SCT080 BKN140 BKN210 M33/M38 A3012 RMK FG1SC1AC1AC2CI1 FROIN VIS ABV GRN GRTR SLP209,CYYH,2019-01-12T21:00:00Z,69.53,-93.57,-33.0,-38.0,50,21,,0.75,30.121063,1020.9,,,,,,,,,IC BR DRSN,FEW,2500,SCT,8000,BKN,14000,BKN,21000,LIFR,,,,,,,,,,,,METAR,28.0
CYYB 122100Z 24003KT 210V280 30SM FEW240 M17/M22 A3051 RMK CI1 SLP373,CYYB,2019-01-12T21:00:00Z,46.35,-79.42,-17.0,-22.0,240,3,,30.0,30.510826,1037.3,,,,,,,,,,FEW,24000,,,,,,,VFR,,,,,,,,,,,,METAR,371.0
CYXZ 122100Z 04006KT 15SM FEW250 M11/M19 A3056 RMK CI1 CI TR SLP380,CYXZ,2019-01-12T21:00:00Z,47.97,-84.77,-11.0,-19.0,40,6,,15.0,30.561024,1038.0,,,,,,,,,,FEW,25000,,,,,,,VFR,,,,,,,,,,,,METAR,287.0
CYXU 122100Z 07009KT 12SM FEW018 OVC084 M05/M09 A3043 RMK SC2AC6 SLP324,CYXU,2019-01-12T21:00:00Z,43.02,-81.15,-5.0,-9.0,70,9,,12.0,30.431103,1032.4,,,,,,,,,,FEW,1800,OVC,8400,,,,,VFR,,,,,,,,,,,,METAR,278.0
CYXL 122100Z 12003KT 070V170 15SM OVC025 M09/M13 A3046 RMK SC8 SLP356,CYXL,2019-01-12T21:00:00Z,50.12,-91.9,-9.0,-13.0,120,3,,15.0,30.46063,1035.6,,,,,,,,,,OVC,2500,,,,,,,MVFR,,,,,,,,,,,,METAR,390.0
CYVQ 122100Z 12003KT 30SM FEW100 M35/M38 A3037 RMK AC1 AC TR SLP299,CYVQ,2019-01-12T21:00:00Z,65.27,-126.78,-35.0,-38.0,120,3,,30.0,30.369095,1029.9,,,,,,,,,,FEW,10000,,,,,,,VFR,,,,,,,,,,,,METAR,74.0
CYVO 122100Z 35006KT 10SM -SN OVC011 M19/M20 A3054 RMK SC8 SLP386,CYVO,2019-01-12T21:00:00Z,48.07,-77.77,-19.0,-20.0,350,6,,10.0,30.540354,1038.6,,,,,,,,,-SN,OVC,1100,,,,,,,MVFR,,,,,,,,,,,,METAR,337.0
CYSP 122100Z 05004KT 010V070 15SM SKC M13/M19 A3056 RMK SLP382,CYSP,2019-01-12T21:00:00Z,48.75,-86.35,-13.0,-19.0,50,4,,15.0,30.561024,1038.2,,,,,,,,,,SKC,,,,,,,,VFR,,,,,,,,,,,,METAR,315.0
CYSN 122100Z 07009KT 15SM SCT025 OVC078 M04/M10 A3051 RMK SC4AC4 SLP339,CYSN,2019-01-12T21:00:00Z,43.2,-79.17,-4.0,-10.0,70,9,,15.0,30.510826,1033.9,,,,,,,,,,SCT,2500,OVC,7800,,,,,VFR,,,,,,,,,,,,METAR,98.0
CYSC 122100Z AUTO 29010KT 9SM FEW250 M16/M20 A3045 RMK SLP336,CYSC,2019-01-12T21:00:00Z,45.43,-71.68,-16.0,-20.0,290,10,,9.0,30.448818,1033.6,,TRUE,,,,,,,,FEW,25000,,,,,,,VFR,,,,,,,,,,,,METAR,241.0
CYRQ 122100Z AUTO 25005KT 9SM CLR M14/M20 A3050 RMK SLP337,CYRQ,2019-01-12T21:00:00Z,46.35,-72.68,-14.0,-20.0,250,5,,9.0,30.499016,1033.7,,TRUE,,,,,,,,CLR,,,,,,,,VFR,,,,,,,,,,,,METAR,61.0
CYRB 122100Z 14002KT 12SM IC FEW067 M35/M39 A3030 RMK AS1 AS TR WND ESTD SLP276,CYRB,2019-01-12T21:00:00Z,74.72,-94.97,-35.0,-39.0,140,2,,12.0,30.301182,1027.6,,,,,,,,,IC,FEW,6700,,,,,,,VFR,,,,,,,,,,,,METAR,67.0
CYQK 122100Z 16006KT 20SM OVC021 M07/M09 A3041 RMK SC8 SLP331,CYQK,2019-01-12T21:00:00Z,49.77,-94.37,-7.0,-9.0,160,6,,20.0,30.410433,1033.1,,,,,,,,,,OVC,2100,,,,,,,MVFR,,,,,,,,,,,,METAR,411.0
CYCQ 122100Z 25004KT 15SM BKN025 BKN100 OVC210 03/00 A2993 RMK SC6AC1CI1 DIST PCPN MTS W SLP172,CYCQ,2019-01-12T21:00:00Z,55.7,-121.62,3.0,0.0,250,4,,15.0,29.929134,1017.2,,,,,,,,,,BKN,2500,BKN,10000,OVC,21000,,,MVFR,,,,,,,,,,,,METAR,609.0
CYCP 122100Z 00000KT 3/4SM BR OVC003 M01/M01 A3017 RMK FG7ST1 SUN DIMLY VSB SLP250,CYCP,2019-01-12T21:00:00Z,52.13,-119.28,-1.0,-1.0,0,0,,0.75,30.171259,1025.0,,,,,,,,,BR,OVC,300,,,,,,,LIFR,,,,,,,,,,,,METAR,683.0
CYBL 122100Z 07004KT 040V120 5SM BR BKN005 OVC015 07/07 A2997 RMK SF7SC1 CIG VRB 4-7 SLP155,CYBL,2019-01-12T21:00:00Z,49.95,-125.27,7.0,7.0,70,4,,5.0,29.970472,1015.5,,,,,,,,,BR,BKN,500,OVC,1500,,,,,IFR,,,,,,,,,,,,METAR,106.0
CYAZ 122100Z 10008KT 15SM -RA BKN030 OVC055 10/07 A2990 RMK SC5SC3 SLP128,CYAZ,2019-01-12T21:00:00Z,49.08,-125.77,10.0,7.0,100,8,,15.0,29.899607,1012.8,,,,,,,,,-RA,BKN,3000,OVC,5500,,,,,MVFR,,,,,,,,,,,,METAR,24.0
CYZU 122100Z 28002KT 15SM FEW140 M03/M05 A2995 RMK AC1 SLP191,CYZU,2019-01-12T21:00:00Z,54.15,-115.78,-3.0,-5.0,280,2,,15.0,29.949802,1019.1,,,,,,,,,,FEW,14000,,,,,,,VFR,,,,,,,,,,,,METAR,785.0
CYXH 122100Z 22012KT 30SM BKN270 08/M09 A2999 RMK CI7 SLP180,CYXH,2019-01-12T21:00:00Z,50.02,-110.72,8.0,-9.0,220,12,,30.0,29.991142,1018.0,,,,,,,,,,BKN,27000,,,,,,,VFR,,,,,,,,,,,,METAR,716.0
CYVT 122100Z 20004KT 190V250 15SM FEW120 FEW160 BKN250 M05/M09 A2991 RMK AC1AC1CI4 AC TR SLP164,CYVT,2019-01-12T21:00:00Z,55.82,-108.42,-5.0,-9.0,200,4,,15.0,29.911417,1016.4,,,,,,,,,,FEW,12000,FEW,16000,BKN,25000,,,VFR,,,,,,,,,,,,METAR,434.0
CYUX 122100Z 03004KT 10SM FEW002 M34/M38 A3031 RMK SF1 SF TR BR OVR BASIN SLP269,CYUX,2019-01-12T21:00:00Z,68.77,-81.25,-34.0,-38.0,30,4,,10.0,30.31004,1026.9,,,,,,,,,,FEW,200,,,,,,,VFR,,,,,,,,,,,,METAR,8.0
CYUB 122100Z 30007KT 15SM FEW050 SCT070 M28/M31 A3031 RMK SC2AC2 SLP267,CYUB,2019-01-12T21:00:00Z,69.45,-133.02,-28.0,-31.0,300,7,,15.0,30.31004,1026.7,,,,,,,,,,FEW,5000,SCT,7000,,,,,VFR,,,,,,,,,,,,METAR,5.0
CYTH 122100Z 20010G17KT 15SM FEW013 BKN090 OVC210 M11/M14 A3005 RMK SF1AC6CI1 SLP204,CYTH,2019-01-12T21:00:00Z,55.78,-97.87,-11.0,-14.0,200,10,17,15.0,30.050198,1020.4,,,,,,,,,,FEW,1300,BKN,9000,OVC,21000,,,VFR,,,,,,,,,,,,METAR,218.0
CYSM 122100Z 30010KT 15SM -SN DRSN OVC011 M15/M18 A3003 RMK SC8 SLP191,CYSM,2019-01-12T21:00:00Z,60.03,-111.97,-15.0,-18.0,300,10,,15.0,30.029528,1019.1,,,,,,,,,-SN DRSN,OVC,1100,,,,,,,MVFR,,,,,,,,,,,,METAR,203.0
CYSF 122100Z AUTO 27012G19KT 9SM OVC009 M06/M07 A2984 RMK SLP128,CYSF,2019-01-12T21:00:00Z,59.25,-105.82,-6.0,-7.0,270,12,19,9.0,29.840551,1012.8,,TRUE,,,,,,,,OVC,900,,,,,,,IFR,,,,,,,,,,,,METAR,250.0
CYQV 122100Z AUTO 18011G17KT 9SM FEW150 M08/M12 A3015 RMK SLP253,CYQV,2019-01-12T21:00:00Z,51.27,-102.47,-8.0,-12.0,180,11,17,9.0,30.15059,1025.3,,TRUE,,,,,,,,FEW,15000,,,,,,,VFR,,,,,,,,,,,,METAR,498.0
CYPE 122100Z 24003KT 15SM BKN070 M02/M05 A2994 RMK AC7 SLP177,CYPE,2019-01-12T21:00:00Z,56.22,-117.45,-2.0,-5.0,240,3,,15.0,29.940945,1017.7,,,,,,,,,,BKN,7000,,,,,,,VFR,,,,,,,,,,,,METAR,571.0
CYOD 122100Z 25004KT 15SM FEW250 M09/M12 A2999 RMK CI2 SLP199,CYOD,2019-01-12T21:00:00Z,54.4,-110.28,-9.0,-12.0,250,4,,15.0,29.991142,1019.9,,,,,,,,,,FEW,25000,,,,,,,VFR,,,,,,,,,,,,METAR,544.0
CYLJ 122100Z 29006KT 15SM FEW170 FEW230 M08/M12 A2997 RMK AC1CI1 AC TR CONTRAILS SLP191,CYLJ,2019-01-12T21:00:00Z,54.12,-108.52,-8.0,-12.0,290,6,,15.0,29.970472,1019.1,,,,,,,,,,FEW,17000,FEW,23000,,,,,VFR,,,,,,,,,,,,METAR,480.0
CYIO 122100Z 18008KT 15SM FEW250 M38/M41 A3030 RMK CI1 CI TR SLP277,CYIO,2019-01-12T21:00:00Z,72.67,-77.97,-38.0,-41.0,180,8,,15.0,30.301182,1027.7,,,,,,,,,,FEW,25000,,,,,,,VFR,,,,,,,,,,,,METAR,57.0
CYEK 122100Z 21020G25KT 3/4SM -SN BLSN OVC017 M11/M12 A2965 RMK BLSN4NS4 -11.1/-13.4/1.8MM/LST STFD OBS/NXT 131500Z SLP044,CYEK,2019-01-12T21:00:00Z,61.1,-94.07,-11.0,-12.0,210,20,25,0.75,29.648623,1004.4,,,,,,,,,-SN BLSN,OVC,1700,,,,,,,LIFR,,,,,,,,,,,,METAR,10.0
CYED 122100Z AUTO 22003KT 9SM CLR M02/M06 A2996 RMK SLP184,CYED,2019-01-12T21:00:00Z,53.67,-113.47,-2.0,-6.0,220,3,,9.0,29.958662,1018.4,,TRUE,,,,,,,,CLR,,,,,,,,VFR,,,,,,,,,,,,METAR,688.0
CYCY 122100Z 25007KT 10SM FEW027 FEW070 M35/M39 A3031 RMK SC1AC1 SC TR AC TR SLP271,CYCY,2019-01-12T21:00:00Z,70.47,-68.52,-35.0,-39.0,250,7,,10.0,30.31004,1027.1,,,,,,,,,,FEW,2700,FEW,7000,,,,,VFR,,,,,,,,,,,,METAR,26.0
CYBW 122100Z AUTO 32007KT 9SM OVC210 04/M08 A2997 RMK SLP192,CYBW,2019-01-12T21:00:00Z,51.1,-114.37,4.0,-8.0,320,7,,9.0,29.970472,1019.2,,TRUE,,,,,,,,OVC,21000,,,,,,,VFR,,,,,,,,,,,,METAR,1200.0
CWRF 122100Z AUTO 11018G23KT M31/ A2994 RMK SLP200,CWRF,2019-01-12T21:00:00Z,69.42,-89.72,-31.0,,110,18,23,,29.940945,1020.0,,TRUE,,,,,,,,,,,,,,,,,,,,,,,,,,,,METAR,325.0
FGBT 122100Z 00000KT 9999 FEW010 27/26 Q1011,FGBT,2019-01-12T21:00:00Z,1.88,9.8,27.0,26.0,0,0,,6.21,29.852362,,,,,,,,,,,FEW,1000,,,,,,,VFR,,,,,,,,,,,,METAR,8.0
FGSL 122100Z 20005KT 8000 FEW010 25/22 Q1011 NOSIG,FGSL,2019-01-12T21:00:00Z,3.75,8.72,25.0,22.0,200,5,,4.97,29.852362,,,,,,TRUE,,,,,FEW,1000,,,,,,,MVFR,,,,,,,,,,,,METAR,56.0
CZSJ 122100Z AUTO 18007KT 150V220 9SM -SN OVC012 M11/M13 A3037 RMK SLP320,CZSJ,2019-01-12T21:00:00Z,53.07,-93.35,-11.0,-13.0,180,7,,9.0,30.369095,1032.0,,TRUE,,,,,,,-SN,OVC,1200,,,,,,,MVFR,,,,,,,,,,,,METAR,290.0
CZMD 122100Z AUTO 20010G15KT 9SM FEW120 M12/M15 A3039 RMK SLP327,CZMD,2019-01-12T21:00:00Z,53.43,-91.77,-12.0,-15.0,200,10,15,9.0,30.389763,1032.7,,TRUE,,,,,,,,FEW,12000,,,,,,,VFR,,,,,,,,,,,,METAR,278.0
CYYW 122100Z AUTO 14003KT 9SM CLR M15/M22 A3056 RMK SLP407,CYYW,2019-01-12T21:00:00Z,50.3,-88.9,-15.0,-22.0,140,3,,9.0,30.561024,1040.7,,TRUE,,,,,,,,CLR,,,,,,,,VFR,,,,,,,,,,,,METAR,351.0
CYHE 122100Z AUTO 12011G19KT 9SM CLR 07/01 A3008 RMK SLP188,CYHE,2019-01-12T21:00:00Z,49.37,-121.5,7.0,1.0,120,11,19,9.0,30.079725,1018.8,,TRUE,,,,,,,,CLR,,,,,,,,VFR,,,,,,,,,,,,METAR,39.0
CYFO 122100Z 18010KT 15SM BKN090 M11/M13 A3003 RMK AC7 SLP199,CYFO,2019-01-12T21:00:00Z,54.67,-101.67,-11.0,-13.0,180,10,,15.0,30.029528,1019.9,,,,,,,,,,BKN,9000,,,,,,,VFR,,,,,,,,,,,,METAR,304.0
CYEV 122100Z 27005KT 230V300 10SM IC FEW100 FEW220 M32/M36 A3035 RMK AC1CI1 SLP290,CYEV,2019-01-12T21:00:00Z,68.32,-133.5,-32.0,-36.0,270,5,,10.0,30.351377,1029.0,,,,,,,,,IC,FEW,10000,FEW,22000,,,,,VFR,,,,,,,,,,,,METAR,68.0
CYDQ 122100Z AUTO 00000KT 9SM FEW240 01/M01 A2993 RMK SLP162,CYDQ,2019-01-12T21:00:00Z,55.75,-120.17,1.0,-1.0,0,0,,9.0,29.929134,1016.2,,TRUE,,,,,,,,FEW,24000,,,,,,,VFR,,,,,,,,,,,,METAR,655.0
CYDC 122100Z 00000KT 20SM SCT012 BKN018 BKN200 00/M03 A3013 RMK ST3SC3CI1 SLP232,CYDC,2019-01-12T21:00:00Z,49.47,-120.52,0.0,-3.0,0,0,,20.0,30.129921,1023.2,,,,,,,,,,SCT,1200,BKN,1800,BKN,20000,,,MVFR,,,,,,,,,,,,METAR,700.0
CYDB 122100Z 00000KT 30SM IC FEW140 SCT180 BKN220 M32/M35 A2986 RMK AC1AC2CI2 SLP235,CYDB,2019-01-12T21:00:00Z,61.37,-139.05,-32.0,-35.0,0,0,,30.0,29.861221,1023.5,,,,,,,,,IC,FEW,14000,SCT,18000,BKN,22000,,,VFR,,,,,,,,,,,,METAR,801.0
CYPR 122100Z AUTO 04005KT 8SM -RA OVC039 06/06 A2982 RMK SLP102,CYPR,2019-01-12T21:00:00Z,54.28,-130.42,6.0,6.0,40,5,,8.0,29.819881,1010.2,,TRUE,,,,,,,-RA,OVC,3900,,,,,,,VFR,,,,,,,,,,,,METAR,34.0
CYIV 122100Z 19009KT 160V220 15SM -SN OVC022 M11/M13 A3030 RMK SC8 CIG ESTD SLP288,CYIV,2019-01-12T21:00:00Z,53.85,-94.65,-11.0,-13.0,190,9,,15.0,30.301182,1028.8,,,,,,,,,-SN,OVC,2200,,,,,,,MVFR,,,,,,,,,,,,METAR,237.0
CYXQ 122100Z 00000KT 30SM FEW060 BKN130 OVC180 M36/M40 A2994 RMK SC1AC4AC3 SLP253,CYXQ,2019-01-12T21:00:00Z,62.42,-140.87,-36.0,-40.0,0,0,,30.0,29.940945,1025.3,,,,,,,,,,FEW,6000,BKN,13000,OVC,18000,,,VFR,,,,,,,,,,,,METAR,649.0
CYXE 122100Z 24006KT 15SM FEW260 M05/M09 A3002 RMK CI2 SLP207,CYXE,2019-01-12T21:00:00Z,52.17,-106.7,-5.0,-9.0,240,6,,15.0,30.02067,1020.7,,,,,,,,,,FEW,26000,,,,,,,VFR,,,,,,,,,,,,METAR,504.0
CYXC 122100Z VRB02KT 10SM -SN SCT008 OVC019 M01/M03 A3026 RMK SF3SC5 PCPN VRY LGT SLP285,CYXC,2019-01-12T21:00:00Z,49.6,-115.77,-1.0,-3.0,0,2,,10.0,30.259842,1028.5,,,,,,,,,-SN,SCT,800,OVC,1900,,,,,MVFR,,,,,,,,,,,,METAR,939.0
CYVL 122100Z AUTO 21013KT 1 3/4SM HZ OVC005 M37/M41 A3012 RMK PRESRR SLP252,CYVL,2019-01-12T21:00:00Z,67.02,-126.13,-37.0,-41.0,210,13,,1.75,30.121063,1025.2,,TRUE,,,,,,,HZ,OVC,500,,,,,,,IFR,,,,,,,,,,,,METAR,259.0
CYRV 122100Z AUTO 32004KT 9SM SCT017 BKN033 M03/M05 A3029 RMK SLP281,CYRV,2019-01-12T21:00:00Z,50.97,-118.17,-3.0,-5.0,320,4,,9.0,30.28937,1028.1,,TRUE,,,,,,,,SCT,1700,BKN,3300,,,,,VFR,,,,,,,,,,,,METAR,443.0
CYQZ 122100Z AUTO 22004KT 9SM BKN095 04/M00 A3001 RMK SLP186,CYQZ,2019-01-12T21:00:00Z,53.02,-122.52,4.0,0.0,220,4,,9.0,30.008858,1018.6,,TRUE,,,,,,,,BKN,9500,,,,,,,VFR,,,,,,,,,,,,METAR,545.0
CYQD 122100Z AUTO 17009G16KT 9SM OVC120 M09/M12 A3008 RMK SLP214,CYQD,2019-01-12T21:00:00Z,53.97,-101.08,-9.0,-12.0,170,9,16,9.0,30.079725,1021.4,,TRUE,,,,,,,,OVC,12000,,,,,,,VFR,,,,,,,,,,,,METAR,271.0
CYNM 122100Z AUTO 30005KT 6SM -SN OVC032 M18/M20 A3054 RMK SLP377,CYNM,2019-01-12T21:00:00Z,49.77,-77.82,-18.0,-20.0,300,5,,6.0,30.540354,1037.7,,TRUE,,,,,,,-SN,OVC,3200,,,,,,,VFR,,,,,,,,,,,,METAR,281.0
CYMU 122100Z 16008KT 14SM -SN FEW003 BKN014 BKN097 M16/M18 A3041 RMK SF1ST5AS1 SLP309,CYMU,2019-01-12T21:00:00Z,56.52,-76.52,-16.0,-18.0,160,8,,14.0,30.410433,1030.9,,,,,,,,,-SN,FEW,300,BKN,1400,BKN,9700,,,MVFR,,,,,,,,,,,,METAR,71.0
CYMT 122100Z AUTO 31007KT 9SM -SN OVC030 M17/M21 A3040 RMK SLP342,CYMT,2019-01-12T21:00:00Z,49.77,-74.52,-17.0,-21.0,310,7,,9.0,30.398623,1034.2,,TRUE,,,,,,,-SN,OVC,3000,,,,,,,MVFR,,,,,,,,,,,,METAR,387.0
CYMH 122100Z AUTO 22005KT 9SM CLR M06/M09 A2984 RMK SLP108,CYMH,2019-01-12T21:00:00Z,52.28,-55.85,-6.0,-9.0,220,5,,9.0,29.840551,1010.8,,TRUE,,,,,,,,CLR,,,,,,,,VFR,,,,,,,,,,,,METAR,11.0
CYLA 122100Z 32005KT 15SM FEW024 M22/M26 A3030 RMK SC1 SC TR SLP267,CYLA,2019-01-12T21:00:00Z,59.28,-69.58,-22.0,-26.0,320,5,,15.0,30.301182,1026.7,,,,,,,,,,FEW,2400,,,,,,,VFR,,,,,,,,,,,,METAR,35.0
CYKG 122100Z 35018G25KT 15SM DRSN FEW240 M21/M28 A3026 RMK CI1 CI TR SLP270,CYKG,2019-01-12T21:00:00Z,61.57,-71.92,-21.0,-28.0,350,18,25,15.0,30.259842,1027.0,,,,,,,,,DRSN,FEW,24000,,,,,,,VFR,,,,,,,,,,,,METAR,151.0
CYIK 122100Z 14010KT 3/4SM BR OVC002 M24/M27 A3042 RMK ST8 SLP309,CYIK,2019-01-12T21:00:00Z,62.42,-77.93,-24.0,-27.0,140,10,,0.75,30.41929,1030.9,,,,,,,,,BR,OVC,200,,,,,,,LIFR,,,,,,,,,,,,METAR,42.0
CYHA 122100Z 31019G25KT 10SM DRSN FEW012 FEW081 FEW210 M20/M24 A3028 RMK SC1AS1CI1 SC TR CI TR SLP260,CYHA,2019-01-12T21:00:00Z,61.03,-69.62,-20.0,-24.0,310,19,25,10.0,30.280512,1026.0,,,,,,,,,DRSN,FEW,1200,FEW,8100,FEW,21000,,,VFR,,,,,,,,,,,,METAR,30.0
CYGV 122100Z AUTO 30006KT 9SM OVC065 M05/M07 A2988 RMK SLP123,CYGV,2019-01-12T21:00:00Z,50.27,-63.62,-5.0,-7.0,300,6,,9.0,29.878937,1012.3,,TRUE,,,,,,,,OVC,6500,,,,,,,VFR,,,,,,,,,,,,METAR,33.0
CYBX 122100Z 22020KT 15SM -SHSN BKN015 OVC040 M04/M07 A2985 RMK SC5SC3 CVCTV CLD EMBD SLP111,CYBX,2019-01-12T21:00:00Z,51.45,-57.17,-4.0,-7.0,220,20,,15.0,29.84941,1011.1,,,,,,,,,-SHSN,BKN,1500,OVC,4000,,,,,MVFR,,,,,,,,,,,,METAR,35.0
CYAS 122100Z 35004KT 15SM FEW140 M23/M26 A3026 RMK AS1 SLP266,CYAS,2019-01-12T21:00:00Z,60.02,-70.0,-23.0,-26.0,350,4,,15.0,30.259842,1026.6,,,,,,,,,,FEW,14000,,,,,,,VFR,,,,,,,,,,,,METAR,117.0
CYAH 122100Z AUTO 28008KT 9SM -SN OVC020 M16/M18 A3034 RMK SLP309,CYAH,2019-01-12T21:00:00Z,53.75,-73.67,-16.0,-18.0,280,8,,9.0,30.339567,1030.9,,TRUE,,,,,,,-SN,OVC,2000,,,,,,,MVFR,,,,,,,,,,,,METAR,306.0
CZST 122100Z VRB02KT 15SM FEW005 OVC140 01/00 A2997 RMK SC1AC7 SLP150,CZST,2019-01-12T21:00:00Z,55.93,-129.98,1.0,0.0,0,2,,15.0,29.970472,1015.0,,,,,,,,,,FEW,500,OVC,14000,,,,,VFR,,,,,,,,,,,,METAR,7.0
CZCP 122100Z AUTO 05014G23KT ////SM //// FEW028 OVC037 M26/M30 A3017,CZCP,2019-01-12T21:00:00Z,70.17,-124.72,-26.0,-30.0,50,14,23,,30.171259,,,TRUE,,,,,,,,FEW,2800,OVC,3700,,,,,,,,,,,,,,,,,METAR,93.0
CZBF 122100Z AUTO 28008G17KT 260V330 9SM SCT065 SCT091 M13/M18 A3011 RMK SLP203,CZBF,2019-01-12T21:00:00Z,47.62,-65.75,-13.0,-18.0,280,8,17,9.0,30.109253,1020.3,,TRUE,,,,,,,,SCT,6500,SCT,9100,,,,,VFR,,,,,,,,,,,,METAR,59.0
CWZZ 122100Z AUTO ///// ////SM BKN003 OVC017 M19/M21 A2978,CWZZ,2019-01-12T21:00:00Z,58.32,-62.57,-19.0,-21.0,,,,,29.778543,,,TRUE,,,,,,,,BKN,300,OVC,1700,,,,,,,,,,,,,,,,,METAR,483.0
CWUW 122100Z AUTO 31009KT ////SM NCD M29/M32 A3003,CWUW,2019-01-12T21:00:00Z,68.65,-71.17,-29.0,-32.0,310,9,,,30.029528,,,TRUE,,,,,,,,CLR,,,,,,,,,,,,,,,,,,,,METAR,527.0
CWSW 122100Z 00000KT 15SM FEW010 SCT020 BKN240 M00/M04 A3029 RMK SC1SC3CS4 SC TR SLP307,CWSW,2019-01-12T21:00:00Z,49.75,-114.87,0.0,-4.0,0,0,,15.0,30.28937,1030.7,,,,,,,,,,FEW,1000,SCT,2000,BKN,24000,,,VFR,,,,,,,,,,,,METAR,1138.0
CWRX 122100Z AUTO 10005KT ////SM //// NCD M31/M34 A3035,CWRX,2019-01-12T21:00:00Z,69.07,-79.02,-31.0,-34.0,100,5,,,30.351377,,,TRUE,,,,,,,,CLR,,,,,,,,,,,,,,,,,,,,METAR,41.0
CWPX 122100Z AUTO 06023G29KT ////SM //// OVC003 M31/M35 A2988,CWPX,2019-01-12T21:00:00Z,69.02,-107.82,-31.0,-35.0,60,23,29,,29.878937,,,TRUE,,,,,,,,OVC,300,,,,,,,,,,,,,,,,,,,METAR,165.0
CWLY 122100Z AUTO 00000KT 9SM CLR 03/00 A3013 RMK SLP213,CWLY,2019-01-12T21:00:00Z,50.22,-121.58,3.0,0.0,0,0,,9.0,30.129921,1021.3,,TRUE,,,,,,,,CLR,,,,,,,,VFR,,,,,,,,,,,,METAR,229.0
CWIL 122100Z AUTO 08020KT ////SM OVC003 ///// A////,CWIL,2019-01-12T21:00:00Z,68.32,-100.07,,,80,20,,,,,,TRUE,,,,,,,,OVC,300,,,,,,,,,,,,,,,,,,,METAR,36.0
CYOY 122100Z AUTO 29006KT 9SM M15/M22 A3041 RMK SLP315,CYOY,2019-01-12T21:00:00Z,46.88,-71.5,-15.0,-22.0,290,6,,9.0,30.410433,1031.5,,TRUE,,,,,,,,,,,,,,,,,,,,,,,,,,,,METAR,168.0
CYPH 122100Z AUTO 35009KT 9SM CLR M25/M28 A3045 RMK SLP317,CYPH,2019-01-12T21:00:00Z,58.45,-78.08,-25.0,-28.0,350,9,,9.0,30.448818,1031.7,,TRUE,,,,,,,,CLR,,,,,,,,VFR,,,,,,,,,,,,METAR,3.0
CYPX 122100Z AUTO 03002KT 9SM CLR M27/M30 A3045 RMK SLP315,CYPX,2019-01-12T21:00:00Z,60.03,-77.27,-27.0,-30.0,30,2,,9.0,30.448818,1031.5,,TRUE,,,,,,,,CLR,,,,,,,,VFR,,,,,,,,,,,,METAR,23.0
CYQI 122100Z 31012G19KT 1 3/4SM -SN DRSN OVC017 M08/M12 A3024 RMK SN3SC5 /S01/ SLP245,CYQI,2019-01-12T21:00:00Z,43.83,-66.08,-8.0,-12.0,310,12,19,1.75,30.239174,1024.5,,,,,,,,,-SN DRSN,OVC,1700,,,,,,,IFR,,,,,,,,,,,,METAR,43.0
CYZT 122100Z 10011G18KT 20SM BKN056 OVC082 09/05 A2984 RMK SC6AC2 SLP107,CYZT,2019-01-12T21:00:00Z,50.67,-127.37,9.0,5.0,100,11,18,20.0,29.840551,1010.7,,,,,,,,,,BKN,5600,OVC,8200,,,,,VFR,,,,,,,,,,,,METAR,22.0
CYXS 122100Z AUTO 04002KT 9SM BKN080 OVC098 02/00 A2999 RMK SLP184,CYXS,2019-01-12T21:00:00Z,53.9,-122.68,2.0,0.0,40,2,,9.0,29.991142,1018.4,,TRUE,,,,,,,,BKN,8000,OVC,9800,,,,,VFR,,,,,,,,,,,,METAR,691.0
CYZG 122100Z 32002KT 3SM -SN BR OVC005 M23/M26 A3033 RMK ST8 SLP305,CYZG,2019-01-12T21:00:00Z,62.17,-75.67,-23.0,-26.0,320,2,,3.0,30.33071,1030.5,,,,,,,,,-SN BR,OVC,500,,,,,,,IFR,,,,,,,,,,,,METAR,226.0
CYAM 122100Z 09002KT 20SM FEW260 SCT280 M10/M19 A3056 RMK CI2CC1 CONTRAILS SLP370,CYAM,2019-01-12T21:00:00Z,46.47,-84.52,-10.0,-19.0,90,2,,20.0,30.561024,1037.0,,,,,,,,,,FEW,26000,SCT,28000,,,,,VFR,,,,,,,,,,,,METAR,192.0
CYFT 122100Z 35012KT 3/4SM -FZDZ -SN BR VV005 M03/M04 A2972 RMK FG8 LAST OBS/NEXT 131000 UTC SLP070,CYFT,2019-01-12T21:00:00Z,55.07,-59.17,-3.0,-4.0,350,12,,0.75,29.719488,1007.0,,,,,,,,,-FZDZ -SN BR,OVX,0,,,,,,,LIFR,,,,,,,,,,,500,METAR,71.0
CYUY 122100Z VRB02KT 2SM -SN SCT008 BKN015 M19/M21 A3057 RMK SN2SF2SC3 SLP393,CYUY,2019-01-12T21:00:00Z,48.2,-78.82,-19.0,-21.0,0,2,,2.0,30.569881,1039.3,,,,,,,,,-SN,SCT,800,BKN,1500,,,,,IFR,,,,,,,,,,,,METAR,301.0
CYTL 122100Z AUTO 18010KT 9SM BKN100 BKN120 BKN140 M14/M19 A3044 RMK SLP339,CYTL,2019-01-12T21:00:00Z,53.82,-89.88,-14.0,-19.0,180,10,,9.0,30.43996,1033.9,,TRUE,,,,,,,,BKN,10000,BKN,12000,BKN,14000,,,VFR,,,,,,,,,,,,METAR,224.0
CYRL 122100Z 14006KT 110V170 15SM FEW006 OVC016 M11/M13 A3042 RMK ST2SC6 SLP340,CYRL,2019-01-12T21:00:00Z,51.07,-93.78,-11.0,-13.0,140,6,,15.0,30.41929,1034.0,,,,,,,,,,FEW,600,OVC,1600,,,,,MVFR,,,,,,,,,,,,METAR,383.0
CYRJ 122100Z 29007KT 25SM BKN019 M17/M21 A3044 RMK SC7 SLP332,CYRJ,2019-01-12T21:00:00Z,48.52,-72.27,-17.0,-21.0,290,7,,25.0,30.43996,1033.2,,,,,,,,,,BKN,1900,,,,,,,MVFR,,,,,,,,,,,,METAR,179.0
CYQT 122100Z 07009KT 20SM -SN BKN011 M09/M11 A3057 RMK SC7 SLP372,CYQT,2019-01-12T21:00:00Z,48.37,-89.32,-9.0,-11.0,70,9,,20.0,30.569881,1037.2,,,,,,,,,-SN,BKN,1100,,,,,,,MVFR,,,,,,,,,,,,METAR,199.0
CYPQ 122100Z AUTO VRB02KT 9SM BKN240 M07/M18 A3052 RMK SLP350,CYPQ,2019-01-12T21:00:00Z,44.22,-78.37,-7.0,-18.0,0,2,,9.0,30.519686,1035.0,,TRUE,,,,,,,,BKN,24000,,,,,,,VFR,,,,,,,,,,,,METAR,191.0
CYND 122100Z 29007KT 15SM FEW220 M12/M20 A3058 RMK CI1 SLP362,CYND,2019-01-12T21:00:00Z,45.52,-75.57,-12.0,-20.0,290,7,,15.0,30.578741,1036.2,,,,,,,,,,FEW,22000,,,,,,,VFR,,,,,,,,,,,,METAR,64.0
CYHU 122100Z AUTO 27009KT 9SM CLR M14/M20 A3054 RMK SLP346,CYHU,2019-01-12T21:00:00Z,45.52,-73.42,-14.0,-20.0,270,9,,9.0,30.540354,1034.6,,TRUE,,,,,,,,CLR,,,,,,,,VFR,,,,,,,,,,,,METAR,27.0
CYHD 122100Z AUTO 15006KT 9SM OVC023 M09/M11 A3044 RMK SLP346,CYHD,2019-01-12T21:00:00Z,49.82,-92.75,-9.0,-11.0,150,6,,9.0,30.43996,1034.6,,TRUE,,,,,,,,OVC,2300,,,,,,,MVFR,,,,,,,,,,,,METAR,413.0
CYGR 122100Z 25017G23KT 1 1/4SM -SHSN DRSN VV016 M09/M12 A3001 RMK SN8 /S01/ CVCTV CLD EMBD SLP163,CYGR,2019-01-12T21:00:00Z,47.42,-61.77,-9.0,-12.0,250,17,23,1.25,30.008858,1016.3,,,,,,,,,-SHSN DRSN,OVX,0,,,,,,,LIFR,,,,,,,,,,,1600,METAR,10.0
CYGP 122100Z 27011KT 15SM BKN030 OVC100 M06/M10 A2997 RMK SC7AS1 SLP153,CYGP,2019-01-12T21:00:00Z,48.77,-64.47,-6.0,-10.0,270,11,,15.0,29.970472,1015.3,,,,,,,,,,BKN,3000,OVC,10000,,,,,MVFR,,,,,,,,,,,,METAR,33.0
CYTZ 122100Z AUTO 08009KT 9SM CLR M05/M12 A3053 RMK RVR MISG SLP344,CYTZ,2019-01-12T21:00:00Z,43.63,-79.4,-5.0,-12.0,80,9,,9.0,30.528543,1034.4,,TRUE,,,,,,,,CLR,,,,,,,,VFR,,,,,,,,,,,,METAR,77.0
CYTS 122100Z 31003KT 15SM BKN010 M19/M22 A3058 RMK SC7 SLP395,CYTS,2019-01-12T21:00:00Z,48.57,-81.37,-19.0,-22.0,310,3,,15.0,30.578741,1039.5,,,,,,,,,,BKN,1000,,,,,,,MVFR,,,,,,,,,,,,METAR,295.0
CYWA 122100Z AUTO 30004KT 9SM CLR M12/M21 A3058 RMK SLP369,CYWA,2019-01-12T21:00:00Z,45.95,-77.32,-12.0,-21.0,300,4,,9.0,30.578741,1036.9,,TRUE,,,,,,,,CLR,,,,,,,,VFR,,,,,,,,,,,,METAR,130.0
CYVV 122100Z 06006KT 15SM BKN250 M09/M14 A3051 RMK CI7 SLP350,CYVV,2019-01-12T21:00:00Z,44.75,-81.08,-9.0,-14.0,60,6,,15.0,30.510826,1035.0,,,,,,,,,,BKN,25000,,,,,,,VFR,,,,,,,,,,,,METAR,222.0
CYYY 122100Z 25012G20KT 30SM FEW020 FEW140 SCT240 M14/M17 A3024 RMK SC1AC1CI1 SLP247,CYYY,2019-01-12T21:00:00Z,48.6,-68.22,-14.0,-17.0,250,12,20,30.0,30.239174,1024.7,,,,,,,,,,FEW,2000,FEW,14000,SCT,24000,,,VFR,,,,,,,,,,,,METAR,52.0
CYXR 122100Z AUTO 03004KT 9SM CLR M20/M23 A3060 RMK ICG SLP393,CYXR,2019-01-12T21:00:00Z,47.7,-79.83,-20.0,-23.0,30,4,,9.0,30.59941,1039.3,,TRUE,,,,,,,,CLR,,,,,,,,VFR,,,,,,,,,,,,METAR,243.0
CYZE 122100Z AUTO 04006KT 9SM CLR M11/M18 A3056 RMK SLP366,CYZE,2019-01-12T21:00:00Z,45.87,-82.57,-11.0,-18.0,40,6,,9.0,30.561024,1036.6,,TRUE,,,,,,,,CLR,,,,,,,,VFR,,,,,,,,,,,,METAR,193.0
CYZR 122100Z AUTO 07011G20KT 9SM OVC065 M03/M10 A3044 RMK SLP320,CYZR,2019-01-12T21:00:00Z,43.0,-82.3,-3.0,-10.0,70,11,20,9.0,30.43996,1032.0,,TRUE,,,,,,,,OVC,6500,,,,,,,VFR,,,,,,,,,,,,METAR,181.0
CYBK 122100Z 11012KT 3/4SM -SN BLSN SCT015 OVC023 M17/M19 A2952 RMK SC4SC4 SLP000,CYBK,2019-01-12T21:00:00Z,64.28,-96.07,-17.0,-19.0,110,12,,0.75,29.518702,1000.0,,,,,,,,,-SN BLSN,SCT,1500,OVC,2300,,,,,LIFR,,,,,,,,,,,,METAR,18.0
CYAB 122100Z 00000KT 15SM FEW022 FEW090 FEW210 M37/M41 A3034 RMK SC1AC1CI1 SC TR CI TR SLP280,CYAB,2019-01-12T21:00:00Z,73.0,-85.05,-37.0,-41.0,0,0,,15.0,30.339567,1028.0,,,,,,,,,,FEW,2200,FEW,9000,FEW,21000,,,VFR,,,,,,,,,,,,METAR,22.0
CWHN 122100Z AUTO 18004KT 9SM CLR M04/M10 A2993 RMK SLP180,CWHN,2019-01-12T21:00:00Z,54.88,-109.97,-4.0,-10.0,180,4,,9.0,29.929134,1018.0,,TRUE,,,,,,,,CLR,,,,,,,,VFR,,,,,,,,,,,,METAR,636.0
HECA 122100Z 18009KT 3000 HZ NSC 17/M06 Q1007 NOSIG,HECA,2019-01-12T21:00:00Z,30.12,31.38,17.0,-6.0,180,9,,1.86,29.734253,,,,,,TRUE,,,,HZ,CLR,,,,,,,,IFR,,,,,,,,,,,,METAR,74.0
NFTF 122100Z 07008KT 9999 FEW017 29/24 Q1010,NFTF,2019-01-12T21:00:00Z,-21.23,-175.15,29.0,24.0,70,8,,6.21,29.822834,,,,,,,,,,,FEW,1700,,,,,,,VFR,,,,,,,,,,,,METAR,38.0
NFTL 122100Z 09010KT 9999 FEW018 SCT300 29/24 Q1008,NFTL,2019-01-12T21:00:00Z,-19.78,-174.33,29.0,24.0,90,10,,6.21,29.763779,,,,,,,,,,,FEW,1800,SCT,30000,,,,,VFR,,,,,,,,,,,,METAR,3.0
NFTV 122100Z 16007KT 9999 SCT017 29/23 Q1008,NFTV,2019-01-12T21:00:00Z,-18.58,-173.97,29.0,23.0,160,7,,6.21,29.763779,,,,,,,,,,,SCT,1700,,,,,,,VFR,,,,,,,,,,,,METAR,71.0
OKBK 122100Z 18005KT CAVOK 09/05 Q1019 NOSIG,OKBK,2019-01-12T21:00:00Z,29.22,47.97,9.0,5.0,180,5,,6.21,30.088583,,,,,,TRUE,,,,,CAVOK,,,,,,,,VFR,,,,,,,,,,,,METAR,55.0
CYFC 122100Z AUTO 28008KT 230V310 9SM FEW095 M13/M17 A3022 RMK SLP237,CYFC,2019-01-12T21:00:00Z,45.87,-66.52,-13.0,-17.0,280,8,,9.0,30.221457,1023.7,,TRUE,,,,,,,,FEW,9500,,,,,,,VFR,,,,,,,,,,,,METAR,20.0
CYFB 122100Z CCA 35022G28KT 2 1/2SM IC BLSN FEW140 M32/M36 A3032 RMK AS1 AS TR VIS NE-NW 1 SLP276,CYFB,2019-01-12T21:00:00Z,63.75,-68.55,-32.0,-36.0,350,22,28,2.5,30.318897,1027.6,,,,,,,,,BLSN IC,FEW,14000,,,,,,,IFR,,,,,,,,,,,,SPECI,34.0
CYEG 122100Z 00000KT 20SM FEW200 BKN250 M05/M09 A2995 RMK CI1CI6 SLP190,CYEG,2019-01-12T21:00:00Z,53.28,-113.57,-5.0,-9.0,0,0,,20.0,29.949802,1019.0,,,,,,,,,,FEW,20000,BKN,25000,,,,,VFR,,,,,,,,,,,,METAR,723.0
VOCB 122100Z 02002KT 4000 BR NSC 20/15 Q1016 NOSIG,VOCB,2019-01-12T21:00:00Z,11.02,77.03,20.0,15.0,20,2,,2.49,30.0,,,,,,TRUE,,,,BR,CLR,,,,,,,,IFR,,,,,,,,,,,,METAR,399.0
OLBA 122100Z 12006KT CAVOK 12/04 Q1009 NOSIG,OLBA,2019-01-12T21:00:00Z,33.82,35.47,12.0,4.0,120,6,,6.21,29.793306,,,,,,TRUE,,,,,CAVOK,,,,,,,,VFR,,,,,,,,,,,,METAR,19.0
MYGF 122100Z 10012KT 9999 SCT018 24/18 A3016,MYGF,2019-01-12T21:00:00Z,26.55,-78.7,24.0,18.0,100,12,,6.21,30.159449,,,,,,,,,,,SCT,1800,,,,,,,VFR,,,,,,,,,,,,METAR,2.0
LHBP 122100Z 21004KT CAVOK 01/01 Q1012 R88/29//95 NOSIG,LHBP,2019-01-12T21:00:00Z,47.42,19.27,1.0,1.0,210,4,,6.21,29.88189,,,,,,TRUE,,,,,CAVOK,,,,,,,,VFR,,,,,,,,,,,,METAR,185.0
LBPL 122100Z 22006KT 9999 SCT200 M04/M07 Q1015,LBPL,2019-01-12T21:00:00Z,43.45,24.5,-4.0,-7.0,220,6,,6.21,29.970472,,,,,,,,,,,SCT,20000,,,,,,,VFR,,,,,,,,,,,,METAR,101.0
LBIA 122100Z 20004KT 9999 FEW200 M03/M06 Q1013,LBIA,2019-01-12T21:00:00Z,42.45,26.35,-3.0,-6.0,200,4,,6.21,29.911417,,,,,,,,,,,FEW,20000,,,,,,,VFR,,,,,,,,,,,,METAR,155.0
LBGO 122100Z AUTO 00000KT 9999 BKN040 M06/M08 Q1014,LBGO,2019-01-12T21:00:00Z,43.15,25.72,-6.0,-8.0,0,0,,6.21,29.940945,,,TRUE,,,,,,,,BKN,4000,,,,,,,VFR,,,,,,,,,,,,METAR,86.0
LBPD 122100Z AUTO 30015KT 9999 NCD M01/M08 Q1013,LBPD,2019-01-12T21:00:00Z,42.13,24.8,-1.0,-8.0,300,15,,6.21,29.911417,,,TRUE,,,,,,,,CLR,,,,,,,,VFR,,,,,,,,,,,,METAR,185.0
LBBG 122100Z 29004KT CAVOK M01/M06 Q1014 NOSIG,LBBG,2019-01-12T21:00:00Z,42.57,27.52,-1.0,-6.0,290,4,,6.21,29.940945,,,,,,TRUE,,,,,CAVOK,,,,,,,,VFR,,,,,,,,,,,,METAR,28.0
LBWN 122100Z 30005KT CAVOK M03/M07 Q1013 NOSIG,LBWN,2019-01-12T21:00:00Z,43.22,27.82,-3.0,-7.0,300,5,,6.21,29.911417,,,,,,TRUE,,,,,CAVOK,,,,,,,,VFR,,,,,,,,,,,,METAR,43.0
LBSF 122100Z 34005KT 290V020 9999 SCT023 M06/M09 Q1013 NOSIG,LBSF,2019-01-12T21:00:00Z,42.7,23.42,-6.0,-9.0,340,5,,6.21,29.911417,,,,,,TRUE,,,,,SCT,2300,,,,,,,VFR,,,,,,,,,,,,METAR,530.0
LZTT 122100Z 19007KT 160V220 9999 BKN014 M03/M05 Q1006,LZTT,2019-01-12T21:00:00Z,49.07,20.25,-3.0,-5.0,190,7,,6.21,29.704725,,,,,,,,,,,BKN,1400,,,,,,,MVFR,,,,,,,,,,,,METAR,707.0
LZKZ 122100Z 21003KT 160V240 1500 -SN BR OVC003 M04/M04 Q1011,LZKZ,2019-01-12T21:00:00Z,48.67,21.23,-4.0,-4.0,210,3,,0.93,29.852362,,,,,,,,,,-SN BR,OVC,300,,,,,,,LIFR,,,,,,,,,,,,METAR,232.0
LZIB 122100Z 27013KT CAVOK 05/M00 Q1011 R13/25//95,LZIB,2019-01-12T21:00:00Z,48.17,17.22,5.0,0.0,270,13,,6.21,29.852362,,,,,,,,,,,CAVOK,,,,,,,,VFR,,,,,,,,,,,,METAR,134.0
SBLO 122100Z 14006KT 9999 SCT040 31/21 Q1014,SBLO,2019-01-12T21:00:00Z,-23.32,-51.12,31.0,21.0,140,6,,6.21,29.940945,,,,,,,,,,,SCT,4000,,,,,,,VFR,,,,,,,,,,,,METAR,570.0
SBPB 122100Z 00000KT 9999 SCT017 OVC090 27/22 Q1012,SBPB,2019-01-12T21:00:00Z,-2.92,-41.75,27.0,22.0,0,0,,6.21,29.88189,,,,,,,,,,,SCT,1700,OVC,9000,,,,,VFR,,,,,,,,,,,,METAR,5.0
TFFR 122100Z AUTO 13008KT 100V180 9999 BKN030 BKN038 27/20 Q1016 NOSIG,TFFR,2019-01-12T21:00:00Z,16.27,-61.53,27.0,20.0,130,8,,6.21,30.0,,,TRUE,,,TRUE,,,,,BKN,3000,BKN,3800,,,,,MVFR,,,,,,,,,,,,METAR,11.0
CYBU 122100Z AUTO 19011KT 9SM BKN170 M08/M11 A3004 RMK SLP207,CYBU,2019-01-12T21:00:00Z,53.32,-104.0,-8.0,-11.0,190,11,,9.0,30.041338,1020.7,,TRUE,,,,,,,,BKN,17000,,,,,,,VFR,,,,,,,,,,,,METAR,374.0
CYEN 122100Z AUTO 15009KT 6SM HZ CLR M08/M11 A3019 RMK SLP270,CYEN,2019-01-12T21:00:00Z,49.22,-102.97,-8.0,-11.0,150,9,,6.0,30.188976,1027.0,,TRUE,,,,,,,HZ,CLR,,,,,,,,VFR,,,,,,,,,,,,METAR,581.0
CYDN 122100Z AUTO 23009G17KT 9SM OVC021 M06/M10 A3026 RMK SLP276,CYDN,2019-01-12T21:00:00Z,51.1,-100.03,-6.0,-10.0,230,9,17,9.0,30.259842,1027.6,,TRUE,,,,,,,,OVC,2100,,,,,,,MVFR,,,,,,,,,,,,METAR,305.0
CYET 122100Z AUTO VRB02KT 9SM FEW170 M02/M04 A2995 RMK SLP188,CYET,2019-01-12T21:00:00Z,53.57,-116.47,-2.0,-4.0,0,2,,9.0,29.949802,1018.8,,TRUE,,,,,,,,FEW,17000,,,,,,,VFR,,,,,,,,,,,,METAR,925.0
CYKJ 122100Z AUTO 26006KT 9SM OVC007 M09/M10 A2986 RMK SLP158,CYKJ,2019-01-12T21:00:00Z,57.25,-105.62,-9.0,-10.0,260,6,,9.0,29.861221,1015.8,,TRUE,,,,,,,,OVC,700,,,,,,,IFR,,,,,,,,,,,,METAR,509.0
CYGX 122100Z 20012G21KT 15SM OVC030 M12/M15 A3010 RMK SC8 SLP210,CYGX,2019-01-12T21:00:00Z,56.35,-94.7,-12.0,-15.0,200,12,21,15.0,30.100393,1021.0,,,,,,,,,,OVC,3000,,,,,,,MVFR,,,,,,,,,,,,METAR,145.0
CYLL 122100Z 26007KT 15SM FEW170 OVC260 M08/M11 A2997 RMK AC2CI6 SLP203,CYLL,2019-01-12T21:00:00Z,53.32,-110.07,-8.0,-11.0,260,7,,15.0,29.970472,1020.3,,,,,,,,,,FEW,17000,OVC,26000,,,,,VFR,,,,,,,,,,,,METAR,669.0
CYOJ 122100Z 35007KT 15SM FEW110 M11/M14 A2997 RMK AC2 SLP182,CYOJ,2019-01-12T21:00:00Z,58.62,-117.17,-11.0,-14.0,350,7,,15.0,29.970472,1018.2,,,,,,,,,,FEW,11000,,,,,,,VFR,,,,,,,,,,,,METAR,338.0
CYNE 122100Z AUTO 19012G22KT 9SM -SN OVC018 M10/M12 A3019 RMK SLP248,CYNE,2019-01-12T21:00:00Z,53.97,-97.82,-10.0,-12.0,190,12,22,9.0,30.188976,1024.8,,TRUE,,,,,,,-SN,OVC,1800,,,,,,,MVFR,,,,,,,,,,,,METAR,223.0
CYMM 122100Z AUTO 36003KT 350V070 9SM CLR M04/M09 A2993 RMK SLP164,CYMM,2019-01-12T21:00:00Z,56.65,-111.22,-4.0,-9.0,360,3,,9.0,29.929134,1016.4,,TRUE,,,,,,,,CLR,,,,,,,,VFR,,,,,,,,,,,,METAR,369.0
CYQF 122100Z 00000KT 15SM BKN230 M01/M06 A2996 RMK CI7 SLP197,CYQF,2019-01-12T21:00:00Z,52.17,-113.9,-1.0,-6.0,0,0,,15.0,29.958662,1019.7,,,,,,,,,,BKN,23000,,,,,,,VFR,,,,,,,,,,,,METAR,905.0
CYPY 122100Z AUTO 35008KT 9SM OVC008 M09/M11 A3000 RMK SLP180,CYPY,2019-01-12T21:00:00Z,58.77,-111.12,-9.0,-11.0,350,8,,9.0,30.0,1018.0,,TRUE,,,,,,,,OVC,800,,,,,,,IFR,,,,,,,,,,,,METAR,232.0
CYPA 122100Z 21006KT 15SM SCT150 BKN250 M09/M13 A3003 RMK AC3CI2 SLP211,CYPA,2019-01-12T21:00:00Z,53.22,-105.67,-9.0,-13.0,210,6,,15.0,30.029528,1021.1,,,,,,,,,,SCT,15000,BKN,25000,,,,,VFR,,,,,,,,,,,,METAR,428.0
CYQR 122100Z 13018KT 15SM SCT240 M09/M12 A3009 RMK CI3 SLP236,CYQR,2019-01-12T21:00:00Z,50.43,-104.67,-9.0,-12.0,130,18,,15.0,30.088583,1023.6,,,,,,,,,,SCT,24000,,,,,,,VFR,,,,,,,,,,,,METAR,577.0
CYQL 122100Z 27010KT 60SM SCT280 15/M11 A2999 RMK CI4 SLP172 DENSITY ALT 3800FT,CYQL,2019-01-12T21:00:00Z,49.63,-112.8,15.0,-11.0,270,10,,60.0,29.991142,1017.2,,,,,,,,,,SCT,28000,,,,,,,VFR,,,,,,,,,,,,METAR,929.0
CYQW 122100Z AUTO VRB02KT 9SM CLR M10/M14 A3001 RMK SLP209,CYQW,2019-01-12T21:00:00Z,52.77,-108.25,-10.0,-14.0,0,2,,9.0,30.008858,1020.9,,TRUE,,,,,,,,CLR,,,,,,,,VFR,,,,,,,,,,,,METAR,548.0
CYVC 122100Z 23005KT 15SM BKN100 BKN250 M08/M11 A2997 RMK AC6CI1 SLP184,CYVC,2019-01-12T21:00:00Z,55.15,-105.27,-8.0,-11.0,230,5,,15.0,29.970472,1018.4,,,,,,,,,,BKN,10000,BKN,25000,,,,,VFR,,,,,,,,,,,,METAR,379.0
CYYL 122100Z AUTO 21008KT 9SM -SN FEW013 BKN160 M11/M12 A2990 RMK SLP163,CYYL,2019-01-12T21:00:00Z,56.87,-101.07,-11.0,-12.0,210,8,,9.0,29.899607,1016.3,,TRUE,,,,,,,-SN,FEW,1300,BKN,16000,,,,,VFR,,,,,,,,,,,,METAR,357.0
CYYN 122100Z AUTO 23013G18KT 9SM CLR 03/M04 A2997 RMK SLP187,CYYN,2019-01-12T21:00:00Z,50.27,-107.67,3.0,-4.0,230,13,18,9.0,29.970472,1018.7,,TRUE,,,,,,,,CLR,,,,,,,,VFR,,,,,,,,,,,,METAR,818.0
CYZH 122100Z AUTO VRB02KT 9SM CLR M07/M11 A2997 RMK SLP192,CYZH,2019-01-12T21:00:00Z,55.28,-114.77,-7.0,-11.0,0,2,,9.0,29.970472,1019.2,,TRUE,,,,,,,,CLR,,,,,,,,VFR,,,,,,,,,,,,METAR,581.0
CZVL 122100Z AUTO 23002KT 9SM CLR M08/M11 A2996 RMK SLP190,CZVL,2019-01-12T21:00:00Z,53.67,-113.85,-8.0,-11.0,230,2,,9.0,29.958662,1019.0,,TRUE,,,,,,,,CLR,,,,,,,,VFR,,,,,,,,,,,,METAR,686.0
CYAY 122100Z AUTO 18007KT 9SM CLR M09/M10 A2987 RMK ICG INTMT SLP120,CYAY,2019-01-12T21:00:00Z,51.38,-56.07,-9.0,-10.0,180,7,,9.0,29.870079,1012.0,,TRUE,,,,,,,,CLR,,,,,,,,VFR,,,,,,,,,,,,METAR,28.0
CYCX 122100Z AUTO 27009KT 9SM BKN090 M13/M19 A3021 RMK SLP236,CYCX,2019-01-12T21:00:00Z,45.82,-66.42,-13.0,-19.0,270,9,,9.0,30.209646,1023.6,,TRUE,,,,,,,,BKN,9000,,,,,,,VFR,,,,,,,,,,,,METAR,51.0
CYDF 122100Z 23006KT 15SM OVC036 M07/M12 A2995 RMK SC8 INTMT -SN SLP144,CYDF,2019-01-12T21:00:00Z,49.22,-57.4,-7.0,-12.0,230,6,,15.0,29.949802,1014.4,,,,,,,,,,OVC,3600,,,,,,,VFR,,,,,,,,,,,,METAR,22.0
TBPB 122100Z 07011KT 9999 FEW022 26/19 Q1015 NOSIG,TBPB,2019-01-12T21:00:00Z,13.07,-59.48,26.0,19.0,70,11,,6.21,29.970472,,,,,,TRUE,,,,,FEW,2200,,,,,,,VFR,,,,,,,,,,,,METAR,52.0
CYSJ 122100Z 31015G21KT 270V330 15SM FEW025 SCT080 M14/M18 A3018 RMK SC1AC2 SLP231,CYSJ,2019-01-12T21:00:00Z,45.32,-65.87,-14.0,-18.0,310,15,21,15.0,30.180119,1023.1,,,,,,,,,,FEW,2500,SCT,8000,,,,,VFR,,,,,,,,,,,,METAR,109.0
SBGL 122100Z 14012KT 9999 FEW030 30/21 Q1013,SBGL,2019-01-12T21:00:00Z,-22.82,-43.25,30.0,21.0,140,12,,6.21,29.911417,,,,,,,,,,,FEW,3000,,,,,,,VFR,,,,,,,,,,,,METAR,6.0
SBEG 122100Z 01004KT 9999 SCT020 29/22 Q1009,SBEG,2019-01-12T21:00:00Z,-3.02,-60.03,29.0,22.0,10,4,,6.21,29.793306,,,,,,,,,,,SCT,2000,,,,,,,VFR,,,,,,,,,,,,METAR,2.0
GVSV 122100Z 07010KT CAVOK 22/15 Q1016 NOSIG,GVSV,2019-01-12T21:00:00Z,16.83,-25.07,22.0,15.0,70,10,,6.21,30.0,,,,,,TRUE,,,,,CAVOK,,,,,,,,VFR,,,,,,,,,,,,METAR,20.0
SBCZ 122100Z 33003KT 9999 SCT020 BKN100 28/23 Q1011,SBCZ,2019-01-12T21:00:00Z,-7.62,-72.77,28.0,23.0,330,3,,6.21,29.852362,,,,,,,,,,,SCT,2000,BKN,10000,,,,,VFR,,,,,,,,,,,,METAR,170.0
DAUE 122100Z 33004KT CAVOK 02/M06 Q1027,DAUE,2019-01-12T21:00:00Z,30.57,2.87,2.0,-6.0,330,4,,6.21,30.324802,,,,,,,,,,,CAVOK,,,,,,,,VFR,,,,,,,,,,,,METAR,397.0
DAOR 122100Z 23004KT CAVOK 06/M04 Q1028,DAOR,2019-01-12T21:00:00Z,31.65,-2.27,6.0,-4.0,230,4,,6.21,30.35433,,,,,,,,,,,CAVOK,,,,,,,,VFR,,,,,,,,,,,,METAR,773.0
DAOF 122100Z 04007KT CAVOK 13/M09 Q1024,DAOF,2019-01-12T21:00:00Z,27.7,-8.17,13.0,-9.0,40,7,,6.21,30.236221,,,,,,,,,,,CAVOK,,,,,,,,VFR,,,,,,,,,,,,METAR,431.0
DAAY 122100Z 01003KT CAVOK 00/M08 Q1029,DAAY,2019-01-12T21:00:00Z,33.53,-0.25,0.0,-8.0,10,3,,6.21,30.383858,,,,,,,,,,,CAVOK,,,,,,,,VFR,,,,,,,,,,,,METAR,1149.0
DAAP 122100Z 01002KT CAVOK 07/M05 Q1026,DAAP,2019-01-12T21:00:00Z,26.72,8.62,7.0,-5.0,10,2,,6.21,30.295275,,,,,,,,,,,CAVOK,,,,,,,,VFR,,,,,,,,,,,,METAR,558.0
CZPC 122100Z AUTO 29020G25KT 9SM FEW180 BKN200 BKN220 08/M11 A3001 RMK SLP187,CZPC,2019-01-12T21:00:00Z,49.52,-114.0,8.0,-11.0,290,20,25,9.0,30.008858,1018.7,,TRUE,,,,,,,,FEW,18000,BKN,20000,BKN,22000,,,VFR,,,,,,,,,,,,METAR,1190.0
CZFM 122100Z 21005KT 35SM SKC M33/M38 A3039 RMK SLP300,CZFM,2019-01-12T21:00:00Z,67.4,-134.87,-33.0,-38.0,210,5,,35.0,30.389763,1030.0,,,,,,,,,,SKC,,,,,,,,VFR,,,,,,,,,,,,METAR,43.0
CWSA 122100Z AUTO 26019G27KT 6SM -SN SCT020 SCT025 OVC043 M03/M06 A3011 RMK SLP198,CWSA,2019-01-12T21:00:00Z,43.93,-60.0,-3.0,-6.0,260,19,27,6.0,30.109253,1019.8,,TRUE,,,,,,,-SN,SCT,2000,SCT,2500,OVC,4300,,,VFR,,,,,,,,,,,,METAR,4.0
CWGZ 122100Z 00000KT 15SM IC SKC M37/M41 A3029 RMK -36.7/-40.7/0.0/LAST OBS/NEXT 151300Z SLP267,CWGZ,2019-01-12T21:00:00Z,76.42,-82.9,-37.0,-41.0,0,0,,15.0,30.28937,1026.7,,,,,,,,,IC,SKC,,,,,,,,VFR,,,,,,,,,,,,METAR,45.0
DAUI 122100Z 04011KT CAVOK 09/M06 Q1026,DAUI,2019-01-12T21:00:00Z,27.25,2.52,9.0,-6.0,40,11,,6.21,30.295275,,,,,,,,,,,CAVOK,,,,,,,,VFR,,,,,,,,,,,,METAR,269.0
DAUO 122100Z 22005KT CAVOK 06/M04 Q1026,DAUO,2019-01-12T21:00:00Z,33.5,6.78,6.0,-4.0,220,5,,6.21,30.295275,,,,,,,,,,,CAVOK,,,,,,,,VFR,,,,,,,,,,,,METAR,63.0
DAUK 122100Z 00000KT CAVOK 05/M03 Q1026,DAUK,2019-01-12T21:00:00Z,33.08,6.12,5.0,-3.0,0,0,,6.21,30.295275,,,,,,,,,,,CAVOK,,,,,,,,VFR,,,,,,,,,,,,METAR,85.0
DAUT 122100Z 04007KT CAVOK 06/M04 Q1028,DAUT,2019-01-12T21:00:00Z,29.25,0.27,6.0,-4.0,40,7,,6.21,30.35433,,,,,,,,,,,CAVOK,,,,,,,,VFR,,,,,,,,,,,,METAR,312.0
FKKD 122100Z VRB01KT 8000 SCT013 FEW016CB 27/26 Q1010 NOSIG,FKKD,2019-01-12T21:00:00Z,4.0,9.72,27.0,26.0,0,1,,4.97,29.822834,,,,,,TRUE,,,,,SCT,1300,FEW,1600,,,,,MVFR,,,,,,,,,,,,METAR,9.0
DAUU 122100Z 00000KT CAVOK 06/M05 Q1027,DAUU,2019-01-12T21:00:00Z,31.92,5.4,6.0,-5.0,0,0,,6.21,30.324802,,,,,,,,,,,CAVOK,,,,,,,,VFR,,,,,,,,,,,,METAR,141.0
FCBB 122100Z 27005KT 250V310 9000 FEW020 26/22 Q1012 NOSIG,FCBB,2019-01-12T21:00:00Z,-4.25,15.25,26.0,22.0,270,5,,5.59,29.88189,,,,,,TRUE,,,,,FEW,2000,,,,,,,VFR,,,,,,,,,,,,METAR,316.0
FCPP 122100Z 18003KT 8000 FEW010 26/25 Q1011 NOSIG,FCPP,2019-01-12T21:00:00Z,-4.82,11.9,26.0,25.0,180,3,,4.97,29.852362,,,,,,TRUE,,,,,FEW,1000,,,,,,,MVFR,,,,,,,,,,,,METAR,17.0
FKYS 122100Z /////KT 8000 FEW010 24/21 Q1015 NOSIG,FKYS,2019-01-12T21:00:00Z,3.82,11.52,24.0,21.0,,,,4.97,29.970472,,,,,,TRUE,,,,,FEW,1000,,,,,,,MVFR,,,,,,,,,,,,METAR,760.0
FEFF 122100Z 00000KT CAVOK 27/24 Q1008 NOSIG,FEFF,2019-01-12T21:00:00Z,4.4,18.52,27.0,24.0,0,0,,6.21,29.763779,,,,,,TRUE,,,,,CAVOK,,,,,,,,VFR,,,,,,,,,,,,METAR,366.0
FKKR 122100Z 36004KT CAVOK 26/06 Q1011,FKKR,2019-01-12T21:00:00Z,9.32,13.37,26.0,6.0,360,4,,6.21,29.852362,,,,,,,,,,,CAVOK,,,,,,,,VFR,,,,,,,,,,,,METAR,244.0
RJAA 122100Z 33007KT 9999 FEW020 OVC070 03/01 Q1018 NOSIG RMK 1CU020 8AS070 A3006,RJAA,2019-01-12T21:00:00Z,35.77,140.37,3.0,1.0,330,7,,6.21,30.059055,,,,,,TRUE,,,,,FEW,2000,OVC,7000,,,,,VFR,,,,,,,,,,,,METAR,44.0
RJBB 122100Z 35009KT 9999 FEW025 BKN040 07/04 Q1020 NOSIG,RJBB,2019-01-12T21:00:00Z,34.42,135.25,7.0,4.0,350,9,,6.21,30.11811,,,,,,TRUE,,,,,FEW,2500,BKN,4000,,,,,VFR,,,,,,,,,,,,METAR,8.0
RJOO 122100Z 31002KT 9999 FEW025 SCT040 01/M00 Q1020 RMK 1CU025 3CU040 A3013,RJOO,2019-01-12T21:00:00Z,34.77,135.43,1.0,0.0,310,2,,6.21,30.11811,,,,,,,,,,,FEW,2500,SCT,4000,,,,,VFR,,,,,,,,,,,,METAR,15.0
ROAH 122100Z 36014KT 9999 FEW030 BKN040 20/12 Q1018 RMK 2CU030 6SC040 A3008,ROAH,2019-01-12T21:00:00Z,26.17,127.65,20.0,12.0,360,14,,6.21,30.059055,,,,,,,,,,,FEW,3000,BKN,4000,,,,,VFR,,,,,,,,,,,,METAR,8.0
RJGG 122100Z 35009KT 9999 FEW025 03/M00 Q1018 NOSIG,RJGG,2019-01-12T21:00:00Z,34.87,136.8,3.0,0.0,350,9,,6.21,30.059055,,,,,,TRUE,,,,,FEW,2500,,,,,,,VFR,,,,,,,,,,,,METAR,5.0
CWFD 122100Z AUTO 01015G22KT ////SM //// BKN090 OVC110 M29/M29 A2982,CWFD,2019-01-12T21:00:00Z,66.57,-61.58,-29.0,-29.0,10,15,22,,29.819881,,,TRUE,,,,,,,,BKN,9000,OVC,11000,,,,,,,,,,,,,,,,,METAR,393.0
CWEU 122100Z 10002KT 10SM IC SKC M41/M46 A3039 RMK SLP294,CWEU,2019-01-12T21:00:00Z,80.0,-85.92,-41.0,-46.0,100,2,,10.0,30.389763,1029.4,,,,,,,,,IC,SKC,,,,,,,,VFR,,,,,,,,,,,,METAR,10.0
CYYG 122100Z 25008G15KT 15SM BKN026 M13/M18 A3009 RMK SC5 SLP196,CYYG,2019-01-12T21:00:00Z,46.27,-63.12,-13.0,-18.0,250,8,15,15.0,30.088583,1019.6,,,,,,,,,,BKN,2600,,,,,,,MVFR,,,,,,,,,,,,METAR,54.0
RJSS 122100Z 33004KT 9999 FEW015 SCT140 M01/M05 Q1020,RJSS,2019-01-12T21:00:00Z,38.12,140.92,-1.0,-5.0,330,4,,6.21,30.11811,,,,,,,,,,,FEW,1500,SCT,14000,,,,,VFR,,,,,,,,,,,,METAR,5.0
K1A5 122100Z AUTO 00000KT 10SM OVC032 04/M01 A3025 RMK AO2 T00401011,K1A5,2019-01-12T21:00:00Z,35.22,-83.42,4.0,-1.1,0,0,,10.0,30.250984,,,TRUE,TRUE,,,,,,,OVC,3200,,,,,,,VFR,,,,,,,,,,,,SPECI,616.0
K7W6 122100Z AUTO 03009KT 10SM OVC050 06/M01 A3043 RMK AO2 T00591013,K7W6,2019-01-12T21:00:00Z,35.55,-75.95,5.9,-1.3,30,9,,10.0,30.431103,,,TRUE,TRUE,,,,,,,OVC,5000,,,,,,,VFR,,,,,,,,,,,,SPECI,2.0
KEDE 122100Z AUTO 04003KT 10SM SCT055 SCT070 OVC110 06/M01 A3045 RMK AO2 T00621008,KEDE,2019-01-12T21:00:00Z,36.02,-76.57,6.2,-0.8,40,3,,10.0,30.448818,,,TRUE,TRUE,,,,,,,SCT,5500,SCT,7000,OVC,11000,,,VFR,,,,,,,,,,,,SPECI,6.0
KFFA 122100Z AUTO 05004KT 10SM SCT060 BKN080 OVC110 05/M01 A3043 RMK AO2 T00531009,KFFA,2019-01-12T21:00:00Z,36.02,-75.67,5.3,-0.9,50,4,,10.0,30.431103,,,TRUE,TRUE,,,,,,,SCT,6000,BKN,8000,OVC,11000,,,VFR,,,,,,,,,,,,SPECI,4.0
KFQD 122100Z AUTO 00000KT 10SM OVC037 03/M06 A3036 RMK AO2,KFQD,2019-01-12T21:00:00Z,35.42,-81.93,3.0,-6.0,0,0,,10.0,30.360237,,,TRUE,TRUE,,,,,,,OVC,3700,,,,,,,VFR,,,,,,,,,,,,SPECI,329.0
CYNC 122100Z 27009KT 10SM -SHSN OVC012 M18/M20 A3059 RMK CF8 LAST STFD OBS/NEXT 1700 SLP364,CYNC,2019-01-12T21:00:00Z,53.02,-78.82,-18.0,-20.0,270,9,,10.0,30.590551,1036.4,,,,,,,,,-SHSN,OVC,1200,,,,,,,MVFR,,,,,,,,,,,,METAR,14.0
CYLU 122100Z 36007KT 12SM -SN FEW015 BKN017 OVC019 M14/M17 A3019 RMK ST2SC3SC3 SLP233,CYLU,2019-01-12T21:00:00Z,58.72,-65.97,-14.0,-17.0,360,7,,12.0,30.188976,1023.3,,,,,,,,,-SN,FEW,1500,BKN,1700,OVC,1900,,,MVFR,,,,,,,,,,,,METAR,60.0
CYGW 122100Z AUTO 22008KT 9SM -SN OVC013 M16/M18 A3050 RMK SLP330,CYGW,2019-01-12T21:00:00Z,55.27,-77.77,-16.0,-18.0,220,8,,9.0,30.499016,1033.0,,TRUE,,,,,,,-SN,OVC,1300,,,,,,,MVFR,,,,,,,,,,,,METAR,12.0
CYDP 122100Z 31022KT 13SM -SN DRSN OVC014 M12/M16 A2994 RMK SC8 SLP141,CYDP,2019-01-12T21:00:00Z,56.53,-61.67,-12.0,-16.0,310,22,,13.0,29.940945,1014.1,,,,,,,,,-SN DRSN,OVC,1400,,,,,,,MVFR,,,,,,,,,,,,METAR,7.0
CYTQ 122100Z VRB02KT 12SM SCT034 M22/M25 A3032 RMK SC3 SLP273,CYTQ,2019-01-12T21:00:00Z,58.67,-69.95,-22.0,-25.0,0,2,,12.0,30.318897,1027.3,,,,,,,,,,SCT,3400,,,,,,,VFR,,,,,,,,,,,,METAR,31.0
KHRJ 122100Z AUTO 04007KT 10SM OVC030 05/M05 A3043 RMK AO2 T00501050,KHRJ,2019-01-12T21:00:00Z,35.38,-78.73,5.0,-5.0,40,7,,10.0,30.431103,,,TRUE,TRUE,,,,,,,OVC,3000,,,,,,,MVFR,,,,,,,,,,,,SPECI,60.0
KRCZ 122100Z AUTO 06005KT 10SM SCT065 04/M07 A3038 RMK AO2 T00431074,KRCZ,2019-01-12T21:00:00Z,34.88,-79.77,4.3,-7.4,60,5,,10.0,30.380905,,,TRUE,TRUE,,,,,,,SCT,6500,,,,,,,VFR,,,,,,,,,,,,SPECI,109.0
KRUQ 122100Z AUTO 00000KT 10SM -DZ OVC042 03/M08 A3037 RMK AO2 T00331078,KRUQ,2019-01-12T21:00:00Z,35.65,-80.52,3.3,-7.8,0,0,,10.0,30.369095,,,TRUE,TRUE,,,,,,-DZ,OVC,4200,,,,,,,VFR,,,,,,,,,,,,SPECI,236.0
KSCR 122100Z AUTO 10003KT 10SM OVC050 04/M07 A3040 RMK AO2 T00351075,KSCR,2019-01-12T21:00:00Z,35.7,-79.5,3.5,-7.5,100,3,,10.0,30.398623,,,TRUE,TRUE,,,,,,,OVC,5000,,,,,,,VFR,,,,,,,,,,,,SPECI,188.0
KVUJ 122100Z AUTO 05003KT 10SM RA BKN044 OVC060 03/M04 A3042 RMK AO2 T00311038,KVUJ,2019-01-12T21:00:00Z,35.42,-80.15,3.1,-3.8,50,3,,10.0,30.41929,,,TRUE,TRUE,,,,,,RA,BKN,4400,OVC,6000,,,,,VFR,,,,,,,,,,,,SPECI,186.0
RJCC 122100Z 33008KT 9999 FEW015 M11/M15 Q1022 RMK 1ST015 A3020,RJCC,2019-01-12T21:00:00Z,42.77,141.67,-11.0,-15.0,330,8,,6.21,30.177166,,,,,,,,,,,FEW,1500,,,,,,,VFR,,,,,,,,,,,,METAR,30.0
RJFK 122100Z 36005KT 9999 FEW020 BKN045 06/06 Q1018 RMK 1CU020 6SC045 A3009,RJFK,2019-01-12T21:00:00Z,31.8,130.72,6.0,6.0,360,5,,6.21,30.059055,,,,,,,,,,,FEW,2000,BKN,4500,,,,,VFR,,,,,,,,,,,,METAR,275.0
RJNK 122100Z VRB02KT 9999 FEW030 BKN050 M01/M02 Q1021,RJNK,2019-01-12T21:00:00Z,36.37,136.42,-1.0,-2.0,0,2,,6.21,30.147638,,,,,,,,,,,FEW,3000,BKN,5000,,,,,VFR,,,,,,,,,,,,METAR,9.0
NZAA 122100Z AUTO 05010KT 020V080 9999 BKN026/// BKN037/// 24/18 Q1018 NOSIG,NZAA,2019-01-12T21:00:00Z,-37.02,174.8,24.0,18.0,50,10,,6.21,30.059055,,,TRUE,,,TRUE,,,,,BKN,2600,BKN,3700,,,,,MVFR,,,,,,,,,,,,METAR,6.0
NZWN 122100Z AUTO 36018KT 9999 SCT028/// 21/15 Q1016 NOSIG,NZWN,2019-01-12T21:00:00Z,-41.32,174.8,21.0,15.0,360,18,,6.21,30.0,,,TRUE,,,TRUE,,,,,SCT,2800,,,,,,,VFR,,,,,,,,,,,,METAR,7.0
TDCF 122100Z 09006KT 9999 FEW018 27/18 Q1015,TDCF,2019-01-12T21:00:00Z,15.33,-61.4,27.0,18.0,90,6,,6.21,29.970472,,,,,,,,,,,FEW,1800,,,,,,,VFR,,,,,,,,,,,,METAR,5.0
NZCH 122100Z AUTO 06010KT 9999 NCD 19/13 Q1010 NOSIG,NZCH,2019-01-12T21:00:00Z,-43.47,172.55,19.0,13.0,60,10,,6.21,29.822834,,,TRUE,,,TRUE,,,,,CLR,,,,,,,,VFR,,,,,,,,,,,,METAR,34.0
OTBD 122100Z 29004KT 240V320 CAVOK 16/11 Q1019 NOSIG,OTBD,2019-01-12T21:00:00Z,25.25,51.57,16.0,11.0,290,4,,6.21,30.088583,,,,,,TRUE,,,,,CAVOK,,,,,,,,VFR,,,,,,,,,,,,METAR,10.0
PADG 122100Z 03010KT 15SM SKC M26/M31 A2996,PADG,2019-01-12T21:00:00Z,68.03,-162.9,-26.0,-31.0,30,10,,15.0,29.958662,,,,,,,,,,,SKC,,,,,,,,VFR,,,,,,,,,,,,SPECI,297.0
KUNO 122100Z AUTO 05003KT 1 1/2SM -RA BR OVC003 01/01 A2991 RMK AO2 P0000 T00110006,KUNO,2019-01-12T21:00:00Z,36.88,-91.9,1.1,0.6,50,3,,1.5,29.911417,,,TRUE,TRUE,,,,,,-RA BR,OVC,300,,,,,,,LIFR,,,,,,0.005,,,,,,SPECI,372.0
YCAR 122100Z AUTO 18015KT 9999 // SCT013 21/19 Q1011,YCAR,2019-01-12T21:00:00Z,-24.88,113.67,21.0,19.0,180,15,,6.21,29.852362,,,TRUE,,,,,,,,SCT,1300,,,,,,,VFR,,,,,,,,,,,,METAR,8.0
NWWW 122100Z AUTO 10009KT 020V130 9999 SCT043 BKN120 27/22 Q1007 BECMG 14015G25KT,NWWW,2019-01-12T21:00:00Z,-22.02,166.22,27.0,22.0,100,9,,6.21,29.734253,,,TRUE,,,,,,,,SCT,4300,BKN,12000,,,,,VFR,,,,,,,,,,,,METAR,16.0
TNCA 122100Z 08017KT 9999 BKN020 28/22 Q1013 NOSIG,TNCA,2019-01-12T21:00:00Z,12.5,-70.0,28.0,22.0,80,17,,6.21,29.911417,,,,,,TRUE,,,,,BKN,2000,,,,,,,MVFR,,,,,,,,,,,,METAR,18.0
YWHA 122100Z AUTO 17011KT 9999 // NCD 21/13 Q1017,YWHA,2019-01-12T21:00:00Z,-33.07,137.52,21.0,13.0,170,11,,6.21,30.029528,,,TRUE,,,,,,,,CLR,,,,,,,,VFR,,,,,,,,,,,,METAR,13.0
YWGT 122100Z AUTO 15005KT 9999 // NCD 24/09 Q1015,YWGT,2019-01-12T21:00:00Z,-36.42,146.3,24.0,9.0,150,5,,6.21,29.970472,,,TRUE,,,,,,,,CLR,,,,,,,,VFR,,,,,,,,,,,,METAR,153.0
YTRE 122100Z AUTO 23004KT 200V280 9999 // NCD 22/18 Q1017,YTRE,2019-01-12T21:00:00Z,-31.88,152.52,22.0,18.0,230,4,,6.21,30.029528,,,TRUE,,,,,,,,CLR,,,,,,,,VFR,,,,,,,,,,,,METAR,12.0
YTNK 122100Z AUTO 00000KT 9999 // NCD 28/20 Q1011,YTNK,2019-01-12T21:00:00Z,-19.63,134.18,28.0,20.0,0,0,,6.21,29.852362,,,TRUE,,,,,,,,CLR,,,,,,,,VFR,,,,,,,,,,,,METAR,377.0
YTEF 122100Z AUTO 16009KT 9999 // NCD 35/12 Q1007,YTEF,2019-01-12T21:00:00Z,-21.72,122.23,35.0,12.0,160,9,,6.21,29.734253,,,TRUE,,,,,,,,CLR,,,,,,,,VFR,,,,,,,,,,,,METAR,296.0
YSWG 122100Z AUTO 08014KT 9999 // NCD 27/15 Q1015,YSWG,2019-01-12T21:00:00Z,-35.13,147.47,27.0,15.0,80,14,,6.21,29.970472,,,TRUE,,,,,,,,CLR,,,,,,,,VFR,,,,,,,,,,,,METAR,213.0
YSTW 122100Z AUTO 13008KT 9999 // NCD 26/16 Q1018 RF00.0/000.2,YSTW,2019-01-12T21:00:00Z,-31.07,150.85,26.0,16.0,130,8,,6.21,30.059055,,,TRUE,,,,,,,,CLR,,,,,,,,VFR,,,,,,,,,,,,METAR,410.0
YKRY 122100Z AUTO 12007KT 9999 // BKN006 21/18 Q1018,YKRY,2019-01-12T21:00:00Z,-26.57,151.83,21.0,18.0,120,7,,6.21,30.059055,,,TRUE,,,,,,,,BKN,600,,,,,,,IFR,,,,,,,,,,,,SPECI,434.0
YPKU 122100Z AUTO 34005KT 5000 // NCD 25/24 Q1007 RF00.0/016.2,YPKU,2019-01-12T21:00:00Z,-15.77,128.68,25.0,24.0,340,5,,3.11,29.734253,,,TRUE,,,,,,,,CLR,,,,,,,,MVFR,,,,,,,,,,,,METAR,45.0
AGGH 122100Z 16002KT 9999 HZ FEW014 FEW015CB SCT300 27/25 Q1005,AGGH,2019-01-12T21:00:00Z,-9.42,160.05,27.0,25.0,160,2,,6.21,29.675198,,,,,,,,,,HZ,FEW,1400,FEW,1500,SCT,30000,,,VFR,,,,,,,,,,,,METAR,9.0
YCCY 122100Z AUTO 13004KT 9999 // NCD 30/11 Q1010,YCCY,2019-01-12T21:00:00Z,-20.67,140.5,30.0,11.0,130,4,,6.21,29.822834,,,TRUE,,,,,,,,CLR,,,,,,,,VFR,,,,,,,,,,,,METAR,570.0
YCBP 122100Z AUTO 14009KT 9999 // NCD 24/04 Q1015,YCBP,2019-01-12T21:00:00Z,-29.03,134.72,24.0,4.0,140,9,,6.21,29.970472,,,TRUE,,,,,,,,CLR,,,,,,,,VFR,,,,,,,,,,,,METAR,226.0
YCBB 122100Z AUTO 36007KT 9999 // NCD 27/15 Q1019,YCBB,2019-01-12T21:00:00Z,-31.33,149.27,27.0,15.0,360,7,,6.21,30.088583,,,TRUE,,,,,,,,CLR,,,,,,,,VFR,,,,,,,,,,,,METAR,645.0
YCBA 122100Z AUTO 03008KT 9999 // NCD 31/12 Q1014,YCBA,2019-01-12T21:00:00Z,-31.53,145.8,31.0,12.0,30,8,,6.21,29.940945,,,TRUE,,,,,,,,CLR,,,,,,,,VFR,,,,,,,,,,,,METAR,221.0
YCAS 122100Z AUTO 28004KT //// // ////// 22/17 Q1018,YCAS,2019-01-12T21:00:00Z,-28.88,153.07,22.0,17.0,280,4,,,30.059055,,,TRUE,,,,,,,,,,,,,,,,,,,,,,,,,,,,METAR,26.0
YBWX 122100Z AUTO 20015KT //// // ////// 27/22 Q1008,YBWX,2019-01-12T21:00:00Z,-20.88,115.4,27.0,22.0,200,15,,,29.763779,,,TRUE,,,,,,,,,,,,,,,,,,,,,,,,,,,,METAR,6.0
YBWP 122100Z AUTO 10006KT 9999 // NCD 25/23 Q1008,YBWP,2019-01-12T21:00:00Z,-12.68,141.92,25.0,23.0,100,6,,6.21,29.763779,,,TRUE,,,,,,,,CLR,,,,,,,,VFR,,,,,,,,,,,,METAR,12.0
YBUD 122100Z AUTO 17008KT 9999 // NCD 24/20 Q1014,YBUD,2019-01-12T21:00:00Z,-24.9,152.32,24.0,20.0,170,8,,6.21,29.940945,,,TRUE,,,,,,,,CLR,,,,,,,,VFR,,,,,,,,,,,,METAR,82.0
YBTL 122100Z AUTO 21005KT 9999 // NCD 25/19 Q1011,YBTL,2019-01-12T21:00:00Z,-19.25,146.75,25.0,19.0,210,5,,6.21,29.852362,,,TRUE,,,,,,,,CLR,,,,,,,,VFR,,,,,,,,,,,,METAR,6.0
MKJP 122100Z 14010KT 9999 FEW018 29/19 Q1015,MKJP,2019-01-12T21:00:00Z,17.92,-76.78,29.0,19.0,140,10,,6.21,29.970472,,,,,,,,,,,FEW,1800,,,,,,,VFR,,,,,,,,,,,,METAR,3.0
YWLM 122100Z AUTO 19011KT 9999 // OVC006 22/21 Q1018,YWLM,2019-01-12T21:00:00Z,-32.8,151.83,22.0,21.0,190,11,,6.21,30.059055,,,TRUE,,,,,,,,OVC,600,,,,,,,IFR,,,,,,,,,,,,METAR,9.0
SOCA 122100Z AUTO 03010KT 9999 FEW024 BKN078 28/22 Q1012 NOSIG,SOCA,2019-01-12T21:00:00Z,4.82,-52.37,28.0,22.0,30,10,,6.21,29.88189,,,TRUE,,,TRUE,,,,,FEW,2400,BKN,7800,,,,,VFR,,,,,,,,,,,,METAR,9.0
FMMI 122100Z VRB02KT 9999 FEW017 BKN020 21/18 Q1019 NOSIG,FMMI,2019-01-12T21:00:00Z,-18.8,47.47,21.0,18.0,0,2,,6.21,30.088583,,,,,,TRUE,,,,,FEW,1700,BKN,2000,,,,,MVFR,,,,,,,,,,,,METAR,1276.0
SBPL 122100Z 15008KT 9999 FEW047 34/13 Q1011,SBPL,2019-01-12T21:00:00Z,-9.37,-40.57,34.0,13.0,150,8,,6.21,29.852362,,,,,,,,,,,FEW,4700,,,,,,,VFR,,,,,,,,,,,,METAR,375.0
UBBG 122100Z 21010KT 9999 FEW100 03/M09 Q1011 R30/CLRD// NOSIG,UBBG,2019-01-12T21:00:00Z,40.73,46.32,3.0,-9.0,210,10,,6.21,29.852362,,,,,,TRUE,,,,,FEW,10000,,,,,,,VFR,,,,,,,,,,,,METAR,330.0
TFFF 122100Z AUTO 10010KT CAVOK 27/19 Q1016 NOSIG,TFFF,2019-01-12T21:00:00Z,14.6,-61.0,27.0,19.0,100,10,,6.21,30.0,,,TRUE,,,TRUE,,,,,CAVOK,,,,,,,,VFR,,,,,,,,,,,,METAR,5.0
MNMG 122100Z 08016KT 9999 FEW025 32/19 Q1011 A2987 NOSIG,MNMG,2019-01-12T21:00:00Z,12.15,-86.17,32.0,19.0,80,16,,6.21,29.852362,,,,,,TRUE,,,,,FEW,2500,,,,,,,VFR,,,,,,,,,,,,METAR,59.0
UBBQ 122100Z 00000KT 5000 BR NSC M03/M06 Q1011 R16/CLRD// NOSIG RMK MT OP,UBBQ,2019-01-12T21:00:00Z,40.82,47.72,-3.0,-6.0,0,0,,3.11,29.852362,,,,,,TRUE,,,,BR,CLR,,,,,,,,MVFR,,,,,,,,,,,,METAR,338.0
TAPA 122100Z 07006KT 9999 FEW017 BKN036 25/21 Q1017 NOSIG,TAPA,2019-01-12T21:00:00Z,17.12,-61.78,25.0,21.0,70,6,,6.21,30.029528,,,,,,TRUE,,,,,FEW,1700,BKN,3600,,,,,VFR,,,,,,,,,,,,METAR,14.0
ORBI 122100Z 08006KT CAVOK 09/00 Q1017 NOSIG,ORBI,2019-01-12T21:00:00Z,33.27,44.23,9.0,0.0,80,6,,6.21,30.029528,,,,,,TRUE,,,,,CAVOK,,,,,,,,VFR,,,,,,,,,,,,METAR,35.0
MDPP 122100Z 07006KT 9999 FEW022 27/21 Q1017,MDPP,2019-01-12T21:00:00Z,19.75,-70.57,27.0,21.0,70,6,,6.21,30.029528,,,,,,,,,,,FEW,2200,,,,,,,VFR,,,,,,,,,,,,METAR,5.0
MDAB 122100Z 00000KT 9999 SCT018 25/23 Q1018 NOSIG,MDAB,2019-01-12T21:00:00Z,19.2,-69.43,25.0,23.0,0,0,,6.21,30.059055,,,,,,TRUE,,,,,SCT,1800,,,,,,,VFR,,,,,,,,,,,,METAR,35.0
MDCY 122100Z 04010KT 9999 FEW018 26/22 Q1018 NOSIG,MDCY,2019-01-12T21:00:00Z,19.27,-69.73,26.0,22.0,40,10,,6.21,30.059055,,,,,,TRUE,,,,,FEW,1800,,,,,,,VFR,,,,,,,,,,,,METAR,10.0
MDLR 122100Z 09006KT 9999 FEW014CB SCT016 SCT070 26/25 Q1017 RETSRA CB/SW/NW,MDLR,2019-01-12T21:00:00Z,18.45,-68.92,26.0,25.0,90,6,,6.21,30.029528,,,,,,,,,,,FEW,1400,SCT,1600,SCT,7000,,,VFR,,,,,,,,,,,,METAR,8.0
MDSD 122100Z 12004KT 9999 FEW016CB SCT017 SCT070 26/22 Q1016 CB/E/SE/NW,MDSD,2019-01-12T21:00:00Z,18.42,-69.67,26.0,22.0,120,4,,6.21,30.0,,,,,,,,,,,FEW,1600,SCT,1700,SCT,7000,,,VFR,,,,,,,,,,,,METAR,18.0
MDJB 122100Z 34006KT 8000 VCSH FEW014CB BKN016 BKN070 23/21 Q1018 RERA CB/SW/W,MDJB,2019-01-12T21:00:00Z,18.57,-69.98,23.0,21.0,340,6,,4.97,30.059055,,,,,,,,,,VCSH,FEW,1400,BKN,1600,BKN,7000,,,MVFR,,,,,,,,,,,,METAR,30.0
MDBH 122100Z 13016KT 9999 FEW021CB FEW023 SCT100 29/21 Q1016 CB/NW,MDBH,2019-01-12T21:00:00Z,18.25,-71.12,29.0,21.0,130,16,,6.21,30.0,,,,,,,,,,,FEW,2100,FEW,2300,SCT,10000,,,VFR,,,,,,,,,,,,METAR,3.0
MDPC 122100Z 07010KT 9999 SCT022 SCT090 27/21 Q1017 NOSIG,MDPC,2019-01-12T21:00:00Z,18.57,-68.37,27.0,21.0,70,10,,6.21,30.029528,,,,,,TRUE,,,,,SCT,2200,SCT,9000,,,,,VFR,,,,,,,,,,,,METAR,12.0
MDST 122100Z 14005KT 9999 FEW018CB SCT020 26/22 Q1017 CB/NW/SE/S,MDST,2019-01-12T21:00:00Z,19.4,-70.6,26.0,22.0,140,5,,6.21,30.029528,,,,,,,,,,,FEW,1800,SCT,2000,,,,,VFR,,,,,,,,,,,,METAR,184.0
TKPK 122100Z 04008KT 9999 FEW018 25/22 Q1017,TKPK,2019-01-12T21:00:00Z,17.3,-62.72,25.0,22.0,40,8,,6.21,30.029528,,,,,,,,,,,FEW,1800,,,,,,,VFR,,,,,,,,,,,,METAR,48.0
VOML 122100Z 07003KT 6000 NSC 23/19 Q1012 NOSIG,VOML,2019-01-12T21:00:00Z,12.97,74.88,23.0,19.0,70,3,,3.73,29.88189,,,,,,TRUE,,,,,CLR,,,,,,,,MVFR,,,,,,,,,,,,METAR,103.0
SBCP 122100Z 09016KT CAVOK 28/21 Q1014,SBCP,2019-01-12T21:00:00Z,-21.7,-41.3,28.0,21.0,90,16,,6.21,29.940945,,,,,,,,,,,CAVOK,,,,,,,,VFR,,,,,,,,,,,,METAR,11.0
SBPA 122100Z 13010KT 6000 OVC013 24/22 Q1014,SBPA,2019-01-12T21:00:00Z,-30.0,-51.17,24.0,22.0,130,10,,3.73,29.940945,,,,,,,,,,,OVC,1300,,,,,,,MVFR,,,,,,,,,,,,METAR,3.0
SESA 122100Z 24008KT CAVOK 29/23 Q1010,SESA,2019-01-12T21:00:00Z,-2.2,-80.97,29.0,23.0,240,8,,6.21,29.822834,,,,,,,,,,,CAVOK,,,,,,,,VFR,,,,,,,,,,,,METAR,8.0
SENL 122100Z 25004KT 9999 -RA BKN010 OVC100 23/23 Q1012 RMK A2989,SENL,2019-01-12T21:00:00Z,0.1,-76.87,23.0,23.0,250,4,,6.21,29.88189,,,,,,,,,,-RA,BKN,1000,OVC,10000,,,,,MVFR,,,,,,,,,,,,METAR,293.0
UGSB 122100Z 13014KT 9999 SCT140 08/M02 Q1009 NOSIG,UGSB,2019-01-12T21:00:00Z,41.62,41.6,8.0,-2.0,130,14,,6.21,29.793306,,,,,,TRUE,,,,,SCT,14000,,,,,,,VFR,,,,,,,,,,,,METAR,32.0
UGTB 122100Z 32007KT CAVOK 01/M04 Q1013 NOSIG,UGTB,2019-01-12T21:00:00Z,41.67,44.95,1.0,-4.0,320,7,,6.21,29.911417,,,,,,TRUE,,,,,CAVOK,,,,,,,,VFR,,,,,,,,,,,,METAR,495.0
GOBD 122100Z 35009KT CAVOK 23/12 Q1013 NOSIG,GOBD,2019-01-12T21:00:00Z,14.67,-17.07,23.0,12.0,350,9,,6.21,29.911417,,,,,,TRUE,,,,,CAVOK,,,,,,,,VFR,,,,,,,,,,,,METAR,88.0
SBJP 122100Z 14007KT 9999 FEW013 25/23 Q1013,SBJP,2019-01-12T21:00:00Z,-7.15,-34.95,25.0,23.0,140,7,,6.21,29.911417,,,,,,,,,,,FEW,1300,,,,,,,VFR,,,,,,,,,,,,METAR,66.0
LUKK 122100Z 28007KT 9999 OVC042 M02/M04 Q1010 R26/820795 NOSIG,LUKK,2019-01-12T21:00:00Z,46.93,28.93,-2.0,-4.0,280,7,,6.21,29.822834,,,,,,TRUE,,,,,OVC,4200,,,,,,,VFR,,,,,,,,,,,,METAR,122.0
SEQM 122100Z 01016KT 9999 FEW033 BKN300 20/11 Q1023 WS R36 NOSIG RMK A3020,SEQM,2019-01-12T21:00:00Z,-0.12,-78.35,20.0,11.0,10,16,,6.21,30.206694,,,,,,TRUE,,,,,FEW,3300,BKN,30000,,,,,VFR,,,,,,,,,,,,METAR,2400.0
FIMP 122100Z 08011KT 9999 SCT016 27/23 Q1016,FIMP,2019-01-12T21:00:00Z,-20.42,57.67,27.0,23.0,80,11,,6.21,30.0,,,,,,,,,,,SCT,1600,,,,,,,VFR,,,,,,,,,,,,METAR,57.0
SEGS 122100Z 12015KT 9999 FEW020 BKN070 30/21 Q1010 A2984,SEGS,2019-01-12T21:00:00Z,-0.45,-90.27,30.0,21.0,120,15,,6.21,29.822834,,,,,,,,,,,FEW,2000,BKN,7000,,,,,VFR,,,,,,,,,,,,METAR,16.0
SEMC 122100Z 02005KT 9999 VCSH SCT023 BKN100 21/21 Q1016 RMK A3001,SEMC,2019-01-12T21:00:00Z,-2.3,-78.12,21.0,21.0,20,5,,6.21,30.0,,,,,,,,,,VCSH,SCT,2300,BKN,10000,,,,,VFR,,,,,,,,,,,,METAR,1052.0
SESM 122100Z 15004KT 9999 SCT023 BKN090 23/19 Q1015 RMK A2999,SESM,2019-01-12T21:00:00Z,-1.5,-78.07,23.0,19.0,150,4,,6.21,29.970472,,,,,,,,,,,SCT,2300,BKN,9000,,,,,VFR,,,,,,,,,,,,METAR,1056.0
SECO 122100Z 03003KT 6000 -RA SCT023 OVC100 22/22 Q1012 RMK A2990,SECO,2019-01-12T21:00:00Z,-0.45,-76.98,22.0,22.0,30,3,,3.73,29.88189,,,,,,,,,,-RA,SCT,2300,OVC,10000,,,,,MVFR,,,,,,,,,,,,METAR,220.0
SEST 122100Z 17007KT 9999 SCT016 BKN040 26/23 Q1008 RMK A2979,SEST,2019-01-12T21:00:00Z,-0.9,-89.58,26.0,23.0,170,7,,6.21,29.763779,,,,,,,,,,,SCT,1600,BKN,4000,,,,,VFR,,,,,,,,,,,,METAR,6.0
SECA 122100Z 29013G24KT 240V320 9999 SCT040 27/17 Q1015,SECA,2019-01-12T21:00:00Z,-4.0,-79.37,27.0,17.0,290,13,24,6.21,29.970472,,,,,,,,,,,SCT,4000,,,,,,,VFR,,,,,,,,,,,,METAR,1121.0
SERO 122100Z 32010KT 9999 FEW013 BKN026 BKN080 29/21 Q1009,SERO,2019-01-12T21:00:00Z,-3.43,-79.98,29.0,21.0,320,10,,6.21,29.793306,,,,,,,,,,,FEW,1300,BKN,2600,BKN,8000,,,MVFR,,,,,,,,,,,,METAR,51.0
SETN 122100Z 20006KT 9999 -DZ FEW006 SCT016 BKN070 26/25 Q1010 A2984,SETN,2019-01-12T21:00:00Z,0.98,-79.63,26.0,25.0,200,6,,6.21,29.822834,,,,,,,,,,-DZ,FEW,600,SCT,1600,BKN,7000,,,VFR,,,,,,,,,,,,METAR,10.0
SEGU 122100Z 06003KT 9999 VCSH BKN023 SCT100 29/23 Q1009 NOSIG RMK A2980,SEGU,2019-01-12T21:00:00Z,-2.13,-79.87,29.0,23.0,60,3,,6.21,29.793306,,,,,,TRUE,,,,VCSH,BKN,2300,SCT,10000,,,,,MVFR,,,,,,,,,,,,METAR,9.0
SELT 122100Z 19010KT 9999 -TSRA BKN026 18/08 Q1026,SELT,2019-01-12T21:00:00Z,-0.92,-78.62,18.0,8.0,190,10,,6.21,30.295275,,,,,,,,,,-TSRA,BKN,2600,,,,,,,MVFR,,,,,,,,,,,,METAR,2785.0
SEMT 122100Z 27005KT 9999 SCT020 SCT026 30/23 Q1010 RMK A2983,SEMT,2019-01-12T21:00:00Z,-0.95,-80.67,30.0,23.0,270,5,,6.21,29.822834,,,,,,,,,,,SCT,2000,SCT,2600,,,,,VFR,,,,,,,,,,,,METAR,14.0
SPYL 122100Z 21015KT CAVOK 28/19 Q1010 RMK TX32.0 BIRD HAZARD RWY 17/35 PP000,SPYL,2019-01-12T21:00:00Z,-4.57,-81.25,28.0,19.0,210,15,,6.21,29.822834,,,,,,,,,,,CAVOK,,,,,,,,VFR,,,,,,,,,,,,METAR,90.0
SPTU 122100Z 34008KT 310V010 9999 FEW020 SCT150 29/22 Q1008 RMK BIRD HAZARD RWY 01/19 PP000,SPTU,2019-01-12T21:00:00Z,-12.62,-69.2,29.0,22.0,340,8,,6.21,29.763779,,,,,,,,,,,FEW,2000,SCT,15000,,,,,VFR,,,,,,,,,,,,METAR,266.0
SPST 122100Z 10004KT 9999 SCT020 31/21 Q1009 RMK BIRD HAZARD RWY 17/35 PP000,SPST,2019-01-12T21:00:00Z,-6.52,-76.37,31.0,21.0,100,4,,6.21,29.793306,,,,,,,,,,,SCT,2000,,,,,,,VFR,,,,,,,,,,,,METAR,282.0
SPMS 122100Z 09003KT 9999 SCT015 BKN100 28/24 Q1011 RMK BIRD HAZARD RWY09/27 PP000,SPMS,2019-01-12T21:00:00Z,-5.9,-76.12,28.0,24.0,90,3,,6.21,29.852362,,,,,,,,,,,SCT,1500,BKN,10000,,,,,VFR,,,,,,,,,,,,METAR,179.0
SPME 122100Z 30008KT 9999 FEW014 BKN030 29/21 Q1009 RMK BIRD HAZARD RWY 32/14 PP000,SPME,2019-01-12T21:00:00Z,-3.53,-80.4,29.0,21.0,300,8,,6.21,29.793306,,,,,,,,,,,FEW,1400,BKN,3000,,,,,MVFR,,,,,,,,,,,,METAR,27.0
SPLO 122100Z 14008KT CAVOK 24/16 Q1013 RMK TX 26.0 PP000,SPLO,2019-01-12T21:00:00Z,-17.7,-71.35,24.0,16.0,140,8,,6.21,29.911417,,,,,,,,,,,CAVOK,,,,,,,,VFR,,,,,,,,,,,,METAR,9.0
SPJR 122100Z 23007KT 9999 FEW030 BKN070 20/04 Q1025 RMK PP000,SPJR,2019-01-12T21:00:00Z,-7.12,-78.47,20.0,4.0,230,7,,6.21,30.265747,,,,,,,,,,,FEW,3000,BKN,7000,,,,,VFR,,,,,,,,,,,,METAR,2622.0
SPJL 122100Z 06013KT 9999 SCT015 BKN065 13/06 Q1030 RMK PP000,SPJL,2019-01-12T21:00:00Z,-15.47,-70.15,13.0,6.0,60,13,,6.21,30.413385,,,,,,,,,,,SCT,1500,BKN,6500,,,,,VFR,,,,,,,,,,,,METAR,3827.0
SPJI 122100Z 06005KT 9999 BKN025 31/25 Q1017 RMK TX32.3 PP000,SPJI,2019-01-12T21:00:00Z,-7.17,-76.72,31.0,25.0,60,5,,6.21,30.029528,,,,,,,,,,,BKN,2500,,,,,,,MVFR,,,,,,,,,,,,METAR,363.0
SPHO 122100Z 06008KT 030V100 9999 VCSH FEW040 BKN080 22/09 Q1022 RMK 8000N SH N/S PP000,SPHO,2019-01-12T21:00:00Z,-13.17,-74.22,22.0,9.0,60,8,,6.21,30.177166,,,,,,,,,,VCSH,FEW,4000,BKN,8000,,,,,VFR,,,,,,,,,,,,METAR,2749.0
SPGM 122100Z 00000KT 8000 -RA SCT030 OVC100 24/21 Q1014 RMK TX27.0 PP020,SPGM,2019-01-12T21:00:00Z,-9.28,-76.0,24.0,21.0,0,0,,4.97,29.940945,,,,,,,,,,-RA,SCT,3000,OVC,10000,,,,,MVFR,,,,,,,,,,,,METAR,665.0
SPCL 122100Z 01004KT 9999 SCT020 BKN070 27/23 Q1011 RMK BIRD HAZARD RWY 02/20 PP000,SPCL,2019-01-12T21:00:00Z,-8.38,-74.58,27.0,23.0,10,4,,6.21,29.852362,,,,,,,,,,,SCT,2000,BKN,7000,,,,,VFR,,,,,,,,,,,,METAR,149.0
SBRJ 122100Z 17010KT 9999 FEW030 FEW035TCU 29/23 Q1013,SBRJ,2019-01-12T21:00:00Z,-22.88,-43.17,29.0,23.0,170,10,,6.21,29.911417,,,,,,,,,,,FEW,3000,FEW,3500,,,,,VFR,,,,,,,,,,,,METAR,3.0
SCCI 122100Z 24025G35KT CAVOK 10/01 Q1005 NOSIG,SCCI,2019-01-12T21:00:00Z,-53.0,-70.83,10.0,1.0,240,25,35,6.21,29.675198,,,,,,TRUE,,,,,CAVOK,,,,,,,,VFR,,,,,,,,,,,,METAR,37.0
SCNT 122100Z 26016G26KT 9999 BKN040 BKN100 12/M02 Q1010,SCNT,2019-01-12T21:00:00Z,-51.67,-72.53,12.0,-2.0,260,16,26,6.21,29.822834,,,,,,,,,,,BKN,4000,BKN,10000,,,,,VFR,,,,,,,,,,,,METAR,67.0
SCVD 122100Z 23006KT 9999 FEW030 BKN046 19/12 Q1019,SCVD,2019-01-12T21:00:00Z,-39.65,-73.07,19.0,12.0,230,6,,6.21,30.088583,,,,,,,,,,,FEW,3000,BKN,4600,,,,,VFR,,,,,,,,,,,,METAR,14.0
SCTE 122100Z 16008KT 9999 SCT040 BKN083 14/10 Q1020 NOSIG,SCTE,2019-01-12T21:00:00Z,-41.42,-73.07,14.0,10.0,160,8,,6.21,30.11811,,,,,,TRUE,,,,,SCT,4000,BKN,8300,,,,,VFR,,,,,,,,,,,,METAR,86.0
SCQP 122100Z 21004KT 150V290 9999 SCT045 BKN100 20/13 Q1019,SCQP,2019-01-12T21:00:00Z,-38.92,-72.65,20.0,13.0,210,4,,6.21,30.088583,,,,,,,,,,,SCT,4500,BKN,10000,,,,,VFR,,,,,,,,,,,,METAR,97.0
SCJO 122100Z 21005KT 9999 -SHRA BKN025 BKN080 18/15 Q1019,SCJO,2019-01-12T21:00:00Z,-40.6,-73.03,18.0,15.0,210,5,,6.21,30.088583,,,,,,,,,,-SHRA,BKN,2500,BKN,8000,,,,,MVFR,,,,,,,,,,,,METAR,65.0
SCSE 122100Z 27012KT 9999 FEW018 20/12 Q1016,SCSE,2019-01-12T21:00:00Z,-29.92,-71.2,20.0,12.0,270,12,,6.21,30.0,,,,,,,,,,,FEW,1800,,,,,,,VFR,,,,,,,,,,,,METAR,146.0
SCDA 122100Z 21018KT CAVOK 24/16 Q1013,SCDA,2019-01-12T21:00:00Z,-20.52,-70.17,24.0,16.0,210,18,,6.21,29.911417,,,,,,,,,,,CAVOK,,,,,,,,VFR,,,,,,,,,,,,METAR,52.0
SCAT 122100Z 24013KT 200V270 CAVOK 21/10 Q1017,SCAT,2019-01-12T21:00:00Z,-27.27,-70.77,21.0,10.0,240,13,,6.21,30.029528,,,,,,,,,,,CAVOK,,,,,,,,VFR,,,,,,,,,,,,METAR,204.0
SCIE 122100Z 24012KT 9999 FEW012 SCT150 BKN200 19/13 Q1018,SCIE,2019-01-12T21:00:00Z,-36.77,-73.07,19.0,13.0,240,12,,6.21,30.059055,,,,,,,,,,,FEW,1200,SCT,15000,BKN,20000,,,VFR,,,,,,,,,,,,METAR,16.0
SCCF 122100Z 28018KT 9999 FEW060 22/01 Q1024,SCCF,2019-01-12T21:00:00Z,-22.5,-68.9,22.0,1.0,280,18,,6.21,30.236221,,,,,,,,,,,FEW,6000,,,,,,,VFR,,,,,,,,,,,,METAR,2312.0
SCBA 122100Z 32026G36KT 9999 FEW050 14/01 Q1013,SCBA,2019-01-12T21:00:00Z,-45.92,-71.67,14.0,1.0,320,26,36,6.21,29.911417,,,,,,,,,,,FEW,5000,,,,,,,VFR,,,,,,,,,,,,METAR,524.0
SCAR 122100Z 22010KT CAVOK 24/15 Q1014,SCAR,2019-01-12T21:00:00Z,-18.35,-70.32,24.0,15.0,220,10,,6.21,29.940945,,,,,,,,,,,CAVOK,,,,,,,,VFR,,,,,,,,,,,,METAR,59.0
SCFA 122100Z 19015KT 9999 FEW014 21/14 Q1015 NOSIG,SCFA,2019-01-12T21:00:00Z,-23.42,-70.42,21.0,14.0,190,15,,6.21,29.970472,,,,,,TRUE,,,,,FEW,1400,,,,,,,VFR,,,,,,,,,,,,METAR,120.0
SCIR 122100Z 33009KT 9999 VCSH SCT015 BKB020 BKN100 16/15 Q1019 RERA,SCIR,2019-01-12T21:00:00Z,-33.67,-78.93,16.0,15.0,330,9,,6.21,30.088583,,,,,,,,,,VCSH,SCT,1500,BKN,10000,,,,,VFR,,,,,,,,,,,,METAR,29.0
SCCY 122100Z 25010KT 200V300 9999 FEW033 15/02 Q1015,SCCY,2019-01-12T21:00:00Z,-45.57,-72.1,15.0,2.0,250,10,,6.21,29.970472,,,,,,,,,,,FEW,3300,,,,,,,VFR,,,,,,,,,,,,METAR,311.0
SCIC 122100Z 25008KT 9999 FEW040 BKN100 26/09 Q1015,SCIC,2019-01-12T21:00:00Z,-34.97,-71.22,26.0,9.0,250,8,,6.21,29.970472,,,,,,,,,,,FEW,4000,BKN,10000,,,,,VFR,,,,,,,,,,,,METAR,242.0
SCGE 122100Z 18010KT 9999 BKN040 22/07 Q1019,SCGE,2019-01-12T21:00:00Z,-37.38,-72.42,22.0,7.0,180,10,,6.21,30.088583,,,,,,,,,,,BKN,4000,,,,,,,VFR,,,,,,,,,,,,METAR,114.0
SCRM 122100Z 11011KT 9999 SCT006 BKN025 01/00 Q0982 NOSIG,SCRM,2019-01-12T21:00:00Z,-62.18,-58.98,1.0,0.0,110,11,,6.21,28.996063,,,,,,TRUE,,,,,SCT,600,BKN,2500,,,,,MVFR,,,,,,,,,,,,METAR,45.0
SCCH 122100Z 21010KT 9999 BKN070 24/06 Q1017,SCCH,2019-01-12T21:00:00Z,-36.57,-72.02,24.0,6.0,210,10,,6.21,30.029528,,,,,,,,,,,BKN,7000,,,,,,,VFR,,,,,,,,,,,,METAR,148.0
SCTN 122100Z AUTO 21008KT 180V240 //// R/////// // NCD 14/06 Q1020,SCTN,2019-01-12T21:00:00Z,-42.92,-72.7,14.0,6.0,210,8,,,30.11811,,,TRUE,,,,,,,,CLR,,,,,,,,,,,,,,,,,,,,METAR,4.0
SCPQ 122100Z AUTO 08006KT 050V150 //// R35///// BKN028 BKN037 14/08 Q1020,SCPQ,2019-01-12T21:00:00Z,-42.33,-73.72,14.0,8.0,80,6,,,30.11811,,,TRUE,,,,,,,,BKN,2800,BKN,3700,,,,,,,,,,,,,,,,,METAR,5.0
SCIP 122100Z 10010KT 9999 SCT020 BKN040 25/19 Q1019 NOSIG,SCIP,2019-01-12T21:00:00Z,-27.17,-109.43,25.0,19.0,100,10,,6.21,30.088583,,,,,,TRUE,,,,,SCT,2000,BKN,4000,,,,,VFR,,,,,,,,,,,,METAR,69.0
OTHH 122100Z 29004KT CAVOK 16/10 Q1019 NOSIG,OTHH,2019-01-12T21:00:00Z,25.25,51.6,16.0,10.0,290,4,,6.21,30.088583,,,,,,TRUE,,,,,CAVOK,,,,,,,,VFR,,,,,,,,,,,,METAR,0.0
OJAM 122100Z 00000KT 5000 HZ NSC 09/03 Q1010 NOSIG,OJAM,2019-01-12T21:00:00Z,31.97,35.97,9.0,3.0,0,0,,3.11,29.822834,,,,,,TRUE,,,,HZ,CLR,,,,,,,,MVFR,,,,,,,,,,,,METAR,773.0
OJAQ 122100Z 19015KT 9999 FEW030 SCT100 19/08 Q1009 NOSIG,OJAQ,2019-01-12T21:00:00Z,29.62,35.02,19.0,8.0,190,15,,6.21,29.793306,,,,,,TRUE,,,,,FEW,3000,SCT,10000,,,,,VFR,,,,,,,,,,,,METAR,51.0
AGGM 122100Z 18003KT 9999 HZ FEW016 SCT300 29/23 Q1006,AGGM,2019-01-12T21:00:00Z,-8.32,157.27,29.0,23.0,180,3,,6.21,29.704725,,,,,,,,,,HZ,FEW,1600,SCT,30000,,,,,VFR,,,,,,,,,,,,METAR,6.0
SAWG 122100Z 23028G42KT 9999 SCT040 14/M04 Q1004,SAWG,2019-01-12T21:00:00Z,-51.62,-69.32,14.0,-4.0,230,28,42,6.21,29.64567,,,,,,,,,,,SCT,4000,,,,,,,VFR,,,,,,,,,,,,METAR,19.0
CYGE 122100Z 15004KT 8SM FEW005 SCT030 BKN034 OVC100 01/M01 A3028 RMK SC1SC2SC4AC1 SLP289,CYGE,2019-01-12T21:00:00Z,51.3,-116.98,1.0,-1.0,150,4,,8.0,30.280512,1028.9,,,,,,,,,,FEW,500,SCT,3000,BKN,3400,OVC,10000,VFR,,,,,,,,,,,,METAR,785.0
KMRN 122100Z AUTO 07003KT 10SM OVC040 04/M06 A3039 RMK AO2 T00351056,KMRN,2019-01-12T21:00:00Z,35.82,-81.62,3.5,-5.6,70,3,,10.0,30.389763,,,TRUE,TRUE,,,,,,,OVC,4000,,,,,,,VFR,,,,,,,,,,,,SPECI,387.0
WBGG 122100Z VRB02KT 3000 TSRA FEW015CB SCT020 BKN150 25/24 Q1009 NOSIG,WBGG,2019-01-12T21:00:00Z,1.47,110.35,25.0,24.0,0,2,,1.86,29.793306,,,,,,TRUE,,,,TSRA,FEW,1500,SCT,2000,BKN,15000,,,IFR,,,,,,,,,,,,METAR,27.0
WMSA 122100Z VRB02KT 9000 FEW025 BKN280 26/24 Q1010,WMSA,2019-01-12T21:00:00Z,3.13,101.55,26.0,24.0,0,2,,5.59,29.822834,,,,,,,,,,,FEW,2500,BKN,28000,,,,,VFR,,,,,,,,,,,,METAR,27.0
WMKK 122100Z 03004KT 350V060 9999 FEW017CB BKN280 26/22 Q1009 NOSIG,WMKK,2019-01-12T21:00:00Z,2.75,101.72,26.0,22.0,30,4,,6.21,29.793306,,,,,,TRUE,,,,,FEW,1700,BKN,28000,,,,,VFR,,,,,,,,,,,,METAR,22.0
WBSB 122100Z 04001KT 9999 FEW014 BKN300 26/26 Q1009 NOSIG,WBSB,2019-01-12T21:00:00Z,4.92,114.92,26.0,26.0,40,1,,6.21,29.793306,,,,,,TRUE,,,,,FEW,1400,BKN,30000,,,,,VFR,,,,,,,,,,,,METAR,15.0
WBKS 122100Z 03005KT 350V050 9999 FEW015 BKN280 26/24 Q1009,WBKS,2019-01-12T21:00:00Z,5.9,118.07,26.0,24.0,30,5,,6.21,29.793306,,,,,,,,,,,FEW,1500,BKN,28000,,,,,VFR,,,,,,,,,,,,METAR,13.0
WBKL 122100Z 01003KT 330V070 9999 FEW013 SCT140 BKN300 27/25 Q1009,WBKL,2019-01-12T21:00:00Z,5.28,115.25,27.0,25.0,10,3,,6.21,29.793306,,,,,,,,,,,FEW,1300,SCT,14000,BKN,30000,,,VFR,,,,,,,,,,,,METAR,30.0
WBGY 122100Z AUTO 00000KT //// // 24/24 Q1009,WBGY,2019-01-12T21:00:00Z,1.22,111.43,24.0,24.0,0,0,,,29.793306,,,TRUE,,,,,,,,,,,,,,,,,,,,,,,,,,,,METAR,34.0
WBGS 122100Z 08003KT 3000 BR SCT000 BKN150 24/24 Q1009,WBGS,2019-01-12T21:00:00Z,2.27,111.98,24.0,24.0,80,3,,1.86,29.793306,,,,,,,,,,BR,SCT,0,BKN,15000,,,,,IFR,,,,,,,,,,,,METAR,8.0
WBGR 122100Z 00000KT 9999 FEW016 BKN150 25/25 Q1008,WBGR,2019-01-12T21:00:00Z,4.32,113.97,25.0,25.0,0,0,,6.21,29.763779,,,,,,,,,,,FEW,1600,BKN,15000,,,,,VFR,,,,,,,,,,,,METAR,18.0
WBGB 122100Z VRB01KT 9999 FEW015CB SCT016 BKN150 25/24 Q1009,WBGB,2019-01-12T21:00:00Z,3.12,113.02,25.0,24.0,0,1,,6.21,29.793306,,,,,,,,,,,FEW,1500,SCT,1600,BKN,15000,,,VFR,,,,,,,,,,,,METAR,5.0
WBKT 122100Z 07004KT 340V120 9999 FEW013 SCT140 BKN270 27/23 Q1010,WBKT,2019-01-12T21:00:00Z,6.92,116.82,27.0,23.0,70,4,,6.21,29.822834,,,,,,,,,,,FEW,1300,SCT,14000,BKN,27000,,,VFR,,,,,,,,,,,,METAR,5.0
CMFM 122100Z AUTO 01005KT M19/M22 RMK AO1 SOG 64 1027 SLP287 T11881220,CMFM,2019-01-12T21:00:00Z,47.32,-71.15,-18.8,-22.0,10,5,,,,1028.7,,TRUE,TRUE,,,,,,,,,,,,,,,,,,,,,,,,,,,METAR,672.0
CXZC 122100Z AUTO 25003KT M20/M23 RMK AO1 SOG 48 5001 SLP392 T12011227,CXZC,2019-01-12T21:00:00Z,51.3,-80.62,-20.1,-22.7,250,3,,,,1039.2,,TRUE,TRUE,,,,,,,,,,,,,,,,,,,,,,,,,,,METAR,9.0
CXBI 122100Z AUTO 05005KT M09/M18 RMK AO1 SLP352 T10921181 58005,CXBI,2019-01-12T21:00:00Z,44.48,-79.55,-9.2,-18.1,50,5,,,,1035.2,,TRUE,TRUE,,,,,,,,,,,,,,,,-0.5,,,,,,,,,,,METAR,289.0
CWKK 122100Z AUTO 31002KT M14/M19 RMK AO1 SOG 38 6016 SLP377 T11421194,CWKK,2019-01-12T21:00:00Z,49.72,-88.33,-14.2,-19.4,310,2,,,,1037.7,,TRUE,TRUE,,,,,,,,,,,,,,,,,,,,,,,,,,,METAR,260.0
CTNK 122100Z AUTO 32001KT M13/M20 RMK AO1 SOG 45 8001 SLP355 T11291204,CTNK,2019-01-12T21:00:00Z,45.53,-78.27,-12.9,-20.4,320,1,,,,1035.5,,TRUE,TRUE,,,,,,,,,,,,,,,,,,,,,,,,,,,METAR,410.0
CWBU 122100Z AUTO 21010KT M08/M12 RMK AO1 SOG 26 5012 SLP204 T10821115,CWBU,2019-01-12T21:00:00Z,53.33,-104.02,-8.2,-11.5,210,10,,,,1020.4,,TRUE,TRUE,,,,,,,,,,,,,,,,,,,,,,,,,,,METAR,373.0
WBKW 122100Z 00000KT 9999 FEW017 BKN140 24/23 Q1009,WBKW,2019-01-12T21:00:00Z,4.32,118.12,24.0,23.0,0,0,,6.21,29.793306,,,,,,,,,,,FEW,1700,BKN,14000,,,,,VFR,,,,,,,,,,,,METAR,20.0
CPBT 122100Z AUTO 25017KT 12/M11 RMK AO1 PK WND 25021/2020 T01161113,CPBT,2019-01-12T21:00:00Z,49.57,-113.05,11.6,-11.3,250,17,,,,,,TRUE,TRUE,,,,,,,,,,,,,,,,,,,,,,,,,,,METAR,980.0
CMGB 122100Z AUTO 24005KT M15/M20 RMK AO1 SOG 16 1008 SLP346 T11491202,CMGB,2019-01-12T21:00:00Z,45.37,-72.77,-14.9,-20.2,240,5,,,,1034.6,,TRUE,TRUE,,,,,,,,,,,,,,,,,,,,,,,,,,,METAR,86.0
CPEH 122100Z AUTO 32002KT 13/M08 RMK AO1 T01281076,CPEH,2019-01-12T21:00:00Z,50.18,-112.43,12.8,-7.6,320,2,,,,,,TRUE,TRUE,,,,,,,,,,,,,,,,,,,,,,,,,,,METAR,801.0
CPIR 122100Z AUTO 26009KT 15/M12 RMK AO1 T01481120,CPIR,2019-01-12T21:00:00Z,49.9,-112.73,14.8,-12.0,260,9,,,,,,TRUE,TRUE,,,,,,,,,,,,,,,,,,,,,,,,,,,METAR,858.0
CPFI 122100Z AUTO 28004KT 13/M08 RMK AO1 T01301082,CPFI,2019-01-12T21:00:00Z,49.8,-112.03,13.0,-8.2,280,4,,,,,,TRUE,TRUE,,,,,,,,,,,,,,,,,,,,,,,,,,,METAR,833.0
CPRY 122100Z AUTO 25009KT 15/M12 RMK AO1 T01461117,CPRY,2019-01-12T21:00:00Z,49.48,-112.68,14.6,-11.7,250,9,,,,,,TRUE,TRUE,,,,,,,,,,,,,,,,,,,,,,,,,,,METAR,937.0
CPST 122100Z AUTO 22003KT 05/M04 RMK AO1 T00471041,CPST,2019-01-12T21:00:00Z,51.03,-113.28,4.7,-4.1,220,3,,,,,,TRUE,TRUE,,,,,,,,,,,,,,,,,,,,,,,,,,,METAR,967.0
CPSV 122100Z AUTO 21014KT 07/M07 RMK AO1 T00701068,CPSV,2019-01-12T21:00:00Z,49.92,-110.92,7.0,-6.8,210,14,,,,,,TRUE,TRUE,,,,,,,,,,,,,,,,,,,,,,,,,,,METAR,766.0
CPRO 122100Z AUTO 23002KT 05/M04 RMK AO1 T00501035,CPRO,2019-01-12T21:00:00Z,50.83,-112.05,5.0,-3.5,230,2,,,,,,TRUE,TRUE,,,,,,,,,,,,,,,,,,,,,,,,,,,METAR,714.0
CXFM 122100Z AUTO 16007KT 08/M04 RMK AO1 T00791040,CXFM,2019-01-12T21:00:00Z,49.48,-111.48,7.9,-4.0,160,7,,,,,,TRUE,TRUE,,,,,,,,,,,,,,,,,,,,,,,,,,,METAR,881.0
CPXL 122100Z AUTO 18006KT 08/M06 RMK AO1 T00751059,CPXL,2019-01-12T21:00:00Z,49.87,-111.38,7.5,-5.9,180,6,,,,,,TRUE,TRUE,,,,,,,,,,,,,,,,,,,,,,,,,,,METAR,799.0
CXHP 122100Z AUTO 08003KT M05/M08 RMK AO1 T10531083,CXHP,2019-01-12T21:00:00Z,55.4,-116.48,-5.3,-8.3,80,3,,,,,,TRUE,TRUE,,,,,,,,,,,,,,,,,,,,,,,,,,,METAR,602.0
CXHD 122100Z AUTO 11003KT M02/M07 RMK AO1 T10201068,CXHD,2019-01-12T21:00:00Z,53.18,-112.25,-2.0,-6.8,110,3,,,,,,TRUE,TRUE,,,,,,,,,,,,,,,,,,,,,,,,,,,METAR,688.0
CXMG 122100Z AUTO 17005KT M02/M04 RMK AO1 T10191036,CXMG,2019-01-12T21:00:00Z,56.97,-117.45,-1.9,-3.6,170,5,,,,,,TRUE,TRUE,,,,,,,,,,,,,,,,,,,,,,,,,,,METAR,457.0
CXPL 122100Z AUTO 04001KT M02/M06 RMK AO1 T10241058,CXPL,2019-01-12T21:00:00Z,51.13,-111.7,-2.4,-5.8,40,1,,,,,,TRUE,TRUE,,,,,,,,,,,,,,,,,,,,,,,,,,,METAR,750.0
CXSL 122100Z AUTO 00000KT M02/M10 RMK AO1 T10181099,CXSL,2019-01-12T21:00:00Z,54.28,-112.5,-1.8,-9.9,0,0,,,,,,TRUE,TRUE,,,,,,,,,,,,,,,,,,,,,,,,,,,METAR,680.0
NGTA 122100Z 01006KT 9999 FEW020 BKN300 30/25 Q1006,NGTA,2019-01-12T21:00:00Z,1.37,173.13,30.0,25.0,10,6,,6.21,29.704725,,,,,,,,,,,FEW,2000,BKN,30000,,,,,VFR,,,,,,,,,,,,METAR,2.0
GMFF 122100Z 17004KT CAVOK 03/M02 Q1025 NOSIG,GMFF,2019-01-12T21:00:00Z,33.92,-4.97,3.0,-2.0,170,4,,6.21,30.265747,,,,,,TRUE,,,,,CAVOK,,,,,,,,VFR,,,,,,,,,,,,METAR,579.0
CXVW 122100Z AUTO 16006KT M00/M03 RMK AO1 T10031030,CXVW,2019-01-12T21:00:00Z,55.1,-117.2,-0.3,-3.0,160,6,,,,,,TRUE,TRUE,,,,,,,,,,,,,,,,,,,,,,,,,,,METAR,698.0
CXSP 122100Z AUTO 21004KT M09/M13 RMK AO1 T10881127,CXSP,2019-01-12T21:00:00Z,54.02,-111.27,-8.8,-12.7,210,4,,,,,,TRUE,TRUE,,,,,,,,,,,,,,,,,,,,,,,,,,,METAR,649.0
CXBK 122100Z AUTO 14013KT M07/M10 RMK AO1 SOG 02 6023 SLP212 T10651098,CXBK,2019-01-12T21:00:00Z,50.2,-104.7,-6.5,-9.8,140,13,,,,1021.2,,TRUE,TRUE,,,,,,,,,,,,,,,,,,,,,,,,,,,METAR,580.0
CXEA 122100Z AUTO 09003KT M12/M14 RMK AO1 SOG 34 6017 SLP347 T11211143,CXEA,2019-01-12T21:00:00Z,50.63,-93.22,-12.1,-14.3,90,3,,,,1034.7,,TRUE,TRUE,,,,,,,,,,,,,,,,,,,,,,,,,,,METAR,355.0
CXDW 122100Z AUTO 19005KT M07/M10 RMK AO1 SOG 04 7015 SLP312 T10741100,CXDW,2019-01-12T21:00:00Z,49.4,-98.32,-7.4,-10.0,190,5,,,,1031.2,,TRUE,TRUE,,,,,,,,,,,,,,,,,,,,,,,,,,,METAR,341.0
CXCA 122100Z AUTO 24002KT M10/M20 RMK AO1 SOG 20 6016 SLP386 T10981203,CXCA,2019-01-12T21:00:00Z,49.15,-88.35,-9.8,-20.3,240,2,,,,1038.6,,TRUE,TRUE,,,,,,,,,,,,,,,,,,,,,,,,,,,METAR,228.0
CXBO 122100Z AUTO 26011G18KT RMK AO1 PK WND 26021/2012,CXBO,2019-01-12T21:00:00Z,46.83,-71.2,,,260,11,18,,,,,TRUE,TRUE,,,,,,,,,,,,,,,,,,,,,,,,,,,METAR,100.0
CXKT 122100Z AUTO 27009G15KT M11/M14 RMK AO1 SOG 08 2019 PK WND 27020/2031 SLP214 T11121135,CXKT,2019-01-12T21:00:00Z,45.07,-64.48,-11.2,-13.5,270,9,15,,,1021.4,,TRUE,TRUE,,,,,,,,,,,,,,,,,,,,,,,,,,,METAR,49.0
LFVP 122100Z 23026KT 9999 BKN027 M03/M08 Q1016 NOSIG,LFVP,2019-01-12T21:00:00Z,46.77,-56.18,-3.0,-8.0,230,26,,6.21,30.0,,,,,,TRUE,,,,,BKN,2700,,,,,,,MVFR,,,,,,,,,,,,METAR,8.0
LEMO 122100Z 05002KT CAVOK 05/00 Q1028 NOSIG,LEMO,2019-01-12T21:00:00Z,37.17,-5.62,5.0,0.0,50,2,,6.21,30.35433,,,,,,TRUE,,,,,CAVOK,,,,,,,,VFR,,,,,,,,,,,,METAR,88.0
SBGR 122100Z 16007KT 9999 SCT030 25/21 Q1018,SBGR,2019-01-12T21:00:00Z,-23.42,-46.47,25.0,21.0,160,7,,6.21,30.059055,,,,,,,,,,,SCT,3000,,,,,,,VFR,,,,,,,,,,,,METAR,750.0
CXMM 122100Z AUTO 02002KT M04/M10 RMK AO1 SOG 27 3011 SLP155 T10431103,CXMM,2019-01-12T21:00:00Z,56.65,-111.22,-4.3,-10.3,20,2,,,,1015.5,,TRUE,TRUE,,,,,,,,,,,,,,,,,,,,,,,,,,,METAR,369.0
CXNM 122100Z AUTO 27014G19KT M15/M16 RMK AO1 SOG 217 PK WND 26020/2049 T11521163,CXNM,2019-01-12T21:00:00Z,46.82,-60.67,-15.2,-16.3,270,14,19,,,,,TRUE,TRUE,,,,,,,,,,,,,,,,,,,,,,,,,,,METAR,439.0
CXRH 122100Z AUTO 16005KT RMK AO1,CXRH,2019-01-12T21:00:00Z,49.57,-57.88,,,160,5,,,,,,TRUE,TRUE,,,,,,,,,,,,,,,,,,,,,,,,,,,METAR,68.0
CXSH 122100Z AUTO 28005KT M12/M20 RMK AO1 SLP328 T11151197 53014,CXSH,2019-01-12T21:00:00Z,46.58,-72.73,-11.5,-19.7,280,5,,,,1032.8,,TRUE,TRUE,,,,,,,,,,,,,,,,1.4,,,,,,,,,,,METAR,110.0
CWKO 122100Z AUTO 19014KT M04/M06 RMK AO1 SOG 15 6016 PK WND 20020/2025 SLP229 T10371063,CWKO,2019-01-12T21:00:00Z,49.17,-105.97,-3.7,-6.3,190,14,,,,1022.9,,TRUE,TRUE,,,,,,,,,,,,,,,,,,,,,,,,,,,METAR,917.0
CWGY 122100Z AUTO 02/M06 RMK AO1 SLP198 T00221057 53007,CWGY,2019-01-12T21:00:00Z,51.67,-110.2,2.2,-5.7,,,,,,1019.8,,TRUE,TRUE,,,,,,,,,,,,,,,,0.7,,,,,,,,,,,METAR,707.0
CWGX 122100Z AUTO 20013KT M12/M14 RMK AO1 SOG 17 6046 PK WND 21020/2018 SLP210 T11161144,CWGX,2019-01-12T21:00:00Z,56.35,-94.7,-11.6,-14.4,200,13,,,,1021.0,,TRUE,TRUE,,,,,,,,,,,,,,,,,,,,,,,,,,,METAR,145.0
CWMM 122100Z AUTO 10002KT 09/03 RMK AO1 SLP163 T00910029 50000,CWMM,2019-01-12T21:00:00Z,49.22,-122.68,9.1,2.9,100,2,,,,1016.3,,TRUE,TRUE,,,,,,,,,,,,,,,,0.0,,,,,,,,,,,METAR,5.0
CWLM 122100Z AUTO 04007KT 10/03 RMK AO1 SLP144 T00970030 58011,CWLM,2019-01-12T21:00:00Z,48.42,-123.32,9.7,3.0,40,7,,,,1014.4,,TRUE,TRUE,,,,,,,,,,,,,,,,-1.1,,,,,,,,,,,METAR,70.0
CWLE 122100Z AUTO 23007KT 04/M04 RMK AO1 SOG 14 5008 SLP187 T00371038,CWLE,2019-01-12T21:00:00Z,50.95,-107.15,3.7,-3.8,230,7,,,,1018.7,,TRUE,TRUE,,,,,,,,,,,,,,,,,,,,,,,,,,,METAR,665.0
CWKX 122100Z AUTO 07009KT M13/M16 RMK AO1 SOG 38 0003 SLP202 T11271158,CWKX,2019-01-12T21:00:00Z,58.43,-130.02,-12.7,-15.8,70,9,,,,1020.2,,TRUE,TRUE,,,,,,,,,,,,,,,,,,,,,,,,,,,METAR,793.0
CWJI 122100Z AUTO 21007KT 04/M06 RMK AO1 SLP210 T00441057 56018,CWJI,2019-01-12T21:00:00Z,49.72,-105.92,4.4,-5.7,210,7,,,,1021.0,,TRUE,TRUE,,,,,,,,,,,,,,,,-1.8,,,,,,,,,,,METAR,724.0
CWWE 122100Z AUTO 27008KT M09/M15 RMK AO1 PK WND 29018/2002 SLP227 T10941148 53020,CWWE,2019-01-12T21:00:00Z,43.97,-64.67,-9.4,-14.8,270,8,,,,1022.7,,TRUE,TRUE,,,,,,,,,,,,,,,,2.0,,,,,,,,,,,METAR,9.0
CWSF 122100Z AUTO 26018G26KT M07/M09 RMK AO1 2027 PK WND 27033/2019 SLP161 T10701090 50002,CWSF,2019-01-12T21:00:00Z,49.25,-65.32,-7.0,-9.0,260,18,26,,,1016.1,,TRUE,TRUE,,,,,,,,,,,,,,,,0.2,,,,,,,,,,,METAR,29.0
CWRA 122100Z AUTO 24015KT RMK AO1 PK WND 24020/2044 50002,CWRA,2019-01-12T21:00:00Z,46.63,-53.07,,,240,15,,,,,,TRUE,TRUE,,,,,,,,,,,,,,,,0.2,,,,,,,,,,,METAR,28.0
CWBY 122100Z AUTO 28006KT M05/M06 RMK AO1 SOG 23 1023 SLP133 T10481064,CWBY,2019-01-12T21:00:00Z,49.82,-64.28,-4.8,-6.4,280,6,,,,1013.3,,TRUE,TRUE,,,,,,,,,,,,,,,,,,,,,,,,,,,METAR,53.0
CWER 122100Z AUTO 23017KT RMK AO1 PK WND 23024/2001,CWER,2019-01-12T21:00:00Z,47.0,-70.82,,,230,17,,,,,,TRUE,TRUE,,,,,,,,,,,,,,,,,,,,,,,,,,,METAR,5.0
CWSS 122100Z AUTO 29008KT M12/M17 RMK AO1 SOG 09 3020 PK WND 30017/2002 SLP248 T11191172,CWSS,2019-01-12T21:00:00Z,45.2,-67.25,-11.9,-17.2,290,8,,,,1024.8,,TRUE,TRUE,,,,,,,,,,,,,,,,,,,,,,,,,,,METAR,26.0
CWBV 122100Z AUTO 29014G20KT M08/M14 RMK AO1 PK WND 28020/2019 SLP195 T10801141 53015,CWBV,2019-01-12T21:00:00Z,44.82,-62.32,-8.0,-14.1,290,14,20,,,1019.5,,TRUE,TRUE,,,,,,,,,,,,,,,,1.5,,,,,,,,,,,METAR,10.0
CZZJ 122100Z AUTO 26004KT M01/M05 RMK AO1 SOG 27 3002 SLP192 T10121052,CZZJ,2019-01-12T21:00:00Z,53.58,-116.47,-1.2,-5.2,260,4,,,,1019.2,,TRUE,TRUE,,,,,,,,,,,,,,,,,,,,,,,,,,,METAR,927.0
CZMJ 122100Z AUTO 16010KT M00/M06 RMK AO1 SLP216 T10041057 56019,CZMJ,2019-01-12T21:00:00Z,50.33,-105.57,-0.4,-5.7,160,10,,,,1021.6,,TRUE,TRUE,,,,,,,,,,,,,,,,-1.9,,,,,,,,,,,METAR,577.0
CZKD 122100Z AUTO 22010G17KT M11/M13 RMK AO1 SOG 36 6037 PK WND 21021/2001 SLP196 T11091129,CZKD,2019-01-12T21:00:00Z,56.03,-96.52,-10.9,-12.9,220,10,17,,,1019.6,,TRUE,TRUE,,,,,,,,,,,,,,,,,,,,,,,,,,,METAR,183.0
CXZV 122100Z AUTO 32006KT M06/M10 RMK AO1 SOG 70 1026 SLP163 T10581102,CXZV,2019-01-12T21:00:00Z,50.22,-66.25,-5.8,-10.2,320,6,,,,1016.3,,TRUE,TRUE,,,,,,,,,,,,,,,,,,,,,,,,,,,METAR,52.0
CXTO 122100Z AUTO M05/M13 RMK AO1 SOG 01 7008 SLP338 T10451126,CXTO,2019-01-12T21:00:00Z,43.67,-79.4,-4.5,-12.6,,,,,,1033.8,,TRUE,TRUE,,,,,,,,,,,,,,,,,,,,,,,,,,,METAR,113.0
CXRL 122100Z AUTO 34002KT M06/M10 RMK AO1 T10601095,CXRL,2019-01-12T21:00:00Z,54.5,-111.7,-6.0,-9.5,340,2,,,,,,TRUE,TRUE,,,,,,,,,,,,,,,,,,,,,,,,,,,METAR,585.0
CXLB 122100Z AUTO 26015G21KT M08/M13 RMK AO1 PK WND 26026/2006 SLP211 T10831129 53021,CXLB,2019-01-12T21:00:00Z,44.37,-64.3,-8.3,-12.9,260,15,21,,,1021.1,,TRUE,TRUE,,,,,,,,,,,,,,,,2.1,,,,,,,,,,,METAR,4.0
CXKM 122100Z AUTO 21003KT 01/M06 RMK AO1 T00091056,CXKM,2019-01-12T21:00:00Z,52.82,-111.85,0.9,-5.6,210,3,,,,,,TRUE,TRUE,,,,,,,,,,,,,,,,,,,,,,,,,,,METAR,675.0
CXKI 122100Z AUTO M19/M22 RMK AO1 SOG 49 8002 SLP387 T11941224,CXKI,2019-01-12T21:00:00Z,48.22,-80.0,-19.4,-22.4,,,,,,1038.7,,TRUE,TRUE,,,,,,,,,,,,,,,,,,,,,,,,,,,METAR,324.0
CXHR 122100Z AUTO 29007KT 06/M05 RMK AO1 T00631047,CXHR,2019-01-12T21:00:00Z,51.18,-112.5,6.3,-4.7,290,7,,,,,,TRUE,TRUE,,,,,,,,,,,,,,,,,,,,,,,,,,,METAR,971.0
CXCP 122100Z AUTO 16005KT 14/M12 RMK AO1 T01381120,CXCP,2019-01-12T21:00:00Z,50.28,-113.35,13.8,-12.0,160,5,,,,,,TRUE,TRUE,,,,,,,,,,,,,,,,,,,,,,,,,,,METAR,1006.0
CXCD 122100Z AUTO 08002KT M02/M03 RMK AO1 T10241033,CXCD,2019-01-12T21:00:00Z,56.32,-119.75,-2.4,-3.3,80,2,,,,,,TRUE,TRUE,,,,,,,,,,,,,,,,,,,,,,,,,,,METAR,630.0
CXBR 122100Z AUTO 26019KT 10/M13 RMK AO1 PK WND 26023/2052 T00981127,CXBR,2019-01-12T21:00:00Z,49.62,-113.82,9.8,-12.7,260,19,,,,,,TRUE,TRUE,,,,,,,,,,,,,,,,,,,,,,,,,,,METAR,1073.0
CZFS 122100Z AUTO 29007KT M28/M32 RMK AO1 SOG 34 3027 SLP256 T12801321,CZFS,2019-01-12T21:00:00Z,61.77,-121.23,-28.0,-32.1,290,7,,,,1025.6,,TRUE,TRUE,,,,,,,,,,,,,,,,,,,,,,,,,,,METAR,168.0
CWMT 122100Z AUTO 27006KT M28/M32 RMK AO1 SOG 33 3037 SLP219 T12751321,CWMT,2019-01-12T21:00:00Z,63.13,-117.25,-27.5,-32.1,270,6,,,,1021.9,,TRUE,TRUE,,,,,,,,,,,,,,,,,,,,,,,,,,,METAR,271.0
CXKE 122100Z AUTO 33005KT M12/M22 RMK AO1 SOG 08 5001 SLP358 T11181215,CXKE,2019-01-12T21:00:00Z,45.0,-75.63,-11.8,-21.5,330,5,,,,1035.8,,TRUE,TRUE,,,,,,,,,,,,,,,,,,,,,,,,,,,METAR,99.0
CXHM 122100Z AUTO 06005KT M04/M07 RMK AO1 6006 SLP336 T10351072 50005,CXHM,2019-01-12T21:00:00Z,43.28,-79.9,-3.5,-7.2,60,5,,,,1033.6,,TRUE,TRUE,,,,,,,,,,,,,,,,0.5,,,,,,,,,,,METAR,107.0
CWZS 122100Z AUTO 32009KT M14/M18 RMK AO1 SLP222 T11431178 51023,CWZS,2019-01-12T21:00:00Z,48.47,-67.43,-14.3,-17.8,320,9,,,,1022.2,,TRUE,TRUE,,,,,,,,,,,,,,,,2.3,,,,,,,,,,,METAR,166.0
CWZQ 122100Z AUTO 27014KT M10/M13 RMK AO1 PK WND 28024/2024 SLP185 T11011125 51021,CWZQ,2019-01-12T21:00:00Z,46.53,-61.05,-10.1,-12.5,270,14,,,,1018.5,,TRUE,TRUE,,,,,,,,,,,,,,,,2.1,,,,,,,,,,,METAR,17.0
CWZA 122100Z AUTO 03012G20KT 10/01 RMK AO1 PK WND 06022/2046 SLP162 T01010008 56011,CWZA,2019-01-12T21:00:00Z,49.25,-121.77,10.1,0.8,30,12,20,,,1016.2,,TRUE,TRUE,,,,,,,,,,,,,,,,-1.1,,,,,,,,,,,METAR,15.0
CWST 122100Z AUTO 23014G19KT M15/M19 RMK AO1 SOG 21 1022 PK WND 22024/2012 SLP283 T11451189,CWST,2019-01-12T21:00:00Z,47.35,-70.02,-14.5,-18.9,230,14,19,,,1028.3,,TRUE,TRUE,,,,,,,,,,,,,,,,,,,,,,,,,,,METAR,31.0
CWSR 122100Z AUTO 02001KT M10/M14 RMK AO1 SOG 17 5002 SLP185 T10981143,CWSR,2019-01-12T21:00:00Z,53.37,-107.53,-9.8,-14.3,20,1,,,,1018.5,,TRUE,TRUE,,,,,,,,,,,,,,,,,,,,,,,,,,,METAR,584.0
CWSP 122100Z AUTO 11009KT 09/05 RMK AO1 SLP151 T00870051 58008,CWSP,2019-01-12T21:00:00Z,48.38,-123.92,8.7,5.1,110,9,,,,1015.1,,TRUE,TRUE,,,,,,,,,,,,,,,,-0.8,,,,,,,,,,,METAR,21.0
CWSG 122100Z AUTO 23014G21KT M10/M12 RMK AO1 PK WND 25026/2016 SLP209 T11021122 53024,CWSG,2019-01-12T21:00:00Z,49.12,-66.65,-10.2,-12.2,230,14,21,,,1020.9,,TRUE,TRUE,,,,,,,,,,,,,,,,2.4,,,,,,,,,,,METAR,5.0
CWSD 122100Z AUTO 28009KT M13/M16 RMK AO1 SOG 18 1020 SLP193 T11261160,CWSD,2019-01-12T21:00:00Z,46.42,-63.85,-12.6,-16.0,280,9,,,,1019.3,,TRUE,TRUE,,,,,,,,,,,,,,,,,,,,,,,,,,,METAR,24.0
CWRZ 122100Z AUTO 26007KT M08/M10 RMK AO1 SLP156 T10821097 51025,CWRZ,2019-01-12T21:00:00Z,48.42,-64.32,-8.2,-9.7,260,7,,,,1015.6,,TRUE,TRUE,,,,,,,,,,,,,,,,2.5,,,,,,,,,,,METAR,16.0
CWRT 122100Z AUTO 25007G17KT 03/M05 RMK AO1 PK WND 28021/2029 T00341048,CWRT,2019-01-12T21:00:00Z,49.62,-114.47,3.4,-4.8,250,7,17,,,,,TRUE,TRUE,,,,,,,,,,,,,,,,,,,,,,,,,,,METAR,1303.0
CWQH 122100Z AUTO 30007KT M15/M19 RMK AO1 SOG 15 T11471194,CWQH,2019-01-12T21:00:00Z,45.37,-71.82,-14.7,-19.4,300,7,,,,,,TRUE,TRUE,,,,,,,,,,,,,,,,,,,,,,,,,,,METAR,181.0
CWDK 122100Z AUTO 23004KT 16/M15 RMK AO1 SLP165 T01641148 56007,CWDK,2019-01-12T21:00:00Z,50.02,-113.62,16.4,-14.8,230,4,,,,1016.5,,TRUE,TRUE,,,,,,,,,,,,,,,,-0.7,,,,,,,,,,,METAR,1012.0
CWCJ 122100Z AUTO 05004KT M11/M21 RMK AO1 SOG 24 6013 SLP375 T11081211,CWCJ,2019-01-12T21:00:00Z,48.6,-86.28,-10.8,-21.1,50,4,,,,1037.5,,TRUE,TRUE,,,,,,,,,,,,,,,,,,,,,,,,,,,METAR,206.0
CWBT 122100Z AUTO 30004KT M05/M05 RMK AO1 SLP135 T10511053 51026,CWBT,2019-01-12T21:00:00Z,50.27,-64.23,-5.1,-5.3,300,4,,,,1013.5,,TRUE,TRUE,,,,,,,,,,,,,,,,2.6,,,,,,,,,,,METAR,11.0
CWBO 122100Z AUTO 26001KT 10/M06 RMK AO1 SLP177 T01011064 56007,CWBO,2019-01-12T21:00:00Z,50.53,-111.83,10.1,-6.4,260,1,,,,1017.7,,TRUE,TRUE,,,,,,,,,,,,,,,,-0.7,,,,,,,,,,,METAR,747.0
CWBA 122100Z AUTO 32006KT M15/M18 RMK AO1 SOG 51 T11491175,CWBA,2019-01-12T21:00:00Z,46.72,-79.1,-14.9,-17.5,320,6,,,,,,TRUE,TRUE,,,,,,,,,,,,,,,,,,,,,,,,,,,METAR,181.0
UTO8 M M M 310/-40/-44/3603/M/ SOG 17 3001 88MM,UTO8,2019-01-12T21:00:00Z,,,,,,,,1.86,,,,,,,,,,,,,,,,,,,,,,,,,,,,,,,,SPECI,
DAUL 122100Z 01006KT CAVOK 03/M00 Q1026,DAUL,2019-01-12T21:00:00Z,33.77,2.92,3.0,0.0,10,6,,6.21,30.295275,,,,,,,,,,,CAVOK,,,,,,,,VFR,,,,,,,,,,,,METAR,765.0
DAOV 122100Z 16004KT CAVOK 03/M02 Q1028,DAOV,2019-01-12T21:00:00Z,35.2,0.15,3.0,-2.0,160,4,,6.21,30.35433,,,,,,,,,,,CAVOK,,,,,,,,VFR,,,,,,,,,,,,METAR,514.0
CWZW 122100Z AUTO 10004KT M14/M16 RMK AO1 SOG 26 1010 SLP194 T11391156,CWZW,2019-01-12T21:00:00Z,60.17,-132.73,-13.9,-15.6,100,4,,,,1019.4,,TRUE,TRUE,,,,,,,,,,,,,,,,,,,,,,,,,,,METAR,705.0
CWJD 122100Z AUTO 18010G16KT M08/M11 RMK AO1 SOG 29 8037 SLP247 T10811107,CWJD,2019-01-12T21:00:00Z,53.17,-99.27,-8.1,-10.7,180,10,16,,,1024.7,,TRUE,TRUE,,,,,,,,,,,,,,,,,,,,,,,,,,,METAR,223.0
CWOY 122100Z AUTO 19005KT M06/M10 RMK AO1 SOG 02 6011 SLP214 T10611103,CWOY,2019-01-12T21:00:00Z,51.77,-104.2,-6.1,-10.3,190,5,,,,1021.4,,TRUE,TRUE,,,,,,,,,,,,,,,,,,,,,,,,,,,METAR,560.0
CWHI 122100Z AUTO 27001KT M02/M07 RMK AO1 T10201071,CWHI,2019-01-12T21:00:00Z,51.7,-113.22,-2.0,-7.1,270,1,,,,,,TRUE,TRUE,,,,,,,,,,,,,,,,,,,,,,,,,,,METAR,907.0
CWJC 122100Z AUTO 29020KT M08/M10 RMK AO1 PK WND 28027/2008 SLP055 T10821097 53009,CWJC,2019-01-12T21:00:00Z,61.13,-100.9,-8.2,-9.7,290,20,,,,1005.5,,TRUE,TRUE,,,,,,,,,,,,,,,,0.9,,,,,,,,,,,METAR,357.0
CTCK 122100Z AUTO 25005KT M14/M20 RMK AO1 SOG 07 3001 SLP364 T11381197,CTCK,2019-01-12T21:00:00Z,45.25,-74.97,-13.8,-19.7,250,5,,,,1036.4,,TRUE,TRUE,,,,,,,,,,,,,,,,,,,,,,,,,,,METAR,85.0
CWBE 122100Z AUTO 02004KT M10/M25 RMK AO1 SLP380 T10991254 56008,CWBE,2019-01-12T21:00:00Z,45.98,-81.48,-9.9,-25.4,20,4,,,,1038.0,,TRUE,TRUE,,,,,,,,,,,,,,,,-0.8,,,,,,,,,,,METAR,196.0
CWDQ 122100Z AUTO 34006KT M16/M21 RMK AO1 SOG 48 3014 SLP341 T11581206,CWDQ,2019-01-12T21:00:00Z,47.42,-72.78,-15.8,-20.6,340,6,,,,1034.1,,TRUE,TRUE,,,,,,,,,,,,,,,,,,,,,,,,,,,METAR,169.0
CWDV 122100Z AUTO 14002KT M10/M14 RMK AO1 SOG 43 6014 SLP356 T10961138,CWDV,2019-01-12T21:00:00Z,49.02,-90.47,-9.6,-13.8,140,2,,,,1035.6,,TRUE,TRUE,,,,,,,,,,,,,,,,,,,,,,,,,,,METAR,489.0
CWPO 122100Z AUTO 18008KT M09/M10 RMK AO1 SLP317 T10871095 58013,CWPO,2019-01-12T21:00:00Z,49.2,-98.9,-8.7,-9.5,180,8,,,,1031.7,,TRUE,TRUE,,,,,,,,,,,,,,,,-1.3,,,,,,,,,,,METAR,470.0
CWWZ 122100Z AUTO 09012G17KT M04/M08 RMK AO1 SOG 02 6006 PK WND 09017/2041 SLP341 T10381083,CWWZ,2019-01-12T21:00:00Z,43.25,-79.22,-3.8,-8.3,90,12,17,,,1034.1,,TRUE,TRUE,,,,,,,,,,,,,,,,,,,,,,,,,,,METAR,79.0
CWNC 122100Z AUTO 14004KT M06/M13 RMK AO1 SLP345 T10621130 58007,CWNC,2019-01-12T21:00:00Z,43.95,-78.17,-6.2,-13.0,140,4,,,,1034.5,,TRUE,TRUE,,,,,,,,,,,,,,,,-0.7,,,,,,,,,,,METAR,78.0
CWNZ 122100Z AUTO 27001KT M16/M22 RMK AO1 SOG 46 6011 SLP394 T11551222,CWNZ,2019-01-12T21:00:00Z,49.75,-84.17,-15.5,-22.2,270,1,,,,1039.4,,TRUE,TRUE,,,,,,,,,,,,,,,,,,,,,,,,,,,METAR,256.0
CWNQ 122100Z AUTO 22007KT M15/M22 RMK AO1 SLP333 T11541221 53010,CWNQ,2019-01-12T21:00:00Z,46.22,-72.65,-15.4,-22.1,220,7,,,,1033.3,,TRUE,TRUE,,,,,,,,,,,,,,,,1.0,,,,,,,,,,,METAR,10.0
CWIS 122100Z AUTO 36003KT M17/M19 RMK AO1 SOG 133 1027 SLP259 T11691192,CWIS,2019-01-12T21:00:00Z,47.28,-70.63,-16.9,-19.2,360,3,,,,1025.9,,TRUE,TRUE,,,,,,,,,,,,,,,,,,,,,,,,,,,METAR,719.0
CWIP 122100Z AUTO 29009KT M04/ RMK AO1 T1043,CWIP,2019-01-12T21:00:00Z,50.17,-66.43,-4.3,,290,9,,,,,,TRUE,TRUE,,,,,,,,,,,,,,,,,,,,,,,,,,,METAR,25.0
CWIJ 122100Z AUTO 30016KT M23/M26 RMK AO1 SOG 64 1027 PK WND 30020/2059 SLP122 T12341260,CWIJ,2019-01-12T21:00:00Z,65.77,-111.23,-23.4,-26.0,300,16,,,,1012.2,,TRUE,TRUE,,,,,,,,,,,,,,,,,,,,,,,,,,,METAR,500.0
CWII 122100Z AUTO 16009KT M06/M09 RMK AO1 SLP305 T10641087 57020,CWII,2019-01-12T21:00:00Z,50.7,-96.57,-6.4,-8.7,160,9,,,,1030.5,,TRUE,TRUE,,,,,,,,,,,,,,,,-2.0,,,,,,,,,,,METAR,220.0
CWHT 122100Z AUTO 00000KT M30/M34 RMK AO1 SOG 07 1013 SLP236 T12971338,CWHT,2019-01-12T21:00:00Z,60.77,-137.58,-29.7,-33.8,0,0,,,,1023.6,,TRUE,TRUE,,,,,,,,,,,,,,,,,,,,,,,,,,,METAR,599.0
CWHQ 122100Z AUTO 30004KT M14/ RMK AO1 T1141,CWHQ,2019-01-12T21:00:00Z,46.68,-71.97,-14.1,,300,4,,,,,,TRUE,TRUE,,,,,,,,,,,,,,,,,,,,,,,,,,,METAR,55.0
CWOC 122100Z AUTO 29018G25KT M11/M14 RMK AO1 PK WND 29027/2025 SLP176 T11131144 51026,CWOC,2019-01-12T21:00:00Z,48.02,-65.32,-11.3,-14.4,290,18,25,,,1017.6,,TRUE,TRUE,,,,,,,,,,,,,,,,2.6,,,,,,,,,,,METAR,47.0
CWOD 122100Z AUTO 29007KT M17/M22 RMK AO1 SOG 31 3014 SLP315 T11651216,CWOD,2019-01-12T21:00:00Z,48.85,-72.55,-16.5,-21.6,290,7,,,,1031.5,,TRUE,TRUE,,,,,,,,,,,,,,,,,,,,,,,,,,,METAR,137.0
CWPD 122100Z AUTO 01004KT M21/M23 RMK AO1 SLP317 T12111233 51025,CWPD,2019-01-12T21:00:00Z,47.57,-71.22,-21.1,-23.3,10,4,,,,1031.7,,TRUE,TRUE,,,,,,,,,,,,,,,,2.5,,,,,,,,,,,METAR,803.0
CWPF 122100Z AUTO 03009G15KT 11/02 RMK AO1 SLP142 T01070015 58011,CWPF,2019-01-12T21:00:00Z,48.43,-123.43,10.7,1.5,30,9,15,,,1014.2,,TRUE,TRUE,,,,,,,,,,,,,,,,-1.1,,,,,,,,,,,METAR,12.0
CWEH 122100Z AUTO 27008KT M01/M05 RMK AO1 PK WND 27017/2019 SLP203 T10101053 55015,CWEH,2019-01-12T21:00:00Z,49.42,-108.97,-1.0,-5.3,270,8,,,,1020.3,,TRUE,TRUE,,,,,,,,,,,,,,,,-1.5,,,,,,,,,,,METAR,1078.0
CWDC 122100Z AUTO 28006KT M11/M14 RMK AO1 SOG 33 3036 SLP162 T11121137,CWDC,2019-01-12T21:00:00Z,59.57,-108.47,-11.2,-13.7,280,6,,,,1016.2,,TRUE,TRUE,,,,,,,,,,,,,,,,,,,,,,,,,,,METAR,318.0
CWLB 122100Z AUTO 25003KT M05/M12 RMK AO1 SOG 21 5000 SLP187 T10491124,CWLB,2019-01-12T21:00:00Z,54.77,-112.02,-4.9,-12.4,250,3,,,,1018.7,,TRUE,TRUE,,,,,,,,,,,,,,,,,,,,,,,,,,,METAR,567.0
CWXA 122100Z AUTO 26017G26KT 02/M09 RMK AO1 PK WND 26027/2032 SLP188 T00181090 56009,CWXA,2019-01-12T21:00:00Z,51.07,-115.07,1.8,-9.0,260,17,26,,,1018.8,,TRUE,TRUE,,,,,,,,,,,,,,,,-0.9,,,,,,,,,,,METAR,1298.0
CWWK 122100Z AUTO 18001KT 11/04 RMK AO1 SLP163 T01100035 58003,CWWK,2019-01-12T21:00:00Z,49.02,-122.78,11.0,3.5,180,1,,,,1016.3,,TRUE,TRUE,,,,,,,,,,,,,,,,-0.3,,,,,,,,,,,METAR,15.0
CWUS 122100Z AUTO 06001KT 01/M00 RMK AO1 SLP246 T00131003 58004,CWUS,2019-01-12T21:00:00Z,49.57,-119.65,1.3,-0.3,60,1,,,,1024.6,,TRUE,TRUE,,,,,,,,,,,,,,,,-0.4,,,,,,,,,,,METAR,454.0
CWTY 122100Z AUTO 21011KT M13/M16 RMK AO1 SLP333 T11301155 53010,CWTY,2019-01-12T21:00:00Z,46.35,-72.52,-13.0,-15.5,210,11,,,,1033.3,,TRUE,TRUE,,,,,,,,,,,,,,,,1.0,,,,,,,,,,,METAR,6.0
CWTT 122100Z AUTO 28010KT M16/M20 RMK AO1 T11571200,CWTT,2019-01-12T21:00:00Z,45.27,-72.17,-15.7,-20.0,280,10,,,,,,TRUE,TRUE,,,,,,,,,,,,,,,,,,,,,,,,,,,METAR,209.0
CWTN 122100Z AUTO 25004KT M12/M19 RMK AO1 SLP287 T11181186 51019,CWTN,2019-01-12T21:00:00Z,47.07,-70.78,-11.8,-18.6,250,4,,,,1028.7,,TRUE,TRUE,,,,,,,,,,,,,,,,1.9,,,,,,,,,,,METAR,6.0
CWTG 122100Z AUTO 27017KT M07/M11 RMK AO1 PK WND 26021/2016 SLP201 T10701110 51020,CWTG,2019-01-12T21:00:00Z,49.32,-67.37,-7.0,-11.0,270,17,,,,1020.1,,TRUE,TRUE,,,,,,,,,,,,,,,,2.0,,,,,,,,,,,METAR,5.0
CWGM 122100Z AUTO 22020G26KT 10/M13 RMK AO1 PK WND 23030/2041 T00971129,CWGM,2019-01-12T21:00:00Z,49.13,-113.78,9.7,-12.9,220,20,26,,,,,TRUE,TRUE,,,,,,,,,,,,,,,,,,,,,,,,,,,METAR,1296.0
CWFJ 122100Z AUTO 13003KT 14/M11 RMK AO1 T01401106,CWFJ,2019-01-12T21:00:00Z,49.2,-113.27,14.0,-10.6,130,3,,,,,,TRUE,TRUE,,,,,,,,,,,,,,,,,,,,,,,,,,,METAR,1136.0
CWFF 122100Z AUTO 19012G17KT M08/M12 RMK AO1 SOG 14 6013 PK WND 21021/2026 SLP200 T10831115,CWFF,2019-01-12T21:00:00Z,52.82,-104.58,-8.3,-11.5,190,12,17,,,1020.0,,TRUE,TRUE,,,,,,,,,,,,,,,,,,,,,,,,,,,METAR,490.0
CWEZ 122100Z AUTO 33004KT RMK AO1 58003,CWEZ,2019-01-12T21:00:00Z,48.78,-123.05,,,330,4,,,,,,TRUE,TRUE,,,,,,,,,,,,,,,,-0.3,,,,,,,,,,,METAR,7.0
CWEB 122100Z AUTO 11012G21KT 10/08 RMK AO1 4PAST HR 8008 PK WND 13026/2024 SLP113 P0002 T00970077 50004,CWEB,2019-01-12T21:00:00Z,49.38,-126.55,9.7,7.7,110,12,21,,,1011.3,,TRUE,TRUE,,,,,,,,,,,,,,,,0.4,,,,,0.02,,,,,,METAR,7.0
CZSP 122100Z AUTO 24009KT M13/M16 RMK AO1 SOG 29 3021 PK WND 26017/2002 SLP199 T11331155,CZSP,2019-01-12T21:00:00Z,46.45,-62.58,-13.3,-15.5,240,9,,,,1019.9,,TRUE,TRUE,,,,,,,,,,,,,,,,,,,,,,,,,,,METAR,30.0
CWXI 122100Z AUTO 23020KT M05/M08 RMK AO1 PK WND 22026/2034 SLP096 T10501077 52007,CWXI,2019-01-12T21:00:00Z,51.02,-57.1,-5.0,-7.7,230,20,,,,1009.6,,TRUE,TRUE,,,,,,,,,,,,,,,,0.7,,,,,,,,,,,METAR,6.0
CERM 122100Z AUTO 30007KT M15/M19 RMK AO1 SOG 48 3024 PK WND 33017/2046 SLP253 T11491194,CERM,2019-01-12T21:00:00Z,47.42,-68.32,-14.9,-19.4,300,7,,,,1025.3,,TRUE,TRUE,,,,,,,,,,,,,,,,,,,,,,,,,,,METAR,154.0
CXTP 122100Z AUTO 20004G15KT M04/M04 RMK AO1 SOG 35 1006 SLP148 T10381035,CXTP,2019-01-12T21:00:00Z,48.55,-53.97,-3.8,-3.5,200,4,15,,,1014.8,,TRUE,TRUE,,,,,,,,,,,,,,,,,,,,,,,,,,,METAR,107.0
CWPZ 122100Z AUTO 06002KT 03/02 RMK AO1 SOG 41 0000 SLP159 T00260017,CWPZ,2019-01-12T21:00:00Z,54.38,-125.97,2.6,1.7,60,2,,,,1015.9,,TRUE,TRUE,,,,,,,,,,,,,,,,,,,,,,,,,,,METAR,713.0
CWPR 122100Z AUTO 00000KT M00/M04 RMK AO1 SOG 03 8010 SLP225 T10041035,CWPR,2019-01-12T21:00:00Z,49.47,-120.52,-0.4,-3.5,0,0,,,,1022.5,,TRUE,TRUE,,,,,,,,,,,,,,,,,,,,,,,,,,,METAR,700.0
UHHH 122100Z 03002MPS CAVOK M20/M23 Q1026 R23L/090060 NOSIG RMK QFE763/1018,UHHH,2019-01-12T21:00:00Z,48.52,135.18,-20.0,-23.0,30,4,,6.21,30.295275,,,,,,TRUE,,,,,CAVOK,,,,,,,,VFR,,,,,,,,,,,,METAR,72.0
UHBB 122100Z 01001MPS CAVOK M21/M24 Q1024 R36/090060 NOSIG RMK QFE751/1001,UHBB,2019-01-12T21:00:00Z,50.43,127.42,-21.0,-24.0,10,2,,6.21,30.236221,,,,,,TRUE,,,,,CAVOK,,,,,,,,VFR,,,,,,,,,,,,METAR,195.0
UHPP 122100Z 30005MPS 9999 NSC M01/M09 Q1004 R34L/720355 NOSIG RMK QFE749/0999,UHPP,2019-01-12T21:00:00Z,53.17,158.45,-1.0,-9.0,300,10,,6.21,29.64567,,,,,,TRUE,,,,,CLR,,,,,,,,VFR,,,,,,,,,,,,METAR,40.0
UHWW 122100Z 00000MPS 9000 NSC M18/M21 Q1025 R25L/0///70 NOSIG RMK QFE768,UHWW,2019-01-12T21:00:00Z,43.4,132.15,-18.0,-21.0,0,0,,5.59,30.265747,,,,,,TRUE,,,,,CLR,,,,,,,,VFR,,,,,,,,,,,,METAR,14.0
UHMA 122100Z 01006MPS CAVOK M24/M29 Q1021 R01/////// NOSIG RMK END R01/02006MPS QFE762/1016,UHMA,2019-01-12T21:00:00Z,64.73,177.73,-24.0,-29.0,10,12,,6.21,30.147638,,,,,,TRUE,,,,,CAVOK,,,,,,,,VFR,,,,,,,,,,,,METAR,62.0
VVCR 122100Z 02007KT 9999 FEW015 26/21 Q1014 NOSIG,VVCR,2019-01-12T21:00:00Z,12.0,109.22,26.0,21.0,20,7,,6.21,29.940945,,,,,,TRUE,,,,,FEW,1500,,,,,,,VFR,,,,,,,,,,,,METAR,12.0
VVCT 122100Z 09003KT 9999 FEW015 25/22 Q1011 NOSIG,VVCT,2019-01-12T21:00:00Z,10.08,105.72,25.0,22.0,90,3,,6.21,29.852362,,,,,,TRUE,,,,,FEW,1500,,,,,,,VFR,,,,,,,,,,,,METAR,3.0
VVCI 122100Z 13003KT 080V150 7000 SCT005 BKN010 19/19 Q1016 NOSIG,VVCI,2019-01-12T21:00:00Z,20.82,106.73,19.0,19.0,130,3,,4.35,30.0,,,,,,TRUE,,,,,SCT,500,BKN,1000,,,,,MVFR,,,,,,,,,,,,METAR,3.0
UHSS 122100Z 00000MPS 9999 NSC M24/M26 Q1023 R01/810365 NOSIG RMK QFE766/1022,UHSS,2019-01-12T21:00:00Z,46.88,142.72,-24.0,-26.0,0,0,,6.21,30.206694,,,,,,TRUE,,,,,CLR,,,,,,,,VFR,,,,,,,,,,,,METAR,31.0
UHMM 122100Z 00000MPS 9999 FEW040 M24/M26 Q1014 R10/82//45 RMK QFE745,UHMM,2019-01-12T21:00:00Z,59.92,150.72,-24.0,-26.0,0,0,,6.21,29.940945,,,,,,,,,,,FEW,4000,,,,,,,VFR,,,,,,,,,,,,METAR,175.0
VVPQ 122100Z 10006KT 9999 FEW017 27/22 Q1010 NOSIG,VVPQ,2019-01-12T21:00:00Z,10.23,103.97,27.0,22.0,100,6,,6.21,29.822834,,,,,,TRUE,,,,,FEW,1700,,,,,,,VFR,,,,,,,,,,,,METAR,4.0
VVPB 122100Z VRB02KT 0600 R27/1000 FG VV003 20/20 Q1016 NOSIG,VVPB,2019-01-12T21:00:00Z,16.38,107.7,20.0,20.0,0,2,,0.37,30.0,,,,,,TRUE,,,,FG,OVX,0,,,,,,,LIFR,,,,,,,,,,,300,METAR,17.0
VVNB 122100Z 12006KT 1600 0450E BR SCT002 BKN004 19/19 Q1016 NOSIG,VVNB,2019-01-12T21:00:00Z,21.22,105.8,19.0,19.0,120,6,,0.99,30.0,,,,,,TRUE,,,,BR,SCT,200,BKN,400,,,,,LIFR,,,,,,,,,,,,SPECI,12.0
VDSR 122100Z 07005KT 9000 NSC 26/20 Q1010,VDSR,2019-01-12T21:00:00Z,13.42,103.83,26.0,20.0,70,5,,5.59,29.822834,,,,,,,,,,,CLR,,,,,,,,VFR,,,,,,,,,,,,METAR,15.0
KEMK 122100Z AUTO 04012KT 9SM FEW015 25/16 A3006 RMK A01,KEMK,2019-01-12T21:00:00Z,27.82,-94.32,25.0,16.0,40,12,,9.0,30.059055,,,TRUE,TRUE,,,,,,,FEW,1500,,,,,,,VFR,,,,,,,,,,,,METAR,26.0
KWBF 122100Z AUTO 00000KT 10SM FEW030 24/16 A3005 RMK A01,KWBF,2019-01-12T21:00:00Z,,,24.0,16.0,0,0,,10.0,30.050198,,,TRUE,TRUE,,,,,,,FEW,3000,,,,,,,VFR,,,,,,,,,,,,METAR,
KVBS 122100Z AUTO 30015KT 10SM CLR 17/14 A3000 RMK A01,KVBS,2019-01-12T21:00:00Z,29.48,-93.63,17.0,14.0,300,15,,10.0,30.0,,,TRUE,TRUE,,,,,,,CLR,,,,,,,,VFR,,,,,,,,,,,,METAR,31.0
SMZO 122100Z 06010KT 9999 FEW020 28/23 Q1012 NOSIG,SMZO,2019-01-12T21:00:00Z,5.82,-55.18,28.0,23.0,60,10,,6.21,29.88189,,,,,,TRUE,,,,,FEW,2000,,,,,,,VFR,,,,,,,,,,,,METAR,10.0
SMJP 122100Z 04009KT 9999 FEW025 28/21 Q1012 NOSIG,SMJP,2019-01-12T21:00:00Z,5.45,-55.17,28.0,21.0,40,9,,6.21,29.88189,,,,,,TRUE,,,,,FEW,2500,,,,,,,VFR,,,,,,,,,,,,METAR,16.0
KEDU 122100Z AUTO 03004KT 10SM CLR 14/09 A2999 RMK AO1,KEDU,2019-01-12T21:00:00Z,38.53,-121.78,14.0,9.0,30,4,,10.0,29.991142,,,TRUE,TRUE,,,,,,,CLR,,,,,,,,VFR,,,,,,,,,,,,METAR,21.0
NFFN 122100Z 32008KT 9999 FEW020CB SCT025TCU 29/24 Q1006 NOSIG,NFFN,2019-01-12T21:00:00Z,-17.75,177.45,29.0,24.0,320,8,,6.21,29.704725,,,,,,TRUE,,,,,FEW,2000,SCT,2500,,,,,VFR,,,,,,,,,,,,METAR,18.0
VDSV 122100Z 07003KT 8000 SCT015 SCT040 26/24 Q1011,VDSV,2019-01-12T21:00:00Z,10.58,103.63,26.0,24.0,70,3,,4.97,29.852362,,,,,,,,,,,SCT,1500,SCT,4000,,,,,MVFR,,,,,,,,,,,,METAR,10.0
VTBD 122100Z 00000KT 4000 BR NSC 27/25 Q1011 NOSIG,VTBD,2019-01-12T21:00:00Z,13.92,100.6,27.0,25.0,0,0,,2.49,29.852362,,,,,,TRUE,,,,BR,CLR,,,,,,,,IFR,,,,,,,,,,,,METAR,3.0
VYYY 122100Z 27004KT 6000 SCT250 24/21 Q1012,VYYY,2019-01-12T21:00:00Z,16.9,96.13,24.0,21.0,270,4,,3.73,29.88189,,,,,,,,,,,SCT,25000,,,,,,,MVFR,,,,,,,,,,,,METAR,33.0
KAFP 122100Z AUTO 05005KT 10SM SCT024 BKN120 05/M07 A3037 RMK AO2 T00481075,KAFP,2019-01-12T21:00:00Z,35.02,-80.08,4.8,-7.5,50,5,,10.0,30.369095,,,TRUE,TRUE,,,,,,,SCT,2400,BKN,12000,,,,,VFR,,,,,,,,,,,,SPECI,92.0
VIJP 122100Z 06003KT 2000 HZ NSC 12/07 Q1017 NOSIG,VIJP,2019-01-12T21:00:00Z,26.82,75.78,12.0,7.0,60,3,,1.24,30.029528,,,,,,TRUE,,,,HZ,CLR,,,,,,,,IFR,,,,,,,,,,,,METAR,390.0
FAOB 122100Z AUTO 30011KT //// // ////// 18/07 Q1007,FAOB,2019-01-12T21:00:00Z,-34.6,20.27,18.0,7.0,300,11,,,29.734253,,,TRUE,,,,,,,,,,,,,,,,,,,,,,,,,,,,METAR,75.0
FABL 122100Z AUTO 26002KT //// // ////// 19/M00 Q1013,FABL,2019-01-12T21:00:00Z,-29.1,26.3,19.0,0.0,260,2,,,29.911417,,,TRUE,,,,,,,,,,,,,,,,,,,,,,,,,,,,METAR,1348.0
RORY 122100Z AUTO 35013KT 9999 SCT031 BKN039 BKN049 19/13 Q1018,RORY,2019-01-12T21:00:00Z,27.05,128.4,19.0,13.0,350,13,,6.21,30.059055,,,TRUE,,,,,,,,SCT,3100,BKN,3900,BKN,4900,,,VFR,,,,,,,,,,,,METAR,16.0
RJSM 122100Z 28003KT 9999 FEW020 SCT030 M02/M09 Q1020,RJSM,2019-01-12T21:00:00Z,40.7,141.37,-2.0,-9.0,280,3,,6.21,30.11811,,,,,,,,,,,FEW,2000,SCT,3000,,,,,VFR,,,,,,,,,,,,METAR,36.0
RJOS 122100Z 29005KT 9999 FEW030 03/01 Q1020,RJOS,2019-01-12T21:00:00Z,34.12,134.62,3.0,1.0,290,5,,6.21,30.11811,,,,,,,,,,,FEW,3000,,,,,,,VFR,,,,,,,,,,,,METAR,11.0
RJCO 122100Z 11002KT 9999 FEW015 SCT040 M11/M14 Q1023,RJCO,2019-01-12T21:00:00Z,43.12,141.37,-11.0,-14.0,110,2,,6.21,30.206694,,,,,,,,,,,FEW,1500,SCT,4000,,,,,VFR,,,,,,,,,,,,METAR,11.0
ROYN 122100Z AUTO 03018KT 9999 SCT023 BKN031 OVC035 21/17 Q1019,ROYN,2019-01-12T21:00:00Z,24.47,122.97,21.0,17.0,30,18,,6.21,30.088583,,,TRUE,,,,,,,,SCT,2300,BKN,3100,OVC,3500,,,VFR,,,,,,,,,,,,METAR,17.0
VTSS 122100Z 00000KT 9999 FEW020 SCT028 BKN100 25/24 Q1010 NOSIG,VTSS,2019-01-12T21:00:00Z,6.92,100.38,25.0,24.0,0,0,,6.21,29.822834,,,,,,TRUE,,,,,FEW,2000,SCT,2800,BKN,10000,,,VFR,,,,,,,,,,,,METAR,35.0
VTSP 122100Z 00000KT 8000 FEW020 23/22 Q1011 NOSIG,VTSP,2019-01-12T21:00:00Z,8.12,98.32,23.0,22.0,0,0,,4.97,29.852362,,,,,,TRUE,,,,,FEW,2000,,,,,,,MVFR,,,,,,,,,,,,METAR,10.0
VTSG 122100Z 02006KT 350V050 8000 BCFG FEW020 24/23 Q1011 NOSIG,VTSG,2019-01-12T21:00:00Z,8.1,98.98,24.0,23.0,20,6,,4.97,29.852362,,,,,,TRUE,,,,BCFG,FEW,2000,,,,,,,MVFR,,,,,,,,,,,,METAR,25.0
VTCT 122100Z 04002KT CAVOK 19/19 Q1015 NOSIG,VTCT,2019-01-12T21:00:00Z,19.95,99.88,19.0,19.0,40,2,,6.21,29.970472,,,,,,TRUE,,,,,CAVOK,,,,,,,,VFR,,,,,,,,,,,,METAR,390.0
VTCC 122100Z 00000KT 9999 FEW035 20/19 Q1016 NOSIG,VTCC,2019-01-12T21:00:00Z,18.77,98.97,20.0,19.0,0,0,,6.21,30.0,,,,,,TRUE,,,,,FEW,3500,,,,,,,VFR,,,,,,,,,,,,METAR,314.0
VTBU 122100Z 34004KT 2000 BR FEW020 25/22 Q1011 NOSIG,VTBU,2019-01-12T21:00:00Z,12.68,101.0,25.0,22.0,340,4,,1.24,29.852362,,,,,,TRUE,,,,BR,FEW,2000,,,,,,,IFR,,,,,,,,,,,,METAR,5.0
VTBS 122100Z 30002KT 3000 BR NSC 26/24 Q1011 NOSIG,VTBS,2019-01-12T21:00:00Z,13.68,100.75,26.0,24.0,300,2,,1.86,29.852362,,,,,,TRUE,,,,BR,CLR,,,,,,,,IFR,,,,,,,,,,,,METAR,2.0
KGHB 122100Z AUTO 26018KT 10SM FEW016 FEW021 BKN080 23/19 A3004 RMK A01,KGHB,2019-01-12T21:00:00Z,27.83,-91.98,23.0,19.0,260,18,,10.0,30.041338,,,TRUE,TRUE,,,,,,,FEW,1600,FEW,2100,BKN,8000,,,VFR,,,,,,,,,,,,METAR,30.0
KFYM 122100Z AUTO 13007KT 10SM FEW039 BKN055 07/04 A3004 RMK A01,KFYM,2019-01-12T21:00:00Z,35.07,-86.57,7.0,4.0,130,7,,10.0,30.041338,,,TRUE,TRUE,,,,,,,FEW,3900,BKN,5500,,,,,VFR,,,,,,,,,,,,METAR,300.0
URKA 122100Z AUTO 23005MPS 9999 -RA ///021/// 05/03 Q1008 RMK QFE752/1003,URKA,2019-01-12T21:00:00Z,45.0,37.35,5.0,3.0,230,10,,6.21,29.763779,,,TRUE,,,,,,,-RA,,,,,,,,,,,,,,,,,,,,,METAR,53.0
UUYY 122100Z 18006MPS 9999 -SN BKN015 M10/M13 Q0990 R18/450345 NOSIG RMK QFE734/0979,UUYY,2019-01-12T21:00:00Z,61.65,50.82,-10.0,-13.0,180,12,,6.21,29.232283,,,,,,TRUE,,,,-SN,BKN,1500,,,,,,,MVFR,,,,,,,,,,,,METAR,119.0
URSS 122100Z 03007MPS 9999 SCT050CB OVC070 07/03 Q1008 WS ALL RWY R02/220255 R06/220255 NOSIG RMK R06/08007MPS QFE755,URSS,2019-01-12T21:00:00Z,43.45,39.95,7.0,3.0,30,14,,6.21,29.763779,,,,,,TRUE,,,,,SCT,5000,OVC,7000,,,,,VFR,,,,,,,,,,,,METAR,16.0
URRP 122100Z 27004MPS 9999 SCT009 M03/M05 Q1008 R23/310060 TEMPO 2000 BR SCT003 RMK QFE748/0998,URRP,2019-01-12T21:00:00Z,47.5,39.92,-3.0,-5.0,270,8,,6.21,29.763779,,,,,,,,,,,SCT,900,,,,,,,VFR,,,,,,,,,,,,METAR,65.0
URWA 122100Z 27004MPS 8000 NSC M00/M01 Q1011 R27/390050 NOSIG RMK QFE760/1014,URWA,2019-01-12T21:00:00Z,46.28,48.02,0.0,-1.0,270,8,,4.97,29.852362,,,,,,TRUE,,,,,CLR,,,,,,,,MVFR,,,,,,,,,,,,METAR,-20.0
URWI 122100Z AUTO 22004MPS 9000 // ///130/// M03/M03 Q1009,URWI,2019-01-12T21:00:00Z,46.37,44.33,-3.0,-3.0,220,8,,5.59,29.793306,,,TRUE,,,,,,,,,,,,,,,,,,,,,,,,,,,,METAR,150.0
URWW 122100Z 27007MPS 9999 OVC013 M04/M07 Q1006 R24/710140 NOSIG,URWW,2019-01-12T21:00:00Z,48.78,44.33,-4.0,-7.0,270,14,,6.21,29.704725,,,,,,TRUE,,,,,OVC,1300,,,,,,,MVFR,,,,,,,,,,,,METAR,147.0
UUOO 122100Z 21004MPS 1700 R12/P2000D SN BR OVC010 M12/M14 Q1000 R12/820240 TEMPO 1000 SN RMK QFE736,UUOO,2019-01-12T21:00:00Z,51.82,39.23,-12.0,-14.0,210,8,,1.06,29.52756,,,,,,,,,,SN BR,OVC,1000,,,,,,,IFR,,,,,,,,,,,,METAR,157.0
UWUU 122100Z 18013G18MPS 3000 -SN OVC012 01/00 Q1001 R14R/390134 NOSIG RMK QFE740/0987,UWUU,2019-01-12T21:00:00Z,54.57,55.87,1.0,0.0,180,25,35,1.86,29.557087,,,,,,TRUE,,,,-SN,OVC,1200,,,,,,,IFR,,,,,,,,,,,,METAR,137.0
USCC 122100Z 17006MPS 9999 BKN010 M05/M07 Q1008 R09/490336 TEMPO 19012MPS 1100 SN BLSN VV002 RMK QFE735,USCC,2019-01-12T21:00:00Z,55.3,61.5,-5.0,-7.0,170,12,,6.21,29.763779,,,,,,,,,,,BKN,1000,,,,,,,MVFR,,,,,,,,,,,,METAR,234.0
USNN 122100Z 16004MPS 9999 OVC011 M21/M24 Q1024 R21/39//40 NOSIG RMK QFE763,USNN,2019-01-12T21:00:00Z,60.95,76.48,-21.0,-24.0,160,8,,6.21,30.236221,,,,,,TRUE,,,,,OVC,1100,,,,,,,MVFR,,,,,,,,,,,,METAR,54.0
CXHA 122100Z AUTO 06010KT M01/M06 RMK AO1 SOG 02 6007 PK WND 07017/2043 SLP300 T10051060,CXHA,2019-01-12T21:00:00Z,42.03,-82.9,-0.5,-6.0,60,10,,,,1030.0,,TRUE,TRUE,,,,,,,,,,,,,,,,,,,,,,,,,,,METAR,191.0
CXET 122100Z AUTO 09003KT M09/M16 RMK AO1 SOG 05 7009 SLP344 T10891159,CXET,2019-01-12T21:00:00Z,44.23,-79.78,-8.9,-15.9,90,3,,,,1034.4,,TRUE,TRUE,,,,,,,,,,,,,,,,,,,,,,,,,,,METAR,251.0
CXEG 122100Z AUTO M04/M09 RMK AO1 T10401089,CXEG,2019-01-12T21:00:00Z,53.3,-113.6,-4.0,-8.9,,,,,,,,TRUE,TRUE,,,,,,,,,,,,,,,,,,,,,,,,,,,METAR,715.0
CXEC 122100Z AUTO 27001KT M01/M07 RMK AO1 SOG 25 5001 SLP179 T10081067,CXEC,2019-01-12T21:00:00Z,53.57,-113.52,-0.8,-6.7,270,1,,,,1017.9,,TRUE,TRUE,,,,,,,,,,,,,,,,,,,,,,,,,,,METAR,671.0
VVDN 122100Z 00000KT 5000 BR FEW013 SCT050 23/22 Q1016 NOSIG,VVDN,2019-01-12T21:00:00Z,16.02,108.2,23.0,22.0,0,0,,3.11,30.0,,,,,,TRUE,,,,BR,FEW,1300,SCT,5000,,,,,MVFR,,,,,,,,,,,,METAR,7.0
VVTS 122100Z VRB01KT 9999 FEW020 BKN050 25/24 Q1010 NOSIG,VVTS,2019-01-12T21:00:00Z,10.82,106.67,25.0,24.0,0,1,,6.21,29.822834,,,,,,TRUE,,,,,FEW,2000,BKN,5000,,,,,VFR,,,,,,,,,,,,METAR,19.0
USSS 122100Z 15006MPS 9999 BKN046 M08/M10 Q1003 R08L/490137 NOSIG RMK QFE733/0977,USSS,2019-01-12T21:00:00Z,56.75,60.82,-8.0,-10.0,150,12,,6.21,29.616142,,,,,,TRUE,,,,,BKN,4600,,,,,,,VFR,,,,,,,,,,,,METAR,233.0
USRR 122100Z 16005MPS 4100 -SN OVC007 M18/M20 Q1018 R25/39//34 NOSIG RMK OBST OBSC QFE758,USRR,2019-01-12T21:00:00Z,61.33,73.42,-18.0,-20.0,160,10,,2.55,30.059055,,,,,,TRUE,,,,-SN,OVC,700,,,,,,,IFR,,,,,,,,,,,,METAR,44.0
VTUO 122100Z AUTO 05004KT ////NDV // ////// 22/20 Q1014 A2994,VTUO,2019-01-12T21:00:00Z,15.23,103.25,22.0,20.0,50,4,,,29.940945,,,TRUE,,,,,,,,,,,,,,,,,,,,,,,,,,,,METAR,183.0
VTUQ 122100Z AUTO 09006KT 050V110 ////NDV ////// 23/18 Q1013 A2993,VTUQ,2019-01-12T21:00:00Z,14.95,102.32,23.0,18.0,90,6,,,29.911417,,,TRUE,,,,,,,,,,,,,,,,,,,,,,,,,,,,METAR,234.0
VTUU 122100Z 04003KT 8000 NSC 21/19 Q1013 NOSIG,VTUU,2019-01-12T21:00:00Z,15.25,104.87,21.0,19.0,40,3,,4.97,29.911417,,,,,,TRUE,,,,,CLR,,,,,,,,MVFR,,,,,,,,,,,,METAR,127.0
VTUV 122100Z AUTO 04005KT //// // 20/17 Q1014 A2994,VTUV,2019-01-12T21:00:00Z,16.12,103.78,20.0,17.0,40,5,,,29.940945,,,TRUE,,,,,,,,,,,,,,,,,,,,,,,,,,,,METAR,138.0
SEJD 122100Z 19002KT 9999 SCT023 SCT033 OVC100 25/24 Q1012 RMK A2991,SEJD,2019-01-12T21:00:00Z,-1.07,-77.58,25.0,24.0,190,2,,6.21,29.88189,,,,,,,,,,,SCT,2300,SCT,3300,OVC,10000,,,VFR,,,,,,,,,,,,METAR,375.0
UNBB 122100Z 16003MPS 3400 BR NSC M16/M19 Q1036 R24/450547 NOSIG RMK QFE755,UNBB,2019-01-12T21:00:00Z,53.37,83.53,-16.0,-19.0,160,6,,2.11,30.590551,,,,,,TRUE,,,,BR,CLR,,,,,,,,IFR,,,,,,,,,,,,METAR,255.0
UNAA 122100Z 00000MPS 7000 NSC M25/M28 Q1038 R02/810249 NOSIG RMK QFE755,UNAA,2019-01-12T21:00:00Z,53.75,91.4,-25.0,-28.0,0,0,,4.35,30.649607,,,,,,TRUE,,,,,CLR,,,,,,,,MVFR,,,,,,,,,,,,METAR,245.0
UUBC 122100Z AUTO 22004MPS 2600 // ///021/// M10/M12 Q0994 RMK QFE728/0970,UUBC,2019-01-12T21:00:00Z,54.55,36.37,-10.0,-12.0,220,8,,1.62,29.350393,,,TRUE,,,,,,,,,,,,,,,,,,,,,,,,,,,,METAR,199.0
USTR 122100Z 19007MPS 160V220 2500 -SHSN BLSN SCT009 OVC030CB M11/M14 Q1010 R21/450160 TEMPO 16015MPS 1200 SHSN BLSN VV004 RMK QFE748/0998,USTR,2019-01-12T21:00:00Z,57.17,65.32,-11.0,-14.0,190,14,,1.55,29.822834,,,,,,,,,,-SHSN BLSN,SCT,900,OVC,3000,,,,,IFR,,,,,,,,,,,,METAR,115.0
UNTT 122100Z VRB01MPS CAVOK M32/M35 Q1037 NOSIG RMK QFE762,UNTT,2019-01-12T21:00:00Z,56.38,85.22,-32.0,-35.0,0,2,,6.21,30.620079,,,,,,TRUE,,,,,CAVOK,,,,,,,,VFR,,,,,,,,,,,,METAR,182.0
UNOO 122100Z 16002MPS 6000 -SN BKN005 M20/M22 Q1029 R07/410250 NOSIG RMK OBST OBSC QFE763,UNOO,2019-01-12T21:00:00Z,54.97,73.32,-20.0,-22.0,160,4,,3.73,30.383858,,,,,,TRUE,,,,-SN,BKN,500,,,,,,,IFR,,,,,,,,,,,,METAR,95.0
UNNT 122100Z 14003MPS 8000 NSC M21/M24 Q1037 R25/810160 R34/810160 NOSIG RMK QFE768/1024,UNNT,2019-01-12T21:00:00Z,55.02,82.63,-21.0,-24.0,140,6,,4.97,30.620079,,,,,,TRUE,,,,,CLR,,,,,,,,MVFR,,,,,,,,,,,,METAR,111.0
UNKL 122100Z 27004MPS CAVOK M23/M26 Q1035 R29/810250 NOSIG RMK QFE750,UNKL,2019-01-12T21:00:00Z,56.17,92.48,-23.0,-26.0,270,8,,6.21,30.561024,,,,,,TRUE,,,,,CAVOK,,,,,,,,VFR,,,,,,,,,,,,METAR,276.0
UNEE 122100Z 14001MPS 9000 FEW013 M24/M26 Q1037 R23/851038 NOSIG RMK QFE755,UNEE,2019-01-12T21:00:00Z,55.27,86.08,-24.0,-26.0,140,2,,5.59,30.620079,,,,,,TRUE,,,,,FEW,1300,,,,,,,VFR,,,,,,,,,,,,METAR,260.0
URMT 122100Z 18003MPS 6000 -SNRA BKN010 OVC020 00/M00 Q1008 R07/590155 NOSIG RMK QFE716,URMT,2019-01-12T21:00:00Z,45.12,42.12,0.0,0.0,180,6,,3.73,29.763779,,,,,,TRUE,,,,-SN -RA,BKN,1000,OVC,2000,,,,,MVFR,,,,,,,,,,,,METAR,453.0
URMN 122100Z 16001MPS 9999 OVC022 03/00 Q1009 R24/////// NOSIG RMK QFE720,URMN,2019-01-12T21:00:00Z,43.52,43.63,3.0,0.0,160,2,,6.21,29.793306,,,,,,TRUE,,,,,OVC,2200,,,,,,,MVFR,,,,,,,,,,,,METAR,445.0
URMM 122100Z 10005MPS 9999 BKN009 BKN033 02/00 Q1009 R12/090070 TEMPO 0300 FZFG OVC002 RMK MT OBSC QFE729/0972,URMM,2019-01-12T21:00:00Z,44.22,43.1,2.0,0.0,100,10,,6.21,29.793306,,,,,,,,,,,BKN,900,BKN,3300,,,,,IFR,,,,,,,,,,,,METAR,314.0
URML 122100Z 28004MPS 9999 NSC 03/M01 Q1012 R32/010070 NOSIG RMK QFE759/1012,URML,2019-01-12T21:00:00Z,42.82,47.65,3.0,-1.0,280,8,,6.21,29.88189,,,,,,TRUE,,,,,CLR,,,,,,,,VFR,,,,,,,,,,,,METAR,4.0
URMG 122100Z 09002MPS CAVOK 03/00 Q1012 R26/000070 NOSIG RMK QFE744/0993,URMG,2019-01-12T21:00:00Z,43.37,45.7,3.0,0.0,90,4,,6.21,29.88189,,,,,,TRUE,,,,,CAVOK,,,,,,,,VFR,,,,,,,,,,,,METAR,263.0
URKK 122100Z 08002MPS 050V110 9999 -SHRA BKN057CB 02/01 Q1009 R05R/290060 NOSIG RMK QFE754,URKK,2019-01-12T21:00:00Z,45.03,39.15,2.0,1.0,80,4,,6.21,29.793306,,,,,,TRUE,,,,-SHRA,BKN,5700,,,,,,,VFR,,,,,,,,,,,,METAR,34.0
VTUK 122100Z 00000KT 8000 NSC 21/18 Q1014 NOSIG,VTUK,2019-01-12T21:00:00Z,16.47,102.78,21.0,18.0,0,0,,4.97,29.940945,,,,,,TRUE,,,,,CLR,,,,,,,,MVFR,,,,,,,,,,,,METAR,204.0
USCM 122100Z 17010MPS 5000 -SN OVC005 M04/M06 Q1007 R18/420540 TEMPO 17016MPS 0900 +SN BLSN VV002 RMK QFE718,USCM,2019-01-12T21:00:00Z,53.4,58.75,-4.0,-6.0,170,19,,3.11,29.734253,,,,,,,,,,-SN,OVC,500,,,,,,,IFR,,,,,,,,,,,,METAR,435.0
WAAA 122100Z AUTO 20001KT 9999 SCT014 OVC023 25/25 Q1009,WAAA,2019-01-12T21:00:00Z,-5.07,119.53,25.0,25.0,200,1,,6.21,29.793306,,,TRUE,,,,,,,,SCT,1400,OVC,2300,,,,,MVFR,,,,,,,,,,,,METAR,14.0
NIUE 122100Z AUTO 12010KT 080V150 //// ////// 28/22 Q1008,NIUE,2019-01-12T21:00:00Z,-19.07,-169.92,28.0,22.0,120,10,,,29.763779,,,TRUE,,,,,,,,,,,,,,,,,,,,,,,,,,,,METAR,20.0
WADD 122100Z VRB02KT 9999 SCT017 26/26 Q1008 NOSIG,WADD,2019-01-12T21:00:00Z,-8.73,115.17,26.0,26.0,0,2,,6.21,29.763779,,,,,,TRUE,,,,,SCT,1700,,,,,,,VFR,,,,,,,,,,,,METAR,216.0
WARR 122100Z 28003KT 3000 BR FEW020 25/24 Q1008 NOSIG,WARR,2019-01-12T21:00:00Z,-7.37,112.78,25.0,24.0,280,3,,1.86,29.763779,,,,,,TRUE,,,,BR,FEW,2000,,,,,,,IFR,,,,,,,,,,,,METAR,2.0
WMAU 122100Z AUTO 35007KT 290V060 //// // 27/24 Q//// QFF1009,WMAU,2019-01-12T21:00:00Z,2.38,103.88,27.0,24.0,350,7,,0.63,,,,TRUE,,,,,,,,,,,,,,,,,,,,,,,,,,,,METAR,45.0
WMKA 122100Z VRB02KT 9999 FEW030 BKN280 25/24 Q1010,WMKA,2019-01-12T21:00:00Z,6.2,100.4,25.0,24.0,0,2,,6.21,29.822834,,,,,,,,,,,FEW,3000,BKN,28000,,,,,VFR,,,,,,,,,,,,METAR,5.0
WMKB 122100Z 09003KT 8000 FEW025 SCT140 BKN280 26/22 Q1009 NOSIG,WMKB,2019-01-12T21:00:00Z,5.47,100.37,26.0,22.0,90,3,,4.97,29.793306,,,,,,TRUE,,,,,FEW,2500,SCT,14000,BKN,28000,,,MVFR,,,,,,,,,,,,METAR,4.0
WMKC 122100Z 06011KT 030V090 9999 FEW012 SCT020 BKN280 27/24 Q1010,WMKC,2019-01-12T21:00:00Z,6.17,102.27,27.0,24.0,60,11,,6.21,29.822834,,,,,,,,,,,FEW,1200,SCT,2000,BKN,28000,,,VFR,,,,,,,,,,,,METAR,5.0
WMKD 122100Z VRB03KT 9000 FEW006 BKN280 24/23 Q1010 NOSIG,WMKD,2019-01-12T21:00:00Z,3.77,103.22,24.0,23.0,0,3,,5.59,29.822834,,,,,,TRUE,,,,,FEW,600,BKN,28000,,,,,VFR,,,,,,,,,,,,METAR,16.0
WMKE 122100Z AUTO VRB01KT //// // 24/24 Q1010,WMKE,2019-01-12T21:00:00Z,4.53,103.43,24.0,24.0,0,1,,,29.822834,,,TRUE,,,,,,,,,,,,,,,,,,,,,,,,,,,,METAR,5.0
WMKI 122100Z 03006KT 9999 FEW028 SCT140 BKN280 25/22 Q1010,WMKI,2019-01-12T21:00:00Z,4.57,101.08,25.0,22.0,30,6,,6.21,29.822834,,,,,,,,,,,FEW,2800,SCT,14000,BKN,28000,,,VFR,,,,,,,,,,,,METAR,39.0
WMKL 122100Z 03005KT 340V070 9999 FEW026 BKN280 27/23 Q1010,WMKL,2019-01-12T21:00:00Z,6.32,99.72,27.0,23.0,30,5,,6.21,29.822834,,,,,,,,,,,FEW,2600,BKN,28000,,,,,VFR,,,,,,,,,,,,METAR,7.0
WMKM 122100Z 04005KT 350V080 9999 FEW028 SCT140 BKN280 25/23 Q1010,WMKM,2019-01-12T21:00:00Z,2.27,102.25,25.0,23.0,40,5,,6.21,29.822834,,,,,,,,,,,FEW,2800,SCT,14000,BKN,28000,,,VFR,,,,,,,,,,,,METAR,9.0
WMKN 122100Z VRB03KT 8000 -RA FEW006 SCT022 BKN150 25/24 Q1010 RERA,WMKN,2019-01-12T21:00:00Z,5.37,103.08,25.0,24.0,0,3,,4.97,29.822834,,,,,,,,,,-RA,FEW,600,SCT,2200,BKN,15000,,,MVFR,,,,,,,,,,,,METAR,6.0
FYGB 122100Z AUTO 21002KT //// // ////// 26/M01 Q1018,FYGB,2019-01-12T21:00:00Z,-22.5,18.97,26.0,-1.0,210,2,,,30.059055,,,TRUE,,,,,,,,,,,,,,,,,,,,,,,,,,,,METAR,1442.0
UWWW 122100Z 22007MPS 8000 OVC006 00/M01 Q0996 R15/490535 TEMPO OVC003 RMK QFE736/0981,UWWW,2019-01-12T21:00:00Z,53.5,50.17,0.0,-1.0,220,14,,4.97,29.409449,,,,,,,,,,,OVC,600,,,,,,,IFR,,,,,,,,,,,,METAR,146.0
UWSS 122100Z 27006MPS 9999 -SHSN DRSN BKN020CB M08/M11 Q1002 R30/850234 NOSIG RMK QFE738,UWSS,2019-01-12T21:00:00Z,51.57,46.07,-8.0,-11.0,270,12,,6.21,29.586615,,,,,,TRUE,,,,-SHSN DRSN,BKN,2000,,,,,,,MVFR,,,,,,,,,,,,METAR,166.0
UWOO 122100Z 17008MPS 9000 -SN BLSN OVC007 M02/M03 Q1009 R26/890534 NOSIG RMK QFE746/0995,UWOO,2019-01-12T21:00:00Z,51.8,55.47,-2.0,-3.0,170,16,,5.59,29.793306,,,,,,TRUE,,,,-SN BLSN,OVC,700,,,,,,,IFR,,,,,,,,,,,,METAR,109.0
UWOR 122100Z 18011MPS 9999 DRSN OVC008 M06/M08 Q1012 R25/390142 NOSIG RMK QFE736/0981,UWOR,2019-01-12T21:00:00Z,51.07,58.6,-6.0,-8.0,180,21,,6.21,29.88189,,,,,,TRUE,,,,DRSN,OVC,800,,,,,,,IFR,,,,,,,,,,,,METAR,277.0
UWLW 122100Z 26004MPS 8000 -SN OVC022 M07/M09 Q0996 R02/491038 NOSIG RMK QFE740,UWLW,2019-01-12T21:00:00Z,54.4,48.8,-7.0,-9.0,260,8,,4.97,29.409449,,,,,,TRUE,,,,-SN,OVC,2200,,,,,,,MVFR,,,,,,,,,,,,METAR,66.0
UWKS 122100Z 17002MPS 9999 SCT030 M14/M15 Q0993 R24/820345 NOSIG RMK QFE731,UWKS,2019-01-12T21:00:00Z,56.08,47.35,-14.0,-15.0,170,4,,6.21,29.320866,,,,,,TRUE,,,,,SCT,3000,,,,,,,VFR,,,,,,,,,,,,METAR,170.0
UWKE 122100Z 20007MPS 1100 R21/2000N SHSN OVC004CB M01/M02 Q0993 R21/451533 TEMPO 0500 +SHSN VV003 RMK OBST OBSC QFE727/0970,UWKE,2019-01-12T21:00:00Z,55.57,52.08,-1.0,-2.0,200,14,,0.68,29.320866,,,,,,,,,,SHSN,OVC,400,,,,,,,LIFR,,,,,,,,,,,,METAR,196.0
UWKD 122100Z 26002MPS 4600 -SN NSC M09/M11 Q0994 R11/451042 NOSIG RMK QFE736/0981,UWKD,2019-01-12T21:00:00Z,55.62,49.28,-9.0,-11.0,260,4,,2.86,29.350393,,,,,,TRUE,,,,-SN,CLR,,,,,,,,IFR,,,,,,,,,,,,METAR,126.0
USPP 122100Z 12005MPS 4000 -SN BKN017 M07/M08 Q0996 R21/390140 TEMPO 0900 +SN OVC007 RMK QFE737,USPP,2019-01-12T21:00:00Z,57.92,56.02,-7.0,-8.0,120,10,,2.49,29.409449,,,,,,,,,,-SN,BKN,1700,,,,,,,IFR,,,,,,,,,,,,METAR,123.0
WAJJ 122100Z 23005KT 9999 SCT011 25/23 Q1007 NOSIG,WAJJ,2019-01-12T21:00:00Z,-2.58,140.52,25.0,23.0,230,5,,6.21,29.734253,,,,,,TRUE,,,,,SCT,1100,,,,,,,VFR,,,,,,,,,,,,METAR,88.0
UUOL 122100Z 21005MPS 8000 -SN NSC M13/M15 Q0998 R15/850342 NOSIG,UUOL,2019-01-12T21:00:00Z,52.7,39.53,-13.0,-15.0,210,10,,4.97,29.468504,,,,,,TRUE,,,,-SN,CLR,,,,,,,,MVFR,,,,,,,,,,,,METAR,176.0
UUWW 122100Z 21003MPS 3800 -SN OVC016 M10/M12 Q0992 R19/410242 NOSIG,UUWW,2019-01-12T21:00:00Z,55.6,37.27,-10.0,-12.0,210,6,,2.36,29.291338,,,,,,TRUE,,,,-SN,OVC,1600,,,,,,,IFR,,,,,,,,,,,,METAR,203.0
UUEE 122100Z 22005MPS 2200 -SN BR OVC020 M09/M10 Q0992 R24L/420330 R24C/490330 NOSIG,UUEE,2019-01-12T21:00:00Z,55.97,37.42,-9.0,-10.0,220,10,,1.37,29.291338,,,,,,TRUE,,,,-SN BR,OVC,2000,,,,,,,IFR,,,,,,,,,,,,METAR,190.0
UUDL 122100Z 22004MPS 3800 -SN OVC016 M08/M10 Q0989 R23/451545 NOSIG RMK QFE734,UUDL,2019-01-12T21:00:00Z,57.57,40.17,-8.0,-10.0,220,8,,2.36,29.202755,,,,,,TRUE,,,,-SN,OVC,1600,,,,,,,IFR,,,,,,,,,,,,METAR,88.0
UUDD 122100Z 24004MPS 5000 -SN BR BKN018 M10/M13 Q0992 R88/490393 TEMPO 1200 SHSN SCT015CB,UUDD,2019-01-12T21:00:00Z,55.4,37.9,-10.0,-13.0,240,8,,3.11,29.291338,,,,,,,,,,-SN BR,BKN,1800,,,,,,,MVFR,,,,,,,,,,,,METAR,168.0
UUBW 122100Z 23003MPS 8000 -SN OVC012 M10/M11 Q0993 R30/450540 TEMPO 1500 SHSN SCT015CB,UUBW,2019-01-12T21:00:00Z,55.55,38.15,-10.0,-11.0,230,6,,4.97,29.320866,,,,,,,,,,-SN,OVC,1200,,,,,,,MVFR,,,,,,,,,,,,METAR,115.0
ULLI 122100Z 27005MPS 9999 SCT015 M07/M08 Q0989 R28L/510550 NOSIG,ULLI,2019-01-12T21:00:00Z,59.8,30.27,-7.0,-8.0,270,10,,6.21,29.202755,,,,,,TRUE,,,,,SCT,1500,,,,,,,VFR,,,,,,,,,,,,METAR,4.0
UIUU 122100Z 31001MPS 3200 BR FU NSC M28/M31 Q1022 R26/810550 NOSIG RMK QFE722/0963,UIUU,2019-01-12T21:00:00Z,51.8,107.45,-28.0,-31.0,310,2,,1.99,30.177166,,,,,,TRUE,,,,BR FU,CLR,,,,,,,,IFR,,,,,,,,,,,,METAR,515.0
UIII 122100Z 27005G10MPS 240V300 CAVOK M18/M19 Q1021 R30/810550 NOSIG RMK QFE721/0962,UIII,2019-01-12T21:00:00Z,52.27,104.4,-18.0,-19.0,270,10,19,6.21,30.147638,,,,,,TRUE,,,,,CAVOK,,,,,,,,VFR,,,,,,,,,,,,METAR,513.0
UIBB 122100Z AUTO 26004MPS 9999 // ///064/// M20/M23 Q1023 RMK QFE724/0965,UIBB,2019-01-12T21:00:00Z,56.37,101.7,-20.0,-23.0,260,8,,6.21,30.206694,,,TRUE,,,,,,,,,,,,,,,,,,,,,,,,,,,,METAR,490.0
UIAA 122100Z 00000MPS 9999 NSC M21/M23 Q1020 R29/490145 NOSIG RMK QFE707/0942,UIAA,2019-01-12T21:00:00Z,52.02,113.32,-21.0,-23.0,0,0,,6.21,30.11811,,,,,,TRUE,,,,,CLR,,,,,,,,VFR,,,,,,,,,,,,METAR,685.0
KW29 122100Z AUTO 00000KT 10SM OVC060 00/M09 A3050 RMK AO2,KW29,2019-01-12T21:00:00Z,38.98,-76.33,0.0,-9.0,0,0,,10.0,30.499016,,,TRUE,TRUE,,,,,,,OVC,6000,,,,,,,VFR,,,,,,,,,,,,SPECI,15.0
KSUT 122100Z AUTO 03009G14KT 10SM CLR 08/01 A3037 RMK AO2 T00780007,KSUT,2019-01-12T21:00:00Z,33.93,-78.08,7.8,0.7,30,9,14,10.0,30.369095,,,TRUE,TRUE,,,,,,,CLR,,,,,,,,VFR,,,,,,,,,,,,SPECI,8.0
KONX 122100Z AUTO 10SM OVC110 05/M01 A3046 RMK AO2 T00461009,KONX,2019-01-12T21:00:00Z,36.4,-76.02,4.6,-0.9,,,,10.0,30.46063,,,TRUE,TRUE,,,,,,,OVC,11000,,,,,,,VFR,,,,,,,,,,,,SPECI,5.0
KMQI 122100Z AUTO 06009G14KT 10SM BKN065 BKN075 OVC090 06/M01 A3044 RMK AO2 T00571009,KMQI,2019-01-12T21:00:00Z,35.92,-75.7,5.7,-0.9,60,9,14,10.0,30.43996,,,TRUE,TRUE,,,,,,,BKN,6500,BKN,7500,OVC,9000,,,VFR,,,,,,,,,,,,SPECI,4.0
KHBI 122100Z AUTO 06004KT 10SM OVC046 03/M06 A3040 RMK AO2 T00301059,KHBI,2019-01-12T21:00:00Z,35.65,-79.9,3.0,-5.9,60,4,,10.0,30.398623,,,TRUE,TRUE,,,,,,,OVC,4600,,,,,,,VFR,,,,,,,,,,,,SPECI,205.0
KEYF 122100Z AUTO 03005KT 10SM BKN070 07/M04 A3040 RMK AO2 PWINO T00651037,KEYF,2019-01-12T21:00:00Z,34.6,-78.58,6.5,-3.7,30,5,,10.0,30.398623,,,TRUE,TRUE,,,,,TRUE,,BKN,7000,,,,,,,VFR,,,,,,,,,,,,SPECI,41.0
KEXX 122100Z AUTO 00000KT 10SM OVC046 04/M07 A3037 RMK AO2 T00371069,KEXX,2019-01-12T21:00:00Z,35.78,-80.3,3.7,-6.9,0,0,,10.0,30.369095,,,TRUE,TRUE,,,,,,,OVC,4600,,,,,,,VFR,,,,,,,,,,,,SPECI,223.0
KDPL 122100Z AUTO 00000KT 10SM OVC034 06/M03 A3042 RMK AO2,KDPL,2019-01-12T21:00:00Z,35.0,-77.97,6.0,-3.0,0,0,,10.0,30.41929,,,TRUE,TRUE,,,,,,,OVC,3400,,,,,,,VFR,,,,,,,,,,,,SPECI,42.0
KDMW 122100Z AUTO 00000KT 10SM CLR 01/M11 A3044 RMK AO2,KDMW,2019-01-12T21:00:00Z,39.6,-77.0,1.0,-11.0,0,0,,10.0,30.43996,,,TRUE,TRUE,,,,,,,CLR,,,,,,,,VFR,,,,,,,,,,,,SPECI,241.0
KCTZ 122100Z AUTO 04003KT 10SM OVC031 06/M02 A3042 RMK AO2 T00601020,KCTZ,2019-01-12T21:00:00Z,34.98,-78.37,6.0,-2.0,40,3,,10.0,30.41929,,,TRUE,TRUE,,,,,,,OVC,3100,,,,,,,VFR,,,,,,,,,,,,SPECI,45.0
KCGE 122100Z AUTO 00000KT 10SM OVC047 01/M11 A3050 RMK A01,KCGE,2019-01-12T21:00:00Z,38.53,-76.03,1.0,-11.0,0,0,,10.0,30.499016,,,TRUE,TRUE,,,,,,,OVC,4700,,,,,,,VFR,,,,,,,,,,,,SPECI,6.0
KCBE 122100Z AUTO 18005KT 10SM -SN BKN034 OVC045 00/M08 A3045 RMK AO2 T00001077,KCBE,2019-01-12T21:00:00Z,39.62,-78.77,0.0,-7.7,180,5,,10.0,30.448818,,,TRUE,TRUE,,,,,,-SN,BKN,3400,OVC,4500,,,,,VFR,,,,,,,,,,,,METAR,236.0
GOOK 122100Z 36004KT CAVOK 29/17 Q1012,GOOK,2019-01-12T21:00:00Z,14.15,-16.07,29.0,17.0,360,4,,6.21,29.88189,,,,,,,,,,,CAVOK,,,,,,,,VFR,,,,,,,,,,,,METAR,7.0
GOGS 122100Z VRB02KT CAVOK 21/19 Q1012,GOGS,2019-01-12T21:00:00Z,12.4,-16.75,21.0,19.0,0,2,,6.21,29.88189,,,,,,,,,,,CAVOK,,,,,,,,VFR,,,,,,,,,,,,METAR,13.0
UEEE 122100Z 00000MPS 0200 R23L/0600N FG VV004 M45/M50 Q1034 R23L/490150 NOSIG RMK QBB120 QFE767,UEEE,2019-01-12T21:00:00Z,62.08,129.77,-45.0,-50.0,0,0,,0.12,30.531496,,,,,,TRUE,,,,FG,OVX,0,,,,,,,LIFR,,,,,,,,,,,400,METAR,103.0
FYWW 122100Z AUTO 22004KT //// // ////// 22/M00 Q1020,FYWW,2019-01-12T21:00:00Z,-22.57,17.1,22.0,0.0,220,4,,,30.11811,,,TRUE,,,,,,,,,,,,,,,,,,,,,,,,,,,,METAR,1725.0
FYWH 122100Z AUTO 21002KT //// // ////// 20/M00 Q1020,FYWH,2019-01-12T21:00:00Z,-22.47,17.47,20.0,0.0,210,2,,,30.11811,,,TRUE,,,,,,,,,,,,,,,,,,,,,,,,,,,,SPECI,1700.0
FYWB 122100Z AUTO 27005KT //// // ////// 18/15 Q1014,FYWB,2019-01-12T21:00:00Z,-22.98,14.65,18.0,15.0,270,5,,,29.940945,,,TRUE,,,,,,,,,,,,,,,,,,,,,,,,,,,,SPECI,46.0
FYOW 122100Z AUTO 23004KT //// // ////// 22/M00 Q1016,FYOW,2019-01-12T21:00:00Z,-20.43,16.67,22.0,0.0,230,4,,,30.0,,,TRUE,,,,,,,,,,,,,,,,,,,,,,,,,,,,METAR,1481.0
FYOO 122100Z AUTO 21007KT //// // ////// 27/M00 Q1014,FYOO,2019-01-12T21:00:00Z,-19.15,15.92,27.0,0.0,210,7,,,29.940945,,,TRUE,,,,,,,,,,,,,,,,,,,,,,,,,,,,METAR,1192.0
FYOA 122100Z AUTO 21010KT //// // ////// 31/M00 Q1012,FYOA,2019-01-12T21:00:00Z,-17.88,15.97,31.0,0.0,210,10,,,29.88189,,,TRUE,,,,,,,,,,,,,,,,,,,,,,,,,,,,METAR,1095.0
FYKT 122100Z AUTO 22017KT //// // ////// 23/10 Q1014,FYKT,2019-01-12T21:00:00Z,-26.52,18.12,23.0,10.0,220,17,,,29.940945,,,TRUE,,,,,,,,,,,,,,,,,,,,,,,,,,,,METAR,1061.0
GOSS 122100Z 36004KT CAVOK 21/13 Q1013,GOSS,2019-01-12T21:00:00Z,16.05,-16.43,21.0,13.0,360,4,,6.21,29.911417,,,,,,,,,,,CAVOK,,,,,,,,VFR,,,,,,,,,,,,METAR,4.0
GOTT 122100Z 06002KT CAVOK 28/09 Q1011,GOTT,2019-01-12T21:00:00Z,13.73,-13.65,28.0,9.0,60,2,,6.21,29.852362,,,,,,,,,,,CAVOK,,,,,,,,VFR,,,,,,,,,,,,METAR,50.0
GOGG 122100Z VRB02KT CAVOK 24/16 Q1012,GOGG,2019-01-12T21:00:00Z,12.55,-16.27,24.0,16.0,0,2,,6.21,29.88189,,,,,,,,,,,CAVOK,,,,,,,,VFR,,,,,,,,,,,,METAR,23.0
GABS 122100Z 04004KT CAVOK 26/00 Q1016 NOSIG,GABS,2019-01-12T21:00:00Z,12.52,-7.95,26.0,0.0,40,4,,6.21,30.0,,,,,,TRUE,,,,,CAVOK,,,,,,,,VFR,,,,,,,,,,,,METAR,381.0
GAKD 122100Z 36004KT CAVOK 26/M04 Q1013,GAKD,2019-01-12T21:00:00Z,14.48,-11.4,26.0,-4.0,360,4,,6.21,29.911417,,,,,,,,,,,CAVOK,,,,,,,,VFR,,,,,,,,,,,,METAR,53.0
GAMB 122100Z 02010KT CAVOK 24/04 Q1015,GAMB,2019-01-12T21:00:00Z,14.52,-4.08,24.0,4.0,20,10,,6.21,29.970472,,,,,,,,,,,CAVOK,,,,,,,,VFR,,,,,,,,,,,,METAR,272.0
GQNO 122100Z 08005KT 8000 NSC 21/M15 Q1014 NOSIG,GQNO,2019-01-12T21:00:00Z,18.3,-15.97,21.0,-15.0,80,5,,4.97,29.940945,,,,,,TRUE,,,,,CLR,,,,,,,,MVFR,,,,,,,,,,,,METAR,4.0
GANR 122100Z 06004KT CAVOK 25/03 Q1016,GANR,2019-01-12T21:00:00Z,15.23,-9.58,25.0,3.0,60,4,,6.21,30.0,,,,,,,,,,,CAVOK,,,,,,,,VFR,,,,,,,,,,,,METAR,237.0
GUCY 122100Z VRB02KT 3000 BR NSC 27/24 Q1012 NOSIG,GUCY,2019-01-12T21:00:00Z,9.57,-13.62,27.0,24.0,0,2,,1.86,29.88189,,,,,,TRUE,,,,BR,CLR,,,,,,,,IFR,,,,,,,,,,,,METAR,26.0
UKOO 122100Z 27004MPS 9999 OVC043 M02/M03 Q1010 R34/190042 NOSIG,UKOO,2019-01-12T21:00:00Z,46.42,30.68,-2.0,-3.0,270,8,,6.21,29.822834,,,,,,TRUE,,,,,OVC,4300,,,,,,,VFR,,,,,,,,,,,,METAR,35.0
OEAB 122100Z 15004KT CAVOK 13/10 Q1026 NOSIG,OEAB,2019-01-12T21:00:00Z,18.22,42.63,13.0,10.0,150,4,,6.21,30.295275,,,,,,TRUE,,,,,CAVOK,,,,,,,,VFR,,,,,,,,,,,,METAR,2084.0
OEAH 122100Z 00000KT CAVOK 11/M02 Q1019 NOSIG,OEAH,2019-01-12T21:00:00Z,25.27,49.47,11.0,-2.0,0,0,,6.21,30.088583,,,,,,TRUE,,,,,CAVOK,,,,,,,,VFR,,,,,,,,,,,,METAR,172.0
OEBA 122100Z 00000KT CAVOK 16/09 Q1022 NOSIG,OEBA,2019-01-12T21:00:00Z,20.3,41.62,16.0,9.0,0,0,,6.21,30.177166,,,,,,TRUE,,,,,CAVOK,,,,,,,,VFR,,,,,,,,,,,,METAR,1656.0
OEAR 122100Z 00000KT CAVOK 23/16 Q1013,OEAR,2019-01-12T21:00:00Z,,,23.0,16.0,0,0,,6.21,29.911417,,,,,,,,,,,CAVOK,,,,,,,,VFR,,,,,,,,,,,,METAR,
OEAO 122100Z 20004KT CAVOK 20/14 Q1015,OEAO,2019-01-12T21:00:00Z,26.48,38.12,20.0,14.0,200,4,,6.21,29.970472,,,,,,,,,,,CAVOK,,,,,,,,VFR,,,,,,,,,,,,METAR,624.0
OEBH 122100Z 00000KT CAVOK 15/07 Q1019 NOSIG,OEBH,2019-01-12T21:00:00Z,19.97,42.62,15.0,7.0,0,0,,6.21,30.088583,,,,,,TRUE,,,,,CAVOK,,,,,,,,VFR,,,,,,,,,,,,METAR,1157.0
OEDM 122100Z 14014KT CAVOK 15/00 Q1018,OEDM,2019-01-12T21:00:00Z,24.45,44.12,15.0,0.0,140,14,,6.21,30.059055,,,,,,,,,,,CAVOK,,,,,,,,VFR,,,,,,,,,,,,METAR,922.0
OEGN 122100Z 09004KT CAVOK 25/21 Q1014 NOSIG,OEGN,2019-01-12T21:00:00Z,16.88,42.57,25.0,21.0,90,4,,6.21,29.940945,,,,,,TRUE,,,,,CAVOK,,,,,,,,VFR,,,,,,,,,,,,METAR,3.0
OEGS 122100Z 16008KT CAVOK 16/09 Q1015,OEGS,2019-01-12T21:00:00Z,26.3,43.77,16.0,9.0,160,8,,6.21,29.970472,,,,,,,,,,,CAVOK,,,,,,,,VFR,,,,,,,,,,,,METAR,650.0
OEGT 122100Z 29002KT 9999 BKN040 11/06 Q1010 NOSIG,OEGT,2019-01-12T21:00:00Z,31.42,37.27,11.0,6.0,290,2,,6.21,29.822834,,,,,,TRUE,,,,,BKN,4000,,,,,,,VFR,,,,,,,,,,,,METAR,499.0
OEHL 122100Z 23008KT CAVOK 16/00 Q1016,OEHL,2019-01-12T21:00:00Z,27.42,41.67,16.0,0.0,230,8,,6.21,30.0,,,,,,,,,,,CAVOK,,,,,,,,VFR,,,,,,,,,,,,METAR,1013.0
OEJB 122100Z AUTO 28006KT CAVOK 11/06 Q1019 NOSIG,OEJB,2019-01-12T21:00:00Z,27.05,49.38,11.0,6.0,280,6,,6.21,30.088583,,,TRUE,,,TRUE,,,,,CAVOK,,,,,,,,VFR,,,,,,,,,,,,METAR,8.0
OEKJ 122100Z 16010KT CAVOK 13/M08 Q1022,OEKJ,2019-01-12T21:00:00Z,24.07,47.58,13.0,-8.0,160,10,,6.21,30.177166,,,,,,,,,,,CAVOK,,,,,,,,VFR,,,,,,,,,,,,METAR,503.0
OEKM 122100Z 22004KT CAVOK 14/11 Q1026 NOSIG,OEKM,2019-01-12T21:00:00Z,18.3,42.78,14.0,11.0,220,4,,6.21,30.295275,,,,,,TRUE,,,,,CAVOK,,,,,,,,VFR,,,,,,,,,,,,METAR,2054.0
OENG 122100Z 08004KT CAVOK 15/03 Q1022 NOSIG,OENG,2019-01-12T21:00:00Z,17.62,44.42,15.0,3.0,80,4,,6.21,30.177166,,,,,,TRUE,,,,,CAVOK,,,,,,,,VFR,,,,,,,,,,,,METAR,1203.0
USHH 122100Z 14006MPS 2200 -SN BLSN BKN009 M14/M16 Q1009 R06/420334 TEMPO 15008G15MPS 0900 +SN BLSN VV003 RMK QFE753,USHH,2019-01-12T21:00:00Z,61.03,69.08,-14.0,-16.0,140,12,,1.37,29.793306,,,,,,,,,,-SN BLSN,BKN,900,,,,,,,IFR,,,,,,,,,,,,METAR,23.0
LDZA 122100Z VRB01KT CAVOK M02/M05 Q1014 NOSIG,LDZA,2019-01-12T21:00:00Z,45.72,16.07,-2.0,-5.0,0,1,,6.21,29.940945,,,,,,TRUE,,,,,CAVOK,,,,,,,,VFR,,,,,,,,,,,,METAR,107.0
LDSP 122100Z 32012KT CAVOK 06/M04 Q1015 NOSIG,LDSP,2019-01-12T21:00:00Z,43.52,16.3,6.0,-4.0,320,12,,6.21,29.970472,,,,,,TRUE,,,,,CAVOK,,,,,,,,VFR,,,,,,,,,,,,METAR,21.0
LDRI 122100Z 11006KT CAVOK 04/01 Q1015,LDRI,2019-01-12T21:00:00Z,45.22,14.57,4.0,1.0,110,6,,6.21,29.970472,,,,,,,,,,,CAVOK,,,,,,,,VFR,,,,,,,,,,,,METAR,85.0
LDPL 122100Z 07005KT CAVOK 00/M02 Q1015,LDPL,2019-01-12T21:00:00Z,44.88,13.92,0.0,-2.0,70,5,,6.21,29.970472,,,,,,,,,,,CAVOK,,,,,,,,VFR,,,,,,,,,,,,METAR,63.0
LDOS 122100Z 23005KT CAVOK 01/M03 Q1015,LDOS,2019-01-12T21:00:00Z,45.47,18.82,1.0,-3.0,230,5,,6.21,29.970472,,,,,,,,,,,CAVOK,,,,,,,,VFR,,,,,,,,,,,,METAR,89.0
LDDU 122100Z 02023KT 340V060 CAVOK 06/M07 Q1013 TEMPO 03025G35KT,LDDU,2019-01-12T21:00:00Z,42.57,18.27,6.0,-7.0,20,23,,6.21,29.911417,,,,,,,,,,,CAVOK,,,,,,,,VFR,,,,,,,,,,,,METAR,165.0
NTAA 122100Z 08014KT 9999 VCSH FEW023 SCT066 OVC150 29/24 Q1010 NOSIG,NTAA,2019-01-12T21:00:00Z,-17.55,-149.62,29.0,24.0,80,14,,6.21,29.822834,,,,,,TRUE,,,,VCSH,FEW,2300,SCT,6600,OVC,15000,,,VFR,,,,,,,,,,,,METAR,2.0
LPMT 122100Z 03006KT CAVOK 06/05 Q1029,LPMT,2019-01-12T21:00:00Z,38.7,-9.05,6.0,5.0,30,6,,6.21,30.383858,,,,,,,,,,,CAVOK,,,,,,,,VFR,,,,,,,,,,,,METAR,11.0
LPMR 122100Z 09003KT 020V150 CAVOK 06/04 Q1030,LPMR,2019-01-12T21:00:00Z,39.82,-8.87,6.0,4.0,90,3,,6.21,30.413385,,,,,,,,,,,CAVOK,,,,,,,,VFR,,,,,,,,,,,,METAR,54.0
LPOV 122100Z VRB02KT CAVOK 05/03 Q1030,LPOV,2019-01-12T21:00:00Z,40.92,-8.65,5.0,3.0,0,2,,6.21,30.413385,,,,,,,,,,,CAVOK,,,,,,,,VFR,,,,,,,,,,,,METAR,17.0
FMCZ 122100Z AUTO VRB03KT 9999 -RA NSC 26/25 Q1011 NOSIG,FMCZ,2019-01-12T21:00:00Z,-12.8,45.27,26.0,25.0,0,3,,6.21,29.852362,,,TRUE,,,TRUE,,,,-RA,CLR,,,,,,,,VFR,,,,,,,,,,,,METAR,7.0
SBRP 122100Z 26006KT 220V280 9999 FEW040 OVC100 23/20 Q1015,SBRP,2019-01-12T21:00:00Z,-21.12,-47.77,23.0,20.0,260,6,,6.21,29.970472,,,,,,,,,,,FEW,4000,OVC,10000,,,,,VFR,,,,,,,,,,,,METAR,549.0
SBCT 122100Z 08004KT 9999 SCT045 21/19 Q1018,SBCT,2019-01-12T21:00:00Z,-25.52,-49.17,21.0,19.0,80,4,,6.21,30.059055,,,,,,,,,,,SCT,4500,,,,,,,VFR,,,,,,,,,,,,METAR,908.0
SBCG 122100Z 27007KT 240V320 9999 TS FEW040 FEW045CB SCT100 29/ 21 Q1013,SBCG,2019-01-12T21:00:00Z,-20.47,-54.67,29.0,,270,7,,6.21,29.911417,,,,,,,,,,TS,FEW,4000,FEW,4500,SCT,10000,,,VFR,,,,,,,,,,,,METAR,567.0
VOCI 122100Z 09002KT 3500 BR FEW012 23/20 Q1011 NOSIG,VOCI,2019-01-12T21:00:00Z,10.15,76.4,23.0,20.0,90,2,,2.17,29.852362,,,,,,TRUE,,,,BR,FEW,1200,,,,,,,IFR,,,,,,,,,,,,METAR,8.0
WSSL 122100Z 01006KT CAVOK 26/23 Q1009,WSSL,2019-01-12T21:00:00Z,1.42,103.87,26.0,23.0,10,6,,6.21,29.793306,,,,,,,,,,,CAVOK,,,,,,,,VFR,,,,,,,,,,,,METAR,14.0
FSIA 122100Z 21003KT 9999 FEW025 25/23 Q1011 NOSIG,FSIA,2019-01-12T21:00:00Z,-4.67,55.52,25.0,23.0,210,3,,6.21,29.852362,,,,,,TRUE,,,,,FEW,2500,,,,,,,VFR,,,,,,,,,,,,METAR,3.0
LWSK 122100Z 36001KT 9999 BKN040 M03/M07 Q1017 R99/1///94 NOSIG,LWSK,2019-01-12T21:00:00Z,41.97,21.63,-3.0,-7.0,360,1,,6.21,30.029528,,,,,,TRUE,,,,,BKN,4000,,,,,,,VFR,,,,,,,,,,,,METAR,239.0
SBUG 122100Z VRB02KT 9999 -TSRA FEW040CB SCT047 BKN083 23/22 Q1 013,SBUG,2019-01-12T21:00:00Z,-29.77,-57.02,23.0,22.0,0,2,,6.21,,,,,,,,,,,-TSRA,FEW,4000,SCT,4700,BKN,8300,,,VFR,,,,,,,,,,,,METAR,74.0
FAJB 122100Z AUTO 29002KT //// // ////// 20/17 Q1019,FAJB,2019-01-12T21:00:00Z,-26.15,28.0,20.0,17.0,290,2,,,30.088583,,,TRUE,,,,,,,,,,,,,,,,,,,,,,,,,,,,METAR,1626.0
SBFI 122100Z 10005KT 9999 FEW030 FEW040TCU BKN080 27/21 Q1011,SBFI,2019-01-12T21:00:00Z,-25.6,-54.48,27.0,21.0,100,5,,6.21,29.852362,,,,,,,,,,,FEW,3000,FEW,4000,BKN,8000,,,VFR,,,,,,,,,,,,METAR,243.0
OMSJ 122100Z 23003KT CAVOK 18/13 Q1018,OMSJ,2019-01-12T21:00:00Z,25.32,55.52,18.0,13.0,230,3,,6.21,30.059055,,,,,,,,,,,CAVOK,,,,,,,,VFR,,,,,,,,,,,,METAR,33.0
OMRK 122100Z 21003KT CAVOK 15/09 Q1018 A3008,OMRK,2019-01-12T21:00:00Z,25.62,55.92,15.0,9.0,210,3,,6.21,30.059055,,,,,,,,,,,CAVOK,,,,,,,,VFR,,,,,,,,,,,,METAR,31.0
OMFJ 122100Z 30004KT 7000 NSC 20/12 Q1017 A3005,OMFJ,2019-01-12T21:00:00Z,25.1,56.32,20.0,12.0,300,4,,4.35,30.029528,,,,,,,,,,,CLR,,,,,,,,MVFR,,,,,,,,,,,,METAR,28.0
OMDW 122100Z 18004KT CAVOK 17/13 Q1018 NOSIG,OMDW,2019-01-12T21:00:00Z,24.9,55.17,17.0,13.0,180,4,,6.21,30.059055,,,,,,TRUE,,,,,CAVOK,,,,,,,,VFR,,,,,,,,,,,,METAR,25.0
OMDB 122100Z 21003KT CAVOK 20/14 Q1017 NOSIG,OMDB,2019-01-12T21:00:00Z,25.25,55.37,20.0,14.0,210,3,,6.21,30.029528,,,,,,TRUE,,,,,CAVOK,,,,,,,,VFR,,,,,,,,,,,,METAR,5.0
OMAL 122100Z 30005KT CAVOK 15/12 Q1018 NOSIG,OMAL,2019-01-12T21:00:00Z,24.25,55.6,15.0,12.0,300,5,,6.21,30.059055,,,,,,TRUE,,,,,CAVOK,,,,,,,,VFR,,,,,,,,,,,,METAR,262.0
OMAD 122100Z VRB02KT CAVOK 19/14 Q1018 NOSIG,OMAD,2019-01-12T21:00:00Z,24.42,54.47,19.0,14.0,0,2,,6.21,30.059055,,,,,,TRUE,,,,,CAVOK,,,,,,,,VFR,,,,,,,,,,,,METAR,3.0
OMAA 122100Z 26004KT 210V290 CAVOK 19/14 Q1017 TEMPO VRB02KT,OMAA,2019-01-12T21:00:00Z,24.42,54.63,19.0,14.0,260,4,,6.21,30.029528,,,,,,,,,,,CAVOK,,,,,,,,VFR,,,,,,,,,,,,METAR,27.0
KLLQ 122100Z AUTO 24008KT 10SM BKN015 BKN020 OVC024 14/11 A2991 RMK AO2 T01390111,KLLQ,2019-01-12T21:00:00Z,33.63,-91.75,13.9,11.1,240,8,,10.0,29.911417,,,TRUE,TRUE,,,,,,,BKN,1500,BKN,2000,OVC,2400,,,MVFR,,,,,,,,,,,,METAR,83.0
KGPT 122100Z 18007KT 10SM BR FEW017 OVC055 18/16 A2999 RMK AO2 T01830161,KGPT,2019-01-12T21:00:00Z,30.42,-89.08,18.3,16.1,180,7,,10.0,29.991142,,,,TRUE,,,,,,BR,FEW,1700,OVC,5500,,,,,VFR,,,,,,,,,,,,METAR,14.0
KAGC 122100Z VRB04KT 1 1/4SM R28/6000VP6000FT -SN BR OVC019 M03/M04 A3033 RMK AO2 P0000 T10281044,KAGC,2019-01-12T21:00:00Z,40.35,-79.92,-2.8,-4.4,0,4,,1.25,30.33071,,,,TRUE,,,,,,-SN BR,OVC,1900,,,,,,,IFR,,,,,,0.005,,,,,,SPECI,389.0
LFLW 122100Z AUTO 30007KT 6000 BKN008 OVC014 02/01 Q1027,LFLW,2019-01-12T21:00:00Z,44.88,2.42,2.0,1.0,300,7,,3.73,30.324802,,,TRUE,,,,,,,,BKN,800,OVC,1400,,,,,IFR,,,,,,,,,,,,METAR,639.0
GOGK 122100Z 00000KT 8000 NSC 24/16 Q1012,GOGK,2019-01-12T21:00:00Z,12.9,-14.97,24.0,16.0,0,0,,4.97,29.88189,,,,,,,,,,,CLR,,,,,,,,MVFR,,,,,,,,,,,,METAR,10.0
GOOD 122100Z 00000KT 8000 NSC 25/09 Q1013,GOOD,2019-01-12T21:00:00Z,14.65,-16.22,25.0,9.0,0,0,,4.97,29.911417,,,,,,,,,,,CLR,,,,,,,,MVFR,,,,,,,,,,,,METAR,9.0
GOSM 122100Z 00000KT CAVOK 27/07 Q1012,GOSM,2019-01-12T21:00:00Z,15.6,-13.33,27.0,7.0,0,0,,6.21,29.88189,,,,,,,,,,,CAVOK,,,,,,,,VFR,,,,,,,,,,,,METAR,17.0
GOOG 122100Z 02004KT 8000 NSC 28/09 Q////,GOOG,2019-01-12T21:00:00Z,15.4,-15.08,28.0,9.0,20,4,,4.97,,,,,,,,,,,,CLR,,,,,,,,MVFR,,,,,,,,,,,,METAR,21.0
GOSP 122100Z 36002KT CAVOK 24/04 Q1013,GOSP,2019-01-12T21:00:00Z,16.68,-14.97,24.0,4.0,360,2,,6.21,29.911417,,,,,,,,,,,CAVOK,,,,,,,,VFR,,,,,,,,,,,,METAR,7.0
UTFN 122100Z 32004KT 9999 NSC M00/M04 Q1030 R28/CLRD70 NOSIG,UTFN,2019-01-12T21:00:00Z,40.98,71.57,0.0,-4.0,320,4,,6.21,30.413385,,,,,,TRUE,,,,,CLR,,,,,,,,VFR,,,,,,,,,,,,METAR,490.0
UTNN 122100Z 11012KT 9999 BKN017 02/M01 Q1019 R15/CLRD60 NOSIG,UTNN,2019-01-12T21:00:00Z,42.48,59.63,2.0,-1.0,110,12,,6.21,30.088583,,,,,,TRUE,,,,,BKN,1700,,,,,,,MVFR,,,,,,,,,,,,METAR,67.0
YSSY 122100Z 18019KT 9999 FEW010 BKN015 22/20 Q1019 FM2130 18020KT 9999 FEW015 SCT020,YSSY,2019-01-12T21:00:00Z,-33.95,151.17,22.0,20.0,180,19,,6.21,30.088583,,,,,,,,,,,FEW,1000,BKN,1500,,,,,MVFR,,,,,,,,,,,,METAR,3.0
YPPH 122100Z 21010KT CAVOK 19/16 Q1010 NOSIG,YPPH,2019-01-12T21:00:00Z,-31.93,115.98,19.0,16.0,210,10,,6.21,29.822834,,,,,,TRUE,,,,,CAVOK,,,,,,,,VFR,,,,,,,,,,,,METAR,13.0
YPDN 122100Z 12006KT 9999 -RA FEW005 SCT018 BKN140 24/23 Q1007 NOSIG,YPDN,2019-01-12T21:00:00Z,-12.42,130.9,24.0,23.0,120,6,,6.21,29.734253,,,,,,TRUE,,,,-RA,FEW,500,SCT,1800,BKN,14000,,,VFR,,,,,,,,,,,,METAR,30.0
YPAD 122100Z 14010KT 9999 FEW022 17/09 Q1019 FM2300 VRB05KT CAVOK FM2100 MOD TURB BLW 5000FT TILL 2300,YPAD,2019-01-12T21:00:00Z,-34.95,138.52,17.0,9.0,140,10,,6.21,30.088583,,,,,,,,,,,FEW,2200,,,,,,,VFR,,,,,,,,,,,,METAR,4.0
DXSK 122100Z 00000KT 7000 NSC 27/09 Q////,DXSK,2019-01-12T21:00:00Z,9.0,1.15,27.0,9.0,0,0,,4.35,,,,,,,,,,,,CLR,,,,,,,,MVFR,,,,,,,,,,,,METAR,387.0
DXNG 122100Z 02006KT 8000 NSC 24/00 Q1015,DXNG,2019-01-12T21:00:00Z,9.77,1.1,24.0,0.0,20,6,,4.97,29.970472,,,,,,,,,,,CLR,,,,,,,,MVFR,,,,,,,,,,,,METAR,343.0
DXXX 122100Z 21010KT 180V240 9999 SCT013 29/26 Q1012 NOSIG,DXXX,2019-01-12T21:00:00Z,6.17,1.25,29.0,26.0,210,10,,6.21,29.88189,,,,,,TRUE,,,,,SCT,1300,,,,,,,VFR,,,,,,,,,,,,METAR,25.0
DFFD 122100Z 04004KT 8000 NSC 27/M01 Q1013 NOSIG,DFFD,2019-01-12T21:00:00Z,12.33,-1.52,27.0,-1.0,40,4,,4.97,29.911417,,,,,,TRUE,,,,,CLR,,,,,,,,MVFR,,,,,,,,,,,,METAR,306.0
DFOO 122100Z 02005KT 8000 NSC 25/08 Q1014,DFOO,2019-01-12T21:00:00Z,11.17,-4.32,25.0,8.0,20,5,,4.97,29.940945,,,,,,,,,,,CLR,,,,,,,,MVFR,,,,,,,,,,,,METAR,460.0
FTTA 122100Z 00000KT CAVOK 24/11 Q1010,FTTA,2019-01-12T21:00:00Z,9.15,18.37,24.0,11.0,0,0,,6.21,29.822834,,,,,,,,,,,CAVOK,,,,,,,,VFR,,,,,,,,,,,,METAR,365.0
FTTJ 122100Z 34006KT CAVOK 24/00 Q1011 NOSIG,FTTJ,2019-01-12T21:00:00Z,12.12,15.02,24.0,0.0,340,6,,6.21,29.852362,,,,,,TRUE,,,,,CAVOK,,,,,,,,VFR,,,,,,,,,,,,METAR,295.0
DBBB 122100Z 19009KT 7000 FEW012 29/26 Q1010 NOSIG,DBBB,2019-01-12T21:00:00Z,6.33,2.37,29.0,26.0,190,9,,4.35,29.822834,,,,,,TRUE,,,,,FEW,1200,,,,,,,MVFR,,,,,,,,,,,,METAR,9.0
WIPP 122100Z 28002KT 5000 BR FEW010 25/25 Q1009,WIPP,2019-01-12T21:00:00Z,-2.88,104.7,25.0,25.0,280,2,,3.11,29.793306,,,,,,,,,,BR,FEW,1000,,,,,,,MVFR,,,,,,,,,,,,METAR,10.0
WALL 122100Z 32002KT 8000 FEW018CB SCT020 26/25Q1008 RMK CB TO SE AND E,WALL,2019-01-12T21:00:00Z,-1.27,116.9,,,320,2,,4.97,29.763779,,,,,,,,,,,FEW,1800,SCT,2000,,,,,MVFR,,,,,,,,,,,,METAR,3.0
DTTX 122100Z 29006KT 9999 FEW023 07/M00 Q1023,DTTX,2019-01-12T21:00:00Z,34.72,10.67,7.0,0.0,290,6,,6.21,30.206694,,,,,,,,,,,FEW,2300,,,,,,,VFR,,,,,,,,,,,,METAR,23.0
WATT 122100Z 14002KT 8000 BKN015 25/24 Q1008 NOSIG,WATT,2019-01-12T21:00:00Z,-10.17,123.67,25.0,24.0,140,2,,4.97,29.763779,,,,,,TRUE,,,,,BKN,1500,,,,,,,MVFR,,,,,,,,,,,,METAR,102.0
WAPP 122100Z 34006KT 320V020 9999 FEW020 25/24 Q1007 NOSIG,WAPP,2019-01-12T21:00:00Z,-3.7,128.07,25.0,24.0,340,6,,6.21,29.734253,,,,,,TRUE,,,,,FEW,2000,,,,,,,VFR,,,,,,,,,,,,METAR,12.0
YGLA 122100Z AUTO 15009KT 9999 // NCD 25/19 Q1014 RF00.0/000.0,YGLA,2019-01-12T21:00:00Z,-23.87,151.22,25.0,19.0,150,9,,6.21,29.940945,,,TRUE,,,,,,,,CLR,,,,,,,,VFR,,,,,,,,,,,,METAR,52.0
YHID 122100Z AUTO 15008KT 9999 // NCD 26/24 Q1009,YHID,2019-01-12T21:00:00Z,-10.58,142.3,26.0,24.0,150,8,,6.21,29.793306,,,TRUE,,,,,,,,CLR,,,,,,,,VFR,,,,,,,,,,,,METAR,13.0
YPJT 122100Z AUTO 17005KT 9999 // NCD 18/16 Q1010 RF00.0/000.0,YPJT,2019-01-12T21:00:00Z,-32.1,115.88,18.0,16.0,170,5,,6.21,29.822834,,,TRUE,,,,,,,,CLR,,,,,,,,VFR,,,,,,,,,,,,METAR,30.0
YPWR 122100Z AUTO 16014KT 9999 // NCD 20/10 Q1015 RF00.0/000.0,YPWR,2019-01-12T21:00:00Z,-31.12,136.82,20.0,10.0,160,14,,6.21,29.970472,,,TRUE,,,,,,,,CLR,,,,,,,,VFR,,,,,,,,,,,,METAR,167.0
YLHI 122100Z AUTO 09009KT 9999 // NCD 25/19 Q1018,YLHI,2019-01-12T21:00:00Z,-31.53,159.07,25.0,19.0,90,9,,6.21,30.059055,,,TRUE,,,,,,,,CLR,,,,,,,,VFR,,,,,,,,,,,,METAR,2.0
YCFS 122100Z AUTO 31007KT 9999 // NCD 24/19 Q1018 RF00.0/000.0,YCFS,2019-01-12T21:00:00Z,-30.32,153.12,24.0,19.0,310,7,,6.21,30.059055,,,TRUE,,,,,,,,CLR,,,,,,,,VFR,,,,,,,,,,,,METAR,5.0
YPCC 122100Z AUTO 10007KT 9999 // BKN036 27/23 Q1010 RF00.0/000.0,YPCC,2019-01-12T21:00:00Z,-12.17,96.82,27.0,23.0,100,7,,6.21,29.822834,,,TRUE,,,,,,,,BKN,3600,,,,,,,VFR,,,,,,,,,,,,METAR,3.0
YPTN 122100Z AUTO 12004KT 9999 // SCT024 25/23 Q1008,YPTN,2019-01-12T21:00:00Z,-14.52,132.38,25.0,23.0,120,4,,6.21,29.763779,,,TRUE,,,,,,,,SCT,2400,,,,,,,VFR,,,,,,,,,,,,METAR,109.0
YPLM 122100Z AUTO 21014KT 9999 // NCD 21/19 Q1010 RF00.0/000.0,YPLM,2019-01-12T21:00:00Z,-22.22,114.07,21.0,19.0,210,14,,6.21,29.822834,,,TRUE,,,,,,,,CLR,,,,,,,,VFR,,,,,,,,,,,,METAR,6.0
VMMC 122100Z 01010KT 3200 BR FEW006 SCT012 BKN040 18/17 Q1018 NOSIG,VMMC,2019-01-12T21:00:00Z,22.15,113.58,18.0,17.0,10,10,,1.99,30.059055,,,,,,TRUE,,,,BR,FEW,600,SCT,1200,BKN,4000,,,IFR,,,,,,,,,,,,METAR,6.0
RCNN 122100Z 01012KT 8000 FEW014 BKN080 18/16 Q1017 NOSIG RMK A3004,RCNN,2019-01-12T21:00:00Z,22.93,120.2,18.0,16.0,10,12,,4.97,30.029528,,,,,,TRUE,,,,,FEW,1400,BKN,8000,,,,,MVFR,,,,,,,,,,,,METAR,19.0
RCMQ 122100Z 01012KT 9999 FEW006 SCT030 16/15 Q1018 NOSIG RMK A3007,RCMQ,2019-01-12T21:00:00Z,24.27,120.62,16.0,15.0,10,12,,6.21,30.059055,,,,,,TRUE,,,,,FEW,600,SCT,3000,,,,,VFR,,,,,,,,,,,,METAR,5.0
RCSS 122100Z 10008KT 9999 FEW012 SCT030 BKN045 18/16 Q1020 NOSIG RMK A3014,RCSS,2019-01-12T21:00:00Z,25.07,121.53,18.0,16.0,100,8,,6.21,30.11811,,,,,,TRUE,,,,,FEW,1200,SCT,3000,BKN,4500,,,VFR,,,,,,,,,,,,METAR,6.0
RCKH 122100Z 36007KT 320V020 7000 FEW012 BKN035 BKN060 21/19 Q1016 NOSIG RMK A3003,RCKH,2019-01-12T21:00:00Z,22.57,120.33,21.0,19.0,360,7,,4.35,30.0,,,,,,TRUE,,,,,FEW,1200,BKN,3500,BKN,6000,,,MVFR,,,,,,,,,,,,METAR,9.0
RCTP 122100Z 05014KT 9999 FEW006 BKN012 BKN020 18/16 Q1020 NOSIG RMK A3014,RCTP,2019-01-12T21:00:00Z,25.07,121.22,18.0,16.0,50,14,,6.21,30.11811,,,,,,TRUE,,,,,FEW,600,BKN,1200,BKN,2000,,,MVFR,,,,,,,,,,,,METAR,33.0
DGAA 122100Z 22010KT 8000 FEW014 BKN019 29/26 Q1012 NOSIG,DGAA,2019-01-12T21:00:00Z,5.58,-0.17,29.0,26.0,220,10,,4.97,29.88189,,,,,,TRUE,,,,,FEW,1400,BKN,1900,,,,,MVFR,,,,,,,,,,,,METAR,69.0
DRRN 122100Z 03006KT 6000 NSC 26/M09 Q1013 NOSIG,DRRN,2019-01-12T21:00:00Z,13.47,2.17,26.0,-9.0,30,6,,3.73,29.911417,,,,,,TRUE,,,,,CLR,,,,,,,,MVFR,,,,,,,,,,,,METAR,227.0
DNKN 122100Z 00000KT CAVOK 22/04 Q1016 NOSIG,DNKN,2019-01-12T21:00:00Z,12.05,8.52,22.0,4.0,0,0,,6.21,30.0,,,,,,TRUE,,,,,CAVOK,,,,,,,,VFR,,,,,,,,,,,,METAR,481.0
DNMM 122100Z 19003KT 5000 HZ FEW012 28/26 Q1012 NOSIG,DNMM,2019-01-12T21:00:00Z,6.57,3.32,28.0,26.0,190,3,,3.11,29.88189,,,,,,TRUE,,,,HZ,FEW,1200,,,,,,,MVFR,,,,,,,,,,,,METAR,38.0
DNAA 122100Z 07005KT 5000 HZ NSC 25/08 Q1013 NOSIG,DNAA,2019-01-12T21:00:00Z,9.0,7.27,25.0,8.0,70,5,,3.11,29.911417,,,,,,TRUE,,,,HZ,CLR,,,,,,,,MVFR,,,,,,,,,,,,METAR,344.0
AYMH 122100Z 00000KT 9999 BKN030 Q1018 RMK:FG ASSOCIATED WITH LCD IN AREA.TEMP/DP NOT AVBL,AYMH,2019-01-12T21:00:00Z,-5.83,144.3,,,0,0,,6.21,30.059055,,,,,,,,,,,BKN,3000,,,,,,,MVFR,,,,,,,,,,,,METAR,1642.0
AYNZ 122100Z 29010KT 9999 FEW015 24/22 Q1008,AYNZ,2019-01-12T21:00:00Z,-6.57,146.72,24.0,22.0,290,10,,6.21,29.763779,,,,,,,,,,,FEW,1500,,,,,,,VFR,,,,,,,,,,,,METAR,70.0
AYPY 122100Z 31005KT 9999 FEW030 BKN070 25/24 1009 RMKS: BUILD UPS IN AREA,AYPY,2019-01-12T21:00:00Z,-9.42,147.22,25.0,24.0,310,5,,6.21,,,,,,,,,,,,FEW,3000,BKN,7000,,,,,VFR,,,,,,,,,,,,METAR,47.0
UMKK 122100Z 20003MPS 170V230 6000 -DZ OVC005 01/01 Q0997 R24/29//54 NOSIG RMK QBB150 OBST OBSC QFE747/0996,UMKK,2019-01-12T21:00:00Z,54.88,20.6,1.0,1.0,200,6,,3.73,29.438976,,,,,,TRUE,,,,-DZ,OVC,500,,,,,,,IFR,,,,,,,,,,,,METAR,21.0
ULOO 122100Z AUTO 17002MPS 6000 // ///014/// M06/M07 Q0994 RMK QFE741,ULOO,2019-01-12T21:00:00Z,57.78,28.4,-6.0,-7.0,170,4,,3.73,29.350393,,,TRUE,,,,,,,,,,,,,,,,,,,,,,,,,,,,METAR,47.0
ULMM 122100Z 00000MPS 9999 BKN000 M06/M07 Q0974 R31/690139 NOSIG RMK QBB020 OBST OBSC QFE723,ULMM,2019-01-12T21:00:00Z,68.78,32.75,-6.0,-7.0,0,0,,6.21,28.759842,,,,,,TRUE,,,,,BKN,0,,,,,,,LIFR,,,,,,,,,,,,METAR,51.0
ULAA 122100Z 20003MPS 170V240 9999 OVC012CB M04/M04 Q0976 R08/590536 NOSIG RMK QFE731/0975,ULAA,2019-01-12T21:00:00Z,64.6,40.72,-4.0,-4.0,200,6,,6.21,28.818897,,,,,,TRUE,,,,,OVC,1200,,,,,,,MVFR,,,,,,,,,,,,METAR,19.0
WMKP 122100Z 04005KT 010V070 9000 SCT025 SCT140 BKN270 27/22 Q1009 NOSIG,WMKP,2019-01-12T21:00:00Z,5.28,100.27,27.0,22.0,40,5,,5.59,29.793306,,,,,,TRUE,,,,,SCT,2500,SCT,14000,BKN,27000,,,VFR,,,,,,,,,,,,METAR,4.0
WBKK 122100Z 09003KT 060V120 9999 FEW014 SCT140 BKN270 25/23 Q1009 NOSIG,WBKK,2019-01-12T21:00:00Z,5.92,116.03,25.0,23.0,90,3,,6.21,29.793306,,,,,,TRUE,,,,,FEW,1400,SCT,14000,BKN,27000,,,VFR,,,,,,,,,,,,METAR,3.0
TNCC 122100Z AUTO 11012KT 9999 NSC 28/21 Q1013 NOSIG,TNCC,2019-01-12T21:00:00Z,12.2,-68.97,28.0,21.0,110,12,,6.21,29.911417,,,TRUE,,,TRUE,,,,,CLR,,,,,,,,VFR,,,,,,,,,,,,METAR,9.0
SLYA 122100Z 00000KT 9999 SCT020 OVC070 23/21 Q1010,SLYA,2019-01-12T21:00:00Z,-21.97,-63.65,23.0,21.0,0,0,,6.21,29.822834,,,,,,,,,,,SCT,2000,OVC,7000,,,,,VFR,,,,,,,,,,,,SPECI,645.0
SLVG 122100Z 35006KT 9999 BKN025 19/14 Q1021,SLVG,2019-01-12T21:00:00Z,,,19.0,14.0,350,6,,6.21,30.147638,,,,,,,,,,,BKN,2500,,,,,,,MVFR,,,,,,,,,,,,SPECI,
SLSI 122100Z 36005KT 9999 SCT017 FEW025CB 29/23 Q1011,SLSI,2019-01-12T21:00:00Z,-16.37,-60.95,29.0,23.0,360,5,,6.21,29.852362,,,,,,,,,,,SCT,1700,FEW,2500,,,,,VFR,,,,,,,,,,,,SPECI,413.0
SLSA 122100Z 19006KT 6000 VCSH SCT017 FEW023CB BKN200 29/24 Q1008,SLSA,2019-01-12T21:00:00Z,-13.77,-65.43,29.0,24.0,190,6,,3.73,29.763779,,,,,,,,,,VCSH,SCT,1700,FEW,2300,BKN,20000,,,MVFR,,,,,,,,,,,,SPECI,144.0
SLRY 122100Z 00000KT 9999 SCT015 29/24 Q1008,SLRY,2019-01-12T21:00:00Z,-14.3,-67.37,29.0,24.0,0,0,,6.21,29.763779,,,,,,,,,,,SCT,1500,,,,,,,VFR,,,,,,,,,,,,SPECI,280.0
UTSB 122100Z 10008KT CAVOK 01/M01 Q1023 R01/CLRD70 NOSIG,UTSB,2019-01-12T21:00:00Z,39.77,64.48,1.0,-1.0,100,8,,6.21,30.206694,,,,,,TRUE,,,,,CAVOK,,,,,,,,VFR,,,,,,,,,,,,METAR,226.0
UTSA 122100Z 10012KT 7000 NSC 03/M00 Q1024 R07/CLRD70 NOSIG,UTSA,2019-01-12T21:00:00Z,40.12,65.17,3.0,0.0,100,12,,4.35,30.236221,,,,,,TRUE,,,,,CLR,,,,,,,,MVFR,,,,,,,,,,,,METAR,346.0
UTNU 122100Z 11010KT CAVOK 02/M00 Q1019 R13/CLRD70 NOSIG,UTNU,2019-01-12T21:00:00Z,41.58,60.63,2.0,0.0,110,10,,6.21,30.088583,,,,,,TRUE,,,,,CAVOK,,,,,,,,VFR,,,,,,,,,,,,METAR,98.0
UTSK 122100Z 08008KT 9000 NSC 02/M01 Q1024 R16/CLRD70,UTSK,2019-01-12T21:00:00Z,38.83,65.77,2.0,-1.0,80,8,,5.59,30.236221,,,,,,,,,,,CLR,,,,,,,,VFR,,,,,,,,,,,,METAR,1365.0
GOOY 122100Z 36004KT 8000 NSC 22/19 Q1013,GOOY,2019-01-12T21:00:00Z,14.72,-17.5,22.0,19.0,360,4,,4.97,29.911417,,,,,,,,,,,CLR,,,,,,,,MVFR,,,,,,,,,,,,METAR,24.0
UTTT 122100Z 01006KT CAVOK 02/M06 Q1026 R08R/CLRD70 NOSIG,UTTT,2019-01-12T21:00:00Z,41.27,69.27,2.0,-6.0,10,6,,6.21,30.295275,,,,,,TRUE,,,,,CAVOK,,,,,,,,VFR,,,,,,,,,,,,METAR,489.0
UTST 122100Z 02006KT CAVOK 02/M00 Q1027 R88/CLRD70 NOSIG,UTST,2019-01-12T21:00:00Z,37.28,67.32,2.0,0.0,20,6,,6.21,30.324802,,,,,,TRUE,,,,,CAVOK,,,,,,,,VFR,,,,,,,,,,,,METAR,302.0
UTSS 122100Z 13006KT 6000 NSC 01/M01 Q1024 R09/70D NOSIG,UTSS,2019-01-12T21:00:00Z,39.7,66.98,1.0,-1.0,130,6,,3.73,30.236221,,,,,,TRUE,,,,,CLR,,,,,,,,MVFR,,,,,,,,,,,,METAR,724.0
WMKJ 122100Z 00000KT 9999 FEW024 BKN300 24/23 Q1009,WMKJ,2019-01-12T21:00:00Z,1.62,103.67,24.0,23.0,0,0,,6.21,29.793306,,,,,,,,,,,FEW,2400,BKN,30000,,,,,VFR,,,,,,,,,,,,METAR,40.0
FOOG 122100Z 20006KT TS 9999 SCT008 FEW020CB 26/25 Q1011,FOOG,2019-01-12T21:00:00Z,-0.7,8.75,26.0,25.0,200,6,,6.21,29.852362,,,,,,,,,,TS,SCT,800,FEW,2000,,,,,VFR,,,,,,,,,,,,METAR,4.0
TDPD 122100Z 12005KT FEW021 27/21 Q1017,TDPD,2019-01-12T21:00:00Z,15.55,-61.3,27.0,21.0,120,5,,,30.029528,,,,,,,,,,,FEW,2100,,,,,,,,,,,,,,,,,,,METAR,14.0
HUEN 122100Z 26005KT 9999 FEW022 FEW024CB 23/21 Q1015 NOSIG,HUEN,2019-01-12T21:00:00Z,0.03,32.45,23.0,21.0,260,5,,6.21,29.970472,,,,,,TRUE,,,,,FEW,2200,FEW,2400,,,,,VFR,,,,,,,,,,,,METAR,1155.0
VIAR 122100Z VRB02KT 2500 BR SCT040 BKN100 10/09 Q1019 NOSIG,VIAR,2019-01-12T21:00:00Z,31.7,74.8,10.0,9.0,0,2,,1.55,30.088583,,,,,,TRUE,,,,BR,SCT,4000,BKN,10000,,,,,IFR,,,,,,,,,,,,METAR,234.0
HKNW 122100Z 03005KT CAVOK 19/10 Q1020,HKNW,2019-01-12T21:00:00Z,-1.32,36.82,19.0,10.0,30,5,,6.21,30.11811,,,,,,,,,,,CAVOK,,,,,,,,VFR,,,,,,,,,,,,METAR,1679.0
HKJK 122100Z 03004KT CAVOK 17/10 Q1021 NOSIG,HKJK,2019-01-12T21:00:00Z,-1.32,36.92,17.0,10.0,30,4,,6.21,30.147638,,,,,,TRUE,,,,,CAVOK,,,,,,,,VFR,,,,,,,,,,,,METAR,1624.0
HKEL 122100Z 12012KT CAVOK 15/04 Q1023,HKEL,2019-01-12T21:00:00Z,0.4,35.23,15.0,4.0,120,12,,6.21,30.206694,,,,,,,,,,,CAVOK,,,,,,,,VFR,,,,,,,,,,,,METAR,2133.0
CYKY 122100Z 28010KT 15SM FEW120 SCT250 M01/M06 A2999 RMK AC2CI1 SLP195,CYKY,2019-01-12T21:00:00Z,51.52,-109.17,-1.0,-6.0,280,10,,15.0,29.991142,1019.5,,,,,,,,,,FEW,12000,SCT,25000,,,,,VFR,,,,,,,,,,,,SPECI,694.0
CYLK 122100Z 27010KT 20SM -SN OVC010 M16/M19 A2995 RMK SC8 ESTD WND SN ON GND TRACE TOTAL SN DEPTH 28 LAST STAFFED OBS/NEXT 131500 VIA CYWG SLP166,CYLK,2019-01-12T21:00:00Z,62.42,-110.67,-16.0,-19.0,270,10,,20.0,29.949802,1016.6,,,,,,,,,-SN,OVC,1000,,,,,,,MVFR,,,,,,,,,,,,SPECI,179.0
OIMT 122100Z AUTO 06002KT //// // ////// 02/M09 Q1020,OIMT,2019-01-12T21:00:00Z,33.67,56.92,2.0,-9.0,60,2,,,30.11811,,,TRUE,,,,,,,,,,,,,,,,,,,,,,,,,,,,METAR,711.0
FMSD 122100Z 00000KT 9999 VCSH SCT016 BKN033 25/24 Q1011 RERA,FMSD,2019-01-12T21:00:00Z,-25.02,46.95,25.0,24.0,0,0,,6.21,29.852362,,,,,,,,,,VCSH,SCT,1600,BKN,3300,,,,,VFR,,,,,,,,,,,,METAR,9.0
FMNM 122100Z 28002KT 9999 SCT020CB SCT040 27/24 Q1012,FMNM,2019-01-12T21:00:00Z,-15.67,46.35,27.0,24.0,280,2,,6.21,29.88189,,,,,,,,,,,SCT,2000,SCT,4000,,,,,VFR,,,,,,,,,,,,METAR,18.0
FMMT 122100Z 00000KT 9999 VCTS SCT017CB SCT033 26/25 Q1012,FMMT,2019-01-12T21:00:00Z,-18.12,49.38,26.0,25.0,0,0,,6.21,29.88189,,,,,,,,,,VCTS,SCT,1700,SCT,3300,,,,,VFR,,,,,,,,,,,,METAR,6.0
FQCH 122100Z 10008KT 9999 -TS SCT015 FEW020CB 25/24 Q1014 RMK CB TO NW,FQCH,2019-01-12T21:00:00Z,-19.15,33.43,25.0,24.0,100,8,,6.21,29.940945,,,,,,,,,,-TS,SCT,1500,FEW,2000,,,,,VFR,,,,,,,,,,,,SPECI,732.0
CYYZ 122100Z 03008KT 15SM FEW030 FEW090 BKN240 M05/M13 A3050 RMK SC1AC1CS7 SC TR AC TR SLP341,CYYZ,2019-01-12T21:00:00Z,43.67,-79.62,-5.0,-13.0,30,8,,15.0,30.499016,1034.1,,,,,,,,,,FEW,3000,FEW,9000,BKN,24000,,,VFR,,,,,,,,,,,,METAR,173.0
CYYT 122100Z 23015G22KT 15SM OVC032 M01/M04 A3002 RMK SC8 SLP176,CYYT,2019-01-12T21:00:00Z,47.62,-52.72,-1.0,-4.0,230,15,22,15.0,30.02067,1017.6,,,,,,,,,,OVC,3200,,,,,,,VFR,,,,,,,,,,,,METAR,140.0
CYYR 122100Z 34006KT 7SM -SN FEW017 SCT023 SCT037 OVC097 M06/M07 A2982 RMK SC2SC2SC1AC4 SLP102,CYYR,2019-01-12T21:00:00Z,53.32,-60.42,-6.0,-7.0,340,6,,7.0,29.819881,1010.2,,,,,,,,,-SN,FEW,1700,SCT,2300,SCT,3700,OVC,9700,VFR,,,,,,,,,,,,METAR,49.0
CYYQ 122100Z 22023G30KT 3SM -SN BLSN OVC050 M10/M13 A2986 RMK BLSN2SC6 VIS VRB 2-4 SLP115,CYYQ,2019-01-12T21:00:00Z,58.75,-94.07,-10.0,-13.0,220,23,30,3.0,29.861221,1011.5,,,,,,,,,-SN BLSN,OVC,5000,,,,,,,MVFR,,,,,,,,,,,,METAR,29.0
CYYJ 122100Z 04007KT 30SM FEW085 FEW120 SCT180 SCT250 10/04 A2998 RMK AC1AC2AC2CI1 AC TR CI TR PRESFR SLP154,CYYJ,2019-01-12T21:00:00Z,48.63,-123.42,10.0,4.0,40,7,,30.0,29.97933,1015.4,,,,,,,,,,FEW,8500,FEW,12000,SCT,18000,SCT,25000,VFR,,,,,,,,,,,,METAR,19.0
CYYC 122100Z 22004KT 40SM FEW170 BKN190 BKN210 BKN240 05/M07 A2997 RMK AC2AC3CI1CI1 SLP177,CYYC,2019-01-12T21:00:00Z,51.12,-114.02,5.0,-7.0,220,4,,40.0,29.970472,1017.7,,,,,,,,,,FEW,17000,BKN,19000,BKN,21000,BKN,24000,VFR,,,,,,,,,,,,METAR,1084.0
CYXX 122100Z 00000KT 30SM FEW120 SCT220 BKN250 11/03 A3001 RMK AC1CI4CI1 AC TR CONTRAILS SLP166,CYXX,2019-01-12T21:00:00Z,49.03,-122.38,11.0,3.0,0,0,,30.0,30.008858,1016.6,,,,,,,,,,FEW,12000,SCT,22000,BKN,25000,,,VFR,,,,,,,,,,,,METAR,58.0
CYWG 122100Z 19006KT 15SM OVC006 M06/M09 A3040 RMK SC8 SLP317,CYWG,2019-01-12T21:00:00Z,49.88,-97.22,-6.0,-9.0,190,6,,15.0,30.398623,1031.7,,,,,,,,,,OVC,600,,,,,,,IFR,,,,,,,,,,,,METAR,239.0
CYVR 122100Z 31004KT 30SM FEW120 SCT220 BKN250 09/05 A3001 RMK AC2CC1CI4 SLP164,CYVR,2019-01-12T21:00:00Z,49.17,-123.17,9.0,5.0,310,4,,30.0,30.008858,1016.4,,,,,,,,,,FEW,12000,SCT,22000,BKN,25000,,,VFR,,,,,,,,,,,,METAR,2.0
CYUL 122100Z 26011KT 30SM FEW240 M14/M21 A3055 RMK CI1 CI TR SLP350,CYUL,2019-01-12T21:00:00Z,45.47,-73.73,-14.0,-21.0,260,11,,30.0,30.549213,1035.0,,,,,,,,,,FEW,24000,,,,,,,VFR,,,,,,,,,,,,METAR,36.0
CYTR 122100Z 13002KT 15SM BKN200 M07/M19 A3056 RMK CI6 SLP357,CYTR,2019-01-12T21:00:00Z,44.12,-77.52,-7.0,-19.0,130,2,,15.0,30.561024,1035.7,,,,,,,,,,BKN,20000,,,,,,,VFR,,,,,,,,,,,,METAR,86.0
CYQY 122100Z 26010G15KT 15SM BKN023 BKN110 M10/M15 A3005 RMK SC5AC2 SLP183,CYQY,2019-01-12T21:00:00Z,46.17,-60.03,-10.0,-15.0,260,10,15,15.0,30.050198,1018.3,,,,,,,,,,BKN,2300,BKN,11000,,,,,MVFR,,,,,,,,,,,,METAR,62.0
CYQX 122100Z 20009KT 15SM -SHSN FEW027 OVC046 M04/M07 A2994 RMK SC2SC6 CVCTV CLD EMBD SLP150,CYQX,2019-01-12T21:00:00Z,48.95,-54.58,-4.0,-7.0,200,9,,15.0,29.940945,1015.0,,,,,,,,,-SHSN,FEW,2700,OVC,4600,,,,,VFR,,,,,,,,,,,,METAR,151.0
CYQQ 122100Z 19002KT 20SM FEW006 SCT012 BKN090 BKN120 08/07 A3000 RMK SF1SC2AC3AC1 SLP160,CYQQ,2019-01-12T21:00:00Z,49.72,-124.9,8.0,7.0,190,2,,20.0,30.0,1016.0,,,,,,,,,,FEW,600,SCT,1200,BKN,9000,BKN,12000,VFR,,,,,,,,,,,,METAR,24.0
CYQM 122100Z 27013KT 15SM FEW024 BKN095 M13/M17 A3012 RMK SC2AC5 SLP207,CYQM,2019-01-12T21:00:00Z,46.12,-64.67,-13.0,-17.0,270,13,,15.0,30.121063,1020.7,,,,,,,,,,FEW,2400,BKN,9500,,,,,VFR,,,,,,,,,,,,METAR,71.0
CYQG 122100Z AUTO 08015KT 9SM OVC075 M02/M07 A3041 RMK SLP309,CYQG,2019-01-12T21:00:00Z,42.27,-82.97,-2.0,-7.0,80,15,,9.0,30.410433,1030.9,,TRUE,,,,,,,,OVC,7500,,,,,,,VFR,,,,,,,,,,,,METAR,190.0
CYQB 122100Z 26014KT 30SM FEW030 SCT080 M15/M20 A3044 RMK SC1AC3 SC TR SLP318,CYQB,2019-01-12T21:00:00Z,46.78,-71.37,-15.0,-20.0,260,14,,30.0,30.43996,1031.8,,,,,,,,,,FEW,3000,SCT,8000,,,,,VFR,,,,,,,,,,,,METAR,73.0
CYOW 122100Z 29007KT 15SM FEW240 M14/M21 A3056 RMK CI1 CI TR SLP363,CYOW,2019-01-12T21:00:00Z,45.32,-75.67,-14.0,-21.0,290,7,,15.0,30.561024,1036.3,,,,,,,,,,FEW,24000,,,,,,,VFR,,,,,,,,,,,,METAR,114.0
CYMX 122100Z 25005KT 45SM FEW250 M14/M21 A3053 RMK CI1 CI TR SLP348,CYMX,2019-01-12T21:00:00Z,45.67,-74.02,-14.0,-21.0,250,5,,45.0,30.528543,1034.8,,,,,,,,,,FEW,25000,,,,,,,VFR,,,,,,,,,,,,METAR,82.0
CYJT 122100Z 19013KT 15SM -SHSN OVC022 M06/M11 A2996 RMK SC8 CVCTV CLD EMBD SLP147,CYJT,2019-01-12T21:00:00Z,48.55,-58.57,-6.0,-11.0,190,13,,15.0,29.958662,1014.7,,,,,,,,,-SHSN,OVC,2200,,,,,,,MVFR,,,,,,,,,,,,METAR,26.0
CYHZ 122100Z 28015G21KT 15SM BKN024 M11/M15 A3011 RMK SC7 SLP208,CYHZ,2019-01-12T21:00:00Z,44.87,-63.5,-11.0,-15.0,280,15,21,15.0,30.109253,1020.8,,,,,,,,,,BKN,2400,,,,,,,MVFR,,,,,,,,,,,,METAR,145.0
CYGL 122100Z 28011KT 7SM -SN SCT012 OVC050 M18/M20 A3047 RMK SC4SC4 SLP343,CYGL,2019-01-12T21:00:00Z,53.62,-77.7,-18.0,-20.0,280,11,,7.0,30.469488,1034.3,,,,,,,,,-SN,SCT,1200,OVC,5000,,,,,VFR,,,,,,,,,,,,METAR,195.0
WMBA 122100Z 00000KT 6000 FEW033 BKN300 24/23 Q1009,WMBA,2019-01-12T21:00:00Z,4.22,100.7,24.0,23.0,0,0,,3.73,29.793306,,,,,,,,,,,FEW,3300,BKN,30000,,,,,MVFR,,,,,,,,,,,,METAR,8.0
CWEL 122100Z AUTO 16008KT 09/06 RMK AO1 SLP158 T00850057 58002,CWEL,2019-01-12T21:00:00Z,49.22,-123.78,8.5,5.7,160,8,,,,1015.8,,TRUE,TRUE,,,,,,,,,,,,,,,,-0.2,,,,,,,,,,,METAR,5.0
CWEW 122100Z AUTO 22007KT M14/M20 RMK AO1 SOG 14 3006 SLP351 T11411195,CWEW,2019-01-12T21:00:00Z,45.82,-73.43,-14.1,-19.5,220,7,,,,1035.1,,TRUE,TRUE,,,,,,,,,,,,,,,,,,,,,,,,,,,METAR,21.0
LBPG 122100Z 25010KT 9999 SKC M04/M07 Q1013,LBPG,2019-01-12T21:00:00Z,42.28,24.72,-4.0,-7.0,250,10,,6.21,29.911417,,,,,,,,,,,SKC,,,,,,,,VFR,,,,,,,,,,,,METAR,58.0
VILK 122100Z 00000KT 0800 R27/1200 RMID/1000 R09/1500 MIFG NSC 10/09 Q1017 NOSIG,VILK,2019-01-12T21:00:00Z,26.75,80.87,10.0,9.0,0,0,,0.5,30.029528,,,,,,TRUE,,,,MIFG,CLR,,,,,,,,LIFR,,,,,,,,,,,,SPECI,128.0
CXKA 122100Z AUTO 09001KT M19/M24 RMK AO1 SOG 38 8009 SLP404 T11941244,CXKA,2019-01-12T21:00:00Z,49.4,-82.45,-19.4,-24.4,90,1,,,,1040.4,,TRUE,TRUE,,,,,,,,,,,,,,,,,,,,,,,,,,,METAR,218.0
CWZO 122100Z AUTO 01010KT RMK AO1,CWZO,2019-01-12T21:00:00Z,48.55,-123.23,,,10,10,,,,,,TRUE,TRUE,,,,,,,,,,,,,,,,,,,,,,,,,,,METAR,1.0
CWYY 122100Z AUTO 17003KT M00/M02 RMK AO1 SLP255 T10041015 58005,CWYY,2019-01-12T21:00:00Z,49.03,-119.43,-0.4,-1.5,170,3,,,,1025.5,,TRUE,TRUE,,,,,,,,,,,,,,,,-0.5,,,,,,,,,,,METAR,283.0
CWYJ 122100Z AUTO 02006KT 09/03 RMK AO1 SLP148 T00920034 58009,CWYJ,2019-01-12T21:00:00Z,48.45,-123.3,9.2,3.4,20,6,,,,1014.8,,TRUE,TRUE,,,,,,,,,,,,,,,,-0.9,,,,,,,,,,,METAR,39.0
CWSL 122100Z AUTO 09001KT 01/M01 RMK AO1 SOG 14 7008 SLP245 T00121008,CWSL,2019-01-12T21:00:00Z,50.7,-119.27,1.2,-0.8,90,1,,,,1024.5,,TRUE,TRUE,,,,,,,,,,,,,,,,,,,,,,,,,,,METAR,351.0
CWSK 122100Z AUTO 34003KT 06/04 RMK AO1 SOG 01 8007 SLP171 T00610040 50002,CWSK,2019-01-12T21:00:00Z,49.78,-123.17,6.1,4.0,340,3,,,,1017.1,,TRUE,TRUE,,,,,,,,,,,,,,,,0.2,,,,,,,,,,,METAR,60.0
CWRY 122100Z AUTO 12003KT 14/M09 RMK AO1 SOG 03 6008 SLP182 T01391091,CWRY,2019-01-12T21:00:00Z,49.12,-112.03,13.9,-9.1,120,3,,,,1018.2,,TRUE,TRUE,,,,,,,,,,,,,,,,,,,,,,,,,,,METAR,1050.0
CWRK 122100Z AUTO 29002KT M11/M20 RMK AO1 SOG 19 8004 SLP347 T11061200,CWRK,2019-01-12T21:00:00Z,45.07,-77.87,-10.6,-20.0,290,2,,,,1034.7,,TRUE,TRUE,,,,,,,,,,,,,,,,,,,,,,,,,,,METAR,331.0
CWQV 122100Z AUTO 28030G39KT M18/M23 RMK AO1 PK WND 27039/2052 T11791231,CWQV,2019-01-12T21:00:00Z,48.27,-70.12,-17.9,-23.1,280,30,39,,,,,TRUE,TRUE,,,,,,,,,,,,,,,,,,,,,,,,,,,METAR,1.0
CWQR 122100Z AUTO 32016KT M04/M09 RMK AO1 PK WND 33022/2042 T10361089,CWQR,2019-01-12T21:00:00Z,50.22,-64.22,-3.6,-8.9,320,16,,,,,,TRUE,TRUE,,,,,,,,,,,,,,,,,,,,,,,,,,,METAR,9.0
CWQP 122100Z AUTO 10002KT M08/M15 RMK AO1 SOG 02 7006 SLP354 T10761152,CWQP,2019-01-12T21:00:00Z,43.83,-77.15,-7.6,-15.2,100,2,,,,1035.4,,TRUE,TRUE,,,,,,,,,,,,,,,,,,,,,,,,,,,METAR,79.0
CWQO 122100Z AUTO 24026G31KT M13/M15 RMK AO1 PK WND 24031/2056 T11271149,CWQO,2019-01-12T21:00:00Z,48.42,-68.9,-12.7,-14.9,240,26,31,,,,,TRUE,TRUE,,,,,,,,,,,,,,,,,,,,,,,,,,,METAR,1.0
CWQK 122100Z AUTO 07010G15KT 10/03 RMK AO1 PK WND 06019/2043 SLP154 T00970032 58003,CWQK,2019-01-12T21:00:00Z,48.3,-123.53,9.7,3.2,70,10,15,,,1015.4,,TRUE,TRUE,,,,,,,,,,,,,,,,-0.3,,,,,,,,,,,METAR,5.0
CZDB 122100Z AUTO 29009KT M13/M17 RMK AO1 SOG 10 3024 PK WND 26019/2017 SLP212 T11261172,CZDB,2019-01-12T21:00:00Z,45.42,-63.47,-12.6,-17.2,290,9,,,,1021.2,,TRUE,TRUE,,,,,,,,,,,,,,,,,,,,,,,,,,,METAR,38.0
CZCR 122100Z AUTO 27011G16KT M13/M17 RMK AO1 SOG 34 1028 PK WND 27020/2041 SLP211 T11291169,CZCR,2019-01-12T21:00:00Z,47.97,-66.32,-12.9,-16.9,270,11,16,,,1021.1,,TRUE,TRUE,,,,,,,,,,,,,,,,,,,,,,,,,,,METAR,38.0
CXNP 122100Z AUTO 26009KT M13/M17 RMK AO1 SOG 09 3022 SLP215 T11261170,CXNP,2019-01-12T21:00:00Z,45.75,-64.23,-12.6,-17.0,260,9,,,,1021.5,,TRUE,TRUE,,,,,,,,,,,,,,,,,,,,,,,,,,,METAR,20.0
CWBK 122100Z AUTO 28017G22KT M11/M16 RMK AO1 SOG 75 3023 PK WND 27024/2024 SLP197 T11141157,CWBK,2019-01-12T21:00:00Z,45.77,-62.67,-11.4,-15.7,280,17,22,,,1019.7,,TRUE,TRUE,,,,,,,,,,,,,,,,,,,,,,,,,,,METAR,2.0
CAHR 122100Z AUTO 26007KT M14/M17 RMK AO1 SOG 37 1020 SLP194 T11381167,CAHR,2019-01-12T21:00:00Z,46.35,-63.17,-13.8,-16.7,260,7,,,,1019.4,,TRUE,TRUE,,,,,,,,,,,,,,,,,,,,,,,,,,,METAR,53.0
CWWF 122100Z AUTO 17015KT M08/M12 RMK AO1 SOG 05 6021 PK WND 17021/2021 SLP248 T10751116,CWWF,2019-01-12T21:00:00Z,49.7,-103.8,-7.5,-11.6,170,15,,,,1024.8,,TRUE,TRUE,,,,,,,,,,,,,,,,,,,,,,,,,,,METAR,589.0
CWWA 122100Z AUTO 36001KT 08/03 RMK AO1 SLP158 T00840034 58002,CWWA,2019-01-12T21:00:00Z,49.35,-123.17,8.4,3.4,360,1,,,,1015.8,,TRUE,TRUE,,,,,,,,,,,,,,,,-0.2,,,,,,,,,,,METAR,178.0
CWVQ 122100Z AUTO 27008KT M14/M21 RMK AO1 SOG 14 1004 SLP351 T11371211,CWVQ,2019-01-12T21:00:00Z,45.42,-73.92,-13.7,-21.1,270,8,,,,1035.1,,TRUE,TRUE,,,,,,,,,,,,,,,,,,,,,,,,,,,METAR,39.0
CWVP 122100Z AUTO 26002KT 04/M05 RMK AO1 SOG 12 5009 SLP183 T00441051,CWVP,2019-01-12T21:00:00Z,49.63,-109.52,4.4,-5.1,260,2,,,,1018.3,,TRUE,TRUE,,,,,,,,,,,,,,,,,,,,,,,,,,,METAR,1271.0
CWVN 122100Z AUTO 20007KT M01/M06 RMK AO1 SLP221 T10061062 56021,CWVN,2019-01-12T21:00:00Z,49.07,-107.57,-0.6,-6.2,200,7,,,,1022.1,,TRUE,TRUE,,,,,,,,,,,,,,,,-2.1,,,,,,,,,,,METAR,785.0
CWVI 122100Z AUTO 16002KT M08/M13 RMK AO1 SOG 21 3005 SLP201 T10801129,CWVI,2019-01-12T21:00:00Z,53.52,-112.1,-8.0,-12.9,160,2,,,,1020.1,,TRUE,TRUE,,,,,,,,,,,,,,,,,,,,,,,,,,,METAR,639.0
CWVF 122100Z AUTO 06002KT 08/04 RMK AO1 T00770041,CWVF,2019-01-12T21:00:00Z,49.1,-123.3,7.7,4.1,60,2,,,,,,TRUE,TRUE,,,,,,,,,,,,,,,,,,,,,,,,,,,METAR,1.0
CWTA 122100Z AUTO 28002KT M14/M21 RMK AO1 SOG 32 1004 SLP344 T11401207,CWTA,2019-01-12T21:00:00Z,45.5,-73.58,-14.0,-20.7,280,2,,,,1034.4,,TRUE,TRUE,,,,,,,,,,,,,,,,,,,,,,,,,,,METAR,63.0
CWWB 122100Z AUTO 05013KT M04/M09 RMK AO1 PK WND 06017/2004 SLP338 T10401090 56004,CWWB,2019-01-12T21:00:00Z,43.3,-79.78,-4.0,-9.0,50,13,,,,1033.8,,TRUE,TRUE,,,,,,,,,,,,,,,,-0.4,,,,,,,,,,,METAR,76.0
CWPC 122100Z AUTO 07013KT M05/M12 RMK AO1 SLP334 T10481118 57009,CWPC,2019-01-12T21:00:00Z,42.87,-79.25,-4.8,-11.8,70,13,,,,1033.4,,TRUE,TRUE,,,,,,,,,,,,,,,,-0.9,,,,,,,,,,,METAR,184.0
CWLS 122100Z AUTO 06005KT M08/M12 RMK AO1 SOG 10 6006 SLP335 T10781119,CWLS,2019-01-12T21:00:00Z,43.97,-80.75,-7.8,-11.9,60,5,,,,1033.5,,TRUE,TRUE,,,,,,,,,,,,,,,,,,,,,,,,,,,METAR,415.0
CWMQ 122100Z AUTO 25005KT 12/M07 RMK AO1 SLP174 T01221072 55007,CWMQ,2019-01-12T21:00:00Z,49.9,-109.47,12.2,-7.2,250,5,,,,1017.4,,TRUE,TRUE,,,,,,,,,,,,,,,,-0.7,,,,,,,,,,,METAR,767.0
CWMJ 122100Z AUTO 35004KT M15/M22 RMK AO1 SOG 32 1003 SLP365 T11531215,CWMJ,2019-01-12T21:00:00Z,46.27,-76.0,-15.3,-21.5,350,4,,,,1036.5,,TRUE,TRUE,,,,,,,,,,,,,,,,,,,,,,,,,,,METAR,200.0
CWKH 122100Z AUTO 08/04 RMK AO1 SLP138 T00780036 58010,CWKH,2019-01-12T21:00:00Z,48.57,-123.55,7.8,3.6,,,,,,1013.8,,TRUE,TRUE,,,,,,,,,,,,,,,,-1.0,,,,,,,,,,,METAR,366.0
CWKG 122100Z AUTO 29007G15KT M11/M14 RMK AO1 SOG 07 1017 SLP227 T11081138,CWKG,2019-01-12T21:00:00Z,44.43,-65.2,-10.8,-13.8,290,7,15,,,1022.7,,TRUE,TRUE,,,,,,,,,,,,,,,,,,,,,,,,,,,METAR,165.0
CWJX 122100Z AUTO 29006KT 02/M05 RMK AO1 SOG 03 3002 SLP189 T00221054,CWJX,2019-01-12T21:00:00Z,50.88,-109.5,2.2,-5.4,290,6,,,,1018.9,,TRUE,TRUE,,,,,,,,,,,,,,,,,,,,,,,,,,,METAR,672.0
CWJV 122100Z AUTO 14001KT M00/M01 RMK AO1 7006 SLP246 T10011012 50002,CWJV,2019-01-12T21:00:00Z,50.22,-119.18,-0.1,-1.2,140,1,,,,1024.6,,TRUE,TRUE,,,,,,,,,,,,,,,,0.2,,,,,,,,,,,METAR,556.0
CWJR 122100Z AUTO 20001KT 05/01 RMK AO1 SOG 04 6013 SLP274 T00470008,CWJR,2019-01-12T21:00:00Z,49.07,-116.5,4.7,0.8,200,1,,,,1027.4,,TRUE,TRUE,,,,,,,,,,,,,,,,,,,,,,,,,,,METAR,646.0
CWJH 122100Z AUTO 22003KT M09/M10 RMK AO1 SOG 46 3001 SLP172 T10861104,CWJH,2019-01-12T21:00:00Z,56.32,-103.27,-8.6,-10.4,220,3,,,,1017.2,,TRUE,TRUE,,,,,,,,,,,,,,,,,,,,,,,,,,,METAR,344.0
CWJB 122100Z AUTO 21005KT M14/M21 RMK AO1 SOG 52 T11441209,CWJB,2019-01-12T21:00:00Z,46.78,-71.27,-14.4,-20.9,210,5,,,,,,TRUE,TRUE,,,,,,,,,,,,,,,,,,,,,,,,,,,METAR,91.0
CWIZ 122100Z AUTO 30005KT M14/M20 RMK AO1 SOG 10 T11381201,CWIZ,2019-01-12T21:00:00Z,45.28,-73.33,-13.8,-20.1,300,5,,,,,,TRUE,TRUE,,,,,,,,,,,,,,,,,,,,,,,,,,,METAR,45.0
CWIW 122100Z AUTO 18015KT M09/M11 RMK AO1 SOG 04 8015 PK WND 17019/2025 SLP211 T10871113,CWIW,2019-01-12T21:00:00Z,51.67,-105.4,-8.7,-11.3,180,15,,,,1021.1,,TRUE,TRUE,,,,,,,,,,,,,,,,,,,,,,,,,,,METAR,526.0
CWIT 122100Z AUTO 29007KT M13/M19 RMK AO1 SOG 11 3003 SLP340 T11301193,CWIT,2019-01-12T21:00:00Z,45.17,-73.67,-13.0,-19.3,290,7,,,,1034.0,,TRUE,TRUE,,,,,,,,,,,,,,,,,,,,,,,,,,,METAR,52.0
CWIG 122100Z AUTO 21024G31KT RMK AO1 PK WND 22032/2005,CWIG,2019-01-12T21:00:00Z,47.07,-70.53,,,210,24,31,,,,,TRUE,TRUE,,,,,,,,,,,,,,,,,,,,,,,,,,,METAR,18.0
CWID 122100Z AUTO 26004KT M21/M24 RMK AO1 SLP230 T12091238 52029,CWID,2019-01-12T21:00:00Z,61.32,-117.6,-20.9,-23.8,260,4,,,,1023.0,,TRUE,TRUE,,,,,,,,,,,,,,,,2.9,,,,,,,,,,,METAR,161.0
CWHV 122100Z AUTO 28003KT M16/M21 RMK AO1 SLP308 T11551211 51025,CWHV,2019-01-12T21:00:00Z,46.2,-70.77,-15.5,-21.1,280,3,,,,1030.8,,TRUE,TRUE,,,,,,,,,,,,,,,,2.5,,,,,,,,,,,METAR,229.0
CWGW 122100Z AUTO 22002KT M00/M04 RMK AO1 SOG 12 6008 SLP284 T10011037,CWGW,2019-01-12T21:00:00Z,49.75,-114.9,-0.1,-3.7,220,2,,,,1028.4,,TRUE,TRUE,,,,,,,,,,,,,,,,,,,,,,,,,,,METAR,1137.0
CWGR 122100Z AUTO 24018G23KT M09/M11 RMK AO1 PK WND 25023/2052 SLP162 T10891106 51015,CWGR,2019-01-12T21:00:00Z,47.42,-61.8,-8.9,-10.6,240,18,23,,,1016.2,,TRUE,TRUE,,,,,,,,,,,,,,,,1.5,,,,,,,,,,,METAR,60.0
CXWN 122100Z AUTO 21004KT M06/M08 RMK AO1 SLP314 T10561084 56012,CXWN,2019-01-12T21:00:00Z,49.88,-97.13,-5.6,-8.4,210,4,,,,1031.4,,TRUE,TRUE,,,,,,,,,,,,,,,,-1.2,,,,,,,,,,,METAR,230.0
CXOX 122100Z AUTO 24003KT M08/M11 RMK AO1 SOG 47 5003 SLP176 T10751110,CXOX,2019-01-12T21:00:00Z,55.15,-105.27,-7.5,-11.0,240,3,,,,1017.6,,TRUE,TRUE,,,,,,,,,,,,,,,,,,,,,,,,,,,METAR,379.0
CXMY 122100Z AUTO M10/M15 RMK AO1 T11001153,CXMY,2019-01-12T21:00:00Z,44.98,-62.48,-10.0,-15.3,,,,,,,,TRUE,TRUE,,,,,,,,,,,,,,,,,,,,,,,,,,,METAR,40.0
CXMI 122100Z AUTO 28008G15KT M09/ RMK AO1 SLP210 T1086 53018,CXMI,2019-01-12T21:00:00Z,44.6,-63.53,-8.6,,280,8,15,,,1021.0,,TRUE,TRUE,,,,,,,,,,,,,,,,1.8,,,,,,,,,,,METAR,15.0
CXMD 122100Z AUTO 15003KT M08/M10 RMK AO1 SOG 16 8013 SLP314 T10831095,CXMD,2019-01-12T21:00:00Z,49.22,-98.08,-8.3,-9.5,150,3,,,,1031.4,,TRUE,TRUE,,,,,,,,,,,,,,,,,,,,,,,,,,,METAR,301.0
CXIB 122100Z AUTO 25003KT M10/M17 RMK AO1 SOG 36 3015 SLP173 T11041166,CXIB,2019-01-12T21:00:00Z,46.67,-60.38,-10.4,-16.6,250,3,,,,1017.3,,TRUE,TRUE,,,,,,,,,,,,,,,,,,,,,,,,,,,METAR,8.0
CXGH 122100Z AUTO 18010KT M07/M09 RMK AO1 SLP298 T10681091 57022,CXGH,2019-01-12T21:00:00Z,50.63,-97.0,-6.8,-9.1,180,10,,,,1029.8,,TRUE,TRUE,,,,,,,,,,,,,,,,-2.2,,,,,,,,,,,METAR,217.0
CXDI 122100Z AUTO 08003KT M04/M09 RMK AO1 SLP317 T10421093 56009,CXDI,2019-01-12T21:00:00Z,42.87,-80.55,-4.2,-9.3,80,3,,,,1031.7,,TRUE,TRUE,,,,,,,,,,,,,,,,-0.9,,,,,,,,,,,METAR,232.0
CXDE 122100Z AUTO 29003KT M31/M35 RMK AO1 SOG 19 1028 SLP259 T13131352,CXDE,2019-01-12T21:00:00Z,65.22,-123.43,-31.3,-35.2,290,3,,,,1025.9,,TRUE,TRUE,,,,,,,,,,,,,,,,,,,,,,,,,,,METAR,213.0
CXCK 122100Z AUTO 00000KT M26/M29 RMK AO1 SOG 12 1010 SLP238 T12581291,CXCK,2019-01-12T21:00:00Z,62.12,-136.2,-25.8,-29.1,0,0,,,,1023.8,,TRUE,TRUE,,,,,,,,,,,,,,,,,,,,,,,,,,,METAR,540.0
CWDJ 122100Z AUTO 14017G22KT M09/M12 RMK AO1 PK WND 14022/2018 SLP230 T10881122 56025,CWDJ,2019-01-12T21:00:00Z,50.4,-104.58,-8.8,-12.2,140,17,22,,,1023.0,,TRUE,TRUE,,,,,,,,,,,,,,,,-2.5,,,,,,,,,,,METAR,573.0
CWCO 122100Z AUTO 05001KT M07/M13 RMK AO1 SLP355 T10651129 57010,CWCO,2019-01-12T21:00:00Z,44.45,-80.17,-6.5,-12.9,50,1,,,,1035.5,,TRUE,TRUE,,,,,,,,,,,,,,,,-1.0,,,,,,,,,,,METAR,221.0
CWBZ 122100Z AUTO 28006KT M12/M19 RMK AO1 SLP354 T11231194 53002,CWBZ,2019-01-12T21:00:00Z,45.12,-74.27,-12.3,-19.4,280,6,,,,1035.4,,TRUE,TRUE,,,,,,,,,,,,,,,,0.2,,,,,,,,,,,METAR,49.0
CWBS 122100Z AUTO 25013KT M12/M18 RMK AO1 PK WND 24017/2011 T11181175,CWBS,2019-01-12T21:00:00Z,46.18,-72.92,-11.8,-17.5,250,13,,,,,,TRUE,TRUE,,,,,,,,,,,,,,,,,,,,,,,,,,,METAR,16.0
CWAV 122100Z AUTO 04002KT 01/M06 RMK AO1 SLP178 T00141058 55007,CWAV,2019-01-12T21:00:00Z,51.77,-114.67,1.4,-5.8,40,2,,,,1017.8,,TRUE,TRUE,,,,,,,,,,,,,,,,-0.7,,,,,,,,,,,METAR,1114.0
CWAQ 122100Z AUTO 15008KT M06/M09 RMK AO1 SOG 01 7019 SLP232 T10631086,CWAQ,2019-01-12T21:00:00Z,49.05,-105.48,-6.3,-8.6,150,8,,,,1023.2,,TRUE,TRUE,,,,,,,,,,,,,,,,,,,,,,,,,,,METAR,756.0
CWAF 122100Z AUTO 29026KT M14/M17 RMK AO1 PK WND 28033/2045 T11391174,CWAF,2019-01-12T21:00:00Z,48.07,-69.53,-13.9,-17.4,290,26,,,,,,TRUE,TRUE,,,,,,,,,,,,,,,,,,,,,,,,,,,METAR,5.0
CWVT 122100Z AUTO 20002KT M05/M09 RMK AO1 SOG 32 1004 SLP177 T10471092,CWVT,2019-01-12T21:00:00Z,55.82,-108.42,-4.7,-9.2,200,2,,,,1017.7,,TRUE,TRUE,,,,,,,,,,,,,,,,,,,,,,,,,,,METAR,434.0
CWZG 122100Z AUTO 23010G16KT M03/M07 RMK AO1 SOG 21 7009 PK WND 23019/2037 SLP255 T10251066,CWZG,2019-01-12T21:00:00Z,51.2,-115.53,-2.5,-6.6,230,10,16,,,1025.5,,TRUE,TRUE,,,,,,,,,,,,,,,,,,,,,,,,,,,METAR,1397.0
CWWS 122100Z AUTO 16015KT M10/M12 RMK AO1 1PAST HR SOG 46 6030 PK WND 16020/2059 SLP280 P0000 T11021117 50001,CWWS,2019-01-12T21:00:00Z,52.82,-97.62,-10.2,-11.7,160,15,,,,1028.0,,TRUE,TRUE,,,,,,,,,,,,,,,,0.1,,,,,0.005,,,,,,METAR,223.0
CWLP 122100Z AUTO 14027G32KT 11/05 RMK AO1 PK WND 14038/2009 SLP095 T01100049 56007,CWLP,2019-01-12T21:00:00Z,50.93,-127.63,11.0,4.9,140,27,32,,,1009.5,,TRUE,TRUE,,,,,,,,,,,,,,,,-0.7,,,,,,,,,,,METAR,17.0
CWEQ 122100Z AUTO 23010G15KT M07/M12 RMK AO1 SOG 13 6030 SLP247 T10741116,CWEQ,2019-01-12T21:00:00Z,52.12,-101.22,-7.4,-11.6,230,10,15,,,1024.7,,TRUE,TRUE,,,,,,,,,,,,,,,,,,,,,,,,,,,METAR,335.0
CWCT 122100Z AUTO 29004KT M02/M07 RMK AO1 SOG 02 3003 SLP199 T10161067,CWCT,2019-01-12T21:00:00Z,52.07,-111.47,-1.6,-6.7,290,4,,,,1019.9,,TRUE,TRUE,,,,,,,,,,,,,,,,,,,,,,,,,,,METAR,791.0
CZSM 122100Z AUTO 28005KT M15/M18 RMK AO1 SOG 39 1026 SLP184 T11511177,CZSM,2019-01-12T21:00:00Z,60.03,-111.93,-15.1,-17.7,280,5,,,,1018.4,,TRUE,TRUE,,,,,,,,,,,,,,,,,,,,,,,,,,,METAR,203.0
CZHY 122100Z AUTO 30009KT M20/M23 RMK AO1 SOG 22 1029 SLP215 T11991229,CZHY,2019-01-12T21:00:00Z,60.83,-115.78,-19.9,-22.9,300,9,,,,1021.5,,TRUE,TRUE,,,,,,,,,,,,,,,,,,,,,,,,,,,METAR,164.0
CZEV 122100Z AUTO 30010KT M31/M34 RMK AO1 SOG 48 1033 SLP287 T13091342,CZEV,2019-01-12T21:00:00Z,68.32,-133.52,-30.9,-34.2,300,10,,,,1028.7,,TRUE,TRUE,,,,,,,,,,,,,,,,,,,,,,,,,,,METAR,103.0
CZTB 122100Z AUTO 06008KT M09/M11 RMK AO1 SOG 43 8011 SLP369 T10851108,CZTB,2019-01-12T21:00:00Z,48.37,-89.32,-8.5,-10.8,60,8,,,,1036.9,,TRUE,TRUE,,,,,,,,,,,,,,,,,,,,,,,,,,,METAR,199.0
CXVN 122100Z AUTO 08008KT M04/M10 RMK AO1 SOG 01 6006 SLP333 T10401095,CXVN,2019-01-12T21:00:00Z,43.18,-79.4,-4.0,-9.5,80,8,,,,1033.3,,TRUE,TRUE,,,,,,,,,,,,,,,,,,,,,,,,,,,METAR,79.0
CXTD 122100Z AUTO 27010KT M10/M16 RMK AO1 SOG 03 3021 PK WND 25017/2009 SLP199 T11031159,CXTD,2019-01-12T21:00:00Z,45.62,-61.68,-10.3,-15.9,270,10,,,,1019.9,,TRUE,TRUE,,,,,,,,,,,,,,,,,,,,,,,,,,,METAR,68.0
CXSE 122100Z AUTO 29002KT M44/M49 RMK AO1 SOG 44 3001 SLP300 T14401489,CXSE,2019-01-12T21:00:00Z,73.77,-105.28,-44.0,-48.9,290,2,,,,1030.0,,TRUE,TRUE,,,,,,,,,,,,,,,,,,,,,,,,,,,METAR,11.0
CXPC 122100Z AUTO M09/M22 RMK AO1 SOG 08 6007 SLP351 T10921221,CXPC,2019-01-12T21:00:00Z,45.35,-80.05,-9.2,-22.1,,,,,,1035.1,,TRUE,TRUE,,,,,,,,,,,,,,,,,,,,,,,,,,,METAR,176.0
CXDK 122100Z AUTO 24001KT M22/M26 RMK AO1 SOG 33 1027 SLP224 T12171257,CXDK,2019-01-12T21:00:00Z,61.27,-124.47,-21.7,-25.7,240,1,,,,1022.4,,TRUE,TRUE,,,,,,,,,,,,,,,,,,,,,,,,,,,METAR,283.0
CWPE 122100Z AUTO 32010G16KT M12/M16 RMK AO1 SOG 02 1018 PK WND 32018/2011 SLP238 T11161164,CWPE,2019-01-12T21:00:00Z,45.07,-66.47,-11.6,-16.4,320,10,16,,,1023.8,,TRUE,TRUE,,,,,,,,,,,,,,,,,,,,,,,,,,,METAR,1.0
CWNP 122100Z AUTO 25001KT 04/00 RMK AO1 SOG 23 5006 SLP269 T00410000,CWNP,2019-01-12T21:00:00Z,50.27,-117.82,4.1,0.0,250,1,,,,1026.9,,TRUE,TRUE,,,,,,,,,,,,,,,,,,,,,,,,,,,METAR,524.0
CWNM 122100Z AUTO 07008KT 03/M00 RMK AO1 SOG 03 6011 SLP265 T00301003,CWNM,2019-01-12T21:00:00Z,49.5,-117.28,3.0,-0.3,70,8,,,,1026.5,,TRUE,TRUE,,,,,,,,,,,,,,,,,,,,,,,,,,,METAR,535.0
CWNK 122100Z AUTO 14006KT M09/M11 RMK AO1 T10911110,CWNK,2019-01-12T21:00:00Z,49.5,-98.03,-9.1,-11.0,140,6,,,,,,TRUE,TRUE,,,,,,,,,,,,,,,,,,,,,,,,,,,METAR,268.0
CWNE 122100Z AUTO 27018KT M11/M15 RMK AO1 PK WND 26023/2017 SLP186 T11121146 53021,CWNE,2019-01-12T21:00:00Z,47.07,-64.0,-11.2,-14.6,270,18,,,,1018.6,,TRUE,TRUE,,,,,,,,,,,,,,,,2.1,,,,,,,,,,,METAR,15.0
CWRN 122100Z AUTO 24012KT M08/M14 RMK AO1 PK WND 26017/2027 SLP187 T10781135 53015,CWRN,2019-01-12T21:00:00Z,45.35,-60.98,-7.8,-13.5,240,12,,,,1018.7,,TRUE,TRUE,,,,,,,,,,,,,,,,1.5,,,,,,,,,,,METAR,8.0
CWDO 122100Z AUTO 23011G17KT M05/M08 RMK AO1 SOG 02 1012 PK WND 23020/2034 SLP144 T10501079,CWDO,2019-01-12T21:00:00Z,49.67,-54.78,-5.0,-7.9,230,11,17,,,1014.4,,TRUE,TRUE,,,,,,,,,,,,,,,,,,,,,,,,,,,METAR,92.0
CWNH 122100Z AUTO 21003KT M14/M18 RMK AO1 SOG 16 1022 SLP279 T11441175,CWNH,2019-01-12T21:00:00Z,47.78,-69.53,-14.4,-17.5,210,3,,,,1027.9,,TRUE,TRUE,,,,,,,,,,,,,,,,,,,,,,,,,,,METAR,148.0
CWEP 122100Z AUTO 23008KT M12/M17 RMK AO1 SOG 42 1021 SLP194 T11151170,CWEP,2019-01-12T21:00:00Z,46.45,-61.97,-11.5,-17.0,230,8,,,,1019.4,,TRUE,TRUE,,,,,,,,,,,,,,,,,,,,,,,,,,,METAR,11.0
CWPK 122100Z AUTO 29006KT M17/M21 RMK AO1 SOG 39 1015 SLP345 T11711208,CWPK,2019-01-12T21:00:00Z,47.92,-74.62,-17.1,-20.8,290,6,,,,1034.5,,TRUE,TRUE,,,,,,,,,,,,,,,,,,,,,,,,,,,METAR,442.0
CWDM 122100Z AUTO 22009KT M04/M06 RMK AO1 SOG 23 1011 SLP103 T10401060,CWDM,2019-01-12T21:00:00Z,50.47,-59.62,-4.0,-6.0,220,9,,,,1010.3,,TRUE,TRUE,,,,,,,,,,,,,,,,,,,,,,,,,,,METAR,6.0
CWIK 122100Z AUTO 17009KT M09/M12 RMK AO1 SOG 06 6024 SLP252 T10891115,CWIK,2019-01-12T21:00:00Z,50.37,-102.58,-8.9,-11.5,170,9,,,,1025.2,,TRUE,TRUE,,,,,,,,,,,,,,,,,,,,,,,,,,,METAR,602.0
CWGL 122100Z AUTO 34003KT M08/M20 RMK AO1 SLP344 T10811199 57007,CWGL,2019-01-12T21:00:00Z,44.52,-79.22,-8.1,-19.9,340,3,,,,1034.4,,TRUE,TRUE,,,,,,,,,,,,,,,,-0.7,,,,,,,,,,,METAR,221.0
CWGD 122100Z AUTO 09008KT M05/M10 RMK AO1 SOG 01 6008 SLP329 T10481099 50002,CWGD,2019-01-12T21:00:00Z,43.77,-81.72,-4.8,-9.9,90,8,,,,1032.9,,TRUE,TRUE,,,,,,,,,,,,,,,,0.2,,,,,,,,,,,METAR,214.0
CWGB 122100Z AUTO 11014KT 08/06 RMK AO1 PK WND 11017/2057 SLP149 T00810059 58007,CWGB,2019-01-12T21:00:00Z,49.35,-124.17,8.1,5.9,110,14,,,,1014.9,,TRUE,TRUE,,,,,,,,,,,,,,,,-0.7,,,,,,,,,,,METAR,5.0
CWFQ 122100Z AUTO 34003KT M16/M20 RMK AO1 SOG 23 1007 SLP337 T11551196,CWFQ,2019-01-12T21:00:00Z,45.03,-72.82,-15.5,-19.6,340,3,,,,1033.7,,TRUE,TRUE,,,,,,,,,,,,,,,,,,,,,,,,,,,METAR,152.0
SLRQ 122100Z 00000KT 9999 BKN015 FEW020CB 28/25 Q1008,SLRQ,2019-01-12T21:00:00Z,-14.42,-67.5,28.0,25.0,0,0,,6.21,29.763779,,,,,,,,,,,BKN,1500,FEW,2000,,,,,MVFR,,,,,,,,,,,,SPECI,203.0
SLRI 122100Z 00000KT 5000 -RA BKN004 FEW020CB OVC070 25/24 Q1011,SLRI,2019-01-12T21:00:00Z,-11.02,-66.08,25.0,24.0,0,0,,3.11,29.852362,,,,,,,,,,-RA,BKN,400,FEW,2000,OVC,7000,,,LIFR,,,,,,,,,,,,SPECI,135.0
SLRB 122100Z 00000KT 9999 NSC 28/24 Q1012,SLRB,2019-01-12T21:00:00Z,-18.32,-59.75,28.0,24.0,0,0,,6.21,29.88189,,,,,,,,,,,CLR,,,,,,,,VFR,,,,,,,,,,,,SPECI,284.0
SLOR 122100Z 03013KT 9999 SCT020 FEW023CB BKN200 19/05 Q1030,SLOR,2019-01-12T21:00:00Z,-17.97,-67.08,19.0,5.0,30,13,,6.21,30.413385,,,,,,,,,,,SCT,2000,FEW,2300,BKN,20000,,,VFR,,,,,,,,,,,,SPECI,3702.0
SLMG 122100Z 00000KT 7000 VCSH FEW017 FEW023CB BKN080 29/23 Q1009,SLMG,2019-01-12T21:00:00Z,-13.27,-64.07,29.0,23.0,0,0,,4.35,29.793306,,,,,,,,,,VCSH,FEW,1700,FEW,2300,BKN,8000,,,MVFR,,,,,,,,,,,,SPECI,141.0
SLJO 122100Z 00000KT 6000 VCSH SCT017 FEW020CB BKN070 29/25 Q1009,SLJO,2019-01-12T21:00:00Z,-13.07,-64.67,29.0,25.0,0,0,,3.73,29.793306,,,,,,,,,,VCSH,SCT,1700,FEW,2000,BKN,7000,,,MVFR,,,,,,,,,,,,SPECI,140.0
SLJE 122100Z 00000KT 9999 FEW020 BKN200 31/23 Q1013,SLJE,2019-01-12T21:00:00Z,-17.82,-60.75,31.0,23.0,0,0,,6.21,29.911417,,,,,,,,,,,FEW,2000,BKN,20000,,,,,VFR,,,,,,,,,,,,SPECI,284.0
SLCP 122100Z 00000KT 9999 SCT017 FEW027CB BKN200 29/22 Q1013,SLCP,2019-01-12T21:00:00Z,-16.15,-62.02,29.0,22.0,0,0,,6.21,29.911417,,,,,,,,,,,SCT,1700,FEW,2700,BKN,20000,,,VFR,,,,,,,,,,,,SPECI,497.0
SLCA 122100Z 00000KT 9999 BKN033 25/15 Q1012,SLCA,2019-01-12T21:00:00Z,-20.0,-63.53,25.0,15.0,0,0,,6.21,29.88189,,,,,,,,,,,BKN,3300,,,,,,,VFR,,,,,,,,,,,,SPECI,798.0
GGOV 122100Z 32003KT CAVOK 27/12 Q1012 NOSIG,GGOV,2019-01-12T21:00:00Z,11.87,-15.65,27.0,12.0,320,3,,6.21,29.88189,,,,,,TRUE,,,,,CAVOK,,,,,,,,VFR,,,,,,,,,,,,SPECI,36.0
OEYN 122100Z 06006KT CAVOK 22/16 Q1011 NOSIG,OEYN,2019-01-12T21:00:00Z,24.13,38.07,22.0,16.0,60,6,,6.21,29.852362,,,,,,TRUE,,,,,CAVOK,,,,,,,,VFR,,,,,,,,,,,,METAR,8.0
OEWJ 122100Z 11003KT 9999 SCT040 21/17 Q1011 NOSIG,OEWJ,2019-01-12T21:00:00Z,26.18,36.47,21.0,17.0,110,3,,6.21,29.852362,,,,,,TRUE,,,,,SCT,4000,,,,,,,VFR,,,,,,,,,,,,METAR,16.0
OEWD 122100Z 11008KT CAVOK 13/04 Q1019 NOSIG,OEWD,2019-01-12T21:00:00Z,20.5,45.2,13.0,4.0,110,8,,6.21,30.088583,,,,,,TRUE,,,,,CAVOK,,,,,,,,VFR,,,,,,,,,,,,METAR,617.0
OETR 122100Z 10012KT 9999 SCT040 BKN100 07/03 Q1011,OETR,2019-01-12T21:00:00Z,31.7,38.73,7.0,3.0,100,12,,6.21,29.852362,,,,,,,,,,,SCT,4000,BKN,10000,,,,,VFR,,,,,,,,,,,,METAR,855.0
OETF 122100Z 16005KT CAVOK 17/07 Q1021 NOSIG,OETF,2019-01-12T21:00:00Z,21.47,40.53,17.0,7.0,160,5,,6.21,30.147638,,,,,,TRUE,,,,,CAVOK,,,,,,,,VFR,,,,,,,,,,,,METAR,1449.0
OETB 122100Z 20016KT 9999 BKN040 19/08 Q1011 NOSIG,OETB,2019-01-12T21:00:00Z,28.37,36.62,19.0,8.0,200,16,,6.21,29.852362,,,,,,TRUE,,,,,BKN,4000,,,,,,,VFR,,,,,,,,,,,,METAR,770.0
OESK 122100Z 12008KT 9999 FEW040 13/01 Q1014,OESK,2019-01-12T21:00:00Z,29.77,40.1,13.0,1.0,120,8,,6.21,29.940945,,,,,,,,,,,FEW,4000,,,,,,,VFR,,,,,,,,,,,,METAR,684.0
OESH 122100Z 08010KT CAVOK 17/03 Q1020 NOSIG,OESH,2019-01-12T21:00:00Z,17.47,47.12,17.0,3.0,80,10,,6.21,30.11811,,,,,,TRUE,,,,,CAVOK,,,,,,,,VFR,,,,,,,,,,,,METAR,722.0
OERR 122100Z 13011KT 9999 SCT040 09/07 Q1012 NOSIG,OERR,2019-01-12T21:00:00Z,30.88,41.12,9.0,7.0,130,11,,6.21,29.88189,,,,,,TRUE,,,,,SCT,4000,,,,,,,VFR,,,,,,,,,,,,METAR,552.0
OERF 122100Z 13015KT 9999 BKN040 BKN100 12/M01 Q1014,OERF,2019-01-12T21:00:00Z,29.62,43.47,12.0,-1.0,130,15,,6.21,29.940945,,,,,,,,,,,BKN,4000,BKN,10000,,,,,VFR,,,,,,,,,,,,METAR,447.0
OEPA 122100Z 16016KT 9999 SCT035 09/03 Q1017 NOSIG,OEPA,2019-01-12T21:00:00Z,28.32,46.12,9.0,3.0,160,16,,6.21,30.029528,,,,,,TRUE,,,,,SCT,3500,,,,,,,VFR,,,,,,,,,,,,METAR,355.0
LCPH 122100Z 06009KT 9999 FEW025 09/05 Q1008,LCPH,2019-01-12T21:00:00Z,34.72,32.47,9.0,5.0,60,9,,6.21,29.763779,,,,,,,,,,,FEW,2500,,,,,,,VFR,,,,,,,,,,,,METAR,8.0
UGKO 122100Z 09007KT 9999 SCT048 07/M00 Q1009 NOSIG,UGKO,2019-01-12T21:00:00Z,42.18,42.48,7.0,0.0,90,7,,6.21,29.793306,,,,,,TRUE,,,,,SCT,4800,,,,,,,VFR,,,,,,,,,,,,METAR,68.0
SPTN 122100Z 22010KT CAVOK 23/14 Q1015 RMK PP000,SPTN,2019-01-12T21:00:00Z,-18.07,-70.28,23.0,14.0,220,10,,6.21,29.970472,,,,,,,,,,,CAVOK,,,,,,,,VFR,,,,,,,,,,,,METAR,458.0
SPSO 122100Z 22023KT 9000 VCBLDU NSC 25/21 Q1011 RMK BIRD HAZARD RWY 22/04 PP000,SPSO,2019-01-12T21:00:00Z,-13.73,-76.22,25.0,21.0,220,23,,5.59,29.852362,,,,,,,,,,VCBLDU,CLR,,,,,,,,VFR,,,,,,,,,,,,METAR,10.0
SPRU 122100Z 15011KT 9999 BKN130 25/21 Q1011 RMK PP000,SPRU,2019-01-12T21:00:00Z,-8.08,-79.12,25.0,21.0,150,11,,6.21,29.852362,,,,,,,,,,,BKN,13000,,,,,,,VFR,,,,,,,,,,,,METAR,30.0
SPQU 122100Z 26011KT 9999 BKN020 SCT030 15/09 Q1026 NOSIG RMK PP000,SPQU,2019-01-12T21:00:00Z,-16.33,-71.57,15.0,9.0,260,11,,6.21,30.295275,,,,,,TRUE,,,,,BKN,2000,SCT,3000,,,,,MVFR,,,,,,,,,,,,METAR,2554.0
SPQT 122100Z 23005KT 200V280 9999 SCT025 BKN100 29/24 Q1009 NOSIG RMK BIRD HAZARD RWY 06/24 PP000,SPQT,2019-01-12T21:00:00Z,-3.78,-73.32,29.0,24.0,230,5,,6.21,29.793306,,,,,,TRUE,,,,,SCT,2500,BKN,10000,,,,,VFR,,,,,,,,,,,,METAR,126.0
SPHI 122100Z 19021KT CAVOK 27/20 Q1010 RMK BIRD HAZARD RWY 19/01 PP000,SPHI,2019-01-12T21:00:00Z,-6.77,-79.82,27.0,20.0,190,21,,6.21,29.822834,,,,,,,,,,,CAVOK,,,,,,,,VFR,,,,,,,,,,,,METAR,34.0
SPZO 122100Z /////KT 9999 VCSH FEW040TCU SCT046 BKN080 15/06 Q1027 NOSIG RMK BIRD HAZARD RWY 28 PP000,SPZO,2019-01-12T21:00:00Z,-13.55,-71.97,15.0,6.0,,,,6.21,30.324802,,,,,,TRUE,,,,VCSH,FEW,4000,SCT,4600,BKN,8000,,,VFR,,,,,,,,,,,,METAR,3249.0
UWGG 122100Z 23003MPS 5000 -SN OVC010 M10/M12 Q0993 R18L/490240 NOSIG,UWGG,2019-01-12T21:00:00Z,56.23,43.78,-10.0,-12.0,230,6,,3.11,29.320866,,,,,,TRUE,,,,-SN,OVC,1000,,,,,,,MVFR,,,,,,,,,,,,METAR,73.0
UUOB 122100Z 24003MPS 1400 R29/P2000D SN BR OVC005 M10/M11 Q1001 R29/820348 NOSIG,UUOB,2019-01-12T21:00:00Z,50.65,36.58,-10.0,-11.0,240,6,,0.87,29.557087,,,,,,TRUE,,,,SN BR,OVC,500,,,,,,,LIFR,,,,,,,,,,,,METAR,224.0
KGOO 122100Z AUTO 00000KT 10SM CLR 12/01 A2997 RMK AO1,KGOO,2019-01-12T21:00:00Z,39.22,-121.0,12.0,1.0,0,0,,10.0,29.970472,,,TRUE,TRUE,,,,,,,CLR,,,,,,,,VFR,,,,,,,,,,,,METAR,962.0
KHSD 122100Z AUTO 33014G23KT 10SM OVC016 03/01 A3013 RMK A01,KHSD,2019-01-12T21:00:00Z,35.6,-97.72,3.0,1.0,330,14,23,10.0,30.129921,,,TRUE,TRUE,,,,,,,OVC,1600,,,,,,,MVFR,,,,,,,,,,,,METAR,364.0
KHQI 122100Z AUTO 10SM BKN015 20/15 A3004 RMK A01,KHQI,2019-01-12T21:00:00Z,27.93,-93.67,20.0,15.0,,,,10.0,30.041338,,,TRUE,TRUE,,,,,,,BKN,1500,,,,,,,MVFR,,,,,,,,,,,,METAR,26.0
LKPD 122100Z 25014KT 9999 -RA FEW011 BKN017 OVC026 02/00 Q1007 RMK WHT WHT,LKPD,2019-01-12T21:00:00Z,50.02,15.73,2.0,0.0,250,14,,6.21,29.734253,,,,,,,,,,-RA,FEW,1100,BKN,1700,OVC,2600,,,MVFR,,,,,,,,,,,,METAR,226.0
LKNA 122100Z 25013KT 9999 -RASN BKN011 OVC016 01/M01 Q1008 RMK GRN,LKNA,2019-01-12T21:00:00Z,49.17,16.12,1.0,-1.0,250,13,,6.21,29.763779,,,,,,,,,,-RA -SN,BKN,1100,OVC,1600,,,,,MVFR,,,,,,,,,,,,METAR,472.0
MNBL 122100Z 07004KT 9999 SCT022 28/22 Q1013,MNBL,2019-01-12T21:00:00Z,12.0,-83.77,28.0,22.0,70,4,,6.21,29.911417,,,,,,,,,,,SCT,2200,,,,,,,VFR,,,,,,,,,,,,METAR,5.0
KARG 122059Z AUTO 04004KT 1 1/4SM BR OVC003 06/06 A2992 RMK AO2,KARG,2019-01-12T20:59:00Z,36.12,-90.92,6.0,6.0,40,4,,1.25,29.920275,,,TRUE,TRUE,,,,,,BR,OVC,300,,,,,,,LIFR,,,,,,,,,,,,SPECI,83.0
MMGL 122059Z RTD 18005KT 10SM BKN025TCU 23/07 A3015 RMK SLP107 57026 956 8/200,MMGL,2019-01-12T20:59:00Z,20.52,-103.32,23.0,7.0,180,5,,10.0,30.15059,1010.7,,,,,,,,,,BKN,2500,,,,,,,MVFR,-2.6,,,,,,,,,,,METAR,1528.0
KDDC 122059Z AUTO 35016G25KT 6SM HZ BKN011 OVC018 M02/M04 A3018 RMK AO2 T10171044 $,KDDC,2019-01-12T20:59:00Z,37.77,-99.97,-1.7,-4.4,350,16,25,6.0,30.180119,,,TRUE,TRUE,TRUE,,,,,HZ,BKN,1100,OVC,1800,,,,,MVFR,,,,,,,,,,,,SPECI,789.0
KBJC 122059Z 18005KT 10SM SCT050 03/M02 A3016,KBJC,2019-01-12T20:59:00Z,39.9,-105.1,3.0,-2.0,180,5,,10.0,30.159449,,,,,,,,,,,SCT,5000,,,,,,,VFR,,,,,,,,,,,,METAR,1724.0
KDVP 122059Z AUTO 00000KT 7SM SCT022 OVC041 A3030 RMK AO2,KDVP,2019-01-12T20:59:00Z,43.98,-95.78,,,0,0,,7.0,30.301182,,,TRUE,TRUE,,,,,,,SCT,2200,OVC,4100,,,,,VFR,,,,,,,,,,,,METAR,495.0
KXVG 122059Z AUTO 00000KT 10SM OVC020 M03/M04 A3038 RMK AO2,KXVG,2019-01-12T20:59:00Z,46.98,-94.2,-3.0,-4.0,0,0,,10.0,30.380905,,,TRUE,TRUE,,,,,,,OVC,2000,,,,,,,MVFR,,,,,,,,,,,,METAR,407.0
KNOZ 122059Z AUTO 10010KT 10SM FEW038 OVC095 17/08 A2995 RMK AO2 RAB29E45 SLP094 P0000 60000 T01670078 58039 $,KNOZ,2019-01-12T20:59:00Z,32.5,-114.45,16.7,7.8,100,10,,10.0,29.949802,1009.4,,TRUE,TRUE,TRUE,,,,,,FEW,3800,OVC,9500,,,,,VFR,-3.9,,,,,0.005,0.005,,,,,METAR,103.0
KNGU 122059Z 01006KT 10SM BKN043 OVC065 04/M04 A3048 RMK AO2 SLP320 T00441044 58007,KNGU,2019-01-12T20:59:00Z,36.92,-76.27,4.4,-4.4,10,6,,10.0,30.481298,1032.0,,,TRUE,,,,,,,BKN,4300,OVC,6500,,,,,VFR,-0.7,,,,,,,,,,,SPECI,5.0
KCUL 122058Z AUTO 07011KT 7SM -RA BKN042 OVC049 02/01 A3004 RMK AO2,KCUL,2019-01-12T20:58:00Z,38.08,-88.12,2.0,1.0,70,11,,7.0,30.041338,,,TRUE,TRUE,,,,,,-RA,BKN,4200,OVC,4900,,,,,VFR,,,,,,,,,,,,SPECI,118.0
KGEU 122058Z 08011KT 10SM SCT180 19/01 A2999,KGEU,2019-01-12T20:58:00Z,33.53,-112.3,19.0,1.0,80,11,,10.0,29.991142,,,,,,,,,,,SCT,18000,,,,,,,VFR,,,,,,,,,,,,METAR,325.0
KEKN 122058Z AUTO 17003KT 1SM -SN BR VV016 M01/M02 A3028 RMK AO2 P0001 T10061022 TSNO,KEKN,2019-01-12T20:58:00Z,38.88,-79.85,-0.6,-2.2,170,3,,1.0,30.280512,,,TRUE,TRUE,,,TRUE,,,-SN BR,OVX,0,,,,,,,LIFR,,,,,,0.01,,,,,1600,SPECI,603.0
KMRH 122058Z AUTO 05009G17KT 10SM SCT035 OVC042 07/00 A3041 RMK AO2 SLP298 T00720000 56003,KMRH,2019-01-12T20:58:00Z,34.73,-76.65,7.2,0.0,50,9,17,10.0,30.410433,1029.8,,TRUE,TRUE,,,,,,,SCT,3500,OVC,4200,,,,,VFR,-0.3,,,,,,,,,,,SPECI,3.0
KMEI 122058Z 21006KT 2SM R01/5500VP6000FT +RA BR BKN007 OVC011 14/12 A2996 RMK AO2 CIG 005V010 SLP145 P0015 60027 I1000137 T01390122 55008,KMEI,2019-01-12T20:58:00Z,32.33,-88.75,13.9,12.2,210,6,,2.0,29.958662,1014.5,,,TRUE,,,,,,+RA BR,BKN,700,OVC,1100,,,,,IFR,-0.8,,,,,0.15,0.27,,,,,METAR,89.0
KEUF 122058Z AUTO 12006KT 10SM SCT038 BKN046 BKN055 16/11 A3011 RMK AO2 RAE1959 SLP197 P0000 60000 T01610106 55025 $,KEUF,2019-01-12T20:58:00Z,31.95,-85.13,16.1,10.6,120,6,,10.0,30.109253,1019.7,,TRUE,TRUE,TRUE,,,,,,SCT,3800,BKN,4600,BKN,5500,,,VFR,-2.5,,,,,0.005,0.005,,,,,METAR,87.0
K0J4 122058Z AUTO 15006KT 10SM BKN017 OVC060 17/13 A3010 RMK AO2 SLP190 T01720128 56025,K0J4,2019-01-12T20:58:00Z,31.05,-86.32,17.2,12.8,150,6,,10.0,30.100393,1019.0,,TRUE,TRUE,,,,,,,BKN,1700,OVC,6000,,,,,MVFR,-2.5,,,,,,,,,,,METAR,96.0
PAFR 122058Z AUTO 00000KT 9SM BKN150 BKN210 M19/M21 A2977 RMK AO2 SLP099 T11891211 58004,PAFR,2019-01-12T20:58:00Z,61.27,-149.65,-18.9,-21.1,0,0,,9.0,29.769686,1009.9,,TRUE,TRUE,,,,,,,BKN,15000,BKN,21000,,,,,VFR,-0.4,,,,,,,,,,,SPECI,115.0
KGOV 122058Z AUTO 06010KT 9SM OVC013 M05/M07 A3044 RMK AO2 SLP335 T10521073 56005 $,KGOV,2019-01-12T20:58:00Z,44.68,-84.73,-5.2,-7.3,60,10,,9.0,30.43996,1033.5,,TRUE,TRUE,TRUE,,,,,,OVC,1300,,,,,,,MVFR,-0.5,,,,,,,,,,,METAR,353.0
RKSO 122058Z 08005KT 2 1/2SM BR CLR M06/M07 A3027 RMK AO2A SLP254 T10641073 55006,RKSO,2019-01-12T20:58:00Z,37.07,127.02,-6.4,-7.3,80,5,,2.5,30.268702,1025.4,,,TRUE,,,,,,BR,CLR,,,,,,,,IFR,-0.6,,,,,,,,,,,METAR,12.0
KVCV 122058Z 00000KT 10SM OVC048 A2995,KVCV,2019-01-12T20:58:00Z,34.58,-117.38,,,0,0,,10.0,29.949802,,,,,,,,,,,OVC,4800,,,,,,,VFR,,,,,,,,,,,,METAR,876.0
KHIF 122058Z 00000KT 10SM SCT014 BKN020 M01/M06 A3023 RMK AO2A SLP257 T10111059,KHIF,2019-01-12T20:58:00Z,41.12,-111.97,-1.1,-5.9,0,0,,10.0,30.230314,1025.7,,,TRUE,,,,,,,SCT,1400,BKN,2000,,,,,MVFR,,,,,,,,,,,,METAR,1459.0
PAFB 122058Z AUTO 00000KT 7SM M M37/M41 A3002,PAFB,2019-01-12T20:58:00Z,64.83,-147.62,-37.0,-41.0,0,0,,7.0,30.02067,,,TRUE,,,,,,,,,,,,,,,,,,,,,,,,,,,,METAR,137.0
OAIX 122058Z 00000KT 9999 CLR M03/M09 A3019 RMK AO2A SLP201 T10301091 51003 $,OAIX,2019-01-12T20:58:00Z,34.95,69.27,-3.0,-9.1,0,0,,6.21,30.188976,1020.1,,,TRUE,TRUE,,,,,,CLR,,,,,,,,VFR,0.3,,,,,,,,,,,METAR,1492.0
KROG 122058Z 31009KT 2SM -RA BR BKN003 OVC008 04/03 A2993 RMK AO2 SLP141 P0001 60001 T00390033 53009,KROG,2019-01-12T20:58:00Z,36.37,-94.08,3.9,3.3,310,9,,2.0,29.929134,1014.1,,,TRUE,,,,,,-RA BR,BKN,300,OVC,800,,,,,LIFR,0.9,,,,,0.01,0.01,,,,,METAR,415.0
KFME 122057Z AUTO 16004KT 10SM SCT046 SCT055 OVC065 00/M06 A3051 RMK AO1,KFME,2019-01-12T20:57:00Z,39.08,-76.77,0.0,-6.0,160,4,,10.0,30.510826,,,TRUE,TRUE,,,,,,,SCT,4600,SCT,5500,OVC,6500,,,VFR,,,,,,,,,,,,SPECI,46.0
PHNG 122057Z VRB03KT 10SM BKN022 OVC030 26/ A3002 RMK AO2 SLP160 T0256 50003 $,PHNG,2019-01-12T20:57:00Z,21.43,-157.77,25.6,,0,3,,10.0,30.02067,1016.0,,,TRUE,TRUE,,,,,,BKN,2200,OVC,3000,,,,,MVFR,0.3,,,,,,,,,,,METAR,3.0
KFLG 122057Z 07009KT 10SM CLR 02/M07 A3009 RMK AO2 SLP191 T00221067 56024,KFLG,2019-01-12T20:57:00Z,35.13,-111.67,2.2,-6.7,70,9,,10.0,30.088583,1019.1,,,TRUE,,,,,,,CLR,,,,,,,,VFR,-2.4,,,,,,,,,,,SPECI,2134.0
KNY0 122057Z AUTO 31009G14KT 10SM CLR M09/M17 A3046 RMK AO2,KNY0,2019-01-12T20:57:00Z,42.98,-74.33,-9.0,-17.0,310,9,14,10.0,30.46063,,,TRUE,TRUE,,,,,,,CLR,,,,,,,,VFR,,,,,,,,,,,,SPECI,271.0
KJES 122057Z AUTO 10006KT 10SM OVC070 17/11 A3024 RMK AO2,KJES,2019-01-12T20:57:00Z,31.55,-81.88,17.0,11.0,100,6,,10.0,30.239174,,,TRUE,TRUE,,,,,,,OVC,7000,,,,,,,VFR,,,,,,,,,,,,METAR,33.0
KNYL 122057Z AUTO 10010KT 10SM BKN110 17/07 A2994 RMK AO2 RAB12E35 SLP139 P0000 60000 T01720067 58040 $,KNYL,2019-01-12T20:57:00Z,32.63,-114.62,17.2,6.7,100,10,,10.0,29.940945,1013.9,,TRUE,TRUE,TRUE,,,,,,BKN,11000,,,,,,,VFR,-4.0,,,,,0.005,0.005,,,,,METAR,65.0
KNTD 122057Z 15007KT 10SM SCT023 BKN030 BKN120 BKN180 16/10 A3000 RMK AO2 SLP159 T01610100 56024 $,KNTD,2019-01-12T20:57:00Z,34.12,-119.12,16.1,10.0,150,7,,10.0,30.0,1015.9,,,TRUE,TRUE,,,,,,SCT,2300,BKN,3000,BKN,12000,BKN,18000,MVFR,-2.4,,,,,,,,,,,METAR,4.0
KQAZ 122057Z AUTO 00000KT 9999 CLR 22/M12 A3001 RMK AO2 SLP182 WND DATA ESTMD T02231122,KQAZ,2019-01-12T20:57:00Z,,,22.3,-12.2,0,0,,6.21,30.008858,1018.2,,TRUE,TRUE,,,,,,,CLR,,,,,,,,VFR,,,,,,,,,,,,METAR,
PAEI 122057Z 00000KT 10SM BKN100 OVC120 M36/M40 A2999 RMK AO21A SLP188 60000 T13561405 57005 $,PAEI,2019-01-12T20:57:00Z,64.67,-147.1,-35.6,-40.5,0,0,,10.0,29.991142,1018.8,,,TRUE,TRUE,,,,,,BKN,10000,OVC,12000,,,,,VFR,-0.5,,,,,,0.005,,,,,METAR,167.0
KBUR 122057Z 00000KT 10SM FEW055 12/09 A2999 RMK AO2 T01220094,KBUR,2019-01-12T20:57:00Z,34.2,-118.37,12.2,9.4,0,0,,10.0,29.991142,,,,TRUE,,,,,,,FEW,5500,,,,,,,VFR,,,,,,,,,,,,METAR,217.0
PAJC 122057Z AUTO 07008KT 10SM BKN013 BKN018 OVC024 04/02 A2917 RMK AO2 RAE57 SLP878 P0000 60009 T00390022 58012,PAJC,2019-01-12T20:57:00Z,56.32,-158.37,3.9,2.2,70,8,,10.0,29.170275,987.8,,TRUE,TRUE,,,,,,,BKN,1300,BKN,1800,OVC,2400,,,MVFR,-1.2,,,,,0.005,0.09,,,,,METAR,15.0
KEAR 122057Z AUTO 35015KT 10SM OVC009 M04/M07 A3025 RMK AO2 SLP264 T10391067 55000 FZRANO,KEAR,2019-01-12T20:57:00Z,40.72,-99.0,-3.9,-6.7,350,15,,10.0,30.250984,1026.4,,TRUE,TRUE,,,,TRUE,,,OVC,900,,,,,,,IFR,0.0,,,,,,,,,,,METAR,649.0
EQYG 122057Z AUTO 00000KT 10SM FEW022 SCT027 10/ A2971 RMK AO2 SLP056 60000 T0100 50003 $ ,EQYG,2019-01-12T20:57:00Z,,,10.0,,0,0,,10.0,29.71063,1005.6,,TRUE,TRUE,TRUE,,,,,,FEW,2200,SCT,2700,,,,,VFR,0.3,,,,,,0.005,,,,,METAR,
KHZR 122057Z AUTO 27006KT 10SM SCT024 BKN028 BKN038 20/15 A2996 RMK AO2,KHZR,2019-01-12T20:57:00Z,30.72,-91.48,20.0,15.0,270,6,,10.0,29.958662,,,TRUE,TRUE,,,,,,,SCT,2400,BKN,2800,BKN,3800,,,MVFR,,,,,,,,,,,,METAR,12.0
KQRH 122056Z AUTO VRB03KT 9999 CLR 24/18 A3005 RMK AO2 SLP163 WND DATA ESTMD T02360175 402880212,KQRH,2019-01-12T20:56:00Z,,,23.6,17.5,0,3,,6.21,30.050198,1016.3,,TRUE,TRUE,,,,,,,CLR,,,,,,,,VFR,,,,28.8,21.2,,,,,,,METAR,
KQND 122056Z AUTO 00000KT 9999 CLR 25/00 A2993 RMK AO2 SLPNO WND DATA ESTMD T02451004,KQND,2019-01-12T20:56:00Z,,,24.5,-0.4,0,0,,6.21,29.929134,,,TRUE,TRUE,,,,,,,CLR,,,,,,,,VFR,,,,,,,,,,,,METAR,
KQN3 122056Z AUTO 02004KT 9999 CLR 27/M08 A2992 RMK AO2 SLP126 WND DATA ESTMD T02651078 52022,KQN3,2019-01-12T20:56:00Z,,,26.5,-7.8,20,4,,6.21,29.920275,1012.6,,TRUE,TRUE,,,,,,,CLR,,,,,,,,VFR,2.2,,,,,,,,,,,METAR,
KQHY 122056Z AUTO 13004KT 10SM BKN060 19/16 A3008 RMK AO2 SLP193 T01870161 56015 $,KQHY,2019-01-12T20:56:00Z,,,18.7,16.1,130,4,,10.0,30.079725,1019.3,,TRUE,TRUE,TRUE,,,,,,BKN,6000,,,,,,,VFR,-1.5,,,,,,,,,,,METAR,
KNJK 122056Z 01008KT 10SM SCT040 SCT080 18/09 A2999 RMK AO2 SLP171 60000 T01780094 56028 $,KNJK,2019-01-12T20:56:00Z,32.82,-115.67,17.8,9.4,10,8,,10.0,29.991142,1017.1,,,TRUE,TRUE,,,,,,SCT,4000,SCT,8000,,,,,VFR,-2.8,,,,,,0.005,,,,,METAR,-13.0
K1M4 122056Z AUTO VRB05KT 4SM RA BR SCT008 BKN028 OVC060 07/07 A3001 RMK AO2 SLP189 P0021 60034 T00720067 58012,K1M4,2019-01-12T20:56:00Z,34.28,-87.6,7.2,6.7,0,5,,4.0,30.008858,1018.9,,TRUE,TRUE,,,,,,RA BR,SCT,800,BKN,2800,OVC,6000,,,MVFR,-1.2,,,,,0.21,0.34,,,,,METAR,284.0
KISM 122056Z 11006KT 10SM CLR 24/14 A3017 RMK AO2 SLP220 6//// T02390144 56012 PNO $,KISM,2019-01-12T20:56:00Z,28.28,-81.43,23.9,14.4,110,6,,10.0,30.171259,1022.0,,,TRUE,TRUE,,,,,,CLR,,,,,,,,VFR,-1.2,,,,,,,,,,,METAR,25.0
KILE 122056Z AUTO 31011G19KT 10SM CLR 12/02 A3013 RMK AO2 SLP224 T01220022 53001,KILE,2019-01-12T20:56:00Z,31.07,-97.67,12.2,2.2,310,11,19,10.0,30.129921,1022.4,,TRUE,TRUE,,,,,,,CLR,,,,,,,,VFR,0.1,,,,,,,,,,,METAR,258.0
KHYI 122056Z 33015G21KT 10SM CLR 17/06 A3012 RMK AO2 SLP193 T01720056 55001,KHYI,2019-01-12T20:56:00Z,29.88,-97.87,17.2,5.6,330,15,21,10.0,30.121063,1019.3,,,TRUE,,,,,,,CLR,,,,,,,,VFR,-0.1,,,,,,,,,,,METAR,182.0
KHND 122056Z 00000KT 10SM CLR 12/M03 A3006 RMK AO2 SLP184 T01171033 56034 $,KHND,2019-01-12T20:56:00Z,35.98,-115.13,11.7,-3.3,0,0,,10.0,30.059055,1018.4,,,TRUE,TRUE,,,,,,CLR,,,,,,,,VFR,-3.4,,,,,,,,,,,METAR,749.0
KHNB 122056Z AUTO 09008KT 10SM OVC065 03/00 A3011 RMK AO2 SLP200 T00330000 56012,KHNB,2019-01-12T20:56:00Z,38.25,-86.95,3.3,0.0,90,8,,10.0,30.109253,1020.0,,TRUE,TRUE,,,,,,,OVC,6500,,,,,,,VFR,-1.2,,,,,,,,,,,METAR,161.0
KHEZ 122056Z AUTO 25008KT 10SM BKN010 OVC018 16/14 A2996 RMK AO2 CIG 008V012 SLP150 T01560139 55004,KHEZ,2019-01-12T20:56:00Z,31.62,-91.3,15.6,13.9,250,8,,10.0,29.958662,1015.0,,TRUE,TRUE,,,,,,,BKN,1000,OVC,1800,,,,,MVFR,-0.4,,,,,,,,,,,METAR,83.0
KHEF 122056Z 00000KT 4SM HZ BKN037 OVC046 M01/M03 A3050 RMK AO2 SLP340 6//// T10061033 55003 PNO $,KHEF,2019-01-12T20:56:00Z,38.72,-77.52,-0.6,-3.3,0,0,,4.0,30.499016,1034.0,,,TRUE,TRUE,,,,,HZ,BKN,3700,OVC,4600,,,,,MVFR,-0.3,,,,,,,,,,,METAR,59.0
KHDN 122056Z AUTO 22004KT 10SM OVC007 M04/M07 A3020 RMK AO2 SLP265 T10441072 56015 FZRANO,KHDN,2019-01-12T20:56:00Z,40.47,-107.22,-4.4,-7.2,220,4,,10.0,30.200787,1026.5,,TRUE,TRUE,,,,TRUE,,,OVC,700,,,,,,,IFR,-1.5,,,,,,,,,,,METAR,2012.0
KGXY 122056Z AUTO 24006KT 10SM CLR 06/M04 A3018 RMK AO2 SLP240 T00611039 56019,KGXY,2019-01-12T20:56:00Z,40.42,-104.62,6.1,-3.9,240,6,,10.0,30.180119,1024.0,,TRUE,TRUE,,,,,,,CLR,,,,,,,,VFR,-1.9,,,,,,,,,,,METAR,1420.0
KGVQ 122056Z AUTO 07006KT 10SM OVC070 M06/M11 A3049 RMK AO2 SLP356 T10611111 58007 FZRANO,KGVQ,2019-01-12T20:56:00Z,43.03,-78.17,-6.1,-11.1,70,6,,10.0,30.490158,1035.6,,TRUE,TRUE,,,,TRUE,,,OVC,7000,,,,,,,VFR,-0.7,,,,,,,,,,,METAR,278.0
KGUC 122056Z AUTO 09004KT 10SM BKN045 OVC050 M01/M04 A3012 RMK AO2 UPB26E28SNE26 SLP237 P0000 60000 T10111044 56021 FZRANO,KGUC,2019-01-12T20:56:00Z,38.52,-106.92,-1.1,-4.4,90,4,,10.0,30.121063,1023.7,,TRUE,TRUE,,,,TRUE,,,BKN,4500,OVC,5000,,,,,VFR,-2.1,,,,,0.005,0.005,,,,,METAR,2339.0
KGTU 122056Z 30016G22KT 10SM CLR 15/03 A3013 RMK AO2 SLP202 T01500033 55001,KGTU,2019-01-12T20:56:00Z,30.68,-97.68,15.0,3.3,300,16,22,10.0,30.129921,1020.2,,,TRUE,,,,,,,CLR,,,,,,,,VFR,-0.1,,,,,,,,,,,METAR,240.0
KGTR 122056Z 15012KT 10SM -RA OVC005 11/10 A2997 RMK AO2 CIG 004V009 SLP150 P0013 60028 T01060100 56021,KGTR,2019-01-12T20:56:00Z,33.45,-88.57,10.6,10.0,150,12,,10.0,29.970472,1015.0,,,TRUE,,,,,,-RA,OVC,500,,,,,,,IFR,-2.1,,,,,0.13,0.28,,,,,METAR,80.0
KGDV 122056Z AUTO 18004KT 3/4SM -SN BR OVC002 M04/M05 A3018 RMK AO2 SLP262 P0000 60000 T10391050 56019 FZRANO,KGDV,2019-01-12T20:56:00Z,47.12,-104.78,-3.9,-5.0,180,4,,0.75,30.180119,1026.2,,TRUE,TRUE,,,,TRUE,,-SN BR,OVC,200,,,,,,,LIFR,-1.9,,,,,0.005,0.005,,,,,METAR,749.0
KGBD 122056Z AUTO 34018KT 7SM OVC009 M02/M03 A3019 RMK AO2 SNE31 SLP242 P0000 60000 T10171033 51014 FZRANO,KGBD,2019-01-12T20:56:00Z,38.35,-98.87,-1.7,-3.3,340,18,,7.0,30.188976,1024.2,,TRUE,TRUE,,,,TRUE,,,OVC,900,,,,,,,IFR,1.4,,,,,0.005,0.005,,,,,METAR,575.0
KGAI 122056Z AUTO 20006KT 10SM BKN042 00/M06 A3047 RMK AO2 UPE07B37E55RAB1959E08SNB40E49 SLP352 P0000 60000 T00001056 55003 FZRANO,KGAI,2019-01-12T20:56:00Z,39.17,-77.17,0.0,-5.6,200,6,,10.0,30.469488,1035.2,,TRUE,TRUE,,,,TRUE,,,BKN,4200,,,,,,,VFR,-0.3,,,,,0.005,0.005,,,,,METAR,165.0
KGAD 122056Z AUTO 09008KT 10SM OVC028 09/03 A3009 RMK AO2 RAB03E18 SLP195 P0000 60000 T00940033 58036,KGAD,2019-01-12T20:56:00Z,33.97,-86.07,9.4,3.3,90,8,,10.0,30.088583,1019.5,,TRUE,TRUE,,,,,,,OVC,2800,,,,,,,MVFR,-3.6,,,,,0.005,0.005,,,,,METAR,173.0
KFRM 122056Z AUTO 05007KT 10SM OVC020 M01/M04 A3030 RMK AO2 SLP283 T10061039 55000 FZRANO,KFRM,2019-01-12T20:56:00Z,43.63,-94.42,-0.6,-3.9,50,7,,10.0,30.301182,1028.3,,TRUE,TRUE,,,,TRUE,,,OVC,2000,,,,,,,MVFR,0.0,,,,,,,,,,,METAR,354.0
KFOD 122056Z AUTO 05007KT 1 1/4SM -SN BR BKN006 OVC035 M01/M02 A3027 RMK AO2 CIG 005V012 SLP293 P0000 60002 T10061022 53001 FZRANO,KFOD,2019-01-12T20:56:00Z,42.53,-94.17,-0.6,-2.2,50,7,,1.25,30.268702,1029.3,,TRUE,TRUE,,,,TRUE,,-SN BR,BKN,600,OVC,3500,,,,,IFR,0.1,,,,,0.005,0.02,,,,,METAR,355.0
KFNL 122056Z AUTO VRB04KT 10SM BKN037 06/M02 A3017 RMK AO2 SLP220 6//// T00611022 56018 PNO $,KFNL,2019-01-12T20:56:00Z,40.45,-105.02,6.1,-2.2,0,4,,10.0,30.171259,1022.0,,TRUE,TRUE,TRUE,,,,,,BKN,3700,,,,,,,VFR,-1.8,,,,,,,,,,,METAR,1529.0
PFWS 122056Z AUTO 03010KT 10SM BKN090 M04/M06 A2938 RMK AO2 SLP956 T10441061 57016 FZRANO,PFWS,2019-01-12T20:56:00Z,58.7,-157.0,-4.4,-6.1,30,10,,10.0,29.379921,995.6,,TRUE,TRUE,,,,TRUE,,,BKN,9000,,,,,,,VFR,-1.6,,,,,,,,,,,METAR,49.0
PFNO 122056Z AUTO 07017KT 10SM CLR M33/M36 A3007 RMK AO2 SLP185 T13281361 56008 FZRANO,PFNO,2019-01-12T20:56:00Z,66.82,-161.02,-32.8,-36.1,70,17,,10.0,30.070866,1018.5,,TRUE,TRUE,,,,TRUE,,,CLR,,,,,,,,VFR,-0.8,,,,,,,,,,,METAR,17.0
PFKW 122056Z AUTO 04010KT 10SM BKN060 BKN070 OVC110 M23/M25 A2948 RMK AO2 SNE17 SLP985 P0000 60000 T12281250 58020 FZRANO,PFKW,2019-01-12T20:56:00Z,60.8,-161.43,-22.8,-25.0,40,10,,10.0,29.480314,998.5,,TRUE,TRUE,,,,TRUE,,,BKN,6000,BKN,7000,OVC,11000,,,VFR,-2.0,,,,,0.005,0.005,,,,,METAR,8.0
PFEL 122056Z AUTO 35012KT 10SM CLR M25/M31 A2983 RMK AO2 SLP105 T12501306 58015 FZRANO,PFEL,2019-01-12T20:56:00Z,64.62,-162.27,-25.0,-30.6,350,12,,10.0,29.828741,1010.5,,TRUE,TRUE,,,,TRUE,,,CLR,,,,,,,,VFR,-1.5,,,,,,,,,,,METAR,49.0
PFCL 122056Z AUTO 02016KT 9SM -SN BKN042 OVC055 M11/M12 RMK AO2 SLPNO P0000 60000 T11111122 FZRANO TSNO $,PFCL,2019-01-12T20:56:00Z,58.83,-158.53,-11.1,-12.2,20,16,,9.0,,,,TRUE,TRUE,TRUE,,TRUE,TRUE,,-SN,BKN,4200,OVC,5500,,,,,VFR,,,,,,0.005,0.005,,,,,METAR,24.0
PAZK 122056Z AUTO 03004KT 10SM CLR M20/M22 A2965 RMK AO2 SLP162 T12001222 50002 FZRANO,PAZK,2019-01-12T20:56:00Z,61.93,-147.17,-20.0,-22.2,30,4,,10.0,29.648623,1016.2,,TRUE,TRUE,,,,TRUE,,,CLR,,,,,,,,VFR,0.2,,,,,,,,,,,METAR,1003.0
PAOH 122056Z AUTO 00000KT 10SM OVC006 02/01 A2992 RMK AO2 SLP132 P0005 60015 T00170011 50005 FZRANO,PAOH,2019-01-12T20:56:00Z,58.1,-135.45,1.7,1.1,0,0,,10.0,29.920275,1013.2,,TRUE,TRUE,,,,TRUE,,,OVC,600,,,,,,,IFR,0.5,,,,,0.05,0.15,,,,,METAR,9.0
PANI 122056Z AUTO 02004KT 10SM CLR M27/M31 A2964 RMK AO2 SNE04 SLP008 P0000 60000 T12721306 56011 FZRANO,PANI,2019-01-12T20:56:00Z,61.58,-159.53,-27.2,-30.6,20,4,,10.0,29.639763,1000.8,,TRUE,TRUE,,,,TRUE,,,CLR,,,,,,,,VFR,-1.1,,,,,0.005,0.005,,,,,METAR,26.0
PANA 122056Z AUTO 04014G19KT 6SM -SN SCT070 M25/M28 A2947 RMK AO2 SLP981 P0000 60000 T12501278 58019 FZRANO,PANA,2019-01-12T20:56:00Z,60.68,-161.98,-25.0,-27.8,40,14,19,6.0,29.471457,998.1,,TRUE,TRUE,,,,TRUE,,-SN,SCT,7000,,,,,,,VFR,-1.9,,,,,0.005,0.005,,,,,METAR,5.0
PAII 122056Z AUTO 05008KT 10SM SCT045 OVC055 M04/M06 A2933 RMK AO2 SLP935 60000 T10441061 58018 FZRANO,PAII,2019-01-12T20:56:00Z,58.18,-157.38,-4.4,-6.1,50,8,,10.0,29.329725,993.5,,TRUE,TRUE,,,,TRUE,,,SCT,4500,OVC,5500,,,,,VFR,-1.8,,,,,,0.005,,,,,METAR,30.0
KSFZ 122056Z AUTO 29012G17KT 10SM CLR M04/M16 A3042 RMK AO2 SLP251 T10391156 51005 FZRANO,KSFZ,2019-01-12T20:56:00Z,41.92,-71.5,-3.9,-15.6,290,12,17,10.0,30.41929,1025.1,,TRUE,TRUE,,,,TRUE,,,CLR,,,,,,,,VFR,0.5,,,,,,,,,,,METAR,134.0
KSFM 122056Z AUTO 28014G23KT 10SM CLR M08/M16 A3039 RMK AO2 SLP301 6//// T10781161 53010 FZRANO PNO $,KSFM,2019-01-12T20:56:00Z,43.38,-70.72,-7.8,-16.1,280,14,23,10.0,30.389763,1030.1,,TRUE,TRUE,TRUE,,,TRUE,,,CLR,,,,,,,,VFR,1.0,,,,,,,,,,,METAR,74.0
KSDY 122056Z AUTO 17010KT 7SM OVC005 M04/M06 A3020 RMK AO2 SLP266 T10391056 56021 FZRANO,KSDY,2019-01-12T20:56:00Z,47.7,-104.2,-3.9,-5.6,170,10,,7.0,30.200787,1026.6,,TRUE,TRUE,,,,TRUE,,,OVC,500,,,,,,,IFR,-2.1,,,,,,,,,,,METAR,605.0
KRUT 122056Z AUTO 33004KT 10SM CLR M10/M16 A3046 RMK AO2 SLP339 T11001161 58000 FZRANO $,KRUT,2019-01-12T20:56:00Z,43.52,-72.95,-10.0,-16.1,330,4,,10.0,30.46063,1033.9,,TRUE,TRUE,TRUE,,,TRUE,,,CLR,,,,,,,,VFR,0.0,,,,,,,,,,,METAR,240.0
KRKD 122056Z AUTO 30013KT 10SM CLR M08/M16 A3034 RMK AO2 SLP277 T10831161 53014 FZRANO,KRKD,2019-01-12T20:56:00Z,44.07,-69.08,-8.3,-16.1,300,13,,10.0,30.339567,1027.7,,TRUE,TRUE,,,,TRUE,,,CLR,,,,,,,,VFR,1.4,,,,,,,,,,,METAR,17.0
KPWT 122056Z AUTO 11005KT 10SM CLR 12/03 A2999 RMK AO2 SLP175 T01170028 58005,KPWT,2019-01-12T20:56:00Z,47.5,-122.75,11.7,2.8,110,5,,10.0,29.991142,1017.5,,TRUE,TRUE,,,,,,,CLR,,,,,,,,VFR,-0.5,,,,,,,,,,,METAR,147.0
KPWG 122056Z AUTO 32016G23KT 10SM BKN042 10/03 A3015 RMK AO2 SLP227 T01000028 53007,KPWG,2019-01-12T20:56:00Z,31.47,-97.32,10.0,2.8,320,16,23,10.0,30.15059,1022.7,,TRUE,TRUE,,,,,,,BKN,4200,,,,,,,VFR,0.7,,,,,,,,,,,METAR,180.0
KPVG 122056Z AUTO 00000KT 10SM FEW047 BKN060 BKN075 03/M03 A3047 RMK AO2 SLP319 6//// T00331033 58009 PNO $,KPVG,2019-01-12T20:56:00Z,36.78,-76.45,3.3,-3.3,0,0,,10.0,30.469488,1031.9,,TRUE,TRUE,TRUE,,,,,,FEW,4700,BKN,6000,BKN,7500,,,VFR,-0.9,,,,,,,,,,,METAR,7.0
KPVC 122056Z AUTO 29015G22KT 10SM CLR M03/M12 A3042 RMK AO2 SLP299 T10281117 51001 FZRANO,KPVC,2019-01-12T20:56:00Z,42.07,-70.22,-2.8,-11.7,290,15,22,10.0,30.41929,1029.9,,TRUE,TRUE,,,,TRUE,,,CLR,,,,,,,,VFR,0.1,,,,,,,,,,,METAR,2.0
KPTV 122056Z AUTO 00000KT 10SM CLR 13/09 A2999 RMK AO2 SLP171 60002 T01330094 58024,KPTV,2019-01-12T20:56:00Z,36.02,-119.07,13.3,9.4,0,0,,10.0,29.991142,1017.1,,TRUE,TRUE,,,,,,,CLR,,,,,,,,VFR,-2.4,,,,,,0.02,,,,,METAR,135.0
KPTN 122056Z AUTO 26007KT 10SM OVC011 18/17 A3000 RMK AO2 SLP160 60003 T01830172 55009,KPTN,2019-01-12T20:56:00Z,29.72,-91.32,18.3,17.2,260,7,,10.0,30.0,1016.0,,TRUE,TRUE,,,,,,,OVC,1100,,,,,,,MVFR,-0.9,,,,,,0.03,,,,,METAR,3.0
KADF 122056Z AUTO 28009KT 10SM SCT014 BKN021 OVC050 10/08 A2995 RMK AO2 SLP147 60000 T01000078 53006,KADF,2019-01-12T20:56:00Z,34.1,-93.07,10.0,7.8,280,9,,10.0,29.949802,1014.7,,TRUE,TRUE,,,,,,,SCT,1400,BKN,2100,OVC,5000,,,MVFR,0.6,,,,,,0.005,,,,,METAR,56.0
KAFJ 122056Z AUTO 04007KT 1 3/4SM -SN BR FEW009 OVC036 M02/M04 A3036 RMK AO2 SLP296 P0000 60000 T10221039 58003 FZRANO,KAFJ,2019-01-12T20:56:00Z,40.12,-80.27,-2.2,-3.9,40,7,,1.75,30.360237,1029.6,,TRUE,TRUE,,,,TRUE,,-SN BR,FEW,900,OVC,3600,,,,,IFR,-0.3,,,,,0.005,0.005,,,,,METAR,361.0
KAIZ 122056Z AUTO 03007KT 2SM BR OVC003 01/01 A2998 RMK AO2 RAE52UPB52E55SNB15E25 SLP158 P0000 60000 T00110006 55005 FZRANO,KAIZ,2019-01-12T20:56:00Z,38.1,-92.53,1.1,0.6,30,7,,2.0,29.97933,1015.8,,TRUE,TRUE,,,,TRUE,,BR,OVC,300,,,,,,,LIFR,-0.5,,,,,0.005,0.005,,,,,METAR,265.0
KAJO 122056Z AUTO 10SM -RA RMK AO2 RAB1959 SLPNO P0022 6//// FZRANO $,KAJO,2019-01-12T20:56:00Z,33.9,-117.6,,,,,,10.0,,,,TRUE,TRUE,TRUE,,,TRUE,,-RA,,,,,,,,,,,,,,,0.22,,,,,,METAR,163.0
KASH 122056Z 31016G25KT 10SM CLR M05/M18 A3045 RMK AO2 SLP324 T10501178 53006 $,KASH,2019-01-12T20:56:00Z,42.78,-71.52,-5.0,-17.8,310,16,25,10.0,30.448818,1032.4,,,TRUE,TRUE,,,,,,CLR,,,,,,,,VFR,0.6,,,,,,,,,,,METAR,61.0
KAUO 122056Z AUTO VRB05KT OVC027 11/06 A3014 RMK AO2 SLP233 T01110061 56009 PWINO $,KAUO,2019-01-12T20:56:00Z,32.62,-85.42,11.1,6.1,0,5,,,30.138779,1023.3,,TRUE,TRUE,TRUE,,,,TRUE,,OVC,2700,,,,,,,,-0.9,,,,,,,,,,,METAR,236.0
KAWO 122056Z AUTO 00000KT 10SM CLR 13/03 A3001 RMK AO2 SLP166 T01280028 58002,KAWO,2019-01-12T20:56:00Z,48.17,-122.17,12.8,2.8,0,0,,10.0,30.008858,1016.6,,TRUE,TRUE,,,,,,,CLR,,,,,,,,VFR,-0.2,,,,,,,,,,,METAR,42.0
KBHB 122056Z AUTO 31007G14KT 280V350 10SM CLR M09/M17 A3031 RMK AO2 SLP268 T10941167 53018 FZRANO $,KBHB,2019-01-12T20:56:00Z,44.45,-68.37,-9.4,-16.7,310,7,14,10.0,30.31004,1026.8,,TRUE,TRUE,TRUE,,,TRUE,,,CLR,,,,,,,,VFR,1.8,,,,,,,,,,,METAR,26.0
KBID 122056Z AUTO 30007KT 10SM CLR M02/M11 A3046 RMK AO2 SLP321 6//// T10171111 53000 FZRANO,KBID,2019-01-12T20:56:00Z,41.17,-71.58,-1.7,-11.1,300,7,,10.0,30.46063,1032.1,,TRUE,TRUE,,,,TRUE,,,CLR,,,,,,,,VFR,0.0,,,,,,,,,,,METAR,33.0
KBLM 122056Z AUTO 28004KT 10SM CLR 01/M14 A3050 RMK AO2 SLP333 T00061144 56003 FZRANO,KBLM,2019-01-12T20:56:00Z,40.17,-74.12,0.6,-14.4,280,4,,10.0,30.499016,1033.3,,TRUE,TRUE,,,,TRUE,,,CLR,,,,,,,,VFR,-0.3,,,,,,,,,,,METAR,48.0
KBMI 122056Z 07018KT 1SM R20/P6000FT -SN BR OVC005 M02/M03 A3017 RMK AO2 SLP222 P0000 60000 T10171028 55013,KBMI,2019-01-12T20:56:00Z,40.47,-88.92,-1.7,-2.8,70,18,,1.0,30.171259,1022.2,,,TRUE,,,,,,-SN BR,OVC,500,,,,,,,IFR,-1.3,,,,,0.005,0.005,,,,,METAR,267.0
KBOK 122056Z AUTO VRB05KT 10SM BKN016 14/10 A2994 RMK AO2 SLP154 T01390100 56015,KBOK,2019-01-12T20:56:00Z,42.07,-124.28,13.9,10.0,0,5,,10.0,29.940945,1015.4,,TRUE,TRUE,,,,,,,BKN,1600,,,,,,,MVFR,-1.5,,,,,,,,,,,METAR,140.0
KBVX 122056Z AUTO 00000KT 1SM -RA BR OVC003 05/04 A2992 RMK AO2 SLP134 P0001 60001 T00500044 55012 RVRNO,KBVX,2019-01-12T20:56:00Z,35.73,-91.65,5.0,4.4,0,0,,1.0,29.920275,1013.4,,TRUE,TRUE,,,,,,-RA BR,OVC,300,,,,,,,LIFR,-1.2,,,,,0.01,0.01,,,,,METAR,141.0
KCGZ 122056Z AUTO 12005KT 10SM CLR 18/04 A3000 RMK AO2 SLP157 T01780039 56035 $,KCGZ,2019-01-12T20:56:00Z,32.95,-111.77,17.8,3.9,120,5,,10.0,30.0,1015.7,,TRUE,TRUE,TRUE,,,,,,CLR,,,,,,,,VFR,-3.5,,,,,,,,,,,METAR,446.0
KCIU 122056Z AUTO 07005KT 10SM CLR M09/M16 A3056 RMK AO2 SLP379 T10941161 56008 FZRANO,KCIU,2019-01-12T20:56:00Z,46.25,-84.47,-9.4,-16.1,70,5,,10.0,30.561024,1037.9,,TRUE,TRUE,,,,TRUE,,,CLR,,,,,,,,VFR,-0.8,,,,,,,,,,,METAR,244.0
KSGT 122056Z AUTO 21005KT 2 1/2SM BR OVC003 10/10 A2991 RMK AO2 SLP129 T01000100 55010,KSGT,2019-01-12T20:56:00Z,34.6,-91.57,10.0,10.0,210,5,,2.5,29.911417,1012.9,,TRUE,TRUE,,,,,,BR,OVC,300,,,,,,,LIFR,-1.0,,,,,,,,,,,METAR,68.0
KSGJ 122056Z 11005KT 10SM OVC070 21/14 A3021 RMK AO2 SLP230 T02060144 56012,KSGJ,2019-01-12T20:56:00Z,29.97,-81.32,20.6,14.4,110,5,,10.0,30.209646,1023.0,,,TRUE,,,,,,,OVC,7000,,,,,,,VFR,-1.2,,,,,,,,,,,METAR,3.0
KEKY 122056Z AUTO 13009KT 7SM -RA BKN019 BKN035 OVC055 09/07 A3002 RMK AO2 SLP188 P0004 60004 T00890072 56034,KEKY,2019-01-12T20:56:00Z,33.32,-86.93,8.9,7.2,130,9,,7.0,30.02067,1018.8,,TRUE,TRUE,,,,,,-RA,BKN,1900,BKN,3500,OVC,5500,,,MVFR,-3.4,,,,,0.04,0.04,,,,,METAR,213.0
KEKQ 122056Z AUTO 33004KT 10SM SCT039 BKN080 OVC090 06/03 A3013 RMK AO2 RAE43 SLP233 6//// T00560033 58028 PNO $,KEKQ,2019-01-12T20:56:00Z,36.85,-84.85,5.6,3.3,330,4,,10.0,30.129921,1023.3,,TRUE,TRUE,TRUE,,,,,,SCT,3900,BKN,8000,OVC,9000,,,VFR,-2.8,,,,,,,,,,,METAR,294.0
KEHR 122056Z AUTO 07007KT 8SM -RA FEW030 OVC042 03/01 A3007 RMK AO2 SLP194 P0003 60003 T00280006 58016,KEHR,2019-01-12T20:56:00Z,37.82,-87.67,2.8,0.6,70,7,,8.0,30.070866,1019.4,,TRUE,TRUE,,,,,,-RA,FEW,3000,OVC,4200,,,,,VFR,-1.6,,,,,0.03,0.03,,,,,METAR,117.0
KESC 122056Z AUTO 08008KT 10SM OVC014 M05/M08 A3054 RMK AO2 SLP368 T10501078 53001 FZRANO,KESC,2019-01-12T20:56:00Z,45.75,-87.08,-5.0,-7.8,80,8,,10.0,30.540354,1036.8,,TRUE,TRUE,,,,TRUE,,,OVC,1400,,,,,,,MVFR,0.1,,,,,,,,,,,METAR,187.0
KENV 122056Z AUTO 08004KT 10SM OVC009 M02/M02 A3026 RMK AO2 SLP281 60000 T10171022 56017 FZRANO TSNO,KENV,2019-01-12T20:56:00Z,40.72,-114.02,-1.7,-2.2,80,4,,10.0,30.259842,1028.1,,TRUE,TRUE,,,TRUE,TRUE,,,OVC,900,,,,,,,IFR,-1.7,,,,,,0.005,,,,,METAR,1292.0
KCTB 122056Z AUTO 21003KT 10SM CLR 09/M09 A3003 RMK AO2 SLP193 T00941094 56012,KCTB,2019-01-12T20:56:00Z,48.6,-112.37,9.4,-9.4,210,3,,10.0,30.029528,1019.3,,TRUE,TRUE,,,,,,,CLR,,,,,,,,VFR,-1.2,,,,,,,,,,,METAR,1175.0
KCOE 122056Z AUTO 03017KT 10SM CLR 03/M01 A3017 RMK AO2 SLP254 T00331011 56017,KCOE,2019-01-12T20:56:00Z,47.77,-116.82,3.3,-1.1,30,17,,10.0,30.171259,1025.4,,TRUE,TRUE,,,,,,,CLR,,,,,,,,VFR,-1.7,,,,,,,,,,,METAR,707.0
KCOD 122056Z AUTO 03007KT 10SM CLR M01/M06 A3013 RMK AO2 SLP258 T10061056 55015 FZRANO,KCOD,2019-01-12T20:56:00Z,44.52,-109.02,-0.6,-5.6,30,7,,10.0,30.129921,1025.8,,TRUE,TRUE,,,,TRUE,,,CLR,,,,,,,,VFR,-1.5,,,,,,,,,,,METAR,1553.0
KSGU 122056Z AUTO 00000KT 10SM CLR 09/M03 A3010 RMK AO2 SLP194 T00941033 56041,KSGU,2019-01-12T20:56:00Z,37.07,-113.52,9.4,-3.3,0,0,,10.0,30.100393,1019.4,,TRUE,TRUE,,,,,,,CLR,,,,,,,,VFR,-4.1,,,,,,,,,,,METAR,896.0
KSLG 122056Z AUTO 31012KT 3SM -RA BR OVC005 03/03 A2995 RMK AO2 RAE10B27 SLP148 P0000 60001 T00330028 51018,KSLG,2019-01-12T20:56:00Z,36.2,-94.47,3.3,2.8,310,12,,3.0,29.949802,1014.8,,TRUE,TRUE,,,,,,-RA BR,OVC,500,,,,,,,IFR,1.8,,,,,0.005,0.01,,,,,METAR,300.0
KSMN 122056Z AUTO 35003KT 10SM OVC021 M03/M08 A3035 RMK AO2 SLP319 T10331078 56016 FZRANO,KSMN,2019-01-12T20:56:00Z,45.12,-113.87,-3.3,-7.8,350,3,,10.0,30.351377,1031.9,,TRUE,TRUE,,,,TRUE,,,OVC,2100,,,,,,,MVFR,-1.6,,,,,,,,,,,METAR,1233.0
KSRC 122056Z AUTO 00000KT 1SM BR OVC003 07/07 A2992 RMK AO2 RAE53 SLP141 P0000 60000 T00670067 55008,KSRC,2019-01-12T20:56:00Z,35.22,-91.73,6.7,6.7,0,0,,1.0,29.920275,1014.1,,TRUE,TRUE,,,,,,BR,OVC,300,,,,,,,LIFR,-0.8,,,,,0.005,0.005,,,,,METAR,80.0
KTVF 122056Z AUTO 09006KT 10SM OVC009 M04/M06 A3041 RMK AO2 SLP319 T10391056 55005 FZRANO,KTVF,2019-01-12T20:56:00Z,48.07,-96.17,-3.9,-5.6,90,6,,10.0,30.410433,1031.9,,TRUE,TRUE,,,,TRUE,,,OVC,900,,,,,,,IFR,-0.5,,,,,,,,,,,METAR,340.0
KUCP 122056Z AUTO VRB04KT 9SM -SN BKN046 OVC060 M01/M08 A3037 RMK AO2 UPB37E49SNB49 SLP314 P0000 60000 T10111078 56009,KUCP,2019-01-12T20:56:00Z,41.03,-80.42,-1.1,-7.8,0,4,,9.0,30.369095,1031.4,,TRUE,TRUE,,,,,,-SN,BKN,4600,OVC,6000,,,,,VFR,-0.9,,,,,0.005,0.005,,,,,METAR,327.0
KUDG 122056Z AUTO 04008KT 10SM BKN075 06/M06 A3038 RMK AO2 SLP293 T00561056 56014,KUDG,2019-01-12T20:56:00Z,34.45,-79.88,5.6,-5.6,40,8,,10.0,30.380905,1029.3,,TRUE,TRUE,,,,,,,BKN,7500,,,,,,,VFR,-1.4,,,,,,,,,,,METAR,59.0
KEUL 122056Z AUTO 09011KT 1 1/4SM HZ OVC028 05/M02 A3025 RMK AO2 SLP262 T00501022 57018 $,KEUL,2019-01-12T20:56:00Z,43.62,-116.62,5.0,-2.2,90,11,,1.25,30.250984,1026.2,,TRUE,TRUE,TRUE,,,,,HZ,OVC,2800,,,,,,,IFR,-1.8,,,,,,,,,,,METAR,740.0
KFCI 122056Z AUTO 12003KT 10SM SCT036 OVC046 02/M07 A3047 RMK AO2 SLP339 T00221067 58010 FZRANO,KFCI,2019-01-12T20:56:00Z,37.4,-77.52,2.2,-6.7,120,3,,10.0,30.469488,1033.9,,TRUE,TRUE,,,,TRUE,,,SCT,3600,OVC,4600,,,,,VFR,-1.0,,,,,,,,,,,METAR,72.0
KFKL 122056Z AUTO 07006KT 10SM CLR M02/M11 A3034 RMK AO2 SLP299 T10171106 58011 FZRANO,KFKL,2019-01-12T20:56:00Z,41.37,-79.87,-1.7,-10.6,70,6,,10.0,30.339567,1029.9,,TRUE,TRUE,,,,TRUE,,,CLR,,,,,,,,VFR,-1.1,,,,,,,,,,,METAR,469.0
KVBT 122056Z AUTO 32007KT 5SM -RA BR OVC004 04/03 A2995 RMK AO2 CIG 003V008 SLP150 P0000 60001 T00390028 51014,KVBT,2019-01-12T20:56:00Z,36.35,-94.22,3.9,2.8,320,7,,5.0,29.949802,1015.0,,TRUE,TRUE,,,,,,-RA BR,OVC,400,,,,,,,LIFR,1.4,,,,,0.005,0.01,,,,,METAR,395.0
KY50 122056Z AUTO 08012KT 10SM OVC017 M01/M04 A3039 RMK AO2 SLP321 T10061039 53002 FZRANO $,KY50,2019-01-12T20:56:00Z,44.03,-89.3,-0.6,-3.9,80,12,,10.0,30.389763,1032.1,,TRUE,TRUE,TRUE,,,TRUE,,,OVC,1700,,,,,,,MVFR,0.2,,,,,,,,,,,METAR,262.0
KWVL 122056Z AUTO 10SM CLR M09/M17 A3031 RMK AO2 SLP303 T10941167 51014 FZRANO $,KWVL,2019-01-12T20:56:00Z,44.52,-69.67,-9.4,-16.7,,,,10.0,30.31004,1030.3,,TRUE,TRUE,TRUE,,,TRUE,,,CLR,,,,,,,,VFR,1.4,,,,,,,,,,,METAR,101.0
KVIS 122056Z AUTO 00000KT 10SM CLR 16/08 A2999 RMK AO2 RAE09 SLP165 6//// T01610083 56023 PNO $,KVIS,2019-01-12T20:56:00Z,36.32,-119.4,16.1,8.3,0,0,,10.0,29.991142,1016.5,,TRUE,TRUE,TRUE,,,,,,CLR,,,,,,,,VFR,-2.3,,,,,,,,,,,METAR,89.0
PABV 122056Z AUTO 16003KT 10SM CLR M18/M20 A2984 RMK AO2 SLP115 T11831200 58003 FZRANO,PABV,2019-01-12T20:56:00Z,61.42,-149.52,-18.3,-20.0,160,3,,10.0,29.840551,1011.5,,TRUE,TRUE,,,,TRUE,,,CLR,,,,,,,,VFR,-0.3,,,,,,,,,,,METAR,29.0
KLYV 122056Z AUTO 04006KT 10SM BKN025 BKN035 OVC041 M02/M06 A3030 RMK AO2,KLYV,2019-01-12T20:56:00Z,43.62,-96.22,-2.0,-6.0,40,6,,10.0,30.301182,,,TRUE,TRUE,,,,,,,BKN,2500,BKN,3500,OVC,4100,,,MVFR,,,,,,,,,,,,METAR,436.0
KLWS 122056Z 16003KT 10SM CLR 08/M01 A3015 RMK AO2 SLP221 T00781011 56017,KLWS,2019-01-12T20:56:00Z,46.37,-117.02,7.8,-1.1,160,3,,10.0,30.15059,1022.1,,,TRUE,,,,,,,CLR,,,,,,,,VFR,-1.7,,,,,,,,,,,SPECI,438.0
KLAS 122056Z 00000KT 10SM SCT080 BKN150 BKN200 13/M04 A3003 RMK AO2 SLP167 T01331039 56032,KLAS,2019-01-12T20:56:00Z,36.07,-115.17,13.3,-3.9,0,0,,10.0,30.029528,1016.7,,,TRUE,,,,,,,SCT,8000,BKN,15000,BKN,20000,,,VFR,-3.2,,,,,,,,,,,SPECI,636.0
KJXN 122056Z 08015KT 10SM BKN019 OVC026 M01/M06 A3035 RMK AO2 SLP292 T10111056 55006,KJXN,2019-01-12T20:56:00Z,42.27,-84.47,-1.1,-5.6,80,15,,10.0,30.351377,1029.2,,,TRUE,,,,,,,BKN,1900,OVC,2600,,,,,MVFR,-0.6,,,,,,,,,,,METAR,305.0
KJMS 122056Z AUTO 00000KT 8SM OVC006 M06/M07 A3035 RMK AO2 SLP306 T10561072 55008,KJMS,2019-01-12T20:56:00Z,46.93,-98.67,-5.6,-7.2,0,0,,8.0,30.351377,1030.6,,TRUE,TRUE,,,,,,,OVC,600,,,,,,,IFR,-0.8,,,,,,,,,,,METAR,455.0
KJAX 122056Z 11012KT 10SM FEW038 BKN055 BKN070 BKN250 21/12 A3020 RMK AO2 SLP225 T02060122 56013,KJAX,2019-01-12T20:56:00Z,30.5,-81.68,20.6,12.2,110,12,,10.0,30.200787,1022.5,,,TRUE,,,,,,,FEW,3800,BKN,5500,BKN,7000,BKN,25000,VFR,-1.3,,,,,,,,,,,METAR,10.0
KISP 122056Z 35006KT 10SM SCT085 BKN160 BKN200 M01/M12 A3049 RMK AO2 SLP325 T10111117 53001 $,KISP,2019-01-12T20:56:00Z,40.8,-73.1,-1.1,-11.7,350,6,,10.0,30.490158,1032.5,,,TRUE,TRUE,,,,,,SCT,8500,BKN,16000,BKN,20000,,,VFR,0.1,,,,,,,,,,,METAR,43.0
KINW 122056Z AUTO 15004KT 10SM CLR 06/M02 A3013 RMK AO2 SLP206 T00611022 56030,KINW,2019-01-12T20:56:00Z,35.03,-110.72,6.1,-2.2,150,4,,10.0,30.129921,1020.6,,TRUE,TRUE,,,,,,,CLR,,,,,,,,VFR,-3.0,,,,,,,,,,,METAR,1490.0
KHYA 122056Z 31006KT 10SM CLR M02/M18 A3040 RMK AO2 SLP297 T10171178 53004,KHYA,2019-01-12T20:56:00Z,41.67,-70.27,-1.7,-17.8,310,6,,10.0,30.398623,1029.7,,,TRUE,,,,,,,CLR,,,,,,,,VFR,0.4,,,,,,,,,,,METAR,22.0
KHWV 122056Z AUTO 33006KT 10SM CLR M02/M12 A3050 RMK AO2 SLP329 T10171122 51002,KHWV,2019-01-12T20:56:00Z,40.82,-72.87,-1.7,-12.2,330,6,,10.0,30.499016,1032.9,,TRUE,TRUE,,,,,,,CLR,,,,,,,,VFR,0.2,,,,,,,,,,,METAR,21.0
PKMJ 122056Z 06011KT 15SM FEW015 SCT050 BKN300 29/25 A2975 ,PKMJ,2019-01-12T20:56:00Z,7.07,171.27,29.0,25.0,60,11,,15.0,29.749016,,,,,,,,,,,FEW,1500,SCT,5000,BKN,30000,,,VFR,,,,,,,,,,,,METAR,3.0
KNQI 122056Z AUTO 32013KT 10SM CLR 24/11 A3006 RMK AO2 SLP177 T02440111 55017,KNQI,2019-01-12T20:56:00Z,27.5,-97.82,24.4,11.1,320,13,,10.0,30.059055,1017.7,,TRUE,TRUE,,,,,,,CLR,,,,,,,,VFR,-1.7,,,,,,,,,,,METAR,15.0
KNGP 122056Z 33005KT 10SM FEW025 24/15 A3006 RMK AO2 SLP178 T02390150 55015 $,KNGP,2019-01-12T20:56:00Z,27.68,-97.27,23.9,15.0,330,5,,10.0,30.059055,1017.8,,,TRUE,TRUE,,,,,,FEW,2500,,,,,,,VFR,-1.5,,,,,,,,,,,METAR,6.0
KLNR 122056Z AUTO 07010KT 10SM SCT026 OVC060 01/M04 A3032 RMK AO2 SLP272 T00111039 56005,KLNR,2019-01-12T20:56:00Z,43.22,-90.18,1.1,-3.9,70,10,,10.0,30.318897,1027.2,,TRUE,TRUE,,,,,,,SCT,2600,OVC,6000,,,,,VFR,-0.5,,,,,,,,,,,METAR,217.0
KLGD 122056Z AUTO 16018G25KT 10SM CLR 06/M02 A3017 RMK AO2 PK WND 17028/2004 SLP348 T00561022 56019,KLGD,2019-01-12T20:56:00Z,45.27,-118.0,5.6,-2.2,160,18,25,10.0,30.171259,1034.8,,TRUE,TRUE,,,,,,,CLR,,,,,,,,VFR,-1.9,,,,,,,,,,,METAR,827.0
KLEW 122056Z AUTO 31009KT 10SM CLR M08/M17 A3038 RMK AO2 SLP304 T10831167 53015 FZRANO,KLEW,2019-01-12T20:56:00Z,44.03,-70.27,-8.3,-16.7,310,9,,10.0,30.380905,1030.4,,TRUE,TRUE,,,,TRUE,,,CLR,,,,,,,,VFR,1.5,,,,,,,,,,,METAR,88.0
KLCI 122056Z AUTO 27008KT 10SM CLR M09/M17 A3042 RMK AO2 SLP322 T10941172 53012 FZRANO $,KLCI,2019-01-12T20:56:00Z,43.57,-71.42,-9.4,-17.2,270,8,,10.0,30.41929,1032.2,,TRUE,TRUE,TRUE,,,TRUE,,,CLR,,,,,,,,VFR,1.2,,,,,,,,,,,METAR,166.0
KLBL 122056Z AUTO 35014KT 10SM OVC015 01/M01 A3021 RMK AO2 SLP249 T00111011 53006 FZRANO,KLBL,2019-01-12T20:56:00Z,37.03,-100.97,1.1,-1.1,350,14,,10.0,30.209646,1024.9,,TRUE,TRUE,,,,TRUE,,,OVC,1500,,,,,,,MVFR,0.6,,,,,,,,,,,METAR,879.0
KKLS 122056Z AUTO 26003KT 10SM CLR 10/04 A3001 RMK AO2 SLP165 T01000044 58009,KKLS,2019-01-12T20:56:00Z,46.12,-122.9,10.0,4.4,260,3,,10.0,30.008858,1016.5,,TRUE,TRUE,,,,,,,CLR,,,,,,,,VFR,-0.9,,,,,,,,,,,METAR,5.0
KJRB 122056Z AUTO VRB03KT 10SM CLR 02/M12 A3049 RMK AO2 SLP326 T00221122 58006 FZRANO,KJRB,2019-01-12T20:56:00Z,40.7,-74.02,2.2,-12.2,0,3,,10.0,30.490158,1032.6,,TRUE,TRUE,,,,TRUE,,,CLR,,,,,,,,VFR,-0.6,,,,,,,,,,,METAR,7.0
KJHW 122056Z AUTO 06006KT 10SM OVC060 M05/M12 A3037 RMK AO2 SLP318 T10501122 55009 FZRANO,KJHW,2019-01-12T20:56:00Z,42.13,-79.27,-5.0,-12.2,60,6,,10.0,30.369095,1031.8,,TRUE,TRUE,,,,TRUE,,,OVC,6000,,,,,,,VFR,-0.9,,,,,,,,,,,METAR,525.0
KJAC 122056Z 17006KT 9SM CLR M09/M13 A3023 RMK AO2 SLP350 60000 T10941133 56023,KJAC,2019-01-12T20:56:00Z,43.62,-110.73,-9.4,-13.3,170,6,,9.0,30.230314,1035.0,,,TRUE,,,,,,,CLR,,,,,,,,VFR,-2.3,,,,,,0.005,,,,,METAR,1961.0
KITH 122056Z 32004KT 10SM OVC080 M07/M12 A3047 RMK AO2 SLP340 T10671122 58004,KITH,2019-01-12T20:56:00Z,42.47,-76.45,-6.7,-12.2,320,4,,10.0,30.469488,1034.0,,,TRUE,,,,,,,OVC,8000,,,,,,,VFR,-0.4,,,,,,,,,,,METAR,335.0
PAHP 122056Z AUTO 05012KT 10SM CLR M27/M30 A2963 RMK AO2 SLP072 T12671300 58019 FZRANO,PAHP,2019-01-12T20:56:00Z,61.52,-166.15,-26.7,-30.0,50,12,,10.0,29.630905,1007.2,,TRUE,TRUE,,,,TRUE,,,CLR,,,,,,,,VFR,-1.9,,,,,,,,,,,METAR,5.0
PAGN 122056Z AUTO 00000KT 10SM FEW003 02/02 A2992 RMK AO2 SLP120 T00220017 50002 FZRANO,PAGN,2019-01-12T20:56:00Z,57.5,-134.58,2.2,1.7,0,0,,10.0,29.920275,1012.0,,TRUE,TRUE,,,,TRUE,,,FEW,300,,,,,,,VFR,0.2,,,,,,,,,,,METAR,2.0
PAGL 122056Z AUTO 30010KT 10SM CLR M34/ A2983 RMK AO2 SLP099 T1344 56014 FZRANO,PAGL,2019-01-12T20:56:00Z,64.55,-163.03,-34.4,,300,10,,10.0,29.828741,1009.9,,TRUE,TRUE,,,,TRUE,,,CLR,,,,,,,,VFR,-1.4,,,,,,,,,,,METAR,8.0
PAFM 122056Z AUTO 03012KT 10SM CLR M30/M34 A3011 RMK AO2 SLP213 T13001344 58001 FZRANO,PAFM,2019-01-12T20:56:00Z,67.1,-157.85,-30.0,-34.4,30,12,,10.0,30.109253,1021.3,,TRUE,TRUE,,,,TRUE,,,CLR,,,,,,,,VFR,-0.1,,,,,,,,,,,METAR,88.0
PAFE 122056Z AUTO 00000KT 10SM CLR 02/01 A2991 RMK AO2 SLP142 T00170011 50000 FZRANO,PAFE,2019-01-12T20:56:00Z,56.97,-133.92,1.7,1.1,0,0,,10.0,29.911417,1014.2,,TRUE,TRUE,,,,TRUE,,,CLR,,,,,,,,VFR,0.0,,,,,,,,,,,METAR,9.0
PADK 122056Z AUTO 05013KT 7SM -RA BKN018 OVC024 03/02 A2862 RMK AO2 UPE1957RAB08 SLP692 P0000 60000 T00330017 58015,PADK,2019-01-12T20:56:00Z,51.88,-176.65,3.3,1.7,50,13,,7.0,28.621063,969.2,,TRUE,TRUE,,,,,,-RA,BKN,1800,OVC,2400,,,,,MVFR,-1.5,,,,,0.005,0.005,,,,,METAR,4.0
KLPC 122056Z AUTO 15010G15KT 10SM CLR 16/09 A2999 RMK AO2 SLP159 T01560089 58013,KLPC,2019-01-12T20:56:00Z,34.67,-120.47,15.6,8.9,150,10,15,10.0,29.991142,1015.9,,TRUE,TRUE,,,,,,,CLR,,,,,,,,VFR,-1.3,,,,,,,,,,,METAR,27.0
KLRD 122056Z 34014KT 10SM CLR 23/08 A3009 RMK AO2 SLP202 T02280078 55017,KLRD,2019-01-12T20:56:00Z,27.55,-99.47,22.8,7.8,340,14,,10.0,30.088583,1020.2,,,TRUE,,,,,,,CLR,,,,,,,,VFR,-1.7,,,,,,,,,,,METAR,155.0
KM19 122056Z AUTO 00000KT 1 1/2SM -RA BR OVC002 07/07 A2991 RMK AO2 SLP136 P0001 60002 T00670067 56016,KM19,2019-01-12T20:56:00Z,35.65,-91.17,6.7,6.7,0,0,,1.5,29.911417,1013.6,,TRUE,TRUE,,,,,,-RA BR,OVC,200,,,,,,,LIFR,-1.6,,,,,0.01,0.02,,,,,METAR,73.0
KLZU 122056Z 08008G16KT 10SM OVC020 04/M02 A3022 RMK AO2 RAE24 SLP252 P0000 60000 T00391017 58018,KLZU,2019-01-12T20:56:00Z,33.98,-83.97,3.9,-1.7,80,8,16,10.0,30.221457,1025.2,,,TRUE,,,,,,,OVC,2000,,,,,,,MVFR,-1.8,,,,,0.005,0.005,,,,,METAR,323.0
KMJX 122056Z AUTO 35006KT 10SM SCT110 01/M15 A3050 RMK AO2 SLP335 T00061150 56005 FZRANO,KMJX,2019-01-12T20:56:00Z,39.93,-74.3,0.6,-15.0,350,6,,10.0,30.499016,1033.5,,TRUE,TRUE,,,,TRUE,,,SCT,11000,,,,,,,VFR,-0.5,,,,,,,,,,,METAR,25.0
KMNM 122056Z AUTO 08013KT 9SM -SN OVC021 M02/M06 A3049 RMK AO2 SNB50 SLP348 P0000 60000 T10221056 53002 FZRANO $,KMNM,2019-01-12T20:56:00Z,45.12,-87.62,-2.2,-5.6,80,13,,9.0,30.490158,1034.8,,TRUE,TRUE,TRUE,,,TRUE,,-SN,OVC,2100,,,,,,,MVFR,0.2,,,,,0.005,0.005,,,,,METAR,191.0
KMML 122056Z AUTO 01006KT 10SM FEW016 SCT055 OVC075 M02/M06 A3034 RMK AO2 SLP296 T10221056 55000 FZRANO,KMML,2019-01-12T20:56:00Z,44.45,-95.82,-2.2,-5.6,10,6,,10.0,30.339567,1029.6,,TRUE,TRUE,,,,TRUE,,,FEW,1600,SCT,5500,OVC,7500,,,VFR,0.0,,,,,,,,,,,METAR,359.0
KMKT 122056Z AUTO 05007KT 9SM OVC017 M01/M04 A3034 RMK AO2 SLP290 T10111044 53001 FZRANO,KMKT,2019-01-12T20:56:00Z,44.22,-93.92,-1.1,-4.4,50,7,,9.0,30.339567,1029.0,,TRUE,TRUE,,,,TRUE,,,OVC,1700,,,,,,,MVFR,0.1,,,,,,,,,,,METAR,311.0
KMRF 122056Z AUTO 23006KT 10SM CLR 13/M03 A3019 RMK AO2 SLP208 T01281028 56023,KMRF,2019-01-12T20:56:00Z,30.37,-104.02,12.8,-2.8,230,6,,10.0,30.188976,1020.8,,TRUE,TRUE,,,,,,,CLR,,,,,,,,VFR,-2.3,,,,,,,,,,,METAR,1481.0
KMQY 122056Z 12004KT 10SM -RA OVC055 07/04 A3008 RMK AO2 RAE1957B22 SLP165 P0001 60001 T00720039 56017,KMQY,2019-01-12T20:56:00Z,36.02,-86.52,7.2,3.9,120,4,,10.0,30.079725,1016.5,,,TRUE,,,,,,-RA,OVC,5500,,,,,,,VFR,-1.7,,,,,0.01,0.01,,,,,METAR,166.0
KMSV 122056Z AUTO 28005KT 10SM BKN090 M04/M12 A3041 RMK AO2 SLP325 T10441117 58004 FZRANO,KMSV,2019-01-12T20:56:00Z,41.7,-74.78,-4.4,-11.7,280,5,,10.0,30.410433,1032.5,,TRUE,TRUE,,,,TRUE,,,BKN,9000,,,,,,,VFR,-0.4,,,,,,,,,,,METAR,428.0
KMTW 122056Z AUTO 05010G14KT 10SM OVC021 M01/M05 A3043 RMK AO2 SLP328 T10061050 53001 FZRANO,KMTW,2019-01-12T20:56:00Z,44.12,-87.67,-0.6,-5.0,50,10,14,10.0,30.431103,1032.8,,TRUE,TRUE,,,,TRUE,,,OVC,2100,,,,,,,MVFR,0.1,,,,,,,,,,,METAR,198.0
KMVN 122056Z AUTO 05011KT 6SM -RA BR OVC040 02/01 A3004 RMK AO2 SLP176 P0002 60002 T00170006 56022 FZRANO,KMVN,2019-01-12T20:56:00Z,38.32,-88.87,1.7,0.6,50,11,,6.0,30.041338,1017.6,,TRUE,TRUE,,,,TRUE,,-RA BR,OVC,4000,,,,,,,VFR,-2.2,,,,,0.02,0.02,,,,,METAR,146.0
KDOV 122056Z AUTO 13003KT 10SM CLR 00/M12 A3050 RMK AO2 SLP332 T10041121 55007 $,KDOV,2019-01-12T20:56:00Z,39.12,-75.47,-0.4,-12.1,130,3,,10.0,30.499016,1033.2,,TRUE,TRUE,TRUE,,,,,,CLR,,,,,,,,VFR,-0.7,,,,,,,,,,,METAR,9.0
KDAA 122056Z AUTO 15004KT 10SM CLR 01/M07 A3050 RMK AO2 SLP332 60000 T00141069 58002 $,KDAA,2019-01-12T20:56:00Z,38.72,-77.17,1.4,-6.9,150,4,,10.0,30.499016,1033.2,,TRUE,TRUE,TRUE,,,,,,CLR,,,,,,,,VFR,-0.2,,,,,,0.005,,,,,METAR,21.0
MUGM 122056Z 11014KT 9999 SCT040 SCT070 28/21 A3003 RMK SLP170 T02820211,MUGM,2019-01-12T20:56:00Z,19.9,-75.2,28.2,21.1,110,14,,6.21,30.029528,1017.0,,,,,,,,,,SCT,4000,SCT,7000,,,,,VFR,,,,,,,,,,,,METAR,17.0
PADL 122056Z 36016KT 7SM -SN FEW018 BKN050 OVC065 M12/M14 A2943 RMK AO2 SLP971 P0000 60000 T11221144 58015,PADL,2019-01-12T20:56:00Z,59.05,-158.5,-12.2,-14.4,360,16,,7.0,29.430119,997.1,,,TRUE,,,,,,-SN,FEW,1800,BKN,5000,OVC,6500,,,VFR,-1.5,,,,,0.005,0.005,,,,,METAR,26.0
PADU 122056Z 12012G18KT 6SM -RA BKN018 OVC023 04/01 A2886 RMK AO2 SLP777 P0001 60001 T00390011 58022,PADU,2019-01-12T20:56:00Z,53.9,-166.53,3.9,1.1,120,12,18,6.0,28.860237,977.7,,,TRUE,,,,,,-RA,BKN,1800,OVC,2300,,,,,MVFR,-2.2,,,,,0.01,0.01,,,,,METAR,4.0
PAEM 122056Z AUTO 04013KT 10SM CLR M26/M28 A2970 RMK AO2 SNB27E36 SLP118 P0000 60000 T12611283 58019 FZRANO,PAEM,2019-01-12T20:56:00Z,62.78,-164.48,-26.1,-28.3,40,13,,10.0,29.698818,1011.8,,TRUE,TRUE,,,,TRUE,,,CLR,,,,,,,,VFR,-1.9,,,,,0.005,0.005,,,,,METAR,3.0
PAGA 122056Z AUTO 00000KT 1 1/4SM BR CLR M46/ A3000 RMK AO2 SLP170 T1461 58010 FZRANO,PAGA,2019-01-12T20:56:00Z,64.73,-156.93,-46.1,,0,0,,1.25,30.0,1017.0,,TRUE,TRUE,,,,TRUE,,BR,CLR,,,,,,,,IFR,-1.0,,,,,,,,,,,METAR,46.0
PAGS 122056Z AUTO 32005KT 10SM OVC011 01/01 A2993 RMK AO2 SLPNO T00110006 50005 FZRANO,PAGS,2019-01-12T20:56:00Z,58.42,-135.73,1.1,0.6,320,5,,10.0,29.929134,,,TRUE,TRUE,,,,TRUE,,,OVC,1100,,,,,,,MVFR,0.5,,,,,,,,,,,METAR,9.0
PAHY 122056Z AUTO VRB03KT 10SM -RA OVC029 03/02 A2981 RMK AO2 RAB30 SLP195 P0000 60000 T00280022 58013 $,PAHY,2019-01-12T20:56:00Z,55.2,-132.83,2.8,2.2,0,3,,10.0,29.811024,1019.5,,TRUE,TRUE,TRUE,,,,,-RA,OVC,2900,,,,,,,MVFR,-1.3,,,,,0.005,0.005,,,,,METAR,1.0
PAHL 122056Z AUTO 06011KT 10SM CLR M29/M32 A3000 RMK AO2 SLP172 T12941322 58008 FZRANO,PAHL,2019-01-12T20:56:00Z,65.7,-156.35,-29.4,-32.2,60,11,,10.0,30.0,1017.2,,TRUE,TRUE,,,,TRUE,,,CLR,,,,,,,,VFR,-0.8,,,,,,,,,,,METAR,65.0
PAIG 122056Z AUTO 06024G31KT 10SM OVC110 M04/M07 A2945 RMK AO2 PK WND 06033/2045 SLP983 T10391067 58019 FZRANO $,PAIG,2019-01-12T20:56:00Z,59.32,-155.9,-3.9,-6.7,60,24,31,10.0,29.450787,998.3,,TRUE,TRUE,TRUE,,,TRUE,,,OVC,11000,,,,,,,VFR,-1.9,,,,,,,,,,,METAR,28.0
PAIK 122056Z AUTO VRB03KT 10SM CLR M35/ A3009 RMK AO2 SLP202 T1350 58004 FZRANO,PAIK,2019-01-12T20:56:00Z,66.98,-160.43,-35.0,,0,3,,10.0,30.088583,1020.2,,TRUE,TRUE,,,,TRUE,,,CLR,,,,,,,,VFR,-0.4,,,,,,,,,,,METAR,51.0
PAIN 122056Z AUTO 00000KT 10SM OVC034 M27/M29 A2975 RMK AO2 SLP167 T12671294 58009 FZRANO,PAIN,2019-01-12T20:56:00Z,63.73,-148.92,-26.7,-29.4,0,0,,10.0,29.749016,1016.7,,TRUE,TRUE,,,,TRUE,,,OVC,3400,,,,,,,VFR,-0.9,,,,,,,,,,,METAR,524.0
PAJZ 122056Z AUTO 31005KT 2SM -SN SCT010 BKN022 OVC050 M19/M22 A2956 RMK AO2 SLP018 P0000 60000 T11891217 58011 FZRANO $,PAJZ,2019-01-12T20:56:00Z,59.73,-157.27,-18.9,-21.7,310,5,,2.0,29.56004,1001.8,,TRUE,TRUE,TRUE,,,TRUE,,-SN,SCT,1000,BKN,2200,OVC,5000,,,IFR,-1.1,,,,,0.005,0.005,,,,,METAR,82.0
PAKF 122056Z AUTO 12014KT 10SM FEW023 OVC033 04/02 A2899 RMK AO2 SLP817 60000 T00390017 58018,PAKF,2019-01-12T20:56:00Z,54.85,-163.42,3.9,1.7,120,14,,10.0,28.990158,981.7,,TRUE,TRUE,,,,,,,FEW,2300,OVC,3300,,,,,VFR,-1.8,,,,,,0.005,,,,,METAR,6.0
PAKH 122056Z AUTO 07017G24KT 7SM -RA BKN016 OVC024 03/02 A2932 RMK AO2 SLP931 P0007 60009 T00330022 58012 $,PAKH,2019-01-12T20:56:00Z,56.93,-154.18,3.3,2.2,70,17,24,7.0,29.320866,993.1,,TRUE,TRUE,TRUE,,,,,-RA,BKN,1600,OVC,2400,,,,,MVFR,-1.2,,,,,0.07,0.09,,,,,METAR,14.0
PALG 122056Z AUTO 07009G18KT 030V110 10SM OVC075 M21/M24 A2958 RMK AO2 SNE01 SLP023 P0000 60000 T12111244 58015 FZRANO,PALG,2019-01-12T20:56:00Z,61.53,-160.33,-21.1,-24.4,70,9,18,10.0,29.58071,1002.3,,TRUE,TRUE,,,,TRUE,,,OVC,7500,,,,,,,VFR,-1.5,,,,,0.005,0.005,,,,,METAR,17.0
PAMH 122056Z AUTO VRB04KT 10SM OVC070 M26/M29 A2988 RMK AO2 SLP873 60000 T12561289 58006 FZRANO,PAMH,2019-01-12T20:56:00Z,63.9,-152.32,-25.6,-28.9,0,4,,10.0,29.878937,987.3,,TRUE,TRUE,,,,TRUE,,,OVC,7000,,,,,,,VFR,-0.6,,,,,,0.005,,,,,METAR,214.0
KISO 122056Z 05005KT 10SM OVC040 06/M04 A3043,KISO,2019-01-12T20:56:00Z,35.32,-77.62,6.0,-4.0,50,5,,10.0,30.431103,,,,,,,,,,,OVC,4000,,,,,,,VFR,,,,,,,,,,,,METAR,29.0
K2WX 122056Z AUTO 18006KT M01/M04 A3015 RMK AO1 SLP249 T10111039 56017,K2WX,2019-01-12T20:56:00Z,45.6,-103.55,-1.1,-3.9,180,6,,,30.15059,1024.9,,TRUE,TRUE,,,,,,,,,,,,,,,,-1.7,,,,,,,,,,,SPECI,915.0
KCVN 122056Z AUTO 35012G19KT 10SM SCT039 09/M02 A3019 RMK AO2 SLP229 T00891017 56019,KCVN,2019-01-12T20:56:00Z,34.42,-103.07,8.9,-1.7,350,12,19,10.0,30.188976,1022.9,,TRUE,TRUE,,,,,,,SCT,3900,,,,,,,VFR,-1.9,,,,,,,,,,,METAR,1284.0
KCWI 122056Z AUTO 07013KT 3/4SM -SN BR OVC006 M01/M01 A3024 RMK AO2 CIG 004V009 SLP270 P0000 60001 T10061011 55009 FZRANO,KCWI,2019-01-12T20:56:00Z,41.82,-90.32,-0.6,-1.1,70,13,,0.75,30.239174,1027.0,,TRUE,TRUE,,,,TRUE,,-SN BR,OVC,600,,,,,,,LIFR,-0.9,,,,,0.005,0.01,,,,,METAR,216.0
KOKK 122056Z AUTO 08012KT 1SM -SN BR SCT007 OVC013 M02/M03 A3024 RMK AO2 SLP253 P0000 60002 T10221028 56003 FZRANO,KOKK,2019-01-12T20:56:00Z,40.53,-86.07,-2.2,-2.8,80,12,,1.0,30.239174,1025.3,,TRUE,TRUE,,,,TRUE,,-SN BR,SCT,700,OVC,1300,,,,,IFR,-0.3,,,,,0.005,0.02,,,,,METAR,253.0
KOCH 122056Z AUTO 29014G19KT 10SM CLR 14/04 A3003 RMK AO2 SLP174 T01440039 53002,KOCH,2019-01-12T20:56:00Z,31.57,-94.72,14.4,3.9,290,14,19,10.0,30.029528,1017.4,,TRUE,TRUE,,,,,,,CLR,,,,,,,,VFR,0.2,,,,,,,,,,,METAR,108.0
KOAJ 122056Z 02006KT 10SM SCT034 OVC070 06/M02 A3042 RMK AO2 SLP308 T00611022 51000,KOAJ,2019-01-12T20:56:00Z,34.82,-77.62,6.1,-2.2,20,6,,10.0,30.41929,1030.8,,,TRUE,,,,,,,SCT,3400,OVC,7000,,,,,VFR,0.0,,,,,,,,,,,METAR,29.0
KMYR 122056Z 01006KT 10SM SCT080 11/01 A3036 RMK AO2 SLP280 T01060006 56011,KMYR,2019-01-12T20:56:00Z,33.67,-78.92,10.6,0.6,10,6,,10.0,30.360237,1028.0,,,TRUE,,,,,,,SCT,8000,,,,,,,VFR,-1.1,,,,,,,,,,,METAR,8.0
KFLP 122056Z AUTO 00000KT 5SM -RA BR BKN003 OVC008 04/03 A2993 RMK AO2 RAE26B43 SLP137 P0000 60006 T00390033 55006,KFLP,2019-01-12T20:56:00Z,36.28,-92.58,3.9,3.3,0,0,,5.0,29.929134,1013.7,,TRUE,TRUE,,,,,,-RA BR,BKN,300,OVC,800,,,,,LIFR,-0.6,,,,,0.005,0.06,,,,,METAR,219.0
KOLU 122056Z AUTO 34013KT 3SM -SN BR OVC010 M03/M04 A3026 RMK AO2 SNB28 SLP267 P0000 60000 T10281044 51002 FZRANO,KOLU,2019-01-12T20:56:00Z,41.45,-97.32,-2.8,-4.4,340,13,,3.0,30.259842,1026.7,,TRUE,TRUE,,,,TRUE,,-SN BR,OVC,1000,,,,,,,MVFR,0.2,,,,,0.005,0.005,,,,,METAR,440.0
KDYR 122056Z AUTO 14007KT 10SM -RA BKN008 OVC012 07/07 A2995 RMK AO2 CIG 005V009 SLP157 6//// T00720067 55027 PNO $,KDYR,2019-01-12T20:56:00Z,36.0,-89.4,7.2,6.7,140,7,,10.0,29.949802,1015.7,,TRUE,TRUE,TRUE,,,,,-RA,BKN,800,OVC,1200,,,,,IFR,-2.7,,,,,,,,,,,METAR,103.0
KDWU 122056Z AUTO 11005KT 10SM BKN070 BKN090 OVC110 01/M02 A3026 RMK AO2 RAB17E46 SLP252 6//// T00061017 58026 FZRANO PNO $,KDWU,2019-01-12T20:56:00Z,38.55,-82.73,0.6,-1.7,110,5,,10.0,30.259842,1025.2,,TRUE,TRUE,TRUE,,,TRUE,,,BKN,7000,BKN,9000,OVC,11000,,,VFR,-2.6,,,,,,,,,,,METAR,166.0
KDIJ 122056Z AUTO 00000KT 10SM CLR M06/M09 A3020 RMK AO2 SLP306 T10561089 56014,KDIJ,2019-01-12T20:56:00Z,43.75,-111.1,-5.6,-8.9,0,0,,10.0,30.200787,1030.6,,TRUE,TRUE,,,,,,,CLR,,,,,,,,VFR,-1.4,,,,,,,,,,,METAR,1899.0
KEEN 122056Z AUTO 30007G16KT 10SM CLR M06/M18 A3045 RMK AO2 SLP334 60000 T10611178 51005 FZRANO $,KEEN,2019-01-12T20:56:00Z,42.88,-72.27,-6.1,-17.8,300,7,16,10.0,30.448818,1033.4,,TRUE,TRUE,TRUE,,,TRUE,,,CLR,,,,,,,,VFR,0.5,,,,,,0.005,,,,,METAR,149.0
KOWB 122056Z 09007KT 10SM -RA OVC040 04/03 A3008 RMK AO2 SLP199 P0001 60001 T00440028 58013,KOWB,2019-01-12T20:56:00Z,37.72,-87.17,4.4,2.8,90,7,,10.0,30.079725,1019.9,,,TRUE,,,,,,-RA,OVC,4000,,,,,,,VFR,-1.3,,,,,0.01,0.01,,,,,METAR,124.0
KOTH 122056Z VRB04KT 10SM CLR 16/08 A2994 RMK AO2 SLP137 T01560078 58016,KOTH,2019-01-12T20:56:00Z,43.42,-124.25,15.6,7.8,0,4,,10.0,29.940945,1013.7,,,TRUE,,,,,,,CLR,,,,,,,,VFR,-1.6,,,,,,,,,,,METAR,4.0
KOTG 122056Z AUTO 02009KT 8SM FEW008 OVC026 M03/M06 A3029 RMK AO2 SLP287 T10331056 53002 FZRANO,KOTG,2019-01-12T20:56:00Z,43.63,-95.57,-3.3,-5.6,20,9,,8.0,30.28937,1028.7,,TRUE,TRUE,,,,TRUE,,,FEW,800,OVC,2600,,,,,MVFR,0.2,,,,,,,,,,,METAR,480.0
KPRX 122056Z AUTO 30017G24KT 10SM OVC018 06/03 A3005 RMK AO2 SLP191 T00610028 53018,KPRX,2019-01-12T20:56:00Z,33.62,-95.45,6.1,2.8,300,17,24,10.0,30.050198,1019.1,,TRUE,TRUE,,,,,,,OVC,1800,,,,,,,MVFR,1.8,,,,,,,,,,,METAR,167.0
KPQI 122056Z AUTO 28008KT 10SM OVC029 M13/M18 A3024 RMK AO2 SLP288 T11331178 53024 FZRANO,KPQI,2019-01-12T20:56:00Z,46.67,-68.03,-13.3,-17.8,280,8,,10.0,30.239174,1028.8,,TRUE,TRUE,,,,TRUE,,,OVC,2900,,,,,,,MVFR,2.4,,,,,,,,,,,METAR,146.0
PAMK 122056Z AUTO 07011KT 10SM CLR M28/M31 A2973 RMK AO2 SLP072 T12781306 58019 FZRANO,PAMK,2019-01-12T20:56:00Z,63.48,-162.12,-27.8,-30.6,70,11,,10.0,29.731298,1007.2,,TRUE,TRUE,,,,TRUE,,,CLR,,,,,,,,VFR,-1.9,,,,,,,,,,,METAR,28.0
PAMM 122056Z AUTO 09011G19KT 10SM -RA OVC024 07/04 A2985 RMK AO2 SLP099 P0003 60004 T00670039 58008,PAMM,2019-01-12T20:56:00Z,55.13,-131.58,6.7,3.9,90,11,19,10.0,29.84941,1009.9,,TRUE,TRUE,,,,,,-RA,OVC,2400,,,,,,,MVFR,-0.8,,,,,0.03,0.04,,,,,METAR,1.0
PAMY 122056Z AUTO 04020KT 4SM HZ CLR M23/M26 A2953 RMK AO2 PK WND 04026/2033 SNB1959E13 SLP002 P0000 60000 T12331261 56020 FZRANO $,PAMY,2019-01-12T20:56:00Z,60.37,-166.27,-23.3,-26.1,40,20,,4.0,29.530512,1000.2,,TRUE,TRUE,TRUE,,,TRUE,,HZ,CLR,,,,,,,,MVFR,-2.0,,,,,0.005,0.005,,,,,METAR,13.0
PANW 122056Z AUTO 36017KT 2SM -SN BR BKN002 M21/M23 A2948 RMK AO2 SLP000 P0000 60000 T12061228 58012 FZRANO,PANW,2019-01-12T20:56:00Z,59.45,-157.37,-20.6,-22.8,360,17,,2.0,29.480314,1000.0,,TRUE,TRUE,,,,TRUE,,-SN BR,BKN,200,,,,,,,LIFR,-1.2,,,,,0.005,0.005,,,,,METAR,92.0
PAOU 122056Z AUTO 07009KT 4SM BR FEW032 BKN045 01/00 A2908 RMK AO2 SLP846 T00110000 58010 FZRANO,PAOU,2019-01-12T20:56:00Z,56.0,-161.17,1.1,0.0,70,9,,4.0,29.078741,984.6,,TRUE,TRUE,,,,TRUE,,BR,FEW,3200,BKN,4500,,,,,MVFR,-1.0,,,,,,,,,,,METAR,4.0
PAPG 122056Z 00000KT 10SM CLR M01/M01 A2991 RMK AO2 SLP132 T10061011 56005,PAPG,2019-01-12T20:56:00Z,56.82,-132.97,-0.6,-1.1,0,0,,10.0,29.911417,1013.2,,,TRUE,,,,,,,CLR,,,,,,,,VFR,-0.5,,,,,,,,,,,METAR,15.0
PAPH 122056Z AUTO 10030G34KT 10SM CLR 04/M01 A2913 RMK AO2 PK WND 11038/2031 SLP868 T00391006 58030,PAPH,2019-01-12T20:56:00Z,56.95,-158.62,3.9,-0.6,100,30,34,10.0,29.128937,986.8,,TRUE,TRUE,,,,,,,CLR,,,,,,,,VFR,-3.0,,,,,,,,,,,METAR,29.0
PAPO 122056Z AUTO 08012KT 10SM CLR M28/M31 A3015 RMK AO2 SLP208 T12831311 58003 FZRANO,PAPO,2019-01-12T20:56:00Z,68.35,-166.8,-28.3,-31.1,80,12,,10.0,30.15059,1020.8,,TRUE,TRUE,,,,TRUE,,,CLR,,,,,,,,VFR,-0.3,,,,,,,,,,,METAR,6.0
PARC 122056Z AUTO 4SM HZ CLR A3001 RMK AO2 SLPNO 52019 FZRANO $,PARC,2019-01-12T20:56:00Z,68.12,-145.58,,,,,,4.0,30.008858,,,TRUE,TRUE,TRUE,,,TRUE,,HZ,CLR,,,,,,,,MVFR,1.9,,,,,,,,,,,METAR,636.0
PARY 122056Z AUTO 07012G21KT 10SM FEW120 M31/M35 A2987 RMK AO2 SLP153 T13061350 58010 FZRANO,PARY,2019-01-12T20:56:00Z,64.73,-155.47,-30.6,-35.0,70,12,21,10.0,29.870079,1015.3,,TRUE,TRUE,,,,TRUE,,,FEW,12000,,,,,,,VFR,-1.0,,,,,,,,,,,METAR,199.0
PASA 122056Z AUTO 03005KT 9SM -SN CLR M26/M29 A2992 RMK AO2 SNE12B31 SLP135 P0000 60000 T12611289 58010 FZRANO $,PASA,2019-01-12T20:56:00Z,63.68,-170.5,-26.1,-28.9,30,5,,9.0,29.920275,1013.5,,TRUE,TRUE,TRUE,,,TRUE,,-SN,CLR,,,,,,,,VFR,-1.0,,,,,0.005,0.005,,,,,METAR,16.0
PASD 122056Z 04008KT 010V090 9SM -RA FEW018 BKN022 BKN032 04/02 A2905 RMK AO2 RAB22 SLP839 6//// T00390017 58015 PNO $,PASD,2019-01-12T20:56:00Z,55.33,-160.5,3.9,1.7,40,8,,9.0,29.049213,983.9,,,TRUE,TRUE,,,,,-RA,FEW,1800,BKN,2200,BKN,3200,,,MVFR,-1.5,,,,,,,,,,,METAR,7.0
PASH 122056Z AUTO 05008KT 10SM CLR M32/M36 A3005 RMK AO2 SLP177 60000 T13221356 58001 FZRANO,PASH,2019-01-12T20:56:00Z,66.27,-166.08,-32.2,-35.6,50,8,,10.0,30.050198,1017.7,,TRUE,TRUE,,,,TRUE,,,CLR,,,,,,,,VFR,-0.1,,,,,,0.005,,,,,METAR,2.0
PASK 122056Z AUTO 09005KT 10SM CLR M39/ A3009 RMK AO2 SNB03E17 SLP186 P0000 6//// T1394 FZRANO $,PASK,2019-01-12T20:56:00Z,66.6,-160.0,-39.4,,90,5,,10.0,30.088583,1018.6,,TRUE,TRUE,TRUE,,,TRUE,,,CLR,,,,,,,,VFR,,,,,,0.005,,,,,,METAR,8.0
PASX 122056Z AUTO 08007KT 10SM CLR M16/M18 A2980 RMK AO2 SLP103 T11561178 58010 FZRANO,PASX,2019-01-12T20:56:00Z,60.48,-151.03,-15.6,-17.8,80,7,,10.0,29.799213,1010.3,,TRUE,TRUE,,,,TRUE,,,CLR,,,,,,,,VFR,-1.0,,,,,,,,,,,METAR,32.0
PAUN 122056Z AUTO 08025G28KT 8SM CLR M26/M30 A2980 RMK AO2 PK WND 08030/1958 SLP097 T12561300 56019 FZRANO,PAUN,2019-01-12T20:56:00Z,63.88,-160.8,-25.6,-30.0,80,25,28,8.0,29.799213,1009.7,,TRUE,TRUE,,,,TRUE,,,CLR,,,,,,,,VFR,-1.9,,,,,,,,,,,METAR,6.0
PAVA 122056Z AUTO 04015KT 10SM CLR M28/M31 A2962 RMK AO2 SLP125 6//// T12831311 56020 FZRANO PNO $,PAVA,2019-01-12T20:56:00Z,61.53,-165.6,-28.3,-31.1,40,15,,10.0,29.619095,1012.5,,TRUE,TRUE,TRUE,,,TRUE,,,CLR,,,,,,,,VFR,-2.0,,,,,,,,,,,METAR,23.0
PAVC 122056Z AUTO 04016G21KT 10SM -RA BKN016 OVC021 03/02 A2902 RMK AO2 UPB17E35RAB35 SLP832 P0002 60004 T00280017 58012,PAVC,2019-01-12T20:56:00Z,55.12,-162.27,2.8,1.7,40,16,21,10.0,29.019686,983.2,,TRUE,TRUE,,,,,,-RA,BKN,1600,OVC,2100,,,,,MVFR,-1.2,,,,,0.02,0.04,,,,,METAR,47.0
KNUW 122056Z VRB04KT 10SM FEW090 SCT130 SCT250 11/06 A3003 RMK AO2 SLP169 T01060056 50000 $,KNUW,2019-01-12T20:56:00Z,48.35,-122.65,10.6,5.6,0,4,,10.0,30.029528,1016.9,,,TRUE,TRUE,,,,,,FEW,9000,SCT,13000,SCT,25000,,,VFR,0.0,,,,,,,,,,,METAR,14.0
ROTM 122056Z AUTO 36007KT 10SM OVC041 18/14 A3010 RMK AO2 SLP180 T01830139 53001 $,ROTM,2019-01-12T20:56:00Z,26.27,127.75,18.3,13.9,360,7,,10.0,30.100393,1018.0,,TRUE,TRUE,TRUE,,,,,,OVC,4100,,,,,,,VFR,0.1,,,,,,,,,,,METAR,75.0
KNOG 122056Z AUTO 35016KT 10SM CLR 24/08 A3007 RMK AO2 SLP163 T02390078 55016 $,KNOG,2019-01-12T20:56:00Z,27.9,-98.05,23.9,7.8,350,16,,10.0,30.070866,1016.3,,TRUE,TRUE,TRUE,,,,,,CLR,,,,,,,,VFR,-1.6,,,,,,,,,,,METAR,78.0
PHBK 122056Z AUTO 32006KT 8SM FEW005 SCT050 26/18 A3004 RMK AO2 SLP173 T02610178 50004,PHBK,2019-01-12T20:56:00Z,22.03,-159.78,26.1,17.8,320,6,,8.0,30.041338,1017.3,,TRUE,TRUE,,,,,,,FEW,500,SCT,5000,,,,,VFR,0.4,,,,,,,,,,,METAR,8.0
KRCA 122056Z 17006KT 4SM OVC002 M02/M02 A3018 RMK AO2A SLP263 T10201020 56018 $,KRCA,2019-01-12T20:56:00Z,44.13,-103.08,-2.0,-2.0,170,6,,4.0,30.180119,1026.3,,,TRUE,TRUE,,,,,,OVC,200,,,,,,,LIFR,-1.8,,,,,,,,,,,SPECI,999.0
PMDY 122056Z AUTO 30004KT FEW019 OVC065 21/17 A2983 RMK AO2 SLP100 P0001 60003 T02060172 53017 PWINO $,PMDY,2019-01-12T20:56:00Z,28.22,-177.37,20.6,17.2,300,4,,,29.828741,1010.0,,TRUE,TRUE,TRUE,,,,TRUE,,FEW,1900,OVC,6500,,,,,,1.7,,,,,0.01,0.03,,,,,METAR,4.0
PHNY 122056Z AUTO 11012KT 10SM OVC015 22/18 A3009 RMK AO2 SLP171 T02170178 50001,PHNY,2019-01-12T20:56:00Z,20.77,-156.93,21.7,17.8,110,12,,10.0,30.088583,1017.1,,TRUE,TRUE,,,,,,,OVC,1500,,,,,,,MVFR,0.1,,,,,,,,,,,METAR,399.0
PAVD 122056Z 00000KT 10SM FEW090 BKN150 BKN250 M12/M14 A2989 RMK AO2 SLP149 T11171144 51024,PAVD,2019-01-12T20:56:00Z,61.13,-146.25,-11.7,-14.4,0,0,,10.0,29.890747,1014.9,,,TRUE,,,,,,,FEW,9000,BKN,15000,BKN,25000,,,VFR,2.4,,,,,,,,,,,METAR,37.0
KAQV 122056Z AUTO 26007KT 220V300 10SM FEW036 18/10 A2995 RMK AO2 SLP140 T01830100 55007,KAQV,2019-01-12T20:56:00Z,31.4,-93.3,18.3,10.0,260,7,,10.0,29.949802,1014.0,,TRUE,TRUE,,,,,,,FEW,3600,,,,,,,VFR,-0.7,,,,,,,,,,,METAR,111.0
KEGE 122056Z 28003KT 10SM CLR 00/M06 A3016 RMK AO2 SLP253 T00001061 56024 FZRANO,KEGE,2019-01-12T20:56:00Z,39.63,-106.92,0.0,-6.1,280,3,,10.0,30.159449,1025.3,,,TRUE,,,,TRUE,,,CLR,,,,,,,,VFR,-2.4,,,,,,,,,,,METAR,1993.0
KY70 122056Z AUTO 07012G17KT 10SM BKN028 OVC050 M01/M09 A3038 RMK AO2 T10131092,KY70,2019-01-12T20:56:00Z,42.93,-85.07,-1.3,-9.2,70,12,17,10.0,30.380905,,,TRUE,TRUE,,,,,,,BKN,2800,OVC,5000,,,,,MVFR,,,,,,,,,,,,SPECI,250.0
KVWU 122056Z AUTO 11007KT 10SM OVC005 M05/M06 A3042 RMK AO2,KVWU,2019-01-12T20:56:00Z,48.15,-94.52,-5.0,-6.0,110,7,,10.0,30.41929,,,TRUE,TRUE,,,,,,,OVC,500,,,,,,,IFR,,,,,,,,,,,,SPECI,360.0
KRQB 122056Z AUTO 09008KT 10SM BKN026 OVC060 M01/M06 A3040 RMK AO2 T10151065,KRQB,2019-01-12T20:56:00Z,43.72,-85.5,-1.5,-6.5,90,8,,10.0,30.398623,,,TRUE,TRUE,,,,,,,BKN,2600,OVC,6000,,,,,MVFR,,,,,,,,,,,,SPECI,302.0
KRGK 122056Z AUTO 11005KT 7SM SCT025 BKN055 OVC070 01/M07 A3036 RMK AO2,KRGK,2019-01-12T20:56:00Z,44.58,-92.48,1.0,-7.0,110,5,,7.0,30.360237,,,TRUE,TRUE,,,,,,,SCT,2500,BKN,5500,OVC,7000,,,VFR,,,,,,,,,,,,SPECI,239.0
KFGN 122056Z AUTO 15008KT 10SM OVC014 M06/M08 A3041 RMK AO2,KFGN,2019-01-12T20:56:00Z,49.32,-94.9,-6.0,-8.0,150,8,,10.0,30.410433,,,TRUE,TRUE,,,,,,,OVC,1400,,,,,,,MVFR,,,,,,,,,,,,SPECI,328.0
KFFM 122056Z AUTO 15003KT 10SM OVC033 M02/M07 A3036 RMK AO2,KFFM,2019-01-12T20:56:00Z,46.28,-96.15,-2.0,-7.0,150,3,,10.0,30.360237,,,TRUE,TRUE,,,,,,,OVC,3300,,,,,,,VFR,,,,,,,,,,,,SPECI,361.0
KDXX 122056Z AUTO 00000KT 10SM CLR M02/M06 A3035 RMK AO2,KDXX,2019-01-12T20:56:00Z,44.98,-96.18,-2.0,-6.0,0,0,,10.0,30.351377,,,TRUE,TRUE,,,,,,,CLR,,,,,,,,VFR,,,,,,,,,,,,SPECI,330.0
KDTL 122056Z AUTO 13005KT 10SM SCT027 SCT035 M01/M05 A3037 RMK AO2,KDTL,2019-01-12T20:56:00Z,46.82,-95.87,-1.0,-5.0,130,5,,10.0,30.369095,,,TRUE,TRUE,,,,,,,SCT,2700,SCT,3500,,,,,VFR,,,,,,,,,,,,SPECI,426.0
KCOQ 122056Z AUTO 09007KT 10SM SCT015 OVC033 M03/M06 A3040 RMK AO2,KCOQ,2019-01-12T20:56:00Z,46.7,-92.5,-3.0,-6.0,90,7,,10.0,30.398623,,,TRUE,TRUE,,,,,,,SCT,1500,OVC,3300,,,,,VFR,,,,,,,,,,,,SPECI,390.0
KCNB 122056Z AUTO 36006KT 10SM CLR M01/M04 A3036 RMK AO2 T10101044,KCNB,2019-01-12T20:56:00Z,44.73,-96.27,-1.0,-4.4,360,6,,10.0,30.360237,,,TRUE,TRUE,,,,,,,CLR,,,,,,,,VFR,,,,,,,,,,,,SPECI,364.0
KAIT 122056Z AUTO 08005KT 10SM OVC050 M03/M07 A3037 RMK AO2,KAIT,2019-01-12T20:56:00Z,46.53,-93.67,-3.0,-7.0,80,5,,10.0,30.369095,,,TRUE,TRUE,,,,,,,OVC,5000,,,,,,,VFR,,,,,,,,,,,,SPECI,367.0
KACQ 122056Z AUTO 06008KT 10SM SCT018 BKN060 OVC070 00/M04 A3033 RMK AO2,KACQ,2019-01-12T20:56:00Z,44.07,-93.55,0.0,-4.0,60,8,,10.0,30.33071,,,TRUE,TRUE,,,,,,,SCT,1800,BKN,6000,OVC,7000,,,VFR,,,,,,,,,,,,METAR,343.0
KONA 122056Z AUTO 11005KT 10SM SCT023 OVC055 01/M03 A3037 RMK AO2,KONA,2019-01-12T20:56:00Z,44.07,-91.7,1.0,-3.0,110,5,,10.0,30.369095,,,TRUE,TRUE,,,,,,,SCT,2300,OVC,5500,,,,,VFR,,,,,,,,,,,,SPECI,200.0
KMZH 122056Z AUTO 10004KT 10SM OVC055 M01/M06 A3038 RMK AO2,KMZH,2019-01-12T20:56:00Z,46.42,-92.8,-1.0,-6.0,100,4,,10.0,30.380905,,,TRUE,TRUE,,,,,,,OVC,5500,,,,,,,VFR,,,,,,,,,,,,SPECI,328.0
KMJQ 122056Z AUTO 03007KT 5SM BR OVC006 M02/M04 A3029 RMK AO2,KMJQ,2019-01-12T20:56:00Z,43.63,-94.97,-2.0,-4.0,30,7,,5.0,30.28937,,,TRUE,TRUE,,,,,,BR,OVC,600,,,,,,,IFR,,,,,,,,,,,,SPECI,441.0
KLJF 122056Z AUTO 08008KT 7SM BKN042 M02/M04 A3035 RMK AO2,KLJF,2019-01-12T20:56:00Z,45.1,-94.52,-2.0,-4.0,80,8,,7.0,30.351377,,,TRUE,TRUE,,,,,,,BKN,4200,,,,,,,VFR,,,,,,,,,,,,METAR,348.0
KISQ 122056Z AUTO 04005KT 10SM CLR M06/M14 A3053 RMK AO2 T10581136,KISQ,2019-01-12T20:56:00Z,45.97,-86.17,-5.8,-13.6,40,5,,10.0,30.528543,,,TRUE,TRUE,,,,,,,CLR,,,,,,,,VFR,,,,,,,,,,,,METAR,209.0
KHYX 122056Z AUTO 07013KT 10SM OVC060 M01/M06 A3044 RMK AO2,KHYX,2019-01-12T20:56:00Z,43.43,-83.87,-1.0,-6.0,70,13,,10.0,30.43996,,,TRUE,TRUE,,,,,,,OVC,6000,,,,,,,VFR,,,,,,,,,,,,METAR,183.0
KNDZ 122056Z AUTO 17007KT 10SM BKN040 BKN055 OVC120 19/15 A3006 RMK AO2 SLP169 T01890150 56017 $,KNDZ,2019-01-12T20:56:00Z,30.7,-87.02,18.9,15.0,170,7,,10.0,30.059055,1016.9,,TRUE,TRUE,TRUE,,,,,,BKN,4000,BKN,5500,OVC,12000,,,VFR,-1.7,,,,,,,,,,,METAR,54.0
KRYM 122056Z AUTO 10006KT 10SM OVC046 M02/M07 A3038 RMK AO2 SLP310 T10181066 55001 $,KRYM,2019-01-12T20:56:00Z,46.08,-94.37,-1.8,-6.6,100,6,,10.0,30.380905,1031.0,,TRUE,TRUE,TRUE,,,,,,OVC,4600,,,,,,,VFR,-0.1,,,,,,,,,,,METAR,351.0
RODN 122056Z 36007KT 10SM OVC044 19/13 A3001 RMK AO2A SLPNO T01880128 $,RODN,2019-01-12T20:56:00Z,26.35,127.77,18.8,12.8,360,7,,10.0,30.008858,,,,TRUE,TRUE,,,,,,OVC,4400,,,,,,,VFR,,,,,,,,,,,,METAR,45.0
KWRI 122056Z AUTO 28003KT 10SM BKN110 00/M14 A3047 RMK AO2 SLP320 T10021138 $,KWRI,2019-01-12T20:56:00Z,40.02,-74.58,-0.2,-13.8,280,3,,10.0,30.469488,1032.0,,TRUE,TRUE,TRUE,,,,,,BKN,11000,,,,,,,VFR,,,,,,,,,,,,SPECI,41.0
KRDR 122056Z AUTO 00000KT 10SM OVC005 M06/M07 A3040 RMK AO2 SLP318 T10631068 55007 $,KRDR,2019-01-12T20:56:00Z,47.97,-97.4,-6.3,-6.8,0,0,,10.0,30.398623,1031.8,,TRUE,TRUE,TRUE,,,,,,OVC,500,,,,,,,IFR,-0.7,,,,,,,,,,,METAR,278.0
KPSM 122056Z 27015G19KT 10SM FEW250 M06/M19 A3040 RMK AO2A SLP299 T10631193 50009,KPSM,2019-01-12T20:56:00Z,43.07,-70.82,-6.3,-19.3,270,15,19,10.0,30.398623,1029.9,,,TRUE,,,,,,,FEW,25000,,,,,,,VFR,0.9,,,,,,,,,,,METAR,31.0
KOFF 122056Z 01011KT 1 3/8SM -SN BR BKN008 OVC013 00/00 A3021 RMK AO2A CIG 008V016 BKN V SCT SLP246 P0001 60002 T00000000 53002 $,KOFF,2019-01-12T20:56:00Z,41.12,-95.92,0.0,0.0,10,11,,1.38,30.209646,1024.6,,,TRUE,TRUE,,,,,-SN BR,BKN,800,OVC,1300,,,,,IFR,0.2,,,,,0.01,,,,,,SPECI,319.0
KGTB 122056Z AUTO 00000KT 10SM CLR M11/M20 A3052 RMK AO2 SLP353 T11131202 58003 VISNO RWY03 $,KGTB,2019-01-12T20:56:00Z,44.07,-75.72,-11.3,-20.2,0,0,,10.0,30.519686,1035.3,,TRUE,TRUE,TRUE,,,,,,CLR,,,,,,,,VFR,-0.3,,,,,,,,,,,SPECI,207.0
KFTK 122056Z 06007KT 10SM SCT060 OVC075 03/01 A3011 RMK AO2A SLPNO T00340011 57024 $,KFTK,2019-01-12T20:56:00Z,37.88,-85.97,3.4,1.1,60,7,,10.0,30.109253,,,,TRUE,TRUE,,,,,,SCT,6000,OVC,7500,,,,,VFR,-2.4,,,,,,,,,,,SPECI,230.0
KFFO 122056Z 08006KT 1/2SM R05L/4500V6000FT -SN FZFG VV012 M01/M03 A3027 RMK AO2A SLP263 P0002 60003 T10151032 55009,KFFO,2019-01-12T20:56:00Z,39.82,-84.03,-1.5,-3.2,80,6,,0.5,30.268702,1026.3,,,TRUE,,,,,,-SN FZFG,OVX,0,,,,,,,LIFR,-0.9,,,,,0.02,,,,,1200,SPECI,251.0
KCEF 122056Z 02007KT 10SM FEW250 M03/M16 A3045 RMK AO2A SLP322 T10301160 50001,KCEF,2019-01-12T20:56:00Z,42.2,-72.52,-3.0,-16.0,20,7,,10.0,30.448818,1032.2,,,TRUE,,,,,,,FEW,25000,,,,,,,VFR,0.1,,,,,,,,,,,SPECI,75.0
KMUI 122056Z AUTO 20004KT 10SM BKN100 BKN160 M01/M13 A3046 RMK AO2 SLP326 T10061135 57009 $,KMUI,2019-01-12T20:56:00Z,40.42,-76.57,-0.6,-13.5,200,4,,10.0,30.46063,1032.6,,TRUE,TRUE,TRUE,,,,,,BKN,10000,BKN,16000,,,,,VFR,-0.9,,,,,,,,,,,METAR,149.0
KLFI 122056Z AUTO 01004KT 10SM FEW040 SCT055 SCT075 04/M04 A3047 RMK AO2 SLP325 T00361039 58004 $,KLFI,2019-01-12T20:56:00Z,37.07,-76.37,3.6,-3.9,10,4,,10.0,30.469488,1032.5,,TRUE,TRUE,TRUE,,,,,,FEW,4000,SCT,5500,SCT,7500,,,VFR,-0.4,,,,,,,,,,,SPECI,3.0
KADW 122056Z 00000KT 10SM OVC035 00/M07 A3048 RMK AO2A -SNB43E48SNB54 SLP332 P0000 60000 T00021071 57003 $,KADW,2019-01-12T20:56:00Z,38.82,-76.87,0.2,-7.1,0,0,,10.0,30.481298,1033.2,,,TRUE,TRUE,,,,,,OVC,3500,,,,,,,VFR,-0.3,,,,,0.005,,,,,,SPECI,86.0
BGTL 122056Z AUTO 11013KT 9999 CLR M32/M35 A2999 RMK AO2 SLP151 T13211355 53002 TSNO CHINO RWY26 $,BGTL,2019-01-12T20:56:00Z,76.53,-68.7,-32.1,-35.5,110,13,,6.21,29.991142,1015.1,,TRUE,TRUE,TRUE,,TRUE,,,,CLR,,,,,,,,VFR,0.2,,,,,,,,,,,METAR,77.0
KVLL 122056Z AUTO 07010G15KT 10SM SCT060 OVC080 M01/M09 A3043 RMK AO2 T10151090,KVLL,2019-01-12T20:56:00Z,42.55,-83.18,-1.5,-9.0,70,10,15,10.0,30.431103,,,TRUE,TRUE,,,,,,,SCT,6000,OVC,8000,,,,,VFR,,,,,,,,,,,,SPECI,222.0
KTTF 122056Z AUTO 06011G17KT 10SM OVC019 M01/M04 A3038 RMK AO2 T10071038,KTTF,2019-01-12T20:56:00Z,41.93,-83.42,-0.7,-3.8,60,11,17,10.0,30.380905,,,TRUE,TRUE,,,,,,,OVC,1900,,,,,,,MVFR,,,,,,,,,,,,SPECI,188.0
KTOB 122056Z AUTO 08007KT 7SM OVC060 M01/M05 A3031 RMK AO2,KTOB,2019-01-12T20:56:00Z,44.02,-92.82,-1.0,-5.0,80,7,,7.0,30.31004,,,TRUE,TRUE,,,,,,,OVC,6000,,,,,,,VFR,,,,,,,,,,,,SPECI,398.0
KTEW 122056Z AUTO 08006KT 10SM OVC021 M01/M05 A3038 RMK AO2 T10111050,KTEW,2019-01-12T20:56:00Z,42.57,-84.42,-1.1,-5.0,80,6,,10.0,30.380905,,,TRUE,TRUE,,,,,,,OVC,2100,,,,,,,MVFR,,,,,,,,,,,,SPECI,280.0
KJMR 122056Z AUTO 08004KT 10SM OVC050 M01/M06 A3040 RMK AO2,KJMR,2019-01-12T20:56:00Z,45.88,-93.27,-1.0,-6.0,80,4,,10.0,30.398623,,,TRUE,TRUE,,,,,,,OVC,5000,,,,,,,VFR,,,,,,,,,,,,METAR,309.0
KJKJ 122056Z AUTO 00000KT 10SM OVC042 M03/M06 A3039 RMK AO2,KJKJ,2019-01-12T20:56:00Z,46.83,-96.67,-3.0,-6.0,0,0,,10.0,30.389763,,,TRUE,TRUE,,,,,,,OVC,4200,,,,,,,VFR,,,,,,,,,,,,SPECI,280.0
KHZX 122056Z AUTO 10007KT 10SM OVC028 M01/M05 A3039 RMK AO2,KHZX,2019-01-12T20:56:00Z,46.62,-93.32,-1.0,-5.0,100,7,,10.0,30.389763,,,TRUE,TRUE,,,,,,,OVC,2800,,,,,,,MVFR,,,,,,,,,,,,SPECI,374.0
KHAI 122056Z AUTO 09006KT 1/2SM SN OVC006 M02/M03 A3034 RMK AO2 T10221035,KHAI,2019-01-12T20:56:00Z,41.97,-85.6,-2.2,-3.5,90,6,,0.5,30.339567,,,TRUE,TRUE,,,,,,SN,OVC,600,,,,,,,LIFR,,,,,,,,,,,,SPECI,251.0
KFKS 122056Z AUTO 11006KT 10SM OVC019 M02/M06 A3047 RMK AO2 T10221062,KFKS,2019-01-12T20:56:00Z,44.63,-86.2,-2.2,-6.2,110,6,,10.0,30.469488,,,TRUE,TRUE,,,,,,,OVC,1900,,,,,,,MVFR,,,,,,,,,,,,SPECI,193.0
KELO 122056Z AUTO 11008KT 10SM OVC006 M06/M07 A3043 RMK AO2 TSNO,KELO,2019-01-12T20:56:00Z,47.82,-91.82,-6.0,-7.0,110,8,,10.0,30.431103,,,TRUE,TRUE,,,TRUE,,,,OVC,600,,,,,,,IFR,,,,,,,,,,,,SPECI,443.0
KCVX 122056Z AUTO 08007KT 10SM OVC020 M03/M08 A3054 RMK AO2 T10351079,KCVX,2019-01-12T20:56:00Z,45.3,-85.27,-3.5,-7.9,80,7,,10.0,30.540354,,,TRUE,TRUE,,,,,,,OVC,2000,,,,,,,MVFR,,,,,,,,,,,,SPECI,204.0
RJTY 122056Z AUTO 02003KT 10SM OVC039 03/00 A3011 RMK AO2 SLP207 60000 T00291004 52009 FZRANO $,RJTY,2019-01-12T20:56:00Z,35.75,139.33,2.9,-0.4,20,3,,10.0,30.109253,1020.7,,TRUE,TRUE,TRUE,,,TRUE,,,OVC,3900,,,,,,,VFR,0.9,,,,,,0.005,,,,,METAR,139.0
KOEB 122056Z AUTO 09007KT 1/2SM -SN OVC007 M01/M02 A3033 RMK AO2 T10151018,KOEB,2019-01-12T20:56:00Z,41.92,-85.03,-1.5,-1.8,90,7,,0.5,30.33071,,,TRUE,TRUE,,,,,,-SN,OVC,700,,,,,,,LIFR,,,,,,,,,,,,SPECI,292.0
KMOP 122056Z AUTO 06008KT 10SM OVC024 M01/M07 A3042 RMK AO2 T10111070,KMOP,2019-01-12T20:56:00Z,43.62,-84.73,-1.1,-7.0,60,8,,10.0,30.41929,,,TRUE,TRUE,,,,,,,OVC,2400,,,,,,,MVFR,,,,,,,,,,,,SPECI,230.0
KMGN 122056Z AUTO 06009KT 10SM OVC020 M05/M08 A3052 RMK AO2 T10531090,KMGN,2019-01-12T20:56:00Z,45.43,-84.92,-5.3,-9.0,60,9,,10.0,30.519686,,,TRUE,TRUE,,,,,,,OVC,2000,,,,,,,MVFR,,,,,,,,,,,,SPECI,209.0
EGUN 122056Z 25012KT 9999 OVC017 09/09 A2999 RMK AO2A SLP159 WND DATA ESTMD T00850085 57012 .,EGUN,2019-01-12T20:56:00Z,52.37,0.47,8.5,8.5,250,12,,6.21,29.991142,1015.9,,,TRUE,,,,,,,OVC,1700,,,,,,,MVFR,-1.2,,,,,,,,,,,SPECI,10.0
KNUQ 122056Z 16007KT 10SM BKN060 16/08 A2994 RMK AO2 SLP142 T01610078 58024,KNUQ,2019-01-12T20:56:00Z,37.4,-122.05,16.1,7.8,160,7,,10.0,29.940945,1014.2,,,TRUE,,,,,,,BKN,6000,,,,,,,VFR,-2.4,,,,,,,,,,,SPECI,12.0
KMKY 122056Z AUTO 16009KT 10SM CLR 26/16 A3013 RMK AO2 SLP204 T02560161 55008,KMKY,2019-01-12T20:56:00Z,26.0,-81.67,25.6,16.1,160,9,,10.0,30.129921,1020.4,,TRUE,TRUE,,,,,,,CLR,,,,,,,,VFR,-0.8,,,,,,,,,,,METAR,2.0
KMQJ 122056Z AUTO 10009KT 1SM OVC009 M01/M01 A3021 RMK AO1,KMQJ,2019-01-12T20:56:00Z,39.85,-85.9,-1.0,-1.0,100,9,,1.0,30.209646,,,TRUE,TRUE,,,,,,,OVC,900,,,,,,,IFR,,,,,,,,,,,,METAR,263.0
KIMS 122056Z AUTO 06007KT 10SM SCT032 BKN041 OVC050 01/00 A3018 RMK AO1,KIMS,2019-01-12T20:56:00Z,38.75,-85.47,1.0,0.0,60,7,,10.0,30.180119,,,TRUE,TRUE,,,,,,,SCT,3200,BKN,4100,OVC,5000,,,VFR,,,,,,,,,,,,METAR,250.0
KIKW 122056Z AUTO 06009G16KT 7SM OVC017 M01/M05 A3045 RMK AO2 T10151055,KIKW,2019-01-12T20:56:00Z,43.67,-84.27,-1.5,-5.5,60,9,16,7.0,30.448818,,,TRUE,TRUE,,,,,,,OVC,1700,,,,,,,MVFR,,,,,,,,,,,,SPECI,194.0
KI69 122056Z AUTO 08004KT 7SM -SN BKN007 BKN013 OVC023 00/00 A3024 RMK AO2 P0001 60001 T00021002,KI69,2019-01-12T20:56:00Z,39.08,-84.22,0.2,-0.2,80,4,,7.0,30.239174,,,TRUE,TRUE,,,,,,-SN,BKN,700,BKN,1300,OVC,2300,,,IFR,,,,,,0.01,0.01,,,,,METAR,255.0
KOWX 122056Z AUTO 07013KT 1SM OVC009 M03/M05 A3034 RMK AO1,KOWX,2019-01-12T20:56:00Z,41.03,-83.98,-3.0,-5.0,70,13,,1.0,30.339567,,,TRUE,TRUE,,,,,,,OVC,900,,,,,,,IFR,,,,,,,,,,,,METAR,233.0
PHHI 122056Z AUTO 13003KT 10SM FEW033 SCT047 24/17 A3004 RMK AO2 SLP165 60000 T02380170 50003 $,PHHI,2019-01-12T20:56:00Z,21.48,-158.05,23.8,17.0,130,3,,10.0,30.041338,1016.5,,TRUE,TRUE,TRUE,,,,,,FEW,3300,SCT,4700,,,,,VFR,0.3,,,,,,0.005,,,,,METAR,255.0
OTBH 122056Z 33005KT 9000 BR FEW200 14/11 A3011 RMK AO2A SLP198 T01400110 402120125 57006 $,OTBH,2019-01-12T20:56:00Z,25.12,51.32,14.0,11.0,330,5,,5.59,30.109253,1019.8,,,TRUE,TRUE,,,,,BR,FEW,20000,,,,,,,VFR,-0.6,,,21.2,12.5,,,,,,,METAR,40.0
KP60 122056Z AUTO 00000KT M13/M16 A3020 RMK AO1 SLP347 T11331161 56018,KP60,2019-01-12T20:56:00Z,44.55,-110.42,-13.3,-16.1,0,0,,,30.200787,1034.7,,TRUE,TRUE,,,,,,,,,,,,,,,,-1.8,,,,,,,,,,,SPECI,2388.0
KFTG 122056Z 00000KT 10SM FEW035 BKN070 02/M02 A3018,KFTG,2019-01-12T20:56:00Z,39.78,-104.55,2.0,-2.0,0,0,,10.0,30.180119,,,,,,,,,,,FEW,3500,BKN,7000,,,,,VFR,,,,,,,,,,,,METAR,1675.0
KNLC 122056Z 17011KT 10SM FEW032 FEW120 SCT200 16/09 A2998 RMK AO2 SLP153 RH/64 T01560089 58023,KNLC,2019-01-12T20:56:00Z,36.32,-119.95,15.6,8.9,170,11,,10.0,29.97933,1015.3,,,TRUE,,,,,,,FEW,3200,FEW,12000,SCT,20000,,,VFR,-2.3,,,,,,,,,,,METAR,72.0
KNRS 122056Z AUTO 28005KT 10SM SCT050 16/11 A3000 RMK AO2 RAB28E40 SLP158 P0000 60000 T01560111 58026 $,KNRS,2019-01-12T20:56:00Z,32.57,-117.12,15.6,11.1,280,5,,10.0,30.0,1015.8,,TRUE,TRUE,TRUE,,,,,,SCT,5000,,,,,,,VFR,-2.6,,,,,0.005,,,,,,SPECI,7.0
KMEH 122056Z AUTO 00000KT 10SM CLR 04/M04 A3010 RMK AO2 SLP209 T00441044 55005,KMEH,2019-01-12T20:56:00Z,45.52,-118.42,4.4,-4.4,0,0,,10.0,30.100393,1020.9,,TRUE,TRUE,,,,,,,CLR,,,,,,,,VFR,-0.5,,,,,,,,,,,SPECI,1136.0
RKSG 122056Z 00000KT 2SM BR CLR M05/M05 A3026 RMK AO2A SLP251 T10521052 55007 $,RKSG,2019-01-12T20:56:00Z,36.97,127.02,-5.2,-5.2,0,0,,2.0,30.259842,1025.1,,,TRUE,TRUE,,,,,BR,CLR,,,,,,,,IFR,-0.7,,,,,,,,,,,METAR,16.0
PHSF 122056Z AUTO 25005KT 10SM CLR 18/07 A3030 RMK AO2 SLP151 WND DATA ESTMD T01840070 51005 PWINO $,PHSF,2019-01-12T20:56:00Z,19.77,-155.55,18.4,7.0,250,5,,10.0,30.301182,1015.1,,TRUE,TRUE,TRUE,,,,TRUE,,CLR,,,,,,,,VFR,0.5,,,,,,,,,,,METAR,1887.0
PGUA 122056Z 06014G20KT 10SM SCT016 25/21 A2988 RMK PK WND 05026/32 SLP109 T02470208 53008 $,PGUA,2019-01-12T20:56:00Z,13.57,144.92,24.7,20.8,60,14,20,10.0,29.878937,1010.9,,,,TRUE,,,,,,SCT,1600,,,,,,,VFR,0.8,,,,,,,,,,,METAR,187.0
KTPH 122056Z AUTO 08004KT 10SM CLR 08/M09 A3006 RMK AO2 SLP182 T00831089 56026,KTPH,2019-01-12T20:56:00Z,38.05,-117.08,8.3,-8.9,80,4,,10.0,30.059055,1018.2,,TRUE,TRUE,,,,,,,CLR,,,,,,,,VFR,-2.6,,,,,,,,,,,SPECI,1652.0
KSLE 122056Z 36003KT 10SM CLR 10/02 A2999 RMK AO2 SLP156 T01000017 58006,KSLE,2019-01-12T20:56:00Z,44.9,-123.0,10.0,1.7,360,3,,10.0,29.991142,1015.6,,,TRUE,,,,,,,CLR,,,,,,,,VFR,-0.6,,,,,,,,,,,METAR,59.0
KSJX 122056Z AUTO 07009KT 10SM OVC016 M05/M08 A3053 RMK AO2 T10511085,KSJX,2019-01-12T20:56:00Z,45.7,-85.57,-5.1,-8.5,70,9,,10.0,30.528543,,,TRUE,TRUE,,,,,,,OVC,1600,,,,,,,MVFR,,,,,,,,,,,,SPECI,204.0
KSHV 122056Z 30016KT 10SM FEW037 14/04 A2999 RMK AO2 SLP154 T01390039 53015,KSHV,2019-01-12T20:56:00Z,32.45,-93.83,13.9,3.9,300,16,,10.0,29.991142,1015.4,,,TRUE,,,,,,,FEW,3700,,,,,,,VFR,1.5,,,,,,,,,,,METAR,83.0
KSFO 122056Z 00000KT 10SM FEW021 SCT035 16/09 A2994 RMK AO2 SLP139 T01560089 56022 $,KSFO,2019-01-12T20:56:00Z,37.62,-122.37,15.6,8.9,0,0,,10.0,29.940945,1013.9,,,TRUE,TRUE,,,,,,FEW,2100,SCT,3500,,,,,VFR,-2.2,,,,,,,,,,,METAR,3.0
KSDF 122056Z 07007KT 10SM FEW028 BKN030 OVC095 04/01 A3014 RMK AO2 SLP211 T00440006 56022,KSDF,2019-01-12T20:56:00Z,38.18,-85.73,4.4,0.6,70,7,,10.0,30.138779,1021.1,,,TRUE,,,,,,,FEW,2800,BKN,3000,OVC,9500,,,MVFR,-2.2,,,,,,,,,,,METAR,146.0
KSBP 122056Z 14004KT 10SM BKN031 15/08 A2998 RMK AO2 SLP150 T01500078 58017,KSBP,2019-01-12T20:56:00Z,35.23,-120.63,15.0,7.8,140,4,,10.0,29.97933,1015.0,,,TRUE,,,,,,,BKN,3100,,,,,,,VFR,-1.7,,,,,,,,,,,SPECI,59.0
KROS 122056Z AUTO 08005KT 10SM OVC050 00/M06 A3039 RMK AO2 T10051065,KROS,2019-01-12T20:56:00Z,45.7,-92.95,-0.5,-6.5,80,5,,10.0,30.389763,,,TRUE,TRUE,,,,,,,OVC,5000,,,,,,,VFR,,,,,,,,,,,,METAR,281.0
KRNP 122056Z AUTO 07006KT 10SM OVC025 M01/M06 A3041 RMK AO2 T10061057,KRNP,2019-01-12T20:56:00Z,43.0,-84.13,-0.6,-5.7,70,6,,10.0,30.410433,,,TRUE,TRUE,,,,,,,OVC,2500,,,,,,,MVFR,,,,,,,,,,,,SPECI,224.0
KRDM 122056Z 34004KT 10SM CLR 05/01 A3007 RMK AO2 SLP197 I3001 T00500006 58016,KRDM,2019-01-12T20:56:00Z,44.25,-121.15,5.0,0.6,340,4,,10.0,30.070866,1019.7,,,TRUE,,,,,,,CLR,,,,,,,,VFR,-1.6,,,,,,,,,,,METAR,938.0
RKJK 122056Z AUTO 34005KT 6SM BR CLR M02/M02 A3026 RMK AO2 SLP252 T10181019 55002 PNO $,RKJK,2019-01-12T20:56:00Z,35.9,126.62,-1.8,-1.9,340,5,,6.0,30.259842,1025.2,,TRUE,TRUE,TRUE,,,,,BR,CLR,,,,,,,,VFR,-0.2,,,,,,,,,,,METAR,9.0
KMOB 122056Z 15017G26KT 10SM SCT020 BKN033 OVC047 19/16 A3001 RMK AO2 PK WND 15026/2056 SLP159 60000 T01940156 56022 $,KMOB,2019-01-12T20:56:00Z,30.68,-88.25,19.4,15.6,150,17,26,10.0,30.008858,1015.9,,,TRUE,TRUE,,,,,,SCT,2000,BKN,3300,OVC,4700,,,VFR,-2.2,,,,,,0.005,,,,,METAR,63.0
KBZN 122056Z 00000KT 10SM CLR 00/M06 A3020 RMK AO2 SLP277 T00001061 56018,KBZN,2019-01-12T20:56:00Z,45.78,-111.17,0.0,-6.1,0,0,,10.0,30.200787,1027.7,,,TRUE,,,,,,,CLR,,,,,,,,VFR,-1.8,,,,,,,,,,,SPECI,1361.0
KVOK 122056Z 08010KT 10SM BKN020 OVC055 01/M04 A3036 RMK AO2A SLPNO ALSTG ESTMD 55007,KVOK,2019-01-12T20:56:00Z,43.92,-90.27,1.0,-4.0,80,10,,10.0,30.360237,,,,TRUE,,,,,,,BKN,2000,OVC,5500,,,,,MVFR,-0.7,,,,,,,,,,,METAR,277.0
KNXP 122056Z AUTO 30004KT 10SM -RA OVC038 09/07 A3007 RMK AO2 RAE32B49 SLP169 P0000 60002 T00940072 56023,KNXP,2019-01-12T20:56:00Z,34.28,-116.17,9.4,7.2,300,4,,10.0,30.070866,1016.9,,TRUE,TRUE,,,,,,-RA,OVC,3800,,,,,,,VFR,-2.3,,,,,0.005,0.02,,,,,METAR,626.0
KDRA 122056Z AUTO 12009KT 10SM CLR 12/M04 A3002 RMK AO2 SLP154 T01171044 56030,KDRA,2019-01-12T20:56:00Z,36.62,-116.03,11.7,-4.4,120,9,,10.0,30.02067,1015.4,,TRUE,TRUE,,,,,,,CLR,,,,,,,,VFR,-3.0,,,,,,,,,,,SPECI,1006.0
KNSE 122056Z AUTO 17006KT 10SM BKN038 OVC055 19/15 A3006 RMK AO2 SLP167 T01890150 56016 $,KNSE,2019-01-12T20:56:00Z,30.73,-87.02,18.9,15.0,170,6,,10.0,30.059055,1016.7,,TRUE,TRUE,TRUE,,,,,,BKN,3800,OVC,5500,,,,,VFR,-1.6,,,,,,,,,,,SPECI,61.0
KCFE 122056Z AUTO 06008KT 7SM OVC050 M02/M06 A3037 RMK AO2 T10201056,KCFE,2019-01-12T20:56:00Z,45.17,-93.85,-2.0,-5.6,60,8,,7.0,30.369095,,,TRUE,TRUE,,,,,,,OVC,5000,,,,,,,VFR,,,,,,,,,,,,METAR,295.0
KCDI 122056Z AUTO 04004KT 3/4SM -SN OVC011 M01/M02 A3033 RMK AO2 T10151020,KCDI,2019-01-12T20:56:00Z,39.97,-81.58,-1.5,-2.0,40,4,,0.75,30.33071,,,TRUE,TRUE,,,,,,-SN,OVC,1100,,,,,,,LIFR,,,,,,,,,,,,METAR,244.0
KBJI 122056Z AUTO 09007KT 10SM OVC009 M05/M06 A3039 RMK AO2 T10461060,KBJI,2019-01-12T20:56:00Z,47.5,-94.92,-4.6,-6.0,90,7,,10.0,30.389763,,,TRUE,TRUE,,,,,,,OVC,900,,,,,,,IFR,,,,,,,,,,,,METAR,420.0
KDLZ 122056Z AUTO 07005KT 3/4SM -SN OVC008 M02/M02 A3029 RMK AO2,KDLZ,2019-01-12T20:56:00Z,40.28,-83.12,-2.0,-2.0,70,5,,0.75,30.28937,,,TRUE,TRUE,,,,,,-SN,OVC,800,,,,,,,LIFR,,,,,,,,,,,,METAR,289.0
KNBC 122056Z 03005KT 10SM BKN075 13/09 A3029 RMK AO2 SLP257 T01280089 56013,KNBC,2019-01-12T20:56:00Z,32.47,-80.72,12.8,8.9,30,5,,10.0,30.28937,1025.7,,,TRUE,,,,,,,BKN,7500,,,,,,,VFR,-1.3,,,,,,,,,,,SPECI,12.0
KNID 122056Z AUTO 34006KT 8SM -RA FEW030 BKN038 OVC045 08/06 A3006 RMK AO2 SLP187 P0002 60004 T00780061 58007,KNID,2019-01-12T20:56:00Z,35.67,-117.67,7.8,6.1,340,6,,8.0,30.059055,1018.7,,TRUE,TRUE,,,,,,-RA,FEW,3000,BKN,3800,OVC,4500,,,VFR,-0.7,,,,,0.02,0.04,,,,,METAR,696.0
KP28 122056Z AUTO 35016G30KT 01/M03 A3015 RMK AO1 PK WND 36030/2009 SLP224 T00061028 53007,KP28,2019-01-12T20:56:00Z,37.28,-98.55,0.6,-2.8,350,16,30,,30.15059,1022.4,,TRUE,TRUE,,,,,,,,,,,,,,,,0.7,,,,,,,,,,,METAR,469.0
KNFE 122056Z AUTO 05011KT 10SM BKN080 OVC090 06/M04 A3044 RMK AO2 SLP309 T00611039 58017,KNFE,2019-01-12T20:56:00Z,36.7,-76.13,6.1,-3.9,50,11,,10.0,30.43996,1030.9,,TRUE,TRUE,,,,,,,BKN,8000,OVC,9000,,,,,VFR,-1.7,,,,,,,,,,,METAR,5.0
KMHS 122056Z AUTO VRB03KT 10SM CLR 11/M02 A2999 RMK AO2 SLP174 T01061017 58009,KMHS,2019-01-12T20:56:00Z,41.32,-122.32,10.6,-1.7,0,3,,10.0,29.991142,1017.4,,TRUE,TRUE,,,,,,,CLR,,,,,,,,VFR,-0.9,,,,,,,,,,,SPECI,1078.0
KNTU 122056Z 04009KT 10SM BKN060 BKN080 OVC100 04/M04 A3044 RMK AO2 SLP311 T00391044 58014,KNTU,2019-01-12T20:56:00Z,36.82,-76.02,3.9,-4.4,40,9,,10.0,30.43996,1031.1,,,TRUE,,,,,,,BKN,6000,BKN,8000,OVC,10000,,,VFR,-1.4,,,,,,,,,,,METAR,7.0
K8D3 122056Z AUTO 36004KT M04/M07 A3035 RMK AO1 SLP310 T10441067 55006,K8D3,2019-01-12T20:56:00Z,45.67,-96.98,-4.4,-6.7,360,4,,,30.351377,1031.0,,TRUE,TRUE,,,,,,,,,,,,,,,,-0.6,,,,,,,,,,,SPECI,354.0
KMQE 122056Z AUTO 30009G18KT M05/M17 A3038 RMK AO1 SLP311 T10501172 53007,KMQE,2019-01-12T20:56:00Z,42.22,-71.12,-5.0,-17.2,300,9,18,,30.380905,1031.1,,TRUE,TRUE,,,,,,,,,,,,,,,,0.7,,,,,,,,,,,SPECI,199.0
KNCA 122056Z AUTO 07010KT 10SM OVC032 06/01 A3041 RMK AO2 SLP300 T00560006 58001,KNCA,2019-01-12T20:56:00Z,34.72,-77.45,5.6,0.6,70,10,,10.0,30.410433,1030.0,,TRUE,TRUE,,,,,,,OVC,3200,,,,,,,VFR,-0.1,,,,,,,,,,,SPECI,8.0
KALK 122056Z AUTO 22012G17KT 10SM CLR 15/M01 A3007 RMK AO2 WSHFT 1951 SLP130 T01501011 56030,KALK,2019-01-12T20:56:00Z,31.6,-110.43,15.0,-1.1,220,12,17,10.0,30.070866,1013.0,,TRUE,TRUE,,,,,,,CLR,,,,,,,,VFR,-3.0,,,,,,,,,,,METAR,1453.0
KABH 122056Z AUTO 36003KT A3015 RMK AO2 SLPNO 56014 $,KABH,2019-01-12T20:56:00Z,38.75,-104.3,,,360,3,,,30.15059,,,TRUE,TRUE,TRUE,,,,,,,,,,,,,,,-1.4,,,,,,,,,,,METAR,1840.0
KGNA 122056Z AUTO 05010KT M04/M07 A3052 RMK AO1 SLP351 T10391072 56006 $,KGNA,2019-01-12T20:56:00Z,47.75,-90.35,-3.9,-7.2,50,10,,,30.519686,1035.1,,TRUE,TRUE,TRUE,,,,,,,,,,,,,,,-0.6,,,,,,,,,,,METAR,185.0
KNPA 122056Z 16010KT 10SM SCT050 OVC110 19/16 A3004 RMK AO2 SLP174 60000 T01890161 56017,KNPA,2019-01-12T20:56:00Z,30.35,-87.32,18.9,16.1,160,10,,10.0,30.041338,1017.4,,,TRUE,,,,,,,SCT,5000,OVC,11000,,,,,VFR,-1.7,,,,,,0.005,,,,,METAR,9.0
KNFL 122056Z 02004KT 10SM FEW180 FEW220 08/M03 A3008 RMK AO2 SLP153 T00831028 58019,KNFL,2019-01-12T20:56:00Z,39.42,-118.7,8.3,-2.8,20,4,,10.0,30.079725,1015.3,,,TRUE,,,,,,,FEW,18000,FEW,22000,,,,,VFR,-1.9,,,,,,,,,,,METAR,1199.0
K79J 122056Z AUTO 11005KT 10SM OVC020 17/11 A3007 RMK AO2 RAB23E34 SLP180 P0000 60000 T01720111 56026,K79J,2019-01-12T20:56:00Z,31.32,-86.4,17.2,11.1,110,5,,10.0,30.070866,1018.0,,TRUE,TRUE,,,,,,,OVC,2000,,,,,,,MVFR,-2.6,,,,,0.005,,,,,,SPECI,94.0
KPRN 122056Z AUTO 13005KT 10SM -RA BKN017 OVC022 16/10 A3005 RMK AO2 RAB24E33B51 SLP176 P0000 60000 T01560100 56026,KPRN,2019-01-12T20:56:00Z,31.85,-86.62,15.6,10.0,130,5,,10.0,30.050198,1017.6,,TRUE,TRUE,,,,,,-RA,BKN,1700,OVC,2200,,,,,MVFR,-2.6,,,,,0.005,0.005,,,,,METAR,138.0
ETOU 122056Z AUTO 26008KT 9999 OVC026 05/02 A2992 RMK AO2 RAE30 CIG 023 RWY07 SLP139 P0002 60006 T00510021 55015 FZRANO $,ETOU,2019-01-12T20:56:00Z,50.03,8.32,5.1,2.1,260,8,,6.21,29.920275,1013.9,,TRUE,TRUE,TRUE,,,TRUE,,,OVC,2600,,,,,,,MVFR,-1.5,,,,,0.02,0.06,,,,,METAR,141.0
ETEB 122056Z AUTO 25012KT 8000 -SN BR OVC006 01/00 A2991 RMK AO2 SLP164 P0001 60004 T00050004 56015 $,ETEB,2019-01-12T20:56:00Z,49.32,10.62,0.5,0.4,250,12,,4.97,29.911417,1016.4,,TRUE,TRUE,TRUE,,,,,-SN BR,OVC,600,,,,,,,IFR,-1.5,,,,,0.01,0.04,,,,,METAR,467.0
KD07 122056Z AUTO 19005KT M07/M08 A3025 RMK AO1 SLP296 T10671078 55013,KD07,2019-01-12T20:56:00Z,45.03,-102.02,-6.7,-7.8,190,5,,,30.250984,1029.6,,TRUE,TRUE,,,,,,,,,,,,,,,,-1.3,,,,,,,,,,,METAR,784.0
KSPD 122056Z AUTO 33014KT 03/00 A3017 RMK AO1 SLP220 T00280000 56013,KSPD,2019-01-12T20:56:00Z,37.28,-102.62,2.8,0.0,330,14,,,30.171259,1022.0,,TRUE,TRUE,,,,,,,,,,,,,,,,-1.3,,,,,,,,,,,METAR,1335.0
KNYG 122056Z AUTO 20006KT 10SM OVC049 02/M07 A3051 RMK AO2 SLP334 T00171067 55003,KNYG,2019-01-12T20:56:00Z,38.5,-77.28,1.7,-6.7,200,6,,10.0,30.510826,1033.4,,TRUE,TRUE,,,,,,,OVC,4900,,,,,,,VFR,-0.3,,,,,,,,,,,METAR,4.0
KP53 122056Z AUTO 02007KT M03/M10 A3053 RMK AO1 SLP350 T10331100 56011,KP53,2019-01-12T20:56:00Z,46.42,-86.65,-3.3,-10.0,20,7,,,30.528543,1035.0,,TRUE,TRUE,,,,,,,,,,,,,,,,-1.1,,,,,,,,,,,METAR,187.0
KGNR 122056Z AUTO 31013G22KT M16/M21 A3020 RMK AO1 SLP267 T11611211 51025,KGNR,2019-01-12T20:56:00Z,45.47,-69.55,-16.1,-21.1,310,13,22,,30.200787,1026.7,,TRUE,TRUE,,,,,,,,,,,,,,,,2.5,,,,,,,,,,,METAR,427.0
KBFW 122056Z AUTO 07008KT 10SM OVC015 M03/M05 A3044 RMK AO2,KBFW,2019-01-12T20:56:00Z,47.25,-91.4,-3.0,-5.0,70,8,,10.0,30.43996,,,TRUE,TRUE,,,,,,,OVC,1500,,,,,,,MVFR,,,,,,,,,,,,METAR,331.0
KAXV 122056Z AUTO 07008KT 3/4SM -SN OVC009 M01/M02 A3028 RMK AO2,KAXV,2019-01-12T20:56:00Z,40.5,-84.3,-1.0,-2.0,70,8,,0.75,30.280512,,,TRUE,TRUE,,,,,,-SN,OVC,900,,,,,,,LIFR,,,,,,,,,,,,METAR,279.0
K9MN 122056Z AUTO 08006KT 10SM OVC018 00/M04 A3033 RMK AO1 T10021043,K9MN,2019-01-12T20:56:00Z,44.02,-92.48,-0.2,-4.3,80,6,,10.0,30.33071,,,TRUE,TRUE,,,,,,,OVC,1800,,,,,,,MVFR,,,,,,,,,,,,SPECI,355.0
K22N 122056Z AUTO 00000KT 10SM CLR 01/M15 A3046 RMK AO2,K22N,2019-01-12T20:56:00Z,40.8,-75.77,1.0,-15.0,0,0,,10.0,30.46063,,,TRUE,TRUE,,,,,,,CLR,,,,,,,,VFR,,,,,,,,,,,,METAR,163.0
KSXT 122056Z AUTO 11007G16KT 10SM CLR 10/M01 A2992 RMK AO2 SLP122 T01001006 58009,KSXT,2019-01-12T20:56:00Z,42.6,-123.37,10.0,-0.6,110,7,16,10.0,29.920275,1012.2,,TRUE,TRUE,,,,,,,CLR,,,,,,,,VFR,-0.9,,,,,,,,,,,METAR,1170.0
ETIH 122056Z AUTO 24007G16KT 9000 RA BR FEW007 OVC014 01/01 A2988 RMK AO2 SNE1957RAB1957E03SNB03E24RAB24E25SNB25E44RAB44 SLP142 P0005 60014 T00120012 57020 $,ETIH,2019-01-12T20:56:00Z,49.22,11.82,1.2,1.2,240,7,16,5.59,29.878937,1014.2,,TRUE,TRUE,TRUE,,,,,RA BR,FEW,700,OVC,1400,,,,,MVFR,-2.0,,,,,0.05,0.14,,,,,METAR,442.0
KBLV 122056Z 07010KT 6SM -RA BR BKN008 OVC019 01/00 A3005 RMK AO2A CIG 007 RWY14R CIG 006 RWY32L CIG 007 RWY32R SLPNO P0003 60006 T00130000 $,KBLV,2019-01-12T20:56:00Z,38.53,-89.83,1.3,0.0,70,10,,6.0,30.050198,,,,TRUE,TRUE,,,,,-RA BR,BKN,800,OVC,1900,,,,,IFR,,,,,,0.03,,,,,,SPECI,138.0
KBIH 122056Z AUTO 19007KT 10SM SCT100 11/M04 A3003 RMK AO2 SLP162 T01061039 56019,KBIH,2019-01-12T20:56:00Z,37.37,-118.35,10.6,-3.9,190,7,,10.0,30.029528,1016.2,,TRUE,TRUE,,,,,,,SCT,10000,,,,,,,VFR,-1.9,,,,,,,,,,,METAR,1253.0
KBED 122056Z 29013KT 10SM FEW150 M03/M18 A3043 RMK AO2 SLP324 T10331183 53006,KBED,2019-01-12T20:56:00Z,42.47,-71.3,-3.3,-18.3,290,13,,10.0,30.431103,1032.4,,,TRUE,,,,,,,FEW,15000,,,,,,,VFR,0.6,,,,,,,,,,,METAR,50.0
KAUM 122056Z AUTO 09009KT 10SM OVC070 01/M07 A3030 RMK AO2,KAUM,2019-01-12T20:56:00Z,43.67,-92.92,1.0,-7.0,90,9,,10.0,30.301182,,,TRUE,TRUE,,,,,,,OVC,7000,,,,,,,VFR,,,,,,,,,,,,METAR,375.0
KART 122056Z AUTO 09004KT 10SM CLR M11/M18 A3057 RMK AO2 SLP363 T11061183 58003,KART,2019-01-12T20:56:00Z,43.98,-76.03,-10.6,-18.3,90,4,,10.0,30.569881,1036.3,,TRUE,TRUE,,,,,,,CLR,,,,,,,,VFR,-0.3,,,,,,,,,,,METAR,100.0
KAND 122056Z AUTO 07014KT 10SM OVC020 04/M05 A3029 RMK AO2 SLP259 60000 T00441050 56023,KAND,2019-01-12T20:56:00Z,34.5,-82.72,4.4,-5.0,70,14,,10.0,30.28937,1025.9,,TRUE,TRUE,,,,,,,OVC,2000,,,,,,,MVFR,-2.3,,,,,,0.005,,,,,METAR,239.0
KPZQ 122056Z AUTO 09006KT 10SM OVC017 M06/M09 A3056 RMK AO2 T10611095,KPZQ,2019-01-12T20:56:00Z,45.4,-83.82,-6.1,-9.5,90,6,,10.0,30.561024,,,TRUE,TRUE,,,,,,,OVC,1700,,,,,,,MVFR,,,,,,,,,,,,SPECI,204.0
KPNM 122056Z AUTO 10006KT 10SM OVC050 M01/M06 A3037 RMK AO2,KPNM,2019-01-12T20:56:00Z,45.57,-93.6,-1.0,-6.0,100,6,,10.0,30.369095,,,TRUE,TRUE,,,,,,,OVC,5000,,,,,,,VFR,,,,,,,,,,,,SPECI,298.0
KOZW 122056Z AUTO 09009KT 10SM BKN023 OVC029 M01/M06 A3038 RMK AO2 T10111065,KOZW,2019-01-12T20:56:00Z,42.62,-83.97,-1.1,-6.5,90,9,,10.0,30.380905,,,TRUE,TRUE,,,,,,,BKN,2300,OVC,2900,,,,,MVFR,,,,,,,,,,,,SPECI,293.0
KCFS 122056Z AUTO 08007KT 10SM SCT024 BKN033 OVC065 M02/M07 A3045 RMK AO2 T10221066,KCFS,2019-01-12T20:56:00Z,43.47,-83.45,-2.2,-6.6,80,7,,10.0,30.448818,,,TRUE,TRUE,,,,,,,SCT,2400,BKN,3300,OVC,6500,,,VFR,,,,,,,,,,,,SPECI,214.0
KFKA 122056Z AUTO 08008KT 040V100 7SM SCT018 M01/M05 A3031 RMK AO2 T10111047,KFKA,2019-01-12T20:56:00Z,43.68,-92.17,-1.1,-4.7,80,8,,7.0,30.31004,,,TRUE,TRUE,,,,,,,SCT,1800,,,,,,,VFR,,,,,,,,,,,,METAR,389.0
TJSJ 122056Z 08013KT 10SM FEW025 SCT040 27/21 A3005 RMK AO2 SLP173 T02670206 53001 $,TJSJ,2019-01-12T20:56:00Z,18.43,-66.02,26.7,20.6,80,13,,10.0,30.050198,1017.3,,,TRUE,TRUE,,,,,,FEW,2500,SCT,4000,,,,,VFR,0.1,,,,,,,,,,,METAR,21.0
KWMC 122056Z AUTO 06007KT 10SM CLR 07/M07 A3011 RMK AO2 SLP199 T00671067 58018,KWMC,2019-01-12T20:56:00Z,40.9,-117.8,6.7,-6.7,60,7,,10.0,30.109253,1019.9,,TRUE,TRUE,,,,,,,CLR,,,,,,,,VFR,-1.8,,,,,,,,,,,METAR,1310.0
KWJF 122056Z 01014KT 10SM SCT019 OVC026 09/04 A3001 RMK AO2 SLP168 T00890044 57018 $,KWJF,2019-01-12T20:56:00Z,34.72,-118.22,8.9,4.4,10,14,,10.0,30.008858,1016.8,,,TRUE,TRUE,,,,,,SCT,1900,OVC,2600,,,,,MVFR,-1.8,,,,,,,,,,,METAR,715.0
KVPZ 122056Z AUTO 06012KT 1SM -SN SCT008 OVC012 M01/M04 A3028 RMK AO2 SLP262 P0001 60003 T10111044 56006 TSNO $,KVPZ,2019-01-12T20:56:00Z,41.45,-87.0,-1.1,-4.4,60,12,,1.0,30.280512,1026.2,,TRUE,TRUE,TRUE,,TRUE,,,-SN,SCT,800,OVC,1200,,,,,IFR,-0.6,,,,,0.01,0.03,,,,,METAR,231.0
KUKI 122056Z AUTO 14006KT 10SM SCT046 SCT055 16/09 A2993 RMK AO2 SLP131 T01610089 58025,KUKI,2019-01-12T20:56:00Z,39.12,-123.2,16.1,8.9,140,6,,10.0,29.929134,1013.1,,TRUE,TRUE,,,,,,,SCT,4600,SCT,5500,,,,,VFR,-2.5,,,,,,,,,,,METAR,187.0
KEKO 122056Z AUTO VRB05KT 10SM OVC008 M04/M07 A3018 RMK AO2 SLP259 T10391067 56019,KEKO,2019-01-12T20:56:00Z,40.82,-115.78,-3.9,-6.7,0,5,,10.0,30.180119,1025.9,,TRUE,TRUE,,,,,,,OVC,800,,,,,,,IFR,-1.9,,,,,,,,,,,METAR,1547.0
KEAU 122056Z 07007KT 6SM HZ OVC019 M01/M04 A3038 RMK AO2 SLP300 T10061044 55000,KEAU,2019-01-12T20:56:00Z,44.87,-91.47,-0.6,-4.4,70,7,,6.0,30.380905,1030.0,,,TRUE,,,,,,HZ,OVC,1900,,,,,,,MVFR,0.0,,,,,,,,,,,METAR,276.0
KDYT 122056Z AUTO 10SM SCT019 OVC042 M01/M04 A3046 RMK AO2,KDYT,2019-01-12T20:56:00Z,46.72,-92.03,-1.0,-4.0,,,,10.0,30.46063,,,TRUE,TRUE,,,,,,,SCT,1900,OVC,4200,,,,,VFR,,,,,,,,,,,,METAR,186.0
KDUH 122056Z AUTO 10008G15KT 2 1/2SM -SN SCT017 OVC024 M01/M04 A3038 RMK AO2 T10121045,KDUH,2019-01-12T20:56:00Z,41.73,-83.65,-1.2,-4.5,100,8,15,2.5,30.380905,,,TRUE,TRUE,,,,,,-SN,SCT,1700,OVC,2400,,,,,IFR,,,,,,,,,,,,METAR,204.0
KDUG 122056Z AUTO 16010KT 10SM CLR 14/03 A3005 RMK AO2 SLP155 T01440028 56034,KDUG,2019-01-12T20:56:00Z,31.47,-109.58,14.4,2.8,160,10,,10.0,30.050198,1015.5,,TRUE,TRUE,,,,,,,CLR,,,,,,,,VFR,-3.4,,,,,,,,,,,METAR,1265.0
KDRM 122056Z AUTO 07003KT 10SM CLR M10/M16 A3056 RMK AO2 T10961161,KDRM,2019-01-12T20:56:00Z,46.0,-83.75,-9.6,-16.1,70,3,,10.0,30.561024,,,TRUE,TRUE,,,,,,,CLR,,,,,,,,VFR,,,,,,,,,,,,METAR,204.0
KDIK 122056Z AUTO 17006KT 2 1/2SM BR OVC003 M06/M07 A3019 RMK AO2 SLP270 T10611072 55007,KDIK,2019-01-12T20:56:00Z,46.8,-102.8,-6.1,-7.2,170,6,,2.5,30.188976,1027.0,,TRUE,TRUE,,,,,,BR,OVC,300,,,,,,,LIFR,-0.7,,,,,,,,,,,METAR,788.0
KDAY 122056Z 10008KT 1/4SM R06L/2600V3000FT +SN FZFG SCT008 OVC013 M02/M03 A3026 RMK AO2 TWR VIS 3/4 SLP259 P0003 60011 T10171028 55010,KDAY,2019-01-12T20:56:00Z,39.9,-84.22,-1.7,-2.8,100,8,,0.25,30.259842,1025.9,,,TRUE,,,,,,+SN FZFG,SCT,800,OVC,1300,,,,,LIFR,-1.0,,,,,0.03,0.11,,,,,METAR,305.0
KCXY 122056Z 16004KT 10SM FEW046 SCT065 OVC080 01/M13 A3048 RMK AO2 SLP325 T00061133 58007,KCXY,2019-01-12T20:56:00Z,40.22,-76.85,0.6,-13.3,160,4,,10.0,30.481298,1032.5,,,TRUE,,,,,,,FEW,4600,SCT,6500,OVC,8000,,,VFR,-0.7,,,,,,,,,,,METAR,106.0
KCHS 122056Z 10008KT 10SM FEW021 BKN055 OVC200 12/08 A3031 RMK AO2 SLP265 T01220078 55009,KCHS,2019-01-12T20:56:00Z,32.9,-80.03,12.2,7.8,100,8,,10.0,30.31004,1026.5,,,TRUE,,,,,,,FEW,2100,BKN,5500,OVC,20000,,,VFR,-0.9,,,,,,,,,,,METAR,13.0
KCEC 122056Z AUTO 25007KT 10SM CLR 14/10 A2993 RMK AO2 SLP135 T01390100 58021,KCEC,2019-01-12T20:56:00Z,41.77,-124.22,13.9,10.0,250,7,,10.0,29.929134,1013.5,,TRUE,TRUE,,,,,,,CLR,,,,,,,,VFR,-2.1,,,,,,,,,,,METAR,17.0
KCAE 122056Z 07010KT 10SM BKN075 BKN120 07/M02 A3031 RMK AO2 SLP266 T00721017 58018,KCAE,2019-01-12T20:56:00Z,33.93,-81.12,7.2,-1.7,70,10,,10.0,30.31004,1026.6,,,TRUE,,,,,,,BKN,7500,BKN,12000,,,,,VFR,-1.8,,,,,,,,,,,METAR,70.0
KMDT 122056Z 14003KT 10SM FEW045 BKN055 OVC070 00/M12 A3047 RMK AO2 SLP323 T00001117 58007,KMDT,2019-01-12T20:56:00Z,40.2,-76.77,0.0,-11.7,140,3,,10.0,30.469488,1032.3,,,TRUE,,,,,,,FEW,4500,BKN,5500,OVC,7000,,,VFR,-0.7,,,,,,,,,,,METAR,95.0
KFSD 122056Z 03006KT 8SM BKN017 BKN043 OVC050 M01/M06 A3029 RMK AO2 SLP281 T10111056 53002,KFSD,2019-01-12T20:56:00Z,43.58,-96.75,-1.1,-5.6,30,6,,8.0,30.28937,1028.1,,,TRUE,,,,,,,BKN,1700,BKN,4300,OVC,5000,,,MVFR,0.2,,,,,,,,,,,METAR,436.0
KFPK 122056Z AUTO 07007KT 10SM OVC026 M01/M05 A3036 RMK AO2 T10121050,KFPK,2019-01-12T20:56:00Z,42.57,-84.82,-1.2,-5.0,70,7,,10.0,30.360237,,,TRUE,TRUE,,,,,,,OVC,2600,,,,,,,MVFR,,,,,,,,,,,,METAR,272.0
KPEX 122056Z AUTO 08007KT 10SM BKN019 OVC050 M02/M04 A3036 RMK AO2 T10161045,KPEX,2019-01-12T20:56:00Z,45.37,-94.73,-1.6,-4.5,80,7,,10.0,30.360237,,,TRUE,TRUE,,,,,,,BKN,1900,OVC,5000,,,,,MVFR,,,,,,,,,,,,METAR,360.0
KQDG 122056Z AUTO 36003KT M M BKN041 M03/M06 A3018 RMK AO2 SLP222 T10291059 53006 PWINO FZRANO $,KQDG,2019-01-12T20:56:00Z,,,-2.9,-5.9,360,3,,,30.180119,1022.2,,TRUE,TRUE,TRUE,,,TRUE,TRUE,,BKN,4100,,,,,,,,0.6,,,,,,,,,,,METAR,
KQD3 122056Z AUTO 00000KT 9999 SCT026 BKN031 24/18 A3001 RMK AO2 SLP147 WND DATA ESTMD T02380175,KQD3,2019-01-12T20:56:00Z,,,23.8,17.5,0,0,,6.21,30.008858,1014.7,,TRUE,TRUE,,,,,,,SCT,2600,BKN,3100,,,,,VFR,,,,,,,,,,,,METAR,
KQBF 122056Z AUTO VRB03KT 6000 HZ CLR 30/M04 A2993 RMK AO2 SLP091 WND DATA ESTMD T02961038 52021,KQBF,2019-01-12T20:56:00Z,,,29.6,-3.8,0,3,,3.73,29.929134,1009.1,,TRUE,TRUE,,,,,,HZ,CLR,,,,,,,,MVFR,2.1,,,,,,,,,,,METAR,
KOXD 122056Z AUTO 10009KT 1SM -SN OVC005 00/00 A3021 RMK AO2 P0001 60001 T10041005,KOXD,2019-01-12T20:56:00Z,39.5,-84.78,-0.4,-0.5,100,9,,1.0,30.209646,,,TRUE,TRUE,,,,,,-SN,OVC,500,,,,,,,IFR,,,,,,0.01,0.01,,,,,METAR,317.0
OKAS 122056Z 00000KT 9999 CLR 10/01 A3010 RMK AO2A SLP193 WND DATA ESTMD T01040012 401450044 58010 PA +307,OKAS,2019-01-12T20:56:00Z,,,10.4,1.2,0,0,,6.21,30.100393,1019.3,,,TRUE,,,,,,,CLR,,,,,,,,VFR,-1.0,,,14.5,4.4,,,,,,,METAR,
KGDB 122056Z AUTO 04004KT 4SM HZ OVC070 M01/M05 A3036 RMK AO2 T10101046,KGDB,2019-01-12T20:56:00Z,44.75,-95.55,-1.0,-4.6,40,4,,4.0,30.360237,,,TRUE,TRUE,,,,,,HZ,OVC,7000,,,,,,,MVFR,,,,,,,,,,,,METAR,319.0
KHPN 122056Z 33003KT 10SM SCT100 M02/M13 A3046 RMK SLP326,KHPN,2019-01-12T20:56:00Z,41.07,-73.7,-2.0,-13.0,330,3,,10.0,30.46063,1032.6,,,,,,,,,,SCT,10000,,,,,,,VFR,,,,,,,,,,,,METAR,121.0
KOFK 122056Z AUTO 35013KT 4SM BR OVC005 M04/M05 A3026 RMK AO2 SLP269 60001 T10441050 55000 $,KOFK,2019-01-12T20:56:00Z,41.98,-97.43,-4.4,-5.0,350,13,,4.0,30.259842,1026.9,,TRUE,TRUE,TRUE,,,,,BR,OVC,500,,,,,,,IFR,0.0,,,,,,0.01,,,,,METAR,470.0
KGON 122056Z 30006KT 10SM CLR M02/M13 A3046 RMK AO2 SLP315 T10171133 50000,KGON,2019-01-12T20:56:00Z,41.33,-72.05,-1.7,-13.3,300,6,,10.0,30.46063,1031.5,,,TRUE,,,,,,,CLR,,,,,,,,VFR,0.0,,,,,,,,,,,METAR,3.0
KHCD 122056Z AUTO 07006KT 7SM BKN042 OVC055 M02/M05 A3036 RMK AO2 T10201047,KHCD,2019-01-12T20:56:00Z,44.87,-94.38,-2.0,-4.7,70,6,,7.0,30.360237,,,TRUE,TRUE,,,,,,,BKN,4200,OVC,5500,,,,,VFR,,,,,,,,,,,,METAR,323.0
KHZL 122056Z AUTO 00000KT 10SM CLR M02/M15 A3042 RMK AO2 PNO,KHZL,2019-01-12T20:56:00Z,40.98,-76.0,-2.0,-15.0,0,0,,10.0,30.41929,,,TRUE,TRUE,,,,,,,CLR,,,,,,,,VFR,,,,,,,,,,,,METAR,489.0
KI19 122056Z AUTO 10007KT 1/2SM -SN BKN006 OVC013 M01/M02 A3027 RMK AO2 T10121017,KI19,2019-01-12T20:56:00Z,39.7,-83.98,-1.2,-1.7,100,7,,0.5,30.268702,,,TRUE,TRUE,,,,,,-SN,BKN,600,OVC,1300,,,,,LIFR,,,,,,,,,,,,METAR,289.0
KNBT 122056Z AUTO 03009KT 10SM SCT046 BKN055 OVC065 07/01 A3042 RMK AO2 SLP303 T00720011 56003,KNBT,2019-01-12T20:56:00Z,35.02,-76.47,7.2,1.1,30,9,,10.0,30.41929,1030.3,,TRUE,TRUE,,,,,,,SCT,4600,BKN,5500,OVC,6500,,,VFR,-0.3,,,,,,,,,,,METAR,5.0
KGRD 122056Z AUTO 05005KT 10SM OVC019 04/M03 A3032 RMK AO2 SLP270 60000 T00391033 56020,KGRD,2019-01-12T20:56:00Z,34.25,-82.15,3.9,-3.3,50,5,,10.0,30.318897,1027.0,,TRUE,TRUE,,,,,,,OVC,1900,,,,,,,MVFR,-2.0,,,,,,0.005,,,,,METAR,185.0
PPIZ 122056Z AUTO 04014KT 4SM -SN CLR M37/ A3031 RMK AO2 SNB43 SLP269 P0000 60000 T1367 53000 FZRANO,PPIZ,2019-01-12T20:56:00Z,69.73,-163.0,-36.7,,40,14,,4.0,30.31004,1026.9,,TRUE,TRUE,,,,TRUE,,-SN,CLR,,,,,,,,MVFR,0.0,,,,,0.005,0.005,,,,,METAR,8.0
PFYU 122056Z 00000KT 10SM CLR M43/ A3026 RMK AO2 SLP284 6//// T1428 51015 $,PFYU,2019-01-12T20:56:00Z,66.57,-145.27,-42.8,,0,0,,10.0,30.259842,1028.4,,,TRUE,TRUE,,,,,,CLR,,,,,,,,VFR,1.5,,,,,,,,,,,METAR,131.0
PFKT 122056Z AUTO 11012G22KT 10SM CLR M27/M32 A2992 RMK AO2 WSHFT 2035 SLP135 T12721317 56014 FZRANO,PFKT,2019-01-12T20:56:00Z,65.33,-166.47,-27.2,-31.7,110,12,22,10.0,29.920275,1013.5,,TRUE,TRUE,,,,TRUE,,,CLR,,,,,,,,VFR,-1.4,,,,,,,,,,,METAR,9.0
PAWS 122056Z AUTO 00000KT 10SM CLR M19/M21 A2981 RMK AO2 SLP110 T11891211 58003 FZRANO,PAWS,2019-01-12T20:56:00Z,61.57,-149.53,-18.9,-21.1,0,0,,10.0,29.811024,1011.0,,TRUE,TRUE,,,,TRUE,,,CLR,,,,,,,,VFR,-0.3,,,,,,,,,,,METAR,107.0
PAWM 122056Z AUTO 36014KT 10SM CLR M29/M33 A2979 RMK AO2 SLP100 T12941328 58015 FZRANO,PAWM,2019-01-12T20:56:00Z,64.68,-163.42,-29.4,-32.8,360,14,,10.0,29.790354,1010.0,,TRUE,TRUE,,,,TRUE,,,CLR,,,,,,,,VFR,-1.5,,,,,,,,,,,METAR,82.0
PAWG 122056Z 29003KT 10SM BR BKN000 OVC015 01/01 A2991 RMK AO2 SLP129 VIS E 3SM 6//// T00060006 58005 PNO $,PAWG,2019-01-12T20:56:00Z,56.48,-132.37,0.6,0.6,290,3,,10.0,29.911417,1012.9,,,TRUE,TRUE,,,,,BR,BKN,0,OVC,1500,,,,,LIFR,-0.5,,,,,,,,,,,METAR,11.0
KBYL 122055Z AUTO 09003KT 10SM OVC036 06/03 A3014 RMK AO1,KBYL,2019-01-12T20:55:00Z,36.8,-84.2,6.0,3.0,90,3,,10.0,30.138779,,,TRUE,TRUE,,,,,,,OVC,3600,,,,,,,VFR,,,,,,,,,,,,METAR,359.0
KFYJ 122055Z AUTO 00000KT 10SM SCT055 03/M06 A3051 RMK AO1 T00311060,KFYJ,2019-01-12T20:55:00Z,37.52,-76.77,3.1,-6.0,0,0,,10.0,30.510826,,,TRUE,TRUE,,,,,,,SCT,5500,,,,,,,VFR,,,,,,,,,,,,SPECI,7.0
KQVF 122055Z AUTO 06002KT 8SM FEW017 26/24 A2985 RMK AO2 SLP107 WND DATA ESTMD T02630235 50001,KQVF,2019-01-12T20:55:00Z,,,26.3,23.5,60,2,,8.0,29.84941,1010.7,,TRUE,TRUE,,,,,,,FEW,1700,,,,,,,VFR,0.1,,,,,,,,,,,METAR,
KSDC 122055Z AUTO 04003KT 10SM CLR M05/M12 A3054 RMK AO2,KSDC,2019-01-12T20:55:00Z,43.23,-77.12,-5.0,-12.0,40,3,,10.0,30.540354,,,TRUE,TRUE,,,,,,,CLR,,,,,,,,VFR,,,,,,,,,,,,METAR,129.0
KCNW 122055Z 32013G25KT 10SM BKN040 12/03 A3014,KCNW,2019-01-12T20:55:00Z,31.63,-97.07,12.0,3.0,320,13,25,10.0,30.138779,,,,,,,,,,,BKN,4000,,,,,,,VFR,,,,,,,,,,,,METAR,156.0
KRID 122055Z AUTO 1SM -SN BKN010 M02/M02 A3022 RMK AO2 P0001,KRID,2019-01-12T20:55:00Z,39.75,-84.85,-2.0,-2.0,,,,1.0,30.221457,,,TRUE,TRUE,,,,,,-SN,BKN,1000,,,,,,,IFR,,,,,,0.01,,,,,,METAR,348.0
KRFI 122055Z AUTO 10SM SCT037 13/04 A3005 RMK AO2 T01250035,KRFI,2019-01-12T20:55:00Z,32.15,-94.85,12.5,3.5,,,,10.0,30.050198,,,TRUE,TRUE,,,,,,,SCT,3700,,,,,,,VFR,,,,,,,,,,,,METAR,135.0
KRDK 122055Z AUTO 02013KT 1SM +UP CLR M00/M01 A3019 RMK AO2 P0001,KRDK,2019-01-12T20:55:00Z,41.02,-95.27,0.0,-1.0,20,13,,1.0,30.188976,,,TRUE,TRUE,,,,,,UP,CLR,,,,,,,,IFR,,,,,,0.01,,,,,,METAR,318.0
KRCE 122055Z AUTO 33018KT 10SM OVC019 03/00 A3012 RMK AO2,KRCE,2019-01-12T20:55:00Z,35.48,-97.82,3.0,0.0,330,18,,10.0,30.121063,,,TRUE,TRUE,,,,,,,OVC,1900,,,,,,,MVFR,,,,,,,,,,,,METAR,413.0
KPSO 122055Z AUTO 00000KT 10SM SCT018 BKN045 OVC050 M01/M04 A3016 RMK AO2 T10101040,KPSO,2019-01-12T20:55:00Z,37.28,-107.05,-1.0,-4.0,0,0,,10.0,30.159449,,,TRUE,TRUE,,,,,,,SCT,1800,BKN,4500,OVC,5000,,,VFR,,,,,,,,,,,,METAR,2334.0
KPLR 122055Z AUTO 00000KT 8SM OVC024 10/05 A3008 RMK A01,KPLR,2019-01-12T20:55:00Z,33.57,-86.25,10.0,5.0,0,0,,8.0,30.079725,,,TRUE,TRUE,,,,,,,OVC,2400,,,,,,,MVFR,,,,,,,,,,,,METAR,148.0
KPEA 122055Z AUTO 05006KT 3/4SM -SN OVC007 M01/M02 A3021 RMK AO2 60002 T10081025,KPEA,2019-01-12T20:55:00Z,41.4,-92.95,-0.8,-2.5,50,6,,0.75,30.209646,,,TRUE,TRUE,,,,,,-SN,OVC,700,,,,,,,LIFR,,,,,,,0.02,,,,,METAR,270.0
KPDC 122055Z AUTO 07007KT 7SM OVC021 01/M04 A3031 RMK AO2 T00051044,KPDC,2019-01-12T20:55:00Z,43.02,-91.12,0.5,-4.4,70,7,,7.0,30.31004,,,TRUE,TRUE,,,,,,,OVC,2100,,,,,,,MVFR,,,,,,,,,,,,METAR,201.0
KPAN 122055Z AUTO VRB04KT 10SM CLR 09/M07 A3007 RMK AO2,KPAN,2019-01-12T20:55:00Z,34.25,-111.33,9.0,-7.0,0,4,,10.0,30.070866,,,TRUE,TRUE,,,,,,,CLR,,,,,,,,VFR,,,,,,,,,,,,METAR,1572.0
KOXV 122055Z AUTO 06012G19KT 1 1/4SM -SN OVC007 M01/M01 A3018 RMK AO2,KOXV,2019-01-12T20:55:00Z,41.28,-93.12,-1.0,-1.0,60,12,19,1.25,30.180119,,,TRUE,TRUE,,,,,,-SN,OVC,700,,,,,,,IFR,,,,,,,,,,,,METAR,283.0
KORS 122055Z AUTO 34004KT 10SM CLR 09/04 A2999 RMK AO2,KORS,2019-01-12T20:55:00Z,48.7,-122.92,9.0,4.0,340,4,,10.0,29.991142,,,TRUE,TRUE,,,,,,,CLR,,,,,,,,VFR,,,,,,,,,,,,METAR,9.0
KORC 122055Z AUTO 03004KT 7SM OVC011 M02/M03 A3028 RMK AO2,KORC,2019-01-12T20:55:00Z,42.97,-96.07,-2.0,-3.0,30,4,,7.0,30.280512,,,TRUE,TRUE,,,,,,,OVC,1100,,,,,,,MVFR,,,,,,,,,,,,METAR,431.0
KO22 122055Z AUTO VRB03KT 10SM SCT040 15/05 A2998 RMK A01,KO22,2019-01-12T20:55:00Z,38.03,-120.42,15.0,5.0,0,3,,10.0,29.97933,,,TRUE,TRUE,,,,,,,SCT,4000,,,,,,,VFR,,,,,,,,,,,,METAR,646.0
KMUT 122055Z AUTO 06012KT 1SM -SN SCT009 M00/M02 A3022 RMK AO2,KMUT,2019-01-12T20:55:00Z,41.37,-91.15,0.0,-2.0,60,12,,1.0,30.221457,,,TRUE,TRUE,,,,,,-SN,SCT,900,,,,,,,IFR,,,,,,,,,,,,METAR,167.0
KMPZ 122055Z AUTO 06013KT 1SM -SN OVC009 00/00 A3017 RMK AO2,KMPZ,2019-01-12T20:55:00Z,40.95,-91.52,0.0,0.0,60,13,,1.0,30.171259,,,TRUE,TRUE,,,,,,-SN,OVC,900,,,,,,,IFR,,,,,,,,,,,,METAR,224.0
KMHL 122055Z AUTO 03007KT 2 1/2SM -SN OVC006 00/00 A3005 RMK AO2 VIS 1 1/2V4 P0001,KMHL,2019-01-12T20:55:00Z,39.1,-93.2,0.0,0.0,30,7,,2.5,30.050198,,,TRUE,TRUE,,,,,,-SN,OVC,600,,,,,,,IFR,,,,,,0.01,,,,,,METAR,237.0
KIKV 122055Z AUTO 1 1/2SM -SN SCT009 SCT014 M01/M02 A3024 RMK AO2,KIKV,2019-01-12T20:55:00Z,41.68,-93.57,-1.0,-2.0,,,,1.5,30.239174,,,TRUE,TRUE,,,,,,-SN,SCT,900,SCT,1400,,,,,IFR,,,,,,,,,,,,METAR,275.0
KIIB 122055Z AUTO 06006KT 1 1/2SM -SN OVC009 00/M01 A3026 RMK AO2 T10011015,KIIB,2019-01-12T20:55:00Z,42.45,-91.95,-0.1,-1.5,60,6,,1.5,30.259842,,,TRUE,TRUE,,,,,,-SN,OVC,900,,,,,,,IFR,,,,,,,,,,,,METAR,298.0
KIDI 122055Z AUTO 16006KT 9SM BKN029 OVC035 M01/M07 A3038 RMK A01,KIDI,2019-01-12T20:55:00Z,40.62,-79.08,-1.0,-7.0,160,6,,9.0,30.380905,,,TRUE,TRUE,,,,,,,BKN,2900,OVC,3500,,,,,MVFR,,,,,,,,,,,,METAR,429.0
KICL 122055Z AUTO 02012KT 2 1/2SM -SN BKN011 OVC016 M01/M02 A3019 RMK AO2,KICL,2019-01-12T20:55:00Z,40.72,-95.02,-1.0,-2.0,20,12,,2.5,30.188976,,,TRUE,TRUE,,,,,,-SN,BKN,1100,OVC,1600,,,,,IFR,,,,,,,,,,,,METAR,303.0
KHZE 122055Z AUTO 19007G13KT 9SM OVC012 M08/M09 A3032 RMK AO2 TSNO,KHZE,2019-01-12T20:55:00Z,47.28,-101.58,-8.0,-9.0,190,7,13,9.0,30.318897,,,TRUE,TRUE,,,TRUE,,,,OVC,1200,,,,,,,MVFR,,,,,,,,,,,,METAR,553.0
KHNR 122055Z AUTO 03014KT 2SM -SN FEW009 SCT013 M01/M02 A3022 RMK AO2,KHNR,2019-01-12T20:55:00Z,41.58,-95.33,-1.0,-2.0,30,14,,2.0,30.221457,,,TRUE,TRUE,,,,,,-SN,FEW,900,SCT,1300,,,,,IFR,,,,,,,,,,,,METAR,375.0
KHEG 122055Z AUTO 12008KT 9SM FEW049 SCT060 OVC070 21/11 A3021 RMK AO2,KHEG,2019-01-12T20:55:00Z,30.28,-81.8,21.0,11.0,120,8,,9.0,30.209646,,,TRUE,TRUE,,,,,,,FEW,4900,SCT,6000,OVC,7000,,,VFR,,,,,,,,,,,,METAR,27.0
KGWR 122055Z AUTO 00000KT 4SM BR M06/M06 A3036 RMK A01,KGWR,2019-01-12T20:55:00Z,46.22,-97.65,-6.0,-6.0,0,0,,4.0,30.360237,,,TRUE,TRUE,,,,,,BR,,,,,,,,,,,,,,,,,,,,,METAR,386.0
KGPC 122055Z AUTO 09009KT 4SM BR BKN005 BKN027 OVC050 00/M01 A3017 RMK AO2,KGPC,2019-01-12T20:55:00Z,39.63,-86.82,0.0,-1.0,90,9,,4.0,30.171259,,,TRUE,TRUE,,,,,,BR,BKN,500,BKN,2700,OVC,5000,,,IFR,,,,,,,,,,,,METAR,257.0
KGNT 122055Z AUTO 12009G17KT 10SM SCT032 04/M03 A3014 RMK AO2 T00351034,KGNT,2019-01-12T20:55:00Z,35.17,-107.9,3.5,-3.4,120,9,17,10.0,30.138779,,,TRUE,TRUE,,,,,,,SCT,3200,,,,,,,VFR,,,,,,,,,,,,METAR,1987.0
KFMM 122055Z AUTO 29003KT 10SM 06/M04 A3017 RMK AO2 T00601038,KFMM,2019-01-12T20:55:00Z,40.33,-103.8,6.0,-3.8,290,3,,10.0,30.171259,,,TRUE,TRUE,,,,,,,,,,,,,,,,,,,,,,,,,,,METAR,1393.0
KFMH 122055Z AUTO 31008KT 10SM CLR M02/M20 A3041 RMK AO2,KFMH,2019-01-12T20:55:00Z,41.63,-70.52,-2.0,-20.0,310,8,,10.0,30.410433,,,TRUE,TRUE,,,,,,,CLR,,,,,,,,VFR,,,,,,,,,,,,METAR,40.0
KFFL 122055Z AUTO 05015KT 1SM BR SCT007 M01/M02 A3016 RMK AO2 PWINO,KFFL,2019-01-12T20:55:00Z,41.03,-91.97,-1.0,-2.0,50,15,,1.0,30.159449,,,TRUE,TRUE,,,,,TRUE,BR,SCT,700,,,,,,,IFR,,,,,,,,,,,,METAR,244.0
KAAT 122055Z AUTO 17018G22KT 10SM CLR 09/M03 A3002 RMK AO2 PK WND 18026/2035 SLP167 T00941033 57023,KAAT,2019-01-12T20:55:00Z,41.48,-120.57,9.4,-3.3,170,18,22,10.0,30.02067,1016.7,,TRUE,TRUE,,,,,,,CLR,,,,,,,,VFR,-2.3,,,,,,,,,,,METAR,1331.0
KINL 122055Z AUTO 10006KT 10SM SCT017 OVC024 M06/M08 A3046 RMK AO2 SLP340 T10611083 56008,KINL,2019-01-12T20:55:00Z,48.57,-93.4,-6.1,-8.3,100,6,,10.0,30.46063,1034.0,,TRUE,TRUE,,,,,,,SCT,1700,OVC,2400,,,,,MVFR,-0.8,,,,,,,,,,,METAR,360.0
KHON 122055Z AUTO 35008KT 3SM BR OVC005 M06/M07 A3034 RMK AO2 SLP298 I3001 T10611072 55008,KHON,2019-01-12T20:55:00Z,44.38,-98.23,-6.1,-7.2,350,8,,3.0,30.339567,1029.8,,TRUE,TRUE,,,,,,BR,OVC,500,,,,,,,IFR,-0.8,,,,,,,,,,,METAR,390.0
KGPI 122055Z 00000KT 10SM OVC011 M01/M03 A3025 RMK AO2 SLP275 I1001 I3002 T10061033 56013,KGPI,2019-01-12T20:55:00Z,48.32,-114.25,-0.6,-3.3,0,0,,10.0,30.250984,1027.5,,,TRUE,,,,,,,OVC,1100,,,,,,,MVFR,-1.3,,,,,,,,,,,METAR,908.0
KSCK 122055Z 15004KT 3SM HZ BKN006 13/10 A2998 RMK AO2 SLP150 T01280100 58018,KSCK,2019-01-12T20:55:00Z,37.88,-121.22,12.8,10.0,150,4,,3.0,29.97933,1015.0,,,TRUE,,,,,,HZ,BKN,600,,,,,,,IFR,-1.8,,,,,,,,,,,METAR,10.0
KRNO 122055Z 00000KT 10SM FEW035 FEW090 FEW150 08/M02 A3006 RMK AO2 SLP177 T00781017 58024,KRNO,2019-01-12T20:55:00Z,39.5,-119.77,7.8,-1.7,0,0,,10.0,30.059055,1017.7,,,TRUE,,,,,,,FEW,3500,FEW,9000,FEW,15000,,,VFR,-2.4,,,,,,,,,,,METAR,1342.0
KADM 122055Z 32014G20KT 10SM OVC022 06/02 A3010,KADM,2019-01-12T20:55:00Z,34.28,-97.02,6.0,2.0,320,14,20,10.0,30.100393,,,,,,,,,,,OVC,2200,,,,,,,MVFR,,,,,,,,,,,,METAR,232.0
KANJ 122055Z AUTO 15005KT 10SM CLR M09/M19 A3056 RMK AO2 SLP363 T10941194 56010,KANJ,2019-01-12T20:55:00Z,46.47,-84.37,-9.4,-19.4,150,5,,10.0,30.561024,1036.3,,TRUE,TRUE,,,,,,,CLR,,,,,,,,VFR,-1.0,,,,,,,,,,,METAR,218.0
KAST 122055Z AUTO 08009KT 10SM CLR 13/05 A2993 RMK AO2 SLP136 T01280050 58016,KAST,2019-01-12T20:55:00Z,46.15,-123.88,12.8,5.0,80,9,,10.0,29.929134,1013.6,,TRUE,TRUE,,,,,,,CLR,,,,,,,,VFR,-1.6,,,,,,,,,,,METAR,3.0
KCAO 122055Z AUTO 01009KT 10SM BKN033 BKN041 04/M02 A3017 RMK AO2 SLP223 T00441017 56012,KCAO,2019-01-12T20:55:00Z,36.45,-103.15,4.4,-1.7,10,9,,10.0,30.171259,1022.3,,TRUE,TRUE,,,,,,,BKN,3300,BKN,4100,,,,,VFR,-1.2,,,,,,,,,,,METAR,1514.0
KCMA 122055Z 09007KT 10SM FEW025 SCT042 17/09 A2999 RMK AO2 SLP162 60000 T01670094 56025,KCMA,2019-01-12T20:55:00Z,34.22,-119.1,16.7,9.4,90,7,,10.0,29.991142,1016.2,,,TRUE,,,,,,,FEW,2500,SCT,4200,,,,,VFR,-2.5,,,,,,0.005,,,,,METAR,23.0
KCNK 122055Z AUTO 35013KT 5SM BR OVC012 M03/M04 A3019 RMK AO2 PK WND 35026/1957 UPE11 SLP238 P0000 60000 T10281044 53006,KCNK,2019-01-12T20:55:00Z,39.55,-97.65,-2.8,-4.4,350,13,,5.0,30.188976,1023.8,,TRUE,TRUE,,,,,,BR,OVC,1200,,,,,,,MVFR,0.6,,,,,0.005,0.005,,,,,METAR,447.0
KUOX 122055Z AUTO 14007G15KT 9SM SCT006 SCT009 OVC015 07/07 A2995 RMK AO2,KUOX,2019-01-12T20:55:00Z,34.38,-89.53,7.0,7.0,140,7,15,9.0,29.949802,,,TRUE,TRUE,,,,,,,SCT,600,SCT,900,OVC,1500,,,MVFR,,,,,,,,,,,,METAR,137.0
KUGN 122055Z 08012G19KT 1/2SM SN FZFG VV006 M02/M03 A3031 RMK AO2 SLP279 P0005 60010 T10171033 58001,KUGN,2019-01-12T20:55:00Z,42.42,-87.87,-1.7,-3.3,80,12,19,0.5,30.31004,1027.9,,,TRUE,,,,,,SN FZFG,OVX,0,,,,,,,LIFR,-0.1,,,,,0.05,0.1,,,,600,METAR,222.0
KMCD 122055Z AUTO 07005KT 10SM OVC013 M08/M11 A3055 RMK AO2 T10801108,KMCD,2019-01-12T20:55:00Z,45.85,-84.63,-8.0,-10.8,70,5,,10.0,30.549213,,,TRUE,TRUE,,,,,,,OVC,1300,,,,,,,MVFR,,,,,,,,,,,,METAR,226.0
KMCC 122055Z AUTO 15003KT 10SM CLR 15/05 A3000 RMK AO2,KMCC,2019-01-12T20:55:00Z,38.67,-121.4,15.0,5.0,150,3,,10.0,30.0,,,TRUE,TRUE,,,,,,,CLR,,,,,,,,VFR,,,,,,,,,,,,SPECI,23.0
KMBT 122055Z AUTO 16008G13KT 5SM HZ SCT032 OVC050 07/04 A3006 RMK A01 P0002,KMBT,2019-01-12T20:55:00Z,35.88,-86.38,7.0,4.0,160,8,13,5.0,30.059055,,,TRUE,TRUE,,,,,,HZ,SCT,3200,OVC,5000,,,,,MVFR,,,,,,0.02,,,,,,METAR,188.0
KMAN 122055Z AUTO 14008G15KT 10SM BKN026 05/00 A3024 RMK A01,KMAN,2019-01-12T20:55:00Z,43.58,-116.52,5.0,0.0,140,8,15,10.0,30.239174,,,TRUE,TRUE,,,,,,,BKN,2600,,,,,,,MVFR,,,,,,,,,,,,SPECI,774.0
KM91 122055Z AUTO 14007KT 10SM FEW035 BKN050 OVC060 08/05 A3003 RMK A01 P0001,KM91,2019-01-12T20:55:00Z,36.53,-86.92,8.0,5.0,140,7,,10.0,30.029528,,,TRUE,TRUE,,,,,,,FEW,3500,BKN,5000,OVC,6000,,,VFR,,,,,,0.01,,,,,,METAR,215.0
KM75 122055Z AUTO 06004KT 10SM CLR 01/M05 A3007 RMK A01,KM75,2019-01-12T20:55:00Z,48.37,-107.92,1.0,-5.0,60,4,,10.0,30.070866,,,TRUE,TRUE,,,,,,,CLR,,,,,,,,VFR,,,,,,,,,,,,METAR,687.0
KM54 122055Z AUTO 18005KT 9SM SCT032 OVC055 09/03 A3007 RMK A01,KM54,2019-01-12T20:55:00Z,36.18,-86.32,9.0,3.0,180,5,,9.0,30.070866,,,TRUE,TRUE,,,,,,,SCT,3200,OVC,5500,,,,,VFR,,,,,,,,,,,,METAR,180.0
KM08 122055Z AUTO 14005G12KT 9SM OVC007 08/08 A2995 RMK A01 P0003,KM08,2019-01-12T20:55:00Z,35.22,-89.05,8.0,8.0,140,5,12,9.0,29.949802,,,TRUE,TRUE,,,,,,,OVC,700,,,,,,,IFR,,,,,,0.03,,,,,,METAR,152.0
KM04 122055Z AUTO 16007KT 10SM OVC008 08/07 A2994 RMK A01,KM04,2019-01-12T20:55:00Z,35.58,-89.58,8.0,7.0,160,7,,10.0,29.940945,,,TRUE,TRUE,,,,,,,OVC,800,,,,,,,IFR,,,,,,,,,,,,METAR,85.0
KM02 122055Z AUTO VRB05KT 4SM BR SCT046 SCT050 OVC065 07/05 A3001 RMK A01 P0004,KM02,2019-01-12T20:55:00Z,36.13,-87.43,7.0,5.0,0,5,,4.0,30.008858,,,TRUE,TRUE,,,,,,BR,SCT,4600,SCT,5000,OVC,6500,,,MVFR,,,,,,0.04,,,,,,METAR,272.0
KLZZ 122055Z AUTO 33012G19KT 10SM SCT045 12/02 A3014 RMK AO2 T01200015,KLZZ,2019-01-12T20:55:00Z,31.1,-98.2,12.0,1.5,330,12,19,10.0,30.138779,,,TRUE,TRUE,,,,,,,SCT,4500,,,,,,,VFR,,,,,,,,,,,,METAR,371.0
KLUG 122055Z AUTO 14004KT 8SM BKN033 BKN043 OVC055 06/04 A3005 RMK A01 P0005,KLUG,2019-01-12T20:55:00Z,35.52,-86.8,6.0,4.0,140,4,,8.0,30.050198,,,TRUE,TRUE,,,,,,,BKN,3300,BKN,4300,OVC,5500,,,VFR,,,,,,0.05,,,,,,METAR,219.0
KLDM 122055Z AUTO 08008KT 10SM OVC060 M01/M08 A3042 RMK AO2 T10061084,KLDM,2019-01-12T20:55:00Z,43.97,-86.4,-0.6,-8.4,80,8,,10.0,30.41929,,,TRUE,TRUE,,,,,,,OVC,6000,,,,,,,VFR,,,,,,,,,,,,METAR,197.0
KLDJ 122055Z AUTO 00000KT 10SM CLR 01/M15 A3050 RMK AO2 T00101153,KLDJ,2019-01-12T20:55:00Z,40.62,-74.25,1.0,-15.3,0,0,,10.0,30.499016,,,TRUE,TRUE,,,,,,,CLR,,,,,,,,VFR,,,,,,,,,,,,METAR,7.0
KJXI 122055Z AUTO 26009G18KT 10SM OVC024 08/03 A3005 RMK AO2 T00800031,KJXI,2019-01-12T20:55:00Z,32.7,-94.95,8.0,3.1,260,9,18,10.0,30.050198,,,TRUE,TRUE,,,,,,,OVC,2400,,,,,,,MVFR,,,,,,,,,,,,METAR,127.0
KJWN 122055Z AUTO 14006KT 10SM OVC050 08/04 A3005 RMK A01 P0001,KJWN,2019-01-12T20:55:00Z,36.18,-86.88,8.0,4.0,140,6,,10.0,30.050198,,,TRUE,TRUE,,,,,,,OVC,5000,,,,,,,VFR,,,,,,0.01,,,,,,METAR,151.0
KJTC 122055Z AUTO 34006G12KT 10SM CLR 05/M05 A3011 RMK AO2,KJTC,2019-01-12T20:55:00Z,34.13,-109.32,5.0,-5.0,340,6,12,10.0,30.109253,,,TRUE,TRUE,,,,,,,CLR,,,,,,,,VFR,,,,,,,,,,,,METAR,2150.0
KJAU 122055Z AUTO 00000KT 10SM OVC040 07/M01 A3019 RMK A01,KJAU,2019-01-12T20:55:00Z,36.33,-84.17,7.0,-1.0,0,0,,10.0,30.188976,,,TRUE,TRUE,,,,,,,OVC,4000,,,,,,,VFR,,,,,,,,,,,,METAR,360.0
KJAQ 122055Z AUTO 20009G15KT 170V230 10SM CLR 15/06 A2998 RMK AO1 T01490055,KJAQ,2019-01-12T20:55:00Z,38.37,-120.8,14.9,5.5,200,9,15,10.0,29.97933,,,TRUE,TRUE,,,,,,,CLR,,,,,,,,VFR,,,,,,,,,,,,METAR,512.0
KIMM 122055Z AUTO 13009KT 10SM CLR 27/14 A3012 RMK A01,KIMM,2019-01-12T20:55:00Z,26.43,-81.4,27.0,14.0,130,9,,10.0,30.121063,,,TRUE,TRUE,,,,,,,CLR,,,,,,,,VFR,,,,,,,,,,,,METAR,12.0
KIKT 122055Z AUTO CLR 23/17 A3006 RMK A01,KIKT,2019-01-12T20:55:00Z,28.52,-88.28,23.0,17.0,,,,,30.059055,,,TRUE,TRUE,,,,,,,CLR,,,,,,,,,,,,,,,,,,,,METAR,25.0
KHZD 122055Z AUTO 13008KT 6SM BR FEW011 SCT019 BKN028 08/07 A2996 RMK A01 P0003,KHZD,2019-01-12T20:55:00Z,36.08,-88.47,8.0,7.0,130,8,,6.0,29.958662,,,TRUE,TRUE,,,,,,BR,FEW,1100,SCT,1900,BKN,2800,,,MVFR,,,,,,0.03,,,,,,METAR,151.0
KLLJ 122055Z AUTO 04004KT 10SM OVC013 M07/M11 A3030 RMK AO2 SLP306 T10671106 56018,KLLJ,2019-01-12T20:55:00Z,44.52,-114.22,-6.7,-10.6,40,4,,10.0,30.301182,1030.6,,TRUE,TRUE,,,,,,,OVC,1300,,,,,,,MVFR,-1.8,,,,,,,,,,,METAR,1536.0
KLIC 122055Z AUTO 33013KT 10SM CLR 01/M02 A3017 RMK AO2 SLP229 T00061017 56016,KLIC,2019-01-12T20:55:00Z,39.27,-103.67,0.6,-1.7,330,13,,10.0,30.171259,1022.9,,TRUE,TRUE,,,,,,,CLR,,,,,,,,VFR,-1.6,,,,,,,,,,,METAR,1630.0
KGUL 122055Z AUTO 00000KT 10SM SCT012 21/17 A3007 RMK A01,KGUL,2019-01-12T20:55:00Z,27.3,-93.53,21.0,17.0,0,0,,10.0,30.070866,,,TRUE,TRUE,,,,,,,SCT,1200,,,,,,,VFR,,,,,,,,,,,,METAR,30.0
K05U 122055Z AUTO 00000KT 8SM OVC004 M04/M06 A3014 RMK A01,K05U,2019-01-12T20:55:00Z,39.6,-116.0,-4.0,-6.0,0,0,,8.0,30.138779,,,TRUE,TRUE,,,,,,,OVC,400,,,,,,,LIFR,,,,,,,,,,,,METAR,1816.0
KEKX 122055Z AUTO 08007KT 10SM BKN070 OVC090 03/01 A3010 RMK AO2 T00330005,KEKX,2019-01-12T20:55:00Z,,,3.3,0.5,80,7,,10.0,30.100393,,,TRUE,TRUE,,,,,,,BKN,7000,OVC,9000,,,,,VFR,,,,,,,,,,,,METAR,
KMKG 122055Z 07008G17KT 10SM OVC055 M01/M09 A3039 RMK AO2 SLP300 T10111094 56007,KMKG,2019-01-12T20:55:00Z,43.17,-86.23,-1.1,-9.4,70,8,17,10.0,30.389763,1030.0,,,TRUE,,,,,,,OVC,5500,,,,,,,VFR,-0.7,,,,,,,,,,,METAR,191.0
KNFG 122055Z VRB05KT 10SM FEW019 BKN028 OVC041 14/11 A2999 RMK AO2 SLP154 P0003 60011 T01440111 58024,KNFG,2019-01-12T20:55:00Z,33.28,-117.33,14.4,11.1,0,5,,10.0,29.991142,1015.4,,,TRUE,,,,,,,FEW,1900,BKN,2800,OVC,4100,,,MVFR,-2.4,,,,,0.03,,,,,,SPECI,24.0
PAEH 122055Z AUTO 12024KT 050V130 2SM -FZDZ BR FEW002 FEW011 SCT055 BKN110 M06/M07 A2928 RMK AO2 PK WND 12034/2011 SLP933 P0000 60000 T10581072 58013,PAEH,2019-01-12T20:55:00Z,58.65,-162.07,-5.8,-7.2,120,24,,2.0,29.279528,993.3,,TRUE,TRUE,,,,,,-FZDZ BR,FEW,200,FEW,1100,SCT,5500,BKN,11000,IFR,-1.3,,,,,0.005,0.005,,,,,METAR,161.0
PAIM 122055Z AUTO 11009KT 080V150 10SM CLR M27/M31 A2992 RMK AO2 SHSNB2037E2052 SLP207 T12691309 54000,PAIM,2019-01-12T20:55:00Z,66.0,-153.7,-26.9,-30.9,110,9,,10.0,29.920275,1020.7,,TRUE,TRUE,,,,,,,CLR,,,,,,,,VFR,,,,,,,,,,,,METAR,389.0
PATC 122055Z AUTO 03029KT 1SM BR CLR M34/M37 A2987 RMK AO2 PK WND 02035/2010 SNB1857E2048 SLP133 T13431374 58010,PATC,2019-01-12T20:55:00Z,65.57,-167.92,-34.3,-37.4,30,29,,1.0,29.870079,1013.3,,TRUE,TRUE,,,,,,BR,CLR,,,,,,,,IFR,-1.0,,,,,,,,,,,METAR,83.0
PALU 122055Z AUTO 09017KT 10SM CLR M28/M32 A3020 RMK AO2 SLP226 T12831316 58003,PALU,2019-01-12T20:55:00Z,68.88,-166.1,-28.3,-31.6,90,17,,10.0,30.200787,1022.6,,TRUE,TRUE,,,,,,,CLR,,,,,,,,VFR,-0.3,,,,,,,,,,,METAR,3.0
EHBK 122055Z AUTO 27008KT 200V320 9999 FEW008 SCT011 BKN016 07/06 Q1015 TEMPO 7000 -RADZ BKN009,EHBK,2019-01-12T20:55:00Z,50.92,5.77,7.0,6.0,270,8,,6.21,29.970472,,,TRUE,,,,,,,,FEW,800,SCT,1100,BKN,1600,,,MVFR,,,,,,,,,,,,METAR,116.0
EHGG 122055Z AUTO 27012KT 240V300 9999 SCT011 BKN014 OVC017 08/06 Q1009 TEMPO BKN014,EHGG,2019-01-12T20:55:00Z,53.12,6.57,8.0,6.0,270,12,,6.21,29.793306,,,TRUE,,,,,,,,SCT,1100,BKN,1400,OVC,1700,,,MVFR,,,,,,,,,,,,METAR,4.0
EHRD 122055Z AUTO 28011KT 240V320 9999 FEW016 BKN023 BKN028 08/06 Q1014 NOSIG,EHRD,2019-01-12T20:55:00Z,51.95,4.45,8.0,6.0,280,11,,6.21,29.940945,,,TRUE,,,TRUE,,,,,FEW,1600,BKN,2300,BKN,2800,,,MVFR,,,,,,,,,,,,METAR,-5.0
KAIK 122055Z AUTO 05007KT 10SM OVC070 06/00 A3032 RMK AO2,KAIK,2019-01-12T20:55:00Z,33.65,-81.68,6.0,0.0,50,7,,10.0,30.318897,,,TRUE,TRUE,,,,,,,OVC,7000,,,,,,,VFR,,,,,,,,,,,,METAR,161.0
KPTS 122055Z AUTO 35010G15KT 4SM -SN BKN008 OVC012 01/00 A3000 RMK AO2 T00050000,KPTS,2019-01-12T20:55:00Z,37.45,-94.73,0.5,0.0,350,10,15,4.0,30.0,,,TRUE,TRUE,,,,,,-SN,BKN,800,OVC,1200,,,,,IFR,,,,,,,,,,,,METAR,290.0
KDYB 122055Z AUTO 00000KT 10SM OVC075 11/05 A3032 RMK AO1,KDYB,2019-01-12T20:55:00Z,33.07,-80.28,11.0,5.0,0,0,,10.0,30.318897,,,TRUE,TRUE,,,,,,,OVC,7500,,,,,,,VFR,,,,,,,,,,,,METAR,18.0
KQZF 122055Z AUTO 36004KT 10SM CLR 24/M12 A3000 RMK AO2 SLP146 WND DATA ESTMD T02371125 51020 $,KQZF,2019-01-12T20:55:00Z,,,23.7,-12.5,360,4,,10.0,30.0,1014.6,,TRUE,TRUE,TRUE,,,,,,CLR,,,,,,,,VFR,2.0,,,,,,,,,,,METAR,
KSVC 122055Z AUTO 13008G16KT 10SM CLR 09/M03 A3015 RMK AO2 T00861035,KSVC,2019-01-12T20:55:00Z,32.63,-108.15,8.6,-3.5,130,8,16,10.0,30.15059,,,TRUE,TRUE,,,,,,,CLR,,,,,,,,VFR,,,,,,,,,,,,METAR,1659.0
KCCY 122055Z AUTO 06012KT 9SM OVC075 M00/M05 A3028 RMK AO2,KCCY,2019-01-12T20:55:00Z,43.07,-92.62,0.0,-5.0,60,12,,9.0,30.280512,,,TRUE,TRUE,,,,,,,OVC,7500,,,,,,,VFR,,,,,,,,,,,,METAR,343.0
KAID 122055Z 08006KT 1/2SM SN FZFG OVC007 M02/M03 A3023 RMK AO2 LAST,KAID,2019-01-12T20:55:00Z,40.12,-85.62,-2.0,-3.0,80,6,,0.5,30.230314,,,,TRUE,,,,,,SN FZFG,OVC,700,,,,,,,LIFR,,,,,,,,,,,,METAR,280.0
KQFR 122055Z AUTO 35003KT 10SM CLR M18/M26 A2980 RMK AO1,KQFR,2019-01-12T20:55:00Z,,,-18.0,-26.0,350,3,,10.0,29.799213,,,TRUE,TRUE,,,,,,,CLR,,,,,,,,VFR,,,,,,,,,,,,METAR,
KX07 122055Z AUTO 17004KT 10SM FEW070 24/13 A3017 RMK A01,KX07,2019-01-12T20:55:00Z,27.9,-81.62,24.0,13.0,170,4,,10.0,30.171259,,,TRUE,TRUE,,,,,,,FEW,7000,,,,,,,VFR,,,,,,,,,,,,METAR,39.0
KY19 122055Z AUTO 19005KT 9SM OVC009 M09/M09 A3032 RMK AO2,KY19,2019-01-12T20:55:00Z,46.77,-100.9,-9.0,-9.0,190,5,,9.0,30.318897,,,TRUE,TRUE,,,,,,,OVC,900,,,,,,,IFR,,,,,,,,,,,,METAR,593.0
KCAV 122055Z AUTO 07008KT 3SM BR FEW009 SCT038 M01/M02 A3027 RMK AO2 PWINO,KCAV,2019-01-12T20:55:00Z,42.75,-93.77,-1.0,-2.0,70,8,,3.0,30.268702,,,TRUE,TRUE,,,,,TRUE,BR,FEW,900,SCT,3800,,,,,MVFR,,,,,,,,,,,,METAR,354.0
KCBF 122055Z AUTO 02016KT 1SM -RA BKN006 BKN013 M01/M01 A3021 RMK AO2,KCBF,2019-01-12T20:55:00Z,41.27,-95.77,-1.0,-1.0,20,16,,1.0,30.209646,,,TRUE,TRUE,,,,,,-RA,BKN,600,BKN,1300,,,,,IFR,,,,,,,,,,,,METAR,382.0
KCDN 122055Z AUTO 05008G13KT 9SM OVC080 06/M05 A3035 RMK AO2,KCDN,2019-01-12T20:55:00Z,34.28,-80.57,6.0,-5.0,50,8,13,9.0,30.351377,,,TRUE,TRUE,,,,,,,OVC,8000,,,,,,,VFR,,,,,,,,,,,,METAR,92.0
KCEY 122055Z AUTO 10011G16KT 6SM SCT070 05/05 A2995 RMK AO1 P0001,KCEY,2019-01-12T20:55:00Z,36.67,-88.37,5.0,5.0,100,11,16,6.0,29.949802,,,TRUE,TRUE,,,,,,,SCT,7000,,,,,,,VFR,,,,,,0.01,,,,,,METAR,176.0
KCFJ 122055Z AUTO 07008KT 7SM OVC007 M01/M01 A3019 RMK AO2 60001 T10151015,KCFJ,2019-01-12T20:55:00Z,39.98,-86.92,-1.5,-1.5,70,8,,7.0,30.188976,,,TRUE,TRUE,,,,,,,OVC,700,,,,,,,IFR,,,,,,,0.01,,,,,METAR,244.0
KCPT 122055Z AUTO 32016G24KT 10SM OVC031 08/02 A3015 RMK AO2,KCPT,2019-01-12T20:55:00Z,32.35,-97.43,8.0,2.0,320,16,24,10.0,30.15059,,,TRUE,TRUE,,,,,,,OVC,3100,,,,,,,VFR,,,,,,,,,,,,METAR,260.0
KCNC 122055Z AUTO 05012G18KT 3/4SM -SN BKN007 BKN013 M01/M02 A3016 RMK AO2,KCNC,2019-01-12T20:55:00Z,41.02,-93.37,-1.0,-2.0,50,12,18,0.75,30.159449,,,TRUE,TRUE,,,,,,-SN,BKN,700,BKN,1300,,,,,LIFR,,,,,,,,,,,,METAR,320.0
KCMR 122055Z AUTO 10009KT 10SM CLR 06/M10 A3004 RMK AO2,KCMR,2019-01-12T20:55:00Z,35.3,-112.2,6.0,-10.0,100,9,,10.0,30.041338,,,TRUE,TRUE,,,,,,,CLR,,,,,,,,VFR,,,,,,,,,,,,METAR,2036.0
KCIN 122055Z AUTO 04012KT 1SM -SN SCT007 SCT013 SCT025 M01/M01 A3024 RMK AO2,KCIN,2019-01-12T20:55:00Z,42.03,-94.77,-1.0,-1.0,40,12,,1.0,30.239174,,,TRUE,TRUE,,,,,,-SN,SCT,700,SCT,1300,SCT,2500,,,IFR,,,,,,,,,,,,METAR,375.0
KCQW 122055Z AUTO 05007KT 10SM FEW055 BKN070 OVC120 05/M05 A3037 RMK AO2,KCQW,2019-01-12T20:55:00Z,34.72,-79.95,5.0,-5.0,50,7,,10.0,30.369095,,,TRUE,TRUE,,,,,,,FEW,5500,BKN,7000,OVC,12000,,,VFR,,,,,,,,,,,,METAR,73.0
KWYS 122055Z AUTO 00000KT 10SM CLR M08/M09 A3018 RMK AO2,KWYS,2019-01-12T20:55:00Z,44.67,-111.12,-8.0,-9.0,0,0,,10.0,30.180119,,,TRUE,TRUE,,,,,,,CLR,,,,,,,,VFR,,,,,,,,,,,,METAR,2025.0
KWWD 122055Z AUTO 29003KT 10SM BKN080 OVC090 00/M14 A3052 RMK AO2 SLP338 T00001139 57002 FZRANO,KWWD,2019-01-12T20:55:00Z,39.02,-74.92,0.0,-13.9,290,3,,10.0,30.519686,1033.8,,TRUE,TRUE,,,,TRUE,,,BKN,8000,OVC,9000,,,,,VFR,-0.2,,,,,,,,,,,METAR,7.0
KCSQ 122055Z AUTO 04016KT 3/4SM -SN BKN008 BKN014 M01/M02 A3016 RMK AO2 P0001,KCSQ,2019-01-12T20:55:00Z,41.02,-94.37,-1.0,-2.0,40,16,,0.75,30.159449,,,TRUE,TRUE,,,,,,-SN,BKN,800,BKN,1400,,,,,LIFR,,,,,,0.01,,,,,,METAR,394.0
KCXP 122055Z AUTO 00000KT 10SM CLR 05/M01 A3007 RMK AO2,KCXP,2019-01-12T20:55:00Z,39.18,-119.73,5.0,-1.0,0,0,,10.0,30.070866,,,TRUE,TRUE,,,,,,,CLR,,,,,,,,VFR,,,,,,,,,,,,METAR,1435.0
KD60 122055Z AUTO 16010KT 9SM CLR M09/M10 A3021 RMK AO2,KD60,2019-01-12T20:55:00Z,48.38,-102.9,-9.0,-10.0,160,10,,9.0,30.209646,,,TRUE,TRUE,,,,,,,CLR,,,,,,,,VFR,,,,,,,,,,,,METAR,693.0
KD55 122055Z AUTO 22005KT 10SM SCT007 BKN013 OVC022 M08/M08 A3034 RMK AO2,KD55,2019-01-12T20:55:00Z,48.75,-98.4,-8.0,-8.0,220,5,,10.0,30.339567,,,TRUE,TRUE,,,,,,,SCT,700,BKN,1300,OVC,2200,,,MVFR,,,,,,,,,,,,METAR,491.0
KD50 122055Z AUTO 19008KT 10SM CLR M07/M09 A3020 RMK AO2,KD50,2019-01-12T20:55:00Z,48.93,-103.3,-7.0,-9.0,190,8,,10.0,30.200787,,,TRUE,TRUE,,,,,,,CLR,,,,,,,,VFR,,,,,,,,,,,,METAR,595.0
KDEH 122055Z AUTO 07009KT 6SM BR OVC016 M00/M02 A3028 RMK AO2,KDEH,2019-01-12T20:55:00Z,43.27,-91.72,0.0,-2.0,70,9,,6.0,30.280512,,,TRUE,TRUE,,,,,,BR,OVC,1600,,,,,,,MVFR,,,,,,,,,,,,METAR,353.0
KDLL 122055Z AUTO 07012KT 10SM BKN024 OVC044 00/M05 A3033 RMK AO2 T10011050,KDLL,2019-01-12T20:55:00Z,43.52,-89.77,-0.1,-5.0,70,12,,10.0,30.33071,,,TRUE,TRUE,,,,,,,BKN,2400,OVC,4400,,,,,MVFR,,,,,,,,,,,,METAR,299.0
KDNA 122055Z AUTO 12006G12KT 10SM CLR 12/M04 A3016 RMK AO2,KDNA,2019-01-12T20:55:00Z,31.88,-106.7,12.0,-4.0,120,6,12,10.0,30.159449,,,TRUE,TRUE,,,,,,,CLR,,,,,,,,VFR,,,,,,,,,,,,METAR,1253.0
KDNS 122055Z AUTO 04010KT 1 3/4SM -SN SCT013 M01/M01 A3025 RMK AO2,KDNS,2019-01-12T20:55:00Z,41.97,-95.37,-1.0,-1.0,40,10,,1.75,30.250984,,,TRUE,TRUE,,,,,,-SN,SCT,1300,,,,,,,IFR,,,,,,,,,,,,METAR,388.0
KJFX 122055Z AUTO VRB04G11KT 1/2SM BR 08/08 A3000 RMK AO2 PWINO,KJFX,2019-01-12T20:55:00Z,33.9,-87.32,8.0,8.0,0,4,11,0.5,30.0,,,TRUE,TRUE,,,,,TRUE,BR,,,,,,,,,,,,,,,,,,,,,METAR,148.0
KJVY 122055Z AUTO 00000KT 10SM SCT033 SCT085 04/01 A3016 RMK AO2 P0006 60021 T00350005,KJVY,2019-01-12T20:55:00Z,,,3.5,0.5,0,0,,10.0,30.159449,,,TRUE,TRUE,,,,,,,SCT,3300,SCT,8500,,,,,VFR,,,,,,0.06,0.21,,,,,METAR,
KJVW 122055Z AUTO 00000KT 10SM OVC004 15/15 A2993 RMK AO2,KJVW,2019-01-12T20:55:00Z,32.3,-90.42,15.0,15.0,0,0,,10.0,29.929134,,,TRUE,TRUE,,,,,,,OVC,400,,,,,,,LIFR,,,,,,,,,,,,METAR,76.0
KJZI 122055Z AUTO 04009KT 4SM HZ BKN012 BKN050 OVC070 12/09 A3032 RMK AO2 PWINO,KJZI,2019-01-12T20:55:00Z,32.7,-80.0,12.0,9.0,40,9,,4.0,30.318897,,,TRUE,TRUE,,,,,TRUE,HZ,BKN,1200,BKN,5000,OVC,7000,,,MVFR,,,,,,,,,,,,METAR,6.0
KKY8 122055Z AUTO 08007KT 8SM FEW043 FEW049 05/02 A3010 RMK A01,KKY8,2019-01-12T20:55:00Z,37.95,-86.87,5.0,2.0,80,7,,8.0,30.100393,,,TRUE,TRUE,,,,,,,FEW,4300,FEW,4900,,,,,VFR,,,,,,,,,,,,METAR,126.0
KL52 122055Z AUTO 25005KT 9SM FEW041 SCT065 15/10 A2999 RMK A01,KL52,2019-01-12T20:55:00Z,35.1,-120.62,15.0,10.0,250,5,,9.0,29.991142,,,TRUE,TRUE,,,,,,,FEW,4100,SCT,6500,,,,,VFR,,,,,,,,,,,,METAR,4.0
KL08 122055Z AUTO 00000KT 10SM CLR 17/07 A2997 RMK AO2,KL08,2019-01-12T20:55:00Z,33.27,-116.32,17.0,7.0,0,0,,10.0,29.970472,,,TRUE,TRUE,,,,,,,CLR,,,,,,,,VFR,,,,,,,,,,,,METAR,159.0
KLRJ 122055Z AUTO 03007KT 8SM BKN012 OVC020 M02/M03 A3029 RMK AO2,KLRJ,2019-01-12T20:55:00Z,42.77,-96.2,-2.0,-3.0,30,7,,8.0,30.28937,,,TRUE,TRUE,,,,,,,BKN,1200,OVC,2000,,,,,MVFR,,,,,,,,,,,,METAR,365.0
KLRO 122055Z AUTO 03006KT 8SM OVC013 11/08 A3032 RMK AO2,KLRO,2019-01-12T20:55:00Z,32.9,-79.78,11.0,8.0,30,6,,8.0,30.318897,,,TRUE,TRUE,,,,,,,OVC,1300,,,,,,,MVFR,,,,,,,,,,,,METAR,4.0
KM21 122055Z AUTO 08004KT 10SM RA BKN038 OVC048 05/04 A3006 RMK AO2 T00500039,KM21,2019-01-12T20:55:00Z,37.22,-87.15,5.0,3.9,80,4,,10.0,30.059055,,,TRUE,TRUE,,,,,,RA,BKN,3800,OVC,4800,,,,,VFR,,,,,,,,,,,,METAR,129.0
KM40 122055Z AUTO 19005KT 1 1/2SM -RA OVC007 10/10 A2999 RMK AO2,KM40,2019-01-12T20:55:00Z,33.87,-88.48,10.0,10.0,190,5,,1.5,29.991142,,,TRUE,TRUE,,,,,,-RA,OVC,700,,,,,,,IFR,,,,,,,,,,,,METAR,69.0
KTSP 122055Z AUTO 13009KT 3SM -RA CLR 04/02 A3001 RMK AO2 P0001,KTSP,2019-01-12T20:55:00Z,35.13,-118.43,4.0,2.0,130,9,,3.0,30.008858,,,TRUE,TRUE,,,,,,-RA,CLR,,,,,,,,MVFR,,,,,,0.01,,,,,,METAR,1220.0
KTPF 122055Z AUTO 19003KT 10SM SCT060 BKN110 25/16 A3015 RMK AO2,KTPF,2019-01-12T20:55:00Z,27.92,-82.45,25.0,16.0,190,3,,10.0,30.15059,,,TRUE,TRUE,,,,,,,SCT,6000,BKN,11000,,,,,VFR,,,,,,,,,,,,METAR,3.0
KTNU 122055Z AUTO 06012KT M02/M02 A3021 RMK AO2,KTNU,2019-01-12T20:55:00Z,41.67,-93.02,-2.0,-2.0,60,12,,,30.209646,,,TRUE,TRUE,,,,,,,,,,,,,,,,,,,,,,,,,,,METAR,290.0
KTKX 122055Z AUTO 16007KT 7SM OVC007 07/07 A2992 RMK AO2,KTKX,2019-01-12T20:55:00Z,36.22,-90.02,7.0,7.0,160,7,,7.0,29.920275,,,TRUE,TRUE,,,,,,,OVC,700,,,,,,,IFR,,,,,,,,,,,,METAR,80.0
KSUZ 122055Z AUTO 28004KT 2 1/2SM BR OVC003 08/08 A2992 RMK A01,KSUZ,2019-01-12T20:55:00Z,34.58,-92.48,8.0,8.0,280,4,,2.5,29.920275,,,TRUE,TRUE,,,,,,BR,OVC,300,,,,,,,LIFR,,,,,,,,,,,,METAR,119.0
K2V5 122055Z AUTO 36005KT 10SM CLR 05/M01 A3019 RMK AO2,K2V5,2019-01-12T20:55:00Z,40.1,-102.25,5.0,-1.0,360,5,,10.0,30.188976,,,TRUE,TRUE,,,,,,,CLR,,,,,,,,VFR,,,,,,,,,,,,METAR,1118.0
K2P2 122055Z AUTO 07008KT 040V100 10SM SCT023 OVC046 M03/M07 A3050 RMK AO2 T10331071,K2P2,2019-01-12T20:55:00Z,45.38,-86.92,-3.3,-7.1,70,8,,10.0,30.499016,,,TRUE,TRUE,,,,,,,SCT,2300,OVC,4600,,,,,VFR,,,,,,,,,,,,METAR,199.0
K2D5 122055Z AUTO 04004KT 2 1/2SM BR OVC004 M06/M06 A3036 RMK AO2 PWINO,K2D5,2019-01-12T20:55:00Z,46.17,-98.08,-6.0,-6.0,40,4,,2.5,30.360237,,,TRUE,TRUE,,,,,TRUE,BR,OVC,400,,,,,,,LIFR,,,,,,,,,,,,METAR,407.0
K24J 122055Z AUTO 00000KT 10SM SCT043 BKN055 BKN070 22/13 A3016 RMK A01,K24J,2019-01-12T20:55:00Z,30.3,-83.03,22.0,13.0,0,0,,10.0,30.159449,,,TRUE,TRUE,,,,,,,SCT,4300,BKN,5500,BKN,7000,,,VFR,,,,,,,,,,,,METAR,32.0
K20U 122055Z AUTO 16007KT 5SM BR OVC004 M03/M03 A3018 RMK AO2,K20U,2019-01-12T20:55:00Z,46.93,-103.98,-3.0,-3.0,160,7,,5.0,30.180119,,,TRUE,TRUE,,,,,,BR,OVC,400,,,,,,,LIFR,,,,,,,,,,,,METAR,840.0
K0S9 122055Z AUTO 00000KT 10SM CLR 12/05 A2998 RMK AO2,K0S9,2019-01-12T20:55:00Z,48.05,-122.82,12.0,5.0,0,0,,10.0,29.97933,,,TRUE,TRUE,,,,,,,CLR,,,,,,,,VFR,,,,,,,,,,,,METAR,33.0
K08D 122055Z AUTO 17011KT 10SM CLR M10/M11 A3022 RMK AO2,K08D,2019-01-12T20:55:00Z,48.3,-102.4,-10.0,-11.0,170,11,,10.0,30.221457,,,TRUE,TRUE,,,,,,,CLR,,,,,,,,VFR,,,,,,,,,,,,METAR,684.0
K06D 122055Z AUTO 20008KT 10SM BKN006 OVC013 M10/M10 A3031 RMK AO2,K06D,2019-01-12T20:55:00Z,48.88,-99.62,-10.0,-10.0,200,8,,10.0,30.31004,,,TRUE,TRUE,,,,,,,BKN,600,OVC,1300,,,,,IFR,,,,,,,,,,,,METAR,556.0
K33V 122055Z AUTO 32003KT 10SM CLR M05/M07 A3015 RMK AO1,K33V,2019-01-12T20:55:00Z,40.75,-106.28,-5.0,-7.0,320,3,,10.0,30.15059,,,TRUE,TRUE,,,,,,,CLR,,,,,,,,VFR,,,,,,,,,,,,METAR,2484.0
K42J 122055Z AUTO 13006KT 10SM FEW045 SCT055 OVC070 21/10 A3018 RMK A01 TSNO,K42J,2019-01-12T20:55:00Z,29.85,-82.05,21.0,10.0,130,6,,10.0,30.180119,,,TRUE,TRUE,,,TRUE,,,,FEW,4500,SCT,5500,OVC,7000,,,VFR,,,,,,,,,,,,METAR,60.0
K4A6 122055Z AUTO 00000KT 4SM -RA OVC027 07/03 A3010 RMK AO2,K4A6,2019-01-12T20:55:00Z,34.68,-86.0,7.0,3.0,0,0,,4.0,30.100393,,,TRUE,TRUE,,,,,,-RA,OVC,2700,,,,,,,MVFR,,,,,,,,,,,,METAR,198.0
K46D 122055Z AUTO 00000KT 8SM BKN005 OVC020 M08/M08 A3036 RMK AO2,K46D,2019-01-12T20:55:00Z,47.45,-99.15,-8.0,-8.0,0,0,,8.0,30.360237,,,TRUE,TRUE,,,,,,,BKN,500,OVC,2000,,,,,IFR,,,,,,,,,,,,METAR,490.0
KSTF 122055Z AUTO 17007KT 7SM OVC006 10/09 A2998 RMK AO2 PWINO,KSTF,2019-01-12T20:55:00Z,33.43,-88.85,10.0,9.0,170,7,,7.0,29.97933,,,TRUE,TRUE,,,,,TRUE,,OVC,600,,,,,,,IFR,,,,,,,,,,,,METAR,102.0
KSOW 122055Z AUTO 00000KT 10SM CLR 05/M04 A3011 RMK AO2,KSOW,2019-01-12T20:55:00Z,34.27,-110.0,5.0,-4.0,0,0,,10.0,30.109253,,,TRUE,TRUE,,,,,,,CLR,,,,,,,,VFR,,,,,,,,,,,,METAR,1954.0
KSNC 122055Z AUTO 33003KT 10SM CLR M02/M14 A3045 RMK AO2,KSNC,2019-01-12T20:55:00Z,41.38,-72.5,-2.0,-14.0,330,3,,10.0,30.448818,,,TRUE,TRUE,,,,,,,CLR,,,,,,,,VFR,,,,,,,,,,,,METAR,127.0
KSMS 122055Z AUTO VRB08KT 10SM OVC070 07/M03 A3035 RMK AO2,KSMS,2019-01-12T20:55:00Z,34.0,-80.37,7.0,-3.0,0,8,,10.0,30.351377,,,TRUE,TRUE,,,,,,,OVC,7000,,,,,,,VFR,,,,,,,,,,,,METAR,56.0
KSHL 122055Z AUTO 04007KT 7SM OVC011 M02/M02 A3027 RMK AO2,KSHL,2019-01-12T20:55:00Z,43.22,-95.82,-2.0,-2.0,40,7,,7.0,30.268702,,,TRUE,TRUE,,,,,,,OVC,1100,,,,,,,MVFR,,,,,,,,,,,,METAR,432.0
KS33 122055Z AUTO 00000KT 7SM OVC002 M01/M01 A3014 RMK AO2,KS33,2019-01-12T20:55:00Z,44.67,-121.15,-1.0,-1.0,0,0,,7.0,30.138779,,,TRUE,TRUE,,,,,,,OVC,200,,,,,,,LIFR,,,,,,,,,,,,METAR,743.0
KS25 122055Z AUTO 16007KT 8SM CLR M05/M09 A3021 RMK AO2,KS25,2019-01-12T20:55:00Z,47.8,-103.25,-5.0,-9.0,160,7,,8.0,30.209646,,,TRUE,TRUE,,,,,,,CLR,,,,,,,,VFR,,,,,,,,,,,,METAR,644.0
KRYV 122055Z AUTO 08009KT 10SM OVC023 00/M04 A3033 RMK AO2 T10031041,KRYV,2019-01-12T20:55:00Z,43.17,-88.72,-0.3,-4.1,80,9,,10.0,30.33071,,,TRUE,TRUE,,,,,,,OVC,2300,,,,,,,MVFR,,,,,,,,,,,,METAR,254.0
KRVL 122055Z AUTO 00000KT 10SM -UP OVC080 M01/M13 A3043 RMK AO2,KRVL,2019-01-12T20:55:00Z,40.68,-77.63,-1.0,-13.0,0,0,,10.0,30.431103,,,TRUE,TRUE,,,,,,UP,OVC,8000,,,,,,,VFR,,,,,,,,,,,,METAR,250.0
KRNH 122055Z AUTO 09005KT 10SM OVC060 M01/M07 A3037 RMK AO2 T10081066,KRNH,2019-01-12T20:55:00Z,45.15,-92.53,-0.8,-6.6,90,5,,10.0,30.369095,,,TRUE,TRUE,,,,,,,OVC,6000,,,,,,,VFR,,,,,,,,,,,,METAR,304.0
KAZC 122055Z AUTO 09010KT 10SM CLR 11/M07 A3010 RMK AO2,KAZC,2019-01-12T20:55:00Z,36.97,-113.02,11.0,-7.0,90,10,,10.0,30.100393,,,TRUE,TRUE,,,,,,,CLR,,,,,,,,VFR,,,,,,,,,,,,METAR,1486.0
KAJZ 122055Z AUTO 00000KT 7SM SCT100 03/M01 A3017 RMK AO2 T00251010,KAJZ,2019-01-12T20:55:00Z,38.78,-108.07,2.5,-1.0,0,0,,7.0,30.171259,,,TRUE,TRUE,,,,,,,SCT,10000,,,,,,,VFR,,,,,,,,,,,,METAR,1583.0
KAIO 122055Z AUTO 04014KT 4SM BR SCT014 M01/M01 A3020 RMK AO2 P0001,KAIO,2019-01-12T20:55:00Z,41.38,-95.03,-1.0,-1.0,40,14,,4.0,30.200787,,,TRUE,TRUE,,,,,,BR,SCT,1400,,,,,,,MVFR,,,,,,0.01,,,,,,METAR,360.0
KAIB 122055Z AUTO 00000KT 10SM SCT043 SCT055 OVC065 01/M03 A3017 RMK AO2,KAIB,2019-01-12T20:55:00Z,38.23,-108.57,1.0,-3.0,0,0,,10.0,30.171259,,,TRUE,TRUE,,,,,,,SCT,4300,SCT,5500,OVC,6500,,,VFR,,,,,,,,,,,,METAR,1811.0
KAEJ 122055Z AUTO 00000KT 10SM BKN050 OVC070 M04/M07 A3014 RMK AO2 T10381074,KAEJ,2019-01-12T20:55:00Z,38.82,-106.12,-3.8,-7.4,0,0,,10.0,30.138779,,,TRUE,TRUE,,,,,,,BKN,5000,OVC,7000,,,,,VFR,,,,,,,,,,,,METAR,2422.0
KADU 122055Z AUTO 04009KT 2SM -SN BKN009 M01/M03 A3022 RMK AO2,KADU,2019-01-12T20:55:00Z,41.7,-94.92,-1.0,-3.0,40,9,,2.0,30.221457,,,TRUE,TRUE,,,,,,-SN,BKN,900,,,,,,,IFR,,,,,,,,,,,,METAR,392.0
K9D7 122055Z AUTO 21003KT 10SM OVC019 M08/M08 A3037 RMK AO2,K9D7,2019-01-12T20:55:00Z,48.48,-99.23,-8.0,-8.0,210,3,,10.0,30.369095,,,TRUE,TRUE,,,,,,,OVC,1900,,,,,,,MVFR,,,,,,,,,,,,METAR,452.0
K82C 122055Z AUTO 07005KT 5SM HZ OVC019 00/M03 A3035 RMK AO2 T00011030,K82C,2019-01-12T20:55:00Z,43.83,-90.13,0.1,-3.0,70,5,,5.0,30.351377,,,TRUE,TRUE,,,,,,HZ,OVC,1900,,,,,,,MVFR,,,,,,,,,,,,METAR,276.0
K7L2 122055Z AUTO 00000KT 9SM M07/M08 A3035 RMK AO2,K7L2,2019-01-12T20:55:00Z,46.22,-100.25,-7.0,-8.0,0,0,,9.0,30.351377,,,TRUE,TRUE,,,,,,,,,,,,,,,,,,,,,,,,,,,METAR,543.0
K6S2 122055Z AUTO 06003KT 10SM CLR 14/05 A2993 RMK AO2,K6S2,2019-01-12T20:55:00Z,43.98,-124.12,14.0,5.0,60,3,,10.0,29.929134,,,TRUE,TRUE,,,,,,,CLR,,,,,,,,VFR,,,,,,,,,,,,METAR,16.0
K6L4 122055Z AUTO 13005KT 10SM FEW043 BKN075 BKN090 03/M00 A3021 RMK AO2,K6L4,2019-01-12T20:55:00Z,37.85,-81.92,3.0,0.0,130,5,,10.0,30.209646,,,TRUE,TRUE,,,,,,,FEW,4300,BKN,7500,BKN,9000,,,VFR,,,,,,,,,,,,METAR,508.0
K6B9 122055Z AUTO 36003KT 10SM CLR M09/M13 A3049 RMK AO2,K6B9,2019-01-12T20:55:00Z,42.92,-76.43,-9.0,-13.0,360,3,,10.0,30.490158,,,TRUE,TRUE,,,,,,,CLR,,,,,,,,VFR,,,,,,,,,,,,METAR,316.0
K57C 122055Z AUTO 08008KT 10SM OVC022 M01/M04 A3031 RMK AO2 T10071044,K57C,2019-01-12T20:55:00Z,42.8,-88.37,-0.7,-4.4,80,8,,10.0,30.31004,,,TRUE,TRUE,,,,,,,OVC,2200,,,,,,,MVFR,,,,,,,,,,,,METAR,262.0
K4M9 122055Z AUTO 05006KT 1SM BR OVC003 06/06 A2992 RMK AO2 PWINO,K4M9,2019-01-12T20:55:00Z,36.4,-90.65,6.0,6.0,50,6,,1.0,29.920275,,,TRUE,TRUE,,,,,TRUE,BR,OVC,300,,,,,,,LIFR,,,,,,,,,,,,METAR,90.0
KAZE 122055Z AUTO 11005KT 10SM OVC075 17/10 A3021 RMK AO2 T01700101,KAZE,2019-01-12T20:55:00Z,31.88,-82.65,17.0,10.1,110,5,,10.0,30.209646,,,TRUE,TRUE,,,,,,,OVC,7500,,,,,,,VFR,,,,,,,,,,,,METAR,78.0
KDLH 122055Z 10013KT 10SM BKN010 OVC013 M03/M06 A3040 RMK AO2 SLP318 T10281061 55001,KDLH,2019-01-12T20:55:00Z,46.85,-92.2,-2.8,-6.1,100,13,,10.0,30.398623,1031.8,,,TRUE,,,,,,,BKN,1000,OVC,1300,,,,,MVFR,-0.1,,,,,,,,,,,METAR,435.0
KEAT 122055Z AUTO 30003KT 10SM OVC003 01/01 A3021 RMK AO2 SLP243 T00110006 58008,KEAT,2019-01-12T20:55:00Z,47.4,-120.2,1.1,0.6,300,3,,10.0,30.209646,1024.3,,TRUE,TRUE,,,,,,,OVC,300,,,,,,,LIFR,-0.8,,,,,,,,,,,METAR,377.0
KBAM 122055Z AUTO 06011G14KT 10SM CLR 05/M03 A3012 RMK AO1,KBAM,2019-01-12T20:55:00Z,,,5.0,-3.0,60,11,14,10.0,30.121063,,,TRUE,TRUE,,,,,,,CLR,,,,,,,,VFR,,,,,,,,,,,,METAR,
KPHP 122055Z AUTO 10005KT 6SM BR OVC005 M07/M07 A3028 RMK AO2 SLP287 T10671072 57009,KPHP,2019-01-12T20:55:00Z,44.05,-101.6,-6.7,-7.2,100,5,,6.0,30.280512,1028.7,,TRUE,TRUE,,,,,,BR,OVC,500,,,,,,,IFR,-0.9,,,,,,,,,,,METAR,672.0
KANQ 122055Z AUTO 09015G21KT 1/2SM -SN OVC003 M03/M04 A3031 RMK AO2,KANQ,2019-01-12T20:55:00Z,41.63,-85.08,-3.0,-4.0,90,15,21,0.5,30.31004,,,TRUE,TRUE,,,,,,-SN,OVC,300,,,,,,,LIFR,,,,,,,,,,,,METAR,303.0
KANK 122055Z AUTO 00000KT 10SM BKN037 BKN047 M01/M05 A3022 RMK AO1 T10101046,KANK,2019-01-12T20:55:00Z,38.53,-106.05,-1.0,-4.6,0,0,,10.0,30.221457,,,TRUE,TRUE,,,,,,,BKN,3700,BKN,4700,,,,,VFR,,,,,,,,,,,,METAR,2293.0
KAQX 122055Z AUTO 00000KT 10SM OVC075 11/04 A3029 RMK AO2 TSNO,KAQX,2019-01-12T20:55:00Z,32.98,-81.27,11.0,4.0,0,0,,10.0,30.28937,,,TRUE,TRUE,,,TRUE,,,,OVC,7500,,,,,,,VFR,,,,,,,,,,,,METAR,49.0
KBBD 122055Z AUTO 32015G21KT 10SM SCT039 11/01 A3016 RMK AO2,KBBD,2019-01-12T20:55:00Z,31.18,-99.32,11.0,1.0,320,15,21,10.0,30.159449,,,TRUE,TRUE,,,,,,,SCT,3900,,,,,,,VFR,,,,,,,,,,,,METAR,557.0
KBAX 122055Z AUTO 07007KT 10SM OVC017 M03/M06 A3047 RMK AO2 T10351065,KBAX,2019-01-12T20:55:00Z,43.78,-82.98,-3.5,-6.5,70,7,,10.0,30.469488,,,TRUE,TRUE,,,,,,,OVC,1700,,,,,,,MVFR,,,,,,,,,,,,METAR,234.0
KBCK 122055Z AUTO 08008KT 10SM OVC019 01/M04 A3036 RMK AO2 T00051043,KBCK,2019-01-12T20:55:00Z,44.25,-90.85,0.5,-4.3,80,8,,10.0,30.360237,,,TRUE,TRUE,,,,,,,OVC,1900,,,,,,,MVFR,,,,,,,,,,,,METAR,255.0
KBEA 122055Z AUTO 33012G17KT 10SM CLR 24/04 A3007 RMK AO2 T02410035,KBEA,2019-01-12T20:55:00Z,28.37,-97.78,24.1,3.5,330,12,17,10.0,30.070866,,,TRUE,TRUE,,,,,,,CLR,,,,,,,,VFR,,,,,,,,,,,,METAR,82.0
KBEC 122055Z AUTO 35015G20KT 10SM BKN012 OVC019 00/M02 A3011 RMK AO2 T00001023,KBEC,2019-01-12T20:55:00Z,37.7,-97.22,0.0,-2.3,350,15,20,10.0,30.109253,,,TRUE,TRUE,,,,,,,BKN,1200,OVC,1900,,,,,MVFR,,,,,,,,,,,,METAR,429.0
KCDA 122055Z AUTO 25011KT 10SM CLR M13/M18 A3040 RMK AO2 T11261185,KCDA,2019-01-12T20:55:00Z,44.57,-72.02,-12.6,-18.5,250,11,,10.0,30.398623,,,TRUE,TRUE,,,,,,,CLR,,,,,,,,VFR,,,,,,,,,,,,METAR,363.0
KBYY 122055Z AUTO 30011G16KT 10SM CLR 20/09 A3006 RMK AO2 T02020098,KBYY,2019-01-12T20:55:00Z,28.97,-95.87,20.2,9.8,300,11,16,10.0,30.059055,,,TRUE,TRUE,,,,,,,CLR,,,,,,,,VFR,,,,,,,,,,,,METAR,14.0
KBXK 122055Z AUTO 10013G17KT 10SM CLR 18/02 A2999 RMK AO1,KBXK,2019-01-12T20:55:00Z,33.42,-112.68,18.0,2.0,100,13,17,10.0,29.991142,,,TRUE,TRUE,,,,,,,CLR,,,,,,,,VFR,,,,,,,,,,,,METAR,315.0
KBXA 122055Z AUTO 25006G11KT 3SM -RA SCT008 BKN022 OVC060 17/15 A2998 RMK AO2 T01730149,KBXA,2019-01-12T20:55:00Z,30.82,-89.87,17.3,14.9,250,6,11,3.0,29.97933,,,TRUE,TRUE,,,,,,-RA,SCT,800,BKN,2200,OVC,6000,,,MVFR,,,,,,,,,,,,METAR,36.0
KBQK 122055Z AUTO 05010KT 10SM SCT035 BKN060 OVC070 15/12 A3025 RMK AO2,KBQK,2019-01-12T20:55:00Z,31.25,-81.47,15.0,12.0,50,10,,10.0,30.250984,,,TRUE,TRUE,,,,,,,SCT,3500,BKN,6000,OVC,7000,,,VFR,,,,,,,,,,,,METAR,8.0
KBPG 122055Z AUTO 36015KT 10SM CLR 11/00 A3021 RMK AO2 T01090003,KBPG,2019-01-12T20:55:00Z,32.22,-101.52,10.9,0.3,360,15,,10.0,30.209646,,,TRUE,TRUE,,,,,,,CLR,,,,,,,,VFR,,,,,,,,,,,,METAR,784.0
KBPC 122055Z AUTO 35013G20KT 10SM SCT023 06/00 A3019 RMK AO2,KBPC,2019-01-12T20:55:00Z,35.88,-101.03,6.0,0.0,350,13,20,10.0,30.188976,,,TRUE,TRUE,,,,,,,SCT,2300,,,,,,,VFR,,,,,,,,,,,,METAR,845.0
KBKS 122055Z AUTO 34007G17KT 10SM CLR 24/08 A3006 RMK AO1 T02440081,KBKS,2019-01-12T20:55:00Z,27.2,-98.12,24.4,8.1,340,7,17,10.0,30.059055,,,TRUE,TRUE,,,,,,,CLR,,,,,,,,VFR,,,,,,,,,,,,METAR,34.0
KCDH 122055Z AUTO 26011G19KT 9SM SCT018 BKN031 OVC044 13/06 A2994 RMK AO2,KCDH,2019-01-12T20:55:00Z,33.62,-92.77,13.0,6.0,260,11,19,9.0,29.940945,,,TRUE,TRUE,,,,,,,SCT,1800,BKN,3100,OVC,4400,,,VFR,,,,,,,,,,,,METAR,35.0
KCGC 122055Z AUTO 16003KT 10SM SCT050 BKN070 23/12 A3016 RMK AO2,KCGC,2019-01-12T20:55:00Z,28.87,-82.57,23.0,12.0,160,3,,10.0,30.159449,,,TRUE,TRUE,,,,,,,SCT,5000,BKN,7000,,,,,VFR,,,,,,,,,,,,METAR,3.0
KCLW 122055Z AUTO 10004KT 10SM SCT048 23/13 A3015 RMK AO2,KCLW,2019-01-12T20:55:00Z,27.98,-82.75,23.0,13.0,100,4,,10.0,30.15059,,,TRUE,TRUE,,,,,,,SCT,4800,,,,,,,VFR,,,,,,,,,,,,METAR,22.0
KCMD 122055Z AUTO 12008KT 090V150 10SM RA SCT008 BKN018 07/04 A3003 RMK AO2 P0003 60005 T00670038,KCMD,2019-01-12T20:55:00Z,34.27,-86.85,6.7,3.8,120,8,,10.0,30.029528,,,TRUE,TRUE,,,,,,RA,SCT,800,BKN,1800,,,,,MVFR,,,,,,0.03,0.05,,,,,METAR,294.0
KCOM 122055Z AUTO 32013G18KT 10SM OVC035 09/01 A3018 RMK AO2 T00940009,KCOM,2019-01-12T20:55:00Z,31.83,-99.4,9.4,0.9,320,13,18,10.0,30.180119,,,TRUE,TRUE,,,,,,,OVC,3500,,,,,,,VFR,,,,,,,,,,,,METAR,517.0
KCVB 122055Z AUTO 33014KT 10SM CLR 20/03 A3012 RMK AO2 T02030028,KCVB,2019-01-12T20:55:00Z,29.35,-98.85,20.3,2.8,330,14,,10.0,30.121063,,,TRUE,TRUE,,,,,,,CLR,,,,,,,,VFR,,,,,,,,,,,,METAR,235.0
KCWC 122055Z AUTO 34014G21KT 10SM OVC028 06/00 A3019 RMK AO2 T00580000,KCWC,2019-01-12T20:55:00Z,33.85,-98.48,5.8,0.0,340,14,21,10.0,30.188976,,,TRUE,TRUE,,,,,,,OVC,2800,,,,,,,MVFR,,,,,,,,,,,,METAR,305.0
KCXU 122055Z AUTO 00000KT 10SM OVC041 19/12 A3015 RMK AO1 T01940121,KCXU,2019-01-12T20:55:00Z,31.22,-84.23,19.4,12.1,0,0,,10.0,30.15059,,,TRUE,TRUE,,,,,,,OVC,4100,,,,,,,VFR,,,,,,,,,,,,METAR,53.0
KCZL 122055Z AUTO 09005KT 10SM BKN028 06/00 A3019 RMK AO2,KCZL,2019-01-12T20:55:00Z,34.47,-84.93,6.0,0.0,90,5,,10.0,30.188976,,,TRUE,TRUE,,,,,,,BKN,2800,,,,,,,MVFR,,,,,,,,,,,,METAR,195.0
KD95 122055Z AUTO 09006KT 10SM BKN020 BKN026 OVC050 M02/M07 A3043 RMK AO2 T10191073,KD95,2019-01-12T20:55:00Z,43.07,-83.27,-1.9,-7.3,90,6,,10.0,30.431103,,,TRUE,TRUE,,,,,,,BKN,2000,BKN,2600,OVC,5000,,,MVFR,,,,,,,,,,,,METAR,255.0
KDLO 122055Z AUTO 10005KT 10SM CLR 15/06 A2998 RMK AO2 T01480061,KDLO,2019-01-12T20:55:00Z,35.75,-119.23,14.8,6.1,100,5,,10.0,29.97933,,,TRUE,TRUE,,,,,,,CLR,,,,,,,,VFR,,,,,,,,,,,,METAR,96.0
KDRI 122055Z AUTO 26011G15KT 10SM SCT036 SCT044 20/10 A2999 RMK AO2 T02020101,KDRI,2019-01-12T20:55:00Z,30.83,-93.33,20.2,10.1,260,11,15,10.0,29.991142,,,TRUE,TRUE,,,,,,,SCT,3600,SCT,4400,,,,,VFR,,,,,,,,,,,,METAR,63.0
KDUX 122055Z AUTO 35015G20KT 10SM SCT028 SCT034 07/M01 A3018 RMK AO2 T00661008,KDUX,2019-01-12T20:55:00Z,35.85,-102.02,6.6,-0.8,350,15,20,10.0,30.180119,,,TRUE,TRUE,,,,,,,SCT,2800,SCT,3400,,,,,VFR,,,,,,,,,,,,METAR,1129.0
KDZB 122055Z AUTO 32009G20KT 10SM CLR 14/03 A3014 RMK AO2 T01400029,KDZB,2019-01-12T20:55:00Z,30.53,-98.37,14.0,2.9,320,9,20,10.0,30.138779,,,TRUE,TRUE,,,,,,,CLR,,,,,,,,VFR,,,,,,,,,,,,METAR,334.0
KECU 122055Z AUTO 31015KT 10SM CLR 14/02 A3020 RMK AO2,KECU,2019-01-12T20:55:00Z,29.95,-100.17,14.0,2.0,310,15,,10.0,30.200787,,,TRUE,TRUE,,,,,,,CLR,,,,,,,,VFR,,,,,,,,,,,,METAR,725.0
KEDC 122055Z AUTO 32012G22KT 10SM CLR 15/04 A3012 RMK AO2,KEDC,2019-01-12T20:55:00Z,30.4,-97.57,15.0,4.0,320,12,22,10.0,30.121063,,,TRUE,TRUE,,,,,,,CLR,,,,,,,,VFR,,,,,,,,,,,,METAR,189.0
KMNE 122055Z AUTO 28012G18KT 10SM BKN038 15/07 A2997 RMK AO2 T01450068,KMNE,2019-01-12T20:55:00Z,32.65,-93.3,14.5,6.8,280,12,18,10.0,29.970472,,,TRUE,TRUE,,,,,,,BKN,3800,,,,,,,VFR,,,,,,,,,,,,METAR,85.0
KMQB 122055Z AUTO 06015KT 1/4SM SN OVC004 M01/M02 A3017 RMK AO2 T10151020,KMQB,2019-01-12T20:55:00Z,40.52,-90.65,-1.5,-2.0,60,15,,0.25,30.171259,,,TRUE,TRUE,,,,,,SN,OVC,400,,,,,,,LIFR,,,,,,,,,,,,METAR,215.0
KOBE 122055Z AUTO 16005KT 10SM SCT047 SCT070 25/13 A3015 RMK AO2,KOBE,2019-01-12T20:55:00Z,27.27,-80.85,25.0,13.0,160,5,,10.0,30.15059,,,TRUE,TRUE,,,,,,,SCT,4700,SCT,7000,,,,,VFR,,,,,,,,,,,,METAR,11.0
KOEO 122055Z AUTO 08006KT 10SM OVC050 00/M05 A3041 RMK AO2 T10051053,KOEO,2019-01-12T20:55:00Z,45.32,-92.7,-0.5,-5.3,80,6,,10.0,30.410433,,,TRUE,TRUE,,,,,,,OVC,5000,,,,,,,VFR,,,,,,,,,,,,METAR,275.0
KOJA 122055Z AUTO 34011G21KT 10SM OVC017 03/00 A3016 RMK AO2,KOJA,2019-01-12T20:55:00Z,35.55,-98.67,3.0,0.0,340,11,21,10.0,30.159449,,,TRUE,TRUE,,,,,,,OVC,1700,,,,,,,MVFR,,,,,,,,,,,,METAR,490.0
KOLG 122055Z AUTO 06006KT 10SM OVC018 M02/M06 A3041 RMK AO1,KOLG,2019-01-12T20:55:00Z,46.3,-91.82,-2.0,-6.0,60,6,,10.0,30.410433,,,TRUE,TRUE,,,,,,,OVC,1800,,,,,,,MVFR,,,,,,,,,,,,METAR,336.0
KOMH 122055Z AUTO 00000KT 3SM -SN SCT021 BKN037 OVC065 M01/M02 A3047 RMK AO2,KOMH,2019-01-12T20:55:00Z,38.25,-78.05,-1.0,-2.0,0,0,,3.0,30.469488,,,TRUE,TRUE,,,,,,-SN,SCT,2100,BKN,3700,OVC,6500,,,MVFR,,,,,,,,,,,,METAR,142.0
KONP 122055Z AUTO 09005KT 10SM CLR 14/05 A2997 RMK AO2,KONP,2019-01-12T20:55:00Z,44.57,-124.03,14.0,5.0,90,5,,10.0,29.970472,,,TRUE,TRUE,,,,,,,CLR,,,,,,,,VFR,,,,,,,,,,,,METAR,48.0
KOWP 122055Z AUTO 33010G15KT 10SM OVC018 04/01 A3006 RMK AO2 T00420013,KOWP,2019-01-12T20:55:00Z,36.18,-96.15,4.2,1.3,330,10,15,10.0,30.059055,,,TRUE,TRUE,,,,,,,OVC,1800,,,,,,,MVFR,,,,,,,,,,,,METAR,272.0
KPCM 122055Z AUTO 17005KT 10SM SCT048 26/13 A3017 RMK AO2,KPCM,2019-01-12T20:55:00Z,28.0,-82.17,26.0,13.0,170,5,,10.0,30.171259,,,TRUE,TRUE,,,,,,,SCT,4800,,,,,,,VFR,,,,,,,,,,,,METAR,47.0
KPIM 122055Z AUTO 11008KT 10SM SCT039 BKN045 OVC095 09/05 A3014 RMK AO2 T00910047 PWINO,KPIM,2019-01-12T20:55:00Z,32.83,-84.88,9.1,4.7,110,8,,10.0,30.138779,,,TRUE,TRUE,,,,,TRUE,,SCT,3900,BKN,4500,OVC,9500,,,VFR,,,,,,,,,,,,METAR,275.0
KPKV 122055Z AUTO 33008KT 280V340 10SM CLR 22/12 A3007 RMK AO2 T02220118,KPKV,2019-01-12T20:55:00Z,28.65,-96.68,22.2,11.8,330,8,,10.0,30.070866,,,TRUE,TRUE,,,,,,,CLR,,,,,,,,VFR,,,,,,,,,,,,METAR,9.0
KPOV 122055Z AUTO 10004KT 1 1/4SM OVC017 M04/M06 A3036 RMK AO2 T10411064 PWINO,KPOV,2019-01-12T20:55:00Z,41.22,-81.25,-4.1,-6.4,100,4,,1.25,30.360237,,,TRUE,TRUE,,,,,TRUE,,OVC,1700,,,,,,,IFR,,,,,,,,,,,,METAR,365.0
KPRS 122055Z AUTO 27003KT 10SM CLR 17/00 A3017 RMK AO2 T01690004,KPRS,2019-01-12T20:55:00Z,29.63,-104.35,16.9,0.4,270,3,,10.0,30.171259,,,TRUE,TRUE,,,,,,,CLR,,,,,,,,VFR,,,,,,,,,,,,METAR,896.0
KPTB 122055Z AUTO 00000KT 4SM -SN SCT025 BKN033 OVC040 01/M03 A3048 RMK AO2 T00081035,KPTB,2019-01-12T20:55:00Z,37.17,-77.52,0.8,-3.5,0,0,,4.0,30.481298,,,TRUE,TRUE,,,,,,-SN,SCT,2500,BKN,3300,OVC,4000,,,MVFR,,,,,,,,,,,,METAR,59.0
KPUJ 122055Z AUTO 13009KT 10SM OVC019 05/00 A3015 RMK AO2,KPUJ,2019-01-12T20:55:00Z,33.92,-84.93,5.0,0.0,130,9,,10.0,30.15059,,,TRUE,TRUE,,,,,,,OVC,1900,,,,,,,MVFR,,,,,,,,,,,,METAR,393.0
KPVJ 122055Z AUTO 33014G20KT 10SM BKN019 OVC028 04/01 A3009 RMK AO2 T00380010,KPVJ,2019-01-12T20:55:00Z,34.72,-97.22,3.8,1.0,330,14,20,10.0,30.088583,,,TRUE,TRUE,,,,,,,BKN,1900,OVC,2800,,,,,MVFR,,,,,,,,,,,,METAR,295.0
KRAW 122055Z AUTO 01009KT 7SM OVC006 A2999 RMK AO2,KRAW,2019-01-12T20:55:00Z,38.35,-93.35,,,10,9,,7.0,29.991142,,,TRUE,TRUE,,,,,,,OVC,600,,,,,,,IFR,,,,,,,,,,,,METAR,285.0
KRBW 122055Z AUTO 00000KT 10SM OVC070 10/05 A3031 RMK AO2,KRBW,2019-01-12T20:55:00Z,32.92,-80.63,10.0,5.0,0,0,,10.0,30.31004,,,TRUE,TRUE,,,,,,,OVC,7000,,,,,,,VFR,,,,,,,,,,,,METAR,31.0
KRGA 122055Z AUTO 00000KT 4SM BKN035 OVC041 01/01 A3017 RMK AO2,KRGA,2019-01-12T20:55:00Z,37.63,-84.33,1.0,1.0,0,0,,4.0,30.171259,,,TRUE,TRUE,,,,,,,BKN,3500,OVC,4100,,,,,MVFR,,,,,,,,,,,,METAR,305.0
KRKR 122055Z AUTO 32008KT 10SM SCT005 OVC013 06/05 A2996 RMK AO2 P0001,KRKR,2019-01-12T20:55:00Z,35.02,-94.62,6.0,5.0,320,8,,10.0,29.958662,,,TRUE,TRUE,,,,,,,SCT,500,OVC,1300,,,,,MVFR,,,,,,0.01,,,,,,METAR,138.0
KRMY 122055Z AUTO 07006KT 10SM OVC019 M01/M04 A3034 RMK AO2 T10101044,KRMY,2019-01-12T20:55:00Z,42.23,-84.95,-1.0,-4.4,70,6,,10.0,30.339567,,,TRUE,TRUE,,,,,,,OVC,1900,,,,,,,MVFR,,,,,,,,,,,,METAR,287.0
KRSN 122055Z AUTO 24003KT 10SM SCT021 BKN025 OVC035 15/10 A2996 RMK AO2 T01530102,KRSN,2019-01-12T20:55:00Z,32.52,-92.58,15.3,10.2,240,3,,10.0,29.958662,,,TRUE,TRUE,,,,,,,SCT,2100,BKN,2500,OVC,3500,,,MVFR,,,,,,,,,,,,METAR,95.0
KRSV 122055Z AUTO 09009KT 10SM OVC050 01/00 A3013 RMK AO2 T00121002,KRSV,2019-01-12T20:55:00Z,39.02,-87.65,1.2,-0.2,90,9,,10.0,30.129921,,,TRUE,TRUE,,,,,,,OVC,5000,,,,,,,VFR,,,,,,,,,,,,METAR,141.0
KRYW 122055Z AUTO 31010G22KT 280V340 10SM CLR 14/03 A3012 RMK AO2 T01430034,KRYW,2019-01-12T20:55:00Z,30.5,-97.97,14.3,3.4,310,10,22,10.0,30.121063,,,TRUE,TRUE,,,,,,,CLR,,,,,,,,VFR,,,,,,,,,,,,METAR,376.0
KSAR 122055Z AUTO 07010KT 2SM -RA OVC005 01/01 A3002 RMK AO2 P0013 60024 T00080008,KSAR,2019-01-12T20:55:00Z,38.15,-89.7,0.8,0.8,70,10,,2.0,30.02067,,,TRUE,TRUE,,,,,,-RA,OVC,500,,,,,,,IFR,,,,,,0.13,0.24,,,,,METAR,164.0
KSCD 122055Z AUTO 13008KT 10SM OVC022 11/06 A3007 RMK AO2 T01050061,KSCD,2019-01-12T20:55:00Z,33.17,-86.3,10.5,6.1,130,8,,10.0,30.070866,,,TRUE,TRUE,,,,,,,OVC,2200,,,,,,,MVFR,,,,,,,,,,,,METAR,173.0
KSDA 122055Z AUTO 02014KT 3/4SM RA SCT008 SCT012 BKN031 M01/M01 A3019 RMK AO2,KSDA,2019-01-12T20:55:00Z,40.75,-95.42,-1.0,-1.0,20,14,,0.75,30.188976,,,TRUE,TRUE,,,,,,RA,SCT,800,SCT,1200,BKN,3100,,,LIFR,,,,,,,,,,,,METAR,296.0
KSEP 122055Z AUTO 32015G21KT 10SM OVC031 08/00 A3018 RMK AO2 T00760003,KSEP,2019-01-12T20:55:00Z,32.22,-98.17,7.6,0.3,320,15,21,10.0,30.180119,,,TRUE,TRUE,,,,,,,OVC,3100,,,,,,,VFR,,,,,,,,,,,,METAR,402.0
KSEZ 122055Z AUTO 00000KT 10SM CLR 12/M03 A3006 RMK AO2,KSEZ,2019-01-12T20:55:00Z,34.85,-111.78,12.0,-3.0,0,0,,10.0,30.059055,,,TRUE,TRUE,,,,,,,CLR,,,,,,,,VFR,,,,,,,,,,,,METAR,1473.0
KSLB 122055Z AUTO 06011KT 6SM BR FEW013 SCT019 OVC025 M01/M03 A3025 RMK AO2,KSLB,2019-01-12T20:55:00Z,42.6,-95.22,-1.0,-3.0,60,11,,6.0,30.250984,,,TRUE,TRUE,,,,,,BR,FEW,1300,SCT,1900,OVC,2500,,,MVFR,,,,,,,,,,,,METAR,454.0
KSLO 122055Z AUTO 07010KT 4SM DZ SCT010 BKN039 OVC050 02/01 A3005 RMK AO2 T00210007,KSLO,2019-01-12T20:55:00Z,38.65,-88.97,2.1,0.7,70,10,,4.0,30.050198,,,TRUE,TRUE,,,,,,DZ,SCT,1000,BKN,3900,OVC,5000,,,MVFR,,,,,,,,,,,,METAR,175.0
PAUT 122055Z AUTO 09020G27KT 10SM SCT018 BKN030 OVC035 04/02 A2888 RMK AO2 P0001 60001 T00400021,PAUT,2019-01-12T20:55:00Z,54.15,-165.6,4.0,2.1,90,20,27,10.0,28.880905,,,TRUE,TRUE,,,,,,,SCT,1800,BKN,3000,OVC,3500,,,MVFR,,,,,,0.01,0.01,,,,,METAR,25.0
KOGS 122055Z AUTO 29005KT 10SM CLR M10/M20 A3055 RMK AO2 T11011202,KOGS,2019-01-12T20:55:00Z,44.67,-75.47,-10.1,-20.2,290,5,,10.0,30.549213,,,TRUE,TRUE,,,,,,,CLR,,,,,,,,VFR,,,,,,,,,,,,METAR,91.0
TNCE 122055Z AUTO 07008KT 030V090 //// // ///////// 25/22 Q1017 RE//,TNCE,2019-01-12T20:55:00Z,17.47,-62.97,25.0,22.0,70,8,,,30.029528,,,TRUE,,,,,,,,,,,,,,,,,,,,,,,,,,,,METAR,39.0
TNCB 122055Z 09016KT 050V120 9999 FEW021 28/21 Q1013,TNCB,2019-01-12T20:55:00Z,12.13,-68.28,28.0,21.0,90,16,,6.21,29.911417,,,,,,,,,,,FEW,2100,,,,,,,VFR,,,,,,,,,,,,METAR,6.0
OPKC 122055Z 00000KT 4000 FU NSC 16/06 Q1017 NOSIG,OPKC,2019-01-12T20:55:00Z,24.88,67.17,16.0,6.0,0,0,,2.49,30.029528,,,,,,TRUE,,,,FU,CLR,,,,,,,,IFR,,,,,,,,,,,,METAR,22.0
OPIS 122055Z 00000KT 5000 BR NSC 05/04 Q1019 RH97,OPIS,2019-01-12T20:55:00Z,33.55,72.83,5.0,4.0,0,0,,3.11,30.088583,,,,,,,,,,BR,CLR,,,,,,,,MVFR,,,,,,,,,,,,METAR,537.0
EBLB 122055Z AUTO 29011KT 4000 -RA OVC005/// 04/03 Q1013 YLO,EBLB,2019-01-12T20:55:00Z,50.47,6.17,4.0,3.0,290,11,,2.49,29.911417,,,TRUE,,,,,,,-RA,OVC,500,,,,,,,IFR,,,,,,,,,,,,METAR,570.0
EBCV 122055Z AUTO 25008KT 9999 OVC028/// 07/06 Q1017 BLU,EBCV,2019-01-12T20:55:00Z,50.57,3.82,7.0,6.0,250,8,,6.21,30.029528,,,TRUE,,,,,,,,OVC,2800,,,,,,,MVFR,,,,,,,,,,,,METAR,63.0
EBBE 122055Z AUTO 27010KT 9999 FEW012/// SCT016/// BKN023/// 07/05 Q1016 WHT,EBBE,2019-01-12T20:55:00Z,50.75,4.77,7.0,5.0,270,10,,6.21,30.0,,,TRUE,,,,,,,,FEW,1200,SCT,1600,BKN,2300,,,MVFR,,,,,,,,,,,,METAR,127.0
KBDN 122055Z AUTO 11007KT 10SM CLR 08/M03 A3006 RMK AO2,KBDN,2019-01-12T20:55:00Z,44.1,-121.2,8.0,-3.0,110,7,,10.0,30.059055,,,TRUE,TRUE,,,,,,,CLR,,,,,,,,VFR,,,,,,,,,,,,METAR,1055.0
KBAC 122055Z AUTO 00000KT 3SM BR OVC004 M07/M07 A3037 RMK AO2,KBAC,2019-01-12T20:55:00Z,46.93,-98.02,-7.0,-7.0,0,0,,3.0,30.369095,,,TRUE,TRUE,,,,,,BR,OVC,400,,,,,,,LIFR,,,,,,,,,,,,METAR,427.0
KAXA 122055Z AUTO 06007KT 9SM FEW017 BKN041 OVC055 M00/M03 A3027 RMK AO2 PWINO,KAXA,2019-01-12T20:55:00Z,43.07,-94.27,0.0,-3.0,60,7,,9.0,30.268702,,,TRUE,TRUE,,,,,TRUE,,FEW,1700,BKN,4100,OVC,5500,,,VFR,,,,,,,,,,,,METAR,372.0
KAWG 122055Z AUTO 05015KT 1SM -SN CLR M01/M01 A3020 RMK AO2,KAWG,2019-01-12T20:55:00Z,41.27,-91.67,-1.0,-1.0,50,15,,1.0,30.200787,,,TRUE,TRUE,,,,,,-SN,CLR,,,,,,,,IFR,,,,,,,,,,,,METAR,230.0
KBRG 122055Z AUTO 14006KT 10SM CLR 08/M01 A3016 RMK AO2 T00801011,KBRG,2019-01-12T20:55:00Z,34.65,-106.83,8.0,-1.1,140,6,,10.0,30.159449,,,TRUE,TRUE,,,,,,,CLR,,,,,,,,VFR,,,,,,,,,,,,METAR,1585.0
KBNW 122055Z AUTO 06014KT 1SM -SN SCT011 M02/M02 A3023 RMK AO2,KBNW,2019-01-12T20:55:00Z,42.03,-93.83,-2.0,-2.0,60,14,,1.0,30.230314,,,TRUE,TRUE,,,,,,-SN,SCT,1100,,,,,,,IFR,,,,,,,,,,,,METAR,354.0
KBKN 122055Z AUTO 34017G23KT 10SM OVC020 03/02 A3014 RMK AO2,KBKN,2019-01-12T20:55:00Z,36.75,-97.35,3.0,2.0,340,17,23,10.0,30.138779,,,TRUE,TRUE,,,,,,,OVC,2000,,,,,,,MVFR,,,,,,,,,,,,METAR,314.0
KBVU 122055Z AUTO 02010KT 10SM CLR 14/M04 A3004 RMK AO2,KBVU,2019-01-12T20:55:00Z,35.95,-114.87,14.0,-4.0,20,10,,10.0,30.041338,,,TRUE,TRUE,,,,,,,CLR,,,,,,,,VFR,,,,,,,,,,,,METAR,671.0
KBUU 122055Z AUTO 09009G18KT 1 1/2SM -SN OVC013 M02/M05 A3032 RMK AO2 T10161047,KBUU,2019-01-12T20:55:00Z,42.68,-88.3,-1.6,-4.7,90,9,18,1.5,30.318897,,,TRUE,TRUE,,,,,,-SN,OVC,1300,,,,,,,IFR,,,,,,,,,,,,METAR,237.0
KBRY 122055Z AUTO 08005KT 10SM SCT034 03/00 A3013 RMK AO1,KBRY,2019-01-12T20:55:00Z,37.82,-85.5,3.0,0.0,80,5,,10.0,30.129921,,,TRUE,TRUE,,,,,,,SCT,3400,,,,,,,VFR,,,,,,,,,,,,METAR,204.0
KBWW 122055Z AUTO 18006KT M1/4SM FZFG OVC003 M04/M04 A3007 RMK AO2,KBWW,2019-01-12T20:55:00Z,46.17,-103.3,-4.0,-4.0,180,6,,0.25,30.070866,,,TRUE,TRUE,,,,,,FZFG,OVC,300,,,,,,,LIFR,,,,,,,,,,,,METAR,910.0
KEBS 122055Z AUTO 06012KT 1 1/2SM -SN BKN011 M01/M02 A3024 RMK AO2,KEBS,2019-01-12T20:55:00Z,42.42,-93.87,-1.0,-2.0,60,12,,1.5,30.239174,,,TRUE,TRUE,,,,,,-SN,BKN,1100,,,,,,,IFR,,,,,,,,,,,,SPECI,342.0
KHCR 122055Z AUTO 00000KT 10SM CLR 00/M07 A3017 RMK AO2,KHCR,2019-01-12T20:55:00Z,40.48,-111.43,0.0,-7.0,0,0,,10.0,30.171259,,,TRUE,TRUE,,,,,,,CLR,,,,,,,,VFR,,,,,,,,,,,,METAR,1706.0
KGZL 122055Z AUTO 32012G19KT 10SM OVC008 03/03 A3000 RMK AO2,KGZL,2019-01-12T20:55:00Z,35.28,-95.1,3.0,3.0,320,12,19,10.0,30.0,,,TRUE,TRUE,,,,,,,OVC,800,,,,,,,IFR,,,,,,,,,,,,METAR,183.0
KGYB 122055Z AUTO 31010G17KT 10SM CLR 15/04 A3010 RMK AO2 T01480042,KGYB,2019-01-12T20:55:00Z,30.17,-96.98,14.8,4.2,310,10,17,10.0,30.100393,,,TRUE,TRUE,,,,,,,CLR,,,,,,,,VFR,,,,,,,,,,,,METAR,148.0
KGWB 122055Z AUTO 07012KT 3/4SM -SN OVC007 M03/M03 A3031 RMK AO2 P0001,KGWB,2019-01-12T20:55:00Z,41.3,-85.07,-3.0,-3.0,70,12,,0.75,30.31004,,,TRUE,TRUE,,,,,,-SN,OVC,700,,,,,,,LIFR,,,,,,0.01,,,,,,METAR,269.0
KGMJ 122055Z AUTO 32010KT 4SM -RA OVC007 02/01 A2999 RMK AO2,KGMJ,2019-01-12T20:55:00Z,36.6,-94.73,2.0,1.0,320,10,,4.0,29.991142,,,TRUE,TRUE,,,,,,-RA,OVC,700,,,,,,,IFR,,,,,,,,,,,,METAR,254.0
KGLW 122055Z AUTO 12005KT 10SM -DZ BKN049 OVC060 08/02 A3009 RMK AO2 T00820017,KGLW,2019-01-12T20:55:00Z,37.03,-85.95,8.2,1.7,120,5,,10.0,30.088583,,,TRUE,TRUE,,,,,,-DZ,BKN,4900,OVC,6000,,,,,VFR,,,,,,,,,,,,METAR,218.0
KGAO 122055Z AUTO 28014G19KT 10SM SCT015 SCT026 OVC036 21/16 A3001 RMK AO2 60001 T02100159,KGAO,2019-01-12T20:55:00Z,29.45,-90.27,21.0,15.9,280,14,19,10.0,30.008858,,,TRUE,TRUE,,,,,,,SCT,1500,SCT,2600,OVC,3600,,,VFR,,,,,,,0.01,,,,,METAR,1.0
KFWZ 122055Z AUTO 21003KT 10SM CLR 00/M15 A3007 RMK AO2,KFWZ,2019-01-12T20:55:00Z,42.52,-108.78,0.0,-15.0,210,3,,10.0,30.070866,,,TRUE,TRUE,,,,,,,CLR,,,,,,,,VFR,,,,,,,,,,,,METAR,2588.0
KFSW 122055Z AUTO 05013G17KT 1/2SM -SN OVC009 M01/M02 A3015 RMK AO2,KFSW,2019-01-12T20:55:00Z,40.67,-91.32,-1.0,-2.0,50,13,17,0.5,30.15059,,,TRUE,TRUE,,,,,,-SN,OVC,900,,,,,,,LIFR,,,,,,,,,,,,METAR,221.0
KFSO 122055Z AUTO 35007KT 10SM CLR M13/M19 A3054 RMK AO2 T11301190,KFSO,2019-01-12T20:55:00Z,44.93,-73.1,-13.0,-19.0,350,7,,10.0,30.540354,,,TRUE,TRUE,,,,,,,CLR,,,,,,,,VFR,,,,,,,,,,,,METAR,70.0
KFRH 122055Z AUTO 06008KT 10SM SCT050 BKN065 OVC085 01/M03 A3012 RMK AO1,KFRH,2019-01-12T20:55:00Z,38.5,-86.63,1.0,-3.0,60,8,,10.0,30.121063,,,TRUE,TRUE,,,,,,,SCT,5000,BKN,6500,OVC,8500,,,VFR,,,,,,,,,,,,METAR,241.0
KFLY 122055Z AUTO 03008KT 10SM CLR 01/M05 A3016 RMK AO2 T00091047,KFLY,2019-01-12T20:55:00Z,38.95,-104.57,0.9,-4.7,30,8,,10.0,30.159449,,,TRUE,TRUE,,,,,,,CLR,,,,,,,,VFR,,,,,,,,,,,,METAR,2096.0
KFKR 122055Z AUTO 10013G18KT 1SM -SN OVC007 00/M02 A3022 RMK AO2 T00001020 TSNO,KFKR,2019-01-12T20:55:00Z,40.27,-86.57,0.0,-2.0,100,13,18,1.0,30.221457,,,TRUE,TRUE,,,TRUE,,,-SN,OVC,700,,,,,,,IFR,,,,,,,,,,,,METAR,262.0
KFGX 122055Z AUTO 09008KT 10SM OVC046 00/M01 A3021 RMK AO2 T00001006,KFGX,2019-01-12T20:55:00Z,38.55,-83.75,0.0,-0.6,90,8,,10.0,30.209646,,,TRUE,TRUE,,,,,,,OVC,4600,,,,,,,VFR,,,,,,,,,,,,METAR,278.0
KFFX 122055Z AUTO 08009G15KT 10SM OVC060 M01/M08 A3040 RMK AO2 T10101081,KFFX,2019-01-12T20:55:00Z,43.43,-86.0,-1.0,-8.1,80,9,15,10.0,30.398623,,,TRUE,TRUE,,,,,,,OVC,6000,,,,,,,VFR,,,,,,,,,,,,METAR,236.0
KF46 122055Z AUTO 30018G22KT 10SM OVC024 09/04 A3011 RMK AO2 T00890038,KF46,2019-01-12T20:55:00Z,32.93,-96.43,8.9,3.8,300,18,22,10.0,30.109253,,,TRUE,TRUE,,,,,,,OVC,2400,,,,,,,MVFR,,,,,,,,,,,,METAR,176.0
KF17 122055Z AUTO 30011G16KT 260V320 10SM CLR 15/04 A3002 RMK AO2 T01500037,KF17,2019-01-12T20:55:00Z,31.83,-94.15,15.0,3.7,300,11,16,10.0,30.02067,,,TRUE,TRUE,,,,,,,CLR,,,,,,,,VFR,,,,,,,,,,,,METAR,97.0
KF05 122055Z AUTO 35017G20KT 10SM OVC029 07/01 A3019 RMK AO1 T00670009,KF05,2019-01-12T20:55:00Z,34.23,-99.28,6.7,0.9,350,17,20,10.0,30.188976,,,TRUE,TRUE,,,,,,,OVC,2900,,,,,,,MVFR,,,,,,,,,,,,METAR,386.0
KERV 122055Z AUTO 31014G18KT 10SM CLR 15/03 A3013 RMK AO2 T01510027,KERV,2019-01-12T20:55:00Z,29.98,-99.08,15.1,2.7,310,14,18,10.0,30.129921,,,TRUE,TRUE,,,,,,,CLR,,,,,,,,VFR,,,,,,,,,,,,METAR,510.0
KEFT 122055Z AUTO 1 3/4SM -SN OVC006 M01/M02 A3027 RMK AO2 T10101020,KEFT,2019-01-12T20:55:00Z,42.62,-89.6,-1.0,-2.0,,,,1.75,30.268702,,,TRUE,TRUE,,,,,,-SN,OVC,600,,,,,,,IFR,,,,,,,,,,,,METAR,331.0
KEDN 122055Z AUTO 12004KT 10SM -RA SCT024 SCT046 BKN085 15/12 A3009 RMK AO2 T01540122,KEDN,2019-01-12T20:55:00Z,31.3,-85.9,15.4,12.2,120,4,,10.0,30.088583,,,TRUE,TRUE,,,,,,-RA,SCT,2400,SCT,4600,BKN,8500,,,VFR,,,,,,,,,,,,METAR,110.0
LICT 122055Z 33014KT 9999 FEW020 BKN050 11/03 Q1019 RMK BKN VIS MIN 9999 WIND THR13 32017KT BLU,LICT,2019-01-12T20:55:00Z,37.92,12.5,11.0,3.0,330,14,,6.21,30.088583,,,,,,,,,,,FEW,2000,BKN,5000,,,,,VFR,,,,,,,,,,,,METAR,7.0
LIRS 122055Z 04003KT CAVOK M01/M02 Q1018 RMK SKC VIS MIN 9999 WIND THR03 06004KT WIND THR21 03002KT BLU,LIRS,2019-01-12T20:55:00Z,42.75,11.07,-1.0,-2.0,40,3,,6.21,30.059055,,,,,,,,,,,CAVOK,,,,,,,,VFR,,,,,,,,,,,,SPECI,7.0
LIRM 122055Z /////KT CAVOK 00/M04 Q1017,LIRM,2019-01-12T20:55:00Z,41.03,14.07,0.0,-4.0,,,,6.21,30.029528,,,,,,,,,,,CAVOK,,,,,,,,VFR,,,,,,,,,,,,METAR,10.0
LIPC 122055Z 21002KT CAVOK M01/M03 Q1014 RMK SKC VIS MIN 9999 WIND THR11 /////KT WIND THR29 21002KT BLU,LIPC,2019-01-12T20:55:00Z,44.22,12.3,-1.0,-3.0,210,2,,6.21,29.940945,,,,,,,,,,,CAVOK,,,,,,,,VFR,,,-0.2,,,,,,,,,METAR,10.0
KHHF 122055Z AUTO 33015G18KT 10SM OVC020 05/01 A3019 RMK AO2 T00450006,KHHF,2019-01-12T20:55:00Z,35.9,-100.4,4.5,0.6,330,15,18,10.0,30.188976,,,TRUE,TRUE,,,,,,,OVC,2000,,,,,,,MVFR,,,,,,,,,,,,METAR,712.0
KHFY 122055Z AUTO 10007KT 1SM OVC005 00/M01 A3020 RMK AO2 T00001006,KHFY,2019-01-12T20:55:00Z,39.63,-86.08,0.0,-0.6,100,7,,1.0,30.200787,,,TRUE,TRUE,,,,,,,OVC,500,,,,,,,IFR,,,,,,,,,,,,METAR,251.0
KHFJ 122055Z AUTO 34004KT 2 1/2SM -DZ OVC003 02/02 A2992 RMK AO2 VIS 2V5,KHFJ,2019-01-12T20:55:00Z,36.9,-94.02,2.0,2.0,340,4,,2.5,29.920275,,,TRUE,TRUE,,,,,,-DZ,OVC,300,,,,,,,LIFR,,,,,,,,,,,,METAR,401.0
KHMZ 122055Z AUTO 15004KT 10SM SCT044 BKN050 OVC080 M02/M07 A3039 RMK AO2 T10171073,KHMZ,2019-01-12T20:55:00Z,40.08,-78.52,-1.7,-7.3,150,4,,10.0,30.389763,,,TRUE,TRUE,,,,,,,SCT,4400,BKN,5000,OVC,8000,,,VFR,,,,,,,,,,,,METAR,354.0
KXLL 122055Z AUTO 00000KT 10SM CLR 00/M13 A3048 RMK AO2,KXLL,2019-01-12T20:55:00Z,40.57,-75.48,0.0,-13.0,0,0,,10.0,30.481298,,,TRUE,TRUE,,,,,,,CLR,,,,,,,,VFR,,,,,,,,,,,,SPECI,122.0
KVYS 122055Z AUTO 07015KT 1 3/4SM -SN OVC006 M01/M03 A3023 RMK AO2 T10151027,KVYS,2019-01-12T20:55:00Z,41.35,-89.15,-1.5,-2.7,70,15,,1.75,30.230314,,,TRUE,TRUE,,,,,,-SN,OVC,600,,,,,,,IFR,,,,,,,,,,,,SPECI,199.0
KVDI 122055Z AUTO 09008KT 10SM OVC070 14/07 A3024 RMK AO2,KVDI,2019-01-12T20:55:00Z,32.2,-82.37,14.0,7.0,90,8,,10.0,30.239174,,,TRUE,TRUE,,,,,,,OVC,7000,,,,,,,VFR,,,,,,,,,,,,SPECI,84.0
KULM 122055Z AUTO 05008KT 10SM SCT055 SCT070 M03/M06 A3033 RMK AO2,KULM,2019-01-12T20:55:00Z,44.32,-94.5,-3.0,-6.0,50,8,,10.0,30.33071,,,TRUE,TRUE,,,,,,,SCT,5500,SCT,7000,,,,,VFR,,,,,,,,,,,,SPECI,308.0
KTWM 122055Z AUTO 08008G14KT 10SM OVC012 M03/M06 A3042 RMK AO2,KTWM,2019-01-12T20:55:00Z,47.03,-91.75,-3.0,-6.0,80,8,14,10.0,30.41929,,,TRUE,TRUE,,,,,,,OVC,1200,,,,,,,MVFR,,,,,,,,,,,,SPECI,328.0
KTOC 122055Z AUTO 05005KT 10SM -RA OVC026 03/M01 A3028 RMK AO2 T00281015,KTOC,2019-01-12T20:55:00Z,34.6,-83.3,2.8,-1.5,50,5,,10.0,30.280512,,,TRUE,TRUE,,,,,,-RA,OVC,2600,,,,,,,MVFR,,,,,,,,,,,,SPECI,304.0
KTMK 122055Z AUTO 00000KT 10SM CLR 13/02 A2996 RMK AO2,KTMK,2019-01-12T20:55:00Z,45.42,-123.82,13.0,2.0,0,0,,10.0,29.958662,,,TRUE,TRUE,,,,,,,CLR,,,,,,,,VFR,,,,,,,,,,,,METAR,11.0
KTIP 122055Z AUTO 06014KT 2SM -SN BKN008 OVC013 M01/M02 A3016 RMK AO2 60001 T10121018,KTIP,2019-01-12T20:55:00Z,40.28,-88.15,-1.2,-1.8,60,14,,2.0,30.159449,,,TRUE,TRUE,,,,,,-SN,BKN,800,OVC,1300,,,,,IFR,,,,,,,,,,,,SPECI,225.0
KTFP 122055Z AUTO 34008KT 10SM CLR 24/12 A3006 RMK AO2 T02420122 PNO,KTFP,2019-01-12T20:55:00Z,27.92,-97.22,24.2,12.2,340,8,,10.0,30.059055,,,TRUE,TRUE,,,,,,,CLR,,,,,,,,VFR,,,,,,,,,,,,METAR,6.0
KTAZ 122055Z AUTO 08010G16KT 7SM OVC006 00/M01 A3010 RMK AO2 T00001006,KTAZ,2019-01-12T20:55:00Z,39.53,-89.33,0.0,-0.6,80,10,16,7.0,30.100393,,,TRUE,TRUE,,,,,,,OVC,600,,,,,,,IFR,,,,,,,,,,,,SPECI,190.0
KT35 122055Z AUTO 34014G23KT 10SM CLR 14/04 A3012 RMK AO2 T01410038,KT35,2019-01-12T20:55:00Z,30.88,-96.97,14.1,3.8,340,14,23,10.0,30.121063,,,TRUE,TRUE,,,,,,,CLR,,,,,,,,VFR,,,,,,,,,,,,METAR,123.0
KT20 122055Z AUTO 32009G17KT 10SM CLR 19/07 A3009 RMK AO2 T01920069,KT20,2019-01-12T20:55:00Z,29.52,-97.47,19.2,6.9,320,9,17,10.0,30.088583,,,TRUE,TRUE,,,,,,,CLR,,,,,,,,VFR,,,,,,,,,,,,METAR,108.0
KSYN 122055Z AUTO 07006KT 7SM BKN018 OVC060 00/M04 A3034 RMK AO2 T10051041,KSYN,2019-01-12T20:55:00Z,44.47,-93.02,-0.5,-4.1,70,6,,7.0,30.339567,,,TRUE,TRUE,,,,,,,BKN,1800,OVC,6000,,,,,MVFR,,,,,,,,,,,,SPECI,280.0
KSNK 122055Z AUTO 34013G21KT 10SM SCT035 09/00 A3019 RMK AO2 T00880002,KSNK,2019-01-12T20:55:00Z,32.7,-100.95,8.8,0.2,340,13,21,10.0,30.188976,,,TRUE,TRUE,,,,,,,SCT,3500,,,,,,,VFR,,,,,,,,,,,,METAR,741.0
KRZN 122055Z AUTO 10005KT 10SM OVC050 M01/M06 A3040 RMK AO2 T10071065,KRZN,2019-01-12T20:55:00Z,45.82,-92.37,-0.7,-6.5,100,5,,10.0,30.398623,,,TRUE,TRUE,,,,,,,OVC,5000,,,,,,,VFR,,,,,,,,,,,,SPECI,301.0
KFKN 122055Z AUTO 03006KT 10SM BKN100 OVC120 04/M07 A3046 RMK AO2 T00381069,KFKN,2019-01-12T20:55:00Z,36.7,-76.9,3.8,-6.9,30,6,,10.0,30.46063,,,TRUE,TRUE,,,,,,,BKN,10000,OVC,12000,,,,,VFR,,,,,,,,,,,,SPECI,12.0
KF70 122055Z AUTO 24007KT 10SM BKN042 OVC050 11/10 A2999 RMK AO1,KF70,2019-01-12T20:55:00Z,33.57,-117.13,11.0,10.0,240,7,,10.0,29.991142,,,TRUE,TRUE,,,,,,,BKN,4200,OVC,5000,,,,,VFR,,,,,,,,,,,,METAR,412.0
KEZM 122055Z AUTO 09005KT 10SM BKN075 14/08 A3024 RMK AO2 T01380079,KEZM,2019-01-12T20:55:00Z,32.22,-83.13,13.8,7.9,90,5,,10.0,30.239174,,,TRUE,TRUE,,,,,,,BKN,7500,,,,,,,VFR,,,,,,,,,,,,SPECI,93.0
KEQA 122055Z AUTO 35020KT 10SM OVC010 01/M01 A3009 RMK AO2,KEQA,2019-01-12T20:55:00Z,37.78,-96.82,1.0,-1.0,350,20,,10.0,30.088583,,,TRUE,TRUE,,,,,,,OVC,1000,,,,,,,MVFR,,,,,,,,,,,,SPECI,420.0
KENL 122055Z AUTO 07010KT 5SM -RA SCT031 OVC037 02/01 A3003 RMK AO2 P0008 60023 T00180013,KENL,2019-01-12T20:55:00Z,38.52,-89.1,1.8,1.3,70,10,,5.0,30.029528,,,TRUE,TRUE,,,,,,-RA,SCT,3100,OVC,3700,,,,,MVFR,,,,,,0.08,,,,,,SPECI,163.0
KELK 122055Z AUTO 33018G21KT 10SM OVC017 03/00 A3016 RMK AO2 T00301003,KELK,2019-01-12T20:55:00Z,35.43,-99.4,3.0,-0.3,330,18,21,10.0,30.159449,,,TRUE,TRUE,,,,,,,OVC,1700,,,,,,,MVFR,,,,,,,,,,,,SPECI,610.0
KELA 122055Z AUTO 33011G15KT 10SM CLR 18/08 A3007 RMK AO2 T01830081,KELA,2019-01-12T20:55:00Z,29.6,-96.32,18.3,8.1,330,11,15,10.0,30.070866,,,TRUE,TRUE,,,,,,,CLR,,,,,,,,VFR,,,,,,,,,,,,SPECI,56.0
KEHA 122055Z AUTO 34015KT 10SM CLR 05/02 A3019 RMK AO2 T00500022,KEHA,2019-01-12T20:55:00Z,37.0,-101.9,5.0,2.2,340,15,,10.0,30.188976,,,TRUE,TRUE,,,,,,,CLR,,,,,,,,VFR,,,,,,,,,,,,SPECI,1099.0
KE38 122055Z AUTO 08007KT 10SM CLR 13/00 A3024 RMK AO2 T01251003,KE38,2019-01-12T20:55:00Z,30.38,-103.68,12.5,-0.3,80,7,,10.0,30.239174,,,TRUE,TRUE,,,,,,,CLR,,,,,,,,VFR,,,,,,,,,,,,SPECI,1376.0
KE11 122055Z AUTO 01007G15KT 10SM CLR 12/M01 A3020 RMK AO2 T01161006,KE11,2019-01-12T20:55:00Z,32.33,-102.53,11.6,-0.6,10,7,15,10.0,30.200787,,,TRUE,TRUE,,,,,,,CLR,,,,,,,,VFR,,,,,,,,,,,,SPECI,967.0
KDVK 122055Z AUTO 12006KT 10SM RA OVC034 01/01 A3015 RMK AO2,KDVK,2019-01-12T20:55:00Z,37.58,-84.77,1.0,1.0,120,6,,10.0,30.15059,,,TRUE,TRUE,,,,,,RA,OVC,3400,,,,,,,VFR,,,,,,,,,,,,SPECI,312.0
KDUB 122055Z AUTO 13004KT 10SM CLR 03/M21 A3012 RMK AO2,KDUB,2019-01-12T20:55:00Z,43.55,-109.68,3.0,-21.0,130,4,,10.0,30.121063,,,TRUE,TRUE,,,,,,,CLR,,,,,,,,VFR,,,,,,,,,,,,SPECI,2224.0
KDTA 122055Z AUTO 36005KT 10SM OVC007 M02/M02 A3021 RMK AO1,KDTA,2019-01-12T20:55:00Z,39.38,-112.5,-2.0,-2.0,360,5,,10.0,30.209646,,,TRUE,TRUE,,,,,,,OVC,700,,,,,,,IFR,,,,,,,,,,,,SPECI,1402.0
KDQH 122055Z AUTO 11005KT 10SM OVC029 18/11 A3022 RMK AO2 T01800110,KDQH,2019-01-12T20:55:00Z,31.48,-82.87,18.0,11.0,110,5,,10.0,30.221457,,,TRUE,TRUE,,,,,,,OVC,2900,,,,,,,MVFR,,,,,,,,,,,,SPECI,78.0
KDKB 122055Z AUTO 07013G19KT 1SM -SN BKN006 OVC011 M01/M02 A3026 RMK AO2 T10151021,KDKB,2019-01-12T20:55:00Z,41.93,-88.7,-1.5,-2.1,70,13,19,1.0,30.259842,,,TRUE,TRUE,,,,,,-SN,BKN,600,OVC,1100,,,,,IFR,,,,,,,,,,,,SPECI,279.0
KDCY 122055Z AUTO 09007KT 10SM BKN060 BKN070 OVC080 02/M01 A3012 RMK AO2 T00201006,KDCY,2019-01-12T20:55:00Z,38.7,-87.13,2.0,-0.6,90,7,,10.0,30.121063,,,TRUE,TRUE,,,,,,,BKN,6000,BKN,7000,OVC,8000,,,VFR,,,,,,,,,,,,SPECI,144.0
KCXE 122055Z AUTO 03003KT 10SM SCT007 SCT070 OVC075 M01/M01 A3044 RMK AO1 60006 T10071007,KCXE,2019-01-12T20:55:00Z,36.78,-78.5,-0.7,-0.7,30,3,,10.0,30.43996,,,TRUE,TRUE,,,,,,,SCT,700,SCT,7000,OVC,7500,,,VFR,,,,,,,,,,,,SPECI,153.0
KCVC 122055Z AUTO 08010KT 10SM SCT025 OVC033 06/00 A3021 RMK AO2 PNO,KCVC,2019-01-12T20:55:00Z,33.63,-83.85,6.0,0.0,80,10,,10.0,30.209646,,,TRUE,TRUE,,,,,,,SCT,2500,OVC,3300,,,,,VFR,,,,,,,,,,,,SPECI,247.0
KCTJ 122055Z AUTO 12005KT 10SM OVC022 06/01 A3018 RMK AO2 T00620009,KCTJ,2019-01-12T20:55:00Z,33.63,-85.15,6.2,0.9,120,5,,10.0,30.180119,,,TRUE,TRUE,,,,,,,OVC,2200,,,,,,,MVFR,,,,,,,,,,,,SPECI,354.0
KCFD 122055Z AUTO 30014G21KT 10SM CLR 14/04 A3011 RMK AO2 T01400035,KCFD,2019-01-12T20:55:00Z,30.72,-96.33,14.0,3.5,300,14,21,10.0,30.109253,,,TRUE,TRUE,,,,,,,CLR,,,,,,,,VFR,,,,,,,,,,,,SPECI,112.0
KCDD 122055Z AUTO 00000KT 10SM OVC009 M07/M08 A3048 RMK AO2,KCDD,2019-01-12T20:55:00Z,48.27,-92.48,-7.0,-8.0,0,0,,10.0,30.481298,,,TRUE,TRUE,,,,,,,OVC,900,,,,,,,IFR,,,,,,,,,,,,SPECI,341.0
KC75 122055Z AUTO 07013G21KT 1 3/4SM -SN OVC012 M01/M03 A3020 RMK AO2 T10121027,KC75,2019-01-12T20:55:00Z,41.02,-89.38,-1.2,-2.7,70,13,21,1.75,30.200787,,,TRUE,TRUE,,,,,,-SN,OVC,1200,,,,,,,IFR,,,,,,,,,,,,SPECI,173.0
KC09 122055Z AUTO 07011G14KT 1 3/4SM -SN OVC009 M01/M02 A3024 RMK AO2 P0001 60005 T10101022,KC09,2019-01-12T20:55:00Z,41.43,-88.42,-1.0,-2.2,70,11,14,1.75,30.239174,,,TRUE,TRUE,,,,,,-SN,OVC,900,,,,,,,IFR,,,,,,0.01,,,,,,SPECI,178.0
KBIE 122055Z AUTO 36015G20KT 5SM OVC009 M01/M02 A3019 RMK AO2 T10101024 PWINO,KBIE,2019-01-12T20:55:00Z,40.28,-96.75,-1.0,-2.4,360,15,20,5.0,30.188976,,,TRUE,TRUE,,,,,TRUE,,OVC,900,,,,,,,IFR,,,,,,,,,,,,SPECI,403.0
KBHC 122055Z AUTO 10005KT 10SM SCT060 OVC070 16/11 A3022 RMK AO2,KBHC,2019-01-12T20:55:00Z,31.72,-82.4,16.0,11.0,100,5,,10.0,30.221457,,,TRUE,TRUE,,,,,,,SCT,6000,OVC,7000,,,,,VFR,,,,,,,,,,,,SPECI,61.0
KBGE 122055Z 10SM 21/11 A3013 RMK AO2 PWINO,KBGE,2019-01-12T20:55:00Z,30.97,-84.63,21.0,11.0,,,,10.0,30.129921,,,,TRUE,,,,,TRUE,,,,,,,,,,,,,,,,,,,,,,SPECI,43.0
KBDG 122055Z AUTO 15003KT 10SM 00/M03 A3022 RMK AO1 T00041035,KBDG,2019-01-12T20:55:00Z,37.58,-109.47,0.4,-3.5,150,3,,10.0,30.221457,,,TRUE,TRUE,,,,,,,,,,,,,,,,,,,,,,,,,,,SPECI,1788.0
KBCB 122055Z AUTO 11004KT 10SM BKN009 OVC014 M02/M02 A3035 RMK AO2 T10191025,KBCB,2019-01-12T20:55:00Z,37.22,-80.42,-1.9,-2.5,110,4,,10.0,30.351377,,,TRUE,TRUE,,,,,,,BKN,900,OVC,1400,,,,,IFR,,,,,,,,,,,,METAR,650.0
KASL 122055Z AUTO 29011G22KT 10SM SCT038 12/03 A3004 RMK AO1 P0001 60001 T01150033,KASL,2019-01-12T20:55:00Z,32.52,-94.3,11.5,3.3,290,11,22,10.0,30.041338,,,TRUE,TRUE,,,,,,,SCT,3800,,,,,,,VFR,,,,,,0.01,,,,,,SPECI,109.0
KAQR 122055Z AUTO 33009G17KT 10SM OVC018 05/02 A3007 RMK AO2,KAQR,2019-01-12T20:55:00Z,34.4,-96.15,5.0,2.0,330,9,17,10.0,30.070866,,,TRUE,TRUE,,,,,,,OVC,1800,,,,,,,MVFR,,,,,,,,,,,,SPECI,189.0
KAPS 122055Z AUTO 26009G14KT 10SM SCT080 20/16 A2998 RMK AO2 60004 T01990162,KAPS,2019-01-12T20:55:00Z,30.08,-90.58,19.9,16.2,260,9,14,10.0,29.97933,,,TRUE,TRUE,,,,,,,SCT,8000,,,,,,,VFR,,,,,,,,,,,,SPECI,2.0
K9V9 122055Z AUTO 33005KT 5SM BR OVC004 M06/M06 A3033 RMK AO2 T10611061,K9V9,2019-01-12T20:55:00Z,43.77,-99.32,-6.1,-6.1,330,5,,5.0,30.33071,,,TRUE,TRUE,,,,,,BR,OVC,400,,,,,,,LIFR,,,,,,,,,,,,SPECI,519.0
K9A5 122055Z AUTO 00000KT 7SM OVC027 05/00 A3017 RMK AO2 T00500002,K9A5,2019-01-12T20:55:00Z,34.68,-85.28,5.0,0.2,0,0,,7.0,30.171259,,,TRUE,TRUE,,,,,,,OVC,2700,,,,,,,MVFR,,,,,,,,,,,,METAR,237.0
K8A0 122055Z AUTO 11008G15KT 10SM -RA OVC018 06/02 A3005 RMK AO2,K8A0,2019-01-12T20:55:00Z,34.23,-86.25,6.0,2.0,110,8,15,10.0,30.050198,,,TRUE,TRUE,,,,,,-RA,OVC,1800,,,,,,,MVFR,,,,,,,,,,,,METAR,315.0
K6R3 122055Z AUTO 30008KT 7SM CLR 18/07 A3005 RMK AO2 T01840072,K6R3,2019-01-12T20:55:00Z,30.35,-95.0,18.4,7.2,300,8,,7.0,30.050198,,,TRUE,TRUE,,,,,,,CLR,,,,,,,,VFR,,,,,,,,,,,,METAR,46.0
K6P9 122055Z AUTO 32012G19KT 10SM OVC028 07/01 A3017 RMK AO2 T00670008,K6P9,2019-01-12T20:55:00Z,32.43,-98.6,6.7,0.8,320,12,19,10.0,30.171259,,,TRUE,TRUE,,,,,,,OVC,2800,,,,,,,MVFR,,,,,,,,,,,,METAR,449.0
K4V0 122055Z AUTO 00000KT 10SM SCT014 A3022 RMK AO2,K4V0,2019-01-12T20:55:00Z,40.1,-108.77,,,0,0,,10.0,30.221457,,,TRUE,TRUE,,,,,,,SCT,1400,,,,,,,VFR,,,,,,,,,,,,METAR,1608.0
K4A9 122055Z AUTO 06005KT 10SM -RA OVC025 06/M01 A3010 RMK AO2 T00641015,K4A9,2019-01-12T20:55:00Z,34.47,-85.72,6.4,-1.5,60,5,,10.0,30.100393,,,TRUE,TRUE,,,,,,-RA,OVC,2500,,,,,,,MVFR,,,,,,,,,,,,METAR,267.0
K49A 122055Z AUTO 08004KT 10SM -RA OVC019 05/00 A3017 RMK AO2 T00460002,K49A,2019-01-12T20:55:00Z,34.63,-84.53,4.6,0.2,80,4,,10.0,30.171259,,,TRUE,TRUE,,,,,,-RA,OVC,1900,,,,,,,MVFR,,,,,,,,,,,,METAR,453.0
K48A 122055Z AUTO 06007KT 10SM BKN065 OVC075 12/06 A3022 RMK AO2 T01180058,K48A,2019-01-12T20:55:00Z,,,11.8,5.8,60,7,,10.0,30.221457,,,TRUE,TRUE,,,,,,,BKN,6500,OVC,7500,,,,,VFR,,,,,,,,,,,,METAR,
K40J 122055Z AUTO 21006KT 10SM BKN055 BKN070 23/11 A3017 RMK AO2 T02310108,K40J,2019-01-12T20:55:00Z,30.07,-83.57,23.1,10.8,210,6,,10.0,30.171259,,,TRUE,TRUE,,,,,,,BKN,5500,BKN,7000,,,,,VFR,,,,,,,,,,,,SPECI,13.0
K3F3 122055Z AUTO 28009G17KT 10SM CLR 16/05 A3002 RMK AO2 T01550050,K3F3,2019-01-12T20:55:00Z,32.07,-93.77,15.5,5.0,280,9,17,10.0,30.02067,,,TRUE,TRUE,,,,,,,CLR,,,,,,,,VFR,,,,,,,,,,,,METAR,96.0
K2J5 122055Z AUTO 06004KT 10SM BKN060 OVC070 10/04 A3027 RMK AO2 PWINO T01000041,K2J5,2019-01-12T20:55:00Z,32.9,-81.97,10.0,4.1,60,4,,10.0,30.268702,,,TRUE,TRUE,,,,,TRUE,,BKN,6000,OVC,7000,,,,,VFR,,,,,,,,,,,,METAR,72.0
K2J3 122055Z AUTO 06008KT 10SM OVC048 10/04 A3027 RMK AO2 T00990037,K2J3,2019-01-12T20:55:00Z,32.98,-82.38,9.9,3.7,60,8,,10.0,30.268702,,,TRUE,TRUE,,,,,,,OVC,4800,,,,,,,VFR,,,,,,,,,,,,METAR,100.0
K2I0 122055Z AUTO 09006KT 10SM RA SCT037 BKN046 OVC050 05/05 A3006 RMK AO2 P0001 60003 T00520045,K2I0,2019-01-12T20:55:00Z,37.35,-87.4,5.2,4.5,90,6,,10.0,30.059055,,,TRUE,TRUE,,,,,,RA,SCT,3700,BKN,4600,OVC,5000,,,VFR,,,,,,0.01,,,,,,SPECI,134.0
K1H2 122055Z AUTO 06008KT 10SM SCT009 OVC050 02/00 A3010 RMK AO2 P0008 60017 T00150000,K1H2,2019-01-12T20:55:00Z,39.07,-88.53,1.5,0.0,60,8,,10.0,30.100393,,,TRUE,TRUE,,,,,,,SCT,900,OVC,5000,,,,,VFR,,,,,,0.08,0.17,,,,,METAR,179.0
K19S 122055Z AUTO 01014KT 7SM BKN013 00/M03 A3021 RMK AO2 T10011025,K19S,2019-01-12T20:55:00Z,37.48,-100.83,-0.1,-2.5,10,14,,7.0,30.209646,,,TRUE,TRUE,,,,,,,BKN,1300,,,,,,,MVFR,,,,,,,,,,,,METAR,886.0
K0R4 122055Z AUTO 25007KT 10SM SCT013 OVC020 16/14 A2996 RMK AO2 T01620138,K0R4,2019-01-12T20:55:00Z,31.57,-91.5,16.2,13.8,250,7,,10.0,29.958662,,,TRUE,TRUE,,,,,,,SCT,1300,OVC,2000,,,,,MVFR,,,,,,,,,,,,METAR,17.0
KRCR 122055Z AUTO 07008KT 1/2SM SN OVC004 M01/M02 A3026 RMK AO2 P0001,KRCR,2019-01-12T20:55:00Z,41.07,-86.18,-1.0,-2.0,70,8,,0.5,30.259842,,,TRUE,TRUE,,,,,,SN,OVC,400,,,,,,,LIFR,,,,,,0.01,,,,,,SPECI,241.0
KPXE 122055Z AUTO 09010KT 10SM SCT040 OVC070 11/05 A3020 RMK AO2 T01120052,KPXE,2019-01-12T20:55:00Z,32.52,-83.77,11.2,5.2,90,10,,10.0,30.200787,,,TRUE,TRUE,,,,,,,SCT,4000,OVC,7000,,,,,VFR,,,,,,,,,,,,SPECI,127.0
KPVW 122055Z AUTO 36014G22KT 10SM SCT031 08/M01 A3016 RMK AO2 T00751014,KPVW,2019-01-12T20:55:00Z,34.17,-101.72,7.5,-1.4,360,14,22,10.0,30.159449,,,TRUE,TRUE,,,,,,,SCT,3100,,,,,,,VFR,,,,,,,,,,,,SPECI,1028.0
KPVF 122055Z AUTO 22009KT 190V250 10SM CLR 13/03 A2999 RMK AO1,KPVF,2019-01-12T20:55:00Z,38.72,-120.75,13.0,3.0,220,9,,10.0,29.991142,,,TRUE,TRUE,,,,,,,CLR,,,,,,,,VFR,,,,,,,,,,,,SPECI,789.0
KPRG 122055Z AUTO 06008KT 7SM BKN007 OVC046 01/00 A3014 RMK AO2 60001 T00100000,KPRG,2019-01-12T20:55:00Z,39.7,-87.67,1.0,0.0,60,8,,7.0,30.138779,,,TRUE,TRUE,,,,,,,BKN,700,OVC,4600,,,,,IFR,,,,,,,,,,,,SPECI,199.0
KPNT 122055Z AUTO 06016G21KT 1 1/4SM -SN OVC010 M01/M02 A3022 RMK AO2 T10151016,KPNT,2019-01-12T20:55:00Z,40.92,-88.62,-1.5,-1.6,60,16,21,1.25,30.221457,,,TRUE,TRUE,,,,,,-SN,OVC,1000,,,,,,,IFR,,,,,,,,,,,,SPECI,201.0
KPNA 122055Z AUTO 33003KT 10SM CLR M11/M15 A3021 RMK AO2,KPNA,2019-01-12T20:55:00Z,42.8,-109.8,-11.0,-15.0,330,3,,10.0,30.209646,,,TRUE,TRUE,,,,,,,CLR,,,,,,,,VFR,,,,,,,,,,,,METAR,2160.0
KOVL 122055Z AUTO 07004KT 7SM BKN044 M02/M05 A3034 RMK AO2,KOVL,2019-01-12T20:55:00Z,44.78,-95.03,-2.0,-5.0,70,4,,7.0,30.339567,,,TRUE,TRUE,,,,,,,BKN,4400,,,,,,,VFR,,,,,,,,,,,,METAR,328.0
KOQN 122055Z AUTO 00000KT 10SM CLR 00/M15 A3047 RMK AO2,KOQN,2019-01-12T20:55:00Z,39.98,-75.58,0.0,-15.0,0,0,,10.0,30.469488,,,TRUE,TRUE,,,,,,,CLR,,,,,,,,VFR,,,,,,,,,,,,METAR,142.0
KOLY 122055Z AUTO 07008KT 5SM -RA BKN034 OVC042 01/01 A3009 RMK AO2 P0006 60021 T00100010,KOLY,2019-01-12T20:55:00Z,38.72,-88.18,1.0,1.0,70,8,,5.0,30.088583,,,TRUE,TRUE,,,,,,-RA,BKN,3400,OVC,4200,,,,,MVFR,,,,,,0.06,,,,,,SPECI,147.0
KOGA 122055Z AUTO 36008KT 10SM BKN020 04/M02 A3019 RMK AO2 T00361021,KOGA,2019-01-12T20:55:00Z,41.12,-101.77,3.6,-2.1,360,8,,10.0,30.188976,,,TRUE,TRUE,,,,,,,BKN,2000,,,,,,,MVFR,,,,,,,,,,,,SPECI,999.0
KO54 122055Z AUTO 20004KT 10SM CLR 10/06 A2997 RMK AO1,KO54,2019-01-12T20:55:00Z,40.75,-122.92,10.0,6.0,200,4,,10.0,29.970472,,,TRUE,TRUE,,,,,,,CLR,,,,,,,,VFR,,,,,,,,,,,,SPECI,717.0
KMYZ 122055Z AUTO 01014G17KT 5SM -RA OVC009 M01/M02 A3016 RMK AO2,KMYZ,2019-01-12T20:55:00Z,39.85,-96.63,-1.0,-2.0,10,14,17,5.0,30.159449,,,TRUE,TRUE,,,,,,-RA,OVC,900,,,,,,,IFR,,,,,,,,,,,,SPECI,319.0
KMWM 122055Z AUTO 02006KT 7SM BKN008 M03/M05 A3030 RMK AO2,KMWM,2019-01-12T20:55:00Z,43.9,-95.1,-3.0,-5.0,20,6,,7.0,30.301182,,,TRUE,TRUE,,,,,,,BKN,800,,,,,,,IFR,,,,,,,,,,,,SPECI,430.0
KMTV 122055Z AUTO 00000KT 10SM SCT009 BKN048 OVC060 00/M02 A3043 RMK AO2 T10011017,KMTV,2019-01-12T20:55:00Z,36.63,-80.02,-0.1,-1.7,0,0,,10.0,30.431103,,,TRUE,TRUE,,,,,,,SCT,900,BKN,4800,OVC,6000,,,VFR,,,,,,,,,,,,SPECI,287.0
KMRT 122055Z AUTO 09007KT 1 1/4SM SCT007 OVC014 M02/M03 A3028 RMK AO2 P0001 60004 T10221030,KMRT,2019-01-12T20:55:00Z,40.22,-83.35,-2.2,-3.0,90,7,,1.25,30.280512,,,TRUE,TRUE,,,,,,,SCT,700,OVC,1400,,,,,IFR,,,,,,0.01,0.04,,,,,METAR,312.0
KMGR 122055Z AUTO 13004KT 10SM SCT120 18/12 A3017 RMK AO2,KMGR,2019-01-12T20:55:00Z,31.08,-83.8,18.0,12.0,130,4,,10.0,30.171259,,,TRUE,TRUE,,,,,,,SCT,12000,,,,,,,VFR,,,,,,,,,,,,SPECI,90.0
KMGG 122055Z AUTO 09008KT 7SM SCT045 OVC050 M01/M04 A3037 RMK AO2 T10131045,KMGG,2019-01-12T20:55:00Z,45.23,-93.98,-1.3,-4.5,90,8,,7.0,30.369095,,,TRUE,TRUE,,,,,,,SCT,4500,OVC,5000,,,,,VFR,,,,,,,,,,,,SPECI,313.0
KMDD 122055Z AUTO 35010KT 10SM 13/02 A3020 RMK AO2 T01320021,KMDD,2019-01-12T20:55:00Z,32.03,-102.1,13.2,2.1,350,10,,10.0,30.200787,,,TRUE,TRUE,,,,,,,,,,,,,,,,,,,,,,,,,,,METAR,854.0
KM30 122055Z AUTO 11006KT 10SM SCT009 BKN014 OVC060 05/04 A2999 RMK AO2 P0001 60011 T00500042,KM30,2019-01-12T20:55:00Z,37.18,-88.75,5.0,4.2,110,6,,10.0,29.991142,,,TRUE,TRUE,,,,,,,SCT,900,BKN,1400,OVC,6000,,,MVFR,,,,,,0.01,0.11,,,,,METAR,117.0
KLOM 122055Z AUTO 00000KT 10SM BKN110 00/M13 A3050 RMK AO1,KLOM,2019-01-12T20:55:00Z,40.13,-75.27,0.0,-13.0,0,0,,10.0,30.499016,,,TRUE,TRUE,,,,,,,BKN,11000,,,,,,,VFR,,,,,,,,,,,,METAR,92.0
KLKU 122055Z AUTO 09004KT 10SM SCT046 BKN055 OVC080 M01/M04 A3051 RMK AO2 T10101036,KLKU,2019-01-12T20:55:00Z,38.02,-77.97,-1.0,-3.6,90,4,,10.0,30.510826,,,TRUE,TRUE,,,,,,,SCT,4600,BKN,5500,OVC,8000,,,VFR,,,,,,,,,,,,METAR,150.0
KLGC 122055Z AUTO 14006KT 10SM BKN025 OVC034 11/06 A3015 RMK AO2 T01120060,KLGC,2019-01-12T20:55:00Z,33.0,-85.07,11.2,6.0,140,6,,10.0,30.15059,,,TRUE,TRUE,,,,,,,BKN,2500,OVC,3400,,,,,MVFR,,,,,,,,,,,,METAR,211.0
KLCQ 122055Z AUTO 13005KT 10SM BKN050 BKN065 21/12 A3018 RMK AO2,KLCQ,2019-01-12T20:55:00Z,30.18,-82.58,21.0,12.0,130,5,,10.0,30.180119,,,TRUE,TRUE,,,,,,,BKN,5000,BKN,6500,,,,,VFR,,,,,,,,,,,,METAR,61.0
KLCK 122055Z AUTO 07006KT 1 1/4SM -SN BKN007 OVC018 M02/M03 A3029 RMK AO2 T10201026,KLCK,2019-01-12T20:55:00Z,39.82,-82.92,-2.0,-2.6,70,6,,1.25,30.28937,,,TRUE,TRUE,,,,,,-SN,BKN,700,OVC,1800,,,,,IFR,,,,,,,,,,,,METAR,227.0
KLCG 122055Z AUTO 35012KT 5SM BR OVC006 M03/M05 A3028 RMK AO2 T10311053,KLCG,2019-01-12T20:55:00Z,42.25,-96.98,-3.1,-5.3,350,12,,5.0,30.280512,,,TRUE,TRUE,,,,,,BR,OVC,600,,,,,,,IFR,,,,,,,,,,,,METAR,436.0
KJZP 122055Z AUTO 19009G15KT 10SM -RA OVC019 03/M01 A3020 RMK AO2 6//// T00331011 PNO,KJZP,2019-01-12T20:55:00Z,34.45,-84.47,3.3,-1.1,190,9,15,10.0,30.200787,,,TRUE,TRUE,,,,,,-RA,OVC,1900,,,,,,,MVFR,,,,,,,,,,,,METAR,468.0
KJYO 122055Z AUTO 20005KT 2 1/2SM -SN SCT024 BKN035 OVC042 00/M01 A3049 RMK AO2,KJYO,2019-01-12T20:55:00Z,39.07,-77.57,0.0,-1.0,200,5,,2.5,30.490158,,,TRUE,TRUE,,,,,,-SN,SCT,2400,BKN,3500,OVC,4200,,,IFR,,,,,,,,,,,,METAR,119.0
KJYG 122055Z AUTO 01006KT 10SM CLR M02/M04 A3033 RMK AO2,KJYG,2019-01-12T20:55:00Z,43.98,-94.55,-2.0,-4.0,10,6,,10.0,30.33071,,,TRUE,TRUE,,,,,,,CLR,,,,,,,,VFR,,,,,,,,,,,,METAR,325.0
KJKA 122055Z AUTO 14007G14KT 10SM OVC100 19/16 A3004 RMK AO2 T01870157,KJKA,2019-01-12T20:55:00Z,30.28,-87.67,18.7,15.7,140,7,14,10.0,30.041338,,,TRUE,TRUE,,,,,,,OVC,10000,,,,,,,VFR,,,,,,,,,,,,METAR,5.0
KJCA 122055Z AUTO 08008KT 10SM OVC019 03/M02 A3026 RMK AO2 PWINO T00271018,KJCA,2019-01-12T20:55:00Z,34.18,-83.57,2.7,-1.8,80,8,,10.0,30.259842,,,TRUE,TRUE,,,,,TRUE,,OVC,1900,,,,,,,MVFR,,,,,,,,,,,,METAR,290.0
KJAS 122055Z AUTO 31009KT 10SM CLR 19/09 A3003 RMK AO2 T01860087,KJAS,2019-01-12T20:55:00Z,30.88,-94.03,18.6,8.7,310,9,,10.0,30.029528,,,TRUE,TRUE,,,,,,,CLR,,,,,,,,VFR,,,,,,,,,,,,METAR,65.0
KIJX 122055Z AUTO 05014KT 2SM -SN OVC004 00/M01 A3009 RMK AO2 P0001 60002 T10031010,KIJX,2019-01-12T20:55:00Z,39.77,-90.25,-0.3,-1.0,50,14,,2.0,30.088583,,,TRUE,TRUE,,,,,,-SN,OVC,400,,,,,,,LIFR,,,,,,0.01,0.02,,,,,METAR,190.0
KI63 122055Z AUTO 07015G19KT 3SM -SN OVC005 M01/M01 A3009 RMK AO2 T10061013,KI63,2019-01-12T20:55:00Z,39.98,-90.8,-0.6,-1.3,70,15,19,3.0,30.088583,,,TRUE,TRUE,,,,,,-SN,OVC,500,,,,,,,IFR,,,,,,,,,,,,METAR,223.0
KHWY 122055Z AUTO 22004KT 10SM SCT047 OVC060 02/M06 A3047 RMK AO2 T00151065,KHWY,2019-01-12T20:55:00Z,38.58,-77.72,1.5,-6.5,220,4,,10.0,30.469488,,,TRUE,TRUE,,,,,,,SCT,4700,OVC,6000,,,,,VFR,,,,,,,,,,,,METAR,103.0
KHTO 122055Z AUTO 29005KT 10SM CLR M02/M12 A3048 RMK AO2 T10231117,KHTO,2019-01-12T20:55:00Z,40.95,-72.25,-2.3,-11.7,290,5,,10.0,30.481298,,,TRUE,TRUE,,,,,,,CLR,,,,,,,,VFR,,,,,,,,,,,,METAR,17.0
KHHG 122055Z AUTO 08007G15KT 1/2SM SN OVC007 M03/M03 A3028 RMK AO2 T10291035,KHHG,2019-01-12T20:55:00Z,40.85,-85.45,-2.9,-3.5,80,7,15,0.5,30.280512,,,TRUE,TRUE,,,,,,SN,OVC,700,,,,,,,LIFR,,,,,,,,,,,,METAR,246.0
KGLE 122055Z AUTO 33016G23KT 10SM OVC025 06/01 A3012 RMK AO2 T00560010,KGLE,2019-01-12T20:55:00Z,33.65,-97.2,5.6,1.0,330,16,23,10.0,30.121063,,,TRUE,TRUE,,,,,,,OVC,2500,,,,,,,MVFR,,,,,,,,,,,,METAR,256.0
KGHW 122055Z AUTO 06006KT 7SM SCT019 M02/M06 A3035 RMK AO2,KGHW,2019-01-12T20:55:00Z,45.63,-95.32,-2.0,-6.0,60,6,,7.0,30.351377,,,TRUE,TRUE,,,,,,,SCT,1900,,,,,,,VFR,,,,,,,,,,,,METAR,425.0
KFZG 122055Z AUTO 10006KT 10SM SCT055 BKN075 17/12 A3021 RMK AO2 T01710118 PWINO,KFZG,2019-01-12T20:55:00Z,31.68,-83.27,17.1,11.8,100,6,,10.0,30.209646,,,TRUE,TRUE,,,,,TRUE,,SCT,5500,BKN,7500,,,,,VFR,,,,,,,,,,,,METAR,111.0
KFYG 122055Z AUTO 06004KT 1 1/4SM BR SCT012 01/01 A3001 RMK AO2,KFYG,2019-01-12T20:55:00Z,38.58,-91.0,1.0,1.0,60,4,,1.25,30.008858,,,TRUE,TRUE,,,,,,BR,SCT,1200,,,,,,,IFR,,,,,,,,,,,,METAR,149.0
KFVX 122055Z AUTO 00000KT 4SM -SN SCT016 BKN047 OVC055 M01/M02 A3044 RMK AO2 T10071023,KFVX,2019-01-12T20:55:00Z,37.35,-78.42,-0.7,-2.3,0,0,,4.0,30.43996,,,TRUE,TRUE,,,,,,-SN,SCT,1600,BKN,4700,OVC,5500,,,MVFR,,,,,,,,,,,,METAR,125.0
KFSE 122055Z AUTO 12005KT 10SM OVC008 M04/M06 A3039 RMK AO2,KFSE,2019-01-12T20:55:00Z,47.58,-95.77,-4.0,-6.0,120,5,,10.0,30.389763,,,TRUE,TRUE,,,,,,,OVC,800,,,,,,,IFR,,,,,,,,,,,,METAR,389.0
PAAD 122055Z AUTO 27006KT 10SM CLR A3039 RMK AO2,PAAD,2019-01-12T20:55:00Z,70.13,-146.28,,,270,6,,10.0,30.389763,,,TRUE,TRUE,,,,,,,CLR,,,,,,,,VFR,,,,,,,,,,,,SPECI,8.0
RJOI 122055Z 34005KT 9999 FEW045 SCT080 06/02 A3013 RMK SLP202 T00560017 55000,RJOI,2019-01-12T20:55:00Z,34.13,132.22,5.6,1.7,340,5,,6.21,30.129921,1020.2,,,,,,,,,,FEW,4500,SCT,8000,,,,,VFR,0.0,,,,,,,,,,,METAR,2.0
KMTC 122055Z 06011KT 10SM FEW035 BKN070 OVC090 M02/M07 A3041 RMK AO2A SLP311 T10161073 58005 $,KMTC,2019-01-12T20:55:00Z,42.62,-82.82,-1.6,-7.3,60,11,,10.0,30.410433,1031.1,,,TRUE,TRUE,,,,,,FEW,3500,BKN,7000,OVC,9000,,,VFR,-0.5,,,,,,,,,,,SPECI,177.0
KXBP 122055Z AUTO 33014KT 10SM OVC031 07/01 A3017 RMK AO2 6//// T00660008,KXBP,2019-01-12T20:55:00Z,33.18,-97.83,6.6,0.8,330,14,,10.0,30.171259,,,TRUE,TRUE,,,,,,,OVC,3100,,,,,,,VFR,,,,,,,,,,,,METAR,260.0
KWDR 122055Z AUTO 09007KT 10SM -DZ OVC023 04/M01 A3027 RMK AO2,KWDR,2019-01-12T20:55:00Z,33.98,-83.67,4.0,-1.0,90,7,,10.0,30.268702,,,TRUE,TRUE,,,,,,-DZ,OVC,2300,,,,,,,MVFR,,,,,,,,,,,,METAR,287.0
KW81 122055Z AUTO 05003KT 1SM SCT004 OVC015 M01/M02 A3044 RMK AO1 T10111017,KW81,2019-01-12T20:55:00Z,37.18,-78.1,-1.1,-1.7,50,3,,1.0,30.43996,,,TRUE,TRUE,,,,,,,SCT,400,OVC,1500,,,,,IFR,,,,,,,,,,,,METAR,129.0
KW22 122055Z AUTO 00000KT 1 3/4SM -SN BKN003 BKN024 M01/M01 A3028 RMK AO2,KW22,2019-01-12T20:55:00Z,39.0,-80.27,-1.0,-1.0,0,0,,1.75,30.280512,,,TRUE,TRUE,,,,,,-SN,BKN,300,BKN,2400,,,,,LIFR,,,,,,,,,,,,SPECI,499.0
KUTA 122055Z AUTO 14008KT 10SM 09/08 A2993 RMK AO2 TSNO,KUTA,2019-01-12T20:55:00Z,34.68,-90.35,9.0,8.0,140,8,,10.0,29.929134,,,TRUE,TRUE,,,TRUE,,,,,,,,,,,,,,,,,,,,,,,,METAR,59.0
KTXW 122055Z AUTO 01008KT 10SM CLR 27/10 A3003 RMK AO2 T02660102,KTXW,2019-01-12T20:55:00Z,26.18,-97.97,26.6,10.2,10,8,,10.0,30.029528,,,TRUE,TRUE,,,,,,,CLR,,,,,,,,VFR,,,,,,,,,,,,METAR,21.0
KTVI 122055Z AUTO 15007KT 10SM SCT047 BKN055 BKN070 20/12 A3017 RMK AO2,KTVI,2019-01-12T20:55:00Z,30.9,-83.88,20.0,12.0,150,7,,10.0,30.171259,,,TRUE,TRUE,,,,,,,SCT,4700,BKN,5500,BKN,7000,,,VFR,,,,,,,,,,,,METAR,80.0
KTNB 122055Z AUTO 00000KT 10SM OVC020 M02/M05 A3028 RMK AO2 T10161055,KTNB,2019-01-12T20:55:00Z,36.2,-81.65,-1.6,-5.5,0,0,,10.0,30.280512,,,TRUE,TRUE,,,,,,,OVC,2000,,,,,,,MVFR,,,,,,,,,,,,METAR,911.0
KTIF 122055Z AUTO 36006KT 10SM OVC005 M04/M05 A3024 RMK AO2 T10361046,KTIF,2019-01-12T20:55:00Z,41.97,-100.57,-3.6,-4.6,360,6,,10.0,30.239174,,,TRUE,TRUE,,,,,,,OVC,500,,,,,,,IFR,,,,,,,,,,,,SPECI,892.0
KTBR 122055Z AUTO 10004KT 10SM OVC060 12/07 A3027 RMK AO2 T01190073,KTBR,2019-01-12T20:55:00Z,32.48,-81.73,11.9,7.3,100,4,,10.0,30.268702,,,TRUE,TRUE,,,,,,,OVC,6000,,,,,,,VFR,,,,,,,,,,,,METAR,57.0
KJWG 122055Z AUTO 32011G20KT 10SM OVC017 03/02 A3016 RMK AO2 T00260016,KJWG,2019-01-12T20:55:00Z,35.87,-98.42,2.6,1.6,320,11,20,10.0,30.159449,,,TRUE,TRUE,,,,,,,OVC,1700,,,,,,,MVFR,,,,,,,,,,,,METAR,472.0
KJOT 122055Z AUTO 06014G18KT 3SM -SN OVC011 00/M02 A3026 RMK AO2 T10051016,KJOT,2019-01-12T20:55:00Z,41.52,-88.18,-0.5,-1.6,60,14,18,3.0,30.259842,,,TRUE,TRUE,,,,,,-SN,OVC,1100,,,,,,,MVFR,,,,,,,,,,,,SPECI,177.0
KJGG 122055Z AUTO 00000KT 10SM CLR 04/M03 A3049 RMK AO1,KJGG,2019-01-12T20:55:00Z,37.23,-76.72,4.0,-3.0,0,0,,10.0,30.490158,,,TRUE,TRUE,,,,,,,CLR,,,,,,,,VFR,,,,,,,,,,,,METAR,15.0
KJFZ 122055Z AUTO 11004KT 10SM OVC046 02/M04 A3020 RMK AO2 T00201041,KJFZ,2019-01-12T20:55:00Z,37.07,-81.8,2.0,-4.1,110,4,,10.0,30.200787,,,TRUE,TRUE,,,,,,,OVC,4600,,,,,,,VFR,,,,,,,,,,,,METAR,809.0
KIOB 122055Z AUTO 16004KT 7SM -RA SCT033 OVC039 01/00 A3023 RMK AO2 P0003,KIOB,2019-01-12T20:55:00Z,38.05,-83.98,1.0,0.0,160,4,,7.0,30.230314,,,TRUE,TRUE,,,,,,-RA,SCT,3300,OVC,3900,,,,,VFR,,,,,,0.03,,,,,,METAR,311.0
KIKK 122055Z AUTO 07014G20KT 1 1/2SM -SN OVC005 M01/M03 A3024 RMK AO2 60001 T10151028,KIKK,2019-01-12T20:55:00Z,41.07,-87.85,-1.5,-2.8,70,14,20,1.5,30.239174,,,TRUE,TRUE,,,,,,-SN,OVC,500,,,,,,,IFR,,,,,,,,,,,,SPECI,192.0
KIGQ 122055Z AUTO 06008KT 1 1/2SM -SN OVC007 M02/M03 A3027 RMK AO2 60002 T10201028,KIGQ,2019-01-12T20:55:00Z,41.53,-87.53,-2.0,-2.8,60,8,,1.5,30.268702,,,TRUE,TRUE,,,,,,-SN,OVC,700,,,,,,,IFR,,,,,,,,,,,,SPECI,188.0
KIBM 122055Z AUTO 35006KT 10SM CLR 05/M02 A3016 RMK AO2 T00511025,KIBM,2019-01-12T20:55:00Z,41.18,-103.68,5.1,-2.5,350,6,,10.0,30.159449,,,TRUE,TRUE,,,,,,,CLR,,,,,,,,VFR,,,,,,,,,,,,SPECI,1501.0
KHYW 122055Z AUTO 02006KT 5SM HZ OVC070 08/00 A3037 RMK AO2,KHYW,2019-01-12T20:55:00Z,33.83,-79.12,8.0,0.0,20,6,,5.0,30.369095,,,TRUE,TRUE,,,,,,HZ,OVC,7000,,,,,,,MVFR,,,,,,,,,,,,METAR,11.0
KHUM 122055Z 22003KT 7SM SCT033 BKN055 18/17 A3000,KHUM,2019-01-12T20:55:00Z,29.57,-90.67,18.0,17.0,220,3,,7.0,30.0,,,,,,,,,,,SCT,3300,BKN,5500,,,,,VFR,,,,,,,,,,,,METAR,3.0
KHSP 122055Z AUTO 00000KT 1SM -SN BKN014 OVC023 M04/M04 A3022 RMK AO2 T10401040,KHSP,2019-01-12T20:55:00Z,37.95,-79.82,-4.0,-4.0,0,0,,1.0,30.221457,,,TRUE,TRUE,,,,,,-SN,BKN,1400,OVC,2300,,,,,IFR,,,,,,,,,,,,METAR,1156.0
KHSB 122055Z AUTO 08008KT 7SM -RA BKN023 BKN047 OVC070 02/02 A3003 RMK AO2 P0001 60004 T00200020,KHSB,2019-01-12T20:55:00Z,37.82,-88.55,2.0,2.0,80,8,,7.0,30.029528,,,TRUE,TRUE,,,,,,-RA,BKN,2300,BKN,4700,OVC,7000,,,MVFR,,,,,,0.01,,,,,,SPECI,121.0
KHQU 122055Z AUTO 12004KT 10SM BKN046 BKN060 OVC075 06/M01 A3032 RMK AO2 T00601007,KHQU,2019-01-12T20:55:00Z,33.53,-82.52,6.0,-0.7,120,4,,10.0,30.318897,,,TRUE,TRUE,,,,,,,BKN,4600,BKN,6000,OVC,7500,,,VFR,,,,,,,,,,,,METAR,152.0
KHQG 122055Z AUTO 36011KT 10SM OVC016 03/00 A3020 RMK AO2 T00260004,KHQG,2019-01-12T20:55:00Z,37.17,-101.37,2.6,0.4,360,11,,10.0,30.200787,,,TRUE,TRUE,,,,,,,OVC,1600,,,,,,,MVFR,,,,,,,,,,,,METAR,956.0
KHQG 122055Z AUTO 36011KT 10SM OVC016 03/00 A3020 RMK AO2 T00260004,KHQG,2019-01-12T20:55:00Z,37.17,-101.37,2.6,0.4,360,11,,10.0,30.200787,,,TRUE,TRUE,,,,,,,OVC,1600,,,,,,,MVFR,,,,,,,,,,,,METAR,956.0
KHLX 122055Z AUTO 19006KT 10SM OVC041 M02/M06 A3028 RMK AO2 T10161065,KHLX,2019-01-12T20:55:00Z,36.77,-80.82,-1.6,-6.5,190,6,,10.0,30.280512,,,TRUE,TRUE,,,,,,,OVC,4100,,,,,,,VFR,,,,,,,,,,,,METAR,834.0
KHJH 122055Z AUTO 35008G16KT 2 1/2SM -SN BKN010 BKN028 OVC036 M02/M04 A3021 RMK AO2 T10201037,KHJH,2019-01-12T20:55:00Z,40.15,-97.58,-2.0,-3.7,350,8,16,2.5,30.209646,,,TRUE,TRUE,,,,,,-SN,BKN,1000,BKN,2800,OVC,3600,,,IFR,,,,,,,,,,,,SPECI,447.0
KHDE 122055Z AUTO 35011G15KT 7SM OVC007 M03/M04 A3023 RMK AO2 T10351042,KHDE,2019-01-12T20:55:00Z,40.45,-99.32,-3.5,-4.2,350,11,15,7.0,30.230314,,,TRUE,TRUE,,,,,,,OVC,700,,,,,,,IFR,,,,,,,,,,,,SPECI,705.0
KHDC 122055Z AUTO 22006KT 10SM OVC085 17/16 A2996 RMK AO2,KHDC,2019-01-12T20:55:00Z,30.52,-90.42,17.0,16.0,220,6,,10.0,29.958662,,,TRUE,TRUE,,,,,,,OVC,8500,,,,,,,VFR,,,,,,,,,,,,METAR,13.0
KGYL 122055Z AUTO 07005KT 5SM HZ OVC055 M01/M04 A3035 RMK AO2 T10151044,KGYL,2019-01-12T20:55:00Z,44.77,-94.08,-1.5,-4.4,70,5,,5.0,30.351377,,,TRUE,TRUE,,,,,,HZ,OVC,5500,,,,,,,MVFR,,,,,,,,,,,,SPECI,302.0
KGRN 122055Z AUTO 00000KT 10SM OVC005 M01/M01 A3018 RMK AO2 T10071014,KGRN,2019-01-12T20:55:00Z,42.8,-102.17,-0.7,-1.4,0,0,,10.0,30.180119,,,TRUE,TRUE,,,,,,,OVC,500,,,,,,,IFR,,,,,,,,,,,,SPECI,1086.0
KGOP 122055Z AUTO 31014G21KT 10SM BKN040 11/01 A3016 RMK AO2,KGOP,2019-01-12T20:55:00Z,31.42,-97.8,11.0,1.0,310,14,21,10.0,30.159449,,,TRUE,TRUE,,,,,,,BKN,4000,,,,,,,VFR,,,,,,,,,,,,METAR,276.0
KGIC 122055Z AUTO 00000KT 10SM CLR 02/M02 A3013 RMK AO1,KGIC,2019-01-12T20:55:00Z,45.95,-116.12,2.0,-2.0,0,0,,10.0,30.129921,,,TRUE,TRUE,,,,,,,CLR,,,,,,,,VFR,,,,,,,,,,,,SPECI,1009.0
KGHG 122055Z AUTO 29008G15KT 250V310 10SM CLR M02/M19 A3043 RMK AO2,KGHG,2019-01-12T20:55:00Z,42.1,-70.67,-2.0,-19.0,290,8,15,10.0,30.431103,,,TRUE,TRUE,,,,,,,CLR,,,,,,,,VFR,,,,,,,,,,,,SPECI,4.0
KGDJ 122055Z AUTO 31020G24KT 10SM OVC033 09/02 A3017 RMK AO2 T00860015,KGDJ,2019-01-12T20:55:00Z,32.45,-97.82,8.6,1.5,310,20,24,10.0,30.171259,,,TRUE,TRUE,,,,,,,OVC,3300,,,,,,,VFR,,,,,,,,,,,,METAR,237.0
KGCM 122055Z AUTO 33011G17KT 10SM OVC010 02/00 A3005 RMK AO2 TSNO,KGCM,2019-01-12T20:55:00Z,36.3,-95.48,2.0,0.0,330,11,17,10.0,30.050198,,,TRUE,TRUE,,,TRUE,,,,OVC,1000,,,,,,,MVFR,,,,,,,,,,,,METAR,221.0
KFWC 122055Z AUTO 07007KT 7SM -RA OVC031 02/01 A3004 RMK AO1 P0001 60001 T00200012,KFWC,2019-01-12T20:55:00Z,38.38,-88.42,2.0,1.2,70,7,,7.0,30.041338,,,TRUE,TRUE,,,,,,-RA,OVC,3100,,,,,,,VFR,,,,,,0.01,,,,,,SPECI,133.0
KFOA 122055Z AUTO 06008KT 4SM -RA BKN032 BKN040 OVC050 02/01 A3007 RMK AO2 P0003 60003 T00200010,KFOA,2019-01-12T20:55:00Z,38.67,-88.45,2.0,1.0,60,8,,4.0,30.070866,,,TRUE,TRUE,,,,,,-RA,BKN,3200,BKN,4000,OVC,5000,,,MVFR,,,,,,0.03,,,,,,SPECI,144.0
KFHB 122055Z AUTO 09009KT 10SM OVC070 19/14 A3021 RMK AO2 T01860143,KFHB,2019-01-12T20:55:00Z,30.62,-81.47,18.6,14.3,90,9,,10.0,30.209646,,,TRUE,TRUE,,,,,,,OVC,7000,,,,,,,VFR,,,,,,,,,,,,METAR,5.0
KFET 122055Z AUTO 35009KT 3SM -SN OVC008 00/M02 A3026 RMK AO2 T10051020,KFET,2019-01-12T20:55:00Z,41.45,-96.52,-0.5,-2.0,350,9,,3.0,30.259842,,,TRUE,TRUE,,,,,,-SN,OVC,800,,,,,,,IFR,,,,,,,,,,,,SPECI,367.0
KFEP 122055Z AUTO 07012KT 3/4SM -SN OVC006 M01/M02 A3029 RMK AO2 T10151016,KFEP,2019-01-12T20:55:00Z,42.25,-89.58,-1.5,-1.6,70,12,,0.75,30.28937,,,TRUE,TRUE,,,,,,-SN,OVC,600,,,,,,,LIFR,,,,,,,,,,,,SPECI,262.0
KF44 122055Z AUTO 30009G20KT 260V350 10SM OVC033 09/02 A3009 RMK AO2,KF44,2019-01-12T20:55:00Z,32.17,-95.83,9.0,2.0,300,9,20,10.0,30.088583,,,TRUE,TRUE,,,,,,,OVC,3300,,,,,,,VFR,,,,,,,,,,,,METAR,135.0
KF00 122055Z AUTO 31013G21KT 10SM OVC021 05/02 A3008 RMK AO2 T00520015,KF00,2019-01-12T20:55:00Z,33.62,-96.18,5.2,1.5,310,13,21,10.0,30.079725,,,TRUE,TRUE,,,,,,,OVC,2100,,,,,,,MVFR,,,,,,,,,,,,SPECI,188.0
KEZZ 122055Z AUTO 02009KT 1SM -SN BR OVC005 M01/M02 A3009 RMK AO2 T10131022,KEZZ,2019-01-12T20:55:00Z,39.72,-94.28,-1.3,-2.2,20,9,,1.0,30.088583,,,TRUE,TRUE,,,,,,-SN BR,OVC,500,,,,,,,IFR,,,,,,,,,,,,METAR,317.0
KEZF 122055Z AUTO 00000KT 10SM -RA SCT039 BKN048 OVC050 01/M04 A3049 RMK AO2 T00131038,KEZF,2019-01-12T20:55:00Z,38.27,-77.45,1.3,-3.8,0,0,,10.0,30.490158,,,TRUE,TRUE,,,,,,-RA,SCT,3900,BKN,4800,OVC,5000,,,VFR,,,,,,,,,,,,METAR,26.0
KETN 122055Z AUTO 33015G21KT 10SM OVC032 07/00 A3017 RMK AO2 T00680001,KETN,2019-01-12T20:55:00Z,32.42,-98.82,6.8,0.1,330,15,21,10.0,30.171259,,,TRUE,TRUE,,,,,,,OVC,3200,,,,,,,VFR,,,,,,,,,,,,SPECI,446.0
KEFK 122055Z AUTO 30003KT 10SM CLR M14/M20 A3044 RMK AO2 T11381196,KEFK,2019-01-12T20:55:00Z,44.88,-72.23,-13.8,-19.6,300,3,,10.0,30.43996,,,TRUE,TRUE,,,,,,,CLR,,,,,,,,VFR,,,,,,,,,,,,SPECI,284.0
KEBG 122055Z AUTO 35007KT 10SM CLR 28/07 A3005 RMK AO2 T02800069,KEBG,2019-01-12T20:55:00Z,26.45,-98.13,28.0,6.9,350,7,,10.0,30.050198,,,TRUE,TRUE,,,,,,,CLR,,,,,,,,VFR,,,,,,,,,,,,SPECI,24.0
KEBA 122055Z AUTO 05004KT 10SM BKN025 OVC032 05/00 A3030 RMK AO2 T00510000,KEBA,2019-01-12T20:55:00Z,34.1,-82.82,5.1,0.0,50,4,,10.0,30.301182,,,TRUE,TRUE,,,,,,,BKN,2500,OVC,3200,,,,,MVFR,,,,,,,,,,,,METAR,184.0
KDZJ 122055Z AUTO 09011KT 10SM -DZ OVC021 05/M02 A3019 RMK AO2 T00511023,KDZJ,2019-01-12T20:55:00Z,34.85,-84.0,5.1,-2.3,90,11,,10.0,30.188976,,,TRUE,TRUE,,,,,,-DZ,OVC,2100,,,,,,,MVFR,,,,,,,,,,,,METAR,582.0
KDVO 122055Z AUTO 17004KT 10SM CLR 14/10 A2997 RMK AO2,KDVO,2019-01-12T20:55:00Z,38.15,-122.55,14.0,10.0,170,4,,10.0,29.970472,,,TRUE,TRUE,,,,,,,CLR,,,,,,,,VFR,,,,,,,,,,,,SPECI,1.0
KDUC 122055Z AUTO 33014KT 10SM OVC022 05/01 A3015 RMK AO2,KDUC,2019-01-12T20:55:00Z,34.47,-97.97,5.0,1.0,330,14,,10.0,30.15059,,,TRUE,TRUE,,,,,,,OVC,2200,,,,,,,MVFR,,,,,,,,,,,,METAR,339.0
KDUA 122055Z AUTO 31014G21KT 10SM OVC022 05/01 A3009 RMK AO2,KDUA,2019-01-12T20:55:00Z,33.95,-96.4,5.0,1.0,310,14,21,10.0,30.088583,,,TRUE,TRUE,,,,,,,OVC,2200,,,,,,,MVFR,,,,,,,,,,,,METAR,213.0
KDNV 122055Z AUTO 06013KT 1 3/4SM -SN OVC009 M01/M02 A3015 RMK AO2 T10101021,KDNV,2019-01-12T20:55:00Z,40.2,-87.6,-1.0,-2.1,60,13,,1.75,30.15059,,,TRUE,TRUE,,,,,,-SN,OVC,900,,,,,,,IFR,,,,,,,,,,,,SPECI,212.0
KDNN 122055Z AUTO 20003KT 10SM DZ OVC028 06/00 A3018 RMK AO2,KDNN,2019-01-12T20:55:00Z,34.72,-84.87,6.0,0.0,200,3,,10.0,30.180119,,,TRUE,TRUE,,,,,,DZ,OVC,2800,,,,,,,MVFR,,,,,,,,,,,,METAR,216.0
KDKR 122055Z AUTO 28010G20KT 10SM 14/04 A3009 RMK AO2,KDKR,2019-01-12T20:55:00Z,31.3,-95.4,14.0,4.0,280,10,20,10.0,30.088583,,,TRUE,TRUE,,,,,,,,,,,,,,,,,,,,,,,,,,,SPECI,106.0
KDED 122055Z AUTO 08008G15KT 10SM SCT044 SCT050 SCT065 23/13 A3017 RMK AO2,KDED,2019-01-12T20:55:00Z,29.07,-81.28,23.0,13.0,80,8,15,10.0,30.171259,,,TRUE,TRUE,,,,,,,SCT,4400,SCT,5000,SCT,6500,,,VFR,,,,,,,,,,,,METAR,24.0
KCUH 122055Z AUTO 34012G20KT 10SM OVC015 03/00 A3007 RMK AO2 T00250002,KCUH,2019-01-12T20:55:00Z,35.95,-96.77,2.5,0.2,340,12,20,10.0,30.070866,,,TRUE,TRUE,,,,,,,OVC,1500,,,,,,,MVFR,,,,,,,,,,,,METAR,279.0
KCTY 122055Z AUTO 19009KT 10SM BKN050 BKN070 23/12 A3017 RMK AO2 T02290125,KCTY,2019-01-12T20:55:00Z,29.63,-83.1,22.9,12.5,190,9,,10.0,30.171259,,,TRUE,TRUE,,,,,,,BKN,5000,BKN,7000,,,,,VFR,,,,,,,,,,,,METAR,13.0
KCQM 122055Z AUTO 08005KT 10SM OVC005 M07/M07 A3042 RMK AO2,KCQM,2019-01-12T20:55:00Z,47.82,-92.68,-7.0,-7.0,80,5,,10.0,30.41929,,,TRUE,TRUE,,,,,,,OVC,500,,,,,,,IFR,,,,,,,,,,,,SPECI,404.0
KCQF 122055Z AUTO 16011G16KT 10SM SCT060 BKN110 19/16 A3003 RMK AO2,KCQF,2019-01-12T20:55:00Z,30.47,-87.88,19.0,16.0,160,11,16,10.0,30.029528,,,TRUE,TRUE,,,,,,,SCT,6000,BKN,11000,,,,,VFR,,,,,,,,,,,,METAR,28.0
KCPK 122055Z AUTO 02004KT 10SM SCT070 BKN090 OVC110 05/M05 A3046 RMK AO2 T00501055,KCPK,2019-01-12T20:55:00Z,36.67,-76.32,5.0,-5.5,20,4,,10.0,30.46063,,,TRUE,TRUE,,,,,,,SCT,7000,BKN,9000,OVC,11000,,,VFR,,,,,,,,,,,,METAR,6.0
KCNI 122055Z AUTO 08007KT 030V100 10SM -DZ OVC021 05/M03 A3021 RMK AO2,KCNI,2019-01-12T20:55:00Z,34.32,-84.42,5.0,-3.0,80,7,,10.0,30.209646,,,TRUE,TRUE,,,,,,-DZ,OVC,2100,,,,,,,MVFR,,,,,,,,,,,,METAR,372.0
KCKN 122055Z AUTO 11004KT 10SM SCT015 M03/M04 A3041 RMK AO2,KCKN,2019-01-12T20:55:00Z,47.85,-96.62,-3.0,-4.0,110,4,,10.0,30.410433,,,TRUE,TRUE,,,,,,,SCT,1500,,,,,,,VFR,,,,,,,,,,,,SPECI,273.0
KCKC 122055Z AUTO 05007KT 10SM OVC005 M09/M11 A3045 RMK AO2,KCKC,2019-01-12T20:55:00Z,47.83,-90.37,-9.0,-11.0,50,7,,10.0,30.448818,,,TRUE,TRUE,,,,,,,OVC,500,,,,,,,IFR,,,,,,,,,,,,SPECI,548.0
KCIR 122055Z AUTO 00000KT 2 1/2SM RA OVC011 06/05 A2997 RMK AO2 P0007 60011 T00550050,KCIR,2019-01-12T20:55:00Z,37.07,-89.22,5.5,5.0,0,0,,2.5,29.970472,,,TRUE,TRUE,,,,,,RA,OVC,1100,,,,,,,IFR,,,,,,0.07,,,,,,SPECI,98.0
KOZS 122055Z AUTO 02004KT 2SM BR OVC003 01/00 A2996 RMK AO2,KOZS,2019-01-12T20:55:00Z,37.97,-92.68,1.0,0.0,20,4,,2.0,29.958662,,,TRUE,TRUE,,,,,,BR,OVC,300,,,,,,,LIFR,,,,,,,,,,,,METAR,324.0
KOSC 122055Z AUTO 06011KT 4SM -SN OVC016 M04/M07 A3050 RMK AO2 T10401067,KOSC,2019-01-12T20:55:00Z,44.45,-83.4,-4.0,-6.7,60,11,,4.0,30.499016,,,TRUE,TRUE,,,,,,-SN,OVC,1600,,,,,,,MVFR,,,,,,,,,,,,SPECI,193.0
KOSA 122055Z AUTO 28014G24KT 10SM BKN024 09/03 A3005 RMK AO1 T00850031,KOSA,2019-01-12T20:55:00Z,33.1,-94.97,8.5,3.1,280,14,24,10.0,30.050198,,,TRUE,TRUE,,,,,,,BKN,2400,,,,,,,MVFR,,,,,,,,,,,,METAR,111.0
KORG 122055Z AUTO 29005KT 10SM CLR 22/12 A3000 RMK AO2 T02200122,KORG,2019-01-12T20:55:00Z,30.07,-93.8,22.0,12.2,290,5,,10.0,30.0,,,TRUE,TRUE,,,,,,,CLR,,,,,,,,VFR,,,,,,,,,,,,SPECI,4.0
KONM 122055Z AUTO 19007KT 160V220 10SM CLR 10/M03 A3015 RMK AO2 T01001027,KONM,2019-01-12T20:55:00Z,34.02,-106.9,10.0,-2.7,190,7,,10.0,30.15059,,,TRUE,TRUE,,,,,,,CLR,,,,,,,,VFR,,,,,,,,,,,,SPECI,1410.0
KONL 122055Z AUTO 33005KT 3SM BR OVC003 M06/M07 A3030 RMK AO2 T10611070,KONL,2019-01-12T20:55:00Z,42.47,-98.67,-6.1,-7.0,330,5,,3.0,30.301182,,,TRUE,TRUE,,,,,,BR,OVC,300,,,,,,,LIFR,,,,,,,,,,,,SPECI,619.0
KOKV 122055Z AUTO 12004KT 1 3/4SM -SN SCT016 BKN029 OVC035 M02/M03 A3045 RMK AO2,KOKV,2019-01-12T20:55:00Z,39.13,-78.15,-2.0,-3.0,120,4,,1.75,30.448818,,,TRUE,TRUE,,,,,,-SN,SCT,1600,BKN,2900,OVC,3500,,,IFR,,,,,,,,,,,,METAR,222.0
KOKM 122055Z AUTO 33009G19KT 10SM OVC014 04/02 A3004 RMK AO2 T00350015,KOKM,2019-01-12T20:55:00Z,35.67,-95.95,3.5,1.5,330,9,19,10.0,30.041338,,,TRUE,TRUE,,,,,,,OVC,1400,,,,,,,MVFR,,,,,,,,,,,,METAR,220.0
KOCQ 122055Z AUTO 07008KT 10SM OVC040 M02/M06 A3047 RMK AO1 T10221061,KOCQ,2019-01-12T20:55:00Z,44.87,-87.92,-2.2,-6.1,70,8,,10.0,30.469488,,,TRUE,TRUE,,,,,,,OVC,4000,,,,,,,VFR,,,,,,,,,,,,SPECI,183.0
KMWO 122055Z AUTO 06006KT 1 3/4SM -SN BR OVC008 M01/M02 A3026 RMK AO2 P0002 T10071016 60004,KMWO,2019-01-12T20:55:00Z,39.53,-84.4,-0.7,-1.6,60,6,,1.75,30.259842,,,TRUE,TRUE,,,,,,-SN BR,OVC,800,,,,,,,IFR,,,,,,0.02,,,,,,SPECI,198.0
KMVE 122055Z AUTO 00000KT 10SM CLR M02/M07 A3035 RMK AO2,KMVE,2019-01-12T20:55:00Z,44.97,-95.72,-2.0,-7.0,0,0,,10.0,30.351377,,,TRUE,TRUE,,,,,,,CLR,,,,,,,,VFR,,,,,,,,,,,,SPECI,315.0
KMQS 122055Z AUTO 00000KT 10SM FEW045 M00/M13 A3047 RMK AO2,KMQS,2019-01-12T20:55:00Z,39.98,-75.87,0.0,-13.0,0,0,,10.0,30.469488,,,TRUE,TRUE,,,,,,,FEW,4500,,,,,,,VFR,,,,,,,,,,,,SPECI,201.0
KMNZ 122055Z AUTO 33018G23KT 10SM OVC034 10/02 A3016 RMK AO2 T00950015,KMNZ,2019-01-12T20:55:00Z,31.67,-98.15,9.5,1.5,330,18,23,10.0,30.159449,,,TRUE,TRUE,,,,,,,OVC,3400,,,,,,,VFR,,,,,,,,,,,,METAR,396.0
KMLE 122055Z AUTO 36005KT 2 1/2SM -SN OVC007 00/M01 A3023 RMK AO2 P0001 60007 T00001013,KMLE,2019-01-12T20:55:00Z,41.2,-96.12,0.0,-1.3,360,5,,2.5,30.230314,,,TRUE,TRUE,,,,,,-SN,OVC,700,,,,,,,IFR,,,,,,0.01,,,,,,SPECI,320.0
KMKJ 122055Z AUTO 05011KT 10SM SCT037 OVC060 01/00 A3029 RMK AO2 T00061005,KMKJ,2019-01-12T20:55:00Z,36.88,-81.33,0.6,-0.5,50,11,,10.0,30.28937,,,TRUE,TRUE,,,,,,,SCT,3700,OVC,6000,,,,,VFR,,,,,,,,,,,,METAR,780.0
KMEZ 122055Z AUTO 26008KT 3SM BKN008 OVC011 07/07 A2993 RMK AO2,KMEZ,2019-01-12T20:55:00Z,34.55,-94.2,7.0,7.0,260,8,,3.0,29.929134,,,TRUE,TRUE,,,,,,,BKN,800,OVC,1100,,,,,IFR,,,,,,,,,,,,METAR,329.0
KMDQ 122055Z AUTO 13007KT 7SM RA SCT055 OVC065 06/03 A3004 RMK A02 P0005 T00630031 60007,KMDQ,2019-01-12T20:55:00Z,34.87,-86.55,6.3,3.1,130,7,,7.0,30.041338,,,TRUE,TRUE,,,,,,RA,SCT,5500,OVC,6500,,,,,VFR,,,,,,0.05,0.07,,,,,METAR,230.0
KLYO 122055Z AUTO 35017KT 7SM BR OVC009 M02/M03 A3018 RMK AO2 T10181033,KLYO,2019-01-12T20:55:00Z,38.35,-98.23,-1.8,-3.3,350,17,,7.0,30.180119,,,TRUE,TRUE,,,,,,BR,OVC,900,,,,,,,IFR,,,,,,,,,,,,METAR,515.0
KLXN 122055Z AUTO 36010KT 10SM OVC010 M02/M04 A3024 RMK AO2 T10161044,KLXN,2019-01-12T20:55:00Z,40.78,-99.77,-1.6,-4.4,360,10,,10.0,30.239174,,,TRUE,TRUE,,,,,,,OVC,1000,,,,,,,MVFR,,,,,,,,,,,,SPECI,734.0
KLXL 122055Z AUTO 10005KT 10SM BKN024 OVC049 M01/M06 A3037 RMK AO2,KLXL,2019-01-12T20:55:00Z,45.95,-94.33,-1.0,-6.0,100,5,,10.0,30.369095,,,TRUE,TRUE,,,,,,,BKN,2400,OVC,4900,,,,,MVFR,,,,,,,,,,,,SPECI,342.0
KLVL 122055Z AUTO 10SM SCT008 BKN037 OVC075 00/M02 A3046 RMK AO1 T00001016,KLVL,2019-01-12T20:55:00Z,36.78,-77.8,0.0,-1.6,,,,10.0,30.46063,,,TRUE,TRUE,,,,,,,SCT,800,BKN,3700,OVC,7500,,,VFR,,,,,,,,,,,,METAR,100.0
KLUV 122055Z AUTO 36020KT 10SM CLR 11/00 A3019 RMK AO2,KLUV,2019-01-12T20:55:00Z,32.75,-101.92,11.0,0.0,360,20,,10.0,30.188976,,,TRUE,TRUE,,,,,,,CLR,,,,,,,,VFR,,,,,,,,,,,,SPECI,912.0
KLUA 122055Z AUTO 22003KT 1 1/4SM -SN OVC017 M01/M01 A3041 RMK AO2,KLUA,2019-01-12T20:55:00Z,38.67,-78.5,-1.0,-1.0,220,3,,1.25,30.410433,,,TRUE,TRUE,,,,,,-SN,OVC,1700,,,,,,,IFR,,,,,,,,,,,,METAR,275.0
KLRU 122055Z AUTO 15007KT 10SM CLR 14/M03 A3016 RMK AO2 T01351027,KLRU,2019-01-12T20:55:00Z,32.27,-106.92,13.5,-2.7,150,7,,10.0,30.159449,,,TRUE,TRUE,,,,,,,CLR,,,,,,,,VFR,,,,,,,,,,,,METAR,1358.0
KLOT 122055Z AUTO 07012G18KT 3SM -SN OVC007 M01/M03 A3026 RMK AO2 T10151026,KLOT,2019-01-12T20:55:00Z,41.6,-88.1,-1.5,-2.6,70,12,18,3.0,30.259842,,,TRUE,TRUE,,,,,,-SN,OVC,700,,,,,,,IFR,,,,,,,,,,,,SPECI,205.0
KLNQ 122055Z AUTO 19007KT 10SM BKN060 BKN080 20/16 A3002 RMK AO2 T01960164,KLNQ,2019-01-12T20:55:00Z,29.35,-89.43,19.6,16.4,190,7,,10.0,30.02067,,,TRUE,TRUE,,,,,,,BKN,6000,BKN,8000,,,,,VFR,,,,,,,,,,,,METAR,1.0
KLNN 122055Z AUTO 10006KT 10SM CLR A3039 RMK AO1,KLNN,2019-01-12T20:55:00Z,41.67,-81.37,,,100,6,,10.0,30.389763,,,TRUE,TRUE,,,,,,,CLR,,,,,,,,VFR,,,,,,,,,,,,SPECI,191.0
KLHB 122055Z AUTO 30015G21KT 10SM CLR 14/06 A3012 RMK AO2 T01360055,KLHB,2019-01-12T20:55:00Z,30.87,-96.62,13.6,5.5,300,15,21,10.0,30.121063,,,TRUE,TRUE,,,,,,,CLR,,,,,,,,VFR,,,,,,,,,,,,SPECI,87.0
KLAM 122055Z AUTO 19007KT 10SM SCT020 BKN029 OVC040 00/M02 A3017 RMK AO2 T10031021,KLAM,2019-01-12T20:55:00Z,35.87,-106.27,-0.3,-2.1,190,7,,10.0,30.171259,,,TRUE,TRUE,,,,,,,SCT,2000,BKN,2900,OVC,4000,,,MVFR,,,,,,,,,,,,METAR,2179.0
KL35 122055Z AUTO 26006KT 10SM OVC016 01/M02 A2995 RMK AO2,KL35,2019-01-12T20:55:00Z,34.27,-116.85,1.0,-2.0,260,6,,10.0,29.949802,,,TRUE,TRUE,,,,,,,OVC,1600,,,,,,,MVFR,,,,,,,,,,,,SPECI,2059.0
KSZT 122055Z AUTO 04010G15KT 10SM CLR 03/M01 A3022 RMK AO2,KSZT,2019-01-12T20:55:00Z,48.3,-116.57,3.0,-1.0,40,10,15,10.0,30.221457,,,TRUE,TRUE,,,,,,,CLR,,,,,,,,VFR,,,,,,,,,,,,SPECI,648.0
KSWW 122055Z AUTO 33010G21KT 10SM BKN036 09/00 A3021 RMK AO2 T00870000,KSWW,2019-01-12T20:55:00Z,32.47,-100.47,8.7,0.0,330,10,21,10.0,30.209646,,,TRUE,TRUE,,,,,,,BKN,3600,,,,,,,VFR,,,,,,,,,,,,SPECI,727.0
KSVE 122055Z AUTO 11006KT 10SM CLR 07/00 A3007 RMK AO2,KSVE,2019-01-12T20:55:00Z,40.37,-120.57,7.0,0.0,110,6,,10.0,30.070866,,,TRUE,TRUE,,,,,,,CLR,,,,,,,,VFR,,,,,,,,,,,,SPECI,1263.0
KSTE 122055Z AUTO 05008KT 5SM UP OVC006 M03/M03 A3040 RMK AO2 T10311031,KSTE,2019-01-12T20:55:00Z,44.55,-89.53,-3.1,-3.1,50,8,,5.0,30.398623,,,TRUE,TRUE,,,,,,UP,OVC,600,,,,,,,IFR,,,,,,,,,,,,SPECI,338.0
KSOA 122055Z AUTO 32011KT 10SM CLR 13/01 A3021 RMK AO2,KSOA,2019-01-12T20:55:00Z,30.58,-100.65,13.0,1.0,320,11,,10.0,30.209646,,,TRUE,TRUE,,,,,,,CLR,,,,,,,,VFR,,,,,,,,,,,,SPECI,652.0
KSNL 122055Z AUTO 33018G27KT 10SM OVC014 03/00 A3009 RMK AO2 T00250000,KSNL,2019-01-12T20:55:00Z,35.35,-96.95,2.5,0.0,330,18,27,10.0,30.088583,,,TRUE,TRUE,,,,,,,OVC,1400,,,,,,,MVFR,,,,,,,,,,,,METAR,327.0
KSJS 122055Z AUTO 08003KT 10SM -RA SCT044 OVC050 04/03 A3020 RMK AO2 T00350026,KSJS,2019-01-12T20:55:00Z,37.75,-82.63,3.5,2.6,80,3,,10.0,30.200787,,,TRUE,TRUE,,,,,,-RA,SCT,4400,OVC,5000,,,,,VFR,,,,,,,,,,,,METAR,372.0
KSBS 122055Z AUTO 00000KT 10SM CLR M06/M08 A3016 RMK AO1 T10651081,KSBS,2019-01-12T20:55:00Z,40.52,-106.87,-6.5,-8.1,0,0,,10.0,30.159449,,,TRUE,TRUE,,,,,,,CLR,,,,,,,,VFR,,,,,,,,,,,,METAR,2096.0
KSAZ 122055Z AUTO 09003KT 10SM SCT024 OVC033 M03/M08 A3037 RMK AO2,KSAZ,2019-01-12T20:55:00Z,46.37,-94.8,-3.0,-8.0,90,3,,10.0,30.369095,,,TRUE,TRUE,,,,,,,SCT,2400,OVC,3300,,,,,VFR,,,,,,,,,,,,SPECI,392.0
KS52 122055Z AUTO 00000KT 10SM BKN042 BKN070 OVC090 M01/M02 A3022 RMK AO2 T10131017,KS52,2019-01-12T20:55:00Z,48.38,-120.15,-1.3,-1.7,0,0,,10.0,30.221457,,,TRUE,TRUE,,,,,,,BKN,4200,BKN,7000,OVC,9000,,,VFR,,,,,,,,,,,,METAR,520.0
KLVN 122055Z AUTO 08009KT 7SM OVC060 M01/M03 A3036 RMK AO2,KLVN,2019-01-12T20:55:00Z,44.63,-93.23,-1.0,-3.0,80,9,,7.0,30.360237,,,TRUE,TRUE,,,,,,,OVC,6000,,,,,,,VFR,,,,,,,,,,,,SPECI,293.0
KNKX 122055Z 27008KT 10SM FEW014 SCT026 OVC039 17/09 A2999 RMK AO2 RAE06 SLP150 P0000 60002 T01670094 58022,KNKX,2019-01-12T20:55:00Z,32.87,-117.13,16.7,9.4,270,8,,10.0,29.991142,1015.0,,,TRUE,,,,,,,FEW,1400,SCT,2600,OVC,3900,,,VFR,-2.2,,,,,0.005,,,,,,SPECI,146.0
KO69 122055Z AUTO 16007KT 10SM CLR 15/11 A2995 RMK A01,KO69,2019-01-12T20:55:00Z,38.25,-122.6,15.0,11.0,160,7,,10.0,29.949802,,,TRUE,TRUE,,,,,,,CLR,,,,,,,,VFR,,,,,,,,,,,,METAR,28.0
KN38 122055Z AUTO 05004KT 10SM OVC050 M05/M13 A3037 RMK AO2,KN38,2019-01-12T20:55:00Z,41.73,-77.4,-5.0,-13.0,50,4,,10.0,30.369095,,,TRUE,TRUE,,,,,,,OVC,5000,,,,,,,VFR,,,,,,,,,,,,METAR,577.0
KN03 122055Z AUTO 00000KT 10SM OVC070 M06/M11 A3046 RMK AO2,KN03,2019-01-12T20:55:00Z,42.6,-76.22,-6.0,-11.0,0,0,,10.0,30.46063,,,TRUE,TRUE,,,,,,,OVC,7000,,,,,,,VFR,,,,,,,,,,,,METAR,366.0
KMZG 122055Z AUTO 06007KT 10SM CLR 18/16 A3006 RMK A01,KMZG,2019-01-12T20:55:00Z,27.73,-96.18,18.0,16.0,60,7,,10.0,30.059055,,,TRUE,TRUE,,,,,,,CLR,,,,,,,,VFR,,,,,,,,,,,,METAR,29.0
KHVS 122055Z AUTO 05008KT 10SM BKN070 OVC120 05/M06 A3035 RMK AO2,KHVS,2019-01-12T20:55:00Z,34.4,-80.12,5.0,-6.0,50,8,,10.0,30.351377,,,TRUE,TRUE,,,,,,,BKN,7000,OVC,12000,,,,,VFR,,,,,,,,,,,,METAR,111.0
KHRX 122055Z AUTO 36013G20KT 10SM SCT036 10/00 A3018 RMK AO2 T00990000,KHRX,2019-01-12T20:55:00Z,34.87,-102.33,9.9,0.0,360,13,20,10.0,30.180119,,,TRUE,TRUE,,,,,,,SCT,3600,,,,,,,VFR,,,,,,,,,,,,METAR,1154.0
KHPT 122055Z AUTO 06009KT 2SM -SN OVC007 M01/M01 A3027 RMK AO2,KHPT,2019-01-12T20:55:00Z,42.58,-93.23,-1.0,-1.0,60,9,,2.0,30.268702,,,TRUE,TRUE,,,,,,-SN,OVC,700,,,,,,,IFR,,,,,,,,,,,,METAR,358.0
KI67 122055Z AUTO 06008KT 3SM BKN008 OVC019 00/M01 A3023 RMK AO1 P0003,KI67,2019-01-12T20:55:00Z,39.25,-84.78,0.0,-1.0,60,8,,3.0,30.230314,,,TRUE,TRUE,,,,,,,BKN,800,OVC,1900,,,,,IFR,,,,,,0.03,,,,,,METAR,178.0
KI35 122055Z AUTO 10007G14KT 10SM OVC041 06/M02 A3017 RMK AO2 T00631024,KI35,2019-01-12T20:55:00Z,36.87,-83.37,6.3,-2.4,100,7,14,10.0,30.171259,,,TRUE,TRUE,,,,,,,OVC,4100,,,,,,,VFR,,,,,,,,,,,,METAR,473.0
EHVK 122055Z AUTO 27008KT 240V320 9999 DZ FEW008 SCT010 BKN015 07/06 Q1013 GRN,EHVK,2019-01-12T20:55:00Z,51.63,5.7,7.0,6.0,270,8,,6.21,29.911417,,,TRUE,,,,,,,DZ,FEW,800,SCT,1000,BKN,1500,,,MVFR,,,,,,,,,,,,METAR,21.0
K82V 122055Z AUTO 33009KT 10SM CLR 04/M04 A3016 RMK AO2,K82V,2019-01-12T20:55:00Z,41.15,-104.13,4.0,-4.0,330,9,,10.0,30.159449,,,TRUE,TRUE,,,,,,,CLR,,,,,,,,VFR,,,,,,,,,,,,METAR,1570.0
K7W4 122055Z AUTO 00000KT 5SM SCT036 BKN044 OVC080 M01/M01 A3048 RMK AO1 T10081015,K7W4,2019-01-12T20:55:00Z,37.97,-77.75,-0.8,-1.5,0,0,,5.0,30.481298,,,TRUE,TRUE,,,,,,,SCT,3600,BKN,4400,OVC,8000,,,MVFR,,,,,,,,,,,,METAR,106.0
K6A2 122055Z AUTO 10004KT 10SM SCT020 BKN029 BKN036 06/00 A3020 RMK AO2,K6A2,2019-01-12T20:55:00Z,33.23,-84.27,6.0,0.0,100,4,,10.0,30.200787,,,TRUE,TRUE,,,,,,,SCT,2000,BKN,2900,BKN,3600,,,MVFR,,,,,,,,,,,,METAR,292.0
K5R8 122055Z AUTO 26011G17KT 10SM CLR 21/09 A2999 RMK AO2 T02070088,K5R8,2019-01-12T20:55:00Z,30.43,-93.47,20.7,8.8,260,11,17,10.0,29.991142,,,TRUE,TRUE,,,,,,,CLR,,,,,,,,VFR,,,,,,,,,,,,METAR,24.0
K5H4 122055Z AUTO 12004KT 10SM OVC014 M09/M09 A3036 RMK AO2,K5H4,2019-01-12T20:55:00Z,47.78,-99.93,-9.0,-9.0,120,4,,10.0,30.360237,,,TRUE,TRUE,,,,,,,OVC,1400,,,,,,,MVFR,,,,,,,,,,,,METAR,490.0
K54J 122055Z AUTO 15009KT 10SM SCT016 18/15 A3008 RMK AO2 T01810146,K54J,2019-01-12T20:55:00Z,30.73,-86.15,18.1,14.6,150,9,,10.0,30.079725,,,TRUE,TRUE,,,,,,,SCT,1600,,,,,,,VFR,,,,,,,,,,,,METAR,88.0
K4S1 122055Z AUTO 22012KT 2SM BR OVC027 12/10 A2993 RMK AO1,K4S1,2019-01-12T20:55:00Z,42.42,-124.42,12.0,10.0,220,12,,2.0,29.929134,,,TRUE,TRUE,,,,,,BR,OVC,2700,,,,,,,IFR,,,,,,,,,,,,METAR,5.0
K4R5 122055Z AUTO 09005KT 10SM OVC021 M02/M06 A3048 RMK AO2 T10211065,K4R5,2019-01-12T20:55:00Z,46.78,-90.77,-2.1,-6.5,90,5,,10.0,30.481298,,,TRUE,TRUE,,,,,,,OVC,2100,,,,,,,MVFR,,,,,,,,,,,,METAR,198.0
K4I3 122055Z AUTO 06007KT 3/4SM SN OVC005 M03/M03 A3031 RMK AO2 P0001,K4I3,2019-01-12T20:55:00Z,40.33,-82.53,-3.0,-3.0,60,7,,0.75,30.31004,,,TRUE,TRUE,,,,,,SN,OVC,500,,,,,,,LIFR,,,,,,0.01,,,,,,METAR,363.0
K3R7 122055Z AUTO 26012G16KT 10SM SCT035 21/13 A2998 RMK AO2 T02140132,K3R7,2019-01-12T20:55:00Z,30.25,-92.67,21.4,13.2,260,12,16,10.0,29.97933,,,TRUE,TRUE,,,,,,,SCT,3500,,,,,,,VFR,,,,,,,,,,,,METAR,7.0
K3LF 122055Z AUTO 07010KT 4SM -SN OVC008 01/00 A3007 RMK AO2 T00070000,K3LF,2019-01-12T20:55:00Z,39.17,-89.67,0.7,0.0,70,10,,4.0,30.070866,,,TRUE,TRUE,,,,,,-SN,OVC,800,,,,,,,IFR,,,,,,,,,,,,METAR,210.0
K2C8 122055Z AUTO 00000KT 10SM M08/M10 A3041 RMK AO2,K2C8,2019-01-12T20:55:00Z,48.78,-97.63,-8.0,-10.0,0,0,,10.0,30.410433,,,TRUE,TRUE,,,,,,,,,,,,,,,,,,,,,,,,,,,METAR,272.0
K1P1 122055Z AUTO 28007KT 10SM CLR M10/M18 A3043 RMK AO2 T11011176,K1P1,2019-01-12T20:55:00Z,43.78,-71.75,-10.1,-17.6,280,7,,10.0,30.431103,,,TRUE,TRUE,,,,,,,CLR,,,,,,,,VFR,,,,,,,,,,,,METAR,154.0
K1K1 122055Z AUTO 35018G23KT 10SM OVC011 00/M02 A3011 RMK AO2 T10051022,K1K1,2019-01-12T20:55:00Z,37.77,-97.12,-0.5,-2.2,350,18,23,10.0,30.109253,,,TRUE,TRUE,,,,,,,OVC,1100,,,,,,,MVFR,,,,,,,,,,,,METAR,416.0
K1A9 122055Z AUTO 09005KT 10SM OVC023 12/07 A3007 RMK AO2 T01230071,K1A9,2019-01-12T20:55:00Z,32.43,-86.52,12.3,7.1,90,5,,10.0,30.070866,,,TRUE,TRUE,,,,,,,OVC,2300,,,,,,,MVFR,,,,,,,,,,,,METAR,69.0
K14Y 122055Z AUTO 00000KT OVC021 M02/M06 A3036 RMK AO2 PWINO,K14Y,2019-01-12T20:55:00Z,45.9,-94.87,-2.0,-6.0,0,0,,,30.360237,,,TRUE,TRUE,,,,,TRUE,,OVC,2100,,,,,,,,,,,,,,,,,,,METAR,406.0
K0V4 122055Z AUTO 00000KT 1/2SM OVC007 00/M01 A3043 RMK AO1 P0002 60003 T10051006,K0V4,2019-01-12T20:55:00Z,37.15,-79.02,-0.5,-0.6,0,0,,0.5,30.431103,,,TRUE,TRUE,,,,,,,OVC,700,,,,,,,LIFR,,,,,,0.02,0.03,,,,,METAR,182.0
K0F2 122055Z AUTO 31016G22KT 10SM OVC022 05/02 A3014 RMK AO2 T00530015,K0F2,2019-01-12T20:55:00Z,33.6,-97.78,5.3,1.5,310,16,22,10.0,30.138779,,,TRUE,TRUE,,,,,,,OVC,2200,,,,,,,MVFR,,,,,,,,,,,,METAR,336.0
K0E0 122055Z AUTO 15007KT 10SM SCT044 SCT050 BKN055 06/M04 A3018 RMK AO2 T00581036,K0E0,2019-01-12T20:55:00Z,34.98,-106.0,5.8,-3.6,150,7,,10.0,30.180119,,,TRUE,TRUE,,,,,,,SCT,4400,SCT,5000,BKN,5500,,,VFR,,,,,,,,,,,,METAR,1890.0
KMMH 122055Z AUTO 00000KT 10SM BKN027 02/M05 A3005 RMK AO2 T00241048,KMMH,2019-01-12T20:55:00Z,37.62,-118.82,2.4,-4.8,0,0,,10.0,30.050198,,,TRUE,TRUE,,,,,,,BKN,2700,,,,,,,MVFR,,,,,,,,,,,,METAR,2173.0
KMLJ 122055Z AUTO 11006KT 10SM SCT042 SCT049 OVC085 08/01 A3025 RMK AO2,KMLJ,2019-01-12T20:55:00Z,33.15,-83.23,8.0,1.0,110,6,,10.0,30.250984,,,TRUE,TRUE,,,,,,,SCT,4200,SCT,4900,OVC,8500,,,VFR,,,,,,,,,,,,METAR,117.0
KMKS 122055Z AUTO 07004KT 7SM BKN080 11/07 A3032 RMK AO2,KMKS,2019-01-12T20:55:00Z,33.18,-80.03,11.0,7.0,70,4,,7.0,30.318897,,,TRUE,TRUE,,,,,,,BKN,8000,,,,,,,VFR,,,,,,,,,,,,METAR,23.0
KMKN 122055Z AUTO 33017G23KT 10SM OVC035 09/01 A3017 RMK AO2 T00850014,KMKN,2019-01-12T20:55:00Z,31.92,-98.6,8.5,1.4,330,17,23,10.0,30.171259,,,TRUE,TRUE,,,,,,,OVC,3500,,,,,,,VFR,,,,,,,,,,,,METAR,423.0
KMGC 122055Z AUTO 08006KT 3/4SM -SN OVC009 M02/M04 A3030 RMK AO2,KMGC,2019-01-12T20:55:00Z,41.7,-86.82,-2.0,-4.0,80,6,,0.75,30.301182,,,TRUE,TRUE,,,,,,-SN,OVC,900,,,,,,,LIFR,,,,,,,,,,,,METAR,200.0
KMDZ 122055Z AUTO 08008KT 10SM OVC005 M04/M05 A3038 RMK AO2 T10411050 TSNO,KMDZ,2019-01-12T20:55:00Z,45.1,-90.3,-4.1,-5.0,80,8,,10.0,30.380905,,,TRUE,TRUE,,,TRUE,,,,OVC,500,,,,,,,IFR,,,,,,,,,,,,METAR,448.0
KMCX 122055Z AUTO 08008KT 1/2SM -SN OVC005 M02/M03 A3024 RMK AO2 T10211028,KMCX,2019-01-12T20:55:00Z,40.72,-86.77,-2.1,-2.8,80,8,,0.5,30.239174,,,TRUE,TRUE,,,,,,-SN,OVC,500,,,,,,,LIFR,,,,,,,,,,,,METAR,206.0
KLXY 122055Z AUTO 31021G28KT 10SM SCT035 11/02 A3010 RMK AO2 T01090023,KLXY,2019-01-12T20:55:00Z,31.63,-96.52,10.9,2.3,310,21,28,10.0,30.100393,,,TRUE,TRUE,,,,,,,SCT,3500,,,,,,,VFR,,,,,,,,,,,,METAR,166.0
KLWA 122055Z AUTO 08005KT 1 1/4SM -SN OVC012 M01/M04 A3035 RMK AO2 T10111037,KLWA,2019-01-12T20:55:00Z,42.35,-86.25,-1.1,-3.7,80,5,,1.25,30.351377,,,TRUE,TRUE,,,,,,-SN,OVC,1200,,,,,,,IFR,,,,,,,,,,,,METAR,203.0
KLUD 122055Z AUTO 30010G19KT 10SM SCT025 BKN031 06/01 A3013 RMK AO2 T00610010,KLUD,2019-01-12T20:55:00Z,33.25,-97.58,6.1,1.0,300,10,19,10.0,30.129921,,,TRUE,TRUE,,,,,,,SCT,2500,BKN,3100,,,,,VFR,,,,,,,,,,,,METAR,319.0
KLNP 122055Z AUTO 15005KT 10SM -RA OVC040 03/00 A3018 RMK AO2,KLNP,2019-01-12T20:55:00Z,36.97,-82.52,3.0,0.0,150,5,,10.0,30.180119,,,TRUE,TRUE,,,,,,-RA,OVC,4000,,,,,,,VFR,,,,,,,,,,,,METAR,817.0
KLNC 122055Z AUTO 30016G22KT 10SM OVC028 07/02 A3013 RMK AO2 T00730018,KLNC,2019-01-12T20:55:00Z,32.58,-96.72,7.3,1.8,300,16,22,10.0,30.129921,,,TRUE,TRUE,,,,,,,OVC,2800,,,,,,,MVFR,,,,,,,,,,,,METAR,153.0
KLNA 122055Z AUTO 12009KT SCT035 OVC070 24/17 A3016 RMK AO2 T02350168 PWINO,KLNA,2019-01-12T20:55:00Z,26.6,-80.02,23.5,16.8,120,9,,,30.159449,,,TRUE,TRUE,,,,,TRUE,,SCT,3500,OVC,7000,,,,,,,,,,,,,,,,,METAR,11.0
KLMO 122055Z AUTO 18006KT 10SM BKN027 07/M01 A3018 RMK AO2 T00661011,KLMO,2019-01-12T20:55:00Z,40.17,-105.17,6.6,-1.1,180,6,,10.0,30.180119,,,TRUE,TRUE,,,,,,,BKN,2700,,,,,,,MVFR,,,,,,,,,,,,METAR,1541.0
KLHM 122055Z AUTO 23005KT 10SM CLR 15/06 A2998 RMK AO1,KLHM,2019-01-12T20:55:00Z,38.92,-121.35,15.0,6.0,230,5,,10.0,29.97933,,,TRUE,TRUE,,,,,,,CLR,,,,,,,,VFR,,,,,,,,,,,,METAR,37.0
KL18 122055Z AUTO 30004KT 5SM +RA SCT020 BKN039 OVC050 11/10 A3001 RMK AO2 P0017,KL18,2019-01-12T20:55:00Z,33.35,-117.25,11.0,10.0,300,4,,5.0,30.008858,,,TRUE,TRUE,,,,,,+RA,SCT,2000,BKN,3900,OVC,5000,,,MVFR,,,,,,0.17,,,,,,METAR,216.0
KK88 122055Z AUTO 34010G14KT 10SM SCT009 OVC014 00/M01 A3005 RMK AO1 T10031007,KK88,2019-01-12T20:55:00Z,37.87,-95.38,-0.3,-0.7,340,10,14,10.0,30.050198,,,TRUE,TRUE,,,,,,,SCT,900,OVC,1400,,,,,MVFR,,,,,,,,,,,,METAR,309.0
KJYR 122055Z AUTO 36013G21KT 6SM BR OVC008 M03/M04 A3023 RMK AO2,KJYR,2019-01-12T20:55:00Z,40.9,-97.62,-3.0,-4.0,360,13,21,6.0,30.230314,,,TRUE,TRUE,,,,,,BR,OVC,800,,,,,,,IFR,,,,,,,,,,,,METAR,509.0
KJYM 122055Z AUTO 08008KT 1 1/2SM -SN BKN008 BKN013 OVC022 M02/M04 A3033 RMK AO2 T10221045,KJYM,2019-01-12T20:55:00Z,41.92,-84.58,-2.2,-4.5,80,8,,1.5,30.33071,,,TRUE,TRUE,,,,,,-SN,BKN,800,BKN,1300,OVC,2200,,,IFR,,,,,,,,,,,,METAR,360.0
KJYL 122055Z AUTO 08005KT 10SM OVC065 12/07 A3029 RMK AO2 T01200067,KJYL,2019-01-12T20:55:00Z,32.65,-81.6,12.0,6.7,80,5,,10.0,30.28937,,,TRUE,TRUE,,,,,,,OVC,6500,,,,,,,VFR,,,,,,,,,,,,METAR,57.0
KJWY 122055Z AUTO 32015G21KT 10SM OVC027 08/02 A3013 RMK AO2 T00750023,KJWY,2019-01-12T20:55:00Z,32.45,-96.92,7.5,2.3,320,15,21,10.0,30.129921,,,TRUE,TRUE,,,,,,,OVC,2700,,,,,,,MVFR,,,,,,,,,,,,METAR,217.0
KJSV 122055Z AUTO 30012G21KT 7SM BKN009 OVC013 05/03 A2997 RMK AO2,KJSV,2019-01-12T20:55:00Z,35.43,-94.8,5.0,3.0,300,12,21,7.0,29.970472,,,TRUE,TRUE,,,,,,,BKN,900,OVC,1300,,,,,IFR,,,,,,,,,,,,METAR,161.0
KIZA 122055Z AUTO 00000KT 10SM SCT036 BKN043 BKN060 13/07 A2998 RMK AO2,KIZA,2019-01-12T20:55:00Z,34.6,-120.07,13.0,7.0,0,0,,10.0,29.97933,,,TRUE,TRUE,,,,,,,SCT,3600,BKN,4300,BKN,6000,,,VFR,,,,,,,,,,,,METAR,205.0
KIRS 122055Z AUTO 09010KT 1/2SM -SN OVC012 M02/M03 A3032 RMK AO2 P0001 60001 T10171031,KIRS,2019-01-12T20:55:00Z,41.8,-85.43,-1.7,-3.1,90,10,,0.5,30.318897,,,TRUE,TRUE,,,,,,-SN,OVC,1200,,,,,,,LIFR,,,,,,0.01,0.01,,,,,METAR,282.0
KIKG 122055Z AUTO 31003KT 10SM CLR 24/12 A3007 RMK AO2 T02420123,KIKG,2019-01-12T20:55:00Z,27.55,-98.03,24.2,12.3,310,3,,10.0,30.070866,,,TRUE,TRUE,,,,,,,CLR,,,,,,,,VFR,,,,,,,,,,,,METAR,40.0
KIER 122055Z AUTO 28013G20KT 10SM BKN038 BKN049 19/10 A2996 RMK AO2 T01920104,KIER,2019-01-12T20:55:00Z,31.73,-93.1,19.2,10.4,280,13,20,10.0,29.958662,,,TRUE,TRUE,,,,,,,BKN,3800,BKN,4900,,,,,VFR,,,,,,,,,,,,METAR,37.0
KI75 122055Z AUTO 03013KT 3SM -SN OVC008 00/M01 A3016 RMK AO2 T10021013,KI75,2019-01-12T20:55:00Z,41.05,-93.68,-0.2,-1.3,30,13,,3.0,30.159449,,,TRUE,TRUE,,,,,,-SN,OVC,800,,,,,,,IFR,,,,,,,,,,,,METAR,339.0
KI68 122055Z AUTO 08008KT 2SM -SN BKN017 OVC025 00/00 A3025 RMK AO1 T10051005,KI68,2019-01-12T20:55:00Z,39.47,-84.25,-0.5,-0.5,80,8,,2.0,30.250984,,,TRUE,TRUE,,,,,,-SN,BKN,1700,OVC,2500,,,,,IFR,,,,,,,,,,,,METAR,274.0
KATS 122055Z AUTO 04005G12KT 10SM CLR 11/M01 A3021 RMK AO2,KATS,2019-01-12T20:55:00Z,32.85,-104.47,11.0,-1.0,40,5,12,10.0,30.209646,,,TRUE,TRUE,,,,,,,CLR,,,,,,,,VFR,,,,,,,,,,,,METAR,1081.0
KASW 122055Z AUTO 09014G23KT 3/4SM -SN BKN008 OVC013 M02/M04 A3028 RMK AO2,KASW,2019-01-12T20:55:00Z,41.27,-85.83,-2.0,-4.0,90,14,23,0.75,30.280512,,,TRUE,TRUE,,,,,,-SN,BKN,800,OVC,1300,,,,,LIFR,,,,,,,,,,,,METAR,259.0
KARV 122055Z AUTO 12007KT 10SM OVC007 M04/M06 A3042 RMK AO2 T10431058,KARV,2019-01-12T20:55:00Z,45.92,-89.72,-4.3,-5.8,120,7,,10.0,30.41929,,,TRUE,TRUE,,,,,,,OVC,700,,,,,,,IFR,,,,,,,,,,,,METAR,496.0
KARM 122055Z AUTO 30010G15KT 10SM CLR 18/07 A3008 RMK AO2 T01810065,KARM,2019-01-12T20:55:00Z,29.25,-96.15,18.1,6.5,300,10,15,10.0,30.079725,,,TRUE,TRUE,,,,,,,CLR,,,,,,,,VFR,,,,,,,,,,,,METAR,31.0
KALM 122055Z AUTO 21009KT 030V040 10SM CLR 12/M03 A3017 RMK AO2,KALM,2019-01-12T20:55:00Z,32.82,-105.97,12.0,-3.0,210,9,,10.0,30.171259,,,TRUE,TRUE,,,,,,,CLR,,,,,,,,VFR,,,,,,,,,,,,METAR,1279.0
KAJR 122055Z AUTO 08009KT 4SM RA OVC017 01/M03 A3024 RMK AO2 T00111026,KAJR,2019-01-12T20:55:00Z,34.5,-83.55,1.1,-2.6,80,9,,4.0,30.239174,,,TRUE,TRUE,,,,,,RA,OVC,1700,,,,,,,MVFR,,,,,,,,,,,,METAR,441.0
KAJG 122055Z AUTO 08009KT 7SM -RA BKN043 OVC048 02/01 A3010 RMK AO2 T00150005,KAJG,2019-01-12T20:55:00Z,38.62,-87.73,1.5,0.5,80,9,,7.0,30.100393,,,TRUE,TRUE,,,,,,-RA,BKN,4300,OVC,4800,,,,,VFR,,,,,,,,,,,,METAR,131.0
KACB 122055Z AUTO 07006KT 10SM BKN023 BKN030 M03/M08 A3050 RMK AO2 T10311082,KACB,2019-01-12T20:55:00Z,44.98,-85.2,-3.1,-8.2,70,6,,10.0,30.499016,,,TRUE,TRUE,,,,,,,BKN,2300,BKN,3000,,,,,MVFR,,,,,,,,,,,,METAR,190.0
KAAS 122055Z AUTO 10009KT 10SM SCT033 BKN048 BKN055 05/01 A3016 RMK AO1,KAAS,2019-01-12T20:55:00Z,37.35,-85.32,5.0,1.0,100,9,,10.0,30.159449,,,TRUE,TRUE,,,,,,,SCT,3300,BKN,4800,BKN,5500,,,VFR,,,,,,,,,,,,METAR,281.0
KC35 122055Z AUTO 07008KT 10SM OVC021 00/M05 A3033 RMK AO2 T00001048,KC35,2019-01-12T20:55:00Z,43.53,-89.98,0.0,-4.8,70,8,,10.0,30.33071,,,TRUE,TRUE,,,,,,,OVC,2100,,,,,,,MVFR,,,,,,,,,,,,METAR,276.0
KMBO 122055Z AUTO 00000KT 10SM OVC006 12/12 A2993 RMK AO2 PWINO,KMBO,2019-01-12T20:55:00Z,32.43,-90.1,12.0,12.0,0,0,,10.0,29.929134,,,TRUE,TRUE,,,,,TRUE,,OVC,600,,,,,,,IFR,,,,,,,,,,,,METAR,99.0
KMZZ 122055Z AUTO 09012G16KT 3/4SM -SN OVC009 A3025 RMK AO2 60001,KMZZ,2019-01-12T20:55:00Z,40.48,-85.68,,,90,12,16,0.75,30.250984,,,TRUE,TRUE,,,,,,-SN,OVC,900,,,,,,,LIFR,,,,,,,0.01,,,,,METAR,262.0
KMFV 122055Z AUTO 07003KT 10SM OVC060 03/M04 A3049 RMK AO2 T00331043,KMFV,2019-01-12T20:55:00Z,37.63,-75.77,3.3,-4.3,70,3,,10.0,30.490158,,,TRUE,TRUE,,,,,,,OVC,6000,,,,,,,VFR,,,,,,,,,,,,METAR,15.0
KMDS 122055Z AUTO 35005KT 10SM M04/M04 A3030 RMK AO2,KMDS,2019-01-12T20:55:00Z,44.02,-97.08,-4.0,-4.0,350,5,,10.0,30.301182,,,TRUE,TRUE,,,,,,,,,,,,,,,,,,,,,,,,,,,METAR,524.0
KLWB 122055Z AUTO 00000KT 4SM -SN SCT013 BKN022 OVC030 M02/M03 A3030 RMK AO2 P0001 60002 T10171027,KLWB,2019-01-12T20:55:00Z,37.87,-80.4,-1.7,-2.7,0,0,,4.0,30.301182,,,TRUE,TRUE,,,,,,-SN,SCT,1300,BKN,2200,OVC,3000,,,MVFR,,,,,,0.01,0.02,,,,,METAR,702.0
KJHN 122055Z AUTO 31008KT 10SM CLR 04/00 A3020 RMK AO2 T00401002,KJHN,2019-01-12T20:55:00Z,37.58,-101.73,4.0,-0.2,310,8,,10.0,30.200787,,,TRUE,TRUE,,,,,,,CLR,,,,,,,,VFR,,,,,,,,,,,,METAR,1013.0
KOPN 122055Z AUTO 09005KT 10SM SCT024 BKN032 BKN050 08/00 A3020 RMK AO2,KOPN,2019-01-12T20:55:00Z,32.95,-84.27,8.0,0.0,90,5,,10.0,30.200787,,,TRUE,TRUE,,,,,,,SCT,2400,BKN,3200,BKN,5000,,,VFR,,,,,,,,,,,,METAR,243.0
KOPL 122055Z AUTO 10SM SCT033 21/14 A2997 RMK AO2 T02100137,KOPL,2019-01-12T20:55:00Z,30.55,-92.1,21.0,13.7,,,,10.0,29.970472,,,TRUE,TRUE,,,,,,,SCT,3300,,,,,,,VFR,,,,,,,,,,,,METAR,23.0
KSYF 122055Z AUTO 33009KT 10SM BKN022 05/M02 A3019 RMK AO2 T00481019,KSYF,2019-01-12T20:55:00Z,39.77,-101.8,4.8,-1.9,330,9,,10.0,30.188976,,,TRUE,TRUE,,,,,,,BKN,2200,,,,,,,MVFR,,,,,,,,,,,,METAR,1025.0
KSLR 122055Z AUTO 30015G22KT 10SM BKN026 OVC038 08/03 A3008 RMK AO2 T00830033,KSLR,2019-01-12T20:55:00Z,33.17,-95.62,8.3,3.3,300,15,22,10.0,30.079725,,,TRUE,TRUE,,,,,,,BKN,2600,OVC,3800,,,,,MVFR,,,,,,,,,,,,METAR,149.0
KAXS 122055Z AUTO 34017G25KT 10SM OVC026 06/00 A3021 RMK AO2 T00560000,KAXS,2019-01-12T20:55:00Z,34.7,-99.33,5.6,0.0,340,17,25,10.0,30.209646,,,TRUE,TRUE,,,,,,,OVC,2600,,,,,,,MVFR,,,,,,,,,,,,METAR,437.0
KAXH 122055Z AUTO 32010KT 10SM CLR 20/10 A3006 RMK AO2 T02000102,KAXH,2019-01-12T20:55:00Z,29.52,-95.48,20.0,10.2,320,10,,10.0,30.059055,,,TRUE,TRUE,,,,,,,CLR,,,,,,,,VFR,,,,,,,,,,,,METAR,21.0
KAVQ 122055Z AUTO 09008KT 10SM CLR 19/00 RMK AO2 T01881004,KAVQ,2019-01-12T20:55:00Z,32.4,-111.22,18.8,-0.4,90,8,,10.0,,,,TRUE,TRUE,,,,,,,CLR,,,,,,,,VFR,,,,,,,,,,,,METAR,619.0
KAVC 122055Z AUTO 01005KT 10SM SCT009 SCT065 OVC110 00/M01 A3051 RMK AO2 T00001006,KAVC,2019-01-12T20:55:00Z,36.68,-78.03,0.0,-0.6,10,5,,10.0,30.510826,,,TRUE,TRUE,,,,,,,SCT,900,SCT,6500,OVC,11000,,,VFR,,,,,,,,,,,,METAR,135.0
KTMA 122055Z AUTO 14007KT 10SM SCT050 SCT070 BKN120 19/11 A3017 RMK AO2 T01850113,KTMA,2019-01-12T20:55:00Z,31.43,-83.48,18.5,11.3,140,7,,10.0,30.171259,,,TRUE,TRUE,,,,,,,SCT,5000,SCT,7000,BKN,12000,,,VFR,,,,,,,,,,,,METAR,109.0
KTKC 122055Z AUTO 02005KT 10SM OVC043 M02/M05 A3032 RMK AO2 T10251050,KTKC,2019-01-12T20:55:00Z,44.25,-95.62,-2.5,-5.0,20,5,,10.0,30.318897,,,TRUE,TRUE,,,,,,,OVC,4300,,,,,,,VFR,,,,,,,,,,,,METAR,408.0
KTQH 122055Z AUTO 32010G17KT 10SM OVC007 02/01 A2999 RMK AO2,KTQH,2019-01-12T20:55:00Z,35.93,-95.0,2.0,1.0,320,10,17,10.0,29.991142,,,TRUE,TRUE,,,,,,,OVC,700,,,,,,,IFR,,,,,,,,,,,,METAR,266.0
KTME 122055Z AUTO 31010G16KT 10SM CLR 18/07 A3008 RMK AO2,KTME,2019-01-12T20:55:00Z,29.8,-95.9,18.0,7.0,310,10,16,10.0,30.079725,,,TRUE,TRUE,,,,,,,CLR,,,,,,,,VFR,,,,,,,,,,,,METAR,51.0
EHSC 122055Z AUTO 29024KT 9999 ///////// 09/06 Q1014 W08/H17,EHSC,2019-01-12T20:55:00Z,51.93,3.67,9.0,6.0,290,24,,6.21,29.940945,,,TRUE,,,,,,,,,,,,,,,,,,,,,,,,,,,,METAR,50.0
EHSA 122055Z AUTO 27025KT 9999 ///////// 09/07 Q1014 W06/H19,EHSA,2019-01-12T20:55:00Z,52.0,3.28,9.0,7.0,270,25,,6.21,29.940945,,,TRUE,,,,,,,,,,,,,,,,,,,,,,,,,,,,METAR,50.0
EHQE 122055Z AUTO 29029KT 9999 FEW010 09/07 Q1011 W///H///,EHQE,2019-01-12T20:55:00Z,52.92,4.15,9.0,7.0,290,29,,6.21,29.852362,,,TRUE,,,,,,,,FEW,1000,,,,,,,VFR,,,,,,,,,,,,METAR,50.0
EHPG 122055Z AUTO VRB22KT 9999 SCT012 BKN015 OVC019 09/06 Q1013 W///H///,EHPG,2019-01-12T20:55:00Z,52.37,3.35,9.0,6.0,0,22,,6.21,29.911417,,,TRUE,,,,,,,,SCT,1200,BKN,1500,OVC,1900,,,MVFR,,,,,,,,,,,,METAR,50.0
EHMG 122055Z AUTO VRB28KT 9999 NSC 08/06 Q1010 W///H///,EHMG,2019-01-12T20:55:00Z,53.62,4.97,8.0,6.0,0,28,,6.21,29.822834,,,TRUE,,,,,,,,CLR,,,,,,,,VFR,,,,,,,,,,,,METAR,50.0
EHMA 122055Z AUTO 30022KT 9999 FEW035 BKN040 08/06 Q1008 W///H///,EHMA,2019-01-12T20:55:00Z,53.5,5.95,8.0,6.0,300,22,,6.21,29.763779,,,TRUE,,,,,,,,FEW,3500,BKN,4000,,,,,VFR,,,,,,,,,,,,METAR,50.0
EHKV 122055Z AUTO 29023KT 250V320 9999 FEW010 BKN028 BKN033 09/07 Q1013 W///H///,EHKV,2019-01-12T20:55:00Z,53.27,3.63,9.0,7.0,290,23,,6.21,29.911417,,,TRUE,,,,,,,,FEW,1000,BKN,2800,BKN,3300,,,MVFR,,,,,,,,,,,,METAR,50.0
EHJR 122055Z AUTO 29025KT //// // ///////// 08/07 Q1012 RE// W///H25,EHJR,2019-01-12T20:55:00Z,53.22,3.22,8.0,7.0,290,25,,,29.88189,,,TRUE,,,,,,,,,,,,,,,,,,,,,,,,,,,,METAR,50.0
EHJA 122055Z AUTO 28028KT 9999 FEW009/// SCT028/// BKN034/// 08/07 Q1010 W///H///,EHJA,2019-01-12T20:55:00Z,53.82,2.95,8.0,7.0,280,28,,6.21,29.822834,,,TRUE,,,,,,,,FEW,900,SCT,2800,BKN,3400,,,VFR,,,,,,,,,,,,METAR,50.0
EHHW 122055Z AUTO 31023KT //// // FEW001/// SCT022/// BKN042/// 08/06 Q1007 RE// W///H///,EHHW,2019-01-12T20:55:00Z,54.03,6.03,8.0,6.0,310,23,,,29.734253,,,TRUE,,,,,,,,FEW,100,SCT,2200,BKN,4200,,,,,,,,,,,,,,,METAR,0.0
EHFZ 122055Z AUTO 29026KT 9999 SCT040 09/07 Q1009 W///H///,EHFZ,2019-01-12T20:55:00Z,54.12,4.02,9.0,7.0,290,26,,6.21,29.793306,,,TRUE,,,,,,,,SCT,4000,,,,,,,VFR,,,,,,,,,,,,METAR,50.0
EHFD 122055Z AUTO 29031KT //// // FEW011/// SCT020/// BKN034/// 08/06 Q1006 RE// W///H///,EHFD,2019-01-12T20:55:00Z,54.85,4.7,8.0,6.0,290,31,,,29.704725,,,TRUE,,,,,,,,FEW,1100,SCT,2000,BKN,3400,,,,,,,,,,,,,,,METAR,50.0
EHDV 122055Z AUTO 28025KT 9999 FEW025/// BKN039/// OVC044/// 09/07 Q1010 W///H///,EHDV,2019-01-12T20:55:00Z,54.32,2.93,9.0,7.0,280,25,,6.21,29.822834,,,TRUE,,,,,,,,FEW,2500,BKN,3900,OVC,4400,,,VFR,,,,,,,,,,,,METAR,50.0
EHAK 122055Z AUTO 32029KT 8000 -UP FEW005/// SCT014/// BKN028/// 08/07 Q1006 W///H///,EHAK,2019-01-12T20:55:00Z,55.42,3.82,8.0,7.0,320,29,,4.97,29.704725,,,TRUE,,,,,,,UP,FEW,500,SCT,1400,BKN,2800,,,MVFR,,,,,,,,,,,,METAR,50.0
KWHP 122055Z 00000KT 10SM SCT015 OVC080 12/09 A3002,KWHP,2019-01-12T20:55:00Z,34.25,-118.42,12.0,9.0,0,0,,10.0,30.02067,,,,,,,,,,,SCT,1500,OVC,8000,,,,,VFR,,,,,,,,,,,,METAR,306.0
NZWD 122055Z 08007KT 6000 BR BKN002 BKN005 OVC010 M05/M06 A2946 RMK SLP975 GRID25007KT SDF/HDP,NZWD,2019-01-12T20:55:00Z,-77.87,167.07,-5.0,-6.0,80,7,,3.73,29.459646,997.5,,,,,,,,,BR,BKN,200,BKN,500,OVC,1000,,,LIFR,,,,,,,,,,,,METAR,22.0
PAED 122055Z 07005KT 10SM SCT060 BKN200 M17/M19 A2981 RMK AO2A SLP095 T11741195 58004,PAED,2019-01-12T20:55:00Z,61.25,-149.8,-17.4,-19.5,70,5,,10.0,29.811024,1009.5,,,TRUE,,,,,,,SCT,6000,BKN,20000,,,,,VFR,-0.4,,,,,,,,,,,METAR,59.0
KTYL 122055Z AUTO 04003KT 10SM CLR 07/M04 A3012 RMK AO2,KTYL,2019-01-12T20:55:00Z,,,7.0,-4.0,40,3,,10.0,30.121063,,,TRUE,TRUE,,,,,,,CLR,,,,,,,,VFR,,,,,,,,,,,,METAR,
KTKV 122055Z AUTO 08005KT 10SM OVC009 M04/M06 A3041 RMK AO2 T10451063,KTKV,2019-01-12T20:55:00Z,45.47,-89.82,-4.5,-6.3,80,5,,10.0,30.410433,,,TRUE,TRUE,,,,,,,OVC,900,,,,,,,IFR,,,,,,,,,,,,METAR,453.0
KTHA 122055Z AUTO 14011G16KT 4SM HZ SCT036 BKN044 OVC050 06/03 A3005 RMK A01 P0005,KTHA,2019-01-12T20:55:00Z,35.38,-86.25,6.0,3.0,140,11,16,4.0,30.050198,,,TRUE,TRUE,,,,,,HZ,SCT,3600,BKN,4400,OVC,5000,,,MVFR,,,,,,0.05,,,,,,METAR,331.0
KSZY 122055Z AUTO 13009KT 4SM BR OVC006 08/07 A2995 RMK A01 P0003,KSZY,2019-01-12T20:55:00Z,,,8.0,7.0,130,9,,4.0,29.949802,,,TRUE,TRUE,,,,,,BR,OVC,600,,,,,,,IFR,,,,,,0.03,,,,,,METAR,
KSYI 122055Z AUTO 12006G12KT 8SM BKN055 06/03 A3006 RMK A01 P0005,KSYI,2019-01-12T20:55:00Z,35.57,-86.45,6.0,3.0,120,6,12,8.0,30.059055,,,TRUE,TRUE,,,,,,,BKN,5500,,,,,,,VFR,,,,,,0.05,,,,,,METAR,245.0
KSXU 122055Z AUTO 00000KT 10SM SCT047 BKN050 07/M03 A3017 RMK AO2 T00731029,KSXU,2019-01-12T20:55:00Z,34.93,-104.65,7.3,-2.9,0,0,,10.0,30.171259,,,TRUE,TRUE,,,,,,,SCT,4700,BKN,5000,,,,,VFR,,,,,,,,,,,,METAR,1460.0
KSRE 122055Z AUTO 33010G21KT 10SM OVC015 03/00 A3008 RMK AO2,KSRE,2019-01-12T20:55:00Z,35.27,-96.68,3.0,0.0,330,10,21,10.0,30.079725,,,TRUE,TRUE,,,,,,,OVC,1500,,,,,,,MVFR,,,,,,,,,,,,METAR,312.0
KSRB 122055Z AUTO 16012G17KT 10SM FEW055 SCT070 BKN080 08/M00 A3008 RMK A01,KSRB,2019-01-12T20:55:00Z,36.05,-85.53,8.0,0.0,160,12,17,10.0,30.079725,,,TRUE,TRUE,,,,,,,FEW,5500,SCT,7000,BKN,8000,,,VFR,,,,,,,,,,,,METAR,313.0
KSNH 122055Z AUTO 15007KT 4SM BR BKN011 BKN022 OVC070 08/07 A2997 RMK A01 P0007,KSNH,2019-01-12T20:55:00Z,35.17,-88.22,8.0,7.0,150,7,,4.0,29.970472,,,TRUE,TRUE,,,,,,BR,BKN,1100,BKN,2200,OVC,7000,,,MVFR,,,,,,0.07,,,,,,METAR,144.0
KSLH 122055Z AUTO 06007KT 10SM OVC016 M06/M09 A3054 RMK AO2 T10631088,KSLH,2019-01-12T20:55:00Z,45.65,-84.52,-6.3,-8.8,60,7,,10.0,30.540354,,,TRUE,TRUE,,,,,,,OVC,1600,,,,,,,MVFR,,,,,,,,,,,,METAR,195.0
KSIK 122055Z AUTO 00000KT 2 1/2SM RA OVC010 06/06 A2996 RMK AO2 VIS 1 1/2V5,KSIK,2019-01-12T20:55:00Z,36.9,-89.57,6.0,6.0,0,0,,2.5,29.958662,,,TRUE,TRUE,,,,,,RA,OVC,1000,,,,,,,IFR,,,,,,,,,,,,METAR,96.0
KSGS 122055Z AUTO 06003KT 7SM OVC060 00/M06 A3037 RMK AO2 T10041056,KSGS,2019-01-12T20:55:00Z,44.87,-93.03,-0.4,-5.6,60,3,,7.0,30.369095,,,TRUE,TRUE,,,,,,,OVC,6000,,,,,,,VFR,,,,,,,,,,,,METAR,250.0
KSCX 122055Z AUTO VRB05KT 10SM BKN031 OVC060 08/01 A3010 RMK A01,KSCX,2019-01-12T20:55:00Z,36.45,-84.58,8.0,1.0,0,5,,10.0,30.100393,,,TRUE,TRUE,,,,,,,BKN,3100,OVC,6000,,,,,VFR,,,,,,,,,,,,METAR,471.0
KSCF 122055Z AUTO 28014KT 10SM OVC017 18/17 A2995 RMK A01,KSCF,2019-01-12T20:55:00Z,29.12,-91.87,18.0,17.0,280,14,,10.0,29.949802,,,TRUE,TRUE,,,,,,,OVC,1700,,,,,,,MVFR,,,,,,,,,,,,METAR,8.0
KS39 122055Z AUTO VRB06G12KT 10SM CLR 08/M04 A3007 RMK AO2,KS39,2019-01-12T20:55:00Z,44.28,-120.9,8.0,-4.0,0,6,12,10.0,30.070866,,,TRUE,TRUE,,,,,,,CLR,,,,,,,,VFR,,,,,,,,,,,,METAR,991.0
KRZR 122055Z AUTO 00000KT 4SM HZ OVC030 07/04 A3015 RMK A01,KRZR,2019-01-12T20:55:00Z,35.22,-84.8,7.0,4.0,0,0,,4.0,30.15059,,,TRUE,TRUE,,,,,,HZ,OVC,3000,,,,,,,MVFR,,,,,,,,,,,,METAR,263.0
KRZL 122055Z AUTO 06014KT 1SM -SN OVC005 M01/M02 A3025 RMK AO2,KRZL,2019-01-12T20:55:00Z,40.95,-87.18,-1.0,-2.0,60,14,,1.0,30.250984,,,TRUE,TRUE,,,,,,-SN,OVC,500,,,,,,,IFR,,,,,,,,,,,,METAR,213.0
KRTS 122055Z AUTO 12010KT 10SM CLR 05/M03 A3004 RMK AO2,KRTS,2019-01-12T20:55:00Z,39.67,-119.88,5.0,-3.0,120,10,,10.0,30.041338,,,TRUE,TRUE,,,,,,,CLR,,,,,,,,VFR,,,,,,,,,,,,SPECI,1540.0
KRRT 122055Z AUTO 13006KT 10SM OVC012 M04/M07 A3042 RMK AO2,KRRT,2019-01-12T20:55:00Z,48.93,-95.33,-4.0,-7.0,130,6,,10.0,30.41929,,,TRUE,TRUE,,,,,,,OVC,1200,,,,,,,MVFR,,,,,,,,,,,,METAR,327.0
KRNC 122055Z AUTO 00000KT 4SM HZ FEW033 SCT044 OVC050 07/02 A3008 RMK A01,KRNC,2019-01-12T20:55:00Z,35.7,-85.85,7.0,2.0,0,0,,4.0,30.079725,,,TRUE,TRUE,,,,,,HZ,FEW,3300,SCT,4400,OVC,5000,,,MVFR,,,,,,,,,,,,METAR,315.0
KRKW 122055Z AUTO 12005KT 10SM OVC032 06/M01 A3013 RMK A01,KRKW,2019-01-12T20:55:00Z,35.92,-84.68,6.0,-1.0,120,5,,10.0,30.129921,,,TRUE,TRUE,,,,,,,OVC,3200,,,,,,,VFR,,,,,,,,,,,,METAR,508.0
KTCY 122055Z AUTO 08008KT 10SM SCT013 SCT018 13/10 A2996 RMK A01,KTCY,2019-01-12T20:55:00Z,37.68,-121.43,13.0,10.0,80,8,,10.0,29.958662,,,TRUE,TRUE,,,,,,,SCT,1300,SCT,1800,,,,,VFR,,,,,,,,,,,,METAR,59.0
KRCV 122055Z AUTO 05003KT 1 1/4SM -SN OVC012 M04/M06 A3015 RMK AO2 T10361061,KRCV,2019-01-12T20:55:00Z,37.72,-106.35,-3.6,-6.1,50,3,,1.25,30.15059,,,TRUE,TRUE,,,,,,-SN,OVC,1200,,,,,,,IFR,,,,,,,,,,,,SPECI,2424.0
KPVE 122055Z AUTO VRB04G12KT 9SM SCT011 BKN028 OVC047 07/06 A2997 RMK A01 P0002,KPVE,2019-01-12T20:55:00Z,35.65,-88.2,7.0,6.0,0,4,12,9.0,29.970472,,,TRUE,TRUE,,,,,,,SCT,1100,BKN,2800,OVC,4700,,,MVFR,,,,,,0.02,,,,,,METAR,149.0
KPVB 122055Z AUTO 07009KT 3SM SCT017 BKN030 OVC036 00/M01 A3028 RMK AO1 T10021006,KPVB,2019-01-12T20:55:00Z,42.68,-90.43,-0.2,-0.6,70,9,,3.0,30.280512,,,TRUE,TRUE,,,,,,,SCT,1700,BKN,3000,OVC,3600,,,MVFR,,,,,,,,,,,,METAR,313.0
KPTD 122055Z AUTO 27005KT 10SM CLR M12/M21 A3056 RMK AO2,KPTD,2019-01-12T20:55:00Z,44.68,-74.95,-12.0,-21.0,270,5,,10.0,30.561024,,,TRUE,TRUE,,,,,,,CLR,,,,,,,,VFR,,,,,,,,,,,,METAR,144.0
KPQN 122055Z AUTO 05005KT 10SM SCT050 M03/M05 A3028 RMK AO2,KPQN,2019-01-12T20:55:00Z,43.97,-96.32,-3.0,-5.0,50,5,,10.0,30.280512,,,TRUE,TRUE,,,,,,,SCT,5000,,,,,,,VFR,,,,,,,,,,,,METAR,529.0
KPHT 122055Z AUTO 12009KT 6SM BR SCT026 SCT035 SCT046 07/06 A2996 RMK A01 P0008,KPHT,2019-01-12T20:55:00Z,36.33,-88.38,7.0,6.0,120,9,,6.0,29.958662,,,TRUE,TRUE,,,,,,BR,SCT,2600,SCT,3500,SCT,4600,,,VFR,,,,,,0.08,,,,,,METAR,177.0
KPHN 122055Z AUTO 07009KT 10SM OVC060 M02/M09 A3045 RMK AO2,KPHN,2019-01-12T20:55:00Z,42.92,-82.52,-2.0,-9.0,70,9,,10.0,30.448818,,,TRUE,TRUE,,,,,,,OVC,6000,,,,,,,VFR,,,,,,,,,,,,METAR,198.0
KQBL 122055Z AUTO VRB02KT 10SM BKN055 OVC070 19/16 A3009 RMK AO2 SLP189 WND DATA ESTMD T01890160 55014,KQBL,2019-01-12T20:55:00Z,,,18.9,16.0,0,2,,10.0,30.088583,1018.9,,TRUE,TRUE,,,,,,,BKN,5500,OVC,7000,,,,,VFR,-1.4,,,,,,,,,,,METAR,
KPCW 122055Z AUTO 11011KT 1 1/2SM -SN SCT025 SCT031 M02/M04 A3037 RMK AO2,KPCW,2019-01-12T20:55:00Z,41.52,-82.87,-2.0,-4.0,110,11,,1.5,30.369095,,,TRUE,TRUE,,,,,,-SN,SCT,2500,SCT,3100,,,,,IFR,,,,,,,,,,,,METAR,178.0
KPCD 122055Z AUTO 05005KT 2SM RA OVC008 01/01 A2999 RMK AO2 P0006 60010 T00100006,KPCD,2019-01-12T20:55:00Z,37.87,-89.87,1.0,0.6,50,5,,2.0,29.991142,,,TRUE,TRUE,,,,,,RA,OVC,800,,,,,,,IFR,,,,,,0.06,0.1,,,,,METAR,113.0
KP08 122055Z AUTO 12006KT 10SM CLR 18/01 A3001 RMK AO2,KP08,2019-01-12T20:55:00Z,32.93,-111.43,18.0,1.0,120,6,,10.0,30.008858,,,TRUE,TRUE,,,,,,,CLR,,,,,,,,VFR,,,,,,,,,,,,METAR,481.0
KMRC 122055Z AUTO 10006KT 5SM BR BKN028 BKN035 OVC060 06/05 A3001 RMK A01 P0004,KMRC,2019-01-12T20:55:00Z,35.55,-87.18,6.0,5.0,100,6,,5.0,30.008858,,,TRUE,TRUE,,,,,,BR,BKN,2800,BKN,3500,OVC,6000,,,MVFR,,,,,,0.04,,,,,,METAR,208.0
KMOR 122055Z AUTO 09007KT 050V110 10SM OVC043 08/M04 A3014 RMK A01,KMOR,2019-01-12T20:55:00Z,36.18,-83.37,8.0,-4.0,90,7,,10.0,30.138779,,,TRUE,TRUE,,,,,,,OVC,4300,,,,,,,VFR,,,,,,,,,,,,METAR,400.0
KMNV 122055Z AUTO VRB03KT 8SM OVC038 07/02 A3016 RMK A01,KMNV,2019-01-12T20:55:00Z,35.55,-84.38,7.0,2.0,0,3,,8.0,30.159449,,,TRUE,TRUE,,,,,,,OVC,3800,,,,,,,VFR,,,,,,,,,,,,METAR,314.0
KMMI 122055Z AUTO 00000KT 6SM HZ OVC039 06/02 A3018 RMK A01,KMMI,2019-01-12T20:55:00Z,35.4,-84.57,6.0,2.0,0,0,,6.0,30.180119,,,TRUE,TRUE,,,,,,HZ,OVC,3900,,,,,,,VFR,,,,,,,,,,,,METAR,266.0
KMIS 122055Z AUTO 22012KT 10SM SCT070 BKN080 19/16 A3004 RMK A01,KMIS,2019-01-12T20:55:00Z,29.3,-88.85,19.0,16.0,220,12,,10.0,30.041338,,,TRUE,TRUE,,,,,,,SCT,7000,BKN,8000,,,,,VFR,,,,,,,,,,,,METAR,32.0
KMEV 122055Z AUTO 36003KT 10SM FEW016 03/M02 A3007 RMK AO2,KMEV,2019-01-12T20:55:00Z,38.98,-119.75,3.0,-2.0,360,3,,10.0,30.070866,,,TRUE,TRUE,,,,,,,FEW,1600,,,,,,,VFR,,,,,,,,,,,,METAR,1439.0
EHFS 122055Z AUTO 28014KT 260V320 9999 BKN018/// OVC021/// 08/06 Q1015 W///H///,EHFS,2019-01-12T20:55:00Z,51.45,3.6,8.0,6.0,280,14,,6.21,29.970472,,,TRUE,,,,,,,,BKN,1800,OVC,2100,,,,,MVFR,,,,,,,,,,,,METAR,32.0
KDBN 122055Z AUTO 08006KT 10SM SCT049 OVC080 12/05 A3025 RMK AO2,KDBN,2019-01-12T20:55:00Z,32.57,-82.98,12.0,5.0,80,6,,10.0,30.250984,,,TRUE,TRUE,,,,,,,SCT,4900,OVC,8000,,,,,VFR,,,,,,,,,,,,SPECI,94.0
KD73 122055Z AUTO 07009KT 10SM BKN023 OVC033 05/M02 A3025 RMK AO2 T00461019,KD73,2019-01-12T20:55:00Z,33.78,-83.7,4.6,-1.9,70,9,,10.0,30.250984,,,TRUE,TRUE,,,,,,,BKN,2300,OVC,3300,,,,,MVFR,,,,,,,,,,,,METAR,267.0
KD39 122055Z AUTO 09006KT 10SM SCT023 BKN050 M02/M06 A3035 RMK AO2 T10221065,KD39,2019-01-12T20:55:00Z,45.7,-94.93,-2.2,-6.5,90,6,,10.0,30.351377,,,TRUE,TRUE,,,,,,,SCT,2300,BKN,5000,,,,,VFR,,,,,,,,,,,,METAR,380.0
KCWV 122055Z AUTO 05003KT 10SM OVC070 15/10 A3026 RMK AO2 T01450095,KCWV,2019-01-12T20:55:00Z,32.2,-81.87,14.5,9.5,50,3,,10.0,30.259842,,,TRUE,TRUE,,,,,,,OVC,7000,,,,,,,VFR,,,,,,,,,,,,METAR,33.0
KCQB 122055Z AUTO 32017G20KT 10SM OVC014 03/00 A3009 RMK AO2 T00270005,KCQB,2019-01-12T20:55:00Z,35.72,-96.82,2.7,0.5,320,17,20,10.0,30.088583,,,TRUE,TRUE,,,,,,,OVC,1400,,,,,,,MVFR,,,,,,,,,,,,METAR,300.0
KCKF 122055Z AUTO 11009KT 10SM BKN060 OVC070 15/09 A3019 RMK AO2 T01480085,KCKF,2019-01-12T20:55:00Z,31.98,-83.77,14.8,8.5,110,9,,10.0,30.188976,,,TRUE,TRUE,,,,,,,BKN,6000,OVC,7000,,,,,VFR,,,,,,,,,,,,METAR,91.0
KCCO 122055Z AUTO 10006KT OVC024 08/02 A3016 RMK AO2 T00810018 PWINO,KCCO,2019-01-12T20:55:00Z,33.32,-84.77,8.1,1.8,100,6,,,30.159449,,,TRUE,TRUE,,,,,TRUE,,OVC,2400,,,,,,,,,,,,,,,,,,,METAR,296.0
KBKD 122055Z AUTO 35018G22KT 10SM OVC033 08/00 A3018 RMK AO2 6//// T00810001,KBKD,2019-01-12T20:55:00Z,32.72,-98.88,8.1,0.1,350,18,22,10.0,30.180119,,,TRUE,TRUE,,,,,,,OVC,3300,,,,,,,VFR,,,,,,,,,,,,SPECI,392.0
KOXI 122055Z AUTO 08011G16KT 1/2SM OVC006 M02/M03 A3027 RMK AO1,KOXI,2019-01-12T20:55:00Z,41.33,-86.67,-2.0,-3.0,80,11,16,0.5,30.268702,,,TRUE,TRUE,,,,,,,OVC,600,,,,,,,LIFR,,,,,,,,,,,,METAR,209.0
KW31 122055Z AUTO 00000KT 5SM SCT006 BKN027 OVC050 M01/M01 A3044 RMK AO1 P0001 60001 T10081008,KW31,2019-01-12T20:55:00Z,36.95,-78.18,-0.8,-0.8,0,0,,5.0,30.43996,,,TRUE,TRUE,,,,,,,SCT,600,BKN,2700,OVC,5000,,,MVFR,,,,,,0.01,0.01,,,,,METAR,162.0
KW13 122055Z AUTO 15005KT 1/2SM OVC013 M03/M04 A3038 RMK AO1 T10261042,KW13,2019-01-12T20:55:00Z,38.08,-78.95,-2.6,-4.2,150,5,,0.5,30.380905,,,TRUE,TRUE,,,,,,,OVC,1300,,,,,,,LIFR,,,,,,,,,,,,METAR,443.0
KVJI 122055Z AUTO 09011KT 10SM SCT044 OVC060 04/M01 A3022 RMK AO2 T00351013,KVJI,2019-01-12T20:55:00Z,36.67,-82.02,3.5,-1.3,90,11,,10.0,30.221457,,,TRUE,TRUE,,,,,,,SCT,4400,OVC,6000,,,,,VFR,,,,,,,,,,,,METAR,631.0
KVDF 122055Z AUTO 10004KT 10SM BKN050 BKN065 26/13 A3015 RMK AO2,KVDF,2019-01-12T20:55:00Z,28.02,-82.33,26.0,13.0,100,4,,10.0,30.15059,,,TRUE,TRUE,,,,,,,BKN,5000,BKN,6500,,,,,VFR,,,,,,,,,,,,METAR,7.0
KVBW 122055Z AUTO 14004KT 3/4SM SCT006 OVC017 M02/M02 A3038 RMK AO1 T10201025,KVBW,2019-01-12T20:55:00Z,38.37,-78.97,-2.0,-2.5,140,4,,0.75,30.380905,,,TRUE,TRUE,,,,,,,SCT,600,OVC,1700,,,,,LIFR,,,,,,,,,,,,METAR,355.0
KUVA 122055Z AUTO 33010G17KT 10SM CLR 18/04 A3013 RMK AO2 T01830044,KUVA,2019-01-12T20:55:00Z,29.22,-99.75,18.3,4.4,330,10,17,10.0,30.129921,,,TRUE,TRUE,,,,,,,CLR,,,,,,,,VFR,,,,,,,,,,,,METAR,287.0
KUNI 122055Z AUTO 07003KT 4SM -SN SCT007 BKN014 OVC022 M01/M01 A3031 RMK AO2 T10151015,KUNI,2019-01-12T20:55:00Z,39.22,-82.23,-1.5,-1.5,70,3,,4.0,30.31004,,,TRUE,TRUE,,,,,,-SN,SCT,700,BKN,1400,OVC,2200,,,MVFR,,,,,,,,,,,,METAR,193.0
KULS 122055Z AUTO 36010KT 10SM CLR 05/02 A3019 RMK AO2,KULS,2019-01-12T20:55:00Z,37.6,-101.37,5.0,2.0,360,10,,10.0,30.188976,,,TRUE,TRUE,,,,,,,CLR,,,,,,,,VFR,,,,,,,,,,,,METAR,936.0
KU68 122055Z AUTO 09004KT 10SM SCT001 M01/M01 A3018 RMK AO2,KU68,2019-01-12T20:55:00Z,44.92,-108.45,-1.0,-1.0,90,4,,10.0,30.180119,,,TRUE,TRUE,,,,,,,SCT,100,,,,,,,VFR,,,,,,,,,,,,METAR,1247.0
KTYQ 122055Z AUTO 08010KT 1SM -SN BKN007 OVC013 M02/M02 A3021 RMK AO2 P0001 60004 T10181018,KTYQ,2019-01-12T20:55:00Z,40.03,-86.25,-1.8,-1.8,80,10,,1.0,30.209646,,,TRUE,TRUE,,,,,,-SN,BKN,700,OVC,1300,,,,,IFR,,,,,,0.01,0.04,,,,,METAR,281.0
EHAM 122055Z 28015KT 260V320 9999 FEW013 BKN017 08/07 Q1012 NOSIG,EHAM,2019-01-12T20:55:00Z,52.32,4.78,8.0,7.0,280,15,,6.21,29.88189,,,,,,TRUE,,,,,FEW,1300,BKN,1700,,,,,MVFR,,,,,,,,,,,,METAR,9.0
EHWO 122055Z AUTO 27012KT 220V310 9999 BKN017 OVC021 08/06 Q1015 WHT,EHWO,2019-01-12T20:55:00Z,51.45,4.32,8.0,6.0,270,12,,6.21,29.970472,,,TRUE,,,,,,,,BKN,1700,OVC,2100,,,,,MVFR,,,,,,,,,,,,METAR,17.0
EHVL 122055Z AUTO 29021KT 7000 BR NCD 08/07 Q1010 WHT,EHVL,2019-01-12T20:55:00Z,53.23,4.92,8.0,7.0,290,21,,4.35,29.822834,,,TRUE,,,,,,,BR,CLR,,,,,,,,MVFR,,,,,,,,,,,,METAR,5.0
EHGR 122055Z AUTO 28011KT 9999 FEW014 BKN016 OVC019 08/06 Q1014 WHT,EHGR,2019-01-12T20:55:00Z,51.57,4.92,8.0,6.0,280,11,,6.21,29.940945,,,TRUE,,,,,,,,FEW,1400,BKN,1600,OVC,1900,,,MVFR,,,,,,,,,,,,METAR,13.0
EHDL 122055Z AUTO 28006KT 230V330 8000 +DZ FEW005 BKN006 BKN008 FEW015CB 07/07 Q1012 YLO,EHDL,2019-01-12T20:55:00Z,52.07,5.87,7.0,7.0,280,6,,4.97,29.88189,,,TRUE,,,,,,,+DZ,FEW,500,BKN,600,BKN,800,FEW,1500,IFR,,,,,,,,,,,,METAR,52.0
KY63 122055Z AUTO 14005KT 10SM OVC032 M03/M07 A3036 RMK AO2 T10271066,KY63,2019-01-12T20:55:00Z,45.98,-96.0,-2.7,-6.6,140,5,,10.0,30.360237,,,TRUE,TRUE,,,,,,,OVC,3200,,,,,,,VFR,,,,,,,,,,,,METAR,367.0
KY23 122055Z AUTO 10006KT 10SM OVC017 M01/M04 A3039 RMK AO2 T10101044,KY23,2019-01-12T20:55:00Z,45.3,-91.63,-1.0,-4.4,100,6,,10.0,30.389763,,,TRUE,TRUE,,,,,,,OVC,1700,,,,,,,MVFR,,,,,,,,,,,,METAR,322.0
KXSA 122055Z AUTO 08003KT 10SM BKN047 02/M08 A3050 RMK AO2 T00221081,KXSA,2019-01-12T20:55:00Z,37.87,-76.9,2.2,-8.1,80,3,,10.0,30.499016,,,TRUE,TRUE,,,,,,,BKN,4700,,,,,,,VFR,,,,,,,,,,,,METAR,42.0
KWWR 122055Z AUTO 33016G22KT 10SM OVC013 01/M01 A3020 RMK AO2,KWWR,2019-01-12T20:55:00Z,36.45,-99.52,1.0,-1.0,330,16,22,10.0,30.200787,,,TRUE,TRUE,,,,,,,OVC,1300,,,,,,,MVFR,,,,,,,,,,,,METAR,667.0
KW99 122055Z AUTO 00000KT 1SM -SN OVC010 M02/M04 A3039 RMK AO2 T10251042,KW99,2019-01-12T20:55:00Z,39.0,-79.15,-2.5,-4.2,0,0,,1.0,30.389763,,,TRUE,TRUE,,,,,,-SN,OVC,1000,,,,,,,IFR,,,,,,,,,,,,METAR,293.0
KW96 122055Z AUTO 00000KT 10SM BKN080 OVC085 03/M09 A3048 RMK AO1 T00261091,KW96,2019-01-12T20:55:00Z,37.5,-77.12,2.6,-9.1,0,0,,10.0,30.481298,,,TRUE,TRUE,,,,,,,BKN,8000,OVC,8500,,,,,VFR,,,,,,,,,,,,METAR,37.0
KW75 122055Z AUTO 00000KT 10SM OVC070 02/M04 A3049 RMK AO1 T00211042,KW75,2019-01-12T20:55:00Z,37.6,-76.45,2.1,-4.2,0,0,,10.0,30.490158,,,TRUE,TRUE,,,,,,,OVC,7000,,,,,,,VFR,,,,,,,,,,,,METAR,9.0
KW63 122055Z AUTO 06005KT 10SM SCT075 OVC090 00/M01 A3044 RMK AO1,KW63,2019-01-12T20:55:00Z,36.6,-78.55,0.0,-1.0,60,5,,10.0,30.43996,,,TRUE,TRUE,,,,,,,SCT,7500,OVC,9000,,,,,VFR,,,,,,,,,,,,METAR,129.0
KMVH 122055Z AUTO 12004KT 10SM CLR 08/M10 A3008 RMK AO2,KMVH,2019-01-12T20:55:00Z,46.83,-108.93,8.0,-10.0,120,4,,10.0,30.079725,,,TRUE,TRUE,,,,,,,CLR,,,,,,,,VFR,,,,,,,,,,,,METAR,1355.0
KTDF 122055Z AUTO 07003KT 10SM OVC090 02/M08 A3043 RMK AO2,KTDF,2019-01-12T20:55:00Z,36.28,-78.98,2.0,-8.0,70,3,,10.0,30.431103,,,TRUE,TRUE,,,,,,,OVC,9000,,,,,,,VFR,,,,,,,,,,,,SPECI,186.0
OICS 122055Z 00000KT CAVOK M03/M06 Q1017,OICS,2019-01-12T20:55:00Z,35.25,47.02,-3.0,-6.0,0,0,,6.21,30.029528,,,,,,,,,,,CAVOK,,,,,,,,VFR,,,,,,,,,,,,METAR,1373.0
KAFO 122055Z AUTO 00000KT 10SM CLR M11/M12 A3021 RMK AO2,KAFO,2019-01-12T20:55:00Z,42.72,-110.95,-11.0,-12.0,0,0,,10.0,30.209646,,,TRUE,TRUE,,,,,,,CLR,,,,,,,,VFR,,,,,,,,,,,,SPECI,1897.0
KACP 122055Z AUTO 23003KT 10SM CLR 21/12 A2996 RMK AO2 T02090118,KACP,2019-01-12T20:55:00Z,30.75,-92.68,20.9,11.8,230,3,,10.0,29.958662,,,TRUE,TRUE,,,,,,,CLR,,,,,,,,VFR,,,,,,,,,,,,METAR,33.0
KAAA 122055Z AUTO 06013KT 7SM OVC008 00/M01 A3015 RMK AO2 T10011010,KAAA,2019-01-12T20:55:00Z,40.17,-89.33,-0.1,-1.0,60,13,,7.0,30.15059,,,TRUE,TRUE,,,,,,,OVC,800,,,,,,,IFR,,,,,,,,,,,,METAR,182.0
K6B0 122055Z AUTO 00000KT 10SM CLR M11/M17 A3049 RMK AO2 T11151170,K6B0,2019-01-12T20:55:00Z,43.98,-73.1,-11.5,-17.0,0,0,,10.0,30.490158,,,TRUE,TRUE,,,,,,,CLR,,,,,,,,VFR,,,,,,,,,,,,METAR,149.0
K66R 122055Z AUTO 30007KT 280V340 10SM CLR 19/05 A3009 RMK AO2 T01870052,K66R,2019-01-12T20:55:00Z,29.65,-96.52,18.7,5.2,300,7,,10.0,30.088583,,,TRUE,TRUE,,,,,,,CLR,,,,,,,,VFR,,,,,,,,,,,,SPECI,74.0
K5M9 122055Z AUTO 10012G15KT 3SM -RA SCT023 BKN037 OVC065 03/03 A2997 RMK AO2 T00310031,K5M9,2019-01-12T20:55:00Z,37.33,-88.12,3.1,3.1,100,12,15,3.0,29.970472,,,TRUE,TRUE,,,,,,-RA,SCT,2300,BKN,3700,OVC,6500,,,MVFR,,,,,,,,,,,,METAR,199.0
K5C1 122055Z AUTO 36007G16KT 10SM CLR 15/03 A3013 RMK AO1,K5C1,2019-01-12T20:55:00Z,29.72,-98.7,15.0,3.0,360,7,16,10.0,30.129921,,,TRUE,TRUE,,,,,,,CLR,,,,,,,,VFR,,,,,,,,,,,,SPECI,423.0
K5A6 122055Z AUTO 18006KT 10SM OVC006 11/11 A2994 RMK AO2 T01050105,K5A6,2019-01-12T20:55:00Z,33.47,-89.73,10.5,10.5,180,6,,10.0,29.940945,,,TRUE,TRUE,,,,,,,OVC,600,,,,,,,IFR,,,,,,,,,,,,METAR,111.0
K3K3 122055Z AUTO 35008KT 10SM OVC017 02/00 A3021 RMK AO2,K3K3,2019-01-12T20:55:00Z,38.0,-101.75,2.0,0.0,350,8,,10.0,30.209646,,,TRUE,TRUE,,,,,,,OVC,1700,,,,,,,MVFR,,,,,,,,,,,,METAR,1013.0
K3AU 122055Z AUTO 35015G22KT 10SM OVC011 00/M01 A3011 RMK AO2,K3AU,2019-01-12T20:55:00Z,37.67,-97.08,0.0,-1.0,350,15,22,10.0,30.109253,,,TRUE,TRUE,,,,,,,OVC,1100,,,,,,,MVFR,,,,,,,,,,,,METAR,405.0
K11R 122055Z AUTO 29009KT 10SM SCT042 17/07 A3010 RMK AO2 T01700067,K11R,2019-01-12T20:55:00Z,30.22,-96.37,17.0,6.7,290,9,,10.0,30.100393,,,TRUE,TRUE,,,,,,,SCT,4200,,,,,,,VFR,,,,,,,,,,,,SPECI,94.0
K06C 122055Z AUTO 07004KT 3/4SM OVC005 M02/M03 A3028 RMK AO2 P0002 60004 T10171026,K06C,2019-01-12T20:55:00Z,41.98,-88.1,-1.7,-2.6,70,4,,0.75,30.280512,,,TRUE,TRUE,,,,,,,OVC,500,,,,,,,LIFR,,,,,,0.02,0.04,,,,,METAR,244.0
K04W 122055Z AUTO 07004KT 10SM OVC050 M01/M05 A3040 RMK AO2,K04W,2019-01-12T20:55:00Z,46.02,-92.9,-1.0,-5.0,70,4,,10.0,30.398623,,,TRUE,TRUE,,,,,,,OVC,5000,,,,,,,VFR,,,,,,,,,,,,METAR,311.0
KY49 122055Z AUTO 08005KT 10SM OVC009 M04/M06 A3038 RMK AO2 T10441056,KY49,2019-01-12T20:55:00Z,47.13,-94.65,-4.4,-5.6,80,5,,10.0,30.380905,,,TRUE,TRUE,,,,,,,OVC,900,,,,,,,IFR,,,,,,,,,,,,METAR,416.0
KY31 122055Z AUTO 08007KT 7SM BKN013 OVC018 M03/M05 A3045 RMK AO2 T10311054,KY31,2019-01-12T20:55:00Z,44.25,-84.18,-3.1,-5.4,80,7,,7.0,30.448818,,,TRUE,TRUE,,,,,,,BKN,1300,OVC,1800,,,,,MVFR,,,,,,,,,,,,METAR,269.0
KW78 122055Z AUTO 03003KT 10SM OVC006 00/M01 A3045 RMK AO1 T10021010,KW78,2019-01-12T20:55:00Z,36.68,-78.85,-0.2,-1.0,30,3,,10.0,30.448818,,,TRUE,TRUE,,,,,,,OVC,600,,,,,,,IFR,,,,,,,,,,,,METAR,129.0
KW43 122055Z AUTO 23006KT 10SM CLR 05/M03 A3016 RMK AO2,KW43,2019-01-12T20:55:00Z,44.67,-104.57,5.0,-3.0,230,6,,10.0,30.159449,,,TRUE,TRUE,,,,,,,CLR,,,,,,,,VFR,,,,,,,,,,,,SPECI,1300.0
KVER 122055Z AUTO 03005KT 2SM -SN OVC004 01/ A3002 RMK AO2 T0006,KVER,2019-01-12T20:55:00Z,38.95,-92.68,0.6,,30,5,,2.0,30.02067,,,TRUE,TRUE,,,,,,-SN,OVC,400,,,,,,,LIFR,,,,,,,,,,,,METAR,218.0
KUXL 122055Z AUTO 29010G14KT 10SM CLR 22/11 A2999 RMK AO2 T02210114,KUXL,2019-01-12T20:55:00Z,30.13,-93.38,22.1,11.4,290,10,14,10.0,29.991142,,,TRUE,TRUE,,,,,,,CLR,,,,,,,,VFR,,,,,,,,,,,,METAR,4.0
KT82 122055Z AUTO 32012G20KT 10SM CLR 14/02 A3014 RMK AO2 T01350023,KT82,2019-01-12T20:55:00Z,30.25,-98.92,13.5,2.3,320,12,20,10.0,30.138779,,,TRUE,TRUE,,,,,,,CLR,,,,,,,,VFR,,,,,,,,,,,,SPECI,517.0
KSME 122055Z AUTO 09004KT 10SM -RA SCT027 BKN039 OVC060 03/03 A3014 RMK AO2 P0001,KSME,2019-01-12T20:55:00Z,37.05,-84.62,3.0,3.0,90,4,,10.0,30.138779,,,TRUE,TRUE,,,,,,-RA,SCT,2700,BKN,3900,OVC,6000,,,VFR,,,,,,0.01,,,,,,METAR,283.0
KSHD 122055Z AUTO 17003KT 3/4SM SN OVC015 M02/M04 A3041 RMK AO2 P0001 60001 T10251038,KSHD,2019-01-12T20:55:00Z,38.27,-78.9,-2.5,-3.8,170,3,,0.75,30.410433,,,TRUE,TRUE,,,,,,SN,OVC,1500,,,,,,,LIFR,,,,,,0.01,0.01,,,,,METAR,366.0
KSBO 122055Z AUTO 10005KT 10SM BKN060 OVC080 12/07 A3026 RMK AO2,KSBO,2019-01-12T20:55:00Z,32.62,-82.37,12.0,7.0,100,5,,10.0,30.259842,,,TRUE,TRUE,,,,,,,BKN,6000,OVC,8000,,,,,VFR,,,,,,,,,,,,METAR,100.0
KSAA 122055Z AUTO 28006KT 10SM CLR M05/M05 A3017 RMK AO2,KSAA,2019-01-12T20:55:00Z,41.45,-106.83,-5.0,-5.0,280,6,,10.0,30.171259,,,TRUE,TRUE,,,,,,,CLR,,,,,,,,VFR,,,,,,,,,,,,SPECI,2138.0
KRZT 122055Z AUTO 10003KT 10SM -RA BKN005 OVC009 M01/M01 A3028 RMK AO2,KRZT,2019-01-12T20:55:00Z,39.43,-83.02,-1.0,-1.0,100,3,,10.0,30.280512,,,TRUE,TRUE,,,,,,-RA,BKN,500,OVC,900,,,,,IFR,,,,,,,,,,,,METAR,221.0
KREG 122055Z AUTO 25005KT 10SM OVC015 19/16 A2997 RMK AO2 60006 T01870157,KREG,2019-01-12T20:55:00Z,30.17,-90.93,18.7,15.7,250,5,,10.0,29.970472,,,TRUE,TRUE,,,,,,,OVC,1500,,,,,,,MVFR,,,,,,,0.06,,,,,METAR,4.0
KPTT 122055Z AUTO 35020G23KT 10SM OVC009 M01/M02 A3016 RMK AO2 T10061022,KPTT,2019-01-12T20:55:00Z,37.7,-98.75,-0.6,-2.2,350,20,23,10.0,30.159449,,,TRUE,TRUE,,,,,,,OVC,900,,,,,,,IFR,,,,,,,,,,,,METAR,595.0
KPSK 122055Z AUTO 09004KT 10SM OVC010 00/M01 A3033 RMK AO2 60003 T10031015,KPSK,2019-01-12T20:55:00Z,37.12,-80.67,-0.3,-1.5,90,4,,10.0,30.33071,,,TRUE,TRUE,,,,,,,OVC,1000,,,,,,,MVFR,,,,,,,0.03,,,,,METAR,642.0
KPPO 122055Z AUTO 08013G18KT 1 1/4SM -SN VV007 M03/M04 A3028 RMK AO2 T10261037,KPPO,2019-01-12T20:55:00Z,41.57,-86.73,-2.6,-3.7,80,13,18,1.25,30.280512,,,TRUE,TRUE,,,,,,-SN,OVX,0,,,,,,,LIFR,,,,,,,,,,,700,METAR,248.0
KPMH 122055Z AUTO 04005KT 7SM -SN SCT037 BKN044 OVC075 00/M01 A3028 RMK AO2 T10051015,KPMH,2019-01-12T20:55:00Z,38.83,-82.85,-0.5,-1.5,40,5,,7.0,30.280512,,,TRUE,TRUE,,,,,,-SN,SCT,3700,BKN,4400,OVC,7500,,,VFR,,,,,,,,,,,,METAR,202.0
EBFS 122055Z AUTO 28010KT 9999 FEW007/// SCT010/// BKN022/// 06/05 Q1017 GRN,EBFS,2019-01-12T20:55:00Z,50.22,4.65,6.0,5.0,280,10,,6.21,30.029528,,,TRUE,,,,,,,,FEW,700,SCT,1000,BKN,2200,,,MVFR,,,,,,,,,,,,METAR,299.0
EBFN 122055Z AUTO 28013KT 9999 /// 09/05 Q1017 BLU,EBFN,2019-01-12T20:55:00Z,51.07,2.63,9.0,5.0,280,13,,6.21,30.029528,,,TRUE,,,,,,,,,,,,,,,,,,,,,,,,,,,,METAR,9.0
EBDT 122055Z AUTO 27006KT 9999 SCT013/// BKN021/// BKN027/// 08/06 Q1015 GRN,EBDT,2019-01-12T20:55:00Z,51.02,5.07,8.0,6.0,270,6,,6.21,29.970472,,,TRUE,,,,,,,,SCT,1300,BKN,2100,BKN,2700,,,MVFR,,,,,,,,,,,,METAR,54.0
EBBL 122055Z AUTO 26009KT 9999 BKN015/// BKN050/// 08/06 Q1015 WHT,EBBL,2019-01-12T20:55:00Z,51.17,5.47,8.0,6.0,260,9,,6.21,29.970472,,,TRUE,,,,,,,,BKN,1500,BKN,5000,,,,,MVFR,,,,,,,,,,,,METAR,64.0
NZCM 122055Z 13015KT 1600 PRFG FEW002 SCT140 BKN190 M06/M08 A2944 RMK AO2A VIS E-SE 0800 W-NW 9999 SLP972 T10561077,NZCM,2019-01-12T20:55:00Z,-77.85,166.67,-5.6,-7.7,130,15,,0.99,29.438976,997.2,,,TRUE,,,,,,PRFG,FEW,200,SCT,14000,BKN,19000,,,LIFR,,,,,,,,,,,,METAR,8.0
MUHA 122055Z 09005KT 060V120 9000 SCT030 28/16 Q1018,MUHA,2019-01-12T20:55:00Z,22.97,-82.42,28.0,16.0,90,5,,5.59,30.059055,,,,,,,,,,,SCT,3000,,,,,,,VFR,,,,,,,,,,,,METAR,64.0
PASV 122055Z AUTO 17001KT 10SM FEW120 M23/M25 A2947 RMK AO2 SLP066 T12351253 58007,PASV,2019-01-12T20:55:00Z,61.1,-155.57,-23.5,-25.3,170,1,,10.0,29.471457,1006.6,,TRUE,TRUE,,,,,,,FEW,12000,,,,,,,VFR,-0.7,,,,,,,,,,,METAR,484.0
KBWD 122055Z AUTO 33019G29KT 10SM OVC038 10/00 A3017 RMK AO1,KBWD,2019-01-12T20:55:00Z,31.8,-98.95,10.0,0.0,330,19,29,10.0,30.171259,,,TRUE,TRUE,,,,,,,OVC,3800,,,,,,,VFR,,,,,,,,,,,,SPECI,423.0
KBQX 122055Z AUTO 31005KT 10SM CLR 17/14 A3007 RMK A01,KBQX,2019-01-12T20:55:00Z,28.5,-95.72,17.0,14.0,310,5,,10.0,30.070866,,,TRUE,TRUE,,,,,,,CLR,,,,,,,,VFR,,,,,,,,,,,,SPECI,34.0
KBGF 122055Z AUTO 16011G18KT 4SM HZ BKN055 OVC065 06/02 A3006 RMK A01,KBGF,2019-01-12T20:55:00Z,35.18,-86.07,6.0,2.0,160,11,18,4.0,30.059055,,,TRUE,TRUE,,,,,,HZ,BKN,5500,OVC,6500,,,,,MVFR,,,,,,,,,,,,METAR,299.0
KBBP 122055Z AUTO 05009KT 10SM BKN070 BKN110 05/M05 A3038 RMK AO2,KBBP,2019-01-12T20:55:00Z,34.62,-79.73,5.0,-5.0,50,9,,10.0,30.380905,,,TRUE,TRUE,,,,,,,BKN,7000,BKN,11000,,,,,VFR,,,,,,,,,,,,METAR,45.0
KBBF 122055Z AUTO 35007KT 10SM CLR 18/14 A3005 RMK A01,KBBF,2019-01-12T20:55:00Z,27.83,-96.02,18.0,14.0,350,7,,10.0,30.050198,,,TRUE,TRUE,,,,,,,CLR,,,,,,,,VFR,,,,,,,,,,,,SPECI,36.0
KAVK 122055Z AUTO 33017G24KT 10SM OVC018 02/M00 A3017 RMK AO2,KAVK,2019-01-12T20:55:00Z,36.77,-98.67,2.0,0.0,330,17,24,10.0,30.171259,,,TRUE,TRUE,,,,,,,OVC,1800,,,,,,,MVFR,,,,,,,,,,,,METAR,449.0
KATP 122055Z AUTO 00000KT 10SM CLR 23/18 A3005 RMK A01,KATP,2019-01-12T20:55:00Z,27.2,-90.03,23.0,18.0,0,0,,10.0,30.050198,,,TRUE,TRUE,,,,,,,CLR,,,,,,,,VFR,,,,,,,,,,,,METAR,62.0
KAIG 122055Z AUTO 09010KT 10SM SCT011 OVC018 M05/M06 A3041 RMK AO2 T10501065,KAIG,2019-01-12T20:55:00Z,45.15,-89.12,-5.0,-6.5,90,10,,10.0,30.410433,,,TRUE,TRUE,,,,,,,SCT,1100,OVC,1800,,,,,MVFR,,,,,,,,,,,,METAR,464.0
K8A3 122055Z AUTO 17010G15KT 150V210 10SM FEW030 SCT034 SCT090 08/M00 A3008 RMK A01,K8A3,2019-01-12T20:55:00Z,36.42,-85.32,8.0,0.0,170,10,15,10.0,30.079725,,,TRUE,TRUE,,,,,,,FEW,3000,SCT,3400,SCT,9000,,,VFR,,,,,,,,,,,,METAR,419.0
K6S0 122055Z AUTO 26018KT 10SM CLR 07/M13 A3010 RMK A01,K6S0,2019-01-12T20:55:00Z,45.8,-109.97,7.0,-13.0,260,18,,10.0,30.100393,,,TRUE,TRUE,,,,,,,CLR,,,,,,,,VFR,,,,,,,,,,,,METAR,1363.0
K5T9 122055Z AUTO 32012G22KT 10SM CLR 06/M15 A3014 RMK A01,K5T9,2019-01-12T20:55:00Z,28.85,-100.52,6.0,-15.0,320,12,22,10.0,30.138779,,,TRUE,TRUE,,,,,,,CLR,,,,,,,,VFR,,,,,,,,,,,,SPECI,270.0
K54A 122055Z AUTO 22007KT 10SM CLR 24/15 A3014 RMK AO2,K54A,2019-01-12T20:55:00Z,26.85,-82.25,24.0,15.0,220,7,,10.0,30.138779,,,TRUE,TRUE,,,,,,,CLR,,,,,,,,VFR,,,,,,,,,,,,METAR,14.0
K4S2 122055Z AUTO 04004KT 10SM OVC014 04/02 A3020 RMK AO2,K4S2,2019-01-12T20:55:00Z,45.68,-121.55,4.0,2.0,40,4,,10.0,30.200787,,,TRUE,TRUE,,,,,,,OVC,1400,,,,,,,MVFR,,,,,,,,,,,,METAR,192.0
K46U 122055Z AUTO 18008G13KT 150V220 10SM CLR M07/M09 A3024 RMK A01,K46U,2019-01-12T20:55:00Z,43.18,-111.05,-7.0,-9.0,180,8,13,10.0,30.239174,,,TRUE,TRUE,,,,,,,CLR,,,,,,,,VFR,,,,,,,,,,,,SPECI,1717.0
K3T5 122055Z AUTO 32011G14KT 10SM CLR 18/06 A3008 RMK AO2 T01830064,K3T5,2019-01-12T20:55:00Z,29.9,-96.95,18.3,6.4,320,11,14,10.0,30.079725,,,TRUE,TRUE,,,,,,,CLR,,,,,,,,VFR,,,,,,,,,,,,METAR,99.0
K3S8 122055Z AUTO 00000KT 10SM CLR 11/04 A2995 RMK AO2,K3S8,2019-01-12T20:55:00Z,42.5,-123.4,11.0,4.0,0,0,,10.0,29.949802,,,TRUE,TRUE,,,,,,,CLR,,,,,,,,VFR,,,,,,,,,,,,SPECI,343.0
K3L4 122055Z AUTO 27010KT 10SM CLR A2999 RMK A01,K3L4,2019-01-12T20:55:00Z,29.8,-92.8,,,270,10,,10.0,29.991142,,,TRUE,TRUE,,,,,,,CLR,,,,,,,,VFR,,,,,,,,,,,,METAR,2.0
K33N 122055Z AUTO 00000KT 10SM BKN041 BKN050 OVC075 00/M13 A3050 RMK A01,K33N,2019-01-12T20:55:00Z,39.22,-75.6,0.0,-13.0,0,0,,10.0,30.499016,,,TRUE,TRUE,,,,,,,BKN,4100,BKN,5000,OVC,7500,,,VFR,,,,,,,,,,,,METAR,17.0
K2M2 122055Z AUTO 11010KT 5SM BR BKN022 OVC035 06/04 A3000 RMK A01,K2M2,2019-01-12T20:55:00Z,35.23,-87.25,6.0,4.0,110,10,,5.0,30.0,,,TRUE,TRUE,,,,,,BR,BKN,2200,OVC,3500,,,,,MVFR,,,,,,,,,,,,METAR,286.0
K2LS 122055Z AUTO 29007KT 9SM BKN019 BKN026 OVC070 18/15 A3003 RMK AO2,K2LS,2019-01-12T20:55:00Z,29.42,-90.3,18.0,15.0,290,7,,9.0,30.029528,,,TRUE,TRUE,,,,,,,BKN,1900,BKN,2600,OVC,7000,,,MVFR,,,,,,,,,,,,METAR,-2.0
K2A0 122055Z AUTO 00000KT 10SM OVC033 07/00 A3016 RMK A01,K2A0,2019-01-12T20:55:00Z,35.48,-84.93,7.0,0.0,0,0,,10.0,30.159449,,,TRUE,TRUE,,,,,,,OVC,3300,,,,,,,VFR,,,,,,,,,,,,METAR,219.0
K28J 122055Z AUTO 12006KT 10SM BKN070 24/13 A3019 RMK AO2,K28J,2019-01-12T20:55:00Z,29.65,-81.58,24.0,13.0,120,6,,10.0,30.188976,,,TRUE,TRUE,,,,,,,BKN,7000,,,,,,,VFR,,,,,,,,,,,,METAR,15.0
K1U7 122055Z AUTO 12008KT 10SM OVC008 M07/M08 A3022 RMK A01,K1U7,2019-01-12T20:55:00Z,,,-7.0,-8.0,120,8,,10.0,30.221457,,,TRUE,TRUE,,,,,,,OVC,800,,,,,,,IFR,,,,,,,,,,,,METAR,
K18H 122055Z AUTO 22016KT 4SM HZ FEW065 SCT120 23/17 A3004 RMK A01,K18H,2019-01-12T20:55:00Z,26.13,-92.03,23.0,17.0,220,16,,4.0,30.041338,,,TRUE,TRUE,,,,,,HZ,FEW,6500,SCT,12000,,,,,MVFR,,,,,,,,,,,,METAR,10.0
K0R0 122055Z AUTO 18006G13KT 10SM FEW080 17/16 A2997 RMK AO2 P0005,K0R0,2019-01-12T20:55:00Z,31.3,-89.82,17.0,16.0,180,6,13,10.0,29.970472,,,TRUE,TRUE,,,,,,,FEW,8000,,,,,,,VFR,,,,,,0.05,,,,,,METAR,81.0
K0A9 122055Z AUTO 09008KT 10SM OVC050 07/M05 A3022 RMK AO2,K0A9,2019-01-12T20:55:00Z,36.37,-82.17,7.0,-5.0,90,8,,10.0,30.221457,,,TRUE,TRUE,,,,,,,OVC,5000,,,,,,,VFR,,,,,,,,,,,,METAR,486.0
K2G9 122055Z AUTO 10006KT 10SM SCT060 OVC070 M03/M07 A3029 RMK AO2,K2G9,2019-01-12T20:55:00Z,40.03,-79.02,-3.0,-7.0,100,6,,10.0,30.28937,,,TRUE,TRUE,,,,,,,SCT,6000,OVC,7000,,,,,VFR,,,,,,,,,,,,SPECI,693.0
K1F0 122055Z AUTO 32008G15KT 290V350 10SM OVC023 05/00 A3011 RMK AO2,K1F0,2019-01-12T20:55:00Z,34.15,-97.12,5.0,0.0,320,8,15,10.0,30.109253,,,TRUE,TRUE,,,,,,,OVC,2300,,,,,,,MVFR,,,,,,,,,,,,METAR,257.0
K1A6 122055Z AUTO 00000KT 10SM OVC042 07/00 A3018 RMK AO2 T00721003,K1A6,2019-01-12T20:55:00Z,36.62,-83.73,7.2,-0.3,0,0,,10.0,30.180119,,,TRUE,TRUE,,,,,,,OVC,4200,,,,,,,VFR,,,,,,,,,,,,METAR,352.0
K13K 122055Z AUTO 35017KT 10SM OVC010 00/M02 A3009 RMK AO2 T10041018 60001,K13K,2019-01-12T20:55:00Z,37.85,-96.3,-0.4,-1.8,350,17,,10.0,30.088583,,,TRUE,TRUE,,,,,,,OVC,1000,,,,,,,MVFR,,,,,,,0.01,,,,,METAR,369.0
K3N8 122055Z AUTO 13003KT 10SM SCT015 OVC028 M02/M05 A3037 RMK AO2 T10251050,K3N8,2019-01-12T20:55:00Z,47.25,-95.88,-2.5,-5.0,130,3,,10.0,30.369095,,,TRUE,TRUE,,,,,,,SCT,1500,OVC,2800,,,,,MVFR,,,,,,,,,,,,SPECI,383.0
K3D2 122055Z AUTO 08008G15KT 10SM BKN022 OVC026 M02/M07 A3046 RMK AO2 T10251068,K3D2,2019-01-12T20:55:00Z,45.13,-87.18,-2.5,-6.8,80,8,15,10.0,30.46063,,,TRUE,TRUE,,,,,,,BKN,2200,OVC,2600,,,,,MVFR,,,,,,,,,,,,METAR,234.0
KADC 122055Z AUTO 10004KT 10SM OVC029 M03/M07 A3036 RMK AO2,KADC,2019-01-12T20:55:00Z,46.45,-95.22,-3.0,-7.0,100,4,,10.0,30.360237,,,TRUE,TRUE,,,,,,,OVC,2900,,,,,,,MVFR,,,,,,,,,,,,METAR,418.0
KA39 122055Z AUTO 13006KT 10SM CLR 17/04 A3003 RMK AO2,KA39,2019-01-12T20:55:00Z,32.98,-111.92,17.0,4.0,130,6,,10.0,30.029528,,,TRUE,TRUE,,,,,,,CLR,,,,,,,,VFR,,,,,,,,,,,,SPECI,396.0
K8W2 122055Z AUTO 00000KT 1 1/2SM SCT007 OVC018 M01/M02 A3039 RMK AO1 P0001 60001 T10121018,K8W2,2019-01-12T20:55:00Z,38.65,-78.7,-1.2,-1.8,0,0,,1.5,30.389763,,,TRUE,TRUE,,,,,,,SCT,700,OVC,1800,,,,,IFR,,,,,,0.01,0.01,,,,,METAR,297.0
K4O4 122055Z AUTO 28015G23KT 10SM BKN013 06/03 A3001 RMK AO2,K4O4,2019-01-12T20:55:00Z,33.92,-94.87,6.0,3.0,280,15,23,10.0,30.008858,,,TRUE,TRUE,,,,,,,BKN,1300,,,,,,,MVFR,,,,,,,,,,,,METAR,144.0
KAFK 122055Z AUTO 02015G18KT 3/4SM -SN OVC005 00/M02 A3018 RMK AO2 T10051017,KAFK,2019-01-12T20:55:00Z,40.6,-95.85,-0.5,-1.7,20,15,18,0.75,30.180119,,,TRUE,TRUE,,,,,,-SN,OVC,500,,,,,,,LIFR,,,,,,,,,,,,METAR,354.0
KADH 122055Z AUTO 31006G16KT 10SM OVC015 03/01 A3007 RMK AO2,KADH,2019-01-12T20:55:00Z,34.8,-96.67,3.0,1.0,310,6,16,10.0,30.070866,,,TRUE,TRUE,,,,,,,OVC,1500,,,,,,,MVFR,,,,,,,,,,,,METAR,308.0
FJDG 122055Z 03006KT 9999 FEW023 FEW080 SCT250 27/26 A2987 RMK SLP112 8/131 T02720261 57020,FJDG,2019-01-12T20:55:00Z,-7.32,72.42,27.2,26.1,30,6,,6.21,29.870079,1011.2,,,,,,,,,,FEW,2300,FEW,8000,SCT,25000,,,VFR,-2.0,,,,,,,,,,,METAR,3.0
PGRO 122055Z 06010KT 7SM FEW013 SCT120 24/21 A2987 RMK WIND DATA ESTIMATED,PGRO,2019-01-12T20:55:00Z,14.18,145.25,24.0,21.0,60,10,,7.0,29.870079,,,,,,,,,,,FEW,1300,SCT,12000,,,,,VFR,,,,,,,,,,,,METAR,185.0
KAPY 122055Z AUTO 34010G15KT 10SM CLR 24/08 A3008 RMK AO2 T02440088,KAPY,2019-01-12T20:55:00Z,26.97,-99.25,24.4,8.8,340,10,15,10.0,30.079725,,,TRUE,TRUE,,,,,,,CLR,,,,,,,,VFR,,,,,,,,,,,,SPECI,129.0
KANW 122055Z AUTO 01003KT 2 1/2SM BR OVC002 M07/M08 A3027 RMK AO2 T10751080,KANW,2019-01-12T20:55:00Z,42.57,-100.0,-7.5,-8.0,10,3,,2.5,30.268702,,,TRUE,TRUE,,,,,,BR,OVC,200,,,,,,,LIFR,,,,,,,,,,,,METAR,789.0
KALX 122055Z AUTO 10SM OVC022 11/06 A3010 RMK AO2 T01120060,KALX,2019-01-12T20:55:00Z,32.92,-85.97,11.2,6.0,,,,10.0,30.100393,,,TRUE,TRUE,,,,,,,OVC,2200,,,,,,,MVFR,,,,,,,,,,,,METAR,209.0
KAHQ 122055Z AUTO 36013KT 2 1/2SM -SN OVC010 M01/M02 A3024 RMK AO2 T10131020,KAHQ,2019-01-12T20:55:00Z,41.23,-96.6,-1.3,-2.0,360,13,,2.5,30.239174,,,TRUE,TRUE,,,,,,-SN,OVC,1000,,,,,,,IFR,,,,,,,,,,,,METAR,374.0
KRNV 122055Z AUTO 18008KT 10SM OVC010 13/13 A2991 RMK AO2 T01300130,KRNV,2019-01-12T20:55:00Z,33.77,-90.75,13.0,13.0,180,8,,10.0,29.911417,,,TRUE,TRUE,,,,,,,OVC,1000,,,,,,,MVFR,,,,,,,,,,,,METAR,41.0
KRMN 122055Z AUTO 18004KT 10SM SCT029 BKN038 OVC048 02/M05 A3053 RMK AO2 LTG DSNT SE T00161052,KRMN,2019-01-12T20:55:00Z,38.4,-77.45,1.6,-5.2,180,4,,10.0,30.528543,,,TRUE,TRUE,,,,,,,SCT,2900,BKN,3800,OVC,4800,,,VFR,,,,,,,,,,,,METAR,65.0
KRLD 122055Z AUTO 02004KT 10SM OVC006 02/02 A3025 RMK AO2 T00200020,KRLD,2019-01-12T20:55:00Z,46.3,-119.3,2.0,2.0,20,4,,10.0,30.250984,,,TRUE,TRUE,,,,,,,OVC,600,,,,,,,IFR,,,,,,,,,,,,SPECI,120.0
KRAS 122055Z AUTO 35009KT 10SM CLR 22/14 A3008 RMK AO2 T02220141,KRAS,2019-01-12T20:55:00Z,27.82,-97.08,22.2,14.1,350,9,,10.0,30.079725,,,TRUE,TRUE,,,,,,,CLR,,,,,,,,VFR,,,,,,,,,,,,SPECI,2.0
KPYX 122055Z AUTO 34018KT 10SM OVC014 03/01 A3018 RMK AO2 T00330005,KPYX,2019-01-12T20:55:00Z,36.42,-100.75,3.3,0.5,340,18,,10.0,30.180119,,,TRUE,TRUE,,,,,,,OVC,1400,,,,,,,MVFR,,,,,,,,,,,,SPECI,889.0
KPWC 122055Z AUTO 08006KT 10SM OVC028 M03/M07 A3040 RMK AO2,KPWC,2019-01-12T20:55:00Z,46.72,-94.37,-3.0,-7.0,80,6,,10.0,30.398623,,,TRUE,TRUE,,,,,,,OVC,2800,,,,,,,MVFR,,,,,,,,,,,,SPECI,395.0
KPSN 122055Z AUTO 28013G23KT 10SM SCT035 12/03 A3009 RMK AO2 T01230040,KPSN,2019-01-12T20:55:00Z,31.78,-95.7,12.3,4.0,280,13,23,10.0,30.088583,,,TRUE,TRUE,,,,,,,SCT,3500,,,,,,,VFR,,,,,,,,,,,,SPECI,129.0
KPPQ 122055Z AUTO 05009KT 1 1/4SM OVC004 00/00 A3008 RMK AO2 P0001 60002 T00030000,KPPQ,2019-01-12T20:55:00Z,39.63,-90.78,0.3,0.0,50,9,,1.25,30.079725,,,TRUE,TRUE,,,,,,,OVC,400,,,,,,,LIFR,,,,,,0.01,,,,,,SPECI,216.0
KPPA 122055Z AUTO 35015G21KT 10SM BKN023 06/00 A3017 RMK AO2 T00620002,KPPA,2019-01-12T20:55:00Z,35.62,-101.0,6.2,0.2,350,15,21,10.0,30.171259,,,TRUE,TRUE,,,,,,,BKN,2300,,,,,,,MVFR,,,,,,,,,,,,METAR,989.0
KPOY 122055Z AUTO 13010KT 10SM CLR M02/M03 A3012 RMK AO2,KPOY,2019-01-12T20:55:00Z,44.87,-108.8,-2.0,-3.0,130,10,,10.0,30.121063,,,TRUE,TRUE,,,,,,,CLR,,,,,,,,VFR,,,,,,,,,,,,METAR,1552.0
KPMV 122055Z AUTO 36011G15KT 2 1/2SM -SN OVC007 00/M01 A3020 RMK AO2 T10021015,KPMV,2019-01-12T20:55:00Z,40.95,-95.92,-0.2,-1.5,360,11,15,2.5,30.200787,,,TRUE,TRUE,,,,,,-SN,OVC,700,,,,,,,IFR,,,,,,,,,,,,SPECI,367.0
KPMU 122055Z AUTO 13004KT 10SM OVC009 09/08 A2994 RMK AO2,KPMU,2019-01-12T20:55:00Z,34.37,-89.9,9.0,8.0,130,4,,10.0,29.940945,,,TRUE,TRUE,,,,,,,OVC,900,,,,,,,IFR,,,,,,,,,,,,METAR,67.0
KPLU 122055Z AUTO 00000KT 10SM CLR 12/04 A2999 RMK AO2,KPLU,2019-01-12T20:55:00Z,47.1,-122.28,12.0,4.0,0,0,,10.0,29.991142,,,TRUE,TRUE,,,,,,,CLR,,,,,,,,VFR,,,,,,,,,,,,METAR,164.0
KPEZ 122055Z AUTO 32012G16KT 10SM CLR 21/06 A3010 RMK AO2 T02050063,KPEZ,2019-01-12T20:55:00Z,28.95,-98.52,20.5,6.3,320,12,16,10.0,30.100393,,,TRUE,TRUE,,,,,,,CLR,,,,,,,,VFR,,,,,,,,,,,,SPECI,132.0
KPEQ 122055Z AUTO 00000KT 10SM CLR 13/00 A3020 RMK AO2 T01311003,KPEQ,2019-01-12T20:55:00Z,31.38,-103.52,13.1,-0.3,0,0,,10.0,30.200787,,,TRUE,TRUE,,,,,,,CLR,,,,,,,,VFR,,,,,,,,,,,,METAR,797.0
KPBX 122055Z AUTO 11005KT 10SM DZ SCT043 BKN049 OVC070 04/01 A3019 RMK AO2 T00390011,KPBX,2019-01-12T20:55:00Z,37.57,-82.57,3.9,1.1,110,5,,10.0,30.188976,,,TRUE,TRUE,,,,,,DZ,SCT,4300,BKN,4900,OVC,7000,,,VFR,,,,,,,,,,,,METAR,449.0
KCHK 122055Z AUTO 34021KT 10SM BKN022 OVC028 04/00 A3010 RMK AO2 T00410004,KCHK,2019-01-12T20:55:00Z,35.1,-97.97,4.1,0.4,340,21,,10.0,30.100393,,,TRUE,TRUE,,,,,,,BKN,2200,OVC,2800,,,,,MVFR,,,,,,,,,,,,METAR,351.0
KCBG 122055Z AUTO 09003KT 10SM OVC050 00/M07 A3038 RMK AO2,KCBG,2019-01-12T20:55:00Z,45.57,-93.27,0.0,-7.0,90,3,,10.0,30.380905,,,TRUE,TRUE,,,,,,,OVC,5000,,,,,,,VFR,,,,,,,,,,,,SPECI,287.0
KC65 122055Z AUTO 07013G18KT 1/2SM BR VV005 M03/M03 A3027 RMK A01,KC65,2019-01-12T20:55:00Z,41.37,-86.3,-3.0,-3.0,70,13,18,0.5,30.268702,,,TRUE,TRUE,,,,,,BR,OVX,0,,,,,,,LIFR,,,,,,,,,,,500,SPECI,244.0
KBVS 122055Z AUTO 00000KT 10SM CLR 13/03 A3000 RMK A01,KBVS,2019-01-12T20:55:00Z,48.47,-122.42,13.0,3.0,0,0,,10.0,30.0,,,TRUE,TRUE,,,,,,,CLR,,,,,,,,VFR,,,,,,,,,,,,SPECI,43.0
KBVN 122055Z AUTO 35010KT 5SM BR OVC003 M05/M06 A3027 RMK AO2 T10501060,KBVN,2019-01-12T20:55:00Z,41.73,-98.05,-5.0,-6.0,350,10,,5.0,30.268702,,,TRUE,TRUE,,,,,,BR,OVC,300,,,,,,,LIFR,,,,,,,,,,,,SPECI,551.0
KBTA 122055Z AUTO 36010KT 1SM -SN OVC005 M01/M02 A3022 RMK AO2 60001 T10071018,KBTA,2019-01-12T20:55:00Z,41.42,-96.12,-0.7,-1.8,360,10,,1.0,30.221457,,,TRUE,TRUE,,,,,,-SN,OVC,500,,,,,,,IFR,,,,,,,0.01,,,,,METAR,396.0
KBQP 122055Z AUTO 26008G15KT 10SM SCT021 BKN027 BKN035 16/12 A2994 RMK AO2 T01630119,KBQP,2019-01-12T20:55:00Z,32.75,-91.88,16.3,11.9,260,8,15,10.0,29.940945,,,TRUE,TRUE,,,,,,,SCT,2100,BKN,2700,BKN,3500,,,MVFR,,,,,,,,,,,,METAR,51.0
KBMT 122055Z AUTO 26010G18KT 10SM SCT043 SCT050 22/10 A3001 RMK AO2 T02210096,KBMT,2019-01-12T20:55:00Z,30.07,-94.22,22.1,9.6,260,10,18,10.0,30.008858,,,TRUE,TRUE,,,,,,,SCT,4300,SCT,5000,,,,,VFR,,,,,,,,,,,,SPECI,10.0
KBKT 122055Z AUTO 14003KT 7SM SCT018 BKN038 OVC060 00/M02 A3046 RMK AO1 T00011019,KBKT,2019-01-12T20:55:00Z,37.07,-77.95,0.1,-1.9,140,3,,7.0,30.46063,,,TRUE,TRUE,,,,,,,SCT,1800,BKN,3800,OVC,6000,,,VFR,,,,,,,,,,,,METAR,134.0
KBIJ 122055Z AUTO 14003KT 10SM BKN040 OVC055 17/11 A3013 RMK AO2,KBIJ,2019-01-12T20:55:00Z,31.4,-84.9,17.0,11.0,140,3,,10.0,30.129921,,,TRUE,TRUE,,,,,,,BKN,4000,OVC,5500,,,,,VFR,,,,,,,,,,,,METAR,65.0
KBDH 122055Z AUTO 08005KT 7SM SCT050 M02/M06 A3037 RMK AO2,KBDH,2019-01-12T20:55:00Z,45.12,-95.13,-2.0,-6.0,80,5,,7.0,30.369095,,,TRUE,TRUE,,,,,,,SCT,5000,,,,,,,VFR,,,,,,,,,,,,SPECI,247.0
KAYS 122055Z AUTO 12008KT 10SM BKN065 OVC070 19/09 A3021 RMK AO2 T01860091,KAYS,2019-01-12T20:55:00Z,31.25,-82.4,18.6,9.1,120,8,,10.0,30.209646,,,TRUE,TRUE,,,,,,,BKN,6500,OVC,7000,,,,,VFR,,,,,,,,,,,,METAR,46.0
KAUN 122055Z AUTO 20004KT 10SM CLR 15/03 A2997 RMK A01,KAUN,2019-01-12T20:55:00Z,38.95,-121.08,15.0,3.0,200,4,,10.0,29.970472,,,TRUE,TRUE,,,,,,,CLR,,,,,,,,VFR,,,,,,,,,,,,SPECI,467.0
KAUH 122055Z AUTO 35015KT 7SM OVC009 M04/M05 A3024 RMK AO2 T10401053,KAUH,2019-01-12T20:55:00Z,40.88,-98.0,-4.0,-5.3,350,15,,7.0,30.239174,,,TRUE,TRUE,,,,,,,OVC,900,,,,,,,IFR,,,,,,,,,,,,SPECI,550.0
KASN 122055Z AUTO 06003KT 10SM OVC024 10/05 A3009 RMK AO2 T01010048,KASN,2019-01-12T20:55:00Z,33.57,-86.05,10.1,4.8,60,3,,10.0,30.088583,,,TRUE,TRUE,,,,,,,OVC,2400,,,,,,,MVFR,,,,,,,,,,,,METAR,162.0
KRPH 122055Z AUTO 31016G23KT 10SM OVC030 06/01 A3017 RMK AO2 T00620012,KRPH,2019-01-12T20:55:00Z,33.12,-98.55,6.2,1.2,310,16,23,10.0,30.171259,,,TRUE,TRUE,,,,,,,OVC,3000,,,,,,,MVFR,,,,,,,,,,,,SPECI,342.0
KRPJ 122055Z AUTO 07010KT 1SM -SN BKN006 BKN012 OVC019 M01/M02 A3027 RMK AO2 T10131020,KRPJ,2019-01-12T20:55:00Z,41.88,-89.08,-1.3,-2.0,70,10,,1.0,30.268702,,,TRUE,TRUE,,,,,,-SN,BKN,600,BKN,1200,OVC,1900,,,IFR,,,,,,,,,,,,SPECI,238.0
KRWV 122055Z AUTO 33019G24KT 10SM SCT043 15/05 A3010 RMK AO2 T01520047,KRWV,2019-01-12T20:55:00Z,30.52,-96.7,15.2,4.7,330,19,24,10.0,30.100393,,,TRUE,TRUE,,,,,,,SCT,4300,,,,,,,VFR,,,,,,,,,,,,SPECI,119.0
KERY 122055Z AUTO 09004KT 10SM CLR M08/M15 A3053 RMK AO2 T10791154,KERY,2019-01-12T20:55:00Z,46.3,-85.45,-7.9,-15.4,90,4,,10.0,30.528543,,,TRUE,TRUE,,,,,,,CLR,,,,,,,,VFR,,,,,,,,,,,,METAR,265.0
KEKS 122055Z AUTO 20004KT 10SM CLR 03/M09 A3019 RMK AO2,KEKS,2019-01-12T20:55:00Z,45.27,-111.65,3.0,-9.0,200,4,,10.0,30.188976,,,TRUE,TRUE,,,,,,,CLR,,,,,,,,VFR,,,,,,,,,,,,METAR,1641.0
KXPY 122055Z AUTO 21008G14KT 9SM BKN060 OVC075 21/18 A3001 RMK A01,KXPY,2019-01-12T20:55:00Z,29.12,-90.2,21.0,18.0,210,8,14,9.0,30.008858,,,TRUE,TRUE,,,,,,,BKN,6000,OVC,7500,,,,,VFR,,,,,,,,,,,,METAR,2.0
KXNX 122055Z AUTO 13004KT 9SM OVC033 09/04 A3011 RMK A01,KXNX,2019-01-12T20:55:00Z,36.38,-86.42,9.0,4.0,130,4,,9.0,30.109253,,,TRUE,TRUE,,,,,,,OVC,3300,,,,,,,VFR,,,,,,,,,,,,METAR,178.0
KXIH 122055Z AUTO 25004KT 10SM CLR A3002 RMK A01,KXIH,2019-01-12T20:55:00Z,29.18,-94.52,,,250,4,,10.0,30.02067,,,TRUE,TRUE,,,,,,,CLR,,,,,,,,VFR,,,,,,,,,,,,METAR,75.0
KXER 122055Z AUTO 23018KT 10SM BKN033 BKN065 23/18 A3004 RMK A01,KXER,2019-01-12T20:55:00Z,,,23.0,18.0,230,18,,10.0,30.041338,,,TRUE,TRUE,,,,,,,BKN,3300,BKN,6500,,,,,VFR,,,,,,,,,,,,METAR,
KVVV 122055Z AUTO 00000KT 10SM SCT034 BKN045 M03/M07 A3035 RMK AO2,KVVV,2019-01-12T20:55:00Z,45.3,-96.42,-3.0,-7.0,0,0,,10.0,30.351377,,,TRUE,TRUE,,,,,,,SCT,3400,BKN,4500,,,,,VFR,,,,,,,,,,,,METAR,335.0
KVQT 122055Z AUTO 30018KT 6SM BR BKN013 OVC090 20/18 A3003 RMK A01,KVQT,2019-01-12T20:55:00Z,28.27,-92.27,20.0,18.0,300,18,,6.0,30.029528,,,TRUE,TRUE,,,,,,BR,BKN,1300,OVC,9000,,,,,MVFR,,,,,,,,,,,,METAR,25.0
KVOA 122055Z AUTO 19021KT 5SM HZ FEW021 22/17 A3005 RMK A01,KVOA,2019-01-12T20:55:00Z,29.23,-87.78,22.0,17.0,190,21,,5.0,30.050198,,,TRUE,TRUE,,,,,,HZ,FEW,2100,,,,,,,MVFR,,,,,,,,,,,,METAR,53.0
KVKY 122055Z AUTO 20017G25KT 10SM FEW025 FEW030 FEW065 22/18 A3006 RMK A01,KVKY,2019-01-12T20:55:00Z,29.25,-88.43,22.0,18.0,200,17,25,10.0,30.059055,,,TRUE,TRUE,,,,,,,FEW,2500,FEW,3000,FEW,6500,,,VFR,,,,,,,,,,,,METAR,32.0
KVKS 122055Z AUTO 21008KT 10SM BKN007 OVC013 14/14 A2995 RMK A01,KVKS,2019-01-12T20:55:00Z,32.23,-90.93,14.0,14.0,210,8,,10.0,29.949802,,,TRUE,TRUE,,,,,,,BKN,700,OVC,1300,,,,,IFR,,,,,,,,,,,,METAR,32.0
KVAF 122055Z AUTO VRB04G10KT 5SM HZ CLR 20/14 A3004 RMK A01,KVAF,2019-01-12T20:55:00Z,27.35,-94.63,20.0,14.0,0,4,10,5.0,30.041338,,,TRUE,TRUE,,,,,,HZ,CLR,,,,,,,,MVFR,,,,,,,,,,,,METAR,46.0
KUYF 122055Z AUTO 08008KT 1/2SM -SN BKN005 OVC016 M01/M02 A3026 RMK AO2 P0001,KUYF,2019-01-12T20:55:00Z,39.93,-83.47,-1.0,-2.0,80,8,,0.5,30.259842,,,TRUE,TRUE,,,,,,-SN,BKN,500,OVC,1600,,,,,LIFR,,,,,,0.01,,,,,,METAR,330.0
KUCY 122055Z AUTO 13011KT 5SM BR SCT010 SCT023 BKN048 08/06 A2993 RMK A01 P0003,KUCY,2019-01-12T20:55:00Z,36.38,-88.98,8.0,6.0,130,11,,5.0,29.929134,,,TRUE,TRUE,,,,,,BR,SCT,1000,SCT,2300,BKN,4800,,,MVFR,,,,,,0.03,,,,,,METAR,104.0
KUBE 122055Z AUTO 09005KT 10SM OVC020 M02/M06 A3038 RMK AO2,KUBE,2019-01-12T20:55:00Z,45.5,-91.98,-2.0,-6.0,90,5,,10.0,30.380905,,,TRUE,TRUE,,,,,,,OVC,2000,,,,,,,MVFR,,,,,,,,,,,,METAR,379.0
KU42 122055Z AUTO 00000KT 5SM OVC012 M01/M03 A3024 RMK AO1 T10141027,KU42,2019-01-12T20:55:00Z,40.62,-111.98,-1.4,-2.7,0,0,,5.0,30.239174,,,TRUE,TRUE,,,,,,,OVC,1200,,,,,,,MVFR,,,,,,,,,,,,METAR,1402.0
KEIR 122055Z AUTO 26009KT 5SM BR SCT013 BKN041 OVC090 19/19 A3003 RMK A01,KEIR,2019-01-12T20:55:00Z,28.63,-91.48,19.0,19.0,260,9,,5.0,30.029528,,,TRUE,TRUE,,,,,,BR,SCT,1300,BKN,4100,OVC,9000,,,MVFR,,,,,,,,,,,,METAR,28.0
KDSF 122055Z AUTO 10SM CLR 22/18 A3005 RMK A01,KDSF,2019-01-12T20:55:00Z,28.35,-88.27,22.0,18.0,,,,10.0,30.050198,,,TRUE,TRUE,,,,,,,CLR,,,,,,,,VFR,,,,,,,,,,,,METAR,130.0
KDKX 122055Z AUTO VRB04KT 10SM OVC042 09/M01 A3016 RMK A01,KDKX,2019-01-12T20:55:00Z,35.97,-83.87,9.0,-1.0,0,4,,10.0,30.159449,,,TRUE,TRUE,,,,,,,OVC,4200,,,,,,,VFR,,,,,,,,,,,,METAR,254.0
KD25 122055Z AUTO 10005KT 10SM OVC012 M05/M07 A3042 RMK AO2 T10511066,KD25,2019-01-12T20:55:00Z,46.12,-89.88,-5.1,-6.6,100,5,,10.0,30.41929,,,TRUE,TRUE,,,,,,,OVC,1200,,,,,,,MVFR,,,,,,,,,,,,METAR,491.0
KCXW 122055Z AUTO 32003KT 1/4SM FG OVC003 07/07 A2991 RMK A01,KCXW,2019-01-12T20:55:00Z,35.02,-92.55,7.0,7.0,320,3,,0.25,29.911417,,,TRUE,TRUE,,,,,,FG,OVC,300,,,,,,,LIFR,,,,,,,,,,,,METAR,84.0
KCVW 122055Z AUTO 23007G13KT 10SM CLR 19/16 A2999 RMK A01,KCVW,2019-01-12T20:55:00Z,29.78,-93.3,19.0,16.0,230,7,13,10.0,29.991142,,,TRUE,TRUE,,,,,,,CLR,,,,,,,,VFR,,,,,,,,,,,,METAR,1.0
KCRX 122055Z AUTO 11007KT 2SM BR OVC007 09/08 A2996 RMK AO2 P0008,KCRX,2019-01-12T20:55:00Z,34.92,-88.6,9.0,8.0,110,7,,2.0,29.958662,,,TRUE,TRUE,,,,,,BR,OVC,700,,,,,,,IFR,,,,,,0.08,,,,,,METAR,130.0
KCMY 122055Z AUTO 07004KT 10SM SCT021 00/M03 A3036 RMK AO2 T00001033,KCMY,2019-01-12T20:55:00Z,43.97,-90.73,0.0,-3.3,70,4,,10.0,30.360237,,,TRUE,TRUE,,,,,,,SCT,2100,,,,,,,VFR,,,,,,,,,,,,METAR,256.0
KCKZ 122055Z AUTO 00000KT 10SM CLR 00/M15 A3047 RMK AO2,KCKZ,2019-01-12T20:55:00Z,40.38,-75.28,0.0,-15.0,0,0,,10.0,30.469488,,,TRUE,TRUE,,,,,,,CLR,,,,,,,,VFR,,,,,,,,,,,,METAR,173.0
KCKP 122055Z AUTO 05006KT 7SM OVC016 00/M03 A3028 RMK AO2 T10021029,KCKP,2019-01-12T20:55:00Z,42.73,-95.55,-0.2,-2.9,50,6,,7.0,30.280512,,,TRUE,TRUE,,,,,,,OVC,1600,,,,,,,MVFR,,,,,,,,,,,,METAR,374.0
KCCB 122055Z AUTO 30006KT 2SM -RA FEW008 SCT025 OVC041 10/09 A3000 RMK AO2 P0007,KCCB,2019-01-12T20:55:00Z,34.12,-117.68,10.0,9.0,300,6,,2.0,30.0,,,TRUE,TRUE,,,,,,-RA,FEW,800,SCT,2500,OVC,4100,,,IFR,,,,,,0.07,,,,,,METAR,440.0
KCBK 122055Z AUTO 36010KT 4SM BR OVC005 M01/M01 A3021 RMK AO2,KCBK,2019-01-12T20:55:00Z,39.43,-101.05,-1.0,-1.0,360,10,,4.0,30.209646,,,TRUE,TRUE,,,,,,BR,OVC,500,,,,,,,IFR,,,,,,,,,,,,METAR,971.0
KCAD 122055Z AUTO 08009KT 10SM OVC008 M04/M06 A3040 RMK AO2 T10451060,KCAD,2019-01-12T20:55:00Z,44.27,-85.42,-4.5,-6.0,80,9,,10.0,30.398623,,,TRUE,TRUE,,,,,,,OVC,800,,,,,,,IFR,,,,,,,,,,,,METAR,398.0
KC83 122055Z AUTO 07006KT 8SM BKN006 12/10 A2997 RMK AO2,KC83,2019-01-12T20:55:00Z,37.83,-121.62,12.0,10.0,70,6,,8.0,29.970472,,,TRUE,TRUE,,,,,,,BKN,600,,,,,,,IFR,,,,,,,,,,,,METAR,24.0
KC29 122055Z AUTO 08012G15KT 10SM BKN023 OVC060 01/M04 A3032 RMK AO1 T00061036,KC29,2019-01-12T20:55:00Z,43.12,-89.53,0.6,-3.6,80,12,15,10.0,30.318897,,,TRUE,TRUE,,,,,,,BKN,2300,OVC,6000,,,,,MVFR,,,,,,,,,,,,METAR,283.0
KFOT 122055Z AUTO 13006KT 10SM CLR 17/17 A2991 RMK AO1 P0001,KFOT,2019-01-12T20:55:00Z,40.55,-124.13,17.0,17.0,130,6,,10.0,29.911417,,,TRUE,TRUE,,,,,,,CLR,,,,,,,,VFR,,,,,,0.01,,,,,,METAR,120.0
KFCH 122055Z AUTO 18009KT 10SM CLR 16/07 A2999 RMK A01,KFCH,2019-01-12T20:55:00Z,36.72,-119.82,16.0,7.0,180,9,,10.0,29.991142,,,TRUE,TRUE,,,,,,,CLR,,,,,,,,VFR,,,,,,,,,,,,METAR,85.0
KEVU 122055Z AUTO 03012G16KT 3SM -SN BKN008 OVC015 00/M02 A3013 RMK AO2,KEVU,2019-01-12T20:55:00Z,40.35,-94.92,0.0,-2.0,30,12,16,3.0,30.129921,,,TRUE,TRUE,,,,,,-SN,BKN,800,OVC,1500,,,,,IFR,,,,,,,,,,,,METAR,349.0
KEVM 122055Z AUTO 10005KT 10SM OVC014 M03/M05 A3042 RMK AO2 T10311051,KEVM,2019-01-12T20:55:00Z,47.42,-92.5,-3.1,-5.1,100,5,,10.0,30.41929,,,TRUE,TRUE,,,,,,,OVC,1400,,,,,,,MVFR,,,,,,,,,,,,METAR,421.0
KETB 122055Z AUTO 09010KT 10SM OVC022 M01/M04 A3037 RMK AO2,KETB,2019-01-12T20:55:00Z,43.42,-88.13,-1.0,-4.0,90,10,,10.0,30.369095,,,TRUE,TRUE,,,,,,,OVC,2200,,,,,,,MVFR,,,,,,,,,,,,METAR,270.0
KGKT 122055Z AUTO 34005KT 10SM BKN046 BKN055 09/M02 A3014 RMK A01,KGKT,2019-01-12T20:55:00Z,35.85,-83.53,9.0,-2.0,340,5,,10.0,30.138779,,,TRUE,TRUE,,,,,,,BKN,4600,BKN,5500,,,,,VFR,,,,,,,,,,,,METAR,309.0
KGCY 122055Z AUTO 00000KT 10SM SCT043 BKN050 OVC085 08/M04 A3017 RMK A01,KGCY,2019-01-12T20:55:00Z,36.2,-82.82,8.0,-4.0,0,0,,10.0,30.171259,,,TRUE,TRUE,,,,,,,SCT,4300,BKN,5000,OVC,8500,,,VFR,,,,,,,,,,,,METAR,490.0
KGCD 122055Z AUTO 07008KT 10SM CLR 08/M03 A3010 RMK AO2 T00761035,KGCD,2019-01-12T20:55:00Z,44.38,-118.97,7.6,-3.5,70,8,,10.0,30.100393,,,TRUE,TRUE,,,,,,,CLR,,,,,,,,VFR,,,,,,,,,,,,METAR,1127.0
KGBK 122055Z AUTO 24015G20KT 9SM BKN050 21/18 A3005 RMK A01,KGBK,2019-01-12T20:55:00Z,27.2,-92.2,21.0,18.0,240,15,20,9.0,30.050198,,,TRUE,TRUE,,,,,,,BKN,5000,,,,,,,VFR,,,,,,,,,,,,METAR,59.0
KFYE 122055Z AUTO 15008KT 10SM OVC007 09/08 A2992 RMK A01 P0001,KFYE,2019-01-12T20:55:00Z,35.2,-89.38,9.0,8.0,150,8,,10.0,29.920275,,,TRUE,TRUE,,,,,,,OVC,700,,,,,,,IFR,,,,,,0.01,,,,,,METAR,133.0
KFXY 122055Z AUTO 08005KT 10SM SCT017 SCT055 OVC080 00/M02 A3028 RMK AO2,KFXY,2019-01-12T20:55:00Z,43.23,-93.62,0.0,-2.0,80,5,,10.0,30.280512,,,TRUE,TRUE,,,,,,,SCT,1700,SCT,5500,OVC,8000,,,VFR,,,,,,,,,,,,METAR,375.0
KFWB 122055Z AUTO 00000KT 2SM BR OVC002 02/02 A2991 RMK AO2,KFWB,2019-01-12T20:55:00Z,36.7,-93.4,2.0,2.0,0,0,,2.0,29.911417,,,TRUE,TRUE,,,,,,BR,OVC,200,,,,,,,LIFR,,,,,,,,,,,,METAR,406.0
KFTN 122055Z AUTO 32010G19KT 10SM CLR 22/05 A3012 RMK A01,KFTN,2019-01-12T20:55:00Z,28.22,-100.02,22.0,5.0,320,10,19,10.0,30.121063,,,TRUE,TRUE,,,,,,,CLR,,,,,,,,VFR,,,,,,,,,,,,METAR,236.0
KOZA 122055Z AUTO 35012G17KT 10SM CLR 12/01 A3021 RMK AO2,KOZA,2019-01-12T20:55:00Z,30.73,-101.2,12.0,1.0,350,12,17,10.0,30.209646,,,TRUE,TRUE,,,,,,,CLR,,,,,,,,VFR,,,,,,,,,,,,SPECI,726.0
KTVK 122055Z AUTO 04014G18KT 1 1/4SM -SN SCT005 M01/M01 A3014 RMK AO2 P0002,KTVK,2019-01-12T20:55:00Z,40.68,-92.9,-1.0,-1.0,40,14,18,1.25,30.138779,,,TRUE,TRUE,,,,,,-SN,SCT,500,,,,,,,IFR,,,,,,0.02,,,,,,METAR,314.0
KRQO 122055Z AUTO 34019G26KT 10SM OVC016 02/00 A3014 RMK AO2 T00251000,KRQO,2019-01-12T20:55:00Z,35.47,-98.0,2.5,0.0,340,19,26,10.0,30.138779,,,TRUE,TRUE,,,,,,,OVC,1600,,,,,,,MVFR,,,,,,,,,,,,SPECI,432.0
KMRJ 122055Z AUTO 07016G21KT 10SM CLR 01/M02 A3027 RMK AO2,KMRJ,2019-01-12T20:55:00Z,42.88,-90.23,1.0,-2.0,70,16,21,10.0,30.268702,,,TRUE,TRUE,,,,,,,CLR,,,,,,,,VFR,,,,,,,,,,,,METAR,359.0
KGVE 122055Z AUTO 02003KT 5SM HZ SCT024 BKN031 OVC070 00/M03 A3045 RMK AO1 T00001033,KGVE,2019-01-12T20:55:00Z,38.15,-78.17,0.0,-3.3,20,3,,5.0,30.448818,,,TRUE,TRUE,,,,,,HZ,SCT,2400,BKN,3100,OVC,7000,,,MVFR,,,,,,,,,,,,METAR,138.0
K21D 122055Z AUTO 09007KT 10SM 00/M05 A3038 RMK AO2,K21D,2019-01-12T20:55:00Z,45.0,-92.85,0.0,-5.0,90,7,,10.0,30.380905,,,TRUE,TRUE,,,,,,,,,,,,,,,,,,,,,,,,,,,METAR,285.0
LIVF 122055Z 21008KT CAVOK 04/M10 Q1014 RMK SKC MON LIB VAL NIL VIS MIN 9999,LIVF,2019-01-12T20:55:00Z,43.52,12.72,4.0,-10.0,210,8,,6.21,29.940945,,,,,,,,,,,CAVOK,,,,,,,,VFR,,,,,,,,,,,,METAR,574.0
LIRT 122055Z 03007KT 0000 -SN FZFG VV/// M01/M03 Q1013 RMK MON INVIS VAL INVIS VIS MIN 0000,LIRT,2019-01-12T20:55:00Z,41.03,15.22,-1.0,-3.0,30,7,,0.0,29.911417,,,,,,,,,,-SN FZFG,OVX,0,,,,,,,LIFR,,,,,,,,,,,,METAR,1093.0
LIQC 122055Z 16003KT CAVOK 09/M02 Q1016 RMK SKC QUK / QUL / VIS MAR 40 KM VIS MIN 9999,LIQC,2019-01-12T20:55:00Z,40.55,14.2,9.0,-2.0,160,3,,6.21,30.0,,,,,,,,,,,CAVOK,,,,,,,,VFR,,,,,,,,,,,,METAR,269.0
LIPL 122055Z 06003KT CAVOK M00/M00 Q1015 RMK SCT SCT190 VIS MIN 9999 WIND THR31 05004KT WIND THR13 04002KT BLU,LIPL,2019-01-12T20:55:00Z,45.42,10.27,0.0,0.0,60,3,,6.21,29.970472,,,,,,,,,,,CAVOK,,,,,,,,VFR,,,,,,,,,,,,METAR,92.0
LIPA 122055Z 02005KT 9999 SCT090 00/M03 Q1015 RMK SCT VIS MIN 9999 WIND THR05 01005KT WIND THR23 35006KT A2998 BLU,LIPA,2019-01-12T20:55:00Z,46.02,12.58,0.0,-3.0,20,5,,6.21,29.970472,,,,,,,,,,,SCT,9000,,,,,,,VFR,,,,,,,,,,,,METAR,126.0
LIMK 122055Z 23003KT CAVOK 04/M09 Q1012 RMK SKC VAL NIL VIS MIN 9999,LIMK,2019-01-12T20:55:00Z,45.02,7.72,4.0,-9.0,230,3,,6.21,29.88189,,,,,,,,,,,CAVOK,,,,,,,,VFR,,,,,,,,,,,,METAR,710.0
LIED 122055Z 02002KT 9999 SCT025 03/02 Q1021 RMK SCT VIS MIN 9999 WIND THR35 /////KT WIND THR17 /////KT BLU,LIED,2019-01-12T20:55:00Z,39.35,8.97,3.0,2.0,20,2,,6.21,30.147638,,,,,,,,,,,SCT,2500,,,,,,,VFR,,,,,,,,,,,,METAR,28.0
LIEB 122055Z 29012KT CAVOK 08/M03 Q1019 RMK SKC QUK / QUL / VIS MAR 20 KM MON INVIS VIS MIN 9999,LIEB,2019-01-12T20:55:00Z,39.93,9.72,8.0,-3.0,290,12,,6.21,30.088583,,,,,,,,,,,CAVOK,,,,,,,,VFR,,,,,,,,,,,,METAR,156.0
LICZ 122055Z 26013KT CAVOK 06/04 Q1016 RMK SKC VIS MIN 9999 WIND THR28 /////KT WIND THR10 27010KT A3002 BLU,LICZ,2019-01-12T20:55:00Z,37.38,14.92,6.0,4.0,260,13,,6.21,30.0,,,,,,,,,,,CAVOK,,,,,,,,VFR,,,,,,,,,,,,METAR,22.0
LIBV 122055Z 30010KT 9999 SCT040 03/M01 Q1013 RMK SCT VIS MIN 9999 WIND THR32 31012KT WIND THR14 30010KT BLU,LIBV,2019-01-12T20:55:00Z,40.77,16.92,3.0,-1.0,300,10,,6.21,29.911417,,,,,,,,,,,SCT,4000,,,,,,,VFR,,,,,,,,,,,,METAR,350.0
LIBQ 122055Z 29003KT CAVOK M06/M08 Q1008 RMK SKC MON LIB VAL NIL VIS MIN 9999,LIBQ,2019-01-12T20:55:00Z,39.32,16.38,-6.0,-8.0,290,3,,6.21,29.763779,,,,,,,,,,,CAVOK,,,,,,,,VFR,,,,,,,,,,,,METAR,1720.0
LIBN 122055Z 32003KT CAVOK 02/00 Q1013 RMK SKC VIS MIN 9999 WIND THR14 30006KT WIND THR32 31004KT BLU,LIBN,2019-01-12T20:55:00Z,40.22,18.13,2.0,0.0,320,3,,6.21,29.911417,,,,,,,,,,,CAVOK,,,,,,,,VFR,,,,,,,,,,,,METAR,61.0
LIVR 122055Z 35004KT CAVOK M02/M11 Q1010 RMK SCT SCT070 MON LIB VIS MIN 9999,LIVR,2019-01-12T20:55:00Z,46.28,11.77,-2.0,-11.0,350,4,,6.21,29.822834,,,,,,,,,,,CAVOK,,,,,,,,VFR,,,,,,,,,,,,SPECI,2006.0
LIVP 122055Z 21007KT CAVOK M02/M12 Q1009 RMK BKN FEW160 BKN200 MON LIB VAL NIL VIS MIN 9999,LIVP,2019-01-12T20:55:00Z,46.15,11.03,-2.0,-12.0,210,7,,6.21,29.793306,,,,,,,,,,,CAVOK,,,,,,,,VFR,,,,,,,,,,,,SPECI,2129.0
LIVE 122055Z 01009KT CAVOK M03/M06 Q1013 RMK SCT SCT060 VIS MIN 9999,LIVE,2019-01-12T20:55:00Z,46.85,10.5,-3.0,-6.0,10,9,,6.21,29.911417,,,,,,,,,,,CAVOK,,,,,,,,VFR,,,,,,,,,,,,SPECI,1800.0
LIRK 122055Z AUTO 35016KT //// M02/M14 Q1014,LIRK,2019-01-12T20:55:00Z,42.47,12.97,-2.0,-14.0,350,16,,,29.940945,,,TRUE,,,,,,,,,,,,,,,,,,,,,,,,,,,,SPECI,1875.0
LIRE 122055Z 33001KT CAVOK 02/M04 Q1018 RMK SKC VIS MIN 9999 WIND THR13 02002KT WIND THR31 /////KT BLU,LIRE,2019-01-12T20:55:00Z,41.63,12.42,2.0,-4.0,330,1,,6.21,30.059055,,,,,,,,,,,CAVOK,,,,,,,,VFR,,,,,,,,,,,,SPECI,12.0
LICF 122055Z 35008KT 9999 SCT030 09/M01 Q1016 RMK SCT QUK / QUL / VIS MAR 20 KM MON INVIS NC VIS MIN 9999,LICF,2019-01-12T20:55:00Z,38.2,15.55,9.0,-1.0,350,8,,6.21,30.0,,,,,,,,,,,SCT,3000,,,,,,,VFR,,,,,,,,,,,,SPECI,51.0
LIBY 122055Z 34009KT CAVOK 05/01 Q1011 RMK SKC QUK / QUL / VIS MAR 12 KM VIS MIN 9999,LIBY,2019-01-12T20:55:00Z,39.82,18.35,5.0,1.0,340,9,,6.21,29.852362,,,,,,,,,,,CAVOK,,,,,,,,VFR,,,,,,,,,,,,SPECI,112.0
LIPS 122055Z 00000KT 5000 BR NSC 00/M00 Q1015 RMK SKC VIS MIN 5000 WIND THR26 00000KT WIND THR08 00000KT WHT,LIPS,2019-01-12T20:55:00Z,45.67,12.08,0.0,0.0,0,0,,3.11,29.970472,,,,,,,,,,BR,CLR,,,,,,,,MVFR,,,,,,,,,,,,SPECI,41.0
LIMU 122055Z 20003KT CAVOK 09/04 Q1016 RMK SKC QUK / QUL / VIS MAR 35 KM VIS MIN 9999,LIMU,2019-01-12T20:55:00Z,43.95,8.17,9.0,4.0,200,3,,6.21,30.0,,,,,,,,,,,CAVOK,,,,,,,,VFR,,,,,,,,,,,,SPECI,221.0
LIMH 122055Z /////KT 9999 SCT020 M12/M17 Q1013 RMK BKN SCT100 MON CLD SCT VAL NIL VIS MIN 9999,LIMH,2019-01-12T20:55:00Z,45.93,7.7,-12.0,-17.0,,,,6.21,29.911417,,,,,,,,,,,SCT,2000,,,,,,,VFR,,,,,,,,,,,,SPECI,3488.0
KGBG 122055Z AUTO 06010KT 1SM -SN OVC007 M01/M02 A3018 RMK AO2,KGBG,2019-01-12T20:55:00Z,40.93,-90.43,-1.0,-2.0,60,10,,1.0,30.180119,,,TRUE,TRUE,,,,,,-SN,OVC,700,,,,,,,IFR,,,,,,,,,,,,METAR,233.0
KOLE 122055Z AUTO 08005KT 10SM OVC060 M07/M13 A3035 RMK AO2,KOLE,2019-01-12T20:55:00Z,42.23,-78.37,-7.0,-13.0,80,5,,10.0,30.351377,,,TRUE,TRUE,,,,,,,OVC,6000,,,,,,,VFR,,,,,,,,,,,,METAR,651.0
KGGP 122055Z AUTO 08009G15KT 1/2SM SN OVC008 M02/M03 A3026 RMK AO2,KGGP,2019-01-12T20:55:00Z,40.72,-86.37,-2.0,-3.0,80,9,15,0.5,30.259842,,,TRUE,TRUE,,,,,,SN,OVC,800,,,,,,,LIFR,,,,,,,,,,,,METAR,225.0
KGNC 122055Z AUTO 35009G15KT 10SM CLR 11/M01 A3024 RMK AO2 T01051006,KGNC,2019-01-12T20:55:00Z,32.68,-102.65,10.5,-0.6,350,9,15,10.0,30.239174,,,TRUE,TRUE,,,,,,,CLR,,,,,,,,VFR,,,,,,,,,,,,SPECI,1010.0
KHHW 122055Z AUTO 31014G20KT 10SM OVC013 06/03 A3003 RMK AO2 T00600030,KHHW,2019-01-12T20:55:00Z,34.03,-95.55,6.0,3.0,310,14,20,10.0,30.029528,,,TRUE,TRUE,,,,,,,OVC,1300,,,,,,,MVFR,,,,,,,,,,,,METAR,144.0
KHSG 122055Z AUTO 05003KT 10SM CLR 01/M05 A3014 RMK AO2 T00111050,KHSG,2019-01-12T20:55:00Z,43.72,-108.38,1.1,-5.0,50,3,,10.0,30.138779,,,TRUE,TRUE,,,,,,,CLR,,,,,,,,VFR,,,,,,,,,,,,SPECI,1494.0
KOWI 122055Z AUTO 35011G17KT 3SM -RA SCT010 BKN014 BKN029 M00/M01 A3005 RMK AO2,KOWI,2019-01-12T20:55:00Z,38.53,-95.25,0.0,-1.0,350,11,17,3.0,30.050198,,,TRUE,TRUE,,,,,,-RA,SCT,1000,BKN,1400,BKN,2900,,,MVFR,,,,,,,,,,,,METAR,292.0
KONZ 122055Z AUTO 08009G14KT 10SM OVC024 M01/M06 A3039 RMK AO2 T10101060,KONZ,2019-01-12T20:55:00Z,42.1,-83.15,-1.0,-6.0,80,9,14,10.0,30.389763,,,TRUE,TRUE,,,,,,,OVC,2400,,,,,,,MVFR,,,,,,,,,,,,METAR,180.0
KAXX 122055Z AUTO 17006KT 10SM M03/M04 A3015 RMK AO2 T10331040,KAXX,2019-01-12T20:55:00Z,36.42,-105.28,-3.3,-4.0,170,6,,10.0,30.15059,,,TRUE,TRUE,,,,,,,,,,,,,,,,,,,,,,,,,,,METAR,2548.0
KHTH 122055Z AUTO VRB03KT 10SM CLR 10/M06 A3004 RMK A01,KHTH,2019-01-12T20:55:00Z,,,10.0,-6.0,0,3,,10.0,30.041338,,,TRUE,TRUE,,,,,,,CLR,,,,,,,,VFR,,,,,,,,,,,,METAR,
KHLB 122055Z AUTO 06007KT 2SM BR BKN005 BKN024 M01/M01 A3021 RMK A01,KHLB,2019-01-12T20:55:00Z,,,-1.0,-1.0,60,7,,2.0,30.209646,,,TRUE,TRUE,,,,,,BR,BKN,500,BKN,2400,,,,,IFR,,,,,,,,,,,,METAR,
KHHV 122055Z AUTO 35005KT 10SM FEW015 23/17 A3007 RMK A01,KHHV,2019-01-12T20:55:00Z,26.93,-94.68,23.0,17.0,350,5,,10.0,30.070866,,,TRUE,TRUE,,,,,,,FEW,1500,,,,,,,VFR,,,,,,,,,,,,METAR,25.0
KHCO 122055Z AUTO 16007KT 10SM OVC013 M03/M05 A3041 RMK AO2,KHCO,2019-01-12T20:55:00Z,48.75,-96.93,-3.0,-5.0,160,7,,10.0,30.410433,,,TRUE,TRUE,,,,,,,OVC,1300,,,,,,,MVFR,,,,,,,,,,,,METAR,250.0
KHAE 122055Z AUTO 06006KT 3/4SM SN OVC005 01/00 A3007 RMK AO2,KHAE,2019-01-12T20:55:00Z,39.73,-91.45,1.0,0.0,60,6,,0.75,30.070866,,,TRUE,TRUE,,,,,,SN,OVC,500,,,,,,,LIFR,,,,,,,,,,,,METAR,234.0
KGZS 122055Z AUTO 11005KT 4SM BR SCT026 OVC032 06/05 A3002 RMK A01 P0006,KGZS,2019-01-12T20:55:00Z,35.15,-87.05,6.0,5.0,110,5,,4.0,30.02067,,,TRUE,TRUE,,,,,,BR,SCT,2600,OVC,3200,,,,,MVFR,,,,,,0.06,,,,,,METAR,209.0
KY51 122055Z AUTO 08013KT 7SM OVC019 00/M03 A3031 RMK AO1 T10011026,KY51,2019-01-12T20:55:00Z,43.58,-90.9,-0.1,-2.6,80,13,,7.0,30.31004,,,TRUE,TRUE,,,,,,,OVC,1900,,,,,,,MVFR,,,,,,,,,,,,METAR,394.0
KI23 122055Z AUTO 09007KT 1SM OVC005 M02/M03 A3027 RMK AO1,KI23,2019-01-12T20:55:00Z,39.57,-83.42,-2.0,-3.0,90,7,,1.0,30.268702,,,TRUE,TRUE,,,,,,,OVC,500,,,,,,,IFR,,,,,,,,,,,,METAR,299.0
PTYA 122054Z VRB03KT 12SM FEW016 BKN300 26/23 A2982 RMK SLP100 8/101 T02630233 53007,PTYA,2019-01-12T20:54:00Z,9.48,138.08,26.3,23.3,0,3,,12.0,29.819881,1010.0,,,,,,,,,,FEW,1600,BKN,30000,,,,,VFR,0.7,,,,,,,,,,,METAR,17.0
KRKS 122054Z AUTO 00000KT M1/4SM FZFG VV002 M09/M09 A3020 RMK AO2 SLP306 I1000 I3000 T10891094 58008,KRKS,2019-01-12T20:54:00Z,41.6,-109.07,-8.9,-9.4,0,0,,0.25,30.200787,1030.6,,TRUE,TRUE,,,,,,FZFG,OVX,0,,,,,,,LIFR,-0.8,,,,,,,,,,200,METAR,2060.0
KRIC 122054Z 07003KT 10SM BKN045 OVC070 03/M08 A3047 RMK AO2 SLP325 T00281083 58011,KRIC,2019-01-12T20:54:00Z,37.52,-77.32,2.8,-8.3,70,3,,10.0,30.469488,1032.5,,,TRUE,,,,,,,BKN,4500,OVC,7000,,,,,VFR,-1.1,,,,,,,,,,,METAR,50.0
KRFD 122054Z 07011KT 3/4SM R01/4000V4500FT -SN BR SCT008 OVC014 M01/M03 A3029 RMK AO2 SLP268 SNINCR 1/2 P0002 60009 T10111028 55004,KRFD,2019-01-12T20:54:00Z,42.2,-89.1,-1.1,-2.8,70,11,,0.75,30.28937,1026.8,,,TRUE,,,,,,-SN BR,SCT,800,OVC,1400,,,,,LIFR,-0.4,,,,,0.02,0.09,,,2.0,,METAR,221.0
KRDG 122054Z AUTO 00000KT 10SM CLR 00/M13 A3046 RMK AO2 SLP325 T00001133 58011,KRDG,2019-01-12T20:54:00Z,40.37,-75.97,0.0,-13.3,0,0,,10.0,30.46063,1032.5,,TRUE,TRUE,,,,,,,CLR,,,,,,,,VFR,-1.1,,,,,,,,,,,METAR,109.0
KRBL 122054Z AUTO 29003KT 10SM CLR 16/04 A2999 RMK AO2 SLP153 T01610044 58016,KRBL,2019-01-12T20:54:00Z,40.15,-122.25,16.1,4.4,290,3,,10.0,29.991142,1015.3,,TRUE,TRUE,,,,,,,CLR,,,,,,,,VFR,-1.6,,,,,,,,,,,METAR,104.0
KPTW 122054Z AUTO 30003KT 10SM FEW110 M01/M13 A3049 RMK AO2 SLP326 T10111128 56009 TSNO,KPTW,2019-01-12T20:54:00Z,40.23,-75.55,-1.1,-12.8,300,3,,10.0,30.490158,1032.6,,TRUE,TRUE,,,TRUE,,,,FEW,11000,,,,,,,VFR,-0.9,,,,,,,,,,,METAR,92.0
KPSF 122054Z AUTO 31008KT 10SM CLR M07/M18 A3040 RMK AO2 SLP322 T10671178 51003,KPSF,2019-01-12T20:54:00Z,42.43,-73.28,-6.7,-17.8,310,8,,10.0,30.398623,1032.2,,TRUE,TRUE,,,,,,,CLR,,,,,,,,VFR,0.3,,,,,,,,,,,METAR,355.0
KPNE 122054Z 30003KT 10SM BKN110 02/M15 A3051 RMK AO2 SLP332 T00171150 56009,KPNE,2019-01-12T20:54:00Z,40.08,-75.02,1.7,-15.0,300,3,,10.0,30.510826,1033.2,,,TRUE,,,,,,,BKN,11000,,,,,,,VFR,-0.9,,,,,,,,,,,METAR,28.0
KPIA 122054Z 07017KT 1/4SM R04/3000V3500FT SN FZFG OVC008 M02/M03 A3018 RMK AO2 SLP226 P0002 60007 T10171028 56003,KPIA,2019-01-12T20:54:00Z,40.67,-89.68,-1.7,-2.8,70,17,,0.25,30.180119,1022.6,,,TRUE,,,,,,SN FZFG,OVC,800,,,,,,,LIFR,-0.3,,,,,0.02,0.07,,,,,METAR,205.0
KPHL 122054Z 16003KT 10SM SCT110 OVC250 01/M16 A3050 RMK AO2 SLP328 T00111156 56008,KPHL,2019-01-12T20:54:00Z,39.87,-75.23,1.1,-15.6,160,3,,10.0,30.499016,1032.8,,,TRUE,,,,,,,SCT,11000,OVC,25000,,,,,VFR,-0.8,,,,,,,,,,,METAR,18.0
KPHF 122054Z 03003KT 10SM BKN050 BKN070 OVC085 03/M04 A3049 RMK AO2 SLP323 T00331039 57002,KPHF,2019-01-12T20:54:00Z,37.13,-76.5,3.3,-3.9,30,3,,10.0,30.490158,1032.3,,,TRUE,,,,,,,BKN,5000,BKN,7000,OVC,8500,,,VFR,-0.2,,,,,,,,,,,METAR,12.0
KORH 122054Z 29013G22KT 10SM CLR M06/M18 A3038 RMK AO2 SLP308 T10561178 51006,KORH,2019-01-12T20:54:00Z,42.27,-71.87,-5.6,-17.8,290,13,22,10.0,30.380905,1030.8,,,TRUE,,,,,,,CLR,,,,,,,,VFR,0.6,,,,,,,,,,,METAR,304.0
KOLS 122054Z AUTO 18009G17KT 10SM CLR 17/M01 A3003 RMK AO2 SLP142 T01721006 56031,KOLS,2019-01-12T20:54:00Z,31.42,-110.85,17.2,-0.6,180,9,17,10.0,30.029528,1014.2,,TRUE,TRUE,,,,,,,CLR,,,,,,,,VFR,-3.1,,,,,,,,,,,METAR,1184.0
KOLM 122054Z 34003KT 10SM CLR 10/06 A2999 RMK AO2 SLP156 T01000061 58007,KOLM,2019-01-12T20:54:00Z,46.97,-122.9,10.0,6.1,340,3,,10.0,29.991142,1015.6,,,TRUE,,,,,,,CLR,,,,,,,,VFR,-0.7,,,,,,,,,,,METAR,58.0
KOFP 122054Z AUTO 09003KT 10SM OVC070 03/M08 A3049 RMK AO2 SLP324 T00281083 58013,KOFP,2019-01-12T20:54:00Z,37.7,-77.43,2.8,-8.3,90,3,,10.0,30.490158,1032.4,,TRUE,TRUE,,,,,,,OVC,7000,,,,,,,VFR,-1.3,,,,,,,,,,,METAR,62.0
KMVL 122054Z AUTO 36005KT 10SM CLR M12/M19 A3046 RMK AO2 SLP336 T11221189 50002,KMVL,2019-01-12T20:54:00Z,44.53,-72.62,-12.2,-18.9,360,5,,10.0,30.46063,1033.6,,TRUE,TRUE,,,,,,,CLR,,,,,,,,VFR,0.2,,,,,,,,,,,METAR,234.0
KMRY 122054Z 28006KT 10SM BKN047 14/09 A2995 RMK AO2 SLP153 T01390089 58019,KMRY,2019-01-12T20:54:00Z,36.58,-121.85,13.9,8.9,280,6,,10.0,29.949802,1015.3,,,TRUE,,,,,,,BKN,4700,,,,,,,VFR,-1.9,,,,,,,,,,,METAR,66.0
KMKC 122054Z 35011KT 1SM -SN BR FEW008 OVC016 00/M02 A3007 RMK AO2 SLP189 P0000 60004 T00001022 53003,KMKC,2019-01-12T20:54:00Z,39.12,-94.6,0.0,-2.2,350,11,,1.0,30.070866,1018.9,,,TRUE,,,,,,-SN BR,FEW,800,OVC,1600,,,,,IFR,0.3,,,,,0.005,0.04,,,,,METAR,227.0
KMIV 122054Z AUTO 29004KT 10SM SCT085 BKN100 01/M14 A3050 RMK AO2 SLP329 T00111139 56005 TSNO,KMIV,2019-01-12T20:54:00Z,39.37,-75.08,1.1,-13.9,290,4,,10.0,30.499016,1032.9,,TRUE,TRUE,,,TRUE,,,,SCT,8500,BKN,10000,,,,,VFR,-0.5,,,,,,,,,,,METAR,23.0
KMGJ 122054Z AUTO 31004KT 10SM OVC100 M01/M12 A3045 RMK AO2 SLP317 T10111122 57005,KMGJ,2019-01-12T20:54:00Z,41.52,-74.27,-1.1,-12.2,310,4,,10.0,30.448818,1031.7,,TRUE,TRUE,,,,,,,OVC,10000,,,,,,,VFR,-0.5,,,,,,,,,,,METAR,108.0
KHWD 122054Z 22007KT 10SM SCT060 16/10 A2994 RMK AO2 SLP148 T01610100 58022,KHWD,2019-01-12T20:54:00Z,37.67,-122.12,16.1,10.0,220,7,,10.0,29.940945,1014.8,,,TRUE,,,,,,,SCT,6000,,,,,,,VFR,-2.2,,,,,,,,,,,METAR,21.0
KGSO 122054Z 06007KT 10SM -PL OVC048 02/M05 A3038 RMK AO2 RAB23E35SNE01PLB35 SLP292 P0000 60000 T00221050 58011,KGSO,2019-01-12T20:54:00Z,36.1,-79.95,2.2,-5.0,60,7,,10.0,30.380905,1029.2,,,TRUE,,,,,,-PL,OVC,4800,,,,,,,VFR,-1.1,,,,,0.005,0.005,,,,,METAR,275.0
KGED 122054Z AUTO 06004KT 10SM FEW065 OVC080 01/M11 A3051 RMK AO2 SLP331 T00111106 58005,KGED,2019-01-12T20:54:00Z,38.68,-75.37,1.1,-10.6,60,4,,10.0,30.510826,1033.1,,TRUE,TRUE,,,,,,,FEW,6500,OVC,8000,,,,,VFR,-0.5,,,,,,,,,,,METAR,19.0
KGCN 122054Z 07010KT 10SM CLR 03/M08 A3009 RMK AO2 SLP204 T00281078 56029,KGCN,2019-01-12T20:54:00Z,35.95,-112.15,2.8,-7.8,70,10,,10.0,30.088583,1020.4,,,TRUE,,,,,,,CLR,,,,,,,,VFR,-2.9,,,,,,,,,,,METAR,2016.0
KFZY 122054Z AUTO 36004KT 10SM CLR M08/M16 A3054 RMK AO2 SLP352 60000 T10781156 56004,KFZY,2019-01-12T20:54:00Z,43.35,-76.38,-7.8,-15.6,360,4,,10.0,30.540354,1035.2,,TRUE,TRUE,,,,,,,CLR,,,,,,,,VFR,-0.4,,,,,,0.005,,,,,METAR,138.0
KFWA 122054Z 07015KT 1/2SM SN FZFG OVC012 M02/M03 A3029 RMK AO2 SLP268 P0003 60009 T10171033 58004,KFWA,2019-01-12T20:54:00Z,40.98,-85.18,-1.7,-3.3,70,15,,0.5,30.28937,1026.8,,,TRUE,,,,,,SN FZFG,OVC,1200,,,,,,,LIFR,-0.4,,,,,0.03,0.09,,,,,METAR,248.0
KFIG 122054Z AUTO 10006KT 10SM CLR M02/M11 A3037 RMK AO2 SLP308 T10171111 56006,KFIG,2019-01-12T20:54:00Z,41.05,-78.42,-1.7,-11.1,100,6,,10.0,30.369095,1030.8,,TRUE,TRUE,,,,,,,CLR,,,,,,,,VFR,-0.6,,,,,,,,,,,METAR,462.0
KFFZ 122054Z 14006KT 10SM CLR 19/M01 A2999 RMK AO2 SLP142 T01891006 56038,KFFZ,2019-01-12T20:54:00Z,33.47,-111.72,18.9,-0.6,140,6,,10.0,29.991142,1014.2,,,TRUE,,,,,,,CLR,,,,,,,,VFR,-3.8,,,,,,,,,,,METAR,424.0
KEWN 122054Z 07006KT 10SM OVC039 06/M01 A3044 RMK AO2 SLP306 T00611011 56003,KEWN,2019-01-12T20:54:00Z,35.07,-77.05,6.1,-1.1,70,6,,10.0,30.43996,1030.6,,,TRUE,,,,,,,OVC,3900,,,,,,,VFR,-0.3,,,,,,,,,,,METAR,3.0
KEVV 122054Z 07006KT 10SM -RA BKN044 OVC055 03/01 A3009 RMK AO2 RAB09 SLP192 P0002 60002 T00280011 56013 $,KEVV,2019-01-12T20:54:00Z,38.05,-87.52,2.8,1.1,70,6,,10.0,30.088583,1019.2,,,TRUE,TRUE,,,,,-RA,BKN,4400,OVC,5500,,,,,VFR,-1.3,,,,,0.02,0.02,,,,,METAR,117.0
KEUG 122054Z 33007KT 10SM FEW150 SCT300 09/03 A2999 RMK AO2 SLP158 T00890033 58009,KEUG,2019-01-12T20:54:00Z,44.13,-123.22,8.9,3.3,330,7,,10.0,29.991142,1015.8,,,TRUE,,,,,,,FEW,15000,SCT,30000,,,,,VFR,-0.9,,,,,,,,,,,METAR,114.0
PAHN 122054Z AUTO 30011KT 10SM OVC016 M03/M07 A2994 RMK AO2 SLP142 60000 T10331067 50004 TSNO,PAHN,2019-01-12T20:54:00Z,59.25,-135.52,-3.3,-6.7,300,11,,10.0,29.940945,1014.2,,TRUE,TRUE,,,TRUE,,,,OVC,1600,,,,,,,MVFR,0.4,,,,,,0.005,,,,,METAR,5.0
KWLD 122054Z AUTO 35014G24KT 10SM OVC016 01/M01 A3011 RMK AO2 SLP205 T00061006 53016,KWLD,2019-01-12T20:54:00Z,37.17,-97.03,0.6,-0.6,350,14,24,10.0,30.109253,1020.5,,TRUE,TRUE,,,,,,,OVC,1600,,,,,,,MVFR,1.6,,,,,,,,,,,METAR,350.0
KWAL 122054Z AUTO 07005KT 10SM BKN049 OVC075 03/M05 A3050 RMK AO2 SLP326 T00331050 50000,KWAL,2019-01-12T20:54:00Z,37.93,-75.47,3.3,-5.0,70,5,,10.0,30.499016,1032.6,,TRUE,TRUE,,,,,,,BKN,4900,OVC,7500,,,,,VFR,0.0,,,,,,,,,,,METAR,14.0
KVTA 122054Z AUTO 07007KT 1/2SM SN FZFG VV015 M01/M03 A3030 RMK AO2 SLP270 P0003 60007 T10111033 56015,KVTA,2019-01-12T20:54:00Z,40.02,-82.47,-1.1,-3.3,70,7,,0.5,30.301182,1027.0,,TRUE,TRUE,,,,,,SN FZFG,OVX,0,,,,,,,LIFR,-1.5,,,,,0.03,0.07,,,,1500,METAR,268.0
KVSF 122054Z AUTO 04003KT 10SM CLR M08/M18 A3046 RMK AO2 SLP329 T10831183 50004,KVSF,2019-01-12T20:54:00Z,43.35,-72.52,-8.3,-18.3,40,3,,10.0,30.46063,1032.9,,TRUE,TRUE,,,,,,,CLR,,,,,,,,VFR,0.4,,,,,,,,,,,METAR,175.0
KVAY 122054Z AUTO 00000KT 10SM CLR 01/M16 A3050 RMK AO2 SLP328 T00061156 56009,KVAY,2019-01-12T20:54:00Z,39.93,-74.83,0.6,-15.6,0,0,,10.0,30.499016,1032.8,,TRUE,TRUE,,,,,,,CLR,,,,,,,,VFR,-0.9,,,,,,,,,,,METAR,15.0
KUZA 122054Z AUTO 05005KT 10SM -RA BKN027 OVC043 04/M04 A3035 RMK AO2 RAE02B54 SLP285 P0000 60000 T00391039 56019,KUZA,2019-01-12T20:54:00Z,34.98,-81.05,3.9,-3.9,50,5,,10.0,30.351377,1028.5,,TRUE,TRUE,,,,,,-RA,BKN,2700,OVC,4300,,,,,MVFR,-1.9,,,,,0.005,0.005,,,,,METAR,202.0
KSUS 122054Z 05007KT 3/4SM R08R/5500VP6000FT BR OVC005 01/01 A3002 RMK AO2 UPB15E37B47E49SNEMMB37E47 SLP173 P0002 60012 T00110006 56012 $,KSUS,2019-01-12T20:54:00Z,38.65,-90.65,1.1,0.6,50,7,,0.75,30.02067,1017.3,,,TRUE,TRUE,,,,,BR,OVC,500,,,,,,,LIFR,-1.2,,,,,0.02,0.12,,,,,METAR,141.0
KPLN 122054Z AUTO 08007KT 10SM OVC018 M06/M09 A3054 RMK AO2 SLP355 T10561089 55002,KPLN,2019-01-12T20:54:00Z,45.57,-84.8,-5.6,-8.9,80,7,,10.0,30.540354,1035.5,,TRUE,TRUE,,,,,,,OVC,1800,,,,,,,MVFR,-0.2,,,,,,,,,,,METAR,217.0
KBKB 122054Z AUTO VRB04KT 10SM SCT034 19/12 A2993 RMK AO2 SLP164 T01940117 53000 $,KBKB,2019-01-12T20:54:00Z,31.0,-92.92,19.4,11.7,0,4,,10.0,29.929134,1016.4,,TRUE,TRUE,TRUE,,,,,,SCT,3400,,,,,,,VFR,0.0,,,,,,,,,,,METAR,94.0
KDMH 122054Z AUTO 01/M09 A3049 RMK AO1 SLP323 T00061094 58009,KDMH,2019-01-12T20:54:00Z,39.28,-76.62,0.6,-9.4,,,,,30.490158,1032.3,,TRUE,TRUE,,,,,,,,,,,,,,,,-0.9,,,,,,,,,,,METAR,5.0
KNKT 122054Z 02011KT 10SM BKN036 OVC050 07/00 A3043 RMK AO2 SLP300 T00720000 57004,KNKT,2019-01-12T20:54:00Z,34.9,-76.88,7.2,0.0,20,11,,10.0,30.431103,1030.0,,,TRUE,,,,,,,BKN,3600,OVC,5000,,,,,VFR,-0.4,,,,,,,,,,,METAR,9.0
KMTP 122054Z AUTO 29007KT M02/M11 A3047 RMK AO1 SLP318 T10171111 58003,KMTP,2019-01-12T20:54:00Z,41.07,-71.92,-1.7,-11.1,290,7,,,30.469488,1031.8,,TRUE,TRUE,,,,,,,,,,,,,,,,-0.3,,,,,,,,,,,METAR,2.0
PAKN 122054Z 09013G21KT 10SM OVC065 A2933 RMK AO2 SLPNO 57017 $,PAKN,2019-01-12T20:54:00Z,58.68,-156.65,,,90,13,21,10.0,29.329725,,,,TRUE,TRUE,,,,,,OVC,6500,,,,,,,VFR,-1.7,,,,,,,,,,,METAR,17.0
KCCU 122054Z AUTO 17005KT 7SM -SN SCT008 SCT011 BKN022 M07/M10 A3008 RMK AO2,KCCU,2019-01-12T20:54:00Z,39.48,-106.15,-7.0,-10.0,170,5,,7.0,30.079725,,,TRUE,TRUE,,,,,,-SN,SCT,800,SCT,1100,BKN,2200,,,MVFR,,,,,,,,,,,,METAR,3680.0
KCEU 122054Z AUTO 07004KT 7SM -RA OVC036 03/M03 A3030 RMK AO2 RAB38 SLP264 P0000 60000 T00331028 56023,KCEU,2019-01-12T20:54:00Z,34.67,-82.88,3.3,-2.8,70,4,,7.0,30.301182,1026.4,,TRUE,TRUE,,,,,,-RA,OVC,3600,,,,,,,VFR,-2.3,,,,,0.005,0.005,,,,,METAR,268.0
KCOU 122054Z 06010KT 4SM -SN BR BKN007 OVC017 01/00 A3000 RMK AO2 SLP165 P0028 60045 T00060000 55007,KCOU,2019-01-12T20:54:00Z,38.82,-92.22,0.6,0.0,60,10,,4.0,30.0,1016.5,,,TRUE,,,,,,-SN BR,BKN,700,OVC,1700,,,,,IFR,-0.7,,,,,0.28,0.45,,,,,METAR,271.0
KCOS 122054Z 24006KT 2SM -SN SCT025 BKN032 OVC047 01/M02 A3017 RMK AO2 TWR VIS 3 SNB35 SLP241 P0000 60000 T00111017 55016,KCOS,2019-01-12T20:54:00Z,38.82,-104.68,1.1,-1.7,240,6,,2.0,30.171259,1024.1,,,TRUE,,,,,,-SN,SCT,2500,BKN,3200,OVC,4700,,,IFR,-1.6,,,,,0.005,0.005,,,,,METAR,1856.0
KMOT 122054Z 18011KT 9SM OVC016 M08/M12 A3029 RMK AO2 SLP292 60000 T10781117 56014,KMOT,2019-01-12T20:54:00Z,48.25,-101.27,-7.8,-11.7,180,11,,9.0,30.28937,1029.2,,,TRUE,,,,,,,OVC,1600,,,,,,,MVFR,-1.4,,,,,,0.005,,,,,METAR,519.0
KCRW 122054Z 05006KT 9SM -SN OVC065 02/00 A3027 RMK AO2 SLP258 PCPN VRY LGT P0000 60001 T00170000 56018,KCRW,2019-01-12T20:54:00Z,38.38,-81.58,1.7,0.0,50,6,,9.0,30.268702,1025.8,,,TRUE,,,,,,-SN,OVC,6500,,,,,,,VFR,-1.8,,,,,0.005,0.01,,,,,METAR,309.0
KDDH 122054Z AUTO 33005KT 10SM CLR M06/M18 A3043 RMK AO2 SLP322 T10611178 58002,KDDH,2019-01-12T20:54:00Z,42.9,-73.25,-6.1,-17.8,330,5,,10.0,30.431103,1032.2,,TRUE,TRUE,,,,,,,CLR,,,,,,,,VFR,-0.2,,,,,,,,,,,METAR,244.0
KDEC 122054Z 07017KT 5SM BR OVC006 M01/M02 A3011 RMK AO2 SLP204 P0001 60002 T10061022 56019,KDEC,2019-01-12T20:54:00Z,39.83,-88.85,-0.6,-2.2,70,17,,5.0,30.109253,1020.4,,,TRUE,,,,,,BR,OVC,600,,,,,,,IFR,-1.9,,,,,0.01,0.02,,,,,METAR,207.0
KDSM 122054Z 05013G22KT 1SM R31/P6000FT -SN BR OVC010 M01/M03 A3021 RMK AO2 SLP241 P0001 60004 T10111028 53001,KDSM,2019-01-12T20:54:00Z,41.53,-93.67,-1.1,-2.8,50,13,22,1.0,30.209646,1024.1,,,TRUE,,,,,,-SN BR,OVC,1000,,,,,,,IFR,0.1,,,,,0.01,0.04,,,,,METAR,295.0
KDSV 122054Z AUTO 35005KT 10SM SCT075 OVC090 M04/M12 A3048 RMK AO2 SLP340 T10391117 58008,KDSV,2019-01-12T20:54:00Z,42.57,-77.72,-3.9,-11.7,350,5,,10.0,30.481298,1034.0,,TRUE,TRUE,,,,,,,SCT,7500,OVC,9000,,,,,VFR,-0.8,,,,,,,,,,,METAR,198.0
KDYL 122054Z AUTO 29003KT 10SM CLR 00/M15 A3046 RMK AO2 SLP326 T00001150 56009,KDYL,2019-01-12T20:54:00Z,40.33,-75.12,0.0,-15.0,290,3,,10.0,30.46063,1032.6,,TRUE,TRUE,,,,,,,CLR,,,,,,,,VFR,-0.9,,,,,,,,,,,METAR,117.0
KIMT 122054Z AUTO 07007KT 050V110 10SM OVC036 M04/M08 A3047 RMK AO2 SLP341 T10441083 53000,KIMT,2019-01-12T20:54:00Z,45.82,-88.12,-4.4,-8.3,70,7,,10.0,30.469488,1034.1,,TRUE,TRUE,,,,,,,OVC,3600,,,,,,,VFR,0.0,,,,,,,,,,,METAR,349.0
KECG 122054Z AUTO 05012KT 10SM OVC110 06/M02 A3043 RMK AO2 SLP303 T00561022 58017,KECG,2019-01-12T20:54:00Z,36.27,-76.18,5.6,-2.2,50,12,,10.0,30.431103,1030.3,,TRUE,TRUE,,,,,,,OVC,11000,,,,,,,VFR,-1.7,,,,,,,,,,,METAR,11.0
KIND 122054Z 07010KT 3/4SM R05L/5000VP6000FT -SN BR BKN006 OVC011 M01/M01 A3018 RMK AO2 SLP230 P0003 60011 T10061011 56013,KIND,2019-01-12T20:54:00Z,39.72,-86.3,-0.6,-1.1,70,10,,0.75,30.180119,1023.0,,,TRUE,,,,,,-SN BR,BKN,600,OVC,1100,,,,,LIFR,-1.3,,,,,0.03,0.11,,,,,METAR,241.0
KINT 122054Z 06003KT 10SM OVC049 03/M06 A3039 RMK AO2 RAB02E22UPB22E31 SLP296 P0000 60000 T00281056 58006,KINT,2019-01-12T20:54:00Z,36.13,-80.22,2.8,-5.6,60,3,,10.0,30.389763,1029.6,,,TRUE,,,,,,,OVC,4900,,,,,,,VFR,-0.6,,,,,0.005,0.005,,,,,METAR,291.0
KIPT 122054Z 00000KT 10SM CLR M01/M18 A3045 RMK AO2 SLP320 T10111178 58013,KIPT,2019-01-12T20:54:00Z,41.25,-76.92,-1.1,-17.8,0,0,,10.0,30.448818,1032.0,,,TRUE,,,,,,,CLR,,,,,,,,VFR,-1.3,,,,,,,,,,,METAR,164.0
KISW 122054Z AUTO 09011KT 8SM OVC010 M01/M05 A3039 RMK AO2 SLP306 T10111050 53002 TSNO,KISW,2019-01-12T20:54:00Z,44.37,-89.83,-1.1,-5.0,90,11,,8.0,30.389763,1030.6,,TRUE,TRUE,,,TRUE,,,,OVC,1000,,,,,,,MVFR,0.2,,,,,,,,,,,METAR,307.0
KIZG 122054Z AUTO 25006KT 10SM CLR M08/M18 A3036 RMK AO2 SLP292 T10831178 51012,KIZG,2019-01-12T20:54:00Z,43.98,-70.95,-8.3,-17.8,250,6,,10.0,30.360237,1029.2,,TRUE,TRUE,,,,,,,CLR,,,,,,,,VFR,1.2,,,,,,,,,,,METAR,135.0
KJAN 122054Z 17007KT 10SM OVC006 15/14 A2994 RMK AO2 CIG 005V011 SLP139 60006 T01500139 56010 $,KJAN,2019-01-12T20:54:00Z,32.32,-90.08,15.0,13.9,170,7,,10.0,29.940945,1013.9,,,TRUE,TRUE,,,,,,OVC,600,,,,,,,IFR,-1.0,,,,,,0.06,,,,,METAR,91.0
KJST 122054Z AUTO 12003KT 1 1/4SM -SN BR OVC021 M04/M07 A3029 RMK AO2 SLP296 P0000 60000 T10441067 56006,KJST,2019-01-12T20:54:00Z,40.32,-78.83,-4.4,-6.7,120,3,,1.25,30.28937,1029.6,,TRUE,TRUE,,,,,,-SN BR,OVC,2100,,,,,,,IFR,-0.6,,,,,0.005,0.005,,,,,METAR,694.0
KLBT 122054Z AUTO 06007KT 10SM SCT060 OVC070 07/M05 A3039 RMK AO2 SLP291 T00671050 58007,KLBT,2019-01-12T20:54:00Z,34.6,-79.07,6.7,-5.0,60,7,,10.0,30.389763,1029.1,,TRUE,TRUE,,,,,,,SCT,6000,OVC,7000,,,,,VFR,-0.7,,,,,,,,,,,METAR,37.0
KLEX 122054Z 10008KT 7SM -RA OVC036 03/00 A3017 RMK AO2 UPB35E47RAB47 SLP224 P0000 60000 T00280000 55022,KLEX,2019-01-12T20:54:00Z,38.03,-84.6,2.8,0.0,100,8,,7.0,30.171259,1022.4,,,TRUE,,,,,,-RA,OVC,3600,,,,,,,VFR,-2.2,,,,,0.005,0.005,,,,,METAR,300.0
KLNK 122054Z 36017KT 1 1/4SM -SN BR FEW012 BKN025 OVC032 M02/M03 A3023 RMK AO2 SLP250 P0000 60000 T10171033 53002,KLNK,2019-01-12T20:54:00Z,40.85,-96.77,-1.7,-3.3,360,17,,1.25,30.230314,1025.0,,,TRUE,,,,,,-SN BR,FEW,1200,BKN,2500,OVC,3200,,,IFR,0.2,,,,,0.005,0.005,,,,,METAR,364.0
KLWM 122054Z 28012KT 10SM CLR M04/M18 A3045 RMK AO2 SLP313 T10441178 53006,KLWM,2019-01-12T20:54:00Z,42.72,-71.13,-4.4,-17.8,280,12,,10.0,30.448818,1031.3,,,TRUE,,,,,,,CLR,,,,,,,,VFR,0.6,,,,,,,,,,,METAR,54.0
KLWT 122054Z AUTO 31004KT 10SM CLR 12/M17 A3006 RMK AO2 SLP196 T01221167 56013,KLWT,2019-01-12T20:54:00Z,47.03,-109.47,12.2,-16.7,310,4,,10.0,30.059055,1019.6,,TRUE,TRUE,,,,,,,CLR,,,,,,,,VFR,-1.3,,,,,,,,,,,METAR,1270.0
KTQE 122054Z AUTO 35016KT 2SM BR BKN009 BKN014 OVC021 M01/M03 A3026 RMK AO2 SNE1957B21E45 SLP255 P0000 60000 T10111028 53005 $,KTQE,2019-01-12T20:54:00Z,41.77,-96.18,-1.1,-2.8,350,16,,2.0,30.259842,1025.5,,TRUE,TRUE,TRUE,,,,,BR,BKN,900,BKN,1400,OVC,2100,,,IFR,0.5,,,,,0.005,0.005,,,,,METAR,312.0
KTAD 122054Z AUTO 00000KT 10SM BKN021 BKN028 03/M02 A3018 RMK AO2 SLP223 T00281017 56018,KTAD,2019-01-12T20:54:00Z,37.27,-104.33,2.8,-1.7,0,0,,10.0,30.180119,1022.3,,TRUE,TRUE,,,,,,,BKN,2100,BKN,2800,,,,,MVFR,-1.8,,,,,,,,,,,METAR,1756.0
KSYR 122054Z 01004KT 10SM FEW080 FEW150 BKN250 M08/M16 A3054 RMK AO2 SLP348 60000 T10781161 56004,KSYR,2019-01-12T20:54:00Z,43.12,-76.1,-7.8,-16.1,10,4,,10.0,30.540354,1034.8,,,TRUE,,,,,,,FEW,8000,FEW,15000,BKN,25000,,,VFR,-0.4,,,,,,0.005,,,,,METAR,127.0
K2V6 122054Z AUTO 32005KT 10SM SCT028 OVC034 04/M02 A3017 RMK AO2,K2V6,2019-01-12T20:54:00Z,40.1,-102.72,4.0,-2.0,320,5,,10.0,30.171259,,,TRUE,TRUE,,,,,,,SCT,2800,OVC,3400,,,,,VFR,,,,,,,,,,,,METAR,1261.0
K20V 122054Z AUTO 00000KT 10SM CLR 00/M07 A3015 RMK AO2,K20V,2019-01-12T20:54:00Z,40.05,-106.37,0.0,-7.0,0,0,,10.0,30.15059,,,TRUE,TRUE,,,,,,,CLR,,,,,,,,VFR,,,,,,,,,,,,METAR,2259.0
K04V 122054Z AUTO 00000KT 10SM SCT080 SCT120 M03/M06 A3015 RMK AO2,K04V,2019-01-12T20:54:00Z,38.1,-106.17,-3.0,-6.0,0,0,,10.0,30.15059,,,TRUE,TRUE,,,,,,,SCT,8000,SCT,12000,,,,,VFR,,,,,,,,,,,,METAR,2385.0
KMEM 122054Z 15010KT 10SM OVC008 09/08 A2992 RMK AO2 RAB10E30 CIG 007V011 SLP131 P0000 60014 T00890078 56021,KMEM,2019-01-12T20:54:00Z,35.07,-89.98,8.9,7.8,150,10,,10.0,29.920275,1013.1,,,TRUE,,,,,,,OVC,800,,,,,,,IFR,-2.1,,,,,0.005,0.14,,,,,METAR,86.0
K4BM 122054Z AUTO 23004KT 5SM HZ SCT020 BKN026 OVC034 A3013 RMK AO2 LTG DSNT N,K4BM,2019-01-12T20:54:00Z,39.05,-105.52,,,230,4,,5.0,30.129921,,,TRUE,TRUE,,,,,,HZ,SCT,2000,BKN,2600,OVC,3400,,,MVFR,,,,,,,,,,,,METAR,3438.0
KSLC 122054Z 28005KT 6SM BR OVC013 M01/M03 A3024 RMK AO2 SLP255 60000 T10061028 56016,KSLC,2019-01-12T20:54:00Z,40.77,-111.97,-0.6,-2.8,280,5,,6.0,30.239174,1025.5,,,TRUE,,,,,,BR,OVC,1300,,,,,,,MVFR,-1.6,,,,,,0.005,,,,,METAR,1286.0
KSJN 122054Z AUTO 00000KT 10SM CLR 06/M03 A3010 RMK AO2 SLP184 T00611033 56030,KSJN,2019-01-12T20:54:00Z,34.52,-109.38,6.1,-3.3,0,0,,10.0,30.100393,1018.4,,TRUE,TRUE,,,,,,,CLR,,,,,,,,VFR,-3.0,,,,,,,,,,,METAR,1745.0
KSET 122054Z AUTO 05007KT 1 1/2SM -SN BR OVC007 01/01 A3004 RMK AO2 SLP175 P0005 60015 T00110006 55017,KSET,2019-01-12T20:54:00Z,38.93,-90.43,1.1,0.6,50,7,,1.5,30.041338,1017.5,,TRUE,TRUE,,,,,,-SN BR,OVC,700,,,,,,,IFR,-1.7,,,,,0.05,0.15,,,,,METAR,134.0
KSBY 122054Z 00000KT 10SM BKN070 OVC110 02/M08 A3050 RMK AO2 SLP330 T00221083 58003,KSBY,2019-01-12T20:54:00Z,38.33,-75.5,2.2,-8.3,0,0,,10.0,30.499016,1033.0,,,TRUE,,,,,,,BKN,7000,OVC,11000,,,,,VFR,-0.3,,,,,,,,,,,METAR,19.0
KRST 122054Z 08010KT 8SM BKN019 OVC055 M01/M04 A3031 RMK AO2 SLP284 T10111044 53003,KRST,2019-01-12T20:54:00Z,43.9,-92.5,-1.1,-4.4,80,10,,8.0,30.31004,1028.4,,,TRUE,,,,,,,BKN,1900,OVC,5500,,,,,MVFR,0.3,,,,,,,,,,,METAR,403.0
KROC 122054Z 06005KT 10SM FEW028 SCT085 BKN140 OVC200 M06/M12 A3052 RMK AO2 SLP347 60000 T10561117 58007,KROC,2019-01-12T20:54:00Z,43.12,-77.68,-5.6,-11.7,60,5,,10.0,30.519686,1034.7,,,TRUE,,,,,,,FEW,2800,SCT,8500,BKN,14000,OVC,20000,VFR,-0.7,,,,,,0.005,,,,,METAR,178.0
KAKR 122054Z AUTO 08004KT 1 1/4SM -SN FEW010 BKN025 OVC034 M03/M06 A3035 RMK AO2 SLP291 P0000 60000 T10281056 55010,KAKR,2019-01-12T20:54:00Z,41.03,-81.47,-2.8,-5.6,80,4,,1.25,30.351377,1029.1,,TRUE,TRUE,,,,,,-SN,FEW,1000,BKN,2500,OVC,3400,,,IFR,-1.0,,,,,0.005,0.005,,,,,METAR,363.0
KAKH 122054Z AUTO 05007KT 10SM OVC040 04/M06 A3035 RMK AO2 RAB17E41 SLP283 P0000 60000 T00441056 56014,KAKH,2019-01-12T20:54:00Z,35.2,-81.15,4.4,-5.6,50,7,,10.0,30.351377,1028.3,,TRUE,TRUE,,,,,,,OVC,4000,,,,,,,VFR,-1.4,,,,,0.005,0.005,,,,,METAR,243.0
PGSN 122054Z 02008KT 10SM FEW022 24/21 A2989 RMK AO2 SLP141 T02440206 53007 $,PGSN,2019-01-12T20:54:00Z,15.12,145.72,24.4,20.6,20,8,,10.0,29.890747,1014.1,,,TRUE,TRUE,,,,,,FEW,2200,,,,,,,VFR,0.7,,,,,,,,,,,METAR,65.0
PHOG 122054Z 08012KT 10SM SCT040 BKN060 27/18 A3002 RMK AO2 SLP171 T02720178 58002,PHOG,2019-01-12T20:54:00Z,20.9,-156.43,27.2,17.8,80,12,,10.0,30.02067,1017.1,,,TRUE,,,,,,,SCT,4000,BKN,6000,,,,,VFR,-0.2,,,,,,,,,,,METAR,12.0
PHMK 122054Z 16010KT 10SM FEW026 BKN043 OVC050 24/19 A3005 RMK AO2 SLP180 T02390189 50001 $,PHMK,2019-01-12T20:54:00Z,21.15,-157.1,23.9,18.9,160,10,,10.0,30.050198,1018.0,,,TRUE,TRUE,,,,,,FEW,2600,BKN,4300,OVC,5000,,,VFR,0.1,,,,,,,,,,,METAR,141.0
KACY 122054Z AUTO 30004KT 10SM BKN100 01/M14 A3050 RMK AO2 SLP329 T00111139 56005,KACY,2019-01-12T20:54:00Z,39.45,-74.57,1.1,-13.9,300,4,,10.0,30.499016,1032.9,,TRUE,TRUE,,,,,,,BKN,10000,,,,,,,VFR,-0.5,,,,,,,,,,,METAR,23.0
K5SM 122054Z AUTO 00000KT 7SM -SN SCT006 OVC012 A3014 RMK AO2,K5SM,2019-01-12T20:54:00Z,39.43,-107.38,,,0,0,,7.0,30.138779,,,TRUE,TRUE,,,,,,-SN,SCT,600,OVC,1200,,,,,MVFR,,,,,,,,,,,,METAR,3232.0
KAPN 122054Z AUTO 05009KT 3SM -SN SCT013 SCT019 OVC032 M06/M09 A3053 RMK AO2 SNB23 SLP353 P0000 60000 T10561089 56004,KAPN,2019-01-12T20:54:00Z,45.07,-83.57,-5.6,-8.9,50,9,,3.0,30.528543,1035.3,,TRUE,TRUE,,,,,,-SN,SCT,1300,SCT,1900,OVC,3200,,,MVFR,-0.4,,,,,0.005,0.005,,,,,METAR,210.0
KAPC 122054Z 09012KT 10SM CLR 16/09 A2995 RMK AO2 SLP133 T01610094 56022,KAPC,2019-01-12T20:54:00Z,38.2,-122.28,16.1,9.4,90,12,,10.0,29.949802,1013.3,,,TRUE,,,,,,,CLR,,,,,,,,VFR,-2.2,,,,,,,,,,,METAR,13.0
KAUW 122054Z AUTO 08010KT 6SM BR OVC007 M04/M05 A3039 RMK AO2 SLP316 I3001 T10391050 53003,KAUW,2019-01-12T20:54:00Z,44.93,-89.62,-3.9,-5.0,80,10,,6.0,30.389763,1031.6,,TRUE,TRUE,,,,,,BR,OVC,700,,,,,,,IFR,0.3,,,,,,,,,,,METAR,362.0
KBDU 122054Z AUTO 16005KT 10SM CLR 03/M01 A3016 RMK AO2,KBDU,2019-01-12T20:54:00Z,40.03,-105.23,3.0,-1.0,160,5,,10.0,30.159449,,,TRUE,TRUE,,,,,,,CLR,,,,,,,,VFR,,,,,,,,,,,,METAR,1612.0
KAVP 122054Z 00000KT 10SM FEW065 SCT095 M03/M13 A3044 RMK AO2 SLP323 T10331128 58007,KAVP,2019-01-12T20:54:00Z,41.33,-75.72,-3.3,-12.8,0,0,,10.0,30.43996,1032.3,,,TRUE,,,,,,,FEW,6500,SCT,9500,,,,,VFR,-0.7,,,,,,,,,,,METAR,291.0
KAVL 122054Z 13004KT 10SM OVC027 02/M07 A3028 RMK AO2 SLP263 T00171067 56014,KAVL,2019-01-12T20:54:00Z,35.43,-82.53,1.7,-6.7,130,4,,10.0,30.280512,1026.3,,,TRUE,,,,,,,OVC,2700,,,,,,,MVFR,-1.4,,,,,,,,,,,METAR,670.0
KBFL 122054Z 12008KT 10SM CLR 18/04 A2997 RMK AO2 SLP144 60000 T01780044 56022,KBFL,2019-01-12T20:54:00Z,35.43,-119.05,17.8,4.4,120,8,,10.0,29.970472,1014.4,,,TRUE,,,,,,,CLR,,,,,,,,VFR,-2.2,,,,,,0.005,,,,,METAR,151.0
KBWI 122054Z 28003KT 10SM BKN050 OVC070 01/M07 A3047 RMK AO2 SLP321 VIRGA SW T00061072 58008 $,KBWI,2019-01-12T20:54:00Z,39.17,-76.68,0.6,-7.2,280,3,,10.0,30.469488,1032.1,,,TRUE,TRUE,,,,,,BKN,5000,OVC,7000,,,,,VFR,-0.8,,,,,,,,,,,METAR,59.0
KBUY 122054Z AUTO 04004KT 10SM BKN060 OVC080 04/M08 A3040 RMK AO2 SLP298 T00391083 56015,KBUY,2019-01-12T20:54:00Z,36.05,-79.47,3.9,-8.3,40,4,,10.0,30.398623,1029.8,,TRUE,TRUE,,,,,,,BKN,6000,OVC,8000,,,,,VFR,-1.5,,,,,,,,,,,METAR,180.0
KBUF 122054Z 07009KT 10SM FEW050 BKN080 OVC120 M05/M11 A3048 RMK AO2 SLP336 T10501111 58007,KBUF,2019-01-12T20:54:00Z,42.93,-78.73,-5.0,-11.1,70,9,,10.0,30.481298,1033.6,,,TRUE,,,,,,,FEW,5000,BKN,8000,OVC,12000,,,VFR,-0.7,,,,,,,,,,,METAR,211.0
KBTV 122054Z 36004KT 10SM FEW050 FEW100 M10/M19 A3051 RMK AO2 SLP338 T11001194 58001,KBTV,2019-01-12T20:54:00Z,44.47,-73.15,-10.0,-19.4,360,4,,10.0,30.510826,1033.8,,,TRUE,,,,,,,FEW,5000,FEW,10000,,,,,VFR,-0.1,,,,,,,,,,,METAR,105.0
KORB 122054Z AUTO 11003KT 10SM OVC005 M06/M08 A3041 RMK AO2,KORB,2019-01-12T20:54:00Z,48.02,-92.87,-6.0,-8.0,110,3,,10.0,30.410433,,,TRUE,TRUE,,,,,,,OVC,500,,,,,,,IFR,,,,,,,,,,,,SPECI,397.0
KFOZ 122054Z AUTO 05004KT 10SM OVC005 M05/M06 A3041 RMK AO2,KFOZ,2019-01-12T20:54:00Z,47.77,-93.65,-5.0,-6.0,50,4,,10.0,30.410433,,,TRUE,TRUE,,,,,,,OVC,500,,,,,,,IFR,,,,,,,,,,,,METAR,411.0
K1V4 122054Z AUTO M12/M19 A3043 RMK AO1 SLP333 T11171189 50006,K1V4,2019-01-12T20:54:00Z,44.42,-72.02,-11.7,-18.9,,,,,30.431103,1033.3,,TRUE,TRUE,,,,,,,,,,,,,,,,0.6,,,,,,,,,,,METAR,210.0
KNAK 122054Z AUTO 18003KT 8SM -SN OVC060 01/M07 A3050 RMK AO2 SNB20 SLP331 P0000 60000 T00111067 58003,KNAK,2019-01-12T20:54:00Z,38.98,-76.48,1.1,-6.7,180,3,,8.0,30.499016,1033.1,,TRUE,TRUE,,,,,,-SN,OVC,6000,,,,,,,VFR,-0.3,,,,,0.005,0.005,,,,,METAR,2.0
KEIK 122054Z AUTO 00000KT 10SM CLR 04/M02 A3022 RMK AO2 T00401017,KEIK,2019-01-12T20:54:00Z,40.02,-105.05,4.0,-1.7,0,0,,10.0,30.221457,,,TRUE,TRUE,,,,,,,CLR,,,,,,,,VFR,,,,,,,,,,,,METAR,1564.0
PGUM 122054Z 04008KT 10SM FEW028 26/23 A2988 RMK AO2 SLP110 T02560233 53009 $,PGUM,2019-01-12T20:54:00Z,13.48,144.8,25.6,23.3,40,8,,10.0,29.878937,1011.0,,,TRUE,TRUE,,,,,,FEW,2800,,,,,,,VFR,0.9,,,,,,,,,,,METAR,91.0
K12N 122054Z AUTO 34003KT M01/M13 A3046 RMK AO1 SLP330 T10061133 58006,K12N,2019-01-12T20:54:00Z,41.02,-74.73,-0.6,-13.3,340,3,,,30.46063,1033.0,,TRUE,TRUE,,,,,,,,,,,,,,,,-0.6,,,,,,,,,,,METAR,177.0
KBOS 122054Z 30013KT 10SM FEW150 FEW250 M02/M19 A3044 RMK A02 SLP307 T10221189 53007,KBOS,2019-01-12T20:54:00Z,42.37,-71.02,-2.2,-18.9,300,13,,10.0,30.43996,1030.7,,,TRUE,,,,,,,FEW,15000,FEW,25000,,,,,VFR,0.7,,,,,,,,,,,SPECI,6.0
KMTN 122054Z 12003KT 10SM BKN050 BKN070 OVC085 01/M07 A3051,KMTN,2019-01-12T20:54:00Z,39.32,-76.42,1.0,-7.0,120,3,,10.0,30.510826,,,,,,,,,,,BKN,5000,BKN,7000,OVC,8500,,,VFR,,,,,,,,,,,,METAR,7.0
KBYI 122053Z AUTO 06013KT 10SM UP FEW007 M01/M04 A3020 RMK AO2 UPB00E10B26 SLP249 P0000 60000 T10061039 56010,KBYI,2019-01-12T20:53:00Z,42.55,-113.77,-0.6,-3.9,60,13,,10.0,30.200787,1024.9,,TRUE,TRUE,,,,,,UP,FEW,700,,,,,,,VFR,-1.0,,,,,0.005,0.005,,,,,METAR,1264.0
KBIL 122053Z 23017KT 10SM FEW200 06/M03 A3010 RMK AO2 SLP215 T00611033 56016,KBIL,2019-01-12T20:53:00Z,45.8,-108.55,6.1,-3.3,230,17,,10.0,30.100393,1021.5,,,TRUE,,,,,,,FEW,20000,,,,,,,VFR,-1.6,,,,,,,,,,,METAR,1091.0
KBAF 122053Z 33007KT 10SM CLR M03/M17 A3046 RMK AO2 SLP325 T10331172 51005,KBAF,2019-01-12T20:53:00Z,42.17,-72.72,-3.3,-17.2,330,7,,10.0,30.46063,1032.5,,,TRUE,,,,,,,CLR,,,,,,,,VFR,0.5,,,,,,,,,,,METAR,83.0
KOTM 122053Z AUTO 05014KT 1 1/4SM -SN BR SCT007 BKN012 OVC020 M01/M02 A3017 RMK AO2 SLP226 P0000 60000 T10111022 55003,KOTM,2019-01-12T20:53:00Z,41.1,-92.45,-1.1,-2.2,50,14,,1.25,30.171259,1022.6,,TRUE,TRUE,,,,,,-SN BR,SCT,700,BKN,1200,OVC,2000,,,IFR,-0.3,,,,,0.005,0.005,,,,,METAR,256.0
KETH 122053Z AUTO 00000KT 10SM OVC032 M03/M07 A3039 RMK AO2,KETH,2019-01-12T20:53:00Z,45.78,-96.55,-3.0,-7.0,0,0,,10.0,30.389763,,,TRUE,TRUE,,,,,,,OVC,3200,,,,,,,VFR,,,,,,,,,,,,METAR,313.0
KMWT 122053Z AUTO 32004KT 10SM BKN008 BKN015 OVC019 08/07 A2989 RMK AO2 RAB39E49 SLP128 P0001 60001 T00780067 53003,KMWT,2019-01-12T20:53:00Z,34.55,-93.58,7.8,6.7,320,4,,10.0,29.890747,1012.8,,TRUE,TRUE,,,,,,,BKN,800,BKN,1500,OVC,1900,,,IFR,0.3,,,,,0.01,0.01,,,,,METAR,214.0
KLSE 122053Z 07004KT 5SM HZ BKN026 OVC060 01/M04 A3035 RMK AO2 SLP291 T00111039 55004,KLSE,2019-01-12T20:53:00Z,43.88,-91.25,1.1,-3.9,70,4,,5.0,30.351377,1029.1,,,TRUE,,,,,,HZ,BKN,2600,OVC,6000,,,,,MVFR,-0.4,,,,,,,,,,,METAR,199.0
KLKV 122053Z AUTO 25004KT 10SM CLR 08/M04 A3005 RMK AO2 SLP194 T00781039 58017,KLKV,2019-01-12T20:53:00Z,42.17,-120.4,7.8,-3.9,250,4,,10.0,30.050198,1019.4,,TRUE,TRUE,,,,,,,CLR,,,,,,,,VFR,-1.7,,,,,,,,,,,METAR,1441.0
KFLD 122053Z AUTO 07012KT 10SM BKN024 OVC047 M01/M06 A3039 RMK AO2 SLP301 T10061056 53004 $,KFLD,2019-01-12T20:53:00Z,43.77,-88.48,-0.6,-5.6,70,12,,10.0,30.389763,1030.1,,TRUE,TRUE,TRUE,,,,,,BKN,2400,OVC,4700,,,,,MVFR,0.4,,,,,,,,,,,METAR,240.0
KPNC 122053Z AUTO 33013G18KT 10SM OVC015 02/M01 A3010 RMK AO2 SLP198 T00221011 53016,KPNC,2019-01-12T20:53:00Z,36.73,-97.1,2.2,-1.1,330,13,18,10.0,30.100393,1019.8,,TRUE,TRUE,,,,,,,OVC,1500,,,,,,,MVFR,1.6,,,,,,,,,,,METAR,308.0
KBWG 122053Z AUTO 14004KT 10SM -RA BKN048 OVC080 09/03 A3009 RMK AO2 RAE12B39 SLP191 P0001 60001 T00890033 56018,KBWG,2019-01-12T20:53:00Z,36.97,-86.42,8.9,3.3,140,4,,10.0,30.088583,1019.1,,TRUE,TRUE,,,,,,-RA,BKN,4800,OVC,8000,,,,,VFR,-1.8,,,,,0.01,0.01,,,,,METAR,168.0
KBVY 122053Z 30009KT 10SM CLR M04/M18 A3042 RMK AO2 SLP300 T10391183 51006,KBVY,2019-01-12T20:53:00Z,42.58,-70.92,-3.9,-18.3,300,9,,10.0,30.41929,1030.0,,,TRUE,,,,,,,CLR,,,,,,,,VFR,0.6,,,,,,,,,,,METAR,28.0
KBVO 122053Z AUTO VRB05KT 10SM OVC014 02/00 A3009 RMK AO2 SLP188 T00220000 53021,KBVO,2019-01-12T20:53:00Z,36.77,-96.02,2.2,0.0,0,5,,10.0,30.088583,1018.8,,TRUE,TRUE,,,,,,,OVC,1400,,,,,,,MVFR,2.1,,,,,,,,,,,METAR,210.0
KBTM 122053Z AUTO 20003KT 10SM CLR M05/M09 A3017 RMK AO2 SLP296 T10501094 56017,KBTM,2019-01-12T20:53:00Z,45.97,-112.5,-5.0,-9.4,200,3,,10.0,30.171259,1029.6,,TRUE,TRUE,,,,,,,CLR,,,,,,,,VFR,-1.7,,,,,,,,,,,METAR,1688.0
KBTL 122053Z 08010KT 10SM OVC021 M01/M06 A3035 RMK AO2 SLP288 T10111056 55009,KBTL,2019-01-12T20:53:00Z,42.32,-85.23,-1.1,-5.6,80,10,,10.0,30.351377,1028.8,,,TRUE,,,,,,,OVC,2100,,,,,,,MVFR,-0.9,,,,,,,,,,,METAR,290.0
KBRO 122053Z 04005KT 10SM CLR 27/15 A3004 RMK AO2 SLP171 T02720150 56015,KBRO,2019-01-12T20:53:00Z,25.92,-97.42,27.2,15.0,40,5,,10.0,30.041338,1017.1,,,TRUE,,,,,,,CLR,,,,,,,,VFR,-1.5,,,,,,,,,,,METAR,7.0
KBRL 122053Z AUTO 06015KT 1/2SM SN FZFG BKN008 OVC013 M01/M03 A3015 RMK AO2 SLP218 P0000 60002 T10111033 56008 $,KBRL,2019-01-12T20:53:00Z,40.77,-91.13,-1.1,-3.3,60,15,,0.5,30.15059,1021.8,,TRUE,TRUE,TRUE,,,,,SN FZFG,BKN,800,OVC,1300,,,,,LIFR,-0.8,,,,,0.005,0.02,,,,,METAR,211.0
KBRD 122053Z AUTO 11003KT 5SM HZ FEW023 OVC046 M02/M08 A3037 RMK AO2 SLP306 T10171078 55004,KBRD,2019-01-12T20:53:00Z,46.4,-94.13,-1.7,-7.8,110,3,,5.0,30.369095,1030.6,,TRUE,TRUE,,,,,,HZ,FEW,2300,OVC,4600,,,,,MVFR,-0.4,,,,,,,,,,,METAR,372.0
KBPT 122053Z 28011KT 10SM CLR 22/11 A2999 RMK AO2 SLP155 T02220106 55011 $,KBPT,2019-01-12T20:53:00Z,29.95,-94.03,22.2,10.6,280,11,,10.0,29.991142,1015.5,,,TRUE,TRUE,,,,,,CLR,,,,,,,,VFR,-1.1,,,,,,,,,,,METAR,5.0
KBPK 122053Z AUTO 00000KT 9SM OVC003 03/02 A2990 RMK AO2 RAE28 SLP129 P0000 60009 T00280022 55000,KBPK,2019-01-12T20:53:00Z,36.37,-92.47,2.8,2.2,0,0,,9.0,29.899607,1012.9,,TRUE,TRUE,,,,,,,OVC,300,,,,,,,LIFR,0.0,,,,,0.005,0.09,,,,,METAR,280.0
KBPI 122053Z AUTO 11008KT 10SM CLR M09/M13 A3020 RMK AO2 SLP310 T10891133 56016,KBPI,2019-01-12T20:53:00Z,42.58,-110.1,-8.9,-13.3,110,8,,10.0,30.200787,1031.0,,TRUE,TRUE,,,,,,,CLR,,,,,,,,VFR,-1.6,,,,,,,,,,,METAR,2117.0
KASE 122053Z 01006KT 10SM SCT027 BKN038 M01/M07 A3010 RMK AO2 SNB40E50 SLP189 P0000 60000 T10061067 56018,KASE,2019-01-12T20:53:00Z,39.23,-106.87,-0.6,-6.7,10,6,,10.0,30.100393,1018.9,,,TRUE,,,,,,,SCT,2700,BKN,3800,,,,,VFR,-1.8,,,,,0.005,0.005,,,,,METAR,2354.0
KARB 122053Z 05011KT 10SM OVC024 M02/M06 A3038 RMK AO2 SLP299 T10171061 55006,KARB,2019-01-12T20:53:00Z,42.22,-83.73,-1.7,-6.1,50,11,,10.0,30.380905,1029.9,,,TRUE,,,,,,,OVC,2400,,,,,,,MVFR,-0.6,,,,,,,,,,,METAR,251.0
KARA 122053Z 25012KT 10SM BKN023 20/14 A2998 RMK AO2 SLP152 60000 T02000144 55000,KARA,2019-01-12T20:53:00Z,30.03,-91.88,20.0,14.4,250,12,,10.0,29.97933,1015.2,,,TRUE,,,,,,,BKN,2300,,,,,,,MVFR,0.0,,,,,,0.005,,,,,METAR,18.0
KAPF 122053Z 14011KT 10SM CLR 27/13 A3012 RMK AO2 SLP197 T02670133 55009 $,KAPF,2019-01-12T20:53:00Z,26.15,-81.77,26.7,13.3,140,11,,10.0,30.121063,1019.7,,,TRUE,TRUE,,,,,,CLR,,,,,,,,VFR,-0.9,,,,,,,,,,,METAR,3.0
KAPA 122053Z 00000KT 10SM FEW040 BKN150 00/M03 A3016 RMK AO2 SLP244 T00001028 56019,KAPA,2019-01-12T20:53:00Z,39.57,-104.85,0.0,-2.8,0,0,,10.0,30.159449,1024.4,,,TRUE,,,,,,,FEW,4000,BKN,15000,,,,,VFR,-1.9,,,,,,,,,,,METAR,1775.0
KAOO 122053Z AUTO 11004KT 7SM -SN BKN037 OVC049 M02/M08 A3037 RMK AO2 SNB53 SLP308 P0000 60000 T10221083 56007,KAOO,2019-01-12T20:53:00Z,40.3,-78.32,-2.2,-8.3,110,4,,7.0,30.369095,1030.8,,TRUE,TRUE,,,,,,-SN,BKN,3700,OVC,4900,,,,,VFR,-0.7,,,,,0.005,0.005,,,,,METAR,455.0
KANB 122053Z AUTO 08010KT 10SM SCT028 BKN033 OVC046 09/02 A3010 RMK AO2 SLP197 T00940022 56033,KANB,2019-01-12T20:53:00Z,33.58,-85.85,9.4,2.2,80,10,,10.0,30.100393,1019.7,,TRUE,TRUE,,,,,,,SCT,2800,BKN,3300,OVC,4600,,,VFR,-3.3,,,,,,,,,,,METAR,183.0
KAMG 122053Z AUTO 10007KT 10SM FEW055 OVC070 18/11 A3021 RMK AO2 SLP229 T01830106,KAMG,2019-01-12T20:53:00Z,31.53,-82.5,18.3,10.6,100,7,,10.0,30.209646,1022.9,,TRUE,TRUE,,,,,,,FEW,5500,OVC,7000,,,,,VFR,,,,,,,,,,,,METAR,59.0
KAMA 122053Z 36018KT 10SM FEW029 08/M01 A3015 RMK AO2 SLP209 T00781011 56016,KAMA,2019-01-12T20:53:00Z,35.22,-101.72,7.8,-1.1,360,18,,10.0,30.15059,1020.9,,,TRUE,,,,,,,FEW,2900,,,,,,,VFR,-1.6,,,,,,,,,,,METAR,1093.0
KALI 122053Z AUTO 35011KT 10SM CLR 24/11 A3006 RMK AO2 SLP178 T02440111 55017,KALI,2019-01-12T20:53:00Z,27.73,-98.02,24.4,11.1,350,11,,10.0,30.059055,1017.8,,TRUE,TRUE,,,,,,,CLR,,,,,,,,VFR,-1.7,,,,,,,,,,,METAR,53.0
KAKO 122053Z AUTO 32007KT 10SM BKN028 OVC032 04/M02 A3016 RMK AO2 SLP227 T00441017 56018,KAKO,2019-01-12T20:53:00Z,40.17,-103.22,4.4,-1.7,320,7,,10.0,30.159449,1022.7,,TRUE,TRUE,,,,,,,BKN,2800,OVC,3200,,,,,MVFR,-1.8,,,,,,,,,,,METAR,1421.0
KAIA 122053Z AUTO 08004KT 10SM SCT008 00/M01 A3017 RMK AO2 SLP242 T00001011 56018,KAIA,2019-01-12T20:53:00Z,42.05,-102.8,0.0,-1.1,80,4,,10.0,30.171259,1024.2,,TRUE,TRUE,,,,,,,SCT,800,,,,,,,VFR,-1.8,,,,,,,,,,,METAR,1196.0
KAGS 122053Z AUTO 07005KT 10SM OVC060 11/03 A3028 RMK AO2 SLP255 T01060028 56016,KAGS,2019-01-12T20:53:00Z,33.37,-81.97,10.6,2.8,70,5,,10.0,30.280512,1025.5,,TRUE,TRUE,,,,,,,OVC,6000,,,,,,,VFR,-1.6,,,,,,,,,,,METAR,44.0
KAFW 122053Z 31019G25KT 10SM BKN030 OVC035 08/01 A3013 RMK AO2 SLP205 T00780011 53013,KAFW,2019-01-12T20:53:00Z,32.97,-97.32,7.8,1.1,310,19,25,10.0,30.129921,1020.5,,,TRUE,,,,,,,BKN,3000,OVC,3500,,,,,MVFR,1.3,,,,,,,,,,,METAR,233.0
KAEX 122053Z 25011KT 10SM CLR 19/11 A2993 RMK AO2 SLP138 T01940111 55012 $,KAEX,2019-01-12T20:53:00Z,31.33,-92.57,19.4,11.1,250,11,,10.0,29.929134,1013.8,,,TRUE,TRUE,,,,,,CLR,,,,,,,,VFR,-1.2,,,,,,,,,,,METAR,27.0
KADG 122053Z AUTO 11012KT 10SM FEW021 BKN049 OVC060 M02/M06 A3037 RMK AO2 SNE16 SLP298 P0000 60000 T10171061 55006 TSNO,KADG,2019-01-12T20:53:00Z,41.87,-84.08,-1.7,-6.1,110,12,,10.0,30.369095,1029.8,,TRUE,TRUE,,,TRUE,,,,FEW,2100,BKN,4900,OVC,6000,,,VFR,-0.6,,,,,0.005,0.005,,,,,METAR,241.0
KACV 122053Z AUTO 30006KT 10SM CLR 16/09 A2991 RMK AO2 SLP132 T01610094 57024,KACV,2019-01-12T20:53:00Z,40.98,-124.1,16.1,9.4,300,6,,10.0,29.911417,1013.2,,TRUE,TRUE,,,,,,,CLR,,,,,,,,VFR,-2.4,,,,,,,,,,,METAR,67.0
KACK 122053Z 29009KT 10SM CLR M02/M14 A3043 RMK AO2 SLP302 T10221144 53002,KACK,2019-01-12T20:53:00Z,41.25,-70.07,-2.2,-14.4,290,9,,10.0,30.431103,1030.2,,,TRUE,,,,,,,CLR,,,,,,,,VFR,0.2,,,,,,,,,,,METAR,16.0
KABY 122053Z 12009KT 10SM FEW041 SCT048 OVC060 19/11 A3017 RMK AO2 SLP215 T01890106 56023,KABY,2019-01-12T20:53:00Z,31.53,-84.2,18.9,10.6,120,9,,10.0,30.171259,1021.5,,,TRUE,,,,,,,FEW,4100,SCT,4800,OVC,6000,,,VFR,-2.3,,,,,,,,,,,METAR,58.0
KABR 122053Z AUTO 01005KT 5SM BR OVC005 M06/M07 A3036 RMK AO2 SLP303 T10611072 56010 $,KABR,2019-01-12T20:53:00Z,45.45,-98.42,-6.1,-7.2,10,5,,5.0,30.360237,1030.3,,TRUE,TRUE,TRUE,,,,,BR,OVC,500,,,,,,,IFR,-1.0,,,,,,,,,,,METAR,397.0
KAAF 122053Z AUTO 14011KT 10SM BKN065 OVC080 18/14 A3013 RMK AO2 SLP202 T01780144 56020,KAAF,2019-01-12T20:53:00Z,29.73,-85.03,17.8,14.4,140,11,,10.0,30.129921,1020.2,,TRUE,TRUE,,,,,,,BKN,6500,OVC,8000,,,,,VFR,-2.0,,,,,,,,,,,METAR,5.0
KRWI 122053Z AUTO 04006KT 10SM BKN044 OVC110 04/M04 A3044 RMK AO2 SLP311 T00441039 55008,KRWI,2019-01-12T20:53:00Z,35.85,-77.9,4.4,-3.9,40,6,,10.0,30.43996,1031.1,,TRUE,TRUE,,,,,,,BKN,4400,OVC,11000,,,,,VFR,-0.8,,,,,,,,,,,METAR,47.0
KRWF 122053Z AUTO 06005KT 7SM OVC043 M02/M06 A3034 RMK AO2 SLP289 T10221056 55000,KRWF,2019-01-12T20:53:00Z,44.55,-95.08,-2.2,-5.6,60,5,,7.0,30.339567,1028.9,,TRUE,TRUE,,,,,,,OVC,4300,,,,,,,VFR,0.0,,,,,,,,,,,METAR,311.0
KRVS 122053Z 34009G18KT 10SM OVC017 04/00 A3005 RMK AO2 SLP184 T00390000 53019,KRVS,2019-01-12T20:53:00Z,36.05,-95.98,3.9,0.0,340,9,18,10.0,30.050198,1018.4,,,TRUE,,,,,,,OVC,1700,,,,,,,MVFR,1.9,,,,,,,,,,,METAR,200.0
KRUE 122053Z AUTO 00000KT 3SM BR OVC003 06/05 A2992 RMK AO2 SLP128 T00610050 55003,KRUE,2019-01-12T20:53:00Z,35.25,-93.1,6.1,5.0,0,0,,3.0,29.920275,1012.8,,TRUE,TRUE,,,,,,BR,OVC,300,,,,,,,LIFR,-0.3,,,,,,,,,,,METAR,115.0
KRTN 122053Z AUTO 08010KT 10SM SCT033 03/M04 A3014 RMK AO2 SLP204 T00331044 55018,KRTN,2019-01-12T20:53:00Z,36.73,-104.5,3.3,-4.4,80,10,,10.0,30.138779,1020.4,,TRUE,TRUE,,,,,,,SCT,3300,,,,,,,VFR,-1.8,,,,,,,,,,,METAR,1936.0
KRSW 122053Z 13005KT 10SM BKN070 25/13 A3013 RMK AO2 SLP199 T02500133 55010,KRSW,2019-01-12T20:53:00Z,26.53,-81.75,25.0,13.3,130,5,,10.0,30.129921,1019.9,,,TRUE,,,,,,,BKN,7000,,,,,,,VFR,-1.0,,,,,,,,,,,METAR,10.0
KRSL 122053Z AUTO 35016KT 6SM BR OVC009 M02/M03 A3020 RMK AO2 PK WND 35026/2005 CIG 008V012 SLP246 60000 T10221028 53010 $,KRSL,2019-01-12T20:53:00Z,38.87,-98.82,-2.2,-2.8,350,16,,6.0,30.200787,1024.6,,TRUE,TRUE,TRUE,,,,,BR,OVC,900,,,,,,,IFR,1.0,,,,,,0.005,,,,,METAR,567.0
KRQE 122053Z AUTO VRB03KT 10SM CLR 04/M04 A3012 RMK AO2 SLP183 T00391044 56025,KRQE,2019-01-12T20:53:00Z,35.65,-109.07,3.9,-4.4,0,3,,10.0,30.121063,1018.3,,TRUE,TRUE,,,,,,,CLR,,,,,,,,VFR,-2.5,,,,,,,,,,,METAR,2055.0
KRNT 122053Z 32003KT 10SM CLR 10/04 A3000 RMK AO2 SLP163 T01000039 58002,KRNT,2019-01-12T20:53:00Z,47.5,-122.22,10.0,3.9,320,3,,10.0,30.0,1016.3,,,TRUE,,,,,,,CLR,,,,,,,,VFR,-0.2,,,,,,,,,,,METAR,21.0
KRNM 122053Z 23010KT 10SM SCT016 BKN026 OVC065 12/09 A2998 RMK AO2 RAB04E41 SLP149 P0001 60001 T01220094 56023,KRNM,2019-01-12T20:53:00Z,33.03,-116.92,12.2,9.4,230,10,,10.0,29.97933,1014.9,,,TRUE,,,,,,,SCT,1600,BKN,2600,OVC,6500,,,MVFR,-2.3,,,,,0.01,0.01,,,,,METAR,427.0
KRMG 122053Z AUTO 13009KT 10SM OVC027 07/M01 A3017 RMK AO2 SLP216 T00671006 58018,KRMG,2019-01-12T20:53:00Z,34.35,-85.17,6.7,-0.6,130,9,,10.0,30.171259,1021.6,,TRUE,TRUE,,,,,,,OVC,2700,,,,,,,MVFR,-1.8,,,,,,,,,,,METAR,193.0
KRME 122053Z 27005KT 10SM CLR M07/M16 A3054 RMK AO2 SLP350 T10671161 56005,KRME,2019-01-12T20:53:00Z,43.22,-75.4,-6.7,-16.1,270,5,,10.0,30.540354,1035.0,,,TRUE,,,,,,,CLR,,,,,,,,VFR,-0.5,,,,,,,,,,,METAR,154.0
KRKP 122053Z AUTO 32008KT 7SM CLR 23/12 A3006 RMK AO2 SLP180 T02280117 55015,KRKP,2019-01-12T20:53:00Z,28.08,-97.05,22.8,11.7,320,8,,7.0,30.059055,1018.0,,TRUE,TRUE,,,,,,,CLR,,,,,,,,VFR,-1.5,,,,,,,,,,,METAR,6.0
KRIW 122053Z AUTO 04003KT 1/4SM FZFG VV001 M09/M11 A3019 RMK AO2 SLP296 T10941111 56017,KRIW,2019-01-12T20:53:00Z,43.07,-108.47,-9.4,-11.1,40,3,,0.25,30.188976,1029.6,,TRUE,TRUE,,,,,,FZFG,OVX,0,,,,,,,LIFR,-1.7,,,,,,,,,,100,METAR,1697.0
KRIL 122053Z AUTO 11003KT 10SM CLR 02/M03 A3014 RMK AO2 SLP222 T00171028 56024,KRIL,2019-01-12T20:53:00Z,39.53,-107.73,1.7,-2.8,110,3,,10.0,30.138779,1022.2,,TRUE,TRUE,,,,,,,CLR,,,,,,,,VFR,-2.4,,,,,,,,,,,METAR,1678.0
KRHI 122053Z AUTO 08010KT 7SM OVC007 M04/M07 A3041 RMK AO2 SLP327 T10441067 53002 $,KRHI,2019-01-12T20:53:00Z,45.63,-89.48,-4.4,-6.7,80,10,,7.0,30.410433,1032.7,,TRUE,TRUE,TRUE,,,,,,OVC,700,,,,,,,IFR,0.2,,,,,,,,,,,METAR,485.0
KRBG 122053Z AUTO 00000KT 8SM OVC004 05/04 A2996 RMK AO2 SLP150 T00500044 58016,KRBG,2019-01-12T20:53:00Z,43.23,-123.35,5.0,4.4,0,0,,8.0,29.958662,1015.0,,TRUE,TRUE,,,,,,,OVC,400,,,,,,,LIFR,-1.6,,,,,,,,,,,METAR,154.0
KRBD 122053Z 31012G22KT 10SM OVC028 07/02 A3011 RMK AO2 SLP194 T00720017 53009 $,KRBD,2019-01-12T20:53:00Z,32.68,-96.87,7.2,1.7,310,12,22,10.0,30.109253,1019.4,,,TRUE,TRUE,,,,,,OVC,2800,,,,,,,MVFR,0.9,,,,,,,,,,,METAR,203.0
KRAL 122053Z VRB03KT 7SM -RA SCT019 BKN025 BKN040 11/09 A2999 RMK AO2 RAB16 SLP148 P0005 60005 T01110089 56024,KRAL,2019-01-12T20:53:00Z,33.95,-117.45,11.1,8.9,0,3,,7.0,29.991142,1014.8,,,TRUE,,,,,,-RA,SCT,1900,BKN,2500,BKN,4000,,,MVFR,-2.4,,,,,0.05,0.05,,,,,METAR,252.0
KRAC 122053Z AUTO 08010KT 9SM OVC023 00/M05 A3036 RMK AO2 SLP287 T00001050 56003,KRAC,2019-01-12T20:53:00Z,42.77,-87.82,0.0,-5.0,80,10,,9.0,30.360237,1028.7,,TRUE,TRUE,,,,,,,OVC,2300,,,,,,,MVFR,-0.3,,,,,,,,,,,METAR,203.0
KPWA 122053Z 34012KT 10SM OVC015 03/01 A3011 RMK AO2 PK WND 34027/2028 SLP201 T00330006 53016,KPWA,2019-01-12T20:53:00Z,35.53,-97.65,3.3,0.6,340,12,,10.0,30.109253,1020.1,,,TRUE,,,,,,,OVC,1500,,,,,,,MVFR,1.6,,,,,,,,,,,METAR,397.0
KPUW 122053Z AUTO 10013KT 10SM CLR 05/M03 A3014 RMK AO2 SLP225 T00501028 56012,KPUW,2019-01-12T20:53:00Z,46.75,-117.12,5.0,-2.8,100,13,,10.0,30.138779,1022.5,,TRUE,TRUE,,,,,,,CLR,,,,,,,,VFR,-1.2,,,,,,,,,,,METAR,773.0
KPUB 122053Z 17005KT 10SM BKN027 06/00 A3017 RMK AO2 SLP221 T00560000 56021,KPUB,2019-01-12T20:53:00Z,38.28,-104.5,5.6,0.0,170,5,,10.0,30.171259,1022.1,,,TRUE,,,,,,,BKN,2700,,,,,,,MVFR,-2.1,,,,,,,,,,,METAR,1420.0
KPTK 122053Z 09009KT 10SM SCT022 BKN031 OVC065 M02/M08 A3039 RMK AO2 SLP304 T10221078 56004,KPTK,2019-01-12T20:53:00Z,42.67,-83.42,-2.2,-7.8,90,9,,10.0,30.389763,1030.4,,,TRUE,,,,,,,SCT,2200,BKN,3100,OVC,6500,,,VFR,-0.4,,,,,,,,,,,METAR,299.0
KPSX 122053Z AUTO 31011KT 10SM CLR 22/11 A3006 RMK AO2 SLP177 T02170111 55009,KPSX,2019-01-12T20:53:00Z,28.72,-96.25,21.7,11.1,310,11,,10.0,30.059055,1017.7,,TRUE,TRUE,,,,,,,CLR,,,,,,,,VFR,-0.9,,,,,,,,,,,METAR,5.0
KPSP 122053Z 31003KT 10SM FEW021 16/09 A3001 RMK AO2 SLP162 T01560089 58029,KPSP,2019-01-12T20:53:00Z,33.82,-116.5,15.6,8.9,310,3,,10.0,30.008858,1016.2,,,TRUE,,,,,,,FEW,2100,,,,,,,VFR,-2.9,,,,,,,,,,,METAR,135.0
KPSC 122053Z 34005KT 10SM OVC008 02/00 A3025 RMK AO2 SLP247 T00220000 56003,KPSC,2019-01-12T20:53:00Z,46.27,-119.12,2.2,0.0,340,5,,10.0,30.250984,1024.7,,,TRUE,,,,,,,OVC,800,,,,,,,IFR,-0.3,,,,,,,,,,,METAR,121.0
KPRC 122053Z 13012G18KT 10SM CLR 11/M07 A3004 RMK AO2 SLP154 T01061067 56031,KPRC,2019-01-12T20:53:00Z,34.65,-112.42,10.6,-6.7,130,12,18,10.0,30.041338,1015.4,,,TRUE,,,,,,,CLR,,,,,,,,VFR,-3.1,,,,,,,,,,,METAR,1524.0
KPRB 122053Z AUTO 00000KT 10SM FEW034 BKN045 14/08 A2997 RMK AO2 SLP146 T01440083 58019,KPRB,2019-01-12T20:53:00Z,35.67,-120.63,14.4,8.3,0,0,,10.0,29.970472,1014.6,,TRUE,TRUE,,,,,,,FEW,3400,BKN,4500,,,,,VFR,-1.9,,,,,,,,,,,METAR,245.0
KPOU 122053Z 04003KT 10SM OVC100 M03/M13 A3048 RMK AO2 SLP321 T10281128 58003,KPOU,2019-01-12T20:53:00Z,41.63,-73.88,-2.8,-12.8,40,3,,10.0,30.481298,1032.1,,,TRUE,,,,,,,OVC,10000,,,,,,,VFR,-0.3,,,,,,,,,,,METAR,46.0
KPOF 122053Z AUTO 07005KT 1SM BR OVC006 05/05 A2993 RMK AO2 SLP142 60013 T00500050 56008,KPOF,2019-01-12T20:53:00Z,36.77,-90.32,5.0,5.0,70,5,,1.0,29.929134,1014.2,,TRUE,TRUE,,,,,,BR,OVC,600,,,,,,,IFR,-0.8,,,,,,0.13,,,,,METAR,99.0
KPNS 122053Z 17007KT 10SM FEW055 SCT095 OVC110 19/15 A3005 RMK AO2 SLP178 T01890150 56015,KPNS,2019-01-12T20:53:00Z,30.48,-87.18,18.9,15.0,170,7,,10.0,30.050198,1017.8,,,TRUE,,,,,,,FEW,5500,SCT,9500,OVC,11000,,,VFR,-1.5,,,,,,,,,,,METAR,38.0
KPMP 122053Z 12012KT 10SM CLR 25/16 A3015 RMK AO2 SLP210 T02500156 56006,KPMP,2019-01-12T20:53:00Z,26.25,-80.12,25.0,15.6,120,12,,10.0,30.15059,1021.0,,,TRUE,,,,,,,CLR,,,,,,,,VFR,-0.6,,,,,,,,,,,METAR,6.0
KPMD 122053Z 36012G18KT 10SM OVC016 09/05 A3000 RMK AO2 SLP157 T00940050 58018 $,KPMD,2019-01-12T20:53:00Z,34.63,-118.08,9.4,5.0,360,12,18,10.0,30.0,1015.7,,,TRUE,TRUE,,,,,,OVC,1600,,,,,,,MVFR,-1.8,,,,,,,,,,,METAR,780.0
KPKD 122053Z AUTO 05005KT 10SM BKN015 BKN020 OVC025 M03/M05 A3036 RMK AO2 SLP305 T10331050 55003,KPKD,2019-01-12T20:53:00Z,46.9,-95.07,-3.3,-5.0,50,5,,10.0,30.360237,1030.5,,TRUE,TRUE,,,,,,,BKN,1500,BKN,2000,OVC,2500,,,MVFR,-0.3,,,,,,,,,,,METAR,442.0
KPKB 122053Z 08003KT 3/4SM -SN BR SCT004 BKN011 OVC016 M01/M02 A3032 RMK AO2 SLP277 P0005 60008 T10111022 58012,KPKB,2019-01-12T20:53:00Z,39.35,-81.42,-1.1,-2.2,80,3,,0.75,30.318897,1027.7,,,TRUE,,,,,,-SN BR,SCT,400,BKN,1100,OVC,1600,,,LIFR,-1.2,,,,,0.05,0.08,,,,,METAR,262.0
KPIR 122053Z AUTO 33003KT 10SM OVC009 M08/M09 A3033 RMK AO2 SLP300 T10781094 55016,KPIR,2019-01-12T20:53:00Z,44.38,-100.28,-7.8,-9.4,330,3,,10.0,30.33071,1030.0,,TRUE,TRUE,,,,,,,OVC,900,,,,,,,IFR,-1.6,,,,,,,,,,,METAR,526.0
KPIL 122053Z AUTO 05011G20KT 7SM CLR 22/17 A3004 RMK AO2 SLP173 T02220167 55013 $,KPIL,2019-01-12T20:53:00Z,26.17,-97.33,22.2,16.7,50,11,20,7.0,30.041338,1017.3,,TRUE,TRUE,TRUE,,,,,,CLR,,,,,,,,VFR,-1.3,,,,,,,,,,,METAR,5.0
KPIH 122053Z 33003KT 8SM BKN008 M03/M05 A3025 RMK AO2 SLP274 T10331050 56015,KPIH,2019-01-12T20:53:00Z,42.92,-112.57,-3.3,-5.0,330,3,,8.0,30.250984,1027.4,,,TRUE,,,,,,,BKN,800,,,,,,,IFR,-1.5,,,,,,,,,,,METAR,1359.0
KPIE 122053Z AUTO 13005KT 10SM FEW055 SCT070 24/14 A3014 RMK AO2 SLP207 T02440139 56016 $,KPIE,2019-01-12T20:53:00Z,27.92,-82.68,24.4,13.9,130,5,,10.0,30.138779,1020.7,,TRUE,TRUE,TRUE,,,,,,FEW,5500,SCT,7000,,,,,VFR,-1.6,,,,,,,,,,,METAR,4.0
KPGD 122053Z 15004KT 10SM FEW060 SCT080 26/13 A3014 RMK AO2 SLP207 T02560133 56014,KPGD,2019-01-12T20:53:00Z,26.92,-82.0,25.6,13.3,150,4,,10.0,30.138779,1020.7,,,TRUE,,,,,,,FEW,6000,SCT,8000,,,,,VFR,-1.4,,,,,,,,,,,METAR,7.0
KPGA 122053Z AUTO 05004KT 10SM CLR 06/M01 A3013 RMK AO2 SLP205 T00561011 56031 TSNO,KPGA,2019-01-12T20:53:00Z,36.92,-111.45,5.6,-1.1,50,4,,10.0,30.129921,1020.5,,TRUE,TRUE,,,TRUE,,,,CLR,,,,,,,,VFR,-3.1,,,,,,,,,,,METAR,1307.0
KPEO 122053Z AUTO 03003KT 10SM OVC075 M06/M12 A3048 RMK AO2 SLP340 T10561122 58005,KPEO,2019-01-12T20:53:00Z,42.65,-77.05,-5.6,-12.2,30,3,,10.0,30.481298,1034.0,,TRUE,TRUE,,,,,,,OVC,7500,,,,,,,VFR,-0.5,,,,,,,,,,,METAR,256.0
KPDX 122053Z 11015KT 10SM SCT200 12/02 A3000 RMK AO2 SLP160 T01220017 58007,KPDX,2019-01-12T20:53:00Z,45.6,-122.62,12.2,1.7,110,15,,10.0,30.0,1016.0,,,TRUE,,,,,,,SCT,20000,,,,,,,VFR,-0.7,,,,,,,,,,,METAR,7.0
KPDK 122053Z AUTO VRB03KT 8SM BKN021 OVC028 05/M02 A3021 RMK AO2 SLP240 T00501017 56023,KPDK,2019-01-12T20:53:00Z,33.88,-84.3,5.0,-1.7,0,3,,8.0,30.209646,1024.0,,TRUE,TRUE,,,,,,,BKN,2100,OVC,2800,,,,,MVFR,-2.3,,,,,,,,,,,METAR,302.0
KPBI 122053Z 10013KT 10SM SCT030 BKN065 BKN250 24/17 A3016 RMK AO2 RAB1958E12 SLP213 VCSH E-SE P0000 60000 T02440167 55006,KPBI,2019-01-12T20:53:00Z,26.68,-80.1,24.4,16.7,100,13,,10.0,30.159449,1021.3,,,TRUE,,,,,,,SCT,3000,BKN,6500,BKN,25000,,,VFR,-0.6,,,,,0.005,0.005,,,,,METAR,6.0
KPBG 122053Z AUTO VRB03KT 10SM CLR M08/M18 A3052 RMK AO2 SLP340 T10831178 51003,KPBG,2019-01-12T20:53:00Z,44.65,-73.47,-8.3,-17.8,0,3,,10.0,30.519686,1034.0,,TRUE,TRUE,,,,,,,CLR,,,,,,,,VFR,0.3,,,,,,,,,,,METAR,72.0
KPBF 122053Z AUTO 25008KT 10SM OVC006 11/09 A2991 RMK AO2 SLP129 T01110094 55006,KPBF,2019-01-12T20:53:00Z,34.18,-91.93,11.1,9.4,250,8,,10.0,29.911417,1012.9,,TRUE,TRUE,,,,,,,OVC,600,,,,,,,IFR,-0.6,,,,,,,,,,,METAR,62.0
KPAE 122053Z 12007KT 10SM CLR 13/00 A3000 RMK AO2 SLP160 T01330000 51001,KPAE,2019-01-12T20:53:00Z,47.92,-122.28,13.3,0.0,120,7,,10.0,30.0,1016.0,,,TRUE,,,,,,,CLR,,,,,,,,VFR,0.1,,,,,,,,,,,METAR,180.0
KOXB 122053Z AUTO 01005KT 10SM BKN070 OVC085 02/M05 A3051 RMK AO2 SLP331 T00171050 56001,KOXB,2019-01-12T20:53:00Z,38.32,-75.12,1.7,-5.0,10,5,,10.0,30.510826,1033.1,,TRUE,TRUE,,,,,,,BKN,7000,OVC,8500,,,,,VFR,-0.1,,,,,,,,,,,METAR,3.0
KOWD 122053Z 30009KT 10SM CLR M02/M18 A3044 RMK AO2 SLP309 T10171183 53005,KOWD,2019-01-12T20:53:00Z,42.18,-71.17,-1.7,-18.3,300,9,,10.0,30.43996,1030.9,,,TRUE,,,,,,,CLR,,,,,,,,VFR,0.5,,,,,,,,,,,METAR,19.0
KELM 122053Z 02005KT 10SM FEW065 OVC090 M04/M12 A3046 RMK AO2 SLP329 T10391122 58009,KELM,2019-01-12T20:53:00Z,42.15,-76.9,-3.9,-12.2,20,5,,10.0,30.46063,1032.9,,,TRUE,,,,,,,FEW,6500,OVC,9000,,,,,VFR,-0.9,,,,,,,,,,,METAR,302.0
KELD 122053Z AUTO 29015G20KT 10SM BKN034 BKN042 14/08 A2994 RMK AO2 SLP139 T01390078 53010,KELD,2019-01-12T20:53:00Z,33.22,-92.82,13.9,7.8,290,15,20,10.0,29.940945,1013.9,,TRUE,TRUE,,,,,,,BKN,3400,BKN,4200,,,,,VFR,1.0,,,,,,,,,,,METAR,81.0
KEEO 122053Z AUTO 22007KT 10SM CLR M01/M06 A3016 RMK AO2 SLP237 T10111061 56020,KEEO,2019-01-12T20:53:00Z,40.05,-107.88,-1.1,-6.1,220,7,,10.0,30.159449,1023.7,,TRUE,TRUE,,,,,,,CLR,,,,,,,,VFR,-2.0,,,,,,,,,,,METAR,1930.0
KECP 122053Z 13014G19KT 10SM SCT023 19/15 A3010 RMK AO2 SLP205 T01940150 56016,KECP,2019-01-12T20:53:00Z,30.35,-85.8,19.4,15.0,130,14,19,10.0,30.100393,1020.5,,,TRUE,,,,,,,SCT,2300,,,,,,,VFR,-1.6,,,,,,,,,,,METAR,21.0
KDXR 122053Z 30006KT 10SM BKN100 M02/M13 A3047 RMK AO2 SLP326 T10221128 58001,KDXR,2019-01-12T20:53:00Z,41.37,-73.48,-2.2,-12.8,300,6,,10.0,30.469488,1032.6,,,TRUE,,,,,,,BKN,10000,,,,,,,VFR,-0.1,,,,,,,,,,,METAR,139.0
KDWH 122053Z 31012KT 10SM CLR 17/06 A3006 RMK AO2 SLP176 T01670061 55003,KDWH,2019-01-12T20:53:00Z,30.07,-95.55,16.7,6.1,310,12,,10.0,30.059055,1017.6,,,TRUE,,,,,,,CLR,,,,,,,,VFR,-0.3,,,,,,,,,,,METAR,46.0
KDVT 122053Z 13009KT 10SM CLR 18/M01 A2999 RMK AO2 SLP145 T01831011 56034,KDVT,2019-01-12T20:53:00Z,33.68,-112.07,18.3,-1.1,130,9,,10.0,29.991142,1014.5,,,TRUE,,,,,,,CLR,,,,,,,,VFR,-3.4,,,,,,,,,,,METAR,443.0
KDUJ 122053Z AUTO 11007KT 10SM CLR M03/M12 A3033 RMK AO2 SLP298 T10281117 55007 $,KDUJ,2019-01-12T20:53:00Z,41.17,-78.9,-2.8,-11.7,110,7,,10.0,30.33071,1029.8,,TRUE,TRUE,TRUE,,,,,,CLR,,,,,,,,VFR,-0.7,,,,,,,,,,,METAR,554.0
KDTW 122053Z 07012KT 10SM BKN025 OVC070 M01/M08 A3040 RMK AO2 SLP304 T10111078 56007,KDTW,2019-01-12T20:53:00Z,42.23,-83.33,-1.1,-7.8,70,12,,10.0,30.398623,1030.4,,,TRUE,,,,,,,BKN,2500,OVC,7000,,,,,MVFR,-0.7,,,,,,,,,,,METAR,195.0
KDTS 122053Z 13009KT 10SM OVC065 19/16 A3007 RMK AO2 SLP183 T01890161 56017,KDTS,2019-01-12T20:53:00Z,30.4,-86.47,18.9,16.1,130,9,,10.0,30.070866,1018.3,,,TRUE,,,,,,,OVC,6500,,,,,,,VFR,-1.7,,,,,,,,,,,METAR,5.0
KDTO 122053Z 32015G23KT 10SM OVC031 07/02 A3012 RMK AO2 PK WND 31027/2016 SLP198 T00720017 53010,KDTO,2019-01-12T20:53:00Z,33.2,-97.2,7.2,1.7,320,15,23,10.0,30.121063,1019.8,,,TRUE,,,,,,,OVC,3100,,,,,,,VFR,1.0,,,,,,,,,,,METAR,196.0
KDTN 122053Z 27014G22KT 10SM SCT043 14/04 A2999 RMK AO2 SLP154 T01440044 53014,KDTN,2019-01-12T20:53:00Z,32.55,-93.75,14.4,4.4,270,14,22,10.0,29.991142,1015.4,,,TRUE,,,,,,,SCT,4300,,,,,,,VFR,1.4,,,,,,,,,,,METAR,53.0
KDRT 122053Z AUTO 31016G23KT 10SM CLR 19/03 A3014 RMK AO2 SLP199 T01890033 56018,KDRT,2019-01-12T20:53:00Z,29.37,-100.92,18.9,3.3,310,16,23,10.0,30.138779,1019.9,,TRUE,TRUE,,,,,,,CLR,,,,,,,,VFR,-1.8,,,,,,,,,,,METAR,313.0
KDNL 122053Z AUTO 05006KT 10SM BKN060 OVC080 09/01 A3029 RMK AO2 SLP258 T00940006 56017 TSNO,KDNL,2019-01-12T20:53:00Z,33.47,-82.03,9.4,0.6,50,6,,10.0,30.28937,1025.8,,TRUE,TRUE,,,TRUE,,,,BKN,6000,OVC,8000,,,,,VFR,-1.7,,,,,,,,,,,METAR,130.0
KDMN 122053Z AUTO 10007KT 10SM FEW049 12/M04 A3013 RMK AO2 SLP186 T01171039 56030,KDMN,2019-01-12T20:53:00Z,32.27,-107.72,11.7,-3.9,100,7,,10.0,30.129921,1018.6,,TRUE,TRUE,,,,,,,FEW,4900,,,,,,,VFR,-3.0,,,,,,,,,,,METAR,1311.0
KDLS 122053Z AUTO 08007KT 10SM OVC020 05/03 A3021 RMK AO2 SLP232 T00500028 58008,KDLS,2019-01-12T20:53:00Z,45.62,-121.17,5.0,2.8,80,7,,10.0,30.209646,1023.2,,TRUE,TRUE,,,,,,,OVC,2000,,,,,,,MVFR,-0.8,,,,,,,,,,,METAR,71.0
KDLN 122053Z AUTO 20005KT 10SM CLR M01/M10 A3017 RMK AO2 SLP271 T10111100 56020,KDLN,2019-01-12T20:53:00Z,45.25,-112.55,-1.1,-10.0,200,5,,10.0,30.171259,1027.1,,TRUE,TRUE,,,,,,,CLR,,,,,,,,VFR,-2.0,,,,,,,,,,,METAR,1591.0
KDKK 122053Z AUTO 08007KT 10SM OVC065 M03/M12 A3045 RMK AO2 SLP324 T10331117 56012,KDKK,2019-01-12T20:53:00Z,42.5,-79.28,-3.3,-11.7,80,7,,10.0,30.448818,1032.4,,TRUE,TRUE,,,,,,,OVC,6500,,,,,,,VFR,-1.2,,,,,,,,,,,METAR,202.0
KDHT 122053Z AUTO 02012G19KT 10SM SCT032 08/M01 A3018 RMK AO2 SLP218 T00781011 56012,KDHT,2019-01-12T20:53:00Z,36.02,-102.55,7.8,-1.1,20,12,19,10.0,30.180119,1021.8,,TRUE,TRUE,,,,,,,SCT,3200,,,,,,,VFR,-1.2,,,,,,,,,,,METAR,1217.0
KDHN 122053Z 14009KT 10SM SCT037 BKN120 17/12 A3013 RMK AO2 RAE44 SLP201 P0000 60000 T01720117 56022,KDHN,2019-01-12T20:53:00Z,31.32,-85.45,17.2,11.7,140,9,,10.0,30.129921,1020.1,,,TRUE,,,,,,,SCT,3700,BKN,12000,,,,,VFR,-2.2,,,,,0.005,0.005,,,,,METAR,113.0
KDGW 122053Z AUTO 30006KT 10SM CLR 06/M03 A3015 RMK AO2 SLP234 I3000 T00561028 56022,KDGW,2019-01-12T20:53:00Z,42.8,-105.38,5.6,-2.8,300,6,,10.0,30.15059,1023.4,,TRUE,TRUE,,,,,,,CLR,,,,,,,,VFR,-2.2,,,,,,,,,,,METAR,1499.0
KDFW 122053Z 32015G25KT 10SM OVC030 07/01 A3010 RMK AO2 PK WND 32028/2009 SLP192 T00720011 53010,KDFW,2019-01-12T20:53:00Z,32.9,-97.02,7.2,1.1,320,15,25,10.0,30.100393,1019.2,,,TRUE,,,,,,,OVC,3000,,,,,,,MVFR,1.0,,,,,,,,,,,METAR,174.0
KDFI 122053Z AUTO 07008KT 1/2SM SN FZFG VV010 M03/M05 A3034 RMK AO2 SLP285 P0001 60002 T10331050 58003,KDFI,2019-01-12T20:53:00Z,41.33,-84.43,-3.3,-5.0,70,8,,0.5,30.339567,1028.5,,TRUE,TRUE,,,,,,SN FZFG,OVX,0,,,,,,,LIFR,-0.3,,,,,0.01,0.02,,,,1000,METAR,219.0
KDEW 122053Z AUTO 03008KT 10SM CLR 03/M01 A3020 RMK AO2 SLP245 T00331011 56011,KDEW,2019-01-12T20:53:00Z,47.97,-117.43,3.3,-1.1,30,8,,10.0,30.200787,1024.5,,TRUE,TRUE,,,,,,,CLR,,,,,,,,VFR,-1.1,,,,,,,,,,,METAR,674.0
KNUI 122053Z AUTO VRB03KT 10SM OVC050 02/M07 A3050 RMK AO2 SLP327 T00221072 50000,KNUI,2019-01-12T20:53:00Z,38.15,-76.43,2.2,-7.2,0,3,,10.0,30.499016,1032.7,,TRUE,TRUE,,,,,,,OVC,5000,,,,,,,VFR,0.0,,,,,,,,,,,METAR,7.0
KOQT 122053Z AUTO 00000KT 10SM -RA BKN042 OVC060 07/02 A3018 RMK AO2 RAB23 SLP229 P0001 60001 T00670017 56018,KOQT,2019-01-12T20:53:00Z,36.02,-84.23,6.7,1.7,0,0,,10.0,30.180119,1022.9,,TRUE,TRUE,,,,,,-RA,BKN,4200,OVC,6000,,,,,VFR,-1.8,,,,,0.01,0.01,,,,,METAR,277.0
KP92 122053Z AUTO 23003KT A2999 RMK AO1 SLP157 55010 $,KP92,2019-01-12T20:53:00Z,29.57,-91.53,,,230,3,,,29.991142,1015.7,,TRUE,TRUE,TRUE,,,,,,,,,,,,,,,-1.0,,,,,,,,,,,METAR,1.0
TJNR 122053Z AUTO 06009KT 10SM FEW027 26/20 A3007 RMK AO2 SLP181 T02610200 55003,TJNR,2019-01-12T20:53:00Z,18.25,-65.63,26.1,20.0,60,9,,10.0,30.070866,1018.1,,TRUE,TRUE,,,,,,,FEW,2700,,,,,,,VFR,-0.3,,,,,,,,,,,METAR,12.0
KNIP 122053Z 11010KT 10SM SCT040 BKN070 BKN250 21/12 A3021 RMK AO2 SLP224 T02110122 55011,KNIP,2019-01-12T20:53:00Z,30.22,-81.67,21.1,12.2,110,10,,10.0,30.209646,1022.4,,,TRUE,,,,,,,SCT,4000,BKN,7000,BKN,25000,,,VFR,-1.1,,,,,,,,,,,METAR,7.0
KSDB 122053Z AUTO 09010KT 1/4SM -RA FG BKN003 OVC010 05/04 A2998 RMK AO2 RAE15B31 SLP139 P0003 60007 T00500039 56014,KSDB,2019-01-12T20:53:00Z,34.75,-118.72,5.0,3.9,90,10,,0.25,29.97933,1013.9,,TRUE,TRUE,,,,,,-RA FG,BKN,300,OVC,1000,,,,,LIFR,-1.4,,,,,0.03,0.07,,,,,METAR,1377.0
KPUC 122053Z AUTO 00000KT 10SM CLR 03/M06 A3014 RMK AO2 SLP235 T00281056 56021,KPUC,2019-01-12T20:53:00Z,39.62,-110.75,2.8,-5.6,0,0,,10.0,30.138779,1023.5,,TRUE,TRUE,,,,,,,CLR,,,,,,,,VFR,-2.1,,,,,,,,,,,METAR,2091.0
KTCL 122053Z 15008KT 3SM -RA BR BKN011 BKN020 OVC029 11/09 A3000 RMK AO2 SLP157 P0014 60032 T01060089 55000,KTCL,2019-01-12T20:53:00Z,33.22,-87.62,10.6,8.9,150,8,,3.0,30.0,1015.7,,,TRUE,,,,,,-RA BR,BKN,1100,BKN,2000,OVC,2900,,,MVFR,0.0,,,,,0.14,0.32,,,,,METAR,49.0
KTCC 122053Z AUTO 01008KT 10SM BKN047 09/M01 A3017 RMK AO2 SLP211 T00891006 55021,KTCC,2019-01-12T20:53:00Z,35.18,-103.6,8.9,-0.6,10,8,,10.0,30.171259,1021.1,,TRUE,TRUE,,,,,,,BKN,4700,,,,,,,VFR,-2.1,,,,,,,,,,,METAR,1235.0
KSWO 122053Z 34014G19KT 10SM OVC018 03/M01 A3009 RMK AO2 SLP193 T00331006 53016,KSWO,2019-01-12T20:53:00Z,36.17,-97.08,3.3,-0.6,340,14,19,10.0,30.088583,1019.3,,,TRUE,,,,,,,OVC,1800,,,,,,,MVFR,1.6,,,,,,,,,,,METAR,290.0
KSTS 122053Z 13003KT 10SM SCT023 16/10 A2993 RMK AO2 SLP128 T01560100 58023,KSTS,2019-01-12T20:53:00Z,38.5,-122.82,15.6,10.0,130,3,,10.0,29.929134,1012.8,,,TRUE,,,,,,,SCT,2300,,,,,,,VFR,-2.3,,,,,,,,,,,METAR,39.0
KSTP 122053Z 07005KT 6SM HZ OVC060 M01/M06 A3039 RMK AO2 SLP299 T10061061 53001,KSTP,2019-01-12T20:53:00Z,44.93,-93.05,-0.6,-6.1,70,5,,6.0,30.389763,1029.9,,,TRUE,,,,,,HZ,OVC,6000,,,,,,,VFR,0.1,,,,,,,,,,,METAR,219.0
KSTJ 122053Z 01012KT 1SM -SN BR FEW011 OVC041 M01/M02 A3012 RMK AO2 SLP208 P0000 60000 T10111017 53002 RVRNO,KSTJ,2019-01-12T20:53:00Z,39.77,-94.92,-1.1,-1.7,10,12,,1.0,30.121063,1020.8,,,TRUE,,,,,,-SN BR,FEW,1100,OVC,4100,,,,,IFR,0.2,,,,,0.005,0.005,,,,,METAR,247.0
KSTC 122053Z 11006KT 9SM FEW021 OVC050 M02/M06 A3036 RMK AO2 SLP308 T10171061 55002,KSTC,2019-01-12T20:53:00Z,45.55,-94.05,-1.7,-6.1,110,6,,9.0,30.360237,1030.8,,,TRUE,,,,,,,FEW,2100,OVC,5000,,,,,VFR,-0.2,,,,,,,,,,,METAR,314.0
KGNV 122053Z 13006KT 10SM SCT065 BKN075 23/13 A3020 RMK AO2 SLP225 T02280128 55013,KGNV,2019-01-12T20:53:00Z,29.7,-82.28,22.8,12.8,130,6,,10.0,30.200787,1022.5,,,TRUE,,,,,,,SCT,6500,BKN,7500,,,,,VFR,-1.3,,,,,,,,,,,METAR,45.0
KGMU 122053Z 06011KT 10SM OVC035 04/M04 A3031 RMK AO2 SLP271 60000 T00391039 58020,KGMU,2019-01-12T20:53:00Z,34.85,-82.35,3.9,-3.9,60,11,,10.0,30.31004,1027.1,,,TRUE,,,,,,,OVC,3500,,,,,,,VFR,-2.0,,,,,,0.005,,,,,METAR,315.0
KGLR 122053Z AUTO 06009KT 8SM OVC018 M07/M08 A3045 RMK AO2 SLP338 T10671083 56006,KGLR,2019-01-12T20:53:00Z,45.02,-84.68,-6.7,-8.3,60,9,,8.0,30.448818,1033.8,,TRUE,TRUE,,,,,,,OVC,1800,,,,,,,MVFR,-0.6,,,,,,,,,,,METAR,407.0
KGLH 122053Z 19008KT 10SM BKN015 OVC023 14/12 A2990 RMK AO2 SLP133 T01390122 56013,KGLH,2019-01-12T20:53:00Z,33.5,-90.98,13.9,12.2,190,8,,10.0,29.899607,1013.3,,,TRUE,,,,,,,BKN,1500,OVC,2300,,,,,MVFR,-1.3,,,,,,,,,,,METAR,45.0
KGKY 122053Z 30016G21KT 10SM OVC030 08/02 A3013 RMK AO2 SLP200 T00780022 51012,KGKY,2019-01-12T20:53:00Z,32.67,-97.1,7.8,2.2,300,16,21,10.0,30.129921,1020.0,,,TRUE,,,,,,,OVC,3000,,,,,,,MVFR,1.2,,,,,,,,,,,METAR,192.0
KGKJ 122053Z AUTO 05006KT 10SM CLR M02/M13 A3034 RMK AO2 SLP296 T10221128 56013 TSNO,KGKJ,2019-01-12T20:53:00Z,41.63,-80.22,-2.2,-12.8,50,6,,10.0,30.339567,1029.6,,TRUE,TRUE,,,TRUE,,,,CLR,,,,,,,,VFR,-1.3,,,,,,,,,,,METAR,428.0
KGJT 122053Z 08004KT 7SM FEW100 01/M02 A3016 RMK AO2 SLP225 T00111017 56021,KGJT,2019-01-12T20:53:00Z,39.12,-108.52,1.1,-1.7,80,4,,7.0,30.159449,1022.5,,,TRUE,,,,,,,FEW,10000,,,,,,,VFR,-2.1,,,,,,,,,,,METAR,1475.0
KGIF 122053Z AUTO 15007KT 10SM FEW060 SCT070 25/13 A3017 RMK AO2 SLP213 T02500128 56014 TSNO,KGIF,2019-01-12T20:53:00Z,28.07,-81.75,25.0,12.8,150,7,,10.0,30.171259,1021.3,,TRUE,TRUE,,,TRUE,,,,FEW,6000,SCT,7000,,,,,VFR,-1.4,,,,,,,,,,,METAR,43.0
KGGW 122053Z AUTO 10007KT 10SM CLR M01/M06 A3009 RMK AO2 SLP227 T10061056 56020,KGGW,2019-01-12T20:53:00Z,48.22,-106.62,-0.6,-5.6,100,7,,10.0,30.088583,1022.7,,TRUE,TRUE,,,,,,,CLR,,,,,,,,VFR,-2.0,,,,,,,,,,,METAR,694.0
KGGG 122053Z 31016G25KT 10SM BKN039 11/05 A3003 RMK AO2 SLP168 T01110050 53013,KGGG,2019-01-12T20:53:00Z,32.38,-94.72,11.1,5.0,310,16,25,10.0,30.029528,1016.8,,,TRUE,,,,,,,BKN,3900,,,,,,,VFR,1.3,,,,,,,,,,,METAR,107.0
KGFL 122053Z AUTO 35009KT 10SM CLR M06/M18 A3049 RMK AO2 SLP336 T10561178 58001,KGFL,2019-01-12T20:53:00Z,43.33,-73.62,-5.6,-17.8,350,9,,10.0,30.490158,1033.6,,TRUE,TRUE,,,,,,,CLR,,,,,,,,VFR,-0.1,,,,,,,,,,,METAR,103.0
KGFK 122053Z 35003KT 10SM FEW007 OVC013 M07/M08 A3041 RMK AO2 SLP316 T10671078 55007,KGFK,2019-01-12T20:53:00Z,47.95,-97.18,-6.7,-7.8,350,3,,10.0,30.410433,1031.6,,,TRUE,,,,,,,FEW,700,OVC,1300,,,,,MVFR,-0.7,,,,,,,,,,,METAR,258.0
KGEY 122053Z AUTO 00000KT 4SM BR OVC002 M03/M04 A3018 RMK AO2 SLP262 T10331039 56021,KGEY,2019-01-12T20:53:00Z,44.52,-108.08,-3.3,-3.9,0,0,,4.0,30.180119,1026.2,,TRUE,TRUE,,,,,,BR,OVC,200,,,,,,,LIFR,-2.1,,,,,,,,,,,METAR,1191.0
KGEG 122053Z 03007KT 8SM BKN005 BKN200 01/M01 A3018 RMK AO2 SLP240 I3000 T00111006 56010,KGEG,2019-01-12T20:53:00Z,47.62,-117.53,1.1,-0.6,30,7,,8.0,30.180119,1024.0,,,TRUE,,,,,,,BKN,500,BKN,20000,,,,,IFR,-1.0,,,,,,,,,,,METAR,735.0
KGCC 122053Z AUTO 19006KT 10SM CLR 06/M02 A3013 RMK AO2 SLP224 T00561022 56015,KGCC,2019-01-12T20:53:00Z,44.33,-105.55,5.6,-2.2,190,6,,10.0,30.129921,1022.4,,TRUE,TRUE,,,,,,,CLR,,,,,,,,VFR,-1.5,,,,,,,,,,,METAR,1320.0
KGAG 122053Z AUTO 33015G20KT 5SM HZ OVC013 02/M01 A3018 RMK AO2 SLP232 T00221011 53004 TSNO,KGAG,2019-01-12T20:53:00Z,36.3,-99.77,2.2,-1.1,330,15,20,5.0,30.180119,1023.2,,TRUE,TRUE,,,TRUE,,,HZ,OVC,1300,,,,,,,MVFR,0.4,,,,,,,,,,,METAR,668.0
KFYV 122053Z AUTO 29005KT 4SM BR OVC009 06/04 A2992 RMK AO2 CIG 006V013 SLP134 60002 T00560039 53006,KFYV,2019-01-12T20:53:00Z,36.02,-94.17,5.6,3.9,290,5,,4.0,29.920275,1013.4,,TRUE,TRUE,,,,,,BR,OVC,900,,,,,,,IFR,0.6,,,,,,0.02,,,,,METAR,379.0
KFXE 122053Z 11008KT 10SM SCT030 25/14 A3015 RMK AO2 SLP210 T02500144 56007,KFXE,2019-01-12T20:53:00Z,26.2,-80.18,25.0,14.4,110,8,,10.0,30.15059,1021.0,,,TRUE,,,,,,,SCT,3000,,,,,,,VFR,-0.7,,,,,,,,,,,METAR,6.0
KFWN 122053Z AUTO VRB04KT 10SM BKN100 M01/M13 A3046 RMK AO2 SLP322 T10111128 58003,KFWN,2019-01-12T20:53:00Z,41.2,-74.63,-1.1,-12.8,0,4,,10.0,30.46063,1032.2,,TRUE,TRUE,,,,,,,BKN,10000,,,,,,,VFR,-0.3,,,,,,,,,,,METAR,133.0
KFVE 122053Z AUTO 31010G21KT 10SM CLR M14/M20 A3017 RMK AO2 SLP242 T11441200 51025,KFVE,2019-01-12T20:53:00Z,47.28,-68.3,-14.4,-20.0,310,10,21,10.0,30.171259,1024.2,,TRUE,TRUE,,,,,,,CLR,,,,,,,,VFR,2.5,,,,,,,,,,,METAR,301.0
KFUL 122053Z 09006KT 10SM SCT050 BKN200 15/11 A2999 RMK AO2 RAE1959 SLP154 P0000 60008 T01500106 58023,KFUL,2019-01-12T20:53:00Z,33.87,-117.98,15.0,10.6,90,6,,10.0,29.991142,1015.4,,,TRUE,,,,,,,SCT,5000,BKN,20000,,,,,VFR,-2.3,,,,,0.005,0.08,,,,,METAR,35.0
KFTY 122053Z 08007KT 10SM OVC024 06/00 A3020 RMK AO2 SLP229 60000 T00610000 55019,KFTY,2019-01-12T20:53:00Z,33.78,-84.52,6.1,0.0,80,7,,10.0,30.200787,1022.9,,,TRUE,,,,,,,OVC,2400,,,,,,,MVFR,-1.9,,,,,,0.005,,,,,METAR,263.0
KFTW 122053Z 29016G24KT 10SM OVC031 07/02 A3013 RMK AO2 PK WND 31026/2033 SLP202 T00720017 51009,KFTW,2019-01-12T20:53:00Z,32.83,-97.37,7.2,1.7,290,16,24,10.0,30.129921,1020.2,,,TRUE,,,,,,,OVC,3100,,,,,,,VFR,0.9,,,,,,,,,,,METAR,214.0
KFST 122053Z AUTO 32012G16KT 10SM CLR 12/01 A3021 RMK AO2 SLP210 T01170011 56019,KFST,2019-01-12T20:53:00Z,30.92,-102.92,11.7,1.1,320,12,16,10.0,30.209646,1021.0,,TRUE,TRUE,,,,,,,CLR,,,,,,,,VFR,-1.9,,,,,,,,,,,METAR,918.0
KFRG 122053Z VRB06KT 10SM CLR M01/M13 A3049 RMK AO2 SLP326 T10061128 56001,KFRG,2019-01-12T20:53:00Z,40.73,-73.42,-0.6,-12.8,0,6,,10.0,30.490158,1032.6,,,TRUE,,,,,,,CLR,,,,,,,,VFR,-0.1,,,,,,,,,,,METAR,21.0
KFPR 122053Z 10011KT 10SM CLR 24/14 A3017 RMK AO2 SLP217 T02390139 55005,KFPR,2019-01-12T20:53:00Z,27.5,-80.38,23.9,13.9,100,11,,10.0,30.171259,1021.7,,,TRUE,,,,,,,CLR,,,,,,,,VFR,-0.5,,,,,,,,,,,METAR,13.0
KCHO 122053Z 03005KT 1 1/2SM -SN OVC029 M01/M04 A3044 RMK AO2 SNE10B37 SLP313 P0000 60000 T10061044 58007,KCHO,2019-01-12T20:53:00Z,38.13,-78.45,-0.6,-4.4,30,5,,1.5,30.43996,1031.3,,,TRUE,,,,,,-SN,OVC,2900,,,,,,,IFR,-0.7,,,,,0.005,0.005,,,,,METAR,192.0
KCHA 122053Z 17006KT 10SM -RA OVC029 08/M03 A3015 RMK AO2 RAB50 SLP211 P0000 60000 T00781033 56015,KCHA,2019-01-12T20:53:00Z,35.03,-85.2,7.8,-3.3,170,6,,10.0,30.15059,1021.1,,,TRUE,,,,,,-RA,OVC,2900,,,,,,,MVFR,-1.5,,,,,0.005,0.005,,,,,METAR,210.0
KCEZ 122053Z AUTO 00000KT 10SM OVC022 01/M03 A3015 RMK AO2 SNE1958 SLP232 P0000 60000 T00061033 56019,KCEZ,2019-01-12T20:53:00Z,37.3,-108.63,0.6,-3.3,0,0,,10.0,30.15059,1023.2,,TRUE,TRUE,,,,,,,OVC,2200,,,,,,,MVFR,-1.9,,,,,0.005,0.005,,,,,METAR,1797.0
KCEW 122053Z AUTO 18005KT 10SM BKN055 19/14 A3009 RMK AO2 SLP187 T01890144 56023,KCEW,2019-01-12T20:53:00Z,30.78,-86.52,18.9,14.4,180,5,,10.0,30.088583,1018.7,,TRUE,TRUE,,,,,,,BKN,5500,,,,,,,VFR,-2.3,,,,,,,,,,,METAR,55.0
KCDW 122053Z VRB05KT 10SM CLR 00/M16 A3049 RMK AO2 SLP331 T00001161 58003,KCDW,2019-01-12T20:53:00Z,40.88,-74.28,0.0,-16.1,0,5,,10.0,30.490158,1033.1,,,TRUE,,,,,,,CLR,,,,,,,,VFR,-0.3,,,,,,,,,,,METAR,64.0
KCDS 122053Z AUTO 36019KT 10SM FEW033 08/M01 A3018 RMK AO2 PK WND 34027/2006 SLP223 T00831006 53001,KCDS,2019-01-12T20:53:00Z,34.43,-100.28,8.3,-0.6,360,19,,10.0,30.180119,1022.3,,TRUE,TRUE,,,,,,,FEW,3300,,,,,,,VFR,0.1,,,,,,,,,,,METAR,594.0
KCDR 122053Z AUTO 00000KT 10SM OVC004 M01/M02 A3020 RMK AO2 SLP270 I1001 I3001 T10111017 56020 $,KCDR,2019-01-12T20:53:00Z,42.83,-103.1,-1.1,-1.7,0,0,,10.0,30.200787,1027.0,,TRUE,TRUE,TRUE,,,,,,OVC,400,,,,,,,LIFR,-2.0,,,,,,,,,,,METAR,1010.0
KCDC 122053Z AUTO 03006KT 10SM OVC007 M03/M04 A3012 RMK AO2 SLP222 T10281044 56027,KCDC,2019-01-12T20:53:00Z,37.7,-113.1,-2.8,-4.4,30,6,,10.0,30.121063,1022.2,,TRUE,TRUE,,,,,,,OVC,700,,,,,,,IFR,-2.7,,,,,,,,,,,METAR,1714.0
KCCR 122053Z 06009KT 10SM FEW065 16/08 A2996 RMK AO2 SLP132 T01560078 58021,KCCR,2019-01-12T20:53:00Z,38.0,-122.05,15.6,7.8,60,9,,10.0,29.958662,1013.2,,,TRUE,,,,,,,FEW,6500,,,,,,,VFR,-2.1,,,,,,,,,,,METAR,11.0
KCAG 122053Z AUTO 25005KT 10SM OVC008 M04/M06 A3020 RMK AO2 SLP271 T10391061 56016,KCAG,2019-01-12T20:53:00Z,40.5,-107.52,-3.9,-6.1,250,5,,10.0,30.200787,1027.1,,TRUE,TRUE,,,,,,,OVC,800,,,,,,,IFR,-1.6,,,,,,,,,,,METAR,1887.0
KBYG 122053Z AUTO 16012KT 10SM CLR 07/M06 A3011 RMK AO2 SLP207 T00671061 56015,KBYG,2019-01-12T20:53:00Z,44.38,-106.72,6.7,-6.1,160,12,,10.0,30.109253,1020.7,,TRUE,TRUE,,,,,,,CLR,,,,,,,,VFR,-1.5,,,,,,,,,,,METAR,1497.0
KTHV 122053Z AUTO 01004KT 10SM BKN050 OVC060 00/M08 A3046 RMK AO2 SLP324 T00001078 56007,KTHV,2019-01-12T20:53:00Z,39.92,-76.88,0.0,-7.8,10,4,,10.0,30.46063,1032.4,,TRUE,TRUE,,,,,,,BKN,5000,OVC,6000,,,,,VFR,-0.7,,,,,,,,,,,METAR,144.0
KTDZ 122053Z AUTO 09009KT 3/4SM -SN BR FEW007 OVC017 M02/M04 A3038 RMK AO2 SLP297 P0000 60000 T10221044 58006,KTDZ,2019-01-12T20:53:00Z,41.57,-83.48,-2.2,-4.4,90,9,,0.75,30.380905,1029.7,,TRUE,TRUE,,,,,,-SN BR,FEW,700,OVC,1700,,,,,LIFR,-0.6,,,,,0.005,0.005,,,,,METAR,189.0
KTCS 122053Z AUTO 13006KT 10SM CLR 10/M03 A3014 RMK AO2 SLP182 T01001033 56028,KTCS,2019-01-12T20:53:00Z,33.23,-107.27,10.0,-3.3,130,6,,10.0,30.138779,1018.2,,TRUE,TRUE,,,,,,,CLR,,,,,,,,VFR,-2.8,,,,,,,,,,,METAR,1469.0
KCQC 122053Z AUTO 15007KT 10SM BKN035 OVC042 03/M05 A3018 RMK AO2 SLP220 T00281050 56017,KCQC,2019-01-12T20:53:00Z,35.0,-105.67,2.8,-5.0,150,7,,10.0,30.180119,1022.0,,TRUE,TRUE,,,,,,,BKN,3500,OVC,4200,,,,,VFR,-1.7,,,,,,,,,,,METAR,2160.0
KMPO 122053Z AUTO 31006KT 10SM BKN055 M05/M14 A3037 RMK AO2 SLP320 T10501144 58004,KMPO,2019-01-12T20:53:00Z,41.13,-75.38,-5.0,-14.4,310,6,,10.0,30.369095,1032.0,,TRUE,TRUE,,,,,,,BKN,5500,,,,,,,VFR,-0.4,,,,,,,,,,,METAR,577.0
KMOD 122053Z VRB05KT 9SM CLR 14/08 A2997 RMK AO2 SLP150 T01390083 58022,KMOD,2019-01-12T20:53:00Z,37.62,-120.95,13.9,8.3,0,5,,9.0,29.970472,1015.0,,,TRUE,,,,,,,CLR,,,,,,,,VFR,-2.2,,,,,,,,,,,METAR,29.0
KMNN 122053Z AUTO 07011KT 3/4SM -SN BR FEW005 OVC020 M02/M04 A3030 RMK AO2 SLP274 P0002 60004 T10221039 56016 $,KMNN,2019-01-12T20:53:00Z,40.62,-83.07,-2.2,-3.9,70,11,,0.75,30.301182,1027.4,,TRUE,TRUE,TRUE,,,,,-SN BR,FEW,500,OVC,2000,,,,,LIFR,-1.6,,,,,0.02,0.04,,,,,METAR,301.0
KMMV 122053Z AUTO 35005KT 10SM CLR 12/03 A2999 RMK AO2 SLP155 T01170033 58008,KMMV,2019-01-12T20:53:00Z,45.2,-123.13,11.7,3.3,350,5,,10.0,29.991142,1015.5,,TRUE,TRUE,,,,,,,CLR,,,,,,,,VFR,-0.8,,,,,,,,,,,METAR,48.0
KMMK 122053Z AUTO VRB05KT 10SM SCT100 M02/M13 A3047 RMK AO2 SLP321 T10171133 57001,KMMK,2019-01-12T20:53:00Z,41.52,-72.83,-1.7,-13.3,0,5,,10.0,30.469488,1032.1,,TRUE,TRUE,,,,,,,SCT,10000,,,,,,,VFR,-0.1,,,,,,,,,,,METAR,31.0
KMLU 122053Z 27015KT 10SM FEW026 BKN035 17/12 A2994 RMK AO2 SLP137 T01670117 55006 $,KMLU,2019-01-12T20:53:00Z,32.52,-92.03,16.7,11.7,270,15,,10.0,29.940945,1013.7,,,TRUE,TRUE,,,,,,FEW,2600,BKN,3500,,,,,VFR,-0.6,,,,,,,,,,,METAR,29.0
KMLT 122053Z AUTO 28009G17KT 240V310 10SM CLR M14/M19 A3029 RMK AO2 SLP272 T11391194 51019,KMLT,2019-01-12T20:53:00Z,45.65,-68.7,-13.9,-19.4,280,9,17,10.0,30.28937,1027.2,,TRUE,TRUE,,,,,,,CLR,,,,,,,,VFR,1.9,,,,,,,,,,,METAR,123.0
KMLS 122053Z AUTO 03007KT 10SM CLR 02/M03 A3015 RMK AO2 SLP241 T00171033 56016,KMLS,2019-01-12T20:53:00Z,46.43,-105.88,1.7,-3.3,30,7,,10.0,30.15059,1024.1,,TRUE,TRUE,,,,,,,CLR,,,,,,,,VFR,-1.6,,,,,,,,,,,METAR,801.0
KMLP 122053Z AUTO 16006KT 10SM CLR 03/M10 A3012 RMK AO2 SLP167 T00281100 58010 $,KMLP,2019-01-12T20:53:00Z,47.45,-115.67,2.8,-10.0,160,6,,10.0,30.121063,1016.7,,TRUE,TRUE,TRUE,,,,,,CLR,,,,,,,,VFR,-1.0,,,,,,,,,,,METAR,1837.0
KMLC 122053Z AUTO 30013G18KT 10SM OVC011 04/02 RMK AO2 SLPNO 60000 T00390022 TSNO $,KMLC,2019-01-12T20:53:00Z,34.88,-95.78,3.9,2.2,300,13,18,10.0,,,,TRUE,TRUE,TRUE,,TRUE,,,,OVC,1100,,,,,,,MVFR,,,,,,,0.005,,,,,METAR,232.0
KMLB 122053Z 13008KT 10SM SCT070 24/13 A3017 RMK AO2 SLP215 T02390133 58009,KMLB,2019-01-12T20:53:00Z,28.1,-80.65,23.9,13.3,130,8,,10.0,30.171259,1021.5,,,TRUE,,,,,,,SCT,7000,,,,,,,VFR,-0.9,,,,,,,,,,,METAR,11.0
KMKO 122053Z AUTO 33016G23KT 10SM OVC013 03/02 A3003 RMK AO2 RAE03 SLP170 P0000 60000 T00330022 53021,KMKO,2019-01-12T20:53:00Z,35.65,-95.37,3.3,2.2,330,16,23,10.0,30.029528,1017.0,,TRUE,TRUE,,,,,,,OVC,1300,,,,,,,MVFR,2.1,,,,,0.005,0.005,,,,,METAR,185.0
KSAC 122053Z VRB05KT 10SM CLR 15/07 A2998 RMK AO2 SLP153 T01500067 58020,KSAC,2019-01-12T20:53:00Z,38.5,-121.5,15.0,6.7,0,5,,10.0,29.97933,1015.3,,,TRUE,,,,,,,CLR,,,,,,,,VFR,-2.0,,,,,,,,,,,METAR,11.0
KRXE 122053Z AUTO 00000KT 10SM CLR M05/M10 A3023 RMK AO2 SLP280 I3001 T10501100 56017,KRXE,2019-01-12T20:53:00Z,43.83,-111.8,-5.0,-10.0,0,0,,10.0,30.230314,1028.0,,TRUE,TRUE,,,,,,,CLR,,,,,,,,VFR,-1.7,,,,,,,,,,,METAR,1480.0
KRWL 122053Z AUTO 23007KT 10SM OVC003 M06/M07 A3019 RMK AO2 SLP289 T10561067 56014,KRWL,2019-01-12T20:53:00Z,41.78,-107.2,-5.6,-6.7,230,7,,10.0,30.188976,1028.9,,TRUE,TRUE,,,,,,,OVC,300,,,,,,,LIFR,-1.4,,,,,,,,,,,METAR,2077.0
KTVR 122053Z AUTO 25007KT 10SM OVC012 14/12 A2994 RMK AO2 SLP146 T01440122 55010,KTVR,2019-01-12T20:53:00Z,32.35,-91.03,14.4,12.2,250,7,,10.0,29.940945,1014.6,,TRUE,TRUE,,,,,,,OVC,1200,,,,,,,MVFR,-1.0,,,,,,,,,,,METAR,26.0
KTVL 122053Z AUTO 03006KT 10SM CLR 04/M03 A3001 RMK AO2 SLP160 T00441033 58018,KTVL,2019-01-12T20:53:00Z,38.9,-120.0,4.4,-3.3,30,6,,10.0,30.008858,1016.0,,TRUE,TRUE,,,,,,,CLR,,,,,,,,VFR,-1.8,,,,,,,,,,,METAR,1924.0
KTVC 122053Z 08009KT 10SM OVC017 M02/M07 A3047 RMK AO2 SLP327 T10221067 55005,KTVC,2019-01-12T20:53:00Z,44.73,-85.57,-2.2,-6.7,80,9,,10.0,30.469488,1032.7,,,TRUE,,,,,,,OVC,1700,,,,,,,MVFR,-0.5,,,,,,,,,,,METAR,190.0
KTUS 122053Z 17007KT 10SM CLR 17/M01 A3002 RMK AO2 SLP146 T01721006 56035,KTUS,2019-01-12T20:53:00Z,32.13,-110.95,17.2,-0.6,170,7,,10.0,30.02067,1014.6,,,TRUE,,,,,,,CLR,,,,,,,,VFR,-3.5,,,,,,,,,,,METAR,776.0
KTUL 122053Z 34017KT 10SM OVC019 03/01 A3005 RMK AO2 SLP177 T00330006 53019,KTUL,2019-01-12T20:53:00Z,36.2,-95.88,3.3,0.6,340,17,,10.0,30.050198,1017.7,,,TRUE,,,,,,,OVC,1900,,,,,,,MVFR,1.9,,,,,,,,,,,METAR,207.0
KTTN 122053Z 28003KT 10SM CLR 01/M14 A3048 RMK AO2 SLP318 T00061139 58005,KTTN,2019-01-12T20:53:00Z,40.28,-74.82,0.6,-13.9,280,3,,10.0,30.481298,1031.8,,,TRUE,,,,,,,CLR,,,,,,,,VFR,-0.5,,,,,,,,,,,METAR,59.0
KTTD 122053Z 09022G32KT 10SM CLR 09/02 A3001 RMK AO2 PK WND 09032/2044 SLP161 T00890022 58006,KTTD,2019-01-12T20:53:00Z,45.55,-122.42,8.9,2.2,90,22,32,10.0,30.008858,1016.1,,,TRUE,,,,,,,CLR,,,,,,,,VFR,-0.6,,,,,,,,,,,METAR,14.0
KTRL 122053Z AUTO 30013G23KT 10SM OVC028 08/02 A3010 RMK AO2 SLP192 T00830017 53013,KTRL,2019-01-12T20:53:00Z,32.72,-96.27,8.3,1.7,300,13,23,10.0,30.100393,1019.2,,TRUE,TRUE,,,,,,,OVC,2800,,,,,,,MVFR,1.3,,,,,,,,,,,METAR,145.0
KTRI 122053Z 07005KT 10SM BKN044 BKN070 OVC090 07/01 A3021 RMK AO2 SLP225 T00670006 56022,KTRI,2019-01-12T20:53:00Z,36.48,-82.4,6.7,0.6,70,5,,10.0,30.209646,1022.5,,,TRUE,,,,,,,BKN,4400,BKN,7000,OVC,9000,,,VFR,-2.2,,,,,,,,,,,METAR,474.0
KTPA 122053Z 14005KT 10SM SCT065 24/13 A3015 RMK AO2 SLP209 T02440128 56015,KTPA,2019-01-12T20:53:00Z,27.97,-82.53,24.4,12.8,140,5,,10.0,30.15059,1020.9,,,TRUE,,,,,,,SCT,6500,,,,,,,VFR,-1.5,,,,,,,,,,,METAR,11.0
KTOR 122053Z AUTO 28006KT 10SM CLR 07/M02 A3015 RMK AO2 SLP220 T00721022 56021,KTOR,2019-01-12T20:53:00Z,42.07,-104.15,7.2,-2.2,280,6,,10.0,30.15059,1022.0,,TRUE,TRUE,,,,,,,CLR,,,,,,,,VFR,-2.1,,,,,,,,,,,METAR,1277.0
KTOP 122053Z 01009KT 7SM OVC011 00/M03 A3011 RMK AO2 SLP203 T00001028 53006,KTOP,2019-01-12T20:53:00Z,39.07,-95.63,0.0,-2.8,10,9,,7.0,30.109253,1020.3,,,TRUE,,,,,,,OVC,1100,,,,,,,MVFR,0.6,,,,,,,,,,,METAR,268.0
KTOI 122053Z AUTO 12006KT 10SM OVC025 15/10 A3009 RMK AO2 SLP187 T01500100 56030,KTOI,2019-01-12T20:53:00Z,31.85,-86.02,15.0,10.0,120,6,,10.0,30.088583,1018.7,,TRUE,TRUE,,,,,,,OVC,2500,,,,,,,MVFR,-3.0,,,,,,,,,,,METAR,118.0
KTMB 122053Z 11010KT 10SM FEW037 SCT055 24/16 A3014 RMK AO2 SLP206 T02440161 56005,KTMB,2019-01-12T20:53:00Z,25.65,-80.43,24.4,16.1,110,10,,10.0,30.138779,1020.6,,,TRUE,,,,,,,FEW,3700,SCT,5500,,,,,VFR,-0.5,,,,,,,,,,,METAR,2.0
KTLH 122053Z 16011KT 10SM BKN050 BKN250 20/12 A3014 RMK AO2 SLP206 T02000122 56017,KTLH,2019-01-12T20:53:00Z,30.4,-84.35,20.0,12.2,160,11,,10.0,30.138779,1020.6,,,TRUE,,,,,,,BKN,5000,BKN,25000,,,,,VFR,-1.7,,,,,,,,,,,METAR,19.0
KTKI 122053Z 30018G24KT 10SM OVC028 07/02 A3010 RMK AO2 SLP203 T00720017 53013,KTKI,2019-01-12T20:53:00Z,33.18,-96.58,7.2,1.7,300,18,24,10.0,30.100393,1020.3,,,TRUE,,,,,,,OVC,2800,,,,,,,MVFR,1.3,,,,,,,,,,,METAR,179.0
KTIW 122053Z 00000KT 10SM SCT001 06/06 A2999 RMK AO2 SLP158 T00610061 58007,KTIW,2019-01-12T20:53:00Z,47.27,-122.58,6.1,6.1,0,0,,10.0,29.991142,1015.8,,,TRUE,,,,,,,SCT,100,,,,,,,VFR,-0.7,,,,,,,,,,,METAR,89.0
KCNM 122053Z AUTO 04005KT 10SM CLR 12/M01 A3020 RMK AO2 SLP212 T01171006 56023,KCNM,2019-01-12T20:53:00Z,32.33,-104.25,11.7,-0.6,40,5,,10.0,30.200787,1021.2,,TRUE,TRUE,,,,,,,CLR,,,,,,,,VFR,-2.3,,,,,,,,,,,METAR,985.0
KCMX 122053Z AUTO 10011KT 9SM -SN BKN018 OVC036 M04/M08 A3049 RMK AO2 SNE24B44 SLP344 P0000 60000 T10441083 58006,KCMX,2019-01-12T20:53:00Z,47.17,-88.48,-4.4,-8.3,100,11,,9.0,30.490158,1034.4,,TRUE,TRUE,,,,,,-SN,BKN,1800,OVC,3600,,,,,MVFR,-0.6,,,,,0.005,0.005,,,,,METAR,326.0
KCLM 122053Z AUTO 10004KT 10SM FEW100 10/04 A2999 RMK AO2 SLP157 T01000044 58002,KCLM,2019-01-12T20:53:00Z,48.12,-123.5,10.0,4.4,100,4,,10.0,29.991142,1015.7,,TRUE,TRUE,,,,,,,FEW,10000,,,,,,,VFR,-0.2,,,,,,,,,,,METAR,85.0
KCLL 122053Z 31015G21KT 10SM CLR 15/06 A3009 RMK AO2 PK WND 32026/1957 SLP188 T01500056 55001,KCLL,2019-01-12T20:53:00Z,30.58,-96.37,15.0,5.6,310,15,21,10.0,30.088583,1018.8,,,TRUE,,,,,,,CLR,,,,,,,,VFR,-0.1,,,,,,,,,,,METAR,96.0
KMFE 122053Z 00000KT 10SM CLR 29/11 A3004 RMK AO2 SLP169 T02940111 56021,KMFE,2019-01-12T20:53:00Z,26.18,-98.25,29.4,11.1,0,0,,10.0,30.041338,1016.9,,,TRUE,,,,,,,CLR,,,,,,,,VFR,-2.1,,,,,,,,,,,METAR,38.0
KMDW 122053Z 08013KT 1/2SM R31C/3500FT SN FZFG OVC007 M01/M03 A3028 RMK AO2 SLP267 P0000 60002 T10111028 56009,KMDW,2019-01-12T20:53:00Z,41.78,-87.75,-1.1,-2.8,80,13,,0.5,30.280512,1026.7,,,TRUE,,,,,,SN FZFG,OVC,700,,,,,,,LIFR,-0.9,,,,,0.005,0.02,,,,,METAR,188.0
KMCW 122053Z AUTO 07012KT 7SM OVC080 M01/M04 A3029 RMK AO2 SLP268 T10061044 55002,KMCW,2019-01-12T20:53:00Z,43.15,-93.33,-0.6,-4.4,70,12,,7.0,30.28937,1026.8,,TRUE,TRUE,,,,,,,OVC,8000,,,,,,,VFR,-0.2,,,,,,,,,,,METAR,369.0
KMCO 122053Z 09008KT 10SM FEW046 BKN070 24/14 A3017 RMK AO2 SLP214 T02390139 56012,KMCO,2019-01-12T20:53:00Z,28.42,-81.33,23.9,13.9,90,8,,10.0,30.171259,1021.4,,,TRUE,,,,,,,FEW,4600,BKN,7000,,,,,VFR,-1.2,,,,,,,,,,,METAR,29.0
KMCN 122053Z 09010KT 10SM BKN042 OVC055 11/04 A3021 RMK AO2 SLP229 T01060044 58021,KMCN,2019-01-12T20:53:00Z,32.68,-83.65,10.6,4.4,90,10,,10.0,30.209646,1022.9,,,TRUE,,,,,,,BKN,4200,OVC,5500,,,,,VFR,-2.1,,,,,,,,,,,METAR,109.0
KMCK 122053Z AUTO 36009KT 10SM OVC011 M02/M04 A3023 RMK AO2 SLP262 T10171039 55007,KMCK,2019-01-12T20:53:00Z,40.2,-100.58,-1.7,-3.9,360,9,,10.0,30.230314,1026.2,,TRUE,TRUE,,,,,,,OVC,1100,,,,,,,MVFR,-0.7,,,,,,,,,,,METAR,782.0
KMCI 122053Z 01013KT 1 1/2SM -SN BLSN BR BKN007 OVC012 M01/M02 A3007 RMK AO2 TWR VIS 3 CIG 006V009 SLP189 P0000 60000 T10111022 51006 $,KMCI,2019-01-12T20:53:00Z,39.3,-94.73,-1.1,-2.2,10,13,,1.5,30.070866,1018.9,,,TRUE,TRUE,,,,,-SN BLSN BR,BKN,700,OVC,1200,,,,,IFR,0.6,,,,,0.005,0.005,,,,,METAR,320.0
KMCE 122053Z AUTO 20004KT 6SM BR CLR 13/11 A2999 RMK AO2 SLP157 T01280111 58015,KMCE,2019-01-12T20:53:00Z,37.28,-120.5,12.8,11.1,200,4,,6.0,29.991142,1015.7,,TRUE,TRUE,,,,,,BR,CLR,,,,,,,,VFR,-1.5,,,,,,,,,,,METAR,47.0
KMAI 122053Z AUTO 15008KT 10SM BKN041 OVC050 19/13 A3010 RMK AO2 SLP193 T01940133 56019,KMAI,2019-01-12T20:53:00Z,30.83,-85.18,19.4,13.3,150,8,,10.0,30.100393,1019.3,,TRUE,TRUE,,,,,,,BKN,4100,OVC,5000,,,,,VFR,-1.9,,,,,,,,,,,METAR,32.0
KMAF 122053Z 35014G19KT 10SM CLR 13/01 A3019 RMK AO2 SLP212 T01280006 56018,KMAF,2019-01-12T20:53:00Z,31.95,-102.2,12.8,0.6,350,14,19,10.0,30.188976,1021.2,,,TRUE,,,,,,,CLR,,,,,,,,VFR,-1.8,,,,,,,,,,,METAR,874.0
KMAE 122053Z AUTO 13007KT 10SM CLR 17/08 A3000 RMK AO2 SLP158 T01720078 56017,KMAE,2019-01-12T20:53:00Z,36.98,-120.12,17.2,7.8,130,7,,10.0,30.0,1015.8,,TRUE,TRUE,,,,,,,CLR,,,,,,,,VFR,-1.7,,,,,,,,,,,METAR,77.0
KLXV 122053Z AUTO 18008KT 10SM BKN046 M07/M10 A3008 RMK AO2 SNE10 SLP191 P0000 60000 T10671100 56018,KLXV,2019-01-12T20:53:00Z,39.23,-106.32,-6.7,-10.0,180,8,,10.0,30.079725,1019.1,,TRUE,TRUE,,,,,,,BKN,4600,,,,,,,VFR,-1.8,,,,,0.005,0.005,,,,,METAR,3028.0
KLXT 122053Z AUTO 01014KT 1/2SM SN FZFG OVC005 M01/M01 A3004 RMK AO2 SLP183 P0000 60007 T10111011 53005,KLXT,2019-01-12T20:53:00Z,38.97,-94.37,-1.1,-1.1,10,14,,0.5,30.041338,1018.3,,TRUE,TRUE,,,,,,SN FZFG,OVC,500,,,,,,,LIFR,0.5,,,,,0.005,0.07,,,,,METAR,306.0
KLWV 122053Z AUTO 07007KT 5SM -RA BR BKN041 OVC050 02/M01 A3012 RMK AO2 UPB24E30RAB30 SLP202 P0001 60001 T00171006 56016,KLWV,2019-01-12T20:53:00Z,38.77,-87.6,1.7,-0.6,70,7,,5.0,30.121063,1020.2,,TRUE,TRUE,,,,,,-RA BR,BKN,4100,OVC,5000,,,,,MVFR,-1.6,,,,,0.01,0.01,,,,,METAR,131.0
KLWD 122053Z AUTO 04015KT 1 1/4SM -SN BR OVC010 M01/M03 A3012 RMK AO2 CIG 007V013 SLP214 P0000 60003 T10111028 53006,KLWD,2019-01-12T20:53:00Z,40.63,-93.9,-1.1,-2.8,40,15,,1.25,30.121063,1021.4,,TRUE,TRUE,,,,,,-SN BR,OVC,1000,,,,,,,IFR,0.6,,,,,0.005,0.03,,,,,METAR,346.0
KLVS 122053Z AUTO 18006KT 10SM BKN065 OVC080 02/M03 A3016 RMK AO2 SLP212 T00171033 56021,KLVS,2019-01-12T20:53:00Z,35.65,-105.13,1.7,-3.3,180,6,,10.0,30.159449,1021.2,,TRUE,TRUE,,,,,,,BKN,6500,OVC,8000,,,,,VFR,-2.1,,,,,,,,,,,METAR,2091.0
KLVM 122053Z AUTO 27015KT 10SM CLR 07/M11 A3011 RMK AO2 SLP227 T00671106 56016,KLVM,2019-01-12T20:53:00Z,45.7,-110.43,6.7,-10.6,270,15,,10.0,30.109253,1022.7,,TRUE,TRUE,,,,,,,CLR,,,,,,,,VFR,-1.6,,,,,,,,,,,METAR,1418.0
KLVK 122053Z 07011KT 9SM CLR 14/09 A2993 RMK AO2 RAB05E44 SLP135 P0000 60000 T01440089 58027,KLVK,2019-01-12T20:53:00Z,37.7,-121.82,14.4,8.9,70,11,,9.0,29.929134,1013.5,,,TRUE,,,,,,,CLR,,,,,,,,VFR,-2.7,,,,,0.005,0.005,,,,,METAR,117.0
KLVJ 122053Z AUTO 29010KT 10SM CLR 19/09 A3005 RMK AO2 SLP176 T01940094 55008,KLVJ,2019-01-12T20:53:00Z,29.52,-95.25,19.4,9.4,290,10,,10.0,30.050198,1017.6,,TRUE,TRUE,,,,,,,CLR,,,,,,,,VFR,-0.8,,,,,,,,,,,METAR,12.0
KLPR 122053Z AUTO 09006KT 1 1/4SM -SN OVC022 M04/M07 A3038 RMK AO2 SLP297 P0000 60000 T10391072 56009,KLPR,2019-01-12T20:53:00Z,41.35,-82.18,-3.9,-7.2,90,6,,1.25,30.380905,1029.7,,TRUE,TRUE,,,,,,-SN,OVC,2200,,,,,,,IFR,-0.9,,,,,0.005,0.005,,,,,METAR,241.0
KLOZ 122053Z AUTO 04005KT 10SM -RA OVC037 03/03 A3016 RMK AO2 SLP221 P0001 60006 T00330033 56019,KLOZ,2019-01-12T20:53:00Z,37.08,-84.07,3.3,3.3,40,5,,10.0,30.159449,1022.1,,TRUE,TRUE,,,,,,-RA,OVC,3700,,,,,,,VFR,-1.9,,,,,0.01,0.06,,,,,METAR,362.0
KLOU 122053Z 07006KT 10SM OVC033 04/00 A3015 RMK AO2 SLP213 T00440000 56021,KLOU,2019-01-12T20:53:00Z,38.22,-85.67,4.4,0.0,70,6,,10.0,30.15059,1021.3,,,TRUE,,,,,,,OVC,3300,,,,,,,VFR,-2.1,,,,,,,,,,,METAR,164.0
KLOL 122053Z AUTO 02011KT 10SM CLR 06/M02 A3010 RMK AO2 SLP203 T00611022 58017,KLOL,2019-01-12T20:53:00Z,40.07,-118.57,6.1,-2.2,20,11,,10.0,30.100393,1020.3,,TRUE,TRUE,,,,,,,CLR,,,,,,,,VFR,-1.7,,,,,,,,,,,METAR,1189.0
KLNS 122053Z 10003KT 10SM SCT049 SCT070 OVC090 00/M12 A3047 RMK AO2 SLP323 T00001122 58010,KLNS,2019-01-12T20:53:00Z,40.12,-76.3,0.0,-12.2,100,3,,10.0,30.469488,1032.3,,,TRUE,,,,,,,SCT,4900,SCT,7000,OVC,9000,,,VFR,-1.0,,,,,,,,,,,METAR,125.0
KLND 122053Z AUTO 00000KT 10SM CLR M07/M10 A3017 RMK AO2 SLP270 T10671100 56017,KLND,2019-01-12T20:53:00Z,42.82,-108.73,-6.7,-10.0,0,0,,10.0,30.171259,1027.0,,TRUE,TRUE,,,,,,,CLR,,,,,,,,VFR,-1.7,,,,,,,,,,,METAR,1694.0
KOVS 122053Z AUTO 08007G15KT 7SM OVC060 02/M04 A3032 RMK AO2 SLP276 T00171044 56006,KOVS,2019-01-12T20:53:00Z,43.15,-90.68,1.7,-4.4,80,7,15,7.0,30.318897,1027.6,,TRUE,TRUE,,,,,,,OVC,6000,,,,,,,VFR,-0.6,,,,,,,,,,,METAR,202.0
KOVE 122053Z AUTO 26004KT 10SM CLR 13/08 A2999 RMK AO2 SLP157 T01330078 58018,KOVE,2019-01-12T20:53:00Z,39.5,-121.62,13.3,7.8,260,4,,10.0,29.991142,1015.7,,TRUE,TRUE,,,,,,,CLR,,,,,,,,VFR,-1.8,,,,,,,,,,,METAR,58.0
KOSU 122053Z 08010KT 3/4SM -SN BR FEW006 OVC018 M02/M03 A3028 RMK AO2 SLP263 P0002 60005 T10171028 58019,KOSU,2019-01-12T20:53:00Z,40.08,-83.08,-1.7,-2.8,80,10,,0.75,30.280512,1026.3,,,TRUE,,,,,,-SN BR,FEW,600,OVC,1800,,,,,LIFR,-1.9,,,,,0.02,0.05,,,,,METAR,280.0
KOSH 122053Z 08010KT 10SM OVC024 M01/M05 A3039 RMK AO2 SLP306 T10061050 53001,KOSH,2019-01-12T20:53:00Z,43.97,-88.55,-0.6,-5.0,80,10,,10.0,30.389763,1030.6,,,TRUE,,,,,,,OVC,2400,,,,,,,MVFR,0.1,,,,,,,,,,,METAR,248.0
KORL 122053Z 12008KT 10SM BKN070 24/13 A3017 RMK AO2 SLP221 T02390133 56013,KORL,2019-01-12T20:53:00Z,28.55,-81.33,23.9,13.3,120,8,,10.0,30.171259,1022.1,,,TRUE,,,,,,,BKN,7000,,,,,,,VFR,-1.3,,,,,,,,,,,METAR,37.0
KOPF 122053Z 11009KT 10SM FEW043 SCT050 25/14 A3016 RMK AO2 SLP212 T02500144 55005,KOPF,2019-01-12T20:53:00Z,25.92,-80.28,25.0,14.4,110,9,,10.0,30.159449,1021.2,,,TRUE,,,,,,,FEW,4300,SCT,5000,,,,,VFR,-0.5,,,,,,,,,,,METAR,16.0
KONT 122053Z 24005KT 5SM -RA FEW023 BKN029 OVC037 11/06 A3001 RMK AO2 RAB29 SLP161 P0004 60004 T01060061 56016,KONT,2019-01-12T20:53:00Z,34.05,-117.58,10.6,6.1,240,5,,5.0,30.008858,1016.1,,,TRUE,,,,,,-RA,FEW,2300,BKN,2900,OVC,3700,,,MVFR,-1.6,,,,,0.04,0.04,,,,,METAR,274.0
KONO 122053Z AUTO 01006KT 10SM OVC028 05/M02 A3029 RMK AO2 SLP274 T00501017 56020,KONO,2019-01-12T20:53:00Z,44.02,-117.02,5.0,-1.7,10,6,,10.0,30.28937,1027.4,,TRUE,TRUE,,,,,,,OVC,2800,,,,,,,MVFR,-2.0,,,,,,,,,,,METAR,667.0
KOMK 122053Z AUTO 00000KT M1/4SM FZFG VV002 M01/M01 A3024 RMK AO2 SLP257 I3000 T10061011 58006,KOMK,2019-01-12T20:53:00Z,48.47,-119.52,-0.6,-1.1,0,0,,0.25,30.239174,1025.7,,TRUE,TRUE,,,,,,FZFG,OVX,0,,,,,,,LIFR,-0.6,,,,,,,,,,200,METAR,395.0
KOLF 122053Z AUTO 07008KT 10SM CLR M01/M06 A3014 RMK AO2 SLP241 T10111061 56026 TSNO,KOLF,2019-01-12T20:53:00Z,48.1,-105.58,-1.1,-6.1,70,8,,10.0,30.138779,1024.1,,TRUE,TRUE,,,TRUE,,,,CLR,,,,,,,,VFR,-2.6,,,,,,,,,,,METAR,604.0
KOGD 122053Z 31005KT 8SM OVC020 M01/M05 A3024 RMK AO2 SLP254 T10111050 56015,KOGD,2019-01-12T20:53:00Z,41.2,-112.02,-1.1,-5.0,310,5,,8.0,30.239174,1025.4,,,TRUE,,,,,,,OVC,2000,,,,,,,MVFR,-1.5,,,,,,,,,,,METAR,1353.0
KOGB 122053Z AUTO 06007KT 10SM OVC080 09/00 A3032 RMK AO2 SLP267 T00890000 56013,KOGB,2019-01-12T20:53:00Z,33.47,-80.85,8.9,0.0,60,7,,10.0,30.318897,1026.7,,TRUE,TRUE,,,,,,,OVC,8000,,,,,,,VFR,-1.3,,,,,,,,,,,METAR,59.0
KODX 122053Z AUTO 36012KT 5SM BR OVC006 M06/M08 A3027 RMK AO2 SLP280 T10611078 55004,KODX,2019-01-12T20:53:00Z,41.62,-98.95,-6.1,-7.8,360,12,,5.0,30.268702,1028.0,,TRUE,TRUE,,,,,,BR,OVC,600,,,,,,,IFR,-0.4,,,,,,,,,,,METAR,631.0
KODO 122053Z AUTO 01011G19KT 10SM CLR 13/M01 A3020 RMK AO2 SLP211 T01281006 56018,KODO,2019-01-12T20:53:00Z,31.92,-102.4,12.8,-0.6,10,11,19,10.0,30.200787,1021.1,,TRUE,TRUE,,,,,,,CLR,,,,,,,,VFR,-1.8,,,,,,,,,,,METAR,902.0
KOAK 122053Z 27004KT 10SM BKN060 BKN100 14/09 A2995 RMK AO2 SLP143 T01390089 58021,KOAK,2019-01-12T20:53:00Z,37.72,-122.23,13.9,8.9,270,4,,10.0,29.949802,1014.3,,,TRUE,,,,,,,BKN,6000,BKN,10000,,,,,VFR,-2.1,,,,,,,,,,,METAR,26.0
KMYV 122053Z AUTO VRB04KT 10SM CLR 16/06 A2999 RMK AO2 SLP158 T01560056 58019,KMYV,2019-01-12T20:53:00Z,39.1,-121.57,15.6,5.6,0,4,,10.0,29.991142,1015.8,,TRUE,TRUE,,,,,,,CLR,,,,,,,,VFR,-1.9,,,,,,,,,,,METAR,21.0
KMYF 122053Z 25009KT 10SM SCT020 SCT028 BKN037 15/09 A2999 RMK AO2 RAB00E17 SLP155 P0000 60002 T01500094 58023,KMYF,2019-01-12T20:53:00Z,32.82,-117.13,15.0,9.4,250,9,,10.0,29.991142,1015.5,,,TRUE,,,,,,,SCT,2000,SCT,2800,BKN,3700,,,VFR,-2.3,,,,,0.005,0.02,,,,,METAR,136.0
KMWL 122053Z AUTO 32020G25KT 10SM OVC031 07/01 A3014 RMK AO2 SLP207 T00720006 53014,KMWL,2019-01-12T20:53:00Z,32.78,-98.07,7.2,0.6,320,20,25,10.0,30.138779,1020.7,,TRUE,TRUE,,,,,,,OVC,3100,,,,,,,VFR,1.4,,,,,,,,,,,METAR,284.0
KMVY 122053Z 28008KT 10SM CLR M02/M14 A3042 RMK AO2 SLP304 T10171139 57001,KMVY,2019-01-12T20:53:00Z,41.4,-70.62,-1.7,-13.9,280,8,,10.0,30.41929,1030.4,,,TRUE,,,,,,,CLR,,,,,,,,VFR,-0.1,,,,,,,,,,,METAR,16.0
KMTO 122053Z AUTO 07011KT 6SM BR SCT008 OVC070 00/M01 A3010 RMK AO2 SLP200 T00001006 56017,KMTO,2019-01-12T20:53:00Z,39.47,-88.27,0.0,-0.6,70,11,,6.0,30.100393,1020.0,,TRUE,TRUE,,,,,,BR,SCT,800,OVC,7000,,,,,VFR,-1.7,,,,,,,,,,,METAR,214.0
KMTJ 122053Z AUTO 10003KT 8SM OVC014 00/M03 A3017 RMK AO2 SNB16E28 SLP224 P0000 60000 T00001033 56020,KMTJ,2019-01-12T20:53:00Z,38.5,-107.9,0.0,-3.3,100,3,,8.0,30.171259,1022.4,,TRUE,TRUE,,,,,,,OVC,1400,,,,,,,MVFR,-2.0,,,,,0.005,0.005,,,,,METAR,1750.0
KMTH 122053Z AUTO 08009KT 10SM FEW032 27/17 A3011 RMK AO2 SLP196 T02670172 55006 $,KMTH,2019-01-12T20:53:00Z,24.73,-81.05,26.7,17.2,80,9,,10.0,30.109253,1019.6,,TRUE,TRUE,TRUE,,,,,,FEW,3200,,,,,,,VFR,-0.6,,,,,,,,,,,METAR,2.0
KMSY 122053Z 16005KT 9SM -RA FEW035 BKN045 BKN075 18/17 A2998 RMK AO2 WSHFT 1940 RAE41B49 SLP154 P0005 60010 T01780167 56001 $,KMSY,2019-01-12T20:53:00Z,30.0,-90.25,17.8,16.7,160,5,,9.0,29.97933,1015.4,,,TRUE,TRUE,,,,,-RA,FEW,3500,BKN,4500,BKN,7500,,,VFR,-0.1,,,,,0.05,0.1,,,,,METAR,5.0
KMSS 122053Z AUTO 25006KT 10SM CLR M11/M20 A3059 RMK AO2 SLP368 T11111200 57000,KMSS,2019-01-12T20:53:00Z,44.93,-74.85,-11.1,-20.0,250,6,,10.0,30.590551,1036.8,,TRUE,TRUE,,,,,,,CLR,,,,,,,,VFR,0.0,,,,,,,,,,,METAR,66.0
KMSP 122053Z 07008KT 6SM HZ FEW018 OVC060 M01/M06 A3037 RMK AO2 SLP297 T10111056 53002,KMSP,2019-01-12T20:53:00Z,44.88,-93.23,-1.1,-5.6,70,8,,6.0,30.369095,1029.7,,,TRUE,,,,,,HZ,FEW,1800,OVC,6000,,,,,VFR,0.2,,,,,,,,,,,METAR,265.0
KIWI 122053Z AUTO VRB05KT 10SM CLR M07/M17 A3038 RMK AO2 SLP288 T10721167 53012,KIWI,2019-01-12T20:53:00Z,43.97,-69.72,-7.2,-16.7,0,5,,10.0,30.380905,1028.8,,TRUE,TRUE,,,,,,,CLR,,,,,,,,VFR,1.2,,,,,,,,,,,METAR,20.0
KITR 122053Z AUTO 33011KT 10SM FEW020 OVC026 03/M01 A3018 RMK AO2 SLP229 T00331006 56010,KITR,2019-01-12T20:53:00Z,39.23,-102.28,3.3,-0.6,330,11,,10.0,30.180119,1022.9,,TRUE,TRUE,,,,,,,FEW,2000,OVC,2600,,,,,MVFR,-1.0,,,,,,,,,,,METAR,1279.0
KIPL 122053Z AUTO 33005KT 10SM CLR 16/09 A2997 RMK AO2 SLP147 T01560094 58032,KIPL,2019-01-12T20:53:00Z,32.83,-115.58,15.6,9.4,330,5,,10.0,29.970472,1014.7,,TRUE,TRUE,,,,,,,CLR,,,,,,,,VFR,-3.2,,,,,,,,,,,METAR,-17.0
KINK 122053Z AUTO 35007KT 10SM CLR 13/M01 A3019 RMK AO2 SLP212 T01331006 56021,KINK,2019-01-12T20:53:00Z,31.78,-103.2,13.3,-0.6,350,7,,10.0,30.188976,1021.2,,TRUE,TRUE,,,,,,,CLR,,,,,,,,VFR,-2.1,,,,,,,,,,,METAR,855.0
KIML 122053Z AUTO 01009KT 10SM OVC015 02/M04 A3020 RMK AO2 SLP251 T00171039 56012,KIML,2019-01-12T20:53:00Z,40.52,-101.62,1.7,-3.9,10,9,,10.0,30.200787,1025.1,,TRUE,TRUE,,,,,,,OVC,1500,,,,,,,MVFR,-1.2,,,,,,,,,,,METAR,998.0
KIDA 122053Z 34004KT 10SM CLR M07/M10 A3025 RMK AO2 SLP290 T10671100 56014,KIDA,2019-01-12T20:53:00Z,43.52,-112.07,-6.7,-10.0,340,4,,10.0,30.250984,1029.0,,,TRUE,,,,,,,CLR,,,,,,,,VFR,-1.4,,,,,,,,,,,METAR,1453.0
KICT 122053Z 36020G28KT 10SM OVC017 01/M02 A3012 RMK AO2 PK WND 34029/2024 SLP211 60000 T00111017 53014 $,KICT,2019-01-12T20:53:00Z,37.65,-97.43,1.1,-1.7,360,20,28,10.0,30.121063,1021.1,,,TRUE,TRUE,,,,,,OVC,1700,,,,,,,MVFR,1.4,,,,,,0.005,,,,,METAR,407.0
KIAH 122053Z 31013G19KT 10SM FEW035 18/08 A3005 RMK AO2 SLP175 T01830078 55002,KIAH,2019-01-12T20:53:00Z,30.0,-95.37,18.3,7.8,310,13,19,10.0,30.050198,1017.5,,,TRUE,,,,,,,FEW,3500,,,,,,,VFR,-0.2,,,,,,,,,,,METAR,36.0
KIAG 122053Z 08009KT 10SM SCT028 OVC080 M06/M11 A3050 RMK AO2 SLP349 T10561111 56005 $,KIAG,2019-01-12T20:53:00Z,43.12,-78.93,-5.6,-11.1,80,9,,10.0,30.499016,1034.9,,,TRUE,TRUE,,,,,,SCT,2800,OVC,8000,,,,,VFR,-0.5,,,,,,,,,,,METAR,182.0
KHZY 122053Z AUTO VRB04KT 10SM CLR M01/M12 A3039 RMK AO2 SLP303 T10111117 56013,KHZY,2019-01-12T20:53:00Z,41.78,-80.7,-1.1,-11.7,0,4,,10.0,30.389763,1030.3,,TRUE,TRUE,,,,,,,CLR,,,,,,,,VFR,-1.3,,,,,,,,,,,METAR,276.0
KHYR 122053Z AUTO 09006KT 10SM OVC015 M02/M06 A3041 RMK AO2 SLP318 T10221056 53003,KHYR,2019-01-12T20:53:00Z,46.02,-91.45,-2.2,-5.6,90,6,,10.0,30.410433,1031.8,,TRUE,TRUE,,,,,,,OVC,1500,,,,,,,MVFR,0.3,,,,,,,,,,,METAR,370.0
KHWO 122053Z AUTO 10008KT 10SM FEW042 26/14 A3016 RMK AO2 SLP213 T02560144 55005,KHWO,2019-01-12T20:53:00Z,26.0,-80.23,25.6,14.4,100,8,,10.0,30.159449,1021.3,,TRUE,TRUE,,,,,,,FEW,4200,,,,,,,VFR,-0.5,,,,,,,,,,,METAR,2.0
KHVR 122053Z AUTO 14006KT 10SM CLR 02/M06 A3006 RMK AO2 SLP213 T00221056 56017,KHVR,2019-01-12T20:53:00Z,48.55,-109.77,2.2,-5.6,140,6,,10.0,30.059055,1021.3,,TRUE,TRUE,,,,,,,CLR,,,,,,,,VFR,-1.7,,,,,,,,,,,METAR,787.0
KHVN 122053Z 31007KT 10SM FEW080 M01/M12 A3048 RMK AO2 SLP321 T10061122 58002,KHVN,2019-01-12T20:53:00Z,41.27,-72.87,-0.6,-12.2,310,7,,10.0,30.481298,1032.1,,,TRUE,,,,,,,FEW,8000,,,,,,,VFR,-0.2,,,,,,,,,,,METAR,4.0
KHUL 122053Z AUTO 27007KT 10SM OVC027 M13/M18 A3022 RMK AO2 SLP248 T11331178 53020 TSNO,KHUL,2019-01-12T20:53:00Z,46.12,-67.8,-13.3,-17.8,270,7,,10.0,30.221457,1024.8,,TRUE,TRUE,,,TRUE,,,,OVC,2700,,,,,,,MVFR,2.0,,,,,,,,,,,METAR,150.0
KHUF 122053Z 09008KT 6SM -SN BR FEW055 OVC075 01/M01 A3014 RMK AO2 UPB23E44SNB44 SLP211 P0000 60000 T00111006 58014,KHUF,2019-01-12T20:53:00Z,39.45,-87.3,1.1,-0.6,90,8,,6.0,30.138779,1021.1,,,TRUE,,,,,,-SN BR,FEW,5500,OVC,7500,,,,,VFR,-1.4,,,,,0.005,0.005,,,,,METAR,179.0
KHTL 122053Z AUTO 06008KT 10SM OVC009 M04/M06 A3044 RMK AO2 SLP329 T10441061 55005,KHTL,2019-01-12T20:53:00Z,44.35,-84.67,-4.4,-6.1,60,8,,10.0,30.43996,1032.9,,TRUE,TRUE,,,,,,,OVC,900,,,,,,,IFR,-0.5,,,,,,,,,,,METAR,351.0
KHSV 122053Z 11011KT 10SM -RA FEW044 SCT060 OVC075 07/04 A3003 RMK AO2 SLP169 P0004 60006 T00720039 56034,KHSV,2019-01-12T20:53:00Z,34.65,-86.78,7.2,3.9,110,11,,10.0,30.029528,1016.9,,,TRUE,,,,,,-RA,FEW,4400,SCT,6000,OVC,7500,,,VFR,-3.4,,,,,0.04,0.06,,,,,METAR,191.0
KHSI 122053Z AUTO 36014KT 5SM BR OVC010 M04/M06 A3023 RMK AO2 SLP260 T10391061 55003,KHSI,2019-01-12T20:53:00Z,40.6,-98.43,-3.9,-6.1,360,14,,5.0,30.230314,1026.0,,TRUE,TRUE,,,,,,BR,OVC,1000,,,,,,,MVFR,-0.3,,,,,,,,,,,METAR,591.0
KHRI 122053Z AUTO 13003KT 10SM OVC005 03/01 A3022 RMK AO2 SLP238 T00280011 55003,KHRI,2019-01-12T20:53:00Z,45.83,-119.27,2.8,1.1,130,3,,10.0,30.221457,1023.8,,TRUE,TRUE,,,,,,,OVC,500,,,,,,,IFR,-0.3,,,,,,,,,,,METAR,195.0
KHQM 122053Z AUTO 06007KT 9SM OVC095 12/06 A2996 RMK AO2 SLP147 T01220056 55010,KHQM,2019-01-12T20:53:00Z,46.97,-123.93,12.2,5.6,60,7,,9.0,29.958662,1014.7,,TRUE,TRUE,,,,,,,OVC,9500,,,,,,,VFR,-1.0,,,,,,,,,,,METAR,7.0
KHOU 122053Z 29014KT 10SM FEW030 19/08 A3004 RMK AO2 SLP177 T01890083 55005,KHOU,2019-01-12T20:53:00Z,29.63,-95.28,18.9,8.3,290,14,,10.0,30.041338,1017.7,,,TRUE,,,,,,,FEW,3000,,,,,,,VFR,-0.5,,,,,,,,,,,METAR,36.0
KHOT 122053Z AUTO 24006KT 6SM BR BKN012 BKN017 OVC042 09/08 A2992 RMK AO2 SLP132 T00890083 51009,KHOT,2019-01-12T20:53:00Z,34.48,-93.1,8.9,8.3,240,6,,6.0,29.920275,1013.2,,TRUE,TRUE,,,,,,BR,BKN,1200,BKN,1700,OVC,4200,,,MVFR,0.9,,,,,,,,,,,METAR,162.0
KHLN 122053Z 00000KT 10SM CLR M01/M06 A3020 RMK AO2 SLP289 T10061061 56021,KHLN,2019-01-12T20:53:00Z,46.6,-111.98,-0.6,-6.1,0,0,,10.0,30.200787,1028.9,,,TRUE,,,,,,,CLR,,,,,,,,VFR,-2.1,,,,,,,,,,,METAR,1182.0
KSSI 122053Z AUTO 05010KT 10SM FEW036 BKN070 17/12 A3023 RMK AO2 SLP238 T01670122 56012,KSSI,2019-01-12T20:53:00Z,31.15,-81.38,16.7,12.2,50,10,,10.0,30.230314,1023.8,,TRUE,TRUE,,,,,,,FEW,3600,BKN,7000,,,,,VFR,-1.2,,,,,,,,,,,METAR,6.0
KSSF 122053Z 29012G18KT 10SM CLR 21/03 A3008 RMK AO2 SLP180 T02110028 55011,KSSF,2019-01-12T20:53:00Z,29.33,-98.47,21.1,2.8,290,12,18,10.0,30.079725,1018.0,,,TRUE,,,,,,,CLR,,,,,,,,VFR,-1.1,,,,,,,,,,,METAR,176.0
KSRQ 122053Z 24005KT 10SM FEW065 24/16 A3013 RMK AO2 SLP200 T02440156 56011,KSRQ,2019-01-12T20:53:00Z,27.4,-82.57,24.4,15.6,240,5,,10.0,30.129921,1020.0,,,TRUE,,,,,,,FEW,6500,,,,,,,VFR,-1.1,,,,,,,,,,,METAR,18.0
KSPG 122053Z 18003KT 10SM FEW049 SCT060 23/14 A3013 RMK AO2 SLP201 T02330144 56015,KSPG,2019-01-12T20:53:00Z,27.77,-82.63,23.3,14.4,180,3,,10.0,30.129921,1020.1,,,TRUE,,,,,,,FEW,4900,SCT,6000,,,,,VFR,-1.5,,,,,,,,,,,METAR,2.0
KSPB 122053Z AUTO 17005KT 10SM CLR 13/02 A3000 RMK AO2 SLP159 T01280022 58007,KSPB,2019-01-12T20:53:00Z,45.77,-122.87,12.8,2.2,170,5,,10.0,30.0,1015.9,,TRUE,TRUE,,,,,,,CLR,,,,,,,,VFR,-0.7,,,,,,,,,,,METAR,14.0
KSNY 122053Z AUTO 01010KT 10SM CLR 07/M03 A3016 RMK AO2 SLP221 T00671028 56015,KSNY,2019-01-12T20:53:00Z,41.1,-102.98,6.7,-2.8,10,10,,10.0,30.159449,1022.1,,TRUE,TRUE,,,,,,,CLR,,,,,,,,VFR,-1.5,,,,,,,,,,,METAR,1307.0
KSNS 122053Z 13017KT 10SM BKN050 16/09 A2994 RMK AO2 SLP147 T01560089 58023,KSNS,2019-01-12T20:53:00Z,36.67,-121.6,15.6,8.9,130,17,,10.0,29.940945,1014.7,,,TRUE,,,,,,,BKN,5000,,,,,,,VFR,-2.3,,,,,,,,,,,METAR,30.0
KSNA 122053Z 00000KT 10SM SCT030 BKN045 15/10 A2999 RMK AO2 SLP155 60048 T01500100 58021,KSNA,2019-01-12T20:53:00Z,33.67,-117.87,15.0,10.0,0,0,,10.0,29.991142,1015.5,,,TRUE,,,,,,,SCT,3000,BKN,4500,,,,,VFR,-2.1,,,,,,0.48,,,,,METAR,16.0
KSMQ 122053Z AUTO 32003KT 10SM CLR 01/M14 A3047 RMK AO2 SLP321 T00111139 58002,KSMQ,2019-01-12T20:53:00Z,40.62,-74.67,1.1,-13.9,320,3,,10.0,30.469488,1032.1,,TRUE,TRUE,,,,,,,CLR,,,,,,,,VFR,-0.2,,,,,,,,,,,METAR,30.0
KSMF 122053Z 04003KT 10SM FEW250 14/08 A2998 RMK AO2 SLP151 T01440078 58018,KSMF,2019-01-12T20:53:00Z,38.7,-121.6,14.4,7.8,40,3,,10.0,29.97933,1015.1,,,TRUE,,,,,,,FEW,25000,,,,,,,VFR,-1.8,,,,,,,,,,,METAR,6.0
KSLN 122053Z 34018KT 6SM BR OVC013 M01/M02 A3018 RMK AO2 PK WND 34026/2003 SLP231 60000 T10111022 53010,KSLN,2019-01-12T20:53:00Z,38.78,-97.65,-1.1,-2.2,340,18,,6.0,30.180119,1023.1,,,TRUE,,,,,,BR,OVC,1300,,,,,,,MVFR,1.0,,,,,,0.005,,,,,METAR,385.0
KSIY 122053Z AUTO 00000KT 10SM CLR 13/M02 A2999 RMK AO2 SLP166 T01281017 58016,KSIY,2019-01-12T20:53:00Z,41.77,-122.47,12.8,-1.7,0,0,,10.0,29.991142,1016.6,,TRUE,TRUE,,,,,,,CLR,,,,,,,,VFR,-1.6,,,,,,,,,,,METAR,807.0
KSHR 122053Z AUTO 34005KT 10SM CLR 06/M04 A3011 RMK AO2 SLP230 T00561044 56018,KSHR,2019-01-12T20:53:00Z,44.77,-106.97,5.6,-4.4,340,5,,10.0,30.109253,1023.0,,TRUE,TRUE,,,,,,,CLR,,,,,,,,VFR,-1.8,,,,,,,,,,,METAR,1202.0
KSHN 122053Z AUTO 14004KT 10SM CLR 10/05 A2996 RMK AO2 SLP149 T01000050 58007,KSHN,2019-01-12T20:53:00Z,47.23,-123.13,10.0,5.0,140,4,,10.0,29.958662,1014.9,,TRUE,TRUE,,,,,,,CLR,,,,,,,,VFR,-0.7,,,,,,,,,,,METAR,82.0
KSGR 122053Z 31010G19KT 10SM CLR 19/08 A3005 RMK AO2 SLP177 T01890083 55004,KSGR,2019-01-12T20:53:00Z,29.62,-95.65,18.9,8.3,310,10,19,10.0,30.050198,1017.7,,,TRUE,,,,,,,CLR,,,,,,,,VFR,-0.4,,,,,,,,,,,METAR,2.0
KSFF 122053Z 03003KT 10SM SCT009 03/00 A3020 RMK AO2 SLP241 T00330000 56012,KSFF,2019-01-12T20:53:00Z,47.68,-117.32,3.3,0.0,30,3,,10.0,30.200787,1024.1,,,TRUE,,,,,,,SCT,900,,,,,,,VFR,-1.2,,,,,,,,,,,METAR,609.0
KSFB 122053Z 11008KT 10SM SCT070 23/14 A3017 RMK AO2 SLP216 T02330139 56013,KSFB,2019-01-12T20:53:00Z,28.77,-81.22,23.3,13.9,110,8,,10.0,30.171259,1021.6,,,TRUE,,,,,,,SCT,7000,,,,,,,VFR,-1.3,,,,,,,,,,,METAR,17.0
KSEG 122053Z AUTO 21004KT 10SM CLR M01/M13 A3046 RMK AO2 SLP323 T10061133 58012 FZRANO $,KSEG,2019-01-12T20:53:00Z,40.82,-76.87,-0.6,-13.3,210,4,,10.0,30.46063,1032.3,,TRUE,TRUE,TRUE,,,TRUE,,,CLR,,,,,,,,VFR,-1.2,,,,,,,,,,,METAR,134.0
KSEA 122053Z 17003KT 10SM FEW040 SCT220 11/04 A3000 RMK AO2 SLP166 T01060044 51003 $,KSEA,2019-01-12T20:53:00Z,47.45,-122.32,10.6,4.4,170,3,,10.0,30.0,1016.6,,,TRUE,TRUE,,,,,,FEW,4000,SCT,22000,,,,,VFR,0.3,,,,,,,,,,,METAR,136.0
KSDM 122053Z VRB03KT 10SM FEW011 BKN040 OVC060 15/12 A2999 RMK AO2 RAE37 SLP154 P0000 60003 T01500117 58021,KSDM,2019-01-12T20:53:00Z,32.58,-117.0,15.0,11.7,0,3,,10.0,29.991142,1015.4,,,TRUE,,,,,,,FEW,1100,BKN,4000,OVC,6000,,,VFR,-2.1,,,,,0.005,0.03,,,,,METAR,159.0
KSDL 122053Z 11008KT 10SM CLR 18/M02 A3000 RMK AO2 SLP149 T01831022 56035,KSDL,2019-01-12T20:53:00Z,33.62,-111.92,18.3,-2.2,110,8,,10.0,30.0,1014.9,,,TRUE,,,,,,,CLR,,,,,,,,VFR,-3.5,,,,,,,,,,,METAR,447.0
KSBM 122053Z AUTO 09008KT 10SM BKN023 OVC055 M01/M06 A3040 RMK AO2 SLP305 T10061061 55001,KSBM,2019-01-12T20:53:00Z,43.78,-87.85,-0.6,-6.1,90,8,,10.0,30.398623,1030.5,,TRUE,TRUE,,,,,,,BKN,2300,OVC,5500,,,,,MVFR,-0.1,,,,,,,,,,,METAR,232.0
KSBA 122053Z 15010KT 10SM SCT055 15/10 A2999 RMK AO2 SLP155 T01500100 58016,KSBA,2019-01-12T20:53:00Z,34.43,-119.85,15.0,10.0,150,10,,10.0,29.991142,1015.5,,,TRUE,,,,,,,SCT,5500,,,,,,,VFR,-1.6,,,,,,,,,,,METAR,3.0
KSAV 122053Z 07007KT 10SM FEW016 OVC070 14/11 A3027 RMK AO2 SLP250 T01440106 56012,KSAV,2019-01-12T20:53:00Z,32.12,-81.2,14.4,10.6,70,7,,10.0,30.268702,1025.0,,,TRUE,,,,,,,FEW,1600,OVC,7000,,,,,VFR,-1.2,,,,,,,,,,,METAR,14.0
KSAF 122053Z 21008KT 10SM FEW028 BKN060 OVC070 04/M02 A3016 RMK AO2 SLP205 T00391017 56023,KSAF,2019-01-12T20:53:00Z,35.62,-106.1,3.9,-1.7,210,8,,10.0,30.159449,1020.5,,,TRUE,,,,,,,FEW,2800,BKN,6000,OVC,7000,,,VFR,-2.3,,,,,,,,,,,METAR,1930.0
KGWO 122053Z AUTO 18005KT 10SM OVC009 12/11 A2993 RMK AO2 SLP134 60002 T01220111 55008,KGWO,2019-01-12T20:53:00Z,33.5,-90.08,12.2,11.1,180,5,,10.0,29.929134,1013.4,,TRUE,TRUE,,,,,,,OVC,900,,,,,,,IFR,-0.8,,,,,,0.02,,,,,METAR,44.0
KGVL 122053Z AUTO 08014KT 10SM OVC016 02/M02 A3024 RMK AO2 RAB1958E15B36E49 SLP244 P0000 60000 T00221022 58019,KGVL,2019-01-12T20:53:00Z,34.27,-83.83,2.2,-2.2,80,14,,10.0,30.239174,1024.4,,TRUE,TRUE,,,,,,,OVC,1600,,,,,,,MVFR,-1.9,,,,,0.005,0.005,,,,,METAR,386.0
KGUY 122053Z AUTO 35014G22KT 10SM BKN023 06/M01 A3019 RMK AO2 SLP225 T00561011 55008,KGUY,2019-01-12T20:53:00Z,36.68,-101.5,5.6,-1.1,350,14,22,10.0,30.188976,1022.5,,TRUE,TRUE,,,,,,,BKN,2300,,,,,,,MVFR,-0.8,,,,,,,,,,,METAR,948.0
KGUP 122053Z AUTO VRB03KT 10SM CLR 03/M04 A3012 RMK AO2 SLP227 T00331039 56027,KGUP,2019-01-12T20:53:00Z,35.52,-108.8,3.3,-3.9,0,3,,10.0,30.121063,1022.7,,TRUE,TRUE,,,,,,,CLR,,,,,,,,VFR,-2.7,,,,,,,,,,,METAR,1971.0
KGTF 122053Z 22012KT 10SM CLR 11/M09 A3006 RMK AO2 SLP198 T01061094 56007,KGTF,2019-01-12T20:53:00Z,47.47,-111.38,10.6,-9.4,220,12,,10.0,30.059055,1019.8,,,TRUE,,,,,,,CLR,,,,,,,,VFR,-0.7,,,,,,,,,,,METAR,1119.0
KGSP 122053Z 04009KT 10SM OVC035 03/M05 A3032 RMK AO2 SLP272 60000 T00331050 56016,KGSP,2019-01-12T20:53:00Z,34.9,-82.22,3.3,-5.0,40,9,,10.0,30.318897,1027.2,,,TRUE,,,,,,,OVC,3500,,,,,,,VFR,-1.6,,,,,,0.005,,,,,METAR,287.0
KGSH 122053Z AUTO 08011KT 1/2SM SN FZFG VV010 M03/M04 A3030 RMK AO2 SLP270 P0001 60003 T10281044 56013,KGSH,2019-01-12T20:53:00Z,41.53,-85.78,-2.8,-4.4,80,11,,0.5,30.301182,1027.0,,TRUE,TRUE,,,,,,SN FZFG,OVX,0,,,,,,,LIFR,-1.3,,,,,0.01,0.03,,,,1000,METAR,252.0
KGRR 122053Z 07014KT 10SM FEW027 OVC065 M01/M09 A3038 RMK AO2 SLP298 T10111089 55005,KGRR,2019-01-12T20:53:00Z,42.88,-85.52,-1.1,-8.9,70,14,,10.0,30.380905,1029.8,,,TRUE,,,,,,,FEW,2700,OVC,6500,,,,,VFR,-0.5,,,,,,,,,,,METAR,237.0
KGRI 122053Z 36014KT 7SM OVC009 M05/M07 A3025 RMK AO2 SLP272 T10501072 55003,KGRI,2019-01-12T20:53:00Z,40.97,-98.32,-5.0,-7.2,360,14,,7.0,30.250984,1027.2,,,TRUE,,,,,,,OVC,900,,,,,,,IFR,-0.3,,,,,,,,,,,METAR,561.0
KGRB 122053Z 05010KT 10SM FEW021 OVC060 M01/M06 A3044 RMK AO2 SLP318 T10111061 53003,KGRB,2019-01-12T20:53:00Z,44.48,-88.13,-1.1,-6.1,50,10,,10.0,30.43996,1031.8,,,TRUE,,,,,,,FEW,2100,OVC,6000,,,,,VFR,0.3,,,,,,,,,,,METAR,208.0
KGOK 122053Z AUTO 33009G20KT 10SM OVC016 03/00 A3011 RMK AO2 SLP203 T00280000 53015,KGOK,2019-01-12T20:53:00Z,35.85,-97.4,2.8,0.0,330,9,20,10.0,30.109253,1020.3,,TRUE,TRUE,,,,,,,OVC,1600,,,,,,,MVFR,1.5,,,,,,,,,,,METAR,324.0
PHNL 122053Z 16006KT 10SM FEW026 FEW045 27/18 A3004 RMK AO2 SLP171 T02670183 50001,PHNL,2019-01-12T20:53:00Z,21.33,-157.92,26.7,18.3,160,6,,10.0,30.041338,1017.1,,,TRUE,,,,,,,FEW,2600,FEW,4500,,,,,VFR,0.1,,,,,,,,,,,METAR,4.0
PAPB 122053Z AUTO 05035KT 3/4SM -SN BR BKN012 OVC019 M03/M03 A2907 RMK AO2 PK WND 05041/2002 SLP832 P0000 60000 T10281028 58019 TSNO $,PAPB,2019-01-12T20:53:00Z,56.58,-169.67,-2.8,-2.8,50,35,,0.75,29.069881,983.2,,TRUE,TRUE,TRUE,,TRUE,,,-SN BR,BKN,1200,OVC,1900,,,,,LIFR,-1.9,,,,,0.005,0.005,,,,,METAR,35.0
PAKW 122053Z AUTO 04009G17KT 10SM SCT045 OVC110 04/03 A2980 RMK AO2 SLP093 T00390028 58014 TSNO,PAKW,2019-01-12T20:53:00Z,55.58,-133.07,3.9,2.8,40,9,17,10.0,29.799213,1009.3,,TRUE,TRUE,,,TRUE,,,,SCT,4500,OVC,11000,,,,,VFR,-1.4,,,,,,,,,,,METAR,15.0
KDET 122053Z 08012KT 10SM OVC075 M02/M08 A3042 RMK AO2 SLP308 T10171083 58007,KDET,2019-01-12T20:53:00Z,42.4,-83.02,-1.7,-8.3,80,12,,10.0,30.41929,1030.8,,,TRUE,,,,,,,OVC,7500,,,,,,,VFR,-0.7,,,,,,,,,,,METAR,190.0
KDEQ 122053Z AUTO 26014G23KT 10SM OVC017 07/06 A2997 RMK AO2 SLP147 T00720061 53013,KDEQ,2019-01-12T20:53:00Z,34.05,-94.4,7.2,6.1,260,14,23,10.0,29.970472,1014.7,,TRUE,TRUE,,,,,,,OVC,1700,,,,,,,MVFR,1.3,,,,,,,,,,,METAR,106.0
KDEN 122053Z 16005KT 10SM FEW036 FEW075 SCT150 BKN220 01/M02 A3016 RMK AO2 SLP224 T00111022 56018 $,KDEN,2019-01-12T20:53:00Z,39.85,-104.65,1.1,-2.2,160,5,,10.0,30.159449,1022.4,,,TRUE,TRUE,,,,,,FEW,3600,FEW,7500,SCT,15000,BKN,22000,VFR,-1.8,,,,,,,,,,,METAR,1640.0
KDCU 122053Z AUTO 11007KT 10SM -RA BKN044 OVC070 07/04 A3003 RMK AO2 SLP169 P0006 60012 T00670044 56034,KDCU,2019-01-12T20:53:00Z,34.65,-86.95,6.7,4.4,110,7,,10.0,30.029528,1016.9,,TRUE,TRUE,,,,,,-RA,BKN,4400,OVC,7000,,,,,VFR,-3.4,,,,,0.06,0.12,,,,,METAR,176.0
KDBQ 122053Z 06012KT 1SM R36/5000VP6000FT -SN BR BKN007 OVC013 M01/M03 A3025 RMK AO2 CIG 005V011 SLP258 P0002 60006 T10111028 56008 $,KDBQ,2019-01-12T20:53:00Z,42.4,-90.7,-1.1,-2.8,60,12,,1.0,30.250984,1025.8,,,TRUE,TRUE,,,,,-SN BR,BKN,700,OVC,1300,,,,,IFR,-0.8,,,,,0.02,0.06,,,,,METAR,326.0
KDAN 122053Z AUTO 04007KT 10SM BKN065 OVC090 01/M02 A3043 RMK AO2 SLP304 T00061022 56013,KDAN,2019-01-12T20:53:00Z,36.57,-79.33,0.6,-2.2,40,7,,10.0,30.431103,1030.4,,TRUE,TRUE,,,,,,,BKN,6500,OVC,9000,,,,,VFR,-1.3,,,,,,,,,,,METAR,175.0
KDAL 122053Z 32014KT 10SM BKN027 OVC033 08/02 A3011 RMK AO2 SLP196 T00780017 53009,KDAL,2019-01-12T20:53:00Z,32.85,-96.85,7.8,1.7,320,14,,10.0,30.109253,1019.6,,,TRUE,,,,,,,BKN,2700,OVC,3300,,,,,MVFR,0.9,,,,,,,,,,,METAR,158.0
KDAB 122053Z 10007KT 10SM FEW046 BKN070 BKN250 22/14 A3019 RMK AO2 SLP222 T02220139 56012,KDAB,2019-01-12T20:53:00Z,29.18,-81.07,22.2,13.9,100,7,,10.0,30.188976,1022.2,,,TRUE,,,,,,,FEW,4600,BKN,7000,BKN,25000,,,VFR,-1.2,,,,,,,,,,,METAR,9.0
KCYS 122053Z 36007KT 330V030 10SM CLR 02/M07 A3014 RMK AO2 SLP223 T00221067 56016,KCYS,2019-01-12T20:53:00Z,41.15,-104.8,2.2,-6.7,360,7,,10.0,30.138779,1022.3,,,TRUE,,,,,,,CLR,,,,,,,,VFR,-1.6,,,,,,,,,,,METAR,1868.0
KCXO 122053Z 32011G18KT 10SM CLR 17/07 A3005 RMK AO2 SLP175 T01670067 55002,KCXO,2019-01-12T20:53:00Z,30.35,-95.42,16.7,6.7,320,11,18,10.0,30.050198,1017.5,,,TRUE,,,,,,,CLR,,,,,,,,VFR,-0.2,,,,,,,,,,,METAR,75.0
KCUT 122053Z AUTO 00000KT 10SM CLR 05/M08 A3011 RMK AO2 SLP222 T00501083 56014,KCUT,2019-01-12T20:53:00Z,43.73,-103.62,5.0,-8.3,0,0,,10.0,30.109253,1022.2,,TRUE,TRUE,,,,,,,CLR,,,,,,,,VFR,-1.4,,,,,,,,,,,METAR,1725.0
KCUB 122053Z AUTO VRB04KT 10SM OVC080 08/M02 A3035 RMK AO2 SLP276 T00831022 56015,KCUB,2019-01-12T20:53:00Z,33.97,-81.0,8.3,-2.2,0,4,,10.0,30.351377,1027.6,,TRUE,TRUE,,,,,,,OVC,8000,,,,,,,VFR,-1.5,,,,,,,,,,,METAR,56.0
KCSV 122053Z AUTO 15008G18KT 10SM OVC012 06/M02 A3009 RMK AO2 SLP195 T00561017 58028,KCSV,2019-01-12T20:53:00Z,35.95,-85.08,5.6,-1.7,150,8,18,10.0,30.088583,1019.5,,TRUE,TRUE,,,,,,,OVC,1200,,,,,,,MVFR,-2.8,,,,,,,,,,,METAR,570.0
KCSM 122053Z AUTO 33018G26KT 10SM OVC018 03/M01 A3017 RMK AO2 PK WND 33029/1955 SLP223 T00281006 53006,KCSM,2019-01-12T20:53:00Z,35.35,-99.2,2.8,-0.6,330,18,26,10.0,30.171259,1022.3,,TRUE,TRUE,,,,,,,OVC,1800,,,,,,,MVFR,0.6,,,,,,,,,,,METAR,588.0
KCRS 122053Z AUTO 31021G27KT 10SM OVC032 09/02 A3013 RMK AO2 PK WND 29027/2013 SLP203 T00940022 53010 $,KCRS,2019-01-12T20:53:00Z,32.03,-96.4,9.4,2.2,310,21,27,10.0,30.129921,1020.3,,TRUE,TRUE,TRUE,,,,,,OVC,3200,,,,,,,VFR,1.0,,,,,,,,,,,METAR,133.0
KCRQ 122053Z VRB04KT 10SM FEW005 OVC034 14/11 A2999 RMK AO2 RAE22 SLP152 P0007 60024 T01440111 58022,KCRQ,2019-01-12T20:53:00Z,33.13,-117.28,14.4,11.1,0,4,,10.0,29.991142,1015.2,,,TRUE,,,,,,,FEW,500,OVC,3400,,,,,VFR,-2.2,,,,,0.07,0.24,,,,,METAR,99.0
KCRG 122053Z 13010KT 10SM OVC070 21/13 A3021 RMK AO2 SLP229 T02060133 56011,KCRG,2019-01-12T20:53:00Z,30.33,-81.52,20.6,13.3,130,10,,10.0,30.209646,1022.9,,,TRUE,,,,,,,OVC,7000,,,,,,,VFR,-1.1,,,,,,,,,,,METAR,13.0
KCRE 122053Z 03008KT 10SM FEW080 10/00 A3035 RMK AO1 SLP277 T01000000 55009,KCRE,2019-01-12T20:53:00Z,33.82,-78.72,10.0,0.0,30,8,,10.0,30.351377,1027.7,,,TRUE,,,,,,,FEW,8000,,,,,,,VFR,-0.9,,,,,,,,,,,METAR,10.0
KCPR 122053Z 22016KT 10SM CLR 01/M05 A3016 RMK AO2 SLP242 T00061050 56017,KCPR,2019-01-12T20:53:00Z,42.9,-106.47,0.6,-5.0,220,16,,10.0,30.159449,1024.2,,,TRUE,,,,,,,CLR,,,,,,,,VFR,-1.7,,,,,,,,,,,METAR,1621.0
KCOT 122053Z AUTO 34015G22KT 10SM CLR 22/07 A3010 RMK AO2 SLP188 T02170067 56015,KCOT,2019-01-12T20:53:00Z,28.45,-99.22,21.7,6.7,340,15,22,10.0,30.100393,1018.8,,TRUE,TRUE,,,,,,,CLR,,,,,,,,VFR,-1.5,,,,,,,,,,,METAR,140.0
KCNY 122053Z AUTO 31004KT 10SM CLR M02/M03 A3016 RMK AO2 SLP251 T10221033 56022 $,KCNY,2019-01-12T20:53:00Z,38.77,-109.75,-2.2,-3.3,310,4,,10.0,30.159449,1025.1,,TRUE,TRUE,TRUE,,,,,,CLR,,,,,,,,VFR,-2.2,,,,,,,,,,,METAR,1390.0
KCNO 122053Z COR 36005KT 6SM -RA BR FEW020 BKN050 BKN060 11/09 A3001 RMK AO2 RAB03 SLP162 P0004 60004 T01110089 56021,KCNO,2019-01-12T20:53:00Z,33.98,-117.62,11.1,8.9,360,5,,6.0,30.008858,1016.2,TRUE,,TRUE,,,,,,-RA BR,FEW,2000,BKN,5000,BKN,6000,,,VFR,-2.1,,,,,0.04,0.04,,,,,METAR,207.0
PABI 122053Z 11015G26KT 10SM FEW060 SCT110 SCT150 BKN200 M26/M29 A2992 RMK AO2 PK WND 10026/2047 WSHFT 2018 SLP218 DRSN AT AP ACSL DSNT SW T12611294 58004,PABI,2019-01-12T20:53:00Z,64.0,-145.72,-26.1,-29.4,110,15,26,10.0,29.920275,1021.8,,,TRUE,,,,,,,FEW,6000,SCT,11000,SCT,15000,BKN,20000,VFR,-0.4,,,,,,,,,,,METAR,386.0
PAAQ 122053Z 00000KT 10SM CLR M19/M21 A2980 RMK AO2 SLP100 T11891211 58004,PAAQ,2019-01-12T20:53:00Z,61.6,-149.08,-18.9,-21.1,0,0,,10.0,29.799213,1010.0,,,TRUE,,,,,,,CLR,,,,,,,,VFR,-0.4,,,,,,,,,,,METAR,73.0
PADQ 122053Z 07018G27KT 4SM -RA BR OVC012 04/03 A2944 RMK AO2 PK WND 08029/2030 SLP969 P0004 60009 T00390028 58010,PADQ,2019-01-12T20:53:00Z,57.75,-152.5,3.9,2.8,70,18,27,4.0,29.438976,996.9,,,TRUE,,,,,,-RA BR,OVC,1200,,,,,,,MVFR,-1.0,,,,,0.04,0.09,,,,,METAR,34.0
KYKM 122053Z 00000KT 10SM CLR 06/01 A3019 RMK AO2 SLP233 T00560011 58011,KYKM,2019-01-12T20:53:00Z,46.57,-120.53,5.6,1.1,0,0,,10.0,30.188976,1023.3,,,TRUE,,,,,,,CLR,,,,,,,,VFR,-1.1,,,,,,,,,,,METAR,324.0
KYIP 122053Z 08011KT 10SM OVC025 00/M07 A3040 RMK AO2 SLP300 T00001067 55005,KYIP,2019-01-12T20:53:00Z,42.23,-83.53,0.0,-6.7,80,11,,10.0,30.398623,1030.0,,,TRUE,,,,,,,OVC,2500,,,,,,,MVFR,-0.5,,,,,,,,,,,METAR,215.0
KHKS 122053Z 18005KT 10SM OVC005 14/14 A2994 RMK AO2 SLP134 60002 T01440139 56011,KHKS,2019-01-12T20:53:00Z,32.33,-90.22,14.4,13.9,180,5,,10.0,29.940945,1013.4,,,TRUE,,,,,,,OVC,500,,,,,,,IFR,-1.1,,,,,,0.02,,,,,METAR,108.0
KHJO 122053Z AUTO 12003KT 10SM FEW075 16/09 A2999 RMK AO2 SLP159 60000 T01610089 58021,KHJO,2019-01-12T20:53:00Z,36.32,-119.62,16.1,8.9,120,3,,10.0,29.991142,1015.9,,TRUE,TRUE,,,,,,,FEW,7500,,,,,,,VFR,-2.1,,,,,,0.005,,,,,METAR,74.0
KHIO 122053Z 12007KT 10SM CLR 12/03 A3000 RMK AO2 SLP161 T01170028 58007,KHIO,2019-01-12T20:53:00Z,45.55,-122.95,11.7,2.8,120,7,,10.0,30.0,1016.1,,,TRUE,,,,,,,CLR,,,,,,,,VFR,-0.7,,,,,,,,,,,METAR,68.0
KHIB 122053Z AUTO 10009KT 10SM OVC013 M04/M06 A3040 RMK AO2 SLP319 T10391056 56005,KHIB,2019-01-12T20:53:00Z,47.38,-92.83,-3.9,-5.6,100,9,,10.0,30.398623,1031.9,,TRUE,TRUE,,,,,,,OVC,1300,,,,,,,MVFR,-0.5,,,,,,,,,,,METAR,412.0
KHGR 122053Z AUTO 18008KT 10SM BKN055 OVC070 01/M08 A3043 RMK AO2 SLP323 T00111078 55007 $,KHGR,2019-01-12T20:53:00Z,39.7,-77.73,1.1,-7.8,180,8,,10.0,30.431103,1032.3,,TRUE,TRUE,TRUE,,,,,,BKN,5500,OVC,7000,,,,,VFR,-0.7,,,,,,,,,,,METAR,224.0
KHFD 122053Z 32009KT 10SM CLR M02/M14 A3048 RMK AO2 SLP321 T10171144 56001,KHFD,2019-01-12T20:53:00Z,41.73,-72.65,-1.7,-14.4,320,9,,10.0,30.481298,1032.1,,,TRUE,,,,,,,CLR,,,,,,,,VFR,-0.1,,,,,,,,,,,METAR,4.0
KHBR 122053Z AUTO 35018G24KT 10SM OVC022 05/00 A3017 RMK AO2 PK WND 35027/2031 SLP222 T00500000 53005,KHBR,2019-01-12T20:53:00Z,34.98,-99.05,5.0,0.0,350,18,24,10.0,30.171259,1022.2,,TRUE,TRUE,,,,,,,OVC,2200,,,,,,,MVFR,0.5,,,,,,,,,,,METAR,473.0
KHBG 122053Z AUTO 18007KT 9SM -RA SCT015 BKN020 OVC029 16/16 A2997 RMK AO2 SLP147 P0002 60010 T01610156 56019,KHBG,2019-01-12T20:53:00Z,31.27,-89.25,16.1,15.6,180,7,,9.0,29.970472,1014.7,,TRUE,TRUE,,,,,,-RA,SCT,1500,BKN,2000,OVC,2900,,,MVFR,-1.9,,,,,0.02,0.1,,,,,METAR,44.0
KHAO 122053Z AUTO 08005KT 1/2SM SN FG FEW006 OVC014 00/M01 A3025 RMK AO2 UPB1959E09RAB09E14SNE1959B14 SLP251 P0001 60006 T00001011 56015,KHAO,2019-01-12T20:53:00Z,39.37,-84.52,0.0,-1.1,80,5,,0.5,30.250984,1025.1,,TRUE,TRUE,,,,,,SN FG,FEW,600,OVC,1400,,,,,LIFR,-1.5,,,,,0.01,0.06,,,,,METAR,188.0
KGZH 122053Z AUTO 13007KT 10SM -RA SCT020 BKN039 OVC100 17/13 A3005 RMK AO2 SLP173 P0000 60000 T01670128 56026,KGZH,2019-01-12T20:53:00Z,31.42,-87.05,16.7,12.8,130,7,,10.0,30.050198,1017.3,,TRUE,TRUE,,,,,,-RA,SCT,2000,BKN,3900,OVC,10000,,,VFR,-2.6,,,,,0.005,0.005,,,,,METAR,78.0
KHKY 122053Z 05005KT 10SM OVC038 03/M06 A3035 RMK AO2 SLP276 T00281056 56014,KHKY,2019-01-12T20:53:00Z,35.75,-81.38,2.8,-5.6,50,5,,10.0,30.351377,1027.6,,,TRUE,,,,,,,OVC,3800,,,,,,,VFR,-1.4,,,,,,,,,,,METAR,354.0
PAQT 122053Z AUTO 19004KT 10SM CLR M42/ A3040 RMK SLP295 T1422 53003 TSNO VIA AUTODIAL,PAQT,2019-01-12T20:53:00Z,70.22,-151.0,-42.2,,190,4,,10.0,30.398623,1029.5,,TRUE,,,,TRUE,,,,CLR,,,,,,,,VFR,0.3,,,,,,,,,,,METAR,12.0
PABR 122053Z 06010KT 10SM CLR M32/M35 A3040 RMK SLP299 I3000 T13221350 55000 VIA AUTODIAL,PABR,2019-01-12T20:53:00Z,71.28,-156.77,-32.2,-35.0,60,10,,10.0,30.398623,1029.9,,,,,,,,,,CLR,,,,,,,,VFR,0.0,,,,,,,,,,,METAR,7.0
PABE 122053Z 02018KT 2SM HZ BKN003 BKN033 BKN065 M26/M28 A2948 RMK SNE33 SLP989 P0000 60001 T12561283 58019 $ VIA AUTODIAL,PABE,2019-01-12T20:53:00Z,60.78,-161.83,-25.6,-28.3,20,18,,2.0,29.480314,998.9,,,,TRUE,,,,,HZ,BKN,300,BKN,3300,BKN,6500,,,LIFR,-1.9,,,,,0.005,0.01,,,,,METAR,41.0
PANT 122053Z AUTO 00000KT 10SM -RA BKN023 OVC029 05/05 A2984 RMK SLP106 P0002 60005 T00500050 58005 TSNO $ VIA AUTODIAL,PANT,2019-01-12T20:53:00Z,55.03,-131.57,5.0,5.0,0,0,,10.0,29.840551,1010.6,,TRUE,,TRUE,,TRUE,,,-RA,BKN,2300,OVC,2900,,,,,MVFR,-0.5,,,,,0.02,,,,,,SPECI,36.0
PAJN 122053Z 10003KT 1/4SM R08/1600FT FG VV004 01/01 A2992 RMK SLP131 T00060006 50002 $ VIA AUTODIAL,PAJN,2019-01-12T20:53:00Z,58.35,-134.58,0.6,0.6,100,3,,0.25,29.920275,1013.1,,,,TRUE,,,,,FG,OVX,0,,,,,,,LIFR,0.2,,,,,,,,,,400,METAR,5.0
PAWD 122053Z AUTO 36007KT 10SM OVC050 M09/M12 A2972 RMK UPB45E51SNE45 SLP064 6//// T10941117 58006 TSNO PNO $ VIA AUTODIAL,PAWD,2019-01-12T20:53:00Z,60.12,-149.42,-9.4,-11.7,360,7,,10.0,29.719488,1006.4,,TRUE,,TRUE,,TRUE,,,,OVC,5000,,,,,,,VFR,-0.6,,,,,,,,,,,METAR,23.0
KP68 122053Z AUTO 01003KT M06/M06 A3013 RMK AO1 SLP234 T10561056 56021,KP68,2019-01-12T20:53:00Z,39.6,-116.0,-5.6,-5.6,10,3,,,30.129921,1023.4,,TRUE,TRUE,,,,,,,,,,,,,,,,-2.1,,,,,,,,,,,METAR,1809.0
MMEP 122053Z 01005KT 10SM SCT030TCU 24/17 A3006 RMK SLP182 57024 952 8/200,MMEP,2019-01-12T20:53:00Z,21.42,-104.85,24.0,17.0,10,5,,10.0,30.059055,1018.2,,,,,,,,,,SCT,3000,,,,,,,VFR,-2.4,,,,,,,,,,,METAR,922.0
KAWM 122053Z AUTO 15009KT 8SM -RA OVC009 10/ A2990 RMK AO2 RAB19E30B47 SLP125 P0000 60003 T0100 58009 $,KAWM,2019-01-12T20:53:00Z,35.13,-90.23,10.0,,150,9,,8.0,29.899607,1012.5,,TRUE,TRUE,TRUE,,,,,-RA,OVC,900,,,,,,,IFR,-0.9,,,,,0.005,0.03,,,,,METAR,65.0
KAUS 122053Z 30010G19KT 10SM FEW030 17/04 A3011 RMK AO2 SLP194 T01670039 55002,KAUS,2019-01-12T20:53:00Z,30.18,-97.68,16.7,3.9,300,10,19,10.0,30.109253,1019.4,,,TRUE,,,,,,,FEW,3000,,,,,,,VFR,-0.2,,,,,,,,,,,METAR,166.0
KAUG 122053Z AUTO 28011G17KT 10SM CLR M09/M18 A3034 RMK AO2 SLP283 T10941178 52010,KAUG,2019-01-12T20:53:00Z,44.32,-69.8,-9.4,-17.8,280,11,17,10.0,30.339567,1028.3,,TRUE,TRUE,,,,,,,CLR,,,,,,,,VFR,1.0,,,,,,,,,,,METAR,109.0
KATY 122053Z AUTO 02004KT 8SM OVC015 M05/M07 A3030 RMK AO2 SLP290 T10501072 55003,KATY,2019-01-12T20:53:00Z,44.9,-97.15,-5.0,-7.2,20,4,,8.0,30.301182,1029.0,,TRUE,TRUE,,,,,,,OVC,1500,,,,,,,MVFR,-0.3,,,,,,,,,,,METAR,532.0
KASX 122053Z AUTO 08006KT 10SM OVC019 M02/M06 A3047 RMK AO2 SLP332 T10221061 55000,KASX,2019-01-12T20:53:00Z,46.55,-90.92,-2.2,-6.1,80,6,,10.0,30.469488,1033.2,,TRUE,TRUE,,,,,,,OVC,1900,,,,,,,MVFR,0.0,,,,,,,,,,,METAR,251.0
KAXN 122053Z AUTO 08005KT 10SM OVC044 M02/M07 A3035 RMK AO2 SLP300 T10171072 55001,KAXN,2019-01-12T20:53:00Z,45.87,-95.4,-1.7,-7.2,80,5,,10.0,30.351377,1030.0,,TRUE,TRUE,,,,,,,OVC,4400,,,,,,,VFR,-0.1,,,,,,,,,,,METAR,433.0
KAZO 122053Z 08009KT 1 1/2SM -SN OVC024 M01/M05 A3034 RMK AO2 SNE1956B27 SLP288 P0000 60000 T10111050 56000,KAZO,2019-01-12T20:53:00Z,42.23,-85.55,-1.1,-5.0,80,9,,1.5,30.339567,1028.8,,,TRUE,,,,,,-SN,OVC,2400,,,,,,,IFR,0.0,,,,,0.005,0.005,,,,,METAR,272.0
KBBW 122053Z AUTO 35013KT 10SM OVC006 M05/M06 A3024 RMK AO2 SLP274 T10501061 55001,KBBW,2019-01-12T20:53:00Z,41.43,-99.63,-5.0,-6.1,350,13,,10.0,30.239174,1027.4,,TRUE,TRUE,,,,,,,OVC,600,,,,,,,IFR,-0.1,,,,,,,,,,,METAR,776.0
KBCE 122053Z AUTO 16005KT 10SM CLR 01/M09 A3011 RMK AO2 SLP210 T00061094 56027,KBCE,2019-01-12T20:53:00Z,37.7,-112.15,0.6,-9.4,160,5,,10.0,30.109253,1021.0,,TRUE,TRUE,,,,,,,CLR,,,,,,,,VFR,-2.7,,,,,,,,,,,METAR,2312.0
KBDE 122053Z AUTO 13006KT 10SM OVC008 M06/M07 A3042 RMK AO2 SLP325 T10561072 55007,KBDE,2019-01-12T20:53:00Z,48.73,-94.62,-5.6,-7.2,130,6,,10.0,30.41929,1032.5,,TRUE,TRUE,,,,,,,OVC,800,,,,,,,IFR,-0.7,,,,,,,,,,,METAR,329.0
KBEH 122053Z AUTO 07008KT 1/2SM SN FZFG VV011 M02/M04 A3034 RMK AO2 SLP282 P0003 60005 T10221044 55004,KBEH,2019-01-12T20:53:00Z,42.13,-86.42,-2.2,-4.4,70,8,,0.5,30.339567,1028.2,,TRUE,TRUE,,,,,,SN FZFG,OVX,0,,,,,,,LIFR,-0.4,,,,,0.03,0.05,,,,1100,METAR,191.0
KBFD 122053Z AUTO 09005KT 10SM OVC055 M04/M14 A3034 RMK AO2 SLP306 T10441139 55005,KBFD,2019-01-12T20:53:00Z,41.8,-78.63,-4.4,-13.9,90,5,,10.0,30.339567,1030.6,,TRUE,TRUE,,,,,,,OVC,5500,,,,,,,VFR,-0.5,,,,,,,,,,,METAR,647.0
KBFF 122053Z AUTO 26006KT 10SM CLR 08/00 A3016 RMK AO2 SLP220 T00780000 56022,KBFF,2019-01-12T20:53:00Z,41.87,-103.58,7.8,0.0,260,6,,10.0,30.159449,1022.0,,TRUE,TRUE,,,,,,,CLR,,,,,,,,VFR,-2.2,,,,,,,,,,,METAR,1203.0
KBFI 122053Z 00000KT 10SM CLR 12/04 A3000 RMK AO2 SLP158 T01170044 58003,KBFI,2019-01-12T20:53:00Z,47.55,-122.32,11.7,4.4,0,0,,10.0,30.0,1015.8,,,TRUE,,,,,,,CLR,,,,,,,,VFR,-0.3,,,,,,,,,,,METAR,4.0
KBFM 122053Z 17009KT 10SM BKN032 BKN049 OVC100 18/15 A3003 RMK AO2 SLP168 60000 T01780150 56018,KBFM,2019-01-12T20:53:00Z,30.62,-88.07,17.8,15.0,170,9,,10.0,30.029528,1016.8,,,TRUE,,,,,,,BKN,3200,BKN,4900,OVC,10000,,,VFR,-1.8,,,,,,0.005,,,,,METAR,20.0
KBGM 122053Z 36004KT 10SM OVC080 M07/M13 A3040 RMK AO2 SLP327 T10671128 58004,KBGM,2019-01-12T20:53:00Z,42.22,-75.98,-6.7,-12.8,360,4,,10.0,30.398623,1032.7,,,TRUE,,,,,,,OVC,8000,,,,,,,VFR,-0.4,,,,,,,,,,,METAR,490.0
KBGR 122053Z 30011KT 10SM FEW030 M09/M17 A3031 RMK AO2 SLP271 T10941172 53015,KBGR,2019-01-12T20:53:00Z,44.8,-68.82,-9.4,-17.2,300,11,,10.0,30.31004,1027.1,,,TRUE,,,,,,,FEW,3000,,,,,,,VFR,1.5,,,,,,,,,,,METAR,57.0
KBHM 122053Z 12016G22KT 8SM -RA FEW015 BKN070 OVC085 10/06 A3004 RMK AO2 RAE17B47 SLP171 P0000 60001 T01000056 58039,KBHM,2019-01-12T20:53:00Z,33.57,-86.75,10.0,5.6,120,16,22,8.0,30.041338,1017.1,,,TRUE,,,,,,-RA,FEW,1500,BKN,7000,OVC,8500,,,VFR,-3.9,,,,,0.005,0.01,,,,,METAR,197.0
KBIV 122053Z AUTO 09010G17KT 10SM FEW028 OVC070 M01/M07 A3037 RMK AO2 SLP293 T10061067 55007,KBIV,2019-01-12T20:53:00Z,42.75,-86.1,-0.6,-6.7,90,10,17,10.0,30.369095,1029.3,,TRUE,TRUE,,,,,,,FEW,2800,OVC,7000,,,,,VFR,-0.7,,,,,,,,,,,METAR,208.0
KBKE 122053Z AUTO 11013KT 10SM CLR 04/M02 A3019 RMK AO2 SLP242 T00441022 56018,KBKE,2019-01-12T20:53:00Z,44.85,-117.82,4.4,-2.2,110,13,,10.0,30.188976,1024.2,,TRUE,TRUE,,,,,,,CLR,,,,,,,,VFR,-1.8,,,,,,,,,,,METAR,1024.0
KBKL 122053Z 06007KT 10SM OVC060 M01/M08 A3037 RMK AO2 SLP293 T10061083 56013,KBKL,2019-01-12T20:53:00Z,41.53,-81.67,-0.6,-8.3,60,7,,10.0,30.369095,1029.3,,,TRUE,,,,,,,OVC,6000,,,,,,,VFR,-1.3,,,,,,,,,,,METAR,184.0
KBKV 122053Z 15009KT 10SM BKN055 24/12 A3016 RMK AO2 SLP212 T02440122 56014,KBKV,2019-01-12T20:53:00Z,28.47,-82.45,24.4,12.2,150,9,,10.0,30.159449,1021.2,,,TRUE,,,,,,,BKN,5500,,,,,,,VFR,-1.4,,,,,,,,,,,METAR,20.0
KBLI 122053Z 36003KT 10SM CLR 11/03 A3000 RMK AO2 SLP168 T01060028 50002,KBLI,2019-01-12T20:53:00Z,48.8,-122.53,10.6,2.8,360,3,,10.0,30.0,1016.8,,,TRUE,,,,,,,CLR,,,,,,,,VFR,0.2,,,,,,,,,,,METAR,50.0
KBMG 122053Z 10007KT 7SM FEW009 SCT065 OVC080 01/00 A3015 RMK AO2 UPB01E15SNE1957 SLP215 P0000 60000 T00110000 56014,KBMG,2019-01-12T20:53:00Z,39.15,-86.62,1.1,0.0,100,7,,7.0,30.15059,1021.5,,,TRUE,,,,,,,FEW,900,SCT,6500,OVC,8000,,,VFR,-1.4,,,,,0.005,0.005,,,,,METAR,257.0
KBMQ 122053Z AUTO 31017G22KT 10SM CLR 14/02 A3015 RMK AO2 SLP202 T01390022 55005,KBMQ,2019-01-12T20:53:00Z,30.73,-98.23,13.9,2.2,310,17,22,10.0,30.15059,1020.2,,TRUE,TRUE,,,,,,,CLR,,,,,,,,VFR,-0.5,,,,,,,,,,,METAR,389.0
KBNA 122053Z 14007KT 9SM -RA FEW030 BKN050 OVC070 08/03 A3007 RMK AO2 RAB29 SLP183 P0001 60002 T00780033 56015,KBNA,2019-01-12T20:53:00Z,36.12,-86.68,7.8,3.3,140,7,,9.0,30.070866,1018.3,,,TRUE,,,,,,-RA,FEW,3000,BKN,5000,OVC,7000,,,VFR,-1.5,,,,,0.01,0.02,,,,,METAR,210.0
KBNO 122053Z AUTO 05013KT 10SM CLR 02/M04 A3015 RMK AO2 SLP230 T00171039 56014 $,KBNO,2019-01-12T20:53:00Z,43.6,-118.95,1.7,-3.9,50,13,,10.0,30.15059,1023.0,,TRUE,TRUE,TRUE,,,,,,CLR,,,,,,,,VFR,-1.4,,,,,,,,,,,METAR,1264.0
KBOI 122053Z VRB04KT 10SM CLR 04/M04 A3024 RMK AO2 SLP254 T00391044 58018,KBOI,2019-01-12T20:53:00Z,43.57,-116.23,3.9,-4.4,0,4,,10.0,30.239174,1025.4,,,TRUE,,,,,,,CLR,,,,,,,,VFR,-1.8,,,,,,,,,,,METAR,875.0
KELY 122053Z AUTO 34005KT 10SM CLR 01/M06 A3012 RMK AO2 SLP222 T00111056 56030,KELY,2019-01-12T20:53:00Z,39.3,-114.85,1.1,-5.6,340,5,,10.0,30.121063,1022.2,,TRUE,TRUE,,,,,,,CLR,,,,,,,,VFR,-3.0,,,,,,,,,,,METAR,1906.0
KEMP 122053Z AUTO 35010G20KT 5SM BR OVC011 M01/M02 A3008 RMK AO2 SLP201 T10111022 53009 $,KEMP,2019-01-12T20:53:00Z,38.33,-96.2,-1.1,-2.2,350,10,20,5.0,30.079725,1020.1,,TRUE,TRUE,TRUE,,,,,BR,OVC,1100,,,,,,,MVFR,0.9,,,,,,,,,,,METAR,367.0
KEPH 122053Z AUTO 01008KT 10SM CLR 05/01 A3020 RMK AO2 SLP239 T00500006 56007,KEPH,2019-01-12T20:53:00Z,47.3,-119.52,5.0,0.6,10,8,,10.0,30.200787,1023.9,,TRUE,TRUE,,,,,,,CLR,,,,,,,,VFR,-0.7,,,,,,,,,,,METAR,383.0
KEQY 122053Z AUTO 06007KT 9SM OVC021 03/M04 A3035 RMK AO2 SLP298 60000 T00331044 56020,KEQY,2019-01-12T20:53:00Z,35.02,-80.62,3.3,-4.4,60,7,,9.0,30.351377,1029.8,,TRUE,TRUE,,,,,,,OVC,2100,,,,,,,MVFR,-2.0,,,,,,0.005,,,,,METAR,212.0
KESF 122053Z AUTO 27010KT 10SM CLR 19/13 A2994 RMK AO2 SLP136 T01940128 55012,KESF,2019-01-12T20:53:00Z,31.4,-92.28,19.4,12.8,270,10,,10.0,29.940945,1013.6,,TRUE,TRUE,,,,,,,CLR,,,,,,,,VFR,-1.2,,,,,,,,,,,METAR,28.0
KEVW 122053Z AUTO 00000KT 10SM CLR M07/M11 A3017 RMK AO2 SLP265 T10721111 56016,KEVW,2019-01-12T20:53:00Z,41.27,-111.03,-7.2,-11.1,0,0,,10.0,30.171259,1026.5,,TRUE,TRUE,,,,,,,CLR,,,,,,,,VFR,-1.6,,,,,,,,,,,METAR,2177.0
KEWB 122053Z 28009KT 10SM FEW100 M02/M16 A3042 RMK AO2 SLP301 T10171161 55000,KEWB,2019-01-12T20:53:00Z,41.68,-70.95,-1.7,-16.1,280,9,,10.0,30.41929,1030.1,,,TRUE,,,,,,,FEW,10000,,,,,,,VFR,0.0,,,,,,,,,,,METAR,23.0
KEYW 122053Z 11010KT 10SM FEW050 26/19 A3011 RMK AO2 SLP195 T02610194 56008,KEYW,2019-01-12T20:53:00Z,24.55,-81.75,26.1,19.4,110,10,,10.0,30.109253,1019.5,,,TRUE,,,,,,,FEW,5000,,,,,,,VFR,-0.8,,,,,,,,,,,METAR,5.0
KEYE 122053Z AUTO 08008KT 3/4SM -SN BR OVC007 M01/M02 A3019 RMK AO2 CIG 004V011 SLP233 P0004 60010 T10061017 58002 $,KEYE,2019-01-12T20:53:00Z,39.83,-86.3,-0.6,-1.7,80,8,,0.75,30.188976,1023.3,,TRUE,TRUE,TRUE,,,,,-SN BR,OVC,700,,,,,,,LIFR,-0.2,,,,,0.04,0.1,,,,,METAR,248.0
KFAR 122053Z 34004KT 4SM BR SCT012 OVC041 M03/M04 A3039 RMK AO2 SLP307 T10281044 55003 $,KFAR,2019-01-12T20:53:00Z,46.93,-96.82,-2.8,-4.4,340,4,,4.0,30.389763,1030.7,,,TRUE,TRUE,,,,,BR,SCT,1200,OVC,4100,,,,,MVFR,-0.3,,,,,,,,,,,METAR,277.0
KFAT 122053Z 14004KT 10SM FEW080 SCT120 BKN250 16/06 A3000 RMK AO2 SLP156 T01610061 58020,KFAT,2019-01-12T20:53:00Z,36.78,-119.72,16.1,6.1,140,4,,10.0,30.0,1015.6,,,TRUE,,,,,,,FEW,8000,SCT,12000,BKN,25000,,,VFR,-2.0,,,,,,,,,,,METAR,104.0
KFAY 122053Z 03007KT 10SM OVC028 06/M05 A3041 RMK AO2 SLP294 T00561050 55007 $,KFAY,2019-01-12T20:53:00Z,34.98,-78.88,5.6,-5.0,30,7,,10.0,30.410433,1029.4,,,TRUE,TRUE,,,,,,OVC,2800,,,,,,,MVFR,-0.7,,,,,,,,,,,METAR,55.0
KFCM 122053Z 06006KT 5SM HZ OVC055 M02/M06 A3035 RMK AO2 SLP293 T10171056 53002,KFCM,2019-01-12T20:53:00Z,44.83,-93.47,-1.7,-5.6,60,6,,5.0,30.351377,1029.3,,,TRUE,,,,,,HZ,OVC,5500,,,,,,,MVFR,0.2,,,,,,,,,,,METAR,280.0
KFDR 122053Z AUTO 33018KT 10SM OVC027 06/01 A3015 RMK AO2 PK WND 33027/2040 SLP211 T00560006 53005,KFDR,2019-01-12T20:53:00Z,34.35,-98.98,5.6,0.6,330,18,,10.0,30.15059,1021.1,,TRUE,TRUE,,,,,,,OVC,2700,,,,,,,MVFR,0.5,,,,,,,,,,,METAR,386.0
KFFC 122053Z AUTO 11009KT 10SM OVC025 08/01 A3018 RMK AO2 SLP226 T00830006 56025,KFFC,2019-01-12T20:53:00Z,33.35,-84.57,8.3,0.6,110,9,,10.0,30.180119,1022.6,,TRUE,TRUE,,,,,,,OVC,2500,,,,,,,MVFR,-2.5,,,,,,,,,,,METAR,262.0
KFFT 122053Z AUTO 09008KT 10SM OVC035 03/00 A3016 RMK AO2 SLP218 T00280000 55024 $,KFFT,2019-01-12T20:53:00Z,38.18,-84.9,2.8,0.0,90,8,,10.0,30.159449,1021.8,,TRUE,TRUE,TRUE,,,,,,OVC,3500,,,,,,,VFR,-2.4,,,,,,,,,,,METAR,236.0
KFHR 122053Z AUTO 00000KT 10SM CLR 12/02 A3001 RMK AO2 SLP161 T01220022 58000,KFHR,2019-01-12T20:53:00Z,48.52,-123.03,12.2,2.2,0,0,,10.0,30.008858,1016.1,,TRUE,TRUE,,,,,,,CLR,,,,,,,,VFR,0.0,,,,,,,,,,,METAR,32.0
KFLL 122053Z AUTO 11012KT 10SM CLR 24/16 A3014 RMK AO2 SLP207 T02440161 55005,KFLL,2019-01-12T20:53:00Z,26.07,-80.15,24.4,16.1,110,12,,10.0,30.138779,1020.7,,TRUE,TRUE,,,,,,,CLR,,,,,,,,VFR,-0.5,,,,,,,,,,,METAR,3.0
KFLO 122053Z AUTO 05010KT 10SM BKN080 07/M06 A3036 RMK AO2 SLP280 T00721056 58014,KFLO,2019-01-12T20:53:00Z,34.18,-79.73,7.2,-5.6,50,10,,10.0,30.360237,1028.0,,TRUE,TRUE,,,,,,,BKN,8000,,,,,,,VFR,-1.4,,,,,,,,,,,METAR,44.0
KFMN 122053Z 22004KT 10SM SCT049 04/M04 A3015 RMK AO2 SLP221 T00441039 56022,KFMN,2019-01-12T20:53:00Z,36.75,-108.23,4.4,-3.9,220,4,,10.0,30.15059,1022.1,,,TRUE,,,,,,,SCT,4900,,,,,,,VFR,-2.2,,,,,,,,,,,METAR,1685.0
KFMY 122053Z 28009KT 10SM SCT050 BKN075 26/15 A3012 RMK AO2 SLP202 T02610150 55010,KFMY,2019-01-12T20:53:00Z,26.58,-81.87,26.1,15.0,280,9,,10.0,30.121063,1020.2,,,TRUE,,,,,,,SCT,5000,BKN,7500,,,,,VFR,-1.0,,,,,,,,,,,METAR,4.0
KFNB 122053Z AUTO 01011G21KT 3SM BR OVC011 M01/M03 A3014 RMK AO2 SNB38E47 SLP216 P0000 60009 T10061028 55000 $,KFNB,2019-01-12T20:53:00Z,40.07,-95.58,-0.6,-2.8,10,11,21,3.0,30.138779,1021.6,,TRUE,TRUE,TRUE,,,,,BR,OVC,1100,,,,,,,MVFR,0.0,,,,,0.005,0.09,,,,,METAR,300.0
KFNT 122053Z 09012KT 10SM BKN026 OVC032 M02/M07 A3042 RMK AO2 SLP312 T10171067 55005,KFNT,2019-01-12T20:53:00Z,42.97,-83.75,-1.7,-6.7,90,12,,10.0,30.41929,1031.2,,,TRUE,,,,,,,BKN,2600,OVC,3200,,,,,MVFR,-0.5,,,,,,,,,,,METAR,233.0
KFOE 122053Z 36014G20KT 6SM BR OVC009 M01/M03 A3009 RMK AO2 SLP198 T10061028 53006,KFOE,2019-01-12T20:53:00Z,38.93,-95.65,-0.6,-2.8,360,14,20,6.0,30.088583,1019.8,,,TRUE,,,,,,BR,OVC,900,,,,,,,IFR,0.6,,,,,,,,,,,METAR,320.0
KFOK 122053Z 30008KT 10SM CLR M02/M13 A3051 RMK AO2 SLP331 T10221128 50002 $,KFOK,2019-01-12T20:53:00Z,40.85,-72.62,-2.2,-12.8,300,8,,10.0,30.510826,1033.1,,,TRUE,TRUE,,,,,,CLR,,,,,,,,VFR,0.2,,,,,,,,,,,METAR,33.0
KMSN 122053Z 08012KT 7SM FEW021 OVC060 00/M05 A3032 RMK AO2 SLP278 T00001050 56004,KMSN,2019-01-12T20:53:00Z,43.13,-89.35,0.0,-5.0,80,12,,7.0,30.318897,1027.8,,,TRUE,,,,,,,FEW,2100,OVC,6000,,,,,VFR,-0.4,,,,,,,,,,,METAR,261.0
KLAA 122053Z AUTO 27008KT 10SM SCT027 BKN036 OVC046 07/00 A3017 RMK AO2 SLP220 T00670000 56015,KLAA,2019-01-12T20:53:00Z,38.07,-102.68,6.7,0.0,270,8,,10.0,30.171259,1022.0,,TRUE,TRUE,,,,,,,SCT,2700,BKN,3600,OVC,4600,,,VFR,-1.5,,,,,,,,,,,METAR,1119.0
KJLN 122053Z COR 36010KT 3SM -SN BR OVC005 01/01 A2999 RMK AO2 SNB09E41B44 CIG 004V009 SLP160 P0002 60003 T00110006 53017,KJLN,2019-01-12T20:53:00Z,37.15,-94.5,1.1,0.6,360,10,,3.0,29.991142,1016.0,TRUE,,TRUE,,,,,,-SN BR,OVC,500,,,,,,,IFR,1.7,,,,,0.02,0.03,,,,,METAR,299.0
KJKL 122053Z AUTO 06004KT 7SM -RA BKN034 OVC045 02/01 A3018 RMK AO2 SLP231 P0003 60003 T00170011 56023,KJKL,2019-01-12T20:53:00Z,37.6,-83.32,1.7,1.1,60,4,,7.0,30.180119,1023.1,,TRUE,TRUE,,,,,,-RA,BKN,3400,OVC,4500,,,,,VFR,-2.3,,,,,0.03,0.03,,,,,METAR,416.0
KJER 122053Z AUTO 07015KT 10SM CLR 01/M03 A3021 RMK AO2 SLP254 T00111028 56014,KJER,2019-01-12T20:53:00Z,42.72,-114.45,1.1,-2.8,70,15,,10.0,30.209646,1025.4,,TRUE,TRUE,,,,,,,CLR,,,,,,,,VFR,-1.4,,,,,,,,,,,METAR,1222.0
KJEF 122053Z 06008KT 6SM BR OVC013 01/M01 A3001 RMK AO2 SLP155 P0001 60006 T00111006 53000 $,KJEF,2019-01-12T20:53:00Z,38.6,-92.15,1.1,-0.6,60,8,,6.0,30.008858,1015.5,,,TRUE,TRUE,,,,,BR,OVC,1300,,,,,,,MVFR,0.0,,,,,0.01,0.06,,,,,METAR,168.0
KLAN 122053Z 07009KT 10SM OVC024 M01/M06 A3039 RMK AO2 SLP304 T10111061 55008,KLAN,2019-01-12T20:53:00Z,42.78,-84.58,-1.1,-6.1,70,9,,10.0,30.389763,1030.4,,,TRUE,,,,,,,OVC,2400,,,,,,,MVFR,-0.8,,,,,,,,,,,METAR,264.0
KLAX 122053Z 10005G16KT 10SM SCT017 BKN024 BKN080 16/11 A2999 RMK AO2 SLP155 60010 T01560111 58024,KLAX,2019-01-12T20:53:00Z,33.93,-118.38,15.6,11.1,100,5,16,10.0,29.991142,1015.5,,,TRUE,,,,,,,SCT,1700,BKN,2400,BKN,8000,,,MVFR,-2.4,,,,,,0.1,,,,,METAR,46.0
KLAW 122053Z 33016G26KT 10SM OVC024 05/01 A3015 RMK AO2 PK WND 34027/2040 SLP213 T00500006 53007,KLAW,2019-01-12T20:53:00Z,34.55,-98.42,5.0,0.6,330,16,26,10.0,30.15059,1021.3,,,TRUE,,,,,,,OVC,2400,,,,,,,MVFR,0.7,,,,,,,,,,,METAR,337.0
KLAR 122053Z AUTO 25005KT 1/2SM FZFG OVC002 M04/M06 A3014 RMK AO2 SLP239 I1000 I3000 T10441061 56017,KLAR,2019-01-12T20:53:00Z,41.32,-105.67,-4.4,-6.1,250,5,,0.5,30.138779,1023.9,,TRUE,TRUE,,,,,,FZFG,OVC,200,,,,,,,LIFR,-1.7,,,,,,,,,,,METAR,2216.0
KLHX 122053Z AUTO 29004KT 10SM OVC039 06/00 A3019 RMK AO2 SLP224 T00560000 56016,KLHX,2019-01-12T20:53:00Z,38.05,-103.52,5.6,0.0,290,4,,10.0,30.188976,1022.4,,TRUE,TRUE,,,,,,,OVC,3900,,,,,,,VFR,-1.6,,,,,,,,,,,METAR,1277.0
KLIT 122053Z 28004KT 2 1/2SM BR OVC004 08/07 A2992 RMK AO2 DZE27 SLP134 VIS 2V3 P0000 60001 T00780067 55004,KLIT,2019-01-12T20:53:00Z,34.73,-92.23,7.8,6.7,280,4,,2.5,29.920275,1013.4,,,TRUE,,,,,,BR,OVC,400,,,,,,,LIFR,-0.4,,,,,0.005,0.01,,,,,METAR,79.0
KMFR 122053Z VRB03KT 10SM CLR 16/M01 A2992 RMK AO2 SLP130 T01611006 58020,KMFR,2019-01-12T20:53:00Z,42.38,-122.87,16.1,-0.6,0,3,,10.0,29.920275,1013.0,,,TRUE,,,,,,,CLR,,,,,,,,VFR,-2.0,,,,,,,,,,,METAR,396.0
KLMT 122053Z 33005KT 10SM CLR 08/M01 A3001 RMK AO2 SLP165 T00831011 58016,KLMT,2019-01-12T20:53:00Z,42.15,-121.72,8.3,-1.1,330,5,,10.0,30.008858,1016.5,,,TRUE,,,,,,,CLR,,,,,,,,VFR,-1.6,,,,,,,,,,,METAR,1246.0
KMGY 122053Z AUTO 08009KT 1 1/2SM -SN BR OVC023 M01/M03 A3023 RMK AO2 SLP247 P0003 60006 T10061028 55011,KMGY,2019-01-12T20:53:00Z,39.6,-84.23,-0.6,-2.8,80,9,,1.5,30.230314,1024.7,,TRUE,TRUE,,,,,,-SN BR,OVC,2300,,,,,,,IFR,-1.1,,,,,0.03,0.06,,,,,METAR,289.0
KMGW 122053Z 02003KT 1 1/2SM -SN BKN014 OVC026 M01/M03 A3032 RMK AO2 SNB30 SLP285 P0000 60000 T10061033 56008,KMGW,2019-01-12T20:53:00Z,39.65,-79.92,-0.6,-3.3,20,3,,1.5,30.318897,1028.5,,,TRUE,,,,,,-SN,BKN,1400,OVC,2600,,,,,IFR,-0.8,,,,,0.005,0.005,,,,,METAR,378.0
KMGM 122053Z AUTO 09009KT 10SM OVC023 14/08 A3007 RMK AO2 RAB19E36 SLP181 P0000 60000 T01390083 56033 TSNO,KMGM,2019-01-12T20:53:00Z,32.3,-86.4,13.9,8.3,90,9,,10.0,30.070866,1018.1,,TRUE,TRUE,,,TRUE,,,,OVC,2300,,,,,,,MVFR,-3.3,,,,,0.005,0.005,,,,,METAR,63.0
KMIE 122053Z 08010KT 1/2SM SN FZFG BKN008 OVC016 M01/M03 A3023 RMK AO2 SLP245 P0002 60006 T10111033 55008,KMIE,2019-01-12T20:53:00Z,40.23,-85.4,-1.1,-3.3,80,10,,0.5,30.230314,1024.5,,,TRUE,,,,,,SN FZFG,BKN,800,OVC,1600,,,,,LIFR,-0.8,,,,,0.02,0.06,,,,,METAR,285.0
KMIC 122053Z 07006KT 7SM OVC055 M01/M06 A3037 RMK AO2 SLP296 T10111061 53002,KMIC,2019-01-12T20:53:00Z,45.07,-93.35,-1.1,-6.1,70,6,,7.0,30.369095,1029.6,,,TRUE,,,,,,,OVC,5500,,,,,,,VFR,0.2,,,,,,,,,,,METAR,265.0
KMIA 122053Z 12012KT 10SM BKN040 25/17 A3015 RMK AO2 SLP210 T02500167 55006,KMIA,2019-01-12T20:53:00Z,25.8,-80.28,25.0,16.7,120,12,,10.0,30.15059,1021.0,,,TRUE,,,,,,,BKN,4000,,,,,,,VFR,-0.6,,,,,,,,,,,METAR,3.0
KMHT 122053Z 30010G15KT 10SM FEW200 M05/M18 A3043 RMK AO2 SLP327 T10501183 53005,KMHT,2019-01-12T20:53:00Z,42.93,-71.43,-5.0,-18.3,300,10,15,10.0,30.431103,1032.7,,,TRUE,,,,,,,FEW,20000,,,,,,,VFR,0.5,,,,,,,,,,,METAR,81.0
KSJC 122053Z 16012KT 10SM FEW020 SCT035 BKN050 17/08 A2993 RMK AO2 SLP134 T01720083 58026,KSJC,2019-01-12T20:53:00Z,37.37,-121.92,17.2,8.3,160,12,,10.0,29.929134,1013.4,,,TRUE,,,,,,,FEW,2000,SCT,3500,BKN,5000,,,VFR,-2.6,,,,,,,,,,,METAR,24.0
KVRB 122053Z 13012KT 10SM SCT070 24/14 A3017 RMK AO2 SLP216 T02390139 56007,KVRB,2019-01-12T20:53:00Z,27.65,-80.42,23.9,13.9,130,12,,10.0,30.171259,1021.6,,,TRUE,,,,,,,SCT,7000,,,,,,,VFR,-0.7,,,,,,,,,,,METAR,10.0
KLBB 122053Z 36016G25KT 10SM SCT030 09/M01 A3016 RMK AO2 PK WND 36026/1958 SLP208 T00941006 56017,KLBB,2019-01-12T20:53:00Z,33.67,-101.82,9.4,-0.6,360,16,25,10.0,30.159449,1020.8,,,TRUE,,,,,,,SCT,3000,,,,,,,VFR,-1.7,,,,,,,,,,,METAR,993.0
KLBF 122053Z AUTO 02009KT 10SM OVC009 M02/M04 A3023 RMK AO2 SLP261 T10171044 55009,KLBF,2019-01-12T20:53:00Z,41.12,-100.67,-1.7,-4.4,20,9,,10.0,30.230314,1026.1,,TRUE,TRUE,,,,,,,OVC,900,,,,,,,IFR,-0.9,,,,,,,,,,,METAR,847.0
KLBX 122053Z AUTO 32010G15KT 10SM CLR 21/08 A3005 RMK AO2 SLP174 T02060083 55009,KLBX,2019-01-12T20:53:00Z,29.12,-95.47,20.6,8.3,320,10,15,10.0,30.050198,1017.4,,TRUE,TRUE,,,,,,,CLR,,,,,,,,VFR,-0.9,,,,,,,,,,,METAR,6.0
KLCH 122053Z 28006KT 10SM CLR 22/13 A2998 RMK AO2 SLP159 T02220133 55010,KLCH,2019-01-12T20:53:00Z,30.13,-93.22,22.2,13.3,280,6,,10.0,29.97933,1015.9,,,TRUE,,,,,,,CLR,,,,,,,,VFR,-1.0,,,,,,,,,,,METAR,4.0
KLEB 122053Z 29007KT 10SM CLR M08/M19 A3044 RMK AO2 SLP331 T10781189 53005,KLEB,2019-01-12T20:53:00Z,43.63,-72.3,-7.8,-18.9,290,7,,10.0,30.43996,1033.1,,,TRUE,,,,,,,CLR,,,,,,,,VFR,0.5,,,,,,,,,,,METAR,171.0
KLEE 122053Z 15005KT 10SM SCT070 23/12 A3017 RMK AO2 SLP215 T02330122 56016,KLEE,2019-01-12T20:53:00Z,28.82,-81.82,23.3,12.2,150,5,,10.0,30.171259,1021.5,,,TRUE,,,,,,,SCT,7000,,,,,,,VFR,-1.6,,,,,,,,,,,METAR,23.0
KLFK 122053Z AUTO 30009G17KT 10SM CLR 14/05 A3003 RMK AO2 SLP167 T01440050 53002,KLFK,2019-01-12T20:53:00Z,31.23,-94.75,14.4,5.0,300,9,17,10.0,30.029528,1016.7,,TRUE,TRUE,,,,,,,CLR,,,,,,,,VFR,0.2,,,,,,,,,,,METAR,88.0
K6R6 122053Z AUTO 34010KT 16/03 A3017 RMK AO1 SLP202 T01610028 $,K6R6,2019-01-12T20:53:00Z,30.05,-102.22,16.1,2.8,340,10,,,30.171259,1020.2,,TRUE,TRUE,TRUE,,,,,,,,,,,,,,,,,,,,,,,,,,SPECI,701.0
MUCL 122053Z 10014KT 9999 FEW020 27/20 Q1017,MUCL,2019-01-12T20:53:00Z,21.63,-81.55,27.0,20.0,100,14,,6.21,30.029528,,,,,,,,,,,FEW,2000,,,,,,,VFR,,,,,,,,,,,,METAR,5.0
MUSC 122053Z 10012KT 9000 SCT025 27/15 Q1018,MUSC,2019-01-12T20:53:00Z,22.5,-79.95,27.0,15.0,100,12,,5.59,30.059055,,,,,,,,,,,SCT,2500,,,,,,,VFR,,,,,,,,,,,,METAR,103.0
PAYA 122053Z AUTO 07003KT 4SM -FZRA FEW022 OVC031 00/M04 A2985 RMK AO2 UPB1955E1957B25E49FZRAB1957E25B49 SLP108 P0003 60003 I1000 I3000 T00001044 50002 TSNO,PAYA,2019-01-12T20:53:00Z,59.52,-139.67,0.0,-4.4,70,3,,4.0,29.84941,1010.8,,TRUE,TRUE,,,TRUE,,,-FZRA,FEW,2200,OVC,3100,,,,,MVFR,0.2,,,,,0.03,0.03,,,,,METAR,11.0
PAWI 122053Z AUTO 06007KT 10SM CLR M36/ A3035 RMK AO2 SLP280 T1356 55000 TSNO $,PAWI,2019-01-12T20:53:00Z,70.62,-159.85,-35.6,,60,7,,10.0,30.351377,1028.0,,TRUE,TRUE,TRUE,,TRUE,,,,CLR,,,,,,,,VFR,0.0,,,,,,,,,,,METAR,27.0
PAVL 122053Z AUTO 02007KT 7SM CLR M31/M36 A3009 RMK AO2 SLP189 T13111356 58004 TSNO $,PAVL,2019-01-12T20:53:00Z,67.73,-164.55,-31.1,-35.6,20,7,,7.0,30.088583,1018.9,,TRUE,TRUE,TRUE,,TRUE,,,,CLR,,,,,,,,VFR,-0.4,,,,,,,,,,,METAR,3.0
PATO 122053Z AUTO 28004KT 10SM OVC060 M13/M16 A2979 RMK AO2 SLP091 T11331156 58004 TSNO $,PATO,2019-01-12T20:53:00Z,60.78,-148.85,-13.3,-15.6,280,4,,10.0,29.790354,1009.1,,TRUE,TRUE,TRUE,,TRUE,,,,OVC,6000,,,,,,,VFR,-0.4,,,,,,,,,,,METAR,31.0
PATK 122053Z 00000KT 10SM OVC055 M15/M18 A2980 RMK AO2 SLP105 T11501183 58008,PATK,2019-01-12T20:53:00Z,62.3,-150.1,-15.0,-18.3,0,0,,10.0,29.799213,1010.5,,,TRUE,,,,,,,OVC,5500,,,,,,,VFR,-0.8,,,,,,,,,,,METAR,109.0
PASO 122053Z AUTO 01005KT 2 1/2SM -SN FEW016 BKN044 OVC060 M05/M08 A2962 RMK AO2 SLP032 P0000 60001 T10501078 56010 TSNO,PASO,2019-01-12T20:53:00Z,59.45,-151.7,-5.0,-7.8,10,5,,2.5,29.619095,1003.2,,TRUE,TRUE,,,TRUE,,,-SN,FEW,1600,BKN,4400,OVC,6000,,,IFR,-1.0,,,,,0.005,0.01,,,,,METAR,9.0
PASN 122053Z AUTO 05027G36KT 3SM -SN BR OVC010 M06/M08 A2918 RMK AO2 PK WND 05036/2049 SLP884 P0000 60000 T10561078 58023 TSNO,PASN,2019-01-12T20:53:00Z,57.15,-170.22,-5.6,-7.8,50,27,36,3.0,29.179134,988.4,,TRUE,TRUE,,,TRUE,,,-SN BR,OVC,1000,,,,,,,MVFR,-2.3,,,,,0.005,0.005,,,,,METAR,29.0
TIST 122053Z 06005KT 10SM SCT030 27/21 A3004 RMK AO2 RAB29E38 SLP172 P0000 60000 T02670206 55004,TIST,2019-01-12T20:53:00Z,18.33,-64.98,26.7,20.6,60,5,,10.0,30.041338,1017.2,,,TRUE,,,,,,,SCT,3000,,,,,,,VFR,-0.4,,,,,0.005,0.005,,,,,METAR,7.0
TISX 122053Z 03010KT 10SM SCT026 BKN055 26/23 A3005 RMK AO2 SLP173 T02610228 55001,TISX,2019-01-12T20:53:00Z,17.7,-64.8,26.1,22.8,30,10,,10.0,30.050198,1017.3,,,TRUE,,,,,,,SCT,2600,BKN,5500,,,,,VFR,-0.1,,,,,,,,,,,METAR,19.0
PHJR 122053Z VRB05KT 10SM CLR 27/18 A3005 RMK AO2 SLP181 T02670178 50000,PHJR,2019-01-12T20:53:00Z,21.32,-158.07,26.7,17.8,0,5,,10.0,30.050198,1018.1,,,TRUE,,,,,,,CLR,,,,,,,,VFR,0.0,,,,,,,,,,,METAR,15.0
PHLI 122053Z 04008KT 10SM BKN040 OVC048 24/19 A3006 RMK AO2 SLP177 T02440194 50006,PHLI,2019-01-12T20:53:00Z,21.97,-159.33,24.4,19.4,40,8,,10.0,30.059055,1017.7,,,TRUE,,,,,,,BKN,4000,OVC,4800,,,,,VFR,0.6,,,,,,,,,,,METAR,45.0
PHKO 122053Z 25007KT 10SM SCT050 25/19 A3002 RMK AO2 SLP166 T02500189 50000,PHKO,2019-01-12T20:53:00Z,19.73,-156.05,25.0,18.9,250,7,,10.0,30.02067,1016.6,,,TRUE,,,,,,,SCT,5000,,,,,,,VFR,0.0,,,,,,,,,,,METAR,27.0
PHTO 122053Z COR 12004KT 4SM -RA FEW032 BKN047 OVC055 23/19 A3007 RMK AO2 RAB47 SLP180 P0000 60000 T02280194 50000 $,PHTO,2019-01-12T20:53:00Z,19.72,-155.05,22.8,19.4,120,4,,4.0,30.070866,1018.0,TRUE,,TRUE,TRUE,,,,,-RA,FEW,3200,BKN,4700,OVC,5500,,,MVFR,0.0,,,,,0.005,0.005,,,,,METAR,12.0
PASI 122053Z 36004KT 10SM SCT200 04/03 A2985 RMK AO2 SLP107 T00390028 50005 $,PASI,2019-01-12T20:53:00Z,57.07,-135.35,3.9,2.8,360,4,,10.0,29.84941,1010.7,,,TRUE,TRUE,,,,,,SCT,20000,,,,,,,VFR,0.5,,,,,,,,,,,METAR,5.0
PASC 122053Z 24007KT 10SM CLR M40/ A3038 RMK AO2 SLP293 T1400 53005,PASC,2019-01-12T20:53:00Z,70.2,-148.47,-40.0,,240,7,,10.0,30.380905,1029.3,,,TRUE,,,,,,,CLR,,,,,,,,VFR,0.5,,,,,,,,,,,METAR,15.0
PAOT 122053Z 10007KT 10SM CLR M34/ A3007 RMK AO2 SLP181 T1344 56008 VISNO E $,PAOT,2019-01-12T20:53:00Z,66.87,-162.58,-34.4,,100,7,,10.0,30.070866,1018.1,,,TRUE,TRUE,,,,,,CLR,,,,,,,,VFR,-0.8,,,,,,,,,,,METAR,3.0
PAOR 122053Z 00000KT 10SM SCT100 BKN150 M36/ A3002 RMK AO2 SLP283 T1361 50004,PAOR,2019-01-12T20:53:00Z,62.97,-141.93,-36.1,,0,0,,10.0,30.02067,1028.3,,,TRUE,,,,,,,SCT,10000,BKN,15000,,,,,VFR,0.4,,,,,,,,,,,METAR,523.0
PAOM 122053Z 00000KT 10SM CLR M29/M33 A2980 RMK AO2 SLP093 T12941328 58018,PAOM,2019-01-12T20:53:00Z,64.5,-165.43,-29.4,-32.8,0,0,,10.0,29.799213,1009.3,,,TRUE,,,,,,,CLR,,,,,,,,VFR,-1.8,,,,,,,,,,,METAR,11.0
PANN 122053Z AUTO 00000KT 10SM BKN110 M36/ A2997 RMK AO2 SLP172 T1356 58005 TSNO,PANN,2019-01-12T20:53:00Z,64.55,-149.08,-35.6,,0,0,,10.0,29.970472,1017.2,,TRUE,TRUE,,,TRUE,,,,BKN,11000,,,,,,,VFR,-0.5,,,,,,,,,,,METAR,110.0
PANC 122053Z 08005KT 10SM BKN070 BKN150 M16/M19 A2981 RMK AO2 SLP100 T11561189 58002,PANC,2019-01-12T20:53:00Z,61.17,-150.0,-15.6,-18.9,80,5,,10.0,29.811024,1010.0,,,TRUE,,,,,,,BKN,7000,BKN,15000,,,,,VFR,-0.2,,,,,,,,,,,METAR,38.0
PAMR 122053Z 04005KT 10SM CLR M17/M20 A2982 RMK AO2 SLP101 T11671200 58004 $,PAMR,2019-01-12T20:53:00Z,61.22,-149.85,-16.7,-20.0,40,5,,10.0,29.819881,1010.1,,,TRUE,TRUE,,,,,,CLR,,,,,,,,VFR,-0.4,,,,,,,,,,,METAR,41.0
PAMC 122053Z AUTO 34004KT 10SM OVC060 M33/M36 A2986 RMK AO2 SLP130 T13281361 58012 TSNO $,PAMC,2019-01-12T20:53:00Z,62.97,-155.62,-32.8,-36.1,340,4,,10.0,29.861221,1013.0,,TRUE,TRUE,TRUE,,TRUE,,,,OVC,6000,,,,,,,VFR,-1.2,,,,,,,,,,,METAR,103.0
PALH 122053Z 07006KT 10SM OVC048 M16/M20 A2983 RMK AO2 SLP103 T11611200 58003,PALH,2019-01-12T20:53:00Z,61.18,-149.97,-16.1,-20.0,70,6,,10.0,29.828741,1010.3,,,TRUE,,,,,,,OVC,4800,,,,,,,VFR,-0.3,,,,,,,,,,,METAR,22.0
PAKV 122053Z AUTO 05009G16KT 10SM CLR M29/M33 A2994 RMK AO2 SLP149 T12891328 58014 TSNO $,PAKV,2019-01-12T20:53:00Z,64.33,-158.75,-28.9,-32.8,50,9,16,10.0,29.940945,1014.9,,TRUE,TRUE,TRUE,,TRUE,,,,CLR,,,,,,,,VFR,-1.4,,,,,,,,,,,METAR,61.0
PAKT 122053Z 12006KT 7SM -RA SCT005 OVC023 02/02 A2987 RMK AO2 SLP117 HARBOR WIND 03005KT P0002 60003 T00220017 58004,PAKT,2019-01-12T20:53:00Z,55.35,-131.7,2.2,1.7,120,6,,7.0,29.870079,1011.7,,,TRUE,,,,,,-RA,SCT,500,OVC,2300,,,,,MVFR,-0.4,,,,,0.02,0.03,,,,,METAR,28.0
PAIL 122053Z 27006KT 10SM OVC042 M04/M07 A2951 RMK AO2 SLP999 T10441072 58015 $,PAIL,2019-01-12T20:53:00Z,59.75,-154.92,-4.4,-7.2,270,6,,10.0,29.509842,999.9,,,TRUE,TRUE,,,,,,OVC,4200,,,,,,,VFR,-1.5,,,,,,,,,,,METAR,49.0
PAHO 122053Z 08003KT 10SM OVC010 M07/M08 A2963 RMK AO2 SLP035 60000 T10671083 58009,PAHO,2019-01-12T20:53:00Z,59.63,-151.47,-6.7,-8.3,80,3,,10.0,29.630905,1003.5,,,TRUE,,,,,,,OVC,1000,,,,,,,MVFR,-0.9,,,,,,0.005,,,,,METAR,28.0
PAGY 122053Z AUTO 00000KT 9SM OVC023 M01/M03 A2995 RMK AO2 SLP143 T10111033 50004 TSNO,PAGY,2019-01-12T20:53:00Z,59.47,-135.3,-1.1,-3.3,0,0,,9.0,29.949802,1014.3,,TRUE,TRUE,,,TRUE,,,,OVC,2300,,,,,,,MVFR,0.4,,,,,,,,,,,METAR,5.0
PAGK 122053Z AUTO 36004KT 10SM CLR M26/M29 A2995 RMK AO2 SLP231 T12611289 50004 TSNO,PAGK,2019-01-12T20:53:00Z,62.15,-145.45,-26.1,-28.9,360,4,,10.0,29.949802,1023.1,,TRUE,TRUE,,,TRUE,,,,CLR,,,,,,,,VFR,0.4,,,,,,,,,,,METAR,481.0
PAFA 122053Z 00000KT 10SM SCT090 BKN110 BKN180 M36/ A3001 RMK AO2 SLP188 T1356 58003 PNO $,PAFA,2019-01-12T20:53:00Z,64.8,-147.85,-35.6,,0,0,,10.0,30.008858,1018.8,,,TRUE,TRUE,,,,,,SCT,9000,BKN,11000,BKN,18000,,,VFR,-0.3,,,,,,,,,,,METAR,132.0
PAEN 122053Z 03008KT 10SM FEW070 M14/M18 A2979 RMK AO2 SLP091 T11391178 58012,PAEN,2019-01-12T20:53:00Z,60.57,-151.25,-13.9,-17.8,30,8,,10.0,29.790354,1009.1,,,TRUE,,,,,,,FEW,7000,,,,,,,VFR,-1.2,,,,,,,,,,,METAR,27.0
PAEG 122053Z AUTO 00000KT 8SM SCT012 OVC019 M36/ A3014 RMK AO2 SLP250 T1356 51008 TSNO,PAEG,2019-01-12T20:53:00Z,64.78,-141.15,-35.6,,0,0,,8.0,30.138779,1025.0,,TRUE,TRUE,,,TRUE,,,,SCT,1200,OVC,1900,,,,,MVFR,0.8,,,,,,,,,,,METAR,268.0
PADE 122053Z AUTO 21006KT 10SM CLR A3000 RMK AO2 SLP161 57010 TSNO $,PADE,2019-01-12T20:53:00Z,66.07,-162.77,,,210,6,,10.0,30.0,1016.1,,TRUE,TRUE,TRUE,,TRUE,,,,CLR,,,,,,,,VFR,-1.0,,,,,,,,,,,METAR,5.0
PACV 122053Z 00000KT 10SM SCT038 BKN150 M05/M07 A2980 RMK AO2 SLP092 T10501072 50002,PACV,2019-01-12T20:53:00Z,60.5,-145.47,-5.0,-7.2,0,0,,10.0,29.799213,1009.2,,,TRUE,,,,,,,SCT,3800,BKN,15000,,,,,VFR,0.2,,,,,,,,,,,METAR,12.0
PACD 122053Z 13007KT 10SM -RA SCT023 BKN030 OVC035 03/01 A2900 RMK AO2 SLP821 P0000 60001 T00280011 58012,PACD,2019-01-12T20:53:00Z,55.2,-162.72,2.8,1.1,130,7,,10.0,28.999016,982.1,,,TRUE,,,,,,-RA,SCT,2300,BKN,3000,OVC,3500,,,MVFR,-1.2,,,,,0.005,0.01,,,,,METAR,30.0
PABT 122053Z 33003KT 10SM FEW036 M35/ A3013 RMK AO2 SLP242 T1350 51008 PNO,PABT,2019-01-12T20:53:00Z,66.92,-151.52,-35.0,,330,3,,10.0,30.129921,1024.2,,,TRUE,,,,,,,FEW,3600,,,,,,,VFR,0.8,,,,,,,,,,,METAR,195.0
KUNV 122053Z 00000KT 10SM SKC M03/M12 A3039,KUNV,2019-01-12T20:53:00Z,40.85,-77.83,-3.0,-12.0,0,0,,10.0,30.389763,,,,,,,,,,,SKC,,,,,,,,VFR,,,,,,,,,,,,METAR,378.0
KMSO 122053Z 00000KT 10SM OVC007 M05/M07 A3027 RMK AO2 SLP299 T10501067 56017,KMSO,2019-01-12T20:53:00Z,46.92,-114.1,-5.0,-6.7,0,0,,10.0,30.268702,1029.9,,,TRUE,,,,,,,OVC,700,,,,,,,IFR,-1.7,,,,,,,,,,,METAR,975.0
KTWF 122053Z 06011KT 10SM BKN010 00/M02 A3020 RMK AO2 CIG 007V012 SLP236 T00001017 56017,KTWF,2019-01-12T20:53:00Z,42.48,-114.48,0.0,-1.7,60,11,,10.0,30.200787,1023.6,,,TRUE,,,,,,,BKN,1000,,,,,,,MVFR,-1.7,,,,,,,,,,,METAR,1266.0
KLGB 122053Z VRB04KT 10SM SCT018 BKN026 BKN055 16/11 A2999 RMK AO2 SLP154 60000 T01560111 58023,KLGB,2019-01-12T20:53:00Z,33.82,-118.15,15.6,11.1,0,4,,10.0,29.991142,1015.4,,,TRUE,,,,,,,SCT,1800,BKN,2600,BKN,5500,,,MVFR,-2.3,,,,,,0.005,,,,,METAR,10.0
KWVI 122053Z AUTO 20006KT 10SM CLR 16/11 A2995 RMK AO2 SLP141 T01560106 58023,KWVI,2019-01-12T20:53:00Z,36.93,-121.78,15.6,10.6,200,6,,10.0,29.949802,1014.1,,TRUE,TRUE,,,,,,,CLR,,,,,,,,VFR,-2.3,,,,,,,,,,,METAR,43.0
KWST 122053Z AUTO VRB04KT 10SM CLR M01/M13 A3047 RMK AO2 SLP318 T10111128 50001,KWST,2019-01-12T20:53:00Z,41.35,-71.8,-1.1,-12.8,0,4,,10.0,30.469488,1031.8,,TRUE,TRUE,,,,,,,CLR,,,,,,,,VFR,0.1,,,,,,,,,,,METAR,21.0
KWRL 122053Z AUTO 00000KT 10SM CLR M02/M03 A3016 RMK AO2 SLP260 T10171033 56020,KWRL,2019-01-12T20:53:00Z,43.97,-107.95,-1.7,-3.3,0,0,,10.0,30.159449,1026.0,,TRUE,TRUE,,,,,,,CLR,,,,,,,,VFR,-2.0,,,,,,,,,,,METAR,1271.0
KVUO 122053Z AUTO 11010KT 10SM CLR 12/02 A3000 RMK AO2 SLP159 T01170017 58008,KVUO,2019-01-12T20:53:00Z,45.62,-122.65,11.7,1.7,110,10,,10.0,30.0,1015.9,,TRUE,TRUE,,,,,,,CLR,,,,,,,,VFR,-0.8,,,,,,,,,,,METAR,8.0
KVPC 122053Z AUTO 11009G15KT 10SM OVC025 06/M01 A3018 RMK AO2 SLP218 T00561011 56021,KVPC,2019-01-12T20:53:00Z,34.13,-84.85,5.6,-1.1,110,9,15,10.0,30.180119,1021.8,,TRUE,TRUE,,,,,,,OVC,2500,,,,,,,MVFR,-2.1,,,,,,,,,,,METAR,222.0
KVLD 122053Z 12004KT 10SM FEW043 SCT049 OVC075 20/13 A3017 RMK AO2 SLP225 T02000128 56016,KVLD,2019-01-12T20:53:00Z,30.78,-83.27,20.0,12.8,120,4,,10.0,30.171259,1022.5,,,TRUE,,,,,,,FEW,4300,SCT,4900,OVC,7500,,,VFR,-1.6,,,,,,,,,,,METAR,62.0
KVIH 122053Z AUTO 06010KT 1 3/4SM BR OVC003 01/M01 A2995 RMK AO2 SNB14E53 SLP152 P0000 60000 T00061006 55009,KVIH,2019-01-12T20:53:00Z,38.13,-91.77,0.6,-0.6,60,10,,1.75,29.949802,1015.2,,TRUE,TRUE,,,,,,BR,OVC,300,,,,,,,LIFR,-0.9,,,,,0.005,0.005,,,,,METAR,333.0
KVGT 122053Z 22004KT 10SM CLR 13/M03 A3003 RMK AO2 SLP187 T01281033 58033 $,KVGT,2019-01-12T20:53:00Z,36.22,-115.2,12.8,-3.3,220,4,,10.0,30.029528,1018.7,,,TRUE,TRUE,,,,,,CLR,,,,,,,,VFR,-3.3,,,,,,,,,,,METAR,671.0
KVEL 122053Z AUTO 00000KT 10SM CLR M04/M07 A3023 RMK AO2 SLP290 T10391067 56021 $,KVEL,2019-01-12T20:53:00Z,40.45,-109.52,-3.9,-6.7,0,0,,10.0,30.230314,1029.0,,TRUE,TRUE,TRUE,,,,,,CLR,,,,,,,,VFR,-2.1,,,,,,,,,,,METAR,1604.0
KVCB 122053Z AUTO 05006KT 10SM CLR 16/09 A2999 RMK AO2 SLP154 T01610089 58014,KVCB,2019-01-12T20:53:00Z,38.38,-121.95,16.1,8.9,50,6,,10.0,29.991142,1015.4,,TRUE,TRUE,,,,,,,CLR,,,,,,,,VFR,-1.4,,,,,,,,,,,METAR,33.0
KUUU 122053Z AUTO 31011KT 10SM CLR M02/M15 A3043 RMK AO2 SLP307 T10221150 55000,KUUU,2019-01-12T20:53:00Z,41.53,-71.28,-2.2,-15.0,310,11,,10.0,30.431103,1030.7,,TRUE,TRUE,,,,,,,CLR,,,,,,,,VFR,0.0,,,,,,,,,,,METAR,51.0
KUTS 122053Z AUTO 31014G20KT 10SM CLR 14/04 A3006 RMK AO2 SLP179 T01390039 53001,KUTS,2019-01-12T20:53:00Z,30.75,-95.58,13.9,3.9,310,14,20,10.0,30.059055,1017.9,,TRUE,TRUE,,,,,,,CLR,,,,,,,,VFR,0.1,,,,,,,,,,,METAR,104.0
KUIL 122053Z AUTO 00000KT 10SM OVC110 12/06 A2992 RMK AO2 SLP133 T01220061 58011 $,KUIL,2019-01-12T20:53:00Z,47.93,-124.55,12.2,6.1,0,0,,10.0,29.920275,1013.3,,TRUE,TRUE,TRUE,,,,,,OVC,11000,,,,,,,VFR,-1.1,,,,,,,,,,,METAR,54.0
KUAO 122053Z 00000KT 10SM CLR 09/04 A3000 RMK AO2 SLP159 T00940039 58005,KUAO,2019-01-12T20:53:00Z,45.25,-122.77,9.4,3.9,0,0,,10.0,30.0,1015.9,,,TRUE,,,,,,,CLR,,,,,,,,VFR,-0.5,,,,,,,,,,,METAR,59.0
KTYS 122053Z 30006KT 10SM -RA OVC041 08/M01 A3016 RMK AO2 RAB53 SLP214 P0000 60000 T00831006 56016,KTYS,2019-01-12T20:53:00Z,35.82,-83.98,8.3,-0.6,300,6,,10.0,30.159449,1021.4,,,TRUE,,,,,,-RA,OVC,4100,,,,,,,VFR,-1.6,,,,,0.005,0.005,,,,,METAR,302.0
KTYR 122053Z 29014G21KT 10SM OVC031 09/02 A3006 RMK AO2 SLP179 T00940022 53015,KTYR,2019-01-12T20:53:00Z,32.37,-95.4,9.4,2.2,290,14,21,10.0,30.059055,1017.9,,,TRUE,,,,,,,OVC,3100,,,,,,,VFR,1.5,,,,,,,,,,,METAR,165.0
KTXK 122053Z 27012KT 10SM OVC024 08/05 A2999 RMK AO2 SLP154 T00830050 53016,KTXK,2019-01-12T20:53:00Z,33.45,-93.98,8.3,5.0,270,12,,10.0,29.991142,1015.4,,,TRUE,,,,,,,OVC,2400,,,,,,,MVFR,1.6,,,,,,,,,,,METAR,111.0
KDCA 122052Z 13005KT 6SM -SN BKN045 OVC055 01/M07 A3051 RMK AO2 SLP329 P0000 60000 T00111067 58003,KDCA,2019-01-12T20:52:00Z,38.85,-77.03,1.1,-6.7,130,5,,6.0,30.510826,1032.9,,,TRUE,,,,,,-SN,BKN,4500,OVC,5500,,,,,VFR,-0.3,,,,,0.005,0.005,,,,,METAR,18.0
KCVG 122052Z 07007KT 5SM -RA BR SCT008 OVC045 01/M01 A3021 RMK AO2 RAB48 SLP239 P0000 60001 T00061011 55013,KCVG,2019-01-12T20:52:00Z,39.05,-84.67,0.6,-1.1,70,7,,5.0,30.209646,1023.9,,,TRUE,,,,,,-RA BR,SCT,800,OVC,4500,,,,,MVFR,-1.3,,,,,0.005,0.01,,,,,METAR,269.0
KCLT 122052Z 03007KT 9SM -RA OVC041 03/M04 A3037 RMK AO2 RAB40 SLP288 P0001 60001 T00331039 56017,KCLT,2019-01-12T20:52:00Z,35.22,-80.95,3.3,-3.9,30,7,,9.0,30.369095,1028.8,,,TRUE,,,,,,-RA,OVC,4100,,,,,,,VFR,-1.7,,,,,0.01,0.01,,,,,METAR,220.0
KCKV 122052Z AUTO 13007KT 10SM SCT049 OVC055 08/04 A3003 RMK AO2 RAE1954B19E40 SLP173 P0001 60005 T00780044 56020,KCKV,2019-01-12T20:52:00Z,36.62,-87.42,7.8,4.4,130,7,,10.0,30.029528,1017.3,,TRUE,TRUE,,,,,,,SCT,4900,OVC,5500,,,,,VFR,-2.0,,,,,0.01,0.05,,,,,METAR,165.0
KCID 122052Z 06013KT 1/2SM R09/3000V3500FT SN FZFG FEW006 OVC013 M02/M02 A3022 RMK AO2 SLP245 P0001 60003 T10221022 55008,KCID,2019-01-12T20:52:00Z,41.88,-91.72,-2.2,-2.2,60,13,,0.5,30.221457,1024.5,,,TRUE,,,,,,SN FZFG,FEW,600,OVC,1300,,,,,LIFR,-0.8,,,,,0.01,0.03,,,,,METAR,264.0
KBML 122052Z AUTO 30008G15KT 250V340 10SM CLR M12/M18 A3035 RMK AO2 SLP307 T11171183 51006,KBML,2019-01-12T20:52:00Z,44.58,-71.18,-11.7,-18.3,300,8,15,10.0,30.351377,1030.7,,TRUE,TRUE,,,,,,,CLR,,,,,,,,VFR,0.6,,,,,,,,,,,METAR,345.0
KBLH 122052Z AUTO 00000KT 10SM OVC090 16/07 A2999 RMK AO2 SLP153 T01560072 56028,KBLH,2019-01-12T20:52:00Z,33.62,-114.72,15.6,7.2,0,0,,10.0,29.991142,1015.3,,TRUE,TRUE,,,,,,,OVC,9000,,,,,,,VFR,-2.8,,,,,,,,,,,METAR,119.0
KBLF 122052Z AUTO 12005KT 10SM BKN041 BKN049 OVC110 M01/M05 A3023 RMK AO2 SLP257 60000 T10111050 58009,KBLF,2019-01-12T20:52:00Z,37.3,-81.2,-1.1,-5.0,120,5,,10.0,30.230314,1025.7,,TRUE,TRUE,,,,,,,BKN,4100,BKN,4900,OVC,11000,,,VFR,-0.9,,,,,,0.005,,,,,METAR,873.0
KBIS 122052Z 17006KT 8SM OVC012 M07/M10 A3034 RMK AO2 SNE02 SLP307 P0000 60000 T10721100 55011,KBIS,2019-01-12T20:52:00Z,46.77,-100.75,-7.2,-10.0,170,6,,8.0,30.339567,1030.7,,,TRUE,,,,,,,OVC,1200,,,,,,,MVFR,-1.1,,,,,0.005,0.005,,,,,METAR,505.0
KBDR 122052Z 30009KT 10SM FEW100 M01/M13 A3049 RMK AO2 SLP323 T10061128 58003,KBDR,2019-01-12T20:52:00Z,41.17,-73.13,-0.6,-12.8,300,9,,10.0,30.490158,1032.3,,,TRUE,,,,,,,FEW,10000,,,,,,,VFR,-0.3,,,,,,,,,,,METAR,7.0
KATL 122052Z 11009KT 10SM SCT020 OVC026 07/M01 A3019 RMK AO2 SLP229 60000 T00671006 56024,KATL,2019-01-12T20:52:00Z,33.63,-84.45,6.7,-0.6,110,9,,10.0,30.188976,1022.9,,,TRUE,,,,,,,SCT,2000,OVC,2600,,,,,MVFR,-2.4,,,,,,0.005,,,,,METAR,296.0
KAQW 122052Z AUTO 27010KT 10SM CLR M06/M17 A3045 RMK AO2 SLP324 T10611172 50002,KAQW,2019-01-12T20:52:00Z,42.7,-73.17,-6.1,-17.2,270,10,,10.0,30.448818,1032.4,,TRUE,TRUE,,,,,,,CLR,,,,,,,,VFR,0.2,,,,,,,,,,,METAR,199.0
KALS 122052Z AUTO 10007KT 10SM CLR M03/M05 A3014 RMK AO2 SLP260 60000 T10281050 56022,KALS,2019-01-12T20:52:00Z,37.43,-105.87,-2.8,-5.0,100,7,,10.0,30.138779,1026.0,,TRUE,TRUE,,,,,,,CLR,,,,,,,,VFR,-2.2,,,,,,0.005,,,,,METAR,2299.0
KAFN 122052Z AUTO VRB06KT 10SM CLR M07/M18 A3038 RMK AO2 SLP315 T10671178 53006,KAFN,2019-01-12T20:52:00Z,42.8,-72.0,-6.7,-17.8,0,6,,10.0,30.380905,1031.5,,TRUE,TRUE,,,,,,,CLR,,,,,,,,VFR,0.6,,,,,,,,,,,METAR,313.0
KABQ 122052Z 00000KT 10SM FEW036 SCT042 BKN060 BKN170 07/M02 A3017 RMK AO2 SLP207 MTN TOPS OBSC NE AND SE T00671017 56026,KABQ,2019-01-12T20:52:00Z,35.05,-106.62,6.7,-1.7,0,0,,10.0,30.171259,1020.7,,,TRUE,,,,,,,FEW,3600,SCT,4200,BKN,6000,BKN,17000,VFR,-2.6,,,,,,,,,,,METAR,1618.0
KABI 122052Z 32020KT 10SM OVC034 08/01 A3018 RMK AO2 PK WND 33030/1955 SLP217 T00830006 55000,KABI,2019-01-12T20:52:00Z,32.42,-99.68,8.3,0.6,320,20,,10.0,30.180119,1021.7,,,TRUE,,,,,,,OVC,3400,,,,,,,VFR,0.0,,,,,,,,,,,METAR,548.0
KN60 122052Z AUTO 20010KT M09/M11 A3028 RMK AO1 SLP296 T10891111 56012,KN60,2019-01-12T20:52:00Z,47.65,-101.43,-8.9,-11.1,200,10,,,30.280512,1029.6,,TRUE,TRUE,,,,,,,,,,,,,,,,-1.2,,,,,,,,,,,METAR,582.0
KCDJ 122052Z AUTO 03009KT 00/M01 A3010 RMK AO1 SLP207 P0003 60004 T00001011 53001 $,KCDJ,2019-01-12T20:52:00Z,39.82,-93.58,0.0,-1.1,30,9,,,30.100393,1020.7,,TRUE,TRUE,TRUE,,,,,,,,,,,,,,,0.1,,,,,0.03,0.04,,,,,METAR,234.0
KBAN 122052Z AUTO 12004KT 10SM BKN035 12/M06 A3002 RMK AO2 SLP148 T01221061 56011 $,KBAN,2019-01-12T20:52:00Z,38.35,-119.52,12.2,-6.1,120,4,,10.0,30.02067,1014.8,,TRUE,TRUE,TRUE,,,,,,BKN,3500,,,,,,,VFR,-1.1,,,,,,,,,,,METAR,2057.0
KCZZ 122052Z AUTO 27008KT 11/06 A2994 RMK AO1 SLP121 T01110061 56022,KCZZ,2019-01-12T20:52:00Z,32.63,-116.47,11.1,6.1,270,8,,,29.940945,1012.1,,TRUE,TRUE,,,,,,,,,,,,,,,,-2.2,,,,,,,,,,,METAR,807.0
KP69 122052Z AUTO 01003KT 04/M01 A3022 RMK AO1 SLP251 T00441011 56036 TSNO,KP69,2019-01-12T20:52:00Z,46.15,-115.6,4.4,-1.1,10,3,,,30.221457,1025.1,,TRUE,TRUE,,,TRUE,,,,,,,,,,,,,-3.6,,,,,,,,,,,METAR,480.0
KREO 122052Z AUTO 26003KT M03/M04 A3017 RMK AO1 SLP252 T10281039 56010,KREO,2019-01-12T20:52:00Z,42.58,-117.87,-2.8,-3.9,260,3,,,30.171259,1025.2,,TRUE,TRUE,,,,,,,,,,,,,,,,-1.0,,,,,,,,,,,METAR,1235.0
KSCH 122052Z 28014KT 15SM CLR M06/M17 A3049,KSCH,2019-01-12T20:52:00Z,42.85,-73.92,-6.0,-17.0,280,14,,15.0,30.490158,,,,,,,,,,,CLR,,,,,,,,VFR,,,,,,,,,,,,METAR,115.0
KMHK 122052Z 02008G17KT 10SM BKN018 OVC024 02/M02 A3015 RMK AO2 SLP217 60000 T00221017 53005,KMHK,2019-01-12T20:52:00Z,39.13,-96.68,2.2,-1.7,20,8,17,10.0,30.15059,1021.7,,,TRUE,,,,,,,BKN,1800,OVC,2400,,,,,MVFR,0.5,,,,,,0.005,,,,,METAR,317.0
KISN 122052Z AUTO 15008KT 8SM CLR M05/M10 A3020 RMK AO2 SLP267 T10501100 56026,KISN,2019-01-12T20:52:00Z,48.17,-103.63,-5.0,-10.0,150,8,,8.0,30.200787,1026.7,,TRUE,TRUE,,,,,,,CLR,,,,,,,,VFR,-2.6,,,,,,,,,,,METAR,579.0
KIJD 122052Z AUTO 31007KT 10SM CLR M02/M14 A3046 RMK AO2 SLP317 T10221139 58002,KIJD,2019-01-12T20:52:00Z,41.75,-72.18,-2.2,-13.9,310,7,,10.0,30.46063,1031.7,,TRUE,TRUE,,,,,,,CLR,,,,,,,,VFR,-0.2,,,,,,,,,,,METAR,75.0
PABA 122052Z AUTO 24007KT 10SM CLR M37/ A3041 RMK AO2 SLP285 60000 T1367 53005 FZRANO TSNO,PABA,2019-01-12T20:52:00Z,70.13,-143.58,-36.7,,240,7,,10.0,30.410433,1028.5,,TRUE,TRUE,,,TRUE,TRUE,,,CLR,,,,,,,,VFR,0.5,,,,,,0.005,,,,,METAR,2.0
KCQX 122052Z AUTO 29007KT 10SM CLR M03/M16 A3043 RMK AO2 SLP305 T10281161 53004,KCQX,2019-01-12T20:52:00Z,41.68,-70.0,-2.8,-16.1,290,7,,10.0,30.431103,1030.5,,TRUE,TRUE,,,,,,,CLR,,,,,,,,VFR,0.4,,,,,,,,,,,METAR,19.0
KCFV 122052Z AUTO 34015KT 10SM OVC013 01/M01 A3004 RMK AO2 SLP178 60001 T00111006 53017,KCFV,2019-01-12T20:52:00Z,37.08,-95.57,1.1,-0.6,340,15,,10.0,30.041338,1017.8,,TRUE,TRUE,,,,,,,OVC,1300,,,,,,,MVFR,1.7,,,,,,0.01,,,,,METAR,225.0
KMYP 122052Z AUTO 20005G15KT M08/M11 A3019 RMK AO2 PWINO,KMYP,2019-01-12T20:52:00Z,38.48,-106.32,-8.0,-11.0,200,5,15,,30.188976,,,TRUE,TRUE,,,,,TRUE,,,,,,,,,,,,,,,,,,,,,,METAR,3667.0
KMLI 122052Z 05012KT 3/4SM R09/4000V4500FT -SN BR BKN010 OVC015 M01/M02 A3022 RMK AO2 SLP239 P0001 60005 T10061022 56007,KMLI,2019-01-12T20:52:00Z,41.45,-90.52,-0.6,-2.2,50,12,,0.75,30.221457,1023.9,,,TRUE,,,,,,-SN BR,BKN,1000,OVC,1500,,,,,LIFR,-0.7,,,,,0.01,0.05,,,,,METAR,184.0
KMLF 122052Z AUTO 35009KT 10SM OVC009 M02/M04 A3017 RMK AO2 SLP235 T10171039 56024,KMLF,2019-01-12T20:52:00Z,38.42,-113.02,-1.7,-3.9,350,9,,10.0,30.171259,1023.5,,TRUE,TRUE,,,,,,,OVC,900,,,,,,,IFR,-2.4,,,,,,,,,,,METAR,1534.0
KMKE 122052Z 08012KT 8SM OVC023 01/M05 A3035 RMK AO2 SLP287 T00061050 56004,KMKE,2019-01-12T20:52:00Z,42.95,-87.9,0.6,-5.0,80,12,,8.0,30.351377,1028.7,,,TRUE,,,,,,,OVC,2300,,,,,,,MVFR,-0.4,,,,,,,,,,,METAR,206.0
KMFD 122052Z 07008KT 1/2SM SN FZFG VV018 M04/M05 A3031 RMK AO2 SLP283 P0002 60006 T10391050 56009,KMFD,2019-01-12T20:52:00Z,40.82,-82.52,-3.9,-5.0,70,8,,0.5,30.31004,1028.3,,,TRUE,,,,,,SN FZFG,OVX,0,,,,,,,LIFR,-0.9,,,,,0.02,0.06,,,,1800,METAR,395.0
KMBG 122052Z AUTO 00000KT 10SM OVC008 M07/M09 A3030 RMK AO2 SLP292 60000 T10721094 56013,KMBG,2019-01-12T20:52:00Z,45.55,-100.42,-7.2,-9.4,0,0,,10.0,30.301182,1029.2,,TRUE,TRUE,,,,,,,OVC,800,,,,,,,IFR,-1.3,,,,,,0.005,,,,,METAR,510.0
KLWC 122052Z AUTO 35010KT 2 1/2SM BR BKN011 OVC016 00/M02 A3009 RMK AO2 SNB16E24 SLP195 P0000 60000 T00001022 53004,KLWC,2019-01-12T20:52:00Z,39.02,-95.22,0.0,-2.2,350,10,,2.5,30.088583,1019.5,,TRUE,TRUE,,,,,,BR,BKN,1100,OVC,1600,,,,,IFR,0.4,,,,,0.005,0.005,,,,,METAR,253.0
KIOW 122052Z AUTO 05011KT 1SM -SN BR SCT007 OVC017 M01/M02 A3024 RMK AO2 SLP247 P0002 60002 T10061022 56002,KIOW,2019-01-12T20:52:00Z,41.63,-91.55,-0.6,-2.2,50,11,,1.0,30.239174,1024.7,,TRUE,TRUE,,,,,,-SN BR,SCT,700,OVC,1700,,,,,IFR,-0.2,,,,,0.02,0.02,,,,,METAR,198.0
KIEN 122052Z AUTO 00000KT 1/2SM FZFG VV002 M02/M02 A3020 RMK AO2 SLP263 T10171017 56019,KIEN,2019-01-12T20:52:00Z,43.03,-102.52,-1.7,-1.7,0,0,,0.5,30.200787,1026.3,,TRUE,TRUE,,,,,,FZFG,OVX,0,,,,,,,LIFR,-1.9,,,,,,,,,,200,METAR,998.0
KHUT 122052Z 34015G24KT 7SM OVC010 M01/M02 A3015 RMK AO2 SLP215 T10061022 53015,KHUT,2019-01-12T20:52:00Z,38.07,-97.87,-0.6,-2.2,340,15,24,7.0,30.15059,1021.5,,,TRUE,,,,,,,OVC,1000,,,,,,,MVFR,1.5,,,,,,,,,,,METAR,467.0
KHRL 122052Z 01007KT 10SM CLR 27/12 A3003 RMK AO2 SLP170 T02720122 56020,KHRL,2019-01-12T20:52:00Z,26.23,-97.65,27.2,12.2,10,7,,10.0,30.029528,1017.0,,,TRUE,,,,,,,CLR,,,,,,,,VFR,-2.0,,,,,,,,,,,METAR,10.0
KHIE 122052Z AUTO 23003KT 10SM CLR M12/M18 A3040 RMK AO2 SLP325 T11221178 51008,KHIE,2019-01-12T20:52:00Z,44.37,-71.55,-12.2,-17.8,230,3,,10.0,30.398623,1032.5,,TRUE,TRUE,,,,,,,CLR,,,,,,,,VFR,0.8,,,,,,,,,,,METAR,318.0
KGLS 122052Z 28008KT 10SM CLR 21/13 A3003 RMK AO2 SLP170 T02110128 55010 $,KGLS,2019-01-12T20:52:00Z,29.27,-94.87,21.1,12.8,280,8,,10.0,30.029528,1017.0,,,TRUE,TRUE,,,,,,CLR,,,,,,,,VFR,-1.0,,,,,,,,,,,METAR,6.0
KFIT 122052Z AUTO 32010KT 10SM CLR M04/M19 A3044 RMK AO2 SLP316 T10441189 53005,KFIT,2019-01-12T20:52:00Z,42.55,-71.75,-4.4,-18.9,320,10,,10.0,30.43996,1031.6,,TRUE,TRUE,,,,,,,CLR,,,,,,,,VFR,0.5,,,,,,,,,,,METAR,103.0
KEST 122052Z AUTO 05006KT 8SM SCT023 OVC038 M01/M05 A3028 RMK AO2 SLP272 T10111050 55001,KEST,2019-01-12T20:52:00Z,43.4,-94.75,-1.1,-5.0,50,6,,8.0,30.280512,1027.2,,TRUE,TRUE,,,,,,,SCT,2300,OVC,3800,,,,,VFR,-0.1,,,,,,,,,,,METAR,401.0
KORE 122052Z AUTO 29011KT 10SM CLR M04/M18 A3044 RMK AO2 SLP318 60000 T10391183 50002,KORE,2019-01-12T20:52:00Z,42.57,-72.28,-3.9,-18.3,290,11,,10.0,30.43996,1031.8,,TRUE,TRUE,,,,,,,CLR,,,,,,,,VFR,0.2,,,,,,0.005,,,,,METAR,164.0
KOMA 122052Z 01013KT 3/4SM R14R/5000V6000FT -SN FEW008 OVC012 00/M02 A3023 RMK AO2 SLP245 P0001 60004 T00001022 53003,KOMA,2019-01-12T20:52:00Z,41.32,-95.9,0.0,-2.2,10,13,,0.75,30.230314,1024.5,,,TRUE,,,,,,-SN,FEW,800,OVC,1200,,,,,LIFR,0.3,,,,,0.01,0.04,,,,,METAR,312.0
KOKC 122052Z 34020G26KT 10SM OVC014 02/00 A3010 RMK AO2 PK WND 34026/2001 SLP199 T00220000 53019,KOKC,2019-01-12T20:52:00Z,35.38,-97.6,2.2,0.0,340,20,26,10.0,30.100393,1019.9,,,TRUE,,,,,,,OVC,1400,,,,,,,MVFR,1.9,,,,,,,,,,,METAR,390.0
KOKB 122052Z AUTO 23003KT 10SM FEW022 BKN047 BKN055 16/12 A2999 RMK AO2 RAE1958 SLP154 P0000 60001 T01560117 58022,KOKB,2019-01-12T20:52:00Z,33.22,-117.35,15.6,11.7,230,3,,10.0,29.991142,1015.4,,TRUE,TRUE,,,,,,,FEW,2200,BKN,4700,BKN,5500,,,VFR,-2.2,,,,,0.005,0.01,,,,,METAR,8.0
KMWH 122052Z 01007KT 10SM CLR 05/01 A3021 RMK AO2 SLP241 T00500006 56006,KMWH,2019-01-12T20:52:00Z,47.2,-119.32,5.0,0.6,10,7,,10.0,30.209646,1024.1,,,TRUE,,,,,,,CLR,,,,,,,,VFR,-0.6,,,,,,,,,,,METAR,362.0
KAQP 122052Z AUTO 08004KT 10SM CLR M02/M06 A3036 RMK AO2,KAQP,2019-01-12T20:52:00Z,45.22,-96.0,-2.0,-6.0,80,4,,10.0,30.360237,,,TRUE,TRUE,,,,,,,CLR,,,,,,,,VFR,,,,,,,,,,,,METAR,311.0
PATA 122052Z 00000KT 10SM FEW180 M43/ A3006 RMK AO2 SLP197 T1428 58007 PNO $,PATA,2019-01-12T20:52:00Z,65.17,-152.1,-42.8,,0,0,,10.0,30.059055,1019.7,,,TRUE,TRUE,,,,,,FEW,18000,,,,,,,VFR,-0.7,,,,,,,,,,,METAR,67.0
KNRB 122052Z AUTO 09007KT 10SM OVC070 19/15 A3021 RMK AO2 SLP229 T01940150 56012 TSNO $,KNRB,2019-01-12T20:52:00Z,30.38,-81.42,19.4,15.0,90,7,,10.0,30.209646,1022.9,,TRUE,TRUE,TRUE,,TRUE,,,,OVC,7000,,,,,,,VFR,-1.2,,,,,,,,,,,METAR,5.0
KVTN 122052Z AUTO 34004KT 7SM OVC007 M06/M07 A3026 RMK AO2 SLP285 I1006 I3010 T10561072 55012,KVTN,2019-01-12T20:52:00Z,42.87,-100.55,-5.6,-7.2,340,4,,7.0,30.259842,1028.5,,TRUE,TRUE,,,,,,,OVC,700,,,,,,,IFR,-1.2,,,,,,,,,,,METAR,788.0
KTRM 122052Z AUTO 31005KT 9SM SCT070 17/11 A2997 RMK AO2 SLP150 60000 T01720106 58034 TSNO,KTRM,2019-01-12T20:52:00Z,33.63,-116.17,17.2,10.6,310,5,,9.0,29.970472,1015.0,,TRUE,TRUE,,,TRUE,,,,SCT,7000,,,,,,,VFR,-3.4,,,,,,0.005,,,,,METAR,-35.0
KTOL 122052Z 08010KT 3/4SM -SN BR FEW009 OVC017 M02/M04 A3037 RMK AO2 SLP293 P0003 60004 T10221044 55005 RVRNO,KTOL,2019-01-12T20:52:00Z,41.58,-83.8,-2.2,-4.4,80,10,,0.75,30.369095,1029.3,,,TRUE,,,,,,-SN BR,FEW,900,OVC,1700,,,,,LIFR,-0.5,,,,,0.03,0.04,,,,,METAR,210.0
KTAN 122052Z AUTO 30009KT 10SM CLR M02/M19 A3042 RMK AO2 SLP301 T10171189 53000,KTAN,2019-01-12T20:52:00Z,41.88,-71.02,-1.7,-18.9,300,9,,10.0,30.41929,1030.1,,TRUE,TRUE,,,,,,,CLR,,,,,,,,VFR,0.0,,,,,,,,,,,METAR,7.0
KSUX 122052Z 36009KT 7SM BKN013 OVC018 M02/M05 A3029 RMK AO2 SLP271 T10171050 55001,KSUX,2019-01-12T20:52:00Z,42.38,-96.38,-1.7,-5.0,360,9,,7.0,30.28937,1027.1,,,TRUE,,,,,,,BKN,1300,OVC,1800,,,,,MVFR,-0.1,,,,,,,,,,,METAR,338.0
KSPS 122052Z AUTO 33019G26KT 10SM OVC027 06/01 A3016 RMK AO2 PK WND 33026/2046 SLP216 T00560011 53008,KSPS,2019-01-12T20:52:00Z,33.98,-98.5,5.6,1.1,330,19,26,10.0,30.159449,1021.6,,TRUE,TRUE,,,,,,,OVC,2700,,,,,,,MVFR,0.8,,,,,,,,,,,METAR,308.0
KSPI 122052Z 07015KT 6SM BR OVC007 00/M02 A3011 RMK AO2 UPE03B21E30SNB03E21 SLP201 P0000 60003 T00001017 56015,KSPI,2019-01-12T20:52:00Z,39.85,-89.68,0.0,-1.7,70,15,,6.0,30.109253,1020.1,,,TRUE,,,,,,BR,OVC,700,,,,,,,IFR,-1.5,,,,,0.005,0.03,,,,,METAR,181.0
KSGF 122052Z 00000KT 3SM BR OVC006 03/01 A2992 RMK AO2 CIG 004V009 SLP137 T00280011 53003,KSGF,2019-01-12T20:52:00Z,37.23,-93.38,2.8,1.1,0,0,,3.0,29.920275,1013.7,,,TRUE,,,,,,BR,OVC,600,,,,,,,IFR,0.3,,,,,,,,,,,METAR,390.0
KPYM 122052Z AUTO 29010G17KT 10SM CLR M02/M19 A3042 RMK AO2 SLP303 T10221189 53001,KPYM,2019-01-12T20:52:00Z,41.92,-70.73,-2.2,-18.9,290,10,17,10.0,30.41929,1030.3,,TRUE,TRUE,,,,,,,CLR,,,,,,,,VFR,0.1,,,,,,,,,,,METAR,43.0
KPWK 122052Z 08008KT 3/4SM -SN BKN007 OVC013 M01/M03 A3032 RMK AO2 SLP274 P0000 60000 T10061033 55002,KPWK,2019-01-12T20:52:00Z,42.12,-87.9,-0.6,-3.3,80,8,,0.75,30.318897,1027.4,,,TRUE,,,,,,-SN,BKN,700,OVC,1300,,,,,LIFR,-0.2,,,,,0.005,0.005,,,,,METAR,203.0
KPPF 122052Z AUTO 35012G21KT 10SM OVC011 01/M01 A3005 RMK AO2 SLP181 60025 T00111006 53019,KPPF,2019-01-12T20:52:00Z,37.33,-95.5,1.1,-0.6,350,12,21,10.0,30.050198,1018.1,,TRUE,TRUE,,,,,,,OVC,1100,,,,,,,MVFR,1.9,,,,,,0.25,,,,,METAR,274.0
KCIC 122052Z 00000KT 40SM FEW100 14/03 A2999,KCIC,2019-01-12T20:52:00Z,39.78,-121.83,14.0,3.0,0,0,,40.0,29.991142,,,,,,,,,,,FEW,10000,,,,,,,VFR,,,,,,,,,,,,METAR,73.0
KNZY 122052Z 25006KT 10SM FEW020 SCT030 BKN060 17/11 A2999 RMK AO2 SLP156 T01670106 58023 PNO $,KNZY,2019-01-12T20:52:00Z,32.7,-117.22,16.7,10.6,250,6,,10.0,29.991142,1015.6,,,TRUE,TRUE,,,,,,FEW,2000,SCT,3000,BKN,6000,,,VFR,-2.3,,,,,,,,,,,SPECI,8.0
KNFW 122052Z 31018G24KT 10SM OVC033 08/01 A3014 RMK AO2 PK WND 32028/2021 CIG 026 N SLP190 T00830011 53010 VISNO N $,KNFW,2019-01-12T20:52:00Z,32.78,-97.43,8.3,1.1,310,18,24,10.0,30.138779,1019.0,,,TRUE,TRUE,,,,,,OVC,3300,,,,,,,VFR,1.0,,,,,,,,,,,SPECI,198.0
KNHK 122052Z 00000KT 10SM OVC045 02/M08 A3050 RMK AO2 SLP329 VIRGA OVHD T00171078 58001,KNHK,2019-01-12T20:52:00Z,38.27,-76.4,1.7,-7.8,0,0,,10.0,30.499016,1032.9,,,TRUE,,,,,,,OVC,4500,,,,,,,VFR,-0.1,,,,,,,,,,,METAR,12.0
KDAW 122051Z AUTO 29009G19KT 10SM CLR M07/M17 A3039 RMK AO2 SLP294 T10721172 53010,KDAW,2019-01-12T20:51:00Z,43.28,-70.92,-7.2,-17.2,290,9,19,10.0,30.389763,1029.4,,TRUE,TRUE,,,,,,,CLR,,,,,,,,VFR,1.0,,,,,,,,,,,METAR,100.0
KP59 122051Z AUTO VRB04KT M04/M09 A3055 RMK AO1 SLP360 T10441094 56004,KP59,2019-01-12T20:51:00Z,47.47,-87.88,-4.4,-9.4,0,4,,,30.549213,1036.0,,TRUE,TRUE,,,,,,,,,,,,,,,,-0.4,,,,,,,,,,,METAR,190.0
KYNG 122051Z 07006KT 10SM OVC048 M01/M10 A3035 RMK AO2 SLP293 VIRGA T10111100 56013 $,KYNG,2019-01-12T20:51:00Z,41.25,-80.67,-1.1,-10.0,70,6,,10.0,30.351377,1029.3,,,TRUE,TRUE,,,,,,OVC,4800,,,,,,,VFR,-1.3,,,,,,,,,,,METAR,360.0
KVCT 122051Z 32014KT 10SM CLR 22/07 A3007 RMK AO2 SLP180 T02170067 55011 $,KVCT,2019-01-12T20:51:00Z,28.87,-96.93,21.7,6.7,320,14,,10.0,30.070866,1018.0,,,TRUE,TRUE,,,,,,CLR,,,,,,,,VFR,-1.1,,,,,,,,,,,METAR,31.0
KTEB 122051Z 35006KT 10SM CLR 01/M14 A3048 RMK AO2 SLP322 T00111144 56004 $,KTEB,2019-01-12T20:51:00Z,40.87,-74.05,1.1,-14.4,350,6,,10.0,30.481298,1032.2,,,TRUE,TRUE,,,,,,CLR,,,,,,,,VFR,-0.4,,,,,,,,,,,METAR,7.0
KSMX 122051Z 18008KT 10SM BKN030 17/10 A2998 RMK AO2 SLP155 T01670100 58014,KSMX,2019-01-12T20:51:00Z,34.9,-120.45,16.7,10.0,180,8,,10.0,29.97933,1015.5,,,TRUE,,,,,,,BKN,3000,,,,,,,MVFR,-1.4,,,,,,,,,,,METAR,74.0
KSMO 122051Z 08004KT 10SM FEW100 17/11 A2999 RMK AO2 SLP155 60004 T01670106 58026,KSMO,2019-01-12T20:51:00Z,34.02,-118.45,16.7,10.6,80,4,,10.0,29.991142,1015.5,,,TRUE,,,,,,,FEW,10000,,,,,,,VFR,-2.6,,,,,,0.04,,,,,METAR,57.0
KSLK 122051Z AUTO A3039 RMK AO2 SLPNO 50000 PWINO FZRANO $,KSLK,2019-01-12T20:51:00Z,44.4,-74.2,,,,,,,30.389763,,,TRUE,TRUE,TRUE,,,TRUE,TRUE,,,,,,,,,,,0.0,,,,,,,,,,,METAR,498.0
KSJT 122051Z 32018G23KT 10SM CLR 13/02 A3016 RMK AO2 SLP214 T01280017 55012,KSJT,2019-01-12T20:51:00Z,31.37,-100.5,12.8,1.7,320,18,23,10.0,30.159449,1021.4,,,TRUE,,,,,,,CLR,,,,,,,,VFR,-1.2,,,,,,,,,,,METAR,576.0
KSAT 122051Z 32012G18KT 10SM CLR 18/05 A3010 RMK AO2 SLP181 T01830050 55010,KSAT,2019-01-12T20:51:00Z,29.53,-98.47,18.3,5.0,320,12,18,10.0,30.100393,1018.1,,,TRUE,,,,,,,CLR,,,,,,,,VFR,-1.0,,,,,,,,,,,METAR,243.0
KSAN 122051Z 28008KT 10SM FEW020 SCT028 BKN050 16/11 A3001 RMK AO2 SLP162 60002 T01610111 58023,KSAN,2019-01-12T20:51:00Z,32.73,-117.18,16.1,11.1,280,8,,10.0,30.008858,1016.2,,,TRUE,,,,,,,FEW,2000,SCT,2800,BKN,5000,,,VFR,-2.3,,,,,,0.02,,,,,METAR,12.0
KPWM 122051Z 26008KT 10SM CLR M06/M16 A3038 RMK AO2 SLP288 T10611161 53011,KPWM,2019-01-12T20:51:00Z,43.65,-70.3,-6.1,-16.1,260,8,,10.0,30.380905,1028.8,,,TRUE,,,,,,,CLR,,,,,,,,VFR,1.1,,,,,,,,,,,METAR,15.0
KPVD 122051Z 32012G18KT 10SM FEW080 FEW110 SCT250 SCT300 M02/M16 A3045 RMK AO2 SLP310 T10221161 50001,KPVD,2019-01-12T20:51:00Z,41.72,-71.43,-2.2,-16.1,320,12,18,10.0,30.448818,1031.0,,,TRUE,,,,,,,FEW,8000,FEW,11000,SCT,25000,SCT,30000,VFR,0.1,,,,,,,,,,,METAR,16.0
KOXR 122051Z 05007KT 10SM OVC024 16/11 A2999 RMK AO2 SLP155 T01560111 57024,KOXR,2019-01-12T20:51:00Z,34.2,-119.2,15.6,11.1,50,7,,10.0,29.991142,1015.5,,,TRUE,,,,,,,OVC,2400,,,,,,,MVFR,-2.4,,,,,,,,,,,METAR,20.0
KMYL 122051Z AUTO 00000KT 10SM CLR M07/M09 A3014 RMK AO2 SLP273 T10721089 56021,KMYL,2019-01-12T20:51:00Z,44.9,-116.1,-7.2,-8.9,0,0,,10.0,30.138779,1027.3,,TRUE,TRUE,,,,,,,CLR,,,,,,,,VFR,-2.1,,,,,,,,,,,METAR,1533.0
KLGA 122051Z 34009KT 10SM FEW100 BKN200 BKN250 01/M15 A3048 RMK AO2 SLP321 T00111150 58005,KLGA,2019-01-12T20:51:00Z,40.78,-73.88,1.1,-15.0,340,9,,10.0,30.481298,1032.1,,,TRUE,,,,,,,FEW,10000,BKN,20000,BKN,25000,,,VFR,-0.5,,,,,,,,,,,METAR,11.0
KJFK 122051Z 29005KT 10SM SCT100 BKN200 01/M13 A3050 RMK AO2 SLP327 T00061133 58005,KJFK,2019-01-12T20:51:00Z,40.63,-73.77,0.6,-13.3,290,5,,10.0,30.499016,1032.7,,,TRUE,,,,,,,SCT,10000,BKN,20000,,,,,VFR,-0.5,,,,,,,,,,,METAR,9.0
KJCT 122051Z AUTO 33010G18KT 10SM CLR 14/02 A3016 RMK AO2 SLP194 T01390022 55008,KJCT,2019-01-12T20:51:00Z,30.5,-99.77,13.9,2.2,330,10,18,10.0,30.159449,1019.4,,TRUE,TRUE,,,,,,,CLR,,,,,,,,VFR,-0.8,,,,,,,,,,,METAR,522.0
KILG 122051Z 18004KT 10SM BKN075 OVC090 01/M13 A3051 RMK AO2 SLP332 T00061128 56008,KILG,2019-01-12T20:51:00Z,39.67,-75.6,0.6,-12.8,180,4,,10.0,30.510826,1033.2,,,TRUE,,,,,,,BKN,7500,OVC,9000,,,,,VFR,-0.8,,,,,,,,,,,METAR,28.0
KIGM 122051Z AUTO 12012KT 10SM CLR 15/M02 A3001 RMK AO2 SLP128 T01501022 56037,KIGM,2019-01-12T20:51:00Z,35.25,-113.93,15.0,-2.2,120,12,,10.0,30.008858,1012.8,,TRUE,TRUE,,,,,,,CLR,,,,,,,,VFR,-3.7,,,,,,,,,,,METAR,1032.0
KHTS 122051Z 07007KT 10SM OVC075 01/M03 A3024 RMK AO2 SLP247 T00111033 58025,KHTS,2019-01-12T20:51:00Z,38.37,-82.55,1.1,-3.3,70,7,,10.0,30.239174,1024.7,,,TRUE,,,,,,,OVC,7500,,,,,,,VFR,-2.5,,,,,,,,,,,METAR,254.0
KHDO 122051Z AUTO 31014KT 10SM CLR 21/04 A3011 RMK AO2 SLP186 T02060044 55012 $,KHDO,2019-01-12T20:51:00Z,29.37,-99.17,20.6,4.4,310,14,,10.0,30.109253,1018.6,,TRUE,TRUE,TRUE,,,,,,CLR,,,,,,,,VFR,-1.2,,,,,,,,,,,METAR,282.0
KEWR 122051Z 32006KT 10SM SCT110 BKN190 BKN250 01/M15 A3049 RMK AO2 SLP322 T00111150 58005,KEWR,2019-01-12T20:51:00Z,40.68,-74.17,1.1,-15.0,320,6,,10.0,30.490158,1032.2,,,TRUE,,,,,,,SCT,11000,BKN,19000,BKN,25000,,,VFR,-0.5,,,,,,,,,,,METAR,7.0
KERI 122051Z 05012KT 10SM BKN070 OVC095 M02/M11 A3041 RMK AO2 SLP309 T10171111 56014,KERI,2019-01-12T20:51:00Z,42.08,-80.18,-1.7,-11.1,50,12,,10.0,30.410433,1030.9,,,TRUE,,,,,,,BKN,7000,OVC,9500,,,,,VFR,-1.4,,,,,,,,,,,METAR,222.0
KCSG 122051Z 12008KT 10SM -RA OVC041 12/06 A3015 RMK AO2 RAB26 SLP208 P0000 60000 T01170061 56025,KCSG,2019-01-12T20:51:00Z,32.52,-84.95,11.7,6.1,120,8,,10.0,30.15059,1020.8,,,TRUE,,,,,,-RA,OVC,4100,,,,,,,VFR,-2.5,,,,,0.005,0.005,,,,,METAR,135.0
KCRP 122051Z 34014KT 10SM FEW024 24/13 A3006 RMK AO2 SLP177 T02440133 55018 $,KCRP,2019-01-12T20:51:00Z,27.77,-97.5,24.4,13.3,340,14,,10.0,30.059055,1017.7,,,TRUE,TRUE,,,,,,FEW,2400,,,,,,,VFR,-1.8,,,,,,,,,,,METAR,14.0
KCON 122051Z AUTO 33009KT 10SM CLR M07/M17 A3043 RMK AO2 SLP313 T10721172 53004,KCON,2019-01-12T20:51:00Z,43.2,-71.5,-7.2,-17.2,330,9,,10.0,30.431103,1031.3,,TRUE,TRUE,,,,,,,CLR,,,,,,,,VFR,0.4,,,,,,,,,,,METAR,103.0
KCMH 122051Z 08006KT 3/4SM R28L/P6000FT -SN BR FEW006 BKN020 OVC032 M01/M03 A3029 RMK AO2 TWR VIS 2 SLP266 P0004 60009 T10111033 56018,KCMH,2019-01-12T20:51:00Z,40.0,-82.88,-1.1,-3.3,80,6,,0.75,30.28937,1026.6,,,TRUE,,,,,,-SN BR,FEW,600,BKN,2000,OVC,3200,,,LIFR,-1.8,,,,,0.04,0.09,,,,,METAR,247.0
KCLE 122051Z 16006KT 9SM -SN OVC039 00/M09 A3039 RMK AO2 SNB12 SLP300 P0000 60000 T00001089 56012 $,KCLE,2019-01-12T20:51:00Z,41.42,-81.85,0.0,-8.9,160,6,,9.0,30.389763,1030.0,,,TRUE,TRUE,,,,,-SN,OVC,3900,,,,,,,VFR,-1.2,,,,,0.005,0.005,,,,,METAR,233.0
KCAK 122051Z 07006KT 3/4SM R23/5000VP6000FT -SN FEW008 OVC026 M03/M06 A3034 RMK AO2 TWR VIS 1 SLP290 P0002 60003 T10331061 55011,KCAK,2019-01-12T20:51:00Z,40.92,-81.45,-3.3,-6.1,70,6,,0.75,30.339567,1029.0,,,TRUE,,,,,,-SN,FEW,800,OVC,2600,,,,,LIFR,-1.1,,,,,0.02,0.03,,,,,METAR,377.0
KBKW 122051Z AUTO 11008KT 10SM OVC028 M01/M03 A3024 RMK AO2 SLP270 60001 T10061028 56016 $,KBKW,2019-01-12T20:51:00Z,37.8,-81.12,-0.6,-2.8,110,8,,10.0,30.239174,1027.0,,TRUE,TRUE,TRUE,,,,,,OVC,2800,,,,,,,MVFR,-1.6,,,,,,0.01,,,,,METAR,764.0
KBDL 122051Z 33010KT 10SM BKN090 BKN130 BKN190 BKN240 M03/M16 A3047 RMK AO2 SLP319 T10281161 50003,KBDL,2019-01-12T20:51:00Z,41.93,-72.68,-2.8,-16.1,330,10,,10.0,30.469488,1031.9,,,TRUE,,,,,,,BKN,9000,BKN,13000,BKN,19000,BKN,24000,VFR,0.3,,,,,,,,,,,METAR,60.0
KBAZ 122051Z 33018G21KT 10SM CLR 18/04 A3009 RMK AO2 SLP186 T01830044 55006,KBAZ,2019-01-12T20:51:00Z,29.72,-98.05,18.3,4.4,330,18,21,10.0,30.088583,1018.6,,,TRUE,,,,,,,CLR,,,,,,,,VFR,-0.6,,,,,,,,,,,METAR,195.0
KAHN 122051Z 07008KT 10SM BKN024 OVC036 04/M03 A3026 RMK AO2 SLP254 60000 T00441028 56019,KAHN,2019-01-12T20:51:00Z,33.95,-83.33,4.4,-2.8,70,8,,10.0,30.259842,1025.4,,,TRUE,,,,,,,BKN,2400,OVC,3600,,,,,MVFR,-1.9,,,,,,0.005,,,,,METAR,244.0
KACT 122051Z 32016G25KT 10SM BKN042 11/01 A3014 RMK AO2 SLP205 T01060011 53008,KACT,2019-01-12T20:51:00Z,31.62,-97.23,10.6,1.1,320,16,25,10.0,30.138779,1020.5,,,TRUE,,,,,,,BKN,4200,,,,,,,VFR,0.8,,,,,,,,,,,METAR,151.0
KABE 122051Z AUTO 23003KT 10SM CLR 01/M14 A3046 RMK AO2 SLP321 T00111144 58012,KABE,2019-01-12T20:51:00Z,40.65,-75.45,1.1,-14.4,230,3,,10.0,30.46063,1032.1,,TRUE,TRUE,,,,,,,CLR,,,,,,,,VFR,-1.2,,,,,,,,,,,METAR,114.0
KATT 122051Z AUTO 30008KT 10SM CLR 16/03 A3013 RMK AO2 SLP199 T01610033 55001,KATT,2019-01-12T20:51:00Z,30.32,-97.77,16.1,3.3,300,8,,10.0,30.129921,1019.9,,TRUE,TRUE,,,,,,,CLR,,,,,,,,VFR,-0.1,,,,,,,,,,,METAR,201.0
KSAD 122051Z AUTO 09009KT 10SM CLR 14/00 A3006 RMK AO2 SLP167 T01390000 56036,KSAD,2019-01-12T20:51:00Z,32.85,-109.63,13.9,0.0,90,9,,10.0,30.059055,1016.7,,TRUE,TRUE,,,,,,,CLR,,,,,,,,VFR,-3.6,,,,,,,,,,,METAR,962.0
KROW 122051Z VRB05KT 10SM FEW044 12/M01 A3019 RMK AO2 SLP203 T01221006 55022,KROW,2019-01-12T20:51:00Z,33.3,-104.5,12.2,-0.6,0,5,,10.0,30.188976,1020.3,,,TRUE,,,,,,,FEW,4400,,,,,,,VFR,-2.2,,,,,,,,,,,METAR,1112.0
KRDU 122051Z 07004KT 10SM OVC110 03/M07 A3043 RMK AO2 SLP308 T00331072 55012,KRDU,2019-01-12T20:51:00Z,35.9,-78.78,3.3,-7.2,70,4,,10.0,30.431103,1030.8,,,TRUE,,,,,,,OVC,11000,,,,,,,VFR,-1.2,,,,,,,,,,,METAR,130.0
KPHX 122051Z 11008KT 10SM FEW160 SCT220 BKN250 19/02 A2997 RMK AO2 SLP141 T01890017 56037,KPHX,2019-01-12T20:51:00Z,33.43,-112.02,18.9,1.7,110,8,,10.0,29.970472,1014.1,,,TRUE,,,,,,,FEW,16000,SCT,22000,BKN,25000,,,VFR,-3.7,,,,,,,,,,,METAR,336.0
KORF 122051Z 03011KT 10SM BKN050 OVC075 04/M03 A3045 RMK AO2 SLP311 T00441028 58010,KORF,2019-01-12T20:51:00Z,36.9,-76.2,4.4,-2.8,30,11,,10.0,30.448818,1031.1,,,TRUE,,,,,,,BKN,5000,OVC,7500,,,,,VFR,-1.0,,,,,,,,,,,METAR,14.0
KORD 122051Z 07009KT 1/2SM R10L/4000V5000FT SN FZFG BKN008 OVC012 M02/M02 A3028 RMK AO2 SLP263 P0003 60007 T10171022 58007,KORD,2019-01-12T20:51:00Z,41.98,-87.93,-1.7,-2.2,70,9,,0.5,30.280512,1026.3,,,TRUE,,,,,,SN FZFG,BKN,800,OVC,1200,,,,,LIFR,-0.7,,,,,0.03,0.07,,,,,METAR,200.0
KHSE 122051Z AUTO 03007KT 360V080 10SM FEW033 BKN043 OVC055 08/02 A3041 RMK AO2 SLP296 T00780022 55004 TSNO,KHSE,2019-01-12T20:51:00Z,35.23,-75.62,7.8,2.2,30,7,,10.0,30.410433,1029.6,,TRUE,TRUE,,,TRUE,,,,FEW,3300,BKN,4300,OVC,5500,,,VFR,-0.4,,,,,,,,,,,METAR,3.0
KELP 122051Z 12007KT 10SM FEW065 BKN250 13/M04 A3014 RMK AO2 SLP179 T01331039 56030,KELP,2019-01-12T20:51:00Z,31.82,-106.38,13.3,-3.9,120,7,,10.0,30.138779,1017.9,,,TRUE,,,,,,,FEW,6500,BKN,25000,,,,,VFR,-3.0,,,,,,,,,,,METAR,1197.0
KBGD 122051Z AUTO 01013G19KT 10SM CLR 07/M02 A3018 RMK AO2 SLP225 T00721017 56011,KBGD,2019-01-12T20:51:00Z,35.7,-101.4,7.2,-1.7,10,13,19,10.0,30.180119,1022.5,,TRUE,TRUE,,,,,,,CLR,,,,,,,,VFR,-1.1,,,,,,,,,,,METAR,927.0
KSNT 122051Z AUTO 00000KT M14/M17 A3025 RMK AO1 SLP329 T11441172 56020,KSNT,2019-01-12T20:51:00Z,44.17,-114.93,-14.4,-17.2,0,0,,,30.250984,1032.9,,TRUE,TRUE,,,,,,,,,,,,,,,,-2.0,,,,,,,,,,,METAR,1980.0
KBVE 122051Z AUTO 19007KT 10SM OVC065 19/16 A3002 RMK AO2 RAB07E19 SLP166 P0000 60000 T01890161 56011,KBVE,2019-01-12T20:51:00Z,29.32,-89.4,18.9,16.1,190,7,,10.0,30.02067,1016.6,,TRUE,TRUE,,,,,,,OVC,6500,,,,,,,VFR,-1.1,,,,,0.005,0.005,,,,,METAR,1.0
KNYC 122051Z AUTO 10SM FEW100 01/M15 A3050 RMK AO2 SLP320 T00061150 58005 $,KNYC,2019-01-12T20:51:00Z,40.78,-73.97,0.6,-15.0,,,,10.0,30.499016,1032.0,,TRUE,TRUE,TRUE,,,,,,FEW,10000,,,,,,,VFR,-0.5,,,,,,,,,,,METAR,11.0
KP58 122051Z AUTO 07013KT M03/M07 A3048 RMK AO1 SLP337 T10331067 55002,KP58,2019-01-12T20:51:00Z,44.02,-82.8,-3.3,-6.7,70,13,,,30.481298,1033.7,,TRUE,TRUE,,,,,,,,,,,,,,,,-0.2,,,,,,,,,,,METAR,179.0
PKMR 122051Z 08007KT 15SM FEW016 SCT300 29/25 A2975 RMK SLP075 8/101 T02910253 52010,PKMR,2019-01-12T20:51:00Z,7.08,171.38,29.1,25.3,80,7,,15.0,29.749016,1007.5,,,,,,,,,,FEW,1600,SCT,30000,,,,,VFR,1.0,,,,,,,,,,,METAR,4.0
KTPL 122051Z AUTO 32018G25KT 10SM CLR 12/03 A3013 RMK AO2 PK WND 29026/2011 SLP219 T01220028 53003,KTPL,2019-01-12T20:51:00Z,31.13,-97.4,12.2,2.8,320,18,25,10.0,30.129921,1021.9,,TRUE,TRUE,,,,,,,CLR,,,,,,,,VFR,0.3,,,,,,,,,,,METAR,208.0
KOCF 122051Z 18006KT 10SM BKN065 23/13 A3018 RMK AO2 SLP220 T02330128 56013 $,KOCF,2019-01-12T20:51:00Z,29.17,-82.22,23.3,12.8,180,6,,10.0,30.180119,1022.0,,,TRUE,TRUE,,,,,,BKN,6500,,,,,,,VFR,-1.3,,,,,,,,,,,METAR,27.0
KMPV 122051Z AUTO 32007G15KT 10SM CLR M13/M18 A3045 RMK AO2 SLP342 T11281183 51005,KMPV,2019-01-12T20:51:00Z,44.2,-72.57,-12.8,-18.3,320,7,15,10.0,30.448818,1034.2,,TRUE,TRUE,,,,,,,CLR,,,,,,,,VFR,0.5,,,,,,,,,,,METAR,343.0
KLGU 122051Z AUTO 01005KT 10SM OVC011 M03/M06 A3026 RMK AO2 SLP274 T10331056 56014,KLGU,2019-01-12T20:51:00Z,41.78,-111.85,-3.3,-5.6,10,5,,10.0,30.259842,1027.4,,TRUE,TRUE,,,,,,,OVC,1100,,,,,,,MVFR,-1.4,,,,,,,,,,,METAR,1355.0
KALB 122051Z 28010KT 10SM FEW090 FEW250 M04/M18 A3051 RMK AO2 SLP336 T10441178 58002,KALB,2019-01-12T20:51:00Z,42.75,-73.8,-4.4,-17.8,280,10,,10.0,30.510826,1033.6,,,TRUE,,,,,,,FEW,9000,FEW,25000,,,,,VFR,-0.2,,,,,,,,,,,METAR,92.0
EKKA 122051Z AUTO 30014KT 9999NDV BKN014/// 07/05 Q0998,EKKA,2019-01-12T20:51:00Z,56.3,9.12,7.0,5.0,300,14,,,29.468504,,,TRUE,,,,,,,,BKN,1400,,,,,,,,,,,,,,,,,,,SPECI,52.0
PTTP 122051Z 00000KT 15SM BKN017 BKN130 OVC300 25/24 A2974 RMK SLP071 8/171 T02500240 52010,PTTP,2019-01-12T20:51:00Z,6.97,158.22,25.0,24.0,0,0,,15.0,29.740158,1007.1,,,,,,,,,,BKN,1700,BKN,13000,OVC,30000,,,MVFR,1.0,,,,,,,,,,,METAR,2.0
PTPN 122051Z 17003KT 15SM BKN017TCU BKN130 OVC300 27/25 A2970 RMK TCU N-E,PTPN,2019-01-12T20:51:00Z,6.97,158.22,27.0,25.0,170,3,,15.0,29.698818,,,,,,,,,,,BKN,1700,BKN,13000,OVC,30000,,,MVFR,,,,,,,,,,,,METAR,2.0
MMQT 122051Z 30009KT 7SM SCT030 22/06 A3024 RMK 8/100,MMQT,2019-01-12T20:51:00Z,20.62,-100.18,22.0,6.0,300,9,,7.0,30.239174,,,,,,,,,,,SCT,3000,,,,,,,VFR,,,,,,,,,,,,METAR,1919.0
MMCL 122051Z 28006KT 10SM SKC 29/11 A2995 RMK SLP141 57033 951,MMCL,2019-01-12T20:51:00Z,24.77,-107.47,29.0,11.0,280,6,,10.0,29.949802,1014.1,,,,,,,,,,SKC,,,,,,,,VFR,-3.3,,,,,,,,,,,METAR,39.0
OITL 122051Z 21016G27KT CAVOK 03/M11 Q1012,OITL,2019-01-12T20:51:00Z,38.33,48.42,3.0,-11.0,210,16,27,6.21,29.88189,,,,,,,,,,,CAVOK,,,,,,,,VFR,,,,,,,,,,,,METAR,1316.0
OIHH 122051Z 00000KT CAVOK M04/M07 Q1017,OIHH,2019-01-12T20:51:00Z,34.87,48.55,-4.0,-7.0,0,0,,6.21,30.029528,,,,,,,,,,,CAVOK,,,,,,,,VFR,,,,,,,,,,,,METAR,1757.0
KTGI 122051Z AUTO 00000KT 10SM BKN060 OVC070 03/M05 A3049 RMK AO1,KTGI,2019-01-12T20:51:00Z,37.82,-75.98,3.0,-5.0,0,0,,10.0,30.490158,,,TRUE,TRUE,,,,,,,BKN,6000,OVC,7000,,,,,VFR,,,,,,,,,,,,SPECI,2.0
KCJR 122050Z AUTO 21004KT 5SM -SN SCT038 BKN049 OVC065 01/M04 A3049 RMK AO2 T00071045,KCJR,2019-01-12T20:50:00Z,38.53,-77.87,0.7,-4.5,210,4,,5.0,30.490158,,,TRUE,TRUE,,,,,,-SN,SCT,3800,BKN,4900,OVC,6500,,,MVFR,,,,,,,,,,,,SPECI,97.0
KLBE 122050Z COR 05006KT 10SM OVC080 00/M07 A3034,KLBE,2019-01-12T20:50:00Z,40.27,-79.4,0.0,-7.0,50,6,,10.0,30.339567,,TRUE,,,,,,,,,OVC,8000,,,,,,,VFR,,,,,,,,,,,,METAR,361.0
BGGH 122050Z 06011KT 040V100 6000 -FZDZ BKN015 BKN025 M04/M06 Q1005,BGGH,2019-01-12T20:50:00Z,64.2,-51.68,-4.0,-6.0,60,11,,3.73,29.675198,,,,,,,,,,-FZDZ,BKN,1500,BKN,2500,,,,,MVFR,,,,,,,,,,,,METAR,70.0
BGKK 122050Z AUTO 27004KT 240V310 9999NDV OVC059/// M09/M13 Q1013,BGKK,2019-01-12T20:50:00Z,65.57,-37.13,-9.0,-13.0,270,4,,,29.911417,,,TRUE,,,,,,,,OVC,5900,,,,,,,,,,,,,,,,,,,METAR,34.0
BGJN 122050Z 14008KT 9999 BKN024 M22/M29 Q1016,BGJN,2019-01-12T20:50:00Z,69.25,-51.07,-22.0,-29.0,140,8,,6.21,30.0,,,,,,,,,,,BKN,2400,,,,,,,MVFR,,,,,,,,,,,,METAR,25.0
BGBW 122050Z AUTO 21001KT 9999NDV BKN060/// OVC075/// M00/M03 Q1010,BGBW,2019-01-12T20:50:00Z,61.17,-45.42,0.0,-3.0,210,1,,,29.822834,,,TRUE,,,,,,,,BKN,6000,OVC,7500,,,,,,,,,,,,,,,,,METAR,26.0
BGSF 122050Z AUTO 05008KT 9999NDV FEW180/// M33/M37 Q1018,BGSF,2019-01-12T20:50:00Z,67.0,-50.72,-33.0,-37.0,50,8,,,30.059055,,,TRUE,,,,,,,,FEW,18000,,,,,,,,,,,,,,,,,,,METAR,53.0
EFKT 122050Z 30006KT CAVOK M06/M10 Q0981,EFKT,2019-01-12T20:50:00Z,67.7,24.85,-6.0,-10.0,300,6,,6.21,28.966536,,,,,,,,,,,CAVOK,,,,,,,,VFR,,,,,,,,,,,,METAR,643.0
EFKS 122050Z AUTO 30013KT CAVOK M07/M09 Q0979,EFKS,2019-01-12T20:50:00Z,66.0,29.23,-7.0,-9.0,300,13,,6.21,28.90748,,,TRUE,,,,,,,,CAVOK,,,,,,,,VFR,,,,,,,,,,,,METAR,263.0
EFKI 122050Z AUTO 29010KT 9999 OVC020 M05/M09 Q0984,EFKI,2019-01-12T20:50:00Z,64.27,27.67,-5.0,-9.0,290,10,,6.21,29.055119,,,TRUE,,,,,,,,OVC,2000,,,,,,,MVFR,,,,,,,,,,,,METAR,136.0
EFKE 122050Z AUTO 29003KT 260V320 CAVOK M08/M11 Q0985,EFKE,2019-01-12T20:50:00Z,65.77,24.57,-8.0,-11.0,290,3,,6.21,29.084646,,,TRUE,,,,,,,,CAVOK,,,,,,,,VFR,,,,,,,,,,,,METAR,15.0
EFET 122050Z AUTO 25003KT CAVOK M08/M11 Q0981,EFET,2019-01-12T20:50:00Z,68.37,23.43,-8.0,-11.0,250,3,,6.21,28.966536,,,TRUE,,,,,,,,CAVOK,,,,,,,,VFR,,,,,,,,,,,,METAR,306.0
EFUT 122050Z AUTO 29004KT 260V330 CAVOK M08/M09 Q0989,EFUT,2019-01-12T20:50:00Z,60.88,26.92,-8.0,-9.0,290,4,,6.21,29.202755,,,TRUE,,,,,,,,CAVOK,,,,,,,,VFR,,,,,,,,,,,,METAR,100.0
EFSI 122050Z AUTO 00000KT CAVOK M12/M13 Q0990,EFSI,2019-01-12T20:50:00Z,62.7,22.83,-12.0,-13.0,0,0,,6.21,29.232283,,,TRUE,,,,,,,,CAVOK,,,,,,,,VFR,,,,,,,,,,,,METAR,91.0
EFSA 122050Z AUTO 26009KT CAVOK M07/M09 Q0986,EFSA,2019-01-12T20:50:00Z,61.95,28.93,-7.0,-9.0,260,9,,6.21,29.114174,,,TRUE,,,,,,,,CAVOK,,,,,,,,VFR,,,,,,,,,,,,METAR,95.0
EFMI 122050Z AUTO 27005KT CAVOK M08/M10 Q0988,EFMI,2019-01-12T20:50:00Z,61.68,27.2,-8.0,-10.0,270,5,,6.21,29.17323,,,TRUE,,,,,,,,CAVOK,,,,,,,,VFR,,,,,,,,,,,,METAR,138.0
EFLP 122050Z AUTO 27006KT CAVOK M07/M08 Q0988,EFLP,2019-01-12T20:50:00Z,61.07,28.13,-7.0,-8.0,270,6,,6.21,29.17323,,,TRUE,,,,,,,,CAVOK,,,,,,,,VFR,,,,,,,,,,,,METAR,106.0
EFJO 122050Z AUTO 27009KT 240V300 9999 FEW026 M06/M08 Q0984,EFJO,2019-01-12T20:50:00Z,62.67,29.62,-6.0,-8.0,270,9,,6.21,29.055119,,,TRUE,,,,,,,,FEW,2600,,,,,,,VFR,,,,,,,,,,,,METAR,117.0
EFPO 122050Z AUTO 14002KT 9999 FEW032/// M09/M09 Q0992,EFPO,2019-01-12T20:50:00Z,61.47,21.8,-9.0,-9.0,140,2,,6.21,29.291338,,,TRUE,,,,,,,,FEW,3200,,,,,,,VFR,,,,,,,,,,,,METAR,17.0
EFKK 122050Z AUTO 23004KT CAVOK M05/M08 Q0989,EFKK,2019-01-12T20:50:00Z,63.72,23.13,-5.0,-8.0,230,4,,6.21,29.202755,,,TRUE,,,,,,,,CAVOK,,,,,,,,VFR,,,,,,,,,,,,METAR,25.0
EFHA 122050Z AUTO 26009KT CAVOK M09/M10 Q0990,EFHA,2019-01-12T20:50:00Z,61.85,24.8,-9.0,-10.0,260,9,,6.21,29.232283,,,TRUE,,,,,,,,CAVOK,,,,,,,,VFR,,,,,,,,,,,,METAR,145.0
EFKU 122050Z AUTO 28008KT 250V320 CAVOK M08/M10 Q0986,EFKU,2019-01-12T20:50:00Z,63.02,27.8,-8.0,-10.0,280,8,,6.21,29.114174,,,TRUE,,,,,,,,CAVOK,,,,,,,,VFR,,,,,,,,,,,,METAR,102.0
EFJY 122050Z AUTO 31005KT CAVOK M07/M09 Q0988,EFJY,2019-01-12T20:50:00Z,62.4,25.68,-7.0,-9.0,310,5,,6.21,29.17323,,,TRUE,,,,,,,,CAVOK,,,,,,,,VFR,,,,,,,,,,,,METAR,145.0
MMPQ 122050Z 00000KT 7SM FEW020 28/21 A2985 RMK 8/100 HZY,MMPQ,2019-01-12T20:50:00Z,17.53,-91.98,28.0,21.0,0,0,,7.0,29.84941,,,,,,,,,,,FEW,2000,,,,,,,VFR,,,,,,,,,,,,METAR,61.0
MMMD 122050Z 02004KT 7SM FEW020 30/12 A3000 RMK SLP169 56014 914 8/100,MMMD,2019-01-12T20:50:00Z,20.95,-89.65,30.0,12.0,20,4,,7.0,30.0,1016.9,,,,,,,,,,FEW,2000,,,,,,,VFR,-1.4,,,,,,,,,,,METAR,10.0
PGWT 122050Z 05012KT 7SM FEW016 M/M A2987,PGWT,2019-01-12T20:50:00Z,14.98,145.62,,,50,12,,7.0,29.870079,,,,,,,,,,,FEW,1600,,,,,,,VFR,,,,,,,,,,,,METAR,82.0
KHQZ 122050Z 28016G26KT 10SM OVC026 07/02 A3012,KHQZ,2019-01-12T20:50:00Z,32.75,-96.53,7.0,2.0,280,16,26,10.0,30.121063,,,,,,,,,,,OVC,2600,,,,,,,MVFR,,,,,,,,,,,,METAR,136.0
KFIN 122050Z 14009KT 7SM SCT070 22/12 A3019,KFIN,2019-01-12T20:50:00Z,29.47,-81.2,22.0,12.0,140,9,,7.0,30.188976,,,,,,,,,,,SCT,7000,,,,,,,VFR,,,,,,,,,,,,METAR,10.0
EDDV 122050Z 27014KT 9999 SCT035 06/04 Q1007 NOSIG,EDDV,2019-01-12T20:50:00Z,52.47,9.68,6.0,4.0,270,14,,6.21,29.734253,,,,,,TRUE,,,,,SCT,3500,,,,,,,VFR,,,,,,,,,,,,METAR,54.0
EDDT 122050Z 26014KT 9999 -RA BKN013 06/04 Q1003 NOSIG,EDDT,2019-01-12T20:50:00Z,52.57,13.32,6.0,4.0,260,14,,6.21,29.616142,,,,,,TRUE,,,,-RA,BKN,1300,,,,,,,MVFR,,,,,,,,,,,,METAR,37.0
EDDS 122050Z 23013G23KT 180V250 5000 SNRA SCT006 BKN035 02/00 Q1015 TEMPO NSW BKN009,EDDS,2019-01-12T20:50:00Z,48.67,9.22,2.0,0.0,230,13,23,3.11,29.970472,,,,,,,,,,SN RA,SCT,600,BKN,3500,,,,,MVFR,,,,,,,,,,,,METAR,419.0
EDDN 122050Z 25007KT 220V280 9999 -SNRA BKN008 01/01 Q1013 R28/29//95 TEMPO 4000 BKN004,EDDN,2019-01-12T20:50:00Z,49.5,11.08,1.0,1.0,250,7,,6.21,29.911417,,,,,,,,,,-SN -RA,BKN,800,,,,,,,IFR,,,,,,,,,,,,METAR,312.0
EDDM 122050Z 25024KT 4000 SN BKN008 BKN012 01/00 Q1014 R88/290095 TEMPO 26020G30KT,EDDM,2019-01-12T20:50:00Z,48.35,11.82,1.0,0.0,250,24,,2.49,29.940945,,,,,,,,,,SN,BKN,800,BKN,1200,,,,,IFR,,,,,,,,,,,,METAR,447.0
EDDL 122050Z 28010KT 9999 SCT012 BKN020 07/05 Q1013 TEMPO BKN012,EDDL,2019-01-12T20:50:00Z,51.3,6.77,7.0,5.0,280,10,,6.21,29.911417,,,,,,,,,,,SCT,1200,BKN,2000,,,,,MVFR,,,,,,,,,,,,METAR,44.0
EDDK 122050Z 29011KT 9999 SCT011 BKN014 07/05 Q1013 TEMPO BKN012,EDDK,2019-01-12T20:50:00Z,50.87,7.15,7.0,5.0,290,11,,6.21,29.911417,,,,,,,,,,,SCT,1100,BKN,1400,,,,,MVFR,,,,,,,,,,,,METAR,99.0
EDDH 122050Z 28016KT 9000 RA FEW010 BKN013 06/05 Q1003 TEMPO 30015G25KT NSW,EDDH,2019-01-12T20:50:00Z,53.63,10.0,6.0,5.0,280,16,,5.59,29.616142,,,,,,,,,,RA,FEW,1000,BKN,1300,,,,,MVFR,,,,,,,,,,,,METAR,16.0
EDDF 122050Z 20012KT 9999 -RA FEW007 BKN024 BKN045 05/04 Q1013 RERA NOSIG,EDDF,2019-01-12T20:50:00Z,50.05,8.6,5.0,4.0,200,12,,6.21,29.911417,,,,,,TRUE,,,,-RA,FEW,700,BKN,2400,BKN,4500,,,MVFR,,,,,,,,,,,,METAR,113.0
EDDW 122050Z 27015KT 9999 -RA FEW012 BKN014 BKN028 07/06 Q1006 TEMPO 27015G25KT BKN015,EDDW,2019-01-12T20:50:00Z,53.03,8.8,7.0,6.0,270,15,,6.21,29.704725,,,,,,,,,,-RA,FEW,1200,BKN,1400,BKN,2800,,,MVFR,,,,,,,,,,,,METAR,5.0
EDDR 122050Z 25015KT 9999 -RA FEW003 BKN006 05/04 Q1016 TEMPO 27015G25KT BKN004,EDDR,2019-01-12T20:50:00Z,49.22,7.1,5.0,4.0,250,15,,6.21,30.0,,,,,,,,,,-RA,FEW,300,BKN,600,,,,,IFR,,,,,,,,,,,,METAR,320.0
EDDP 122050Z 25016KT 9999 FEW014 BKN030 BKN120 04/03 Q1007 NOSIG,EDDP,2019-01-12T20:50:00Z,51.43,12.23,4.0,3.0,250,16,,6.21,29.734253,,,,,,TRUE,,,,,FEW,1400,BKN,3000,BKN,12000,,,MVFR,,,,,,,,,,,,METAR,149.0
EDDG 122050Z 27011KT 9999 BKN012TCU BKN032 06/05 Q1010 BECMG BKN020,EDDG,2019-01-12T20:50:00Z,52.13,7.7,6.0,5.0,270,11,,6.21,29.822834,,,,,,,,,,,BKN,1200,BKN,3200,,,,,MVFR,,,,,,,,,,,,METAR,52.0
EDDE 122050Z 25015KT 9999 -RA BKN011 BKN035 04/03 Q1008 R88/190195 TEMPO BKN015,EDDE,2019-01-12T20:50:00Z,50.98,10.97,4.0,3.0,250,15,,6.21,29.763779,,,,,,,,,,-RA,BKN,1100,BKN,3500,,,,,MVFR,,,,,,,,,,,,METAR,323.0
EDDC 122050Z 26013KT 230V300 9999 FEW015 SCT022 BKN038 03/02 Q1006 TEMPO 26015G25KT,EDDC,2019-01-12T20:50:00Z,51.13,13.75,3.0,2.0,260,13,,6.21,29.704725,,,,,,,,,,,FEW,1500,SCT,2200,BKN,3800,,,VFR,,,,,,,,,,,,METAR,226.0
EDDB 122050Z 26014KT 9999 BKN012 06/04 Q1003 NOSIG,EDDB,2019-01-12T20:50:00Z,52.38,13.53,6.0,4.0,260,14,,6.21,29.616142,,,,,,TRUE,,,,,BKN,1200,,,,,,,MVFR,,,,,,,,,,,,METAR,48.0
LSMS 122050Z AUTO 09005KT 9999 NCD 01/M04 Q1023,LSMS,2019-01-12T20:50:00Z,46.22,7.32,1.0,-4.0,90,5,,6.21,30.206694,,,TRUE,,,,,,,,CLR,,,,,,,,VFR,,,,,,,,,,,,METAR,481.0
LSMP 122050Z 23011KT 9999 -RA FEW026 BKN030 OVC071 00/M04 Q1023 RMK BLU,LSMP,2019-01-12T20:50:00Z,46.82,6.92,0.0,-4.0,230,11,,6.21,30.206694,,,,,,,,,,-RA,FEW,2600,BKN,3000,OVC,7100,,,MVFR,,,,,,,,,,,,METAR,491.0
ESGG 122050Z 36005KT 0150 R03/0450N R21/0550N FZFG VV002 M02/M03 Q0995 R03/19//95,ESGG,2019-01-12T20:50:00Z,57.67,12.3,-2.0,-3.0,360,5,,0.09,29.379921,,,,,,,,,,FZFG,OVX,0,,,,,,,LIFR,,,,,,,,,,,200,METAR,169.0
ESTL 122050Z AUTO 29009KT 9999 SCT001/// OVC003/// 05/05 Q0995,ESTL,2019-01-12T20:50:00Z,56.07,13.2,5.0,5.0,290,9,,6.21,29.379921,,,TRUE,,,,,,,,SCT,100,OVC,300,,,,,LIFR,,,,,,,,,,,,METAR,43.0
ESTA 122050Z AUTO 32010KT 6000 BR OVC002/// 04/04 Q0995 REDZ,ESTA,2019-01-12T20:50:00Z,56.28,12.83,4.0,4.0,320,10,,3.73,29.379921,,,TRUE,,,,,,,BR,OVC,200,,,,,,,LIFR,,,,,,,,,,,,METAR,47.0
ESMX 122050Z AUTO VRB02KT 0900 R01/P2000N R19/P2000N UP OVC001/// 00/00 Q0994 REUP,ESMX,2019-01-12T20:50:00Z,56.92,14.72,0.0,0.0,0,2,,0.56,29.350393,,,TRUE,,,,,,,UP,OVC,100,,,,,,,LIFR,,,,,,,,,,,,METAR,186.0
ESMT 122050Z AUTO 32007KT 9999 SCT003/// BKN011/// OVC016/// 03/03 Q0995,ESMT,2019-01-12T20:50:00Z,56.67,12.82,3.0,3.0,320,7,,6.21,29.379921,,,TRUE,,,,,,,,SCT,300,BKN,1100,OVC,1600,,,MVFR,,,,,,,,,,,,METAR,30.0
ESMS 122050Z 27010KT 4500 -DZ BR OVC004 05/04 Q0995 R17/29//95,ESMS,2019-01-12T20:50:00Z,55.53,13.37,5.0,4.0,270,10,,2.8,29.379921,,,,,,,,,,-DZ BR,OVC,400,,,,,,,LIFR,,,,,,,,,,,,METAR,106.0
ESMQ 122050Z 00000KT 2800 -DZ FEW006 OVC018 00/00 Q0995,ESMQ,2019-01-12T20:50:00Z,56.68,16.3,0.0,0.0,0,0,,1.74,29.379921,,,,,,,,,,-DZ,FEW,600,OVC,1800,,,,,IFR,,,,,,,,,,,,METAR,16.0
ESMK 122050Z AUTO 28003KT 9999 SCT015/// BKN023/// 04/// Q0995,ESMK,2019-01-12T20:50:00Z,55.92,14.07,,,280,3,,6.21,29.379921,,,TRUE,,,,,,,,SCT,1500,BKN,2300,,,,,MVFR,,,,,,,,,,,,METAR,23.0
ESGT 122050Z AUTO 04004KT 360V080 6000 OVC002/// M01/M01 Q0996,ESGT,2019-01-12T20:50:00Z,58.32,12.33,-1.0,-1.0,40,4,,3.73,29.409449,,,TRUE,,,,,,,,OVC,200,,,,,,,LIFR,,,,,,,,,,,,METAR,41.0
ESGJ 122050Z 31004KT 9999 SCT009 BKN015 M01/M01 Q0994,ESGJ,2019-01-12T20:50:00Z,57.77,14.07,-1.0,-1.0,310,4,,6.21,29.350393,,,,,,,,,,,SCT,900,BKN,1500,,,,,MVFR,,,,,,,,,,,,METAR,232.0
EKBI 122050Z AUTO 28016KT 9999 OVC009/// 06/05 Q0999,EKBI,2019-01-12T20:50:00Z,55.72,9.15,6.0,5.0,280,16,,6.21,29.498032,,,TRUE,,,,,,,,OVC,900,,,,,,,IFR,,,,,,,,,,,,METAR,66.0
EKRK 122050Z AUTO 29009KT 9999NDV -SHRA FEW013/// BKN018/// BKN023/// OVC028/// 04/04 Q0996,EKRK,2019-01-12T20:50:00Z,55.57,12.12,4.0,4.0,290,9,,,29.409449,,,TRUE,,,,,,,-SHRA,FEW,1300,BKN,1800,BKN,2300,OVC,2800,,,,,,,,,,,,,METAR,44.0
EKAH 122050Z AUTO 31010KT 4200NDV DZ BR BKN003/// 05/05 Q0997,EKAH,2019-01-12T20:50:00Z,56.28,10.62,5.0,5.0,310,10,,,29.438976,,,TRUE,,,,,,,DZ BR,BKN,300,,,,,,,,,,,,,,,,,,,METAR,25.0
EKYT 122050Z AUTO 30006KT 9999 BKN011/// OVC015/// 04/03 Q0997,EKYT,2019-01-12T20:50:00Z,57.1,9.87,4.0,3.0,300,6,,6.21,29.438976,,,TRUE,,,,,,,,BKN,1100,OVC,1500,,,,,MVFR,,,,,,,,,,,,METAR,3.0
EKEB 122050Z AUTO 29014KT 9999 BKN016/// BKN022/// 06/05 Q1001,EKEB,2019-01-12T20:50:00Z,55.52,8.55,6.0,5.0,290,14,,6.21,29.557087,,,TRUE,,,,,,,,BKN,1600,BKN,2200,,,,,MVFR,,,,,,,,,,,,METAR,29.0
EKRN 122050Z AUTO 27015KT 9000 -SHRA OVC010/// 05/04 Q0996,EKRN,2019-01-12T20:50:00Z,55.07,14.75,5.0,4.0,270,15,,5.59,29.409449,,,TRUE,,,,,,,-SHRA,OVC,1000,,,,,,,MVFR,,,,,,,,,,,,METAR,16.0
EKCH 122050Z 28010KT 8000 FEW005 BKN008 05/04 Q0996 TEMPO BKN015,EKCH,2019-01-12T20:50:00Z,55.62,12.67,5.0,4.0,280,10,,4.97,29.409449,,,,,,,,,,,FEW,500,BKN,800,,,,,IFR,,,,,,,,,,,,METAR,5.0
EKSB 122050Z AUTO 28011KT 240V310 //// BKN028/// 06/04 Q1000,EKSB,2019-01-12T20:50:00Z,54.97,9.8,6.0,4.0,280,11,,,29.52756,,,TRUE,,,,,,,,BKN,2800,,,,,,,,,,,,,,,,,,,METAR,23.0
EKVD 122050Z AUTO 28012KT //// ///////// 06/05 Q1000,EKVD,2019-01-12T20:50:00Z,55.42,9.32,6.0,5.0,280,12,,,29.52756,,,TRUE,,,,,,,,,,,,,,,,,,,,,,,,,,,,METAR,45.0
KBCT 122050Z 14006KT 10SM SCT036 25/15 A3016,KBCT,2019-01-12T20:50:00Z,26.38,-80.1,25.0,15.0,140,6,,10.0,30.159449,,,,,,,,,,,SCT,3600,,,,,,,VFR,,,,,,,,,,,,METAR,4.0
EVLA 122050Z AUTO 08003KT 9999 BKN100/// M01/M01 Q0996,EVLA,2019-01-12T20:50:00Z,56.52,21.1,-1.0,-1.0,80,3,,6.21,29.409449,,,TRUE,,,,,,,,BKN,10000,,,,,,,VFR,,,,,,,,,,,,METAR,4.0
EVVA 122050Z AUTO 19002KT 9999 BKN022 M02/M02 Q0996,EVVA,2019-01-12T20:50:00Z,57.35,21.55,-2.0,-2.0,190,2,,6.21,29.409449,,,TRUE,,,,,,,,BKN,2200,,,,,,,MVFR,,,,,,,,,,,,METAR,6.0
MSSS 122050Z 17007KT 9999 FEW030 29/16 Q1015 A2998,MSSS,2019-01-12T20:50:00Z,13.7,-89.12,29.0,16.0,170,7,,6.21,29.970472,,,,,,,,,,,FEW,3000,,,,,,,VFR,,,,,,,,,,,,METAR,616.0
MSLP 122050Z 19007KT 150V240 9999 FEW037 30/19 Q1011 A2986 NOSIG RMK FU E,MSLP,2019-01-12T20:50:00Z,13.43,-89.05,30.0,19.0,190,7,,6.21,29.852362,,,,,,TRUE,,,,,FEW,3700,,,,,,,VFR,,,,,,,,,,,,METAR,25.0
LLSD 122050Z 11005KT CAVOK 12/08 Q1008,LLSD,2019-01-12T20:50:00Z,32.12,34.78,12.0,8.0,110,5,,6.21,29.763779,,,,,,,,,,,CAVOK,,,,,,,,VFR,,,,,,,,,,,,METAR,14.0
LLHA 122050Z 15012KT CAVOK 14/04 Q1008,LLHA,2019-01-12T20:50:00Z,32.78,35.02,14.0,4.0,150,12,,6.21,29.763779,,,,,,,,,,,CAVOK,,,,,,,,VFR,,,,,,,,,,,,METAR,8.0
LLET 122050Z 19018KT 9999 FEW050 22/15 Q1009 RMK SCT060,LLET,2019-01-12T20:50:00Z,29.55,34.95,22.0,15.0,190,18,,6.21,29.793306,,,,,,,,,,,FEW,5000,,,,,,,VFR,,,,,,,,,,,,METAR,13.0
MMRX 122050Z 36003KT 7SM FEW040 26/12 A3004 RMK SLP167 56022 940 8/100 HZY,MMRX,2019-01-12T20:50:00Z,26.02,-98.22,26.0,12.0,360,3,,7.0,30.041338,1016.7,,,,,,,,,,FEW,4000,,,,,,,VFR,-2.2,,,,,,,,,,,METAR,39.0
VNKT 122050Z VRB02KT 2500 BR FEW010 05/04 Q1022 NOSIG,VNKT,2019-01-12T20:50:00Z,27.68,85.37,5.0,4.0,0,2,,1.55,30.177166,,,,,,TRUE,,,,BR,FEW,1000,,,,,,,IFR,,,,,,,,,,,,METAR,1337.0
KFWS 122050Z 30013G23KT 10SM OVC030 08/02 A3015,KFWS,2019-01-12T20:50:00Z,32.57,-97.3,8.0,2.0,300,13,23,10.0,30.15059,,,,,,,,,,,OVC,3000,,,,,,,MVFR,,,,,,,,,,,,METAR,208.0
KDAG 122050Z AUTO 07011KT 8SM -RA OVC041 08/08 A3002 RMK AO2 SLP162 P0007 60007 T00830078 56012,KDAG,2019-01-12T20:50:00Z,34.85,-116.78,8.3,7.8,70,11,,8.0,30.02067,1016.2,,TRUE,TRUE,,,,,,-RA,OVC,4100,,,,,,,VFR,-1.2,,,,,0.07,0.07,,,,,METAR,587.0
KCWF 122050Z 29010G15KT 10SM SCT031 22/12 A2998,KCWF,2019-01-12T20:50:00Z,30.22,-93.15,22.0,12.0,290,10,15,10.0,29.97933,,,,,,,,,,,SCT,3100,,,,,,,VFR,,,,,,,,,,,,METAR,4.0
ESNX 122050Z AUTO 28006KT 9999 NCD M07/M10 Q0987,ESNX,2019-01-12T20:50:00Z,65.58,19.28,-7.0,-10.0,280,6,,6.21,29.143702,,,TRUE,,,,,,,,CLR,,,,,,,,VFR,,,,,,,,,,,,METAR,379.0
ESUT 122050Z AUTO VRB01KT 9999 BKN017/// OVC021/// M10/M11 Q0988,ESUT,2019-01-12T20:50:00Z,65.8,15.08,-10.0,-11.0,0,1,,6.21,29.17323,,,TRUE,,,,,,,,BKN,1700,OVC,2100,,,,,MVFR,,,,,,,,,,,,METAR,463.0
ESNL 122050Z AUTO VRB02KT 9999 NCD M11/M13 Q0989,ESNL,2019-01-12T20:50:00Z,64.55,18.72,-11.0,-13.0,0,2,,6.21,29.202755,,,TRUE,,,,,,,,CLR,,,,,,,,VFR,,,,,,,,,,,,METAR,214.0
LSZC 122050Z AUTO 09004KT 5000 RASN BKN/// 02/01 Q1022 RESN,LSZC,2019-01-12T20:50:00Z,46.97,8.38,2.0,1.0,90,4,,3.11,30.177166,,,TRUE,,,,,,,RA SN,,,,,,,,,,,,,,,,,,,,,METAR,450.0
LSZS 122050Z AUTO VRB04KT CAVOK M08/M11 Q1014,LSZS,2019-01-12T20:50:00Z,46.53,9.88,-8.0,-11.0,0,4,,6.21,29.940945,,,TRUE,,,,,,,,CAVOK,,,,,,,,VFR,,,,,,,,,,,,METAR,1706.0
LSZR 122050Z AUTO VRB03KT 9999 -RA BKN019 03/01 Q1020 RERASN,LSZR,2019-01-12T20:50:00Z,47.48,9.57,3.0,1.0,0,3,,6.21,30.11811,,,TRUE,,,,,,,-RA,BKN,1900,,,,,,,MVFR,,,,,,,,,,,,METAR,398.0
LSZG 122050Z AUTO 25019KT 9000 -RA FEW015 BKN110 BKN130 03/01 Q1022 RERASN,LSZG,2019-01-12T20:50:00Z,47.17,7.42,3.0,1.0,250,19,,5.59,30.177166,,,TRUE,,,,,,,-RA,FEW,1500,BKN,11000,BKN,13000,,,VFR,,,,,,,,,,,,METAR,430.0
LSGS 122050Z AUTO 09005KT 9999 NCD 01/M04 Q1023,LSGS,2019-01-12T20:50:00Z,46.22,7.32,1.0,-4.0,90,5,,6.21,30.206694,,,TRUE,,,,,,,,CLR,,,,,,,,VFR,,,,,,,,,,,,METAR,481.0
LSGC 122050Z AUTO 23007KT 2500 -SN BKN/// M01/M01 Q1020,LSGC,2019-01-12T20:50:00Z,47.08,6.8,-1.0,-1.0,230,7,,1.55,30.11811,,,TRUE,,,,,,,-SN,,,,,,,,,,,,,,,,,,,,,METAR,1027.0
LSZA 122050Z VRB02KT CAVOK 01/M02 Q1014 NOSIG,LSZA,2019-01-12T20:50:00Z,46.0,8.92,1.0,-2.0,0,2,,6.21,29.940945,,,,,,TRUE,,,,,CAVOK,,,,,,,,VFR,,,,,,,,,,,,METAR,276.0
LSZB 122050Z AUTO 26007KT 210V310 9999 -RASN BKN/// 04/M01 Q1022,LSZB,2019-01-12T20:50:00Z,46.92,7.5,4.0,-1.0,260,7,,6.21,30.177166,,,TRUE,,,,,,,-RA -SN,,,,,,,,,,,,,,,,,,,,,METAR,505.0
LSGG 122050Z 22011KT 9999 FEW035 BKN040 OVC070 04/M01 Q1024 BECMG RA,LSGG,2019-01-12T20:50:00Z,46.25,6.12,4.0,-1.0,220,11,,6.21,30.236221,,,,,,,,,,,FEW,3500,BKN,4000,OVC,7000,,,VFR,,,,,,,,,,,,METAR,416.0
LSZH 122050Z 22009KT 5000 -RASN SCT008 SCT012 BKN020 01/00 Q1021 TEMPO 4000 SNRA BKN012,LSZH,2019-01-12T20:50:00Z,47.48,8.53,1.0,0.0,220,9,,3.11,30.147638,,,,,,,,,,-RA -SN,SCT,800,SCT,1200,BKN,2000,,,MVFR,,,,,,,,,,,,METAR,432.0
KOLV 122050Z 16008KT 7SM OVC007 07/07 A2993,KOLV,2019-01-12T20:50:00Z,34.98,-89.78,7.0,7.0,160,8,,7.0,29.929134,,,,,,,,,,,OVC,700,,,,,,,IFR,,,,,,,,,,,,METAR,122.0
EKSP 122050Z 28014KT 9999 SCT018 BKN024 05/04 Q1001,EKSP,2019-01-12T20:50:00Z,55.22,9.27,5.0,4.0,280,14,,6.21,29.557087,,,,,,,,,,,SCT,1800,BKN,2400,,,,,MVFR,,,,,,,,,,,,METAR,40.0
LLBG 122050Z VRB03KT CAVOK 11/08 Q1008 NOSIG,LLBG,2019-01-12T20:50:00Z,32.0,34.88,11.0,8.0,0,3,,6.21,29.763779,,,,,,TRUE,,,,,CAVOK,,,,,,,,VFR,,,,,,,,,,,,METAR,49.0
EFMA 122050Z AUTO VRB01KT CAVOK M03/M04 Q0994,EFMA,2019-01-12T20:50:00Z,60.12,19.88,-3.0,-4.0,0,1,,6.21,29.350393,,,TRUE,,,,,,,,CAVOK,,,,,,,,VFR,,,,,,,,,,,,METAR,6.0
EFRO 122050Z AUTO 25008KT 220V290 CAVOK M08/M10 Q0982,EFRO,2019-01-12T20:50:00Z,66.57,25.82,-8.0,-10.0,250,8,,6.21,28.996063,,,TRUE,,,,,,,,CAVOK,,,,,,,,VFR,,,,,,,,,,,,METAR,201.0
EFOU 122050Z AUTO 32009KT CAVOK M04/M08 Q0985,EFOU,2019-01-12T20:50:00Z,64.92,25.37,-4.0,-8.0,320,9,,6.21,29.084646,,,TRUE,,,,,,,,CAVOK,,,,,,,,VFR,,,,,,,,,,,,METAR,15.0
EFVA 122050Z AUTO VRB02KT CAVOK M09/M10 Q0991,EFVA,2019-01-12T20:50:00Z,63.03,21.77,-9.0,-10.0,0,2,,6.21,29.26181,,,TRUE,,,,,,,,CAVOK,,,,,,,,VFR,,,,,,,,,,,,METAR,4.0
EFTU 122050Z AUTO 25002KT 1500 R26/1300 BR FEW002 M08/M09 Q0992,EFTU,2019-01-12T20:50:00Z,60.52,22.27,-8.0,-9.0,250,2,,0.93,29.291338,,,TRUE,,,,,,,BR,FEW,200,,,,,,,LIFR,,,,,,,,,,,,METAR,59.0
EFTP 122050Z AUTO VRB01KT CAVOK M13/M14 Q0991,EFTP,2019-01-12T20:50:00Z,61.42,23.62,-13.0,-14.0,0,1,,6.21,29.26181,,,TRUE,,,,,,,,CAVOK,,,,,,,,VFR,,,,,,,,,,,,METAR,112.0
EFHK 122050Z 25006KT 9999 MIFG SKC M09/M10 Q0991 NOSIG,EFHK,2019-01-12T20:50:00Z,60.32,24.97,-9.0,-10.0,250,6,,6.21,29.26181,,,,,,TRUE,,,,MIFG,SKC,,,,,,,,VFR,,,,,,,,,,,,METAR,56.0
EYVI 122050Z 26008KT 9999 -SN OVC005 M01/M01 Q0998 R19/8/0295 NOSIG,EYVI,2019-01-12T20:50:00Z,54.63,25.28,-1.0,-1.0,260,8,,6.21,29.468504,,,,,,TRUE,,,,-SN,OVC,500,,,,,,,IFR,,,,,,,,,,,,METAR,197.0
ENTO 122050Z AUTO 34004KT 9999 NCD M06/M08 Q0997,ENTO,2019-01-12T20:50:00Z,59.2,10.27,-6.0,-8.0,340,4,,6.21,29.438976,,,TRUE,,,,,,,,CLR,,,,,,,,VFR,,,,,,,,,,,,METAR,88.0
ENTC 122050Z 26005KT 230V290 6000 VCSH BKN025 M02/M04 Q0985,ENTC,2019-01-12T20:50:00Z,69.68,18.92,-2.0,-4.0,260,5,,3.73,29.084646,,,,,,,,,,VCSH,BKN,2500,,,,,,,MVFR,,,,,,,,,,,,METAR,10.0
ENSB 122050Z 13013KT 9999 FEW030 M13/M21 Q0996 RMK WIND 1400FT 11017KT,ENSB,2019-01-12T20:50:00Z,78.25,15.47,-13.0,-21.0,130,13,,6.21,29.409449,,,,,,,,,,,FEW,3000,,,,,,,VFR,,-1.7,,,,,,,,,,METAR,29.0
ENRY 122050Z AUTO 08004KT 9999NDV NCD M06/M08 Q0997,ENRY,2019-01-12T20:50:00Z,59.37,10.77,-6.0,-8.0,80,4,,,29.438976,,,TRUE,,,,,,,,CLR,,,,,,,,,,,,,,,,,,,,METAR,53.0
ENRO 122050Z AUTO 21008KT 9999NDV OVC018/// M06/M07 Q0990,ENRO,2019-01-12T20:50:00Z,62.57,11.33,-6.0,-7.0,210,8,,,29.232283,,,TRUE,,,,,,,,OVC,1800,,,,,,,,,,,,,,,,,,,METAR,626.0
ENHD 122050Z 30013KT 9999 FEW008 BKN011 07/05 Q0998,ENHD,2019-01-12T20:50:00Z,59.35,5.22,7.0,5.0,300,13,,6.21,29.468504,,,,,,,,,,,FEW,800,BKN,1100,,,,,MVFR,,,,,,,,,,,,METAR,24.0
ENCN 122050Z VRB03KT 9000 BKN002 M00/M00 Q0998,ENCN,2019-01-12T20:50:00Z,58.2,8.07,0.0,0.0,0,3,,5.59,29.468504,,,,,,,,,,,BKN,200,,,,,,,LIFR,,,,,,,,,,,,METAR,17.0
ENAL 122050Z 22012KT 9999 SCT018 BKN025 04/02 Q0992,ENAL,2019-01-12T20:50:00Z,62.57,6.12,4.0,2.0,220,12,,6.21,29.291338,,,,,,,,,,,SCT,1800,BKN,2500,,,,,MVFR,,,,,,,,,,,,METAR,22.0
ENZV 122050Z 30012KT 9999 SCT011 BKN025 07/05 Q0998,ENZV,2019-01-12T20:50:00Z,58.87,5.62,7.0,5.0,300,12,,6.21,29.468504,,,,,,,,,,,SCT,1100,BKN,2500,,,,,MVFR,,,,,,,,,,,,METAR,9.0
ENVA 122050Z 13004KT 7000 BKN022 00/00 Q0993 RMK WIND 670FT 16005KT,ENVA,2019-01-12T20:50:00Z,63.47,10.92,0.0,0.0,130,4,,4.35,29.320866,,,,,,,,,,,BKN,2200,,,,,,,MVFR,,,,,,,,,,,,METAR,17.0
ENOL 122050Z 10006KT 9999 FEW012 BKN020 01/00 Q0992 NOSIG,ENOL,2019-01-12T20:50:00Z,63.7,9.58,1.0,0.0,100,6,,6.21,29.291338,,,,,,TRUE,,,,,FEW,1200,BKN,2000,,,,,MVFR,,,,,,,,,,,,METAR,7.0
ENGM 122050Z 32004KT CAVOK M08/M10 Q0996 NOSIG,ENGM,2019-01-12T20:50:00Z,60.2,11.1,-8.0,-10.0,320,4,,6.21,29.409449,,,,,,TRUE,,,,,CAVOK,,,,,,,,VFR,,,,,,,,,,,,METAR,204.0
ENDU 122050Z AUTO 34003KT 280V010 9999 NCD M07/M08 Q0986 RMK WIND 1100FT 26013KT WIND 2200FT 27021KT,ENDU,2019-01-12T20:50:00Z,69.03,18.55,-7.0,-8.0,340,3,,6.21,29.114174,,,TRUE,,,,,,,,CLR,,,,,,,,VFR,,,,,,,,,,,,METAR,79.0
ENBR 122050Z 13004KT 1600 DZRA BR BKN003 03/03 Q0996 RMK WIND 1200FT 28004KT,ENBR,2019-01-12T20:50:00Z,60.28,5.22,3.0,3.0,130,4,,0.99,29.409449,,,,,,,,,,DZ RA BR,BKN,300,,,,,,,LIFR,,,,,,,,,,,,METAR,50.0
ENAN 122050Z AUTO 30006KT 9999 FZUP ///029/// M02/M04 Q0986,ENAN,2019-01-12T20:50:00Z,69.28,16.13,-2.0,-4.0,300,6,,6.21,29.114174,,,TRUE,,,,,,,UP,,,,,,,,,,,,,,,,,,,,,METAR,14.0
EYPA 122050Z AUTO 17005KT 9999 FEW016/// OVC044/// 01/00 Q0997,EYPA,2019-01-12T20:50:00Z,55.97,21.08,1.0,0.0,170,5,,6.21,29.438976,,,TRUE,,,,,,,,FEW,1600,OVC,4400,,,,,VFR,,,,,,,,,,,,METAR,10.0
OAMS 122050Z 20005KT 9999 FEW230 03/01 Q1025 BLU+BLU+,OAMS,2019-01-12T20:50:00Z,36.7,67.2,3.0,1.0,200,5,,6.21,30.265747,,,,,,,,,,,FEW,23000,,,,,,,VFR,,,,,,,,,,,,METAR,378.0
KLAL 122050Z 16009KT 10SM SCT050 25/13 A3016,KLAL,2019-01-12T20:50:00Z,27.97,-82.02,25.0,13.0,160,9,,10.0,30.159449,,,,,,,,,,,SCT,5000,,,,,,,VFR,,,,,,,,,,,,METAR,43.0
KJQF 122050Z 06005KT 10SM OVC042 04/M07 A3039,KJQF,2019-01-12T20:50:00Z,35.38,-80.72,4.0,-7.0,60,5,,10.0,30.389763,,,,,,,,,,,OVC,4200,,,,,,,VFR,,,,,,,,,,,,METAR,210.0
KHOB 122050Z 01014KT 10SM FEW041 11/M01 A3020,KHOB,2019-01-12T20:50:00Z,32.67,-103.22,11.0,-1.0,10,14,,10.0,30.200787,,,,,,,,,,,FEW,4100,,,,,,,VFR,,,,,,,,,,,,METAR,1115.0
KALN 122050Z 07010G18KT 1SM -SN OVC006 00/00 A3003,KALN,2019-01-12T20:50:00Z,38.88,-90.03,0.0,0.0,70,10,18,1.0,30.029528,,,,,,,,,,-SN,OVC,600,,,,,,,IFR,,,,,,,,,,,,METAR,166.0
EETN 122050Z 28007KT 9999 FEW030 M02/M06 Q0992 R08/290195 NOSIG,EETN,2019-01-12T20:50:00Z,59.4,24.82,-2.0,-6.0,280,7,,6.21,29.291338,,,,,,TRUE,,,,,FEW,3000,,,,,,,VFR,,,,,,,,,,,,METAR,40.0
EKVG 122050Z AUTO 06001KT 1800NDV -SHRA BR BKN003/// 06/06 Q0994 RMK OVC001/// WIND SKEID 30009KT,EKVG,2019-01-12T20:50:00Z,62.07,-7.3,6.0,6.0,60,1,,,29.350393,,,TRUE,,,,,,,-SHRA BR,BKN,300,,,,,,,,,,,,,,,,,,,METAR,85.0
EYKA 122050Z 24005KT 210V270 9999 OVC006 M00/M01 Q0998 R08/29//95,EYKA,2019-01-12T20:50:00Z,54.97,24.08,0.0,-1.0,240,5,,6.21,29.468504,,,,,,,,,,,OVC,600,,,,,,,IFR,,,,,,,,,,,,METAR,77.0
EVRA 122050Z 22006KT 9999 OVC027 M01/M01 Q0996 R36/320195 NOSIG,EVRA,2019-01-12T20:50:00Z,56.92,23.97,-1.0,-1.0,220,6,,6.21,29.409449,,,,,,TRUE,,,,,OVC,2700,,,,,,,MVFR,,,,,,,,,,,,METAR,10.0
KSBD 122050Z 00000KT 7SM -RA BKN036 OVC050 12/08 A3000,KSBD,2019-01-12T20:50:00Z,34.08,-117.25,12.0,8.0,0,0,,7.0,30.0,,,,,,,,,,-RA,BKN,3600,OVC,5000,,,,,VFR,,,,,,,,,,,,METAR,353.0
TJBQ 122050Z 07016G19KT 10SM CLR 26/22 A3006,TJBQ,2019-01-12T20:50:00Z,18.5,-67.13,26.0,22.0,70,16,19,10.0,30.059055,,,,,,,,,,,CLR,,,,,,,,VFR,,,,,,,,,,,,METAR,72.0
KHXD 122050Z 05007KT 10SM OVC010 13/11 A3029,KHXD,2019-01-12T20:50:00Z,32.22,-80.7,13.0,11.0,50,7,,10.0,30.28937,,,,,,,,,,,OVC,1000,,,,,,,MVFR,,,,,,,,,,,,METAR,6.0
LATI 122050Z 16003KT CAVOK M03/M05 Q1013 NOSIG,LATI,2019-01-12T20:50:00Z,41.42,19.72,-3.0,-5.0,160,3,,6.21,29.911417,,,,,,TRUE,,,,,CAVOK,,,,,,,,VFR,,,,,,,,,,,,SPECI,90.0
KNQA 122050Z 14010KT 7SM OVC009 08/07 A2992,KNQA,2019-01-12T20:50:00Z,35.35,-89.87,8.0,7.0,140,10,,7.0,29.920275,,,,,,,,,,,OVC,900,,,,,,,IFR,,,,,,,,,,,,METAR,86.0
KHEQ 122050Z AUTO 03007KT 10SM CLR 06/00 A3018 RMK AO2,KHEQ,2019-01-12T20:50:00Z,40.57,-102.28,6.0,0.0,30,7,,10.0,30.180119,,,TRUE,TRUE,,,,,,,CLR,,,,,,,,VFR,,,,,,,,,,,,METAR,1137.0
KGPM 122050Z 29014G22KT 10SM OVC024 08/01 A3014,KGPM,2019-01-12T20:50:00Z,32.7,-97.05,8.0,1.0,290,14,22,10.0,30.138779,,,,,,,,,,,OVC,2400,,,,,,,MVFR,,,,,,,,,,,,METAR,180.0
KMWN 122050Z 31054G62KT 110SM BCFG BKN/// SCT000 M22/M25 RMK BCFG SCT000 TPS LWR BKN055 BCFG INTMT,KMWN,2019-01-12T20:50:00Z,44.27,-71.3,-22.0,-25.0,310,54,62,10.0,,,,,,,,,,,BCFG,SCT,0,,,,,,,VFR,,,,,,,,,,,,METAR,1910.0
KVQQ 122050Z 12007KT 10SM SCT050 BKN065 23/12 A3019,KVQQ,2019-01-12T20:50:00Z,30.22,-81.88,23.0,12.0,120,7,,10.0,30.188976,,,,,,,,,,,SCT,5000,BKN,6500,,,,,VFR,,,,,,,,,,,,METAR,25.0
KWDG 122050Z 34020G26KT 10SM OVC016 03/01 A3011,KWDG,2019-01-12T20:50:00Z,36.37,-97.77,3.0,1.0,340,20,26,10.0,30.109253,,,,,,,,,,,OVC,1600,,,,,,,MVFR,,,,,,,,,,,,METAR,356.0
EGXV 122050Z AUTO 28012KT 9999 FEW070/// BKN100/// BKN200/// 10/08 Q1013 RERA,EGXV,2019-01-12T20:50:00Z,53.87,-0.45,10.0,8.0,280,12,,6.21,29.911417,,,TRUE,,,,,,,,FEW,7000,BKN,10000,BKN,20000,,,VFR,,,,,,,,,,,,METAR,6.0
EGXC 122050Z 27009KT 9999 OVC020 10/08 Q1014 WHT,EGXC,2019-01-12T20:50:00Z,53.1,-0.17,10.0,8.0,270,9,,6.21,29.940945,,,,,,,,,,,OVC,2000,,,,,,,MVFR,,,,,,,,,,,,METAR,7.0
LOXZ 122050Z 02004KT 15KM FEW050SC BKN170AC M02/M05 Q1011,LOXZ,2019-01-12T20:50:00Z,47.2,14.75,-2.0,-5.0,20,4,,9.32,29.852362,,,,,,,,,,,,,,,,,,,,,,,,,,,,,,,METAR,682.0
LSMM 122050Z AUTO VRB02KT 6000NDV -SHRASN FEW025 BKN030 01/M01 Q1022 RMK,LSMM,2019-01-12T20:50:00Z,46.75,8.12,1.0,-1.0,0,2,,,30.177166,,,TRUE,,,,,,,-SHRA SN,FEW,2500,BKN,3000,,,,,,,,,,,,,,,,,METAR,577.0
LSME 122050Z AUTO 29004KT 260V330 9999NDV -RA FEW024 OVC028 04/M00 Q1022 RMK,LSME,2019-01-12T20:50:00Z,47.1,8.3,4.0,0.0,290,4,,,30.177166,,,TRUE,,,,,,,-RA,FEW,2400,OVC,2800,,,,,,,,,,,,,,,,,METAR,427.0
LSMD 122050Z AUTO 27008KT 230V320 9999NDV -RA FEW015 SCT018 OVC024 03/00 Q1021 RMK,LSMD,2019-01-12T20:50:00Z,47.4,8.65,3.0,0.0,270,8,,,30.147638,,,TRUE,,,,,,,-RA,FEW,1500,SCT,1800,OVC,2400,,,,,,,,,,,,,,,METAR,448.0
LSMA 122050Z AUTO 05007KT 9999NDV -SHRA BKN036 OVC051 03/00 Q1022 RMK,LSMA,2019-01-12T20:50:00Z,46.95,8.28,3.0,0.0,50,7,,,30.177166,,,TRUE,,,,,,,-SHRA,BKN,3600,OVC,5100,,,,,,,,,,,,,,,,,METAR,444.0
EDVE 122050Z 28012KT 9999 BKN013 BKN021 BKN025 06/03 Q1006,EDVE,2019-01-12T20:50:00Z,52.32,10.55,6.0,3.0,280,12,,6.21,29.704725,,,,,,,,,,,BKN,1300,BKN,2100,BKN,2500,,,MVFR,,,,,,,,,,,,METAR,88.0
ENSK 122050Z 35004KT 7000 -SHSN FEW010 SCT015 BKN020 M03/M03 Q0988,ENSK,2019-01-12T20:50:00Z,68.57,15.02,-3.0,-3.0,350,4,,4.35,29.17323,,,,,,,,,,-SHSN,FEW,1000,SCT,1500,BKN,2000,,,MVFR,,,,,,,,,,,,METAR,3.0
ENNA 122050Z AUTO 29022KT 9999 NCD M01/M05 Q0979 RMK WIND 1800FT 30025KT,ENNA,2019-01-12T20:50:00Z,70.07,24.97,-1.0,-5.0,290,22,,6.21,28.90748,,,TRUE,,,,,,,,CLR,,,,,,,,VFR,,,,,,,,,,,,METAR,8.0
ENML 122050Z AUTO 07005KT 9999NDV BKN049/// OVC060/// M01/M02 Q0993,ENML,2019-01-12T20:50:00Z,62.75,7.27,-1.0,-2.0,70,5,,,29.320866,,,TRUE,,,,,,,,BKN,4900,OVC,6000,,,,,,,,,,,,,,,,,METAR,3.0
ENKR 122050Z 33004KT 9999 FEW036 M02/M04 Q0975 RMK WIND 731FT 36011KT,ENKR,2019-01-12T20:50:00Z,69.72,29.88,-2.0,-4.0,330,4,,6.21,28.78937,,,,,,,,,,,FEW,3600,,,,,,,VFR,,,,,,,,,,,,METAR,91.0
ENKB 122050Z AUTO VRB03KT 9999 BKN048/// BKN064/// 00/M02 Q0992 RMK WIND 745FT 21004KT,ENKB,2019-01-12T20:50:00Z,63.12,7.82,0.0,-2.0,0,3,,6.21,29.291338,,,TRUE,,,,,,,,BKN,4800,BKN,6400,,,,,VFR,,,-0.4,,,,,,,,,METAR,62.0
ENFL 122050Z AUTO 13010KT 2700NDV -SHRA BR OVC006/// 03/02 Q0995,ENFL,2019-01-12T20:50:00Z,61.57,5.02,3.0,2.0,130,10,,,29.379921,,,TRUE,,,,,,,-SHRA BR,OVC,600,,,,,,,,,,,,,,,,,,,METAR,9.0
ENEV 122050Z AUTO VRB01KT 9999 FEW041/// OVC068/// M06/M06 Q0987 RMK WIND 1400FT 23005KT,ENEV,2019-01-12T20:50:00Z,68.52,16.67,-6.0,-6.0,0,1,,6.21,29.143702,,,TRUE,,,,,,,,FEW,4100,OVC,6800,,,,,VFR,,,,,,,,,,,,METAR,26.0
ELLX 122050Z 27010KT 9999 SCT005 BKN070 05/05 Q1015 NOSIG,ELLX,2019-01-12T20:50:00Z,49.63,6.2,5.0,5.0,270,10,,6.21,29.970472,,,,,,TRUE,,,,,SCT,500,BKN,7000,,,,,VFR,,,,,,,,,,,,METAR,379.0
EBOS 122050Z 28013KT 9999 BKN020 08/05 Q1017 NOSIG,EBOS,2019-01-12T20:50:00Z,51.2,2.87,8.0,5.0,280,13,,6.21,30.029528,,,,,,TRUE,,,,,BKN,2000,,,,,,,MVFR,,,,,,,,,,,,METAR,5.0
EBLG 122050Z 27011KT 9999 SCT009 BKN012 06/06 Q1015 TEMPO 5000 -SHRA,EBLG,2019-01-12T20:50:00Z,50.63,5.45,6.0,6.0,270,11,,6.21,29.970472,,,,,,,,,,,SCT,900,BKN,1200,,,,,MVFR,,,,,,,,,,,,METAR,178.0
EBCI 122050Z 26008KT 240V300 9999 FEW007 BKN009 07/06 Q1017 TEMPO 2500 -DZ BKN003,EBCI,2019-01-12T20:50:00Z,50.47,4.45,7.0,6.0,260,8,,6.21,30.029528,,,,,,,,,,,FEW,700,BKN,900,,,,,IFR,,,,,,,,,,,,METAR,192.0
EBBR 122050Z 27012KT 9999 FEW019 BKN033 08/06 Q1016 NOSIG,EBBR,2019-01-12T20:50:00Z,50.9,4.5,8.0,6.0,270,12,,6.21,30.0,,,,,,TRUE,,,,,FEW,1900,BKN,3300,,,,,VFR,,,,,,,,,,,,METAR,58.0
EBAW 122050Z 28012KT 9999 BKN019 09/06 Q1016 NOSIG,EBAW,2019-01-12T20:50:00Z,51.2,4.47,9.0,6.0,280,12,,6.21,30.0,,,,,,TRUE,,,,,BKN,1900,,,,,,,MVFR,,,,,,,,,,,,METAR,14.0
EDLV 122050Z 28010KT 9000 -RA BKN012 07/06 Q1013,EDLV,2019-01-12T20:50:00Z,51.6,6.15,7.0,6.0,280,10,,5.59,29.911417,,,,,,,,,,-RA,BKN,1200,,,,,,,MVFR,,,,,,,,,,,,METAR,32.0
EDFH 122050Z 28013G24KT 9000 -DZ BKN004 04/03 Q1013,EDFH,2019-01-12T20:50:00Z,49.95,7.27,4.0,3.0,280,13,24,5.59,29.911417,,,,,,,,,,-DZ,BKN,400,,,,,,,LIFR,,,,,,,,,,,,METAR,498.0
LGSR 122050Z AUTO 36017KT //// -RA ////// 12/08 Q1004 RE//,LGSR,2019-01-12T20:50:00Z,36.4,25.48,12.0,8.0,360,17,,,29.64567,,,TRUE,,,,,,,-RA,,,,,,,,,,,,,,,,,,,,,METAR,40.0
LGRX 122050Z 00000KT 9999 FEW011 SCT035 BKN080 07/03 Q1008,LGRX,2019-01-12T20:50:00Z,38.17,21.42,7.0,3.0,0,0,,6.21,29.763779,,,,,,,,,,,FEW,1100,SCT,3500,BKN,8000,,,VFR,,,,,,,,,,,,METAR,15.0
LGPZ 122050Z 01005KT 9999 FEW025 07/02 Q1010,LGPZ,2019-01-12T20:50:00Z,38.92,20.77,7.0,2.0,10,5,,6.21,29.822834,,,,,,,,,,,FEW,2500,,,,,,,VFR,,,,,,,,,,,,METAR,4.0
LGEL 122050Z 33008KT 9999 FEW012 BKN025 BKN070 06/02 Q1009,LGEL,2019-01-12T20:50:00Z,38.07,23.55,6.0,2.0,330,8,,6.21,29.793306,,,,,,,,,,,FEW,1200,BKN,2500,BKN,7000,,,MVFR,,,,,,,,,,,,METAR,31.0
ENHF 122050Z 01008KT 320V040 9999 SCT029 00/M04 Q0980 RMK WIND 1254FT 36023KT,ENHF,2019-01-12T20:50:00Z,70.67,23.67,0.0,-4.0,10,8,,6.21,28.937008,,,,,,,,,,,SCT,2900,,,,,,,VFR,,,,,,,,,,,,METAR,81.0
ENBN 122050Z AUTO 06003KT //// FEW023/// SCT030/// BKN038/// M01/M02 Q0991,ENBN,2019-01-12T20:50:00Z,65.47,12.22,-1.0,-2.0,60,3,,,29.26181,,,TRUE,,,,,,,,FEW,2300,SCT,3000,BKN,3800,,,,,,,,,,,,,,,METAR,9.0
LGSO 122050Z AUTO 36019KT 320V020 //// // ////// 11/08 Q1006 RE//,LGSO,2019-01-12T20:50:00Z,37.42,24.95,11.0,8.0,360,19,,,29.704725,,,TRUE,,,,,,,,,,,,,,,,,,,,,,,,,,,,METAR,72.0
LGPA 122050Z AUTO 10006KT 060V120 //// RA ////// 09/09 Q1007 RE//,LGPA,2019-01-12T20:50:00Z,37.0,25.13,9.0,9.0,100,6,,,29.734253,,,TRUE,,,,,,,RA,,,,,,,,,,,,,,,,,,,,,METAR,36.0
LGKP 122050Z AUTO 14016KT //// -RA ////// 15/10 Q1005 RE//,LGKP,2019-01-12T20:50:00Z,35.42,27.15,15.0,10.0,140,16,,,29.675198,,,TRUE,,,,,,,-RA,,,,,,,,,,,,,,,,,,,,,METAR,20.0
LGBL 122050Z 34008KT 9999 SCT025 BKN080 04/M01 Q1013,LGBL,2019-01-12T20:50:00Z,39.22,22.8,4.0,-1.0,340,8,,6.21,29.911417,,,,,,,,,,,SCT,2500,BKN,8000,,,,,VFR,,,,,,,,,,,,METAR,26.0
ENLK 122050Z 29011KT 1000 SHSN VV004 M02/M03 Q0989,ENLK,2019-01-12T20:50:00Z,68.15,13.62,-2.0,-3.0,290,11,,0.62,29.202755,,,,,,,,,,SHSN,OVX,0,,,,,,,LIFR,,,,,,,,,,,400,METAR,26.0
LGTS 122050Z 35011KT 9999 FEW018 02/M07 Q1014 NOSIG,LGTS,2019-01-12T20:50:00Z,40.52,22.97,2.0,-7.0,350,11,,6.21,29.940945,,,,,,TRUE,,,,,FEW,1800,,,,,,,VFR,,,,,,,,,,,,METAR,7.0
LGSA 122050Z 00000KT 9999 FEW016TCU SCT030 09/08 Q1004,LGSA,2019-01-12T20:50:00Z,35.53,24.13,9.0,8.0,0,0,,6.21,29.64567,,,,,,,,,,,FEW,1600,SCT,3000,,,,,VFR,,,,,,,,,,,,METAR,135.0
LGLM 122050Z AUTO 04014G24KT //// // ////// 06/03 Q1011 RE//,LGLM,2019-01-12T20:50:00Z,39.92,25.23,6.0,3.0,40,14,24,,29.852362,,,TRUE,,,,,,,,,,,,,,,,,,,,,,,,,,,,METAR,5.0
LGKO 122050Z 02017G31KT 330V050 9999 TS FEW018CB FEW020TCU BKN025 11/07 Q1005,LGKO,2019-01-12T20:50:00Z,36.8,27.08,11.0,7.0,20,17,31,6.21,29.675198,,,,,,,,,,TS,FEW,1800,FEW,2000,BKN,2500,,,MVFR,,,,,,,,,,,,METAR,125.0
LGAD 122050Z 35005KT 9999 FEW012 SCT025 BKN080 07/03 Q1008,LGAD,2019-01-12T20:50:00Z,37.92,21.27,7.0,3.0,350,5,,6.21,29.763779,,,,,,,,,,,FEW,1200,SCT,2500,BKN,8000,,,VFR,,,,,,,,,,,,METAR,12.0
ENUN 122050Z AUTO 02020KT 6000NDV -SN OVC017/// M01/M03 Q0990 W05/S/,ENUN,2019-01-12T20:50:00Z,,,-1.0,-3.0,20,20,,,29.232283,,,TRUE,,,,,,,-SN,OVC,1700,,,,,,,,,,,,,,,,,,,METAR,
ENSF 122050Z AUTO 28028KT //// BKN022/// BKN052/// 08/04 Q0995 W///S6,ENSF,2019-01-12T20:50:00Z,61.25,1.85,8.0,4.0,280,28,,,29.379921,,,TRUE,,,,,,,,BKN,2200,BKN,5200,,,,,,,,,,,,,,,,,METAR,10.0
ENFB 122050Z AUTO 27025KT 7000NDV -RA BKN010/// BKN085/// 07/06 Q0995 W///S6,ENFB,2019-01-12T20:50:00Z,61.2,1.83,7.0,6.0,270,25,,,29.379921,,,TRUE,,,,,,,-RA,BKN,1000,BKN,8500,,,,,,,,,,,,,,,,,METAR,10.0
ENSL 122050Z AUTO 30024KT 9999NDV -SHRA BKN012/// 07/05 Q1001 W06/S5,ENSL,2019-01-12T20:50:00Z,58.37,1.9,7.0,5.0,300,24,,,29.557087,,,TRUE,,,,,,,-SHRA,BKN,1200,,,,,,,,,,,,,,,,,,,METAR,50.0
ENOA 122050Z 27018KT 9999 FEW015 BKN120 07/05 Q0996 W///S6,ENOA,2019-01-12T20:50:00Z,60.5,2.83,7.0,5.0,270,18,,6.21,29.409449,,,,,,,,,,,FEW,1500,BKN,12000,,,,,VFR,,,,,,,,,,,,METAR,5.0
ENHE 122050Z 11018KT 9000 -SN BKN007 BKN035 01/M01 Q0989 W///S6,ENHE,2019-01-12T20:50:00Z,65.33,2.33,1.0,-1.0,110,18,,5.59,29.202755,,,,,,,,,,-SN,BKN,700,BKN,3500,,,,,IFR,,,,,,,,,,,,METAR,1.0
ENGC 122050Z 29020KT 9999 SCT020 BKN050 07/04 Q0995 W07/S5,ENGC,2019-01-12T20:50:00Z,61.02,2.02,7.0,4.0,290,20,,6.21,29.379921,,,,,,,,,,,SCT,2000,BKN,5000,,,,,VFR,,,,,,,,,,,,METAR,10.0
ENLE 122050Z 28029KT 9999 -SHRA FEW015TCU BKN025 07/06 Q1004 W08/S6,ENLE,2019-01-12T20:50:00Z,56.53,3.22,7.0,6.0,280,29,,6.21,29.64567,,,,,,,,,,-SHRA,FEW,1500,BKN,2500,,,,,MVFR,,,,,,,,,,,,METAR,3.0
ENWV 122050Z AUTO /////KT 7000NDV BKN019/// 07/06 Q1004 W///S5,ENWV,2019-01-12T20:50:00Z,,,7.0,6.0,,,,,29.64567,,,TRUE,,,,,,,,BKN,1900,,,,,,,,,,,,,,,,,,,METAR,
ENUG 122050Z AUTO 35018KT 9999NDV FEW030/// BKN180/// 01/M06 Q0980 W07/S6,ENUG,2019-01-12T20:50:00Z,,,1.0,-6.0,350,18,,,28.937008,,,TRUE,,,,,,,,FEW,3000,BKN,18000,,,,,,,,,,,,,,,,,METAR,
ENLA 122050Z AUTO 29024KT //// BKN016/// BKN035/// 08/06 Q//// W///S6,ENLA,2019-01-12T20:50:00Z,57.1,2.83,8.0,6.0,290,24,,,,,,TRUE,,,,,,,,BKN,1600,BKN,3500,,,,,,,,,,,,,,,,,METAR,4.0
ENHM 122050Z AUTO 27024KT 9999NDV FEW028/// BKN100/// BKN110/// 07/05 Q0998 W08/S6,ENHM,2019-01-12T20:50:00Z,59.57,2.23,7.0,5.0,270,24,,,29.468504,,,TRUE,,,,,,,,FEW,2800,BKN,10000,BKN,11000,,,,,,,,,,,,,,,METAR,10.0
ENQA 122050Z AUTO 30013KT 9999NDV BKN015/// 06/04 Q0996 W05/S6,ENQA,2019-01-12T20:50:00Z,60.65,3.72,6.0,4.0,300,13,,,29.409449,,,TRUE,,,,,,,,BKN,1500,,,,,,,,,,,,,,,,,,,METAR,20.0
ENQC 122050Z AUTO 25015KT 9999NDV BKN012/// 06/04 Q0995 W///S6,ENQC,2019-01-12T20:50:00Z,60.88,3.62,6.0,4.0,250,15,,,29.379921,,,TRUE,,,,,,,,BKN,1200,,,,,,,,,,,,,,,,,,,METAR,20.0
ENSE 122050Z AUTO 27021KT 9999NDV FEW021/// BKN033/// BKN086/// 07/04 Q0994 W///S6,ENSE,2019-01-12T20:50:00Z,61.45,2.15,7.0,4.0,270,21,,,29.350393,,,TRUE,,,,,,,,FEW,2100,BKN,3300,BKN,8600,,,,,,,,,,,,,,,METAR,10.0
ENQR 122050Z AUTO 26020KT 9999NDV BKN019/// 07/05 Q0993 W///S6,ENQR,2019-01-12T20:50:00Z,61.35,2.22,7.0,5.0,260,20,,,29.320866,,,TRUE,,,,,,,,BKN,1900,,,,,,,,,,,,,,,,,,,METAR,10.0
ENNE 122050Z AUTO 03007KT 9999NDV -PL BKN011/// BKN013/// 00/M02 Q0991 W///S5,ENNE,2019-01-12T20:50:00Z,66.03,8.08,0.0,-2.0,30,7,,,29.26181,,,TRUE,,,,,,,-PL,BKN,1100,BKN,1300,,,,,,,,,,,,,,,,,METAR,10.0
LOWK 122050Z 33004KT CAVOK M03/M07 Q1013 NOSIG,LOWK,2019-01-12T20:50:00Z,46.65,14.32,-3.0,-7.0,330,4,,6.21,29.911417,,,,,,TRUE,,,,,CAVOK,,,,,,,,VFR,,,,,,,,,,,,METAR,441.0
LOWG 122050Z AUTO VRB01KT 9999 SCT150 BKN160 M03/M05 Q1012 R17/19//95 NOSIG,LOWG,2019-01-12T20:50:00Z,47.0,15.42,-3.0,-5.0,0,1,,6.21,29.88189,,,TRUE,,,TRUE,,,,,SCT,15000,BKN,16000,,,,,VFR,,,,,,,,,,,,METAR,347.0
LOWI 122050Z 28005KT 8000 FEW005 BKN065 M02/M03 Q1016 R08/19//95 NOSIG,LOWI,2019-01-12T20:50:00Z,47.27,11.33,-2.0,-3.0,280,5,,4.97,30.0,,,,,,TRUE,,,,,FEW,500,BKN,6500,,,,,MVFR,,,,,,,,,,,,METAR,581.0
LOWS 122050Z VRB03KT 9999 -RASN FEW009 SCT015 BKN025 01/00 Q1015 R15/19//95 TEMPO 30012G22KT 4000 RASN BKN012,LOWS,2019-01-12T20:50:00Z,47.78,13.02,1.0,0.0,0,3,,6.21,29.970472,,,,,,,,,,-RA -SN,FEW,900,SCT,1500,BKN,2500,,,MVFR,,,,,,,,,,,,METAR,430.0
LOWL 122050Z 27014KT 9999 -RA FEW009 BKN012 BKN028 02/01 Q1014 R08/29//95 TEMPO 4000 RASN BKN012,LOWL,2019-01-12T20:50:00Z,48.22,14.18,2.0,1.0,270,14,,6.21,29.940945,,,,,,,,,,-RA,FEW,900,BKN,1200,BKN,2800,,,MVFR,,,,,,,,,,,,METAR,313.0
LOWW 122050Z 28020KT 9999 FEW028 SCT040 BKN070 05/M01 Q1011 NOSIG,LOWW,2019-01-12T20:50:00Z,48.12,16.57,5.0,-1.0,280,20,,6.21,29.852362,,,,,,TRUE,,,,,FEW,2800,SCT,4000,BKN,7000,,,VFR,,,,,,,,,,,,METAR,190.0
EFIV 122050Z 30016KT 270V330 9999 -SN BKN044 BKN073 M02/M06 Q0977,EFIV,2019-01-12T20:50:00Z,68.62,27.42,-2.0,-6.0,300,16,,6.21,28.848425,,,,,,,,,,-SN,BKN,4400,BKN,7300,,,,,VFR,,,,,,,,,,,,METAR,148.0
LCRA 122050Z 05013KT CAVOK 13/08 Q1008 NOSIG,LCRA,2019-01-12T20:50:00Z,34.57,32.97,13.0,8.0,50,13,,6.21,29.763779,,,,,,TRUE,,,,,CAVOK,,,,,,,,VFR,,,,,,,,,,,,METAR,23.0
KTRK 122050Z 00000KT 10SM SKC M01/M02 A3005,KTRK,2019-01-12T20:50:00Z,39.32,-120.12,-1.0,-2.0,0,0,,10.0,30.050198,,,,,,,,,,,SKC,,,,,,,,VFR,,,,,,,,,,,,METAR,1798.0
ESND 122050Z AUTO 00000KT 9999 OVC061/// M05/M06 Q0992,ESND,2019-01-12T20:50:00Z,62.05,14.42,-5.0,-6.0,0,0,,6.21,29.291338,,,TRUE,,,,,,,,OVC,6100,,,,,,,VFR,,,,,,,,,,,,METAR,359.0
ESUP 122050Z AUTO 28007KT 9999 NCD M07/M10 Q0984,ESUP,2019-01-12T20:50:00Z,67.25,23.07,-7.0,-10.0,280,7,,6.21,29.055119,,,TRUE,,,,,,,,CLR,,,,,,,,VFR,,,,,,,,,,,,METAR,165.0
ESST 122050Z AUTO 33004KT 9999 NCD M10/M11 Q0996,ESST,2019-01-12T20:50:00Z,60.15,12.98,-10.0,-11.0,330,4,,6.21,29.409449,,,TRUE,,,,,,,,CLR,,,,,,,,VFR,,,,,,,,,,,,METAR,120.0
ESNV 122050Z AUTO 00000KT 9999 R10///// R28///// // NCD M11/M13 Q0990,ESNV,2019-01-12T20:50:00Z,64.58,16.83,-11.0,-13.0,0,0,,6.21,29.232283,,,TRUE,,,,,,,,CLR,,,,,,,,VFR,,,,,,,,,,,,METAR,348.0
ESKM 122050Z AUTO 24005KT 9999 OVC070/// M03/M07 Q0994,ESKM,2019-01-12T20:50:00Z,60.97,14.52,-3.0,-7.0,240,5,,6.21,29.350393,,,TRUE,,,,,,,,OVC,7000,,,,,,,VFR,,,,,,,,,,,,METAR,193.0
ESGR 122050Z AUTO VRB02KT 2200 BR OVC003/// M02/M02 Q0995,ESGR,2019-01-12T20:50:00Z,58.45,13.97,-2.0,-2.0,0,2,,1.37,29.379921,,,TRUE,,,,,,,BR,OVC,300,,,,,,,LIFR,,,,,,,,,,,,METAR,105.0
EGPE 122050Z 24017KT 9999 FEW010 BKN026 11/08 Q1007,EGPE,2019-01-12T20:50:00Z,57.52,-4.03,11.0,8.0,240,17,,6.21,29.734253,,,,,,,,,,,FEW,1000,BKN,2600,,,,,MVFR,,,,,,,,,,,,METAR,9.0
EGNJ 122050Z 27012KT 9999 BKN017 10/08 Q1014,EGNJ,2019-01-12T20:50:00Z,53.57,-0.35,10.0,8.0,270,12,,6.21,29.940945,,,,,,,,,,,BKN,1700,,,,,,,MVFR,,,,,,,,,,,,METAR,31.0
EGNH 122050Z 27023KT 8000 SCT035 10/08 Q1018,EGNH,2019-01-12T20:50:00Z,53.77,-3.02,10.0,8.0,270,23,,4.97,30.059055,,,,,,,,,,,SCT,3500,,,,,,,MVFR,,,,,,,,,,,,METAR,10.0
ESNZ 122050Z AUTO 23004KT 9999 -SN FEW019/// BKN030/// M03/M03 Q0991,ESNZ,2019-01-12T20:50:00Z,63.17,14.5,-3.0,-3.0,230,4,,6.21,29.26181,,,TRUE,,,,,,,-SN,FEW,1900,BKN,3000,,,,,MVFR,,,,,,,,,,,,METAR,370.0
ESNU 122050Z VRB02KT CAVOK M08/M10 Q0990 R14/71//65,ESNU,2019-01-12T20:50:00Z,63.78,20.27,-8.0,-10.0,0,2,,6.21,29.232283,,,,,,,,,,,CAVOK,,,,,,,,VFR,,,,,,,,,,,,METAR,14.0
ESNS 122050Z AUTO 25006KT 9999 NCD M07/M10 Q0989,ESNS,2019-01-12T20:50:00Z,64.62,21.07,-7.0,-10.0,250,6,,6.21,29.202755,,,TRUE,,,,,,,,CLR,,,,,,,,VFR,,,,,,,,,,,,METAR,49.0
ESNQ 122050Z AUTO 30003KT 260V350 9999 BKN150/// M06/M11 Q0982,ESNQ,2019-01-12T20:50:00Z,67.82,20.32,-6.0,-11.0,300,3,,6.21,28.996063,,,TRUE,,,,,,,,BKN,15000,,,,,,,VFR,,,,,,,,,,,,METAR,452.0
ESNO 122050Z AUTO 26002KT 9999 NCD M07/M10 Q0991,ESNO,2019-01-12T20:50:00Z,63.38,18.97,-7.0,-10.0,260,2,,6.21,29.26181,,,TRUE,,,,,,,,CLR,,,,,,,,VFR,,,,,,,,,,,,METAR,103.0
ESNN 122050Z AUTO 25002KT 9999 NCD M05/M06 Q0993,ESNN,2019-01-12T20:50:00Z,62.52,17.43,-5.0,-6.0,250,2,,6.21,29.320866,,,TRUE,,,,,,,,CLR,,,,,,,,VFR,,,,,,,,,,,,METAR,10.0
ESNK 122050Z AUTO 00000KT 9999 NCD M08/M09 Q0993,ESNK,2019-01-12T20:50:00Z,63.03,17.77,-8.0,-9.0,0,0,,6.21,29.320866,,,TRUE,,,,,,,,CLR,,,,,,,,VFR,,,,,,,,,,,,METAR,19.0
ESNG 122050Z AUTO 30012KT 9999 NCD M05/M11 Q0984,ESNG,2019-01-12T20:50:00Z,67.13,20.82,-5.0,-11.0,300,12,,6.21,29.055119,,,TRUE,,,,,,,,CLR,,,,,,,,VFR,,,,,,,,,,,,METAR,310.0
ESSV 122050Z AUTO 18003KT 9999 BKN080/// M01/M02 Q0995,ESSV,2019-01-12T20:50:00Z,57.67,18.35,-1.0,-2.0,180,3,,6.21,29.379921,,,TRUE,,,,,,,,BKN,8000,,,,,,,VFR,,,,,,,,,,,,METAR,47.0
ESSP 122050Z AUTO 00000KT 9999 NCD M05/M05 Q0995,ESSP,2019-01-12T20:50:00Z,58.57,16.25,-5.0,-5.0,0,0,,6.21,29.379921,,,TRUE,,,,,,,,CLR,,,,,,,,VFR,,,,,,,,,,,,METAR,8.0
ESSD 122050Z AUTO 26004KT 9999 NCD M07/M07 Q0994,ESSD,2019-01-12T20:50:00Z,60.42,15.5,-7.0,-7.0,260,4,,6.21,29.350393,,,TRUE,,,,,,,,CLR,,,,,,,,VFR,,,,,,,,,,,,METAR,161.0
ESSB 122050Z AUTO 00000KT 9999 OVC100/// M02/M04 Q0995,ESSB,2019-01-12T20:50:00Z,59.35,17.93,-2.0,-4.0,0,0,,6.21,29.379921,,,TRUE,,,,,,,,OVC,10000,,,,,,,VFR,,,,,,,,,,,,METAR,11.0
ESSA 122050Z 25002KT CAVOK M03/M05 Q0994 R01L/19//95 R08/19//95 R01R/19//95 NOSIG,ESSA,2019-01-12T20:50:00Z,59.63,17.93,-3.0,-5.0,250,2,,6.21,29.350393,,,,,,TRUE,,,,,CAVOK,,,,,,,,VFR,,,,,,,,,,,,METAR,61.0
ESOW 122050Z AUTO 00000KT 9999 NCD M06/M07 Q0995,ESOW,2019-01-12T20:50:00Z,59.57,16.62,-6.0,-7.0,0,0,,6.21,29.379921,,,TRUE,,,,,,,,CLR,,,,,,,,VFR,,,,,,,,,,,,METAR,31.0
ESOK 122050Z AUTO 00000KT 0200 R03/P1500N R21/0700N FZFG NCD M07/M07 Q0995,ESOK,2019-01-12T20:50:00Z,59.45,13.33,-7.0,-7.0,0,0,,0.12,29.379921,,,TRUE,,,,,,,FZFG,CLR,,,,,,,,LIFR,,,,,,,,,,,,METAR,107.0
ESKN 122050Z 27003KT CAVOK M03/M04 Q0995 R26/710195,ESKN,2019-01-12T20:50:00Z,58.78,16.9,-3.0,-4.0,270,3,,6.21,29.379921,,,,,,,,,,,CAVOK,,,,,,,,VFR,,,,,,,,,,,,METAR,43.0
EGPO 122050Z AUTO 27022KT 3800 RA SCT007/// BKN011/// 10/09 Q1007 RERA,EGPO,2019-01-12T20:50:00Z,58.22,-6.32,10.0,9.0,270,22,,2.36,29.734253,,,TRUE,,,,,,,RA,SCT,700,BKN,1100,,,,,IFR,,,,,,,,,,,,METAR,13.0
EGPM 122050Z AUTO 26014KT 9999 -RA SCT012/// OVC024/// 08/06 Q0997,EGPM,2019-01-12T20:50:00Z,60.42,-1.3,8.0,6.0,260,14,,6.21,29.438976,,,TRUE,,,,,,,-RA,SCT,1200,OVC,2400,,,,,MVFR,,,,,,,,,,,,METAR,22.0
EGPL 122050Z AUTO 26025KT 5000 HZ OVC009/// 10/09 Q1011,EGPL,2019-01-12T20:50:00Z,57.47,-7.37,10.0,9.0,260,25,,3.11,29.852362,,,TRUE,,,,,,,HZ,OVC,900,,,,,,,IFR,,,,,,,,,,,,METAR,6.0
EGPA 122050Z AUTO 28021KT 6000 -RA BKN004/// OVC011/// 09/09 Q1001 RERA,EGPA,2019-01-12T20:50:00Z,58.95,-2.88,9.0,9.0,280,21,,3.73,29.557087,,,TRUE,,,,,,,-RA,BKN,400,OVC,1100,,,,,LIFR,,,,,,,,,,,,METAR,21.0
EGTK 122050Z 28015KT 9999 SCT039 10/07 Q1019,EGTK,2019-01-12T20:50:00Z,51.83,-1.32,10.0,7.0,280,15,,6.21,30.088583,,,,,,,,,,,SCT,3900,,,,,,,VFR,,,,,,,,,,,,METAR,82.0
EGMD 122050Z AUTO 27010KT 9999 -RA BKN021/// OVC026/// 09/06 Q1019,EGMD,2019-01-12T20:50:00Z,50.95,0.92,9.0,6.0,270,10,,6.21,30.088583,,,TRUE,,,,,,,-RA,BKN,2100,OVC,2600,,,,,MVFR,,,,,,,,,,,,METAR,3.0
EGMC 122050Z 26014KT 9999 FEW015 BKN023 08/04 Q1017,EGMC,2019-01-12T20:50:00Z,51.57,0.7,8.0,4.0,260,14,,6.21,30.029528,,,,,,,,,,,FEW,1500,BKN,2300,,,,,MVFR,,,,,,,,,,,,METAR,15.0
EGKB 122050Z 27011KT 230V300 9999 -RA BKN021 08/06 Q1019,EGKB,2019-01-12T20:50:00Z,51.32,0.02,8.0,6.0,270,11,,6.21,30.088583,,,,,,,,,,-RA,BKN,2100,,,,,,,MVFR,,,,,,,,,,,,METAR,183.0
EGSH 122050Z 26011KT 9999 -RADZ BKN009 08/07 Q1014 TEMPO BKN010,EGSH,2019-01-12T20:50:00Z,52.68,1.28,8.0,7.0,260,11,,6.21,29.940945,,,,,,,,,,-RA -DZ,BKN,900,,,,,,,IFR,,,,,,,,,,,,METAR,36.0
ESCM 122050Z AUTO 00000KT 9999 BKN150/// M04/M06 Q0995,ESCM,2019-01-12T20:50:00Z,59.87,17.6,-4.0,-6.0,0,0,,6.21,29.379921,,,TRUE,,,,,,,,BKN,15000,,,,,,,VFR,,,,,,,,,,,,METAR,41.0
ESIA 122050Z AUTO 00000KT 9999 FEW009/// M02/M04 Q0995,ESIA,2019-01-12T20:50:00Z,58.52,14.5,-2.0,-4.0,0,0,,6.21,29.379921,,,TRUE,,,,,,,,FEW,900,,,,,,,VFR,,,,,,,,,,,,METAR,94.0
ESSL 122050Z AUTO 00000KT 9999 BKN074/// M03/M03 Q0995,ESSL,2019-01-12T20:50:00Z,58.38,15.67,-3.0,-3.0,0,0,,6.21,29.379921,,,TRUE,,,,,,,,BKN,7400,,,,,,,VFR,,,,,,,,,,,,METAR,52.0
ESPE 122050Z AUTO 26004KT 240V300 9999 NCD M05/M10 Q0987,ESPE,2019-01-12T20:50:00Z,65.88,20.15,-5.0,-10.0,260,4,,6.21,29.143702,,,TRUE,,,,,,,,CLR,,,,,,,,VFR,,,,,,,,,,,,METAR,182.0
ESPA 122050Z AUTO 31005KT 9999 NCD M04/M10 Q0987,ESPA,2019-01-12T20:50:00Z,65.53,22.12,-4.0,-10.0,310,5,,6.21,29.143702,,,TRUE,,,,,,,,CLR,,,,,,,,VFR,,,,,,,,,,,,METAR,34.0
ESIB 122050Z AUTO VRB02KT 6000 BR OVC004/// M01/M01 Q0996,ESIB,2019-01-12T20:50:00Z,58.42,12.68,-1.0,-1.0,0,2,,3.73,29.409449,,,TRUE,,,,,,,BR,OVC,400,,,,,,,LIFR,,,,,,,,,,,,METAR,74.0
ESDF 122050Z AUTO 02002KT 0400 R01/1400N R19/1100D FG OVC001/// 02/02 Q0995,ESDF,2019-01-12T20:50:00Z,56.27,15.27,2.0,2.0,20,2,,0.25,29.379921,,,TRUE,,,,,,,FG,OVC,100,,,,,,,LIFR,,,,,,,,,,,,METAR,74.0
ESCF 122050Z AUTO 04001KT 9999 BR BKN076/// M04/M04 Q0995,ESCF,2019-01-12T20:50:00Z,58.38,15.52,-4.0,-4.0,40,1,,6.21,29.379921,,,TRUE,,,,,,,BR,BKN,7600,,,,,,,VFR,,,,,,,,,,,,METAR,117.0
EGCN 122050Z 29021G31KT 9999 SCT018 12/08 Q1016,EGCN,2019-01-12T20:50:00Z,53.48,-1.0,12.0,8.0,290,21,31,6.21,30.0,,,,,,,,,,,SCT,1800,,,,,,,VFR,,,,,,,,,,,,METAR,17.0
EGCK 122050Z AUTO 28016KT 9999 OVC023/// 10/08 Q1023,EGCK,2019-01-12T20:50:00Z,53.1,4.33,10.0,8.0,280,16,,6.21,30.206694,,,TRUE,,,,,,,,OVC,2300,,,,,,,MVFR,,,,,,,,,,,,METAR,0.0
EGPB 122050Z AUTO 27018KT 8000 -RA BKN012/// 08/07 Q0999,EGPB,2019-01-12T20:50:00Z,59.87,-1.3,8.0,7.0,270,18,,4.97,29.498032,,,TRUE,,,,,,,-RA,BKN,1200,,,,,,,MVFR,,,,,,,,,,,,METAR,5.0
EGNV 122050Z 27013KT 9999 FEW022 11/08 Q1013,EGNV,2019-01-12T20:50:00Z,54.52,-1.42,11.0,8.0,270,13,,6.21,29.911417,,,,,,,,,,,FEW,2200,,,,,,,VFR,,,,,,,,,,,,METAR,37.0
EGNT 122050Z 27022KT 9999 SCT010 10/08 Q1011,EGNT,2019-01-12T20:50:00Z,55.02,-1.7,10.0,8.0,270,22,,6.21,29.852362,,,,,,,,,,,SCT,1000,,,,,,,VFR,,,,,,,,,,,,METAR,81.0
EGNS 122050Z 28023G34KT 250V330 9999 FEW014 BKN021 11/08 Q1019,EGNS,2019-01-12T20:50:00Z,54.08,-4.63,11.0,8.0,280,23,34,6.21,30.088583,,,,,,,,,,,FEW,1400,BKN,2100,,,,,MVFR,,,,,,,,,,,,METAR,17.0
EGHI 122050Z 28008KT 230V310 9999 SCT020 09/06 Q1022,EGHI,2019-01-12T20:50:00Z,50.95,-1.35,9.0,6.0,280,8,,6.21,30.177166,,,,,,,,,,,SCT,2000,,,,,,,VFR,,,,,,,,,,,,METAR,14.0
EGGP 122050Z 28024KT 9999 SCT014 SCT030 10/08 Q1019,EGGP,2019-01-12T20:50:00Z,53.32,-2.85,10.0,8.0,280,24,,6.21,30.088583,,,,,,,,,,,SCT,1400,SCT,3000,,,,,VFR,,,,,,,,,,,,METAR,26.0
EGGD 122050Z AUTO 28014KT 9999 SCT019 08/08 Q1022,EGGD,2019-01-12T20:50:00Z,51.37,-2.72,8.0,8.0,280,14,,6.21,30.177166,,,TRUE,,,,,,,,SCT,1900,,,,,,,VFR,,,,,,,,,,,,METAR,189.0
EGJJ 122050Z AUTO 29012KT 9999 BKN013/// OVC016/// 10/08 Q1025,EGJJ,2019-01-12T20:50:00Z,49.22,-2.2,10.0,8.0,290,12,,6.21,30.265747,,,TRUE,,,,,,,,BKN,1300,OVC,1600,,,,,MVFR,,,,,,,,,,,,METAR,84.0
EGJB 122050Z 30016KT 9999 BKN014 10/08 Q1026,EGJB,2019-01-12T20:50:00Z,49.42,-2.6,10.0,8.0,300,16,,6.21,30.295275,,,,,,,,,,,BKN,1400,,,,,,,MVFR,,,,,,,,,,,,METAR,102.0
EGLL 122050Z AUTO 28014KT 9999 -RA SCT028 09/06 Q1019 NOSIG,EGLL,2019-01-12T20:50:00Z,51.48,-0.45,9.0,6.0,280,14,,6.21,30.088583,,,TRUE,,,TRUE,,,,-RA,SCT,2800,,,,,,,VFR,,,,,,,,,,,,METAR,24.0
EGCC 122050Z AUTO 29012KT 9999 BKN015 OVC023 10/07 Q1019 TEMPO BKN014,EGCC,2019-01-12T20:50:00Z,53.35,-2.27,10.0,7.0,290,12,,6.21,30.088583,,,TRUE,,,,,,,,BKN,1500,OVC,2300,,,,,MVFR,,,,,,,,,,,,METAR,78.0
EGSS 122050Z AUTO 27009KT 9999 OVC015 09/06 Q1017,EGSS,2019-01-12T20:50:00Z,51.88,0.22,9.0,6.0,270,9,,6.21,30.029528,,,TRUE,,,,,,,,OVC,1500,,,,,,,MVFR,,,,,,,,,,,,METAR,106.0
EGPK 122050Z 27024KT 8000 -RA FEW005 SCT010 BKN020 10/09 Q1015,EGPK,2019-01-12T20:50:00Z,55.5,-4.57,10.0,9.0,270,24,,4.97,29.970472,,,,,,,,,,-RA,FEW,500,SCT,1000,BKN,2000,,,MVFR,,,,,,,,,,,,METAR,20.0
EGPH 122050Z 25016KT 9999 BKN012 BKN024 10/09 Q1011,EGPH,2019-01-12T20:50:00Z,55.95,-3.35,10.0,9.0,250,16,,6.21,29.852362,,,,,,,,,,,BKN,1200,BKN,2400,,,,,MVFR,,,,,,,,,,,,METAR,41.0
EGPF 122050Z AUTO 26015KT 8000 -RA OVC015 11/09 Q1013,EGPF,2019-01-12T20:50:00Z,55.87,-4.42,11.0,9.0,260,15,,4.97,29.911417,,,TRUE,,,,,,,-RA,OVC,1500,,,,,,,MVFR,,,,,,,,,,,,METAR,8.0
EGKK 122050Z 26011KT 9999 -RA SCT019 SCT030 08/07 Q1020,EGKK,2019-01-12T20:50:00Z,51.13,-0.17,8.0,7.0,260,11,,6.21,30.11811,,,,,,,,,,-RA,SCT,1900,SCT,3000,,,,,VFR,,,,,,,,,,,,METAR,62.0
EGBB 122050Z 29010KT 9999 BKN029 10/07 Q1019,EGBB,2019-01-12T20:50:00Z,52.47,-1.75,10.0,7.0,290,10,,6.21,30.088583,,,,,,,,,,,BKN,2900,,,,,,,MVFR,,,,,,,,,,,,METAR,99.0
EGPD 122050Z AUTO 28011KT 9999 BKN026 11/07 Q1006 NOSIG,EGPD,2019-01-12T20:50:00Z,57.2,-2.22,11.0,7.0,280,11,,6.21,29.704725,,,TRUE,,,TRUE,,,,,BKN,2600,,,,,,,MVFR,,,,,,,,,,,,METAR,65.0
PTKK 122050Z 04012KT 15SM SCT012CB BKN120 OVC280 27/25 A2972 RMK CB ALQDS MOV SW SLP066 60000 8/378 T02720251 52012,PTKK,2019-01-12T20:50:00Z,7.47,151.85,27.2,25.1,40,12,,15.0,29.719488,1006.6,,,,,,,,,,SCT,1200,BKN,12000,OVC,28000,,,VFR,1.2,,,,,,0.005,,,,,METAR,2.0
EGNX 122050Z 29014KT 260V320 9999 BKN018 10/08 Q1017,EGNX,2019-01-12T20:50:00Z,52.82,-1.32,10.0,8.0,290,14,,6.21,30.029528,,,,,,,,,,,BKN,1800,,,,,,,MVFR,,,,,,,,,,,,METAR,94.0
EGNM 122050Z 28021G34KT 9999 FEW008 BKN010 09/08 Q1015,EGNM,2019-01-12T20:50:00Z,53.87,-1.63,9.0,8.0,280,21,34,6.21,29.970472,,,,,,,,,,,FEW,800,BKN,1000,,,,,MVFR,,,,,,,,,,,,METAR,208.0
EGLC 122050Z AUTO 26012KT 9999 -RA BKN021 OVC025 10/06 Q1019,EGLC,2019-01-12T20:50:00Z,51.5,0.05,10.0,6.0,260,12,,6.21,30.088583,,,TRUE,,,,,,,-RA,BKN,2100,OVC,2500,,,,,MVFR,,,,,,,,,,,,METAR,5.0
EGGW 122050Z AUTO 29019KT 9999 -RA OVC016 09/07 Q1018,EGGW,2019-01-12T20:50:00Z,51.87,-0.37,9.0,7.0,290,19,,6.21,30.059055,,,TRUE,,,,,,,-RA,OVC,1600,,,,,,,MVFR,,,,,,,,,,,,METAR,160.0
EGFF 122050Z AUTO 30018KT 9999 SCT008 BKN013 OVC021 10/09 Q1023,EGFF,2019-01-12T20:50:00Z,51.38,-3.35,10.0,9.0,300,18,,6.21,30.206694,,,TRUE,,,,,,,,SCT,800,BKN,1300,OVC,2100,,,MVFR,,,,,,,,,,,,METAR,67.0
EGAC 122050Z AUTO 25013KT 9999 BKN020/// 11/09 Q1018,EGAC,2019-01-12T20:50:00Z,54.62,-5.87,11.0,9.0,250,13,,6.21,30.059055,,,TRUE,,,,,,,,BKN,2000,,,,,,,MVFR,,,,,,,,,,,,METAR,5.0
EGAA 122050Z 24015KT 9999 BKN014 10/08 Q1019,EGAA,2019-01-12T20:50:00Z,54.63,-6.22,10.0,8.0,240,15,,6.21,30.088583,,,,,,,,,,,BKN,1400,,,,,,,MVFR,,,,,,,,,,,,METAR,81.0
KSUN 122050Z 31008KT 10SM SKC 01/M11 A3019,KSUN,2019-01-12T20:50:00Z,43.5,-114.28,1.0,-11.0,310,8,,10.0,30.188976,,,,,,,,,,,SKC,,,,,,,,VFR,,,,,,,,,,,,METAR,1620.0
LGKR 122050Z 27003KT CAVOK 05/02 Q1009 NOSIG,LGKR,2019-01-12T20:50:00Z,39.62,19.92,5.0,2.0,270,3,,6.21,29.793306,,,,,,TRUE,,,,,CAVOK,,,,,,,,VFR,,,,,,,,,,,,METAR,2.0
LGIR 122050Z 31016KT 8000 -TSRA FEW010 SCT018CB BKN025 12/10 Q1004 RETS TEMPO TSRA,LGIR,2019-01-12T20:50:00Z,35.32,25.17,12.0,10.0,310,16,,4.97,29.64567,,,,,,,,,,-TSRA,FEW,1000,SCT,1800,BKN,2500,,,MVFR,,,,,,,,,,,,METAR,39.0
LGAV 122050Z 01011KT 9999 BKN040 08/02 Q1009 NOSIG,LGAV,2019-01-12T20:50:00Z,37.93,23.95,8.0,2.0,10,11,,6.21,29.793306,,,,,,TRUE,,,,,BKN,4000,,,,,,,VFR,,,,,,,,,,,,METAR,94.0
EGVN 122050Z 29014KT 9999 BKN040 10/07 Q1020 NOSIG,EGVN,2019-01-12T20:50:00Z,51.77,-1.58,10.0,7.0,290,14,,6.21,30.11811,,,,,,TRUE,,,,,BKN,4000,,,,,,,VFR,,,,,,,,,,,,METAR,88.0
K1V6 122050Z AUTO 13004KT 10SM SCT017 SCT055 SCT070 04/00 A3016 RMK AO2,K1V6,2019-01-12T20:50:00Z,38.43,-105.1,4.0,0.0,130,4,,10.0,30.159449,,,TRUE,TRUE,,,,,,,SCT,1700,SCT,5500,SCT,7000,,,VFR,,,,,,,,,,,,METAR,1658.0
KOQU 122050Z 33014KT 15SM FEW200 M02/M17 A3044,KOQU,2019-01-12T20:50:00Z,41.6,-71.42,-2.0,-17.0,330,14,,15.0,30.43996,,,,,,,,,,,FEW,20000,,,,,,,VFR,,,,,,,,,,,,METAR,6.0
LICC 122050Z 35005KT CAVOK 05/01 Q1016,LICC,2019-01-12T20:50:00Z,37.47,15.05,5.0,1.0,350,5,,6.21,30.0,,,,,,,,,,,CAVOK,,,,,,,,VFR,,,,,,,,,,,,METAR,17.0
LIBR 122050Z 35014KT CAVOK 10/00 Q1013,LIBR,2019-01-12T20:50:00Z,40.65,17.95,10.0,0.0,350,14,,6.21,29.911417,,,,,,,,,,,CAVOK,,,,,,,,VFR,,,,,,,,,,,,METAR,10.0
LIBD 122050Z 29009KT 9999 FEW045 04/00 Q1015,LIBD,2019-01-12T20:50:00Z,41.12,16.77,4.0,0.0,290,9,,6.21,29.970472,,,,,,,,,,,FEW,4500,,,,,,,VFR,,,,,,,,,,,,METAR,44.0
LICJ 122050Z 36012KT 9999 SCT030 10/03 Q1019,LICJ,2019-01-12T20:50:00Z,38.17,13.08,10.0,3.0,360,12,,6.21,30.088583,,,,,,,,,,,SCT,3000,,,,,,,VFR,,,,,,,,,,,,METAR,34.0
EGYP 122050Z 26027G37KT 9000 VCSH FEW010 SCT015CB BKN032 08/05 Q0990 RESHRA WHT,EGYP,2019-01-12T20:50:00Z,-51.82,-58.45,8.0,5.0,260,27,37,5.59,29.232283,,,,,,,,,,VCSH,FEW,1000,SCT,1500,BKN,3200,,,VFR,,,,,,,,,,,,METAR,74.0
EGQS 122050Z 25019KT 9999 BKN030 BKN070 11/08 Q1005 BLU,EGQS,2019-01-12T20:50:00Z,57.72,-3.32,11.0,8.0,250,19,,6.21,29.675198,,,,,,,,,,,BKN,3000,BKN,7000,,,,,MVFR,,,,,,,,,,,,METAR,13.0
EGQM 122050Z AUTO 26021KT 9999 OVC100/// 12/08 Q1009,EGQM,2019-01-12T20:50:00Z,55.42,-1.6,12.0,8.0,260,21,,6.21,29.793306,,,TRUE,,,,,,,,OVC,10000,,,,,,,VFR,,,,,,,,,,,,METAR,23.0
EGQL 122050Z 27016KT 9999 OVC038 11/08 Q1008 BLU,EGQL,2019-01-12T20:50:00Z,56.38,-2.87,11.0,8.0,270,16,,6.21,29.763779,,,,,,,,,,,OVC,3800,,,,,,,VFR,,,,,,,,,,,,METAR,12.0
LXGB 122050Z AUTO 08020KT 9999 // NCD 14/05 Q1028,LXGB,2019-01-12T20:50:00Z,36.13,-5.33,14.0,5.0,80,20,,6.21,30.35433,,,TRUE,,,,,,,,CLR,,,,,,,,VFR,,,,,,,,,,,,METAR,5.0
EGPU 122050Z AUTO 27024KT 240V300 6000 FEW013/// 10/08 Q1014,EGPU,2019-01-12T20:50:00Z,56.5,-6.87,10.0,8.0,270,24,,3.73,29.940945,,,TRUE,,,,,,,,FEW,1300,,,,,,,MVFR,,,,,,,,,,,,METAR,12.0
EGPI 122050Z AUTO 28023KT 7000 BKN011/// 10/09 Q1016,EGPI,2019-01-12T20:50:00Z,55.68,-6.25,10.0,9.0,280,23,,4.35,30.0,,,TRUE,,,,,,,,BKN,1100,,,,,,,MVFR,,,,,,,,,,,,METAR,18.0
LICR 122050Z 01009KT 9999 FEW050 07/M02 Q1016,LICR,2019-01-12T20:50:00Z,38.07,15.65,7.0,-2.0,10,9,,6.21,30.0,,,,,,,,,,,FEW,5000,,,,,,,VFR,,,,,,,,,,,,METAR,21.0
LICD 122050Z 33016KT 9999 BKN025 10/04 Q1019,LICD,2019-01-12T20:50:00Z,35.5,12.62,10.0,4.0,330,16,,6.21,30.088583,,,,,,,,,,,BKN,2500,,,,,,,MVFR,,,,,,,,,,,,METAR,20.0
LICB 122050Z 11003KT CAVOK 03/00 Q1017,LICB,2019-01-12T20:50:00Z,37.0,14.62,3.0,0.0,110,3,,6.21,30.029528,,,,,,,,,,,CAVOK,,,,,,,,VFR,,,,,,,,,,,,METAR,220.0
LICA 122050Z 09004KT 020V120 9999 FEW030 00/M02 Q1016,LICA,2019-01-12T20:50:00Z,38.88,16.25,0.0,-2.0,90,4,,6.21,30.0,,,,,,,,,,,FEW,3000,,,,,,,VFR,,,,,,,,,,,,METAR,15.0
LIRZ 122050Z VRB01KT CAVOK M02/M05 Q1018,LIRZ,2019-01-12T20:50:00Z,43.1,12.5,-2.0,-5.0,0,1,,6.21,30.059055,,,,,,,,,,,CAVOK,,,,,,,,VFR,,,,,,,,,,,,METAR,205.0
LIBP 122050Z 25005KT CAVOK 01/M02 Q1017,LIBP,2019-01-12T20:50:00Z,42.42,14.18,1.0,-2.0,250,5,,6.21,30.029528,,,,,,,,,,,CAVOK,,,,,,,,VFR,,,,,,,,,,,,METAR,11.0
LIPY 122050Z 18004KT CAVOK 01/M03 Q1015,LIPY,2019-01-12T20:50:00Z,43.62,13.37,1.0,-3.0,180,4,,6.21,29.970472,,,,,,,,,,,CAVOK,,,,,,,,VFR,,,,,,,,,,,,METAR,10.0
LIPO 122050Z 04005KT CAVOK M01/M02 Q1014,LIPO,2019-01-12T20:50:00Z,45.42,10.33,-1.0,-2.0,40,5,,6.21,29.940945,,,,,,,,,,,CAVOK,,,,,,,,VFR,,,,,,,,,,,,METAR,109.0
LTFH 122050Z 00000KT 8000 SCT036 BKN100 06/05 Q1008 NOSIG,LTFH,2019-01-12T20:50:00Z,41.27,36.55,6.0,5.0,0,0,,4.97,29.763779,,,,,,TRUE,,,,,SCT,3600,BKN,10000,,,,,MVFR,,,,,,,,,,,,METAR,5.0
LTDA 122050Z 04013KT 9999 SCT040 10/04 Q1014 NOSIG,LTDA,2019-01-12T20:50:00Z,36.37,36.28,10.0,4.0,40,13,,6.21,29.940945,,,,,,TRUE,,,,,SCT,4000,,,,,,,VFR,,,,,,,,,,,,METAR,82.0
LTCI 122050Z 11004KT 9000 SCT040 M08/M10 Q1014 NOSIG,LTCI,2019-01-12T20:50:00Z,38.45,43.32,-8.0,-10.0,110,4,,5.59,29.940945,,,,,,TRUE,,,,,SCT,4000,,,,,,,VFR,,,,,,,,,,,,METAR,1661.0
LTCF 122050Z 30005KT 9999 SCT034 M18/M20 Q1014,LTCF,2019-01-12T20:50:00Z,40.57,43.12,-18.0,-20.0,300,5,,6.21,29.940945,,,,,,,,,,,SCT,3400,,,,,,,VFR,,,,,,,,,,,,METAR,1795.0
LTCA 122050Z 05005KT 9999 FEW015 BKN030 BKN080 M02/M06 Q1017 NOSIG,LTCA,2019-01-12T20:50:00Z,38.6,39.27,-2.0,-6.0,50,5,,6.21,30.029528,,,,,,TRUE,,,,,FEW,1500,BKN,3000,BKN,8000,,,MVFR,,,,,,,,,,,,METAR,882.0
LTBZ 122050Z 00000KT CAVOK 02/01 Q1007,LTBZ,2019-01-12T20:50:00Z,38.63,27.35,2.0,1.0,0,0,,6.21,29.734253,,,,,,,,,,,CAVOK,,,,,,,,VFR,,,,,,,,,,,,METAR,73.0
LTBY 122050Z 00000KT 6000 -RA BKN030 BKN100 03/03 Q1007,LTBY,2019-01-12T20:50:00Z,39.82,30.52,3.0,3.0,0,0,,3.73,29.734253,,,,,,,,,,-RA,BKN,3000,BKN,10000,,,,,MVFR,,,,,,,,,,,,METAR,789.0
LTAY 122050Z 27005KT 9999 SCT035 BKN100 03/02 Q1007,LTAY,2019-01-12T20:50:00Z,37.77,29.68,3.0,2.0,270,5,,6.21,29.734253,,,,,,,,,,,SCT,3500,BKN,10000,,,,,VFR,,,,,,,,,,,,METAR,849.0
LTAR 122050Z 13014KT 9999 FEW035 BKN100 M06/M08 Q1010,LTAR,2019-01-12T20:50:00Z,39.8,36.9,-6.0,-8.0,130,14,,6.21,29.822834,,,,,,,,,,,FEW,3500,BKN,10000,,,,,VFR,,,,,,,,,,,,METAR,1271.0
MMTO 122050Z 14005KT 5SM BKN020TCU 19/00 A3030 RMK SLP079 57035 906 8/200 HZY AC,MMTO,2019-01-12T20:50:00Z,19.35,-99.57,19.0,0.0,140,5,,5.0,30.301182,1007.9,,,,,,,,,,BKN,2000,,,,,,,MVFR,-3.5,,,,,,,,,,,METAR,2576.0
MMML 122050Z 36005KT 10SM SCT040 SCT080 16/10 A2998 RMK SLP152 57037 977 8/520 HZY,MMML,2019-01-12T20:50:00Z,32.62,-115.23,16.0,10.0,360,5,,10.0,29.97933,1015.2,,,,,,,,,,SCT,4000,SCT,8000,,,,,VFR,-3.7,,,,,,,,,,,METAR,22.0
LTCD 122050Z 00000KT 6000 SCT080 M13/M15 Q1016 NOSIG,LTCD,2019-01-12T20:50:00Z,39.72,39.5,-13.0,-15.0,0,0,,3.73,30.0,,,,,,TRUE,,,,,SCT,8000,,,,,,,MVFR,,,,,,,,,,,,METAR,1215.0
EGYM 122050Z AUTO 26016KT 9999 OVC021/// 09/07 Q1015,EGYM,2019-01-12T20:50:00Z,52.63,0.57,9.0,7.0,260,16,,6.21,29.970472,,,TRUE,,,,,,,,OVC,2100,,,,,,,MVFR,,,,,,,,,,,,METAR,23.0
EGYD 122050Z AUTO 28014KT 9999 // BKN018/// BKN130/// 10/08 Q1015,EGYD,2019-01-12T20:50:00Z,53.03,-0.5,10.0,8.0,280,14,,6.21,29.970472,,,TRUE,,,,,,,,BKN,1800,BKN,13000,,,,,MVFR,,,,,,,,,,,,METAR,67.0
EGXZ 122050Z AUTO 29014KT 9999 SCT026/// BKN120/// 12/08 Q1013,EGXZ,2019-01-12T20:50:00Z,54.2,-1.38,12.0,8.0,290,14,,6.21,29.911417,,,TRUE,,,,,,,,SCT,2600,BKN,12000,,,,,VFR,,,,,,,,,,,,METAR,28.0
EGXW 122050Z AUTO 29012KT 9999 BKN019/// BKN100/// 10/08 Q1014 RERA,EGXW,2019-01-12T20:50:00Z,53.18,-0.52,10.0,8.0,290,12,,6.21,29.940945,,,TRUE,,,,,,,,BKN,1900,BKN,10000,,,,,MVFR,,,,,,,,,,,,METAR,70.0
EGXU 122050Z AUTO 28013KT 9999 // FEW019/// BKN029/// BKN110/// 11/08 Q1014,EGXU,2019-01-12T20:50:00Z,54.05,-1.25,11.0,8.0,280,13,,6.21,29.940945,,,TRUE,,,,,,,,FEW,1900,BKN,2900,BKN,11000,,,MVFR,,,,,,,,,,,,METAR,16.0
EGXT 122050Z AUTO 27016KT 9999 OVC014/// 09/08 Q1015,EGXT,2019-01-12T20:50:00Z,52.62,-0.47,9.0,8.0,270,16,,6.21,29.970472,,,TRUE,,,,,,,,OVC,1400,,,,,,,MVFR,,,,,,,,,,,,METAR,84.0
EGXE 122050Z AUTO 26015KT 9999 FEW024/// BKN110/// 11/08 Q1013,EGXE,2019-01-12T20:50:00Z,54.28,-1.52,11.0,8.0,260,15,,6.21,29.911417,,,TRUE,,,,,,,,FEW,2400,BKN,11000,,,,,VFR,,,,,,,,,,,,METAR,40.0
EGWU 122050Z AUTO 28014KT 9999 // BKN026/// BKN090/// 09/06 Q1019,EGWU,2019-01-12T20:50:00Z,51.55,-0.42,9.0,6.0,280,14,,6.21,30.088583,,,TRUE,,,,,,,,BKN,2600,BKN,9000,,,,,MVFR,,,,,,,,,,,,METAR,40.0
EGVO 122050Z AUTO 28015KT 9999 OVC080/// 08/06 Q1020 RERA,EGVO,2019-01-12T20:50:00Z,51.23,-0.95,8.0,6.0,280,15,,6.21,30.11811,,,TRUE,,,,,,,,OVC,8000,,,,,,,VFR,,,,,,,,,,,,METAR,123.0
EGUW 122050Z AUTO 27014KT 2800 -DZ FEW009/// BKN011/// 07/07 Q1016,EGUW,2019-01-12T20:50:00Z,52.12,0.97,7.0,7.0,270,14,,1.74,30.0,,,TRUE,,,,,,,-DZ,FEW,900,BKN,1100,,,,,IFR,,,,,,,,,,,,METAR,87.0
EGUB 122050Z AUTO 28011KT 9999 // SCT036/// BKN100/// 09/06 Q1020,EGUB,2019-01-12T20:50:00Z,51.62,-1.07,9.0,6.0,280,11,,6.21,30.11811,,,TRUE,,,,,,,,SCT,3600,BKN,10000,,,,,VFR,,,,,,,,,,,,METAR,63.0
EGOP 122050Z AUTO 27014KT 9999 // OVC015/// 10/08 Q1025,EGOP,2019-01-12T20:50:00Z,51.72,-4.32,10.0,8.0,270,14,,6.21,30.265747,,,TRUE,,,,,,,,OVC,1500,,,,,,,MVFR,,,,,,,,,,,,METAR,6.0
EGOM 122050Z AUTO 26019KT 0350 -DZ VV/// 08/08 Q1013,EGOM,2019-01-12T20:50:00Z,55.05,-2.55,8.0,8.0,260,19,,0.22,29.911417,,,TRUE,,,,,,,-DZ,OVX,0,,,,,,,LIFR,,,,,,,,,,,,METAR,325.0
EGDX 122050Z AUTO 29018KT 9999 OVC010/// 10/08 Q1023,EGDX,2019-01-12T20:50:00Z,51.4,-3.43,10.0,8.0,290,18,,6.21,30.206694,,,TRUE,,,,,,,,OVC,1000,,,,,,,MVFR,,,,,,,,,,,,METAR,50.0
EGQK 122050Z AUTO 24017KT 9999 SCT031/// SCT039/// BKN070/// 11/08 Q1006 RERA,EGQK,2019-01-12T20:50:00Z,57.65,-3.57,11.0,8.0,240,17,,6.21,29.704725,,,TRUE,,,,,,,,SCT,3100,SCT,3900,BKN,7000,,,VFR,,,,,,,,,,,,METAR,7.0
EGOV 122050Z AUTO 28019KT 9999 BKN023/// OVC160/// 10/08 Q1022,EGOV,2019-01-12T20:50:00Z,53.25,-4.53,10.0,8.0,280,19,,6.21,30.177166,,,TRUE,,,,,,,,BKN,2300,OVC,16000,,,,,MVFR,,,,,,,,,,,,METAR,11.0
EGOS 122050Z AUTO 29014KT 9999 BKN033/// 11/07 Q1019,EGOS,2019-01-12T20:50:00Z,52.8,-2.67,11.0,7.0,290,14,,6.21,30.088583,,,TRUE,,,,,,,,BKN,3300,,,,,,,VFR,,,,,,,,,,,,METAR,76.0
EGDY 122050Z AUTO 29022KT 9999 OVC016/// 11/08 Q1023,EGDY,2019-01-12T20:50:00Z,51.0,-2.62,11.0,8.0,290,22,,6.21,30.206694,,,TRUE,,,,,,,,OVC,1600,,,,,,,MVFR,,,,,,,,,,,,METAR,23.0
EGDR 122050Z AUTO 28007KT 9999 // SCT008/// SCT180/// 09/08 Q1028,EGDR,2019-01-12T20:50:00Z,50.08,-5.25,9.0,8.0,280,7,,6.21,30.35433,,,TRUE,,,,,,,,SCT,800,SCT,18000,,,,,VFR,,,,,,,,,,,,METAR,82.0
EGDM 122050Z AUTO 29014KT 9999 FEW013/// OVC130/// 08/06 Q1022,EGDM,2019-01-12T20:50:00Z,51.17,-1.75,8.0,6.0,290,14,,6.21,30.177166,,,TRUE,,,,,,,,FEW,1300,OVC,13000,,,,,VFR,,,,,,,,,,,,METAR,124.0
KO86 122050Z AUTO 00000KT 10SM CLR 07/04 A3001 RMK AO1,KO86,2019-01-12T20:50:00Z,40.98,-122.7,7.0,4.0,0,0,,10.0,30.008858,,,TRUE,TRUE,,,,,,,CLR,,,,,,,,VFR,,,,,,,,,,,,METAR,729.0
LIPB 122050Z 00000KT CAVOK M03/M05 Q1014,LIPB,2019-01-12T20:50:00Z,46.47,11.32,-3.0,-5.0,0,0,,6.21,29.940945,,,,,,,,,,,CAVOK,,,,,,,,VFR,,,,,,,,,,,,METAR,241.0
ESOE 122050Z 27001KT CAVOK M04/M06 Q0995,ESOE,2019-01-12T20:50:00Z,59.22,15.05,-4.0,-6.0,270,1,,6.21,29.379921,,,,,,,,,,,CAVOK,,,,,,,,VFR,,,,,,,,,,,,METAR,57.0
LGRP 122050Z VRB03KT 9999 FEW016CB FEW018TCU SCT020 14/08 Q1005 NOSIG,LGRP,2019-01-12T20:50:00Z,36.4,28.08,14.0,8.0,0,3,,6.21,29.675198,,,,,,TRUE,,,,,FEW,1600,FEW,1800,SCT,2000,,,VFR,,,,,,,,,,,,METAR,5.0
LTAJ 122050Z 04005KT 010V080 9999 SCT030 BKN070 04/M00 Q1015 NOSIG RMK RWY10 05007KT 020V090,LTAJ,2019-01-12T20:50:00Z,36.95,37.48,4.0,0.0,40,5,,6.21,29.970472,,,,,,TRUE,,,,,SCT,3000,BKN,7000,,,,,VFR,,,,,,,,,,,,METAR,855.0
OAKB 122050Z 35005KT CAVOK M04/M15 Q1022 NOSIG RMK A3019 BLU BLU,OAKB,2019-01-12T20:50:00Z,34.55,69.22,-4.0,-15.0,350,5,,6.21,30.177166,,,,,,TRUE,,,,,CAVOK,,,,,,,,VFR,,,,,,,,,,,,SPECI,1791.0
K17J 122050Z AUTO 19009KT 10SM SCT038 OVC060 20/13 A3012 RMK AO2 T01960127,K17J,2019-01-12T20:50:00Z,31.07,-84.92,19.6,12.7,190,9,,10.0,30.121063,,,TRUE,TRUE,,,,,,,SCT,3800,OVC,6000,,,,,VFR,,,,,,,,,,,,METAR,45.0
OOSA 122050Z 35008KT CAVOK 25/05 Q1017 NOSIG,OOSA,2019-01-12T20:50:00Z,17.02,54.07,25.0,5.0,350,8,,6.21,30.029528,,,,,,TRUE,,,,,CAVOK,,,,,,,,VFR,,,,,,,,,,,,METAR,20.0
OOMS 122050Z 21002KT CAVOK 19/16 Q1017 NOSIG,OOMS,2019-01-12T20:50:00Z,23.57,58.27,19.0,16.0,210,2,,6.21,30.029528,,,,,,TRUE,,,,,CAVOK,,,,,,,,VFR,,,,,,,,,,,,METAR,8.0
KEFD 122050Z 09011KT 10SM CLR 20/08 A3005,KEFD,2019-01-12T20:50:00Z,29.6,-95.17,20.0,8.0,90,11,,10.0,30.050198,,,,,,,,,,,CLR,,,,,,,,VFR,,,,,,,,,,,,METAR,10.0
KHSA 122050Z 17010G17KT 7SM BKN025 OVC050 18/16 A2999,KHSA,2019-01-12T20:50:00Z,30.37,-89.45,18.0,16.0,170,10,17,7.0,29.991142,,,,,,,,,,,BKN,2500,OVC,5000,,,,,MVFR,,,,,,,,,,,,METAR,7.0
LTAI 122050Z 04010KT 9999 -TSRA FEW015CB BKN025 09/08 Q1009 BECMG 4000 TSRA TEMPO 1000 +TSRA BKN010CB RMK RWY18C 05007KT RWY36R 03010KT RWY18L 05009KT,LTAI,2019-01-12T20:50:00Z,36.9,30.8,9.0,8.0,40,10,,6.21,29.793306,,,,,,,,,,-TSRA,FEW,1500,BKN,2500,,,,,MVFR,,,,,,,,,,,,METAR,54.0
LTAF 122050Z 02012KT CAVOK 10/01 Q1012 NOSIG RMK RWY23 04011KT,LTAF,2019-01-12T20:50:00Z,36.97,35.28,10.0,1.0,20,12,,6.21,29.88189,,,,,,TRUE,,,,,CAVOK,,,,,,,,VFR,,,,,,,,,,,,METAR,20.0
LTAC 122050Z 02004KT 3300 -RASN BR BKN023 BKN080 00/M01 Q1008 BECMG 8000,LTAC,2019-01-12T20:50:00Z,40.12,32.97,0.0,-1.0,20,4,,2.05,29.763779,,,,,,,,,,-RA -SN BR,BKN,2300,BKN,8000,,,,,IFR,,,,,,,,,,,,METAR,949.0
KHME 122050Z AUTO 02006KT //// // ////// M00/M04 Q1019,KHME,2019-01-12T20:50:00Z,,,0.0,-4.0,20,6,,,30.088583,,,TRUE,,,,,,,,,,,,,,,,,,,,,,,,,,,,METAR,
OIBB 122050Z 06004KT CAVOK 11/06 Q1018 A3008,OIBB,2019-01-12T20:50:00Z,28.97,50.82,11.0,6.0,60,4,,6.21,30.059055,,,,,,,,,,,CAVOK,,,,,,,,VFR,,,,,,,,,,,,METAR,19.0
OICK 122050Z 00000KT 9999 SCT040 BKN090 04/M02 Q1020,OICK,2019-01-12T20:50:00Z,33.43,48.28,4.0,-2.0,0,0,,6.21,30.11811,,,,,,,,,,,SCT,4000,BKN,9000,,,,,VFR,,,,,,,,,,,,METAR,1155.0
OIHM 122050Z AUTO 13006KT //// // ////// 06/M18 Q1019,OIHM,2019-01-12T20:50:00Z,34.28,48.82,6.0,-18.0,130,6,,,30.088583,,,TRUE,,,,,,,,,,,,,,,,,,,,,,,,,,,,METAR,1726.0
MUCF 122050Z 23008KT 9999 SCT020 28/20 Q1018,MUCF,2019-01-12T20:50:00Z,22.13,-80.4,28.0,20.0,230,8,,6.21,30.059055,,,,,,,,,,,SCT,2000,,,,,,,VFR,,,,,,,,,,,,METAR,39.0
MUCU 122050Z 14010KT 9000 FEW020 28/19 Q1017,MUCU,2019-01-12T20:50:00Z,19.97,-75.83,28.0,19.0,140,10,,5.59,30.029528,,,,,,,,,,,FEW,2000,,,,,,,VFR,,,,,,,,,,,,METAR,76.0
MUHG 122050Z 11013KT 060V120 9999 SCT025 29/15 Q1017,MUHG,2019-01-12T20:50:00Z,20.77,-76.32,29.0,15.0,110,13,,6.21,30.029528,,,,,,,,,,,SCT,2500,,,,,,,VFR,,,,,,,,,,,,METAR,106.0
MUCM 122050Z 04014KT 9000 FEW020 28/14 Q1018,MUCM,2019-01-12T20:50:00Z,21.42,-77.85,28.0,14.0,40,14,,5.59,30.059055,,,,,,,,,,,FEW,2000,,,,,,,VFR,,,,,,,,,,,,METAR,122.0
MUCC 122050Z 09011KT 060V120 9000 FEW020 27/17 Q1019,MUCC,2019-01-12T20:50:00Z,22.47,-78.33,27.0,17.0,90,11,,5.59,30.088583,,,,,,,,,,,FEW,2000,,,,,,,VFR,,,,,,,,,,,,METAR,4.0
MUVR 122050Z 07010KT 9000 SCT030 27/18 Q1018,MUVR,2019-01-12T20:50:00Z,23.03,-81.43,27.0,18.0,70,10,,5.59,30.059055,,,,,,,,,,,SCT,3000,,,,,,,VFR,,,,,,,,,,,,METAR,65.0
LTAN 122050Z 12003KT 090V230 3100 -RA BR FEW013 SCT035 BKN090 02/01 Q1008 NOSIG,LTAN,2019-01-12T20:50:00Z,37.97,32.53,2.0,1.0,120,3,,1.93,29.763779,,,,,,TRUE,,,,-RA BR,FEW,1300,SCT,3500,BKN,9000,,,IFR,,,,,,,,,,,,METAR,1006.0
LTCJ 122050Z 05006KT CAVOK M02/M03 Q1018 RMK RWY20 06004KT,LTCJ,2019-01-12T20:50:00Z,37.93,41.12,-2.0,-3.0,50,6,,6.21,30.059055,,,,,,,,,,,CAVOK,,,,,,,,VFR,,,,,,,,,,,,METAR,540.0
LTCE 122050Z 34004KT 310V010 4500 BR NSC M14/M17 Q1014 NOSIG RMK RWY08R 29004KT 220V330 RWY26R 35003KT 310V040 RWY08L 31003KT,LTCE,2019-01-12T20:50:00Z,39.95,41.17,-14.0,-17.0,340,4,,2.8,29.940945,,,,,,TRUE,,,,BR,CLR,,,,,,,,IFR,,,,,,,,,,,,METAR,1758.0
LTCC 122050Z 00000KT 9999 BKN040 01/M02 Q1017 NOSIG RMK RWY16 00000KT,LTCC,2019-01-12T20:50:00Z,37.87,40.2,1.0,-2.0,0,0,,6.21,30.029528,,,,,,TRUE,,,,,BKN,4000,,,,,,,VFR,,,,,,,,,,,,METAR,677.0
LTBU 122050Z 01010KT 6000 -SN SCT010 BKN030 02/01 Q1012 RMK RWY22 03008KT,LTBU,2019-01-12T20:50:00Z,41.12,27.92,2.0,1.0,10,10,,3.73,29.88189,,,,,,,,,,-SN,SCT,1000,BKN,3000,,,,,MVFR,,,,,,,,,,,,METAR,173.0
LTBQ 122050Z 11003KT 070V150 8000 -RA SCT012 OVC018 04/04 Q1012 NOSIG,LTBQ,2019-01-12T20:50:00Z,40.72,30.07,4.0,4.0,110,3,,4.97,29.88189,,,,,,TRUE,,,,-RA,SCT,1200,OVC,1800,,,,,MVFR,,,,,,,,,,,,METAR,50.0
LTBF 122050Z 35007KT 9999 FEW015 SCT035 BKN100 06/05 Q1010 NOSIG,LTBF,2019-01-12T20:50:00Z,39.62,27.92,6.0,5.0,350,7,,6.21,29.822834,,,,,,TRUE,,,,,FEW,1500,SCT,3500,BKN,10000,,,VFR,,,,,,,,,,,,METAR,102.0
LTAU 122050Z VRB01KT 6000 FEW040 BKN120 M06/M08 Q1010 NOSIG RMK RWY07 /////KT,LTAU,2019-01-12T20:50:00Z,38.77,35.47,-6.0,-8.0,0,1,,3.73,29.822834,,,,,,TRUE,,,,,FEW,4000,BKN,12000,,,,,MVFR,,,,,,,,,,,,METAR,1054.0
LTAT 122050Z 29003KT 9999 OVC018 M02/M04 Q1018 NOSIG RMK RWY03 21002KT,LTAT,2019-01-12T20:50:00Z,38.42,38.07,-2.0,-4.0,290,3,,6.21,30.059055,,,,,,TRUE,,,,,OVC,1800,,,,,,,MVFR,,,-0.2,,,,,,,,,METAR,849.0
LTAP 122050Z 03004KT 9999 SCT040 BKN100 02/M01 Q1008 NOSIG RMK RWY23 VRB01KT,LTAP,2019-01-12T20:50:00Z,40.83,35.52,2.0,-1.0,30,4,,6.21,29.763779,,,,,,TRUE,,,,,SCT,4000,BKN,10000,,,,,VFR,,,,,,,,,,,,METAR,535.0
LTAG 122050Z 01016KT CAVOK 09/01 Q1011 NOSIG,LTAG,2019-01-12T20:50:00Z,37.0,35.42,9.0,1.0,10,16,,6.21,29.852362,,,,,,TRUE,,,,,CAVOK,,,,,,,,VFR,,,,,,,,,,,,METAR,66.0
LCEN 122050Z 13003KT 9999 FEW025 09/05 Q1009 NOSIG RMK RWY11 14003KT,LCEN,2019-01-12T20:50:00Z,35.13,33.5,9.0,5.0,130,3,,6.21,29.793306,,,,,,TRUE,,,,,FEW,2500,,,,,,,VFR,,,,,,,,,,,,METAR,91.0
K6I2 122050Z AUTO 08006KT 7SM -RA FEW027 SCT033 OVC049 03/02 A3013 RMK AO2,K6I2,2019-01-12T20:50:00Z,37.63,-85.25,3.0,2.0,80,6,,7.0,30.129921,,,TRUE,TRUE,,,,,,-RA,FEW,2700,SCT,3300,OVC,4900,,,VFR,,,,,,,,,,,,METAR,264.0
K65S 122050Z AUTO 00000KT 10SM OVC019 02/M02 A3024 RMK AO2,K65S,2019-01-12T20:50:00Z,48.73,-116.3,2.0,-2.0,0,0,,10.0,30.239174,,,TRUE,TRUE,,,,,,,OVC,1900,,,,,,,MVFR,,,,,,,,,,,,SPECI,713.0
LTBJ 122050Z 13013KT 6000 -TSRA FEW010CB BKN030 06/05 Q1008 RETSRA NOSIG RMK RWY16 14010KT,LTBJ,2019-01-12T20:50:00Z,38.28,27.15,6.0,5.0,130,13,,3.73,29.763779,,,,,,TRUE,,,,-TSRA,FEW,1000,BKN,3000,,,,,MVFR,,,,,,,,,,,,METAR,120.0
LTBA 122050Z 02014KT 9999 -RA FEW010 BKN030 04/02 Q1012 NOSIG RMK RWY17L 03011KT RWY05 02011KT RWY23 04010KT,LTBA,2019-01-12T20:50:00Z,40.97,28.82,4.0,2.0,20,14,,6.21,29.88189,,,,,,TRUE,,,,-RA,FEW,1000,BKN,3000,,,,,MVFR,,,,,,,,,,,,METAR,37.0
LTAZ 122050Z 12013KT 9999 SCT040 BKN100 00/M04 Q1009 RMK RWY29 12008KT,LTAZ,2019-01-12T20:50:00Z,38.77,34.55,0.0,-4.0,120,13,,6.21,29.793306,,,,,,,,,,,SCT,4000,BKN,10000,,,,,VFR,,,,,,,,,,,,METAR,945.0
EDTY 122050Z 24011KT 4000 -SN OVC005 01/01 Q1014,EDTY,2019-01-12T20:50:00Z,49.12,9.78,1.0,1.0,240,11,,2.49,29.940945,,,,,,,,,,-SN,OVC,500,,,,,,,IFR,,,,,,,,,,,,METAR,400.0
EDJA 122050Z 23023KT 1900 SN BKN003 00/M00 Q1016,EDJA,2019-01-12T20:50:00Z,47.98,10.23,0.0,0.0,230,23,,1.18,30.0,,,,,,,,,,SN,BKN,300,,,,,,,LIFR,,,,,,,,,,,,METAR,633.0
EDHI 122050Z AUTO 28017KT 9999 // FEW012/// BKN014/// OVC019/// 06/05 Q1004,EDHI,2019-01-12T20:50:00Z,53.53,9.83,6.0,5.0,280,17,,6.21,29.64567,,,TRUE,,,,,,,,FEW,1200,BKN,1400,OVC,1900,,,MVFR,,,,,,,,,,,,METAR,13.0
EDSB 122050Z 20016KT 6000 RA FEW008 SCT011 OVC019 04/03 Q1018,EDSB,2019-01-12T20:50:00Z,48.78,8.08,4.0,3.0,200,16,,3.73,30.059055,,,,,,,,,,RA,FEW,800,SCT,1100,OVC,1900,,,MVFR,,,,,,,,,,,,METAR,124.0
EDNY 122050Z AUTO 24014KT 9000 // BKN010/// OVC018/// 02/00 Q1019,EDNY,2019-01-12T20:50:00Z,47.67,9.52,2.0,0.0,240,14,,5.59,30.088583,,,TRUE,,,,,,,,BKN,1000,OVC,1800,,,,,MVFR,,,,,,,,,,,,METAR,424.0
EDMA 122050Z AUTO 23018KT 5000 // BKN007/// OVC014/// 01/00 Q1014,EDMA,2019-01-12T20:50:00Z,48.42,10.92,1.0,0.0,230,18,,3.11,29.940945,,,TRUE,,,,,,,,BKN,700,OVC,1400,,,,,IFR,,,,,,,,,,,,METAR,463.0
EDLW 122050Z 27009KT 220V320 9999 OVC012 06/05 Q1011,EDLW,2019-01-12T20:50:00Z,51.52,7.62,6.0,5.0,270,9,,6.21,29.852362,,,,,,,,,,,OVC,1200,,,,,,,MVFR,,,,,,,,,,,,METAR,127.0
EDLP 122050Z 29008KT 250V350 9999 BKN010 BKN024 04/04 Q1010,EDLP,2019-01-12T20:50:00Z,51.62,8.62,4.0,4.0,290,8,,6.21,29.822834,,,,,,,,,,,BKN,1000,BKN,2400,,,,,MVFR,,,,,,,,,,,,METAR,213.0
EDAC 122050Z AUTO 24012KT 9999 // SCT017/// BKN020/// OVC026/// 03/01 Q1008,EDAC,2019-01-12T20:50:00Z,50.98,12.5,3.0,1.0,240,12,,6.21,29.763779,,,TRUE,,,,,,,,SCT,1700,BKN,2000,OVC,2600,,,MVFR,,,,,,,,,,,,METAR,195.0
EETU 122050Z AUTO 27008KT 9999 BKN005/// M03/M03 Q0993,EETU,2019-01-12T20:50:00Z,58.32,26.68,-3.0,-3.0,270,8,,6.21,29.320866,,,TRUE,,,,,,,,BKN,500,,,,,,,IFR,,,,,,,,,,,,METAR,67.0
EEKE 122050Z AUTO 26004KT 9999NDV NSC M02/M02 Q0995,EEKE,2019-01-12T20:50:00Z,58.23,22.52,-2.0,-2.0,260,4,,,29.379921,,,TRUE,,,,,,,,CLR,,,,,,,,,,,,,,,,,,,,METAR,4.0
LIRQ 122050Z 05002KT CAVOK M01/M01 Q1017,LIRQ,2019-01-12T20:50:00Z,43.78,11.18,-1.0,-1.0,50,2,,6.21,30.029528,,,,,,,,,,,CAVOK,,,,,,,,VFR,,,,,,,,,,,,METAR,38.0
LIRN 122050Z 33004KT CAVOK 05/M03 Q1017 NOSIG,LIRN,2019-01-12T20:50:00Z,40.88,14.3,5.0,-3.0,330,4,,6.21,30.029528,,,,,,TRUE,,,,,CAVOK,,,,,,,,VFR,,,,,,,,,,,,METAR,72.0
LIRF 122050Z 33004KT 290V360 CAVOK 01/M04 Q1018 NOSIG,LIRF,2019-01-12T20:50:00Z,41.78,12.22,1.0,-4.0,330,4,,6.21,30.059055,,,,,,TRUE,,,,,CAVOK,,,,,,,,VFR,,,,,,,,,,,,METAR,3.0
LIRA 122050Z 07004KT 330V080 CAVOK 04/M05 Q1018,LIRA,2019-01-12T20:50:00Z,41.8,12.58,4.0,-5.0,70,4,,6.21,30.059055,,,,,,,,,,,CAVOK,,,,,,,,VFR,,,,,,,,,,,,METAR,101.0
LIML 122050Z VRB01KT CAVOK 01/M03 Q1014 NOSIG,LIML,2019-01-12T20:50:00Z,45.47,9.27,1.0,-3.0,0,1,,6.21,29.940945,,,,,,TRUE,,,,,CAVOK,,,,,,,,VFR,,,,,,,,,,,,METAR,103.0
LIMJ 122050Z 03005KT 9999 SCT020 BKN030 07/02 Q1016,LIMJ,2019-01-12T20:50:00Z,44.42,8.83,7.0,2.0,30,5,,6.21,30.0,,,,,,,,,,,SCT,2000,BKN,3000,,,,,MVFR,,,,,,,,,,,,METAR,3.0
LIMF 122050Z 29004KT CAVOK 01/M04 Q1013,LIMF,2019-01-12T20:50:00Z,45.22,7.65,1.0,-4.0,290,4,,6.21,29.911417,,,,,,,,,,,CAVOK,,,,,,,,VFR,,,,,,,,,,,,METAR,287.0
LIME 122050Z VRB01KT CAVOK M00/M05 Q1014 NOSIG,LIME,2019-01-12T20:50:00Z,45.67,9.68,0.0,-5.0,0,1,,6.21,29.940945,,,,,,TRUE,,,,,CAVOK,,,,,,,,VFR,,,,,,,,,,,,METAR,237.0
LIMC 122050Z VRB02KT CAVOK 01/M06 Q1014 NOSIG,LIMC,2019-01-12T20:50:00Z,45.62,8.72,1.0,-6.0,0,2,,6.21,29.940945,,,,,,TRUE,,,,,CAVOK,,,,,,,,VFR,,,,,,,,,,,,METAR,211.0
LIEO 122050Z 22005KT CAVOK 07/03 Q1020,LIEO,2019-01-12T20:50:00Z,40.88,9.52,7.0,3.0,220,5,,6.21,30.11811,,,,,,,,,,,CAVOK,,,,,,,,VFR,,,,,,,,,,,,METAR,13.0
LIEE 122050Z 36008KT 9999 FEW030 07/03 Q1022,LIEE,2019-01-12T20:50:00Z,39.25,9.07,7.0,3.0,360,8,,6.21,30.177166,,,,,,,,,,,FEW,3000,,,,,,,VFR,,,,,,,,,,,,METAR,4.0
LIEA 122050Z 12003KT 9999 FEW030 08/05 Q1021,LIEA,2019-01-12T20:50:00Z,40.62,8.27,8.0,5.0,120,3,,6.21,30.147638,,,,,,,,,,,FEW,3000,,,,,,,VFR,,,,,,,,,,,,METAR,23.0
LIPZ 122050Z 32004KT CAVOK 01/M02 Q1015 NOSIG,LIPZ,2019-01-12T20:50:00Z,45.5,12.35,1.0,-2.0,320,4,,6.21,29.970472,,,,,,TRUE,,,,,CAVOK,,,,,,,,VFR,,,,,,,,,,,,METAR,6.0
LIPX 122050Z 33003KT 9999 FEW070 M01/M02 Q1015,LIPX,2019-01-12T20:50:00Z,45.38,10.87,-1.0,-2.0,330,3,,6.21,29.970472,,,,,,,,,,,FEW,7000,,,,,,,VFR,,,,,,,,,,,,METAR,68.0
LIPR 122050Z VRB02KT CAVOK M01/M06 Q1014,LIPR,2019-01-12T20:50:00Z,44.02,12.62,-1.0,-6.0,0,2,,6.21,29.940945,,,,,,,,,,,CAVOK,,,,,,,,VFR,,,,,,,,,,,,METAR,13.0
LIPQ 122050Z VRB02KT 9999 SCT090 00/M03 Q1015,LIPQ,2019-01-12T20:50:00Z,45.82,13.47,0.0,-3.0,0,2,,6.21,29.970472,,,,,,,,,,,SCT,9000,,,,,,,VFR,,,,,,,,,,,,METAR,12.0
LIPH 122050Z VRB01KT 7000 NSC 01/M02 Q1015,LIPH,2019-01-12T20:50:00Z,45.63,12.17,1.0,-2.0,0,1,,4.35,29.970472,,,,,,,,,,,CLR,,,,,,,,MVFR,,,,,,,,,,,,METAR,23.0
LIPE 122050Z 04002KT CAVOK M01/M06 Q1014,LIPE,2019-01-12T20:50:00Z,44.52,11.3,-1.0,-6.0,40,2,,6.21,29.940945,,,,,,,,,,,CAVOK,,,,,,,,VFR,,,,,,,,,,,,METAR,42.0
EGVP 122050Z AUTO 29009KT 9999 // BKN013/// SCT024/// BKN130/// 09/06 Q1021,EGVP,2019-01-12T20:50:00Z,51.13,-1.57,9.0,6.0,290,9,,6.21,30.147638,,,TRUE,,,,,,,,BKN,1300,SCT,2400,BKN,13000,,,MVFR,,,,,,,,,,,,METAR,91.0
LTFE 122050Z 04012KT 010V070 9999 FEW020CB SCT035 BKN100 11/05 Q1007 BECMG TL2120 VRB02KT TEMPO TL2200 -TSRA RMK RWY10 03014KT,LTFE,2019-01-12T20:50:00Z,37.25,27.67,11.0,5.0,40,12,,6.21,29.734253,,,,,,,,,,,FEW,2000,SCT,3500,BKN,10000,,,VFR,,,,,,,,,,,,METAR,6.0
LTFC 122050Z 02005KT 9999 SCT035 03/02 Q1007 RMK RWY23 10004KT,LTFC,2019-01-12T20:50:00Z,37.87,30.38,3.0,2.0,20,5,,6.21,29.734253,,,,,,,,,,,SCT,3500,,,,,,,VFR,,0.4,,,,,,,,,,METAR,864.0
LTCS 122050Z 36007KT 9999 SCT040 00/M02 Q1016 RMK RWY22 02004KT,LTCS,2019-01-12T20:50:00Z,37.45,38.9,0.0,-2.0,360,7,,6.21,30.0,,,,,,,,,,,SCT,4000,,,,,,,VFR,,,,,,,,,,,,METAR,825.0
LTCG 122050Z 02003KT 310V080 9999 SCT100 SCT200 07/04 Q1009 NOSIG RMK RWY29 16005KT,LTCG,2019-01-12T20:50:00Z,41.0,39.8,7.0,4.0,20,3,,6.21,29.793306,,,,,,TRUE,,,,,SCT,10000,SCT,20000,,,,,VFR,,,,,,,,,,,,METAR,30.0
LTBS 122050Z 11007KT 9999 FEW015CB SCT030 BKN080 13/08 Q1006 RETS TEMPO TSRA RMK RWY19 35005KT,LTBS,2019-01-12T20:50:00Z,36.7,28.77,13.0,8.0,110,7,,6.21,29.704725,,,,,,,,,,,FEW,1500,SCT,3000,BKN,8000,,,VFR,,,,,,,,,,,,METAR,2.0
LTBR 122050Z 03005KT 7000 BKN010 BKN025 05/05 Q1009 NOSIG RMK RWY07 34005KT 310V010,LTBR,2019-01-12T20:50:00Z,40.25,29.57,5.0,5.0,30,5,,4.35,29.793306,,,,,,TRUE,,,,,BKN,1000,BKN,2500,,,,,MVFR,,,,,,,,,,,,METAR,232.0
KE16 122050Z AUTO 12008G17KT 10SM FEW035 15/07 A2996 RMK AO2 PWINO PNO,KE16,2019-01-12T20:50:00Z,37.08,-121.6,15.0,7.0,120,8,17,10.0,29.958662,,,TRUE,TRUE,,,,,TRUE,,FEW,3500,,,,,,,VFR,,,,,,,,,,,,METAR,86.0
EGXS 122050Z AUTO 27011KT 9999 // FEW017/// BKN060/// 10/08 Q1013,EGXS,2019-01-12T20:50:00Z,53.48,0.15,10.0,8.0,270,11,,6.21,29.911417,,,TRUE,,,,,,,,FEW,1700,BKN,6000,,,,,VFR,,,,,,,,,,,,METAR,3.0
EGXP 122050Z AUTO 30015KT 9999 // BKN018/// BKN140/// 10/08 Q1014,EGXP,2019-01-12T20:50:00Z,53.3,-0.55,10.0,8.0,300,15,,6.21,29.940945,,,TRUE,,,,,,,,BKN,1800,BKN,14000,,,,,MVFR,,,,,,,,,,,,METAR,61.0
OODQ 122050Z AUTO 07003KT 9999 FEW020 BKN030 21/18 Q1017 NOSIG,OODQ,2019-01-12T20:50:00Z,19.52,57.65,21.0,18.0,70,3,,6.21,30.029528,,,TRUE,,,TRUE,,,,,FEW,2000,BKN,3000,,,,,MVFR,,,,,,,,,,,,METAR,0.0
OOSH 122050Z AUTO VRB00KT //// 19/13 Q1016,OOSH,2019-01-12T20:50:00Z,24.55,56.62,19.0,13.0,0,0,,,30.0,,,TRUE,,,,,,,,,,,,,,,,,,,,,,,,,,,,METAR,35.0
KVES 122050Z AUTO 09007KT 1/2SM SN VV005 M02/M02 A3026 RMK AO2,KVES,2019-01-12T20:50:00Z,40.2,-84.53,-2.0,-2.0,90,7,,0.5,30.259842,,,TRUE,TRUE,,,,,,SN,OVX,0,,,,,,,LIFR,,,,,,,,,,,500,METAR,307.0
KTEX 122050Z AUTO 25005KT 1/2SM SN OVC004 M03/M04 A3011 RMK AO2,KTEX,2019-01-12T20:50:00Z,37.95,-107.9,-3.0,-4.0,250,5,,0.5,30.109253,,,TRUE,TRUE,,,,,,SN,OVC,400,,,,,,,LIFR,,,,,,,,,,,,SPECI,2769.0
KSFQ 122050Z AUTO 00000KT 10SM SCT100 OVC120 05/M02 A3048 RMK AO2 T00451020,KSFQ,2019-01-12T20:50:00Z,36.68,-76.6,4.5,-2.0,0,0,,10.0,30.481298,,,TRUE,TRUE,,,,,,,SCT,10000,OVC,12000,,,,,VFR,,,,,,,,,,,,SPECI,22.0
KSEF 122050Z AUTO 15011KT 10SM CLR 26/13 A3016 RMK AO2 T02610126,KSEF,2019-01-12T20:50:00Z,27.45,-81.35,26.1,12.6,150,11,,10.0,30.159449,,,TRUE,TRUE,,,,,,,CLR,,,,,,,,VFR,,,,,,,,,,,,SPECI,19.0
KOYM 122050Z AUTO 00000KT 10SM CLR M02/M11 A3037 RMK AO2,KOYM,2019-01-12T20:50:00Z,41.42,-78.5,-2.0,-11.0,0,0,,10.0,30.369095,,,TRUE,TRUE,,,,,,,CLR,,,,,,,,VFR,,,,,,,,,,,,METAR,590.0
KNOW 122050Z AUTO 00000KT 10SM SCT110 09/05 A2999 RMK AO2 T00920050,KNOW,2019-01-12T20:50:00Z,48.13,-123.4,9.2,5.0,0,0,,10.0,29.991142,,,TRUE,TRUE,,,,,,,SCT,11000,,,,,,,VFR,,,,,,,,,,,,SPECI,4.0
KIYA 122050Z AUTO 24010G15KT 10SM OVC021 20/16 A2999 RMK AO2 T02040161,KIYA,2019-01-12T20:50:00Z,29.98,-92.08,20.4,16.1,240,10,15,10.0,29.991142,,,TRUE,TRUE,,,,,,,OVC,2100,,,,,,,MVFR,,,,,,,,,,,,SPECI,5.0
KIDP 122050Z AUTO 35016G21KT 10SM OVC010 01/M01 A3006 RMK AO2 T00081008,KIDP,2019-01-12T20:50:00Z,37.17,-95.78,0.8,-0.8,350,16,21,10.0,30.059055,,,TRUE,TRUE,,,,,,,OVC,1000,,,,,,,MVFR,,,,,,,,,,,,SPECI,251.0
KI16 122050Z AUTO 10SM BKN047 BKN055 OVC070 03/M01 A3030 RMK AO2 T00281006,KI16,2019-01-12T20:50:00Z,37.6,-81.57,2.8,-0.6,,,,10.0,30.301182,,,TRUE,TRUE,,,,,,,BKN,4700,BKN,5500,OVC,7000,,,VFR,,,,,,,,,,,,METAR,544.0
KHII 122050Z AUTO 30010KT 10SM CLR 14/00 A3000 RMK AO2,KHII,2019-01-12T20:50:00Z,34.57,-114.37,14.0,0.0,300,10,,10.0,30.0,,,TRUE,TRUE,,,,,,,CLR,,,,,,,,VFR,,,,,,,,,,,,SPECI,238.0
KHBV 122050Z AUTO 34003G17KT 5SM HZ CLR 22/06 A3009 RMK AO2 T02240064,KHBV,2019-01-12T20:50:00Z,27.35,-98.73,22.4,6.4,340,3,17,5.0,30.088583,,,TRUE,TRUE,,,,,,HZ,CLR,,,,,,,,MVFR,,,,,,,,,,,,SPECI,202.0
KGVT 122050Z AUTO 29013G19KT 10SM OVC022 08/03 A3009 RMK AO2,KGVT,2019-01-12T20:50:00Z,33.07,-96.07,8.0,3.0,290,13,19,10.0,30.088583,,,TRUE,TRUE,,,,,,,OVC,2200,,,,,,,MVFR,,,,,,,,,,,,SPECI,163.0
KFRR 122050Z AUTO 1SM OVC019 M01/M02 A3043 RMK AO1,KFRR,2019-01-12T20:50:00Z,38.92,-78.25,-1.0,-2.0,,,,1.0,30.431103,,,TRUE,TRUE,,,,,,,OVC,1900,,,,,,,IFR,,,,,,,,,,,,METAR,216.0
KEMM 122050Z AUTO 00000KT 10SM CLR M06/M10 A3018 RMK AO2,KEMM,2019-01-12T20:50:00Z,41.82,-110.55,-6.0,-10.0,0,0,,10.0,30.180119,,,TRUE,TRUE,,,,,,,CLR,,,,,,,,VFR,,,,,,,,,,,,SPECI,2220.0
KEHY 122050Z AUTO 00000KT 10SM CLR M06/M08 A3013 RMK AO2 PWINO,KEHY,2019-01-12T20:50:00Z,41.73,-106.47,-6.0,-8.0,0,0,,10.0,30.129921,,,TRUE,TRUE,,,,,TRUE,,CLR,,,,,,,,VFR,,,,,,,,,,,,SPECI,2225.0
KECS 122050Z AUTO 00000KT 10SM CLR 01/M03 A3017 RMK AO2,KECS,2019-01-12T20:50:00Z,43.88,-104.32,1.0,-3.0,0,0,,10.0,30.171259,,,TRUE,TRUE,,,,,,,CLR,,,,,,,,VFR,,,,,,,,,,,,SPECI,1273.0
KEAN 122050Z AUTO 17010G14KT 10SM CLR 05/M04 A3016 RMK AO2 T00461037,KEAN,2019-01-12T20:50:00Z,42.05,-104.93,4.6,-3.7,170,10,14,10.0,30.159449,,,TRUE,TRUE,,,,,,,CLR,,,,,,,,VFR,,,,,,,,,,,,METAR,1456.0
KDWX 122050Z AUTO 12003KT 10SM OVC004 M06/M07 A3022 RMK AO2 T10631073,KDWX,2019-01-12T20:50:00Z,41.03,-107.5,-6.3,-7.3,120,3,,10.0,30.221457,,,TRUE,TRUE,,,,,,,OVC,400,,,,,,,LIFR,,,,,,,,,,,,SPECI,1996.0
KCPU 122050Z AUTO 18007KT 10SM SCT041 15/05 A2998 RMK AO2 T01500045,KCPU,2019-01-12T20:50:00Z,38.15,-120.65,15.0,4.5,180,7,,10.0,29.97933,,,TRUE,TRUE,,,,,,,SCT,4100,,,,,,,VFR,,,,,,,,,,,,METAR,404.0
KBWP 122050Z AUTO 00000KT 10SM BKN034 OVC040 M02/M06 A3038 RMK AO1,KBWP,2019-01-12T20:50:00Z,46.25,-96.62,-2.0,-6.0,0,0,,10.0,30.380905,,,TRUE,TRUE,,,,,,,BKN,3400,OVC,4000,,,,,VFR,,,,,,,,,,,,METAR,295.0
KBMC 122050Z AUTO 29004KT 7SM OVC014 M01/M04 A3027 RMK AO1 T10081041,KBMC,2019-01-12T20:50:00Z,41.55,-112.07,-0.8,-4.1,290,4,,7.0,30.268702,,,TRUE,TRUE,,,,,,,OVC,1400,,,,,,,MVFR,,,,,,,,,,,,SPECI,1288.0
KAQO 122050Z AUTO 31015G19KT 10SM FEW047 15/02 A3018 RMK AO2,KAQO,2019-01-12T20:50:00Z,30.78,-98.67,15.0,2.0,310,15,19,10.0,30.180119,,,TRUE,TRUE,,,,,,,FEW,4700,,,,,,,VFR,,,,,,,,,,,,SPECI,336.0
KACJ 122050Z AUTO 10006KT 10SM BKN050 OVC060 15/07 A3019 RMK AO2,KACJ,2019-01-12T20:50:00Z,32.12,-84.18,15.0,7.0,100,6,,10.0,30.188976,,,TRUE,TRUE,,,,,,,BKN,5000,OVC,6000,,,,,VFR,,,,,,,,,,,,METAR,143.0
KA08 122050Z AUTO 13009G14KT 110V170 7SM -RA BKN035 BKN046 OVC060 11/09 A3001 RMK AO2 P0001 60001 T01070090,KA08,2019-01-12T20:50:00Z,32.52,-87.38,10.7,9.0,130,9,14,7.0,30.008858,,,TRUE,TRUE,,,,,,-RA,BKN,3500,BKN,4600,OVC,6000,,,VFR,,,,,,0.01,0.01,,,,,METAR,69.0
K3J7 122050Z AUTO 08004KT 10SM BKN039 OVC046 06/00 A3022 RMK AO2,K3J7,2019-01-12T20:50:00Z,33.6,-83.13,6.0,0.0,80,4,,10.0,30.221457,,,TRUE,TRUE,,,,,,,BKN,3900,OVC,4600,,,,,VFR,,,,,,,,,,,,METAR,206.0
ENBO 122050Z 26012KT 9999 -SHSN FEW008 SCT012 BKN025 M01/M03 Q0989,ENBO,2019-01-12T20:50:00Z,67.27,14.37,-1.0,-3.0,260,12,,6.21,29.202755,,,,,,,,,,-SHSN,FEW,800,SCT,1200,BKN,2500,,,MVFR,,,,,,,,,,,,METAR,13.0
LTCB 122050Z VRB01KT 9999 BKN090 07/06 Q1009,LTCB,2019-01-12T20:50:00Z,40.97,38.07,7.0,6.0,0,1,,6.21,29.793306,,,,,,,,,,,BKN,9000,,,,,,,VFR,,,,,,,,,,,,METAR,5.0
LTBH 122050Z 03012KT 360V060 9999 -SHRA FEW008 BKN030 BKN100 04/03 Q1011,LTBH,2019-01-12T20:50:00Z,40.13,26.42,4.0,3.0,30,12,,6.21,29.852362,,,,,,,,,,-SHRA,FEW,800,BKN,3000,BKN,10000,,,MVFR,,,,,,,,,,,,METAR,3.0
LTFM 122050Z 04013KT 8000 -RA SCT010 BKN020 03/01 Q1012 RMK RWY17L 04014KT RWY34L 03014KT RWY16R 03013KT,LTFM,2019-01-12T20:50:00Z,41.27,28.75,3.0,1.0,40,13,,4.97,29.88189,,,,,,,,,,-RA,SCT,1000,BKN,2000,,,,,MVFR,,,,,,,,,,,,METAR,99.0
LTFJ 122050Z 03012KT 8000 -DZ BKN007 BKN027 03/02 Q1011 REDZ NOSIG,LTFJ,2019-01-12T20:50:00Z,40.9,29.3,3.0,2.0,30,12,,4.97,29.852362,,,,,,TRUE,,,,-DZ,BKN,700,BKN,2700,,,,,IFR,,,,,,,,,,,,METAR,98.0
LTFG 122050Z 06005KT 030V090 9999 SCT030 BKN100 09/08 Q1007,LTFG,2019-01-12T20:50:00Z,36.3,32.3,9.0,8.0,60,5,,6.21,29.734253,,,,,,,,,,,SCT,3000,BKN,10000,,,,,VFR,,,,,,,,,,,,METAR,95.0
LTFD 122050Z 09013KT 6000 SHRA SCT030 BKN090 07/04 Q1009,LTFD,2019-01-12T20:50:00Z,39.55,27.02,7.0,4.0,90,13,,3.73,29.793306,,,,,,,,,,SHRA,SCT,3000,BKN,9000,,,,,MVFR,,,,,,,,,,,,METAR,16.0
LTCN 122050Z 09005KT 9999 SCT035 BKN100 04/M00 Q1015 NOSIG,LTCN,2019-01-12T20:50:00Z,37.53,36.95,4.0,0.0,90,5,,6.21,29.970472,,,,,,TRUE,,,,,SCT,3500,BKN,10000,,,,,VFR,,,,,,,,,,,,METAR,526.0
LSZL 122050Z AUTO 00000KT 9999NDV FEW170 00/M02 Q1014 RMK,LSZL,2019-01-12T20:50:00Z,46.17,8.88,0.0,-2.0,0,0,,,29.940945,,,TRUE,,,,,,,,FEW,17000,,,,,,,,,,,,,,,,,,,SPECI,600.0
MMCZ 122049Z 12004KT 8SM SCT015TCU 26/18 A3001 RMK SLP169 57019 901 8/200 AC SC,MMCZ,2019-01-12T20:49:00Z,20.52,-86.92,26.0,18.0,120,4,,8.0,30.008858,1016.9,,,,,,,,,,SCT,1500,,,,,,,VFR,-1.9,,,,,,,,,,,METAR,5.0
TJIG 122049Z 09011KT 10SM SCT040 27/20 A3007,TJIG,2019-01-12T20:49:00Z,18.45,-66.1,27.0,20.0,90,11,,10.0,30.070866,,,,,,,,,,,SCT,4000,,,,,,,VFR,,,,,,,,,,,,METAR,3.0
KIFP 122049Z 02014KT 20SM FEW 070 BKN160 16/M01 A3001,KIFP,2019-01-12T20:49:00Z,35.15,-114.57,16.0,-1.0,20,14,,20.0,30.008858,,,,,,,,,,,FEW,7000,BKN,16000,,,,,VFR,,,,,,,,,,,,METAR,212.0
MMAS 122049Z 20011KT 10SM BKN035 BKN100 20/05 A3023 RMK 8/230 PRESFR,MMAS,2019-01-12T20:49:00Z,21.7,-102.32,20.0,5.0,200,11,,10.0,30.230314,,,,,,,,,,,BKN,3500,BKN,10000,,,,,VFR,,,,,,,,,,,,METAR,1863.0
KEKM 122048Z 08010G15KT 1/2SM -SN OVC005 M03/M04 A3031,KEKM,2019-01-12T20:48:00Z,41.72,-86.0,-3.0,-4.0,80,10,15,0.5,30.31004,,,,,,,,,,-SN,OVC,500,,,,,,,LIFR,,,,,,,,,,,,METAR,237.0
KJDN 122048Z AUTO 22010KT 08/M03 A3008 RMK AO1 SLP217 T00831033 56022,KJDN,2019-01-12T20:48:00Z,47.33,-106.95,8.3,-3.3,220,10,,,30.079725,1021.7,,TRUE,TRUE,,,,,,,,,,,,,,,,-2.2,,,,,,,,,,,METAR,801.0
KRYY 122048Z 11009KT 10SM -RA OVC023 05/M02 A3020 RMK AO2 SLP949 P0000 60000 T00501017 55019,KRYY,2019-01-12T20:48:00Z,34.02,-84.6,5.0,-1.7,110,9,,10.0,30.200787,994.9,,,TRUE,,,,,,-RA,OVC,2300,,,,,,,MVFR,-1.9,,,,,0.005,,,,,,SPECI,317.0
KOUN 122048Z 32019KT 10SM OVC018 03/00 A3008,KOUN,2019-01-12T20:48:00Z,35.25,-97.47,3.0,0.0,320,19,,10.0,30.079725,,,,,,,,,,,OVC,1800,,,,,,,MVFR,,,,,,,,,,,,METAR,357.0
KASG 122048Z 31005KT 1 3/4SM BR OVC005 05/05 A2992,KASG,2019-01-12T20:48:00Z,36.17,-94.12,5.0,5.0,310,5,,1.75,29.920275,,,,,,,,,,BR,OVC,500,,,,,,,IFR,,,,,,,,,,,,METAR,412.0
KMNH 122048Z AUTO 00000KT 10SM SCT120 M01/M04 A3017 RMK AO2,KMNH,2019-01-12T20:48:00Z,39.22,-104.65,-1.0,-4.0,0,0,,10.0,30.171259,,,TRUE,TRUE,,,,,,,SCT,12000,,,,,,,VFR,,,,,,,,,,,,METAR,2152.0
KCPW 122048Z AUTO 22015G20KT 1/4SM SN OVC001 M11/M11 A3014 RMK AO2,KCPW,2019-01-12T20:48:00Z,37.45,-106.8,-11.0,-11.0,220,15,20,0.25,30.138779,,,TRUE,TRUE,,,,,,SN,OVC,100,,,,,,,LIFR,,,,,,,,,,,,METAR,3584.0
K7BM 122048Z AUTO 00000KT 1 1/2SM -SN BKN009 OVC012 M04/M07 A3011 RMK AO2,K7BM,2019-01-12T20:48:00Z,38.78,-106.22,-4.0,-7.0,0,0,,1.5,30.109253,,,TRUE,TRUE,,,,,,-SN,BKN,900,OVC,1200,,,,,IFR,,,,,,,,,,,,METAR,2995.0
KC07 122048Z AUTO 00000KT 10SM SCT016 M07/M08 A3011 RMK AO2,KC07,2019-01-12T20:48:00Z,40.35,-106.7,-7.0,-8.0,0,0,,10.0,30.109253,,,TRUE,TRUE,,,,,,,SCT,1600,,,,,,,VFR,,,,,,,,,,,,METAR,3224.0
MMCB 122048Z 22004KT 7SM FEW025 SCT080 28/09 A3007 RMK 8/130 HZY,MMCB,2019-01-12T20:48:00Z,18.83,-99.27,28.0,9.0,220,4,,7.0,30.070866,,,,,,,,,,,FEW,2500,SCT,8000,,,,,VFR,,,,,,,,,,,,METAR,1560.0
MMPR 122048Z 22012KT 15SM FEW020TCU 27/23 A2992 RMK SLP130 57026 951 8/200,MMPR,2019-01-12T20:48:00Z,20.67,-105.25,27.0,23.0,220,12,,15.0,29.920275,1013.0,,,,,,,,,,FEW,2000,,,,,,,VFR,-2.6,,,,,,,,,,,METAR,6.0
MMIA 122048Z 24010KT 8SM SCT020TCU 27/17 A3002 RMK SLP/// 5//// 9// 6//// 8/200,MMIA,2019-01-12T20:48:00Z,19.27,-103.57,27.0,17.0,240,10,,8.0,30.02067,,,,,,,,,,,SCT,2000,,,,,,,VFR,,,,,,,,,,,,SPECI,723.0
KGYR 122047Z 09006KT 10SM SKC 19/03 A2998,KGYR,2019-01-12T20:47:00Z,33.42,-112.37,19.0,3.0,90,6,,10.0,29.97933,,,,,,,,,,,SKC,,,,,,,,VFR,,,,,,,,,,,,METAR,295.0
MMCT 122047Z 09010KT 8SM SKC 29/20 A2999,MMCT,2019-01-12T20:47:00Z,20.63,-88.45,29.0,20.0,90,10,,8.0,29.991142,,,,,,,,,,,SKC,,,,,,,,VFR,,,,,,,,,,,,METAR,28.0
KCHD 122047Z 10009KT 10SM BKN200 20/01 A2999,KCHD,2019-01-12T20:47:00Z,33.27,-111.82,20.0,1.0,100,9,,10.0,29.991142,,,,,,,,,,,BKN,20000,,,,,,,VFR,,,,,,,,,,,,METAR,379.0
KSEE 122047Z 26010KT 10SM BKN030 15/10 A3000,KSEE,2019-01-12T20:47:00Z,32.82,-116.97,15.0,10.0,260,10,,10.0,30.0,,,,,,,,,,,BKN,3000,,,,,,,MVFR,,,,,,,,,,,,METAR,117.0
KAEG 122047Z VRB05KT 10SM BKN037 BKN046 04/M02 A3017,KAEG,2019-01-12T20:47:00Z,35.13,-106.8,4.0,-2.0,0,5,,10.0,30.171259,,,,,,,,,,,BKN,3700,BKN,4600,,,,,VFR,,,,,,,,,,,,METAR,1779.0
KRHV 122047Z 17013KT 10SM BKN035 17/09 A2992,KRHV,2019-01-12T20:47:00Z,37.32,-121.82,17.0,9.0,170,13,,10.0,29.920275,,,,,,,,,,,BKN,3500,,,,,,,VFR,,,,,,,,,,,,METAR,41.0
KBVI 122047Z 13004KT 2SM -SN OVC023 M03/M06 A3035,KBVI,2019-01-12T20:47:00Z,40.77,-80.4,-3.0,-6.0,130,4,,2.0,30.351377,,,,,,,,,,-SN,OVC,2300,,,,,,,IFR,,,,,,,,,,,,METAR,382.0
KOMN 122047Z 10008KT 10SM SCT070 22/13 A3019,KOMN,2019-01-12T20:47:00Z,29.3,-81.12,22.0,13.0,100,8,,10.0,30.188976,,,,,,,,,,,SCT,7000,,,,,,,VFR,,,,,,,,,,,,METAR,9.0
KTIX 122047Z 13007KT 7SM SCT070 25/13 A3018,KTIX,2019-01-12T20:47:00Z,28.5,-80.8,25.0,13.0,130,7,,7.0,30.180119,,,,,,,,,,,SCT,7000,,,,,,,VFR,,,,,,,,,,,,METAR,11.0
KIWA 122047Z 13009KT 45SM BKN150 19/00 A3001,KIWA,2019-01-12T20:47:00Z,33.3,-111.65,19.0,0.0,130,9,,45.0,30.008858,,,,,,,,,,,BKN,15000,,,,,,,VFR,,,,,,,,,,,,METAR,412.0
KCWA 122047Z 06015KT 3SM BR OVC006 M03/M03 A3040,KCWA,2019-01-12T20:47:00Z,44.78,-89.67,-3.0,-3.0,60,15,,3.0,30.398623,,,,,,,,,,BR,OVC,600,,,,,,,IFR,,,,,,,,,,,,METAR,389.0
KPAO 122047Z 36005KT 10SM BKN050 15/ A2995,KPAO,2019-01-12T20:47:00Z,37.47,-122.12,15.0,,360,5,,10.0,29.949802,,,,,,,,,,,BKN,5000,,,,,,,VFR,,,,,,,,,,,,METAR,2.0
KCQT 122047Z AUTO 10004KT 10SM SCT017 OVC025 15/11 A2999 RMK AO2 SLP156 60022 T01500106 58022,KCQT,2019-01-12T20:47:00Z,34.02,-118.28,15.0,10.6,100,4,,10.0,29.991142,1015.6,,TRUE,TRUE,,,,,,,SCT,1700,OVC,2500,,,,,MVFR,-2.2,,,,,,0.22,,,,,METAR,56.0
PAKU 122047Z 26005KT 7SM R24/P6000FT FEW020 M39/M43 A3039,PAKU,2019-01-12T20:47:00Z,70.32,-149.58,-39.0,-43.0,260,5,,7.0,30.389763,,,,,,,,,,,FEW,2000,,,,,,,VFR,,,,,,,,,,,,METAR,2.0
KFDK 122047Z 00000KT 6SM BR BKN055 OVC050 01/M04 A3050,KFDK,2019-01-12T20:47:00Z,39.42,-77.37,1.0,-4.0,0,0,,6.0,30.499016,,,,,,,,,,BR,BKN,5500,OVC,5000,,,,,VFR,,,,,,,,,,,,METAR,92.0
KEVB 122047Z 12009KT 10SM SCT050 23/13 A3020,KEVB,2019-01-12T20:47:00Z,29.05,-80.95,23.0,13.0,120,9,,10.0,30.200787,,,,,,,,,,,SCT,5000,,,,,,,VFR,,,,,,,,,,,,METAR,3.0
KGYH 122047Z 04012KT 10SM OVC036 04/M05 A3030,KGYH,2019-01-12T20:47:00Z,34.75,-82.38,4.0,-5.0,40,12,,10.0,30.301182,,,,,,,,,,,OVC,3600,,,,,,,VFR,,,,,,,,,,,,METAR,292.0
KSQL 122047Z 05005KT 10SM SCT050 14/10 A2995,KSQL,2019-01-12T20:47:00Z,37.52,-122.25,14.0,10.0,50,5,,10.0,29.949802,,,,,,,,,,,SCT,5000,,,,,,,VFR,,,,,,,,,,,,METAR,1.0
KTOA 122047Z 00000KT 10SM SCT013 BKN016 14/11 A2999,KTOA,2019-01-12T20:47:00Z,33.78,-118.32,14.0,11.0,0,0,,10.0,29.991142,,,,,,,,,,,SCT,1300,BKN,1600,,,,,MVFR,,,,,,,,,,,,METAR,31.0
KPOC 122047Z 36006KT 3SM -RA SCT028 BKN034 BKN048 09/08 A3001,KPOC,2019-01-12T20:47:00Z,34.1,-117.77,9.0,8.0,360,6,,3.0,30.008858,,,,,,,,,,-RA,SCT,2800,BKN,3400,BKN,4800,,,MVFR,,,,,,,,,,,,SPECI,308.0
MMPB 122047Z 33003KT 8SM SCT025TCU BKN090 20/05 A3026 RMK 8/230 PCPN E HZY,MMPB,2019-01-12T20:47:00Z,19.17,-98.37,20.0,5.0,330,3,,8.0,30.259842,,,,,,,,,,,SCT,2500,BKN,9000,,,,,VFR,,,,,,,,,,,,METAR,2244.0
MMPA 122047Z 02006KT 6SM SCT030 BKN080 25/21 A2997 RMK SLP141 57013 926 8/530 HZY,MMPA,2019-01-12T20:47:00Z,20.5,-97.47,25.0,21.0,20,6,,6.0,29.970472,1014.1,,,,,,,,,,SCT,3000,BKN,8000,,,,,VFR,-1.3,,,,,,,,,,,METAR,142.0
MMTJ 122047Z 28006KT 6SM BKN015 14/12 A3002 RMK SLP178 57020 968 8/700 HZY,MMTJ,2019-01-12T20:47:00Z,32.53,-116.97,14.0,12.0,280,6,,6.0,30.02067,1017.8,,,,,,,,,,BKN,1500,,,,,,,MVFR,-2.0,,,,,,,,,,,METAR,152.0
MMCP 122046Z 35010KT 7SM FEW040 27/19 A2998 RMK SLP140 57024 952 8/100,MMCP,2019-01-12T20:46:00Z,19.82,-90.5,27.0,19.0,350,10,,7.0,29.97933,1014.0,,,,,,,,,,FEW,4000,,,,,,,VFR,-2.4,,,,,,,,,,,METAR,5.0
KNQX 122046Z 10011KT 10SM SCT029 SCT050 BKN250 26/18 A3011 RMK T02610183,KNQX,2019-01-12T20:46:00Z,24.57,-81.67,26.1,18.3,100,11,,10.0,30.109253,,,,,,,,,,,SCT,2900,SCT,5000,BKN,25000,,,VFR,,,,,,,,,,,,SPECI,2.0
MMMA 122046Z 01006KT 8SM FEW020 26/14 A3004 RMK SLP170 56018 936 8/100,MMMA,2019-01-12T20:46:00Z,25.77,-97.52,26.0,14.0,10,6,,8.0,30.041338,1017.0,,,,,,,,,,FEW,2000,,,,,,,VFR,-1.8,,,,,,,,,,,METAR,8.0
LHUD 122045Z 25007KT 9999 -RA OVC023 01/M00 Q1014,LHUD,2019-01-12T20:45:00Z,46.25,20.1,1.0,0.0,250,7,,6.21,29.940945,,,,,,,,,,-RA,OVC,2300,,,,,,,MVFR,,,,,,,,,,,,METAR,84.0
LHPR 122045Z AUTO 30016KT CAVOK 04/M00 Q1012 RMK BLU,LHPR,2019-01-12T20:45:00Z,47.63,17.82,4.0,0.0,300,16,,6.21,29.88189,,,TRUE,,,,,,,,CAVOK,,,,,,,,VFR,,,,,,,,,,,,METAR,129.0
LHPA 122045Z 23006KT CAVOK 03/M00 Q1013 NOSIG RMK BLU,LHPA,2019-01-12T20:45:00Z,47.35,17.5,3.0,0.0,230,6,,6.21,29.911417,,,,,,TRUE,,,,,CAVOK,,,,,,,,VFR,,,,,,,,,,,,METAR,148.0
KMWA 122045Z 33010KT 7SM -RA SCT024 BKN029 OVC060 02/01 A3000,KMWA,2019-01-12T20:45:00Z,37.77,-89.02,2.0,1.0,330,10,,7.0,30.0,,,,,,,,,,-RA,SCT,2400,BKN,2900,OVC,6000,,,MVFR,,,,,,,,,,,,METAR,144.0
KBAK 122045Z 09005KT 7SM OVC028 00/M01 A3019,KBAK,2019-01-12T20:45:00Z,39.27,-85.9,0.0,-1.0,90,5,,7.0,30.188976,,,,,,,,,,,OVC,2800,,,,,,,MVFR,,,,,,,,,,,,METAR,200.0
LHSN 122045Z 23006KT 9999 FEW020 OVC060 01/M00 Q1012 NOSIG RMK BLU,LHSN,2019-01-12T20:45:00Z,47.12,20.23,1.0,0.0,230,6,,6.21,29.88189,,,,,,TRUE,,,,,FEW,2000,OVC,6000,,,,,VFR,,,,,,,,,,,,METAR,98.0
LHKE 122045Z 25004KT 9999 BKN045 02/00 Q1013 NOSIG RMK BLU,LHKE,2019-01-12T20:45:00Z,46.92,19.75,2.0,0.0,250,4,,6.21,29.911417,,,,,,TRUE,,,,,BKN,4500,,,,,,,VFR,,,,,,,,,,,,METAR,115.0
LMML 122045Z 36012KT 9999 FEW035 09/01 Q1018 NOSIG,LMML,2019-01-12T20:45:00Z,35.85,14.47,9.0,1.0,360,12,,6.21,30.059055,,,,,,TRUE,,,,,FEW,3500,,,,,,,VFR,,,,,,,,,,,,METAR,91.0
KJVL 122045Z 07012KT 1SM -SN OVC009 M01/M01 A3030,KJVL,2019-01-12T20:45:00Z,42.62,-89.05,-1.0,-1.0,70,12,,1.0,30.301182,,,,,,,,,,-SN,OVC,900,,,,,,,IFR,,,,,,,,,,,,METAR,246.0
KGYY 122045Z COR 13014KT 3/4SM R30/4500FT -SN OVC007 M01/M02 A3030,KGYY,2019-01-12T20:45:00Z,41.62,-87.42,-1.0,-2.0,130,14,,0.75,30.301182,,TRUE,,,,,,,,-SN,OVC,700,,,,,,,LIFR,,,,,,,,,,,,SPECI,180.0
SBPK 122045Z 09012KT 8000 -RA FEW010 BKN020 OVC100 21/20 Q1015,SBPK,2019-01-12T20:45:00Z,-31.72,-52.33,21.0,20.0,90,12,,4.97,29.970472,,,,,,,,,,-RA,FEW,1000,BKN,2000,OVC,10000,,,MVFR,,,,,,,,,,,,SPECI,13.0
KMWC 122045Z 09007G15KT 10SM OVC024 00/M06 A3037,KMWC,2019-01-12T20:45:00Z,43.12,-88.03,0.0,-6.0,90,7,15,10.0,30.369095,,,,,,,,,,,OVC,2400,,,,,,,MVFR,,,,,,,,,,,,METAR,227.0
KATW 122045Z 07009G17KT 10SM OVC014 M01/M06 A3039,KATW,2019-01-12T20:45:00Z,44.27,-88.52,-1.0,-6.0,70,9,17,10.0,30.389763,,,,,,,,,,,OVC,1400,,,,,,,MVFR,,,,,,,,,,,,METAR,280.0
KMER 122045Z 00000KT 5SM HZ SKC 15/15 A3000,KMER,2019-01-12T20:45:00Z,37.38,-120.57,15.0,15.0,0,0,,5.0,30.0,,,,,,,,,,HZ,SKC,,,,,,,,MVFR,,,,,,,,,,,,METAR,57.0
KSAW 122045Z 06004KT 10SM OVC041 M05/M11 A3049,KSAW,2019-01-12T20:45:00Z,46.35,-87.4,-5.0,-11.0,60,4,,10.0,30.490158,,,,,,,,,,,OVC,4100,,,,,,,VFR,,,,,,,,,,,,METAR,372.0
KRYN 122045Z 12009KT 10SM CLR 19/00 A3001,KRYN,2019-01-12T20:45:00Z,32.15,-111.17,19.0,0.0,120,9,,10.0,30.008858,,,,,,,,,,,CLR,,,,,,,,VFR,,,,,,,,,,,,METAR,737.0
KCGF 122045Z 08006KT 20SM BKN080 OVC150 M02/M09 A3036,KCGF,2019-01-12T20:45:00Z,41.57,-81.47,-2.0,-9.0,80,6,,20.0,30.360237,,,,,,,,,,,BKN,8000,OVC,15000,,,,,VFR,,,,,,,,,,,,METAR,268.0
KANE 122045Z 08008KT 10SM OVC050 M01/M05 A3037,KANE,2019-01-12T20:45:00Z,45.15,-93.22,-1.0,-5.0,80,8,,10.0,30.369095,,,,,,,,,,,OVC,5000,,,,,,,VFR,,,,,,,,,,,,METAR,278.0
PHJH 122045Z 05008KT 10SM SCT030 BKN045 24/18 A3005,PHJH,2019-01-12T20:45:00Z,20.97,-156.67,24.0,18.0,50,8,,10.0,30.050198,,,,,,,,,,,SCT,3000,BKN,4500,,,,,VFR,,,,,,,,,,,,METAR,78.0
KMHR 122045Z 13010KT 10SM SKC 16/06 A2998,KMHR,2019-01-12T20:45:00Z,38.53,-121.28,16.0,6.0,130,10,,10.0,29.97933,,,,,,,,,,,SKC,,,,,,,,VFR,,,,,,,,,,,,METAR,29.0
KGYI 122045Z 30012G19KT 10SM OVC024 06/02 A3009,KGYI,2019-01-12T20:45:00Z,33.72,-96.67,6.0,2.0,300,12,19,10.0,30.088583,,,,,,,,,,,OVC,2400,,,,,,,MVFR,,,,,,,,,,,,METAR,228.0
KEMT 122045Z 05008KT 10SM FEW025 BKN065 12/10 A3001,KEMT,2019-01-12T20:45:00Z,34.07,-118.02,12.0,10.0,50,8,,10.0,30.008858,,,,,,,,,,,FEW,2500,BKN,6500,,,,,VFR,,,,,,,,,,,,METAR,90.0
KUES 122045Z 07008G15KT 7SM OVC022 M02/M06 A3035,KUES,2019-01-12T20:45:00Z,43.05,-88.25,-2.0,-6.0,70,8,15,7.0,30.351377,,,,,,,,,,,OVC,2200,,,,,,,MVFR,,,,,,,,,,,,METAR,278.0
KESN 122045Z 00000KT 10SM OVC120 01/M12 A3054,KESN,2019-01-12T20:45:00Z,38.8,-76.07,1.0,-12.0,0,0,,10.0,30.540354,,,,,,,,,,,OVC,12000,,,,,,,VFR,,,,,,,,,,,,METAR,22.0
KBBG 122045Z 00000KT 1SM BR OVC003 02/02 A2991,KBBG,2019-01-12T20:45:00Z,36.53,-93.2,2.0,2.0,0,0,,1.0,29.911417,,,,,,,,,,BR,OVC,300,,,,,,,LIFR,,,,,,,,,,,,METAR,397.0
KSWF 122045Z AUTO 29005KT 10SM BKN070 M02/M10 A3047,KSWF,2019-01-12T20:45:00Z,41.5,-74.08,-2.0,-10.0,290,5,,10.0,30.469488,,,TRUE,,,,,,,,BKN,7000,,,,,,,VFR,,,,,,,,,,,,METAR,150.0
KGNB 122045Z AUTO 00000KT 10SM CLR M04/M10 A3014 RMK AO2 T10421096,KGNB,2019-01-12T20:45:00Z,40.08,-105.92,-4.2,-9.6,0,0,,10.0,30.138779,,,TRUE,TRUE,,,,,,,CLR,,,,,,,,VFR,,,,,,,,,,,,METAR,2500.0
MMPS 122045Z 19010KT 6SM FEW010 30/22 A2999 RMK 8/100 HZY,MMPS,2019-01-12T20:45:00Z,15.87,-97.07,30.0,22.0,190,10,,6.0,29.991142,,,,,,,,,,,FEW,1000,,,,,,,VFR,,,,,,,,,,,,METAR,88.0
MMMX 122045Z 20004KT 5SM BKN020TCU BKN080 21/04 A3027 NOSIG RMK SLP084 57031 910 8/230 HZY DSNT CB E,MMMX,2019-01-12T20:45:00Z,19.42,-99.08,21.0,4.0,200,4,,5.0,30.268702,1008.4,,,,,TRUE,,,,,BKN,2000,BKN,8000,,,,,MVFR,-3.1,,,,,,,,,,,METAR,2238.0
MMMZ 122045Z 25006KT 15SM SKC 28/18 A2995 RMK SLP138 57030 903 ISOL CU 1QUAD,MMMZ,2019-01-12T20:45:00Z,23.17,-106.27,28.0,18.0,250,6,,15.0,29.949802,1013.8,,,,,,,,,,SKC,,,,,,,,VFR,-3.0,,,,,,,,,,,METAR,10.0
MMGM 122045Z 27008KT 10SM SKC 24/15 A2994,MMGM,2019-01-12T20:45:00Z,27.95,-110.92,24.0,15.0,270,8,,10.0,29.940945,,,,,,,,,,,SKC,,,,,,,,VFR,,,,,,,,,,,,METAR,20.0
MMZC 122045Z 00000KT 10SM BKN030 17/02 A3023 RMK 8/100,MMZC,2019-01-12T20:45:00Z,22.9,-102.68,17.0,2.0,0,0,,10.0,30.230314,,,,,,,,,,,BKN,3000,,,,,,,MVFR,,,,,,,,,,,,METAR,2177.0
MMMM 122045Z 29006KT 8SM SCT030TCU 22/11 A3019 RMK SLP122 57017 921 8/200,MMMM,2019-01-12T20:45:00Z,19.85,-101.02,22.0,11.0,290,6,,8.0,30.188976,1012.2,,,,,,,,,,SCT,3000,,,,,,,VFR,-1.7,,,,,,,,,,,METAR,1833.0
MMLO 122045Z 00000KT 10SM BKN030 23/07 A3026 RMK SLP135 57028 903 8/500,MMLO,2019-01-12T20:45:00Z,21.0,-101.47,23.0,7.0,0,0,,10.0,30.259842,1013.5,,,,,,,,,,BKN,3000,,,,,,,MVFR,-2.8,,,,,,,,,,,METAR,1819.0
MMTC 122045Z 00000KT 10SM SKC 22/05 A3013 RMK SLP153 55048 913,MMTC,2019-01-12T20:45:00Z,25.57,-103.4,22.0,5.0,0,0,,10.0,30.129921,1015.3,,,,,,,,,,SKC,,,,,,,,VFR,-4.8,,,,,,,,,,,METAR,1124.0
KBOW 122045Z 12008KT 10SM SCT050 23/12 A3015,KBOW,2019-01-12T20:45:00Z,27.93,-81.77,23.0,12.0,120,8,,10.0,30.15059,,,,,,,,,,,SCT,5000,,,,,,,VFR,,,,,,,,,,,,METAR,39.0
LIRP 122045Z 15002KT 9999 FEW035 01/00 Q1017 NOSIG,LIRP,2019-01-12T20:45:00Z,43.67,10.37,1.0,0.0,150,2,,6.21,30.029528,,,,,,TRUE,,,,,FEW,3500,,,,,,,VFR,,,,,,,,,,,,METAR,2.0
PPNU 122045Z AUTO 24004KT 2 1/2SM OVC003 M39/M43 A3039 RMK AO1,PPNU,2019-01-12T20:45:00Z,70.42,-150.03,-39.0,-43.0,240,4,,2.5,30.389763,,,TRUE,TRUE,,,,,,,OVC,300,,,,,,,LIFR,,,,,,,,,,,,METAR,27.0
KMMU 122045Z 30005KT 10SM BKN120 00/M13 A3049,KMMU,2019-01-12T20:45:00Z,40.78,-74.42,0.0,-13.0,300,5,,10.0,30.490158,,,,,,,,,,,BKN,12000,,,,,,,VFR,,,,,,,,,,,,METAR,57.0
MMAA 122044Z 26010KT 8SM SKC 29/23 A2986 RMK SLP107 57028 955 HZY DSNT TCU NE NW,MMAA,2019-01-12T20:44:00Z,16.75,-99.75,29.0,23.0,260,10,,8.0,29.861221,1010.7,,,,,,,,,,SKC,,,,,,,,VFR,-2.8,,,,,,,,,,,METAR,5.0
MMSL 122044Z 14010KT 10SM SKC 24/16 A3003 RMK CU,MMSL,2019-01-12T20:44:00Z,22.95,-109.93,24.0,16.0,140,10,,10.0,30.029528,,,,,,,,,,,SKC,,,,,,,,VFR,,,,,,,,,,,,METAR,140.0
KVBG 122043Z AUTO 17008KT 10SM BKN019 BKN029 OVC044 15/10 A2999 RMK AO2 CIG 019V044 SLP159 $,KVBG,2019-01-12T20:43:00Z,34.73,-120.58,15.0,10.0,170,8,,10.0,29.991142,1015.9,,TRUE,TRUE,TRUE,,,,,,BKN,1900,BKN,2900,OVC,4400,,,MVFR,,,,,,,,,,,,SPECI,112.0
MMVR 122043Z 11008KT 7SM FEW018 26/19 A2998 RMK SLP132 57022 910 8/100 HZY,MMVR,2019-01-12T20:43:00Z,19.15,-96.18,26.0,19.0,110,8,,7.0,29.97933,1013.2,,,,,,,,,,FEW,1800,,,,,,,VFR,-2.2,,,,,,,,,,,METAR,16.0
MMSP 122043Z 00000KT 15SM SCT030TCU BKN080 22/07 A3020 RMK SLP123 57019 923 8/230,MMSP,2019-01-12T20:43:00Z,22.25,-100.93,22.0,7.0,0,0,,15.0,30.200787,1012.3,,,,,,,,,,SCT,3000,BKN,8000,,,,,VFR,-1.9,,,,,,,,,,,METAR,1903.0
MMOX 122042Z 12007KT 12SM SCT040 BKN120 BKN210 28/03 A3012 RMK SLP083 57033 957 8/436 FU S SW,MMOX,2019-01-12T20:42:00Z,17.0,-96.72,28.0,3.0,120,7,,12.0,30.121063,1008.3,,,,,,,,,,SCT,4000,BKN,12000,BKN,21000,,,VFR,-3.3,,,,,,,,,,,METAR,1528.0
MMLT 122042Z 00000KT 10SM FEW240 23/19 A2996 RMK SLP146 8/002,MMLT,2019-01-12T20:42:00Z,26.02,-111.33,23.0,19.0,0,0,,10.0,29.958662,1014.6,,,,,,,,,,FEW,24000,,,,,,,VFR,,,,,,,,,,,,METAR,15.0
MMDO 122042Z 24002KT 14SM FEW020 19/M04 A3020 RMK SLP146 57003 918 8/500,MMDO,2019-01-12T20:42:00Z,24.12,-104.52,19.0,-4.0,240,2,,14.0,30.200787,1014.6,,,,,,,,,,FEW,2000,,,,,,,VFR,-0.3,,,,,,,,,,,METAR,1857.0
MMUN 122041Z 12006KT 7SM FEW015 SCT018 26/16 A3004 RMK SLP173 57019 901 8/800,MMUN,2019-01-12T20:41:00Z,21.02,-86.85,26.0,16.0,120,6,,7.0,30.041338,1017.3,,,,,,,,,,FEW,1500,SCT,1800,,,,,VFR,-1.9,,,,,,,,,,,METAR,10.0
MMCM 122041Z 13007KT 7SM SCT020 27/19 A2999 RMK SLP157 5//// 953 8/100,MMCM,2019-01-12T20:41:00Z,18.5,-88.33,27.0,19.0,130,7,,7.0,29.991142,1015.7,,,,,,,,,,SCT,2000,,,,,,,VFR,,,,,,,,,,,,METAR,12.0
KCVS 122041Z AUTO 01014KT 10SM SCT039 09/M02 A3019 RMK AO2 SLP220 $,KCVS,2019-01-12T20:41:00Z,34.37,-103.32,9.0,-2.0,10,14,,10.0,30.188976,1022.0,,TRUE,TRUE,TRUE,,,,,,SCT,3900,,,,,,,VFR,,,,,,,,,,,,SPECI,1309.0
MMTM 122041Z E03006KT 6SM FEW012 SCT200 25/21 A3000 RMK SLP160 52029 930 8/101 HZY,MMTM,2019-01-12T20:41:00Z,22.27,-97.87,25.0,21.0,30,6,,6.0,30.0,1016.0,,,,,,,,,,FEW,1200,SCT,20000,,,,,VFR,2.9,,,,,,,,,,,METAR,24.0
MMSD 122041Z 13015KT 12SM SKC 25/13 A2999 RMK SLP142 57032 906 CU,MMSD,2019-01-12T20:41:00Z,23.13,-109.7,25.0,13.0,130,15,,12.0,29.991142,1014.2,,,,,,,,,,SKC,,,,,,,,VFR,-3.2,,,,,,,,,,,METAR,109.0
MMLP 122041Z 34008KT 10SM SKC 23/15 A3001 RMK SLP160 57033 901 ISOL SC,MMLP,2019-01-12T20:41:00Z,24.07,-110.37,23.0,15.0,340,8,,10.0,30.008858,1016.0,,,,,,,,,,SKC,,,,,,,,VFR,-3.3,,,,,,,,,,,METAR,21.0
MMLM 122041Z VRB03KT 10SM SKC 26/09 A3000 RMK SLP1510 HZY,MMLM,2019-01-12T20:41:00Z,25.67,-109.07,26.0,9.0,0,3,,10.0,30.0,1015.1,,,,,,,,,,SKC,,,,,,,,VFR,,,,,,,,,,,,METAR,4.0
MMZO 122041Z 26010KT 10SM FEW020 29/22 A2990 RMK SLP/// 5//// 9// 8/100,MMZO,2019-01-12T20:41:00Z,19.13,-104.57,29.0,22.0,260,10,,10.0,29.899607,,,,,,,,,,,FEW,2000,,,,,,,VFR,,,,,,,,,,,,METAR,8.0
KC99 122041Z AUTO 00000KT 7SM SCT007 OVC016 A3010 RMK AO2 P0001,KC99,2019-01-12T20:41:00Z,29.87,-105.55,,,0,0,,7.0,30.100393,,,TRUE,TRUE,,,,,,,SCT,700,OVC,1600,,,,,MVFR,,,,,,0.01,,,,,,SPECI,3320.0
MMVA 122040Z 00000KT 8SM SCT015 27/19 A2997 RMK SLP146 57024 960 8/100 HZY,MMVA,2019-01-12T20:40:00Z,18.0,-92.82,27.0,19.0,0,0,,8.0,29.970472,1014.6,,,,,,,,,,SCT,1500,,,,,,,VFR,-2.4,,,,,,,,,,,METAR,13.0
MMTP 122040Z 27007KT 10SM FEW030 31/23 A2987 RMK SLP139 57029 902 8/200,MMTP,2019-01-12T20:40:00Z,14.77,-92.37,31.0,23.0,270,7,,10.0,29.870079,1013.9,,,,,,,,,,FEW,3000,,,,,,,VFR,-2.9,,,,,,,,,,,METAR,29.0
MMTG 122040Z 31010KT 8SM FEW017 32/14 A2991 RMK SLP095 57037 959 8/100,MMTG,2019-01-12T20:40:00Z,16.57,-93.03,32.0,14.0,310,10,,8.0,29.911417,1009.5,,,,,,,,,,FEW,1700,,,,,,,VFR,-3.7,,,,,,,,,,,METAR,528.0
MMMT 122040Z 01012KT 7SM SCT040 26/21 A2992 RMK SLP207 57060 900 8/100,MMMT,2019-01-12T20:40:00Z,18.1,-94.57,26.0,21.0,10,12,,7.0,29.920275,1020.7,,,,,,,,,,SCT,4000,,,,,,,VFR,-6.0,,,,,,,,,,,METAR,40.0
MMCE 122040Z 11006KT 7SM FEW015 29/19 A2996 RMK SLP142 57021 958 8/100,MMCE,2019-01-12T20:40:00Z,18.65,-91.8,29.0,19.0,110,6,,7.0,29.958662,1014.2,,,,,,,,,,FEW,1500,,,,,,,VFR,-2.1,,,,,,,,,,,METAR,2.0
MMIO 122040Z 00000KT 10SM SKC 20/13 A3020,MMIO,2019-01-12T20:40:00Z,25.55,-100.93,20.0,13.0,0,0,,10.0,30.200787,,,,,,,,,,,SKC,,,,,,,,VFR,,,,,,,,,,,,METAR,1790.0
KJSL 122040Z AUTO 22012G18KT 10SM CLR 24/16 A3005 RMK A01,KJSL,2019-01-12T20:40:00Z,26.23,-95.25,24.0,16.0,220,12,18,10.0,30.050198,,,TRUE,TRUE,,,,,,,CLR,,,,,,,,VFR,,,,,,,,,,,,METAR,10.0
KGZN 122040Z AUTO 32019G26KT 10SM OVC032 08/00 A3016 RMK AO2,KGZN,2019-01-12T20:40:00Z,32.37,-99.02,8.0,0.0,320,19,26,10.0,30.159449,,,TRUE,TRUE,,,,,,,OVC,3200,,,,,,,VFR,,,,,,,,,,,,SPECI,522.0
MMZH 122040Z 24010KT 7SM SKC 31/23 A2988 RMK SLP113 57027 900,MMZH,2019-01-12T20:40:00Z,17.6,-101.47,31.0,23.0,240,10,,7.0,29.878937,1011.3,,,,,,,,,,SKC,,,,,,,,VFR,-2.7,,,,,,,,,,,METAR,6.0
MMBT 122040Z 00000KT 7SM BKN020TCU 29/22 A2992 RMK 8/200,MMBT,2019-01-12T20:40:00Z,15.77,-96.27,29.0,22.0,0,0,,7.0,29.920275,,,,,,,,,,,BKN,2000,,,,,,,MVFR,,,,,,,,,,,,METAR,143.0
MMHO 122040Z 20010KT 10SM FEW200 25/09 A3000 RMK SLP160 57037 957 8/001,MMHO,2019-01-12T20:40:00Z,29.08,-111.05,25.0,9.0,200,10,,10.0,30.0,1016.0,,,,,,,,,,FEW,20000,,,,,,,VFR,-3.7,,,,,,,,,,,METAR,184.0
MMCN 122040Z 25005KT 10SM FEW200 26/10 A2997 RMK SLP149 8/001 ISOL CU,MMCN,2019-01-12T20:40:00Z,27.4,-109.83,26.0,10.0,250,5,,10.0,29.970472,1014.9,,,,,,,,,,FEW,20000,,,,,,,VFR,,,,,,,,,,,,METAR,43.0
MMPN 122040Z 20010KT 10SM SCT040CB 21/13 A3016 RMK SLP/// 5//// 9// 8/300 HZY AC ACSL,MMPN,2019-01-12T20:40:00Z,19.38,-102.02,21.0,13.0,200,10,,10.0,30.159449,,,,,,,,,,,SCT,4000,,,,,,,VFR,,,,,,,,,,,,METAR,1593.0
MMPG 122040Z 31012G22KT 12SM SKC 19/06 A3015,MMPG,2019-01-12T20:40:00Z,28.65,-100.52,19.0,6.0,310,12,22,12.0,30.15059,,,,,,,,,,,SKC,,,,,,,,VFR,,,,,,,,,,,,METAR,250.0
MMNL 122040Z 33015KT 10SM SKC 22/07 A3009 RMK SLP181 56022 940,MMNL,2019-01-12T20:40:00Z,27.42,-99.57,22.0,7.0,330,15,,10.0,30.088583,1018.1,,,,,,,,,,SKC,,,,,,,,VFR,-2.2,,,,,,,,,,,SPECI,148.0
MMMY 122040Z 00000KT 15SM SKC 26/// A3004 RMK SLP/// 5//// 9// ISOL CU,MMMY,2019-01-12T20:40:00Z,25.77,-100.08,,,0,0,,15.0,30.041338,,,,,,,,,,,SKC,,,,,,,,VFR,,,,,,,,,,,,SPECI,387.0
MMCV 122040Z 05010KT 10SM FEW012 28/09 A3003 RMK SLP159 57027 940 8/100 HZY SC,MMCV,2019-01-12T20:40:00Z,23.72,-98.97,28.0,9.0,50,10,,10.0,30.029528,1015.9,,,,,,,,,,FEW,1200,,,,,,,VFR,-2.7,,,,,,,,,,,METAR,238.0
MMCU 122040Z 08010KT 10SM FEW200 16/00 A3015 RMK SLP184 57020 921 8/001,MMCU,2019-01-12T20:40:00Z,28.7,-105.97,16.0,0.0,80,10,,10.0,30.15059,1018.4,,,,,,,,,,FEW,20000,,,,,,,VFR,-2.0,,,,,,,,,,,SPECI,1372.0
MMCS 122040Z 06008KT 10SM SCT200 12/M03 A3017 RMK SLP182 57033 941 8/001,MMCS,2019-01-12T20:40:00Z,31.62,-106.42,12.0,-3.0,60,8,,10.0,30.171259,1018.2,,,,,,,,,,SCT,20000,,,,,,,VFR,-3.3,,,,,,,,,,,METAR,1171.0
MMAN 122040Z 36007KT 15SM SKC 24/08 A3008 RMK SLP/// 5//// 9// ISOL SC,MMAN,2019-01-12T20:40:00Z,25.87,-100.23,24.0,8.0,360,7,,15.0,30.079725,,,,,,,,,,,SKC,,,,,,,,VFR,,,,,,,,,,,,SPECI,448.0
KMHV 122040Z AUTO 36014KT 10SM OVC036 06/04 A3002 RMK A01,KMHV,2019-01-12T20:40:00Z,35.07,-118.15,6.0,4.0,360,14,,10.0,30.02067,,,TRUE,TRUE,,,,,,,OVC,3600,,,,,,,VFR,,,,,,,,,,,,SPECI,849.0
KAMN 122038Z AUTO 07010KT 10SM OVC060 M01/M09 A3043 RMK AO2,KAMN,2019-01-12T20:38:00Z,43.32,-84.68,-1.0,-9.0,70,10,,10.0,30.431103,,,TRUE,TRUE,,,,,,,OVC,6000,,,,,,,VFR,,,,,,,,,,,,METAR,230.0
KSQI 122036Z AUTO 07013KT 3/4SM -SN BR BKN006 OVC009 M01/M02 A3025 RMK AO2 P0001 FZRANO RVRNO,KSQI,2019-01-12T20:36:00Z,41.75,-89.67,-1.0,-2.0,70,13,,0.75,30.250984,,,TRUE,TRUE,,,,TRUE,,-SN BR,BKN,600,OVC,900,,,,,LIFR,,,,,,0.01,,,,,,METAR,197.0
KSFY 122035Z AUTO 06013KT 1/2SM -SN OVC008 M01/M02 A3026 RMK AO2,KSFY,2019-01-12T20:35:00Z,42.05,-90.12,-1.0,-2.0,60,13,,0.5,30.259842,,,TRUE,TRUE,,,,,,-SN,OVC,800,,,,,,,LIFR,,,,,,,,,,,,SPECI,188.0
KCPC 122035Z AUTO 02005KT 10SM OVC070 08/M04 A3037 RMK AO2 T00751038,KCPC,2019-01-12T20:35:00Z,34.28,-78.72,7.5,-3.8,20,5,,10.0,30.369095,,,TRUE,TRUE,,,,,,,OVC,7000,,,,,,,VFR,,,,,,,,,,,,SPECI,29.0
KARW 122035Z AUTO 07009KT 7SM SCT014 OVC070 12/10 A3029 RMK AO2,KARW,2019-01-12T20:35:00Z,32.42,-80.63,12.0,10.0,70,9,,7.0,30.28937,,,TRUE,TRUE,,,,,,,SCT,1400,OVC,7000,,,,,VFR,,,,,,,,,,,,SPECI,4.0
KMBS 122033Z 07011KT 10SM BKN022 OVC065 M01/M06 A3045 RMK AO2 T10111056,KMBS,2019-01-12T20:33:00Z,43.53,-84.08,-1.1,-5.6,70,11,,10.0,30.448818,,,,TRUE,,,,,,,BKN,2200,OVC,6500,,,,,MVFR,,,,,,,,,,,,SPECI,202.0
VEBN 122030Z VRB02KT 1300 BR NSC 12/09 Q1016 NOSIG,VEBN,2019-01-12T20:30:00Z,25.45,82.85,12.0,9.0,0,2,,0.81,30.0,,,,,,TRUE,,,,BR,CLR,,,,,,,,LIFR,,,,,,,,,,,,METAR,83.0
LEVD 122030Z 07005KT 030V100 CAVOK 01/00 Q1031,LEVD,2019-01-12T20:30:00Z,41.72,-4.83,1.0,0.0,70,5,,6.21,30.442913,,,,,,,,,,,CAVOK,,,,,,,,VFR,,,,,,,,,,,,METAR,854.0
DTMB 122030Z 26013KT 9999 FEW020 SCT040 09/03 Q1023 NOSIG,DTMB,2019-01-12T20:30:00Z,35.77,10.75,9.0,3.0,260,13,,6.21,30.206694,,,,,,TRUE,,,,,FEW,2000,SCT,4000,,,,,VFR,,,,,,,,,,,,METAR,2.0
UKLN 122030Z 24002MPS 180V300 CAVOK M02/M10 Q1009 R33/850340 NOSIG,UKLN,2019-01-12T20:30:00Z,48.27,25.98,-2.0,-10.0,240,4,,6.21,29.793306,,,,,,TRUE,,,,,CAVOK,,,,,,,,VFR,,,,,,,,,,,,METAR,252.0
EIWF 122030Z 33004KT CAVOK 08/07 Q1026,EIWF,2019-01-12T20:30:00Z,52.18,-7.08,8.0,7.0,330,4,,6.21,30.295275,,,,,,,,,,,CAVOK,,,,,,,,VFR,,,,,,,,,,,,METAR,36.0
KRIV 122028Z AUTO 16005KT 10SM FEW034 BKN041 OVC050 11/11 A2999 RMK AO2 RAB09E28 SLP155,KRIV,2019-01-12T20:28:00Z,33.87,-117.27,11.0,11.0,160,5,,10.0,29.991142,1015.5,,TRUE,TRUE,,,,,,,FEW,3400,BKN,4100,OVC,5000,,,VFR,,,,,,,,,,,,SPECI,469.0
KCWN 122028Z AUTO 00000KT 1SM -RASN OVC025 M02/M03 A3010 RMK AO2 SLP135 $,KCWN,2019-01-12T20:28:00Z,38.75,-104.85,-2.0,-3.0,0,0,,1.0,30.100393,1013.5,,TRUE,TRUE,TRUE,,,,,-RA -SN,OVC,2500,,,,,,,IFR,,,,,,,,,,,,SPECI,2040.0
KFCS 122027Z 26005KT 4SM -SN BKN028 02/M01 A3015 RMK AO2A SLP253 $,KFCS,2019-01-12T20:27:00Z,38.67,-104.77,2.0,-1.0,260,5,,4.0,30.15059,1025.3,,,TRUE,TRUE,,,,,-SN,BKN,2800,,,,,,,MVFR,,,,,,,,,,,,SPECI,1789.0
SAZR 122025Z 11015KT 9999 TSRA FEW040 FEW060CB 25/19 Q1010,SAZR,2019-01-12T20:25:00Z,-36.57,-64.27,25.0,19.0,110,15,,6.21,29.822834,,,,,,,,,,TSRA,FEW,4000,FEW,6000,,,,,VFR,,,,,,,,,,,,SPECI,191.0
OPLA 122025Z 00000KT 4000 FU NSC 09/07 Q1019 RMK QFE993 RMK A30.06,OPLA,2019-01-12T20:25:00Z,31.52,74.4,9.0,7.0,0,0,,2.49,30.088583,,,,,,,,,,FU,CLR,,,,,,,,IFR,,,,,,,,,,,,SPECI,217.0
EGHH 122020Z 29014KT 9999 BKN017 10/07 Q1022,EGHH,2019-01-12T20:20:00Z,50.78,-1.83,10.0,7.0,290,14,,6.21,30.177166,,,,,,,,,,,BKN,1700,,,,,,,MVFR,,,,,,,,,,,,METAR,11.0
LGKL 122020Z AUTO 33006KT //// // ////// 08/03 Q1006 RE//,LGKL,2019-01-12T20:20:00Z,37.07,22.02,8.0,3.0,330,6,,,29.704725,,,TRUE,,,,,,,,,,,,,,,,,,,,,,,,,,,,SPECI,8.0
ETHA 122020Z AUTO 26024KT //// // ////// 00/M01 Q1015 ///,ETHA,2019-01-12T20:20:00Z,47.82,10.87,0.0,-1.0,260,24,,,29.970472,,,TRUE,,,,,,,,,,,,,,,,,,,,,,,,,,,,METAR,760.0
ETHL 122020Z 24012KT 2000 SN BR SCT005 BKN011 00/M00 Q1016 YLO,ETHL,2019-01-12T20:20:00Z,48.22,9.92,0.0,0.0,240,12,,1.24,30.0,,,,,,,,,,SN BR,SCT,500,BKN,1100,,,,,IFR,,,,,,,,,,,,METAR,549.0
ETNN 122020Z AUTO 29012G22KT 3800 // ////// 07/05 Q1014 ///,ETNN,2019-01-12T20:20:00Z,50.82,6.67,7.0,5.0,290,12,22,2.36,29.940945,,,TRUE,,,,,,,,,,,,,,,,,,,,,,,,,,,,METAR,135.0
ETSB 122020Z AUTO 28008KT 6000 // ////// 04/03 Q1013 ///,ETSB,2019-01-12T20:20:00Z,50.17,7.07,4.0,3.0,280,8,,3.73,29.911417,,,TRUE,,,,,,,,,,,,,,,,,,,,,,,,,,,,METAR,486.0
ETSN 122020Z 24013G23KT 3600 SN SCT006 OVC010 01/00 Q1014 YLO,ETSN,2019-01-12T20:20:00Z,48.72,11.22,1.0,0.0,240,13,23,2.24,29.940945,,,,,,,,,,SN,SCT,600,OVC,1000,,,,,IFR,,,,,,,,,,,,METAR,387.0
ETSL 122020Z AUTO 22018KT 0700 // ////// 01/00 Q1015 ///,ETSL,2019-01-12T20:20:00Z,48.17,10.87,1.0,0.0,220,18,,0.43,29.970472,,,TRUE,,,,,,,,,,,,,,,,,,,,,,,,,,,,METAR,562.0
ETSI 122020Z AUTO 26017KT 1100 // ////// 01/00 Q1014 ///,ETSI,2019-01-12T20:20:00Z,48.72,11.52,1.0,0.0,260,17,,0.68,29.940945,,,TRUE,,,,,,,,,,,,,,,,,,,,,,,,,,,,METAR,370.0
ETGG 122020Z AUTO 31020KT //// // ////// 06/04 Q1001 ///,ETGG,2019-01-12T20:20:00Z,54.83,9.5,6.0,4.0,310,20,,,29.557087,,,TRUE,,,,,,,,,,,,,,,,,,,,,,,,,,,,METAR,33.0
ETHB 122020Z AUTO 29017G27KT 5000 // ////// 06/04 Q1008 ///,ETHB,2019-01-12T20:20:00Z,52.27,9.07,6.0,4.0,290,17,27,3.11,29.763779,,,TRUE,,,,,,,,,,,,,,,,,,,,,,,,,,,,METAR,78.0
ETHC 122020Z 26011KT 9999 BKN021 06/04 Q1006 WHT,ETHC,2019-01-12T20:20:00Z,52.6,10.02,6.0,4.0,260,11,,6.21,29.704725,,,,,,,,,,,BKN,2100,,,,,,,MVFR,,,,,,,,,,,,METAR,52.0
ETHF 122020Z VRB01KT 9999 FEW010 BKN020 BKN100 05/03 Q1010 WHT,ETHF,2019-01-12T20:20:00Z,51.12,9.27,5.0,3.0,0,1,,6.21,29.822834,,,,,,,,,,,FEW,1000,BKN,2000,BKN,10000,,,MVFR,,,,,,,,,,,,METAR,181.0
ETMN 122020Z 29017KT 9999 SCT012 BKN021 OVC035 06/05 Q1005 RERA WHT,ETMN,2019-01-12T20:20:00Z,53.77,8.67,6.0,5.0,290,17,,6.21,29.675198,,,,,,,,,,,SCT,1200,BKN,2100,OVC,3500,,,MVFR,,,,,,,,,,,,METAR,31.0
ETNH 122020Z 29017KT 6000 -RA BKN018 06/04 Q1002 WHT,ETNH,2019-01-12T20:20:00Z,54.32,9.55,6.0,4.0,290,17,,3.73,29.586615,,,,,,,,,,-RA,BKN,1800,,,,,,,MVFR,,,,,,,,,,,,METAR,17.0
ETNL 122020Z 27012KT 9999 FEW008 BKN014 06/04 Q1000 GRN,ETNL,2019-01-12T20:20:00Z,53.92,12.27,6.0,4.0,270,12,,6.21,29.52756,,,,,,,,,,,FEW,800,BKN,1400,,,,,MVFR,,,,,,,,,,,,METAR,40.0
ETNS 122020Z AUTO 29014KT 9999 // ////// 05/04 Q1002 ///,ETNS,2019-01-12T20:20:00Z,54.47,9.52,5.0,4.0,290,14,,6.21,29.586615,,,TRUE,,,,,,,,,,,,,,,,,,,,,,,,,,,,METAR,25.0
ETNT 122020Z AUTO 29018KT 7000 // ////// 07/05 Q1007 ///,ETNT,2019-01-12T20:20:00Z,53.53,7.67,7.0,5.0,290,18,,4.35,29.734253,,,TRUE,,,,,,,,,,,,,,,,,,,,,,,,,,,,METAR,12.0
ETWM 122020Z AUTO 27005KT 9999 // ////// 07/06 Q1009 ///,ETWM,2019-01-12T20:20:00Z,52.72,7.33,7.0,6.0,270,5,,6.21,29.793306,,,TRUE,,,,,,,,,,,,,,,,,,,,,,,,,,,,METAR,21.0
ETSH 122020Z 26014KT 9999 SCT017 BKN023 05/03 Q1006 WHT,ETSH,2019-01-12T20:20:00Z,51.77,13.17,5.0,3.0,260,14,,6.21,29.704725,,,,,,,,,,,SCT,1700,BKN,2300,,,,,MVFR,,,,,,,,,,,,METAR,79.0
ETNW 122020Z 28014KT 9999 SCT010 BKN035 06/04 Q1007 BLU,ETNW,2019-01-12T20:20:00Z,52.45,9.42,6.0,4.0,280,14,,6.21,29.734253,,,,,,,,,,,SCT,1000,BKN,3500,,,,,VFR,,,,,,,,,,,,METAR,70.0
ETHN 122020Z 25021KT 3500 -RASN BR BKN002 OVC007 01/M00 Q1013 AMB,ETHN,2019-01-12T20:20:00Z,49.38,9.97,1.0,0.0,250,21,,2.17,29.911417,,,,,,,,,,-RA -SN BR,BKN,200,OVC,700,,,,,LIFR,,,,,,,,,,,,METAR,473.0
KAFF 122016Z 36004KT 10SM SCT023 BKN042 OVC049 01/M04 A3015 RMK AO2A,KAFF,2019-01-12T20:16:00Z,38.97,-104.82,1.0,-4.0,360,4,,10.0,30.15059,,,,TRUE,,,,,,,SCT,2300,BKN,4200,OVC,4900,,,VFR,,,,,,,,,,,,SPECI,2003.0
K40B 122016Z AUTO 24007G14KT 180V300 M15/M20 A3023 RMK AO1 SLP289 T11501199 53023 P0006,K40B,2019-01-12T20:16:00Z,46.62,-69.52,-15.0,-19.9,240,7,14,,30.230314,1028.9,,TRUE,TRUE,,,,,,,,,,,,,,,,2.3,,,,,0.06,,,,,,SPECI,314.0
RJTE 122015Z 03008KT 4000 -RA BR FEW008 SCT012 BKN025 06/03 Q1017 RMK 1ST008 4SC012 5SC025 A3005,RJTE,2019-01-12T20:15:00Z,34.97,139.82,6.0,3.0,30,8,,2.49,30.029528,,,,,,,,,,-RA BR,FEW,800,SCT,1200,BKN,2500,,,IFR,,,,,,,,,,,,SPECI,6.0
KMYJ 122015Z AUTO 05007KT 1/2SM -SN OVC003 00/00 A3002 RMK AO2 P0003,KMYJ,2019-01-12T20:15:00Z,39.15,-91.82,0.0,0.0,50,7,,0.5,30.02067,,,TRUE,TRUE,,,,,,-SN,OVC,300,,,,,,,LIFR,,,,,,0.03,,,,,,METAR,251.0
KMUO 122013Z AUTO 14013KT 10SM FEW019 03/03 A3024 RMK AO2 SLP261 $,KMUO,2019-01-12T20:13:00Z,43.03,-115.87,3.0,3.0,140,13,,10.0,30.239174,1026.1,,TRUE,TRUE,TRUE,,,,,,FEW,1900,,,,,,,VFR,,,,,,,,,,,,SPECI,913.0
LTBI 122012Z 00000KT 9999 -RA BKN025 03/03 Q1008 NOSIG RMK RWY08 08004KT,LTBI,2019-01-12T20:12:00Z,39.77,30.57,3.0,3.0,0,0,,6.21,29.763779,,,,,,TRUE,,,,-RA,BKN,2500,,,,,,,MVFR,,,,,,,,,,,,METAR,785.0
KEWK 122011Z AUTO 36018G23KT 9SM UP OVC010 M01/M02 A3009 RMK AO2 PK WND 36028/2000 UPB04SNE04 CIG 007V014 P0000 FZRANO,KEWK,2019-01-12T20:11:00Z,38.03,-97.27,-1.0,-2.0,360,18,23,9.0,30.088583,,,TRUE,TRUE,,,,TRUE,,UP,OVC,1000,,,,,,,MVFR,,,,,,0.005,,,,,,METAR,467.0
VCBI 122010Z 03008KT 9000 SKC 24/21 Q1012 NOSIG,VCBI,2019-01-12T20:10:00Z,7.17,79.87,24.0,21.0,30,8,,5.59,29.88189,,,,,,TRUE,,,,,SKC,,,,,,,,VFR,,,,,,,,,,,,METAR,8.0
YBMK 122003Z AUTO 18006KT 9999 // ////// 24/23 Q1012,YBMK,2019-01-12T20:03:00Z,-21.17,149.17,24.0,23.0,180,6,,6.21,29.88189,,,TRUE,,,,,,,,,,,,,,,,,,,,,,,,,,,,METAR,31.0
KHEY 122002Z AUTO 13006KT 10SM FEW027 SCT034 BKN110 15/12 A3009 RMK AO2 RAE02 SLP192,KHEY,2019-01-12T20:02:00Z,31.35,-85.65,15.0,12.0,130,6,,10.0,30.088583,1019.2,,TRUE,TRUE,,,,,,,FEW,2700,SCT,3400,BKN,11000,,,VFR,,,,,,,,,,,,SPECI,97.0
KSSC 122001Z AUTO 05011KT 10SM -RA FEW080 07/M03 A3034 RMK AO2 RAB01 SLP278 TSNO $,KSSC,2019-01-12T20:01:00Z,33.97,-80.47,7.0,-3.0,50,11,,10.0,30.339567,1027.8,,TRUE,TRUE,TRUE,,TRUE,,,-RA,FEW,8000,,,,,,,VFR,,,,,,,,,,,,METAR,74.0
KCBM 122001Z AUTO 13011KT 4SM RA BR OVC003 10/09 A2995 RMK AO2 VIS 2 1/4 RWY13C OVC V BKN SLP145,KCBM,2019-01-12T20:01:00Z,33.63,-88.45,10.0,9.0,130,11,,4.0,29.949802,1014.5,,TRUE,TRUE,,,,,,RA BR,OVC,300,,,,,,,LIFR,,,,,,,,,,,,SPECI,67.0
