No errors
No warnings
609 ms
data source=metars
4734 results
raw_text,station_id,observation_time,latitude,longitude,temp_c,dewpoint_c,wind_dir_degrees,wind_speed_kt,wind_gust_kt,visibility_statute_mi,altim_in_hg,sea_level_pressure_mb,corrected,auto,auto_station,maintenance_indicator_on,no_signal,lightning_sensor_off,freezing_rain_sensor_off,present_weather_sensor_off,wx_string,sky_cover,cloud_base_ft_agl,sky_cover,cloud_base_ft_agl,sky_cover,cloud_base_ft_agl,sky_cover,cloud_base_ft_agl,flight_category,three_hr_pressure_tendency_mb,maxT_c,minT_c,maxT24hr_c,minT24hr_c,precip_in,pcp3hr_in,pcp6hr_in,pcp24hr_in,snow_in,vert_vis_ft,metar_type,elevation_m
KESN 120537Z AUTO 03003KT 10SM CLR M03/M08 A3048 RMK AO2 T10331080,KESN,2019-01-12T05:37:00Z,38.8,-76.07,-3.3,-8.0,30,3,,10.0,30.481298,,,TRUE,TRUE,,,,,,,CLR,,,,,,,,VFR,,,,,,,,,,,,SPECI,22.0
CYVL 120536Z AUTO 21012KT 6SM -SN OVC042 M32/M35 A2979 RMK SLP133,CYVL,2019-01-12T05:36:00Z,67.02,-126.13,-32.0,-35.0,210,12,,6.0,29.790354,1013.3,,TRUE,,,,,,,-SN,OVC,4200,,,,,,,VFR,,,,,,,,,,,,SPECI,259.0
CYDL 120536Z AUTO 22004KT 8SM OVC003 M12/M14 A2967 RMK SLP103,CYDL,2019-01-12T05:36:00Z,58.42,-130.02,-12.0,-14.0,220,4,,8.0,29.66929,1010.3,,TRUE,,,,,,,,OVC,300,,,,,,,LIFR,,,,,,,,,,,,SPECI,816.0
KFTG 120536Z AUTO 35011KT 2SM -SN OVC003 01/01 A3017 RMK AO2 T00110007,KFTG,2019-01-12T05:36:00Z,39.78,-104.55,1.1,0.7,350,11,,2.0,30.171259,,,TRUE,TRUE,,,,,,-SN,OVC,300,,,,,,,LIFR,,,,,,,,,,,,METAR,1675.0
K04V 120536Z AUTO 00000KT 10SM SCT065 SCT120 M03/M08 A3009 RMK AO2,K04V,2019-01-12T05:36:00Z,38.1,-106.17,-3.0,-8.0,0,0,,10.0,30.088583,,,TRUE,TRUE,,,,,,,SCT,6500,SCT,12000,,,,,VFR,,,,,,,,,,,,METAR,2385.0
KCCU 120536Z AUTO 36005KT 3SM -SN SCT005 BKN011 OVC050 M08/M11 A3010 RMK AO2,KCCU,2019-01-12T05:36:00Z,39.48,-106.15,-8.0,-11.0,360,5,,3.0,30.100393,,,TRUE,TRUE,,,,,,-SN,SCT,500,BKN,1100,OVC,5000,,,MVFR,,,,,,,,,,,,METAR,3680.0
KSUW 120535Z AUTO 09005KT 10SM OVC043 M03/M06 A3034 RMK AO2 T10351065,KSUW,2019-01-12T05:35:00Z,46.68,-92.1,-3.5,-6.5,90,5,,10.0,30.339567,,,TRUE,TRUE,,,,,,,OVC,4300,,,,,,,VFR,,,,,,,,,,,,METAR,206.0
KEZS 120535Z AUTO 00000KT 10SM OVC065 M03/M05 A3033 RMK AO2 T10261050,KEZS,2019-01-12T05:35:00Z,44.78,-88.57,-2.6,-5.0,0,0,,10.0,30.33071,,,TRUE,TRUE,,,,,,,OVC,6500,,,,,,,VFR,,,,,,,,,,,,METAR,248.0
KGGI 120535Z AUTO 12008KT 10SM OVC011 M01/M04 A3019 RMK AO2 T10101039,KGGI,2019-01-12T05:35:00Z,41.72,-92.73,-1.0,-3.9,120,8,,10.0,30.188976,,,TRUE,TRUE,,,,,,,OVC,1100,,,,,,,MVFR,,,,,,,,,,,,METAR,307.0
KMBY 120535Z AUTO 10009KT 1SM SN OVC003 M01/M02 A3014 RMK AO2,KMBY,2019-01-12T05:35:00Z,39.47,-92.43,-1.0,-2.0,100,9,,1.0,30.138779,,,TRUE,TRUE,,,,,,SN,OVC,300,,,,,,,LIFR,,,,,,,,,,,,SPECI,264.0
KSPF 120535Z AUTO 00000KT 10SM CLR M02/M05 A3019 RMK AO2 PWINO,KSPF,2019-01-12T05:35:00Z,44.47,-103.77,-2.0,-5.0,0,0,,10.0,30.188976,,,TRUE,TRUE,,,,,TRUE,,CLR,,,,,,,,VFR,,,,,,,,,,,,SPECI,1188.0
KEOE 120535Z AUTO 12004KT 10SM SCT110 01/M05 A3039 RMK AO2,KEOE,2019-01-12T05:35:00Z,34.32,-81.63,1.0,-5.0,120,4,,10.0,30.389763,,,TRUE,TRUE,,,,,,,SCT,11000,,,,,,,VFR,,,,,,,,,,,,SPECI,174.0
KDYA 120535Z AUTO 00000KT 10SM CLR 05/01 A3018 RMK AO2 T00450014,KDYA,2019-01-12T05:35:00Z,32.47,-87.95,4.5,1.4,0,0,,10.0,30.180119,,,TRUE,TRUE,,,,,,,CLR,,,,,,,,VFR,,,,,,,,,,,,SPECI,34.0
KRCX 120535Z AUTO 10004KT 10SM OVC049 M03/M07 A3030 RMK AO2 T10351073,KRCX,2019-01-12T05:35:00Z,45.5,-91.0,-3.5,-7.3,100,4,,10.0,30.301182,,,TRUE,TRUE,,,,,,,OVC,4900,,,,,,,VFR,,,,,,,,,,,,SPECI,377.0
KGAF 120535Z AUTO 34011KT 10SM OVC008 M10/M10 A3041 RMK AO2 PWINO,KGAF,2019-01-12T05:35:00Z,48.4,-97.37,-10.0,-10.0,340,11,,10.0,30.410433,,,TRUE,TRUE,,,,,TRUE,,OVC,800,,,,,,,IFR,,,,,,,,,,,,SPECI,252.0
KD57 120535Z AUTO 06004KT 8SM OVC011 M12/M15 A3033 RMK AO2 PWINO,KD57,2019-01-12T05:35:00Z,46.82,-101.87,-12.0,-15.0,60,4,,8.0,30.33071,,,TRUE,TRUE,,,,,TRUE,,OVC,1100,,,,,,,MVFR,,,,,,,,,,,,SPECI,637.0
KBNL 120535Z AUTO 07003KT 10SM CLR 01/M04 A3037 RMK AO2,KBNL,2019-01-12T05:35:00Z,33.25,-81.38,1.0,-4.0,70,3,,10.0,30.369095,,,TRUE,TRUE,,,,,,,CLR,,,,,,,,VFR,,,,,,,,,,,,SPECI,75.0
KVNC 120535Z AUTO 07007KT 10SM SCT049 15/13 A3016 RMK AO2,KVNC,2019-01-12T05:35:00Z,27.07,-82.43,15.0,13.0,70,7,,10.0,30.159449,,,TRUE,TRUE,,,,,,,SCT,4900,,,,,,,VFR,,,,,,,,,,,,SPECI,6.0
KSPA 120535Z AUTO 06003KT 10SM OVC100 02/M04 A3035 RMK AO2,KSPA,2019-01-12T05:35:00Z,34.92,-81.93,2.0,-4.0,60,3,,10.0,30.351377,,,TRUE,TRUE,,,,,,,OVC,10000,,,,,,,VFR,,,,,,,,,,,,SPECI,303.0
KPLD 120535Z AUTO 00000KT 10SM CLR M02/M05 A3033 RMK AO2,KPLD,2019-01-12T05:35:00Z,40.45,-84.98,-2.0,-5.0,0,0,,10.0,30.33071,,,TRUE,TRUE,,,,,,,CLR,,,,,,,,VFR,,,,,,,,,,,,SPECI,282.0
KOIN 120535Z AUTO 02007KT 7SM BKN048 OVC055 00/00 A3012 RMK AO1 T00021005,KOIN,2019-01-12T05:35:00Z,39.83,-100.53,0.2,-0.5,20,7,,7.0,30.121063,,,TRUE,TRUE,,,,,,,BKN,4800,OVC,5500,,,,,VFR,,,,,,,,,,,,SPECI,824.0
KLUX 120535Z AUTO 11004KT 10SM OVC110 02/M05 A3035 RMK AO2,KLUX,2019-01-12T05:35:00Z,34.5,-81.95,2.0,-5.0,110,4,,10.0,30.351377,,,TRUE,TRUE,,,,,,,OVC,11000,,,,,,,VFR,,,,,,,,,,,,SPECI,213.0
KLQK 120535Z AUTO 06003KT 10SM OVC100 03/M02 A3033 RMK AO2 T00251024,KLQK,2019-01-12T05:35:00Z,34.82,-82.7,2.5,-2.4,60,3,,10.0,30.33071,,,TRUE,TRUE,,,,,,,OVC,10000,,,,,,,VFR,,,,,,,,,,,,SPECI,309.0
KGEV 120535Z AUTO 16004KT 10SM OVC080 M01/M09 A3027 RMK AO2 T10101092,KGEV,2019-01-12T05:35:00Z,36.43,-81.42,-1.0,-9.2,160,4,,10.0,30.268702,,,TRUE,TRUE,,,,,,,OVC,8000,,,,,,,VFR,,,,,,,,,,,,SPECI,969.0
KDCM 120535Z AUTO 04003KT 10SM SCT110 00/M06 A3038 RMK AO2,KDCM,2019-01-12T05:35:00Z,34.78,-81.2,0.0,-6.0,40,3,,10.0,30.380905,,,TRUE,TRUE,,,,,,,SCT,11000,,,,,,,VFR,,,,,,,,,,,,SPECI,200.0
KAID 120535Z AUTO 00000KT 10SM OVC110 M02/M05 A3032 RMK AO2 T10161055,KAID,2019-01-12T05:35:00Z,40.12,-85.62,-1.6,-5.5,0,0,,10.0,30.318897,,,TRUE,TRUE,,,,,,,OVC,11000,,,,,,,VFR,,,,,,,,,,,,SPECI,280.0
KPGV 120535Z AUTO 00000KT 10SM CLR M03/M05 A3043 RMK AO2,KPGV,2019-01-12T05:35:00Z,35.62,-77.4,-3.0,-5.0,0,0,,10.0,30.431103,,,TRUE,TRUE,,,,,,,CLR,,,,,,,,VFR,,,,,,,,,,,,METAR,8.0
KLUL 120535Z AUTO 00000KT 10SM CLR 06/02 A3017 RMK AO2 T00580024,KLUL,2019-01-12T05:35:00Z,31.67,-89.17,5.8,2.4,0,0,,10.0,30.171259,,,TRUE,TRUE,,,,,,,CLR,,,,,,,,VFR,,,,,,,,,,,,METAR,73.0
KIFA 120535Z AUTO 00000KT 10SM OVC019 00/M03 A3019 RMK AO2 T10021028,KIFA,2019-01-12T05:35:00Z,42.47,-93.27,-0.2,-2.8,0,0,,10.0,30.188976,,,TRUE,TRUE,,,,,,,OVC,1900,,,,,,,MVFR,,,,,,,,,,,,SPECI,347.0
KCLI 120535Z AUTO 03003KT 10SM CLR M05/M07 A3033 RMK AO2 T10481072,KCLI,2019-01-12T05:35:00Z,44.62,-88.73,-4.8,-7.2,30,3,,10.0,30.33071,,,TRUE,TRUE,,,,,,,CLR,,,,,,,,VFR,,,,,,,,,,,,SPECI,250.0
KUNU 120535Z AUTO 00000KT 10SM OVC050 M03/M06 A3031 RMK AO2 T10261058 TSNO,KUNU,2019-01-12T05:35:00Z,43.42,-88.7,-2.6,-5.8,0,0,,10.0,30.31004,,,TRUE,TRUE,,,TRUE,,,,OVC,5000,,,,,,,VFR,,,,,,,,,,,,METAR,285.0
KRRL 120535Z AUTO 09003KT 10SM OVC042 M04/M08 A3030 RMK AO2 T10451077 TSNO,KRRL,2019-01-12T05:35:00Z,45.2,-89.72,-4.5,-7.7,90,3,,10.0,30.301182,,,TRUE,TRUE,,,TRUE,,,,OVC,4200,,,,,,,VFR,,,,,,,,,,,,METAR,401.0
KRPD 120535Z AUTO 09005KT 10SM CLR M05/M08 A3028 RMK AO2 T10541078,KRPD,2019-01-12T05:35:00Z,45.42,-91.77,-5.4,-7.8,90,5,,10.0,30.280512,,,TRUE,TRUE,,,,,,,CLR,,,,,,,,VFR,,,,,,,,,,,,METAR,338.0
KMAO 120535Z AUTO 06003KT 10SM CLR M01/M03 A3040 RMK AO2,KMAO,2019-01-12T05:35:00Z,34.18,-79.33,-1.0,-3.0,60,3,,10.0,30.398623,,,TRUE,TRUE,,,,,,,CLR,,,,,,,,VFR,,,,,,,,,,,,SPECI,28.0
KGPH 120535Z AUTO 11004KT 3SM -SN BKN007 OVC013 00/00 A3008 RMK AO2,KGPH,2019-01-12T05:35:00Z,39.33,-94.32,0.0,0.0,110,4,,3.0,30.079725,,,TRUE,TRUE,,,,,,-SN,BKN,700,OVC,1300,,,,,IFR,,,,,,,,,,,,SPECI,235.0
KEGV 120535Z AUTO 10003KT 10SM OVC044 M05/M09 A3028 RMK AO2 T10501089,KEGV,2019-01-12T05:35:00Z,45.93,-89.27,-5.0,-8.9,100,3,,10.0,30.280512,,,TRUE,TRUE,,,,,,,OVC,4400,,,,,,,VFR,,,,,,,,,,,,METAR,500.0
K1S5 120535Z AUTO 00000KT 5SM BR SCT002 M01/M01 A3015 RMK AO2 T10101010,K1S5,2019-01-12T05:35:00Z,46.33,-119.97,-1.0,-1.0,0,0,,5.0,30.15059,,,TRUE,TRUE,,,,,,BR,SCT,200,,,,,,,MVFR,,,,,,,,,,,,METAR,234.0
KVTI 120535Z AUTO 12006KT 10SM CLR M02/M06 A3021 RMK AO2 T10161060,KVTI,2019-01-12T05:35:00Z,42.22,-92.02,-1.6,-6.0,120,6,,10.0,30.209646,,,TRUE,TRUE,,,,,,,CLR,,,,,,,,VFR,,,,,,,,,,,,SPECI,255.0
KSEM 120535Z AUTO 00000KT 10SM FEW026 04/01 A3020 RMK AO2,KSEM,2019-01-12T05:35:00Z,32.35,-86.98,4.0,1.0,0,0,,10.0,30.200787,,,TRUE,TRUE,,,,,,,FEW,2600,,,,,,,VFR,,,,,,,,,,,,SPECI,51.0
KS32 120535Z AUTO 36011KT 4SM BR OVC004 M10/M10 A3034 RMK AO2,KS32,2019-01-12T05:35:00Z,47.42,-98.1,-10.0,-10.0,360,11,,4.0,30.339567,,,TRUE,TRUE,,,,,,BR,OVC,400,,,,,,,LIFR,,,,,,,,,,,,SPECI,684.0
KPRO 120535Z AUTO 10004KT 5SM -SN OVC008 M01/M01 A3016 RMK AO2 T10081010,KPRO,2019-01-12T05:35:00Z,41.83,-94.17,-0.8,-1.0,100,4,,5.0,30.159449,,,TRUE,TRUE,,,,,,-SN,OVC,800,,,,,,,IFR,,,,,,,,,,,,SPECI,308.0
KPCZ 120535Z AUTO 00000KT 10SM OVC050 M02/M05 A3031 RMK AO2 T10191049,KPCZ,2019-01-12T05:35:00Z,44.33,-89.02,-1.9,-4.9,0,0,,10.0,30.31004,,,TRUE,TRUE,,,,,,,OVC,5000,,,,,,,VFR,,,,,,,,,,,,SPECI,252.0
KMNI 120535Z AUTO 00000KT 10SM CLR M01/M03 A3039 RMK AO2,KMNI,2019-01-12T05:35:00Z,33.58,-80.22,-1.0,-3.0,0,0,,10.0,30.389763,,,TRUE,TRUE,,,,,,,CLR,,,,,,,,VFR,,,,,,,,,,,,SPECI,32.0
KMCJ 120535Z AUTO VRB04KT 10SM FEW026 SCT032 BKN042 16/14 A2993 RMK A01,KMCJ,2019-01-12T05:35:00Z,29.72,-95.4,16.0,14.0,0,4,,10.0,29.929134,,,TRUE,TRUE,,,,,,,FEW,2600,SCT,3200,BKN,4200,,,VFR,,,,,,,,,,,,SPECI,69.0
KGGE 120535Z AUTO 00000KT 10SM CLR 00/M03 A3037 RMK AO2,KGGE,2019-01-12T05:35:00Z,33.32,-79.32,0.0,-3.0,0,0,,10.0,30.369095,,,TRUE,TRUE,,,,,,,CLR,,,,,,,,VFR,,,,,,,,,,,,SPECI,12.0
KCCA 120535Z AUTO 00000KT 10SM SCT012 OVC060 02/01 A3012 RMK AO2,KCCA,2019-01-12T05:35:00Z,35.6,-92.45,2.0,1.0,0,0,,10.0,30.121063,,,TRUE,TRUE,,,,,,,SCT,1200,OVC,6000,,,,,VFR,,,,,,,,,,,,SPECI,157.0
K96D 120535Z AUTO 34007KT 10SM M10/M10 A3041 RMK AO2,K96D,2019-01-12T05:35:00Z,48.93,-97.9,-10.0,-10.0,340,7,,10.0,30.410433,,,TRUE,TRUE,,,,,,,,,,,,,,,,,,,,,,,,,,,SPECI,290.0
K74V 120535Z AUTO 26003KT 10SM CLR M08/M10 A3026 RMK AO2,K74V,2019-01-12T05:35:00Z,40.28,-110.05,-8.0,-10.0,260,3,,10.0,30.259842,,,TRUE,TRUE,,,,,,,CLR,,,,,,,,VFR,,,,,,,,,,,,SPECI,1576.0
KFDW 120535Z AUTO 08004KT 10SM CLR 02/M06 A3036 RMK AO1,KFDW,2019-01-12T05:35:00Z,34.32,-81.12,2.0,-6.0,80,4,,10.0,30.360237,,,TRUE,TRUE,,,,,,,CLR,,,,,,,,VFR,,,,,,,,,,,,METAR,176.0
KTVY 120535Z AUTO 00000KT 3SM BR OVC003 00/M01 A3029 RMK AO2,KTVY,2019-01-12T05:35:00Z,40.62,-112.35,0.0,-1.0,0,0,,3.0,30.28937,,,TRUE,TRUE,,,,,,BR,OVC,300,,,,,,,LIFR,,,,,,,,,,,,SPECI,1317.0
KRUG 120535Z AUTO 04006KT 7SM SCT009 BKN014 OVC019 M12/M12 A3038 RMK AO2,KRUG,2019-01-12T05:35:00Z,48.38,-100.02,-12.0,-12.0,40,6,,7.0,30.380905,,,TRUE,TRUE,,,,,,,SCT,900,BKN,1400,OVC,1900,,,MVFR,,,,,,,,,,,,SPECI,472.0
KMAW 120535Z AUTO 11005KT 10SM BKN055 02/00 A3017 RMK AO2 P0002,KMAW,2019-01-12T05:35:00Z,36.6,-90.0,2.0,0.0,110,5,,10.0,30.171259,,,TRUE,TRUE,,,,,,,BKN,5500,,,,,,,VFR,,,,,,0.02,,,,,,SPECI,90.0
KM25 120535Z AUTO 08005KT 10SM OVC050 00/00 A3021 RMK AO2,KM25,2019-01-12T05:35:00Z,36.77,-88.58,0.0,0.0,80,5,,10.0,30.209646,,,TRUE,TRUE,,,,,,,OVC,5000,,,,,,,VFR,,,,,,,,,,,,SPECI,160.0
KLUM 120535Z AUTO 09004KT 10SM CLR M07/M10 A3028 RMK AO2 T10751102,KLUM,2019-01-12T05:35:00Z,44.9,-91.87,-7.5,-10.2,90,4,,10.0,30.280512,,,TRUE,TRUE,,,,,,,CLR,,,,,,,,VFR,,,,,,,,,,,,SPECI,273.0
KLRY 120535Z AUTO 11003KT 2SM -SN OVC003 01/00 A3006 RMK AO2 P0003,KLRY,2019-01-12T05:35:00Z,38.62,-94.35,1.0,0.0,110,3,,2.0,30.059055,,,TRUE,TRUE,,,,,,-SN,OVC,300,,,,,,,LIFR,,,,,,0.03,,,,,,SPECI,279.0
KLNL 120535Z AUTO 09005KT 10SM OVC050 M05/M08 A3031 RMK AO2 T10531079,KLNL,2019-01-12T05:35:00Z,46.15,-89.22,-5.3,-7.9,90,5,,10.0,30.31004,,,TRUE,TRUE,,,,,,,OVC,5000,,,,,,,VFR,,,,,,,,,,,,SPECI,520.0
KLKR 120535Z AUTO 00000KT 10SM CLR M02/M06 A3039 RMK AO2,KLKR,2019-01-12T05:35:00Z,34.72,-80.85,-2.0,-6.0,0,0,,10.0,30.389763,,,TRUE,TRUE,,,,,,,CLR,,,,,,,,VFR,,,,,,,,,,,,SPECI,149.0
KLBO 120535Z AUTO 00000KT 10SM UP OVC006 00/00 A3006 RMK AO2,KLBO,2019-01-12T05:35:00Z,37.65,-92.65,0.0,0.0,0,0,,10.0,30.059055,,,TRUE,TRUE,,,,,,UP,OVC,600,,,,,,,IFR,,,,,,,,,,,,SPECI,403.0
KJSO 120535Z AUTO 28004KT 4SM +RA SCT003 BKN012 OVC021 11/10 A3002 RMK AO2 P0014 T01080107,KJSO,2019-01-12T05:35:00Z,31.87,-95.22,10.8,10.7,280,4,,4.0,30.02067,,,TRUE,TRUE,,,,,,+RA,SCT,300,BKN,1200,OVC,2100,,,MVFR,,,,,,0.14,,,,,,SPECI,206.0
KINF 120535Z AUTO 00000KT 10SM BKN046 11/11 A3021 RMK AO2,KINF,2019-01-12T05:35:00Z,28.8,-82.32,11.0,11.0,0,0,,10.0,30.209646,,,TRUE,TRUE,,,,,,,BKN,4600,,,,,,,VFR,,,,,,,,,,,,SPECI,15.0
KHXD 120535Z AUTO 02005KT 10SM SCT050 06/03 A3034 RMK AO2,KHXD,2019-01-12T05:35:00Z,32.22,-80.7,6.0,3.0,20,5,,10.0,30.339567,,,TRUE,TRUE,,,,,,,SCT,5000,,,,,,,VFR,,,,,,,,,,,,SPECI,6.0
KEOK 120535Z AUTO 09009KT 1 1/4SM -SN OVC005 M02/M02 A3020 RMK AO2,KEOK,2019-01-12T05:35:00Z,40.47,-91.42,-2.0,-2.0,90,9,,1.25,30.200787,,,TRUE,TRUE,,,,,,-SN,OVC,500,,,,,,,IFR,,,,,,,,,,,,SPECI,205.0
KCLS 120535Z AUTO 00000KT M1/4SM FG OVC004 05/05 A2994 RMK AO2,KCLS,2019-01-12T05:35:00Z,46.68,-122.98,5.0,5.0,0,0,,0.25,29.940945,,,TRUE,TRUE,,,,,,FG,OVC,400,,,,,,,LIFR,,,,,,,,,,,,SPECI,54.0
KCKI 120535Z AUTO 00000KT 10SM CLR M02/M03 A3039 RMK AO2,KCKI,2019-01-12T05:35:00Z,33.72,-79.85,-2.0,-3.0,0,0,,10.0,30.389763,,,TRUE,TRUE,,,,,,,CLR,,,,,,,,VFR,,,,,,,,,,,,SPECI,21.0
K2J9 120535Z AUTO 10006KT 10SM OVC042 10/06 A3021 RMK AO2,K2J9,2019-01-12T05:35:00Z,30.6,-84.55,10.0,6.0,100,6,,10.0,30.209646,,,TRUE,TRUE,,,,,,,OVC,4200,,,,,,,VFR,,,,,,,,,,,,SPECI,69.0
KY51 120535Z AUTO 10005KT 10SM OVC046 M02/M04 A3024 RMK AO1 T10251042,KY51,2019-01-12T05:35:00Z,43.58,-90.9,-2.5,-4.2,100,5,,10.0,30.239174,,,TRUE,TRUE,,,,,,,OVC,4600,,,,,,,VFR,,,,,,,,,,,,SPECI,394.0
KSVC 120535Z AUTO 34006KT 10SM CLR M02/M02 A3014 RMK AO2 T10161025,KSVC,2019-01-12T05:35:00Z,32.63,-108.15,-1.6,-2.5,340,6,,10.0,30.138779,,,TRUE,TRUE,,,,,,,CLR,,,,,,,,VFR,,,,,,,,,,,,SPECI,1659.0
KRID 120535Z AUTO 10SM OVC100 M02/M04 A3031 RMK AO2,KRID,2019-01-12T05:35:00Z,39.75,-84.85,-2.0,-4.0,,,,10.0,30.31004,,,TRUE,TRUE,,,,,,,OVC,10000,,,,,,,VFR,,,,,,,,,,,,SPECI,348.0
KPTS 120535Z AUTO 11005KT 10SM RA BKN006 OVC017 02/01 A2999 RMK AO2 P0001 T00170012,KPTS,2019-01-12T05:35:00Z,37.45,-94.73,1.7,1.2,110,5,,10.0,29.991142,,,TRUE,TRUE,,,,,,RA,BKN,600,OVC,1700,,,,,IFR,,,,,,0.01,,,,,,SPECI,290.0
KPSO 120535Z AUTO 00000KT 10SM SCT002 OVC013 M02/M02 A3010 RMK AO2 T10171017,KPSO,2019-01-12T05:35:00Z,37.28,-107.05,-1.7,-1.7,0,0,,10.0,30.100393,,,TRUE,TRUE,,,,,,,SCT,200,OVC,1300,,,,,MVFR,,,,,,,,,,,,SPECI,2334.0
KPEA 120535Z AUTO 11006KT 2SM -SN OVC007 M01/M02 A3019 RMK AO2 T10151025,KPEA,2019-01-12T05:35:00Z,41.4,-92.95,-1.5,-2.5,110,6,,2.0,30.188976,,,TRUE,TRUE,,,,,,-SN,OVC,700,,,,,,,IFR,,,,,,,,,,,,SPECI,270.0
KOQN 120535Z AUTO 00000KT 10SM CLR M06/M11 A3044 RMK AO2,KOQN,2019-01-12T05:35:00Z,39.98,-75.58,-6.0,-11.0,0,0,,10.0,30.43996,,,TRUE,TRUE,,,,,,,CLR,,,,,,,,VFR,,,,,,,,,,,,METAR,142.0
KOGS 120535Z AUTO 33008KT 10SM SCT110 M13/M19 A3043 RMK AO2 T11311190,KOGS,2019-01-12T05:35:00Z,44.67,-75.47,-13.1,-19.0,330,8,,10.0,30.431103,,,TRUE,TRUE,,,,,,,SCT,11000,,,,,,,VFR,,,,,,,,,,,,SPECI,91.0
KMWC 120535Z AUTO 00000KT 10SM OVC065 M01/M07 A3033 RMK AO2,KMWC,2019-01-12T05:35:00Z,43.12,-88.03,-1.0,-7.0,0,0,,10.0,30.33071,,,TRUE,TRUE,,,,,,,OVC,6500,,,,,,,VFR,,,,,,,,,,,,SPECI,227.0
KMPZ 120535Z AUTO 10006KT 3/4SM -SN OVC008 M01/M01 A3022 RMK AO2,KMPZ,2019-01-12T05:35:00Z,40.95,-91.52,-1.0,-1.0,100,6,,0.75,30.221457,,,TRUE,TRUE,,,,,,-SN,OVC,800,,,,,,,LIFR,,,,,,,,,,,,SPECI,224.0
KIDI 120535Z AUTO 00000KT 10SM BKN022 OVC075 M10/M10 A3041 RMK A01,KIDI,2019-01-12T05:35:00Z,40.62,-79.08,-10.0,-10.0,0,0,,10.0,30.410433,,,TRUE,TRUE,,,,,,,BKN,2200,OVC,7500,,,,,MVFR,,,,,,,,,,,,SPECI,429.0
KDYB 120535Z AUTO 00000KT 10SM CLR 00/M01 A3037 RMK AO1,KDYB,2019-01-12T05:35:00Z,33.07,-80.28,0.0,-1.0,0,0,,10.0,30.369095,,,TRUE,TRUE,,,,,,,CLR,,,,,,,,VFR,,,,,,,,,,,,SPECI,18.0
KCCY 120535Z AUTO 10007KT 10SM OVC024 M02/M05 A3022 RMK AO2,KCCY,2019-01-12T05:35:00Z,43.07,-92.62,-2.0,-5.0,100,7,,10.0,30.221457,,,TRUE,TRUE,,,,,,,OVC,2400,,,,,,,MVFR,,,,,,,,,,,,SPECI,343.0
KC35 120535Z AUTO 00000KT 10SM SCT050 OVC065 M02/M05 A3028 RMK AO2 T10241055,KC35,2019-01-12T05:35:00Z,43.53,-89.98,-2.4,-5.5,0,0,,10.0,30.280512,,,TRUE,TRUE,,,,,,,SCT,5000,OVC,6500,,,,,VFR,,,,,,,,,,,,SPECI,276.0
KBRG 120535Z AUTO 33007KT 10SM SCT049 01/M02 A3013 RMK AO2 T00101017,KBRG,2019-01-12T05:35:00Z,34.65,-106.83,1.0,-1.7,330,7,,10.0,30.129921,,,TRUE,TRUE,,,,,,,SCT,4900,,,,,,,VFR,,,,,,,,,,,,SPECI,1585.0
KANQ 120535Z AUTO 12005KT 10SM CLR M04/M06 A3033 RMK AO2,KANQ,2019-01-12T05:35:00Z,41.63,-85.08,-4.0,-6.0,120,5,,10.0,30.33071,,,TRUE,TRUE,,,,,,,CLR,,,,,,,,VFR,,,,,,,,,,,,SPECI,303.0
KAJZ 120535Z AUTO 00000KT 5SM BR SCT049 BKN055 OVC065 M01/M02 A3018 RMK AO2 T10091025,KAJZ,2019-01-12T05:35:00Z,38.78,-108.07,-0.9,-2.5,0,0,,5.0,30.180119,,,TRUE,TRUE,,,,,,BR,SCT,4900,BKN,5500,OVC,6500,,,MVFR,,,,,,,,,,,,SPECI,1583.0
KAIK 120535Z AUTO 08004KT 10SM CLR 00/M05 A3038 RMK AO2,KAIK,2019-01-12T05:35:00Z,33.65,-81.68,0.0,-5.0,80,4,,10.0,30.380905,,,TRUE,TRUE,,,,,,,CLR,,,,,,,,VFR,,,,,,,,,,,,SPECI,161.0
K57C 120535Z AUTO 00000KT 10SM OVC075 M03/M05 A3030 RMK AO2 T10261052,K57C,2019-01-12T05:35:00Z,42.8,-88.37,-2.6,-5.2,0,0,,10.0,30.301182,,,TRUE,TRUE,,,,,,,OVC,7500,,,,,,,VFR,,,,,,,,,,,,SPECI,262.0
K2V5 120535Z AUTO 36012G16KT 10SM OVC065 03/00 A3012 RMK AO2,K2V5,2019-01-12T05:35:00Z,40.1,-102.25,3.0,0.0,360,12,16,10.0,30.121063,,,TRUE,TRUE,,,,,,,OVC,6500,,,,,,,VFR,,,,,,,,,,,,SPECI,1118.0
KQFR 120535Z AUTO 31003KT 10SM OVC004 M20/M27 A2977 RMK AO1,KQFR,2019-01-12T05:35:00Z,,,-20.0,-27.0,310,3,,10.0,29.769686,,,TRUE,TRUE,,,,,,,OVC,400,,,,,,,LIFR,,,,,,,,,,,,METAR,
YMEK 120535Z AUTO 35015G26KT 9999 // NCD 45/M03 Q1009,YMEK,2019-01-12T05:35:00Z,-26.62,118.55,45.0,-3.0,350,15,26,6.21,29.793306,,,TRUE,,,,,,,,CLR,,,,,,,,VFR,,,,,,,,,,,,SPECI,522.0
PAOU 120535Z AUTO 06025G29KT 7SM SCT007 BKN043 OVC070 M02/M03 A2927 RMK AO2 PK WND 05029/0526 FZRANO,PAOU,2019-01-12T05:35:00Z,56.0,-161.17,-2.0,-3.0,60,25,29,7.0,29.27067,,,TRUE,TRUE,,,,TRUE,,,SCT,700,BKN,4300,OVC,7000,,,VFR,,,,,,,,,,,,SPECI,4.0
KSOW 120535Z AUTO 00000KT 10SM CLR M03/M05 A3017 RMK AO2,KSOW,2019-01-12T05:35:00Z,34.27,-110.0,-3.0,-5.0,0,0,,10.0,30.171259,,,TRUE,TRUE,,,,,,,CLR,,,,,,,,VFR,,,,,,,,,,,,METAR,1954.0
KSNC 120535Z AUTO 33009KT 10SM CLR M10/M19 A3037 RMK AO2,KSNC,2019-01-12T05:35:00Z,41.38,-72.5,-10.0,-19.0,330,9,,10.0,30.369095,,,TRUE,TRUE,,,,,,,CLR,,,,,,,,VFR,,,,,,,,,,,,METAR,127.0
KSMS 120535Z AUTO 10SM CLR M01/M02 A3040 RMK AO2,KSMS,2019-01-12T05:35:00Z,34.0,-80.37,-1.0,-2.0,,,,10.0,30.398623,,,TRUE,TRUE,,,,,,,CLR,,,,,,,,VFR,,,,,,,,,,,,METAR,56.0
KSLH 120535Z AUTO 13003KT 10SM OVC075 M07/M11 A3043 RMK AO2 T10661113,KSLH,2019-01-12T05:35:00Z,45.65,-84.52,-6.6,-11.3,130,3,,10.0,30.431103,,,TRUE,TRUE,,,,,,,OVC,7500,,,,,,,VFR,,,,,,,,,,,,METAR,195.0
KSLB 120535Z AUTO 05005KT 10SM OVC036 M01/M02 A3015 RMK AO2,KSLB,2019-01-12T05:35:00Z,42.6,-95.22,-1.0,-2.0,50,5,,10.0,30.15059,,,TRUE,TRUE,,,,,,,OVC,3600,,,,,,,VFR,,,,,,,,,,,,METAR,454.0
KSJX 120535Z AUTO 07006KT 10SM OVC030 M05/M10 A3041 RMK AO2 T10511104,KSJX,2019-01-12T05:35:00Z,45.7,-85.57,-5.1,-10.4,70,6,,10.0,30.410433,,,TRUE,TRUE,,,,,,,OVC,3000,,,,,,,MVFR,,,,,,,,,,,,METAR,204.0
KSHL 120535Z AUTO 03009KT 10SM CLR M03/M03 A3016 RMK AO2,KSHL,2019-01-12T05:35:00Z,43.22,-95.82,-3.0,-3.0,30,9,,10.0,30.159449,,,TRUE,TRUE,,,,,,,CLR,,,,,,,,VFR,,,,,,,,,,,,METAR,432.0
KSGS 120535Z AUTO 00000KT 10SM CLR M04/M07 A3026 RMK AO2 T10421075,KSGS,2019-01-12T05:35:00Z,44.87,-93.03,-4.2,-7.5,0,0,,10.0,30.259842,,,TRUE,TRUE,,,,,,,CLR,,,,,,,,VFR,,,,,,,,,,,,METAR,250.0
KSQL 120535Z AUTO 00000KT 5SM -RA FEW003 SCT037 BKN047 12/12 A2988 RMK AO2 P0001,KSQL,2019-01-12T05:35:00Z,37.52,-122.25,12.0,12.0,0,0,,5.0,29.878937,,,TRUE,TRUE,,,,,,-RA,FEW,300,SCT,3700,BKN,4700,,,MVFR,,,,,,0.01,,,,,,METAR,1.0
KSTF 120535Z AUTO 12003KT 10SM CLR 07/00 A3017 RMK AO2 PWINO,KSTF,2019-01-12T05:35:00Z,33.43,-88.85,7.0,0.0,120,3,,10.0,30.171259,,,TRUE,TRUE,,,,,TRUE,,CLR,,,,,,,,VFR,,,,,,,,,,,,METAR,102.0
KSUZ 120535Z AUTO 04003KT 10SM OVC070 04/01 A3007 RMK A01,KSUZ,2019-01-12T05:35:00Z,34.58,-92.48,4.0,1.0,40,3,,10.0,30.070866,,,TRUE,TRUE,,,,,,,OVC,7000,,,,,,,VFR,,,,,,,,,,,,METAR,119.0
KY19 120535Z AUTO 35007KT 5SM -SN OVC005 M12/M12 A3033 RMK AO2,KY19,2019-01-12T05:35:00Z,46.77,-100.9,-12.0,-12.0,350,7,,5.0,30.33071,,,TRUE,TRUE,,,,,,-SN,OVC,500,,,,,,,IFR,,,,,,,,,,,,METAR,593.0
KX07 120535Z AUTO 00000KT 10SM BKN050 13/11 A3019 RMK A01,KX07,2019-01-12T05:35:00Z,27.9,-81.62,13.0,11.0,0,0,,10.0,30.188976,,,TRUE,TRUE,,,,,,,BKN,5000,,,,,,,VFR,,,,,,,,,,,,METAR,39.0
KWYS 120535Z AUTO 00000KT 10SM CLR M19/M21 A3023 RMK AO2,KWYS,2019-01-12T05:35:00Z,44.67,-111.12,-19.0,-21.0,0,0,,10.0,30.230314,,,TRUE,TRUE,,,,,,,CLR,,,,,,,,VFR,,,,,,,,,,,,METAR,2025.0
KVVV 120535Z AUTO 34008KT 10SM CLR M09/M11 A3026 RMK AO2,KVVV,2019-01-12T05:35:00Z,45.3,-96.42,-9.0,-11.0,340,8,,10.0,30.259842,,,TRUE,TRUE,,,,,,,CLR,,,,,,,,VFR,,,,,,,,,,,,METAR,335.0
KVQQ 120535Z AUTO 33003KT 10SM SCT055 07/06 A3025 RMK AO2,KVQQ,2019-01-12T05:35:00Z,30.22,-81.88,7.0,6.0,330,3,,10.0,30.250984,,,TRUE,TRUE,,,,,,,SCT,5500,,,,,,,VFR,,,,,,,,,,,,METAR,25.0
KUOX 120535Z AUTO 12007G12KT 10SM BKN095 OVC110 07/M03 A3015 RMK AO2,KUOX,2019-01-12T05:35:00Z,34.38,-89.53,7.0,-3.0,120,7,12,10.0,30.15059,,,TRUE,TRUE,,,,,,,BKN,9500,OVC,11000,,,,,VFR,,,,,,,,,,,,METAR,137.0
KULM 120535Z AUTO 04003KT 10SM CLR M04/M06 A3022 RMK AO2,KULM,2019-01-12T05:35:00Z,44.32,-94.5,-4.0,-6.0,40,3,,10.0,30.221457,,,TRUE,TRUE,,,,,,,CLR,,,,,,,,VFR,,,,,,,,,,,,METAR,308.0
KUKT 120535Z AUTO 00000KT 10SM CLR M06/M17 A3043 RMK A01,KUKT,2019-01-12T05:35:00Z,40.43,-75.38,-6.0,-17.0,0,0,,10.0,30.431103,,,TRUE,TRUE,,,,,,,CLR,,,,,,,,VFR,,,,,,,,,,,,METAR,160.0
KTWM 120535Z AUTO 06010KT 10SM OVC018 M04/M07 A3030 RMK AO2,KTWM,2019-01-12T05:35:00Z,47.03,-91.75,-4.0,-7.0,60,10,,10.0,30.301182,,,TRUE,TRUE,,,,,,,OVC,1800,,,,,,,MVFR,,,,,,,,,,,,METAR,328.0
KTTF 120535Z AUTO 00000KT 10SM CLR M05/M06 A3038 RMK AO2 T10521056,KTTF,2019-01-12T05:35:00Z,41.93,-83.42,-5.2,-5.6,0,0,,10.0,30.380905,,,TRUE,TRUE,,,,,,,CLR,,,,,,,,VFR,,,,,,,,,,,,METAR,188.0
KTSP 120535Z AUTO 11012G17KT 10SM CLR 07/M01 A2999 RMK AO2,KTSP,2019-01-12T05:35:00Z,35.13,-118.43,7.0,-1.0,110,12,17,10.0,29.991142,,,TRUE,TRUE,,,,,,,CLR,,,,,,,,VFR,,,,,,,,,,,,METAR,1220.0
KTPF 120535Z AUTO 08006KT 10SM BKN100 15/12 A3018 RMK AO2,KTPF,2019-01-12T05:35:00Z,27.92,-82.45,15.0,12.0,80,6,,10.0,30.180119,,,TRUE,TRUE,,,,,,,BKN,10000,,,,,,,VFR,,,,,,,,,,,,METAR,3.0
KTNU 120535Z AUTO 11008KT 8SM OVC007 M02/M02 A3018 RMK AO2,KTNU,2019-01-12T05:35:00Z,41.67,-93.02,-2.0,-2.0,110,8,,8.0,30.180119,,,TRUE,TRUE,,,,,,,OVC,700,,,,,,,IFR,,,,,,,,,,,,METAR,290.0
KTME 120535Z AUTO 14009KT 10SM FEW029 BKN039 OVC044 16/14 A2993 RMK AO2,KTME,2019-01-12T05:35:00Z,29.8,-95.9,16.0,14.0,140,9,,10.0,29.929134,,,TRUE,TRUE,,,,,,,FEW,2900,BKN,3900,OVC,4400,,,VFR,,,,,,,,,,,,METAR,51.0
KTKC 120535Z AUTO 33008KT 7SM SCT005 BKN010 OVC016 M07/M08 A3022 RMK AO2 T10721081,KTKC,2019-01-12T05:35:00Z,44.25,-95.62,-7.2,-8.1,330,8,,7.0,30.221457,,,TRUE,TRUE,,,,,,,SCT,500,BKN,1000,OVC,1600,,,MVFR,,,,,,,,,,,,METAR,408.0
KSYM 120535Z AUTO 00000KT 10SM BKN070 OVC075 M00/M09 A3033 RMK AO2,KSYM,2019-01-12T05:35:00Z,38.22,-83.58,0.0,-9.0,0,0,,10.0,30.33071,,,TRUE,TRUE,,,,,,,BKN,7000,OVC,7500,,,,,VFR,,,,,,,,,,,,METAR,313.0
KATS 120535Z AUTO 29008KT 10SM CLR 03/03 A3006 RMK AO2,KATS,2019-01-12T05:35:00Z,32.85,-104.47,3.0,3.0,290,8,,10.0,30.059055,,,TRUE,TRUE,,,,,,,CLR,,,,,,,,VFR,,,,,,,,,,,,METAR,1081.0
KY70 120535Z AUTO 12004KT 10SM OVC065 M02/M08 A3036 RMK AO2 T10251076,KY70,2019-01-12T05:35:00Z,42.93,-85.07,-2.5,-7.6,120,4,,10.0,30.360237,,,TRUE,TRUE,,,,,,,OVC,6500,,,,,,,VFR,,,,,,,,,,,,METAR,250.0
KY63 120535Z AUTO 01003KT 10SM OVC028 M07/M08 A3027 RMK AO2 T10681083,KY63,2019-01-12T05:35:00Z,45.98,-96.0,-6.8,-8.3,10,3,,10.0,30.268702,,,TRUE,TRUE,,,,,,,OVC,2800,,,,,,,MVFR,,,,,,,,,,,,METAR,367.0
KSDA 120535Z AUTO 05006KT 1SM -SN OVC003 00/00 A3011 RMK AO2,KSDA,2019-01-12T05:35:00Z,40.75,-95.42,0.0,0.0,50,6,,1.0,30.109253,,,TRUE,TRUE,,,,,,-SN,OVC,300,,,,,,,LIFR,,,,,,,,,,,,METAR,296.0
KS33 120535Z AUTO 00000KT 2 1/2SM BR OVC002 M01/M01 A3012 RMK AO2,KS33,2019-01-12T05:35:00Z,44.67,-121.15,-1.0,-1.0,0,0,,2.5,30.121063,,,TRUE,TRUE,,,,,,BR,OVC,200,,,,,,,LIFR,,,,,,,,,,,,METAR,743.0
KS25 120535Z AUTO 10004KT 10SM CLR M13/M15 A3033 RMK AO2,KS25,2019-01-12T05:35:00Z,47.8,-103.25,-13.0,-15.0,100,4,,10.0,30.33071,,,TRUE,TRUE,,,,,,,CLR,,,,,,,,VFR,,,,,,,,,,,,METAR,644.0
KRZT 120535Z AUTO 00000KT 10SM OVC100 M02/M06 A3035 RMK AO2,KRZT,2019-01-12T05:35:00Z,39.43,-83.02,-2.0,-6.0,0,0,,10.0,30.351377,,,TRUE,TRUE,,,,,,,OVC,10000,,,,,,,VFR,,,,,,,,,,,,METAR,221.0
KRYV 120535Z AUTO 13004KT 10SM SCT060 OVC070 M02/M05 A3030 RMK AO2 T10251050,KRYV,2019-01-12T05:35:00Z,43.17,-88.72,-2.5,-5.0,130,4,,10.0,30.301182,,,TRUE,TRUE,,,,,,,SCT,6000,OVC,7000,,,,,VFR,,,,,,,,,,,,METAR,254.0
KRVL 120535Z AUTO 00000KT 10SM -SN CLR M07/M11 A3041 RMK AO2,KRVL,2019-01-12T05:35:00Z,40.68,-77.63,-7.0,-11.0,0,0,,10.0,30.410433,,,TRUE,TRUE,,,,,,-SN,CLR,,,,,,,,VFR,,,,,,,,,,,,METAR,250.0
KRRT 120535Z AUTO 05007KT 10SM OVC013 M08/M11 A3037 RMK AO2,KRRT,2019-01-12T05:35:00Z,48.93,-95.33,-8.0,-11.0,50,7,,10.0,30.369095,,,TRUE,TRUE,,,,,,,OVC,1300,,,,,,,MVFR,,,,,,,,,,,,METAR,327.0
KROS 120535Z AUTO 06004KT 10SM CLR M06/M09 A3028 RMK AO2 T10631090,KROS,2019-01-12T05:35:00Z,45.7,-92.95,-6.3,-9.0,60,4,,10.0,30.280512,,,TRUE,TRUE,,,,,,,CLR,,,,,,,,VFR,,,,,,,,,,,,METAR,281.0
KRNP 120535Z AUTO 00000KT 10SM OVC075 M02/M08 A3039 RMK AO2 T10221082,KRNP,2019-01-12T05:35:00Z,43.0,-84.13,-2.2,-8.2,0,0,,10.0,30.389763,,,TRUE,TRUE,,,,,,,OVC,7500,,,,,,,VFR,,,,,,,,,,,,METAR,224.0
KRNH 120535Z AUTO 00000KT 10SM CLR M06/M09 A3026 RMK AO2 T10651091,KRNH,2019-01-12T05:35:00Z,45.15,-92.53,-6.5,-9.1,0,0,,10.0,30.259842,,,TRUE,TRUE,,,,,,,CLR,,,,,,,,VFR,,,,,,,,,,,,METAR,304.0
KRMY 120535Z AUTO 00000KT 10SM OVC070 M03/M06 A3036 RMK AO2 T10311060,KRMY,2019-01-12T05:35:00Z,42.23,-84.95,-3.1,-6.0,0,0,,10.0,30.360237,,,TRUE,TRUE,,,,,,,OVC,7000,,,,,,,VFR,,,,,,,,,,,,METAR,287.0
KRGK 120535Z AUTO 00000KT 10SM CLR M05/M09 A3026 RMK AO2,KRGK,2019-01-12T05:35:00Z,44.58,-92.48,-5.0,-9.0,0,0,,10.0,30.259842,,,TRUE,TRUE,,,,,,,CLR,,,,,,,,VFR,,,,,,,,,,,,METAR,239.0
KRFI 120535Z AUTO 7SM OVC019 10/09 A3001 RMK AO2 P0005 T00970086,KRFI,2019-01-12T05:35:00Z,32.15,-94.85,9.7,8.6,,,,7.0,30.008858,,,TRUE,TRUE,,,,,,,OVC,1900,,,,,,,MVFR,,,,,,0.05,,,,,,METAR,135.0
KRDK 120535Z AUTO 05005KT 1 3/4SM -SN OVC003 00/00 A3012 RMK AO2,KRDK,2019-01-12T05:35:00Z,41.02,-95.27,0.0,0.0,50,5,,1.75,30.121063,,,TRUE,TRUE,,,,,,-SN,OVC,300,,,,,,,LIFR,,,,,,,,,,,,METAR,318.0
KRCE 120535Z AUTO 16010KT 3SM BR OVC002 08/07 A2980 RMK AO2,KRCE,2019-01-12T05:35:00Z,35.48,-97.82,8.0,7.0,160,10,,3.0,29.799213,,,TRUE,TRUE,,,,,,BR,OVC,200,,,,,,,LIFR,,,,,,,,,,,,METAR,413.0
KRBW 120535Z AUTO 00000KT 10SM CLR 01/M02 A3038 RMK AO2,KRBW,2019-01-12T05:35:00Z,32.92,-80.63,1.0,-2.0,0,0,,10.0,30.380905,,,TRUE,TRUE,,,,,,,CLR,,,,,,,,VFR,,,,,,,,,,,,METAR,31.0
KPZQ 120535Z AUTO 00000KT 10SM BKN080 OVC095 M07/M09 A3044 RMK AO2 T10701095,KPZQ,2019-01-12T05:35:00Z,45.4,-83.82,-7.0,-9.5,0,0,,10.0,30.43996,,,TRUE,TRUE,,,,,,,BKN,8000,OVC,9500,,,,,VFR,,,,,,,,,,,,METAR,204.0
KPQN 120535Z AUTO 04009KT 1 1/2SM BR OVC002 M08/M08 A3019 RMK AO2,KPQN,2019-01-12T05:35:00Z,43.97,-96.32,-8.0,-8.0,40,9,,1.5,30.188976,,,TRUE,TRUE,,,,,,BR,OVC,200,,,,,,,LIFR,,,,,,,,,,,,METAR,529.0
KPOV 120535Z AUTO 00000KT 10SM OVC110 M06/M09 A3038 RMK AO2 T10611087 PWINO,KPOV,2019-01-12T05:35:00Z,41.22,-81.25,-6.1,-8.7,0,0,,10.0,30.380905,,,TRUE,TRUE,,,,,TRUE,,OVC,11000,,,,,,,VFR,,,,,,,,,,,,METAR,365.0
KPNM 120535Z AUTO 02003KT 10SM CLR M07/M09 A3026 RMK AO2,KPNM,2019-01-12T05:35:00Z,45.57,-93.6,-7.0,-9.0,20,3,,10.0,30.259842,,,TRUE,TRUE,,,,,,,CLR,,,,,,,,VFR,,,,,,,,,,,,METAR,298.0
KPLR 120535Z AUTO 00000KT 10SM CLR 04/03 A3024 RMK A01,KPLR,2019-01-12T05:35:00Z,33.57,-86.25,4.0,3.0,0,0,,10.0,30.239174,,,TRUE,TRUE,,,,,,,CLR,,,,,,,,VFR,,,,,,,,,,,,METAR,148.0
KPHN 120535Z AUTO 00000KT 10SM OVC065 M03/M07 A3042 RMK AO2,KPHN,2019-01-12T05:35:00Z,42.92,-82.52,-3.0,-7.0,0,0,,10.0,30.41929,,,TRUE,TRUE,,,,,,,OVC,6500,,,,,,,VFR,,,,,,,,,,,,METAR,198.0
KPDC 120535Z AUTO 10004KT 10SM OVC050 M01/M06 A3027 RMK AO2 T10111059,KPDC,2019-01-12T05:35:00Z,43.02,-91.12,-1.1,-5.9,100,4,,10.0,30.268702,,,TRUE,TRUE,,,,,,,OVC,5000,,,,,,,VFR,,,,,,,,,,,,METAR,201.0
KPAN 120535Z AUTO 02005KT 10SM CLR 03/M05 A3014 RMK AO2,KPAN,2019-01-12T05:35:00Z,34.25,-111.33,3.0,-5.0,20,5,,10.0,30.138779,,,TRUE,TRUE,,,,,,,CLR,,,,,,,,VFR,,,,,,,,,,,,METAR,1572.0
KOXV 120535Z AUTO 10008KT 1 3/4SM -SN OVC005 M02/M02 A3016 RMK AO2,KOXV,2019-01-12T05:35:00Z,41.28,-93.12,-2.0,-2.0,100,8,,1.75,30.159449,,,TRUE,TRUE,,,,,,-SN,OVC,500,,,,,,,IFR,,,,,,,,,,,,METAR,283.0
KORS 120535Z AUTO 00000KT 7SM CLR 05/05 A2993 RMK AO2,KORS,2019-01-12T05:35:00Z,48.7,-122.92,5.0,5.0,0,0,,7.0,29.929134,,,TRUE,TRUE,,,,,,,CLR,,,,,,,,VFR,,,,,,,,,,,,METAR,9.0
KORC 120535Z AUTO 06003KT 10SM CLR M02/M03 A3016 RMK AO2,KORC,2019-01-12T05:35:00Z,42.97,-96.07,-2.0,-3.0,60,3,,10.0,30.159449,,,TRUE,TRUE,,,,,,,CLR,,,,,,,,VFR,,,,,,,,,,,,METAR,431.0
KONZ 120535Z AUTO 05005KT 10SM OVC024 M03/M06 A3039 RMK AO2 T10331061,KONZ,2019-01-12T05:35:00Z,42.1,-83.15,-3.3,-6.1,50,5,,10.0,30.389763,,,TRUE,TRUE,,,,,,,OVC,2400,,,,,,,MVFR,,,,,,,,,,,,METAR,180.0
KONA 120535Z AUTO 13003KT 10SM OVC050 M01/M06 A3027 RMK AO2,KONA,2019-01-12T05:35:00Z,44.07,-91.7,-1.0,-6.0,130,3,,10.0,30.268702,,,TRUE,TRUE,,,,,,,OVC,5000,,,,,,,VFR,,,,,,,,,,,,METAR,200.0
KOLV 120535Z AUTO 12007KT 5SM HZ OVC070 03/01 A3011 RMK A01,KOLV,2019-01-12T05:35:00Z,34.98,-89.78,3.0,1.0,120,7,,5.0,30.109253,,,TRUE,TRUE,,,,,,HZ,OVC,7000,,,,,,,MVFR,,,,,,,,,,,,METAR,122.0
KOEB 120535Z AUTO 00000KT 10SM BKN065 M03/M06 A3034 RMK AO2 T10331059,KOEB,2019-01-12T05:35:00Z,41.92,-85.03,-3.3,-5.9,0,0,,10.0,30.339567,,,TRUE,TRUE,,,,,,,BKN,6500,,,,,,,VFR,,,,,,,,,,,,METAR,292.0
KO22 120535Z AUTO 00000KT 10SM CLR 06/01 A2991 RMK A01,KO22,2019-01-12T05:35:00Z,38.03,-120.42,6.0,1.0,0,0,,10.0,29.911417,,,TRUE,TRUE,,,,,,,CLR,,,,,,,,VFR,,,,,,,,,,,,METAR,646.0
KMYP 120535Z AUTO 07030KT OVC001 M10/M11 A3013 RMK AO2 PWINO,KMYP,2019-01-12T05:35:00Z,38.48,-106.32,-10.0,-11.0,70,30,,,30.129921,,,TRUE,TRUE,,,,,TRUE,,OVC,100,,,,,,,,,,,,,,,,,,,METAR,3667.0
KMWM 120535Z AUTO 33008KT 10SM CLR M07/M07 A3019 RMK AO2,KMWM,2019-01-12T05:35:00Z,43.9,-95.1,-7.0,-7.0,330,8,,10.0,30.188976,,,TRUE,TRUE,,,,,,,CLR,,,,,,,,VFR,,,,,,,,,,,,METAR,430.0
KMUT 120535Z AUTO 12005KT 2SM -SN OVC011 M01/M03 A3025 RMK AO2,KMUT,2019-01-12T05:35:00Z,41.37,-91.15,-1.0,-3.0,120,5,,2.0,30.250984,,,TRUE,TRUE,,,,,,-SN,OVC,1100,,,,,,,IFR,,,,,,,,,,,,METAR,167.0
KMQJ 120535Z AUTO 12006KT 10SM OVC080 M02/M03 A3031 RMK AO1,KMQJ,2019-01-12T05:35:00Z,39.85,-85.9,-2.0,-3.0,120,6,,10.0,30.31004,,,TRUE,TRUE,,,,,,,OVC,8000,,,,,,,VFR,,,,,,,,,,,,METAR,263.0
KMHL 120535Z AUTO 00000KT 1SM -SN OVC004 00/00 A3010 RMK AO2,KMHL,2019-01-12T05:35:00Z,39.1,-93.2,0.0,0.0,0,0,,1.0,30.100393,,,TRUE,TRUE,,,,,,-SN,OVC,400,,,,,,,LIFR,,,,,,,,,,,,METAR,237.0
KMBO 120535Z AUTO 00000KT 10SM CLR 08/00 A3012 RMK AO2 PWINO,KMBO,2019-01-12T05:35:00Z,32.43,-90.1,8.0,0.0,0,0,,10.0,30.121063,,,TRUE,TRUE,,,,,TRUE,,CLR,,,,,,,,VFR,,,,,,,,,,,,METAR,99.0
KMAN 120535Z AUTO 15012KT 10SM CLR 02/02 A3020 RMK A01,KMAN,2019-01-12T05:35:00Z,43.58,-116.52,2.0,2.0,150,12,,10.0,30.200787,,,TRUE,TRUE,,,,,,,CLR,,,,,,,,VFR,,,,,,,,,,,,METAR,774.0
KM40 120535Z AUTO 08004KT 10SM FEW090 SCT120 07/01 A3018 RMK AO2,KM40,2019-01-12T05:35:00Z,33.87,-88.48,7.0,1.0,80,4,,10.0,30.180119,,,TRUE,TRUE,,,,,,,FEW,9000,SCT,12000,,,,,VFR,,,,,,,,,,,,METAR,69.0
KLYV 120535Z AUTO 03008G15KT 7SM CLR M06/M08 A3020 RMK AO2,KLYV,2019-01-12T05:35:00Z,43.62,-96.22,-6.0,-8.0,30,8,15,7.0,30.200787,,,TRUE,TRUE,,,,,,,CLR,,,,,,,,VFR,,,,,,,,,,,,METAR,436.0
KLRO 120535Z AUTO 01003KT 10SM CLR 03/00 A3037 RMK AO2,KLRO,2019-01-12T05:35:00Z,32.9,-79.78,3.0,0.0,10,3,,10.0,30.369095,,,TRUE,TRUE,,,,,,,CLR,,,,,,,,VFR,,,,,,,,,,,,METAR,4.0
KLRJ 120535Z AUTO 01004KT 10SM CLR M02/M02 A3017 RMK AO2,KLRJ,2019-01-12T05:35:00Z,42.77,-96.2,-2.0,-2.0,10,4,,10.0,30.171259,,,TRUE,TRUE,,,,,,,CLR,,,,,,,,VFR,,,,,,,,,,,,METAR,365.0
KLMO 120535Z AUTO 00000KT 10SM UP BKN026 OVC050 02/01 A3021 RMK AO2 T00200008,KLMO,2019-01-12T05:35:00Z,40.17,-105.17,2.0,0.8,0,0,,10.0,30.209646,,,TRUE,TRUE,,,,,,UP,BKN,2600,OVC,5000,,,,,MVFR,,,,,,,,,,,,METAR,1541.0
KLBE 120535Z AUTO 10SM CLR M08/M09 A3039 RMK AO2,KLBE,2019-01-12T05:35:00Z,40.27,-79.4,-8.0,-9.0,,,,10.0,30.389763,,,TRUE,TRUE,,,,,,,CLR,,,,,,,,VFR,,,,,,,,,,,,METAR,361.0
KL52 120535Z AUTO 11004KT 2SM BR SCT003 BKN028 OVC045 12/11 A2993 RMK A01,KL52,2019-01-12T05:35:00Z,35.1,-120.62,12.0,11.0,110,4,,2.0,29.929134,,,TRUE,TRUE,,,,,,BR,SCT,300,BKN,2800,OVC,4500,,,IFR,,,,,,,,,,,,METAR,4.0
KL08 120535Z AUTO 00000KT 10SM CLR 10/06 A3004 RMK AO2,KL08,2019-01-12T05:35:00Z,33.27,-116.32,10.0,6.0,0,0,,10.0,30.041338,,,TRUE,TRUE,,,,,,,CLR,,,,,,,,VFR,,,,,,,,,,,,METAR,159.0
KKY8 120535Z AUTO 06006KT 2SM BR BKN007 BKN013 BKN024 00/00 A3027 RMK A01,KKY8,2019-01-12T05:35:00Z,37.95,-86.87,0.0,0.0,60,6,,2.0,30.268702,,,TRUE,TRUE,,,,,,BR,BKN,700,BKN,1300,BKN,2400,,,IFR,,,,,,,,,,,,METAR,126.0
KJZI 120535Z AUTO 35006KT 8SM CLR 03/01 A3035 RMK AO2 PWINO,KJZI,2019-01-12T05:35:00Z,32.7,-80.0,3.0,1.0,350,6,,8.0,30.351377,,,TRUE,TRUE,,,,,TRUE,,CLR,,,,,,,,VFR,,,,,,,,,,,,METAR,6.0
KJYM 120535Z AUTO 09003KT 10SM SCT060 OVC070 M04/M07 A3033 RMK AO2 T10451073,KJYM,2019-01-12T05:35:00Z,41.92,-84.58,-4.5,-7.3,90,3,,10.0,30.33071,,,TRUE,TRUE,,,,,,,SCT,6000,OVC,7000,,,,,VFR,,,,,,,,,,,,METAR,360.0
KJYG 120535Z AUTO 28004KT 10SM CLR M04/M05 A3022 RMK AO2,KJYG,2019-01-12T05:35:00Z,43.98,-94.55,-4.0,-5.0,280,4,,10.0,30.221457,,,TRUE,TRUE,,,,,,,CLR,,,,,,,,VFR,,,,,,,,,,,,METAR,325.0
KJVY 120535Z AUTO 00000KT 2SM -SN SCT010 OVC020 M01/M01 A3030 RMK AO2 T10061013,KJVY,2019-01-12T05:35:00Z,,,-0.6,-1.3,0,0,,2.0,30.301182,,,TRUE,TRUE,,,,,,-SN,SCT,1000,OVC,2000,,,,,IFR,,,,,,,,,,,,METAR,
KJVW 120535Z AUTO 13006KT 10SM 09/01 A3011 RMK AO2,KJVW,2019-01-12T05:35:00Z,32.3,-90.42,9.0,1.0,130,6,,10.0,30.109253,,,TRUE,TRUE,,,,,,,,,,,,,,,,,,,,,,,,,,,METAR,76.0
KJVL 120535Z AUTO 12003KT 10SM OVC070 M01/M04 A3030 RMK AO2,KJVL,2019-01-12T05:35:00Z,42.62,-89.05,-1.0,-4.0,120,3,,10.0,30.301182,,,TRUE,TRUE,,,,,,,OVC,7000,,,,,,,VFR,,,,,,,,,,,,METAR,246.0
KJMR 120535Z AUTO 00000KT 10SM OVC046 M07/M09 A3029 RMK AO2,KJMR,2019-01-12T05:35:00Z,45.88,-93.27,-7.0,-9.0,0,0,,10.0,30.28937,,,TRUE,TRUE,,,,,,,OVC,4600,,,,,,,VFR,,,,,,,,,,,,METAR,309.0
KJKJ 120535Z AUTO 36012KT 10SM SCT005 OVC028 M08/M09 A3033 RMK AO2,KJKJ,2019-01-12T05:35:00Z,46.83,-96.67,-8.0,-9.0,360,12,,10.0,30.33071,,,TRUE,TRUE,,,,,,,SCT,500,OVC,2800,,,,,MVFR,,,,,,,,,,,,METAR,280.0
KJFX 120535Z AUTO 00000KT 10SM 05/01 A3020 RMK AO2 PWINO,KJFX,2019-01-12T05:35:00Z,33.9,-87.32,5.0,1.0,0,0,,10.0,30.200787,,,TRUE,TRUE,,,,,TRUE,,,,,,,,,,,,,,,,,,,,,,METAR,148.0
KIRS 120535Z AUTO 10003KT 10SM BKN075 M02/M06 A3033 RMK AO2 T10251057,KIRS,2019-01-12T05:35:00Z,41.8,-85.43,-2.5,-5.7,100,3,,10.0,30.33071,,,TRUE,TRUE,,,,,,,BKN,7500,,,,,,,VFR,,,,,,,,,,,,METAR,282.0
KIKV 120535Z AUTO 2SM -UP SCT007 SCT012 BKN032 M01/M02 A3018 RMK AO2,KIKV,2019-01-12T05:35:00Z,41.68,-93.57,-1.0,-2.0,,,,2.0,30.180119,,,TRUE,TRUE,,,,,,UP,SCT,700,SCT,1200,BKN,3200,,,IFR,,,,,,,,,,,,METAR,275.0
KIIB 120535Z AUTO 12007KT 10SM OVC080 M01/M04 A3022 RMK AO2 T10061040,KIIB,2019-01-12T05:35:00Z,42.45,-91.95,-0.6,-4.0,120,7,,10.0,30.221457,,,TRUE,TRUE,,,,,,,OVC,8000,,,,,,,VFR,,,,,,,,,,,,METAR,298.0
KICL 120535Z AUTO 06006KT 1 1/2SM -SN OVC003 00/M00 A3013 RMK AO2,KICL,2019-01-12T05:35:00Z,40.72,-95.02,0.0,0.0,60,6,,1.5,30.129921,,,TRUE,TRUE,,,,,,-SN,OVC,300,,,,,,,LIFR,,,,,,,,,,,,METAR,303.0
KI69 120535Z AUTO 12004KT 10SM OVC070 M01/M06 A3034 RMK AO2 T10081065,KI69,2019-01-12T05:35:00Z,39.08,-84.22,-0.8,-6.5,120,4,,10.0,30.339567,,,TRUE,TRUE,,,,,,,OVC,7000,,,,,,,VFR,,,,,,,,,,,,METAR,255.0
KHZX 120535Z AUTO 07005KT 10SM OVC026 M04/M07 A3029 RMK AO2,KHZX,2019-01-12T05:35:00Z,46.62,-93.32,-4.0,-7.0,70,5,,10.0,30.28937,,,TRUE,TRUE,,,,,,,OVC,2600,,,,,,,MVFR,,,,,,,,,,,,METAR,374.0
KHZL 120535Z AUTO 34005KT 10SM CLR M10/M16 A3037 RMK AO2,KHZL,2019-01-12T05:35:00Z,40.98,-76.0,-10.0,-16.0,340,5,,10.0,30.369095,,,TRUE,TRUE,,,,,,,CLR,,,,,,,,VFR,,,,,,,,,,,,METAR,489.0
KHZE 120535Z AUTO 04003KT 5SM BR OVC006 M11/M11 A3038 RMK AO2 TSNO,KHZE,2019-01-12T05:35:00Z,47.28,-101.58,-11.0,-11.0,40,3,,5.0,30.380905,,,TRUE,TRUE,,,TRUE,,,BR,OVC,600,,,,,,,IFR,,,,,,,,,,,,METAR,553.0
KHOB 120535Z AUTO 31007KT 10SM CLR 02/02 A3003 RMK AO2,KHOB,2019-01-12T05:35:00Z,32.67,-103.22,2.0,2.0,310,7,,10.0,30.029528,,,TRUE,TRUE,,,,,,,CLR,,,,,,,,VFR,,,,,,,,,,,,METAR,1115.0
KHNR 120535Z AUTO 04004KT 5SM -SN OVC008 M01/M01 A3013 RMK AO2,KHNR,2019-01-12T05:35:00Z,41.58,-95.33,-1.0,-1.0,40,4,,5.0,30.129921,,,TRUE,TRUE,,,,,,-SN,OVC,800,,,,,,,IFR,,,,,,,,,,,,METAR,375.0
KHCO 120535Z AUTO 01003KT 10SM SCT033 M08/M09 A3038 RMK AO2,KHCO,2019-01-12T05:35:00Z,48.75,-96.93,-8.0,-9.0,10,3,,10.0,30.380905,,,TRUE,TRUE,,,,,,,SCT,3300,,,,,,,VFR,,,,,,,,,,,,METAR,250.0
KHAI 120535Z AUTO 10003KT 10SM OVC065 M03/M06 A3035 RMK AO2 T10281062,KHAI,2019-01-12T05:35:00Z,41.97,-85.6,-2.8,-6.2,100,3,,10.0,30.351377,,,TRUE,TRUE,,,,,,,OVC,6500,,,,,,,VFR,,,,,,,,,,,,METAR,251.0
KHAF 120535Z AUTO 14008KT 5SM -RA BKN055 OVC065 13/10 A2988 RMK AO2,KHAF,2019-01-12T05:35:00Z,37.52,-122.5,13.0,10.0,140,8,,5.0,29.878937,,,TRUE,TRUE,,,,,,-RA,BKN,5500,OVC,6500,,,,,MVFR,,,,,,,,,,,,METAR,21.0
KGYL 120535Z AUTO 00000KT 10SM CLR M04/M06 A3023 RMK AO2 T10441059,KGYL,2019-01-12T05:35:00Z,44.77,-94.08,-4.4,-5.9,0,0,,10.0,30.230314,,,TRUE,TRUE,,,,,,,CLR,,,,,,,,VFR,,,,,,,,,,,,METAR,302.0
KGWR 120535Z AUTO 36012KT 8SM M08/M09 A3030 RMK A01,KGWR,2019-01-12T05:35:00Z,46.22,-97.65,-8.0,-9.0,360,12,,8.0,30.301182,,,TRUE,TRUE,,,,,,,,,,,,,,,,,,,,,,,,,,,METAR,386.0
KGPC 120535Z AUTO 00000KT 7SM -SN SCT016 BKN022 OVC032 M01/M05 A3029 RMK AO2,KGPC,2019-01-12T05:35:00Z,39.63,-86.82,-1.0,-5.0,0,0,,7.0,30.28937,,,TRUE,TRUE,,,,,,-SN,SCT,1600,BKN,2200,OVC,3200,,,MVFR,,,,,,,,,,,,METAR,257.0
KGNT 120535Z AUTO 36006KT 10SM CLR M02/M04 A3016 RMK AO2 T10161043,KGNT,2019-01-12T05:35:00Z,35.17,-107.9,-1.6,-4.3,360,6,,10.0,30.159449,,,TRUE,TRUE,,,,,,,CLR,,,,,,,,VFR,,,,,,,,,,,,METAR,1987.0
KGHW 120535Z AUTO 03007KT 7SM CLR M11/M11 A3023 RMK AO2,KGHW,2019-01-12T05:35:00Z,45.63,-95.32,-11.0,-11.0,30,7,,7.0,30.230314,,,TRUE,TRUE,,,,,,,CLR,,,,,,,,VFR,,,,,,,,,,,,METAR,425.0
KFSE 120535Z AUTO 05005KT 4SM BR OVC006 M07/M09 A3032 RMK AO2,KFSE,2019-01-12T05:35:00Z,47.58,-95.77,-7.0,-9.0,50,5,,4.0,30.318897,,,TRUE,TRUE,,,,,,BR,OVC,600,,,,,,,IFR,,,,,,,,,,,,METAR,389.0
KFPK 120535Z AUTO 12003KT 10SM OVC070 M03/M07 A3036 RMK AO2 T10291066,KFPK,2019-01-12T05:35:00Z,42.57,-84.82,-2.9,-6.6,120,3,,10.0,30.360237,,,TRUE,TRUE,,,,,,,OVC,7000,,,,,,,VFR,,,,,,,,,,,,METAR,272.0
KFMM 120535Z AUTO 36010KT 10SM -RA 01/00 A3017 RMK AO2 T00060000,KFMM,2019-01-12T05:35:00Z,40.33,-103.8,0.6,0.0,360,10,,10.0,30.171259,,,TRUE,TRUE,,,,,,-RA,,,,,,,,,,,,,,,,,,,,,METAR,1393.0
KFMH 120535Z AUTO 30011KT 290V350 10SM CLR M09/M21 A3033 RMK AO2,KFMH,2019-01-12T05:35:00Z,41.63,-70.52,-9.0,-21.0,300,11,,10.0,30.33071,,,TRUE,TRUE,,,,,,,CLR,,,,,,,,VFR,,,,,,,,,,,,METAR,40.0
KFLY 120535Z AUTO 35013G20KT 7SM -SN OVC027 M01/M03 A3012 RMK AO2 T10121028,KFLY,2019-01-12T05:35:00Z,38.95,-104.57,-1.2,-2.8,350,13,20,7.0,30.121063,,,TRUE,TRUE,,,,,,-SN,OVC,2700,,,,,,,MVFR,,,,,,,,,,,,METAR,2096.0
KFKS 120535Z AUTO 12003KT 10SM OVC016 M04/M05 A3037 RMK AO2 T10411055,KFKS,2019-01-12T05:35:00Z,44.63,-86.2,-4.1,-5.5,120,3,,10.0,30.369095,,,TRUE,TRUE,,,,,,,OVC,1600,,,,,,,MVFR,,,,,,,,,,,,METAR,193.0
KFFX 120535Z AUTO 00000KT 10SM OVC070 M03/M08 A3037 RMK AO2 T10261080,KFFX,2019-01-12T05:35:00Z,43.43,-86.0,-2.6,-8.0,0,0,,10.0,30.369095,,,TRUE,TRUE,,,,,,,OVC,7000,,,,,,,VFR,,,,,,,,,,,,METAR,236.0
KFFM 120535Z AUTO 01004KT 10SM OVC025 M07/M09 A3028 RMK AO2,KFFM,2019-01-12T05:35:00Z,46.28,-96.15,-7.0,-9.0,10,4,,10.0,30.280512,,,TRUE,TRUE,,,,,,,OVC,2500,,,,,,,MVFR,,,,,,,,,,,,METAR,361.0
KFFL 120535Z AUTO 10008KT 1 1/4SM BR OVC002 M02/M02 A3019 RMK AO2 PWINO,KFFL,2019-01-12T05:35:00Z,41.03,-91.97,-2.0,-2.0,100,8,,1.25,30.188976,,,TRUE,TRUE,,,,,TRUE,BR,OVC,200,,,,,,,LIFR,,,,,,,,,,,,METAR,244.0
KEVM 120535Z AUTO 06005KT 10SM OVC012 M05/M06 A3032 RMK AO2 T10501060,KEVM,2019-01-12T05:35:00Z,47.42,-92.5,-5.0,-6.0,60,5,,10.0,30.318897,,,TRUE,TRUE,,,,,,,OVC,1200,,,,,,,MVFR,,,,,,,,,,,,METAR,421.0
KELO 120535Z AUTO 05005KT 10SM OVC006 M07/M08 A3034 RMK AO2 TSNO,KELO,2019-01-12T05:35:00Z,47.82,-91.82,-7.0,-8.0,50,5,,10.0,30.339567,,,TRUE,TRUE,,,TRUE,,,,OVC,600,,,,,,,IFR,,,,,,,,,,,,METAR,443.0
KEKX 120535Z AUTO 08005KT 4SM -SN OVC004 M01/M01 A3027 RMK AO2 T10111011,KEKX,2019-01-12T05:35:00Z,,,-1.1,-1.1,80,5,,4.0,30.268702,,,TRUE,TRUE,,,,,,-SN,OVC,400,,,,,,,LIFR,,,,,,,,,,,,METAR,
KDYT 120535Z AUTO 10SM BKN039 OVC046 M02/M04 A3035 RMK AO2,KDYT,2019-01-12T05:35:00Z,46.72,-92.03,-2.0,-4.0,,,,10.0,30.351377,,,TRUE,TRUE,,,,,,,BKN,3900,OVC,4600,,,,,VFR,,,,,,,,,,,,METAR,186.0
KDUH 120535Z AUTO 00000KT 7SM CLR M05/M07 A3038 RMK AO2 T10531067,KDUH,2019-01-12T05:35:00Z,41.73,-83.65,-5.3,-6.7,0,0,,7.0,30.380905,,,TRUE,TRUE,,,,,,,CLR,,,,,,,,VFR,,,,,,,,,,,,METAR,204.0
KDRM 120535Z AUTO 00000KT 10SM OVC085 M10/M12 A3045 RMK AO2 T10981120,KDRM,2019-01-12T05:35:00Z,46.0,-83.75,-9.8,-12.0,0,0,,10.0,30.448818,,,TRUE,TRUE,,,,,,,OVC,8500,,,,,,,VFR,,,,,,,,,,,,METAR,204.0
KDNS 120535Z AUTO 06005KT 10SM OVC040 00/M02 A3016 RMK AO2,KDNS,2019-01-12T05:35:00Z,41.97,-95.37,0.0,-2.0,60,5,,10.0,30.159449,,,TRUE,TRUE,,,,,,,OVC,4000,,,,,,,VFR,,,,,,,,,,,,METAR,388.0
KDNA 120535Z AUTO 00000KT 10SM FEW050 06/00 A3013 RMK AO2,KDNA,2019-01-12T05:35:00Z,31.88,-106.7,6.0,0.0,0,0,,10.0,30.129921,,,TRUE,TRUE,,,,,,,FEW,5000,,,,,,,VFR,,,,,,,,,,,,METAR,1253.0
KDLZ 120535Z AUTO 10003KT 10SM CLR M03/M06 A3035 RMK AO2,KDLZ,2019-01-12T05:35:00Z,40.28,-83.12,-3.0,-6.0,100,3,,10.0,30.351377,,,TRUE,TRUE,,,,,,,CLR,,,,,,,,VFR,,,,,,,,,,,,METAR,289.0
KDLL 120535Z AUTO 00000KT 10SM BKN050 OVC065 M02/M05 A3028 RMK AO2 T10221054,KDLL,2019-01-12T05:35:00Z,43.52,-89.77,-2.2,-5.4,0,0,,10.0,30.280512,,,TRUE,TRUE,,,,,,,BKN,5000,OVC,6500,,,,,VFR,,,,,,,,,,,,METAR,299.0
KDEH 120535Z AUTO 10005KT 10SM OVC044 M02/M04 A3022 RMK AO2,KDEH,2019-01-12T05:35:00Z,43.27,-91.72,-2.0,-4.0,100,5,,10.0,30.221457,,,TRUE,TRUE,,,,,,,OVC,4400,,,,,,,VFR,,,,,,,,,,,,METAR,353.0
KD95 120535Z AUTO 00000KT 10SM SCT065 OVC070 M03/M10 A3040 RMK AO2 T10331105,KD95,2019-01-12T05:35:00Z,43.07,-83.27,-3.3,-10.5,0,0,,10.0,30.398623,,,TRUE,TRUE,,,,,,,SCT,6500,OVC,7000,,,,,VFR,,,,,,,,,,,,METAR,255.0
KD60 120535Z AUTO 11007KT 8SM BKN007 M13/M13 A3034 RMK AO2,KD60,2019-01-12T05:35:00Z,48.38,-102.9,-13.0,-13.0,110,7,,8.0,30.339567,,,TRUE,TRUE,,,,,,,BKN,700,,,,,,,IFR,,,,,,,,,,,,METAR,693.0
KD55 120535Z AUTO 02007KT 10SM OVC005 M11/M11 A3036 RMK AO2,KD55,2019-01-12T05:35:00Z,48.75,-98.4,-11.0,-11.0,20,7,,10.0,30.360237,,,TRUE,TRUE,,,,,,,OVC,500,,,,,,,IFR,,,,,,,,,,,,METAR,491.0
KD50 120535Z AUTO 13007KT 7SM FEW003 OVC012 M12/M12 A3035 RMK AO2,KD50,2019-01-12T05:35:00Z,48.93,-103.3,-12.0,-12.0,130,7,,7.0,30.351377,,,TRUE,TRUE,,,,,,,FEW,300,OVC,1200,,,,,MVFR,,,,,,,,,,,,METAR,595.0
KCXP 120535Z AUTO 00000KT 10SM CLR M01/M02 A3004 RMK AO2,KCXP,2019-01-12T05:35:00Z,39.18,-119.73,-1.0,-2.0,0,0,,10.0,30.041338,,,TRUE,TRUE,,,,,,,CLR,,,,,,,,VFR,,,,,,,,,,,,METAR,1435.0
KCVX 120535Z AUTO 09005KT 10SM OVC033 M05/M10 A3043 RMK AO2 T10471105,KCVX,2019-01-12T05:35:00Z,45.3,-85.27,-4.7,-10.5,90,5,,10.0,30.431103,,,TRUE,TRUE,,,,,,,OVC,3300,,,,,,,VFR,,,,,,,,,,,,METAR,204.0
KCVH 120535Z AUTO 17005KT 10SM BKN090 13/10 A2989 RMK A01,KCVH,2019-01-12T05:35:00Z,36.9,-121.42,13.0,10.0,170,5,,10.0,29.890747,,,TRUE,TRUE,,,,,,,BKN,9000,,,,,,,VFR,,,,,,,,,,,,METAR,70.0
KAQX 120535Z AUTO 00000KT 10SM OVC049 03/M03 A3036 RMK AO2 TSNO,KAQX,2019-01-12T05:35:00Z,32.98,-81.27,3.0,-3.0,0,0,,10.0,30.360237,,,TRUE,TRUE,,,TRUE,,,,OVC,4900,,,,,,,VFR,,,,,,,,,,,,METAR,49.0
KANK 120535Z AUTO 00000KT 5SM BKN026 BKN035 OVC043 M02/M03 A3020 RMK AO1 T10201028,KANK,2019-01-12T05:35:00Z,38.53,-106.05,-2.0,-2.8,0,0,,5.0,30.200787,,,TRUE,TRUE,,,,,,,BKN,2600,BKN,3500,OVC,4300,,,MVFR,,,,,,,,,,,,METAR,2293.0
KANE 120535Z AUTO 00000KT 10SM CLR M05/M08 A3025 RMK AO2,KANE,2019-01-12T05:35:00Z,45.15,-93.22,-5.0,-8.0,0,0,,10.0,30.250984,,,TRUE,TRUE,,,,,,,CLR,,,,,,,,VFR,,,,,,,,,,,,METAR,278.0
KAIO 120535Z AUTO 06004KT 2SM UP BKN005 BKN016 BKN024 M00/M00 A3013 RMK AO2,KAIO,2019-01-12T05:35:00Z,41.38,-95.03,0.0,0.0,60,4,,2.0,30.129921,,,TRUE,TRUE,,,,,,UP,BKN,500,BKN,1600,BKN,2400,,,IFR,,,,,,,,,,,,METAR,360.0
KAIB 120535Z AUTO 00000KT 10SM OVC100 M01/M03 A3018 RMK AO2,KAIB,2019-01-12T05:35:00Z,38.23,-108.57,-1.0,-3.0,0,0,,10.0,30.180119,,,TRUE,TRUE,,,,,,,OVC,10000,,,,,,,VFR,,,,,,,,,,,,METAR,1811.0
KAEJ 120535Z AUTO 00000KT 10SM OVC070 M07/M09 A3013 RMK AO2 T10661088,KAEJ,2019-01-12T05:35:00Z,38.82,-106.12,-6.6,-8.8,0,0,,10.0,30.129921,,,TRUE,TRUE,,,,,,,OVC,7000,,,,,,,VFR,,,,,,,,,,,,METAR,2422.0
KADU 120535Z AUTO 00000KT 4SM -SN OVC010 M01/M03 A3014 RMK AO2,KADU,2019-01-12T05:35:00Z,41.7,-94.92,-1.0,-3.0,0,0,,4.0,30.138779,,,TRUE,TRUE,,,,,,-SN,OVC,1000,,,,,,,MVFR,,,,,,,,,,,,METAR,392.0
KACB 120535Z AUTO 00000KT 10SM OVC025 M05/M11 A3041 RMK AO2 T10481111,KACB,2019-01-12T05:35:00Z,44.98,-85.2,-4.8,-11.1,0,0,,10.0,30.410433,,,TRUE,TRUE,,,,,,,OVC,2500,,,,,,,MVFR,,,,,,,,,,,,METAR,190.0
K9MN 120535Z AUTO 11004KT 10SM OVC042 M02/M06 A3024 RMK AO1 T10231060,K9MN,2019-01-12T05:35:00Z,44.02,-92.48,-2.3,-6.0,110,4,,10.0,30.239174,,,TRUE,TRUE,,,,,,,OVC,4200,,,,,,,VFR,,,,,,,,,,,,METAR,355.0
K9D7 120535Z AUTO 01007KT 8SM OVC008 M12/M12 A3040 RMK AO2,K9D7,2019-01-12T05:35:00Z,48.48,-99.23,-12.0,-12.0,10,7,,8.0,30.398623,,,TRUE,TRUE,,,,,,,OVC,800,,,,,,,IFR,,,,,,,,,,,,METAR,452.0
K82C 120535Z AUTO 10003KT 7SM OVC050 M02/M05 A3028 RMK AO2 T10201053,K82C,2019-01-12T05:35:00Z,43.83,-90.13,-2.0,-5.3,100,3,,7.0,30.280512,,,TRUE,TRUE,,,,,,,OVC,5000,,,,,,,VFR,,,,,,,,,,,,METAR,276.0
K7L2 120535Z AUTO 01007KT 6SM BR M10/M11 A3034 RMK AO2,K7L2,2019-01-12T05:35:00Z,46.22,-100.25,-10.0,-11.0,10,7,,6.0,30.339567,,,TRUE,TRUE,,,,,,BR,,,,,,,,,,,,,,,,,,,,,METAR,543.0
K6S2 120535Z AUTO 09005KT 10SM SCT095 10/04 A2982 RMK AO2,K6S2,2019-01-12T05:35:00Z,43.98,-124.12,10.0,4.0,90,5,,10.0,29.819881,,,TRUE,TRUE,,,,,,,SCT,9500,,,,,,,VFR,,,,,,,,,,,,METAR,16.0
K6L4 120535Z AUTO 04003KT 10SM BKN075 OVC090 M01/M08 A3026 RMK AO2,K6L4,2019-01-12T05:35:00Z,37.85,-81.92,-1.0,-8.0,40,3,,10.0,30.259842,,,TRUE,TRUE,,,,,,,BKN,7500,OVC,9000,,,,,VFR,,,,,,,,,,,,METAR,508.0
K6B9 120535Z AUTO 24005KT 10SM OVC025 M10/M14 A3040 RMK AO2,K6B9,2019-01-12T05:35:00Z,42.92,-76.43,-10.0,-14.0,240,5,,10.0,30.398623,,,TRUE,TRUE,,,,,,,OVC,2500,,,,,,,MVFR,,,,,,,,,,,,METAR,316.0
K5H4 120535Z AUTO 02007KT 10SM OVC006 M12/M12 A3038 RMK AO2,K5H4,2019-01-12T05:35:00Z,47.78,-99.93,-12.0,-12.0,20,7,,10.0,30.380905,,,TRUE,TRUE,,,,,,,OVC,600,,,,,,,IFR,,,,,,,,,,,,METAR,490.0
K4M9 120535Z AUTO 09009KT 10SM SCT009 OVC060 02/02 A3014 RMK AO2 PWINO,K4M9,2019-01-12T05:35:00Z,36.4,-90.65,2.0,2.0,90,9,,10.0,30.138779,,,TRUE,TRUE,,,,,TRUE,,SCT,900,OVC,6000,,,,,VFR,,,,,,,,,,,,METAR,90.0
K4I3 120535Z AUTO 09004KT 10SM CLR M05/M06 A3035 RMK AO2,K4I3,2019-01-12T05:35:00Z,40.33,-82.53,-5.0,-6.0,90,4,,10.0,30.351377,,,TRUE,TRUE,,,,,,,CLR,,,,,,,,VFR,,,,,,,,,,,,METAR,363.0
K4A6 120535Z AUTO 00000KT 10SM CLR 05/M01 A3026 RMK AO2,K4A6,2019-01-12T05:35:00Z,34.68,-86.0,5.0,-1.0,0,0,,10.0,30.259842,,,TRUE,TRUE,,,,,,,CLR,,,,,,,,VFR,,,,,,,,,,,,METAR,198.0
K46D 120535Z AUTO 36008KT 1 1/2SM BR OVC002 M10/M11 A3036 RMK AO2,K46D,2019-01-12T05:35:00Z,47.45,-99.15,-10.0,-11.0,360,8,,1.5,30.360237,,,TRUE,TRUE,,,,,,BR,OVC,200,,,,,,,LIFR,,,,,,,,,,,,METAR,490.0
K42J 120535Z AUTO 06006KT 10SM FEW028 SCT033 BKN046 09/08 A3023 RMK A01 TSNO,K42J,2019-01-12T05:35:00Z,29.85,-82.05,9.0,8.0,60,6,,10.0,30.230314,,,TRUE,TRUE,,,TRUE,,,,FEW,2800,SCT,3300,BKN,4600,,,VFR,,,,,,,,,,,,METAR,60.0
K33V 120535Z AUTO 34009KT 10SM SCT035 SCT055 OVC110 M06/M08 A3016 RMK AO1,K33V,2019-01-12T05:35:00Z,40.75,-106.28,-6.0,-8.0,340,9,,10.0,30.159449,,,TRUE,TRUE,,,,,,,SCT,3500,SCT,5500,OVC,11000,,,VFR,,,,,,,,,,,,METAR,2484.0
K2P2 120535Z AUTO 13004KT 7SM UP BKN007 OVC012 M02/M03 A3035 RMK AO2 T10161026,K2P2,2019-01-12T05:35:00Z,45.38,-86.92,-1.6,-2.6,130,4,,7.0,30.351377,,,TRUE,TRUE,,,,,,UP,BKN,700,OVC,1200,,,,,IFR,,,,,,,,,,,,METAR,199.0
K2D5 120535Z AUTO 01011KT 3SM BR OVC005 M09/M09 A3030 RMK AO2 PWINO,K2D5,2019-01-12T05:35:00Z,46.17,-98.08,-9.0,-9.0,10,11,,3.0,30.301182,,,TRUE,TRUE,,,,,TRUE,BR,OVC,500,,,,,,,IFR,,,,,,,,,,,,METAR,407.0
K24J 120535Z AUTO 05006KT 10SM OVC050 09/05 A3025 RMK A01,K24J,2019-01-12T05:35:00Z,30.3,-83.03,9.0,5.0,50,6,,10.0,30.250984,,,TRUE,TRUE,,,,,,,OVC,5000,,,,,,,VFR,,,,,,,,,,,,METAR,32.0
K20U 120535Z AUTO 13004KT 3SM BR OVC003 M08/M08 A3026 RMK AO2,K20U,2019-01-12T05:35:00Z,46.93,-103.98,-8.0,-8.0,130,4,,3.0,30.259842,,,TRUE,TRUE,,,,,,BR,OVC,300,,,,,,,LIFR,,,,,,,,,,,,METAR,840.0
K0S9 120535Z AUTO 00000KT 9SM CLR 04/04 A2992 RMK AO2,K0S9,2019-01-12T05:35:00Z,48.05,-122.82,4.0,4.0,0,0,,9.0,29.920275,,,TRUE,TRUE,,,,,,,CLR,,,,,,,,VFR,,,,,,,,,,,,METAR,33.0
K08D 120535Z AUTO 11004KT 10SM -SN OVC008 M12/M12 A3033 RMK AO2,K08D,2019-01-12T05:35:00Z,48.3,-102.4,-12.0,-12.0,110,4,,10.0,30.33071,,,TRUE,TRUE,,,,,,-SN,OVC,800,,,,,,,IFR,,,,,,,,,,,,METAR,684.0
K06D 120535Z AUTO 01006KT 10SM OVC007 M13/M13 A3036 RMK AO2,K06D,2019-01-12T05:35:00Z,48.88,-99.62,-13.0,-13.0,10,6,,10.0,30.360237,,,TRUE,TRUE,,,,,,,OVC,700,,,,,,,IFR,,,,,,,,,,,,METAR,556.0
KCSQ 120535Z AUTO 08008KT 1 1/2SM -SN BKN004 OVC024 M01/M01 A3012 RMK AO2,KCSQ,2019-01-12T05:35:00Z,41.02,-94.37,-1.0,-1.0,80,8,,1.5,30.121063,,,TRUE,TRUE,,,,,,-SN,BKN,400,OVC,2400,,,,,LIFR,,,,,,,,,,,,METAR,394.0
KCQW 120535Z AUTO 00000KT 10SM FEW023 SCT029 M02/M05 A3040 RMK AO2,KCQW,2019-01-12T05:35:00Z,34.72,-79.95,-2.0,-5.0,0,0,,10.0,30.398623,,,TRUE,TRUE,,,,,,,FEW,2300,SCT,2900,,,,,VFR,,,,,,,,,,,,METAR,73.0
KCPT 120535Z AUTO 20009KT 7SM OVC003 12/12 A2993 RMK AO2,KCPT,2019-01-12T05:35:00Z,32.35,-97.43,12.0,12.0,200,9,,7.0,29.929134,,,TRUE,TRUE,,,,,,,OVC,300,,,,,,,LIFR,,,,,,,,,,,,METAR,260.0
KCPS 120535Z AUTO 12006KT 2 1/2SM -SN BR BKN008 BKN018 OVC031 M01/M02 A3020 RMK AO2 P0002 T10111022,KCPS,2019-01-12T05:35:00Z,38.57,-90.15,-1.1,-2.2,120,6,,2.5,30.200787,,,TRUE,TRUE,,,,,,-SN BR,BKN,800,BKN,1800,OVC,3100,,,IFR,,,,,,0.02,,,,,,SPECI,126.0
KCOQ 120535Z AUTO 08006KT 10SM BKN027 OVC035 M04/M08 A3029 RMK AO2,KCOQ,2019-01-12T05:35:00Z,46.7,-92.5,-4.0,-8.0,80,6,,10.0,30.28937,,,TRUE,TRUE,,,,,,,BKN,2700,OVC,3500,,,,,MVFR,,,,,,,,,,,,METAR,390.0
KCNC 120535Z AUTO 09009KT -SN BKN004 M02/M02 A3014 RMK AO2,KCNC,2019-01-12T05:35:00Z,41.02,-93.37,-2.0,-2.0,90,9,,,30.138779,,,TRUE,TRUE,,,,,,-SN,BKN,400,,,,,,,,,,,,,,,,,,,METAR,320.0
KCMR 120535Z AUTO 17007KT 10SM CLR M03/M07 A3014 RMK AO2,KCMR,2019-01-12T05:35:00Z,35.3,-112.2,-3.0,-7.0,170,7,,10.0,30.138779,,,TRUE,TRUE,,,,,,,CLR,,,,,,,,VFR,,,,,,,,,,,,METAR,2036.0
KCIN 120535Z AUTO 08006KT 10SM BKN018 OVC040 M00/M02 A3015 RMK AO2,KCIN,2019-01-12T05:35:00Z,42.03,-94.77,0.0,-2.0,80,6,,10.0,30.15059,,,TRUE,TRUE,,,,,,,BKN,1800,OVC,4000,,,,,MVFR,,,,,,,,,,,,METAR,375.0
KCFJ 120535Z AUTO 12006KT 10SM BKN029 OVC065 M01/M05 A3029 RMK AO2 T10151049,KCFJ,2019-01-12T05:35:00Z,39.98,-86.92,-1.5,-4.9,120,6,,10.0,30.28937,,,TRUE,TRUE,,,,,,,BKN,2900,OVC,6500,,,,,MVFR,,,,,,,,,,,,METAR,244.0
KCEY 120535Z AUTO 08009KT 10SM OVC055 00/00 A3019 RMK AO1,KCEY,2019-01-12T05:35:00Z,36.67,-88.37,0.0,0.0,80,9,,10.0,30.188976,,,TRUE,TRUE,,,,,,,OVC,5500,,,,,,,VFR,,,,,,,,,,,,METAR,176.0
KCDN 120535Z AUTO 00000KT 9SM FEW029 M02/M05 A3040 RMK AO2,KCDN,2019-01-12T05:35:00Z,34.28,-80.57,-2.0,-5.0,0,0,,9.0,30.398623,,,TRUE,TRUE,,,,,,,FEW,2900,,,,,,,VFR,,,,,,,,,,,,METAR,92.0
KCBG 120535Z AUTO 01003KT 10SM CLR M06/M11 A3027 RMK AO2,KCBG,2019-01-12T05:35:00Z,45.57,-93.27,-6.0,-11.0,10,3,,10.0,30.268702,,,TRUE,TRUE,,,,,,,CLR,,,,,,,,VFR,,,,,,,,,,,,METAR,287.0
KCBF 120535Z AUTO 02005KT 1 3/4SM -SN SCT004 OVC015 M00/M00 A3012 RMK AO2,KCBF,2019-01-12T05:35:00Z,41.27,-95.77,0.0,0.0,20,5,,1.75,30.121063,,,TRUE,TRUE,,,,,,-SN,SCT,400,OVC,1500,,,,,IFR,,,,,,,,,,,,METAR,382.0
KCAV 120535Z AUTO 10006KT 10SM OVC028 M00/M03 A3018 RMK AO2 PWINO,KCAV,2019-01-12T05:35:00Z,42.75,-93.77,0.0,-3.0,100,6,,10.0,30.180119,,,TRUE,TRUE,,,,,TRUE,,OVC,2800,,,,,,,MVFR,,,,,,,,,,,,METAR,354.0
KCAD 120535Z AUTO 13005KT 10SM OVC010 M06/M11 A3034 RMK AO2 T10601108,KCAD,2019-01-12T05:35:00Z,44.27,-85.42,-6.0,-10.8,130,5,,10.0,30.339567,,,TRUE,TRUE,,,,,,,OVC,1000,,,,,,,MVFR,,,,,,,,,,,,METAR,398.0
KBWW 120535Z AUTO 00000KT 1/2SM FZFG OVC003 M09/M09 A3014 RMK AO2,KBWW,2019-01-12T05:35:00Z,46.17,-103.3,-9.0,-9.0,0,0,,0.5,30.138779,,,TRUE,TRUE,,,,,,FZFG,OVC,300,,,,,,,LIFR,,,,,,,,,,,,METAR,910.0
KBUU 120535Z AUTO 00000KT 10SM OVC075 M03/M06 A3031 RMK AO2 T10301062,KBUU,2019-01-12T05:35:00Z,42.68,-88.3,-3.0,-6.2,0,0,,10.0,30.31004,,,TRUE,TRUE,,,,,,,OVC,7500,,,,,,,VFR,,,,,,,,,,,,METAR,237.0
KBRY 120535Z AUTO 07003KT 7SM CLR M01/M02 A3027 RMK AO1,KBRY,2019-01-12T05:35:00Z,37.82,-85.5,-1.0,-2.0,70,3,,7.0,30.268702,,,TRUE,TRUE,,,,,,,CLR,,,,,,,,VFR,,,,,,,,,,,,METAR,204.0
KBOW 120535Z AUTO 07006KT 10SM 13/11 A3017 RMK AO2,KBOW,2019-01-12T05:35:00Z,27.93,-81.77,13.0,11.0,70,6,,10.0,30.171259,,,TRUE,TRUE,,,,,,,,,,,,,,,,,,,,,,,,,,,METAR,39.0
KBNW 120535Z AUTO 11009KT 10SM OVC012 M01/M02 A3016 RMK AO2,KBNW,2019-01-12T05:35:00Z,42.03,-93.83,-1.0,-2.0,110,9,,10.0,30.159449,,,TRUE,TRUE,,,,,,,OVC,1200,,,,,,,MVFR,,,,,,,,,,,,METAR,354.0
KBKN 120535Z AUTO 08011KT 6SM -RA SCT025 BKN038 OVC044 03/03 A2991 RMK AO2,KBKN,2019-01-12T05:35:00Z,36.75,-97.35,3.0,3.0,80,11,,6.0,29.911417,,,TRUE,TRUE,,,,,,-RA,SCT,2500,BKN,3800,OVC,4400,,,VFR,,,,,,,,,,,,METAR,314.0
KBDN 120535Z AUTO 00000KT 1/4SM FZFG OVC001 M02/M02 A3005 RMK AO2,KBDN,2019-01-12T05:35:00Z,44.1,-121.2,-2.0,-2.0,0,0,,0.25,30.050198,,,TRUE,TRUE,,,,,,FZFG,OVC,100,,,,,,,LIFR,,,,,,,,,,,,METAR,1055.0
KBAX 120535Z AUTO 00000KT 10SM OVC075 M04/M07 A3040 RMK AO2 T10371071,KBAX,2019-01-12T05:35:00Z,43.78,-82.98,-3.7,-7.1,0,0,,10.0,30.398623,,,TRUE,TRUE,,,,,,,OVC,7500,,,,,,,VFR,,,,,,,,,,,,METAR,234.0
KBAC 120535Z AUTO 01009KT 2SM BR OVC003 M09/M09 A3034 RMK AO2,KBAC,2019-01-12T05:35:00Z,46.93,-98.02,-9.0,-9.0,10,9,,2.0,30.339567,,,TRUE,TRUE,,,,,,BR,OVC,300,,,,,,,LIFR,,,,,,,,,,,,METAR,427.0
KAXV 120535Z AUTO 10003KT 7SM CLR M03/M06 A3034 RMK AO2,KAXV,2019-01-12T05:35:00Z,40.5,-84.3,-3.0,-6.0,100,3,,7.0,30.339567,,,TRUE,TRUE,,,,,,,CLR,,,,,,,,VFR,,,,,,,,,,,,METAR,279.0
KAXA 120535Z AUTO 04004KT 10SM OVC041 M02/M02 A3018 RMK AO2 PWINO,KAXA,2019-01-12T05:35:00Z,43.07,-94.27,-2.0,-2.0,40,4,,10.0,30.180119,,,TRUE,TRUE,,,,,TRUE,,OVC,4100,,,,,,,VFR,,,,,,,,,,,,METAR,372.0
KAWG 120535Z AUTO 11009KT 1SM -SN BKN003 OVC014 M02/M02 A3022 RMK AO2,KAWG,2019-01-12T05:35:00Z,41.27,-91.67,-2.0,-2.0,110,9,,1.0,30.221457,,,TRUE,TRUE,,,,,,-SN,BKN,300,OVC,1400,,,,,LIFR,,,,,,,,,,,,METAR,230.0
KAUM 120535Z AUTO 09005KT 10SM OVC043 M01/M06 A3021 RMK AO2,KAUM,2019-01-12T05:35:00Z,43.67,-92.92,-1.0,-6.0,90,5,,10.0,30.209646,,,TRUE,TRUE,,,,,,,OVC,4300,,,,,,,VFR,,,,,,,,,,,,METAR,375.0
KCKM 120535Z AUTO 11013KT 10SM OVC075 08/M01 A3010 RMK A01,KCKM,2019-01-12T05:35:00Z,34.3,-90.52,8.0,-1.0,110,13,,10.0,30.100393,,,TRUE,TRUE,,,,,,,OVC,7500,,,,,,,VFR,,,,,,,,,,,,METAR,53.0
CWND 121518Z M01/M01 RMK T10071012,CWND,2019-01-12T05:34:09Z,69.63,-135.43,-0.7,-1.2,,,,,,,,,,,,,,,,,,,,,,,,,,,,,,,,,,,,METAR,12.0
CYAY 120534Z AUTO 21012KT 9SM -SN OVC032 M02/M03 A2967 RMK ICG SLP052,CYAY,2019-01-12T05:34:00Z,51.38,-56.07,-2.0,-3.0,210,12,,9.0,29.66929,1005.2,,TRUE,,,,,,,-SN,OVC,3200,,,,,,,VFR,,,,,,,,,,,,SPECI,28.0
YRMD 120534Z AUTO 12021KT 9999 // NCD 40/14 Q1008,YRMD,2019-01-12T05:34:00Z,-20.7,143.12,40.0,14.0,120,21,,6.21,29.763779,,,TRUE,,,,,,,,CLR,,,,,,,,VFR,,,,,,,,,,,,SPECI,207.0
CZUM 120534Z AUTO 35011G16KT 2 1/4SM -SN OVC030 M09/M11 A2959 RMK SLP052,CZUM,2019-01-12T05:34:00Z,53.53,-64.08,-9.0,-11.0,350,11,16,2.25,29.589567,1005.2,,TRUE,,,,,,,-SN,OVC,3000,,,,,,,IFR,,,,,,,,,,,,SPECI,440.0
KPRX 120534Z AUTO 10010KT 8SM -RA BKN005 OVC019 05/05 A2997 RMK AO2 P0005,KPRX,2019-01-12T05:34:00Z,33.62,-95.45,5.0,5.0,100,10,,8.0,29.970472,,,TRUE,TRUE,,,,,,-RA,BKN,500,OVC,1900,,,,,IFR,,,,,,0.05,,,,,,SPECI,167.0
KHDN 120534Z AUTO 10005KT 10SM SCT007 M06/M07 A3018 RMK AO2 FZRANO,KHDN,2019-01-12T05:34:00Z,40.47,-107.22,-6.0,-7.0,100,5,,10.0,30.180119,,,TRUE,TRUE,,,,TRUE,,,SCT,700,,,,,,,VFR,,,,,,,,,,,,SPECI,2012.0
KGAG 120534Z AUTO 35012KT 2 1/2SM -RA BR OVC004 02/01 A2989 RMK AO2 RAB31 CIG 003V006 P0000 T00170011 TSNO,KGAG,2019-01-12T05:34:00Z,36.3,-99.77,1.7,1.1,350,12,,2.5,29.890747,,,TRUE,TRUE,,,TRUE,,,-RA BR,OVC,400,,,,,,,LIFR,,,,,,0.005,,,,,,SPECI,668.0
KEGE 120534Z 00000KT 4SM -SN BR OVC028 M02/M03 A3017 RMK AO2 P0000 FZRANO,KEGE,2019-01-12T05:34:00Z,39.63,-106.92,-2.0,-3.0,0,0,,4.0,30.171259,,,,TRUE,,,,TRUE,,-SN BR,OVC,2800,,,,,,,MVFR,,,,,,0.005,,,,,,SPECI,1993.0
KAIZ 120534Z AUTO 10004KT 3SM -SN SCT004 OVC008 00/ A3010 RMK AO2 CIG 006V011 P0002 FZRANO,KAIZ,2019-01-12T05:34:00Z,38.1,-92.53,0.0,,100,4,,3.0,30.100393,,,TRUE,TRUE,,,,TRUE,,-SN,SCT,400,OVC,800,,,,,IFR,,,,,,0.02,,,,,,SPECI,265.0
PAKH 120534Z AUTO 09015KT 10SM FEW025 BKN031 OVC045 02/M01 A2945 RMK AO2 RAB01E23UPB10E30 P0000 FZRANO $,PAKH,2019-01-12T05:34:00Z,56.93,-154.18,2.0,-1.0,90,15,,10.0,29.450787,,,TRUE,TRUE,TRUE,,,TRUE,,,FEW,2500,BKN,3100,OVC,4500,,,VFR,,,,,,0.005,,,,,,SPECI,14.0
KRBG 120534Z AUTO 00000KT 4SM BR OVC002 06/06 A2988 RMK AO2 T00560056,KRBG,2019-01-12T05:34:00Z,43.23,-123.35,5.6,5.6,0,0,,4.0,29.878937,,,TRUE,TRUE,,,,,,BR,OVC,200,,,,,,,LIFR,,,,,,,,,,,,SPECI,154.0
KMSO 120534Z AUTO 00000KT 1SM BR VV002 M07/M08 A3024 RMK AO2 T10671083,KMSO,2019-01-12T05:34:00Z,46.92,-114.1,-6.7,-8.3,0,0,,1.0,30.239174,,,TRUE,TRUE,,,,,,BR,OVX,0,,,,,,,LIFR,,,,,,,,,,,200,SPECI,975.0
KLIC 120534Z AUTO 35012KT 2SM -SN BR SCT011 OVC025 M01/M01 A3012 RMK AO2 P0001 T10061006,KLIC,2019-01-12T05:34:00Z,39.27,-103.67,-0.6,-0.6,350,12,,2.0,30.121063,,,TRUE,TRUE,,,,,,-SN BR,SCT,1100,OVC,2500,,,,,IFR,,,,,,0.01,,,,,,SPECI,1630.0
KLAR 120534Z AUTO 32006KT 4SM -SN BR BKN027 OVC046 M07/M08 A3016 RMK AO2 SNB0457 P0000 T10721078,KLAR,2019-01-12T05:34:00Z,41.32,-105.67,-7.2,-7.8,320,6,,4.0,30.159449,,,TRUE,TRUE,,,,,,-SN BR,BKN,2700,OVC,4600,,,,,MVFR,,,,,,0.005,,,,,,SPECI,2216.0
KAQP 120534Z AUTO 00000KT 10SM CLR M11/M13 A3026 RMK AO2,KAQP,2019-01-12T05:34:00Z,45.22,-96.0,-11.0,-13.0,0,0,,10.0,30.259842,,,TRUE,TRUE,,,,,,,CLR,,,,,,,,VFR,,,,,,,,,,,,METAR,311.0
K2V6 120534Z AUTO 34010KT 10SM OVC060 01/00 A3013 RMK AO2,K2V6,2019-01-12T05:34:00Z,40.1,-102.72,1.0,0.0,340,10,,10.0,30.129921,,,TRUE,TRUE,,,,,,,OVC,6000,,,,,,,VFR,,,,,,,,,,,,METAR,1261.0
KCFV 120534Z AUTO 10006KT 6SM -RA BR FEW007 SCT013 OVC020 03/03 A2997 RMK AO2 P0004 T00330028,KCFV,2019-01-12T05:34:00Z,37.08,-95.57,3.3,2.8,100,6,,6.0,29.970472,,,TRUE,TRUE,,,,,,-RA BR,FEW,700,SCT,1300,OVC,2000,,,MVFR,,,,,,0.04,,,,,,SPECI,225.0
KBJC 120534Z AUTO 33007KT 2SM BKN003 OVC008 00/00 A3019 RMK AO2 PWINO,KBJC,2019-01-12T05:34:00Z,39.9,-105.1,0.0,0.0,330,7,,2.0,30.188976,,,TRUE,TRUE,,,,,TRUE,,BKN,300,OVC,800,,,,,LIFR,,,,,,,,,,,,METAR,1724.0
CYQW 120533Z AUTO 12018KT 8SM CLR M14/M17 A3014 RMK SLP256,CYQW,2019-01-12T05:33:00Z,52.77,-108.25,-14.0,-17.0,120,18,,8.0,30.138779,1025.6,,TRUE,,,,,,,,CLR,,,,,,,,VFR,,,,,,,,,,,,SPECI,548.0
CYZE 120533Z AUTO 06004KT 9SM -SN FEW036 OVC090 M10/M13 A3045 RMK SLP329,CYZE,2019-01-12T05:33:00Z,45.87,-82.57,-10.0,-13.0,60,4,,9.0,30.448818,1032.9,,TRUE,,,,,,,-SN,FEW,3600,OVC,9000,,,,,VFR,,,,,,,,,,,,SPECI,193.0
KCQC 120533Z AUTO 33007KT 9SM UP OVC019 M01/M03 A3009 RMK AO2 UPB0454E13B33SNB15E33 P0000 T10061028,KCQC,2019-01-12T05:33:00Z,35.0,-105.67,-0.6,-2.8,330,7,,9.0,30.088583,,,TRUE,TRUE,,,,,,UP,OVC,1900,,,,,,,MVFR,,,,,,0.005,,,,,,SPECI,2160.0
KSKX 120533Z AUTO 11005KT 1SM BR BKN002 OVC008 M02/M02 A3010 RMK AO2 FZRANO RVRNO $,KSKX,2019-01-12T05:33:00Z,36.45,-105.67,-2.0,-2.0,110,5,,1.0,30.100393,,,TRUE,TRUE,TRUE,,,TRUE,,BR,BKN,200,OVC,800,,,,,LIFR,,,,,,,,,,,,SPECI,2161.0
KSHN 120533Z AUTO 34003KT 2 1/2SM BR CLR 03/02 A2991 RMK AO2 T00280017,KSHN,2019-01-12T05:33:00Z,47.23,-123.13,2.8,1.7,340,3,,2.5,29.911417,,,TRUE,TRUE,,,,,,BR,CLR,,,,,,,,IFR,,,,,,,,,,,,SPECI,82.0
KRKP 120533Z AUTO 18010G18KT 3SM -RA BR BKN008 BKN019 OVC100 19/18 A2993 RMK AO2 PRESFR P0030 T01890183,KRKP,2019-01-12T05:33:00Z,28.08,-97.05,18.9,18.3,180,10,18,3.0,29.929134,,,TRUE,TRUE,,,,,,-RA BR,BKN,800,BKN,1900,OVC,10000,,,IFR,,,,,,0.3,,,,,,SPECI,6.0
KLWV 120533Z AUTO 08006KT 1SM -SN BR FEW007 OVC017 M01/M02 A3028 RMK AO2 P0002 T10111022,KLWV,2019-01-12T05:33:00Z,38.77,-87.6,-1.1,-2.2,80,6,,1.0,30.280512,,,TRUE,TRUE,,,,,,-SN BR,FEW,700,OVC,1700,,,,,IFR,,,,,,0.02,,,,,,SPECI,131.0
KDDC 120533Z AUTO 01016G22KT 3/4SM -SN BR OVC004 M01/M02 A2995 RMK AO2 P0001 T10061022 $,KDDC,2019-01-12T05:33:00Z,37.77,-99.97,-0.6,-2.2,10,16,22,0.75,29.949802,,,TRUE,TRUE,TRUE,,,,,-SN BR,OVC,400,,,,,,,LIFR,,,,,,0.01,,,,,,SPECI,789.0
KCOU 120533Z AUTO 10010KT 3/4SM -SN BR VV009 M01/M02 A3011 RMK AO2 P0007 T10111022,KCOU,2019-01-12T05:33:00Z,38.82,-92.22,-1.1,-2.2,100,10,,0.75,30.109253,,,TRUE,TRUE,,,,,,-SN BR,OVX,0,,,,,,,LIFR,,,,,,0.07,,,,,900,SPECI,271.0
KORB 120533Z AUTO 00000KT 10SM OVC007 M07/M08 A3033 RMK AO2,KORB,2019-01-12T05:33:00Z,48.02,-92.87,-7.0,-8.0,0,0,,10.0,30.33071,,,TRUE,TRUE,,,,,,,OVC,700,,,,,,,IFR,,,,,,,,,,,,METAR,397.0
KFOZ 120533Z AUTO 04003KT 3SM BR OVC005 M05/M06 A3032 RMK AO2,KFOZ,2019-01-12T05:33:00Z,47.77,-93.65,-5.0,-6.0,40,3,,3.0,30.318897,,,TRUE,TRUE,,,,,,BR,OVC,500,,,,,,,IFR,,,,,,,,,,,,METAR,411.0
CYYR 120532Z 34004KT 8SM -SN BKN014 OVC021 M02/M03 A2957 RMK SC6SC2 SLP018,CYYR,2019-01-12T05:32:00Z,53.32,-60.42,-2.0,-3.0,340,4,,8.0,29.568897,1001.8,,,,,,,,,-SN,BKN,1400,OVC,2100,,,,,MVFR,,,,,,,,,,,,SPECI,49.0
CYPX 120532Z AUTO 34013KT 5SM -SN BKN017 M17/M19 A3030 RMK SLP264,CYPX,2019-01-12T05:32:00Z,60.03,-77.27,-17.0,-19.0,340,13,,5.0,30.301182,1026.4,,TRUE,,,,,,,-SN,BKN,1700,,,,,,,MVFR,,,,,,,,,,,,SPECI,23.0
PAIG 120532Z AUTO 01011KT 10SM -SN SCT009 OVC047 M12/M14 A2959 RMK AO2 SNB31 P0000 FZRANO $,PAIG,2019-01-12T05:32:00Z,59.32,-155.9,-12.0,-14.0,10,11,,10.0,29.589567,,,TRUE,TRUE,TRUE,,,TRUE,,-SN,SCT,900,OVC,4700,,,,,VFR,,,,,,0.005,,,,,,SPECI,28.0
PABA 120532Z AUTO 27015KT 2 1/2SM -SN BKN029 OVC034 M32/M35 A3023 RMK AO2 P0000 FZRANO TSNO,PABA,2019-01-12T05:32:00Z,70.13,-143.58,-32.0,-35.0,270,15,,2.5,30.230314,,,TRUE,TRUE,,,TRUE,TRUE,,-SN,BKN,2900,OVC,3400,,,,,IFR,,,,,,0.005,,,,,,SPECI,2.0
CYHY 120532Z 27006KT 14SM -SN FEW004 BKN006 BKN008 M14/M16 A2968 RMK SC2SC3SC2 CIG RAG SLP071,CYHY,2019-01-12T05:32:00Z,60.82,-115.77,-14.0,-16.0,270,6,,14.0,29.681103,1007.1,,,,,,,,,-SN,FEW,400,BKN,600,BKN,800,,,IFR,,,,,,,,,,,,SPECI,166.0
KTVF 120532Z AUTO 04007KT 3SM BR OVC005 M07/M08 A3035 RMK AO2 FZRANO,KTVF,2019-01-12T05:32:00Z,48.07,-96.17,-7.0,-8.0,40,7,,3.0,30.351377,,,TRUE,TRUE,,,,TRUE,,BR,OVC,500,,,,,,,IFR,,,,,,,,,,,,SPECI,340.0
KHYI 120532Z AUTO 25003KT 1/4SM -DZ FG OVC002 13/13 A2996 RMK AO2 P0000,KHYI,2019-01-12T05:32:00Z,29.88,-97.87,13.0,13.0,250,3,,0.25,29.958662,,,TRUE,TRUE,,,,,,-DZ FG,OVC,200,,,,,,,LIFR,,,,,,0.005,,,,,,SPECI,182.0
KOGD 120532Z AUTO 33003KT 4SM BR OVC006 M01/M02 A3027 RMK AO2 CIG 004V009 T10111017,KOGD,2019-01-12T05:32:00Z,41.2,-112.02,-1.1,-1.7,330,3,,4.0,30.268702,,,TRUE,TRUE,,,,,,BR,OVC,600,,,,,,,IFR,,,,,,,,,,,,SPECI,1353.0
KMTJ 120532Z AUTO 00000KT 1 1/4SM -SN BR OVC026 M03/M04 A3018 RMK AO2 P0000 T10281039,KMTJ,2019-01-12T05:32:00Z,38.5,-107.9,-2.8,-3.9,0,0,,1.25,30.180119,,,TRUE,TRUE,,,,,,-SN BR,OVC,2600,,,,,,,IFR,,,,,,0.005,,,,,,SPECI,1750.0
KLAW 120532Z AUTO 25008KT 10SM OVC010 09/09 A2982 RMK AO2 RAE04 P0000 T00890089,KLAW,2019-01-12T05:32:00Z,34.55,-98.42,8.9,8.9,250,8,,10.0,29.819881,,,TRUE,TRUE,,,,,,,OVC,1000,,,,,,,MVFR,,,,,,0.005,,,,,,SPECI,337.0
KBMG 120532Z AUTO 11005KT 1 3/4SM -SN BR FEW005 SCT022 OVC036 M02/M02 A3028 RMK AO2 P0001 T10171022,KBMG,2019-01-12T05:32:00Z,39.15,-86.62,-1.7,-2.2,110,5,,1.75,30.280512,,,TRUE,TRUE,,,,,,-SN BR,FEW,500,SCT,2200,OVC,3600,,,IFR,,,,,,0.01,,,,,,SPECI,257.0
KQVF 120532Z AUTO VRB04KT 9999 FEW015 BKN026 28/23 A2994 RMK AO2 SLP141 WND DATA ESTMD,KQVF,2019-01-12T05:32:00Z,,,28.0,23.0,0,4,,6.21,29.940945,1014.1,,TRUE,TRUE,,,,,,,FEW,1500,BKN,2600,,,,,MVFR,,,,,,,,,,,,SPECI,
KEWK 120531Z AUTO 04008KT 2SM -SN BR OVC004 00/M01 A2996 RMK AO2 CIG 003V008 P0002 FZRANO,KEWK,2019-01-12T05:31:00Z,38.03,-97.27,0.0,-1.0,40,8,,2.0,29.958662,,,TRUE,TRUE,,,,TRUE,,-SN BR,OVC,400,,,,,,,LIFR,,,,,,0.02,,,,,,SPECI,467.0
KDIJ 120531Z AUTO 00000KT 1/2SM FZFG OVC003 M06/M07 A3027 RMK AO2,KDIJ,2019-01-12T05:31:00Z,43.75,-111.1,-6.0,-7.0,0,0,,0.5,30.268702,,,TRUE,TRUE,,,,,,FZFG,OVC,300,,,,,,,LIFR,,,,,,,,,,,,SPECI,1899.0
PADM 120531Z AUTO 05024KT 3SM HZ CLR M31/M34 A2984 RMK AO2 PK WND 04027/0513 FZRANO,PADM,2019-01-12T05:31:00Z,61.87,-162.03,-31.0,-34.0,50,24,,3.0,29.840551,,,TRUE,TRUE,,,,TRUE,,HZ,CLR,,,,,,,,MVFR,,,,,,,,,,,,SPECI,31.0
KSKF 120531Z AUTO 25004KT 4SM BR OVC003 15/15 A2996 RMK AO2 CIG 002 RWY34 SLP143,KSKF,2019-01-12T05:31:00Z,29.37,-98.57,15.0,15.0,250,4,,4.0,29.958662,1014.3,,TRUE,TRUE,,,,,,BR,OVC,300,,,,,,,LIFR,,,,,,,,,,,,SPECI,210.0
KRND 120531Z AUTO 23003KT 4SM BR OVC002 15/15 A2996 RMK AO2 VIS 1 1/4 RWY33L VIS 1 1/4 RWY33R SLP144,KRND,2019-01-12T05:31:00Z,29.52,-98.27,15.0,15.0,230,3,,4.0,29.958662,1014.4,,TRUE,TRUE,,,,,,BR,OVC,200,,,,,,,LIFR,,,,,,,,,,,,SPECI,232.0
KAKO 120531Z AUTO 34010KT 1SM -SN BR VV002 01/01 A3014 RMK AO2 SNE0455B18 P0000 T00060006,KAKO,2019-01-12T05:31:00Z,40.17,-103.22,0.6,0.6,340,10,,1.0,30.138779,,,TRUE,TRUE,,,,,,-SN BR,OVX,0,,,,,,,LIFR,,,,,,0.005,,,,,200,SPECI,1421.0
KALS 120531Z AUTO 27005KT 1/4SM FZFG BKN015 OVC060 M08/M08 A3008 RMK AO2 I1000 T10781083,KALS,2019-01-12T05:31:00Z,37.43,-105.87,-7.8,-8.3,270,5,,0.25,30.079725,,,TRUE,TRUE,,,,,,FZFG,BKN,1500,OVC,6000,,,,,LIFR,,,,,,,,,,,,SPECI,2299.0
KSTL 120531Z 11006KT 1 3/4SM -SN BR BKN007 OVC018 M02/M02 A3020 RMK AO2 P0003 T10171022,KSTL,2019-01-12T05:31:00Z,38.75,-90.37,-1.7,-2.2,110,6,,1.75,30.200787,,,,TRUE,,,,,,-SN BR,BKN,700,OVC,1800,,,,,IFR,,,,,,0.03,,,,,,SPECI,171.0
KRAP 120531Z AUTO 06007KT 1 3/4SM BR OVC002 M03/M04 A3020 RMK AO2 T10281039,KRAP,2019-01-12T05:31:00Z,44.05,-103.05,-2.8,-3.9,60,7,,1.75,30.200787,,,TRUE,TRUE,,,,,,BR,OVC,200,,,,,,,LIFR,,,,,,,,,,,,SPECI,965.0
KOJC 120531Z AUTO 07008KT 1 1/4SM -SN BR BKN003 OVC012 M01/M01 A3003 RMK AO2 P0001 T10061006,KOJC,2019-01-12T05:31:00Z,38.85,-94.73,-0.6,-0.6,70,8,,1.25,30.029528,,,TRUE,TRUE,,,,,,-SN BR,BKN,300,OVC,1200,,,,,LIFR,,,,,,0.01,,,,,,SPECI,326.0
KHBR 120531Z AUTO 31014KT 10SM OVC010 07/05 A2985 RMK AO2 CIG 008V013 T00670050,KHBR,2019-01-12T05:31:00Z,34.98,-99.05,6.7,5.0,310,14,,10.0,29.84941,,,TRUE,TRUE,,,,,,,OVC,1000,,,,,,,MVFR,,,,,,,,,,,,SPECI,473.0
KETH 120531Z AUTO 33007KT 10SM OVC019 M07/M09 A3031 RMK AO2,KETH,2019-01-12T05:31:00Z,45.78,-96.55,-7.0,-9.0,330,7,,10.0,30.31004,,,TRUE,TRUE,,,,,,,OVC,1900,,,,,,,MVFR,,,,,,,,,,,,SPECI,313.0
KCMI 120531Z AUTO 11006KT 2SM -SN BR OVC021 M02/M03 A3027 RMK AO2 P0000 T10171033,KCMI,2019-01-12T05:31:00Z,40.03,-88.27,-1.7,-3.3,110,6,,2.0,30.268702,,,TRUE,TRUE,,,,,,-SN BR,OVC,2100,,,,,,,IFR,,,,,,0.005,,,,,,SPECI,228.0
KMIB 120531Z AUTO 02003KT 10SM -SN SCT002 BKN008 BKN011 OVC020 M12/M14 A3036 RMK AO2 CIG 004V008 SLP327,KMIB,2019-01-12T05:31:00Z,48.42,-101.33,-12.0,-14.0,20,3,,10.0,30.360237,1032.7,,TRUE,TRUE,,,,,,-SN,SCT,200,BKN,800,BKN,1100,OVC,2000,IFR,,,,,,,,,,,,SPECI,508.0
LTCK 120531Z 00000KT 4000 -SN BR SCT007 BKN035 M09/M11 Q1023 RMK RWY11 27005KT,LTCK,2019-01-12T05:31:00Z,38.75,41.67,-9.0,-11.0,0,0,,2.49,30.206694,,,,,,,,,,-SN BR,SCT,700,BKN,3500,,,,,IFR,,,,,,,,,,,,SPECI,1266.0
WADL 120530Z 24010KT 180V260 8000 BKN016 31/25 Q1009 NOSIG,WADL,2019-01-12T05:30:00Z,-8.75,116.28,31.0,25.0,240,10,,4.97,29.793306,,,,,,TRUE,,,,,BKN,1600,,,,,,,MVFR,,,,,,,,,,,,METAR,97.0
ZMUB 120530Z 28005MPS 250V310 CAVOK M12/M18 Q1020 NOSIG RMK QFE657.7 57,ZMUB,2019-01-12T05:30:00Z,47.83,106.78,-12.0,-18.0,280,10,,6.21,30.11811,,,,,,TRUE,,,,,CAVOK,,,,,,,,VFR,,,,,,,,,,,,SPECI,1330.0
VOML 120530Z 09005KT 6000 NSC 28/19 Q1014 NOSIG,VOML,2019-01-12T05:30:00Z,12.97,74.88,28.0,19.0,90,5,,3.73,29.940945,,,,,,TRUE,,,,,CLR,,,,,,,,MVFR,,,,,,,,,,,,METAR,103.0
WAMM 120530Z 00000KT 7000 FEW017CB SCT018 26/24 Q1010 RERA TEMPO -RA,WAMM,2019-01-12T05:30:00Z,1.55,124.92,26.0,24.0,0,0,,4.35,29.822834,,,,,,,,,,,FEW,1700,SCT,1800,,,,,MVFR,,,,,,,,,,,,SPECI,80.0
GOBD 120530Z 36012KT 8000 NSC 18/15 Q1011 NOSIG,GOBD,2019-01-12T05:30:00Z,14.67,-17.07,18.0,15.0,360,12,,4.97,29.852362,,,,,,TRUE,,,,,CLR,,,,,,,,MVFR,,,,,,,,,,,,METAR,88.0
WSSS 120530Z 05010KT 350V090 9999 FEW022 BKN350 32/22 Q1011 NOSIG,WSSS,2019-01-12T05:30:00Z,1.37,103.97,32.0,22.0,50,10,,6.21,29.852362,,,,,,TRUE,,,,,FEW,2200,BKN,35000,,,,,VFR,,,,,,,,,,,,METAR,16.0
PFCL 120530Z AUTO 02016KT 10SM OVC028 M22/M26 RMK AO2 FZRANO TSNO $,PFCL,2019-01-12T05:30:00Z,58.83,-158.53,-22.0,-26.0,20,16,,10.0,,,,TRUE,TRUE,TRUE,,TRUE,TRUE,,,OVC,2800,,,,,,,MVFR,,,,,,,,,,,,SPECI,24.0
KGBD 120530Z AUTO 02014KT 6SM -SN BR OVC005 00/M01 A2998 RMK AO2 P0001 FZRANO,KGBD,2019-01-12T05:30:00Z,38.35,-98.87,0.0,-1.0,20,14,,6.0,29.97933,,,TRUE,TRUE,,,,TRUE,,-SN BR,OVC,500,,,,,,,IFR,,,,,,0.01,,,,,,SPECI,575.0
KCVO 120530Z AUTO 00000KT 4SM BR BKN001 03/03 A2992 RMK AO2,KCVO,2019-01-12T05:30:00Z,44.5,-123.27,3.0,3.0,0,0,,4.0,29.920275,,,TRUE,TRUE,,,,,,BR,BKN,100,,,,,,,LIFR,,,,,,,,,,,,SPECI,75.0
TFFR 120530Z AUTO 14003KT 9999 BKN033 OVC110 23/21 Q1016 TEMPO 3000 SHRA SCT010CB BKN020,TFFR,2019-01-12T05:30:00Z,16.27,-61.53,23.0,21.0,140,3,,6.21,30.0,,,TRUE,,,,,,,,BKN,3300,OVC,11000,,,,,VFR,,,,,,,,,,,,METAR,11.0
CYZP 120530Z AUTO 28008KT 8SM FEW002 SCT055 SCT200 04/04 A2975 RMK SLP076,CYZP,2019-01-12T05:30:00Z,53.25,-131.82,4.0,4.0,280,8,,8.0,29.749016,1007.6,,TRUE,,,,,,,,FEW,200,SCT,5500,SCT,20000,,,VFR,,,,,,,,,,,,SPECI,6.0
LHBP 120530Z 23010KT 9999 BKN013 M02/M02 Q1015 R13L/590295 R13R/520195 NOSIG,LHBP,2019-01-12T05:30:00Z,47.42,19.27,-2.0,-2.0,230,10,,6.21,29.970472,,,,,,TRUE,,,,,BKN,1300,,,,,,,MVFR,,,,,,,,,,,,SPECI,185.0
LZTT 120530Z 26022KT 9999 -SN FEW030 BKN040 M04/M06 Q1007 NOSIG,LZTT,2019-01-12T05:30:00Z,49.07,20.25,-4.0,-6.0,260,22,,6.21,29.734253,,,,,,TRUE,,,,-SN,FEW,3000,BKN,4000,,,,,VFR,,,,,,,,,,,,METAR,707.0
LZKZ 120530Z VRB01KT 5000 BR BKN010 BKN040 M06/M08 Q1012 NOSIG,LZKZ,2019-01-12T05:30:00Z,48.67,21.23,-6.0,-8.0,0,1,,3.11,29.88189,,,,,,TRUE,,,,BR,BKN,1000,BKN,4000,,,,,MVFR,,,,,,,,,,,,METAR,232.0
LZIB 120530Z 29014KT 9999 -SN FEW020 SCT037 BKN053 02/M02 Q1015 R13/650395 NOSIG,LZIB,2019-01-12T05:30:00Z,48.17,17.22,2.0,-2.0,290,14,,6.21,29.970472,,,,,,TRUE,,,,-SN,FEW,2000,SCT,3700,BKN,5300,,,VFR,,,,,,,,,,,,SPECI,134.0
FMMI 120530Z VRB02KT 9999 FEW007 BKN020 22/18 Q1019 NOSIG,FMMI,2019-01-12T05:30:00Z,-18.8,47.47,22.0,18.0,0,2,,6.21,30.088583,,,,,,TRUE,,,,,FEW,700,BKN,2000,,,,,MVFR,,,,,,,,,,,,METAR,1276.0
SOCA 120530Z AUTO 24001KT 8000 BKN021 23/22 Q1012 NOSIG,SOCA,2019-01-12T05:30:00Z,4.82,-52.37,23.0,22.0,240,1,,4.97,29.88189,,,TRUE,,,TRUE,,,,,BKN,2100,,,,,,,MVFR,,,,,,,,,,,,METAR,9.0
UBBG 120530Z 22004KT 200V260 9999 BKN100 01/M07 Q1015 R30/CLRD// NOSIG,UBBG,2019-01-12T05:30:00Z,40.73,46.32,1.0,-7.0,220,4,,6.21,29.970472,,,,,,TRUE,,,,,BKN,10000,,,,,,,VFR,,,,,,,,,,,,METAR,330.0
LBGO 120530Z AUTO 08003KT 7000 FEW041 M07/M07 Q1017 R09/D NOSIG,LBGO,2019-01-12T05:30:00Z,43.15,25.72,-7.0,-7.0,80,3,,4.35,30.029528,,,TRUE,,,TRUE,,,,,FEW,4100,,,,,,,MVFR,,,,,,,,,,,,SPECI,86.0
LBPD 120530Z AUTO 28014KT 9999 OVC043 00/M07 Q1016 NOSIG,LBPD,2019-01-12T05:30:00Z,42.13,24.8,0.0,-7.0,280,14,,6.21,30.0,,,TRUE,,,TRUE,,,,,OVC,4300,,,,,,,VFR,,,,,,,,,,,,METAR,185.0
LBBG 120530Z 24005KT 9999 FEW036 M00/M04 Q1016 NOSIG,LBBG,2019-01-12T05:30:00Z,42.57,27.52,0.0,-4.0,240,5,,6.21,30.0,,,,,,TRUE,,,,,FEW,3600,,,,,,,VFR,,,,,,,,,,,,METAR,28.0
LBWN 120530Z 31011KT CAVOK M02/M06 Q1016 NOSIG,LBWN,2019-01-12T05:30:00Z,43.22,27.82,-2.0,-6.0,310,11,,6.21,30.0,,,,,,TRUE,,,,,CAVOK,,,,,,,,VFR,,,,,,,,,,,,METAR,43.0
LBSF 120530Z 02004KT 6000 OVC027 M07/M08 Q1015 R99/15//95 BECMG 4000 BR,LBSF,2019-01-12T05:30:00Z,42.7,23.42,-7.0,-8.0,20,4,,3.73,29.970472,,,,,,,,,,,OVC,2700,,,,,,,MVFR,,,,,,,,,,,,SPECI,530.0
TFFF 120530Z AUTO VRB03KT 9999 FEW024 23/21 Q1016 TEMPO 4000 SHRA SCT018TCU BKN020,TFFF,2019-01-12T05:30:00Z,14.6,-61.0,23.0,21.0,0,3,,6.21,30.0,,,TRUE,,,,,,,,FEW,2400,,,,,,,VFR,,,,,,,,,,,,METAR,5.0
NWWW 120530Z AUTO 13016KT 9999 FEW033 BKN046 BKN076 28/22 Q1006 NOSIG,NWWW,2019-01-12T05:30:00Z,-22.02,166.22,28.0,22.0,130,16,,6.21,29.704725,,,TRUE,,,TRUE,,,,,FEW,3300,BKN,4600,BKN,7600,,,VFR,,,,,,,,,,,,METAR,16.0
CYBU 120530Z AUTO 13009KT 9SM OVC023 M14/M15 A3034 RMK SLP312,CYBU,2019-01-12T05:30:00Z,53.32,-104.0,-14.0,-15.0,130,9,,9.0,30.339567,1031.2,,TRUE,,,,,,,,OVC,2300,,,,,,,MVFR,,,,,,,,,,,,SPECI,374.0
CYLL 120530Z AUTO 13012G17KT 9SM FEW220 M14/M16 A3000 RMK ICG SLP222,CYLL,2019-01-12T05:30:00Z,53.32,-110.07,-14.0,-16.0,130,12,17,9.0,30.0,1022.2,,TRUE,,,,,,,,FEW,22000,,,,,,,VFR,,,,,,,,,,,,SPECI,669.0
UGSB 120530Z 14018KT CAVOK 09/M04 Q1016 NOSIG,UGSB,2019-01-12T05:30:00Z,41.62,41.6,9.0,-4.0,140,18,,6.21,30.0,,,,,,TRUE,,,,,CAVOK,,,,,,,,VFR,,,,,,,,,,,,METAR,32.0
UGKO 120530Z 33003KT 280V040 9999 BKN048 05/M04 Q1016 NOSIG,UGKO,2019-01-12T05:30:00Z,42.18,42.48,5.0,-4.0,330,3,,6.21,30.0,,,,,,TRUE,,,,,BKN,4800,,,,,,,VFR,,,,,,,,,,,,METAR,68.0
UGTB 120530Z 31015KT CAVOK 02/M05 Q1018 NOSIG,UGTB,2019-01-12T05:30:00Z,41.67,44.95,2.0,-5.0,310,15,,6.21,30.059055,,,,,,TRUE,,,,,CAVOK,,,,,,,,VFR,,,,,,,,,,,,METAR,495.0
YSNF 120530Z AUTO 10015KT 9999 // BKN008 OVC026 22/19 Q1015,YSNF,2019-01-12T05:30:00Z,-29.02,167.92,22.0,19.0,100,15,,6.21,29.970472,,,TRUE,,,,,,,,BKN,800,OVC,2600,,,,,IFR,,,,,,,,,,,,SPECI,109.0
YCOM 120530Z AUTO 27011KT 7000 // NCD 32/04 Q1018,YCOM,2019-01-12T05:30:00Z,-36.3,148.97,32.0,4.0,270,11,,4.35,30.059055,,,TRUE,,,,,,,,CLR,,,,,,,,MVFR,,,,,,,,,,,,SPECI,941.0
YBAS 120530Z AUTO 14008KT 9999 // SCT035 40/08 Q1012 RF00/0/000/0,YBAS,2019-01-12T05:30:00Z,-23.8,133.9,40.0,8.0,140,8,,6.21,29.88189,,,TRUE,,,,,,,,SCT,3500,,,,,,,VFR,,,,,,,,,,,,SPECI,541.0
YPGV 120530Z AUTO 28007KT 4200 // SCT017 SCT040 BKN065 27/25 Q1007,YPGV,2019-01-12T05:30:00Z,-12.27,136.82,27.0,25.0,280,7,,2.61,29.734253,,,TRUE,,,,,,,,SCT,1700,SCT,4000,BKN,6500,,,IFR,,,,,,,,,,,,SPECI,55.0
CYEN 120530Z AUTO 14007KT 8SM -SN BKN006 OVC010 M12/M13 A3034 RMK SLP326,CYEN,2019-01-12T05:30:00Z,49.22,-102.97,-12.0,-13.0,140,7,,8.0,30.339567,1032.6,,TRUE,,,,,,,-SN,BKN,600,OVC,1000,,,,,IFR,,,,,,,,,,,,SPECI,581.0
OBBI 120530Z 29012KT CAVOK 16/10 Q1022 NOSIG,OBBI,2019-01-12T05:30:00Z,26.27,50.63,16.0,10.0,290,12,,6.21,30.177166,,,,,,TRUE,,,,,CAVOK,,,,,,,,VFR,,,,,,,,,,,,METAR,2.0
WAJJ 120530Z 28012KT 9999 SCT013 33/24 Q1004 NOSIG,WAJJ,2019-01-12T05:30:00Z,-2.58,140.52,33.0,24.0,280,12,,6.21,29.64567,,,,,,TRUE,,,,,SCT,1300,,,,,,,VFR,,,,,,,,,,,,METAR,88.0
LUKK 120530Z 26012KT 3700 -SN BR OVC007 M05/M06 Q1011 R26/850794 TEMPO 0350 FZFG OVC002,LUKK,2019-01-12T05:30:00Z,46.93,28.93,-5.0,-6.0,260,12,,2.3,29.852362,,,,,,,,,,-SN BR,OVC,700,,,,,,,IFR,,,,,,,,,,,,METAR,122.0
UBBB 120530Z 19011KT CAVOK 08/03 Q1014 R88/D NOSIG,UBBB,2019-01-12T05:30:00Z,40.45,50.07,8.0,3.0,190,11,,6.21,29.940945,,,,,,TRUE,,,,,CAVOK,,,,,,,,VFR,,,,,,,,,,,,METAR,-6.0
UBBN 120530Z 01002KT 9999 SCT100 M06/M07 Q1021 R14R/CLRD// NOSIG RMK MT OP QFE691,UBBN,2019-01-12T05:30:00Z,39.18,45.45,-6.0,-7.0,10,2,,6.21,30.147638,,,,,,TRUE,,,,,SCT,10000,,,,,,,VFR,,,,,,,,,,,,METAR,873.0
K2G4 120530Z AUTO 14009KT 10SM CLR M08/M12 A3025 RMK AO1,K2G4,2019-01-12T05:30:00Z,39.58,-79.33,-8.0,-12.0,140,9,,10.0,30.250984,,,TRUE,TRUE,,,,,,,CLR,,,,,,,,VFR,,,,,,,,,,,,SPECI,894.0
HSSS 120530Z 01008KT CAVOK 21/07 Q1012 NOSIG,HSSS,2019-01-12T05:30:00Z,15.58,32.53,21.0,7.0,10,8,,6.21,29.88189,,,,,,TRUE,,,,,CAVOK,,,,,,,,VFR,,,,,,,,,,,,METAR,380.0
KSIF 120530Z AUTO 10SM BKN110 M01/M05 A3040 RMK AO2 T10121048,KSIF,2019-01-12T05:30:00Z,36.43,-79.85,-1.2,-4.8,,,,10.0,30.398623,,,TRUE,TRUE,,,,,,,BKN,11000,,,,,,,VFR,,,,,,,,,,,,METAR,211.0
KJNX 120530Z AUTO 00000KT 10SM CLR M02/M03 A3043 RMK AO2,KJNX,2019-01-12T05:30:00Z,35.53,-78.38,-2.0,-3.0,0,0,,10.0,30.431103,,,TRUE,TRUE,,,,,,,CLR,,,,,,,,VFR,,,,,,,,,,,,METAR,50.0
KIPJ 120530Z AUTO 00000KT 10SM OVC100 00/M03 A3037 RMK AO2 T00011030,KIPJ,2019-01-12T05:30:00Z,35.48,-81.17,0.1,-3.0,0,0,,10.0,30.369095,,,TRUE,TRUE,,,,,,,OVC,10000,,,,,,,VFR,,,,,,,,,,,,METAR,267.0
LWSK 120530Z 36003KT 9999 OVC036 M01/M06 Q1018 R99/2///95 NOSIG,LWSK,2019-01-12T05:30:00Z,41.97,21.63,-1.0,-6.0,360,3,,6.21,30.059055,,,,,,TRUE,,,,,OVC,3600,,,,,,,VFR,,,,,,,,,,,,SPECI,239.0
OPPS 120530Z 27004KT 2500 HZ FEW050 SCT100 11/06 Q1021,OPPS,2019-01-12T05:30:00Z,34.02,71.52,11.0,6.0,270,4,,1.55,30.147638,,,,,,,,,,HZ,FEW,5000,SCT,10000,,,,,IFR,,,,,,,,,,,,METAR,360.0
BKPR 120530Z 00000KT 2000 BR BKN040 M07/M09 Q1016 NOSIG RMK 17010095,BKPR,2019-01-12T05:30:00Z,42.58,21.03,-7.0,-9.0,0,0,,1.24,30.0,,,,,,TRUE,,,,BR,BKN,4000,,,,,,,IFR,,,,,,,,,,,,SPECI,576.0
LZPP 120530Z 30008KT 9999 BKN017 00/M01 Q1014,LZPP,2019-01-12T05:30:00Z,48.62,17.83,0.0,-1.0,300,8,,6.21,29.940945,,,,,,,,,,,BKN,1700,,,,,,,MVFR,,,,,,,,,,,,METAR,161.0
LKTB 120530Z 28010KT 9999 FEW021 SCT030 BKN046 02/M01 Q1014 R27/89//94 NOSIG,LKTB,2019-01-12T05:30:00Z,49.13,16.68,2.0,-1.0,280,10,,6.21,29.940945,,,,,,TRUE,,,,,FEW,2100,SCT,3000,BKN,4600,,,VFR,,,,,,,,,,,,SPECI,246.0
LKPR 120530Z 24013KT 9999 -RASN SCT017 BKN024 OVC042 01/00 Q1015 R24/29//95 R30/420295 NOSIG,LKPR,2019-01-12T05:30:00Z,50.1,14.27,1.0,0.0,240,13,,6.21,29.970472,,,,,,TRUE,,,,-RA -SN,SCT,1700,BKN,2400,OVC,4200,,,MVFR,,,,,,,,,,,,SPECI,365.0
LKMT 120530Z 22010KT 6000 -SN OVC021 M00/M02 Q1012 R04/490591 NOSIG,LKMT,2019-01-12T05:30:00Z,49.67,18.12,0.0,-2.0,220,10,,3.73,29.88189,,,,,,TRUE,,,,-SN,OVC,2100,,,,,,,MVFR,,,,,,,,,,,,SPECI,256.0
LYVR 120530Z 21003KT CAVOK M06/M08 Q1019 R01/////// NOSIG,LYVR,2019-01-12T05:30:00Z,45.13,21.32,-6.0,-8.0,210,3,,6.21,30.088583,,,,,,TRUE,,,,,CAVOK,,,,,,,,VFR,,,,,,,,,,,,METAR,85.0
LYUZ 120530Z AUTO 00000KT 0200 FZFG NSC M12/M14 Q1014,LYUZ,2019-01-12T05:30:00Z,43.9,19.7,-12.0,-14.0,0,0,,0.12,29.940945,,,TRUE,,,,,,,FZFG,CLR,,,,,,,,LIFR,,,,,,,,,,,,METAR,904.0
LYTV 120530Z 03001KT CAVOK 02/M09 Q1015,LYTV,2019-01-12T05:30:00Z,42.38,18.72,2.0,-9.0,30,1,,6.21,29.970472,,,,,,,,,,,CAVOK,,,,,,,,VFR,,,,,,,,,,,,METAR,5.0
LYPG 120530Z 34006KT CAVOK M01/M09 Q1016 NOSIG,LYPG,2019-01-12T05:30:00Z,42.37,19.25,-1.0,-9.0,340,6,,6.21,30.0,,,,,,TRUE,,,,,CAVOK,,,,,,,,VFR,,,,,,,,,,,,METAR,43.0
LYNI 120530Z 11002KT 2000 R29/1500D R11/0150D MIFG FEW040 M05/M05 Q1019 R11/1///94 TEMPO 1000,LYNI,2019-01-12T05:30:00Z,43.32,21.88,-5.0,-5.0,110,2,,1.24,30.088583,,,,,,,,,,MIFG,FEW,4000,,,,,,,IFR,,,,,,,,,,,,SPECI,202.0
LYKV 120530Z 32002KT 6000 SCT040 M12/M13 Q1019 R14/////// NOSIG,LYKV,2019-01-12T05:30:00Z,43.82,20.58,-12.0,-13.0,320,2,,3.73,30.088583,,,,,,TRUE,,,,,SCT,4000,,,,,,,MVFR,,,,,,,,,,,,METAR,209.0
LYBT 120530Z 17003KT 8000 NSC M06/M07 Q1019 R12/////// NOSIG,LYBT,2019-01-12T05:30:00Z,44.93,20.25,-6.0,-7.0,170,3,,4.97,30.088583,,,,,,TRUE,,,,,CLR,,,,,,,,MVFR,,,,,,,,,,,,METAR,80.0
LYBE 120530Z 20005KT CAVOK M04/M05 Q1019 R12/1///95 NOSIG,LYBE,2019-01-12T05:30:00Z,44.82,20.28,-4.0,-5.0,200,5,,6.21,30.088583,,,,,,TRUE,,,,,CAVOK,,,,,,,,VFR,,,,,,,,,,,,SPECI,99.0
HECA 120530Z 10007KT 6000 SCT025 11/04 Q1015 NOSIG,HECA,2019-01-12T05:30:00Z,30.12,31.38,11.0,4.0,100,7,,3.73,29.970472,,,,,,TRUE,,,,,SCT,2500,,,,,,,MVFR,,,,,,,,,,,,METAR,74.0
VGHS 120530Z 36004KT 3500 HZ NSC 25/15 Q1018 NOSIG,VGHS,2019-01-12T05:30:00Z,23.85,90.4,25.0,15.0,360,4,,2.17,30.059055,,,,,,TRUE,,,,HZ,CLR,,,,,,,,IFR,,,,,,,,,,,,METAR,10.0
LCPH 120530Z 02008KT CAVOK 09/04 Q1015,LCPH,2019-01-12T05:30:00Z,34.72,32.47,9.0,4.0,20,8,,6.21,29.970472,,,,,,,,,,,CAVOK,,,,,,,,VFR,,,,,,,,,,,,METAR,8.0
LCLK 120530Z 33005KT 9999 FEW025 09/07 Q1016 NOSIG,LCLK,2019-01-12T05:30:00Z,34.87,33.62,9.0,7.0,330,5,,6.21,30.0,,,,,,TRUE,,,,,FEW,2500,,,,,,,VFR,,,,,,,,,,,,METAR,2.0
VTSM 120530Z 05006KT 9999 FEW020 31/26 Q1013 NOSIG,VTSM,2019-01-12T05:30:00Z,9.55,100.07,31.0,26.0,50,6,,6.21,29.911417,,,,,,TRUE,,,,,FEW,2000,,,,,,,VFR,,,,,,,,,,,,METAR,17.0
VASU 120530Z 00000KT 1200 HZ NSC 25/12 Q1015,VASU,2019-01-12T05:30:00Z,21.12,72.73,25.0,12.0,0,0,,0.75,29.970472,,,,,,,,,,HZ,CLR,,,,,,,,LIFR,,,,,,,,,,,,METAR,5.0
VABB 120530Z 06004KT 2000 FU NSC 27/14 Q1015 NOSIG,VABB,2019-01-12T05:30:00Z,19.1,72.87,27.0,14.0,60,4,,1.24,29.970472,,,,,,TRUE,,,,FU,CLR,,,,,,,,IFR,,,,,,,,,,,,METAR,8.0
VOHY 120530Z 12004KT 3000 HZ NSC 25/20 Q1020 NOSIG,VOHY,2019-01-12T05:30:00Z,17.45,78.45,25.0,20.0,120,4,,1.86,30.11811,,,,,,TRUE,,,,HZ,CLR,,,,,,,,IFR,,,,,,,,,,,,METAR,545.0
VOSM 120530Z VRB03KT 4500 HZ NSC 27/16 Q1016 BECMG 5000 HZ,VOSM,2019-01-12T05:30:00Z,11.78,78.07,27.0,16.0,0,3,,2.8,30.0,,,,,,,,,,HZ,CLR,,,,,,,,IFR,,,,,,,,,,,,METAR,307.0
KSLN 120530Z AUTO 03007KT 3SM -SN BR OVC005 01/01 A3001 RMK AO2 P0000 T00060006,KSLN,2019-01-12T05:30:00Z,38.78,-97.65,0.6,0.6,30,7,,3.0,30.008858,,,TRUE,TRUE,,,,,,-SN BR,OVC,500,,,,,,,IFR,,,,,,0.005,,,,,,SPECI,385.0
KPIL 120530Z AUTO 24010KT 1SM +RA BR FEW008 OVC016 19/18 A2997 RMK AO2 RAB0456 TSE0455 P0084 T01940183 $,KPIL,2019-01-12T05:30:00Z,26.17,-97.33,19.4,18.3,240,10,,1.0,29.970472,,,TRUE,TRUE,TRUE,,,,,+RA BR,FEW,800,OVC,1600,,,,,IFR,,,,,,0.84,,,,,,SPECI,5.0
KPIA 120530Z 10005KT 2 1/2SM -SN OVC032 M01/M04 A3027 RMK AO2 SNB17 P0000 T10111039,KPIA,2019-01-12T05:30:00Z,40.67,-89.68,-1.1,-3.9,100,5,,2.5,30.268702,,,,TRUE,,,,,,-SN,OVC,3200,,,,,,,IFR,,,,,,0.005,,,,,,SPECI,205.0
KOWA 120530Z AUTO 09003KT 10SM SCT095 M04/M06 A3021 RMK AO2,KOWA,2019-01-12T05:30:00Z,44.12,-93.25,-4.0,-6.0,90,3,,10.0,30.209646,,,TRUE,TRUE,,,,,,,SCT,9500,,,,,,,VFR,,,,,,,,,,,,SPECI,350.0
KLGU 120530Z AUTO 28005KT 1 3/4SM BR FEW003 OVC008 M01/M02 A3029 RMK AO2 CIG 006V010 T10111022,KLGU,2019-01-12T05:30:00Z,41.78,-111.85,-1.1,-2.2,280,5,,1.75,30.28937,,,TRUE,TRUE,,,,,,BR,FEW,300,OVC,800,,,,,IFR,,,,,,,,,,,,SPECI,1355.0
KLEX 120530Z 12005KT 1 1/2SM -SN OVC022 M01/M04 A3031 RMK AO2 SNB11 P0001 T10061039,KLEX,2019-01-12T05:30:00Z,38.03,-84.6,-0.6,-3.9,120,5,,1.5,30.31004,,,,TRUE,,,,,,-SN,OVC,2200,,,,,,,IFR,,,,,,0.01,,,,,,SPECI,300.0
KGFK 120530Z 35010KT 8SM OVC005 M11/M11 A3038 RMK AO2 LAST I1000 T11061111,KGFK,2019-01-12T05:30:00Z,47.95,-97.18,-10.6,-11.1,350,10,,8.0,30.380905,,,,TRUE,,,,,,,OVC,500,,,,,,,IFR,,,,,,,,,,,,SPECI,258.0
KEMP 120530Z AUTO 06005KT 1SM -SN SCT003 OVC007 A2997 RMK AO2 P0000 $,KEMP,2019-01-12T05:30:00Z,38.33,-96.2,,,60,5,,1.0,29.970472,,,TRUE,TRUE,TRUE,,,,,-SN,SCT,300,OVC,700,,,,,IFR,,,,,,0.005,,,,,,SPECI,367.0
KCPR 120530Z AUTO 28007KT 7SM R03/5000VP6000FT SCT002 M05/M06 A3022 RMK AO2 T10501056,KCPR,2019-01-12T05:30:00Z,42.9,-106.47,-5.0,-5.6,280,7,,7.0,30.221457,,,TRUE,TRUE,,,,,,,SCT,200,,,,,,,VFR,,,,,,,,,,,,SPECI,1621.0
VOTP 120530Z 08008KT 4000 HZ FEW020 25/16 Q1017,VOTP,2019-01-12T05:30:00Z,13.63,79.55,25.0,16.0,80,8,,2.49,30.029528,,,,,,,,,,HZ,FEW,2000,,,,,,,IFR,,,,,,,,,,,,METAR,107.0
VORY 120530Z 08008KT 3000 HZ FEW020 26/18 Q1017 NOSIG,VORY,2019-01-12T05:30:00Z,17.1,81.82,26.0,18.0,80,8,,1.86,30.029528,,,,,,TRUE,,,,HZ,FEW,2000,,,,,,,IFR,,,,,,,,,,,,METAR,46.0
VOMM 120530Z 06012KT 5000 HZ SCT020 SCT100 28/19 Q1016 BECMG 6000,VOMM,2019-01-12T05:30:00Z,13.0,80.17,28.0,19.0,60,12,,3.11,30.0,,,,,,,,,,HZ,SCT,2000,SCT,10000,,,,,MVFR,,,,,,,,,,,,METAR,16.0
EPZG 120530Z 25008KT 5000 BR OVC008 03/03 Q1012,EPZG,2019-01-12T05:30:00Z,52.13,15.8,3.0,3.0,250,8,,3.11,29.88189,,,,,,,,,,BR,OVC,800,,,,,,,IFR,,,,,,,,,,,,METAR,59.0
EPWR 120530Z 31010KT 9999 BKN008 BKN035 03/02 Q1012 R11/29//95,EPWR,2019-01-12T05:30:00Z,51.1,16.87,3.0,2.0,310,10,,6.21,29.88189,,,,,,,,,,,BKN,800,BKN,3500,,,,,IFR,,,,,,,,,,,,SPECI,121.0
EPSY 120530Z 28007KT 250V320 9999 BKN029 M00/M01 Q1005 R01/590293,EPSY,2019-01-12T05:30:00Z,53.47,20.93,0.0,-1.0,280,7,,6.21,29.675198,,,,,,,,,,,BKN,2900,,,,,,,MVFR,,,,,,,,,,,,METAR,141.0
EPSC 120530Z 27008KT 8000 OVC003 02/01 Q1011,EPSC,2019-01-12T05:30:00Z,53.58,14.9,2.0,1.0,270,8,,4.97,29.852362,,,,,,,,,,,OVC,300,,,,,,,LIFR,,,,,,,,,,,,METAR,47.0
EPMO 120530Z 30010KT 9999 BKN005 M00/M02 Q1007 R08/290294,EPMO,2019-01-12T05:30:00Z,52.45,20.65,0.0,-2.0,300,10,,6.21,29.734253,,,,,,,,,,,BKN,500,,,,,,,IFR,,,,,,,,,,,,SPECI,104.0
EPLB 120530Z 29008KT 9999 BKN031 M00/M01 Q1006,EPLB,2019-01-12T05:30:00Z,51.23,22.72,0.0,-1.0,290,8,,6.21,29.704725,,,,,,,,,,,BKN,3100,,,,,,,VFR,,,,,,,,,,,,METAR,206.0
EPKT 120530Z 31007KT 9999 FEW003 BKN004 00/M00 Q1010,EPKT,2019-01-12T05:30:00Z,50.47,19.08,0.0,0.0,310,7,,6.21,29.822834,,,,,,,,,,,FEW,300,BKN,400,,,,,LIFR,,,,,,,,,,,,METAR,284.0
EPBY 120530Z 28007KT 9999 SCT004 M01/M01 Q1009,EPBY,2019-01-12T05:30:00Z,53.1,18.0,-1.0,-1.0,280,7,,6.21,29.793306,,,,,,,,,,,SCT,400,,,,,,,VFR,,,,,,,,,,,,METAR,71.0
EPWA 120530Z 28007KT 250V310 9999 SCT008 BKN011 00/M01 Q1007 R33/2///95 TEMPO BKN007,EPWA,2019-01-12T05:30:00Z,52.17,20.97,0.0,-1.0,280,7,,6.21,29.734253,,,,,,,,,,,SCT,800,BKN,1100,,,,,MVFR,,,,,,,,,,,,SPECI,107.0
EPRZ 120530Z 23009KT 8000 BKN006 M03/M04 Q1008 REFZRA R27/41//95,EPRZ,2019-01-12T05:30:00Z,50.1,22.05,-3.0,-4.0,230,9,,4.97,29.763779,,,,,,,,,,,BKN,600,,,,,,,IFR,,,,,,,,,,,,SPECI,202.0
EPPO 120530Z 29009KT 9999 BKN013 02/01 Q1011 R10/290095,EPPO,2019-01-12T05:30:00Z,52.42,16.82,2.0,1.0,290,9,,6.21,29.852362,,,,,,,,,,,BKN,1300,,,,,,,MVFR,,,,,,,,,,,,SPECI,92.0
EPLL 120530Z 28008KT 9999 BKN006 OVC008 01/M00 Q1009 R25/29//95,EPLL,2019-01-12T05:30:00Z,51.72,19.4,1.0,0.0,280,8,,6.21,29.793306,,,,,,,,,,,BKN,600,OVC,800,,,,,IFR,,,,,,,,,,,,SPECI,184.0
EPKK 120530Z 26009KT 3500 -SN SCT008 BKN013 M00/M01 Q1010 R25/52//94,EPKK,2019-01-12T05:30:00Z,50.07,19.8,0.0,-1.0,260,9,,2.17,29.822834,,,,,,,,,,-SN,SCT,800,BKN,1300,,,,,IFR,,,,,,,,,,,,SPECI,237.0
EPGD 120530Z 28007KT CAVOK 00/M02 Q1006,EPGD,2019-01-12T05:30:00Z,54.37,18.47,0.0,-2.0,280,7,,6.21,29.704725,,,,,,,,,,,CAVOK,,,,,,,,VFR,,,,,,,,,,,,METAR,138.0
NTAA 120530Z 02004KT 350V140 9999 FEW013 BKN020 BKN043 26/24 Q1010 RERA NOSIG,NTAA,2019-01-12T05:30:00Z,-17.55,-149.62,26.0,24.0,20,4,,6.21,29.822834,,,,,,TRUE,,,,,FEW,1300,BKN,2000,BKN,4300,,,MVFR,,,,,,,,,,,,METAR,2.0
GMTT 120530Z 09012KT 9999 FEW016 11/04 Q1023 NOSIG,GMTT,2019-01-12T05:30:00Z,35.72,-5.9,11.0,4.0,90,12,,6.21,30.206694,,,,,,TRUE,,,,,FEW,1600,,,,,,,VFR,,,,,,,,,,,,METAR,21.0
GMMX 120530Z 09002KT CAVOK 04/M02 Q1020 NOSIG,GMMX,2019-01-12T05:30:00Z,31.62,-8.02,4.0,-2.0,90,2,,6.21,30.11811,,,,,,TRUE,,,,,CAVOK,,,,,,,,VFR,,,,,,,,,,,,METAR,466.0
GMMN 120530Z 16002KT CAVOK 02/02 Q1022 NOSIG,GMMN,2019-01-12T05:30:00Z,33.37,-7.57,2.0,2.0,160,2,,6.21,30.177166,,,,,,TRUE,,,,,CAVOK,,,,,,,,VFR,,,,,,,,,,,,METAR,206.0
GMME 120530Z 14004KT 050V200 5000 FEW006 06/04 Q1021 NOSIG,GMME,2019-01-12T05:30:00Z,34.03,-6.77,6.0,4.0,140,4,,3.11,30.147638,,,,,,TRUE,,,,,FEW,600,,,,,,,MVFR,,,,,,,,,,,,METAR,75.0
GMFF 120530Z 11004KT CAVOK 02/M02 Q1023 NOSIG,GMFF,2019-01-12T05:30:00Z,33.92,-4.97,2.0,-2.0,110,4,,6.21,30.206694,,,,,,TRUE,,,,,CAVOK,,,,,,,,VFR,,,,,,,,,,,,METAR,579.0
GMAD 120530Z 09005KT 040V100 CAVOK 05/01 Q1020 NOSIG,GMAD,2019-01-12T05:30:00Z,30.32,-9.42,5.0,1.0,90,5,,6.21,30.11811,,,,,,TRUE,,,,,CAVOK,,,,,,,,VFR,,,,,,,,,,,,METAR,74.0
LDZD 120530Z 11004KT CAVOK M06/M09 Q1017 NOSIG,LDZD,2019-01-12T05:30:00Z,44.1,15.37,-6.0,-9.0,110,4,,6.21,30.029528,,,,,,TRUE,,,,,CAVOK,,,,,,,,VFR,,,,,,,,,,,,METAR,84.0
LDZA 120530Z 26003KT CAVOK M03/M05 Q1018 NOSIG,LDZA,2019-01-12T05:30:00Z,45.72,16.07,-3.0,-5.0,260,3,,6.21,30.059055,,,,,,TRUE,,,,,CAVOK,,,,,,,,VFR,,,,,,,,,,,,METAR,107.0
LDSP 120530Z 33010KT CAVOK 01/M11 Q1016 NOSIG,LDSP,2019-01-12T05:30:00Z,43.52,16.3,1.0,-11.0,330,10,,6.21,30.0,,,,,,TRUE,,,,,CAVOK,,,,,,,,VFR,,,,,,,,,,,,METAR,21.0
LDRI 120530Z 14001KT CAVOK 01/M05 Q1017,LDRI,2019-01-12T05:30:00Z,45.22,14.57,1.0,-5.0,140,1,,6.21,30.029528,,,,,,,,,,,CAVOK,,,,,,,,VFR,,,,,,,,,,,,METAR,85.0
LDPL 120530Z VRB02KT CAVOK 02/M04 Q1018 NOSIG,LDPL,2019-01-12T05:30:00Z,44.88,13.92,2.0,-4.0,0,2,,6.21,30.059055,,,,,,TRUE,,,,,CAVOK,,,,,,,,VFR,,,,,,,,,,,,METAR,63.0
LDOS 120530Z 22006KT CAVOK M02/M04 Q1018,LDOS,2019-01-12T05:30:00Z,45.47,18.82,-2.0,-4.0,220,6,,6.21,30.059055,,,,,,,,,,,CAVOK,,,,,,,,VFR,,,,,,,,,,,,METAR,89.0
LDDU 120530Z 01018KT 340V060 CAVOK 01/M10 Q1014 NOSIG,LDDU,2019-01-12T05:30:00Z,42.57,18.27,1.0,-10.0,10,18,,6.21,29.940945,,,,,,TRUE,,,,,CAVOK,,,,,,,,VFR,,,,,,,,,,,,METAR,165.0
FMCZ 120530Z AUTO 04008KT CAVOK 29/25 Q1012 NOSIG,FMCZ,2019-01-12T05:30:00Z,-12.8,45.27,29.0,25.0,40,8,,6.21,29.88189,,,TRUE,,,TRUE,,,,,CAVOK,,,,,,,,VFR,,,,,,,,,,,,METAR,7.0
CWPF 120530Z AUTO 35008KT 08/05 RMK AO1 T00800046,CWPF,2019-01-12T05:30:00Z,48.43,-123.43,8.0,4.6,350,8,,,,,,TRUE,TRUE,,,,,,,,,,,,,,,,,,,,,,,,,,,METAR,12.0
UKDR 120530Z 27006MPS 9000 OVC008 M12/M14 Q1009 R36/5950// NOSIG,UKDR,2019-01-12T05:30:00Z,48.05,33.22,-12.0,-14.0,270,12,,5.59,29.793306,,,,,,TRUE,,,,,OVC,800,,,,,,,IFR,,,,,,,,,,,,METAR,124.0
UKLL 120530Z 26004MPS 240V300 2900 -SHSN BKN007 BKN020CB M04/M05 Q1006 R31/850530 NOSIG,UKLL,2019-01-12T05:30:00Z,49.82,23.93,-4.0,-5.0,260,8,,1.8,29.704725,,,,,,TRUE,,,,-SHSN,BKN,700,BKN,2000,,,,,IFR,,,,,,,,,,,,METAR,325.0
UKDD 120530Z 29009MPS 6000 -SN OVC008 M08/M10 Q1008 R26/810250 TEMPO 24007G12MPS 0800 +SN BLSN VV001,UKDD,2019-01-12T05:30:00Z,48.37,35.1,-8.0,-10.0,290,17,,3.73,29.763779,,,,,,,,,,-SN,OVC,800,,,,,,,IFR,,,,,,,,,,,,METAR,149.0
UKDE 120530Z 24005MPS 6000 OVC007 M06/M06 Q1009 R02R/750540 NOSIG,UKDE,2019-01-12T05:30:00Z,47.87,35.32,-6.0,-6.0,240,10,,3.73,29.793306,,,,,,TRUE,,,,,OVC,700,,,,,,,IFR,,,,,,,,,,,,METAR,113.0
UKOO 120530Z 27002MPS 220V290 7000 BKN010 M05/M07 Q1012 R16/450235 NOSIG,UKOO,2019-01-12T05:30:00Z,46.42,30.68,-5.0,-7.0,270,4,,4.35,29.88189,,,,,,TRUE,,,,,BKN,1000,,,,,,,MVFR,,,,,,,,,,,,METAR,35.0
UKHH 120530Z 29004MPS 5000 -SN BR BKN009 OVC019 M07/M09 Q1004 R25/550538 NOSIG,UKHH,2019-01-12T05:30:00Z,49.92,36.28,-7.0,-9.0,290,8,,3.11,29.64567,,,,,,TRUE,,,,-SN BR,BKN,900,OVC,1900,,,,,IFR,,,,,,,,,,,,METAR,155.0
UKBB 120530Z 21006MPS CAVOK M10/M11 Q1004 R36R/821040 R36L/82//95 NOSIG,UKBB,2019-01-12T05:30:00Z,50.33,30.9,-10.0,-11.0,210,12,,6.21,29.64567,,,,,,TRUE,,,,,CAVOK,,,,,,,,VFR,,,,,,,,,,,,METAR,119.0
DIAP 120530Z VRB01KT 9000 SCT012 27/25 Q1009 NOSIG,DIAP,2019-01-12T05:30:00Z,5.25,-3.92,27.0,25.0,0,1,,5.59,29.793306,,,,,,TRUE,,,,,SCT,1200,,,,,,,VFR,,,,,,,,,,,,SPECI,8.0
VOBL 120530Z 06008KT CAVOK 23/08 Q1020 NOSIG,VOBL,2019-01-12T05:30:00Z,13.2,77.7,23.0,8.0,60,8,,6.21,30.11811,,,,,,TRUE,,,,,CAVOK,,,,,,,,VFR,,,,,,,,,,,,METAR,915.0
VHHH 120530Z 29006KT 3700 HZ FEW018 20/15 Q1018 NOSIG,VHHH,2019-01-12T05:30:00Z,22.32,113.92,20.0,15.0,290,6,,2.3,30.059055,,,,,,TRUE,,,,HZ,FEW,1800,,,,,,,IFR,,,,,,,,,,,,METAR,9.0
EICK 120530Z 27010KT 9999 -DZ FEW007 BKN012 BKN018 09/08 Q1029 NOSIG,EICK,2019-01-12T05:30:00Z,51.85,-8.47,9.0,8.0,270,10,,6.21,30.383858,,,,,,TRUE,,,,-DZ,FEW,700,BKN,1200,BKN,1800,,,MVFR,,,,,,,,,,,,METAR,162.0
EINN 120530Z 27014KT 9999 FEW010 SCT018 BKN032 09/07 Q1029 NOSIG,EINN,2019-01-12T05:30:00Z,52.7,-8.92,9.0,7.0,270,14,,6.21,30.383858,,,,,,TRUE,,,,,FEW,1000,SCT,1800,BKN,3200,,,VFR,,,,,,,,,,,,METAR,20.0
EIDW 120530Z 27015KT 9999 FEW010 SCT018 BKN030 08/06 Q1024 NOSIG,EIDW,2019-01-12T05:30:00Z,53.42,-6.25,8.0,6.0,270,15,,6.21,30.236221,,,,,,TRUE,,,,,FEW,1000,SCT,1800,BKN,3000,,,MVFR,,,,,,,,,,,,METAR,85.0
KQFX 120530Z AUTO 31002KT 4000 HZ FEW034 08/M05 A3012 RMK A02 TSNO,KQFX,2019-01-12T05:30:00Z,,,8.0,-5.0,310,2,,2.49,30.121063,,,TRUE,TRUE,,,TRUE,,,HZ,FEW,3400,,,,,,,IFR,,,,,,,,,,,,METAR,
KQFW 120530Z AUTO 24004KT 6000 HZ BKN110 07/M06 A3013 RMK A02 TSNO,KQFW,2019-01-12T05:30:00Z,,,7.0,-6.0,240,4,,3.73,30.129921,,,TRUE,TRUE,,,TRUE,,,HZ,BKN,11000,,,,,,,MVFR,,,,,,,,,,,,METAR,
KQFV 120530Z AUTO 12002KT 4800 HZ BKN070 06/M08 A3012 RMK A02 TSNO,KQFV,2019-01-12T05:30:00Z,,,6.0,-8.0,120,2,,2.98,30.121063,,,TRUE,TRUE,,,TRUE,,,HZ,BKN,7000,,,,,,,IFR,,,,,,,,,,,,METAR,
KQFT 120530Z AUTO 18004KT 6000 HZ BKN065 07/M06 A3013 RMK A02 TSNO,KQFT,2019-01-12T05:30:00Z,,,7.0,-6.0,180,4,,3.73,30.129921,,,TRUE,TRUE,,,TRUE,,,HZ,BKN,6500,,,,,,,MVFR,,,,,,,,,,,,METAR,
KQFB 120530Z AUTO 30001KT 8000 HZ OVC015 05/03 A3017 RMK A02 TSNO,KQFB,2019-01-12T05:30:00Z,,,5.0,3.0,300,1,,4.97,30.171259,,,TRUE,TRUE,,,TRUE,,,HZ,OVC,1500,,,,,,,MVFR,,,,,,,,,,,,METAR,
KQEY 120530Z AUTO 14001KT 3200 HZ FEW015 06/01 A2984 RMK A02 TSNO,KQEY,2019-01-12T05:30:00Z,,,6.0,1.0,140,1,,1.99,29.840551,,,TRUE,TRUE,,,TRUE,,,HZ,FEW,1500,,,,,,,IFR,,,,,,,,,,,,METAR,
KQEW 120530Z AUTO 16003KT 6000 HZ FEW019 BKN023 07/03 A3011 RMK A02 TSNO,KQEW,2019-01-12T05:30:00Z,,,7.0,3.0,160,3,,3.73,30.109253,,,TRUE,TRUE,,,TRUE,,,HZ,FEW,1900,BKN,2300,,,,,MVFR,,,,,,,,,,,,METAR,
KQEV 120530Z AUTO 31001KT 4000 HZ OVC032 08/M04 A3011 RMK A02 TSNO,KQEV,2019-01-12T05:30:00Z,,,8.0,-4.0,310,1,,2.49,30.109253,,,TRUE,TRUE,,,TRUE,,,HZ,OVC,3200,,,,,,,IFR,,,,,,,,,,,,METAR,
KQES 120530Z AUTO 29003KT 9999 OVC047 05/M03 A3021 RMK A02 TSNO,KQES,2019-01-12T05:30:00Z,,,5.0,-3.0,290,3,,6.21,30.209646,,,TRUE,TRUE,,,TRUE,,,,OVC,4700,,,,,,,VFR,,,,,,,,,,,,METAR,
KQER 120530Z AUTO 30002KT 6000 HZ OVC075 06/M07 A3007 RMK A02 TSNO,KQER,2019-01-12T05:30:00Z,,,6.0,-7.0,300,2,,3.73,30.070866,,,TRUE,TRUE,,,TRUE,,,HZ,OVC,7500,,,,,,,MVFR,,,,,,,,,,,,METAR,
KQEN 120530Z AUTO 07003KT M0400 FZFG CLR M01/00 A3004 RMK A02 TSNO,KQEN,2019-01-12T05:30:00Z,,,-1.0,0.0,70,3,,0.25,30.041338,,,TRUE,TRUE,,,TRUE,,,FZFG,CLR,,,,,,,,LIFR,,,,,,,,,,,,METAR,
KQEL 120530Z AUTO 17003KT 8000 HZ FEW060 BKN075 07/M06 A3021 RMK A02 TSNO,KQEL,2019-01-12T05:30:00Z,,,7.0,-6.0,170,3,,4.97,30.209646,,,TRUE,TRUE,,,TRUE,,,HZ,FEW,6000,BKN,7500,,,,,MVFR,,,,,,,,,,,,METAR,
LQTZ 120530Z VRB01KT 0100 R09/0175N FZFG VV001 M11/M11 Q1019,LQTZ,2019-01-12T05:30:00Z,44.47,18.73,-11.0,-11.0,0,1,,0.06,30.088583,,,,,,,,,,FZFG,OVX,0,,,,,,,LIFR,,,,,,,,,,,100,METAR,306.0
LQSA 120530Z 00000KT 5000 BR FEW010 SCT017 M10/M10 Q1018 NOSIG,LQSA,2019-01-12T05:30:00Z,43.82,18.32,-10.0,-10.0,0,0,,3.11,30.059055,,,,,,TRUE,,,,BR,FEW,1000,SCT,1700,,,,,MVFR,,,,,,,,,,,,METAR,511.0
BIKF 120530Z 32010KT 9999 BKN017 01/M01 Q1005,BIKF,2019-01-12T05:30:00Z,63.98,-22.6,1.0,-1.0,320,10,,6.21,29.675198,,,,,,,,,,,BKN,1700,,,,,,,MVFR,,,,,,,,,,,,METAR,54.0
LZZI 120530Z VRB02KT 3300 -SN BR SCT004 OVC027 M03/M03 Q1012,LZZI,2019-01-12T05:30:00Z,49.23,18.62,-3.0,-3.0,0,2,,2.05,29.88189,,,,,,,,,,-SN BR,SCT,400,OVC,2700,,,,,IFR,,,,,,,,,,,,METAR,311.0
LZSL 120530Z VRB01KT 9999 OVC026 M03/M05 Q1012,LZSL,2019-01-12T05:30:00Z,48.63,19.13,-3.0,-5.0,0,1,,6.21,29.88189,,,,,,,,,,,OVC,2600,,,,,,,MVFR,,,,,,,,,,,,METAR,313.0
LFOP 120530Z AUTO 27005KT 240V300 9999 OVC028 06/04 Q1028 BECMG OVC010,LFOP,2019-01-12T05:30:00Z,49.37,1.17,6.0,4.0,270,5,,6.21,30.35433,,,TRUE,,,,,,,,OVC,2800,,,,,,,MVFR,,,,,,,,,,,,METAR,157.0
LFOH 120530Z AUTO 25011KT 9999 OVC033 07/05 Q1029 NOSIG,LFOH,2019-01-12T05:30:00Z,49.52,0.07,7.0,5.0,250,11,,6.21,30.383858,,,TRUE,,,TRUE,,,,,OVC,3300,,,,,,,VFR,,,,,,,,,,,,METAR,103.0
LFLX 120530Z AUTO 24004KT 0450 R21/0650D FG VV/// 05/04 Q1030 NOSIG,LFLX,2019-01-12T05:30:00Z,46.85,1.72,5.0,4.0,240,4,,0.28,30.413385,,,TRUE,,,TRUE,,,,FG,OVX,0,,,,,,,LIFR,,,,,,,,,,,,METAR,157.0
LFLP 120530Z AUTO 07002KT 9999 BKN018 OVC026 M01/M04 Q1027 TEMPO BKN014,LFLP,2019-01-12T05:30:00Z,45.92,6.08,-1.0,-4.0,70,2,,6.21,30.324802,,,TRUE,,,,,,,,BKN,1800,OVC,2600,,,,,MVFR,,,,,,,,,,,,METAR,463.0
LFCK 120530Z AUTO 31008KT 5000 BR OVC002 02/02 Q1031 TEMPO 1200 -RASN,LFCK,2019-01-12T05:30:00Z,43.55,2.28,2.0,2.0,310,8,,3.11,30.442913,,,TRUE,,,,,,,BR,OVC,200,,,,,,,LIFR,,,,,,,,,,,,METAR,240.0
LFRL 120530Z AUTO 26003KT 9999 FEW021 OVC036 09/06 Q1033,LFRL,2019-01-12T05:30:00Z,48.27,-4.42,9.0,6.0,260,3,,6.21,30.501968,,,TRUE,,,,,,,,FEW,2100,OVC,3600,,,,,VFR,,,,,,,,,,,,METAR,82.0
LFRJ 120530Z AUTO 26003KT 4700 -DZ BR BKN005 BKN016 OVC028 07/07 Q1032,LFRJ,2019-01-12T05:30:00Z,48.52,-4.15,7.0,7.0,260,3,,2.92,30.47244,,,TRUE,,,,,,,-DZ BR,BKN,500,BKN,1600,OVC,2800,,,IFR,,,,,,,,,,,,METAR,115.0
LFOJ 120530Z AUTO 26006KT 3300 BR BKN025 BKN032 OVC043 05/04 Q1029,LFOJ,2019-01-12T05:30:00Z,47.97,1.75,5.0,4.0,260,6,,2.05,30.383858,,,TRUE,,,,,,,BR,BKN,2500,BKN,3200,OVC,4300,,,IFR,,,,,,,,,,,,METAR,125.0
LFOE 120530Z AUTO 29005KT 9999 OVC027 06/05 Q1029 TEMPO 4000 BR BKN010,LFOE,2019-01-12T05:30:00Z,49.02,1.22,6.0,5.0,290,5,,6.21,30.383858,,,TRUE,,,,,,,,OVC,2700,,,,,,,MVFR,,,,,,,,,,,,SPECI,146.0
LFOC 120530Z AUTO 27005KT 4300 BR OVC042 05/05 Q1029,LFOC,2019-01-12T05:30:00Z,48.03,1.37,5.0,5.0,270,5,,2.67,30.383858,,,TRUE,,,,,,,BR,OVC,4200,,,,,,,IFR,,,,,,,,,,,,METAR,127.0
LFSD 120530Z AUTO VRB02KT 3100 BR OVC003 01/01 Q1028,LFSD,2019-01-12T05:30:00Z,47.27,5.07,1.0,1.0,0,2,,1.93,30.35433,,,TRUE,,,,,,,BR,OVC,300,,,,,,,LIFR,,,,,,,,,,,,METAR,227.0
LFRQ 120530Z AUTO 27004KT 9999 SCT033 OVC039 07/06 Q1033 NOSIG,LFRQ,2019-01-12T05:30:00Z,47.97,-4.17,7.0,6.0,270,4,,6.21,30.501968,,,TRUE,,,TRUE,,,,,SCT,3300,OVC,3900,,,,,VFR,,,,,,,,,,,,METAR,94.0
LFRH 120530Z AUTO 29003KT 9999 OVC038 07/04 Q1033 TEMPO BKN012 OVC030,LFRH,2019-01-12T05:30:00Z,47.77,-3.45,7.0,4.0,290,3,,6.21,30.501968,,,TRUE,,,,,,,,OVC,3800,,,,,,,VFR,,,,,,,,,,,,METAR,44.0
LFPT 120530Z AUTO 30007KT 7000 FEW014 OVC029 06/05 Q1028,LFPT,2019-01-12T05:30:00Z,49.1,2.03,6.0,5.0,300,7,,4.35,30.35433,,,TRUE,,,,,,,,FEW,1400,OVC,2900,,,,,MVFR,,,,,,,,,,,,METAR,99.0
LFPM 120530Z AUTO 24006KT 4800 BR SCT027 OVC040 06/05 Q1028,LFPM,2019-01-12T05:30:00Z,48.62,2.67,6.0,5.0,240,6,,2.98,30.35433,,,TRUE,,,,,,,BR,SCT,2700,OVC,4000,,,,,IFR,,,,,,,,,,,,METAR,92.0
LFLN 120530Z AUTO 00000KT 0450 R33/0550N FG VV/// 02/01 Q1029 BECMG 3000 BR OVC002,LFLN,2019-01-12T05:30:00Z,46.42,4.02,2.0,1.0,0,0,,0.28,30.383858,,,TRUE,,,,,,,FG,OVX,0,,,,,,,LIFR,,,,,,,,,,,,METAR,244.0
LFRK 120530Z AUTO 24008KT 9999 OVC034 07/05 Q1029 NOSIG,LFRK,2019-01-12T05:30:00Z,49.17,-0.45,7.0,5.0,240,8,,6.21,30.383858,,,TRUE,,,TRUE,,,,,OVC,3400,,,,,,,VFR,,,,,,,,,,,,METAR,67.0
LFRC 120530Z AUTO 27011KT 9999 FEW017 OVC033 09/05 Q1029 NOSIG,LFRC,2019-01-12T05:30:00Z,49.63,-1.47,9.0,5.0,270,11,,6.21,30.383858,,,TRUE,,,TRUE,,,,,FEW,1700,OVC,3300,,,,,VFR,,,,,,,,,,,,METAR,138.0
LFPN 120530Z AUTO 27007KT 5000 BR OVC007 06/05 Q1028 NOSIG,LFPN,2019-01-12T05:30:00Z,48.75,2.12,6.0,5.0,270,7,,3.11,30.35433,,,TRUE,,,TRUE,,,,BR,OVC,700,,,,,,,IFR,,,,,,,,,,,,METAR,164.0
LFJR 120530Z AUTO VRB02KT 0800 0700 R26/1300D FG FEW002 OVC049 04/04 Q1031,LFJR,2019-01-12T05:30:00Z,47.57,-0.3,4.0,4.0,0,2,,0.5,30.442913,,,TRUE,,,,,,,FG,FEW,200,OVC,4900,,,,,LIFR,,,,,,,,,,,,METAR,60.0
LFGA 120530Z AUTO 19003KT 9999 BKN030 BKN062 00/M01 Q1026,LFGA,2019-01-12T05:30:00Z,48.1,7.35,0.0,-1.0,190,3,,6.21,30.295275,,,TRUE,,,,,,,,BKN,3000,BKN,6200,,,,,MVFR,,,,,,,,,,,,METAR,191.0
LFBU 120530Z AUTO 24002KT 0350 R28/0450N FG VV/// 05/04 Q1031 TEMPO 0800 FG,LFBU,2019-01-12T05:30:00Z,45.72,0.22,5.0,4.0,240,2,,0.22,30.442913,,,TRUE,,,,,,,FG,OVX,0,,,,,,,LIFR,,,,,,,,,,,,METAR,133.0
LFAT 120530Z AUTO 29009KT 260V320 9999 OVC035 09/04 Q1026 NOSIG,LFAT,2019-01-12T05:30:00Z,50.52,1.62,9.0,4.0,290,9,,6.21,30.295275,,,TRUE,,,TRUE,,,,,OVC,3500,,,,,,,VFR,,,,,,,,,,,,METAR,14.0
LFAQ 120530Z AUTO 27005KT 9999 OVC030 05/04 Q1026 BECMG 4000 BR,LFAQ,2019-01-12T05:30:00Z,49.97,2.7,5.0,4.0,270,5,,6.21,30.295275,,,TRUE,,,,,,,,OVC,3000,,,,,,,MVFR,,,,,,,,,,,,METAR,111.0
GCXO 120530Z AUTO 13009KT 9999 BKN017/// 11/08 Q1019,GCXO,2019-01-12T05:30:00Z,28.48,-16.35,11.0,8.0,130,9,,6.21,30.088583,,,TRUE,,,,,,,,BKN,1700,,,,,,,MVFR,,,,,,,,,,,,METAR,632.0
GCTS 120530Z 04009KT 9999 FEW035 15/08 Q1019 NOSIG,GCTS,2019-01-12T05:30:00Z,28.05,-16.57,15.0,8.0,40,9,,6.21,30.088583,,,,,,TRUE,,,,,FEW,3500,,,,,,,VFR,,,,,,,,,,,,METAR,72.0
GCRR 120530Z AUTO 03006KT 010V070 9999 BKN029/// 16/11 Q1019,GCRR,2019-01-12T05:30:00Z,28.93,-13.58,16.0,11.0,30,6,,6.21,30.088583,,,TRUE,,,,,,,,BKN,2900,,,,,,,MVFR,,,,,,,,,,,,METAR,40.0
GCLP 120530Z 30004KT 260V350 9999 FEW033 15/10 Q1019 NOSIG,GCLP,2019-01-12T05:30:00Z,27.92,-15.37,15.0,10.0,300,4,,6.21,30.088583,,,,,,TRUE,,,,,FEW,3300,,,,,,,VFR,,,,,,,,,,,,METAR,25.0
GCLA 120530Z AUTO 26004KT 9999 FEW032/// BKN049/// 17/10 Q1018,GCLA,2019-01-12T05:30:00Z,28.62,-17.75,17.0,10.0,260,4,,6.21,30.059055,,,TRUE,,,,,,,,FEW,3200,BKN,4900,,,,,VFR,,,,,,,,,,,,METAR,31.0
GCFV 120530Z AUTO 09008KT 9999 BKN029/// 17/12 Q1019,GCFV,2019-01-12T05:30:00Z,28.43,-13.87,17.0,12.0,90,8,,6.21,30.088583,,,TRUE,,,,,,,,BKN,2900,,,,,,,MVFR,,,,,,,,,,,,METAR,23.0
LFPV 120530Z AUTO 27007KT 5000 BR OVC006 06/05 Q1028 BECMG BKN040,LFPV,2019-01-12T05:30:00Z,48.77,2.2,6.0,5.0,270,7,,3.11,30.35433,,,TRUE,,,,,,,BR,OVC,600,,,,,,,IFR,,,,,,,,,,,,SPECI,179.0
LFOA 120530Z AUTO 31004KT 4300 BR SCT007 BKN011 BKN018 05/05 Q1030 TEMPO 0800 FG VV///,LFOA,2019-01-12T05:30:00Z,47.03,2.63,5.0,5.0,310,4,,2.67,30.413385,,,TRUE,,,,,,,BR,SCT,700,BKN,1100,BKN,1800,,,IFR,,,,,,,,,,,,SPECI,179.0
OIIE 120530Z 25006KT CAVOK M01/M05 Q1025,OIIE,2019-01-12T05:30:00Z,35.42,51.15,-1.0,-5.0,250,6,,6.21,30.265747,,,,,,,,,,,CAVOK,,,,,,,,VFR,,,,,,,,,,,,SPECI,1008.0
OICK 120530Z 00000KT CAVOK M00/M04 Q1022,OICK,2019-01-12T05:30:00Z,33.43,48.28,0.0,-4.0,0,0,,6.21,30.177166,,,,,,,,,,,CAVOK,,,,,,,,VFR,,,,,,,,,,,,METAR,1155.0
OIBP 120530Z 12006KT CAVOK 16/08 Q1019 A3010,OIBP,2019-01-12T05:30:00Z,27.38,52.73,16.0,8.0,120,6,,6.21,30.088583,,,,,,,,,,,CAVOK,,,,,,,,VFR,,,,,,,,,,,,METAR,9.0
OIBB 120530Z 35010KT 7000 NSC 12/06 Q1021 A3016,OIBB,2019-01-12T05:30:00Z,28.97,50.82,12.0,6.0,350,10,,4.35,30.147638,,,,,,,,,,,CLR,,,,,,,,MVFR,,,,,,,,,,,,METAR,19.0
OITK 120530Z 13002KT 9999 FEW035 SCT190 M01/M08 Q1019,OITK,2019-01-12T05:30:00Z,38.42,44.98,-1.0,-8.0,130,2,,6.21,30.088583,,,,,,,,,,,FEW,3500,SCT,19000,,,,,VFR,,,,,,,,,,,,METAR,1107.0
OIZH 120530Z 05004KT CAVOK 05/M10 Q1025 A3029,OIZH,2019-01-12T05:30:00Z,29.47,60.92,5.0,-10.0,50,4,,6.21,30.265747,,,,,,,,,,,CAVOK,,,,,,,,VFR,,,,,,,,,,,,METAR,1370.0
OITT 120530Z 05006KT 9999 FEW030 BKN190 M04/M10 Q1021 A3016,OITT,2019-01-12T05:30:00Z,38.13,46.23,-4.0,-10.0,50,6,,6.21,30.147638,,,,,,,,,,,FEW,3000,BKN,19000,,,,,VFR,,,,,,,,,,,,METAR,1361.0
OISS 120530Z 00000KT CAVOK 07/M05 Q1023 A3022,OISS,2019-01-12T05:30:00Z,29.52,52.57,7.0,-5.0,0,0,,6.21,30.206694,,,,,,,,,,,CAVOK,,,,,,,,VFR,,,,,,,,,,,,METAR,1491.0
OIMM 120530Z 06004KT 4000 BR BKN025 01/M02 Q1025 A3027,OIMM,2019-01-12T05:30:00Z,36.23,59.62,1.0,-2.0,60,4,,2.49,30.265747,,,,,,,,,,BR,BKN,2500,,,,,,,IFR,,,,,,,,,,,,METAR,980.0
OIKB 120530Z 03004KT 8000 NSC 18/01 Q1019 A3011,OIKB,2019-01-12T05:30:00Z,27.22,56.37,18.0,1.0,30,4,,4.97,30.088583,,,,,,,,,,,CLR,,,,,,,,MVFR,,,,,,,,,,,,METAR,10.0
OIII 120530Z 17008KT 9999 FEW100 BKN200 02/M06 Q1023 A3023,OIII,2019-01-12T05:30:00Z,35.68,51.3,2.0,-6.0,170,8,,6.21,30.206694,,,,,,,,,,,FEW,10000,BKN,20000,,,,,VFR,,,,,,,,,,,,METAR,1191.0
OIFM 120530Z 31004KT 6000 NSC M03/M06 Q1024 A3025,OIFM,2019-01-12T05:30:00Z,32.75,51.87,-3.0,-6.0,310,4,,3.73,30.236221,,,,,,,,,,,CLR,,,,,,,,MVFR,,,,,,,,,,,,METAR,1542.0
OIAW 120530Z 29004KT 7000 NSC 07/03 Q1021,OIAW,2019-01-12T05:30:00Z,31.32,48.77,7.0,3.0,290,4,,4.35,30.147638,,,,,,,,,,,CLR,,,,,,,,MVFR,,,,,,,,,,,,METAR,22.0
CMGB 120530Z AUTO 23002KT M19/M23 RMK AO1 SOG 17 1007 SLP288 T11861227,CMGB,2019-01-12T05:30:00Z,45.37,-72.77,-18.6,-22.7,230,2,,,,1028.8,,TRUE,TRUE,,,,,,,,,,,,,,,,,,,,,,,,,,,SPECI,86.0
OITU 120530Z 30002KT 9999 FEW035 BKN190 M04/M11 Q1023,OITU,2019-01-12T05:30:00Z,39.33,44.43,-4.0,-11.0,300,2,,6.21,30.206694,,,,,,,,,,,FEW,3500,BKN,19000,,,,,VFR,,,,,,,,,,,,METAR,1364.0
OICI 120530Z 11006KT CAVOK 02/M10 Q1021 A3017,OICI,2019-01-12T05:30:00Z,33.58,46.4,2.0,-10.0,110,6,,6.21,30.147638,,,,,,,,,,,CAVOK,,,,,,,,VFR,,,,,,,,,,,,METAR,1343.0
OIYY 120530Z 12004KT CAVOK 02/M17 Q1026,OIYY,2019-01-12T05:30:00Z,31.9,54.28,2.0,-17.0,120,4,,6.21,30.295275,,,,,,,,,,,CAVOK,,,,,,,,VFR,,,,,,,,,,,,METAR,1236.0
OIGG 120530Z 00000KT 3500 BR SCT030 BKN100 03/03 Q1017,OIGG,2019-01-12T05:30:00Z,37.33,49.6,3.0,3.0,0,0,,2.17,30.029528,,,,,,,,,,BR,SCT,3000,BKN,10000,,,,,IFR,,,,,,,,,,,,METAR,-13.0
OICC 120530Z 00000KT CAVOK M05/M08 Q1021 A3017 NOSIG,OICC,2019-01-12T05:30:00Z,34.35,47.17,-5.0,-8.0,0,0,,6.21,30.147638,,,,,,TRUE,,,,,CAVOK,,,,,,,,VFR,,,,,,,,,,,,METAR,1322.0
OIBK 120530Z 00000KT CAVOK 22/12 Q1019,OIBK,2019-01-12T05:30:00Z,26.53,53.98,22.0,12.0,0,0,,6.21,30.088583,,,,,,,,,,,CAVOK,,,,,,,,VFR,,,,,,,,,,,,METAR,30.0
FOOL 120530Z 11003KT 8000 SCT010 25/24 Q1010 NOSIG,FOOL,2019-01-12T05:30:00Z,0.45,9.42,25.0,24.0,110,3,,4.97,29.822834,,,,,,TRUE,,,,,SCT,1000,,,,,,,MVFR,,,,,,,,,,,,SPECI,15.0
OTBD 120530Z 30008KT 250V330 CAVOK 17/09 Q1021 NOSIG,OTBD,2019-01-12T05:30:00Z,25.25,51.57,17.0,9.0,300,8,,6.21,30.147638,,,,,,TRUE,,,,,CAVOK,,,,,,,,VFR,,,,,,,,,,,,METAR,10.0
VOCB 120530Z 02006KT 3000 HZ FEW015 26/18 Q1017 NOSIG,VOCB,2019-01-12T05:30:00Z,11.02,77.03,26.0,18.0,20,6,,1.86,30.029528,,,,,,TRUE,,,,HZ,FEW,1500,,,,,,,IFR,,,,,,,,,,,,METAR,399.0
RJFT 120530Z 31003KT 280V360 8000 FEW004 SCT008 BKN010 09/08 Q1017 RMK 1ST004 3ST008 6CU010 A3005,RJFT,2019-01-12T05:30:00Z,32.82,130.83,9.0,8.0,310,3,,4.97,30.029528,,,,,,,,,,,FEW,400,SCT,800,BKN,1000,,,MVFR,,,,,,,,,,,,METAR,196.0
KFRI 120530Z 05006KT 3SM -SN OVC006 01/00 A3003 RMK AO2A SLPNO ALSTG ESTMD $,KFRI,2019-01-12T05:30:00Z,39.03,-96.77,1.0,0.0,50,6,,3.0,30.029528,,,,TRUE,TRUE,,,,,-SN,OVC,600,,,,,,,IFR,,,,,,,,,,,,SPECI,325.0
VEGT 120530Z 02006KT 1800 BR FEW020 22/18 Q1018 NOSIG,VEGT,2019-01-12T05:30:00Z,26.1,91.58,22.0,18.0,20,6,,1.12,30.059055,,,,,,TRUE,,,,BR,FEW,2000,,,,,,,IFR,,,,,,,,,,,,METAR,54.0
VEPT 120530Z 35002KT 2000 HZ NSC 20/08 Q1019 NOSIG,VEPT,2019-01-12T05:30:00Z,25.6,85.08,20.0,8.0,350,2,,1.24,30.088583,,,,,,TRUE,,,,HZ,CLR,,,,,,,,IFR,,,,,,,,,,,,METAR,60.0
VAJJ 120530Z 33008KT 3000 FU NSC 26/12 Q1015 NOSIG,VAJJ,2019-01-12T05:30:00Z,19.12,72.82,26.0,12.0,330,8,,1.86,29.970472,,,,,,TRUE,,,,FU,CLR,,,,,,,,IFR,,,,,,,,,,,,METAR,4.0
VEIM 120530Z 00000KT 4000 HZ FEW010 SCT018 19/11 Q1019 BECMG 5000 HZ,VEIM,2019-01-12T05:30:00Z,24.77,93.9,19.0,11.0,0,0,,2.49,30.088583,,,,,,,,,,HZ,FEW,1000,SCT,1800,,,,,IFR,,,,,,,,,,,,METAR,781.0
LFSG 120530Z AUTO 19005KT //// R26///// // OVC002 02/01 Q1026,LFSG,2019-01-12T05:30:00Z,48.33,6.07,2.0,1.0,190,5,,,30.295275,,,TRUE,,,,,,,,OVC,200,,,,,,,,,,,,,,,,,,,METAR,330.0
LFRZ 120530Z AUTO 30005KT 9999 OVC043 07/05 Q1032 TEMPO 3000 BR BKN005,LFRZ,2019-01-12T05:30:00Z,47.32,-2.17,7.0,5.0,300,5,,6.21,30.47244,,,TRUE,,,,,,,,OVC,4300,,,,,,,VFR,,,,,,,,,,,,METAR,4.0
LFRV 120530Z AUTO 33003KT 9999 OVC028 07/05 Q1032,LFRV,2019-01-12T05:30:00Z,47.72,-2.72,7.0,5.0,330,3,,6.21,30.47244,,,TRUE,,,,,,,,OVC,2800,,,,,,,MVFR,,,,,,,,,,,,METAR,133.0
LFRO 120530Z AUTO 28007KT 9999 FEW007 SCT014 BKN020 08/07 Q1032 NOSIG,LFRO,2019-01-12T05:30:00Z,48.75,-3.47,8.0,7.0,280,7,,6.21,30.47244,,,TRUE,,,TRUE,,,,,FEW,700,SCT,1400,BKN,2000,,,MVFR,,,,,,,,,,,,METAR,89.0
LFRM 120530Z AUTO VRB02KT 5000 BR OVC045 05/05 Q1031,LFRM,2019-01-12T05:30:00Z,47.95,0.2,5.0,5.0,0,2,,3.11,30.442913,,,TRUE,,,,,,,BR,OVC,4500,,,,,,,MVFR,,,,,,,,,,,,METAR,52.0
LFRI 120530Z AUTO 34003KT 0350 0300 R28/0450N FG VV/// 04/04 Q1032,LFRI,2019-01-12T05:30:00Z,46.7,-1.37,4.0,4.0,340,3,,0.22,30.47244,,,TRUE,,,,,,,FG,OVX,0,,,,,,,LIFR,,,,,,,,,,,,METAR,91.0
LFOV 120530Z AUTO 30004KT 270V330 5000 BR BKN034 OVC040 06/05 Q1031,LFOV,2019-01-12T05:30:00Z,48.03,-0.75,6.0,5.0,300,4,,3.11,30.442913,,,TRUE,,,,,,,BR,BKN,3400,OVC,4000,,,,,MVFR,,,,,,,,,,,,METAR,101.0
LFMI 120530Z AUTO 33021KT CAVOK 05/01 Q1022 BECMG 34025G40KT,LFMI,2019-01-12T05:30:00Z,43.52,4.92,5.0,1.0,330,21,,6.21,30.177166,,,TRUE,,,,,,,,CAVOK,,,,,,,,VFR,,,,,,,,,,,,METAR,24.0
LFBA 120530Z AUTO 27002KT 9999 OVC018 04/01 Q1032 NOSIG,LFBA,2019-01-12T05:30:00Z,44.17,0.6,4.0,1.0,270,2,,6.21,30.47244,,,TRUE,,,TRUE,,,,,OVC,1800,,,,,,,MVFR,,,,,,,,,,,,METAR,60.0
LFSL 120530Z AUTO 30007KT 0650 R29/0800N FG VV/// 04/04 Q1030 TEMPO 0500 FG,LFSL,2019-01-12T05:30:00Z,45.03,1.48,4.0,4.0,300,7,,0.4,30.413385,,,TRUE,,,,,,,FG,OVX,0,,,,,,,LIFR,,,,,,,,,,,,SPECI,310.0
LFMV 120530Z AUTO 35019G29KT CAVOK 04/M01 Q1023 BECMG 35020G40KT,LFMV,2019-01-12T05:30:00Z,43.9,4.9,4.0,-1.0,350,19,29,6.21,30.206694,,,TRUE,,,,,,,,CAVOK,,,,,,,,VFR,,,,,,,,,,,,SPECI,38.0
LFMP 120530Z AUTO 32019G36KT 290V350 9999 FEW068 07/00 Q1027 NOSIG,LFMP,2019-01-12T05:30:00Z,42.72,2.87,7.0,0.0,320,19,36,6.21,30.324802,,,TRUE,,,TRUE,,,,,FEW,6800,,,,,,,VFR,,,,,,,,,,,,METAR,48.0
LFLS 120530Z AUTO 06004KT 320V110 8000 BKN006 OVC010 00/M01 Q1027 NOSIG,LFLS,2019-01-12T05:30:00Z,45.37,5.32,0.0,-1.0,60,4,,4.97,30.324802,,,TRUE,,,TRUE,,,,,BKN,600,OVC,1000,,,,,IFR,,,,,,,,,,,,METAR,386.0
LFLC 120530Z AUTO 06002KT 4700 BR BKN021 OVC029 02/01 Q1029 BECMG 9999 NSW,LFLC,2019-01-12T05:30:00Z,45.77,3.17,2.0,1.0,60,2,,2.92,30.383858,,,TRUE,,,,,,,BR,BKN,2100,OVC,2900,,,,,IFR,,,,,,,,,,,,SPECI,330.0
LFKJ 120530Z AUTO 04006KT CAVOK M01/M05 Q1021 NOSIG,LFKJ,2019-01-12T05:30:00Z,41.92,8.8,-1.0,-5.0,40,6,,6.21,30.147638,,,TRUE,,,TRUE,,,,,CAVOK,,,,,,,,VFR,,,,,,,,,,,,METAR,9.0
LFKF 120530Z AUTO VRB02KT CAVOK M06/M07 Q1020 NOSIG,LFKF,2019-01-12T05:30:00Z,41.5,9.08,-6.0,-7.0,0,2,,6.21,30.11811,,,TRUE,,,TRUE,,,,,CAVOK,,,,,,,,VFR,,,,,,,,,,,,METAR,23.0
LFKC 120530Z AUTO 21008KT CAVOK 02/M04 Q1020 NOSIG,LFKC,2019-01-12T05:30:00Z,42.52,8.8,2.0,-4.0,210,8,,6.21,30.11811,,,TRUE,,,TRUE,,,,,CAVOK,,,,,,,,VFR,,,,,,,,,,,,METAR,58.0
LFJL 120530Z AUTO 24007KT 6000 SCT007 OVC041 03/02 Q1025 TEMPO 0800 BCFG VV///,LFJL,2019-01-12T05:30:00Z,48.97,6.25,3.0,2.0,240,7,,3.73,30.265747,,,TRUE,,,,,,,,SCT,700,OVC,4100,,,,,MVFR,,,,,,,,,,,,SPECI,264.0
LFCR 120530Z AUTO 30009KT 0350 R31/0375N FG VV/// 01/01 Q1028 NOSIG,LFCR,2019-01-12T05:30:00Z,44.38,2.47,1.0,1.0,300,9,,0.22,30.35433,,,TRUE,,,TRUE,,,,FG,OVX,0,,,,,,,LIFR,,,,,,,,,,,,METAR,580.0
LFYR 120530Z AUTO 00000KT 2200 BR BKN002 OVC052 05/05 Q1030,LFYR,2019-01-12T05:30:00Z,47.32,1.67,5.0,5.0,0,0,,1.37,30.413385,,,TRUE,,,,,,,BR,BKN,200,OVC,5200,,,,,LIFR,,,,,,,,,,,,METAR,86.0
LFSX 120530Z AUTO 11003KT 3200 BR OVC004 M00/M01 Q1027,LFSX,2019-01-12T05:30:00Z,47.77,6.33,0.0,-1.0,110,3,,1.99,30.324802,,,TRUE,,,,,,,BR,OVC,400,,,,,,,LIFR,,,,,,,,,,,,METAR,273.0
LFSO 120530Z AUTO 25005KT 4800 BR OVC003 03/03 Q1026,LFSO,2019-01-12T05:30:00Z,48.57,5.97,3.0,3.0,250,5,,2.98,30.295275,,,TRUE,,,,,,,BR,OVC,300,,,,,,,LIFR,,,,,,,,,,,,METAR,350.0
LFSI 120530Z AUTO 22004KT 5000 BR FEW004 BKN009 OVC047 04/03 Q1027,LFSI,2019-01-12T05:30:00Z,48.62,4.9,4.0,3.0,220,4,,3.11,30.324802,,,TRUE,,,,,,,BR,FEW,400,BKN,900,OVC,4700,,,IFR,,,,,,,,,,,,METAR,140.0
LFSB 120530Z 15003KT 4500 BR FEW005 OVC015 01/00 Q1027 NOSIG,LFSB,2019-01-12T05:30:00Z,47.6,7.52,1.0,0.0,150,3,,2.8,30.324802,,,,,,TRUE,,,,BR,FEW,500,OVC,1500,,,,,IFR,,,,,,,,,,,,METAR,271.0
LFRN 120530Z AUTO 29004KT 6000 OVC030 06/06 Q1032 BECMG 4000 BR,LFRN,2019-01-12T05:30:00Z,48.07,-1.72,6.0,6.0,290,4,,3.73,30.47244,,,TRUE,,,,,,,,OVC,3000,,,,,,,MVFR,,,,,,,,,,,,SPECI,37.0
LFRD 120530Z AUTO 23006KT 9999 OVC035 07/06 Q1031 TEMPO 3000 BR,LFRD,2019-01-12T05:30:00Z,48.58,-2.07,7.0,6.0,230,6,,6.21,30.442913,,,TRUE,,,,,,,,OVC,3500,,,,,,,VFR,,,,,,,,,,,,METAR,59.0
LFPB 120530Z AUTO 25006KT 6000 SCT011 OVC041 06/05 Q1028 TEMPO 3500 BR BKN007,LFPB,2019-01-12T05:30:00Z,48.97,2.45,6.0,5.0,250,6,,3.73,30.35433,,,TRUE,,,,,,,,SCT,1100,OVC,4100,,,,,MVFR,,,,,,,,,,,,SPECI,65.0
LFOK 120530Z AUTO 25009KT 4900 BR OVC038 04/04 Q1027 BECMG 5000 BR,LFOK,2019-01-12T05:30:00Z,48.78,4.18,4.0,4.0,250,9,,3.04,30.324802,,,TRUE,,,,,,,BR,OVC,3800,,,,,,,MVFR,,,,,,,,,,,,SPECI,162.0
LFOB 120530Z AUTO 28008KT 9999 OVC031 06/04 Q1028 NOSIG,LFOB,2019-01-12T05:30:00Z,49.47,2.12,6.0,4.0,280,8,,6.21,30.35433,,,TRUE,,,TRUE,,,,,OVC,3100,,,,,,,VFR,,,,,,,,,,,,METAR,111.0
LFMU 120530Z AUTO 29013KT CAVOK 04/01 Q1027 NOSIG,LFMU,2019-01-12T05:30:00Z,43.32,3.35,4.0,1.0,290,13,,6.21,30.324802,,,TRUE,,,TRUE,,,,,CAVOK,,,,,,,,VFR,,,,,,,,,,,,METAR,17.0
LFMT 120530Z AUTO 29009KT CAVOK 06/M01 Q1024 NOSIG,LFMT,2019-01-12T05:30:00Z,43.57,3.97,6.0,-1.0,290,9,,6.21,30.236221,,,TRUE,,,TRUE,,,,,CAVOK,,,,,,,,VFR,,,,,,,,,,,,METAR,6.0
LFMK 120530Z AUTO 27009KT 9999 OVC007 04/03 Q1030 TEMPO DZ BECMG 27015G25KT,LFMK,2019-01-12T05:30:00Z,43.22,2.32,4.0,3.0,270,9,,6.21,30.413385,,,TRUE,,,,,,,,OVC,700,,,,,,,IFR,,,,,,,,,,,,SPECI,130.0
LFLY 120530Z AUTO VRB03KT 6000 OVC017 02/00 Q1028 TEMPO 4000 BR OVC007,LFLY,2019-01-12T05:30:00Z,45.72,4.95,2.0,0.0,0,3,,3.73,30.35433,,,TRUE,,,,,,,,OVC,1700,,,,,,,MVFR,,,,,,,,,,,,SPECI,201.0
LFMY 120530Z AUTO 34015G26KT CAVOK 04/M01 Q1021,LFMY,2019-01-12T05:30:00Z,43.6,5.08,4.0,-1.0,340,15,26,6.21,30.147638,,,TRUE,,,,,,,,CAVOK,,,,,,,,VFR,,,,,,,,,,,,METAR,60.0
LFMO 120530Z AUTO 35021G36KT 330V030 CAVOK 04/M00 Q1023 TEMPO 35030G50KT,LFMO,2019-01-12T05:30:00Z,44.12,4.87,4.0,0.0,350,21,36,6.21,30.206694,,,TRUE,,,,,,,,CAVOK,,,,,,,,VFR,,,,,,,,,,,,SPECI,55.0
LFMC 120530Z AUTO 29003KT 9999 ////// M01/M06 Q1020,LFMC,2019-01-12T05:30:00Z,43.37,6.37,-1.0,-6.0,290,3,,6.21,30.11811,,,TRUE,,,,,,,,,,,,,,,,,,,,,,,,,,,,METAR,78.0
LFKS 120530Z AUTO 28006KT 240V330 CAVOK 03/M08 Q1020,LFKS,2019-01-12T05:30:00Z,41.92,9.4,3.0,-8.0,280,6,,6.21,30.11811,,,TRUE,,,,,,,,CAVOK,,,,,,,,VFR,,,,,,,,,,,,METAR,22.0
LFBY 120530Z AUTO 15003KT 7000 // NSC 02/M00 Q1032,LFBY,2019-01-12T05:30:00Z,43.67,-1.07,2.0,0.0,150,3,,4.35,30.47244,,,TRUE,,,,,,,,CLR,,,,,,,,MVFR,,,,,,,,,,,,METAR,32.0
LFBM 120530Z AUTO VRB02KT 9999 BKN027 OVC035 03/M01 Q1033 TEMPO 4000 BR,LFBM,2019-01-12T05:30:00Z,43.92,-0.5,3.0,-1.0,0,2,,6.21,30.501968,,,TRUE,,,,,,,,BKN,2700,OVC,3500,,,,,MVFR,,,,,,,,,,,,SPECI,63.0
LFBG 120530Z AUTO 17001KT 2000 BR OVC002 05/04 Q1032 TEMPO 3000 -DZ,LFBG,2019-01-12T05:30:00Z,45.67,-0.32,5.0,4.0,170,1,,1.24,30.47244,,,TRUE,,,,,,,BR,OVC,200,,,,,,,LIFR,,,,,,,,,,,,SPECI,31.0
LFBC 120530Z AUTO 11003KT 9000 BKN004 BKN037 OVC066 04/03 Q1032,LFBC,2019-01-12T05:30:00Z,44.52,-1.12,4.0,3.0,110,3,,5.59,30.47244,,,TRUE,,,,,,,,BKN,400,BKN,3700,OVC,6600,,,LIFR,,,,,,,,,,,,METAR,33.0
LFTW 120530Z AUTO 28004KT 260V320 CAVOK 02/M02 Q1023 NOSIG,LFTW,2019-01-12T05:30:00Z,43.75,4.42,2.0,-2.0,280,4,,6.21,30.206694,,,TRUE,,,TRUE,,,,,CAVOK,,,,,,,,VFR,,,,,,,,,,,,METAR,96.0
LFTH 120530Z AUTO 00000KT CAVOK 04/M06 Q1020 NOSIG,LFTH,2019-01-12T05:30:00Z,43.1,6.15,4.0,-6.0,0,0,,6.21,30.11811,,,TRUE,,,TRUE,,,,,CAVOK,,,,,,,,VFR,,,,,,,,,,,,METAR,4.0
LFST 120530Z AUTO 18006KT 7000 OVC019 01/00 Q1026 TEMPO 4000 BR,LFST,2019-01-12T05:30:00Z,48.53,7.62,1.0,0.0,180,6,,4.35,30.295275,,,TRUE,,,,,,,,OVC,1900,,,,,,,MVFR,,,,,,,,,,,,METAR,154.0
LFRG 120530Z AUTO 25008KT 9999 OVC032 06/04 Q1029 NOSIG,LFRG,2019-01-12T05:30:00Z,49.37,0.15,6.0,4.0,250,8,,6.21,30.383858,,,TRUE,,,TRUE,,,,,OVC,3200,,,,,,,VFR,,,,,,,,,,,,METAR,146.0
LFOT 120530Z AUTO 27004KT 2900 BR NSC 04/04 Q1030 TEMPO 0800 FG VV///,LFOT,2019-01-12T05:30:00Z,47.43,0.72,4.0,4.0,270,4,,1.8,30.413385,,,TRUE,,,,,,,BR,CLR,,,,,,,,IFR,,,,,,,,,,,,METAR,108.0
LFMH 120530Z AUTO VRB02KT 3600 BR OVC004 M00/M01 Q1028 TEMPO 1200 -SN,LFMH,2019-01-12T05:30:00Z,45.52,4.28,0.0,-1.0,0,2,,2.24,30.35433,,,TRUE,,,,,,,BR,OVC,400,,,,,,,LIFR,,,,,,,,,,,,METAR,402.0
LFMD 120530Z AUTO VRB04KT CAVOK M01/M06 Q1020 NOSIG,LFMD,2019-01-12T05:30:00Z,43.53,6.95,-1.0,-6.0,0,4,,6.21,30.11811,,,TRUE,,,TRUE,,,,,CAVOK,,,,,,,,VFR,,,,,,,,,,,,METAR,9.0
LFGJ 120530Z AUTO 18004KT 3100 BR OVC003 01/00 Q1029 TEMPO 2000 -DZ,LFGJ,2019-01-12T05:30:00Z,47.05,5.43,1.0,0.0,180,4,,1.93,30.383858,,,TRUE,,,,,,,BR,OVC,300,,,,,,,LIFR,,,,,,,,,,,,METAR,196.0
LFBE 120530Z AUTO 25003KT 8000 OVC006 05/04 Q1032 TEMPO 1500 BR BKN003,LFBE,2019-01-12T05:30:00Z,44.82,0.52,5.0,4.0,250,3,,4.97,30.47244,,,TRUE,,,,,,,,OVC,600,,,,,,,IFR,,,,,,,,,,,,METAR,52.0
LFML 120530Z AUTO VRB01KT CAVOK M02/M04 Q1022 NOSIG,LFML,2019-01-12T05:30:00Z,43.45,5.22,-2.0,-4.0,0,1,,6.21,30.177166,,,TRUE,,,TRUE,,,,,CAVOK,,,,,,,,VFR,,,,,,,,,,,,METAR,36.0
LFLB 120530Z AUTO 20003KT 9999 BKN031 OVC039 00/M02 Q1028 NOSIG,LFLB,2019-01-12T05:30:00Z,45.63,5.87,0.0,-2.0,200,3,,6.21,30.35433,,,TRUE,,,TRUE,,,,,BKN,3100,OVC,3900,,,,,VFR,,,,,,,,,,,,METAR,239.0
LFKB 120530Z AUTO 20005KT CAVOK 03/M04 Q1019 TEMPO 32010KT,LFKB,2019-01-12T05:30:00Z,42.53,9.47,3.0,-4.0,200,5,,6.21,30.088583,,,TRUE,,,,,,,,CAVOK,,,,,,,,VFR,,,,,,,,,,,,SPECI,12.0
LFBZ 120530Z AUTO 16004KT 130V190 9999 OVC070 03/M01 Q1032 TEMPO 4000 -RA OVC014,LFBZ,2019-01-12T05:30:00Z,43.47,-1.52,3.0,-1.0,160,4,,6.21,30.47244,,,TRUE,,,,,,,,OVC,7000,,,,,,,VFR,,,,,,,,,,,,SPECI,71.0
LFBT 120530Z AUTO 17004KT 9999 FEW056 OVC068 00/M02 Q1031 NOSIG,LFBT,2019-01-12T05:30:00Z,43.17,0.0,0.0,-2.0,170,4,,6.21,30.442913,,,TRUE,,,TRUE,,,,,FEW,5600,OVC,6800,,,,,VFR,,,,,,,,,,,,METAR,363.0
LFBP 120530Z AUTO 10003KT 9999 BKN062 01/M01 Q1032 NOSIG,LFBP,2019-01-12T05:30:00Z,43.37,-0.42,1.0,-1.0,100,3,,6.21,30.47244,,,TRUE,,,TRUE,,,,,BKN,6200,,,,,,,VFR,,,,,,,,,,,,METAR,185.0
LFBO 120530Z AUTO 27009KT 9999 -RA BKN015 OVC024 03/02 Q1032 TEMPO 4000 -DZRA OVC013,LFBO,2019-01-12T05:30:00Z,43.62,1.37,3.0,2.0,270,9,,6.21,30.47244,,,TRUE,,,,,,,-RA,BKN,1500,OVC,2400,,,,,MVFR,,,,,,,,,,,,SPECI,153.0
LFBL 120530Z AUTO 29005KT 0350 0300 R21/0550N R03/0375N FG VV/// 03/03 Q1030 NOSIG,LFBL,2019-01-12T05:30:00Z,45.87,1.17,3.0,3.0,290,5,,0.22,30.413385,,,TRUE,,,TRUE,,,,FG,OVX,0,,,,,,,LIFR,,,,,,,,,,,,SPECI,402.0
LFBI 120530Z AUTO 30004KT 3200 BR OVC002 05/05 Q1031 TEMPO 0800 FG VV///,LFBI,2019-01-12T05:30:00Z,46.57,0.32,5.0,5.0,300,4,,1.99,30.442913,,,TRUE,,,,,,,BR,OVC,200,,,,,,,LIFR,,,,,,,,,,,,SPECI,120.0
LFRS 120530Z AUTO 28002KT 3200 BR BKN002 OVC010 04/04 Q1032 BECMG 2500 BR BKN010 BKN050,LFRS,2019-01-12T05:30:00Z,47.17,-1.6,4.0,4.0,280,2,,1.99,30.47244,,,TRUE,,,,,,,BR,BKN,200,OVC,1000,,,,,LIFR,,,,,,,,,,,,METAR,27.0
LFRB 120530Z AUTO 28004KT 9999 FEW012 SCT017 BKN022 08/06 Q1033 NOSIG,LFRB,2019-01-12T05:30:00Z,48.45,-4.42,8.0,6.0,280,4,,6.21,30.501968,,,TRUE,,,TRUE,,,,,FEW,1200,SCT,1700,BKN,2200,,,MVFR,,,,,,,,,,,,METAR,103.0
LFQQ 120530Z AUTO 25008KT 9000 OVC033 06/04 Q1025 NOSIG,LFQQ,2019-01-12T05:30:00Z,50.57,3.1,6.0,4.0,250,8,,5.59,30.265747,,,TRUE,,,TRUE,,,,,OVC,3300,,,,,,,VFR,,,,,,,,,,,,METAR,52.0
LFPO 120530Z 28008KT 8000 FEW026 BKN040 06/05 Q1028 TEMPO 4000 BR BKN008,LFPO,2019-01-12T05:30:00Z,48.72,2.38,6.0,5.0,280,8,,4.97,30.35433,,,,,,,,,,,FEW,2600,BKN,4000,,,,,MVFR,,,,,,,,,,,,SPECI,96.0
LFPG 120530Z 27006KT 4500 BR BKN007 BKN036 06/05 Q1028 NOSIG,LFPG,2019-01-12T05:30:00Z,49.02,2.52,6.0,5.0,270,6,,2.8,30.35433,,,,,,TRUE,,,,BR,BKN,700,BKN,3600,,,,,IFR,,,,,,,,,,,,METAR,109.0
LFMN 120530Z 34009KT 320V020 CAVOK 03/M06 Q1019 NOSIG,LFMN,2019-01-12T05:30:00Z,43.63,7.2,3.0,-6.0,340,9,,6.21,30.088583,,,,,,TRUE,,,,,CAVOK,,,,,,,,VFR,,,,,,,,,,,,METAR,10.0
LFLL 120530Z 36004KT 4700 BR OVC006 01/01 Q1028 NOSIG,LFLL,2019-01-12T05:30:00Z,45.72,5.07,1.0,1.0,360,4,,2.92,30.35433,,,,,,TRUE,,,,BR,OVC,600,,,,,,,IFR,,,,,,,,,,,,METAR,240.0
LFBH 120530Z AUTO 02003KT 3200 BR OVC047 06/05 Q1032 TEMPO 0600 FG VV///,LFBH,2019-01-12T05:30:00Z,46.18,-1.2,6.0,5.0,20,3,,1.99,30.47244,,,TRUE,,,,,,,BR,OVC,4700,,,,,,,IFR,,,,,,,,,,,,SPECI,10.0
LFBD 120530Z AUTO VRB01KT CAVOK 04/04 Q1032 TEMPO 3000 RADZ OVC010,LFBD,2019-01-12T05:30:00Z,44.82,-0.7,4.0,4.0,0,1,,6.21,30.47244,,,TRUE,,,,,,,,CAVOK,,,,,,,,VFR,,,,,,,,,,,,SPECI,61.0
LFSN 120530Z AUTO VRB02KT 9000 OVC007 04/03 Q1026,LFSN,2019-01-12T05:30:00Z,48.67,6.22,4.0,3.0,0,2,,5.59,30.295275,,,TRUE,,,,,,,,OVC,700,,,,,,,IFR,,,,,,,,,,,,METAR,217.0
LFQB 120530Z AUTO 27006KT 6000 ////// 05/04 Q1028,LFQB,2019-01-12T05:30:00Z,48.32,4.02,5.0,4.0,270,6,,3.73,30.35433,,,TRUE,,,,,,,,,,,,,,,,,,,,,,,,,,,,METAR,118.0
LFQA 120530Z AUTO 28003KT 240V320 9999 SCT010 SCT029 BKN039 05/04 Q1027,LFQA,2019-01-12T05:30:00Z,49.2,4.15,5.0,4.0,280,3,,6.21,30.324802,,,TRUE,,,,,,,,SCT,1000,SCT,2900,BKN,3900,,,VFR,,,,,,,,,,,,METAR,95.0
LPPS 120530Z 12010KT 9999 FEW015 BKN030 17/09 Q1022,LPPS,2019-01-12T05:30:00Z,33.07,-16.35,17.0,9.0,120,10,,6.21,30.177166,,,,,,,,,,,FEW,1500,BKN,3000,,,,,MVFR,,,,,,,,,,,,METAR,82.0
LPPR 120530Z 09008KT CAVOK 06/01 Q1030,LPPR,2019-01-12T05:30:00Z,41.22,-8.67,6.0,1.0,90,8,,6.21,30.413385,,,,,,,,,,,CAVOK,,,,,,,,VFR,,,,,,,,,,,,METAR,73.0
LPMA 120530Z 09012KT 340V130 9999 SCT016 SCT030 18/10 Q1021,LPMA,2019-01-12T05:30:00Z,32.7,-16.77,18.0,10.0,90,12,,6.21,30.147638,,,,,,,,,,,SCT,1600,SCT,3000,,,,,VFR,,,,,,,,,,,,METAR,55.0
LPFR 120530Z 05008KT CAVOK 08/M05 Q1026,LPFR,2019-01-12T05:30:00Z,37.02,-7.97,8.0,-5.0,50,8,,6.21,30.295275,,,,,,,,,,,CAVOK,,,,,,,,VFR,,,,,,,,,,,,METAR,4.0
LESO 120530Z VRB02KT 9999 SCT050 BKN068 04/01 Q1033,LESO,2019-01-12T05:30:00Z,43.35,-1.8,4.0,1.0,0,2,,6.21,30.501968,,,,,,,,,,,SCT,5000,BKN,6800,,,,,VFR,,,,,,,,,,,,METAR,8.0
LERS 120530Z AUTO VRB01KT 9999 NCD M03/M04 Q1027,LERS,2019-01-12T05:30:00Z,41.13,1.17,-3.0,-4.0,0,1,,6.21,30.324802,,,TRUE,,,,,,,,CLR,,,,,,,,VFR,,,,,,,,,,,,METAR,76.0
LEMH 120530Z 36012G23KT 330V030 9999 -RA SCT030 07/04 Q1025,LEMH,2019-01-12T05:30:00Z,39.87,4.22,7.0,4.0,360,12,23,6.21,30.265747,,,,,,,,,,-RA,SCT,3000,,,,,,,VFR,,,,,,,,,,,,METAR,82.0
LEGR 120530Z 00000KT CAVOK M05/M06 Q1027,LEGR,2019-01-12T05:30:00Z,37.17,-3.77,-5.0,-6.0,0,0,,6.21,30.324802,,,,,,,,,,,CAVOK,,,,,,,,VFR,,,,,,,,,,,,METAR,559.0
LEGE 120530Z VRB02KT CAVOK M04/M05 Q1025,LEGE,2019-01-12T05:30:00Z,41.88,2.77,-4.0,-5.0,0,2,,6.21,30.265747,,,,,,,,,,,CAVOK,,,,,,,,VFR,,,,,,,,,,,,METAR,129.0
LECO 120530Z 19005KT 9999 1500E SCT048 00/M00 Q1033 TEMPO 0800 BCFG,LECO,2019-01-12T05:30:00Z,43.28,-8.37,0.0,0.0,190,5,,6.21,30.501968,,,,,,,,,,,SCT,4800,,,,,,,VFR,,,,,,,,,,,,SPECI,103.0
LEBB 120530Z 11003KT 5000 -DZ FEW008 SCT015 BKN025 06/05 Q1033 TEMPO 3000 -RADZ BKN010,LEBB,2019-01-12T05:30:00Z,43.28,-2.92,6.0,5.0,110,3,,3.11,30.501968,,,,,,,,,,-DZ,FEW,800,SCT,1500,BKN,2500,,,MVFR,,,,,,,,,,,,SPECI,34.0
LEAS 120530Z 23006KT 9999 FEW038 BKN046 06/02 Q1033 NOSIG,LEAS,2019-01-12T05:30:00Z,43.53,-6.02,6.0,2.0,230,6,,6.21,30.501968,,,,,,TRUE,,,,,FEW,3800,BKN,4600,,,,,VFR,,,,,,,,,,,,METAR,134.0
LEAM 120530Z 33012KT CAVOK 05/M02 Q1027,LEAM,2019-01-12T05:30:00Z,36.85,-2.37,5.0,-2.0,330,12,,6.21,30.324802,,,,,,,,,,,CAVOK,,,,,,,,VFR,,,,,,,,,,,,METAR,21.0
LEZL 120530Z 07010KT CAVOK 06/M06 Q1027 NOSIG,LEZL,2019-01-12T05:30:00Z,37.42,-5.9,6.0,-6.0,70,10,,6.21,30.324802,,,,,,TRUE,,,,,CAVOK,,,,,,,,VFR,,,,,,,,,,,,METAR,31.0
LEVX 120530Z 21005KT 170V250 CAVOK 02/M00 Q1030 NOSIG,LEVX,2019-01-12T05:30:00Z,42.22,-8.62,2.0,0.0,210,5,,6.21,30.413385,,,,,,TRUE,,,,,CAVOK,,,,,,,,VFR,,,,,,,,,,,,METAR,256.0
LEVC 120530Z 27004KT CAVOK M01/M04 Q1028 NOSIG,LEVC,2019-01-12T05:30:00Z,39.5,-0.47,-1.0,-4.0,270,4,,6.21,30.35433,,,,,,TRUE,,,,,CAVOK,,,,,,,,VFR,,,,,,,,,,,,METAR,62.0
LEPA 120530Z VRB01KT 9999 FEW025 BKN068 03/01 Q1027 NOSIG,LEPA,2019-01-12T05:30:00Z,39.53,2.72,3.0,1.0,0,1,,6.21,30.324802,,,,,,TRUE,,,,,FEW,2500,BKN,6800,,,,,VFR,,,,,,,,,,,,METAR,8.0
LEMG 120530Z 29006KT 9999 FEW025 BKN040 06/05 Q1027 NOSIG,LEMG,2019-01-12T05:30:00Z,36.67,-4.5,6.0,5.0,290,6,,6.21,30.324802,,,,,,TRUE,,,,,FEW,2500,BKN,4000,,,,,VFR,,,,,,,,,,,,METAR,7.0
LEMD 120530Z 33004KT CAVOK M03/M05 Q1028 NOSIG,LEMD,2019-01-12T05:30:00Z,40.48,-3.57,-3.0,-5.0,330,4,,6.21,30.35433,,,,,,TRUE,,,,,CAVOK,,,,,,,,VFR,,,,,,,,,,,,METAR,582.0
LEIB 120530Z VRB02KT CAVOK 02/00 Q1027 NOSIG,LEIB,2019-01-12T05:30:00Z,38.87,1.37,2.0,0.0,0,2,,6.21,30.324802,,,,,,TRUE,,,,,CAVOK,,,,,,,,VFR,,,,,,,,,,,,METAR,12.0
LEBL 120530Z 33012KT CAVOK 03/M04 Q1026 NOSIG,LEBL,2019-01-12T05:30:00Z,41.27,2.07,3.0,-4.0,330,12,,6.21,30.295275,,,,,,TRUE,,,,,CAVOK,,,,,,,,VFR,,,,,,,,,,,,METAR,6.0
LEAL 120530Z 29004KT 250V320 CAVOK 04/M07 Q1028 NOSIG,LEAL,2019-01-12T05:30:00Z,38.27,-0.55,4.0,-7.0,290,4,,6.21,30.35433,,,,,,TRUE,,,,,CAVOK,,,,,,,,VFR,,,,,,,,,,,,METAR,31.0
GEML 120530Z 00000KT CAVOK 08/03 Q1026,GEML,2019-01-12T05:30:00Z,35.27,-2.95,8.0,3.0,0,0,,6.21,30.295275,,,,,,,,,,,CAVOK,,,,,,,,VFR,,,,,,,,,,,,METAR,55.0
LELN 120530Z AUTO 29005KT 8000 NCD M07/M07 Q1030,LELN,2019-01-12T05:30:00Z,42.57,-5.65,-7.0,-7.0,290,5,,4.97,30.413385,,,TRUE,,,,,,,,CLR,,,,,,,,MVFR,,,,,,,,,,,,METAR,914.0
LELC 120530Z AUTO 30003KT 230V320 9000 NCD M00/M03 Q1028,LELC,2019-01-12T05:30:00Z,37.77,-0.8,0.0,-3.0,300,3,,5.59,30.35433,,,TRUE,,,,,,,,CLR,,,,,,,,VFR,,,,,,,,,,,,METAR,3.0
LEXJ 120530Z 23006KT 5000 -DZ FEW016 SCT030 BKN042 08/07 Q1033,LEXJ,2019-01-12T05:30:00Z,43.42,-3.82,8.0,7.0,230,6,,3.11,30.501968,,,,,,,,,,-DZ,FEW,1600,SCT,3000,BKN,4200,,,MVFR,,,,,,,,,,,,METAR,6.0
LEPP 120530Z 33009KT 9999 FEW015 02/M01 Q1030,LEPP,2019-01-12T05:30:00Z,42.77,-1.65,2.0,-1.0,330,9,,6.21,30.413385,,,,,,,,,,,FEW,1500,,,,,,,VFR,,,,,,,,,,,,METAR,459.0
VAAH 120530Z 06007KT 4000 FU NSC 21/07 Q1017 NOSIG,VAAH,2019-01-12T05:30:00Z,23.07,72.62,21.0,7.0,60,7,,2.49,30.029528,,,,,,TRUE,,,,FU,CLR,,,,,,,,IFR,,,,,,,,,,,,METAR,55.0
VEAT 120530Z 00000KT 2500 HZ NSC 23/14 Q1017 BECMG 3000 HZ,VEAT,2019-01-12T05:30:00Z,23.87,91.25,23.0,14.0,0,0,,1.55,30.029528,,,,,,,,,,HZ,CLR,,,,,,,,IFR,,,,,,,,,,,,METAR,16.0
VEBI 120530Z 07002KT 6000 NSC 18/06 Q1020,VEBI,2019-01-12T05:30:00Z,25.7,91.98,18.0,6.0,70,2,,3.73,30.11811,,,,,,,,,,,CLR,,,,,,,,MVFR,,,,,,,,,,,,METAR,887.0
VABO 120530Z 05004KT 5000 FU NSC 24/05 Q1015 NOSIG,VABO,2019-01-12T05:30:00Z,22.33,73.22,24.0,5.0,50,4,,3.11,29.970472,,,,,,TRUE,,,,FU,CLR,,,,,,,,MVFR,,,,,,,,,,,,METAR,39.0
VOBG 120530Z 10007KT 5000 HZ NSC 23/11 Q1019,VOBG,2019-01-12T05:30:00Z,12.95,77.63,23.0,11.0,100,7,,3.11,30.088583,,,,,,,,,,HZ,CLR,,,,,,,,MVFR,,,,,,,,,,,,METAR,897.0
VOCL 120530Z 10006KT 5000 HZ NSC 29/20 Q1013 NOSIG,VOCL,2019-01-12T05:30:00Z,11.13,75.95,29.0,20.0,100,6,,3.11,29.911417,,,,,,TRUE,,,,HZ,CLR,,,,,,,,MVFR,,,,,,,,,,,,METAR,104.0
LRCL 120530Z 00000KT 5000 BR FEW038 M07/M09 Q1014 R07/19//95,LRCL,2019-01-12T05:30:00Z,46.78,23.68,-7.0,-9.0,0,0,,3.11,29.940945,,,,,,,,,,BR,FEW,3800,,,,,,,MVFR,,,,,,,,,,,,METAR,413.0
LRBM 120530Z AUTO 07004KT 7000 BKN032/// M05/M07 Q1015,LRBM,2019-01-12T05:30:00Z,47.67,23.47,-5.0,-7.0,70,4,,4.35,29.970472,,,TRUE,,,,,,,,BKN,3200,,,,,,,MVFR,,,,,,,,,,,,METAR,185.0
LRAR 120530Z 20005KT 9999 OVC044 M05/M06 Q1017,LRAR,2019-01-12T05:30:00Z,46.18,21.27,-5.0,-6.0,200,5,,6.21,30.029528,,,,,,,,,,,OVC,4400,,,,,,,VFR,,,,,,,,,,,,METAR,118.0
LJPZ 120530Z 12007KT CAVOK M01/M05 Q1019,LJPZ,2019-01-12T05:30:00Z,45.47,13.62,-1.0,-5.0,120,7,,6.21,30.088583,,,,,,,,,,,CAVOK,,,,,,,,VFR,,,,,,,,,,,,METAR,2.0
LJMB 120530Z 14003KT CAVOK M03/M06 Q1016,LJMB,2019-01-12T05:30:00Z,46.47,15.67,-3.0,-6.0,140,3,,6.21,30.0,,,,,,,,,,,CAVOK,,,,,,,,VFR,,,,,,,,,,,,METAR,265.0
LJLJ 120530Z 21002KT 9999 FEW060 BKN210 M06/M07 Q1017 R30/CLRD// NOSIG,LJLJ,2019-01-12T05:30:00Z,46.22,14.47,-6.0,-7.0,210,2,,6.21,30.029528,,,,,,TRUE,,,,,FEW,6000,BKN,21000,,,,,VFR,,,,,,,,,,,,SPECI,385.0
LJCE 120530Z 00000KT CAVOK M04/M06 Q1018 RMK BLU,LJCE,2019-01-12T05:30:00Z,45.9,15.52,-4.0,-6.0,0,0,,6.21,30.059055,,,,,,,,,,,CAVOK,,,,,,,,VFR,,,,,,,,,,,,METAR,155.0
LPPD 120530Z 05011KT 020V080 9999 SCT018 SCT040 15/12 Q1025,LPPD,2019-01-12T05:30:00Z,37.72,-25.68,15.0,12.0,50,11,,6.21,30.265747,,,,,,,,,,,SCT,1800,SCT,4000,,,,,VFR,,,,,,,,,,,,METAR,72.0
LPAZ 120530Z 08016KT 040V110 9999 SCT020 SCT040 16/12 Q1023,LPAZ,2019-01-12T05:30:00Z,36.97,-25.17,16.0,12.0,80,16,,6.21,30.206694,,,,,,,,,,,SCT,2000,SCT,4000,,,,,VFR,,,,,,,,,,,,METAR,100.0
LETL 120530Z AUTO 31004KT CAVOK M06/M08 Q1028,LETL,2019-01-12T05:30:00Z,40.42,-1.22,-6.0,-8.0,310,4,,6.21,30.35433,,,TRUE,,,,,,,,CAVOK,,,,,,,,VFR,,,,,,,,,,,,METAR,1013.0
LECH 120530Z AUTO 00000KT 9999 NCD 02/M04 Q1027,LECH,2019-01-12T05:30:00Z,40.2,0.07,2.0,-4.0,0,0,,6.21,30.324802,,,TRUE,,,,,,,,CLR,,,,,,,,VFR,,,,,,,,,,,,METAR,337.0
LEAG 120530Z AUTO 10016KT 9999 FEW036 13/05 Q1026,LEAG,2019-01-12T05:30:00Z,,,13.0,5.0,100,16,,6.21,30.295275,,,TRUE,,,,,,,,FEW,3600,,,,,,,VFR,,,,,,,,,,,,METAR,
LEZG 120530Z 28012KT CAVOK 05/02 Q1028,LEZG,2019-01-12T05:30:00Z,41.67,-1.02,5.0,2.0,280,12,,6.21,30.35433,,,,,,,,,,,CAVOK,,,,,,,,VFR,,,,,,,,,,,,METAR,258.0
LEVT 120530Z 00000KT 6000 -DZ FEW015 OVC025 03/03 Q1031,LEVT,2019-01-12T05:30:00Z,42.87,-2.72,3.0,3.0,0,0,,3.73,30.442913,,,,,,,,,,-DZ,FEW,1500,OVC,2500,,,,,MVFR,,,,,,,,,,,,METAR,509.0
LEJR 120530Z VRB01KT CAVOK 00/M02 Q1026,LEJR,2019-01-12T05:30:00Z,36.75,-6.07,0.0,-2.0,0,1,,6.21,30.295275,,,,,,,,,,,CAVOK,,,,,,,,VFR,,,,,,,,,,,,METAR,30.0
LEST 120530Z 06005KT 020V130 CAVOK 04/02 Q1031 NOSIG,LEST,2019-01-12T05:30:00Z,42.88,-8.42,4.0,2.0,60,5,,6.21,30.442913,,,,,,TRUE,,,,,CAVOK,,,,,,,,VFR,,,,,,,,,,,,METAR,367.0
LEDA 120530Z AUTO VRB02KT 9999 NCD M02/M03 Q1027,LEDA,2019-01-12T05:30:00Z,41.73,0.53,-2.0,-3.0,0,2,,6.21,30.324802,,,TRUE,,,,,,,,CLR,,,,,,,,VFR,,,,,,,,,,,,METAR,350.0
LESA 120530Z AUTO 11007KT 6000 BKN011/// M01/M02 Q1030,LESA,2019-01-12T05:30:00Z,40.95,-5.5,-1.0,-2.0,110,7,,3.73,30.413385,,,TRUE,,,,,,,,BKN,1100,,,,,,,MVFR,,,,,,,,,,,,METAR,795.0
GCHI 120530Z AUTO 14017KT 9999 BKN037/// OVC044/// 18/12 Q1018,GCHI,2019-01-12T05:30:00Z,27.82,-17.87,18.0,12.0,140,17,,6.21,30.059055,,,TRUE,,,,,,,,BKN,3700,OVC,4400,,,,,VFR,,,,,,,,,,,,METAR,30.0
GCGM 120530Z AUTO 11008KT 9999 FEW025/// SCT032/// 16/10 Q1018 RMK R09/09009KT 060V130 ARP/11009KT,GCGM,2019-01-12T05:30:00Z,28.03,-17.22,16.0,10.0,110,8,,6.21,30.059055,,,TRUE,,,,,,,,FEW,2500,SCT,3200,,,,,VFR,,,,,,,,,,,,METAR,219.0
LPPT 120530Z 04008KT CAVOK 05/00 Q1028,LPPT,2019-01-12T05:30:00Z,38.77,-9.12,5.0,0.0,40,8,,6.21,30.35433,,,,,,,,,,,CAVOK,,,,,,,,VFR,,,,,,,,,,,,METAR,123.0
OIKK 120530Z 00000KT CAVOK 05/M18 Q1025 A3029,OIKK,2019-01-12T05:30:00Z,30.25,56.97,5.0,-18.0,0,0,,6.21,30.265747,,,,,,,,,,,CAVOK,,,,,,,,VFR,,,,,,,,,,,,METAR,1754.0
RKSI 120530Z 30006KT 8000 NSC 04/M07 Q1022 NOSIG,RKSI,2019-01-12T05:30:00Z,37.47,126.45,4.0,-7.0,300,6,,4.97,30.177166,,,,,,TRUE,,,,,CLR,,,,,,,,MVFR,,,,,,,,,,,,METAR,7.0
VOMD 120530Z 05012KT 4000 HZ FEW018 29/16 Q1016 BECMG 5000 HZ,VOMD,2019-01-12T05:30:00Z,9.82,78.07,29.0,16.0,50,12,,2.49,30.0,,,,,,,,,,HZ,FEW,1800,,,,,,,IFR,,,,,,,,,,,,METAR,131.0
WIII 120530Z 34009KT 320V020 9999 FEW020 31/22 Q1009 NOSIG,WIII,2019-01-12T05:30:00Z,-6.13,106.67,31.0,22.0,340,9,,6.21,29.793306,,,,,,TRUE,,,,,FEW,2000,,,,,,,VFR,,,,,,,,,,,,METAR,8.0
OPMT 120530Z 00000KT 2500 DZ SCT040 BKN100 11/07 Q1019 TEMPO TSRA FEW030CB,OPMT,2019-01-12T05:30:00Z,30.18,71.42,11.0,7.0,0,0,,1.55,30.088583,,,,,,,,,,DZ,SCT,4000,BKN,10000,,,,,IFR,,,,,,,,,,,,SPECI,123.0
LRTR 120530Z 15004KT 8000 OVC048 M06/M06 Q1018 R11/920294,LRTR,2019-01-12T05:30:00Z,45.82,21.33,-6.0,-6.0,150,4,,4.97,30.059055,,,,,,,,,,,OVC,4800,,,,,,,MVFR,,,,,,,,,,,,SPECI,88.0
LRSB 120530Z VRB02KT 4000 -BR FEW026 M12/M13 Q1014 R27/29//94,LRSB,2019-01-12T05:30:00Z,45.78,24.08,-12.0,-13.0,0,2,,2.49,29.940945,,,,,,,,,,-BR,FEW,2600,,,,,,,IFR,,,,,,,,,,,,METAR,444.0
LROP 120530Z 22009KT 5000 BR OVC015 M04/M05 Q1014 R88/29//95 NOSIG,LROP,2019-01-12T05:30:00Z,44.57,26.1,-4.0,-5.0,220,9,,3.11,29.940945,,,,,,TRUE,,,,BR,OVC,1500,,,,,,,MVFR,,,,,,,,,,,,SPECI,95.0
LRCK 120530Z 26009KT 3000 BR OVC006 M03/M03 Q1014 R36/12//95 BECMG 5000 BKN010,LRCK,2019-01-12T05:30:00Z,44.37,28.48,-3.0,-3.0,260,9,,1.86,29.940945,,,,,,,,,,BR,OVC,600,,,,,,,IFR,,,,,,,,,,,,SPECI,108.0
LRBS 120530Z 22006KT 5000 BR SCT005 OVC011 M03/M04 Q1014 R07/29//95 NOSIG,LRBS,2019-01-12T05:30:00Z,44.5,26.08,-3.0,-4.0,220,6,,3.11,29.940945,,,,,,TRUE,,,,BR,SCT,500,OVC,1100,,,,,MVFR,,,,,,,,,,,,SPECI,91.0
LRTC 120530Z AUTO 23011KT 6000 SCT007/// BKN009/// M02/M03 Q1014,LRTC,2019-01-12T05:30:00Z,45.07,28.72,-2.0,-3.0,230,11,,3.73,29.940945,,,TRUE,,,,,,,,SCT,700,BKN,900,,,,,IFR,,,,,,,,,,,,METAR,6.0
LRSV 120530Z 24012KT CAVOK M06/M09 Q1006,LRSV,2019-01-12T05:30:00Z,47.68,26.35,-6.0,-9.0,240,12,,6.21,29.704725,,,,,,,,,,,CAVOK,,,,,,,,VFR,,,,,,,,,,,,METAR,351.0
LRIA 120530Z 11006KT 6000 -SN NSC M11/M13 Q1010 R14/950394,LRIA,2019-01-12T05:30:00Z,47.17,27.62,-11.0,-13.0,110,6,,3.73,29.822834,,,,,,,,,,-SN,CLR,,,,,,,,MVFR,,,,,,,,,,,,METAR,104.0
LRCV 120530Z 27008KT CAVOK M06/M08 Q1014,LRCV,2019-01-12T05:30:00Z,44.32,23.88,-6.0,-8.0,270,8,,6.21,29.940945,,,,,,,,,,,CAVOK,,,,,,,,VFR,,,,,,,,,,,,METAR,191.0
LRBC 120530Z AUTO 13008KT 6000 FEW220/// M07/M08 Q1010 RESG,LRBC,2019-01-12T05:30:00Z,46.52,26.92,-7.0,-8.0,130,8,,3.73,29.822834,,,TRUE,,,,,,,,FEW,22000,,,,,,,MVFR,,,,,,,,,,,,METAR,185.0
LRTM 120530Z AUTO 23004KT 7000 OVC018/// M05/M07 Q1014,LRTM,2019-01-12T05:30:00Z,46.47,24.42,-5.0,-7.0,230,4,,4.35,29.940945,,,TRUE,,,,,,,,OVC,1800,,,,,,,MVFR,,,,,,,,,,,,METAR,309.0
LRSM 120530Z 22005KT 9999 -SN OVC030 M03/M06 Q1014 R01/450294,LRSM,2019-01-12T05:30:00Z,47.7,22.88,-3.0,-6.0,220,5,,6.21,29.940945,,,,,,,,,,-SN,OVC,3000,,,,,,,MVFR,,,,,,,,,,,,METAR,124.0
LROD 120530Z 19015KT 5000 -SN BR BKN031 OVC036 M04/M05 Q1015,LROD,2019-01-12T05:30:00Z,47.03,21.92,-4.0,-5.0,190,15,,3.11,29.970472,,,,,,,,,,-SN BR,BKN,3100,OVC,3600,,,,,MVFR,,,,,,,,,,,,METAR,140.0
LESB 120530Z AUTO /////KT CAVOK 05/00 Q1027,LESB,2019-01-12T05:30:00Z,39.6,2.7,5.0,0.0,,,,6.21,30.324802,,,TRUE,,,,,,,,CAVOK,,,,,,,,VFR,,,,,,,,,,,,METAR,48.0
LELL 120530Z AUTO VRB01KT 9999 NCD M01/M04 Q1026,LELL,2019-01-12T05:30:00Z,41.52,2.1,-1.0,-4.0,0,1,,6.21,30.295275,,,TRUE,,,,,,,,CLR,,,,,,,,VFR,,,,,,,,,,,,METAR,250.0
LETU 120530Z AUTO 30024KT 9999 NCD 07/M00 Q1028,LETU,2019-01-12T05:30:00Z,,,7.0,0.0,300,24,,6.21,30.35433,,,TRUE,,,,,,,,CLR,,,,,,,,VFR,,,,,,,,,,,,METAR,
LEBR 120530Z AUTO 31017G27KT 9999 NCD 05/00 Q1028,LEBR,2019-01-12T05:30:00Z,42.2,-1.43,5.0,0.0,310,17,27,6.21,30.35433,,,TRUE,,,,,,,,CLR,,,,,,,,VFR,,,,,,,,,,,,METAR,295.0
LELO 120530Z 27006KT 9999 FEW025 BKN050 05/03 Q1031,LELO,2019-01-12T05:30:00Z,42.45,-2.32,5.0,3.0,270,6,,6.21,30.442913,,,,,,,,,,,FEW,2500,BKN,5000,,,,,VFR,,,,,,,,,,,,METAR,363.0
LEBT 120530Z AUTO 35004KT 9999 NCD M00/M03 Q1027,LEBT,2019-01-12T05:30:00Z,39.58,-0.45,0.0,-3.0,350,4,,6.21,30.324802,,,TRUE,,,,,,,,CLR,,,,,,,,VFR,,,,,,,,,,,,METAR,50.0
LEHC 120530Z AUTO 13011KT 9999 NCD M02/M04 Q1025,LEHC,2019-01-12T05:30:00Z,42.08,-0.32,-2.0,-4.0,130,11,,6.21,30.265747,,,TRUE,,,,,,,,CLR,,,,,,,,VFR,,,,,,,,,,,,METAR,539.0
LEBA 120530Z AUTO 09004KT 060V120 9999 NCD M00/M05 Q1028,LEBA,2019-01-12T05:30:00Z,37.85,-4.82,0.0,-5.0,90,4,,6.21,30.35433,,,TRUE,,,,,,,,CLR,,,,,,,,VFR,,,,,,,,,,,,METAR,92.0
LQBK 120530Z 00000KT CAVOK M05/M06 Q1019 NOSIG,LQBK,2019-01-12T05:30:00Z,44.93,17.3,-5.0,-6.0,0,0,,6.21,30.088583,,,,,,TRUE,,,,,CAVOK,,,,,,,,VFR,,,,,,,,,,,,METAR,122.0
ZBAA 120530Z VRB01MPS 7000 NSC 05/M13 Q1022 NOSIG,ZBAA,2019-01-12T05:30:00Z,40.07,116.58,5.0,-13.0,0,2,,4.35,30.177166,,,,,,TRUE,,,,,CLR,,,,,,,,MVFR,,,,,,,,,,,,METAR,30.0
UMMS 120530Z 24002MPS 220V280 3900 BR BKN005 OVC023 M09/M09 Q0999 R31/820336 NOSIG RMK QBB150,UMMS,2019-01-12T05:30:00Z,53.88,28.03,-9.0,-9.0,240,4,,2.42,29.498032,,,,,,TRUE,,,,BR,BKN,500,OVC,2300,,,,,IFR,,,,,,,,,,,,METAR,205.0
UMGG 120530Z 21006MPS 2100 -SHSN OVC017CB M11/M12 Q1001 R28/N TEMPO 1200 SHSN,UMGG,2019-01-12T05:30:00Z,52.53,31.02,-11.0,-12.0,210,12,,1.3,29.557087,,,,,,,,,,-SHSN,OVC,1700,,,,,,,IFR,,,,,,,,,,,,METAR,144.0
UAAA 120530Z 02002MPS 350V060 5000 BR BKN031CB OVC100 00/M01 Q1030 R05L/6/0140 R05R/4/0540 NOSIG,UAAA,2019-01-12T05:30:00Z,43.35,77.03,0.0,-1.0,20,4,,3.11,30.413385,,,,,,TRUE,,,,BR,BKN,3100,OVC,10000,,,,,MVFR,,,,,,,,,,,,METAR,681.0
UDSG 120530Z 00000KT 5000 BR SCT049 M11/M14 Q1019 R02/CLRD70 NOSIG,UDSG,2019-01-12T05:30:00Z,40.75,43.87,-11.0,-14.0,0,0,,3.11,30.088583,,,,,,TRUE,,,,BR,SCT,4900,,,,,,,MVFR,,,,,,,,,,,,METAR,1524.0
UDYZ 120530Z 00000KT 6000 NSC M07/M09 Q1022 R09/000070 NOSIG,UDYZ,2019-01-12T05:30:00Z,40.15,44.4,-7.0,-9.0,0,0,,3.73,30.177166,,,,,,TRUE,,,,,CLR,,,,,,,,MVFR,,,,,,,,,,,,METAR,865.0
ROAH 120530Z 35020KT 9999 FEW018 SCT030 BKN040 23/16 Q1016 RMK 1CU018 3CU030 6SC040 A3001,ROAH,2019-01-12T05:30:00Z,26.17,127.65,23.0,16.0,350,20,,6.21,30.0,,,,,,,,,,,FEW,1800,SCT,3000,BKN,4000,,,VFR,,,,,,,,,,,,METAR,8.0
RJFF 120530Z 32006KT 280V340 9999 FEW030 SCT050 BKN120 12/03 Q1017 NOSIG RMK 1CU030 3SC050 6AC120 A3004,RJFF,2019-01-12T05:30:00Z,33.57,130.43,12.0,3.0,320,6,,6.21,30.029528,,,,,,TRUE,,,,,FEW,3000,SCT,5000,BKN,12000,,,VFR,,,,,,,,,,,,METAR,12.0
RJCC 120530Z 35010KT 9999 -SHSN FEW015 SCT020 BKN030 M03/M08 Q1020 RMK 1ST015 3CU020 5CU030 A3012,RJCC,2019-01-12T05:30:00Z,42.77,141.67,-3.0,-8.0,350,10,,6.21,30.11811,,,,,,,,,,-SHSN,FEW,1500,SCT,2000,BKN,3000,,,MVFR,,,,,,,,,,,,METAR,30.0
RJAA 120530Z 03005KT 350V070 9999 VCSH FEW020 BKN050 05/01 Q1017 NOSIG RMK 1CU020 7SC050 A3003 MOD ICING OBS AT 0500Z 20NM E NARITA 10000FT A320 SBI565,RJAA,2019-01-12T05:30:00Z,35.77,140.37,5.0,1.0,30,5,,6.21,30.029528,,,,,,TRUE,,,,VCSH,FEW,2000,BKN,5000,,,,,VFR,,0.0,,,,,,,,,,METAR,44.0
RJTT 120530Z 03010KT 9999 FEW020 BKN040 06/M01 Q1016 NOSIG RMK 1CU020 7SC040 A3003,RJTT,2019-01-12T05:30:00Z,35.53,139.77,6.0,-1.0,30,10,,6.21,30.0,,,,,,TRUE,,,,,FEW,2000,BKN,4000,,,,,VFR,,,,,,,,,,,,METAR,8.0
VMMC 120530Z 03006KT 340V060 4000 HZ NSC 21/18 Q1017 NOSIG,VMMC,2019-01-12T05:30:00Z,22.15,113.58,21.0,18.0,30,6,,2.49,30.029528,,,,,,TRUE,,,,HZ,CLR,,,,,,,,IFR,,,,,,,,,,,,METAR,6.0
RCFN 120530Z 13007KT 070V180 9999 VCSH FEW020 SCT025 BKN050 27/22 Q1017 NOSIG RMK A3004,RCFN,2019-01-12T05:30:00Z,22.77,121.07,27.0,22.0,130,7,,6.21,30.029528,,,,,,TRUE,,,,VCSH,FEW,2000,SCT,2500,BKN,5000,,,VFR,,,,,,,,,,,,METAR,42.0
RCNN 120530Z 34010KT 8000 FEW012 BKN100 27/17 Q1016 NOSIG RMK A3001,RCNN,2019-01-12T05:30:00Z,22.93,120.2,27.0,17.0,340,10,,4.97,30.0,,,,,,TRUE,,,,,FEW,1200,BKN,10000,,,,,MVFR,,,,,,,,,,,,METAR,19.0
RCMQ 120530Z 01010KT 6000 FEW006 BKN040 26/18 Q1017 NOSIG RMK A3004,RCMQ,2019-01-12T05:30:00Z,24.27,120.62,26.0,18.0,10,10,,3.73,30.029528,,,,,,TRUE,,,,,FEW,600,BKN,4000,,,,,MVFR,,,,,,,,,,,,METAR,5.0
RCSS 120530Z 11009KT 9999 FEW008 BKN022 BKN038 22/19 Q1018 NOSIG RMK A3007,RCSS,2019-01-12T05:30:00Z,25.07,121.53,22.0,19.0,110,9,,6.21,30.059055,,,,,,TRUE,,,,,FEW,800,BKN,2200,BKN,3800,,,MVFR,,,,,,,,,,,,METAR,6.0
RCKH 120530Z 27008KT 240V300 2500 HZ FEW012 SCT026 BKN080 27/22 Q1016 NOSIG RMK A3001,RCKH,2019-01-12T05:30:00Z,22.57,120.33,27.0,22.0,270,8,,1.55,30.0,,,,,,TRUE,,,,HZ,FEW,1200,SCT,2600,BKN,8000,,,IFR,,,,,,,,,,,,METAR,9.0
RCTP 120530Z 05013KT 9999 FEW005 BKN007 BKN020 19/18 Q1019 NOSIG RMK A3009,RCTP,2019-01-12T05:30:00Z,25.07,121.22,19.0,18.0,50,13,,6.21,30.088583,,,,,,TRUE,,,,,FEW,500,BKN,700,BKN,2000,,,IFR,,,,,,,,,,,,METAR,33.0
LFLW 120530Z AUTO 30004KT 0450 0350 R15/0600N FZFG VV/// M00/M00 Q1028 NOSIG,LFLW,2019-01-12T05:30:00Z,44.88,2.42,0.0,0.0,300,4,,0.28,30.35433,,,TRUE,,,TRUE,,,,FZFG,OVX,0,,,,,,,LIFR,,,,,,,,,,,,METAR,639.0
VQPR 120530Z VRB01KT 9999 FEW040 10/M04 Q1024,VQPR,2019-01-12T05:30:00Z,27.4,89.43,10.0,-4.0,0,1,,6.21,30.236221,,,,,,,,,,,FEW,4000,,,,,,,VFR,,,,,,,,,,,,SPECI,2235.0
VECC 120530Z 35007KT 2400 FU NSC 22/13 Q1018 NOSIG,VECC,2019-01-12T05:30:00Z,22.65,88.43,22.0,13.0,350,7,,1.49,30.059055,,,,,,TRUE,,,,FU,CLR,,,,,,,,IFR,,,,,,,,,,,,METAR,6.0
DAOO 120530Z 20002KT CAVOK M01/M01 Q1027,DAOO,2019-01-12T05:30:00Z,35.62,-0.6,-1.0,-1.0,200,2,,6.21,30.324802,,,,,,,,,,,CAVOK,,,,,,,,VFR,,,,,,,,,,,,METAR,90.0
DAON 120530Z 08003KT CAVOK 00/M03 Q1027,DAON,2019-01-12T05:30:00Z,35.02,-1.47,0.0,-3.0,80,3,,6.21,30.324802,,,,,,,,,,,CAVOK,,,,,,,,VFR,,,,,,,,,,,,METAR,247.0
DABC 120530Z 29006KT 7000 FEW010 SCT023 01/00 Q1021,DABC,2019-01-12T05:30:00Z,36.27,6.62,1.0,0.0,290,6,,4.35,30.147638,,,,,,,,,,,FEW,1000,SCT,2300,,,,,MVFR,,,,,,,,,,,,METAR,694.0
DABB 120530Z 27009KT 7000 -RA FEW020 FEW023CB BKN030 06/05 Q1021,DABB,2019-01-12T05:30:00Z,36.82,7.82,6.0,5.0,270,9,,4.35,30.147638,,,,,,,,,,-RA,FEW,2000,FEW,2300,BKN,3000,,,MVFR,,,,,,,,,,,,METAR,4.0
DAAT 120530Z 01006KT CAVOK 05/M25 Q1019,DAAT,2019-01-12T05:30:00Z,22.82,5.47,5.0,-25.0,10,6,,6.21,30.088583,,,,,,,,,,,CAVOK,,,,,,,,VFR,,,,,,,,,,,,METAR,1377.0
DAAG 120530Z 23003KT 200V260 9999 FEW020 BKN070 05/04 Q1027,DAAG,2019-01-12T05:30:00Z,36.72,3.22,5.0,4.0,230,3,,6.21,30.324802,,,,,,,,,,,FEW,2000,BKN,7000,,,,,VFR,,,,,,,,,,,,METAR,25.0
ZYTX 120530Z 21003MPS 170V250 3000 FU OVC040 04/M04 Q1021 NOSIG,ZYTX,2019-01-12T05:30:00Z,41.63,123.48,4.0,-4.0,210,6,,1.86,30.147638,,,,,,TRUE,,,,FU,OVC,4000,,,,,,,IFR,,,,,,,,,,,,METAR,35.0
ZYTL 120530Z 28006MPS 3000 BR FEW016 05/M02 Q1023 NOSIG,ZYTL,2019-01-12T05:30:00Z,38.97,121.53,5.0,-2.0,280,12,,1.86,30.206694,,,,,,TRUE,,,,BR,FEW,1600,,,,,,,IFR,,,,,,,,,,,,METAR,97.0
ZWWW 120530Z 00000MPS 1000 R25/1000U BR NSC M11/M13 Q1028 NOSIG,ZWWW,2019-01-12T05:30:00Z,43.88,87.47,-11.0,-13.0,0,0,,0.62,30.35433,,,,,,TRUE,,,,BR,CLR,,,,,,,,LIFR,,,,,,,,,,,,SPECI,654.0
ZSSS 120530Z 32004MPS 280V360 6000 BKN016 08/04 Q1024 NOSIG,ZSSS,2019-01-12T05:30:00Z,31.2,121.33,8.0,4.0,320,8,,3.73,30.236221,,,,,,TRUE,,,,,BKN,1600,,,,,,,MVFR,,,,,,,,,,,,METAR,7.0
ZSPD 120530Z 31005MPS 8000 BKN016 07/04 Q1024 NOSIG,ZSPD,2019-01-12T05:30:00Z,31.15,121.8,7.0,4.0,310,10,,4.97,30.236221,,,,,,TRUE,,,,,BKN,1600,,,,,,,MVFR,,,,,,,,,,,,METAR,4.0
ZSHC 120530Z 35003MPS 300V060 9999 SCT013 BKN023 08/03 Q1024 NOSIG,ZSHC,2019-01-12T05:30:00Z,30.22,120.43,8.0,3.0,350,6,,6.21,30.236221,,,,,,TRUE,,,,,SCT,1300,BKN,2300,,,,,MVFR,,,,,,,,,,,,METAR,43.0
ZGGG 120530Z VRB01MPS 9999 SCT018 OVC033 20/13 Q1018 NOSIG,ZGGG,2019-01-12T05:30:00Z,23.4,113.3,20.0,13.0,0,2,,6.21,30.059055,,,,,,TRUE,,,,,SCT,1800,OVC,3300,,,,,VFR,,,,,,,,,,,,METAR,15.0
ZBYN 120530Z 18003MPS 140V230 3000 HZ NSC 02/M12 Q1021 NOSIG,ZBYN,2019-01-12T05:30:00Z,37.77,112.63,2.0,-12.0,180,6,,1.86,30.147638,,,,,,TRUE,,,,HZ,CLR,,,,,,,,IFR,,,,,,,,,,,,METAR,779.0
ZBTJ 120530Z 21003MPS 180V240 1000 R16R/1000N R16L/1100N BR NSC M00/M03 Q1023 NOSIG,ZBTJ,2019-01-12T05:30:00Z,39.12,117.35,0.0,-3.0,210,6,,0.62,30.206694,,,,,,TRUE,,,,BR,CLR,,,,,,,,LIFR,,,,,,,,,,,,SPECI,3.0
UATE 120530Z 12009G14MPS 9999 OVC036 03/01 Q1015 R12/0///70 NOSIG RMK QFE759/1013,UATE,2019-01-12T05:30:00Z,43.87,51.1,3.0,1.0,120,17,27,6.21,29.970472,,,,,,TRUE,,,,,OVC,3600,,,,,,,VFR,,,,,,,,,,,,METAR,22.0
UARR 120530Z 17013MPS 1000 R22/1000 SHSN BLSN BKN008 OVC016CB M03/M04 Q1009 R22/790037 TEMPO 0500 +SHSN BLSN BKN004 RMK QFE753/1004,UARR,2019-01-12T05:30:00Z,51.15,51.53,-3.0,-4.0,170,25,,0.62,29.793306,,,,,,,,,,BLSN SHSN,BKN,800,OVC,1600,,,,,LIFR,,,,,,,,,,,,METAR,38.0
UASS 120530Z 00000MPS 7000 NSC M20/M23 Q1032 R26/451050 NOSIG RMK QFE756/1008,UASS,2019-01-12T05:30:00Z,50.35,80.23,-20.0,-23.0,0,0,,4.35,30.47244,,,,,,TRUE,,,,,CLR,,,,,,,,MVFR,,,,,,,,,,,,METAR,232.0
UASP 120530Z 20002MPS 8000 SCT170 M20/M22 Q1030 R21/450260 NOSIG RMK QFE761/1015,UASP,2019-01-12T05:30:00Z,52.2,77.07,-20.0,-22.0,200,4,,4.97,30.413385,,,,,,TRUE,,,,,SCT,17000,,,,,,,MVFR,,,,,,,,,,,,METAR,125.0
UASK 120530Z 32003MPS 4000 SN FEW008 BKN040 M13/M15 Q1031 R12/490340 NOSIG RMK QFE747/0996,UASK,2019-01-12T05:30:00Z,50.03,82.5,-13.0,-15.0,320,6,,2.49,30.442913,,,,,,TRUE,,,,SN,FEW,800,BKN,4000,,,,,IFR,,,,,,,,,,,,METAR,286.0
UAOO 120530Z 14001MPS 9999 SCT007 M14/M16 Q1033 R05/CLRD70 NOSIG RMK QFE763/1018,UAOO,2019-01-12T05:30:00Z,44.7,65.6,-14.0,-16.0,140,2,,6.21,30.501968,,,,,,TRUE,,,,,SCT,700,,,,,,,VFR,,,,,,,,,,,,METAR,129.0
UAKK 120530Z 00000MPS 9999 SCT008 M18/M20 Q1028 R05/490248 NOSIG RMK QFE723/0964,UAKK,2019-01-12T05:30:00Z,49.67,73.33,-18.0,-20.0,0,0,,6.21,30.35433,,,,,,TRUE,,,,,SCT,800,,,,,,,VFR,,,,,,,,,,,,METAR,538.0
UAII 120530Z 01002MPS 330V050 4000 BR BKN005 OVC016 M01/M01 Q1031 R10/2///55 NOSIG RMK QBB150 QFE738/0984,UAII,2019-01-12T05:30:00Z,42.37,69.48,-1.0,-1.0,10,4,,2.49,30.442913,,,,,,TRUE,,,,BR,BKN,500,OVC,1600,,,,,IFR,,,,,,,,,,,,METAR,422.0
UACP 120530Z 20003MPS 6000 -SG OVC007 M19/M21 Q1026 R23/4/0550 NOSIG RMK QFE757/1009,UACP,2019-01-12T05:30:00Z,54.78,69.18,-19.0,-21.0,200,6,,3.73,30.295275,,,,,,TRUE,,,,-SG,OVC,700,,,,,,,IFR,,,,,,,,,,,,METAR,142.0
UACK 120530Z 22004MPS 9999 BKN014 M16/M18 Q1025 R20/410260 NOSIG RMK QFE745/0993,UACK,2019-01-12T05:30:00Z,53.32,69.58,-16.0,-18.0,220,8,,6.21,30.265747,,,,,,TRUE,,,,,BKN,1400,,,,,,,MVFR,,,,,,,,,,,,METAR,2547.0
UACC 120530Z 20004MPS 9999 SCT016 BKN160 M21/M23 Q1028 R22/8///65 NOSIG RMK QFE739/0986,UACC,2019-01-12T05:30:00Z,51.02,71.47,-21.0,-23.0,200,8,,6.21,30.35433,,,,,,TRUE,,,,,SCT,1600,BKN,16000,,,,,VFR,,,,,,,,,,,,METAR,355.0
UADD 120530Z 03002MPS 350V070 8000 OVC005 M02/M03 Q1030 R13/490545 NOSIG RMK QBB170 MT OBSC QFE715/0953,UADD,2019-01-12T05:30:00Z,42.85,71.3,-2.0,-3.0,30,4,,4.97,30.413385,,,,,,TRUE,,,,,OVC,500,,,,,,,IFR,,,,,,,,,,,,METAR,665.0
UAAT 120530Z 23007MPS 5000 -SN BR SCT011 OVC032 M01/M02 Q1030 NOSIG RMK QFE720/0960,UAAT,2019-01-12T05:30:00Z,45.12,78.45,-1.0,-2.0,230,14,,3.11,30.413385,,,,,,TRUE,,,,-SN BR,SCT,1100,OVC,3200,,,,,MVFR,,,,,,,,,,,,METAR,591.0
UAAH 120530Z 05001MPS 2100 IC BR SCT032 M07/M08 Q1030 NOSIG RMK QFE735/0980,UAAH,2019-01-12T05:30:00Z,46.9,75.0,-7.0,-8.0,50,2,,1.3,30.413385,,,,,,TRUE,,,,IC BR,SCT,3200,,,,,,,IFR,,,,,,,,,,,,METAR,441.0
UATT 120530Z 18006MPS 9999 SCT011 OVC043 M10/M12 Q1020 R13/0///60 NOSIG RMK QFE745/0994,UATT,2019-01-12T05:30:00Z,50.25,57.2,-10.0,-12.0,180,12,,6.21,30.11811,,,,,,TRUE,,,,,SCT,1100,OVC,4300,,,,,VFR,,,,,,,,,,,,METAR,227.0
UATG 120530Z 16008MPS 5000 BR OVC017 00/M00 Q1017 R14/82//65 NOSIG RMK QFE765/1020,UATG,2019-01-12T05:30:00Z,47.12,51.83,0.0,0.0,160,16,,3.11,30.029528,,,,,,TRUE,,,,BR,OVC,1700,,,,,,,MVFR,,,,,,,,,,,,METAR,-22.0
UKLR 120530Z 27009MPS 2100 -SN OVC006 M05/M05 Q1002 NOSIG,UKLR,2019-01-12T05:30:00Z,50.6,26.13,-5.0,-5.0,270,17,,1.3,29.586615,,,,,,TRUE,,,,-SN,OVC,600,,,,,,,IFR,,,,,,,,,,,,METAR,230.0
UTDL 120530Z 07003MPS 2100 BR OVC010 03/02 Q1031 R08/29//55 NOSIG RMK QFE734/0978,UTDL,2019-01-12T05:30:00Z,40.22,69.7,3.0,2.0,70,6,,1.3,30.442913,,,,,,TRUE,,,,BR,OVC,1000,,,,,,,IFR,,,,,,,,,,,,METAR,442.0
UTDT 120530Z VRB01MPS 9000 SCT009 BKN014 05/03 Q1031 R35/CLRD70 RMK QFE733/0977,UTDT,2019-01-12T05:30:00Z,37.87,68.87,5.0,3.0,0,2,,5.59,30.442913,,,,,,,,,,,SCT,900,BKN,1400,,,,,MVFR,,,,,,,,,,,,METAR,449.0
UTDK 120530Z VRB01MPS 9999 OVC010 03/02 Q1030 R01/29//50 RMK QFE714/0952,UTDK,2019-01-12T05:30:00Z,37.98,69.8,3.0,2.0,0,2,,6.21,30.413385,,,,,,,,,,,OVC,1000,,,,,,,MVFR,,,,,,,,,,,,METAR,699.0
UTDD 120530Z 12001MPS 3800 BR FU BKN007 OVC025 02/01 Q1030 R09/29//50 NOSIG RMK QFE703/0938,UTDD,2019-01-12T05:30:00Z,38.53,68.82,2.0,1.0,120,2,,2.36,30.413385,,,,,,TRUE,,,,BR FU,BKN,700,OVC,2500,,,,,IFR,,,,,,,,,,,,METAR,803.0
UKLI 120530Z 00000MPS 4100 -SN BR OVC018 M08/M08 Q1007 R28/490335 NOSIG,UKLI,2019-01-12T05:30:00Z,48.88,24.68,-8.0,-8.0,0,0,,2.55,29.734253,,,,,,TRUE,,,,-SN BR,OVC,1800,,,,,,,IFR,,,,,,,,,,,,METAR,280.0
UCFO 120530Z 01001MPS 3100 BR SCT016 BKN050 02/00 Q1029 R12/29//95 NOSIG,UCFO,2019-01-12T05:30:00Z,40.6,72.8,2.0,0.0,10,2,,1.93,30.383858,,,,,,TRUE,,,,BR,SCT,1600,BKN,5000,,,,,IFR,,,,,,,,,,,,METAR,884.0
UCFM 120530Z 31002MPS 280V340 9000 SCT004 OVC033 M00/M02 Q1030 R26/29//95 NOSIG,UCFM,2019-01-12T05:30:00Z,43.07,74.48,0.0,-2.0,310,4,,5.59,30.413385,,,,,,TRUE,,,,,SCT,400,OVC,3300,,,,,VFR,,,,,,,,,,,,METAR,633.0
UKWW 120530Z 22005MPS 9999 BKN010 BKN100 M09/M11 Q1005 R31/810155 NOSIG,UKWW,2019-01-12T05:30:00Z,49.25,28.6,-9.0,-11.0,220,10,,6.21,29.675198,,,,,,TRUE,,,,,BKN,1000,BKN,10000,,,,,MVFR,,,,,,,,,,,,METAR,293.0
UKOH 120530Z 28004MPS 9999 BKN011 M06/M08 Q1012 R21/CLRD65 NOSIG,UKOH,2019-01-12T05:30:00Z,46.67,32.5,-6.0,-8.0,280,8,,6.21,29.88189,,,,,,TRUE,,,,,BKN,1100,,,,,,,MVFR,,,,,,,,,,,,METAR,45.0
UKLN 120530Z 00000MPS 2500 -SHSN BR BKN012CB M10/M10 Q1008 R15/890531 TEMPO 1000 BR BKN003,UKLN,2019-01-12T05:30:00Z,48.27,25.98,-10.0,-10.0,0,0,,1.55,29.763779,,,,,,,,,,-SHSN BR,BKN,1200,,,,,,,IFR,,,,,,,,,,,,METAR,252.0
UKKM 120530Z AUTO 20005MPS 9000 -SN ///032/// M09/M10 Q1003,UKKM,2019-01-12T05:30:00Z,50.6,30.2,-9.0,-10.0,200,10,,5.59,29.616142,,,TRUE,,,,,,,-SN,,,,,,,,,,,,,,,,,,,,,METAR,157.0
UKKK 120530Z 23004MPS CAVOK M10/M11 Q1003 R26/810340 NOSIG,UKKK,2019-01-12T05:30:00Z,50.4,30.45,-10.0,-11.0,230,8,,6.21,29.616142,,,,,,TRUE,,,,,CAVOK,,,,,,,,VFR,,,,,,,,,,,,METAR,179.0
FMEP 120530Z AUTO 22006KT 190V250 CAVOK 30/23 Q1015 BECMG SCT030CB,FMEP,2019-01-12T05:30:00Z,-21.32,55.42,30.0,23.0,220,6,,6.21,29.970472,,,TRUE,,,,,,,,CAVOK,,,,,,,,VFR,,,,,,,,,,,,METAR,18.0
FMEE 120530Z AUTO 08013KT CAVOK 30/24 Q1015 NOSIG,FMEE,2019-01-12T05:30:00Z,-20.87,55.52,30.0,24.0,80,13,,6.21,29.970472,,,TRUE,,,TRUE,,,,,CAVOK,,,,,,,,VFR,,,,,,,,,,,,METAR,25.0
DTTJ 120530Z AUTO 29019KT NCD 09/01 Q1019,DTTJ,2019-01-12T05:30:00Z,33.87,10.77,9.0,1.0,290,19,,,30.088583,,,TRUE,,,,,,,,CLR,,,,,,,,,,,,,,,,,,,,METAR,4.0
DTTA 120530Z 30009KT 8000 -TSRA SCT023 FEW026CB 06/03 Q1019,DTTA,2019-01-12T05:30:00Z,36.85,10.22,6.0,3.0,300,9,,4.97,30.088583,,,,,,,,,,-TSRA,SCT,2300,FEW,2600,,,,,MVFR,,,,,,,,,,,,METAR,4.0
DTMB 120530Z 26012KT CAVOK 08/02 Q1019 NOSIG,DTMB,2019-01-12T05:30:00Z,35.77,10.75,8.0,2.0,260,12,,6.21,30.088583,,,,,,TRUE,,,,,CAVOK,,,,,,,,VFR,,,,,,,,,,,,METAR,2.0
VELP 120530Z 00000KT 5000 HZ NSC 23/11 Q1017 NOSIG,VELP,2019-01-12T05:30:00Z,23.83,92.62,23.0,11.0,0,0,,3.11,30.029528,,,,,,TRUE,,,,HZ,CLR,,,,,,,,MVFR,,,,,,,,,,,,METAR,291.0
VOCP 120530Z 11013KT 5000 HZ NSC 27/17 Q1016,VOCP,2019-01-12T05:30:00Z,14.47,78.82,27.0,17.0,110,13,,3.11,30.0,,,,,,,,,,HZ,CLR,,,,,,,,MVFR,,,,,,,,,,,,METAR,130.0
VEMN 120530Z 05008KT 5000 HZ NSC 22/11 Q1019 NOSIG,VEMN,2019-01-12T05:30:00Z,27.47,95.02,22.0,11.0,50,8,,3.11,30.088583,,,,,,TRUE,,,,HZ,CLR,,,,,,,,MVFR,,,,,,,,,,,,METAR,111.0
VEBS 120530Z 36003KT 2500 HZ NSC 24/17 Q1018 NOSIG,VEBS,2019-01-12T05:30:00Z,20.25,85.82,24.0,17.0,360,3,,1.55,30.059055,,,,,,TRUE,,,,HZ,CLR,,,,,,,,IFR,,,,,,,,,,,,METAR,46.0
VOKN 120530Z VRB03KT 6000 FEW015 28/22 Q1014 NOSIG,VOKN,2019-01-12T05:30:00Z,11.92,75.55,28.0,22.0,0,3,,3.73,29.940945,,,,,,TRUE,,,,,FEW,1500,,,,,,,MVFR,,,,,,,,,,,,METAR,105.0
VOTV 120530Z 24005KT 5000 HZ FEW015 31/23 Q1013 NOSIG,VOTV,2019-01-12T05:30:00Z,8.47,76.95,31.0,23.0,240,5,,3.11,29.911417,,,,,,TRUE,,,,HZ,FEW,1500,,,,,,,MVFR,,,,,,,,,,,,METAR,8.0
VOTR 120530Z 02012KT 4000 HZ SCT016 29/16 Q1015 NOSIG,VOTR,2019-01-12T05:30:00Z,10.77,78.72,29.0,16.0,20,12,,2.49,29.970472,,,,,,TRUE,,,,HZ,SCT,1600,,,,,,,IFR,,,,,,,,,,,,METAR,88.0
VANP 120530Z 08002KT 2000 BR NSC 23/15 Q1018 NOSIG,VANP,2019-01-12T05:30:00Z,21.08,79.05,23.0,15.0,80,2,,1.24,30.059055,,,,,,TRUE,,,,BR,CLR,,,,,,,,IFR,,,,,,,,,,,,METAR,310.0
VERC 120530Z 00000KT 2500 HZ NSC 19/06 Q1020 BECMG 3000 HZ,VERC,2019-01-12T05:30:00Z,23.32,85.32,19.0,6.0,0,0,,1.55,30.11811,,,,,,,,,,HZ,CLR,,,,,,,,IFR,,,,,,,,,,,,METAR,652.0
VOBZ 120530Z 09003KT 3000 HZ SCT020 27/20 Q1016 NOSIG,VOBZ,2019-01-12T05:30:00Z,16.52,80.78,27.0,20.0,90,3,,1.86,30.0,,,,,,TRUE,,,,HZ,SCT,2000,,,,,,,IFR,,,,,,,,,,,,METAR,24.0
VOVZ 120530Z 05004KT 3100 HZ FEW018 SCT090 26/18 Q1017 BECMG 4000 HZ,VOVZ,2019-01-12T05:30:00Z,17.75,83.22,26.0,18.0,50,4,,1.93,30.029528,,,,,,,,,,HZ,FEW,1800,SCT,9000,,,,,IFR,,,,,,,,,,,,METAR,5.0
UAUU 120530Z 18003MPS CAVOK M19/M21 Q1023 R33/850156 NOSIG RMK QFE751/1002,UAUU,2019-01-12T05:30:00Z,53.2,63.55,-19.0,-21.0,180,6,,6.21,30.206694,,,,,,TRUE,,,,,CAVOK,,,,,,,,VFR,,,,,,,,,,,,METAR,182.0
VOCI 120530Z 09003KT 5000 HZ NSC 30/17 Q1013 NOSIG,VOCI,2019-01-12T05:30:00Z,10.15,76.4,30.0,17.0,90,3,,3.11,29.911417,,,,,,TRUE,,,,HZ,CLR,,,,,,,,MVFR,,,,,,,,,,,,METAR,8.0
KHEQ 120530Z AUTO 35010KT 10SM CLR 03/00 A3013 RMK AO2,KHEQ,2019-01-12T05:30:00Z,40.57,-102.28,3.0,0.0,350,10,,10.0,30.129921,,,TRUE,TRUE,,,,,,,CLR,,,,,,,,VFR,,,,,,,,,,,,METAR,1137.0
KGNB 120530Z AUTO 00000KT 10SM SCT030 BKN075 OVC090 M05/M06 A3015 RMK AO2 T10521064,KGNB,2019-01-12T05:30:00Z,40.08,-105.92,-5.2,-6.4,0,0,,10.0,30.15059,,,TRUE,TRUE,,,,,,,SCT,3000,BKN,7500,OVC,9000,,,VFR,,,,,,,,,,,,METAR,2500.0
KEIK 120530Z AUTO 31003KT 2SM -SN OVC007 01/01 A3025 RMK AO2 T00060005,KEIK,2019-01-12T05:30:00Z,40.02,-105.05,0.6,0.5,310,3,,2.0,30.250984,,,TRUE,TRUE,,,,,,-SN,OVC,700,,,,,,,IFR,,,,,,,,,,,,METAR,1564.0
K7BM 120530Z AUTO 11003KT 5SM -SN SCT016 SCT037 OVC075 M05/M07 A3012 RMK AO2,K7BM,2019-01-12T05:30:00Z,38.78,-106.22,-5.0,-7.0,110,3,,5.0,30.121063,,,TRUE,TRUE,,,,,,-SN,SCT,1600,SCT,3700,OVC,7500,,,MVFR,,,,,,,,,,,,METAR,2995.0
K5SM 120530Z AUTO 05006KT 1 1/2SM -SN OVC001 A3014 RMK AO2,K5SM,2019-01-12T05:30:00Z,39.43,-107.38,,,50,6,,1.5,30.138779,,,TRUE,TRUE,,,,,,-SN,OVC,100,,,,,,,LIFR,,,,,,,,,,,,METAR,3232.0
K4BM 120530Z AUTO 04007KT 020V080 3SM -SN BKN002 BKN007 OVC012 A3012 RMK AO2 LTG DSNT NW,K4BM,2019-01-12T05:30:00Z,39.05,-105.52,,,40,7,,3.0,30.121063,,,TRUE,TRUE,,,,,,-SN,BKN,200,BKN,700,OVC,1200,,,LIFR,,,,,,,,,,,,METAR,3438.0
K20V 120530Z AUTO 34005KT 10SM SCT060 BKN070 OVC080 M01/M05 A3016 RMK AO2,K20V,2019-01-12T05:30:00Z,40.05,-106.37,-1.0,-5.0,340,5,,10.0,30.159449,,,TRUE,TRUE,,,,,,,SCT,6000,BKN,7000,OVC,8000,,,VFR,,,,,,,,,,,,METAR,2259.0
KC07 120530Z AUTO 07011G17KT 7SM SCT001 BKN038 OVC045 M08/M09 A3012 RMK AO2,KC07,2019-01-12T05:30:00Z,40.35,-106.7,-8.0,-9.0,70,11,17,7.0,30.121063,,,TRUE,TRUE,,,,,,,SCT,100,BKN,3800,OVC,4500,,,VFR,,,,,,,,,,,,METAR,3224.0
KBDU 120530Z AUTO 00000KT 4SM -SN SCT005 BKN014 OVC020 00/00 A3018 RMK AO2 P0001,KBDU,2019-01-12T05:30:00Z,40.03,-105.23,0.0,0.0,0,0,,4.0,30.180119,,,TRUE,TRUE,,,,,,-SN,SCT,500,BKN,1400,OVC,2000,,,MVFR,,,,,,0.01,,,,,,METAR,1612.0
KSET 120529Z AUTO 11008KT 3/4SM -SN BR VV014 M01/M02 A3021 RMK AO2 P0000 T10111017,KSET,2019-01-12T05:29:00Z,38.93,-90.43,-1.1,-1.7,110,8,,0.75,30.209646,,,TRUE,TRUE,,,,,,-SN BR,OVX,0,,,,,,,LIFR,,,,,,0.005,,,,,1400,SPECI,134.0
KPSC 120529Z 14005KT 1/4SM FG VV002 01/01 A3017 RMK AO2 T00110011 RVRNO,KPSC,2019-01-12T05:29:00Z,46.27,-119.12,1.1,1.1,140,5,,0.25,30.171259,,,,TRUE,,,,,,FG,OVX,0,,,,,,,LIFR,,,,,,,,,,,200,SPECI,121.0
KMCE 120529Z AUTO 01006KT 1SM BR VV002 08/08 A2989 RMK AO2 T00830083,KMCE,2019-01-12T05:29:00Z,37.28,-120.5,8.3,8.3,10,6,,1.0,29.890747,,,TRUE,TRUE,,,,,,BR,OVX,0,,,,,,,LIFR,,,,,,,,,,,200,SPECI,47.0
KLNK 120529Z AUTO 02007KT 1SM R36/P6000FT -SN BR SCT004 OVC008 01/M01 A3012 RMK AO2 P0004 T00061006,KLNK,2019-01-12T05:29:00Z,40.85,-96.77,0.6,-0.6,20,7,,1.0,30.121063,,,TRUE,TRUE,,,,,,-SN BR,SCT,400,OVC,800,,,,,IFR,,,,,,0.04,,,,,,SPECI,364.0
KJLN 120529Z AUTO 12009KT 6SM -RA BR FEW020 BKN037 OVC048 02/01 A2999 RMK AO2 P0004 T00220011,KJLN,2019-01-12T05:29:00Z,37.15,-94.5,2.2,1.1,120,9,,6.0,29.991142,,,TRUE,TRUE,,,,,,-RA BR,FEW,2000,BKN,3700,OVC,4800,,,VFR,,,,,,0.04,,,,,,SPECI,299.0
KHRI 120529Z AUTO 00000KT 10SM OVC010 03/02 A3016 RMK AO2 T00330017,KHRI,2019-01-12T05:29:00Z,45.83,-119.27,3.3,1.7,0,0,,10.0,30.159449,,,TRUE,TRUE,,,,,,,OVC,1000,,,,,,,MVFR,,,,,,,,,,,,SPECI,195.0
KFZY 120529Z AUTO 00000KT 10SM SCT024 M09/M14 A3044 RMK AO2 T10891139,KFZY,2019-01-12T05:29:00Z,43.35,-76.38,-8.9,-13.9,0,0,,10.0,30.43996,,,TRUE,TRUE,,,,,,,SCT,2400,,,,,,,VFR,,,,,,,,,,,,SPECI,138.0
KCLL 120529Z AUTO 21005KT 3SM RA BR SCT014 BKN043 OVC080 14/13 A2997 RMK AO2 P0029 T01390133 $,KCLL,2019-01-12T05:29:00Z,30.58,-96.37,13.9,13.3,210,5,,3.0,29.970472,,,TRUE,TRUE,TRUE,,,,,RA BR,SCT,1400,BKN,4300,OVC,8000,,,MVFR,,,,,,0.29,,,,,,SPECI,96.0
KAMA 120529Z 33018G26KT 3SM -SN BR BKN016 OVC023 01/M01 A2994 RMK AO2 PK WND 33026/0528 SNB0459 P0001 T00111006,KAMA,2019-01-12T05:29:00Z,35.22,-101.72,1.1,-0.6,330,18,26,3.0,29.940945,,,,TRUE,,,,,,-SN BR,BKN,1600,OVC,2300,,,,,MVFR,,,,,,0.01,,,,,,SPECI,1093.0
KMVN 120529Z AUTO 08007KT 3/4SM -SN BR OVC007 M01/M02 A3023 RMK AO2 CIG 005V011 P0001 FZRANO,KMVN,2019-01-12T05:29:00Z,38.32,-88.87,-1.0,-2.0,80,7,,0.75,30.230314,,,TRUE,TRUE,,,,TRUE,,-SN BR,OVC,700,,,,,,,LIFR,,,,,,0.01,,,,,,SPECI,146.0
KLBL 120529Z AUTO 36017KT 1SM -SN BR OVC005 M01/M01 A2997 RMK AO2 P0001 FZRANO,KLBL,2019-01-12T05:29:00Z,37.03,-100.97,-1.0,-1.0,360,17,,1.0,29.970472,,,TRUE,TRUE,,,,TRUE,,-SN BR,OVC,500,,,,,,,IFR,,,,,,0.01,,,,,,SPECI,879.0
KHYS 120529Z AUTO 01015KT 2SM -SN BR BKN005 OVC011 M01/M01 A3002 RMK AO2 P0001 FZRANO,KHYS,2019-01-12T05:29:00Z,38.85,-99.27,-1.0,-1.0,10,15,,2.0,30.02067,,,TRUE,TRUE,,,,TRUE,,-SN BR,BKN,500,OVC,1100,,,,,IFR,,,,,,0.01,,,,,,SPECI,609.0
KBRL 120529Z AUTO 09007KT 3/4SM -SN BR FEW005 OVC011 M02/M04 A3022 RMK AO2 P0003 T10171039 $,KBRL,2019-01-12T05:29:00Z,40.77,-91.13,-1.7,-3.9,90,7,,0.75,30.221457,,,TRUE,TRUE,TRUE,,,,,-SN BR,FEW,500,OVC,1100,,,,,LIFR,,,,,,0.03,,,,,,SPECI,211.0
CWSA 120529Z AUTO 25022G31KT 9SM -SN FEW025 OVC038 M00/M04 A2998 RMK SLP153,CWSA,2019-01-12T05:29:00Z,43.93,-60.0,0.0,-4.0,250,22,31,9.0,29.97933,1015.3,,TRUE,,,,,,,-SN,FEW,2500,OVC,3800,,,,,VFR,,,,,,,,,,,,SPECI,4.0
RJOA 120529Z 13003KT 090V170 3000 R28/P1800N BCFG BR FEW000 SCT001 BKN002 03/02 Q1017 RMK 1ST000 3ST001 5ST002 A3005 1500SE FG SE-S AND SW,RJOA,2019-01-12T05:29:00Z,34.42,132.92,3.0,2.0,130,3,,1.86,30.029528,,,,,,,,,,BCFG BR,FEW,0,SCT,100,BKN,200,,,LIFR,,,,,,,,,,,,METAR,6.0
RJCN 120529Z 34010KT 3100 R08/1900D DRSN -SHSN FEW005 SCT008 BKN012 M05/M09 Q1017 RMK 1ST005 4ST008 6ST012 A3004,RJCN,2019-01-12T05:29:00Z,43.57,144.97,-5.0,-9.0,340,10,,1.93,30.029528,,,,,,,,,,DRSN -SHSN,FEW,500,SCT,800,BKN,1200,,,IFR,,,,,,,,,,,,METAR,70.0
ETIC 120529Z AUTO 24006KT 9999 OVC006 01/01 A3007 RMK AO2 RAB14E29 SLP208 $,ETIC,2019-01-12T05:29:00Z,49.7,11.93,1.0,1.0,240,6,,6.21,30.070866,1020.8,,TRUE,TRUE,TRUE,,,,,,OVC,600,,,,,,,IFR,,,,,,,,,,,,SPECI,415.0
KCPW 120529Z AUTO 36010G16KT 3/4SM -SN OVC001 M10/M10 A3012 RMK AO2,KCPW,2019-01-12T05:29:00Z,37.45,-106.8,-10.0,-10.0,360,10,16,0.75,30.121063,,,TRUE,TRUE,,,,,,-SN,OVC,100,,,,,,,LIFR,,,,,,,,,,,,METAR,3584.0
KFBG 120528Z AUTO 00000KT 10SM OVC200 M02/M04 A3041 RMK AO2 PRESRR SLP303,KFBG,2019-01-12T05:28:00Z,35.12,-78.92,-2.0,-4.0,0,0,,10.0,30.410433,1030.3,,TRUE,TRUE,,,,,,,OVC,20000,,,,,,,VFR,,,,,,,,,,,,SPECI,74.0
KCWN 120528Z AUTO 33012G19KT 10SM -SHSN SCT027 BKN045 M01/M04 A3005 RMK AO2 SHSNE14SHSNB27 SLP112 $,KCWN,2019-01-12T05:28:00Z,38.75,-104.85,-1.0,-4.0,330,12,19,10.0,30.050198,1011.2,,TRUE,TRUE,TRUE,,,,,-SHSN,SCT,2700,BKN,4500,,,,,VFR,,,,,,,,,,,,SPECI,2040.0
KBAB 120528Z AUTO 03005KT 2 1/2SM BR CLR 08/08 A2990 RMK AO2 VIS 1/2V2 1/2 SLP128 $,KBAB,2019-01-12T05:28:00Z,39.12,-121.42,8.0,8.0,30,5,,2.5,29.899607,1012.8,,TRUE,TRUE,TRUE,,,,,BR,CLR,,,,,,,,IFR,,,,,,,,,,,,SPECI,34.0
KSPI 120528Z AUTO 09007KT 1 1/2SM -SN BR OVC021 M02/M03 A3023 RMK AO2 PRESFR P0003 T10221033,KSPI,2019-01-12T05:28:00Z,39.85,-89.68,-2.2,-3.3,90,7,,1.5,30.230314,,,TRUE,TRUE,,,,,,-SN BR,OVC,2100,,,,,,,IFR,,,,,,0.03,,,,,,SPECI,181.0
PAJN 120528Z 00000KT 3SM -FZRASN BR SCT004 BKN015 OVC027 00/00 A2972 RMK AO2 P0000 I1000 T00000000,PAJN,2019-01-12T05:28:00Z,58.35,-134.58,0.0,0.0,0,0,,3.0,29.719488,,,,TRUE,,,,,,-FZRA SN BR,SCT,400,BKN,1500,OVC,2700,,,MVFR,,,,,,0.005,,,,,,SPECI,5.0
KSDM 120528Z AUTO 08003KT 4SM BR OVC008 12/11 A3000 RMK AO2 T01220106,KSDM,2019-01-12T05:28:00Z,32.58,-117.0,12.2,10.6,80,3,,4.0,30.0,,,TRUE,TRUE,,,,,,BR,OVC,800,,,,,,,IFR,,,,,,,,,,,,SPECI,159.0
KSBP 120528Z AUTO 00000KT 3SM RA BR BKN009 BKN020 OVC029 11/10 A2993 RMK AO2 P0009 T01110100,KSBP,2019-01-12T05:28:00Z,35.23,-120.63,11.1,10.0,0,0,,3.0,29.929134,,,TRUE,TRUE,,,,,,RA BR,BKN,900,BKN,2000,OVC,2900,,,IFR,,,,,,0.09,,,,,,SPECI,59.0
KLOZ 120528Z AUTO 31003KT 7SM -SN OVC027 01/M03 A3030 RMK AO2 RAE28SNB28 P0000 I1000 T00061033,KLOZ,2019-01-12T05:28:00Z,37.08,-84.07,0.6,-3.3,310,3,,7.0,30.301182,,,TRUE,TRUE,,,,,,-SN,OVC,2700,,,,,,,MVFR,,,,,,0.005,,,,,,SPECI,362.0
KHDO 120528Z AUTO 27003KT 1 3/4SM BR OVC003 15/14 A2998 RMK AO2 T01500144 $,KHDO,2019-01-12T05:28:00Z,29.37,-99.17,15.0,14.4,270,3,,1.75,29.97933,,,TRUE,TRUE,TRUE,,,,,BR,OVC,300,,,,,,,LIFR,,,,,,,,,,,,SPECI,282.0
KAPA 120528Z 34015KT 1SM -SN BR OVC003 M01/M01 A3016 RMK AO2 CIG 002V006 P0000 T10061006,KAPA,2019-01-12T05:28:00Z,39.57,-104.85,-0.6,-0.6,340,15,,1.0,30.159449,,,,TRUE,,,,,,-SN BR,OVC,300,,,,,,,LIFR,,,,,,0.005,,,,,,SPECI,1775.0
KAAO 120528Z AUTO 05006KT 5SM -SN BR OVC004 00/00 A2995 RMK AO2 UPE21SNB21 P0001 T00000000 $,KAAO,2019-01-12T05:28:00Z,37.75,-97.22,0.0,0.0,50,6,,5.0,29.949802,,,TRUE,TRUE,TRUE,,,,,-SN BR,OVC,400,,,,,,,LIFR,,,,,,0.01,,,,,,SPECI,434.0
KIMT 120528Z AUTO 08006KT 10SM SCT007 BKN016 OVC023 M06/M07 A3032 RMK AO2 T10561072,KIMT,2019-01-12T05:28:00Z,45.82,-88.12,-5.6,-7.2,80,6,,10.0,30.318897,,,TRUE,TRUE,,,,,,,SCT,700,BKN,1600,OVC,2300,,,MVFR,,,,,,,,,,,,SPECI,349.0
KENV 120528Z AUTO 00000KT 1/2SM FZFG OVC002 M03/M04 A3029 RMK AO2 FZRANO,KENV,2019-01-12T05:28:00Z,40.72,-114.02,-3.0,-4.0,0,0,,0.5,30.28937,,,TRUE,TRUE,,,,TRUE,,FZFG,OVC,200,,,,,,,LIFR,,,,,,,,,,,,SPECI,1292.0
PTKK 120528Z VRB03KT 3SM +SHRA BKN012CB OVC110 25/23 A2973 RMK CB ALQDS,PTKK,2019-01-12T05:28:00Z,7.47,151.85,25.0,23.0,0,3,,3.0,29.731298,,,,,,,,,,+SHRA,BKN,1200,OVC,11000,,,,,MVFR,,,,,,,,,,,,SPECI,2.0
PHNY 120528Z AUTO 00000KT 10SM BKN014 BKN048 19/19 A3008 RMK AO2,PHNY,2019-01-12T05:28:00Z,20.77,-156.93,19.0,19.0,0,0,,10.0,30.079725,,,TRUE,TRUE,,,,,,,BKN,1400,BKN,4800,,,,,MVFR,,,,,,,,,,,,SPECI,399.0
CYHD 120528Z AUTO 06007KT 9SM SCT008 OVC015 M13/M15 A3043 RMK SLP344,CYHD,2019-01-12T05:28:00Z,49.82,-92.75,-13.0,-15.0,60,7,,9.0,30.431103,1034.4,,TRUE,,,,,,,,SCT,800,OVC,1500,,,,,MVFR,,,,,,,,,,,,SPECI,413.0
ROYN 120528Z AUTO 04019KT 5000 BR FEW009 BKN010 BKN020 21/20 Q1017 RMK A3004,ROYN,2019-01-12T05:28:00Z,24.47,122.97,21.0,20.0,40,19,,3.11,30.029528,,,TRUE,,,,,,,BR,FEW,900,BKN,1000,BKN,2000,,,MVFR,,,,,,,,,,,,SPECI,17.0
KGRF 120527Z 12003KT 1SM BR FEW001 03/03 A2993 RMK AO2A SLP141 $,KGRF,2019-01-12T05:27:00Z,47.07,-122.57,3.0,3.0,120,3,,1.0,29.929134,1014.1,,,TRUE,TRUE,,,,,BR,FEW,100,,,,,,,IFR,,,,,,,,,,,,SPECI,92.0
KVNY 120527Z 00000KT 2 1/2SM HZ CLR 12/09 A2998 RMK AO2 T01170089,KVNY,2019-01-12T05:27:00Z,34.22,-118.48,11.7,8.9,0,0,,2.5,29.97933,,,,TRUE,,,,,,HZ,CLR,,,,,,,,IFR,,,,,,,,,,,,SPECI,245.0
KJMS 120527Z AUTO 36010KT 3SM BR OVC004 M09/M10 A3032 RMK AO2 I1001 T10941100,KJMS,2019-01-12T05:27:00Z,46.93,-98.67,-9.4,-10.0,360,10,,3.0,30.318897,,,TRUE,TRUE,,,,,,BR,OVC,400,,,,,,,LIFR,,,,,,,,,,,,SPECI,455.0
KIRK 120527Z AUTO 09009KT 1SM -SN BR FEW006 OVC014 M02/M02 A3015 RMK AO2 P0003 T10171017,KIRK,2019-01-12T05:27:00Z,40.1,-92.55,-1.7,-1.7,90,9,,1.0,30.15059,,,TRUE,TRUE,,,,,,-SN BR,FEW,600,OVC,1400,,,,,IFR,,,,,,0.03,,,,,,SPECI,293.0
KEVW 120527Z AUTO 15006KT 1 3/4SM BR FEW003 M08/M10 A3022 RMK AO2 T10831100,KEVW,2019-01-12T05:27:00Z,41.27,-111.03,-8.3,-10.0,150,6,,1.75,30.221457,,,TRUE,TRUE,,,,,,BR,FEW,300,,,,,,,IFR,,,,,,,,,,,,SPECI,2177.0
KLRD 120527Z 20004KT 8SM CLR 16/15 A2997 RMK AO2,KLRD,2019-01-12T05:27:00Z,27.55,-99.47,16.0,15.0,200,4,,8.0,29.970472,,,,TRUE,,,,,,,CLR,,,,,,,,VFR,,,,,,,,,,,,SPECI,155.0
KGUC 120527Z AUTO 34004KT 7SM -SN BKN008 OVC028 M06/M07 A3013 RMK AO2 P0000 FZRANO,KGUC,2019-01-12T05:27:00Z,38.52,-106.92,-6.0,-7.0,340,4,,7.0,30.129921,,,TRUE,TRUE,,,,TRUE,,-SN,BKN,800,OVC,2800,,,,,IFR,,,,,,0.005,,,,,,SPECI,2339.0
KBKX 120527Z AUTO 04007KT 3SM BR OVC004 M08/M09 A3021 RMK AO2 FZRANO,KBKX,2019-01-12T05:27:00Z,44.28,-96.82,-8.0,-9.0,40,7,,3.0,30.209646,,,TRUE,TRUE,,,,TRUE,,BR,OVC,400,,,,,,,LIFR,,,,,,,,,,,,SPECI,502.0
KIAB 120527Z AUTO 05007KT 10SM -SN OVC004 01/01 A2994 RMK AO2 RAE26SNB26 SLP151 CHINO RWY19 $,KIAB,2019-01-12T05:27:00Z,37.62,-97.27,1.0,1.0,50,7,,10.0,29.940945,1015.1,,TRUE,TRUE,TRUE,,,,,-SN,OVC,400,,,,,,,LIFR,,,,,,,,,,,,SPECI,418.0
KFTK 120526Z AUTO 08007KT 2 3/4SM -SN BR OVC004 M01/M01 A3027 RMK AO2 SLP261 $,KFTK,2019-01-12T05:26:00Z,37.88,-85.97,-1.0,-1.0,80,7,,2.75,30.268702,1026.1,,TRUE,TRUE,TRUE,,,,,-SN BR,OVC,400,,,,,,,LIFR,,,,,,,,,,,,SPECI,230.0
KXNA 120526Z AUTO 13011KT 6SM -RA BR SCT006 OVC017 03/01 A2997 RMK AO2 RAB0456SNE0456 P0005 T00280006,KXNA,2019-01-12T05:26:00Z,36.28,-94.3,2.8,0.6,130,11,,6.0,29.970472,,,TRUE,TRUE,,,,,,-RA BR,SCT,600,OVC,1700,,,,,MVFR,,,,,,0.05,,,,,,SPECI,392.0
KPNC 120526Z AUTO 08011KT 6SM -RA BR FEW008 OVC016 03/02 A2991 RMK AO2 P0003 T00280017,KPNC,2019-01-12T05:26:00Z,36.73,-97.1,2.8,1.7,80,11,,6.0,29.911417,,,TRUE,TRUE,,,,,,-RA BR,FEW,800,OVC,1600,,,,,MVFR,,,,,,0.03,,,,,,SPECI,308.0
KLOU 120526Z 08006KT 2SM -SN FEW006 OVC026 00/M03 A3030 RMK AO2 P0002 T00001028,KLOU,2019-01-12T05:26:00Z,38.22,-85.67,0.0,-2.8,80,6,,2.0,30.301182,,,,TRUE,,,,,,-SN,FEW,600,OVC,2600,,,,,IFR,,,,,,0.02,,,,,,SPECI,164.0
KLAA 120526Z AUTO 01009KT 10SM BKN015 OVC055 02/00 A3005 RMK AO2 T00170000,KLAA,2019-01-12T05:26:00Z,38.07,-102.68,1.7,0.0,10,9,,10.0,30.050198,,,TRUE,TRUE,,,,,,,BKN,1500,OVC,5500,,,,,MVFR,,,,,,,,,,,,SPECI,1119.0
KIXD 120526Z AUTO 07006KT 1 1/4SM -SN BR BKN003 OVC009 00/00 A3003 RMK AO2 P0003 T00000000,KIXD,2019-01-12T05:26:00Z,38.82,-94.88,0.0,0.0,70,6,,1.25,30.029528,,,TRUE,TRUE,,,,,,-SN BR,BKN,300,OVC,900,,,,,LIFR,,,,,,0.03,,,,,,SPECI,342.0
KHUT 120526Z AUTO 03008KT 1 1/4SM -SN BR BKN004 OVC012 01/01 A2996 RMK AO2 P0003 T00060006,KHUT,2019-01-12T05:26:00Z,38.07,-97.87,0.6,0.6,30,8,,1.25,29.958662,,,TRUE,TRUE,,,,,,-SN BR,BKN,400,OVC,1200,,,,,LIFR,,,,,,0.03,,,,,,SPECI,467.0
KTCM 120526Z 00000KT 1 5/8SM R34/2000V3000FT BR CLR 04/04 A2994 RMK SLP145 $,KTCM,2019-01-12T05:26:00Z,47.12,-122.47,4.0,4.0,0,0,,1.63,29.940945,1014.5,,,,TRUE,,,,,BR,CLR,,,,,,,,IFR,,,,,,,,,,,,SPECI,98.0
ETEB 120526Z AUTO 25009KT 9000 -SN BR OVC004 00/00 A3014 RMK AO2 SNE07UPB07E08RAB08E10SNB10 SLP248 $,ETEB,2019-01-12T05:26:00Z,49.32,10.62,0.0,0.0,250,9,,5.59,30.138779,1024.8,,TRUE,TRUE,TRUE,,,,,-SN BR,OVC,400,,,,,,,LIFR,,,,,,,,,,,,SPECI,467.0
EGUL 120526Z AUTO 24014KT 9999 FEW027 07/04 A3016 RMK AO2 SLP217 $,EGUL,2019-01-12T05:26:00Z,52.42,0.57,7.0,4.0,240,14,,6.21,30.159449,1021.7,,TRUE,TRUE,TRUE,,,,,,FEW,2700,,,,,,,VFR,,,,,,,,,,,,SPECI,10.0
KATT 120526Z AUTO 00000KT 1/4SM FG VV004 13/12 A2997 RMK AO2 T01330122,KATT,2019-01-12T05:26:00Z,30.32,-97.77,13.3,12.2,0,0,,0.25,29.970472,,,TRUE,TRUE,,,,,,FG,OVX,0,,,,,,,LIFR,,,,,,,,,,,400,SPECI,201.0
KROX 120526Z AUTO 06009KT 10SM OVC011 M08/M10 A3037 RMK AO2,KROX,2019-01-12T05:26:00Z,48.85,-95.7,-8.0,-10.0,60,9,,10.0,30.369095,,,TRUE,TRUE,,,,,,,OVC,1100,,,,,,,MVFR,,,,,,,,,,,,SPECI,323.0
CYKJ 120526Z AUTO 19014KT 9SM CLR M15/M17 A2998 RMK SLP206,CYKJ,2019-01-12T05:26:00Z,57.25,-105.62,-15.0,-17.0,190,14,,9.0,29.97933,1020.6,,TRUE,,,,,,,,CLR,,,,,,,,VFR,,,,,,,,,,,,SPECI,509.0
EKSP 120526Z 27014KT 9999 BKN008 06/05 Q1010,EKSP,2019-01-12T05:26:00Z,55.22,9.27,6.0,5.0,270,14,,6.21,29.822834,,,,,,,,,,,BKN,800,,,,,,,IFR,,,,,,,,,,,,SPECI,40.0
CYPD 120526Z AUTO 26010G15KT 9SM -SN BKN022 OVC027 M08/M12 A2990 RMK SLP133,CYPD,2019-01-12T05:26:00Z,45.67,-61.37,-8.0,-12.0,260,10,15,9.0,29.899607,1013.3,,TRUE,,,,,,,-SN,BKN,2200,OVC,2700,,,,,MVFR,,,,,,,,,,,,SPECI,114.0
EKKA 120526Z AUTO 26008KT 9999NDV BKN012/// BKN025/// 05/03 Q1008,EKKA,2019-01-12T05:26:00Z,56.3,9.12,5.0,3.0,260,8,,,29.763779,,,TRUE,,,,,,,,BKN,1200,BKN,2500,,,,,,,,,,,,,,,,,SPECI,52.0
RODN 120526Z AUTO 33015KT 10SM SCT022 BKN028 BKN037 23/17 A3001 RMK AO2 DZB06E16 SLP168 $,RODN,2019-01-12T05:26:00Z,26.35,127.77,23.0,17.0,330,15,,10.0,30.008858,1016.8,,TRUE,TRUE,TRUE,,,,,,SCT,2200,BKN,2800,BKN,3700,,,MVFR,,,,,,,,,,,,METAR,45.0
KTIK 120526Z 17010G19KT 10SM OVC004 06/06 A2982 RMK AO2A RAE17 CIG 003 RWY13 SLPNO ALSTG ESTMD $,KTIK,2019-01-12T05:26:00Z,35.42,-97.37,6.0,6.0,170,10,19,10.0,29.819881,,,,TRUE,TRUE,,,,,,OVC,400,,,,,,,LIFR,,,,,,,,,,,,SPECI,394.0
EHSC 120525Z AUTO 26024KT 9999 ///////// 08/05 Q1022 W07/H16,EHSC,2019-01-12T05:25:00Z,51.93,3.67,8.0,5.0,260,24,,6.21,30.177166,,,TRUE,,,,,,,,,,,,,,,,,,,,,,,,,,,,METAR,50.0
EHSA 120525Z AUTO 24024KT 9999 ///////// 09/05 Q1022 W06/H17,EHSA,2019-01-12T05:25:00Z,52.0,3.28,9.0,5.0,240,24,,6.21,30.177166,,,TRUE,,,,,,,,,,,,,,,,,,,,,,,,,,,,METAR,50.0
EHQE 120525Z AUTO 22025KT 9999 BKN033 OVC037 08/05 Q1019 W///H///,EHQE,2019-01-12T05:25:00Z,52.92,4.15,8.0,5.0,220,25,,6.21,30.088583,,,TRUE,,,,,,,,BKN,3300,OVC,3700,,,,,VFR,,,,,,,,,,,,METAR,50.0
EHPG 120525Z AUTO 26026KT 200V320 9999 BKN030 OVC034 08/05 Q1020 W///H///,EHPG,2019-01-12T05:25:00Z,52.37,3.35,8.0,5.0,260,26,,6.21,30.11811,,,TRUE,,,,,,,,BKN,3000,OVC,3400,,,,,MVFR,,,,,,,,,,,,METAR,50.0
EHMG 120525Z AUTO 25023KT 9999 OVC030 08/06 Q1017 W///H///,EHMG,2019-01-12T05:25:00Z,53.62,4.97,8.0,6.0,250,23,,6.21,30.029528,,,TRUE,,,,,,,,OVC,3000,,,,,,,MVFR,,,,,,,,,,,,METAR,50.0
EHMA 120525Z AUTO 25018KT 9999 FEW028 OVC032 07/04 Q1017 W///H///,EHMA,2019-01-12T05:25:00Z,53.5,5.95,7.0,4.0,250,18,,6.21,30.029528,,,TRUE,,,,,,,,FEW,2800,OVC,3200,,,,,VFR,,,,,,,,,,,,METAR,50.0
EHKV 120525Z AUTO 26028KT 9999 FEW024 OVC030 08/06 Q1019 W///H///,EHKV,2019-01-12T05:25:00Z,53.27,3.63,8.0,6.0,260,28,,6.21,30.088583,,,TRUE,,,,,,,,FEW,2400,OVC,3000,,,,,MVFR,,,,,,,,,,,,METAR,50.0
EHJR 120525Z AUTO 26027KT //// // ///////// 08/06 Q1018 RE// W///H18,EHJR,2019-01-12T05:25:00Z,53.22,3.22,8.0,6.0,260,27,,,30.059055,,,TRUE,,,,,,,,,,,,,,,,,,,,,,,,,,,,METAR,50.0
EHJA 120525Z AUTO 25031KT 9999 BKN021/// BKN026/// OVC030/// 08/06 Q1016 W///H///,EHJA,2019-01-12T05:25:00Z,53.82,2.95,8.0,6.0,250,31,,6.21,30.0,,,TRUE,,,,,,,,BKN,2100,BKN,2600,OVC,3000,,,MVFR,,,,,,,,,,,,METAR,50.0
EHHW 120525Z AUTO 27021KT //// // FEW015/// SCT023/// BKN027/// 08/05 Q1015 RE// W///H///,EHHW,2019-01-12T05:25:00Z,54.03,6.03,8.0,5.0,270,21,,,29.970472,,,TRUE,,,,,,,,FEW,1500,SCT,2300,BKN,2700,,,,,,,,,,,,,,,METAR,0.0
EHFZ 120525Z AUTO 25021KT //// // FEW009 SCT019 BKN024 08/07 Q1015 W///H///,EHFZ,2019-01-12T05:25:00Z,54.12,4.02,8.0,7.0,250,21,,,29.970472,,,TRUE,,,,,,,,FEW,900,SCT,1900,BKN,2400,,,,,,,,,,,,,,,METAR,50.0
EHFD 120525Z AUTO 26027KT //// // FEW008/// SCT011/// BKN020/// 08/06 Q1012 RE// W///H///,EHFD,2019-01-12T05:25:00Z,54.85,4.7,8.0,6.0,260,27,,,29.88189,,,TRUE,,,,,,,,FEW,800,SCT,1100,BKN,2000,,,,,,,,,,,,,,,METAR,50.0
EHDV 120525Z AUTO 26025KT 9999 SCT023/// BKN026/// BKN034/// 09/06 Q1015 W///H///,EHDV,2019-01-12T05:25:00Z,54.32,2.93,9.0,6.0,260,25,,6.21,29.970472,,,TRUE,,,,,,,,SCT,2300,BKN,2600,BKN,3400,,,MVFR,,,,,,,,,,,,METAR,50.0
EHAK 120525Z AUTO 25028KT 4300 BR FEW006/// SCT010/// BKN012/// 07/06 Q1012 W///H///,EHAK,2019-01-12T05:25:00Z,55.42,3.82,7.0,6.0,250,28,,2.67,29.88189,,,TRUE,,,,,,,BR,FEW,600,SCT,1000,BKN,1200,,,IFR,,,,,,,,,,,,METAR,50.0
ETOU 120525Z AUTO 27009KT 9999 -RA BKN017 OVC023 05/02 A3019 RMK AO2 RAE0459RAB05 CIG 017V025 BKN V SCT SLP231 FZRANO $,ETOU,2019-01-12T05:25:00Z,50.03,8.32,5.0,2.0,270,9,,6.21,30.188976,1023.1,,TRUE,TRUE,TRUE,,,TRUE,,-RA,BKN,1700,OVC,2300,,,,,MVFR,,,,,,,,,,,,SPECI,141.0
EHKD 120525Z AUTO 26014KT 230V290 9999 FEW016 OVC035 08/06 Q1019 BLU 26015KT 9999 FEW016 OVC035,EHKD,2019-01-12T05:25:00Z,52.92,4.77,8.0,6.0,260,14,,6.21,30.088583,,,TRUE,,,,,,,,FEW,1600,OVC,3500,FEW,1600,OVC,3500,VFR,,,,,,,,,,,,METAR,14.0
EHEH 120525Z AUTO 24010KT 200V270 9999 BKN031 OVC037 06/05 Q1022 BLU 24010KT 9999 FEW015 BKN030,EHEH,2019-01-12T05:25:00Z,51.45,5.38,6.0,5.0,240,10,,6.21,30.177166,,,TRUE,,,,,,,,BKN,3100,OVC,3700,FEW,1500,BKN,3000,VFR,,,,,,,,,,,,METAR,22.0
KTVC 120525Z AUTO VRB03KT 5SM BR FEW008 OVC016 M05/M07 A3038 RMK AO2 I1000 T10501067,KTVC,2019-01-12T05:25:00Z,44.73,-85.57,-5.0,-6.7,0,3,,5.0,30.380905,,,TRUE,TRUE,,,,,,BR,FEW,800,OVC,1600,,,,,MVFR,,,,,,,,,,,,SPECI,190.0
KTTA 120525Z AUTO 00000KT 10SM CLR M02/M04 A3041 RMK AO2 T10201036,KTTA,2019-01-12T05:25:00Z,35.58,-79.1,-2.0,-3.6,0,0,,10.0,30.410433,,,TRUE,TRUE,,,,,,,CLR,,,,,,,,VFR,,,,,,,,,,,,METAR,75.0
KMWK 120525Z AUTO 00000KT 10SM CLR 02/M07 A3039 RMK AO2 T00221075,KMWK,2019-01-12T05:25:00Z,36.47,-80.55,2.2,-7.5,0,0,,10.0,30.389763,,,TRUE,TRUE,,,,,,,CLR,,,,,,,,VFR,,,,,,,,,,,,METAR,380.0
KLWD 120525Z AUTO 07007KT 1SM -SN BR SCT004 OVC008 M01/M02 A3011 RMK AO2 P0004 T10111022,KLWD,2019-01-12T05:25:00Z,40.63,-93.9,-1.1,-2.2,70,7,,1.0,30.109253,,,TRUE,TRUE,,,,,,-SN BR,SCT,400,OVC,800,,,,,IFR,,,,,,0.04,,,,,,METAR,346.0
KHSI 120525Z AUTO 02010KT 2SM -SN BR OVC035 00/M02 A3010 RMK AO2 SNB10 P0000 T00001022,KHSI,2019-01-12T05:25:00Z,40.6,-98.43,0.0,-2.2,20,10,,2.0,30.100393,,,TRUE,TRUE,,,,,,-SN BR,OVC,3500,,,,,,,IFR,,,,,,0.005,,,,,,METAR,591.0
KHNZ 120525Z AUTO 00000KT 10SM CLR M03/M09 A3041 RMK AO2 T10291090,KHNZ,2019-01-12T05:25:00Z,36.37,-78.53,-2.9,-9.0,0,0,,10.0,30.410433,,,TRUE,TRUE,,,,,,,CLR,,,,,,,,VFR,,,,,,,,,,,,METAR,161.0
KEHO 120525Z AUTO 00000KT 10SM OVC110 01/M03 A3037 RMK AO2 T00091030,KEHO,2019-01-12T05:25:00Z,35.25,-81.6,0.9,-3.0,0,0,,10.0,30.369095,,,TRUE,TRUE,,,,,,,OVC,11000,,,,,,,VFR,,,,,,,,,,,,METAR,258.0
EHRD 120525Z AUTO 25011KT 210V270 9999 OVC032 07/04 Q1022 NOSIG,EHRD,2019-01-12T05:25:00Z,51.95,4.45,7.0,4.0,250,11,,6.21,30.177166,,,TRUE,,,TRUE,,,,,OVC,3200,,,,,,,VFR,,,,,,,,,,,,METAR,-5.0
EHGG 120525Z AUTO 25010KT 9999 FEW026 BKN032 OVC036 06/04 Q1018 NOSIG,EHGG,2019-01-12T05:25:00Z,53.12,6.57,6.0,4.0,250,10,,6.21,30.059055,,,TRUE,,,TRUE,,,,,FEW,2600,BKN,3200,OVC,3600,,,VFR,,,,,,,,,,,,METAR,4.0
EHBK 120525Z AUTO 25007KT 210V290 9999 FEW007 OVC032 05/04 Q1023 NOSIG,EHBK,2019-01-12T05:25:00Z,50.92,5.77,5.0,4.0,250,7,,6.21,30.206694,,,TRUE,,,TRUE,,,,,FEW,700,OVC,3200,,,,,VFR,,,,,,,,,,,,METAR,116.0
EHAM 120525Z 25012KT 9999 FEW035 BKN038 07/05 Q1020 NOSIG,EHAM,2019-01-12T05:25:00Z,52.32,4.78,7.0,5.0,250,12,,6.21,30.11811,,,,,,TRUE,,,,,FEW,3500,BKN,3800,,,,,VFR,,,,,,,,,,,,METAR,9.0
EHWO 120525Z AUTO 25011KT 9999 OVC030 06/03 Q1023 BLU,EHWO,2019-01-12T05:25:00Z,51.45,4.32,6.0,3.0,250,11,,6.21,30.206694,,,TRUE,,,,,,,,OVC,3000,,,,,,,MVFR,,,,,,,,,,,,METAR,17.0
EHVL 120525Z AUTO 26021KT 9000 BR FEW014 OVC034 07/06 Q1018 BLU,EHVL,2019-01-12T05:25:00Z,53.23,4.92,7.0,6.0,260,21,,5.59,30.059055,,,TRUE,,,,,,,BR,FEW,1400,OVC,3400,,,,,VFR,,,,,,,,,,,,METAR,5.0
EHVK 120525Z AUTO 26008KT 9999 OVC032 06/05 Q1022 BLU,EHVK,2019-01-12T05:25:00Z,51.63,5.7,6.0,5.0,260,8,,6.21,30.177166,,,TRUE,,,,,,,,OVC,3200,,,,,,,VFR,,,,,,,,,,,,METAR,21.0
EHLW 120525Z AUTO 25012KT 210V270 9999 BKN032 OVC036 07/04 Q1018 BLU,EHLW,2019-01-12T05:25:00Z,53.22,5.75,7.0,4.0,250,12,,6.21,30.059055,,,TRUE,,,,,,,,BKN,3200,OVC,3600,,,,,VFR,,,,,,,,,,,,METAR,2.0
EHGR 120525Z AUTO 25006KT 9999 OVC032 06/04 Q1022 BLU,EHGR,2019-01-12T05:25:00Z,51.57,4.92,6.0,4.0,250,6,,6.21,30.177166,,,TRUE,,,,,,,,OVC,3200,,,,,,,VFR,,,,,,,,,,,,METAR,13.0
EHDL 120525Z AUTO 24009KT 200V280 9999 BKN028 OVC031 06/05 Q1021 BLU,EHDL,2019-01-12T05:25:00Z,52.07,5.87,6.0,5.0,240,9,,6.21,30.147638,,,TRUE,,,,,,,,BKN,2800,OVC,3100,,,,,MVFR,,,,,,,,,,,,METAR,52.0
EHFS 120525Z AUTO 26019KT 9999 OVC031/// 07/05 Q1023 W///H///,EHFS,2019-01-12T05:25:00Z,51.45,3.6,7.0,5.0,260,19,,6.21,30.206694,,,TRUE,,,,,,,,OVC,3100,,,,,,,VFR,,,,,,,,,,,,METAR,32.0
EBLB 120525Z AUTO 28007KT 9999 -DZ OVC006/// 02/01 Q1022 YLO,EBLB,2019-01-12T05:25:00Z,50.47,6.17,2.0,1.0,280,7,,6.21,30.177166,,,TRUE,,,,,,,-DZ,OVC,600,,,,,,,IFR,,,,,,,,,,,,METAR,570.0
EBFS 120525Z AUTO 26010KT 6000 FEW007/// SCT010/// BKN019/// 04/03 Q1025 GRN,EBFS,2019-01-12T05:25:00Z,50.22,4.65,4.0,3.0,260,10,,3.73,30.265747,,,TRUE,,,,,,,,FEW,700,SCT,1000,BKN,1900,,,MVFR,,,,,,,,,,,,METAR,299.0
EBFN 120525Z AUTO 23008KT 8000 /// 06/04 Q1025 BLU,EBFN,2019-01-12T05:25:00Z,51.07,2.63,6.0,4.0,230,8,,4.97,30.265747,,,TRUE,,,,,,,,,,,,,,,,,,,,,,,,,,,,SPECI,9.0
EBDT 120525Z AUTO 25006KT 5000 FEW007/// OVC034/// 06/05 Q1024 WHT,EBDT,2019-01-12T05:25:00Z,51.02,5.07,6.0,5.0,250,6,,3.11,30.236221,,,TRUE,,,,,,,,FEW,700,OVC,3400,,,,,MVFR,,,,,,,,,,,,METAR,54.0
EBCV 120525Z AUTO 26007KT 8000 OVC024/// 06/03 Q1026 WHT,EBCV,2019-01-12T05:25:00Z,50.57,3.82,6.0,3.0,260,7,,4.97,30.295275,,,TRUE,,,,,,,,OVC,2400,,,,,,,MVFR,,,,,,,,,,,,METAR,63.0
EBBL 120525Z AUTO 25010KT 9999 OVC034/// 06/04 Q1023 BLU,EBBL,2019-01-12T05:25:00Z,51.17,5.47,6.0,4.0,250,10,,6.21,30.206694,,,TRUE,,,,,,,,OVC,3400,,,,,,,VFR,,,,,,,,,,,,METAR,64.0
EBBE 120525Z AUTO 26010KT 4500 BR SCT006/// BKN008/// OVC011/// 05/04 Q1024 YLO,EBBE,2019-01-12T05:25:00Z,50.75,4.77,5.0,4.0,260,10,,2.8,30.236221,,,TRUE,,,,,,,BR,SCT,600,BKN,800,OVC,1100,,,IFR,,,,,,,,,,,,METAR,127.0
KC99 120525Z AUTO 34006KT 3/4SM OVC003 M10/M11 A3012 RMK AO2 P0002,KC99,2019-01-12T05:25:00Z,29.87,-105.55,-10.0,-11.0,340,6,,0.75,30.121063,,,TRUE,TRUE,,,,,,,OVC,300,,,,,,,LIFR,,,,,,0.02,,,,,,METAR,3320.0
CZCP 120524Z AUTO 07036G43KT ////SM //// FEW018 OVC026 M26/M29 A2992,CZCP,2019-01-12T05:24:00Z,70.17,-124.72,-26.0,-29.0,70,36,43,,29.920275,,,TRUE,,,,,,,,FEW,1800,OVC,2600,,,,,,,,,,,,,,,,,SPECI,93.0
KVBG 120524Z AUTO 14011G17KT 3SM -RA BR FEW017 OVC049 12/11 A2991 RMK AO2 SLP131,KVBG,2019-01-12T05:24:00Z,34.73,-120.58,12.0,11.0,140,11,17,3.0,29.911417,1013.1,,TRUE,TRUE,,,,,,-RA BR,FEW,1700,OVC,4900,,,,,MVFR,,,,,,,,,,,,SPECI,112.0
KDLF 120524Z AUTO 08005KT 1/8SM R13/1000FT -DZ FG VV001 13/13 A2998 RMK AO2 DZB24 CIG 000 RWY31 SLPNO $,KDLF,2019-01-12T05:24:00Z,29.37,-100.77,13.0,13.0,80,5,,0.13,29.97933,,,TRUE,TRUE,TRUE,,,,,-DZ FG,OVX,0,,,,,,,LIFR,,,,,,,,,,,100,SPECI,330.0
FAEL 120524Z 23016KT CAVOK 21/12 Q1010,FAEL,2019-01-12T05:24:00Z,-33.02,27.82,21.0,12.0,230,16,,6.21,29.822834,,,,,,,,,,,CAVOK,,,,,,,,VFR,,,,,,,,,,,,SPECI,125.0
KUNO 120524Z AUTO 10006KT 5SM -FZRA BR OVC004 00/M01 A3011 RMK AO2 UPB12E18FZRAB18 P0000 I1001 T00001006,KUNO,2019-01-12T05:24:00Z,36.88,-91.9,0.0,-0.6,100,6,,5.0,30.109253,,,TRUE,TRUE,,,,,,-FZRA BR,OVC,400,,,,,,,LIFR,,,,,,0.005,,,,,,METAR,372.0
KSLG 120524Z AUTO 14010KT 9SM RA FEW007 OVC012 03/02 A2997 RMK AO2 P0004,KSLG,2019-01-12T05:24:00Z,36.2,-94.47,3.0,2.0,140,10,,9.0,29.970472,,,TRUE,TRUE,,,,,,RA,FEW,700,OVC,1200,,,,,MVFR,,,,,,0.04,,,,,,SPECI,300.0
KMNH 120524Z AUTO 33012G16KT 2 1/2SM -SN BKN002 OVC008 M02/M03 A3014 RMK AO2,KMNH,2019-01-12T05:24:00Z,39.22,-104.65,-2.0,-3.0,330,12,16,2.5,30.138779,,,TRUE,TRUE,,,,,,-SN,BKN,200,OVC,800,,,,,LIFR,,,,,,,,,,,,METAR,2152.0
CYYD 120523Z AUTO 00000KT 3/4SM -RA BR OVC006 01/01 A2974 RMK SLP089,CYYD,2019-01-12T05:23:00Z,54.82,-127.18,1.0,1.0,0,0,,0.75,29.740158,1008.9,,TRUE,,,,,,,-RA BR,OVC,600,,,,,,,LIFR,,,,,,,,,,,,SPECI,523.0
PPIT 120523Z AUTO 04021G28KT 2 1/2SM HZ CLR M31/M33 A2976 RMK AO2 PK WND 04028/0519 FZRANO TSNO,PPIT,2019-01-12T05:23:00Z,60.9,-162.43,-31.0,-33.0,40,21,28,2.5,29.760826,,,TRUE,TRUE,,,TRUE,TRUE,,HZ,CLR,,,,,,,,IFR,,,,,,,,,,,,SPECI,4.0
KCGS 120523Z AUTO 00000KT 10SM CLR M04/M08 A3045 RMK AO1 T10411076,KCGS,2019-01-12T05:23:00Z,38.98,-76.92,-4.1,-7.6,0,0,,10.0,30.448818,,,TRUE,TRUE,,,,,,,CLR,,,,,,,,VFR,,,,,,,,,,,,SPECI,15.0
K2W6 120523Z AUTO 00000KT 10SM CLR M02/M07 A3046 RMK AO1,K2W6,2019-01-12T05:23:00Z,38.32,-76.55,-2.0,-7.0,0,0,,10.0,30.46063,,,TRUE,TRUE,,,,,,,CLR,,,,,,,,VFR,,,,,,,,,,,,SPECI,44.0
KUIN 120523Z AUTO 11010KT 3/4SM -SN BR VV013 M02/M03 A3020 RMK AO2 P0001 T10171033,KUIN,2019-01-12T05:23:00Z,39.95,-91.2,-1.7,-3.3,110,10,,0.75,30.200787,,,TRUE,TRUE,,,,,,-SN BR,OVX,0,,,,,,,LIFR,,,,,,0.01,,,,,1300,SPECI,234.0
KPPF 120523Z AUTO VRB03KT 7SM -RA BKN008 BKN014 OVC033 03/03 A2998 RMK AO2 P0001 T00280028,KPPF,2019-01-12T05:23:00Z,37.33,-95.5,2.8,2.8,0,3,,7.0,29.97933,,,TRUE,TRUE,,,,,,-RA,BKN,800,BKN,1400,OVC,3300,,,IFR,,,,,,0.01,,,,,,SPECI,274.0
KARG 120522Z AUTO 09006KT 8SM SCT007 OVC060 01/01 A3013 RMK AO2 FZRANO,KARG,2019-01-12T05:22:00Z,36.12,-90.92,1.0,1.0,90,6,,8.0,30.129921,,,TRUE,TRUE,,,,TRUE,,,SCT,700,OVC,6000,,,,,VFR,,,,,,,,,,,,SPECI,83.0
KHRO 120522Z AUTO 11010KT 6SM -RA BR BKN004 OVC055 01/M01 A3005 RMK AO2 P0001 T00061006,KHRO,2019-01-12T05:22:00Z,36.27,-93.15,0.6,-0.6,110,10,,6.0,30.050198,,,TRUE,TRUE,,,,,,-RA BR,BKN,400,OVC,5500,,,,,LIFR,,,,,,0.01,,,,,,SPECI,417.0
KMYL 120522Z AUTO 00000KT 3SM BR OVC001 M10/M12 A3017 RMK AO2 T11001117,KMYL,2019-01-12T05:22:00Z,44.9,-116.1,-10.0,-11.7,0,0,,3.0,30.171259,,,TRUE,TRUE,,,,,,BR,OVC,100,,,,,,,LIFR,,,,,,,,,,,,SPECI,1533.0
KOVE 120522Z AUTO 00000KT 2 1/2SM BR FEW002 08/07 A2993 RMK AO2 T00780072,KOVE,2019-01-12T05:22:00Z,39.5,-121.62,7.8,7.2,0,0,,2.5,29.929134,,,TRUE,TRUE,,,,,,BR,FEW,200,,,,,,,IFR,,,,,,,,,,,,SPECI,58.0
KSSF 120522Z AUTO 00000KT 3SM BR OVC003 16/14 A2995 RMK AO2 T01560139,KSSF,2019-01-12T05:22:00Z,29.33,-98.47,15.6,13.9,0,0,,3.0,29.949802,,,TRUE,TRUE,,,,,,BR,OVC,300,,,,,,,LIFR,,,,,,,,,,,,SPECI,176.0
PHSF 120522Z AUTO 00000KT 5/8SM -SHRA FG FEW003 SCT050 12/12 A3031 RMK AO2 SHRAE02SHRAB02 SLP176 WND DATA ESTMD PWINO $,PHSF,2019-01-12T05:22:00Z,19.77,-155.55,12.0,12.0,0,0,,0.63,30.31004,1017.6,,TRUE,TRUE,TRUE,,,,TRUE,-SHRA FG,FEW,300,SCT,5000,,,,,LIFR,,,,,,,,,,,,METAR,1887.0
KOFF 120522Z 02005KT 2 1/4SM -SN BR SCT002 BKN007 OVC014 00/00 A3011 RMK AO2A CIG 002V007 SLP210 $,KOFF,2019-01-12T05:22:00Z,41.12,-95.92,0.0,0.0,20,5,,2.25,30.109253,1021.0,,,TRUE,TRUE,,,,,-SN BR,SCT,200,BKN,700,OVC,1400,,,IFR,,,,,,,,,,,,SPECI,319.0
KEHR 120521Z AUTO 09007KT 1 3/4SM -SN BR BKN005 OVC023 M01/M01 A3026 RMK AO2 CIG 003V009 P0001 FZRANO,KEHR,2019-01-12T05:21:00Z,37.82,-87.67,-1.0,-1.0,90,7,,1.75,30.259842,,,TRUE,TRUE,,,,TRUE,,-SN BR,BKN,500,OVC,2300,,,,,IFR,,,,,,0.01,,,,,,SPECI,117.0
KFME 120521Z AUTO 00000KT 10SM CLR M05/M07 A3048 RMK AO1,KFME,2019-01-12T05:21:00Z,39.08,-76.77,-5.0,-7.0,0,0,,10.0,30.481298,,,TRUE,TRUE,,,,,,,CLR,,,,,,,,VFR,,,,,,,,,,,,METAR,46.0
KMTN 120521Z AUTO 00000KT 10SM CLR M03/M07 A3048 RMK AO2,KMTN,2019-01-12T05:21:00Z,39.32,-76.42,-3.0,-7.0,0,0,,10.0,30.481298,,,TRUE,TRUE,,,,,,,CLR,,,,,,,,VFR,,,,,,,,,,,,SPECI,7.0
KTBN 120521Z AUTO 00000KT 7SM OVC006 00/00 A3008 RMK AO2 UPE21 CIG 005 RWY32 SLP199 $,KTBN,2019-01-12T05:21:00Z,37.72,-92.12,0.0,0.0,0,0,,7.0,30.079725,1019.9,,TRUE,TRUE,TRUE,,,,,,OVC,600,,,,,,,IFR,,,,,,,,,,,,SPECI,353.0
PAKF 120520Z AUTO 01009KT 8SM -RA SCT007 BKN017 OVC031 01/M01 A2920 RMK AO2 UPE03RAB20SNB03E20 P0000 FZRANO,PAKF,2019-01-12T05:20:00Z,54.85,-163.42,1.0,-1.0,10,9,,8.0,29.199802,,,TRUE,TRUE,,,,TRUE,,-RA,SCT,700,BKN,1700,OVC,3100,,,MVFR,,,,,,0.005,,,,,,SPECI,6.0
PAFS 120520Z AUTO 00000KT 4SM HZ CLR M44/ A2987 RMK AO2 FZRANO,PAFS,2019-01-12T05:20:00Z,63.02,-154.35,-44.0,,0,0,,4.0,29.870079,,,TRUE,TRUE,,,,TRUE,,HZ,CLR,,,,,,,,MVFR,,,,,,,,,,,,METAR,126.0
ESUT 120520Z AUTO 33015KT 9999 FZUP NCD M03/M07 Q0992 RESN RESG,ESUT,2019-01-12T05:20:00Z,65.8,15.08,-3.0,-7.0,330,15,,6.21,29.291338,,,TRUE,,,,,,,SG UP,CLR,,,,,,,,VFR,,,,,,,,,,,,METAR,463.0
LSZC 120520Z AUTO 20002KT 6000 FEW046 M01/M01 Q1027 RESN,LSZC,2019-01-12T05:20:00Z,46.97,8.38,-1.0,-1.0,200,2,,3.73,30.324802,,,TRUE,,,,,,,,FEW,4600,,,,,,,MVFR,,,,,,,,,,,,METAR,450.0
LSZS 120520Z AUTO VRB02KT CAVOK M13/M14 Q1019 RESN,LSZS,2019-01-12T05:20:00Z,46.53,9.88,-13.0,-14.0,0,2,,6.21,30.088583,,,TRUE,,,,,,,,CAVOK,,,,,,,,VFR,,,,,,,,,,,,METAR,1706.0
LSZR 120520Z AUTO 13001KT 1000 R10/0800U SN VV006 M01/M01 Q1026 REFZDZ,LSZR,2019-01-12T05:20:00Z,47.48,9.57,-1.0,-1.0,130,1,,0.62,30.295275,,,TRUE,,,,,,,SN,OVX,0,,,,,,,LIFR,,,,,,,,,,,600,METAR,398.0
LSZG 120520Z AUTO 27001KT 3800 -SN BKN/// M00/M00 Q1027 REFZDZ,LSZG,2019-01-12T05:20:00Z,47.17,7.42,0.0,0.0,270,1,,2.36,30.324802,,,TRUE,,,,,,,-SN,,,,,,,,,,,,,,,,,,,,,METAR,430.0
LSGS 120520Z AUTO 00000KT CAVOK M03/M07 Q1028,LSGS,2019-01-12T05:20:00Z,46.22,7.32,-3.0,-7.0,0,0,,6.21,30.35433,,,TRUE,,,,,,,,CAVOK,,,,,,,,VFR,,,,,,,,,,,,METAR,481.0
LSGC 120520Z AUTO 23002KT 2600 BR OVC003 M03/M03 Q1024,LSGC,2019-01-12T05:20:00Z,47.08,6.8,-3.0,-3.0,230,2,,1.62,30.236221,,,TRUE,,,,,,,BR,OVC,300,,,,,,,LIFR,,,,,,,,,,,,METAR,1027.0
LSZH 120520Z 15002KT 6000 BR FEW004 BKN011 BKN018 M00/M01 Q1026 R88/29//// TEMPO 2000 SN BKN006,LSZH,2019-01-12T05:20:00Z,47.48,8.53,0.0,-1.0,150,2,,3.73,30.295275,,,,,,,,,,BR,FEW,400,BKN,1100,BKN,1800,,,MVFR,,,,,,,,,,,,METAR,432.0
LSZA 120520Z VRB01KT CAVOK M02/M07 Q1018 NOSIG,LSZA,2019-01-12T05:20:00Z,46.0,8.92,-2.0,-7.0,0,1,,6.21,30.059055,,,,,,TRUE,,,,,CAVOK,,,,,,,,VFR,,,,,,,,,,,,METAR,276.0
LSZB 120520Z 11004KT 6000 FEW015 BKN027 M01/M01 Q1026 NOSIG,LSZB,2019-01-12T05:20:00Z,46.92,7.5,-1.0,-1.0,110,4,,3.73,30.295275,,,,,,TRUE,,,,,FEW,1500,BKN,2700,,,,,MVFR,,,,,,,,,,,,METAR,505.0
LSGG 120520Z VRB01KT 9999 FEW007 BKN060 00/M02 Q1027 TEMPO BKN006,LSGG,2019-01-12T05:20:00Z,46.25,6.12,0.0,-2.0,0,1,,6.21,30.324802,,,,,,,,,,,FEW,700,BKN,6000,,,,,VFR,,,,,,,,,,,,METAR,416.0
PANN 120520Z AUTO 00000KT 1 1/2SM BR CLR M41/ A2996 RMK AO2 T1411 TSNO,PANN,2019-01-12T05:20:00Z,64.55,-149.08,-41.1,,0,0,,1.5,29.958662,,,TRUE,TRUE,,,TRUE,,,BR,CLR,,,,,,,,IFR,,,,,,,,,,,,SPECI,110.0
KTWF 120520Z AUTO 08006KT 3SM BR OVC002 M01/M02 A3023 RMK AO2 T10111017,KTWF,2019-01-12T05:20:00Z,42.48,-114.48,-1.1,-1.7,80,6,,3.0,30.230314,,,TRUE,TRUE,,,,,,BR,OVC,200,,,,,,,LIFR,,,,,,,,,,,,SPECI,1266.0
KLBX 120520Z AUTO 13008KT 10SM SCT027 OVC043 17/15 A2995 RMK AO2 T01720150,KLBX,2019-01-12T05:20:00Z,29.12,-95.47,17.2,15.0,130,8,,10.0,29.949802,,,TRUE,TRUE,,,,,,,SCT,2700,OVC,4300,,,,,VFR,,,,,,,,,,,,SPECI,6.0
KHEI 120520Z AUTO 03005KT 9SM OVC015 M11/M13 A3027 RMK AO2 T11111133,KHEI,2019-01-12T05:20:00Z,46.02,-102.65,-11.1,-13.3,30,5,,9.0,30.268702,,,TRUE,TRUE,,,,,,,OVC,1500,,,,,,,MVFR,,,,,,,,,,,,SPECI,828.0
KFSM 120520Z AUTO 08009KT 3SM -RA BR BKN005 OVC030 03/02 A3002 RMK AO2 P0004 T00330017,KFSM,2019-01-12T05:20:00Z,35.33,-94.37,3.3,1.7,80,9,,3.0,30.02067,,,TRUE,TRUE,,,,,,-RA BR,BKN,500,OVC,3000,,,,,IFR,,,,,,0.04,,,,,,SPECI,140.0
KEDJ 120520Z AUTO 14004KT 10SM CLR M04/M08 A3033 RMK AO1,KEDJ,2019-01-12T05:20:00Z,40.37,-83.82,-4.0,-8.0,140,4,,10.0,30.33071,,,TRUE,TRUE,,,,,,,CLR,,,,,,,,VFR,,,,,,,,,,,,METAR,342.0
PKWA 120520Z AUTO 08010KT 10SM SCT016 29/25 A2973 RMK AO2 T02930251,PKWA,2019-01-12T05:20:00Z,8.72,167.72,29.3,25.1,80,10,,10.0,29.731298,,,TRUE,TRUE,,,,,,,SCT,1600,,,,,,,VFR,,,,,,,,,,,,SPECI,8.0
EFIV 120520Z AUTO VRB06KT 9999 -SN FEW013 BKN066 M01/M03 Q0974,EFIV,2019-01-12T05:20:00Z,68.62,27.42,-1.0,-3.0,0,6,,6.21,28.759842,,,TRUE,,,,,,,-SN,FEW,1300,BKN,6600,,,,,VFR,,,,,,,,,,,,METAR,148.0
EFMA 120520Z AUTO 33010KT 300V360 CAVOK 02/M03 Q0997,EFMA,2019-01-12T05:20:00Z,60.12,19.88,2.0,-3.0,330,10,,6.21,29.438976,,,TRUE,,,,,,,,CAVOK,,,,,,,,VFR,,,,,,,,,,,,METAR,6.0
EFRO 120520Z AUTO 31016KT CAVOK M04/M07 Q0978,EFRO,2019-01-12T05:20:00Z,66.57,25.82,-4.0,-7.0,310,16,,6.21,28.877953,,,TRUE,,,,,,,,CAVOK,,,,,,,,VFR,,,,,,,,,,,,METAR,201.0
EFOU 120520Z AUTO 31025KT 9999 SCT070/// BKN086/// M01/M07 Q0982,EFOU,2019-01-12T05:20:00Z,64.92,25.37,-1.0,-7.0,310,25,,6.21,28.996063,,,TRUE,,,,,,,,SCT,7000,BKN,8600,,,,,VFR,,,,,,,,,,,,METAR,15.0
EFVA 120520Z AUTO 29011KT CAVOK 00/M05 Q0991,EFVA,2019-01-12T05:20:00Z,63.03,21.77,0.0,-5.0,290,11,,6.21,29.26181,,,TRUE,,,,,,,,CAVOK,,,,,,,,VFR,,,,,,,,,,,,METAR,4.0
EFTU 120520Z AUTO 31007KT 270V340 CAVOK 01/M03 Q0994,EFTU,2019-01-12T05:20:00Z,60.52,22.27,1.0,-3.0,310,7,,6.21,29.350393,,,TRUE,,,,,,,,CAVOK,,,,,,,,VFR,,,,,,,,,,,,METAR,59.0
EFTP 120520Z AUTO 27009KT CAVOK M02/M05 Q0991,EFTP,2019-01-12T05:20:00Z,61.42,23.62,-2.0,-5.0,270,9,,6.21,29.26181,,,TRUE,,,,,,,,CAVOK,,,,,,,,VFR,,,,,,,,,,,,METAR,112.0
EFHK 120520Z 28009KT CAVOK M01/M04 Q0991 NOSIG,EFHK,2019-01-12T05:20:00Z,60.32,24.97,-1.0,-4.0,280,9,,6.21,29.26181,,,,,,TRUE,,,,,CAVOK,,,,,,,,VFR,,,,,,,,,,,,METAR,56.0
KECS 120520Z AUTO 33004KT 10SM CLR M03/M06 A3019 RMK AO2,KECS,2019-01-12T05:20:00Z,43.88,-104.32,-3.0,-6.0,330,4,,10.0,30.188976,,,TRUE,TRUE,,,,,,,CLR,,,,,,,,VFR,,,,,,,,,,,,SPECI,1273.0
KRHP 120520Z AUTO 00000KT 10SM OVC090 04/00 A3029 RMK AO2 T00421001,KRHP,2019-01-12T05:20:00Z,35.18,-83.85,4.2,-0.1,0,0,,10.0,30.28937,,,TRUE,TRUE,,,,,,,OVC,9000,,,,,,,VFR,,,,,,,,,,,,SPECI,518.0
KOCW 120520Z AUTO 00000KT 10SM CLR M04/M06 A3045 RMK AO2 T10411062,KOCW,2019-01-12T05:20:00Z,35.57,-77.05,-4.1,-6.2,0,0,,10.0,30.448818,,,TRUE,TRUE,,,,,,,CLR,,,,,,,,VFR,,,,,,,,,,,,SPECI,12.0
KMDS 120520Z AUTO 04011KT 5SM BR M09/M09 A3020 RMK AO2,KMDS,2019-01-12T05:20:00Z,44.02,-97.08,-9.0,-9.0,40,11,,5.0,30.200787,,,TRUE,TRUE,,,,,,BR,,,,,,,,,,,,,,,,,,,,,METAR,524.0
KLHZ 120520Z AUTO 10SM CLR M03/M07 A3045 RMK AO2,KLHZ,2019-01-12T05:20:00Z,36.02,-78.33,-3.0,-7.0,,,,10.0,30.448818,,,TRUE,TRUE,,,,,,,CLR,,,,,,,,VFR,,,,,,,,,,,,SPECI,113.0
KGWW 120520Z AUTO 00000KT 10SM CLR M04/M04 A3043 RMK AO2 T10371045,KGWW,2019-01-12T05:20:00Z,35.47,-77.97,-3.7,-4.5,0,0,,10.0,30.431103,,,TRUE,TRUE,,,,,,,CLR,,,,,,,,VFR,,,,,,,,,,,,SPECI,41.0
K24A 120520Z AUTO 15006KT 10SM OVC080 03/M06 A3027 RMK AO2 T00301061,K24A,2019-01-12T05:20:00Z,35.32,-83.2,3.0,-6.1,150,6,,10.0,30.268702,,,TRUE,TRUE,,,,,,,OVC,8000,,,,,,,VFR,,,,,,,,,,,,SPECI,871.0
ESTL 120520Z AUTO 24005KT 210V270 9999 FEW004/// SCT005/// BKN007/// 01/01 Q1007,ESTL,2019-01-12T05:20:00Z,56.07,13.2,1.0,1.0,240,5,,6.21,29.734253,,,TRUE,,,,,,,,FEW,400,SCT,500,BKN,700,,,IFR,,,,,,,,,,,,METAR,43.0
ESTA 120520Z AUTO VRB03KT 3800 BR FEW002/// OVC009/// M00/M01 Q1007,ESTA,2019-01-12T05:20:00Z,56.28,12.83,0.0,-1.0,0,3,,2.36,29.734253,,,TRUE,,,,,,,BR,FEW,200,OVC,900,,,,,IFR,,,,,,,,,,,,METAR,47.0
ESMX 120520Z AUTO 17003KT 9999 NCD M05/M05 Q1005,ESMX,2019-01-12T05:20:00Z,56.92,14.72,-5.0,-5.0,170,3,,6.21,29.675198,,,TRUE,,,,,,,,CLR,,,,,,,,VFR,,,,,,,,,,,,METAR,186.0
ESMT 120520Z AUTO 20005KT 7000 BR OVC006/// 01/01 Q1006,ESMT,2019-01-12T05:20:00Z,56.67,12.82,1.0,1.0,200,5,,4.35,29.704725,,,TRUE,,,,,,,BR,OVC,600,,,,,,,IFR,,,,,,,,,,,,METAR,30.0
ESMS 120520Z 25005KT 0450 R17/P1500N R35/1400N FG BKN002 OVC003 01/01 Q1008 R17/19//95,ESMS,2019-01-12T05:20:00Z,55.53,13.37,1.0,1.0,250,5,,0.28,29.763779,,,,,,,,,,FG,BKN,200,OVC,300,,,,,LIFR,,,,,,,,,,,,METAR,106.0
ESMQ 120520Z AUTO 26005KT 9999 NCD M01/M05 Q1006,ESMQ,2019-01-12T05:20:00Z,56.68,16.3,-1.0,-5.0,260,5,,6.21,29.704725,,,TRUE,,,,,,,,CLR,,,,,,,,VFR,,,,,,,,,,,,METAR,16.0
ESMK 120520Z AUTO 24002KT 9999 NCD M04/// Q1007,ESMK,2019-01-12T05:20:00Z,55.92,14.07,,,240,2,,6.21,29.734253,,,TRUE,,,,,,,,CLR,,,,,,,,VFR,,,,,,,,,,,,METAR,23.0
ESGT 120520Z AUTO 17004KT 9999 OVC002/// M05/M06 Q1005,ESGT,2019-01-12T05:20:00Z,58.32,12.33,-5.0,-6.0,170,4,,6.21,29.675198,,,TRUE,,,,,,,,OVC,200,,,,,,,LIFR,,,,,,,,,,,,METAR,41.0
ESGJ 120520Z AUTO 12002KT 9999 NCD M05/M06 Q1004,ESGJ,2019-01-12T05:20:00Z,57.77,14.07,-5.0,-6.0,120,2,,6.21,29.64567,,,TRUE,,,,,,,,CLR,,,,,,,,VFR,,,,,,,,,,,,METAR,232.0
ESGG 120520Z 17005KT 0100 R03/0450N R21/0375N FZFG VV002 M01/M02 Q1004 R21/19//95,ESGG,2019-01-12T05:20:00Z,57.67,12.3,-1.0,-2.0,170,5,,0.06,29.64567,,,,,,,,,,FZFG,OVX,0,,,,,,,LIFR,,,,,,,,,,,200,METAR,169.0
EKBI 120520Z 28010KT 8000 -DZ OVC005 05/05 Q1009,EKBI,2019-01-12T05:20:00Z,55.72,9.15,5.0,5.0,280,10,,4.97,29.793306,,,,,,,,,,-DZ,OVC,500,,,,,,,IFR,,,,,,,,,,,,METAR,66.0
EKRK 120520Z AUTO 27007KT 9999NDV OVC021/// 01/00 Q1008 R99/790299,EKRK,2019-01-12T05:20:00Z,55.57,12.12,1.0,0.0,270,7,,0.19,29.763779,,,TRUE,,,,,,,,OVC,2100,,,,,,,LIFR,,,,,,,,,,,,METAR,44.0
EKAH 120520Z AUTO 27009KT 9999NDV BKN013/// 03/02 Q1008,EKAH,2019-01-12T05:20:00Z,56.28,10.62,3.0,2.0,270,9,,,29.763779,,,TRUE,,,,,,,,BKN,1300,,,,,,,,,,,,,,,,,,,METAR,25.0
EKYT 120520Z AUTO 28011KT 9999 FEW020/// 04/02 Q1006,EKYT,2019-01-12T05:20:00Z,57.1,9.87,4.0,2.0,280,11,,6.21,29.704725,,,TRUE,,,,,,,,FEW,2000,,,,,,,VFR,,,,,,,,,,,,METAR,3.0
EKEB 120520Z AUTO 27015KT 9999 OVC007/// 06/05 Q1010,EKEB,2019-01-12T05:20:00Z,55.52,8.55,6.0,5.0,270,15,,6.21,29.822834,,,TRUE,,,,,,,,OVC,700,,,,,,,IFR,,,,,,,,,,,,METAR,29.0
KUKF 120520Z AUTO 06003KT 10SM OVC110 01/M07 A3041 RMK AO2,KUKF,2019-01-12T05:20:00Z,36.22,-81.1,1.0,-7.0,60,3,,10.0,30.410433,,,TRUE,TRUE,,,,,,,OVC,11000,,,,,,,VFR,,,,,,,,,,,,SPECI,396.0
EDDB 120520Z 28010KT 9999 BKN031 04/02 Q1014 R25/29//95 TEMPO BKN013,EDDB,2019-01-12T05:20:00Z,52.38,13.53,4.0,2.0,280,10,,6.21,29.940945,,,,,,,,,,,BKN,3100,,,,,,,VFR,,,,,,,,,,,,METAR,48.0
EDDE 120520Z 26005KT 6000 -RADZ FEW002 BKN006 02/02 Q1017 R88/220395 TEMPO 3500 -RADZ BKN004,EDDE,2019-01-12T05:20:00Z,50.98,10.97,2.0,2.0,260,5,,3.73,30.029528,,,,,,,,,,-RA -DZ,FEW,200,BKN,600,,,,,IFR,,,,,,,,,,,,METAR,323.0
EDDC 120520Z 28007KT 250V320 8000 -SNRA SCT008 BKN012 02/02 Q1015 R04/590194 BECMG SCT011,EDDC,2019-01-12T05:20:00Z,51.13,13.75,2.0,2.0,280,7,,4.97,29.970472,,,,,,,,,,-SN -RA,SCT,800,BKN,1200,,,,,MVFR,,,,,,,,,,,,METAR,226.0
EDDG 120520Z 26009KT 9999 FEW009 BKN012 BKN027 06/05 Q1020 BECMG SCT012,EDDG,2019-01-12T05:20:00Z,52.13,7.7,6.0,5.0,260,9,,6.21,30.11811,,,,,,,,,,,FEW,900,BKN,1200,BKN,2700,,,MVFR,,,,,,,,,,,,METAR,52.0
EDDP 120520Z 28013KT 9999 SCT024 OVC033 05/02 Q1016 NOSIG,EDDP,2019-01-12T05:20:00Z,51.43,12.23,5.0,2.0,280,13,,6.21,30.0,,,,,,TRUE,,,,,SCT,2400,OVC,3300,,,,,VFR,,,,,,,,,,,,METAR,149.0
EDDR 120520Z 26006KT 2500 BR SCT001 BKN002 03/03 Q1024 BECMG 3000,EDDR,2019-01-12T05:20:00Z,49.22,7.1,3.0,3.0,260,6,,1.55,30.236221,,,,,,,,,,BR,SCT,100,BKN,200,,,,,LIFR,,,,,,,,,,,,METAR,320.0
EDDW 120520Z 26012KT 9999 BKN009 BKN013 06/05 Q1016 TEMPO SCT008,EDDW,2019-01-12T05:20:00Z,53.03,8.8,6.0,5.0,260,12,,6.21,30.0,,,,,,,,,,,BKN,900,BKN,1300,,,,,IFR,,,,,,,,,,,,SPECI,5.0
EDDF 120520Z 19008KT 6000 -RA FEW002 BKN021 03/03 Q1022 R88/290095 NOSIG,EDDF,2019-01-12T05:20:00Z,50.05,8.6,3.0,3.0,190,8,,3.73,30.177166,,,,,,TRUE,,,,-RA,FEW,200,BKN,2100,,,,,MVFR,,,,,,,,,,,,SPECI,113.0
EDDH 120520Z 28014KT 8000 -DZ FEW006 BKN008 06/05 Q1014 TEMPO 4000,EDDH,2019-01-12T05:20:00Z,53.63,10.0,6.0,5.0,280,14,,4.97,29.940945,,,,,,,,,,-DZ,FEW,600,BKN,800,,,,,IFR,,,,,,,,,,,,METAR,16.0
EDDK 120520Z 28010KT 9000 -DZ FEW004 BKN007 06/04 Q1022 NOSIG,EDDK,2019-01-12T05:20:00Z,50.87,7.15,6.0,4.0,280,10,,5.59,30.177166,,,,,,TRUE,,,,-DZ,FEW,400,BKN,700,,,,,IFR,,,,,,,,,,,,METAR,99.0
EDDL 120520Z 26009KT 9999 -DZ SCT007 BKN035 06/05 Q1022 TEMPO BKN007,EDDL,2019-01-12T05:20:00Z,51.3,6.77,6.0,5.0,260,9,,6.21,30.177166,,,,,,,,,,-DZ,SCT,700,BKN,3500,,,,,VFR,,,,,,,,,,,,SPECI,44.0
EDDM 120520Z 25016KT 9999 -SN BKN012 00/M01 Q1021 R26R/290095 NOSIG,EDDM,2019-01-12T05:20:00Z,48.35,11.82,0.0,-1.0,250,16,,6.21,30.147638,,,,,,TRUE,,,,-SN,BKN,1200,,,,,,,MVFR,,,,,,,,,,,,SPECI,447.0
EDDN 120520Z 25007KT 8000 BKN006 01/01 Q1020 R28/29//94 NOSIG,EDDN,2019-01-12T05:20:00Z,49.5,11.08,1.0,1.0,250,7,,4.97,30.11811,,,,,,TRUE,,,,,BKN,600,,,,,,,IFR,,,,,,,,,,,,SPECI,312.0
EDDS 120520Z 25007KT 9999 BKN016 01/M00 Q1023 NOSIG,EDDS,2019-01-12T05:20:00Z,48.67,9.22,1.0,0.0,250,7,,6.21,30.206694,,,,,,TRUE,,,,,BKN,1600,,,,,,,MVFR,,,,,,,,,,,,METAR,419.0
EDDT 120520Z 27009KT 9999 FEW020 BKN028 04/02 Q1013 TEMPO BKN014,EDDT,2019-01-12T05:20:00Z,52.57,13.32,4.0,2.0,270,9,,6.21,29.911417,,,,,,,,,,,FEW,2000,BKN,2800,,,,,MVFR,,,,,,,,,,,,METAR,37.0
EDDV 120520Z 27011KT 6000 -DZ FEW006 BKN008 06/05 Q1016 TEMPO 4000,EDDV,2019-01-12T05:20:00Z,52.47,9.68,6.0,5.0,270,11,,3.73,30.0,,,,,,,,,,-DZ,FEW,600,BKN,800,,,,,IFR,,,,,,,,,,,,METAR,54.0
EFJY 120520Z AUTO 29011KT CAVOK M03/M05 Q0986,EFJY,2019-01-12T05:20:00Z,62.4,25.68,-3.0,-5.0,290,11,,6.21,29.114174,,,TRUE,,,,,,,,CAVOK,,,,,,,,VFR,,,,,,,,,,,,METAR,145.0
EFKU 120520Z AUTO 27013KT CAVOK M02/M06 Q0983,EFKU,2019-01-12T05:20:00Z,63.02,27.8,-2.0,-6.0,270,13,,6.21,29.02559,,,TRUE,,,,,,,,CAVOK,,,,,,,,VFR,,,,,,,,,,,,METAR,102.0
EFHA 120520Z AUTO 28011KT CAVOK M03/M05 Q0989,EFHA,2019-01-12T05:20:00Z,61.85,24.8,-3.0,-5.0,280,11,,6.21,29.202755,,,TRUE,,,,,,,,CAVOK,,,,,,,,VFR,,,,,,,,,,,,METAR,145.0
EFKK 120520Z AUTO 28009KT 250V320 CAVOK M00/M06 Q0988,EFKK,2019-01-12T05:20:00Z,63.72,23.13,0.0,-6.0,280,9,,6.21,29.17323,,,TRUE,,,,,,,,CAVOK,,,,,,,,VFR,,,,,,,,,,,,METAR,25.0
EFPO 120520Z AUTO 31010KT CAVOK 02/M03 Q0993,EFPO,2019-01-12T05:20:00Z,61.47,21.8,2.0,-3.0,310,10,,6.21,29.320866,,,TRUE,,,,,,,,CAVOK,,,,,,,,VFR,,,,,,,,,,,,METAR,17.0
EFJO 120520Z AUTO 27009KT 240V310 CAVOK M03/M05 Q0981,EFJO,2019-01-12T05:20:00Z,62.67,29.62,-3.0,-5.0,270,9,,6.21,28.966536,,,TRUE,,,,,,,,CAVOK,,,,,,,,VFR,,,,,,,,,,,,METAR,117.0
EFLP 120520Z AUTO 27007KT 240V300 CAVOK M02/M04 Q0986,EFLP,2019-01-12T05:20:00Z,61.07,28.13,-2.0,-4.0,270,7,,6.21,29.114174,,,TRUE,,,,,,,,CAVOK,,,,,,,,VFR,,,,,,,,,,,,METAR,106.0
EFMI 120520Z AUTO 27007KT CAVOK M04/M05 Q0987,EFMI,2019-01-12T05:20:00Z,61.68,27.2,-4.0,-5.0,270,7,,6.21,29.143702,,,TRUE,,,,,,,,CAVOK,,,,,,,,VFR,,,,,,,,,,,,METAR,138.0
EFSA 120520Z AUTO 27008KT 230V300 CAVOK M03/M05 Q0984,EFSA,2019-01-12T05:20:00Z,61.95,28.93,-3.0,-5.0,270,8,,6.21,29.055119,,,TRUE,,,,,,,,CAVOK,,,,,,,,VFR,,,,,,,,,,,,METAR,95.0
EFUT 120520Z AUTO 28007KT 240V340 CAVOK M02/M04 Q0988,EFUT,2019-01-12T05:20:00Z,60.88,26.92,-2.0,-4.0,280,7,,6.21,29.17323,,,TRUE,,,,,,,,CAVOK,,,,,,,,VFR,,,,,,,,,,,,METAR,100.0
EFSI 120520Z AUTO 28007KT CAVOK M02/M06 Q0990,EFSI,2019-01-12T05:20:00Z,62.7,22.83,-2.0,-6.0,280,7,,6.21,29.232283,,,TRUE,,,,,,,,CAVOK,,,,,,,,VFR,,,,,,,,,,,,METAR,91.0
EFET 120520Z AUTO 30016KT 9999 FEW023 BKN167 M03/M07 Q0979,EFET,2019-01-12T05:20:00Z,68.37,23.43,-3.0,-7.0,300,16,,6.21,28.90748,,,TRUE,,,,,,,,FEW,2300,BKN,16700,,,,,VFR,,,,,,,,,,,,METAR,306.0
EFKI 120520Z AUTO 29017KT 9999 -SN OVC041 M03/M07 Q0980,EFKI,2019-01-12T05:20:00Z,64.27,27.67,-3.0,-7.0,290,17,,6.21,28.937008,,,TRUE,,,,,,,-SN,OVC,4100,,,,,,,VFR,,,,,,,,,,,,METAR,136.0
EFKE 120520Z AUTO 32013KT 290V350 CAVOK M02/M09 Q0983,EFKE,2019-01-12T05:20:00Z,65.77,24.57,-2.0,-9.0,320,13,,6.21,29.02559,,,TRUE,,,,,,,,CAVOK,,,,,,,,VFR,,,,,,,,,,,,METAR,15.0
EFKS 120520Z 30022KT 9999 -SHSN OVC015 M03/M05 Q0972,EFKS,2019-01-12T05:20:00Z,66.0,29.23,-3.0,-5.0,300,22,,6.21,28.700787,,,,,,,,,,-SHSN,OVC,1500,,,,,,,MVFR,,,,,,,,,,,,METAR,263.0
EFKT 120520Z 32014KT CAVOK M02/M07 Q0978,EFKT,2019-01-12T05:20:00Z,67.7,24.85,-2.0,-7.0,320,14,,6.21,28.877953,,,,,,,,,,,CAVOK,,,,,,,,VFR,,,,,,,,,,,,METAR,643.0
CWZQ 120520Z AUTO 24021G27KT M07/M09 RMK AO1 T10701093,CWZQ,2019-01-12T05:20:00Z,46.53,-61.05,-7.0,-9.3,240,21,27,,,,,TRUE,TRUE,,,,,,,,,,,,,,,,,,,,,,,,,,,METAR,17.0
EGAC 120520Z AUTO 22005KT 180V270 9999 BKN015/// BKN022/// 08/07 Q1022,EGAC,2019-01-12T05:20:00Z,54.62,-5.87,8.0,7.0,220,5,,6.21,30.177166,,,TRUE,,,,,,,,BKN,1500,BKN,2200,,,,,MVFR,,,,,,,,,,,,METAR,5.0
EGAA 120520Z 27013KT 9999 BKN019 BKN024 08/06 Q1022,EGAA,2019-01-12T05:20:00Z,54.63,-6.22,8.0,6.0,270,13,,6.21,30.177166,,,,,,,,,,,BKN,1900,BKN,2400,,,,,MVFR,,,,,,,,,,,,METAR,81.0
EGFF 120520Z AUTO 28012KT 9999 -RA BKN007 OVC012 09/08 Q1027,EGFF,2019-01-12T05:20:00Z,51.38,-3.35,9.0,8.0,280,12,,6.21,30.324802,,,TRUE,,,,,,,-RA,BKN,700,OVC,1200,,,,,IFR,,,,,,,,,,,,METAR,67.0
EGGW 120520Z AUTO 25013KT 9999 BKN016 OVC020 07/05 Q1024,EGGW,2019-01-12T05:20:00Z,51.87,-0.37,7.0,5.0,250,13,,6.21,30.236221,,,TRUE,,,,,,,,BKN,1600,OVC,2000,,,,,MVFR,,,,,,,,,,,,METAR,160.0
EGLC 120520Z AUTO 25009KT 9999 BKN020 OVC024 08/04 Q1025,EGLC,2019-01-12T05:20:00Z,51.5,0.05,8.0,4.0,250,9,,6.21,30.265747,,,TRUE,,,,,,,,BKN,2000,OVC,2400,,,,,MVFR,,,,,,,,,,,,METAR,5.0
EGNM 120520Z 27016KT 6000 -RA FEW003 BKN006 08/07 Q1018,EGNM,2019-01-12T05:20:00Z,53.87,-1.63,8.0,7.0,270,16,,3.73,30.059055,,,,,,,,,,-RA,FEW,300,BKN,600,,,,,IFR,,,,,,,,,,,,METAR,208.0
EGNX 120520Z 24017KT 9999 BKN029 08/07 Q1022,EGNX,2019-01-12T05:20:00Z,52.82,-1.32,8.0,7.0,240,17,,6.21,30.177166,,,,,,,,,,,BKN,2900,,,,,,,MVFR,,,,,,,,,,,,METAR,94.0
EGBB 120520Z 26007KT 240V300 9999 SCT017 SCT025 09/06 Q1024,EGBB,2019-01-12T05:20:00Z,52.47,-1.75,9.0,6.0,260,7,,6.21,30.236221,,,,,,,,,,,SCT,1700,SCT,2500,,,,,VFR,,,,,,,,,,,,METAR,99.0
EGCC 120520Z AUTO 27016KT 3900 -DZ OVC007 09/07 Q1022 TEMPO DZ BKN004,EGCC,2019-01-12T05:20:00Z,53.35,-2.27,9.0,7.0,270,16,,2.42,30.177166,,,TRUE,,,,,,,-DZ,OVC,700,,,,,,,IFR,,,,,,,,,,,,METAR,78.0
EGLL 120520Z AUTO 27008KT 9999 OVC022 08/05 Q1026,EGLL,2019-01-12T05:20:00Z,51.48,-0.45,8.0,5.0,270,8,,6.21,30.295275,,,TRUE,,,,,,,,OVC,2200,,,,,,,MVFR,,,,,,,,,,,,METAR,24.0
EGKK 120520Z 23007KT 9999 BKN023 07/04 Q1026,EGKK,2019-01-12T05:20:00Z,51.13,-0.17,7.0,4.0,230,7,,6.21,30.295275,,,,,,,,,,,BKN,2300,,,,,,,MVFR,,,,,,,,,,,,METAR,62.0
EGPH 120520Z 26013G23KT 9999 SCT028 08/05 Q1016,EGPH,2019-01-12T05:20:00Z,55.95,-3.35,8.0,5.0,260,13,23,6.21,30.0,,,,,,,,,,,SCT,2800,,,,,,,VFR,,,,,,,,,,,,METAR,41.0
EGPF 120520Z AUTO 27016KT 9999 BKN027 09/05 Q1017,EGPF,2019-01-12T05:20:00Z,55.87,-4.42,9.0,5.0,270,16,,6.21,30.029528,,,TRUE,,,,,,,,BKN,2700,,,,,,,MVFR,,,,,,,,,,,,METAR,8.0
EGSS 120520Z AUTO 25008KT 9999 BKN015 OVC021 07/05 Q1024,EGSS,2019-01-12T05:20:00Z,51.88,0.22,7.0,5.0,250,8,,6.21,30.236221,,,TRUE,,,,,,,,BKN,1500,OVC,2100,,,,,MVFR,,,,,,,,,,,,METAR,106.0
EGPD 120520Z AUTO 27012KT 9999 SCT031 BKN043 07/03 Q1012 NOSIG,EGPD,2019-01-12T05:20:00Z,57.2,-2.22,7.0,3.0,270,12,,6.21,29.88189,,,TRUE,,,TRUE,,,,,SCT,3100,BKN,4300,,,,,VFR,,,,,,,,,,,,METAR,65.0
EGPA 120520Z AUTO 29019KT 9999 FEW016/// SCT028/// 07/06 Q1007,EGPA,2019-01-12T05:20:00Z,58.95,-2.88,7.0,6.0,290,19,,6.21,29.734253,,,TRUE,,,,,,,,FEW,1600,SCT,2800,,,,,VFR,,,,,,,,,,,,METAR,21.0
EGPC 120520Z AUTO 29024KT 9999 -RA FEW009/// SCT015/// BKN033/// 07/05 Q1009,EGPC,2019-01-12T05:20:00Z,58.45,-3.07,7.0,5.0,290,24,,6.21,29.793306,,,TRUE,,,,,,,-RA,FEW,900,SCT,1500,BKN,3300,,,VFR,,,,,,,,,,,,METAR,39.0
EGPL 120520Z AUTO 28019KT 9999 FEW042/// 08/07 Q1016,EGPL,2019-01-12T05:20:00Z,57.47,-7.37,8.0,7.0,280,19,,6.21,30.0,,,TRUE,,,,,,,,FEW,4200,,,,,,,VFR,,,,,,,,,,,,METAR,6.0
EGPM 120520Z AUTO 28021KT 9999 FEW005/// BKN021/// 07/05 Q1001 RERA,EGPM,2019-01-12T05:20:00Z,60.42,-1.3,7.0,5.0,280,21,,6.21,29.557087,,,TRUE,,,,,,,,FEW,500,BKN,2100,,,,,MVFR,,,,,,,,,,,,METAR,22.0
EGPO 120520Z 28018KT 9999 SCT019 BKN026 07/06 Q1013,EGPO,2019-01-12T05:20:00Z,58.22,-6.32,7.0,6.0,280,18,,6.21,29.911417,,,,,,,,,,,SCT,1900,BKN,2600,,,,,MVFR,,,,,,,,,,,,METAR,13.0
ESOE 120520Z AUTO 24007KT 9999 NCD M01/M07 Q1003,ESOE,2019-01-12T05:20:00Z,59.22,15.05,-1.0,-7.0,240,7,,6.21,29.616142,,,TRUE,,,,,,,,CLR,,,,,,,,VFR,,,,,,,,,,,,METAR,57.0
ESKN 120520Z 28007KT CAVOK M02/M06 Q1002 R26/710195,ESKN,2019-01-12T05:20:00Z,58.78,16.9,-2.0,-6.0,280,7,,6.21,29.586615,,,,,,,,,,,CAVOK,,,,,,,,VFR,,,,,,,,,,,,METAR,43.0
ESOK 120520Z VRB02KT CAVOK M03/M06 Q1003,ESOK,2019-01-12T05:20:00Z,59.45,13.33,-3.0,-6.0,0,2,,6.21,29.616142,,,,,,,,,,,CAVOK,,,,,,,,VFR,,,,,,,,,,,,METAR,107.0
ESOW 120520Z AUTO 28005KT 240V320 9999 NCD 00/M06 Q1001,ESOW,2019-01-12T05:20:00Z,59.57,16.62,0.0,-6.0,280,5,,6.21,29.557087,,,TRUE,,,,,,,,CLR,,,,,,,,VFR,,,,,,,,,,,,METAR,31.0
ESSA 120520Z 26007KT CAVOK M00/M05 Q1000 R01L/19//95 R08/19//95 R01R/19//95 NOSIG,ESSA,2019-01-12T05:20:00Z,59.63,17.93,0.0,-5.0,260,7,,6.21,29.52756,,,,,,TRUE,,,,,CAVOK,,,,,,,,VFR,,,,,,,,,,,,METAR,61.0
ESSB 120520Z AUTO 28006KT 9999 NCD M00/M05 Q1001,ESSB,2019-01-12T05:20:00Z,59.35,17.93,0.0,-5.0,280,6,,6.21,29.557087,,,TRUE,,,,,,,,CLR,,,,,,,,VFR,,,,,,,,,,,,METAR,11.0
ESSD 120520Z AUTO 29010KT 9999 NCD 00/M05 Q1001,ESSD,2019-01-12T05:20:00Z,60.42,15.5,0.0,-5.0,290,10,,6.21,29.557087,,,TRUE,,,,,,,,CLR,,,,,,,,VFR,,,,,,,,,,,,METAR,161.0
ESSV 120520Z AUTO 33013KT 9999 NCD 02/M03 Q1002,ESSV,2019-01-12T05:20:00Z,57.67,18.35,2.0,-3.0,330,13,,6.21,29.586615,,,TRUE,,,,,,,,CLR,,,,,,,,VFR,,,,,,,,,,,,METAR,47.0
ESSP 120520Z 26006KT CAVOK M02/M06 Q1003 R27/15//74,ESSP,2019-01-12T05:20:00Z,58.57,16.25,-2.0,-6.0,260,6,,6.21,29.616142,,,,,,,,,,,CAVOK,,,,,,,,VFR,,,,,,,,,,,,METAR,8.0
EGJB 120520Z 29013KT 9999 FEW012 BKN032 09/06 Q1030,EGJB,2019-01-12T05:20:00Z,49.42,-2.6,9.0,6.0,290,13,,6.21,30.413385,,,,,,,,,,,FEW,1200,BKN,3200,,,,,VFR,,,,,,,,,,,,METAR,102.0
EGJJ 120520Z AUTO 27013KT 9999 FEW036/// OVC041/// 09/06 Q1030,EGJJ,2019-01-12T05:20:00Z,49.22,-2.2,9.0,6.0,270,13,,6.21,30.413385,,,TRUE,,,,,,,,FEW,3600,OVC,4100,,,,,VFR,,,,,,,,,,,,METAR,84.0
ESCF 120520Z AUTO 25006KT 9999 NCD M01/M04 Q1004,ESCF,2019-01-12T05:20:00Z,58.38,15.52,-1.0,-4.0,250,6,,6.21,29.64567,,,TRUE,,,,,,,,CLR,,,,,,,,VFR,,,,,,,,,,,,METAR,117.0
ESDF 120520Z AUTO VRB01KT 9999 NCD M04/M05 Q1007,ESDF,2019-01-12T05:20:00Z,56.27,15.27,-4.0,-5.0,0,1,,6.21,29.734253,,,TRUE,,,,,,,,CLR,,,,,,,,VFR,,,,,,,,,,,,METAR,74.0
ESIB 120520Z AUTO 17002KT 9999 FEW150/// M05/M05 Q1004,ESIB,2019-01-12T05:20:00Z,58.42,12.68,-5.0,-5.0,170,2,,6.21,29.64567,,,TRUE,,,,,,,,FEW,15000,,,,,,,VFR,,,,,,,,,,,,METAR,74.0
ESPA 120520Z 32019KT CAVOK M01/M09 Q0987,ESPA,2019-01-12T05:20:00Z,65.53,22.12,-1.0,-9.0,320,19,,6.21,29.143702,,,,,,,,,,,CAVOK,,,,,,,,VFR,,,,,,,,,,,,METAR,34.0
ESPE 120520Z AUTO 29014KT 9999 NCD M03/M10 Q0988,ESPE,2019-01-12T05:20:00Z,65.88,20.15,-3.0,-10.0,290,14,,6.21,29.17323,,,TRUE,,,,,,,,CLR,,,,,,,,VFR,,,,,,,,,,,,METAR,182.0
ESSL 120520Z 25005KT 220V280 CAVOK M01/M04 Q1004 R29/19//95,ESSL,2019-01-12T05:20:00Z,58.38,15.67,-1.0,-4.0,250,5,,6.21,29.64567,,,,,,,,,,,CAVOK,,,,,,,,VFR,,,,,,,,,,,,METAR,52.0
ESIA 120520Z AUTO 27005KT 9999 BKN160/// M02/M06 Q1004,ESIA,2019-01-12T05:20:00Z,58.52,14.5,-2.0,-6.0,270,5,,6.21,29.64567,,,TRUE,,,,,,,,BKN,16000,,,,,,,VFR,,,,,,,,,,,,METAR,94.0
ESCM 120520Z AUTO 30009KT 9999 NCD M01/M05 Q1000,ESCM,2019-01-12T05:20:00Z,59.87,17.6,-1.0,-5.0,300,9,,6.21,29.52756,,,TRUE,,,,,,,,CLR,,,,,,,,VFR,,,,,,,,,,,,METAR,41.0
EGMD 120520Z AUTO 26010KT 9999 OVC036/// 07/04 Q1026,EGMD,2019-01-12T05:20:00Z,50.95,0.92,7.0,4.0,260,10,,6.21,30.295275,,,TRUE,,,,,,,,OVC,3600,,,,,,,VFR,,,,,,,,,,,,METAR,3.0
EGGD 120520Z AUTO 26016KT 9999 BKN002 OVC008 08/08 Q1027 RERA REDZ,EGGD,2019-01-12T05:20:00Z,51.37,-2.72,8.0,8.0,260,16,,6.21,30.324802,,,TRUE,,,,,,,,BKN,200,OVC,800,,,,,LIFR,,,,,,,,,,,,METAR,189.0
EGGP 120520Z 27020KT 8000 -RA BKN011 09/08 Q1022,EGGP,2019-01-12T05:20:00Z,53.32,-2.85,9.0,8.0,270,20,,4.97,30.177166,,,,,,,,,,-RA,BKN,1100,,,,,,,MVFR,,,,,,,,,,,,METAR,26.0
EGNT 120520Z 27012KT 9999 SCT015 08/06 Q1016,EGNT,2019-01-12T05:20:00Z,55.02,-1.7,8.0,6.0,270,12,,6.21,30.0,,,,,,,,,,,SCT,1500,,,,,,,VFR,,,,,,,,,,,,METAR,81.0
EGPB 120520Z AUTO 30024KT 9999 BKN012/// 08/06 Q1002 RERA,EGPB,2019-01-12T05:20:00Z,59.87,-1.3,8.0,6.0,300,24,,6.21,29.586615,,,TRUE,,,,,,,,BKN,1200,,,,,,,MVFR,,,,,,,,,,,,METAR,5.0
EGCK 120520Z AUTO 25014KT 9999 BKN012/// BKN024/// OVC041/// 09/08 Q1025,EGCK,2019-01-12T05:20:00Z,53.1,4.33,9.0,8.0,250,14,,6.21,30.265747,,,TRUE,,,,,,,,BKN,1200,BKN,2400,OVC,4100,,,MVFR,,,,,,,,,,,,METAR,0.0
EGCN 120520Z 22008KT 9999 FEW016 BKN022 09/08 Q1021,EGCN,2019-01-12T05:20:00Z,53.48,-1.0,9.0,8.0,220,8,,6.21,30.147638,,,,,,,,,,,FEW,1600,BKN,2200,,,,,MVFR,,,,,,,,,,,,METAR,17.0
EGSH 120520Z AUTO 24010KT 9999 BKN020/// 08/05 Q1021,EGSH,2019-01-12T05:20:00Z,52.68,1.28,8.0,5.0,240,10,,6.21,30.147638,,,TRUE,,,,,,,,BKN,2000,,,,,,,MVFR,,,,,,,,,,,,METAR,36.0
ESNG 120520Z AUTO 30018KT 9999 NCD M04/M11 Q0985,ESNG,2019-01-12T05:20:00Z,67.13,20.82,-4.0,-11.0,300,18,,6.21,29.084646,,,TRUE,,,,,,,,CLR,,,,,,,,VFR,,,,,,,,,,,,METAR,310.0
ESNK 120520Z AUTO 28013KT 9999 NCD 01/M05 Q0996,ESNK,2019-01-12T05:20:00Z,63.03,17.77,1.0,-5.0,280,13,,6.21,29.409449,,,TRUE,,,,,,,,CLR,,,,,,,,VFR,,,,,,,,,,,,METAR,19.0
ESNN 120520Z AUTO 29006KT 250V320 9999 NCD 01/M05 Q0998,ESNN,2019-01-12T05:20:00Z,62.52,17.43,1.0,-5.0,290,6,,6.21,29.468504,,,TRUE,,,,,,,,CLR,,,,,,,,VFR,,,,,,,,,,,,METAR,10.0
ESNO 120520Z AUTO 26010KT 9999 NCD M01/M06 Q0993,ESNO,2019-01-12T05:20:00Z,63.38,18.97,-1.0,-6.0,260,10,,6.21,29.320866,,,TRUE,,,,,,,,CLR,,,,,,,,VFR,,,,,,,,,,,,METAR,103.0
ESNQ 120520Z AUTO 32022KT 9999 NCD M04/M10 Q0984,ESNQ,2019-01-12T05:20:00Z,67.82,20.32,-4.0,-10.0,320,22,,6.21,29.055119,,,TRUE,,,,,,,,CLR,,,,,,,,VFR,,,,,,,,,,,,METAR,452.0
ESNS 120520Z AUTO 28013KT 9999 NCD M02/M08 Q0989,ESNS,2019-01-12T05:20:00Z,64.62,21.07,-2.0,-8.0,280,13,,6.21,29.202755,,,TRUE,,,,,,,,CLR,,,,,,,,VFR,,,,,,,,,,,,METAR,49.0
ESNU 120520Z 28010KT CAVOK M02/M06 Q0992 R14/72//60,ESNU,2019-01-12T05:20:00Z,63.78,20.27,-2.0,-6.0,280,10,,6.21,29.291338,,,,,,,,,,,CAVOK,,,,,,,,VFR,,,,,,,,,,,,METAR,14.0
ESNZ 120520Z AUTO 29012KT 9999 FEW017/// BKN059/// M02/M03 Q0997,ESNZ,2019-01-12T05:20:00Z,63.17,14.5,-2.0,-3.0,290,12,,6.21,29.438976,,,TRUE,,,,,,,,FEW,1700,BKN,5900,,,,,VFR,,,,,,,,,,,,METAR,370.0
EGNJ 120520Z AUTO 23015KT 2200 DZ BKN004/// BKN007/// OVC010/// 08/07 Q1020 RERA,EGNJ,2019-01-12T05:20:00Z,53.57,-0.35,8.0,7.0,230,15,,1.37,30.11811,,,TRUE,,,,,,,DZ,BKN,400,BKN,700,OVC,1000,,,LIFR,,,,,,,,,,,,METAR,31.0
VNKT 120520Z VRB02KT 2000 BR FEW015 13/08 Q1023 BECMG FM0550 3000 HZ,VNKT,2019-01-12T05:20:00Z,27.68,85.37,13.0,8.0,0,2,,1.24,30.206694,,,,,,,,,,BR,FEW,1500,,,,,,,IFR,,,,,,,,,,,,SPECI,1337.0
ESKM 120520Z AUTO 26007KT 9999 OVC120/// 00/M06 Q1001,ESKM,2019-01-12T05:20:00Z,60.97,14.52,0.0,-6.0,260,7,,6.21,29.557087,,,TRUE,,,,,,,,OVC,12000,,,,,,,VFR,,,,,,,,,,,,METAR,193.0
ESNV 120520Z AUTO 27006KT 9999 NCD M04/M07 Q0993,ESNV,2019-01-12T05:20:00Z,64.58,16.83,-4.0,-7.0,270,6,,6.21,29.320866,,,TRUE,,,,,,,,CLR,,,,,,,,VFR,,,,,,,,,,,,METAR,348.0
ESST 120520Z AUTO VRB02KT 9999 NCD M04/M05 Q1003,ESST,2019-01-12T05:20:00Z,60.15,12.98,-4.0,-5.0,0,2,,6.21,29.616142,,,TRUE,,,,,,,,CLR,,,,,,,,VFR,,,,,,,,,,,,METAR,120.0
ESUP 120520Z AUTO 30017KT 9999 NCD M04/M10 Q0982,ESUP,2019-01-12T05:20:00Z,67.25,23.07,-4.0,-10.0,300,17,,6.21,28.996063,,,TRUE,,,,,,,,CLR,,,,,,,,VFR,,,,,,,,,,,,METAR,165.0
ESND 120520Z AUTO 25005KT 9999 FEW014/// SCT032/// BKN048/// M01/M05 Q0999 RESN,ESND,2019-01-12T05:20:00Z,62.05,14.42,-1.0,-5.0,250,5,,6.21,29.498032,,,TRUE,,,,,,,,FEW,1400,SCT,3200,BKN,4800,,,VFR,,,,,,,,,,,,METAR,359.0
LOWL 120520Z 27012KT 9999 -SNRA FEW009 BKN012 01/M01 Q1020 R08/61//95 TEMPO SCT011 BKN016,LOWL,2019-01-12T05:20:00Z,48.22,14.18,1.0,-1.0,270,12,,6.21,30.11811,,,,,,,,,,-SN -RA,FEW,900,BKN,1200,,,,,MVFR,,,,,,,,,,,,SPECI,313.0
LOWW 120520Z 28018KT 9999 OVC050 02/M02 Q1015 R88/29//95 NOSIG,LOWW,2019-01-12T05:20:00Z,48.12,16.57,2.0,-2.0,280,18,,6.21,29.970472,,,,,,TRUE,,,,,OVC,5000,,,,,,,VFR,,,,,,,,,,,,SPECI,190.0
LOWS 120520Z 19004KT 150V260 9999 FEW017 BKN024 M02/M03 Q1022 R15/19//95 NOSIG,LOWS,2019-01-12T05:20:00Z,47.78,13.02,-2.0,-3.0,190,4,,6.21,30.177166,,,,,,TRUE,,,,,FEW,1700,BKN,2400,,,,,MVFR,,,,,,,,,,,,SPECI,430.0
LOWI 120520Z VRB02KT 8000 -SN FEW007 SCT012 BKN040 M03/M04 Q1023 R08/19//95 NOSIG,LOWI,2019-01-12T05:20:00Z,47.27,11.33,-3.0,-4.0,0,2,,4.97,30.206694,,,,,,TRUE,,,,-SN,FEW,700,SCT,1200,BKN,4000,,,MVFR,,,,,,,,,,,,SPECI,581.0
LOWG 120520Z AUTO VRB01KT 9999 FEW060 SCT150 BKN200 M04/M07 Q1015 R17/19//95 NOSIG,LOWG,2019-01-12T05:20:00Z,47.0,15.42,-4.0,-7.0,0,1,,6.21,29.970472,,,TRUE,,,TRUE,,,,,FEW,6000,SCT,15000,BKN,20000,,,VFR,,,,,,,,,,,,SPECI,347.0
LOWK 120520Z 30004KT CAVOK M04/M09 Q1017 R10L/19//95 NOSIG,LOWK,2019-01-12T05:20:00Z,46.65,14.32,-4.0,-9.0,300,4,,6.21,30.029528,,,,,,TRUE,,,,,CAVOK,,,,,,,,VFR,,,,,,,,,,,,SPECI,441.0
EGPE 120520Z 25014KT 9999 SCT024 07/04 Q1013,EGPE,2019-01-12T05:20:00Z,57.52,-4.03,7.0,4.0,250,14,,6.21,29.911417,,,,,,,,,,,SCT,2400,,,,,,,VFR,,,,,,,,,,,,METAR,9.0
ENLE 120520Z 25032KT 8000 BKN010 07/07 Q1008 W08/S5,ENLE,2019-01-12T05:20:00Z,56.53,3.22,7.0,7.0,250,32,,4.97,29.763779,,,,,,,,,,,BKN,1000,,,,,,,MVFR,,,,,,,,,,,,METAR,3.0
ENOA 120520Z 22019KT 9999 -RA OVC010 07/06 Q0999 W///S6,ENOA,2019-01-12T05:20:00Z,60.5,2.83,7.0,6.0,220,19,,6.21,29.498032,,,,,,,,,,-RA,OVC,1000,,,,,,,MVFR,,,,,,,,,,,,SPECI,5.0
ENSL 120520Z 29036KT 9999 -RA FEW015 SCT035 08/05 Q1004 W06/S5,ENSL,2019-01-12T05:20:00Z,58.37,1.9,8.0,5.0,290,36,,6.21,29.64567,,,,,,,,,,-RA,FEW,1500,SCT,3500,,,,,VFR,,,,,,,,,,,,METAR,50.0
ENFB 120520Z AUTO 25023KT 9999NDV -RA BKN016/// 07/06 Q0997 W///S6,ENFB,2019-01-12T05:20:00Z,61.2,1.83,7.0,6.0,250,23,,,29.438976,,,TRUE,,,,,,,-RA,BKN,1600,,,,,,,,,,,,,,,,,,,SPECI,10.0
ENSF 120520Z AUTO 25028KT //// OVC014/// 08/05 Q0997 W///S6,ENSF,2019-01-12T05:20:00Z,61.25,1.85,8.0,5.0,250,28,,,29.438976,,,TRUE,,,,,,,,OVC,1400,,,,,,,,,,,,,,,,,,,METAR,10.0
ENUN 120520Z AUTO 35015KT 330V040 9999NDV OVC038/// 01/M07 Q0999 W07/S/,ENUN,2019-01-12T05:20:00Z,,,1.0,-7.0,350,15,,,29.498032,,,TRUE,,,,,,,,OVC,3800,,,,,,,,,,,,,,,,,,,METAR,
ENHF 120520Z AUTO 36017G31KT 290V040 5000 -RASN SCT005/// BKN008/// OVC010/// 01/M00 Q0978 RMK WIND 1254FT 33047KT,ENHF,2019-01-12T05:20:00Z,70.67,23.67,1.0,0.0,360,17,31,3.11,28.877953,,,TRUE,,,,,,,-RA -SN,SCT,500,BKN,800,OVC,1000,,,IFR,,,,,,,,,,,,SPECI,81.0
ENBN 120520Z AUTO 34008KT 310V010 //// SCT018/// BKN038/// 02/M02 Q0998,ENBN,2019-01-12T05:20:00Z,65.47,12.22,2.0,-2.0,340,8,,,29.468504,,,TRUE,,,,,,,,SCT,1800,BKN,3800,,,,,,,,,,,,,,,,,SPECI,9.0
ENFL 120520Z AUTO 11015KT 9999NDV -DZ VV/// 03/M01 Q1001,ENFL,2019-01-12T05:20:00Z,61.57,5.02,3.0,-1.0,110,15,,,29.557087,,,TRUE,,,,,,,-DZ,OVX,0,,,,,,,LIFR,,,,,,,,,,,,SPECI,9.0
ENKB 120520Z AUTO 23004KT 200V260 9999 FEW019/// SCT029/// BKN041/// 02/M00 Q1001 RMK WIND 745FT 22010KT,ENKB,2019-01-12T05:20:00Z,63.12,7.82,2.0,0.0,230,4,,6.21,29.557087,,,TRUE,,,,,,,,FEW,1900,SCT,2900,BKN,4100,,,VFR,,,,,,,,,,,,SPECI,62.0
LTFM 120520Z 06012KT 9999 SCT010 BKN018 04/01 Q1016 RMK RWY17L 06013KT RWY34L 05012KT RWY16R 06013KT,LTFM,2019-01-12T05:20:00Z,41.27,28.75,4.0,1.0,60,12,,6.21,30.0,,,,,,,,,,,SCT,1000,BKN,1800,,,,,MVFR,,,,,,,,,,,,METAR,99.0
LTFJ 120520Z 03013KT 9999 -SHRA SCT009 BKN030 04/03 Q1014 NOSIG RMK RWY24 04011KT 010V070,LTFJ,2019-01-12T05:20:00Z,40.9,29.3,4.0,3.0,30,13,,6.21,29.940945,,,,,,TRUE,,,,-SHRA,SCT,900,BKN,3000,,,,,MVFR,,,,,,,,,,,,METAR,98.0
LTFE 120520Z 15009KT 9999 SCT035 BKN100 13/07 Q1011 NOSIG RMK RWY10 15010KT,LTFE,2019-01-12T05:20:00Z,37.25,27.67,13.0,7.0,150,9,,6.21,29.852362,,,,,,TRUE,,,,,SCT,3500,BKN,10000,,,,,VFR,,,,,,,,,,,,SPECI,6.0
LTFC 120520Z 34007KT 9999 SCT030 BKN100 02/01 Q1013 RMK RWY23 31006KT,LTFC,2019-01-12T05:20:00Z,37.87,30.38,2.0,1.0,340,7,,6.21,29.911417,,,,,,,,,,,SCT,3000,BKN,10000,,,,,VFR,,,,,,,,,,,,METAR,864.0
LTCS 120520Z 33005KT 9999 SCT030 BKN090 M01/M04 Q1021 RMK RWY22 33004KT,LTCS,2019-01-12T05:20:00Z,37.45,38.9,-1.0,-4.0,330,5,,6.21,30.147638,,,,,,,,,,,SCT,3000,BKN,9000,,,,,VFR,,,,,,,,,,,,METAR,825.0
LTCG 120520Z VRB02KT 9999 BKN100 10/04 Q1017 NOSIG RMK RWY29 VRB01KT,LTCG,2019-01-12T05:20:00Z,41.0,39.8,10.0,4.0,0,2,,6.21,30.029528,,,,,,TRUE,,,,,BKN,10000,,,,,,,VFR,,,,,,,,,,,,SPECI,30.0
LTBS 120520Z 16012KT 9999 SCT030 BKN090 15/07 Q1013 NOSIG RMK RWY19 15012KT,LTBS,2019-01-12T05:20:00Z,36.7,28.77,15.0,7.0,160,12,,6.21,29.911417,,,,,,TRUE,,,,,SCT,3000,BKN,9000,,,,,VFR,,,,,,,,,,,,SPECI,2.0
LTBJ 120520Z 16007KT 130V190 8000 TSRA SCT015CB BKN025 09/08 Q1011 BECMG -TSRA,LTBJ,2019-01-12T05:20:00Z,38.28,27.15,9.0,8.0,160,7,,4.97,29.852362,,,,,,,,,,TSRA,SCT,1500,BKN,2500,,,,,MVFR,,,,,,,,,,,,SPECI,120.0
LTBA 120520Z 04012KT 8000 -RA SCT008 OVC019 05/03 Q1015 NOSIG RMK RWY17L 05014KT 020V080 RWY05 02014KT RWY23 05014KT,LTBA,2019-01-12T05:20:00Z,40.97,28.82,5.0,3.0,40,12,,4.97,29.970472,,,,,,TRUE,,,,-RA,SCT,800,OVC,1900,,,,,MVFR,,,,,,,,,,,,SPECI,37.0
LTAJ 120520Z 00000KT 9999 SCT040 01/M03 Q1019 NOSIG RMK RWY10 03004KT,LTAJ,2019-01-12T05:20:00Z,36.95,37.48,1.0,-3.0,0,0,,6.21,30.088583,,,,,,TRUE,,,,,SCT,4000,,,,,,,VFR,,,,,,,,,,,,SPECI,855.0
LTAI 120520Z 35006KT 310V010 9999 -TSRA FEW020CB BKN030 10/09 Q1015 NOSIG RMK RWY18C 32003KT 290V350 RWY36R 35007KT RWY18L 31005KT 270V350,LTAI,2019-01-12T05:20:00Z,36.9,30.8,10.0,9.0,350,6,,6.21,29.970472,,,,,,TRUE,,,,-TSRA,FEW,2000,BKN,3000,,,,,MVFR,,,,,,,,,,,,SPECI,54.0
LTAF 120520Z 00000KT 9999 FEW040 05/02 Q1018 NOSIG RMK RWY23 08002KT,LTAF,2019-01-12T05:20:00Z,36.97,35.28,5.0,2.0,0,0,,6.21,30.059055,,,,,,TRUE,,,,,FEW,4000,,,,,,,VFR,,,,,,,,,,,,SPECI,20.0
LTAC 120520Z VRB02KT 3100 BR SCT025 BKN080 01/M00 Q1014 BECMG 8000,LTAC,2019-01-12T05:20:00Z,40.12,32.97,1.0,0.0,0,2,,1.93,29.940945,,,,,,,,,,BR,SCT,2500,BKN,8000,,,,,IFR,,,,,,,,,,,,METAR,949.0
LCEN 120520Z 15003KT 9999 FEW025 05/04 Q1016 NOSIG RMK RWY11 15005KT,LCEN,2019-01-12T05:20:00Z,35.13,33.5,5.0,4.0,150,3,,6.21,30.0,,,,,,TRUE,,,,,FEW,2500,,,,,,,VFR,,,,,,,,,,,,METAR,91.0
LTCJ 120520Z 00000KT 1700 BCFG BKN200 M03/M03 Q1022 RMK RWY20 00000KT,LTCJ,2019-01-12T05:20:00Z,37.93,41.12,-3.0,-3.0,0,0,,1.06,30.177166,,,,,,,,,,BCFG,BKN,20000,,,,,,,IFR,,,,,,,,,,,,SPECI,540.0
LTCE 120520Z VRB02KT 4500 BR NSC M20/M23 Q1019 BECMG TL0600 6000,LTCE,2019-01-12T05:20:00Z,39.95,41.17,-20.0,-23.0,0,2,,2.8,30.088583,,,,,,,,,,BR,CLR,,,,,,,,IFR,,,,,,,,,,,,SPECI,1758.0
LTCC 120520Z 20002KT CAVOK M04/M05 Q1022 NOSIG RMK RWY16 22003KT,LTCC,2019-01-12T05:20:00Z,37.87,40.2,-4.0,-5.0,200,2,,6.21,30.177166,,,,,,TRUE,,,,,CAVOK,,,,,,,,VFR,,,,,,,,,,,,SPECI,677.0
LTBU 120520Z 03016KT 7000 -RA SCT010 BKN022 02/02 Q1014 RMK RWY22 05010KT 020V080,LTBU,2019-01-12T05:20:00Z,41.12,27.92,2.0,2.0,30,16,,4.35,29.940945,,,,,,,,,,-RA,SCT,1000,BKN,2200,,,,,MVFR,,,,,,,,,,,,METAR,173.0
LTAT 120520Z 16002KT 9999 OVC020 M03/M05 Q1024 NOSIG RMK RWY03 00000KT,LTAT,2019-01-12T05:20:00Z,38.42,38.07,-3.0,-5.0,160,2,,6.21,30.236221,,,,,,TRUE,,,,,OVC,2000,,,,,,,MVFR,,,,,,,,,,,,SPECI,849.0
LTAP 120520Z 00000KT 9999 SCT040 BKN100 01/M01 Q1015 NOSIG RMK RWY23 04002KT,LTAP,2019-01-12T05:20:00Z,40.83,35.52,1.0,-1.0,0,0,,6.21,29.970472,,,,,,TRUE,,,,,SCT,4000,BKN,10000,,,,,VFR,,,,,,,,,,,,SPECI,535.0
LTAG 120520Z 36002KT CAVOK 05/01 Q1018 NOSIG,LTAG,2019-01-12T05:20:00Z,37.0,35.42,5.0,1.0,360,2,,6.21,30.059055,,,,,,TRUE,,,,,CAVOK,,,,,,,,VFR,,,,,,,,,,,,METAR,66.0
KW29 120520Z AUTO 02004KT 10SM CLR M01/M08 A3046 RMK AO2,KW29,2019-01-12T05:20:00Z,38.98,-76.33,-1.0,-8.0,20,4,,10.0,30.46063,,,TRUE,TRUE,,,,,,,CLR,,,,,,,,VFR,,,,,,,,,,,,SPECI,15.0
KSUT 120520Z AUTO 01004KT 10SM CLR 01/M05 A3040 RMK AO2 T00101055,KSUT,2019-01-12T05:20:00Z,33.93,-78.08,1.0,-5.5,10,4,,10.0,30.398623,,,TRUE,TRUE,,,,,,,CLR,,,,,,,,VFR,,,,,,,,,,,,SPECI,8.0
KONX 120520Z AUTO 10SM CLR M02/M03 A3044 RMK AO2 T10201032,KONX,2019-01-12T05:20:00Z,36.4,-76.02,-2.0,-3.2,,,,10.0,30.43996,,,TRUE,TRUE,,,,,,,CLR,,,,,,,,VFR,,,,,,,,,,,,SPECI,5.0
KMRN 120520Z AUTO 00000KT 10SM OVC100 04/M07 A3039 RMK AO2 T00351068,KMRN,2019-01-12T05:20:00Z,35.82,-81.62,3.5,-6.8,0,0,,10.0,30.389763,,,TRUE,TRUE,,,,,,,OVC,10000,,,,,,,VFR,,,,,,,,,,,,SPECI,387.0
KMQI 120520Z AUTO 03005KT 10SM CLR 01/M04 A3043 RMK AO2 T00131041,KMQI,2019-01-12T05:20:00Z,35.92,-75.7,1.3,-4.1,30,5,,10.0,30.431103,,,TRUE,TRUE,,,,,,,CLR,,,,,,,,VFR,,,,,,,,,,,,SPECI,4.0
KHBI 120520Z AUTO 00000KT 10SM OVC110 00/M05 A3041 RMK AO2 T00041053,KHBI,2019-01-12T05:20:00Z,35.65,-79.9,0.4,-5.3,0,0,,10.0,30.410433,,,TRUE,TRUE,,,,,,,OVC,11000,,,,,,,VFR,,,,,,,,,,,,SPECI,205.0
KFFA 120520Z AUTO 00000KT 10SM CLR 02/M05 A3042 RMK AO2 T00221051,KFFA,2019-01-12T05:20:00Z,36.02,-75.67,2.2,-5.1,0,0,,10.0,30.41929,,,TRUE,TRUE,,,,,,,CLR,,,,,,,,VFR,,,,,,,,,,,,SPECI,4.0
KFDK 120520Z AUTO 00000KT 10SM -SN CLR M03/M06 A3048 RMK AO2,KFDK,2019-01-12T05:20:00Z,39.42,-77.37,-3.0,-6.0,0,0,,10.0,30.481298,,,TRUE,TRUE,,,,,,-SN,CLR,,,,,,,,VFR,,,,,,,,,,,,SPECI,92.0
KEYF 120520Z AUTO 09004KT 10SM CLR M01/M05 A3041 RMK AO2 PWINO T10071053,KEYF,2019-01-12T05:20:00Z,34.6,-78.58,-0.7,-5.3,90,4,,10.0,30.410433,,,TRUE,TRUE,,,,,TRUE,,CLR,,,,,,,,VFR,,,,,,,,,,,,SPECI,41.0
KEXX 120520Z AUTO 00000KT 10SM OVC110 01/M05 A3038 RMK AO2 T00121053,KEXX,2019-01-12T05:20:00Z,35.78,-80.3,1.2,-5.3,0,0,,10.0,30.380905,,,TRUE,TRUE,,,,,,,OVC,11000,,,,,,,VFR,,,,,,,,,,,,SPECI,223.0
KDPL 120520Z AUTO 00000KT 10SM CLR M03/M06 A3042 RMK AO2,KDPL,2019-01-12T05:20:00Z,35.0,-77.97,-3.0,-6.0,0,0,,10.0,30.41929,,,TRUE,TRUE,,,,,,,CLR,,,,,,,,VFR,,,,,,,,,,,,SPECI,42.0
KDMW 120520Z AUTO 00000KT 10SM CLR M04/M10 A3041 RMK AO2,KDMW,2019-01-12T05:20:00Z,39.6,-77.0,-4.0,-10.0,0,0,,10.0,30.410433,,,TRUE,TRUE,,,,,,,CLR,,,,,,,,VFR,,,,,,,,,,,,SPECI,241.0
KCTZ 120520Z AUTO 00000KT 10SM CLR M01/M05 A3043 RMK AO2 T10061046,KCTZ,2019-01-12T05:20:00Z,34.98,-78.37,-0.6,-4.6,0,0,,10.0,30.431103,,,TRUE,TRUE,,,,,,,CLR,,,,,,,,VFR,,,,,,,,,,,,SPECI,45.0
KCPC 120520Z AUTO 00000KT 10SM CLR 00/M05 A3039 RMK AO2 T00011050,KCPC,2019-01-12T05:20:00Z,34.28,-78.72,0.1,-5.0,0,0,,10.0,30.389763,,,TRUE,TRUE,,,,,,,CLR,,,,,,,,VFR,,,,,,,,,,,,SPECI,29.0
KCGE 120520Z AUTO 03004KT 10SM CLR M04/M08 A3045 RMK A01,KCGE,2019-01-12T05:20:00Z,38.53,-76.03,-4.0,-8.0,30,4,,10.0,30.448818,,,TRUE,TRUE,,,,,,,CLR,,,,,,,,VFR,,,,,,,,,,,,SPECI,6.0
KCBE 120520Z AUTO 00000KT 10SM CLR M06/M09 A3047 RMK AO2 T10561088,KCBE,2019-01-12T05:20:00Z,39.62,-78.77,-5.6,-8.8,0,0,,10.0,30.469488,,,TRUE,TRUE,,,,,,,CLR,,,,,,,,VFR,,,,,,,,,,,,SPECI,236.0
KAFP 120520Z AUTO 00000KT 10SM CLR M02/M05 A3041 RMK AO2 T10171049,KAFP,2019-01-12T05:20:00Z,35.02,-80.08,-1.7,-4.9,0,0,,10.0,30.410433,,,TRUE,TRUE,,,,,,,CLR,,,,,,,,VFR,,,,,,,,,,,,SPECI,92.0
LSMM 120520Z AUTO 00000KT 8000NDV FEW033 SCT049 OVC067 M03/M03 Q1027 RMK,LSMM,2019-01-12T05:20:00Z,46.75,8.12,-3.0,-3.0,0,0,,,30.324802,,,TRUE,,,,,,,,FEW,3300,SCT,4900,OVC,6700,,,,,,,,,,,,,,,METAR,577.0
LSMD 120520Z AUTO 14005KT 7000NDV SCT010 BKN017 OVC020 M00/M00 Q1026 RMK,LSMD,2019-01-12T05:20:00Z,47.4,8.65,0.0,0.0,140,5,,,30.295275,,,TRUE,,,,,,,,SCT,1000,BKN,1700,OVC,2000,,,,,,,,,,,,,,,METAR,448.0
LSMA 120520Z AUTO 27002KT 8000NDV BKN048 BKN054 OVC069 M01/M02 Q1027 RMK,LSMA,2019-01-12T05:20:00Z,46.95,8.28,-1.0,-2.0,270,2,,,30.324802,,,TRUE,,,,,,,,BKN,4800,BKN,5400,OVC,6900,,,,,,,,,,,,,,,METAR,444.0
KVUJ 120520Z AUTO 00000KT 10SM BKN110 00/M03 A3044 RMK AO2 T00001030,KVUJ,2019-01-12T05:20:00Z,35.42,-80.15,0.0,-3.0,0,0,,10.0,30.43996,,,TRUE,TRUE,,,,,,,BKN,11000,,,,,,,VFR,,,,,,,,,,,,METAR,186.0
KSVH 120520Z AUTO 00000KT 10SM OVC100 03/M06 A3037 RMK AO2 T00251059,KSVH,2019-01-12T05:20:00Z,35.75,-80.95,2.5,-5.9,0,0,,10.0,30.369095,,,TRUE,TRUE,,,,,,,OVC,10000,,,,,,,VFR,,,,,,,,,,,,METAR,294.0
KSCR 120520Z AUTO 00000KT 10SM CLR 00/M04 A3039 RMK AO2 T10051044,KSCR,2019-01-12T05:20:00Z,35.7,-79.5,-0.5,-4.4,0,0,,10.0,30.389763,,,TRUE,TRUE,,,,,,,CLR,,,,,,,,VFR,,,,,,,,,,,,METAR,188.0
KRUQ 120520Z AUTO 00000KT 10SM OVC110 02/M07 A3038 RMK AO2 T00181068,KRUQ,2019-01-12T05:20:00Z,35.65,-80.52,1.8,-6.8,0,0,,10.0,30.380905,,,TRUE,TRUE,,,,,,,OVC,11000,,,,,,,VFR,,,,,,,,,,,,METAR,236.0
KRCZ 120520Z AUTO 07003KT 10SM CLR M01/M05 A3040 RMK AO2 T10071050,KRCZ,2019-01-12T05:20:00Z,34.88,-79.77,-0.7,-5.0,70,3,,10.0,30.398623,,,TRUE,TRUE,,,,,,,CLR,,,,,,,,VFR,,,,,,,,,,,,METAR,109.0
KISO 120520Z AUTO 00000KT 10SM CLR M03/M06 A3043 RMK AO2 T10341057,KISO,2019-01-12T05:20:00Z,35.32,-77.62,-3.4,-5.7,0,0,,10.0,30.431103,,,TRUE,TRUE,,,,,,,CLR,,,,,,,,VFR,,,,,,,,,,,,METAR,29.0
KHRJ 120520Z AUTO 00000KT 10SM CLR M01/M03 A3042 RMK AO2 T10071035,KHRJ,2019-01-12T05:20:00Z,35.38,-78.73,-0.7,-3.5,0,0,,10.0,30.41929,,,TRUE,TRUE,,,,,,,CLR,,,,,,,,VFR,,,,,,,,,,,,METAR,60.0
KFQD 120520Z AUTO 00000KT 10SM OVC100 01/M01 A3037 RMK AO2,KFQD,2019-01-12T05:20:00Z,35.42,-81.93,1.0,-1.0,0,0,,10.0,30.369095,,,TRUE,TRUE,,,,,,,OVC,10000,,,,,,,VFR,,,,,,,,,,,,METAR,329.0
KETC 120520Z AUTO 00000KT 10SM CLR M05/M06 A3044 RMK AO2 T10481059,KETC,2019-01-12T05:20:00Z,35.93,-77.55,-4.8,-5.9,0,0,,10.0,30.43996,,,TRUE,TRUE,,,,,,,CLR,,,,,,,,VFR,,,,,,,,,,,,METAR,17.0
KEDE 120520Z AUTO 00000KT 10SM CLR M01/M04 A3044 RMK AO2 T10151042,KEDE,2019-01-12T05:20:00Z,36.02,-76.57,-1.5,-4.2,0,0,,10.0,30.43996,,,TRUE,TRUE,,,,,,,CLR,,,,,,,,VFR,,,,,,,,,,,,METAR,6.0
KASJ 120520Z AUTO 00000KT 10SM CLR M04/M06 A3044 RMK AO2 T10381058,KASJ,2019-01-12T05:20:00Z,36.28,-77.17,-3.8,-5.8,0,0,,10.0,30.43996,,,TRUE,TRUE,,,,,,,CLR,,,,,,,,VFR,,,,,,,,,,,,METAR,21.0
K7W6 120520Z AUTO 00000KT 5SM BR CLR M03/M04 A3044 RMK AO2 T10351045,K7W6,2019-01-12T05:20:00Z,35.55,-75.95,-3.5,-4.5,0,0,,5.0,30.43996,,,TRUE,TRUE,,,,,,BR,CLR,,,,,,,,MVFR,,,,,,,,,,,,METAR,2.0
K1A5 120520Z AUTO 00000KT 10SM OVC085 05/M02 A3032 RMK AO2 T00471023,K1A5,2019-01-12T05:20:00Z,35.22,-83.42,4.7,-2.3,0,0,,10.0,30.318897,,,TRUE,TRUE,,,,,,,OVC,8500,,,,,,,VFR,,,,,,,,,,,,METAR,616.0
ETHN 120520Z 26010KT 0400 -FZDZRA FZFG VV000 M00/M00 Q1021 RED,ETHN,2019-01-12T05:20:00Z,49.38,9.97,0.0,0.0,260,10,,0.25,30.147638,,,,,,,,,,-FZDZ RA FZFG,OVX,0,,,,,,,LIFR,,,,,,,,,,,0,METAR,473.0
ETSN 120520Z 24010KT 6000 SCT008 OVC010 01/M01 Q1022 BLACKGRN,ETSN,2019-01-12T05:20:00Z,48.72,11.22,1.0,-1.0,240,10,,3.73,30.177166,,,,,,,,,,,SCT,800,OVC,1000,,,,,MVFR,,,,,,,,,,,,METAR,387.0
ETSL 120520Z 22012KT 8000 -SN DRSN BKN010 M01/M02 Q1022 BLACKGRN,ETSL,2019-01-12T05:20:00Z,48.17,10.87,-1.0,-2.0,220,12,,4.97,30.177166,,,,,,,,,,-SN DRSN,BKN,1000,,,,,,,MVFR,,,,,,,,,,,,SPECI,562.0
ETSI 120520Z AUTO 26013KT 3000 // ////// 01/M01 Q1021 ///,ETSI,2019-01-12T05:20:00Z,48.72,11.52,1.0,-1.0,260,13,,1.86,30.147638,,,TRUE,,,,,,,,,,,,,,,,,,,,,,,,,,,,METAR,370.0
ETSB 120520Z AUTO 25007KT 6000 // ////// 02/02 Q1022 ///,ETSB,2019-01-12T05:20:00Z,50.17,7.07,2.0,2.0,250,7,,3.73,30.177166,,,TRUE,,,,,,,,,,,,,,,,,,,,,,,,,,,,METAR,486.0
ETNN 120520Z AUTO 28012KT 5000 // ////// 05/04 Q1023 ///,ETNN,2019-01-12T05:20:00Z,50.82,6.67,5.0,4.0,280,12,,3.11,30.206694,,,TRUE,,,,,,,,,,,,,,,,,,,,,,,,,,,,METAR,135.0
ETHL 120520Z 23010KT 5000 -SN DRSN FEW007 BKN014 M01/M02 Q1023 BLACKGRN,ETHL,2019-01-12T05:20:00Z,48.22,9.92,-1.0,-2.0,230,10,,3.11,30.206694,,,,,,,,,,-SN DRSN,FEW,700,BKN,1400,,,,,MVFR,,,,,,,,,,,,SPECI,549.0
ETHA 120520Z AUTO 27016KT //// // ////// M01/M03 Q1022 ///,ETHA,2019-01-12T05:20:00Z,47.82,10.87,-1.0,-3.0,270,16,,,30.177166,,,TRUE,,,,,,,,,,,,,,,,,,,,,,,,,,,,METAR,760.0
ETWM 120520Z AUTO 26007KT 9999 // ////// 06/05 Q1019 ///,ETWM,2019-01-12T05:20:00Z,52.72,7.33,6.0,5.0,260,7,,6.21,30.088583,,,TRUE,,,,,,,,,,,,,,,,,,,,,,,,,,,,METAR,21.0
ETSH 120520Z 27007KT 9999 BKN020 04/01 Q1015 WHT,ETSH,2019-01-12T05:20:00Z,51.77,13.17,4.0,1.0,270,7,,6.21,29.970472,,,,,,,,,,,BKN,2000,,,,,,,MVFR,,,,,,,,,,,,METAR,79.0
ETNW 120520Z 27013KT 8000 -DZ BKN007 06/05 Q1017 GRN,ETNW,2019-01-12T05:20:00Z,52.45,9.42,6.0,5.0,270,13,,4.97,30.029528,,,,,,,,,,-DZ,BKN,700,,,,,,,IFR,,,,,,,,,,,,METAR,70.0
ETNT 120520Z AUTO 27016KT 9999 // ////// 07/03 Q1016 ///,ETNT,2019-01-12T05:20:00Z,53.53,7.67,7.0,3.0,270,16,,6.21,30.0,,,TRUE,,,,,,,,,,,,,,,,,,,,,,,,,,,,METAR,12.0
ETNS 120520Z AUTO 28016KT 9999 // ////// 06/04 Q1012 ///,ETNS,2019-01-12T05:20:00Z,54.47,9.52,6.0,4.0,280,16,,6.21,29.88189,,,TRUE,,,,,,,,,,,,,,,,,,,,,,,,,,,,SPECI,25.0
ETNL 120520Z 27009KT 9999 BKN026 04/01 Q1011 BLU,ETNL,2019-01-12T05:20:00Z,53.92,12.27,4.0,1.0,270,9,,6.21,29.852362,,,,,,,,,,,BKN,2600,,,,,,,MVFR,,,,,,,,,,,,METAR,40.0
ETNH 120520Z 27014KT 6000 -DZRA FEW002 BKN013 06/05 Q1013 GRN,ETNH,2019-01-12T05:20:00Z,54.32,9.55,6.0,5.0,270,14,,3.73,29.911417,,,,,,,,,,-DZ -RA,FEW,200,BKN,1300,,,,,MVFR,,,,,,,,,,,,METAR,17.0
ETMN 120520Z 28015KT 8000 -DZ SCT004 BKN028 06/05 Q1015 REDZ BLU,ETMN,2019-01-12T05:20:00Z,53.77,8.67,6.0,5.0,280,15,,4.97,29.970472,,,,,,,,,,-DZ,SCT,400,BKN,2800,,,,,MVFR,,,,,,,,,,,,METAR,31.0
ETHS 120520Z 29011KT 7000 -DZ BKN006 BKN012 05/04 Q1015 REDZ YLO,ETHS,2019-01-12T05:20:00Z,52.92,10.18,5.0,4.0,290,11,,4.35,29.970472,,,,,,,,,,-DZ,BKN,600,BKN,1200,,,,,IFR,,,,,,,,,,,,SPECI,88.0
ETHF 120520Z 21004KT 8000 -DZRA FEW010 BKN015 04/03 Q1019 WHT,ETHF,2019-01-12T05:20:00Z,51.12,9.27,4.0,3.0,210,4,,4.97,30.088583,,,,,,,,,,-DZ -RA,FEW,1000,BKN,1500,,,,,MVFR,,,,,,,,,,,,METAR,181.0
ETHC 120520Z 26009KT 5000 -DZRA BKN005 BKN012 06/05 Q1016 YLO,ETHC,2019-01-12T05:20:00Z,52.6,10.02,6.0,5.0,260,9,,3.11,30.0,,,,,,,,,,-DZ -RA,BKN,500,BKN,1200,,,,,IFR,,,,,,,,,,,,METAR,52.0
ETHB 120520Z AUTO 29016KT 3000 // ////// 06/05 Q1018 ///,ETHB,2019-01-12T05:20:00Z,52.27,9.07,6.0,5.0,290,16,,1.86,30.059055,,,TRUE,,,,,,,,,,,,,,,,,,,,,,,,,,,,METAR,78.0
ETGG 120520Z AUTO 29021KT //// // ////// 06/05 Q1011 ///,ETGG,2019-01-12T05:20:00Z,54.83,9.5,6.0,5.0,290,21,,,29.852362,,,TRUE,,,,,,,,,,,,,,,,,,,,,,,,,,,,METAR,33.0
LSZL 120520Z AUTO VRB02KT 9999NDV NCD M03/M07 Q1019 RMK,LSZL,2019-01-12T05:20:00Z,46.17,8.88,-3.0,-7.0,0,2,,,30.088583,,,TRUE,,,,,,,,CLR,,,,,,,,,,,,,,,,,,,,SPECI,600.0
ENCN 120520Z 30007KT 270V340 CAVOK 02/M04 Q1006,ENCN,2019-01-12T05:20:00Z,58.2,8.07,2.0,-4.0,300,7,,6.21,29.704725,,,,,,,,,,,CAVOK,,,,,,,,VFR,,,,,,,,,,,,METAR,17.0
LGRP 120520Z VRB03KT 9999 FEW015 BKN020 14/08 Q1012 NOSIG,LGRP,2019-01-12T05:20:00Z,36.4,28.08,14.0,8.0,0,3,,6.21,29.88189,,,,,,TRUE,,,,,FEW,1500,BKN,2000,,,,,MVFR,,,,,,,,,,,,METAR,5.0
LGKR 120520Z 00000KT 9999 FEW025 04/03 Q1009 NOSIG,LGKR,2019-01-12T05:20:00Z,39.62,19.92,4.0,3.0,0,0,,6.21,29.793306,,,,,,TRUE,,,,,FEW,2500,,,,,,,VFR,,,,,,,,,,,,METAR,2.0
LGIR 120520Z 25004KT 9999 FEW020 11/08 Q1009 NOSIG,LGIR,2019-01-12T05:20:00Z,35.32,25.17,11.0,8.0,250,4,,6.21,29.793306,,,,,,TRUE,,,,,FEW,2000,,,,,,,VFR,,,,,,,,,,,,METAR,39.0
LGAV 120520Z 02009KT 9999 DZ FEW008 FEW018TCU BKN030 OVC070 07/03 Q1010 NOSIG,LGAV,2019-01-12T05:20:00Z,37.93,23.95,7.0,3.0,20,9,,6.21,29.822834,,,,,,TRUE,,,,DZ,FEW,800,FEW,1800,BKN,3000,OVC,7000,MVFR,,,,,,,,,,,,METAR,94.0
EDJA 120520Z 23014KT 8000 BKN004 M01/M02 Q1023,EDJA,2019-01-12T05:20:00Z,47.98,10.23,-1.0,-2.0,230,14,,4.97,30.206694,,,,,,,,,,,BKN,400,,,,,,,LIFR,,,,,,,,,,,,METAR,633.0
EDHI 120520Z AUTO 28015KT 9999 // BKN010/// OVC019/// 06/05 Q1014,EDHI,2019-01-12T05:20:00Z,53.53,9.83,6.0,5.0,280,15,,6.21,29.940945,,,TRUE,,,,,,,,BKN,1000,OVC,1900,,,,,MVFR,,,,,,,,,,,,METAR,13.0
LGSM 120520Z 17017KT 9999 -RA FEW018 SCT020 15/08 Q1010,LGSM,2019-01-12T05:20:00Z,37.68,26.92,15.0,8.0,170,17,,6.21,29.822834,,,,,,,,,,-RA,FEW,1800,SCT,2000,,,,,VFR,,,,,,,,,,,,METAR,6.0
LGTS 120520Z 35010KT 9999 FEW025 04/M05 Q1014 NOSIG,LGTS,2019-01-12T05:20:00Z,40.52,22.97,4.0,-5.0,350,10,,6.21,29.940945,,,,,,TRUE,,,,,FEW,2500,,,,,,,VFR,,,,,,,,,,,,METAR,7.0
LGSA 120520Z 00000KT 9999 FEW020 SCT100 11/06 Q1007,LGSA,2019-01-12T05:20:00Z,35.53,24.13,11.0,6.0,0,0,,6.21,29.734253,,,,,,,,,,,FEW,2000,SCT,10000,,,,,VFR,,,,,,,,,,,,METAR,135.0
LGLM 120520Z 05013G23KT 9999 SCT010 BKN020 07/05 Q1012,LGLM,2019-01-12T05:20:00Z,39.92,25.23,7.0,5.0,50,13,23,6.21,29.88189,,,,,,,,,,,SCT,1000,BKN,2000,,,,,MVFR,,,,,,,,,,,,METAR,5.0
LGKO 120520Z 17014KT 9999 BKN025 14/07 Q1010,LGKO,2019-01-12T05:20:00Z,36.8,27.08,14.0,7.0,170,14,,6.21,29.822834,,,,,,,,,,,BKN,2500,,,,,,,MVFR,,,,,,,,,,,,METAR,125.0
LGKL 120520Z 35005KT 9999 FEW025 SCT035 BKN080 08/07 Q1005,LGKL,2019-01-12T05:20:00Z,37.07,22.02,8.0,7.0,350,5,,6.21,29.675198,,,,,,,,,,,FEW,2500,SCT,3500,BKN,8000,,,VFR,,,,,,,,,,,,METAR,8.0
LGAD 120520Z 00000KT 8000 -RA FEW018 BKN025 BKN080 08/08 Q1006,LGAD,2019-01-12T05:20:00Z,37.92,21.27,8.0,8.0,0,0,,4.97,29.704725,,,,,,,,,,-RA,FEW,1800,BKN,2500,BKN,8000,,,MVFR,,,,,,,,,,,,METAR,12.0
EDSB 120520Z 22008KT 9000 FEW006 OVC012 01/00 Q1026,EDSB,2019-01-12T05:20:00Z,48.78,8.08,1.0,0.0,220,8,,5.59,30.295275,,,,,,,,,,,FEW,600,OVC,1200,,,,,MVFR,,,,,,,,,,,,METAR,124.0
EDNY 120520Z 22009KT 9999 FEW008 BKN011 OVC014 00/M01 Q1026,EDNY,2019-01-12T05:20:00Z,47.67,9.52,0.0,-1.0,220,9,,6.21,30.295275,,,,,,,,,,,FEW,800,BKN,1100,OVC,1400,,,MVFR,,,,,,,,,,,,METAR,424.0
EDMA 120520Z AUTO 24014KT 9999 // BKN016/// OVC027/// M00/M01 Q1022,EDMA,2019-01-12T05:20:00Z,48.42,10.92,0.0,-1.0,240,14,,6.21,30.177166,,,TRUE,,,,,,,,BKN,1600,OVC,2700,,,,,MVFR,,,,,,,,,,,,METAR,463.0
EDLW 120520Z 27007KT 230V340 8000 -RA BKN006 OVC011 05/05 Q1020,EDLW,2019-01-12T05:20:00Z,51.52,7.62,5.0,5.0,270,7,,4.97,30.11811,,,,,,,,,,-RA,BKN,600,OVC,1100,,,,,IFR,,,,,,,,,,,,METAR,127.0
EDLP 120520Z 27009G19KT 220V310 9999 -DZ BKN004 OVC011 05/04 Q1019,EDLP,2019-01-12T05:20:00Z,51.62,8.62,5.0,4.0,270,9,19,6.21,30.088583,,,,,,,,,,-DZ,BKN,400,OVC,1100,,,,,LIFR,,,,,,,,,,,,METAR,213.0
EDAC 120520Z AUTO 23011KT 9999 // BKN031/// OVC037/// 03/00 Q1016,EDAC,2019-01-12T05:20:00Z,50.98,12.5,3.0,0.0,230,11,,6.21,30.0,,,TRUE,,,,,,,,BKN,3100,OVC,3700,,,,,VFR,,,,,,,,,,,,METAR,195.0
LGPA 120520Z 13007KT 9999 FEW016CB 13/08 Q1009 NOSIG,LGPA,2019-01-12T05:20:00Z,37.0,25.13,13.0,8.0,130,7,,6.21,29.793306,,,,,,TRUE,,,,,FEW,1600,,,,,,,VFR,,,,,,,,,,,,METAR,36.0
LGKP 120520Z 15015KT 9999 FEW030 15/10 Q1011,LGKP,2019-01-12T05:20:00Z,35.42,27.15,15.0,10.0,150,15,,6.21,29.852362,,,,,,,,,,,FEW,3000,,,,,,,VFR,,,,,,,,,,,,METAR,20.0
LGBL 120520Z 28008KT 9999 SCT025 OVC080 02/01 Q1014,LGBL,2019-01-12T05:20:00Z,39.22,22.8,2.0,1.0,280,8,,6.21,29.940945,,,,,,,,,,,SCT,2500,OVC,8000,,,,,VFR,,,,,,,,,,,,METAR,26.0
EDLV 120520Z 26010KT 9999 -DZ BKN035 06/05 Q1022,EDLV,2019-01-12T05:20:00Z,51.6,6.15,6.0,5.0,260,10,,6.21,30.177166,,,,,,,,,,-DZ,BKN,3500,,,,,,,VFR,,,,,,,,,,,,METAR,32.0
EDFH 120520Z 28011KT 2000 -DZ BR BKN002 02/02 Q1022,EDFH,2019-01-12T05:20:00Z,49.95,7.27,2.0,2.0,280,11,,1.24,30.177166,,,,,,,,,,-DZ BR,BKN,200,,,,,,,LIFR,,,,,,,,,,,,METAR,498.0
ELLX 120520Z 26008KT 9999 SCT008 BKN038 03/03 Q1024 NOSIG,ELLX,2019-01-12T05:20:00Z,49.63,6.2,3.0,3.0,260,8,,6.21,30.236221,,,,,,TRUE,,,,,SCT,800,BKN,3800,,,,,VFR,,,,,,,,,,,,METAR,379.0
EGPI 120520Z AUTO 30021KT 9999 NCD 09/07 Q1020,EGPI,2019-01-12T05:20:00Z,55.68,-6.25,9.0,7.0,300,21,,6.21,30.11811,,,TRUE,,,,,,,,CLR,,,,,,,,VFR,,,,,,,,,,,,METAR,18.0
EGPU 120520Z AUTO 28021KT 9999 SCT035/// 09/06 Q1019,EGPU,2019-01-12T05:20:00Z,56.5,-6.87,9.0,6.0,280,21,,6.21,30.088583,,,TRUE,,,,,,,,SCT,3500,,,,,,,VFR,,,,,,,,,,,,METAR,12.0
RJBD 120520Z 34007KT 4000 -SHRA BR FEW006 SCT008 BKN020 08/07 Q1015 RMK 1ST006 3ST008 6CU020 A2999,RJBD,2019-01-12T05:20:00Z,33.67,135.37,8.0,7.0,340,7,,2.49,29.970472,,,,,,,,,,-SHRA BR,FEW,600,SCT,800,BKN,2000,,,IFR,,,,,,,,,,,,METAR,108.0
ENHE 120520Z 01012KT 9999 SCT040 BKN070 02/M02 Q0999 W///S7,ENHE,2019-01-12T05:20:00Z,65.33,2.33,2.0,-2.0,10,12,,6.21,29.498032,,,,,,,,,,,SCT,4000,BKN,7000,,,,,VFR,,,,,,,,,,,,SPECI,1.0
LGPZ 120520Z 03008KT 9999 FEW018 BKN070 07/03 Q1010,LGPZ,2019-01-12T05:20:00Z,38.92,20.77,7.0,3.0,30,8,,6.21,29.822834,,,,,,,,,,,FEW,1800,BKN,7000,,,,,VFR,,,,,,,,,,,,METAR,4.0
LTBR 120520Z 03002KT 1800 -SHRA BR FEW010 BKN025 BKN090 05/05 Q1013 NOSIG RMK RWY07 35003KT,LTBR,2019-01-12T05:20:00Z,40.25,29.57,5.0,5.0,30,2,,1.12,29.911417,,,,,,TRUE,,,,-SHRA BR,FEW,1000,BKN,2500,BKN,9000,,,IFR,,,,,,,,,,,,METAR,232.0
LTAZ 120520Z 14015KT CAVOK M04/M07 Q1016 RMK RWY29 15006KT 120V190,LTAZ,2019-01-12T05:20:00Z,38.77,34.55,-4.0,-7.0,140,15,,6.21,30.0,,,,,,,,,,,CAVOK,,,,,,,,VFR,,,,,,,,,,,,METAR,945.0
LTAU 120520Z 00000KT 6000 FEW040 M11/M12 Q1018 NOSIG RMK RWY07 /////KT,LTAU,2019-01-12T05:20:00Z,38.77,35.47,-11.0,-12.0,0,0,,3.73,30.059055,,,,,,TRUE,,,,,FEW,4000,,,,,,,MVFR,,,,,,,,,,,,SPECI,1054.0
KWBF 120520Z AUTO 12011KT 9SM 21/14 A3008 RMK A01,KWBF,2019-01-12T05:20:00Z,,,21.0,14.0,120,11,,9.0,30.079725,,,TRUE,TRUE,,,,,,,,,,,,,,,,,,,,,,,,,,,SPECI,
KGRY 120520Z AUTO 14010KT 10SM SCT029 BKN046 20/14 A3010 RMK A01,KGRY,2019-01-12T05:20:00Z,27.63,-90.45,20.0,14.0,140,10,,10.0,30.100393,,,TRUE,TRUE,,,,,,,SCT,2900,BKN,4600,,,,,VFR,,,,,,,,,,,,SPECI,58.0
KGOO 120520Z AUTO 13003KT 10SM CLR 11/M02 A2992 RMK AO1,KGOO,2019-01-12T05:20:00Z,39.22,-121.0,11.0,-2.0,130,3,,10.0,29.920275,,,TRUE,TRUE,,,,,,,CLR,,,,,,,,VFR,,,,,,,,,,,,SPECI,962.0
KGHB 120520Z AUTO VRB04G17KT 10SM BKN036 BKN043 21/13 A3007 RMK A01,KGHB,2019-01-12T05:20:00Z,27.83,-91.98,21.0,13.0,0,4,17,10.0,30.070866,,,TRUE,TRUE,,,,,,,BKN,3600,BKN,4300,,,,,VFR,,,,,,,,,,,,SPECI,30.0
KFYM 120520Z AUTO 09005KT 10SM SCT080 05/M02 A3021 RMK A01,KFYM,2019-01-12T05:20:00Z,35.07,-86.57,5.0,-2.0,90,5,,10.0,30.209646,,,TRUE,TRUE,,,,,,,SCT,8000,,,,,,,VFR,,,,,,,,,,,,SPECI,300.0
KEMK 120520Z AUTO 23024KT 10SM FEW030 BKN055 OVC095 21/15 A3001 RMK A01,KEMK,2019-01-12T05:20:00Z,27.82,-94.32,21.0,15.0,230,24,,10.0,30.008858,,,TRUE,TRUE,,,,,,,FEW,3000,BKN,5500,OVC,9500,,,VFR,,,,,,,,,,,,METAR,26.0
KEDU 120520Z AUTO 35005KT 10SM FEW095 09/09 A2991 RMK AO1,KEDU,2019-01-12T05:20:00Z,38.53,-121.78,9.0,9.0,350,5,,10.0,29.911417,,,TRUE,TRUE,,,,,,,FEW,9500,,,,,,,VFR,,,,,,,,,,,,SPECI,21.0
EKRN 120520Z AUTO 28002KT 9999 NCD M00/M01 Q1008,EKRN,2019-01-12T05:20:00Z,55.07,14.75,0.0,-1.0,280,2,,6.21,29.763779,,,TRUE,,,,,,,,CLR,,,,,,,,VFR,,,,,,,,,,,,METAR,16.0
EKCH 120520Z 27009KT 9000 SKC 00/M00 Q1008 R04L/320152 R04R/320154 R12/350136 NOSIG,EKCH,2019-01-12T05:20:00Z,55.62,12.67,0.0,0.0,270,9,,5.59,29.763779,,,,,,TRUE,,,,,SKC,,,,,,,,VFR,,,,,,,,,,,,METAR,5.0
LSMS 120520Z AUTO 00000KT CAVOK M03/M07 Q1028,LSMS,2019-01-12T05:20:00Z,46.22,7.32,-3.0,-7.0,0,0,,6.21,30.35433,,,TRUE,,,,,,,,CAVOK,,,,,,,,VFR,,,,,,,,,,,,METAR,481.0
LSMP 120520Z 00000KT 5000 FEW031 OVC058 00/M01 Q1027 RMK WHT,LSMP,2019-01-12T05:20:00Z,46.82,6.92,0.0,-1.0,0,0,,3.11,30.324802,,,,,,,,,,,FEW,3100,OVC,5800,,,,,MVFR,,,,,,,,,,,,METAR,491.0
EKSB 120520Z AUTO 27008KT 250V320 1900NDV -DZ OVC008/// 06/05 Q1011,EKSB,2019-01-12T05:20:00Z,54.97,9.8,6.0,5.0,270,8,,,29.852362,,,TRUE,,,,,,,-DZ,OVC,800,,,,,,,,,,,,,,,,,,,METAR,23.0
EKVD 120520Z AUTO 28012G22KT //// ///////// 06/05 Q1010,EKVD,2019-01-12T05:20:00Z,55.42,9.32,6.0,5.0,280,12,22,,29.822834,,,TRUE,,,,,,,,,,,,,,,,,,,,,,,,,,,,METAR,45.0
LLBG 120520Z 15004KT CAVOK 06/03 Q1015 NOSIG,LLBG,2019-01-12T05:20:00Z,32.0,34.88,6.0,3.0,150,4,,6.21,29.970472,,,,,,TRUE,,,,,CAVOK,,,,,,,,VFR,,,,,,,,,,,,METAR,49.0
EVLA 120520Z AUTO 30004KT 280V340 9999 FEW024/// 03/M01 Q1001,EVLA,2019-01-12T05:20:00Z,56.52,21.1,3.0,-1.0,300,4,,6.21,29.557087,,,TRUE,,,,,,,,FEW,2400,,,,,,,VFR,,,,,,,,,,,,METAR,4.0
EVVA 120520Z AUTO 32009KT CAVOK 02/M00 Q1000,EVVA,2019-01-12T05:20:00Z,57.35,21.55,2.0,0.0,320,9,,6.21,29.52756,,,TRUE,,,,,,,,CAVOK,,,,,,,,VFR,,,,,,,,,,,,METAR,6.0
ESNX 120520Z AUTO 30009KT 9999 NCD M05/M10 Q0989,ESNX,2019-01-12T05:20:00Z,65.58,19.28,-5.0,-10.0,300,9,,6.21,29.202755,,,TRUE,,,,,,,,CLR,,,,,,,,VFR,,,,,,,,,,,,METAR,379.0
ESNL 120520Z AUTO 28009KT 9999 NCD M02/M08 Q0992,ESNL,2019-01-12T05:20:00Z,64.55,18.72,-2.0,-8.0,280,9,,6.21,29.291338,,,TRUE,,,,,,,,CLR,,,,,,,,VFR,,,,,,,,,,,,METAR,214.0
EYKA 120520Z 27007KT CAVOK M03/M04 Q1000 R08/520295,EYKA,2019-01-12T05:20:00Z,54.97,24.08,-3.0,-4.0,270,7,,6.21,29.52756,,,,,,,,,,,CAVOK,,,,,,,,VFR,,,,,,,,,,,,METAR,77.0
ESGR 120520Z AUTO 16002KT 9999 NCD M04/M06 Q1004,ESGR,2019-01-12T05:20:00Z,58.45,13.97,-4.0,-6.0,160,2,,6.21,29.64567,,,TRUE,,,,,,,,CLR,,,,,,,,VFR,,,,,,,,,,,,METAR,105.0
EYPA 120520Z 30003KT 250V360 CAVOK 02/M00 Q1003 R01/720140,EYPA,2019-01-12T05:20:00Z,55.97,21.08,2.0,0.0,300,3,,6.21,29.616142,,,,,,,,,,,CAVOK,,,,,,,,VFR,,,,,,,,,,,,METAR,10.0
EYVI 120520Z VRB02KT 0800 R19/P2000D FZFG VV001 M06/M06 Q0999 R19/4/0295 NOSIG,EYVI,2019-01-12T05:20:00Z,54.63,25.28,-6.0,-6.0,0,2,,0.5,29.498032,,,,,,TRUE,,,,FZFG,OVX,0,,,,,,,LIFR,,,,,,,,,,,100,SPECI,197.0
ENZV 120520Z 12007KT 6000 -RA BKN005 OVC011 02/00 Q1005,ENZV,2019-01-12T05:20:00Z,58.87,5.62,2.0,0.0,120,7,,3.73,29.675198,,,,,,,,,,-RA,BKN,500,OVC,1100,,,,,IFR,,,,,,,,,,,,METAR,9.0
ENVA 120520Z 25010KT 9999 FEW010 BKN023 OVC033 02/00 Q1001 RMK WIND 670FT 27015KT,ENVA,2019-01-12T05:20:00Z,63.47,10.92,2.0,0.0,250,10,,6.21,29.557087,,,,,,,,,,,FEW,1000,BKN,2300,OVC,3300,,,MVFR,,,,,,,,,,,,SPECI,17.0
ENOL 120520Z 27011KT 7000 -SHRASN FEW008 BKN015 02/01 Q1001 TEMPO 3000 SHRASN VV012,ENOL,2019-01-12T05:20:00Z,63.7,9.58,2.0,1.0,270,11,,4.35,29.557087,,,,,,,,,,-SHRA -SHSN,FEW,800,BKN,1500,,,,,MVFR,,,,,,,,,,,,SPECI,7.0
ENGM 120520Z 00000KT CAVOK M08/M10 Q1003 NOSIG,ENGM,2019-01-12T05:20:00Z,60.2,11.1,-8.0,-10.0,0,0,,6.21,29.616142,,,,,,TRUE,,,,,CAVOK,,,,,,,,VFR,,,,,,,,,,,,METAR,204.0
ENDU 120520Z 28015KT 0800 SHSN VV006 M02/M05 Q0989 RMK WIND 1100FT 29023KT WIND 2200FT 30033KT,ENDU,2019-01-12T05:20:00Z,69.03,18.55,-2.0,-5.0,280,15,,0.5,29.202755,,,,,,,,,,SHSN,OVX,0,,,,,,,LIFR,,,,,,,,,,,600,SPECI,79.0
ENBO 120520Z 30016KT 9999 FEW020 01/M05 Q0995,ENBO,2019-01-12T05:20:00Z,67.27,14.37,1.0,-5.0,300,16,,6.21,29.379921,,,,,,,,,,,FEW,2000,,,,,,,VFR,,,,,,,,,,,,METAR,13.0
ENBR 120520Z 15010KT 7000 -RASN FEW012 BKN020 01/M00 Q1003 RMK WIND 1200FT 13022KT,ENBR,2019-01-12T05:20:00Z,60.28,5.22,1.0,0.0,150,10,,4.35,29.616142,,,,,,,,,,-RA -SN,FEW,1200,BKN,2000,,,,,MVFR,,,,,,,,,,,,SPECI,50.0
ENAN 120520Z AUTO 35019KT 9999 FEW035/// M01/M05 Q0992 RERA RESN,ENAN,2019-01-12T05:20:00Z,69.28,16.13,-1.0,-5.0,350,19,,6.21,29.291338,,,TRUE,,,,,,,SN,FEW,3500,,,,,,,VFR,,,,,,,,,,,,SPECI,14.0
ENTO 120520Z 32003KT CAVOK M04/M07 Q1004,ENTO,2019-01-12T05:20:00Z,59.2,10.27,-4.0,-7.0,320,3,,6.21,29.64567,,,,,,,,,,,CAVOK,,,,,,,,VFR,,,,,,,,,,,,METAR,88.0
ENTC 120520Z 35014G26KT 0700 R01/1900N R19/P2000N -SN VV010 M02/M03 Q0989 RMK WIND 2600FT /////KT,ENTC,2019-01-12T05:20:00Z,69.68,18.92,-2.0,-3.0,350,14,26,0.43,29.202755,,,,,,,,,,-SN,OVX,0,,,,,,,LIFR,,,,,,,,,,,1000,SPECI,10.0
ENRY 120520Z AUTO 06003KT 9999NDV NCD M07/M08 Q1004,ENRY,2019-01-12T05:20:00Z,59.37,10.77,-7.0,-8.0,60,3,,,29.64567,,,TRUE,,,,,,,,CLR,,,,,,,,,,,,,,,,,,,,SPECI,53.0
ENRO 120520Z AUTO 28010KT 9999NDV FEW021/// SCT027/// OVC040/// M02/M04 Q0998,ENRO,2019-01-12T05:20:00Z,62.57,11.33,-2.0,-4.0,280,10,,,29.468504,,,TRUE,,,,,,,,FEW,2100,SCT,2700,OVC,4000,,,,,,,,,,,,,,,SPECI,626.0
ENHD 120520Z AUTO 12016KT 3500 -DZ FEW005/// OVC012/// 03/01 Q1003,ENHD,2019-01-12T05:20:00Z,59.35,5.22,3.0,1.0,120,16,,2.17,29.616142,,,TRUE,,,,,,,-DZ,FEW,500,OVC,1200,,,,,IFR,,,,,,,,,,,,METAR,24.0
ENAL 120520Z 14010KT 9999 FEW035 BKN064 03/M01 Q1001,ENAL,2019-01-12T05:20:00Z,62.57,6.12,3.0,-1.0,140,10,,6.21,29.557087,,,,,,,,,,,FEW,3500,BKN,6400,,,,,VFR,,,,,,,,,,,,METAR,22.0
EYSA 120520Z 26008KT CAVOK M04/M04 Q1000 R14L/390194 BLU NOSIG,EYSA,2019-01-12T05:20:00Z,55.9,23.4,-4.0,-4.0,260,8,,6.21,29.52756,,,,,,TRUE,,,,,CAVOK,,,,,,,,VFR,,,,,,,,,,,,SPECI,135.0
KHSD 120520Z AUTO 16011KT 7SM OVC005 07/08 A2982 RMK A01,KHSD,2019-01-12T05:20:00Z,35.6,-97.72,7.0,8.0,160,11,,7.0,29.819881,,,TRUE,TRUE,,,,,,,OVC,500,,,,,,,IFR,,,,,,,,,,,,METAR,364.0
KHQI 120520Z AUTO 10SM FEW030 SCT065 OVC095 21/14 A3000 RMK A01,KHQI,2019-01-12T05:20:00Z,27.93,-93.67,21.0,14.0,,,,10.0,30.0,,,TRUE,TRUE,,,,,,,FEW,3000,SCT,6500,OVC,9500,,,VFR,,,,,,,,,,,,SPECI,26.0
LATI 120520Z 14002KT 6000 NSC M04/M05 Q1013 NOSIG,LATI,2019-01-12T05:20:00Z,41.42,19.72,-4.0,-5.0,140,2,,3.73,29.911417,,,,,,TRUE,,,,,CLR,,,,,,,,MVFR,,,,,,,,,,,,METAR,90.0
EKVG 120520Z AUTO 28022G33KT 9999NDV -SHRA BKN015/// 06/05 Q1001 RMK OVC013/// WIND SKEID 29036G47KT,EKVG,2019-01-12T05:20:00Z,62.07,-7.3,6.0,5.0,280,22,33,,29.557087,,,TRUE,,,,,,,-SHRA,BKN,1500,,,,,,,,,,,,,,,,,,,METAR,85.0
EETN 120520Z 31014KT CAVOK 01/M02 Q0992 R08/910195 NOSIG,EETN,2019-01-12T05:20:00Z,59.4,24.82,1.0,-2.0,310,14,,6.21,29.291338,,,,,,TRUE,,,,,CAVOK,,,,,,,,VFR,,,,,,,,,,,,SPECI,40.0
EVRA 120520Z 26004KT 220V300 CAVOK M01/M01 Q0998 R18/350195 NOSIG,EVRA,2019-01-12T05:20:00Z,56.92,23.97,-1.0,-1.0,260,4,,6.21,29.468504,,,,,,TRUE,,,,,CAVOK,,,,,,,,VFR,,,,,,,,,,,,SPECI,10.0
EBOS 120520Z 25012KT 9999 FEW018 BKN035 07/04 Q1024 NOSIG,EBOS,2019-01-12T05:20:00Z,51.2,2.87,7.0,4.0,250,12,,6.21,30.236221,,,,,,TRUE,,,,,FEW,1800,BKN,3500,,,,,VFR,,,,,,,,,,,,METAR,5.0
EBLG 120520Z 25009KT 8000 BKN031 04/03 Q1024 NOSIG,EBLG,2019-01-12T05:20:00Z,50.63,5.45,4.0,3.0,250,9,,4.97,30.236221,,,,,,TRUE,,,,,BKN,3100,,,,,,,MVFR,,,,,,,,,,,,METAR,178.0
EBCI 120520Z 25008KT 6000 FEW005 BKN008 05/03 Q1025 TEMPO 2000 -DZ BKN003,EBCI,2019-01-12T05:20:00Z,50.47,4.45,5.0,3.0,250,8,,3.73,30.265747,,,,,,,,,,,FEW,500,BKN,800,,,,,IFR,,,,,,,,,,,,METAR,192.0
EBBR 120520Z 26009KT 7000 SCT009 BKN032 06/04 Q1024 TEMPO 3500 -DZ BR,EBBR,2019-01-12T05:20:00Z,50.9,4.5,6.0,4.0,260,9,,4.35,30.236221,,,,,,,,,,,SCT,900,BKN,3200,,,,,MVFR,,,,,,,,,,,,METAR,58.0
EBAW 120520Z AUTO 25010KT 9000 // OVC033/// 07/05 Q1024,EBAW,2019-01-12T05:20:00Z,51.2,4.47,7.0,5.0,250,10,,5.59,30.236221,,,TRUE,,,,,,,,OVC,3300,,,,,,,VFR,,,,,,,,,,,,METAR,14.0
LGSR 120520Z 18012KT 9999 SCT025 14/06 Q1009,LGSR,2019-01-12T05:20:00Z,36.4,25.48,14.0,6.0,180,12,,6.21,29.793306,,,,,,,,,,,SCT,2500,,,,,,,VFR,,,,,,,,,,,,METAR,40.0
LGRX 120520Z 06008KT 8000 -RA FEW010 SCT025 OVC080 09/08 Q1007,LGRX,2019-01-12T05:20:00Z,38.17,21.42,9.0,8.0,60,8,,4.97,29.734253,,,,,,,,,,-RA,FEW,1000,SCT,2500,OVC,8000,,,MVFR,,,,,,,,,,,,METAR,15.0
LGMT 120520Z 16006KT 130V250 9999 -RA SCT018TCU BKN025 10/08 Q1011,LGMT,2019-01-12T05:20:00Z,39.05,26.6,10.0,8.0,160,6,,6.21,29.852362,,,,,,,,,,-RA,SCT,1800,BKN,2500,,,,,MVFR,,,,,,,,,,,,METAR,17.0
LGKV 120520Z 00000KT 9999 BKN025 BKN080 04/M00 Q1014,LGKV,2019-01-12T05:20:00Z,40.92,24.62,4.0,0.0,0,0,,6.21,29.940945,,,,,,,,,,,BKN,2500,BKN,8000,,,,,MVFR,,,,,,,,,,,,METAR,5.0
LGEL 120520Z 32009KT 9000 -RA FEW012 FEW018TCU BKN025 OVC070 07/03 Q1010,LGEL,2019-01-12T05:20:00Z,38.07,23.55,7.0,3.0,320,9,,5.59,29.822834,,,,,,,,,,-RA,FEW,1200,FEW,1800,BKN,2500,OVC,7000,MVFR,,,,,,,,,,,,METAR,31.0
LGAL 120520Z 04014KT 9999 -RA FEW010 BKN025 03/02 Q1014,LGAL,2019-01-12T05:20:00Z,40.85,25.95,3.0,2.0,40,14,,6.21,29.940945,,,,,,,,,,-RA,FEW,1000,BKN,2500,,,,,MVFR,,,,,,,,,,,,METAR,3.0
LIPZ 120520Z 36003KT CAVOK M01/M03 Q1019 NOSIG,LIPZ,2019-01-12T05:20:00Z,45.5,12.35,-1.0,-3.0,360,3,,6.21,30.088583,,,,,,TRUE,,,,,CAVOK,,,,,,,,VFR,,,,,,,,,,,,METAR,6.0
LIPX 120520Z VRB01KT CAVOK M04/M06 Q1018,LIPX,2019-01-12T05:20:00Z,45.38,10.87,-4.0,-6.0,0,1,,6.21,30.059055,,,,,,,,,,,CAVOK,,,,,,,,VFR,,,,,,,,,,,,METAR,68.0
LIPR 120520Z AUTO 21006KT 9999 FEW140/// BKN150/// M01/M05 Q1019,LIPR,2019-01-12T05:20:00Z,44.02,12.62,-1.0,-5.0,210,6,,6.21,30.088583,,,TRUE,,,,,,,,FEW,14000,BKN,15000,,,,,VFR,,,,,,,,,,,,METAR,13.0
LIPQ 120520Z 02002KT 9999 SCT100 M02/M04 Q1018,LIPQ,2019-01-12T05:20:00Z,45.82,13.47,-2.0,-4.0,20,2,,6.21,30.059055,,,,,,,,,,,SCT,10000,,,,,,,VFR,,,,,,,,,,,,METAR,12.0
LIPH 120520Z AUTO 35003KT 9999 BKN230/// M01/M03 Q1018,LIPH,2019-01-12T05:20:00Z,45.63,12.17,-1.0,-3.0,350,3,,6.21,30.059055,,,TRUE,,,,,,,,BKN,23000,,,,,,,VFR,,,,,,,,,,,,METAR,23.0
LIPE 120520Z 20008KT CAVOK M01/M07 Q1019,LIPE,2019-01-12T05:20:00Z,44.52,11.3,-1.0,-7.0,200,8,,6.21,30.088583,,,,,,,,,,,CAVOK,,,,,,,,VFR,,,,,,,,,,,,METAR,42.0
LICJ 120520Z 09021G32KT 9999 -RA SCT022 SCT035 07/03 Q1014,LICJ,2019-01-12T05:20:00Z,38.17,13.08,7.0,3.0,90,21,32,6.21,29.940945,,,,,,,,,,-RA,SCT,2200,SCT,3500,,,,,VFR,,,,,,,,,,,,METAR,34.0
LICC 120520Z 26008KT 9999 FEW030 BKN100 05/05 Q1013,LICC,2019-01-12T05:20:00Z,37.47,15.05,5.0,5.0,260,8,,6.21,29.911417,,,,,,,,,,,FEW,3000,BKN,10000,,,,,VFR,,,,,,,,,,,,METAR,17.0
LIBR 120520Z 35017KT 9999 SCT040 08/M00 Q1013,LIBR,2019-01-12T05:20:00Z,40.65,17.95,8.0,0.0,350,17,,6.21,29.911417,,,,,,,,,,,SCT,4000,,,,,,,VFR,,,,,,,,,,,,METAR,10.0
LIBD 120520Z 30010KT 9999 SCT040 02/00 Q1015,LIBD,2019-01-12T05:20:00Z,41.12,16.77,2.0,0.0,300,10,,6.21,29.970472,,,,,,,,,,,SCT,4000,,,,,,,VFR,,,,,,,,,,,,METAR,44.0
LIRQ 120520Z VRB01KT CAVOK M06/M07 Q1020,LIRQ,2019-01-12T05:20:00Z,43.78,11.18,-6.0,-7.0,0,1,,6.21,30.11811,,,,,,,,,,,CAVOK,,,,,,,,VFR,,,,,,,,,,,,METAR,38.0
LIRN 120520Z 35007KT CAVOK 03/M04 Q1016 NOSIG,LIRN,2019-01-12T05:20:00Z,40.88,14.3,3.0,-4.0,350,7,,6.21,30.0,,,,,,TRUE,,,,,CAVOK,,,,,,,,VFR,,,,,,,,,,,,METAR,72.0
LIRF 120520Z 35004KT 310V040 CAVOK 01/M05 Q1018 NOSIG,LIRF,2019-01-12T05:20:00Z,41.78,12.22,1.0,-5.0,350,4,,6.21,30.059055,,,,,,TRUE,,,,,CAVOK,,,,,,,,VFR,,,,,,,,,,,,METAR,3.0
LIRA 120520Z 03005KT CAVOK M01/M05 Q1017,LIRA,2019-01-12T05:20:00Z,41.8,12.58,-1.0,-5.0,30,5,,6.21,30.029528,,,,,,,,,,,CAVOK,,,,,,,,VFR,,,,,,,,,,,,METAR,101.0
LIML 120520Z VRB01KT CAVOK M03/M06 Q1019 NOSIG,LIML,2019-01-12T05:20:00Z,45.47,9.27,-3.0,-6.0,0,1,,6.21,30.088583,,,,,,TRUE,,,,,CAVOK,,,,,,,,VFR,,,,,,,,,,,,METAR,103.0
LIMJ 120520Z 01006KT CAVOK 04/M09 Q1020,LIMJ,2019-01-12T05:20:00Z,44.42,8.83,4.0,-9.0,10,6,,6.21,30.11811,,,,,,,,,,,CAVOK,,,,,,,,VFR,,,,,,,,,,,,METAR,3.0
LIMF 120520Z 29004KT CAVOK M01/M07 Q1018,LIMF,2019-01-12T05:20:00Z,45.22,7.65,-1.0,-7.0,290,4,,6.21,30.059055,,,,,,,,,,,CAVOK,,,,,,,,VFR,,,,,,,,,,,,METAR,287.0
LIME 120520Z VRB02KT CAVOK M01/M08 Q1018 NOSIG,LIME,2019-01-12T05:20:00Z,45.67,9.68,-1.0,-8.0,0,2,,6.21,30.059055,,,,,,TRUE,,,,,CAVOK,,,,,,,,VFR,,,,,,,,,,,,METAR,237.0
LIMC 120520Z VRB01KT CAVOK M04/M08 Q1018 NOSIG,LIMC,2019-01-12T05:20:00Z,45.62,8.72,-4.0,-8.0,0,1,,6.21,30.059055,,,,,,TRUE,,,,,CAVOK,,,,,,,,VFR,,,,,,,,,,,,METAR,211.0
LIEO 120520Z 23011KT CAVOK 03/00 Q1020,LIEO,2019-01-12T05:20:00Z,40.88,9.52,3.0,0.0,230,11,,6.21,30.11811,,,,,,,,,,,CAVOK,,,,,,,,VFR,,,,,,,,,,,,METAR,13.0
LIEE 120520Z 33008KT CAVOK 00/M02 Q1021,LIEE,2019-01-12T05:20:00Z,39.25,9.07,0.0,-2.0,330,8,,6.21,30.147638,,,,,,,,,,,CAVOK,,,,,,,,VFR,,,,,,,,,,,,METAR,4.0
LIEA 120520Z VRB01KT CAVOK M00/M01 Q1021,LIEA,2019-01-12T05:20:00Z,40.62,8.27,0.0,-1.0,0,1,,6.21,30.147638,,,,,,,,,,,CAVOK,,,,,,,,VFR,,,,,,,,,,,,METAR,23.0
ENWV 120520Z AUTO 26030KT 0900NDV DU OVC006/// 07/06 Q1008 W///S5,ENWV,2019-01-12T05:20:00Z,,,7.0,6.0,260,30,,,29.763779,,,TRUE,,,,,,,DU,OVC,600,,,,,,,,,,,,,,,,,,,METAR,
ENUG 120520Z AUTO 34043G57KT 0900NDV // OVC008/// 01/00 Q0979 W07/S7,ENUG,2019-01-12T05:20:00Z,,,1.0,0.0,340,43,57,,28.90748,,,TRUE,,,,,,,,OVC,800,,,,,,,,,,,,,,,,,,,METAR,
ENLA 120520Z AUTO 27033KT //// FEW010/// SCT034/// BKN066/// 08/07 Q//// W///S5,ENLA,2019-01-12T05:20:00Z,57.1,2.83,8.0,7.0,270,33,,,,,,TRUE,,,,,,,,FEW,1000,SCT,3400,BKN,6600,,,,,,,,,,,,,,,METAR,4.0
ENHM 120520Z AUTO 27031KT 9999NDV -SHRA FEW012/// SCT021/// BKN030/// 07/06 Q1000 W08/S6,ENHM,2019-01-12T05:20:00Z,59.57,2.23,7.0,6.0,270,31,,,29.52756,,,TRUE,,,,,,,-SHRA,FEW,1200,SCT,2100,BKN,3000,,,,,,,,,,,,,,,METAR,10.0
ENQA 120520Z AUTO 19017KT 6000NDV -RA OVC005/// 06/05 Q1000 W05/S6,ENQA,2019-01-12T05:20:00Z,60.65,3.72,6.0,5.0,190,17,,,29.52756,,,TRUE,,,,,,,-RA,OVC,500,,,,,,,,,,,,,,,,,,,METAR,20.0
ENQC 120520Z AUTO 17016KT 6000NDV -SHRA BKN005/// 06/06 Q0999 W///S6,ENQC,2019-01-12T05:20:00Z,60.88,3.62,6.0,6.0,170,16,,,29.498032,,,TRUE,,,,,,,-SHRA,BKN,500,,,,,,,,,,,,,,,,,,,METAR,20.0
ENSE 120520Z AUTO 21022KT 9999NDV -RA FEW010/// SCT013/// BKN019/// 07/06 Q0996 W///S/,ENSE,2019-01-12T05:20:00Z,61.45,2.15,7.0,6.0,210,22,,,29.409449,,,TRUE,,,,,,,-RA,FEW,1000,SCT,1300,BKN,1900,,,,,,,,,,,,,,,METAR,10.0
ENQR 120520Z AUTO 20020KT 9999NDV FEW013/// OVC048/// 07/06 Q0996 W///S6,ENQR,2019-01-12T05:20:00Z,61.35,2.22,7.0,6.0,200,20,,,29.409449,,,TRUE,,,,,,,,FEW,1300,OVC,4800,,,,,,,,,,,,,,,,,METAR,10.0
ENNE 120520Z AUTO 02020KT 9999NDV -SHRA BKN027/// 02/M03 Q0999 W///S6,ENNE,2019-01-12T05:20:00Z,66.03,8.08,2.0,-3.0,20,20,,,29.498032,,,TRUE,,,,,,,-SHRA,BKN,2700,,,,,,,,,,,,,,,,,,,METAR,10.0
ENVD 120520Z 27010KT 9999 SCT008 BKN015 M03/M03 Q0971,ENVD,2019-01-12T05:20:00Z,70.07,29.85,-3.0,-3.0,270,10,,6.21,28.671259,,,,,,,,,,,SCT,800,BKN,1500,,,,,MVFR,,,,,,,,,,,,METAR,39.0
ENNA 120520Z AUTO 32028KT 9000 -RASN ///021/// 01/M00 Q0976 RMK WIND 1800FT /////KT,ENNA,2019-01-12T05:20:00Z,70.07,24.97,1.0,0.0,320,28,,5.59,28.818897,,,TRUE,,,,,,,-RA -SN,,,,,,,,,,,,,,,,,,,,,SPECI,8.0
ENML 120520Z VRB02KT 9999 FEW030 BKN034 02/M01 Q1002,ENML,2019-01-12T05:20:00Z,62.75,7.27,2.0,-1.0,0,2,,6.21,29.586615,,,,,,,,,,,FEW,3000,BKN,3400,,,,,VFR,,,,,,,,,,,,METAR,3.0
ENKR 120520Z AUTO 27013KT 9999 -SN FEW004/// SCT014/// BKN034/// M03/M05 Q0971 RESN RMK WIND 731FT 27015KT,ENKR,2019-01-12T05:20:00Z,69.72,29.88,-3.0,-5.0,270,13,,6.21,28.671259,,,TRUE,,,,,,,-SN,FEW,400,SCT,1400,BKN,3400,,,VFR,,,,,,,,,,,,SPECI,91.0
PASI 120519Z 15006KT 10SM BKN026 OVC033 06/04 A2969 RMK AO2 T00610044 $,PASI,2019-01-12T05:19:00Z,57.07,-135.35,6.1,4.4,150,6,,10.0,29.68996,,,,TRUE,TRUE,,,,,,BKN,2600,OVC,3300,,,,,MVFR,,,,,,,,,,,,METAR,5.0
SPQT 120519Z 10003KT 8000 -RA VCFG BKN010 SCT040 OVC100 23/22 Q1012,SPQT,2019-01-12T05:19:00Z,-3.78,-73.32,23.0,22.0,100,3,,4.97,29.88189,,,,,,,,,,-RA VCFG,BKN,1000,SCT,4000,OVC,10000,,,MVFR,,,,,,,,,,,,SPECI,126.0
CYBR 120519Z 06006KT 15SM -SN OVC030 M13/M15 A3042 RMK SC8 SLP342,CYBR,2019-01-12T05:19:00Z,49.92,-99.95,-13.0,-15.0,60,6,,15.0,30.41929,1034.2,,,,,,,,,-SN,OVC,3000,,,,,,,MVFR,,,,,,,,,,,,SPECI,409.0
KVBT 120519Z AUTO 13013KT 7SM -RA BKN007 BKN013 OVC022 02/01 A2999 RMK AO2 CIG 005V009 P0004 FZRANO,KVBT,2019-01-12T05:19:00Z,36.35,-94.22,2.0,1.0,130,13,,7.0,29.991142,,,TRUE,TRUE,,,,TRUE,,-RA,BKN,700,BKN,1300,OVC,2200,,,IFR,,,,,,0.04,,,,,,METAR,395.0
KAJO 120519Z AUTO 2SM BR RMK AO2 FZRANO $,KAJO,2019-01-12T05:19:00Z,33.9,-117.6,,,,,,2.0,,,,TRUE,TRUE,TRUE,,,TRUE,,BR,,,,,,,,,,,,,,,,,,,,,METAR,163.0
KMWL 120519Z AUTO 16007KT 7SM SCT019 BKN033 OVC085 12/11 A2988 RMK AO2 RAE14 P0001 T01220111,KMWL,2019-01-12T05:19:00Z,32.78,-98.07,12.2,11.1,160,7,,7.0,29.878937,,,TRUE,TRUE,,,,,,,SCT,1900,BKN,3300,OVC,8500,,,VFR,,,,,,0.01,,,,,,METAR,284.0
KINJ 120519Z AUTO 17010KT 10SM OVC007 13/13 A2992 RMK AO2,KINJ,2019-01-12T05:19:00Z,32.08,-97.1,13.0,13.0,170,10,,10.0,29.920275,,,TRUE,TRUE,,,,,,,OVC,700,,,,,,,IFR,,,,,,,,,,,,SPECI,209.0
ETAD 120519Z AUTO 24007KT 9999 -RA SCT005 OVC014 03/03 A3020 RMK AO2 RAB00 CIG 012 RWY23 SLP234 $,ETAD,2019-01-12T05:19:00Z,49.98,6.7,3.0,3.0,240,7,,6.21,30.200787,1023.4,,TRUE,TRUE,TRUE,,,,,-RA,SCT,500,OVC,1400,,,,,MVFR,,,,,,,,,,,,SPECI,365.0
KSUS 120518Z AUTO 10005KT 1 1/4SM -SN BR BKN010 OVC020 M01/M02 A3019 RMK AO2 P0001 T10111022,KSUS,2019-01-12T05:18:00Z,38.65,-90.65,-1.1,-2.2,100,5,,1.25,30.188976,,,TRUE,TRUE,,,,,,-SN BR,BKN,1000,OVC,2000,,,,,IFR,,,,,,0.01,,,,,,SPECI,141.0
PAHX 120518Z AUTO 02011KT 10SM BKN005 M36/ A2991 RMK AO2 FZRANO,PAHX,2019-01-12T05:18:00Z,62.7,-159.57,-36.0,,20,11,,10.0,29.911417,,,TRUE,TRUE,,,,TRUE,,,BKN,500,,,,,,,IFR,,,,,,,,,,,,SPECI,24.0
KSKA 120518Z 06011KT 1/4SM R05/2200V2600FT FG VV001 00/00 A3012 RMK AO2A SLP225,KSKA,2019-01-12T05:18:00Z,47.62,-117.65,0.0,0.0,60,11,,0.25,30.121063,1022.5,,,TRUE,,,,,,FG,OVX,0,,,,,,,LIFR,,,,,,,,,,,100,SPECI,750.0
KGRK 120518Z AUTO 17006KT 10SM OVC005 13/12 A2994 RMK AO2 SLP138,KGRK,2019-01-12T05:18:00Z,31.07,-97.83,13.0,12.0,170,6,,10.0,29.940945,1013.8,,TRUE,TRUE,,,,,,,OVC,500,,,,,,,IFR,,,,,,,,,,,,SPECI,309.0
KDHT 120518Z AUTO 35016KT 9SM BKN023 BKN049 OVC065 01/M01 A3000 RMK AO2 SNE17 P0000 T00111011,KDHT,2019-01-12T05:18:00Z,36.02,-102.55,1.1,-1.1,350,16,,9.0,30.0,,,TRUE,TRUE,,,,,,,BKN,2300,BKN,4900,OVC,6500,,,MVFR,,,,,,0.005,,,,,,METAR,1217.0
KCLM 120518Z AUTO 00000KT 3SM BR FEW002 02/02 A2992 RMK AO2 T00220017,KCLM,2019-01-12T05:18:00Z,48.12,-123.5,2.2,1.7,0,0,,3.0,29.920275,,,TRUE,TRUE,,,,,,BR,FEW,200,,,,,,,MVFR,,,,,,,,,,,,METAR,85.0
KJES 120518Z AUTO 06005KT 10SM OVC050 09/02 A3031 RMK AO2,KJES,2019-01-12T05:18:00Z,31.55,-81.88,9.0,2.0,60,5,,10.0,30.31004,,,TRUE,TRUE,,,,,,,OVC,5000,,,,,,,VFR,,,,,,,,,,,,METAR,33.0
PAFR 120518Z AUTO 00000KT 7SM OVC004 M20/M22 A2974 RMK AO2 SLP089,PAFR,2019-01-12T05:18:00Z,61.27,-149.65,-20.0,-22.0,0,0,,7.0,29.740158,1008.9,,TRUE,TRUE,,,,,,,OVC,400,,,,,,,LIFR,,,,,,,,,,,,METAR,115.0
KSAW 120518Z AUTO 00000KT 10SM OVC015 M07/M09 A3036 RMK AO2 T10701087,KSAW,2019-01-12T05:18:00Z,46.35,-87.4,-7.0,-8.7,0,0,,10.0,30.360237,,,TRUE,TRUE,,,,,,,OVC,1500,,,,,,,MVFR,,,,,,,,,,,,METAR,372.0
KEVV 120517Z AUTO 06004KT 1 1/2SM -SN BR OVC007 M01/M01 A3027 RMK AO2 P0003 T10061006 $,KEVV,2019-01-12T05:17:00Z,38.05,-87.52,-0.6,-0.6,60,4,,1.5,30.268702,,,TRUE,TRUE,TRUE,,,,,-SN BR,OVC,700,,,,,,,IFR,,,,,,0.03,,,,,,SPECI,117.0
KBDE 120517Z AUTO 07006KT 3SM -SN BR BKN011 OVC017 M07/M08 A3035 RMK AO2 P0000 T10671083,KBDE,2019-01-12T05:17:00Z,48.73,-94.62,-6.7,-8.3,70,6,,3.0,30.351377,,,TRUE,TRUE,,,,,,-SN BR,BKN,1100,OVC,1700,,,,,MVFR,,,,,,0.005,,,,,,SPECI,329.0
KFYV 120517Z AUTO 13010G17KT 7SM RA SCT018 OVC030 03/01 A2998 RMK AO2 P0002 T00330006,KFYV,2019-01-12T05:17:00Z,36.02,-94.17,3.3,0.6,130,10,17,7.0,29.97933,,,TRUE,TRUE,,,,,,RA,SCT,1800,OVC,3000,,,,,MVFR,,,,,,0.02,,,,,,SPECI,379.0
KAMN 120517Z AUTO 09004KT 10SM OVC070 M04/M11 A3039 RMK AO2,KAMN,2019-01-12T05:17:00Z,43.32,-84.68,-4.0,-11.0,90,4,,10.0,30.389763,,,TRUE,TRUE,,,,,,,OVC,7000,,,,,,,VFR,,,,,,,,,,,,SPECI,230.0
PAAK 120517Z AUTO 12016KT 4SM +RA BR OVC013 04/02 A2891 RMK AO2 PNO $,PAAK,2019-01-12T05:17:00Z,52.22,-174.2,4.0,2.0,120,16,,4.0,28.910433,,,TRUE,TRUE,TRUE,,,,,+RA BR,OVC,1300,,,,,,,MVFR,,,,,,,,,,,,SPECI,17.0
YMIA 120517Z AUTO 27015G26KT 9999 // NCD 42/M01 Q1009,YMIA,2019-01-12T05:17:00Z,-34.23,142.08,42.0,-1.0,270,15,26,6.21,29.793306,,,TRUE,,,,,,,,CLR,,,,,,,,VFR,,,,,,,,,,,,SPECI,51.0
KNGP 120517Z AUTO 19009KT 10SM FEW010 SCT029 OVC100 21/18 A2995 RMK AO2 RAE01 P0000 T02060183,KNGP,2019-01-12T05:17:00Z,27.68,-97.27,20.6,18.3,190,9,,10.0,29.949802,,,TRUE,TRUE,,,,,,,FEW,1000,SCT,2900,OVC,10000,,,VFR,,,,,,0.005,,,,,,SPECI,6.0
KNSI 120517Z AUTO 16016KT 3/4SM RA VV002 14/ A2995 RMK AO2 P0002 T0139 $,KNSI,2019-01-12T05:17:00Z,33.22,-119.45,13.9,,160,16,,0.75,29.949802,,,TRUE,TRUE,TRUE,,,,,RA,OVX,0,,,,,,,LIFR,,,,,,0.02,,,,,200,SPECI,154.0
KRTN 120517Z AUTO 01021G29KT 3SM -SN OVC031 00/M03 A3004 RMK AO2 PK WND 02029/0516 P0000 T00001033,KRTN,2019-01-12T05:17:00Z,36.73,-104.5,0.0,-3.3,10,21,29,3.0,30.041338,,,TRUE,TRUE,,,,,,-SN,OVC,3100,,,,,,,MVFR,,,,,,0.005,,,,,,SPECI,1936.0
KMOT 120517Z AUTO 35004KT 3SM -SN BR SCT012 OVC025 M11/M13 A3037 RMK AO2 P0000 T11111133,KMOT,2019-01-12T05:17:00Z,48.25,-101.27,-11.1,-13.3,350,4,,3.0,30.369095,,,TRUE,TRUE,,,,,,-SN BR,SCT,1200,OVC,2500,,,,,MVFR,,,,,,0.005,,,,,,SPECI,519.0
KCUL 120516Z AUTO 08006KT 3/4SM -SN BKN006 OVC023 M01/M01 A3024 RMK AO2 P0001,KCUL,2019-01-12T05:16:00Z,38.08,-88.12,-1.0,-1.0,80,6,,0.75,30.239174,,,TRUE,TRUE,,,,,,-SN,BKN,600,OVC,2300,,,,,LIFR,,,,,,0.01,,,,,,SPECI,118.0
KFGN 120516Z AUTO 06006KT 10SM OVC028 M08/M11 A3038 RMK AO2,KFGN,2019-01-12T05:16:00Z,49.32,-94.9,-8.0,-11.0,60,6,,10.0,30.380905,,,TRUE,TRUE,,,,,,,OVC,2800,,,,,,,MVFR,,,,,,,,,,,,SPECI,328.0
KBFW 120516Z AUTO 06005KT 10SM SCT009 BKN018 OVC022 M03/M04 A3032 RMK AO2,KBFW,2019-01-12T05:16:00Z,47.25,-91.4,-3.0,-4.0,60,5,,10.0,30.318897,,,TRUE,TRUE,,,,,,,SCT,900,BKN,1800,OVC,2200,,,MVFR,,,,,,,,,,,,SPECI,331.0
KFKA 120516Z AUTO 10005KT 10SM OVC039 M03/M06 A3023 RMK AO2 T10271062,KFKA,2019-01-12T05:16:00Z,43.68,-92.17,-2.7,-6.2,100,5,,10.0,30.230314,,,TRUE,TRUE,,,,,,,OVC,3900,,,,,,,VFR,,,,,,,,,,,,SPECI,389.0
K40B 120516Z AUTO 23006G12KT 150V290 M18/M22 A2998 RMK AO1 SLP198 T11841219 411111186 51011 P0001,K40B,2019-01-12T05:16:00Z,46.62,-69.52,-18.4,-21.9,230,6,12,,29.97933,1019.8,,TRUE,TRUE,,,,,,,,,,,,,,,,1.1,,,-11.1,-18.6,0.01,,,,,,SPECI,314.0
KLVN 120516Z AUTO 00000KT 10SM CLR M05/M06 A3024 RMK AO2,KLVN,2019-01-12T05:16:00Z,44.63,-93.23,-5.0,-6.0,0,0,,10.0,30.239174,,,TRUE,TRUE,,,,,,,CLR,,,,,,,,VFR,,,,,,,,,,,,METAR,293.0
KSAZ 120516Z AUTO 00000KT 10SM OVC032 M06/M09 A3026 RMK AO2,KSAZ,2019-01-12T05:16:00Z,46.37,-94.8,-6.0,-9.0,0,0,,10.0,30.259842,,,TRUE,TRUE,,,,,,,OVC,3200,,,,,,,VFR,,,,,,,,,,,,SPECI,392.0
KBDH 120516Z AUTO 04005KT 10SM OVC019 M06/M07 A3025 RMK AO2,KBDH,2019-01-12T05:16:00Z,45.12,-95.13,-6.0,-7.0,40,5,,10.0,30.250984,,,TRUE,TRUE,,,,,,,OVC,1900,,,,,,,MVFR,,,,,,,,,,,,SPECI,247.0
PAPG 120516Z 00000KT 10SM -RASN BKN023 OVC035 01/01 A2977 RMK AO2 P0000,PAPG,2019-01-12T05:16:00Z,56.82,-132.97,1.0,1.0,0,0,,10.0,29.769686,,,,TRUE,,,,,,-RA -SN,BKN,2300,OVC,3500,,,,,MVFR,,,,,,0.005,,,,,,METAR,15.0
PAGS 120516Z AUTO 32005KT 4SM UP BR OVC029 00/M01 A2973 RMK AO2 P0000 FZRANO,PAGS,2019-01-12T05:16:00Z,58.42,-135.73,0.0,-1.0,320,5,,4.0,29.731298,,,TRUE,TRUE,,,,TRUE,,BR UP,OVC,2900,,,,,,,MVFR,,,,,,0.005,,,,,,METAR,9.0
PABL 120516Z AUTO 00000KT 6SM HZ CLR M44/ A3008 RMK AO2 FZRANO,PABL,2019-01-12T05:16:00Z,65.98,-161.15,-44.0,,0,0,,6.0,30.079725,,,TRUE,TRUE,,,,TRUE,,HZ,CLR,,,,,,,,VFR,,,,,,,,,,,,METAR,7.0
KADC 120516Z AUTO 06003KT 10SM OVC026 M06/M09 A3025 RMK AO2,KADC,2019-01-12T05:16:00Z,46.45,-95.22,-6.0,-9.0,60,3,,10.0,30.250984,,,TRUE,TRUE,,,,,,,OVC,2600,,,,,,,MVFR,,,,,,,,,,,,SPECI,418.0
KTOB 120516Z AUTO 10005KT 10SM SCT095 M04/M06 A3022 RMK AO2,KTOB,2019-01-12T05:16:00Z,44.02,-92.82,-4.0,-6.0,100,5,,10.0,30.221457,,,TRUE,TRUE,,,,,,,SCT,9500,,,,,,,VFR,,,,,,,,,,,,SPECI,398.0
KOVL 120516Z AUTO 35004KT 10SM CLR M06/M07 A3023 RMK AO2,KOVL,2019-01-12T05:16:00Z,44.78,-95.03,-6.0,-7.0,350,4,,10.0,30.230314,,,TRUE,TRUE,,,,,,,CLR,,,,,,,,VFR,,,,,,,,,,,,SPECI,328.0
KMZH 120516Z AUTO 06004KT 10SM SCT031 OVC037 M04/M08 A3028 RMK AO2,KMZH,2019-01-12T05:16:00Z,46.42,-92.8,-4.0,-8.0,60,4,,10.0,30.280512,,,TRUE,TRUE,,,,,,,SCT,3100,OVC,3700,,,,,VFR,,,,,,,,,,,,SPECI,328.0
KMRT 120516Z AUTO 00000KT 10SM CLR M03/M06 A3035 RMK AO2 T10351061,KMRT,2019-01-12T05:16:00Z,40.22,-83.35,-3.5,-6.1,0,0,,10.0,30.351377,,,TRUE,TRUE,,,,,,,CLR,,,,,,,,VFR,,,,,,,,,,,,SPECI,312.0
KSPS 120516Z 27013KT 10SM BKN016 BKN022 BKN100 08/07 A2986 RMK AO2 RAE0455 P0000 T00830072,KSPS,2019-01-12T05:16:00Z,33.98,-98.5,8.3,7.2,270,13,,10.0,29.861221,,,,TRUE,,,,,,,BKN,1600,BKN,2200,BKN,10000,,,MVFR,,,,,,0.005,,,,,,SPECI,308.0
KPSF 120516Z AUTO VRB03KT 10SM BKN015 M13/M17 A3030 RMK AO2 T11331167,KPSF,2019-01-12T05:16:00Z,42.43,-73.28,-13.3,-16.7,0,3,,10.0,30.301182,,,TRUE,TRUE,,,,,,,BKN,1500,,,,,,,MVFR,,,,,,,,,,,,SPECI,355.0
KHIB 120516Z AUTO 06003KT 3SM BR OVC007 M06/M07 A3030 RMK AO2 T10611067,KHIB,2019-01-12T05:16:00Z,47.38,-92.83,-6.1,-6.7,60,3,,3.0,30.301182,,,TRUE,TRUE,,,,,,BR,OVC,700,,,,,,,IFR,,,,,,,,,,,,SPECI,412.0
KCRP 120516Z 22007KT 10SM FEW008 SCT012 OVC110 19/18 A2996 RMK AO2 T01890178,KCRP,2019-01-12T05:16:00Z,27.77,-97.5,18.9,17.8,220,7,,10.0,29.958662,,,,TRUE,,,,,,,FEW,800,SCT,1200,OVC,11000,,,VFR,,,,,,,,,,,,SPECI,14.0
KMGN 120516Z AUTO 07005KT 10SM BKN050 OVC065 M06/M12 A3042 RMK AO2 T10671125,KMGN,2019-01-12T05:16:00Z,45.43,-84.92,-6.7,-12.5,70,5,,10.0,30.41929,,,TRUE,TRUE,,,,,,,BKN,5000,OVC,6500,,,,,VFR,,,,,,,,,,,,SPECI,209.0
KMCD 120516Z AUTO 07004KT 10SM OVC005 M07/M07 A3042 RMK AO2 T10701070,KMCD,2019-01-12T05:16:00Z,45.85,-84.63,-7.0,-7.0,70,4,,10.0,30.41929,,,TRUE,TRUE,,,,,,,OVC,500,,,,,,,IFR,,,,,,,,,,,,SPECI,226.0
KRQB 120516Z AUTO 11004KT 10SM OVC021 M03/M09 A3037 RMK AO2 T10351090,KRQB,2019-01-12T05:16:00Z,43.72,-85.5,-3.5,-9.0,110,4,,10.0,30.369095,,,TRUE,TRUE,,,,,,,OVC,2100,,,,,,,MVFR,,,,,,,,,,,,SPECI,302.0
KPWC 120516Z AUTO 08005KT 10SM OVC023 M06/M09 A3030 RMK AO2,KPWC,2019-01-12T05:16:00Z,46.72,-94.37,-6.0,-9.0,80,5,,10.0,30.301182,,,TRUE,TRUE,,,,,,,OVC,2300,,,,,,,MVFR,,,,,,,,,,,,SPECI,395.0
KDXX 120516Z AUTO 33008KT 10SM CLR M08/M10 A3026 RMK AO2,KDXX,2019-01-12T05:16:00Z,44.98,-96.18,-8.0,-10.0,330,8,,10.0,30.259842,,,TRUE,TRUE,,,,,,,CLR,,,,,,,,VFR,,,,,,,,,,,,SPECI,330.0
KCKN 120516Z AUTO 36007KT 4SM BR OVC004 M07/M08 A3036 RMK AO2,KCKN,2019-01-12T05:16:00Z,47.85,-96.62,-7.0,-8.0,360,7,,4.0,30.360237,,,TRUE,TRUE,,,,,,BR,OVC,400,,,,,,,LIFR,,,,,,,,,,,,SPECI,273.0
KCKC 120516Z AUTO 02011KT 5SM BR OVC005 M10/M12 A3033 RMK AO2,KCKC,2019-01-12T05:16:00Z,47.83,-90.37,-10.0,-12.0,20,11,,5.0,30.33071,,,TRUE,TRUE,,,,,,BR,OVC,500,,,,,,,IFR,,,,,,,,,,,,SPECI,548.0
KEND 120516Z AUTO 07012KT 3SM -RA BR OVC029 04/04 A2983 RMK AO2 DZE01RAB01 CIG 003 RWY35C SLP110 $,KEND,2019-01-12T05:16:00Z,36.32,-97.92,4.0,4.0,70,12,,3.0,29.828741,1011.0,,TRUE,TRUE,TRUE,,,,,-RA BR,OVC,2900,,,,,,,MVFR,,,,,,,,,,,,SPECI,398.0
KD39 120516Z AUTO 00000KT 2 1/2SM BR CLR M11/M12 A3025 RMK AO2 VIS 1 1/4V5 T11121120,KD39,2019-01-12T05:16:00Z,45.7,-94.93,-11.2,-12.0,0,0,,2.5,30.250984,,,TRUE,TRUE,,,,,,BR,CLR,,,,,,,,IFR,,,,,,,,,,,,METAR,380.0
KVWU 120516Z AUTO 07007KT 7SM OVC006 M06/M07 A3034 RMK AO2,KVWU,2019-01-12T05:16:00Z,48.15,-94.52,-6.0,-7.0,70,7,,7.0,30.339567,,,TRUE,TRUE,,,,,,,OVC,600,,,,,,,IFR,,,,,,,,,,,,SPECI,360.0
KLXL 120516Z AUTO 00000KT 5SM BR CLR M07/M09 A3027 RMK AO2,KLXL,2019-01-12T05:16:00Z,45.95,-94.33,-7.0,-9.0,0,0,,5.0,30.268702,,,TRUE,TRUE,,,,,,BR,CLR,,,,,,,,MVFR,,,,,,,,,,,,SPECI,342.0
KHZR 120516Z AUTO 10005KT 10SM CLR 09/07 A3009 RMK AO2,KHZR,2019-01-12T05:16:00Z,30.72,-91.48,9.0,7.0,100,5,,10.0,30.088583,,,TRUE,TRUE,,,,,,,CLR,,,,,,,,VFR,,,,,,,,,,,,METAR,12.0
KI23 120516Z AUTO 10005KT 10SM CLR M03/M07 A3034 RMK AO1,KI23,2019-01-12T05:16:00Z,39.57,-83.42,-3.0,-7.0,100,5,,10.0,30.339567,,,TRUE,TRUE,,,,,,,CLR,,,,,,,,VFR,,,,,,,,,,,,METAR,299.0
KHCD 120516Z AUTO 05005KT 10SM CLR M05/M07 A3023 RMK AO2 T10481068,KHCD,2019-01-12T05:16:00Z,44.87,-94.38,-4.8,-6.8,50,5,,10.0,30.230314,,,TRUE,TRUE,,,,,,,CLR,,,,,,,,VFR,,,,,,,,,,,,METAR,323.0
KISQ 120516Z AUTO 05006KT 10SM -SN OVC030 M06/M09 A3040 RMK AO2 T10651095,KISQ,2019-01-12T05:16:00Z,45.97,-86.17,-6.5,-9.5,50,6,,10.0,30.398623,,,TRUE,TRUE,,,,,,-SN,OVC,3000,,,,,,,MVFR,,,,,,,,,,,,SPECI,209.0
KSBO 120515Z AUTO 09005KT 10SM OVC046 05/M01 A3033 RMK AO2,KSBO,2019-01-12T05:15:00Z,32.62,-82.37,5.0,-1.0,90,5,,10.0,30.33071,,,TRUE,TRUE,,,,,,,OVC,4600,,,,,,,VFR,,,,,,,,,,,,METAR,100.0
KRTS 120515Z AUTO 00000KT 10SM CLR M03/M04 A3002 RMK AO2,KRTS,2019-01-12T05:15:00Z,39.67,-119.88,-3.0,-4.0,0,0,,10.0,30.02067,,,TRUE,TRUE,,,,,,,CLR,,,,,,,,VFR,,,,,,,,,,,,SPECI,1540.0
KSME 120515Z AUTO 05004KT 10SM -SN OVC035 01/M03 A3032 RMK AO2,KSME,2019-01-12T05:15:00Z,37.05,-84.62,1.0,-3.0,50,4,,10.0,30.318897,,,TRUE,TRUE,,,,,,-SN,OVC,3500,,,,,,,VFR,,,,,,,,,,,,METAR,283.0
KSHD 120515Z AUTO 00000KT 10SM CLR M04/M08 A3040 RMK AO2 T10401080,KSHD,2019-01-12T05:15:00Z,38.27,-78.9,-4.0,-8.0,0,0,,10.0,30.398623,,,TRUE,TRUE,,,,,,,CLR,,,,,,,,VFR,,,,,,,,,,,,METAR,366.0
KSFQ 120515Z AUTO 00000KT 10SM CLR M03/M05 A3045 RMK AO2 T10301055,KSFQ,2019-01-12T05:15:00Z,36.68,-76.6,-3.0,-5.5,0,0,,10.0,30.448818,,,TRUE,TRUE,,,,,,,CLR,,,,,,,,VFR,,,,,,,,,,,,METAR,22.0
CYPR 120515Z AUTO 00000KT 9SM -RA OVC025 05/05 A2977 RMK SLP082,CYPR,2019-01-12T05:15:00Z,54.28,-130.42,5.0,5.0,0,0,,9.0,29.769686,1008.2,,TRUE,,,,,,,-RA,OVC,2500,,,,,,,MVFR,,,,,,,,,,,,SPECI,34.0
KSDC 120515Z AUTO 25004KT 10SM BKN031 M07/M13 A3046 RMK AO2,KSDC,2019-01-12T05:15:00Z,43.23,-77.12,-7.0,-13.0,250,4,,10.0,30.46063,,,TRUE,TRUE,,,,,,,BKN,3100,,,,,,,VFR,,,,,,,,,,,,METAR,129.0
KSAA 120515Z AUTO 17007KT 1/2SM FZFG OVC001 M07/M07 A3019 RMK AO2,KSAA,2019-01-12T05:15:00Z,41.45,-106.83,-7.0,-7.0,170,7,,0.5,30.188976,,,TRUE,TRUE,,,,,,FZFG,OVC,100,,,,,,,LIFR,,,,,,,,,,,,METAR,2138.0
KRZN 120515Z AUTO 00000KT 10SM SCT048 M10/M12 A3029 RMK AO2 T11011119,KRZN,2019-01-12T05:15:00Z,45.82,-92.37,-10.1,-11.9,0,0,,10.0,30.28937,,,TRUE,TRUE,,,,,,,SCT,4800,,,,,,,VFR,,,,,,,,,,,,METAR,301.0
KRPJ 120515Z AUTO 13006KT 7SM OVC075 M02/M04 A3029 RMK AO2 T10201041,KRPJ,2019-01-12T05:15:00Z,41.88,-89.08,-2.0,-4.1,130,6,,7.0,30.28937,,,TRUE,TRUE,,,,,,,OVC,7500,,,,,,,VFR,,,,,,,,,,,,METAR,238.0
KRCR 120515Z AUTO 11003KT 10SM CLR M01/M05 A3033 RMK AO2,KRCR,2019-01-12T05:15:00Z,41.07,-86.18,-1.0,-5.0,110,3,,10.0,30.33071,,,TRUE,TRUE,,,,,,,CLR,,,,,,,,VFR,,,,,,,,,,,,METAR,241.0
KT35 120515Z AUTO 00000KT 10SM SCT002 SCT095 SCT120 13/13 A2996 RMK AO2 T01300126,KT35,2019-01-12T05:15:00Z,30.88,-96.97,13.0,12.6,0,0,,10.0,29.958662,,,TRUE,TRUE,,,,,,,SCT,200,SCT,9500,SCT,12000,,,VFR,,,,,,,,,,,,METAR,123.0
KT20 120515Z AUTO 00000KT 10SM -DZ BKN019 BKN025 OVC055 15/15 A2996 RMK AO2 LTG DSNT SE P0001 T01470147,KT20,2019-01-12T05:15:00Z,29.52,-97.47,14.7,14.7,0,0,,10.0,29.958662,,,TRUE,TRUE,,,,,,-DZ,BKN,1900,BKN,2500,OVC,5500,,,MVFR,,,,,,0.01,,,,,,METAR,108.0
KSNK 120515Z AUTO 32006KT 10SM CLR 06/04 A2998 RMK AO2 T00600039,KSNK,2019-01-12T05:15:00Z,32.7,-100.95,6.0,3.9,320,6,,10.0,29.97933,,,TRUE,TRUE,,,,,,,CLR,,,,,,,,VFR,,,,,,,,,,,,METAR,741.0
KSFY 120515Z AUTO 13007KT 10SM OVC075 M01/M04 A3028 RMK AO2,KSFY,2019-01-12T05:15:00Z,42.05,-90.12,-1.0,-4.0,130,7,,10.0,30.280512,,,TRUE,TRUE,,,,,,,OVC,7500,,,,,,,VFR,,,,,,,,,,,,SPECI,188.0
K1H2 120515Z AUTO 08006KT 1 1/4SM -SN BKN005 OVC011 M01/M01 A3027 RMK AO2 T10151015,K1H2,2019-01-12T05:15:00Z,39.07,-88.53,-1.5,-1.5,80,6,,1.25,30.268702,,,TRUE,TRUE,,,,,,-SN,BKN,500,OVC,1100,,,,,IFR,,,,,,,,,,,,METAR,179.0
K19S 120515Z AUTO 36016KT 1 1/2SM -SN BR OVC005 M01/M01 A2998 RMK AO2 T10101014,K19S,2019-01-12T05:15:00Z,37.48,-100.83,-1.0,-1.4,360,16,,1.5,29.97933,,,TRUE,TRUE,,,,,,-SN BR,OVC,500,,,,,,,IFR,,,,,,,,,,,,METAR,886.0
K0R4 120515Z AUTO 12007KT 10SM CLR 09/04 A3008 RMK AO2 T00920044,K0R4,2019-01-12T05:15:00Z,31.57,-91.5,9.2,4.4,120,7,,10.0,30.079725,,,TRUE,TRUE,,,,,,,CLR,,,,,,,,VFR,,,,,,,,,,,,METAR,17.0
K06C 120515Z AUTO 14003KT 10SM OVC070 M02/M06 A3030 RMK AO2 T10171060,K06C,2019-01-12T05:15:00Z,41.98,-88.1,-1.7,-6.0,140,3,,10.0,30.301182,,,TRUE,TRUE,,,,,,,OVC,7000,,,,,,,VFR,,,,,,,,,,,,METAR,244.0
KCVC 120515Z AUTO 10003KT 10SM SCT100 05/M03 A3030 RMK AO2 PNO,KCVC,2019-01-12T05:15:00Z,33.63,-83.85,5.0,-3.0,100,3,,10.0,30.301182,,,TRUE,TRUE,,,,,,,SCT,10000,,,,,,,VFR,,,,,,,,,,,,METAR,247.0
KCUH 120515Z AUTO 13007KT 10SM OVC005 04/04 A2986 RMK AO2 T00420036,KCUH,2019-01-12T05:15:00Z,35.95,-96.77,4.2,3.6,130,7,,10.0,29.861221,,,TRUE,TRUE,,,,,,,OVC,500,,,,,,,IFR,,,,,,,,,,,,METAR,279.0
KT82 120515Z AUTO 26004KT 10SM OVC005 13/12 A2998 RMK AO2 T01280118,KT82,2019-01-12T05:15:00Z,30.25,-98.92,12.8,11.8,260,4,,10.0,29.97933,,,TRUE,TRUE,,,,,,,OVC,500,,,,,,,IFR,,,,,,,,,,,,SPECI,517.0
KY49 120515Z AUTO 03005KT 10SM OVC017 M06/M08 A3028 RMK AO2 T10601085,KY49,2019-01-12T05:15:00Z,47.13,-94.65,-6.0,-8.5,30,5,,10.0,30.280512,,,TRUE,TRUE,,,,,,,OVC,1700,,,,,,,MVFR,,,,,,,,,,,,METAR,416.0
KW78 120515Z AUTO 00000KT 10SM CLR M03/M07 A3041 RMK AO1 T10331070,KW78,2019-01-12T05:15:00Z,36.68,-78.85,-3.3,-7.0,0,0,,10.0,30.410433,,,TRUE,TRUE,,,,,,,CLR,,,,,,,,VFR,,,,,,,,,,,,METAR,129.0
KVER 120515Z AUTO 10006KT 1SM SN OVC004 00/ A3011 RMK AO2 T0000,KVER,2019-01-12T05:15:00Z,38.95,-92.68,0.0,,100,6,,1.0,30.109253,,,TRUE,TRUE,,,,,,SN,OVC,400,,,,,,,LIFR,,,,,,,,,,,,METAR,218.0
KTRK 120515Z AUTO 00000KT 10SM CLR M02/M03 A3002 RMK AO2,KTRK,2019-01-12T05:15:00Z,39.32,-120.12,-2.0,-3.0,0,0,,10.0,30.02067,,,TRUE,TRUE,,,,,,,CLR,,,,,,,,VFR,,,,,,,,,,,,SPECI,1798.0
KTVK 120515Z AUTO 00000KT 1 1/4SM -SN CLR M02/M02 A3016 RMK AO2,KTVK,2019-01-12T05:15:00Z,40.68,-92.9,-2.0,-2.0,0,0,,1.25,30.159449,,,TRUE,TRUE,,,,,,-SN,CLR,,,,,,,,IFR,,,,,,,,,,,,METAR,314.0
KMRJ 120515Z AUTO 12007KT 10SM BKN065 OVC070 M01/M02 A3025 RMK AO2,KMRJ,2019-01-12T05:15:00Z,42.88,-90.23,-1.0,-2.0,120,7,,10.0,30.250984,,,TRUE,TRUE,,,,,,,BKN,6500,OVC,7000,,,,,VFR,,,,,,,,,,,,METAR,359.0
KHII 120515Z AUTO 00000KT 10SM CLR 12/03 A3007 RMK AO2,KHII,2019-01-12T05:15:00Z,34.57,-114.37,12.0,3.0,0,0,,10.0,30.070866,,,TRUE,TRUE,,,,,,,CLR,,,,,,,,VFR,,,,,,,,,,,,SPECI,238.0
KHHW 120515Z AUTO 12011KT 7SM RA OVC003 05/04 A2996 RMK AO2 T00520041,KHHW,2019-01-12T05:15:00Z,34.03,-95.55,5.2,4.1,120,11,,7.0,29.958662,,,TRUE,TRUE,,,,,,RA,OVC,300,,,,,,,LIFR,,,,,,,,,,,,METAR,144.0
KGVT 120515Z AUTO 13009KT 10SM RA SCT015 SCT024 OVC080 09/08 A2994 RMK AO2 P0001,KGVT,2019-01-12T05:15:00Z,33.07,-96.07,9.0,8.0,130,9,,10.0,29.940945,,,TRUE,TRUE,,,,,,RA,SCT,1500,SCT,2400,OVC,8000,,,VFR,,,,,,0.01,,,,,,SPECI,163.0
KFYJ 120515Z AUTO 00000KT 10SM CLR M03/M06 A3047 RMK AO1 T10291061,KFYJ,2019-01-12T05:15:00Z,37.52,-76.77,-2.9,-6.1,0,0,,10.0,30.469488,,,TRUE,TRUE,,,,,,,CLR,,,,,,,,VFR,,,,,,,,,,,,METAR,7.0
KFRR 120515Z AUTO 10005KT 10SM CLR M04/M08 A3043 RMK AO1,KFRR,2019-01-12T05:15:00Z,38.92,-78.25,-4.0,-8.0,100,5,,10.0,30.431103,,,TRUE,TRUE,,,,,,,CLR,,,,,,,,VFR,,,,,,,,,,,,METAR,216.0
KEHY 120515Z AUTO 11004KT 10SM SCT002 M06/M08 A3015 RMK AO2 PWINO,KEHY,2019-01-12T05:15:00Z,41.73,-106.47,-6.0,-8.0,110,4,,10.0,30.15059,,,TRUE,TRUE,,,,,TRUE,,SCT,200,,,,,,,VFR,,,,,,,,,,,,SPECI,2225.0
KEAN 120515Z AUTO 00000KT 10SM BKN046 OVC060 01/M01 A3019 RMK AO2 T00131010,KEAN,2019-01-12T05:15:00Z,42.05,-104.93,1.3,-1.0,0,0,,10.0,30.188976,,,TRUE,TRUE,,,,,,,BKN,4600,OVC,6000,,,,,VFR,,,,,,,,,,,,METAR,1456.0
KDWX 120515Z AUTO 09005KT 10SM CLR M04/M07 A3021 RMK AO2 T10431074,KDWX,2019-01-12T05:15:00Z,41.03,-107.5,-4.3,-7.4,90,5,,10.0,30.209646,,,TRUE,TRUE,,,,,,,CLR,,,,,,,,VFR,,,,,,,,,,,,METAR,1996.0
KD73 120515Z AUTO 05004KT 10SM CLR 04/M06 A3032 RMK AO2 T00441056,KD73,2019-01-12T05:15:00Z,33.78,-83.7,4.4,-5.6,50,4,,10.0,30.318897,,,TRUE,TRUE,,,,,,,CLR,,,,,,,,VFR,,,,,,,,,,,,METAR,267.0
KCWV 120515Z AUTO 05006KT 10SM OVC050 07/00 A3034 RMK AO2 T00700000,KCWV,2019-01-12T05:15:00Z,32.2,-81.87,7.0,0.0,50,6,,10.0,30.339567,,,TRUE,TRUE,,,,,,,OVC,5000,,,,,,,VFR,,,,,,,,,,,,METAR,33.0
KCWF 120515Z 12008KT 10SM SCT036 BKN065 OVC120 12/10 A3004 RMK AO2 T01240101 PWINO,KCWF,2019-01-12T05:15:00Z,30.22,-93.15,12.4,10.1,120,8,,10.0,30.041338,,,,TRUE,,,,,TRUE,,SCT,3600,BKN,6500,OVC,12000,,,VFR,,,,,,,,,,,,METAR,4.0
KCCO 120515Z AUTO 11006KT CLR 06/M04 A3026 RMK AO2 T00611041 PWINO,KCCO,2019-01-12T05:15:00Z,33.32,-84.77,6.1,-4.1,110,6,,,30.259842,,,TRUE,TRUE,,,,,TRUE,,CLR,,,,,,,,,,,,,,,,,,,,METAR,296.0
KBMC 120515Z AUTO 05003KT 3SM OVC006 00/M02 A3030 RMK AO1 T00001016,KBMC,2019-01-12T05:15:00Z,41.55,-112.07,0.0,-1.6,50,3,,3.0,30.301182,,,TRUE,TRUE,,,,,,,OVC,600,,,,,,,IFR,,,,,,,,,,,,SPECI,1288.0
KACP 120515Z AUTO 00000KT 10SM BKN110 06/05 A3005 RMK AO2 T00570048,KACP,2019-01-12T05:15:00Z,30.75,-92.68,5.7,4.8,0,0,,10.0,30.050198,,,TRUE,TRUE,,,,,,,BKN,11000,,,,,,,VFR,,,,,,,,,,,,METAR,33.0
K5M9 120515Z AUTO 11006KT 7SM SCT005 SCT028 OVC043 M01/M01 A3021 RMK AO2 T10061008,K5M9,2019-01-12T05:15:00Z,37.33,-88.12,-0.6,-0.8,110,6,,7.0,30.209646,,,TRUE,TRUE,,,,,,,SCT,500,SCT,2800,OVC,4300,,,VFR,,,,,,,,,,,,METAR,199.0
K3K3 120515Z AUTO 01015G21KT 2 1/2SM -SN BKN007 00/00 A3003 RMK AO2,K3K3,2019-01-12T05:15:00Z,38.0,-101.75,0.0,0.0,10,15,21,2.5,30.029528,,,TRUE,TRUE,,,,,,-SN,BKN,700,,,,,,,IFR,,,,,,,,,,,,METAR,1013.0
K3J7 120515Z AUTO 00000KT 10SM CLR 03/M02 A3029 RMK AO2,K3J7,2019-01-12T05:15:00Z,33.6,-83.13,3.0,-2.0,0,0,,10.0,30.28937,,,TRUE,TRUE,,,,,,,CLR,,,,,,,,VFR,,,,,,,,,,,,METAR,206.0
K3AU 120515Z AUTO 05005KT 10SM -RA OVC003 00/00 A2995 RMK AO2,K3AU,2019-01-12T05:15:00Z,37.67,-97.08,0.0,0.0,50,5,,10.0,29.949802,,,TRUE,TRUE,,,,,,-RA,OVC,300,,,,,,,LIFR,,,,,,,,,,,,METAR,405.0
K21D 120515Z AUTO 06004KT 10SM M05/M07 A3026 RMK AO2,K21D,2019-01-12T05:15:00Z,45.0,-92.85,-5.0,-7.0,60,4,,10.0,30.259842,,,TRUE,TRUE,,,,,,,,,,,,,,,,,,,,,,,,,,,METAR,285.0
K17J 120515Z AUTO 12005KT 10SM CLR 09/04 A3021 RMK AO2 T00870043,K17J,2019-01-12T05:15:00Z,31.07,-84.92,8.7,4.3,120,5,,10.0,30.209646,,,TRUE,TRUE,,,,,,,CLR,,,,,,,,VFR,,,,,,,,,,,,METAR,45.0
K11R 120515Z AUTO 12003KT 5SM +RA BKN023 BKN031 OVC037 15/14 A2995 RMK AO2 P0006 T01490139,K11R,2019-01-12T05:15:00Z,30.22,-96.37,14.9,13.9,120,3,,5.0,29.949802,,,TRUE,TRUE,,,,,,+RA,BKN,2300,BKN,3100,OVC,3700,,,MVFR,,,,,,0.06,,,,,,METAR,94.0
PASK 120515Z AUTO 00000KT 8SM CLR M42/ A3009 RMK AO2 FZRANO $,PASK,2019-01-12T05:15:00Z,66.6,-160.0,-42.0,,0,0,,8.0,30.088583,,,TRUE,TRUE,TRUE,,,TRUE,,,CLR,,,,,,,,VFR,,,,,,,,,,,,METAR,8.0
PAGA 120515Z AUTO 00000KT 1 1/4SM BR CLR M46/ A3003 RMK AO2 FZRANO,PAGA,2019-01-12T05:15:00Z,64.73,-156.93,-46.0,,0,0,,1.25,30.029528,,,TRUE,TRUE,,,,TRUE,,BR,CLR,,,,,,,,IFR,,,,,,,,,,,,SPECI,46.0
PAFM 120515Z AUTO 00000KT 8SM CLR M39/ A3006 RMK AO2 FZRANO,PAFM,2019-01-12T05:15:00Z,67.1,-157.85,-39.0,,0,0,,8.0,30.059055,,,TRUE,TRUE,,,,TRUE,,,CLR,,,,,,,,VFR,,,,,,,,,,,,METAR,88.0
KACQ 120515Z AUTO 09005KT 10SM CLR M04/M06 A3023 RMK AO2,KACQ,2019-01-12T05:15:00Z,44.07,-93.55,-4.0,-6.0,90,5,,10.0,30.230314,,,TRUE,TRUE,,,,,,,CLR,,,,,,,,VFR,,,,,,,,,,,,METAR,343.0
K22N 120515Z AUTO 00000KT 10SM CLR M06/M13 A3045 RMK AO2,K22N,2019-01-12T05:15:00Z,40.8,-75.77,-6.0,-13.0,0,0,,10.0,30.448818,,,TRUE,TRUE,,,,,,,CLR,,,,,,,,VFR,,,,,,,,,,,,METAR,163.0
K14Y 120515Z AUTO 00000KT M11/M12 A3025 RMK AO2 PWINO,K14Y,2019-01-12T05:15:00Z,45.9,-94.87,-11.0,-12.0,0,0,,,30.250984,,,TRUE,TRUE,,,,,TRUE,,,,,,,,,,,,,,,,,,,,,,METAR,406.0
LMML 120515Z 01004KT 9999 TS SCT030CB FEW033TCU SCT036 07/04 Q1012 TEMPO 5000 TSRAGS,LMML,2019-01-12T05:15:00Z,35.85,14.47,7.0,4.0,10,4,,6.21,29.88189,,,,,,,,,,TS,SCT,3000,FEW,3300,SCT,3600,,,VFR,,,,,,,,,,,,METAR,91.0
LHKE 120515Z 24008KT 210V280 5000 -SN BR BKN015 OVC025 M03/M05 Q1015 NOSIG RMK WHT,LHKE,2019-01-12T05:15:00Z,46.92,19.75,-3.0,-5.0,240,8,,3.11,29.970472,,,,,,TRUE,,,,-SN BR,BKN,1500,OVC,2500,,,,,MVFR,,,,,,,,,,,,METAR,115.0
LHSN 120515Z 24012KT 220V280 9999 -SN SCT020 OVC045 M03/M05 Q1015 TEMPO NSW RMK BLU,LHSN,2019-01-12T05:15:00Z,47.12,20.23,-3.0,-5.0,240,12,,6.21,29.970472,,,,,,,,,,-SN,SCT,2000,OVC,4500,,,,,VFR,,,,,,,,,,,,METAR,98.0
KATW 120515Z AUTO 06003KT 10SM OVC050 M02/M08 A3030 RMK AO2,KATW,2019-01-12T05:15:00Z,44.27,-88.52,-2.0,-8.0,60,3,,10.0,30.301182,,,TRUE,TRUE,,,,,,,OVC,5000,,,,,,,VFR,,,,,,,,,,,,METAR,280.0
KEBS 120515Z AUTO 11008KT 10SM BKN028 OVC037 M00/M02 A3016 RMK AO2,KEBS,2019-01-12T05:15:00Z,42.42,-93.87,0.0,-2.0,110,8,,10.0,30.159449,,,TRUE,TRUE,,,,,,,BKN,2800,OVC,3700,,,,,MVFR,,,,,,,,,,,,METAR,342.0
KEZZ 120515Z AUTO 08008KT 1 1/2SM -SN BR OVC003 M01/M01 A3009 RMK AO2 P0001 T10081013,KEZZ,2019-01-12T05:15:00Z,39.72,-94.28,-0.8,-1.3,80,8,,1.5,30.088583,,,TRUE,TRUE,,,,,,-SN BR,OVC,300,,,,,,,LIFR,,,,,,0.01,,,,,,SPECI,317.0
KEFK 120515Z AUTO 29010KT 10SM CLR M18/M23 A3028 RMK AO2 T11761227,KEFK,2019-01-12T05:15:00Z,44.88,-72.23,-17.6,-22.7,290,10,,10.0,30.280512,,,TRUE,TRUE,,,,,,,CLR,,,,,,,,VFR,,,,,,,,,,,,SPECI,284.0
KEBG 120515Z AUTO 25006KT 10SM OVC090 19/17 A2999 RMK AO2 T01900168,KEBG,2019-01-12T05:15:00Z,26.45,-98.13,19.0,16.8,250,6,,10.0,29.991142,,,TRUE,TRUE,,,,,,,OVC,9000,,,,,,,VFR,,,,,,,,,,,,METAR,24.0
KDVO 120515Z AUTO 20004KT 4SM BR BKN027 OVC034 11/11 A2990 RMK AO2,KDVO,2019-01-12T05:15:00Z,38.15,-122.55,11.0,11.0,200,4,,4.0,29.899607,,,TRUE,TRUE,,,,,,BR,BKN,2700,OVC,3400,,,,,MVFR,,,,,,,,,,,,METAR,1.0
KDED 120515Z AUTO 00000KT 10SM CLR 10/08 A3021 RMK AO2,KDED,2019-01-12T05:15:00Z,29.07,-81.28,10.0,8.0,0,0,,10.0,30.209646,,,TRUE,TRUE,,,,,,,CLR,,,,,,,,VFR,,,,,,,,,,,,SPECI,24.0
KCTY 120515Z AUTO 06007KT 10SM OVC050 10/08 A3023 RMK AO2 T01030075,KCTY,2019-01-12T05:15:00Z,29.63,-83.1,10.3,7.5,60,7,,10.0,30.230314,,,TRUE,TRUE,,,,,,,OVC,5000,,,,,,,VFR,,,,,,,,,,,,SPECI,13.0
KCOM 120515Z AUTO 26008KT 10SM OVC021 13/11 A2995 RMK AO2 T01270110,KCOM,2019-01-12T05:15:00Z,31.83,-99.4,12.7,11.0,260,8,,10.0,29.949802,,,TRUE,TRUE,,,,,,,OVC,2100,,,,,,,MVFR,,,,,,,,,,,,METAR,517.0
KCHK 120515Z AUTO 16012KT 5SM BR OVC004 09/09 A2977 RMK AO2 T00900086,KCHK,2019-01-12T05:15:00Z,35.1,-97.97,9.0,8.6,160,12,,5.0,29.769686,,,TRUE,TRUE,,,,,,BR,OVC,400,,,,,,,LIFR,,,,,,,,,,,,SPECI,351.0
KCFE 120515Z AUTO 03004KT 10SM CLR M06/M08 A3026 RMK AO2 T10601085,KCFE,2019-01-12T05:15:00Z,45.17,-93.85,-6.0,-8.5,30,4,,10.0,30.259842,,,TRUE,TRUE,,,,,,,CLR,,,,,,,,VFR,,,,,,,,,,,,SPECI,295.0
KCDI 120515Z AUTO 00000KT 10SM CLR M04/M06 A3038 RMK AO2 T10441060,KCDI,2019-01-12T05:15:00Z,39.97,-81.58,-4.4,-6.0,0,0,,10.0,30.380905,,,TRUE,TRUE,,,,,,,CLR,,,,,,,,VFR,,,,,,,,,,,,SPECI,244.0
KC65 120515Z AUTO 09004KT 10SM OVC070 M04/M04 A3033 RMK A01,KC65,2019-01-12T05:15:00Z,41.37,-86.3,-4.0,-4.0,90,4,,10.0,30.33071,,,TRUE,TRUE,,,,,,,OVC,7000,,,,,,,VFR,,,,,,,,,,,,SPECI,244.0
KBVS 120515Z AUTO 04003KT 10SM CLR 07/03 A2995 RMK A01,KBVS,2019-01-12T05:15:00Z,48.47,-122.42,7.0,3.0,40,3,,10.0,29.949802,,,TRUE,TRUE,,,,,,,CLR,,,,,,,,VFR,,,,,,,,,,,,METAR,43.0
KBQP 120515Z AUTO 11004KT 10SM OVC095 08/01 A3007 RMK AO2 T00800010,KBQP,2019-01-12T05:15:00Z,32.75,-91.88,8.0,1.0,110,4,,10.0,30.070866,,,TRUE,TRUE,,,,,,,OVC,9500,,,,,,,VFR,,,,,,,,,,,,SPECI,51.0
KBKT 120515Z AUTO 07004KT 10SM CLR M02/M09 A3043 RMK AO1 T10231087,KBKT,2019-01-12T05:15:00Z,37.07,-77.95,-2.3,-8.7,70,4,,10.0,30.431103,,,TRUE,TRUE,,,,,,,CLR,,,,,,,,VFR,,,,,,,,,,,,SPECI,134.0
KBBD 120515Z AUTO 23009KT 10SM SCT009 11/11 A2995 RMK AO2,KBBD,2019-01-12T05:15:00Z,31.18,-99.32,11.0,11.0,230,9,,10.0,29.949802,,,TRUE,TRUE,,,,,,,SCT,900,,,,,,,VFR,,,,,,,,,,,,METAR,557.0
KAUN 120515Z AUTO 00000KT 10SM CLR 06/04 A2990 RMK A01,KAUN,2019-01-12T05:15:00Z,38.95,-121.08,6.0,4.0,0,0,,10.0,29.899607,,,TRUE,TRUE,,,,,,,CLR,,,,,,,,VFR,,,,,,,,,,,,METAR,467.0
KAUH 120515Z AUTO 02008KT 10SM BKN039 OVC049 00/M01 A3011 RMK AO2 T10021015,KAUH,2019-01-12T05:15:00Z,40.88,-98.0,-0.2,-1.5,20,8,,10.0,30.109253,,,TRUE,TRUE,,,,,,,BKN,3900,OVC,4900,,,,,VFR,,,,,,,,,,,,SPECI,550.0
KANW 120515Z AUTO 36007KT 10SM CLR M04/M05 A3017 RMK AO2 T10371049,KANW,2019-01-12T05:15:00Z,42.57,-100.0,-3.7,-4.9,360,7,,10.0,30.171259,,,TRUE,TRUE,,,,,,,CLR,,,,,,,,VFR,,,,,,,,,,,,SPECI,789.0
KADH 120515Z AUTO 15011KT 10SM -RA OVC004 04/04 A2989 RMK AO2,KADH,2019-01-12T05:15:00Z,34.8,-96.67,4.0,4.0,150,11,,10.0,29.890747,,,TRUE,TRUE,,,,,,-RA,OVC,400,,,,,,,LIFR,,,,,,,,,,,,SPECI,308.0
K3N8 120515Z AUTO 03007KT 10SM OVC021 M07/M08 A3029 RMK AO2 T10661082,K3N8,2019-01-12T05:15:00Z,47.25,-95.88,-6.6,-8.2,30,7,,10.0,30.28937,,,TRUE,TRUE,,,,,,,OVC,2100,,,,,,,MVFR,,,,,,,,,,,,SPECI,383.0
K3D2 120515Z AUTO 00000KT 10SM OVC015 M02/M04 A3033 RMK AO2 T10251045,K3D2,2019-01-12T05:15:00Z,45.13,-87.18,-2.5,-4.5,0,0,,10.0,30.33071,,,TRUE,TRUE,,,,,,,OVC,1500,,,,,,,MVFR,,,,,,,,,,,,METAR,234.0
K2I0 120515Z AUTO 11006KT 7SM UP OVC007 00/00 A3026 RMK AO2 T00010000,K2I0,2019-01-12T05:15:00Z,37.35,-87.4,0.1,0.0,110,6,,7.0,30.259842,,,TRUE,TRUE,,,,,,UP,OVC,700,,,,,,,IFR,,,,,,,,,,,,SPECI,134.0
K1F0 120515Z AUTO 15009KT 7SM OVC002 08/07 A2987 RMK AO2,K1F0,2019-01-12T05:15:00Z,34.15,-97.12,8.0,7.0,150,9,,7.0,29.870079,,,TRUE,TRUE,,,,,,,OVC,200,,,,,,,LIFR,,,,,,,,,,,,SPECI,257.0
K1A6 120515Z AUTO 00000KT 10SM BKN060 OVC080 03/M03 A3029 RMK AO2 T00301028,K1A6,2019-01-12T05:15:00Z,36.62,-83.73,3.0,-2.8,0,0,,10.0,30.28937,,,TRUE,TRUE,,,,,,,BKN,6000,OVC,8000,,,,,VFR,,,,,,,,,,,,SPECI,352.0
K04W 120515Z AUTO 04003KT 10SM OVC046 M05/M07 A3028 RMK AO2,K04W,2019-01-12T05:15:00Z,46.02,-92.9,-5.0,-7.0,40,3,,10.0,30.280512,,,TRUE,TRUE,,,,,,,OVC,4600,,,,,,,VFR,,,,,,,,,,,,METAR,311.0
KW22 120515Z AUTO 00000KT 10SM CLR M06/M09 A3032 RMK AO2,KW22,2019-01-12T05:15:00Z,39.0,-80.27,-6.0,-9.0,0,0,,10.0,30.318897,,,TRUE,TRUE,,,,,,,CLR,,,,,,,,VFR,,,,,,,,,,,,METAR,499.0
KUTA 120515Z AUTO 11010KT 10SM 05/M01 A3011 RMK AO2 TSNO,KUTA,2019-01-12T05:15:00Z,34.68,-90.35,5.0,-1.0,110,10,,10.0,30.109253,,,TRUE,TRUE,,,TRUE,,,,,,,,,,,,,,,,,,,,,,,,SPECI,59.0
KTXW 120515Z AUTO 00000KT 10SM BKN100 BKN120 19/16 A2999 RMK AO2 T01860161,KTXW,2019-01-12T05:15:00Z,26.18,-97.97,18.6,16.1,0,0,,10.0,29.991142,,,TRUE,TRUE,,,,,,,BKN,10000,BKN,12000,,,,,VFR,,,,,,,,,,,,METAR,21.0
KTIF 120515Z AUTO 36004KT 10SM CLR 00/M02 A3015 RMK AO2 T00001019,KTIF,2019-01-12T05:15:00Z,41.97,-100.57,0.0,-1.9,360,4,,10.0,30.15059,,,TRUE,TRUE,,,,,,,CLR,,,,,,,,VFR,,,,,,,,,,,,METAR,892.0
KTEX 120515Z AUTO 00000KT 4SM -SN SCT016 BKN031 OVC037 M05/M06 A3012 RMK AO2,KTEX,2019-01-12T05:15:00Z,37.95,-107.9,-5.0,-6.0,0,0,,4.0,30.121063,,,TRUE,TRUE,,,,,,-SN,SCT,1600,BKN,3100,OVC,3700,,,MVFR,,,,,,,,,,,,METAR,2769.0
KSYN 120515Z AUTO 08003KT 10SM CLR M04/M06 A3023 RMK AO2 T10411062,KSYN,2019-01-12T05:15:00Z,44.47,-93.02,-4.1,-6.2,80,3,,10.0,30.230314,,,TRUE,TRUE,,,,,,,CLR,,,,,,,,VFR,,,,,,,,,,,,SPECI,280.0
KSWW 120515Z AUTO 32007KT 10SM CLR 07/06 A2998 RMK AO2 T00710059,KSWW,2019-01-12T05:15:00Z,32.47,-100.47,7.1,5.9,320,7,,10.0,29.97933,,,TRUE,TRUE,,,,,,,CLR,,,,,,,,VFR,,,,,,,,,,,,METAR,727.0
KSVE 120515Z AUTO 00000KT 10SM CLR 00/M01 A3004 RMK AO2,KSVE,2019-01-12T05:15:00Z,40.37,-120.57,0.0,-1.0,0,0,,10.0,30.041338,,,TRUE,TRUE,,,,,,,CLR,,,,,,,,VFR,,,,,,,,,,,,SPECI,1263.0
KSTE 120515Z AUTO 00000KT 10SM SCT050 SCT085 M07/M08 A3030 RMK AO2 T10661077,KSTE,2019-01-12T05:15:00Z,44.55,-89.53,-6.6,-7.7,0,0,,10.0,30.301182,,,TRUE,TRUE,,,,,,,SCT,5000,SCT,8500,,,,,VFR,,,,,,,,,,,,METAR,338.0
KOPN 120515Z AUTO 11007KT 10SM BKN037 06/M06 A3029 RMK AO2,KOPN,2019-01-12T05:15:00Z,32.95,-84.27,6.0,-6.0,110,7,,10.0,30.28937,,,TRUE,TRUE,,,,,,,BKN,3700,,,,,,,VFR,,,,,,,,,,,,METAR,243.0
KONM 120515Z AUTO 30013G19KT 10SM CLR 05/M03 A3011 RMK AO2 T00521035,KONM,2019-01-12T05:15:00Z,34.02,-106.9,5.2,-3.5,300,13,19,10.0,30.109253,,,TRUE,TRUE,,,,,,,CLR,,,,,,,,VFR,,,,,,,,,,,,METAR,1410.0
KOLY 120515Z AUTO 09007KT 1 3/4SM -SN BKN005 OVC016 M01/M01 A3027 RMK AO2 T10151015,KOLY,2019-01-12T05:15:00Z,38.72,-88.18,-1.5,-1.5,90,7,,1.75,30.268702,,,TRUE,TRUE,,,,,,-SN,BKN,500,OVC,1600,,,,,IFR,,,,,,,,,,,,SPECI,147.0
KOGA 120515Z AUTO 36012G16KT 10SM BKN070 OVC080 05/00 A3012 RMK AO2 T00451005,KOGA,2019-01-12T05:15:00Z,41.12,-101.77,4.5,-0.5,360,12,16,10.0,30.121063,,,TRUE,TRUE,,,,,,,BKN,7000,OVC,8000,,,,,VFR,,,,,,,,,,,,METAR,999.0
KO54 120515Z AUTO 00000KT 10SM OVC042 07/05 A2993 RMK AO1,KO54,2019-01-12T05:15:00Z,40.75,-122.92,7.0,5.0,0,0,,10.0,29.929134,,,TRUE,TRUE,,,,,,,OVC,4200,,,,,,,VFR,,,,,,,,,,,,SPECI,717.0
KMYZ 120515Z AUTO 05004KT 4SM BKN005 OVC019 00/00 A3005 RMK AO2 PWINO,KMYZ,2019-01-12T05:15:00Z,39.85,-96.63,0.0,0.0,50,4,,4.0,30.050198,,,TRUE,TRUE,,,,,TRUE,,BKN,500,OVC,1900,,,,,IFR,,,,,,,,,,,,METAR,319.0
KMWA 120515Z AUTO 10006KT 7SM OVC006 M01/M01 A3023 RMK AO2 T10061015,KMWA,2019-01-12T05:15:00Z,37.77,-89.02,-0.6,-1.5,100,6,,7.0,30.230314,,,TRUE,TRUE,,,,,,,OVC,600,,,,,,,IFR,,,,,,,,,,,,SPECI,144.0
KMTV 120515Z AUTO 00000KT 10SM SCT110 M02/M06 A3041 RMK AO2 T10181060,KMTV,2019-01-12T05:15:00Z,36.63,-80.02,-1.8,-6.0,0,0,,10.0,30.410433,,,TRUE,TRUE,,,,,,,SCT,11000,,,,,,,VFR,,,,,,,,,,,,METAR,287.0
KMMU 120515Z AUTO 34003KT 10SM CLR M06/M16 A3044 RMK AO2,KMMU,2019-01-12T05:15:00Z,40.78,-74.42,-6.0,-16.0,340,3,,10.0,30.43996,,,TRUE,TRUE,,,,,,,CLR,,,,,,,,VFR,,,,,,,,,,,,METAR,57.0
KMLE 120515Z AUTO 00000KT 2SM UP BKN007 OVC013 01/00 A3013 RMK AO2 T00100001,KMLE,2019-01-12T05:15:00Z,41.2,-96.12,1.0,0.1,0,0,,2.0,30.129921,,,TRUE,TRUE,,,,,,UP,BKN,700,OVC,1300,,,,,IFR,,,,,,,,,,,,METAR,320.0
KMGR 120515Z AUTO 00000KT 10SM BKN037 BKN044 09/06 A3026 RMK AO2,KMGR,2019-01-12T05:15:00Z,31.08,-83.8,9.0,6.0,0,0,,10.0,30.259842,,,TRUE,TRUE,,,,,,,BKN,3700,BKN,4400,,,,,VFR,,,,,,,,,,,,METAR,90.0
KMDD 120515Z AUTO 29008KT 10SM 10/05 A3000 RMK AO2 T00960052,KMDD,2019-01-12T05:15:00Z,32.03,-102.1,9.6,5.2,290,8,,10.0,30.0,,,TRUE,TRUE,,,,,,,,,,,,,,,,,,,,,,,,,,,METAR,854.0
KM30 120515Z AUTO 11007KT 10SM SCT007 BKN043 OVC048 00/M01 A3021 RMK AO2 T00021008,KM30,2019-01-12T05:15:00Z,37.18,-88.75,0.2,-0.8,110,7,,10.0,30.209646,,,TRUE,TRUE,,,,,,,SCT,700,BKN,4300,OVC,4800,,,VFR,,,,,,,,,,,,SPECI,117.0
KLVL 120515Z AUTO 10SM CLR M02/M09 A3043 RMK AO1 T10161093,KLVL,2019-01-12T05:15:00Z,36.78,-77.8,-1.6,-9.3,,,,10.0,30.431103,,,TRUE,TRUE,,,,,,,CLR,,,,,,,,VFR,,,,,,,,,,,,METAR,100.0
KLOM 120515Z AUTO 00000KT 10SM CLR M07/M12 A3046 RMK AO1,KLOM,2019-01-12T05:15:00Z,40.13,-75.27,-7.0,-12.0,0,0,,10.0,30.46063,,,TRUE,TRUE,,,,,,,CLR,,,,,,,,VFR,,,,,,,,,,,,METAR,92.0
KLKU 120515Z AUTO 00000KT 10SM CLR M04/M09 A3049 RMK AO2 T10401087,KLKU,2019-01-12T05:15:00Z,38.02,-77.97,-4.0,-8.7,0,0,,10.0,30.490158,,,TRUE,TRUE,,,,,,,CLR,,,,,,,,VFR,,,,,,,,,,,,METAR,150.0
KFWS 120515Z AUTO 19011KT 10SM OVC007 13/12 A2992 RMK AO2 T01300120,KFWS,2019-01-12T05:15:00Z,32.57,-97.3,13.0,12.0,190,11,,10.0,29.920275,,,TRUE,TRUE,,,,,,,OVC,700,,,,,,,IFR,,,,,,,,,,,,METAR,208.0
KFWC 120515Z AUTO 08004KT 1 1/2SM -SN SCT004 OVC028 M01/M01 A3024 RMK AO1 P0001 T10101011,KFWC,2019-01-12T05:15:00Z,38.38,-88.42,-1.0,-1.1,80,4,,1.5,30.239174,,,TRUE,TRUE,,,,,,-SN,SCT,400,OVC,2800,,,,,IFR,,,,,,0.01,,,,,,SPECI,133.0
KFOA 120515Z AUTO 09006KT 1 1/2SM -SN SCT004 OVC014 M01/M01 A3026 RMK AO2 T10071013,KFOA,2019-01-12T05:15:00Z,38.67,-88.45,-0.7,-1.3,90,6,,1.5,30.259842,,,TRUE,TRUE,,,,,,-SN,SCT,400,OVC,1400,,,,,IFR,,,,,,,,,,,,SPECI,144.0
KTDF 120515Z AUTO 00000KT 10SM CLR M03/M05 A3042 RMK AO2,KTDF,2019-01-12T05:15:00Z,36.28,-78.98,-3.0,-5.0,0,0,,10.0,30.41929,,,TRUE,TRUE,,,,,,,CLR,,,,,,,,VFR,,,,,,,,,,,,METAR,186.0
LHUD 120515Z 24011KT 9999 -SN BKN030 M02/M07 Q1017,LHUD,2019-01-12T05:15:00Z,46.25,20.1,-2.0,-7.0,240,11,,6.21,30.029528,,,,,,,,,,-SN,BKN,3000,,,,,,,MVFR,,,,,,,,,,,,METAR,84.0
LHSM 120515Z 00000KT 9999 OVC046 M02/M03 Q1017 NOSIG,LHSM,2019-01-12T05:15:00Z,46.68,17.17,-2.0,-3.0,0,0,,6.21,30.029528,,,,,,TRUE,,,,,OVC,4600,,,,,,,VFR,,,,,,,,,,,,METAR,125.0
LHPR 120515Z 26009KT 9999 -SN NSC M00/M03 Q1015 RMK BLU,LHPR,2019-01-12T05:15:00Z,47.63,17.82,0.0,-3.0,260,9,,6.21,29.970472,,,,,,,,,,-SN,CLR,,,,,,,,VFR,,,,,,,,,,,,METAR,129.0
LHPP 120515Z 27008KT 9999 SCT016 OVC083 M03/M07 Q1018,LHPP,2019-01-12T05:15:00Z,45.98,18.23,-3.0,-7.0,270,8,,6.21,30.059055,,,,,,,,,,,SCT,1600,OVC,8300,,,,,VFR,,,,,,,,,,,,METAR,305.0
LHPA 120515Z 21006KT 9999 OVC037 M02/M05 Q1016 NOSIG RMK BLU,LHPA,2019-01-12T05:15:00Z,47.35,17.5,-2.0,-5.0,210,6,,6.21,30.0,,,,,,TRUE,,,,,OVC,3700,,,,,,,VFR,,,,,,,,,,,,METAR,148.0
LHDC 120515Z 20011KT 4900 -SN OVC020 M05/M07 Q1014 NOSIG,LHDC,2019-01-12T05:15:00Z,47.47,21.62,-5.0,-7.0,200,11,,3.04,29.940945,,,,,,TRUE,,,,-SN,OVC,2000,,,,,,,MVFR,,,,,,,,,,,,METAR,112.0
KLWA 120515Z AUTO 11003KT 10SM OVC070 M02/M06 A3036 RMK AO2 T10181060,KLWA,2019-01-12T05:15:00Z,42.35,-86.25,-1.8,-6.0,110,3,,10.0,30.360237,,,TRUE,TRUE,,,,,,,OVC,7000,,,,,,,VFR,,,,,,,,,,,,METAR,203.0
KHEG 120515Z AUTO 01003KT 10SM FEW055 10/07 A3027 RMK AO2,KHEG,2019-01-12T05:15:00Z,30.28,-81.8,10.0,7.0,10,3,,10.0,30.268702,,,TRUE,TRUE,,,,,,,FEW,5500,,,,,,,VFR,,,,,,,,,,,,METAR,27.0
KIKW 120515Z AUTO 00000KT 10SM OVC034 M03/M08 A3040 RMK AO2 T10311079,KIKW,2019-01-12T05:15:00Z,43.67,-84.27,-3.1,-7.9,0,0,,10.0,30.398623,,,TRUE,TRUE,,,,,,,OVC,3400,,,,,,,VFR,,,,,,,,,,,,SPECI,194.0
KIKG 120515Z AUTO 00000KT 7SM OVC120 18/18 A2996 RMK AO2 T01800180,KIKG,2019-01-12T05:15:00Z,27.55,-98.03,18.0,18.0,0,0,,7.0,29.958662,,,TRUE,TRUE,,,,,,,OVC,12000,,,,,,,VFR,,,,,,,,,,,,SPECI,40.0
KIER 120515Z AUTO 14007KT 10SM SCT120 10/03 A3003 RMK AO2 T00970030,KIER,2019-01-12T05:15:00Z,31.73,-93.1,9.7,3.0,140,7,,10.0,30.029528,,,TRUE,TRUE,,,,,,,SCT,12000,,,,,,,VFR,,,,,,,,,,,,METAR,37.0
KI68 120515Z AUTO 13004KT M01/M05 A3033 RMK AO1 T10131053,KI68,2019-01-12T05:15:00Z,39.47,-84.25,-1.3,-5.3,130,4,,,30.33071,,,TRUE,TRUE,,,,,,,,,,,,,,,,,,,,,,,,,,,SPECI,274.0
KI35 120515Z AUTO 00000KT 10SM BKN055 OVC065 02/M05 A3028 RMK AO2 T00151054,KI35,2019-01-12T05:15:00Z,36.87,-83.37,1.5,-5.4,0,0,,10.0,30.280512,,,TRUE,TRUE,,,,,,,BKN,5500,OVC,6500,,,,,VFR,,,,,,,,,,,,METAR,473.0
KHYX 120515Z AUTO 07003KT 10SM OVC060 M03/M06 A3040 RMK AO2,KHYX,2019-01-12T05:15:00Z,43.43,-83.87,-3.0,-6.0,70,3,,10.0,30.398623,,,TRUE,TRUE,,,,,,,OVC,6000,,,,,,,VFR,,,,,,,,,,,,SPECI,183.0
KHVS 120515Z AUTO 06003KT 10SM CLR 00/M06 A3039 RMK AO2,KHVS,2019-01-12T05:15:00Z,34.4,-80.12,0.0,-6.0,60,3,,10.0,30.389763,,,TRUE,TRUE,,,,,,,CLR,,,,,,,,VFR,,,,,,,,,,,,METAR,111.0
KHVE 120515Z AUTO 10SM CLR M01/M03 A3023 RMK AO2,KHVE,2019-01-12T05:15:00Z,38.42,-110.7,-1.0,-3.0,,,,10.0,30.230314,,,TRUE,TRUE,,,,,,,CLR,,,,,,,,VFR,,,,,,,,,,,,SPECI,1350.0
KHRX 120515Z AUTO 32011KT 10SM SCT011 BKN019 BKN029 02/01 A2999 RMK AO2 T00220014,KHRX,2019-01-12T05:15:00Z,34.87,-102.33,2.2,1.4,320,11,,10.0,29.991142,,,TRUE,TRUE,,,,,,,SCT,1100,BKN,1900,BKN,2900,,,MVFR,,,,,,,,,,,,SPECI,1154.0
KHQZ 120515Z AUTO 14008KT 5SM OVC005 09/09 A2993 RMK AO1 T00930090,KHQZ,2019-01-12T05:15:00Z,32.75,-96.53,9.3,9.0,140,8,,5.0,29.929134,,,TRUE,TRUE,,,,,,,OVC,500,,,,,,,IFR,,,,,,,,,,,,SPECI,136.0
KHPT 120515Z AUTO 10007KT 10SM BKN019 OVC028 M01/M02 A3019 RMK AO2,KHPT,2019-01-12T05:15:00Z,42.58,-93.23,-1.0,-2.0,100,7,,10.0,30.188976,,,TRUE,TRUE,,,,,,,BKN,1900,OVC,2800,,,,,MVFR,,,,,,,,,,,,SPECI,358.0
KHMZ 120515Z AUTO 00000KT 10SM CLR M08/M10 A3040 RMK AO2 T10781098,KHMZ,2019-01-12T05:15:00Z,40.08,-78.52,-7.8,-9.8,0,0,,10.0,30.398623,,,TRUE,TRUE,,,,,,,CLR,,,,,,,,VFR,,,,,,,,,,,,SPECI,354.0
KHHF 120515Z AUTO 33013G16KT 5SM -RA BKN010 OVC014 02/01 A2992 RMK AO2 T00160011,KHHF,2019-01-12T05:15:00Z,35.9,-100.4,1.6,1.1,330,13,16,5.0,29.920275,,,TRUE,TRUE,,,,,,-RA,BKN,1000,OVC,1400,,,,,MVFR,,,,,,,,,,,,SPECI,712.0
KHFY 120515Z AUTO 11004KT 10SM BKN070 OVC075 M01/M05 A3031 RMK AO2 T10101051,KHFY,2019-01-12T05:15:00Z,39.63,-86.08,-1.0,-5.1,110,4,,10.0,30.31004,,,TRUE,TRUE,,,,,,,BKN,7000,OVC,7500,,,,,VFR,,,,,,,,,,,,SPECI,251.0
KHFJ 120515Z AUTO 13011G17KT 5SM RA BKN009 BKN014 OVC027 01/01 A2999 RMK AO2 P0001,KHFJ,2019-01-12T05:15:00Z,36.9,-94.02,1.0,1.0,130,11,17,5.0,29.991142,,,TRUE,TRUE,,,,,,RA,BKN,900,BKN,1400,OVC,2700,,,IFR,,,,,,0.01,,,,,,METAR,401.0
KHCR 120515Z AUTO 00000KT 10SM CLR M08/M11 A3024 RMK AO2,KHCR,2019-01-12T05:15:00Z,40.48,-111.43,-8.0,-11.0,0,0,,10.0,30.239174,,,TRUE,TRUE,,,,,,,CLR,,,,,,,,VFR,,,,,,,,,,,,SPECI,1706.0
KGZL 120515Z AUTO 11011KT 10SM -RA FEW005 BKN021 OVC030 03/03 A2996 RMK AO2 P0001,KGZL,2019-01-12T05:15:00Z,35.28,-95.1,3.0,3.0,110,11,,10.0,29.958662,,,TRUE,TRUE,,,,,,-RA,FEW,500,BKN,2100,OVC,3000,,,MVFR,,,,,,0.01,,,,,,METAR,183.0
KGYY 120515Z AUTO 12004KT 10SM OVC080 00/M05 A3034 RMK AO2 T10031050,KGYY,2019-01-12T05:15:00Z,41.62,-87.42,-0.3,-5.0,120,4,,10.0,30.339567,,,TRUE,TRUE,,,,,,,OVC,8000,,,,,,,VFR,,,,,,,,,,,,SPECI,180.0
KGYI 120515Z AUTO 14013KT 10SM BKN006 OVC011 09/08 A2990 RMK AO2 T00850077 TSNO,KGYI,2019-01-12T05:15:00Z,33.72,-96.67,8.5,7.7,140,13,,10.0,29.899607,,,TRUE,TRUE,,,TRUE,,,,BKN,600,OVC,1100,,,,,IFR,,,,,,,,,,,,SPECI,228.0
KGYH 120515Z AUTO 05004KT 10SM OVC100 03/M05 A3033 RMK AO2,KGYH,2019-01-12T05:15:00Z,34.75,-82.38,3.0,-5.0,50,4,,10.0,30.33071,,,TRUE,TRUE,,,,,,,OVC,10000,,,,,,,VFR,,,,,,,,,,,,SPECI,292.0
KGYB 120515Z AUTO 11004KT 10SM RA SCT016 SCT026 BKN050 13/12 A2995 RMK AO2 P0001 T01290123,KGYB,2019-01-12T05:15:00Z,30.17,-96.98,12.9,12.3,110,4,,10.0,29.949802,,,TRUE,TRUE,,,,,,RA,SCT,1600,SCT,2600,BKN,5000,,,VFR,,,,,,0.01,,,,,,SPECI,148.0
KGWB 120515Z AUTO 06003KT 10SM CLR M04/M05 A3035 RMK AO2,KGWB,2019-01-12T05:15:00Z,41.3,-85.07,-4.0,-5.0,60,3,,10.0,30.351377,,,TRUE,TRUE,,,,,,,CLR,,,,,,,,VFR,,,,,,,,,,,,SPECI,269.0
KGPM 120515Z AUTO 16008KT 10SM OVC009 13/13 A2992 RMK AO2 T01250125,KGPM,2019-01-12T05:15:00Z,32.7,-97.05,12.5,12.5,160,8,,10.0,29.920275,,,TRUE,TRUE,,,,,,,OVC,900,,,,,,,IFR,,,,,,,,,,,,SPECI,180.0
KGMJ 120515Z AUTO 11004KT 5SM RA BKN014 OVC020 02/02 A2999 RMK AO2 P0004,KGMJ,2019-01-12T05:15:00Z,36.6,-94.73,2.0,2.0,110,4,,5.0,29.991142,,,TRUE,TRUE,,,,,,RA,BKN,1400,OVC,2000,,,,,MVFR,,,,,,0.04,,,,,,METAR,254.0
KSEZ 120515Z AUTO 04013G21KT 10SM CLR 06/M05 A3013 RMK AO2,KSEZ,2019-01-12T05:15:00Z,34.85,-111.78,6.0,-5.0,40,13,21,10.0,30.129921,,,TRUE,TRUE,,,,,,,CLR,,,,,,,,VFR,,,,,,,,,,,,SPECI,1473.0
KSEP 120515Z AUTO 23007G14KT 10SM BKN008 BKN029 OVC065 13/11 A2996 RMK AO2 P0001 T01250114,KSEP,2019-01-12T05:15:00Z,32.22,-98.17,12.5,11.4,230,7,14,10.0,29.958662,,,TRUE,TRUE,,,,,,,BKN,800,BKN,2900,OVC,6500,,,IFR,,,,,,0.01,,,,,,SPECI,402.0
KSCD 120515Z AUTO 00000KT 10SM SCT110 06/03 A3023 RMK AO2 T00580032,KSCD,2019-01-12T05:15:00Z,33.17,-86.3,5.8,3.2,0,0,,10.0,30.230314,,,TRUE,TRUE,,,,,,,SCT,11000,,,,,,,VFR,,,,,,,,,,,,METAR,173.0
KSAR 120515Z AUTO 10008KT 2SM -SN OVC005 M01/M01 A3021 RMK AO2 T10151015,KSAR,2019-01-12T05:15:00Z,38.15,-89.7,-1.5,-1.5,100,8,,2.0,30.209646,,,TRUE,TRUE,,,,,,-SN,OVC,500,,,,,,,IFR,,,,,,,,,,,,SPECI,164.0
KRYW 120515Z AUTO 26003KT 1/2SM FG OVC001 13/13 A2996 RMK AO2 T01330133,KRYW,2019-01-12T05:15:00Z,30.5,-97.97,13.3,13.3,260,3,,0.5,29.958662,,,TRUE,TRUE,,,,,,FG,OVC,100,,,,,,,LIFR,,,,,,,,,,,,SPECI,376.0
KRSV 120515Z AUTO 11005KT 2 1/2SM -SN BKN005 OVC024 M02/M02 A3030 RMK AO2 T10161017,KRSV,2019-01-12T05:15:00Z,39.02,-87.65,-1.6,-1.7,110,5,,2.5,30.301182,,,TRUE,TRUE,,,,,,-SN,BKN,500,OVC,2400,,,,,IFR,,,,,,,,,,,,SPECI,141.0
KRSN 120515Z AUTO 14004KT 10SM OVC100 09/01 A3007 RMK AO2 T00910007 PNO,KRSN,2019-01-12T05:15:00Z,32.52,-92.58,9.1,0.7,140,4,,10.0,30.070866,,,TRUE,TRUE,,,,,,,OVC,10000,,,,,,,VFR,,,,,,,,,,,,METAR,95.0
KRKR 120515Z AUTO 01003KT 7SM -RA OVC030 03/03 A3001 RMK AO2 P0002,KRKR,2019-01-12T05:15:00Z,35.02,-94.62,3.0,3.0,10,3,,7.0,30.008858,,,TRUE,TRUE,,,,,,-RA,OVC,3000,,,,,,,MVFR,,,,,,0.02,,,,,,METAR,138.0
KRGA 120515Z AUTO 00000KT 10SM BKN046 OVC050 00/M05 A3032 RMK AO2,KRGA,2019-01-12T05:15:00Z,37.63,-84.33,0.0,-5.0,0,0,,10.0,30.318897,,,TRUE,TRUE,,,,,,,BKN,4600,OVC,5000,,,,,VFR,,,,,,,,,,,,METAR,305.0
KRAW 120515Z AUTO 11005KT 1 1/2SM -SN OVC003 A3007 RMK AO2,KRAW,2019-01-12T05:15:00Z,38.35,-93.35,,,110,5,,1.5,30.070866,,,TRUE,TRUE,,,,,,-SN,OVC,300,,,,,,,LIFR,,,,,,,,,,,,METAR,285.0
KPVJ 120515Z AUTO 15009G15KT 7SM RA OVC004 06/06 A2985 RMK AO2 T00620062,KPVJ,2019-01-12T05:15:00Z,34.72,-97.22,6.2,6.2,150,9,15,7.0,29.84941,,,TRUE,TRUE,,,,,,RA,OVC,400,,,,,,,LIFR,,,,,,,,,,,,METAR,295.0
KPUJ 120515Z AUTO 12004KT 10SM SCT090 05/M03 A3025 RMK AO2,KPUJ,2019-01-12T05:15:00Z,33.92,-84.93,5.0,-3.0,120,4,,10.0,30.250984,,,TRUE,TRUE,,,,,,,SCT,9000,,,,,,,VFR,,,,,,,,,,,,METAR,393.0
KPTB 120515Z AUTO 00000KT 10SM CLR M04/M06 A3046 RMK AO2 T10401061,KPTB,2019-01-12T05:15:00Z,37.17,-77.52,-4.0,-6.1,0,0,,10.0,30.46063,,,TRUE,TRUE,,,,,,,CLR,,,,,,,,VFR,,,,,,,,,,,,METAR,59.0
KPRS 120515Z AUTO 33005KT 10SM CLR 10/08 A3008 RMK AO2 T01020080,KPRS,2019-01-12T05:15:00Z,29.63,-104.35,10.2,8.0,330,5,,10.0,30.079725,,,TRUE,TRUE,,,,,,,CLR,,,,,,,,VFR,,,,,,,,,,,,SPECI,896.0
KPMH 120515Z AUTO 06003KT 10SM SCT120 M01/M07 A3036 RMK AO2 T10121070,KPMH,2019-01-12T05:15:00Z,38.83,-82.85,-1.2,-7.0,60,3,,10.0,30.360237,,,TRUE,TRUE,,,,,,,SCT,12000,,,,,,,VFR,,,,,,,,,,,,SPECI,202.0
KPKV 120515Z AUTO 15010KT 5SM +RA OVC025 19/18 A2992 RMK AO2 P0002 T01900175,KPKV,2019-01-12T05:15:00Z,28.65,-96.68,19.0,17.5,150,10,,5.0,29.920275,,,TRUE,TRUE,,,,,,+RA,OVC,2500,,,,,,,MVFR,,,,,,0.02,,,,,,SPECI,9.0
KPIM 120515Z AUTO 10010G16KT 10SM CLR 06/M04 A3025 RMK AO2 T00641036 PWINO,KPIM,2019-01-12T05:15:00Z,32.83,-84.88,6.4,-3.6,100,10,16,10.0,30.250984,,,TRUE,TRUE,,,,,TRUE,,CLR,,,,,,,,VFR,,,,,,,,,,,,METAR,275.0
KPCM 120515Z AUTO 07004KT 10SM CLR 15/11 A3020 RMK AO2,KPCM,2019-01-12T05:15:00Z,28.0,-82.17,15.0,11.0,70,4,,10.0,30.200787,,,TRUE,TRUE,,,,,,,CLR,,,,,,,,VFR,,,,,,,,,,,,METAR,47.0
KOZW 120515Z AUTO 13003KT 10SM OVC065 M03/M09 A3038 RMK AO2 T10311087,KOZW,2019-01-12T05:15:00Z,42.62,-83.97,-3.1,-8.7,130,3,,10.0,30.380905,,,TRUE,TRUE,,,,,,,OVC,6500,,,,,,,VFR,,,,,,,,,,,,SPECI,293.0
KOWP 120515Z AUTO 12009G14KT 7SM -RA OVC005 05/04 A2991 RMK AO2 P0001 T00460038,KOWP,2019-01-12T05:15:00Z,36.18,-96.15,4.6,3.8,120,9,14,7.0,29.911417,,,TRUE,TRUE,,,,,,-RA,OVC,500,,,,,,,IFR,,,,,,0.01,,,,,,METAR,272.0
KOSC 120515Z AUTO 00000KT 10SM OVC070 M05/M08 A3041 RMK AO2 T10531076,KOSC,2019-01-12T05:15:00Z,44.45,-83.4,-5.3,-7.6,0,0,,10.0,30.410433,,,TRUE,TRUE,,,,,,,OVC,7000,,,,,,,VFR,,,,,,,,,,,,SPECI,193.0
KONP 120515Z AUTO 08017G23KT 10SM BKN120 10/03 RMK AO2,KONP,2019-01-12T05:15:00Z,44.57,-124.03,10.0,3.0,80,17,23,10.0,,,,TRUE,TRUE,,,,,,,BKN,12000,,,,,,,VFR,,,,,,,,,,,,SPECI,48.0
KOMH 120515Z AUTO 00000KT 10SM CLR M03/M07 A3045 RMK AO2,KOMH,2019-01-12T05:15:00Z,38.25,-78.05,-3.0,-7.0,0,0,,10.0,30.448818,,,TRUE,TRUE,,,,,,,CLR,,,,,,,,VFR,,,,,,,,,,,,METAR,142.0
KCZL 120515Z AUTO 00000KT 10SM SCT100 07/M04 A3030 RMK AO2,KCZL,2019-01-12T05:15:00Z,34.47,-84.93,7.0,-4.0,0,0,,10.0,30.301182,,,TRUE,TRUE,,,,,,,SCT,10000,,,,,,,VFR,,,,,,,,,,,,METAR,195.0
KCXU 120515Z AUTO 00000KT 10SM CLR 07/05 A3024 RMK AO1 T00730049,KCXU,2019-01-12T05:15:00Z,31.22,-84.23,7.3,4.9,0,0,,10.0,30.239174,,,TRUE,TRUE,,,,,,,CLR,,,,,,,,VFR,,,,,,,,,,,,METAR,53.0
KCWC 120515Z AUTO 27009G14KT 10SM SCT011 SCT021 BKN120 09/07 A2989 RMK AO2 T00860070,KCWC,2019-01-12T05:15:00Z,33.85,-98.48,8.6,7.0,270,9,14,10.0,29.890747,,,TRUE,TRUE,,,,,,,SCT,1100,SCT,2100,BKN,12000,,,VFR,,,,,,,,,,,,SPECI,305.0
KCWA 120515Z AUTO 08004KT 7SM SCT060 M06/M07 A3029 RMK AO2,KCWA,2019-01-12T05:15:00Z,44.78,-89.67,-6.0,-7.0,80,4,,7.0,30.28937,,,TRUE,TRUE,,,,,,,SCT,6000,,,,,,,VFR,,,,,,,,,,,,SPECI,389.0
KCMD 120515Z AUTO 07003KT 10SM CLR 06/M04 A3023 RMK AO2 T00571036,KCMD,2019-01-12T05:15:00Z,34.27,-86.85,5.7,-3.6,70,3,,10.0,30.230314,,,TRUE,TRUE,,,,,,,CLR,,,,,,,,VFR,,,,,,,,,,,,METAR,294.0
KCLW 120515Z AUTO 00000KT 10SM SCT043 15/11 A3017 RMK AO2,KCLW,2019-01-12T05:15:00Z,27.98,-82.75,15.0,11.0,0,0,,10.0,30.171259,,,TRUE,TRUE,,,,,,,SCT,4300,,,,,,,VFR,,,,,,,,,,,,METAR,22.0
KCIC 120515Z AUTO 03003KT 10SM OVC075 09/08 A2993 RMK AO1,KCIC,2019-01-12T05:15:00Z,39.78,-121.83,9.0,8.0,30,3,,10.0,29.929134,,,TRUE,TRUE,,,,,,,OVC,7500,,,,,,,VFR,,,,,,,,,,,,SPECI,73.0
KCGC 120515Z AUTO 06003KT 10SM BKN050 11/10 A3021 RMK AO2,KCGC,2019-01-12T05:15:00Z,28.87,-82.57,11.0,10.0,60,3,,10.0,30.209646,,,TRUE,TRUE,,,,,,,BKN,5000,,,,,,,VFR,,,,,,,,,,,,METAR,3.0
KCFS 120515Z AUTO 00000KT 10SM OVC065 M04/M08 A3040 RMK AO2 T10381084,KCFS,2019-01-12T05:15:00Z,43.47,-83.45,-3.8,-8.4,0,0,,10.0,30.398623,,,TRUE,TRUE,,,,,,,OVC,6500,,,,,,,VFR,,,,,,,,,,,,SPECI,214.0
KCDH 120515Z AUTO VRB04KT 10SM FEW075 OVC095 07/M01 A3004 RMK AO2,KCDH,2019-01-12T05:15:00Z,33.62,-92.77,7.0,-1.0,0,4,,10.0,30.041338,,,TRUE,TRUE,,,,,,,FEW,7500,OVC,9500,,,,,VFR,,,,,,,,,,,,METAR,35.0
KCDA 120515Z AUTO 00000KT 10SM CLR M19/M23 A3026 RMK AO2 T11881228,KCDA,2019-01-12T05:15:00Z,44.57,-72.02,-18.8,-22.8,0,0,,10.0,30.259842,,,TRUE,TRUE,,,,,,,CLR,,,,,,,,VFR,,,,,,,,,,,,SPECI,363.0
KBYY 120515Z AUTO 12008KT 10SM SCT027 OVC040 17/15 A2993 RMK AO2 T01720156,KBYY,2019-01-12T05:15:00Z,28.97,-95.87,17.2,15.6,120,8,,10.0,29.929134,,,TRUE,TRUE,,,,,,,SCT,2700,OVC,4000,,,,,VFR,,,,,,,,,,,,SPECI,14.0
KBXK 120515Z AUTO 07004KT 10SM BKN120 11/07 A3009 RMK AO1,KBXK,2019-01-12T05:15:00Z,33.42,-112.68,11.0,7.0,70,4,,10.0,30.088583,,,TRUE,TRUE,,,,,,,BKN,12000,,,,,,,VFR,,,,,,,,,,,,SPECI,315.0
KBXA 120515Z AUTO 00000KT 10SM CLR 05/03 A3015 RMK AO2 T00460028,KBXA,2019-01-12T05:15:00Z,30.82,-89.87,4.6,2.8,0,0,,10.0,30.15059,,,TRUE,TRUE,,,,,,,CLR,,,,,,,,VFR,,,,,,,,,,,,METAR,36.0
KBVU 120515Z AUTO 00000KT 10SM SCT040 BKN049 09/M00 A3011 RMK AO2,KBVU,2019-01-12T05:15:00Z,35.95,-114.87,9.0,0.0,0,0,,10.0,30.109253,,,TRUE,TRUE,,,,,,,SCT,4000,BKN,4900,,,,,VFR,,,,,,,,,,,,SPECI,671.0
KBQK 120515Z AUTO 04006KT 10SM BKN055 08/06 A3030 RMK AO2,KBQK,2019-01-12T05:15:00Z,31.25,-81.47,8.0,6.0,40,6,,10.0,30.301182,,,TRUE,TRUE,,,,,,,BKN,5500,,,,,,,VFR,,,,,,,,,,,,METAR,8.0
KBPG 120515Z AUTO 33009KT 10SM CLR 07/04 A3002 RMK AO2 T00710035,KBPG,2019-01-12T05:15:00Z,32.22,-101.52,7.1,3.5,330,9,,10.0,30.02067,,,TRUE,TRUE,,,,,,,CLR,,,,,,,,VFR,,,,,,,,,,,,SPECI,784.0
KBPC 120515Z AUTO 34015G21KT 10SM SCT010 BKN028 OVC041 01/00 A2995 RMK AO2,KBPC,2019-01-12T05:15:00Z,35.88,-101.03,1.0,0.0,340,15,21,10.0,29.949802,,,TRUE,TRUE,,,,,,,SCT,1000,BKN,2800,OVC,4100,,,MVFR,,,,,,,,,,,,SPECI,845.0
KBKS 120515Z AUTO 00000KT 10SM OVC110 19/17 A2996 RMK AO1 T01850170,KBKS,2019-01-12T05:15:00Z,27.2,-98.12,18.5,17.0,0,0,,10.0,29.958662,,,TRUE,TRUE,,,,,,,OVC,11000,,,,,,,VFR,,,,,,,,,,,,SPECI,34.0
KBEC 120515Z AUTO 05006KT 10SM -RA OVC004 00/00 A2995 RMK AO2 T00030000,KBEC,2019-01-12T05:15:00Z,37.7,-97.22,0.3,0.0,50,6,,10.0,29.949802,,,TRUE,TRUE,,,,,,-RA,OVC,400,,,,,,,LIFR,,,,,,,,,,,,METAR,429.0
KBEA 120515Z AUTO 21003KT 10SM -RA SCT011 BKN120 19/17 A2993 RMK AO2 T01900167,KBEA,2019-01-12T05:15:00Z,28.37,-97.78,19.0,16.7,210,3,,10.0,29.929134,,,TRUE,TRUE,,,,,,-RA,SCT,1100,BKN,12000,,,,,VFR,,,,,,,,,,,,SPECI,82.0
KBCK 120515Z AUTO 00000KT 10SM OVC050 M03/M07 A3028 RMK AO2 T10351075,KBCK,2019-01-12T05:15:00Z,44.25,-90.85,-3.5,-7.5,0,0,,10.0,30.280512,,,TRUE,TRUE,,,,,,,OVC,5000,,,,,,,VFR,,,,,,,,,,,,SPECI,255.0
KBBG 120515Z AUTO 12010KT 3SM -RA OVC003 00/00 A3005 RMK AO2,KBBG,2019-01-12T05:15:00Z,36.53,-93.2,0.0,0.0,120,10,,3.0,30.050198,,,TRUE,TRUE,,,,,,-RA,OVC,300,,,,,,,LIFR,,,,,,,,,,,,METAR,397.0
KBAM 120515Z AUTO 06018G23KT 10SM CLR 00/M04 A3011 RMK AO1,KBAM,2019-01-12T05:15:00Z,,,0.0,-4.0,60,18,23,10.0,30.109253,,,TRUE,TRUE,,,,,,,CLR,,,,,,,,VFR,,,,,,,,,,,,SPECI,
KAZE 120515Z AUTO 10004KT 10SM OVC047 09/00 A3029 RMK AO2 T00881003,KAZE,2019-01-12T05:15:00Z,31.88,-82.65,8.8,-0.3,100,4,,10.0,30.28937,,,TRUE,TRUE,,,,,,,OVC,4700,,,,,,,VFR,,,,,,,,,,,,METAR,78.0
KAZC 120515Z AUTO 12003KT 10SM CLR M03/M04 A3018 RMK AO2,KAZC,2019-01-12T05:15:00Z,36.97,-113.02,-3.0,-4.0,120,3,,10.0,30.180119,,,TRUE,TRUE,,,,,,,CLR,,,,,,,,VFR,,,,,,,,,,,,SPECI,1486.0
PAUT 120515Z AUTO 06015KT 10SM -RA OVC011 03/02 A2913 RMK AO2 T00250016,PAUT,2019-01-12T05:15:00Z,54.15,-165.6,2.5,1.6,60,15,,10.0,29.128937,,,TRUE,TRUE,,,,,,-RA,OVC,1100,,,,,,,MVFR,,,,,,,,,,,,METAR,25.0
KAXS 120515Z AUTO 30014KT 10SM OVC015 07/04 A2989 RMK AO2 T00670039,KAXS,2019-01-12T05:15:00Z,34.7,-99.33,6.7,3.9,300,14,,10.0,29.890747,,,TRUE,TRUE,,,,,,,OVC,1500,,,,,,,MVFR,,,,,,,,,,,,METAR,437.0
KAXH 120515Z AUTO 14005KT 10SM SCT027 SCT032 OVC046 16/14 A2997 RMK AO2 T01560140,KAXH,2019-01-12T05:15:00Z,29.52,-95.48,15.6,14.0,140,5,,10.0,29.970472,,,TRUE,TRUE,,,,,,,SCT,2700,SCT,3200,OVC,4600,,,VFR,,,,,,,,,,,,SPECI,21.0
KAVC 120515Z AUTO 00000KT 10SM CLR M03/M07 A3048 RMK AO2 T10311067,KAVC,2019-01-12T05:15:00Z,36.68,-78.03,-3.1,-6.7,0,0,,10.0,30.481298,,,TRUE,TRUE,,,,,,,CLR,,,,,,,,VFR,,,,,,,,,,,,METAR,135.0
KASW 120515Z AUTO 10004KT 10SM CLR M03/M06 A3033 RMK AO2,KASW,2019-01-12T05:15:00Z,41.27,-85.83,-3.0,-6.0,100,4,,10.0,30.33071,,,TRUE,TRUE,,,,,,,CLR,,,,,,,,VFR,,,,,,,,,,,,SPECI,259.0
KARV 120515Z AUTO 11003KT 10SM OVC046 M04/M08 A3027 RMK AO2 T10371077,KARV,2019-01-12T05:15:00Z,45.92,-89.72,-3.7,-7.7,110,3,,10.0,30.268702,,,TRUE,TRUE,,,,,,,OVC,4600,,,,,,,VFR,,,,,,,,,,,,SPECI,496.0
KARM 120515Z AUTO 13007KT 10SM OVC036 16/14 A2993 RMK AO2 T01630136,KARM,2019-01-12T05:15:00Z,29.25,-96.15,16.3,13.6,130,7,,10.0,29.929134,,,TRUE,TRUE,,,,,,,OVC,3600,,,,,,,VFR,,,,,,,,,,,,SPECI,31.0
KALW 120515Z AUTO 16004KT 3SM BR OVC002 02/00 A3014 RMK AO2 T00170000,KALW,2019-01-12T05:15:00Z,46.1,-118.28,1.7,0.0,160,4,,3.0,30.138779,,,TRUE,TRUE,,,,,,BR,OVC,200,,,,,,,LIFR,,,,,,,,,,,,METAR,363.0
KALM 120515Z AUTO 01012KT 10SM FEW070 07/M02 A3010 RMK AO2,KALM,2019-01-12T05:15:00Z,32.82,-105.97,7.0,-2.0,10,12,,10.0,30.100393,,,TRUE,TRUE,,,,,,,FEW,7000,,,,,,,VFR,,,,,,,,,,,,SPECI,1279.0
KAJR 120515Z AUTO 09004KT 7SM OVC095 04/M06 A3031 RMK AO2 T00441060,KAJR,2019-01-12T05:15:00Z,34.5,-83.55,4.4,-6.0,90,4,,7.0,30.31004,,,TRUE,TRUE,,,,,,,OVC,9500,,,,,,,VFR,,,,,,,,,,,,METAR,441.0
KAJG 120515Z AUTO 00000KT 1 3/4SM -SN SCT007 BKN021 OVC028 M01/M01 A3028 RMK AO2 T10081012,KAJG,2019-01-12T05:15:00Z,38.62,-87.73,-0.8,-1.2,0,0,,1.75,30.280512,,,TRUE,TRUE,,,,,,-SN,SCT,700,BKN,2100,OVC,2800,,,IFR,,,,,,,,,,,,SPECI,131.0
KAIT 120515Z AUTO 06003KT 10SM OVC026 M06/M08 A3027 RMK AO2,KAIT,2019-01-12T05:15:00Z,46.53,-93.67,-6.0,-8.0,60,3,,10.0,30.268702,,,TRUE,TRUE,,,,,,,OVC,2600,,,,,,,MVFR,,,,,,,,,,,,SPECI,367.0
KAAS 120515Z AUTO 09006KT 2 1/2SM 00/00 A3032 RMK AO1 SKY OBSCURED,KAAS,2019-01-12T05:15:00Z,37.35,-85.32,0.0,0.0,90,6,,2.5,30.318897,,,TRUE,TRUE,,,,,,,,,,,,,,,,,,,,,,,,,,,METAR,281.0
K82V 120515Z AUTO 34009KT 10SM UP BKN005 BKN011 OVC030 00/00 A3017 RMK AO2,K82V,2019-01-12T05:15:00Z,41.15,-104.13,0.0,0.0,340,9,,10.0,30.171259,,,TRUE,TRUE,,,,,,UP,BKN,500,BKN,1100,OVC,3000,,,IFR,,,,,,,,,,,,SPECI,1570.0
K7W4 120515Z AUTO 00000KT 10SM CLR M02/M11 A3045 RMK AO1 T10231106,K7W4,2019-01-12T05:15:00Z,37.97,-77.75,-2.3,-10.6,0,0,,10.0,30.448818,,,TRUE,TRUE,,,,,,,CLR,,,,,,,,VFR,,,,,,,,,,,,METAR,106.0
K6A2 120515Z AUTO 00000KT 10SM SCT034 04/M05 A3028 RMK AO2,K6A2,2019-01-12T05:15:00Z,33.23,-84.27,4.0,-5.0,0,0,,10.0,30.280512,,,TRUE,TRUE,,,,,,,SCT,3400,,,,,,,VFR,,,,,,,,,,,,METAR,292.0
K5R8 120515Z AUTO 12005KT 10SM SCT033 BKN100 OVC120 12/09 A3004 RMK AO2 T01200086,K5R8,2019-01-12T05:15:00Z,30.43,-93.47,12.0,8.6,120,5,,10.0,30.041338,,,TRUE,TRUE,,,,,,,SCT,3300,BKN,10000,OVC,12000,,,VFR,,,,,,,,,,,,METAR,24.0
K54J 120515Z AUTO 07004KT 10SM SCT031 07/01 A3020 RMK AO2 T00720008,K54J,2019-01-12T05:15:00Z,30.73,-86.15,7.2,0.8,70,4,,10.0,30.200787,,,TRUE,TRUE,,,,,,,SCT,3100,,,,,,,VFR,,,,,,,,,,,,METAR,88.0
K4S1 120515Z AUTO 06007KT 7SM OVC075 12/07 A2980 RMK AO1,K4S1,2019-01-12T05:15:00Z,42.42,-124.42,12.0,7.0,60,7,,7.0,29.799213,,,TRUE,TRUE,,,,,,,OVC,7500,,,,,,,VFR,,,,,,,,,,,,METAR,5.0
K4R5 120515Z AUTO 06003KT 10SM OVC019 M03/M06 A3034 RMK AO2 T10291065,K4R5,2019-01-12T05:15:00Z,46.78,-90.77,-2.9,-6.5,60,3,,10.0,30.339567,,,TRUE,TRUE,,,,,,,OVC,1900,,,,,,,MVFR,,,,,,,,,,,,SPECI,198.0
K3R7 120515Z AUTO 12009KT 10SM BKN110 12/09 A3005 RMK AO2 T01180088,K3R7,2019-01-12T05:15:00Z,30.25,-92.67,11.8,8.8,120,9,,10.0,30.050198,,,TRUE,TRUE,,,,,,,BKN,11000,,,,,,,VFR,,,,,,,,,,,,METAR,7.0
K3LF 120515Z AUTO 10010KT 1 3/4SM -SN OVC006 M02/M03 A3021 RMK AO2 T10211027,K3LF,2019-01-12T05:15:00Z,39.17,-89.67,-2.1,-2.7,100,10,,1.75,30.209646,,,TRUE,TRUE,,,,,,-SN,OVC,600,,,,,,,IFR,,,,,,,,,,,,SPECI,210.0
K2C8 120515Z AUTO 34009KT 10SM OVC015 M10/M12 A3040 RMK AO2,K2C8,2019-01-12T05:15:00Z,48.78,-97.63,-10.0,-12.0,340,9,,10.0,30.398623,,,TRUE,TRUE,,,,,,,OVC,1500,,,,,,,MVFR,,,,,,,,,,,,SPECI,272.0
K1P1 120515Z AUTO 27009G16KT 10SM CLR M16/M21 A3029 RMK AO2 T11601213,K1P1,2019-01-12T05:15:00Z,43.78,-71.75,-16.0,-21.3,270,9,16,10.0,30.28937,,,TRUE,TRUE,,,,,,,CLR,,,,,,,,VFR,,,,,,,,,,,,SPECI,154.0
K1K1 120515Z AUTO 06003KT 7SM -SN OVC003 00/00 A2996 RMK AO2 T10011001,K1K1,2019-01-12T05:15:00Z,37.77,-97.12,-0.1,-0.1,60,3,,7.0,29.958662,,,TRUE,TRUE,,,,,,-SN,OVC,300,,,,,,,LIFR,,,,,,,,,,,,METAR,416.0
K1A9 120515Z AUTO 00000KT 10SM CLR 03/01 A3021 RMK AO2 T00270010,K1A9,2019-01-12T05:15:00Z,32.43,-86.52,2.7,1.0,0,0,,10.0,30.209646,,,TRUE,TRUE,,,,,,,CLR,,,,,,,,VFR,,,,,,,,,,,,METAR,69.0
K0V4 120515Z AUTO 10SM CLR M02/M06 A3041 RMK AO1 T10201061,K0V4,2019-01-12T05:15:00Z,37.15,-79.02,-2.0,-6.1,,,,10.0,30.410433,,,TRUE,TRUE,,,,,,,CLR,,,,,,,,VFR,,,,,,,,,,,,METAR,182.0
K0F2 120515Z AUTO 19007KT 10SM -RA BKN003 BKN010 OVC055 11/11 A2987 RMK AO2 T01120109,K0F2,2019-01-12T05:15:00Z,33.6,-97.78,11.2,10.9,190,7,,10.0,29.870079,,,TRUE,TRUE,,,,,,-RA,BKN,300,BKN,1000,OVC,5500,,,LIFR,,,,,,,,,,,,SPECI,336.0
K0E0 120515Z AUTO 30004KT 10SM OVC032 02/M01 A3010 RMK AO2 T00211010,K0E0,2019-01-12T05:15:00Z,34.98,-106.0,2.1,-1.0,300,4,,10.0,30.100393,,,TRUE,TRUE,,,,,,,OVC,3200,,,,,,,VFR,,,,,,,,,,,,SPECI,1890.0
KGLW 120515Z AUTO 07005KT 10SM -RA SCT035 SCT049 OVC060 00/M01 A3026 RMK AO2 T00011015,KGLW,2019-01-12T05:15:00Z,37.03,-85.95,0.1,-1.5,70,5,,10.0,30.259842,,,TRUE,TRUE,,,,,,-RA,SCT,3500,SCT,4900,OVC,6000,,,VFR,,,,,,,,,,,,METAR,218.0
KGAO 120515Z AUTO 00000KT 10SM SCT039 11/09 A3012 RMK AO2 T01100091,KGAO,2019-01-12T05:15:00Z,29.45,-90.27,11.0,9.1,0,0,,10.0,30.121063,,,TRUE,TRUE,,,,,,,SCT,3900,,,,,,,VFR,,,,,,,,,,,,METAR,1.0
KFWZ 120515Z AUTO 35004KT 10SM CLR M03/M11 RMK AO2,KFWZ,2019-01-12T05:15:00Z,42.52,-108.78,-3.0,-11.0,350,4,,10.0,,,,TRUE,TRUE,,,,,,,CLR,,,,,,,,VFR,,,,,,,,,,,,SPECI,2588.0
KFSW 120515Z AUTO 09006KT 3/4SM -SN OVC003 M02/M02 A3022 RMK AO2,KFSW,2019-01-12T05:15:00Z,40.67,-91.32,-2.0,-2.0,90,6,,0.75,30.221457,,,TRUE,TRUE,,,,,,-SN,OVC,300,,,,,,,LIFR,,,,,,,,,,,,SPECI,221.0
KFSO 120515Z AUTO 27005KT 10SM CLR M16/M21 A3040 RMK AO2 T11591212,KFSO,2019-01-12T05:15:00Z,44.93,-73.1,-15.9,-21.2,270,5,,10.0,30.398623,,,TRUE,TRUE,,,,,,,CLR,,,,,,,,VFR,,,,,,,,,,,,SPECI,70.0
KFRH 120515Z AUTO 07007KT 2 1/2SM SCT004 BKN022 OVC029 M01/M05 A3027 RMK AO1,KFRH,2019-01-12T05:15:00Z,38.5,-86.63,-1.0,-5.0,70,7,,2.5,30.268702,,,TRUE,TRUE,,,,,,,SCT,400,BKN,2200,OVC,2900,,,IFR,,,,,,,,,,,,SPECI,241.0
KFKR 120515Z AUTO 13007KT 10SM OVC100 00/M04 A3031 RMK AO2 T10011043 TSNO,KFKR,2019-01-12T05:15:00Z,40.27,-86.57,-0.1,-4.3,130,7,,10.0,30.31004,,,TRUE,TRUE,,,TRUE,,,,OVC,10000,,,,,,,VFR,,,,,,,,,,,,SPECI,262.0
KFIN 120515Z AUTO 09006KT 10SM CLR 14/09 A3022 RMK AO2 T01440093,KFIN,2019-01-12T05:15:00Z,29.47,-81.2,14.4,9.3,90,6,,10.0,30.221457,,,TRUE,TRUE,,,,,,,CLR,,,,,,,,VFR,,,,,,,,,,,,METAR,10.0
KFGX 120515Z AUTO 07004KT 10SM OVC090 M01/M07 A3035 RMK AO2 T10111066,KFGX,2019-01-12T05:15:00Z,38.55,-83.75,-1.1,-6.6,70,4,,10.0,30.351377,,,TRUE,TRUE,,,,,,,OVC,9000,,,,,,,VFR,,,,,,,,,,,,METAR,278.0
KFBR 120515Z AUTO 25004KT 10SM CLR M06/M06 A3025 RMK AO2 T10581059,KFBR,2019-01-12T05:15:00Z,41.4,-110.4,-5.8,-5.9,250,4,,10.0,30.250984,,,TRUE,TRUE,,,,,,,CLR,,,,,,,,VFR,,,,,,,,,,,,SPECI,2144.0
KF46 120515Z AUTO 13009KT 10SM RA BKN006 OVC017 11/11 A2992 RMK AO2 P0001 T01070107,KF46,2019-01-12T05:15:00Z,32.93,-96.43,10.7,10.7,130,9,,10.0,29.920275,,,TRUE,TRUE,,,,,,RA,BKN,600,OVC,1700,,,,,IFR,,,,,,0.01,,,,,,SPECI,176.0
KF17 120515Z AUTO 14003KT 10SM SCT060 OVC110 11/07 A2999 RMK AO2 T01060072,KF17,2019-01-12T05:15:00Z,31.83,-94.15,10.6,7.2,140,3,,10.0,29.991142,,,TRUE,TRUE,,,,,,,SCT,6000,OVC,11000,,,,,VFR,,,,,,,,,,,,SPECI,97.0
KF05 120515Z AUTO 29013G18KT 10SM OVC022 08/04 A2990 RMK AO1 T00800043,KF05,2019-01-12T05:15:00Z,34.23,-99.28,8.0,4.3,290,13,18,10.0,29.899607,,,TRUE,TRUE,,,,,,,OVC,2200,,,,,,,MVFR,,,,,,,,,,,,SPECI,386.0
KERY 120515Z AUTO 06004KT 10SM -SN OVC049 M10/M11 A3042 RMK AO2 T11031114,KERY,2019-01-12T05:15:00Z,46.3,-85.45,-10.3,-11.4,60,4,,10.0,30.41929,,,TRUE,TRUE,,,,,,-SN,OVC,4900,,,,,,,VFR,,,,,,,,,,,,SPECI,265.0
KERV 120515Z AUTO 00000KT 10SM OVC007 14/12 A2998 RMK AO2 T01350122,KERV,2019-01-12T05:15:00Z,29.98,-99.08,13.5,12.2,0,0,,10.0,29.97933,,,TRUE,TRUE,,,,,,,OVC,700,,,,,,,IFR,,,,,,,,,,,,SPECI,510.0
KEFT 120515Z AUTO 10SM OVC070 M02/M05 A3027 RMK AO2 T10251050,KEFT,2019-01-12T05:15:00Z,42.62,-89.6,-2.5,-5.0,,,,10.0,30.268702,,,TRUE,TRUE,,,,,,,OVC,7000,,,,,,,VFR,,,,,,,,,,,,SPECI,331.0
KEDN 120515Z AUTO 00000KT 10SM BKN033 07/00 A3020 RMK AO2 T00710004,KEDN,2019-01-12T05:15:00Z,31.3,-85.9,7.1,0.4,0,0,,10.0,30.200787,,,TRUE,TRUE,,,,,,,BKN,3300,,,,,,,VFR,,,,,,,,,,,,METAR,110.0
KEDC 120515Z AUTO 00000KT 1SM BR BKN029 13/13 A2996 RMK AO2,KEDC,2019-01-12T05:15:00Z,30.4,-97.57,13.0,13.0,0,0,,1.0,29.958662,,,TRUE,TRUE,,,,,,BR,BKN,2900,,,,,,,IFR,,,,,,,,,,,,SPECI,189.0
KECU 120515Z AUTO 22005G11KT 2SM BR OVC003 12/11 A3004 RMK AO2,KECU,2019-01-12T05:15:00Z,29.95,-100.17,12.0,11.0,220,5,11,2.0,30.041338,,,TRUE,TRUE,,,,,,BR,OVC,300,,,,,,,LIFR,,,,,,,,,,,,SPECI,725.0
KDZB 120515Z AUTO 19003KT 10SM OVC009 14/14 A2996 RMK AO2 T01350135,KDZB,2019-01-12T05:15:00Z,30.53,-98.37,13.5,13.5,190,3,,10.0,29.958662,,,TRUE,TRUE,,,,,,,OVC,900,,,,,,,IFR,,,,,,,,,,,,SPECI,334.0
KDUX 120515Z AUTO 32020G23KT 7SM -SN SCT006 BKN013 BKN019 00/M01 A2997 RMK AO2 T00021010,KDUX,2019-01-12T05:15:00Z,35.85,-102.02,0.2,-1.0,320,20,23,7.0,29.970472,,,TRUE,TRUE,,,,,,-SN,SCT,600,BKN,1300,BKN,1900,,,MVFR,,,,,,,,,,,,SPECI,1129.0
KDRI 120515Z AUTO 13005KT 10SM BKN120 12/06 A3005 RMK AO2 T01160055,KDRI,2019-01-12T05:15:00Z,30.83,-93.33,11.6,5.5,130,5,,10.0,30.050198,,,TRUE,TRUE,,,,,,,BKN,12000,,,,,,,VFR,,,,,,,,,,,,METAR,63.0
KDLO 120515Z AUTO 05003KT 5SM BR CLR 09/08 A2987 RMK AO2 T00900079,KDLO,2019-01-12T05:15:00Z,35.75,-119.23,9.0,7.9,50,3,,5.0,29.870079,,,TRUE,TRUE,,,,,,BR,CLR,,,,,,,,MVFR,,,,,,,,,,,,METAR,96.0
KJWY 120515Z AUTO 16009KT 10SM OVC003 12/12 A2994 RMK AO2 T01200120,KJWY,2019-01-12T05:15:00Z,32.45,-96.92,12.0,12.0,160,9,,10.0,29.940945,,,TRUE,TRUE,,,,,,,OVC,300,,,,,,,LIFR,,,,,,,,,,,,SPECI,217.0
KJSV 120515Z AUTO 10009G15KT 7SM RA OVC007 03/02 A3000 RMK AO2 P0001,KJSV,2019-01-12T05:15:00Z,35.43,-94.8,3.0,2.0,100,9,15,7.0,30.0,,,TRUE,TRUE,,,,,,RA,OVC,700,,,,,,,IFR,,,,,,0.01,,,,,,METAR,161.0
KIZA 120515Z AUTO 10005G15KT 10SM -DZ BKN060 OVC070 13/05 A2992 RMK AO2,KIZA,2019-01-12T05:15:00Z,34.6,-120.07,13.0,5.0,100,5,15,10.0,29.920275,,,TRUE,TRUE,,,,,,-DZ,BKN,6000,OVC,7000,,,,,VFR,,,,,,,,,,,,SPECI,205.0
KAXX 120515Z AUTO 00000KT 2SM BR M08/M09 A3007 RMK AO2 VIS 1V5 T10831091,KAXX,2019-01-12T05:15:00Z,36.42,-105.28,-8.3,-9.1,0,0,,2.0,30.070866,,,TRUE,TRUE,,,,,,BR,,,,,,,,,,,,,,,,,,,,,SPECI,2548.0
KSLO 120515Z AUTO 09007KT 2SM -SN OVC004 M01/M01 A3023 RMK AO2 T10061015,KSLO,2019-01-12T05:15:00Z,38.65,-88.97,-0.6,-1.5,90,7,,2.0,30.230314,,,TRUE,TRUE,,,,,,-SN,OVC,400,,,,,,,LIFR,,,,,,,,,,,,SPECI,175.0
KSLR 120515Z AUTO 11007KT 5SM RA BKN017 BKN030 OVC055 07/07 A2999 RMK AO2 P0002 T00700065,KSLR,2019-01-12T05:15:00Z,33.17,-95.62,7.0,6.5,110,7,,5.0,29.991142,,,TRUE,TRUE,,,,,,RA,BKN,1700,BKN,3000,OVC,5500,,,MVFR,,,,,,0.02,,,,,,SPECI,149.0
KSUA 120515Z AUTO 09008KT 10SM CLR 20/10 A3019 RMK AO2,KSUA,2019-01-12T05:15:00Z,27.18,-80.22,20.0,10.0,90,8,,10.0,30.188976,,,TRUE,TRUE,,,,,,,CLR,,,,,,,,VFR,,,,,,,,,,,,METAR,6.0
KSYF 120515Z AUTO 01010G14KT 10SM OVC060 03/M01 A3009 RMK AO2 T00251015,KSYF,2019-01-12T05:15:00Z,39.77,-101.8,2.5,-1.5,10,10,14,10.0,30.088583,,,TRUE,TRUE,,,,,,,OVC,6000,,,,,,,VFR,,,,,,,,,,,,METAR,1025.0
KTEW 120515Z AUTO 00000KT 10SM OVC065 M03/M07 A3038 RMK AO2 T10281068,KTEW,2019-01-12T05:15:00Z,42.57,-84.42,-2.8,-6.8,0,0,,10.0,30.380905,,,TRUE,TRUE,,,,,,,OVC,6500,,,,,,,VFR,,,,,,,,,,,,SPECI,280.0
KTQH 120515Z AUTO 13010G15KT 7SM SCT006 BKN011 OVC016 02/02 A2996 RMK AO2 P0003,KTQH,2019-01-12T05:15:00Z,35.93,-95.0,2.0,2.0,130,10,15,7.0,29.958662,,,TRUE,TRUE,,,,,,,SCT,600,BKN,1100,OVC,1600,,,MVFR,,,,,,0.03,,,,,,METAR,266.0
KTYQ 120515Z AUTO 12005KT 10SM OVC100 M02/M05 A3031 RMK AO2 T10201052,KTYQ,2019-01-12T05:15:00Z,40.03,-86.25,-2.0,-5.2,120,5,,10.0,30.31004,,,TRUE,TRUE,,,,,,,OVC,10000,,,,,,,VFR,,,,,,,,,,,,SPECI,281.0
KUNI 120515Z AUTO 00000KT 10SM SCT095 BKN120 M03/M06 A3036 RMK AO2 T10271061,KUNI,2019-01-12T05:15:00Z,39.22,-82.23,-2.7,-6.1,0,0,,10.0,30.360237,,,TRUE,TRUE,,,,,,,SCT,9500,BKN,12000,,,,,VFR,,,,,,,,,,,,SPECI,193.0
KULS 120515Z AUTO 36015KT 2 1/2SM -SN BKN008 OVC011 00/00 A2999 RMK AO2,KULS,2019-01-12T05:15:00Z,37.6,-101.37,0.0,0.0,360,15,,2.5,29.991142,,,TRUE,TRUE,,,,,,-SN,BKN,800,OVC,1100,,,,,IFR,,,,,,,,,,,,METAR,936.0
KU68 120515Z AUTO 01003KT 1/4SM FZFG OVC001 M01/M01 A3025 RMK AO2,KU68,2019-01-12T05:15:00Z,44.92,-108.45,-1.0,-1.0,10,3,,0.25,30.250984,,,TRUE,TRUE,,,,,,FZFG,OVC,100,,,,,,,LIFR,,,,,,,,,,,,SPECI,1247.0
KUVA 120515Z AUTO 00000KT 1/4SM FG OVC001 11/11 A2999 RMK AO2 T01080107,KUVA,2019-01-12T05:15:00Z,29.22,-99.75,10.8,10.7,0,0,,0.25,29.991142,,,TRUE,TRUE,,,,,,FG,OVC,100,,,,,,,LIFR,,,,,,,,,,,,SPECI,287.0
KVBW 120515Z AUTO 00000KT 10SM CLR M04/M06 A3039 RMK AO1 T10371058,KVBW,2019-01-12T05:15:00Z,38.37,-78.97,-3.7,-5.8,0,0,,10.0,30.389763,,,TRUE,TRUE,,,,,,,CLR,,,,,,,,VFR,,,,,,,,,,,,METAR,355.0
KVJI 120515Z AUTO 08005KT 10SM OVC080 03/M09 A3026 RMK AO2 T00291086,KVJI,2019-01-12T05:15:00Z,36.67,-82.02,2.9,-8.6,80,5,,10.0,30.259842,,,TRUE,TRUE,,,,,,,OVC,8000,,,,,,,VFR,,,,,,,,,,,,METAR,631.0
KVLL 120515Z AUTO 00000KT 10SM OVC070 M03/M09 A3042 RMK AO2 T10281093,KVLL,2019-01-12T05:15:00Z,42.55,-83.18,-2.8,-9.3,0,0,,10.0,30.41929,,,TRUE,TRUE,,,,,,,OVC,7000,,,,,,,VFR,,,,,,,,,,,,SPECI,222.0
KW13 120515Z AUTO 09003KT 10SM CLR M02/M11 A3037 RMK AO1 T10231112,KW13,2019-01-12T05:15:00Z,38.08,-78.95,-2.3,-11.2,90,3,,10.0,30.369095,,,TRUE,TRUE,,,,,,,CLR,,,,,,,,VFR,,,,,,,,,,,,METAR,443.0
KWDG 120515Z AUTO 07016KT 5SM -RA OVC004 03/03 A2985 RMK AO2 P0001,KWDG,2019-01-12T05:15:00Z,36.37,-97.77,3.0,3.0,70,16,,5.0,29.84941,,,TRUE,TRUE,,,,,,-RA,OVC,400,,,,,,,LIFR,,,,,,0.01,,,,,,METAR,356.0
KW99 120515Z AUTO 00000KT 10SM CLR M05/M07 A3042 RMK AO2 T10471073,KW99,2019-01-12T05:15:00Z,39.0,-79.15,-4.7,-7.3,0,0,,10.0,30.41929,,,TRUE,TRUE,,,,,,,CLR,,,,,,,,VFR,,,,,,,,,,,,SPECI,293.0
KW96 120515Z AUTO 00000KT 10SM CLR M03/M07 A3045 RMK AO1 T10311070,KW96,2019-01-12T05:15:00Z,37.5,-77.12,-3.1,-7.0,0,0,,10.0,30.448818,,,TRUE,TRUE,,,,,,,CLR,,,,,,,,VFR,,,,,,,,,,,,METAR,37.0
KW75 120515Z AUTO 02003KT 10SM CLR 00/M07 A3044 RMK AO1 T00001071,KW75,2019-01-12T05:15:00Z,37.6,-76.45,0.0,-7.1,20,3,,10.0,30.43996,,,TRUE,TRUE,,,,,,,CLR,,,,,,,,VFR,,,,,,,,,,,,METAR,9.0
KW63 120515Z AUTO 00000KT 10SM CLR 00/M06 A3042 RMK AO1,KW63,2019-01-12T05:15:00Z,36.6,-78.55,0.0,-6.0,0,0,,10.0,30.41929,,,TRUE,TRUE,,,,,,,CLR,,,,,,,,VFR,,,,,,,,,,,,METAR,129.0
KW31 120515Z AUTO 00000KT 10SM CLR M02/M09 A3042 RMK AO1 T10201087,KW31,2019-01-12T05:15:00Z,36.95,-78.18,-2.0,-8.7,0,0,,10.0,30.41929,,,TRUE,TRUE,,,,,,,CLR,,,,,,,,VFR,,,,,,,,,,,,METAR,162.0
KXSA 120515Z AUTO 00000KT 10SM CLR M03/M07 A3045 RMK AO2 T10321068,KXSA,2019-01-12T05:15:00Z,37.87,-76.9,-3.2,-6.8,0,0,,10.0,30.448818,,,TRUE,TRUE,,,,,,,CLR,,,,,,,,VFR,,,,,,,,,,,,METAR,42.0
KWWR 120515Z AUTO 35010KT 10SM -SN OVC003 01/00 A2992 RMK AO2 P0001,KWWR,2019-01-12T05:15:00Z,36.45,-99.52,1.0,0.0,350,10,,10.0,29.920275,,,TRUE,TRUE,,,,,,-SN,OVC,300,,,,,,,LIFR,,,,,,0.01,,,,,,METAR,667.0
KY23 120515Z AUTO 00000KT 10SM CLR M07/M09 A3029 RMK AO2 T10691090,KY23,2019-01-12T05:15:00Z,45.3,-91.63,-6.9,-9.0,0,0,,10.0,30.28937,,,TRUE,TRUE,,,,,,,CLR,,,,,,,,VFR,,,,,,,,,,,,SPECI,322.0
KY31 120515Z AUTO 09004KT 10SM OVC033 M06/M09 A3038 RMK AO2 T10561091,KY31,2019-01-12T05:15:00Z,44.25,-84.18,-5.6,-9.1,90,4,,10.0,30.380905,,,TRUE,TRUE,,,,,,,OVC,3300,,,,,,,VFR,,,,,,,,,,,,SPECI,269.0
KJYL 120515Z AUTO 00000KT 10SM OVC050 05/M02 A3036 RMK AO2 T00451016,KJYL,2019-01-12T05:15:00Z,32.65,-81.6,4.5,-1.6,0,0,,10.0,30.360237,,,TRUE,TRUE,,,,,,,OVC,5000,,,,,,,VFR,,,,,,,,,,,,METAR,57.0
KBJI 120515Z AUTO 04005KT 5SM BR BKN007 OVC018 M06/M07 A3029 RMK AO2 T10651075,KBJI,2019-01-12T05:15:00Z,47.5,-94.92,-6.5,-7.5,40,5,,5.0,30.28937,,,TRUE,TRUE,,,,,,BR,BKN,700,OVC,1800,,,,,IFR,,,,,,,,,,,,SPECI,420.0
KBIJ 120515Z AUTO 07003KT 10SM CLR 07/02 A3023 RMK AO2,KBIJ,2019-01-12T05:15:00Z,31.4,-84.9,7.0,2.0,70,3,,10.0,30.230314,,,TRUE,TRUE,,,,,,,CLR,,,,,,,,VFR,,,,,,,,,,,,SPECI,65.0
KBGF 120515Z AUTO 14004KT 10SM FEW075 BKN080 06/M04 A3023 RMK A01,KBGF,2019-01-12T05:15:00Z,35.18,-86.07,6.0,-4.0,140,4,,10.0,30.230314,,,TRUE,TRUE,,,,,,,FEW,7500,BKN,8000,,,,,VFR,,,,,,,,,,,,SPECI,299.0
KBBP 120515Z AUTO 00000KT 10SM CLR M01/M03 A3040 RMK AO2,KBBP,2019-01-12T05:15:00Z,34.62,-79.73,-1.0,-3.0,0,0,,10.0,30.398623,,,TRUE,TRUE,,,,,,,CLR,,,,,,,,VFR,,,,,,,,,,,,SPECI,45.0
KBBF 120515Z AUTO 18026KT 8SM FEW021 BKN035 OVC085 21/17 A2991 RMK A01,KBBF,2019-01-12T05:15:00Z,27.83,-96.02,21.0,17.0,180,26,,8.0,29.911417,,,TRUE,TRUE,,,,,,,FEW,2100,BKN,3500,OVC,8500,,,VFR,,,,,,,,,,,,SPECI,36.0
KAYS 120515Z AUTO 07004KT 10SM OVC050 08/02 A3029 RMK AO2 T00810017,KAYS,2019-01-12T05:15:00Z,31.25,-82.4,8.1,1.7,70,4,,10.0,30.28937,,,TRUE,TRUE,,,,,,,OVC,5000,,,,,,,VFR,,,,,,,,,,,,SPECI,46.0
KAVQ 120515Z AUTO 16003KT 10SM CLR 08/03 RMK AO2 T00840028,KAVQ,2019-01-12T05:15:00Z,32.4,-111.22,8.4,2.8,160,3,,10.0,,,,TRUE,TRUE,,,,,,,CLR,,,,,,,,VFR,,,,,,,,,,,,SPECI,619.0
KAVK 120515Z AUTO 02012KT 3SM -DZ OVC003 03/03 A2990 RMK AO2,KAVK,2019-01-12T05:15:00Z,36.77,-98.67,3.0,3.0,20,12,,3.0,29.899607,,,TRUE,TRUE,,,,,,-DZ,OVC,300,,,,,,,LIFR,,,,,,,,,,,,SPECI,449.0
KATP 120515Z AUTO 13012KT 10SM FEW027 FEW032 OVC045 20/15 A3009 RMK A01,KATP,2019-01-12T05:15:00Z,27.2,-90.03,20.0,15.0,130,12,,10.0,30.088583,,,TRUE,TRUE,,,,,,,FEW,2700,FEW,3200,OVC,4500,,,VFR,,,,,,,,,,,,SPECI,62.0
KASN 120515Z AUTO 00000KT 10SM CLR 06/02 A3025 RMK AO2 T00560016,KASN,2019-01-12T05:15:00Z,33.57,-86.05,5.6,1.6,0,0,,10.0,30.250984,,,TRUE,TRUE,,,,,,,CLR,,,,,,,,VFR,,,,,,,,,,,,SPECI,162.0
KARW 120515Z AUTO 05011KT 7SM CLR 06/01 A3034 RMK AO2,KARW,2019-01-12T05:15:00Z,32.42,-80.63,6.0,1.0,50,11,,7.0,30.339567,,,TRUE,TRUE,,,,,,,CLR,,,,,,,,VFR,,,,,,,,,,,,SPECI,4.0
KAPY 120515Z AUTO 00000KT 7SM SCT120 16/16 A3000 RMK AO2 T01600158,KAPY,2019-01-12T05:15:00Z,26.97,-99.25,16.0,15.8,0,0,,7.0,30.0,,,TRUE,TRUE,,,,,,,SCT,12000,,,,,,,VFR,,,,,,,,,,,,SPECI,129.0
KAIG 120515Z AUTO 09004KT 10SM OVC042 M05/M08 A3029 RMK AO2 T10531082,KAIG,2019-01-12T05:15:00Z,45.15,-89.12,-5.3,-8.2,90,4,,10.0,30.28937,,,TRUE,TRUE,,,,,,,OVC,4200,,,,,,,VFR,,,,,,,,,,,,SPECI,464.0
KAEG 120515Z AUTO 30011KT 10SM OVC046 02/M03 A3012 RMK AO2 T00191027,KAEG,2019-01-12T05:15:00Z,35.13,-106.8,1.9,-2.7,300,11,,10.0,30.121063,,,TRUE,TRUE,,,,,,,OVC,4600,,,,,,,VFR,,,,,,,,,,,,METAR,1779.0
KADS 120515Z AUTO 16010KT 7SM OVC004 11/10 A2993 RMK AO2 T01050100,KADS,2019-01-12T05:15:00Z,32.97,-96.82,10.5,10.0,160,10,,7.0,29.929134,,,TRUE,TRUE,,,,,,,OVC,400,,,,,,,LIFR,,,,,,,,,,,,METAR,196.0
KADM 120515Z AUTO 13008KT 10SM OVC005 07/07 A2988 RMK AO2 T00710070,KADM,2019-01-12T05:15:00Z,34.28,-97.02,7.1,7.0,130,8,,10.0,29.878937,,,TRUE,TRUE,,,,,,,OVC,500,,,,,,,IFR,,,,,,,,,,,,SPECI,232.0
KA39 120515Z AUTO 14004KT 10SM CLR 09/07 A3013 RMK AO2,KA39,2019-01-12T05:15:00Z,32.98,-111.92,9.0,7.0,140,4,,10.0,30.129921,,,TRUE,TRUE,,,,,,,CLR,,,,,,,,VFR,,,,,,,,,,,,SPECI,396.0
K8W2 120515Z AUTO 00000KT 10SM CLR M04/M07 A3040 RMK AO1 T10371069,K8W2,2019-01-12T05:15:00Z,38.65,-78.7,-3.7,-6.9,0,0,,10.0,30.398623,,,TRUE,TRUE,,,,,,,CLR,,,,,,,,VFR,,,,,,,,,,,,SPECI,297.0
K8A3 120515Z AUTO 05004KT 10SM FEW034 BKN043 OVC085 02/M04 A3023 RMK A01,K8A3,2019-01-12T05:15:00Z,36.42,-85.32,2.0,-4.0,50,4,,10.0,30.230314,,,TRUE,TRUE,,,,,,,FEW,3400,BKN,4300,OVC,8500,,,VFR,,,,,,,,,,,,SPECI,419.0
K6S0 120515Z AUTO 24008KT 10SM CLR M01/M07 A3018 RMK A01,K6S0,2019-01-12T05:15:00Z,45.8,-109.97,-1.0,-7.0,240,8,,10.0,30.180119,,,TRUE,TRUE,,,,,,,CLR,,,,,,,,VFR,,,,,,,,,,,,METAR,1363.0
K5T9 120515Z AUTO 00000KT M1/4SM HZ OVC001 M03/M05 A2999 RMK A01,K5T9,2019-01-12T05:15:00Z,28.85,-100.52,-3.0,-5.0,0,0,,0.25,29.991142,,,TRUE,TRUE,,,,,,HZ,OVC,100,,,,,,,LIFR,,,,,,,,,,,,SPECI,270.0
K54A 120515Z AUTO 08003KT 10SM 15/12 A3016 RMK AO2,K54A,2019-01-12T05:15:00Z,26.85,-82.25,15.0,12.0,80,3,,10.0,30.159449,,,TRUE,TRUE,,,,,,,,,,,,,,,,,,,,,,,,,,,METAR,14.0
K4O4 120515Z AUTO 07005KT 5SM SCT008 BKN014 OVC027 03/02 A3002 RMK AO2 P0002,K4O4,2019-01-12T05:15:00Z,33.92,-94.87,3.0,2.0,70,5,,5.0,30.02067,,,TRUE,TRUE,,,,,,,SCT,800,BKN,1400,OVC,2700,,,MVFR,,,,,,0.02,,,,,,SPECI,144.0
K46U 120515Z AUTO 00000KT 3/4SM BR OVC003 M09/M10 A3030 RMK A01,K46U,2019-01-12T05:15:00Z,43.18,-111.05,-9.0,-10.0,0,0,,0.75,30.301182,,,TRUE,TRUE,,,,,,BR,OVC,300,,,,,,,LIFR,,,,,,,,,,,,METAR,1717.0
K3T5 120515Z AUTO 13004KT 10SM -RA SCT038 BKN046 OVC065 15/15 A2994 RMK AO2 LTG DSNT S T01470147,K3T5,2019-01-12T05:15:00Z,29.9,-96.95,14.7,14.7,130,4,,10.0,29.940945,,,TRUE,TRUE,,,,,,-RA,SCT,3800,BKN,4600,OVC,6500,,,VFR,,,,,,,,,,,,SPECI,99.0
K3S8 120515Z AUTO 00000KT 10SM CLR 06/05 A2988 RMK AO2,K3S8,2019-01-12T05:15:00Z,42.5,-123.4,6.0,5.0,0,0,,10.0,29.878937,,,TRUE,TRUE,,,,,,,CLR,,,,,,,,VFR,,,,,,,,,,,,SPECI,343.0
K3L4 120515Z AUTO 13011KT 10SM BKN110 A3005 RMK A01,K3L4,2019-01-12T05:15:00Z,29.8,-92.8,,,130,11,,10.0,30.050198,,,TRUE,TRUE,,,,,,,BKN,11000,,,,,,,VFR,,,,,,,,,,,,SPECI,2.0
K33N 120515Z AUTO 32003KT 10SM CLR M05/M10 A3045 RMK A01,K33N,2019-01-12T05:15:00Z,39.22,-75.6,-5.0,-10.0,320,3,,10.0,30.448818,,,TRUE,TRUE,,,,,,,CLR,,,,,,,,VFR,,,,,,,,,,,,METAR,17.0
K2M2 120515Z AUTO 08006KT 8SM FEW055 BKN070 OVC075 04/M02 A3019 RMK A01,K2M2,2019-01-12T05:15:00Z,35.23,-87.25,4.0,-2.0,80,6,,8.0,30.188976,,,TRUE,TRUE,,,,,,,FEW,5500,BKN,7000,OVC,7500,,,VFR,,,,,,,,,,,,SPECI,286.0
K2LS 120515Z AUTO VRB03KT 10SM OVC040 12/11 A3013 RMK AO2,K2LS,2019-01-12T05:15:00Z,29.42,-90.3,12.0,11.0,0,3,,10.0,30.129921,,,TRUE,TRUE,,,,,,,OVC,4000,,,,,,,VFR,,,,,,,,,,,,METAR,-2.0
K2G9 120515Z AUTO 00000KT 10SM CLR M10/M12 A3031 RMK AO2,K2G9,2019-01-12T05:15:00Z,40.03,-79.02,-10.0,-12.0,0,0,,10.0,30.31004,,,TRUE,TRUE,,,,,,,CLR,,,,,,,,VFR,,,,,,,,,,,,SPECI,693.0
K2A0 120515Z AUTO 00000KT 10SM SCT075 OVC090 05/M01 A3029 RMK A01,K2A0,2019-01-12T05:15:00Z,35.48,-84.93,5.0,-1.0,0,0,,10.0,30.28937,,,TRUE,TRUE,,,,,,,SCT,7500,OVC,9000,,,,,VFR,,,,,,,,,,,,SPECI,219.0
K28J 120515Z AUTO 00000KT 10SM OVC050 09/09 A3024 RMK AO2,K28J,2019-01-12T05:15:00Z,29.65,-81.58,9.0,9.0,0,0,,10.0,30.239174,,,TRUE,TRUE,,,,,,,OVC,5000,,,,,,,VFR,,,,,,,,,,,,SPECI,15.0
K1U7 120515Z AUTO 00000KT 1/2SM FZFG VV005 M16/M18 A3025 RMK A01,K1U7,2019-01-12T05:15:00Z,,,-16.0,-18.0,0,0,,0.5,30.250984,,,TRUE,TRUE,,,,,,FZFG,OVX,0,,,,,,,LIFR,,,,,,,,,,,500,METAR,
K18H 120515Z AUTO 15012KT 5SM HZ 22/13 A3005 RMK A01,K18H,2019-01-12T05:15:00Z,26.13,-92.03,22.0,13.0,150,12,,5.0,30.050198,,,TRUE,TRUE,,,,,,HZ,,,,,,,,,,,,,,,,,,,,,METAR,10.0
K13K 120515Z AUTO 06006KT 3SM -SN BR OVC004 00/00 A2998 RMK AO2 T00030002,K13K,2019-01-12T05:15:00Z,37.85,-96.3,0.3,0.2,60,6,,3.0,29.97933,,,TRUE,TRUE,,,,,,-SN BR,OVC,400,,,,,,,LIFR,,,,,,,,,,,,SPECI,369.0
K0R0 120515Z AUTO 00000KT 10SM FEW032 04/03 A3018 RMK AO2,K0R0,2019-01-12T05:15:00Z,31.3,-89.82,4.0,3.0,0,0,,10.0,30.180119,,,TRUE,TRUE,,,,,,,FEW,3200,,,,,,,VFR,,,,,,,,,,,,SPECI,81.0
K0A9 120515Z AUTO 09007KT 10SM OVC085 04/M04 A3027 RMK AO2,K0A9,2019-01-12T05:15:00Z,36.37,-82.17,4.0,-4.0,90,7,,10.0,30.268702,,,TRUE,TRUE,,,,,,,OVC,8500,,,,,,,VFR,,,,,,,,,,,,SPECI,486.0
K05U 120515Z AUTO 00000KT 1SM BR OVC003 M05/M06 A3016 RMK A01,K05U,2019-01-12T05:15:00Z,39.6,-116.0,-5.0,-6.0,0,0,,1.0,30.159449,,,TRUE,TRUE,,,,,,BR,OVC,300,,,,,,,LIFR,,,,,,,,,,,,METAR,1816.0
KXPY 120515Z AUTO 06004KT 10SM 15/13 A3012 RMK A01,KXPY,2019-01-12T05:15:00Z,29.12,-90.2,15.0,13.0,60,4,,10.0,30.121063,,,TRUE,TRUE,,,,,,,,,,,,,,,,,,,,,,,,,,,SPECI,2.0
KXNX 120515Z AUTO 07004KT 9SM FEW041 SCT049 BKN060 02/M01 A3026 RMK A01,KXNX,2019-01-12T05:15:00Z,36.38,-86.42,2.0,-1.0,70,4,,9.0,30.259842,,,TRUE,TRUE,,,,,,,FEW,4100,SCT,4900,BKN,6000,,,VFR,,,,,,,,,,,,SPECI,178.0
KXIH 120515Z AUTO 13011KT 10SM FEW032 BKN060 OVC070 A2997 RMK A01,KXIH,2019-01-12T05:15:00Z,29.18,-94.52,,,130,11,,10.0,29.970472,,,TRUE,TRUE,,,,,,,FEW,3200,BKN,6000,OVC,7000,,,VFR,,,,,,,,,,,,SPECI,75.0
KXER 120515Z AUTO 14012KT 10SM FEW030 FEW049 20/13 A3010 RMK A01,KXER,2019-01-12T05:15:00Z,,,20.0,13.0,140,12,,10.0,30.100393,,,TRUE,TRUE,,,,,,,FEW,3000,FEW,4900,,,,,VFR,,,,,,,,,,,,METAR,
KXBP 120515Z AUTO 20008KT 4SM RA SCT011 BKN019 OVC025 12/12 A2991 RMK AO2 P0006 T01230123,KXBP,2019-01-12T05:15:00Z,33.18,-97.83,12.3,12.3,200,8,,4.0,29.911417,,,TRUE,TRUE,,,,,,RA,SCT,1100,BKN,1900,OVC,2500,,,MVFR,,,,,,0.06,,,,,,SPECI,260.0
KW81 120515Z AUTO 00000KT 10SM CLR M04/M08 A3043 RMK AO1 T10361082,KW81,2019-01-12T05:15:00Z,37.18,-78.1,-3.6,-8.2,0,0,,10.0,30.431103,,,TRUE,TRUE,,,,,,,CLR,,,,,,,,VFR,,,,,,,,,,,,SPECI,129.0
KVQT 120515Z AUTO 16019KT 10SM BKN036 20/14 A3006 RMK A01,KVQT,2019-01-12T05:15:00Z,28.27,-92.27,20.0,14.0,160,19,,10.0,30.059055,,,TRUE,TRUE,,,,,,,BKN,3600,,,,,,,VFR,,,,,,,,,,,,METAR,25.0
KVOA 120515Z AUTO 13017KT 10SM BKN031 18/11 A3012 RMK A01,KVOA,2019-01-12T05:15:00Z,29.23,-87.78,18.0,11.0,130,17,,10.0,30.121063,,,TRUE,TRUE,,,,,,,BKN,3100,,,,,,,VFR,,,,,,,,,,,,SPECI,53.0
KVKY 120515Z AUTO VRB05G12KT 10SM OVC037 19/12 A3014 RMK A01,KVKY,2019-01-12T05:15:00Z,29.25,-88.43,19.0,12.0,0,5,12,10.0,30.138779,,,TRUE,TRUE,,,,,,,OVC,3700,,,,,,,VFR,,,,,,,,,,,,SPECI,32.0
KVKS 120515Z AUTO 13005KT 10SM BKN030 10/M02 A3011 RMK A01,KVKS,2019-01-12T05:15:00Z,32.23,-90.93,10.0,-2.0,130,5,,10.0,30.109253,,,TRUE,TRUE,,,,,,,BKN,3000,,,,,,,MVFR,,,,,,,,,,,,SPECI,32.0
KVDF 120515Z AUTO 00000KT 10SM CLR 11/10 A3019 RMK AO2,KVDF,2019-01-12T05:15:00Z,28.02,-82.33,11.0,10.0,0,0,,10.0,30.188976,,,TRUE,TRUE,,,,,,,CLR,,,,,,,,VFR,,,,,,,,,,,,SPECI,7.0
KVBS 120515Z AUTO 18015G25KT 10SM FEW014 BKN035 OVC041 17/15 A3001 RMK A01,KVBS,2019-01-12T05:15:00Z,29.48,-93.63,17.0,15.0,180,15,25,10.0,30.008858,,,TRUE,TRUE,,,,,,,FEW,1400,BKN,3500,OVC,4100,,,VFR,,,,,,,,,,,,SPECI,31.0
KVAF 120515Z AUTO 18021KT 10SM OVC090 21/14 A2998 RMK A01,KVAF,2019-01-12T05:15:00Z,27.35,-94.63,21.0,14.0,180,21,,10.0,29.97933,,,TRUE,TRUE,,,,,,,OVC,9000,,,,,,,VFR,,,,,,,,,,,,SPECI,46.0
KUYF 120515Z AUTO 11004KT 10SM CLR M03/M05 A3033 RMK AO2,KUYF,2019-01-12T05:15:00Z,39.93,-83.47,-3.0,-5.0,110,4,,10.0,30.33071,,,TRUE,TRUE,,,,,,,CLR,,,,,,,,VFR,,,,,,,,,,,,SPECI,330.0
KUES 120515Z AUTO 16004KT 10SM OVC070 M02/M06 A3032 RMK AO2,KUES,2019-01-12T05:15:00Z,43.05,-88.25,-2.0,-6.0,160,4,,10.0,30.318897,,,TRUE,TRUE,,,,,,,OVC,7000,,,,,,,VFR,,,,,,,,,,,,SPECI,278.0
KUCY 120515Z AUTO 08006KT 10SM OVC055 01/M00 A3017 RMK A01,KUCY,2019-01-12T05:15:00Z,36.38,-88.98,1.0,0.0,80,6,,10.0,30.171259,,,TRUE,TRUE,,,,,,,OVC,5500,,,,,,,VFR,,,,,,,,,,,,SPECI,104.0
KUBE 120515Z AUTO 07003KT 10SM CLR M07/M10 A3026 RMK AO2,KUBE,2019-01-12T05:15:00Z,45.5,-91.98,-7.0,-10.0,70,3,,10.0,30.259842,,,TRUE,TRUE,,,,,,,CLR,,,,,,,,VFR,,,,,,,,,,,,SPECI,379.0
KU42 120515Z AUTO 23004KT 7SM OVC012 00/M01 A3028 RMK AO1 T00001007,KU42,2019-01-12T05:15:00Z,40.62,-111.98,0.0,-0.7,230,4,,7.0,30.280512,,,TRUE,TRUE,,,,,,,OVC,1200,,,,,,,MVFR,,,,,,,,,,,,SPECI,1402.0
KTZR 120515Z AUTO 12003KT 10SM CLR M03/M06 A3035 RMK AO2 T10301065,KTZR,2019-01-12T05:15:00Z,39.9,-83.13,-3.0,-6.5,120,3,,10.0,30.351377,,,TRUE,TRUE,,,,,,,CLR,,,,,,,,VFR,,,,,,,,,,,,SPECI,276.0
KTYL 120515Z AUTO 18003KT 10SM CLR M03/M03 A3018 RMK AO2,KTYL,2019-01-12T05:15:00Z,,,-3.0,-3.0,180,3,,10.0,30.180119,,,TRUE,TRUE,,,,,,,CLR,,,,,,,,VFR,,,,,,,,,,,,SPECI,
KTVI 120515Z AUTO 12006KT 10SM BKN037 OVC045 10/06 A3025 RMK AO2,KTVI,2019-01-12T05:15:00Z,30.9,-83.88,10.0,6.0,120,6,,10.0,30.250984,,,TRUE,TRUE,,,,,,,BKN,3700,OVC,4500,,,,,VFR,,,,,,,,,,,,SPECI,80.0
KPEQ 120515Z AUTO 32003KT 10SM SCT095 SCT120 09/03 A3004 RMK AO2 T00900028,KPEQ,2019-01-12T05:15:00Z,31.38,-103.52,9.0,2.8,320,3,,10.0,30.041338,,,TRUE,TRUE,,,,,,,SCT,9500,SCT,12000,,,,,VFR,,,,,,,,,,,,SPECI,797.0
KPCW 120515Z AUTO 13003KT 10SM OVC110 M04/M08 A3039 RMK AO2,KPCW,2019-01-12T05:15:00Z,41.52,-82.87,-4.0,-8.0,130,3,,10.0,30.389763,,,TRUE,TRUE,,,,,,,OVC,11000,,,,,,,VFR,,,,,,,,,,,,SPECI,178.0
KPCD 120515Z AUTO 10SM OVC008 M01/M01 A3020 RMK AO2 T10071015,KPCD,2019-01-12T05:15:00Z,37.87,-89.87,-0.7,-1.5,,,,10.0,30.200787,,,TRUE,TRUE,,,,,,,OVC,800,,,,,,,IFR,,,,,,,,,,,,SPECI,113.0
KP08 120515Z AUTO 12009KT 10SM CLR 09/07 A3011 RMK AO2,KP08,2019-01-12T05:15:00Z,32.93,-111.43,9.0,7.0,120,9,,10.0,30.109253,,,TRUE,TRUE,,,,,,,CLR,,,,,,,,VFR,,,,,,,,,,,,SPECI,481.0
KOWX 120515Z AUTO 09003KT 10SM CLR M04/M07 A3038 RMK AO1,KOWX,2019-01-12T05:15:00Z,41.03,-83.98,-4.0,-7.0,90,3,,10.0,30.380905,,,TRUE,TRUE,,,,,,,CLR,,,,,,,,VFR,,,,,,,,,,,,SPECI,233.0
KOWI 120515Z AUTO 08005KT 2SM -SN OVC003 01/00 A3001 RMK AO2,KOWI,2019-01-12T05:15:00Z,38.53,-95.25,1.0,0.0,80,5,,2.0,30.008858,,,TRUE,TRUE,,,,,,-SN,OVC,300,,,,,,,LIFR,,,,,,,,,,,,SPECI,292.0
KOLE 120515Z AUTO 00000KT 10SM BKN060 OVC070 M11/M13 A3032 RMK AO2,KOLE,2019-01-12T05:15:00Z,42.23,-78.37,-11.0,-13.0,0,0,,10.0,30.318897,,,TRUE,TRUE,,,,,,,BKN,6000,OVC,7000,,,,,VFR,,,,,,,,,,,,SPECI,651.0
KOKM 120515Z AUTO 13009G14KT 10SM -RA OVC006 04/04 A2992 RMK AO2 P0001 T00420042,KOKM,2019-01-12T05:15:00Z,35.67,-95.95,4.2,4.2,130,9,14,10.0,29.920275,,,TRUE,TRUE,,,,,,-RA,OVC,600,,,,,,,IFR,,,,,,0.01,,,,,,SPECI,220.0
KO69 120515Z AUTO 14006KT 7SM FEW025 SCT055 OVC075 11/11 A2989 RMK A01,KO69,2019-01-12T05:15:00Z,38.25,-122.6,11.0,11.0,140,6,,7.0,29.890747,,,TRUE,TRUE,,,,,,,FEW,2500,SCT,5500,OVC,7500,,,VFR,,,,,,,,,,,,SPECI,28.0
KN38 120515Z AUTO 28003KT 10SM FEW095 M11/M15 A3034 RMK AO2,KN38,2019-01-12T05:15:00Z,41.73,-77.4,-11.0,-15.0,280,3,,10.0,30.339567,,,TRUE,TRUE,,,,,,,FEW,9500,,,,,,,VFR,,,,,,,,,,,,SPECI,577.0
KN03 120515Z AUTO 00000KT 7SM -SN CLR M18/M19 A3040 RMK AO2,KN03,2019-01-12T05:15:00Z,42.6,-76.22,-18.0,-19.0,0,0,,7.0,30.398623,,,TRUE,TRUE,,,,,,-SN,CLR,,,,,,,,VFR,,,,,,,,,,,,SPECI,366.0
KMZG 120515Z AUTO 25014G22KT 10SM BKN037 OVC095 21/19 A2994 RMK A01,KMZG,2019-01-12T05:15:00Z,27.73,-96.18,21.0,19.0,250,14,22,10.0,29.940945,,,TRUE,TRUE,,,,,,,BKN,3700,OVC,9500,,,,,VFR,,,,,,,,,,,,SPECI,29.0
KMVH 120515Z AUTO 25008KT 10SM CLR M03/M09 A3015 RMK AO2,KMVH,2019-01-12T05:15:00Z,46.83,-108.93,-3.0,-9.0,250,8,,10.0,30.15059,,,TRUE,TRUE,,,,,,,CLR,,,,,,,,VFR,,,,,,,,,,,,SPECI,1355.0
KMRC 120515Z AUTO 13012G18KT 10SM FEW038 SCT047 OVC075 04/M04 A3017 RMK A01,KMRC,2019-01-12T05:15:00Z,35.55,-87.18,4.0,-4.0,130,12,18,10.0,30.171259,,,TRUE,TRUE,,,,,,,FEW,3800,SCT,4700,OVC,7500,,,VFR,,,,,,,,,,,,SPECI,208.0
KMOR 120515Z AUTO 00000KT 10SM SCT060 OVC075 04/M05 A3027 RMK A01,KMOR,2019-01-12T05:15:00Z,36.18,-83.37,4.0,-5.0,0,0,,10.0,30.268702,,,TRUE,TRUE,,,,,,,SCT,6000,OVC,7500,,,,,VFR,,,,,,,,,,,,SPECI,400.0
KMNZ 120515Z AUTO 21011KT 10SM SCT005 SCT110 12/12 A2992 RMK AO2 T01210121,KMNZ,2019-01-12T05:15:00Z,31.67,-98.15,12.1,12.1,210,11,,10.0,29.920275,,,TRUE,TRUE,,,,,,,SCT,500,SCT,11000,,,,,VFR,,,,,,,,,,,,SPECI,396.0
KMNV 120515Z AUTO 11003KT 10SM BKN075 OVC095 05/M02 A3028 RMK A01,KMNV,2019-01-12T05:15:00Z,35.55,-84.38,5.0,-2.0,110,3,,10.0,30.280512,,,TRUE,TRUE,,,,,,,BKN,7500,OVC,9500,,,,,VFR,,,,,,,,,,,,SPECI,314.0
KMMI 120515Z AUTO 05004KT 10SM BKN075 OVC095 05/M04 A3030 RMK A01,KMMI,2019-01-12T05:15:00Z,35.4,-84.57,5.0,-4.0,50,4,,10.0,30.301182,,,TRUE,TRUE,,,,,,,BKN,7500,OVC,9500,,,,,VFR,,,,,,,,,,,,SPECI,266.0
KMJQ 120515Z AUTO 35004KT 7SM CLR M03/M05 A3019 RMK AO2,KMJQ,2019-01-12T05:15:00Z,43.63,-94.97,-3.0,-5.0,350,4,,7.0,30.188976,,,TRUE,TRUE,,,,,,,CLR,,,,,,,,VFR,,,,,,,,,,,,SPECI,441.0
KMIS 120515Z AUTO VRB05KT 10SM BKN035 OVC044 19/13 A3013 RMK A01,KMIS,2019-01-12T05:15:00Z,29.3,-88.85,19.0,13.0,0,5,,10.0,30.129921,,,TRUE,TRUE,,,,,,,BKN,3500,OVC,4400,,,,,VFR,,,,,,,,,,,,SPECI,32.0
KMEV 120515Z AUTO 00000KT 10SM CLR M02/M03 A3004 RMK AO2,KMEV,2019-01-12T05:15:00Z,38.98,-119.75,-2.0,-3.0,0,0,,10.0,30.041338,,,TRUE,TRUE,,,,,,,CLR,,,,,,,,VFR,,,,,,,,,,,,SPECI,1439.0
KMCC 120515Z AUTO 31005KT 7SM CLR 09/09 A2993 RMK AO2,KMCC,2019-01-12T05:15:00Z,38.67,-121.4,9.0,9.0,310,5,,7.0,29.929134,,,TRUE,TRUE,,,,,,,CLR,,,,,,,,VFR,,,,,,,,,,,,SPECI,23.0
KMBT 120515Z AUTO 13006KT 10SM FEW045 SCT060 OVC070 03/M01 A3021 RMK A01,KMBT,2019-01-12T05:15:00Z,35.88,-86.38,3.0,-1.0,130,6,,10.0,30.209646,,,TRUE,TRUE,,,,,,,FEW,4500,SCT,6000,OVC,7000,,,VFR,,,,,,,,,,,,SPECI,188.0
KM91 120515Z AUTO 00000KT 8SM SCT038 BKN046 OVC060 01/M01 A3021 RMK A01,KM91,2019-01-12T05:15:00Z,36.53,-86.92,1.0,-1.0,0,0,,8.0,30.209646,,,TRUE,TRUE,,,,,,,SCT,3800,BKN,4600,OVC,6000,,,VFR,,,,,,,,,,,,SPECI,215.0
KM75 120515Z AUTO 06008KT 10SM CLR M07/M09 A3018 RMK A01,KM75,2019-01-12T05:15:00Z,48.37,-107.92,-7.0,-9.0,60,8,,10.0,30.180119,,,TRUE,TRUE,,,,,,,CLR,,,,,,,,VFR,,,,,,,,,,,,SPECI,687.0
KM54 120515Z AUTO 00000KT 10SM SCT050 OVC060 02/M01 A3023 RMK A01,KM54,2019-01-12T05:15:00Z,36.18,-86.32,2.0,-1.0,0,0,,10.0,30.230314,,,TRUE,TRUE,,,,,,,SCT,5000,OVC,6000,,,,,VFR,,,,,,,,,,,,SPECI,180.0
KM08 120515Z AUTO 00000KT 10SM OVC075 04/00 A3014 RMK A01,KM08,2019-01-12T05:15:00Z,35.22,-89.05,4.0,0.0,0,0,,10.0,30.138779,,,TRUE,TRUE,,,,,,,OVC,7500,,,,,,,VFR,,,,,,,,,,,,SPECI,152.0
KM04 120515Z AUTO 13010KT 10SM OVC070 04/01 A3013 RMK A01,KM04,2019-01-12T05:15:00Z,35.58,-89.58,4.0,1.0,130,10,,10.0,30.129921,,,TRUE,TRUE,,,,,,,OVC,7000,,,,,,,VFR,,,,,,,,,,,,SPECI,85.0
KM02 120515Z AUTO 00000KT 10SM BKN060 OVC075 01/M01 A3019 RMK A01,KM02,2019-01-12T05:15:00Z,36.13,-87.43,1.0,-1.0,0,0,,10.0,30.188976,,,TRUE,TRUE,,,,,,,BKN,6000,OVC,7500,,,,,VFR,,,,,,,,,,,,SPECI,272.0
KLZZ 120515Z AUTO 22005KT 10SM OVC004 13/12 A2994 RMK AO2 T01250122,KLZZ,2019-01-12T05:15:00Z,31.1,-98.2,12.5,12.2,220,5,,10.0,29.940945,,,TRUE,TRUE,,,,,,,OVC,400,,,,,,,LIFR,,,,,,,,,,,,SPECI,371.0
KLYO 120515Z AUTO 03008KT 2SM -SN BR OVC003 00/00 A2998 RMK AO2 T10011005,KLYO,2019-01-12T05:15:00Z,38.35,-98.23,-0.1,-0.5,30,8,,2.0,29.97933,,,TRUE,TRUE,,,,,,-SN BR,OVC,300,,,,,,,LIFR,,,,,,,,,,,,SPECI,515.0
KGZS 120515Z AUTO 14004KT 10SM OVC080 05/M01 A3021 RMK A01,KGZS,2019-01-12T05:15:00Z,35.15,-87.05,5.0,-1.0,140,4,,10.0,30.209646,,,TRUE,TRUE,,,,,,,OVC,8000,,,,,,,VFR,,,,,,,,,,,,SPECI,209.0
KGUL 120515Z AUTO 19019KT 10SM FEW031 21/14 A3003 RMK A01,KGUL,2019-01-12T05:15:00Z,27.3,-93.53,21.0,14.0,190,19,,10.0,30.029528,,,TRUE,TRUE,,,,,,,FEW,3100,,,,,,,VFR,,,,,,,,,,,,SPECI,30.0
KGKT 120515Z AUTO 00000KT 10SM OVC090 04/M03 A3029 RMK A01,KGKT,2019-01-12T05:15:00Z,35.85,-83.53,4.0,-3.0,0,0,,10.0,30.28937,,,TRUE,TRUE,,,,,,,OVC,9000,,,,,,,VFR,,,,,,,,,,,,SPECI,309.0
KGIC 120515Z AUTO 12004KT 7SM CLR 00/M01 A3012 RMK AO1,KGIC,2019-01-12T05:15:00Z,45.95,-116.12,0.0,-1.0,120,4,,7.0,30.121063,,,TRUE,TRUE,,,,,,,CLR,,,,,,,,VFR,,,,,,,,,,,,SPECI,1009.0
KGDJ 120515Z AUTO 21007KT 10SM OVC009 14/12 A2995 RMK AO2 T01360121,KGDJ,2019-01-12T05:15:00Z,32.45,-97.82,13.6,12.1,210,7,,10.0,29.949802,,,TRUE,TRUE,,,,,,,OVC,900,,,,,,,IFR,,,,,,,,,,,,SPECI,237.0
KGCY 120515Z AUTO 00000KT 10SM OVC075 03/M06 A3026 RMK A01,KGCY,2019-01-12T05:15:00Z,36.2,-82.82,3.0,-6.0,0,0,,10.0,30.259842,,,TRUE,TRUE,,,,,,,OVC,7500,,,,,,,VFR,,,,,,,,,,,,SPECI,490.0
KGCM 120515Z AUTO 11005KT 5SM RA OVC006 02/02 A2997 RMK AO2 P0002 TSNO,KGCM,2019-01-12T05:15:00Z,36.3,-95.48,2.0,2.0,110,5,,5.0,29.970472,,,TRUE,TRUE,,,TRUE,,,RA,OVC,600,,,,,,,IFR,,,,,,0.02,,,,,,SPECI,221.0
KGCD 120515Z AUTO 11005KT 10SM CLR 03/M03 A3009 RMK AO2 T00251028,KGCD,2019-01-12T05:15:00Z,44.38,-118.97,2.5,-2.8,110,5,,10.0,30.088583,,,TRUE,TRUE,,,,,,,CLR,,,,,,,,VFR,,,,,,,,,,,,SPECI,1127.0
KGBK 120515Z AUTO 14009G16KT 10SM OVC039 21/14 A3006 RMK A01,KGBK,2019-01-12T05:15:00Z,27.2,-92.2,21.0,14.0,140,9,16,10.0,30.059055,,,TRUE,TRUE,,,,,,,OVC,3900,,,,,,,VFR,,,,,,,,,,,,SPECI,59.0
KFYE 120515Z AUTO VRB04KT 10SM OVC070 04/00 A3012 RMK A01,KFYE,2019-01-12T05:15:00Z,35.2,-89.38,4.0,0.0,0,4,,10.0,30.121063,,,TRUE,TRUE,,,,,,,OVC,7000,,,,,,,VFR,,,,,,,,,,,,SPECI,133.0
KFXY 120515Z AUTO 09003KT 10SM OVC041 00/M02 A3019 RMK AO2,KFXY,2019-01-12T05:15:00Z,43.23,-93.62,0.0,-2.0,90,3,,10.0,30.188976,,,TRUE,TRUE,,,,,,,OVC,4100,,,,,,,VFR,,,,,,,,,,,,SPECI,375.0
KFWB 120515Z AUTO 12010G18KT 7SM SCT006 OVC037 00/00 A3004 RMK AO2,KFWB,2019-01-12T05:15:00Z,36.7,-93.4,0.0,0.0,120,10,18,7.0,30.041338,,,TRUE,TRUE,,,,,,,SCT,600,OVC,3700,,,,,VFR,,,,,,,,,,,,SPECI,406.0
KFTN 120515Z AUTO 16003KT 1/4SM FG VV002 14/14 A2997 RMK A01,KFTN,2019-01-12T05:15:00Z,28.22,-100.02,14.0,14.0,160,3,,0.25,29.970472,,,TRUE,TRUE,,,,,,FG,OVX,0,,,,,,,LIFR,,,,,,,,,,,200,SPECI,236.0
KFOT 120515Z AUTO 15013G18KT 10SM SCT044 OVC055 14/14 A2983 RMK AO1,KFOT,2019-01-12T05:15:00Z,40.55,-124.13,14.0,14.0,150,13,18,10.0,29.828741,,,TRUE,TRUE,,,,,,,SCT,4400,OVC,5500,,,,,VFR,,,,,,,,,,,,SPECI,120.0
KFHB 120515Z AUTO 07013KT 10SM CLR 13/08 A3026 RMK AO2 T01330080,KFHB,2019-01-12T05:15:00Z,30.62,-81.47,13.3,8.0,70,13,,10.0,30.259842,,,TRUE,TRUE,,,,,,,CLR,,,,,,,,VFR,,,,,,,,,,,,SPECI,5.0
KFET 120515Z AUTO 00000KT 10SM -SN BKN018 OVC023 02/M01 A3014 RMK AO2 T00201013,KFET,2019-01-12T05:15:00Z,41.45,-96.52,2.0,-1.3,0,0,,10.0,30.138779,,,TRUE,TRUE,,,,,,-SN,BKN,1800,OVC,2300,,,,,MVFR,,,,,,,,,,,,SPECI,367.0
KFEP 120515Z AUTO 13005KT 10SM OVC075 M02/M04 A3030 RMK AO2 T10231045,KFEP,2019-01-12T05:15:00Z,42.25,-89.58,-2.3,-4.5,130,5,,10.0,30.301182,,,TRUE,TRUE,,,,,,,OVC,7500,,,,,,,VFR,,,,,,,,,,,,SPECI,262.0
KFCH 120515Z AUTO 00000KT 10SM CLR 12/09 A2988 RMK A01,KFCH,2019-01-12T05:15:00Z,36.72,-119.82,12.0,9.0,0,0,,10.0,29.878937,,,TRUE,TRUE,,,,,,,CLR,,,,,,,,VFR,,,,,,,,,,,,SPECI,85.0
KF44 120515Z AUTO 13004KT 7SM -RA SCT003 SCT015 OVC085 09/09 A2995 RMK AO2 P0002,KF44,2019-01-12T05:15:00Z,32.17,-95.83,9.0,9.0,130,4,,7.0,29.949802,,,TRUE,TRUE,,,,,,-RA,SCT,300,SCT,1500,OVC,8500,,,VFR,,,,,,0.02,,,,,,SPECI,135.0
KF00 120515Z AUTO 12009G19KT 7SM -RA OVC005 06/ A2993 RMK AO2 P0001 T0063////,KF00,2019-01-12T05:15:00Z,33.62,-96.18,6.3,,120,9,19,7.0,29.929134,,,TRUE,TRUE,,,,,,-RA,OVC,500,,,,,,,IFR,,,,,,0.01,,,,,,SPECI,188.0
KEVU 120515Z AUTO 09007KT 1 1/4SM SN OVC005 00/00 A3008 RMK AO2,KEVU,2019-01-12T05:15:00Z,40.35,-94.92,0.0,0.0,90,7,,1.25,30.079725,,,TRUE,TRUE,,,,,,SN,OVC,500,,,,,,,IFR,,,,,,,,,,,,SPECI,349.0
KETN 120515Z AUTO 22009KT 10SM CLR 11/09 A2991 RMK AO2 T01140091,KETN,2019-01-12T05:15:00Z,32.42,-98.82,11.4,9.1,220,9,,10.0,29.911417,,,TRUE,TRUE,,,,,,,CLR,,,,,,,,VFR,,,,,,,,,,,,SPECI,446.0
KETB 120515Z AUTO 00000KT 10SM OVC050 M02/M05 A3031 RMK AO2,KETB,2019-01-12T05:15:00Z,43.42,-88.13,-2.0,-5.0,0,0,,10.0,30.31004,,,TRUE,TRUE,,,,,,,OVC,5000,,,,,,,VFR,,,,,,,,,,,,SPECI,270.0
KEKS 120515Z AUTO 17005KT 10SM CLR M06/M09 A3026 RMK AO2,KEKS,2019-01-12T05:15:00Z,45.27,-111.65,-6.0,-9.0,170,5,,10.0,30.259842,,,TRUE,TRUE,,,,,,,CLR,,,,,,,,VFR,,,,,,,,,,,,SPECI,1641.0
KEIR 120515Z AUTO 14009G14KT 130V210 10SM CLR 19/13 A3008 RMK A01,KEIR,2019-01-12T05:15:00Z,28.63,-91.48,19.0,13.0,140,9,14,10.0,30.079725,,,TRUE,TRUE,,,,,,,CLR,,,,,,,,VFR,,,,,,,,,,,,SPECI,28.0
KEBA 120515Z AUTO 00000KT 10SM OVC110 04/M02 A3036 RMK AO2 T00411016,KEBA,2019-01-12T05:15:00Z,34.1,-82.82,4.1,-1.6,0,0,,10.0,30.360237,,,TRUE,TRUE,,,,,,,OVC,11000,,,,,,,VFR,,,,,,,,,,,,SPECI,184.0
KDZJ 120515Z AUTO 12005KT 10SM OVC090 05/M06 A3029 RMK AO2 T00491057,KDZJ,2019-01-12T05:15:00Z,34.85,-84.0,4.9,-5.7,120,5,,10.0,30.28937,,,TRUE,TRUE,,,,,,,OVC,9000,,,,,,,VFR,,,,,,,,,,,,SPECI,582.0
KOLG 120515Z AUTO 05005KT 10SM OVC039 M04/M07 A3030 RMK AO1,KOLG,2019-01-12T05:15:00Z,46.3,-91.82,-4.0,-7.0,50,5,,10.0,30.301182,,,TRUE,TRUE,,,,,,,OVC,3900,,,,,,,VFR,,,,,,,,,,,,SPECI,336.0
KOJA 120515Z AUTO 34006KT 4SM DZ OVC002 06/06 A2981 RMK AO2 P0001,KOJA,2019-01-12T05:15:00Z,35.55,-98.67,6.0,6.0,340,6,,4.0,29.811024,,,TRUE,TRUE,,,,,,DZ,OVC,200,,,,,,,LIFR,,,,,,0.01,,,,,,METAR,490.0
KOEO 120515Z AUTO 00000KT 10SM CLR M06/M08 A3030 RMK AO2 T10641079,KOEO,2019-01-12T05:15:00Z,45.32,-92.7,-6.4,-7.9,0,0,,10.0,30.301182,,,TRUE,TRUE,,,,,,,CLR,,,,,,,,VFR,,,,,,,,,,,,SPECI,275.0
KOBE 120515Z AUTO 00000KT 10SM CLR 12/11 A3017 RMK AO2,KOBE,2019-01-12T05:15:00Z,27.27,-80.85,12.0,11.0,0,0,,10.0,30.171259,,,TRUE,TRUE,,,,,,,CLR,,,,,,,,VFR,,,,,,,,,,,,METAR,11.0
KMVE 120515Z AUTO 01003KT 10SM SCT019 M09/M12 A3025 RMK AO2,KMVE,2019-01-12T05:15:00Z,44.97,-95.72,-9.0,-12.0,10,3,,10.0,30.250984,,,TRUE,TRUE,,,,,,,SCT,1900,,,,,,,VFR,,,,,,,,,,,,SPECI,315.0
KMQB 120515Z AUTO 09008KT 1 1/4SM -SN SCT005 OVC012 M02/M03 A3025 RMK AO2 P0001 T10251027,KMQB,2019-01-12T05:15:00Z,40.52,-90.65,-2.5,-2.7,90,8,,1.25,30.250984,,,TRUE,TRUE,,,,,,-SN,SCT,500,OVC,1200,,,,,IFR,,,,,,0.01,,,,,,SPECI,215.0
KMOP 120515Z AUTO 00000KT 10SM OVC030 M04/M11 A3039 RMK AO2 T10371112,KMOP,2019-01-12T05:15:00Z,43.62,-84.73,-3.7,-11.2,0,0,,10.0,30.389763,,,TRUE,TRUE,,,,,,,OVC,3000,,,,,,,MVFR,,,,,,,,,,,,SPECI,230.0
KMNE 120515Z AUTO 13007KT 10SM BKN090 BKN120 11/02 A3001 RMK AO2 T01120020,KMNE,2019-01-12T05:15:00Z,32.65,-93.3,11.2,2.0,130,7,,10.0,30.008858,,,TRUE,TRUE,,,,,,,BKN,9000,BKN,12000,,,,,VFR,,,,,,,,,,,,METAR,85.0
KMMH 120515Z AUTO 00000KT 10SM CLR M06/M07 A3006 RMK AO2 T10561070,KMMH,2019-01-12T05:15:00Z,37.62,-118.82,-5.6,-7.0,0,0,,10.0,30.059055,,,TRUE,TRUE,,,,,,,CLR,,,,,,,,VFR,,,,,,,,,,,,SPECI,2173.0
KMLJ 120515Z AUTO 12005KT 10SM OVC042 06/M02 A3033 RMK AO2,KMLJ,2019-01-12T05:15:00Z,33.15,-83.23,6.0,-2.0,120,5,,10.0,30.33071,,,TRUE,TRUE,,,,,,,OVC,4200,,,,,,,VFR,,,,,,,,,,,,METAR,117.0
KMKS 120515Z AUTO 00000KT 10SM CLR M01/M02 A3038 RMK AO2,KMKS,2019-01-12T05:15:00Z,33.18,-80.03,-1.0,-2.0,0,0,,10.0,30.380905,,,TRUE,TRUE,,,,,,,CLR,,,,,,,,VFR,,,,,,,,,,,,METAR,23.0
KMKN 120515Z AUTO 22007KT 10SM SCT008 BKN022 OVC032 13/13 A2994 RMK AO2 P0001 T01300130,KMKN,2019-01-12T05:15:00Z,31.92,-98.6,13.0,13.0,220,7,,10.0,29.940945,,,TRUE,TRUE,,,,,,,SCT,800,BKN,2200,OVC,3200,,,MVFR,,,,,,0.01,,,,,,SPECI,423.0
KMGC 120515Z AUTO 11003KT 10SM OVC075 M02/M06 A3034 RMK AO2,KMGC,2019-01-12T05:15:00Z,41.7,-86.82,-2.0,-6.0,110,3,,10.0,30.339567,,,TRUE,TRUE,,,,,,,OVC,7500,,,,,,,VFR,,,,,,,,,,,,SPECI,200.0
KMDZ 120515Z AUTO 09004KT 10SM CLR M07/M09 A3026 RMK AO2 T10711093 TSNO,KMDZ,2019-01-12T05:15:00Z,45.1,-90.3,-7.1,-9.3,90,4,,10.0,30.259842,,,TRUE,TRUE,,,TRUE,,,,CLR,,,,,,,,VFR,,,,,,,,,,,,SPECI,448.0
KMCX 120515Z AUTO 00000KT 10SM OVC080 M02/M05 A3031 RMK AO2 T10161055,KMCX,2019-01-12T05:15:00Z,40.72,-86.77,-1.6,-5.5,0,0,,10.0,30.31004,,,TRUE,TRUE,,,,,,,OVC,8000,,,,,,,VFR,,,,,,,,,,,,SPECI,206.0
KM21 120515Z AUTO 10005KT 7SM -RA SCT007 BKN046 OVC075 00/00 A3026 RMK AO2 T10051005,KM21,2019-01-12T05:15:00Z,37.22,-87.15,-0.5,-0.5,100,5,,7.0,30.259842,,,TRUE,TRUE,,,,,,-RA,SCT,700,BKN,4600,OVC,7500,,,VFR,,,,,,,,,,,,METAR,129.0
KLXY 120515Z AUTO 13007KT 5SM RA BKN002 BKN010 OVC024 12/11 A2994 RMK AO2 P0001 T01150112,KLXY,2019-01-12T05:15:00Z,31.63,-96.52,11.5,11.2,130,7,,5.0,29.940945,,,TRUE,TRUE,,,,,,RA,BKN,200,BKN,1000,OVC,2400,,,LIFR,,,,,,0.01,,,,,,SPECI,166.0
KLUD 120515Z AUTO 18008KT 7SM BKN003 OVC007 12/11 A2989 RMK AO2 T01150110,KLUD,2019-01-12T05:15:00Z,33.25,-97.58,11.5,11.0,180,8,,7.0,29.890747,,,TRUE,TRUE,,,,,,,BKN,300,OVC,700,,,,,LIFR,,,,,,,,,,,,SPECI,319.0
KLNP 120515Z AUTO 20005KT 10SM SCT070 OVC090 01/M05 A3024 RMK AO2,KLNP,2019-01-12T05:15:00Z,36.97,-82.52,1.0,-5.0,200,5,,10.0,30.239174,,,TRUE,TRUE,,,,,,,SCT,7000,OVC,9000,,,,,VFR,,,,,,,,,,,,METAR,817.0
KLNC 120515Z AUTO 16006KT 5SM -RA OVC004 11/10 A2994 RMK AO2 P0001 T01080103,KLNC,2019-01-12T05:15:00Z,32.58,-96.72,10.8,10.3,160,6,,5.0,29.940945,,,TRUE,TRUE,,,,,,-RA,OVC,400,,,,,,,LIFR,,,,,,0.01,,,,,,SPECI,153.0
KLNA 120515Z AUTO 08007KT 10SM SCT042 OVC065 21/13 A3017 RMK AO2 T02060128,KLNA,2019-01-12T05:15:00Z,26.6,-80.02,20.6,12.8,80,7,,10.0,30.171259,,,TRUE,TRUE,,,,,,,SCT,4200,OVC,6500,,,,,VFR,,,,,,,,,,,,METAR,11.0
KLHM 120515Z AUTO 05004KT 1/4SM VV002 06/06 A2990 RMK AO1,KLHM,2019-01-12T05:15:00Z,38.92,-121.35,6.0,6.0,50,4,,0.25,29.899607,,,TRUE,TRUE,,,,,,,OVX,0,,,,,,,LIFR,,,,,,,,,,,200,SPECI,37.0
KLDM 120515Z AUTO 11004KT 10SM OVC021 M02/M08 A3036 RMK AO2 T10251079,KLDM,2019-01-12T05:15:00Z,43.97,-86.4,-2.5,-7.9,110,4,,10.0,30.360237,,,TRUE,TRUE,,,,,,,OVC,2100,,,,,,,MVFR,,,,,,,,,,,,SPECI,197.0
KL18 120515Z AUTO 07004KT 2SM BR OVC003 11/10 A3001 RMK AO2,KL18,2019-01-12T05:15:00Z,33.35,-117.25,11.0,10.0,70,4,,2.0,30.008858,,,TRUE,TRUE,,,,,,BR,OVC,300,,,,,,,LIFR,,,,,,,,,,,,SPECI,216.0
KSNL 120515Z AUTO 16015KT 10SM OVC006 04/04 A2985 RMK AO2 T00420036,KSNL,2019-01-12T05:15:00Z,35.35,-96.95,4.2,3.6,160,15,,10.0,29.84941,,,TRUE,TRUE,,,,,,,OVC,600,,,,,,,IFR,,,,,,,,,,,,SPECI,327.0
KSJS 120515Z AUTO 04003KT 10SM OVC095 M01/M07 A3029 RMK AO2 T10061070,KSJS,2019-01-12T05:15:00Z,37.75,-82.63,-0.6,-7.0,40,3,,10.0,30.28937,,,TRUE,TRUE,,,,,,,OVC,9500,,,,,,,VFR,,,,,,,,,,,,SPECI,372.0
KSEE 120515Z AUTO 4SM BR OVC009 13/11 A3000 RMK AO2,KSEE,2019-01-12T05:15:00Z,32.82,-116.97,13.0,11.0,,,,4.0,30.0,,,TRUE,TRUE,,,,,,BR,OVC,900,,,,,,,IFR,,,,,,,,,,,,METAR,117.0
KSBS 120515Z AUTO 00000KT 10SM OVC009 M04/M04 A3017 RMK AO1 T10441044,KSBS,2019-01-12T05:15:00Z,40.52,-106.87,-4.4,-4.4,0,0,,10.0,30.171259,,,TRUE,TRUE,,,,,,,OVC,900,,,,,,,IFR,,,,,,,,,,,,METAR,2096.0
KSOA 120515Z AUTO 21006KT 10SM BKN008 OVC011 13/12 A3003 RMK AO2,KSOA,2019-01-12T05:15:00Z,30.58,-100.65,13.0,12.0,210,6,,10.0,30.029528,,,TRUE,TRUE,,,,,,,BKN,800,OVC,1100,,,,,IFR,,,,,,,,,,,,SPECI,652.0
KPNT 120515Z AUTO 11006KT 10SM OVC095 M01/M03 A3030 RMK AO2 T10121026,KPNT,2019-01-12T05:15:00Z,40.92,-88.62,-1.2,-2.6,110,6,,10.0,30.301182,,,TRUE,TRUE,,,,,,,OVC,9500,,,,,,,VFR,,,,,,,,,,,,METAR,201.0
KPNA 120515Z AUTO 30006KT 5SM BR BKN002 M20/M22 A3027 RMK AO2 TSNO,KPNA,2019-01-12T05:15:00Z,42.8,-109.8,-20.0,-22.0,300,6,,5.0,30.268702,,,TRUE,TRUE,,,TRUE,,,BR,BKN,200,,,,,,,LIFR,,,,,,,,,,,,METAR,2160.0
KOZA 120515Z AUTO 22006KT 10SM OVC007 11/11 A3002 RMK AO2,KOZA,2019-01-12T05:15:00Z,30.73,-101.2,11.0,11.0,220,6,,10.0,30.02067,,,TRUE,TRUE,,,,,,,OVC,700,,,,,,,IFR,,,,,,,,,,,,METAR,726.0
KPPO 120515Z AUTO 11005KT 10SM OVC075 M03/M05 A3034 RMK AO2 T10281052,KPPO,2019-01-12T05:15:00Z,41.57,-86.73,-2.8,-5.2,110,5,,10.0,30.339567,,,TRUE,TRUE,,,,,,,OVC,7500,,,,,,,VFR,,,,,,,,,,,,SPECI,248.0
KPVW 120515Z AUTO 32010KT 10SM SCT032 02/00 A2995 RMK AO2 T00151003,KPVW,2019-01-12T05:15:00Z,34.17,-101.72,1.5,-0.3,320,10,,10.0,29.949802,,,TRUE,TRUE,,,,,,,SCT,3200,,,,,,,VFR,,,,,,,,,,,,METAR,1028.0
KPVF 120515Z AUTO 11003KT 10SM CLR 12/M05 A2992 RMK AO1,KPVF,2019-01-12T05:15:00Z,38.72,-120.75,12.0,-5.0,110,3,,10.0,29.920275,,,TRUE,TRUE,,,,,,,CLR,,,,,,,,VFR,,,,,,,,,,,,METAR,789.0
KPRG 120515Z AUTO 13006KT 3SM -SN BKN017 BKN027 OVC036 00/M02 A3029 RMK AO2 T10011023,KPRG,2019-01-12T05:15:00Z,39.7,-87.67,-0.1,-2.3,130,6,,3.0,30.28937,,,TRUE,TRUE,,,,,,-SN,BKN,1700,BKN,2700,OVC,3600,,,MVFR,,,,,,,,,,,,METAR,199.0
KPXE 120515Z AUTO 10006KT 10SM OVC039 07/M02 A3030 RMK AO2 T00651022,KPXE,2019-01-12T05:15:00Z,32.52,-83.77,6.5,-2.2,100,6,,10.0,30.301182,,,TRUE,TRUE,,,,,,,OVC,3900,,,,,,,VFR,,,,,,,,,,,,METAR,127.0
KBQX 120515Z AUTO 15012KT 10SM BKN042 BKN049 OVC090 19/17 A2995 RMK A01,KBQX,2019-01-12T05:15:00Z,28.5,-95.72,19.0,17.0,150,12,,10.0,29.949802,,,TRUE,TRUE,,,,,,,BKN,4200,BKN,4900,OVC,9000,,,VFR,,,,,,,,,,,,SPECI,34.0
KRPH 120515Z AUTO 27015KT 10SM SCT010 SCT014 SCT019 10/10 A2990 RMK AO2 T01030103,KRPH,2019-01-12T05:15:00Z,33.12,-98.55,10.3,10.3,270,15,,10.0,29.899607,,,TRUE,TRUE,,,,,,,SCT,1000,SCT,1400,SCT,1900,,,VFR,,,,,,,,,,,,SPECI,342.0
KRNC 120515Z AUTO 01006KT 9SM FEW036 SCT049 OVC075 03/M01 A3024 RMK A01,KRNC,2019-01-12T05:15:00Z,35.7,-85.85,3.0,-1.0,10,6,,9.0,30.239174,,,TRUE,TRUE,,,,,,,FEW,3600,SCT,4900,OVC,7500,,,VFR,,,,,,,,,,,,SPECI,315.0
KRMN 120515Z AUTO 00000KT 10SM CLR M04/M07 A3050 RMK AO2 LTG DSNT SE T10381072,KRMN,2019-01-12T05:15:00Z,38.4,-77.45,-3.8,-7.2,0,0,,10.0,30.499016,,,TRUE,TRUE,,,,,,,CLR,,,,,,,,VFR,,,,,,,,,,,,SPECI,65.0
KRLD 120515Z AUTO 11004KT 1/4SM FG OVC002 01/01 A3018 RMK AO2 T00120011,KRLD,2019-01-12T05:15:00Z,46.3,-119.3,1.2,1.1,110,4,,0.25,30.180119,,,TRUE,TRUE,,,,,,FG,OVC,200,,,,,,,LIFR,,,,,,,,,,,,SPECI,120.0
KRKW 120515Z AUTO 00000KT 10SM OVC075 03/M06 A3026 RMK A01,KRKW,2019-01-12T05:15:00Z,35.92,-84.68,3.0,-6.0,0,0,,10.0,30.259842,,,TRUE,TRUE,,,,,,,OVC,7500,,,,,,,VFR,,,,,,,,,,,,SPECI,508.0
KRCV 120515Z AUTO 30005KT 10SM OVC060 M05/M07 A3009 RMK AO2 T10461069,KRCV,2019-01-12T05:15:00Z,37.72,-106.35,-4.6,-6.9,300,5,,10.0,30.088583,,,TRUE,TRUE,,,,,,,OVC,6000,,,,,,,VFR,,,,,,,,,,,,SPECI,2424.0
KRAS 120515Z AUTO 18019G24KT 3 1/2SM -RA BR SCT020 BKN027 OVC043 18/18 A2995 RMK AO2 LTG DSNT N P0013 T01820176,KRAS,2019-01-12T05:15:00Z,27.82,-97.08,18.2,17.6,180,19,24,3.5,29.949802,,,TRUE,TRUE,,,,,,-RA BR,SCT,2000,BKN,2700,OVC,4300,,,MVFR,,,,,,0.13,,,,,,SPECI,2.0
KPYX 120515Z AUTO 34015KT 2SM OVC005 01/00 A2992 RMK AO2 T00070002,KPYX,2019-01-12T05:15:00Z,36.42,-100.75,0.7,0.2,340,15,,2.0,29.920275,,,TRUE,TRUE,,,,,,,OVC,500,,,,,,,IFR,,,,,,,,,,,,SPECI,889.0
KPVE 120515Z AUTO 00000KT 10SM OVC065 02/01 A3018 RMK A01,KPVE,2019-01-12T05:15:00Z,35.65,-88.2,2.0,1.0,0,0,,10.0,30.180119,,,TRUE,TRUE,,,,,,,OVC,6500,,,,,,,VFR,,,,,,,,,,,,SPECI,149.0
KPVB 120515Z AUTO 12006KT 10SM OVC065 M02/M03 A3025 RMK AO1 T10171033,KPVB,2019-01-12T05:15:00Z,42.68,-90.43,-1.7,-3.3,120,6,,10.0,30.250984,,,TRUE,TRUE,,,,,,,OVC,6500,,,,,,,VFR,,,,,,,,,,,,SPECI,313.0
KPTD 120515Z AUTO 21005KT 10SM FEW047 BKN070 OVC090 M19/M22 A3044 RMK AO2,KPTD,2019-01-12T05:15:00Z,44.68,-74.95,-19.0,-22.0,210,5,,10.0,30.43996,,,TRUE,TRUE,,,,,,,FEW,4700,BKN,7000,OVC,9000,,,VFR,,,,,,,,,,,,SPECI,144.0
KPSN 120515Z AUTO 00000KT 2 1/2SM RA BKN003 OVC012 11/11 A3001 RMK AO2 P0008 T01150115,KPSN,2019-01-12T05:15:00Z,31.78,-95.7,11.5,11.5,0,0,,2.5,30.008858,,,TRUE,TRUE,,,,,,RA,BKN,300,OVC,1200,,,,,LIFR,,,,,,0.08,,,,,,SPECI,129.0
KPPQ 120515Z AUTO 09006KT 1 1/2SM OVC004 M02/M02 A3021 RMK AO2 P0001 T10171021,KPPQ,2019-01-12T05:15:00Z,39.63,-90.78,-1.7,-2.1,90,6,,1.5,30.209646,,,TRUE,TRUE,,,,,,,OVC,400,,,,,,,LIFR,,,,,,0.01,,,,,,SPECI,216.0
KPOY 120515Z AUTO 13010KT M1/4SM FZFG OVC001 M03/M05 A3018 RMK AO2,KPOY,2019-01-12T05:15:00Z,44.87,-108.8,-3.0,-5.0,130,10,,0.25,30.180119,,,TRUE,TRUE,,,,,,FZFG,OVC,100,,,,,,,LIFR,,,,,,,,,,,,SPECI,1552.0
KPHT 120515Z AUTO 08008KT 10SM OVC055 01/M01 A3018 RMK A01,KPHT,2019-01-12T05:15:00Z,36.33,-88.38,1.0,-1.0,80,8,,10.0,30.180119,,,TRUE,TRUE,,,,,,,OVC,5500,,,,,,,VFR,,,,,,,,,,,,SPECI,177.0
KTCY 120515Z AUTO 00000KT 6SM BR BKN100 10/10 A2991 RMK A01,KTCY,2019-01-12T05:15:00Z,37.68,-121.43,10.0,10.0,0,0,,6.0,29.911417,,,TRUE,TRUE,,,,,,BR,BKN,10000,,,,,,,VFR,,,,,,,,,,,,METAR,59.0
KDTL 120515Z AUTO 33003KT 10SM BKN024 M07/M08 A3028 RMK AO2,KDTL,2019-01-12T05:15:00Z,46.82,-95.87,-7.0,-8.0,330,3,,10.0,30.280512,,,TRUE,TRUE,,,,,,,BKN,2400,,,,,,,MVFR,,,,,,,,,,,,SPECI,426.0
KDSF 120515Z AUTO 10SM OVC032 18/11 A3011 RMK A01,KDSF,2019-01-12T05:15:00Z,28.35,-88.27,18.0,11.0,,,,10.0,30.109253,,,TRUE,TRUE,,,,,,,OVC,3200,,,,,,,VFR,,,,,,,,,,,,METAR,130.0
KDNV 120515Z AUTO 11004KT 10SM SCT034 SCT048 OVC070 M01/M05 A3027 RMK AO2 T10101047,KDNV,2019-01-12T05:15:00Z,40.2,-87.6,-1.0,-4.7,110,4,,10.0,30.268702,,,TRUE,TRUE,,,,,,,SCT,3400,SCT,4800,OVC,7000,,,VFR,,,,,,,,,,,,SPECI,212.0
KDNN 120515Z AUTO 00000KT 10SM OVC100 06/M01 A3031 RMK AO2,KDNN,2019-01-12T05:15:00Z,34.72,-84.87,6.0,-1.0,0,0,,10.0,30.31004,,,TRUE,TRUE,,,,,,,OVC,10000,,,,,,,VFR,,,,,,,,,,,,SPECI,216.0
KDKX 120515Z AUTO 00000KT 10SM FEW075 OVC095 05/M02 A3030 RMK A01,KDKX,2019-01-12T05:15:00Z,35.97,-83.87,5.0,-2.0,0,0,,10.0,30.301182,,,TRUE,TRUE,,,,,,,FEW,7500,OVC,9500,,,,,VFR,,,,,,,,,,,,SPECI,254.0
KD25 120515Z AUTO 08003KT 10SM OVC044 M05/M08 A3027 RMK AO2 T10511083,KD25,2019-01-12T05:15:00Z,46.12,-89.88,-5.1,-8.3,80,3,,10.0,30.268702,,,TRUE,TRUE,,,,,,,OVC,4400,,,,,,,VFR,,,,,,,,,,,,SPECI,491.0
KCXW 120515Z AUTO 07004KT 10SM OVC050 04/01 A3009 RMK A01,KCXW,2019-01-12T05:15:00Z,35.02,-92.55,4.0,1.0,70,4,,10.0,30.088583,,,TRUE,TRUE,,,,,,,OVC,5000,,,,,,,VFR,,,,,,,,,,,,SPECI,84.0
KCVW 120515Z AUTO 12016KT 10SM OVC012 15/14 A3002 RMK A01,KCVW,2019-01-12T05:15:00Z,29.78,-93.3,15.0,14.0,120,16,,10.0,30.02067,,,TRUE,TRUE,,,,,,,OVC,1200,,,,,,,MVFR,,,,,,,,,,,,SPECI,1.0
KCVB 120515Z AUTO 00000KT 1/2SM FG OVC003 15/15 A2999 RMK AO2 T01450145,KCVB,2019-01-12T05:15:00Z,29.35,-98.85,14.5,14.5,0,0,,0.5,29.991142,,,TRUE,TRUE,,,,,,FG,OVC,300,,,,,,,LIFR,,,,,,,,,,,,SPECI,235.0
KCRX 120515Z AUTO 11005KT 10SM FEW070 OVC095 06/M00 A3017 RMK AO2,KCRX,2019-01-12T05:15:00Z,34.92,-88.6,6.0,0.0,110,5,,10.0,30.171259,,,TRUE,TRUE,,,,,,,FEW,7000,OVC,9500,,,,,VFR,,,,,,,,,,,,SPECI,130.0
KCQM 120515Z AUTO 06005KT 10SM OVC007 M06/M07 A3033 RMK AO2,KCQM,2019-01-12T05:15:00Z,47.82,-92.68,-6.0,-7.0,60,5,,10.0,30.33071,,,TRUE,TRUE,,,,,,,OVC,700,,,,,,,IFR,,,,,,,,,,,,SPECI,404.0
KCQF 120515Z AUTO 06003KT 10SM OVC031 10/07 A3016 RMK AO2,KCQF,2019-01-12T05:15:00Z,30.47,-87.88,10.0,7.0,60,3,,10.0,30.159449,,,TRUE,TRUE,,,,,,,OVC,3100,,,,,,,VFR,,,,,,,,,,,,SPECI,28.0
KCPK 120515Z AUTO 00000KT 10SM CLR M05/M06 A3045 RMK AO2 T10501062,KCPK,2019-01-12T05:15:00Z,36.67,-76.32,-5.0,-6.2,0,0,,10.0,30.448818,,,TRUE,TRUE,,,,,,,CLR,,,,,,,,VFR,,,,,,,,,,,,SPECI,6.0
KCNI 120515Z AUTO 10006KT 10SM OVC090 07/M07 A3030 RMK AO2,KCNI,2019-01-12T05:15:00Z,34.32,-84.42,7.0,-7.0,100,6,,10.0,30.301182,,,TRUE,TRUE,,,,,,,OVC,9000,,,,,,,VFR,,,,,,,,,,,,SPECI,372.0
KCNB 120515Z AUTO 27006KT 10SM CLR M06/M08 A3026 RMK AO2 T10651077,KCNB,2019-01-12T05:15:00Z,44.73,-96.27,-6.5,-7.7,270,6,,10.0,30.259842,,,TRUE,TRUE,,,,,,,CLR,,,,,,,,VFR,,,,,,,,,,,,SPECI,364.0
KCMY 120515Z AUTO 00000KT 10SM OVC049 M02/M06 A3029 RMK AO2 T10181057,KCMY,2019-01-12T05:15:00Z,43.97,-90.73,-1.8,-5.7,0,0,,10.0,30.28937,,,TRUE,TRUE,,,,,,,OVC,4900,,,,,,,VFR,,,,,,,,,,,,SPECI,256.0
KCKZ 120515Z AUTO 00000KT 10SM CLR M07/M15 A3043 RMK AO2,KCKZ,2019-01-12T05:15:00Z,40.38,-75.28,-7.0,-15.0,0,0,,10.0,30.431103,,,TRUE,TRUE,,,,,,,CLR,,,,,,,,VFR,,,,,,,,,,,,SPECI,173.0
KCKP 120515Z AUTO 00000KT 10SM BKN043 M02/M02 A3017 RMK AO2 T10171025,KCKP,2019-01-12T05:15:00Z,42.73,-95.55,-1.7,-2.5,0,0,,10.0,30.171259,,,TRUE,TRUE,,,,,,,BKN,4300,,,,,,,VFR,,,,,,,,,,,,SPECI,374.0
KCIR 120515Z AUTO 10009KT 10SM BKN036 OVC044 01/00 A3019 RMK AO2 T00071005,KCIR,2019-01-12T05:15:00Z,37.07,-89.22,0.7,-0.5,100,9,,10.0,30.188976,,,TRUE,TRUE,,,,,,,BKN,3600,OVC,4400,,,,,VFR,,,,,,,,,,,,SPECI,98.0
KCCB 120515Z AUTO 01006KT 6SM HZ CLR 10/08 A3000 RMK AO2,KCCB,2019-01-12T05:15:00Z,34.12,-117.68,10.0,8.0,10,6,,6.0,30.0,,,TRUE,TRUE,,,,,,HZ,CLR,,,,,,,,VFR,,,,,,,,,,,,METAR,440.0
KCBK 120515Z AUTO 01013KT 5SM +RA OVC028 00/00 A3008 RMK AO2,KCBK,2019-01-12T05:15:00Z,39.43,-101.05,0.0,0.0,10,13,,5.0,30.079725,,,TRUE,TRUE,,,,,,+RA,OVC,2800,,,,,,,MVFR,,,,,,,,,,,,SPECI,971.0
KC83 120515Z AUTO 31005KT 5SM BR OVC005 11/11 A2991 RMK AO2,KC83,2019-01-12T05:15:00Z,37.83,-121.62,11.0,11.0,310,5,,5.0,29.911417,,,TRUE,TRUE,,,,,,BR,OVC,500,,,,,,,IFR,,,,,,,,,,,,SPECI,24.0
KC29 120515Z AUTO 13004KT 10SM SCT014 OVC065 M01/M04 A3029 RMK AO1 T10151041,KC29,2019-01-12T05:15:00Z,43.12,-89.53,-1.5,-4.1,130,4,,10.0,30.28937,,,TRUE,TRUE,,,,,,,SCT,1400,OVC,6500,,,,,VFR,,,,,,,,,,,,SPECI,283.0
KBYL 120515Z AUTO 00000KT 10SM SCT120 02/M04 A3029 RMK AO1,KBYL,2019-01-12T05:15:00Z,36.8,-84.2,2.0,-4.0,0,0,,10.0,30.28937,,,TRUE,TRUE,,,,,,,SCT,12000,,,,,,,VFR,,,,,,,,,,,,SPECI,359.0
KBWD 120515Z AUTO 19005KT 10SM FEW019 OVC025 12/12 A2994 RMK AO1,KBWD,2019-01-12T05:15:00Z,31.8,-98.95,12.0,12.0,190,5,,10.0,29.940945,,,TRUE,TRUE,,,,,,,FEW,1900,OVC,2500,,,,,MVFR,,,,,,,,,,,,SPECI,423.0
KOXI 120515Z AUTO 11005KT 10SM OVC080 M02/M06 A3033 RMK AO1,KOXI,2019-01-12T05:15:00Z,41.33,-86.67,-2.0,-6.0,110,5,,10.0,30.33071,,,TRUE,TRUE,,,,,,,OVC,8000,,,,,,,VFR,,,,,,,,,,,,METAR,209.0
KOUN 120515Z AUTO 16016G21KT 10SM OVC003 07/06 A2981 RMK AO2 T00670061,KOUN,2019-01-12T05:15:00Z,35.25,-97.47,6.7,6.1,160,16,21,10.0,29.811024,,,TRUE,TRUE,,,,,,,OVC,300,,,,,,,LIFR,,,,,,,,,,,,METAR,357.0
KPSK 120515Z AUTO 00000KT 10SM OVC090 00/M06 A3034 RMK AO2 T10051065,KPSK,2019-01-12T05:15:00Z,37.12,-80.67,-0.5,-6.5,0,0,,10.0,30.339567,,,TRUE,TRUE,,,,,,,OVC,9000,,,,,,,VFR,,,,,,,,,,,,METAR,642.0
KOYM 120515Z AUTO 00000KT 10SM SCT110 M11/M15 A3037 RMK AO2,KOYM,2019-01-12T05:15:00Z,41.42,-78.5,-11.0,-15.0,0,0,,10.0,30.369095,,,TRUE,TRUE,,,,,,,SCT,11000,,,,,,,VFR,,,,,,,,,,,,METAR,590.0
KRQO 120515Z AUTO 16013KT 3/4SM -RA BR OVC002 07/07 A2981 RMK AO2 T00740072,KRQO,2019-01-12T05:15:00Z,35.47,-98.0,7.4,7.2,160,13,,0.75,29.811024,,,TRUE,TRUE,,,,,,-RA BR,OVC,200,,,,,,,LIFR,,,,,,,,,,,,METAR,432.0
KPTT 120515Z AUTO 03010KT 3SM -SN OVC003 01/00 A2994 RMK AO2 T00050000,KPTT,2019-01-12T05:15:00Z,37.7,-98.75,0.5,0.0,30,10,,3.0,29.940945,,,TRUE,TRUE,,,,,,-SN,OVC,300,,,,,,,LIFR,,,,,,,,,,,,METAR,595.0
KENL 120515Z AUTO 10008KT 2SM -SN OVC007 M01/M01 A3022 RMK AO2 T10081010,KENL,2019-01-12T05:15:00Z,38.52,-89.1,-0.8,-1.0,100,8,,2.0,30.221457,,,TRUE,TRUE,,,,,,-SN,OVC,700,,,,,,,IFR,,,,,,,,,,,,METAR,163.0
KELK 120515Z AUTO 32015KT 7SM OVC007 04/04 A2984 RMK AO2 T00400037,KELK,2019-01-12T05:15:00Z,35.43,-99.4,4.0,3.7,320,15,,7.0,29.840551,,,TRUE,TRUE,,,,,,,OVC,700,,,,,,,IFR,,,,,,,,,,,,METAR,610.0
KELA 120515Z AUTO 13003KT 4SM +RA BKN027 OVC033 16/15 A2994 RMK AO2 LTG DSNT SW P0010 T01550147,KELA,2019-01-12T05:15:00Z,29.6,-96.32,15.5,14.7,130,3,,4.0,29.940945,,,TRUE,TRUE,,,,,,+RA,BKN,2700,OVC,3300,,,,,MVFR,,,,,,0.1,,,,,,METAR,56.0
KEHA 120515Z AUTO 35013G20KT 5SM -SN OVC004 01/01 A2998 RMK AO2 T00120012,KEHA,2019-01-12T05:15:00Z,37.0,-101.9,1.2,1.2,350,13,20,5.0,29.97933,,,TRUE,TRUE,,,,,,-SN,OVC,400,,,,,,,LIFR,,,,,,,,,,,,SPECI,1099.0
KE38 120515Z AUTO 28012G20KT 10SM CLR 10/M03 A3013 RMK AO2 T00971034,KE38,2019-01-12T05:15:00Z,30.38,-103.68,9.7,-3.4,280,12,20,10.0,30.129921,,,TRUE,TRUE,,,,,,,CLR,,,,,,,,VFR,,,,,,,,,,,,METAR,1376.0
KE11 120515Z AUTO 32007KT 10SM CLR 07/04 A3002 RMK AO2 T00690035,KE11,2019-01-12T05:15:00Z,32.33,-102.53,6.9,3.5,320,7,,10.0,30.02067,,,TRUE,TRUE,,,,,,,CLR,,,,,,,,VFR,,,,,,,,,,,,METAR,967.0
KDVK 120515Z AUTO 07003KT 5SM -SN BKN023 OVC029 M01/M02 A3031 RMK AO2,KDVK,2019-01-12T05:15:00Z,37.58,-84.77,-1.0,-2.0,70,3,,5.0,30.31004,,,TRUE,TRUE,,,,,,-SN,BKN,2300,OVC,2900,,,,,MVFR,,,,,,,,,,,,SPECI,312.0
KDUC 120515Z AUTO 20009KT 5SM -RA BR OVC004 11/10 A2983 RMK AO2 T01050104,KDUC,2019-01-12T05:15:00Z,34.47,-97.97,10.5,10.4,200,9,,5.0,29.828741,,,TRUE,TRUE,,,,,,-RA BR,OVC,400,,,,,,,LIFR,,,,,,,,,,,,METAR,339.0
KDUB 120515Z AUTO 29012KT 10SM CLR M10/M12 A3020 RMK AO2,KDUB,2019-01-12T05:15:00Z,43.55,-109.68,-10.0,-12.0,290,12,,10.0,30.200787,,,TRUE,TRUE,,,,,,,CLR,,,,,,,,VFR,,,,,,,,,,,,METAR,2224.0
KDUA 120515Z AUTO 14009KT 7SM -RA OVC003 05/05 A2992 RMK AO2,KDUA,2019-01-12T05:15:00Z,33.95,-96.4,5.0,5.0,140,9,,7.0,29.920275,,,TRUE,TRUE,,,,,,-RA,OVC,300,,,,,,,LIFR,,,,,,,,,,,,METAR,213.0
KDTA 120515Z AUTO 00000KT M1/4SM OVC001 M01/M01 A3027 RMK AO1,KDTA,2019-01-12T05:15:00Z,39.38,-112.5,-1.0,-1.0,0,0,,0.25,30.268702,,,TRUE,TRUE,,,,,,,OVC,100,,,,,,,LIFR,,,,,,,,,,,,METAR,1402.0
KDQH 120515Z AUTO 11004KT 10SM OVC045 08/01 A3030 RMK AO2 T00820010,KDQH,2019-01-12T05:15:00Z,31.48,-82.87,8.2,1.0,110,4,,10.0,30.301182,,,TRUE,TRUE,,,,,,,OVC,4500,,,,,,,VFR,,,,,,,,,,,,METAR,78.0
KDKR 120515Z AUTO 17006KT 10SM 13/10 A2999 RMK AO2,KDKR,2019-01-12T05:15:00Z,31.3,-95.4,13.0,10.0,170,6,,10.0,29.991142,,,TRUE,TRUE,,,,,,,,,,,,,,,,,,,,,,,,,,,METAR,106.0
KDKB 120515Z AUTO 13005KT 10SM OVC075 M02/M05 A3030 RMK AO2 T10201046,KDKB,2019-01-12T05:15:00Z,41.93,-88.7,-2.0,-4.6,130,5,,10.0,30.301182,,,TRUE,TRUE,,,,,,,OVC,7500,,,,,,,VFR,,,,,,,,,,,,METAR,279.0
KDCY 120515Z AUTO 11005KT 5SM -SN BKN014 BKN047 OVC055 M01/M02 A3028 RMK AO2 T10131022,KDCY,2019-01-12T05:15:00Z,38.7,-87.13,-1.3,-2.2,110,5,,5.0,30.280512,,,TRUE,TRUE,,,,,,-SN,BKN,1400,BKN,4700,OVC,5500,,,MVFR,,,,,,,,,,,,METAR,144.0
KCXE 120515Z AUTO 00000KT 10SM CLR M02/M09 A3042 RMK AO1 T10211089,KCXE,2019-01-12T05:15:00Z,36.78,-78.5,-2.1,-8.9,0,0,,10.0,30.41929,,,TRUE,TRUE,,,,,,,CLR,,,,,,,,VFR,,,,,,,,,,,,METAR,153.0
KIBM 120515Z AUTO 32008KT 10SM BKN006 OVC011 01/01 A3016 RMK AO2 T00080005,KIBM,2019-01-12T05:15:00Z,41.18,-103.68,0.8,0.5,320,8,,10.0,30.159449,,,TRUE,TRUE,,,,,,,BKN,600,OVC,1100,,,,,IFR,,,,,,,,,,,,SPECI,1501.0
KI75 120515Z AUTO 08005KT 1 1/4SM -SN BKN005 OVC012 M01/M01 A3014 RMK AO2 P0001 T10101015,KI75,2019-01-12T05:15:00Z,41.05,-93.68,-1.0,-1.5,80,5,,1.25,30.138779,,,TRUE,TRUE,,,,,,-SN,BKN,500,OVC,1200,,,,,IFR,,,,,,0.01,,,,,,SPECI,339.0
KI67 120515Z AUTO 00000KT 10SM OVC065 00/M05 A3034 RMK AO1,KI67,2019-01-12T05:15:00Z,39.25,-84.78,0.0,-5.0,0,0,,10.0,30.339567,,,TRUE,TRUE,,,,,,,OVC,6500,,,,,,,VFR,,,,,,,,,,,,SPECI,178.0
KHZD 120515Z AUTO 09006KT 10SM OVC060 02/00 A3017 RMK A01,KHZD,2019-01-12T05:15:00Z,36.08,-88.47,2.0,0.0,90,6,,10.0,30.171259,,,TRUE,TRUE,,,,,,,OVC,6000,,,,,,,VFR,,,,,,,,,,,,SPECI,151.0
KHTH 120515Z AUTO 13018KT 10SM CLR 07/M03 A3001 RMK A01,KHTH,2019-01-12T05:15:00Z,,,7.0,-3.0,130,18,,10.0,30.008858,,,TRUE,TRUE,,,,,,,CLR,,,,,,,,VFR,,,,,,,,,,,,SPECI,
KHQU 120515Z AUTO 15004KT 10SM CLR M01/M03 A3040 RMK AO2 T10091030,KHQU,2019-01-12T05:15:00Z,33.53,-82.52,-0.9,-3.0,150,4,,10.0,30.398623,,,TRUE,TRUE,,,,,,,CLR,,,,,,,,VFR,,,,,,,,,,,,SPECI,152.0
KHLB 120515Z AUTO 11004KT 10SM FEW045 SCT050 OVC070 M01/M05 A3031 RMK A01,KHLB,2019-01-12T05:15:00Z,,,-1.0,-5.0,110,4,,10.0,30.31004,,,TRUE,TRUE,,,,,,,FEW,4500,SCT,5000,OVC,7000,,,VFR,,,,,,,,,,,,SPECI,
KHHV 120515Z AUTO 15025KT 10SM BKN085 21/16 A2999 RMK A01,KHHV,2019-01-12T05:15:00Z,26.93,-94.68,21.0,16.0,150,25,,10.0,29.991142,,,TRUE,TRUE,,,,,,,BKN,8500,,,,,,,VFR,,,,,,,,,,,,SPECI,25.0
KHDC 120515Z AUTO 00000KT 10SM SCT040 08/06 A3013 RMK AO2,KHDC,2019-01-12T05:15:00Z,30.52,-90.42,8.0,6.0,0,0,,10.0,30.129921,,,TRUE,TRUE,,,,,,,SCT,4000,,,,,,,VFR,,,,,,,,,,,,SPECI,13.0
KHAE 120515Z AUTO 10006KT 1 1/4SM SN OVC005 M01/M02 A3019 RMK AO2,KHAE,2019-01-12T05:15:00Z,39.73,-91.45,-1.0,-2.0,100,6,,1.25,30.188976,,,TRUE,TRUE,,,,,,SN,OVC,500,,,,,,,IFR,,,,,,,,,,,,SPECI,234.0
KTNB 120515Z AUTO 00000KT 10SM OVC075 00/M09 A3028 RMK AO2 T00001093,KTNB,2019-01-12T05:15:00Z,36.2,-81.65,0.0,-9.3,0,0,,10.0,30.280512,,,TRUE,TRUE,,,,,,,OVC,7500,,,,,,,VFR,,,,,,,,,,,,SPECI,911.0
KTKV 120515Z AUTO 00000KT 10SM OVC044 M05/M09 A3029 RMK AO2 T10501087,KTKV,2019-01-12T05:15:00Z,45.47,-89.82,-5.0,-8.7,0,0,,10.0,30.28937,,,TRUE,TRUE,,,,,,,OVC,4400,,,,,,,VFR,,,,,,,,,,,,SPECI,453.0
KTHA 120515Z AUTO 11003KT 10SM FEW070 OVC080 06/M04 A3023 RMK A01,KTHA,2019-01-12T05:15:00Z,35.38,-86.25,6.0,-4.0,110,3,,10.0,30.230314,,,TRUE,TRUE,,,,,,,FEW,7000,OVC,8000,,,,,VFR,,,,,,,,,,,,SPECI,331.0
KSZY 120515Z AUTO 12005KT 10SM FEW049 SCT065 BKN075 05/M01 A3015 RMK A01,KSZY,2019-01-12T05:15:00Z,,,5.0,-1.0,120,5,,10.0,30.15059,,,TRUE,TRUE,,,,,,,FEW,4900,SCT,6500,BKN,7500,,,VFR,,,,,,,,,,,,SPECI,
KSZT 120515Z AUTO 05003KT 10SM OVC006 00/00 A3019 RMK AO2,KSZT,2019-01-12T05:15:00Z,48.3,-116.57,0.0,0.0,50,3,,10.0,30.188976,,,TRUE,TRUE,,,,,,,OVC,600,,,,,,,IFR,,,,,,,,,,,,SPECI,648.0
KSYI 120515Z AUTO 12003KT 10SM OVC080 04/M01 A3023 RMK A01,KSYI,2019-01-12T05:15:00Z,35.57,-86.45,4.0,-1.0,120,3,,10.0,30.230314,,,TRUE,TRUE,,,,,,,OVC,8000,,,,,,,VFR,,,,,,,,,,,,SPECI,245.0
KSXU 120515Z AUTO 00000KT 10SM OVC090 02/02 A3005 RMK AO2 T00170016,KSXU,2019-01-12T05:15:00Z,34.93,-104.65,1.7,1.6,0,0,,10.0,30.050198,,,TRUE,TRUE,,,,,,,OVC,9000,,,,,,,VFR,,,,,,,,,,,,METAR,1460.0
KSRE 120515Z AUTO 16007G12KT 9SM OVC006 05/04 A2987 RMK AO2,KSRE,2019-01-12T05:15:00Z,35.27,-96.68,5.0,4.0,160,7,12,9.0,29.870079,,,TRUE,TRUE,,,,,,,OVC,600,,,,,,,IFR,,,,,,,,,,,,SPECI,312.0
KSRB 120515Z AUTO 16004KT 10SM FEW039 SCT047 BKN065 04/M03 A3024 RMK A01,KSRB,2019-01-12T05:15:00Z,36.05,-85.53,4.0,-3.0,160,4,,10.0,30.239174,,,TRUE,TRUE,,,,,,,FEW,3900,SCT,4700,BKN,6500,,,VFR,,,,,,,,,,,,SPECI,313.0
KSNH 120515Z AUTO VRB05KT 10SM FEW050 BKN075 OVC090 06/M01 A3017 RMK A01,KSNH,2019-01-12T05:15:00Z,35.17,-88.22,6.0,-1.0,0,5,,10.0,30.171259,,,TRUE,TRUE,,,,,,,FEW,5000,BKN,7500,OVC,9000,,,VFR,,,,,,,,,,,,SPECI,144.0
KSIK 120515Z AUTO 10009KT 10SM SCT005 SCT031 BKN055 01/00 A3017 RMK AO2,KSIK,2019-01-12T05:15:00Z,36.9,-89.57,1.0,0.0,100,9,,10.0,30.171259,,,TRUE,TRUE,,,,,,,SCT,500,SCT,3100,BKN,5500,,,VFR,,,,,,,,,,,,SPECI,96.0
KSCX 120515Z AUTO 00000KT 10SM FEW027 SCT037 OVC046 02/M04 A3026 RMK A01,KSCX,2019-01-12T05:15:00Z,36.45,-84.58,2.0,-4.0,0,0,,10.0,30.259842,,,TRUE,TRUE,,,,,,,FEW,2700,SCT,3700,OVC,4600,,,VFR,,,,,,,,,,,,METAR,471.0
KSCF 120515Z AUTO 11021KT 10SM CLR 16/14 A2999 RMK A01,KSCF,2019-01-12T05:15:00Z,29.12,-91.87,16.0,14.0,110,21,,10.0,29.991142,,,TRUE,TRUE,,,,,,,CLR,,,,,,,,VFR,,,,,,,,,,,,SPECI,8.0
KS52 120515Z AUTO 00000KT 7SM OVC037 00/00 A3019 RMK AO2 T00031001,KS52,2019-01-12T05:15:00Z,48.38,-120.15,0.3,-0.1,0,0,,7.0,30.188976,,,TRUE,TRUE,,,,,,,OVC,3700,,,,,,,VFR,,,,,,,,,,,,METAR,520.0
KS39 120515Z AUTO 00000KT 1/4SM FZFG OVC002 M02/M02 A3005 RMK AO2,KS39,2019-01-12T05:15:00Z,44.28,-120.9,-2.0,-2.0,0,0,,0.25,30.050198,,,TRUE,TRUE,,,,,,FZFG,OVC,200,,,,,,,LIFR,,,,,,,,,,,,SPECI,991.0
KRZR 120515Z AUTO 00000KT 10SM OVC085 05/M02 A3027 RMK A01,KRZR,2019-01-12T05:15:00Z,35.22,-84.8,5.0,-2.0,0,0,,10.0,30.268702,,,TRUE,TRUE,,,,,,,OVC,8500,,,,,,,VFR,,,,,,,,,,,,SPECI,263.0
KIGQ 120515Z AUTO 12004KT 10SM OVC080 M01/M05 A3032 RMK AO2 T10151050,KIGQ,2019-01-12T05:15:00Z,41.53,-87.53,-1.5,-5.0,120,4,,10.0,30.318897,,,TRUE,TRUE,,,,,,,OVC,8000,,,,,,,VFR,,,,,,,,,,,,SPECI,188.0
KIFP 120515Z 02007KT 10SM CLR 14/01 A3008 RMK AO2,KIFP,2019-01-12T05:15:00Z,35.15,-114.57,14.0,1.0,20,7,,10.0,30.079725,,,,TRUE,,,,,,,CLR,,,,,,,,VFR,,,,,,,,,,,,SPECI,212.0
KCTJ 120515Z AUTO 12006KT 10SM CLR 06/M03 A3029 RMK AO2 T00581034,KCTJ,2019-01-12T05:15:00Z,33.63,-85.15,5.8,-3.4,120,6,,10.0,30.28937,,,TRUE,TRUE,,,,,,,CLR,,,,,,,,VFR,,,,,,,,,,,,METAR,354.0
KCQB 120515Z AUTO 13010KT 10SM OVC005 04/04 A2987 RMK AO2 T00440040,KCQB,2019-01-12T05:15:00Z,35.72,-96.82,4.4,4.0,130,10,,10.0,29.870079,,,TRUE,TRUE,,,,,,,OVC,500,,,,,,,IFR,,,,,,,,,,,,METAR,300.0
KCKF 120515Z AUTO 07004KT 10SM OVC046 07/M01 A3029 RMK AO2 T00721014,KCKF,2019-01-12T05:15:00Z,31.98,-83.77,7.2,-1.4,70,4,,10.0,30.28937,,,TRUE,TRUE,,,,,,,OVC,4600,,,,,,,VFR,,,,,,,,,,,,METAR,91.0
KCFD 120515Z AUTO 00000KT 4SM RA SCT010 BKN021 OVC038 13/13 A2999 RMK AO2 P0012 T01310131,KCFD,2019-01-12T05:15:00Z,30.72,-96.33,13.1,13.1,0,0,,4.0,29.991142,,,TRUE,TRUE,,,,,,RA,SCT,1000,BKN,2100,OVC,3800,,,MVFR,,,,,,0.12,,,,,,METAR,112.0
KC75 120515Z AUTO 14007KT 10SM OVC033 M01/M04 A3028 RMK AO2 T10111043,KC75,2019-01-12T05:15:00Z,41.02,-89.38,-1.1,-4.3,140,7,,10.0,30.280512,,,TRUE,TRUE,,,,,,,OVC,3300,,,,,,,VFR,,,,,,,,,,,,METAR,173.0
KC09 120515Z AUTO 10003KT 10SM OVC090 M01/M04 A3029 RMK AO2 T10111042,KC09,2019-01-12T05:15:00Z,41.43,-88.42,-1.1,-4.2,100,3,,10.0,30.28937,,,TRUE,TRUE,,,,,,,OVC,9000,,,,,,,VFR,,,,,,,,,,,,METAR,178.0
KBMT 120515Z AUTO 11008KT 10SM OVC010 15/13 A3001 RMK AO2 T01460125,KBMT,2019-01-12T05:15:00Z,30.07,-94.22,14.6,12.5,110,8,,10.0,30.008858,,,TRUE,TRUE,,,,,,,OVC,1000,,,,,,,MVFR,,,,,,,,,,,,METAR,10.0
KBKD 120515Z AUTO 31009G15KT 10SM SCT015 BKN021 OVC028 12/11 A2992 RMK AO2 T01190105,KBKD,2019-01-12T05:15:00Z,32.72,-98.88,11.9,10.5,310,9,15,10.0,29.920275,,,TRUE,TRUE,,,,,,,SCT,1500,BKN,2100,OVC,2800,,,MVFR,,,,,,,,,,,,METAR,392.0
KBIE 120515Z AUTO 04005KT 1 3/4SM OVC003 01/01 A3007 RMK AO2 P0001 T00060005 PWINO,KBIE,2019-01-12T05:15:00Z,40.28,-96.75,0.6,0.5,40,5,,1.75,30.070866,,,TRUE,TRUE,,,,,TRUE,,OVC,300,,,,,,,LIFR,,,,,,0.01,,,,,,METAR,403.0
KBHC 120515Z AUTO 08006KT 10SM OVC050 07/00 A3030 RMK AO2,KBHC,2019-01-12T05:15:00Z,31.72,-82.4,7.0,0.0,80,6,,10.0,30.301182,,,TRUE,TRUE,,,,,,,OVC,5000,,,,,,,VFR,,,,,,,,,,,,METAR,61.0
KXLL 120515Z AUTO 35005KT 10SM CLR M05/M15 A3046 RMK AO2,KXLL,2019-01-12T05:15:00Z,40.57,-75.48,-5.0,-15.0,350,5,,10.0,30.46063,,,TRUE,TRUE,,,,,,,CLR,,,,,,,,VFR,,,,,,,,,,,,SPECI,122.0
KWDR 120515Z AUTO 12003KT 10SM SCT100 05/M05 A3035 RMK AO2,KWDR,2019-01-12T05:15:00Z,33.98,-83.67,5.0,-5.0,120,3,,10.0,30.351377,,,TRUE,TRUE,,,,,,,SCT,10000,,,,,,,VFR,,,,,,,,,,,,METAR,287.0
KW43 120515Z AUTO 10SM CLR M03/M05 A3019 RMK AO2,KW43,2019-01-12T05:15:00Z,44.67,-104.57,-3.0,-5.0,,,,10.0,30.188976,,,TRUE,TRUE,,,,,,,CLR,,,,,,,,VFR,,,,,,,,,,,,SPECI,1300.0
KVYS 120515Z AUTO 12006KT 10SM OVC085 M02/M05 A3029 RMK AO2 T10161053,KVYS,2019-01-12T05:15:00Z,41.35,-89.15,-1.6,-5.3,120,6,,10.0,30.28937,,,TRUE,TRUE,,,,,,,OVC,8500,,,,,,,VFR,,,,,,,,,,,,SPECI,199.0
KVDI 120515Z AUTO 10008KT 10SM OVC046 07/M02 A3032 RMK AO2,KVDI,2019-01-12T05:15:00Z,32.2,-82.37,7.0,-2.0,100,8,,10.0,30.318897,,,TRUE,TRUE,,,,,,,OVC,4600,,,,,,,VFR,,,,,,,,,,,,METAR,84.0
KUXL 120515Z AUTO 12009KT 10SM SCT100 OVC120 14/10 A3004 RMK AO2 T01350104,KUXL,2019-01-12T05:15:00Z,30.13,-93.38,13.5,10.4,120,9,,10.0,30.041338,,,TRUE,TRUE,,,,,,,SCT,10000,OVC,12000,,,,,VFR,,,,,,,,,,,,METAR,4.0
KTOC 120515Z AUTO 00000KT 10SM OVC100 05/M02 A3034 RMK AO2 T00461023,KTOC,2019-01-12T05:15:00Z,34.6,-83.3,4.6,-2.3,0,0,,10.0,30.339567,,,TRUE,TRUE,,,,,,,OVC,10000,,,,,,,VFR,,,,,,,,,,,,METAR,304.0
KTMK 120515Z AUTO 04013KT 10SM CLR 11/01 A2987 RMK AO2,KTMK,2019-01-12T05:15:00Z,45.42,-123.82,11.0,1.0,40,13,,10.0,29.870079,,,TRUE,TRUE,,,,,,,CLR,,,,,,,,VFR,,,,,,,,,,,,METAR,11.0
KTIP 120515Z AUTO 11005KT 10SM -SN SCT038 BKN045 OVC060 M01/M04 A3028 RMK AO2 T10121041,KTIP,2019-01-12T05:15:00Z,40.28,-88.15,-1.2,-4.1,110,5,,10.0,30.280512,,,TRUE,TRUE,,,,,,-SN,SCT,3800,BKN,4500,OVC,6000,,,VFR,,,,,,,,,,,,SPECI,225.0
KTFP 120515Z AUTO 23014G20KT 10SM -RA SCT009 BKN018 OVC065 20/18 A2995 RMK AO2 LTG DSNT NE T01960177 PNO,KTFP,2019-01-12T05:15:00Z,27.92,-97.22,19.6,17.7,230,14,20,10.0,29.949802,,,TRUE,TRUE,,,,,,-RA,SCT,900,BKN,1800,OVC,6500,,,MVFR,,,,,,,,,,,,SPECI,6.0
KTBR 120515Z AUTO 09004KT 10SM OVC049 05/M02 A3034 RMK AO2 T00511021,KTBR,2019-01-12T05:15:00Z,32.48,-81.73,5.1,-2.1,90,4,,10.0,30.339567,,,TRUE,TRUE,,,,,,,OVC,4900,,,,,,,VFR,,,,,,,,,,,,METAR,57.0
KTAZ 120515Z AUTO 12008KT 1 1/2SM -SN SCT004 BKN020 OVC027 M02/M03 A3024 RMK AO2 T10221028,KTAZ,2019-01-12T05:15:00Z,39.53,-89.33,-2.2,-2.8,120,8,,1.5,30.239174,,,TRUE,TRUE,,,,,,-SN,SCT,400,BKN,2000,OVC,2700,,,IFR,,,,,,,,,,,,SPECI,190.0
KBGE 120515Z 10SM 08/04 A3022 RMK AO2 PWINO,KBGE,2019-01-12T05:15:00Z,30.97,-84.63,8.0,4.0,,,,10.0,30.221457,,,,TRUE,,,,,TRUE,,,,,,,,,,,,,,,,,,,,,,METAR,43.0
KBDG 120515Z AUTO 32004KT 10SM M04/M08 A3021 RMK AO1 T10451078,KBDG,2019-01-12T05:15:00Z,37.58,-109.47,-4.5,-7.8,320,4,,10.0,30.209646,,,TRUE,TRUE,,,,,,,,,,,,,,,,,,,,,,,,,,,METAR,1788.0
KBCB 120515Z AUTO 11003KT 10SM OVC090 00/M09 A3035 RMK AO2 T00001091,KBCB,2019-01-12T05:15:00Z,37.22,-80.42,0.0,-9.1,110,3,,10.0,30.351377,,,TRUE,TRUE,,,,,,,OVC,9000,,,,,,,VFR,,,,,,,,,,,,METAR,650.0
KASL 120515Z AUTO 17003KT 10SM BKN060 BKN075 OVC090 10/04 A2999 RMK AO1 T01000044,KASL,2019-01-12T05:15:00Z,32.52,-94.3,10.0,4.4,170,3,,10.0,29.991142,,,TRUE,TRUE,,,,,,,BKN,6000,BKN,7500,OVC,9000,,,VFR,,,,,,,,,,,,METAR,109.0
KAQR 120515Z AUTO 13006KT 10SM DZ OVC006 05/05 A2993 RMK AO2,KAQR,2019-01-12T05:15:00Z,34.4,-96.15,5.0,5.0,130,6,,10.0,29.929134,,,TRUE,TRUE,,,,,,DZ,OVC,600,,,,,,,IFR,,,,,,,,,,,,METAR,189.0
KAPS 120515Z AUTO 12003KT 10SM CLR 11/09 A3012 RMK AO2 T01140090,KAPS,2019-01-12T05:15:00Z,30.08,-90.58,11.4,9.0,120,3,,10.0,30.121063,,,TRUE,TRUE,,,,,,,CLR,,,,,,,,VFR,,,,,,,,,,,,METAR,2.0
KALX 120515Z AUTO 10SM CLR 05/00 A3023 RMK AO2 T00500000,KALX,2019-01-12T05:15:00Z,32.92,-85.97,5.0,0.0,,,,10.0,30.230314,,,TRUE,TRUE,,,,,,,CLR,,,,,,,,VFR,,,,,,,,,,,,METAR,209.0
KALN 120515Z AUTO 10007KT 1 1/4SM -SN BKN005 OVC010 M02/M02 A3021 RMK AO2 P0001 T10171017,KALN,2019-01-12T05:15:00Z,38.88,-90.03,-1.7,-1.7,100,7,,1.25,30.209646,,,TRUE,TRUE,,,,,,-SN,BKN,500,OVC,1000,,,,,IFR,,,,,,0.01,,,,,,METAR,166.0
KAHQ 120515Z AUTO 02005KT 3SM -SN CLR 00/00 A3013 RMK AO2 T00010000,KAHQ,2019-01-12T05:15:00Z,41.23,-96.6,0.1,0.0,20,5,,3.0,30.129921,,,TRUE,TRUE,,,,,,-SN,CLR,,,,,,,,MVFR,,,,,,,,,,,,METAR,374.0
KAFO 120515Z AUTO 00000KT 10SM BKN001 M12/M13 A3026 RMK AO2,KAFO,2019-01-12T05:15:00Z,42.72,-110.95,-12.0,-13.0,0,0,,10.0,30.259842,,,TRUE,TRUE,,,,,,,BKN,100,,,,,,,LIFR,,,,,,,,,,,,METAR,1897.0
KAFK 120515Z AUTO 06006KT 1 1/2SM -SN OVC003 00/00 A3010 RMK AO2 P0001 T00001001,KAFK,2019-01-12T05:15:00Z,40.6,-95.85,0.0,-0.1,60,6,,1.5,30.100393,,,TRUE,TRUE,,,,,,-SN,OVC,300,,,,,,,LIFR,,,,,,0.01,,,,,,METAR,354.0
KAAA 120515Z AUTO 11005KT 1 3/4SM -SN OVC020 M01/M02 A3026 RMK AO2 T10111021,KAAA,2019-01-12T05:15:00Z,40.17,-89.33,-1.1,-2.1,110,5,,1.75,30.259842,,,TRUE,TRUE,,,,,,-SN,OVC,2000,,,,,,,IFR,,,,,,,,,,,,METAR,182.0
KA08 120515Z AUTO 00000KT 10SM CLR 06/00 A3019 RMK AO2 T00561003,KA08,2019-01-12T05:15:00Z,32.52,-87.38,5.6,-0.3,0,0,,10.0,30.188976,,,TRUE,TRUE,,,,,,,CLR,,,,,,,,VFR,,,,,,,,,,,,METAR,69.0
K9V9 120515Z AUTO 02006KT 10SM CLR M07/M08 A3026 RMK AO2 T10701078,K9V9,2019-01-12T05:15:00Z,43.77,-99.32,-7.0,-7.8,20,6,,10.0,30.259842,,,TRUE,TRUE,,,,,,,CLR,,,,,,,,VFR,,,,,,,,,,,,SPECI,519.0
K9A5 120515Z AUTO 00000KT 10SM OVC090 05/M02 A3029 RMK AO2 T00521025,K9A5,2019-01-12T05:15:00Z,34.68,-85.28,5.2,-2.5,0,0,,10.0,30.28937,,,TRUE,TRUE,,,,,,,OVC,9000,,,,,,,VFR,,,,,,,,,,,,METAR,237.0
K8A0 120515Z AUTO 00000KT 10SM CLR 05/M01 A3023 RMK AO2,K8A0,2019-01-12T05:15:00Z,34.23,-86.25,5.0,-1.0,0,0,,10.0,30.230314,,,TRUE,TRUE,,,,,,,CLR,,,,,,,,VFR,,,,,,,,,,,,METAR,315.0
K6R3 120515Z AUTO 15006KT 10SM OVC008 14/14 A2997 RMK AO2 T01430135,K6R3,2019-01-12T05:15:00Z,30.35,-95.0,14.3,13.5,150,6,,10.0,29.970472,,,TRUE,TRUE,,,,,,,OVC,800,,,,,,,IFR,,,,,,,,,,,,METAR,46.0
K6P9 120515Z AUTO 23008KT 10SM SCT065 BKN120 12/11 A2990 RMK AO2 T01200108,K6P9,2019-01-12T05:15:00Z,32.43,-98.6,12.0,10.8,230,8,,10.0,29.899607,,,TRUE,TRUE,,,,,,,SCT,6500,BKN,12000,,,,,VFR,,,,,,,,,,,,METAR,449.0
K6B0 120515Z AUTO 00000KT 10SM CLR M21/M23 A3037 RMK AO2 T12081229,K6B0,2019-01-12T05:15:00Z,43.98,-73.1,-20.8,-22.9,0,0,,10.0,30.369095,,,TRUE,TRUE,,,,,,,CLR,,,,,,,,VFR,,,,,,,,,,,,METAR,149.0
K66R 120515Z AUTO 14006KT 7SM RA BKN024 BKN035 OVC041 15/12 A2995 RMK AO2 LTG DSNT SW P0003 T01450121,K66R,2019-01-12T05:15:00Z,29.65,-96.52,14.5,12.1,140,6,,7.0,29.949802,,,TRUE,TRUE,,,,,,RA,BKN,2400,BKN,3500,OVC,4100,,,MVFR,,,,,,0.03,,,,,,METAR,74.0
K5C1 120515Z AUTO 00000KT 7SM OVC002 12/12 A2999 RMK AO1,K5C1,2019-01-12T05:15:00Z,29.72,-98.7,12.0,12.0,0,0,,7.0,29.991142,,,TRUE,TRUE,,,,,,,OVC,200,,,,,,,LIFR,,,,,,,,,,,,METAR,423.0
K5A6 120515Z AUTO 13004KT 10SM BKN095 BKN120 08/M02 A3014 RMK AO2 T00821016,K5A6,2019-01-12T05:15:00Z,33.47,-89.73,8.2,-1.6,130,4,,10.0,30.138779,,,TRUE,TRUE,,,,,,,BKN,9500,BKN,12000,,,,,VFR,,,,,,,,,,,,METAR,111.0
K4V0 120515Z AUTO 00000KT 1/4SM FG OVC002 A3023 RMK AO2,K4V0,2019-01-12T05:15:00Z,40.1,-108.77,,,0,0,,0.25,30.230314,,,TRUE,TRUE,,,,,,FG,OVC,200,,,,,,,LIFR,,,,,,,,,,,,METAR,1608.0
K4A9 120515Z AUTO 11004KT 10SM SCT095 08/M04 A3025 RMK AO2 T00781036,K4A9,2019-01-12T05:15:00Z,34.47,-85.72,7.8,-3.6,110,4,,10.0,30.250984,,,TRUE,TRUE,,,,,,,SCT,9500,,,,,,,VFR,,,,,,,,,,,,METAR,267.0
K49A 120515Z AUTO 12005KT 10SM OVC095 06/M04 A3030 RMK AO2 T00631043,K49A,2019-01-12T05:15:00Z,34.63,-84.53,6.3,-4.3,120,5,,10.0,30.301182,,,TRUE,TRUE,,,,,,,OVC,9500,,,,,,,VFR,,,,,,,,,,,,METAR,453.0
K48A 120515Z AUTO 07008KT 10SM OVC043 05/M02 A3030 RMK AO2 T00521025,K48A,2019-01-12T05:15:00Z,,,5.2,-2.5,70,8,,10.0,30.301182,,,TRUE,TRUE,,,,,,,OVC,4300,,,,,,,VFR,,,,,,,,,,,,METAR,
K40J 120515Z AUTO 08005KT 10SM BKN049 10/06 A3025 RMK AO2 T01000062,K40J,2019-01-12T05:15:00Z,30.07,-83.57,10.0,6.2,80,5,,10.0,30.250984,,,TRUE,TRUE,,,,,,,BKN,4900,,,,,,,VFR,,,,,,,,,,,,SPECI,13.0
K3F3 120515Z AUTO 15006G14KT 10SM SCT065 SCT080 OVC095 12/05 A3003 RMK AO2 T01160047,K3F3,2019-01-12T05:15:00Z,32.07,-93.77,11.6,4.7,150,6,14,10.0,30.029528,,,TRUE,TRUE,,,,,,,SCT,6500,SCT,8000,OVC,9500,,,VFR,,,,,,,,,,,,METAR,96.0
K2J5 120515Z AUTO 09003KT 10SM OVC048 03/M04 A3035 RMK AO2 PWINO T00341042,K2J5,2019-01-12T05:15:00Z,32.9,-81.97,3.4,-4.2,90,3,,10.0,30.351377,,,TRUE,TRUE,,,,,TRUE,,OVC,4800,,,,,,,VFR,,,,,,,,,,,,METAR,72.0
K2J3 120515Z AUTO 09006KT 10SM SCT044 03/M04 A3034 RMK AO2 T00351044,K2J3,2019-01-12T05:15:00Z,32.98,-82.38,3.5,-4.4,90,6,,10.0,30.339567,,,TRUE,TRUE,,,,,,,SCT,4400,,,,,,,VFR,,,,,,,,,,,,METAR,100.0
KIKT 120515Z AUTO 10SM OVC032 19/11 A3013 RMK A01,KIKT,2019-01-12T05:15:00Z,28.52,-88.28,19.0,11.0,,,,10.0,30.129921,,,TRUE,TRUE,,,,,,,OVC,3200,,,,,,,VFR,,,,,,,,,,,,SPECI,25.0
KMER 120515Z AUTO 04004KT M1/4SM OVC001 08/08 A2991 RMK AO1,KMER,2019-01-12T05:15:00Z,37.38,-120.57,8.0,8.0,40,4,,0.25,29.911417,,,TRUE,TRUE,,,,,,,OVC,100,,,,,,,LIFR,,,,,,,,,,,,SPECI,57.0
KLWB 120515Z AUTO 02004KT 10SM OVC090 M02/M06 A3031 RMK AO2 T10211059,KLWB,2019-01-12T05:15:00Z,37.87,-80.4,-2.1,-5.9,20,4,,10.0,30.31004,,,TRUE,TRUE,,,,,,,OVC,9000,,,,,,,VFR,,,,,,,,,,,,METAR,702.0
KJHN 120515Z AUTO 35011KT 1 3/4SM -SN OVC005 01/00 A3001 RMK AO2 T00110000,KJHN,2019-01-12T05:15:00Z,37.58,-101.73,1.1,0.0,350,11,,1.75,30.008858,,,TRUE,TRUE,,,,,,-SN,OVC,500,,,,,,,IFR,,,,,,,,,,,,METAR,1013.0
KIDP 120515Z AUTO 10008KT 10SM -RA BKN007 BKN011 OVC029 03/02 A2998 RMK AO2 P0001 T00280022,KIDP,2019-01-12T05:15:00Z,37.17,-95.78,2.8,2.2,100,8,,10.0,29.97933,,,TRUE,TRUE,,,,,,-RA,BKN,700,BKN,1100,OVC,2900,,,IFR,,,,,,0.01,,,,,,METAR,251.0
KMFV 120515Z AUTO 00000KT 10SM CLR M03/M06 A3045 RMK AO2 T10301061,KMFV,2019-01-12T05:15:00Z,37.63,-75.77,-3.0,-6.1,0,0,,10.0,30.448818,,,TRUE,TRUE,,,,,,,CLR,,,,,,,,VFR,,,,,,,,,,,,METAR,15.0
KBTA 120515Z AUTO 04005KT 3SM -SN BKN003 OVC010 00/00 A3012 RMK AO2 T00011005,KBTA,2019-01-12T05:15:00Z,41.42,-96.12,0.1,-0.5,40,5,,3.0,30.121063,,,TRUE,TRUE,,,,,,-SN,BKN,300,OVC,1000,,,,,LIFR,,,,,,,,,,,,SPECI,396.0
KJTC 120515Z AUTO 27007KT 10SM CLR M03/M05 A3017 RMK AO2,KJTC,2019-01-12T05:15:00Z,34.13,-109.32,-3.0,-5.0,270,7,,10.0,30.171259,,,TRUE,TRUE,,,,,,,CLR,,,,,,,,VFR,,,,,,,,,,,,SPECI,2150.0
KK88 120515Z AUTO 10005KT 10SM OVC005 01/01 A3001 RMK AO1 T00080008,KK88,2019-01-12T05:15:00Z,37.87,-95.38,0.8,0.8,100,5,,10.0,30.008858,,,TRUE,TRUE,,,,,,,OVC,500,,,,,,,IFR,,,,,,,,,,,,METAR,309.0
KJYR 120515Z AUTO 02010KT 7SM UP OVC039 00/M02 A3011 RMK AO2,KJYR,2019-01-12T05:15:00Z,40.9,-97.62,0.0,-2.0,20,10,,7.0,30.109253,,,TRUE,TRUE,,,,,,UP,OVC,3900,,,,,,,VFR,,,,,,,,,,,,SPECI,509.0
KLXN 120515Z AUTO 04010KT 10SM OVC110 01/M02 A3011 RMK AO2 T00101020,KLXN,2019-01-12T05:15:00Z,40.78,-99.77,1.0,-2.0,40,10,,10.0,30.109253,,,TRUE,TRUE,,,,,,,OVC,11000,,,,,,,VFR,,,,,,,,,,,,SPECI,734.0
KLUV 120515Z AUTO 31009KT 10SM CLR 04/02 A2999 RMK AO2,KLUV,2019-01-12T05:15:00Z,32.75,-101.92,4.0,2.0,310,9,,10.0,29.991142,,,TRUE,TRUE,,,,,,,CLR,,,,,,,,VFR,,,,,,,,,,,,SPECI,912.0
KLUG 120515Z AUTO 16004KT 10SM OVC075 04/M03 A3022 RMK A01,KLUG,2019-01-12T05:15:00Z,35.52,-86.8,4.0,-3.0,160,4,,10.0,30.221457,,,TRUE,TRUE,,,,,,,OVC,7500,,,,,,,VFR,,,,,,,,,,,,SPECI,219.0
KBVN 120515Z AUTO 36006KT 10SM CLR 00/M02 A3014 RMK AO2 T10031025,KBVN,2019-01-12T05:15:00Z,41.73,-98.05,-0.3,-2.5,360,6,,10.0,30.138779,,,TRUE,TRUE,,,,,,,CLR,,,,,,,,VFR,,,,,,,,,,,,SPECI,551.0
KMZZ 120515Z AUTO 00000KT 7SM CLR M03/M07 A3033 RMK AO2 T10261066,KMZZ,2019-01-12T05:15:00Z,40.48,-85.68,-2.6,-6.6,0,0,,7.0,30.33071,,,TRUE,TRUE,,,,,,,CLR,,,,,,,,VFR,,,,,,,,,,,,METAR,262.0
KTMA 120515Z AUTO 00000KT 3SM HZ BKN036 08/04 A3026 RMK AO2 T00830035,KTMA,2019-01-12T05:15:00Z,31.43,-83.48,8.3,3.5,0,0,,3.0,30.259842,,,TRUE,TRUE,,,,,,HZ,BKN,3600,,,,,,,MVFR,,,,,,,,,,,,SPECI,109.0
KTKX 120515Z AUTO 09012KT 10SM BKN055 OVC070 02/02 A3013 RMK AO2,KTKX,2019-01-12T05:15:00Z,36.22,-90.02,2.0,2.0,90,12,,10.0,30.129921,,,TRUE,TRUE,,,,,,,BKN,5500,OVC,7000,,,,,VFR,,,,,,,,,,,,METAR,80.0
KLUA 120515Z AUTO 00000KT 10SM CLR M02/M08 A3042 RMK AO2,KLUA,2019-01-12T05:15:00Z,38.67,-78.5,-2.0,-8.0,0,0,,10.0,30.41929,,,TRUE,TRUE,,,,,,,CLR,,,,,,,,VFR,,,,,,,,,,,,SPECI,275.0
KLRU 120515Z AUTO 36006KT 10SM CLR 05/01 A3012 RMK AO2 T00490006,KLRU,2019-01-12T05:15:00Z,32.27,-106.92,4.9,0.6,360,6,,10.0,30.121063,,,TRUE,TRUE,,,,,,,CLR,,,,,,,,VFR,,,,,,,,,,,,SPECI,1358.0
KLOT 120515Z AUTO 12004KT 10SM OVC085 M01/M05 A3031 RMK AO2 T10151047,KLOT,2019-01-12T05:15:00Z,41.6,-88.1,-1.5,-4.7,120,4,,10.0,30.31004,,,TRUE,TRUE,,,,,,,OVC,8500,,,,,,,VFR,,,,,,,,,,,,SPECI,205.0
KLJF 120515Z AUTO 04004KT 10SM CLR M06/M08 A3023 RMK AO2,KLJF,2019-01-12T05:15:00Z,45.1,-94.52,-6.0,-8.0,40,4,,10.0,30.230314,,,TRUE,TRUE,,,,,,,CLR,,,,,,,,VFR,,,,,,,,,,,,SPECI,348.0
KLHB 120515Z AUTO 00000KT 10SM SCT080 BKN095 13/13 A2996 RMK AO2 T01250125,KLHB,2019-01-12T05:15:00Z,30.87,-96.62,12.5,12.5,0,0,,10.0,29.958662,,,TRUE,TRUE,,,,,,,SCT,8000,BKN,9500,,,,,VFR,,,,,,,,,,,,SPECI,87.0
KLDJ 120515Z AUTO 32007KT CLR M05/M17 A3047 RMK AO2 T10521166 PWINO,KLDJ,2019-01-12T05:15:00Z,40.62,-74.25,-5.2,-16.6,320,7,,,30.469488,,,TRUE,TRUE,,,,,TRUE,,CLR,,,,,,,,,,,,,,,,,,,,SPECI,7.0
KJXI 120515Z AUTO 11004KT 5SM +RA BKN024 BKN028 OVC036 07/06 A3001 RMK AO2 P0005 T00700060,KJXI,2019-01-12T05:15:00Z,32.7,-94.95,7.0,6.0,110,4,,5.0,30.008858,,,TRUE,TRUE,,,,,,+RA,BKN,2400,BKN,2800,OVC,3600,,,MVFR,,,,,,0.05,,,,,,SPECI,127.0
KJWN 120515Z AUTO 08004KT 10SM FEW040 SCT060 BKN070 02/M00 A3021 RMK A01,KJWN,2019-01-12T05:15:00Z,36.18,-86.88,2.0,0.0,80,4,,10.0,30.209646,,,TRUE,TRUE,,,,,,,FEW,4000,SCT,6000,BKN,7000,,,VFR,,,,,,,,,,,,SPECI,151.0
KIJX 120515Z AUTO 09009KT 1 1/2SM -SN BKN005 OVC014 M02/M03 A3021 RMK AO2 T10251030,KIJX,2019-01-12T05:15:00Z,39.77,-90.25,-2.5,-3.0,90,9,,1.5,30.209646,,,TRUE,TRUE,,,,,,-SN,BKN,500,OVC,1400,,,,,IFR,,,,,,,,,,,,SPECI,190.0
KI63 120515Z AUTO 10009KT 2 1/2SM -SN SCT005 BKN015 OVC021 M02/M03 A3020 RMK AO2 T10251030,KI63,2019-01-12T05:15:00Z,39.98,-90.8,-2.5,-3.0,100,9,,2.5,30.200787,,,TRUE,TRUE,,,,,,-SN,SCT,500,BKN,1500,OVC,2100,,,IFR,,,,,,,,,,,,SPECI,223.0
KHWY 120515Z AUTO 00000KT 10SM CLR M04/M07 A3045 RMK AO2 T10441071,KHWY,2019-01-12T05:15:00Z,38.58,-77.72,-4.4,-7.1,0,0,,10.0,30.448818,,,TRUE,TRUE,,,,,,,CLR,,,,,,,,VFR,,,,,,,,,,,,METAR,103.0
KHTO 120515Z AUTO 32010G14KT 10SM CLR M07/M18 A3040 RMK AO2 T10751177,KHTO,2019-01-12T05:15:00Z,40.95,-72.25,-7.5,-17.7,320,10,14,10.0,30.398623,,,TRUE,TRUE,,,,,,,CLR,,,,,,,,VFR,,,,,,,,,,,,SPECI,17.0
KHSG 120515Z AUTO 00000KT 10SM CLR M07/M08 A3022 RMK AO2 T10691078,KHSG,2019-01-12T05:15:00Z,43.72,-108.38,-6.9,-7.8,0,0,,10.0,30.221457,,,TRUE,TRUE,,,,,,,CLR,,,,,,,,VFR,,,,,,,,,,,,METAR,1494.0
KHSB 120515Z AUTO 09007KT 1 1/2SM -SN OVC005 00/00 A3024 RMK AO2 T10051005,KHSB,2019-01-12T05:15:00Z,37.82,-88.55,-0.5,-0.5,90,7,,1.5,30.239174,,,TRUE,TRUE,,,,,,-SN,OVC,500,,,,,,,IFR,,,,,,,,,,,,SPECI,121.0
KHQG 120515Z AUTO 01015G21KT 5SM -SN OVC008 00/M01 A2998 RMK AO2 T10051010,KHQG,2019-01-12T05:15:00Z,37.17,-101.37,-0.5,-1.0,10,15,21,5.0,29.97933,,,TRUE,TRUE,,,,,,-SN,OVC,800,,,,,,,IFR,,,,,,,,,,,,METAR,956.0
KHQG 120515Z AUTO 01015G21KT 5SM -SN OVC008 00/M01 A2998 RMK AO2 T10051010,KHQG,2019-01-12T05:15:00Z,37.17,-101.37,-0.5,-1.0,10,15,21,5.0,29.97933,,,TRUE,TRUE,,,,,,-SN,OVC,800,,,,,,,IFR,,,,,,,,,,,,METAR,956.0
KHLX 120515Z AUTO 16006KT 10SM OVC085 M01/M10 A3028 RMK AO2 T10061100,KHLX,2019-01-12T05:15:00Z,36.77,-80.82,-0.6,-10.0,160,6,,10.0,30.280512,,,TRUE,TRUE,,,,,,,OVC,8500,,,,,,,VFR,,,,,,,,,,,,METAR,834.0
KHHG 120515Z AUTO 11003KT 10SM CLR M04/M06 A3033 RMK AO2 T10381065,KHHG,2019-01-12T05:15:00Z,40.85,-85.45,-3.8,-6.5,110,3,,10.0,30.33071,,,TRUE,TRUE,,,,,,,CLR,,,,,,,,VFR,,,,,,,,,,,,SPECI,246.0
KGRN 120515Z AUTO 33006KT 10SM CLR 00/M02 A3016 RMK AO2 T10051023,KGRN,2019-01-12T05:15:00Z,42.8,-102.17,-0.5,-2.3,330,6,,10.0,30.159449,,,TRUE,TRUE,,,,,,,CLR,,,,,,,,VFR,,,,,,,,,,,,SPECI,1086.0
KGNC 120515Z AUTO 30004KT 10SM CLR 04/02 A3005 RMK AO2 T00370018,KGNC,2019-01-12T05:15:00Z,32.68,-102.65,3.7,1.8,300,4,,10.0,30.050198,,,TRUE,TRUE,,,,,,,CLR,,,,,,,,VFR,,,,,,,,,,,,SPECI,1010.0
KGLE 120515Z AUTO 18008KT 1 1/4SM BR OVC002 10/09 A2991 RMK AO2 T00960092,KGLE,2019-01-12T05:15:00Z,33.65,-97.2,9.6,9.2,180,8,,1.25,29.911417,,,TRUE,TRUE,,,,,,BR,OVC,200,,,,,,,LIFR,,,,,,,,,,,,SPECI,256.0
KGGP 120515Z AUTO 11005KT 10SM OVC080 M02/M05 A3033 RMK AO2,KGGP,2019-01-12T05:15:00Z,40.72,-86.37,-2.0,-5.0,110,5,,10.0,30.33071,,,TRUE,TRUE,,,,,,,OVC,8000,,,,,,,VFR,,,,,,,,,,,,SPECI,225.0
KGBG 120515Z AUTO 10005KT 2 1/2SM -SN OVC022 M02/M03 A3026 RMK AO2 T10201031,KGBG,2019-01-12T05:15:00Z,40.93,-90.43,-2.0,-3.1,100,5,,2.5,30.259842,,,TRUE,TRUE,,,,,,-SN,OVC,2200,,,,,,,IFR,,,,,,,,,,,,SPECI,233.0
KFZG 120515Z AUTO 10004KT 10SM BKN043 08/03 A3030 RMK AO2 T00830030 PWINO,KFZG,2019-01-12T05:15:00Z,31.68,-83.27,8.3,3.0,100,4,,10.0,30.301182,,,TRUE,TRUE,,,,,TRUE,,BKN,4300,,,,,,,VFR,,,,,,,,,,,,METAR,111.0
KFYG 120515Z AUTO 00000KT 1 3/4SM -SN BKN017 BKN027 M01/M01 A3018 RMK AO2 P0002,KFYG,2019-01-12T05:15:00Z,38.58,-91.0,-1.0,-1.0,0,0,,1.75,30.180119,,,TRUE,TRUE,,,,,,-SN,BKN,1700,BKN,2700,,,,,IFR,,,,,,0.02,,,,,,METAR,149.0
KFVX 120515Z AUTO 01003KT 10SM CLR M01/M09 A3042 RMK AO2 T10101086,KFVX,2019-01-12T05:15:00Z,37.35,-78.42,-1.0,-8.6,10,3,,10.0,30.41929,,,TRUE,TRUE,,,,,,,CLR,,,,,,,,VFR,,,,,,,,,,,,METAR,125.0
KFKN 120515Z AUTO 00000KT 10SM CLR M05/M06 A3045 RMK AO2 T10461060,KFKN,2019-01-12T05:15:00Z,36.7,-76.9,-4.6,-6.0,0,0,,10.0,30.448818,,,TRUE,TRUE,,,,,,,CLR,,,,,,,,VFR,,,,,,,,,,,,METAR,12.0
KF70 120515Z AUTO 00000KT 7SM CLR 09/08 A3001 RMK AO1,KF70,2019-01-12T05:15:00Z,33.57,-117.13,9.0,8.0,0,0,,7.0,30.008858,,,TRUE,TRUE,,,,,,,CLR,,,,,,,,VFR,,,,,,,,,,,,SPECI,412.0
KEZM 120515Z AUTO 08004KT 10SM OVC045 06/M01 A3033 RMK AO2 T00601011,KEZM,2019-01-12T05:15:00Z,32.22,-83.13,6.0,-1.1,80,4,,10.0,30.33071,,,TRUE,TRUE,,,,,,,OVC,4500,,,,,,,VFR,,,,,,,,,,,,METAR,93.0
KEZF 120515Z AUTO 32003KT 10SM CLR M03/M06 A3046 RMK AO2 T10261062,KEZF,2019-01-12T05:15:00Z,38.27,-77.45,-2.6,-6.2,320,3,,10.0,30.46063,,,TRUE,TRUE,,,,,,,CLR,,,,,,,,VFR,,,,,,,,,,,,METAR,26.0
KEQA 120515Z AUTO 08006KT 10SM -SN BKN004 BKN008 OVC019 01/01 A2995 RMK AO2,KEQA,2019-01-12T05:15:00Z,37.78,-96.82,1.0,1.0,80,6,,10.0,29.949802,,,TRUE,TRUE,,,,,,-SN,BKN,400,BKN,800,OVC,1900,,,LIFR,,,,,,,,,,,,METAR,420.0
KGOP 120515Z AUTO 00000KT 10SM SCT007 12/12 A2995 RMK AO2,KGOP,2019-01-12T05:15:00Z,31.42,-97.8,12.0,12.0,0,0,,10.0,29.949802,,,TRUE,TRUE,,,,,,,SCT,700,,,,,,,VFR,,,,,,,,,,,,METAR,276.0
KGHG 120515Z AUTO 29007G13KT 260V330 10SM CLR M08/M20 A3033 RMK AO2,KGHG,2019-01-12T05:15:00Z,42.1,-70.67,-8.0,-20.0,290,7,13,10.0,30.33071,,,TRUE,TRUE,,,,,,,CLR,,,,,,,,VFR,,,,,,,,,,,,METAR,4.0
KGDB 120515Z AUTO 32006KT 7SM OVC015 M07/M08 A3026 RMK AO2 T10661082,KGDB,2019-01-12T05:15:00Z,44.75,-95.55,-6.6,-8.2,320,6,,7.0,30.259842,,,TRUE,TRUE,,,,,,,OVC,1500,,,,,,,MVFR,,,,,,,,,,,,METAR,319.0
PAAD 120515Z AUTO 24013KT 7SM BKN050 OVC090 M35/M38 A3024 RMK AO2 T13461380,PAAD,2019-01-12T05:15:00Z,70.13,-146.28,-34.6,-38.0,240,13,,7.0,30.239174,,,TRUE,TRUE,,,,,,,BKN,5000,OVC,9000,,,,,VFR,,,,,,,,,,,,SPECI,8.0
KOPL 120515Z AUTO 10010KT 10SM SCT120 10/06 A3006 RMK AO2 T00980057,KOPL,2019-01-12T05:15:00Z,30.55,-92.1,9.8,5.7,100,10,,10.0,30.059055,,,TRUE,TRUE,,,,,,,SCT,12000,,,,,,,VFR,,,,,,,,,,,,METAR,23.0
KJKA 120515Z AUTO 10010KT 10SM OVC030 13/09 A3016 RMK AO2 T01250085,KJKA,2019-01-12T05:15:00Z,30.28,-87.67,12.5,8.5,100,10,,10.0,30.159449,,,TRUE,TRUE,,,,,,,OVC,3000,,,,,,,MVFR,,,,,,,,,,,,METAR,5.0
KJCA 120515Z AUTO 11005KT 10SM OVC100 05/M05 A3033 RMK AO2 PWINO T00491053,KJCA,2019-01-12T05:15:00Z,34.18,-83.57,4.9,-5.3,110,5,,10.0,30.33071,,,TRUE,TRUE,,,,,TRUE,,OVC,10000,,,,,,,VFR,,,,,,,,,,,,METAR,290.0
KJAS 120515Z AUTO 12005KT 10SM OVC100 13/10 A3002 RMK AO2 T01300097,KJAS,2019-01-12T05:15:00Z,30.88,-94.03,13.0,9.7,120,5,,10.0,30.02067,,,TRUE,TRUE,,,,,,,OVC,10000,,,,,,,VFR,,,,,,,,,,,,METAR,65.0
KLCK 120515Z AUTO 09003KT 10SM CLR M03/M07 A3036 RMK AO2 T10351068,KLCK,2019-01-12T05:15:00Z,39.82,-82.92,-3.5,-6.8,90,3,,10.0,30.360237,,,TRUE,TRUE,,,,,,,CLR,,,,,,,,VFR,,,,,,,,,,,,SPECI,227.0
KLCG 120515Z AUTO 36003KT 10SM CLR M02/M04 A3015 RMK AO2 T10181040,KLCG,2019-01-12T05:15:00Z,42.25,-96.98,-1.8,-4.0,360,3,,10.0,30.15059,,,TRUE,TRUE,,,,,,,CLR,,,,,,,,VFR,,,,,,,,,,,,SPECI,436.0
KJZP 120515Z AUTO 17005KT 10SM OVC090 05/M04 A3031 RMK AO2 T00521043 PNO,KJZP,2019-01-12T05:15:00Z,34.45,-84.47,5.2,-4.3,170,5,,10.0,30.31004,,,TRUE,TRUE,,,,,,,OVC,9000,,,,,,,VFR,,,,,,,,,,,,METAR,468.0
KJYO 120515Z AUTO 36003KT 10SM CLR M01/M07 A3045 RMK AO2,KJYO,2019-01-12T05:15:00Z,39.07,-77.57,-1.0,-7.0,360,3,,10.0,30.448818,,,TRUE,TRUE,,,,,,,CLR,,,,,,,,VFR,,,,,,,,,,,,METAR,119.0
KJWG 120515Z AUTO 03009KT 1 1/4SM BR OVC001 05/05 A2983 RMK AO2 T00520052,KJWG,2019-01-12T05:15:00Z,35.87,-98.42,5.2,5.2,30,9,,1.25,29.828741,,,TRUE,TRUE,,,,,,BR,OVC,100,,,,,,,LIFR,,,,,,,,,,,,METAR,472.0
KRZL 120515Z AUTO 11007KT 10SM OVC080 M01/M04 A3031 RMK AO2,KRZL,2019-01-12T05:15:00Z,40.95,-87.18,-1.0,-4.0,110,7,,10.0,30.31004,,,TRUE,TRUE,,,,,,,OVC,8000,,,,,,,VFR,,,,,,,,,,,,METAR,213.0
KRWV 120515Z AUTO 17003KT 10SM -RA SCT029 BKN060 OVC120 13/13 A2997 RMK AO2 P0002 T01300125,KRWV,2019-01-12T05:15:00Z,30.52,-96.7,13.0,12.5,170,3,,10.0,29.970472,,,TRUE,TRUE,,,,,,-RA,SCT,2900,BKN,6000,OVC,12000,,,VFR,,,,,,0.02,,,,,,METAR,119.0
KRNV 120515Z AUTO 11011KT 10SM OVC085 08/00 A3009 RMK AO2 T00820001,KRNV,2019-01-12T05:15:00Z,33.77,-90.75,8.2,0.1,110,11,,10.0,30.088583,,,TRUE,TRUE,,,,,,,OVC,8500,,,,,,,VFR,,,,,,,,,,,,SPECI,41.0
KPPA 120515Z AUTO 33018G24KT 10SM -SN BKN009 BKN012 OVC031 01/00 A2992 RMK AO2 T00070000,KPPA,2019-01-12T05:15:00Z,35.62,-101.0,0.7,0.0,330,18,24,10.0,29.920275,,,TRUE,TRUE,,,,,,-SN,BKN,900,BKN,1200,OVC,3100,,,IFR,,,,,,,,,,,,METAR,989.0
KPMV 120515Z AUTO 05004KT 1 1/4SM -SN OVC003 00/00 A3010 RMK AO2 P0001 T00000000,KPMV,2019-01-12T05:15:00Z,40.95,-95.92,0.0,0.0,50,4,,1.25,30.100393,,,TRUE,TRUE,,,,,,-SN,OVC,300,,,,,,,LIFR,,,,,,0.01,,,,,,METAR,367.0
KPMU 120515Z AUTO 00000KT 10SM OVC090 07/M02 A3014 RMK AO2,KPMU,2019-01-12T05:15:00Z,34.37,-89.9,7.0,-2.0,0,0,,10.0,30.138779,,,TRUE,TRUE,,,,,,,OVC,9000,,,,,,,VFR,,,,,,,,,,,,SPECI,67.0
KPLU 120515Z AUTO 00000KT 3SM BR CLR 04/04 A2994 RMK AO2,KPLU,2019-01-12T05:15:00Z,47.1,-122.28,4.0,4.0,0,0,,3.0,29.940945,,,TRUE,TRUE,,,,,,BR,CLR,,,,,,,,MVFR,,,,,,,,,,,,METAR,164.0
KPEZ 120515Z AUTO 31003KT 1/4SM FG OVC001 15/14 A2997 RMK AO2 T01460143,KPEZ,2019-01-12T05:15:00Z,28.95,-98.52,14.6,14.3,310,3,,0.25,29.970472,,,TRUE,TRUE,,,,,,FG,OVC,100,,,,,,,LIFR,,,,,,,,,,,,METAR,132.0
KPEX 120515Z AUTO 04003KT 10SM OVC021 M07/M08 A3024 RMK AO2 T10751081,KPEX,2019-01-12T05:15:00Z,45.37,-94.73,-7.5,-8.1,40,3,,10.0,30.239174,,,TRUE,TRUE,,,,,,,OVC,2100,,,,,,,MVFR,,,,,,,,,,,,METAR,360.0
KPBX 120515Z AUTO 01004KT 10SM OVC095 M01/M07 A3027 RMK AO2 T10101074,KPBX,2019-01-12T05:15:00Z,37.57,-82.57,-1.0,-7.4,10,4,,10.0,30.268702,,,TRUE,TRUE,,,,,,,OVC,9500,,,,,,,VFR,,,,,,,,,,,,SPECI,449.0
KOZS 120515Z AUTO 10004KT 7SM -SN OVC005 00/00 A3008 RMK AO2,KOZS,2019-01-12T05:15:00Z,37.97,-92.68,0.0,0.0,100,4,,7.0,30.079725,,,TRUE,TRUE,,,,,,-SN,OVC,500,,,,,,,IFR,,,,,,,,,,,,SPECI,324.0
KOXD 120515Z AUTO 11004KT 10SM OVC100 M01/M05 A3032 RMK AO2 T10151052,KOXD,2019-01-12T05:15:00Z,39.5,-84.78,-1.5,-5.2,110,4,,10.0,30.318897,,,TRUE,TRUE,,,,,,,OVC,10000,,,,,,,VFR,,,,,,,,,,,,METAR,317.0
KOSA 120515Z AUTO 08005KT 3SM OVC006 06/05 A3002 RMK AO1 P0010 T00630050,KOSA,2019-01-12T05:15:00Z,33.1,-94.97,6.3,5.0,80,5,,3.0,30.02067,,,TRUE,TRUE,,,,,,,OVC,600,,,,,,,IFR,,,,,,0.1,,,,,,METAR,111.0
KORG 120515Z AUTO 13006KT 10SM OVC014 14/13 A3004 RMK AO2 T01360132,KORG,2019-01-12T05:15:00Z,30.07,-93.8,13.6,13.2,130,6,,10.0,30.041338,,,TRUE,TRUE,,,,,,,OVC,1400,,,,,,,MVFR,,,,,,,,,,,,METAR,4.0
KONL 120515Z AUTO 36007KT 10SM CLR M03/M05 A3017 RMK AO2 T10321048,KONL,2019-01-12T05:15:00Z,42.47,-98.67,-3.2,-4.8,360,7,,10.0,30.171259,,,TRUE,TRUE,,,,,,,CLR,,,,,,,,VFR,,,,,,,,,,,,METAR,619.0
KOKV 120515Z AUTO 00000KT 10SM CLR M05/M10 A3044 RMK AO2,KOKV,2019-01-12T05:15:00Z,39.13,-78.15,-5.0,-10.0,0,0,,10.0,30.43996,,,TRUE,TRUE,,,,,,,CLR,,,,,,,,VFR,,,,,,,,,,,,SPECI,222.0
KOCQ 120515Z AUTO 00000KT 10SM OVC065 M03/M05 A3034 RMK AO1 T10301055,KOCQ,2019-01-12T05:15:00Z,44.87,-87.92,-3.0,-5.5,0,0,,10.0,30.339567,,,TRUE,TRUE,,,,,,,OVC,6500,,,,,,,VFR,,,,,,,,,,,,METAR,183.0
KMWO 120515Z AUTO 13003KT 10SM OVC100 M01/M07 A3036 RMK AO2 T10111067,KMWO,2019-01-12T05:15:00Z,39.53,-84.4,-1.1,-6.7,130,3,,10.0,30.360237,,,TRUE,TRUE,,,,,,,OVC,10000,,,,,,,VFR,,,,,,,,,,,,SPECI,198.0
KMQS 120515Z AUTO 00000KT 10SM CLR M05/M15 A3043 RMK AO2,KMQS,2019-01-12T05:15:00Z,39.98,-75.87,-5.0,-15.0,0,0,,10.0,30.431103,,,TRUE,TRUE,,,,,,,CLR,,,,,,,,VFR,,,,,,,,,,,,METAR,201.0
KMKJ 120515Z AUTO 06006KT 10SM SCT085 OVC110 01/M07 A3030 RMK AO2 T00121070,KMKJ,2019-01-12T05:15:00Z,36.88,-81.33,1.2,-7.0,60,6,,10.0,30.301182,,,TRUE,TRUE,,,,,,,SCT,8500,OVC,11000,,,,,VFR,,,,,,,,,,,,SPECI,780.0
KMGG 120515Z AUTO 00000KT 10SM CLR M06/M08 A3025 RMK AO2 T10611077,KMGG,2019-01-12T05:15:00Z,45.23,-93.98,-6.1,-7.7,0,0,,10.0,30.250984,,,TRUE,TRUE,,,,,,,CLR,,,,,,,,VFR,,,,,,,,,,,,METAR,313.0
KMDQ 120515Z AUTO 00000KT 10SM SCT120 05/01 A3023 RMK A02 T00510005,KMDQ,2019-01-12T05:15:00Z,34.87,-86.55,5.1,0.5,0,0,,10.0,30.230314,,,TRUE,TRUE,,,,,,,SCT,12000,,,,,,,VFR,,,,,,,,,,,,SPECI,230.0
KLNQ 120515Z AUTO 00000KT 10SM SCT037 11/09 A3013 RMK AO2 T01070094,KLNQ,2019-01-12T05:15:00Z,29.35,-89.43,10.7,9.4,0,0,,10.0,30.129921,,,TRUE,TRUE,,,,,,,SCT,3700,,,,,,,VFR,,,,,,,,,,,,METAR,1.0
KLNN 120515Z AUTO 13003KT 10SM SCT110 A3041 RMK AO1,KLNN,2019-01-12T05:15:00Z,41.67,-81.37,,,130,3,,10.0,30.410433,,,TRUE,TRUE,,,,,,,SCT,11000,,,,,,,VFR,,,,,,,,,,,,SPECI,191.0
KLAM 120515Z AUTO 00000KT 10SM BKN031 OVC036 M01/M01 A3009 RMK AO2 T10101010,KLAM,2019-01-12T05:15:00Z,35.87,-106.27,-1.0,-1.0,0,0,,10.0,30.088583,,,TRUE,TRUE,,,,,,,BKN,3100,OVC,3600,,,,,VFR,,,,,,,,,,,,METAR,2179.0
KL35 120515Z AUTO 00000KT 10SM CLR M01/M08 A3004 RMK AO2,KL35,2019-01-12T05:15:00Z,34.27,-116.85,-1.0,-8.0,0,0,,10.0,30.041338,,,TRUE,TRUE,,,,,,,CLR,,,,,,,,VFR,,,,,,,,,,,,METAR,2059.0
KJOT 120515Z AUTO 11005KT 10SM OVC090 00/M04 A3031 RMK AO2 T10051040,KJOT,2019-01-12T05:15:00Z,41.52,-88.18,-0.5,-4.0,110,5,,10.0,30.31004,,,TRUE,TRUE,,,,,,,OVC,9000,,,,,,,VFR,,,,,,,,,,,,METAR,177.0
KJGG 120515Z AUTO 00000KT 10SM CLR M02/M06 A3046 RMK AO1,KJGG,2019-01-12T05:15:00Z,37.23,-76.72,-2.0,-6.0,0,0,,10.0,30.46063,,,TRUE,TRUE,,,,,,,CLR,,,,,,,,VFR,,,,,,,,,,,,SPECI,15.0
KIOB 120515Z AUTO 00000KT 10SM BKN070 OVC090 00/M06 A3034 RMK AO2,KIOB,2019-01-12T05:15:00Z,38.05,-83.98,0.0,-6.0,0,0,,10.0,30.339567,,,TRUE,TRUE,,,,,,,BKN,7000,OVC,9000,,,,,VFR,,,,,,,,,,,,SPECI,311.0
KIKK 120515Z AUTO 12007KT 10SM OVC090 M01/M05 A3031 RMK AO2 T10111046,KIKK,2019-01-12T05:15:00Z,41.07,-87.85,-1.1,-4.6,120,7,,10.0,30.31004,,,TRUE,TRUE,,,,,,,OVC,9000,,,,,,,VFR,,,,,,,,,,,,METAR,192.0
KI19 120515Z AUTO 14004KT 10SM OVC100 M01/M06 A3034 RMK AO2 T10151061,KI19,2019-01-12T05:15:00Z,39.7,-83.98,-1.5,-6.1,140,4,,10.0,30.339567,,,TRUE,TRUE,,,,,,,OVC,10000,,,,,,,VFR,,,,,,,,,,,,METAR,289.0
KHYW 120515Z AUTO 00000KT 7SM CLR M02/M03 A3039 RMK AO2,KHYW,2019-01-12T05:15:00Z,33.83,-79.12,-2.0,-3.0,0,0,,7.0,30.389763,,,TRUE,TRUE,,,,,,,CLR,,,,,,,,VFR,,,,,,,,,,,,SPECI,11.0
KHSP 120515Z AUTO 16006KT 10SM SCT070 M03/M09 A3024 RMK AO2 T10301087,KHSP,2019-01-12T05:15:00Z,37.95,-79.82,-3.0,-8.7,160,6,,10.0,30.239174,,,TRUE,TRUE,,,,,,,SCT,7000,,,,,,,VFR,,,,,,,,,,,,SPECI,1156.0
KHJH 120515Z AUTO 02006KT 1 1/4SM -SN OVC004 01/00 A3007 RMK AO2 P0001 T00050002,KHJH,2019-01-12T05:15:00Z,40.15,-97.58,0.5,0.2,20,6,,1.25,30.070866,,,TRUE,TRUE,,,,,,-SN,OVC,400,,,,,,,LIFR,,,,,,0.01,,,,,,METAR,447.0
KHDE 120515Z AUTO 03009KT 10SM SCT065 OVC070 00/00 A3009 RMK AO2 T00001005,KHDE,2019-01-12T05:15:00Z,40.45,-99.32,0.0,-0.5,30,9,,10.0,30.088583,,,TRUE,TRUE,,,,,,,SCT,6500,OVC,7000,,,,,VFR,,,,,,,,,,,,METAR,705.0
KLCQ 120515Z AUTO 06006KT 10SM OVC050 08/05 A3025 RMK AO2,KLCQ,2019-01-12T05:15:00Z,30.18,-82.58,8.0,5.0,60,6,,10.0,30.250984,,,TRUE,TRUE,,,,,,,OVC,5000,,,,,,,VFR,,,,,,,,,,,,METAR,61.0
KIMS 120515Z AUTO 09004KT 3SM OVC011 M01/M02 A3032 RMK AO1,KIMS,2019-01-12T05:15:00Z,38.75,-85.47,-1.0,-2.0,90,4,,3.0,30.318897,,,TRUE,TRUE,,,,,,,OVC,1100,,,,,,,MVFR,,,,,,,,,,,,SPECI,250.0
KIMM 120515Z AUTO 00000KT 10SM SCT050 12/11 A3016 RMK A01,KIMM,2019-01-12T05:15:00Z,26.43,-81.4,12.0,11.0,0,0,,10.0,30.159449,,,TRUE,TRUE,,,,,,,SCT,5000,,,,,,,VFR,,,,,,,,,,,,SPECI,12.0
KJFZ 120515Z AUTO 00000KT 10SM BKN090 OVC110 01/M10 A3023 RMK AO2 T00141103,KJFZ,2019-01-12T05:15:00Z,37.07,-81.8,1.4,-10.3,0,0,,10.0,30.230314,,,TRUE,TRUE,,,,,,,BKN,9000,OVC,11000,,,,,VFR,,,,,,,,,,,,SPECI,809.0
KJAU 120515Z AUTO 00000KT 10SM SCT055 BKN065 OVC075 03/M03 A3032 RMK A01,KJAU,2019-01-12T05:15:00Z,36.33,-84.17,3.0,-3.0,0,0,,10.0,30.318897,,,TRUE,TRUE,,,,,,,SCT,5500,BKN,6500,OVC,7500,,,VFR,,,,,,,,,,,,SPECI,360.0
KJAQ 120515Z AUTO 34005KT 10SM CLR 10/06 A2990 RMK AO1 T01000063,KJAQ,2019-01-12T05:15:00Z,38.37,-120.8,10.0,6.3,340,5,,10.0,29.899607,,,TRUE,TRUE,,,,,,,CLR,,,,,,,,VFR,,,,,,,,,,,,SPECI,512.0
KLGC 120515Z AUTO 00000KT 10SM CLR 07/M02 A3026 RMK AO2 T00651024,KLGC,2019-01-12T05:15:00Z,33.0,-85.07,6.5,-2.4,0,0,,10.0,30.259842,,,TRUE,TRUE,,,,,,,CLR,,,,,,,,VFR,,,,,,,,,,,,METAR,211.0
LIRP 120515Z 14003KT CAVOK M03/M03 Q1020 NOSIG,LIRP,2019-01-12T05:15:00Z,43.67,10.37,-3.0,-3.0,140,3,,6.21,30.11811,,,,,,TRUE,,,,,CAVOK,,,,,,,,VFR,,,,,,,,,,,,METAR,2.0
KRIW 120514Z AUTO 00000KT 1/4SM FZFG VV002 M08/M09 A3023 RMK AO2 T10831094,KRIW,2019-01-12T05:14:00Z,43.07,-108.47,-8.3,-9.4,0,0,,0.25,30.230314,,,TRUE,TRUE,,,,,,FZFG,OVX,0,,,,,,,LIFR,,,,,,,,,,,200,METAR,1697.0
ETIK 120514Z AUTO 24014KT 9999 BKN009 OVC017 01/01 A3016 RMK AO2 UPE0459 SLP234 $,ETIK,2019-01-12T05:14:00Z,49.47,10.37,1.0,1.0,240,14,,6.21,30.159449,1023.4,,TRUE,TRUE,TRUE,,,,,,BKN,900,OVC,1700,,,,,IFR,,,,,,,,,,,,SPECI,325.0
PAKV 120513Z AUTO 00000KT FEW003 M43/ A3002 RMK AO2 T1433 TSNO $,PAKV,2019-01-12T05:13:00Z,64.33,-158.75,-43.3,,0,0,,,30.02067,,,TRUE,TRUE,TRUE,,TRUE,,,,FEW,300,,,,,,,,,,,,,,,,,,,SPECI,61.0
KHLC 120513Z AUTO 01013KT 1SM -SN BR FEW005 OVC017 M01/M01 A3006 RMK AO2 P0000 T10061011,KHLC,2019-01-12T05:13:00Z,39.37,-99.83,-0.6,-1.1,10,13,,1.0,30.059055,,,TRUE,TRUE,,,,,,-SN BR,FEW,500,OVC,1700,,,,,IFR,,,,,,0.005,,,,,,SPECI,669.0
KCAO 120513Z AUTO 35018G24KT 3SM -SN BR FEW009 BKN015 OVC026 00/M01 A3000 RMK AO2 P0000 T00001011,KCAO,2019-01-12T05:13:00Z,36.45,-103.15,0.0,-1.1,350,18,24,3.0,30.0,,,TRUE,TRUE,,,,,,-SN BR,FEW,900,BKN,1500,OVC,2600,,,MVFR,,,,,,0.005,,,,,,SPECI,1514.0
KBWG 120513Z AUTO 07007KT 8SM UP OVC070 01/M01 A3026 RMK AO2 UPB13FZRAE07 P0000 I1000 T00061011,KBWG,2019-01-12T05:13:00Z,36.97,-86.42,0.6,-1.1,70,7,,8.0,30.259842,,,TRUE,TRUE,,,,,,UP,OVC,7000,,,,,,,VFR,,,,,,0.005,,,,,,SPECI,168.0
KAVX 120513Z AUTO 15011KT 10SM SCT002 SCT065 10/10 A2999 RMK AO2 T01000100,KAVX,2019-01-12T05:13:00Z,33.4,-118.42,10.0,10.0,150,11,,10.0,29.991142,,,TRUE,TRUE,,,,,,,SCT,200,SCT,6500,,,,,VFR,,,,,,,,,,,,SPECI,482.0
KACT 120513Z 17006KT 10SM SCT007 12/12 A2993 RMK AO2 T01220117,KACT,2019-01-12T05:13:00Z,31.62,-97.23,12.2,11.7,170,6,,10.0,29.929134,,,,TRUE,,,,,,,SCT,700,,,,,,,VFR,,,,,,,,,,,,SPECI,151.0
KLPC 120513Z AUTO 13007KT 3SM RA BR SCT015 BKN021 OVC060 13/11 A2992 RMK AO2 P0009,KLPC,2019-01-12T05:13:00Z,34.67,-120.47,13.0,11.0,130,7,,3.0,29.920275,,,TRUE,TRUE,,,,,,RA BR,SCT,1500,BKN,2100,OVC,6000,,,MVFR,,,,,,0.09,,,,,,SPECI,27.0
KAFF 120513Z AUTO 34012KT 5SM -SN BR OVC038 M01/M02 A3012 RMK AO2 SLP221,KAFF,2019-01-12T05:13:00Z,38.97,-104.82,-1.0,-2.0,340,12,,5.0,30.121063,1022.1,,TRUE,TRUE,,,,,,-SN BR,OVC,3800,,,,,,,MVFR,,,,,,,,,,,,SPECI,2003.0
KFSI 120513Z AUTO 26011KT 10SM OVC006 09/09 A2979 RMK AO2 RAE13 SLP089,KFSI,2019-01-12T05:13:00Z,34.65,-98.4,9.0,9.0,260,11,,10.0,29.790354,1008.9,,TRUE,TRUE,,,,,,,OVC,600,,,,,,,IFR,,,,,,,,,,,,SPECI,362.0
KT70 120513Z AUTO 33003KT 1/4SM FG VV001 11/10 A2994 RMK AO2 VIS 1/4V3/4 SLPNO RVRNO $,KT70,2019-01-12T05:13:00Z,29.12,-100.48,11.0,10.0,330,3,,0.25,29.940945,,,TRUE,TRUE,TRUE,,,,,FG,OVX,0,,,,,,,LIFR,,,,,,,,,,,100,SPECI,298.0
CYMT 120513Z AUTO 29007KT 5SM -SN OVC046 M24/M27 A3016 RMK SLP260,CYMT,2019-01-12T05:13:00Z,49.77,-74.52,-24.0,-27.0,290,7,,5.0,30.159449,1026.0,,TRUE,,,,,,,-SN,OVC,4600,,,,,,,MVFR,,,,,,,,,,,,SPECI,387.0
RJOM 120513Z 13007KT 9999 FEW001 SCT007 BKN015 07/07 Q1017 RMK 1ST001 3ST007 5CU015 A3005,RJOM,2019-01-12T05:13:00Z,33.82,132.68,7.0,7.0,130,7,,6.21,30.029528,,,,,,,,,,,FEW,100,SCT,700,BKN,1500,,,MVFR,,,,,,,,,,,,SPECI,7.0
KRUE 120512Z AUTO 07004KT 10SM UP SCT012 OVC060 03/01 A3010 RMK AO2 UPB03 P0000 T00280011,KRUE,2019-01-12T05:12:00Z,35.25,-93.1,2.8,1.1,70,4,,10.0,30.100393,,,TRUE,TRUE,,,,,,UP,SCT,1200,OVC,6000,,,,,VFR,,,,,,0.005,,,,,,SPECI,115.0
KBTL 120512Z AUTO 13003KT 10SM BKN020 OVC070 M03/M07 A3036 RMK AO2 T10331072,KBTL,2019-01-12T05:12:00Z,42.32,-85.23,-3.3,-7.2,130,3,,10.0,30.360237,,,TRUE,TRUE,,,,,,,BKN,2000,OVC,7000,,,,,MVFR,,,,,,,,,,,,SPECI,290.0
KBAZ 120512Z AUTO 23003KT 1/4SM FG VV003 14/13 A2995 RMK AO2 T01390133,KBAZ,2019-01-12T05:12:00Z,29.72,-98.05,13.9,13.3,230,3,,0.25,29.949802,,,TRUE,TRUE,,,,,,FG,OVX,0,,,,,,,LIFR,,,,,,,,,,,300,SPECI,195.0
KOTG 120512Z AUTO 35012KT 10SM SCT005 M07/M08 A3019 RMK AO2 FZRANO,KOTG,2019-01-12T05:12:00Z,43.63,-95.57,-7.0,-8.0,350,12,,10.0,30.188976,,,TRUE,TRUE,,,,TRUE,,,SCT,500,,,,,,,VFR,,,,,,,,,,,,SPECI,480.0
KTGI 120511Z AUTO 03007KT 10SM CLR 01/M09 A3045 RMK AO1,KTGI,2019-01-12T05:11:00Z,37.82,-75.98,1.0,-9.0,30,7,,10.0,30.448818,,,TRUE,TRUE,,,,,,,CLR,,,,,,,,VFR,,,,,,,,,,,,METAR,2.0
CYMA 120511Z VRB02KT 10SM -SN OVC022 M27/M30 A2968 RMK SC8 SLP127,CYMA,2019-01-12T05:11:00Z,63.62,-135.87,-27.0,-30.0,0,2,,10.0,29.681103,1012.7,,,,,,,,,-SN,OVC,2200,,,,,,,MVFR,,,,,,,,,,,,SPECI,504.0
PATC 120511Z AUTO 03021KT 1/2SM FZFG CLR M29/M32 A2997 RMK AO2 SLP166,PATC,2019-01-12T05:11:00Z,65.57,-167.92,-29.0,-32.0,30,21,,0.5,29.970472,1016.6,,TRUE,TRUE,,,,,,FZFG,CLR,,,,,,,,LIFR,,,,,,,,,,,,SPECI,83.0
KDSM 120511Z 11008KT 1 3/4SM -SN BR BKN005 OVC023 M01/M02 A3017 RMK AO2 BKN005 V SCT P0000 T10111022,KDSM,2019-01-12T05:11:00Z,41.53,-93.67,-1.1,-2.2,110,8,,1.75,30.171259,,,,TRUE,,,,,,-SN BR,BKN,500,OVC,2300,,,,,IFR,,,,,,0.005,,,,,,SPECI,295.0
KRCA 120511Z AUTO 07005KT 10SM OVC002 M02/M02 A3019 RMK AO2 SLP252 $,KRCA,2019-01-12T05:11:00Z,44.13,-103.08,-2.0,-2.0,70,5,,10.0,30.188976,1025.2,,TRUE,TRUE,TRUE,,,,,,OVC,200,,,,,,,LIFR,,,,,,,,,,,,SPECI,999.0
KHOP 120511Z AUTO 09006KT 10SM -RA BKN065 01/M01 A3022 RMK AO2 DZE0458DZB08E11RAB11 SLP240,KHOP,2019-01-12T05:11:00Z,36.67,-87.5,1.0,-1.0,90,6,,10.0,30.221457,1024.0,,TRUE,TRUE,,,,,,-RA,BKN,6500,,,,,,,VFR,,,,,,,,,,,,SPECI,174.0
KSEF 120510Z AUTO 07003KT 10SM CLR 14/10 A3018 RMK AO2 T01370103,KSEF,2019-01-12T05:10:00Z,27.45,-81.35,13.7,10.3,70,3,,10.0,30.180119,,,TRUE,TRUE,,,,,,,CLR,,,,,,,,VFR,,,,,,,,,,,,METAR,19.0
KVES 120510Z AUTO 11003KT 10SM CLR M03/M05 A3032 RMK AO2,KVES,2019-01-12T05:10:00Z,40.2,-84.53,-3.0,-5.0,110,3,,10.0,30.318897,,,TRUE,TRUE,,,,,,,CLR,,,,,,,,VFR,,,,,,,,,,,,SPECI,307.0
VCRI 120510Z 03014KT 9999 FEW018 SCT028 BKN080 28/24 Q1013 NOSIG,VCRI,2019-01-12T05:10:00Z,6.28,81.13,28.0,24.0,30,14,,6.21,29.911417,,,,,,TRUE,,,,,FEW,1800,SCT,2800,BKN,8000,,,VFR,,,,,,,,,,,,METAR,7.0
VCBI 120510Z 03013KT 360V060 9999 FEW017 SCT045 28/22 Q1013 NOSIG,VCBI,2019-01-12T05:10:00Z,7.17,79.87,28.0,22.0,30,13,,6.21,29.911417,,,,,,TRUE,,,,,FEW,1700,SCT,4500,,,,,VFR,,,,,,,,,,,,METAR,8.0
KI16 120510Z AUTO 10SM OVC090 00/M05 A3032 RMK AO2 T00001049,KI16,2019-01-12T05:10:00Z,37.6,-81.57,0.0,-4.9,,,,10.0,30.318897,,,TRUE,TRUE,,,,,,,OVC,9000,,,,,,,VFR,,,,,,,,,,,,METAR,544.0
KHBV 120510Z AUTO 00000KT 7SM RA SCT047 SCT080 OVC100 16/15 A2998 RMK AO2 P0001 T01600152,KHBV,2019-01-12T05:10:00Z,27.35,-98.73,16.0,15.2,0,0,,7.0,29.97933,,,TRUE,TRUE,,,,,,RA,SCT,4700,SCT,8000,OVC,10000,,,VFR,,,,,,0.01,,,,,,SPECI,202.0
KGVE 120510Z AUTO 00000KT 10SM CLR M03/M05 A3044 RMK AO1 T10341053,KGVE,2019-01-12T05:10:00Z,38.15,-78.17,-3.4,-5.3,0,0,,10.0,30.43996,,,TRUE,TRUE,,,,,,,CLR,,,,,,,,VFR,,,,,,,,,,,,METAR,138.0
KEMM 120510Z AUTO 34008KT 10SM CLR M10/M12 A3022 RMK AO2,KEMM,2019-01-12T05:10:00Z,41.82,-110.55,-10.0,-12.0,340,8,,10.0,30.221457,,,TRUE,TRUE,,,,,,,CLR,,,,,,,,VFR,,,,,,,,,,,,SPECI,2220.0
KDBN 120510Z AUTO 11003KT 10SM BKN044 05/M03 A3034 RMK AO2,KDBN,2019-01-12T05:10:00Z,32.57,-82.98,5.0,-3.0,110,3,,10.0,30.339567,,,TRUE,TRUE,,,,,,,BKN,4400,,,,,,,VFR,,,,,,,,,,,,SPECI,94.0
KCPU 120510Z AUTO 00000KT 10SM CLR 08/05 A2991 RMK AO2 T00800050,KCPU,2019-01-12T05:10:00Z,38.15,-120.65,8.0,5.0,0,0,,10.0,29.911417,,,TRUE,TRUE,,,,,,,CLR,,,,,,,,VFR,,,,,,,,,,,,METAR,404.0
KBWP 120510Z AUTO 35010KT 5SM SCT006 OVC026 M07/M08 A3030 RMK AO1,KBWP,2019-01-12T05:10:00Z,46.25,-96.62,-7.0,-8.0,350,10,,5.0,30.301182,,,TRUE,TRUE,,,,,,,SCT,600,OVC,2600,,,,,MVFR,,,,,,,,,,,,SPECI,295.0
KAQO 120510Z AUTO 00000KT 3/4SM BR BKN001 OVC012 10/09 A3000 RMK AO2,KAQO,2019-01-12T05:10:00Z,30.78,-98.67,10.0,9.0,0,0,,0.75,30.0,,,TRUE,TRUE,,,,,,BR,BKN,100,OVC,1200,,,,,LIFR,,,,,,,,,,,,METAR,336.0
KACJ 120510Z AUTO 09006KT 10SM BKN042 08/M01 A3028 RMK AO2,KACJ,2019-01-12T05:10:00Z,32.12,-84.18,8.0,-1.0,90,6,,10.0,30.280512,,,TRUE,TRUE,,,,,,,BKN,4200,,,,,,,VFR,,,,,,,,,,,,METAR,143.0
KCJR 120510Z AUTO 00000KT 10SM CLR M04/M08 A3047 RMK AO2 T10391079,KCJR,2019-01-12T05:10:00Z,38.53,-77.87,-3.9,-7.9,0,0,,10.0,30.469488,,,TRUE,TRUE,,,,,,,CLR,,,,,,,,VFR,,,,,,,,,,,,SPECI,97.0
K6I2 120510Z AUTO 00000KT 3SM -RA BKN001 OVC019 M01/M01 A3029 RMK AO2,K6I2,2019-01-12T05:10:00Z,37.63,-85.25,-1.0,-1.0,0,0,,3.0,30.28937,,,TRUE,TRUE,,,,,,-RA,BKN,100,OVC,1900,,,,,LIFR,,,,,,,,,,,,SPECI,264.0
K65S 120510Z AUTO 00000KT 2SM BR OVC003 00/00 A3021 RMK AO2,K65S,2019-01-12T05:10:00Z,48.73,-116.3,0.0,0.0,0,0,,2.0,30.209646,,,TRUE,TRUE,,,,,,BR,OVC,300,,,,,,,LIFR,,,,,,,,,,,,METAR,713.0
KO86 120510Z AUTO 00000KT 4SM FEW034 SCT044 OVC050 05/05 A2997 RMK AO1,KO86,2019-01-12T05:10:00Z,40.98,-122.7,5.0,5.0,0,0,,4.0,29.970472,,,TRUE,TRUE,,,,,,,FEW,3400,SCT,4400,OVC,5000,,,MVFR,,,,,,,,,,,,SPECI,729.0
KE16 120510Z AUTO 00000KT 10SM FEW033 BKN065 OVC095 12/10 A2991 RMK AO2 PWINO PNO,KE16,2019-01-12T05:10:00Z,37.08,-121.6,12.0,10.0,0,0,,10.0,29.911417,,,TRUE,TRUE,,,,,TRUE,,FEW,3300,BKN,6500,OVC,9500,,,VFR,,,,,,,,,,,,SPECI,86.0
RJFG 120510Z 31010KT 1500 R31/P1800N -SHRA BR FEW001 SCT002 BKN004 13/12 Q1015 RMK 1ST001 3ST002 5ST004 A2998,RJFG,2019-01-12T05:10:00Z,30.62,130.98,13.0,12.0,310,10,,0.93,29.970472,,,,,,,,,,-SHRA BR,FEW,100,SCT,200,BKN,400,,,LIFR,,,,,,,,,,,,SPECI,237.0
KPDT 120510Z AUTO 17006KT 1/4SM R25/1800V2200FT FG VV002 01/01 A3012 RMK AO2 T00110006,KPDT,2019-01-12T05:10:00Z,45.7,-118.83,1.1,0.6,170,6,,0.25,30.121063,,,TRUE,TRUE,,,,,,FG,OVX,0,,,,,,,LIFR,,,,,,,,,,,200,SPECI,462.0
CYYT 120510Z 23015G27KT 15SM BKN040 M00/M02 A2991 RMK SC7 SLP136,CYYT,2019-01-12T05:10:00Z,47.62,-52.72,0.0,-2.0,230,15,27,15.0,29.911417,1013.6,,,,,,,,,,BKN,4000,,,,,,,VFR,,,,,,,,,,,,SPECI,140.0
YTNK 120510Z AUTO 13015G26KT 090V150 9999 // SCT100 42/13 Q1007,YTNK,2019-01-12T05:10:00Z,-19.63,134.18,42.0,13.0,130,15,26,6.21,29.734253,,,TRUE,,,,,,,,SCT,10000,,,,,,,VFR,,,,,,,,,,,,SPECI,377.0
KIYA 120510Z AUTO 10007KT 10SM SCT110 11/10 A3005 RMK AO2 T01100096,KIYA,2019-01-12T05:10:00Z,29.98,-92.08,11.0,9.6,100,7,,10.0,30.050198,,,TRUE,TRUE,,,,,,,SCT,11000,,,,,,,VFR,,,,,,,,,,,,METAR,5.0
KNOW 120510Z AUTO 22003KT 10SM CLR 06/05 A2992 RMK AO2 T00600052,KNOW,2019-01-12T05:10:00Z,48.13,-123.4,6.0,5.2,220,3,,10.0,29.920275,,,TRUE,TRUE,,,,,,,CLR,,,,,,,,VFR,,,,,,,,,,,,SPECI,4.0
UMII 120509Z 23004MPS 2700 BR OVC004 M10/M11 Q0996 TEMPO 2000 BKN003 RMK QBB120,UMII,2019-01-12T05:09:00Z,55.13,30.35,-10.0,-11.0,230,8,,1.68,29.409449,,,,,,,,,,BR,OVC,400,,,,,,,LIFR,,,,,,,,,,,,SPECI,208.0
KLXT 120509Z AUTO 08008KT 3/4SM -SN BR OVC006 00/00 A3005 RMK AO2 P0002 T00000000,KLXT,2019-01-12T05:09:00Z,38.97,-94.37,0.0,0.0,80,8,,0.75,30.050198,,,TRUE,TRUE,,,,,,-SN BR,OVC,600,,,,,,,LIFR,,,,,,0.02,,,,,,SPECI,306.0
KGCK 120509Z AUTO 01023KT 3/4SM -SN BR FEW005 OVC010 M01/M02 A2998 RMK AO2 PK WND 36028/0506 P0000 T10111017,KGCK,2019-01-12T05:09:00Z,37.92,-100.72,-1.1,-1.7,10,23,,0.75,29.97933,,,TRUE,TRUE,,,,,,-SN BR,FEW,500,OVC,1000,,,,,LIFR,,,,,,0.005,,,,,,SPECI,877.0
KFEW 120509Z AUTO 35008KT 10SM -SN OVC012 M01/M02 A3019 RMK AO2 SNB09 SLP248 $,KFEW,2019-01-12T05:09:00Z,41.13,-104.87,-1.0,-2.0,350,8,,10.0,30.188976,1024.8,,TRUE,TRUE,TRUE,,,,,-SN,OVC,1200,,,,,,,MVFR,,,,,,,,,,,,SPECI,1878.0
UTO8 M M M 297/-33/-37/0917/M/ PK WND 0920 0456Z SOG 06 8040 78MM,UTO8,2019-01-12T05:08:12Z,,,,,,,,5.0,,,,,,,,,,,,,,,,,,,,,,,,,,,,,,,,METAR,
YBWP 120508Z AUTO 11015KT 9999 -SHRA SCT027 SCT052 BKN070 25/23 Q1007 RESHRA,YBWP,2019-01-12T05:08:00Z,-12.68,141.92,25.0,23.0,110,15,,6.21,29.734253,,,TRUE,,,,,,,-SHRA,SCT,2700,SCT,5200,BKN,7000,,,VFR,,,,,,,,,,,,SPECI,12.0
KBMQ 120508Z AUTO 18005KT 1/2SM FG VV002 13/13 A2997 RMK AO2 T01280128,KBMQ,2019-01-12T05:08:00Z,30.73,-98.23,12.8,12.8,180,5,,0.5,29.970472,,,TRUE,TRUE,,,,,,FG,OVX,0,,,,,,,LIFR,,,,,,,,,,,200,SPECI,389.0
PAHN 120508Z AUTO 29012KT 10SM OVC030 M06/M07 A2973 RMK AO2 T10561067 TSNO,PAHN,2019-01-12T05:08:00Z,59.25,-135.52,-5.6,-6.7,290,12,,10.0,29.731298,,,TRUE,TRUE,,,TRUE,,,,OVC,3000,,,,,,,MVFR,,,,,,,,,,,,SPECI,5.0
PFYU 120508Z AUTO 00000KT 9SM -SN FEW016 SCT026 M32/M36 A2994 RMK AO2 P0000 FZRANO,PFYU,2019-01-12T05:08:00Z,66.57,-145.27,-32.0,-36.0,0,0,,9.0,29.940945,,,TRUE,TRUE,,,,TRUE,,-SN,FEW,1600,SCT,2600,,,,,VFR,,,,,,0.005,,,,,,METAR,131.0
KDMO 120508Z AUTO 11009KT 3/4SM -SN BR VV006 M01/M01 A3008 RMK AO2 P0003 T10111011 $,KDMO,2019-01-12T05:08:00Z,38.72,-93.17,-1.1,-1.1,110,9,,0.75,30.079725,,,TRUE,TRUE,TRUE,,,,,-SN BR,OVX,0,,,,,,,LIFR,,,,,,0.03,,,,,600,SPECI,274.0
KTAD 120508Z AUTO 35017G24KT 1 1/2SM -SN BR FEW008 FEW012 OVC018 00/M01 A3010 RMK AO2 P0000 T00001006,KTAD,2019-01-12T05:08:00Z,37.27,-104.33,0.0,-0.6,350,17,24,1.5,30.100393,,,TRUE,TRUE,,,,,,-SN BR,FEW,800,FEW,1200,OVC,1800,,,IFR,,,,,,0.005,,,,,,SPECI,1756.0
KHUF 120508Z 13004KT 2SM -SN BR SCT007 OVC016 M02/M02 A3030 RMK AO2 P0000 T10171022,KHUF,2019-01-12T05:08:00Z,39.45,-87.3,-1.7,-2.2,130,4,,2.0,30.301182,,,,TRUE,,,,,,-SN BR,SCT,700,OVC,1600,,,,,IFR,,,,,,0.005,,,,,,SPECI,179.0
KGGG 120508Z AUTO 30010KT 10SM -RA BKN026 OVC050 09/08 A3000 RMK AO2 RAB08 PRESRR P0000 T00940078,KGGG,2019-01-12T05:08:00Z,32.38,-94.72,9.4,7.8,300,10,,10.0,30.0,,,TRUE,TRUE,,,,,,-RA,BKN,2600,OVC,5000,,,,,MVFR,,,,,,0.005,,,,,,SPECI,107.0
MHSC 120508Z AUTO 00000KT 9999 BKN030 OVC060 19/17 A3010 RMK AO2 SLP161 $,MHSC,2019-01-12T05:08:00Z,14.37,-87.62,19.0,17.0,0,0,,6.21,30.100393,1016.1,,TRUE,TRUE,TRUE,,,,,,BKN,3000,OVC,6000,,,,,MVFR,,,,,,,,,,,,SPECI,626.0
CYYH 120508Z 00000KT 3SM IC BR FEW070 M40/M45 A3051 RMK FG1AC1 AC TR SLP339,CYYH,2019-01-12T05:08:00Z,69.53,-93.57,-40.0,-45.0,0,0,,3.0,30.510826,1033.9,,,,,,,,,IC BR,FEW,7000,,,,,,,MVFR,,,,,,,,,,,,SPECI,28.0
KJAC 120507Z AUTO 04003KT 10SM FEW001 M16/M17 A3027 RMK AO2 FZRANO,KJAC,2019-01-12T05:07:00Z,43.62,-110.73,-16.0,-17.0,40,3,,10.0,30.268702,,,TRUE,TRUE,,,,TRUE,,,FEW,100,,,,,,,VFR,,,,,,,,,,,,METAR,1961.0
KDVP 120507Z AUTO 00000KT 7SM OVC005 A3020 RMK AO2,KDVP,2019-01-12T05:07:00Z,43.98,-95.78,,,0,0,,7.0,30.200787,,,TRUE,TRUE,,,,,,,OVC,500,,,,,,,IFR,,,,,,,,,,,,SPECI,495.0
KVIH 120507Z AUTO 11008KT 4SM -SN BR OVC006 M01/M02 A3010 RMK AO2 P0000 T10111022,KVIH,2019-01-12T05:07:00Z,38.13,-91.77,-1.1,-2.2,110,8,,4.0,30.100393,,,TRUE,TRUE,,,,,,-SN BR,OVC,600,,,,,,,IFR,,,,,,0.005,,,,,,METAR,333.0
KLWC 120507Z AUTO 06009KT 3/4SM -SN BR VV015 01/M01 A3004 RMK AO2 P0001 T00061006,KLWC,2019-01-12T05:07:00Z,39.02,-95.22,0.6,-0.6,60,9,,0.75,30.041338,,,TRUE,TRUE,,,,,,-SN BR,OVX,0,,,,,,,LIFR,,,,,,0.01,,,,,1500,METAR,253.0
RJFY 120507Z 24006KT 210V280 9999 FEW005 SCT010 BKN040 13/11 Q1015 RMK 2ST005 4CU010 7SC040 A2999,RJFY,2019-01-12T05:07:00Z,31.37,130.82,13.0,11.0,240,6,,6.21,29.970472,,,,,,,,,,,FEW,500,SCT,1000,BKN,4000,,,VFR,,,,,,,,,,,,SPECI,68.0
KGOV 120507Z AUTO 09003KT 10SM -SN OVC042 M07/M10 A3036 RMK AO2 SNB07 SLP309 $,KGOV,2019-01-12T05:07:00Z,44.68,-84.73,-7.0,-10.0,90,3,,10.0,30.360237,1030.9,,TRUE,TRUE,TRUE,,,,,-SN,OVC,4200,,,,,,,VFR,,,,,,,,,,,,SPECI,353.0
CYGV 120506Z AUTO 27014G22KT 7SM -SN OVC007 M04/M05 A2961 RMK SLP029,CYGV,2019-01-12T05:06:00Z,50.27,-63.62,-4.0,-5.0,270,14,22,7.0,29.610237,1002.9,,TRUE,,,,,,,-SN,OVC,700,,,,,,,IFR,,,,,,,,,,,,SPECI,33.0
EGVA 120506Z AUTO 24009KT 8000 BR OVC018 08/06 A3028 RMK AO2 SLP259 $,EGVA,2019-01-12T05:06:00Z,51.67,-1.77,8.0,6.0,240,9,,4.97,30.280512,1025.9,,TRUE,TRUE,TRUE,,,,,BR,OVC,1800,,,,,,,MVFR,,,,,,,,,,,,METAR,87.0
SBLO 120506Z 12007KT 9999 TS FEW040CB 22/20 Q1017,SBLO,2019-01-12T05:06:00Z,-23.32,-51.12,22.0,20.0,120,7,,6.21,30.029528,,,,,,,,,,TS,FEW,4000,,,,,,,VFR,,,,,,,,,,,,SPECI,570.0
MUCL 120505Z AUTO 06010KT 23/19 Q1018,MUCL,2019-01-12T05:05:00Z,21.63,-81.55,23.0,19.0,60,10,,,30.059055,,,TRUE,,,,,,,,,,,,,,,,,,,,,,,,,,,,METAR,5.0
PPNU 120505Z AUTO 05010KT 10SM OVC022 M32/M35 A3025 RMK AO1,PPNU,2019-01-12T05:05:00Z,70.42,-150.03,-32.0,-35.0,50,10,,10.0,30.250984,,,TRUE,TRUE,,,,,,,OVC,2200,,,,,,,MVFR,,,,,,,,,,,,METAR,27.0
PHTO 120505Z 19004KT 10SM FEW027 BKN047 OVC055 22/19 A3003 RMK AO2 T02220189,PHTO,2019-01-12T05:05:00Z,19.72,-155.05,22.2,18.9,190,4,,10.0,30.029528,,,,TRUE,,,,,,,FEW,2700,BKN,4700,OVC,5500,,,VFR,,,,,,,,,,,,METAR,12.0
KVEL 120505Z AUTO 08003KT 1/4SM FZFG VV001 M11/M13 A3023 RMK AO2 T11111133,KVEL,2019-01-12T05:05:00Z,40.45,-109.52,-11.1,-13.3,80,3,,0.25,30.230314,,,TRUE,TRUE,,,,,,FZFG,OVX,0,,,,,,,LIFR,,,,,,,,,,,100,METAR,1604.0
KMIW 120505Z AUTO 11007KT 10SM BKN015 OVC027 M01/M04 A3018 RMK AO2 T10111039,KMIW,2019-01-12T05:05:00Z,42.12,-92.92,-1.1,-3.9,110,7,,10.0,30.180119,,,TRUE,TRUE,,,,,,,BKN,1500,OVC,2700,,,,,MVFR,,,,,,,,,,,,METAR,296.0
KIXA 120505Z AUTO 00000KT 10SM CLR M05/M05 A3043 RMK AO2,KIXA,2019-01-12T05:05:00Z,36.33,-77.63,-5.0,-5.0,0,0,,10.0,30.431103,,,TRUE,TRUE,,,,,,,CLR,,,,,,,,VFR,,,,,,,,,,,,METAR,44.0
KAMW 120505Z AUTO 09004KT 7SM OVC014 M01/M03 A3018 RMK AO2 T10111033,KAMW,2019-01-12T05:05:00Z,41.98,-93.62,-1.1,-3.3,90,4,,7.0,30.180119,,,TRUE,TRUE,,,,,,,OVC,1400,,,,,,,MVFR,,,,,,,,,,,,METAR,279.0
KGXY 120504Z AUTO 32006KT 10SM -RA FEW022 01/01 A3020 RMK AO2 P0000 FZRANO,KGXY,2019-01-12T05:04:00Z,40.42,-104.62,1.0,1.0,320,6,,10.0,30.200787,,,TRUE,TRUE,,,,TRUE,,-RA,FEW,2200,,,,,,,VFR,,,,,,0.005,,,,,,SPECI,1420.0
KOMA 120504Z 01003KT 1 3/4SM -SN BR BKN009 OVC014 01/M01 A3013 RMK AO2 P0000 T00061011,KOMA,2019-01-12T05:04:00Z,41.32,-95.9,0.6,-1.1,10,3,,1.75,30.129921,,,,TRUE,,,,,,-SN BR,BKN,900,OVC,1400,,,,,IFR,,,,,,0.005,,,,,,METAR,312.0
KEKO 120504Z AUTO 11004KT 10SM OVC006 M04/M06 A3019 RMK AO2 CIG 003V007 T10391056,KEKO,2019-01-12T05:04:00Z,40.82,-115.78,-3.9,-5.6,110,4,,10.0,30.188976,,,TRUE,TRUE,,,,,,,OVC,600,,,,,,,IFR,,,,,,,,,,,,METAR,1547.0
KGUY 120504Z AUTO 36017G23KT 8SM FEW009 BKN014 OVC019 00/M02 A2997 RMK AO2 T00001022,KGUY,2019-01-12T05:04:00Z,36.68,-101.5,0.0,-2.2,360,17,23,8.0,29.970472,,,TRUE,TRUE,,,,,,,FEW,900,BKN,1400,OVC,1900,,,MVFR,,,,,,,,,,,,METAR,948.0
KAUS 120504Z 00000KT 6SM BR SCT004 SCT055 BKN110 13/13 A2996 RMK AO2 T01330128,KAUS,2019-01-12T05:04:00Z,30.18,-97.68,13.3,12.8,0,0,,6.0,29.958662,,,,TRUE,,,,,,BR,SCT,400,SCT,5500,BKN,11000,,,VFR,,,,,,,,,,,,METAR,166.0
KBMI 120503Z AUTO 12007KT 5SM -SN BR BKN019 BKN025 OVC033 M02/M03 A3027 RMK AO2 P0000,KBMI,2019-01-12T05:03:00Z,40.47,-88.92,-2.0,-3.0,120,7,,5.0,30.268702,,,TRUE,TRUE,,,,,,-SN BR,BKN,1900,BKN,2500,OVC,3300,,,MVFR,,,,,,0.005,,,,,,SPECI,267.0
KNQI 120503Z AUTO 23005KT 10SM SCT008 OVC110 18/17 A2996 RMK AO2 T01830172,KNQI,2019-01-12T05:03:00Z,27.5,-97.82,18.3,17.2,230,5,,10.0,29.958662,,,TRUE,TRUE,,,,,,,SCT,800,OVC,11000,,,,,VFR,,,,,,,,,,,,SPECI,15.0
PASO 120503Z AUTO 01004KT 10SM BKN019 OVC031 M07/M10 A2967 RMK AO2 T10671100 TSNO,PASO,2019-01-12T05:03:00Z,59.45,-151.7,-6.7,-10.0,10,4,,10.0,29.66929,,,TRUE,TRUE,,,TRUE,,,,BKN,1900,OVC,3100,,,,,MVFR,,,,,,,,,,,,SPECI,9.0
KSTJ 120503Z AUTO 08008KT 1SM -SN BR BKN007 OVC014 01/01 A3009 RMK AO2 P0001 T00060006 RVRNO,KSTJ,2019-01-12T05:03:00Z,39.77,-94.92,0.6,0.6,80,8,,1.0,30.088583,,,TRUE,TRUE,,,,,,-SN BR,BKN,700,OVC,1400,,,,,IFR,,,,,,0.01,,,,,,SPECI,247.0
YBHI 120502Z AUTO 27015G25KT 9999 // NCD 43/03 Q1011,YBHI,2019-01-12T05:02:00Z,-32.0,141.47,43.0,3.0,270,15,25,6.21,29.852362,,,TRUE,,,,,,,,CLR,,,,,,,,VFR,,,,,,,,,,,,METAR,292.0
KPOF 120502Z AUTO 08007KT 3SM -RA BR BKN022 BKN038 OVC050 01/00 A3015 RMK AO2 UPE01RAB01 P0000 T00060000,KPOF,2019-01-12T05:02:00Z,36.77,-90.32,0.6,0.0,80,7,,3.0,30.15059,,,TRUE,TRUE,,,,,,-RA BR,BKN,2200,BKN,3800,OVC,5000,,,MVFR,,,,,,0.005,,,,,,SPECI,99.0
PASM 120502Z AUTO 06012KT 10SM CLR M32/M34 A2983 RMK AO2 SLP122 T13171344 FZRANO,PASM,2019-01-12T05:02:00Z,62.07,-163.3,-31.7,-34.4,60,12,,10.0,29.828741,1012.2,,TRUE,TRUE,,,,TRUE,,,CLR,,,,,,,,VFR,,,,,,,,,,,,METAR,92.0
PAMO 120502Z AUTO 04013KT 10SM CLR M29/M33 A2983 RMK AO2 SLP117 T12941328 FZRANO,PAMO,2019-01-12T05:02:00Z,62.1,-163.68,-29.4,-32.8,40,13,,10.0,29.828741,1011.7,,TRUE,TRUE,,,,TRUE,,,CLR,,,,,,,,VFR,,,,,,,,,,,,METAR,103.0
KBIV 120501Z AUTO 13006KT 10SM SCT025 OVC070 M02/M06 A3037 RMK AO2 T10171061,KBIV,2019-01-12T05:01:00Z,42.75,-86.1,-1.7,-6.1,130,6,,10.0,30.369095,,,TRUE,TRUE,,,,,,,SCT,2500,OVC,7000,,,,,VFR,,,,,,,,,,,,METAR,208.0
URWW 120500Z 21009MPS 9000 -RA OVC005 02/01 Q1005 R24/720240 TEMPO 0400 FG OVC002 RMK OBST OBSC,URWW,2019-01-12T05:00:00Z,48.78,44.33,2.0,1.0,210,17,,5.59,29.675198,,,,,,,,,,-RA,OVC,500,,,,,,,IFR,,,,,,,,,,,,METAR,147.0
CWQR 120500Z AUTO 26026G31KT M04/M05 RMK AO1 PK WND 26031/0422 T10351048,CWQR,2019-01-12T05:00:00Z,50.22,-64.22,-3.5,-4.8,260,26,31,,,,,TRUE,TRUE,,,,,,,,,,,,,,,,,,,,,,,,,,,METAR,9.0
MNMG 120500Z 10008KT 9999 FEW020 SCT070 25/19 Q1014 A2995 NOSIG,MNMG,2019-01-12T05:00:00Z,12.15,-86.17,25.0,19.0,100,8,,6.21,29.940945,,,,,,TRUE,,,,,FEW,2000,SCT,7000,,,,,VFR,,,,,,,,,,,,METAR,59.0
CWQK 120500Z AUTO 03015KT 10/04 RMK AO1 PK WND 02018/0445 SLP126 T00950040 50001,CWQK,2019-01-12T05:00:00Z,48.3,-123.53,9.5,4.0,30,15,,,,1012.6,,TRUE,TRUE,,,,,,,,,,,,,,,,0.1,,,,,,,,,,,METAR,5.0
CWQO 120500Z AUTO 27020G27KT M14/M18 RMK AO1 PK WND 28028/0417 T11351175,CWQO,2019-01-12T05:00:00Z,48.42,-68.9,-13.5,-17.5,270,20,27,,,,,TRUE,TRUE,,,,,,,,,,,,,,,,,,,,,,,,,,,METAR,1.0
CWQP 120500Z AUTO 35009KT M10/M18 RMK AO1 SOG 02 0000 SLP320 T11021178,CWQP,2019-01-12T05:00:00Z,43.83,-77.15,-10.2,-17.8,350,9,,,,1032.0,,TRUE,TRUE,,,,,,,,,,,,,,,,,,,,,,,,,,,METAR,79.0
WIDD 120500Z 05009KT 9999 SCT014 31/23 Q1012,WIDD,2019-01-12T05:00:00Z,1.12,104.12,31.0,23.0,50,9,,6.21,29.88189,,,,,,,,,,,SCT,1400,,,,,,,VFR,,,,,,,,,,,,METAR,38.0
CXSE 120500Z AUTO 10001KT M42/M47 RMK AO1 SOG 44 8011 SLP338 T14151471,CXSE,2019-01-12T05:00:00Z,73.77,-105.28,-41.5,-47.1,100,1,,,,1033.8,,TRUE,TRUE,,,,,,,,,,,,,,,,,,,,,,,,,,,METAR,11.0
CXMY 120500Z AUTO M08/M12 RMK AO1 T10811118,CXMY,2019-01-12T05:00:00Z,44.98,-62.48,-8.1,-11.8,,,,,,,,TRUE,TRUE,,,,,,,,,,,,,,,,,,,,,,,,,,,METAR,40.0
CWEZ 120500Z AUTO 32006KT RMK AO1 53003,CWEZ,2019-01-12T05:00:00Z,48.78,-123.05,,,320,6,,,,,,TRUE,TRUE,,,,,,,,,,,,,,,,0.3,,,,,,,,,,,METAR,7.0
CXSC 120500Z AUTO 12001KT M08/M08 RMK AO1 T10781080,CXSC,2019-01-12T05:00:00Z,50.3,-110.08,-7.8,-8.0,120,1,,,,,,TRUE,TRUE,,,,,,,,,,,,,,,,,,,,,,,,,,,METAR,800.0
CWWS 120500Z AUTO 12009KT M20/M22 RMK AO1 SOG 45 3001 SLP355 T12021224,CWWS,2019-01-12T05:00:00Z,52.82,-97.62,-20.2,-22.4,120,9,,,,1035.5,,TRUE,TRUE,,,,,,,,,,,,,,,,,,,,,,,,,,,METAR,223.0
RJOS 120500Z 30006KT 9999 -RA FEW025 BKN045 OVC080 06/03 Q1018,RJOS,2019-01-12T05:00:00Z,34.12,134.62,6.0,3.0,300,6,,6.21,30.059055,,,,,,,,,,-RA,FEW,2500,BKN,4500,OVC,8000,,,VFR,,,,,,,,,,,,METAR,11.0
CWEP 120500Z AUTO 23011G16KT M08/M12 RMK AO1 SOG 42 1013 PK WND 23017/0415 SLP122 T10831120 50002,CWEP,2019-01-12T05:00:00Z,46.45,-61.97,-8.3,-12.0,230,11,16,,,1012.2,,TRUE,TRUE,,,,,,,,,,,,,,,,0.2,,,,,,,,,,,METAR,11.0
MRLB 120500Z 08009KT CAVOK 24/18 A2990 NOSIG,MRLB,2019-01-12T05:00:00Z,10.6,-85.55,24.0,18.0,80,9,,6.21,29.899607,,,,,,TRUE,,,,,CAVOK,,,,,,,,VFR,,,,,,,,,,,,METAR,82.0
CWTG 120500Z AUTO 26023G28KT M13/M15 RMK AO1 PK WND 27030/0437 SLP102 T11291152 53015,CWTG,2019-01-12T05:00:00Z,49.32,-67.37,-12.9,-15.2,260,23,28,,,1010.2,,TRUE,TRUE,,,,,,,,,,,,,,,,1.5,,,,,,,,,,,METAR,5.0
ZUGY 120500Z 22007MPS 9999 FEW009 BKN015 BKN030 11/09 Q1018 NOSIG,ZUGY,2019-01-12T05:00:00Z,26.53,106.8,11.0,9.0,220,14,,6.21,30.059055,,,,,,TRUE,,,,,FEW,900,BKN,1500,BKN,3000,,,MVFR,,,,,,,,,,,,METAR,1074.0
SBUL 120500Z 10005KT CAVOK 20/15 Q1019,SBUL,2019-01-12T05:00:00Z,-18.87,-48.22,20.0,15.0,100,5,,6.21,30.088583,,,,,,,,,,,CAVOK,,,,,,,,VFR,,,,,,,,,,,,METAR,922.0
SBSR 120500Z 36002KT 9999 FEW030 24/18 Q1016,SBSR,2019-01-12T05:00:00Z,-20.8,-49.4,24.0,18.0,360,2,,6.21,30.0,,,,,,,,,,,FEW,3000,,,,,,,VFR,,,,,,,,,,,,METAR,543.0
SBSC 120500Z 00000KT CAVOK 25/22 Q1014,SBSC,2019-01-12T05:00:00Z,-22.92,-43.72,25.0,22.0,0,0,,6.21,29.940945,,,,,,,,,,,CAVOK,,,,,,,,VFR,,,,,,,,,,,,METAR,3.0
SBME 120500Z 04004KT CAVOK 24/23 Q1014,SBME,2019-01-12T05:00:00Z,-22.35,-41.77,24.0,23.0,40,4,,6.21,29.940945,,,,,,,,,,,CAVOK,,,,,,,,VFR,,,,,,,,,,,,METAR,2.0
SBDN 120500Z 08006KT CAVOK 25/18 Q1015,SBDN,2019-01-12T05:00:00Z,-22.18,-51.43,25.0,18.0,80,6,,6.21,29.970472,,,,,,,,,,,CAVOK,,,,,,,,VFR,,,,,,,,,,,,METAR,435.0
SBBU 120500Z 05008KT 9999 TS SCT030 FEW040CB 23/21 Q1018,SBBU,2019-01-12T05:00:00Z,-22.32,-49.07,23.0,21.0,50,8,,6.21,30.059055,,,,,,,,,,TS,SCT,3000,FEW,4000,,,,,VFR,,,,,,,,,,,,METAR,590.0
SBBH 120500Z 10004KT CAVOK 21/17 Q1018,SBBH,2019-01-12T05:00:00Z,-19.85,-43.95,21.0,17.0,100,4,,6.21,30.059055,,,,,,,,,,,CAVOK,,,,,,,,VFR,,,,,,,,,,,,METAR,785.0
SBPJ 120500Z 24002KT 9999 FEW015 25/22 Q1013,SBPJ,2019-01-12T05:00:00Z,-10.28,-48.37,25.0,22.0,240,2,,6.21,29.911417,,,,,,,,,,,FEW,1500,,,,,,,VFR,,,,,,,,,,,,METAR,236.0
SBAN 120500Z 15004KT CAVOK 18/14 Q1020,SBAN,2019-01-12T05:00:00Z,-16.22,-48.97,18.0,14.0,150,4,,6.21,30.11811,,,,,,,,,,,CAVOK,,,,,,,,VFR,,,,,,,,,,,,METAR,1137.0
FEFT 120500Z 32006KT 0500 FG NSC 18/17 Q1009,FEFT,2019-01-12T05:00:00Z,4.25,15.8,18.0,17.0,320,6,,0.31,29.793306,,,,,,,,,,FG,CLR,,,,,,,,LIFR,,,,,,,,,,,,METAR,583.0
VILK 120500Z VRB02KT 1500 R27/2000 RMID/1300 R09/1500 HZ NSC 18/10 Q1019 NOSIG,VILK,2019-01-12T05:00:00Z,26.75,80.87,18.0,10.0,0,2,,0.93,30.088583,,,,,,TRUE,,,,HZ,CLR,,,,,,,,LIFR,,,,,,,,,,,,SPECI,128.0
DNAA 120500Z 07006KT 4300 HZ NSC 20/10 Q1012 NOSIG,DNAA,2019-01-12T05:00:00Z,9.0,7.27,20.0,10.0,70,6,,2.67,29.88189,,,,,,TRUE,,,,HZ,CLR,,,,,,,,IFR,,,,,,,,,,,,METAR,344.0
YBPN 120500Z AUTO 10016KT 9999 // NCD 29/22 Q1012,YBPN,2019-01-12T05:00:00Z,-20.5,148.55,29.0,22.0,100,16,,6.21,29.88189,,,TRUE,,,,,,,,CLR,,,,,,,,VFR,,,,,,,,,,,,METAR,25.0
YBOK 120500Z AUTO 12009KT 9999 // NCD 33/08 Q1016,YBOK,2019-01-12T05:00:00Z,-27.42,151.72,33.0,8.0,120,9,,6.21,30.0,,,TRUE,,,,,,,,CLR,,,,,,,,VFR,,,,,,,,,,,,METAR,407.0
YBNA 120500Z AUTO 06013KT 9999 // NCD 27/21 Q1016,YBNA,2019-01-12T05:00:00Z,-28.83,153.57,27.0,21.0,60,13,,6.21,30.0,,,TRUE,,,,,,,,CLR,,,,,,,,VFR,,,,,,,,,,,,METAR,2.0
YBMK 120500Z AUTO 13015KT 9999 // ////// 29/21 Q1012,YBMK,2019-01-12T05:00:00Z,-21.17,149.17,29.0,21.0,130,15,,6.21,29.88189,,,TRUE,,,,,,,,,,,,,,,,,,,,,,,,,,,,METAR,31.0
YLIS 120500Z AUTO 07011KT 030V090 9999 // NCD 31/15 Q1015,YLIS,2019-01-12T05:00:00Z,-28.83,153.27,31.0,15.0,70,11,,6.21,29.970472,,,TRUE,,,,,,,,CLR,,,,,,,,VFR,,,,,,,,,,,,METAR,11.0
YLEC 120500Z AUTO 25012KT 210V270 //// // ////// 41/08 Q1012,YLEC,2019-01-12T05:00:00Z,-30.6,138.43,41.0,8.0,250,12,,,29.88189,,,TRUE,,,,,,,,,,,,,,,,,,,,,,,,,,,,METAR,262.0
YKRY 120500Z AUTO 11009KT 9999 // NCD 32/11 Q1016,YKRY,2019-01-12T05:00:00Z,-26.57,151.83,32.0,11.0,110,9,,6.21,30.0,,,TRUE,,,,,,,,CLR,,,,,,,,VFR,,,,,,,,,,,,METAR,434.0
YHUG 120500Z AUTO 10011KT 040V150 9999 // NCD 37/08 Q1010,YHUG,2019-01-12T05:00:00Z,-20.82,144.23,37.0,8.0,100,11,,6.21,29.822834,,,TRUE,,,,,,,,CLR,,,,,,,,VFR,,,,,,,,,,,,METAR,318.0
YGTH 120500Z AUTO 36006KT 270V060 9999 // NCD 41/08 Q1011,YGTH,2019-01-12T05:00:00Z,-34.25,146.07,41.0,8.0,360,6,,6.21,29.852362,,,TRUE,,,,,,,,CLR,,,,,,,,VFR,,,,,,,,,,,,METAR,134.0
YGTE 120500Z AUTO 09008KT 9999 // SCT110 32/25 Q1006,YGTE,2019-01-12T05:00:00Z,-13.97,136.45,32.0,25.0,90,8,,6.21,29.704725,,,TRUE,,,,,,,,SCT,11000,,,,,,,VFR,,,,,,,,,,,,METAR,14.0
YGFN 120500Z AUTO 05011KT 9999 // NCD 30/16 Q1015,YGFN,2019-01-12T05:00:00Z,-29.77,153.03,30.0,16.0,50,11,,6.21,29.970472,,,TRUE,,,,,,,,CLR,,,,,,,,VFR,,,,,,,,,,,,METAR,34.0
YESP 120500Z AUTO 03007KT 290V060 9999 // NCD 36/04 Q1015,YESP,2019-01-12T05:00:00Z,-33.68,121.82,36.0,4.0,30,7,,6.21,29.970472,,,TRUE,,,,,,,,CLR,,,,,,,,VFR,,,,,,,,,,,,METAR,143.0
YEML 120500Z AUTO 06010KT 9999 // NCD 35/14 Q1012,YEML,2019-01-12T05:00:00Z,-23.57,148.18,35.0,14.0,60,10,,6.21,29.88189,,,TRUE,,,,,,,,CLR,,,,,,,,VFR,,,,,,,,,,,,METAR,190.0
YDBY 120500Z AUTO 33004KT 220V030 //// // NCD 39/23 Q1006,YDBY,2019-01-12T05:00:00Z,-17.37,123.67,39.0,23.0,330,4,,,29.704725,,,TRUE,,,,,,,,CLR,,,,,,,,,,,,,,,,,,,,METAR,7.0
YCNM 120500Z AUTO 19005KT //// // ////// 39/13 Q1013,YCNM,2019-01-12T05:00:00Z,-30.98,148.38,39.0,13.0,190,5,,,29.911417,,,TRUE,,,,,,,,,,,,,,,,,,,,,,,,,,,,METAR,184.0
YCDU 120500Z AUTO 19017KT 9999 // ////// 24/16 Q1018,YCDU,2019-01-12T05:00:00Z,-32.12,133.7,24.0,16.0,190,17,,6.21,30.059055,,,TRUE,,,,,,,,,,,,,,,,,,,,,,,,,,,,METAR,15.0
YPBO 120500Z AUTO 06009KT 310V080 9999 // NCD 44/01 Q1008,YPBO,2019-01-12T05:00:00Z,-23.2,117.75,44.0,1.0,60,9,,6.21,29.763779,,,TRUE,,,,,,,,CLR,,,,,,,,VFR,,,,,,,,,,,,METAR,1292.0
YOLD 120500Z AUTO 17011KT 160V220 9999 // NCD 40/04 Q1012,YOLD,2019-01-12T05:00:00Z,-30.48,136.88,40.0,4.0,170,11,,6.21,29.88189,,,TRUE,,,,,,,,CLR,,,,,,,,VFR,,,,,,,,,,,,METAR,105.0
YNWN 120500Z AUTO 03006KT 360V070 9999 // NCD 42/M01 Q1010,YNWN,2019-01-12T05:00:00Z,-23.42,119.8,42.0,-1.0,30,6,,6.21,29.822834,,,TRUE,,,,,,,,CLR,,,,,,,,VFR,,,,,,,,,,,,METAR,525.0
YNTN 120500Z AUTO 06003KT 9999 // NCD 34/22 Q1007,YNTN,2019-01-12T05:00:00Z,-17.68,141.07,34.0,22.0,60,3,,6.21,29.734253,,,TRUE,,,,,,,,CLR,,,,,,,,VFR,,,,,,,,,,,,METAR,22.0
YNBR 120500Z AUTO 18005KT 130V280 9999 // NCD 38/07 Q1014,YNBR,2019-01-12T05:00:00Z,-30.32,149.83,38.0,7.0,180,5,,6.21,29.940945,,,TRUE,,,,,,,,CLR,,,,,,,,VFR,,,,,,,,,,,,METAR,240.0
YNAR 120500Z AUTO 32006KT //// // ////// 40/04 Q1012,YNAR,2019-01-12T05:00:00Z,-34.7,146.52,40.0,4.0,320,6,,,29.88189,,,TRUE,,,,,,,,,,,,,,,,,,,,,,,,,,,,METAR,145.0
VAID 120500Z 05003KT 3000 HZ NSC 19/05 Q1018 NOSIG,VAID,2019-01-12T05:00:00Z,22.72,75.78,19.0,5.0,50,3,,1.86,30.059055,,,,,,TRUE,,,,HZ,CLR,,,,,,,,IFR,,,,,,,,,,,,METAR,567.0
VIAR 120500Z 06008KT 2000 BR SCT100 14/11 Q1020 BECMG 3000 HZ,VIAR,2019-01-12T05:00:00Z,31.7,74.8,14.0,11.0,60,8,,1.24,30.11811,,,,,,,,,,BR,SCT,10000,,,,,,,IFR,,,,,,,,,,,,SPECI,234.0
FWKI 120500Z 00000KT 9999 FEW022CB SCT023 BKN090 20/18 Q1017 NOSIG,FWKI,2019-01-12T05:00:00Z,-13.77,33.77,20.0,18.0,0,0,,6.21,30.029528,,,,,,TRUE,,,,,FEW,2200,SCT,2300,BKN,9000,,,VFR,,,,,,,,,,,,METAR,1229.0
VAJB 120500Z 00000KT 3000 HZ NSC 17/06 Q1018,VAJB,2019-01-12T05:00:00Z,23.18,80.05,17.0,6.0,0,0,,1.86,30.059055,,,,,,,,,,HZ,CLR,,,,,,,,IFR,,,,,,,,,,,,METAR,494.0
CWDQ 120500Z AUTO 31005KT M21/M25 RMK AO1 SOG 49 1012 SLP268 T12121252,CWDQ,2019-01-12T05:00:00Z,47.42,-72.78,-21.2,-25.2,310,5,,,,1026.8,,TRUE,TRUE,,,,,,,,,,,,,,,,,,,,,,,,,,,METAR,169.0
CWRA 120500Z AUTO 21015KT RMK AO1 PK WND 23021/0403 53014,CWRA,2019-01-12T05:00:00Z,46.63,-53.07,,,210,15,,,,,,TRUE,TRUE,,,,,,,,,,,,,,,,1.4,,,,,,,,,,,METAR,28.0
CWDO 120500Z AUTO 22010G17KT M02/M04 RMK AO1 SOG 02 3020 PK WND 22022/0406 SLP086 T10151044,CWDO,2019-01-12T05:00:00Z,49.67,-54.78,-1.5,-4.4,220,10,17,,,1008.6,,TRUE,TRUE,,,,,,,,,,,,,,,,,,,,,,,,,,,METAR,92.0
WMKI 120500Z VRB02KT 9999 FEW020 SCT140 BKN280 30/21 Q1012,WMKI,2019-01-12T05:00:00Z,4.57,101.08,30.0,21.0,0,2,,6.21,29.88189,,,,,,,,,,,FEW,2000,SCT,14000,BKN,28000,,,VFR,,,,,,,,,,,,METAR,39.0
WMKN 120500Z VRB01KT 9999 -RA FEW010 SCT020 BKN150 28/25 Q1012,WMKN,2019-01-12T05:00:00Z,5.37,103.08,28.0,25.0,0,1,,6.21,29.88189,,,,,,,,,,-RA,FEW,1000,SCT,2000,BKN,15000,,,VFR,,,,,,,,,,,,METAR,6.0
WMKM 120500Z 03008KT 330V100 9999 FEW020 SCT150 BKN280 31/23 Q1011,WMKM,2019-01-12T05:00:00Z,2.27,102.25,31.0,23.0,30,8,,6.21,29.852362,,,,,,,,,,,FEW,2000,SCT,15000,BKN,28000,,,VFR,,,,,,,,,,,,METAR,9.0
WMKL 120500Z 05011KT 350V110 9999 FEW020TCU BKN280 32/22 Q1011,WMKL,2019-01-12T05:00:00Z,6.32,99.72,32.0,22.0,50,11,,6.21,29.852362,,,,,,,,,,,FEW,2000,BKN,28000,,,,,VFR,,,,,,,,,,,,METAR,7.0
WMKE 120500Z VRB03KT 9999 FEW005 SCT014 BKN140 27/25 Q1011,WMKE,2019-01-12T05:00:00Z,4.53,103.43,27.0,25.0,0,3,,6.21,29.852362,,,,,,,,,,,FEW,500,SCT,1400,BKN,14000,,,VFR,,,,,,,,,,,,METAR,5.0
WMKC 120500Z 10007KT 020V150 9999 SCT018 SCT140 BKN280 30/24 Q1011,WMKC,2019-01-12T05:00:00Z,6.17,102.27,30.0,24.0,100,7,,6.21,29.852362,,,,,,,,,,,SCT,1800,SCT,14000,BKN,28000,,,VFR,,,,,,,,,,,,METAR,5.0
WMKB 120500Z 10009KT 9999 FEW020 BKN280 31/23 Q1011 NOSIG,WMKB,2019-01-12T05:00:00Z,5.47,100.37,31.0,23.0,100,9,,6.21,29.852362,,,,,,TRUE,,,,,FEW,2000,BKN,28000,,,,,VFR,,,,,,,,,,,,METAR,4.0
WMKA 120500Z VRB05KT 9999 FEW020 SCT140 BKN300 31/24 Q1011,WMKA,2019-01-12T05:00:00Z,6.2,100.4,31.0,24.0,0,5,,6.21,29.852362,,,,,,,,,,,FEW,2000,SCT,14000,BKN,30000,,,VFR,,,,,,,,,,,,METAR,5.0
WMBA 120500Z 07003KT 350V140 9999 SCT022 BKN140 31/25 Q1011,WMBA,2019-01-12T05:00:00Z,4.22,100.7,31.0,25.0,70,3,,6.21,29.852362,,,,,,,,,,,SCT,2200,BKN,14000,,,,,VFR,,,,,,,,,,,,METAR,8.0
WMAU 120500Z VRB07KT 9999 FEW022 BKN280 31/24 Q//// QFF1011,WMAU,2019-01-12T05:00:00Z,2.38,103.88,31.0,24.0,0,7,,6.21,,,,,,,,,,,,FEW,2200,BKN,28000,,,,,VFR,,,,,,,,,,,,METAR,45.0
SEMT 120500Z 20008KT 9999 SCT026 SCT120 25/22 Q1013 RMK A2992,SEMT,2019-01-12T05:00:00Z,-0.95,-80.67,25.0,22.0,200,8,,6.21,29.911417,,,,,,,,,,,SCT,2600,SCT,12000,,,,,VFR,,,,,,,,,,,,METAR,14.0
LPMT 120500Z 03007KT CAVOK 05/01 Q1028,LPMT,2019-01-12T05:00:00Z,38.7,-9.05,5.0,1.0,30,7,,6.21,30.35433,,,,,,,,,,,CAVOK,,,,,,,,VFR,,,,,,,,,,,,METAR,11.0
LPMR 120500Z VRB01KT CAVOK 00/M00 Q1029,LPMR,2019-01-12T05:00:00Z,39.82,-8.87,0.0,0.0,0,1,,6.21,30.383858,,,,,,,,,,,CAVOK,,,,,,,,VFR,,,,,,,,,,,,METAR,54.0
LPOV 120500Z VRB02KT CAVOK 00/M00 Q1029,LPOV,2019-01-12T05:00:00Z,40.92,-8.65,0.0,0.0,0,2,,6.21,30.383858,,,,,,,,,,,CAVOK,,,,,,,,VFR,,,,,,,,,,,,METAR,17.0
GABS 120500Z 06005KT 8000 NSC 21/01 Q1013 NOSIG,GABS,2019-01-12T05:00:00Z,12.52,-7.95,21.0,1.0,60,5,,4.97,29.911417,,,,,,TRUE,,,,,CLR,,,,,,,,MVFR,,,,,,,,,,,,METAR,381.0
VGEG 120500Z 03004KT 3500 HZ NSC 22/13 Q1017 NOSIG,VGEG,2019-01-12T05:00:00Z,22.27,91.82,22.0,13.0,30,4,,2.17,30.029528,,,,,,TRUE,,,,HZ,CLR,,,,,,,,IFR,,,,,,,,,,,,METAR,6.0
NIUE 120500Z AUTO 12014KT //// // ///////// 27/22 Q1008,NIUE,2019-01-12T05:00:00Z,-19.07,-169.92,27.0,22.0,120,14,,,29.763779,,,TRUE,,,,,,,,,,,,,,,,,,,,,,,,,,,,METAR,20.0
VRMM 120500Z 06011KT 6000 FEW018 30/24 Q1013 NOSIG,VRMM,2019-01-12T05:00:00Z,4.2,73.52,30.0,24.0,60,11,,3.73,29.911417,,,,,,TRUE,,,,,FEW,1800,,,,,,,MVFR,,,,,,,,,,,,METAR,2.0
FNHU 120500Z 00000KT 9999 FEW012 BKN060 17/17 Q1021,FNHU,2019-01-12T05:00:00Z,-12.82,15.77,17.0,17.0,0,0,,6.21,30.147638,,,,,,,,,,,FEW,1200,BKN,6000,,,,,VFR,,,,,,,,,,,,METAR,1701.0
SBKG 120500Z 16004KT 9999 SCT015 22/18 Q1013,SBKG,2019-01-12T05:00:00Z,-7.27,-35.87,22.0,18.0,160,4,,6.21,29.911417,,,,,,,,,,,SCT,1500,,,,,,,VFR,,,,,,,,,,,,METAR,560.0
SBJU 120500Z 00000KT CAVOK 24/19 Q1015,SBJU,2019-01-12T05:00:00Z,-7.22,-39.27,24.0,19.0,0,0,,6.21,29.970472,,,,,,,,,,,CAVOK,,,,,,,,VFR,,,,,,,,,,,,METAR,409.0
SBIZ 120500Z 00000KT CAVOK 22/22 Q1012,SBIZ,2019-01-12T05:00:00Z,-5.52,-47.45,22.0,22.0,0,0,,6.21,29.88189,,,,,,,,,,,CAVOK,,,,,,,,VFR,,,,,,,,,,,,METAR,123.0
SADF 120500Z 05005KT CAVOK 20/15 Q1016,SADF,2019-01-12T05:00:00Z,-34.45,-58.58,20.0,15.0,50,5,,6.21,30.0,,,,,,,,,,,CAVOK,,,,,,,,VFR,,,,,,,,,,,,METAR,4.0
CXAF 120500Z AUTO 14006KT M12/M13 RMK AO1 T11151129,CXAF,2019-01-12T05:00:00Z,54.28,-112.97,-11.5,-12.9,140,6,,,,,,TRUE,TRUE,,,,,,,,,,,,,,,,,,,,,,,,,,,METAR,664.0
CXDP 120500Z AUTO 14002KT M14/M15 RMK AO1 T11361148 50012,CXDP,2019-01-12T05:00:00Z,54.32,-113.95,-13.6,-14.8,140,2,,,,,,TRUE,TRUE,,,,,,,,,,,,,,,,1.2,,,,,,,,,,,METAR,614.0
CXTV 120500Z AUTO 30003KT M27/M30 RMK AO1 SOG 36 3001 SLP154 T12721301 50002,CXTV,2019-01-12T05:00:00Z,68.75,-133.5,-27.2,-30.1,300,3,,,,1015.4,,TRUE,TRUE,,,,,,,,,,,,,,,,0.2,,,,,,,,,,,METAR,85.0
CWZV 120500Z AUTO 11017KT 07/07 RMK AO1 6PAST HR 3003 PK WND 12019/0428 SLP068 P0002 T00740070 50011,CWZV,2019-01-12T05:00:00Z,51.93,-131.02,7.4,7.0,110,17,,,,1006.8,,TRUE,TRUE,,,,,,,,,,,,,,,,1.1,,,,,0.02,,,,,,METAR,92.0
CWDM 120500Z AUTO 22014G21KT M03/M04 RMK AO1 SOG 24 3021 PK WND 21022/0400 SLP038 T10251035 50002,CWDM,2019-01-12T05:00:00Z,50.47,-59.62,-2.5,-3.5,220,14,21,,,1003.8,,TRUE,TRUE,,,,,,,,,,,,,,,,0.2,,,,,,,,,,,METAR,6.0
CWJO 120500Z AUTO 28015G23KT M19/M23 RMK AO1 PK WND 28026/0436 SLP236 T11851228 51015,CWJO,2019-01-12T05:00:00Z,48.43,-71.15,-18.5,-22.8,280,15,23,,,1023.6,,TRUE,TRUE,,,,,,,,,,,,,,,,1.5,,,,,,,,,,,METAR,133.0
CWWX 120500Z AUTO 06005KT M08/M11 RMK AO1 SLP319 T10761107 51003,CWWX,2019-01-12T05:00:00Z,45.32,-81.73,-7.6,-10.7,60,5,,,,1031.9,,TRUE,TRUE,,,,,,,,,,,,,,,,0.3,,,,,,,,,,,METAR,181.0
CWHP 120500Z AUTO 28008KT M05/M06 RMK AO1 SOG 06 2014 SLP057 T10491061,CWHP,2019-01-12T05:00:00Z,49.07,-61.7,-4.9,-6.1,280,8,,,,1005.7,,TRUE,TRUE,,,,,,,,,,,,,,,,,,,,,,,,,,,METAR,4.0
MGGT 120500Z 36010KT 9999 SCT014 14/12 Q1027 A3033,MGGT,2019-01-12T05:00:00Z,14.57,-90.53,14.0,12.0,360,10,,6.21,30.324802,,,,,,,,,,,SCT,1400,,,,,,,VFR,,,,,,,,,,,,METAR,1509.0
SBBV 120500Z 09007KT CAVOK 25/20 Q1012,SBBV,2019-01-12T05:00:00Z,2.85,-60.7,25.0,20.0,90,7,,6.21,29.88189,,,,,,,,,,,CAVOK,,,,,,,,VFR,,,,,,,,,,,,METAR,140.0
SBPS 120500Z 23002KT 9999 SCT020 23/22 Q1014,SBPS,2019-01-12T05:00:00Z,-16.43,-39.07,23.0,22.0,230,2,,6.21,29.940945,,,,,,,,,,,SCT,2000,,,,,,,VFR,,,,,,,,,,,,METAR,51.0
GVSV 120500Z 06010KT 9999 FEW022 20/15 Q1015 NOSIG,GVSV,2019-01-12T05:00:00Z,16.83,-25.07,20.0,15.0,60,10,,6.21,29.970472,,,,,,TRUE,,,,,FEW,2200,,,,,,,VFR,,,,,,,,,,,,METAR,20.0
LEMO 120500Z 05006KT CAVOK 02/M02 Q1027 NOSIG,LEMO,2019-01-12T05:00:00Z,37.17,-5.62,2.0,-2.0,50,6,,6.21,30.324802,,,,,,TRUE,,,,,CAVOK,,,,,,,,VFR,,,,,,,,,,,,METAR,88.0
SBCY 120500Z 00000KT CAVOK 22/22 Q1013,SBCY,2019-01-12T05:00:00Z,-15.65,-56.12,22.0,22.0,0,0,,6.21,29.911417,,,,,,,,,,,CAVOK,,,,,,,,VFR,,,,,,,,,,,,METAR,182.0
TNCC 120500Z AUTO 10011KT 9999 NSC 26/21 Q1014 NOSIG,TNCC,2019-01-12T05:00:00Z,12.2,-68.97,26.0,21.0,100,11,,6.21,29.940945,,,TRUE,,,TRUE,,,,,CLR,,,,,,,,VFR,,,,,,,,,,,,METAR,9.0
SKMR 120500Z 00000KT CAVOK 23/23 A2990,SKMR,2019-01-12T05:00:00Z,8.82,-75.83,23.0,23.0,0,0,,6.21,29.899607,,,,,,,,,,,CAVOK,,,,,,,,VFR,,,,,,,,,,,,METAR,26.0
SKVP 120500Z 07010KT 9999 FEW020 26/19 A2997,SKVP,2019-01-12T05:00:00Z,10.42,-73.25,26.0,19.0,70,10,,6.21,29.970472,,,,,,,,,,,FEW,2000,,,,,,,VFR,,,,,,,,,,,,METAR,138.0
SKSM 120500Z 00000KT 9000 FEW020 SCT200 26/20 A2989 RMK HZ,SKSM,2019-01-12T05:00:00Z,11.12,-74.22,26.0,20.0,0,0,,5.59,29.890747,,,,,,,,,,,FEW,2000,SCT,20000,,,,,VFR,,,,,,,,,,,,METAR,4.0
SAWG 120500Z 29020KT 9999 SCT035 SCT100 08/M03 Q0996,SAWG,2019-01-12T05:00:00Z,-51.62,-69.32,8.0,-3.0,290,20,,6.21,29.409449,,,,,,,,,,,SCT,3500,SCT,10000,,,,,VFR,,,,,,,,,,,,METAR,19.0
SAWE 120500Z 30026G36KT 9999 BKN020 OVC070 07/03 Q0988,SAWE,2019-01-12T05:00:00Z,-53.78,-67.75,7.0,3.0,300,26,36,6.21,29.17323,,,,,,,,,,,BKN,2000,OVC,7000,,,,,MVFR,,,,,,,,,,,,METAR,22.0
SAVC 120500Z 27021KT CAVOK 17/05 Q1003,SAVC,2019-01-12T05:00:00Z,-45.77,-67.47,17.0,5.0,270,21,,6.21,29.616142,,,,,,,,,,,CAVOK,,,,,,,,VFR,,,,,,,,,,,,METAR,46.0
SASA 120500Z 00000KT 4000 -DZ SCT004 OVC010 15/15 Q1018,SASA,2019-01-12T05:00:00Z,-24.85,-65.47,15.0,15.0,0,0,,2.49,30.059055,,,,,,,,,,-DZ,SCT,400,OVC,1000,,,,,IFR,,,,,,,,,,,,METAR,1216.0
SARP 120500Z 09005KT CAVOK 25/21 Q1013,SARP,2019-01-12T05:00:00Z,-27.38,-55.97,25.0,21.0,90,5,,6.21,29.911417,,,,,,,,,,,CAVOK,,,,,,,,VFR,,,,,,,,,,,,METAR,125.0
SARI 120500Z 07006KT CAVOK 22/21 Q1014,SARI,2019-01-12T05:00:00Z,-25.72,-54.47,22.0,21.0,70,6,,6.21,29.940945,,,,,,,,,,,CAVOK,,,,,,,,VFR,,,,,,,,,,,,METAR,270.0
SARF 120500Z 14005KT 9999 VCTS SCT022 FEW050CB SCT050 OVC100 24/24 Q1012,SARF,2019-01-12T05:00:00Z,-26.22,-58.22,24.0,24.0,140,5,,6.21,29.88189,,,,,,,,,,VCTS,SCT,2200,FEW,5000,SCT,5000,OVC,10000,VFR,,,,,,,,,,,,METAR,60.0
SARC 120500Z 14005KT 9999 SCT025 FEW050CB BKN060 23/22 Q1012 RMK CB OBS TO NE,SARC,2019-01-12T05:00:00Z,-27.43,-58.77,23.0,22.0,140,5,,6.21,29.88189,,,,,,,,,,,SCT,2500,FEW,5000,BKN,6000,,,VFR,,,,,,,,,,,,METAR,62.0
SANT 120500Z 02005KT 8000 SCT018 OVC035 18/17 Q1015,SANT,2019-01-12T05:00:00Z,-26.85,-65.08,18.0,17.0,20,5,,4.97,29.970472,,,,,,,,,,,SCT,1800,OVC,3500,,,,,MVFR,,,,,,,,,,,,METAR,450.0
SAME 120500Z 36008KT CAVOK 21/12 Q1013,SAME,2019-01-12T05:00:00Z,-32.82,-68.77,21.0,12.0,360,8,,6.21,29.911417,,,,,,,,,,,CAVOK,,,,,,,,VFR,,,,,,,,,,,,METAR,704.0
SAEZ 120500Z 11005KT CAVOK 16/12 Q1016 NOSIG,SAEZ,2019-01-12T05:00:00Z,-34.82,-58.52,16.0,12.0,110,5,,6.21,30.0,,,,,,TRUE,,,,,CAVOK,,,,,,,,VFR,,,,,,,,,,,,METAR,20.0
SACO 120500Z 35003KT 9999 SCT030 SCT060 18/17 Q1016 BECMG 34005KT 5000 BR BKN020,SACO,2019-01-12T05:00:00Z,-31.32,-64.22,18.0,17.0,350,3,,6.21,30.0,,,,,,,,,,,SCT,3000,SCT,6000,,,,,VFR,,,,,,,,,,,,METAR,474.0
SABE 120500Z 08012KT CAVOK 21/15 Q1016 NOSIG,SABE,2019-01-12T05:00:00Z,-34.57,-58.42,21.0,15.0,80,12,,6.21,30.0,,,,,,TRUE,,,,,CAVOK,,,,,,,,VFR,,,,,,,,,,,,METAR,6.0
SAAR 120500Z 05006KT CAVOK 21/17 Q1015,SAAR,2019-01-12T05:00:00Z,-32.92,-60.77,21.0,17.0,50,6,,6.21,29.970472,,,,,,,,,,,CAVOK,,,,,,,,VFR,,,,,,,,,,,,METAR,25.0
FQLC 120500Z 02004KT 2000 VCFG SCT002 FEW020CB OVC070 18/18 Q1019 RMK CB TO S/W,FQLC,2019-01-12T05:00:00Z,-13.27,35.25,18.0,18.0,20,4,,1.24,30.088583,,,,,,,,,,VCFG,SCT,200,FEW,2000,OVC,7000,,,IFR,,,,,,,,,,,,METAR,1365.0
LQMO 120500Z VRB02KT CAVOK M04/M09 Q1015,LQMO,2019-01-12T05:00:00Z,43.28,17.83,-4.0,-9.0,0,2,,6.21,29.970472,,,,,,,,,,,CAVOK,,,,,,,,VFR,,,,,,,,,,,,METAR,48.0
LKKV 120500Z VRB11KT 9999 FEW008 OVC011 00/M01 Q1015 R29///////,LKKV,2019-01-12T05:00:00Z,50.2,12.92,0.0,-1.0,0,11,,6.21,29.970472,,,,,,,,,,,FEW,800,OVC,1100,,,,,MVFR,,,,,,,,,,,,METAR,604.0
CWXI 120500Z AUTO 23021KT M03/M04 RMK AO1 2PAST HR 3007 PK WND 22029/0403 SLP027 P0001 T10261040 50002,CWXI,2019-01-12T05:00:00Z,51.02,-57.1,-2.6,-4.0,230,21,,,,1002.7,,TRUE,TRUE,,,,,,,,,,,,,,,,0.2,,,,,0.01,,,,,,METAR,6.0
CWBK 120500Z AUTO 27011G18KT M10/M14 RMK AO1 SOG 75 3015 PK WND 29019/0403 SLP134 T11011140,CWBK,2019-01-12T05:00:00Z,45.77,-62.67,-10.1,-14.0,270,11,18,,,1013.4,,TRUE,TRUE,,,,,,,,,,,,,,,,,,,,,,,,,,,METAR,2.0
CERM 120500Z AUTO 31006KT M16/M20 RMK AO1 SOG 50 3009 SLP153 T11601200 50002,CERM,2019-01-12T05:00:00Z,47.42,-68.32,-16.0,-20.0,310,6,,,,1015.3,,TRUE,TRUE,,,,,,,,,,,,,,,,0.2,,,,,,,,,,,METAR,154.0
CXWN 120500Z AUTO 02002KT M11/M14 RMK AO1 SLP324 T11131138 53007,CXWN,2019-01-12T05:00:00Z,49.88,-97.13,-11.3,-13.8,20,2,,,,1032.4,,TRUE,TRUE,,,,,,,,,,,,,,,,0.7,,,,,,,,,,,METAR,230.0
CXTP 120500Z AUTO 22005KT M03/M04 RMK AO1 SOG 35 1020 SLP105 T10271039,CXTP,2019-01-12T05:00:00Z,48.55,-53.97,-2.7,-3.9,220,5,,,,1010.5,,TRUE,TRUE,,,,,,,,,,,,,,,,,,,,,,,,,,,METAR,107.0
CXSH 120500Z AUTO 31008KT M18/M24 RMK AO1 SLP260 T11831238 51013,CXSH,2019-01-12T05:00:00Z,46.58,-72.73,-18.3,-23.8,310,8,,,,1026.0,,TRUE,TRUE,,,,,,,,,,,,,,,,1.3,,,,,,,,,,,METAR,110.0
CXRH 120500Z AUTO 21006KT RMK AO1,CXRH,2019-01-12T05:00:00Z,49.57,-57.88,,,210,6,,,,,,TRUE,TRUE,,,,,,,,,,,,,,,,,,,,,,,,,,,METAR,68.0
CXOX 120500Z AUTO 16008KT M17/M20 RMK AO1 SOG 47 8018 SLP266 T11691195,CXOX,2019-01-12T05:00:00Z,55.15,-105.27,-16.9,-19.5,160,8,,,,1026.6,,TRUE,TRUE,,,,,,,,,,,,,,,,,,,,,,,,,,,METAR,379.0
CXNM 120500Z AUTO 26015G20KT M12/M12 RMK AO1 SOG 217 PK WND 25021/0429 T11161123,CXNM,2019-01-12T05:00:00Z,46.82,-60.67,-11.6,-12.3,260,15,20,,,,,TRUE,TRUE,,,,,,,,,,,,,,,,,,,,,,,,,,,METAR,439.0
CXMM 120500Z AUTO 11006KT M09/M11 RMK AO1 SOG 27 8010 SLP135 T10881109,CXMM,2019-01-12T05:00:00Z,56.65,-111.22,-8.8,-10.9,110,6,,,,1013.5,,TRUE,TRUE,,,,,,,,,,,,,,,,,,,,,,,,,,,METAR,369.0
CXMI 120500Z AUTO 28008KT M08/ RMK AO1 PK WND 25021/0417 SLP153 T1075 53016,CXMI,2019-01-12T05:00:00Z,44.6,-63.53,-7.5,,280,8,,,,1015.3,,TRUE,TRUE,,,,,,,,,,,,,,,,1.6,,,,,,,,,,,METAR,15.0
CXMD 120500Z AUTO 36005KT M11/M13 RMK AO1 SOG 17 2008 SLP325 T11071126,CXMD,2019-01-12T05:00:00Z,49.22,-98.08,-10.7,-12.6,360,5,,,,1032.5,,TRUE,TRUE,,,,,,,,,,,,,,,,,,,,,,,,,,,METAR,301.0
CXIB 120500Z AUTO 22003KT M07/M11 RMK AO1 SOG 35 3016 SLP108 T10661111,CXIB,2019-01-12T05:00:00Z,46.67,-60.38,-6.6,-11.1,220,3,,,,1010.8,,TRUE,TRUE,,,,,,,,,,,,,,,,,,,,,,,,,,,METAR,8.0
CXHF 120500Z AUTO M18/M22 RMK AO1 T11751215,CXHF,2019-01-12T05:00:00Z,45.83,-75.65,-17.5,-21.5,,,,,,,,TRUE,TRUE,,,,,,,,,,,,,,,,,,,,,,,,,,,METAR,190.0
CXHA 120500Z AUTO 08001KT M05/M08 RMK AO1 SOG 01 0002 SLP303 T10501075,CXHA,2019-01-12T05:00:00Z,42.03,-82.9,-5.0,-7.5,80,1,,,,1030.3,,TRUE,TRUE,,,,,,,,,,,,,,,,,,,,,,,,,,,METAR,191.0
CXGH 120500Z AUTO 36008KT M16/M18 RMK AO1 SLP326 T11621180 53008,CXGH,2019-01-12T05:00:00Z,50.63,-97.0,-16.2,-18.0,360,8,,,,1032.6,,TRUE,TRUE,,,,,,,,,,,,,,,,0.8,,,,,,,,,,,METAR,217.0
CXET 120500Z AUTO 12002KT M12/M14 RMK AO1 SOG 06 8005 SLP316 T11201141,CXET,2019-01-12T05:00:00Z,44.23,-79.78,-12.0,-14.1,120,2,,,,1031.6,,TRUE,TRUE,,,,,,,,,,,,,,,,,,,,,,,,,,,METAR,251.0
CXEG 120500Z AUTO M09/M11 RMK AO1 T10931112,CXEG,2019-01-12T05:00:00Z,53.3,-113.6,-9.3,-11.2,,,,,,,,TRUE,TRUE,,,,,,,,,,,,,,,,,,,,,,,,,,,METAR,715.0
CXEC 120500Z AUTO 20003KT M06/M10 RMK AO1 SOG 25 5003 SLP156 T10621096,CXEC,2019-01-12T05:00:00Z,53.57,-113.52,-6.2,-9.6,200,3,,,,1015.6,,TRUE,TRUE,,,,,,,,,,,,,,,,,,,,,,,,,,,METAR,671.0
CXEA 120500Z AUTO 07003KT M16/M18 RMK AO1 SOG 35 1014 SLP354 T11561179,CXEA,2019-01-12T05:00:00Z,50.63,-93.22,-15.6,-17.9,70,3,,,,1035.4,,TRUE,TRUE,,,,,,,,,,,,,,,,,,,,,,,,,,,METAR,355.0
CXDW 120500Z AUTO 34007KT M11/M13 RMK AO1 SOG 05 2006 SLP328 T11121126,CXDW,2019-01-12T05:00:00Z,49.4,-98.32,-11.2,-12.6,340,7,,,,1032.8,,TRUE,TRUE,,,,,,,,,,,,,,,,,,,,,,,,,,,METAR,341.0
CXDI 120500Z AUTO 05001KT M06/M13 RMK AO1 SOG 01 6004 SLP309 T10621128,CXDI,2019-01-12T05:00:00Z,42.87,-80.55,-6.2,-12.8,50,1,,,,1030.9,,TRUE,TRUE,,,,,,,,,,,,,,,,,,,,,,,,,,,METAR,232.0
CXDE 120500Z AUTO 29007KT M32/M36 RMK AO1 SOG 19 3001 SLP127 T13191355,CXDE,2019-01-12T05:00:00Z,65.22,-123.43,-31.9,-35.5,290,7,,,,1012.7,,TRUE,TRUE,,,,,,,,,,,,,,,,,,,,,,,,,,,METAR,213.0
CXCK 120500Z AUTO 33002KT M26/M29 RMK AO1 SOG 13 3028 SLP114 T12591288,CXCK,2019-01-12T05:00:00Z,62.12,-136.2,-25.9,-28.8,330,2,,,,1011.4,,TRUE,TRUE,,,,,,,,,,,,,,,,,,,,,,,,,,,METAR,540.0
CXCA 120500Z AUTO 02001KT M12/M17 RMK AO1 SOG 20 3016 SLP359 T11171166,CXCA,2019-01-12T05:00:00Z,49.15,-88.35,-11.7,-16.6,20,1,,,,1035.9,,TRUE,TRUE,,,,,,,,,,,,,,,,,,,,,,,,,,,METAR,228.0
CXBO 120500Z AUTO 25012G17KT RMK AO1 PK WND 25020/0426,CXBO,2019-01-12T05:00:00Z,46.83,-71.2,,,250,12,17,,,,,TRUE,TRUE,,,,,,,,,,,,,,,,,,,,,,,,,,,METAR,100.0
CXKT 120500Z AUTO 26010G15KT M12/M14 RMK AO1 2PAST HR SOG 07 3018 PK WND 26017/0439 SLP158 P0001 T11231144 50002,CXKT,2019-01-12T05:00:00Z,45.07,-64.48,-12.3,-14.4,260,10,15,,,1015.8,,TRUE,TRUE,,,,,,,,,,,,,,,,0.2,,,,,0.01,,,,,,METAR,49.0
CXBK 120500Z AUTO 14009KT M13/M15 RMK AO1 SOG 02 5004 SLP293 T11271146,CXBK,2019-01-12T05:00:00Z,50.2,-104.7,-12.7,-14.6,140,9,,,,1029.3,,TRUE,TRUE,,,,,,,,,,,,,,,,,,,,,,,,,,,METAR,580.0
CXKE 120500Z AUTO 26002KT M17/M22 RMK AO1 SOG 08 1005 SLP320 T11651215,CXKE,2019-01-12T05:00:00Z,45.0,-75.63,-16.5,-21.5,260,2,,,,1032.0,,TRUE,TRUE,,,,,,,,,,,,,,,,,,,,,,,,,,,METAR,99.0
CXKA 120500Z AUTO 27005KT M24/M27 RMK AO1 SOG 37 3014 SLP352 T12441267,CXKA,2019-01-12T05:00:00Z,49.4,-82.45,-24.4,-26.7,270,5,,,,1035.2,,TRUE,TRUE,,,,,,,,,,,,,,,,,,,,,,,,,,,METAR,218.0
CXHM 120500Z AUTO 34001KT M06/M09 RMK AO1 SLP319 T10561086 55001,CXHM,2019-01-12T05:00:00Z,43.28,-79.9,-5.6,-8.6,340,1,,,,1031.9,,TRUE,TRUE,,,,,,,,,,,,,,,,-0.1,,,,,,,,,,,METAR,107.0
CWZS 120500Z AUTO 30007KT M15/M19 RMK AO1 PK WND 31018/0439 SLP125 T11541192 53015,CWZS,2019-01-12T05:00:00Z,48.47,-67.43,-15.4,-19.2,300,7,,,,1012.5,,TRUE,TRUE,,,,,,,,,,,,,,,,1.5,,,,,,,,,,,METAR,166.0
CWZO 120500Z AUTO 02010KT RMK AO1,CWZO,2019-01-12T05:00:00Z,48.55,-123.23,,,20,10,,,,,,TRUE,TRUE,,,,,,,,,,,,,,,,,,,,,,,,,,,METAR,1.0
CWZA 120500Z AUTO 32005KT 09/03 RMK AO1 PK WND 02017/0400 SLP144 T00890033 55003,CWZA,2019-01-12T05:00:00Z,49.25,-121.77,8.9,3.3,320,5,,,,1014.4,,TRUE,TRUE,,,,,,,,,,,,,,,,-0.3,,,,,,,,,,,METAR,15.0
CWYY 120500Z AUTO 14006KT 03/01 RMK AO1 SLP226 T00320008 53004,CWYY,2019-01-12T05:00:00Z,49.03,-119.43,3.2,0.8,140,6,,,,1022.6,,TRUE,TRUE,,,,,,,,,,,,,,,,0.4,,,,,,,,,,,METAR,283.0
CWYJ 120500Z AUTO 35006KT 08/05 RMK AO1 SLP133 T00840048 53002,CWYJ,2019-01-12T05:00:00Z,48.45,-123.3,8.4,4.8,350,6,,,,1013.3,,TRUE,TRUE,,,,,,,,,,,,,,,,0.2,,,,,,,,,,,METAR,39.0
CWWB 120500Z AUTO 35006KT M05/M11 RMK AO1 SLP319 T10451113 55001,CWWB,2019-01-12T05:00:00Z,43.3,-79.78,-4.5,-11.3,350,6,,,,1031.9,,TRUE,TRUE,,,,,,,,,,,,,,,,-0.1,,,,,,,,,,,METAR,76.0
CWNZ 120500Z AUTO 33005KT M21/M24 RMK AO1 SOG 47 3011 SLP357 T12061242,CWNZ,2019-01-12T05:00:00Z,49.75,-84.17,-20.6,-24.2,330,5,,,,1035.7,,TRUE,TRUE,,,,,,,,,,,,,,,,,,,,,,,,,,,METAR,256.0
CWNC 120500Z AUTO 36006KT M09/M17 RMK AO1 SLP318 T10941174 58001,CWNC,2019-01-12T05:00:00Z,43.95,-78.17,-9.4,-17.4,360,6,,,,1031.8,,TRUE,TRUE,,,,,,,,,,,,,,,,-0.1,,,,,,,,,,,METAR,78.0
CWDV 120500Z AUTO 07004KT M13/M16 RMK AO1 SOG 44 3015 SLP339 T11311158,CWDV,2019-01-12T05:00:00Z,49.02,-90.47,-13.1,-15.8,70,4,,,,1033.9,,TRUE,TRUE,,,,,,,,,,,,,,,,,,,,,,,,,,,METAR,489.0
CWWZ 120500Z AUTO 15004KT M06/M11 RMK AO1 SOG 02 7003 SLP322 T10561112,CWWZ,2019-01-12T05:00:00Z,43.25,-79.22,-5.6,-11.2,150,4,,,,1032.2,,TRUE,TRUE,,,,,,,,,,,,,,,,,,,,,,,,,,,METAR,79.0
CWPO 120500Z AUTO 36006KT M12/M14 RMK AO1 SLP335 T11201136 52009,CWPO,2019-01-12T05:00:00Z,49.2,-98.9,-12.0,-13.6,360,6,,,,1033.5,,TRUE,TRUE,,,,,,,,,,,,,,,,0.9,,,,,,,,,,,METAR,470.0
CWPC 120500Z AUTO 06001KT M06/M11 RMK AO1 SLP322 T10581108 56001,CWPC,2019-01-12T05:00:00Z,42.87,-79.25,-5.8,-10.8,60,1,,,,1032.2,,TRUE,TRUE,,,,,,,,,,,,,,,,-0.1,,,,,,,,,,,METAR,184.0
CWLS 120500Z AUTO 01001KT M10/M14 RMK AO1 SOG 11 8002 SLP314 T11011136,CWLS,2019-01-12T05:00:00Z,43.97,-80.75,-10.1,-13.6,10,1,,,,1031.4,,TRUE,TRUE,,,,,,,,,,,,,,,,,,,,,,,,,,,METAR,415.0
CWBE 120500Z AUTO 34004KT M12/M20 RMK AO1 SLP340 T11221195 50002,CWBE,2019-01-12T05:00:00Z,45.98,-81.48,-12.2,-19.5,340,4,,,,1034.0,,TRUE,TRUE,,,,,,,,,,,,,,,,0.2,,,,,,,,,,,METAR,196.0
CTCK 120500Z AUTO 28004KT M17/M22 RMK AO1 SOG 07 1005 SLP320 T11691216,CTCK,2019-01-12T05:00:00Z,45.25,-74.97,-16.9,-21.6,280,4,,,,1032.0,,TRUE,TRUE,,,,,,,,,,,,,,,,,,,,,,,,,,,METAR,85.0
CWIK 120500Z AUTO 15007KT M12/M15 RMK AO1 SOG 06 0001 SLP320 T11231146,CWIK,2019-01-12T05:00:00Z,50.37,-102.58,-12.3,-14.6,150,7,,,,1032.0,,TRUE,TRUE,,,,,,,,,,,,,,,,,,,,,,,,,,,METAR,602.0
CWBU 120500Z AUTO 16006KT M14/M16 RMK AO1 SOG 27 8006 SLP310 T11421162,CWBU,2019-01-12T05:00:00Z,53.33,-104.02,-14.2,-16.2,160,6,,,,1031.0,,TRUE,TRUE,,,,,,,,,,,,,,,,,,,,,,,,,,,METAR,373.0
CWMQ 120500Z AUTO 18017G22KT 01/M04 RMK AO1 PK WND 19023/0431 SLP211 T00121044 56010,CWMQ,2019-01-12T05:00:00Z,49.9,-109.47,1.2,-4.4,180,17,22,,,1021.1,,TRUE,TRUE,,,,,,,,,,,,,,,,-1.0,,,,,,,,,,,METAR,767.0
CWMM 120500Z AUTO 08001KT 04/03 RMK AO1 SLP142 T00420031 53006,CWMM,2019-01-12T05:00:00Z,49.22,-122.68,4.2,3.1,80,1,,,,1014.2,,TRUE,TRUE,,,,,,,,,,,,,,,,0.6,,,,,,,,,,,METAR,5.0
CWMJ 120500Z AUTO 27003KT M25/M27 RMK AO1 SOG 32 1004 SLP314 T12471268,CWMJ,2019-01-12T05:00:00Z,46.27,-76.0,-24.7,-26.8,270,3,,,,1031.4,,TRUE,TRUE,,,,,,,,,,,,,,,,,,,,,,,,,,,METAR,200.0
CWLM 120500Z AUTO 01010KT 08/04 RMK AO1 SLP131 T00820035 53002,CWLM,2019-01-12T05:00:00Z,48.42,-123.32,8.2,3.5,10,10,,,,1013.1,,TRUE,TRUE,,,,,,,,,,,,,,,,0.2,,,,,,,,,,,METAR,70.0
CWLE 120500Z AUTO 14007KT M13/M15 RMK AO1 SOG 14 8015 SLP261 T11331150,CWLE,2019-01-12T05:00:00Z,50.95,-107.15,-13.3,-15.0,140,7,,,,1026.1,,TRUE,TRUE,,,,,,,,,,,,,,,,,,,,,,,,,,,METAR,665.0
CWKX 120500Z AUTO 28001KT M13/M14 RMK AO1 SOG 39 3024 SLP115 T11271144,CWKX,2019-01-12T05:00:00Z,58.43,-130.02,-12.7,-14.4,280,1,,,,1011.5,,TRUE,TRUE,,,,,,,,,,,,,,,,,,,,,,,,,,,METAR,793.0
CWKH 120500Z AUTO 07/03 RMK AO1 SLP127 T00670031 55000,CWKH,2019-01-12T05:00:00Z,48.57,-123.55,6.7,3.1,,,,,,1012.7,,TRUE,TRUE,,,,,,,,,,,,,,,,0.0,,,,,,,,,,,METAR,366.0
CWKG 120500Z AUTO 31005KT M11/M14 RMK AO1 SOG 06 3020 SLP175 T11131142,CWKG,2019-01-12T05:00:00Z,44.43,-65.2,-11.3,-14.2,310,5,,,,1017.5,,TRUE,TRUE,,,,,,,,,,,,,,,,,,,,,,,,,,,METAR,165.0
CWJX 120500Z AUTO 11006KT M11/M13 RMK AO1 SOG 03 6013 SLP222 T11071130,CWJX,2019-01-12T05:00:00Z,50.88,-109.5,-10.7,-13.0,110,6,,,,1022.2,,TRUE,TRUE,,,,,,,,,,,,,,,,,,,,,,,,,,,METAR,672.0
CWJW 120500Z AUTO 00000KT M03/M04 RMK AO1 SOG 17 1004 SLP194 T10251035,CWJW,2019-01-12T05:00:00Z,52.93,-118.03,-2.5,-3.5,0,0,,,,1019.4,,TRUE,TRUE,,,,,,,,,,,,,,,,,,,,,,,,,,,METAR,1020.0
CWJV 120500Z AUTO 11005KT M02/M02 RMK AO1 SLP224 T10151015 51005,CWJV,2019-01-12T05:00:00Z,50.22,-119.18,-1.5,-1.5,110,5,,,,1022.4,,TRUE,TRUE,,,,,,,,,,,,,,,,0.5,,,,,,,,,,,METAR,556.0
CWJT 120500Z AUTO 06001KT M25/M28 RMK AO1 SLP313 T12501276 50000,CWJT,2019-01-12T05:00:00Z,46.07,-74.57,-25.0,-27.6,60,1,,,,1031.3,,TRUE,TRUE,,,,,,,,,,,,,,,,0.0,,,,,,,,,,,METAR,239.0
CWJR 120500Z AUTO 13001KT M02/M02 RMK AO1 SOG 05 2002 SLP266 T10161018,CWJR,2019-01-12T05:00:00Z,49.07,-116.5,-1.6,-1.8,130,1,,,,1026.6,,TRUE,TRUE,,,,,,,,,,,,,,,,,,,,,,,,,,,METAR,646.0
CWJI 120500Z AUTO 13007KT M13/M15 RMK AO1 SLP288 T11261149 56008,CWJI,2019-01-12T05:00:00Z,49.72,-105.92,-12.6,-14.9,130,7,,,,1028.8,,TRUE,TRUE,,,,,,,,,,,,,,,,-0.8,,,,,,,,,,,METAR,724.0
FMNA 120500Z 00000KT 9999 FEW020CB 28/22 Q1012,FMNA,2019-01-12T05:00:00Z,-12.33,49.28,28.0,22.0,0,0,,6.21,29.88189,,,,,,,,,,,FEW,2000,,,,,,,VFR,,,,,,,,,,,,METAR,105.0
DAUU 120500Z 31008KT CAVOK 03/M04 Q1024,DAUU,2019-01-12T05:00:00Z,31.92,5.4,3.0,-4.0,310,8,,6.21,30.236221,,,,,,,,,,,CAVOK,,,,,,,,VFR,,,,,,,,,,,,METAR,141.0
DAUT 120500Z 01009KT CAVOK 04/M01 Q1025,DAUT,2019-01-12T05:00:00Z,29.25,0.27,4.0,-1.0,10,9,,6.21,30.265747,,,,,,,,,,,CAVOK,,,,,,,,VFR,,,,,,,,,,,,METAR,312.0
DAUO 120500Z 29006KT CAVOK 03/M02 Q1022,DAUO,2019-01-12T05:00:00Z,33.5,6.78,3.0,-2.0,290,6,,6.21,30.177166,,,,,,,,,,,CAVOK,,,,,,,,VFR,,,,,,,,,,,,METAR,63.0
DAUL 120500Z 00000KT CAVOK M01/M02 Q1025,DAUL,2019-01-12T05:00:00Z,33.77,2.92,-1.0,-2.0,0,0,,6.21,30.265747,,,,,,,,,,,CAVOK,,,,,,,,VFR,,,,,,,,,,,,METAR,765.0
DAUK 120500Z 31008KT CAVOK 04/M01 Q1023,DAUK,2019-01-12T05:00:00Z,33.08,6.12,4.0,-1.0,310,8,,6.21,30.206694,,,,,,,,,,,CAVOK,,,,,,,,VFR,,,,,,,,,,,,METAR,85.0
DAUI 120500Z 03008KT CAVOK 07/M06 Q1023,DAUI,2019-01-12T05:00:00Z,27.25,2.52,7.0,-6.0,30,8,,6.21,30.206694,,,,,,,,,,,CAVOK,,,,,,,,VFR,,,,,,,,,,,,METAR,269.0
DAUE 120500Z 35004KT CAVOK M02/M06 Q1025,DAUE,2019-01-12T05:00:00Z,30.57,2.87,-2.0,-6.0,350,4,,6.21,30.265747,,,,,,,,,,,CAVOK,,,,,,,,VFR,,,,,,,,,,,,METAR,397.0
WBSB 120500Z 36007KT 9999 SCT016 FEW017CB BKN300 32/24 Q1010 NOSIG,WBSB,2019-01-12T05:00:00Z,4.92,114.92,32.0,24.0,360,7,,6.21,29.822834,,,,,,TRUE,,,,,SCT,1600,FEW,1700,BKN,30000,,,VFR,,,,,,,,,,,,METAR,15.0
WMSA 120500Z VRB02KT 9999 FEW019 BKN280 33/22 Q1011,WMSA,2019-01-12T05:00:00Z,3.13,101.55,33.0,22.0,0,2,,6.21,29.852362,,,,,,,,,,,FEW,1900,BKN,28000,,,,,VFR,,,,,,,,,,,,METAR,27.0
WMKK 120500Z VRB04KT 9999 FEW018 SCT140 BKN280 33/22 Q1011 NOSIG,WMKK,2019-01-12T05:00:00Z,2.75,101.72,33.0,22.0,0,4,,6.21,29.852362,,,,,,TRUE,,,,,FEW,1800,SCT,14000,BKN,28000,,,VFR,,,,,,,,,,,,METAR,22.0
WMKJ 120500Z 04006KT 300V080 9999 SCT018 BKN300 32/25 Q1010,WMKJ,2019-01-12T05:00:00Z,1.62,103.67,32.0,25.0,40,6,,6.21,29.822834,,,,,,,,,,,SCT,1800,BKN,30000,,,,,VFR,,,,,,,,,,,,METAR,40.0
WBGG 120500Z 00000KT 9999 SCT020 SCT150 BKN300 32/24 Q1009 NOSIG,WBGG,2019-01-12T05:00:00Z,1.47,110.35,32.0,24.0,0,0,,6.21,29.793306,,,,,,TRUE,,,,,SCT,2000,SCT,15000,BKN,30000,,,VFR,,,,,,,,,,,,METAR,27.0
WBKW 120500Z VRB02KT 9999 FEW017 BKN280 30/25 Q1009,WBKW,2019-01-12T05:00:00Z,4.32,118.12,30.0,25.0,0,2,,6.21,29.793306,,,,,,,,,,,FEW,1700,BKN,28000,,,,,VFR,,,,,,,,,,,,METAR,20.0
WBGR 120500Z VRB05KT 9999 FEW015CB SCT016 BKN300 31/26 Q1009,WBGR,2019-01-12T05:00:00Z,4.32,113.97,31.0,26.0,0,5,,6.21,29.793306,,,,,,,,,,,FEW,1500,SCT,1600,BKN,30000,,,VFR,,,,,,,,,,,,METAR,18.0
WBKT 120500Z VRB08KT 9999 FEW013 SCT140 BKN270 29/25 Q1010,WBKT,2019-01-12T05:00:00Z,6.92,116.82,29.0,25.0,0,8,,6.21,29.822834,,,,,,,,,,,FEW,1300,SCT,14000,BKN,27000,,,VFR,,,,,,,,,,,,METAR,5.0
WBKS 120500Z 04011KT 010V080 9999 SCT015 BKN300 31/25 Q1010,WBKS,2019-01-12T05:00:00Z,5.9,118.07,31.0,25.0,40,11,,6.21,29.822834,,,,,,,,,,,SCT,1500,BKN,30000,,,,,VFR,,,,,,,,,,,,METAR,13.0
WBKL 120500Z VRB04KT 9999 FEW012 BKN300 31/26 Q1009,WBKL,2019-01-12T05:00:00Z,5.28,115.25,31.0,26.0,0,4,,6.21,29.793306,,,,,,,,,,,FEW,1200,BKN,30000,,,,,VFR,,,,,,,,,,,,METAR,30.0
WBGY 120500Z VRB02KT 9999 SCT023 SCT300 32/25 Q1009,WBGY,2019-01-12T05:00:00Z,1.22,111.43,32.0,25.0,0,2,,6.21,29.793306,,,,,,,,,,,SCT,2300,SCT,30000,,,,,VFR,,,,,,,,,,,,METAR,34.0
WBGB 120500Z VRB07KT 9999 SCT014 FEW015CB BKN150 30/26 Q1010,WBGB,2019-01-12T05:00:00Z,3.12,113.02,30.0,26.0,0,7,,6.21,29.822834,,,,,,,,,,,SCT,1400,FEW,1500,BKN,15000,,,VFR,,,,,,,,,,,,METAR,5.0
WAHS 120500Z 32011KT 6000 SCT014 31/25 Q1009 NOSIG,WAHS,2019-01-12T05:00:00Z,-6.98,110.38,31.0,25.0,320,11,,3.73,29.793306,,,,,,TRUE,,,,,SCT,1400,,,,,,,MVFR,,,,,,,,,,,,METAR,5.0
WAOO 120500Z 33003KT 9999 SCT017 31/25 Q1009,WAOO,2019-01-12T05:00:00Z,-3.45,114.77,31.0,25.0,330,3,,6.21,29.793306,,,,,,,,,,,SCT,1700,,,,,,,VFR,,,,,,,,,,,,METAR,20.0
WIOO 120500Z 04006KT 9999 BKN013 31/23 Q1009,WIOO,2019-01-12T05:00:00Z,-0.15,109.4,31.0,23.0,40,6,,6.21,29.793306,,,,,,,,,,,BKN,1300,,,,,,,MVFR,,,,,,,,,,,,METAR,3.0
WIPP 120500Z 30010KT 9999 BKN012 31/24 Q1010 NOSIG,WIPP,2019-01-12T05:00:00Z,-2.88,104.7,31.0,24.0,300,10,,6.21,29.822834,,,,,,TRUE,,,,,BKN,1200,,,,,,,MVFR,,,,,,,,,,,,METAR,10.0
WIEE 120500Z VRB06KT 9999 VCTS BKN020 27/23 Q1011,WIEE,2019-01-12T05:00:00Z,-0.78,100.28,27.0,23.0,0,6,,6.21,29.852362,,,,,,,,,,VCTS,BKN,2000,,,,,,,MVFR,,,,,,,,,,,,METAR,5.0
NZCH 120500Z AUTO 07017KT 9999 BKN023/// OVC032/// 17/11 Q1022 NOSIG,NZCH,2019-01-12T05:00:00Z,-43.47,172.55,17.0,11.0,70,17,,6.21,30.177166,,,TRUE,,,TRUE,,,,,BKN,2300,OVC,3200,,,,,MVFR,,,,,,,,,,,,METAR,34.0
NZWN 120500Z AUTO 22008KT 9999 NCD 22/15 Q1022 NOSIG,NZWN,2019-01-12T05:00:00Z,-41.32,174.8,22.0,15.0,220,8,,6.21,30.177166,,,TRUE,,,TRUE,,,,,CLR,,,,,,,,VFR,,,,,,,,,,,,METAR,7.0
NZAA 120500Z AUTO 05011KT 350V080 9999 NCD 26/15 Q1019 NOSIG,NZAA,2019-01-12T05:00:00Z,-37.02,174.8,26.0,15.0,50,11,,6.21,30.088583,,,TRUE,,,TRUE,,,,,CLR,,,,,,,,VFR,,,,,,,,,,,,METAR,6.0
SBSP 120500Z AUTO 19004KT 7000 FEW020 22/20 Q1019,SBSP,2019-01-12T05:00:00Z,-23.62,-46.63,22.0,20.0,190,4,,4.35,30.088583,,,TRUE,,,,,,,,FEW,2000,,,,,,,MVFR,,,,,,,,,,,,METAR,803.0
OPNH 120500Z 31504KT 2000 FU SCT100 16/08 Q1010 BECMG 3000 FU,OPNH,2019-01-12T05:00:00Z,26.22,68.37,16.0,8.0,315,4,,1.24,29.822834,,,,,,,,,,FU,SCT,10000,,,,,,,IFR,,,,,,,,,,,,METAR,38.0
CWRT 120500Z AUTO 29008G15KT 03/M06 RMK AO1 PK WND 29020/0427 T00251055,CWRT,2019-01-12T05:00:00Z,49.62,-114.47,2.5,-5.5,290,8,15,,,,,TRUE,TRUE,,,,,,,,,,,,,,,,,,,,,,,,,,,METAR,1303.0
CWRY 120500Z AUTO 21008KT M01/M07 RMK AO1 SOG 03 6003 SLP203 T10141071,CWRY,2019-01-12T05:00:00Z,49.12,-112.03,-1.4,-7.1,210,8,,,,1020.3,,TRUE,TRUE,,,,,,,,,,,,,,,,,,,,,,,,,,,METAR,1050.0
CWRZ 120500Z AUTO 26007KT M08/M10 RMK AO1 SLP057 T10831095 51012,CWRZ,2019-01-12T05:00:00Z,48.42,-64.32,-8.3,-9.5,260,7,,,,1005.7,,TRUE,TRUE,,,,,,,,,,,,,,,,1.2,,,,,,,,,,,METAR,16.0
CWSD 120500Z AUTO 26016KT M14/M18 RMK AO1 SOG 19 3016 PK WND 26020/0453 SLP124 T11361177,CWSD,2019-01-12T05:00:00Z,46.42,-63.85,-13.6,-17.7,260,16,,,,1012.4,,TRUE,TRUE,,,,,,,,,,,,,,,,,,,,,,,,,,,METAR,24.0
CWSG 120500Z AUTO 23019G25KT M11/M13 RMK AO1 PK WND 25027/0401 SLP105 T11141131 53014,CWSG,2019-01-12T05:00:00Z,49.12,-66.65,-11.4,-13.1,230,19,25,,,1010.5,,TRUE,TRUE,,,,,,,,,,,,,,,,1.4,,,,,,,,,,,METAR,5.0
CWSK 120500Z AUTO 01002KT 02/02 RMK AO1 SOG 01 3004 SLP162 T00200018,CWSK,2019-01-12T05:00:00Z,49.78,-123.17,2.0,1.8,10,2,,,,1016.2,,TRUE,TRUE,,,,,,,,,,,,,,,,,,,,,,,,,,,METAR,60.0
CWSL 120500Z AUTO 17001KT M02/ RMK AO1 SOG 14 5000 SLP226 T1016,CWSL,2019-01-12T05:00:00Z,50.7,-119.27,-1.6,,170,1,,,,1022.6,,TRUE,TRUE,,,,,,,,,,,,,,,,,,,,,,,,,,,METAR,351.0
CWSP 120500Z AUTO 10004KT 08/06 RMK AO1 SLP124 T00820059 50001,CWSP,2019-01-12T05:00:00Z,48.38,-123.92,8.2,5.9,100,4,,,,1012.4,,TRUE,TRUE,,,,,,,,,,,,,,,,0.1,,,,,,,,,,,METAR,21.0
CWSR 120500Z AUTO 14004KT M16/M18 RMK AO1 SOG 18 8011 SLP247 T11581180,CWSR,2019-01-12T05:00:00Z,53.37,-107.53,-15.8,-18.0,140,4,,,,1024.7,,TRUE,TRUE,,,,,,,,,,,,,,,,,,,,,,,,,,,METAR,584.0
CWST 120500Z AUTO 28012KT M14/M20 RMK AO1 SOG 27 3010 PK WND 28018/0416 SLP184 T11381199,CWST,2019-01-12T05:00:00Z,47.35,-70.02,-13.8,-19.9,280,12,,,,1018.4,,TRUE,TRUE,,,,,,,,,,,,,,,,,,,,,,,,,,,METAR,31.0
CWEB 120500Z AUTO 13005KT 08/08 RMK AO1 SLP112 T00800077 56001,CWEB,2019-01-12T05:00:00Z,49.38,-126.55,8.0,7.7,130,5,,,,1011.2,,TRUE,TRUE,,,,,,,,,,,,,,,,-0.1,,,,,,,,,,,METAR,7.0
CWEL 120500Z AUTO 09005KT 07/06 RMK AO1 SLP137 T00650059 53001,CWEL,2019-01-12T05:00:00Z,49.22,-123.78,6.5,5.9,90,5,,,,1013.7,,TRUE,TRUE,,,,,,,,,,,,,,,,0.1,,,,,,,,,,,METAR,5.0
CWFF 120500Z AUTO 17009KT M12/M14 RMK AO1 SOG 20 8004 SLP301 T11201144,CWFF,2019-01-12T05:00:00Z,52.82,-104.58,-12.0,-14.4,170,9,,,,1030.1,,TRUE,TRUE,,,,,,,,,,,,,,,,,,,,,,,,,,,METAR,490.0
CWEW 120500Z AUTO 24005KT M19/M24 RMK AO1 SOG 14 1006 SLP297 T11871236,CWEW,2019-01-12T05:00:00Z,45.82,-73.43,-18.7,-23.6,240,5,,,,1029.7,,TRUE,TRUE,,,,,,,,,,,,,,,,,,,,,,,,,,,METAR,21.0
CWFQ 120500Z AUTO 28003KT M18/M22 RMK AO1 SOG 24 1006 SLP285 T11811220,CWFQ,2019-01-12T05:00:00Z,45.03,-72.82,-18.1,-22.0,280,3,,,,1028.5,,TRUE,TRUE,,,,,,,,,,,,,,,,,,,,,,,,,,,METAR,152.0
CWFJ 120500Z AUTO 14004KT 02/M11 RMK AO1 T00181106,CWFJ,2019-01-12T05:00:00Z,49.2,-113.27,1.8,-10.6,140,4,,,,,,TRUE,TRUE,,,,,,,,,,,,,,,,,,,,,,,,,,,METAR,1136.0
CWGB 120500Z AUTO 15003KT 07/06 RMK AO1 SLP136 T00740062 53004,CWGB,2019-01-12T05:00:00Z,49.35,-124.17,7.4,6.2,150,3,,,,1013.6,,TRUE,TRUE,,,,,,,,,,,,,,,,0.4,,,,,,,,,,,METAR,5.0
CWGM 120500Z AUTO 23023G33KT 04/M09 RMK AO1 PK WND 23037/0431 T00371086,CWGM,2019-01-12T05:00:00Z,49.13,-113.78,3.7,-8.6,230,23,33,,,,,TRUE,TRUE,,,,,,,,,,,,,,,,,,,,,,,,,,,METAR,1296.0
CWGL 120500Z AUTO 04006KT M11/M16 RMK AO1 SLP317 T11141157 58002,CWGL,2019-01-12T05:00:00Z,44.52,-79.22,-11.4,-15.7,40,6,,,,1031.7,,TRUE,TRUE,,,,,,,,,,,,,,,,-0.2,,,,,,,,,,,METAR,221.0
CWGD 120500Z AUTO 13006KT M07/M11 RMK AO1 SOG 02 7002 SLP312 T10731112,CWGD,2019-01-12T05:00:00Z,43.77,-81.72,-7.3,-11.2,130,6,,,,1031.2,,TRUE,TRUE,,,,,,,,,,,,,,,,,,,,,,,,,,,METAR,214.0
CZSM 120500Z AUTO 13003KT M09/M11 RMK AO1 SOG 39 6020 SLP055 T10911108,CZSM,2019-01-12T05:00:00Z,60.03,-111.93,-9.1,-10.8,130,3,,,,1005.5,,TRUE,TRUE,,,,,,,,,,,,,,,,,,,,,,,,,,,METAR,203.0
CZHY 120500Z AUTO 28005KT M14/M16 RMK AO1 SOG 22 3001 SLP062 T11411157,CZHY,2019-01-12T05:00:00Z,60.83,-115.78,-14.1,-15.7,280,5,,,,1006.2,,TRUE,TRUE,,,,,,,,,,,,,,,,,,,,,,,,,,,METAR,164.0
CZFS 120500Z AUTO 29007KT M23/M25 RMK AO1 SOG 35 3016 SLP110 T12261254,CZFS,2019-01-12T05:00:00Z,61.77,-121.23,-22.6,-25.4,290,7,,,,1011.0,,TRUE,TRUE,,,,,,,,,,,,,,,,,,,,,,,,,,,METAR,168.0
CZEV 120500Z AUTO 28002KT M29/M32 RMK AO1 SOG 50 3002 SLP166 T12921323,CZEV,2019-01-12T05:00:00Z,68.32,-133.52,-29.2,-32.3,280,2,,,,1016.6,,TRUE,TRUE,,,,,,,,,,,,,,,,,,,,,,,,,,,METAR,103.0
CWMT 120500Z AUTO 01001KT M18/M20 RMK AO1 2PAST HR SOG 33 5006 SLP071 P0001 T11791201 50014,CWMT,2019-01-12T05:00:00Z,63.13,-117.25,-17.9,-20.1,10,1,,,,1007.1,,TRUE,TRUE,,,,,,,,,,,,,,,,1.4,,,,,0.01,,,,,,METAR,271.0
CZSP 120500Z AUTO 24013G18KT M11/M15 RMK AO1 SOG 29 1012 PK WND 24019/0422 SLP125 T11141150,CZSP,2019-01-12T05:00:00Z,46.45,-62.58,-11.4,-15.0,240,13,18,,,1012.5,,TRUE,TRUE,,,,,,,,,,,,,,,,,,,,,,,,,,,METAR,30.0
CZCR 120500Z AUTO 25009KT M15/M18 RMK AO1 SOG 36 1013 PK WND 27017/0432 SLP119 T11491175,CZCR,2019-01-12T05:00:00Z,47.97,-66.32,-14.9,-17.5,250,9,,,,1011.9,,TRUE,TRUE,,,,,,,,,,,,,,,,,,,,,,,,,,,METAR,38.0
CWRK 120500Z AUTO 32002KT M14/M20 RMK AO1 SOG 19 0003 SLP317 T11431202,CWRK,2019-01-12T05:00:00Z,45.07,-77.87,-14.3,-20.2,320,2,,,,1031.7,,TRUE,TRUE,,,,,,,,,,,,,,,,,,,,,,,,,,,METAR,331.0
CWRJ 120500Z AUTO 08007KT M16/M18 RMK AO1 SOG 07 6016 SLP252 T11581176,CWRJ,2019-01-12T05:00:00Z,51.57,-107.92,-15.8,-17.6,80,7,,,,1025.2,,TRUE,TRUE,,,,,,,,,,,,,,,,,,,,,,,,,,,METAR,586.0
CWQV 120500Z AUTO 28035G44KT M18/M22 RMK AO1 PK WND 28044/0455 T11821215,CWQV,2019-01-12T05:00:00Z,48.27,-70.12,-18.2,-21.5,280,35,44,,,,,TRUE,TRUE,,,,,,,,,,,,,,,,,,,,,,,,,,,METAR,1.0
CZBF 120500Z AUTO 28011G24KT 9SM -SN OVC080 M15/M20 A2984 RMK SLP111,CZBF,2019-01-12T05:00:00Z,47.62,-65.75,-15.0,-20.0,280,11,24,9.0,29.840551,1011.1,,TRUE,,,,,,,-SN,OVC,8000,,,,,,,VFR,,,,,,,,,,,,METAR,59.0
CYCA 120500Z AUTO 20008KT 9SM FEW085 BKN100 M03/M04 A2955 RMK SLP011,CYCA,2019-01-12T05:00:00Z,53.68,-57.03,-3.0,-4.0,200,8,,9.0,29.551182,1001.1,,TRUE,,,,,,,,FEW,8500,BKN,10000,,,,,VFR,,,,,,,,,,,,METAR,12.0
CWZZ 120500Z AUTO ///// ////SM OVC002 M16/M17 A2960,CWZZ,2019-01-12T05:00:00Z,58.32,-62.57,-16.0,-17.0,,,,,29.601377,,,TRUE,,,,,,,,OVC,200,,,,,,,,,,,,,,,,,,,METAR,483.0
CWUW 120500Z AUTO 03009KT ////SM NCD M28/M31 A3007,CWUW,2019-01-12T05:00:00Z,68.65,-71.17,-28.0,-31.0,30,9,,,30.070866,,,TRUE,,,,,,,,CLR,,,,,,,,,,,,,,,,,,,,METAR,527.0
CWRX 120500Z AUTO 33011KT ////SM //// NCD M33/M36 A3048,CWRX,2019-01-12T05:00:00Z,69.07,-79.02,-33.0,-36.0,330,11,,,30.481298,,,TRUE,,,,,,,,CLR,,,,,,,,,,,,,,,,,,,,METAR,41.0
CWPX 120500Z AUTO 07023KT ////SM //// BKN002 BKN034 OVC075 M36/M41 A3009,CWPX,2019-01-12T05:00:00Z,69.02,-107.82,-36.0,-41.0,70,23,,,30.088583,,,TRUE,,,,,,,,BKN,200,BKN,3400,OVC,7500,,,,,,,,,,,,,,,METAR,165.0
CWNE 120500Z AUTO 26021G27KT M12/M16 RMK AO1 PK WND 26027/0451 SLP108 T11191159 52011,CWNE,2019-01-12T05:00:00Z,47.07,-64.0,-11.9,-15.9,260,21,27,,,1010.8,,TRUE,TRUE,,,,,,,,,,,,,,,,1.1,,,,,,,,,,,METAR,15.0
OKBK 120500Z 30005KT 6000 NSC 06/01 Q1023 NOSIG,OKBK,2019-01-12T05:00:00Z,29.22,47.97,6.0,1.0,300,5,,3.73,30.206694,,,,,,TRUE,,,,,CLR,,,,,,,,MVFR,,,,,,,,,,,,METAR,55.0
OJAM 120500Z 00000KT 2500 BR NSC 01/M00 Q1017 NOSIG,OJAM,2019-01-12T05:00:00Z,31.97,35.97,1.0,0.0,0,0,,1.55,30.029528,,,,,,TRUE,,,,BR,CLR,,,,,,,,IFR,,,,,,,,,,,,METAR,773.0
SBSL 120500Z 32005KT 1000 R06/1000D RA SCT003 BKN013 FEW020TCU 24/23 Q1012,SBSL,2019-01-12T05:00:00Z,-2.6,-44.22,24.0,23.0,320,5,,0.62,29.88189,,,,,,,,,,RA,SCT,300,BKN,1300,FEW,2000,,,LIFR,,,,,,,,,,,,METAR,53.0
SBCF 120500Z 12005KT CAVOK 20/16 Q1018,SBCF,2019-01-12T05:00:00Z,-19.63,-43.97,20.0,16.0,120,5,,6.21,30.059055,,,,,,,,,,,CAVOK,,,,,,,,VFR,,,,,,,,,,,,METAR,828.0
FDSK 120500Z 02005KT CAVOK 27/23 Q1005,FDSK,2019-01-12T05:00:00Z,-26.35,31.72,27.0,23.0,20,5,,6.21,29.675198,,,,,,,,,,,CAVOK,,,,,,,,VFR,,,,,,,,,,,,METAR,324.0
FNLU 120500Z 14004KT 8000 FEW020 BKN080 26/23 Q1011,FNLU,2019-01-12T05:00:00Z,-8.83,13.22,26.0,23.0,140,4,,4.97,29.852362,,,,,,,,,,,FEW,2000,BKN,8000,,,,,MVFR,,,,,,,,,,,,METAR,70.0
ORSU 120500Z 33004KT CAVOK M04/M04 Q1022,ORSU,2019-01-12T05:00:00Z,35.57,45.32,-4.0,-4.0,330,4,,6.21,30.177166,,,,,,,,,,,CAVOK,,,,,,,,VFR,,,,,,,,,,,,METAR,761.0
SBNT 120500Z 16006KT 9999 FEW030 SCT070 26/21 Q1011,SBNT,2019-01-12T05:00:00Z,-5.92,-35.25,26.0,21.0,160,6,,6.21,29.852362,,,,,,,,,,,FEW,3000,SCT,7000,,,,,VFR,,,,,,,,,,,,METAR,49.0
SBAR 120500Z 12008KT 9999 FEW017 27/20 Q1012,SBAR,2019-01-12T05:00:00Z,-10.97,-37.07,27.0,20.0,120,8,,6.21,29.88189,,,,,,,,,,,FEW,1700,,,,,,,VFR,,,,,,,,,,,,METAR,9.0
GVAC 120500Z 03005KT CAVOK 19/16 Q1014 NOSIG,GVAC,2019-01-12T05:00:00Z,16.72,-22.93,19.0,16.0,30,5,,6.21,29.940945,,,,,,TRUE,,,,,CAVOK,,,,,,,,VFR,,,,,,,,,,,,METAR,55.0
SCVM 120500Z 00000KT CAVOK 13/12 Q1018,SCVM,2019-01-12T05:00:00Z,-32.95,-71.48,13.0,12.0,0,0,,6.21,30.059055,,,,,,,,,,,CAVOK,,,,,,,,VFR,,,,,,,,,,,,METAR,141.0
MROC 120500Z 11012KT 080V140 CAVOK 20/14 A3005 NOSIG,MROC,2019-01-12T05:00:00Z,10.0,-84.22,20.0,14.0,110,12,,6.21,30.050198,,,,,,TRUE,,,,,CAVOK,,,,,,,,VFR,,,,,,,,,,,,METAR,920.0
OPSK 120500Z 05006KT 3000 HZ SCT040 SCT100 16/08 Q1016 NOSIG,OPSK,2019-01-12T05:00:00Z,27.72,68.8,16.0,8.0,50,6,,1.86,30.0,,,,,,TRUE,,,,HZ,SCT,4000,SCT,10000,,,,,IFR,,,,,,,,,,,,METAR,58.0
SBPV 120500Z 15001KT 9999 FEW023 SCT100 24/23 Q1011,SBPV,2019-01-12T05:00:00Z,-8.72,-63.9,24.0,23.0,150,1,,6.21,29.852362,,,,,,,,,,,FEW,2300,SCT,10000,,,,,VFR,,,,,,,,,,,,METAR,88.0
OSLK 120500Z 03002KT 9999 FEW030 SCT100 06/02 Q1016,OSLK,2019-01-12T05:00:00Z,35.4,35.95,6.0,2.0,30,2,,6.21,30.0,,,,,,,,,,,FEW,3000,SCT,10000,,,,,VFR,,,,,,,,,,,,METAR,48.0
OSDI 120500Z 04006KT 4000BR M01/M03 Q1018,OSDI,2019-01-12T05:00:00Z,33.42,36.52,-1.0,-3.0,40,6,,,30.059055,,,,,,,,,,BR,,,,,,,,,,,,,,,,,,,,,SPECI,605.0
NFTF 120500Z 10008KT 9999 FEW012 FEW017TCU 28/24 Q1010,NFTF,2019-01-12T05:00:00Z,-21.23,-175.15,28.0,24.0,100,8,,6.21,29.822834,,,,,,,,,,,FEW,1200,FEW,1700,,,,,VFR,,,,,,,,,,,,METAR,38.0
NFTL 120500Z 11014KT 9999 FEW017TCU BKN110 28/24 Q1008,NFTL,2019-01-12T05:00:00Z,-19.78,-174.33,28.0,24.0,110,14,,6.21,29.763779,,,,,,,,,,,FEW,1700,BKN,11000,,,,,VFR,,,,,,,,,,,,METAR,3.0
NFTV 120500Z 09011KT 9999 FEW009 SCT016 BKN290 28/24 Q1008,NFTV,2019-01-12T05:00:00Z,-18.58,-173.97,28.0,24.0,90,11,,6.21,29.763779,,,,,,,,,,,FEW,900,SCT,1600,BKN,29000,,,VFR,,,,,,,,,,,,METAR,71.0
SBRF 120500Z 21005KT 9999 FEW025 SCT060 24/22 Q1010,SBRF,2019-01-12T05:00:00Z,-8.13,-34.92,24.0,22.0,210,5,,6.21,29.822834,,,,,,,,,,,FEW,2500,SCT,6000,,,,,VFR,,,,,,,,,,,,METAR,19.0
SBMN 120500Z 08002KT CAVOK 24/23 Q1012,SBMN,2019-01-12T05:00:00Z,-3.13,-59.97,24.0,23.0,80,2,,6.21,29.88189,,,,,,,,,,,CAVOK,,,,,,,,VFR,,,,,,,,,,,,METAR,84.0
MGHT 120500Z 00000KT 9999 BKN020 14/12,MGHT,2019-01-12T05:00:00Z,15.32,-91.5,14.0,12.0,0,0,,6.21,,,,,,,,,,,,BKN,2000,,,,,,,MVFR,,,,,,,,,,,,METAR,1901.0
MGMM 120500Z 00000KT 9999 SCT020 BKN080 21/19 Q1018 A3006,MGMM,2019-01-12T05:00:00Z,16.97,-89.87,21.0,19.0,0,0,,6.21,30.059055,,,,,,,,,,,SCT,2000,BKN,8000,,,,,VFR,,,,,,,,,,,,METAR,123.0
SBFZ 120500Z 07004KT 9999 SCT018 27/25 Q1011,SBFZ,2019-01-12T05:00:00Z,-3.77,-38.52,27.0,25.0,70,4,,6.21,29.852362,,,,,,,,,,,SCT,1800,,,,,,,VFR,,,,,,,,,,,,METAR,25.0
SVMG 120500Z /////KT 9999 FEW010 26/24 Q1015 NOSIG,SVMG,2019-01-12T05:00:00Z,10.92,-63.97,26.0,24.0,,,,6.21,29.970472,,,,,,TRUE,,,,,FEW,1000,,,,,,,VFR,,,,,,,,,,,,METAR,23.0
MHTG 120500Z 03008KT 9999 FEW012 BKN026 16/15 Q1021 A3015 BECMG 8000 VCSH,MHTG,2019-01-12T05:00:00Z,14.07,-87.22,16.0,15.0,30,8,,6.21,30.147638,,,,,,,,,,,FEW,1200,BKN,2600,,,,,MVFR,,,,,,,,,,,,SPECI,1004.0
MHLM 120500Z 22004KT 9999 FEW008 SCT020 OVC070 21/20 Q1017 A3003 NOSIG,MHLM,2019-01-12T05:00:00Z,15.45,-87.93,21.0,20.0,220,4,,6.21,30.029528,,,,,,TRUE,,,,,FEW,800,SCT,2000,OVC,7000,,,VFR,,,,,,,,,,,,METAR,26.0
MHLC 120500Z 00000KT 9999 SCT028 BKN070 20/19 Q1017 A3003 NOSIG,MHLC,2019-01-12T05:00:00Z,15.75,-86.85,20.0,19.0,0,0,,6.21,30.029528,,,,,,TRUE,,,,,SCT,2800,BKN,7000,,,,,VFR,,,,,,,,,,,,METAR,15.0
MHRO 120500Z 03004KT 9999 FEW020 23/18 Q1017 A3003 NOSIG,MHRO,2019-01-12T05:00:00Z,16.32,-86.53,23.0,18.0,30,4,,6.21,30.029528,,,,,,TRUE,,,,,FEW,2000,,,,,,,VFR,,,,,,,,,,,,METAR,5.0
SBSV 120500Z 12006KT 9999 SCT020 28/23 Q1013,SBSV,2019-01-12T05:00:00Z,-12.9,-38.32,28.0,23.0,120,6,,6.21,29.911417,,,,,,,,,,,SCT,2000,,,,,,,VFR,,,,,,,,,,,,METAR,6.0
SBEG 120500Z 30002KT 9999 FEW010 23/22 Q1012,SBEG,2019-01-12T05:00:00Z,-3.02,-60.03,23.0,22.0,300,2,,6.21,29.88189,,,,,,,,,,,FEW,1000,,,,,,,VFR,,,,,,,,,,,,METAR,2.0
CWOC 120500Z AUTO 29015G24KT M13/M16 RMK AO1 PK WND 28024/0451 SLP085 T11261155 52010,CWOC,2019-01-12T05:00:00Z,48.02,-65.32,-12.6,-15.5,290,15,24,,,1008.5,,TRUE,TRUE,,,,,,,,,,,,,,,,1.0,,,,,,,,,,,METAR,47.0
CWNQ 120500Z AUTO 30006KT M17/M24 RMK AO1 PK WND 27017/0411 SLP272 T11731235 51012,CWNQ,2019-01-12T05:00:00Z,46.22,-72.65,-17.3,-23.5,300,6,,,,1027.2,,TRUE,TRUE,,,,,,,,,,,,,,,,1.2,,,,,,,,,,,METAR,10.0
CWNP 120500Z AUTO 11001KT M01/M01 RMK AO1 SOG 24 5001 SLP249 T10081012,CWNP,2019-01-12T05:00:00Z,50.27,-117.82,-0.8,-1.2,110,1,,,,1024.9,,TRUE,TRUE,,,,,,,,,,,,,,,,,,,,,,,,,,,METAR,524.0
CWOE 120500Z AUTO 09011KT M07/M08 RMK AO1 SLP231 T10681080 52001,CWOE,2019-01-12T05:00:00Z,49.12,-110.47,-6.8,-8.0,90,11,,,,1023.1,,TRUE,TRUE,,,,,,,,,,,,,,,,0.1,,,,,,,,,,,METAR,935.0
CWOD 120500Z AUTO 30016G22KT M20/M24 RMK AO1 SOG 32 1013 PK WND 30023/0438 SLP226 T12041243,CWOD,2019-01-12T05:00:00Z,48.85,-72.55,-20.4,-24.3,300,16,22,,,1022.6,,TRUE,TRUE,,,,,,,,,,,,,,,,,,,,,,,,,,,METAR,137.0
USCM 120500Z 17004MPS 9999 -SN OVC017 M14/M17 Q1016 R18/090060 TEMPO 2000 SN VV005 RMK QFE724,USCM,2019-01-12T05:00:00Z,53.4,58.75,-14.0,-17.0,170,8,,6.21,30.0,,,,,,,,,,-SN,OVC,1700,,,,,,,MVFR,,,,,,,,,,,,METAR,435.0
UIUU 120500Z 00000MPS 5000 BR NSC M15/M21 Q1026 R26/810550 NOSIG RMK QFE725/0967,UIUU,2019-01-12T05:00:00Z,51.8,107.45,-15.0,-21.0,0,0,,3.11,30.295275,,,,,,TRUE,,,,BR,CLR,,,,,,,,MVFR,,,,,,,,,,,,METAR,515.0
UIII 120500Z 11002MPS CAVOK M17/M20 Q1023 R12/810550 NOSIG RMK QFE725/0966,UIII,2019-01-12T05:00:00Z,52.27,104.4,-17.0,-20.0,110,4,,6.21,30.206694,,,,,,TRUE,,,,,CAVOK,,,,,,,,VFR,,,,,,,,,,,,METAR,513.0
FALW 120500Z AUTO 21001KT //// // ////// 17/15 Q1009,FALW,2019-01-12T05:00:00Z,-32.97,18.17,17.0,15.0,210,1,,,29.793306,,,TRUE,,,,,,,,,,,,,,,,,,,,,,,,,,,,METAR,0.0
FABL 120500Z VRB01KT CAVOK 20/M01 Q1014 NOSIG,FABL,2019-01-12T05:00:00Z,-29.1,26.3,20.0,-1.0,0,1,,6.21,29.940945,,,,,,TRUE,,,,,CAVOK,,,,,,,,VFR,,,,,,,,,,,,METAR,1348.0
MHCA 120500Z 06002KT 9999 SCT026 21/20 Q1015,MHCA,2019-01-12T05:00:00Z,14.9,-85.78,21.0,20.0,60,2,,6.21,29.970472,,,,,,,,,,,SCT,2600,,,,,,,VFR,,,,,,,,,,,,METAR,442.0
CWNM 120500Z AUTO 06004KT 03/01 RMK AO1 SOG 04 6004 SLP248 T00260013,CWNM,2019-01-12T05:00:00Z,49.5,-117.28,2.6,1.3,60,4,,,,1024.8,,TRUE,TRUE,,,,,,,,,,,,,,,,,,,,,,,,,,,METAR,535.0
CWNK 120500Z AUTO 33005KT M11/M13 RMK AO1 T11071127,CWNK,2019-01-12T05:00:00Z,49.5,-98.03,-10.7,-12.7,330,5,,,,,,TRUE,TRUE,,,,,,,,,,,,,,,,,,,,,,,,,,,METAR,268.0
KPOB 120500Z AUTO 00000KT 10SM OVC200 M02/M05 A3040 RMK AO2 PRESFR SLP299 $,KPOB,2019-01-12T05:00:00Z,35.17,-79.02,-2.0,-5.0,0,0,,10.0,30.398623,1029.9,,TRUE,TRUE,TRUE,,,,,,OVC,20000,,,,,,,VFR,,,,,,,,,,,,SPECI,66.0
CWPE 120500Z AUTO 29008G17KT M14/M18 RMK AO1 SOG 02 3018 PK WND 26020/0429 SLP188 T11381180 50002,CWPE,2019-01-12T05:00:00Z,45.07,-66.47,-13.8,-18.0,290,8,17,,,1018.8,,TRUE,TRUE,,,,,,,,,,,,,,,,0.2,,,,,,,,,,,METAR,1.0
CWPD 120500Z AUTO 03003KT M24/M27 RMK AO1 SLP216 T12401271 51012,CWPD,2019-01-12T05:00:00Z,47.57,-71.22,-24.0,-27.1,30,3,,,,1021.6,,TRUE,TRUE,,,,,,,,,,,,,,,,1.2,,,,,,,,,,,METAR,803.0
RJTF 120500Z 03003KT 330V050 9999 FEW020 BKN030 05/M03 Q1017,RJTF,2019-01-12T05:00:00Z,35.67,139.52,5.0,-3.0,30,3,,6.21,30.029528,,,,,,,,,,,FEW,2000,BKN,3000,,,,,MVFR,,,,,,,,,,,,METAR,44.0
UHPP 120500Z 30010MPS 9999 SCT040CB 01/M07 Q0992 R34L/720355 NOSIG RMK MT OBSC QFE740/0987,UHPP,2019-01-12T05:00:00Z,53.17,158.45,1.0,-7.0,300,19,,6.21,29.291338,,,,,,TRUE,,,,,SCT,4000,,,,,,,VFR,,,,,,,,,,,,METAR,40.0
UHHH 120500Z 06003MPS 030V090 CAVOK M10/M18 Q1024 R23L/090060 NOSIG RMK QFE762/1016,UHHH,2019-01-12T05:00:00Z,48.52,135.18,-10.0,-18.0,60,6,,6.21,30.236221,,,,,,TRUE,,,,,CAVOK,,,,,,,,VFR,,,,,,,,,,,,METAR,72.0
UHBB 120500Z 02002MPS CAVOK M15/M20 Q1023 R36/090060 NOSIG RMK QFE749/0999,UHBB,2019-01-12T05:00:00Z,50.43,127.42,-15.0,-20.0,20,4,,6.21,30.206694,,,,,,TRUE,,,,,CAVOK,,,,,,,,VFR,,,,,,,,,,,,METAR,195.0
CWBV 120500Z AUTO 27015G21KT M06/M10 RMK AO1 PK WND 24023/0412 SLP137 T10601102 51014,CWBV,2019-01-12T05:00:00Z,44.82,-62.32,-6.0,-10.2,270,15,21,,,1013.7,,TRUE,TRUE,,,,,,,,,,,,,,,,1.4,,,,,,,,,,,METAR,10.0
CWER 120500Z AUTO 24017KT RMK AO1 PK WND 25021/0415,CWER,2019-01-12T05:00:00Z,47.0,-70.82,,,240,17,,,,,,TRUE,TRUE,,,,,,,,,,,,,,,,,,,,,,,,,,,METAR,5.0
ORER 120500Z 00000KT 8000 NSC M01/M02 Q1023 NOSIG,ORER,2019-01-12T05:00:00Z,36.23,43.97,-1.0,-2.0,0,0,,4.97,30.206694,,,,,,TRUE,,,,,CLR,,,,,,,,MVFR,,,,,,,,,,,,METAR,409.0
ORNI 120500Z 21005KT 4000 HZ NSC 02/00 Q1024 NOSIG,ORNI,2019-01-12T05:00:00Z,31.98,44.4,2.0,0.0,210,5,,2.49,30.236221,,,,,,TRUE,,,,HZ,CLR,,,,,,,,IFR,,,,,,,,,,,,METAR,53.0
ORMM 120500Z 25006KT 8000 NSC 03/M01 Q1023 NOSIG,ORMM,2019-01-12T05:00:00Z,30.57,47.67,3.0,-1.0,250,6,,4.97,30.206694,,,,,,TRUE,,,,,CLR,,,,,,,,MVFR,,,,,,,,,,,,METAR,2.0
SKPE 120500Z 08003KT 9999 SCT015 SCT090 19/17 A3007,SKPE,2019-01-12T05:00:00Z,4.82,-75.73,19.0,17.0,80,3,,6.21,30.070866,,,,,,,,,,,SCT,1500,SCT,9000,,,,,VFR,,,,,,,,,,,,METAR,1346.0
SKBG 120500Z 30003KT 9999 SCT015 SCT070 18/18 A3003,SKBG,2019-01-12T05:00:00Z,7.13,-73.18,18.0,18.0,300,3,,6.21,30.029528,,,,,,,,,,,SCT,1500,SCT,7000,,,,,VFR,,,,,,,,,,,,METAR,1189.0
SKSP 120500Z 05006KT 9999 FEW018 26/21 A2997,SKSP,2019-01-12T05:00:00Z,12.57,-81.72,26.0,21.0,50,6,,6.21,29.970472,,,,,,,,,,,FEW,1800,,,,,,,VFR,,,,,,,,,,,,METAR,-2.0
SKRG 120500Z 36004KT 9999 BKN010 SCT080 14/14 A3030,SKRG,2019-01-12T05:00:00Z,6.17,-75.42,14.0,14.0,360,4,,6.21,30.301182,,,,,,,,,,,BKN,1000,SCT,8000,,,,,MVFR,,,,,,,,,,,,METAR,2137.0
SKLT 120500Z VRB02KT 9999 SCT012 25/24 A2986,SKLT,2019-01-12T05:00:00Z,-4.2,-69.93,25.0,24.0,0,2,,6.21,29.861221,,,,,,,,,,,SCT,1200,,,,,,,VFR,,,,,,,,,,,,METAR,84.0
SKCC 120500Z VRB02KT 8000 VCFG SCT015 SCT080 22/21 A2999,SKCC,2019-01-12T05:00:00Z,7.92,-72.52,22.0,21.0,0,2,,4.97,29.991142,,,,,,,,,,VCFG,SCT,1500,SCT,8000,,,,,MVFR,,,,,,,,,,,,METAR,317.0
SKCG 120500Z 01007KT 350V050 9999 FEW013 25/23 A2989,SKCG,2019-01-12T05:00:00Z,10.43,-75.52,25.0,23.0,10,7,,6.21,29.890747,,,,,,,,,,,FEW,1300,,,,,,,VFR,,,,,,,,,,,,METAR,1.0
SKBO 120500Z 31005KT 9999 BKN017 10/09 A3033,SKBO,2019-01-12T05:00:00Z,4.7,-74.12,10.0,9.0,310,5,,6.21,30.33071,,,,,,,,,,,BKN,1700,,,,,,,MVFR,,,,,,,,,,,,METAR,2548.0
SKBQ 120500Z 35012KT 9999 SCT015 25/22 A2989,SKBQ,2019-01-12T05:00:00Z,10.9,-74.77,25.0,22.0,350,12,,6.21,29.890747,,,,,,,,,,,SCT,1500,,,,,,,VFR,,,,,,,,,,,,METAR,10.0
VEGY 120500Z 13007KT 1800 HZ NSC 19/08 Q1020 NOSIG,VEGY,2019-01-12T05:00:00Z,24.75,84.95,19.0,8.0,130,7,,1.12,30.11811,,,,,,TRUE,,,,HZ,CLR,,,,,,,,IFR,,,,,,,,,,,,METAR,116.0
CWWE 120500Z AUTO 29010KT M08/M12 RMK AO1 SLP174 T10831124 53019,CWWE,2019-01-12T05:00:00Z,43.97,-64.67,-8.3,-12.4,290,10,,,,1017.4,,TRUE,TRUE,,,,,,,,,,,,,,,,1.9,,,,,,,,,,,METAR,9.0
CWPK 120500Z AUTO 28006KT M21/M24 RMK AO1 SOG 39 1004 SLP269 T12121235,CWPK,2019-01-12T05:00:00Z,47.92,-74.62,-21.2,-23.5,280,6,,,,1026.9,,TRUE,TRUE,,,,,,,,,,,,,,,,,,,,,,,,,,,METAR,442.0
OPST 130500Z 13004KT 4000 FU SCT040 SCT100 13/08 Q1021 TEMPO 05015G25KT 2500 TSRA FEW030CB RH71,OPST,2019-01-12T05:00:00Z,32.53,74.37,13.0,8.0,130,4,,2.49,30.147638,,,,,,,,,,FU,SCT,4000,SCT,10000,,,,,IFR,,,,,,,,,,,,METAR,247.0
GBYD 120500Z 31004KT 9000 BR 19/16 Q1010,GBYD,2019-01-12T05:00:00Z,13.33,-16.65,19.0,16.0,310,4,,5.59,29.822834,,,,,,,,,,BR,,,,,,,,,,,,,,,,,,,,,METAR,36.0
CWAF 120500Z AUTO 29031G38KT M15/M18 RMK AO1 PK WND 28043/0437 T11451184,CWAF,2019-01-12T05:00:00Z,48.07,-69.53,-14.5,-18.4,290,31,38,,,,,TRUE,TRUE,,,,,,,,,,,,,,,,,,,,,,,,,,,METAR,5.0
CWAQ 120500Z AUTO 14006KT M13/M15 RMK AO1 SLP288 T11331149 55001,CWAQ,2019-01-12T05:00:00Z,49.05,-105.48,-13.3,-14.9,140,6,,,,1028.8,,TRUE,TRUE,,,,,,,,,,,,,,,,-0.1,,,,,,,,,,,METAR,756.0
CWAV 120500Z AUTO 21005KT 05/M10 RMK AO1 SLP160 T00481101 58003,CWAV,2019-01-12T05:00:00Z,51.77,-114.67,4.8,-10.1,210,5,,,,1016.0,,TRUE,TRUE,,,,,,,,,,,,,,,,-0.3,,,,,,,,,,,METAR,1114.0
CWBA 120500Z AUTO 01002KT M16/M17 RMK AO1 SOG 51 T11601171,CWBA,2019-01-12T05:00:00Z,46.72,-79.1,-16.0,-17.1,10,2,,,,,,TRUE,TRUE,,,,,,,,,,,,,,,,,,,,,,,,,,,METAR,181.0
CWBS 120500Z AUTO 28010KT M16/M22 RMK AO1 T11611220,CWBS,2019-01-12T05:00:00Z,46.18,-72.92,-16.1,-22.0,280,10,,,,,,TRUE,TRUE,,,,,,,,,,,,,,,,,,,,,,,,,,,METAR,16.0
CWBO 120500Z AUTO 20005KT M03/M06 RMK AO1 SLP190 T10341058 55004,CWBO,2019-01-12T05:00:00Z,50.53,-111.83,-3.4,-5.8,200,5,,,,1019.0,,TRUE,TRUE,,,,,,,,,,,,,,,,-0.4,,,,,,,,,,,METAR,747.0
CWBZ 120500Z AUTO 28009KT M15/M21 RMK AO1 SLP307 T11501214 50001,CWBZ,2019-01-12T05:00:00Z,45.12,-74.27,-15.0,-21.4,280,9,,,,1030.7,,TRUE,TRUE,,,,,,,,,,,,,,,,0.1,,,,,,,,,,,METAR,49.0
CWCF 120500Z AUTO 08006KT M17/M19 RMK AO1 SOG 17 3003 SLP349 T11671190,CWCF,2019-01-12T05:00:00Z,52.35,-97.03,-16.7,-19.0,80,6,,,,1034.9,,TRUE,TRUE,,,,,,,,,,,,,,,,,,,,,,,,,,,METAR,222.0
CWCJ 120500Z AUTO 05003KT M14/M18 RMK AO1 SOG 24 3016 SLP346 T11421183,CWCJ,2019-01-12T05:00:00Z,48.6,-86.28,-14.2,-18.3,50,3,,,,1034.6,,TRUE,TRUE,,,,,,,,,,,,,,,,,,,,,,,,,,,METAR,206.0
CWCO 120500Z AUTO 21002KT M08/M12 RMK AO1 SLP325 T10831122 58002,CWCO,2019-01-12T05:00:00Z,44.45,-80.17,-8.3,-12.2,210,2,,,,1032.5,,TRUE,TRUE,,,,,,,,,,,,,,,,-0.2,,,,,,,,,,,METAR,221.0
CWDK 120500Z AUTO 17006KT M00/M10 RMK AO1 SLP189 T10031102 58001,CWDK,2019-01-12T05:00:00Z,50.02,-113.62,-0.3,-10.2,170,6,,,,1018.9,,TRUE,TRUE,,,,,,,,,,,,,,,,-0.1,,,,,,,,,,,METAR,1012.0
CMFM 120500Z AUTO 32011G19KT M23/M27 RMK AO1 SOG 65 1011 PK WND 31020/0449 SLP190 T12261268,CMFM,2019-01-12T05:00:00Z,47.32,-71.15,-22.6,-26.8,320,11,19,,,1019.0,,TRUE,TRUE,,,,,,,,,,,,,,,,,,,,,,,,,,,METAR,672.0
CTNK 120500Z AUTO 00000KT M15/M19 RMK AO1 SOG 45 0003 SLP317 T11451193,CTNK,2019-01-12T05:00:00Z,45.53,-78.27,-14.5,-19.3,0,0,,,,1031.7,,TRUE,TRUE,,,,,,,,,,,,,,,,,,,,,,,,,,,METAR,410.0
CWKK 120500Z AUTO 06013KT M15/M19 RMK AO1 SOG 38 2017 SLP356 T11461191,CWKK,2019-01-12T05:00:00Z,49.72,-88.33,-14.6,-19.1,60,13,,,,1035.6,,TRUE,TRUE,,,,,,,,,,,,,,,,,,,,,,,,,,,METAR,260.0
CXBI 120500Z AUTO 36001KT M11/M14 RMK AO1 SLP323 T11051141 58003,CXBI,2019-01-12T05:00:00Z,44.48,-79.55,-10.5,-14.1,360,1,,,,1032.3,,TRUE,TRUE,,,,,,,,,,,,,,,,-0.3,,,,,,,,,,,METAR,289.0
CWEQ 120500Z AUTO 06001KT M16/M17 RMK AO1 SOG 13 5001 SLP344 T11591174,CWEQ,2019-01-12T05:00:00Z,52.12,-101.22,-15.9,-17.4,60,1,,,,1034.4,,TRUE,TRUE,,,,,,,,,,,,,,,,,,,,,,,,,,,METAR,335.0
CWJD 120500Z AUTO 32001KT M26/M29 RMK AO1 SOG 29 8005 SLP356 T12591286,CWJD,2019-01-12T05:00:00Z,53.17,-99.27,-25.9,-28.6,320,1,,,,1035.6,,TRUE,TRUE,,,,,,,,,,,,,,,,,,,,,,,,,,,METAR,223.0
CWLP 120500Z AUTO 12029G35KT 11/06 RMK AO1 PK WND 12035/0455 SLP093 T01080056 51011,CWLP,2019-01-12T05:00:00Z,50.93,-127.63,10.8,5.6,120,29,35,,,1009.3,,TRUE,TRUE,,,,,,,,,,,,,,,,1.1,,,,,,,,,,,METAR,17.0
CWZG 120500Z AUTO 22007KT M03/M05 RMK AO1 SOG 21 8002 SLP227 T10301054,CWZG,2019-01-12T05:00:00Z,51.2,-115.53,-3.0,-5.4,220,7,,,,1022.7,,TRUE,TRUE,,,,,,,,,,,,,,,,,,,,,,,,,,,METAR,1397.0
CWEH 120500Z AUTO 16004KT M05/M07 RMK AO1 SLP236 T10511073 55002,CWEH,2019-01-12T05:00:00Z,49.42,-108.97,-5.1,-7.3,160,4,,,,1023.6,,TRUE,TRUE,,,,,,,,,,,,,,,,-0.2,,,,,,,,,,,METAR,1078.0
CWKO 120500Z AUTO 18014KT M14/M15 RMK AO1 SOG 15 7004 SLP284 T11351150,CWKO,2019-01-12T05:00:00Z,49.17,-105.97,-13.5,-15.0,180,14,,,,1028.4,,TRUE,TRUE,,,,,,,,,,,,,,,,,,,,,,,,,,,METAR,917.0
CWLB 120500Z AUTO 16009G15KT M11/M15 RMK AO1 SOG 22 8008 SLP178 T11141147,CWLB,2019-01-12T05:00:00Z,54.77,-112.02,-11.4,-14.7,160,9,15,,,1017.8,,TRUE,TRUE,,,,,,,,,,,,,,,,,,,,,,,,,,,METAR,567.0
CWCT 120500Z AUTO 16010KT M12/M14 RMK AO1 SOG 02 6015 SLP199 T11221141,CWCT,2019-01-12T05:00:00Z,52.07,-111.47,-12.2,-14.1,160,10,,,,1019.9,,TRUE,TRUE,,,,,,,,,,,,,,,,,,,,,,,,,,,METAR,791.0
CXZC 120500Z AUTO 28004KT M24/M26 RMK AO1 SOG 48 3016 SLP331 T12361260,CXZC,2019-01-12T05:00:00Z,51.3,-80.62,-23.6,-26.0,280,4,,,,1033.1,,TRUE,TRUE,,,,,,,,,,,,,,,,,,,,,,,,,,,METAR,9.0
CWOY 120500Z AUTO 17009KT M12/M14 RMK AO1 SOG 02 5000 SLP310 T11191135,CWOY,2019-01-12T05:00:00Z,51.77,-104.2,-11.9,-13.5,170,9,,,,1031.0,,TRUE,TRUE,,,,,,,,,,,,,,,,,,,,,,,,,,,METAR,560.0
RJOW 120500Z 01004KT 330V070 9999 FEW030 BKN070 BKN140 10/04 Q1017,RJOW,2019-01-12T05:00:00Z,34.67,131.8,10.0,4.0,10,4,,6.21,30.029528,,,,,,,,,,,FEW,3000,BKN,7000,BKN,14000,,,VFR,,,,,,,,,,,,METAR,54.0
CWJH 120500Z AUTO 19003KT M15/M17 RMK AO1 SOG 47 6022 SLP275 T11531170,CWJH,2019-01-12T05:00:00Z,56.32,-103.27,-15.3,-17.0,190,3,,,,1027.5,,TRUE,TRUE,,,,,,,,,,,,,,,,,,,,,,,,,,,METAR,344.0
CWJC 120500Z AUTO 17024KT M18/M20 RMK AO1 6040 PK WND 18030/0405 SLP183 T11811195 50002,CWJC,2019-01-12T05:00:00Z,61.13,-100.9,-18.1,-19.5,170,24,,,,1018.3,,TRUE,TRUE,,,,,,,,,,,,,,,,0.2,,,,,,,,,,,METAR,357.0
CWJB 120500Z AUTO 21005KT M18/M23 RMK AO1 SOG 59 T11761234,CWJB,2019-01-12T05:00:00Z,46.78,-71.27,-17.6,-23.4,210,5,,,,,,TRUE,TRUE,,,,,,,,,,,,,,,,,,,,,,,,,,,METAR,91.0
CWIZ 120500Z AUTO 29007KT M16/M22 RMK AO1 SOG 11 T11601222,CWIZ,2019-01-12T05:00:00Z,45.28,-73.33,-16.0,-22.2,290,7,,,,,,TRUE,TRUE,,,,,,,,,,,,,,,,,,,,,,,,,,,METAR,45.0
CWIW 120500Z AUTO 14010KT M16/M18 RMK AO1 SOG 04 8005 SLP300 T11641182,CWIW,2019-01-12T05:00:00Z,51.67,-105.4,-16.4,-18.2,140,10,,,,1030.0,,TRUE,TRUE,,,,,,,,,,,,,,,,,,,,,,,,,,,METAR,526.0
CWIT 120500Z AUTO 28008G15KT M15/M22 RMK AO1 5PAST HR SOG 11 0002 SLP290 P0002 T11531220 50008,CWIT,2019-01-12T05:00:00Z,45.17,-73.67,-15.3,-22.0,280,8,15,,,1029.0,,TRUE,TRUE,,,,,,,,,,,,,,,,0.8,,,,,0.02,,,,,,METAR,52.0
CWIS 120500Z AUTO 32009G16KT M21/M24 RMK AO1 SOG 134 1007 SLP159 T12071241,CWIS,2019-01-12T05:00:00Z,47.28,-70.63,-20.7,-24.1,320,9,16,,,1015.9,,TRUE,TRUE,,,,,,,,,,,,,,,,,,,,,,,,,,,METAR,719.0
CWIP 120500Z AUTO 27010KT M06/ RMK AO1 T1059,CWIP,2019-01-12T05:00:00Z,50.17,-66.43,-5.9,,270,10,,,,,,TRUE,TRUE,,,,,,,,,,,,,,,,,,,,,,,,,,,METAR,25.0
CWIJ 120500Z AUTO 12014KT M22/M25 RMK AO1 SOG 57 8031 PK WND 12018/0417 SLP107 T12211246,CWIJ,2019-01-12T05:00:00Z,65.77,-111.23,-22.1,-24.6,120,14,,,,1010.7,,TRUE,TRUE,,,,,,,,,,,,,,,,,,,,,,,,,,,METAR,500.0
CWII 120500Z AUTO 09003KT M14/M16 RMK AO1 SLP329 T11431157 53006,CWII,2019-01-12T05:00:00Z,50.7,-96.57,-14.3,-15.7,90,3,,,,1032.9,,TRUE,TRUE,,,,,,,,,,,,,,,,0.6,,,,,,,,,,,METAR,220.0
CWIG 120500Z AUTO 23021G27KT RMK AO1 PK WND 22029/0442,CWIG,2019-01-12T05:00:00Z,47.07,-70.53,,,230,21,27,,,,,TRUE,TRUE,,,,,,,,,,,,,,,,,,,,,,,,,,,METAR,18.0
CWID 120500Z AUTO 27004KT M17/M19 RMK AO1 SLP079 T11711192 53001,CWID,2019-01-12T05:00:00Z,61.32,-117.6,-17.1,-19.2,270,4,,,,1007.9,,TRUE,TRUE,,,,,,,,,,,,,,,,0.1,,,,,,,,,,,METAR,161.0
CWHV 120500Z AUTO 29009G16KT M18/M22 RMK AO1 PK WND 31018/0440 SLP224 T11821215 51014,CWHV,2019-01-12T05:00:00Z,46.2,-70.77,-18.2,-21.5,290,9,16,,,1022.4,,TRUE,TRUE,,,,,,,,,,,,,,,,1.4,,,,,,,,,,,METAR,229.0
CWHT 120500Z AUTO 07002KT M36/M40 RMK AO1 SOG 07 3010 SLP130 T13631404,CWHT,2019-01-12T05:00:00Z,60.77,-137.58,-36.3,-40.4,70,2,,,,1013.0,,TRUE,TRUE,,,,,,,,,,,,,,,,,,,,,,,,,,,METAR,599.0
CWHQ 120500Z AUTO 29005KT M19/ RMK AO1 T1191,CWHQ,2019-01-12T05:00:00Z,46.68,-71.97,-19.1,,290,5,,,,,,TRUE,TRUE,,,,,,,,,,,,,,,,,,,,,,,,,,,METAR,55.0
CWHI 120500Z AUTO 14003KT M09/M11 RMK AO1 T10931113,CWHI,2019-01-12T05:00:00Z,51.7,-113.22,-9.3,-11.3,140,3,,,,,,TRUE,TRUE,,,,,,,,,,,,,,,,,,,,,,,,,,,METAR,907.0
CWGY 120500Z AUTO M11/M13 RMK AO1 SLP218 T11111132 56018,CWGY,2019-01-12T05:00:00Z,51.67,-110.2,-11.1,-13.2,,,,,,1021.8,,TRUE,TRUE,,,,,,,,,,,,,,,,-1.8,,,,,,,,,,,METAR,707.0
CWGW 120500Z AUTO 35002KT M03/M04 RMK AO1 SOG 12 3003 SLP265 T10291039,CWGW,2019-01-12T05:00:00Z,49.75,-114.9,-2.9,-3.9,350,2,,,,1026.5,,TRUE,TRUE,,,,,,,,,,,,,,,,,,,,,,,,,,,METAR,1137.0
CWGT 120500Z AUTO 31003KT 08/06 RMK AO1 SLP138 T00760064 52006,CWGT,2019-01-12T05:00:00Z,49.48,-124.43,7.6,6.4,310,3,,,,1013.8,,TRUE,TRUE,,,,,,,,,,,,,,,,0.6,,,,,,,,,,,METAR,5.0
CWGR 120500Z AUTO 24017G22KT M08/M11 RMK AO1 PK WND 24022/0459 SLP094 T10821107 51013,CWGR,2019-01-12T05:00:00Z,47.42,-61.8,-8.2,-10.7,240,17,22,,,1009.4,,TRUE,TRUE,,,,,,,,,,,,,,,,1.3,,,,,,,,,,,METAR,60.0
CZZJ 120500Z AUTO 26004KT M06/M07 RMK AO1 SOG 28 3001 SLP176 T10601068,CZZJ,2019-01-12T05:00:00Z,53.58,-116.47,-6.0,-6.8,260,4,,,,1017.6,,TRUE,TRUE,,,,,,,,,,,,,,,,,,,,,,,,,,,METAR,927.0
CZTB 120500Z AUTO 03005KT M09/M12 RMK AO1 SOG 44 2018 SLP336 T10941115 50001,CZTB,2019-01-12T05:00:00Z,48.37,-89.32,-9.4,-11.5,30,5,,,,1033.6,,TRUE,TRUE,,,,,,,,,,,,,,,,0.1,,,,,,,,,,,METAR,199.0
CZMJ 120500Z AUTO 13011KT M13/M15 RMK AO1 SLP303 T11331153 58006,CZMJ,2019-01-12T05:00:00Z,50.33,-105.57,-13.3,-15.3,130,11,,,,1030.3,,TRUE,TRUE,,,,,,,,,,,,,,,,-0.6,,,,,,,,,,,METAR,577.0
CZKD 120500Z AUTO 16004KT M20/M23 RMK AO1 SOG 34 7014 SLP353 T12011231,CZKD,2019-01-12T05:00:00Z,56.03,-96.52,-20.1,-23.1,160,4,,,,1035.3,,TRUE,TRUE,,,,,,,,,,,,,,,,,,,,,,,,,,,METAR,183.0
CXZV 120500Z AUTO 29003KT M08/M10 RMK AO1 SOG 72 3015 SLP046 T10771101,CXZV,2019-01-12T05:00:00Z,50.22,-66.25,-7.7,-10.1,290,3,,,,1004.6,,TRUE,TRUE,,,,,,,,,,,,,,,,,,,,,,,,,,,METAR,52.0
CXVN 120500Z AUTO 12002KT M06/M11 RMK AO1 SOG 01 8002 SLP315 T10601108,CXVN,2019-01-12T05:00:00Z,43.18,-79.4,-6.0,-10.8,120,2,,,,1031.5,,TRUE,TRUE,,,,,,,,,,,,,,,,,,,,,,,,,,,METAR,79.0
CXTO 120500Z AUTO M07/M14 RMK AO1 SOG 01 8002 SLP317 T10681136,CXTO,2019-01-12T05:00:00Z,43.67,-79.4,-6.8,-13.6,,,,,,1031.7,,TRUE,TRUE,,,,,,,,,,,,,,,,,,,,,,,,,,,METAR,113.0
CXTD 120500Z AUTO 25006KT M08/M12 RMK AO1 SOG 03 3016 SLP137 T10821117,CXTD,2019-01-12T05:00:00Z,45.62,-61.68,-8.2,-11.7,250,6,,,,1013.7,,TRUE,TRUE,,,,,,,,,,,,,,,,,,,,,,,,,,,METAR,68.0
CXRL 120500Z AUTO 13009KT M14/M15 RMK AO1 T11391147,CXRL,2019-01-12T05:00:00Z,54.5,-111.7,-13.9,-14.7,130,9,,,,,,TRUE,TRUE,,,,,,,,,,,,,,,,,,,,,,,,,,,METAR,585.0
CXPC 120500Z AUTO M12/M19 RMK AO1 SOG 08 0002 SLP320 T11211187,CXPC,2019-01-12T05:00:00Z,45.35,-80.05,-12.1,-18.7,,,,,,1032.0,,TRUE,TRUE,,,,,,,,,,,,,,,,,,,,,,,,,,,METAR,176.0
CXPA 120500Z AUTO 10006KT M07/M09 RMK AO1 T10701089,CXPA,2019-01-12T05:00:00Z,55.62,-118.3,-7.0,-8.9,100,6,,,,,,TRUE,TRUE,,,,,,,,,,,,,,,,,,,,,,,,,,,METAR,621.0
CXOY 120500Z AUTO 19012KT M08/M10 RMK AO1 T10801099,CXOY,2019-01-12T05:00:00Z,51.38,-110.35,-8.0,-9.9,190,12,,,,,,TRUE,TRUE,,,,,,,,,,,,,,,,,,,,,,,,,,,METAR,767.0
CXLB 120500Z AUTO 26022G28KT M08/M12 RMK AO1 PK WND 26028/0455 SLP154 T10801118 53015,CXLB,2019-01-12T05:00:00Z,44.37,-64.3,-8.0,-11.8,260,22,28,,,1015.4,,TRUE,TRUE,,,,,,,,,,,,,,,,1.5,,,,,,,,,,,METAR,4.0
CXKM 120500Z AUTO 13009KT M11/M13 RMK AO1 T11111127,CXKM,2019-01-12T05:00:00Z,52.82,-111.85,-11.1,-12.7,130,9,,,,,,TRUE,TRUE,,,,,,,,,,,,,,,,,,,,,,,,,,,METAR,675.0
CXKI 120500Z AUTO M22/M24 RMK AO1 SOG 50 3010 SLP327 T12211241,CXKI,2019-01-12T05:00:00Z,48.22,-80.0,-22.1,-24.1,,,,,,1032.7,,TRUE,TRUE,,,,,,,,,,,,,,,,,,,,,,,,,,,METAR,324.0
CXFR 120500Z AUTO 15005KT M06/M08 RMK AO1 T10571075,CXFR,2019-01-12T05:00:00Z,56.08,-118.43,-5.7,-7.5,150,5,,,,,,TRUE,TRUE,,,,,,,,,,,,,,,,,,,,,,,,,,,METAR,655.0
CXCS 120500Z AUTO 09006KT M15/M17 RMK AO1 T11471169,CXCS,2019-01-12T05:00:00Z,51.93,-110.72,-14.7,-16.9,90,6,,,,,,TRUE,TRUE,,,,,,,,,,,,,,,,,,,,,,,,,,,METAR,772.0
CXCP 120500Z AUTO 26006KT 02/M09 RMK AO1 T00211094,CXCP,2019-01-12T05:00:00Z,50.28,-113.35,2.1,-9.4,260,6,,,,,,TRUE,TRUE,,,,,,,,,,,,,,,,,,,,,,,,,,,METAR,1006.0
CXCD 120500Z AUTO 02001KT M09/M10 RMK AO1 T10941099,CXCD,2019-01-12T05:00:00Z,56.32,-119.75,-9.4,-9.9,20,1,,,,,,TRUE,TRUE,,,,,,,,,,,,,,,,,,,,,,,,,,,METAR,630.0
CXBA 120500Z AUTO 13006KT M12/M13 RMK AO1 PK WND 17019/0429 T11171134,CXBA,2019-01-12T05:00:00Z,52.12,-110.1,-11.7,-13.4,130,6,,,,,,TRUE,TRUE,,,,,,,,,,,,,,,,,,,,,,,,,,,METAR,687.0
CWXA 120500Z AUTO 25012G22KT 01/M08 RMK AO1 PK WND 26023/0441 SLP172 T00111077 58001,CWXA,2019-01-12T05:00:00Z,51.07,-115.07,1.1,-7.7,250,12,22,,,1017.2,,TRUE,TRUE,,,,,,,,,,,,,,,,-0.1,,,,,,,,,,,METAR,1298.0
CWWK 120500Z AUTO 15001KT 06/04 RMK AO1 SLP143 T00610044 53006,CWWK,2019-01-12T05:00:00Z,49.02,-122.78,6.1,4.4,150,1,,,,1014.3,,TRUE,TRUE,,,,,,,,,,,,,,,,0.6,,,,,,,,,,,METAR,15.0
CWWF 120500Z AUTO 16008KT M13/M15 RMK AO1 SOG 05 8002 SLP311 T11261146,CWWF,2019-01-12T05:00:00Z,49.7,-103.8,-12.6,-14.6,160,8,,,,1031.1,,TRUE,TRUE,,,,,,,,,,,,,,,,,,,,,,,,,,,METAR,589.0
CWWA 120500Z AUTO 00000KT 07/03 RMK AO1 SLP138 T00660034 53002,CWWA,2019-01-12T05:00:00Z,49.35,-123.17,6.6,3.4,0,0,,,,1013.8,,TRUE,TRUE,,,,,,,,,,,,,,,,0.2,,,,,,,,,,,METAR,178.0
CWVQ 120500Z AUTO 26007KT M17/M23 RMK AO1 SOG 14 0002 SLP300 T11721231,CWVQ,2019-01-12T05:00:00Z,45.42,-73.92,-17.2,-23.1,260,7,,,,1030.0,,TRUE,TRUE,,,,,,,,,,,,,,,,,,,,,,,,,,,METAR,39.0
CWVP 120500Z AUTO 20008KT M04/M07 RMK AO1 SOG 12 8002 SLP211 T10371069,CWVP,2019-01-12T05:00:00Z,49.63,-109.52,-3.7,-6.9,200,8,,,,1021.1,,TRUE,TRUE,,,,,,,,,,,,,,,,,,,,,,,,,,,METAR,1271.0
CWVN 120500Z AUTO 19002KT M09/M11 RMK AO1 SLP275 T10931112 53001,CWVN,2019-01-12T05:00:00Z,49.07,-107.57,-9.3,-11.2,190,2,,,,1027.5,,TRUE,TRUE,,,,,,,,,,,,,,,,0.1,,,,,,,,,,,METAR,785.0
CWVI 120500Z AUTO 15009KT M10/M12 RMK AO1 SOG 20 7011 SLP183 T11001124,CWVI,2019-01-12T05:00:00Z,53.52,-112.1,-10.0,-12.4,150,9,,,,1018.3,,TRUE,TRUE,,,,,,,,,,,,,,,,,,,,,,,,,,,METAR,639.0
CWVF 120500Z AUTO 01009KT 08/07 RMK AO1 T00800068,CWVF,2019-01-12T05:00:00Z,49.1,-123.3,8.0,6.8,10,9,,,,,,TRUE,TRUE,,,,,,,,,,,,,,,,,,,,,,,,,,,METAR,1.0
CWUX 120500Z AUTO 29014G22KT M20/M24 RMK AO1 PK WND 27026/0427 SLP225 T11991237 53015,CWUX,2019-01-12T05:00:00Z,48.3,-70.93,-19.9,-23.7,290,14,22,,,1022.5,,TRUE,TRUE,,,,,,,,,,,,,,,,1.5,,,,,,,,,,,METAR,135.0
CWUS 120500Z AUTO 28002KT M00/M01 RMK AO1 SLP224 T10041010 53003,CWUS,2019-01-12T05:00:00Z,49.57,-119.65,-0.4,-1.0,280,2,,,,1022.4,,TRUE,TRUE,,,,,,,,,,,,,,,,0.3,,,,,,,,,,,METAR,454.0
CWTY 120500Z AUTO 29005KT M18/M23 RMK AO1 SLP273 T11791231 51018,CWTY,2019-01-12T05:00:00Z,46.35,-72.52,-17.9,-23.1,290,5,,,,1027.3,,TRUE,TRUE,,,,,,,,,,,,,,,,1.8,,,,,,,,,,,METAR,6.0
CWTT 120500Z AUTO 22006KT M18/M22 RMK AO1 T11791224,CWTT,2019-01-12T05:00:00Z,45.27,-72.17,-17.9,-22.4,220,6,,,,,,TRUE,TRUE,,,,,,,,,,,,,,,,,,,,,,,,,,,METAR,209.0
CWTN 120500Z AUTO 25008G16KT M15/M24 RMK AO1 PK WND 24017/0424 SLP207 T11521238 51011,CWTN,2019-01-12T05:00:00Z,47.07,-70.78,-15.2,-23.8,250,8,16,,,1020.7,,TRUE,TRUE,,,,,,,,,,,,,,,,1.1,,,,,,,,,,,METAR,6.0
CWTA 120500Z AUTO 10002KT M16/M23 RMK AO1 SOG 33 0004 SLP291 T11631226,CWTA,2019-01-12T05:00:00Z,45.5,-73.58,-16.3,-22.6,100,2,,,,1029.1,,TRUE,TRUE,,,,,,,,,,,,,,,,,,,,,,,,,,,METAR,63.0
CXSL 120500Z AUTO 15008KT M10/M12 RMK AO1 PK WND 14017/0405 T11021123,CXSL,2019-01-12T05:00:00Z,54.28,-112.5,-10.2,-12.3,150,8,,,,,,TRUE,TRUE,,,,,,,,,,,,,,,,,,,,,,,,,,,METAR,680.0
CXPL 120500Z AUTO 06002KT M11/M11 RMK AO1 T11091114,CXPL,2019-01-12T05:00:00Z,51.13,-111.7,-10.9,-11.4,60,2,,,,,,TRUE,TRUE,,,,,,,,,,,,,,,,,,,,,,,,,,,METAR,750.0
CXMG 120500Z AUTO 16015KT M04/M06 RMK AO1 PK WND 15019/0424 T10411059,CXMG,2019-01-12T05:00:00Z,56.97,-117.45,-4.1,-5.9,160,15,,,,,,TRUE,TRUE,,,,,,,,,,,,,,,,,,,,,,,,,,,METAR,457.0
CXHP 120500Z AUTO 09004KT M11/M13 RMK AO1 T11081127,CXHP,2019-01-12T05:00:00Z,55.4,-116.48,-10.8,-12.7,90,4,,,,,,TRUE,TRUE,,,,,,,,,,,,,,,,,,,,,,,,,,,METAR,602.0
CXHD 120500Z AUTO 16013KT M09/M11 RMK AO1 T10931112,CXHD,2019-01-12T05:00:00Z,53.18,-112.25,-9.3,-11.2,160,13,,,,,,TRUE,TRUE,,,,,,,,,,,,,,,,,,,,,,,,,,,METAR,688.0
CXFM 120500Z AUTO 15010KT M05/M07 RMK AO1 T10481071,CXFM,2019-01-12T05:00:00Z,49.48,-111.48,-4.8,-7.1,150,10,,,,,,TRUE,TRUE,,,,,,,,,,,,,,,,,,,,,,,,,,,METAR,881.0
CPXL 120500Z AUTO 16008KT M02/M05 RMK AO1 T10221050,CPXL,2019-01-12T05:00:00Z,49.87,-111.38,-2.2,-5.0,160,8,,,,,,TRUE,TRUE,,,,,,,,,,,,,,,,,,,,,,,,,,,METAR,799.0
CPSV 120500Z AUTO 22007KT M01/M04 RMK AO1 T10111043,CPSV,2019-01-12T05:00:00Z,49.92,-110.92,-1.1,-4.3,220,7,,,,,,TRUE,TRUE,,,,,,,,,,,,,,,,,,,,,,,,,,,METAR,766.0
CPST 120500Z AUTO 20007KT M06/M08 RMK AO1 T10561082,CPST,2019-01-12T05:00:00Z,51.03,-113.28,-5.6,-8.2,200,7,,,,,,TRUE,TRUE,,,,,,,,,,,,,,,,,,,,,,,,,,,METAR,967.0
CPRY 120500Z AUTO 25008KT 00/M08 RMK AO1 T00001079,CPRY,2019-01-12T05:00:00Z,49.48,-112.68,0.0,-7.9,250,8,,,,,,TRUE,TRUE,,,,,,,,,,,,,,,,,,,,,,,,,,,METAR,937.0
CPRO 120500Z AUTO 25004KT M11/M13 RMK AO1 T11131126,CPRO,2019-01-12T05:00:00Z,50.83,-112.05,-11.3,-12.6,250,4,,,,,,TRUE,TRUE,,,,,,,,,,,,,,,,,,,,,,,,,,,METAR,714.0
CPIR 120500Z AUTO 24020KT 05/M06 RMK AO1 PK WND 25026/0436 T00481061,CPIR,2019-01-12T05:00:00Z,49.9,-112.73,4.8,-6.1,240,20,,,,,,TRUE,TRUE,,,,,,,,,,,,,,,,,,,,,,,,,,,METAR,858.0
CPFI 120500Z AUTO 21008KT M02/M07 RMK AO1 T10201067,CPFI,2019-01-12T05:00:00Z,49.8,-112.03,-2.0,-6.7,210,8,,,,,,TRUE,TRUE,,,,,,,,,,,,,,,,,,,,,,,,,,,METAR,833.0
CPBT 120500Z AUTO 26009KT 01/M08 RMK AO1 T00051079,CPBT,2019-01-12T05:00:00Z,49.57,-113.05,0.5,-7.9,260,9,,,,,,TRUE,TRUE,,,,,,,,,,,,,,,,,,,,,,,,,,,METAR,980.0
CXVW 120500Z AUTO 16014KT M02/M04 RMK AO1 T10211043,CXVW,2019-01-12T05:00:00Z,55.1,-117.2,-2.1,-4.3,160,14,,,,,,TRUE,TRUE,,,,,,,,,,,,,,,,,,,,,,,,,,,METAR,698.0
CXTH 120500Z AUTO 13013KT M11/M13 RMK AO1 PK WND 14019/0401 T11111126,CXTH,2019-01-12T05:00:00Z,53.63,-111.68,-11.1,-12.6,130,13,,,,,,TRUE,TRUE,,,,,,,,,,,,,,,,,,,,,,,,,,,METAR,678.0
CXSP 120500Z AUTO 14014KT M13/M15 RMK AO1 PK WND 12018/0457 T11331153,CXSP,2019-01-12T05:00:00Z,54.02,-111.27,-13.3,-15.3,140,14,,,,,,TRUE,TRUE,,,,,,,,,,,,,,,,,,,,,,,,,,,METAR,649.0
CWZW 120500Z AUTO 09001KT M20/M23 RMK AO1 SOG 25 3020 SLP093 T12041227,CWZW,2019-01-12T05:00:00Z,60.17,-132.73,-20.4,-22.7,90,1,,,,1009.3,,TRUE,TRUE,,,,,,,,,,,,,,,,,,,,,,,,,,,METAR,705.0
CWVT 120500Z AUTO 17010G19KT M12/M14 RMK AO1 SOG 34 8019 PK WND 14020/0429 SLP209 T11191143,CWVT,2019-01-12T05:00:00Z,55.82,-108.42,-11.9,-14.3,170,10,19,,,1020.9,,TRUE,TRUE,,,,,,,,,,,,,,,,,,,,,,,,,,,METAR,434.0
CWRM 120500Z AUTO 12003KT M04/M07 RMK AO1 SOG 10 8002 SLP163 T10441074,CWRM,2019-01-12T05:00:00Z,52.42,-114.92,-4.4,-7.4,120,3,,,,1016.3,,TRUE,TRUE,,,,,,,,,,,,,,,,,,,,,,,,,,,METAR,988.0
CWSS 120500Z AUTO 25005KT M16/M20 RMK AO1 SOG 09 3012 SLP188 T11621198,CWSS,2019-01-12T05:00:00Z,45.2,-67.25,-16.2,-19.8,250,5,,,,1018.8,,TRUE,TRUE,,,,,,,,,,,,,,,,,,,,,,,,,,,METAR,26.0
CWRN 120500Z AUTO 26012G18KT M06/M11 RMK AO1 PK WND 26018/0457 SLP131 T10571106 51016,CWRN,2019-01-12T05:00:00Z,45.35,-60.98,-5.7,-10.6,260,12,18,,,1013.1,,TRUE,TRUE,,,,,,,,,,,,,,,,1.6,,,,,,,,,,,METAR,8.0
RJKA 120500Z 34008KT 8000 R03/1200VP1800D -SHRA FEW015 BKN020 BKN030 20/18 Q1015,RJKA,2019-01-12T05:00:00Z,28.42,129.72,20.0,18.0,340,8,,4.97,29.970472,,,,,,,,,,-SHRA,FEW,1500,BKN,2000,BKN,3000,,,MVFR,,,,,,,,,,,,METAR,7.0
RORY 120500Z AUTO 34017KT 9999 FEW019 SCT110 23/17 Q1015,RORY,2019-01-12T05:00:00Z,27.05,128.4,23.0,17.0,340,17,,6.21,29.970472,,,TRUE,,,,,,,,FEW,1900,SCT,11000,,,,,VFR,,,,,,,,,,,,METAR,16.0
RORS 120500Z 01019KT 9999 BKN017 BKN025 22/19 Q1017,RORS,2019-01-12T05:00:00Z,24.82,125.15,22.0,19.0,10,19,,6.21,30.029528,,,,,,,,,,,BKN,1700,BKN,2500,,,,,MVFR,,,,,,,,,,,,METAR,16.0
ROMY 120500Z 36012KT 330V030 9999 FEW016 BKN022 BKN060 22/18 Q1017,ROMY,2019-01-12T05:00:00Z,24.77,125.27,22.0,18.0,360,12,,6.21,30.029528,,,,,,,,,,,FEW,1600,BKN,2200,BKN,6000,,,MVFR,,,,,,,,,,,,METAR,41.0
RJNW 120500Z 02004KT 310V070 9999 FEW030 SCT120 BKN/// 04/M03 Q1018,RJNW,2019-01-12T05:00:00Z,37.3,136.97,4.0,-3.0,20,4,,6.21,30.059055,,,,,,,,,,,FEW,3000,SCT,12000,,,,,VFR,,,,,,,,,,,,METAR,219.0
BIEG 120500Z 23004KT CAVOK 06/M00 Q0997 R04/390195,BIEG,2019-01-12T05:00:00Z,65.27,-14.4,6.0,0.0,230,4,,6.21,29.438976,,,,,,,,,,,CAVOK,,,,,,,,VFR,,,,,,,,,,,,METAR,38.0
BIAR 120500Z 25018G31KT 170V310 CAVOK 06/M02 Q0999,BIAR,2019-01-12T05:00:00Z,65.67,-18.07,6.0,-2.0,250,18,31,6.21,29.498032,,,,,,,,,,,CAVOK,,,,,,,,VFR,,,,,,,,,,,,METAR,27.0
KNEL 120500Z AUTO 31005KT CLR A3042 RMK AO2 SLPNO PNO $,KNEL,2019-01-12T05:00:00Z,40.02,-74.33,,,310,5,,,30.41929,,,TRUE,TRUE,TRUE,,,,,,CLR,,,,,,,,,,,,,,,,,,,,METAR,31.0
OIBL 120500Z 03006KT 7000 NSC 18/09 Q1018,OIBL,2019-01-12T05:00:00Z,26.53,54.82,18.0,9.0,30,6,,4.35,30.059055,,,,,,,,,,,CLR,,,,,,,,MVFR,,,,,,,,,,,,METAR,14.0
OITP 120500Z 23012KT 9999 BKN040 OVC080 01/M04 Q1016,OITP,2019-01-12T05:00:00Z,39.6,47.88,1.0,-4.0,230,12,,6.21,30.0,,,,,,,,,,,BKN,4000,OVC,8000,,,,,VFR,,,,,,,,,,,,METAR,77.0
OISR 120500Z 00000KT CAVOK 09/M01 Q1021,OISR,2019-01-12T05:00:00Z,27.37,53.2,9.0,-1.0,0,0,,6.21,30.147638,,,,,,,,,,,CAVOK,,,,,,,,VFR,,,,,,,,,,,,METAR,408.0
OISF 120500Z 00000KT CAVOK 05/M04 Q1020,OISF,2019-01-12T05:00:00Z,28.9,53.72,5.0,-4.0,0,0,,6.21,30.11811,,,,,,,,,,,CAVOK,,,,,,,,VFR,,,,,,,,,,,,METAR,1383.0
OICM 120500Z 00000KT CAVOK 01/M03 Q1020,OICM,2019-01-12T05:00:00Z,,,1.0,-3.0,0,0,,6.21,30.11811,,,,,,,,,,,CAVOK,,,,,,,,VFR,,,,,,,,,,,,METAR,
OIAH 120500Z 00000KT 0100 FG NSC 04/04 Q1021,OIAH,2019-01-12T05:00:00Z,30.33,50.83,4.0,4.0,0,0,,0.06,30.147638,,,,,,,,,,FG,CLR,,,,,,,,LIFR,,,,,,,,,,,,METAR,738.0
VOGO 120500Z VRB02KT 3000 HZ NSC 26/19 Q1014 BECMG 4000 HZ,VOGO,2019-01-12T05:00:00Z,15.38,73.83,26.0,19.0,0,2,,1.86,29.940945,,,,,,,,,,HZ,CLR,,,,,,,,IFR,,,,,,,,,,,,METAR,52.0
VOGO 120500Z VRB02KT 3000 HZ NSC 26/19 Q1014 BECMG 4000 HZ,VOGO,2019-01-12T05:00:00Z,15.38,73.83,26.0,19.0,0,2,,1.86,29.940945,,,,,,,,,,HZ,CLR,,,,,,,,IFR,,,,,,,,,,,,METAR,52.0
OIIK 120500Z 06002KT 6000 NSC M02/M07 Q1022,OIIK,2019-01-12T05:00:00Z,36.25,50.05,-2.0,-7.0,60,2,,3.73,30.177166,,,,,,,,,,,CLR,,,,,,,,MVFR,,,,,,,,,,,,METAR,1278.0
OIBQ 120500Z 30014KT CAVOK 13/08 Q1021,OIBQ,2019-01-12T05:00:00Z,29.27,50.32,13.0,8.0,300,14,,6.21,30.147638,,,,,,,,,,,CAVOK,,,,,,,,VFR,,,,,,,,,,,,METAR,6.0
OINE 120500Z 00000KT CAVOK 07/M01 Q1018,OINE,2019-01-12T05:00:00Z,37.38,55.45,7.0,-1.0,0,0,,6.21,30.059055,,,,,,,,,,,CAVOK,,,,,,,,VFR,,,,,,,,,,,,METAR,130.0
OIMQ 120500Z 00000KT CAVOK 04/M06 Q1025,OIMQ,2019-01-12T05:00:00Z,35.23,58.47,4.0,-6.0,0,0,,6.21,30.265747,,,,,,,,,,,CAVOK,,,,,,,,VFR,,,,,,,,,,,,METAR,1140.0
OIMD 120500Z 00000KT CAVOK 04/M04 Q1022,OIMD,2019-01-12T05:00:00Z,34.38,58.63,4.0,-4.0,0,0,,6.21,30.177166,,,,,,,,,,,CAVOK,,,,,,,,VFR,,,,,,,,,,,,METAR,1100.0
OIMC 120500Z 18014KT CAVOK 04/00 Q1026,OIMC,2019-01-12T05:00:00Z,36.5,61.07,4.0,0.0,180,14,,6.21,30.295275,,,,,,,,,,,CAVOK,,,,,,,,VFR,,,,,,,,,,,,METAR,288.0
OITM 120500Z 09002KT CAVOK M05/M12 Q1019,OITM,2019-01-12T05:00:00Z,37.35,46.15,-5.0,-12.0,90,2,,6.21,30.088583,,,,,,,,,,,CAVOK,,,,,,,,VFR,,,,,,,,,,,,METAR,1340.0
OIAG 120500Z 26002KT 3000 BR NSC 05/04 Q1022,OIAG,2019-01-12T05:00:00Z,30.77,49.67,5.0,4.0,260,2,,1.86,30.177166,,,,,,,,,,BR,CLR,,,,,,,,IFR,,,,,,,,,,,,METAR,29.0
OIAM 120500Z 30010KT 7000 NSC 05/02 Q1021,OIAM,2019-01-12T05:00:00Z,30.55,49.15,5.0,2.0,300,10,,4.35,30.147638,,,,,,,,,,,CLR,,,,,,,,MVFR,,,,,,,,,,,,METAR,4.0
LPLA 120500Z /////KT 9999 FEW020 SCT030 15/12 Q1027,LPLA,2019-01-12T05:00:00Z,38.77,-27.1,15.0,12.0,,,,6.21,30.324802,,,,,,,,,,,FEW,2000,SCT,3000,,,,,VFR,,,,,,,,,,,,METAR,55.0
LPBJ 120500Z 10005KT CAVOK 02/M01 Q1027,LPBJ,2019-01-12T05:00:00Z,38.08,-7.93,2.0,-1.0,100,5,,6.21,30.324802,,,,,,,,,,,CAVOK,,,,,,,,VFR,,,,,,,,,,,,METAR,194.0
OIAA 120500Z 27006KT 6000 NSC 05/01 Q1022,OIAA,2019-01-12T05:00:00Z,30.37,48.25,5.0,1.0,270,6,,3.73,30.177166,,,,,,,,,,,CLR,,,,,,,,MVFR,,,,,,,,,,,,METAR,11.0
SUMU 120500Z 08004KT CAVOK 16/12 Q1018 NOSIG,SUMU,2019-01-12T05:00:00Z,-34.82,-56.0,16.0,12.0,80,4,,6.21,30.059055,,,,,,TRUE,,,,,CAVOK,,,,,,,,VFR,,,,,,,,,,,,METAR,32.0
SBGR 120500Z 00000KT CAVOK 19/19 Q1019,SBGR,2019-01-12T05:00:00Z,-23.42,-46.47,19.0,19.0,0,0,,6.21,30.088583,,,,,,,,,,,CAVOK,,,,,,,,VFR,,,,,,,,,,,,METAR,750.0
OJAI 120500Z 05006KT 6000 NSC 01/M02 Q1016 NOSIG,OJAI,2019-01-12T05:00:00Z,31.72,36.0,1.0,-2.0,50,6,,3.73,30.0,,,,,,TRUE,,,,,CLR,,,,,,,,MVFR,,,,,,,,,,,,METAR,730.0
LRCT 120500Z 11003KT 1000 BR OVC008 M05/M05 Q1014 AMB AMB,LRCT,2019-01-12T05:00:00Z,46.5,23.88,-5.0,-5.0,110,3,,0.62,29.940945,,,,,,,,,,BR,OVC,800,,,,,,,LIFR,,,,,,,,,,,,METAR,331.0
OIZJ 120500Z 02004KT 7000 NSC 21/04 Q1018,OIZJ,2019-01-12T05:00:00Z,25.65,57.8,21.0,4.0,20,4,,4.35,30.059055,,,,,,,,,,,CLR,,,,,,,,MVFR,,,,,,,,,,,,METAR,4.0
OIMN 120500Z 00000KT CAVOK M02/M06 Q1023,OIMN,2019-01-12T05:00:00Z,37.48,57.3,-2.0,-6.0,0,0,,6.21,30.206694,,,,,,,,,,,CAVOK,,,,,,,,VFR,,,,,,,,,,,,METAR,1074.0
OIIP 120500Z 15006KT 9999 FEW035 BKN200 M02/M08 Q1022,OIIP,2019-01-12T05:00:00Z,35.78,50.83,-2.0,-8.0,150,6,,6.21,30.177166,,,,,,,,,,,FEW,3500,BKN,20000,,,,,VFR,,,,,,,,,,,,METAR,1271.0
OIFS 120500Z 28002KT CAVOK M06/M10 Q1024,OIFS,2019-01-12T05:00:00Z,32.32,50.85,-6.0,-10.0,280,2,,6.21,30.236221,,,,,,,,,,,CAVOK,,,,,,,,VFR,,,,,,,,,,,,METAR,2078.0
OIBV 120500Z 35006KT CAVOK 19/04 Q1018,OIBV,2019-01-12T05:00:00Z,26.82,53.35,19.0,4.0,350,6,,6.21,30.059055,,,,,,,,,,,CAVOK,,,,,,,,VFR,,,,,,,,,,,,METAR,24.0
OIBA 120500Z 00000KT 8000 FEW025 22/15 Q1018,OIBA,2019-01-12T05:00:00Z,25.88,55.03,22.0,15.0,0,0,,4.97,30.059055,,,,,,,,,,,FEW,2500,,,,,,,MVFR,,,,,,,,,,,,METAR,7.0
OITZ 120500Z 11012KT 9999 FEW035 SCT090 M02/M10 Q1019,OITZ,2019-01-12T05:00:00Z,36.77,48.37,-2.0,-10.0,110,12,,6.21,30.088583,,,,,,,,,,,FEW,3500,SCT,9000,,,,,VFR,,,,,,,,,,,,METAR,1663.0
OISY 120500Z 00000KT CAVOK 00/M04 Q1024,OISY,2019-01-12T05:00:00Z,30.7,51.55,0.0,-4.0,0,0,,6.21,30.236221,,,,,,,,,,,CAVOK,,,,,,,,VFR,,,,,,,,,,,,METAR,1811.0
OISL 120500Z 00000KT CAVOK 08/00 Q1020,OISL,2019-01-12T05:00:00Z,27.67,54.37,8.0,0.0,0,0,,6.21,30.11811,,,,,,,,,,,CAVOK,,,,,,,,VFR,,,,,,,,,,,,METAR,805.0
OINR 120500Z 00000KT CAVOK 05/01 Q1016,OINR,2019-01-12T05:00:00Z,36.88,50.67,5.0,1.0,0,0,,6.21,30.0,,,,,,,,,,,CAVOK,,,,,,,,VFR,,,,,,,,,,,,METAR,-20.0
OINN 120500Z 00000KT CAVOK 04/M01 Q1017,OINN,2019-01-12T05:00:00Z,36.67,51.47,4.0,-1.0,0,0,,6.21,30.029528,,,,,,,,,,,CAVOK,,,,,,,,VFR,,,,,,,,,,,,METAR,-19.0
OIKQ 120500Z 03004KT 6000 FEW025 20/13 Q1019,OIKQ,2019-01-12T05:00:00Z,26.75,55.9,20.0,13.0,30,4,,3.73,30.088583,,,,,,,,,,,FEW,2500,,,,,,,MVFR,,,,,,,,,,,,METAR,12.0
RMKS CB TO SE ,RMKS,2019-01-12T05:00:00Z,,,,,,,,,,,,,,,,,,,,,,,,,,,,,,,,,,,,,,,,METAR,
AGGH 120500Z 05002KT 9999 FEW018 FEW019CB BKN300 30/25 Q1003,AGGH,2019-01-12T05:00:00Z,-9.42,160.05,30.0,25.0,50,2,,6.21,29.616142,,,,,,,,,,,FEW,1800,FEW,1900,BKN,30000,,,VFR,,,,,,,,,,,,METAR,9.0
OITR 120500Z 26006KT 9999 FEW040 SCT170 M07/M11 Q1019,OITR,2019-01-12T05:00:00Z,37.67,45.07,-7.0,-11.0,260,6,,6.21,30.088583,,,,,,,,,,,FEW,4000,SCT,17000,,,,,VFR,,,,,,,,,,,,METAR,1312.0
OINZ 120500Z 11004KT CAVOK 01/M01 Q1017,OINZ,2019-01-12T05:00:00Z,36.63,53.2,1.0,-1.0,110,4,,6.21,30.029528,,,,,,,,,,,CAVOK,,,,,,,,VFR,,,,,,,,,,,,METAR,11.0
CWNH 120500Z AUTO 32006KT M16/M20 RMK AO1 SOG 15 3013 SLP180 T11621195,CWNH,2019-01-12T05:00:00Z,47.78,-69.53,-16.2,-19.5,320,6,,,,1018.0,,TRUE,TRUE,,,,,,,,,,,,,,,,,,,,,,,,,,,METAR,148.0
CWBY 120500Z AUTO 25019G26KT M07/M08 RMK AO1 SOG 24 3018 PK WND 28026/0423 SLP047 T10681075,CWBY,2019-01-12T05:00:00Z,49.82,-64.28,-6.8,-7.5,250,19,26,,,1004.7,,TRUE,TRUE,,,,,,,,,,,,,,,,,,,,,,,,,,,METAR,53.0
CWSF 120500Z AUTO 26013G21KT M08/M09 RMK AO1 PK WND 24021/0451 SLP061 T10781091 51013,CWSF,2019-01-12T05:00:00Z,49.25,-65.32,-7.8,-9.1,260,13,21,,,1006.1,,TRUE,TRUE,,,,,,,,,,,,,,,,1.3,,,,,,,,,,,METAR,29.0
VOHB 120500Z 00000KT 6000 NSC 24/09 Q1019,VOHB,2019-01-12T05:00:00Z,15.37,75.08,24.0,9.0,0,0,,3.73,30.088583,,,,,,,,,,,CLR,,,,,,,,MVFR,,,,,,,,,,,,METAR,661.0
GVNP 120500Z 01009KT CAVOK 20/14 Q1013 NOSIG,GVNP,2019-01-12T05:00:00Z,14.95,-23.48,20.0,14.0,10,9,,6.21,29.911417,,,,,,TRUE,,,,,CAVOK,,,,,,,,VFR,,,,,,,,,,,,METAR,70.0
UKLU 120500Z 12004MPS 080V150 2100 -SN BR OVC016 M05/M07 Q1014 NOSIG,UKLU,2019-01-12T05:00:00Z,48.63,22.27,-5.0,-7.0,120,8,,1.3,29.940945,,,,,,TRUE,,,,-SN BR,OVC,1600,,,,,,,IFR,,,,,,,,,,,,METAR,117.0
UKON 120500Z 24004MPS 9000 NSC M09/M12 Q1012 NOSIG,UKON,2019-01-12T05:00:00Z,47.05,31.92,-9.0,-12.0,240,8,,5.59,29.88189,,,,,,TRUE,,,,,CLR,,,,,,,,VFR,,,,,,,,,,,,METAR,56.0
OITL 120500Z 28004KT CAVOK M05/M11 Q1016,OITL,2019-01-12T05:00:00Z,38.33,48.42,-5.0,-11.0,280,4,,6.21,30.0,,,,,,,,,,,CAVOK,,,,,,,,VFR,,,,,,,,,,,,METAR,1316.0
OICS 120500Z 13002KT CAVOK M06/M08 Q1022,OICS,2019-01-12T05:00:00Z,35.25,47.02,-6.0,-8.0,130,2,,6.21,30.177166,,,,,,,,,,,CAVOK,,,,,,,,VFR,,,,,,,,,,,,METAR,1373.0
OIZI 120500Z 01004KT 7000 NSC 12/M08 Q1023,OIZI,2019-01-12T05:00:00Z,27.23,60.72,12.0,-8.0,10,4,,4.35,30.206694,,,,,,,,,,,CLR,,,,,,,,MVFR,,,,,,,,,,,,METAR,591.0
OIZB 120500Z 33018KT CAVOK 08/M02 Q1027,OIZB,2019-01-12T05:00:00Z,31.1,61.55,8.0,-2.0,330,18,,6.21,30.324802,,,,,,,,,,,CAVOK,,,,,,,,VFR,,,,,,,,,,,,METAR,489.0
OING 120500Z 00000KT CAVOK 01/00 Q1019,OING,2019-01-12T05:00:00Z,36.9,54.4,1.0,0.0,0,0,,6.21,30.088583,,,,,,,,,,,CAVOK,,,,,,,,VFR,,,,,,,,,,,,METAR,155.0
OIHR 120500Z 00000KT 5000 BR NSC M07/M08 Q1022,OIHR,2019-01-12T05:00:00Z,34.13,49.85,-7.0,-8.0,0,0,,3.11,30.177166,,,,,,,,,,BR,CLR,,,,,,,,MVFR,,,,,,,,,,,,METAR,1658.0
OIBS 120500Z 33004KT CAVOK 21/13 Q1019,OIBS,2019-01-12T05:00:00Z,25.9,54.55,21.0,13.0,330,4,,6.21,30.088583,,,,,,,,,,,CAVOK,,,,,,,,VFR,,,,,,,,,,,,METAR,14.0
OIBJ 120500Z 00000KT CAVOK 10/02 Q1021,OIBJ,2019-01-12T05:00:00Z,27.82,52.35,10.0,2.0,0,0,,6.21,30.147638,,,,,,,,,,,CAVOK,,,,,,,,VFR,,,,,,,,,,,,METAR,663.0
UHWW 120500Z 33003MPS 9999 NSC 02/M22 Q1022 R25L/0///70 NOSIG RMK QFE765,UHWW,2019-01-12T05:00:00Z,43.4,132.15,2.0,-22.0,330,6,,6.21,30.177166,,,,,,TRUE,,,,,CLR,,,,,,,,VFR,,,,,,,,,,,,METAR,14.0
UHMA 120500Z 02006MPS CAVOK M22/M27 Q1024 R88/////// NOSIG RMK END R01/01007MPS QFE764/1019,UHMA,2019-01-12T05:00:00Z,64.73,177.73,-22.0,-27.0,20,12,,6.21,30.236221,,,,,,TRUE,,,,,CAVOK,,,,,,,,VFR,,,,,,,,,,,,METAR,62.0
UHMM 120500Z 00000MPS 9999 NSC M14/M15 Q1014 R10/82//45 NOSIG RMK QFE745,UHMM,2019-01-12T05:00:00Z,59.92,150.72,-14.0,-15.0,0,0,,6.21,29.940945,,,,,,TRUE,,,,,CLR,,,,,,,,VFR,,,,,,,,,,,,METAR,175.0
URWI 120500Z 18005MPS 9000 SCT/// M01/M01 Q1009 TEMPO 1000 FZRA SHSNRA BKN003 OVC015 BKN020CB,URWI,2019-01-12T05:00:00Z,46.37,44.33,-1.0,-1.0,180,10,,5.59,29.793306,,,,,,,,,,,,,,,,,,,,,,,,,,,,,,,METAR,150.0
URWA 120500Z 12006MPS 0600 0500NW R09/0650 FG VV001 02/02 Q1012 R09/190050 NOSIG RMK QBB050 OBST OBSC QFE761/1015,URWA,2019-01-12T05:00:00Z,46.28,48.02,2.0,2.0,120,12,,0.37,29.88189,,,,,,TRUE,,,,FG,OVX,0,,,,,,,LIFR,,,,,,,,,,,100,METAR,-20.0
GQNO 120500Z 05005KT CAVOK 11/M15 Q1012 NOSIG,GQNO,2019-01-12T05:00:00Z,18.3,-15.97,11.0,-15.0,50,5,,6.21,29.88189,,,,,,TRUE,,,,,CAVOK,,,,,,,,VFR,,,,,,,,,,,,METAR,4.0
VASD 120500Z VRB01KT 5000 HZ NSC 26/10 Q1018 NOSIG,VASD,2019-01-12T05:00:00Z,,,26.0,10.0,0,1,,3.11,30.059055,,,,,,TRUE,,,,HZ,CLR,,,,,,,,MVFR,,,,,,,,,,,,METAR,
RJTO 120500Z 04014KT 9999 FEW015 BKN018 08/04 Q1015,RJTO,2019-01-12T05:00:00Z,34.77,139.37,8.0,4.0,40,14,,6.21,29.970472,,,,,,,,,,,FEW,1500,BKN,1800,,,,,MVFR,,,,,,,,,,,,METAR,41.0
RJAF 120500Z VRB01KT 9999 SCT090 BKN110 BKN/// 03/M07 Q1015,RJAF,2019-01-12T05:00:00Z,36.17,137.92,3.0,-7.0,0,1,,6.21,29.970472,,,,,,,,,,,SCT,9000,BKN,11000,,,,,VFR,,,,,,,,,,,,METAR,660.0
RJBT 120500Z VRB01KT 9999 FEW025 SCT035 BKN060 06/06 Q1017,RJBT,2019-01-12T05:00:00Z,35.5,134.8,6.0,6.0,0,1,,6.21,30.029528,,,,,,,,,,,FEW,2500,SCT,3500,BKN,6000,,,VFR,,,,,,,,,,,,METAR,210.0
RJBE 120500Z 08006KT 9999 FEW020 BKN050 08/01 Q1017,RJBE,2019-01-12T05:00:00Z,34.63,135.23,8.0,1.0,80,6,,6.21,30.029528,,,,,,,,,,,FEW,2000,BKN,5000,,,,,VFR,,,,,,,,,,,,METAR,5.0
RJEB 120500Z 32016KT 9999 FEW015 BKN040 M04/M09 Q1019,RJEB,2019-01-12T05:00:00Z,44.3,143.4,-4.0,-9.0,320,16,,6.21,30.088583,,,,,,,,,,,FEW,1500,BKN,4000,,,,,VFR,,,,,,,,,,,,METAR,25.0
RJDT 120500Z 33004KT 270V350 9999 -SHRA FEW010 SCT025 BKN030 09/07 Q1017,RJDT,2019-01-12T05:00:00Z,34.27,129.32,9.0,7.0,330,4,,6.21,30.029528,,,,,,,,,,-SHRA,FEW,1000,SCT,2500,BKN,3000,,,MVFR,,,,,,,,,,,,METAR,66.0
RJDC 120500Z 17004KT 9999 FEW015 SCT090 BKN150 09/06 Q1017,RJDC,2019-01-12T05:00:00Z,33.92,131.27,9.0,6.0,170,4,,6.21,30.029528,,,,,,,,,,,FEW,1500,SCT,9000,BKN,15000,,,VFR,,,,,,,,,,,,METAR,8.0
RJCW 120500Z 33017KT 9999 -SHSN FEW015 SCT025 BKN040 M04/M10 Q1020,RJCW,2019-01-12T05:00:00Z,45.38,141.8,-4.0,-10.0,330,17,,6.21,30.11811,,,,,,,,,,-SHSN,FEW,1500,SCT,2500,BKN,4000,,,VFR,,,,,,,,,,,,METAR,11.0
RJCO 120500Z 35010KT 9999 -SHSN FEW008 SCT015 BKN030 M01/M06 Q1020,RJCO,2019-01-12T05:00:00Z,43.12,141.37,-1.0,-6.0,350,10,,6.21,30.11811,,,,,,,,,,-SHSN,FEW,800,SCT,1500,BKN,3000,,,MVFR,,,,,,,,,,,,METAR,11.0
RJOR 120500Z 17004KT 9999 FEW030 SCT040 BKN070 07/01 Q1018,RJOR,2019-01-12T05:00:00Z,35.52,134.17,7.0,1.0,170,4,,6.21,30.059055,,,,,,,,,,,FEW,3000,SCT,4000,BKN,7000,,,VFR,,,,,,,,,,,,METAR,18.0
RJFE 120500Z 33006KT 280V010 8000 -SHRA FEW010 SCT015 BKN020 11/09 Q1017,RJFE,2019-01-12T05:00:00Z,32.67,128.82,11.0,9.0,330,6,,4.97,30.029528,,,,,,,,,,-SHRA,FEW,1000,SCT,1500,BKN,2000,,,MVFR,,,,,,,,,,,,METAR,80.0
YFRT 120500Z AUTO 08012KT 9999 // NCD 34/02 Q1017,YFRT,2019-01-12T05:00:00Z,-30.83,128.12,34.0,2.0,80,12,,6.21,30.029528,,,TRUE,,,,,,,,CLR,,,,,,,,VFR,,,,,,,,,,,,SPECI,156.0
YCIN 120500Z AUTO 28005KT 9999 // NCD 39/23 Q1006,YCIN,2019-01-12T05:00:00Z,-17.58,123.83,39.0,23.0,280,5,,6.21,29.704725,,,TRUE,,,,,,,,CLR,,,,,,,,VFR,,,,,,,,,,,,SPECI,91.0
YBRM 120500Z AUTO 28012KT 9999 // NCD 32/25 Q1007 RF00.0/000.0,YBRM,2019-01-12T05:00:00Z,-17.93,122.22,32.0,25.0,280,12,,6.21,29.734253,,,TRUE,,,,,,,,CLR,,,,,,,,VFR,,,,,,,,,,,,METAR,9.0
YBRK 120500Z AUTO 06010KT 9999 // NCD 30/17 Q1013 RF00.0/000.0,YBRK,2019-01-12T05:00:00Z,-23.37,150.47,30.0,17.0,60,10,,6.21,29.911417,,,TRUE,,,,,,,,CLR,,,,,,,,VFR,,,,,,,,,,,,METAR,14.0
YBMA 120500Z AUTO 13007KT 080V140 9999 // SCT084 39/16 Q1009,YBMA,2019-01-12T05:00:00Z,-20.67,139.47,39.0,16.0,130,7,,6.21,29.793306,,,TRUE,,,,,,,,SCT,8400,,,,,,,VFR,,,,,,,,,,,,METAR,344.0
YBHM 120500Z AUTO 13022KT 9999 // SCT031 BKN046 BKN057 28/22 Q1012,YBHM,2019-01-12T05:00:00Z,-20.35,148.95,28.0,22.0,130,22,,6.21,29.88189,,,TRUE,,,,,,,,SCT,3100,BKN,4600,BKN,5700,,,VFR,,,,,,,,,,,,METAR,5.0
YBCG 120500Z AUTO 10013KT 9999 // NCD 28/18 Q1016 RF00.0/000.0,YBCG,2019-01-12T05:00:00Z,-28.17,153.5,28.0,18.0,100,13,,6.21,30.0,,,TRUE,,,,,,,,CLR,,,,,,,,VFR,,,,,,,,,,,,METAR,6.0
YAMB 120500Z AUTO 07014KT 9999 // NCD 32/15 Q1014,YAMB,2019-01-12T05:00:00Z,-27.63,152.72,32.0,15.0,70,14,,6.21,29.940945,,,TRUE,,,,,,,,CLR,,,,,,,,VFR,,,,,,,,,,,,METAR,28.0
YMHB 120500Z 16018KT CAVOK 21/06 Q1015,YMHB,2019-01-12T05:00:00Z,-42.82,147.52,21.0,6.0,160,18,,6.21,29.970472,,,,,,,,,,,CAVOK,,,,,,,,VFR,,,,,,,,,,,,METAR,27.0
CWLY 120500Z AUTO 18005KT 1/8SM FG VV002 02/01 A3005 RMK SLP187,CWLY,2019-01-12T05:00:00Z,50.22,-121.58,2.0,1.0,180,5,,0.13,30.050198,1018.7,,TRUE,,,,,,,FG,OVX,0,,,,,,,LIFR,,,,,,,,,,,200,METAR,229.0
CWLI 120500Z AUTO 05016KT ////SM //// BKN008 OVC013 M26/M28 A////,CWLI,2019-01-12T05:00:00Z,69.58,-130.9,-26.0,-28.0,50,16,,,,,,TRUE,,,,,,,,BKN,800,OVC,1300,,,,,,,,,,,,,,,,,METAR,102.0
CWIL 120500Z AUTO 12013KT ////SM OVC002 ///// A////,CWIL,2019-01-12T05:00:00Z,68.32,-100.07,,,120,13,,,,,,TRUE,,,,,,,,OVC,200,,,,,,,,,,,,,,,,,,,METAR,36.0
CZPC 120500Z AUTO 26023G30KT 9SM OVC180 04/M07 A3000 RMK SLP189,CZPC,2019-01-12T05:00:00Z,49.52,-114.0,4.0,-7.0,260,23,30,9.0,30.0,1018.9,,TRUE,,,,,,,,OVC,18000,,,,,,,VFR,,,,,,,,,,,,METAR,1190.0
CWFD 120500Z AUTO 36022G29KT ////SM //// BKN180 M27/// A2981,CWFD,2019-01-12T05:00:00Z,66.57,-61.58,,,360,22,29,,29.811024,,,TRUE,,,,,,,,BKN,18000,,,,,,,,,,,,,,,,,,,METAR,393.0
RJSS 120500Z VRB01KT 9999 FEW020 BKN160 06/M06 Q1018,RJSS,2019-01-12T05:00:00Z,38.12,140.92,6.0,-6.0,0,1,,6.21,30.059055,,,,,,,,,,,FEW,2000,BKN,16000,,,,,VFR,,,,,,,,,,,,METAR,5.0
RJCH 120500Z 28003KT 240V320 9999 FEW030 01/M08 Q1018,RJCH,2019-01-12T05:00:00Z,41.77,140.82,1.0,-8.0,280,3,,6.21,30.059055,,,,,,,,,,,FEW,3000,,,,,,,VFR,,,,,,,,,,,,METAR,36.0
VAUD 120500Z 05002KT 5000 HZ NSC 18/07 Q1019 NOSIG,VAUD,2019-01-12T05:00:00Z,24.6,73.9,18.0,7.0,50,2,,3.11,30.088583,,,,,,TRUE,,,,HZ,CLR,,,,,,,,MVFR,,,,,,,,,,,,METAR,514.0
CXDB 120500Z AUTO 23009KT 01/M13 RMK AO1 T00111128,CXDB,2019-01-12T05:00:00Z,49.05,-112.82,1.1,-12.8,230,9,,,,,,TRUE,TRUE,,,,,,,,,,,,,,,,,,,,,,,,,,,METAR,1310.0
CXAK 120500Z AUTO 18014KT M05/M08 RMK AO1 PK WND 18017/0448 T10521076,CXAK,2019-01-12T05:00:00Z,52.35,-112.6,-5.2,-7.6,180,14,,,,,,TRUE,TRUE,,,,,,,,,,,,,,,,,,,,,,,,,,,METAR,795.0
HAAB 120500Z 31002KT C A V O K 09/00 Q1028,HAAB,2019-01-12T05:00:00Z,8.97,38.78,9.0,0.0,310,2,,6.21,30.35433,,,,,,,,,,,CAVOK,,,,,,,,VFR,,,,,,,,,,,,METAR,2355.0
FQPB 120500Z 36011KT 9999 FEW020 FEW025CB BKN100 28/24 Q1012 RMK CB TO NE/E,FQPB,2019-01-12T05:00:00Z,-12.97,40.5,28.0,24.0,360,11,,6.21,29.88189,,,,,,,,,,,FEW,2000,FEW,2500,BKN,10000,,,VFR,,,,,,,,,,,,SPECI,50.0
HTSU 120500Z 00000KT 9999 FEW016 FEW019CB OVC080 17/15 Q1020,HTSU,2019-01-12T05:00:00Z,-7.95,31.67,17.0,15.0,0,0,,6.21,30.11811,,,,,,,,,,,FEW,1600,FEW,1900,OVC,8000,,,VFR,,,,,,,,,,,,METAR,1804.0
HTMT 120500Z 35010KT 9999 BKN022 FEW023CB BKN080 28/26 Q1012 NOSIG,HTMT,2019-01-12T05:00:00Z,-10.27,40.17,28.0,26.0,350,10,,6.21,29.88189,,,,,,TRUE,,,,,BKN,2200,FEW,2300,BKN,8000,,,MVFR,,,,,,,,,,,,METAR,113.0
HTTB 120500Z 00000KT 80000 MIFG BKN014 BKN070 19/19 Q1019 BECMG 7000 MIFG,HTTB,2019-01-12T05:00:00Z,-5.07,32.82,19.0,19.0,0,0,,0.0,30.088583,,,,,,,,,,MIFG,BKN,1400,BKN,7000,,,,,LIFR,,,,,,,,,,,,METAR,1190.0
HTSO 120500Z 04006KT 9999 BKN017 OVC070 21/20 Q1017,HTSO,2019-01-12T05:00:00Z,-10.67,35.57,21.0,20.0,40,6,,6.21,30.029528,,,,,,,,,,,BKN,1700,OVC,7000,,,,,MVFR,,,,,,,,,,,,METAR,1067.0
HTMW 120500Z 16005KT 9999 SCT022 FEW023CB BKN090 23/19 Q1016 NOSIG,HTMW,2019-01-12T05:00:00Z,-2.47,32.92,23.0,19.0,160,5,,6.21,30.0,,,,,,TRUE,,,,,SCT,2200,FEW,2300,BKN,9000,,,VFR,,,,,,,,,,,,METAR,1140.0
HTMU 120500Z 00000KT 9999 FEW018 FEW020CB 22/18 Q1017,HTMU,2019-01-12T05:00:00Z,-1.5,33.78,22.0,18.0,0,0,,6.21,30.029528,,,,,,,,,,,FEW,1800,FEW,2000,,,,,VFR,,,,,,,,,,,,METAR,1147.0
HTMG 120500Z 06008KT 9999 BKN020 24/20 Q1015,HTMG,2019-01-12T05:00:00Z,-6.82,37.63,24.0,20.0,60,8,,6.21,29.970472,,,,,,,,,,,BKN,2000,,,,,,,MVFR,,,,,,,,,,,,METAR,526.0
HTKA 120500Z 00000KT 9999 SCT020 FEW021CB 22/21 Q1017,HTKA,2019-01-12T05:00:00Z,-4.87,29.67,22.0,21.0,0,0,,6.21,30.029528,,,,,,,,,,,SCT,2000,FEW,2100,,,,,VFR,,,,,,,,,,,,METAR,885.0
HTIR 120500Z 00000KT 9999 SCT018 BKN070 20/18 Q1021,HTIR,2019-01-12T05:00:00Z,-7.67,35.75,20.0,18.0,0,0,,6.21,30.147638,,,,,,,,,,,SCT,1800,BKN,7000,,,,,VFR,,,,,,,,,,,,METAR,1428.0
HTDO 120500Z 10005KT 9999 SCT020 FEW021CB SCT070 22/20 Q1017 NOSIG,HTDO,2019-01-12T05:00:00Z,-6.17,35.77,22.0,20.0,100,5,,6.21,30.029528,,,,,,TRUE,,,,,SCT,2000,FEW,2100,SCT,7000,,,VFR,,,,,,,,,,,,METAR,1120.0
HTBU 120500Z 00000KT 9999 FEW018 FEW020CB SCT080 20/17 Q1016,HTBU,2019-01-12T05:00:00Z,-1.32,31.82,20.0,17.0,0,0,,6.21,30.0,,,,,,,,,,,FEW,1800,FEW,2000,SCT,8000,,,VFR,,,,,,,,,,,,METAR,1137.0
HTAR 120500Z 00000KT 9999 BKN020 18/17 Q1017 NOSIG,HTAR,2019-01-12T05:00:00Z,-3.37,36.63,18.0,17.0,0,0,,6.21,30.029528,,,,,,TRUE,,,,,BKN,2000,,,,,,,MVFR,,,,,,,,,,,,METAR,1387.0
SAZN 120500Z 32004KT CAVOK 17/00 Q1012,SAZN,2019-01-12T05:00:00Z,-38.95,-68.15,17.0,0.0,320,4,,6.21,29.88189,,,,,,,,,,,CAVOK,,,,,,,,VFR,,,,,,,,,,,,METAR,271.0
HTZA 120500Z 34008KT 9999 FEW014 28/25 Q1012 NOSIG,HTZA,2019-01-12T05:00:00Z,-6.22,39.22,28.0,25.0,340,8,,6.21,29.88189,,,,,,TRUE,,,,,FEW,1400,,,,,,,VFR,,,,,,,,,,,,SPECI,15.0
HTKJ 120500Z 09005KT 9999 SCT024 22/19 Q1016 NOSIG,HTKJ,2019-01-12T05:00:00Z,-3.42,37.07,22.0,19.0,90,5,,6.21,30.0,,,,,,TRUE,,,,,SCT,2400,,,,,,,VFR,,,,,,,,,,,,SPECI,896.0
HTDA 120500Z 35010KT 9999 SCT014 FEW016CB 28/25 Q1012 NOSIG,HTDA,2019-01-12T05:00:00Z,-6.88,39.2,28.0,25.0,350,10,,6.21,29.88189,,,,,,TRUE,,,,,SCT,1400,FEW,1600,,,,,VFR,,,,,,,,,,,,SPECI,55.0
FNDU 120500Z 00000KT 9999 BKN020 21/17 Q1017,FNDU,2019-01-12T05:00:00Z,-7.4,20.82,21.0,17.0,0,0,,6.21,30.029528,,,,,,,,,,,BKN,2000,,,,,,,MVFR,,,,,,,,,,,,METAR,747.0
FNCA 120500Z 00000KT 9000 SCT010 OVC080 25/24 Q1010,FNCA,2019-01-12T05:00:00Z,-5.58,12.18,25.0,24.0,0,0,,5.59,29.822834,,,,,,,,,,,SCT,1000,OVC,8000,,,,,VFR,,,,,,,,,,,,METAR,20.0
NSFA 120500Z VRB03KT 9999 SCT020 BKN050 30/25 Q1005 RMK NIL,NSFA,2019-01-12T05:00:00Z,-13.83,-172.0,30.0,25.0,0,3,,6.21,29.675198,,,,,,,,,,,SCT,2000,BKN,5000,,,,,VFR,,,,,,,,,,,,SPECI,5.0
FXMM 120500Z 00000KT CAVOK 18/08 Q1017 NOSIG,FXMM,2019-01-12T05:00:00Z,-29.47,27.55,18.0,8.0,0,0,,6.21,30.029528,,,,,,TRUE,,,,,CAVOK,,,,,,,,VFR,,,,,,,,,,,,METAR,1631.0
HKNW 120500Z 06003KT 9999 FEW020 18/14 Q1022,HKNW,2019-01-12T05:00:00Z,-1.32,36.82,18.0,14.0,60,3,,6.21,30.177166,,,,,,,,,,,FEW,2000,,,,,,,VFR,,,,,,,,,,,,METAR,1679.0
HKMO 120500Z 02005KT 9999 BKN020 26/24 Q1013 NOSIG,HKMO,2019-01-12T05:00:00Z,-4.02,39.62,26.0,24.0,20,5,,6.21,29.911417,,,,,,TRUE,,,,,BKN,2000,,,,,,,MVFR,,,,,,,,,,,,METAR,55.0
VIJP 120500Z 10006KT 2500 HZ NSC 17/06 Q1020 BECMG 3000 HZ,VIJP,2019-01-12T05:00:00Z,26.82,75.78,17.0,6.0,100,6,,1.55,30.11811,,,,,,,,,,HZ,CLR,,,,,,,,IFR,,,,,,,,,,,,SPECI,390.0
HEMA 120500Z 24009KT CAVOK 14/09 Q1014 NOSIG,HEMA,2019-01-12T05:00:00Z,25.55,34.58,14.0,9.0,240,9,,6.21,29.940945,,,,,,TRUE,,,,,CAVOK,,,,,,,,VFR,,,,,,,,,,,,METAR,77.0
HESG 120500Z VRB03KT CAVOK 07/M02 Q1013 NOSIG,HESG,2019-01-12T05:00:00Z,26.33,31.75,7.0,-2.0,0,3,,6.21,29.911417,,,,,,TRUE,,,,,CAVOK,,,,,,,,VFR,,,,,,,,,,,,METAR,70.0
HEBL 120500Z VRB03KT CAVOK 11/01 Q1013 NOSIG,HEBL,2019-01-12T05:00:00Z,22.38,31.62,11.0,1.0,0,3,,6.21,29.911417,,,,,,TRUE,,,,,CAVOK,,,,,,,,VFR,,,,,,,,,,,,METAR,188.0
HEBA 120500Z 00000KT 1200 R32/1200 BR NSC 05/04 Q1014 TEMPO 3000,HEBA,2019-01-12T05:00:00Z,30.92,29.7,5.0,4.0,0,0,,0.75,29.940945,,,,,,,,,,BR,CLR,,,,,,,,LIFR,,,,,,,,,,,,SPECI,54.0
HEAT 120500Z 00000KT 6000 NSC 09/02 Q1016 NOSIG,HEAT,2019-01-12T05:00:00Z,27.05,31.02,9.0,2.0,0,0,,3.73,30.0,,,,,,TRUE,,,,,CLR,,,,,,,,MVFR,,,,,,,,,,,,METAR,70.0
HESH 120500Z 35007KT CAVOK 17/07 Q1013 NOSIG,HESH,2019-01-12T05:00:00Z,27.97,34.38,17.0,7.0,350,7,,6.21,29.911417,,,,,,TRUE,,,,,CAVOK,,,,,,,,VFR,,,,,,,,,,,,METAR,50.0
HEPS 120500Z VRB01KT CAVOK 09/07 Q1015 NOSIG,HEPS,2019-01-12T05:00:00Z,31.28,32.25,9.0,7.0,0,1,,6.21,29.970472,,,,,,TRUE,,,,,CAVOK,,,,,,,,VFR,,,,,,,,,,,,METAR,6.0
HEGN 120500Z 31010KT CAVOK 13/M04 Q1014 NOSIG,HEGN,2019-01-12T05:00:00Z,27.18,33.8,13.0,-4.0,310,10,,6.21,29.940945,,,,,,TRUE,,,,,CAVOK,,,,,,,,VFR,,,,,,,,,,,,METAR,14.0
HEAR 120500Z 18004KT CAVOK 02/M02 Q1015 NOSIG,HEAR,2019-01-12T05:00:00Z,31.07,33.82,2.0,-2.0,180,4,,6.21,29.970472,,,,,,TRUE,,,,,CAVOK,,,,,,,,VFR,,,,,,,,,,,,METAR,32.0
HELX 120500Z 00000KT 6000 NSC 07/M03 Q1014 NOSIG,HELX,2019-01-12T05:00:00Z,25.67,32.7,7.0,-3.0,0,0,,3.73,29.940945,,,,,,TRUE,,,,,CLR,,,,,,,,MVFR,,,,,,,,,,,,METAR,88.0
HEAX 120500Z 00000KT 3000 BR NSC 07/06 Q1014 NOSIG,HEAX,2019-01-12T05:00:00Z,31.18,29.93,7.0,6.0,0,0,,1.86,29.940945,,,,,,TRUE,,,,BR,CLR,,,,,,,,IFR,,,,,,,,,,,,METAR,7.0
HEMM 120500Z 17014KT CAVOK 08/01 Q1014 NOSIG,HEMM,2019-01-12T05:00:00Z,31.32,27.22,8.0,1.0,170,14,,6.21,29.940945,,,,,,TRUE,,,,,CAVOK,,,,,,,,VFR,,,,,,,,,,,,METAR,30.0
CWXL 120500Z AUTO 15011KT M03/M06 RMK AO1 T10321058,CWXL,2019-01-12T05:00:00Z,49.73,-111.45,-3.2,-5.8,150,11,,,,,,TRUE,TRUE,,,,,,,,,,,,,,,,,,,,,,,,,,,METAR,817.0
CXWM 120500Z AUTO 19009KT M02/M08 RMK AO1 T10151078,CXWM,2019-01-12T05:00:00Z,49.5,-112.12,-1.5,-7.8,190,9,,,,,,TRUE,TRUE,,,,,,,,,,,,,,,,,,,,,,,,,,,METAR,944.0
CXAJ 120500Z AUTO 02001KT M14/M16 RMK AO1 SOG 43 T11401156,CXAJ,2019-01-12T05:00:00Z,54.77,-112.82,-14.0,-15.6,20,1,,,,,,TRUE,TRUE,,,,,,,,,,,,,,,,,,,,,,,,,,,METAR,574.0
CXAG 120500Z AUTO 14011KT M11/M13 RMK AO1 T11091130,CXAG,2019-01-12T05:00:00Z,53.92,-112.28,-10.9,-13.0,140,11,,,,,,TRUE,TRUE,,,,,,,,,,,,,,,,,,,,,,,,,,,METAR,625.0
CWGX 120500Z AUTO 14002KT M23/M25 RMK AO1 SOG 18 8012 SLP378 T12281253,CWGX,2019-01-12T05:00:00Z,56.35,-94.7,-22.8,-25.3,140,2,,,,1037.8,,TRUE,TRUE,,,,,,,,,,,,,,,,,,,,,,,,,,,METAR,145.0
CZPS 120500Z AUTO 22013KT 01/M08 RMK AO1 T00071076,CZPS,2019-01-12T05:00:00Z,52.43,-113.6,0.7,-7.6,220,13,,,,,,TRUE,TRUE,,,,,,,,,,,,,,,,,,,,,,,,,,,METAR,965.0
CZOL 120500Z AUTO 01001KT M13/M15 RMK AO1 T11341148,CZOL,2019-01-12T05:00:00Z,53.65,-113.35,-13.4,-14.8,10,1,,,,,,TRUE,TRUE,,,,,,,,,,,,,,,,,,,,,,,,,,,METAR,665.0
CXVM 120500Z AUTO 15009KT M12/M14 RMK AO1 T11211143,CXVM,2019-01-12T05:00:00Z,53.35,-110.88,-12.1,-14.3,150,9,,,,,,TRUE,TRUE,,,,,,,,,,,,,,,,,,,,,,,,,,,METAR,623.0
CXOL 120500Z AUTO 23009KT 03/M08 RMK AO1 T00301084,CXOL,2019-01-12T05:00:00Z,51.77,-114.08,3.0,-8.4,230,9,,,,,,TRUE,TRUE,,,,,,,,,,,,,,,,,,,,,,,,,,,METAR,1046.0
CXMO 120500Z AUTO 20010KT M08/M10 RMK AO1 T10821098,CXMO,2019-01-12T05:00:00Z,51.67,-112.68,-8.2,-9.8,200,10,,,,,,TRUE,TRUE,,,,,,,,,,,,,,,,,,,,,,,,,,,METAR,836.0
HKKI 120500Z 00000KT 9999 FEW018CB BKN260 20/13 Q1017,HKKI,2019-01-12T05:00:00Z,-0.1,34.75,20.0,13.0,0,0,,6.21,30.029528,,,,,,,,,,,FEW,1800,BKN,26000,,,,,VFR,,,,,,,,,,,,METAR,1146.0
SBRB 120500Z 23005KT 190V280 9999 SCT003 SCT007 BKN100 23/23 Q1 012,SBRB,2019-01-12T05:00:00Z,-10.0,-67.78,23.0,23.0,230,5,,6.21,,,,,,,,,,,,SCT,300,SCT,700,BKN,10000,,,VFR,,,,,,,,,,,,SPECI,143.0
NFNA 120500Z 35005KT 9999 SCT020TCU BKN048 28/25 Q1007,NFNA,2019-01-12T05:00:00Z,-18.05,178.57,28.0,25.0,350,5,,6.21,29.734253,,,,,,,,,,,SCT,2000,BKN,4800,,,,,VFR,,,,,,,,,,,,METAR,5.0
NFFN 120500Z 35011KT 9999 FEW015CB SCT020TCU BKN300 30/24 Q1006 TEMPO 6000 SHRA,NFFN,2019-01-12T05:00:00Z,-17.75,177.45,30.0,24.0,350,11,,6.21,29.704725,,,,,,,,,,,FEW,1500,SCT,2000,BKN,30000,,,VFR,,,,,,,,,,,,METAR,18.0
FQVL 120500Z 02008KT 9999 SCT020 30/26 Q1007,FQVL,2019-01-12T05:00:00Z,-22.0,35.32,30.0,26.0,20,8,,6.21,29.734253,,,,,,,,,,,SCT,2000,,,,,,,VFR,,,,,,,,,,,,METAR,21.0
SCEL 120500Z 16006KT CAVOK 16/08 Q1017 TEMPO 7000 NSC,SCEL,2019-01-12T05:00:00Z,-33.37,-70.77,16.0,8.0,160,6,,6.21,30.029528,,,,,,,,,,,CAVOK,,,,,,,,VFR,,,,,,,,,,,,METAR,476.0
UBBL 120500Z VRB02KT 9999 SCT200 M01/M02 Q1018 R33/CLRD// NOSIG RMK MT OP ,UBBL,2019-01-12T05:00:00Z,38.75,48.82,-1.0,-2.0,0,2,,6.21,30.059055,,,,,,TRUE,,,,,SCT,20000,,,,,,,VFR,,,,,,,,,,,,METAR,10.0
SBSJ 120500Z 21004KT 9999 FEW020 19/19 Q1018,SBSJ,2019-01-12T05:00:00Z,-23.22,-45.87,19.0,19.0,210,4,,6.21,30.059055,,,,,,,,,,,FEW,2000,,,,,,,VFR,,,,,,,,,,,,METAR,646.0
SMJP 120500Z 07002KT CAVOK 24/22 Q1012 NOSIG,SMJP,2019-01-12T05:00:00Z,5.45,-55.17,24.0,22.0,70,2,,6.21,29.88189,,,,,,TRUE,,,,,CAVOK,,,,,,,,VFR,,,,,,,,,,,,METAR,16.0
WSAP 120500Z 03009KT 9999 FEW020 BKN300 32/22 Q1010,WSAP,2019-01-12T05:00:00Z,1.37,103.92,32.0,22.0,30,9,,6.21,29.822834,,,,,,,,,,,FEW,2000,BKN,30000,,,,,VFR,,,,,,,,,,,,METAR,32.0
YMOR 120500Z AUTO 22008KT 9999 // NCD 37/09 Q1014,YMOR,2019-01-12T05:00:00Z,-29.5,149.85,37.0,9.0,220,8,,6.21,29.940945,,,TRUE,,,,,,,,CLR,,,,,,,,VFR,,,,,,,,,,,,METAR,214.0
YMML 120500Z 17017KT CAVOK 23/10 Q1017,YMML,2019-01-12T05:00:00Z,-37.67,144.82,23.0,10.0,170,17,,6.21,30.029528,,,,,,,,,,,CAVOK,,,,,,,,VFR,,,,,,,,,,,,METAR,141.0
YMER 120500Z AUTO 04007KT 9999 // NCD 30/20 Q1013,YMER,2019-01-12T05:00:00Z,-36.92,149.9,30.0,20.0,40,7,,6.21,29.911417,,,TRUE,,,,,,,,CLR,,,,,,,,VFR,,,,,,,,,,,,METAR,2.0
YMEN 120500Z AUTO 19017KT 9999 // NCD 24/15 Q1017,YMEN,2019-01-12T05:00:00Z,-37.72,144.9,24.0,15.0,190,17,,6.21,30.029528,,,TRUE,,,,,,,,CLR,,,,,,,,VFR,,,,,,,,,,,,METAR,86.0
YMDG 120500Z AUTO 25005KT 9999 // NCD 35/14 Q1016,YMDG,2019-01-12T05:00:00Z,-32.57,149.62,35.0,14.0,250,5,,6.21,30.0,,,TRUE,,,,,,,,CLR,,,,,,,,VFR,,,,,,,,,,,,METAR,471.0
YMAY 120500Z AUTO 12006KT 9999 // NCD 37/08 Q1013,YMAY,2019-01-12T05:00:00Z,-36.07,146.93,37.0,8.0,120,6,,6.21,29.911417,,,TRUE,,,,,,,,CLR,,,,,,,,VFR,,,,,,,,,,,,METAR,171.0
YMAV 120500Z AUTO 17019KT //// // NCD 24/13 Q1017 RF00.0/000.0 PRESENT WEATHER SENSOR US,YMAV,2019-01-12T05:00:00Z,-38.03,144.48,24.0,13.0,170,19,,,30.029528,,,TRUE,,,,,,,,CLR,,,,,,,,,,,,,,,,,,,,METAR,8.0
YLRE 120500Z AUTO 12011G25KT //// // NCD 38/14 Q1011,YLRE,2019-01-12T05:00:00Z,-23.43,144.28,38.0,14.0,120,11,25,,29.852362,,,TRUE,,,,,,,,CLR,,,,,,,,,,,,,,,,,,,,METAR,193.0
MKJS 120500Z VRB02KT 9999 FEW022 24/19 Q1015,MKJS,2019-01-12T05:00:00Z,18.5,-77.92,24.0,19.0,0,2,,6.21,29.970472,,,,,,,,,,,FEW,2200,,,,,,,VFR,,,,,,,,,,,,METAR,1.0
VEMR 120500Z 36004KT 3500 HZ FEW020 18/13 Q1019,VEMR,2019-01-12T05:00:00Z,25.88,93.77,18.0,13.0,360,4,,2.17,30.088583,,,,,,,,,,HZ,FEW,2000,,,,,,,IFR,,,,,,,,,,,,METAR,148.0
VOPC 120500Z 05007KT 5000 HZ FEW020 26/20 Q1017 NOSIG,VOPC,2019-01-12T05:00:00Z,11.97,79.82,26.0,20.0,50,7,,3.11,30.029528,,,,,,TRUE,,,,HZ,FEW,2000,,,,,,,MVFR,,,,,,,,,,,,METAR,36.0
SCAR 120500Z 35005KT CAVOK 22/16 Q1016,SCAR,2019-01-12T05:00:00Z,-18.35,-70.32,22.0,16.0,350,5,,6.21,30.0,,,,,,,,,,,CAVOK,,,,,,,,VFR,,,,,,,,,,,,METAR,59.0
MKJP 120500Z VRB02KT 9999 FEW022 24/18 Q1015,MKJP,2019-01-12T05:00:00Z,17.92,-76.78,24.0,18.0,0,2,,6.21,29.970472,,,,,,,,,,,FEW,2200,,,,,,,VFR,,,,,,,,,,,,METAR,3.0
FQMA 120500Z 04009KT 9999 FEW025 30/24 Q1004 NOSIG,FQMA,2019-01-12T05:00:00Z,-25.92,32.57,30.0,24.0,40,9,,6.21,29.64567,,,,,,TRUE,,,,,FEW,2500,,,,,,,VFR,,,,,,,,,,,,METAR,44.0
FQQL 120500Z 29007KT 9999 FEW020 SCT100 27/24 Q1008,FQQL,2019-01-12T05:00:00Z,-17.87,36.87,27.0,24.0,290,7,,6.21,29.763779,,,,,,,,,,,FEW,2000,SCT,10000,,,,,VFR,,,,,,,,,,,,METAR,16.0
FQCH 120500Z 33004KT 2000 BR SCT009 SCT015 24/24 Q1013,FQCH,2019-01-12T05:00:00Z,-19.15,33.43,24.0,24.0,330,4,,1.24,29.911417,,,,,,,,,,BR,SCT,900,SCT,1500,,,,,IFR,,,,,,,,,,,,METAR,732.0
GMTN 120500Z AUTO 10013KT 9999NDV /// 12/03 Q1025,GMTN,2019-01-12T05:00:00Z,35.57,-5.32,12.0,3.0,100,13,,,30.265747,,,TRUE,,,,,,,,,,,,,,,,,,,,,,,,,,,,SPECI,10.0
GMTA 120500Z VRB02KT CAVOK 02/M00 Q1026 NOSIG,GMTA,2019-01-12T05:00:00Z,35.17,-3.85,2.0,0.0,0,2,,6.21,30.295275,,,,,,TRUE,,,,,CAVOK,,,,,,,,VFR,,,,,,,,,,,,METAR,14.0
GMMW 120500Z 28005KT CAVOK M00/M04 Q1026 NOSIG,GMMW,2019-01-12T05:00:00Z,34.98,-3.02,0.0,-4.0,280,5,,6.21,30.295275,,,,,,TRUE,,,,,CAVOK,,,,,,,,VFR,,,,,,,,,,,,METAR,175.0
GMFO 120500Z VRB03KT CAVOK M02/M05 Q1026 NOSIG,GMFO,2019-01-12T05:00:00Z,34.77,-1.92,-2.0,-5.0,0,3,,6.21,30.295275,,,,,,TRUE,,,,,CAVOK,,,,,,,,VFR,,,,,,,,,,,,METAR,470.0
GMFM 120500Z 11009KT CAVOK 02/M01 Q1021 NOSIG,GMFM,2019-01-12T05:00:00Z,33.87,-5.52,2.0,-1.0,110,9,,6.21,30.147638,,,,,,TRUE,,,,,CAVOK,,,,,,,,VFR,,,,,,,,,,,,METAR,549.0
GMFK 120500Z 00000KT CAVOK 01/M05 Q1026 NOSIG,GMFK,2019-01-12T05:00:00Z,31.95,-4.4,1.0,-5.0,0,0,,6.21,30.295275,,,,,,TRUE,,,,,CAVOK,,,,,,,,VFR,,,,,,,,,,,,METAR,1045.0
SBCZ 120500Z 00000KT 6000 -RA SCT006 OVC090 23/22 Q1013,SBCZ,2019-01-12T05:00:00Z,-7.62,-72.77,23.0,22.0,0,0,,3.73,29.911417,,,,,,,,,,-RA,SCT,600,OVC,9000,,,,,MVFR,,,,,,,,,,,,METAR,170.0
TNCM 120500Z VRB02KT 9999 FEW020 23/21 Q1017 A3003 ,TNCM,2019-01-12T05:00:00Z,18.05,-63.12,23.0,21.0,0,2,,6.21,30.029528,,,,,,,,,,,FEW,2000,,,,,,,VFR,,,,,,,,,,,,METAR,4.0
TBPB 120500Z 09013KT 9999 FEW022 25/21 Q1015 NOSIG,TBPB,2019-01-12T05:00:00Z,13.07,-59.48,25.0,21.0,90,13,,6.21,29.970472,,,,,,TRUE,,,,,FEW,2200,,,,,,,VFR,,,,,,,,,,,,METAR,52.0
KPIH 120500Z AUTO 03008KT 10SM OVC013 M01/M02 A3029 RMK AO2 T10061022,KPIH,2019-01-12T05:00:00Z,42.92,-112.57,-0.6,-2.2,30,8,,10.0,30.28937,,,TRUE,TRUE,,,,,,,OVC,1300,,,,,,,MVFR,,,,,,,,,,,,METAR,1359.0
KELN 120500Z AUTO 00000KT 1/2SM FG BKN001 BKN016 01/M01 A3013 RMK AO2 T00061006,KELN,2019-01-12T05:00:00Z,47.03,-120.53,0.6,-0.6,0,0,,0.5,30.129921,,,TRUE,TRUE,,,,,,FG,BKN,100,BKN,1600,,,,,LIFR,,,,,,,,,,,,METAR,519.0
KTYR 120500Z AUTO 12006KT 7SM RA FEW028 BKN048 OVC060 09/08 A2999 RMK AO2 P0002 T00890083,KTYR,2019-01-12T05:00:00Z,32.37,-95.4,8.9,8.3,120,6,,7.0,29.991142,,,TRUE,TRUE,,,,,,RA,FEW,2800,BKN,4800,OVC,6000,,,VFR,,,,,,0.02,,,,,,METAR,165.0
NVVW 120500Z 19008KT 9999 FEW025 29/25 Q1003 RMK NIL,NVVW,2019-01-12T05:00:00Z,-19.45,169.22,29.0,25.0,190,8,,6.21,29.616142,,,,,,,,,,,FEW,2500,,,,,,,VFR,,,,,,,,,,,,METAR,6.0
NVVV 120500Z 18006KT 9999 SCT020 29/23 Q1005 RMK NIL,NVVV,2019-01-12T05:00:00Z,-17.68,168.3,29.0,23.0,180,6,,6.21,29.675198,,,,,,,,,,,SCT,2000,,,,,,,VFR,,,,,,,,,,,,METAR,21.0
NVSS 120500Z 03003KT 9999 FEW025 BKN110 29/24 Q1005 RMK NIL,NVSS,2019-01-12T05:00:00Z,-15.52,167.22,29.0,24.0,30,3,,6.21,29.675198,,,,,,,,,,,FEW,2500,BKN,11000,,,,,VFR,,,,,,,,,,,,METAR,44.0
TAPA 120500Z 00000KT 9999 FEW017 BKN036 23/20 Q1016 NOSIG,TAPA,2019-01-12T05:00:00Z,17.12,-61.78,23.0,20.0,0,0,,6.21,30.0,,,,,,TRUE,,,,,FEW,1700,BKN,3600,,,,,VFR,,,,,,,,,,,,METAR,14.0
FSIA 120500Z VRB02KT 9999 FEW018 30/25 Q1013 NOSIG,FSIA,2019-01-12T05:00:00Z,-4.67,55.52,30.0,25.0,0,2,,6.21,29.911417,,,,,,TRUE,,,,,FEW,1800,,,,,,,VFR,,,,,,,,,,,,METAR,3.0
WSSL 120500Z 02009KT 340V040 9999 FEW022 BKN300 31/20 Q1011,WSSL,2019-01-12T05:00:00Z,1.42,103.87,31.0,20.0,20,9,,6.21,29.852362,,,,,,,,,,,FEW,2200,BKN,30000,,,,,VFR,,,,,,,,,,,,METAR,14.0
OLBA 120500Z 10005KT 8000 NSC 10/00 Q1017 NOSIG,OLBA,2019-01-12T05:00:00Z,33.82,35.47,10.0,0.0,100,5,,4.97,30.029528,,,,,,TRUE,,,,,CLR,,,,,,,,MVFR,,,,,,,,,,,,METAR,19.0
SBJP 120500Z 17007KT CAVOK 25/22 Q1011,SBJP,2019-01-12T05:00:00Z,-7.15,-34.95,25.0,22.0,170,7,,6.21,29.852362,,,,,,,,,,,CAVOK,,,,,,,,VFR,,,,,,,,,,,,METAR,66.0
NGTA 120500Z 35008KT 9999 FEW017CB SCT019 31/26 Q1005 RMK CB3 TO SW,NGTA,2019-01-12T05:00:00Z,1.37,173.13,31.0,26.0,350,8,,6.21,29.675198,,,,,,,,,,,FEW,1700,SCT,1900,,,,,VFR,,,,,,,,,,,,METAR,2.0
LBPL 120500Z 20008KT 9999 FEW100 M07/M07 Q1019,LBPL,2019-01-12T05:00:00Z,43.45,24.5,-7.0,-7.0,200,8,,6.21,30.088583,,,,,,,,,,,FEW,10000,,,,,,,VFR,,,,,,,,,,,,METAR,101.0
LBIA 120500Z 00000KT 6000 FEW050 SCT100 M03/M03 Q1016,LBIA,2019-01-12T05:00:00Z,42.45,26.35,-3.0,-3.0,0,0,,3.73,30.0,,,,,,,,,,,FEW,5000,SCT,10000,,,,,MVFR,,,,,,,,,,,,METAR,155.0
LBPG 120500Z 25004KT 9999 FEW100 M05/M07 Q1016,LBPG,2019-01-12T05:00:00Z,42.28,24.72,-5.0,-7.0,250,4,,6.21,30.0,,,,,,,,,,,FEW,10000,,,,,,,VFR,,,,,,,,,,,,METAR,58.0
TLPL 120500Z 09016KT 9000 VCSH BKN020 26/22 Q1016 NOSIG,TLPL,2019-01-12T05:00:00Z,13.75,-60.95,26.0,22.0,90,16,,5.59,30.0,,,,,,TRUE,,,,VCSH,BKN,2000,,,,,,,MVFR,,,,,,,,,,,,METAR,3.0
YCCY 120500Z AUTO 11012KT 060V120 9999 // SCT082 39/15 Q1008,YCCY,2019-01-12T05:00:00Z,-20.67,140.5,39.0,15.0,110,12,,6.21,29.763779,,,TRUE,,,,,,,,SCT,8200,,,,,,,VFR,,,,,,,,,,,,METAR,570.0
YCBP 120500Z AUTO 18012KT 9999 // NCD 39/M10 Q1013,YCBP,2019-01-12T05:00:00Z,-29.03,134.72,39.0,-10.0,180,12,,6.21,29.911417,,,TRUE,,,,,,,,CLR,,,,,,,,VFR,,,,,,,,,,,,METAR,226.0
YCBB 120500Z AUTO 17005KT 9999 // NCD 35/09 Q1017,YCBB,2019-01-12T05:00:00Z,-31.33,149.27,35.0,9.0,170,5,,6.21,30.029528,,,TRUE,,,,,,,,CLR,,,,,,,,VFR,,,,,,,,,,,,METAR,645.0
YCBA 120500Z AUTO 22006KT 190V290 9999 // NCD 40/08 Q1013,YCBA,2019-01-12T05:00:00Z,-31.53,145.8,40.0,8.0,220,6,,6.21,29.911417,,,TRUE,,,,,,,,CLR,,,,,,,,VFR,,,,,,,,,,,,METAR,221.0
YCAS 120500Z AUTO 10014KT //// // ////// 33/15 Q1015,YCAS,2019-01-12T05:00:00Z,-28.88,153.07,33.0,15.0,100,14,,,29.970472,,,TRUE,,,,,,,,,,,,,,,,,,,,,,,,,,,,METAR,26.0
YCAR 120500Z AUTO 20020KT 9999 // NCD 27/20 Q1010,YCAR,2019-01-12T05:00:00Z,-24.88,113.67,27.0,20.0,200,20,,6.21,29.822834,,,TRUE,,,,,,,,CLR,,,,,,,,VFR,,,,,,,,,,,,METAR,8.0
YBWX 120500Z AUTO 21014KT //// // ////// 30/23 Q1008,YBWX,2019-01-12T05:00:00Z,-20.88,115.4,30.0,23.0,210,14,,,29.763779,,,TRUE,,,,,,,,,,,,,,,,,,,,,,,,,,,,METAR,6.0
YBUD 120500Z AUTO 09019KT 9999 // NCD 31/18 Q1013,YBUD,2019-01-12T05:00:00Z,-24.9,152.32,31.0,18.0,90,19,,6.21,29.911417,,,TRUE,,,,,,,,CLR,,,,,,,,VFR,,,,,,,,,,,,METAR,82.0
YBTL 120500Z AUTO 06016KT 9999 // SCT064 30/22 Q1011,YBTL,2019-01-12T05:00:00Z,-19.25,146.75,30.0,22.0,60,16,,6.21,29.852362,,,TRUE,,,,,,,,SCT,6400,,,,,,,VFR,,,,,,,,,,,,METAR,6.0
OMSJ 120500Z 16008KT 9999 BKN030 18/13 Q1020,OMSJ,2019-01-12T05:00:00Z,25.32,55.52,18.0,13.0,160,8,,6.21,30.11811,,,,,,,,,,,BKN,3000,,,,,,,MVFR,,,,,,,,,,,,METAR,33.0
OMRK 120500Z 17007KT CAVOK 19/13 Q1020 A3013,OMRK,2019-01-12T05:00:00Z,25.62,55.92,19.0,13.0,170,7,,6.21,30.11811,,,,,,,,,,,CAVOK,,,,,,,,VFR,,,,,,,,,,,,METAR,31.0
OMFJ 120500Z 28012KT CAVOK 21/11 Q1019 A3010,OMFJ,2019-01-12T05:00:00Z,25.1,56.32,21.0,11.0,280,12,,6.21,30.088583,,,,,,,,,,,CAVOK,,,,,,,,VFR,,,,,,,,,,,,METAR,28.0
OMDW 120500Z 18007KT 9999 FEW033 18/13 Q1020 NOSIG,OMDW,2019-01-12T05:00:00Z,24.9,55.17,18.0,13.0,180,7,,6.21,30.11811,,,,,,TRUE,,,,,FEW,3300,,,,,,,VFR,,,,,,,,,,,,METAR,25.0
OMDB 120500Z 19006KT 9999 SCT030 18/13 Q1020 NOSIG,OMDB,2019-01-12T05:00:00Z,25.25,55.37,18.0,13.0,190,6,,6.21,30.11811,,,,,,TRUE,,,,,SCT,3000,,,,,,,VFR,,,,,,,,,,,,METAR,5.0
OMAL 120500Z 05003KT CAVOK 16/12 Q1021 NOSIG,OMAL,2019-01-12T05:00:00Z,24.25,55.6,16.0,12.0,50,3,,6.21,30.147638,,,,,,TRUE,,,,,CAVOK,,,,,,,,VFR,,,,,,,,,,,,METAR,262.0
OMAD 120500Z 31008KT 9999 SCT035 21/13 Q1020 NOSIG,OMAD,2019-01-12T05:00:00Z,24.42,54.47,21.0,13.0,310,8,,6.21,30.11811,,,,,,TRUE,,,,,SCT,3500,,,,,,,VFR,,,,,,,,,,,,METAR,3.0
OMAA 120500Z 30007KT 280V340 9999 FEW035 20/13 Q1019 NOSIG,OMAA,2019-01-12T05:00:00Z,24.42,54.63,20.0,13.0,300,7,,6.21,30.088583,,,,,,TRUE,,,,,FEW,3500,,,,,,,VFR,,,,,,,,,,,,METAR,27.0
TNCA 120500Z 08011KT 9999 FEW018 26/21 Q1014 NOSIG,TNCA,2019-01-12T05:00:00Z,12.5,-70.0,26.0,21.0,80,11,,6.21,29.940945,,,,,,TRUE,,,,,FEW,1800,,,,,,,VFR,,,,,,,,,,,,METAR,18.0
YWLM 120500Z AUTO 10010KT 9999 // NCD 33/19 Q1014,YWLM,2019-01-12T05:00:00Z,-32.8,151.83,33.0,19.0,100,10,,6.21,29.940945,,,TRUE,,,,,,,,CLR,,,,,,,,VFR,,,,,,,,,,,,METAR,9.0
YWHA 120500Z AUTO 18024KT 9999 // NCD 28/17 Q1015,YWHA,2019-01-12T05:00:00Z,-33.07,137.52,28.0,17.0,180,24,,6.21,29.970472,,,TRUE,,,,,,,,CLR,,,,,,,,VFR,,,,,,,,,,,,METAR,13.0
YWGT 120500Z AUTO 04005KT 9999 // NCD 38/01 Q1012,YWGT,2019-01-12T05:00:00Z,-36.42,146.3,38.0,1.0,40,5,,6.21,29.88189,,,TRUE,,,,,,,,CLR,,,,,,,,VFR,,,,,,,,,,,,METAR,153.0
YTRE 120500Z AUTO 09013KT 9999 // NCD 31/18 Q1014,YTRE,2019-01-12T05:00:00Z,-31.88,152.52,31.0,18.0,90,13,,6.21,29.940945,,,TRUE,,,,,,,,CLR,,,,,,,,VFR,,,,,,,,,,,,METAR,12.0
YTEF 120500Z AUTO 04008KT 350V050 9999 // NCD 44/11 Q1008,YTEF,2019-01-12T05:00:00Z,-21.72,122.23,44.0,11.0,40,8,,6.21,29.763779,,,TRUE,,,,,,,,CLR,,,,,,,,VFR,,,,,,,,,,,,METAR,296.0
YSWG 120500Z AUTO 35006KT 310V010 9999 // NCD 37/10 Q1013,YSWG,2019-01-12T05:00:00Z,-35.13,147.47,37.0,10.0,350,6,,6.21,29.911417,,,TRUE,,,,,,,,CLR,,,,,,,,VFR,,,,,,,,,,,,METAR,213.0
YSTW 120500Z AUTO 19008KT 9999 // NCD 36/13 Q1015 RF00.0/000.2,YSTW,2019-01-12T05:00:00Z,-31.07,150.85,36.0,13.0,190,8,,6.21,29.970472,,,TRUE,,,,,,,,CLR,,,,,,,,VFR,,,,,,,,,,,,METAR,410.0
SBTE 120500Z 31004KT 9999 SCT030 BKN100 25/22 Q1011,SBTE,2019-01-12T05:00:00Z,-5.03,-42.82,25.0,22.0,310,4,,6.21,29.852362,,,,,,,,,,,SCT,3000,BKN,10000,,,,,VFR,,,,,,,,,,,,METAR,69.0
SBRJ 120500Z 17003KT CAVOK 24/23 Q1013,SBRJ,2019-01-12T05:00:00Z,-22.88,-43.17,24.0,23.0,170,3,,6.21,29.911417,,,,,,,,,,,CAVOK,,,,,,,,VFR,,,,,,,,,,,,METAR,3.0
SBCT 120500Z 13005KT 9999 BKN011 19/19 Q1020,SBCT,2019-01-12T05:00:00Z,-25.52,-49.17,19.0,19.0,130,5,,6.21,30.11811,,,,,,,,,,,BKN,1100,,,,,,,MVFR,,,,,,,,,,,,METAR,908.0
SBPL 120500Z 14008KT CAVOK 26/18 Q1014,SBPL,2019-01-12T05:00:00Z,-9.37,-40.57,26.0,18.0,140,8,,6.21,29.940945,,,,,,,,,,,CAVOK,,,,,,,,VFR,,,,,,,,,,,,METAR,375.0
SBPA 120500Z 11007KT 9999 SCT040 SCT070 23/20 Q1017,SBPA,2019-01-12T05:00:00Z,-30.0,-51.17,23.0,20.0,110,7,,6.21,30.029528,,,,,,,,,,,SCT,4000,SCT,7000,,,,,VFR,,,,,,,,,,,,METAR,3.0
ORBI 120500Z 29003KT CAVOK 01/M01 Q1023 NOSIG,ORBI,2019-01-12T05:00:00Z,33.27,44.23,1.0,-1.0,290,3,,6.21,30.206694,,,,,,TRUE,,,,,CAVOK,,,,,,,,VFR,,,,,,,,,,,,METAR,35.0
MDST 120500Z 00000KT 9999 FEW016CB SCT018 21/20 Q1017 CB/NE/SW,MDST,2019-01-12T05:00:00Z,19.4,-70.6,21.0,20.0,0,0,,6.21,30.029528,,,,,,,,,,,FEW,1600,SCT,1800,,,,,VFR,,,,,,,,,,,,SPECI,184.0
MDSD 120500Z 02004KT 9999 FEW016CB BKN018 21/20 Q1016 CB/W,MDSD,2019-01-12T05:00:00Z,18.42,-69.67,21.0,20.0,20,4,,6.21,30.0,,,,,,,,,,,FEW,1600,BKN,1800,,,,,MVFR,,,,,,,,,,,,METAR,18.0
MDPC 120500Z 00000KT 9999 SCT016 21/20 Q1017 NOSIG,MDPC,2019-01-12T05:00:00Z,18.57,-68.37,21.0,20.0,0,0,,6.21,30.029528,,,,,,TRUE,,,,,SCT,1600,,,,,,,VFR,,,,,,,,,,,,METAR,12.0
FIMP 120500Z 08011KT 9999 BKN015 29/25 Q1016,FIMP,2019-01-12T05:00:00Z,-20.42,57.67,29.0,25.0,80,11,,6.21,30.0,,,,,,,,,,,BKN,1500,,,,,,,MVFR,,,,,,,,,,,,METAR,57.0
SBFI 120500Z 15004KT CAVOK 22/21 Q1013,SBFI,2019-01-12T05:00:00Z,-25.6,-54.48,22.0,21.0,150,4,,6.21,29.911417,,,,,,,,,,,CAVOK,,,,,,,,VFR,,,,,,,,,,,,METAR,243.0
FIMR 120500Z 08014KT 9999 SCT018 SCT050 30/24 Q1016,FIMR,2019-01-12T05:00:00Z,-19.75,63.37,30.0,24.0,80,14,,6.21,30.0,,,,,,,,,,,SCT,1800,SCT,5000,,,,,VFR,,,,,,,,,,,,METAR,31.0
SCCY 120500Z AUTO 20010KT 100V250 9999 FEW045 12/03 Q1008,SCCY,2019-01-12T05:00:00Z,-45.57,-72.1,12.0,3.0,200,10,,6.21,29.763779,,,TRUE,,,,,,,,FEW,4500,,,,,,,VFR,,,,,,,,,,,,METAR,311.0
SCIC 120500Z AUTO VRB02KT 9999 NCD 15/05 Q1017,SCIC,2019-01-12T05:00:00Z,-34.97,-71.22,15.0,5.0,0,2,,6.21,30.029528,,,TRUE,,,,,,,,CLR,,,,,,,,VFR,,,,,,,,,,,,METAR,242.0
SCRM 120500Z 10016KT 2000 SN BKN005 OVC008 00/M01 Q0985 NOSIG,SCRM,2019-01-12T05:00:00Z,-62.18,-58.98,0.0,-1.0,100,16,,1.24,29.084646,,,,,,TRUE,,,,SN,BKN,500,OVC,800,,,,,IFR,,,,,,,,,,,,METAR,45.0
SCCH 120500Z AUTO 00000KT 9999 ///////// 10/08 Q1017,SCCH,2019-01-12T05:00:00Z,-36.57,-72.02,10.0,8.0,0,0,,6.21,30.029528,,,TRUE,,,,,,,,,,,,,,,,,,,,,,,,,,,,METAR,148.0
SCTN 120500Z AUTO 35007KT //// R/////// // BKN017 OVC047 12/11 Q1014,SCTN,2019-01-12T05:00:00Z,-42.92,-72.7,12.0,11.0,350,7,,,29.940945,,,TRUE,,,,,,,,BKN,1700,OVC,4700,,,,,,,,,,,,,,,,,METAR,4.0
SCPQ 120500Z AUTO VRB02KT //// R35///// FG VV001 12/12 Q1014,SCPQ,2019-01-12T05:00:00Z,-42.33,-73.72,12.0,12.0,0,2,,,29.940945,,,TRUE,,,,,,,FG,OVX,0,,,,,,,LIFR,,,,,,,,,,,100,METAR,5.0
SCIP 120500Z 10005KT 9999 FEW020 21/18 Q1020 NOSIG,SCIP,2019-01-12T05:00:00Z,-27.17,-109.43,21.0,18.0,100,5,,6.21,30.11811,,,,,,TRUE,,,,,FEW,2000,,,,,,,VFR,,,,,,,,,,,,METAR,69.0
SCCI 120500Z 28020KT 9999 FEW020 BKN040 05/01 Q0990 NOSIG,SCCI,2019-01-12T05:00:00Z,-53.0,-70.83,5.0,1.0,280,20,,6.21,29.232283,,,,,,TRUE,,,,,FEW,2000,BKN,4000,,,,,VFR,,,,,,,,,,,,METAR,37.0
SCVD 120500Z AUTO 36003KT 320V040 9999 BKN030 11/11 Q1017,SCVD,2019-01-12T05:00:00Z,-39.65,-73.07,11.0,11.0,360,3,,6.21,30.029528,,,TRUE,,,,,,,,BKN,3000,,,,,,,MVFR,,,,,,,,,,,,METAR,14.0
SCTE 120500Z 01008KT 9999 FEW030 BKN050 12/10 Q1015 NOSIG,SCTE,2019-01-12T05:00:00Z,-41.42,-73.07,12.0,10.0,10,8,,6.21,29.970472,,,,,,TRUE,,,,,FEW,3000,BKN,5000,,,,,VFR,,,,,,,,,,,,METAR,86.0
SCQP 120500Z 02002KT CAVOK 07/07 Q1018,SCQP,2019-01-12T05:00:00Z,-38.92,-72.65,7.0,7.0,20,2,,6.21,30.059055,,,,,,,,,,,CAVOK,,,,,,,,VFR,,,,,,,,,,,,METAR,97.0
SCSE 120500Z 00000KT CAVOK 15/13 Q1018,SCSE,2019-01-12T05:00:00Z,-29.92,-71.2,15.0,13.0,0,0,,6.21,30.059055,,,,,,,,,,,CAVOK,,,,,,,,VFR,,,,,,,,,,,,METAR,146.0
SCDA 120500Z 18003KT CAVOK 22/15 Q1016,SCDA,2019-01-12T05:00:00Z,-20.52,-70.17,22.0,15.0,180,3,,6.21,30.0,,,,,,,,,,,CAVOK,,,,,,,,VFR,,,,,,,,,,,,METAR,52.0
SCAT 120500Z AUTO 21005KT 9999 // ///013 16/13 Q1019,SCAT,2019-01-12T05:00:00Z,-27.27,-70.77,16.0,13.0,210,5,,6.21,30.088583,,,TRUE,,,,,,,,,,,,,,,,,,,,,,,,,,,,METAR,204.0
SCIE 120500Z 03002KT CAVOK 11/09 Q1018,SCIE,2019-01-12T05:00:00Z,-36.77,-73.07,11.0,9.0,30,2,,6.21,30.059055,,,,,,,,,,,CAVOK,,,,,,,,VFR,,,,,,,,,,,,METAR,16.0
SCCF 120500Z 23007KT 9999 FEW060 10/04 Q1028,SCCF,2019-01-12T05:00:00Z,-22.5,-68.9,10.0,4.0,230,7,,6.21,30.35433,,,,,,,,,,,FEW,6000,,,,,,,VFR,,,,,,,,,,,,METAR,2312.0
SCBA 120500Z AUTO 31019G31KT CAVOK 09/M01 Q1006,SCBA,2019-01-12T05:00:00Z,-45.92,-71.67,9.0,-1.0,310,19,31,6.21,29.704725,,,TRUE,,,,,,,,CAVOK,,,,,,,,VFR,,,,,,,,,,,,METAR,524.0
SCFA 120500Z 12002KT CAVOK 19/14 Q1017 NOSIG,SCFA,2019-01-12T05:00:00Z,-23.42,-70.42,19.0,14.0,120,2,,6.21,30.029528,,,,,,TRUE,,,,,CAVOK,,,,,,,,VFR,,,,,,,,,,,,METAR,120.0
SBRP 120500Z 08006KT CAVOK 23/19 Q1016,SBRP,2019-01-12T05:00:00Z,-21.12,-47.77,23.0,19.0,80,6,,6.21,30.0,,,,,,,,,,,CAVOK,,,,,,,,VFR,,,,,,,,,,,,METAR,549.0
SECU 120500Z AUTO 10003KT ////NDV NCD 11/11 Q1027,SECU,2019-01-12T05:00:00Z,-2.87,-78.97,11.0,11.0,100,3,,,30.324802,,,TRUE,,,,,,,,CLR,,,,,,,,,,,,,,,,,,,,METAR,2531.0
SEGU 120500Z 23008KT 9999 FEW030 SCT090 26/21 Q1012 NOSIG RMK A2990,SEGU,2019-01-12T05:00:00Z,-2.13,-79.87,26.0,21.0,230,8,,6.21,29.88189,,,,,,TRUE,,,,,FEW,3000,SCT,9000,,,,,VFR,,,,,,,,,,,,METAR,9.0
SELT 120500Z 01002KT 9999 FEW030 BKN100 09/08 Q1030,SELT,2019-01-12T05:00:00Z,-0.92,-78.62,9.0,8.0,10,2,,6.21,30.413385,,,,,,,,,,,FEW,3000,BKN,10000,,,,,VFR,,,,,,,,,,,,METAR,2785.0
SEQM 120500Z 02002KT 6000 BCFG BKN004 13/13 Q1027 TEMPO 4000 RMK A3034,SEQM,2019-01-12T05:00:00Z,-0.12,-78.35,13.0,13.0,20,2,,3.73,30.324802,,,,,,,,,,BCFG,BKN,400,,,,,,,LIFR,,,,,,,,,,,,METAR,2400.0
SAWH 120500Z 32006KT 9999 SCT045 BKN080 07/M02 Q0984,SAWH,2019-01-12T05:00:00Z,-54.85,-68.3,7.0,-2.0,320,6,,6.21,29.055119,,,,,,,,,,,SCT,4500,BKN,8000,,,,,VFR,,,,,,,,,,,,METAR,14.0
SPRU 120500Z 14007KT 9999 SCT050 22/21 Q1014 RMK PP000,SPRU,2019-01-12T05:00:00Z,-8.08,-79.12,22.0,21.0,140,7,,6.21,29.940945,,,,,,,,,,,SCT,5000,,,,,,,VFR,,,,,,,,,,,,METAR,30.0
SPZO 120500Z /////KT 9000 -RA FEW030 SCT040 BKN080 09/06 Q1033 RMK PP012,SPZO,2019-01-12T05:00:00Z,-13.55,-71.97,9.0,6.0,,,,5.59,30.501968,,,,,,,,,,-RA,FEW,3000,SCT,4000,BKN,8000,,,VFR,,,,,,,,,,,,METAR,3249.0
SPTN 120500Z 30003KT CAVOK 19/13 Q1018 RMK PP000,SPTN,2019-01-12T05:00:00Z,-18.07,-70.28,19.0,13.0,300,3,,6.21,30.059055,,,,,,,,,,,CAVOK,,,,,,,,VFR,,,,,,,,,,,,METAR,458.0
SPSO 120500Z 20012KT CAVOK 21/20 Q1014 RMK PP000,SPSO,2019-01-12T05:00:00Z,-13.73,-76.22,21.0,20.0,200,12,,6.21,29.940945,,,,,,,,,,,CAVOK,,,,,,,,VFR,,,,,,,,,,,,METAR,10.0
SPQU 120500Z 00000KT 8000 SCT006 SCT200 10/09 Q1028 RMK PP000,SPQU,2019-01-12T05:00:00Z,-16.33,-71.57,10.0,9.0,0,0,,4.97,30.35433,,,,,,,,,,,SCT,600,SCT,20000,,,,,MVFR,,,,,,,,,,,,METAR,2554.0
SPHI 120500Z 19011KT 9999 BKN050 23/21 Q1014 RMK PP000,SPHI,2019-01-12T05:00:00Z,-6.77,-79.82,23.0,21.0,190,11,,6.21,29.940945,,,,,,,,,,,BKN,5000,,,,,,,VFR,,,,,,,,,,,,METAR,34.0
FYGF 120500Z 00000KT CAVOK 19/10 Q1018,FYGF,2019-01-12T05:00:00Z,-19.6,18.12,19.0,10.0,0,0,,6.21,30.059055,,,,,,,,,,,CAVOK,,,,,,,,VFR,,,,,,,,,,,,METAR,1400.0
SBCJ 120500Z 08001KT CAVOK 20/18 Q1016,SBCJ,2019-01-12T05:00:00Z,-6.12,-50.0,20.0,18.0,80,1,,6.21,30.0,,,,,,,,,,,CAVOK,,,,,,,,VFR,,,,,,,,,,,,METAR,621.0
SBBR 120500Z 16003KT CAVOK 21/19 Q1019,SBBR,2019-01-12T05:00:00Z,-15.87,-47.92,21.0,19.0,160,3,,6.21,30.088583,,,,,,,,,,,CAVOK,,,,,,,,VFR,,,,,,,,,,,,METAR,1061.0
UBBQ 120500Z 14003KT 7000 SCT200 M03/M04 Q1015 R16/CLRD// NOSIG RMK MT OP,UBBQ,2019-01-12T05:00:00Z,40.82,47.72,-3.0,-4.0,140,3,,4.35,29.970472,,,,,,TRUE,,,,,SCT,20000,,,,,,,MVFR,,,,,,,,,,,,METAR,338.0
SBVT 120500Z 35002KT 9999 FEW022 24/23 Q1015,SBVT,2019-01-12T05:00:00Z,-20.27,-40.27,24.0,23.0,350,2,,6.21,29.970472,,,,,,,,,,,FEW,2200,,,,,,,VFR,,,,,,,,,,,,METAR,4.0
OERK 120500Z 00000KT 9999 SCT040 BKN080 09/M02 Q1024 NOSIG,OERK,2019-01-12T05:00:00Z,24.95,46.72,9.0,-2.0,0,0,,6.21,30.236221,,,,,,TRUE,,,,,SCT,4000,BKN,8000,,,,,VFR,,,,,,,,,,,,METAR,612.0
OEMA 120500Z 05006KT 8000 SKC 16/00 Q1017 TEMPO 6000,OEMA,2019-01-12T05:00:00Z,24.55,39.7,16.0,0.0,50,6,,4.97,30.029528,,,,,,,,,,,SKC,,,,,,,,MVFR,,,,,,,,,,,,METAR,631.0
OEJN 120500Z 00000KT 9999 FEW040 23/17 Q1014 NOSIG,OEJN,2019-01-12T05:00:00Z,21.68,39.15,23.0,17.0,0,0,,6.21,29.940945,,,,,,TRUE,,,,,FEW,4000,,,,,,,VFR,,,,,,,,,,,,METAR,15.0
OEDF 120500Z 31013KT CAVOK 11/M03 Q1022 NOSIG,OEDF,2019-01-12T05:00:00Z,26.47,49.8,11.0,-3.0,310,13,,6.21,30.177166,,,,,,TRUE,,,,,CAVOK,,,,,,,,VFR,,,,,,,,,,,,METAR,22.0
SPCL 120500Z 00000KT 8000 BKN008 BKN070 22/22 Q1014 RMK PP000,SPCL,2019-01-12T05:00:00Z,-8.38,-74.58,22.0,22.0,0,0,,4.97,29.940945,,,,,,,,,,,BKN,800,BKN,7000,,,,,IFR,,,,,,,,,,,,METAR,149.0
SVMI 120500Z 29005KT 9999 FEW016 24/22 Q1013,SVMI,2019-01-12T05:00:00Z,10.58,-67.0,24.0,22.0,290,5,,6.21,29.911417,,,,,,,,,,,FEW,1600,,,,,,,VFR,,,,,,,,,,,,METAR,48.0
SULS 120500Z 05008KT CAVOK 16/13 Q1019,SULS,2019-01-12T05:00:00Z,-34.87,-55.1,16.0,13.0,50,8,,6.21,30.088583,,,,,,,,,,,CAVOK,,,,,,,,VFR,,,,,,,,,,,,METAR,30.0
UBEE 120500Z 28004KT 8000 SCT010 BKN100 M02/M05 Q1016 R30/CLRD// NOSIG,UBEE,2019-01-12T05:00:00Z,40.63,47.15,-2.0,-5.0,280,4,,4.97,30.0,,,,,,TRUE,,,,,SCT,1000,BKN,10000,,,,,MVFR,,,,,,,,,,,,METAR,15.0
OJAQ 120500Z 34006KT CAVOK 11/M03 Q1014 NOSIG,OJAQ,2019-01-12T05:00:00Z,29.62,35.02,11.0,-3.0,340,6,,6.21,29.940945,,,,,,TRUE,,,,,CAVOK,,,,,,,,VFR,,,,,,,,,,,,METAR,51.0
SBKP 120500Z 18005KT CAVOK 23/18 Q1017,SBKP,2019-01-12T05:00:00Z,-23.0,-47.12,23.0,18.0,180,5,,6.21,30.029528,,,,,,,,,,,CAVOK,,,,,,,,VFR,,,,,,,,,,,,METAR,661.0
SBSN 120500Z 08009KT 9999 FEW015 SCT100 24/23 Q1012,SBSN,2019-01-12T05:00:00Z,-2.42,-54.78,24.0,23.0,80,9,,6.21,29.88189,,,,,,,,,,,FEW,1500,SCT,10000,,,,,VFR,,,,,,,,,,,,METAR,72.0
WAHQ 120500Z 36004KT 8000 SCT015 32/26 Q1010 NOSIG,WAHQ,2019-01-12T05:00:00Z,-7.52,110.75,32.0,26.0,360,4,,4.97,29.822834,,,,,,TRUE,,,,,SCT,1500,,,,,,,MVFR,,,,,,,,,,,,METAR,126.0
SBMO 120500Z 30004KT CAVOK 22/20 Q1012,SBMO,2019-01-12T05:00:00Z,-9.52,-35.77,22.0,20.0,300,4,,6.21,29.88189,,,,,,,,,,,CAVOK,,,,,,,,VFR,,,,,,,,,,,,METAR,115.0
SBMQ 120500Z 01003KT 9999 FEW013 OVC100 24/24 Q1012,SBMQ,2019-01-12T05:00:00Z,0.05,-51.07,24.0,24.0,10,3,,6.21,29.88189,,,,,,,,,,,FEW,1300,OVC,10000,,,,,VFR,,,,,,,,,,,,METAR,15.0
SBGO 120500Z VRB04KT CAVOK 21/18 Q1017,SBGO,2019-01-12T05:00:00Z,-16.62,-49.22,21.0,18.0,0,4,,6.21,30.029528,,,,,,,,,,,CAVOK,,,,,,,,VFR,,,,,,,,,,,,METAR,747.0
SKCL 120500Z 06004KT 9999 FEW020 20/18 A3001,SKCL,2019-01-12T05:00:00Z,3.53,-76.37,20.0,18.0,60,4,,6.21,30.008858,,,,,,,,,,,FEW,2000,,,,,,,VFR,,,,,,,,,,,,METAR,969.0
SBCG 120500Z 05003KT 9999 SCT020 SCT100 21/20 Q1016,SBCG,2019-01-12T05:00:00Z,-20.47,-54.67,21.0,20.0,50,3,,6.21,30.0,,,,,,,,,,,SCT,2000,SCT,10000,,,,,VFR,,,,,,,,,,,,METAR,567.0
NCPK 120500Z AUTO NIL,NCPK,2019-01-12T05:00:00Z,-10.88,-165.82,,,,,,,,,,TRUE,,,,,,,,,,,,,,,,,,,,,,,,,,,,METAR,3.0
NCRK 120500Z AUTO 35005KT //// ////// 25/24 Q1006,NCRK,2019-01-12T05:00:00Z,-10.05,-161.08,25.0,24.0,350,5,,,29.704725,,,TRUE,,,,,,,,,,,,,,,,,,,,,,,,,,,,METAR,5.0
NCPY 120500Z AUTO 35004KT //// ////// 31/25 Q1007,NCPY,2019-01-12T05:00:00Z,-9.02,-158.07,31.0,25.0,350,4,,,29.734253,,,TRUE,,,,,,,,,,,,,,,,,,,,,,,,,,,,METAR,2.0
NCMR 120500Z AUTO 07008KT //// ////// Q1005,NCMR,2019-01-12T05:00:00Z,-19.85,-157.7,,,70,8,,,29.675198,,,TRUE,,,,,,,,,,,,,,,,,,,,,,,,,,,,METAR,8.0
NCMK 120500Z AUTO 02007KT //// ////// 26/23 Q1004,NCMK,2019-01-12T05:00:00Z,-20.15,-157.38,26.0,23.0,20,7,,,29.64567,,,TRUE,,,,,,,,,,,,,,,,,,,,,,,,,,,,METAR,9.0
NCMH 120500Z AUTO 35005KT //// ////// 27/24 Q1007,NCMH,2019-01-12T05:00:00Z,-10.38,-161.0,27.0,24.0,350,5,,,29.734253,,,TRUE,,,,,,,,,,,,,,,,,,,,,,,,,,,,METAR,0.0
NCMG 120500Z AUTO 02009KT //// ////// 26/25 Q1002,NCMG,2019-01-12T05:00:00Z,-21.92,-157.95,26.0,25.0,20,9,,,29.586615,,,TRUE,,,,,,,,,,,,,,,,,,,,,,,,,,,,METAR,41.0
NCAT 120500Z AUTO 08005KT //// ////// Q1000,NCAT,2019-01-12T05:00:00Z,-19.97,-158.12,,,80,5,,,29.52756,,,TRUE,,,,,,,,,,,,,,,,,,,,,,,,,,,,METAR,11.0
NCRG 120500Z 12007KT 9999 VCSH FEW012 BKN018 26/23 Q1008 RMK RESHRA,NCRG,2019-01-12T05:00:00Z,-21.2,-159.82,26.0,23.0,120,7,,6.21,29.763779,,,,,,,,,,VCSH,FEW,1200,BKN,1800,,,,,MVFR,,,,,,,,,,,,METAR,7.0
FLKK 120500Z 30005KT 9999 BKN007 OVC090 20/19 Q1016,FLKK,2019-01-12T05:00:00Z,-15.32,28.45,20.0,19.0,300,5,,6.21,30.0,,,,,,,,,,,BKN,700,OVC,9000,,,,,IFR,,,,,,,,,,,,METAR,1154.0
MPTO 120500Z VRB02KT 9999 FEW018 21/19 Q1013 NOSIG,MPTO,2019-01-12T05:00:00Z,9.05,-79.37,21.0,19.0,0,2,,6.21,29.911417,,,,,,TRUE,,,,,FEW,1800,,,,,,,VFR,,,,,,,,,,,,METAR,45.0
SBGL 120500Z 32006KT CAVOK 26/23 Q1013,SBGL,2019-01-12T05:00:00Z,-22.82,-43.25,26.0,23.0,320,6,,6.21,29.911417,,,,,,,,,,,CAVOK,,,,,,,,VFR,,,,,,,,,,,,METAR,6.0
SBMA 120500Z 30006KT 8000 -TSRA FEW025CB OVC080 22/22 Q1013,SBMA,2019-01-12T05:00:00Z,-5.37,-49.13,22.0,22.0,300,6,,4.97,29.911417,,,,,,,,,,-TSRA,FEW,2500,OVC,8000,,,,,MVFR,,,,,,,,,,,,METAR,102.0
SBFL 120500Z 22006KT 9999 FEW030 25/22 Q1016,SBFL,2019-01-12T05:00:00Z,-27.67,-48.53,25.0,22.0,220,6,,6.21,30.0,,,,,,,,,,,FEW,3000,,,,,,,VFR,,,,,,,,,,,,METAR,5.0
UBBY 120500Z 34006KT 9999 BKN100 00/M03 Q1018 R33/////// NOSIG RMK MT OP,UBBY,2019-01-12T05:00:00Z,41.57,46.67,0.0,-3.0,340,6,,6.21,30.059055,,,,,,TRUE,,,,,BKN,10000,,,,,,,VFR,,,,,,,,,,,,METAR,390.0
SPJC 120500Z 16012KT 9999 FEW080 SCT230 22/20 Q1014 NOSIG RMK PP000,SPJC,2019-01-12T05:00:00Z,-12.02,-77.12,22.0,20.0,160,12,,6.21,29.940945,,,,,,TRUE,,,,,FEW,8000,SCT,23000,,,,,VFR,,,,,,,,,,,,METAR,13.0
YSRI 120500Z AUTO 08005KT 9999 // NCD 35/20 Q1013,YSRI,2019-01-12T05:00:00Z,-33.6,150.77,35.0,20.0,80,5,,6.21,29.911417,,,TRUE,,,,,,,,CLR,,,,,,,,VFR,,,,,,,,,,,,SPECI,21.0
YSDU 120500Z AUTO 20008KT 9999 // NCD 37/10 Q1014,YSDU,2019-01-12T05:00:00Z,-32.22,148.57,37.0,10.0,200,8,,6.21,29.940945,,,TRUE,,,,,,,,CLR,,,,,,,,VFR,,,,,,,,,,,,SPECI,275.0
YSCB 120500Z AUTO 35010KT 9999 // NCD 33/11 Q1016 RMK RF00.0/000.0 NOSIG RMK USE TAF FOR ARRIVALS AFTER 0630Z,YSCB,2019-01-12T05:00:00Z,-35.28,149.17,33.0,11.0,350,10,,6.21,30.0,,,TRUE,,,,,,,,CLR,,,,,,,,VFR,,,,,,,,,,,,METAR,577.0
YPPD 120500Z AUTO 35013KT 9999 // NCD 32/24 Q1008,YPPD,2019-01-12T05:00:00Z,-20.37,118.62,32.0,24.0,350,13,,6.21,29.763779,,,TRUE,,,,,,,,CLR,,,,,,,,VFR,,,,,,,,,,,,METAR,6.0
YPKG 120500Z AUTO 07011KT 9999 // NCD 34/09 Q1015 RF00.0/000.0,YPKG,2019-01-12T05:00:00Z,-30.77,121.45,34.0,9.0,70,11,,6.21,29.970472,,,TRUE,,,,,,,,CLR,,,,,,,,VFR,,,,,,,,,,,,METAR,360.0
YPEA 120500Z AUTO 17010KT 9999 // NCD 36/09 Q1011,YPEA,2019-01-12T05:00:00Z,-31.67,116.02,36.0,9.0,170,10,,6.21,29.852362,,,TRUE,,,,,,,,CLR,,,,,,,,VFR,,,,,,,,,,,,METAR,49.0
YMLT 120500Z AUTO 20010KT 9999 // NCD 26/M01 Q1013 RF00.0/000.0,YMLT,2019-01-12T05:00:00Z,-41.52,147.18,26.0,-1.0,200,10,,6.21,29.911417,,,TRUE,,,,,,,,CLR,,,,,,,,VFR,,,,,,,,,,,,METAR,178.0
YARG 120500Z AUTO 22008KT 200V260 9999 // NCD 42/16 Q1005,YARG,2019-01-12T05:00:00Z,-16.63,128.45,42.0,16.0,220,8,,6.21,29.675198,,,TRUE,,,,,,,,CLR,,,,,,,,VFR,,,,,,,,,,,,METAR,165.0
YABA 120500Z AUTO 13013KT 9999 // NCD 27/13 Q1014,YABA,2019-01-12T05:00:00Z,-34.93,117.8,27.0,13.0,130,13,,6.21,29.940945,,,TRUE,,,,,,,,CLR,,,,,,,,VFR,,,,,,,,,,,,METAR,69.0
ZUUU 120500Z 32002MPS 290V010 4000 BR SCT040 07/04 Q1022 NOSIG,ZUUU,2019-01-12T05:00:00Z,30.58,103.95,7.0,4.0,320,4,,2.49,30.177166,,,,,,TRUE,,,,BR,SCT,4000,,,,,,,IFR,,,,,,,,,,,,METAR,508.0
ZSQD 120500Z 33003MPS 1300 R35/1400N BR OVC009 02/M00 Q1025 BECMG TL0530 1500,ZSQD,2019-01-12T05:00:00Z,36.27,120.38,2.0,0.0,330,6,,0.81,30.265747,,,,,,,,,,BR,OVC,900,,,,,,,LIFR,,,,,,,,,,,,METAR,77.0
ZSNB 120500Z 33004MPS 9999 BKN016 OVC050 08/05 Q1024 NOSIG,ZSNB,2019-01-12T05:00:00Z,29.83,121.47,8.0,5.0,330,8,,6.21,30.236221,,,,,,TRUE,,,,,BKN,1600,OVC,5000,,,,,MVFR,,,,,,,,,,,,METAR,4.0
ZSFZ 120500Z 03006MPS 2200 -RA BR BKN003 OVC026 13/12 Q1021 BECMG TL0600 3000 BR,ZSFZ,2019-01-12T05:00:00Z,25.93,119.67,13.0,12.0,30,12,,1.37,30.147638,,,,,,,,,,-RA BR,BKN,300,OVC,2600,,,,,LIFR,,,,,,,,,,,,METAR,85.0
ZSAM 120500Z 09003MPS 060V130 2500 BR BKN006 OVC030 18/16 Q1019 BECMG TL0650 3500 BKN012 BKN033,ZSAM,2019-01-12T05:00:00Z,24.53,118.13,18.0,16.0,90,6,,1.55,30.088583,,,,,,,,,,BR,BKN,600,OVC,3000,,,,,IFR,,,,,,,,,,,,METAR,18.0
ZPPP 120500Z 23008MPS CAVOK 14/01 Q1023 NOSIG,ZPPP,2019-01-12T05:00:00Z,25.0,102.75,14.0,1.0,230,16,,6.21,30.206694,,,,,,TRUE,,,,,CAVOK,,,,,,,,VFR,,,,,,,,,,,,METAR,1892.0
ZLXY 120500Z 18002MPS 120V230 2000 HZ NSC 03/M04 Q1025 BECMG TL0640 3000 HZ,ZLXY,2019-01-12T05:00:00Z,34.43,108.75,3.0,-4.0,180,4,,1.24,30.265747,,,,,,,,,,HZ,CLR,,,,,,,,IFR,,,,,,,,,,,,METAR,479.0
ZGSZ 120500Z 30005MPS 4200 BR SCT025 21/16 Q1018 NOSIG,ZGSZ,2019-01-12T05:00:00Z,22.63,113.8,21.0,16.0,300,10,,2.61,30.059055,,,,,,TRUE,,,,BR,SCT,2500,,,,,,,IFR,,,,,,,,,,,,METAR,18.0
ZGOW 120500Z 20002MPS 160V260 5000 HZ NSC 26/18 Q1017 NOSIG,ZGOW,2019-01-12T05:00:00Z,23.55,116.5,26.0,18.0,200,4,,3.11,30.029528,,,,,,TRUE,,,,HZ,CLR,,,,,,,,MVFR,,,,,,,,,,,,METAR,3.0
ZGNN 120500Z 08002MPS 050V180 5000 BR SCT008 OVC033 14/12 Q1020 NOSIG,ZGNN,2019-01-12T05:00:00Z,22.62,108.17,14.0,12.0,80,4,,3.11,30.11811,,,,,,TRUE,,,,BR,SCT,800,OVC,3300,,,,,MVFR,,,,,,,,,,,,METAR,73.0
ZGKL 120500Z VRB01MPS 6000 SCT013 OVC040 09/06 Q1022 NOSIG,ZGKL,2019-01-12T05:00:00Z,25.22,110.03,9.0,6.0,0,2,,3.73,30.177166,,,,,,TRUE,,,,,SCT,1300,OVC,4000,,,,,MVFR,,,,,,,,,,,,METAR,166.0
FYWE 120500Z 09004KT CAVOK 12/M03 Q1020,FYWE,2019-01-12T05:00:00Z,-22.62,17.08,12.0,-3.0,90,4,,6.21,30.11811,,,,,,,,,,,CAVOK,,,,,,,,VFR,,,,,,,,,,,,METAR,1700.0
ZWSH 120500Z 32002MPS 280V350 7000 BKN040 M04/M11 Q1022 NOSIG,ZWSH,2019-01-12T05:00:00Z,39.55,76.02,-4.0,-11.0,320,4,,4.35,30.177166,,,,,,TRUE,,,,,BKN,4000,,,,,,,MVFR,,,,,,,,,,,,METAR,1380.0
ZBSJ 120500Z VRB01MPS 0700 R15/0900N HZ NSC 03/M04 Q1023 BECMG 0800,ZBSJ,2019-01-12T05:00:00Z,38.28,114.7,3.0,-4.0,0,2,,0.43,30.206694,,,,,,,,,,HZ,CLR,,,,,,,,LIFR,,,,,,,,,,,,METAR,71.0
FQTT 120500Z 35004KT 9999 SCT020 BKN090 25/24 Q1010,FQTT,2019-01-12T05:00:00Z,-16.1,33.62,25.0,24.0,350,4,,6.21,29.822834,,,,,,,,,,,SCT,2000,BKN,9000,,,,,VFR,,,,,,,,,,,,METAR,160.0
FBSP 120500Z /////KT CAVOK 27/22 Q1011,FBSP,2019-01-12T05:00:00Z,-22.05,27.82,27.0,22.0,,,,6.21,29.852362,,,,,,,,,,,CAVOK,,,,,,,,VFR,,,,,,,,,,,,METAR,892.0
FBSK 120500Z VRB02KT CAVOK 26/19 Q1011 NOSIG,FBSK,2019-01-12T05:00:00Z,-24.55,25.92,26.0,19.0,0,2,,6.21,29.852362,,,,,,TRUE,,,,,CAVOK,,,,,,,,VFR,,,,,,,,,,,,METAR,1005.0
FBMN 120500Z 34004KT CAVOK 24/20 Q1012,FBMN,2019-01-12T05:00:00Z,-19.97,23.42,24.0,20.0,340,4,,6.21,29.88189,,,,,,,,,,,CAVOK,,,,,,,,VFR,,,,,,,,,,,,METAR,900.0
FBKE 120500Z 35003KT 270V040 9999 SCT015 21/21 Q1014,FBKE,2019-01-12T05:00:00Z,-17.82,25.17,21.0,21.0,350,3,,6.21,29.940945,,,,,,,,,,,SCT,1500,,,,,,,VFR,,,,,,,,,,,,METAR,1000.0
FBFT 120500Z 35005KT 300V010 CAVOK 22/20 Q1012,FBFT,2019-01-12T05:00:00Z,-21.17,27.48,22.0,20.0,350,5,,6.21,29.88189,,,,,,,,,,,CAVOK,,,,,,,,VFR,,,,,,,,,,,,METAR,1000.0
FAWK 120500Z AUTO 16003KT //// // ////// ///// Q1017,FAWK,2019-01-12T05:00:00Z,-25.82,28.22,,,160,3,,,30.029528,,,TRUE,,,,,,,,,,,,,,,,,,,,,,,,,,,,METAR,1500.0
FAWB 120500Z 20002KT CAVOK 24/19 Q1015,FAWB,2019-01-12T05:00:00Z,-25.63,28.22,24.0,19.0,200,2,,6.21,29.970472,,,,,,,,,,,CAVOK,,,,,,,,VFR,,,,,,,,,,,,METAR,1248.0
FAUP 120500Z 19001KT CAVOK 18/04 Q1014 NOSIG,FAUP,2019-01-12T05:00:00Z,-28.38,21.27,18.0,4.0,190,1,,6.21,29.940945,,,,,,TRUE,,,,,CAVOK,,,,,,,,VFR,,,,,,,,,,,,METAR,836.0
FAPE 120500Z 24017KT CAVOK 19/14 Q1009 NOSIG,FAPE,2019-01-12T05:00:00Z,-33.97,25.6,19.0,14.0,240,17,,6.21,29.793306,,,,,,TRUE,,,,,CAVOK,,,,,,,,VFR,,,,,,,,,,,,METAR,60.0
FAUT 120500Z 18007KT 9999 BKN020 18/13 Q1011,FAUT,2019-01-12T05:00:00Z,-31.52,28.67,18.0,13.0,180,7,,6.21,29.852362,,,,,,,,,,,BKN,2000,,,,,,,MVFR,,,,,,,,,,,,METAR,732.0
FAPP 120500Z 00000KT CAVOK 23/19 Q1014 NOSIG,FAPP,2019-01-12T05:00:00Z,-23.83,29.45,23.0,19.0,0,0,,6.21,29.940945,,,,,,TRUE,,,,,CAVOK,,,,,,,,VFR,,,,,,,,,,,,METAR,1242.0
FAPN 120500Z AUTO 18002KT //// // ////// ///// Q1013,FAPN,2019-01-12T05:00:00Z,-25.33,27.17,,,180,2,,,29.911417,,,TRUE,,,,,,,,,,,,,,,,,,,,,,,,,,,,METAR,1039.0
FAMM 120500Z 12005KT CAVOK 22/07 Q1014 NOSIG,FAMM,2019-01-12T05:00:00Z,-25.8,25.52,22.0,7.0,120,5,,6.21,29.940945,,,,,,TRUE,,,,,CAVOK,,,,,,,,VFR,,,,,,,,,,,,METAR,1277.0
FALA 120500Z VRB02KT 9999 SCT030 21/17 Q1016 NOSIG,FALA,2019-01-12T05:00:00Z,-25.92,27.92,21.0,17.0,0,2,,6.21,30.0,,,,,,TRUE,,,,,SCT,3000,,,,,,,VFR,,,,,,,,,,,,METAR,1377.0
GMML 120500Z 10008KT CAVOK 11/08 Q1019 NOSIG,GMML,2019-01-12T05:00:00Z,27.13,-13.23,11.0,8.0,100,8,,6.21,30.088583,,,,,,TRUE,,,,,CAVOK,,,,,,,,VFR,,,,,,,,,,,,METAR,6.0
GMMB 120500Z AUTO 10007KT //// R32/P2000N ////// 07/07 Q1022 NOSIG,GMMB,2019-01-12T05:00:00Z,33.65,-7.22,7.0,7.0,100,7,,1.24,30.177166,,,TRUE,,,TRUE,,,,,,,,,,,,,,,,,,,,,,,,,METAR,191.0
FAOR 120500Z 21009KT CAVOK 23/08 Q1018 NOSIG,FAOR,2019-01-12T05:00:00Z,-26.12,28.22,23.0,8.0,210,9,,6.21,30.059055,,,,,,TRUE,,,,,CAVOK,,,,,,,,VFR,,,,,,,,,,,,METAR,1700.0
FALE 120500Z 18019G30KT CAVOK 25/19 Q1006 NOSIG,FALE,2019-01-12T05:00:00Z,-29.62,31.12,25.0,19.0,180,19,30,6.21,29.704725,,,,,,TRUE,,,,,CAVOK,,,,,,,,VFR,,,,,,,,,,,,METAR,109.0
FAKN 120500Z 24003KT CAVOK 24/22 Q1011 NOSIG,FAKN,2019-01-12T05:00:00Z,-25.38,31.1,24.0,22.0,240,3,,6.21,29.852362,,,,,,TRUE,,,,,CAVOK,,,,,,,,VFR,,,,,,,,,,,,METAR,862.0
FAKM 120500Z 29002KT CAVOK 21/M00 Q1014,FAKM,2019-01-12T05:00:00Z,-28.8,24.77,21.0,0.0,290,2,,6.21,29.940945,,,,,,,,,,,CAVOK,,,,,,,,VFR,,,,,,,,,,,,METAR,1192.0
FAHS 120500Z AUTO 03003KT //// // ////// 28/22 Q1008,FAHS,2019-01-12T05:00:00Z,-24.37,31.02,28.0,22.0,30,3,,,29.763779,,,TRUE,,,,,,,,,,,,,,,,,,,,,,,,,,,,METAR,500.0
FAGG 120500Z 31007KT 9999 FEW035 BKN045 16/10 Q1009,FAGG,2019-01-12T05:00:00Z,-34.0,22.37,16.0,10.0,310,7,,6.21,29.793306,,,,,,,,,,,FEW,3500,BKN,4500,,,,,VFR,,,,,,,,,,,,METAR,193.0
FACT 120500Z VRB02KT 8000 NSC 13/13 Q1010 NOSIG,FACT,2019-01-12T05:00:00Z,-33.97,18.6,13.0,13.0,0,2,,4.97,29.822834,,,,,,TRUE,,,,,CLR,,,,,,,,MVFR,,,,,,,,,,,,METAR,42.0
LKPD 120500Z 27014KT 9999 RA SCT018 OVC030 02/M00 Q1014 NOSIG RMK BLU BLU,LKPD,2019-01-12T05:00:00Z,50.02,15.73,2.0,0.0,270,14,,6.21,29.940945,,,,,,TRUE,,,,RA,SCT,1800,OVC,3000,,,,,MVFR,,,,,,,,,,,,METAR,226.0
LKNA 120500Z 28016KT 9999 SCT011 OVC036 00/M02 Q1013 NOSIG RMK BLU BLU,LKNA,2019-01-12T05:00:00Z,49.17,16.12,0.0,-2.0,280,16,,6.21,29.911417,,,,,,TRUE,,,,,SCT,1100,OVC,3600,,,,,VFR,,,,,,,,,,,,METAR,472.0
LKLN 120500Z AUTO 24008KT 9999 BKN016 OVC020 02/M00 Q1017,LKLN,2019-01-12T05:00:00Z,49.68,13.27,2.0,0.0,240,8,,6.21,30.029528,,,TRUE,,,,,,,,BKN,1600,OVC,2000,,,,,MVFR,,,,,,,,,,,,METAR,362.0
LKKB 120500Z 24012KT 9999 -RA BKN021 OVC042 02/M01 Q1015 NOSIG,LKKB,2019-01-12T05:00:00Z,50.12,14.53,2.0,-1.0,240,12,,6.21,29.970472,,,,,,TRUE,,,,-RA,BKN,2100,OVC,4200,,,,,MVFR,,,,,,,,,,,,METAR,286.0
LKCV 120500Z 27012KT 9999 FEW012 OVC035 02/01 Q1014 NOSIG RMK GRN GRN,LKCV,2019-01-12T05:00:00Z,49.93,15.38,2.0,1.0,270,12,,6.21,29.940945,,,,,,TRUE,,,,,FEW,1200,OVC,3500,,,,,VFR,,,,,,,,,,,,METAR,242.0
LICD 120500Z 33023G31KT 9999 TS FEW015CB BKN040 11/03 Q1014,LICD,2019-01-12T05:00:00Z,35.5,12.62,11.0,3.0,330,23,31,6.21,29.940945,,,,,,,,,,TS,FEW,1500,BKN,4000,,,,,VFR,,,,,,,,,,,,SPECI,20.0
LETO 120500Z VRB02KT CAVOK M04/M05 Q1029 NOSIG,LETO,2019-01-12T05:00:00Z,40.47,-3.47,-4.0,-5.0,0,2,,6.21,30.383858,,,,,,TRUE,,,,,CAVOK,,,,,,,,VFR,,,,,,,,,,,,METAR,608.0
LERT 120500Z 02009KT CAVOK 03/M01 Q1026 NOSIG,LERT,2019-01-12T05:00:00Z,36.63,-6.33,3.0,-1.0,20,9,,6.21,30.295275,,,,,,TRUE,,,,,CAVOK,,,,,,,,VFR,,,,,,,,,,,,METAR,26.0
LEGT 120500Z 00000KT CAVOK M02/M04 Q1028,LEGT,2019-01-12T05:00:00Z,40.28,-3.72,-2.0,-4.0,0,0,,6.21,30.35433,,,,,,,,,,,CAVOK,,,,,,,,VFR,,,,,,,,,,,,METAR,612.0
LEAB 120500Z VRB02KT CAVOK M08/M09 Q1027 NOSIG,LEAB,2019-01-12T05:00:00Z,38.95,-1.85,-8.0,-9.0,0,2,,6.21,30.324802,,,,,,TRUE,,,,,CAVOK,,,,,,,,VFR,,,,,,,,,,,,METAR,704.0
OIMB 120500Z 14006KT CAVOK M02/M13 Q1024,OIMB,2019-01-12T05:00:00Z,32.9,59.28,-2.0,-13.0,140,6,,6.21,30.236221,,,,,,,,,,,CAVOK,,,,,,,,VFR,,,,,,,,,,,,METAR,1491.0
LIPY 120500Z 17005KT CAVOK 01/M02 Q1019,LIPY,2019-01-12T05:00:00Z,43.62,13.37,1.0,-2.0,170,5,,6.21,30.088583,,,,,,,,,,,CAVOK,,,,,,,,VFR,,,,,,,,,,,,SPECI,10.0
RKNY 120500Z 01005KT 340V050 9999 SCT020 BKN110 06/02 Q1020 NOSIG,RKNY,2019-01-12T05:00:00Z,38.07,128.67,6.0,2.0,10,5,,6.21,30.11811,,,,,,TRUE,,,,,SCT,2000,BKN,11000,,,,,VFR,,,,,,,,,,,,METAR,74.0
RKJB 120500Z 33009KT 3500 BR SCT025 BKN120 07/03 Q1021 NOSIG,RKJB,2019-01-12T05:00:00Z,34.98,126.38,7.0,3.0,330,9,,2.17,30.147638,,,,,,TRUE,,,,BR,SCT,2500,BKN,12000,,,,,IFR,,,,,,,,,,,,METAR,2.0
RKTN 120500Z 29004KT 4800 BR BKN012 OVC020 05/03 Q1020,RKTN,2019-01-12T05:00:00Z,35.88,128.65,5.0,3.0,290,4,,2.98,30.11811,,,,,,,,,,BR,BKN,1200,OVC,2000,,,,,IFR,,,,,,,,,,,,METAR,35.0
RKTU 120500Z 08002KT 4800 HZ FEW030 SCT080 08/M01 Q1020,RKTU,2019-01-12T05:00:00Z,36.7,127.5,8.0,-1.0,80,2,,2.98,30.11811,,,,,,,,,,HZ,FEW,3000,SCT,8000,,,,,IFR,,,,,,,,,,,,METAR,66.0
RKPK 120500Z 33011KT 6000 SCT017 BKN050 OVC090 07/04 Q1019,RKPK,2019-01-12T05:00:00Z,35.17,128.92,7.0,4.0,330,11,,3.73,30.088583,,,,,,,,,,,SCT,1700,BKN,5000,OVC,9000,,,MVFR,,,,,,,,,,,,METAR,15.0
RKPC 120500Z 36004KT 300V040 9999 SCT030 09/03 Q1021 NOSIG,RKPC,2019-01-12T05:00:00Z,33.5,126.48,9.0,3.0,360,4,,6.21,30.147638,,,,,,TRUE,,,,,SCT,3000,,,,,,,VFR,,,,,,,,,,,,METAR,27.0
RKSS 120500Z 33001KT 7000 NSC 07/M08 Q1021 NOSIG,RKSS,2019-01-12T05:00:00Z,37.53,126.78,7.0,-8.0,330,1,,4.35,30.147638,,,,,,TRUE,,,,,CLR,,,,,,,,MVFR,,,,,,,,,,,,METAR,19.0
UMMG 120500Z 29005G08MPS 7000 DRSN BKN007 OVC026 M01/M02 Q1002 NOSIG,UMMG,2019-01-12T05:00:00Z,53.6,24.05,-1.0,-2.0,290,10,16,4.35,29.586615,,,,,,TRUE,,,,DRSN,BKN,700,OVC,2600,,,,,IFR,,,,,,,,,,,,METAR,135.0
UMBB 120500Z 29004G07MPS 4700 BR OVC014CB M01/M02 Q1003 NOSIG,UMBB,2019-01-12T05:00:00Z,52.12,23.9,-1.0,-2.0,290,8,14,2.92,29.616142,,,,,,TRUE,,,,BR,OVC,1400,,,,,,,IFR,,,,,,,,,,,,METAR,143.0
YBDV 120500Z AUTO 14009KT //// // ////// 44/10 Q1008,YBDV,2019-01-12T05:00:00Z,-25.9,139.35,44.0,10.0,140,9,,,29.763779,,,TRUE,,,,,,,,,,,,,,,,,,,,,,,,,,,,METAR,47.0
YBCV 120500Z AUTO 06010KT 050V140 9999 // BKN105 38/09 Q1012,YBCV,2019-01-12T05:00:00Z,-26.38,146.27,38.0,9.0,60,10,,6.21,29.88189,,,TRUE,,,,,,,,BKN,10500,,,,,,,VFR,,,,,,,,,,,,METAR,304.0
YBCS 120500Z AUTO 17007KT 9999 // SCT033 BKN042 OVC053 28/23 Q1010 RMK RF00.0/000.6 NOSIG,YBCS,2019-01-12T05:00:00Z,-16.87,145.75,28.0,23.0,170,7,,6.21,29.822834,,,TRUE,,,,,,,,SCT,3300,BKN,4200,OVC,5300,,,VFR,,,,,,,,,,,,METAR,7.0
YBBN 120500Z 11010KT 9999 FEW040 29/15 Q1016,YBBN,2019-01-12T05:00:00Z,-27.38,153.13,29.0,15.0,110,10,,6.21,30.0,,,,,,,,,,,FEW,4000,,,,,,,VFR,,,,,,,,,,,,METAR,5.0
YAYE 120500Z AUTO 11015KT 050V110 9999 // NCD 44/04 Q1012,YAYE,2019-01-12T05:00:00Z,-25.18,130.98,44.0,4.0,110,15,,6.21,29.88189,,,TRUE,,,,,,,,CLR,,,,,,,,VFR,,,,,,,,,,,,SPECI,496.0
URMG 120500Z 30002MPS 3200 BR OVC002 M05/M05 Q1011 R26/190060 NOSIG RMK QBB070 MT OBSC OBST OBSC QFE743/0991,URMG,2019-01-12T05:00:00Z,43.37,45.7,-5.0,-5.0,300,4,,1.99,29.852362,,,,,,TRUE,,,,BR,OVC,200,,,,,,,LIFR,,,,,,,,,,,,METAR,263.0
URKK 120500Z 30006MPS 9999 BKN010 BKN020 03/02 Q1012 R23L/290060 TEMPO 2000 TSRA BKN005 BKN020CB RMK QFE756,URKK,2019-01-12T05:00:00Z,45.03,39.15,3.0,2.0,300,12,,6.21,29.88189,,,,,,,,,,,BKN,1000,BKN,2000,,,,,MVFR,,,,,,,,,,,,METAR,34.0
URKA 120500Z 31006MPS 9999 BKN033 03/01 Q1013 R04/290160 TEMPO 30010G15MPS BKN020CB RMK QFE756/1008,URKA,2019-01-12T05:00:00Z,45.0,37.35,3.0,1.0,310,12,,6.21,29.911417,,,,,,,,,,,BKN,3300,,,,,,,VFR,,,,,,,,,,,,METAR,53.0
UUOL 120500Z 28003MPS 0500 0450NW R15/0600N FZFG VV002 M12/M13 Q1000 R15/850342 NOSIG RMK QBB070,UUOL,2019-01-12T05:00:00Z,52.7,39.53,-12.0,-13.0,280,6,,0.31,29.52756,,,,,,TRUE,,,,FZFG,OVX,0,,,,,,,LIFR,,,,,,,,,,,200,METAR,176.0
UUMO 120500Z 22004MPS 3400 -SN OVC030 M11/M12 Q0995 R26/420245 NOSIG RMK QFE731/0975,UUMO,2019-01-12T05:00:00Z,55.52,37.5,-11.0,-12.0,220,8,,2.11,29.379921,,,,,,TRUE,,,,-SN,OVC,3000,,,,,,,IFR,,,,,,,,,,,,METAR,174.0
UUWW 120500Z 22004MPS 4100 -SN OVC023 M11/M13 Q0995 R24/450340 TEMPO 1000 SN OVC005,UUWW,2019-01-12T05:00:00Z,55.6,37.27,-11.0,-13.0,220,8,,2.55,29.379921,,,,,,,,,,-SN,OVC,2300,,,,,,,IFR,,,,,,,,,,,,METAR,203.0
UUEE 120500Z 20005MPS 3900 -SN NSC M10/M12 Q0994 R24L/490330 R24C/490330 NOSIG,UUEE,2019-01-12T05:00:00Z,55.97,37.42,-10.0,-12.0,200,10,,2.42,29.350393,,,,,,TRUE,,,,-SN,CLR,,,,,,,,IFR,,,,,,,,,,,,METAR,190.0
UUDL 120500Z 18003MPS 9999 -SN OVC018 M10/M12 Q0993 R23/451545 NOSIG RMK QFE737,UUDL,2019-01-12T05:00:00Z,57.57,40.17,-10.0,-12.0,180,6,,6.21,29.320866,,,,,,TRUE,,,,-SN,OVC,1800,,,,,,,MVFR,,,,,,,,,,,,METAR,88.0
UUDD 120500Z 22004MPS 190V250 6000 -SN SCT040 M11/M14 Q0995 R14R/450394 TEMPO 1500 SN,UUDD,2019-01-12T05:00:00Z,55.4,37.9,-11.0,-14.0,220,8,,3.73,29.379921,,,,,,,,,,-SN,SCT,4000,,,,,,,MVFR,,,,,,,,,,,,METAR,168.0
UUBW 120500Z 18003MPS 8000 -SN NSC M11/M12 Q0996 R30/450540 NOSIG,UUBW,2019-01-12T05:00:00Z,55.55,38.15,-11.0,-12.0,180,6,,4.97,29.409449,,,,,,TRUE,,,,-SN,CLR,,,,,,,,MVFR,,,,,,,,,,,,METAR,115.0
ULLI 120500Z 27006MPS 9999 -SN BKN014 00/M01 Q0987 R88/550545 NOSIG,ULLI,2019-01-12T05:00:00Z,59.8,30.27,0.0,-1.0,270,12,,6.21,29.143702,,,,,,TRUE,,,,-SN,BKN,1400,,,,,,,MVFR,,,,,,,,,,,,METAR,4.0
USHH 120500Z 15005MPS 3200 -SN SCT011 M23/M25 Q1019 R06/450250 TEMPO 0900 +SN OVC005 RMK QFE760,USHH,2019-01-12T05:00:00Z,61.03,69.08,-23.0,-25.0,150,10,,1.99,30.088583,,,,,,,,,,-SN,SCT,1100,,,,,,,IFR,,,,,,,,,,,,METAR,23.0
USTR 120500Z 20005MPS CAVOK M16/M18 Q1020 R21/450253 NOSIG RMK QFE755/1007,USTR,2019-01-12T05:00:00Z,57.17,65.32,-16.0,-18.0,200,10,,6.21,30.11811,,,,,,TRUE,,,,,CAVOK,,,,,,,,VFR,,,,,,,,,,,,METAR,115.0
UNTT 120500Z 26004MPS 6000 -SHSN BKN015CB M18/M21 Q1022 R21/490240 NOSIG RMK QFE752,UNTT,2019-01-12T05:00:00Z,56.38,85.22,-18.0,-21.0,260,8,,3.73,30.177166,,,,,,TRUE,,,,-SHSN,BKN,1500,,,,,,,MVFR,,,,,,,,,,,,METAR,182.0
UNOO 120500Z 20002MPS 4100 -SN BR SCT015 M17/M19 Q1027 R25/490245 NOSIG RMK QFE762,UNOO,2019-01-12T05:00:00Z,54.97,73.32,-17.0,-19.0,200,4,,2.55,30.324802,,,,,,TRUE,,,,-SN BR,SCT,1500,,,,,,,IFR,,,,,,,,,,,,METAR,95.0
UNNT 120500Z 28005MPS CAVOK M18/M21 Q1027 R25/490242 R34/491036 NOSIG RMK QFE760/1013,UNNT,2019-01-12T05:00:00Z,55.02,82.63,-18.0,-21.0,280,10,,6.21,30.324802,,,,,,TRUE,,,,,CAVOK,,,,,,,,VFR,,,,,,,,,,,,METAR,111.0
UNKL 120500Z 00000MPS 6000 NSC M21/M24 Q1020 R29/810255 NOSIG RMK QFE739,UNKL,2019-01-12T05:00:00Z,56.17,92.48,-21.0,-24.0,0,0,,3.73,30.11811,,,,,,TRUE,,,,,CLR,,,,,,,,MVFR,,,,,,,,,,,,METAR,276.0
UNEE 120500Z 23006MPS 2400 R23/2000U -SN OVC029 M16/M19 Q1022 R23/851040 NOSIG RMK QFE743,UNEE,2019-01-12T05:00:00Z,55.27,86.08,-16.0,-19.0,230,12,,1.49,30.177166,,,,,,TRUE,,,,-SN,OVC,2900,,,,,,,IFR,,,,,,,,,,,,METAR,260.0
UNBB 120500Z 23003MPS 5000 -SN SCT004 M16/M19 Q1027 R24/810355 NOSIG RMK QFE748,UNBB,2019-01-12T05:00:00Z,53.37,83.53,-16.0,-19.0,230,6,,3.11,30.324802,,,,,,TRUE,,,,-SN,SCT,400,,,,,,,MVFR,,,,,,,,,,,,METAR,255.0
UNAA 120500Z 00000MPS 4300 BR FEW004 M16/M18 Q1023 R02/850249 NOSIG RMK QFE745,UNAA,2019-01-12T05:00:00Z,53.75,91.4,-16.0,-18.0,0,0,,2.67,30.206694,,,,,,TRUE,,,,BR,FEW,400,,,,,,,IFR,,,,,,,,,,,,METAR,245.0
UWGG 120500Z 19005MPS 9999 OVC009 M09/M10 Q0998 R18L/490240 NOSIG,UWGG,2019-01-12T05:00:00Z,56.23,43.78,-9.0,-10.0,190,10,,6.21,29.468504,,,,,,TRUE,,,,,OVC,900,,,,,,,IFR,,,,,,,,,,,,METAR,73.0
UUOB 120500Z 29004MPS 9000 -SN OVC003 M09/M10 Q1003 R29/820341 NOSIG RMK QBB110,UUOB,2019-01-12T05:00:00Z,50.65,36.58,-9.0,-10.0,290,8,,5.59,29.616142,,,,,,TRUE,,,,-SN,OVC,300,,,,,,,LIFR,,,,,,,,,,,,METAR,224.0
UUBP 120500Z 20003MPS 9000 SCT033 M16/M18 Q1000 R34/490250 NOSIG RMK QFE733/0977,UUBP,2019-01-12T05:00:00Z,53.22,34.18,-16.0,-18.0,200,6,,5.59,29.52756,,,,,,TRUE,,,,,SCT,3300,,,,,,,VFR,,,,,,,,,,,,METAR,202.0
UUBC 120500Z 22003MPS 180V250 4700 -SN BKN033 M12/M14 Q0997 R31/////// NOSIG RMK QFE731/0975,UUBC,2019-01-12T05:00:00Z,54.55,36.37,-12.0,-14.0,220,6,,2.92,29.438976,,,,,,TRUE,,,,-SN,BKN,3300,,,,,,,IFR,,,,,,,,,,,,METAR,199.0
ULWC 120500Z 20002G07MPS 5000 -SN OVC006 M07/M08 Q0987 R21/490137 TEMPO 1000 SN BR OVC003 RMK QFE731/0974,ULWC,2019-01-12T05:00:00Z,59.28,38.02,-7.0,-8.0,200,4,14,3.11,29.143702,,,,,,,,,,-SN,OVC,600,,,,,,,IFR,,,,,,,,,,,,METAR,115.0
UWWW 120500Z 14004MPS 8000 -SN OVC009 M07/M08 Q1002 R15/390132 NOSIG RMK QFE740/0987,UWWW,2019-01-12T05:00:00Z,53.5,50.17,-7.0,-8.0,140,8,,4.97,29.586615,,,,,,TRUE,,,,-SN,OVC,900,,,,,,,IFR,,,,,,,,,,,,METAR,146.0
UWSS 120500Z 19003MPS 0600 R12/1400 FZDZ FZFG VV003 M02/M02 Q1000 R12/490335 NOSIG RMK QFE738,UWSS,2019-01-12T05:00:00Z,51.57,46.07,-2.0,-2.0,190,6,,0.37,29.52756,,,,,,TRUE,,,,FZDZ FZFG,OVX,0,,,,,,,LIFR,,,,,,,,,,,300,METAR,166.0
UWOO 120500Z 14005MPS 3300 -SN OVC013 M09/M11 Q1016 R08/490235 NOSIG RMK QFE751/1002,UWOO,2019-01-12T05:00:00Z,51.8,55.47,-9.0,-11.0,140,10,,2.05,30.0,,,,,,TRUE,,,,-SN,OVC,1300,,,,,,,IFR,,,,,,,,,,,,METAR,109.0
UWOR 120500Z 15002MPS 9999 OVC049 M10/M13 Q1020 R25/820250 NOSIG RMK QFE741/0989,UWOR,2019-01-12T05:00:00Z,51.07,58.6,-10.0,-13.0,150,4,,6.21,30.11811,,,,,,TRUE,,,,,OVC,4900,,,,,,,VFR,,,,,,,,,,,,METAR,277.0
UWLW 120500Z 13002MPS 8000 -SN BKN010 M10/M12 Q1002 R20/490548 NOSIG RMK QFE746,UWLW,2019-01-12T05:00:00Z,54.4,48.8,-10.0,-12.0,130,4,,4.97,29.586615,,,,,,TRUE,,,,-SN,BKN,1000,,,,,,,MVFR,,,,,,,,,,,,METAR,66.0
UWKS 120500Z 17004MPS 8000 -SN BKN017 M12/M13 Q1000 R24/420340 NOSIG RMK QFE736,UWKS,2019-01-12T05:00:00Z,56.08,47.35,-12.0,-13.0,170,8,,4.97,29.52756,,,,,,TRUE,,,,-SN,BKN,1700,,,,,,,MVFR,,,,,,,,,,,,METAR,170.0
UWKE 120500Z 16008MPS 3200 -SN BLSN OVC011 M10/M12 Q1004 R21/491037 NOSIG RMK OBST OBSC QFE736/0982,UWKE,2019-01-12T05:00:00Z,55.57,52.08,-10.0,-12.0,160,16,,1.99,29.64567,,,,,,TRUE,,,,-SN BLSN,OVC,1100,,,,,,,IFR,,,,,,,,,,,,METAR,196.0
UWKD 120500Z 14005MPS 9999 -SN OVC029 M11/M13 Q1002 R11/421042 NOSIG RMK QFE742/0989,UWKD,2019-01-12T05:00:00Z,55.62,49.28,-11.0,-13.0,140,10,,6.21,29.586615,,,,,,TRUE,,,,-SN,OVC,2900,,,,,,,MVFR,,,,,,,,,,,,METAR,126.0
USPP 120500Z 11004MPS CAVOK M12/M14 Q1009 R21/450355 NOSIG RMK QFE746,USPP,2019-01-12T05:00:00Z,57.92,56.02,-12.0,-14.0,110,8,,6.21,29.793306,,,,,,TRUE,,,,,CAVOK,,,,,,,,VFR,,,,,,,,,,,,METAR,123.0
UHSS 120500Z 36005MPS 9999 NSC M08/M15 Q1019 R01/810365 NOSIG RMK QFE763/1018,UHSS,2019-01-12T05:00:00Z,46.88,142.72,-8.0,-15.0,360,10,,6.21,30.088583,,,,,,TRUE,,,,,CLR,,,,,,,,VFR,,,,,,,,,,,,METAR,31.0
OEYN 120500Z 00000KT CAVOK 17/15 Q1012 NOSIG,OEYN,2019-01-12T05:00:00Z,24.13,38.07,17.0,15.0,0,0,,6.21,29.88189,,,,,,TRUE,,,,,CAVOK,,,,,,,,VFR,,,,,,,,,,,,METAR,8.0
OEWJ 120500Z 09003KT CAVOK 18/11 Q1013 NOSIG,OEWJ,2019-01-12T05:00:00Z,26.18,36.47,18.0,11.0,90,3,,6.21,29.911417,,,,,,TRUE,,,,,CAVOK,,,,,,,,VFR,,,,,,,,,,,,METAR,16.0
OEWD 120500Z 10012KT CAVOK 11/03 Q1022 NOSIG,OEWD,2019-01-12T05:00:00Z,20.5,45.2,11.0,3.0,100,12,,6.21,30.177166,,,,,,TRUE,,,,,CAVOK,,,,,,,,VFR,,,,,,,,,,,,METAR,617.0
OETR 120500Z 09010KT 9999 SCT030 BKN100 04/01 Q1017,OETR,2019-01-12T05:00:00Z,31.7,38.73,4.0,1.0,90,10,,6.21,30.029528,,,,,,,,,,,SCT,3000,BKN,10000,,,,,VFR,,,,,,,,,,,,METAR,855.0
OETF 120500Z 16004KT CAVOK 13/04 Q1022 NOSIG,OETF,2019-01-12T05:00:00Z,21.47,40.53,13.0,4.0,160,4,,6.21,30.177166,,,,,,TRUE,,,,,CAVOK,,,,,,,,VFR,,,,,,,,,,,,METAR,1449.0
OETB 120500Z 07004KT 9999 BKN040 10/M02 Q1015 NOSIG,OETB,2019-01-12T05:00:00Z,28.37,36.62,10.0,-2.0,70,4,,6.21,29.970472,,,,,,TRUE,,,,,BKN,4000,,,,,,,VFR,,,,,,,,,,,,METAR,770.0
OESK 120500Z 05004KT 9999 FEW040 SCT100 07/M01 Q1020,OESK,2019-01-12T05:00:00Z,29.77,40.1,7.0,-1.0,50,4,,6.21,30.11811,,,,,,,,,,,FEW,4000,SCT,10000,,,,,VFR,,,,,,,,,,,,METAR,684.0
OESH 120500Z 09007KT CAVOK 16/06 Q1023 NOSIG,OESH,2019-01-12T05:00:00Z,17.47,47.12,16.0,6.0,90,7,,6.21,30.206694,,,,,,TRUE,,,,,CAVOK,,,,,,,,VFR,,,,,,,,,,,,METAR,722.0
OERR 120500Z 11007KT 9999 FEW040 SCT100 05/05 Q1020 NOSIG,OERR,2019-01-12T05:00:00Z,30.88,41.12,5.0,5.0,110,7,,6.21,30.11811,,,,,,TRUE,,,,,FEW,4000,SCT,10000,,,,,VFR,,,,,,,,,,,,METAR,552.0
OERF 120500Z 12007KT CAVOK 09/M02 Q1021,OERF,2019-01-12T05:00:00Z,29.62,43.47,9.0,-2.0,120,7,,6.21,30.147638,,,,,,,,,,,CAVOK,,,,,,,,VFR,,,,,,,,,,,,METAR,447.0
FDST 120500Z AUTO 33010G34KT //// // ////// 27/22 Q1007,FDST,2019-01-12T05:00:00Z,-26.43,31.95,27.0,22.0,330,10,34,,29.734253,,,TRUE,,,,,,,,,,,,,,,,,,,,,,,,,,,,METAR,667.0
FDPP 120500Z AUTO 29003KT //// // ////// 25/17 Q1014,FDPP,2019-01-12T05:00:00Z,-25.97,31.25,25.0,17.0,290,3,,,29.940945,,,TRUE,,,,,,,,,,,,,,,,,,,,,,,,,,,,METAR,1099.0
UEEE 120500Z 00000MPS 1200 1000NE R23L/1000N BR NSC M37/M41 Q1030 R23L/490150 NOSIG RMK QFE763,UEEE,2019-01-12T05:00:00Z,62.08,129.77,-37.0,-41.0,0,0,,0.75,30.413385,,,,,,TRUE,,,,BR,CLR,,,,,,,,LIFR,,,,,,,,,,,,METAR,103.0
USSS 120500Z 09002MPS CAVOK M19/M21 Q1016 R26R/420142 NOSIG RMK QFE741/0988,USSS,2019-01-12T05:00:00Z,56.75,60.82,-19.0,-21.0,90,4,,6.21,30.0,,,,,,TRUE,,,,,CAVOK,,,,,,,,VFR,,,,,,,,,,,,METAR,233.0
USRR 120500Z 14003MPS 6000 OVC001 M28/M31 Q1024 R25/39//34 NOSIG RMK QBB050 OBST OBSC QFE762,USRR,2019-01-12T05:00:00Z,61.33,73.42,-28.0,-31.0,140,6,,3.73,30.236221,,,,,,TRUE,,,,,OVC,100,,,,,,,LIFR,,,,,,,,,,,,METAR,44.0
USNN 120500Z 23003MPS 6000 BKN004 M33/M36 Q1027 R21/450265 NOSIG RMK QFE765,USNN,2019-01-12T05:00:00Z,60.95,76.48,-33.0,-36.0,230,6,,3.73,30.324802,,,,,,TRUE,,,,,BKN,400,,,,,,,LIFR,,,,,,,,,,,,METAR,54.0
USCC 120500Z 10002MPS 2700 BR SCT040 M21/M23 Q1018 R09/000060 TEMPO 0300 FZFG VV003 RMK QFE743,USCC,2019-01-12T05:00:00Z,55.3,61.5,-21.0,-23.0,100,4,,1.68,30.059055,,,,,,,,,,BR,SCT,4000,,,,,,,IFR,,,,,,,,,,,,METAR,234.0
UWUU 120500Z 16007MPS 1500 1000W R14R/1200U SN OVC007 M09/M11 Q1012 R14R/451036 NOSIG RMK QBB210 QFE749/0999,UWUU,2019-01-12T05:00:00Z,54.57,55.87,-9.0,-11.0,160,14,,0.93,29.88189,,,,,,TRUE,,,,SN,OVC,700,,,,,,,LIFR,,,,,,,,,,,,METAR,137.0
UIBB 120500Z 15003MPS 090V190 9999 NSC M21/M24 Q1021 R30/420245 NOSIG RMK QFE723/0964,UIBB,2019-01-12T05:00:00Z,56.37,101.7,-21.0,-24.0,150,6,,6.21,30.147638,,,,,,TRUE,,,,,CLR,,,,,,,,VFR,,,,,,,,,,,,METAR,490.0
UIAA 120500Z 21006MPS 9999 FEW043 M10/M15 Q1018 R29/490145 NOSIG RMK QFE705/0940,UIAA,2019-01-12T05:00:00Z,52.02,113.32,-10.0,-15.0,210,12,,6.21,30.059055,,,,,,TRUE,,,,,FEW,4300,,,,,,,VFR,,,,,,,,,,,,METAR,685.0
UTAT 120500Z 15010KT 9000 OVC007 M00/M01 Q1028 R08/CLRD70 NOSIG,UTAT,2019-01-12T05:00:00Z,41.77,59.83,0.0,-1.0,150,10,,5.59,30.35433,,,,,,TRUE,,,,,OVC,700,,,,,,,IFR,,,,,,,,,,,,METAR,83.0
UTAM 120500Z 13008KT CAVOK 03/00 Q1029 NOSIG,UTAM,2019-01-12T05:00:00Z,37.62,61.9,3.0,0.0,130,8,,6.21,30.383858,,,,,,TRUE,,,,,CAVOK,,,,,,,,VFR,,,,,,,,,,,,METAR,222.0
UTAV 120500Z 12008KT 9999 OVC026 04/02 Q1030 NOSIG,UTAV,2019-01-12T05:00:00Z,39.08,63.62,4.0,2.0,120,8,,6.21,30.413385,,,,,,TRUE,,,,,OVC,2600,,,,,,,MVFR,,,,,,,,,,,,METAR,192.0
UTAK 120500Z 14016KT CAVOK 05/M02 Q1018 R16R/CLRD70 NOSIG,UTAK,2019-01-12T05:00:00Z,40.05,53.0,5.0,-2.0,140,16,,6.21,30.059055,,,,,,TRUE,,,,,CAVOK,,,,,,,,VFR,,,,,,,,,,,,METAR,85.0
UTAA 120500Z 12010KT 9999 BKN200 01/M00 Q1022 R88/70D NOSIG,UTAA,2019-01-12T05:00:00Z,37.98,58.37,1.0,0.0,120,10,,6.21,30.177166,,,,,,TRUE,,,,,BKN,20000,,,,,,,VFR,,,,,,,,,,,,METAR,210.0
SBSG 120500Z 21004KT 180V240 9999 FEW030 SCT067 25/22 Q1010,SBSG,2019-01-12T05:00:00Z,-5.77,-35.37,25.0,22.0,210,4,,6.21,29.822834,,,,,,,,,,,FEW,3000,SCT,6700,,,,,VFR,,,,,,,,,,,,SPECI,83.0
SBBE 120500Z 32002KT 9999 SCT020 OVC100 22/20 Q1013,SBBE,2019-01-12T05:00:00Z,-1.37,-48.47,22.0,20.0,320,2,,6.21,29.911417,,,,,,,,,,,SCT,2000,OVC,10000,,,,,VFR,,,,,,,,,,,,SPECI,16.0
SAZM 120500Z 02008KT CAVOK 16/11 Q1017,SAZM,2019-01-12T05:00:00Z,-37.92,-57.57,16.0,11.0,20,8,,6.21,30.029528,,,,,,,,,,,CAVOK,,,,,,,,VFR,,,,,,,,,,,,METAR,21.0
SASJ 120500Z 09005KT 9999 SCT010 OVC020 17/17 Q1017,SASJ,2019-01-12T05:00:00Z,-24.37,-65.1,17.0,17.0,90,5,,6.21,30.029528,,,,,,,,,,,SCT,1000,OVC,2000,,,,,MVFR,,,,,,,,,,,,METAR,1167.0
SARL 120500Z 09008KT CAVOK 22/20 Q1014,SARL,2019-01-12T05:00:00Z,-29.67,-57.13,22.0,20.0,90,8,,6.21,29.940945,,,,,,,,,,,CAVOK,,,,,,,,VFR,,,,,,,,,,,,METAR,70.0
KMHV 120500Z AUTO 04010KT 10SM SCT046 SCT050 09/M00 A3001 RMK A01,KMHV,2019-01-12T05:00:00Z,35.07,-118.15,9.0,0.0,40,10,,10.0,30.008858,,,TRUE,TRUE,,,,,,,SCT,4600,SCT,5000,,,,,VFR,,,,,,,,,,,,SPECI,849.0
KGZN 120500Z AUTO 23011G17KT 10SM FEW065 SCT085 BKN110 12/10 A2991 RMK AO2 P0002,KGZN,2019-01-12T05:00:00Z,32.37,-99.02,12.0,10.0,230,11,17,10.0,29.911417,,,TRUE,TRUE,,,,,,,FEW,6500,SCT,8500,BKN,11000,,,VFR,,,,,,0.02,,,,,,SPECI,522.0
VOND 120500Z 10003KT 2000 HZ NSC 24/16 Q1018 BECMG 2500,VOND,2019-01-12T05:00:00Z,19.18,77.32,24.0,16.0,100,3,,1.24,30.059055,,,,,,,,,,HZ,CLR,,,,,,,,IFR,,,,,,,,,,,,METAR,86.0
RKSM 120500Z 32002KT 8000 HZ FEW050 BKN080 07/M06 A3016,RKSM,2019-01-12T05:00:00Z,37.42,127.12,7.0,-6.0,320,2,,4.97,30.159449,,,,,,,,,,HZ,FEW,5000,BKN,8000,,,,,MVFR,,,,,,,,,,,,METAR,20.0
CWXC 120500Z AUTO 30006G16KT M21/M25 RMK AO1 1017 SLP198 T12111250 50004,CWXC,2019-01-12T05:00:00Z,48.88,-71.03,-21.1,-25.0,300,6,16,,,1019.8,,TRUE,TRUE,,,,,,,,,,,,,,,,0.4,,,,,,,,,,,METAR,300.0
CWZL 120500Z AUTO 25003KT 06/05 RMK AO1 SLP079 T00560053 53010,CWZL,2019-01-12T05:00:00Z,53.03,-131.6,5.6,5.3,250,3,,,,1007.9,,TRUE,TRUE,,,,,,,,,,,,,,,,1.0,,,,,,,,,,,METAR,17.0
CXNP 120500Z AUTO 25011KT M14/M18 RMK AO1 SOG 09 3014 PK WND 26017/0412 SLP148 T11361177,CXNP,2019-01-12T05:00:00Z,45.75,-64.23,-13.6,-17.7,250,11,,,,1014.8,,TRUE,TRUE,,,,,,,,,,,,,,,,,,,,,,,,,,,METAR,20.0
CXYH 120500Z AUTO 03001KT M24/M27 RMK AO1 SLP096 T12361268 53010,CXYH,2019-01-12T05:00:00Z,61.25,-123.75,-23.6,-26.8,30,1,,,,1009.6,,TRUE,TRUE,,,,,,,,,,,,,,,,1.0,,,,,,,,,,,METAR,204.0
CXRB 120500Z AUTO 36002KT M36/M39 RMK AO1 SOG 03 8012 SLP317 T13581393 50002,CXRB,2019-01-12T05:00:00Z,74.72,-94.98,-35.8,-39.3,360,2,,,,1031.7,,TRUE,TRUE,,,,,,,,,,,,,,,,0.2,,,,,,,,,,,METAR,68.0
CXDK 120500Z AUTO 11002KT M21/M24 RMK AO1 SOG 34 2015 SLP084 T12131235,CXDK,2019-01-12T05:00:00Z,61.27,-124.47,-21.3,-23.5,110,2,,,,1008.4,,TRUE,TRUE,,,,,,,,,,,,,,,,,,,,,,,,,,,METAR,283.0
CWDZ 120500Z AUTO 15005KT M10/M11 RMK AO1 T10971111,CWDZ,2019-01-12T05:00:00Z,51.42,-112.67,-9.7,-11.1,150,5,,,,,,TRUE,TRUE,,,,,,,,,,,,,,,,,,,,,,,,,,,METAR,678.0
CXTN 120500Z AUTO 14013KT M25/M28 RMK AO1 SOG 66 1015 PK WND 13017/0456 SLP120 T12481278,CXTN,2019-01-12T05:00:00Z,69.2,-122.35,-24.8,-27.8,140,13,,,,1012.0,,TRUE,TRUE,,,,,,,,,,,,,,,,,,,,,,,,,,,METAR,552.0
CXLL 120500Z AUTO M25/M28 RMK AO1 SOG 46 3013 SLP113 T12541284,CXLL,2019-01-12T05:00:00Z,61.12,-122.85,-25.4,-28.4,,,,,,1011.3,,TRUE,TRUE,,,,,,,,,,,,,,,,,,,,,,,,,,,METAR,183.0
CWWL 120500Z AUTO 14009G15KT 07/07 RMK AO1 2PAST HR 3012 PK WND 15017/0426 SLP075 P0001 T00730066 50016,CWWL,2019-01-12T05:00:00Z,53.5,-130.63,7.3,6.6,140,9,15,,,1007.5,,TRUE,TRUE,,,,,,,,,,,,,,,,1.6,,,,,0.01,,,,,,METAR,17.0
CWEK 120500Z AUTO 07013KT 06/05 RMK AO1 3016 SLP079 T00580052 50054,CWEK,2019-01-12T05:00:00Z,54.58,-130.7,5.8,5.2,70,13,,,,1007.9,,TRUE,TRUE,,,,,,,,,,,,,,,,5.4,,,,,,,,,,,METAR,8.0
CWME 120500Z AUTO 05011KT 06/06 RMK AO1 2PAST HR M P0001 T00620056 50022,CWME,2019-01-12T05:00:00Z,52.18,-127.47,6.2,5.6,50,11,,,,,,TRUE,TRUE,,,,,,,,,,,,,,,,2.2,,,,,0.01,,,,,,METAR,32.0
CWRU 120500Z AUTO 11027KT 09/08 RMK AO1 PK WND 11032/0442 SLP075 T00920076 50002,CWRU,2019-01-12T05:00:00Z,50.12,-127.93,9.2,7.6,110,27,,,,1007.5,,TRUE,TRUE,,,,,,,,,,,,,,,,0.2,,,,,,,,,,,METAR,98.0
CWQS 120500Z AUTO 11005KT 06/05 RMK AO1 SLP068 T00610050 52012,CWQS,2019-01-12T05:00:00Z,53.32,-132.77,6.1,5.0,110,5,,,,1006.8,,TRUE,TRUE,,,,,,,,,,,,,,,,1.2,,,,,,,,,,,METAR,14.0
WALL 120500Z 16003KT 9999 FEW018CB SCT020 30/26Q1009 RMK CB TO SE AND N,WALL,2019-01-12T05:00:00Z,-1.27,116.9,,,160,3,,6.21,29.793306,,,,,,,,,,,FEW,1800,SCT,2000,,,,,VFR,,,,,,,,,,,,METAR,3.0
CYSM 120500Z 14005KT 15SM FEW120 FEW190 SCT210 M09/M11 A2965 RMK AC1AC1CI2 SLP062,CYSM,2019-01-12T05:00:00Z,60.03,-111.97,-9.0,-11.0,140,5,,15.0,29.648623,1006.2,,,,,,,,,,FEW,12000,FEW,19000,SCT,21000,,,VFR,,,,,,,,,,,,METAR,203.0
CYSF 120500Z AUTO 14004KT 100V170 9SM -SN OVC095 M10/M13 A2991 RMK SLP157,CYSF,2019-01-12T05:00:00Z,59.25,-105.82,-10.0,-13.0,140,4,,9.0,29.911417,1015.7,,TRUE,,,,,,,-SN,OVC,9500,,,,,,,VFR,,,,,,,,,,,,METAR,250.0
CYQV 120500Z AUTO 15007KT 9SM CLR M17/M19 A3036 RMK SLP332,CYQV,2019-01-12T05:00:00Z,51.27,-102.47,-17.0,-19.0,150,7,,9.0,30.360237,1033.2,,TRUE,,,,,,,,CLR,,,,,,,,VFR,,,,,,,,,,,,METAR,498.0
CYPE 120500Z 24007KT 15SM SCT240 M08/M10 A2975 RMK CI3 SLP116,CYPE,2019-01-12T05:00:00Z,56.22,-117.45,-8.0,-10.0,240,7,,15.0,29.749016,1011.6,,,,,,,,,,SCT,24000,,,,,,,VFR,,,,,,,,,,,,METAR,571.0
CYOD 120500Z 11006KT 15SM FEW190 BKN240 M12/M14 A3002 RMK AC2CI6 SLP211,CYOD,2019-01-12T05:00:00Z,54.4,-110.28,-12.0,-14.0,110,6,,15.0,30.02067,1021.1,,,,,,,,,,FEW,19000,BKN,24000,,,,,VFR,,,,,,,,,,,,METAR,544.0
CYIO 120500Z AUTO 17009KT 9SM CLR M37/M40 A3042 RMK SLP315,CYIO,2019-01-12T05:00:00Z,72.67,-77.97,-37.0,-40.0,170,9,,9.0,30.41929,1031.5,,TRUE,,,,,,,,CLR,,,,,,,,VFR,,,,,,,,,,,,METAR,57.0
CYEK 120500Z AUTO 17016KT 9SM OVC090 M18/M20 A3048 RMK SLP325,CYEK,2019-01-12T05:00:00Z,61.1,-94.07,-18.0,-20.0,170,16,,9.0,30.481298,1032.5,,TRUE,,,,,,,,OVC,9000,,,,,,,VFR,,,,,,,,,,,,METAR,10.0
CYED 120500Z AUTO 00000KT 9SM CLR M10/M10 A2987 RMK SLP164,CYED,2019-01-12T05:00:00Z,53.67,-113.47,-10.0,-10.0,0,0,,9.0,29.870079,1016.4,,TRUE,,,,,,,,CLR,,,,,,,,VFR,,,,,,,,,,,,METAR,688.0
CYCY 120500Z AUTO 27006KT 9SM CLR M34/M37 A3040 RMK SLP302,CYCY,2019-01-12T05:00:00Z,70.47,-68.52,-34.0,-37.0,270,6,,9.0,30.398623,1030.2,,TRUE,,,,,,,,CLR,,,,,,,,VFR,,,,,,,,,,,,METAR,26.0
CYBW 120500Z AUTO 31010KT 9SM OVC170 03/M09 A2993 RMK SLP185,CYBW,2019-01-12T05:00:00Z,51.1,-114.37,3.0,-9.0,310,10,,9.0,29.929134,1018.5,,TRUE,,,,,,,,OVC,17000,,,,,,,VFR,,,,,,,,,,,,METAR,1200.0
CWRF 120500Z AUTO 17007KT M30/ A3030 RMK SLP323,CWRF,2019-01-12T05:00:00Z,69.42,-89.72,-30.0,,170,7,,,30.301182,1032.3,,TRUE,,,,,,,,,,,,,,,,,,,,,,,,,,,,METAR,325.0
CYZS 120500Z 31003KT 15SM IC SKC M32/M35 A3051 RMK SLP345,CYZS,2019-01-12T05:00:00Z,64.2,-83.37,-32.0,-35.0,310,3,,15.0,30.510826,1034.5,,,,,,,,,IC,SKC,,,,,,,,VFR,,,,,,,,,,,,METAR,64.0
CYWE 120500Z AUTO 08004KT 1SM -SN VV018 M18/M20 A2961 RMK PCPN 0.5MM PAST HR SLP076,CYWE,2019-01-12T05:00:00Z,64.18,-114.08,-18.0,-20.0,80,4,,1.0,29.610237,1007.6,,TRUE,,,,,,,-SN,OVX,0,,,,,,,LIFR,,,,,,,,,,,1800,METAR,371.0
CYVM 120500Z AUTO 00000KT 9SM CLR M32/M36 A3037 RMK SLP287,CYVM,2019-01-12T05:00:00Z,67.53,-64.02,-32.0,-36.0,0,0,,9.0,30.369095,1028.7,,TRUE,,,,,,,,CLR,,,,,,,,VFR,,,,,,,,,,,,METAR,6.0
CYTE 120500Z AUTO 32005KT 9SM CLR M25/M29 A3042 RMK SLP310,CYTE,2019-01-12T05:00:00Z,64.22,-76.52,-25.0,-29.0,320,5,,9.0,30.41929,1031.0,,TRUE,,,,,,,,CLR,,,,,,,,VFR,,,,,,,,,,,,METAR,47.0
CYRT 120500Z 14006KT 15SM IC BKN120 M32/M35 A3051 RMK AC5 SLP341,CYRT,2019-01-12T05:00:00Z,62.82,-92.12,-32.0,-35.0,140,6,,15.0,30.510826,1034.1,,,,,,,,,IC,BKN,12000,,,,,,,VFR,,,,,,,,,,,,METAR,32.0
CYHK 120500Z AUTO 13006KT 9SM CLR M37/M41 A3046 RMK SLP328,CYHK,2019-01-12T05:00:00Z,68.62,-95.83,-37.0,-41.0,130,6,,9.0,30.46063,1032.8,,TRUE,,,,,,,,CLR,,,,,,,,VFR,,,,,,,,,,,,METAR,46.0
CYFS 120500Z 31007KT 15SM -SG BKN010 OVC015 M23/M26 A2979 RMK ST7SC1 CIG RAG PRESRR SLP111,CYFS,2019-01-12T05:00:00Z,61.75,-121.22,-23.0,-26.0,310,7,,15.0,29.790354,1011.1,,,,,,,,,-SG,BKN,1000,OVC,1500,,,,,MVFR,,,,,,,,,,,,METAR,169.0
CYCO 120500Z 07015KT 3/8SM SN DRSN VV015 M25/M28 A2989 RMK SN8 /S04/ SLP128,CYCO,2019-01-12T05:00:00Z,67.82,-115.15,-25.0,-28.0,70,15,,0.38,29.890747,1012.8,,,,,,,,,SN DRSN,OVX,0,,,,,,,LIFR,,,,,,,,,,,1500,METAR,22.0
CYCB 120500Z 07014KT 1 3/4SM IC DRSN FEW015 SCT240 M37/M41 A3029 RMK IC1SC1CI2 SLP266,CYCB,2019-01-12T05:00:00Z,69.08,-105.12,-37.0,-41.0,70,14,,1.75,30.28937,1026.6,,,,,,,,,IC DRSN,FEW,1500,SCT,24000,,,,,IFR,,,,,,,,,,,,METAR,27.0
CZSJ 120500Z AUTO 10003KT 9SM CLR M24/M26 A3055 RMK SLP385,CZSJ,2019-01-12T05:00:00Z,53.07,-93.35,-24.0,-26.0,100,3,,9.0,30.549213,1038.5,,TRUE,,,,,,,,CLR,,,,,,,,VFR,,,,,,,,,,,,METAR,290.0
CZMD 120500Z AUTO 00000KT 9SM CLR M29/M32 A3058 RMK SLP397,CZMD,2019-01-12T05:00:00Z,53.43,-91.77,-29.0,-32.0,0,0,,9.0,30.578741,1039.7,,TRUE,,,,,,,,CLR,,,,,,,,VFR,,,,,,,,,,,,METAR,278.0
CYYW 120500Z AUTO 00000KT 9SM CLR M25/M27 A3053 RMK SLP394,CYYW,2019-01-12T05:00:00Z,50.3,-88.9,-25.0,-27.0,0,0,,9.0,30.528543,1039.4,,TRUE,,,,,,,,CLR,,,,,,,,VFR,,,,,,,,,,,,METAR,351.0
CYYU 120500Z 28006KT 15SM SKC M24/M26 A3047 RMK RIME ON INDICATOR SLP349,CYYU,2019-01-12T05:00:00Z,49.42,-82.47,-24.0,-26.0,280,6,,15.0,30.469488,1034.9,,,,,,,,,,SKC,,,,,,,,VFR,,,,,,,,,,,,METAR,227.0
CYYB 120500Z AUTO 34004KT 9SM FEW065 OVC096 M18/M21 A3039 RMK SLP333,CYYB,2019-01-12T05:00:00Z,46.35,-79.42,-18.0,-21.0,340,4,,9.0,30.389763,1033.3,,TRUE,,,,,,,,FEW,6500,OVC,9600,,,,,VFR,,,,,,,,,,,,METAR,371.0
CYXU 120500Z 08004KT 15SM OVC079 M07/M11 A3041 RMK AC8 SLP318,CYXU,2019-01-12T05:00:00Z,43.02,-81.15,-7.0,-11.0,80,4,,15.0,30.410433,1031.8,,,,,,,,,,OVC,7900,,,,,,,VFR,,,,,,,,,,,,METAR,278.0
CYXL 120500Z 09004KT 050V120 15SM FEW017 M15/M18 A3046 RMK SC1 SLP353,CYXL,2019-01-12T05:00:00Z,50.12,-91.9,-15.0,-18.0,90,4,,15.0,30.46063,1035.3,,,,,,,,,,FEW,1700,,,,,,,VFR,,,,,,,,,,,,METAR,390.0
CYVQ 120500Z 00000KT 30SM SCT180 M41/M44 A3001 RMK AC4 SLP179,CYVQ,2019-01-12T05:00:00Z,65.27,-126.78,-41.0,-44.0,0,0,,30.0,30.008858,1017.9,,,,,,,,,,SCT,18000,,,,,,,VFR,,,,,,,,,,,,METAR,74.0
CYVO 120500Z AUTO 27005KT 240V310 9SM CLR M22/M24 A3033 RMK SLP315,CYVO,2019-01-12T05:00:00Z,48.07,-77.77,-22.0,-24.0,270,5,,9.0,30.33071,1031.5,,TRUE,,,,,,,,CLR,,,,,,,,VFR,,,,,,,,,,,,METAR,337.0
CYSC 120500Z AUTO 26005KT 9SM CLR M19/M23 A3026 RMK SLP273,CYSC,2019-01-12T05:00:00Z,45.43,-71.68,-19.0,-23.0,260,5,,9.0,30.259842,1027.3,,TRUE,,,,,,,,CLR,,,,,,,,VFR,,,,,,,,,,,,METAR,241.0
CYSB 120500Z 35005KT 15SM -SN OVC087 M15/M19 A3040 RMK AC8 SLP330,CYSB,2019-01-12T05:00:00Z,46.63,-80.8,-15.0,-19.0,350,5,,15.0,30.398623,1033.0,,,,,,,,,-SN,OVC,8700,,,,,,,VFR,,,,,,,,,,,,METAR,348.0
CYRQ 120500Z AUTO 27004KT 240V300 9SM CLR M19/M23 A3032 RMK SLP275,CYRQ,2019-01-12T05:00:00Z,46.35,-72.68,-19.0,-23.0,270,4,,9.0,30.318897,1027.5,,TRUE,,,,,,,,CLR,,,,,,,,VFR,,,,,,,,,,,,METAR,61.0
CYRB 120500Z 36003KT 13SM IC SKC M37/M41 A3045 RMK SLP329,CYRB,2019-01-12T05:00:00Z,74.72,-94.97,-37.0,-41.0,360,3,,13.0,30.448818,1032.9,,,,,,,,,IC,SKC,,,,,,,,VFR,,,,,,,,,,,,METAR,67.0
CYQK 120500Z 07009KT 20SM -SN OVC007 M10/M12 A3039 RMK SC8 SLP328,CYQK,2019-01-12T05:00:00Z,49.77,-94.37,-10.0,-12.0,70,9,,20.0,30.389763,1032.8,,,,,,,,,-SN,OVC,700,,,,,,,IFR,,,,,,,,,,,,METAR,411.0
CYQA 120500Z AUTO 00000KT 9SM OVC100 M13/M19 A3041 RMK ICG SLP324,CYQA,2019-01-12T05:00:00Z,44.97,-79.28,-13.0,-19.0,0,0,,9.0,30.410433,1032.4,,TRUE,,,,,,,,OVC,10000,,,,,,,VFR,,,,,,,,,,,,METAR,282.0
CYPO 120500Z AUTO 30006KT 9SM CLR M28/M31 A3058 RMK SLP367,CYPO,2019-01-12T05:00:00Z,54.98,-85.43,-28.0,-31.0,300,6,,9.0,30.578741,1036.7,,TRUE,,,,,,,,CLR,,,,,,,,VFR,,,,,,,,,,,,METAR,53.0
CYOO 120500Z AUTO 33004KT 9SM BKN095 OVC120 M09/M14 A3046 RMK SLP325,CYOO,2019-01-12T05:00:00Z,43.92,-78.9,-9.0,-14.0,330,4,,9.0,30.46063,1032.5,,TRUE,,,,,,,,BKN,9500,OVC,12000,,,,,VFR,,,,,,,,,,,,METAR,139.0
CYLH 120500Z AUTO 31002KT 9SM CLR M28/M30 A3056 RMK SLP387,CYLH,2019-01-12T05:00:00Z,52.2,-87.93,-28.0,-30.0,310,2,,9.0,30.561024,1038.7,,TRUE,,,,,,,,CLR,,,,,,,,VFR,,,,,,,,,,,,METAR,254.0
CYKP 120500Z AUTO 32006KT 9SM CLR M25/M27 A3055 RMK ICG SLP381,CYKP,2019-01-12T05:00:00Z,51.67,-85.9,-25.0,-27.0,320,6,,9.0,30.549213,1038.1,,TRUE,,,,,,,,CLR,,,,,,,,VFR,,,,,,,,,,,,METAR,179.0
CYKL 120500Z AUTO 35007KT 3SM -SN BKN033 OVC090 M11/M12 A2972 RMK SLP105,CYKL,2019-01-12T05:00:00Z,54.78,-66.82,-11.0,-12.0,350,7,,3.0,29.719488,1010.5,,TRUE,,,,,,,-SN,BKN,3300,OVC,9000,,,,,MVFR,,,,,,,,,,,,METAR,521.0
CYKF 120500Z AUTO 04002KT 9SM OVC070 M09/M14 A3040 RMK SLP319,CYKF,2019-01-12T05:00:00Z,43.47,-80.38,-9.0,-14.0,40,2,,9.0,30.398623,1031.9,,TRUE,,,,,,,,OVC,7000,,,,,,,VFR,,,,,,,,,,,,METAR,317.0
CYHM 120500Z 00000KT 15SM -SN FEW025 OVC083 M06/M11 A3042 RMK CF1AC8 CF TR SLP318,CYHM,2019-01-12T05:00:00Z,43.17,-79.93,-6.0,-11.0,0,0,,15.0,30.41929,1031.8,,,,,,,,,-SN,FEW,2500,OVC,8300,,,,,VFR,,,,,,,,,,,,METAR,238.0
CYGQ 120500Z 00000KT 15SM SKC M26/M29 A3050 RMK SLP372,CYGQ,2019-01-12T05:00:00Z,49.77,-86.92,-26.0,-29.0,0,0,,15.0,30.499016,1037.2,,,,,,,,,,SKC,,,,,,,,VFR,,,,,,,,,,,,METAR,351.0
CYER 120500Z AUTO 29006KT 9SM CLR M30/M32 A3065 RMK SLP382,CYER,2019-01-12T05:00:00Z,56.02,-87.68,-30.0,-32.0,290,6,,9.0,30.649607,1038.2,,TRUE,,,,,,,,CLR,,,,,,,,VFR,,,,,,,,,,,,METAR,16.0
CYCK 120500Z AUTO 07004KT 9SM OVC028 M03/M06 A3041 RMK SLP309,CYCK,2019-01-12T05:00:00Z,42.3,-82.08,-3.0,-6.0,70,4,,9.0,30.410433,1030.9,,TRUE,,,,,,,,OVC,2800,,,,,,,MVFR,,,,,,,,,,,,METAR,198.0
CYBN 120500Z AUTO 16003KT 150V210 9SM FEW052 OVC073 M12/M14 A3043 RMK SLP322,CYBN,2019-01-12T05:00:00Z,44.27,-79.92,-12.0,-14.0,160,3,,9.0,30.431103,1032.2,,TRUE,,,,,,,,FEW,5200,OVC,7300,,,,,VFR,,,,,,,,,,,,METAR,223.0
CYBC 120500Z AUTO 28012G17KT 9SM SCT055 BKN072 M17/M23 A2990 RMK SLP129,CYBC,2019-01-12T05:00:00Z,49.12,-68.2,-17.0,-23.0,280,12,17,9.0,29.899607,1012.9,,TRUE,,,,,,,,SCT,5500,BKN,7200,,,,,VFR,,,,,,,,,,,,METAR,22.0
CYAT 120500Z AUTO 30008KT 9SM OVC014 M20/M23 A3051 RMK SLP335,CYAT,2019-01-12T05:00:00Z,52.93,-82.43,-20.0,-23.0,300,8,,9.0,30.510826,1033.5,,TRUE,,,,,,,,OVC,1400,,,,,,,MVFR,,,,,,,,,,,,METAR,9.0
CYZT 120500Z 12013KT 15SM BKN055 OVC130 09/06 A2985 RMK SC7AC1 SLP108,CYZT,2019-01-12T05:00:00Z,50.67,-127.37,9.0,6.0,120,13,,15.0,29.84941,1010.8,,,,,,,,,,BKN,5500,OVC,13000,,,,,VFR,,,,,,,,,,,,METAR,22.0
CYXS 120500Z AUTO 18011KT 9SM BKN080 BKN130 05/M02 A2983 RMK SLP125,CYXS,2019-01-12T05:00:00Z,53.9,-122.68,5.0,-2.0,180,11,,9.0,29.828741,1012.5,,TRUE,,,,,,,,BKN,8000,BKN,13000,,,,,VFR,,,,,,,,,,,,METAR,691.0
CYXE 120500Z 14009KT 15SM FEW140 M13/M15 A3023 RMK AC2 SLP283,CYXE,2019-01-12T05:00:00Z,52.17,-106.7,-13.0,-15.0,140,9,,15.0,30.230314,1028.3,,,,,,,,,,FEW,14000,,,,,,,VFR,,,,,,,,,,,,METAR,504.0
CYXC 120500Z 23003KT 180V270 3/4SM BR OVC025 M01/M01 A3020 RMK FG6SC2 VIS VRB 1/2-1 SLP267,CYXC,2019-01-12T05:00:00Z,49.6,-115.77,-1.0,-1.0,230,3,,0.75,30.200787,1026.7,,,,,,,,,BR,OVC,2500,,,,,,,LIFR,,,,,,,,,,,,METAR,939.0
CYRV 120500Z AUTO 32003KT 9SM M01/M01 A3021 RMK CLD MISG SLP253,CYRV,2019-01-12T05:00:00Z,50.97,-118.17,-1.0,-1.0,320,3,,9.0,30.209646,1025.3,,TRUE,,,,,,,,,,,,,,,,,,,,,,,,,,,,METAR,443.0
CYQZ 120500Z AUTO 16010KT 9SM OVC130 05/M01 A2988 RMK SLP141,CYQZ,2019-01-12T05:00:00Z,53.02,-122.52,5.0,-1.0,160,10,,9.0,29.878937,1014.1,,TRUE,,,,,,,,OVC,13000,,,,,,,VFR,,,,,,,,,,,,METAR,545.0
CYQD 120500Z AUTO 13009KT 9SM OVC009 M18/M20 A3044 RMK SLP338,CYQD,2019-01-12T05:00:00Z,53.97,-101.08,-18.0,-20.0,130,9,,9.0,30.43996,1033.8,,TRUE,,,,,,,,OVC,900,,,,,,,IFR,,,,,,,,,,,,METAR,271.0
CYKY 120500Z 19016KT 15SM FEW240 M11/M13 A3005 RMK CI1 SLP232,CYKY,2019-01-12T05:00:00Z,51.52,-109.17,-11.0,-13.0,190,16,,15.0,30.050198,1023.2,,,,,,,,,,FEW,24000,,,,,,,VFR,,,,,,,,,,,,METAR,694.0
CYIV 120500Z 13004KT 15SM FEW240 M23/M26 A3056 RMK CI1 CI TR SLP383,CYIV,2019-01-12T05:00:00Z,53.85,-94.65,-23.0,-26.0,130,4,,15.0,30.561024,1038.3,,,,,,,,,,FEW,24000,,,,,,,VFR,,,,,,,,,,,,METAR,237.0
CYHE 120500Z AUTO 11012KT 9SM CLR 05/03 A3001 RMK SLP166,CYHE,2019-01-12T05:00:00Z,49.37,-121.5,5.0,3.0,110,12,,9.0,30.008858,1016.6,,TRUE,,,,,,,,CLR,,,,,,,,VFR,,,,,,,,,,,,METAR,39.0
CYEV 120500Z 29004KT 4SM -SN FEW050 OVC080 M29/M33 A2998 RMK SC2AC6 SLP167,CYEV,2019-01-12T05:00:00Z,68.32,-133.5,-29.0,-33.0,290,4,,4.0,29.97933,1016.7,,,,,,,,,-SN,FEW,5000,OVC,8000,,,,,MVFR,,,,,,,,,,,,METAR,68.0
CYDQ 120500Z AUTO 13004KT 9SM CLR M01/M03 A2974 RMK SLP111,CYDQ,2019-01-12T05:00:00Z,55.75,-120.17,-1.0,-3.0,130,4,,9.0,29.740158,1011.1,,TRUE,,,,,,,,CLR,,,,,,,,VFR,,,,,,,,,,,,METAR,655.0
CYDB 120500Z AUTO VRB02KT 9SM CLR M38/M42 A2957 RMK SLP144,CYDB,2019-01-12T05:00:00Z,61.37,-139.05,-38.0,-42.0,0,2,,9.0,29.568897,1014.4,,TRUE,,,,,,,,CLR,,,,,,,,VFR,,,,,,,,,,,,METAR,801.0
CYBL 120500Z 30003KT 15SM FEW010 BKN170 BKN220 03/03 A2994 RMK SC2AC3CI2 LAST STFD OBS/NEXT 121400 UTC SLP144,CYBL,2019-01-12T05:00:00Z,49.95,-125.27,3.0,3.0,300,3,,15.0,29.940945,1014.4,,,,,,,,,,FEW,1000,BKN,17000,BKN,22000,,,VFR,,,,,,,,,,,,METAR,106.0
CYZX 120500Z 28015G20KT 8SM -SN OVC023 M12/M15 A3004 RMK SC8 SLP175,CYZX,2019-01-12T05:00:00Z,44.98,-64.92,-12.0,-15.0,280,15,20,8.0,30.041338,1017.5,,,,,,,,,-SN,OVC,2300,,,,,,,MVFR,,,,,,,,,,,,METAR,28.0
CYZV 120500Z 28006KT 15SM SCT035 OVC090 M09/M12 A2966 RMK SC4AC4 SLP048,CYZV,2019-01-12T05:00:00Z,50.22,-66.27,-9.0,-12.0,280,6,,15.0,29.660433,1004.8,,,,,,,,,,SCT,3500,OVC,9000,,,,,VFR,,,,,,,,,,,,METAR,55.0
CYZF 120500Z 05004KT 8SM -SN OVC008 M14/M16 A2964 RMK SC8 SLP062,CYZF,2019-01-12T05:00:00Z,62.47,-114.45,-14.0,-16.0,50,4,,8.0,29.639763,1006.2,,,,,,,,,-SN,OVC,800,,,,,,,IFR,,,,,,,,,,,,METAR,206.0
CYYZ 120500Z 02004KT 15SM OVC080 M08/M15 A3044 RMK AC8 SLP323,CYYZ,2019-01-12T05:00:00Z,43.67,-79.62,-8.0,-15.0,20,4,,15.0,30.43996,1032.3,,,,,,,,,,OVC,8000,,,,,,,VFR,,,,,,,,,,,,METAR,173.0
CYYQ 120500Z 17008KT 15SM OVC110 M25/M28 A3055 RMK AC8 SLP353,CYYQ,2019-01-12T05:00:00Z,58.75,-94.07,-25.0,-28.0,170,8,,15.0,30.549213,1035.3,,,,,,,,,,OVC,11000,,,,,,,VFR,,,,,,,,,,,,METAR,29.0
CYYJ 120500Z 25004KT 20SM SCT190 BKN240 04/04 A2994 RMK AC3CI4 SLP139,CYYJ,2019-01-12T05:00:00Z,48.63,-123.42,4.0,4.0,250,4,,20.0,29.940945,1013.9,,,,,,,,,,SCT,19000,BKN,24000,,,,,VFR,,,,,,,,,,,,METAR,19.0
CYYC 120500Z 27009KT 15SM BKN110 08/M10 A2991 RMK AC6 SLP171,CYYC,2019-01-12T05:00:00Z,51.12,-114.02,8.0,-10.0,270,9,,15.0,29.911417,1017.1,,,,,,,,,,BKN,11000,,,,,,,VFR,,,,,,,,,,,,METAR,1084.0
CYXX 120500Z 03005KT 15SM FEW190 05/04 A2995 RMK AC2 SLP144,CYXX,2019-01-12T05:00:00Z,49.03,-122.38,5.0,4.0,30,5,,15.0,29.949802,1014.4,,,,,,,,,,FEW,19000,,,,,,,VFR,,,,,,,,,,,,METAR,58.0
CYWG 120500Z 04006KT 15SM OVC043 M12/M14 A3043 RMK SC8 SLP326,CYWG,2019-01-12T05:00:00Z,49.88,-97.22,-12.0,-14.0,40,6,,15.0,30.431103,1032.6,,,,,,,,,,OVC,4300,,,,,,,VFR,,,,,,,,,,,,METAR,239.0
CYVR 120500Z 00000KT 20SM FEW180 BKN240 05/04 A2994 RMK AC2CS3 SLP141,CYVR,2019-01-12T05:00:00Z,49.17,-123.17,5.0,4.0,0,0,,20.0,29.940945,1014.1,,,,,,,,,,FEW,18000,BKN,24000,,,,,VFR,,,,,,,,,,,,METAR,2.0
CYUL 120500Z 26010KT 15SM SKC M16/M23 A3040 RMK SLP299,CYUL,2019-01-12T05:00:00Z,45.47,-73.73,-16.0,-23.0,260,10,,15.0,30.398623,1029.9,,,,,,,,,,SKC,,,,,,,,VFR,,,,,,,,,,,,METAR,36.0
CYTR 120500Z 33006KT 15SM OVC120 M10/M20 A3047 RMK AC8 SLP328,CYTR,2019-01-12T05:00:00Z,44.12,-77.52,-10.0,-20.0,330,6,,15.0,30.469488,1032.8,,,,,,,,,,OVC,12000,,,,,,,VFR,,,,,,,,,,,,METAR,86.0
CYQY 120500Z 24012KT 8SM -SN SCT016 OVC030 M06/M10 A2986 RMK SC4SC4 SLP118,CYQY,2019-01-12T05:00:00Z,46.17,-60.03,-6.0,-10.0,240,12,,8.0,29.861221,1011.8,,,,,,,,,-SN,SCT,1600,OVC,3000,,,,,MVFR,,,,,,,,,,,,METAR,62.0
CYQX 120500Z 22017KT 15SM -SHSN VCFG FEW003 FEW011 SCT017 OVC036 M02/M04 A2980 RMK SF1SC1SC2SC4 VIS NW 4 BR CVCTV CLD EMBD SLP100,CYQX,2019-01-12T05:00:00Z,48.95,-54.58,-2.0,-4.0,220,17,,15.0,29.799213,1010.0,,,,,,,,,-SHSN VCFG,FEW,300,FEW,1100,SCT,1700,OVC,3600,VFR,,,,,,,,,,,,METAR,151.0
CYQQ 120500Z 00000KT 20SM FEW170 BKN220 04/04 A2995 RMK AC1CI4 SLP141,CYQQ,2019-01-12T05:00:00Z,49.72,-124.9,4.0,4.0,0,0,,20.0,29.949802,1014.1,,,,,,,,,,FEW,17000,BKN,22000,,,,,VFR,,,,,,,,,,,,METAR,24.0
CYQM 120500Z 25019KT 15SM R29/3000VP6000FT/D BKN034 M16/M19 A2992 RMK SC5 SLP139,CYQM,2019-01-12T05:00:00Z,46.12,-64.67,-16.0,-19.0,250,19,,15.0,29.920275,1013.9,,,,,,,,,,BKN,3400,,,,,,,VFR,,,,,,,,,,,,METAR,71.0
CYQG 120500Z AUTO 00000KT 9SM OVC075 M04/M07 A3041 RMK SLP310,CYQG,2019-01-12T05:00:00Z,42.27,-82.97,-4.0,-7.0,0,0,,9.0,30.410433,1031.0,,TRUE,,,,,,,,OVC,7500,,,,,,,VFR,,,,,,,,,,,,METAR,190.0
CYQB 120500Z 26018G26KT 15SM FEW030 OVC110 M18/M23 A3022 RMK SC1AC8 SC TR SLP242,CYQB,2019-01-12T05:00:00Z,46.78,-71.37,-18.0,-23.0,260,18,26,15.0,30.221457,1024.2,,,,,,,,,,FEW,3000,OVC,11000,,,,,VFR,,,,,,,,,,,,METAR,73.0
CYOW 120500Z 29009KT 15SM BKN110 M16/M22 A3044 RMK AC7 SLP321,CYOW,2019-01-12T05:00:00Z,45.32,-75.67,-16.0,-22.0,290,9,,15.0,30.43996,1032.1,,,,,,,,,,BKN,11000,,,,,,,VFR,,,,,,,,,,,,METAR,114.0
CYMX 120500Z 25006KT 25SM SKC M19/M24 A3037 RMK SLP295,CYMX,2019-01-12T05:00:00Z,45.67,-74.02,-19.0,-24.0,250,6,,25.0,30.369095,1029.5,,,,,,,,,,SKC,,,,,,,,VFR,,,,,,,,,,,,METAR,82.0
CYJT 120500Z 23019KT 6SM -SN OVC017 M03/M06 A2978 RMK SC8 SLP087,CYJT,2019-01-12T05:00:00Z,48.55,-58.57,-3.0,-6.0,230,19,,6.0,29.778543,1008.7,,,,,,,,,-SN,OVC,1700,,,,,,,MVFR,,,,,,,,,,,,METAR,26.0
CYHZ 120500Z 27014KT 10SM -SN OVC023 M10/M12 A2993 RMK SC8 SLP147,CYHZ,2019-01-12T05:00:00Z,44.87,-63.5,-10.0,-12.0,270,14,,10.0,29.929134,1014.7,,,,,,,,,-SN,OVC,2300,,,,,,,MVFR,,,,,,,,,,,,METAR,145.0
CYGL 120500Z 25005KT 10SM -SN OVC005 M20/M23 A3020 RMK SF8 SLP254,CYGL,2019-01-12T05:00:00Z,53.62,-77.7,-20.0,-23.0,250,5,,10.0,30.200787,1025.4,,,,,,,,,-SN,OVC,500,,,,,,,IFR,,,,,,,,,,,,METAR,195.0
CYFC 120500Z AUTO 23009KT 9SM CLR M17/M20 A3001 RMK SLP167,CYFC,2019-01-12T05:00:00Z,45.87,-66.52,-17.0,-20.0,230,9,,9.0,30.008858,1016.7,,TRUE,,,,,,,,CLR,,,,,,,,VFR,,,,,,,,,,,,METAR,20.0
CYFB 120500Z 33019G25KT 8SM IC DRSN SCT110 M28/M32 A3022 RMK AC3 SLP240,CYFB,2019-01-12T05:00:00Z,63.75,-68.55,-28.0,-32.0,330,19,25,8.0,30.221457,1024.0,,,,,,,,,IC DRSN,SCT,11000,,,,,,,VFR,,,,,,,,,,,,METAR,34.0
CYEG 120500Z 13010KT 20SM SCT250 M09/M11 A2986 RMK CI4 SLP163,CYEG,2019-01-12T05:00:00Z,53.28,-113.57,-9.0,-11.0,130,10,,20.0,29.861221,1016.3,,,,,,,,,,SCT,25000,,,,,,,VFR,,,,,,,,,,,,METAR,723.0
CYBG 120500Z 32018KT 10SM -SN DRSN FEW050 BKN140 M20/M24 A3016 RMK SC2AC3 WND ESTD SLP231,CYBG,2019-01-12T05:00:00Z,48.33,-70.98,-20.0,-24.0,320,18,,10.0,30.159449,1023.1,,,,,,,,,-SN DRSN,FEW,5000,BKN,14000,,,,,VFR,,,,,,,,,,,,METAR,159.0
CYZR 120500Z AUTO 14006KT 9SM OVC065 M04/M07 A3042 RMK SLP312,CYZR,2019-01-12T05:00:00Z,43.0,-82.3,-4.0,-7.0,140,6,,9.0,30.41929,1031.2,,TRUE,,,,,,,,OVC,6500,,,,,,,VFR,,,,,,,,,,,,METAR,181.0
CYYY 120500Z 27017G28KT 5SM -SN DRSN OVC024 M15/M18 A2994 RMK SC8 SLP146,CYYY,2019-01-12T05:00:00Z,48.6,-68.22,-15.0,-18.0,270,17,28,5.0,29.940945,1014.6,,,,,,,,,-SN DRSN,OVC,2400,,,,,,,MVFR,,,,,,,,,,,,METAR,52.0
CYXR 120500Z AUTO 30005KT 9SM CLR M21/M23 A3043 RMK ICG INTMT SLP336,CYXR,2019-01-12T05:00:00Z,47.7,-79.83,-21.0,-23.0,300,5,,9.0,30.431103,1033.6,,TRUE,,,,,,,,CLR,,,,,,,,VFR,,,,,,,,,,,,METAR,243.0
CYWA 120500Z AUTO 00000KT 9SM BKN093 M20/M24 A3046 RMK SLP329,CYWA,2019-01-12T05:00:00Z,45.95,-77.32,-20.0,-24.0,0,0,,9.0,30.46063,1032.9,,TRUE,,,,,,,,BKN,9300,,,,,,,VFR,,,,,,,,,,,,METAR,130.0
CYVV 120500Z 17003KT 12SM -SN OVC052 M09/M12 A3043 RMK SC8 SLP322,CYVV,2019-01-12T05:00:00Z,44.75,-81.08,-9.0,-12.0,170,3,,12.0,30.431103,1032.2,,,,,,,,,-SN,OVC,5200,,,,,,,VFR,,,,,,,,,,,,METAR,222.0
CYVP 120500Z 01013G21KT 15SM -SN DRSN OVC015 M13/M16 A3006 RMK ST8 SLP185,CYVP,2019-01-12T05:00:00Z,58.12,-68.42,-13.0,-16.0,10,13,21,15.0,30.059055,1018.5,,,,,,,,,-SN DRSN,OVC,1500,,,,,,,MVFR,,,,,,,,,,,,METAR,60.0
CYTZ 120500Z AUTO 31003KT 9SM OVC085 M07/M14 A3047 RMK RVR MISG SLP324,CYTZ,2019-01-12T05:00:00Z,43.63,-79.4,-7.0,-14.0,310,3,,9.0,30.469488,1032.4,,TRUE,,,,,,,,OVC,8500,,,,,,,VFR,,,,,,,,,,,,METAR,77.0
CYTS 120500Z 29005KT 15SM SKC M23/M25 A3042 RMK SLP339,CYTS,2019-01-12T05:00:00Z,48.57,-81.37,-23.0,-25.0,290,5,,15.0,30.41929,1033.9,,,,,,,,,,SKC,,,,,,,,VFR,,,,,,,,,,,,METAR,295.0
CYTL 120500Z AUTO 01004KT 9SM OVC160 M27/M29 A3060 RMK SLP398,CYTL,2019-01-12T05:00:00Z,53.82,-89.88,-27.0,-29.0,10,4,,9.0,30.59941,1039.8,,TRUE,,,,,,,,OVC,16000,,,,,,,VFR,,,,,,,,,,,,METAR,224.0
CYQT 120500Z 01003KT 330V050 15SM -SN OVC038 M09/M12 A3048 RMK SC8 SLP339,CYQT,2019-01-12T05:00:00Z,48.37,-89.32,-9.0,-12.0,10,3,,15.0,30.481298,1033.9,,,,,,,,,-SN,OVC,3800,,,,,,,VFR,,,,,,,,,,,,METAR,199.0
CYPQ 120500Z AUTO 34004KT 9SM OVC110 M11/M16 A3044 RMK SLP325,CYPQ,2019-01-12T05:00:00Z,44.22,-78.37,-11.0,-16.0,340,4,,9.0,30.43996,1032.5,,TRUE,,,,,,,,OVC,11000,,,,,,,VFR,,,,,,,,,,,,METAR,191.0
CYNA 120500Z AUTO 24015G21KT 4SM -SN OVC010 M03/M05 A2962 RMK SLP034,CYNA,2019-01-12T05:00:00Z,50.17,-61.82,-3.0,-5.0,240,15,21,4.0,29.619095,1003.4,,TRUE,,,,,,,-SN,OVC,1000,,,,,,,MVFR,,,,,,,,,,,,METAR,11.0
CYMO 120500Z AUTO 28008KT 9SM BKN010 OVC014 M24/M27 A3050 RMK SLP332,CYMO,2019-01-12T05:00:00Z,51.28,-80.62,-24.0,-27.0,280,8,,9.0,30.499016,1033.2,,TRUE,,,,,,,,BKN,1000,OVC,1400,,,,,MVFR,,,,,,,,,,,,METAR,10.0
CYHU 120500Z AUTO 27012KT 9SM CLR M16/M22 A3038 RMK SLP293,CYHU,2019-01-12T05:00:00Z,45.52,-73.42,-16.0,-22.0,270,12,,9.0,30.380905,1029.3,,TRUE,,,,,,,,CLR,,,,,,,,VFR,,,,,,,,,,,,METAR,27.0
CYGP 120500Z 29006KT 15SM BKN023 OVC034 M09/M12 A2970 RMK SC6SC2 SLP061,CYGP,2019-01-12T05:00:00Z,48.77,-64.47,-9.0,-12.0,290,6,,15.0,29.698818,1006.1,,,,,,,,,,BKN,2300,OVC,3400,,,,,MVFR,,,,,,,,,,,,METAR,33.0
CYAM 120500Z 07002KT 12SM -SN OVC087 M12/M14 A3045 RMK AC8 SLP329,CYAM,2019-01-12T05:00:00Z,46.47,-84.52,-12.0,-14.0,70,2,,12.0,30.448818,1032.9,,,,,,,,,-SN,OVC,8700,,,,,,,VFR,,,,,,,,,,,,METAR,192.0
VTPP 120500Z VRB03KT 8000 FEW025 32/22 Q1014 NOSIG,VTPP,2019-01-12T05:00:00Z,16.78,100.28,32.0,22.0,0,3,,4.97,29.940945,,,,,,TRUE,,,,,FEW,2500,,,,,,,MVFR,,,,,,,,,,,,METAR,44.0
VTPO 120500Z 09004KT 6000 FEW025 31/23 Q1014 NOSIG,VTPO,2019-01-12T05:00:00Z,17.23,99.82,31.0,23.0,90,4,,3.73,29.940945,,,,,,TRUE,,,,,FEW,2500,,,,,,,MVFR,,,,,,,,,,,,METAR,54.0
VTPM 120500Z 01003KT 300V070 8000 FEW030 29/21 Q1015 NOSIG,VTPM,2019-01-12T05:00:00Z,16.67,98.53,29.0,21.0,10,3,,4.97,29.970472,,,,,,TRUE,,,,,FEW,3000,,,,,,,MVFR,,,,,,,,,,,,METAR,197.0
VTPH 120500Z 02006KT 340V060 6000 NSC 30/24 Q1012 NOSIG,VTPH,2019-01-12T05:00:00Z,12.63,99.95,30.0,24.0,20,6,,3.73,29.88189,,,,,,TRUE,,,,,CLR,,,,,,,,MVFR,,,,,,,,,,,,METAR,6.0
VTPB 120500Z VRB03KT 8000 FEW035 33/19 Q1014 NOSIG,VTPB,2019-01-12T05:00:00Z,16.67,101.2,33.0,19.0,0,3,,4.97,29.940945,,,,,,TRUE,,,,,FEW,3500,,,,,,,MVFR,,,,,,,,,,,,METAR,137.0
VTCP 120500Z 00000KT 7000 SCT025 30/23 Q1015 NOSIG,VTCP,2019-01-12T05:00:00Z,18.13,100.17,30.0,23.0,0,0,,4.35,29.970472,,,,,,TRUE,,,,,SCT,2500,,,,,,,MVFR,,,,,,,,,,,,METAR,162.0
VTCN 120500Z 03003KT 340V100 9999 FEW030 BKN100 26/19 Q1015 NOSIG,VTCN,2019-01-12T05:00:00Z,18.82,100.77,26.0,19.0,30,3,,6.21,29.970472,,,,,,TRUE,,,,,FEW,3000,BKN,10000,,,,,VFR,,,,,,,,,,,,METAR,201.0
VTCL 120500Z VRB01KT 6000 FEW025 26/21 Q1016 NOSIG,VTCL,2019-01-12T05:00:00Z,18.27,99.52,26.0,21.0,0,1,,3.73,30.0,,,,,,TRUE,,,,,FEW,2500,,,,,,,MVFR,,,,,,,,,,,,METAR,242.0
VTCH 120500Z 13003KT 9999 FEW025 19/14 Q1017 NOSIG,VTCH,2019-01-12T05:00:00Z,19.3,97.98,19.0,14.0,130,3,,6.21,30.029528,,,,,,TRUE,,,,,FEW,2500,,,,,,,VFR,,,,,,,,,,,,METAR,269.0
VTBO 120500Z 28006KT 7000 FEW020 31/24 Q1012,VTBO,2019-01-12T05:00:00Z,12.28,102.32,31.0,24.0,280,6,,4.35,29.88189,,,,,,,,,,,FEW,2000,,,,,,,MVFR,,,,,,,,,,,,METAR,32.0
VTST 120500Z 06011KT 9999 FEW020 31/22 Q1010 NOSIG,VTST,2019-01-12T05:00:00Z,7.52,99.62,31.0,22.0,60,11,,6.21,29.822834,,,,,,TRUE,,,,,FEW,2000,,,,,,,VFR,,,,,,,,,,,,METAR,16.0
VTSR 120500Z VRB04KT 9999 SCT030 32/24 Q1012 NOSIG,VTSR,2019-01-12T05:00:00Z,9.78,98.58,32.0,24.0,0,4,,6.21,29.88189,,,,,,TRUE,,,,,SCT,3000,,,,,,,VFR,,,,,,,,,,,,METAR,8.0
VTSK 120500Z 14005KT 9999 FEW030 BKN100 28/23 Q1012,VTSK,2019-01-12T05:00:00Z,6.77,101.15,28.0,23.0,140,5,,6.21,29.88189,,,,,,,,,,,FEW,3000,BKN,10000,,,,,VFR,,,,,,,,,,,,METAR,9.0
VTSH 120500Z 06008KT 8000 SH FEW018CB SCT020 BKN100 30/24 Q1011 NOSIG,VTSH,2019-01-12T05:00:00Z,7.2,100.58,30.0,24.0,60,8,,4.97,29.852362,,,,,,TRUE,,,,SH,FEW,1800,SCT,2000,BKN,10000,,,MVFR,,,,,,,,,,,,METAR,5.0
VTSF 120500Z 10008KT 070V140 9999 FEW017TCU SCT018 30/24 Q1012 NOSIG,VTSF,2019-01-12T05:00:00Z,8.53,99.95,30.0,24.0,100,8,,6.21,29.88189,,,,,,TRUE,,,,,FEW,1700,SCT,1800,,,,,VFR,,,,,,,,,,,,METAR,4.0
VTSE 120500Z 08007KT 050V120 9999 FEW020 31/24 Q1012 NOSIG,VTSE,2019-01-12T05:00:00Z,10.72,99.37,31.0,24.0,80,7,,6.21,29.88189,,,,,,TRUE,,,,,FEW,2000,,,,,,,VFR,,,,,,,,,,,,METAR,5.0
VTSC 120500Z 12009KT 080V150 9999 SCT018 SCT100 28/25 Q1012 NOSIG,VTSC,2019-01-12T05:00:00Z,6.52,101.75,28.0,25.0,120,9,,6.21,29.88189,,,,,,TRUE,,,,,SCT,1800,SCT,10000,,,,,VFR,,,,,,,,,,,,METAR,6.0
VTSB 120500Z 05007KT 010V090 8000 VCSH FEW018CB SCT020 BKN100 30/25 Q1012,VTSB,2019-01-12T05:00:00Z,9.12,99.13,30.0,25.0,50,7,,4.97,29.88189,,,,,,,,,,VCSH,FEW,1800,SCT,2000,BKN,10000,,,MVFR,,,,,,,,,,,,METAR,11.0
VTUW 120500Z 07006KT 020V140 CAVOK 31/17 Q1015 NOSIG,VTUW,2019-01-12T05:00:00Z,17.38,104.63,31.0,17.0,70,6,,6.21,29.970472,,,,,,TRUE,,,,,CAVOK,,,,,,,,VFR,,,,,,,,,,,,METAR,184.0
VTUV 120500Z 04008KT 010V090 CAVOK 31/16 Q1014 NOSIG,VTUV,2019-01-12T05:00:00Z,16.12,103.78,31.0,16.0,40,8,,6.21,29.940945,,,,,,TRUE,,,,,CAVOK,,,,,,,,VFR,,,,,,,,,,,,METAR,138.0
VTUU 120500Z VRB02KT CAVOK 31/20 Q1014 NOSIG,VTUU,2019-01-12T05:00:00Z,15.25,104.87,31.0,20.0,0,2,,6.21,29.940945,,,,,,TRUE,,,,,CAVOK,,,,,,,,VFR,,,,,,,,,,,,METAR,127.0
VTUQ 120500Z 07007KT 040V110 9999 FEW030 35/22 Q1015 NOSIG,VTUQ,2019-01-12T05:00:00Z,14.95,102.32,35.0,22.0,70,7,,6.21,29.970472,,,,,,TRUE,,,,,FEW,3000,,,,,,,VFR,,,,,,,,,,,,METAR,234.0
VTUO 120500Z 05008KT 340V110 9000 NSC 31/20 Q1015 NOSIG,VTUO,2019-01-12T05:00:00Z,15.23,103.25,31.0,20.0,50,8,,5.59,29.970472,,,,,,TRUE,,,,,CLR,,,,,,,,VFR,,,,,,,,,,,,METAR,183.0
VTUL 120500Z VRB04KT 9999 SCT035 31/21 Q1015 NOSIG,VTUL,2019-01-12T05:00:00Z,17.43,101.72,31.0,21.0,0,4,,6.21,29.970472,,,,,,TRUE,,,,,SCT,3500,,,,,,,VFR,,,,,,,,,,,,METAR,254.0
VTUK 120500Z VRB04KT 9000 NSC 32/19 Q1015 NOSIG,VTUK,2019-01-12T05:00:00Z,16.47,102.78,32.0,19.0,0,4,,5.59,29.970472,,,,,,TRUE,,,,,CLR,,,,,,,,VFR,,,,,,,,,,,,METAR,204.0
VTUI 120500Z VRB06KT CAVOK 29/18 Q1015 NOSIG,VTUI,2019-01-12T05:00:00Z,17.2,104.12,29.0,18.0,0,6,,6.21,29.970472,,,,,,TRUE,,,,,CAVOK,,,,,,,,VFR,,,,,,,,,,,,METAR,172.0
VTUD 120500Z VRB04KT CAVOK 31/19 Q1015 NOSIG,VTUD,2019-01-12T05:00:00Z,17.37,102.78,31.0,19.0,0,4,,6.21,29.970472,,,,,,TRUE,,,,,CAVOK,,,,,,,,VFR,,,,,,,,,,,,METAR,182.0
ZYHB 120500Z 21004MPS 3000 FU NSC M04/M08 Q1020 NOSIG,ZYHB,2019-01-12T05:00:00Z,45.62,126.25,-4.0,-8.0,210,8,,1.86,30.11811,,,,,,TRUE,,,,FU,CLR,,,,,,,,IFR,,,,,,,,,,,,METAR,140.0
ZYCC 120500Z 25005MPS 5000 HZ NSC 00/M09 Q1020 NOSIG,ZYCC,2019-01-12T05:00:00Z,43.98,125.68,0.0,-9.0,250,10,,3.11,30.11811,,,,,,TRUE,,,,HZ,CLR,,,,,,,,MVFR,,,,,,,,,,,,METAR,238.0
ZUCK 120500Z 02002MPS 350V070 7000 SCT026 08/03 Q1021 NOSIG,ZUCK,2019-01-12T05:00:00Z,29.72,106.63,8.0,3.0,20,4,,4.35,30.147638,,,,,,TRUE,,,,,SCT,2600,,,,,,,MVFR,,,,,,,,,,,,METAR,416.0
ZSOF 120500Z VRB01MPS 2000 BR BKN010 OVC030 03/01 Q1026 NOSIG,ZSOF,2019-01-12T05:00:00Z,31.98,116.97,3.0,1.0,0,2,,1.24,30.295275,,,,,,TRUE,,,,BR,BKN,1000,OVC,3000,,,,,IFR,,,,,,,,,,,,METAR,63.0
ZSNJ 120500Z 27002MPS 9000 OVC020 06/02 Q1026 NOSIG,ZSNJ,2019-01-12T05:00:00Z,31.75,118.87,6.0,2.0,270,4,,5.59,30.295275,,,,,,TRUE,,,,,OVC,2000,,,,,,,MVFR,,,,,,,,,,,,METAR,33.0
ZLLL 120500Z 21002MPS 160V250 CAVOK 01/M17 Q1022 NOSIG,ZLLL,2019-01-12T05:00:00Z,36.52,103.62,1.0,-17.0,210,4,,6.21,30.177166,,,,,,TRUE,,,,,CAVOK,,,,,,,,VFR,,,,,,,,,,,,METAR,1947.0
ZJSY 120500Z 18003MPS 080V240 9999 FEW020 28/21 Q1016 NOSIG,ZJSY,2019-01-12T05:00:00Z,18.3,109.42,28.0,21.0,180,6,,6.21,30.0,,,,,,TRUE,,,,,FEW,2000,,,,,,,VFR,,,,,,,,,,,,METAR,27.0
ZJHK 120500Z 10005MPS 070V130 9999 SCT017 SCT040 25/21 Q1017 NOSIG,ZJHK,2019-01-12T05:00:00Z,19.93,110.47,25.0,21.0,100,10,,6.21,30.029528,,,,,,TRUE,,,,,SCT,1700,SCT,4000,,,,,VFR,,,,,,,,,,,,METAR,23.0
ZHHH 120500Z 08002MPS 020V140 2000 BR SCT015 04/01 Q1025 NOSIG,ZHHH,2019-01-12T05:00:00Z,30.78,114.22,4.0,1.0,80,4,,1.24,30.265747,,,,,,TRUE,,,,BR,SCT,1500,,,,,,,IFR,,,,,,,,,,,,METAR,33.0
ZHCC 120500Z 16002MPS 110V230 1500 BR NSC 03/M01 Q1024 NOSIG,ZHCC,2019-01-12T05:00:00Z,34.52,113.83,3.0,-1.0,160,4,,0.93,30.236221,,,,,,TRUE,,,,BR,CLR,,,,,,,,LIFR,,,,,,,,,,,,METAR,151.0
ZGHA 120500Z 36002MPS 330V030 5000 BR BKN010 OVC050 05/04 Q1024 BECMG TL0600 BKN009 OVC050,ZGHA,2019-01-12T05:00:00Z,28.18,113.22,5.0,4.0,360,4,,3.11,30.236221,,,,,,,,,,BR,BKN,1000,OVC,5000,,,,,MVFR,,,,,,,,,,,,METAR,66.0
ZBHH 120500Z 25002MPS 210V290 3500 HZ NSC M04/M13 Q1021 BECMG TL0630 33005MPS,ZBHH,2019-01-12T05:00:00Z,40.85,111.82,-4.0,-13.0,250,4,,2.17,30.147638,,,,,,,,,,HZ,CLR,,,,,,,,IFR,,,,,,,,,,,,METAR,1065.0
FMSD 120500Z VRB02KT 9999 VCSH SCT020 BKN033 27/25 Q1010,FMSD,2019-01-12T05:00:00Z,-25.02,46.95,27.0,25.0,0,2,,6.21,29.822834,,,,,,,,,,VCSH,SCT,2000,BKN,3300,,,,,VFR,,,,,,,,,,,,METAR,9.0
FMNM 120500Z 12008KT 9999 FEW020CB SCT040 26/22 Q1012 NOSIG,FMNM,2019-01-12T05:00:00Z,-15.67,46.35,26.0,22.0,120,8,,6.21,29.88189,,,,,,TRUE,,,,,FEW,2000,SCT,4000,,,,,VFR,,,,,,,,,,,,METAR,18.0
FMCH 120500Z 29005KT 260V320 9999 FEW020 BKN070 30/24 Q1012 NOSIG,FMCH,2019-01-12T05:00:00Z,-11.52,43.27,30.0,24.0,290,5,,6.21,29.88189,,,,,,TRUE,,,,,FEW,2000,BKN,7000,,,,,VFR,,,,,,,,,,,,METAR,29.0
UMOO 120500Z 23005G08MPS 6000 -SN DRSN OVC012 M11/M12 Q0998 NOSIG,UMOO,2019-01-12T05:00:00Z,53.95,30.1,-11.0,-12.0,230,10,16,3.73,29.468504,,,,,,TRUE,,,,-SN DRSN,OVC,1200,,,,,,,MVFR,,,,,,,,,,,,METAR,194.0
RJFS 120500Z 25005KT 9999 FEW025 SCT050 BKN130 11/06 Q1017,RJFS,2019-01-12T05:00:00Z,33.15,130.3,11.0,6.0,250,5,,6.21,30.029528,,,,,,,,,,,FEW,2500,SCT,5000,BKN,13000,,,VFR,,,,,,,,,,,,METAR,5.0
ROIG 120500Z 01011KT 9999 -RA FEW013 BKN020 BKN035 21/21 Q1016,ROIG,2019-01-12T05:00:00Z,24.32,124.17,21.0,21.0,10,11,,6.21,30.0,,,,,,,,,,-RA,FEW,1300,BKN,2000,BKN,3500,,,MVFR,,,,,,,,,,,,METAR,7.0
RJOH 120500Z 08010KT 9999 FEW025 SCT030 BKN070 09/M01 Q1018,RJOH,2019-01-12T05:00:00Z,35.47,133.25,9.0,-1.0,80,10,,6.21,30.059055,,,,,,,,,,,FEW,2500,SCT,3000,BKN,7000,,,VFR,,,,,,,,,,,,METAR,9.0
RJOC 120500Z 05007KT 9999 FEW025 BKN090 BKN120 09/01 Q1018,RJOC,2019-01-12T05:00:00Z,35.42,132.87,9.0,1.0,50,7,,6.21,30.059055,,,,,,,,,,,FEW,2500,BKN,9000,BKN,12000,,,VFR,,,,,,,,,,,,METAR,5.0
RJCB 120500Z 32011KT 290V350 9999 FEW040 M02/M10 Q1016,RJCB,2019-01-12T05:00:00Z,42.72,143.22,-2.0,-10.0,320,11,,6.21,30.0,,,,,,,,,,,FEW,4000,,,,,,,VFR,,,,,,,,,,,,METAR,152.0
RJCM 120500Z 33009KT 2000 R36/P1800N -SHSN FEW004 SCT008 BKN010 M05/M08 Q1019,RJCM,2019-01-12T05:00:00Z,43.88,144.17,-5.0,-8.0,330,9,,1.24,30.088583,,,,,,,,,,-SHSN,FEW,400,SCT,800,BKN,1000,,,IFR,,,,,,,,,,,,METAR,36.0
RJCK 120500Z 35008KT 9999 FEW030 M02/M12 Q1017,RJCK,2019-01-12T05:00:00Z,43.02,144.18,-2.0,-12.0,350,8,,6.21,30.029528,,,,,,,,,,,FEW,3000,,,,,,,VFR,,,,,,,,,,,,METAR,98.0
RJAH 120500Z 10003KT 050V150 9999 FEW025 BKN045 07/M03 Q1017,RJAH,2019-01-12T05:00:00Z,36.17,140.42,7.0,-3.0,100,3,,6.21,30.029528,,,,,,,,,,,FEW,2500,BKN,4500,,,,,VFR,,,,,,,,,,,,METAR,35.0
RJSK 120500Z 30009KT 270V330 9999 FEW030 BKN040 BKN/// 03/M04 Q1019,RJSK,2019-01-12T05:00:00Z,39.62,140.22,3.0,-4.0,300,9,,6.21,30.088583,,,,,,,,,,,FEW,3000,BKN,4000,,,,,VFR,,,,,,,,,,,,METAR,96.0
RJFR 120500Z 16005KT 120V180 9999 FEW015 BKN110 10/05 Q1017,RJFR,2019-01-12T05:00:00Z,33.82,131.03,10.0,5.0,160,5,,6.21,30.029528,,,,,,,,,,,FEW,1500,BKN,11000,,,,,VFR,,,,,,,,,,,,METAR,6.0
RJEC 120500Z 04003KT 010V100 9999 -SHSN FEW015 SCT030 M06/M10 Q1019,RJEC,2019-01-12T05:00:00Z,43.67,142.43,-6.0,-10.0,40,3,,6.21,30.088583,,,,,,,,,,-SHSN,FEW,1500,SCT,3000,,,,,VFR,,,,,,,,,,,,METAR,211.0
RJFM 120500Z 03004KT 360V120 9999 FEW005 SCT010 BKN025 13/11 Q1015,RJFM,2019-01-12T05:00:00Z,31.87,131.43,13.0,11.0,30,4,,6.21,29.970472,,,,,,,,,,,FEW,500,SCT,1000,BKN,2500,,,MVFR,,,,,,,,,,,,METAR,9.0
RJOK 120500Z 36007KT 8000 -SHRA FEW005 SCT020 BKN030 10/06 Q1015,RJOK,2019-01-12T05:00:00Z,33.52,133.67,10.0,6.0,360,7,,4.97,29.970472,,,,,,,,,,-SHRA,FEW,500,SCT,2000,BKN,3000,,,MVFR,,,,,,,,,,,,METAR,10.0
RJSF 120500Z 36015KT 9999 FEW030 BKN130 BKN/// 05/M06 Q1016,RJSF,2019-01-12T05:00:00Z,37.22,140.42,5.0,-6.0,360,15,,6.21,30.0,,,,,,,,,,,FEW,3000,BKN,13000,,,,,VFR,,,,,,,,,,,,METAR,375.0
RJSA 120500Z 28008KT 9999 FEW015 BKN030 00/M05 Q1018,RJSA,2019-01-12T05:00:00Z,40.72,140.68,0.0,-5.0,280,8,,6.21,30.059055,,,,,,,,,,,FEW,1500,BKN,3000,,,,,MVFR,,,,,,,,,,,,METAR,201.0
RJNS 120500Z 21004KT 9999 FEW030 SCT040 BKN100 10/01 Q1014,RJNS,2019-01-12T05:00:00Z,34.8,138.18,10.0,1.0,210,4,,6.21,29.940945,,,,,,,,,,,FEW,3000,SCT,4000,BKN,10000,,,VFR,,,,,,,,,,,,METAR,135.0
DTTZ 120500Z AUTO 23006KT NCD 02/M03 Q1021,DTTZ,2019-01-12T05:00:00Z,33.92,8.08,2.0,-3.0,230,6,,,30.147638,,,TRUE,,,,,,,,CLR,,,,,,,,,,,,,,,,,,,,METAR,93.0
DTTX 120500Z 27008KT 9999 FEW020 05/M01 Q1018,DTTX,2019-01-12T05:00:00Z,34.72,10.67,5.0,-1.0,270,8,,6.21,30.059055,,,,,,,,,,,FEW,2000,,,,,,,VFR,,,,,,,,,,,,METAR,23.0
DTTF 120500Z 10003KT 050V150 1000 NSC 02/M02 Q1022,DTTF,2019-01-12T05:00:00Z,34.42,8.82,2.0,-2.0,100,3,,0.62,30.177166,,,,,,,,,,,CLR,,,,,,,,LIFR,,,,,,,,,,,,METAR,314.0
DTNH 120500Z 28016KT CAVOK 06/01 Q1018,DTNH,2019-01-12T05:00:00Z,36.07,10.43,6.0,1.0,280,16,,6.21,30.059055,,,,,,,,,,,CAVOK,,,,,,,,VFR,,,,,,,,,,,,METAR,2.0
DTKA 120500Z AUTO 22007KT /// 05/03 Q1020,DTKA,2019-01-12T05:00:00Z,36.98,8.88,5.0,3.0,220,7,,,30.11811,,,TRUE,,,,,,,,,,,,,,,,,,,,,,,,,,,,METAR,21.0
UCFL 120500Z VRB01MPS 9999 FEW030 BKN100 M01/M07 Q1022 R07/CLRD95,UCFL,2019-01-12T05:00:00Z,42.58,76.7,-1.0,-7.0,0,2,,6.21,30.177166,,,,,,,,,,,FEW,3000,BKN,10000,,,,,VFR,,,,,,,,,,,,METAR,1648.0
VTSS 120500Z 29002KT 9999 SCT020 SCT028 BKN100 27/24 Q1012 NOSIG,VTSS,2019-01-12T05:00:00Z,6.92,100.38,27.0,24.0,290,2,,6.21,29.88189,,,,,,TRUE,,,,,SCT,2000,SCT,2800,BKN,10000,,,VFR,,,,,,,,,,,,METAR,35.0
VTSP 120500Z 08007KT 340V150 9999 FEW020 31/21 Q1012 NOSIG,VTSP,2019-01-12T05:00:00Z,8.12,98.32,31.0,21.0,80,7,,6.21,29.88189,,,,,,TRUE,,,,,FEW,2000,,,,,,,VFR,,,,,,,,,,,,METAR,10.0
VTSG 120500Z 06007KT 010V180 9999 SCT020 31/22 Q1012 NOSIG,VTSG,2019-01-12T05:00:00Z,8.1,98.98,31.0,22.0,60,7,,6.21,29.88189,,,,,,TRUE,,,,,SCT,2000,,,,,,,VFR,,,,,,,,,,,,METAR,25.0
VTCT 120500Z 07004KT 9999 FEW020 25/20 Q1017 NOSIG,VTCT,2019-01-12T05:00:00Z,19.95,99.88,25.0,20.0,70,4,,6.21,30.029528,,,,,,TRUE,,,,,FEW,2000,,,,,,,VFR,,,,,,,,,,,,METAR,390.0
VTCC 120500Z 24004KT 9999 FEW035 28/19 Q1018 NOSIG,VTCC,2019-01-12T05:00:00Z,18.77,98.97,28.0,19.0,240,4,,6.21,30.059055,,,,,,TRUE,,,,,FEW,3500,,,,,,,VFR,,,,,,,,,,,,METAR,314.0
VTBU 120500Z 10008KT 3000 HZ FEW020 32/21 Q1012 NOSIG,VTBU,2019-01-12T05:00:00Z,12.68,101.0,32.0,21.0,100,8,,1.86,29.88189,,,,,,TRUE,,,,HZ,FEW,2000,,,,,,,IFR,,,,,,,,,,,,METAR,5.0
VTBS 120500Z 09006KT 050V130 8000 FEW030 32/22 Q1012 NOSIG,VTBS,2019-01-12T05:00:00Z,13.68,100.75,32.0,22.0,90,6,,4.97,29.88189,,,,,,TRUE,,,,,FEW,3000,,,,,,,MVFR,,,,,,,,,,,,METAR,2.0
VTBD 120500Z 06007KT 030V100 9999 FEW030 33/22 Q1013 NOSIG,VTBD,2019-01-12T05:00:00Z,13.92,100.6,33.0,22.0,60,7,,6.21,29.911417,,,,,,TRUE,,,,,FEW,3000,,,,,,,VFR,,,,,,,,,,,,METAR,3.0
VVDN 120500Z 13003KT 070V190 9999 SCT013 27/22 Q1017 NOSIG,VVDN,2019-01-12T05:00:00Z,16.02,108.2,27.0,22.0,130,3,,6.21,30.029528,,,,,,TRUE,,,,,SCT,1300,,,,,,,VFR,,,,,,,,,,,,METAR,7.0
VVTS 120500Z VRB03KT 9999 FEW017 BKN050 32/21 Q1011 NOSIG,VVTS,2019-01-12T05:00:00Z,10.82,106.67,32.0,21.0,0,3,,6.21,29.852362,,,,,,TRUE,,,,,FEW,1700,BKN,5000,,,,,VFR,,,,,,,,,,,,METAR,19.0
VVPQ 120500Z 07009KT 050V110 9999 FEW017 30/22 Q1012 NOSIG,VVPQ,2019-01-12T05:00:00Z,10.23,103.97,30.0,22.0,70,9,,6.21,29.88189,,,,,,TRUE,,,,,FEW,1700,,,,,,,VFR,,,,,,,,,,,,METAR,4.0
VVPB 120500Z 35005KT 6000 FEW020 BKN035 26/23 Q1017 NOSIG,VVPB,2019-01-12T05:00:00Z,16.38,107.7,26.0,23.0,350,5,,3.73,30.029528,,,,,,TRUE,,,,,FEW,2000,BKN,3500,,,,,MVFR,,,,,,,,,,,,METAR,17.0
VVNB 120500Z 15006KT 120V190 2400 BR BKN010 22/21 Q1018 NOSIG,VVNB,2019-01-12T05:00:00Z,21.22,105.8,22.0,21.0,150,6,,1.49,30.059055,,,,,,TRUE,,,,BR,BKN,1000,,,,,,,IFR,,,,,,,,,,,,METAR,12.0
VVCT 120500Z 08009KT 9999 SCT013 FEW015TCU BKN040 30/23 Q1012 NOSIG TCU/NE,VVCT,2019-01-12T05:00:00Z,10.08,105.72,30.0,23.0,80,9,,6.21,29.88189,,,,,,TRUE,,,,,SCT,1300,FEW,1500,BKN,4000,,,VFR,,,,,,,,,,,,METAR,3.0
VVCR 120500Z 05012KT 9999 FEW015 30/23 Q1015 NOSIG,VVCR,2019-01-12T05:00:00Z,12.0,109.22,30.0,23.0,50,12,,6.21,29.970472,,,,,,TRUE,,,,,FEW,1500,,,,,,,VFR,,,,,,,,,,,,METAR,12.0
VVCI 120500Z 04003KT 360V130 9999 SCT012 BKN050 22/19 Q1018 NOSIG,VVCI,2019-01-12T05:00:00Z,20.82,106.73,22.0,19.0,40,3,,6.21,30.059055,,,,,,TRUE,,,,,SCT,1200,BKN,5000,,,,,VFR,,,,,,,,,,,,METAR,3.0
TGPY 120500Z 10014KT 9999 SCT018 26/23 Q1014,TGPY,2019-01-12T05:00:00Z,12.0,-61.78,26.0,23.0,100,14,,6.21,29.940945,,,,,,,,,,,SCT,1800,,,,,,,VFR,,,,,,,,,,,,METAR,7.0
VYNT 120500Z 27007KT 6000 SCT020 SCT120 27/19 Q1015,VYNT,2019-01-12T05:00:00Z,19.62,96.2,27.0,19.0,270,7,,3.73,29.970472,,,,,,,,,,,SCT,2000,SCT,12000,,,,,MVFR,,,,,,,,,,,,METAR,610.0
VYYY 120500Z 05004KT 8000 FEW020 SCT280 29/20 Q1014,VYYY,2019-01-12T05:00:00Z,16.9,96.13,29.0,20.0,50,4,,4.97,29.940945,,,,,,,,,,,FEW,2000,SCT,28000,,,,,MVFR,,,,,,,,,,,,METAR,33.0
VLVT 120500Z 18002KT 8000 FEW020 FEW200 30/19 Q1015 NOSIG,VLVT,2019-01-12T05:00:00Z,17.98,102.57,30.0,19.0,180,2,,4.97,29.970472,,,,,,TRUE,,,,,FEW,2000,FEW,20000,,,,,MVFR,,,,,,,,,,,,METAR,171.0
VDSV 120500Z VRB03KT 9999 SCT015 FEW017CB 30/26 Q1012 CB:W/NW,VDSV,2019-01-12T05:00:00Z,10.58,103.63,30.0,26.0,0,3,,6.21,29.88189,,,,,,,,,,,SCT,1500,FEW,1700,,,,,VFR,,,,,,,,,,,,METAR,10.0
VDSR 120500Z 08005KT 350V130 9999 FEW017 32/17 Q1012,VDSR,2019-01-12T05:00:00Z,13.42,103.83,32.0,17.0,80,5,,6.21,29.88189,,,,,,,,,,,FEW,1700,,,,,,,VFR,,,,,,,,,,,,METAR,15.0
VDPP 120500Z 02004KT 360V080 9999 FEW017 SCT040 31/23 Q1011,VDPP,2019-01-12T05:00:00Z,11.55,104.83,31.0,23.0,20,4,,6.21,29.852362,,,,,,,,,,,FEW,1700,SCT,4000,,,,,VFR,,,,,,,,,,,,METAR,10.0
VLSK 120500Z 04004KT 9000 SCT020 30/19 Q1016 NOSIG,VLSK,2019-01-12T05:00:00Z,16.55,104.75,30.0,19.0,40,4,,5.59,30.0,,,,,,TRUE,,,,,SCT,2000,,,,,,,VFR,,,,,,,,,,,,METAR,155.0
VLPS 120500Z 18002KT 9999 FEW050 BKN200 29/19 Q1014 NOSIG,VLPS,2019-01-12T05:00:00Z,15.13,105.78,29.0,19.0,180,2,,6.21,29.940945,,,,,,TRUE,,,,,FEW,5000,BKN,20000,,,,,VFR,,,,,,,,,,,,METAR,107.0
VLLN 120500Z 09002KT 2000 BR SCT020 FEW100 21/18 Q1018 NOSIG,VLLN,2019-01-12T05:00:00Z,20.97,101.4,21.0,18.0,90,2,,1.24,30.059055,,,,,,TRUE,,,,BR,SCT,2000,FEW,10000,,,,,IFR,,,,,,,,,,,,METAR,600.0
VLLB 120500Z 30002KT 6000 OVC007 21/19 Q1016 NOSIG,VLLB,2019-01-12T05:00:00Z,19.9,102.17,21.0,19.0,300,2,,3.73,30.0,,,,,,TRUE,,,,,OVC,700,,,,,,,IFR,,,,,,,,,,,,METAR,291.0
EIME 120500Z 27015KT 9999 FEW012 SCT031 BKN038 08/07 Q1025,EIME,2019-01-12T05:00:00Z,53.3,-6.45,8.0,7.0,270,15,,6.21,30.265747,,,,,,,,,,,FEW,1200,SCT,3100,BKN,3800,,,VFR,,,,,,,,,,,,METAR,93.0
VIDP 120500Z 00000KT 0700 R28/1300 R29/1000 MIFG SCT100 15/11 Q1019 BECMG 0800 MIFG,VIDP,2019-01-12T05:00:00Z,28.57,77.12,15.0,11.0,0,0,,0.43,30.088583,,,,,,,,,,MIFG,SCT,10000,,,,,,,LIFR,,,,,,,,,,,,METAR,233.0
UAKD 120500Z VRB01MPS 9999 BKN100 M20/M22 Q1030 R22/820060 NOSIG RMK QFE738/0985,UAKD,2019-01-12T05:00:00Z,47.7,67.73,-20.0,-22.0,0,2,,6.21,30.413385,,,,,,TRUE,,,,,BKN,10000,,,,,,,VFR,,,,,,,,,,,,METAR,381.0
VABP 120500Z 06006KT 5000 HZ NSC 19/05 Q1019 NOSIG,VABP,2019-01-12T05:00:00Z,23.27,77.33,19.0,5.0,60,6,,3.11,30.088583,,,,,,TRUE,,,,HZ,CLR,,,,,,,,MVFR,,,,,,,,,,,,METAR,523.0
VEJS 120500Z 00000KT 2000 HZ NSC 20/10 Q1019,VEJS,2019-01-12T05:00:00Z,22.82,86.17,20.0,10.0,0,0,,1.24,30.088583,,,,,,,,,,HZ,CLR,,,,,,,,IFR,,,,,,,,,,,,METAR,142.0
DTTN 120500Z 01004KT 330V040 6000 SCT020 SCT030 04/03 Q1022,DTTN,2019-01-12T05:00:00Z,36.47,8.8,4.0,3.0,10,4,,3.73,30.177166,,,,,,,,,,,SCT,2000,SCT,3000,,,,,MVFR,,,,,,,,,,,,METAR,144.0
DTTL 120500Z AUTO 31008KT 200V360 NCD 07/02 Q1016,DTTL,2019-01-12T05:00:00Z,36.85,11.07,7.0,2.0,310,8,,,30.0,,,TRUE,,,,,,,,CLR,,,,,,,,,,,,,,,,,,,,METAR,30.0
DTTK 120500Z 30006KT 9999 BKN023 07/01 Q1019,DTTK,2019-01-12T05:00:00Z,35.67,10.08,7.0,1.0,300,6,,6.21,30.088583,,,,,,,,,,,BKN,2300,,,,,,,MVFR,,,,,,,,,,,,METAR,68.0
DTTD 120500Z AUTO 29004KT NCD 03/01 Q1020,DTTD,2019-01-12T05:00:00Z,32.32,10.4,3.0,1.0,290,4,,,30.11811,,,TRUE,,,,,,,,CLR,,,,,,,,,,,,,,,,,,,,METAR,301.0
DTTB 120500Z 33012KT 8000 SCT016 BKN030 09/01 Q1019,DTTB,2019-01-12T05:00:00Z,37.25,9.8,9.0,1.0,330,12,,4.97,30.088583,,,,,,,,,,,SCT,1600,BKN,3000,,,,,MVFR,,,,,,,,,,,,METAR,3.0
FAVV 120500Z AUTO 29002KT //// // ////// 21/10 Q1015,FAVV,2019-01-12T05:00:00Z,-26.57,27.97,21.0,10.0,290,2,,,29.970472,,,TRUE,,,,,,,,,,,,,,,,,,,,,,,,,,,,METAR,1483.0
FAJB 120500Z AUTO 24002KT //// // ////// 21/13 Q1017,FAJB,2019-01-12T05:00:00Z,-26.15,28.0,21.0,13.0,240,2,,,30.029528,,,TRUE,,,,,,,,,,,,,,,,,,,,,,,,,,,,METAR,1626.0
DAOV 120500Z 28003KT CAVOK M05/M05 Q1028,DAOV,2019-01-12T05:00:00Z,35.2,0.15,-5.0,-5.0,280,3,,6.21,30.35433,,,,,,,,,,,CAVOK,,,,,,,,VFR,,,,,,,,,,,,METAR,514.0
DAOR 120500Z 10003KT CAVOK 02/M03 Q1025,DAOR,2019-01-12T05:00:00Z,31.65,-2.27,2.0,-3.0,100,3,,6.21,30.265747,,,,,,,,,,,CAVOK,,,,,,,,VFR,,,,,,,,,,,,METAR,773.0
DAOL 120500Z 00000KT 9000 NSC M01/M02 Q1028,DAOL,2019-01-12T05:00:00Z,35.53,-0.52,-1.0,-2.0,0,0,,5.59,30.35433,,,,,,,,,,,CLR,,,,,,,,VFR,,,,,,,,,,,,METAR,112.0
DAOF 120500Z 03004KT CAVOK 03/M06 Q1021,DAOF,2019-01-12T05:00:00Z,27.7,-8.17,3.0,-6.0,30,4,,6.21,30.147638,,,,,,,,,,,CAVOK,,,,,,,,VFR,,,,,,,,,,,,METAR,431.0
DAAY 120500Z 00000KT 9999 FEW030 M03/M04 Q1027,DAAY,2019-01-12T05:00:00Z,33.53,-0.25,-3.0,-4.0,0,0,,6.21,30.324802,,,,,,,,,,,FEW,3000,,,,,,,VFR,,,,,,,,,,,,METAR,1149.0
DAAP 120500Z 29004KT CAVOK 04/M01 Q1023,DAAP,2019-01-12T05:00:00Z,26.72,8.62,4.0,-1.0,290,4,,6.21,30.206694,,,,,,,,,,,CAVOK,,,,,,,,VFR,,,,,,,,,,,,METAR,558.0
SLVR 120500Z 19003KT 9999 FEW006 SCT070 BKN200 20/19 Q1014,SLVR,2019-01-12T05:00:00Z,-17.63,-63.12,20.0,19.0,190,3,,6.21,29.940945,,,,,,,,,,,FEW,600,SCT,7000,BKN,20000,,,VFR,,,,,,,,,,,,METAR,373.0
SLLP 120500Z 36004KT 9999 SCT010 BKN070 07/03 Q1036,SLLP,2019-01-12T05:00:00Z,-16.52,-68.17,7.0,3.0,360,4,,6.21,30.590551,,,,,,,,,,,SCT,1000,BKN,7000,,,,,VFR,,,,,,,,,,,,METAR,4014.0
SLCB 120500Z 00000KT 9999 FEW023 SCT200 14/11 Q1023,SLCB,2019-01-12T05:00:00Z,-17.42,-66.18,14.0,11.0,0,0,,6.21,30.206694,,,,,,,,,,,FEW,2300,SCT,20000,,,,,VFR,,,,,,,,,,,,METAR,2548.0
SGES 120500Z 12005KT CAVOK 23/21 Q1014,SGES,2019-01-12T05:00:00Z,-25.45,-54.85,23.0,21.0,120,5,,6.21,29.940945,,,,,,,,,,,CAVOK,,,,,,,,VFR,,,,,,,,,,,,METAR,849.0
SGAS 120500Z 00000KT 9999 VCTS FEW040CB BKN080 23/22 Q1012,SGAS,2019-01-12T05:00:00Z,-25.25,-57.52,23.0,22.0,0,0,,6.21,29.88189,,,,,,,,,,VCTS,FEW,4000,BKN,8000,,,,,VFR,,,,,,,,,,,,METAR,101.0
SYCJ 120500Z 02004KT 9999 FEW016 BKN036 23/22 Q1013 NOSIG,SYCJ,2019-01-12T05:00:00Z,6.5,-58.25,23.0,22.0,20,4,,6.21,29.911417,,,,,,TRUE,,,,,FEW,1600,BKN,3600,,,,,VFR,,,,,,,,,,,,METAR,30.0
PLCH 120500Z 08009KT 9999 -SHRA FEW017TCU SCT019 BKN040 27/25 Q1008,PLCH,2019-01-12T05:00:00Z,1.98,-157.35,27.0,25.0,80,9,,6.21,29.763779,,,,,,,,,,-SHRA,FEW,1700,SCT,1900,BKN,4000,,,VFR,,,,,,,,,,,,METAR,3.0
FMMT 120500Z 02007KT 340V080 9999 FEW017TCU 29/24 Q1013 NOSIG,FMMT,2019-01-12T05:00:00Z,-18.12,49.38,29.0,24.0,20,7,,6.21,29.911417,,,,,,TRUE,,,,,FEW,1700,,,,,,,VFR,,,,,,,,,,,,METAR,6.0
RPVD 120500Z 36006KT 9999 FEW015 BKN080 29/24 Q1010 RMK A2983,RPVD,2019-01-12T05:00:00Z,9.33,123.3,29.0,24.0,360,6,,6.21,29.822834,,,,,,,,,,,FEW,1500,BKN,8000,,,,,VFR,,,,,,,,,,,,METAR,8.0
RPMR 120500Z 04010KT 9999 FEW015 BKN080 30/22 Q1012 NOSIG RMK A2988,RPMR,2019-01-12T05:00:00Z,6.05,125.1,30.0,22.0,40,10,,6.21,29.88189,,,,,,TRUE,,,,,FEW,1500,BKN,8000,,,,,VFR,,,,,,,,,,,,METAR,154.0
RPVP 120500Z 07014KT 9999 FEW019 30/24 Q1012 RMK A2988,RPVP,2019-01-12T05:00:00Z,9.75,118.72,30.0,24.0,70,14,,6.21,29.88189,,,,,,,,,,,FEW,1900,,,,,,,VFR,,,,,,,,,,,,METAR,16.0
RPLC 120500Z 07004KT 9999 FEW020 SCT300 31/19 Q1014 NOSIG RMK A2994,RPLC,2019-01-12T05:00:00Z,15.17,120.58,31.0,19.0,70,4,,6.21,29.940945,,,,,,TRUE,,,,,FEW,2000,SCT,30000,,,,,VFR,,,,,,,,,,,,METAR,196.0
DAUZ 120500Z 27003KT 230V300 8000 NSC 02/M01 Q1021,DAUZ,2019-01-12T05:00:00Z,28.05,9.62,2.0,-1.0,270,3,,4.97,30.147638,,,,,,,,,,,CLR,,,,,,,,MVFR,,,,,,,,,,,,METAR,562.0
DABT 120500Z 27011KT 9999 FEW010 SCT016 BKN020 00/M02 Q1022,DABT,2019-01-12T05:00:00Z,35.75,6.32,0.0,-2.0,270,11,,6.21,30.177166,,,,,,,,,,,FEW,1000,SCT,1600,BKN,2000,,,MVFR,,,,,,,,,,,,METAR,823.0
DAAV 120500Z 36013KT 9999 SCT020 FEW026CB SCT030 09/05 Q1023,DAAV,2019-01-12T05:00:00Z,36.8,5.88,9.0,5.0,360,13,,6.21,30.206694,,,,,,,,,,,SCT,2000,FEW,2600,SCT,3000,,,VFR,,,,,,,,,,,,METAR,11.0
DAAJ 120500Z 35008KT CAVOK 08/M08 Q1018,DAAJ,2019-01-12T05:00:00Z,24.28,9.47,8.0,-8.0,350,8,,6.21,30.059055,,,,,,,,,,,CAVOK,,,,,,,,VFR,,,,,,,,,,,,METAR,968.0
DAAE 120500Z 25011KT 8000 FEW016 SCT020TCU FEW026CB 06/04 Q1025,DAAE,2019-01-12T05:00:00Z,36.72,5.07,6.0,4.0,250,11,,4.97,30.265747,,,,,,,,,,,FEW,1600,SCT,2000,FEW,2600,,,MVFR,,,,,,,,,,,,METAR,2.0
RPMD 120500Z 36006KT 330V030 9999 -SHRA FEW016 SCT090 BKN290 26/24 Q1011 RMK A2985,RPMD,2019-01-12T05:00:00Z,7.12,125.65,26.0,24.0,360,6,,6.21,29.852362,,,,,,,,,,-SHRA,FEW,1600,SCT,9000,BKN,29000,,,VFR,,,,,,,,,,,,METAR,18.0
RPMZ 120500Z 22005KT 160V290 9999 FEW017 BKN090 30/23 Q1010 RMK A2983,RPMZ,2019-01-12T05:00:00Z,6.92,122.07,30.0,23.0,220,5,,6.21,29.822834,,,,,,,,,,,FEW,1700,BKN,9000,,,,,VFR,,,,,,,,,,,,METAR,6.0
RPLI 120500Z 32008KT 290V350 9999 FEW018 BKN290 28/24 Q1013 NOSIG RMK A2991,RPLI,2019-01-12T05:00:00Z,18.17,120.52,28.0,24.0,320,8,,6.21,29.911417,,,,,,TRUE,,,,,FEW,1800,BKN,29000,,,,,VFR,,,,,,,,,,,,METAR,5.0
RPLB 120500Z 06011KT 030V100 9999 FEW020 SCT300 31/20 Q1013 NOSIG RMK A2991,RPLB,2019-01-12T05:00:00Z,14.8,120.27,31.0,20.0,60,11,,6.21,29.911417,,,,,,TRUE,,,,,FEW,2000,SCT,30000,,,,,VFR,,,,,,,,,,,,METAR,17.0
RPVM 120500Z 06008KT 9999 FEW020 SCT100 29/21 Q1012 RMK A2988,RPVM,2019-01-12T05:00:00Z,10.32,123.98,29.0,21.0,60,8,,6.21,29.88189,,,,,,,,,,,FEW,2000,SCT,10000,,,,,VFR,,,,,,,,,,,,METAR,10.0
RPLL 120500Z 10006KT 9999 FEW025 32/21 Q1012 NOSIG RMK A2988,RPLL,2019-01-12T05:00:00Z,14.52,121.0,32.0,21.0,100,6,,6.21,29.88189,,,,,,TRUE,,,,,FEW,2500,,,,,,,VFR,,,,,,,,,,,,METAR,21.0
DAOI 120500Z 00000KT 8000 SCT020 03/02 Q1028,DAOI,2019-01-12T05:00:00Z,36.22,1.32,3.0,2.0,0,0,,4.97,30.35433,,,,,,,,,,,SCT,2000,,,,,,,MVFR,,,,,,,,,,,,METAR,143.0
DAUG 120500Z 33016KT CAVOK 04/M03 Q1025,DAUG,2019-01-12T05:00:00Z,32.37,3.82,4.0,-3.0,330,16,,6.21,30.265747,,,,,,,,,,,CAVOK,,,,,,,,VFR,,,,,,,,,,,,METAR,450.0
DAUB 120500Z 32020KT 9999 SCT033 07/M01 Q1023,DAUB,2019-01-12T05:00:00Z,34.78,5.72,7.0,-1.0,320,20,,6.21,30.206694,,,,,,,,,,,SCT,3300,,,,,,,VFR,,,,,,,,,,,,METAR,87.0
DAUA 120500Z 05006KT CAVOK 03/M06 Q1024,DAUA,2019-01-12T05:00:00Z,27.83,-0.18,3.0,-6.0,50,6,,6.21,30.236221,,,,,,,,,,,CAVOK,,,,,,,,VFR,,,,,,,,,,,,METAR,263.0
DAOB 120500Z 29003KT 9999 SCT026 M06/M07 Q1025,DAOB,2019-01-12T05:00:00Z,35.33,1.47,-6.0,-7.0,290,3,,6.21,30.265747,,,,,,,,,,,SCT,2600,,,,,,,VFR,,,,,,,,,,,,METAR,989.0
DABS 120500Z 29010KT 8000 FEW020 FEW026CB BKN030 01/M01 Q1020,DABS,2019-01-12T05:00:00Z,35.43,8.12,1.0,-1.0,290,10,,4.97,30.11811,,,,,,,,,,,FEW,2000,FEW,2600,BKN,3000,,,MVFR,,,,,,,,,,,,METAR,813.0
DAAS 120500Z 26007KT 3000 BR SCT010 SCT026 M01/M01 Q1022,DAAS,2019-01-12T05:00:00Z,36.18,5.33,-1.0,-1.0,260,7,,1.86,30.177166,,,,,,,,,,BR,SCT,1000,SCT,2600,,,,,IFR,,,,,,,,,,,,METAR,1038.0
DAUH 120500Z 29007KT CAVOK 02/M01 Q1023,DAUH,2019-01-12T05:00:00Z,31.67,6.15,2.0,-1.0,290,7,,6.21,30.206694,,,,,,,,,,,CAVOK,,,,,,,,VFR,,,,,,,,,,,,METAR,142.0
SARE 120500Z 14001KT 9999 SCT025 BKN100 24/22 Q1012,SARE,2019-01-12T05:00:00Z,-27.43,-59.03,24.0,22.0,140,1,,6.21,29.88189,,,,,,,,,,,SCT,2500,BKN,10000,,,,,VFR,,,,,,,,,,,,METAR,52.0
OIIS 120500Z 36002KT CAVOK 02/M06 Q1024,OIIS,2019-01-12T05:00:00Z,35.38,53.67,2.0,-6.0,360,2,,6.21,30.236221,,,,,,,,,,,CAVOK,,,,,,,,VFR,,,,,,,,,,,,METAR,1115.0
OIFK 120500Z 00000KT CAVOK M01/M08 Q1026,OIFK,2019-01-12T05:00:00Z,33.9,51.58,-1.0,-8.0,0,0,,6.21,30.295275,,,,,,,,,,,CAVOK,,,,,,,,VFR,,,,,,,,,,,,METAR,982.0
OIAI 120500Z 13004KT 5000 BR NSC 06/06 Q1019,OIAI,2019-01-12T05:00:00Z,32.0,49.27,6.0,6.0,130,4,,3.11,30.088583,,,,,,,,,,BR,CLR,,,,,,,,MVFR,,,,,,,,,,,,METAR,372.0
YAYT 120500Z 00000KT CAVOK 06/M08 Q1026,YAYT,2019-01-12T05:00:00Z,,,6.0,-8.0,0,0,,6.21,30.295275,,,,,,,,,,,CAVOK,,,,,,,,VFR,,,,,,,,,,,,METAR,
SESG 120500Z 00000KT CAVOK 00/M05 Q1026,SESG,2019-01-12T05:00:00Z,,,0.0,-5.0,0,0,,6.21,30.295275,,,,,,,,,,,CAVOK,,,,,,,,VFR,,,,,,,,,,,,METAR,
OISA 120500Z 00000KT CAVOK M05/M11 Q1023,OISA,2019-01-12T05:00:00Z,31.03,52.78,-5.0,-11.0,0,0,,6.21,30.206694,,,,,,,,,,,CAVOK,,,,,,,,VFR,,,,,,,,,,,,METAR,2004.0
OINK 120500Z 07008KT CAVOK 11/M01 Q1016 A3002,OINK,2019-01-12T05:00:00Z,37.25,55.1,11.0,-1.0,70,8,,6.21,30.0,,,,,,,,,,,CAVOK,,,,,,,,VFR,,,,,,,,,,,,METAR,33.0
OINB 120500Z 00000KT CAVOK 03/00 Q1017,OINB,2019-01-12T05:00:00Z,36.72,52.65,3.0,0.0,0,0,,6.21,30.029528,,,,,,,,,,,CAVOK,,,,,,,,VFR,,,,,,,,,,,,METAR,-15.0
RJNT 120500Z 09003KT 020V140 9999 FEW030 BKN130 BKN/// 07/M01 Q1018,RJNT,2019-01-12T05:00:00Z,36.63,137.17,7.0,-1.0,90,3,,6.21,30.059055,,,,,,,,,,,FEW,3000,BKN,13000,,,,,VFR,,,,,,,,,,,,METAR,27.0
RJFO 120500Z 33006KT 9999 FEW005 SCT015 BKN025 09/08 Q1017,RJFO,2019-01-12T05:00:00Z,33.47,131.72,9.0,8.0,330,6,,6.21,30.029528,,,,,,,,,,,FEW,500,SCT,1500,BKN,2500,,,MVFR,,,,,,,,,,,,METAR,8.0
RJOT 120500Z 05003KT 010V080 4500 -RA BR FEW002 SCT005 BKN010 04/03 Q1018,RJOT,2019-01-12T05:00:00Z,34.22,134.02,4.0,3.0,50,3,,2.8,30.059055,,,,,,,,,,-RA BR,FEW,200,SCT,500,BKN,1000,,,IFR,,,,,,,,,,,,METAR,188.0
RJOB 120500Z VRB02KT 9999 FEW020 SCT025 BKN040 05/M00 Q1017,RJOB,2019-01-12T05:00:00Z,34.75,133.83,5.0,0.0,0,2,,6.21,30.029528,,,,,,,,,,,FEW,2000,SCT,2500,BKN,4000,,,VFR,,,,,,,,,,,,METAR,242.0
RJNK 120500Z 04012KT 9999 FEW050 BKN130 BKN210 08/M01 Q1018,RJNK,2019-01-12T05:00:00Z,36.37,136.42,8.0,-1.0,40,12,,6.21,30.059055,,,,,,,,,,,FEW,5000,BKN,13000,BKN,21000,,,VFR,,,,,,,,,,,,METAR,9.0
RJFU 120500Z 13003KT 9999 FEW025 BKN050 BKN110 12/05 Q1017,RJFU,2019-01-12T05:00:00Z,32.92,129.92,12.0,5.0,130,3,,6.21,30.029528,,,,,,,,,,,FEW,2500,BKN,5000,BKN,11000,,,VFR,,,,,,,,,,,,METAR,5.0
RJSN 120500Z 33003KT 290V020 9999 FEW020 SCT040 BKN/// 07/M03 Q1019,RJSN,2019-01-12T05:00:00Z,37.95,139.12,7.0,-3.0,330,3,,6.21,30.088583,,,,,,,,,,,FEW,2000,SCT,4000,,,,,VFR,,,,,,,,,,,,METAR,4.0
RJFK 120500Z 33011KT 9999 BCFG FEW001 SCT012 BKN020 12/12 Q1015,RJFK,2019-01-12T05:00:00Z,31.8,130.72,12.0,12.0,330,11,,6.21,29.970472,,,,,,,,,,BCFG,FEW,100,SCT,1200,BKN,2000,,,MVFR,,,,,,,,,,,,METAR,275.0
RJOY 120500Z 14003KT 100V200 9999 FEW025 SCT040 BKN050 07/00 Q1018,RJOY,2019-01-12T05:00:00Z,34.6,135.58,7.0,0.0,140,3,,6.21,30.059055,,,,,,,,,,,FEW,2500,SCT,4000,BKN,5000,,,VFR,,,,,,,,,,,,METAR,13.0
RJSC 120500Z 36004KT 9999 FEW050 BKN/// 03/M04 Q1018,RJSC,2019-01-12T05:00:00Z,38.42,140.37,3.0,-4.0,360,4,,6.21,30.059055,,,,,,,,,,,FEW,5000,,,,,,,VFR,,,,,,,,,,,,METAR,108.0
CYWL 120500Z 11015KT 15SM SCT130 OVC170 03/M02 A2991 RMK AC4AC4 SLP159,CYWL,2019-01-12T05:00:00Z,52.18,-122.07,3.0,-2.0,110,15,,15.0,29.911417,1015.9,,,,,,,,,,SCT,13000,OVC,17000,,,,,VFR,,,,,,,,,,,,METAR,940.0
CYQU 120500Z VRB02KT 25SM OVC100 M05/M07 A2977 RMK AC8 SLP131,CYQU,2019-01-12T05:00:00Z,55.18,-118.88,-5.0,-7.0,0,2,,25.0,29.769686,1013.1,,,,,,,,,,OVC,10000,,,,,,,VFR,,,,,,,,,,,,METAR,669.0
CYQH 120500Z 00000KT 10SM -SN BKN007 OVC060 M18/M22 A2966 RMK ST6SC2 SLP112,CYQH,2019-01-12T05:00:00Z,60.12,-128.82,-18.0,-22.0,0,0,,10.0,29.660433,1011.2,,,,,,,,,-SN,BKN,700,OVC,6000,,,,,IFR,,,,,,,,,,,,METAR,690.0
CYLW 120500Z AUTO 31003KT 9SM CLR M02/M02 A3014 RMK SLP228,CYLW,2019-01-12T05:00:00Z,49.95,-119.37,-2.0,-2.0,310,3,,9.0,30.138779,1022.8,,TRUE,,,,,,,,CLR,,,,,,,,VFR,,,,,,,,,,,,METAR,430.0
CYKA 120500Z 09013KT 40SM SCT170 BKN260 03/00 A3009 RMK AC3CI2 SLP205,CYKA,2019-01-12T05:00:00Z,50.7,-120.45,3.0,0.0,90,13,,40.0,30.088583,1020.5,,,,,,,,,,SCT,17000,BKN,26000,,,,,VFR,,,,,,,,,,,,METAR,346.0
CYIN 120500Z AUTO 14015G26KT 9SM OVC160 01/M02 A2991 RMK SLP160,CYIN,2019-01-12T05:00:00Z,51.27,-121.68,1.0,-2.0,140,15,26,9.0,29.911417,1016.0,,TRUE,,,,,,,,OVC,16000,,,,,,,VFR,,,,,,,,,,,,METAR,1128.0
CYCD 120500Z 24003KT 15SM MIFG FEW140 BKN240 04/03 A2995 RMK AC1CI4 LAST STFD OBS/NEXT 121400Z SLP143,CYCD,2019-01-12T05:00:00Z,49.05,-123.87,4.0,3.0,240,3,,15.0,29.949802,1014.3,,,,,,,,,MIFG,FEW,14000,BKN,24000,,,,,VFR,,,,,,,,,,,,METAR,30.0
CBBC 120500Z AUTO 00000KT 9SM -RA OVC050 08/07 A2978 RMK SLP088,CBBC,2019-01-12T05:00:00Z,52.18,-128.15,8.0,7.0,0,0,,9.0,29.778543,1008.8,,TRUE,,,,,,,-RA,OVC,5000,,,,,,,VFR,,,,,,,,,,,,METAR,43.0
CYZU 120500Z 31007KT 15SM BKN240 M11/M13 A2985 RMK CI7 LAST STFD OBS/NEXT 121300Z SLP169,CYZU,2019-01-12T05:00:00Z,54.15,-115.78,-11.0,-13.0,310,7,,15.0,29.84941,1016.9,,,,,,,,,,BKN,24000,,,,,,,VFR,,,,,,,,,,,,METAR,785.0
CYXH 120500Z AUTO 19009KT 9SM CLR 02/M05 A3001 RMK ICG SLP198,CYXH,2019-01-12T05:00:00Z,50.02,-110.72,2.0,-5.0,190,9,,9.0,30.008858,1019.8,,TRUE,,,,,,,,CLR,,,,,,,,VFR,,,,,,,,,,,,METAR,716.0
CYUX 120500Z AUTO 32011KT 9SM CLR M37/M41 A3051 RMK SLP334,CYUX,2019-01-12T05:00:00Z,68.77,-81.25,-37.0,-41.0,320,11,,9.0,30.510826,1033.4,,TRUE,,,,,,,,CLR,,,,,,,,VFR,,,,,,,,,,,,METAR,8.0
CYUB 120500Z 04009KT 6SM -SN OVC073 M27/M30 A2999 RMK AS8 SLP159,CYUB,2019-01-12T05:00:00Z,69.45,-133.02,-27.0,-30.0,40,9,,6.0,29.991142,1015.9,,,,,,,,,-SN,OVC,7300,,,,,,,VFR,,,,,,,,,,,,METAR,5.0
CYTH 120500Z 15003KT 070V180 15SM SCT090 BKN140 BKN210 M20/M23 A3049 RMK AC3AC2CI1 SLP357,CYTH,2019-01-12T05:00:00Z,55.78,-97.87,-20.0,-23.0,150,3,,15.0,30.490158,1035.7,,,,,,,,,,SCT,9000,BKN,14000,BKN,21000,,,VFR,,,,,,,,,,,,METAR,218.0
CYXJ 120500Z 11007KT 15SM FEW240 00/M02 A2972 RMK CI2 SLP105,CYXJ,2019-01-12T05:00:00Z,56.25,-120.73,0.0,-2.0,110,7,,15.0,29.719488,1010.5,,,,,,,,,,FEW,24000,,,,,,,VFR,,,,,,,,,,,,METAR,695.0
CYXT 120500Z 00000KT 4SM -SN BR BKN005 BKN013 OVC031 00/00 A2980 RMK SF5SC2SC1 SLP104,CYXT,2019-01-12T05:00:00Z,54.47,-128.57,0.0,0.0,0,0,,4.0,29.799213,1010.4,,,,,,,,,-SN BR,BKN,500,BKN,1300,OVC,3100,,,IFR,,,,,,,,,,,,METAR,217.0
CYYF 120500Z 32004KT 15SM SCT017 SCT040 BKN130 M01/M01 A3015 RMK SC3SC1AC3 SLP226,CYYF,2019-01-12T05:00:00Z,49.47,-119.58,-1.0,-1.0,320,4,,15.0,30.15059,1022.6,,,,,,,,,,SCT,1700,SCT,4000,BKN,13000,,,VFR,,,,,,,,,,,,METAR,344.0
CYYE 120500Z 00000KT 15SM FEW100 M21/M23 A2970 RMK AC2 SLP103,CYYE,2019-01-12T05:00:00Z,58.82,-122.57,-21.0,-23.0,0,0,,15.0,29.698818,1010.3,,,,,,,,,,FEW,10000,,,,,,,VFR,,,,,,,,,,,,METAR,382.0
CYXY 120500Z VRB04KT 15SM SKC M18/M20 A2953 RMK SLP079,CYXY,2019-01-12T05:00:00Z,60.72,-135.07,-18.0,-20.0,0,4,,15.0,29.530512,1007.9,,,,,,,,,,SKC,,,,,,,,VFR,,,,,,,,,,,,METAR,703.0
CYZY 120500Z AUTO 17004KT 9SM -RA FEW017 OVC034 01/01 A2983 RMK SLP131,CYZY,2019-01-12T05:00:00Z,55.28,-123.12,1.0,1.0,170,4,,9.0,29.828741,1013.1,,TRUE,,,,,,,-RA,FEW,1700,OVC,3400,,,,,VFR,,,,,,,,,,,,METAR,690.0
URML 120500Z 34002MPS 6000 OVC005 02/M00 Q1011 R32/010070 TEMPO 1500 BR BKN004 RMK QBB170 MT OBSC QFE757/1010,URML,2019-01-12T05:00:00Z,42.82,47.65,2.0,0.0,340,4,,3.73,29.852362,,,,,,,,,,,OVC,500,,,,,,,IFR,,,,,,,,,,,,METAR,4.0
VAPR 120500Z 00000KT 6000 NSC 24/17 Q1016,VAPR,2019-01-12T05:00:00Z,21.63,69.67,24.0,17.0,0,0,,3.73,30.0,,,,,,,,,,,CLR,,,,,,,,MVFR,,,,,,,,,,,,METAR,7.0
VOBM 120500Z 14004KT 8000 NSC 27/10 Q1019,VOBM,2019-01-12T05:00:00Z,15.85,74.62,27.0,10.0,140,4,,4.97,30.088583,,,,,,,,,,,CLR,,,,,,,,MVFR,,,,,,,,,,,,METAR,758.0
FTTJ 120500Z 35006KT CAVOK 17/M01 Q1010 NOSIG,FTTJ,2019-01-12T05:00:00Z,12.12,15.02,17.0,-1.0,350,6,,6.21,29.822834,,,,,,TRUE,,,,,CAVOK,,,,,,,,VFR,,,,,,,,,,,,METAR,295.0
HUEN 120500Z 06008KT 9000 FEW019 FEW021CB 21/17 Q1017,HUEN,2019-01-12T05:00:00Z,0.03,32.45,21.0,17.0,60,8,,5.59,30.029528,,,,,,,,,,,FEW,1900,FEW,2100,,,,,VFR,,,,,,,,,,,,METAR,1155.0
HKML 120500Z 0000KT 9999 BKN019 27/24 Q1013,HKML,2019-01-12T05:00:00Z,-3.22,40.1,27.0,24.0,,,,6.21,29.911417,,,,,,,,,,,BKN,1900,,,,,,,MVFR,,,,,,,,,,,,SPECI,23.0
HKEL 120500Z 12006KT 9999 FEW018CB BKN260 12/09 Q1024,HKEL,2019-01-12T05:00:00Z,0.4,35.23,12.0,9.0,120,6,,6.21,30.236221,,,,,,,,,,,FEW,1800,BKN,26000,,,,,VFR,,,,,,,,,,,,METAR,2133.0
HCMM 120500Z 03012KT 9999 SCT020 26/20 Q1012,HCMM,2019-01-12T05:00:00Z,2.02,45.35,26.0,20.0,30,12,,6.21,29.88189,,,,,,,,,,,SCT,2000,,,,,,,VFR,,,,,,,,,,,,METAR,9.0
HCMH 120500Z 03011KT 8000 FEW008 12/12 Q1023,HCMH,2019-01-12T05:00:00Z,9.5,44.07,12.0,12.0,30,11,,4.97,30.206694,,,,,,,,,,,FEW,800,,,,,,,MVFR,,,,,,,,,,,,METAR,1326.0
HCMF 120500Z 03012KT 9999 SCT021 25/20 Q1017,HCMF,2019-01-12T05:00:00Z,11.27,49.17,25.0,20.0,30,12,,6.21,30.029528,,,,,,,,,,,SCT,2100,,,,,,,VFR,,,,,,,,,,,,METAR,2.0
OIMT 120500Z AUTO 07002KT //// // ////// 03/M07 Q1026,OIMT,2019-01-12T05:00:00Z,33.67,56.92,3.0,-7.0,70,2,,,30.295275,,,TRUE,,,,,,,,,,,,,,,,,,,,,,,,,,,,METAR,711.0
YMTG 120500Z AUTO 17016KT 9999 // NCD 23/09 Q1019,YMTG,2019-01-12T05:00:00Z,-37.75,140.78,23.0,9.0,170,16,,6.21,30.088583,,,TRUE,,,,,,,,CLR,,,,,,,,VFR,,,,,,,,,,,,METAR,65.0
DNKN 120500Z VRB02KT CAVOK 15/02 Q1016 NOSIG,DNKN,2019-01-12T05:00:00Z,12.05,8.52,15.0,2.0,0,2,,6.21,30.0,,,,,,TRUE,,,,,CAVOK,,,,,,,,VFR,,,,,,,,,,,,METAR,481.0
UTTT 120500Z 08002KT 7000 OVC009 04/02 Q1031 R26R/290250 NOSIG,UTTT,2019-01-12T05:00:00Z,41.27,69.27,4.0,2.0,80,2,,4.35,30.442913,,,,,,TRUE,,,,,OVC,900,,,,,,,IFR,,,,,,,,,,,,METAR,489.0
UTFF 120500Z 15002KT 3600 BR BKN030CB 03/01 Q1030 R18/19//60,UTFF,2019-01-12T05:00:00Z,40.37,71.77,3.0,1.0,150,2,,2.24,30.413385,,,,,,,,,,BR,BKN,3000,,,,,,,IFR,,,,,,,,,,,,METAR,577.0
UTST 120500Z 11006KT 9000 FEW007 SCT053CB 06/02 Q1031 R88/CLRD70 NOSIG,UTST,2019-01-12T05:00:00Z,37.28,67.32,6.0,2.0,110,6,,5.59,30.442913,,,,,,TRUE,,,,,FEW,700,SCT,5300,,,,,VFR,,,,,,,,,,,,METAR,302.0
UTSS 120500Z 05004KT 030V100 6000 SCT009 02/01 Q1029 R09/70D NOSIG,UTSS,2019-01-12T05:00:00Z,39.7,66.98,2.0,1.0,50,4,,3.73,30.383858,,,,,,TRUE,,,,,SCT,900,,,,,,,MVFR,,,,,,,,,,,,METAR,724.0
UTSK 120500Z VRB02KT 9999 OVC020 04/01 Q1030 R16/CLRD70,UTSK,2019-01-12T05:00:00Z,38.83,65.77,4.0,1.0,0,2,,6.21,30.413385,,,,,,,,,,,OVC,2000,,,,,,,MVFR,,,,,,,,,,,,METAR,1365.0
UTSB 120500Z 09004KT 9999 OVC017 02/00 Q1031 R01/CLRD70 NOSIG,UTSB,2019-01-12T05:00:00Z,39.77,64.48,2.0,0.0,90,4,,6.21,30.442913,,,,,,TRUE,,,,,OVC,1700,,,,,,,MVFR,,,,,,,,,,,,METAR,226.0
UTSA 120500Z 00000KT 7000 OVC017 01/00 Q1030 R25/19//68 NOSIG,UTSA,2019-01-12T05:00:00Z,40.12,65.17,1.0,0.0,0,0,,4.35,30.413385,,,,,,TRUE,,,,,OVC,1700,,,,,,,MVFR,,,,,,,,,,,,METAR,346.0
UTNU 120500Z 13010KT 9999 OVC005 M01/M02 Q1029 R13/CLRD70 NOSIG RMK BASE530,UTNU,2019-01-12T05:00:00Z,41.58,60.63,-1.0,-2.0,130,10,,6.21,30.383858,,,,,,TRUE,,,,,OVC,500,,,,,,,IFR,,,,,,,,,,,,METAR,98.0
UTNN 120500Z 12010KT 4500 -FZDZ BR OVC004 M01/M02 Q1028 R33/190055 TEMPO 0600 FZFG VV002 RMK BASE400,UTNN,2019-01-12T05:00:00Z,42.48,59.63,-1.0,-2.0,120,10,,2.8,30.35433,,,,,,,,,,-FZDZ BR,OVC,400,,,,,,,LIFR,,,,,,,,,,,,METAR,67.0
UTFN 120500Z 12004KT 2300 BR OVC015 02/M01 Q1031 R28/290150 NOSIG,UTFN,2019-01-12T05:00:00Z,40.98,71.57,2.0,-1.0,120,4,,1.43,30.442913,,,,,,TRUE,,,,BR,OVC,1500,,,,,,,IFR,,,,,,,,,,,,METAR,490.0
GMMZ 120500Z VRB02KT CAVOK 02/M13 Q1025 NOSIG,GMMZ,2019-01-12T05:00:00Z,30.92,-6.9,2.0,-13.0,0,2,,6.21,30.265747,,,,,,TRUE,,,,,CAVOK,,,,,,,,VFR,,,,,,,,,,,,METAR,1140.0
FQIN 120500Z 01006KT 9999 SCT020 29/27 Q1007,FQIN,2019-01-12T05:00:00Z,-23.87,35.37,29.0,27.0,10,6,,6.21,29.734253,,,,,,,,,,,SCT,2000,,,,,,,VFR,,,,,,,,,,,,METAR,15.0
FPST 120500Z 26004KT 9999 FEW023CB SCT250 23/22 Q1010 NOSIG,FPST,2019-01-12T05:00:00Z,0.37,6.72,23.0,22.0,260,4,,6.21,29.822834,,,,,,TRUE,,,,,FEW,2300,SCT,25000,,,,,VFR,,,,,,,,,,,,METAR,13.0
FGBT 120500Z 00000KT 9999 SCT010 25/25 Q1010,FGBT,2019-01-12T05:00:00Z,1.88,9.8,25.0,25.0,0,0,,6.21,29.822834,,,,,,,,,,,SCT,1000,,,,,,,VFR,,,,,,,,,,,,METAR,8.0
FGSL 120500Z 24003KT 9999 FEW010 23/21 Q1010 NOSIG,FGSL,2019-01-12T05:00:00Z,3.75,8.72,23.0,21.0,240,3,,6.21,29.822834,,,,,,TRUE,,,,,FEW,1000,,,,,,,VFR,,,,,,,,,,,,METAR,56.0
FOON 120500Z VRB03KT 8000 SCT010 FEW020CB 23/23 Q1012,FOON,2019-01-12T05:00:00Z,-1.63,13.42,23.0,23.0,0,3,,4.97,29.88189,,,,,,,,,,,SCT,1000,FEW,2000,,,,,MVFR,,,,,,,,,,,,METAR,441.0
FOOG 120500Z 14001KT 8000 SCT008 26/25 Q1009,FOOG,2019-01-12T05:00:00Z,-0.7,8.75,26.0,25.0,140,1,,4.97,29.793306,,,,,,,,,,,SCT,800,,,,,,,MVFR,,,,,,,,,,,,METAR,4.0
FEFF 120500Z 00000KT 6000 NSC 19/17 Q1010 BECMG 4000 BR,FEFF,2019-01-12T05:00:00Z,4.4,18.52,19.0,17.0,0,0,,3.73,29.822834,,,,,,,,,,,CLR,,,,,,,,MVFR,,,,,,,,,,,,METAR,366.0
FKKN 120500Z 00000KT NSC 11/06 Q1015,FKKN,2019-01-12T05:00:00Z,7.33,13.57,11.0,6.0,0,0,,,29.970472,,,,,,,,,,,CLR,,,,,,,,,,,,,,,,,,,,METAR,1104.0
FKYS 120500Z /////KT 4000 BR BKN006 20/20 Q1015 TEMPO 2000 BR,FKYS,2019-01-12T05:00:00Z,3.82,11.52,20.0,20.0,,,,2.49,29.970472,,,,,,,,,,BR,BKN,600,,,,,,,IFR,,,,,,,,,,,,METAR,760.0
FKKD 120500Z VRB01KT 3500 BR SCT013 FEW016CB 25/25 Q1009 BECMG 2000 BR,FKKD,2019-01-12T05:00:00Z,4.0,9.72,25.0,25.0,0,1,,2.17,29.793306,,,,,,,,,,BR,SCT,1300,FEW,1600,,,,,IFR,,,,,,,,,,,,METAR,9.0
FCPP 120500Z 00000KT 8000 FEW008 SCT023 FEW030CB 23/23 Q1010 RETS NOSIG,FCPP,2019-01-12T05:00:00Z,-4.82,11.9,23.0,23.0,0,0,,4.97,29.822834,,,,,,TRUE,,,,,FEW,800,SCT,2300,FEW,3000,,,MVFR,,,,,,,,,,,,METAR,17.0
FCBB 120500Z VRB03KT 9999 -RA FEW013 BKN022 23/22 Q1013 NOSIG,FCBB,2019-01-12T05:00:00Z,-4.25,15.25,23.0,22.0,0,3,,6.21,29.911417,,,,,,TRUE,,,,-RA,FEW,1300,BKN,2200,,,,,MVFR,,,,,,,,,,,,METAR,316.0
YSSY 120500Z 06014KT CAVOK 31/20 Q1013 NOSIG,YSSY,2019-01-12T05:00:00Z,-33.95,151.17,31.0,20.0,60,14,,6.21,29.911417,,,,,,TRUE,,,,,CAVOK,,,,,,,,VFR,,,,,,,,,,,,METAR,3.0
YPPH 120500Z 22013KT CAVOK 33/09 Q1011 NOSIG,YPPH,2019-01-12T05:00:00Z,-31.93,115.98,33.0,9.0,220,13,,6.21,29.852362,,,,,,TRUE,,,,,CAVOK,,,,,,,,VFR,,,,,,,,,,,,METAR,13.0
YPDN 120500Z 29016KT 9999 FEW030 34/25 Q1006 APPROX 22.5NM TO E NOSIG,YPDN,2019-01-12T05:00:00Z,-12.42,130.9,34.0,25.0,290,16,,6.21,29.704725,,,,,,TRUE,,,,,FEW,3000,,,,,,,VFR,,,,,,,,,,,,SPECI,30.0
YPAD 120500Z 16018KT CAVOK 29/05 Q1016 NOSIG,YPAD,2019-01-12T05:00:00Z,-34.95,138.52,29.0,5.0,160,18,,6.21,30.0,,,,,,TRUE,,,,,CAVOK,,,,,,,,VFR,,,,,,,,,,,,METAR,4.0
RJAW 120500Z 25004KT 9999 SCT030 23/17 Q1014 RMK 3CU030 A2997,RJAW,2019-01-12T05:00:00Z,24.77,141.32,23.0,17.0,250,4,,6.21,29.940945,,,,,,,,,,,SCT,3000,,,,,,,VFR,,,,,,,,,,,,METAR,116.0
AYMH 120500Z 00000KT 9999 -SH BKN030 NA Q1015 RMK:-SH IN AREA/TEMP/DP NA,AYMH,2019-01-12T05:00:00Z,-5.83,144.3,,,0,0,,6.21,29.970472,,,,,,,,,,-SH,BKN,3000,,,,,,,MVFR,,,,,,,,,,,,METAR,1642.0
AYNZ 120500Z 10005KT 9999 SCT035 33/23 Q1003 RMK:BUILD UPS IN THE AREA,AYNZ,2019-01-12T05:00:00Z,-6.57,146.72,33.0,23.0,100,5,,6.21,29.616142,,,,,,,,,,,SCT,3500,,,,,,,VFR,,,,,,,,,,,,METAR,70.0
YSNW 120500Z AUTO 11012KT 9999 // NCD 30/20 Q////,YSNW,2019-01-12T05:00:00Z,-34.95,150.52,30.0,20.0,110,12,,6.21,,,,TRUE,,,,,,,,CLR,,,,,,,,VFR,,,,,,,,,,,,METAR,110.0
YLHI 120500Z AUTO 07011KT 9999 // SCT025 26/19 Q1018,YLHI,2019-01-12T05:00:00Z,-31.53,159.07,26.0,19.0,70,11,,6.21,30.059055,,,TRUE,,,,,,,,SCT,2500,,,,,,,VFR,,,,,,,,,,,,METAR,2.0
YCFS 120500Z AUTO 04017KT 9999 // NCD 27/20 Q1016 RF00.0/000.0,YCFS,2019-01-12T05:00:00Z,-30.32,153.12,27.0,20.0,40,17,,6.21,30.0,,,TRUE,,,,,,,,CLR,,,,,,,,VFR,,,,,,,,,,,,METAR,5.0
YPCC 120500Z AUTO 13012KT 9999 // SCT025 SCT029 BKN036 30/22 Q1012,YPCC,2019-01-12T05:00:00Z,-12.17,96.82,30.0,22.0,130,12,,6.21,29.88189,,,TRUE,,,,,,,,SCT,2500,SCT,2900,BKN,3600,,,VFR,,,,,,,,,,,,METAR,3.0
YPTN 120500Z AUTO 31007KT 270V330 9999 // NCD 36/24 Q1004,YPTN,2019-01-12T05:00:00Z,-14.52,132.38,36.0,24.0,310,7,,6.21,29.64567,,,TRUE,,,,,,,,CLR,,,,,,,,VFR,,,,,,,,,,,,METAR,109.0
YPLM 120500Z AUTO 20014KT 9999 // NCD 38/14 Q1008 RF00.0/000.0,YPLM,2019-01-12T05:00:00Z,-22.22,114.07,38.0,14.0,200,14,,6.21,29.763779,,,TRUE,,,,,,,,CLR,,,,,,,,VFR,,,,,,,,,,,,METAR,6.0
FYWW 120500Z AUTO 11004KT //// // ////// 14/M01 Q1019,FYWW,2019-01-12T05:00:00Z,-22.57,17.1,14.0,-1.0,110,4,,,30.088583,,,TRUE,,,,,,,,,,,,,,,,,,,,,,,,,,,,METAR,1725.0
FYWH 120500Z 00000KT CAVOK 10/M01 Q1020 NOSIG,FYWH,2019-01-12T05:00:00Z,-22.47,17.47,10.0,-1.0,0,0,,6.21,30.11811,,,,,,TRUE,,,,,CAVOK,,,,,,,,VFR,,,,,,,,,,,,METAR,1700.0
FYWB 120500Z AUTO 11002KT //// // ////// 16/14 Q1014,FYWB,2019-01-12T05:00:00Z,-22.98,14.65,16.0,14.0,110,2,,,29.940945,,,TRUE,,,,,,,,,,,,,,,,,,,,,,,,,,,,METAR,46.0
FYRN 120500Z 00000KT CAVOK 21/13 Q1014,FYRN,2019-01-12T05:00:00Z,-20.02,13.85,21.0,13.0,0,0,,6.21,29.940945,,,,,,,,,,,CAVOK,,,,,,,,VFR,,,,,,,,,,,,METAR,756.0
FYOW 120500Z AUTO 20003KT //// // ////// 17/M00 Q1015,FYOW,2019-01-12T05:00:00Z,-20.43,16.67,17.0,0.0,200,3,,,29.970472,,,TRUE,,,,,,,,,,,,,,,,,,,,,,,,,,,,METAR,1481.0
FYOO 120500Z AUTO 22004KT //// // ////// 18/05 Q1014,FYOO,2019-01-12T05:00:00Z,-19.15,15.92,18.0,5.0,220,4,,,29.940945,,,TRUE,,,,,,,,,,,,,,,,,,,,,,,,,,,,METAR,1192.0
FYOA 120500Z 23005KT CAVOK 22/05 Q1013,FYOA,2019-01-12T05:00:00Z,-17.88,15.97,22.0,5.0,230,5,,6.21,29.911417,,,,,,,,,,,CAVOK,,,,,,,,VFR,,,,,,,,,,,,METAR,1095.0
FYKT 120500Z AUTO 22003KT //// // ////// 17/M01 Q1015,FYKT,2019-01-12T05:00:00Z,-26.52,18.12,17.0,-1.0,220,3,,,29.970472,,,TRUE,,,,,,,,,,,,,,,,,,,,,,,,,,,,METAR,1061.0
FYGB 120500Z AUTO 22001KT //// // ////// 18/04 Q1020,FYGB,2019-01-12T05:00:00Z,-22.5,18.97,18.0,4.0,220,1,,,30.11811,,,TRUE,,,,,,,,,,,,,,,,,,,,,,,,,,,,METAR,1442.0
YPKU 120500Z AUTO 05005KT 010V090 9999 // NCD 39/24 Q1004,YPKU,2019-01-12T05:00:00Z,-15.77,128.68,39.0,24.0,50,5,,6.21,29.64567,,,TRUE,,,,,,,,CLR,,,,,,,,VFR,,,,,,,,,,,,SPECI,45.0
YGLA 120500Z AUTO 10015KT 9999 // NCD 30/17 Q1013,YGLA,2019-01-12T05:00:00Z,-23.87,151.22,30.0,17.0,100,15,,6.21,29.911417,,,TRUE,,,,,,,,CLR,,,,,,,,VFR,,,,,,,,,,,,METAR,52.0
YGEL 120500Z AUTO 20017KT 9999 // NCD 27/19 Q1011,YGEL,2019-01-12T05:00:00Z,-28.8,114.7,27.0,19.0,200,17,,6.21,29.852362,,,TRUE,,,,,,,,CLR,,,,,,,,VFR,,,,,,,,,,,,METAR,37.0
YHID 120500Z AUTO 07011KT 9999 // SCT020 31/25 Q1007,YHID,2019-01-12T05:00:00Z,-10.58,142.3,31.0,25.0,70,11,,6.21,29.734253,,,TRUE,,,,,,,,SCT,2000,,,,,,,VFR,,,,,,,,,,,,METAR,13.0
YPJT 120500Z AUTO 24015KT 9999 // NCD 30/14 Q1012 RF00.0/000.0,YPJT,2019-01-12T05:00:00Z,-32.1,115.88,30.0,14.0,240,15,,6.21,29.88189,,,TRUE,,,,,,,,CLR,,,,,,,,VFR,,,,,,,,,,,,METAR,30.0
AYPY 120500Z 14015KT 9999 FEW030 SCT070 32/25 1006 RMKS: BUPS NW TO E,AYPY,2019-01-12T05:00:00Z,-9.42,147.22,32.0,25.0,140,15,,6.21,,,,,,,,,,,,FEW,3000,SCT,7000,,,,,VFR,,,,,,,,,,,,METAR,47.0
YPWR 120500Z AUTO 20015KT 9999 // NCD 39/02 Q1013,YPWR,2019-01-12T05:00:00Z,-31.12,136.82,39.0,2.0,200,15,,6.21,29.911417,,,TRUE,,,,,,,,CLR,,,,,,,,VFR,,,,,,,,,,,,METAR,167.0
DFFD 120500Z 02005KT CAVOK 21/M03 Q1012 NOSIG,DFFD,2019-01-12T05:00:00Z,12.33,-1.52,21.0,-3.0,20,5,,6.21,29.88189,,,,,,TRUE,,,,,CAVOK,,,,,,,,VFR,,,,,,,,,,,,METAR,306.0
DFOO 120500Z 02006KT CAVOK 23/02 Q1013,DFOO,2019-01-12T05:00:00Z,11.17,-4.32,23.0,2.0,20,6,,6.21,29.911417,,,,,,,,,,,CAVOK,,,,,,,,VFR,,,,,,,,,,,,METAR,460.0
FTTA 120500Z 00000KT CAVOK 19/10 Q1011,FTTA,2019-01-12T05:00:00Z,9.15,18.37,19.0,10.0,0,0,,6.21,29.852362,,,,,,,,,,,CAVOK,,,,,,,,VFR,,,,,,,,,,,,METAR,365.0
DBBB 120500Z VRB02KT 3500 BR SCT010 26/25 Q1009 TEMPO 2000 BR,DBBB,2019-01-12T05:00:00Z,6.33,2.37,26.0,25.0,0,2,,2.17,29.793306,,,,,,,,,,BR,SCT,1000,,,,,,,IFR,,,,,,,,,,,,METAR,9.0
DXXX 120500Z 29003KT 9999 FEW012 27/26 Q1010 NOSIG,DXXX,2019-01-12T05:00:00Z,6.17,1.25,27.0,26.0,290,3,,6.21,29.822834,,,,,,TRUE,,,,,FEW,1200,,,,,,,VFR,,,,,,,,,,,,METAR,25.0
WMKD 120500Z 34006KT 280V070 9999 FEW017CB SCT018 BKN280 30/25 Q1011 NOSIG,WMKD,2019-01-12T05:00:00Z,3.77,103.22,30.0,25.0,340,6,,6.21,29.852362,,,,,,TRUE,,,,,FEW,1700,SCT,1800,BKN,28000,,,VFR,,,,,,,,,,,,METAR,16.0
DGAA 120500Z 28006KT 8000 NSC 26/25 Q1010 NOSIG,DGAA,2019-01-12T05:00:00Z,5.58,-0.17,26.0,25.0,280,6,,4.97,29.822834,,,,,,TRUE,,,,,CLR,,,,,,,,MVFR,,,,,,,,,,,,METAR,69.0
DRZA 120500Z 00000KT CAVOK 16/M01 Q1015,DRZA,2019-01-12T05:00:00Z,16.97,8.0,16.0,-1.0,0,0,,6.21,29.970472,,,,,,,,,,,CAVOK,,,,,,,,VFR,,,,,,,,,,,,METAR,502.0
DRRN 120500Z AUTO 35004KT 19/M04 Q1012,DRRN,2019-01-12T05:00:00Z,13.47,2.17,19.0,-4.0,350,4,,,29.88189,,,TRUE,,,,,,,,,,,,,,,,,,,,,,,,,,,,METAR,227.0
DNMM 120500Z VRB02KT 4000 HZ FEW010 26/25 Q1011 NOSIG,DNMM,2019-01-12T05:00:00Z,6.57,3.32,26.0,25.0,0,2,,2.49,29.852362,,,,,,TRUE,,,,HZ,FEW,1000,,,,,,,IFR,,,,,,,,,,,,METAR,38.0
RJSM 120500Z 28010KT 9999 FEW030 BKN040 02/M06 Q1018,RJSM,2019-01-12T05:00:00Z,40.7,141.37,2.0,-6.0,280,10,,6.21,30.059055,,,,,,,,,,,FEW,3000,BKN,4000,,,,,VFR,,,,,,,,,,,,METAR,36.0
GQPP 120500Z 06008KT 8000 NSC 13/05 Q1015 NOSIG,GQPP,2019-01-12T05:00:00Z,20.92,-17.02,13.0,5.0,60,8,,4.97,29.970472,,,,,,TRUE,,,,,CLR,,,,,,,,MVFR,,,,,,,,,,,,METAR,3.0
VEBN 120500Z 36003KT 1200 BR NSC 16/12 Q1019 BECMG 1500 HZ,VEBN,2019-01-12T05:00:00Z,25.45,82.85,16.0,12.0,360,3,,0.75,30.088583,,,,,,,,,,BR,CLR,,,,,,,,LIFR,,,,,,,,,,,,METAR,83.0
RJSR 120500Z 28005KT 9999 FEW030 BKN040 02/M05 Q1019,RJSR,2019-01-12T05:00:00Z,40.18,140.37,2.0,-5.0,280,5,,6.21,30.088583,,,,,,,,,,,FEW,3000,BKN,4000,,,,,VFR,,,,,,,,,,,,METAR,87.0
ULAA 120500Z 18006MPS 140V210 3500 -SHSN OVC007CB M06/M06 Q0975 R08/590530 TEMPO 1000 SHSN RMK QFE730/0974,ULAA,2019-01-12T05:00:00Z,64.6,40.72,-6.0,-6.0,180,12,,2.17,28.78937,,,,,,,,,,-SHSN,OVC,700,,,,,,,IFR,,,,,,,,,,,,METAR,19.0
WBGS 120500Z VRB01KT 9999 SCT017 SCT150 BKN300 32/25 Q1010,WBGS,2019-01-12T05:00:00Z,2.27,111.98,32.0,25.0,0,1,,6.21,29.822834,,,,,,,,,,,SCT,1700,SCT,15000,BKN,30000,,,VFR,,,,,,,,,,,,METAR,8.0
WMKP 120500Z 12007KT 070V190 9000 FEW020 BKN140 BKN270 31/23 Q1011 NOSIG,WMKP,2019-01-12T05:00:00Z,5.28,100.27,31.0,23.0,120,7,,5.59,29.852362,,,,,,TRUE,,,,,FEW,2000,BKN,14000,BKN,27000,,,VFR,,,,,,,,,,,,METAR,4.0
WBKK 120500Z 32006KT 280V010 9999 FEW014 FEW016CB BKN280 32/26 Q1009 NOSIG,WBKK,2019-01-12T05:00:00Z,5.92,116.03,32.0,26.0,320,6,,6.21,29.793306,,,,,,TRUE,,,,,FEW,1400,FEW,1600,BKN,28000,,,VFR,,,,,,,,,,,,METAR,3.0
GGOV 120500Z VRB01KT CAVOK 21/M02 Q1010 NOSIG,GGOV,2019-01-12T05:00:00Z,11.87,-15.65,21.0,-2.0,0,1,,6.21,29.822834,,,,,,TRUE,,,,,CAVOK,,,,,,,,VFR,,,,,,,,,,,,METAR,36.0
SAOC 120500Z 36014KT CAVOK 17/16 Q1015,SAOC,2019-01-12T05:00:00Z,-33.12,-64.27,17.0,16.0,360,14,,6.21,29.970472,,,,,,,,,,,CAVOK,,,,,,,,VFR,,,,,,,,,,,,METAR,421.0
OEKJ 120500Z 29004KT CAVOK 11/M04 Q1026,OEKJ,2019-01-12T05:00:00Z,24.07,47.58,11.0,-4.0,290,4,,6.21,30.295275,,,,,,,,,,,CAVOK,,,,,,,,VFR,,,,,,,,,,,,METAR,503.0
OEJB 120500Z AUTO 28010KT CAVOK 10/M01 Q1023 NOSIG,OEJB,2019-01-12T05:00:00Z,27.05,49.38,10.0,-1.0,280,10,,6.21,30.206694,,,TRUE,,,TRUE,,,,,CAVOK,,,,,,,,VFR,,,,,,,,,,,,METAR,8.0
OEHL 120500Z 21006KT CAVOK 11/01 Q1020 NOSIG,OEHL,2019-01-12T05:00:00Z,27.42,41.67,11.0,1.0,210,6,,6.21,30.11811,,,,,,TRUE,,,,,CAVOK,,,,,,,,VFR,,,,,,,,,,,,METAR,1013.0
OEGT 120500Z 10004KT 9999 SCT040 SCT100 00/M02 Q1016 NOSIG,OEGT,2019-01-12T05:00:00Z,31.42,37.27,0.0,-2.0,100,4,,6.21,30.0,,,,,,TRUE,,,,,SCT,4000,SCT,10000,,,,,VFR,,,,,,,,,,,,METAR,499.0
OEGS 120500Z 08004KT CAVOK 09/04 Q1021,OEGS,2019-01-12T05:00:00Z,26.3,43.77,9.0,4.0,80,4,,6.21,30.147638,,,,,,,,,,,CAVOK,,,,,,,,VFR,,,,,,,,,,,,METAR,650.0
OEGN 120500Z 10008KT 9999 FEW030 25/21 Q1016 NOSIG,OEGN,2019-01-12T05:00:00Z,16.88,42.57,25.0,21.0,100,8,,6.21,30.0,,,,,,TRUE,,,,,FEW,3000,,,,,,,VFR,,,,,,,,,,,,METAR,3.0
OEDR 120500Z 32013KT CAVOK 12/00 Q1020 NOSIG,OEDR,2019-01-12T05:00:00Z,26.27,50.17,12.0,0.0,320,13,,6.21,30.11811,,,,,,TRUE,,,,,CAVOK,,,,,,,,VFR,,,,,,,,,,,,METAR,17.0
OEDM 120500Z 12012KT CAVOK 12/M01 Q1021,OEDM,2019-01-12T05:00:00Z,24.45,44.12,12.0,-1.0,120,12,,6.21,30.147638,,,,,,,,,,,CAVOK,,,,,,,,VFR,,,,,,,,,,,,METAR,922.0
OEBH 120500Z 20002KT 7000 SKC 11/06 Q1021 NOSIG,OEBH,2019-01-12T05:00:00Z,19.97,42.62,11.0,6.0,200,2,,4.35,30.147638,,,,,,TRUE,,,,,SKC,,,,,,,,MVFR,,,,,,,,,,,,METAR,1157.0
OEBA 120500Z 14003KT CAVOK 16/11 Q1022 NOSIG,OEBA,2019-01-12T05:00:00Z,20.3,41.62,16.0,11.0,140,3,,6.21,30.177166,,,,,,TRUE,,,,,CAVOK,,,,,,,,VFR,,,,,,,,,,,,METAR,1656.0
OEAR 120500Z 00000KT CAVOK 20/17 Q1015,OEAR,2019-01-12T05:00:00Z,,,20.0,17.0,0,0,,6.21,29.970472,,,,,,,,,,,CAVOK,,,,,,,,VFR,,,,,,,,,,,,METAR,
OEAO 120500Z 00000KT 9999 FEW045 BKN100 14/M01 Q1017,OEAO,2019-01-12T05:00:00Z,26.48,38.12,14.0,-1.0,0,0,,6.21,30.029528,,,,,,,,,,,FEW,4500,BKN,10000,,,,,VFR,,,,,,,,,,,,METAR,624.0
OEAH 120500Z 32012KT CAVOK 11/M05 Q1022 NOSIG,OEAH,2019-01-12T05:00:00Z,25.27,49.47,11.0,-5.0,320,12,,6.21,30.177166,,,,,,TRUE,,,,,CAVOK,,,,,,,,VFR,,,,,,,,,,,,METAR,172.0
OEAB 120500Z 18007KT CAVOK 14/11 Q1027 NOSIG,OEAB,2019-01-12T05:00:00Z,18.22,42.63,14.0,11.0,180,7,,6.21,30.324802,,,,,,TRUE,,,,,CAVOK,,,,,,,,VFR,,,,,,,,,,,,METAR,2084.0
VOHS 120500Z 14005KT 4000 BR NSC 25/18 Q1019 BECMG 5000 HZ,VOHS,2019-01-12T05:00:00Z,17.23,78.43,25.0,18.0,140,5,,2.49,30.088583,,,,,,,,,,BR,CLR,,,,,,,,IFR,,,,,,,,,,,,METAR,1.0
FVRG 120500Z 02004KT 350V050 9999 BKN008 BKN080 20/18 Q1019 NOSIG,FVRG,2019-01-12T05:00:00Z,-17.93,31.1,20.0,18.0,20,4,,6.21,30.088583,,,,,,TRUE,,,,,BKN,800,BKN,8000,,,,,IFR,,,,,,,,,,,,METAR,1490.0
FVJN 120500Z 36006KT CAVOK 22/19 Q1016 NOSIG,FVJN,2019-01-12T05:00:00Z,-20.02,28.63,22.0,19.0,360,6,,6.21,30.0,,,,,,TRUE,,,,,CAVOK,,,,,,,,VFR,,,,,,,,,,,,METAR,1331.0
WADD 120500Z 26008KT 9999 FEW017CB SCT017 31/26 Q1009 NOSIG,WADD,2019-01-12T05:00:00Z,-8.73,115.17,31.0,26.0,260,8,,6.21,29.793306,,,,,,TRUE,,,,,FEW,1700,SCT,1700,,,,,VFR,,,,,,,,,,,,METAR,216.0
WARR 120500Z 09009KT 9999 SCT020 32/26 Q1008 NOSIG,WARR,2019-01-12T05:00:00Z,-7.37,112.78,32.0,26.0,90,9,,6.21,29.763779,,,,,,TRUE,,,,,SCT,2000,,,,,,,VFR,,,,,,,,,,,,METAR,2.0
WAAA 120500Z 30010KT 9999 FEW019 32/24 Q1009 NOSIG,WAAA,2019-01-12T05:00:00Z,-5.07,119.53,32.0,24.0,300,10,,6.21,29.793306,,,,,,TRUE,,,,,FEW,1900,,,,,,,VFR,,,,,,,,,,,,METAR,14.0
TTCP 120500Z 08003KT 9999 FEW016 25/21 Q1014 NOSIG,TTCP,2019-01-12T05:00:00Z,11.15,-60.85,25.0,21.0,80,3,,6.21,29.940945,,,,,,TRUE,,,,,FEW,1600,,,,,,,VFR,,,,,,,,,,,,METAR,8.0
TTPP 120500Z 00000KT 9999 FEW018 24/22 Q1014 NOSIG,TTPP,2019-01-12T05:00:00Z,10.58,-61.35,24.0,22.0,0,0,,6.21,29.940945,,,,,,TRUE,,,,,FEW,1800,,,,,,,VFR,,,,,,,,,,,,METAR,15.0
CYWH 120500Z 01005KT 340V050 15SM BKN240 10/05 A2992 RMK CI6 LAST STFD OBS/NEXT 121400 UTC SLP135,CYWH,2019-01-12T05:00:00Z,48.42,-123.38,10.0,5.0,10,5,,15.0,29.920275,1013.5,,,,,,,,,,BKN,24000,,,,,,,VFR,,,,,,,,,,,,METAR,10.0
CZVL 120500Z AUTO 15003KT 9SM SCT210 BKN230 BKN250 M10/M11 A2987 RMK SLP164,CZVL,2019-01-12T05:00:00Z,53.67,-113.85,-10.0,-11.0,150,3,,9.0,29.870079,1016.4,,TRUE,,,,,,,,SCT,21000,BKN,23000,BKN,25000,,,VFR,,,,,,,,,,,,METAR,686.0
CYZH 120500Z AUTO 10009KT 9SM CLR M11/M13 A2986 RMK SLP162,CYZH,2019-01-12T05:00:00Z,55.28,-114.77,-11.0,-13.0,100,9,,9.0,29.861221,1016.2,,TRUE,,,,,,,,CLR,,,,,,,,VFR,,,,,,,,,,,,METAR,581.0
CYYN 120500Z AUTO 19013G21KT 9SM CLR M08/M11 A3008 RMK SLP243,CYYN,2019-01-12T05:00:00Z,50.27,-107.67,-8.0,-11.0,190,13,21,9.0,30.079725,1024.3,,TRUE,,,,,,,,CLR,,,,,,,,VFR,,,,,,,,,,,,METAR,818.0
CYYL 120500Z AUTO 18008KT 9SM -SN OVC009 M17/M19 A3027 RMK SLP297,CYYL,2019-01-12T05:00:00Z,56.87,-101.07,-17.0,-19.0,180,8,,9.0,30.268702,1029.7,,TRUE,,,,,,,-SN,OVC,900,,,,,,,IFR,,,,,,,,,,,,METAR,357.0
CYVC 120500Z 15009KT 15SM FEW012 M17/M20 A3022 RMK SC2 SLP274,CYVC,2019-01-12T05:00:00Z,55.15,-105.27,-17.0,-20.0,150,9,,15.0,30.221457,1027.4,,,,,,,,,,FEW,1200,,,,,,,VFR,,,,,,,,,,,,METAR,379.0
CYQR 120500Z 15012KT 12SM -SN OVC012 M13/M15 A3030 RMK SC8 SLP312,CYQR,2019-01-12T05:00:00Z,50.43,-104.67,-13.0,-15.0,150,12,,12.0,30.301182,1031.2,,,,,,,,,-SN,OVC,1200,,,,,,,MVFR,,,,,,,,,,,,METAR,577.0
CYQL 120500Z 23009KT 25SM FEW140 BKN230 03/M07 A3000 RMK AC2CI5 LAST STFD OBS/NXT 121300Z SLP190,CYQL,2019-01-12T05:00:00Z,49.63,-112.8,3.0,-7.0,230,9,,25.0,30.0,1019.0,,,,,,,,,,FEW,14000,BKN,23000,,,,,VFR,,,,,,,,,,,,METAR,929.0
CYQF 120500Z 19006KT 15SM SCT250 M08/M10 A2988 RMK CI4 SLP181,CYQF,2019-01-12T05:00:00Z,52.17,-113.9,-8.0,-10.0,190,6,,15.0,29.878937,1018.1,,,,,,,,,,SCT,25000,,,,,,,VFR,,,,,,,,,,,,METAR,905.0
CYPY 120500Z AUTO VRB05KT 9SM OVC070 M05/M09 A2972 RMK SLP084,CYPY,2019-01-12T05:00:00Z,58.77,-111.12,-5.0,-9.0,0,5,,9.0,29.719488,1008.4,,TRUE,,,,,,,,OVC,7000,,,,,,,VFR,,,,,,,,,,,,METAR,232.0
CYPA 120500Z 07004KT 15SM IC FEW250 M22/M25 A3030 RMK CI1 SLP310,CYPA,2019-01-12T05:00:00Z,53.22,-105.67,-22.0,-25.0,70,4,,15.0,30.301182,1031.0,,,,,,,,,IC,FEW,25000,,,,,,,VFR,,,,,,,,,,,,METAR,428.0
CYOJ 120500Z 34003KT 15SM SCT180 M13/M14 A2964 RMK AC4 LAST STFD OBS/NEXT 121400 UTC SLP072,CYOJ,2019-01-12T05:00:00Z,58.62,-117.17,-13.0,-14.0,340,3,,15.0,29.639763,1007.2,,,,,,,,,,SCT,18000,,,,,,,VFR,,,,,,,,,,,,METAR,338.0
CYNE 120500Z AUTO 13005KT 9SM OVC140 M20/M23 A3049 RMK SLP356,CYNE,2019-01-12T05:00:00Z,53.97,-97.82,-20.0,-23.0,130,5,,9.0,30.490158,1035.6,,TRUE,,,,,,,,OVC,14000,,,,,,,VFR,,,,,,,,,,,,METAR,223.0
CYMM 120500Z AUTO 11006KT 9SM FEW240 M09/M11 A2986 RMK SLP144,CYMM,2019-01-12T05:00:00Z,56.65,-111.22,-9.0,-11.0,110,6,,9.0,29.861221,1014.4,,TRUE,,,,,,,,FEW,24000,,,,,,,VFR,,,,,,,,,,,,METAR,369.0
CYGX 120500Z 14003KT 100V170 15SM BKN040 M23/M26 A3058 RMK SC7 SLP379,CYGX,2019-01-12T05:00:00Z,56.35,-94.7,-23.0,-26.0,140,3,,15.0,30.578741,1037.9,,,,,,,,,,BKN,4000,,,,,,,VFR,,,,,,,,,,,,METAR,145.0
CYET 120500Z AUTO 26003KT 9SM OVC110 M06/M07 A2985 RMK SLP173,CYET,2019-01-12T05:00:00Z,53.57,-116.47,-6.0,-7.0,260,3,,9.0,29.84941,1017.3,,TRUE,,,,,,,,OVC,11000,,,,,,,VFR,,,,,,,,,,,,METAR,925.0
CYDN 120500Z AUTO 00000KT 9SM OVC011 M15/M16 A3046 RMK SLP347,CYDN,2019-01-12T05:00:00Z,51.1,-100.03,-15.0,-16.0,0,0,,9.0,30.46063,1034.7,,TRUE,,,,,,,,OVC,1100,,,,,,,MVFR,,,,,,,,,,,,METAR,305.0
CYBQ 120500Z AUTO 18010G16KT 1 1/2SM -SN OVC017 M18/M21 A3026 RMK SLP285,CYBQ,2019-01-12T05:00:00Z,58.7,-98.5,-18.0,-21.0,180,10,16,1.5,30.259842,1028.5,,TRUE,,,,,,,-SN,OVC,1700,,,,,,,IFR,,,,,,,,,,,,METAR,262.0
CYBK 120500Z 10014KT 3SM IC -SN SCT003 OVC100 M32/M36 A3041 RMK SC4AC4 PRESFR SLP304,CYBK,2019-01-12T05:00:00Z,64.28,-96.07,-32.0,-36.0,100,14,,3.0,30.410433,1030.4,,,,,,,,,IC -SN,SCT,300,OVC,10000,,,,,MVFR,,,,,,,,,,,,METAR,18.0
CWHN 120500Z AUTO 19007KT 160V220 9SM CLR M13/M16 A2998 RMK SLP206,CWHN,2019-01-12T05:00:00Z,54.88,-109.97,-13.0,-16.0,190,7,,9.0,29.97933,1020.6,,TRUE,,,,,,,,CLR,,,,,,,,VFR,,,,,,,,,,,,METAR,636.0
CYYG 120500Z 25011G18KT 15SM -SN DRSN OVC020 M13/M17 A2989 RMK SC8 SLP127,CYYG,2019-01-12T05:00:00Z,46.27,-63.12,-13.0,-17.0,250,11,18,15.0,29.890747,1012.7,,,,,,,,,-SN DRSN,OVC,2000,,,,,,,MVFR,,,,,,,,,,,,METAR,54.0
CYSJ 120500Z 27008KT 15SM SKC M16/M20 A3001 RMK SLP175,CYSJ,2019-01-12T05:00:00Z,45.32,-65.87,-16.0,-20.0,270,8,,15.0,30.008858,1017.5,,,,,,,,,,SKC,,,,,,,,VFR,,,,,,,,,,,,METAR,109.0
CYGW 120500Z AUTO 00000KT 9SM CLR M20/M22 A3028 RMK SLP256,CYGW,2019-01-12T05:00:00Z,55.27,-77.77,-20.0,-22.0,0,0,,9.0,30.280512,1025.6,,TRUE,,,,,,,,CLR,,,,,,,,VFR,,,,,,,,,,,,METAR,12.0
CYDF 120500Z 23009KT 15SM -SN OVC023 M03/M06 A2977 RMK SC8 SLP082,CYDF,2019-01-12T05:00:00Z,49.22,-57.4,-3.0,-6.0,230,9,,15.0,29.769686,1008.2,,,,,,,,,-SN,OVC,2300,,,,,,,MVFR,,,,,,,,,,,,METAR,22.0
CYCX 120500Z AUTO 24008KT 9SM FEW087 M17/M20 A3001 RMK SLP168,CYCX,2019-01-12T05:00:00Z,45.82,-66.42,-17.0,-20.0,240,8,,9.0,30.008858,1016.8,,TRUE,,,,,,,,FEW,8700,,,,,,,VFR,,,,,,,,,,,,METAR,51.0
CYWK 120500Z AUTO 01013KT 9SM -SN BKN055 OVC130 M09/M12 A2962 RMK SLP069,CYWK,2019-01-12T05:00:00Z,52.92,-66.87,-9.0,-12.0,10,13,,9.0,29.619095,1006.9,,TRUE,,,,,,,-SN,BKN,5500,OVC,13000,,,,,VFR,,,,,,,,,,,,METAR,551.0
CYUY 120500Z 27004KT 15SM SKC M25/M27 A3038 RMK SLP326,CYUY,2019-01-12T05:00:00Z,48.2,-78.82,-25.0,-27.0,270,4,,15.0,30.380905,1032.6,,,,,,,,,,SKC,,,,,,,,VFR,,,,,,,,,,,,METAR,301.0
CYQI 120500Z 32013G19KT 3SM -SHSN VV018 M09/M12 A3009 RMK SN8 CVCTV CLD EMBD SLP192,CYQI,2019-01-12T05:00:00Z,43.83,-66.08,-9.0,-12.0,320,13,19,3.0,30.088583,1019.2,,,,,,,,,-SHSN,OVX,0,,,,,,,LIFR,,,,,,,,,,,1800,METAR,43.0
CYPH 120500Z AUTO 36019KT 1 1/4SM -SN OVC026 M15/M17 A3023 RMK SLP240,CYPH,2019-01-12T05:00:00Z,58.45,-78.08,-15.0,-17.0,360,19,,1.25,30.230314,1024.0,,TRUE,,,,,,,-SN,OVC,2600,,,,,,,IFR,,,,,,,,,,,,METAR,3.0
CYOY 120500Z AUTO 27008KT 230V290 9SM M19/M25 A3017 RMK SLP236,CYOY,2019-01-12T05:00:00Z,46.88,-71.5,-19.0,-25.0,270,8,,9.0,30.171259,1023.6,,TRUE,,,,,,,,,,,,,,,,,,,,,,,,,,,,METAR,168.0
CYNM 120500Z AUTO 32009KT 9SM -SN OVC013 M22/M24 A3032 RMK SLP306,CYNM,2019-01-12T05:00:00Z,49.77,-77.82,-22.0,-24.0,320,9,,9.0,30.318897,1030.6,,TRUE,,,,,,,-SN,OVC,1300,,,,,,,MVFR,,,,,,,,,,,,METAR,281.0
CYMH 120500Z AUTO 24005KT 9SM OVC060 M02/M04 A2962 RMK SLP032,CYMH,2019-01-12T05:00:00Z,52.28,-55.85,-2.0,-4.0,240,5,,9.0,29.619095,1003.2,,TRUE,,,,,,,,OVC,6000,,,,,,,VFR,,,,,,,,,,,,METAR,11.0
CYBX 120500Z 22015KT 10SM -SN OVC018 M02/M03 A2964 RMK SC8 SLP040,CYBX,2019-01-12T05:00:00Z,51.45,-57.17,-2.0,-3.0,220,15,,10.0,29.639763,1004.0,,,,,,,,,-SN,OVC,1800,,,,,,,MVFR,,,,,,,,,,,,METAR,35.0
CYAH 120500Z AUTO 26007KT 9SM -SN OVC024 M17/M19 A3002 RMK SLP201,CYAH,2019-01-12T05:00:00Z,53.75,-73.67,-17.0,-19.0,260,7,,9.0,30.02067,1020.1,,TRUE,,,,,,,-SN,OVC,2400,,,,,,,MVFR,,,,,,,,,,,,METAR,306.0
UMKK 120500Z 28004MPS 9999 SCT024 01/M01 Q1004 R24/29//35 NOSIG RMK QFE752/1003,UMKK,2019-01-12T05:00:00Z,54.88,20.6,1.0,-1.0,280,8,,6.21,29.64567,,,,,,TRUE,,,,,SCT,2400,,,,,,,VFR,,,,,,,,,,,,METAR,21.0
ULOO 120500Z 25002MPS P5000 SCT023 M03/M04 Q0992 NOSIG RMK QFE740,ULOO,2019-01-12T05:00:00Z,57.78,28.4,-3.0,-4.0,250,4,,3.11,29.291338,,,,,,TRUE,,,,,SCT,2300,,,,,,,MVFR,,,,,,,,,,,,METAR,47.0
FQNP 120500Z /////KT 9999 FEW020 BKN100 25/21 Q1012,FQNP,2019-01-12T05:00:00Z,-15.08,39.27,25.0,21.0,,,,6.21,29.88189,,,,,,,,,,,FEW,2000,BKN,10000,,,,,VFR,,,,,,,,,,,,METAR,441.0
UUYY 120500Z 19006G11MPS 7000 -SN OVC018 M08/M10 Q0995 R18/450335 NOSIG RMK QFE738/0984,UUYY,2019-01-12T05:00:00Z,61.65,50.82,-8.0,-10.0,190,12,21,4.35,29.379921,,,,,,TRUE,,,,-SN,OVC,1800,,,,,,,MVFR,,,,,,,,,,,,METAR,119.0
URMN 120500Z 21001MPS 9999 OVC/// M03/M05 Q1009 R24/110060 NOSIG RMK QFE720,URMN,2019-01-12T05:00:00Z,43.52,43.63,-3.0,-5.0,210,2,,6.21,29.793306,,,,,,TRUE,,,,,,,,,,,,,,,,,,,,,,,,,METAR,445.0
UUOO 120500Z 31004MPS 3500 -SN BR OVC005 M09/M10 Q1001 R30/820240 TEMPO 1200 BR OVC003 RMK QFE737,UUOO,2019-01-12T05:00:00Z,51.82,39.23,-9.0,-10.0,310,8,,2.17,29.557087,,,,,,,,,,-SN BR,OVC,500,,,,,,,IFR,,,,,,,,,,,,METAR,157.0
ULMM 120500Z 19001MPS 9999 -SHSN BKN014CB M05/M07 Q0971 R31/690138 NOSIG RMK QFE721,ULMM,2019-01-12T05:00:00Z,68.78,32.75,-5.0,-7.0,190,2,,6.21,28.671259,,,,,,TRUE,,,,-SHSN,BKN,1400,,,,,,,MVFR,,,,,,,,,,,,METAR,51.0
OEPA 120500Z 05004KT 9999 SCT035 06/01 Q1023 NOSIG,OEPA,2019-01-12T05:00:00Z,28.32,46.12,6.0,1.0,50,4,,6.21,30.206694,,,,,,TRUE,,,,,SCT,3500,,,,,,,VFR,,,,,,,,,,,,METAR,355.0
OENG 120500Z 08002KT 8000 SKC 13/08 Q1024 NOSIG,OENG,2019-01-12T05:00:00Z,17.62,44.42,13.0,8.0,80,2,,4.97,30.236221,,,,,,TRUE,,,,,SKC,,,,,,,,MVFR,,,,,,,,,,,,METAR,1203.0
OEKM 120500Z 18006KT CAVOK 14/09 Q1026 NOSIG,OEKM,2019-01-12T05:00:00Z,18.3,42.78,14.0,9.0,180,6,,6.21,30.295275,,,,,,TRUE,,,,,CAVOK,,,,,,,,VFR,,,,,,,,,,,,METAR,2054.0
SAZS 120500Z 29009KT 9999 SCT040 SCT080 10/00 Q1015,SAZS,2019-01-12T05:00:00Z,-41.13,-71.17,10.0,0.0,290,9,,6.21,29.970472,,,,,,,,,,,SCT,4000,SCT,8000,,,,,VFR,,,,,,,,,,,,SPECI,840.0
OTHH 120500Z 30009KT CAVOK 16/08 Q1021 NOSIG,OTHH,2019-01-12T05:00:00Z,25.25,51.6,16.0,8.0,300,9,,6.21,30.147638,,,,,,TRUE,,,,,CAVOK,,,,,,,,VFR,,,,,,,,,,,,METAR,0.0
CAHR 120500Z AUTO 25013G18KT M13/M16 RMK AO1 SOG 37 1015 PK WND 25021/0447 SLP123 T11291161,CAHR,2019-01-12T05:00:00Z,46.35,-63.17,-12.9,-16.1,250,13,18,,,1012.3,,TRUE,TRUE,,,,,,,,,,,,,,,,,,,,,,,,,,,METAR,53.0
CWVU 120500Z AUTO 29018G24KT M10/M11 RMK AO1 SOG 01 2020 PK WND 28027/0422 SLP209 T10951114,CWVU,2019-01-12T05:00:00Z,44.28,-66.33,-9.5,-11.4,290,18,24,,,1020.9,,TRUE,TRUE,,,,,,,,,,,,,,,,,,,,,,,,,,,METAR,16.0
HETR 120500Z 06006KT CAVOK 10/03 Q1014,HETR,2019-01-12T05:00:00Z,28.22,33.65,10.0,3.0,60,6,,6.21,29.940945,,,,,,,,,,,CAVOK,,,,,,,,VFR,,,,,,,,,,,,METAR,35.0
RJSY 120500Z 32004KT 290V010 9999 FEW030 SCT035 BKN050 06/M02 Q1019,RJSY,2019-01-12T05:00:00Z,38.82,139.77,6.0,-2.0,320,4,,6.21,30.088583,,,,,,,,,,,FEW,3000,SCT,3500,BKN,5000,,,VFR,,,,,,,,,,,,METAR,22.0
DTTG 120500Z 24011KT 8000 FEW002 SCT003 03/M00 Q1020 NOSIG,DTTG,2019-01-12T05:00:00Z,33.73,9.92,3.0,0.0,240,11,,4.97,30.11811,,,,,,TRUE,,,,,FEW,200,SCT,300,,,,,MVFR,,,,,,,,,,,,METAR,5.0
HEIS 120500Z 00000KT 4000 BR SCT025 04/03 Q1015,HEIS,2019-01-12T05:00:00Z,30.58,32.25,4.0,3.0,0,0,,2.49,29.970472,,,,,,,,,,BR,SCT,2500,,,,,,,IFR,,,,,,,,,,,,METAR,3.0
CZDB 120500Z AUTO 27009KT M11/M14 RMK AO1 SOG 09 2010 SLP144 T11111135 50002,CZDB,2019-01-12T05:00:00Z,45.42,-63.47,-11.1,-13.5,270,9,,,,1014.4,,TRUE,TRUE,,,,,,,,,,,,,,,,0.2,,,,,,,,,,,METAR,38.0
KJSL 120500Z AUTO 14009G15KT 130V210 10SM FEW038 FEW047 22/13 A3006 RMK A01,KJSL,2019-01-12T05:00:00Z,26.23,-95.25,22.0,13.0,140,9,15,10.0,30.059055,,,TRUE,TRUE,,,,,,,FEW,3800,FEW,4700,,,,,VFR,,,,,,,,,,,,METAR,10.0
RJSI 120500Z 30005KT 260V340 9999 FEW030 BKN/// 04/M05 Q1018,RJSI,2019-01-12T05:00:00Z,39.42,141.12,4.0,-5.0,300,5,,6.21,30.059055,,,,,,,,,,,FEW,3000,,,,,,,VFR,,,,,,,,,,,,METAR,93.0
URMM 120500Z 28004MPS 6000 NSC M04/M05 Q1010 R30/090070 TEMPO OVC004 RMK QFE730/0973,URMM,2019-01-12T05:00:00Z,44.22,43.1,-4.0,-5.0,280,8,,3.73,29.822834,,,,,,,,,,,CLR,,,,,,,,MVFR,,,,,,,,,,,,METAR,314.0
RJGG 120500Z 26010KT 9999 FEW025 BKN060 08/M01 Q1016 BECMG 28010KT,RJGG,2019-01-12T05:00:00Z,34.87,136.8,8.0,-1.0,260,10,,6.21,30.0,,,,,,,,,,,FEW,2500,BKN,6000,,,,,VFR,,,,,,,,,,,,METAR,5.0
RJOO 120500Z 08005KT 050V140 9999 FEW030 BKN050 08/01 Q1017,RJOO,2019-01-12T05:00:00Z,34.77,135.43,8.0,1.0,80,5,,6.21,30.029528,,,,,,,,,,,FEW,3000,BKN,5000,,,,,VFR,,,,,,,,,,,,METAR,15.0
RJBB 120500Z 09008KT 9999 FEW008 SCT040 BKN060 07/02 Q1018 NOSIG,RJBB,2019-01-12T05:00:00Z,34.42,135.25,7.0,2.0,90,8,,6.21,30.059055,,,,,,TRUE,,,,,FEW,800,SCT,4000,BKN,6000,,,VFR,,,,,,,,,,,,METAR,8.0
URSS 120500Z 08005MPS 9000 -SHRA OVC046CB 08/06 Q1015 WS ALL RWY R02/290055 R06/290055 NOSIG RMK R06/09007MPS QFE760,URSS,2019-01-12T05:00:00Z,43.45,39.95,8.0,6.0,80,10,,5.59,29.970472,,,,,,TRUE,,,,-SHRA,OVC,4600,,,,,,,VFR,,,,,,,,,,,,METAR,16.0
URRP 120500Z 26012MPS 9999 SCT008 BKN032CB 00/M02 Q1006 R23/290052 TEMPO 23015G20MPS 2000 BR BKN005 SCT020CB RMK QFE746/0995,URRP,2019-01-12T05:00:00Z,47.5,39.92,0.0,-2.0,260,23,,6.21,29.704725,,,,,,,,,,,SCT,800,BKN,3200,,,,,VFR,,,,,,,,,,,,METAR,65.0
URMT 120500Z 25004MPS CAVOK 05/M02 Q1009 R25/010070 NOSIG RMK QFE718,URMT,2019-01-12T05:00:00Z,45.12,42.12,5.0,-2.0,250,8,,6.21,29.793306,,,,,,TRUE,,,,,CAVOK,,,,,,,,VFR,,,,,,,,,,,,METAR,453.0
URMO 120500Z 22002MPS 160V240 9999 NSC M04/M05 Q1009 R09/010070 NOSIG RMK QFE713/0951,URMO,2019-01-12T05:00:00Z,43.2,44.6,-4.0,-5.0,220,4,,6.21,29.793306,,,,,,TRUE,,,,,CLR,,,,,,,,VFR,,,,,,,,,,,,METAR,510.0
CWQH 120500Z AUTO 27008KT M18/M22 RMK AO1 SOG 14 T11761224,CWQH,2019-01-12T05:00:00Z,45.37,-71.82,-17.6,-22.4,270,8,,,,,,TRUE,TRUE,,,,,,,,,,,,,,,,,,,,,,,,,,,METAR,181.0
CWPZ 120500Z AUTO 00000KT M00/00 RMK AO1 SOG 42 3011 SLP096 T10040000,CWPZ,2019-01-12T05:00:00Z,54.38,-125.97,-0.4,0.0,0,0,,,,1009.6,,TRUE,TRUE,,,,,,,,,,,,,,,,,,,,,,,,,,,METAR,713.0
CWPR 120500Z AUTO 00000KT M04/M04 RMK AO1 SOG 03 3001 SLP207 T10351040,CWPR,2019-01-12T05:00:00Z,49.47,-120.52,-3.5,-4.0,0,0,,,,1020.7,,TRUE,TRUE,,,,,,,,,,,,,,,,,,,,,,,,,,,METAR,700.0
RJTI 120500Z 02006KT 320V070 9999 FEW020 BKN040 06/M03 Q1017,RJTI,2019-01-12T05:00:00Z,35.63,139.83,6.0,-3.0,20,6,,6.21,30.029528,,,,,,,,,,,FEW,2000,BKN,4000,,,,,VFR,,,,,,,,,,,,METAR,8.0
OAKN 120459Z 00000KT 9999 CLR 04/M11 A3025 RMK AO2A SLP238 WND DATA ESTMD Q1024 PA3001 DA2425 T00391109,OAKN,2019-01-12T04:59:00Z,31.5,65.83,3.9,-10.9,0,0,,6.21,30.250984,1023.8,,,TRUE,,,,,,,CLR,,,,,,,,VFR,,,,,,,,,,,,METAR,1010.0
KNGU 120459Z 03007KT 10SM FEW250 02/M08 A3044 RMK AO2 SLP309 T00221078 400391017,KNGU,2019-01-12T04:59:00Z,36.92,-76.27,2.2,-7.8,30,7,,10.0,30.43996,1030.9,,,TRUE,,,,,,,FEW,25000,,,,,,,VFR,,,,3.9,-1.7,,,,,,,METAR,5.0
KLBB 120459Z 32012KT 10SM SCT026 SCT031 04/01 A2996 RMK AO2 T00440011,KLBB,2019-01-12T04:59:00Z,33.67,-101.82,4.4,1.1,320,12,,10.0,29.958662,,,,TRUE,,,,,,,SCT,2600,SCT,3100,,,,,VFR,,,,,,,,,,,,SPECI,993.0
KGOK 120459Z AUTO 02004KT 3SM -RA BR OVC006 06/05 A2984 RMK AO2 CIG 004V009 P0001 T00560050,KGOK,2019-01-12T04:59:00Z,35.85,-97.4,5.6,5.0,20,4,,3.0,29.840551,,,TRUE,TRUE,,,,,,-RA BR,OVC,600,,,,,,,IFR,,,,,,0.01,,,,,,SPECI,324.0
KNOZ 120459Z AUTO 08004KT 10SM CLR 12/07 A3005 RMK AO2 SLP127 T01170067 $,KNOZ,2019-01-12T04:59:00Z,32.5,-114.45,11.7,6.7,80,4,,10.0,30.050198,1012.7,,TRUE,TRUE,TRUE,,,,,,CLR,,,,,,,,VFR,,,,,,,,,,,,METAR,103.0
MUCF 120459Z AUTO 07005KT 18/16 Q1019,MUCF,2019-01-12T04:59:00Z,22.13,-80.4,18.0,16.0,70,5,,,30.088583,,,TRUE,,,,,,,,,,,,,,,,,,,,,,,,,,,,METAR,39.0
RKSO 120458Z 28003KT 2 1/2SM HZ CLR 07/M04 A3015 RMK AO2A SLP214 T00711043,RKSO,2019-01-12T04:58:00Z,37.07,127.02,7.1,-4.3,280,3,,2.5,30.15059,1021.4,,,TRUE,,,,,,HZ,CLR,,,,,,,,IFR,,,,,,,,,,,,METAR,12.0
KMUO 120458Z AUTO 14012KT 10SM CLR 00/00 A3022 RMK AO2 SLP254 T00020002 $,KMUO,2019-01-12T04:58:00Z,43.03,-115.87,0.2,0.2,140,12,,10.0,30.221457,1025.4,,TRUE,TRUE,TRUE,,,,,,CLR,,,,,,,,VFR,,,,,,,,,,,,SPECI,913.0
KBKF 120458Z 34012KT 1SM R32/P6000FT -SN BR VV002 00/00 A3016 RMK AO2A SLP225 P0003 T10031003,KBKF,2019-01-12T04:58:00Z,39.72,-104.75,-0.3,-0.3,340,12,,1.0,30.159449,1022.5,,,TRUE,,,,,,-SN BR,OVX,0,,,,,,,LIFR,,,,,,0.03,,,,,200,METAR,1726.0
KSUU 120458Z AUTO 02011KT 6SM BR OVC075 10/09 A2990 RMK AO2 DZB03E12 SLP132 P0000 T01030089 $,KSUU,2019-01-12T04:58:00Z,38.27,-121.92,10.3,8.9,20,11,,6.0,29.899607,1013.2,,TRUE,TRUE,TRUE,,,,,BR,OVC,7500,,,,,,,VFR,,,,,,0.005,,,,,,SPECI,19.0
K1BW 120458Z AUTO 34007KT 10SM -SHRA OVC003 00/M01 A3019 RMK AO2 RAE50SHRAB50E54SHRAB56 SLP247 P0002 T10031008 $,K1BW,2019-01-12T04:58:00Z,41.52,-104.0,-0.3,-0.8,340,7,,10.0,30.188976,1024.7,,TRUE,TRUE,TRUE,,,,,-SHRA,OVC,300,,,,,,,LIFR,,,,,,0.02,,,,,,METAR,1607.0
KSXS 120458Z AUTO 00000KT 10SM CLR 06/01 A3019 RMK AO2 SLP227 T00610014,KSXS,2019-01-12T04:58:00Z,31.37,-85.85,6.1,1.4,0,0,,10.0,30.188976,1022.7,,TRUE,TRUE,,,,,,,CLR,,,,,,,,VFR,,,,,,,,,,,,METAR,122.0
KLOR 120458Z AUTO 00000KT 10SM FEW036 03/03 A3020 RMK AO2 SLP211 T00300028,KLOR,2019-01-12T04:58:00Z,31.35,-85.75,3.0,2.8,0,0,,10.0,30.200787,1021.1,,TRUE,TRUE,,,,,,,FEW,3600,,,,,,,VFR,,,,,,,,,,,,METAR,74.0
KHUA 120458Z AUTO 05005KT 10SM OVC130 06/M02 A3023 RMK AO2 SLP241 T00561018,KHUA,2019-01-12T04:58:00Z,34.68,-86.68,5.6,-1.8,50,5,,10.0,30.230314,1024.1,,TRUE,TRUE,,,,,,,OVC,13000,,,,,,,VFR,,,,,,,,,,,,METAR,209.0
KHEY 120458Z AUTO 08003KT 10SM SCT036 05/02 A3019 RMK AO2 SLP227 T00520019 401461001,KHEY,2019-01-12T04:58:00Z,31.35,-85.65,5.2,1.9,80,3,,10.0,30.188976,1022.7,,TRUE,TRUE,,,,,,,SCT,3600,,,,,,,VFR,,,,14.6,-0.1,,,,,,,METAR,97.0
KLSV 120458Z 01006KT 10SM CLR 11/00 A3012 RMK AO2A SLP200 SLP/ALSTG ESTMD T01071002,KLSV,2019-01-12T04:58:00Z,36.22,-115.02,10.7,-0.2,10,6,,10.0,30.121063,1020.0,,,TRUE,,,,,,,CLR,,,,,,,,VFR,,,,,,,,,,,,METAR,570.0
KHIF 120458Z 00000KT 3/8SM FZFG BKN004 M01/M01 A3026 RMK AO2A SLP260 T10121013,KHIF,2019-01-12T04:58:00Z,41.12,-111.97,-1.2,-1.3,0,0,,0.38,30.259842,1026.0,,,TRUE,,,,,,FZFG,BKN,400,,,,,,,LIFR,,,,,,,,,,,,METAR,1459.0
KEDW 120458Z 07006KT 50SM FEW200 BKN250 09/01 A2998 RMK AO2A SLP159 T00860006,KEDW,2019-01-12T04:58:00Z,34.88,-117.87,8.6,0.6,70,6,,50.0,29.97933,1015.9,,,TRUE,,,,,,,FEW,20000,BKN,25000,,,,,VFR,,,,,,,,,,,,METAR,702.0
K1JM 120458Z AUTO 18003KT 10SM CLR M05/M08 A3008 RMK AO2 SLP240 T10551085 $,K1JM,2019-01-12T04:58:00Z,47.75,-111.55,-5.5,-8.5,180,3,,10.0,30.079725,1024.0,,TRUE,TRUE,TRUE,,,,,,CLR,,,,,,,,VFR,,,,,,,,,,,,METAR,1152.0
KMRH 120458Z AUTO 02004KT 10SM CLR 00/M04 A3042 RMK AO2 SLP302 T00001044 400721022,KMRH,2019-01-12T04:58:00Z,34.73,-76.65,0.0,-4.4,20,4,,10.0,30.41929,1030.2,,TRUE,TRUE,,,,,,,CLR,,,,,,,,VFR,,,,7.2,-2.2,,,,,,,METAR,3.0
KMEI 120458Z AUTO 00000KT 10SM CLR 06/02 A3018 RMK AO2 SLP219 I1000 T00610017 TSNO,KMEI,2019-01-12T04:58:00Z,32.33,-88.75,6.1,1.7,0,0,,10.0,30.180119,1021.9,,TRUE,TRUE,,,TRUE,,,,CLR,,,,,,,,VFR,,,,,,,,,,,,METAR,89.0
K1OM 120458Z AUTO 18012KT 10SM CLR 00/M04 A3011 RMK AO2 SLP222 T10041045 $,K1OM,2019-01-12T04:58:00Z,47.33,-108.93,-0.4,-4.5,180,12,,10.0,30.109253,1022.2,,TRUE,TRUE,TRUE,,,,,,CLR,,,,,,,,VFR,,,,,,,,,,,,METAR,1086.0
K1KM 120458Z AUTO 28009KT 10SM CLR M02/M07 A3015 RMK AO2 SLP253 T10181074 $,K1KM,2019-01-12T04:58:00Z,46.45,-109.8,-1.8,-7.4,280,9,,10.0,30.15059,1025.3,,TRUE,TRUE,TRUE,,,,,,CLR,,,,,,,,VFR,,,,,,,,,,,,METAR,1330.0
K1GM 120458Z AUTO 17018KT 10SM CLR M01/M05 A3009 RMK AO2 SLP226 T10091052 $,K1GM,2019-01-12T04:58:00Z,47.33,-112.1,-0.9,-5.2,170,18,,10.0,30.088583,1022.6,,TRUE,TRUE,TRUE,,,,,,CLR,,,,,,,,VFR,,,,,,,,,,,,METAR,1311.0
K1EM 120458Z AUTO 26004KT 10SM M 00/M05 A3012 RMK AO2 SLP235 T10021049 $,K1EM,2019-01-12T04:58:00Z,47.45,-109.42,-0.2,-4.9,260,4,,10.0,30.121063,1023.5,,TRUE,TRUE,TRUE,,,,,,,,,,,,,,,,,,,,,,,,,,METAR,1116.0
K1FM 120458Z AUTO 20006KT 10SM CLR M03/M07 A3009 RMK AO2 SLP239 T10291068 $,K1FM,2019-01-12T04:58:00Z,47.6,-112.32,-2.9,-6.8,200,6,,10.0,30.088583,1023.9,,TRUE,TRUE,TRUE,,,,,,CLR,,,,,,,,VFR,,,,,,,,,,,,METAR,1116.0
K1AM 120458Z AUTO 00000KT 10SM CLR M04/M09 A3011 RMK AO2 SLP184 T10371089 $,K1AM,2019-01-12T04:58:00Z,47.28,-110.8,-3.7,-8.9,0,0,,10.0,30.109253,1018.4,,TRUE,TRUE,TRUE,,,,,,CLR,,,,,,,,VFR,,,,,,,,,,,,METAR,1219.0
KPOE 120458Z AUTO 12007KT 10SM OVC110 10/06 A3003 RMK AO2 SLP171 T01020056,KPOE,2019-01-12T04:58:00Z,31.05,-93.2,10.2,5.6,120,7,,10.0,30.029528,1017.1,,TRUE,TRUE,,,,,,,OVC,11000,,,,,,,VFR,,,,,,,,,,,,METAR,101.0
KHLR 120458Z AUTO 18005KT 10SM FEW190 SCT230 13/12 A2990 RMK AO2 SLP123 T01260121,KHLR,2019-01-12T04:58:00Z,31.13,-97.72,12.6,12.1,180,5,,10.0,29.899607,1012.3,,TRUE,TRUE,,,,,,,FEW,19000,SCT,23000,,,,,VFR,,,,,,,,,,,,METAR,283.0
K4MR 120458Z AUTO 35007KT 10SM FEW012 BKN036 04/02 A3005 RMK AO2 SLP167 T00350016 TSNO $,K4MR,2019-01-12T04:58:00Z,34.3,-103.8,3.5,1.6,350,7,,10.0,30.050198,1016.7,,TRUE,TRUE,TRUE,,TRUE,,,,FEW,1200,BKN,3600,,,,,VFR,,,,,,,,,,,,METAR,1326.0
K1YT 120458Z AUTO 07006KT 10SM CLR 01/M01 A3011 RMK AO2 SLPNO T00071008 $,K1YT,2019-01-12T04:58:00Z,46.67,-120.45,0.7,-0.8,70,6,,10.0,30.109253,,,TRUE,TRUE,TRUE,,,,,,CLR,,,,,,,,VFR,,,,,,,,,,,,METAR,438.0
K1LM 120458Z AUTO 15008KT 10SM CLR M04/M08 A3013 RMK AO2 SLP249 T10361080 $,K1LM,2019-01-12T04:58:00Z,46.7,-109.73,-3.6,-8.0,150,8,,10.0,30.129921,1024.9,,TRUE,TRUE,TRUE,,,,,,CLR,,,,,,,,VFR,,,,,,,,,,,,METAR,1414.0
K1CM 120458Z AUTO 00000KT 10SM CLR M04/M09 A3010 RMK AO2 SLP231 T10361091 $,K1CM,2019-01-12T04:58:00Z,47.1,-110.17,-3.6,-9.1,0,0,,10.0,30.100393,1023.1,,TRUE,TRUE,TRUE,,,,,,CLR,,,,,,,,VFR,,,,,,,,,,,,METAR,1337.0
K1HM 120458Z AUTO 21011KT 10SM CLR 01/M06 A3008 RMK AO2 SLP214 T00101060 $,K1HM,2019-01-12T04:58:00Z,,,1.0,-6.0,210,11,,10.0,30.079725,1021.4,,TRUE,TRUE,TRUE,,,,,,CLR,,,,,,,,VFR,,,,,,,,,,,,METAR,
KGFA 120458Z AUTO 21009KT 10SM CLR M02/M06 A3010 RMK AO2 SLP226 T10181063 $,KGFA,2019-01-12T04:58:00Z,47.5,-111.17,-1.8,-6.3,210,9,,10.0,30.100393,1022.6,,TRUE,TRUE,TRUE,,,,,,CLR,,,,,,,,VFR,,,,,,,,,,,,METAR,1075.0
KHMN 120458Z AUTO 01013KT 10SM CLR 06/M02 A3011 RMK AO2 SLP176 T00591017 $,KHMN,2019-01-12T04:58:00Z,32.85,-106.08,5.9,-1.7,10,13,,10.0,30.109253,1017.6,,TRUE,TRUE,TRUE,,,,,,CLR,,,,,,,,VFR,,,,,,,,,,,,METAR,1248.0
KFCS 120458Z AUTO 02014KT 10SM FEW034 BKN060 01/M02 A3010 RMK AO2 SLP235 T00121022 $,KFCS,2019-01-12T04:58:00Z,38.67,-104.77,1.2,-2.2,20,14,,10.0,30.100393,1023.5,,TRUE,TRUE,TRUE,,,,,,FEW,3400,BKN,6000,,,,,VFR,,,,,,,,,,,,METAR,1789.0
K9L2 120458Z AUTO 04011KT 10SM CLR 09/00 A2999 RMK AO2 SLP161 T00941000,K9L2,2019-01-12T04:58:00Z,34.97,-117.87,9.4,0.0,40,11,,10.0,29.991142,1016.1,,TRUE,TRUE,,,,,,,CLR,,,,,,,,VFR,,,,,,,,,,,,METAR,701.0
KSLI 120458Z 08004KT 7SM FEW020 BKN220 11/11 A2999 RMK AO2A SLP159 T01140109,KSLI,2019-01-12T04:58:00Z,33.77,-118.03,11.4,10.9,80,4,,7.0,29.991142,1015.9,,,TRUE,,,,,,,FEW,2000,BKN,22000,,,,,VFR,,,,,,,,,,,,METAR,11.0
KRIV 120458Z AUTO 00000KT 10SM CLR 08/08 A2999 RMK AO2 SLP159 T00790076,KRIV,2019-01-12T04:58:00Z,33.87,-117.27,7.9,7.6,0,0,,10.0,29.991142,1015.9,,TRUE,TRUE,,,,,,,CLR,,,,,,,,VFR,,,,,,,,,,,,METAR,469.0
KINS 120458Z AUTO 11003KT 10SM CLR 06/M02 A3008 RMK AO2 SLP182 T00601024 $,KINS,2019-01-12T04:58:00Z,36.58,-115.67,6.0,-2.4,110,3,,10.0,30.079725,1018.2,,TRUE,TRUE,TRUE,,,,,,CLR,,,,,,,,VFR,,,,,,,,,,,,METAR,955.0
KFHU 120458Z AUTO 24009KT 10SM CLR 05/00 A3015 RMK AO2 SLP195 T00531001 $,KFHU,2019-01-12T04:58:00Z,31.58,-110.35,5.3,-0.1,240,9,,10.0,30.15059,1019.5,,TRUE,TRUE,TRUE,,,,,,CLR,,,,,,,,VFR,,,,,,,,,,,,METAR,1438.0
KDMA 120458Z AUTO 15004KT 10SM CLR 07/05 A3010 RMK AO2 SLP185 T00700047 $,KDMA,2019-01-12T04:58:00Z,32.17,-110.87,7.0,4.7,150,4,,10.0,30.100393,1018.5,,TRUE,TRUE,TRUE,,,,,,CLR,,,,,,,,VFR,,,,,,,,,,,,METAR,824.0
KBIF 120458Z AUTO 31011KT 10SM CLR 10/00 A3007 RMK AO2 SLP154 T01000004 $,KBIF,2019-01-12T04:58:00Z,31.85,-106.38,10.0,0.4,310,11,,10.0,30.070866,1015.4,,TRUE,TRUE,TRUE,,,,,,CLR,,,,,,,,VFR,,,,,,,,,,,,METAR,1203.0
KEUF 120458Z AUTO 08006KT 10SM 08/01 A3023 RMK AO2 SLP234 T00830011 $,KEUF,2019-01-12T04:58:00Z,31.95,-85.13,8.3,1.1,80,6,,10.0,30.230314,1023.4,,TRUE,TRUE,TRUE,,,,,,,,,,,,,,,,,,,,,,,,,,SPECI,87.0
K0J4 120458Z AUTO 00000KT 10SM CLR 05/01 A3022 RMK AO2 SLP231 T00500011 401561006,K0J4,2019-01-12T04:58:00Z,31.05,-86.32,5.0,1.1,0,0,,10.0,30.221457,1023.1,,TRUE,TRUE,,,,,,,CLR,,,,,,,,VFR,,,,15.6,-0.6,,,,,,,SPECI,96.0
KLGF 120458Z AUTO 07006KT 10SM CLR 13/06 A3004 RMK AO2 SLPNO T01280063 $,KLGF,2019-01-12T04:58:00Z,32.87,-114.4,12.8,6.3,70,6,,10.0,30.041338,,,TRUE,TRUE,TRUE,,,,,,CLR,,,,,,,,VFR,,,,,,,,,,,,METAR,132.0
KCVS 120458Z AUTO 33014KT 10SM CLR 02/00 A3002 RMK AO2 SLP164 T00181001 $,KCVS,2019-01-12T04:58:00Z,34.37,-103.32,1.8,-0.1,330,14,,10.0,30.02067,1016.4,,TRUE,TRUE,TRUE,,,,,,CLR,,,,,,,,VFR,,,,,,,,,,,,METAR,1309.0
KROG 120458Z AUTO 13011KT 3SM RA BR FEW009 OVC027 02/01 A2999 RMK AO2 SLP164 P0004 T00170006 400560011,KROG,2019-01-12T04:58:00Z,36.37,-94.08,1.7,0.6,130,11,,3.0,29.991142,1016.4,,TRUE,TRUE,,,,,,RA BR,FEW,900,OVC,2700,,,,,MVFR,,,,5.6,1.1,0.04,,,,,,SPECI,415.0
PAFB 120458Z 00000KT 4SM BR FEW005 M40/M44 A2999 RMK AO2A SLP181 T14031441 $,PAFB,2019-01-12T04:58:00Z,64.83,-147.62,-40.3,-44.1,0,0,,4.0,29.991142,1018.1,,,TRUE,TRUE,,,,,BR,FEW,500,,,,,,,MVFR,,,,,,,,,,,,SPECI,137.0
KNJM 120457Z AUTO 03005KT M01/M05 A3043 RMK AO2 SLP307 T10061050 400781033 $,KNJM,2019-01-12T04:57:00Z,34.67,-77.02,-0.6,-5.0,30,5,,,30.431103,1030.7,,TRUE,TRUE,TRUE,,,,,,,,,,,,,,,,,,7.8,-3.3,,,,,,,METAR,7.0
FAIR 120457Z 16003KT 9999 FEW025 24/18 Q1017,FAIR,2019-01-12T04:57:00Z,-25.92,28.22,24.0,18.0,160,3,,6.21,30.029528,,,,,,,,,,,FEW,2500,,,,,,,VFR,,,,,,,,,,,,SPECI,1500.0
PAJC 120457Z AUTO 03011G15KT 10SM BKN017 BKN022 OVC026 02/00 A2933 RMK AO2 UPE16RAB16E57 SLP933 P0001 T00220000 FZRANO,PAJC,2019-01-12T04:57:00Z,56.32,-158.37,2.2,0.0,30,11,15,10.0,29.329725,993.3,,TRUE,TRUE,,,,TRUE,,,BKN,1700,BKN,2200,OVC,2600,,,MVFR,,,,,,0.01,,,,,,SPECI,15.0
MMLP 120457Z RTD 00000KT 10SM SKC 17/15 A3006,MMLP,2019-01-12T04:57:00Z,24.07,-110.37,17.0,15.0,0,0,,10.0,30.059055,,,,,,,,,,,SKC,,,,,,,,VFR,,,,,,,,,,,,METAR,21.0
OAIX 120457Z 26004KT 9000 BR FEW080 00/M01 A3018 RMK AO2A SLP204 T10031014 $,OAIX,2019-01-12T04:57:00Z,34.95,69.27,-0.3,-1.4,260,4,,5.59,30.180119,1020.4,,,TRUE,TRUE,,,,,BR,FEW,8000,,,,,,,VFR,,,,,,,,,,,,METAR,1492.0
EQYG 120457Z AUTO 00000KT 10SM CLR 12/ A2978 RMK AO2 SLP081 T0122 $ ,EQYG,2019-01-12T04:57:00Z,,,12.2,,0,0,,10.0,29.778543,1008.1,,TRUE,TRUE,TRUE,,,,,,CLR,,,,,,,,VFR,,,,,,,,,,,,METAR,
KRDR 120457Z 01009KT 6SM BR OVC004 M10/M10 A3037 RMK A02A SLP310 TWR VIS 1/2 T10961105 $,KRDR,2019-01-12T04:57:00Z,47.97,-97.4,-9.6,-10.5,10,9,,6.0,30.369095,1031.0,,,TRUE,TRUE,,,,,BR,OVC,400,,,,,,,LIFR,,,,,,,,,,,,METAR,278.0
PASY 120457Z 06030G36KT 5SM BR OVC013 03/02 A2872 RMK PK WND 05037/00 OVC V BKN SLP729 T00330015 $,PASY,2019-01-12T04:57:00Z,52.72,174.12,3.3,1.5,60,30,36,5.0,28.721457,972.9,,,,TRUE,,,,,BR,OVC,1300,,,,,,,MVFR,,,,,,,,,,,,METAR,31.0
KFLG 120457Z AUTO 07008KT 10SM CLR M03/M08 A3015 RMK AO2 SLP202 T10331078,KFLG,2019-01-12T04:57:00Z,35.13,-111.67,-3.3,-7.8,70,8,,10.0,30.15059,1020.2,,TRUE,TRUE,,,,,,,CLR,,,,,,,,VFR,,,,,,,,,,,,SPECI,2134.0
KDLS 120457Z AUTO 00000KT 2 1/2SM BR FEW007 OVC017 04/03 A3018 RMK AO2 T00390033,KDLS,2019-01-12T04:57:00Z,45.62,-121.17,3.9,3.3,0,0,,2.5,30.180119,,,TRUE,TRUE,,,,,,BR,FEW,700,OVC,1700,,,,,IFR,,,,,,,,,,,,SPECI,71.0
PHNG 120457Z VRB04KT 10SM FEW060 22/20 A2999 RMK AO2 SLP150 T02220200 $,PHNG,2019-01-12T04:57:00Z,21.43,-157.77,22.2,20.0,0,4,,10.0,29.991142,1015.0,,,TRUE,TRUE,,,,,,FEW,6000,,,,,,,VFR,,,,,,,,,,,,SPECI,3.0
KNYL 120457Z AUTO 00000KT 10SM CLR 13/07 A3004 RMK AO2 SLP172 T01280072 $,KNYL,2019-01-12T04:57:00Z,32.63,-114.62,12.8,7.2,0,0,,10.0,30.041338,1017.2,,TRUE,TRUE,TRUE,,,,,,CLR,,,,,,,,VFR,,,,,,,,,,,,SPECI,65.0
KNTD 120457Z 00000KT 6SM HZ SCT090 BKN180 13/08 A2997 RMK AO2 SLP149 T01280083 $,KNTD,2019-01-12T04:57:00Z,34.12,-119.12,12.8,8.3,0,0,,6.0,29.970472,1014.9,,,TRUE,TRUE,,,,,HZ,SCT,9000,BKN,18000,,,,,VFR,,,,,,,,,,,,SPECI,4.0
KEAR 120457Z AUTO 02013KT 10SM OVC070 00/M02 A3011 RMK AO2 SLP213 T00001017 FZRANO,KEAR,2019-01-12T04:57:00Z,40.72,-99.0,0.0,-1.7,20,13,,10.0,30.109253,1021.3,,TRUE,TRUE,,,,TRUE,,,OVC,7000,,,,,,,VFR,,,,,,,,,,,,SPECI,649.0
K1M4 120456Z AUTO 09004KT 10SM CLR 05/M03 A3022 RMK AO2 SLP257 T00501028 401001039,K1M4,2019-01-12T04:56:00Z,34.28,-87.6,5.0,-2.8,90,4,,10.0,30.221457,1025.7,,TRUE,TRUE,,,,,,,CLR,,,,,,,,VFR,,,,10.0,-3.9,,,,,,,SPECI,284.0
KPAM 120456Z AUTO 07004KT 10SM CLR 10/04 A3018 RMK AO2 SLP223 T01010038 $,KPAM,2019-01-12T04:56:00Z,30.07,-85.57,10.1,3.8,70,4,,10.0,30.180119,1022.3,,TRUE,TRUE,TRUE,,,,,,CLR,,,,,,,,VFR,,,,,,,,,,,,SPECI,5.0
KBLV 120456Z 11007KT 2SM BR BKN005 OVC011 M02/M03 A3020 RMK AO2A SNE01SNB06E16SNB21E36SNB38E53 CIG 005V012 CIG 000 RWY14R CIG 003 RWY32R SLPNO RVRNO $,KBLV,2019-01-12T04:56:00Z,38.53,-89.83,-2.0,-3.0,110,7,,2.0,30.200787,,,,TRUE,TRUE,,,,,BR,BKN,500,OVC,1100,,,,,IFR,,,,,,,,,,,,SPECI,138.0
ROTM 120456Z 33016KT 9999 FEW019 SCT025 BKN037 22/19 A3003 RMK SLP154 STNPR29730 T0220194,ROTM,2019-01-12T04:56:00Z,26.27,127.75,22.0,19.0,330,16,,6.21,30.029528,1015.4,,,,,,,,,,FEW,1900,SCT,2500,BKN,3700,,,VFR,,,,,,,,,,,,METAR,75.0
KHPN 120456Z 31005KT 10SM CLR M07/M17 A3038,KHPN,2019-01-12T04:56:00Z,41.07,-73.7,-7.0,-17.0,310,5,,10.0,30.380905,,,,,,,,,,,CLR,,,,,,,,VFR,,,,,,,,,,,,METAR,121.0
KADF 120456Z AUTO 02004KT 10SM OVC080 06/02 A3007 RMK AO2 SLP188 T00560017,KADF,2019-01-12T04:56:00Z,34.1,-93.07,5.6,1.7,20,4,,10.0,30.070866,1018.8,,TRUE,TRUE,,,,,,,OVC,8000,,,,,,,VFR,,,,,,,,,,,,SPECI,56.0
KAFJ 120456Z AUTO 00000KT 10SM CLR M08/M10 A3040 RMK AO2 SLP312 T10781100 FZRANO,KAFJ,2019-01-12T04:56:00Z,40.12,-80.27,-7.8,-10.0,0,0,,10.0,30.398623,1031.2,,TRUE,TRUE,,,,TRUE,,,CLR,,,,,,,,VFR,,,,,,,,,,,,METAR,361.0
OTBH 120456Z 31010KT 9999 CLR 15/09 A3018 RMK SLP222 T01460090 $,OTBH,2019-01-12T04:56:00Z,25.12,51.32,14.6,9.0,310,10,,6.21,30.180119,1022.2,,,,TRUE,,,,,,CLR,,,,,,,,VFR,,,,,,,,,,,,SPECI,40.0
K7N0 120456Z AUTO VRB03KT 10SM CLR 14/09 A3014 RMK AO2 SLP206 T01390094 401560067,K7N0,2019-01-12T04:56:00Z,29.95,-90.07,13.9,9.4,0,3,,10.0,30.138779,1020.6,,TRUE,TRUE,,,,,,,CLR,,,,,,,,VFR,,,,15.6,6.7,,,,,,,SPECI,0.0
KEGI 120456Z 00000KT 10SM FEW028 03/01 A3018 RMK AO2A SLP224 T00250010 $,KEGI,2019-01-12T04:56:00Z,30.63,-86.52,2.5,1.0,0,0,,10.0,30.180119,1022.4,,,TRUE,TRUE,,,,,,FEW,2800,,,,,,,VFR,,,,,,,,,,,,METAR,59.0
KCOF 120456Z AUTO 09009KT 10SM FEW050 20/12 A3018 RMK AO2 SLP224 T01980118 402260107 $,KCOF,2019-01-12T04:56:00Z,28.23,-80.6,19.8,11.8,90,9,,10.0,30.180119,1022.4,,TRUE,TRUE,TRUE,,,,,,FEW,5000,,,,,,,VFR,,,,22.6,10.7,,,,,,,SPECI,3.0
KQRH 120456Z AUTO 00000KT 9999 CLR 23/18 A3011 RMK AO2 SLP183 WND DATA ESTMD T02290184,KQRH,2019-01-12T04:56:00Z,,,22.9,18.4,0,0,,6.21,30.109253,1018.3,,TRUE,TRUE,,,,,,,CLR,,,,,,,,VFR,,,,,,,,,,,,METAR,
KQND 120456Z AUTO 00000KT 9999 CLR 18/M01 A2991 RMK AO2 SLP120 WND DATA ESTMD T01781009,KQND,2019-01-12T04:56:00Z,,,17.8,-0.9,0,0,,6.21,29.911417,1012.0,,TRUE,TRUE,,,,,,,CLR,,,,,,,,VFR,,,,,,,,,,,,METAR,
KQN3 120456Z AUTO 00000KT 9000 HZ CLR 19/M04 A2989 RMK AO2 SLP116 WND DATA ESTMD T01931041,KQN3,2019-01-12T04:56:00Z,,,19.3,-4.1,0,0,,5.59,29.890747,1011.6,,TRUE,TRUE,,,,,,HZ,CLR,,,,,,,,VFR,,,,,,,,,,,,METAR,
KQHY 120456Z AUTO 07003KT 10SM CLR 07/04 A3019 RMK AO2 SLP230 T00730036 401410025 $,KQHY,2019-01-12T04:56:00Z,,,7.3,3.6,70,3,,10.0,30.188976,1023.0,,TRUE,TRUE,TRUE,,,,,,CLR,,,,,,,,VFR,,,,14.1,2.5,,,,,,,METAR,
KQDG 120456Z AUTO 30009KT M M BKN043 03/M04 A3011 RMK AO2 SLP198 T00281045 PWINO $,KQDG,2019-01-12T04:56:00Z,,,2.8,-4.5,300,9,,,30.109253,1019.8,,TRUE,TRUE,TRUE,,,,TRUE,,BKN,4300,,,,,,,,,,,,,,,,,,,METAR,
KQD3 120456Z AUTO VRB03KT 9999 CLR 24/19 A3007 RMK AO2 SLP167 WND DATA ESTMD T02360185,KQD3,2019-01-12T04:56:00Z,,,23.6,18.5,0,3,,6.21,30.070866,1016.7,,TRUE,TRUE,,,,,,,CLR,,,,,,,,VFR,,,,,,,,,,,,METAR,
KQBF 120456Z AUTO 03003KT 9999 SCT200 23/M05 A2990 RMK AO2 SLP081 WND DATA ESTMD T02331046,KQBF,2019-01-12T04:56:00Z,,,23.3,-4.6,30,3,,6.21,29.899607,1008.1,,TRUE,TRUE,,,,,,,SCT,20000,,,,,,,VFR,,,,,,,,,,,,METAR,
OKAS 120456Z 28007KT 9999 SCT250 05/01 A3024 RMK AO2A SLP242 WND DATA ESTMD T00540007 PA +179,OKAS,2019-01-12T04:56:00Z,,,5.4,0.7,280,7,,6.21,30.239174,1024.2,,,TRUE,,,,,,,SCT,25000,,,,,,,VFR,,,,,,,,,,,,METAR,
KXMR 120456Z AUTO 09008KT 10SM CLR 18/10 A3019 RMK AO2 SLP226 T01770103 402190097 $,KXMR,2019-01-12T04:56:00Z,28.47,-80.57,17.7,10.3,90,8,,10.0,30.188976,1022.6,,TRUE,TRUE,TRUE,,,,,,CLR,,,,,,,,VFR,,,,21.9,9.7,,,,,,,SPECI,3.0
KVAD 120456Z AUTO 09008KT 10SM OVC041 10/01 A3025 RMK AO2 SLP246 T00950007 401640007 $,KVAD,2019-01-12T04:56:00Z,30.97,-83.2,9.5,0.7,90,8,,10.0,30.250984,1024.6,,TRUE,TRUE,TRUE,,,,,,OVC,4100,,,,,,,VFR,,,,16.4,0.7,,,,,,,SPECI,71.0
KMXF 120456Z AUTO 00000KT 10SM CLR 06/03 A3021 RMK AO2 SLP234 T00580031 $,KMXF,2019-01-12T04:56:00Z,32.37,-86.37,5.8,3.1,0,0,,10.0,30.209646,1023.4,,TRUE,TRUE,TRUE,,,,,,CLR,,,,,,,,VFR,,,,,,,,,,,,SPECI,51.0
KMMT 120456Z AUTO 05004KT 10SM CLR 00/M05 A3038 RMK AO2 SLP292 T10031049 400841019 $,KMMT,2019-01-12T04:56:00Z,33.92,-80.78,-0.3,-4.9,50,4,,10.0,30.380905,1029.2,,TRUE,TRUE,TRUE,,,,,,CLR,,,,,,,,VFR,,,,8.4,-1.9,,,,,,,SPECI,77.0
KMGE 120456Z AUTO 08005KT 10SM BKN095 06/M05 A3028 RMK AO2 SLP259 T00581052 401181028 $,KMGE,2019-01-12T04:56:00Z,33.92,-84.52,5.8,-5.2,80,5,,10.0,30.280512,1025.9,,TRUE,TRUE,TRUE,,,,,,BKN,9500,,,,,,,VFR,,,,11.8,-2.8,,,,,,,SPECI,326.0
KLRF 120456Z AUTO 08003KT 10SM FEW055 OVC070 03/01 A3008 RMK AO2 SLP191 T00340006 $,KLRF,2019-01-12T04:56:00Z,34.92,-92.15,3.4,0.6,80,3,,10.0,30.079725,1019.1,,TRUE,TRUE,TRUE,,,,,,FEW,5500,OVC,7000,,,,,VFR,,,,,,,,,,,,SPECI,95.0
KHRT 120456Z AUTO 00000KT 10SM CLR 06/03 A3016 RMK AO2 SLP215 T00550030 $,KHRT,2019-01-12T04:56:00Z,30.42,-86.67,5.5,3.0,0,0,,10.0,30.159449,1021.5,,TRUE,TRUE,TRUE,,,,,,CLR,,,,,,,,VFR,,,,,,,,,,,,SPECI,12.0
KGSB 120456Z AUTO 00000KT 10SM CLR M01/M07 A3041 RMK AO2 SLP302 T10151068 400741032 $,KGSB,2019-01-12T04:56:00Z,35.32,-77.97,-1.5,-6.8,0,0,,10.0,30.410433,1030.2,,TRUE,TRUE,TRUE,,,,,,CLR,,,,,,,,VFR,,,,7.4,-3.2,,,,,,,SPECI,33.0
KCBM 120456Z AUTO 00000KT 10SM OVC160 06/00 A3018 RMK AO2 SLP224 T00640003,KCBM,2019-01-12T04:56:00Z,33.63,-88.45,6.4,0.3,0,0,,10.0,30.180119,1022.4,,TRUE,TRUE,,,,,,,OVC,16000,,,,,,,VFR,,,,,,,,,,,,SPECI,67.0
KBIX 120456Z AUTO 05006KT 10SM OVC034 11/07 A3015 RMK AO2 SLP213 T01090070,KBIX,2019-01-12T04:56:00Z,30.42,-88.92,10.9,7.0,50,6,,10.0,30.15059,1021.3,,TRUE,TRUE,,,,,,,OVC,3400,,,,,,,VFR,,,,,,,,,,,,SPECI,10.0
KNBC 120456Z 04007KT 10SM CLR 04/01 A3034 RMK AO2 SLP275 T00440006 401110000,KNBC,2019-01-12T04:56:00Z,32.47,-80.72,4.4,0.6,40,7,,10.0,30.339567,1027.5,,,TRUE,,,,,,,CLR,,,,,,,,VFR,,,,11.1,,,,,,,,METAR,12.0
KNID 120456Z AUTO 00000KT 10SM CLR 06/M01 A3004 RMK AO2 SLP173 T00561011,KNID,2019-01-12T04:56:00Z,35.67,-117.67,5.6,-1.1,0,0,,10.0,30.041338,1017.3,,TRUE,TRUE,,,,,,,CLR,,,,,,,,VFR,,,,,,,,,,,,SPECI,696.0
KNUC 120456Z AUTO 13008KT SCT080 13/ A3000 RMK AO2 SLP157 T0128 $,KNUC,2019-01-12T04:56:00Z,33.02,-118.57,12.8,,130,8,,,30.0,1015.7,,TRUE,TRUE,TRUE,,,,,,SCT,8000,,,,,,,,,,,,,,,,,,,METAR,55.0
KALK 120456Z AUTO 25005KT 10SM CLR 05/M01 A3016 RMK AO2 SLP172 T00501011,KALK,2019-01-12T04:56:00Z,31.6,-110.43,5.0,-1.1,250,5,,10.0,30.159449,1017.2,,TRUE,TRUE,,,,,,,CLR,,,,,,,,VFR,,,,,,,,,,,,SPECI,1453.0
PHBK 120456Z AUTO 00000KT 10SM CLR 23/19 A3001 RMK AO2 SLP164 T02280189,PHBK,2019-01-12T04:56:00Z,22.03,-159.78,22.8,18.9,0,0,,10.0,30.008858,1016.4,,TRUE,TRUE,,,,,,,CLR,,,,,,,,VFR,,,,,,,,,,,,METAR,8.0
KAQV 120456Z AUTO 17004KT 10SM OVC110 09/04 A3003 RMK AO2 SLP171 T00890044,KAQV,2019-01-12T04:56:00Z,31.4,-93.3,8.9,4.4,170,4,,10.0,30.029528,1017.1,,TRUE,TRUE,,,,,,,OVC,11000,,,,,,,VFR,,,,,,,,,,,,SPECI,111.0
KP53 120456Z AUTO VRB03KT M07/M10 A3041 RMK AO1 SLP311 T10721100 410671100,KP53,2019-01-12T04:56:00Z,46.42,-86.65,-7.2,-10.0,0,3,,,30.410433,1031.1,,TRUE,TRUE,,,,,,,,,,,,,,,,,,,-6.7,-10.0,,,,,,,SPECI,187.0
K8D3 120456Z AUTO 35012KT M08/M09 A3028 RMK AO1 SLP286 T10781094,K8D3,2019-01-12T04:56:00Z,45.67,-96.98,-7.8,-9.4,350,12,,,30.280512,1028.6,,TRUE,TRUE,,,,,,,,,,,,,,,,,,,,,,,,,,,METAR,354.0
KNCA 120456Z AUTO 02004KT 10SM CLR 01/M05 A3042 RMK AO2 SLP303 T00061050 400781039,KNCA,2019-01-12T04:56:00Z,34.72,-77.45,0.6,-5.0,20,4,,10.0,30.41929,1030.3,,TRUE,TRUE,,,,,,,CLR,,,,,,,,VFR,,,,7.8,-3.9,,,,,,,METAR,8.0
K2WX 120456Z AUTO 05012KT M07/M08 A3019 RMK AO1 SLP260 T10671083,K2WX,2019-01-12T04:56:00Z,45.6,-103.55,-6.7,-8.3,50,12,,,30.188976,1026.0,,TRUE,TRUE,,,,,,,,,,,,,,,,,,,,,,,,,,,SPECI,915.0
KNUW 120456Z 11010KT 10SM SCT160 BKN250 07/03 A2997 RMK AO2 SLP147 T00670028 $,KNUW,2019-01-12T04:56:00Z,48.35,-122.65,6.7,2.8,110,10,,10.0,29.970472,1014.7,,,TRUE,TRUE,,,,,,SCT,16000,BKN,25000,,,,,VFR,,,,,,,,,,,,SPECI,14.0
KMQE 120456Z AUTO 31014G24KT M11/M18 A3027 RMK AO1 PK WND 31028/0357 SLP272 T11111178 410391111,KMQE,2019-01-12T04:56:00Z,42.22,-71.12,-11.1,-17.8,310,14,24,,30.268702,1027.2,,TRUE,TRUE,,,,,,,,,,,,,,,,,,,-3.9,-11.1,,,,,,,SPECI,199.0
KNFL 120456Z VRB03KT 10SM CLR 02/M01 A3005 RMK AO2 SLP143 T00171006,KNFL,2019-01-12T04:56:00Z,39.42,-118.7,1.7,-0.6,0,3,,10.0,30.050198,1014.3,,,TRUE,,,,,,,CLR,,,,,,,,VFR,,,,,,,,,,,,SPECI,1199.0
KP28 120456Z AUTO 04012G19KT 02/02 A2991 RMK AO1 SLP139 P0001 T00220017,KP28,2019-01-12T04:56:00Z,37.28,-98.55,2.2,1.7,40,12,19,,29.911417,1013.9,,TRUE,TRUE,,,,,,,,,,,,,,,,,,,,,0.01,,,,,,METAR,469.0
KPRN 120456Z AUTO 00000KT 10SM CLR 04/00 A3019 RMK AO2 SLP224 T00390000,KPRN,2019-01-12T04:56:00Z,31.85,-86.62,3.9,0.0,0,0,,10.0,30.188976,1022.4,,TRUE,TRUE,,,,,,,CLR,,,,,,,,VFR,,,,,,,,,,,,SPECI,138.0
K79J 120456Z AUTO 00000KT 10SM CLR 06/02 A3020 RMK AO2 SLP224 T00560017 401670006,K79J,2019-01-12T04:56:00Z,31.32,-86.4,5.6,1.7,0,0,,10.0,30.200787,1022.4,,TRUE,TRUE,,,,,,,CLR,,,,,,,,VFR,,,,16.7,0.6,,,,,,,METAR,94.0
KNPA 120456Z AUTO 04003KT 10SM CLR 09/07 A3017 RMK AO2 SLP216 T00940067,KNPA,2019-01-12T04:56:00Z,30.35,-87.32,9.4,6.7,40,3,,10.0,30.171259,1021.6,,TRUE,TRUE,,,,,,,CLR,,,,,,,,VFR,,,,,,,,,,,,METAR,9.0
KMHS 120456Z AUTO 00000KT 10SM BKN055 05/M01 A2992 RMK AO2 SLP158 T00501006,KMHS,2019-01-12T04:56:00Z,41.32,-122.32,5.0,-0.6,0,0,,10.0,29.920275,1015.8,,TRUE,TRUE,,,,,,,BKN,5500,,,,,,,VFR,,,,,,,,,,,,SPECI,1078.0
KNYG 120456Z AUTO 29005KT 10SM CLR M02/M06 A3047 RMK AO2 SLP320 T10221056 401061028,KNYG,2019-01-12T04:56:00Z,38.5,-77.28,-2.2,-5.6,290,5,,10.0,30.469488,1032.0,,TRUE,TRUE,,,,,,,CLR,,,,,,,,VFR,,,,10.6,-2.8,,,,,,,SPECI,4.0
KBVX 120456Z AUTO 10008KT 6SM BR OVC005 01/01 A3012 RMK AO2 SLP202 T00110006 FZRANO,KBVX,2019-01-12T04:56:00Z,35.73,-91.65,1.1,0.6,100,8,,6.0,30.121063,1020.2,,TRUE,TRUE,,,,TRUE,,BR,OVC,500,,,,,,,IFR,,,,,,,,,,,,METAR,141.0
KBTP 120456Z AUTO 00000KT 10SM FEW085 M08/M10 A3038 RMK AO2 SLP314 T10831100 410061089 FZRANO,KBTP,2019-01-12T04:56:00Z,40.77,-79.95,-8.3,-10.0,0,0,,10.0,30.380905,1031.4,,TRUE,TRUE,,,,TRUE,,,FEW,8500,,,,,,,VFR,,,,-0.6,-8.9,,,,,,,SPECI,380.0
KBOK 120456Z AUTO 12006KT 10SM OVC070 13/07 A2982 RMK AO2 SLP116 T01330072,KBOK,2019-01-12T04:56:00Z,42.07,-124.28,13.3,7.2,120,6,,10.0,29.819881,1011.6,,TRUE,TRUE,,,,,,,OVC,7000,,,,,,,VFR,,,,,,,,,,,,SPECI,140.0
KBLM 120456Z AUTO 28006KT 10SM CLR M05/M15 A3044 RMK AO2 SLP314 T10501150 400061056 FZRANO,KBLM,2019-01-12T04:56:00Z,40.17,-74.12,-5.0,-15.0,280,6,,10.0,30.43996,1031.4,,TRUE,TRUE,,,,TRUE,,,CLR,,,,,,,,VFR,,,,0.6,-5.6,,,,,,,METAR,48.0
KBID 120456Z AUTO 32009G14KT 280V350 10SM CLR M08/M16 A3038 RMK AO2 SLP292 T10781161 FZRANO,KBID,2019-01-12T04:56:00Z,41.17,-71.58,-7.8,-16.1,320,9,14,10.0,30.380905,1029.2,,TRUE,TRUE,,,,TRUE,,,CLR,,,,,,,,VFR,,,,,,,,,,,,METAR,33.0
KBHB 120456Z AUTO VRB06KT 10SM CLR M14/M20 A3017 RMK AO2 SLP220 T11441200 FZRANO $,KBHB,2019-01-12T04:56:00Z,44.45,-68.37,-14.4,-20.0,0,6,,10.0,30.171259,1022.0,,TRUE,TRUE,TRUE,,,TRUE,,,CLR,,,,,,,,VFR,,,,,,,,,,,,SPECI,26.0
KAWO 120456Z AUTO 00000KT 10SM CLR 04/04 A2995 RMK AO2 SLP147 T00440039,KAWO,2019-01-12T04:56:00Z,48.17,-122.17,4.4,3.9,0,0,,10.0,29.949802,1014.7,,TRUE,TRUE,,,,,,,CLR,,,,,,,,VFR,,,,,,,,,,,,SPECI,42.0
KAUO 120456Z AUTO 10006KT 10SM FEW030 07/M02 A3024 RMK AO2 SLP265 T00721022,KAUO,2019-01-12T04:56:00Z,32.62,-85.42,7.2,-2.2,100,6,,10.0,30.239174,1026.5,,TRUE,TRUE,,,,,,,FEW,3000,,,,,,,VFR,,,,,,,,,,,,METAR,236.0
PPIZ 120456Z AUTO 04010KT 7SM -SN FEW043 M35/ A3032 RMK AO2 SNB38 SLP271 P0000 T1350 FZRANO,PPIZ,2019-01-12T04:56:00Z,69.73,-163.0,-35.0,,40,10,,7.0,30.318897,1027.1,,TRUE,TRUE,,,,TRUE,,-SN,FEW,4300,,,,,,,VFR,,,,,,0.005,,,,,,SPECI,8.0
PFKT 120456Z AUTO 11013KT 9SM CLR M32/M35 A3003 RMK AO2 SNB12E24 SLP172 P0000 T13221350 FZRANO,PFKT,2019-01-12T04:56:00Z,65.33,-166.47,-32.2,-35.0,110,13,,9.0,30.029528,1017.2,,TRUE,TRUE,,,,TRUE,,,CLR,,,,,,,,VFR,,,,,,0.005,,,,,,METAR,9.0
KFCI 120456Z AUTO 00000KT 10SM CLR M03/M07 A3045 RMK AO2 SLP329 T10331072 FZRANO,KFCI,2019-01-12T04:56:00Z,37.4,-77.52,-3.3,-7.2,0,0,,10.0,30.448818,1032.9,,TRUE,TRUE,,,,TRUE,,,CLR,,,,,,,,VFR,,,,,,,,,,,,SPECI,72.0
KFAM 120456Z AUTO 15005KT 5SM UP BR OVC006 M01/M01 A3017 RMK AO2 UPB13SNE13 SLP225 P0000 T10061011 FZRANO,KFAM,2019-01-12T04:56:00Z,37.77,-90.42,-0.6,-1.1,150,5,,5.0,30.171259,1022.5,,TRUE,TRUE,,,,TRUE,,BR UP,OVC,600,,,,,,,IFR,,,,,,0.005,,,,,,SPECI,288.0
KNFE 120456Z AUTO 00000KT 10SM CLR M03/M07 A3044 RMK AO2 SLP309 T10331072 400611033,KNFE,2019-01-12T04:56:00Z,36.7,-76.13,-3.3,-7.2,0,0,,10.0,30.43996,1030.9,,TRUE,TRUE,,,,,,,CLR,,,,,,,,VFR,,,,6.1,-3.3,,,,,,,SPECI,5.0
KNMM 120456Z AUTO 00000KT 10SM CLR 06/00 A3019 RMK AO2 SLP234 T00560000 CHINO SOUTH VISNO SOUTH $,KNMM,2019-01-12T04:56:00Z,32.53,-88.57,5.6,0.0,0,0,,10.0,30.188976,1023.4,,TRUE,TRUE,TRUE,,,,,,CLR,,,,,,,,VFR,,,,,,,,,,,,METAR,97.0
KVPZ 120456Z AUTO 11005KT 10SM OVC075 M01/M07 A3033 RMK AO2 SLP279 T10111067 TSNO,KVPZ,2019-01-12T04:56:00Z,41.45,-87.0,-1.1,-6.7,110,5,,10.0,30.33071,1027.9,,TRUE,TRUE,,,TRUE,,,,OVC,7500,,,,,,,VFR,,,,,,,,,,,,SPECI,231.0
KLNR 120456Z AUTO 11005KT 10SM OVC060 M02/M05 A3029 RMK AO2 SLP263 T10171050,KLNR,2019-01-12T04:56:00Z,43.22,-90.18,-1.7,-5.0,110,5,,10.0,30.28937,1026.3,,TRUE,TRUE,,,,,,,OVC,6000,,,,,,,VFR,,,,,,,,,,,,SPECI,217.0
KDYS 120456Z 30009KT 10SM FEW090 10/07 A2997 RMK AO2A SLP148 WND DATA ESTMD ALSTG/SLP ESTMD PNO $,KDYS,2019-01-12T04:56:00Z,32.42,-99.83,10.0,7.0,300,9,,10.0,29.970472,1014.8,,,TRUE,TRUE,,,,,,FEW,9000,,,,,,,VFR,,,,,,,,,,,,METAR,545.0
KLGD 120456Z AUTO 17024G30KT 10SM CLR 04/M01 A3013 RMK AO2 PK WND 18032/0446 SLP338 T00441011,KLGD,2019-01-12T04:56:00Z,45.27,-118.0,4.4,-1.1,170,24,30,10.0,30.129921,1033.8,,TRUE,TRUE,,,,,,,CLR,,,,,,,,VFR,,,,,,,,,,,,SPECI,827.0
KLEW 120456Z AUTO 32010G22KT 290V350 10SM CLR M14/M21 A3025 RMK AO2 SLP261 T11441211 FZRANO,KLEW,2019-01-12T04:56:00Z,44.03,-70.27,-14.4,-21.1,320,10,22,10.0,30.250984,1026.1,,TRUE,TRUE,,,,TRUE,,,CLR,,,,,,,,VFR,,,,,,,,,,,,METAR,88.0
KLCI 120456Z AUTO 23007KT 10SM CLR M16/M21 A3028 RMK AO2 SLP276 T11611211 410721167 FZRANO $,KLCI,2019-01-12T04:56:00Z,43.57,-71.42,-16.1,-21.1,230,7,,10.0,30.280512,1027.6,,TRUE,TRUE,TRUE,,,TRUE,,,CLR,,,,,,,,VFR,,,,-7.2,-16.7,,,,,,,METAR,166.0
KKLS 120456Z AUTO 00000KT 10SM CLR 03/03 A2994 RMK AO2 SLP144 T00330028,KKLS,2019-01-12T04:56:00Z,46.12,-122.9,3.3,2.8,0,0,,10.0,29.940945,1014.4,,TRUE,TRUE,,,,,,,CLR,,,,,,,,VFR,,,,,,,,,,,,SPECI,5.0
KJRB 120456Z AUTO 00000KT 10SM CLR M03/M12 A3044 RMK AO2 SLP308 T10331117 400281050 FZRANO,KJRB,2019-01-12T04:56:00Z,40.7,-74.02,-3.3,-11.7,0,0,,10.0,30.43996,1030.8,,TRUE,TRUE,,,,TRUE,,,CLR,,,,,,,,VFR,,,,2.8,-5.0,,,,,,,SPECI,7.0
KIWD 120456Z AUTO 08004KT 10SM OVC046 M06/M08 A3032 RMK AO2 SLP289 T10611083 FZRANO PNO $,KIWD,2019-01-12T04:56:00Z,46.52,-90.12,-6.1,-8.3,80,4,,10.0,30.318897,1028.9,,TRUE,TRUE,TRUE,,,TRUE,,,OVC,4600,,,,,,,VFR,,,,,,,,,,,,METAR,375.0
KITH 120456Z AUTO 00000KT 10SM SCT120 M17/M18 A3041 RMK AO2 SLP323 T11671183 410941183,KITH,2019-01-12T04:56:00Z,42.47,-76.45,-16.7,-18.3,0,0,,10.0,30.410433,1032.3,,TRUE,TRUE,,,,,,,SCT,12000,,,,,,,VFR,,,,-9.4,-18.3,,,,,,,SPECI,335.0
KGVQ 120456Z AUTO 23003KT 10SM OVC090 M09/M14 A3043 RMK AO2 SLP336 T10941144 410831133 FZRANO,KGVQ,2019-01-12T04:56:00Z,43.03,-78.17,-9.4,-14.4,230,3,,10.0,30.431103,1033.6,,TRUE,TRUE,,,,TRUE,,,OVC,9000,,,,,,,VFR,,,,-8.3,-13.3,,,,,,,SPECI,278.0
KGTU 120456Z AUTO 19004KT 8SM CLR 13/12 A2997 RMK AO2 SLP150 T01280122,KGTU,2019-01-12T04:56:00Z,30.68,-97.68,12.8,12.2,190,4,,8.0,29.970472,1015.0,,TRUE,TRUE,,,,,,,CLR,,,,,,,,VFR,,,,,,,,,,,,SPECI,240.0
KGTR 120456Z AUTO 11004KT 10SM CLR 08/M01 A3018 RMK AO2 SLP223 T00781011,KGTR,2019-01-12T04:56:00Z,33.45,-88.57,7.8,-1.1,110,4,,10.0,30.180119,1022.3,,TRUE,TRUE,,,,,,,CLR,,,,,,,,VFR,,,,,,,,,,,,METAR,80.0
KGPZ 120456Z AUTO VRB04KT 6SM BR OVC008 M06/M07 A3031 RMK AO2 SLP291 T10561067 FZRANO,KGPZ,2019-01-12T04:56:00Z,47.22,-93.52,-5.6,-6.7,0,4,,6.0,30.31004,1029.1,,TRUE,TRUE,,,,TRUE,,BR,OVC,800,,,,,,,IFR,,,,,,,,,,,,SPECI,413.0
KGDV 120456Z AUTO 06004KT 10SM CLR M11/M13 A3027 RMK AO2 SLP296 T11061128 FZRANO,KGDV,2019-01-12T04:56:00Z,47.12,-104.78,-10.6,-12.8,60,4,,10.0,30.268702,1029.6,,TRUE,TRUE,,,,TRUE,,,CLR,,,,,,,,VFR,,,,,,,,,,,,SPECI,749.0
KGAI 120456Z AUTO 00000KT 10SM CLR M05/M08 A3043 RMK AO2 SLP340 T10501078 400221056 FZRANO,KGAI,2019-01-12T04:56:00Z,39.17,-77.17,-5.0,-7.8,0,0,,10.0,30.431103,1034.0,,TRUE,TRUE,,,,TRUE,,,CLR,,,,,,,,VFR,,,,2.2,-5.6,,,,,,,SPECI,165.0
KGAD 120456Z AUTO 00000KT 10SM CLR 05/02 A3025 RMK AO2 SLP252 T00500022,KGAD,2019-01-12T04:56:00Z,33.97,-86.07,5.0,2.2,0,0,,10.0,30.250984,1025.2,,TRUE,TRUE,,,,,,,CLR,,,,,,,,VFR,,,,,,,,,,,,METAR,173.0
KFRM 120456Z AUTO 09004KT 10SM CLR M04/M06 A3020 RMK AO2 SLP248 T10391056 FZRANO,KFRM,2019-01-12T04:56:00Z,43.63,-94.42,-3.9,-5.6,90,4,,10.0,30.200787,1024.8,,TRUE,TRUE,,,,TRUE,,,CLR,,,,,,,,VFR,,,,,,,,,,,,SPECI,354.0
KFOD 120456Z AUTO 10006KT 10SM OVC030 M01/M03 A3017 RMK AO2 SLP259 T10061028 400061061 FZRANO,KFOD,2019-01-12T04:56:00Z,42.53,-94.17,-0.6,-2.8,100,6,,10.0,30.171259,1025.9,,TRUE,TRUE,,,,TRUE,,,OVC,3000,,,,,,,MVFR,,,,0.6,-6.1,,,,,,,SPECI,355.0
KFNL 120456Z AUTO 35009KT 10SM -RA FEW029 SCT034 OVC048 01/01 A3019 RMK AO2 UPB03E06RAB06SNE03 SLP234 T00110006 FZRANO PNO $,KFNL,2019-01-12T04:56:00Z,40.45,-105.02,1.1,0.6,350,9,,10.0,30.188976,1023.4,,TRUE,TRUE,TRUE,,,TRUE,,-RA,FEW,2900,SCT,3400,OVC,4800,,,VFR,,,,,,,,,,,,SPECI,1529.0
KFLP 120456Z AUTO 08005KT 8SM -RA OVC007 01/00 A3011 RMK AO2 RAB21 SLP202 P0000 T00110000 FZRANO,KFLP,2019-01-12T04:56:00Z,36.28,-92.58,1.1,0.0,80,5,,8.0,30.109253,1020.2,,TRUE,TRUE,,,,TRUE,,-RA,OVC,700,,,,,,,IFR,,,,,,0.005,,,,,,METAR,219.0
KFKL 120456Z AUTO 07003KT 10SM OVC075 M09/M11 A3037 RMK AO2 SLP309 T10891111 400061100 FZRANO,KFKL,2019-01-12T04:56:00Z,41.37,-79.87,-8.9,-11.1,70,3,,10.0,30.369095,1030.9,,TRUE,TRUE,,,,TRUE,,,OVC,7500,,,,,,,VFR,,,,0.6,-10.0,,,,,,,SPECI,469.0
KVIS 120456Z AUTO 06005KT 4SM BR CLR 10/10 A2990 RMK AO2 SLP135 T01000100 PNO $,KVIS,2019-01-12T04:56:00Z,36.32,-119.4,10.0,10.0,60,5,,4.0,29.899607,1013.5,,TRUE,TRUE,TRUE,,,,,BR,CLR,,,,,,,,MVFR,,,,,,,,,,,,SPECI,89.0
KUDG 120456Z AUTO 00000KT 10SM CLR M03/M05 A3040 RMK AO2 SLP302 T10331050 FZRANO,KUDG,2019-01-12T04:56:00Z,34.45,-79.88,-3.3,-5.0,0,0,,10.0,30.398623,1030.2,,TRUE,TRUE,,,,TRUE,,,CLR,,,,,,,,VFR,,,,,,,,,,,,METAR,59.0
KUCP 120456Z AUTO 00000KT 10SM OVC090 M07/M08 A3040 RMK AO2 SLP328 T10671083 400061089,KUCP,2019-01-12T04:56:00Z,41.03,-80.42,-6.7,-8.3,0,0,,10.0,30.398623,1032.8,,TRUE,TRUE,,,,,,,OVC,9000,,,,,,,VFR,,,,0.6,-8.9,,,,,,,SPECI,327.0
KSUE 120456Z AUTO 06003KT 10SM OVC016 M02/M05 A3035 RMK AO2 SLP304 T10221050 FZRANO,KSUE,2019-01-12T04:56:00Z,44.85,-87.42,-2.2,-5.0,60,3,,10.0,30.351377,1030.4,,TRUE,TRUE,,,,TRUE,,,OVC,1600,,,,,,,MVFR,,,,,,,,,,,,METAR,221.0
KSRC 120456Z AUTO 04004KT 10SM FEW007 OVC060 03/03 A3011 RMK AO2 SLP208 T00280028 400330017,KSRC,2019-01-12T04:56:00Z,35.22,-91.73,2.8,2.8,40,4,,10.0,30.109253,1020.8,,TRUE,TRUE,,,,,,,FEW,700,OVC,6000,,,,,VFR,,,,3.3,1.7,,,,,,,METAR,80.0
KSQI 120456Z AUTO 12006KT 10SM OVC080 M02/M04 A3029 RMK AO2 SLP280 T10171039 FZRANO,KSQI,2019-01-12T04:56:00Z,41.75,-89.67,-1.7,-3.9,120,6,,10.0,30.28937,1028.0,,TRUE,TRUE,,,,TRUE,,,OVC,8000,,,,,,,VFR,,,,,,,,,,,,SPECI,197.0
KSOP 120456Z AUTO 00000KT 10SM CLR M02/M04 A3040 RMK AO2 SLP316 T10171039 FZRANO,KSOP,2019-01-12T04:56:00Z,35.22,-79.4,-1.7,-3.9,0,0,,10.0,30.398623,1031.6,,TRUE,TRUE,,,,TRUE,,,CLR,,,,,,,,VFR,,,,,,,,,,,,METAR,141.0
KSMN 120456Z AUTO 16006KT 10SM OVC027 M01/M04 A3032 RMK AO2 SLP305 T10061044 FZRANO,KSMN,2019-01-12T04:56:00Z,45.12,-113.87,-0.6,-4.4,160,6,,10.0,30.318897,1030.5,,TRUE,TRUE,,,,TRUE,,,OVC,2700,,,,,,,MVFR,,,,,,,,,,,,SPECI,1233.0
KEUL 120456Z AUTO 11014KT 1 1/4SM HZ CLR 02/M01 A3021 RMK AO2 SLP245 T00221011 FZRANO $,KEUL,2019-01-12T04:56:00Z,43.62,-116.62,2.2,-1.1,110,14,,1.25,30.209646,1024.5,,TRUE,TRUE,TRUE,,,TRUE,,HZ,CLR,,,,,,,,IFR,,,,,,,,,,,,SPECI,740.0
KESC 120456Z AUTO 05006KT 5SM UP BR OVC006 M04/M05 A3037 RMK AO2 UPB53SNE53 SLP313 P0000 T10441050 410281100 FZRANO,KESC,2019-01-12T04:56:00Z,45.75,-87.08,-4.4,-5.0,50,6,,5.0,30.369095,1031.3,,TRUE,TRUE,,,,TRUE,,BR UP,OVC,600,,,,,,,IFR,,,,-2.8,-10.0,0.005,,,,,,SPECI,187.0
KEKY 120456Z AUTO 11004KT 10SM CLR 08/M02 A3022 RMK AO2 SLP254 T00831022,KEKY,2019-01-12T04:56:00Z,33.32,-86.93,8.3,-2.2,110,4,,10.0,30.221457,1025.4,,TRUE,TRUE,,,,,,,CLR,,,,,,,,VFR,,,,,,,,,,,,METAR,213.0
KEKQ 120456Z AUTO 34007KT 10SM -RA BKN037 OVC050 02/M03 A3031 RMK AO2 RAB02E30B54 SLP290 T00221028 PNO $,KEKQ,2019-01-12T04:56:00Z,36.85,-84.85,2.2,-2.8,340,7,,10.0,30.31004,1029.0,,TRUE,TRUE,TRUE,,,,,-RA,BKN,3700,OVC,5000,,,,,VFR,,,,,,,,,,,,METAR,294.0
KEEN 120456Z AUTO 00000KT 10SM CLR M13/M19 A3034 RMK AO2 SLP297 T11331194 410561133 FZRANO $,KEEN,2019-01-12T04:56:00Z,42.88,-72.27,-13.3,-19.4,0,0,,10.0,30.339567,1029.7,,TRUE,TRUE,TRUE,,,TRUE,,,CLR,,,,,,,,VFR,,,,-5.6,-13.3,,,,,,,SPECI,149.0
KDYR 120456Z AUTO 09008KT 10SM OVC060 02/01 A3017 RMK AO2 RAE46 SLP233 T00170006 FZRANO PNO $,KDYR,2019-01-12T04:56:00Z,36.0,-89.4,1.7,0.6,90,8,,10.0,30.171259,1023.3,,TRUE,TRUE,TRUE,,,TRUE,,,OVC,6000,,,,,,,VFR,,,,,,,,,,,,METAR,103.0
KDWU 120456Z AUTO 05004KT 10SM OVC110 M01/M06 A3036 RMK AO2 SLP288 T10111061 FZRANO PNO $,KDWU,2019-01-12T04:56:00Z,38.55,-82.73,-1.1,-6.1,50,4,,10.0,30.360237,1028.8,,TRUE,TRUE,TRUE,,,TRUE,,,OVC,11000,,,,,,,VFR,,,,,,,,,,,,METAR,166.0
KDVL 120456Z AUTO 36010KT 4SM -SN BR OVC004 M12/M13 A3037 RMK AO2 SLP337 P0000 T11171128 411001178 FZRANO,KDVL,2019-01-12T04:56:00Z,48.12,-98.92,-11.7,-12.8,360,10,,4.0,30.369095,1033.7,,TRUE,TRUE,,,,TRUE,,-SN BR,OVC,400,,,,,,,LIFR,,,,-10.0,-17.8,0.005,,,,,,SPECI,443.0
KCWI 120456Z AUTO 12008KT 10SM BKN031 OVC080 M02/M04 A3027 RMK AO2 SLP280 T10171039 FZRANO,KCWI,2019-01-12T04:56:00Z,41.82,-90.32,-1.7,-3.9,120,8,,10.0,30.268702,1028.0,,TRUE,TRUE,,,,TRUE,,,BKN,3100,OVC,8000,,,,,VFR,,,,,,,,,,,,SPECI,216.0
KCVN 120456Z AUTO 33015G19KT 10SM CLR 02/01 A3001 RMK AO2 SLP167 T00170006 FZRANO,KCVN,2019-01-12T04:56:00Z,34.42,-103.07,1.7,0.6,330,15,19,10.0,30.008858,1016.7,,TRUE,TRUE,,,,TRUE,,,CLR,,,,,,,,VFR,,,,,,,,,,,,SPECI,1284.0
KCOE 120456Z AUTO 03010KT 10SM OVC006 01/00 A3016 RMK AO2 SLP250 T00110000 FZRANO,KCOE,2019-01-12T04:56:00Z,47.77,-116.82,1.1,0.0,30,10,,10.0,30.159449,1025.0,,TRUE,TRUE,,,,TRUE,,,OVC,600,,,,,,,IFR,,,,,,,,,,,,SPECI,707.0
KCOD 120456Z AUTO 35003KT 10SM CLR M06/M09 A3020 RMK AO2 SLP270 T10611094 FZRANO,KCOD,2019-01-12T04:56:00Z,44.52,-109.02,-6.1,-9.4,350,3,,10.0,30.200787,1027.0,,TRUE,TRUE,,,,TRUE,,,CLR,,,,,,,,VFR,,,,,,,,,,,,SPECI,1553.0
KCIU 120456Z AUTO 06005KT 10SM -SN OVC080 M12/M13 A3044 RMK AO2 SNE39B56 SLP338 P0000 T11171133 410721189 FZRANO,KCIU,2019-01-12T04:56:00Z,46.25,-84.47,-11.7,-13.3,60,5,,10.0,30.43996,1033.8,,TRUE,TRUE,,,,TRUE,,-SN,OVC,8000,,,,,,,VFR,,,,-7.2,-18.9,0.005,,,,,,METAR,244.0
KCGZ 120456Z AUTO 00000KT 10SM CLR 09/07 A3009 RMK AO2 SLP193 T00890067 $,KCGZ,2019-01-12T04:56:00Z,32.95,-111.77,8.9,6.7,0,0,,10.0,30.088583,1019.3,,TRUE,TRUE,TRUE,,,,,,CLR,,,,,,,,VFR,,,,,,,,,,,,SPECI,446.0
PMDY 120456Z AUTO 18017KT BKN016 OVC022 23/20 A2974 RMK AO2 SLP071 T02280200 PWINO $,PMDY,2019-01-12T04:56:00Z,28.22,-177.37,22.8,20.0,180,17,,,29.740158,1007.1,,TRUE,TRUE,TRUE,,,,TRUE,,BKN,1600,OVC,2200,,,,,,,,,,,,,,,,,METAR,4.0
PAWN 120456Z AUTO VRB05KT 9SM CLR M36/ A3005 RMK AO2 SLP194 T1356 FZRANO,PAWN,2019-01-12T04:56:00Z,67.57,-162.98,-35.6,,0,5,,9.0,30.050198,1019.4,,TRUE,TRUE,,,,TRUE,,,CLR,,,,,,,,VFR,,,,,,,,,,,,METAR,30.0
PAWM 120456Z AUTO 36010KT 10SM CLR M32/M35 A2994 RMK AO2 SLP153 T13171350 FZRANO,PAWM,2019-01-12T04:56:00Z,64.68,-163.42,-31.7,-35.0,360,10,,10.0,29.940945,1015.3,,TRUE,TRUE,,,,TRUE,,,CLR,,,,,,,,VFR,,,,,,,,,,,,METAR,82.0
PAVD 120456Z 13003KT 8SM -SN FEW001 SCT035 BKN070 M11/M12 A2972 RMK AO2 SLP091 P0000 T11061122,PAVD,2019-01-12T04:56:00Z,61.13,-146.25,-10.6,-12.2,130,3,,8.0,29.719488,1009.1,,,TRUE,,,,,,-SN,FEW,100,SCT,3500,BKN,7000,,,VFR,,,,,,0.005,,,,,,METAR,37.0
PAVC 120456Z AUTO 06018G26KT 10SM UP SCT017 BKN030 OVC048 02/M01 A2920 RMK AO2 PK WND 06029/0400 RAE29UPB29 SLP893 P0000 T00171006 FZRANO,PAVC,2019-01-12T04:56:00Z,55.12,-162.27,1.7,-0.6,60,18,26,10.0,29.199802,989.3,,TRUE,TRUE,,,,TRUE,,UP,SCT,1700,BKN,3000,OVC,4800,,,MVFR,,,,,,0.005,,,,,,METAR,47.0
PAVA 120456Z AUTO 04012KT 10SM CLR M30/M33 A2984 RMK AO2 SLP200 T13001328 FZRANO PNO $,PAVA,2019-01-12T04:56:00Z,61.53,-165.6,-30.0,-32.8,40,12,,10.0,29.840551,1020.0,,TRUE,TRUE,TRUE,,,TRUE,,,CLR,,,,,,,,VFR,,,,,,,,,,,,METAR,23.0
PAUN 120456Z AUTO 05013KT 10SM CLR M29/M33 A2994 RMK AO2 SLP145 T12941333 FZRANO,PAUN,2019-01-12T04:56:00Z,63.88,-160.8,-29.4,-33.3,50,13,,10.0,29.940945,1014.5,,TRUE,TRUE,,,,TRUE,,,CLR,,,,,,,,VFR,,,,,,,,,,,,METAR,6.0
PASX 120456Z AUTO 05005KT 10SM CLR M19/M21 A2980 RMK AO2 SLP101 T11891206 FZRANO,PASX,2019-01-12T04:56:00Z,60.48,-151.03,-18.9,-20.6,50,5,,10.0,29.799213,1010.1,,TRUE,TRUE,,,,TRUE,,,CLR,,,,,,,,VFR,,,,,,,,,,,,METAR,32.0
PASH 120456Z AUTO 11003KT 10SM CLR M36/ A3007 RMK AO2 SLP184 T1356 FZRANO,PASH,2019-01-12T04:56:00Z,66.27,-166.08,-35.6,,110,3,,10.0,30.070866,1018.4,,TRUE,TRUE,,,,TRUE,,,CLR,,,,,,,,VFR,,,,,,,,,,,,METAR,2.0
PASD 120456Z AUTO 03009G19KT 10SM OVC019 03/01 A2922 RMK AO2 RAE49UPB22E27 SLP897 T00280006 PNO $,PASD,2019-01-12T04:56:00Z,55.33,-160.5,2.8,0.6,30,9,19,10.0,29.220472,989.7,,TRUE,TRUE,TRUE,,,,,,OVC,1900,,,,,,,MVFR,,,,,,,,,,,,METAR,7.0
PASA 120456Z AUTO 03007KT 10SM FEW017 SCT085 M26/M28 A3001 RMK AO2 SNE05 SLP166 P0000 T12561283 FZRANO $,PASA,2019-01-12T04:56:00Z,63.68,-170.5,-25.6,-28.3,30,7,,10.0,30.008858,1016.6,,TRUE,TRUE,TRUE,,,TRUE,,,FEW,1700,SCT,8500,,,,,VFR,,,,,,0.005,,,,,,METAR,16.0
PARY 120456Z AUTO 07007KT 10SM CLR M39/ A2990 RMK AO2 SLP164 T1389 FZRANO,PARY,2019-01-12T04:56:00Z,64.73,-155.47,-38.9,,70,7,,10.0,29.899607,1016.4,,TRUE,TRUE,,,,TRUE,,,CLR,,,,,,,,VFR,,,,,,,,,,,,METAR,199.0
PARS 120456Z AUTO 10004KT 10SM CLR M32/M34 A2982 RMK AO2 SLP104 T13171344 FZRANO $,PARS,2019-01-12T04:56:00Z,61.77,-161.32,-31.7,-34.4,100,4,,10.0,29.819881,1010.4,,TRUE,TRUE,TRUE,,,TRUE,,,CLR,,,,,,,,VFR,,,,,,,,,,,,METAR,16.0
PARC 120456Z AUTO 3SM -SN FEW032 OVC060 A2966 RMK AO2 SLPNO P0000 FZRANO $,PARC,2019-01-12T04:56:00Z,68.12,-145.58,,,,,,3.0,29.660433,,,TRUE,TRUE,TRUE,,,TRUE,,-SN,FEW,3200,OVC,6000,,,,,MVFR,,,,,,0.005,,,,,,METAR,636.0
PAPO 120456Z AUTO 04024KT 10SM CLR M24/M27 A3015 RMK AO2 PK WND 04032/0411 SLP209 T12391267 FZRANO,PAPO,2019-01-12T04:56:00Z,68.35,-166.8,-23.9,-26.7,40,24,,10.0,30.15059,1020.9,,TRUE,TRUE,,,,TRUE,,,CLR,,,,,,,,VFR,,,,,,,,,,,,METAR,6.0
PAPM 120456Z AUTO 01006KT 10SM CLR M26/M28 A2959 RMK AO2 SLP022 T12561283 FZRANO,PAPM,2019-01-12T04:56:00Z,59.02,-161.82,-25.6,-28.3,10,6,,10.0,29.589567,1002.2,,TRUE,TRUE,,,,TRUE,,,CLR,,,,,,,,VFR,,,,,,,,,,,,METAR,5.0
PAPH 120456Z AUTO 05018KT 10SM BKN055 M15/M17 A2938 RMK AO2 SLP952 T11501167 FZRANO,PAPH,2019-01-12T04:56:00Z,56.95,-158.62,-15.0,-16.7,50,18,,10.0,29.379921,995.2,,TRUE,TRUE,,,,TRUE,,,BKN,5500,,,,,,,VFR,,,,,,,,,,,,METAR,29.0
PAMM 120456Z AUTO 00000KT 5SM BR CLR 04/03 A2978 RMK AO2 SLP076 T00390033,PAMM,2019-01-12T04:56:00Z,55.13,-131.58,3.9,3.3,0,0,,5.0,29.778543,1007.6,,TRUE,TRUE,,,,,,BR,CLR,,,,,,,,MVFR,,,,,,,,,,,,METAR,1.0
PAMK 120456Z AUTO 04004KT 10SM CLR M29/M33 A2992 RMK AO2 SLP135 T12941328 FZRANO,PAMK,2019-01-12T04:56:00Z,63.48,-162.12,-29.4,-32.8,40,4,,10.0,29.920275,1013.5,,TRUE,TRUE,,,,TRUE,,,CLR,,,,,,,,VFR,,,,,,,,,,,,METAR,28.0
KSVN 120456Z AUTO 03005KT 10SM OVC050 06/00 A3030 RMK AO2 SLP264 T00600003 401321003 FZRANO $,KSVN,2019-01-12T04:56:00Z,32.02,-81.15,6.0,0.3,30,5,,10.0,30.301182,1026.4,,TRUE,TRUE,TRUE,,,TRUE,,,OVC,5000,,,,,,,VFR,,,,13.2,-0.3,,,,,,,SPECI,13.0
KOZR 120456Z AUTO 05004KT 10SM SCT036 05/01 A3020 RMK AO2 SLP230 T00480013,KOZR,2019-01-12T04:56:00Z,31.28,-85.72,4.8,1.3,50,4,,10.0,30.200787,1023.0,,TRUE,TRUE,,,,,,,SCT,3600,,,,,,,VFR,,,,,,,,,,,,SPECI,93.0
KMCF 120456Z AUTO 10008KT 10SM CLR 16/11 A3017 RMK AO2 SLP220 T01570109 402250058 FZRANO $,KMCF,2019-01-12T04:56:00Z,27.85,-82.52,15.7,10.9,100,8,,10.0,30.171259,1022.0,,TRUE,TRUE,TRUE,,,TRUE,,,CLR,,,,,,,,VFR,,,,22.5,5.8,,,,,,,SPECI,4.0
KLTS 120456Z 30014KT 10SM OVC012 07/04 A2986 RMK AO2A SLP114 T00650038 $,KLTS,2019-01-12T04:56:00Z,34.67,-99.27,6.5,3.8,300,14,,10.0,29.861221,1011.4,,,TRUE,TRUE,,,,,,OVC,1200,,,,,,,MVFR,,,,,,,,,,,,SPECI,420.0
KCXY 120456Z AUTO 00000KT 10SM CLR M05/M12 A3044 RMK AO2 SLP315 T10501117 400221056,KCXY,2019-01-12T04:56:00Z,40.22,-76.85,-5.0,-11.7,0,0,,10.0,30.43996,1031.5,,TRUE,TRUE,,,,,,,CLR,,,,,,,,VFR,,,,2.2,-5.6,,,,,,,SPECI,106.0
KABH 120456Z AUTO 02013KT UP A3010 RMK AO2 UPB54 SLPNO P0000 $,KABH,2019-01-12T04:56:00Z,38.75,-104.3,,,20,13,,,30.100393,,,TRUE,TRUE,TRUE,,,,,UP,,,,,,,,,,,,,,,0.005,,,,,,METAR,1840.0
KGNA 120456Z AUTO 03009G16KT M05/M08 A3040 RMK AO1 SLP309 T10501083 $,KGNA,2019-01-12T04:56:00Z,47.75,-90.35,-5.0,-8.3,30,9,16,,30.398623,1030.9,,TRUE,TRUE,TRUE,,,,,,,,,,,,,,,,,,,,,,,,,,METAR,185.0
KQAZ 120456Z AUTO 00000KT 9999 CLR 16/M11 A2995 RMK AO2 SLPNO WND DATA ESTMD T01591111,KQAZ,2019-01-12T04:56:00Z,,,15.9,-11.1,0,0,,6.21,29.949802,,,TRUE,TRUE,,,,,,,CLR,,,,,,,,VFR,,,,,,,,,,,,METAR,
PAWG 120456Z 32003KT 10SM BKN034 OVC045 01/01 A2978,PAWG,2019-01-12T04:56:00Z,56.48,-132.37,1.0,1.0,320,3,,10.0,29.778543,,,,,,,,,,,BKN,3400,OVC,4500,,,,,VFR,,,,,,,,,,,,METAR,11.0
PAMY 120456Z AUTO 06017KT 4SM BR CLR M23/M26 A2977 RMK AO2 SLP084 T12331256 FZRANO $,PAMY,2019-01-12T04:56:00Z,60.37,-166.27,-23.3,-25.6,60,17,,4.0,29.769686,1008.4,,TRUE,TRUE,TRUE,,,TRUE,,BR,CLR,,,,,,,,MVFR,,,,,,,,,,,,SPECI,13.0
ETIH 120456Z AUTO 23005KT 9999 OVC008 01/01 A3011 RMK AO2 UPB04E27 SLP223 P0000 T00100009 $,ETIH,2019-01-12T04:56:00Z,49.22,11.82,1.0,0.9,230,5,,6.21,30.109253,1022.3,,TRUE,TRUE,TRUE,,,,,,OVC,800,,,,,,,IFR,,,,,,0.005,,,,,,METAR,442.0
KGNR 120456Z AUTO 31016G30KT M19/M24 A2996 RMK AO1 PK WND 31030/0451 SLP185 T11891239 411281189,KGNR,2019-01-12T04:56:00Z,45.47,-69.55,-18.9,-23.9,310,16,30,,29.958662,1018.5,,TRUE,TRUE,,,,,,,,,,,,,,,,,,,-12.8,-18.9,,,,,,,SPECI,427.0
KNTU 120456Z 00000KT 10SM CLR M02/M07 A3043 RMK AO2 SLP306 T10221072 400331033,KNTU,2019-01-12T04:56:00Z,36.82,-76.02,-2.2,-7.2,0,0,,10.0,30.431103,1030.6,,,TRUE,,,,,,,CLR,,,,,,,,VFR,,,,3.3,-3.3,,,,,,,METAR,7.0
PHHI 120456Z AUTO 09004KT 10SM FEW036 FEW048 22/18 A3002 RMK AO2 SLP159 T02150183 $,PHHI,2019-01-12T04:56:00Z,21.48,-158.05,21.5,18.3,90,4,,10.0,30.02067,1015.9,,TRUE,TRUE,TRUE,,,,,,FEW,3600,FEW,4800,,,,,VFR,,,,,,,,,,,,METAR,255.0
KSSC 120456Z AUTO 03004KT 10SM CLR 00/M06 A3038 RMK AO2 SLP291 T10021056 400771036 TSNO $,KSSC,2019-01-12T04:56:00Z,33.97,-80.47,-0.2,-5.6,30,4,,10.0,30.380905,1029.1,,TRUE,TRUE,TRUE,,TRUE,,,,CLR,,,,,,,,VFR,,,,7.7,-3.6,,,,,,,SPECI,74.0
KLHW 120456Z AUTO 04004KT 10SM OVC050 07/01 A3031 RMK AO2 SLP267 T00680007 401361007 $,KLHW,2019-01-12T04:56:00Z,31.87,-81.57,6.8,0.7,40,4,,10.0,30.31004,1026.7,,TRUE,TRUE,TRUE,,,,,,OVC,5000,,,,,,,VFR,,,,13.6,-0.7,,,,,,,SPECI,14.0
KHST 120456Z AUTO 09006KT 10SM CLR 20/15 A3012 RMK AO2 SLP203 T01980152 402400102 FZRANO $,KHST,2019-01-12T04:56:00Z,25.47,-80.37,19.8,15.2,90,6,,10.0,30.121063,1020.3,,TRUE,TRUE,TRUE,,,TRUE,,,CLR,,,,,,,,VFR,,,,24.0,10.2,,,,,,,SPECI,2.0
K2DP 120456Z AUTO 00000KT 10SM CLR M04/ A3043 RMK AO2 SLPNO 400531047 $,K2DP,2019-01-12T04:56:00Z,35.68,-75.9,-4.0,,0,0,,10.0,30.431103,,,TRUE,TRUE,TRUE,,,,,,CLR,,,,,,,,VFR,,,,5.3,-4.7,,,,,,,SPECI,3.0
ETAR 120456Z 25005KT 9999 OVC007 03/03 A3023 RMK AO2A SLP252 $,ETAR,2019-01-12T04:56:00Z,49.42,7.58,3.0,3.0,250,5,,6.21,30.230314,1025.2,,,TRUE,TRUE,,,,,,OVC,700,,,,,,,IFR,,,,,,,,,,,,METAR,238.0
KXNO 120456Z AUTO 05003KT 10SM CLR 01/M08 A3037 RMK AO2 SLP289 T00131080 400911034 $,KXNO,2019-01-12T04:56:00Z,33.62,-81.07,1.3,-8.0,50,3,,10.0,30.369095,1028.9,,TRUE,TRUE,TRUE,,,,,,CLR,,,,,,,,VFR,,,,9.1,-3.4,,,,,,,METAR,98.0
KTTS 120456Z AUTO 11005KT 10SM CLR 16/11 M RMK AO2 SLPNO T01640105 402200081 $,KTTS,2019-01-12T04:56:00Z,28.62,-80.72,16.4,10.5,110,5,,10.0,,,,TRUE,TRUE,TRUE,,,,,,CLR,,,,,,,,VFR,,,,22.0,8.1,,,,,,,SPECI,3.0
KDIK 120456Z AUTO 06006KT 6SM BR OVC006 M13/M14 A3026 RMK AO2 SLP298 I1000 T11281144,KDIK,2019-01-12T04:56:00Z,46.8,-102.8,-12.8,-14.4,60,6,,6.0,30.259842,1029.8,,TRUE,TRUE,,,,,,BR,OVC,600,,,,,,,IFR,,,,,,,,,,,,SPECI,788.0
KDAY 120456Z 12005KT 10SM OVC130 M02/M07 A3034 RMK AO2 SLP285 T10171067 410061033,KDAY,2019-01-12T04:56:00Z,39.9,-84.22,-1.7,-6.7,120,5,,10.0,30.339567,1028.5,,,TRUE,,,,,,,OVC,13000,,,,,,,VFR,,,,-0.6,-3.3,,,,,,,SPECI,305.0
KLSF 120456Z AUTO 00000KT 10SM FEW040 03/02 A3024 RMK AO2 SLP246 T00270020 401521031,KLSF,2019-01-12T04:56:00Z,32.32,-84.97,2.7,2.0,0,0,,10.0,30.239174,1024.6,,TRUE,TRUE,,,,,,,FEW,4000,,,,,,,VFR,,,,15.2,-3.1,,,,,,,METAR,71.0
KWRB 120456Z AUTO 10005KT 10SM SCT042 07/M03 A3030 RMK AO2 SLP264 T00681032 401391020,KWRB,2019-01-12T04:56:00Z,32.62,-83.58,6.8,-3.2,100,5,,10.0,30.301182,1026.4,,TRUE,TRUE,,,,,,,SCT,4200,,,,,,,VFR,,,,13.9,-2.0,,,,,,,SPECI,90.0
KMTW 120456Z AUTO 00000KT 10SM OVC060 M02/M04 A3034 RMK AO2 SLP298 T10221044 FZRANO,KMTW,2019-01-12T04:56:00Z,44.12,-87.67,-2.2,-4.4,0,0,,10.0,30.339567,1029.8,,TRUE,TRUE,,,,TRUE,,,OVC,6000,,,,,,,VFR,,,,,,,,,,,,SPECI,198.0
KMSV 120456Z AUTO 27005KT 10SM CLR M13/M16 A3036 RMK AO2 SLP308 T11331161 410671133 FZRANO,KMSV,2019-01-12T04:56:00Z,41.7,-74.78,-13.3,-16.1,270,5,,10.0,30.360237,1030.8,,TRUE,TRUE,,,,TRUE,,,CLR,,,,,,,,VFR,,,,-6.7,-13.3,,,,,,,SPECI,428.0
KRUT 120456Z AUTO 33005KT 10SM CLR M19/M22 A3033 RMK AO2 SLP296 T11941217 410831194 FZRANO $,KRUT,2019-01-12T04:56:00Z,43.52,-72.95,-19.4,-21.7,330,5,,10.0,30.33071,1029.6,,TRUE,TRUE,TRUE,,,TRUE,,,CLR,,,,,,,,VFR,,,,-8.3,-19.4,,,,,,,SPECI,240.0
KRKD 120456Z AUTO 28020G29KT 10SM CLR M14/M20 A3017 RMK AO2 PK WND 28029/0450 SLP220 T11441200 410781156 FZRANO,KRKD,2019-01-12T04:56:00Z,44.07,-69.08,-14.4,-20.0,280,20,29,10.0,30.171259,1022.0,,TRUE,TRUE,,,,TRUE,,,CLR,,,,,,,,VFR,,,,-7.8,-15.6,,,,,,,METAR,17.0
KPWT 120456Z AUTO 00000KT 10SM CLR 03/02 A2993 RMK AO2 SLP155 T00280017,KPWT,2019-01-12T04:56:00Z,47.5,-122.75,2.8,1.7,0,0,,10.0,29.929134,1015.5,,TRUE,TRUE,,,,,,,CLR,,,,,,,,VFR,,,,,,,,,,,,SPECI,147.0
KPWG 120456Z AUTO 17008KT 10SM FEW110 12/12 A2993 RMK AO2 RAE16 SLP153 P0001 T01220122,KPWG,2019-01-12T04:56:00Z,31.47,-97.32,12.2,12.2,170,8,,10.0,29.929134,1015.3,,TRUE,TRUE,,,,,,,FEW,11000,,,,,,,VFR,,,,,,0.01,,,,,,SPECI,180.0
KISM 120456Z AUTO 07003KT 10SM CLR 15/11 A3021 RMK AO2 SLP231 T01500111 402280089 PNO $,KISM,2019-01-12T04:56:00Z,28.28,-81.43,15.0,11.1,70,3,,10.0,30.209646,1023.1,,TRUE,TRUE,TRUE,,,,,,CLR,,,,,,,,VFR,,,,22.8,8.9,,,,,,,METAR,25.0
KILE 120456Z AUTO 16006KT 10SM OVC095 13/12 A2995 RMK AO2 SLP162 T01280122,KILE,2019-01-12T04:56:00Z,31.07,-97.67,12.8,12.2,160,6,,10.0,29.949802,1016.2,,TRUE,TRUE,,,,,,,OVC,9500,,,,,,,VFR,,,,,,,,,,,,SPECI,258.0
KHND 120456Z AUTO 16003KT 10SM CLR 07/00 A3013 RMK AO2 SLP207 T00670000 $,KHND,2019-01-12T04:56:00Z,35.98,-115.13,6.7,0.0,160,3,,10.0,30.129921,1020.7,,TRUE,TRUE,TRUE,,,,,,CLR,,,,,,,,VFR,,,,,,,,,,,,SPECI,749.0
KHNB 120456Z AUTO 10007KT 1 1/4SM -SN BR BKN006 OVC013 M01/M02 A3028 RMK AO2 CIG 004V008 SLP261 P0003 T10111017 400171061 FZRANO,KHNB,2019-01-12T04:56:00Z,38.25,-86.95,-1.1,-1.7,100,7,,1.25,30.280512,1026.1,,TRUE,TRUE,,,,TRUE,,-SN BR,BKN,600,OVC,1300,,,,,IFR,,,,1.7,-6.1,0.03,,,,,,SPECI,161.0
KHEZ 120456Z AUTO 15007KT 10SM CLR 08/02 A3011 RMK AO2 SLP199 T00780017 401670000,KHEZ,2019-01-12T04:56:00Z,31.62,-91.3,7.8,1.7,150,7,,10.0,30.109253,1019.9,,TRUE,TRUE,,,,,,,CLR,,,,,,,,VFR,,,,16.7,,,,,,,,METAR,83.0
KHEF 120456Z AUTO 36004KT 10SM CLR M03/M09 A3046 RMK AO2 SLP327 T10331089 PNO $,KHEF,2019-01-12T04:56:00Z,38.72,-77.52,-3.3,-8.9,360,4,,10.0,30.46063,1032.7,,TRUE,TRUE,TRUE,,,,,,CLR,,,,,,,,VFR,,,,,,,,,,,,METAR,59.0
KOCH 120456Z AUTO 15009KT 10SM OVC055 13/09 A2998 RMK AO2 SLP156 T01280094,KOCH,2019-01-12T04:56:00Z,31.57,-94.72,12.8,9.4,150,9,,10.0,29.97933,1015.6,,TRUE,TRUE,,,,,,,OVC,5500,,,,,,,VFR,,,,,,,,,,,,SPECI,108.0
KOAJ 120456Z AUTO 00000KT 10SM CLR M04/M06 A3042 RMK AO2 SLP307 T10441061 400671050 FZRANO,KOAJ,2019-01-12T04:56:00Z,34.82,-77.62,-4.4,-6.1,0,0,,10.0,30.41929,1030.7,,TRUE,TRUE,,,,TRUE,,,CLR,,,,,,,,VFR,,,,6.7,-5.0,,,,,,,METAR,29.0
KMYR 120456Z AUTO 04006KT 10SM CLR 02/M04 A3039 RMK AO2 SLP292 T00221039 400781022 FZRANO,KMYR,2019-01-12T04:56:00Z,33.67,-78.92,2.2,-3.9,40,6,,10.0,30.389763,1029.2,,TRUE,TRUE,,,,TRUE,,,CLR,,,,,,,,VFR,,,,7.8,-2.2,,,,,,,METAR,8.0
KSGJ 120456Z AUTO 11006KT 10SM CLR 14/11 A3024 RMK AO2 SLP241 T01440111 401720044,KSGJ,2019-01-12T04:56:00Z,29.97,-81.32,14.4,11.1,110,6,,10.0,30.239174,1024.1,,TRUE,TRUE,,,,,,,CLR,,,,,,,,VFR,,,,17.2,4.4,,,,,,,METAR,3.0
KSGH 120456Z AUTO 11006KT 10SM CLR M03/M06 A3033 RMK AO2 SLP288 T10331056,KSGH,2019-01-12T04:56:00Z,39.83,-83.83,-3.3,-5.6,110,6,,10.0,30.33071,1028.8,,TRUE,TRUE,,,,,,,CLR,,,,,,,,VFR,,,,,,,,,,,,SPECI,321.0
KSFZ 120456Z AUTO 31007KT 10SM CLR M11/M18 A3032 RMK AO2 SLP219 T11061178 410331106 FZRANO,KSFZ,2019-01-12T04:56:00Z,41.92,-71.5,-10.6,-17.8,310,7,,10.0,30.318897,1021.9,,TRUE,TRUE,,,,TRUE,,,CLR,,,,,,,,VFR,,,,-3.3,-10.6,,,,,,,SPECI,134.0
KSFM 120456Z AUTO 27013KT 10SM CLR M14/M20 A3028 RMK AO2 SLP261 T11391200 FZRANO PNO $,KSFM,2019-01-12T04:56:00Z,43.38,-70.72,-13.9,-20.0,270,13,,10.0,30.280512,1026.1,,TRUE,TRUE,TRUE,,,TRUE,,,CLR,,,,,,,,VFR,,,,,,,,,,,,METAR,74.0
KSDY 120456Z AUTO 03005KT 10SM CLR M13/M14 A3032 RMK AO2 SLP315 T11281144 FZRANO,KSDY,2019-01-12T04:56:00Z,47.7,-104.2,-12.8,-14.4,30,5,,10.0,30.318897,1031.5,,TRUE,TRUE,,,,TRUE,,,CLR,,,,,,,,VFR,,,,,,,,,,,,SPECI,605.0
PFWS 120456Z AUTO 02017KT 10SM OVC048 M23/M27 A2958 RMK AO2 SLP024 T12331267 FZRANO,PFWS,2019-01-12T04:56:00Z,58.7,-157.0,-23.3,-26.7,20,17,,10.0,29.58071,1002.4,,TRUE,TRUE,,,,TRUE,,,OVC,4800,,,,,,,VFR,,,,,,,,,,,,SPECI,49.0
PFNO 120456Z AUTO 00000KT 10SM CLR M39/ A3007 RMK AO2 SLP186 T1389 FZRANO,PFNO,2019-01-12T04:56:00Z,66.82,-161.02,-38.9,,0,0,,10.0,30.070866,1018.6,,TRUE,TRUE,,,,TRUE,,,CLR,,,,,,,,VFR,,,,,,,,,,,,METAR,17.0
PFKW 120456Z AUTO 02011KT 10SM CLR M31/M34 A2971 RMK AO2 SLP060 T13111344 FZRANO,PFKW,2019-01-12T04:56:00Z,60.8,-161.43,-31.1,-34.4,20,11,,10.0,29.71063,1006.0,,TRUE,TRUE,,,,TRUE,,,CLR,,,,,,,,VFR,,,,,,,,,,,,SPECI,8.0
PFEL 120456Z AUTO 34010KT 10SM CLR M26/M31 A2997 RMK AO2 SLP151 T12611311 FZRANO,PFEL,2019-01-12T04:56:00Z,64.62,-162.27,-26.1,-31.1,340,10,,10.0,29.970472,1015.1,,TRUE,TRUE,,,,TRUE,,,CLR,,,,,,,,VFR,,,,,,,,,,,,METAR,49.0
KSGU 120456Z AUTO 36010KT 10SM CLR 07/M02 A3015 RMK AO2 SLP213 T00671022,KSGU,2019-01-12T04:56:00Z,37.07,-113.52,6.7,-2.2,360,10,,10.0,30.15059,1021.3,,TRUE,TRUE,,,,,,,CLR,,,,,,,,VFR,,,,,,,,,,,,SPECI,896.0
KSGT 120456Z AUTO 07004KT 10SM BKN070 OVC100 04/01 A3010 RMK AO2 SLP195 T00440011,KSGT,2019-01-12T04:56:00Z,34.6,-91.57,4.4,1.1,70,4,,10.0,30.100393,1019.5,,TRUE,TRUE,,,,,,,BKN,7000,OVC,10000,,,,,VFR,,,,,,,,,,,,METAR,68.0
PTTP 120456Z 00000KT 5SM -SHRA BKN016TCU OVC110 25/24 A2973 RMK TCU ALQDS AND OHD SLP066 T02530244,PTTP,2019-01-12T04:56:00Z,6.97,158.22,25.3,24.4,0,0,,5.0,29.731298,1006.6,,,,,,,,,-SHRA,BKN,1600,OVC,11000,,,,,MVFR,,,,,,,,,,,,METAR,2.0
KNJK 120456Z AUTO 00000KT 10SM CLR 11/07 A3005 RMK AO2 SLP190 T01110067 $,KNJK,2019-01-12T04:56:00Z,32.82,-115.67,11.1,6.7,0,0,,10.0,30.050198,1019.0,,TRUE,TRUE,TRUE,,,,,,CLR,,,,,,,,VFR,,,,,,,,,,,,METAR,-13.0
KLZU 120456Z AUTO 09004KT 10SM FEW120 03/M04 A3030 RMK AO2 SLP277 T00331044 401111050,KLZU,2019-01-12T04:56:00Z,33.98,-83.97,3.3,-4.4,90,4,,10.0,30.301182,1027.7,,TRUE,TRUE,,,,,,,FEW,12000,,,,,,,VFR,,,,11.1,-5.0,,,,,,,METAR,323.0
KOKK 120456Z AUTO 11006KT 8SM CLR M03/M04 A3032 RMK AO2 SLP280 T10281044 410111033 FZRANO,KOKK,2019-01-12T04:56:00Z,40.53,-86.07,-2.8,-4.4,110,6,,8.0,30.318897,1028.0,,TRUE,TRUE,,,,TRUE,,,CLR,,,,,,,,VFR,,,,-1.1,-3.3,,,,,,,SPECI,253.0
KOLU 120456Z AUTO 01006KT 10SM OVC044 00/M02 A3014 RMK AO2 SLP225 T00001022 FZRANO,KOLU,2019-01-12T04:56:00Z,41.45,-97.32,0.0,-2.2,10,6,,10.0,30.138779,1022.5,,TRUE,TRUE,,,,TRUE,,,OVC,4400,,,,,,,VFR,,,,,,,,,,,,SPECI,440.0
KOTH 120456Z 16005KT 10SM FEW080 09/07 A2981 RMK AO2 RAB01E23 SLP095 P0000 T00940067,KOTH,2019-01-12T04:56:00Z,43.42,-124.25,9.4,6.7,160,5,,10.0,29.811024,1009.5,,,TRUE,,,,,,,FEW,8000,,,,,,,VFR,,,,,,0.005,,,,,,SPECI,4.0
KOWB 120456Z AUTO 08006KT 4SM -SN BR BKN005 BKN011 OVC027 00/M01 A3027 RMK AO2 CIG 003V008 SLP264 P0001 T00001011,KOWB,2019-01-12T04:56:00Z,37.72,-87.17,0.0,-1.1,80,6,,4.0,30.268702,1026.4,,TRUE,TRUE,,,,,,-SN BR,BKN,500,BKN,1100,OVC,2700,,,IFR,,,,,,0.01,,,,,,METAR,124.0
KPIB 120456Z AUTO 00000KT 10SM CLR 05/02 A3018 RMK AO2 SLP219 T00500022,KPIB,2019-01-12T04:56:00Z,31.47,-89.32,5.0,2.2,0,0,,10.0,30.180119,1021.9,,TRUE,TRUE,,,,,,,CLR,,,,,,,,VFR,,,,,,,,,,,,METAR,91.0
KPQI 120456Z AUTO 25005KT 10SM OVC029 M17/M21 A2998 RMK AO2 SLP201 T11721206 410671183 FZRANO,KPQI,2019-01-12T04:56:00Z,46.67,-68.03,-17.2,-20.6,250,5,,10.0,29.97933,1020.1,,TRUE,TRUE,,,,TRUE,,,OVC,2900,,,,,,,MVFR,,,,-6.7,-18.3,,,,,,,SPECI,146.0
KPTN 120456Z AUTO 09006KT 10SM SCT040 12/09 A3011 RMK AO2 SLP197 T01170094,KPTN,2019-01-12T04:56:00Z,29.72,-91.32,11.7,9.4,90,6,,10.0,30.109253,1019.7,,TRUE,TRUE,,,,,,,SCT,4000,,,,,,,VFR,,,,,,,,,,,,METAR,3.0
KPTV 120456Z AUTO 12003KT 5SM BR CLR 09/09 A2991 RMK AO2 SLP141 T00940089,KPTV,2019-01-12T04:56:00Z,36.02,-119.07,9.4,8.9,120,3,,5.0,29.911417,1014.1,,TRUE,TRUE,,,,,,BR,CLR,,,,,,,,MVFR,,,,,,,,,,,,SPECI,135.0
KPVC 120456Z AUTO 31020G28KT 10SM CLR M08/M13 A3030 RMK AO2 PK WND 31031/0440 SLP260 T10781133 410111078 FZRANO,KPVC,2019-01-12T04:56:00Z,42.07,-70.22,-7.8,-13.3,310,20,28,10.0,30.301182,1026.0,,TRUE,TRUE,,,,TRUE,,,CLR,,,,,,,,VFR,,,,-1.1,-7.8,,,,,,,SPECI,2.0
KMEH 120456Z AUTO 00000KT 10SM CLR 03/M03 A3006 RMK AO2 SLP196 T00281033,KMEH,2019-01-12T04:56:00Z,45.52,-118.42,2.8,-3.3,0,0,,10.0,30.059055,1019.6,,TRUE,TRUE,,,,,,,CLR,,,,,,,,VFR,,,,,,,,,,,,SPECI,1136.0
KPVG 120456Z AUTO 00000KT 10SM CLR M07/M08 A3045 RMK AO2 SLP311 T10671078 400391067 FZRANO PNO $,KPVG,2019-01-12T04:56:00Z,36.78,-76.45,-6.7,-7.8,0,0,,10.0,30.448818,1031.1,,TRUE,TRUE,TRUE,,,TRUE,,,CLR,,,,,,,,VFR,,,,3.9,-6.7,,,,,,,METAR,7.0
KPVU 120456Z AUTO 00000KT 2 1/2SM BR CLR M03/M03 A3029 RMK AO2 SLP278 T10281033 FZRANO,KPVU,2019-01-12T04:56:00Z,40.22,-111.72,-2.8,-3.3,0,0,,2.5,30.28937,1027.8,,TRUE,TRUE,,,,TRUE,,BR,CLR,,,,,,,,IFR,,,,,,,,,,,,SPECI,1369.0
KDRA 120456Z AUTO 16008KT 10SM CLR 07/M01 A3009 RMK AO2 SLP177 T00721011,KDRA,2019-01-12T04:56:00Z,36.62,-116.03,7.2,-1.1,160,8,,10.0,30.088583,1017.7,,TRUE,TRUE,,,,,,,CLR,,,,,,,,VFR,,,,,,,,,,,,METAR,1006.0
KNLC 120456Z AUTO 19003KT 4SM BR CLR 09/08 A2989 RMK AO2 SLP121 T00940083,KNLC,2019-01-12T04:56:00Z,36.32,-119.95,9.4,8.3,190,3,,4.0,29.890747,1012.1,,TRUE,TRUE,,,,,,BR,CLR,,,,,,,,MVFR,,,,,,,,,,,,METAR,72.0
KNBT 120456Z AUTO 03007KT 10SM CLR 03/M03 A3042 RMK AO2 SLP305 T00281033 400561006,KNBT,2019-01-12T04:56:00Z,35.02,-76.47,2.8,-3.3,30,7,,10.0,30.41929,1030.5,,TRUE,TRUE,,,,,,,CLR,,,,,,,,VFR,,,,5.6,-0.6,,,,,,,METAR,5.0
RJTY 120456Z AUTO 00000KT 10SM OVC031 06/M05 A3006 RMK AO2 SLP190 T00591048 FZRANO $,RJTY,2019-01-12T04:56:00Z,35.75,139.33,5.9,-4.8,0,0,,10.0,30.059055,1019.0,,TRUE,TRUE,TRUE,,,TRUE,,,OVC,3100,,,,,,,VFR,,,,,,,,,,,,METAR,139.0
KNXP 120456Z AUTO 11003KT 10SM CLR 11/01 A3012 RMK AO2 SLP183 T01060006,KNXP,2019-01-12T04:56:00Z,34.28,-116.17,10.6,0.6,110,3,,10.0,30.121063,1018.3,,TRUE,TRUE,,,,,,,CLR,,,,,,,,VFR,,,,,,,,,,,,METAR,626.0
PGUA 120456Z 07016KT 10SM BKN014 BKN060 26/23 A2985 RMK AO2A RAE09DZB09E10RAB23E35 SLP099 P0001 T02600229 $,PGUA,2019-01-12T04:56:00Z,13.57,144.92,26.0,22.9,70,16,,10.0,29.84941,1009.9,,,TRUE,TRUE,,,,,,BKN,1400,BKN,6000,,,,,MVFR,,,,,,0.01,,,,,,METAR,187.0
KNSE 120456Z AUTO 05003KT 10SM CLR 04/03 A3018 RMK AO2 SLP208 T00390028 $,KNSE,2019-01-12T04:56:00Z,30.73,-87.02,3.9,2.8,50,3,,10.0,30.180119,1020.8,,TRUE,TRUE,TRUE,,,,,,CLR,,,,,,,,VFR,,,,,,,,,,,,METAR,61.0
PABV 120456Z AUTO 13004KT 9SM -SN OVC003 M22/M24 A2980 RMK AO2 SNB13 SLP102 P0000 T12171239 FZRANO,PABV,2019-01-12T04:56:00Z,61.42,-149.52,-21.7,-23.9,130,4,,9.0,29.799213,1010.2,,TRUE,TRUE,,,,TRUE,,-SN,OVC,300,,,,,,,LIFR,,,,,,0.005,,,,,,METAR,29.0
KNRS 120456Z 00000KT 4SM BR OVC011 13/11 A3001 RMK AO2 SLP162 T01330111 $,KNRS,2019-01-12T04:56:00Z,32.57,-117.12,13.3,11.1,0,0,,4.0,30.008858,1016.2,,,TRUE,TRUE,,,,,BR,OVC,1100,,,,,,,MVFR,,,,,,,,,,,,METAR,7.0
KNDZ 120456Z AUTO 07006KT 10SM CLR 06/03 A3018 RMK AO2 SLP209 T00560028 $,KNDZ,2019-01-12T04:56:00Z,30.7,-87.02,5.6,2.8,70,6,,10.0,30.180119,1020.9,,TRUE,TRUE,TRUE,,,,,,CLR,,,,,,,,VFR,,,,,,,,,,,,METAR,54.0
KSXT 120456Z AUTO 12012G21KT 10SM CLR 07/M02 A2984 RMK AO2 PK WND 13031/0402 SLP106 T00671022,KSXT,2019-01-12T04:56:00Z,42.6,-123.37,6.7,-2.2,120,12,21,10.0,29.840551,1010.6,,TRUE,TRUE,,,,,,,CLR,,,,,,,,VFR,,,,,,,,,,,,SPECI,1170.0
RKJK 120456Z 28007KT 3SM BR FEW150 SCT170 06/04 A3017 RMK AO2A TWR VIS 2 SLP221 T00590044 PNO $,RKJK,2019-01-12T04:56:00Z,35.9,126.62,5.9,4.4,280,7,,3.0,30.171259,1022.1,,,TRUE,TRUE,,,,,BR,FEW,15000,SCT,17000,,,,,MVFR,,,,,,,,,,,,METAR,9.0
KRYM 120456Z AUTO 00000KT 10SM FEW040 M13/M14 A3028 RMK AO2 SLP283 T11281141 $,KRYM,2019-01-12T04:56:00Z,46.08,-94.37,-12.8,-14.1,0,0,,10.0,30.280512,1028.3,,TRUE,TRUE,TRUE,,,,,,FEW,4000,,,,,,,VFR,,,,,,,,,,,,SPECI,351.0
KSMP 120456Z AUTO VRB05KT 1SM BR VV002 M01/M02 A3001 RMK AO2 SLP186 T10061022 $,KSMP,2019-01-12T04:56:00Z,47.28,-121.33,-0.6,-2.2,0,5,,1.0,30.008858,1018.6,,TRUE,TRUE,TRUE,,,,,BR,OVX,0,,,,,,,LIFR,,,,,,,,,,,200,SPECI,1208.0
KPSM 120456Z 26011G18KT 10SM FEW200 M12/M21 A3030 RMK AO2A SLP265 T11251213 410421125,KPSM,2019-01-12T04:56:00Z,43.07,-70.82,-12.5,-21.3,260,11,18,10.0,30.301182,1026.5,,,TRUE,,,,,,,FEW,20000,,,,,,,VFR,,,,-4.2,-12.5,,,,,,,METAR,31.0
KP60 120456Z AUTO 00000KT M17/M19 A3024 RMK AO1 SLP314 T11721194,KP60,2019-01-12T04:56:00Z,44.55,-110.42,-17.2,-19.4,0,0,,,30.239174,1031.4,,TRUE,TRUE,,,,,,,,,,,,,,,,,,,,,,,,,,,SPECI,2388.0
KVPS 120456Z 05003KT 10SM CLR 05/02 A3018 RMK AO2A SLP224 T00530021 $,KVPS,2019-01-12T04:56:00Z,30.47,-86.52,5.3,2.1,50,3,,10.0,30.180119,1022.4,,,TRUE,TRUE,,,,,,CLR,,,,,,,,VFR,,,,,,,,,,,,METAR,26.0
KSZL 120456Z 11005KT 1 3/8SM -SN BR OVC007 00/00 A3006 RMK CIG 002 RWY01 SLPNO WND DATA ESTMD P0005 T00010001 $,KSZL,2019-01-12T04:56:00Z,38.72,-93.53,0.1,0.1,110,5,,1.38,30.059055,,,,,TRUE,,,,,-SN BR,OVC,700,,,,,,,IFR,,,,,,0.05,,,,,,SPECI,265.0
PAED 120456Z 04005KT 10SM OVC006 M20/M21 A2978 RMK AO2A SLP085 T11961210,PAED,2019-01-12T04:56:00Z,61.25,-149.8,-19.6,-21.0,40,5,,10.0,29.778543,1008.5,,,TRUE,,,,,,,OVC,600,,,,,,,IFR,,,,,,,,,,,,METAR,59.0
KWRI 120456Z AUTO 00000KT 10SM CLR M06/M15 A3042 RMK AO2 SLP303 T10621152 400031062,KWRI,2019-01-12T04:56:00Z,40.02,-74.58,-6.2,-15.2,0,0,,10.0,30.41929,1030.3,,TRUE,TRUE,,,,,,,CLR,,,,,,,,VFR,,,,0.3,-6.2,,,,,,,METAR,41.0
KMUI 120456Z AUTO 00000KT 10SM CLR M07/M12 A3043 RMK AO2 SLP315 T10751122 400031075 $,KMUI,2019-01-12T04:56:00Z,40.42,-76.57,-7.5,-12.2,0,0,,10.0,30.431103,1031.5,,TRUE,TRUE,TRUE,,,,,,CLR,,,,,,,,VFR,,,,0.3,-7.5,,,,,,,METAR,149.0
KGTB 120456Z AUTO 00000KT 10SM SCT070 BKN110 M14/M19 A3041 RMK AO2 SLP317 T11431190 411281207 VISNO RWY03 $,KGTB,2019-01-12T04:56:00Z,44.07,-75.72,-14.3,-19.0,0,0,,10.0,30.410433,1031.7,,TRUE,TRUE,TRUE,,,,,,SCT,7000,BKN,11000,,,,,VFR,,,,-12.8,-20.7,,,,,,,SPECI,207.0
KFFO 120456Z AUTO 10003KT 10SM CLR M02/M07 A3034 RMK AO2 SLP288 T10221071 410091032,KFFO,2019-01-12T04:56:00Z,39.82,-84.03,-2.2,-7.1,100,3,,10.0,30.339567,1028.8,,TRUE,TRUE,,,,,,,CLR,,,,,,,,VFR,,,,-0.9,-3.2,,,,,,,METAR,251.0
RKSG 120456Z 27005KT 3SM HZ SCT085 07/M01 A3016 RMK AO2A SLP217 T00711006 $,RKSG,2019-01-12T04:56:00Z,36.97,127.02,7.1,-0.6,270,5,,3.0,30.159449,1021.7,,,TRUE,TRUE,,,,,HZ,SCT,8500,,,,,,,MVFR,,,,,,,,,,,,METAR,16.0
PAEI 120456Z 00000KT 4SM HZ CLR M40/M45 A2996 RMK AO2A SLP176 T14021455 $,PAEI,2019-01-12T04:56:00Z,64.67,-147.1,-40.2,-45.5,0,0,,4.0,29.958662,1017.6,,,TRUE,TRUE,,,,,HZ,CLR,,,,,,,,MVFR,,,,,,,,,,,,METAR,167.0
KVOK 120456Z AUTO 10004KT 10SM OVC060 M02/M06 A3028 RMK AO2 SLP271 T10251056,KVOK,2019-01-12T04:56:00Z,43.92,-90.27,-2.5,-5.6,100,4,,10.0,30.280512,1027.1,,TRUE,TRUE,,,,,,,OVC,6000,,,,,,,VFR,,,,,,,,,,,,SPECI,277.0
BGTL 120456Z AUTO 10006KT 9999 CLR M30/M33 A3024 RMK AO2 SLP234 T12981332 TSNO CHINO RWY26 $,BGTL,2019-01-12T04:56:00Z,76.53,-68.7,-29.8,-33.2,100,6,,6.21,30.239174,1023.4,,TRUE,TRUE,TRUE,,TRUE,,,,CLR,,,,,,,,VFR,,,,,,,,,,,,METAR,77.0
KMTC 120456Z AUTO 00000KT 10SM OVC070 M03/M08 A3040 RMK AO2 SLP308 T10311076 410231084 $,KMTC,2019-01-12T04:56:00Z,42.62,-82.82,-3.1,-7.6,0,0,,10.0,30.398623,1030.8,,TRUE,TRUE,TRUE,,,,,,OVC,7000,,,,,,,VFR,,,,-2.3,-8.4,,,,,,,SPECI,177.0
KLFI 120456Z AUTO 02005KT 10SM CLR 01/M07 A3042 RMK AO2 SLP308 T00061074 400411026 $,KLFI,2019-01-12T04:56:00Z,37.07,-76.37,0.6,-7.4,20,5,,10.0,30.41929,1030.8,,TRUE,TRUE,TRUE,,,,,,CLR,,,,,,,,VFR,,,,4.1,-2.6,,,,,,,METAR,3.0
KHFF 120456Z AUTO 00000KT 10SM FEW150 BKN200 M02/M04 A3040 RMK AO2 SLP314 T10231036 400691064,KHFF,2019-01-12T04:56:00Z,35.02,-79.5,-2.3,-3.6,0,0,,10.0,30.398623,1031.4,,TRUE,TRUE,,,,,,,FEW,15000,BKN,20000,,,,,VFR,,,,6.9,-6.4,,,,,,,SPECI,115.0
KGUS 120456Z AUTO 11006KT 10SM CLR M02/M04 A3031 RMK AO2 SLP278 T10251045 410061036 $,KGUS,2019-01-12T04:56:00Z,40.63,-86.15,-2.5,-4.5,110,6,,10.0,30.31004,1027.8,,TRUE,TRUE,TRUE,,,,,,CLR,,,,,,,,VFR,,,,-0.6,-3.6,,,,,,,SPECI,247.0
KFAF 120456Z AUTO 00000KT 10SM CLR M02/M08 M RMK AO2 SLPNO T10171078 400461025 $,KFAF,2019-01-12T04:56:00Z,37.12,-76.62,-1.7,-7.8,0,0,,10.0,,,,TRUE,TRUE,TRUE,,,,,,CLR,,,,,,,,VFR,,,,4.6,-2.5,,,,,,,SPECI,4.0
KDOV 120456Z AUTO 00000KT 10SM CLR M04/M13 A3045 RMK AO2 SLP315 T10381127 400231048 $,KDOV,2019-01-12T04:56:00Z,39.12,-75.47,-3.8,-12.7,0,0,,10.0,30.448818,1031.5,,TRUE,TRUE,TRUE,,,,,,CLR,,,,,,,,VFR,,,,2.3,-4.8,,,,,,,SPECI,9.0
KDAA 120456Z AUTO 00000KT 10SM CLR M02/M10 A3045 RMK AO2 SLP315 T10231097 400331042 $,KDAA,2019-01-12T04:56:00Z,38.72,-77.17,-2.3,-9.7,0,0,,10.0,30.448818,1031.5,,TRUE,TRUE,TRUE,,,,,,CLR,,,,,,,,VFR,,,,3.3,-4.2,,,,,,,SPECI,21.0
KCEF 120456Z AUTO 31008KT 10SM CLR M12/M18 A3037 RMK AO2 SLP295 T11161184 410321116,KCEF,2019-01-12T04:56:00Z,42.2,-72.52,-11.6,-18.4,310,8,,10.0,30.369095,1029.5,,TRUE,TRUE,,,,,,,CLR,,,,,,,,VFR,,,,-3.2,-11.6,,,,,,,SPECI,75.0
KADW 120456Z AUTO 34003KT 10SM CLR M04/M09 A3043 RMK AO2 SLP315 T10371089 400231048 $,KADW,2019-01-12T04:56:00Z,38.82,-76.87,-3.7,-8.9,340,3,,10.0,30.431103,1031.5,,TRUE,TRUE,TRUE,,,,,,CLR,,,,,,,,VFR,,,,2.3,-4.8,,,,,,,SPECI,86.0
TJSJ 120456Z 00000KT 10SM FEW035 FEW085 23/21 A3004 RMK AO2 SLP170 T02330206 $,TJSJ,2019-01-12T04:56:00Z,18.43,-66.02,23.3,20.6,0,0,,10.0,30.041338,1017.0,,,TRUE,TRUE,,,,,,FEW,3500,FEW,8500,,,,,VFR,,,,,,,,,,,,SPECI,21.0
KWMC 120456Z AUTO 12003KT 10SM CLR M03/M05 A3008 RMK AO2 SLP203 T10331050,KWMC,2019-01-12T04:56:00Z,40.9,-117.8,-3.3,-5.0,120,3,,10.0,30.079725,1020.3,,TRUE,TRUE,,,,,,,CLR,,,,,,,,VFR,,,,,,,,,,,,METAR,1310.0
KWJF 120456Z 31003KT 10SM CLR 04/01 A3001 RMK AO2 SLP175 T00440006,KWJF,2019-01-12T04:56:00Z,34.72,-118.22,4.4,0.6,310,3,,10.0,30.008858,1017.5,,,TRUE,,,,,,,CLR,,,,,,,,VFR,,,,,,,,,,,,METAR,715.0
KUKI 120456Z AUTO 00000KT 10SM BKN033 OVC046 11/09 A2988 RMK AO2 SLP115 T01110089,KUKI,2019-01-12T04:56:00Z,39.12,-123.2,11.1,8.9,0,0,,10.0,29.878937,1011.5,,TRUE,TRUE,,,,,,,BKN,3300,OVC,4600,,,,,VFR,,,,,,,,,,,,METAR,187.0
KOFK 120456Z AUTO 36006KT 10SM CLR M01/M03 A3014 RMK AO2 SLP224 T10111033,KOFK,2019-01-12T04:56:00Z,41.98,-97.43,-1.1,-3.3,360,6,,10.0,30.138779,1022.4,,TRUE,TRUE,,,,,,,CLR,,,,,,,,VFR,,,,,,,,,,,,SPECI,470.0
KNUQ 120456Z 13008KT 10SM -RA OVC075 13/11 A2989 RMK AO2 SLP123 P0002 T01330111,KNUQ,2019-01-12T04:56:00Z,37.4,-122.05,13.3,11.1,130,8,,10.0,29.890747,1012.3,,,TRUE,,,,,,-RA,OVC,7500,,,,,,,VFR,,,,,,0.02,,,,,,METAR,12.0
KTPH 120456Z AUTO 13006KT 10SM CLR 02/M06 A3010 RMK AO2 SLP200 T00171061,KTPH,2019-01-12T04:56:00Z,38.05,-117.08,1.7,-6.1,130,6,,10.0,30.100393,1020.0,,TRUE,TRUE,,,,,,,CLR,,,,,,,,VFR,,,,,,,,,,,,METAR,1652.0
KSLE 120456Z 34004KT 10SM BKN100 06/02 A2990 RMK AO2 SLP126 T00610017,KSLE,2019-01-12T04:56:00Z,44.9,-123.0,6.1,1.7,340,4,,10.0,29.899607,1012.6,,,TRUE,,,,,,,BKN,10000,,,,,,,VFR,,,,,,,,,,,,METAR,59.0
KSHV 120456Z 14009KT 10SM BKN080 OVC090 11/04 A2998 RMK AO2 RAB38E51 SLP153 P0000 T01060039,KSHV,2019-01-12T04:56:00Z,32.45,-93.83,10.6,3.9,140,9,,10.0,29.97933,1015.3,,,TRUE,,,,,,,BKN,8000,OVC,9000,,,,,VFR,,,,,,0.005,,,,,,SPECI,83.0
KSFO 120456Z 14004KT 9SM SCT055 OVC070 16/10 A2987 RMK AO2 RAB0358E53 SLP116 P0002 T01560100 $,KSFO,2019-01-12T04:56:00Z,37.62,-122.37,15.6,10.0,140,4,,9.0,29.870079,1011.6,,,TRUE,TRUE,,,,,,SCT,5500,OVC,7000,,,,,VFR,,,,,,0.02,,,,,,METAR,3.0
KSDF 120456Z 08005KT 1 1/4SM -SN BR FEW006 BKN015 OVC026 M01/M02 A3031 RMK AO2 SLP269 SNINCR 1/1 P0003 T10061022 400281050,KSDF,2019-01-12T04:56:00Z,38.18,-85.73,-0.6,-2.2,80,5,,1.25,30.31004,1026.9,,,TRUE,,,,,,-SN BR,FEW,600,BKN,1500,OVC,2600,,,IFR,,,,2.8,-5.0,0.03,,,,1.0,,SPECI,146.0
KMOB 120456Z 07005KT 10SM SCT030 09/06 A3016 RMK AO2 SLP214 T00890056 $,KMOB,2019-01-12T04:56:00Z,30.68,-88.25,8.9,5.6,70,5,,10.0,30.159449,1021.4,,,TRUE,TRUE,,,,,,SCT,3000,,,,,,,VFR,,,,,,,,,,,,SPECI,63.0
KMDT 120456Z 00000KT 10SM CLR M06/M12 A3044 RMK AO2 SLP313 T10561117 400171061,KMDT,2019-01-12T04:56:00Z,40.2,-76.77,-5.6,-11.7,0,0,,10.0,30.43996,1031.3,,,TRUE,,,,,,,CLR,,,,,,,,VFR,,,,1.7,-6.1,,,,,,,SPECI,95.0
KLWS 120456Z 09009KT 10SM CLR 04/M01 A3012 RMK AO2 SLP211 T00441006,KLWS,2019-01-12T04:56:00Z,46.37,-117.02,4.4,-0.6,90,9,,10.0,30.121063,1021.1,,,TRUE,,,,,,,CLR,,,,,,,,VFR,,,,,,,,,,,,METAR,438.0
KRDM 120456Z AUTO 33005KT 1/4SM FZFG VV002 M01/M02 A3005 RMK AO2 SLP196 I1002 T10111017,KRDM,2019-01-12T04:56:00Z,44.25,-121.15,-1.1,-1.7,330,5,,0.25,30.050198,1019.6,,TRUE,TRUE,,,,,,FZFG,OVX,0,,,,,,,LIFR,,,,,,,,,,,200,METAR,938.0
KLAS 120456Z 36005KT 10SM SCT200 BKN250 12/M01 A3012 RMK AO2 PRESRR SLP194 T01171006,KLAS,2019-01-12T04:56:00Z,36.07,-115.17,11.7,-0.6,360,5,,10.0,30.121063,1019.4,,,TRUE,,,,,,,SCT,20000,BKN,25000,,,,,VFR,,,,,,,,,,,,METAR,636.0
KJXN 120456Z AUTO 09003KT 10SM OVC070 M04/M07 A3036 RMK AO2 SLP296 T10391072 410171089,KJXN,2019-01-12T04:56:00Z,42.27,-84.47,-3.9,-7.2,90,3,,10.0,30.360237,1029.6,,TRUE,TRUE,,,,,,,OVC,7000,,,,,,,VFR,,,,-1.7,-8.9,,,,,,,SPECI,305.0
KJAX 120456Z 02005KT 10SM FEW250 08/06 A3025 RMK AO2 SLP243 T00780056 401670017,KJAX,2019-01-12T04:56:00Z,30.5,-81.68,7.8,5.6,20,5,,10.0,30.250984,1024.3,,,TRUE,,,,,,,FEW,25000,,,,,,,VFR,,,,16.7,1.7,,,,,,,SPECI,10.0
KISP 120456Z 31006KT 10SM CLR M06/M15 A3040 RMK AO2 SLP296 LAST T10561150 400001056,KISP,2019-01-12T04:56:00Z,40.8,-73.1,-5.6,-15.0,310,6,,10.0,30.398623,1029.6,,,TRUE,,,,,,,CLR,,,,,,,,VFR,,,,,-5.6,,,,,,,SPECI,43.0
KINW 120456Z AUTO 00000KT 10SM CLR 01/M04 A3018 RMK AO2 SLP226 T00061044,KINW,2019-01-12T04:56:00Z,35.03,-110.72,0.6,-4.4,0,0,,10.0,30.180119,1022.6,,TRUE,TRUE,,,,,,,CLR,,,,,,,,VFR,,,,,,,,,,,,METAR,1490.0
KHYA 120456Z AUTO 32012G19KT 10SM CLR M07/M19 A3029 RMK AO2 SLP258 T10721189 400061072,KHYA,2019-01-12T04:56:00Z,41.67,-70.27,-7.2,-18.9,320,12,19,10.0,30.28937,1025.8,,TRUE,TRUE,,,,,,,CLR,,,,,,,,VFR,,,,0.6,-7.2,,,,,,,SPECI,22.0
KHWV 120456Z AUTO 33005KT 10SM CLR M07/M15 A3041 RMK AO2 SLP298 T10671150 410061072,KHWV,2019-01-12T04:56:00Z,40.82,-72.87,-6.7,-15.0,330,5,,10.0,30.410433,1029.8,,TRUE,TRUE,,,,,,,CLR,,,,,,,,VFR,,,,-0.6,-7.2,,,,,,,SPECI,21.0
KGRD 120456Z AUTO 00000KT 10SM OVC110 00/M03 A3037 RMK AO2 SLP286 T00001033 400891044,KGRD,2019-01-12T04:56:00Z,34.25,-82.15,0.0,-3.3,0,0,,10.0,30.369095,1028.6,,TRUE,TRUE,,,,,,,OVC,11000,,,,,,,VFR,,,,8.9,-4.4,,,,,,,SPECI,185.0
KGON 120456Z AUTO 29013G18KT 10SM CLR M08/M18 A3039 RMK AO2 SLP292 T10831183 410111083,KGON,2019-01-12T04:56:00Z,41.33,-72.05,-8.3,-18.3,290,13,18,10.0,30.389763,1029.2,,TRUE,TRUE,,,,,,,CLR,,,,,,,,VFR,,,,-1.1,-8.3,,,,,,,SPECI,3.0
KCTB 120456Z AUTO 00000KT 10SM CLR M02/M10 A3005 RMK AO2 SLP209 T10221100,KCTB,2019-01-12T04:56:00Z,48.6,-112.37,-2.2,-10.0,0,0,,10.0,30.050198,1020.9,,TRUE,TRUE,,,,,,,CLR,,,,,,,,VFR,,,,,,,,,,,,METAR,1175.0
KCHS 120456Z 03005KT 10SM CLR 01/M02 A3036 RMK AO2 SLP279 T00111022 400891011,KCHS,2019-01-12T04:56:00Z,32.9,-80.03,1.1,-2.2,30,5,,10.0,30.360237,1027.9,,,TRUE,,,,,,,CLR,,,,,,,,VFR,,,,8.9,-1.1,,,,,,,SPECI,13.0
KCEC 120456Z AUTO 14006KT 10SM SCT085 OVC120 12/08 A2982 RMK AO2 SLP097 T01220083,KCEC,2019-01-12T04:56:00Z,41.77,-124.22,12.2,8.3,140,6,,10.0,29.819881,1009.7,,TRUE,TRUE,,,,,,,SCT,8500,OVC,12000,,,,,VFR,,,,,,,,,,,,METAR,17.0
KCAE 120456Z 00000KT 10SM SCT250 M01/M03 A3038 RMK AO2 SLP288 T10061033 400831039,KCAE,2019-01-12T04:56:00Z,33.93,-81.12,-0.6,-3.3,0,0,,10.0,30.380905,1028.8,,,TRUE,,,,,,,SCT,25000,,,,,,,VFR,,,,8.3,-3.9,,,,,,,SPECI,70.0
KBZN 120456Z 14005KT 10SM CLR M07/M10 A3023 RMK AO2 SLP289 T10671100,KBZN,2019-01-12T04:56:00Z,45.78,-111.17,-6.7,-10.0,140,5,,10.0,30.230314,1028.9,,,TRUE,,,,,,,CLR,,,,,,,,VFR,,,,,,,,,,,,METAR,1361.0
KFSD 120456Z 02008KT 9SM BKN200 M05/M07 A3019 RMK AO2 SLP244 T10501067,KFSD,2019-01-12T04:56:00Z,43.58,-96.75,-5.0,-6.7,20,8,,9.0,30.188976,1024.4,,,TRUE,,,,,,,BKN,20000,,,,,,,VFR,,,,,,,,,,,,SPECI,436.0
KBJJ 120456Z AUTO 00000KT 8SM OVC090 M06/M08 A3038 RMK AO2 SLP304 T10561078 410281083,KBJJ,2019-01-12T04:56:00Z,40.87,-81.88,-5.6,-7.8,0,0,,8.0,30.380905,1030.4,,TRUE,TRUE,,,,,,,OVC,9000,,,,,,,VFR,,,,-2.8,-8.3,,,,,,,SPECI,343.0
KBIH 120456Z AUTO 18009KT 10SM CLR 06/M03 A3003 RMK AO2 SLP165 T00611033,KBIH,2019-01-12T04:56:00Z,37.37,-118.35,6.1,-3.3,180,9,,10.0,30.029528,1016.5,,TRUE,TRUE,,,,,,,CLR,,,,,,,,VFR,,,,,,,,,,,,METAR,1253.0
KBED 120456Z AUTO 31012G18KT 10SM CLR M10/M21 A3035 RMK AO2 SLP293 T11001206 410221100,KBED,2019-01-12T04:56:00Z,42.47,-71.3,-10.0,-20.6,310,12,18,10.0,30.351377,1029.3,,TRUE,TRUE,,,,,,,CLR,,,,,,,,VFR,,,,-2.2,-10.0,,,,,,,SPECI,50.0
KART 120456Z AUTO 00000KT 10SM OVC110 M14/M15 A3045 RMK AO2 SLP325 T11391150 411331194,KART,2019-01-12T04:56:00Z,43.98,-76.03,-13.9,-15.0,0,0,,10.0,30.448818,1032.5,,TRUE,TRUE,,,,,,,OVC,11000,,,,,,,VFR,,,,-13.3,-19.4,,,,,,,SPECI,100.0
KAND 120456Z AUTO 09004KT 10SM OVC100 04/M05 A3034 RMK AO2 SLP274 T00441050 401001039,KAND,2019-01-12T04:56:00Z,34.5,-82.72,4.4,-5.0,90,4,,10.0,30.339567,1027.4,,TRUE,TRUE,,,,,,,OVC,10000,,,,,,,VFR,,,,10.0,-3.9,,,,,,,SPECI,239.0
KEED 120456Z AUTO 35006KT 10SM CLR 13/02 A3007 RMK AO2 SLP170 T01330017,KEED,2019-01-12T04:56:00Z,34.77,-114.62,13.3,1.7,350,6,,10.0,30.070866,1017.0,,TRUE,TRUE,,,,,,,CLR,,,,,,,,VFR,,,,,,,,,,,,METAR,302.0
KEAU 120456Z AUTO 05004KT 10SM CLR M06/M09 A3027 RMK AO2 SLP268 T10611094,KEAU,2019-01-12T04:56:00Z,44.87,-91.47,-6.1,-9.4,50,4,,10.0,30.268702,1026.8,,TRUE,TRUE,,,,,,,CLR,,,,,,,,VFR,,,,,,,,,,,,SPECI,276.0
KDUG 120456Z AUTO 36008KT 10SM CLR 04/01 A3014 RMK AO2 SLP194 T00440006,KDUG,2019-01-12T04:56:00Z,31.47,-109.58,4.4,0.6,360,8,,10.0,30.138779,1019.4,,TRUE,TRUE,,,,,,,CLR,,,,,,,,VFR,,,,,,,,,,,,METAR,1265.0
KNOG 120456Z AUTO 17005KT 6SM BR FEW075 FEW090 BKN110 17/17 A2995 RMK AO2 PRESFR SLP123 T01670167 $,KNOG,2019-01-12T04:56:00Z,27.9,-98.05,16.7,16.7,170,5,,6.0,29.949802,1012.3,,TRUE,TRUE,TRUE,,,,,BR,FEW,7500,FEW,9000,BKN,11000,,,VFR,,,,,,,,,,,,METAR,78.0
EGUN 120456Z 24012KT 9999 OVC023 08/08 A3019 RMK AO2A SLP227 T00750075 .,EGUN,2019-01-12T04:56:00Z,52.37,0.47,7.5,7.5,240,12,,6.21,30.188976,1022.7,,,TRUE,,,,,,,OVC,2300,,,,,,,MVFR,,,,,,,,,,,,METAR,10.0
KMQY 120456Z AUTO 00000KT 10SM -RA OVC090 03/M02 A3025 RMK AO2 RAE32B53UPB14E53 SLP247 P0002 T00281017,KMQY,2019-01-12T04:56:00Z,36.02,-86.52,2.8,-1.7,0,0,,10.0,30.250984,1024.7,,TRUE,TRUE,,,,,,-RA,OVC,9000,,,,,,,VFR,,,,,,0.02,,,,,,METAR,166.0
KMNM 120456Z AUTO 03003KT 10SM OVC055 M03/M05 A3036 RMK AO2 SLP302 T10281050 410221072 FZRANO $,KMNM,2019-01-12T04:56:00Z,45.12,-87.62,-2.8,-5.0,30,3,,10.0,30.360237,1030.2,,TRUE,TRUE,TRUE,,,TRUE,,,OVC,5500,,,,,,,VFR,,,,-2.2,-7.2,,,,,,,SPECI,191.0
KMML 120456Z AUTO 34010KT 10SM OVC013 M08/M09 A3024 RMK AO2 SLP263 T10781094 FZRANO,KMML,2019-01-12T04:56:00Z,44.45,-95.82,-7.8,-9.4,340,10,,10.0,30.239174,1026.3,,TRUE,TRUE,,,,TRUE,,,OVC,1300,,,,,,,MVFR,,,,,,,,,,,,SPECI,359.0
KMKY 120456Z AUTO 07003KT 10SM FEW060 16/13 A3016 RMK AO2 SLP213 T01610128 402440072,KMKY,2019-01-12T04:56:00Z,26.0,-81.67,16.1,12.8,70,3,,10.0,30.159449,1021.3,,TRUE,TRUE,,,,,,,FEW,6000,,,,,,,VFR,,,,24.4,7.2,,,,,,,METAR,2.0
KMKT 120456Z AUTO 11006KT 10SM CLR M04/M06 A3022 RMK AO2 SLP251 T10391056 FZRANO,KMKT,2019-01-12T04:56:00Z,44.22,-93.92,-3.9,-5.6,110,6,,10.0,30.221457,1025.1,,TRUE,TRUE,,,,TRUE,,,CLR,,,,,,,,VFR,,,,,,,,,,,,SPECI,311.0
KMJX 120456Z AUTO 34006KT 10SM CLR M06/M16 A3045 RMK AO2 SLP317 T10561156 400061061 FZRANO,KMJX,2019-01-12T04:56:00Z,39.93,-74.3,-5.6,-15.6,340,6,,10.0,30.448818,1031.7,,TRUE,TRUE,,,,TRUE,,,CLR,,,,,,,,VFR,,,,0.6,-6.1,,,,,,,SPECI,25.0
KMBL 120456Z AUTO 10006KT 10SM OVC018 M03/M08 A3037 RMK AO2 SLP307 T10331083 FZRANO,KMBL,2019-01-12T04:56:00Z,44.27,-86.25,-3.3,-8.3,100,6,,10.0,30.369095,1030.7,,TRUE,TRUE,,,,TRUE,,,OVC,1800,,,,,,,MVFR,,,,,,,,,,,,SPECI,189.0
PAMH 120456Z AUTO 00000KT 4SM HZ CLR M41/ A2989 RMK AO2 SLP876 T1406 FZRANO,PAMH,2019-01-12T04:56:00Z,63.9,-152.32,-40.6,,0,0,,4.0,29.890747,987.6,,TRUE,TRUE,,,,TRUE,,HZ,CLR,,,,,,,,MVFR,,,,,,,,,,,,METAR,214.0
PAMB 120456Z AUTO 04019KT 10SM OVC032 M22/M26 A2956 RMK AO2 PK WND 05026/0431 SLP019 T12171261 FZRANO $,PAMB,2019-01-12T04:56:00Z,58.98,-159.05,-21.7,-26.1,40,19,,10.0,29.56004,1001.9,,TRUE,TRUE,TRUE,,,TRUE,,,OVC,3200,,,,,,,VFR,,,,,,,,,,,,METAR,16.0
PALG 120456Z AUTO 05007KT 360V070 10SM CLR M28/M33 A2978 RMK AO2 SNB08E18 SLP089 P0000 T12831328 FZRANO,PALG,2019-01-12T04:56:00Z,61.53,-160.33,-28.3,-32.8,50,7,,10.0,29.778543,1008.9,,TRUE,TRUE,,,,TRUE,,,CLR,,,,,,,,VFR,,,,,,0.005,,,,,,METAR,17.0
PAKI 120456Z AUTO 02016KT 10SM CLR M31/M33 A2971 RMK AO2 SLPNO T13061333 FZRANO,PAKI,2019-01-12T04:56:00Z,59.93,-164.03,-30.6,-33.3,20,16,,10.0,29.71063,,,TRUE,TRUE,,,,TRUE,,,CLR,,,,,,,,VFR,,,,,,,,,,,,METAR,4.0
PAJZ 120456Z AUTO 34007KT 8SM CLR M29/M33 A2973 RMK AO2 SLP076 T12941333 FZRANO $,PAJZ,2019-01-12T04:56:00Z,59.73,-157.27,-29.4,-33.3,340,7,,8.0,29.731298,1007.6,,TRUE,TRUE,TRUE,,,TRUE,,,CLR,,,,,,,,VFR,,,,,,,,,,,,METAR,82.0
PAIN 120456Z AUTO 00000KT 10SM CLR M41/ A2973 RMK AO2 SLP165 T1406 FZRANO,PAIN,2019-01-12T04:56:00Z,63.73,-148.92,-40.6,,0,0,,10.0,29.731298,1016.5,,TRUE,TRUE,,,,TRUE,,,CLR,,,,,,,,VFR,,,,,,,,,,,,METAR,524.0
PAIK 120456Z AUTO 00000KT 10SM CLR M37/ A3006 RMK AO2 SLP190 T1367 FZRANO,PAIK,2019-01-12T04:56:00Z,66.98,-160.43,-36.7,,0,0,,10.0,30.059055,1019.0,,TRUE,TRUE,,,,TRUE,,,CLR,,,,,,,,VFR,,,,,,,,,,,,METAR,51.0
PAHY 120456Z AUTO 16004KT 10SM OVC041 06/04 A2976 RMK AO2 SLP177 T00560044 $,PAHY,2019-01-12T04:56:00Z,55.2,-132.83,5.6,4.4,160,4,,10.0,29.760826,1017.7,,TRUE,TRUE,TRUE,,,,,,OVC,4100,,,,,,,VFR,,,,,,,,,,,,METAR,1.0
PAHL 120456Z AUTO 00000KT 10SM CLR M44/ A3000 RMK AO2 SLP173 T1439 FZRANO,PAHL,2019-01-12T04:56:00Z,65.7,-156.35,-43.9,,0,0,,10.0,30.0,1017.3,,TRUE,TRUE,,,,TRUE,,,CLR,,,,,,,,VFR,,,,,,,,,,,,METAR,65.0
PAGM 120456Z AUTO 03021G26KT 4SM HZ BKN017 BKN021 M24/M27 A3002 RMK AO2 PK WND 02028/0412 SLP174 T12391272 FZRANO,PAGM,2019-01-12T04:56:00Z,63.77,-171.73,-23.9,-27.2,30,21,26,4.0,30.02067,1017.4,,TRUE,TRUE,,,,TRUE,,HZ,BKN,1700,BKN,2100,,,,,MVFR,,,,,,,,,,,,METAR,8.0
PAEM 120456Z AUTO 03007KT 10SM CLR M33/M36 A2991 RMK AO2 SLP190 T13331361 FZRANO,PAEM,2019-01-12T04:56:00Z,62.78,-164.48,-33.3,-36.1,30,7,,10.0,29.911417,1019.0,,TRUE,TRUE,,,,TRUE,,,CLR,,,,,,,,VFR,,,,,,,,,,,,METAR,3.0
PADU 120456Z AUTO 04005KT 10SM -RA OVC015 03/01 A2914 RMK AO2 UPE00RAB00 SLP872 P0001 T00280006,PADU,2019-01-12T04:56:00Z,53.9,-166.53,2.8,0.6,40,5,,10.0,29.140747,987.2,,TRUE,TRUE,,,,,,-RA,OVC,1500,,,,,,,MVFR,,,,,,0.01,,,,,,METAR,4.0
PADL 120456Z 01016KT 10SM SCT034 M22/M28 A2960 RMK AO2 SLP029 T12221283,PADL,2019-01-12T04:56:00Z,59.05,-158.5,-22.2,-28.3,10,16,,10.0,29.601377,1002.9,,,TRUE,,,,,,,SCT,3400,,,,,,,VFR,,,,,,,,,,,,METAR,26.0
PAZK 120456Z AUTO 01006KT 10SM CLR M28/M31 A2945 RMK AO2 SLP102 T12781306 FZRANO,PAZK,2019-01-12T04:56:00Z,61.93,-147.17,-27.8,-30.6,10,6,,10.0,29.450787,1010.2,,TRUE,TRUE,,,,TRUE,,,CLR,,,,,,,,VFR,,,,,,,,,,,,METAR,1003.0
PASL 120456Z AUTO 00000KT 3/4SM BR OVC001 M43/ A2989 RMK AO2 SLP120 T1428 FZRANO,PASL,2019-01-12T04:56:00Z,61.72,-157.15,-42.8,,0,0,,0.75,29.890747,1012.0,,TRUE,TRUE,,,,TRUE,,BR,OVC,100,,,,,,,LIFR,,,,,,,,,,,,METAR,55.0
PAQH 120456Z AUTO 35018KT 10SM CLR M32/M35 A2963 RMK AO2 SLP033 T13221350 FZRANO,PAQH,2019-01-12T04:56:00Z,59.75,-161.85,-32.2,-35.0,350,18,,10.0,29.630905,1003.3,,TRUE,TRUE,,,,TRUE,,,CLR,,,,,,,,VFR,,,,,,,,,,,,METAR,13.0
PAPN 120456Z AUTO 04016KT 10SM BKN034 BKN110 M17/M19 A2944 RMK AO2 SLP969 T11671189 PWINO FZRANO $,PAPN,2019-01-12T04:56:00Z,57.58,-157.57,-16.7,-18.9,40,16,,10.0,29.438976,996.9,,TRUE,TRUE,TRUE,,,TRUE,TRUE,,BKN,3400,BKN,11000,,,,,VFR,,,,,,,,,,,,METAR,18.0
PAOH 120456Z AUTO 00000KT 4SM UP BR OVC006 00/M01 A2971 RMK AO2 CIG 004V008 SLP061 P0000 T00001006 FZRANO,PAOH,2019-01-12T04:56:00Z,58.1,-135.45,0.0,-0.6,0,0,,4.0,29.71063,1006.1,,TRUE,TRUE,,,,TRUE,,BR UP,OVC,600,,,,,,,IFR,,,,,,0.005,,,,,,METAR,9.0
PANI 120456Z AUTO 09003KT 10SM CLR M35/ A2980 RMK AO2 SLP062 T1350 FZRANO,PANI,2019-01-12T04:56:00Z,61.58,-159.53,-35.0,,90,3,,10.0,29.799213,1006.2,,TRUE,TRUE,,,,TRUE,,,CLR,,,,,,,,VFR,,,,,,,,,,,,METAR,26.0
PANA 120456Z AUTO 03015G23KT 10SM CLR M31/M34 A2970 RMK AO2 SLP058 T13111344 FZRANO,PANA,2019-01-12T04:56:00Z,60.68,-161.98,-31.1,-34.4,30,15,23,10.0,29.698818,1005.8,,TRUE,TRUE,,,,TRUE,,,CLR,,,,,,,,VFR,,,,,,,,,,,,METAR,5.0
PAII 120456Z AUTO 04013G20KT 10SM BKN041 OVC050 M19/M23 A2951 RMK AO2 SLP997 T11941228 FZRANO,PAII,2019-01-12T04:56:00Z,58.18,-157.38,-19.4,-22.8,40,13,20,10.0,29.509842,999.7,,TRUE,TRUE,,,,TRUE,,,BKN,4100,OVC,5000,,,,,VFR,,,,,,,,,,,,METAR,30.0
PAHP 120456Z AUTO 04010KT 10SM CLR M28/M32 A2986 RMK AO2 SLP149 T12831317 FZRANO,PAHP,2019-01-12T04:56:00Z,61.52,-166.15,-28.3,-31.7,40,10,,10.0,29.861221,1014.9,,TRUE,TRUE,,,,TRUE,,,CLR,,,,,,,,VFR,,,,,,,,,,,,METAR,5.0
PAGN 120456Z AUTO 13003KT 10SM BKN036 BKN042 01/00 A2972 RMK AO2 SLP054 T00060000 FZRANO,PAGN,2019-01-12T04:56:00Z,57.5,-134.58,0.6,0.0,130,3,,10.0,29.719488,1005.4,,TRUE,TRUE,,,,TRUE,,,BKN,3600,BKN,4200,,,,,VFR,,,,,,,,,,,,METAR,2.0
PAGL 120456Z AUTO 32008KT 10SM CLR M34/M37 A2998 RMK AO2 SLP149 T13391372 FZRANO,PAGL,2019-01-12T04:56:00Z,64.55,-163.03,-33.9,-37.2,320,8,,10.0,29.97933,1014.9,,TRUE,TRUE,,,,TRUE,,,CLR,,,,,,,,VFR,,,,,,,,,,,,METAR,8.0
PAFE 120456Z AUTO 10007KT 10SM BKN020 OVC027 04/03 A2975 RMK AO2 RAE27 SLP088 P0000 T00440033,PAFE,2019-01-12T04:56:00Z,56.97,-133.92,4.4,3.3,100,7,,10.0,29.749016,1008.8,,TRUE,TRUE,,,,,,,BKN,2000,OVC,2700,,,,,MVFR,,,,,,0.005,,,,,,METAR,9.0
PADK 120456Z AUTO 17012KT 5SM -RA BKN019 OVC029 04/01 A2879 RMK AO2 RAB20 SLP749 P0000 T00390011,PADK,2019-01-12T04:56:00Z,51.88,-176.65,3.9,1.1,170,12,,5.0,28.78937,974.9,,TRUE,TRUE,,,,,,-RA,BKN,1900,OVC,2900,,,,,MVFR,,,,,,0.005,,,,,,METAR,4.0
KYKN 120456Z AUTO 33010KT 8SM CLR M03/M04 A3018 RMK AO2 SLP250 T10281039 FZRANO,KYKN,2019-01-12T04:56:00Z,42.92,-97.37,-2.8,-3.9,330,10,,8.0,30.180119,1025.0,,TRUE,TRUE,,,,TRUE,,,CLR,,,,,,,,VFR,,,,,,,,,,,,METAR,398.0
KY50 120456Z AUTO 09003KT 10SM OVC050 M03/M06 A3031 RMK AO2 SLP293 T10281056 FZRANO $,KY50,2019-01-12T04:56:00Z,44.03,-89.3,-2.8,-5.6,90,3,,10.0,30.31004,1029.3,,TRUE,TRUE,TRUE,,,TRUE,,,OVC,5000,,,,,,,VFR,,,,,,,,,,,,METAR,262.0
KWVL 120456Z AUTO 10SM CLR M16/M22 A3017 RMK AO2 SLP253 T11561217 410721167 FZRANO $,KWVL,2019-01-12T04:56:00Z,44.52,-69.67,-15.6,-21.7,,,,10.0,30.171259,1025.3,,TRUE,TRUE,TRUE,,,TRUE,,,CLR,,,,,,,,VFR,,,,-7.2,-16.7,,,,,,,SPECI,101.0
KPBH 120455Z AUTO 09003KT 10SM OVC042 M04/M08 A3026 RMK AO2 T10411083,KPBH,2019-01-12T04:55:00Z,45.7,-90.4,-4.1,-8.3,90,3,,10.0,30.259842,,,TRUE,TRUE,,,,,,,OVC,4200,,,,,,,VFR,,,,,,,,,,,,METAR,449.0
KMYJ 120455Z AUTO 10007KT 1SM -SN OVC004 M02/M02 A3015 RMK AO2 P0006,KMYJ,2019-01-12T04:55:00Z,39.15,-91.82,-2.0,-2.0,100,7,,1.0,30.15059,,,TRUE,TRUE,,,,,,-SN,OVC,400,,,,,,,LIFR,,,,,,0.06,,,,,,METAR,251.0
KNBG 120455Z 00000KT 10SM CLR 08/08 A3013 RMK AO2 SLP201 T00780078 $,KNBG,2019-01-12T04:55:00Z,29.82,-90.02,7.8,7.8,0,0,,10.0,30.129921,1020.1,,,TRUE,TRUE,,,,,,CLR,,,,,,,,VFR,,,,,,,,,,,,METAR,1.0
OAHR 120455Z 00000KT CAVOK 00/M02 Q1027 RMK A3035 BLU,OAHR,2019-01-12T04:55:00Z,34.22,62.22,0.0,-2.0,0,0,,6.21,30.324802,,,,,,,,,,,CAVOK,,,,,,,,VFR,,,,,,,,,,,,METAR,964.0
OPLA 120455Z 06004KT 2000 FU SCT100 14/07 Q1020 BECMG 2500 RMK QFE994 RMK A30.11,OPLA,2019-01-12T04:55:00Z,31.52,74.4,14.0,7.0,60,4,,1.24,30.11811,,,,,,,,,,FU,SCT,10000,,,,,,,IFR,,,,,,,,,,,,METAR,217.0
OPKC 120455Z 03006KT 3000 HZ BKN100 20/07 Q1018 NOSIG,OPKC,2019-01-12T04:55:00Z,24.88,67.17,20.0,7.0,30,6,,1.86,30.059055,,,,,,TRUE,,,,HZ,BKN,10000,,,,,,,IFR,,,,,,,,,,,,METAR,22.0
OPIS 120455Z 09004KT 5000 FU SCT030 BKN100 10/09 Q1020 RH96,OPIS,2019-01-12T04:55:00Z,33.55,72.83,10.0,9.0,90,4,,3.11,30.11811,,,,,,,,,,FU,SCT,3000,BKN,10000,,,,,MVFR,,,,,,,,,,,,METAR,537.0
FJDG 120455Z 12009KT 9999 FEW025 SCT250 30/27 A2991 RMK SLP125 T03020273,FJDG,2019-01-12T04:55:00Z,-7.32,72.42,30.2,27.3,120,9,,6.21,29.911417,1012.5,,,,,,,,,,FEW,2500,SCT,25000,,,,,VFR,,,,,,,,,,,,METAR,3.0
KQZF 120455Z AUTO 35003KT 10SM CLR 16/M08 A2997 RMK AO2 SLP139 WND DATA ESTMD T01611085 $,KQZF,2019-01-12T04:55:00Z,,,16.1,-8.5,350,3,,10.0,29.970472,1013.9,,TRUE,TRUE,TRUE,,,,,,CLR,,,,,,,,VFR,,,,,,,,,,,,METAR,
KWWD 120455Z AUTO 01004KT 10SM CLR M03/M11 A3045 RMK AO2 SLP315 T10281111 400111028 FZRANO,KWWD,2019-01-12T04:55:00Z,39.02,-74.92,-2.8,-11.1,10,4,,10.0,30.448818,1031.5,,TRUE,TRUE,,,,TRUE,,,CLR,,,,,,,,VFR,,,,1.1,-2.8,,,,,,,METAR,7.0
KAAT 120455Z AUTO 09004KT 9SM CLR 01/M02 A2999 RMK AO2 SLP172 T00111017,KAAT,2019-01-12T04:55:00Z,41.48,-120.57,1.1,-1.7,90,4,,9.0,29.991142,1017.2,,TRUE,TRUE,,,,,,,CLR,,,,,,,,VFR,,,,,,,,,,,,SPECI,1331.0
KCNW 120455Z 15006KT 10SM -RA SCT005 BKN024 13/13 A2994,KCNW,2019-01-12T04:55:00Z,31.63,-97.07,13.0,13.0,150,6,,10.0,29.940945,,,,,,,,,,-RA,SCT,500,BKN,2400,,,,,MVFR,,,,,,,,,,,,METAR,156.0
KBAD 120455Z 16009KT 10SM FEW040 OVC080 11/03 A2999 RMK AO2A SLP159 T01050026 $,KBAD,2019-01-12T04:55:00Z,32.5,-93.67,10.5,2.6,160,9,,10.0,29.991142,1015.9,,,TRUE,TRUE,,,,,,FEW,4000,OVC,8000,,,,,VFR,,,,,,,,,,,,SPECI,51.0
KAST 120455Z AUTO 05007KT 10SM BKN090 09/04 A2987 RMK AO2 SLP113 T00890039,KAST,2019-01-12T04:55:00Z,46.15,-123.88,8.9,3.9,50,7,,10.0,29.870079,1011.3,,TRUE,TRUE,,,,,,,BKN,9000,,,,,,,VFR,,,,,,,,,,,,SPECI,3.0
TNCE 120455Z AUTO 08003KT 050V110 //// // ///////// 22/21 Q1017 RE//,TNCE,2019-01-12T04:55:00Z,17.47,-62.97,22.0,21.0,80,3,,,30.029528,,,TRUE,,,,,,,,,,,,,,,,,,,,,,,,,,,,SPECI,39.0
TNCB 120455Z AUTO 08007KT 9999 FEW017/// 25/22 Q1014,TNCB,2019-01-12T04:55:00Z,12.13,-68.28,25.0,22.0,80,7,,6.21,29.940945,,,TRUE,,,,,,,,FEW,1700,,,,,,,VFR,,,,,,,,,,,,METAR,6.0
KUGN 120455Z AUTO 17006KT 9SM OVC075 M01/M06 A3031 RMK AO2 SLP277 T10061056,KUGN,2019-01-12T04:55:00Z,42.42,-87.87,-0.6,-5.6,170,6,,9.0,30.31004,1027.7,,TRUE,TRUE,,,,,,,OVC,7500,,,,,,,VFR,,,,,,,,,,,,SPECI,222.0
KANJ 120455Z AUTO 07003KT 10SM OVC090 M11/M14 A3044 RMK AO2 SNE21 SLP323 P0000 T11061139 411001178,KANJ,2019-01-12T04:55:00Z,46.47,-84.37,-10.6,-13.9,70,3,,10.0,30.43996,1032.3,,TRUE,TRUE,,,,,,,OVC,9000,,,,,,,VFR,,,,-10.0,-17.8,0.005,,,,,,SPECI,218.0
KEAT 120455Z AUTO 33004KT 10SM FEW033 01/M01 A3017 RMK AO2 SLP227 T00111006,KEAT,2019-01-12T04:55:00Z,47.4,-120.2,1.1,-0.6,330,4,,10.0,30.171259,1022.7,,TRUE,TRUE,,,,,,,FEW,3300,,,,,,,VFR,,,,,,,,,,,,SPECI,377.0
KDLH 120455Z 09008KT 10SM OVC011 M03/M07 A3028 RMK AO2 SLP279 T10331067,KDLH,2019-01-12T04:55:00Z,46.85,-92.2,-3.3,-6.7,90,8,,10.0,30.280512,1027.9,,,TRUE,,,,,,,OVC,1100,,,,,,,MVFR,,,,,,,,,,,,SPECI,435.0
KCNK 120455Z AUTO 03009KT 1 1/4SM -SN BR OVC002 00/00 A3003 RMK AO2 SLP179 P0005 T00000000,KCNK,2019-01-12T04:55:00Z,39.55,-97.65,0.0,0.0,30,9,,1.25,30.029528,1017.9,,TRUE,TRUE,,,,,,-SN BR,OVC,200,,,,,,,LIFR,,,,,,0.05,,,,,,METAR,447.0
KCMA 120455Z 06009KT 4SM HZ CLR 13/09 A2996 RMK AO2 SLP153 T01280089,KCMA,2019-01-12T04:55:00Z,34.22,-119.1,12.8,8.9,60,9,,4.0,29.958662,1015.3,,,TRUE,,,,,,HZ,CLR,,,,,,,,MVFR,,,,,,,,,,,,SPECI,23.0
KCAG 120455Z AUTO 00000KT 1/2SM FZFG VV002 M06/M07 A3018 RMK AO2 T10611072,KCAG,2019-01-12T04:55:00Z,40.5,-107.52,-6.1,-7.2,0,0,,0.5,30.180119,,,TRUE,TRUE,,,,,,FZFG,OVX,0,,,,,,,LIFR,,,,,,,,,,,200,METAR,1887.0
KRNO 120455Z 00000KT 10SM BKN200 03/M02 A3004 RMK AO2 SLP176 T00281017,KRNO,2019-01-12T04:55:00Z,39.5,-119.77,2.8,-1.7,0,0,,10.0,30.041338,1017.6,,,TRUE,,,,,,,BKN,20000,,,,,,,VFR,,,,,,,,,,,,SPECI,1342.0
KINL 120455Z AUTO 08006KT 10SM OVC014 M07/M08 A3038 RMK AO2 SLP314 T10671078,KINL,2019-01-12T04:55:00Z,48.57,-93.4,-6.7,-7.8,80,6,,10.0,30.380905,1031.4,,TRUE,TRUE,,,,,,,OVC,1400,,,,,,,MVFR,,,,,,,,,,,,SPECI,360.0
KHON 120455Z AUTO 36013KT 6SM BR OVC006 M07/M09 A3025 RMK AO2 SLP265 T10721089,KHON,2019-01-12T04:55:00Z,44.38,-98.23,-7.2,-8.9,360,13,,6.0,30.250984,1026.5,,TRUE,TRUE,,,,,,BR,OVC,600,,,,,,,IFR,,,,,,,,,,,,SPECI,390.0
KLLJ 120455Z AUTO 23003KT 10SM OVC014 M03/M07 A3029 RMK AO2 SLP293 T10331067,KLLJ,2019-01-12T04:55:00Z,44.52,-114.22,-3.3,-6.7,230,3,,10.0,30.28937,1029.3,,TRUE,TRUE,,,,,,,OVC,1400,,,,,,,MVFR,,,,,,,,,,,,SPECI,1536.0
KSCK 120455Z AUTO 10003KT 4SM BR FEW110 09/08 A2990 RMK AO2 SLP123 T00940083,KSCK,2019-01-12T04:55:00Z,37.88,-121.22,9.4,8.3,100,3,,4.0,29.899607,1012.3,,TRUE,TRUE,,,,,,BR,FEW,11000,,,,,,,MVFR,,,,,,,,,,,,SPECI,10.0
PGWT 120455Z 08015KT 7SM SCT016 M/M A2984,PGWT,2019-01-12T04:55:00Z,14.98,145.62,,,80,15,,7.0,29.840551,,,,,,,,,,,SCT,1600,,,,,,,VFR,,,,,,,,,,,,METAR,82.0
NZWD 120455Z 05009KT 9999 FEW090 BKN180 M02/M06 A2953 RMK SLP999 GRID22009KT SDG/HDG,NZWD,2019-01-12T04:55:00Z,-77.87,167.07,-2.0,-6.0,50,9,,6.21,29.530512,999.9,,,,,,,,,,FEW,9000,BKN,18000,,,,,VFR,,,,,,,,,,,,SPECI,22.0
KGPI 120455Z 00000KT 1/2SM FZFG VV002 M01/M01 A3021 RMK AO2 SLP258 I1000 T10061011,KGPI,2019-01-12T04:55:00Z,48.32,-114.25,-0.6,-1.1,0,0,,0.5,30.209646,1025.8,,,TRUE,,,,,,FZFG,OVX,0,,,,,,,LIFR,,,,,,,,,,,200,METAR,908.0
TXKF 120455Z 29014KT 9999 -SHRA FEW017 BKN038 BKN060 14/11 Q1023 ,TXKF,2019-01-12T04:55:00Z,32.37,-64.68,14.0,11.0,290,14,,6.21,30.206694,,,,,,,,,,-SHRA,FEW,1700,BKN,3800,BKN,6000,,,VFR,,,,,,,,,,,,METAR,6.0
KNFG 120455Z AUTO 05005KT 5SM BR OVC012 12/11 A3000 RMK AO2 SLP157 T01170111,KNFG,2019-01-12T04:55:00Z,33.28,-117.33,11.7,11.1,50,5,,5.0,30.0,1015.7,,TRUE,TRUE,,,,,,BR,OVC,1200,,,,,,,MVFR,,,,,,,,,,,,SPECI,24.0
KPHP 120455Z AUTO 05005KT 10SM CLR M06/M07 A3024 RMK AO2 SLP261 T10561067,KPHP,2019-01-12T04:55:00Z,44.05,-101.6,-5.6,-6.7,50,5,,10.0,30.239174,1026.1,,TRUE,TRUE,,,,,,,CLR,,,,,,,,VFR,,,,,,,,,,,,SPECI,672.0
KBYS 120455Z AUTO 21002KT 7SM BKN190 07/00 A3007 RMK AO2 SLP201 WND DATA ESTMD T00661003,KBYS,2019-01-12T04:55:00Z,35.28,-116.62,6.6,-0.3,210,2,,7.0,30.070866,1020.1,,TRUE,TRUE,,,,,,,BKN,19000,,,,,,,VFR,,,,,,,,,,,,SPECI,716.0
KGLY 120455Z AUTO 12005KT +SN OVC004 00/00 A3006 RMK AO2,KGLY,2019-01-12T04:55:00Z,38.35,-93.68,0.0,0.0,120,5,,,30.059055,,,TRUE,TRUE,,,,,,+SN,OVC,400,,,,,,,,,,,,,,,,,,,METAR,251.0
KNKX 120455Z 12004KT 7SM BKN010 14/10 A3000 RMK AO2 SLP154 T01440100,KNKX,2019-01-12T04:55:00Z,32.87,-117.13,14.4,10.0,120,4,,7.0,30.0,1015.4,,,TRUE,,,,,,,BKN,1000,,,,,,,MVFR,,,,,,,,,,,,METAR,146.0
MUHA 120455Z 10004KT 9000 SKC 17/14 Q1019,MUHA,2019-01-12T04:55:00Z,22.97,-82.42,17.0,14.0,100,4,,5.59,30.088583,,,,,,,,,,,SKC,,,,,,,,VFR,,,,,,,,,,,,METAR,64.0
KQBL 120455Z AUTO 00000KT 10SM CLR 07/04 A3020 RMK AO2 SLP226 WND DATA ESTMD T00670037,KQBL,2019-01-12T04:55:00Z,,,6.7,3.7,0,0,,10.0,30.200787,1022.6,,TRUE,TRUE,,,,,,,CLR,,,,,,,,VFR,,,,,,,,,,,,METAR,
OAJL 120455Z 07001KT 6000 BR SCT070 BKN130 12/04 A3016 RMK AO2A SLP213 T01150041,OAJL,2019-01-12T04:55:00Z,34.42,70.47,11.5,4.1,70,1,,3.73,30.159449,1021.3,,,TRUE,,,,,,BR,SCT,7000,BKN,13000,,,,,MVFR,,,,,,,,,,,,METAR,580.0
KMEZ 120455Z AUTO 08006KT 3SM SCT037 OVC047 04/03 A3002 RMK AO2,KMEZ,2019-01-12T04:55:00Z,34.55,-94.2,4.0,3.0,80,6,,3.0,30.02067,,,TRUE,TRUE,,,,,,,SCT,3700,OVC,4700,,,,,MVFR,,,,,,,,,,,,SPECI,329.0
ORBD 120455Z 30004KT 8000 BRFU FEW003 FEW180 BKN280 M01/M02 A3021 RMK VIS SE-S 5000 FU FEW003 WND DATA ALSTG ESTMD,ORBD,2019-01-12T04:55:00Z,33.93,44.37,-1.0,-2.0,300,4,,4.97,30.209646,,,,,,,,,,FU BR,FEW,300,FEW,18000,BKN,28000,,,MVFR,,,,,,,,,,,,METAR,49.0
RJOI 120455Z 03005KT 9999 SCT017 BKN055 BKN110 08/03 A3007 RMK SLP182 T00780033,RJOI,2019-01-12T04:55:00Z,34.13,132.22,7.8,3.3,30,5,,6.21,30.070866,1018.2,,,,,,,,,,SCT,1700,BKN,5500,BKN,11000,,,VFR,,,,,,,,,,,,METAR,2.0
PATL 120455Z AUTO 11003KT 10SM CLR M36/M40 A2979 RMK AO2 SLP157 T13611397,PATL,2019-01-12T04:55:00Z,62.9,-155.97,-36.1,-39.7,110,3,,10.0,29.790354,1015.7,,TRUE,TRUE,,,,,,,CLR,,,,,,,,VFR,,,,,,,,,,,,METAR,294.0
PASV 120455Z AUTO 03004KT 10SM CLR M33/M36 A2953 RMK AO2 SLP101 T13311360,PASV,2019-01-12T04:55:00Z,61.1,-155.57,-33.1,-36.0,30,4,,10.0,29.530512,1010.1,,TRUE,TRUE,,,,,,,CLR,,,,,,,,VFR,,,,,,,,,,,,METAR,484.0
PALU 120455Z AUTO 06023KT 010V090 7SM CLR M28/M32 A3025 RMK AO2 SLP243 T12841317,PALU,2019-01-12T04:55:00Z,68.88,-166.1,-28.4,-31.7,60,23,,7.0,30.250984,1024.3,,TRUE,TRUE,,,,,,,CLR,,,,,,,,VFR,,,,,,,,,,,,METAR,3.0
PAIM 120455Z AUTO 00000KT 10SM CLR M31/M33 A2982 RMK AO2 SLP170 T13071334,PAIM,2019-01-12T04:55:00Z,66.0,-153.7,-30.7,-33.4,0,0,,10.0,29.819881,1017.0,,TRUE,TRUE,,,,,,,CLR,,,,,,,,VFR,,,,,,,,,,,,METAR,389.0
PAEH 120455Z AUTO 07004KT 10SM SCT110 M18/M20 A2953 RMK AO2 SLP021 T11811196,PAEH,2019-01-12T04:55:00Z,58.65,-162.07,-18.1,-19.6,70,4,,10.0,29.530512,1002.1,,TRUE,TRUE,,,,,,,SCT,11000,,,,,,,VFR,,,,,,,,,,,,METAR,161.0
LIRS 120455Z VRB02KT CAVOK M03/M06 Q1019 RMK SKC VIS MIN 9999 WIND THR03 07003KT WIND THR21 35002KT BLU,LIRS,2019-01-12T04:55:00Z,42.75,11.07,-3.0,-6.0,0,2,,6.21,30.088583,,,,,,,,,,,CAVOK,,,,,,,,VFR,,,,,,,,,,,,METAR,7.0
LIRM 120455Z /////KT CAVOK M02/M05 Q1016,LIRM,2019-01-12T04:55:00Z,41.03,14.07,-2.0,-5.0,,,,6.21,30.0,,,,,,,,,,,CAVOK,,,,,,,,VFR,,,,,,,,,,,,METAR,10.0
LICT 120455Z 02009KT 9999 FEW018 SCT028 06/04 Q1014 RMK BKN BKN070 VIS MIN 9999 WIND THR13 36011KT BLU,LICT,2019-01-12T04:55:00Z,37.92,12.5,6.0,4.0,20,9,,6.21,29.940945,,,,,,,,,,,FEW,1800,SCT,2800,,,,,VFR,,,,,,,,,,,,METAR,7.0
LIPC 120455Z 25003KT CAVOK M03/M05 Q1019 RMK SKC VIS MIN 9999 WIND THR11 /////KT WIND THR29 24003KT BLU,LIPC,2019-01-12T04:55:00Z,44.22,12.3,-3.0,-5.0,250,3,,6.21,30.088583,,,,,,,,,,,CAVOK,,,,,,,,VFR,,,,,,,,,,,,SPECI,10.0
LIVF 120455Z 22007KT CAVOK M01/M05 Q1016 RMK FEW FEW080 MON LIB VAL NIL VIS MIN 9999,LIVF,2019-01-12T04:55:00Z,43.52,12.72,-1.0,-5.0,220,7,,6.21,30.0,,,,,,,,,,,CAVOK,,,,,,,,VFR,,,,,,,,,,,,METAR,574.0
LIRT 120455Z 02003KT 9999 OVC000 M03/M06 Q1013 RMK OVC MON INVIS VAL INVIS VIS MIN 9999,LIRT,2019-01-12T04:55:00Z,41.03,15.22,-3.0,-6.0,20,3,,6.21,29.911417,,,,,,,,,,,OVC,0,,,,,,,LIFR,,,,,,,,,,,,METAR,1093.0
LIRK 120455Z AUTO VRB08KT //// M06/M22 Q1011,LIRK,2019-01-12T04:55:00Z,42.47,12.97,-6.0,-22.0,0,8,,,29.852362,,,TRUE,,,,,,,,,,,,,,,,,,,,,,,,,,,,METAR,1875.0
LIRE 120455Z 01010KT CAVOK M00/M05 Q1017 RMK SKC VIS MIN 9999 WIND THR13 02010KT WIND THR31 /////KT BLU,LIRE,2019-01-12T04:55:00Z,41.63,12.42,0.0,-5.0,10,10,,6.21,30.029528,,,,,,,,,,,CAVOK,,,,,,,,VFR,,,,,,,,,,,,METAR,12.0
LIPS 120455Z 05003KT CAVOK M00/M02 Q1018 RMK BKN BKN200 VIS MIN 9999 WIND THR26 02003KT WIND THR08 07003KT BLU,LIPS,2019-01-12T04:55:00Z,45.67,12.08,0.0,-2.0,50,3,,6.21,30.059055,,,,,,,,,,,CAVOK,,,,,,,,VFR,,,,,,,,,,,,METAR,41.0
LIPL 120455Z 26002KT CAVOK M03/M03 Q1019 RMK SCT SCT100 VIS MIN 9999 WIND THR31 27002KT WIND THR13 27002KT BLU,LIPL,2019-01-12T04:55:00Z,45.42,10.27,-3.0,-3.0,260,2,,6.21,30.088583,,,,,,,,,,,CAVOK,,,,,,,,VFR,,,,,,,,,,,,METAR,92.0
LIPA 120455Z 36003KT CAVOK M03/M03 Q1018 RMK SKC VIS MIN 9999 WIND THR05 15004KT WIND THR23 10002KT A3008 BLU,LIPA,2019-01-12T04:55:00Z,46.02,12.58,-3.0,-3.0,360,3,,6.21,30.059055,,,,,,,,,,,CAVOK,,,,,,,,VFR,,0.2,,,,,,,,,,METAR,126.0
LIMK 120455Z 00000KT CAVOK 02/M19 Q1017 RMK SKC VAL NIL VIS MIN 9999,LIMK,2019-01-12T04:55:00Z,45.02,7.72,2.0,-19.0,0,0,,6.21,30.029528,,,,,,,,,,,CAVOK,,,,,,,,VFR,,,,,,,,,,,,METAR,710.0
LIMH 120455Z /////KT CAVOK M11/M14 Q1014 RMK SKC MON LIB VAL NIL VIS MIN 9999,LIMH,2019-01-12T04:55:00Z,45.93,7.7,-11.0,-14.0,,,,6.21,29.940945,,,,,,,,,,,CAVOK,,,,,,,,VFR,,,,,,,,,,,,METAR,3488.0
LIED 120455Z 26004KT CAVOK M01/M03 Q1020 RMK SKC VIS MIN 9999 WIND THR35 /////KT WIND THR17 /////KT BLU,LIED,2019-01-12T04:55:00Z,39.35,8.97,-1.0,-3.0,260,4,,6.21,30.11811,,,,,,,,,,,CAVOK,,,,,,,,VFR,,,,,,,,,,,,METAR,28.0
LIEB 120455Z 31005KT CAVOK 05/M03 Q1019 RMK SKC QUK / QUL / VIS MAR 20 KM MON INVIS VIS MIN 9999,LIEB,2019-01-12T04:55:00Z,39.93,9.72,5.0,-3.0,310,5,,6.21,30.088583,,,,,,,,,,,CAVOK,,,,,,,,VFR,,,,,,,,,,,,METAR,156.0
LICF 120455Z 30005KT 9999 BKN040 08/03 Q1012 RMK OVC BKN120 QUK / QUL / VIS MAR 12 KM MON INVIS NC VIS MIN 9999,LICF,2019-01-12T04:55:00Z,38.2,15.55,8.0,3.0,300,5,,6.21,29.88189,,,,,,,,,,,BKN,4000,,,,,,,VFR,,,,,,,,,,,,METAR,51.0
LIBV 120455Z 32013KT 8000 SCT025 01/M00 Q1013 RMK SCT VIS MIN 8000 WIND THR32 34014KT WIND THR14 33011KT BLU,LIBV,2019-01-12T04:55:00Z,40.77,16.92,1.0,0.0,320,13,,4.97,29.911417,,,,,,,,,,,SCT,2500,,,,,,,MVFR,,,,,,,,,,,,METAR,350.0
LIBQ 120455Z 03022KT 0000 FZFG VV/// M05/M06 Q1005 RMK MON INVIS VAL INVIS VIS MIN 0000,LIBQ,2019-01-12T04:55:00Z,39.32,16.38,-5.0,-6.0,30,22,,0.0,29.675198,,,,,,,,,,FZFG,OVX,0,,,,,,,LIFR,,,,,,,,,,,,METAR,1720.0
LIBN 120455Z 35006KT CAVOK 05/01 Q1012 RMK SKC VIS MIN 9999 WIND THR14 35009KT WIND THR32 35008KT BLU,LIBN,2019-01-12T04:55:00Z,40.22,18.13,5.0,1.0,350,6,,6.21,29.88189,,,,,,,,,,,CAVOK,,,,,,,,VFR,,,,,,,,,,,,METAR,61.0
LIQC 120455Z VRB02KT CAVOK 06/M01 Q1014 RMK SKC QUK / QUL / VIS MAR 40 KM VIS MIN 9999,LIQC,2019-01-12T04:55:00Z,40.55,14.2,6.0,-1.0,0,2,,6.21,29.940945,,,,,,,,,,,CAVOK,,,,,,,,VFR,,,,,,,,,,,,SPECI,269.0
LICZ 120455Z 30005KT 9999 SCT070 BKN100 03/03 Q1013 RMK BKN VIS MIN 9999 WIND THR28 /////KT WIND THR10 30005KT A2993 BLU,LICZ,2019-01-12T04:55:00Z,37.38,14.92,3.0,3.0,300,5,,6.21,29.911417,,,,,,,,,,,SCT,7000,BKN,10000,,,,,VFR,,,,,,,,,,,,METAR,22.0
LIMU 120455Z 02003KT CAVOK 07/M09 Q1018 RMK SKC QUK / QUL / VIS MAR 50 KM VIS MIN 9999,LIMU,2019-01-12T04:55:00Z,43.95,8.17,7.0,-9.0,20,3,,6.21,30.059055,,,,,,,,,,,CAVOK,,,,,,,,VFR,,,,,,,,,,,,SPECI,221.0
LIVP 120455Z 01022KT CAVOK M07/M11 Q1011 RMK SCT FEW080 SCT200 MON LIB VAL NIL VIS MIN 9999,LIVP,2019-01-12T04:55:00Z,46.15,11.03,-7.0,-11.0,10,22,,6.21,29.852362,,,,,,,,,,,CAVOK,,,,,,,,VFR,,,,,,,,,,,,SPECI,2129.0
KMKG 120455Z AUTO 10004KT 10SM OVC065 M02/M07 A3037 RMK AO2 SNB12E31 SLP293 P0000 T10171067 410111067,KMKG,2019-01-12T04:55:00Z,43.17,-86.23,-1.7,-6.7,100,4,,10.0,30.369095,1029.3,,TRUE,TRUE,,,,,,,OVC,6500,,,,,,,VFR,,,,-1.1,-6.7,0.005,,,,,,SPECI,191.0
K1V4 120454Z AUTO M16/M22 A3029 RMK AO1 SLP286 T11611222 411111194,K1V4,2019-01-12T04:54:00Z,44.42,-72.02,-16.1,-22.2,,,,,30.28937,1028.6,,TRUE,TRUE,,,,,,,,,,,,,,,,,,,-11.1,-19.4,,,,,,,SPECI,210.0
KRKS 120454Z AUTO 26008KT 10SM CLR M10/M12 A3023 RMK AO2 SLP296 I1001 T11001117,KRKS,2019-01-12T04:54:00Z,41.6,-109.07,-10.0,-11.7,260,8,,10.0,30.230314,1029.6,,TRUE,TRUE,,,,,,,CLR,,,,,,,,VFR,,,,,,,,,,,,METAR,2060.0
KRIC 120454Z 00000KT 10SM BKN230 M02/M08 A3044 RMK AO2 SLP316 T10171078 400501044,KRIC,2019-01-12T04:54:00Z,37.52,-77.32,-1.7,-7.8,0,0,,10.0,30.43996,1031.6,,,TRUE,,,,,,,BKN,23000,,,,,,,VFR,,,,5.0,-4.4,,,,,,,METAR,50.0
KRFD 120454Z 14007KT 10SM OVC080 M02/M06 A3031 RMK AO2 SLP274 T10171056,KRFD,2019-01-12T04:54:00Z,42.2,-89.1,-1.7,-5.6,140,7,,10.0,30.31004,1027.4,,,TRUE,,,,,,,OVC,8000,,,,,,,VFR,,,,,,,,,,,,METAR,221.0
KRDG 120454Z AUTO 33003KT 10SM CLR M07/M12 A3043 RMK AO2 SLP314 T10671122 400061067,KRDG,2019-01-12T04:54:00Z,40.37,-75.97,-6.7,-12.2,330,3,,10.0,30.431103,1031.4,,TRUE,TRUE,,,,,,,CLR,,,,,,,,VFR,,,,0.6,-6.7,,,,,,,METAR,109.0
KRBL 120454Z AUTO 35003KT 10SM BKN070 OVC090 11/08 A2993 RMK AO2 SLP135 T01060083,KRBL,2019-01-12T04:54:00Z,40.15,-122.25,10.6,8.3,350,3,,10.0,29.929134,1013.5,,TRUE,TRUE,,,,,,,BKN,7000,OVC,9000,,,,,VFR,,,,,,,,,,,,METAR,104.0
KPTW 120454Z AUTO 01003KT 10SM CLR M08/M13 A3045 RMK AO2 SLP314 T10781133 410061078 TSNO,KPTW,2019-01-12T04:54:00Z,40.23,-75.55,-7.8,-13.3,10,3,,10.0,30.448818,1031.4,,TRUE,TRUE,,,TRUE,,,,CLR,,,,,,,,VFR,,,,-0.6,-7.8,,,,,,,METAR,92.0
KBWI 120454Z 00000KT 10SM BKN250 M03/M09 A3045 RMK AO2 SLP311 T10331089 400331044,KBWI,2019-01-12T04:54:00Z,39.17,-76.68,-3.3,-8.9,0,0,,10.0,30.448818,1031.1,,,TRUE,,,,,,,BKN,25000,,,,,,,VFR,,,,3.3,-4.4,,,,,,,METAR,59.0
KBUY 120454Z AUTO 00000KT 10SM CLR M01/M05 A3039 RMK AO2 SLP296 T10111050 400671072,KBUY,2019-01-12T04:54:00Z,36.05,-79.47,-1.1,-5.0,0,0,,10.0,30.389763,1029.6,,TRUE,TRUE,,,,,,,CLR,,,,,,,,VFR,,,,6.7,-7.2,,,,,,,METAR,180.0
KBUF 120454Z 15005KT 10SM OVC100 M09/M12 A3044 RMK AO2 SLP323 T10891122 410671117,KBUF,2019-01-12T04:54:00Z,42.93,-78.73,-8.9,-12.2,150,5,,10.0,30.43996,1032.3,,,TRUE,,,,,,,OVC,10000,,,,,,,VFR,,,,-6.7,-11.7,,,,,,,METAR,211.0
KBTV 120454Z 33003KT 10SM CLR M14/M20 A3039 RMK AO2 SLP299 /LAST/ T11441200 411001150,KBTV,2019-01-12T04:54:00Z,44.47,-73.15,-14.4,-20.0,330,3,,10.0,30.389763,1029.9,,,TRUE,,,,,,,CLR,,,,,,,,VFR,,,,-10.0,-15.0,,,,,,,METAR,105.0
KBFL 120454Z 15011KT 10SM CLR 16/03 A2988 RMK AO2 SLP115 T01560033,KBFL,2019-01-12T04:54:00Z,35.43,-119.05,15.6,3.3,150,11,,10.0,29.878937,1011.5,,,TRUE,,,,,,,CLR,,,,,,,,VFR,,,,,,,,,,,,SPECI,151.0
KAVP 120454Z 00000KT 10SM CLR M11/M15 A3041 RMK AO2 SLP313 T11061150 410331106,KAVP,2019-01-12T04:54:00Z,41.33,-75.72,-10.6,-15.0,0,0,,10.0,30.410433,1031.3,,,TRUE,,,,,,,CLR,,,,,,,,VFR,,,,-3.3,-10.6,,,,,,,METAR,291.0
KAVL 120454Z AUTO 16005KT 10SM OVC085 03/M06 A3031 RMK AO2 SLP269 T00331061 401061056,KAVL,2019-01-12T04:54:00Z,35.43,-82.53,3.3,-6.1,160,5,,10.0,30.31004,1026.9,,TRUE,TRUE,,,,,,,OVC,8500,,,,,,,VFR,,,,10.6,-5.6,,,,,,,METAR,670.0
KAUW 120454Z AUTO 09005KT 9SM OVC055 M05/M08 A3027 RMK AO2 SLP275 T10501083,KAUW,2019-01-12T04:54:00Z,44.93,-89.62,-5.0,-8.3,90,5,,9.0,30.268702,1027.5,,TRUE,TRUE,,,,,,,OVC,5500,,,,,,,VFR,,,,,,,,,,,,SPECI,362.0
KAPN 120454Z AUTO 00000KT 10SM OVC070 M07/M10 A3042 RMK AO2 SLP315 T10671100 410561167,KAPN,2019-01-12T04:54:00Z,45.07,-83.57,-6.7,-10.0,0,0,,10.0,30.41929,1031.5,,TRUE,TRUE,,,,,,,OVC,7000,,,,,,,VFR,,,,-5.6,-16.7,,,,,,,METAR,210.0
KAPC 120454Z AUTO 06006KT 7SM -RA FEW048 OVC060 12/09 A2989 RMK AO2 RAB00 SLP112 P0004 T01170094,KAPC,2019-01-12T04:54:00Z,38.2,-122.28,11.7,9.4,60,6,,7.0,29.890747,1011.2,,TRUE,TRUE,,,,,,-RA,FEW,4800,OVC,6000,,,,,VFR,,,,,,0.04,,,,,,METAR,13.0
KALO 120454Z 11007KT 10SM OVC075 M01/M05 A3021 RMK AO2 SLP240 T10111050,KALO,2019-01-12T04:54:00Z,42.55,-92.4,-1.1,-5.0,110,7,,10.0,30.209646,1024.0,,,TRUE,,,,,,,OVC,7500,,,,,,,VFR,,,,,,,,,,,,METAR,264.0
KAKR 120454Z AUTO 00000KT 10SM OVC090 M04/M09 A3038 RMK AO2 SLP301 T10391089 410111050,KAKR,2019-01-12T04:54:00Z,41.03,-81.47,-3.9,-8.9,0,0,,10.0,30.380905,1030.1,,TRUE,TRUE,,,,,,,OVC,9000,,,,,,,VFR,,,,-1.1,-5.0,,,,,,,METAR,363.0
KAKQ 120454Z AUTO 00000KT 10SM CLR M03/M07 A3045 RMK AO2 SLP313 T10331067 400561061,KAKQ,2019-01-12T04:54:00Z,36.98,-77.0,-3.3,-6.7,0,0,,10.0,30.448818,1031.3,,TRUE,TRUE,,,,,,,CLR,,,,,,,,VFR,,,,5.6,-6.1,,,,,,,METAR,34.0
KGCN 120454Z 00000KT 10SM CLR M08/M09 A3017 RMK AO2 SLP244 T10781094,KGCN,2019-01-12T04:54:00Z,35.95,-112.15,-7.8,-9.4,0,0,,10.0,30.171259,1024.4,,,TRUE,,,,,,,CLR,,,,,,,,VFR,,,,,,,,,,,,SPECI,2016.0
KFWA 120454Z 11006KT 10SM SCT150 OVC200 M02/M06 A3034 RMK AO2 SLP284 T10221056 410111028,KFWA,2019-01-12T04:54:00Z,40.98,-85.18,-2.2,-5.6,110,6,,10.0,30.339567,1028.4,,,TRUE,,,,,,,SCT,15000,OVC,20000,,,,,VFR,,,,-1.1,-2.8,,,,,,,METAR,248.0
KFIG 120454Z AUTO 00000KT 10SM CLR M09/M13 A3037 RMK AO2 SLP311 T10941128 410171094,KFIG,2019-01-12T04:54:00Z,41.05,-78.42,-9.4,-12.8,0,0,,10.0,30.369095,1031.1,,TRUE,TRUE,,,,,,,CLR,,,,,,,,VFR,,,,-1.7,-9.4,,,,,,,METAR,462.0
KFFZ 120454Z AUTO 00000KT 8SM CLR 11/06 A3008 RMK AO2 SLP174 T01110061,KFFZ,2019-01-12T04:54:00Z,33.47,-111.72,11.1,6.1,0,0,,8.0,30.079725,1017.4,,TRUE,TRUE,,,,,,,CLR,,,,,,,,VFR,,,,,,,,,,,,METAR,424.0
KEWN 120454Z AUTO 00000KT 10SM CLR M02/M06 A3044 RMK AO2 SLP307 T10221056 400671039,KEWN,2019-01-12T04:54:00Z,35.07,-77.05,-2.2,-5.6,0,0,,10.0,30.43996,1030.7,,TRUE,TRUE,,,,,,,CLR,,,,,,,,VFR,,,,6.7,-3.9,,,,,,,METAR,3.0
KEUG 120454Z 00000KT 10SM BKN100 BKN250 04/03 A2990 RMK AO2 SLP125 T00440028,KEUG,2019-01-12T04:54:00Z,44.13,-123.22,4.4,2.8,0,0,,10.0,29.899607,1012.5,,,TRUE,,,,,,,BKN,10000,BKN,25000,,,,,VFR,,,,,,,,,,,,METAR,114.0
KECG 120454Z 02007KT 10SM CLR 02/M06 A3044 RMK AO2 SLP308 T00171061 400561050,KECG,2019-01-12T04:54:00Z,36.27,-76.18,1.7,-6.1,20,7,,10.0,30.43996,1030.8,,,TRUE,,,,,,,CLR,,,,,,,,VFR,,,,5.6,-5.0,,,,,,,METAR,11.0
KDYL 120454Z AUTO 00000KT 10SM CLR M06/M15 A3043 RMK AO2 SLP313 T10611150 400061067,KDYL,2019-01-12T04:54:00Z,40.33,-75.12,-6.1,-15.0,0,0,,10.0,30.431103,1031.3,,TRUE,TRUE,,,,,,,CLR,,,,,,,,VFR,,,,0.6,-6.7,,,,,,,METAR,117.0
KDSV 120454Z AUTO 00000KT 10SM BKN090 M09/M14 A3045 RMK AO2 SLP334 T10941139 410561111,KDSV,2019-01-12T04:54:00Z,42.57,-77.72,-9.4,-13.9,0,0,,10.0,30.448818,1033.4,,TRUE,TRUE,,,,,,,BKN,9000,,,,,,,VFR,,,,-5.6,-11.1,,,,,,,METAR,198.0
KPNE 120454Z AUTO 34004KT 10SM CLR M03/M16 A3047 RMK AO2 SLP319 T10331156 400171044,KPNE,2019-01-12T04:54:00Z,40.08,-75.02,-3.3,-15.6,340,4,,10.0,30.469488,1031.9,,TRUE,TRUE,,,,,,,CLR,,,,,,,,VFR,,,,1.7,-4.4,,,,,,,METAR,28.0
KPLN 120454Z AUTO 00000KT 10SM FEW055 OVC070 M07/M12 A3042 RMK AO2 SLP317 T10671117 410671178,KPLN,2019-01-12T04:54:00Z,45.57,-84.8,-6.7,-11.7,0,0,,10.0,30.41929,1031.7,,TRUE,TRUE,,,,,,,FEW,5500,OVC,7000,,,,,VFR,,,,-6.7,-17.8,,,,,,,METAR,217.0
KPHL 120454Z 34003KT 10SM FEW250 M03/M16 A3047 RMK AO2 SLP316 T10281161 400111033 $,KPHL,2019-01-12T04:54:00Z,39.87,-75.23,-2.8,-16.1,340,3,,10.0,30.469488,1031.6,,,TRUE,TRUE,,,,,,FEW,25000,,,,,,,VFR,,,,1.1,-3.3,,,,,,,METAR,18.0
KPHF 120454Z AUTO 30003KT 10SM CLR M03/M07 A3044 RMK AO2 SLP309 T10281072 400501033,KPHF,2019-01-12T04:54:00Z,37.13,-76.5,-2.8,-7.2,300,3,,10.0,30.43996,1030.9,,TRUE,TRUE,,,,,,,CLR,,,,,,,,VFR,,,,5.0,-3.3,,,,,,,METAR,12.0
KORH 120454Z 27007KT 10SM CLR M12/M19 A3027 RMK AO2 SLP272 T11221189 410611122,KORH,2019-01-12T04:54:00Z,42.27,-71.87,-12.2,-18.9,270,7,,10.0,30.268702,1027.2,,,TRUE,,,,,,,CLR,,,,,,,,VFR,,,,-6.1,-12.2,,,,,,,METAR,304.0
KOLS 120454Z AUTO 04004KT 10SM CLR 05/M01 A3012 RMK AO2 SLP185 T00501006,KOLS,2019-01-12T04:54:00Z,31.42,-110.85,5.0,-0.6,40,4,,10.0,30.121063,1018.5,,TRUE,TRUE,,,,,,,CLR,,,,,,,,VFR,,,,,,,,,,,,METAR,1184.0
KOLM 120454Z AUTO 00000KT 1/4SM FG VV001 02/02 A2993 RMK AO2 SLP137 T00220017,KOLM,2019-01-12T04:54:00Z,46.97,-122.9,2.2,1.7,0,0,,0.25,29.929134,1013.7,,TRUE,TRUE,,,,,,FG,OVX,0,,,,,,,LIFR,,,,,,,,,,,100,METAR,58.0
KOFP 120454Z AUTO 00000KT 10SM CLR M03/M08 A3046 RMK AO2 SLP317 T10281078 400501067,KOFP,2019-01-12T04:54:00Z,37.7,-77.43,-2.8,-7.8,0,0,,10.0,30.46063,1031.7,,TRUE,TRUE,,,,,,,CLR,,,,,,,,VFR,,,,5.0,-6.7,,,,,,,METAR,62.0
KMVL 120454Z AUTO 32007KT 10SM CLR M17/M22 A3032 RMK AO2 SLP289 T11671217 411221228,KMVL,2019-01-12T04:54:00Z,44.53,-72.62,-16.7,-21.7,320,7,,10.0,30.318897,1028.9,,TRUE,TRUE,,,,,,,CLR,,,,,,,,VFR,,,,-12.2,-22.8,,,,,,,METAR,234.0
KMRY 120454Z AUTO 09004KT 10SM -RA OVC075 13/10 A2989 RMK AO2 RAB47 SLP134 P0000 T01280100,KMRY,2019-01-12T04:54:00Z,36.58,-121.85,12.8,10.0,90,4,,10.0,29.890747,1013.4,,TRUE,TRUE,,,,,,-RA,OVC,7500,,,,,,,VFR,,,,,,0.005,,,,,,METAR,66.0
KDEC 120454Z AUTO 11007KT 1SM -SN BR FEW005 OVC018 M02/M03 A3027 RMK AO2 SLP258 P0000 T10221033,KDEC,2019-01-12T04:54:00Z,39.83,-88.85,-2.2,-3.3,110,7,,1.0,30.268702,1025.8,,TRUE,TRUE,,,,,,-SN BR,FEW,500,OVC,1800,,,,,IFR,,,,,,0.005,,,,,,METAR,207.0
KDDH 120454Z AUTO 26007KT 10SM CLR M14/M19 A3036 RMK AO2 SLP297 T11391194 410561139,KDDH,2019-01-12T04:54:00Z,42.9,-73.25,-13.9,-19.4,260,7,,10.0,30.360237,1029.7,,TRUE,TRUE,,,,,,,CLR,,,,,,,,VFR,,,,-5.6,-13.9,,,,,,,METAR,244.0
KCRW 120454Z 06004KT 10SM OVC095 M02/M07 A3033 RMK AO2 SLP280 T10171072 400111044,KCRW,2019-01-12T04:54:00Z,38.38,-81.58,-1.7,-7.2,60,4,,10.0,30.33071,1028.0,,,TRUE,,,,,,,OVC,9500,,,,,,,VFR,,,,1.1,-4.4,,,,,,,METAR,309.0
KCOS 120454Z 33009KT 7SM -SN SCT030 OVC090 00/M02 A3012 RMK AO2 SLP226 P0000 T00001017,KCOS,2019-01-12T04:54:00Z,38.82,-104.68,0.0,-1.7,330,9,,7.0,30.121063,1022.6,,,TRUE,,,,,,-SN,SCT,3000,OVC,9000,,,,,VFR,,,,,,0.005,,,,,,METAR,1856.0
KCEU 120454Z AUTO 00000KT 10SM OVC100 03/M02 A3035 RMK AO2 SLP279 T00331022 400831028,KCEU,2019-01-12T04:54:00Z,34.67,-82.88,3.3,-2.2,0,0,,10.0,30.351377,1027.9,,TRUE,TRUE,,,,,,,OVC,10000,,,,,,,VFR,,,,8.3,-2.8,,,,,,,METAR,268.0
KCAR 120454Z AUTO 26003KT 10SM OVC027 M17/M21 A2994 RMK AO2 SLP158 T11671211 410671178,KCAR,2019-01-12T04:54:00Z,46.87,-68.02,-16.7,-21.1,260,3,,10.0,29.940945,1015.8,,TRUE,TRUE,,,,,,,OVC,2700,,,,,,,MVFR,,,,-6.7,-17.8,,,,,,,SPECI,191.0
PGSN 120454Z 05016G21KT 10SM FEW022 SCT029 SCT036 27/21 A2985 RMK AO2 SLPNO T02720211 $,PGSN,2019-01-12T04:54:00Z,15.12,145.72,27.2,21.1,50,16,21,10.0,29.84941,,,,TRUE,TRUE,,,,,,FEW,2200,SCT,2900,SCT,3600,,,VFR,,,,,,,,,,,,METAR,65.0
PHOG 120454Z 06003KT 10SM CLR 24/19 A3001 RMK AO2 SLP167 T02390194,PHOG,2019-01-12T04:54:00Z,20.9,-156.43,23.9,19.4,60,3,,10.0,30.008858,1016.7,,,TRUE,,,,,,,CLR,,,,,,,,VFR,,,,,,,,,,,,SPECI,12.0
PHMK 120454Z AUTO 00000KT 10SM BKN022 OVC029 21/19 A3003 RMK AO2 SLP175 T02060194 TSNO,PHMK,2019-01-12T04:54:00Z,21.15,-157.1,20.6,19.4,0,0,,10.0,30.029528,1017.5,,TRUE,TRUE,,,TRUE,,,,BKN,2200,OVC,2900,,,,,MVFR,,,,,,,,,,,,METAR,141.0
KJAN 120454Z 14006KT 7SM CLR 08/M01 A3014 RMK AO2 SLP205 T00831006 $,KJAN,2019-01-12T04:54:00Z,32.32,-90.08,8.3,-0.6,140,6,,7.0,30.138779,1020.5,,,TRUE,TRUE,,,,,,CLR,,,,,,,,VFR,,,,,,,,,,,,METAR,91.0
KIZG 120454Z AUTO 00000KT 10SM CLR M23/M26 A3023 RMK AO2 SLP249 I1000 T12331261 410721239,KIZG,2019-01-12T04:54:00Z,43.98,-70.95,-23.3,-26.1,0,0,,10.0,30.230314,1024.9,,TRUE,TRUE,,,,,,,CLR,,,,,,,,VFR,,,,-7.2,-23.9,,,,,,,METAR,135.0
KISW 120454Z AUTO 09003KT 10SM OVC050 M04/M08 A3030 RMK AO2 SLP276 T10441083 TSNO,KISW,2019-01-12T04:54:00Z,44.37,-89.83,-4.4,-8.3,90,3,,10.0,30.301182,1027.6,,TRUE,TRUE,,,TRUE,,,,OVC,5000,,,,,,,VFR,,,,,,,,,,,,METAR,307.0
KIPT 120454Z AUTO 00000KT 10SM CLR M07/M13 A3043 RMK AO2 SLP313 T10671133 400061078,KIPT,2019-01-12T04:54:00Z,41.25,-76.92,-6.7,-13.3,0,0,,10.0,30.431103,1031.3,,TRUE,TRUE,,,,,,,CLR,,,,,,,,VFR,,,,0.6,-7.8,,,,,,,METAR,164.0
KINT 120454Z AUTO 00000KT 10SM OVC110 02/M08 A3039 RMK AO2 SLP296 T00171083 400721067,KINT,2019-01-12T04:54:00Z,36.13,-80.22,1.7,-8.3,0,0,,10.0,30.389763,1029.6,,TRUE,TRUE,,,,,,,OVC,11000,,,,,,,VFR,,,,7.2,-6.7,,,,,,,METAR,291.0
KIND 120454Z 12007KT 10SM OVC080 M01/M06 A3030 RMK AO2 SLP270 T10061056 410061044,KIND,2019-01-12T04:54:00Z,39.72,-86.3,-0.6,-5.6,120,7,,10.0,30.301182,1027.0,,,TRUE,,,,,,,OVC,8000,,,,,,,VFR,,,,-0.6,-4.4,,,,,,,METAR,241.0
KILN 120454Z AUTO 12006KT 10SM FEW100 OVC120 M03/M07 A3032 RMK AO2 SLP300 T10281072 410171044,KILN,2019-01-12T04:54:00Z,39.43,-83.8,-2.8,-7.2,120,6,,10.0,30.318897,1030.0,,TRUE,TRUE,,,,,,,FEW,10000,OVC,12000,,,,,VFR,,,,-1.7,-4.4,,,,,,,METAR,322.0
KHWD 120454Z 14011KT 9SM -RA OVC075 14/10 A2988 RMK AO2 RAB33 SLP129 P0001 T01390100,KHWD,2019-01-12T04:54:00Z,37.67,-122.12,13.9,10.0,140,11,,9.0,29.878937,1012.9,,,TRUE,,,,,,-RA,OVC,7500,,,,,,,VFR,,,,,,0.01,,,,,,METAR,21.0
KBOS 120454Z 31016G24KT 10SM FEW220 FEW250 M08/M21 A3034 RMK AO2 PK WND 31030/0439 SLP272 T10831211 410111083,KBOS,2019-01-12T04:54:00Z,42.37,-71.02,-8.3,-21.1,310,16,24,10.0,30.339567,1027.2,,,TRUE,,,,,,,FEW,22000,FEW,25000,,,,,VFR,,,,-1.1,-8.3,,,,,,,METAR,6.0
KLWT 120454Z AUTO 12007KT 10SM CLR M05/M07 A3012 RMK AO2 SLP236 T10501072,KLWT,2019-01-12T04:54:00Z,47.03,-109.47,-5.0,-7.2,120,7,,10.0,30.121063,1023.6,,TRUE,TRUE,,,,,,,CLR,,,,,,,,VFR,,,,,,,,,,,,METAR,1270.0
KWAL 120454Z AUTO 34004KT 10SM CLR M02/M10 A3045 RMK AO2 SLP308 T10171100 400441022,KWAL,2019-01-12T04:54:00Z,37.93,-75.47,-1.7,-10.0,340,4,,10.0,30.448818,1030.8,,TRUE,TRUE,,,,,,,CLR,,,,,,,,VFR,,,,4.4,-2.2,,,,,,,METAR,14.0
KVTA 120454Z AUTO 00000KT 10SM CLR M03/M07 A3036 RMK AO2 SLP290 T10281072 410061033,KVTA,2019-01-12T04:54:00Z,40.02,-82.47,-2.8,-7.2,0,0,,10.0,30.360237,1029.0,,TRUE,TRUE,,,,,,,CLR,,,,,,,,VFR,,,,-0.6,-3.3,,,,,,,METAR,268.0
KROA 120454Z 00000KT 10SM OVC150 01/M10 A3040 RMK AO2 SLP302 T00111100 400501072,KROA,2019-01-12T04:54:00Z,37.32,-79.97,1.1,-10.0,0,0,,10.0,30.398623,1030.2,,,TRUE,,,,,,,OVC,15000,,,,,,,VFR,,,,5.0,-7.2,,,,,,,METAR,362.0
KROC 120454Z 26005KT 10SM OVC095 M09/M14 A3046 RMK AO2 SLP329 T10941139 410721122,KROC,2019-01-12T04:54:00Z,43.12,-77.68,-9.4,-13.9,260,5,,10.0,30.46063,1032.9,,,TRUE,,,,,,,OVC,9500,,,,,,,VFR,,,,-7.2,-12.2,,,,,,,METAR,178.0
KRST 120454Z 08004KT 10SM OVC041 M03/M06 A3023 RMK AO2 SLP255 T10281056,KRST,2019-01-12T04:54:00Z,43.9,-92.5,-2.8,-5.6,80,4,,10.0,30.230314,1025.5,,,TRUE,,,,,,,OVC,4100,,,,,,,VFR,,,,,,,,,,,,METAR,403.0
KSBN 120454Z AUTO 13008KT 9SM OVC070 M03/M07 A3034 RMK AO2 SLP285 T10331067 410281039,KSBN,2019-01-12T04:54:00Z,41.7,-86.32,-3.3,-6.7,130,8,,9.0,30.339567,1028.5,,TRUE,TRUE,,,,,,,OVC,7000,,,,,,,VFR,,,,-2.8,-3.9,,,,,,,METAR,237.0
KSBY 120454Z AUTO 01003KT 10SM CLR M05/M08 A3044 RMK AO2 SLP312 T10501083 400281056,KSBY,2019-01-12T04:54:00Z,38.33,-75.5,-5.0,-8.3,10,3,,10.0,30.43996,1031.2,,TRUE,TRUE,,,,,,,CLR,,,,,,,,VFR,,,,2.8,-5.6,,,,,,,METAR,19.0
KSJN 120454Z AUTO 29007KT 10SM CLR 01/M03 A3014 RMK AO2 SLP203 T00061028,KSJN,2019-01-12T04:54:00Z,34.52,-109.38,0.6,-2.8,290,7,,10.0,30.138779,1020.3,,TRUE,TRUE,,,,,,,CLR,,,,,,,,VFR,,,,,,,,,,,,METAR,1745.0
KJST 120454Z AUTO 00000KT 10SM CLR M08/M12 A3030 RMK AO2 SLP301 T10831122 410561089,KJST,2019-01-12T04:54:00Z,40.32,-78.83,-8.3,-12.2,0,0,,10.0,30.301182,1030.1,,TRUE,TRUE,,,,,,,CLR,,,,,,,,VFR,,,,-5.6,-8.9,,,,,,,SPECI,694.0
KLAF 120454Z AUTO 12006KT 10SM OVC100 M01/M06 A3031 RMK AO2 SLP270 T10111056 410061039,KLAF,2019-01-12T04:54:00Z,40.42,-86.93,-1.1,-5.6,120,6,,10.0,30.31004,1027.0,,TRUE,TRUE,,,,,,,OVC,10000,,,,,,,VFR,,,,-0.6,-3.9,,,,,,,METAR,182.0
KLBT 120454Z AUTO 00000KT 10SM CLR M02/M05 A3040 RMK AO2 SLP294 T10171050 400781028,KLBT,2019-01-12T04:54:00Z,34.6,-79.07,-1.7,-5.0,0,0,,10.0,30.398623,1029.4,,TRUE,TRUE,,,,,,,CLR,,,,,,,,VFR,,,,7.8,-2.8,,,,,,,METAR,37.0
KGED 120454Z AUTO 32003KT 10SM CLR M01/M13 A3045 RMK AO2 SLP312 T10111128 400391017,KGED,2019-01-12T04:54:00Z,38.68,-75.37,-1.1,-12.8,320,3,,10.0,30.448818,1031.2,,TRUE,TRUE,,,,,,,CLR,,,,,,,,VFR,,,,3.9,-1.7,,,,,,,SPECI,19.0
KTQE 120454Z AUTO 36005KT 10SM OVC040 01/M01 A3015 RMK AO2 SLP216 T00061011,KTQE,2019-01-12T04:54:00Z,41.77,-96.18,0.6,-1.1,360,5,,10.0,30.15059,1021.6,,TRUE,TRUE,,,,,,,OVC,4000,,,,,,,VFR,,,,,,,,,,,,METAR,312.0
KMKC 120454Z AUTO 07006KT 1 1/4SM -SN BR BKN004 OVC011 01/M01 A3006 RMK AO2 SLP184 P0003 T00111006,KMKC,2019-01-12T04:54:00Z,39.12,-94.6,1.1,-0.6,70,6,,1.25,30.059055,1018.4,,TRUE,TRUE,,,,,,-SN BR,BKN,400,OVC,1100,,,,,LIFR,,,,,,0.03,,,,,,METAR,227.0
KMIV 120454Z AUTO 00000KT 10SM CLR M07/M12 A3045 RMK AO2 SLP310 T10671122 400171083 TSNO,KMIV,2019-01-12T04:54:00Z,39.37,-75.08,-6.7,-12.2,0,0,,10.0,30.448818,1031.0,,TRUE,TRUE,,,TRUE,,,,CLR,,,,,,,,VFR,,,,1.7,-8.3,,,,,,,METAR,23.0
KMGJ 120454Z AUTO 31013G18KT 10SM CLR M08/M16 A3038 RMK AO2 SLP294 T10831156 410221083,KMGJ,2019-01-12T04:54:00Z,41.52,-74.27,-8.3,-15.6,310,13,18,10.0,30.380905,1029.4,,TRUE,TRUE,,,,,,,CLR,,,,,,,,VFR,,,,-2.2,-8.3,,,,,,,METAR,108.0
KMFI 120454Z AUTO 09004KT 8SM CLR M07/M08 A3026 RMK AO2 SLP269 T10671083,KMFI,2019-01-12T04:54:00Z,44.63,-90.18,-6.7,-8.3,90,4,,8.0,30.259842,1026.9,,TRUE,TRUE,,,,,,,CLR,,,,,,,,VFR,,,,,,,,,,,,METAR,389.0
KMEM 120454Z 11011KT 070V140 10SM OVC085 04/M01 A3011 RMK AO2 SLP198 T00441006,KMEM,2019-01-12T04:54:00Z,35.07,-89.98,4.4,-0.6,110,11,,10.0,30.109253,1019.8,,,TRUE,,,,,,,OVC,8500,,,,,,,VFR,,,,,,,,,,,,METAR,86.0
KLYH 120454Z AUTO 00000KT 10SM CLR M01/M07 A3040 RMK AO2 SLP301 T10111072 400501078,KLYH,2019-01-12T04:54:00Z,37.32,-79.2,-1.1,-7.2,0,0,,10.0,30.398623,1030.1,,TRUE,TRUE,,,,,,,CLR,,,,,,,,VFR,,,,5.0,-7.8,,,,,,,METAR,295.0
KLWM 120454Z AUTO 29009G17KT 10SM CLR M12/M21 A3036 RMK AO2 SLP284 T11171206 410281117,KLWM,2019-01-12T04:54:00Z,42.72,-71.13,-11.7,-20.6,290,9,17,10.0,30.360237,1028.4,,TRUE,TRUE,,,,,,,CLR,,,,,,,,VFR,,,,-2.8,-11.7,,,,,,,METAR,54.0
K12N 120454Z AUTO 00000KT M09/M16 A3042 RMK AO1 SLP317 T10891161 410221089,K12N,2019-01-12T04:54:00Z,41.02,-74.73,-8.9,-16.1,0,0,,,30.41929,1031.7,,TRUE,TRUE,,,,,,,,,,,,,,,,,,,-2.2,-8.9,,,,,,,SPECI,177.0
KNKT 120454Z AUTO 03005KT 10SM CLR 01/M03 A3043 RMK AO2 SLP301 T00111033 400781017,KNKT,2019-01-12T04:54:00Z,34.9,-76.88,1.1,-3.3,30,5,,10.0,30.431103,1030.1,,TRUE,TRUE,,,,,,,CLR,,,,,,,,VFR,,,,7.8,-1.7,,,,,,,SPECI,9.0
PGUM 120454Z 04012KT 7SM FEW033 BKN047 OVC055 28/25 A2985 RMK AO2 RAB23E43 SLP099 P0000 T02830250 $,PGUM,2019-01-12T04:54:00Z,13.48,144.8,28.3,25.0,40,12,,7.0,29.84941,1009.9,,,TRUE,TRUE,,,,,,FEW,3300,BKN,4700,OVC,5500,,,VFR,,,,,,0.005,,,,,,METAR,91.0
KDMH 120454Z AUTO 00/M11 A3045 RMK AO1 SLP310 T00001106 400331022,KDMH,2019-01-12T04:54:00Z,39.28,-76.62,0.0,-10.6,,,,,30.448818,1031.0,,TRUE,TRUE,,,,,,,,,,,,,,,,,,,3.3,-2.2,,,,,,,METAR,5.0
KMTP 120454Z AUTO 31012G19KT M06/M16 A3039 RMK AO1 SLP291 T10611156 410061061,KMTP,2019-01-12T04:54:00Z,41.07,-71.92,-6.1,-15.6,310,12,19,,30.389763,1029.1,,TRUE,TRUE,,,,,,,,,,,,,,,,,,,-0.6,-6.1,,,,,,,SPECI,2.0
KGSO 120454Z 00000KT 10SM BKN110 OVC180 01/M07 A3037 RMK AO2 SLP289 T00111072 400671072,KGSO,2019-01-12T04:54:00Z,36.1,-79.95,1.1,-7.2,0,0,,10.0,30.369095,1028.9,,,TRUE,,,,,,,BKN,11000,OVC,18000,,,,,VFR,,,,6.7,-7.2,,,,,,,METAR,275.0
KBKB 120454Z AUTO 00000KT 10SM OVC110 09/06 A3003 RMK AO2 SLP198 T00940061,KBKB,2019-01-12T04:54:00Z,31.0,-92.92,9.4,6.1,0,0,,10.0,30.029528,1019.8,,TRUE,TRUE,,,,,,,OVC,11000,,,,,,,VFR,,,,,,,,,,,,METAR,94.0
KACY 120454Z 34003KT 10SM CLR M06/M14 A3044 RMK AO2 SLP309 T10561144 400171061,KACY,2019-01-12T04:54:00Z,39.45,-74.57,-5.6,-14.4,340,3,,10.0,30.43996,1030.9,,,TRUE,,,,,,,CLR,,,,,,,,VFR,,,,1.7,-6.1,,,,,,,METAR,23.0
KAKH 120454Z AUTO 00000KT 10SM OVC100 03/M03 A3037 RMK AO2 SLP291 T00281033 400941050,KAKH,2019-01-12T04:54:00Z,35.2,-81.15,2.8,-3.3,0,0,,10.0,30.369095,1029.1,,TRUE,TRUE,,,,,,,OVC,10000,,,,,,,VFR,,,,9.4,-5.0,,,,,,,METAR,243.0
KSLC 120454Z 00000KT 5SM BR SCT006 BKN011 OVC016 00/M01 A3028 RMK AO2 SLP268 T00001006,KSLC,2019-01-12T04:54:00Z,40.77,-111.97,0.0,-0.6,0,0,,5.0,30.280512,1026.8,,,TRUE,,,,,,BR,SCT,600,BKN,1100,OVC,1600,,,MVFR,,,,,,,,,,,,METAR,1286.0
KNAK 120454Z AUTO 00000KT 10SM CLR 00/M06 A3045 RMK AO2 SLP314 T00001061 400501006,KNAK,2019-01-12T04:54:00Z,38.98,-76.48,0.0,-6.1,0,0,,10.0,30.448818,1031.4,,TRUE,TRUE,,,,,,,CLR,,,,,,,,VFR,,,,5.0,-0.6,,,,,,,METAR,2.0
PAKN 120454Z 01012KT 10SM OVC044 A2953 RMK AO2 SLPNO $,PAKN,2019-01-12T04:54:00Z,58.68,-156.65,,,10,12,,10.0,29.530512,,,,TRUE,TRUE,,,,,,OVC,4400,,,,,,,VFR,,,,,,,,,,,,METAR,17.0
KWLD 120454Z AUTO 09006KT 10SM UP OVC006 02/02 A2994 RMK AO2 RAE44UPB44 SLP144 P0004 T00220022,KWLD,2019-01-12T04:54:00Z,37.17,-97.03,2.2,2.2,90,6,,10.0,29.940945,1014.4,,TRUE,TRUE,,,,,,UP,OVC,600,,,,,,,IFR,,,,,,0.04,,,,,,METAR,350.0
KSYR 120454Z 28005KT 9SM -SN BKN023 OVC031 M09/M14 A3044 RMK AO2 SLP314 P0000 T10941139 410891122,KSYR,2019-01-12T04:54:00Z,43.12,-76.1,-9.4,-13.9,280,5,,9.0,30.43996,1031.4,,,TRUE,,,,,,-SN,BKN,2300,OVC,3100,,,,,MVFR,,,,-8.9,-12.2,0.005,,,,,,METAR,127.0
KUZA 120454Z AUTO 00000KT 10SM CLR M01/M05 A3038 RMK AO2 SLP295 T10061050 400891056,KUZA,2019-01-12T04:54:00Z,34.98,-81.05,-0.6,-5.0,0,0,,10.0,30.380905,1029.5,,TRUE,TRUE,,,,,,,CLR,,,,,,,,VFR,,,,8.9,-5.6,,,,,,,METAR,202.0
KVAY 120454Z AUTO 00000KT 10SM CLR M07/M12 A3046 RMK AO2 SLP314 T10721122 400061072,KVAY,2019-01-12T04:54:00Z,39.93,-74.83,-7.2,-12.2,0,0,,10.0,30.46063,1031.4,,TRUE,TRUE,,,,,,,CLR,,,,,,,,VFR,,,,0.6,-7.2,,,,,,,METAR,15.0
KVSF 120454Z AUTO 28011KT 10SM CLR M14/M21 A3034 RMK AO2 SLP289 T11441206 410781150,KVSF,2019-01-12T04:54:00Z,43.35,-72.52,-14.4,-20.6,280,11,,10.0,30.339567,1028.9,,TRUE,TRUE,,,,,,,CLR,,,,,,,,VFR,,,,-7.8,-15.0,,,,,,,METAR,175.0
KSTP 120453Z AUTO 00000KT 10SM CLR M03/M08 A3027 RMK AO2 SLP261 T10331083,KSTP,2019-01-12T04:53:00Z,44.93,-93.05,-3.3,-8.3,0,0,,10.0,30.268702,1026.1,,TRUE,TRUE,,,,,,,CLR,,,,,,,,VFR,,,,,,,,,,,,METAR,219.0
KMHT 120453Z 29006KT 10SM CLR M12/M21 A3033 RMK AO2 SLP293 T11171206 410441117,KMHT,2019-01-12T04:53:00Z,42.93,-71.43,-11.7,-20.6,290,6,,10.0,30.33071,1029.3,,,TRUE,,,,,,,CLR,,,,,,,,VFR,,,,-4.4,-11.7,,,,,,,METAR,81.0
KMHE 120453Z AUTO 35010KT 10SM CLR M07/M10 A3024 RMK AO2 SLP260 T10721100,KMHE,2019-01-12T04:53:00Z,43.77,-98.02,-7.2,-10.0,350,10,,10.0,30.239174,1026.0,,TRUE,TRUE,,,,,,,CLR,,,,,,,,VFR,,,,,,,,,,,,METAR,397.0
KMGY 120453Z AUTO 12004KT 10SM BKN120 M01/M07 A3032 RMK AO2 SLP279 T10111072 400001033,KMGY,2019-01-12T04:53:00Z,39.6,-84.23,-1.1,-7.2,120,4,,10.0,30.318897,1027.9,,TRUE,TRUE,,,,,,,BKN,12000,,,,,,,VFR,,,,,-3.3,,,,,,,METAR,289.0
KMGW 120453Z AUTO 07003KT 10SM CLR M05/M09 A3036 RMK AO2 SLP299 T10501094 410171056,KMGW,2019-01-12T04:53:00Z,39.65,-79.92,-5.0,-9.4,70,3,,10.0,30.360237,1029.9,,TRUE,TRUE,,,,,,,CLR,,,,,,,,VFR,,,,-1.7,-5.6,,,,,,,METAR,378.0
KMGM 120453Z 00000KT 10SM CLR 05/01 A3023 RMK AO2 SLP236 T00500006,KMGM,2019-01-12T04:53:00Z,32.3,-86.4,5.0,0.6,0,0,,10.0,30.230314,1023.6,,,TRUE,,,,,,,CLR,,,,,,,,VFR,,,,,,,,,,,,SPECI,63.0
KMFR 120453Z 15009KT 10SM SCT100 13/M03 A2986 RMK AO2 SLP112 T01331028,KMFR,2019-01-12T04:53:00Z,42.38,-122.87,13.3,-2.8,150,9,,10.0,29.861221,1011.2,,,TRUE,,,,,,,SCT,10000,,,,,,,VFR,,,,,,,,,,,,METAR,396.0
KMFE 120453Z 28004KT 10SM BKN095 21/17 A3000 RMK AO2 SLP156 T02060172,KMFE,2019-01-12T04:53:00Z,26.18,-98.25,20.6,17.2,280,4,,10.0,30.0,1015.6,,,TRUE,,,,,,,BKN,9500,,,,,,,VFR,,,,,,,,,,,,METAR,38.0
KMDW 120453Z 15006KT 10SM OVC075 M01/M06 A3032 RMK AO2 SLP282 T10111061,KMDW,2019-01-12T04:53:00Z,41.78,-87.75,-1.1,-6.1,150,6,,10.0,30.318897,1028.2,,,TRUE,,,,,,,OVC,7500,,,,,,,VFR,,,,,,,,,,,,METAR,188.0
KMCO 120453Z 07004KT 10SM FEW050 FEW200 14/10 A3020 RMK AO2 SLP224 T01390100 402330089,KMCO,2019-01-12T04:53:00Z,28.42,-81.33,13.9,10.0,70,4,,10.0,30.200787,1022.4,,,TRUE,,,,,,,FEW,5000,FEW,20000,,,,,VFR,,,,23.3,8.9,,,,,,,METAR,29.0
KMCN 120453Z AUTO 10006KT 10SM OVC042 06/M02 A3030 RMK AO2 SLP261 T00611017 401331033,KMCN,2019-01-12T04:53:00Z,32.68,-83.65,6.1,-1.7,100,6,,10.0,30.301182,1026.1,,TRUE,TRUE,,,,,,,OVC,4200,,,,,,,VFR,,,,13.3,-3.3,,,,,,,SPECI,109.0
KMCK 120453Z AUTO 02008KT 10SM OVC070 01/M02 A3009 RMK AO2 SLP210 T00111022,KMCK,2019-01-12T04:53:00Z,40.2,-100.58,1.1,-2.2,20,8,,10.0,30.088583,1021.0,,TRUE,TRUE,,,,,,,OVC,7000,,,,,,,VFR,,,,,,,,,,,,METAR,782.0
KMCI 120453Z 07008KT 1 1/2SM -SN BR OVC004 00/M01 A3005 RMK AO2 SLP183 SNINCR 1/2 P0005 T00001006,KMCI,2019-01-12T04:53:00Z,39.3,-94.73,0.0,-0.6,70,8,,1.5,30.050198,1018.3,,,TRUE,,,,,,-SN BR,OVC,400,,,,,,,LIFR,,,,,,0.05,,,,2.0,,METAR,320.0
KMCB 120453Z AUTO 13005KT 8SM BKN034 09/03 A3013 RMK AO2 SLP202 T00890028,KMCB,2019-01-12T04:53:00Z,31.18,-90.47,8.9,2.8,130,5,,8.0,30.129921,1020.2,,TRUE,TRUE,,,,,,,BKN,3400,,,,,,,VFR,,,,,,,,,,,,SPECI,124.0
KMBS 120453Z AUTO 09005KT 10SM OVC065 M03/M08 A3041 RMK AO2 SLP307 T10331078 410331089,KMBS,2019-01-12T04:53:00Z,43.53,-84.08,-3.3,-7.8,90,5,,10.0,30.410433,1030.7,,TRUE,TRUE,,,,,,,OVC,6500,,,,,,,VFR,,,,-3.3,-8.9,,,,,,,METAR,202.0
KMAI 120453Z AUTO 08003KT 10SM CLR 07/04 A3020 RMK AO2 SLP226 T00720039 $,KMAI,2019-01-12T04:53:00Z,30.83,-85.18,7.2,3.9,80,3,,10.0,30.200787,1022.6,,TRUE,TRUE,TRUE,,,,,,CLR,,,,,,,,VFR,,,,,,,,,,,,SPECI,32.0
KMAF 120453Z AUTO 31012KT 10SM CLR 09/04 A2999 RMK AO2 SLP136 T00890044,KMAF,2019-01-12T04:53:00Z,31.95,-102.2,8.9,4.4,310,12,,10.0,29.991142,1013.6,,TRUE,TRUE,,,,,,,CLR,,,,,,,,VFR,,,,,,,,,,,,METAR,874.0
KMAE 120453Z AUTO 00000KT 10SM CLR 11/07 A2990 RMK AO2 SLP123 T01110067,KMAE,2019-01-12T04:53:00Z,36.98,-120.12,11.1,6.7,0,0,,10.0,29.899607,1012.3,,TRUE,TRUE,,,,,,,CLR,,,,,,,,VFR,,,,,,,,,,,,METAR,77.0
KLXV 120453Z AUTO 08003KT 10SM OVC034 M08/M09 A3009 RMK AO2 SLP176 T10831094,KLXV,2019-01-12T04:53:00Z,39.23,-106.32,-8.3,-9.4,80,3,,10.0,30.088583,1017.6,,TRUE,TRUE,,,,,,,OVC,3400,,,,,,,VFR,,,,,,,,,,,,METAR,3028.0
KPIE 120453Z AUTO 10007KT 10SM BKN046 17/12 A3017 RMK AO2 SLP217 T01720122 402220100 $,KPIE,2019-01-12T04:53:00Z,27.92,-82.68,17.2,12.2,100,7,,10.0,30.171259,1021.7,,TRUE,TRUE,TRUE,,,,,,BKN,4600,,,,,,,VFR,,,,22.2,10.0,,,,,,,METAR,4.0
KPHD 120453Z AUTO 00000KT 10SM FEW090 M05/M08 A3039 RMK AO2 SLP304 T10501083 410111056,KPHD,2019-01-12T04:53:00Z,40.47,-81.42,-5.0,-8.3,0,0,,10.0,30.389763,1030.4,,TRUE,TRUE,,,,,,,FEW,9000,,,,,,,VFR,,,,-1.1,-5.6,,,,,,,METAR,272.0
KPGD 120453Z AUTO 07005KT 10SM CLR 12/11 A3018 RMK AO2 SLP219 T01170106 402390039,KPGD,2019-01-12T04:53:00Z,26.92,-82.0,11.7,10.6,70,5,,10.0,30.180119,1021.9,,TRUE,TRUE,,,,,,,CLR,,,,,,,,VFR,,,,23.9,3.9,,,,,,,METAR,7.0
KPGA 120453Z AUTO 00000KT 6SM BR CLR 01/M01 A3017 RMK AO2 SLPNO T00111011 TSNO,KPGA,2019-01-12T04:53:00Z,36.92,-111.45,1.1,-1.1,0,0,,6.0,30.171259,,,TRUE,TRUE,,,TRUE,,,BR,CLR,,,,,,,,VFR,,,,,,,,,,,,METAR,1307.0
KPEO 120453Z AUTO 21004KT 10SM FEW090 SCT120 M09/M13 A3042 RMK AO2 SLP322 T10891128 410721128,KPEO,2019-01-12T04:53:00Z,42.65,-77.05,-8.9,-12.8,210,4,,10.0,30.41929,1032.2,,TRUE,TRUE,,,,,,,FEW,9000,SCT,12000,,,,,VFR,,,,-7.2,-12.8,,,,,,,METAR,256.0
KPDX 120453Z 11016KT 10SM BKN250 08/01 A2994 RMK AO2 SLP138 T00780006,KPDX,2019-01-12T04:53:00Z,45.6,-122.62,7.8,0.6,110,16,,10.0,29.940945,1013.8,,,TRUE,,,,,,,BKN,25000,,,,,,,VFR,,,,,,,,,,,,METAR,7.0
KPDK 120453Z AUTO 00000KT 9SM BKN090 05/M06 A3030 RMK AO2 SLP269 T00501056 401111050,KPDK,2019-01-12T04:53:00Z,33.88,-84.3,5.0,-5.6,0,0,,9.0,30.301182,1026.9,,TRUE,TRUE,,,,,,,BKN,9000,,,,,,,VFR,,,,11.1,-5.0,,,,,,,METAR,302.0
KPBI 120453Z 07007KT 10SM FEW045 BKN055 21/12 A3017 RMK AO2 SLP215 T02060122 402440094 $,KPBI,2019-01-12T04:53:00Z,26.68,-80.1,20.6,12.2,70,7,,10.0,30.171259,1021.5,,,TRUE,TRUE,,,,,,FEW,4500,BKN,5500,,,,,VFR,,,,24.4,9.4,,,,,,,METAR,6.0
KPBG 120453Z AUTO 00000KT 10SM CLR M14/M21 A3040 RMK AO2 SLP300 T11441211 411111167,KPBG,2019-01-12T04:53:00Z,44.65,-73.47,-14.4,-21.1,0,0,,10.0,30.398623,1030.0,,TRUE,TRUE,,,,,,,CLR,,,,,,,,VFR,,,,-11.1,-16.7,,,,,,,METAR,72.0
KPBF 120453Z AUTO 09005KT 10SM OVC100 05/01 A3008 RMK AO2 SLP185 T00500006,KPBF,2019-01-12T04:53:00Z,34.18,-91.93,5.0,0.6,90,5,,10.0,30.079725,1018.5,,TRUE,TRUE,,,,,,,OVC,10000,,,,,,,VFR,,,,,,,,,,,,METAR,62.0
KPAH 120453Z 11009KT 9SM FEW007 BKN041 OVC050 01/M01 A3020 RMK AO2 UPB0355E0357RAB0357E04FZRAB04E27 SLP229 P0002 I1001 T00061011,KPAH,2019-01-12T04:53:00Z,37.07,-88.77,0.6,-1.1,110,9,,9.0,30.200787,1022.9,,,TRUE,,,,,,,FEW,700,BKN,4100,OVC,5000,,,VFR,,,,,,0.02,,,,,,METAR,119.0
KPAE 120453Z AUTO 09005KT 10SM CLR 11/01 A2994 RMK AO2 SLP140 T01060006,KPAE,2019-01-12T04:53:00Z,47.92,-122.28,10.6,0.6,90,5,,10.0,29.940945,1014.0,,TRUE,TRUE,,,,,,,CLR,,,,,,,,VFR,,,,,,,,,,,,METAR,180.0
KOXB 120453Z AUTO 33006KT 10SM CLR M02/M13 A3044 RMK AO2 SLP309 T10221128 400391056,KOXB,2019-01-12T04:53:00Z,38.32,-75.12,-2.2,-12.8,330,6,,10.0,30.43996,1030.9,,TRUE,TRUE,,,,,,,CLR,,,,,,,,VFR,,,,3.9,-5.6,,,,,,,METAR,3.0
KOWD 120453Z AUTO 30010KT 10SM CLR M08/M20 A3034 RMK AO2 SLP276 T10781200 410061078,KOWD,2019-01-12T04:53:00Z,42.18,-71.17,-7.8,-20.0,300,10,,10.0,30.339567,1027.6,,TRUE,TRUE,,,,,,,CLR,,,,,,,,VFR,,,,-0.6,-7.8,,,,,,,METAR,19.0
KOVS 120453Z AUTO VRB03KT 10SM OVC050 M01/M05 A3029 RMK AO2 SLP266 T10061050,KOVS,2019-01-12T04:53:00Z,43.15,-90.68,-0.6,-5.0,0,3,,10.0,30.28937,1026.6,,TRUE,TRUE,,,,,,,OVC,5000,,,,,,,VFR,,,,,,,,,,,,METAR,202.0
KOTM 120453Z AUTO 09007KT 1SM -SN BR OVC015 M02/M02 A3018 RMK AO2 SLP231 P0000 T10171022,KOTM,2019-01-12T04:53:00Z,41.1,-92.45,-1.7,-2.2,90,7,,1.0,30.180119,1023.1,,TRUE,TRUE,,,,,,-SN BR,OVC,1500,,,,,,,IFR,,,,,,0.005,,,,,,METAR,256.0
KOSU 120453Z AUTO 10005KT 10SM CLR M03/M07 A3035 RMK AO2 SLP289 T10331072 410061039,KOSU,2019-01-12T04:53:00Z,40.08,-83.08,-3.3,-7.2,100,5,,10.0,30.351377,1028.9,,TRUE,TRUE,,,,,,,CLR,,,,,,,,VFR,,,,-0.6,-3.9,,,,,,,METAR,280.0
KOSH 120453Z AUTO 00000KT 8SM OVC050 M02/M06 A3031 RMK AO2 SLP282 T10171056,KOSH,2019-01-12T04:53:00Z,43.97,-88.55,-1.7,-5.6,0,0,,8.0,30.31004,1028.2,,TRUE,TRUE,,,,,,,OVC,5000,,,,,,,VFR,,,,,,,,,,,,METAR,248.0
KORL 120453Z AUTO 06004KT 10SM CLR 13/11 A3020 RMK AO2 SLP229 T01330106 402220083,KORL,2019-01-12T04:53:00Z,28.55,-81.33,13.3,10.6,60,4,,10.0,30.200787,1022.9,,TRUE,TRUE,,,,,,,CLR,,,,,,,,VFR,,,,22.2,8.3,,,,,,,METAR,37.0
KOPF 120453Z AUTO 08012KT 10SM BKN040 BKN065 21/14 A3015 RMK AO2 SLP209 T02110139 402500111,KOPF,2019-01-12T04:53:00Z,25.92,-80.28,21.1,13.9,80,12,,10.0,30.15059,1020.9,,TRUE,TRUE,,,,,,,BKN,4000,BKN,6500,,,,,VFR,,,,25.0,11.1,,,,,,,METAR,16.0
KONT 120453Z 25006KT 6SM HZ FEW200 FEW250 12/08 A3000 RMK AO2 SLP159 T01170083,KONT,2019-01-12T04:53:00Z,34.05,-117.58,11.7,8.3,250,6,,6.0,30.0,1015.9,,,TRUE,,,,,,HZ,FEW,20000,FEW,25000,,,,,VFR,,,,,,,,,,,,METAR,274.0
KONO 120453Z AUTO 36003KT 10SM CLR 00/M02 A3024 RMK AO2 SLP265 T00001022,KONO,2019-01-12T04:53:00Z,44.02,-117.02,0.0,-2.2,360,3,,10.0,30.239174,1026.5,,TRUE,TRUE,,,,,,,CLR,,,,,,,,VFR,,,,,,,,,,,,METAR,667.0
KOMK 120453Z AUTO 00000KT 1/4SM FZFG VV001 M02/M02 A3018 RMK AO2 SLP235 T10171017,KOMK,2019-01-12T04:53:00Z,48.47,-119.52,-1.7,-1.7,0,0,,0.25,30.180119,1023.5,,TRUE,TRUE,,,,,,FZFG,OVX,0,,,,,,,LIFR,,,,,,,,,,,100,METAR,395.0
KOLF 120453Z AUTO 07006KT 10SM CLR M12/M14 A3030 RMK AO2 SLP300 T11221139 TSNO,KOLF,2019-01-12T04:53:00Z,48.1,-105.58,-12.2,-13.9,70,6,,10.0,30.301182,1030.0,,TRUE,TRUE,,,TRUE,,,,CLR,,,,,,,,VFR,,,,,,,,,,,,METAR,604.0
PHNL 120453Z 00000KT 10SM FEW025 25/19 A3001 RMK AO2 SLP163 T02500189,PHNL,2019-01-12T04:53:00Z,21.33,-157.92,25.0,18.9,0,0,,10.0,30.008858,1016.3,,,TRUE,,,,,,,FEW,2500,,,,,,,VFR,,,,,,,,,,,,METAR,4.0
PHJR 120453Z 20004KT 10SM CLR 24/18 A3002 RMK AO2 SLP173 T02390178,PHJR,2019-01-12T04:53:00Z,21.32,-158.07,23.9,17.8,200,4,,10.0,30.02067,1017.3,,,TRUE,,,,,,,CLR,,,,,,,,VFR,,,,,,,,,,,,METAR,15.0
PAYA 120453Z AUTO 06003KT 10SM CLR M12/M14 A2969 RMK AO2 SLP052 I1000 T11221139 TSNO,PAYA,2019-01-12T04:53:00Z,59.52,-139.67,-12.2,-13.9,60,3,,10.0,29.68996,1005.2,,TRUE,TRUE,,,TRUE,,,,CLR,,,,,,,,VFR,,,,,,,,,,,,METAR,11.0
PAWI 120453Z AUTO 06006KT 10SM CLR M32/M36 A3031 RMK AO2 SLP268 T13221361 TSNO,PAWI,2019-01-12T04:53:00Z,70.62,-159.85,-32.2,-36.1,60,6,,10.0,30.31004,1026.8,,TRUE,TRUE,,,TRUE,,,,CLR,,,,,,,,VFR,,,,,,,,,,,,SPECI,27.0
PAVL 120453Z AUTO 01004KT 8SM CLR M30/M34 A3004 RMK AO2 SLP174 T13001339 TSNO $,PAVL,2019-01-12T04:53:00Z,67.73,-164.55,-30.0,-33.9,10,4,,8.0,30.041338,1017.4,,TRUE,TRUE,TRUE,,TRUE,,,,CLR,,,,,,,,VFR,,,,,,,,,,,,SPECI,3.0
PATO 120453Z AUTO 00000KT 10SM CLR M21/M23 A2977 RMK AO2 SLP082 I1000 T12061233 TSNO $,PATO,2019-01-12T04:53:00Z,60.78,-148.85,-20.6,-23.3,0,0,,10.0,29.769686,1008.2,,TRUE,TRUE,TRUE,,TRUE,,,,CLR,,,,,,,,VFR,,,,,,,,,,,,SPECI,31.0
PATK 120453Z AUTO 01004KT 10SM CLR M27/M31 A2979 RMK AO2 SLP101 T12721306 TSNO,PATK,2019-01-12T04:53:00Z,62.3,-150.1,-27.2,-30.6,10,4,,10.0,29.790354,1010.1,,TRUE,TRUE,,,TRUE,,,,CLR,,,,,,,,VFR,,,,,,,,,,,,METAR,109.0
KELM 120453Z AUTO 00000KT 10SM CLR M11/M15 A3043 RMK AO2 SLP322 T11111150 410441117,KELM,2019-01-12T04:53:00Z,42.15,-76.9,-11.1,-15.0,0,0,,10.0,30.431103,1032.2,,TRUE,TRUE,,,,,,,CLR,,,,,,,,VFR,,,,-4.4,-11.7,,,,,,,METAR,302.0
KELD 120453Z AUTO 12006KT 10SM OVC100 08/02 A3004 RMK AO2 SLP171 T00830017,KELD,2019-01-12T04:53:00Z,33.22,-92.82,8.3,1.7,120,6,,10.0,30.041338,1017.1,,TRUE,TRUE,,,,,,,OVC,10000,,,,,,,VFR,,,,,,,,,,,,METAR,81.0
KEET 120453Z AUTO 08003KT 10SM CLR 08/M01 A3022 RMK AO2 SLP233 T00831006,KEET,2019-01-12T04:53:00Z,33.18,-86.78,8.3,-0.6,80,3,,10.0,30.221457,1023.3,,TRUE,TRUE,,,,,,,CLR,,,,,,,,VFR,,,,,,,,,,,,METAR,173.0
KEEO 120453Z AUTO 00000KT 10SM FEW025 FEW080 FEW120 M02/M04 A3016 RMK AO2 SLP233 T10221044,KEEO,2019-01-12T04:53:00Z,40.05,-107.88,-2.2,-4.4,0,0,,10.0,30.159449,1023.3,,TRUE,TRUE,,,,,,,FEW,2500,FEW,8000,FEW,12000,,,VFR,,,,,,,,,,,,METAR,1930.0
KECP 120453Z AUTO 00000KT 10SM BKN035 08/04 A3018 RMK AO2 SLP232 T00780044,KECP,2019-01-12T04:53:00Z,30.35,-85.8,7.8,4.4,0,0,,10.0,30.180119,1023.2,,TRUE,TRUE,,,,,,,BKN,3500,,,,,,,VFR,,,,,,,,,,,,METAR,21.0
KDXR 120453Z AUTO 36003KT 10SM CLR M09/M18 A3039 RMK AO2 SLP297 T10891178 410171089,KDXR,2019-01-12T04:53:00Z,41.37,-73.48,-8.9,-17.8,360,3,,10.0,30.389763,1029.7,,TRUE,TRUE,,,,,,,CLR,,,,,,,,VFR,,,,-1.7,-8.9,,,,,,,METAR,139.0
KDWH 120453Z AUTO 14007KT 10SM FEW011 OVC048 15/14 A2997 RMK AO2 RAE0358 SLP147 P0000 T01500139,KDWH,2019-01-12T04:53:00Z,30.07,-95.55,15.0,13.9,140,7,,10.0,29.970472,1014.7,,TRUE,TRUE,,,,,,,FEW,1100,OVC,4800,,,,,VFR,,,,,,0.005,,,,,,METAR,46.0
KDVT 120453Z AUTO 00000KT 9SM CLR 11/07 A3008 RMK AO2 SLP180 T01060067,KDVT,2019-01-12T04:53:00Z,33.68,-112.07,10.6,6.7,0,0,,9.0,30.079725,1018.0,,TRUE,TRUE,,,,,,,CLR,,,,,,,,VFR,,,,,,,,,,,,METAR,443.0
KDUJ 120453Z AUTO 07003KT 10SM CLR M09/M16 A3033 RMK AO2 SLP302 T10891156 410391100 $,KDUJ,2019-01-12T04:53:00Z,41.17,-78.9,-8.9,-15.6,70,3,,10.0,30.33071,1030.2,,TRUE,TRUE,TRUE,,,,,,CLR,,,,,,,,VFR,,,,-3.9,-10.0,,,,,,,METAR,554.0
KDTW 120453Z 08003KT 10SM BKN075 OVC180 M04/M08 A3041 RMK AO2 SLP306 T10391083 410111083,KDTW,2019-01-12T04:53:00Z,42.23,-83.33,-3.9,-8.3,80,3,,10.0,30.410433,1030.6,,,TRUE,,,,,,,BKN,7500,OVC,18000,,,,,VFR,,,,-1.1,-8.3,,,,,,,METAR,195.0
KDTS 120453Z AUTO 05004KT 10SM FEW030 09/05 A3019 RMK AO2 SLP221 T00940050,KDTS,2019-01-12T04:53:00Z,30.4,-86.47,9.4,5.0,50,4,,10.0,30.188976,1022.1,,TRUE,TRUE,,,,,,,FEW,3000,,,,,,,VFR,,,,,,,,,,,,METAR,5.0
KDTO 120453Z AUTO 17009KT 9SM OVC006 11/11 A2989 RMK AO2 SLP120 T01110106,KDTO,2019-01-12T04:53:00Z,33.2,-97.2,11.1,10.6,170,9,,9.0,29.890747,1012.0,,TRUE,TRUE,,,,,,,OVC,600,,,,,,,IFR,,,,,,,,,,,,METAR,196.0
KDTN 120453Z AUTO 15010KT 10SM FEW031 OVC090 11/03 A3000 RMK AO2 SLP157 T01110033,KDTN,2019-01-12T04:53:00Z,32.55,-93.75,11.1,3.3,150,10,,10.0,30.0,1015.7,,TRUE,TRUE,,,,,,,FEW,3100,OVC,9000,,,,,VFR,,,,,,,,,,,,SPECI,53.0
KDRT 120453Z AUTO 00000KT 1/4SM FG VV002 12/12 A2998 RMK AO2 SLP147 T01220122,KDRT,2019-01-12T04:53:00Z,29.37,-100.92,12.2,12.2,0,0,,0.25,29.97933,1014.7,,TRUE,TRUE,,,,,,FG,OVX,0,,,,,,,LIFR,,,,,,,,,,,200,METAR,313.0
KDRO 120453Z AUTO 13005KT 10SM SCT070 OVC085 M01/M02 A3008 RMK AO2 SLP215 T10111017,KDRO,2019-01-12T04:53:00Z,37.15,-107.77,-1.1,-1.7,130,5,,10.0,30.079725,1021.5,,TRUE,TRUE,,,,,,,SCT,7000,OVC,8500,,,,,VFR,,,,,,,,,,,,METAR,2035.0
KDNL 120453Z AUTO 06004KT 10SM CLR 04/M06 A3036 RMK AO2 SLP281 T00391056 401110006 TSNO,KDNL,2019-01-12T04:53:00Z,33.47,-82.03,3.9,-5.6,60,4,,10.0,30.360237,1028.1,,TRUE,TRUE,,,TRUE,,,,CLR,,,,,,,,VFR,,,,11.1,0.6,,,,,,,SPECI,130.0
KDMN 120453Z AUTO 29004KT 10SM CLR 04/M01 A3012 RMK AO2 SLP182 T00391006,KDMN,2019-01-12T04:53:00Z,32.27,-107.72,3.9,-0.6,290,4,,10.0,30.121063,1018.2,,TRUE,TRUE,,,,,,,CLR,,,,,,,,VFR,,,,,,,,,,,,METAR,1311.0
KDLN 120453Z AUTO 20008KT 10SM CLR M08/M09 A3022 RMK AO2 SLP295 T10781094,KDLN,2019-01-12T04:53:00Z,45.25,-112.55,-7.8,-9.4,200,8,,10.0,30.221457,1029.5,,TRUE,TRUE,,,,,,,CLR,,,,,,,,VFR,,,,,,,,,,,,METAR,1591.0
KDKK 120453Z AUTO 13003KT 10SM OVC085 M07/M10 A3044 RMK AO2 SLP320 T10721100 410561117,KDKK,2019-01-12T04:53:00Z,42.5,-79.28,-7.2,-10.0,130,3,,10.0,30.43996,1032.0,,TRUE,TRUE,,,,,,,OVC,8500,,,,,,,VFR,,,,-5.6,-11.7,,,,,,,METAR,202.0
KDHN 120453Z AUTO 08005KT 10SM CLR 08/01 A3023 RMK AO2 SLP237 T00780011 401440000,KDHN,2019-01-12T04:53:00Z,31.32,-85.45,7.8,1.1,80,5,,10.0,30.230314,1023.7,,TRUE,TRUE,,,,,,,CLR,,,,,,,,VFR,,,,14.4,,,,,,,,METAR,113.0
KDGW 120453Z AUTO 33006KT 10SM CLR M04/M04 A3021 RMK AO2 SLP261 I1000 T10391044,KDGW,2019-01-12T04:53:00Z,42.8,-105.38,-3.9,-4.4,330,6,,10.0,30.209646,1026.1,,TRUE,TRUE,,,,,,,CLR,,,,,,,,VFR,,,,,,,,,,,,METAR,1499.0
KDFW 120453Z 17007KT 10SM OVC007 12/11 A2990 RMK AO2 RAE10 SLP122 P0001 T01170111,KDFW,2019-01-12T04:53:00Z,32.9,-97.02,11.7,11.1,170,7,,10.0,29.899607,1012.2,,,TRUE,,,,,,,OVC,700,,,,,,,IFR,,,,,,0.01,,,,,,METAR,174.0
KDFI 120453Z AUTO 08003KT 10SM CLR M04/M07 A3037 RMK AO2 SLP295 T10441072 410171044,KDFI,2019-01-12T04:53:00Z,41.33,-84.43,-4.4,-7.2,80,3,,10.0,30.369095,1029.5,,TRUE,TRUE,,,,,,,CLR,,,,,,,,VFR,,,,-1.7,-4.4,,,,,,,METAR,219.0
KGRR 120453Z 13005KT 10SM OVC065 M02/M07 A3037 RMK AO2 SLP294 LAST T10221072 410111067,KGRR,2019-01-12T04:53:00Z,42.88,-85.52,-2.2,-7.2,130,5,,10.0,30.369095,1029.4,,,TRUE,,,,,,,OVC,6500,,,,,,,VFR,,,,-1.1,-6.7,,,,,,,METAR,237.0
KGRI 120453Z AUTO 03008KT 10SM OVC090 00/M02 A3012 RMK AO2 SLP223 T00001022,KGRI,2019-01-12T04:53:00Z,40.97,-98.32,0.0,-2.2,30,8,,10.0,30.121063,1022.3,,TRUE,TRUE,,,,,,,OVC,9000,,,,,,,VFR,,,,,,,,,,,,METAR,561.0
KGRB 120453Z 00000KT 10SM OVC055 M02/M06 A3033 RMK AO2 SLP282 T10221056,KGRB,2019-01-12T04:53:00Z,44.48,-88.13,-2.2,-5.6,0,0,,10.0,30.33071,1028.2,,,TRUE,,,,,,,OVC,5500,,,,,,,VFR,,,,,,,,,,,,METAR,208.0
KGPT 120453Z AUTO 03003KT 10SM OVC036 11/07 A3016 RMK AO2 SLP210 T01060072,KGPT,2019-01-12T04:53:00Z,30.42,-89.08,10.6,7.2,30,3,,10.0,30.159449,1021.0,,TRUE,TRUE,,,,,,,OVC,3600,,,,,,,VFR,,,,,,,,,,,,METAR,14.0
KGNV 120453Z AUTO 04005KT 9SM CLR 08/07 A3025 RMK AO2 SLP244 T00830067 401940006,KGNV,2019-01-12T04:53:00Z,29.7,-82.28,8.3,6.7,40,5,,9.0,30.250984,1024.4,,TRUE,TRUE,,,,,,,CLR,,,,,,,,VFR,,,,19.4,0.6,,,,,,,METAR,45.0
KGMU 120453Z AUTO 00000KT 10SM OVC100 05/M06 A3035 RMK AO2 SLP282 T00501056 401001011,KGMU,2019-01-12T04:53:00Z,34.85,-82.35,5.0,-5.6,0,0,,10.0,30.351377,1028.2,,TRUE,TRUE,,,,,,,OVC,10000,,,,,,,VFR,,,,10.0,-1.1,,,,,,,SPECI,315.0
KGLH 120453Z AUTO 11009KT 10SM OVC090 07/01 A3008 RMK AO2 SLP196 T00720011,KGLH,2019-01-12T04:53:00Z,33.5,-90.98,7.2,1.1,110,9,,10.0,30.079725,1019.6,,TRUE,TRUE,,,,,,,OVC,9000,,,,,,,VFR,,,,,,,,,,,,METAR,45.0
KGLD 120453Z AUTO 36009KT 10SM OVC060 00/M02 A3006 RMK AO2 SLP193 T00001017,KGLD,2019-01-12T04:53:00Z,39.37,-101.7,0.0,-1.7,360,9,,10.0,30.059055,1019.3,,TRUE,TRUE,,,,,,,OVC,6000,,,,,,,VFR,,,,,,,,,,,,SPECI,1113.0
KGKY 120453Z AUTO 16008KT 10SM OVC007 13/13 A2991 RMK AO2 RAE16 CIG 006V011 SLP126 P0000 T01280128,KGKY,2019-01-12T04:53:00Z,32.67,-97.1,12.8,12.8,160,8,,10.0,29.911417,1012.6,,TRUE,TRUE,,,,,,,OVC,700,,,,,,,IFR,,,,,,0.005,,,,,,METAR,192.0
KGKJ 120453Z AUTO 00000KT 10SM OVC080 M08/M11 A3037 RMK AO2 SLP308 T10781106 410391089 TSNO,KGKJ,2019-01-12T04:53:00Z,41.63,-80.22,-7.8,-10.6,0,0,,10.0,30.369095,1030.8,,TRUE,TRUE,,,TRUE,,,,OVC,8000,,,,,,,VFR,,,,-3.9,-8.9,,,,,,,METAR,428.0
KGJT 120453Z AUTO 13008KT 10SM OVC048 00/M03 A3016 RMK AO2 SLP238 T00001028,KGJT,2019-01-12T04:53:00Z,39.12,-108.52,0.0,-2.8,130,8,,10.0,30.159449,1023.8,,TRUE,TRUE,,,,,,,OVC,4800,,,,,,,VFR,,,,,,,,,,,,METAR,1475.0
KGIF 120453Z AUTO 08006KT 10SM BKN050 14/11 A3020 RMK AO2 SLP225 T01440111 402390078 TSNO,KGIF,2019-01-12T04:53:00Z,28.07,-81.75,14.4,11.1,80,6,,10.0,30.200787,1022.5,,TRUE,TRUE,,,TRUE,,,,BKN,5000,,,,,,,VFR,,,,23.9,7.8,,,,,,,SPECI,43.0
KGGW 120453Z AUTO 11013KT 10SM CLR M09/M12 A3022 RMK AO2 SLP279 T10941122,KGGW,2019-01-12T04:53:00Z,48.22,-106.62,-9.4,-12.2,110,13,,10.0,30.221457,1027.9,,TRUE,TRUE,,,,,,,CLR,,,,,,,,VFR,,,,,,,,,,,,METAR,694.0
KGFL 120453Z AUTO 28007KT 10SM FEW110 M12/M20 A3041 RMK AO2 SLP310 T11221200 410561133,KGFL,2019-01-12T04:53:00Z,43.33,-73.62,-12.2,-20.0,280,7,,10.0,30.410433,1031.0,,TRUE,TRUE,,,,,,,FEW,11000,,,,,,,VFR,,,,-5.6,-13.3,,,,,,,METAR,103.0
KGEZ 120453Z AUTO 11007KT 10SM OVC070 M01/M06 A3031 RMK AO2 SLP272 T10061056 400001039,KGEZ,2019-01-12T04:53:00Z,39.58,-85.8,-0.6,-5.6,110,7,,10.0,30.31004,1027.2,,TRUE,TRUE,,,,,,,OVC,7000,,,,,,,VFR,,,,,-3.9,,,,,,,METAR,245.0
KGEY 120453Z AUTO 10006KT 1/2SM FZFG VV002 M01/M01 A3024 RMK AO2 SLP276 T10111011,KGEY,2019-01-12T04:53:00Z,44.52,-108.08,-1.1,-1.1,100,6,,0.5,30.239174,1027.6,,TRUE,TRUE,,,,,,FZFG,OVX,0,,,,,,,LIFR,,,,,,,,,,,200,METAR,1191.0
KGEG 120453Z 07011KT 1/2SM BR FEW001 OVC003 01/00 A3013 RMK AO2 SFC VIS 4 SLP223 T00110000,KGEG,2019-01-12T04:53:00Z,47.62,-117.53,1.1,0.0,70,11,,0.5,30.129921,1022.3,,,TRUE,,,,,,BR,FEW,100,OVC,300,,,,,LIFR,,,,,,,,,,,,METAR,735.0
KGCC 120453Z AUTO 28008KT 10SM CLR M01/M04 A3018 RMK AO2 SLP243 T10111039,KGCC,2019-01-12T04:53:00Z,44.33,-105.55,-1.1,-3.9,280,8,,10.0,30.180119,1024.3,,TRUE,TRUE,,,,,,,CLR,,,,,,,,VFR,,,,,,,,,,,,METAR,1320.0
KFXE 120453Z 07011KT 10SM BKN042 21/14 A3015 RMK AO2 SLP210 T02110144 402500111,KFXE,2019-01-12T04:53:00Z,26.2,-80.18,21.1,14.4,70,11,,10.0,30.15059,1021.0,,,TRUE,,,,,,,BKN,4200,,,,,,,VFR,,,,25.0,11.1,,,,,,,METAR,6.0
KFWN 120453Z AUTO VRB04KT 10SM CLR M08/M16 A3041 RMK AO2 SLP303 T10781161 410221083 $,KFWN,2019-01-12T04:53:00Z,41.2,-74.63,-7.8,-16.1,0,4,,10.0,30.410433,1030.3,,TRUE,TRUE,TRUE,,,,,,CLR,,,,,,,,VFR,,,,-2.2,-8.3,,,,,,,METAR,133.0
KFVE 120453Z AUTO 29012KT 10SM OVC025 M16/M21 A2988 RMK AO2 SLP142 T11561206 410831156,KFVE,2019-01-12T04:53:00Z,47.28,-68.3,-15.6,-20.6,290,12,,10.0,29.878937,1014.2,,TRUE,TRUE,,,,,,,OVC,2500,,,,,,,MVFR,,,,-8.3,-15.6,,,,,,,METAR,301.0
KFUL 120453Z 08004KT 7SM CLR 12/09 A2999 RMK AO2 SLP155 T01220094,KFUL,2019-01-12T04:53:00Z,33.87,-117.98,12.2,9.4,80,4,,7.0,29.991142,1015.5,,,TRUE,,,,,,,CLR,,,,,,,,VFR,,,,,,,,,,,,METAR,35.0
KFTY 120453Z 10006KT 10SM BKN095 07/M04 A3029 RMK AO2 SLP259 T00671039 401221028,KFTY,2019-01-12T04:53:00Z,33.78,-84.52,6.7,-3.9,100,6,,10.0,30.28937,1025.9,,,TRUE,,,,,,,BKN,9500,,,,,,,VFR,,,,12.2,-2.8,,,,,,,METAR,263.0
KFTW 120453Z 18011KT 10SM OVC008 12/12 A2990 RMK AO2 SLP123 T01220117,KFTW,2019-01-12T04:53:00Z,32.83,-97.37,12.2,11.7,180,11,,10.0,29.899607,1012.3,,,TRUE,,,,,,,OVC,800,,,,,,,IFR,,,,,,,,,,,,METAR,214.0
KFST 120453Z AUTO 29007KT 10SM FEW080 08/02 A3003 RMK AO2 SLP145 T00830017,KFST,2019-01-12T04:53:00Z,30.92,-102.92,8.3,1.7,290,7,,10.0,30.029528,1014.5,,TRUE,TRUE,,,,,,,FEW,8000,,,,,,,VFR,,,,,,,,,,,,METAR,918.0
KRIL 120453Z AUTO 10003KT 10SM BKN055 OVC070 M01/M03 A3016 RMK AO2 SLP234 T10061033,KRIL,2019-01-12T04:53:00Z,39.53,-107.73,-0.6,-3.3,100,3,,10.0,30.159449,1023.4,,TRUE,TRUE,,,,,,,BKN,5500,OVC,7000,,,,,VFR,,,,,,,,,,,,METAR,1678.0
KRHI 120453Z AUTO 10004KT 10SM OVC046 M04/M09 A3028 RMK AO2 SLP281 T10391089 $,KRHI,2019-01-12T04:53:00Z,45.63,-89.48,-3.9,-8.9,100,4,,10.0,30.280512,1028.1,,TRUE,TRUE,TRUE,,,,,,OVC,4600,,,,,,,VFR,,,,,,,,,,,,METAR,485.0
KRBD 120453Z AUTO 18011KT 8SM -RA 12/11 A2991 RMK AO2 SLP127 P0002 T01170111 $,KRBD,2019-01-12T04:53:00Z,32.68,-96.87,11.7,11.1,180,11,,8.0,29.911417,1012.7,,TRUE,TRUE,TRUE,,,,,-RA,,,,,,,,,,,,,,,0.02,,,,,,METAR,203.0
KRAL 120453Z AUTO 19003KT 7SM CLR 11/09 A3000 RMK AO2 SLP150 T01110089,KRAL,2019-01-12T04:53:00Z,33.95,-117.45,11.1,8.9,190,3,,7.0,30.0,1015.0,,TRUE,TRUE,,,,,,,CLR,,,,,,,,VFR,,,,,,,,,,,,METAR,252.0
KRAC 120453Z AUTO 00000KT 9SM OVC075 M01/M06 A3034 RMK AO2 SLP283 T10111061,KRAC,2019-01-12T04:53:00Z,42.77,-87.82,-1.1,-6.1,0,0,,9.0,30.339567,1028.3,,TRUE,TRUE,,,,,,,OVC,7500,,,,,,,VFR,,,,,,,,,,,,METAR,203.0
KPWA 120453Z AUTO 17015KT 10SM -RA OVC004 08/07 A2981 RMK AO2 RAB0358 SLP097 P0003 T00780067,KPWA,2019-01-12T04:53:00Z,35.53,-97.65,7.8,6.7,170,15,,10.0,29.811024,1009.7,,TRUE,TRUE,,,,,,-RA,OVC,400,,,,,,,LIFR,,,,,,0.03,,,,,,METAR,397.0
KPUW 120453Z AUTO 10015KT 10SM CLR 03/M01 A3011 RMK AO2 SLP215 T00281006,KPUW,2019-01-12T04:53:00Z,46.75,-117.12,2.8,-0.6,100,15,,10.0,30.109253,1021.5,,TRUE,TRUE,,,,,,,CLR,,,,,,,,VFR,,,,,,,,,,,,METAR,773.0
KPUB 120453Z 36009KT 10SM OVC042 04/M01 A3013 RMK AO2 SLP206 T00391006,KPUB,2019-01-12T04:53:00Z,38.28,-104.5,3.9,-0.6,360,9,,10.0,30.129921,1020.6,,,TRUE,,,,,,,OVC,4200,,,,,,,VFR,,,,,,,,,,,,METAR,1420.0
KPTK 120453Z 17003KT 10SM BKN065 OVC110 M04/M09 A3038 RMK AO2 SLP301 LAST T10391094 410281094,KPTK,2019-01-12T04:53:00Z,42.67,-83.42,-3.9,-9.4,170,3,,10.0,30.380905,1030.1,,,TRUE,,,,,,,BKN,6500,OVC,11000,,,,,VFR,,,,-2.8,-9.4,,,,,,,METAR,299.0
KPSX 120453Z AUTO 13013KT 10SM OVC035 18/17 A2993 RMK AO2 SLP134 T01830167,KPSX,2019-01-12T04:53:00Z,28.72,-96.25,18.3,16.7,130,13,,10.0,29.929134,1013.4,,TRUE,TRUE,,,,,,,OVC,3500,,,,,,,VFR,,,,,,,,,,,,METAR,5.0
KPSP 120453Z 30004KT 10SM CLR 14/06 A3006 RMK AO2 SLP178 T01390061,KPSP,2019-01-12T04:53:00Z,33.82,-116.5,13.9,6.1,300,4,,10.0,30.059055,1017.8,,,TRUE,,,,,,,CLR,,,,,,,,VFR,,,,,,,,,,,,METAR,135.0
KPRC 120453Z 20006KT 10SM CLR 01/M03 A3012 RMK AO2 SLP184 T00111033,KPRC,2019-01-12T04:53:00Z,34.65,-112.42,1.1,-3.3,200,6,,10.0,30.121063,1018.4,,,TRUE,,,,,,,CLR,,,,,,,,VFR,,,,,,,,,,,,METAR,1524.0
KPRB 120453Z AUTO 23006KT 10SM BKN055 12/09 A2991 RMK AO2 SLP127 T01170089,KPRB,2019-01-12T04:53:00Z,35.67,-120.63,11.7,8.9,230,6,,10.0,29.911417,1012.7,,TRUE,TRUE,,,,,,,BKN,5500,,,,,,,VFR,,,,,,,,,,,,METAR,245.0
KPQL 120453Z AUTO 06003KT 10SM OVC034 11/07 A3016 RMK AO2 SLP214 T01110072,KPQL,2019-01-12T04:53:00Z,30.47,-88.53,11.1,7.2,60,3,,10.0,30.159449,1021.4,,TRUE,TRUE,,,,,,,OVC,3400,,,,,,,VFR,,,,,,,,,,,,METAR,6.0
KPOU 120453Z 10003KT 10SM CLR M09/M17 A3041 RMK AO2 SLP297 T10941167 410111100,KPOU,2019-01-12T04:53:00Z,41.63,-73.88,-9.4,-16.7,100,3,,10.0,30.410433,1029.7,,,TRUE,,,,,,,CLR,,,,,,,,VFR,,,,-1.1,-10.0,,,,,,,METAR,46.0
KPNS 120453Z AUTO 05004KT 10SM CLR 09/05 A3017 RMK AO2 SLP219 T00890050,KPNS,2019-01-12T04:53:00Z,30.48,-87.18,8.9,5.0,50,4,,10.0,30.171259,1021.9,,TRUE,TRUE,,,,,,,CLR,,,,,,,,VFR,,,,,,,,,,,,METAR,38.0
KPMP 120453Z AUTO 08012KT 10SM SCT037 BKN044 22/14 A3015 RMK AO2 SLP210 T02170139 402440111,KPMP,2019-01-12T04:53:00Z,26.25,-80.12,21.7,13.9,80,12,,10.0,30.15059,1021.0,,TRUE,TRUE,,,,,,,SCT,3700,BKN,4400,,,,,VFR,,,,24.4,11.1,,,,,,,SPECI,6.0
KPMD 120453Z A3000 RMK AO2 SLPNO $,KPMD,2019-01-12T04:53:00Z,34.63,-118.08,,,,,,,30.0,,,,TRUE,TRUE,,,,,,,,,,,,,,,,,,,,,,,,,,METAR,780.0
KPKD 120453Z AUTO 05004KT 10SM OVC022 M06/M09 A3025 RMK AO2 SLP274 T10561089,KPKD,2019-01-12T04:53:00Z,46.9,-95.07,-5.6,-8.9,50,4,,10.0,30.250984,1027.4,,TRUE,TRUE,,,,,,,OVC,2200,,,,,,,MVFR,,,,,,,,,,,,METAR,442.0
KPKB 120453Z AUTO 09004KT 10SM CLR M03/M08 A3038 RMK AO2 SLP298 T10331083 400001044,KPKB,2019-01-12T04:53:00Z,39.35,-81.42,-3.3,-8.3,90,4,,10.0,30.380905,1029.8,,TRUE,TRUE,,,,,,,CLR,,,,,,,,VFR,,,,,-4.4,,,,,,,METAR,262.0
KPIR 120453Z AUTO 01010KT 10SM CLR M08/M09 A3026 RMK AO2 SLP270 T10781094,KPIR,2019-01-12T04:53:00Z,44.38,-100.28,-7.8,-9.4,10,10,,10.0,30.259842,1027.0,,TRUE,TRUE,,,,,,,CLR,,,,,,,,VFR,,,,,,,,,,,,METAR,526.0
KARB 120453Z AUTO 06003KT 10SM OVC070 M04/M07 A3038 RMK AO2 SLP301 T10441072 410171122,KARB,2019-01-12T04:53:00Z,42.22,-83.73,-4.4,-7.2,60,3,,10.0,30.380905,1030.1,,TRUE,TRUE,,,,,,,OVC,7000,,,,,,,VFR,,,,-1.7,-12.2,,,,,,,METAR,251.0
KARA 120453Z AUTO 11007KT 10SM CLR 10/07 A3009 RMK AO2 SLP187 T01000072,KARA,2019-01-12T04:53:00Z,30.03,-91.88,10.0,7.2,110,7,,10.0,30.088583,1018.7,,TRUE,TRUE,,,,,,,CLR,,,,,,,,VFR,,,,,,,,,,,,METAR,18.0
KAPF 120453Z AUTO 00000KT 10SM CLR 17/12 A3015 RMK AO2 SLP208 T01670122 402440078 $,KAPF,2019-01-12T04:53:00Z,26.15,-81.77,16.7,12.2,0,0,,10.0,30.15059,1020.8,,TRUE,TRUE,TRUE,,,,,,CLR,,,,,,,,VFR,,,,24.4,7.8,,,,,,,METAR,3.0
KAOO 120453Z AUTO 00000KT 10SM CLR M07/M10 A3037 RMK AO2 SLP307 T10671100 410221072,KAOO,2019-01-12T04:53:00Z,40.3,-78.32,-6.7,-10.0,0,0,,10.0,30.369095,1030.7,,TRUE,TRUE,,,,,,,CLR,,,,,,,,VFR,,,,-2.2,-7.2,,,,,,,METAR,455.0
KAOH 120453Z AUTO 11004KT 10SM CLR M04/M07 A3034 RMK AO2 SLP288 T10391067 410111044,KAOH,2019-01-12T04:53:00Z,40.7,-84.02,-3.9,-6.7,110,4,,10.0,30.339567,1028.8,,TRUE,TRUE,,,,,,,CLR,,,,,,,,VFR,,,,-1.1,-4.4,,,,,,,METAR,296.0
KANB 120453Z AUTO 05006KT 10SM CLR 08/M02 A3024 RMK AO2 SLP246 T00781022,KANB,2019-01-12T04:53:00Z,33.58,-85.85,7.8,-2.2,50,6,,10.0,30.239174,1024.6,,TRUE,TRUE,,,,,,,CLR,,,,,,,,VFR,,,,,,,,,,,,METAR,183.0
KAMG 120453Z AUTO 09005KT 10SM OVC050 09/01 A3029 RMK AO2 SLP256 T00890011 401501006,KAMG,2019-01-12T04:53:00Z,31.53,-82.5,8.9,1.1,90,5,,10.0,30.28937,1025.6,,TRUE,TRUE,,,,,,,OVC,5000,,,,,,,VFR,,,,15.0,-0.6,,,,,,,SPECI,59.0
KALI 120453Z AUTO 23003KT 10SM SCT110 18/17 A2996 RMK AO2 SLP144 T01780172,KALI,2019-01-12T04:53:00Z,27.73,-98.02,17.8,17.2,230,3,,10.0,29.958662,1014.4,,TRUE,TRUE,,,,,,,SCT,11000,,,,,,,VFR,,,,,,,,,,,,METAR,53.0
KAIA 120453Z AUTO 35006KT 10SM OVC090 01/01 A3015 RMK AO2 SLP224 T00110011,KAIA,2019-01-12T04:53:00Z,42.05,-102.8,1.1,1.1,350,6,,10.0,30.15059,1022.4,,TRUE,TRUE,,,,,,,OVC,9000,,,,,,,VFR,,,,,,,,,,,,METAR,1196.0
KAGS 120453Z AUTO 00000KT 10SM CLR M01/M03 A3036 RMK AO2 SLP280 T10061028 401171033,KAGS,2019-01-12T04:53:00Z,33.37,-81.97,-0.6,-2.8,0,0,,10.0,30.360237,1028.0,,TRUE,TRUE,,,,,,,CLR,,,,,,,,VFR,,,,11.7,-3.3,,,,,,,METAR,44.0
KAGC 120453Z AUTO 00000KT 10SM CLR M05/M09 A3036 RMK AO2 SLP305 T10501094 410171067,KAGC,2019-01-12T04:53:00Z,40.35,-79.92,-5.0,-9.4,0,0,,10.0,30.360237,1030.5,,TRUE,TRUE,,,,,,,CLR,,,,,,,,VFR,,,,-1.7,-6.7,,,,,,,METAR,389.0
KAFW 120453Z 18011KT 10SM OVC009 12/11 A2989 RMK AO2 SLP123 T01220111,KAFW,2019-01-12T04:53:00Z,32.97,-97.32,12.2,11.1,180,11,,10.0,29.890747,1012.3,,,TRUE,,,,,,,OVC,900,,,,,,,IFR,,,,,,,,,,,,METAR,233.0
KAEX 120453Z 14006KT 10SM FEW090 07/03 A3005 RMK AO2 SLP181 T00720028 $,KAEX,2019-01-12T04:53:00Z,31.33,-92.57,7.2,2.8,140,6,,10.0,30.050198,1018.1,,,TRUE,TRUE,,,,,,FEW,9000,,,,,,,VFR,,,,,,,,,,,,METAR,27.0
KADG 120453Z AUTO 13003KT 10SM CLR M05/M08 A3039 RMK AO2 SLP304 T10501078 410221072 TSNO,KADG,2019-01-12T04:53:00Z,41.87,-84.08,-5.0,-7.8,130,3,,10.0,30.389763,1030.4,,TRUE,TRUE,,,TRUE,,,,CLR,,,,,,,,VFR,,,,-2.2,-7.2,,,,,,,METAR,241.0
KACV 120453Z AUTO 17006KT 10SM OVC055 14/08 A2982 RMK AO2 SLP104 T01390078,KACV,2019-01-12T04:53:00Z,40.98,-124.1,13.9,7.8,170,6,,10.0,29.819881,1010.4,,TRUE,TRUE,,,,,,,OVC,5500,,,,,,,VFR,,,,,,,,,,,,METAR,67.0
KACK 120453Z AUTO 32018G26KT 10SM CLR M07/M17 A3030 RMK AO2 PK WND 32026/0444 SLP259 T10671172 400001067,KACK,2019-01-12T04:53:00Z,41.25,-70.07,-6.7,-17.2,320,18,26,10.0,30.301182,1025.9,,TRUE,TRUE,,,,,,,CLR,,,,,,,,VFR,,,,,-6.7,,,,,,,METAR,16.0
KABY 120453Z AUTO 06005KT 10SM BKN045 08/02 A3027 RMK AO2 SLP250 T00830022 401560006,KABY,2019-01-12T04:53:00Z,31.53,-84.2,8.3,2.2,60,5,,10.0,30.268702,1025.0,,TRUE,TRUE,,,,,,,BKN,4500,,,,,,,VFR,,,,15.6,0.6,,,,,,,METAR,58.0
KABR 120453Z AUTO 03010KT 9SM OVC010 M08/M09 A3030 RMK AO2 SLP284 T10781094 $,KABR,2019-01-12T04:53:00Z,45.45,-98.42,-7.8,-9.4,30,10,,9.0,30.301182,1028.4,,TRUE,TRUE,TRUE,,,,,,OVC,1000,,,,,,,MVFR,,,,,,,,,,,,METAR,397.0
KAAF 120453Z AUTO 06006KT 10SM CLR 09/06 A3018 RMK AO2 SLP220 T00940056 401440028,KAAF,2019-01-12T04:53:00Z,29.73,-85.03,9.4,5.6,60,6,,10.0,30.180119,1022.0,,TRUE,TRUE,,,,,,,CLR,,,,,,,,VFR,,,,14.4,2.8,,,,,,,METAR,5.0
KLAN 120453Z 16006KT 10SM OVC070 M03/M07 A3038 RMK AO2 SLP302 T10281072 410221089,KLAN,2019-01-12T04:53:00Z,42.78,-84.58,-2.8,-7.2,160,6,,10.0,30.380905,1030.2,,,TRUE,,,,,,,OVC,7000,,,,,,,VFR,,,,-2.2,-8.9,,,,,,,METAR,264.0
KJKL 120453Z AUTO 00000KT 10SM BKN080 BKN110 M01/M08 A3029 RMK AO2 SLP267 T10061083 400281078,KJKL,2019-01-12T04:53:00Z,37.6,-83.32,-0.6,-8.3,0,0,,10.0,30.28937,1026.7,,TRUE,TRUE,,,,,,,BKN,8000,BKN,11000,,,,,VFR,,,,2.8,-7.8,,,,,,,SPECI,416.0
KJER 120453Z AUTO 05013KT 10SM CLR M01/M03 A3024 RMK AO2 SLP261 T10061028,KJER,2019-01-12T04:53:00Z,42.72,-114.45,-0.6,-2.8,50,13,,10.0,30.239174,1026.1,,TRUE,TRUE,,,,,,,CLR,,,,,,,,VFR,,,,,,,,,,,,METAR,1222.0
KJEF 120453Z AUTO 10008KT 1 1/2SM -SN BR SCT007 OVC020 M01/M02 A3014 RMK AO2 SLP200 P0000 T10061017,KJEF,2019-01-12T04:53:00Z,38.6,-92.15,-0.6,-1.7,100,8,,1.5,30.138779,1020.0,,TRUE,TRUE,,,,,,-SN BR,SCT,700,OVC,2000,,,,,IFR,,,,,,0.005,,,,,,SPECI,168.0
KJBR 120453Z AUTO 09010KT 9SM -SN OVC060 02/02 A3013 RMK AO2 SLP204 P0000 T00220022,KJBR,2019-01-12T04:53:00Z,35.83,-90.65,2.2,2.2,90,10,,9.0,30.129921,1020.4,,TRUE,TRUE,,,,,,-SN,OVC,6000,,,,,,,VFR,,,,,,0.005,,,,,,SPECI,79.0
KIWI 120453Z AUTO 28006KT 10SM CLR M14/M21 A3025 RMK AO2 SLP245 T11441206 410561144,KIWI,2019-01-12T04:53:00Z,43.97,-69.72,-14.4,-20.6,280,6,,10.0,30.250984,1024.5,,TRUE,TRUE,,,,,,,CLR,,,,,,,,VFR,,,,-5.6,-14.4,,,,,,,METAR,20.0
KITR 120453Z AUTO 36015G26KT 10SM SCT034 OVC041 02/M01 A3007 RMK AO2 PK WND 02026/0447 SNE0357 SLP188 P0000 T00221011,KITR,2019-01-12T04:53:00Z,39.23,-102.28,2.2,-1.1,360,15,26,10.0,30.070866,1018.8,,TRUE,TRUE,,,,,,,SCT,3400,OVC,4100,,,,,VFR,,,,,,0.005,,,,,,METAR,1279.0
KIPL 120453Z AUTO 00000KT 8SM CLR 12/08 A3002 RMK AO2 SLP166 T01220083,KIPL,2019-01-12T04:53:00Z,32.83,-115.58,12.2,8.3,0,0,,8.0,30.02067,1016.6,,TRUE,TRUE,,,,,,,CLR,,,,,,,,VFR,,,,,,,,,,,,METAR,-17.0
KINK 120453Z AUTO 33004KT 10SM CLR 07/03 A3000 RMK AO2 SLP143 T00670033,KINK,2019-01-12T04:53:00Z,31.78,-103.2,6.7,3.3,330,4,,10.0,30.0,1014.3,,TRUE,TRUE,,,,,,,CLR,,,,,,,,VFR,,,,,,,,,,,,METAR,855.0
KIML 120453Z AUTO 36009KT 10SM OVC065 03/M03 A3010 RMK AO2 SLP212 T00281028,KIML,2019-01-12T04:53:00Z,40.52,-101.62,2.8,-2.8,360,9,,10.0,30.100393,1021.2,,TRUE,TRUE,,,,,,,OVC,6500,,,,,,,VFR,,,,,,,,,,,,METAR,998.0
KILM 120453Z 02005KT 10SM CLR M01/M07 A3041 RMK AO2 SLP295 T10111067 400831033,KILM,2019-01-12T04:53:00Z,34.27,-77.9,-1.1,-6.7,20,5,,10.0,30.410433,1029.5,,,TRUE,,,,,,,CLR,,,,,,,,VFR,,,,8.3,-3.3,,,,,,,SPECI,9.0
KIDA 120453Z AUTO 05003KT 10SM OVC009 M02/M04 A3030 RMK AO2 SLP290 T10171039,KIDA,2019-01-12T04:53:00Z,43.52,-112.07,-1.7,-3.9,50,3,,10.0,30.301182,1029.0,,TRUE,TRUE,,,,,,,OVC,900,,,,,,,IFR,,,,,,,,,,,,METAR,1453.0
KICT 120453Z 06008KT 10SM OVC006 02/02 A2994 RMK AO2 RAE22 SLP147 P0001 T00170017,KICT,2019-01-12T04:53:00Z,37.65,-97.43,1.7,1.7,60,8,,10.0,29.940945,1014.7,,,TRUE,,,,,,,OVC,600,,,,,,,IFR,,,,,,0.01,,,,,,SPECI,407.0
KICR 120453Z AUTO 35004KT 10SM CLR M06/M08 A3022 RMK AO2 SLP259 T10611083,KICR,2019-01-12T04:53:00Z,43.38,-99.85,-6.1,-8.3,350,4,,10.0,30.221457,1025.9,,TRUE,TRUE,,,,,,,CLR,,,,,,,,VFR,,,,,,,,,,,,METAR,621.0
KIAH 120453Z 13008KT 10SM FEW006 SCT027 BKN055 OVC130 14/14 A2996 RMK AO2 SLP144 T01440144,KIAH,2019-01-12T04:53:00Z,30.0,-95.37,14.4,14.4,130,8,,10.0,29.958662,1014.4,,,TRUE,,,,,,,FEW,600,SCT,2700,BKN,5500,OVC,13000,VFR,,,,,,,,,,,,METAR,36.0
KIAG 120453Z AUTO 10004KT 10SM OVC095 M08/M14 A3044 RMK AO2 SLP332 T10831139 410721111 $,KIAG,2019-01-12T04:53:00Z,43.12,-78.93,-8.3,-13.9,100,4,,10.0,30.43996,1033.2,,TRUE,TRUE,TRUE,,,,,,OVC,9500,,,,,,,VFR,,,,-7.2,-11.1,,,,,,,METAR,182.0
KHZY 120453Z AUTO 12004KT 10SM SCT085 SCT110 M07/M09 A3042 RMK AO2 SLP314 T10671089 410281072,KHZY,2019-01-12T04:53:00Z,41.78,-80.7,-6.7,-8.9,120,4,,10.0,30.41929,1031.4,,TRUE,TRUE,,,,,,,SCT,8500,SCT,11000,,,,,VFR,,,,-2.8,-7.2,,,,,,,METAR,276.0
KHYR 120453Z AUTO 05005KT 10SM OVC043 M04/M08 A3029 RMK AO2 SLP278 T10391083,KHYR,2019-01-12T04:53:00Z,46.02,-91.45,-3.9,-8.3,50,5,,10.0,30.28937,1027.8,,TRUE,TRUE,,,,,,,OVC,4300,,,,,,,VFR,,,,,,,,,,,,METAR,370.0
KHWO 120453Z AUTO 07012KT 10SM FEW070 21/14 A3015 RMK AO2 SLP211 T02060139 402560106,KHWO,2019-01-12T04:53:00Z,26.0,-80.23,20.6,13.9,70,12,,10.0,30.15059,1021.1,,TRUE,TRUE,,,,,,,FEW,7000,,,,,,,VFR,,,,25.6,10.6,,,,,,,SPECI,2.0
KHVR 120453Z AUTO 09007KT 10SM CLR M07/M09 A3011 RMK AO2 SLP234 T10721089,KHVR,2019-01-12T04:53:00Z,48.55,-109.77,-7.2,-8.9,90,7,,10.0,30.109253,1023.4,,TRUE,TRUE,,,,,,,CLR,,,,,,,,VFR,,,,,,,,,,,,METAR,787.0
KHVN 120453Z AUTO 34007KT 10SM CLR M07/M18 A3040 RMK AO2 SLP295 T10671183 400061067,KHVN,2019-01-12T04:53:00Z,41.27,-72.87,-6.7,-18.3,340,7,,10.0,30.398623,1029.5,,TRUE,TRUE,,,,,,,CLR,,,,,,,,VFR,,,,0.6,-6.7,,,,,,,METAR,4.0
KHUL 120453Z AUTO 27008KT 10SM CLR M17/M21 A2999 RMK AO2 SLP168 T11671211 410611172 TSNO,KHUL,2019-01-12T04:53:00Z,46.12,-67.8,-16.7,-21.1,270,8,,10.0,29.991142,1016.8,,TRUE,TRUE,,,TRUE,,,,CLR,,,,,,,,VFR,,,,-6.1,-17.2,,,,,,,METAR,150.0
KHTL 120453Z AUTO 13003KT 10SM OVC020 M07/M12 A3037 RMK AO2 SLP307 T10671117 410671156,KHTL,2019-01-12T04:53:00Z,44.35,-84.67,-6.7,-11.7,130,3,,10.0,30.369095,1030.7,,TRUE,TRUE,,,,,,,OVC,2000,,,,,,,MVFR,,,,-6.7,-15.6,,,,,,,METAR,351.0
KHSV 120453Z 06006KT 10SM BKN130 06/M01 A3023 RMK AO2 SLP239 T00611011,KHSV,2019-01-12T04:53:00Z,34.65,-86.78,6.1,-1.1,60,6,,10.0,30.230314,1023.9,,,TRUE,,,,,,,BKN,13000,,,,,,,VFR,,,,,,,,,,,,METAR,191.0
KCKB 120453Z 00000KT 10SM CLR M04/M09 A3036 RMK AO2 SLP291 T10391089 410171056,KCKB,2019-01-12T04:53:00Z,39.3,-80.22,-3.9,-8.9,0,0,,10.0,30.360237,1029.1,,,TRUE,,,,,,,CLR,,,,,,,,VFR,,,,-1.7,-5.6,,,,,,,METAR,360.0
KCHO 120453Z AUTO 36003KT 10SM CLR M01/M10 A3043 RMK AO2 SLP308 T10111100 400561028,KCHO,2019-01-12T04:53:00Z,38.13,-78.45,-1.1,-10.0,360,3,,10.0,30.431103,1030.8,,TRUE,TRUE,,,,,,,CLR,,,,,,,,VFR,,,,5.6,-2.8,,,,,,,METAR,192.0
KCHA 120453Z 36003KT 10SM OVC095 07/M04 A3029 RMK AO2 SLP260 LAST T00671039 400891022,KCHA,2019-01-12T04:53:00Z,35.03,-85.2,6.7,-3.9,360,3,,10.0,30.28937,1026.0,,,TRUE,,,,,,,OVC,9500,,,,,,,VFR,,,,8.9,-2.2,,,,,,,METAR,210.0
KCEZ 120453Z AUTO VRB03KT 10SM CLR M01/M07 A3011 RMK AO2 SLP198 T10111067,KCEZ,2019-01-12T04:53:00Z,37.3,-108.63,-1.1,-6.7,0,3,,10.0,30.109253,1019.8,,TRUE,TRUE,,,,,,,CLR,,,,,,,,VFR,,,,,,,,,,,,METAR,1797.0
KCEW 120453Z AUTO 00000KT 10SM FEW028 02/01 A3021 RMK AO2 SLP228 T00220011,KCEW,2019-01-12T04:53:00Z,30.78,-86.52,2.2,1.1,0,0,,10.0,30.209646,1022.8,,TRUE,TRUE,,,,,,,FEW,2800,,,,,,,VFR,,,,,,,,,,,,METAR,55.0
KCDW 120453Z 30003KT 10SM CLR M07/M17 A3045 RMK AO2 SLP318 T10671167 410111072,KCDW,2019-01-12T04:53:00Z,40.88,-74.28,-6.7,-16.7,300,3,,10.0,30.448818,1031.8,,,TRUE,,,,,,,CLR,,,,,,,,VFR,,,,-1.1,-7.2,,,,,,,METAR,64.0
KCDS 120453Z AUTO 33022KT 10SM OVC023 05/01 A2992 RMK AO2 PK WND 32031/0401 SLP130 T00500006,KCDS,2019-01-12T04:53:00Z,34.43,-100.28,5.0,0.6,330,22,,10.0,29.920275,1013.0,,TRUE,TRUE,,,,,,,OVC,2300,,,,,,,MVFR,,,,,,,,,,,,METAR,594.0
KCDR 120453Z AUTO 26004KT 10SM CLR M02/M02 A3020 RMK AO2 SLP259 T10171022 $,KCDR,2019-01-12T04:53:00Z,42.83,-103.1,-1.7,-2.2,260,4,,10.0,30.200787,1025.9,,TRUE,TRUE,TRUE,,,,,,CLR,,,,,,,,VFR,,,,,,,,,,,,METAR,1010.0
KCDC 120453Z AUTO 00000KT 10SM CLR M03/M04 A3017 RMK AO2 SLP231 T10331039,KCDC,2019-01-12T04:53:00Z,37.7,-113.1,-3.3,-3.9,0,0,,10.0,30.171259,1023.1,,TRUE,TRUE,,,,,,,CLR,,,,,,,,VFR,,,,,,,,,,,,METAR,1714.0
KCCR 120453Z 07003KT 8SM -RA SCT018 BKN039 OVC075 12/09 A2991 RMK AO2 SLP113 P0004 T01170089,KCCR,2019-01-12T04:53:00Z,38.0,-122.05,11.7,8.9,70,3,,8.0,29.911417,1011.3,,,TRUE,,,,,,-RA,SCT,1800,BKN,3900,OVC,7500,,,VFR,,,,,,0.04,,,,,,METAR,11.0
KBYI 120453Z AUTO 07014KT 8SM OVC004 M01/M02 A3024 RMK AO2 SLP258 T10061017,KBYI,2019-01-12T04:53:00Z,42.55,-113.77,-0.6,-1.7,70,14,,8.0,30.239174,1025.8,,TRUE,TRUE,,,,,,,OVC,400,,,,,,,LIFR,,,,,,,,,,,,METAR,1264.0
KBYG 120453Z AUTO 25005KT 10SM CLR M01/M06 A3019 RMK AO2 SLP241 T10111061,KBYG,2019-01-12T04:53:00Z,44.38,-106.72,-1.1,-6.1,250,5,,10.0,30.188976,1024.1,,TRUE,TRUE,,,,,,,CLR,,,,,,,,VFR,,,,,,,,,,,,METAR,1497.0
KBVY 120453Z AUTO 31012G20KT 10SM CLR M11/M21 A3032 RMK AO2 SLP266 T11061206 410221106,KBVY,2019-01-12T04:53:00Z,42.58,-70.92,-10.6,-20.6,310,12,20,10.0,30.318897,1026.6,,TRUE,TRUE,,,,,,,CLR,,,,,,,,VFR,,,,-2.2,-10.6,,,,,,,METAR,28.0
KBVO 120453Z AUTO 09004KT 5SM RA BR OVC006 03/02 A2997 RMK AO2 CIG 004V010 SLP148 P0009 T00280022,KBVO,2019-01-12T04:53:00Z,36.77,-96.02,2.8,2.2,90,4,,5.0,29.970472,1014.8,,TRUE,TRUE,,,,,,RA BR,OVC,600,,,,,,,IFR,,,,,,0.09,,,,,,METAR,210.0
KBUR 120453Z 00000KT 5SM BR CLR 11/09 A2997 RMK AO2 SLP144 T01110094,KBUR,2019-01-12T04:53:00Z,34.2,-118.37,11.1,9.4,0,0,,5.0,29.970472,1014.4,,,TRUE,,,,,,BR,CLR,,,,,,,,MVFR,,,,,,,,,,,,METAR,217.0
KBTR 120453Z 09006KT 10SM SCT039 09/07 A3012 RMK AO2 SLP197 T00940067,KBTR,2019-01-12T04:53:00Z,30.53,-91.15,9.4,6.7,90,6,,10.0,30.121063,1019.7,,,TRUE,,,,,,,SCT,3900,,,,,,,VFR,,,,,,,,,,,,METAR,21.0
KBTM 120453Z AUTO 00000KT 10SM CLR M13/M16 A3020 RMK AO2 SLP316 I1000 T11331161,KBTM,2019-01-12T04:53:00Z,45.97,-112.5,-13.3,-16.1,0,0,,10.0,30.200787,1031.6,,TRUE,TRUE,,,,,,,CLR,,,,,,,,VFR,,,,,,,,,,,,METAR,1688.0
KBRO 120453Z 18009KT 10SM BKN023 BKN029 OVC045 22/21 A2998 RMK AO2 LTG DSNT NE SLP149 T02170206,KBRO,2019-01-12T04:53:00Z,25.92,-97.42,21.7,20.6,180,9,,10.0,29.97933,1014.9,,,TRUE,,,,,,,BKN,2300,BKN,2900,OVC,4500,,,MVFR,,,,,,,,,,,,METAR,7.0
KBRD 120453Z AUTO 06005KT 7SM OVC038 M05/M09 A3027 RMK AO2 SLP273 T10501094,KBRD,2019-01-12T04:53:00Z,46.4,-94.13,-5.0,-9.4,60,5,,7.0,30.268702,1027.3,,TRUE,TRUE,,,,,,,OVC,3800,,,,,,,VFR,,,,,,,,,,,,METAR,372.0
KBPT 120453Z AUTO 12010KT 10SM BKN013 OVC017 16/13 A3002 RMK AO2 SLP164 T01560128 $,KBPT,2019-01-12T04:53:00Z,29.95,-94.03,15.6,12.8,120,10,,10.0,30.02067,1016.4,,TRUE,TRUE,TRUE,,,,,,BKN,1300,OVC,1700,,,,,MVFR,,,,,,,,,,,,METAR,5.0
KBPK 120453Z AUTO 14006KT 8SM UP OVC006 00/M01 A3010 RMK AO2 UPB27 SLP198 P0000 T00001006,KBPK,2019-01-12T04:53:00Z,36.37,-92.47,0.0,-0.6,140,6,,8.0,30.100393,1019.8,,TRUE,TRUE,,,,,,UP,OVC,600,,,,,,,IFR,,,,,,0.005,,,,,,METAR,280.0
KBPI 120453Z AUTO 07004KT 10SM CLR M18/M21 A3025 RMK AO2 SLP334 T11781206,KBPI,2019-01-12T04:53:00Z,42.58,-110.1,-17.8,-20.6,70,4,,10.0,30.250984,1033.4,,TRUE,TRUE,,,,,,,CLR,,,,,,,,VFR,,,,,,,,,,,,METAR,2117.0
KBOI 120453Z 16010KT 10SM CLR 00/M03 A3021 RMK AO2 SLP245 T00001028,KBOI,2019-01-12T04:53:00Z,43.57,-116.23,0.0,-2.8,160,10,,10.0,30.209646,1024.5,,,TRUE,,,,,,,CLR,,,,,,,,VFR,,,,,,,,,,,,METAR,875.0
PASN 120453Z AUTO 06025G37KT 9SM -SN OVC019 M07/M10 A2945 RMK AO2 PK WND 06039/0441 SLP973 P0000 T10671100 TSNO,PASN,2019-01-12T04:53:00Z,57.15,-170.22,-6.7,-10.0,60,25,37,9.0,29.450787,997.3,,TRUE,TRUE,,,TRUE,,,-SN,OVC,1900,,,,,,,MVFR,,,,,,0.005,,,,,,METAR,29.0
PASC 120453Z 26007KT 10SM OVC022 M33/M37 A3024 RMK AO2 SLP243 T13331367,PASC,2019-01-12T04:53:00Z,70.2,-148.47,-33.3,-36.7,260,7,,10.0,30.239174,1024.3,,,TRUE,,,,,,,OVC,2200,,,,,,,MVFR,,,,,,,,,,,,METAR,15.0
PAPB 120453Z AUTO 05040G45KT -SN OVC015 M04/M06 A2933 RMK AO2 PK WND 05048/0431 SLP921 P0000 T10441061 TSNO $,PAPB,2019-01-12T04:53:00Z,56.58,-169.67,-4.4,-6.1,50,40,45,,29.329725,992.1,,TRUE,TRUE,TRUE,,TRUE,,,-SN,OVC,1500,,,,,,,,,,,,,0.005,,,,,,METAR,35.0
PAOT 120453Z 19003KT 10SM CLR M34/M37 A3004 RMK AO2 SLP172 T13391372 VISNO E $,PAOT,2019-01-12T04:53:00Z,66.87,-162.58,-33.9,-37.2,190,3,,10.0,30.041338,1017.2,,,TRUE,TRUE,,,,,,CLR,,,,,,,,VFR,,,,,,,,,,,,METAR,3.0
PAOR 120453Z 00000KT 8SM -SN BKN015 OVC017 M36/ A2975 RMK AO2 SLP186 PCPN VRY LGT T1356,PAOR,2019-01-12T04:53:00Z,62.97,-141.93,-35.6,,0,0,,8.0,29.749016,1018.6,,,TRUE,,,,,,-SN,BKN,1500,OVC,1700,,,,,MVFR,,,,,,,,,,,,METAR,523.0
PAOM 120453Z 00000KT 10SM CLR M34/M37 A2995 RMK AO2 SLP144 T13391367,PAOM,2019-01-12T04:53:00Z,64.5,-165.43,-33.9,-36.7,0,0,,10.0,29.949802,1014.4,,,TRUE,,,,,,,CLR,,,,,,,,VFR,,,,,,,,,,,,METAR,11.0
PANC 120453Z 36006KT 10SM SCT006 BKN040 M20/M23 A2978 RMK AO2 SLP090 T12001228,PANC,2019-01-12T04:53:00Z,61.17,-150.0,-20.0,-22.8,360,6,,10.0,29.778543,1009.0,,,TRUE,,,,,,,SCT,600,BKN,4000,,,,,VFR,,,,,,,,,,,,METAR,38.0
PAMR 120453Z 36006KT 7SM OVC005 M19/M21 A2979 RMK AO2 SLP090 T11891211,PAMR,2019-01-12T04:53:00Z,61.22,-149.85,-18.9,-21.1,360,6,,7.0,29.790354,1009.0,,,TRUE,,,,,,,OVC,500,,,,,,,IFR,,,,,,,,,,,,METAR,41.0
PAMC 120453Z AUTO 00000KT 6SM HZ CLR M42/ A2989 RMK AO2 SLP145 T1422 TSNO $,PAMC,2019-01-12T04:53:00Z,62.97,-155.62,-42.2,,0,0,,6.0,29.890747,1014.5,,TRUE,TRUE,TRUE,,TRUE,,,HZ,CLR,,,,,,,,VFR,,,,,,,,,,,,METAR,103.0
PALH 120453Z 01007KT 9SM BKN007 M20/M22 A2980 RMK AO2 SLP093 T12001222,PALH,2019-01-12T04:53:00Z,61.18,-149.97,-20.0,-22.2,10,7,,9.0,29.799213,1009.3,,,TRUE,,,,,,,BKN,700,,,,,,,IFR,,,,,,,,,,,,METAR,22.0
PAKT 120453Z 13004KT 5SM BR FEW004 OVC010 04/04 A2978 RMK AO2 SLP085 HARBOR WIND 12004KT T00390039,PAKT,2019-01-12T04:53:00Z,55.35,-131.7,3.9,3.9,130,4,,5.0,29.778543,1008.5,,,TRUE,,,,,,BR,FEW,400,OVC,1000,,,,,MVFR,,,,,,,,,,,,METAR,28.0
PAIL 120453Z 03012KT 10SM SCT012 OVC027 M21/M24 A2964 RMK AO2 SLP043 T12061244,PAIL,2019-01-12T04:53:00Z,59.75,-154.92,-20.6,-24.4,30,12,,10.0,29.639763,1004.3,,,TRUE,,,,,,,SCT,1200,OVC,2700,,,,,MVFR,,,,,,,,,,,,METAR,49.0
PAHO 120453Z 04006KT 10SM OVC050 M08/M13 A2967 RMK AO2 SLP048 T10831128,PAHO,2019-01-12T04:53:00Z,59.63,-151.47,-8.3,-12.8,40,6,,10.0,29.66929,1004.8,,,TRUE,,,,,,,OVC,5000,,,,,,,VFR,,,,,,,,,,,,METAR,28.0
PAGY 120453Z AUTO 00000KT 8SM OVC033 M05/M07 A2973 RMK AO2 SLP067 T10501067 TSNO,PAGY,2019-01-12T04:53:00Z,59.47,-135.3,-5.0,-6.7,0,0,,8.0,29.731298,1006.7,,TRUE,TRUE,,,TRUE,,,,OVC,3300,,,,,,,VFR,,,,,,,,,,,,METAR,5.0
PAGK 120453Z AUTO 00000KT 10SM CLR M33/M36 A2974 RMK AO2 SLP172 T13331361 TSNO,PAGK,2019-01-12T04:53:00Z,62.15,-145.45,-33.3,-36.1,0,0,,10.0,29.740158,1017.2,,TRUE,TRUE,,,TRUE,,,,CLR,,,,,,,,VFR,,,,,,,,,,,,METAR,481.0
PAFA 120453Z 00000KT 3SM BR FEW005 FEW012 M39/ A2998 RMK AO2 SLP177 T1389 PNO,PAFA,2019-01-12T04:53:00Z,64.8,-147.85,-38.9,,0,0,,3.0,29.97933,1017.7,,,TRUE,,,,,,BR,FEW,500,FEW,1200,,,,,MVFR,,,,,,,,,,,,METAR,132.0
PAEN 120453Z 04006KT 10SM CLR M22/M24 A2978 RMK AO2 SLP089 T12171244,PAEN,2019-01-12T04:53:00Z,60.57,-151.25,-21.7,-24.4,40,6,,10.0,29.778543,1008.9,,,TRUE,,,,,,,CLR,,,,,,,,VFR,,,,,,,,,,,,METAR,27.0
PAEG 120453Z AUTO 00000KT 7SM OVC034 M26/M31 A2984 RMK AO2 SLP137 T12561306 TSNO,PAEG,2019-01-12T04:53:00Z,64.78,-141.15,-25.6,-30.6,0,0,,7.0,29.840551,1013.7,,TRUE,TRUE,,,TRUE,,,,OVC,3400,,,,,,,VFR,,,,,,,,,,,,METAR,268.0
PADQ 120453Z 30008KT 10SM FEW035 OVC047 M02/M04 A2954 RMK AO2 SLP002 T10171039,PADQ,2019-01-12T04:53:00Z,57.75,-152.5,-1.7,-3.9,300,8,,10.0,29.53937,1000.2,,,TRUE,,,,,,,FEW,3500,OVC,4700,,,,,VFR,,,,,,,,,,,,METAR,34.0
PADE 120453Z AUTO 22004KT 10SM CLR A3003 RMK AO2 SLP171 TSNO $,PADE,2019-01-12T04:53:00Z,66.07,-162.77,,,220,4,,10.0,30.029528,1017.1,,TRUE,TRUE,TRUE,,TRUE,,,,CLR,,,,,,,,VFR,,,,,,,,,,,,METAR,5.0
PACV 120453Z 00000KT 10SM CLR M09/M11 A2969 RMK AO2 SLP055 T10891111,PACV,2019-01-12T04:53:00Z,60.5,-145.47,-8.9,-11.1,0,0,,10.0,29.68996,1005.5,,,TRUE,,,,,,,CLR,,,,,,,,VFR,,,,,,,,,,,,METAR,12.0
PACD 120453Z AUTO 02012KT 10SM BKN050 OVC070 M01/M03 A2919 RMK AO2 SNE18 SLP885 P0000 T10061028 TSNO,PACD,2019-01-12T04:53:00Z,55.2,-162.72,-0.6,-2.8,20,12,,10.0,29.190945,988.5,,TRUE,TRUE,,,TRUE,,,,BKN,5000,OVC,7000,,,,,VFR,,,,,,0.005,,,,,,METAR,30.0
PABT 120453Z 00000KT 10SM SCT036 BKN080 M33/M37 A2993 RMK AO2 SLP167 T13331367 PNO,PABT,2019-01-12T04:53:00Z,66.92,-151.52,-33.3,-36.7,0,0,,10.0,29.929134,1016.7,,,TRUE,,,,,,,SCT,3600,BKN,8000,,,,,VFR,,,,,,,,,,,,METAR,195.0
PABI 120453Z 15003KT 10SM CLR M39/ A2985 RMK AO2 SLP201 T1389,PABI,2019-01-12T04:53:00Z,64.0,-145.72,-38.9,,150,3,,10.0,29.84941,1020.1,,,TRUE,,,,,,,CLR,,,,,,,,VFR,,,,,,,,,,,,METAR,386.0
PABE 120453Z 02018KT 3SM HZ CLR M32/M34 A2970 RMK AO2 SLP062 T13171344 $,PABE,2019-01-12T04:53:00Z,60.78,-161.83,-31.7,-34.4,20,18,,3.0,29.698818,1006.2,,,TRUE,TRUE,,,,,HZ,CLR,,,,,,,,MVFR,,,,,,,,,,,,METAR,41.0
PAAQ 120453Z AUTO 00000KT 10SM CLR M24/M26 A2976 RMK AO2 SLP085 T12441261 TSNO,PAAQ,2019-01-12T04:53:00Z,61.6,-149.08,-24.4,-26.1,0,0,,10.0,29.760826,1008.5,,TRUE,TRUE,,,TRUE,,,,CLR,,,,,,,,VFR,,,,,,,,,,,,METAR,73.0
KDEW 120453Z AUTO 05003KT 10SM CLR M01/M02 A3015 RMK AO2 SLP231 T10111022,KDEW,2019-01-12T04:53:00Z,47.97,-117.43,-1.1,-2.2,50,3,,10.0,30.15059,1023.1,,TRUE,TRUE,,,,,,,CLR,,,,,,,,VFR,,,,,,,,,,,,METAR,674.0
KDET 120453Z 00000KT 10SM OVC070 M03/M09 A3042 RMK AO2 SLP309 T10331089 410111078,KDET,2019-01-12T04:53:00Z,42.4,-83.02,-3.3,-8.9,0,0,,10.0,30.41929,1030.9,,,TRUE,,,,,,,OVC,7000,,,,,,,VFR,,,,-1.1,-7.8,,,,,,,METAR,190.0
KDEQ 120453Z AUTO 09008KT 7SM RA BKN042 OVC049 05/04 A3003 RMK AO2 SLP167 P0001 T00500039,KDEQ,2019-01-12T04:53:00Z,34.05,-94.4,5.0,3.9,90,8,,7.0,30.029528,1016.7,,TRUE,TRUE,,,,,,RA,BKN,4200,OVC,4900,,,,,VFR,,,,,,0.01,,,,,,METAR,106.0
KDEN 120453Z 34012KT 1/2SM R35L/P6000FT -SN BR OVC002 00/00 A3016 RMK AO2 SFC VIS 1 1/4 SLP226 P0003 T00000000 $,KDEN,2019-01-12T04:53:00Z,39.85,-104.65,0.0,0.0,340,12,,0.5,30.159449,1022.6,,,TRUE,TRUE,,,,,-SN BR,OVC,200,,,,,,,LIFR,,,,,,0.03,,,,,,METAR,1640.0
KDCU 120453Z AUTO 07005KT 10SM CLR 06/M02 A3024 RMK AO2 SLP241 T00561022,KDCU,2019-01-12T04:53:00Z,34.65,-86.95,5.6,-2.2,70,5,,10.0,30.239174,1024.1,,TRUE,TRUE,,,,,,,CLR,,,,,,,,VFR,,,,,,,,,,,,METAR,176.0
KDBQ 120453Z AUTO 14007KT 10SM OVC075 M02/M06 A3024 RMK AO2 SLP257 T10221056 $,KDBQ,2019-01-12T04:53:00Z,42.4,-90.7,-2.2,-5.6,140,7,,10.0,30.239174,1025.7,,TRUE,TRUE,TRUE,,,,,,OVC,7500,,,,,,,VFR,,,,,,,,,,,,METAR,326.0
KDAN 120453Z AUTO 00000KT 10SM CLR M02/M06 A3040 RMK AO2 SLP294 T10221056 400561044,KDAN,2019-01-12T04:53:00Z,36.57,-79.33,-2.2,-5.6,0,0,,10.0,30.398623,1029.4,,TRUE,TRUE,,,,,,,CLR,,,,,,,,VFR,,,,5.6,-4.4,,,,,,,METAR,175.0
KDAL 120453Z 16009KT 8SM OVC005 12/11 A2992 RMK AO2 RAE51 SLP129 P0003 T01170106,KDAL,2019-01-12T04:53:00Z,32.85,-96.85,11.7,10.6,160,9,,8.0,29.920275,1012.9,,,TRUE,,,,,,,OVC,500,,,,,,,IFR,,,,,,0.03,,,,,,METAR,158.0
KDAB 120453Z 08005KT 10SM FEW055 16/11 A3021 RMK AO2 SLP230 T01610106 402060061,KDAB,2019-01-12T04:53:00Z,29.18,-81.07,16.1,10.6,80,5,,10.0,30.209646,1023.0,,,TRUE,,,,,,,FEW,5500,,,,,,,VFR,,,,20.6,6.1,,,,,,,METAR,9.0
KCYS 120453Z 36013G17KT 1 1/2SM OVC010 M01/M02 A3016 RMK AO2 SFC VIS 9 UPE01 SLP235 P0000 T10061017,KCYS,2019-01-12T04:53:00Z,41.15,-104.8,-0.6,-1.7,360,13,17,1.5,30.159449,1023.5,,,TRUE,,,,,,,OVC,1000,,,,,,,IFR,,,,,,0.005,,,,,,METAR,1868.0
KCXO 120453Z AUTO 14007KT 10SM FEW013 FEW026 OVC046 14/13 A2997 RMK AO2 SLP146 T01440133,KCXO,2019-01-12T04:53:00Z,30.35,-95.42,14.4,13.3,140,7,,10.0,29.970472,1014.6,,TRUE,TRUE,,,,,,,FEW,1300,FEW,2600,OVC,4600,,,VFR,,,,,,,,,,,,METAR,75.0
KCUT 120453Z AUTO 31003KT 10SM CLR M03/M07 A3014 RMK AO2 SLP233 T10331072,KCUT,2019-01-12T04:53:00Z,43.73,-103.62,-3.3,-7.2,310,3,,10.0,30.138779,1023.3,,TRUE,TRUE,,,,,,,CLR,,,,,,,,VFR,,,,,,,,,,,,METAR,1725.0
KCUB 120453Z AUTO 00000KT 10SM CLR 02/M04 A3040 RMK AO2 SLP293 T00171039 400941022,KCUB,2019-01-12T04:53:00Z,33.97,-81.0,1.7,-3.9,0,0,,10.0,30.398623,1029.3,,TRUE,TRUE,,,,,,,CLR,,,,,,,,VFR,,,,9.4,-2.2,,,,,,,METAR,56.0
KCSV 120453Z AUTO 11003KT 10SM OVC049 03/M07 A3025 RMK AO2 SLP251 T00281072,KCSV,2019-01-12T04:53:00Z,35.95,-85.08,2.8,-7.2,110,3,,10.0,30.250984,1025.1,,TRUE,TRUE,,,,,,,OVC,4900,,,,,,,VFR,,,,,,,,,,,,METAR,570.0
KCSM 120453Z 33018KT 5SM BR OVC006 04/04 A2983 RMK AO2 RAE41 SLP105 P0001 T00440039,KCSM,2019-01-12T04:53:00Z,35.35,-99.2,4.4,3.9,330,18,,5.0,29.828741,1010.5,,,TRUE,,,,,,BR,OVC,600,,,,,,,IFR,,,,,,0.01,,,,,,METAR,588.0
KCRS 120453Z AUTO 14005KT 6SM -RA BR FEW003 OVC095 11/10 A2996 RMK AO2 SLP145 P0002 T01060100 $,KCRS,2019-01-12T04:53:00Z,32.03,-96.4,10.6,10.0,140,5,,6.0,29.958662,1014.5,,TRUE,TRUE,TRUE,,,,,-RA BR,FEW,300,OVC,9500,,,,,VFR,,,,,,0.02,,,,,,METAR,133.0
KCRQ 120453Z 00000KT 4SM BR OVC008 13/11 A2999 RMK AO2 SLP155 T01330111,KCRQ,2019-01-12T04:53:00Z,33.13,-117.28,13.3,11.1,0,0,,4.0,29.991142,1015.5,,,TRUE,,,,,,BR,OVC,800,,,,,,,IFR,,,,,,,,,,,,METAR,99.0
KCRG 120453Z AUTO 06007KT 10SM CLR 13/09 A3025 RMK AO2 SLP243 T01280089 401610022,KCRG,2019-01-12T04:53:00Z,30.33,-81.52,12.8,8.9,60,7,,10.0,30.250984,1024.3,,TRUE,TRUE,,,,,,,CLR,,,,,,,,VFR,,,,16.1,2.2,,,,,,,SPECI,13.0
KCRE 120453Z AUTO 04005KT 10SM CLR 01/M03 A3038 RMK AO1 SLP288 T00061033 400831022,KCRE,2019-01-12T04:53:00Z,33.82,-78.72,0.6,-3.3,40,5,,10.0,30.380905,1028.8,,TRUE,TRUE,,,,,,,CLR,,,,,,,,VFR,,,,8.3,-2.2,,,,,,,METAR,10.0
KCOT 120453Z AUTO 21003KT 1/4SM FG VV001 14/14 A2997 RMK AO2 SLP144 T01440144 $,KCOT,2019-01-12T04:53:00Z,28.45,-99.22,14.4,14.4,210,3,,0.25,29.970472,1014.4,,TRUE,TRUE,TRUE,,,,,FG,OVX,0,,,,,,,LIFR,,,,,,,,,,,100,METAR,140.0
KCNO 120453Z 00000KT 10SM CLR 12/10 A3001 RMK AO2 SLP161 LAST T01170100,KCNO,2019-01-12T04:53:00Z,33.98,-117.62,11.7,10.0,0,0,,10.0,30.008858,1016.1,,,TRUE,,,,,,,CLR,,,,,,,,VFR,,,,,,,,,,,,METAR,207.0
KCNM 120453Z AUTO 33006KT 10SM CLR 06/04 A3002 RMK AO2 SLP146 T00560039,KCNM,2019-01-12T04:53:00Z,32.33,-104.25,5.6,3.9,330,6,,10.0,30.02067,1014.6,,TRUE,TRUE,,,,,,,CLR,,,,,,,,VFR,,,,,,,,,,,,METAR,985.0
KCMX 120453Z AUTO 04004KT 10SM OVC015 M05/M08 A3035 RMK AO2 SLP297 T10501078 410501094,KCMX,2019-01-12T04:53:00Z,47.17,-88.48,-5.0,-7.8,40,4,,10.0,30.351377,1029.7,,TRUE,TRUE,,,,,,,OVC,1500,,,,,,,MVFR,,,,-5.0,-9.4,,,,,,,METAR,326.0
TJNR 120453Z AUTO 00000KT 10SM CLR 21/20 A3005 RMK AO2 SLP177 T02060200,TJNR,2019-01-12T04:53:00Z,18.25,-65.63,20.6,20.0,0,0,,10.0,30.050198,1017.7,,TRUE,TRUE,,,,,,,CLR,,,,,,,,VFR,,,,,,,,,,,,SPECI,12.0
KNUI 120453Z AUTO 04003KT 10SM CLR M01/M07 A3044 RMK AO2 SLP307 T10111067 400561017,KNUI,2019-01-12T04:53:00Z,38.15,-76.43,-1.1,-6.7,40,3,,10.0,30.43996,1030.7,,TRUE,TRUE,,,,,,,CLR,,,,,,,,VFR,,,,5.6,-1.7,,,,,,,METAR,7.0
KSDB 120453Z AUTO 13013G20KT 10SM CLR 07/02 A2999 RMK AO2 SLP135 T00670017,KSDB,2019-01-12T04:53:00Z,34.75,-118.72,6.7,1.7,130,13,20,10.0,29.991142,1013.5,,TRUE,TRUE,,,,,,,CLR,,,,,,,,VFR,,,,,,,,,,,,METAR,1377.0
KOQT 120453Z AUTO 00000KT 10SM OVC095 05/M03 A3031 RMK AO2 SLP274 T00501028 400831039,KOQT,2019-01-12T04:53:00Z,36.02,-84.23,5.0,-2.8,0,0,,10.0,30.31004,1027.4,,TRUE,TRUE,,,,,,,OVC,9500,,,,,,,VFR,,,,8.3,-3.9,,,,,,,METAR,277.0
KNIP 120453Z 04008KT 10SM FEW040 FEW250 13/09 A3025 RMK AO2 SLP239 T01280089 401670056 $,KNIP,2019-01-12T04:53:00Z,30.22,-81.67,12.8,8.9,40,8,,10.0,30.250984,1023.9,,,TRUE,TRUE,,,,,,FEW,4000,FEW,25000,,,,,VFR,,,,16.7,5.6,,,,,,,SPECI,7.0
KP92 120453Z AUTO 11005KT A3009 RMK AO1 SLP191 $,KP92,2019-01-12T04:53:00Z,29.57,-91.53,,,110,5,,,30.088583,1019.1,,TRUE,TRUE,TRUE,,,,,,,,,,,,,,,,,,,,,,,,,,METAR,1.0
KLKV 120453Z AUTO 32004KT 10SM CLR M03/M04 A3001 RMK AO2 SLP200 T10281044 FZRANO,KLKV,2019-01-12T04:53:00Z,42.17,-120.4,-2.8,-4.4,320,4,,10.0,30.008858,1020.0,,TRUE,TRUE,,,,TRUE,,,CLR,,,,,,,,VFR,,,,,,,,,,,,METAR,1441.0
KLBF 120453Z AUTO 04010KT 10SM OVC110 03/M02 A3010 RMK AO2 SLP210 T00281022,KLBF,2019-01-12T04:53:00Z,41.12,-100.67,2.8,-2.2,40,10,,10.0,30.100393,1021.0,,TRUE,TRUE,,,,,,,OVC,11000,,,,,,,VFR,,,,,,,,,,,,METAR,847.0
KELY 120453Z AUTO 19003KT 10SM CLR M07/M08 A3019 RMK AO2 SLP260 T10671083,KELY,2019-01-12T04:53:00Z,39.3,-114.85,-6.7,-8.3,190,3,,10.0,30.188976,1026.0,,TRUE,TRUE,,,,,,,CLR,,,,,,,,VFR,,,,,,,,,,,,METAR,1906.0
KCNY 120453Z AUTO 29005KT 10SM CLR M06/M06 A3018 RMK AO2 SLP257 I1000 T10561061,KCNY,2019-01-12T04:53:00Z,38.77,-109.75,-5.6,-6.1,290,5,,10.0,30.180119,1025.7,,TRUE,TRUE,,,,,,,CLR,,,,,,,,VFR,,,,,,,,,,,,METAR,1390.0
KCGI 120453Z AUTO 10009KT 9SM FEW009 OVC041 01/M01 A3019 RMK AO2 SLP226 T00061011,KCGI,2019-01-12T04:53:00Z,37.23,-89.58,0.6,-1.1,100,9,,9.0,30.188976,1022.6,,TRUE,TRUE,,,,,,,FEW,900,OVC,4100,,,,,VFR,,,,,,,,,,,,METAR,102.0
KBIL 120453Z 23010KT 10SM CLR 01/M03 A3018 RMK AO2 SLP248 T00061028,KBIL,2019-01-12T04:53:00Z,45.8,-108.55,0.6,-2.8,230,10,,10.0,30.180119,1024.8,,,TRUE,,,,,,,CLR,,,,,,,,VFR,,,,,,,,,,,,METAR,1091.0
KSWO 120453Z AUTO 04004KT 10SM OVC005 05/04 A2989 RMK AO2 RAE26 SLP122 P0001 T00500039,KSWO,2019-01-12T04:53:00Z,36.17,-97.08,5.0,3.9,40,4,,10.0,29.890747,1012.2,,TRUE,TRUE,,,,,,,OVC,500,,,,,,,IFR,,,,,,0.01,,,,,,SPECI,290.0
KSPW 120453Z AUTO 06005KT 10SM CLR M03/M04 A3017 RMK AO2 SLP233 T10281044,KSPW,2019-01-12T04:53:00Z,43.17,-95.22,-2.8,-4.4,60,5,,10.0,30.171259,1023.3,,TRUE,TRUE,,,,,,,CLR,,,,,,,,VFR,,,,,,,,,,,,METAR,403.0
KPUC 120453Z AUTO 36008KT 10SM SCT055 M03/M07 A3020 RMK AO2 SLP260 T10331072,KPUC,2019-01-12T04:53:00Z,39.62,-110.75,-3.3,-7.2,360,8,,10.0,30.200787,1026.0,,TRUE,TRUE,,,,,,,SCT,5500,,,,,,,VFR,,,,,,,,,,,,METAR,2091.0
KMIC 120453Z AUTO 07003KT 10SM CLR M04/M08 A3025 RMK AO2 SLP256 T10441083,KMIC,2019-01-12T04:53:00Z,45.07,-93.35,-4.4,-8.3,70,3,,10.0,30.250984,1025.6,,TRUE,TRUE,,,,,,,CLR,,,,,,,,VFR,,,,,,,,,,,,METAR,265.0
KMCW 120453Z AUTO 11007KT 10SM OVC038 M02/M04 A3020 RMK AO2 SLP238 T10171044,KMCW,2019-01-12T04:53:00Z,43.15,-93.33,-1.7,-4.4,110,7,,10.0,30.200787,1023.8,,TRUE,TRUE,,,,,,,OVC,3800,,,,,,,VFR,,,,,,,,,,,,METAR,369.0
KRDD 120453Z 05003KT 10SM BKN065 OVC090 10/08 A2991,KRDD,2019-01-12T04:53:00Z,40.52,-122.3,10.0,8.0,50,3,,10.0,29.911417,,,,,,,,,,,BKN,6500,OVC,9000,,,,,VFR,,,,,,,,,,,,METAR,155.0
KMIA 120453Z 07007KT 10SM -RA SCT030 BKN040 BKN055 21/17 A3014 RMK AO2 SLP206 P0000 T02060167 402440117,KMIA,2019-01-12T04:53:00Z,25.8,-80.28,20.6,16.7,70,7,,10.0,30.138779,1020.6,,,TRUE,,,,,,-RA,SCT,3000,BKN,4000,BKN,5500,,,VFR,,,,24.4,11.7,0.005,,,,,,METAR,3.0
KRSL 120453Z AUTO 02014G22KT 3SM -SN BR OVC003 00/00 A2999 RMK AO2 SLP171 P0001 T00000000 $,KRSL,2019-01-12T04:53:00Z,38.87,-98.82,0.0,0.0,20,14,22,3.0,29.991142,1017.1,,TRUE,TRUE,TRUE,,,,,-SN BR,OVC,300,,,,,,,LIFR,,,,,,0.01,,,,,,METAR,567.0
KLFK 120453Z AUTO 14013KT 10SM FEW060 BKN100 OVC110 12/10 A2997 RMK AO2 SLP147 T01220100,KLFK,2019-01-12T04:53:00Z,31.23,-94.75,12.2,10.0,140,13,,10.0,29.970472,1014.7,,TRUE,TRUE,,,,,,,FEW,6000,BKN,10000,OVC,11000,,,VFR,,,,,,,,,,,,METAR,88.0
KLEE 120453Z AUTO 03004KT 10SM CLR 11/09 A3021 RMK AO2 SLP229 T01110094 402170056,KLEE,2019-01-12T04:53:00Z,28.82,-81.82,11.1,9.4,30,4,,10.0,30.209646,1022.9,,TRUE,TRUE,,,,,,,CLR,,,,,,,,VFR,,,,21.7,5.6,,,,,,,METAR,23.0
KLEB 120453Z AUTO 00000KT 10SM CLR M23/M26 A3032 RMK AO2 SLP293 T12331261 410721239,KLEB,2019-01-12T04:53:00Z,43.63,-72.3,-23.3,-26.1,0,0,,10.0,30.318897,1029.3,,TRUE,TRUE,,,,,,,CLR,,,,,,,,VFR,,,,-7.2,-23.9,,,,,,,METAR,171.0
KLCH 120453Z AUTO 13009KT 10SM BKN035 OVC110 13/11 A3005 RMK AO2 SLP184 T01330111,KLCH,2019-01-12T04:53:00Z,30.13,-93.22,13.3,11.1,130,9,,10.0,30.050198,1018.4,,TRUE,TRUE,,,,,,,BKN,3500,OVC,11000,,,,,VFR,,,,,,,,,,,,METAR,4.0
KLAX 120453Z 11009KT 8SM SCT027 BKN120 13/11 A2998 RMK AO2 SLP152 T01280106,KLAX,2019-01-12T04:53:00Z,33.93,-118.38,12.8,10.6,110,9,,8.0,29.97933,1015.2,,,TRUE,,,,,,,SCT,2700,BKN,12000,,,,,VFR,,,,,,,,,,,,METAR,46.0
KMLP 120453Z AUTO 16007KT 10SM CLR M02/M09 A3010 RMK AO2 SLP225 T10171089 $,KMLP,2019-01-12T04:53:00Z,47.45,-115.67,-1.7,-8.9,160,7,,10.0,30.100393,1022.5,,TRUE,TRUE,TRUE,,,,,,CLR,,,,,,,,VFR,,,,,,,,,,,,METAR,1837.0
KMLC 120453Z AUTO 14008KT 110V170 7SM RA FEW008 BKN012 OVC027 05/04 RMK AO2 SLPNO P0007 T00500039 TSNO $,KMLC,2019-01-12T04:53:00Z,34.88,-95.78,5.0,3.9,140,8,,7.0,,,,TRUE,TRUE,TRUE,,TRUE,,,RA,FEW,800,BKN,1200,OVC,2700,,,MVFR,,,,,,0.07,,,,,,METAR,232.0
KMLB 120453Z AUTO 10010KT 10SM CLR 20/11 A3019 RMK AO2 SLP221 T02000111 402330078,KMLB,2019-01-12T04:53:00Z,28.1,-80.65,20.0,11.1,100,10,,10.0,30.188976,1022.1,,TRUE,TRUE,,,,,,,CLR,,,,,,,,VFR,,,,23.3,7.8,,,,,,,METAR,11.0
KMKO 120453Z AUTO 14013G20KT 4SM -RA BR OVC007 03/03 A2996 RMK AO2 CIG 005V010 SLP148 P0008 T00330028,KMKO,2019-01-12T04:53:00Z,35.65,-95.37,3.3,2.8,140,13,20,4.0,29.958662,1014.8,,TRUE,TRUE,,,,,,-RA BR,OVC,700,,,,,,,IFR,,,,,,0.08,,,,,,METAR,185.0
KMKL 120453Z AUTO 12006KT 10SM OVC075 02/00 A3017 RMK AO2 SLP219 T00220000,KMKL,2019-01-12T04:53:00Z,35.6,-88.92,2.2,0.0,120,6,,10.0,30.171259,1021.9,,TRUE,TRUE,,,,,,,OVC,7500,,,,,,,VFR,,,,,,,,,,,,METAR,128.0
KMIE 120453Z AUTO 14005KT 10SM CLR M01/M06 A3031 RMK AO2 SLP273 T10111061 410061028,KMIE,2019-01-12T04:53:00Z,40.23,-85.4,-1.1,-6.1,140,5,,10.0,30.31004,1027.3,,TRUE,TRUE,,,,,,,CLR,,,,,,,,VFR,,,,-0.6,-2.8,,,,,,,METAR,285.0
KLGB 120453Z 07004KT 7SM FEW013 12/11 A2999 RMK AO2 SLP156 T01220106,KLGB,2019-01-12T04:53:00Z,33.82,-118.15,12.2,10.6,70,4,,7.0,29.991142,1015.6,,,TRUE,,,,,,,FEW,1300,,,,,,,VFR,,,,,,,,,,,,METAR,10.0
KLFT 120453Z AUTO 11007KT 080V140 10SM BKN120 12/08 A3007 RMK AO2 SLP181 T01170078,KLFT,2019-01-12T04:53:00Z,30.2,-92.0,11.7,7.8,110,7,,10.0,30.070866,1018.1,,TRUE,TRUE,,,,,,,BKN,12000,,,,,,,VFR,,,,,,,,,,,,METAR,11.0
KLHQ 120453Z AUTO 09003KT 10SM CLR M03/M07 A3036 RMK AO2 SLP290 T10331067 410061044,KLHQ,2019-01-12T04:53:00Z,39.75,-82.67,-3.3,-6.7,90,3,,10.0,30.360237,1029.0,,TRUE,TRUE,,,,,,,CLR,,,,,,,,VFR,,,,-0.6,-4.4,,,,,,,METAR,260.0
KLHX 120453Z AUTO 35015KT 10SM UP OVC016 03/01 A3009 RMK AO2 UPB33 SLP189 P0000 T00280011,KLHX,2019-01-12T04:53:00Z,38.05,-103.52,2.8,1.1,350,15,,10.0,30.088583,1018.9,,TRUE,TRUE,,,,,,UP,OVC,1600,,,,,,,MVFR,,,,,,0.005,,,,,,METAR,1277.0
KLLQ 120453Z AUTO 10006KT 10SM OVC100 07/00 A3007 RMK AO2 SLP182 T00720000,KLLQ,2019-01-12T04:53:00Z,33.63,-91.75,7.2,0.0,100,6,,10.0,30.070866,1018.2,,TRUE,TRUE,,,,,,,OVC,10000,,,,,,,VFR,,,,,,,,,,,,METAR,83.0
KLIT 120453Z 10007KT 10SM FEW055 OVC070 03/01 A3009 RMK AO2 SLP195 T00330006,KLIT,2019-01-12T04:53:00Z,34.73,-92.23,3.3,0.6,100,7,,10.0,30.088583,1019.5,,,TRUE,,,,,,,FEW,5500,OVC,7000,,,,,VFR,,,,,,,,,,,,SPECI,79.0
KLMT 120453Z AUTO 10007KT 10SM CLR 03/M02 A2996 RMK AO2 SLP153 T00331017,KLMT,2019-01-12T04:53:00Z,42.15,-121.72,3.3,-1.7,100,7,,10.0,29.958662,1015.3,,TRUE,TRUE,,,,,,,CLR,,,,,,,,VFR,,,,,,,,,,,,METAR,1246.0
KLNS 120453Z AUTO 04003KT 10SM CLR M04/M13 A3043 RMK AO2 SLP310 T10441133 400221056,KLNS,2019-01-12T04:53:00Z,40.12,-76.3,-4.4,-13.3,40,3,,10.0,30.431103,1031.0,,TRUE,TRUE,,,,,,,CLR,,,,,,,,VFR,,,,2.2,-5.6,,,,,,,METAR,125.0
KLND 120453Z AUTO 31005KT 10SM CLR M07/M09 A3021 RMK AO2 SLP278 T10671094,KLND,2019-01-12T04:53:00Z,42.82,-108.73,-6.7,-9.4,310,5,,10.0,30.209646,1027.8,,TRUE,TRUE,,,,,,,CLR,,,,,,,,VFR,,,,,,,,,,,,METAR,1694.0
KLOL 120453Z AUTO 01005KT 10SM CLR 02/M03 A3006 RMK AO2 SLP197 T00171028,KLOL,2019-01-12T04:53:00Z,40.07,-118.57,1.7,-2.8,10,5,,10.0,30.059055,1019.7,,TRUE,TRUE,,,,,,,CLR,,,,,,,,VFR,,,,,,,,,,,,METAR,1189.0
KLUK 120453Z AUTO 05003KT 10SM OVC085 00/M06 A3037 RMK AO2 SLP287 T00001061 400171028,KLUK,2019-01-12T04:53:00Z,39.1,-84.42,0.0,-6.1,50,3,,10.0,30.369095,1028.7,,TRUE,TRUE,,,,,,,OVC,8500,,,,,,,VFR,,,,1.7,-2.8,,,,,,,METAR,155.0
KLSE 120453Z AUTO 13004KT 10SM OVC049 M01/M06 A3028 RMK AO2 SLP266 T10061061,KLSE,2019-01-12T04:53:00Z,43.88,-91.25,-0.6,-6.1,130,4,,10.0,30.280512,1026.6,,TRUE,TRUE,,,,,,,OVC,4900,,,,,,,VFR,,,,,,,,,,,,METAR,199.0
KLPR 120453Z AUTO 04006KT 10SM OVC090 M04/M09 A3041 RMK AO2 SLP308 T10441094 410281061,KLPR,2019-01-12T04:53:00Z,41.35,-82.18,-4.4,-9.4,40,6,,10.0,30.410433,1030.8,,TRUE,TRUE,,,,,,,OVC,9000,,,,,,,VFR,,,,-2.8,-6.1,,,,,,,METAR,241.0
KLVJ 120453Z AUTO 14005KT 10SM OVC050 17/15 A2998 RMK AO2 RAE07 SLP151 P0000 T01670150,KLVJ,2019-01-12T04:53:00Z,29.52,-95.25,16.7,15.0,140,5,,10.0,29.97933,1015.1,,TRUE,TRUE,,,,,,,OVC,5000,,,,,,,VFR,,,,,,0.005,,,,,,METAR,12.0
KLVK 120453Z 00000KT 4SM BR FEW042 BKN090 BKN110 11/10 A2988 RMK AO2 RAE18 SLP119 P0001 T01060100,KLVK,2019-01-12T04:53:00Z,37.7,-121.82,10.6,10.0,0,0,,4.0,29.878937,1011.9,,,TRUE,,,,,,BR,FEW,4200,BKN,9000,BKN,11000,,,MVFR,,,,,,0.01,,,,,,METAR,117.0
KLVM 120453Z AUTO 32014KT 10SM CLR M04/M07 A3018 RMK AO2 SLP265 T10391067,KLVM,2019-01-12T04:53:00Z,45.7,-110.43,-3.9,-6.7,320,14,,10.0,30.180119,1026.5,,TRUE,TRUE,,,,,,,CLR,,,,,,,,VFR,,,,,,,,,,,,METAR,1418.0
KLVS 120453Z AUTO 01007KT 10SM BKN055 OVC090 M02/M03 A3005 RMK AO2 SLP169 T10221033,KLVS,2019-01-12T04:53:00Z,35.65,-105.13,-2.2,-3.3,10,7,,10.0,30.050198,1016.9,,TRUE,TRUE,,,,,,,BKN,5500,OVC,9000,,,,,VFR,,,,,,,,,,,,METAR,2091.0
KENW 120453Z AUTO 00000KT 8SM OVC075 M01/M05 A3032 RMK AO2 SLP276 T10111050,KENW,2019-01-12T04:53:00Z,42.6,-87.93,-1.1,-5.0,0,0,,8.0,30.318897,1027.6,,TRUE,TRUE,,,,,,,OVC,7500,,,,,,,VFR,,,,,,,,,,,,METAR,219.0
KEPH 120453Z AUTO 34007KT 10SM CLR 02/00 A3014 RMK AO2 SLP216 T00220000,KEPH,2019-01-12T04:53:00Z,47.3,-119.52,2.2,0.0,340,7,,10.0,30.138779,1021.6,,TRUE,TRUE,,,,,,,CLR,,,,,,,,VFR,,,,,,,,,,,,METAR,383.0
KEQY 120453Z AUTO 00000KT 10SM CLR 00/M07 A3038 RMK AO2 SLP309 T00001072 400721044,KEQY,2019-01-12T04:53:00Z,35.02,-80.62,0.0,-7.2,0,0,,10.0,30.380905,1030.9,,TRUE,TRUE,,,,,,,CLR,,,,,,,,VFR,,,,7.2,-4.4,,,,,,,SPECI,212.0
KESF 120453Z AUTO 12003KT 10SM CLR 06/03 A3007 RMK AO2 SLP181 T00560028,KESF,2019-01-12T04:53:00Z,31.4,-92.28,5.6,2.8,120,3,,10.0,30.070866,1018.1,,TRUE,TRUE,,,,,,,CLR,,,,,,,,VFR,,,,,,,,,,,,SPECI,28.0
KEYW 120453Z AUTO 05005KT 10SM CLR 20/16 A3013 RMK AO2 SLP201 T02000161 402280150,KEYW,2019-01-12T04:53:00Z,24.55,-81.75,20.0,16.1,50,5,,10.0,30.129921,1020.1,,TRUE,TRUE,,,,,,,CLR,,,,,,,,VFR,,,,22.8,15.0,,,,,,,METAR,5.0
KEYE 120453Z AUTO 12006KT 10SM OVC085 M01/M06 A3030 RMK AO2 SLP270 T10061061 410061039,KEYE,2019-01-12T04:53:00Z,39.83,-86.3,-0.6,-6.1,120,6,,10.0,30.301182,1027.0,,TRUE,TRUE,,,,,,,OVC,8500,,,,,,,VFR,,,,-0.6,-3.9,,,,,,,METAR,248.0
KEWB 120453Z AUTO 32008KT 10SM CLR M08/M18 A3033 RMK AO2 SLP270 T10831183 400001083,KEWB,2019-01-12T04:53:00Z,41.68,-70.95,-8.3,-18.3,320,8,,10.0,30.33071,1027.0,,TRUE,TRUE,,,,,,,CLR,,,,,,,,VFR,,,,,-8.3,,,,,,,METAR,23.0
KFAR 120453Z 35013KT 7SM OVC006 M07/M08 A3032 RMK AO2 SLP289 T10721083,KFAR,2019-01-12T04:53:00Z,46.93,-96.82,-7.2,-8.3,350,13,,7.0,30.318897,1028.9,,,TRUE,,,,,,,OVC,600,,,,,,,IFR,,,,,,,,,,,,METAR,277.0
KFAY 120453Z 00000KT 10SM CLR M01/M07 A3041 RMK AO2 SLP293 T10111067 400721033 $,KFAY,2019-01-12T04:53:00Z,34.98,-78.88,-1.1,-6.7,0,0,,10.0,30.410433,1029.3,,,TRUE,TRUE,,,,,,CLR,,,,,,,,VFR,,,,7.2,-3.3,,,,,,,METAR,55.0
KFAT 120453Z 07003KT 7SM BKN200 11/09 A2989 RMK AO2 SLP121 T01110089,KFAT,2019-01-12T04:53:00Z,36.78,-119.72,11.1,8.9,70,3,,7.0,29.890747,1012.1,,,TRUE,,,,,,,BKN,20000,,,,,,,VFR,,,,,,,,,,,,METAR,104.0
KFCM 120453Z 07006KT 10SM CLR M04/M08 A3024 RMK AO2 SLP253 T10391078,KFCM,2019-01-12T04:53:00Z,44.83,-93.47,-3.9,-7.8,70,6,,10.0,30.239174,1025.3,,,TRUE,,,,,,,CLR,,,,,,,,VFR,,,,,,,,,,,,METAR,280.0
KFDR 120453Z AUTO 29018G23KT 10SM OVC015 07/06 A2983 RMK AO2 SLP100 T00720056,KFDR,2019-01-12T04:53:00Z,34.35,-98.98,7.2,5.6,290,18,23,10.0,29.828741,1010.0,,TRUE,TRUE,,,,,,,OVC,1500,,,,,,,MVFR,,,,,,,,,,,,SPECI,386.0
KFFC 120453Z AUTO 00000KT 10SM CLR 03/M02 A3028 RMK AO2 SLP259 T00281017 401331033,KFFC,2019-01-12T04:53:00Z,33.35,-84.57,2.8,-1.7,0,0,,10.0,30.280512,1025.9,,TRUE,TRUE,,,,,,,CLR,,,,,,,,VFR,,,,13.3,-3.3,,,,,,,SPECI,262.0
KFDY 120453Z AUTO 09004KT 10SM CLR M03/M07 A3036 RMK AO2 SLP288 T10331067 410061033,KFDY,2019-01-12T04:53:00Z,41.02,-83.67,-3.3,-6.7,90,4,,10.0,30.360237,1028.8,,TRUE,TRUE,,,,,,,CLR,,,,,,,,VFR,,,,-0.6,-3.3,,,,,,,METAR,247.0
KFFT 120453Z AUTO 04004KT 5SM -SN OVC030 01/M05 A3032 RMK AO2 SNB53 SLP275 P0000 T00111050 400221083,KFFT,2019-01-12T04:53:00Z,38.18,-84.9,1.1,-5.0,40,4,,5.0,30.318897,1027.5,,TRUE,TRUE,,,,,,-SN,OVC,3000,,,,,,,MVFR,,,,2.2,-8.3,0.005,,,,,,SPECI,236.0
KFHR 120453Z AUTO 00000KT 10SM CLR 07/04 A2994 RMK AO2 SLP139 T00670039,KFHR,2019-01-12T04:53:00Z,48.52,-123.03,6.7,3.9,0,0,,10.0,29.940945,1013.9,,TRUE,TRUE,,,,,,,CLR,,,,,,,,VFR,,,,,,,,,,,,METAR,32.0
KFLD 120453Z AUTO 00000KT 10SM OVC055 M02/M06 A3031 RMK AO2 SLP276 T10171056,KFLD,2019-01-12T04:53:00Z,43.77,-88.48,-1.7,-5.6,0,0,,10.0,30.31004,1027.6,,TRUE,TRUE,,,,,,,OVC,5500,,,,,,,VFR,,,,,,,,,,,,METAR,240.0
KFLL 120453Z AUTO 08011KT 10SM FEW037 BKN065 21/16 A3014 RMK AO2 SLP204 T02110156 402500111,KFLL,2019-01-12T04:53:00Z,26.07,-80.15,21.1,15.6,80,11,,10.0,30.138779,1020.4,,TRUE,TRUE,,,,,,,FEW,3700,BKN,6500,,,,,VFR,,,,25.0,11.1,,,,,,,METAR,3.0
KFLO 120453Z AUTO 07004KT 10SM CLR 01/M04 A3039 RMK AO2 SLP290 T00061044 400781033,KFLO,2019-01-12T04:53:00Z,34.18,-79.73,0.6,-4.4,70,4,,10.0,30.389763,1029.0,,TRUE,TRUE,,,,,,,CLR,,,,,,,,VFR,,,,7.8,-3.3,,,,,,,METAR,44.0
KFMN 120453Z AUTO 28006KT 10SM SCT028 M01/M03 A3009 RMK AO2 SLP207 T10061033,KFMN,2019-01-12T04:53:00Z,36.75,-108.23,-0.6,-3.3,280,6,,10.0,30.088583,1020.7,,TRUE,TRUE,,,,,,,SCT,2800,,,,,,,VFR,,,,,,,,,,,,METAR,1685.0
KFMY 120453Z AUTO 09006KT 10SM CLR 16/13 A3015 RMK AO2 SLP211 T01610133 402390056,KFMY,2019-01-12T04:53:00Z,26.58,-81.87,16.1,13.3,90,6,,10.0,30.15059,1021.1,,TRUE,TRUE,,,,,,,CLR,,,,,,,,VFR,,,,23.9,5.6,,,,,,,METAR,4.0
KFNB 120453Z AUTO 06007KT 1SM -SN BR OVC004 00/M01 A3007 RMK AO2 SLP191 P0002 T00001006,KFNB,2019-01-12T04:53:00Z,40.07,-95.58,0.0,-0.6,60,7,,1.0,30.070866,1019.1,,TRUE,TRUE,,,,,,-SN BR,OVC,400,,,,,,,LIFR,,,,,,0.02,,,,,,METAR,300.0
KFNT 120453Z AUTO 12004KT 10SM OVC070 M03/M09 A3040 RMK AO2 SLP306 T10331089 410281089,KFNT,2019-01-12T04:53:00Z,42.97,-83.75,-3.3,-8.9,120,4,,10.0,30.398623,1030.6,,TRUE,TRUE,,,,,,,OVC,7000,,,,,,,VFR,,,,-2.8,-8.9,,,,,,,METAR,233.0
KFOK 120453Z AUTO 35005KT 10SM CLR M07/M16 A3041 RMK AO2 SLP299 T10721161 400001083 $,KFOK,2019-01-12T04:53:00Z,40.85,-72.62,-7.2,-16.1,350,5,,10.0,30.410433,1029.9,,TRUE,TRUE,TRUE,,,,,,CLR,,,,,,,,VFR,,,,,-8.3,,,,,,,METAR,33.0
KFOE 120453Z AUTO 06005KT 1 1/2SM -SN BR OVC003 01/M01 A3002 RMK AO2 SLP172 P0004 T00061006,KFOE,2019-01-12T04:53:00Z,38.93,-95.65,0.6,-0.6,60,5,,1.5,30.02067,1017.2,,TRUE,TRUE,,,,,,-SN BR,OVC,300,,,,,,,LIFR,,,,,,0.04,,,,,,METAR,320.0
KFPR 120453Z AUTO 09006KT 10SM CLR 18/11 A3018 RMK AO2 SLP219 T01780106 402390067,KFPR,2019-01-12T04:53:00Z,27.5,-80.38,17.8,10.6,90,6,,10.0,30.180119,1021.9,,TRUE,TRUE,,,,,,,CLR,,,,,,,,VFR,,,,23.9,6.7,,,,,,,METAR,13.0
KFRG 120453Z AUTO 30004KT 10SM CLR M06/M14 A3042 RMK AO2 SLP301 T10611144 410061061,KFRG,2019-01-12T04:53:00Z,40.73,-73.42,-6.1,-14.4,300,4,,10.0,30.41929,1030.1,,TRUE,TRUE,,,,,,,CLR,,,,,,,,VFR,,,,-0.6,-6.1,,,,,,,METAR,21.0
KGSH 120453Z AUTO 09005KT 7SM CLR M03/M06 A3034 RMK AO2 SLP285 T10331056 410171039,KGSH,2019-01-12T04:53:00Z,41.53,-85.78,-3.3,-5.6,90,5,,7.0,30.339567,1028.5,,TRUE,TRUE,,,,,,,CLR,,,,,,,,VFR,,,,-1.7,-3.9,,,,,,,METAR,252.0
KGUP 120453Z AUTO 00000KT 10SM CLR M03/M06 A3015 RMK AO2 SLP232 T10331056,KGUP,2019-01-12T04:53:00Z,35.52,-108.8,-3.3,-5.6,0,0,,10.0,30.15059,1023.2,,TRUE,TRUE,,,,,,,CLR,,,,,,,,VFR,,,,,,,,,,,,METAR,1971.0
KGTF 120453Z 21012KT 10SM CLR 01/M07 A3009 RMK AO2 SLP224 T00061072,KGTF,2019-01-12T04:53:00Z,47.47,-111.38,0.6,-7.2,210,12,,10.0,30.088583,1022.4,,,TRUE,,,,,,,CLR,,,,,,,,VFR,,,,,,,,,,,,METAR,1119.0
KGSP 120453Z AUTO 00000KT 10SM OVC100 03/M04 A3035 RMK AO2 SLP281 T00331039 400891039,KGSP,2019-01-12T04:53:00Z,34.9,-82.22,3.3,-3.9,0,0,,10.0,30.351377,1028.1,,TRUE,TRUE,,,,,,,OVC,10000,,,,,,,VFR,,,,8.9,-3.9,,,,,,,SPECI,287.0
KASD 120453Z AUTO 07003KT 10SM CLR 07/06 A3014 RMK AO2 SLP205 T00720056,KASD,2019-01-12T04:53:00Z,30.35,-89.82,7.2,5.6,70,3,,10.0,30.138779,1020.5,,TRUE,TRUE,,,,,,,CLR,,,,,,,,VFR,,,,,,,,,,,,METAR,9.0
KSJC 120453Z 13012KT 10SM -RA FEW012 SCT065 BKN100 13/11 A2988 RMK AO2 SLP118 P0002 T01280106,KSJC,2019-01-12T04:53:00Z,37.37,-121.92,12.8,10.6,130,12,,10.0,29.878937,1011.8,,,TRUE,,,,,,-RA,FEW,1200,SCT,6500,BKN,10000,,,VFR,,,,,,0.02,,,,,,METAR,24.0
KSIY 120453Z AUTO 04007KT 10SM CLR 04/M02 A2991 RMK AO2 SLP147 T00441022,KSIY,2019-01-12T04:53:00Z,41.77,-122.47,4.4,-2.2,40,7,,10.0,29.911417,1014.7,,TRUE,TRUE,,,,,,,CLR,,,,,,,,VFR,,,,,,,,,,,,METAR,807.0
KSHR 120453Z AUTO 00000KT 10SM CLR M04/M07 A3020 RMK AO2 SLP257 T10441067,KSHR,2019-01-12T04:53:00Z,44.77,-106.97,-4.4,-6.7,0,0,,10.0,30.200787,1025.7,,TRUE,TRUE,,,,,,,CLR,,,,,,,,VFR,,,,,,,,,,,,METAR,1202.0
KSGR 120453Z AUTO 14009KT 10SM OVC046 17/14 A2996 RMK AO2 SLP146 T01720139,KSGR,2019-01-12T04:53:00Z,29.62,-95.65,17.2,13.9,140,9,,10.0,29.958662,1014.6,,TRUE,TRUE,,,,,,,OVC,4600,,,,,,,VFR,,,,,,,,,,,,METAR,2.0
KSFF 120453Z AUTO 02003KT 10SM OVC007 02/00 A3016 RMK AO2 SLP227 T00170000,KSFF,2019-01-12T04:53:00Z,47.68,-117.32,1.7,0.0,20,3,,10.0,30.159449,1022.7,,TRUE,TRUE,,,,,,,OVC,700,,,,,,,IFR,,,,,,,,,,,,METAR,609.0
KSFB 120453Z AUTO 05005KT 10SM CLR 13/09 A3020 RMK AO2 SLP227 T01280094 402220072,KSFB,2019-01-12T04:53:00Z,28.77,-81.22,12.8,9.4,50,5,,10.0,30.200787,1022.7,,TRUE,TRUE,,,,,,,CLR,,,,,,,,VFR,,,,22.2,7.2,,,,,,,METAR,17.0
KSEG 120453Z AUTO 00000KT 10SM CLR M08/M12 A3044 RMK AO2 SLP315 T10781122 400061078,KSEG,2019-01-12T04:53:00Z,40.82,-76.87,-7.8,-12.2,0,0,,10.0,30.43996,1031.5,,TRUE,TRUE,,,,,,,CLR,,,,,,,,VFR,,,,0.6,-7.8,,,,,,,METAR,134.0
KSEA 120453Z 12012G17KT 10SM BKN250 13/M01 A2993 RMK AO2 SLP141 T01281006,KSEA,2019-01-12T04:53:00Z,47.45,-122.32,12.8,-0.6,120,12,17,10.0,29.929134,1014.1,,,TRUE,,,,,,,BKN,25000,,,,,,,VFR,,,,,,,,,,,,METAR,136.0
KSDL 120453Z AUTO 00000KT 10SM CLR 11/07 A3009 RMK AO2 SLP180 T01110067,KSDL,2019-01-12T04:53:00Z,33.62,-111.92,11.1,6.7,0,0,,10.0,30.088583,1018.0,,TRUE,TRUE,,,,,,,CLR,,,,,,,,VFR,,,,,,,,,,,,METAR,447.0
KSBM 120453Z AUTO 00000KT 8SM OVC055 M02/M04 A3032 RMK AO2 SLP278 T10171039,KSBM,2019-01-12T04:53:00Z,43.78,-87.85,-1.7,-3.9,0,0,,8.0,30.318897,1027.8,,TRUE,TRUE,,,,,,,OVC,5500,,,,,,,VFR,,,,,,,,,,,,METAR,232.0
KSBA 120453Z 14015KT 10SM OVC090 14/11 A2992 RMK AO2 SLP133 T01440111,KSBA,2019-01-12T04:53:00Z,34.43,-119.85,14.4,11.1,140,15,,10.0,29.920275,1013.3,,,TRUE,,,,,,,OVC,9000,,,,,,,VFR,,,,,,,,,,,,METAR,3.0
KSAV 120453Z 03005KT 10SM BKN050 06/00 A3034 RMK AO2 SLP274 LAST T00560000 401331006,KSAV,2019-01-12T04:53:00Z,32.12,-81.2,5.6,0.0,30,5,,10.0,30.339567,1027.4,,,TRUE,,,,,,,BKN,5000,,,,,,,VFR,,,,13.3,-0.6,,,,,,,METAR,14.0
KSAF 120453Z AUTO 31005KT 10SM OVC041 00/M01 A3007 RMK AO2 SLP177 T00001011,KSAF,2019-01-12T04:53:00Z,35.62,-106.1,0.0,-1.1,310,5,,10.0,30.070866,1017.7,,TRUE,TRUE,,,,,,,OVC,4100,,,,,,,VFR,,,,,,,,,,,,METAR,1930.0
KSAC 120453Z 34004KT 8SM CLR 09/09 A2991 RMK AO2 SLP127 T00940094,KSAC,2019-01-12T04:53:00Z,38.5,-121.5,9.4,9.4,340,4,,8.0,29.911417,1012.7,,,TRUE,,,,,,,CLR,,,,,,,,VFR,,,,,,,,,,,,METAR,11.0
KRXE 120453Z AUTO 04005KT 10SM OVC010 M02/M05 A3029 RMK AO2 SLP284 T10171050,KRXE,2019-01-12T04:53:00Z,43.83,-111.8,-1.7,-5.0,40,5,,10.0,30.28937,1028.4,,TRUE,TRUE,,,,,,,OVC,1000,,,,,,,MVFR,,,,,,,,,,,,METAR,1480.0
KRWL 120453Z AUTO 33008KT 10SM CLR M09/M11 A3020 RMK AO2 SLP274 I1000 T10941111,KRWL,2019-01-12T04:53:00Z,41.78,-107.2,-9.4,-11.1,330,8,,10.0,30.200787,1027.4,,TRUE,TRUE,,,,,,,CLR,,,,,,,,VFR,,,,,,,,,,,,METAR,2077.0
KRWI 120453Z AUTO 00000KT 10SM CLR M03/M06 A3043 RMK AO2 SLP305 T10331056 400611044,KRWI,2019-01-12T04:53:00Z,35.85,-77.9,-3.3,-5.6,0,0,,10.0,30.431103,1030.5,,TRUE,TRUE,,,,,,,CLR,,,,,,,,VFR,,,,6.1,-4.4,,,,,,,METAR,47.0
KRWF 120453Z AUTO 32004KT 8SM OVC019 M07/M08 A3023 RMK AO2 SLP253 T10721083,KRWF,2019-01-12T04:53:00Z,44.55,-95.08,-7.2,-8.3,320,4,,8.0,30.230314,1025.3,,TRUE,TRUE,,,,,,,OVC,1900,,,,,,,MVFR,,,,,,,,,,,,METAR,311.0
KRVS 120453Z AUTO 13007KT 10SM -RA OVC008 04/02 A2993 RMK AO2 CIG 006V010 SLP143 P0008 T00390022,KRVS,2019-01-12T04:53:00Z,36.05,-95.98,3.9,2.2,130,7,,10.0,29.929134,1014.3,,TRUE,TRUE,,,,,,-RA,OVC,800,,,,,,,IFR,,,,,,0.08,,,,,,METAR,200.0
KRSW 120453Z AUTO 08006KT 10SM CLR 14/13 A3015 RMK AO2 SLP208 T01440128 402390061,KRSW,2019-01-12T04:53:00Z,26.53,-81.75,14.4,12.8,80,6,,10.0,30.15059,1020.8,,TRUE,TRUE,,,,,,,CLR,,,,,,,,VFR,,,,23.9,6.1,,,,,,,METAR,10.0
KRQE 120453Z AUTO 29004KT 10SM CLR M01/M05 A3014 RMK AO2 SLP191 T10061050,KRQE,2019-01-12T04:53:00Z,35.65,-109.07,-0.6,-5.0,290,4,,10.0,30.138779,1019.1,,TRUE,TRUE,,,,,,,CLR,,,,,,,,VFR,,,,,,,,,,,,METAR,2055.0
KRNT 120453Z AUTO 10SM CLR 12/01 A2993 RMK AO2 SLP139 T01220006,KRNT,2019-01-12T04:53:00Z,47.5,-122.22,12.2,0.6,,,,10.0,29.929134,1013.9,,TRUE,TRUE,,,,,,,CLR,,,,,,,,VFR,,,,,,,,,,,,METAR,21.0
KRNM 120453Z AUTO 00000KT M1/4SM FG VV001 08/08 A2999 RMK AO2 SLP154 T00830078,KRNM,2019-01-12T04:53:00Z,33.03,-116.92,8.3,7.8,0,0,,0.25,29.991142,1015.4,,TRUE,TRUE,,,,,,FG,OVX,0,,,,,,,LIFR,,,,,,,,,,,100,METAR,427.0
KRMG 120453Z AUTO 00000KT 10SM BKN100 06/00 A3028 RMK AO2 SLP252 T00560000 401221039,KRMG,2019-01-12T04:53:00Z,34.35,-85.17,5.6,0.0,0,0,,10.0,30.280512,1025.2,,TRUE,TRUE,,,,,,,BKN,10000,,,,,,,VFR,,,,12.2,-3.9,,,,,,,SPECI,193.0
KRME 120453Z AUTO 00000KT 10SM OVC027 M12/M14 A3044 RMK AO2 SLP318 T11221144 410941150,KRME,2019-01-12T04:53:00Z,43.22,-75.4,-12.2,-14.4,0,0,,10.0,30.43996,1031.8,,TRUE,TRUE,,,,,,,OVC,2700,,,,,,,MVFR,,,,-9.4,-15.0,,,,,,,METAR,154.0
KHQM 120453Z AUTO 08011KT 10SM FEW100 08/07 A2988 RMK AO2 SLP121 T00830067,KHQM,2019-01-12T04:53:00Z,46.97,-123.93,8.3,6.7,80,11,,10.0,29.878937,1012.1,,TRUE,TRUE,,,,,,,FEW,10000,,,,,,,VFR,,,,,,,,,,,,METAR,7.0
KHOU 120453Z 12007KT 10SM BKN050 BKN100 OVC250 16/13 A2996 RMK AO2 SLP148 T01610133,KHOU,2019-01-12T04:53:00Z,29.63,-95.28,16.1,13.3,120,7,,10.0,29.958662,1014.8,,,TRUE,,,,,,,BKN,5000,BKN,10000,OVC,25000,,,VFR,,,,,,,,,,,,METAR,36.0
KHOT 120453Z AUTO 11004KT 10SM OVC050 04/02 A3007 RMK AO2 SLP182 T00440017,KHOT,2019-01-12T04:53:00Z,34.48,-93.1,4.4,1.7,110,4,,10.0,30.070866,1018.2,,TRUE,TRUE,,,,,,,OVC,5000,,,,,,,VFR,,,,,,,,,,,,SPECI,162.0
KHLN 120453Z AUTO 14003KT 10SM CLR M05/M07 A3021 RMK AO2 SLP292 T10501067,KHLN,2019-01-12T04:53:00Z,46.6,-111.98,-5.0,-6.7,140,3,,10.0,30.209646,1029.2,,TRUE,TRUE,,,,,,,CLR,,,,,,,,VFR,,,,,,,,,,,,METAR,1182.0
KHLG 120453Z AUTO 08004KT 10SM CLR M06/M11 A3037 RMK AO2 SLP303 T10561106 410221067 $,KHLG,2019-01-12T04:53:00Z,40.17,-80.65,-5.6,-10.6,80,4,,10.0,30.369095,1030.3,,TRUE,TRUE,TRUE,,,,,,CLR,,,,,,,,VFR,,,,-2.2,-6.7,,,,,,,METAR,372.0
KHKY 120453Z AUTO 00000KT 10SM OVC100 03/M05 A3035 RMK AO2 SLP276 T00281050 400781044,KHKY,2019-01-12T04:53:00Z,35.75,-81.38,2.8,-5.0,0,0,,10.0,30.351377,1027.6,,TRUE,TRUE,,,,,,,OVC,10000,,,,,,,VFR,,,,7.8,-4.4,,,,,,,SPECI,354.0
KHKS 120453Z AUTO 13008KT 10SM CLR 10/M01 A3013 RMK AO2 SLP199 T01001006,KHKS,2019-01-12T04:53:00Z,32.33,-90.22,10.0,-0.6,130,8,,10.0,30.129921,1019.9,,TRUE,TRUE,,,,,,,CLR,,,,,,,,VFR,,,,,,,,,,,,SPECI,108.0
KHKA 120453Z AUTO 10009KT 9SM OVC070 03/02 A3015 RMK AO2 UPE03 SLP212 P0006 T00280017 $,KHKA,2019-01-12T04:53:00Z,35.93,-89.83,2.8,1.7,100,9,,9.0,30.15059,1021.2,,TRUE,TRUE,TRUE,,,,,,OVC,7000,,,,,,,VFR,,,,,,0.06,,,,,,SPECI,78.0
KHJO 120453Z AUTO 09005KT 4SM BR CLR 11/09 A2989 RMK AO2 SLP123 T01060094,KHJO,2019-01-12T04:53:00Z,36.32,-119.62,10.6,9.4,90,5,,4.0,29.890747,1012.3,,TRUE,TRUE,,,,,,BR,CLR,,,,,,,,MVFR,,,,,,,,,,,,METAR,74.0
KHIO 120453Z 30003KT 10SM FEW100 02/01 A2994 RMK AO2 SLP139 T00220011,KHIO,2019-01-12T04:53:00Z,45.55,-122.95,2.2,1.1,300,3,,10.0,29.940945,1013.9,,,TRUE,,,,,,,FEW,10000,,,,,,,VFR,,,,,,,,,,,,METAR,68.0
KHHR 120453Z 10005KT 7SM CLR 13/11 A2999 RMK AO2 SLP154 T01280106 $,KHHR,2019-01-12T04:53:00Z,33.92,-118.33,12.8,10.6,100,5,,7.0,29.991142,1015.4,,,TRUE,TRUE,,,,,,CLR,,,,,,,,VFR,,,,,,,,,,,,METAR,18.0
KHGR 120453Z AUTO 00000KT 10SM CLR M04/M11 A3042 RMK AO2 SLP320 T10391106 400171044 $,KHGR,2019-01-12T04:53:00Z,39.7,-77.73,-3.9,-10.6,0,0,,10.0,30.41929,1032.0,,TRUE,TRUE,TRUE,,,,,,CLR,,,,,,,,VFR,,,,1.7,-4.4,,,,,,,METAR,224.0
KHFD 120453Z 32006KT 10SM CLR M09/M18 A3042 RMK AO2 SLP301 T10941183 410171094,KHFD,2019-01-12T04:53:00Z,41.73,-72.65,-9.4,-18.3,320,6,,10.0,30.41929,1030.1,,,TRUE,,,,,,,CLR,,,,,,,,VFR,,,,-1.7,-9.4,,,,,,,METAR,4.0
KHBG 120453Z AUTO 00000KT CLR 05/02 A3018 RMK AO2 SLP219 T00500022 $,KHBG,2019-01-12T04:53:00Z,31.27,-89.25,5.0,2.2,0,0,,,30.180119,1021.9,,TRUE,TRUE,TRUE,,,,,,CLR,,,,,,,,,,,,,,,,,,,,SPECI,44.0
KHAO 120453Z AUTO 00000KT 10SM OVC100 M01/M06 A3036 RMK AO2 SLP289 T10061061 400061028,KHAO,2019-01-12T04:53:00Z,39.37,-84.52,-0.6,-6.1,0,0,,10.0,30.360237,1028.9,,TRUE,TRUE,,,,,,,OVC,10000,,,,,,,VFR,,,,0.6,-2.8,,,,,,,METAR,188.0
KGZH 120453Z AUTO 00000KT 10SM CLR 03/02 A3020 RMK AO2 SLP225 T00330017,KGZH,2019-01-12T04:53:00Z,31.42,-87.05,3.3,1.7,0,0,,10.0,30.200787,1022.5,,TRUE,TRUE,,,,,,,CLR,,,,,,,,VFR,,,,,,,,,,,,SPECI,78.0
KGWO 120453Z AUTO 10006KT 10SM OVC090 09/M01 A3013 RMK AO2 SLP202 T00891011,KGWO,2019-01-12T04:53:00Z,33.5,-90.08,8.9,-1.1,100,6,,10.0,30.129921,1020.2,,TRUE,TRUE,,,,,,,OVC,9000,,,,,,,VFR,,,,,,,,,,,,SPECI,44.0
KGVL 120453Z AUTO 08003KT 10SM BKN095 04/M04 A3032 RMK AO2 SLP269 T00391044 401001022,KGVL,2019-01-12T04:53:00Z,34.27,-83.83,3.9,-4.4,80,3,,10.0,30.318897,1026.9,,TRUE,TRUE,,,,,,,BKN,9500,,,,,,,VFR,,,,10.0,-2.2,,,,,,,SPECI,386.0
KATY 120453Z AUTO 01010KT 8SM OVC007 M08/M10 A3020 RMK AO2 SLP258 T10831100,KATY,2019-01-12T04:53:00Z,44.9,-97.15,-8.3,-10.0,10,10,,8.0,30.200787,1025.8,,TRUE,TRUE,,,,,,,OVC,700,,,,,,,IFR,,,,,,,,,,,,METAR,532.0
KASX 120453Z AUTO 06004KT 7SM OVC048 M04/M07 A3034 RMK AO2 SLP289 T10391067,KASX,2019-01-12T04:53:00Z,46.55,-90.92,-3.9,-6.7,60,4,,7.0,30.339567,1028.9,,TRUE,TRUE,,,,,,,OVC,4800,,,,,,,VFR,,,,,,,,,,,,METAR,251.0
KASE 120453Z AUTO 00000KT 8SM OVC025 M03/M05 A3012 RMK AO2 SNE34 SLP189 P0000 T10331050,KASE,2019-01-12T04:53:00Z,39.23,-106.87,-3.3,-5.0,0,0,,8.0,30.121063,1018.9,,TRUE,TRUE,,,,,,,OVC,2500,,,,,,,MVFR,,,,,,0.005,,,,,,METAR,2354.0
KAUG 120453Z AUTO 28010G19KT 250V310 10SM CLR M16/M22 A3020 RMK AO2 SLP236 T11561217 410941161,KAUG,2019-01-12T04:53:00Z,44.32,-69.8,-15.6,-21.7,280,10,19,10.0,30.200787,1023.6,,TRUE,TRUE,,,,,,,CLR,,,,,,,,VFR,,,,-9.4,-16.1,,,,,,,METAR,109.0
KBCE 120453Z AUTO 26003KT 10SM CLR M13/M16 A3020 RMK AO2 SLP243 I1000 T11331156,KBCE,2019-01-12T04:53:00Z,37.7,-112.15,-13.3,-15.6,260,3,,10.0,30.200787,1024.3,,TRUE,TRUE,,,,,,,CLR,,,,,,,,VFR,,,,,,,,,,,,METAR,2312.0
KBBW 120453Z AUTO 01008KT 10SM BKN120 00/M03 A3011 RMK AO2 SLP219 T00001028,KBBW,2019-01-12T04:53:00Z,41.43,-99.63,0.0,-2.8,10,8,,10.0,30.109253,1021.9,,TRUE,TRUE,,,,,,,BKN,12000,,,,,,,VFR,,,,,,,,,,,,METAR,776.0
KBAF 120453Z AUTO 30009KT 10SM CLR M11/M18 A3039 RMK AO2 SLP303 T11111183 410331111,KBAF,2019-01-12T04:53:00Z,42.17,-72.72,-11.1,-18.3,300,9,,10.0,30.389763,1030.3,,TRUE,TRUE,,,,,,,CLR,,,,,,,,VFR,,,,-3.3,-11.1,,,,,,,METAR,83.0
KAZO 120453Z AUTO 13004KT 10SM OVC070 M03/M07 A3036 RMK AO2 SLP292 T10331072 410171072,KAZO,2019-01-12T04:53:00Z,42.23,-85.55,-3.3,-7.2,130,4,,10.0,30.360237,1029.2,,TRUE,TRUE,,,,,,,OVC,7000,,,,,,,VFR,,,,-1.7,-7.2,,,,,,,METAR,272.0
KAXN 120453Z AUTO 04003KT 7SM CLR M08/M12 A3024 RMK AO2 SLP269 I1000 T10831117,KAXN,2019-01-12T04:53:00Z,45.87,-95.4,-8.3,-11.7,40,3,,7.0,30.239174,1026.9,,TRUE,TRUE,,,,,,,CLR,,,,,,,,VFR,,,,,,,,,,,,METAR,433.0
KAWM 120453Z AUTO 12009KT 10SM OVC075 05/01 A3012 RMK AO2 SLP201 T00500011 $,KAWM,2019-01-12T04:53:00Z,35.13,-90.23,5.0,1.1,120,9,,10.0,30.121063,1020.1,,TRUE,TRUE,TRUE,,,,,,OVC,7500,,,,,,,VFR,,,,,,,,,,,,SPECI,65.0
KBEH 120453Z AUTO 13006KT 10SM OVC075 M02/M06 A3035 RMK AO2 SLP285 T10221061 410061033,KBEH,2019-01-12T04:53:00Z,42.13,-86.42,-2.2,-6.1,130,6,,10.0,30.351377,1028.5,,TRUE,TRUE,,,,,,,OVC,7500,,,,,,,VFR,,,,-0.6,-3.3,,,,,,,METAR,191.0
KBFD 120453Z AUTO 32003KT 10SM SCT110 M14/M17 A3033 RMK AO2 SLP310 I1000 T11441167 410611156,KBFD,2019-01-12T04:53:00Z,41.8,-78.63,-14.4,-16.7,320,3,,10.0,30.33071,1031.0,,TRUE,TRUE,,,,,,,SCT,11000,,,,,,,VFR,,,,-6.1,-15.6,,,,,,,METAR,647.0
KBFF 120453Z AUTO 29007KT 10SM FEW048 BKN055 OVC090 02/02 A3018 RMK AO2 SLP232 T00170017,KBFF,2019-01-12T04:53:00Z,41.87,-103.58,1.7,1.7,290,7,,10.0,30.180119,1023.2,,TRUE,TRUE,,,,,,,FEW,4800,BKN,5500,OVC,9000,,,VFR,,,,,,,,,,,,METAR,1203.0
KBFI 120453Z 00000KT 10SM CLR 07/04 A2994 RMK AO2 SLP137 T00670039,KBFI,2019-01-12T04:53:00Z,47.55,-122.32,6.7,3.9,0,0,,10.0,29.940945,1013.7,,,TRUE,,,,,,,CLR,,,,,,,,VFR,,,,,,,,,,,,METAR,4.0
KBFM 120453Z AUTO 09009KT 10SM OVC033 13/09 A3018 RMK AO2 SLP219 T01280089,KBFM,2019-01-12T04:53:00Z,30.62,-88.07,12.8,8.9,90,9,,10.0,30.180119,1021.9,,TRUE,TRUE,,,,,,,OVC,3300,,,,,,,VFR,,,,,,,,,,,,METAR,20.0
KBGR 120453Z VRB05KT 10SM CLR M15/M21 A3014 RMK AO2 SLP213 T11501211 410781150,KBGR,2019-01-12T04:53:00Z,44.8,-68.82,-15.0,-21.1,0,5,,10.0,30.138779,1021.3,,,TRUE,,,,,,,CLR,,,,,,,,VFR,,,,-7.8,-15.0,,,,,,,METAR,57.0
KBGM 120453Z 24005KT 10SM BKN120 M14/M17 A3033 RMK AO2 SLP308 T11391167 410941144,KBGM,2019-01-12T04:53:00Z,42.22,-75.98,-13.9,-16.7,240,5,,10.0,30.33071,1030.8,,,TRUE,,,,,,,BKN,12000,,,,,,,VFR,,,,-9.4,-14.4,,,,,,,METAR,490.0
KBHM 120453Z 07003KT 10SM BKN250 08/M02 A3024 RMK AO2 SLP240 T00831017,KBHM,2019-01-12T04:53:00Z,33.57,-86.75,8.3,-1.7,70,3,,10.0,30.239174,1024.0,,,TRUE,,,,,,,BKN,25000,,,,,,,VFR,,,,,,,,,,,,METAR,197.0
KBKE 120453Z AUTO 11009KT 10SM CLR 02/M01 A3018 RMK AO2 SLP238 T00221011,KBKE,2019-01-12T04:53:00Z,44.85,-117.82,2.2,-1.1,110,9,,10.0,30.180119,1023.8,,TRUE,TRUE,,,,,,,CLR,,,,,,,,VFR,,,,,,,,,,,,METAR,1024.0
KBLI 120453Z 00000KT 10SM CLR 03/01 A2994 RMK AO2 SLP146 T00280011,KBLI,2019-01-12T04:53:00Z,48.8,-122.53,2.8,1.1,0,0,,10.0,29.940945,1014.6,,,TRUE,,,,,,,CLR,,,,,,,,VFR,,,,,,,,,,,,METAR,50.0
KBKV 120453Z AUTO 05005KT 10SM CLR 13/10 A3020 RMK AO2 SLP224 T01280100 402220000,KBKV,2019-01-12T04:53:00Z,28.47,-82.45,12.8,10.0,50,5,,10.0,30.200787,1022.4,,TRUE,TRUE,,,,,,,CLR,,,,,,,,VFR,,,,22.2,,,,,,,,SPECI,20.0
KBKL 120453Z AUTO 16003KT 10SM OVC110 M02/M09 A3041 RMK AO2 SLP306 T10221089 410171039,KBKL,2019-01-12T04:53:00Z,41.53,-81.67,-2.2,-8.9,160,3,,10.0,30.410433,1030.6,,TRUE,TRUE,,,,,,,OVC,11000,,,,,,,VFR,,,,-1.7,-3.9,,,,,,,METAR,184.0
KBNA 120453Z 09004KT 10SM -PLRA OVC080 03/M02 A3024 RMK AO2 SLP243 P0003 T00281017,KBNA,2019-01-12T04:53:00Z,36.12,-86.68,2.8,-1.7,90,4,,10.0,30.239174,1024.3,,,TRUE,,,,,,-PL -RA,OVC,8000,,,,,,,VFR,,,,,,0.03,,,,,,METAR,210.0
KBNO 120453Z AUTO 04010KT 10SM CLR M01/M04 A3011 RMK AO2 SLP224 T10111039,KBNO,2019-01-12T04:53:00Z,43.6,-118.95,-1.1,-3.9,40,10,,10.0,30.109253,1022.4,,TRUE,TRUE,,,,,,,CLR,,,,,,,,VFR,,,,,,,,,,,,METAR,1264.0
KSMF 120453Z 32005KT 8SM SCT085 08/08 A2991 RMK AO2 SLP126 T00830078,KSMF,2019-01-12T04:53:00Z,38.7,-121.6,8.3,7.8,320,5,,8.0,29.911417,1012.6,,,TRUE,,,,,,,SCT,8500,,,,,,,VFR,,,,,,,,,,,,METAR,6.0
KSPB 120453Z AUTO 27004KT 10SM CLR 03/02 A2995 RMK AO2 SLP140 T00330022,KSPB,2019-01-12T04:53:00Z,45.77,-122.87,3.3,2.2,270,4,,10.0,29.949802,1014.0,,TRUE,TRUE,,,,,,,CLR,,,,,,,,VFR,,,,,,,,,,,,METAR,14.0
KSNY 120453Z AUTO 32009KT 10SM SCT038 OVC055 01/01 A3015 RMK AO2 SLP223 T00060006,KSNY,2019-01-12T04:53:00Z,41.1,-102.98,0.6,0.6,320,9,,10.0,30.15059,1022.3,,TRUE,TRUE,,,,,,,SCT,3800,OVC,5500,,,,,VFR,,,,,,,,,,,,METAR,1307.0
KSNS 120453Z AUTO 15008KT 8SM -RA OVC065 12/11 A2989 RMK AO2 SLP131 P0001 T01220106,KSNS,2019-01-12T04:53:00Z,36.67,-121.6,12.2,10.6,150,8,,8.0,29.890747,1013.1,,TRUE,TRUE,,,,,,-RA,OVC,6500,,,,,,,VFR,,,,,,0.01,,,,,,METAR,30.0
KSNA 120453Z 12003KT 7SM SCT250 13/09 A3000 RMK AO2 SLP157 T01280089,KSNA,2019-01-12T04:53:00Z,33.67,-117.87,12.8,8.9,120,3,,7.0,30.0,1015.7,,,TRUE,,,,,,,SCT,25000,,,,,,,VFR,,,,,,,,,,,,METAR,16.0
KSMQ 120453Z AUTO 00000KT 10SM CLR M07/M17 A3044 RMK AO2 SLP310 T10671167 400001078,KSMQ,2019-01-12T04:53:00Z,40.62,-74.67,-6.7,-16.7,0,0,,10.0,30.43996,1031.0,,TRUE,TRUE,,,,,,,CLR,,,,,,,,VFR,,,,,-7.8,,,,,,,METAR,30.0
KSRQ 120453Z AUTO 08006KT 10SM CLR 16/12 A3015 RMK AO2 SLP208 T01560117 402280067,KSRQ,2019-01-12T04:53:00Z,27.4,-82.57,15.6,11.7,80,6,,10.0,30.15059,1020.8,,TRUE,TRUE,,,,,,,CLR,,,,,,,,VFR,,,,22.8,6.7,,,,,,,METAR,18.0
KSPG 120453Z AUTO 10012KT 10SM BKN044 17/12 A3016 RMK AO2 SLP213 T01720122 402220111,KSPG,2019-01-12T04:53:00Z,27.77,-82.63,17.2,12.2,100,12,,10.0,30.159449,1021.3,,TRUE,TRUE,,,,,,,BKN,4400,,,,,,,VFR,,,,22.2,11.1,,,,,,,METAR,2.0
KSSI 120453Z AUTO 05009KT 10SM CLR 12/06 A3028 RMK AO2 SLP255 T01170061 401390039,KSSI,2019-01-12T04:53:00Z,31.15,-81.38,11.7,6.1,50,9,,10.0,30.280512,1025.5,,TRUE,TRUE,,,,,,,CLR,,,,,,,,VFR,,,,13.9,3.9,,,,,,,METAR,6.0
KGLR 120453Z AUTO 10003KT 10SM OVC055 M08/M11 A3035 RMK AO2 SLP305 T10781111 410781211,KGLR,2019-01-12T04:53:00Z,45.02,-84.68,-7.8,-11.1,100,3,,10.0,30.351377,1030.5,,TRUE,TRUE,,,,,,,OVC,5500,,,,,,,VFR,,,,-7.8,-21.1,,,,,,,METAR,407.0
KTCL 120453Z AUTO 04003KT 10SM CLR 07/02 A3020 RMK AO2 SLP226 T00720017,KTCL,2019-01-12T04:53:00Z,33.22,-87.62,7.2,1.7,40,3,,10.0,30.200787,1022.6,,TRUE,TRUE,,,,,,,CLR,,,,,,,,VFR,,,,,,,,,,,,METAR,49.0
KSTS 120453Z AUTO 00000KT 6SM BR BKN041 OVC055 10/10 A2986 RMK AO2 RAB0358E07 SLP107 P0000 T01000100,KSTS,2019-01-12T04:53:00Z,38.5,-122.82,10.0,10.0,0,0,,6.0,29.861221,1010.7,,TRUE,TRUE,,,,,,BR,BKN,4100,OVC,5500,,,,,VFR,,,,,,0.005,,,,,,METAR,39.0
KTCC 120453Z AUTO 35009KT 10SM OVC055 04/02 A3001 RMK AO2 RAE29 SLP156 P0000 T00390017,KTCC,2019-01-12T04:53:00Z,35.18,-103.6,3.9,1.7,350,9,,10.0,30.008858,1015.6,,TRUE,TRUE,,,,,,,OVC,5500,,,,,,,VFR,,,,,,0.005,,,,,,METAR,1235.0
KTCS 120453Z AUTO 30017KT 10SM CLR 06/M03 A3010 RMK AO2 SLP164 T00561028,KTCS,2019-01-12T04:53:00Z,33.23,-107.27,5.6,-2.8,300,17,,10.0,30.100393,1016.4,,TRUE,TRUE,,,,,,,CLR,,,,,,,,VFR,,,,,,,,,,,,METAR,1469.0
KMWT 120453Z AUTO 00000KT 10SM -RA OVC055 04/01 A3003 RMK AO2 RAB53 SLP177 P0000 T00440011,KMWT,2019-01-12T04:53:00Z,34.55,-93.58,4.4,1.1,0,0,,10.0,30.029528,1017.7,,TRUE,TRUE,,,,,,-RA,OVC,5500,,,,,,,VFR,,,,,,0.005,,,,,,METAR,214.0
KTKI 120453Z AUTO 15011KT 10SM -RA BKN006 OVC009 09/08 A2992 RMK AO2 SLP141 P0001 T00890083,KTKI,2019-01-12T04:53:00Z,33.18,-96.58,8.9,8.3,150,11,,10.0,29.920275,1014.1,,TRUE,TRUE,,,,,,-RA,BKN,600,OVC,900,,,,,IFR,,,,,,0.01,,,,,,METAR,179.0
KTIW 120453Z AUTO 12003KT 6SM BR CLR 07/06 A2993 RMK AO2 SLP138 T00720061,KTIW,2019-01-12T04:53:00Z,47.27,-122.58,7.2,6.1,120,3,,6.0,29.929134,1013.8,,TRUE,TRUE,,,,,,BR,CLR,,,,,,,,VFR,,,,,,,,,,,,METAR,89.0
KTHV 120453Z AUTO 00000KT 10SM CLR M07/M09 A3043 RMK AO2 SLP312 T10721094 400171078,KTHV,2019-01-12T04:53:00Z,39.92,-76.88,-7.2,-9.4,0,0,,10.0,30.431103,1031.2,,TRUE,TRUE,,,,,,,CLR,,,,,,,,VFR,,,,1.7,-7.8,,,,,,,METAR,144.0
KTDZ 120453Z AUTO 09004KT 10SM CLR M04/M07 A3040 RMK AO2 SLP303 T10391072 410111056,KTDZ,2019-01-12T04:53:00Z,41.57,-83.48,-3.9,-7.2,90,4,,10.0,30.398623,1030.3,,TRUE,TRUE,,,,,,,CLR,,,,,,,,VFR,,,,-1.1,-5.6,,,,,,,METAR,189.0
KTLH 120453Z AUTO 09007KT 10SM OVC045 11/08 A3022 RMK AO2 SLP232 T01110078 401671017,KTLH,2019-01-12T04:53:00Z,30.4,-84.35,11.1,7.8,90,7,,10.0,30.221457,1023.2,,TRUE,TRUE,,,,,,,OVC,4500,,,,,,,VFR,,,,16.7,-1.7,,,,,,,METAR,19.0
KTMB 120453Z AUTO 04003KT 10SM FEW065 18/15 A3014 RMK AO2 SLP204 T01830150 402560106,KTMB,2019-01-12T04:53:00Z,25.65,-80.43,18.3,15.0,40,3,,10.0,30.138779,1020.4,,TRUE,TRUE,,,,,,,FEW,6500,,,,,,,VFR,,,,25.6,10.6,,,,,,,METAR,2.0
KTOP 120453Z AUTO 05007KT 1 1/2SM -SN BR BKN006 OVC009 01/M01 A3003 RMK AO2 SLP176 P0005 T00061006,KTOP,2019-01-12T04:53:00Z,39.07,-95.63,0.6,-0.6,50,7,,1.5,30.029528,1017.6,,TRUE,TRUE,,,,,,-SN BR,BKN,600,OVC,900,,,,,IFR,,,,,,0.05,,,,,,METAR,268.0
KTOR 120453Z AUTO 32008KT 10SM OVC055 01/00 A3018 RMK AO2 SLP231 T00110000,KTOR,2019-01-12T04:53:00Z,42.07,-104.15,1.1,0.0,320,8,,10.0,30.180119,1023.1,,TRUE,TRUE,,,,,,,OVC,5500,,,,,,,VFR,,,,,,,,,,,,METAR,1277.0
KTPA 120453Z 07005KT 10SM FEW048 SCT055 16/11 A3018 RMK AO2 SLP219 T01610106 402330078,KTPA,2019-01-12T04:53:00Z,27.97,-82.53,16.1,10.6,70,5,,10.0,30.180119,1021.9,,,TRUE,,,,,,,FEW,4800,SCT,5500,,,,,VFR,,,,23.3,7.8,,,,,,,METAR,11.0
KTRI 120453Z 00000KT 10SM SCT050 OVC100 03/M04 A3028 RMK AO2 SLP252 T00281039 400781089,KTRI,2019-01-12T04:53:00Z,36.48,-82.4,2.8,-3.9,0,0,,10.0,30.280512,1025.2,,,TRUE,,,,,,,SCT,5000,OVC,10000,,,,,VFR,,,,7.8,-8.9,,,,,,,METAR,474.0
KTRL 120453Z AUTO 14005KT 8SM -RA FEW010 BKN075 OVC095 09/08 A2996 RMK AO2 SLP143 P0001 T00940078,KTRL,2019-01-12T04:53:00Z,32.72,-96.27,9.4,7.8,140,5,,8.0,29.958662,1014.3,,TRUE,TRUE,,,,,,-RA,FEW,1000,BKN,7500,OVC,9500,,,VFR,,,,,,0.01,,,,,,METAR,145.0
KSTC 120453Z 06004KT 10SM CLR M06/M09 A3025 RMK AO2 SLP270 T10611094,KSTC,2019-01-12T04:53:00Z,45.55,-94.05,-6.1,-9.4,60,4,,10.0,30.250984,1027.0,,,TRUE,,,,,,,CLR,,,,,,,,VFR,,,,,,,,,,,,METAR,314.0
KVGT 120453Z AUTO 00000KT 10SM CLR 11/M01 A3010 RMK AO2 SLP209 T01111006 $,KVGT,2019-01-12T04:53:00Z,36.22,-115.2,11.1,-0.6,0,0,,10.0,30.100393,1020.9,,TRUE,TRUE,TRUE,,,,,,CLR,,,,,,,,VFR,,,,,,,,,,,,METAR,671.0
KVCB 120453Z AUTO 01004KT 8SM BKN075 OVC095 10/09 A2992 RMK AO2 SLP129 T01000094,KVCB,2019-01-12T04:53:00Z,38.38,-121.95,10.0,9.4,10,4,,8.0,29.920275,1012.9,,TRUE,TRUE,,,,,,,BKN,7500,OVC,9500,,,,,VFR,,,,,,,,,,,,METAR,33.0
KUUU 120453Z AUTO 32013G20KT 10SM CLR M08/M17 A3034 RMK AO2 SLP275 T10781172 410061083,KUUU,2019-01-12T04:53:00Z,41.53,-71.28,-7.8,-17.2,320,13,20,10.0,30.339567,1027.5,,TRUE,TRUE,,,,,,,CLR,,,,,,,,VFR,,,,-0.6,-8.3,,,,,,,METAR,51.0
KUTS 120453Z AUTO 16010G18KT 10SM BKN047 OVC060 14/11 A2995 RMK AO2 SLP140 T01390111,KUTS,2019-01-12T04:53:00Z,30.75,-95.58,13.9,11.1,160,10,18,10.0,29.949802,1014.0,,TRUE,TRUE,,,,,,,BKN,4700,OVC,6000,,,,,VFR,,,,,,,,,,,,METAR,104.0
KUIL 120453Z AUTO 06004KT 10SM CLR 05/03 A2986 RMK AO2 SLP113 T00500033 $,KUIL,2019-01-12T04:53:00Z,47.93,-124.55,5.0,3.3,60,4,,10.0,29.861221,1011.3,,TRUE,TRUE,TRUE,,,,,,CLR,,,,,,,,VFR,,,,,,,,,,,,METAR,54.0
KUAO 120453Z AUTO 06004KT 10SM CLR 05/01 A2992 RMK AO2 SLP132 T00500011,KUAO,2019-01-12T04:53:00Z,45.25,-122.77,5.0,1.1,60,4,,10.0,29.920275,1013.2,,TRUE,TRUE,,,,,,,CLR,,,,,,,,VFR,,,,,,,,,,,,METAR,59.0
KTYS 120453Z 00000KT 10SM BKN100 BKN120 05/M05 A3029 RMK AO2 SLP259 T00501050 400721050,KTYS,2019-01-12T04:53:00Z,35.82,-83.98,5.0,-5.0,0,0,,10.0,30.28937,1025.9,,,TRUE,,,,,,,BKN,10000,BKN,12000,,,,,VFR,,,,7.2,-5.0,,,,,,,METAR,302.0
KTXK 120453Z AUTO 04004KT 10SM OVC055 08/02 A3002 RMK AO2 SLP165 T00780017,KTXK,2019-01-12T04:53:00Z,33.45,-93.98,7.8,1.7,40,4,,10.0,30.02067,1016.5,,TRUE,TRUE,,,,,,,OVC,5500,,,,,,,VFR,,,,,,,,,,,,METAR,111.0
KTVR 120453Z AUTO 14006KT 10SM CLR 08/02 A3011 RMK AO2 SLP202 T00780017,KTVR,2019-01-12T04:53:00Z,32.35,-91.03,7.8,1.7,140,6,,10.0,30.109253,1020.2,,TRUE,TRUE,,,,,,,CLR,,,,,,,,VFR,,,,,,,,,,,,SPECI,26.0
KTVL 120453Z AUTO 19003KT 10SM CLR M02/M03 A2999 RMK AO2 SLP173 T10171028,KTVL,2019-01-12T04:53:00Z,38.9,-120.0,-1.7,-2.8,190,3,,10.0,29.991142,1017.3,,TRUE,TRUE,,,,,,,CLR,,,,,,,,VFR,,,,,,,,,,,,METAR,1924.0
KTUS 120453Z 17003KT 10SM CLR 08/05 A3012 RMK AO2 SLP189 T00830050,KTUS,2019-01-12T04:53:00Z,32.13,-110.95,8.3,5.0,170,3,,10.0,30.121063,1018.9,,,TRUE,,,,,,,CLR,,,,,,,,VFR,,,,,,,,,,,,METAR,776.0
KTUP 120453Z AUTO 10008KT 10SM OVC110 08/M03 A3017 RMK AO2 SLP217 T00831028,KTUP,2019-01-12T04:53:00Z,34.27,-88.77,8.3,-2.8,100,8,,10.0,30.171259,1021.7,,TRUE,TRUE,,,,,,,OVC,11000,,,,,,,VFR,,,,,,,,,,,,METAR,105.0
KTUL 120453Z 12007KT 7SM -RA OVC008 03/02 A2994 RMK AO2 SLP142 P0009 T00330022,KTUL,2019-01-12T04:53:00Z,36.2,-95.88,3.3,2.2,120,7,,7.0,29.940945,1014.2,,,TRUE,,,,,,-RA,OVC,800,,,,,,,IFR,,,,,,0.09,,,,,,METAR,207.0
KTTN 120453Z AUTO 34004KT 10SM CLR M06/M16 A3044 RMK AO2 SLP304 T10561156 400061056,KTTN,2019-01-12T04:53:00Z,40.28,-74.82,-5.6,-15.6,340,4,,10.0,30.43996,1030.4,,TRUE,TRUE,,,,,,,CLR,,,,,,,,VFR,,,,0.6,-5.6,,,,,,,METAR,59.0
KTTD 120453Z AUTO 09019G26KT 10SM CLR 07/01 A2996 RMK AO2 PK WND 09031/0410 SLP146 T00670011,KTTD,2019-01-12T04:53:00Z,45.55,-122.42,6.7,1.1,90,19,26,10.0,29.958662,1014.6,,TRUE,TRUE,,,,,,,CLR,,,,,,,,VFR,,,,,,,,,,,,METAR,14.0
KVUO 120453Z AUTO 00000KT 10SM CLR 02/01 A2995 RMK AO2 SLP141 T00220006,KVUO,2019-01-12T04:53:00Z,45.62,-122.65,2.2,0.6,0,0,,10.0,29.949802,1014.1,,TRUE,TRUE,,,,,,,CLR,,,,,,,,VFR,,,,,,,,,,,,METAR,8.0
KVRB 120453Z AUTO 10008KT 10SM CLR 19/11 A3018 RMK AO2 SLP219 T01890106 402330083,KVRB,2019-01-12T04:53:00Z,27.65,-80.42,18.9,10.6,100,8,,10.0,30.180119,1021.9,,TRUE,TRUE,,,,,,,CLR,,,,,,,,VFR,,,,23.3,8.3,,,,,,,METAR,10.0
KVPC 120453Z AUTO 00000KT 10SM BKN100 06/M03 A3029 RMK AO2 SLP254 T00611033 401221044,KVPC,2019-01-12T04:53:00Z,34.13,-84.85,6.1,-3.3,0,0,,10.0,30.28937,1025.4,,TRUE,TRUE,,,,,,,BKN,10000,,,,,,,VFR,,,,12.2,-4.4,,,,,,,SPECI,222.0
KVLD 120453Z AUTO 09007KT 10SM OVC041 09/02 A3026 RMK AO2 SLP255 T00940017 401611011,KVLD,2019-01-12T04:53:00Z,30.78,-83.27,9.4,1.7,90,7,,10.0,30.259842,1025.5,,TRUE,TRUE,,,,,,,OVC,4100,,,,,,,VFR,,,,16.1,-1.1,,,,,,,METAR,62.0
KWST 120453Z AUTO VRB05KT 10SM CLR M07/M18 A3038 RMK AO2 SLP287 T10721178 400001072,KWST,2019-01-12T04:53:00Z,41.35,-71.8,-7.2,-17.8,0,5,,10.0,30.380905,1028.7,,TRUE,TRUE,,,,,,,CLR,,,,,,,,VFR,,,,,-7.2,,,,,,,METAR,21.0
KWRL 120453Z AUTO 00000KT 1/4SM FZFG VV001 M03/M04 A3023 RMK AO2 SLP278 T10331039,KWRL,2019-01-12T04:53:00Z,43.97,-107.95,-3.3,-3.9,0,0,,0.25,30.230314,1027.8,,TRUE,TRUE,,,,,,FZFG,OVX,0,,,,,,,LIFR,,,,,,,,,,,100,METAR,1271.0
KWVI 120453Z AUTO 09004KT 10SM -RA OVC065 12/12 A2991 RMK AO2 SLP127 P0002 T01220117,KWVI,2019-01-12T04:53:00Z,36.93,-121.78,12.2,11.7,90,4,,10.0,29.911417,1012.7,,TRUE,TRUE,,,,,,-RA,OVC,6500,,,,,,,VFR,,,,,,0.02,,,,,,METAR,43.0
KMLT 120453Z AUTO 10SM CLR M16/M21 A3006 RMK AO2 PK WND 30026/0400 SLP193 T11561211 410941161,KMLT,2019-01-12T04:53:00Z,45.65,-68.7,-15.6,-21.1,,,,10.0,30.059055,1019.3,,TRUE,TRUE,,,,,,,CLR,,,,,,,,VFR,,,,-9.4,-16.1,,,,,,,METAR,123.0
KMLS 120453Z AUTO 03007KT 10SM CLR M06/M07 A3022 RMK AO2 SLP261 I1000 T10561067,KMLS,2019-01-12T04:53:00Z,46.43,-105.88,-5.6,-6.7,30,7,,10.0,30.221457,1026.1,,TRUE,TRUE,,,,,,,CLR,,,,,,,,VFR,,,,,,,,,,,,METAR,801.0
KTOI 120453Z AUTO 00000KT 10SM CLR 03/01 A3021 RMK AO2 SLP231 T00330011,KTOI,2019-01-12T04:53:00Z,31.85,-86.02,3.3,1.1,0,0,,10.0,30.209646,1023.1,,TRUE,TRUE,,,,,,,CLR,,,,,,,,VFR,,,,,,,,,,,,METAR,118.0
KMOD 120453Z 35005KT 4SM BR CLR 09/08 A2989 RMK AO2 SLP123 T00940083,KMOD,2019-01-12T04:53:00Z,37.62,-120.95,9.4,8.3,350,5,,4.0,29.890747,1012.3,,,TRUE,,,,,,BR,CLR,,,,,,,,MVFR,,,,,,,,,,,,METAR,29.0
KMNN 120453Z AUTO 08004KT 9SM CLR M05/M08 A3036 RMK AO2 SLP298 T10501078 410221056 $,KMNN,2019-01-12T04:53:00Z,40.62,-83.07,-5.0,-7.8,80,4,,9.0,30.360237,1029.8,,TRUE,TRUE,TRUE,,,,,,CLR,,,,,,,,VFR,,,,-2.2,-5.6,,,,,,,METAR,301.0
KMMV 120453Z AUTO 35008KT 10SM BKN100 07/02 A2992 RMK AO2 SLP131 T00720022,KMMV,2019-01-12T04:53:00Z,45.2,-123.13,7.2,2.2,350,8,,10.0,29.920275,1013.1,,TRUE,TRUE,,,,,,,BKN,10000,,,,,,,VFR,,,,,,,,,,,,METAR,48.0
KMMK 120453Z AUTO VRB06KT 10SM CLR M09/M19 A3041 RMK AO2 SLP299 T10891189 410171089,KMMK,2019-01-12T04:53:00Z,41.52,-72.83,-8.9,-18.9,0,6,,10.0,30.410433,1029.9,,TRUE,TRUE,,,,,,,CLR,,,,,,,,VFR,,,,-1.7,-8.9,,,,,,,METAR,31.0
KMLU 120453Z AUTO 11003KT 10SM OVC095 09/02 A3008 RMK AO2 SLP184 T00890022,KMLU,2019-01-12T04:53:00Z,32.52,-92.03,8.9,2.2,110,3,,10.0,30.079725,1018.4,,TRUE,TRUE,,,,,,,OVC,9500,,,,,,,VFR,,,,,,,,,,,,METAR,29.0
KMSL 120453Z AUTO 10006KT 10SM FEW090 07/M02 A3021 RMK AO2 SLP232 T00671017,KMSL,2019-01-12T04:53:00Z,34.75,-87.6,6.7,-1.7,100,6,,10.0,30.209646,1023.2,,TRUE,TRUE,,,,,,,FEW,9000,,,,,,,VFR,,,,,,,,,,,,METAR,164.0
KMRB 120453Z AUTO 00000KT 9SM CLR M06/M09 A3042 RMK AO2 SLP309 T10561089 400171061 $,KMRB,2019-01-12T04:53:00Z,39.4,-77.98,-5.6,-8.9,0,0,,9.0,30.41929,1030.9,,TRUE,TRUE,TRUE,,,,,,CLR,,,,,,,,VFR,,,,1.7,-6.1,,,,,,,METAR,164.0
KMPO 120453Z AUTO 30008KT 10SM CLR M12/M16 A3030 RMK AO2 SLP300 T11171161 410671117 $,KMPO,2019-01-12T04:53:00Z,41.13,-75.38,-11.7,-16.1,300,8,,10.0,30.301182,1030.0,,TRUE,TRUE,TRUE,,,,,,CLR,,,,,,,,VFR,,,,-6.7,-11.7,,,,,,,METAR,577.0
KMSN 120453Z 14006KT 9SM OVC070 M02/M06 A3029 RMK AO2 SLP270 LAST T10221056,KMSN,2019-01-12T04:53:00Z,43.13,-89.35,-2.2,-5.6,140,6,,9.0,30.28937,1027.0,,,TRUE,,,,,,,OVC,7000,,,,,,,VFR,,,,,,,,,,,,METAR,261.0
KMSP 120453Z 08005KT 10SM BKN250 M03/M07 A3025 RMK AO2 SLP257 T10331072,KMSP,2019-01-12T04:53:00Z,44.88,-93.23,-3.3,-7.2,80,5,,10.0,30.250984,1025.7,,,TRUE,,,,,,,BKN,25000,,,,,,,VFR,,,,,,,,,,,,METAR,265.0
KMSS 120453Z AUTO 27006G14KT 10SM CLR M15/M21 A3047 RMK AO2 SLP329 T11501206 411281194,KMSS,2019-01-12T04:53:00Z,44.93,-74.85,-15.0,-20.6,270,6,14,10.0,30.469488,1032.9,,TRUE,TRUE,,,,,,,CLR,,,,,,,,VFR,,,,-12.8,-19.4,,,,,,,METAR,66.0
KMSY 120453Z 09005KT 10SM SCT250 12/11 A3013 RMK AO2 SLP205 T01170106 $,KMSY,2019-01-12T04:53:00Z,30.0,-90.25,11.7,10.6,90,5,,10.0,30.129921,1020.5,,,TRUE,TRUE,,,,,,SCT,25000,,,,,,,VFR,,,,,,,,,,,,METAR,5.0
KMTH 120453Z AUTO 03004KT 10SM CLR 21/17 A3012 RMK AO2 SLP198 T02060167 402390156,KMTH,2019-01-12T04:53:00Z,24.73,-81.05,20.6,16.7,30,4,,10.0,30.121063,1019.8,,TRUE,TRUE,,,,,,,CLR,,,,,,,,VFR,,,,23.9,15.6,,,,,,,METAR,2.0
KMVY 120453Z AUTO 32011G20KT 10SM CLR M08/M18 A3033 RMK AO2 SLP270 T10781178 400001078,KMVY,2019-01-12T04:53:00Z,41.4,-70.62,-7.8,-17.8,320,11,20,10.0,30.33071,1027.0,,TRUE,TRUE,,,,,,,CLR,,,,,,,,VFR,,,,,-7.8,,,,,,,METAR,16.0
KMTO 120453Z AUTO 14007KT 1 1/4SM -SN BR OVC021 M02/M03 A3026 RMK AO2 SLP255 P0001 T10221028,KMTO,2019-01-12T04:53:00Z,39.47,-88.27,-2.2,-2.8,140,7,,1.25,30.259842,1025.5,,TRUE,TRUE,,,,,,-SN BR,OVC,2100,,,,,,,IFR,,,,,,0.01,,,,,,METAR,214.0
KMYV 120453Z AUTO 36003KT 8SM CLR 09/08 A2992 RMK AO2 SLP134 T00890078,KMYV,2019-01-12T04:53:00Z,39.1,-121.57,8.9,7.8,360,3,,8.0,29.920275,1013.4,,TRUE,TRUE,,,,,,,CLR,,,,,,,,VFR,,,,,,,,,,,,METAR,21.0
KMYF 120453Z 00000KT 5SM HZ OVC009 13/11 A3000 RMK AO2 SLP157 T01330106,KMYF,2019-01-12T04:53:00Z,32.82,-117.13,13.3,10.6,0,0,,5.0,30.0,1015.7,,,TRUE,,,,,,HZ,OVC,900,,,,,,,IFR,,,,,,,,,,,,METAR,136.0
KNEW 120453Z AUTO 10008KT 10SM CLR 12/11 A3013 RMK AO2 SLP197 T01220106,KNEW,2019-01-12T04:53:00Z,30.05,-90.03,12.2,10.6,100,8,,10.0,30.129921,1019.7,,TRUE,TRUE,,,,,,,CLR,,,,,,,,VFR,,,,,,,,,,,,METAR,3.0
KODO 120453Z AUTO 32009KT 10SM CLR 08/03 A3000 RMK AO2 SLP140 T00830033,KODO,2019-01-12T04:53:00Z,31.92,-102.4,8.3,3.3,320,9,,10.0,30.0,1014.0,,TRUE,TRUE,,,,,,,CLR,,,,,,,,VFR,,,,,,,,,,,,METAR,902.0
KOAK 120453Z 14012KT 10SM -RA FEW025 SCT049 BKN065 OVC130 13/11 A2988 RMK AO2 RAB0357 SLP119 P0002 T01330106,KOAK,2019-01-12T04:53:00Z,37.72,-122.23,13.3,10.6,140,12,,10.0,29.878937,1011.9,,,TRUE,,,,,,-RA,FEW,2500,SCT,4900,BKN,6500,OVC,13000,VFR,,,,,,0.02,,,,,,METAR,26.0
KODX 120453Z AUTO 01012KT 10SM SCT120 M01/M03 A3013 RMK AO2 SLP224 T10061028,KODX,2019-01-12T04:53:00Z,41.62,-98.95,-0.6,-2.8,10,12,,10.0,30.129921,1022.4,,TRUE,TRUE,,,,,,,SCT,12000,,,,,,,VFR,,,,,,,,,,,,METAR,631.0
KOGB 120453Z AUTO 00000KT 10SM CLR M01/M04 A3037 RMK AO2 SLP286 T10061039 400831022,KOGB,2019-01-12T04:53:00Z,33.47,-80.85,-0.6,-3.9,0,0,,10.0,30.369095,1028.6,,TRUE,TRUE,,,,,,,CLR,,,,,,,,VFR,,,,8.3,-2.2,,,,,,,METAR,59.0
KYKM 120453Z 25005KT 10SM CLR 01/M01 A3014 RMK AO2 SLP218 T00061011,KYKM,2019-01-12T04:53:00Z,46.57,-120.53,0.6,-1.1,250,5,,10.0,30.138779,1021.8,,,TRUE,,,,,,,CLR,,,,,,,,VFR,,,,,,,,,,,,METAR,324.0
KYIP 120453Z 08003KT 10SM OVC075 M03/M07 A3040 RMK AO2 SLP301 T10281072 410061094,KYIP,2019-01-12T04:53:00Z,42.23,-83.53,-2.8,-7.2,80,3,,10.0,30.398623,1030.1,,,TRUE,,,,,,,OVC,7500,,,,,,,VFR,,,,-0.6,-9.4,,,,,,,METAR,215.0
KZZV 120453Z AUTO 08003KT 10SM CLR M03/M08 A3037 RMK AO2 SLP296 T10331083 410061044 $,KZZV,2019-01-12T04:53:00Z,39.95,-81.9,-3.3,-8.3,80,3,,10.0,30.369095,1029.6,,TRUE,TRUE,TRUE,,,,,,CLR,,,,,,,,VFR,,,,-0.6,-4.4,,,,,,,METAR,268.0
TISX 120453Z AUTO 36005KT 10SM CLR 22/20 A3004 RMK AO2 SLP170 T02170200,TISX,2019-01-12T04:53:00Z,17.7,-64.8,21.7,20.0,360,5,,10.0,30.041338,1017.0,,TRUE,TRUE,,,,,,,CLR,,,,,,,,VFR,,,,,,,,,,,,SPECI,19.0
PHLI 120453Z 07003KT 10SM SCT028 BKN036 23/19 A3003 RMK AO2 SLP165 T02330189,PHLI,2019-01-12T04:53:00Z,21.97,-159.33,23.3,18.9,70,3,,10.0,30.029528,1016.5,,,TRUE,,,,,,,SCT,2800,BKN,3600,,,,,VFR,,,,,,,,,,,,METAR,45.0
PHKO 120453Z 29007KT 10SM FEW030 SCT055 24/19 A3001 RMK AO2 SLP161 T02440189,PHKO,2019-01-12T04:53:00Z,19.73,-156.05,24.4,18.9,290,7,,10.0,30.008858,1016.1,,,TRUE,,,,,,,FEW,3000,SCT,5500,,,,,VFR,,,,,,,,,,,,SPECI,27.0
TIST 120453Z AUTO 06004KT 10SM CLR 23/19 A3003 RMK AO2 SLP170 T02280194,TIST,2019-01-12T04:53:00Z,18.33,-64.98,22.8,19.4,60,4,,10.0,30.029528,1017.0,,TRUE,TRUE,,,,,,,CLR,,,,,,,,VFR,,,,,,,,,,,,SPECI,7.0
KP68 120453Z AUTO 01003KT M06/M06 A3015 RMK AO1 SLP237 T10611061,KP68,2019-01-12T04:53:00Z,39.6,-116.0,-6.1,-6.1,10,3,,,30.15059,1023.7,,TRUE,TRUE,,,,,,,,,,,,,,,,,,,,,,,,,,,METAR,1809.0
KSUN 120453Z 34009KT 10SM SKC M07/M09 A3027,KSUN,2019-01-12T04:53:00Z,43.5,-114.28,-7.0,-9.0,340,9,,10.0,30.268702,,,,,,,,,,,SKC,,,,,,,,VFR,,,,,,,,,,,,METAR,1620.0
PANT 120453Z AUTO 00000KT 10SM SCT026 OVC042 04/04 A2976 RMK SLP080 T00390039 TSNO $ VIA AUTODIAL,PANT,2019-01-12T04:53:00Z,55.03,-131.57,3.9,3.9,0,0,,10.0,29.760826,1008.0,,TRUE,,TRUE,,TRUE,,,,SCT,2600,OVC,4200,,,,,VFR,,,,,,,,,,,,SPECI,36.0
PABR 120453Z 04011KT 6SM HZ OVC055 M28/M32 A3035 RMK SLP280 T12831317 VIA AUTODIAL,PABR,2019-01-12T04:53:00Z,71.28,-156.77,-28.3,-31.7,40,11,,6.0,30.351377,1028.0,,,,,,,,,HZ,OVC,5500,,,,,,,VFR,,,,,,,,,,,,METAR,7.0
PAQT 120453Z AUTO 03007KT 10SM OVC021 M33/M36 A3027 RMK SLP251 T13281356 TSNO VIA AUTODIAL,PAQT,2019-01-12T04:53:00Z,70.22,-151.0,-32.8,-35.6,30,7,,10.0,30.268702,1025.1,,TRUE,,,,TRUE,,,,OVC,2100,,,,,,,MVFR,,,,,,,,,,,,SPECI,12.0
PAKW 120453Z AUTO 00000KT 10SM OVC045 02/02 A2974 RMK SLP071 T00220022 TSNO VIA AUTODIAL,PAKW,2019-01-12T04:53:00Z,55.58,-133.07,2.2,2.2,0,0,,10.0,29.740158,1007.1,,TRUE,,,,TRUE,,,,OVC,4500,,,,,,,VFR,,,,,,,,,,,,SPECI,15.0
PAWD 120453Z AUTO 01012G18KT 10SM BKN050 M13/M18 A2971 RMK SLP059 T11331178 TSNO PNO $ VIA AUTODIAL,PAWD,2019-01-12T04:53:00Z,60.12,-149.42,-13.3,-17.8,10,12,18,10.0,29.71063,1005.9,,TRUE,,TRUE,,TRUE,,,,BKN,5000,,,,,,,VFR,,,,,,,,,,,,METAR,23.0
MUCM 120453Z 05006KT 9000 NSC 19/18 Q1018,MUCM,2019-01-12T04:53:00Z,21.42,-77.85,19.0,18.0,50,6,,5.59,30.059055,,,,,,,,,,,CLR,,,,,,,,VFR,,,,,,,,,,,,METAR,122.0
K6R6 120453Z AUTO 28006KT 10/09 A2998 RMK AO1 SLP140 T01000094,K6R6,2019-01-12T04:53:00Z,30.05,-102.22,10.0,9.4,280,6,,,29.97933,1014.0,,TRUE,TRUE,,,,,,,,,,,,,,,,,,,,,,,,,,,METAR,701.0
KP69 120452Z AUTO 00000KT M01/M02 A3024 RMK AO1 SLP262 T10061017 TSNO,KP69,2019-01-12T04:52:00Z,46.15,-115.6,-0.6,-1.7,0,0,,,30.239174,1026.2,,TRUE,TRUE,,,TRUE,,,,,,,,,,,,,,,,,,,,,,,,SPECI,480.0
KNFW 120452Z 18010KT 10SM OVC008 13/11 A2990 RMK AO2 CIG 004 N SLP110 T01280111 VISNO N $,KNFW,2019-01-12T04:52:00Z,32.78,-97.43,12.8,11.1,180,10,,10.0,29.899607,1011.0,,,TRUE,TRUE,,,,,,OVC,800,,,,,,,IFR,,,,,,,,,,,,METAR,198.0
KVTN 120452Z AUTO 03006KT 10SM CLR M02/M04 A3018 RMK AO2 SLP246 T10221039,KVTN,2019-01-12T04:52:00Z,42.87,-100.55,-2.2,-3.9,30,6,,10.0,30.180119,1024.6,,TRUE,TRUE,,,,,,,CLR,,,,,,,,VFR,,,,,,,,,,,,METAR,788.0
KMBG 120452Z AUTO 01007KT 8SM OVC007 M09/M12 A3028 RMK AO2 SNB18E24 SLP281 P0000 T10891117,KMBG,2019-01-12T04:52:00Z,45.55,-100.42,-8.9,-11.7,10,7,,8.0,30.280512,1028.1,,TRUE,TRUE,,,,,,,OVC,700,,,,,,,IFR,,,,,,0.005,,,,,,METAR,510.0
KISN 120452Z AUTO 00000KT 10SM CLR M14/M17 A3034 RMK AO2 SLP323 T11391167,KISN,2019-01-12T04:52:00Z,48.17,-103.63,-13.9,-16.7,0,0,,10.0,30.339567,1032.3,,TRUE,TRUE,,,,,,,CLR,,,,,,,,VFR,,,,,,,,,,,,METAR,579.0
KIOW 120452Z AUTO 12006KT 10SM OVC085 M01/M05 A3025 RMK AO2 SLP251 T10111050,KIOW,2019-01-12T04:52:00Z,41.63,-91.55,-1.1,-5.0,120,6,,10.0,30.250984,1025.1,,TRUE,TRUE,,,,,,,OVC,8500,,,,,,,VFR,,,,,,,,,,,,METAR,198.0
KIEN 120452Z AUTO 00000KT 10SM CLR 00/M01 A3018 RMK AO2 SLP243 T00001006,KIEN,2019-01-12T04:52:00Z,43.03,-102.52,0.0,-0.6,0,0,,10.0,30.180119,1024.3,,TRUE,TRUE,,,,,,,CLR,,,,,,,,VFR,,,,,,,,,,,,METAR,998.0
KIAD 120452Z 02005KT 10SM FEW250 M02/M09 A3044 RMK AO2 SLP312 T10221094 400221044,KIAD,2019-01-12T04:52:00Z,38.93,-77.45,-2.2,-9.4,20,5,,10.0,30.43996,1031.2,,,TRUE,,,,,,,FEW,25000,,,,,,,VFR,,,,2.2,-4.4,,,,,,,METAR,93.0
KHRL 120452Z 27008KT 10SM SCT037 BKN100 19/18 A2998 RMK AO2 LTG DSNT NE AND E RAE21 SLP151 P0020 T01940178,KHRL,2019-01-12T04:52:00Z,26.23,-97.65,19.4,17.8,270,8,,10.0,29.97933,1015.1,,,TRUE,,,,,,,SCT,3700,BKN,10000,,,,,VFR,,,,,,0.2,,,,,,METAR,10.0
KHIE 120452Z AUTO 22004KT 10SM CLR M18/M22 A3025 RMK AO2 SLP273 T11831222 411171206,KHIE,2019-01-12T04:52:00Z,44.37,-71.55,-18.3,-22.2,220,4,,10.0,30.250984,1027.3,,TRUE,TRUE,,,,,,,CLR,,,,,,,,VFR,,,,-11.7,-20.6,,,,,,,METAR,318.0
KGLS 120452Z AUTO 12011KT 10SM FEW030 SCT080 OVC100 17/16 A2998 RMK AO2 RAE03B31E45 SLP152 P0000 T01670156 $,KGLS,2019-01-12T04:52:00Z,29.27,-94.87,16.7,15.6,120,11,,10.0,29.97933,1015.2,,TRUE,TRUE,TRUE,,,,,,FEW,3000,SCT,8000,OVC,10000,,,VFR,,,,,,0.005,,,,,,METAR,6.0
KFIT 120452Z AUTO 30006KT 10SM CLR M12/M19 A3034 RMK AO2 SLP283 T11171194 410441117,KFIT,2019-01-12T04:52:00Z,42.55,-71.75,-11.7,-19.4,300,6,,10.0,30.339567,1028.3,,TRUE,TRUE,,,,,,,CLR,,,,,,,,VFR,,,,-4.4,-11.7,,,,,,,METAR,103.0
KEST 120452Z AUTO 04005KT 8SM CLR M05/M06 A3017 RMK AO2 SLP238 T10501056,KEST,2019-01-12T04:52:00Z,43.4,-94.75,-5.0,-5.6,40,5,,8.0,30.171259,1023.8,,TRUE,TRUE,,,,,,,CLR,,,,,,,,VFR,,,,,,,,,,,,METAR,401.0
KDVN 120452Z AUTO 13008KT 10SM FEW035 OVC080 M01/M06 A3027 RMK AO2 SLP257 T10111056,KDVN,2019-01-12T04:52:00Z,41.62,-90.58,-1.1,-5.6,130,8,,10.0,30.268702,1025.7,,TRUE,TRUE,,,,,,,FEW,3500,OVC,8000,,,,,VFR,,,,,,,,,,,,METAR,230.0
KDPA 120452Z 12005KT 7SM OVC080 M02/M06 A3030 RMK AO2 SLP269 T10171061,KDPA,2019-01-12T04:52:00Z,41.92,-88.25,-1.7,-6.1,120,5,,7.0,30.301182,1026.9,,,TRUE,,,,,,,OVC,8000,,,,,,,VFR,,,,,,,,,,,,METAR,231.0
KDCA 120452Z 35004KT 10SM OVC250 M01/M10 A3046 RMK AO2 SLP315 T10111100 400391017,KDCA,2019-01-12T04:52:00Z,38.85,-77.03,-1.1,-10.0,350,4,,10.0,30.46063,1031.5,,,TRUE,,,,,,,OVC,25000,,,,,,,VFR,,,,3.9,-1.7,,,,,,,SPECI,18.0
KCVG 120452Z 13006KT 10SM OVC080 M01/M07 A3033 RMK AO2 SLP276 T10061067 400111033,KCVG,2019-01-12T04:52:00Z,39.05,-84.67,-0.6,-6.7,130,6,,10.0,30.33071,1027.6,,,TRUE,,,,,,,OVC,8000,,,,,,,VFR,,,,1.1,-3.3,,,,,,,SPECI,269.0
KCQX 120452Z AUTO 31011G16KT 10SM CLR M07/M15 A3030 RMK AO2 SLP263 T10671150 400001067,KCQX,2019-01-12T04:52:00Z,41.68,-70.0,-6.7,-15.0,310,11,16,10.0,30.301182,1026.3,,TRUE,TRUE,,,,,,,CLR,,,,,,,,VFR,,,,,-6.7,,,,,,,METAR,19.0
KCNU 120452Z AUTO 12008KT 9SM -RA OVC006 02/02 A2999 RMK AO2 CIG 004V008 SLP159 P0004 T00220022,KCNU,2019-01-12T04:52:00Z,37.67,-95.48,2.2,2.2,120,8,,9.0,29.991142,1015.9,,TRUE,TRUE,,,,,,-RA,OVC,600,,,,,,,IFR,,,,,,0.04,,,,,,SPECI,297.0
KCLT 120452Z 12004KT 10SM BKN100 OVC130 04/M07 A3039 RMK AO2 SLP292 T00391072 400831039,KCLT,2019-01-12T04:52:00Z,35.22,-80.95,3.9,-7.2,120,4,,10.0,30.389763,1029.2,,,TRUE,,,,,,,BKN,10000,OVC,13000,,,,,VFR,,,,8.3,-3.9,,,,,,,SPECI,220.0
KCKV 120452Z AUTO 09006KT 9SM UP FEW070 OVC085 01/M02 A3023 RMK AO2 RAB13E38UPB38SNE13 SLP241 P0005 I1000 T00111017,KCKV,2019-01-12T04:52:00Z,36.62,-87.42,1.1,-1.7,90,6,,9.0,30.230314,1024.1,,TRUE,TRUE,,,,,,UP,FEW,7000,OVC,8500,,,,,VFR,,,,,,0.05,,,,,,METAR,165.0
KCID 120452Z 13008KT 9SM OVC090 M02/M05 A3021 RMK AO2 SLP241 T10171050,KCID,2019-01-12T04:52:00Z,41.88,-91.72,-1.7,-5.0,130,8,,9.0,30.209646,1024.1,,,TRUE,,,,,,,OVC,9000,,,,,,,VFR,,,,,,,,,,,,METAR,264.0
KBML 120452Z AUTO 29008G15KT 240V330 10SM BKN040 M17/M23 A3020 RMK AO2 SLP258 T11721228 411171183,KBML,2019-01-12T04:52:00Z,44.58,-71.18,-17.2,-22.8,290,8,15,10.0,30.200787,1025.8,,TRUE,TRUE,,,,,,,BKN,4000,,,,,,,VFR,,,,-11.7,-18.3,,,,,,,METAR,345.0
KBLU 120452Z AUTO 00000KT 10SM CLR 07/M08 A2997 RMK AO2 SLP121 T00671078,KBLU,2019-01-12T04:52:00Z,39.28,-120.7,6.7,-7.8,0,0,,10.0,29.970472,1012.1,,TRUE,TRUE,,,,,,,CLR,,,,,,,,VFR,,,,,,,,,,,,METAR,1609.0
KBLH 120452Z AUTO 01006KT 10SM CLR 11/08 A3005 RMK AO2 SLP174 T01110078,KBLH,2019-01-12T04:52:00Z,33.62,-114.72,11.1,7.8,10,6,,10.0,30.050198,1017.4,,TRUE,TRUE,,,,,,,CLR,,,,,,,,VFR,,,,,,,,,,,,METAR,119.0
KBLF 120452Z AUTO 00000KT 10SM OVC080 00/M12 A3026 RMK AO2 SLP267 T00001117 400281094,KBLF,2019-01-12T04:52:00Z,37.3,-81.2,0.0,-11.7,0,0,,10.0,30.259842,1026.7,,TRUE,TRUE,,,,,,,OVC,8000,,,,,,,VFR,,,,2.8,-9.4,,,,,,,METAR,873.0
KBIS 120452Z 02006KT 7SM OVC009 M11/M12 A3035 RMK AO2 SNB0355E28 SLP313 P0000 T11061117,KBIS,2019-01-12T04:52:00Z,46.77,-100.75,-10.6,-11.7,20,6,,7.0,30.351377,1031.3,,,TRUE,,,,,,,OVC,900,,,,,,,IFR,,,,,,0.005,,,,,,METAR,505.0
KBDR 120452Z AUTO 32006KT 10SM CLR M07/M17 A3042 RMK AO2 SLP300 T10721172 400061072,KBDR,2019-01-12T04:52:00Z,41.17,-73.13,-7.2,-17.2,320,6,,10.0,30.41929,1030.0,,TRUE,TRUE,,,,,,,CLR,,,,,,,,VFR,,,,0.6,-7.2,,,,,,,METAR,7.0
KATL 120452Z 11007KT 10SM FEW100 SCT140 BKN250 06/M05 A3029 RMK AO2 SLP260 T00611050 401221011,KATL,2019-01-12T04:52:00Z,33.63,-84.45,6.1,-5.0,110,7,,10.0,30.28937,1026.0,,,TRUE,,,,,,,FEW,10000,SCT,14000,BKN,25000,,,VFR,,,,12.2,-1.1,,,,,,,METAR,296.0
KARR 120452Z AUTO 11008KT 8SM OVC080 M01/M06 A3030 RMK AO2 SLP269 T10111056 TSNO,KARR,2019-01-12T04:52:00Z,41.77,-88.48,-1.1,-5.6,110,8,,8.0,30.301182,1026.9,,TRUE,TRUE,,,TRUE,,,,OVC,8000,,,,,,,VFR,,,,,,,,,,,,METAR,215.0
KAQW 120452Z AUTO 28009KT 10SM CLR M13/M18 A3037 RMK AO2 SLP298 T11281178 410561133,KAQW,2019-01-12T04:52:00Z,42.7,-73.17,-12.8,-17.8,280,9,,10.0,30.369095,1029.8,,TRUE,TRUE,,,,,,,CLR,,,,,,,,VFR,,,,-5.6,-13.3,,,,,,,METAR,199.0
KAFN 120452Z AUTO 28008KT 10SM CLR M13/M21 A3027 RMK AO2 SLP278 T11331206 410671133,KAFN,2019-01-12T04:52:00Z,42.8,-72.0,-13.3,-20.6,280,8,,10.0,30.268702,1027.8,,TRUE,TRUE,,,,,,,CLR,,,,,,,,VFR,,,,-6.7,-13.3,,,,,,,METAR,313.0
KABQ 120452Z 35006KT 10SM FEW035 BKN044 OVC060 04/M02 A3011 RMK AO2 SLP191 MTNS OBSC NE-SE T00391022,KABQ,2019-01-12T04:52:00Z,35.05,-106.62,3.9,-2.2,350,6,,10.0,30.109253,1019.1,,,TRUE,,,,,,,FEW,3500,BKN,4400,OVC,6000,,,VFR,,,,,,,,,,,,METAR,1618.0
KABI 120452Z 29010KT 10SM CLR 10/09 A2995 RMK AO2 SLP135 T01000089,KABI,2019-01-12T04:52:00Z,32.42,-99.68,10.0,8.9,290,10,,10.0,29.949802,1013.5,,,TRUE,,,,,,,CLR,,,,,,,,VFR,,,,,,,,,,,,METAR,548.0
PATA 120452Z 00000KT 10SM CLR M43/ A3004 RMK AO2 SLP186 T1428 PNO $,PATA,2019-01-12T04:52:00Z,65.17,-152.1,-42.8,,0,0,,10.0,30.041338,1018.6,,,TRUE,TRUE,,,,,,CLR,,,,,,,,VFR,,,,,,,,,,,,METAR,67.0
KTRM 120452Z AUTO 00000KT 10SM CLR 12/06 A3002 RMK AO2 SLP166 T01170056 TSNO,KTRM,2019-01-12T04:52:00Z,33.63,-116.17,11.7,5.6,0,0,,10.0,30.02067,1016.6,,TRUE,TRUE,,,TRUE,,,,CLR,,,,,,,,VFR,,,,,,,,,,,,SPECI,-35.0
KTOL 120452Z 08003KT 10SM CLR M05/M08 A3038 RMK AO2 SLP299 T10501083 410061056,KTOL,2019-01-12T04:52:00Z,41.58,-83.8,-5.0,-8.3,80,3,,10.0,30.380905,1029.9,,,TRUE,,,,,,,CLR,,,,,,,,VFR,,,,-0.6,-5.6,,,,,,,METAR,210.0
KTAN 120452Z AUTO 29007KT 10SM CLR M08/M19 A3034 RMK AO2 SLP273 T10831194 410061083,KTAN,2019-01-12T04:52:00Z,41.88,-71.02,-8.3,-19.4,290,7,,10.0,30.339567,1027.3,,TRUE,TRUE,,,,,,,CLR,,,,,,,,VFR,,,,-0.6,-8.3,,,,,,,METAR,7.0
KSGF 120452Z 14014KT 5SM -RA BR SCT009 OVC035 01/M01 A3002 RMK AO2 SLP174 P0005 T00111011,KSGF,2019-01-12T04:52:00Z,37.23,-93.38,1.1,-1.1,140,14,,5.0,30.02067,1017.4,,,TRUE,,,,,,-RA BR,SCT,900,OVC,3500,,,,,MVFR,,,,,,0.05,,,,,,SPECI,390.0
KPYM 120452Z AUTO 30012G17KT 10SM CLR M09/M20 A3032 RMK AO2 SLP269 T10891200 410061089,KPYM,2019-01-12T04:52:00Z,41.92,-70.73,-8.9,-20.0,300,12,17,10.0,30.318897,1026.9,,TRUE,TRUE,,,,,,,CLR,,,,,,,,VFR,,,,-0.6,-8.9,,,,,,,METAR,43.0
KPWK 120452Z AUTO 16006KT 10SM OVC075 00/M06 A3033 RMK AO2 SLP279 T00001061,KPWK,2019-01-12T04:52:00Z,42.12,-87.9,0.0,-6.1,160,6,,10.0,30.33071,1027.9,,TRUE,TRUE,,,,,,,OVC,7500,,,,,,,VFR,,,,,,,,,,,,METAR,203.0
KORE 120452Z AUTO VRB04KT 10SM CLR M12/M21 A3035 RMK AO2 SLP289 T11171206 410441117,KORE,2019-01-12T04:52:00Z,42.57,-72.28,-11.7,-20.6,0,4,,10.0,30.351377,1028.9,,TRUE,TRUE,,,,,,,CLR,,,,,,,,VFR,,,,-4.4,-11.7,,,,,,,METAR,164.0
KOKC 120452Z 15015G22KT 8SM -RA OVC003 07/06 A2981 RMK AO2 RAB23 SLP098 P0001 T00670061,KOKC,2019-01-12T04:52:00Z,35.38,-97.6,6.7,6.1,150,15,22,8.0,29.811024,1009.8,,,TRUE,,,,,,-RA,OVC,300,,,,,,,LIFR,,,,,,0.01,,,,,,SPECI,390.0
KOKB 120452Z AUTO 12005KT 5SM BR OVC014 13/12 A2999 RMK AO2 SLP155 T01330117,KOKB,2019-01-12T04:52:00Z,33.22,-117.35,13.3,11.7,120,5,,5.0,29.991142,1015.5,,TRUE,TRUE,,,,,,BR,OVC,1400,,,,,,,MVFR,,,,,,,,,,,,METAR,8.0
KMWH 120452Z 36007KT 10SM CLR 01/M01 A3014 RMK AO2 SLP219 T00061011,KMWH,2019-01-12T04:52:00Z,47.2,-119.32,0.6,-1.1,360,7,,10.0,30.138779,1021.9,,,TRUE,,,,,,,CLR,,,,,,,,VFR,,,,,,,,,,,,METAR,362.0
KMLI 120452Z AUTO 11005KT 10SM OVC095 M01/M04 A3026 RMK AO2 SLP253 T10061044,KMLI,2019-01-12T04:52:00Z,41.45,-90.52,-0.6,-4.4,110,5,,10.0,30.259842,1025.3,,TRUE,TRUE,,,,,,,OVC,9500,,,,,,,VFR,,,,,,,,,,,,METAR,184.0
KMLF 120452Z AUTO 35007KT 1/4SM FZFG VV002 M01/M02 A3022 RMK AO2 SLP243 I1005 T10111022,KMLF,2019-01-12T04:52:00Z,38.42,-113.02,-1.1,-2.2,350,7,,0.25,30.221457,1024.3,,TRUE,TRUE,,,,,,FZFG,OVX,0,,,,,,,LIFR,,,,,,,,,,,200,METAR,1534.0
KMKE 120452Z 00000KT 7SM OVC075 M01/M06 A3032 RMK AO2 SLP278 T10061061,KMKE,2019-01-12T04:52:00Z,42.95,-87.9,-0.6,-6.1,0,0,,7.0,30.318897,1027.8,,,TRUE,,,,,,,OVC,7500,,,,,,,VFR,,,,,,,,,,,,METAR,206.0
KMHK 120452Z AUTO 04007KT 2SM -SN BR OVC005 01/01 A3002 RMK AO2 SLP173 P0003 T00110006,KMHK,2019-01-12T04:52:00Z,39.13,-96.68,1.1,0.6,40,7,,2.0,30.02067,1017.3,,TRUE,TRUE,,,,,,-SN BR,OVC,500,,,,,,,IFR,,,,,,0.03,,,,,,SPECI,317.0
KMFD 120452Z AUTO 11003KT 10SM CLR M05/M08 A3035 RMK AO2 SLP298 T10501083 410221061,KMFD,2019-01-12T04:52:00Z,40.82,-82.52,-5.0,-8.3,110,3,,10.0,30.351377,1029.8,,TRUE,TRUE,,,,,,,CLR,,,,,,,,VFR,,,,-2.2,-6.1,,,,,,,METAR,395.0
KMEB 120452Z AUTO 34004KT 10SM CLR M02/M06 A3042 RMK AO2 SLP304 T10221056 400721050,KMEB,2019-01-12T04:52:00Z,34.78,-79.37,-2.2,-5.6,340,4,,10.0,30.41929,1030.4,,TRUE,TRUE,,,,,,,CLR,,,,,,,,VFR,,,,7.2,-5.0,,,,,,,SPECI,67.0
KMDH 120452Z AUTO 09008KT 6SM UP BR OVC009 M01/M02 A3021 RMK AO2 UPB51SNE51 SLP234 P0003 T10111017,KMDH,2019-01-12T04:52:00Z,37.78,-89.25,-1.1,-1.7,90,8,,6.0,30.209646,1023.4,,TRUE,TRUE,,,,,,BR UP,OVC,900,,,,,,,IFR,,,,,,0.03,,,,,,METAR,130.0
KCDJ 120452Z AUTO VRB05KT M01/M01 A3013 RMK AO1 SLP214 P0007 T10061011 $,KCDJ,2019-01-12T04:52:00Z,39.82,-93.58,-0.6,-1.1,0,5,,,30.129921,1021.4,,TRUE,TRUE,TRUE,,,,,,,,,,,,,,,,,,,,0.07,,,,,,SPECI,234.0
KN60 120452Z AUTO 03006KT M12/M13 A3034 RMK AO1 SLP319 T11171133,KN60,2019-01-12T04:52:00Z,47.65,-101.43,-11.7,-13.3,30,6,,,30.339567,1031.9,,TRUE,TRUE,,,,,,,,,,,,,,,,,,,,,,,,,,,METAR,582.0
KNRB 120452Z AUTO 05016KT 10SM CLR 14/09 A3025 RMK AO2 SLP242 T01440089 401610072 TSNO $,KNRB,2019-01-12T04:52:00Z,30.38,-81.42,14.4,8.9,50,16,,10.0,30.250984,1024.2,,TRUE,TRUE,TRUE,,TRUE,,,,CLR,,,,,,,,VFR,,,,16.1,7.2,,,,,,,SPECI,5.0
KBAN 120452Z AUTO 00000KT 10SM CLR 01/M07 A3000 RMK AO2 SLP172 T00061067 $,KBAN,2019-01-12T04:52:00Z,38.35,-119.52,0.6,-6.7,0,0,,10.0,30.0,1017.2,,TRUE,TRUE,TRUE,,,,,,CLR,,,,,,,,VFR,,,,,,,,,,,,METAR,2057.0
KNZY 120452Z 12007KT 9SM BKN012 16/11 A3000 RMK AO2 SLP157 T01560111 PNO $,KNZY,2019-01-12T04:52:00Z,32.7,-117.22,15.6,11.1,120,7,,9.0,30.0,1015.7,,,TRUE,TRUE,,,,,,BKN,1200,,,,,,,MVFR,,,,,,,,,,,,METAR,8.0
KCZZ 120452Z AUTO 06014KT 10/02 A2999 RMK AO1 SLP140 T01000017,KCZZ,2019-01-12T04:52:00Z,32.63,-116.47,10.0,1.7,60,14,,,29.991142,1014.0,,TRUE,TRUE,,,,,,,,,,,,,,,,,,,,,,,,,,,METAR,807.0
KREO 120452Z AUTO 04007KT M03/M04 A3009 RMK AO1 SLP221 T10281039,KREO,2019-01-12T04:52:00Z,42.58,-117.87,-2.8,-3.9,40,7,,,30.088583,1022.1,,TRUE,TRUE,,,,,,,,,,,,,,,,,,,,,,,,,,,METAR,1235.0
KSUX 120452Z AUTO 32003KT 10SM CLR M01/M03 A3016 RMK AO2 SLP227 T10111028,KSUX,2019-01-12T04:52:00Z,42.38,-96.38,-1.1,-2.8,320,3,,10.0,30.159449,1022.7,,TRUE,TRUE,,,,,,,CLR,,,,,,,,VFR,,,,,,,,,,,,METAR,338.0
KIJD 120452Z AUTO 34009G16KT 10SM CLR M10/M17 A3038 RMK AO2 SLP291 T11001172 410281100,KIJD,2019-01-12T04:52:00Z,41.75,-72.18,-10.0,-17.2,340,9,16,10.0,30.380905,1029.1,,TRUE,TRUE,,,,,,,CLR,,,,,,,,VFR,,,,-2.8,-10.0,,,,,,,METAR,75.0
KNHK 120452Z AUTO 31005KT 10SM CLR M01/M08 A3045 RMK AO2 SLP310 T10061078 400391022,KNHK,2019-01-12T04:52:00Z,38.27,-76.4,-0.6,-7.8,310,5,,10.0,30.448818,1031.0,,TRUE,TRUE,,,,,,,CLR,,,,,,,,VFR,,,,3.9,-2.2,,,,,,,METAR,12.0
MUCU 120452Z 01006KT 9000 FEW020 21/16 Q1017,MUCU,2019-01-12T04:52:00Z,19.97,-75.83,21.0,16.0,10,6,,5.59,30.029528,,,,,,,,,,,FEW,2000,,,,,,,VFR,,,,,,,,,,,,METAR,76.0
MMMZ 120452Z 01004KT 10SM SKC 20/20 A2998 RMK HZY,MMMZ,2019-01-12T04:52:00Z,23.17,-106.27,20.0,20.0,10,4,,10.0,29.97933,,,,,,,,,,,SKC,,,,,,,,VFR,,,,,,,,,,,,METAR,10.0
KPHX 120451Z 08004KT 10SM FEW180 BKN250 13/08 A3006 RMK AO2 SLP173 T01280078,KPHX,2019-01-12T04:51:00Z,33.43,-112.02,12.8,7.8,80,4,,10.0,30.059055,1017.3,,,TRUE,,,,,,,FEW,18000,BKN,25000,,,,,VFR,,,,,,,,,,,,METAR,336.0
KP59 120451Z AUTO VRB04KT M03/M07 A3040 RMK AO1 SLP310 T10331067 410281100,KP59,2019-01-12T04:51:00Z,47.47,-87.88,-3.3,-6.7,0,4,,,30.398623,1031.0,,TRUE,TRUE,,,,,,,,,,,,,,,,,,,-2.8,-10.0,,,,,,,METAR,190.0
PTYA 120451Z 05012KT 12SM SCT016CB BKN120 OVC300 29/26 A2978 RMK CB ALQDS SLP084 T02870259,PTYA,2019-01-12T04:51:00Z,9.48,138.08,28.7,25.9,50,12,,12.0,29.778543,1008.4,,,,,,,,,,SCT,1600,BKN,12000,OVC,30000,,,VFR,,,,,,,,,,,,METAR,17.0
KP58 120451Z AUTO 00000KT M04/M08 A3041 RMK AO1 SLP312 T10391078 410391056,KP58,2019-01-12T04:51:00Z,44.02,-82.8,-3.9,-7.8,0,0,,,30.410433,1031.2,,TRUE,TRUE,,,,,,,,,,,,,,,,,,,-3.9,-5.6,,,,,,,METAR,179.0
KVCT 120451Z AUTO 26010G20KT 1SM VCTS +RA BR BKN006 BKN012 OVC023 17/16 A2994 RMK AO2 LTG DSNT S RAB0353 SLP136 P0030 T01670156,KVCT,2019-01-12T04:51:00Z,28.87,-96.93,16.7,15.6,260,10,20,1.0,29.940945,1013.6,,TRUE,TRUE,,,,,,VCTS +RA BR,BKN,600,BKN,1200,OVC,2300,,,IFR,,,,,,0.3,,,,,,METAR,31.0
KTEB 120451Z 31013KT 10SM CLR M06/M16 A3043 RMK AO2 SLP305 T10561156 400001061 $,KTEB,2019-01-12T04:51:00Z,40.87,-74.05,-5.6,-15.6,310,13,,10.0,30.431103,1030.5,,,TRUE,TRUE,,,,,,CLR,,,,,,,,VFR,,,,,-6.1,,,,,,,SPECI,7.0
KSMX 120451Z AUTO 20008KT 8SM -RA FEW041 OVC049 14/09 A2991 RMK AO2 RAB11 SLP130 P0000 T01440089,KSMX,2019-01-12T04:51:00Z,34.9,-120.45,14.4,8.9,200,8,,8.0,29.911417,1013.0,,TRUE,TRUE,,,,,,-RA,FEW,4100,OVC,4900,,,,,VFR,,,,,,0.005,,,,,,SPECI,74.0
KSMO 120451Z AUTO 07003KT 5SM HZ CLR 13/10 A2998 RMK AO2 SLP152 T01330100,KSMO,2019-01-12T04:51:00Z,34.02,-118.45,13.3,10.0,70,3,,5.0,29.97933,1015.2,,TRUE,TRUE,,,,,,HZ,CLR,,,,,,,,MVFR,,,,,,,,,,,,METAR,57.0
KSLK 120451Z AUTO A3027 RMK AO2 SLPNO PWINO FZRANO,KSLK,2019-01-12T04:51:00Z,44.4,-74.2,,,,,,,30.268702,,,TRUE,TRUE,,,,TRUE,TRUE,,,,,,,,,,,,,,,,,,,,,,METAR,498.0
KSJT 120451Z AUTO 23011KT 10SM FEW016 12/11 A2995 RMK AO2 SLP138 T01220106,KSJT,2019-01-12T04:51:00Z,31.37,-100.5,12.2,10.6,230,11,,10.0,29.949802,1013.8,,TRUE,TRUE,,,,,,,FEW,1600,,,,,,,VFR,,,,,,,,,,,,METAR,576.0
KSAT 120451Z 26004KT 3SM BR OVC004 15/14 A2997 RMK AO2 SFC VIS 5 SLP138 T01500144,KSAT,2019-01-12T04:51:00Z,29.53,-98.47,15.0,14.4,260,4,,3.0,29.970472,1013.8,,,TRUE,,,,,,BR,OVC,400,,,,,,,LIFR,,,,,,,,,,,,METAR,243.0
KSAN 120451Z 16004KT 10SM OVC012 14/11 A3002 RMK AO2 SLP164 T01440106,KSAN,2019-01-12T04:51:00Z,32.73,-117.18,14.4,10.6,160,4,,10.0,30.02067,1016.4,,,TRUE,,,,,,,OVC,1200,,,,,,,MVFR,,,,,,,,,,,,METAR,12.0
KSAD 120451Z AUTO 36005KT 10SM CLR 06/03 A3011 RMK AO2 SLP189 T00610033,KSAD,2019-01-12T04:51:00Z,32.85,-109.63,6.1,3.3,360,5,,10.0,30.109253,1018.9,,TRUE,TRUE,,,,,,,CLR,,,,,,,,VFR,,,,,,,,,,,,SPECI,962.0
KROW 120451Z 34007KT 10SM SCT060 SCT075 06/03 A3004 RMK AO2 SLP147 T00610028,KROW,2019-01-12T04:51:00Z,33.3,-104.5,6.1,2.8,340,7,,10.0,30.041338,1014.7,,,TRUE,,,,,,,SCT,6000,SCT,7500,,,,,VFR,,,,,,,,,,,,SPECI,1112.0
KRDU 120451Z 00000KT 10SM OVC210 M01/M08 A3042 RMK AO2 SLP304 T10061083 400611061,KRDU,2019-01-12T04:51:00Z,35.9,-78.78,-0.6,-8.3,0,0,,10.0,30.41929,1030.4,,,TRUE,,,,,,,OVC,21000,,,,,,,VFR,,,,6.1,-6.1,,,,,,,METAR,130.0
KPWM 120451Z 28005KT 10SM CLR M14/M20 A3028 RMK AO2 SLP254 LAST T11441200 410501150,KPWM,2019-01-12T04:51:00Z,43.65,-70.3,-14.4,-20.0,280,5,,10.0,30.280512,1025.4,,,TRUE,,,,,,,CLR,,,,,,,,VFR,,,,-5.0,-15.0,,,,,,,METAR,15.0
KPVD 120451Z 32008KT 10SM FEW150 FEW220 M09/M18 A3035 RMK AO2 SLP278 LAST T10891178 410061089,KPVD,2019-01-12T04:51:00Z,41.72,-71.43,-8.9,-17.8,320,8,,10.0,30.351377,1027.8,,,TRUE,,,,,,,FEW,15000,FEW,22000,,,,,VFR,,,,-0.6,-8.9,,,,,,,SPECI,16.0
KPIT 120451Z 00000KT 10SM OVC090 M06/M09 A3037 RMK AO2 SLP311 T10561089 410171072,KPIT,2019-01-12T04:51:00Z,40.5,-80.27,-5.6,-8.9,0,0,,10.0,30.369095,1031.1,,,TRUE,,,,,,,OVC,9000,,,,,,,VFR,,,,-1.7,-7.2,,,,,,,METAR,357.0
KOXR 120451Z AUTO 07005KT 7SM CLR 12/09 A2995 RMK AO2 SLP143 T01170094,KOXR,2019-01-12T04:51:00Z,34.2,-119.2,11.7,9.4,70,5,,7.0,29.949802,1014.3,,TRUE,TRUE,,,,,,,CLR,,,,,,,,VFR,,,,,,,,,,,,SPECI,20.0
KORF 120451Z 02008KT 10SM CLR 03/M07 A3043 RMK AO2 SLP303 T00281067 400391011,KORF,2019-01-12T04:51:00Z,36.9,-76.2,2.8,-6.7,20,8,,10.0,30.431103,1030.3,,,TRUE,,,,,,,CLR,,,,,,,,VFR,,,,3.9,-1.1,,,,,,,METAR,14.0
KORD 120451Z 15006KT 10SM OVC080 M01/M06 A3031 RMK AO2 SLP273 T10111056,KORD,2019-01-12T04:51:00Z,41.98,-87.93,-1.1,-5.6,150,6,,10.0,30.31004,1027.3,,,TRUE,,,,,,,OVC,8000,,,,,,,VFR,,,,,,,,,,,,METAR,200.0
KMPV 120451Z AUTO 32017G23KT 10SM CLR M17/M21 A3030 RMK AO2 SLP292 T11671206 411221189,KMPV,2019-01-12T04:51:00Z,44.2,-72.57,-16.7,-20.6,320,17,23,10.0,30.301182,1029.2,,TRUE,TRUE,,,,,,,CLR,,,,,,,,VFR,,,,-12.2,-18.9,,,,,,,METAR,343.0
KLGA 120451Z 30009KT 10SM CLR M04/M17 A3043 RMK AO2 SLP303 T10441167 400001056,KLGA,2019-01-12T04:51:00Z,40.78,-73.88,-4.4,-16.7,300,9,,10.0,30.431103,1030.3,,,TRUE,,,,,,,CLR,,,,,,,,VFR,,,,,-5.6,,,,,,,METAR,11.0
KJFK 120451Z 31009KT 10SM CLR M05/M16 A3044 RMK AO2 SLP308 T10501161 400001056,KJFK,2019-01-12T04:51:00Z,40.63,-73.77,-5.0,-16.1,310,9,,10.0,30.43996,1030.8,,,TRUE,,,,,,,CLR,,,,,,,,VFR,,,,,-5.6,,,,,,,METAR,9.0
KJCT 120451Z AUTO 24004KT 10SM OVC013 13/12 A2998 RMK AO2 SLP131 T01330117,KJCT,2019-01-12T04:51:00Z,30.5,-99.77,13.3,11.7,240,4,,10.0,29.97933,1013.1,,TRUE,TRUE,,,,,,,OVC,1300,,,,,,,MVFR,,,,,,,,,,,,METAR,522.0
KILG 120451Z 03003KT 10SM CLR M04/M12 A3046 RMK AO2 SLP315 T10391122 400221044,KILG,2019-01-12T04:51:00Z,39.67,-75.6,-3.9,-12.2,30,3,,10.0,30.46063,1031.5,,,TRUE,,,,,,,CLR,,,,,,,,VFR,,,,2.2,-4.4,,,,,,,METAR,28.0
KIGM 120451Z AUTO 00000KT 10SM CLR 06/M01 A3012 RMK AO2 SLP171 T00561011,KIGM,2019-01-12T04:51:00Z,35.25,-113.93,5.6,-1.1,0,0,,10.0,30.121063,1017.1,,TRUE,TRUE,,,,,,,CLR,,,,,,,,VFR,,,,,,,,,,,,SPECI,1032.0
KHTS 120451Z 05005KT 10SM OVC100 M01/M08 A3033 RMK AO2 SLP278 T10111078 400171039,KHTS,2019-01-12T04:51:00Z,38.37,-82.55,-1.1,-7.8,50,5,,10.0,30.33071,1027.8,,,TRUE,,,,,,,OVC,10000,,,,,,,VFR,,,,1.7,-3.9,,,,,,,SPECI,254.0
KHSE 120451Z AUTO 03006KT 10SM CLR 04/M03 A3042 RMK AO2 SLP299 T00391028 400670017 TSNO,KHSE,2019-01-12T04:51:00Z,35.23,-75.62,3.9,-2.8,30,6,,10.0,30.41929,1029.9,,TRUE,TRUE,,,TRUE,,,,CLR,,,,,,,,VFR,,,,6.7,1.7,,,,,,,METAR,3.0
KEWR 120451Z 29008KT 10SM CLR M05/M17 A3044 RMK AO2 SLP307 T10501172 400061061,KEWR,2019-01-12T04:51:00Z,40.68,-74.17,-5.0,-17.2,290,8,,10.0,30.43996,1030.7,,,TRUE,,,,,,,CLR,,,,,,,,VFR,,,,0.6,-6.1,,,,,,,METAR,7.0
KERI 120451Z 16003KT 10SM OVC085 M07/M11 A3043 RMK AO2 SLP317 T10671111 410391083,KERI,2019-01-12T04:51:00Z,42.08,-80.18,-6.7,-11.1,160,3,,10.0,30.431103,1031.7,,,TRUE,,,,,,,OVC,8500,,,,,,,VFR,,,,-3.9,-8.3,,,,,,,METAR,222.0
KELP 120451Z 31013KT 10SM FEW080 11/00 A3007 RMK AO2 SLP150 T01110000,KELP,2019-01-12T04:51:00Z,31.82,-106.38,11.1,0.0,310,13,,10.0,30.070866,1015.0,,,TRUE,,,,,,,FEW,8000,,,,,,,VFR,,,,,,,,,,,,SPECI,1197.0
KEKN 120451Z AUTO 00000KT 9SM CLR M07/M09 A3032 RMK AO2 SLP304 T10671094 410221078 TSNO,KEKN,2019-01-12T04:51:00Z,38.88,-79.85,-6.7,-9.4,0,0,,9.0,30.318897,1030.4,,TRUE,TRUE,,,TRUE,,,,CLR,,,,,,,,VFR,,,,-2.2,-7.8,,,,,,,SPECI,603.0
KDAW 120451Z AUTO VRB04KT 10SM CLR M14/M21 A3028 RMK AO2 SLP256 T11391206 410611139,KDAW,2019-01-12T04:51:00Z,43.28,-70.92,-13.9,-20.6,0,4,,10.0,30.280512,1025.6,,TRUE,TRUE,,,,,,,CLR,,,,,,,,VFR,,,,-6.1,-13.9,,,,,,,METAR,100.0
KCSG 120451Z AUTO 10006KT 10SM CLR 07/M02 A3025 RMK AO2 SLP241 T00721022 401441017,KCSG,2019-01-12T04:51:00Z,32.52,-84.95,7.2,-2.2,100,6,,10.0,30.250984,1024.1,,TRUE,TRUE,,,,,,,CLR,,,,,,,,VFR,,,,14.4,-1.7,,,,,,,METAR,135.0
KCON 120451Z AUTO 28007KT 10SM CLR M14/M20 A3032 RMK AO2 SLP276 T11391200 410611139,KCON,2019-01-12T04:51:00Z,43.2,-71.5,-13.9,-20.0,280,7,,10.0,30.318897,1027.6,,TRUE,TRUE,,,,,,,CLR,,,,,,,,VFR,,,,-6.1,-13.9,,,,,,,SPECI,103.0
KCMH 120451Z 09003KT 10SM BKN180 M03/M07 A3036 RMK AO2 SLP291 T10281072 410061033,KCMH,2019-01-12T04:51:00Z,40.0,-82.88,-2.8,-7.2,90,3,,10.0,30.360237,1029.1,,,TRUE,,,,,,,BKN,18000,,,,,,,VFR,,,,-0.6,-3.3,,,,,,,METAR,247.0
KCLE 120451Z 00000KT 10SM OVC110 M03/M09 A3043 RMK AO2 SLP313 T10281089 410061039 $,KCLE,2019-01-12T04:51:00Z,41.42,-81.85,-2.8,-8.9,0,0,,10.0,30.431103,1031.3,,,TRUE,TRUE,,,,,,OVC,11000,,,,,,,VFR,,,,-0.6,-3.9,,,,,,,METAR,233.0
KCAK 120451Z 13004KT 10SM BKN090 OVC250 M04/M09 A3037 RMK AO2 SLP302 T10441094 410111072,KCAK,2019-01-12T04:51:00Z,40.92,-81.45,-4.4,-9.4,130,4,,10.0,30.369095,1030.2,,,TRUE,,,,,,,BKN,9000,OVC,25000,,,,,VFR,,,,-1.1,-7.2,,,,,,,SPECI,377.0
KBKW 120451Z AUTO 12006KT 10SM OVC085 00/M10 A3025 RMK AO2 SLP279 T00001100 400001083 $,KBKW,2019-01-12T04:51:00Z,37.8,-81.12,0.0,-10.0,120,6,,10.0,30.250984,1027.9,,TRUE,TRUE,TRUE,,,,,,OVC,8500,,,,,,,VFR,,,,,-8.3,,,,,,,SPECI,764.0
KBHK 120451Z AUTO 12008KT 1/2SM FZFG VV002 M06/M06 A3023 RMK AO2 SLP266 I1001 T10611061,KBHK,2019-01-12T04:51:00Z,46.35,-104.25,-6.1,-6.1,120,8,,0.5,30.230314,1026.6,,TRUE,TRUE,,,,,,FZFG,OVX,0,,,,,,,LIFR,,,,,,,,,,,200,METAR,902.0
KBGD 120451Z AUTO 35013KT 10SM BKN014 OVC021 02/M01 A2996 RMK AO2 SLP149 T00171011,KBGD,2019-01-12T04:51:00Z,35.7,-101.4,1.7,-1.1,350,13,,10.0,29.958662,1014.9,,TRUE,TRUE,,,,,,,BKN,1400,OVC,2100,,,,,MVFR,,,,,,,,,,,,METAR,927.0
KBDL 120451Z 33014KT 10SM FEW035 M11/M18 A3039 RMK AO2 SLP293 T11061178 410281111,KBDL,2019-01-12T04:51:00Z,41.93,-72.68,-10.6,-17.8,330,14,,10.0,30.389763,1029.3,,,TRUE,,,,,,,FEW,3500,,,,,,,VFR,,,,-2.8,-11.1,,,,,,,SPECI,60.0
KALB 120451Z 32010KT 10SM FEW110 M11/M16 A3044 RMK AO2 SLP312 T11111161 410441111,KALB,2019-01-12T04:51:00Z,42.75,-73.8,-11.1,-16.1,320,10,,10.0,30.43996,1031.2,,,TRUE,,,,,,,FEW,11000,,,,,,,VFR,,,,-4.4,-11.1,,,,,,,SPECI,92.0
KAHN 120451Z AUTO 10006KT 10SM BKN100 03/M05 A3032 RMK AO2 SLP271 T00331050 401171033,KAHN,2019-01-12T04:51:00Z,33.95,-83.33,3.3,-5.0,100,6,,10.0,30.318897,1027.1,,TRUE,TRUE,,,,,,,BKN,10000,,,,,,,VFR,,,,11.7,-3.3,,,,,,,METAR,244.0
KABE 120451Z AUTO 34011KT 10SM CLR M05/M16 A3043 RMK AO2 SLP312 T10501156 400111067,KABE,2019-01-12T04:51:00Z,40.65,-75.45,-5.0,-15.6,340,11,,10.0,30.431103,1031.2,,TRUE,TRUE,,,,,,,CLR,,,,,,,,VFR,,,,1.1,-6.7,,,,,,,SPECI,114.0
KYNG 120451Z 10005KT 10SM BKN085 M05/M09 A3038 RMK AO2 SLP305 T10501094 410171078 $,KYNG,2019-01-12T04:51:00Z,41.25,-80.67,-5.0,-9.4,100,5,,10.0,30.380905,1030.5,,,TRUE,TRUE,,,,,,BKN,8500,,,,,,,VFR,,,,-1.7,-7.8,,,,,,,SPECI,360.0
FAEO 120451Z AUTO 35008KT //// // ////// 19/15 Q1018,FAEO,2019-01-12T04:51:00Z,-26.5,29.97,19.0,15.0,350,8,,,30.059055,,,TRUE,,,,,,,,,,,,,,,,,,,,,,,,,,,,SPECI,1737.0
KBVE 120451Z AUTO 00000KT 10SM FEW038 12/09 A3013 RMK AO2 SLP204 T01170094,KBVE,2019-01-12T04:51:00Z,29.32,-89.4,11.7,9.4,0,0,,10.0,30.129921,1020.4,,TRUE,TRUE,,,,,,,FEW,3800,,,,,,,VFR,,,,,,,,,,,,SPECI,1.0
KNYC 120451Z AUTO 10SM CLR M06/M17 A3044 RMK AO2 SLP302 T10561167 410111061 $,KNYC,2019-01-12T04:51:00Z,40.78,-73.97,-5.6,-16.7,,,,10.0,30.43996,1030.2,,TRUE,TRUE,TRUE,,,,,,CLR,,,,,,,,VFR,,,,-1.1,-6.1,,,,,,,METAR,11.0
KSNT 120451Z AUTO 00000KT M18/M21 A3026 RMK AO1 SLP313 T11781211,KSNT,2019-01-12T04:51:00Z,44.17,-114.93,-17.8,-21.1,0,0,,,30.259842,1031.3,,TRUE,TRUE,,,,,,,,,,,,,,,,,,,,,,,,,,,METAR,1980.0
KTPL 120451Z AUTO 17008KT 10SM SCT100 13/13 A2994 RMK AO2 RAE13 SLP155 P0000 T01280128,KTPL,2019-01-12T04:51:00Z,31.13,-97.4,12.8,12.8,170,8,,10.0,29.940945,1015.5,,TRUE,TRUE,,,,,,,SCT,10000,,,,,,,VFR,,,,,,0.005,,,,,,METAR,208.0
KOXC 120451Z AUTO 35010KT 10SM CLR M10/M17 A3035 RMK AO2 SLP302 T11001167 410331100 FZRANO,KOXC,2019-01-12T04:51:00Z,41.47,-73.13,-10.0,-16.7,350,10,,10.0,30.351377,1030.2,,TRUE,TRUE,,,,TRUE,,,CLR,,,,,,,,VFR,,,,-3.3,-10.0,,,,,,,METAR,222.0
KOCF 120451Z AUTO 06004KT 10SM OVC048 11/09 A3022 RMK AO2 SLP237 T01110094 $,KOCF,2019-01-12T04:51:00Z,29.17,-82.22,11.1,9.4,60,4,,10.0,30.221457,1023.7,,TRUE,TRUE,TRUE,,,,,,OVC,4800,,,,,,,VFR,,,,,,,,,,,,METAR,27.0
PAMD 120451Z AUTO 00000KT 10SM OVC045 01/M05 A2965 RMK AO2 SLP031 T00111050 FZRANO,PAMD,2019-01-12T04:51:00Z,59.43,-146.3,1.1,-5.0,0,0,,10.0,29.648623,1003.1,,TRUE,TRUE,,,,TRUE,,,OVC,4500,,,,,,,VFR,,,,,,,,,,,,METAR,14.0
PKMR 120451Z 09008KT 15SM FEW015 SCT050 SCT120 OVC300 29/25 A2971 RMK SLP061 T02890251,PKMR,2019-01-12T04:51:00Z,7.08,171.38,28.9,25.1,90,8,,15.0,29.71063,1006.1,,,,,,,,,,FEW,1500,SCT,5000,SCT,12000,OVC,30000,VFR,,,,,,,,,,,,METAR,4.0
MMPR 120451Z 13002KT 10SM FEW130 SCT250 24/24 A2997 RMK 8/038 HZY,MMPR,2019-01-12T04:51:00Z,20.67,-105.25,24.0,24.0,130,2,,10.0,29.970472,,,,,,,,,,,FEW,13000,SCT,25000,,,,,VFR,,,,,,,,,,,,METAR,6.0
OIHM 120451Z 00000KT CAVOK M04/M10 Q1022,OIHM,2019-01-12T04:51:00Z,34.28,48.82,-4.0,-10.0,0,0,,6.21,30.177166,,,,,,,,,,,CAVOK,,,,,,,,VFR,,,,,,,,,,,,METAR,1726.0
OIHH 120451Z 00000KT CAVOK M08/M10 Q1020,OIHH,2019-01-12T04:51:00Z,34.87,48.55,-8.0,-10.0,0,0,,6.21,30.11811,,,,,,,,,,,CAVOK,,,,,,,,VFR,,,,,,,,,,,,METAR,1757.0
OICJ 120451Z 01004KT CAVOK M03/M08 Q1022,OICJ,2019-01-12T04:51:00Z,33.9,48.75,-3.0,-8.0,10,4,,6.21,30.177166,,,,,,,,,,,CAVOK,,,,,,,,VFR,,,,,,,,,,,,METAR,1600.0
OODQ 120450Z AUTO 33017KT CAVOK 17/12 Q1018 NOSIG,OODQ,2019-01-12T04:50:00Z,19.52,57.65,17.0,12.0,330,17,,6.21,30.059055,,,TRUE,,,TRUE,,,,,CAVOK,,,,,,,,VFR,,,,,,,,,,,,METAR,0.0
OAKB 120450Z 30002KT 2500 1000SE BR SCT040 02/M03 Q1021 NOSIG RMK A3017 R1129//95 YLO YLO,OAKB,2019-01-12T04:50:00Z,34.55,69.22,2.0,-3.0,300,2,,1.55,30.147638,,,,,,TRUE,,,,BR,SCT,4000,,,,,,,IFR,,,,,,,,,,,,SPECI,1791.0
KNQA 120450Z 11006KT 10SM BKN070 OVC080 04/01 A3012,KNQA,2019-01-12T04:50:00Z,35.35,-89.87,4.0,1.0,110,6,,10.0,30.121063,,,,,,,,,,,BKN,7000,OVC,8000,,,,,VFR,,,,,,,,,,,,METAR,86.0
TJBQ 120450Z 00000KT 10SM SCT060 19/16 A3005,TJBQ,2019-01-12T04:50:00Z,18.5,-67.13,19.0,16.0,0,0,,10.0,30.050198,,,,,,,,,,,SCT,6000,,,,,,,VFR,,,,,,,,,,,,METAR,72.0
EGXZ 120450Z AUTO 26012KT 9999 BKN027/// BKN050/// 10/07 Q1019,EGXZ,2019-01-12T04:50:00Z,54.2,-1.38,10.0,7.0,260,12,,6.21,30.088583,,,TRUE,,,,,,,,BKN,2700,BKN,5000,,,,,MVFR,,,,,,,,,,,,METAR,28.0
EGXT 120450Z AUTO 25015KT 9999 SCT025/// SCT060/// BKN190/// 08/06 Q1022,EGXT,2019-01-12T04:50:00Z,52.62,-0.47,8.0,6.0,250,15,,6.21,30.177166,,,TRUE,,,,,,,,SCT,2500,SCT,6000,BKN,19000,,,VFR,,,,,,,,,,,,METAR,84.0
EGWU 120450Z AUTO 26009KT 9999 // OVC020/// 08/04 Q1026,EGWU,2019-01-12T04:50:00Z,51.55,-0.42,8.0,4.0,260,9,,6.21,30.295275,,,TRUE,,,,,,,,OVC,2000,,,,,,,MVFR,,,,,,,,,,,,METAR,40.0
EGVO 120450Z AUTO 24010KT 9999 BKN018/// 07/05 Q1026,EGVO,2019-01-12T04:50:00Z,51.23,-0.95,7.0,5.0,240,10,,6.21,30.295275,,,TRUE,,,,,,,,BKN,1800,,,,,,,MVFR,,,,,,,,,,,,METAR,123.0
EGUW 120450Z AUTO 25009KT 9999 OVC020/// 06/04 Q1023,EGUW,2019-01-12T04:50:00Z,52.12,0.97,6.0,4.0,250,9,,6.21,30.206694,,,TRUE,,,,,,,,OVC,2000,,,,,,,MVFR,,,,,,,,,,,,METAR,87.0
EGUB 120450Z AUTO 25008KT 9999 // OVC019/// 09/06 Q1026,EGUB,2019-01-12T04:50:00Z,51.62,-1.07,9.0,6.0,250,8,,6.21,30.295275,,,TRUE,,,,,,,,OVC,1900,,,,,,,MVFR,,,,,,,,,,,,METAR,63.0
EGDX 120450Z AUTO 28012KT 7000 HZ BKN011/// 09/07 Q1027,EGDX,2019-01-12T04:50:00Z,51.4,-3.43,9.0,7.0,280,12,,4.35,30.324802,,,TRUE,,,,,,,HZ,BKN,1100,,,,,,,MVFR,,,,,,,,,,,,METAR,50.0
EGQK 120450Z AUTO 24015KT 9999 BKN035/// SCT045/// 08/05 Q1012 RERA,EGQK,2019-01-12T04:50:00Z,57.65,-3.57,8.0,5.0,240,15,,6.21,29.88189,,,TRUE,,,,,,,,BKN,3500,SCT,4500,,,,,VFR,,,,,,,,,,,,METAR,7.0
EGOS 120450Z AUTO 24013KT 9999 BKN024/// 09/07 Q1023,EGOS,2019-01-12T04:50:00Z,52.8,-2.67,9.0,7.0,240,13,,6.21,30.206694,,,TRUE,,,,,,,,BKN,2400,,,,,,,MVFR,,,,,,,,,,,,METAR,76.0
LGSO 120450Z 35010KT 9999 -RA FEW014 SCT018TCU BKN025 11/07 Q1009,LGSO,2019-01-12T04:50:00Z,37.42,24.95,11.0,7.0,350,10,,6.21,29.793306,,,,,,,,,,-RA,FEW,1400,SCT,1800,BKN,2500,,,MVFR,,,,,,,,,,,,METAR,72.0
LGHI 120450Z VRB03KT 9999 FEW018TCU BKN025 11/09 Q1009,LGHI,2019-01-12T04:50:00Z,38.32,26.12,11.0,9.0,0,3,,6.21,29.793306,,,,,,,,,,,FEW,1800,BKN,2500,,,,,MVFR,,,,,,,,,,,,METAR,4.0
EETU 120450Z AUTO 27011KT 9999 NCD M02/M03 Q0992,EETU,2019-01-12T04:50:00Z,58.32,26.68,-2.0,-3.0,270,11,,6.21,29.291338,,,TRUE,,,,,,,,CLR,,,,,,,,VFR,,,,,,,,,,,,METAR,67.0
EEKE 120450Z AUTO 31006KT 280V350 9999NDV NCD 02/M01 Q0997,EEKE,2019-01-12T04:50:00Z,58.23,22.52,2.0,-1.0,310,6,,,29.438976,,,TRUE,,,,,,,,CLR,,,,,,,,,,,,,,,,,,,,METAR,4.0
EEKA 120450Z 32013KT 9999 SCT023 02/M00 Q0995,EEKA,2019-01-12T04:50:00Z,58.98,22.83,2.0,0.0,320,13,,6.21,29.379921,,,,,,,,,,,SCT,2300,,,,,,,VFR,,,,,,,,,,,,METAR,4.0
LOXZ 120450Z VRB03KT 20KM FEW060SC SCT240CI BKN300CI M08/M11 Q1014,LOXZ,2019-01-12T04:50:00Z,47.2,14.75,-8.0,-11.0,0,3,,12.43,29.940945,,,,,,,,,,,,,,,,,,,,,,,,,,,,,,,METAR,682.0
ENGC 120450Z 21022KT 9999 -RA SCT012 BKN020 07/06 Q0998 W07/S5,ENGC,2019-01-12T04:50:00Z,61.02,2.02,7.0,6.0,210,22,,6.21,29.468504,,,,,,,,,,-RA,SCT,1200,BKN,2000,,,,,MVFR,,,,,,,,,,,,METAR,10.0
ENEV 120450Z 30007KT 250V340 9999 FEW006 SCT017 BKN032 M02/M05 Q0993 RMK WIND 1400FT 30014KT,ENEV,2019-01-12T04:50:00Z,68.52,16.67,-2.0,-5.0,300,7,,6.21,29.320866,,,,,,,,,,,FEW,600,SCT,1700,BKN,3200,,,VFR,,,,,,,,,,,,METAR,26.0
ENAT 120450Z AUTO 32031KT 9999 FEW019/// 01/M01 Q0979 RMK WIND 700FT 33044KT,ENAT,2019-01-12T04:50:00Z,69.97,23.37,1.0,-1.0,320,31,,6.21,28.90748,,,TRUE,,,,,,,,FEW,1900,,,,,,,VFR,,,,,,,,,,,,METAR,3.0
LCRA 120450Z 04010KT CAVOK 12/07 Q1015 NOSIG,LCRA,2019-01-12T04:50:00Z,34.57,32.97,12.0,7.0,40,10,,6.21,29.970472,,,,,,TRUE,,,,,CAVOK,,,,,,,,VFR,,,,,,,,,,,,METAR,23.0
PTRO 120450Z 07010G15KT 15SM BK016TCU BKN120 BKN300 30/24 A2978,PTRO,2019-01-12T04:50:00Z,7.37,134.55,30.0,24.0,70,10,15,15.0,29.778543,,,,,,,,,,,BKN,12000,BKN,30000,,,,,VFR,,,,,,,,,,,,METAR,54.0
LLSD 120450Z 10006KT CAVOK 08/04 Q1015,LLSD,2019-01-12T04:50:00Z,32.12,34.78,8.0,4.0,100,6,,6.21,29.970472,,,,,,,,,,,CAVOK,,,,,,,,VFR,,,,,,,,,,,,METAR,14.0
LLOV 120450Z VRB01KT 8000 NSC 06/M01 Q1016 RMK FEW120,LLOV,2019-01-12T04:50:00Z,29.93,34.93,6.0,-1.0,0,1,,4.97,30.0,,,,,,,,,,,CLR,,,,,,,,MVFR,,,,,,,,,,,,METAR,432.0
LLHA 120450Z AUTO 16008KT CAVOK 10/02 Q1016,LLHA,2019-01-12T04:50:00Z,32.78,35.02,10.0,2.0,160,8,,6.21,30.0,,,TRUE,,,,,,,,CAVOK,,,,,,,,VFR,,,,,,,,,,,,METAR,8.0
LLET 120450Z 36011KT CAVOK 13/01 Q1015,LLET,2019-01-12T04:50:00Z,29.55,34.95,13.0,1.0,360,11,,6.21,29.970472,,,,,,,,,,,CAVOK,,,,,,,,VFR,,,,,,,,,,,,METAR,13.0
EGPK 120450Z 28012KT 9999 SCT010 BKN022 09/06 Q1019,EGPK,2019-01-12T04:50:00Z,55.5,-4.57,9.0,6.0,280,12,,6.21,30.088583,,,,,,,,,,,SCT,1000,BKN,2200,,,,,MVFR,,,,,,,,,,,,METAR,20.0
EGMC 120450Z 24009KT 9999 FEW028 BKN032 07/03 Q1025,EGMC,2019-01-12T04:50:00Z,51.57,0.7,7.0,3.0,240,9,,6.21,30.265747,,,,,,,,,,,FEW,2800,BKN,3200,,,,,VFR,,,,,,,,,,,,METAR,15.0
EGNS 120450Z 27016KT 9999 FEW010 SCT018 BKN030 09/07 Q1022,EGNS,2019-01-12T04:50:00Z,54.08,-4.63,9.0,7.0,270,16,,6.21,30.177166,,,,,,,,,,,FEW,1000,SCT,1800,BKN,3000,,,MVFR,,,,,,,,,,,,METAR,17.0
BGKK 120450Z AUTO 12017KT 090V150 9999NDV -SHRASN OVC041/// M07/M11 Q1010,BGKK,2019-01-12T04:50:00Z,65.57,-37.13,-7.0,-11.0,120,17,,,29.822834,,,TRUE,,,,,,,-SHRA SN,OVC,4100,,,,,,,,,,,,,,,,,,,METAR,34.0
BGJN 120450Z AUTO 13002KT 9999NDV NCD M23/M31 Q1016,BGJN,2019-01-12T04:50:00Z,69.25,-51.07,-23.0,-31.0,130,2,,,30.0,,,TRUE,,,,,,,,CLR,,,,,,,,,,,,,,,,,,,,METAR,25.0
BGGH 120450Z AUTO 02018KT 9999NDV NCD M07/M10 Q0997,BGGH,2019-01-12T04:50:00Z,64.2,-51.68,-7.0,-10.0,20,18,,,29.438976,,,TRUE,,,,,,,,CLR,,,,,,,,,,,,,,,,,,,,METAR,70.0
BGBW 120450Z AUTO 06026KT 9999NDV FEW039/// BKN044/// OVC050/// 01/M06 Q0996,BGBW,2019-01-12T04:50:00Z,61.17,-45.42,1.0,-6.0,60,26,,,29.409449,,,TRUE,,,,,,,,FEW,3900,BKN,4400,OVC,5000,,,,,,,,,,,,,,,METAR,26.0
BGSF 120450Z AUTO 05010KT 9999NDV NCD M35/M39 Q1016,BGSF,2019-01-12T04:50:00Z,67.0,-50.72,-35.0,-39.0,50,10,,,30.0,,,TRUE,,,,,,,,CLR,,,,,,,,,,,,,,,,,,,,METAR,53.0
MSSS 120450Z 340045KT CAVOK 20/15 Q1018 A3007,MSSS,2019-01-12T04:50:00Z,13.7,-89.12,20.0,15.0,340,45,,6.21,30.059055,,,,,,,,,,,CAVOK,,,,,,,,VFR,,,,,,,,,,,,METAR,616.0
KMHR 120450Z 03006KT 10SM SKC 10/09 A2990,KMHR,2019-01-12T04:50:00Z,38.53,-121.28,10.0,9.0,30,6,,10.0,29.899607,,,,,,,,,,,SKC,,,,,,,,VFR,,,,,,,,,,,,METAR,29.0
KDAG 120450Z AUTO 05011KT 10SM CLR 10/02 A3003 RMK AO2 SLP165 T01000022,KDAG,2019-01-12T04:50:00Z,34.85,-116.78,10.0,2.2,50,11,,10.0,30.029528,1016.5,,TRUE,TRUE,,,,,,,CLR,,,,,,,,VFR,,,,,,,,,,,,METAR,587.0
MSLP 120450Z 03006KT 9999 FEW079 26/16 Q1013 A2993 NOSIG,MSLP,2019-01-12T04:50:00Z,13.43,-89.05,26.0,16.0,30,6,,6.21,29.911417,,,,,,TRUE,,,,,FEW,7900,,,,,,,VFR,,,,,,,,,,,,METAR,25.0
PTPN 120450Z 07005KT 10SM -SHRA BKN015TCU OVC120 26/25 A2968 RMK TCU ALQDS,PTPN,2019-01-12T04:50:00Z,6.97,158.22,26.0,25.0,70,5,,10.0,29.681103,,,,,,,,,,-SHRA,BKN,1500,OVC,12000,,,,,MVFR,,,,,,,,,,,,METAR,2.0
OAMS 120450Z 08007KT 9999 FEW025 BKN033 06/02 Q1030 BLU BLU TEMPO YLO,OAMS,2019-01-12T04:50:00Z,36.7,67.2,6.0,2.0,80,7,,6.21,30.413385,,,,,,,,,,,FEW,2500,BKN,3300,,,,,VFR,,,,,,,,,,,,METAR,378.0
EEEI 120450Z 30011KT CAVOK 02/M02 Q0993 R24/190095 NOSIG,EEEI,2019-01-12T04:50:00Z,59.27,24.2,2.0,-2.0,300,11,,6.21,29.320866,,,,,,TRUE,,,,,CAVOK,,,,,,,,VFR,,,,,,,,,,,,METAR,20.0
ENSB 120450Z 13013KT 9999 FEW025 M13/M20 Q1001 RMK WIND 1400FT 11018KT,ENSB,2019-01-12T04:50:00Z,78.25,15.47,-13.0,-20.0,130,13,,6.21,29.557087,,,,,,,,,,,FEW,2500,,,,,,,VFR,,-1.8,,,,,,,,,,METAR,29.0
PALP 120450Z 03009KT 15SM SCT019 SCT130 M33/M36 A3027,PALP,2019-01-12T04:50:00Z,70.33,-150.93,-33.0,-36.0,30,9,,15.0,30.268702,,,,,,,,,,,SCT,1900,SCT,13000,,,,,VFR,,,,,,,,,,,,METAR,5.0
KSBD 120450Z 00000KT 7SM OVC120 12/04 A3000,KSBD,2019-01-12T04:50:00Z,34.08,-117.25,12.0,4.0,0,0,,7.0,30.0,,,,,,,,,,,OVC,12000,,,,,,,VFR,,,,,,,,,,,,METAR,353.0
NZSP 120450Z 05010KT 9999 FEW020 FEW060 M26/ A2894 RMK CLN AIR 06010KT ALL WNDS GRID SDG/HDG,NZSP,2019-01-12T04:50:00Z,-89.98,179.98,-26.0,,50,10,,6.21,28.93996,,,,,,,,,,,FEW,2000,FEW,6000,,,,,VFR,,,,,,,,,,,,METAR,2830.0
LXGB 120450Z AUTO 08023KT 9999 // FEW033/// 13/06 Q1026,LXGB,2019-01-12T04:50:00Z,36.13,-5.33,13.0,6.0,80,23,,6.21,30.295275,,,TRUE,,,,,,,,FEW,3300,,,,,,,VFR,,,,,,,,,,,,METAR,5.0
EGXS 120450Z AUTO 24016KT 9999 // BKN060/// BKN180/// 08/06 Q1019,EGXS,2019-01-12T04:50:00Z,53.48,0.15,8.0,6.0,240,16,,6.21,30.088583,,,TRUE,,,,,,,,BKN,6000,BKN,18000,,,,,VFR,,,,,,,,,,,,METAR,3.0
EGXP 120450Z AUTO 25012KT 9999 // SCT014/// BKN030/// BKN070/// 08/06 Q1021,EGXP,2019-01-12T04:50:00Z,53.3,-0.55,8.0,6.0,250,12,,6.21,30.147638,,,TRUE,,,,,,,,SCT,1400,BKN,3000,BKN,7000,,,MVFR,,,,,,,,,,,,METAR,61.0
EGDM 120450Z AUTO 24008KT 9999 FEW007/// OVC013/// 07/06 Q1027,EGDM,2019-01-12T04:50:00Z,51.17,-1.75,7.0,6.0,240,8,,6.21,30.324802,,,TRUE,,,,,,,,FEW,700,OVC,1300,,,,,MVFR,,,,,,,,,,,,METAR,124.0
EGXV 120450Z AUTO 25009KT 9999 FEW010/// BKN017/// BKN060/// 09/07 Q1019,EGXV,2019-01-12T04:50:00Z,53.87,-0.45,9.0,7.0,250,9,,6.21,30.088583,,,TRUE,,,,,,,,FEW,1000,BKN,1700,BKN,6000,,,MVFR,,,,,,,,,,,,METAR,6.0
EGXC 120450Z 25011KT 9999 SCT018 BKN060 08/06 Q1021 WHT,EGXC,2019-01-12T04:50:00Z,53.1,-0.17,8.0,6.0,250,11,,6.21,30.147638,,,,,,,,,,,SCT,1800,BKN,6000,,,,,VFR,,,,,,,,,,,,METAR,7.0
LSME 120450Z AUTO 00000KT 2100NDV -RA BR FEW032 M01/M01 Q1027 RMK,LSME,2019-01-12T04:50:00Z,47.1,8.3,-1.0,-1.0,0,0,,,30.324802,,,TRUE,,,,,,,-RA BR,FEW,3200,,,,,,,,,,,,,,,,,,,METAR,427.0
NSTU 120450Z VRB03KT 11SM -SHRA SCT015CB BKN035 BKN100 28/25 A2968 RMK SHRAB14 CB SW-W SLP052 T02840252,NSTU,2019-01-12T04:50:00Z,-14.33,-170.72,28.4,25.2,0,3,,11.0,29.681103,1005.2,,,,,,,,,-SHRA,SCT,1500,BKN,3500,BKN,10000,,,VFR,,,,,,,,,,,,METAR,3.0
EGQS 120450Z 27013KT 9999 SCT028 BKN038 07/05 Q1012 BLU,EGQS,2019-01-12T04:50:00Z,57.72,-3.32,7.0,5.0,270,13,,6.21,29.88189,,,,,,,,,,,SCT,2800,BKN,3800,,,,,VFR,,,,,,,,,,,,METAR,13.0
EGQM 120450Z AUTO 26014KT 9999 SCT032/// 09/05 Q1015,EGQM,2019-01-12T04:50:00Z,55.42,-1.6,9.0,5.0,260,14,,6.21,29.970472,,,TRUE,,,,,,,,SCT,3200,,,,,,,VFR,,,,,,,,,,,,METAR,23.0
EGQL 120450Z 28012KT 9999 FEW040 08/04 Q1014 BLU,EGQL,2019-01-12T04:50:00Z,56.38,-2.87,8.0,4.0,280,12,,6.21,29.940945,,,,,,,,,,,FEW,4000,,,,,,,VFR,,,,,,,,,,,,METAR,12.0
KMWN 120450Z 30076G82KT 1/16SM FZFG BKN000 M30/M30 RMK PK WND 30087/16 FZFG BKN000 VRY LGT ICG,KMWN,2019-01-12T04:50:00Z,44.27,-71.3,-30.0,-30.0,300,76,82,0.06,,,,,,,,,,,FZFG,BKN,0,,,,,,,LIFR,,,,,,,,,,,,SPECI,1910.0
EGYP 120450Z 30009KT CAVOK 07/02 Q0996 BLU,EGYP,2019-01-12T04:50:00Z,-51.82,-58.45,7.0,2.0,300,9,,6.21,29.409449,,,,,,,,,,,CAVOK,,,,,,,,VFR,,,,,,,,,,,,METAR,74.0
EGVN 120450Z 26007KT 9999 OVC020 08/06 Q1025 NOSIG,EGVN,2019-01-12T04:50:00Z,51.77,-1.58,8.0,6.0,260,7,,6.21,30.265747,,,,,,TRUE,,,,,OVC,2000,,,,,,,MVFR,,,,,,,,,,,,METAR,88.0
KEFD 120450Z 10007KT 10SM BKN050 OVC250 16/11 A2998,KEFD,2019-01-12T04:50:00Z,29.6,-95.17,16.0,11.0,100,7,,10.0,29.97933,,,,,,,,,,,BKN,5000,OVC,25000,,,,,VFR,,,,,,,,,,,,METAR,10.0
OOSH 120450Z AUTO 26006KT //// 20/10 Q1018,OOSH,2019-01-12T04:50:00Z,24.55,56.62,20.0,10.0,260,6,,,30.059055,,,TRUE,,,,,,,,,,,,,,,,,,,,,,,,,,,,METAR,35.0
OOSA 120450Z 01014KT CAVOK 24/02 Q1019 NOSIG,OOSA,2019-01-12T04:50:00Z,17.02,54.07,24.0,2.0,10,14,,6.21,30.088583,,,,,,TRUE,,,,,CAVOK,,,,,,,,VFR,,,,,,,,,,,,METAR,20.0
OOMS 120450Z 26008KT 9999 SCT025 23/15 Q1018 NOSIG,OOMS,2019-01-12T04:50:00Z,23.57,58.27,23.0,15.0,260,8,,6.21,30.059055,,,,,,TRUE,,,,,SCT,2500,,,,,,,VFR,,,,,,,,,,,,METAR,8.0
LTBQ 120450Z VRB02KT 7000 -SHRA FEW012 BKN027 BKN070 05/05 Q1016 NOSIG,LTBQ,2019-01-12T04:50:00Z,40.72,30.07,5.0,5.0,0,2,,4.35,30.0,,,,,,TRUE,,,,-SHRA,FEW,1200,BKN,2700,BKN,7000,,,MVFR,,,,,,,,,,,,METAR,50.0
LTBF 120450Z 00000KT 9999 -SHRA FEW015 SCT035 BKN100 06/06 Q1013 RESHRA NOSIG,LTBF,2019-01-12T04:50:00Z,39.62,27.92,6.0,6.0,0,0,,6.21,29.911417,,,,,,TRUE,,,,-SHRA,FEW,1500,SCT,3500,BKN,10000,,,VFR,,,,,,,,,,,,METAR,102.0
LTAN 120450Z VRB02KT 4000 BR SCT040 BKN120 M02/M02 Q1015 BECMG TL0550 6000,LTAN,2019-01-12T04:50:00Z,37.97,32.53,-2.0,-2.0,0,2,,2.49,29.970472,,,,,,,,,,BR,SCT,4000,BKN,12000,,,,,IFR,,,,,,,,,,,,SPECI,1006.0
LTFG 120450Z 12005KT 9999 BKN030 08/06 Q1015,LTFG,2019-01-12T04:50:00Z,36.3,32.3,8.0,6.0,120,5,,6.21,29.970472,,,,,,,,,,,BKN,3000,,,,,,,MVFR,,,,,,,,,,,,METAR,95.0
LTFD 120450Z 06008KT 6000 SHRA SCT030 BKN090 07/06 Q1012,LTFD,2019-01-12T04:50:00Z,39.55,27.02,7.0,6.0,60,8,,3.73,29.88189,,,,,,,,,,SHRA,SCT,3000,BKN,9000,,,,,MVFR,,,,,,,,,,,,METAR,16.0
LTCW 120450Z VRB02KT 0600 R11/0900N R29/0800D FZFG FEW040 SCT100 M30/M32 Q1021,LTCW,2019-01-12T04:50:00Z,37.55,44.23,-30.0,-32.0,0,2,,0.37,30.147638,,,,,,,,,,FZFG,FEW,4000,SCT,10000,,,,,LIFR,,,,,,,,,,,,METAR,1856.0
LTCV 120450Z 26008KT CAVOK M01/M04 Q1020,LTCV,2019-01-12T04:50:00Z,37.37,42.07,-1.0,-4.0,260,8,,6.21,30.11811,,,,,,,,,,,CAVOK,,,,,,,,VFR,,,,,,,,,,,,METAR,621.0
LTCU 120450Z 00000KT 9999 SCT035 M17/M18 Q1022,LTCU,2019-01-12T04:50:00Z,38.87,40.58,-17.0,-18.0,0,0,,6.21,30.177166,,,,,,,,,,,SCT,3500,,,,,,,VFR,,,,,,,,,,,,METAR,1061.0
LTCR 120450Z 04010KT CAVOK 02/M05 Q1020,LTCR,2019-01-12T04:50:00Z,37.22,40.63,2.0,-5.0,40,10,,6.21,30.11811,,,,,,,,,,,CAVOK,,,,,,,,VFR,,,,,,,,,,,,METAR,527.0
LTCP 120450Z 10006KT 9999 SCT040 BKN100 M00/M04 Q1020,LTCP,2019-01-12T04:50:00Z,37.73,38.47,0.0,-4.0,100,6,,6.21,30.11811,,,,,,,,,,,SCT,4000,BKN,10000,,,,,VFR,,,,,,,,,,,,METAR,676.0
LTCO 120450Z 00000KT 0200 R16/0275U R34/0225U FZFG VV001 M24/M26 Q1021,LTCO,2019-01-12T04:50:00Z,39.65,43.03,-24.0,-26.0,0,0,,0.12,30.147638,,,,,,,,,,FZFG,OVX,0,,,,,,,LIFR,,,,,,,,,,,100,METAR,1665.0
LTCN 120450Z VRB02KT 8000 FEW040 BKN100 00/M02 Q1021 NOSIG,LTCN,2019-01-12T04:50:00Z,37.53,36.95,0.0,-2.0,0,2,,4.97,30.147638,,,,,,TRUE,,,,,FEW,4000,BKN,10000,,,,,MVFR,,,,,,,,,,,,METAR,526.0
LTCM 120450Z 31005KT 9999 SCT011 BKN030 BKN090 07/04 Q1017,LTCM,2019-01-12T04:50:00Z,42.02,35.07,7.0,4.0,310,5,,6.21,30.029528,,,,,,,,,,,SCT,1100,BKN,3000,BKN,9000,,,MVFR,,,,,,,,,,,,METAR,8.0
LTCB 120450Z 17006KT 9999 BKN090 08/03 Q1017,LTCB,2019-01-12T04:50:00Z,40.97,38.07,8.0,3.0,170,6,,6.21,30.029528,,,,,,,,,,,BKN,9000,,,,,,,VFR,,,,,,,,,,,,METAR,5.0
LTBH 120450Z 03015KT 9999 -SHRA FEW015 BKN030 BKN100 06/05 Q1013,LTBH,2019-01-12T04:50:00Z,40.13,26.42,6.0,5.0,30,15,,6.21,29.911417,,,,,,,,,,-SHRA,FEW,1500,BKN,3000,BKN,10000,,,MVFR,,,,,,,,,,,,METAR,3.0
LTFH 120450Z 00000KT 9999 SCT033 BKN100 05/04 Q1017 NOSIG,LTFH,2019-01-12T04:50:00Z,41.27,36.55,5.0,4.0,0,0,,6.21,30.029528,,,,,,TRUE,,,,,SCT,3300,BKN,10000,,,,,VFR,,,,,,,,,,,,METAR,5.0
LTDA 120450Z 09006KT 9999 SCT040 07/03 Q1021 NOSIG,LTDA,2019-01-12T04:50:00Z,36.37,36.28,7.0,3.0,90,6,,6.21,30.147638,,,,,,TRUE,,,,,SCT,4000,,,,,,,VFR,,,,,,,,,,,,METAR,82.0
LTCI 120450Z 12003KT 9999 SCT035 BKN100 M09/M11 Q1019 NOSIG,LTCI,2019-01-12T04:50:00Z,38.45,43.32,-9.0,-11.0,120,3,,6.21,30.088583,,,,,,TRUE,,,,,SCT,3500,BKN,10000,,,,,VFR,,,,,,,,,,,,METAR,1661.0
LTCF 120450Z 18003KT 130V240 CAVOK M21/M24 Q1018,LTCF,2019-01-12T04:50:00Z,40.57,43.12,-21.0,-24.0,180,3,,6.21,30.059055,,,,,,,,,,,CAVOK,,,,,,,,VFR,,,,,,,,,,,,METAR,1795.0
LTCD 120450Z 00000KT 4500 BR NSC M19/M21 Q1023 BECMG 6000,LTCD,2019-01-12T04:50:00Z,39.72,39.5,-19.0,-21.0,0,0,,2.8,30.206694,,,,,,,,,,BR,CLR,,,,,,,,IFR,,,,,,,,,,,,METAR,1215.0
LTCA 120450Z VRB01KT 9999 SCT018 BKN100 M03/M06 Q1023 NOSIG,LTCA,2019-01-12T04:50:00Z,38.6,39.27,-3.0,-6.0,0,1,,6.21,30.206694,,,,,,TRUE,,,,,SCT,1800,BKN,10000,,,,,VFR,,,,,,,,,,,,METAR,882.0
LTBZ 120450Z 11007KT 9999 BKN030 03/00 Q1012,LTBZ,2019-01-12T04:50:00Z,38.63,27.35,3.0,0.0,110,7,,6.21,29.88189,,,,,,,,,,,BKN,3000,,,,,,,MVFR,,,,,,,,,,,,METAR,73.0
LTBY 120450Z 10005KT 7000 -RA SCT009 BKN025 02/01 Q1013,LTBY,2019-01-12T04:50:00Z,39.82,30.52,2.0,1.0,100,5,,4.35,29.911417,,,,,,,,,,-RA,SCT,900,BKN,2500,,,,,MVFR,,,,,,,,,,,,METAR,789.0
LTAY 120450Z 15011KT 9999 SCT035 BKN100 06/M01 Q1013,LTAY,2019-01-12T04:50:00Z,37.77,29.68,6.0,-1.0,150,11,,6.21,29.911417,,,,,,,,,,,SCT,3500,BKN,10000,,,,,VFR,,,,,,,,,,,,METAR,849.0
LTAR 120450Z 13008KT 9999 FEW040 SCT100 M13/M16 Q1016,LTAR,2019-01-12T04:50:00Z,39.8,36.9,-13.0,-16.0,130,8,,6.21,30.0,,,,,,,,,,,FEW,4000,SCT,10000,,,,,VFR,,,,,,,,,,,,METAR,1271.0
MUHG 120450Z 10006KT 7000 VCFG SKC 20/19 Q1018,MUHG,2019-01-12T04:50:00Z,20.77,-76.32,20.0,19.0,100,6,,4.35,30.059055,,,,,,,,,,VCFG,SKC,,,,,,,,MVFR,,,,,,,,,,,,METAR,106.0
MUCC 120450Z 07011KT 9000 FEW020 23/16 Q1019,MUCC,2019-01-12T04:50:00Z,22.47,-78.33,23.0,16.0,70,11,,5.59,30.088583,,,,,,,,,,,FEW,2000,,,,,,,VFR,,,,,,,,,,,,METAR,4.0
MUSC 120450Z 28001KT 8000 FEW020 14/12 Q1019,MUSC,2019-01-12T04:50:00Z,22.5,-79.95,14.0,12.0,280,1,,4.97,30.088583,,,,,,,,,,,FEW,2000,,,,,,,MVFR,,,,,,,,,,,,METAR,103.0
MUVR 120450Z 14004KT 8000 FEW020 15/14 Q1019,MUVR,2019-01-12T04:50:00Z,23.03,-81.43,15.0,14.0,140,4,,4.97,30.088583,,,,,,,,,,,FEW,2000,,,,,,,MVFR,,,,,,,,,,,,METAR,65.0
PGRO 120450Z 06012KT 7SM BKN013 BKN100 26/24 A2984 RMK WIND DATA ESTIMATED,PGRO,2019-01-12T04:50:00Z,14.18,145.25,26.0,24.0,60,12,,7.0,29.840551,,,,,,,,,,,BKN,1300,BKN,10000,,,,,MVFR,,,,,,,,,,,,METAR,185.0
LIRZ 120450Z AUTO 32005KT 9999 NCD M03/M05 Q1018,LIRZ,2019-01-12T04:50:00Z,43.1,12.5,-3.0,-5.0,320,5,,6.21,30.059055,,,TRUE,,,,,,,,CLR,,,,,,,,VFR,,,,,,,,,,,,METAR,205.0
LIBP 120450Z AUTO 23006KT 9999 SCT051/// 00/M02 Q1019,LIBP,2019-01-12T04:50:00Z,42.42,14.18,0.0,-2.0,230,6,,6.21,30.088583,,,TRUE,,,,,,,,SCT,5100,,,,,,,VFR,,,,,,,,,,,,METAR,11.0
LICR 120450Z 02006KT 9999 SCT050 06/03 Q1012,LICR,2019-01-12T04:50:00Z,38.07,15.65,6.0,3.0,20,6,,6.21,29.88189,,,,,,,,,,,SCT,5000,,,,,,,VFR,,,,,,,,,,,,METAR,21.0
LICA 120450Z 03011KT 9999 FEW030 07/M01 Q1013,LICA,2019-01-12T04:50:00Z,38.88,16.25,7.0,-1.0,30,11,,6.21,29.911417,,,,,,,,,,,FEW,3000,,,,,,,VFR,,,,,,,,,,,,METAR,15.0
LIPO 120450Z 00000KT CAVOK M03/M04 Q1018,LIPO,2019-01-12T04:50:00Z,45.42,10.33,-3.0,-4.0,0,0,,6.21,30.059055,,,,,,,,,,,CAVOK,,,,,,,,VFR,,,,,,,,,,,,METAR,109.0
EGYM 120450Z AUTO 23011KT 9999 FEW018/// BKN027/// BKN240/// 07/05 Q1022,EGYM,2019-01-12T04:50:00Z,52.63,0.57,7.0,5.0,230,11,,6.21,30.177166,,,TRUE,,,,,,,,FEW,1800,BKN,2700,BKN,24000,,,MVFR,,,,,,,,,,,,METAR,23.0
EGYD 120450Z AUTO 26017KT 9999 // BKN050/// BKN180/// 08/06 Q1021,EGYD,2019-01-12T04:50:00Z,53.03,-0.5,8.0,6.0,260,17,,6.21,30.147638,,,TRUE,,,,,,,,BKN,5000,BKN,18000,,,,,VFR,,,,,,,,,,,,METAR,67.0
EGXW 120450Z AUTO 25012KT 9999 FEW034/// BKN050/// 08/06 Q1021,EGXW,2019-01-12T04:50:00Z,53.18,-0.52,8.0,6.0,250,12,,6.21,30.147638,,,TRUE,,,,,,,,FEW,3400,BKN,5000,,,,,VFR,,,,,,,,,,,,METAR,70.0
EGXU 120450Z AUTO 25011KT 6000 // FEW010/// BKN019/// 08/08 Q1019,EGXU,2019-01-12T04:50:00Z,54.05,-1.25,8.0,8.0,250,11,,3.73,30.088583,,,TRUE,,,,,,,,FEW,1000,BKN,1900,,,,,MVFR,,,,,,,,,,,,METAR,16.0
EGXE 120450Z AUTO 25009KT 9999 -RADZ FEW019/// BKN033/// 09/07 Q1018,EGXE,2019-01-12T04:50:00Z,54.28,-1.52,9.0,7.0,250,9,,6.21,30.059055,,,TRUE,,,,,,,-RA -DZ,FEW,1900,BKN,3300,,,,,VFR,,,,,,,,,,,,METAR,40.0
EGVP 120450Z AUTO 24007KT 9999 // SCT010/// BKN015/// 08/06 Q1026,EGVP,2019-01-12T04:50:00Z,51.13,-1.57,8.0,6.0,240,7,,6.21,30.295275,,,TRUE,,,,,,,,SCT,1000,BKN,1500,,,,,MVFR,,,,,,,,,,,,METAR,91.0
EGOP 120450Z AUTO 26012KT 9999 // BKN015/// 09/07 Q1028,EGOP,2019-01-12T04:50:00Z,51.72,-4.32,9.0,7.0,260,12,,6.21,30.35433,,,TRUE,,,,,,,,BKN,1500,,,,,,,MVFR,,,,,,,,,,,,METAR,6.0
EGOM 120450Z AUTO 26022KT 9999 BKN001/// BKN015/// 06/06 Q1016 RERA,EGOM,2019-01-12T04:50:00Z,55.05,-2.55,6.0,6.0,260,22,,6.21,30.0,,,TRUE,,,,,,,,BKN,100,BKN,1500,,,,,LIFR,,,,,,,,,,,,METAR,325.0
EGOV 120450Z AUTO 25016KT 9999 BKN015/// 10/08 Q1024,EGOV,2019-01-12T04:50:00Z,53.25,-4.53,10.0,8.0,250,16,,6.21,30.236221,,,TRUE,,,,,,,,BKN,1500,,,,,,,MVFR,,,,,,,,,,,,METAR,11.0
EGDY 120450Z AUTO 26008KT 9999 BKN017/// BKN025/// 09/06 Q1028,EGDY,2019-01-12T04:50:00Z,51.0,-2.62,9.0,6.0,260,8,,6.21,30.35433,,,TRUE,,,,,,,,BKN,1700,BKN,2500,,,,,MVFR,,,,,,,,,,,,METAR,23.0
EGDR 120450Z AUTO 28014KT 9999 // BKN005/// 08/08 Q1031,EGDR,2019-01-12T04:50:00Z,50.08,-5.25,8.0,8.0,280,14,,6.21,30.442913,,,TRUE,,,,,,,,BKN,500,,,,,,,IFR,,,,,,,,,,,,METAR,82.0
KHME 120450Z 07008KT CAVOK 02/M04 Q1024,KHME,2019-01-12T04:50:00Z,,,2.0,-4.0,70,8,,6.21,30.236221,,,,,,,,,,,CAVOK,,,,,,,,VFR,,,,,,,,,,,,METAR,
AZUH 120450Z 00000KT CAVOK M05/M07 Q1020,AZUH,2019-01-12T04:50:00Z,39.18,45.45,-5.0,-7.0,0,0,,6.21,30.11811,,,,,,,,,,,CAVOK,,,,,,,,VFR,,,,,,,,,,,,METAR,855.0
OIKO 120450Z 02006KT 7000 NSC 21/M06 Q1019,OIKO,2019-01-12T04:50:00Z,27.13,57.1,21.0,-6.0,20,6,,4.35,30.088583,,,,,,,,,,,CLR,,,,,,,,MVFR,,,,,,,,,,,,METAR,27.0
OIGK 120450Z 00000KT CAVOK M11/M17 Q1019,OIGK,2019-01-12T04:50:00Z,34.28,47.12,-11.0,-17.0,0,0,,6.21,30.088583,,,,,,,,,,,CAVOK,,,,,,,,VFR,,,,,,,,,,,,METAR,1322.0
MMMY 120449Z 28006KT 8SM OVC045 17/// A3005 RMK 8/5// DROPS,MMMY,2019-01-12T04:49:00Z,25.77,-100.08,,,280,6,,8.0,30.050198,,,,,,,,,,,OVC,4500,,,,,,,VFR,,,,,,,,,,,,METAR,387.0
MMZC 120449Z 00000KT 10SM BKN020 10/05 A3026 RMK 8/400,MMZC,2019-01-12T04:49:00Z,22.9,-102.68,10.0,5.0,0,0,,10.0,30.259842,,,,,,,,,,,BKN,2000,,,,,,,MVFR,,,,,,,,,,,,METAR,2177.0
KRYY 120448Z AUTO VRB03KT 10SM BKN095 06/M04 A3030 RMK AO2 SLP983 T00611039,KRYY,2019-01-12T04:48:00Z,34.02,-84.6,6.1,-3.9,0,3,,10.0,30.301182,998.3,,TRUE,TRUE,,,,,,,BKN,9500,,,,,,,VFR,,,,,,,,,,,,METAR,317.0
KJDN 120448Z AUTO 06005KT M07/M08 A3020 RMK AO1 SLP266 T10721083,KJDN,2019-01-12T04:48:00Z,47.33,-106.95,-7.2,-8.3,60,5,,,30.200787,1026.6,,TRUE,TRUE,,,,,,,,,,,,,,,,,,,,,,,,,,,METAR,801.0
MMUN 120448Z 10004KT 7SM SCT018 21/16 A3006 RMK 8/500,MMUN,2019-01-12T04:48:00Z,21.02,-86.85,21.0,16.0,100,4,,7.0,30.059055,,,,,,,,,,,SCT,1800,,,,,,,VFR,,,,,,,,,,,,METAR,10.0
KCQT 120447Z AUTO VRB03KT 6SM BR CLR 13/11 A2998 RMK AO2 SLP153 T01280106,KCQT,2019-01-12T04:47:00Z,34.02,-118.28,12.8,10.6,0,3,,6.0,29.97933,1015.3,,TRUE,TRUE,,,,,,BR,CLR,,,,,,,,VFR,,,,,,,,,,,,SPECI,56.0
FADY 120447Z 23003KT CAVOK 17/00 Q1013,FADY,2019-01-12T04:47:00Z,-30.67,23.98,17.0,0.0,230,3,,6.21,29.911417,,,,,,,,,,,CAVOK,,,,,,,,VFR,,,,,,,,,,,,SPECI,384.0
KRHV 120447Z 15015KT 5SM RA SCT015 BKN040 OVC075 13/11 A2987,KRHV,2019-01-12T04:47:00Z,37.32,-121.82,13.0,11.0,150,15,,5.0,29.870079,,,,,,,,,,RA,SCT,1500,BKN,4000,OVC,7500,,,MVFR,,,,,,,,,,,,METAR,41.0
KIWA 120447Z 10005KT 20SM SKC 09/07 A3009,KIWA,2019-01-12T04:47:00Z,33.3,-111.65,9.0,7.0,100,5,,20.0,30.088583,,,,,,,,,,,SKC,,,,,,,,VFR,,,,,,,,,,,,METAR,412.0
KPAO 120447Z 12008KT 10SM VCSH BKN040 OVC060 13/ A2989,KPAO,2019-01-12T04:47:00Z,37.47,-122.12,13.0,,120,8,,10.0,29.890747,,,,,,,,,,VCSH,BKN,4000,OVC,6000,,,,,VFR,,,,,,,,,,,,METAR,2.0
MMMD 120447Z 08007KT 7SM SKC 20/15 A3004,MMMD,2019-01-12T04:47:00Z,20.95,-89.65,20.0,15.0,80,7,,7.0,30.041338,,,,,,,,,,,SKC,,,,,,,,VFR,,,,,,,,,,,,METAR,10.0
KEMV 120446Z AUTO 00000KT 10SM CLR M03/M06 A3045 RMK AO2,KEMV,2019-01-12T04:46:00Z,36.68,-77.48,-3.0,-6.0,0,0,,10.0,30.448818,,,TRUE,TRUE,,,,,,,CLR,,,,,,,,VFR,,,,,,,,,,,,METAR,39.0
MMTO 120446Z 34007KT 6SM SCT070 09/06 A3038 RMK 8/030 HZY CU,MMTO,2019-01-12T04:46:00Z,19.35,-99.57,9.0,6.0,340,7,,6.0,30.380905,,,,,,,,,,,SCT,7000,,,,,,,VFR,,,,,,,,,,,,METAR,2576.0
MMMX 120446Z 03006KT 10SM FEW030 BKN100 16/06 A3032 NOSIG RMK 8/430,MMMX,2019-01-12T04:46:00Z,19.42,-99.08,16.0,6.0,30,6,,10.0,30.318897,,,,,,TRUE,,,,,FEW,3000,BKN,10000,,,,,VFR,,,,,,,,,,,,METAR,2238.0
MMTJ 120446Z 00000KT 4SM OVC007 12/11 A3003 RMK 8/6// HZY,MMTJ,2019-01-12T04:46:00Z,32.53,-116.97,12.0,11.0,0,0,,4.0,30.029528,,,,,,,,,,,OVC,700,,,,,,,IFR,,,,,,,,,,,,METAR,152.0
KSWF 120445Z 00000KT 10SM SKC M09/M14 A3039,KSWF,2019-01-12T04:45:00Z,41.5,-74.08,-9.0,-14.0,0,0,,10.0,30.389763,,,,,,,,,,,SKC,,,,,,,,VFR,,,,,,,,,,,,METAR,150.0
PAKU 120445Z 04006KT 10SM R06/P6000FT SCT021 M32/M35 A3025,PAKU,2019-01-12T04:45:00Z,70.32,-149.58,-32.0,-35.0,40,6,,10.0,30.250984,,,,,,,,,,,SCT,2100,,,,,,,VFR,,,,,,,,,,,,METAR,2.0
LHBC 120445Z 19004KT 9999 OVC005 M05/M06 Q1017,LHBC,2019-01-12T04:45:00Z,46.68,21.17,-5.0,-6.0,190,4,,6.21,30.029528,,,,,,,,,,,OVC,500,,,,,,,IFR,,,,,,,,,,,,METAR,86.0
MMTG 120445Z 33005KT 10SM SCT300 19/15 A3003 RMK 8/008,MMTG,2019-01-12T04:45:00Z,16.57,-93.03,19.0,15.0,330,5,,10.0,30.029528,,,,,,,,,,,SCT,30000,,,,,,,VFR,,,,,,,,,,,,METAR,528.0
MMPS 120445Z 05005KT 6SM FEW010 26/20 A3006 RMK 8/100 HZY,MMPS,2019-01-12T04:45:00Z,15.87,-97.07,26.0,20.0,50,5,,6.0,30.059055,,,,,,,,,,,FEW,1000,,,,,,,VFR,,,,,,,,,,,,METAR,88.0
MMCL 120445Z 00000KT 8SM SKC 19/18 A3000 RMK HZY,MMCL,2019-01-12T04:45:00Z,24.77,-107.47,19.0,18.0,0,0,,8.0,30.0,,,,,,,,,,,SKC,,,,,,,,VFR,,,,,,,,,,,,METAR,39.0
MMCP 120444Z 00000KT 7SM SKC 16/15 A3003,MMCP,2019-01-12T04:44:00Z,19.82,-90.5,16.0,15.0,0,0,,7.0,30.029528,,,,,,,,,,,SKC,,,,,,,,VFR,,,,,,,,,,,,METAR,5.0
MMLO 120444Z 31009KT 8SM SCT030 SCT220 14/09 A3032 RMK 8/502,MMLO,2019-01-12T04:44:00Z,21.0,-101.47,14.0,9.0,310,9,,8.0,30.318897,,,,,,,,,,,SCT,3000,SCT,22000,,,,,VFR,,,,,,,,,,,,METAR,1819.0
MMML 120443Z 00000KT 10SM SCT120 BKN200 14/08 A3005 RMK 8/028,MMML,2019-01-12T04:43:00Z,32.62,-115.23,14.0,8.0,0,0,,10.0,30.050198,,,,,,,,,,,SCT,12000,BKN,20000,,,,,VFR,,,,,,,,,,,,METAR,22.0
MMSP 120443Z 09006KT 6SM -RA SCT025 BKN080 BKN230 13/12 A3022 RMK 60075 8/578,MMSP,2019-01-12T04:43:00Z,22.25,-100.93,13.0,12.0,90,6,,6.0,30.221457,,,,,,,,,,-RA,SCT,2500,BKN,8000,BKN,23000,,,VFR,,,,,,,,,,,,METAR,1903.0
MMQT 120442Z 33004KT 8SM BKN080 14/09 A3030 RMK 8/030,MMQT,2019-01-12T04:42:00Z,20.62,-100.18,14.0,9.0,330,4,,8.0,30.301182,,,,,,,,,,,BKN,8000,,,,,,,VFR,,,,,,,,,,,,METAR,1919.0
MMAA 120442Z 34002KT 6SM FEW300 26/22 A2994 RMK 8/002 HZY,MMAA,2019-01-12T04:42:00Z,16.75,-99.75,26.0,22.0,340,2,,6.0,29.940945,,,,,,,,,,,FEW,30000,,,,,,,VFR,,,,,,,,,,,,METAR,5.0
MMLM 120442Z 00000KT 10SM SKC 17/14 A3004,MMLM,2019-01-12T04:42:00Z,25.67,-109.07,17.0,14.0,0,0,,10.0,30.041338,,,,,,,,,,,SKC,,,,,,,,VFR,,,,,,,,,,,,METAR,4.0
MMGL 120442Z 20004KT 8SM SCT090 14/11 A3023 RMK 8/030 SC,MMGL,2019-01-12T04:42:00Z,20.52,-103.32,14.0,11.0,200,4,,8.0,30.230314,,,,,,,,,,,SCT,9000,,,,,,,VFR,,,,,,,,,,,,METAR,1528.0
MMCZ 120441Z 00000KT 7SM SKC 18/16 A3004 RMK SC,MMCZ,2019-01-12T04:41:00Z,20.52,-86.92,18.0,16.0,0,0,,7.0,30.041338,,,,,,,,,,,SKC,,,,,,,,VFR,,,,,,,,,,,,METAR,5.0
MMAS 120441Z 15002KT 10SM BKN040 12/11 A3030 RMK 8/500,MMAS,2019-01-12T04:41:00Z,21.7,-102.32,12.0,11.0,150,2,,10.0,30.301182,,,,,,,,,,,BKN,4000,,,,,,,VFR,,,,,,,,,,,,METAR,1863.0
MMTP 120440Z 00000KT 8SM SCT100 24/22 A2995 RMK 8/060,MMTP,2019-01-12T04:40:00Z,14.77,-92.37,24.0,22.0,0,0,,8.0,29.949802,,,,,,,,,,,SCT,10000,,,,,,,VFR,,,,,,,,,,,,METAR,29.0
MMCE 120440Z 07005KT 7SM SKC 22/18 A3001,MMCE,2019-01-12T04:40:00Z,18.65,-91.8,22.0,18.0,70,5,,7.0,30.008858,,,,,,,,,,,SKC,,,,,,,,VFR,,,,,,,,,,,,METAR,2.0
MMVR 120440Z 23003KT 7SM SKC 20/20 A3000 RMK HZY,MMVR,2019-01-12T04:40:00Z,19.15,-96.18,20.0,20.0,230,3,,7.0,30.0,,,,,,,,,,,SKC,,,,,,,,VFR,,,,,,,,,,,,METAR,16.0
MMAN 120440Z 00000KT 5SM BKN015 14/13 A3006 RMK 60015 8/500 HZY -RA INTMT,MMAN,2019-01-12T04:40:00Z,25.87,-100.23,14.0,13.0,0,0,,5.0,30.059055,,,,,,,,,,,BKN,1500,,,,,,,MVFR,,,,,,,,,,,,METAR,448.0
MMSD 120440Z 27006KT 12SM SKC 19/15 A3006,MMSD,2019-01-12T04:40:00Z,23.13,-109.7,19.0,15.0,270,6,,12.0,30.059055,,,,,,,,,,,SKC,,,,,,,,VFR,,,,,,,,,,,,METAR,109.0
MMHO 120440Z 00000KT 10SM SKC 15/12 A3006 RMK ISOL CI,MMHO,2019-01-12T04:40:00Z,29.08,-111.05,15.0,12.0,0,0,,10.0,30.059055,,,,,,,,,,,SKC,,,,,,,,VFR,,,,,,,,,,,,METAR,184.0
MMMM 120440Z 27002KT 6SM FEW030 13/10 A3025 RMK 8/500,MMMM,2019-01-12T04:40:00Z,19.85,-101.02,13.0,10.0,270,2,,6.0,30.250984,,,,,,,,,,,FEW,3000,,,,,,,VFR,,,,,,,,,,,,METAR,1833.0
FABM 120438Z 19003KT CAVOK 19/01 Q1016,FABM,2019-01-12T04:38:00Z,-28.25,28.32,19.0,1.0,190,3,,6.21,30.0,,,,,,,,,,,CAVOK,,,,,,,,VFR,,,,,,,,,,,,SPECI,1682.0
KSRR 120435Z AUTO 30013G18KT 10SM BKN038 01/M03 A3008 RMK AO2,KSRR,2019-01-12T04:35:00Z,33.47,-105.52,1.0,-3.0,300,13,18,10.0,30.079725,,,TRUE,TRUE,,,,,,,BKN,3800,,,,,,,VFR,,,,,,,,,,,,SPECI,2076.0
KLAL 120435Z AUTO 09005KT 10SM CLR 13/10 A3019 RMK AO2,KLAL,2019-01-12T04:35:00Z,27.97,-82.02,13.0,10.0,90,5,,10.0,30.188976,,,TRUE,TRUE,,,,,,,CLR,,,,,,,,VFR,,,,,,,,,,,,METAR,43.0
FASB 120431Z 24003KT 9999 SCT012 14/10 Q1014,FASB,2019-01-12T04:31:00Z,-29.68,17.93,14.0,10.0,240,3,,6.21,29.940945,,,,,,,,,,,SCT,1200,,,,,,,VFR,,,,,,,,,,,,SPECI,813.0
WIBB 120430Z 00000KT 9999 BKN012 29/23 Q1010,WIBB,2019-01-12T04:30:00Z,0.47,101.45,29.0,23.0,0,0,,6.21,29.822834,,,,,,,,,,,BKN,1200,,,,,,,MVFR,,,,,,,,,,,,METAR,31.0
WABB 120430Z 23007KT 9999 FEW017CB SCT018 BKN100 28/25 Q1008,WABB,2019-01-12T04:30:00Z,-1.17,136.12,28.0,25.0,230,7,,6.21,29.763779,,,,,,,,,,,FEW,1700,SCT,1800,BKN,10000,,,VFR,,,,,,,,,,,,METAR,11.0
VYMD 120430Z 36004KT 7000 SCT020 FEW120 25/17 Q1017,VYMD,2019-01-12T04:30:00Z,21.7,95.98,25.0,17.0,360,4,,4.35,30.029528,,,,,,,,,,,SCT,2000,FEW,12000,,,,,MVFR,,,,,,,,,,,,METAR,91.0
HRYR 120430Z 00000KT 9999 SCT026 BKN100 18/14 Q1019 NOSIG,HRYR,2019-01-12T04:30:00Z,-1.97,30.12,18.0,14.0,0,0,,6.21,30.088583,,,,,,TRUE,,,,,SCT,2600,BKN,10000,,,,,VFR,,,,,,,,,,,,METAR,1497.0
VEJH 120430Z 00000KT 2000 BR NSC 20/11 Q1019,VEJH,2019-01-12T04:30:00Z,21.92,84.08,20.0,11.0,0,0,,1.24,30.088583,,,,,,,,,,BR,CLR,,,,,,,,IFR,,,,,,,,,,,,METAR,230.0
WAQQ 120430Z 28005KT 9999 SCT015 31/23 Q1010,WAQQ,2019-01-12T04:30:00Z,3.33,117.57,31.0,23.0,280,5,,6.21,29.822834,,,,,,,,,,,SCT,1500,,,,,,,VFR,,,,,,,,,,,,METAR,0.0
