No errors
No warnings
400 ms
data source=metars
4681 results
raw_text,station_id,observation_time,latitude,longitude,temp_c,dewpoint_c,wind_dir_degrees,wind_speed_kt,wind_gust_kt,visibility_statute_mi,altim_in_hg,sea_level_pressure_mb,corrected,auto,auto_station,maintenance_indicator_on,no_signal,lightning_sensor_off,freezing_rain_sensor_off,present_weather_sensor_off,wx_string,sky_cover,cloud_base_ft_agl,sky_cover,cloud_base_ft_agl,sky_cover,cloud_base_ft_agl,sky_cover,cloud_base_ft_agl,flight_category,three_hr_pressure_tendency_mb,maxT_c,minT_c,maxT24hr_c,minT24hr_c,precip_in,pcp3hr_in,pcp6hr_in,pcp24hr_in,snow_in,vert_vis_ft,metar_type,elevation_m
K04V 150058Z AUTO 00000KT 10SM CLR M13/M14 A3029 RMK AO2,K04V,2019-01-15T00:58:00Z,38.1,-106.17,-13.0,-14.0,0,0,,10.0,30.28937,,,TRUE,TRUE,,,,,,,CLR,,,,,,,,VFR,,,,,,,,,,,,METAR,2385.0
CYZH 150057Z AUTO 30014G21KT 9SM BKN019 BKN025 OVC065 01/M00 A3004 RMK SLP207,CYZH,2019-01-15T00:57:00Z,55.28,-114.77,1.0,0.0,300,14,21,9.0,30.041338,1020.7,,TRUE,,,,,,,,BKN,1900,BKN,2500,OVC,6500,,,MVFR,,,,,,,,,,,,SPECI,581.0
PAPM 150056Z AUTO 10034G42KT 3SM UP BR OVC021 02/00 A2922 RMK AO2 PK WND 10046/0018 SLP898 P0004 T00220000 FZRANO,PAPM,2019-01-15T00:56:00Z,59.02,-161.82,2.2,0.0,100,34,42,3.0,29.220472,989.8,,TRUE,TRUE,,,,TRUE,,BR UP,OVC,2100,,,,,,,MVFR,,,,,,0.04,,,,,,METAR,5.0
KBYS 150056Z AUTO VRB04KT 6SM RA SCT031 BKN036 07/04 A3001 RMK AO2 SHRAE16RAB16 SLPNO WND DATA ESTMD P0010 T00680043,KBYS,2019-01-15T00:56:00Z,35.28,-116.62,6.8,4.3,0,4,,6.0,30.008858,,,TRUE,TRUE,,,,,,RA,SCT,3100,BKN,3600,,,,,VFR,,,,,,0.1,,,,,,METAR,716.0
ROTM 150056Z 11005KT 9SM BKN090 20/14 A3016 RMK AO2 SLP200 T02000139 ,ROTM,2019-01-15T00:56:00Z,26.27,127.75,20.0,13.9,110,5,,9.0,30.159449,1020.0,,,TRUE,,,,,,,BKN,9000,,,,,,,VFR,,,,,,,,,,,,METAR,75.0
KCCU 150056Z AUTO 29004KT 10SM CLR M05/M16 A3024 RMK AO2,KCCU,2019-01-15T00:56:00Z,39.48,-106.15,-5.0,-16.0,290,4,,10.0,30.239174,,,TRUE,TRUE,,,,,,,CLR,,,,,,,,VFR,,,,,,,,,,,,METAR,3680.0
KROS 150056Z AUTO 00000KT 10SM BKN019 BKN090 M03/M05 A3023 RMK AO2 T10311050,KROS,2019-01-15T00:56:00Z,45.7,-92.95,-3.1,-5.0,0,0,,10.0,30.230314,,,TRUE,TRUE,,,,,,,BKN,1900,BKN,9000,,,,,MVFR,,,,,,,,,,,,METAR,281.0
KRRT 150056Z AUTO 20005KT 7SM CLR M12/M14 A3021 RMK AO2,KRRT,2019-01-15T00:56:00Z,48.93,-95.33,-12.0,-14.0,200,5,,7.0,30.209646,,,TRUE,TRUE,,,,,,,CLR,,,,,,,,VFR,,,,,,,,,,,,METAR,327.0
KSJX 150056Z AUTO 28006KT 5SM BR OVC008 M01/M02 A3015 RMK AO2 T10061021,KSJX,2019-01-15T00:56:00Z,45.7,-85.57,-0.6,-2.1,280,6,,5.0,30.15059,,,TRUE,TRUE,,,,,,BR,OVC,800,,,,,,,IFR,,,,,,,,,,,,METAR,204.0
KMQJ 150056Z AUTO 00000KT 3/4SM VV005 M11/M11 A3030 RMK AO1,KMQJ,2019-01-15T00:56:00Z,39.85,-85.9,-11.0,-11.0,0,0,,0.75,30.301182,,,TRUE,TRUE,,,,,,,OVX,0,,,,,,,LIFR,,,,,,,,,,,500,METAR,263.0
K14Y 150056Z AUTO 00000KT M08/M09 A3021 RMK AO2 PWINO,K14Y,2019-01-15T00:56:00Z,45.9,-94.87,-8.0,-9.0,0,0,,,30.209646,,,TRUE,TRUE,,,,,TRUE,,,,,,,,,,,,,,,,,,,,,,METAR,406.0
K22N 150056Z AUTO 00000KT 10SM CLR M05/M10 A3017 RMK AO2,K22N,2019-01-15T00:56:00Z,40.8,-75.77,-5.0,-10.0,0,0,,10.0,30.171259,,,TRUE,TRUE,,,,,,,CLR,,,,,,,,VFR,,,,,,,,,,,,METAR,163.0
K4I3 150056Z AUTO 28005KT 10SM BKN014 M06/M07 A3027 RMK AO2,K4I3,2019-01-15T00:56:00Z,40.33,-82.53,-6.0,-7.0,280,5,,10.0,30.268702,,,TRUE,TRUE,,,,,,,BKN,1400,,,,,,,MVFR,,,,,,,,,,,,METAR,363.0
K9MN 150056Z AUTO 30007KT 10SM OVC011 M02/M03 A3022 RMK AO1 T10181033,K9MN,2019-01-15T00:56:00Z,44.02,-92.48,-1.8,-3.3,300,7,,10.0,30.221457,,,TRUE,TRUE,,,,,,,OVC,1100,,,,,,,MVFR,,,,,,,,,,,,METAR,355.0
KFPK 150056Z AUTO 26005KT 10SM OVC017 M02/M05 A3022 RMK AO2 T10161050,KFPK,2019-01-15T00:56:00Z,42.57,-84.82,-1.6,-5.0,260,5,,10.0,30.221457,,,TRUE,TRUE,,,,,,,OVC,1700,,,,,,,MVFR,,,,,,,,,,,,METAR,272.0
KONA 150056Z AUTO 00000KT 5SM BR OVC023 M01/M01 A3024 RMK AO2,KONA,2019-01-15T00:56:00Z,44.07,-91.7,-1.0,-1.0,0,0,,5.0,30.239174,,,TRUE,TRUE,,,,,,BR,OVC,2300,,,,,,,MVFR,,,,,,,,,,,,SPECI,200.0
KNFL 150056Z 13013KT 10SM FEW050 SCT070 BKN090 BKN150 BKN220 07/M02 A2995 RMK AO2 SLP113 T00721022 ,KNFL,2019-01-15T00:56:00Z,39.42,-118.7,7.2,-2.2,130,13,,10.0,29.949802,1011.3,,,TRUE,,,,,,,FEW,5000,SCT,7000,BKN,9000,BKN,15000,VFR,,,,,,,,,,,,METAR,1199.0
KPHN 150056Z AUTO 30003KT 10SM CLR M05/M07 A3023 RMK AO2,KPHN,2019-01-15T00:56:00Z,42.92,-82.52,-5.0,-7.0,300,3,,10.0,30.230314,,,TRUE,TRUE,,,,,,,CLR,,,,,,,,VFR,,,,,,,,,,,,SPECI,198.0
KRMY 150056Z AUTO 26008KT 10SM OVC013 M02/M04 A3024 RMK AO2 T10221040,KRMY,2019-01-15T00:56:00Z,42.23,-84.95,-2.2,-4.0,260,8,,10.0,30.239174,,,TRUE,TRUE,,,,,,,OVC,1300,,,,,,,MVFR,,,,,,,,,,,,SPECI,287.0
KD95 150056Z AUTO 29003KT 10SM OVC026 M02/M07 A3022 RMK AO2 T10251067,KD95,2019-01-15T00:56:00Z,43.07,-83.27,-2.5,-6.7,290,3,,10.0,30.221457,,,TRUE,TRUE,,,,,,,OVC,2600,,,,,,,MVFR,,,,,,,,,,,,METAR,255.0
PFYU 150056Z 00000KT 10SM BKN120 M28/M32 A3026 RMK AO2 SLP281 T12831317 $,PFYU,2019-01-15T00:56:00Z,66.57,-145.27,-28.3,-31.7,0,0,,10.0,30.259842,1028.1,,,TRUE,TRUE,,,,,,BKN,12000,,,,,,,VFR,,,,,,,,,,,,METAR,131.0
KFFM 150056Z AUTO 34003KT 10SM OVC007 M05/M06 A3024 RMK AO2,KFFM,2019-01-15T00:56:00Z,46.28,-96.15,-5.0,-6.0,340,3,,10.0,30.239174,,,TRUE,TRUE,,,,,,,OVC,700,,,,,,,IFR,,,,,,,,,,,,METAR,361.0
KIRS 150056Z AUTO 29005KT 10SM OVC016 M02/M05 A3025 RMK AO2 T10201055,KIRS,2019-01-15T00:56:00Z,41.8,-85.43,-2.0,-5.5,290,5,,10.0,30.250984,,,TRUE,TRUE,,,,,,,OVC,1600,,,,,,,MVFR,,,,,,,,,,,,METAR,282.0
KJMR 150056Z AUTO 00000KT 10SM CLR M07/M08 A3024 RMK AO2,KJMR,2019-01-15T00:56:00Z,45.88,-93.27,-7.0,-8.0,0,0,,10.0,30.239174,,,TRUE,TRUE,,,,,,,CLR,,,,,,,,VFR,,,,,,,,,,,,METAR,309.0
KJYM 150056Z AUTO 28006KT 10SM OVC015 M03/M06 A3022 RMK AO2 T10261065,KJYM,2019-01-15T00:56:00Z,41.92,-84.58,-2.6,-6.5,280,6,,10.0,30.221457,,,TRUE,TRUE,,,,,,,OVC,1500,,,,,,,MVFR,,,,,,,,,,,,METAR,360.0
KBAX 150056Z AUTO 21005KT 10SM OVC015 M03/M05 A3019 RMK AO2 T10261050,KBAX,2019-01-15T00:56:00Z,43.78,-82.98,-2.6,-5.0,210,5,,10.0,30.188976,,,TRUE,TRUE,,,,,,,OVC,1500,,,,,,,MVFR,,,,,,,,,,,,METAR,234.0
KVVV 150056Z AUTO 00000KT 4SM BR OVC004 M05/M06 A3024 RMK AO2,KVVV,2019-01-15T00:56:00Z,45.3,-96.42,-5.0,-6.0,0,0,,4.0,30.239174,,,TRUE,TRUE,,,,,,BR,OVC,400,,,,,,,LIFR,,,,,,,,,,,,METAR,335.0
KY63 150056Z AUTO 30003KT 10SM OVC006 M04/M05 A3025 RMK AO2 T10451052,KY63,2019-01-15T00:56:00Z,45.98,-96.0,-4.5,-5.2,300,3,,10.0,30.250984,,,TRUE,TRUE,,,,,,,OVC,600,,,,,,,IFR,,,,,,,,,,,,METAR,367.0
CYAY 150056Z AUTO 22007KT 9SM -SN OVC015 M05/M07 A2996 RMK ICG SLP149,CYAY,2019-01-15T00:56:00Z,51.38,-56.07,-5.0,-7.0,220,7,,9.0,29.958662,1014.9,,TRUE,,,,,,,-SN,OVC,1500,,,,,,,MVFR,,,,,,,,,,,,SPECI,28.0
KNJK 150056Z 34005KT 10SM -RA BKN075 OVC095 12/10 A3003 RMK AO2 RAB11 SLP185 P0002 T01220100 $ ,KNJK,2019-01-15T00:56:00Z,32.82,-115.67,12.2,10.0,340,5,,10.0,30.029528,1018.5,,,TRUE,TRUE,,,,,-RA,BKN,7500,OVC,9500,,,,,VFR,,,,,,0.02,,,,,,METAR,-13.0
KCOD 150056Z AUTO 08003KT 10SM CLR M03/M08 A3011 RMK AO2 SLP255 T10331078 FZRANO,KCOD,2019-01-15T00:56:00Z,44.52,-109.02,-3.3,-7.8,80,3,,10.0,30.109253,1025.5,,TRUE,TRUE,,,,TRUE,,,CLR,,,,,,,,VFR,,,,,,,,,,,,METAR,1553.0
KCOE 150056Z AUTO 02010KT 10SM CLR M02/M06 A3017 RMK AO2 SLP265 T10221061 FZRANO,KCOE,2019-01-15T00:56:00Z,47.77,-116.82,-2.2,-6.1,20,10,,10.0,30.171259,1026.5,,TRUE,TRUE,,,,TRUE,,,CLR,,,,,,,,VFR,,,,,,,,,,,,METAR,707.0
KCTB 150056Z AUTO 28011KT 10SM CLR 01/M16 A3002 RMK AO2 SLP205 T00061156,KCTB,2019-01-15T00:56:00Z,48.6,-112.37,0.6,-15.6,280,11,,10.0,30.02067,1020.5,,TRUE,TRUE,,,,,,,CLR,,,,,,,,VFR,,,,,,,,,,,,METAR,1175.0
KCWI 150056Z AUTO 29009KT 5SM BR OVC006 M04/M04 A3030 RMK AO2 SLP290 T10391044 FZRANO,KCWI,2019-01-15T00:56:00Z,41.82,-90.32,-3.9,-4.4,290,9,,5.0,30.301182,1029.0,,TRUE,TRUE,,,,TRUE,,BR,OVC,600,,,,,,,IFR,,,,,,,,,,,,METAR,216.0
KCVO 150056Z AUTO 00000KT 10SM CLR 07/01 A2990 RMK AO2 SLP129 T00720011,KCVO,2019-01-15T00:56:00Z,44.5,-123.27,7.2,1.1,0,0,,10.0,29.899607,1012.9,,TRUE,TRUE,,,,,,,CLR,,,,,,,,VFR,,,,,,,,,,,,METAR,75.0
KCVN 150056Z AUTO 21009KT 10SM CLR 03/M01 A3024 RMK AO2 SLP256 T00331006,KCVN,2019-01-15T00:56:00Z,34.42,-103.07,3.3,-0.6,210,9,,10.0,30.239174,1025.6,,TRUE,TRUE,,,,,,,CLR,,,,,,,,VFR,,,,,,,,,,,,METAR,1284.0
KDIJ 150056Z AUTO 17003KT 9SM CLR M09/M12 A3022 RMK AO2 SLP325 T10891122,KDIJ,2019-01-15T00:56:00Z,43.75,-111.1,-8.9,-12.2,170,3,,9.0,30.221457,1032.5,,TRUE,TRUE,,,,,,,CLR,,,,,,,,VFR,,,,,,,,,,,,METAR,1899.0
KDVL 150056Z AUTO 16006KT 1/2SM FZFG OVC003 M12/M13 A3019 RMK AO2 SLP274 T11221133 FZRANO,KDVL,2019-01-15T00:56:00Z,48.12,-98.92,-12.2,-13.3,160,6,,0.5,30.188976,1027.4,,TRUE,TRUE,,,,TRUE,,FZFG,OVC,300,,,,,,,LIFR,,,,,,,,,,,,METAR,443.0
KDYR 150056Z AUTO 00000KT 10SM OVC036 02/M01 A3039 RMK AO2 SLP307 T00171011 FZRANO,KDYR,2019-01-15T00:56:00Z,36.0,-89.4,1.7,-1.1,0,0,,10.0,30.389763,1030.7,,TRUE,TRUE,,,,TRUE,,,OVC,3600,,,,,,,VFR,,,,,,,,,,,,METAR,103.0
KDWU 150056Z AUTO 32004KT 10SM OVC012 M01/M03 A3031 RMK AO2 SLP271 T10111028 FZRANO PNO $,KDWU,2019-01-15T00:56:00Z,38.55,-82.73,-1.1,-2.8,320,4,,10.0,30.31004,1027.1,,TRUE,TRUE,TRUE,,,TRUE,,,OVC,1200,,,,,,,MVFR,,,,,,,,,,,,METAR,166.0
KEEN 150056Z AUTO 00000KT 10SM CLR M09/M11 A3011 RMK AO2 SLP217 T10891111 FZRANO $,KEEN,2019-01-15T00:56:00Z,42.88,-72.27,-8.9,-11.1,0,0,,10.0,30.109253,1021.7,,TRUE,TRUE,TRUE,,,TRUE,,,CLR,,,,,,,,VFR,,,,,,,,,,,,METAR,149.0
KEGE 150056Z 10007KT 10SM CLR M08/M12 A3032 RMK AO2 SLP380 T10781122,KEGE,2019-01-15T00:56:00Z,39.63,-106.92,-7.8,-12.2,100,7,,10.0,30.318897,1038.0,,,TRUE,,,,,,,CLR,,,,,,,,VFR,,,,,,,,,,,,METAR,1993.0
KEKY 150056Z AUTO 34009KT 10SM OVC011 03/01 A3032 RMK AO2 SLP292 T00330011,KEKY,2019-01-15T00:56:00Z,33.32,-86.93,3.3,1.1,340,9,,10.0,30.318897,1029.2,,TRUE,TRUE,,,,,,,OVC,1100,,,,,,,MVFR,,,,,,,,,,,,METAR,213.0
KEKQ 150056Z AUTO 35006KT 10SM SCT021 OVC026 01/M01 A3031 RMK AO2 SLP295 T00061011 PNO $,KEKQ,2019-01-15T00:56:00Z,36.85,-84.85,0.6,-1.1,350,6,,10.0,30.31004,1029.5,,TRUE,TRUE,TRUE,,,,,,SCT,2100,OVC,2600,,,,,MVFR,,,,,,,,,,,,METAR,294.0
KEHR 150056Z AUTO 28005KT 10SM FEW015 M01/M02 A3036 RMK AO2 SLP292 T10061022 FZRANO,KEHR,2019-01-15T00:56:00Z,37.82,-87.67,-0.6,-2.2,280,5,,10.0,30.360237,1029.2,,TRUE,TRUE,,,,TRUE,,,FEW,1500,,,,,,,VFR,,,,,,,,,,,,METAR,117.0
KESC 150056Z AUTO 28003KT 10SM BKN025 OVC031 M02/M04 A3016 RMK AO2 UPB26E50SNE26 SLP237 P0000 T10171039 FZRANO,KESC,2019-01-15T00:56:00Z,45.75,-87.08,-1.7,-3.9,280,3,,10.0,30.159449,1023.7,,TRUE,TRUE,,,,TRUE,,,BKN,2500,OVC,3100,,,,,MVFR,,,,,,0.005,,,,,,METAR,187.0
KENV 150056Z AUTO 00000KT 10SM OVC015 M03/M06 A3027 RMK AO2 SLP290 T10331061 FZRANO,KENV,2019-01-15T00:56:00Z,40.72,-114.02,-3.3,-6.1,0,0,,10.0,30.268702,1029.0,,TRUE,TRUE,,,,TRUE,,,OVC,1500,,,,,,,MVFR,,,,,,,,,,,,METAR,1292.0
KFCI 150056Z AUTO 00000KT 10SM OVC085 M01/M02 A3021 RMK AO2 SLP251 T10111022 FZRANO,KFCI,2019-01-15T00:56:00Z,37.4,-77.52,-1.1,-2.2,0,0,,10.0,30.209646,1025.1,,TRUE,TRUE,,,,TRUE,,,OVC,8500,,,,,,,VFR,,,,,,,,,,,,METAR,72.0
KFAM 150056Z AUTO 00000KT 10SM OVC013 00/M02 A3034 RMK AO2 SLP283 T00001022 FZRANO,KFAM,2019-01-15T00:56:00Z,37.77,-90.42,0.0,-2.2,0,0,,10.0,30.339567,1028.3,,TRUE,TRUE,,,,TRUE,,,OVC,1300,,,,,,,MVFR,,,,,,,,,,,,METAR,288.0
KEWK 150056Z AUTO 15006KT 5SM BR CLR M01/M02 A3029 RMK AO2 SLP272 T10111022 FZRANO,KEWK,2019-01-15T00:56:00Z,38.03,-97.27,-1.1,-2.2,150,6,,5.0,30.28937,1027.2,,TRUE,TRUE,,,,TRUE,,BR,CLR,,,,,,,,MVFR,,,,,,,,,,,,METAR,467.0
KEUL 150056Z AUTO 36004KT 1 1/4SM HZ CLR M01/M05 A3021 RMK AO2 SLP257 T10061050 FZRANO $,KEUL,2019-01-15T00:56:00Z,43.62,-116.62,-0.6,-5.0,360,4,,1.25,30.209646,1025.7,,TRUE,TRUE,TRUE,,,TRUE,,HZ,CLR,,,,,,,,IFR,,,,,,,,,,,,METAR,740.0
KFKL 150056Z AUTO 29005KT 10SM OVC009 M06/M07 A3019 RMK AO2 SLP253 T10561072 FZRANO,KFKL,2019-01-15T00:56:00Z,41.37,-79.87,-5.6,-7.2,290,5,,10.0,30.188976,1025.3,,TRUE,TRUE,,,,TRUE,,,OVC,900,,,,,,,IFR,,,,,,,,,,,,METAR,469.0
KFLP 150056Z AUTO 25005KT 10SM OVC021 03/M01 A3037 RMK AO2 SLP288 T00281006,KFLP,2019-01-15T00:56:00Z,36.28,-92.58,2.8,-0.6,250,5,,10.0,30.369095,1028.8,,TRUE,TRUE,,,,,,,OVC,2100,,,,,,,MVFR,,,,,,,,,,,,METAR,219.0
KFNL 150056Z AUTO 20004KT 10SM CLR 04/M11 A3016 RMK AO2 SLP237 T00441111 PNO $,KFNL,2019-01-15T00:56:00Z,40.45,-105.02,4.4,-11.1,200,4,,10.0,30.159449,1023.7,,TRUE,TRUE,TRUE,,,,,,CLR,,,,,,,,VFR,,,,,,,,,,,,METAR,1529.0
KFRM 150056Z AUTO 30005KT 10SM OVC008 M02/M03 A3023 RMK AO2 SLP256 T10171028 FZRANO,KFRM,2019-01-15T00:56:00Z,43.63,-94.42,-1.7,-2.8,300,5,,10.0,30.230314,1025.6,,TRUE,TRUE,,,,TRUE,,,OVC,800,,,,,,,IFR,,,,,,,,,,,,METAR,354.0
KFOD 150056Z AUTO 00000KT 6SM BR OVC006 M01/M02 A3024 RMK AO2 SLP283 T10111017 FZRANO,KFOD,2019-01-15T00:56:00Z,42.53,-94.17,-1.1,-1.7,0,0,,6.0,30.239174,1028.3,,TRUE,TRUE,,,,TRUE,,BR,OVC,600,,,,,,,IFR,,,,,,,,,,,,METAR,355.0
KGAD 150056Z AUTO 32005KT 10SM OVC018 03/02 A3032 RMK AO2 SLP273 T00330017,KGAD,2019-01-15T00:56:00Z,33.97,-86.07,3.3,1.7,320,5,,10.0,30.318897,1027.3,,TRUE,TRUE,,,,,,,OVC,1800,,,,,,,MVFR,,,,,,,,,,,,METAR,173.0
KLEW 150056Z AUTO 00000KT 10SM CLR M12/M16 A3009 RMK AO2 SLP206 T11221161 FZRANO,KLEW,2019-01-15T00:56:00Z,44.03,-70.27,-12.2,-16.1,0,0,,10.0,30.088583,1020.6,,TRUE,TRUE,,,,TRUE,,,CLR,,,,,,,,VFR,,,,,,,,,,,,METAR,88.0
KLGD 150056Z AUTO 17014KT 10SM CLR 01/M06 A3013 RMK AO2 PK WND 19027/0022 SLP337 T00111056 FZRANO,KLGD,2019-01-15T00:56:00Z,45.27,-118.0,1.1,-5.6,170,14,,10.0,30.129921,1033.7,,TRUE,TRUE,,,,TRUE,,,CLR,,,,,,,,VFR,,,,,,,,,,,,METAR,827.0
KLNR 150056Z AUTO 00000KT 4SM BR OVC004 M04/M05 A3026 RMK AO2 SLP252 T10441050,KLNR,2019-01-15T00:56:00Z,43.22,-90.18,-4.4,-5.0,0,0,,4.0,30.259842,1025.2,,TRUE,TRUE,,,,,,BR,OVC,400,,,,,,,LIFR,,,,,,,,,,,,METAR,217.0
KLPC 150056Z AUTO 10005KT 10SM FEW019 BKN026 OVC035 12/10 A2992 RMK AO2 RAE51 SLP134 P0003 T01220100,KLPC,2019-01-15T00:56:00Z,34.67,-120.47,12.2,10.0,100,5,,10.0,29.920275,1013.4,,TRUE,TRUE,,,,,,,FEW,1900,BKN,2600,OVC,3500,,,MVFR,,,,,,0.03,,,,,,METAR,27.0
KLRD 150056Z 06006KT 10SM OVC025 10/03 A3036 RMK AO2 SLP301 T01000033,KLRD,2019-01-15T00:56:00Z,27.55,-99.47,10.0,3.3,60,6,,10.0,30.360237,1030.1,,,TRUE,,,,,,,OVC,2500,,,,,,,MVFR,,,,,,,,,,,,METAR,155.0
KLZU 150056Z VRB05KT 10SM OVC034 05/02 A3021 RMK AO2 SLP247 T00500022,KLZU,2019-01-15T00:56:00Z,33.98,-83.97,5.0,2.2,0,5,,10.0,30.209646,1024.7,,,TRUE,,,,,,,OVC,3400,,,,,,,VFR,,,,,,,,,,,,METAR,323.0
KM19 150056Z AUTO 00000KT 10SM OVC026 04/01 A3039 RMK AO2 SLP296 T00390011,KM19,2019-01-15T00:56:00Z,35.65,-91.17,3.9,1.1,0,0,,10.0,30.389763,1029.6,,TRUE,TRUE,,,,,,,OVC,2600,,,,,,,MVFR,,,,,,,,,,,,METAR,73.0
KMBL 150056Z AUTO 27011KT 10SM OVC021 00/M03 A3018 RMK AO2 SLP242 T00001033 FZRANO,KMBL,2019-01-15T00:56:00Z,44.27,-86.25,0.0,-3.3,270,11,,10.0,30.180119,1024.2,,TRUE,TRUE,,,,TRUE,,,OVC,2100,,,,,,,MVFR,,,,,,,,,,,,METAR,189.0
KMJX 150056Z AUTO 00000KT 10SM CLR M09/M11 A3016 RMK AO2 SLP220 T10891111 FZRANO,KMJX,2019-01-15T00:56:00Z,39.93,-74.3,-8.9,-11.1,0,0,,10.0,30.159449,1022.0,,TRUE,TRUE,,,,TRUE,,,CLR,,,,,,,,VFR,,,,,,,,,,,,METAR,25.0
KMKT 150056Z AUTO 32004KT 10SM OVC009 M01/M03 A3023 RMK AO2 SLP252 T10111028 FZRANO,KMKT,2019-01-15T00:56:00Z,44.22,-93.92,-1.1,-2.8,320,4,,10.0,30.230314,1025.2,,TRUE,TRUE,,,,TRUE,,,OVC,900,,,,,,,IFR,,,,,,,,,,,,METAR,311.0
KMKY 150056Z AUTO 31007KT 10SM CLR 16/14 A3015 RMK AO2 SLP210 T01610139,KMKY,2019-01-15T00:56:00Z,26.0,-81.67,16.1,13.9,310,7,,10.0,30.15059,1021.0,,TRUE,TRUE,,,,,,,CLR,,,,,,,,VFR,,,,,,,,,,,,METAR,2.0
KMML 150056Z AUTO 35006KT 10SM OVC004 M04/M04 A3025 RMK AO2 SLP262 T10391044 FZRANO,KMML,2019-01-15T00:56:00Z,44.45,-95.82,-3.9,-4.4,350,6,,10.0,30.250984,1026.2,,TRUE,TRUE,,,,TRUE,,,OVC,400,,,,,,,LIFR,,,,,,,,,,,,METAR,359.0
KMNM 150056Z AUTO VRB04KT 5SM BR OVC027 M02/M04 A3018 RMK AO2 SLP244 T10171039 FZRANO $,KMNM,2019-01-15T00:56:00Z,45.12,-87.62,-1.7,-3.9,0,4,,5.0,30.180119,1024.4,,TRUE,TRUE,TRUE,,,TRUE,,BR,OVC,2700,,,,,,,MVFR,,,,,,,,,,,,METAR,191.0
KMQY 150056Z 31004KT 10SM OVC024 02/00 A3034 RMK AO2 SLP286 T00220000,KMQY,2019-01-15T00:56:00Z,36.02,-86.52,2.2,0.0,310,4,,10.0,30.339567,1028.6,,,TRUE,,,,,,,OVC,2400,,,,,,,MVFR,,,,,,,,,,,,METAR,166.0
KMRF 150056Z AUTO 17005KT 10SM CLR 07/03 A3026 RMK AO2 SLP250 T00720028,KMRF,2019-01-15T00:56:00Z,30.37,-104.02,7.2,2.8,170,5,,10.0,30.259842,1025.0,,TRUE,TRUE,,,,,,,CLR,,,,,,,,VFR,,,,,,,,,,,,METAR,1481.0
KMSV 150056Z AUTO 30005KT 10SM CLR M04/M14 A3009 RMK AO2 SLP216 T10441144 FZRANO,KMSV,2019-01-15T00:56:00Z,41.7,-74.78,-4.4,-14.4,300,5,,10.0,30.088583,1021.6,,TRUE,TRUE,,,,TRUE,,,CLR,,,,,,,,VFR,,,,,,,,,,,,METAR,428.0
KMTW 150056Z AUTO 28008KT 10SM OVC019 M02/M04 A3021 RMK AO2 SLP252 T10171044 FZRANO,KMTW,2019-01-15T00:56:00Z,44.12,-87.67,-1.7,-4.4,280,8,,10.0,30.209646,1025.2,,TRUE,TRUE,,,,TRUE,,,OVC,1900,,,,,,,MVFR,,,,,,,,,,,,METAR,198.0
KMVN 150056Z AUTO 25003KT 7SM OVC011 M01/M02 A3036 RMK AO2 SLP286 T10061022 FZRANO,KMVN,2019-01-15T00:56:00Z,38.32,-88.87,-0.6,-2.2,250,3,,7.0,30.360237,1028.6,,TRUE,TRUE,,,,TRUE,,,OVC,1100,,,,,,,MVFR,,,,,,,,,,,,METAR,146.0
KMYR 150056Z 36010KT 10SM OVC014 04/01 A3025 RMK AO2 SLP242 T00390011,KMYR,2019-01-15T00:56:00Z,33.67,-78.92,3.9,1.1,360,10,,10.0,30.250984,1024.2,,,TRUE,,,,,,,OVC,1400,,,,,,,MVFR,,,,,,,,,,,,METAR,8.0
KOAJ 150056Z 00000KT 10SM BKN023 02/00 A3022 RMK AO2 SLP237 T00220000,KOAJ,2019-01-15T00:56:00Z,34.82,-77.62,2.2,0.0,0,0,,10.0,30.221457,1023.7,,,TRUE,,,,,,,BKN,2300,,,,,,,MVFR,,,,,,,,,,,,METAR,29.0
KOCH 150056Z AUTO 06004KT 10SM CLR 04/01 A3041 RMK AO2 SLP303 T00440011,KOCH,2019-01-15T00:56:00Z,31.57,-94.72,4.4,1.1,60,4,,10.0,30.410433,1030.3,,TRUE,TRUE,,,,,,,CLR,,,,,,,,VFR,,,,,,,,,,,,METAR,108.0
KOKK 150056Z AUTO 28006KT 6SM HZ CLR M09/M12 A3031 RMK AO2 SLP283 T10941122 FZRANO,KOKK,2019-01-15T00:56:00Z,40.53,-86.07,-9.4,-12.2,280,6,,6.0,30.31004,1028.3,,TRUE,TRUE,,,,TRUE,,HZ,CLR,,,,,,,,VFR,,,,,,,,,,,,METAR,253.0
KOLU 150056Z AUTO 22004KT 10SM CLR 01/M01 A3021 RMK AO2 SLP248 T00111006 FZRANO,KOLU,2019-01-15T00:56:00Z,41.45,-97.32,1.1,-0.6,220,4,,10.0,30.209646,1024.8,,TRUE,TRUE,,,,TRUE,,,CLR,,,,,,,,VFR,,,,,,,,,,,,METAR,440.0
KOTG 150056Z AUTO 36006KT 8SM OVC005 M03/M03 A3021 RMK AO2 CIG 004V008 SLP256 T10281033 FZRANO,KOTG,2019-01-15T00:56:00Z,43.63,-95.57,-2.8,-3.3,360,6,,8.0,30.209646,1025.6,,TRUE,TRUE,,,,TRUE,,,OVC,500,,,,,,,IFR,,,,,,,,,,,,METAR,480.0
KOTH 150056Z 00000KT 10SM CLR 11/04 A2983 RMK AO2 SLP100 T01060044,KOTH,2019-01-15T00:56:00Z,43.42,-124.25,10.6,4.4,0,0,,10.0,29.828741,1010.0,,,TRUE,,,,,,,CLR,,,,,,,,VFR,,,,,,,,,,,,METAR,4.0
KOWB 150056Z 00000KT 10SM OVC028 01/M02 A3035 RMK AO2 SLP290 T00061022,KOWB,2019-01-15T00:56:00Z,37.72,-87.17,0.6,-2.2,0,0,,10.0,30.351377,1029.0,,,TRUE,,,,,,,OVC,2800,,,,,,,MVFR,,,,,,,,,,,,METAR,124.0
KPQI 150056Z AUTO 00000KT 10SM CLR M20/M22 A3005 RMK AO2 SLP225 T12001222 FZRANO,KPQI,2019-01-15T00:56:00Z,46.67,-68.03,-20.0,-22.2,0,0,,10.0,30.050198,1022.5,,TRUE,TRUE,,,,TRUE,,,CLR,,,,,,,,VFR,,,,,,,,,,,,METAR,146.0
KPIB 150056Z AUTO 35003KT 10SM OVC024 06/03 A3035 RMK AO2 SLP278 T00610028,KPIB,2019-01-15T00:56:00Z,31.47,-89.32,6.1,2.8,350,3,,10.0,30.351377,1027.8,,TRUE,TRUE,,,,,,,OVC,2400,,,,,,,MVFR,,,,,,,,,,,,METAR,91.0
KPRX 150056Z AUTO 00000KT 10SM OVC017 03/M01 A3040 RMK AO2 SLP314 T00281006,KPRX,2019-01-15T00:56:00Z,33.62,-95.45,2.8,-0.6,0,0,,10.0,30.398623,1031.4,,TRUE,TRUE,,,,,,,OVC,1700,,,,,,,MVFR,,,,,,,,,,,,METAR,167.0
KPTN 150056Z AUTO 04007KT 10SM OVC024 06/03 A3036 RMK AO2 SLP282 T00560033,KPTN,2019-01-15T00:56:00Z,29.72,-91.32,5.6,3.3,40,7,,10.0,30.360237,1028.2,,TRUE,TRUE,,,,,,,OVC,2400,,,,,,,MVFR,,,,,,,,,,,,METAR,3.0
KPTV 150056Z AUTO 35005KT 10SM SCT070 BKN110 11/08 A2992 RMK AO2 SLP146 T01060083,KPTV,2019-01-15T00:56:00Z,36.02,-119.07,10.6,8.3,350,5,,10.0,29.920275,1014.6,,TRUE,TRUE,,,,,,,SCT,7000,BKN,11000,,,,,VFR,,,,,,,,,,,,METAR,135.0
KPVC 150056Z AUTO 01010KT 10SM FEW026 M01/M06 A3009 RMK AO2 SLP189 T10111061 FZRANO,KPVC,2019-01-15T00:56:00Z,42.07,-70.22,-1.1,-6.1,10,10,,10.0,30.088583,1018.9,,TRUE,TRUE,,,,TRUE,,,FEW,2600,,,,,,,VFR,,,,,,,,,,,,METAR,2.0
KPVG 150056Z AUTO 30003KT 10SM CLR M03/M04 A3022 RMK AO2 SLP233 T10281039 FZRANO PNO $,KPVG,2019-01-15T00:56:00Z,36.78,-76.45,-2.8,-3.9,300,3,,10.0,30.221457,1023.3,,TRUE,TRUE,TRUE,,,TRUE,,,CLR,,,,,,,,VFR,,,,,,,,,,,,METAR,7.0
KPVU 150056Z 00000KT 8SM CLR M03/M07 A3024 RMK AO2 SLP282 T10331067,KPVU,2019-01-15T00:56:00Z,40.22,-111.72,-3.3,-6.7,0,0,,8.0,30.239174,1028.2,,,TRUE,,,,,,,CLR,,,,,,,,VFR,,,,,,,,,,,,METAR,1369.0
KPWG 150056Z AUTO 08003KT 10SM CLR 04/02 A3040 RMK AO2 SLP312 T00440017,KPWG,2019-01-15T00:56:00Z,31.47,-97.32,4.4,1.7,80,3,,10.0,30.398623,1031.2,,TRUE,TRUE,,,,,,,CLR,,,,,,,,VFR,,,,,,,,,,,,METAR,180.0
KPWT 150056Z AUTO 00000KT 10SM CLR 03/02 A2996 RMK AO2 SLP164 T00330022,KPWT,2019-01-15T00:56:00Z,47.5,-122.75,3.3,2.2,0,0,,10.0,29.958662,1016.4,,TRUE,TRUE,,,,,,,CLR,,,,,,,,VFR,,,,,,,,,,,,METAR,147.0
KRKD 150056Z AUTO 28003KT 10SM CLR M11/M13 A3009 RMK AO2 SLP191 T11061128 FZRANO,KRKD,2019-01-15T00:56:00Z,44.07,-69.08,-10.6,-12.8,280,3,,10.0,30.088583,1019.1,,TRUE,TRUE,,,,TRUE,,,CLR,,,,,,,,VFR,,,,,,,,,,,,METAR,17.0
KRUT 150056Z AUTO 00000KT 10SM CLR M11/M13 A3013 RMK AO2 SLP229 T11061128 FZRANO $,KRUT,2019-01-15T00:56:00Z,43.52,-72.95,-10.6,-12.8,0,0,,10.0,30.129921,1022.9,,TRUE,TRUE,TRUE,,,TRUE,,,CLR,,,,,,,,VFR,,,,,,,,,,,,METAR,240.0
KSDY 150056Z AUTO 21005KT 10SM CLR M02/M05 A3007 RMK AO2 SLP219 T10221050 FZRANO,KSDY,2019-01-15T00:56:00Z,47.7,-104.2,-2.2,-5.0,210,5,,10.0,30.070866,1021.9,,TRUE,TRUE,,,,TRUE,,,CLR,,,,,,,,VFR,,,,,,,,,,,,METAR,605.0
KSFM 150056Z AUTO 00000KT 10SM CLR M11/M13 A3009 RMK AO2 SLP198 T11061133 FZRANO PNO $,KSFM,2019-01-15T00:56:00Z,43.38,-70.72,-10.6,-13.3,0,0,,10.0,30.088583,1019.8,,TRUE,TRUE,TRUE,,,TRUE,,,CLR,,,,,,,,VFR,,,,,,,,,,,,METAR,74.0
KSFZ 150056Z AUTO 00000KT 10SM CLR M06/M10 A3008 RMK AO2 SLP136 T10611100 FZRANO,KSFZ,2019-01-15T00:56:00Z,41.92,-71.5,-6.1,-10.0,0,0,,10.0,30.079725,1013.6,,TRUE,TRUE,,,,TRUE,,,CLR,,,,,,,,VFR,,,,,,,,,,,,METAR,134.0
KSGH 150056Z AUTO 27003KT 7SM CLR M08/M09 A3028 RMK AO2 SLP274 T10831089,KSGH,2019-01-15T00:56:00Z,39.83,-83.83,-8.3,-8.9,270,3,,7.0,30.280512,1027.4,,TRUE,TRUE,,,,,,,CLR,,,,,,,,VFR,,,,,,,,,,,,METAR,321.0
KSGJ 150056Z 35007KT 10SM BKN019 OVC025 11/07 A3022 RMK AO2 SLP233 T01060072,KSGJ,2019-01-15T00:56:00Z,29.97,-81.32,10.6,7.2,350,7,,10.0,30.221457,1023.3,,,TRUE,,,,,,,BKN,1900,OVC,2500,,,,,MVFR,,,,,,,,,,,,METAR,3.0
KSGT 150056Z AUTO 26005KT 10SM OVC027 05/02 A3040 RMK AO2 SLP297 T00500017,KSGT,2019-01-15T00:56:00Z,34.6,-91.57,5.0,1.7,260,5,,10.0,30.398623,1029.7,,TRUE,TRUE,,,,,,,OVC,2700,,,,,,,MVFR,,,,,,,,,,,,METAR,68.0
KSGU 150056Z AUTO VRB03KT 10SM FEW120 10/M02 A3010 RMK AO2 SLP196 T01001022,KSGU,2019-01-15T00:56:00Z,37.07,-113.52,10.0,-2.2,0,3,,10.0,30.100393,1019.6,,TRUE,TRUE,,,,,,,FEW,12000,,,,,,,VFR,,,,,,,,,,,,METAR,896.0
KSKX 150056Z AUTO 35008KT 10SM OVC060 M04/M07 A3031 RMK AO2 SLP311 T10441067 FZRANO $,KSKX,2019-01-15T00:56:00Z,36.45,-105.67,-4.4,-6.7,350,8,,10.0,30.31004,1031.1,,TRUE,TRUE,TRUE,,,TRUE,,,OVC,6000,,,,,,,VFR,,,,,,,,,,,,METAR,2161.0
KSLG 150056Z AUTO 22006KT 10SM OVC010 01/M01 A3036 RMK AO2 SLP291 T00061011 FZRANO,KSLG,2019-01-15T00:56:00Z,36.2,-94.47,0.6,-1.1,220,6,,10.0,30.360237,1029.1,,TRUE,TRUE,,,,TRUE,,,OVC,1000,,,,,,,MVFR,,,,,,,,,,,,METAR,300.0
KSMN 150056Z AUTO 11003KT 10SM CLR M12/M14 A3030 RMK AO2 SLP333 T11171139 FZRANO,KSMN,2019-01-15T00:56:00Z,45.12,-113.87,-11.7,-13.9,110,3,,10.0,30.301182,1033.3,,TRUE,TRUE,,,,TRUE,,,CLR,,,,,,,,VFR,,,,,,,,,,,,METAR,1233.0
KSOP 150056Z AUTO 00000KT 10SM OVC037 04/01 A3022 RMK AO2 SLP252 T00390011,KSOP,2019-01-15T00:56:00Z,35.22,-79.4,3.9,1.1,0,0,,10.0,30.221457,1025.2,,TRUE,TRUE,,,,,,,OVC,3700,,,,,,,VFR,,,,,,,,,,,,METAR,141.0
K1M4 150056Z AUTO 35005KT 10SM OVC018 03/01 A3034 RMK AO2 SLP297 T00280006,K1M4,2019-01-15T00:56:00Z,34.28,-87.6,2.8,0.6,350,5,,10.0,30.339567,1029.7,,TRUE,TRUE,,,,,,,OVC,1800,,,,,,,MVFR,,,,,,,,,,,,METAR,284.0
K7N0 150056Z AUTO VRB05KT 10SM OVC018 07/02 A3036 RMK AO2 SLP282 T00670022,K7N0,2019-01-15T00:56:00Z,29.95,-90.07,6.7,2.2,0,5,,10.0,30.360237,1028.2,,TRUE,TRUE,,,,,,,OVC,1800,,,,,,,MVFR,,,,,,,,,,,,METAR,0.0
KADF 150056Z AUTO 22003KT 10SM OVC023 05/02 A3042 RMK AO2 SLP306 T00500017,KADF,2019-01-15T00:56:00Z,34.1,-93.07,5.0,1.7,220,3,,10.0,30.41929,1030.6,,TRUE,TRUE,,,,,,,OVC,2300,,,,,,,MVFR,,,,,,,,,,,,METAR,56.0
KAFJ 150056Z AUTO 26006KT 10SM OVC029 M01/M06 A3025 RMK AO2 SLP259 T10111056 FZRANO,KAFJ,2019-01-15T00:56:00Z,40.12,-80.27,-1.1,-5.6,260,6,,10.0,30.250984,1025.9,,TRUE,TRUE,,,,TRUE,,,OVC,2900,,,,,,,MVFR,,,,,,,,,,,,METAR,361.0
KAIZ 150056Z AUTO 22006KT 9SM OVC007 M01/M02 A3035 RMK AO2 SLP287 T10111017 FZRANO,KAIZ,2019-01-15T00:56:00Z,38.1,-92.53,-1.1,-1.7,220,6,,9.0,30.351377,1028.7,,TRUE,TRUE,,,,TRUE,,,OVC,700,,,,,,,IFR,,,,,,,,,,,,METAR,265.0
KAJO 150056Z AUTO 4SM UP RMK AO2 UPE06B27RAB26E27 SLPNO FZRANO $,KAJO,2019-01-15T00:56:00Z,33.9,-117.6,,,,,,4.0,,,,TRUE,TRUE,TRUE,,,TRUE,,UP,,,,,,,,,,,,,,,,,,,,,METAR,163.0
KARG 150056Z AUTO 26004KT 10SM OVC028 04/00 A3038 RMK AO2 SLP291 T00390000,KARG,2019-01-15T00:56:00Z,36.12,-90.92,3.9,0.0,260,4,,10.0,30.380905,1029.1,,TRUE,TRUE,,,,,,,OVC,2800,,,,,,,MVFR,,,,,,,,,,,,METAR,83.0
KASH 150056Z 29003KT 10SM CLR M06/M10 A3010 RMK AO2 SLP204 T10561100 $,KASH,2019-01-15T00:56:00Z,42.78,-71.52,-5.6,-10.0,290,3,,10.0,30.100393,1020.4,,,TRUE,TRUE,,,,,,CLR,,,,,,,,VFR,,,,,,,,,,,,METAR,61.0
KAUO 150056Z AUTO 34010KT OVC017 06/03 A3027 RMK AO2 SLP274 T00560033 PWINO $,KAUO,2019-01-15T00:56:00Z,32.62,-85.42,5.6,3.3,340,10,,,30.268702,1027.4,,TRUE,TRUE,TRUE,,,,TRUE,,OVC,1700,,,,,,,,,,,,,,,,,,,METAR,236.0
KAWO 150056Z AUTO 00000KT 10SM CLR 06/02 A2997 RMK AO2 SLP153 T00560022,KAWO,2019-01-15T00:56:00Z,48.17,-122.17,5.6,2.2,0,0,,10.0,29.970472,1015.3,,TRUE,TRUE,,,,,,,CLR,,,,,,,,VFR,,,,,,,,,,,,METAR,42.0
KBHB 150056Z AUTO 00000KT 10SM CLR M11/M15 A3009 RMK AO2 SLP195 T11061150 FZRANO $,KBHB,2019-01-15T00:56:00Z,44.45,-68.37,-10.6,-15.0,0,0,,10.0,30.088583,1019.5,,TRUE,TRUE,TRUE,,,TRUE,,,CLR,,,,,,,,VFR,,,,,,,,,,,,METAR,26.0
KBID 150056Z AUTO 01003KT 10SM CLR M03/M06 A3011 RMK AO2 SLP200 T10281061 FZRANO,KBID,2019-01-15T00:56:00Z,41.17,-71.58,-2.8,-6.1,10,3,,10.0,30.109253,1020.0,,TRUE,TRUE,,,,TRUE,,,CLR,,,,,,,,VFR,,,,,,,,,,,,METAR,33.0
KBKX 150056Z AUTO 03005KT 1 1/4SM BR OVC003 M05/M06 A3022 RMK AO2 SLP271 T10501056 FZRANO,KBKX,2019-01-15T00:56:00Z,44.28,-96.82,-5.0,-5.6,30,5,,1.25,30.221457,1027.1,,TRUE,TRUE,,,,TRUE,,BR,OVC,300,,,,,,,LIFR,,,,,,,,,,,,METAR,502.0
KBLM 150056Z AUTO 26004KT 10SM CLR M04/M11 A3015 RMK AO2 SLP216 T10441106 FZRANO,KBLM,2019-01-15T00:56:00Z,40.17,-74.12,-4.4,-10.6,260,4,,10.0,30.15059,1021.6,,TRUE,TRUE,,,,TRUE,,,CLR,,,,,,,,VFR,,,,,,,,,,,,METAR,48.0
KBMI 150056Z 24006KT 6SM BR OVC005 M04/M05 A3030 RMK AO2 SLP274 T10391050,KBMI,2019-01-15T00:56:00Z,40.47,-88.92,-3.9,-5.0,240,6,,6.0,30.301182,1027.4,,,TRUE,,,,,,BR,OVC,500,,,,,,,IFR,,,,,,,,,,,,METAR,267.0
KBOK 150056Z AUTO 00000KT 10SM SCT110 14/02 A2982 RMK AO2 SLP113 T01390022,KBOK,2019-01-15T00:56:00Z,42.07,-124.28,13.9,2.2,0,0,,10.0,29.819881,1011.3,,TRUE,TRUE,,,,,,,SCT,11000,,,,,,,VFR,,,,,,,,,,,,METAR,140.0
KBVX 150056Z AUTO 00000KT 10SM OVC027 03/M01 A3037 RMK AO2 SLP290 T00281006,KBVX,2019-01-15T00:56:00Z,35.73,-91.65,2.8,-0.6,0,0,,10.0,30.369095,1029.0,,TRUE,TRUE,,,,,,,OVC,2700,,,,,,,MVFR,,,,,,,,,,,,METAR,141.0
KBTP 150056Z AUTO 30003KT 10SM BKN032 M04/M06 A3021 RMK AO2 SLP258 T10391061 FZRANO,KBTP,2019-01-15T00:56:00Z,40.77,-79.95,-3.9,-6.1,300,3,,10.0,30.209646,1025.8,,TRUE,TRUE,,,,TRUE,,,BKN,3200,,,,,,,VFR,,,,,,,,,,,,METAR,380.0
KBZN 150056Z 10004KT 10SM CLR M06/M11 A3014 RMK AO2 SLP277 T10611106,KBZN,2019-01-15T00:56:00Z,45.78,-111.17,-6.1,-10.6,100,4,,10.0,30.138779,1027.7,,,TRUE,,,,,,,CLR,,,,,,,,VFR,,,,,,,,,,,,METAR,1361.0
KCGZ 150056Z AUTO 06004KT 10SM CLR 17/09 A3006 RMK AO2 SLP176 T01720094 $,KCGZ,2019-01-15T00:56:00Z,32.95,-111.77,17.2,9.4,60,4,,10.0,30.059055,1017.6,,TRUE,TRUE,TRUE,,,,,,CLR,,,,,,,,VFR,,,,,,,,,,,,METAR,446.0
KCIU 150056Z AUTO 26005KT 6SM -SN BR OVC003 M02/M03 A3010 RMK AO2 SLP221 P0000 T10221028 FZRANO,KCIU,2019-01-15T00:56:00Z,46.25,-84.47,-2.2,-2.8,260,5,,6.0,30.100393,1022.1,,TRUE,TRUE,,,,TRUE,,-SN BR,OVC,300,,,,,,,LIFR,,,,,,0.005,,,,,,METAR,244.0
KSQI 150056Z AUTO 26007KT 5SM BR OVC008 M04/M05 A3030 RMK AO2 SNE45 SLP284 P0000 T10391050 FZRANO,KSQI,2019-01-15T00:56:00Z,41.75,-89.67,-3.9,-5.0,260,7,,5.0,30.301182,1028.4,,TRUE,TRUE,,,,TRUE,,BR,OVC,800,,,,,,,IFR,,,,,,0.005,,,,,,METAR,197.0
KSRC 150056Z AUTO 21003KT 10SM OVC029 05/02 A3039 RMK AO2 SLP302 T00500022,KSRC,2019-01-15T00:56:00Z,35.22,-91.73,5.0,2.2,210,3,,10.0,30.389763,1030.2,,TRUE,TRUE,,,,,,,OVC,2900,,,,,,,MVFR,,,,,,,,,,,,METAR,80.0
KSUE 150056Z AUTO 25005KT 7SM OVC022 M02/M04 A3018 RMK AO2 SLP244 T10221039 FZRANO,KSUE,2019-01-15T00:56:00Z,44.85,-87.42,-2.2,-3.9,250,5,,7.0,30.180119,1024.4,,TRUE,TRUE,,,,TRUE,,,OVC,2200,,,,,,,MVFR,,,,,,,,,,,,METAR,221.0
KTVF 150056Z AUTO 28005KT 3/4SM BR OVC002 M09/M09 A3024 RMK AO2 SLP265 T10891094 FZRANO,KTVF,2019-01-15T00:56:00Z,48.07,-96.17,-8.9,-9.4,280,5,,0.75,30.239174,1026.5,,TRUE,TRUE,,,,TRUE,,BR,OVC,200,,,,,,,LIFR,,,,,,,,,,,,METAR,340.0
KUCP 150056Z AUTO 27008KT 10SM OVC011 M03/M05 A3023 RMK AO2 SLP272 T10331050,KUCP,2019-01-15T00:56:00Z,41.03,-80.42,-3.3,-5.0,270,8,,10.0,30.230314,1027.2,,TRUE,TRUE,,,,,,,OVC,1100,,,,,,,MVFR,,,,,,,,,,,,METAR,327.0
KUDG 150056Z AUTO 00000KT 10SM OVC038 05/03 A3022 RMK AO2 SLP240 T00500033,KUDG,2019-01-15T00:56:00Z,34.45,-79.88,5.0,3.3,0,0,,10.0,30.221457,1024.0,,TRUE,TRUE,,,,,,,OVC,3800,,,,,,,VFR,,,,,,,,,,,,METAR,59.0
KVBT 150056Z AUTO 24006KT 10SM OVC009 01/M01 A3036 RMK AO2 SLP297 T00061011 FZRANO,KVBT,2019-01-15T00:56:00Z,36.35,-94.22,0.6,-1.1,240,6,,10.0,30.360237,1029.7,,TRUE,TRUE,,,,TRUE,,,OVC,900,,,,,,,IFR,,,,,,,,,,,,METAR,395.0
KVIS 150056Z AUTO 33005KT 10SM OVC075 10/09 A2992 RMK AO2 RAE2359 SLP141 T01000089 PNO $,KVIS,2019-01-15T00:56:00Z,36.32,-119.4,10.0,8.9,330,5,,10.0,29.920275,1014.1,,TRUE,TRUE,TRUE,,,,,,OVC,7500,,,,,,,VFR,,,,,,,,,,,,METAR,89.0
KWVL 150056Z AUTO 10SM CLR M13/M17 A3005 RMK AO2 SLP215 T11331167 FZRANO $,KWVL,2019-01-15T00:56:00Z,44.52,-69.67,-13.3,-16.7,,,,10.0,30.050198,1021.5,,TRUE,TRUE,TRUE,,,TRUE,,,CLR,,,,,,,,VFR,,,,,,,,,,,,METAR,101.0
KYKN 150056Z AUTO 31007KT 9SM BKN005 OVC011 M02/M03 A3023 RMK AO2 CIG 004V007 SLP268 T10171028 FZRANO,KYKN,2019-01-15T00:56:00Z,42.92,-97.37,-1.7,-2.8,310,7,,9.0,30.230314,1026.8,,TRUE,TRUE,,,,TRUE,,,BKN,500,OVC,1100,,,,,IFR,,,,,,,,,,,,METAR,398.0
KY50 150056Z AUTO 23005KT 7SM OVC010 M03/M05 A3021 RMK AO2 SLP261 T10331050 FZRANO $,KY50,2019-01-15T00:56:00Z,44.03,-89.3,-3.3,-5.0,230,5,,7.0,30.209646,1026.1,,TRUE,TRUE,TRUE,,,TRUE,,,OVC,1000,,,,,,,MVFR,,,,,,,,,,,,METAR,262.0
PAAK 150056Z AUTO 27029G36KT 1/2SM SN FZFG OVC009 M01/M01 A2907 RMK AO2 PK WND 27036/0056 CIG 006V013 SLP847 T10061011 FZRANO PNO $,PAAK,2019-01-15T00:56:00Z,52.22,-174.2,-0.6,-1.1,270,29,36,0.5,29.069881,984.7,,TRUE,TRUE,TRUE,,,TRUE,,SN FZFG,OVC,900,,,,,,,LIFR,,,,,,,,,,,,METAR,17.0
PABV 150056Z AUTO 00000KT 6SM BR CLR M07/M08 A2996 RMK AO2 SLP155 T10671078 FZRANO,PABV,2019-01-15T00:56:00Z,61.42,-149.52,-6.7,-7.8,0,0,,6.0,29.958662,1015.5,,TRUE,TRUE,,,,TRUE,,BR,CLR,,,,,,,,VFR,,,,,,,,,,,,METAR,29.0
PADK 150056Z AUTO 31015G28KT 10SM UP BKN037 OVC047 00/M06 A2922 RMK AO2 PK WND 29028/0050 UPE03B28SNB03E28 SLP896 P0000 T00001056 FZRANO,PADK,2019-01-15T00:56:00Z,51.88,-176.65,0.0,-5.6,310,15,28,10.0,29.220472,989.6,,TRUE,TRUE,,,,TRUE,,UP,BKN,3700,OVC,4700,,,,,VFR,,,,,,0.005,,,,,,METAR,4.0
PAFM 150056Z AUTO 00000KT 10SM CLR M09/M12 A3002 RMK AO2 SLP181 P0001 T10941117 FZRANO,PAFM,2019-01-15T00:56:00Z,67.1,-157.85,-9.4,-11.7,0,0,,10.0,30.02067,1018.1,,TRUE,TRUE,,,,TRUE,,,CLR,,,,,,,,VFR,,,,,,0.01,,,,,,METAR,88.0
PAFE 150056Z AUTO 05006KT 10SM OVC030 06/04 A3005 RMK AO2 SLP187 T00560044,PAFE,2019-01-15T00:56:00Z,56.97,-133.92,5.6,4.4,50,6,,10.0,30.050198,1018.7,,TRUE,TRUE,,,,,,,OVC,3000,,,,,,,MVFR,,,,,,,,,,,,METAR,9.0
PAGL 150056Z AUTO 10026G32KT 5SM -RA FEW045 BKN055 OVC070 02/M06 A2966 RMK AO2 PK WND 10037/0020 UPB21E36RAB22E24B41SNB24E34 SLP041 P0000 T00171056 FZRANO,PAGL,2019-01-15T00:56:00Z,64.55,-163.03,1.7,-5.6,100,26,32,5.0,29.660433,1004.1,,TRUE,TRUE,,,,TRUE,,-RA,FEW,4500,BKN,5500,OVC,7000,,,MVFR,,,,,,0.005,,,,,,METAR,8.0
PAGN 150056Z AUTO 00000KT 9SM SCT005 BKN021 OVC055 03/03 A3007 RMK AO2 SLP172 T00330033,PAGN,2019-01-15T00:56:00Z,57.5,-134.58,3.3,3.3,0,0,,9.0,30.070866,1017.2,,TRUE,TRUE,,,,,,,SCT,500,BKN,2100,OVC,5500,,,MVFR,,,,,,,,,,,,METAR,2.0
PAHP 150056Z AUTO 09021KT 4SM -SN BR FEW007 SCT017 OVC025 01/M01 A2932 RMK AO2 PK WND 10031/0015 RAB12E44SNB44 SLP964 P0000 T00061006 FZRANO,PAHP,2019-01-15T00:56:00Z,61.52,-166.15,0.6,-0.6,90,21,,4.0,29.320866,996.4,,TRUE,TRUE,,,,TRUE,,-SN BR,FEW,700,SCT,1700,OVC,2500,,,MVFR,,,,,,0.005,,,,,,METAR,5.0
PAHX 150056Z AUTO 02012KT 10SM OVC100 M08/M10 A2968 RMK AO2 SLP054 T10781100 FZRANO,PAHX,2019-01-15T00:56:00Z,62.7,-159.57,-7.8,-10.0,20,12,,10.0,29.681103,1005.4,,TRUE,TRUE,,,,TRUE,,,OVC,10000,,,,,,,VFR,,,,,,,,,,,,METAR,24.0
PAII 150056Z AUTO 12025G35KT 10SM CLR 05/00 A2942 RMK AO2 PK WND 11042/0003 SLP965 T00500000,PAII,2019-01-15T00:56:00Z,58.18,-157.38,5.0,0.0,120,25,35,10.0,29.421259,996.5,,TRUE,TRUE,,,,,,,CLR,,,,,,,,VFR,,,,,,,,,,,,METAR,30.0
PANA 150056Z AUTO 09013G21KT 10SM OVC090 03/M01 A2935 RMK AO2 SLP937 T00331006,PANA,2019-01-15T00:56:00Z,60.68,-161.98,3.3,-0.6,90,13,21,10.0,29.350393,993.7,,TRUE,TRUE,,,,,,,OVC,9000,,,,,,,VFR,,,,,,,,,,,,METAR,5.0
PANI 150056Z AUTO 11023G30KT 10SM CLR 05/M02 A2952 RMK AO2 PK WND 12030/0050 SLP964 T00501017,PANI,2019-01-15T00:56:00Z,61.58,-159.53,5.0,-1.7,110,23,30,10.0,29.518702,996.4,,TRUE,TRUE,,,,,,,CLR,,,,,,,,VFR,,,,,,,,,,,,METAR,26.0
PASL 150056Z AUTO 18004KT 10SM OVC090 M09/M12 A2975 RMK AO2 SLP071 T10941117 FZRANO,PASL,2019-01-15T00:56:00Z,61.72,-157.15,-9.4,-11.7,180,4,,10.0,29.749016,1007.1,,TRUE,TRUE,,,,TRUE,,,OVC,9000,,,,,,,VFR,,,,,,,,,,,,METAR,55.0
PAZK 150056Z AUTO 00000KT 10SM CLR M12/M13 A2990 RMK AO2 SLP210 T11171128 FZRANO,PAZK,2019-01-15T00:56:00Z,61.93,-147.17,-11.7,-12.8,0,0,,10.0,29.899607,1021.0,,TRUE,TRUE,,,,TRUE,,,CLR,,,,,,,,VFR,,,,,,,,,,,,METAR,1003.0
PFCL 150056Z AUTO 10023G31KT 10SM FEW075 04/M01 RMK AO2 PK WND 10031/0053 SLPNO T00391006 TSNO $,PFCL,2019-01-15T00:56:00Z,58.83,-158.53,3.9,-0.6,100,23,31,10.0,,,,TRUE,TRUE,TRUE,,TRUE,,,,FEW,7500,,,,,,,VFR,,,,,,,,,,,,METAR,24.0
PFEL 150056Z AUTO 02013G20KT 9SM -SN BKN075 OVC100 M01/M07 A2972 RMK AO2 SNB42 SLP067 P0000 T10111072 FZRANO,PFEL,2019-01-15T00:56:00Z,64.62,-162.27,-1.1,-7.2,20,13,20,9.0,29.719488,1006.7,,TRUE,TRUE,,,,TRUE,,-SN,BKN,7500,OVC,10000,,,,,VFR,,,,,,0.005,,,,,,METAR,49.0
PFKW 150056Z AUTO 10014KT 10SM FEW085 OVC110 04/M01 A2938 RMK AO2 SLP948 T00441011,PFKW,2019-01-15T00:56:00Z,60.8,-161.43,4.4,-1.1,100,14,,10.0,29.379921,994.8,,TRUE,TRUE,,,,,,,FEW,8500,OVC,11000,,,,,VFR,,,,,,,,,,,,METAR,8.0
PFNO 150056Z AUTO 05018KT 10SM CLR M07/M10 A2990 RMK AO2 PK WND 07026/0009 SLP127 T10721100 FZRANO,PFNO,2019-01-15T00:56:00Z,66.82,-161.02,-7.2,-10.0,50,18,,10.0,29.899607,1012.7,,TRUE,TRUE,,,,TRUE,,,CLR,,,,,,,,VFR,,,,,,,,,,,,METAR,17.0
PFWS 150056Z AUTO 10019KT 10SM CLR 06/M01 A2947 RMK AO2 SLP987 T00561006,PFWS,2019-01-15T00:56:00Z,58.7,-157.0,5.6,-0.6,100,19,,10.0,29.471457,998.7,,TRUE,TRUE,,,,,,,CLR,,,,,,,,VFR,,,,,,,,,,,,METAR,49.0
PPIT 150056Z AUTO 09019KT 10SM SCT070 OVC090 03/00 A2934 RMK AO2 SLP935 T00280000 TSNO,PPIT,2019-01-15T00:56:00Z,60.9,-162.43,2.8,0.0,90,19,,10.0,29.338583,993.5,,TRUE,TRUE,,,TRUE,,,,SCT,7000,OVC,9000,,,,,VFR,,,,,,,,,,,,METAR,4.0
KGAI 150056Z AUTO 00000KT 10SM CLR M06/M08 A3019 RMK AO2 SLP255 T10611078 FZRANO,KGAI,2019-01-15T00:56:00Z,39.17,-77.17,-6.1,-7.8,0,0,,10.0,30.188976,1025.5,,TRUE,TRUE,,,,TRUE,,,CLR,,,,,,,,VFR,,,,,,,,,,,,METAR,165.0
KGBD 150056Z AUTO 25007KT 3SM BR OVC002 01/00 A3026 RMK AO2 SLP262 T00060000 FZRANO,KGBD,2019-01-15T00:56:00Z,38.35,-98.87,0.6,0.0,250,7,,3.0,30.259842,1026.2,,TRUE,TRUE,,,,TRUE,,BR,OVC,200,,,,,,,LIFR,,,,,,,,,,,,METAR,575.0
KGDV 150056Z AUTO 24006KT 10SM CLR M02/M06 A3007 RMK AO2 SLP220 T10221061 FZRANO,KGDV,2019-01-15T00:56:00Z,47.12,-104.78,-2.2,-6.1,240,6,,10.0,30.070866,1022.0,,TRUE,TRUE,,,,TRUE,,,CLR,,,,,,,,VFR,,,,,,,,,,,,METAR,749.0
KGPZ 150056Z AUTO 00000KT 10SM CLR M10/M11 A3021 RMK AO2 SLP257 T11001111 FZRANO,KGPZ,2019-01-15T00:56:00Z,47.22,-93.52,-10.0,-11.1,0,0,,10.0,30.209646,1025.7,,TRUE,TRUE,,,,TRUE,,,CLR,,,,,,,,VFR,,,,,,,,,,,,METAR,413.0
KGTR 150056Z 35006KT 10SM OVC017 04/01 A3037 RMK AO2 SLP286 T00390011,KGTR,2019-01-15T00:56:00Z,33.45,-88.57,3.9,1.1,350,6,,10.0,30.369095,1028.6,,,TRUE,,,,,,,OVC,1700,,,,,,,MVFR,,,,,,,,,,,,METAR,80.0
KGUC 150056Z AUTO 02004KT 10SM CLR M12/M16 A3033 RMK AO2 SLP416 T11221156 FZRANO,KGUC,2019-01-15T00:56:00Z,38.52,-106.92,-12.2,-15.6,20,4,,10.0,30.33071,1041.6,,TRUE,TRUE,,,,TRUE,,,CLR,,,,,,,,VFR,,,,,,,,,,,,METAR,2339.0
KGVQ 150056Z AUTO 25005KT 10SM CLR M07/M12 A3018 RMK AO2 SLP252 T10671117 FZRANO,KGVQ,2019-01-15T00:56:00Z,43.03,-78.17,-6.7,-11.7,250,5,,10.0,30.180119,1025.2,,TRUE,TRUE,,,,TRUE,,,CLR,,,,,,,,VFR,,,,,,,,,,,,METAR,278.0
KGXY 150056Z AUTO 11003KT 10SM CLR 02/M10 A3017 RMK AO2 SLP269 T00221100 FZRANO,KGXY,2019-01-15T00:56:00Z,40.42,-104.62,2.2,-10.0,110,3,,10.0,30.171259,1026.9,,TRUE,TRUE,,,,TRUE,,,CLR,,,,,,,,VFR,,,,,,,,,,,,METAR,1420.0
KHDN 150056Z AUTO 18004KT 10SM CLR M18/M22 A3032 RMK AO2 SLP405 T11831217 FZRANO,KHDN,2019-01-15T00:56:00Z,40.47,-107.22,-18.3,-21.7,180,4,,10.0,30.318897,1040.5,,TRUE,TRUE,,,,TRUE,,,CLR,,,,,,,,VFR,,,,,,,,,,,,METAR,2012.0
KHEF 150056Z 00000KT 1SM BR CLR M09/M11 A3021 RMK AO2 VIS 1/4V5 SLP243 T10891111 PNO $,KHEF,2019-01-15T00:56:00Z,38.72,-77.52,-8.9,-11.1,0,0,,1.0,30.209646,1024.3,,,TRUE,TRUE,,,,,BR,CLR,,,,,,,,IFR,,,,,,,,,,,,METAR,59.0
KHEZ 150056Z AUTO 36008KT 10SM OVC015 04/01 A3039 RMK AO2 SLP297 T00390011,KHEZ,2019-01-15T00:56:00Z,31.62,-91.3,3.9,1.1,360,8,,10.0,30.389763,1029.7,,TRUE,TRUE,,,,,,,OVC,1500,,,,,,,MVFR,,,,,,,,,,,,METAR,83.0
KHNB 150056Z AUTO 26005KT 10SM OVC021 01/M02 A3034 RMK AO2 SLP280 T00061022 FZRANO,KHNB,2019-01-15T00:56:00Z,38.25,-86.95,0.6,-2.2,260,5,,10.0,30.339567,1028.0,,TRUE,TRUE,,,,TRUE,,,OVC,2100,,,,,,,MVFR,,,,,,,,,,,,METAR,161.0
KHND 150056Z 00000KT 9SM RA OVC044 09/04 A3008 RMK AO2 RAE06B31 SLP193 P0001 T00890039 $,KHND,2019-01-15T00:56:00Z,35.98,-115.13,8.9,3.9,0,0,,9.0,30.079725,1019.3,,,TRUE,TRUE,,,,,RA,OVC,4400,,,,,,,VFR,,,,,,0.01,,,,,,METAR,749.0
KHYI 150056Z AUTO 10003KT 10SM OVC050 08/04 A3038 RMK AO2 SLP290 T00830039,KHYI,2019-01-15T00:56:00Z,29.88,-97.87,8.3,3.9,100,3,,10.0,30.380905,1029.0,,TRUE,TRUE,,,,,,,OVC,5000,,,,,,,VFR,,,,,,,,,,,,METAR,182.0
KHYS 150056Z AUTO 24008KT 3SM BR OVC003 00/M01 A3024 RMK AO2 SLP260 T00001006 FZRANO,KHYS,2019-01-15T00:56:00Z,38.85,-99.27,0.0,-0.6,240,8,,3.0,30.239174,1026.0,,TRUE,TRUE,,,,TRUE,,BR,OVC,300,,,,,,,LIFR,,,,,,,,,,,,METAR,609.0
KILE 150056Z AUTO 00000KT 10SM OVC050 07/02 A3038 RMK AO2 SLP310 T00720022,KILE,2019-01-15T00:56:00Z,31.07,-97.67,7.2,2.2,0,0,,10.0,30.380905,1031.0,,TRUE,TRUE,,,,,,,OVC,5000,,,,,,,VFR,,,,,,,,,,,,METAR,258.0
KISM 150056Z 02010KT 10SM CLR 14/09 A3018 RMK AO2 SLP224 T01390089 PNO $,KISM,2019-01-15T00:56:00Z,28.28,-81.43,13.9,8.9,20,10,,10.0,30.180119,1022.4,,,TRUE,TRUE,,,,,,CLR,,,,,,,,VFR,,,,,,,,,,,,METAR,25.0
KITH 150056Z 00000KT 10SM CLR M12/M16 A3016 RMK AO2 SLP237 T11221161,KITH,2019-01-15T00:56:00Z,42.47,-76.45,-12.2,-16.1,0,0,,10.0,30.159449,1023.7,,,TRUE,,,,,,,CLR,,,,,,,,VFR,,,,,,,,,,,,METAR,335.0
KIWD 150056Z AUTO 29004KT 10SM OVC018 M03/M04 A3018 RMK AO2 SLP239 T10281044 FZRANO PNO $,KIWD,2019-01-15T00:56:00Z,46.52,-90.12,-2.8,-4.4,290,4,,10.0,30.180119,1023.9,,TRUE,TRUE,TRUE,,,TRUE,,,OVC,1800,,,,,,,MVFR,,,,,,,,,,,,METAR,375.0
KJAC 150056Z 00000KT 10SM CLR M14/M18 A3023 RMK AO2 SLP381 T11441183,KJAC,2019-01-15T00:56:00Z,43.62,-110.73,-14.4,-18.3,0,0,,10.0,30.230314,1038.1,,,TRUE,,,,,,,CLR,,,,,,,,VFR,,,,,,,,,,,,METAR,1961.0
KJHW 150056Z AUTO 30005KT 10SM OVC005 M07/M08 A3016 RMK AO2 SLP253 T10671078 FZRANO,KJHW,2019-01-15T00:56:00Z,42.13,-79.27,-6.7,-7.8,300,5,,10.0,30.159449,1025.3,,TRUE,TRUE,,,,TRUE,,,OVC,500,,,,,,,IFR,,,,,,,,,,,,METAR,525.0
KJRB 150056Z AUTO 03004KT 10SM CLR 00/M10 A3016 RMK AO2 SLP213 T00001100 FZRANO,KJRB,2019-01-15T00:56:00Z,40.7,-74.02,0.0,-10.0,30,4,,10.0,30.159449,1021.3,,TRUE,TRUE,,,,TRUE,,,CLR,,,,,,,,VFR,,,,,,,,,,,,METAR,7.0
KKLS 150056Z AUTO 15005KT 10SM CLR 08/M03 A2997 RMK AO2 SLP152 T00781028,KKLS,2019-01-15T00:56:00Z,46.12,-122.9,7.8,-2.8,150,5,,10.0,29.970472,1015.2,,TRUE,TRUE,,,,,,,CLR,,,,,,,,VFR,,,,,,,,,,,,METAR,5.0
KLBL 150056Z AUTO 02005KT 10SM CLR M01/M02 A3024 RMK AO2 SLP264 T10111022 FZRANO,KLBL,2019-01-15T00:56:00Z,37.03,-100.97,-1.1,-2.2,20,5,,10.0,30.239174,1026.4,,TRUE,TRUE,,,,TRUE,,,CLR,,,,,,,,VFR,,,,,,,,,,,,METAR,879.0
KLCI 150056Z AUTO 23003KT 10SM CLR M11/M13 A3008 RMK AO2 SLP205 T11061128 FZRANO $,KLCI,2019-01-15T00:56:00Z,43.57,-71.42,-10.6,-12.8,230,3,,10.0,30.079725,1020.5,,TRUE,TRUE,TRUE,,,TRUE,,,CLR,,,,,,,,VFR,,,,,,,,,,,,METAR,166.0
K1YT 150056Z AUTO 05006KT 10SM OVC010 M02/M05 A3021 RMK AO2 SNE2356SHSNB2356E08 SLPNO T10201046 $,K1YT,2019-01-15T00:56:00Z,46.67,-120.45,-2.0,-4.6,50,6,,10.0,30.209646,,,TRUE,TRUE,TRUE,,,,,,OVC,1000,,,,,,,MVFR,,,,,,,,,,,,METAR,438.0
KBAB 150056Z AUTO 03006KT 10SM BKN080 BKN095 10/06 A2989 RMK AO2 RAE07DZB07E10DZB12E32 SLP125 P0000 T00990061 $,KBAB,2019-01-15T00:56:00Z,39.12,-121.42,9.9,6.1,30,6,,10.0,29.890747,1012.5,,TRUE,TRUE,TRUE,,,,,,BKN,8000,BKN,9500,,,,,VFR,,,,,,0.005,,,,,,METAR,34.0
KCWN 150056Z AUTO 29005KT 10SM CLR M01/M11 A3013 RMK AO2 SLP146 T10061113 $,KCWN,2019-01-15T00:56:00Z,38.75,-104.85,-0.6,-11.3,290,5,,10.0,30.129921,1014.6,,TRUE,TRUE,TRUE,,,,,,CLR,,,,,,,,VFR,,,,,,,,,,,,METAR,2040.0
KFCS 150056Z AUTO 28006KT 10SM CLR 03/M12 A3017 RMK AO2 SLP276 T00291118 $,KFCS,2019-01-15T00:56:00Z,38.67,-104.77,2.9,-11.8,280,6,,10.0,30.171259,1027.6,,TRUE,TRUE,TRUE,,,,,,CLR,,,,,,,,VFR,,,,,,,,,,,,METAR,1789.0
KGRF 150056Z AUTO 00000KT 8SM CLR 04/04 A2995 RMK AO2 SLP148 T00380038 $,KGRF,2019-01-15T00:56:00Z,47.07,-122.57,3.8,3.8,0,0,,8.0,29.949802,1014.8,,TRUE,TRUE,TRUE,,,,,,CLR,,,,,,,,VFR,,,,,,,,,,,,METAR,92.0
KMUO 150056Z AUTO 33007KT 10SM CLR M02/M02 A3018 RMK AO2 SLP255 T10191019 $,KMUO,2019-01-15T00:56:00Z,43.03,-115.87,-1.9,-1.9,330,7,,10.0,30.180119,1025.5,,TRUE,TRUE,TRUE,,,,,,CLR,,,,,,,,VFR,,,,,,,,,,,,METAR,913.0
KSLI 150056Z AUTO 08006KT 10SM FEW008 OVC017 12/12 A2996 RMK AO2 SLP149 T01190119,KSLI,2019-01-15T00:56:00Z,33.77,-118.03,11.9,11.9,80,6,,10.0,29.958662,1014.9,,TRUE,TRUE,,,,,,,FEW,800,OVC,1700,,,,,MVFR,,,,,,,,,,,,METAR,11.0
KTCM 150056Z AUTO 00000KT 2 1/2SM BR CLR 04/04 A2996 RMK AO2 VIS 2 1/2V4 SLP152 T00420042 $,KTCM,2019-01-15T00:56:00Z,47.12,-122.47,4.2,4.2,0,0,,2.5,29.958662,1015.2,,TRUE,TRUE,TRUE,,,,,BR,CLR,,,,,,,,IFR,,,,,,,,,,,,METAR,98.0
K1EM 150056Z AUTO 13006KT 10SM M 01/M12 A3001 RMK AO2 SLP202 T00131124 $,K1EM,2019-01-15T00:56:00Z,47.45,-109.42,1.3,-12.4,130,6,,10.0,30.008858,1020.2,,TRUE,TRUE,TRUE,,,,,,,,,,,,,,,,,,,,,,,,,,METAR,1116.0
K1JM 150056Z AUTO 26009KT 10SM CLR M03/M15 A3002 RMK AO2 SLP238 T10261153 $,K1JM,2019-01-15T00:56:00Z,47.75,-111.55,-2.6,-15.3,260,9,,10.0,30.02067,1023.8,,TRUE,TRUE,TRUE,,,,,,CLR,,,,,,,,VFR,,,,,,,,,,,,METAR,1152.0
K4MR 150056Z AUTO 22010KT 10SM CLR 05/01 A3023 RMK AO2 SLP237 T00470007 TSNO $,K4MR,2019-01-15T00:56:00Z,34.3,-103.8,4.7,0.7,220,10,,10.0,30.230314,1023.7,,TRUE,TRUE,TRUE,,TRUE,,,,CLR,,,,,,,,VFR,,,,,,,,,,,,METAR,1326.0
KFEW 150056Z AUTO 27005KT 10SM CLR M05/M12 A3017 RMK AO2 SLP277 T10491124 $,KFEW,2019-01-15T00:56:00Z,41.13,-104.87,-4.9,-12.4,270,5,,10.0,30.171259,1027.7,,TRUE,TRUE,TRUE,,,,,,CLR,,,,,,,,VFR,,,,,,,,,,,,METAR,1878.0
KSUU 150056Z AUTO 04007KT 10SM -RA OVC055 09/07 A2989 RMK AO2 SLP129 P0002 T00890067 $,KSUU,2019-01-15T00:56:00Z,38.27,-121.92,8.9,6.7,40,7,,10.0,29.890747,1012.9,,TRUE,TRUE,TRUE,,,,,-RA,OVC,5500,,,,,,,VFR,,,,,,0.02,,,,,,METAR,19.0
KLFI 150056Z AUTO 32004KT 10SM SCT065 M01/M03 A3019 RMK AO2 SLP230 T10101035 $,KLFI,2019-01-15T00:56:00Z,37.07,-76.37,-1.0,-3.5,320,4,,10.0,30.188976,1023.0,,TRUE,TRUE,TRUE,,,,,,SCT,6500,,,,,,,VFR,,,,,,,,,,,,METAR,3.0
KAFF 150056Z AUTO 35007KT 10SM CLR M06/M15 A3018 RMK AO2 SLP296 T10591149,KAFF,2019-01-15T00:56:00Z,38.97,-104.82,-5.9,-14.9,350,7,,10.0,30.180119,1029.6,,TRUE,TRUE,,,,,,,CLR,,,,,,,,VFR,,,,,,,,,,,,METAR,2003.0
PASA 150056Z AUTO 08014KT 3/4SM -SN BR OVC007 M03/M04 A2940 RMK AO2 CIG 005V008 SLP958 P0000 T10331039 FZRANO $,PASA,2019-01-15T00:56:00Z,63.68,-170.5,-3.3,-3.9,80,14,,0.75,29.40059,995.8,,TRUE,TRUE,TRUE,,,TRUE,,-SN BR,OVC,700,,,,,,,LIFR,,,,,,0.005,,,,,,METAR,16.0
PARY 150056Z AUTO 07012KT 10SM CLR M16/M20 A2993 RMK AO2 SLP166 T11611200 FZRANO,PARY,2019-01-15T00:56:00Z,64.73,-155.47,-16.1,-20.0,70,12,,10.0,29.929134,1016.6,,TRUE,TRUE,,,,TRUE,,,CLR,,,,,,,,VFR,,,,,,,,,,,,METAR,199.0
PARS 150056Z AUTO 07009G16KT 10SM BKN110 M01/M04 A2950 RMK AO2 SLP993 T10111039 FZRANO $,PARS,2019-01-15T00:56:00Z,61.77,-161.32,-1.1,-3.9,70,9,16,10.0,29.500984,999.3,,TRUE,TRUE,TRUE,,,TRUE,,,BKN,11000,,,,,,,VFR,,,,,,,,,,,,METAR,16.0
PARC 150056Z AUTO 5SM HZ CLR A3000 RMK AO2 SLPNO FZRANO $,PARC,2019-01-15T00:56:00Z,68.12,-145.58,,,,,,5.0,30.0,,,TRUE,TRUE,TRUE,,,TRUE,,HZ,CLR,,,,,,,,MVFR,,,,,,,,,,,,METAR,636.0
PAPO 150056Z AUTO 11010KT 10SM OVC026 M04/M06 A2987 RMK AO2 SLP114 T10391056 FZRANO,PAPO,2019-01-15T00:56:00Z,68.35,-166.8,-3.9,-5.6,110,10,,10.0,29.870079,1011.4,,TRUE,TRUE,,,,TRUE,,,OVC,2600,,,,,,,MVFR,,,,,,,,,,,,METAR,6.0
PAPH 150056Z AUTO 14027G35KT 4SM -RA BR OVC027 04/03 A2922 RMK AO2 PK WND 15041/0033 SLP897 P0008 T00440028,PAPH,2019-01-15T00:56:00Z,56.95,-158.62,4.4,2.8,140,27,35,4.0,29.220472,989.7,,TRUE,TRUE,,,,,,-RA BR,OVC,2700,,,,,,,MVFR,,,,,,0.08,,,,,,METAR,29.0
PAPG 150056Z 00000KT 10SM FEW005 SCT042 BKN065 03/03 A3005 RMK AO2 SLP178 T00330033,PAPG,2019-01-15T00:56:00Z,56.82,-132.97,3.3,3.3,0,0,,10.0,30.050198,1017.8,,,TRUE,,,,,,,FEW,500,SCT,4200,BKN,6500,,,VFR,,,,,,,,,,,,METAR,15.0
PAOU 150056Z AUTO 14012KT 10SM OVC025 03/01 A2915 RMK AO2 SLP870 T00280011,PAOU,2019-01-15T00:56:00Z,56.0,-161.17,2.8,1.1,140,12,,10.0,29.149607,987.0,,TRUE,TRUE,,,,,,,OVC,2500,,,,,,,MVFR,,,,,,,,,,,,METAR,4.0
PANW 150056Z AUTO 10022G39KT 10SM CLR 03/01 A2952 RMK AO2 PK WND 11039/0053 SLP014 T00330006,PANW,2019-01-15T00:56:00Z,59.45,-157.37,3.3,0.6,100,22,39,10.0,29.518702,1001.4,,TRUE,TRUE,,,,,,,CLR,,,,,,,,VFR,,,,,,,,,,,,METAR,92.0
PAMM 150056Z AUTO 11005KT 10SM SCT055 BKN095 09/04 A3000 RMK AO2 SLP150 T00940044,PAMM,2019-01-15T00:56:00Z,55.13,-131.58,9.4,4.4,110,5,,10.0,30.0,1015.0,,TRUE,TRUE,,,,,,,SCT,5500,BKN,9500,,,,,VFR,,,,,,,,,,,,METAR,1.0
PAMK 150056Z AUTO 09025KT 10SM BKN110 M01/M06 A2960 RMK AO2 PK WND 09031/0039 SLP027 T10111061 FZRANO,PAMK,2019-01-15T00:56:00Z,63.48,-162.12,-1.1,-6.1,90,25,,10.0,29.601377,1002.7,,TRUE,TRUE,,,,TRUE,,,BKN,11000,,,,,,,VFR,,,,,,,,,,,,METAR,28.0
KRCA 150056Z AUTO 00000KT 10SM CLR 00/M04 A3011 RMK AO2 SLP239 T10021039 $,KRCA,2019-01-15T00:56:00Z,44.13,-103.08,-0.2,-3.9,0,0,,10.0,30.109253,1023.9,,TRUE,TRUE,TRUE,,,,,,CLR,,,,,,,,VFR,,,,,,,,,,,,METAR,999.0
KINS 150056Z AUTO 12018KT 10SM BKN100 09/M01 A2999 RMK AO2 SLP148 T00931006 $,KINS,2019-01-15T00:56:00Z,36.58,-115.67,9.3,-0.6,120,18,,10.0,29.991142,1014.8,,TRUE,TRUE,TRUE,,,,,,BKN,10000,,,,,,,VFR,,,,,,,,,,,,METAR,955.0
KHMN 150056Z AUTO 30004KT 10SM FEW170 09/02 A3024 RMK AO2 SLP231 T00860015 $,KHMN,2019-01-15T00:56:00Z,32.85,-106.08,8.6,1.5,300,4,,10.0,30.239174,1023.1,,TRUE,TRUE,TRUE,,,,,,FEW,17000,,,,,,,VFR,,,,,,,,,,,,METAR,1248.0
KGFA 150056Z AUTO 24006KT 10SM CLR 00/M13 A3003 RMK AO2 SLP225 T10011130 $,KGFA,2019-01-15T00:56:00Z,47.5,-111.17,-0.1,-13.0,240,6,,10.0,30.029528,1022.5,,TRUE,TRUE,TRUE,,,,,,CLR,,,,,,,,VFR,,,,,,,,,,,,METAR,1075.0
KDOV 150056Z AUTO 28005KT 10SM CLR M04/M10 A3018 RMK AO2 SLP224 T10361100 $,KDOV,2019-01-15T00:56:00Z,39.12,-75.47,-3.6,-10.0,280,5,,10.0,30.180119,1022.4,,TRUE,TRUE,TRUE,,,,,,CLR,,,,,,,,VFR,,,,,,,,,,,,METAR,9.0
KDMA 150056Z AUTO 07004KT 10SM FEW085 17/06 A3007 RMK AO2 SLP167 T01660055 $,KDMA,2019-01-15T00:56:00Z,32.17,-110.87,16.6,5.5,70,4,,10.0,30.070866,1016.7,,TRUE,TRUE,TRUE,,,,,,FEW,8500,,,,,,,VFR,,,,,,,,,,,,METAR,824.0
KDLF 150056Z 16008KT 10SM OVC036 09/04 A3035 RMK AO2A SLP280 T00940040,KDLF,2019-01-15T00:56:00Z,29.37,-100.77,9.4,4.0,160,8,,10.0,30.351377,1028.0,,,TRUE,,,,,,,OVC,3600,,,,,,,VFR,,,,,,,,,,,,METAR,330.0
KDAA 150056Z AUTO 00000KT 10SM CLR M05/M06 A3021 RMK AO2 SLPNO T10481062 $,KDAA,2019-01-15T00:56:00Z,38.72,-77.17,-4.8,-6.2,0,0,,10.0,30.209646,,,TRUE,TRUE,TRUE,,,,,,CLR,,,,,,,,VFR,,,,,,,,,,,,METAR,21.0
PASH 150056Z AUTO 09019KT 7SM BKN120 M07/M08 A2970 RMK AO2 SLP058 T10721078 FZRANO,PASH,2019-01-15T00:56:00Z,66.27,-166.08,-7.2,-7.8,90,19,,7.0,29.698818,1005.8,,TRUE,TRUE,,,,TRUE,,,BKN,12000,,,,,,,VFR,,,,,,,,,,,,METAR,2.0
PASK 150056Z AUTO 06016KT 10SM CLR M10/M12 RMK AO2 SLPNO T11001117 FZRANO $,PASK,2019-01-15T00:56:00Z,66.6,-160.0,-10.0,-11.7,60,16,,10.0,,,,TRUE,TRUE,TRUE,,,TRUE,,,CLR,,,,,,,,VFR,,,,,,,,,,,,METAR,8.0
PASX 150056Z AUTO 09003KT 10SM CLR M03/M04 A2991 RMK AO2 SLP140 T10331039 FZRANO,PASX,2019-01-15T00:56:00Z,60.48,-151.03,-3.3,-3.9,90,3,,10.0,29.911417,1014.0,,TRUE,TRUE,,,,TRUE,,,CLR,,,,,,,,VFR,,,,,,,,,,,,METAR,32.0
PATG 150056Z AUTO 11033G41KT 10SM FEW025 SCT030 OVC047 04/M01 A2932 RMK AO2 PK WND 10041/0049 PRESRR SLP022 T00391011,PATG,2019-01-15T00:56:00Z,59.05,-160.38,3.9,-1.1,110,33,41,10.0,29.320866,1002.2,,TRUE,TRUE,,,,,,,FEW,2500,SCT,3000,OVC,4700,,,VFR,,,,,,,,,,,,METAR,4.0
PAUN 150056Z AUTO 07020KT 10SM SCT070 M04/M09 A2973 RMK AO2 PK WND 08029/0035 SLP072 T10441089 FZRANO,PAUN,2019-01-15T00:56:00Z,63.88,-160.8,-4.4,-8.9,70,20,,10.0,29.731298,1007.2,,TRUE,TRUE,,,,TRUE,,,SCT,7000,,,,,,,VFR,,,,,,,,,,,,METAR,6.0
PAVA 150056Z AUTO 09022KT 2 1/2SM -SN BR OVC007 01/M01 A2931 RMK AO2 PK WND 10032/2357 VIS 1 1/2V3 RAB2359E13SNB13 CIG 004V010 SLP009 T00061006 FZRANO PNO $,PAVA,2019-01-15T00:56:00Z,61.53,-165.6,0.6,-0.6,90,22,,2.5,29.309055,1000.9,,TRUE,TRUE,TRUE,,,TRUE,,-SN BR,OVC,700,,,,,,,IFR,,,,,,,,,,,,METAR,23.0
PAVC 150056Z AUTO 12012KT 4SM -RA BR OVC018 04/02 A2913 RMK AO2 SLP871 P0001 T00390022,PAVC,2019-01-15T00:56:00Z,55.12,-162.27,3.9,2.2,120,12,,4.0,29.128937,987.1,,TRUE,TRUE,,,,,,-RA BR,OVC,1800,,,,,,,MVFR,,,,,,0.01,,,,,,METAR,47.0
PAVD 150056Z 00000KT 10SM SCT090 BKN150 M04/M06 A3004 RMK AO2 SLP198 T10441061,PAVD,2019-01-15T00:56:00Z,61.13,-146.25,-4.4,-6.1,0,0,,10.0,30.041338,1019.8,,,TRUE,,,,,,,SCT,9000,BKN,15000,,,,,VFR,,,,,,,,,,,,METAR,37.0
PAWM 150056Z AUTO 09018G25KT 10SM BKN090 OVC100 01/M06 A2965 RMK AO2 PK WND 10028/0035 SLP046 T00111061 FZRANO,PAWM,2019-01-15T00:56:00Z,64.68,-163.42,1.1,-6.1,90,18,25,10.0,29.648623,1004.6,,TRUE,TRUE,,,,TRUE,,,BKN,9000,OVC,10000,,,,,VFR,,,,,,,,,,,,METAR,82.0
PAWN 150056Z AUTO 03005KT 10SM CLR M09/M11 A2991 RMK AO2 SLP142 T10891106 FZRANO,PAWN,2019-01-15T00:56:00Z,67.57,-162.98,-8.9,-10.6,30,5,,10.0,29.911417,1014.2,,TRUE,TRUE,,,,TRUE,,,CLR,,,,,,,,VFR,,,,,,,,,,,,METAR,30.0
PAWS 150056Z AUTO 07011KT 10SM CLR 02/M08 A2995 RMK AO2 SLP158 T00171083 FZRANO,PAWS,2019-01-15T00:56:00Z,61.57,-149.53,1.7,-8.3,70,11,,10.0,29.949802,1015.8,,TRUE,TRUE,,,,TRUE,,,CLR,,,,,,,,VFR,,,,,,,,,,,,METAR,107.0
PFKT 150056Z AUTO 09023KT 10SM OVC060 01/M04 A2963 RMK AO2 PK WND 08031/0019 UPE33 SLP035 P0000 T00061039 FZRANO,PFKT,2019-01-15T00:56:00Z,65.33,-166.47,0.6,-3.9,90,23,,10.0,29.630905,1003.5,,TRUE,TRUE,,,,TRUE,,,OVC,6000,,,,,,,VFR,,,,,,0.005,,,,,,METAR,9.0
PPIZ 150056Z AUTO 07016KT 6SM BR CLR M21/M23 A2996 RMK AO2 SLP149 T12061228 FZRANO,PPIZ,2019-01-15T00:56:00Z,69.73,-163.0,-20.6,-22.8,70,16,,6.0,29.958662,1014.9,,TRUE,TRUE,,,,TRUE,,BR,CLR,,,,,,,,VFR,,,,,,,,,,,,METAR,8.0
PHNY 150056Z AUTO 21005KT 10SM OVC035 23/14 A3005 RMK AO2 SLP159 T02280144,PHNY,2019-01-15T00:56:00Z,20.77,-156.93,22.8,14.4,210,5,,10.0,30.050198,1015.9,,TRUE,TRUE,,,,,,,OVC,3500,,,,,,,VFR,,,,,,,,,,,,METAR,399.0
PMDY 150056Z AUTO 23018KT BKN075 25/22 A2988 RMK AO2 SLP117 T02500217 PWINO $,PMDY,2019-01-15T00:56:00Z,28.22,-177.37,25.0,21.7,230,18,,,29.878937,1011.7,,TRUE,TRUE,TRUE,,,,TRUE,,BKN,7500,,,,,,,,,,,,,,,,,,,METAR,4.0
PABL 150056Z AUTO 17007KT 10SM FEW090 SCT110 M08/M11 A2989 RMK AO2 SLP124 T10781106 FZRANO,PABL,2019-01-15T00:56:00Z,65.98,-161.15,-7.8,-10.6,170,7,,10.0,29.890747,1012.4,,TRUE,TRUE,,,,TRUE,,,FEW,9000,SCT,11000,,,,,VFR,,,,,,,,,,,,METAR,7.0
PADU 150056Z 21010KT 10SM SCT039 BKN046 03/M03 A2902 RMK AO2 SLP833 T00331028,PADU,2019-01-15T00:56:00Z,53.9,-166.53,3.3,-2.8,210,10,,10.0,29.019686,983.3,,,TRUE,,,,,,,SCT,3900,BKN,4600,,,,,VFR,,,,,,,,,,,,METAR,4.0
PAEM 150056Z AUTO 12024G29KT 8SM BKN060 00/M03 A2944 RMK AO2 PK WND 12029/0055 SLP028 T00001028 FZRANO,PAEM,2019-01-15T00:56:00Z,62.78,-164.48,0.0,-2.8,120,24,29,8.0,29.438976,1002.8,,TRUE,TRUE,,,,TRUE,,,BKN,6000,,,,,,,VFR,,,,,,,,,,,,METAR,3.0
PAGA 150056Z AUTO 01006KT 10SM CLR M16/M18 A2994 RMK AO2 SLP142 T11611178 FZRANO,PAGA,2019-01-15T00:56:00Z,64.73,-156.93,-16.1,-17.8,10,6,,10.0,29.940945,1014.2,,TRUE,TRUE,,,,TRUE,,,CLR,,,,,,,,VFR,,,,,,,,,,,,METAR,46.0
PAGM 150056Z AUTO 05019KT 1 1/4SM -SN BR SCT008 OVC016 M04/M05 A2938 RMK AO2 SNB25 SLP955 P0000 T10391050 FZRANO,PAGM,2019-01-15T00:56:00Z,63.77,-171.73,-3.9,-5.0,50,19,,1.25,29.379921,995.5,,TRUE,TRUE,,,,TRUE,,-SN BR,SCT,800,OVC,1600,,,,,IFR,,,,,,0.005,,,,,,METAR,8.0
PAGS 150056Z AUTO 00000KT 1/4SM FG BKN003 OVC045 02/02 A3008 RMK AO2 UPB21E31 SLP187 P0000 T00170017 FZRANO RVRNO,PAGS,2019-01-15T00:56:00Z,58.42,-135.73,1.7,1.7,0,0,,0.25,30.079725,1018.7,,TRUE,TRUE,,,,TRUE,,FG,BKN,300,OVC,4500,,,,,LIFR,,,,,,0.005,,,,,,METAR,9.0
PAHL 150056Z AUTO 08010KT 10SM CLR M10/M14 A2996 RMK AO2 SLP155 T11001139 FZRANO,PAHL,2019-01-15T00:56:00Z,65.7,-156.35,-10.0,-13.9,80,10,,10.0,29.958662,1015.5,,TRUE,TRUE,,,,TRUE,,,CLR,,,,,,,,VFR,,,,,,,,,,,,METAR,65.0
PAHY 150056Z AUTO 00000KT 10SM OVC033 07/07 A2998 RMK AO2 SLP252 T00720067 $,PAHY,2019-01-15T00:56:00Z,55.2,-132.83,7.2,6.7,0,0,,10.0,29.97933,1025.2,,TRUE,TRUE,TRUE,,,,,,OVC,3300,,,,,,,VFR,,,,,,,,,,,,METAR,1.0
PAIG 150056Z AUTO 06022G31KT 10SM CLR 05/02 A2960 RMK AO2 PK WND 07032/0024 SLP033 T00500017 $,PAIG,2019-01-15T00:56:00Z,59.32,-155.9,5.0,1.7,60,22,31,10.0,29.601377,1003.3,,TRUE,TRUE,TRUE,,,,,,CLR,,,,,,,,VFR,,,,,,,,,,,,METAR,28.0
PAIK 150056Z AUTO 10013G17KT 10SM CLR M06/M10 A2994 RMK AO2 SLP146 T10561100 FZRANO,PAIK,2019-01-15T00:56:00Z,66.98,-160.43,-5.6,-10.0,100,13,17,10.0,29.940945,1014.6,,TRUE,TRUE,,,,TRUE,,,CLR,,,,,,,,VFR,,,,,,,,,,,,METAR,51.0
PAIN 150056Z AUTO 00000KT 10SM CLR M03/M09 A2992 RMK AO2 SLP165 T10331089 FZRANO,PAIN,2019-01-15T00:56:00Z,63.73,-148.92,-3.3,-8.9,0,0,,10.0,29.920275,1016.5,,TRUE,TRUE,,,,TRUE,,,CLR,,,,,,,,VFR,,,,,,,,,,,,METAR,524.0
PAKF 150056Z AUTO 19013G17KT 8SM -RA FEW012 BKN016 OVC031 03/02 A2906 RMK AO2 RAE07B32 SLP841 P0001 T00330017,PAKF,2019-01-15T00:56:00Z,54.85,-163.42,3.3,1.7,190,13,17,8.0,29.061024,984.1,,TRUE,TRUE,,,,,,-RA,FEW,1200,BKN,1600,OVC,3100,,,MVFR,,,,,,0.01,,,,,,METAR,6.0
PAKH 150056Z AUTO 11023G29KT 10SM OVC016 06/02 A2962 RMK AO2 PK WND 11034/0029 SLP032 T00560022 $,PAKH,2019-01-15T00:56:00Z,56.93,-154.18,5.6,2.2,110,23,29,10.0,29.619095,1003.2,,TRUE,TRUE,TRUE,,,,,,OVC,1600,,,,,,,MVFR,,,,,,,,,,,,METAR,14.0
PALG 150056Z AUTO 09013G25KT 10SM CLR 04/M01 A2948 RMK AO2 SLP989 T00441011,PALG,2019-01-15T00:56:00Z,61.53,-160.33,4.4,-1.1,90,13,25,10.0,29.480314,998.9,,TRUE,TRUE,,,,,,,CLR,,,,,,,,VFR,,,,,,,,,,,,METAR,17.0
PAMB 150056Z AUTO 08020KT 10SM SCT070 OVC100 03/M01 A2940 RMK AO2 PK WND 09030/0029 SLP963 T00331011 $,PAMB,2019-01-15T00:56:00Z,58.98,-159.05,3.3,-1.1,80,20,,10.0,29.40059,996.3,,TRUE,TRUE,TRUE,,,,,,SCT,7000,OVC,10000,,,,,VFR,,,,,,,,,,,,METAR,16.0
PAMH 150056Z AUTO 00000KT 10SM CLR M21/M22 A2997 RMK AO2 SLP902 T12061222 FZRANO,PAMH,2019-01-15T00:56:00Z,63.9,-152.32,-20.6,-22.2,0,0,,10.0,29.970472,990.2,,TRUE,TRUE,,,,TRUE,,,CLR,,,,,,,,VFR,,,,,,,,,,,,METAR,214.0
K1AM 150056Z AUTO 00000KT 10SM CLR 01/M14 A3003 RMK AO2 SLP171 T00051142 $,K1AM,2019-01-15T00:56:00Z,47.28,-110.8,0.5,-14.2,0,0,,10.0,30.029528,1017.1,,TRUE,TRUE,TRUE,,,,,,CLR,,,,,,,,VFR,,,,,,,,,,,,METAR,1219.0
K1FM 150056Z AUTO 00000KT 10SM CLR M04/M14 A3003 RMK AO2 SLP228 T10411145 $,K1FM,2019-01-15T00:56:00Z,47.6,-112.32,-4.1,-14.5,0,0,,10.0,30.029528,1022.8,,TRUE,TRUE,TRUE,,,,,,CLR,,,,,,,,VFR,,,,,,,,,,,,METAR,1116.0
K1HM 150056Z AUTO 25003KT 10SM CLR 00/M15 A3002 RMK AO2 SLP205 T10031146 $,K1HM,2019-01-15T00:56:00Z,,,-0.3,-14.6,250,3,,10.0,30.02067,1020.5,,TRUE,TRUE,TRUE,,,,,,CLR,,,,,,,,VFR,,,,,,,,,,,,METAR,
K1LM 150056Z AUTO 12011KT 10SM CLR 00/M14 A3002 RMK AO2 SLP221 T00041143 $,K1LM,2019-01-15T00:56:00Z,46.7,-109.73,0.4,-14.3,120,11,,10.0,30.02067,1022.1,,TRUE,TRUE,TRUE,,,,,,CLR,,,,,,,,VFR,,,,,,,,,,,,METAR,1414.0
K1OM 150056Z AUTO 27004KT 10SM CLR 02/M11 A3001 RMK AO2 SLP192 T00151108 $,K1OM,2019-01-15T00:56:00Z,47.33,-108.93,1.5,-10.8,270,4,,10.0,30.008858,1019.2,,TRUE,TRUE,TRUE,,,,,,CLR,,,,,,,,VFR,,,,,,,,,,,,METAR,1086.0
KNYG 150056Z AUTO 30006KT 10SM CLR M02/M04 A3023 RMK AO2 SLP237 T10221039 ,KNYG,2019-01-15T00:56:00Z,38.5,-77.28,-2.2,-3.9,300,6,,10.0,30.230314,1023.7,,TRUE,TRUE,,,,,,,CLR,,,,,,,,VFR,,,,,,,,,,,,METAR,4.0
KCBG 150056Z AUTO 00000KT 10SM OVC018 M02/M07 A3023 RMK AO2,KCBG,2019-01-15T00:56:00Z,45.57,-93.27,-2.0,-7.0,0,0,,10.0,30.230314,,,TRUE,TRUE,,,,,,,OVC,1800,,,,,,,MVFR,,,,,,,,,,,,METAR,287.0
KCOQ 150056Z AUTO 00000KT 10SM CLR M06/M08 A3018 RMK AO2,KCOQ,2019-01-15T00:56:00Z,46.7,-92.5,-6.0,-8.0,0,0,,10.0,30.180119,,,TRUE,TRUE,,,,,,,CLR,,,,,,,,VFR,,,,,,,,,,,,METAR,390.0
KDRM 150056Z AUTO 00000KT 5SM BR BKN012 OVC018 00/M02 A3010 RMK AO2 T10031020,KDRM,2019-01-15T00:56:00Z,46.0,-83.75,-0.3,-2.0,0,0,,5.0,30.100393,,,TRUE,TRUE,,,,,,BR,BKN,1200,OVC,1800,,,,,MVFR,,,,,,,,,,,,METAR,204.0
KERY 150056Z AUTO 25006KT 5SM BR SCT014 BKN025 OVC031 M02/M03 A3011 RMK AO2 T10231035,KERY,2019-01-15T00:56:00Z,46.3,-85.45,-2.3,-3.5,250,6,,5.0,30.109253,,,TRUE,TRUE,,,,,,BR,SCT,1400,BKN,2500,OVC,3100,,,MVFR,,,,,,,,,,,,METAR,265.0
KFKS 150056Z AUTO 26007KT 10SM OVC016 00/M04 A3017 RMK AO2 T10021037,KFKS,2019-01-15T00:56:00Z,44.63,-86.2,-0.2,-3.7,260,7,,10.0,30.171259,,,TRUE,TRUE,,,,,,,OVC,1600,,,,,,,MVFR,,,,,,,,,,,,METAR,193.0
PASD 150056Z 16010KT 10SM SCT015 BKN019 BKN024 05/03 A2919 RMK AO2 RAE33 SLP888 T00500028 PNO $,PASD,2019-01-15T00:56:00Z,55.33,-160.5,5.0,2.8,160,10,,10.0,29.190945,988.8,,,TRUE,TRUE,,,,,,SCT,1500,BKN,1900,BKN,2400,,,MVFR,,,,,,,,,,,,METAR,7.0
KFSE 150056Z AUTO 00000KT 3/4SM BR OVC002 M09/M09 A3023 RMK AO2,KFSE,2019-01-15T00:56:00Z,47.58,-95.77,-9.0,-9.0,0,0,,0.75,30.230314,,,TRUE,TRUE,,,,,,BR,OVC,200,,,,,,,LIFR,,,,,,,,,,,,METAR,389.0
KISO 150056Z 00000KT 10SM SCT024 02/00 A3022,KISO,2019-01-15T00:56:00Z,35.32,-77.62,2.0,0.0,0,0,,10.0,30.221457,,,,,,,,,,,SCT,2400,,,,,,,VFR,,,,,,,,,,,,METAR,29.0
KJKJ 150056Z AUTO 33005KT 4SM BR OVC005 M07/M08 A3027 RMK AO2,KJKJ,2019-01-15T00:56:00Z,46.83,-96.67,-7.0,-8.0,330,5,,4.0,30.268702,,,TRUE,TRUE,,,,,,BR,OVC,500,,,,,,,IFR,,,,,,,,,,,,METAR,280.0
KJYG 150056Z AUTO 32005KT 7SM OVC011 M02/M02 A3024 RMK AO2,KJYG,2019-01-15T00:56:00Z,43.98,-94.55,-2.0,-2.0,320,5,,7.0,30.239174,,,TRUE,TRUE,,,,,,,OVC,1100,,,,,,,MVFR,,,,,,,,,,,,METAR,325.0
KAXV 150056Z AUTO 00000KT 7SM CLR M10/M12 A3029 RMK AO2,KAXV,2019-01-15T00:56:00Z,40.5,-84.3,-10.0,-12.0,0,0,,7.0,30.28937,,,TRUE,TRUE,,,,,,,CLR,,,,,,,,VFR,,,,,,,,,,,,METAR,279.0
KADC 150056Z AUTO 29003KT 7SM CLR M07/M08 A3021 RMK AO2,KADC,2019-01-15T00:56:00Z,46.45,-95.22,-7.0,-8.0,290,3,,7.0,30.209646,,,TRUE,TRUE,,,,,,,CLR,,,,,,,,VFR,,,,,,,,,,,,METAR,418.0
KCAD 150056Z AUTO 25005KT 10SM OVC011 M02/M03 A3013 RMK AO2 T10191040,KCAD,2019-01-15T00:56:00Z,44.27,-85.42,-1.9,-4.0,250,5,,10.0,30.129921,,,TRUE,TRUE,,,,,,,OVC,1100,,,,,,,MVFR,,,,,,,,,,,,METAR,398.0
KLDM 150056Z AUTO 24007KT 10SM OVC015 00/M02 A3018 RMK AO2 T00031022,KLDM,2019-01-15T00:56:00Z,43.97,-86.4,0.3,-2.2,240,7,,10.0,30.180119,,,TRUE,TRUE,,,,,,,OVC,1500,,,,,,,MVFR,,,,,,,,,,,,METAR,197.0
KMCD 150056Z AUTO 27009KT 2SM BR OVC004 M01/M01 A3012 RMK AO2 T10101010,KMCD,2019-01-15T00:56:00Z,45.85,-84.63,-1.0,-1.0,270,9,,2.0,30.121063,,,TRUE,TRUE,,,,,,BR,OVC,400,,,,,,,LIFR,,,,,,,,,,,,METAR,226.0
KABH 150056Z AUTO 00000KT A3017 RMK AO2 SLPNO $ ,KABH,2019-01-15T00:56:00Z,38.75,-104.3,,,0,0,,,30.171259,,,TRUE,TRUE,TRUE,,,,,,,,,,,,,,,,,,,,,,,,,,METAR,1840.0
KGNA 150056Z AUTO 03003KT M03/M09 A3022 RMK AO1 SLP247 T10331089 ,KGNA,2019-01-15T00:56:00Z,47.75,-90.35,-3.3,-8.9,30,3,,,30.221457,1024.7,,TRUE,TRUE,,,,,,,,,,,,,,,,,,,,,,,,,,,METAR,185.0
KALK 150056Z AUTO 19007KT 10SM CLR 11/M03 A3017 RMK AO2 SLP168 T01111033 ,KALK,2019-01-15T00:56:00Z,31.6,-110.43,11.1,-3.3,190,7,,10.0,30.171259,1016.8,,TRUE,TRUE,,,,,,,CLR,,,,,,,,VFR,,,,,,,,,,,,METAR,1453.0
K8D3 150056Z AUTO 36003KT M07/M07 A3025 RMK AO1 SLP274 T10721072 ,K8D3,2019-01-15T00:56:00Z,45.67,-96.98,-7.2,-7.2,360,3,,,30.250984,1027.4,,TRUE,TRUE,,,,,,,,,,,,,,,,,,,,,,,,,,,METAR,354.0
KP28 150056Z AUTO 13007KT 03/01 A3027 RMK AO1 SLP262 T00330011 ,KP28,2019-01-15T00:56:00Z,37.28,-98.55,3.3,1.1,130,7,,,30.268702,1026.2,,TRUE,TRUE,,,,,,,,,,,,,,,,,,,,,,,,,,,METAR,469.0
KTOB 150056Z AUTO 30004KT 10SM OVC008 M02/M04 A3020 RMK AO2,KTOB,2019-01-15T00:56:00Z,44.02,-92.82,-2.0,-4.0,300,4,,10.0,30.200787,,,TRUE,TRUE,,,,,,,OVC,800,,,,,,,IFR,,,,,,,,,,,,METAR,398.0
KTTF 150056Z AUTO 24006KT 10SM CLR M05/M06 A3024 RMK AO2 T10461061,KTTF,2019-01-15T00:56:00Z,41.93,-83.42,-4.6,-6.1,240,6,,10.0,30.239174,,,TRUE,TRUE,,,,,,,CLR,,,,,,,,VFR,,,,,,,,,,,,METAR,188.0
KVLL 150056Z AUTO 00000KT 10SM CLR M01/M09 A3024 RMK AO2 T10151089,KVLL,2019-01-15T00:56:00Z,42.55,-83.18,-1.5,-8.9,0,0,,10.0,30.239174,,,TRUE,TRUE,,,,,,,CLR,,,,,,,,VFR,,,,,,,,,,,,METAR,222.0
KVWU 150056Z AUTO 00000KT 3/4SM BR OVC001 M13/M14 A3021 RMK AO2 VIS 1/2V3,KVWU,2019-01-15T00:56:00Z,48.15,-94.52,-13.0,-14.0,0,0,,0.75,30.209646,,,TRUE,TRUE,,,,,,BR,OVC,100,,,,,,,LIFR,,,,,,,,,,,,METAR,360.0
KMVE 150056Z AUTO 03004KT 10SM OVC011 M03/M05 A3025 RMK AO2,KMVE,2019-01-15T00:56:00Z,44.97,-95.72,-3.0,-5.0,30,4,,10.0,30.250984,,,TRUE,TRUE,,,,,,,OVC,1100,,,,,,,MVFR,,,,,,,,,,,,METAR,315.0
KOZW 150056Z AUTO 29007KT 10SM OVC022 M02/M07 A3022 RMK AO2 T10161066,KOZW,2019-01-15T00:56:00Z,42.62,-83.97,-1.6,-6.6,290,7,,10.0,30.221457,,,TRUE,TRUE,,,,,,,OVC,2200,,,,,,,MVFR,,,,,,,,,,,,METAR,293.0
KOVL 150056Z AUTO 34003KT 10SM OVC012 M02/M04 A3023 RMK AO2,KOVL,2019-01-15T00:56:00Z,44.78,-95.03,-2.0,-4.0,340,3,,10.0,30.230314,,,TRUE,TRUE,,,,,,,OVC,1200,,,,,,,MVFR,,,,,,,,,,,,METAR,328.0
KONZ 150056Z AUTO 24007KT 10SM CLR M03/M07 A3023 RMK AO2 T10351072,KONZ,2019-01-15T00:56:00Z,42.1,-83.15,-3.5,-7.2,240,7,,10.0,30.230314,,,TRUE,TRUE,,,,,,,CLR,,,,,,,,VFR,,,,,,,,,,,,METAR,180.0
KPZQ 150056Z AUTO 26003KT 3SM -SN OVC010 M01/M02 A3015 RMK AO2 T10101017,KPZQ,2019-01-15T00:56:00Z,45.4,-83.82,-1.0,-1.7,260,3,,3.0,30.15059,,,TRUE,TRUE,,,,,,-SN,OVC,1000,,,,,,,MVFR,,,,,,,,,,,,METAR,204.0
KMHS 150056Z AUTO 00000KT 10SM OVC080 08/M07 A2986 RMK AO2 SLP129 T00781067 ,KMHS,2019-01-15T00:56:00Z,41.32,-122.32,7.8,-6.7,0,0,,10.0,29.861221,1012.9,,TRUE,TRUE,,,,,,,OVC,8000,,,,,,,VFR,,,,,,,,,,,,METAR,1078.0
KSLH 150056Z AUTO 25005KT 10SM OVC033 M01/M03 A3012 RMK AO2 T10061027,KSLH,2019-01-15T00:56:00Z,45.65,-84.52,-0.6,-2.7,250,5,,10.0,30.121063,,,TRUE,TRUE,,,,,,,OVC,3300,,,,,,,VFR,,,,,,,,,,,,METAR,195.0
KSGS 150056Z AUTO 00000KT 10SM OVC014 M01/M03 A3023 RMK AO2 T10101033,KSGS,2019-01-15T00:56:00Z,44.87,-93.03,-1.0,-3.3,0,0,,10.0,30.230314,,,TRUE,TRUE,,,,,,,OVC,1400,,,,,,,MVFR,,,,,,,,,,,,METAR,250.0
KSAZ 150056Z AUTO 00000KT 10SM CLR M10/M11 A3022 RMK AO2,KSAZ,2019-01-15T00:56:00Z,46.37,-94.8,-10.0,-11.0,0,0,,10.0,30.221457,,,TRUE,TRUE,,,,,,,CLR,,,,,,,,VFR,,,,,,,,,,,,METAR,392.0
KNUC 150056Z 18007KT 10SM SCT012 BKN250 14/11 A2996 RMK AO2 SLP143 T01390106 PNO $ ,KNUC,2019-01-15T00:56:00Z,33.02,-118.57,13.9,10.6,180,7,,10.0,29.958662,1014.3,,,TRUE,TRUE,,,,,,SCT,1200,BKN,25000,,,,,VFR,,,,,,,,,,,,METAR,55.0
KNTU 150056Z 33003KT 10SM SCT070 M01/M03 A3019 RMK AO2 SLP226 T10061033 ,KNTU,2019-01-15T00:56:00Z,36.82,-76.02,-0.6,-3.3,330,3,,10.0,30.188976,1022.6,,,TRUE,,,,,,,SCT,7000,,,,,,,VFR,,,,,,,,,,,,METAR,7.0
PHBK 150056Z AUTO 35012KT 10SM OVC060 28/16 A2998 RMK AO2 SLP154 T02830161 ,PHBK,2019-01-15T00:56:00Z,22.03,-159.78,28.3,16.1,350,12,,10.0,29.97933,1015.4,,TRUE,TRUE,,,,,,,OVC,6000,,,,,,,VFR,,,,,,,,,,,,METAR,8.0
KNMM 150056Z 02010KT 10SM OVC018 06/02 A3034 RMK AO2 SLP288 T00610017 ,KNMM,2019-01-15T00:56:00Z,32.53,-88.57,6.1,1.7,20,10,,10.0,30.339567,1028.8,,,TRUE,,,,,,,OVC,1800,,,,,,,MVFR,,,,,,,,,,,,METAR,97.0
KNCA 150056Z 34005KT 10SM OVC013 04/M01 A3021 RMK AO2 SLP232 T00391006 ,KNCA,2019-01-15T00:56:00Z,34.72,-77.45,3.9,-0.6,340,5,,10.0,30.209646,1023.2,,,TRUE,,,,,,,OVC,1300,,,,,,,MVFR,,,,,,,,,,,,METAR,8.0
KMQE 150056Z AUTO 32005KT M06/M09 A3005 RMK AO1 SLP196 T10561094 ,KMQE,2019-01-15T00:56:00Z,42.22,-71.12,-5.6,-9.4,320,5,,,30.050198,1019.6,,TRUE,TRUE,,,,,,,,,,,,,,,,,,,,,,,,,,,METAR,199.0
KNQI 150056Z 02007KT 10SM FEW022 BKN028 OVC035 10/04 A3038 RMK AO2 SLP284 T01000044 ,KNQI,2019-01-15T00:56:00Z,27.5,-97.82,10.0,4.4,20,7,,10.0,30.380905,1028.4,,,TRUE,,,,,,,FEW,2200,BKN,2800,OVC,3500,,,MVFR,,,,,,,,,,,,METAR,15.0
KSPD 150056Z AUTO 26003KT M01/M03 A3020 RMK AO1 SLP246 T10061033 ,KSPD,2019-01-15T00:56:00Z,37.28,-102.62,-0.6,-3.3,260,3,,,30.200787,1024.6,,TRUE,TRUE,,,,,,,,,,,,,,,,,,,,,,,,,,,METAR,1335.0
KAQV 150056Z AUTO 02004KT 10SM OVC018 05/01 A3038 RMK AO2 SLP291 T00500006 ,KAQV,2019-01-15T00:56:00Z,31.4,-93.3,5.0,0.6,20,4,,10.0,30.380905,1029.1,,TRUE,TRUE,,,,,,,OVC,1800,,,,,,,MVFR,,,,,,,,,,,,METAR,111.0
K79J 150056Z AUTO 31005KT 10SM OVC020 08/03 A3028 RMK AO2 SLP254 T00780028 ,K79J,2019-01-15T00:56:00Z,31.32,-86.4,7.8,2.8,310,5,,10.0,30.280512,1025.4,,TRUE,TRUE,,,,,,,OVC,2000,,,,,,,MVFR,,,,,,,,,,,,METAR,94.0
KPRN 150056Z AUTO 33005KT 10SM FEW013 OVC020 07/02 A3028 RMK AO2 SLP253 T00670022 ,KPRN,2019-01-15T00:56:00Z,31.85,-86.62,6.7,2.2,330,5,,10.0,30.280512,1025.3,,TRUE,TRUE,,,,,,,FEW,1300,OVC,2000,,,,,MVFR,,,,,,,,,,,,METAR,138.0
KMEH 150056Z AUTO 00000KT 10SM CLR 02/M10 A3005 RMK AO2 SLP205 T00171100 ,KMEH,2019-01-15T00:56:00Z,45.52,-118.42,1.7,-10.0,0,0,,10.0,30.050198,1020.5,,TRUE,TRUE,,,,,,,CLR,,,,,,,,VFR,,,,,,,,,,,,METAR,1136.0
KNPA 150056Z 34011G17KT 10SM OVC016 06/03 A3031 RMK AO2 SLP264 T00610028 ,KNPA,2019-01-15T00:56:00Z,30.35,-87.32,6.1,2.8,340,11,17,10.0,30.31004,1026.4,,,TRUE,,,,,,,OVC,1600,,,,,,,MVFR,,,,,,,,,,,,METAR,9.0
KP53 150056Z AUTO 35009KT 00/M03 A3013 RMK AO1 SLP213 P0001 T00001028 ,KP53,2019-01-15T00:56:00Z,46.42,-86.65,0.0,-2.8,350,9,,,30.129921,1021.3,,TRUE,TRUE,,,,,,,,,,,,,,,,,,,,,0.01,,,,,,METAR,187.0
KNBC 150056Z 02008KT 10SM OVC014 07/05 A3023 RMK AO2 SLP238 T00720050 ,KNBC,2019-01-15T00:56:00Z,32.47,-80.72,7.2,5.0,20,8,,10.0,30.230314,1023.8,,,TRUE,,,,,,,OVC,1400,,,,,,,MVFR,,,,,,,,,,,,METAR,12.0
KNFE 150056Z AUTO 00000KT 10SM CLR 00/M03 A3020 RMK AO2 SLP229 T00001033 ,KNFE,2019-01-15T00:56:00Z,36.7,-76.13,0.0,-3.3,0,0,,10.0,30.200787,1022.9,,TRUE,TRUE,,,,,,,CLR,,,,,,,,VFR,,,,,,,,,,,,METAR,5.0
KEZS 150055Z AUTO 24003KT 5SM BR OVC007 M01/M03 A3018 RMK AO2 T10101027,KEZS,2019-01-15T00:55:00Z,44.78,-88.57,-1.0,-2.7,240,3,,5.0,30.180119,,,TRUE,TRUE,,,,,,BR,OVC,700,,,,,,,IFR,,,,,,,,,,,,METAR,248.0
KGGI 150055Z AUTO 25005KT 10SM OVC007 M03/M03 A3028 RMK AO2 T10301034,KGGI,2019-01-15T00:55:00Z,41.72,-92.73,-3.0,-3.4,250,5,,10.0,30.280512,,,TRUE,TRUE,,,,,,,OVC,700,,,,,,,IFR,,,,,,,,,,,,METAR,307.0
KMBY 150055Z AUTO 24008KT 4SM BR OVC004 M02/M03 A3033 RMK AO2,KMBY,2019-01-15T00:55:00Z,39.47,-92.43,-2.0,-3.0,240,8,,4.0,30.33071,,,TRUE,TRUE,,,,,,BR,OVC,400,,,,,,,LIFR,,,,,,,,,,,,METAR,264.0
KSUW 150055Z AUTO 34004KT 10SM CLR M05/M07 A3023 RMK AO2 T10481074,KSUW,2019-01-15T00:55:00Z,46.68,-92.1,-4.8,-7.4,340,4,,10.0,30.230314,,,TRUE,TRUE,,,,,,,CLR,,,,,,,,VFR,,,,,,,,,,,,METAR,206.0
KC62 150055Z AUTO 25005KT 10SM OVC020 M03/M07 A3025 RMK AO2 T10301075,KC62,2019-01-15T00:55:00Z,41.47,-85.25,-3.0,-7.5,250,5,,10.0,30.250984,,,TRUE,TRUE,,,,,,,OVC,2000,,,,,,,MVFR,,,,,,,,,,,,METAR,306.0
KCKM 150055Z AUTO 31004KT 10SM SCT017 OVC030 05/03 A3039 RMK A01,KCKM,2019-01-15T00:55:00Z,34.3,-90.52,5.0,3.0,310,4,,10.0,30.389763,,,TRUE,TRUE,,,,,,,SCT,1700,OVC,3000,,,,,MVFR,,,,,,,,,,,,METAR,53.0
K1S5 150055Z AUTO 33005KT 10SM OVC018 00/M02 A3026 RMK AO2 T10021019,K1S5,2019-01-15T00:55:00Z,46.33,-119.97,-0.2,-1.9,330,5,,10.0,30.259842,,,TRUE,TRUE,,,,,,,OVC,1800,,,,,,,MVFR,,,,,,,,,,,,METAR,234.0
KUNU 150055Z AUTO 24008KT 10SM OVC012 M03/M05 A3023 RMK AO2 T10351054 TSNO,KUNU,2019-01-15T00:55:00Z,43.42,-88.7,-3.5,-5.4,240,8,,10.0,30.230314,,,TRUE,TRUE,,,TRUE,,,,OVC,1200,,,,,,,MVFR,,,,,,,,,,,,METAR,285.0
KGPH 150055Z AUTO 24003KT 7SM OVC005 M01/M02 A3033 RMK AO2,KGPH,2019-01-15T00:55:00Z,39.33,-94.32,-1.0,-2.0,240,3,,7.0,30.33071,,,TRUE,TRUE,,,,,,,OVC,500,,,,,,,IFR,,,,,,,,,,,,SPECI,235.0
KCLI 150055Z AUTO 25004KT 3SM BR OVC005 M02/M04 A3019 RMK AO2 T10251036,KCLI,2019-01-15T00:55:00Z,44.62,-88.73,-2.5,-3.6,250,4,,3.0,30.188976,,,TRUE,TRUE,,,,,,BR,OVC,500,,,,,,,IFR,,,,,,,,,,,,METAR,250.0
KRPD 150055Z AUTO 33003KT 10SM OVC016 M01/M02 A3021 RMK AO2 T10101021,KRPD,2019-01-15T00:55:00Z,45.42,-91.77,-1.0,-2.1,330,3,,10.0,30.209646,,,TRUE,TRUE,,,,,,,OVC,1600,,,,,,,MVFR,,,,,,,,,,,,METAR,338.0
KRRL 150055Z AUTO 28003KT 4SM UP OVC012 M02/M02 A3017 RMK AO2 T10221022 TSNO,KRRL,2019-01-15T00:55:00Z,45.2,-89.72,-2.2,-2.2,280,3,,4.0,30.171259,,,TRUE,TRUE,,,TRUE,,,UP,OVC,1200,,,,,,,MVFR,,,,,,,,,,,,METAR,401.0
KSIF 150055Z AUTO 10SM OVC047 02/01 A3021 RMK AO2 T00220010,KSIF,2019-01-15T00:55:00Z,36.43,-79.85,2.2,1.0,,,,10.0,30.209646,,,TRUE,TRUE,,,,,,,OVC,4700,,,,,,,VFR,,,,,,,,,,,,METAR,211.0
KAID 150055Z AUTO 00000KT 10SM CLR M08/M09 A3030 RMK AO2 T10801091,KAID,2019-01-15T00:55:00Z,40.12,-85.62,-8.0,-9.1,0,0,,10.0,30.301182,,,TRUE,TRUE,,,,,,,CLR,,,,,,,,VFR,,,,,,,,,,,,SPECI,280.0
KSPA 150055Z AUTO 00000KT 10SM OVC023 07/03 A3018 RMK AO2,KSPA,2019-01-15T00:55:00Z,34.92,-81.93,7.0,3.0,0,0,,10.0,30.180119,,,TRUE,TRUE,,,,,,,OVC,2300,,,,,,,MVFR,,,,,,,,,,,,METAR,303.0
KPLD 150055Z AUTO 00000KT 10SM CLR M07/M10 A3028 RMK AO2,KPLD,2019-01-15T00:55:00Z,40.45,-84.98,-7.0,-10.0,0,0,,10.0,30.280512,,,TRUE,TRUE,,,,,,,CLR,,,,,,,,VFR,,,,,,,,,,,,SPECI,282.0
KPGV 150055Z AUTO 00000KT 10SM CLR 00/M01 A3022 RMK AO2,KPGV,2019-01-15T00:55:00Z,35.62,-77.4,0.0,-1.0,0,0,,10.0,30.221457,,,TRUE,TRUE,,,,,,,CLR,,,,,,,,VFR,,,,,,,,,,,,METAR,8.0
KDCM 150055Z AUTO 00000KT 10SM OVC060 04/03 A3020 RMK AO2,KDCM,2019-01-15T00:55:00Z,34.78,-81.2,4.0,3.0,0,0,,10.0,30.200787,,,TRUE,TRUE,,,,,,,OVC,6000,,,,,,,VFR,,,,,,,,,,,,METAR,200.0
KCNW 150055Z 00000KT 7SM SKC 04/01 A3040,KCNW,2019-01-15T00:55:00Z,31.63,-97.07,4.0,1.0,0,0,,7.0,30.398623,,,,,,,,,,,SKC,,,,,,,,VFR,,,,,,,,,,,,METAR,156.0
KPBH 150055Z AUTO 00000KT 10SM OVC008 M02/M02 A3015 RMK AO2 T10251025,KPBH,2019-01-15T00:55:00Z,45.7,-90.4,-2.5,-2.5,0,0,,10.0,30.15059,,,TRUE,TRUE,,,,,,,OVC,800,,,,,,,IFR,,,,,,,,,,,,SPECI,449.0
KLUL 150055Z AUTO 35004KT OVC027 06/01 A3035 RMK AO2 T00620010,KLUL,2019-01-15T00:55:00Z,31.67,-89.17,6.2,1.0,350,4,,,30.351377,,,TRUE,TRUE,,,,,,,OVC,2700,,,,,,,,,,,,,,,,,,,METAR,73.0
KLQK 150055Z AUTO 00000KT 10SM DZ OVC014 06/06 A3018 RMK AO2 T00560056,KLQK,2019-01-15T00:55:00Z,34.82,-82.7,5.6,5.6,0,0,,10.0,30.180119,,,TRUE,TRUE,,,,,,DZ,OVC,1400,,,,,,,MVFR,,,,,,,,,,,,METAR,309.0
KGEV 150055Z AUTO 29008KT 10SM OVC015 00/M02 A3012 RMK AO2 T00001025,KGEV,2019-01-15T00:55:00Z,36.43,-81.42,0.0,-2.5,290,8,,10.0,30.121063,,,TRUE,TRUE,,,,,,,OVC,1500,,,,,,,MVFR,,,,,,,,,,,,METAR,969.0
KLUX 150055Z AUTO 00000KT 10SM BKN022 OVC029 06/05 A3020 RMK AO2,KLUX,2019-01-15T00:55:00Z,34.5,-81.95,6.0,5.0,0,0,,10.0,30.200787,,,TRUE,TRUE,,,,,,,BKN,2200,OVC,2900,,,,,MVFR,,,,,,,,,,,,METAR,213.0
KOIN 150055Z AUTO 23004KT 10SM CLR M01/M02 A3021 RMK AO1 T10081017,KOIN,2019-01-15T00:55:00Z,39.83,-100.53,-0.8,-1.7,230,4,,10.0,30.209646,,,TRUE,TRUE,,,,,,,CLR,,,,,,,,VFR,,,,,,,,,,,,METAR,824.0
KVNC 150055Z AUTO 34006G12KT 10SM CLR 15/11 A3018 RMK AO2,KVNC,2019-01-15T00:55:00Z,27.07,-82.43,15.0,11.0,340,6,12,10.0,30.180119,,,TRUE,TRUE,,,,,,,CLR,,,,,,,,VFR,,,,,,,,,,,,METAR,6.0
KBNL 150055Z AUTO 00000KT 10SM OVC018 06/04 A3022 RMK AO2,KBNL,2019-01-15T00:55:00Z,33.25,-81.38,6.0,4.0,0,0,,10.0,30.221457,,,TRUE,TRUE,,,,,,,OVC,1800,,,,,,,MVFR,,,,,,,,,,,,METAR,75.0
KEKX 150055Z AUTO 30003KT 10SM CLR M01/M03 A3031 RMK AO2 T10101030,KEKX,2019-01-15T00:55:00Z,,,-1.0,-3.0,300,3,,10.0,30.31004,,,TRUE,TRUE,,,,,,,CLR,,,,,,,,VFR,,,,,,,,,,,,METAR,
KCCY 150055Z AUTO 23004KT 2SM BR OVC003 M02/M02 A3023 RMK AO2,KCCY,2019-01-15T00:55:00Z,43.07,-92.62,-2.0,-2.0,230,4,,2.0,30.230314,,,TRUE,TRUE,,,,,,BR,OVC,300,,,,,,,LIFR,,,,,,,,,,,,METAR,343.0
KC35 150055Z AUTO 24006KT 5SM BR OVC007 M05/M05 A3023 RMK AO2 T10461046,KC35,2019-01-15T00:55:00Z,43.53,-89.98,-4.6,-4.6,240,6,,5.0,30.230314,,,TRUE,TRUE,,,,,,BR,OVC,700,,,,,,,IFR,,,,,,,,,,,,METAR,276.0
FJDG 150055Z 00000KT 9999 FEW022 27/26 A2983 RMK SLP098 T02690255,FJDG,2019-01-15T00:55:00Z,-7.32,72.42,26.9,25.5,0,0,,6.21,29.828741,1009.8,,,,,,,,,,FEW,2200,,,,,,,VFR,,,,,,,,,,,,METAR,3.0
KEOE 150055Z AUTO 00000KT 10SM BKN019 OVC036 06/04 A3023 RMK AO2,KEOE,2019-01-15T00:55:00Z,34.32,-81.63,6.0,4.0,0,0,,10.0,30.230314,,,TRUE,TRUE,,,,,,,BKN,1900,OVC,3600,,,,,MVFR,,,,,,,,,,,,METAR,174.0
KDYA 150055Z AUTO 35006KT 10SM OVC016 05/02 A3034 RMK AO2 T00510015,KDYA,2019-01-15T00:55:00Z,32.47,-87.95,5.1,1.5,350,6,,10.0,30.339567,,,TRUE,TRUE,,,,,,,OVC,1600,,,,,,,MVFR,,,,,,,,,,,,METAR,34.0
KSPF 150055Z AUTO 20007KT 10SM CLR M02/M07 A3011 RMK AO2 PWINO,KSPF,2019-01-15T00:55:00Z,44.47,-103.77,-2.0,-7.0,200,7,,10.0,30.109253,,,TRUE,TRUE,,,,,TRUE,,CLR,,,,,,,,VFR,,,,,,,,,,,,METAR,1188.0
KMNI 150055Z AUTO 00000KT 10SM OVC048 05/02 A3023 RMK AO2,KMNI,2019-01-15T00:55:00Z,33.58,-80.22,5.0,2.0,0,0,,10.0,30.230314,,,TRUE,TRUE,,,,,,,OVC,4800,,,,,,,VFR,,,,,,,,,,,,METAR,32.0
KRCX 150055Z AUTO 00000KT 7SM BKN011 OVC019 M01/M02 A3019 RMK AO2 T10121016,KRCX,2019-01-15T00:55:00Z,45.5,-91.0,-1.2,-1.6,0,0,,7.0,30.188976,,,TRUE,TRUE,,,,,,,BKN,1100,OVC,1900,,,,,MVFR,,,,,,,,,,,,SPECI,377.0
KRCM 150055Z AUTO 23006KT 7SM OVC005 M01/M02 A3034 RMK AO2,KRCM,2019-01-15T00:55:00Z,38.78,-93.8,-1.0,-2.0,230,6,,7.0,30.339567,,,TRUE,TRUE,,,,,,,OVC,500,,,,,,,IFR,,,,,,,,,,,,METAR,244.0
KGAF 150055Z AUTO 12003KT 6SM BR OVC005 M08/M08 A3026 RMK AO2 PWINO,KGAF,2019-01-15T00:55:00Z,48.4,-97.37,-8.0,-8.0,120,3,,6.0,30.259842,,,TRUE,TRUE,,,,,TRUE,BR,OVC,500,,,,,,,IFR,,,,,,,,,,,,SPECI,252.0
KD57 150055Z AUTO 11003KT 7SM CLR M06/M09 A3013 RMK AO2 PWINO,KD57,2019-01-15T00:55:00Z,46.82,-101.87,-6.0,-9.0,110,3,,7.0,30.129921,,,TRUE,TRUE,,,,,TRUE,,CLR,,,,,,,,VFR,,,,,,,,,,,,SPECI,637.0
KSMS 150055Z AUTO 00000KT 10SM FEW035 02/02 A3022 RMK AO2,KSMS,2019-01-15T00:55:00Z,34.0,-80.37,2.0,2.0,0,0,,10.0,30.221457,,,TRUE,TRUE,,,,,,,FEW,3500,,,,,,,VFR,,,,,,,,,,,,METAR,56.0
KLRY 150055Z AUTO 25006KT 5SM BR OVC005 00/M01 A3036 RMK AO2,KLRY,2019-01-15T00:55:00Z,38.62,-94.35,0.0,-1.0,250,6,,5.0,30.360237,,,TRUE,TRUE,,,,,,BR,OVC,500,,,,,,,IFR,,,,,,,,,,,,METAR,279.0
KGMJ 150055Z AUTO 20006KT 5SM BR OVC011 00/M01 A3038 RMK AO2,KGMJ,2019-01-15T00:55:00Z,36.6,-94.73,0.0,-1.0,200,6,,5.0,30.380905,,,TRUE,TRUE,,,,,,BR,OVC,1100,,,,,,,MVFR,,,,,,,,,,,,METAR,254.0
K96D 150055Z AUTO 18008KT 8SM M10/M10 A3020 RMK AO2,K96D,2019-01-15T00:55:00Z,48.93,-97.9,-10.0,-10.0,180,8,,8.0,30.200787,,,TRUE,TRUE,,,,,,,,,,,,,,,,,,,,,,,,,,,METAR,290.0
K74V 150055Z AUTO 00000KT 10SM OVC055 M06/M10 A3039 RMK AO2,K74V,2019-01-15T00:55:00Z,40.28,-110.05,-6.0,-10.0,0,0,,10.0,30.389763,,,TRUE,TRUE,,,,,,,OVC,5500,,,,,,,VFR,,,,,,,,,,,,METAR,1576.0
KCCA 150055Z AUTO 00000KT 10SM OVC029 04/01 A3037 RMK AO2,KCCA,2019-01-15T00:55:00Z,35.6,-92.45,4.0,1.0,0,0,,10.0,30.369095,,,TRUE,TRUE,,,,,,,OVC,2900,,,,,,,MVFR,,,,,,,,,,,,SPECI,157.0
KGGE 150055Z AUTO 00000KT 10SM OVC019 04/01 A3023 RMK AO2,KGGE,2019-01-15T00:55:00Z,33.32,-79.32,4.0,1.0,0,0,,10.0,30.230314,,,TRUE,TRUE,,,,,,,OVC,1900,,,,,,,MVFR,,,,,,,,,,,,SPECI,12.0
KMCJ 150055Z AUTO 00000KT 10SM OVC055 12/02 A3037 RMK A01,KMCJ,2019-01-15T00:55:00Z,29.72,-95.4,12.0,2.0,0,0,,10.0,30.369095,,,TRUE,TRUE,,,,,,,OVC,5500,,,,,,,VFR,,,,,,,,,,,,METAR,69.0
KPCZ 150055Z AUTO 26005KT 7SM OVC009 M01/M04 A3020 RMK AO2 T10151038,KPCZ,2019-01-15T00:55:00Z,44.33,-89.02,-1.5,-3.8,260,5,,7.0,30.200787,,,TRUE,TRUE,,,,,,,OVC,900,,,,,,,IFR,,,,,,,,,,,,METAR,252.0
KSEM 150055Z AUTO 33011KT 10SM 06/02 A3032 RMK AO2,KSEM,2019-01-15T00:55:00Z,32.35,-86.98,6.0,2.0,330,11,,10.0,30.318897,,,TRUE,TRUE,,,,,,,,,,,,,,,,,,,,,,,,,,,SPECI,51.0
KS32 150055Z AUTO 13005KT 1/4SM FZFG OVC001 M09/M09 A3022 RMK AO2,KS32,2019-01-15T00:55:00Z,47.42,-98.1,-9.0,-9.0,130,5,,0.25,30.221457,,,TRUE,TRUE,,,,,,FZFG,OVC,100,,,,,,,LIFR,,,,,,,,,,,,METAR,684.0
KPTS 150055Z AUTO 23007KT 7SM OVC007 00/M01 A3035 RMK AO2 T10021013,KPTS,2019-01-15T00:55:00Z,37.45,-94.73,-0.2,-1.3,230,7,,7.0,30.351377,,,TRUE,TRUE,,,,,,,OVC,700,,,,,,,IFR,,,,,,,,,,,,METAR,290.0
KPSO 150055Z AUTO 00000KT 10SM CLR M03/M03 A3026 RMK AO2 T10321032,KPSO,2019-01-15T00:55:00Z,37.28,-107.05,-3.2,-3.2,0,0,,10.0,30.259842,,,TRUE,TRUE,,,,,,,CLR,,,,,,,,VFR,,,,,,,,,,,,METAR,2334.0
KSVC 150055Z AUTO 14005KT 10SM CLR 06/01 A3022 RMK AO2 T00640007,KSVC,2019-01-15T00:55:00Z,32.63,-108.15,6.4,0.7,140,5,,10.0,30.221457,,,TRUE,TRUE,,,,,,,CLR,,,,,,,,VFR,,,,,,,,,,,,METAR,1659.0
KVTI 150055Z AUTO 25004KT 5SM BR OVC007 M03/M03 A3027 RMK AO2 T10331033,KVTI,2019-01-15T00:55:00Z,42.22,-92.02,-3.3,-3.3,250,4,,5.0,30.268702,,,TRUE,TRUE,,,,,,BR,OVC,700,,,,,,,IFR,,,,,,,,,,,,SPECI,255.0
K2J9 150055Z AUTO 33006G13KT 10SM OVC017 08/04 A3026 RMK AO2,K2J9,2019-01-15T00:55:00Z,30.6,-84.55,8.0,4.0,330,6,13,10.0,30.259842,,,TRUE,TRUE,,,,,,,OVC,1700,,,,,,,MVFR,,,,,,,,,,,,METAR,69.0
KMAW 150055Z AUTO 00000KT 10SM BKN026 03/00 A3039 RMK AO2,KMAW,2019-01-15T00:55:00Z,36.6,-90.0,3.0,0.0,0,0,,10.0,30.389763,,,TRUE,TRUE,,,,,,,BKN,2600,,,,,,,MVFR,,,,,,,,,,,,METAR,90.0
KM25 150055Z AUTO 31003KT 10SM OVC031 00/M01 A3037 RMK AO2,KM25,2019-01-15T00:55:00Z,36.77,-88.58,0.0,-1.0,310,3,,10.0,30.369095,,,TRUE,TRUE,,,,,,,OVC,3100,,,,,,,VFR,,,,,,,,,,,,SPECI,160.0
KLUM 150055Z AUTO 26004KT 10SM OVC024 M03/M04 A3021 RMK AO2 T10261038,KLUM,2019-01-15T00:55:00Z,44.9,-91.87,-2.6,-3.8,260,4,,10.0,30.209646,,,TRUE,TRUE,,,,,,,OVC,2400,,,,,,,MVFR,,,,,,,,,,,,METAR,273.0
KLNL 150055Z AUTO 34005KT 4SM BR OVC006 M02/M03 A3015 RMK AO2 T10251031,KLNL,2019-01-15T00:55:00Z,46.15,-89.22,-2.5,-3.1,340,5,,4.0,30.15059,,,TRUE,TRUE,,,,,,BR,OVC,600,,,,,,,IFR,,,,,,,,,,,,METAR,520.0
KLKR 150055Z AUTO 00000KT 10SM OVC060 04/04 A3020 RMK AO2,KLKR,2019-01-15T00:55:00Z,34.72,-80.85,4.0,4.0,0,0,,10.0,30.200787,,,TRUE,TRUE,,,,,,,OVC,6000,,,,,,,VFR,,,,,,,,,,,,METAR,149.0
KLBO 150055Z AUTO 23003KT 7SM OVC006 00/M01 A3033 RMK AO2,KLBO,2019-01-15T00:55:00Z,37.65,-92.65,0.0,-1.0,230,3,,7.0,30.33071,,,TRUE,TRUE,,,,,,,OVC,600,,,,,,,IFR,,,,,,,,,,,,METAR,403.0
KJSO 150055Z AUTO 05003KT 10SM CLR 03/01 A3040 RMK AO2 T00360011,KJSO,2019-01-15T00:55:00Z,31.87,-95.22,3.6,1.1,50,3,,10.0,30.398623,,,TRUE,TRUE,,,,,,,CLR,,,,,,,,VFR,,,,,,,,,,,,METAR,206.0
KINF 150055Z AUTO 00000KT 10SM CLR 08/08 A3020 RMK AO2,KINF,2019-01-15T00:55:00Z,28.8,-82.32,8.0,8.0,0,0,,10.0,30.200787,,,TRUE,TRUE,,,,,,,CLR,,,,,,,,VFR,,,,,,,,,,,,METAR,15.0
KEOK 150055Z AUTO 25009KT 5SM BR OVC006 M02/M03 A3030 RMK AO2,KEOK,2019-01-15T00:55:00Z,40.47,-91.42,-2.0,-3.0,250,9,,5.0,30.301182,,,TRUE,TRUE,,,,,,BR,OVC,600,,,,,,,IFR,,,,,,,,,,,,METAR,205.0
KCKI 150055Z AUTO 00000KT 10SM CLR 01/01 A3023 RMK AO2,KCKI,2019-01-15T00:55:00Z,33.72,-79.85,1.0,1.0,0,0,,10.0,30.230314,,,TRUE,TRUE,,,,,,,CLR,,,,,,,,VFR,,,,,,,,,,,,METAR,21.0
KSDC 150055Z AUTO 00000KT 10SM CLR M08/M11 A3022 RMK AO2,KSDC,2019-01-15T00:55:00Z,43.23,-77.12,-8.0,-11.0,0,0,,10.0,30.221457,,,TRUE,TRUE,,,,,,,CLR,,,,,,,,VFR,,,,,,,,,,,,METAR,129.0
KRUG 150055Z AUTO 16007KT 7SM CLR M12/M12 A3015 RMK AO2,KRUG,2019-01-15T00:55:00Z,48.38,-100.02,-12.0,-12.0,160,7,,7.0,30.15059,,,TRUE,TRUE,,,,,,,CLR,,,,,,,,VFR,,,,,,,,,,,,METAR,472.0
KTVY 150055Z AUTO 03003KT 7SM OVC015 M03/M05 A3027 RMK AO2,KTVY,2019-01-15T00:55:00Z,40.62,-112.35,-3.0,-5.0,30,3,,7.0,30.268702,,,TRUE,TRUE,,,,,,,OVC,1500,,,,,,,MVFR,,,,,,,,,,,,METAR,1317.0
NZWD 150055Z 05005KT 9999 FEW020 FEW090 FEW180 M04/M07 A2960 RMK SLP024 GRID22005KT SDG/HDG,NZWD,2019-01-15T00:55:00Z,-77.87,167.07,-4.0,-7.0,50,5,,6.21,29.601377,1002.4,,,,,,,,,,FEW,2000,FEW,9000,FEW,18000,,,VFR,,,,,,,,,,,,METAR,22.0
KACB 150055Z AUTO 23005KT 10SM OVC016 00/M04 A3017 RMK AO2 T00001036,KACB,2019-01-15T00:55:00Z,44.98,-85.2,0.0,-3.6,230,5,,10.0,30.171259,,,TRUE,TRUE,,,,,,,OVC,1600,,,,,,,MVFR,,,,,,,,,,,,METAR,190.0
KAUM 150055Z AUTO 32003KT 10SM OVC008 M01/M04 A3021 RMK AO2,KAUM,2019-01-15T00:55:00Z,43.67,-92.92,-1.0,-4.0,320,3,,10.0,30.209646,,,TRUE,TRUE,,,,,,,OVC,800,,,,,,,IFR,,,,,,,,,,,,METAR,375.0
KDUH 150055Z AUTO 24004KT 10SM BKN024 M03/M07 A3026 RMK AO2 T10351073,KDUH,2019-01-15T00:55:00Z,41.73,-83.65,-3.5,-7.3,240,4,,10.0,30.259842,,,TRUE,TRUE,,,,,,,BKN,2400,,,,,,,MVFR,,,,,,,,,,,,METAR,204.0
KDYT 150055Z AUTO 10SM CLR M01/M05 A3022 RMK AO2,KDYT,2019-01-15T00:55:00Z,46.72,-92.03,-1.0,-5.0,,,,10.0,30.221457,,,TRUE,TRUE,,,,,,,CLR,,,,,,,,VFR,,,,,,,,,,,,METAR,186.0
KFFX 150055Z AUTO 25010G14KT 10SM OVC013 00/M03 A3020 RMK AO2 T10031031,KFFX,2019-01-15T00:55:00Z,43.43,-86.0,-0.3,-3.1,250,10,14,10.0,30.200787,,,TRUE,TRUE,,,,,,,OVC,1300,,,,,,,MVFR,,,,,,,,,,,,METAR,236.0
KGYL 150055Z AUTO 00000KT 10SM OVC013 M02/M04 A3023 RMK AO2 T10201042,KGYL,2019-01-15T00:55:00Z,44.77,-94.08,-2.0,-4.2,0,0,,10.0,30.230314,,,TRUE,TRUE,,,,,,,OVC,1300,,,,,,,MVFR,,,,,,,,,,,,METAR,302.0
KHZL 150055Z AUTO 00000KT 10SM CLR M06/M13 A3012 RMK AO2 PNO,KHZL,2019-01-15T00:55:00Z,40.98,-76.0,-6.0,-13.0,0,0,,10.0,30.121063,,,TRUE,TRUE,,,,,,,CLR,,,,,,,,VFR,,,,,,,,,,,,METAR,489.0
KI69 150055Z AUTO 22003KT 10SM CLR M03/M06 A3031 RMK AO2 T10351059,KI69,2019-01-15T00:55:00Z,39.08,-84.22,-3.5,-5.9,220,3,,10.0,30.31004,,,TRUE,TRUE,,,,,,,CLR,,,,,,,,VFR,,,,,,,,,,,,METAR,255.0
KLYV 150055Z AUTO 03004KT 10SM OVC007 M02/M03 A3022 RMK AO2,KLYV,2019-01-15T00:55:00Z,43.62,-96.22,-2.0,-3.0,30,4,,10.0,30.221457,,,TRUE,TRUE,,,,,,,OVC,700,,,,,,,IFR,,,,,,,,,,,,METAR,436.0
KLWA 150055Z AUTO 25006KT 10SM OVC012 M01/M04 A3025 RMK AO2 T10081037,KLWA,2019-01-15T00:55:00Z,42.35,-86.25,-0.8,-3.7,250,6,,10.0,30.250984,,,TRUE,TRUE,,,,,,,OVC,1200,,,,,,,MVFR,,,,,,,,,,,,METAR,203.0
KRNP 150055Z AUTO 26004KT 10SM OVC021 M01/M05 A3023 RMK AO2 T10101053,KRNP,2019-01-15T00:55:00Z,43.0,-84.13,-1.0,-5.3,260,4,,10.0,30.230314,,,TRUE,TRUE,,,,,,,OVC,2100,,,,,,,MVFR,,,,,,,,,,,,METAR,224.0
KPOV 150055Z AUTO 24006KT 10SM OVC014 M04/M07 A3023 RMK AO2 T10381067 PWINO,KPOV,2019-01-15T00:55:00Z,41.22,-81.25,-3.8,-6.7,240,6,,10.0,30.230314,,,TRUE,TRUE,,,,,TRUE,,OVC,1400,,,,,,,MVFR,,,,,,,,,,,,METAR,365.0
KPNM 150055Z AUTO 00000KT 10SM CLR M06/M07 A3023 RMK AO2,KPNM,2019-01-15T00:55:00Z,45.57,-93.6,-6.0,-7.0,0,0,,10.0,30.230314,,,TRUE,TRUE,,,,,,,CLR,,,,,,,,VFR,,,,,,,,,,,,METAR,298.0
KY70 150055Z AUTO 22006KT 10SM OVC015 M01/M05 A3021 RMK AO2 T10121050,KY70,2019-01-15T00:55:00Z,42.93,-85.07,-1.2,-5.0,220,6,,10.0,30.209646,,,TRUE,TRUE,,,,,,,OVC,1500,,,,,,,MVFR,,,,,,,,,,,,METAR,250.0
KTKC 150055Z AUTO 32004KT 7SM OVC005 M03/M03 A3023 RMK AO2 T10301035,KTKC,2019-01-15T00:55:00Z,44.25,-95.62,-3.0,-3.5,320,4,,7.0,30.230314,,,TRUE,TRUE,,,,,,,OVC,500,,,,,,,IFR,,,,,,,,,,,,METAR,408.0
KRZT 150055Z AUTO 26003KT 10SM BKN013 OVC018 M03/M05 A3031 RMK AO2,KRZT,2019-01-15T00:55:00Z,39.43,-83.02,-3.0,-5.0,260,3,,10.0,30.31004,,,TRUE,TRUE,,,,,,,BKN,1300,OVC,1800,,,,,MVFR,,,,,,,,,,,,METAR,221.0
KQFR 150055Z AUTO 00000KT 10SM CLR M04/M09 A2993 RMK AO1,KQFR,2019-01-15T00:55:00Z,,,-4.0,-9.0,0,0,,10.0,29.929134,,,TRUE,TRUE,,,,,,,CLR,,,,,,,,VFR,,,,,,,,,,,,METAR,
CYNA 150055Z AUTO 24012KT 9SM -SN OVC020 M05/M09 A2997 RMK SLP152,CYNA,2019-01-15T00:55:00Z,50.17,-61.82,-5.0,-9.0,240,12,,9.0,29.970472,1015.2,,TRUE,,,,,,,-SN,OVC,2000,,,,,,,MVFR,,,,,,,,,,,,SPECI,11.0
KBUU 150055Z AUTO 22007KT 7SM OVC011 M04/M06 A3024 RMK AO2 T10431062,KBUU,2019-01-15T00:55:00Z,42.68,-88.3,-4.3,-6.2,220,7,,7.0,30.239174,,,TRUE,TRUE,,,,,,,OVC,1100,,,,,,,MVFR,,,,,,,,,,,,METAR,237.0
KBVU 150055Z AUTO 24005KT 10SM -RA SCT040 OVC046 11/02 A3007 RMK AO2,KBVU,2019-01-15T00:55:00Z,35.95,-114.87,11.0,2.0,240,5,,10.0,30.070866,,,TRUE,TRUE,,,,,,-RA,SCT,4000,OVC,4600,,,,,VFR,,,,,,,,,,,,METAR,671.0
KBWW 150055Z AUTO 17010KT 10SM CLR M02/M04 A2997 RMK AO2,KBWW,2019-01-15T00:55:00Z,46.17,-103.3,-2.0,-4.0,170,10,,10.0,29.970472,,,TRUE,TRUE,,,,,,,CLR,,,,,,,,VFR,,,,,,,,,,,,METAR,910.0
KBXK 150055Z AUTO 07006KT 10SM BKN100 OVC120 17/10 A3005 RMK AO1,KBXK,2019-01-15T00:55:00Z,33.42,-112.68,17.0,10.0,70,6,,10.0,30.050198,,,TRUE,TRUE,,,,,,,BKN,10000,OVC,12000,,,,,VFR,,,,,,,,,,,,METAR,315.0
KCEY 150055Z AUTO 30004KT 10SM OVC033 00/M02 A3035 RMK AO1,KCEY,2019-01-15T00:55:00Z,36.67,-88.37,0.0,-2.0,300,4,,10.0,30.351377,,,TRUE,TRUE,,,,,,,OVC,3300,,,,,,,VFR,,,,,,,,,,,,METAR,176.0
KCDN 150055Z AUTO 00000KT 10SM CLR 04/02 A3022 RMK AO2,KCDN,2019-01-15T00:55:00Z,34.28,-80.57,4.0,2.0,0,0,,10.0,30.221457,,,TRUE,TRUE,,,,,,,CLR,,,,,,,,VFR,,,,,,,,,,,,METAR,92.0
KCBK 150055Z AUTO 22006KT 10SM CLR 00/M01 A3018 RMK AO2,KCBK,2019-01-15T00:55:00Z,39.43,-101.05,0.0,-1.0,220,6,,10.0,30.180119,,,TRUE,TRUE,,,,,,,CLR,,,,,,,,VFR,,,,,,,,,,,,METAR,971.0
KCBF 150055Z AUTO 22005KT 4SM BR OVC003 M01/M01 A3024 RMK AO2,KCBF,2019-01-15T00:55:00Z,41.27,-95.77,-1.0,-1.0,220,5,,4.0,30.239174,,,TRUE,TRUE,,,,,,BR,OVC,300,,,,,,,LIFR,,,,,,,,,,,,METAR,382.0
KCAV 150055Z AUTO 29004KT 4SM BR OVC005 M01/M01 A3023 RMK AO2 PWINO,KCAV,2019-01-15T00:55:00Z,42.75,-93.77,-1.0,-1.0,290,4,,4.0,30.230314,,,TRUE,TRUE,,,,,TRUE,BR,OVC,500,,,,,,,IFR,,,,,,,,,,,,METAR,354.0
KCFS 150055Z AUTO 22005KT 10SM OVC018 M02/M05 A3021 RMK AO2 T10251046,KCFS,2019-01-15T00:55:00Z,43.47,-83.45,-2.5,-4.6,220,5,,10.0,30.209646,,,TRUE,TRUE,,,,,,,OVC,1800,,,,,,,MVFR,,,,,,,,,,,,METAR,214.0
KCFJ 150055Z AUTO 26003KT 10SM CLR M10/M10 A3031 RMK AO2 T11021102,KCFJ,2019-01-15T00:55:00Z,39.98,-86.92,-10.2,-10.2,260,3,,10.0,30.31004,,,TRUE,TRUE,,,,,,,CLR,,,,,,,,VFR,,,,,,,,,,,,METAR,244.0
KLJF 150055Z AUTO 02004KT 10SM OVC015 M02/M04 A3023 RMK AO2,KLJF,2019-01-15T00:55:00Z,45.1,-94.52,-2.0,-4.0,20,4,,10.0,30.230314,,,TRUE,TRUE,,,,,,,OVC,1500,,,,,,,MVFR,,,,,,,,,,,,METAR,348.0
KCIN 150055Z AUTO 27005KT 6SM BR OVC005 M01/M01 A3024 RMK AO2,KCIN,2019-01-15T00:55:00Z,42.03,-94.77,-1.0,-1.0,270,5,,6.0,30.239174,,,TRUE,TRUE,,,,,,BR,OVC,500,,,,,,,IFR,,,,,,,,,,,,METAR,375.0
KCGC 150055Z AUTO 31005KT 10SM CLR 12/09 A3020 RMK AO2,KCGC,2019-01-15T00:55:00Z,28.87,-82.57,12.0,9.0,310,5,,10.0,30.200787,,,TRUE,TRUE,,,,,,,CLR,,,,,,,,VFR,,,,,,,,,,,,METAR,3.0
KCLW 150055Z AUTO 35003KT 10SM CLR 12/07 A3019 RMK AO2,KCLW,2019-01-15T00:55:00Z,27.98,-82.75,12.0,7.0,350,3,,10.0,30.188976,,,TRUE,TRUE,,,,,,,CLR,,,,,,,,VFR,,,,,,,,,,,,METAR,22.0
KCLS 150055Z AUTO 00000KT 7SM CLR 03/03 A2995 RMK AO2,KCLS,2019-01-15T00:55:00Z,46.68,-122.98,3.0,3.0,0,0,,7.0,29.949802,,,TRUE,TRUE,,,,,,,CLR,,,,,,,,VFR,,,,,,,,,,,,METAR,54.0
KCKZ 150055Z AUTO 00000KT 10SM CLR M06/M11 A3014 RMK AO2,KCKZ,2019-01-15T00:55:00Z,40.38,-75.28,-6.0,-11.0,0,0,,10.0,30.138779,,,TRUE,TRUE,,,,,,,CLR,,,,,,,,VFR,,,,,,,,,,,,METAR,173.0
KCMR 150055Z AUTO 15008KT 10SM SCT080 BKN085 BKN100 03/M00 A3012 RMK AO2,KCMR,2019-01-15T00:55:00Z,35.3,-112.2,3.0,0.0,150,8,,10.0,30.121063,,,TRUE,TRUE,,,,,,,SCT,8000,BKN,8500,BKN,10000,,,VFR,,,,,,,,,,,,METAR,2036.0
KCNC 150055Z AUTO 27008KT 5SM BR OVC003 M03/M03 A3027 RMK AO2,KCNC,2019-01-15T00:55:00Z,41.02,-93.37,-3.0,-3.0,270,8,,5.0,30.268702,,,TRUE,TRUE,,,,,,BR,OVC,300,,,,,,,LIFR,,,,,,,,,,,,METAR,320.0
KRVL 150055Z AUTO 00000KT 10SM -SN CLR M05/M09 A3016 RMK AO2,KRVL,2019-01-15T00:55:00Z,40.68,-77.63,-5.0,-9.0,0,0,,10.0,30.159449,,,TRUE,TRUE,,,,,,-SN,CLR,,,,,,,,VFR,,,,,,,,,,,,METAR,250.0
KRYV 150055Z AUTO 26011KT 10SM OVC011 M04/M05 A3023 RMK AO2 T10401052,KRYV,2019-01-15T00:55:00Z,43.17,-88.72,-4.0,-5.2,260,11,,10.0,30.230314,,,TRUE,TRUE,,,,,,,OVC,1100,,,,,,,MVFR,,,,,,,,,,,,METAR,254.0
KS25 150055Z AUTO 16006KT 5SM BR CLR M03/M03 A3007 RMK AO2,KS25,2019-01-15T00:55:00Z,47.8,-103.25,-3.0,-3.0,160,6,,5.0,30.070866,,,TRUE,TRUE,,,,,,BR,CLR,,,,,,,,MVFR,,,,,,,,,,,,METAR,644.0
KS33 150055Z AUTO 35005KT 10SM OVC014 M02/M04 A3013 RMK AO2,KS33,2019-01-15T00:55:00Z,44.67,-121.15,-2.0,-4.0,350,5,,10.0,30.129921,,,TRUE,TRUE,,,,,,,OVC,1400,,,,,,,MVFR,,,,,,,,,,,,METAR,743.0
KSDA 150055Z AUTO 22008KT 6SM BR OVC005 00/M00 A3027 RMK AO2,KSDA,2019-01-15T00:55:00Z,40.75,-95.42,0.0,0.0,220,8,,6.0,30.268702,,,TRUE,TRUE,,,,,,BR,OVC,500,,,,,,,IFR,,,,,,,,,,,,METAR,296.0
KSHL 150055Z AUTO 01005KT 5SM BR OVC004 M02/M02 A3020 RMK AO2,KSHL,2019-01-15T00:55:00Z,43.22,-95.82,-2.0,-2.0,10,5,,5.0,30.200787,,,TRUE,TRUE,,,,,,BR,OVC,400,,,,,,,LIFR,,,,,,,,,,,,METAR,432.0
KSLB 150055Z AUTO 00000KT 5SM BR OVC008 M01/M01 A3021 RMK AO2,KSLB,2019-01-15T00:55:00Z,42.6,-95.22,-1.0,-1.0,0,0,,5.0,30.209646,,,TRUE,TRUE,,,,,,BR,OVC,800,,,,,,,IFR,,,,,,,,,,,,METAR,454.0
KSNC 150055Z AUTO 31003KT 10SM CLR M04/M11 A3010 RMK AO2,KSNC,2019-01-15T00:55:00Z,41.38,-72.5,-4.0,-11.0,310,3,,10.0,30.100393,,,TRUE,TRUE,,,,,,,CLR,,,,,,,,VFR,,,,,,,,,,,,METAR,127.0
KSOW 150055Z AUTO 3/20000003KT 10SM FEW047 03/00 A3021 RMK AO2,KSOW,2019-01-15T00:55:00Z,34.27,-110.0,3.0,0.0,200,0,,10.0,30.209646,,,TRUE,TRUE,,,,,,,FEW,4700,,,,,,,VFR,,,,,,,,,,,,METAR,1954.0
KSTF 150055Z AUTO 02005KT 10SM OVC016 03/01 A3037 RMK AO2 PWINO,KSTF,2019-01-15T00:55:00Z,33.43,-88.85,3.0,1.0,20,5,,10.0,30.369095,,,TRUE,TRUE,,,,,TRUE,,OVC,1600,,,,,,,MVFR,,,,,,,,,,,,METAR,102.0
KSUZ 150055Z AUTO 00000KT 10SM OVC024 05/01 A3039 RMK A01,KSUZ,2019-01-15T00:55:00Z,34.58,-92.48,5.0,1.0,0,0,,10.0,30.389763,,,TRUE,TRUE,,,,,,,OVC,2400,,,,,,,MVFR,,,,,,,,,,,,METAR,119.0
KSYM 150055Z AUTO 31004KT 6SM BR BKN007 OVC010 M01/M02 A3030 RMK AO2,KSYM,2019-01-15T00:55:00Z,38.22,-83.58,-1.0,-2.0,310,4,,6.0,30.301182,,,TRUE,TRUE,,,,,,BR,BKN,700,OVC,1000,,,,,IFR,,,,,,,,,,,,METAR,313.0
KTME 150055Z AUTO 00000KT 10SM OVC060 10/04 A3040 RMK AO2,KTME,2019-01-15T00:55:00Z,29.8,-95.9,10.0,4.0,0,0,,10.0,30.398623,,,TRUE,TRUE,,,,,,,OVC,6000,,,,,,,VFR,,,,,,,,,,,,METAR,51.0
KTKX 150055Z AUTO 00000KT 8SM OVC027 03/01 A3037 RMK AO2,KTKX,2019-01-15T00:55:00Z,36.22,-90.02,3.0,1.0,0,0,,8.0,30.369095,,,TRUE,TRUE,,,,,,,OVC,2700,,,,,,,MVFR,,,,,,,,,,,,METAR,80.0
KTPF 150055Z AUTO 35003KT 10SM SCT075 BKN090 OVC110 13/10 A3019 RMK AO2,KTPF,2019-01-15T00:55:00Z,27.92,-82.45,13.0,10.0,350,3,,10.0,30.188976,,,TRUE,TRUE,,,,,,,SCT,7500,BKN,9000,OVC,11000,,,VFR,,,,,,,,,,,,METAR,3.0
KTNU 150055Z AUTO 24004KT 9SM OVC007 M03/M03 A3027 RMK AO2,KTNU,2019-01-15T00:55:00Z,41.67,-93.02,-3.0,-3.0,240,4,,9.0,30.268702,,,TRUE,TRUE,,,,,,,OVC,700,,,,,,,IFR,,,,,,,,,,,,METAR,290.0
KM21 150055Z AUTO 28004KT 10SM OVC024 00/M02 A3035 RMK AO2 T00031021,KM21,2019-01-15T00:55:00Z,37.22,-87.15,0.3,-2.1,280,4,,10.0,30.351377,,,TRUE,TRUE,,,,,,,OVC,2400,,,,,,,MVFR,,,,,,,,,,,,METAR,129.0
KTEW 150055Z AUTO 26006KT 10SM OVC021 M02/M06 A3023 RMK AO2 T10161058,KTEW,2019-01-15T00:55:00Z,42.57,-84.42,-1.6,-5.8,260,6,,10.0,30.230314,,,TRUE,TRUE,,,,,,,OVC,2100,,,,,,,MVFR,,,,,,,,,,,,METAR,280.0
KM40 150055Z AUTO 01003KT 10SM OVC021 04/03 A3037 RMK AO2,KM40,2019-01-15T00:55:00Z,33.87,-88.48,4.0,3.0,10,3,,10.0,30.369095,,,TRUE,TRUE,,,,,,,OVC,2100,,,,,,,MVFR,,,,,,,,,,,,METAR,69.0
KMBO 150055Z AUTO 32004KT 10SM OVC020 03/02 A3036 RMK AO2 PWINO,KMBO,2019-01-15T00:55:00Z,32.43,-90.1,3.0,2.0,320,4,,10.0,30.360237,,,TRUE,TRUE,,,,,TRUE,,OVC,2000,,,,,,,MVFR,,,,,,,,,,,,METAR,99.0
KMAN 150055Z AUTO 36003KT 10SM CLR 00/M02 A3020 RMK A01,KMAN,2019-01-15T00:55:00Z,43.58,-116.52,0.0,-2.0,360,3,,10.0,30.200787,,,TRUE,TRUE,,,,,,,CLR,,,,,,,,VFR,,,,,,,,,,,,METAR,774.0
KMDZ 150055Z AUTO 29003KT 5SM -SN OVC005 M03/M03 A3015 RMK AO2 T10281032 TSNO,KMDZ,2019-01-15T00:55:00Z,45.1,-90.3,-2.8,-3.2,290,3,,5.0,30.15059,,,TRUE,TRUE,,,TRUE,,,-SN,OVC,500,,,,,,,IFR,,,,,,,,,,,,METAR,448.0
KMGC 150055Z AUTO 25008KT 10SM OVC010 M03/M06 A3029 RMK AO2,KMGC,2019-01-15T00:55:00Z,41.7,-86.82,-3.0,-6.0,250,8,,10.0,30.28937,,,TRUE,TRUE,,,,,,,OVC,1000,,,,,,,MVFR,,,,,,,,,,,,METAR,200.0
KMCX 150055Z AUTO 23004KT 2SM BR BKN002 OVC010 M08/M09 A3031 RMK AO2 T10811091,KMCX,2019-01-15T00:55:00Z,40.72,-86.77,-8.1,-9.1,230,4,,2.0,30.31004,,,TRUE,TRUE,,,,,,BR,BKN,200,OVC,1000,,,,,LIFR,,,,,,,,,,,,METAR,206.0
KMHL 150055Z AUTO 24006KT 5SM BR OVC005 M02/M02 A3035 RMK AO2,KMHL,2019-01-15T00:55:00Z,39.1,-93.2,-2.0,-2.0,240,6,,5.0,30.351377,,,TRUE,TRUE,,,,,,BR,OVC,500,,,,,,,IFR,,,,,,,,,,,,METAR,237.0
KMKS 150055Z AUTO 00000KT 10SM OVC020 05/04 A3023 RMK AO2,KMKS,2019-01-15T00:55:00Z,33.18,-80.03,5.0,4.0,0,0,,10.0,30.230314,,,TRUE,TRUE,,,,,,,OVC,2000,,,,,,,MVFR,,,,,,,,,,,,METAR,23.0
KMPZ 150055Z AUTO 26006KT 5SM BR OVC008 M01/M01 A3031 RMK AO2,KMPZ,2019-01-15T00:55:00Z,40.95,-91.52,-1.0,-1.0,260,6,,5.0,30.31004,,,TRUE,TRUE,,,,,,BR,OVC,800,,,,,,,IFR,,,,,,,,,,,,METAR,224.0
KO22 150055Z AUTO 00000KT 6SM BR SCT035 BKN044 07/07 A2992 RMK A01 P0004,KO22,2019-01-15T00:55:00Z,38.03,-120.42,7.0,7.0,0,0,,6.0,29.920275,,,TRUE,TRUE,,,,,,BR,SCT,3500,BKN,4400,,,,,VFR,,,,,,0.04,,,,,,METAR,646.0
KMWM 150055Z AUTO 31008KT 5SM BR BKN005 OVC075 M03/M03 A3021 RMK AO2,KMWM,2019-01-15T00:55:00Z,43.9,-95.1,-3.0,-3.0,310,8,,5.0,30.209646,,,TRUE,TRUE,,,,,,BR,BKN,500,OVC,7500,,,,,IFR,,,,,,,,,,,,METAR,430.0
KMUT 150055Z AUTO 27007KT 7SM OVC008 M02/M04 A3032 RMK AO2,KMUT,2019-01-15T00:55:00Z,41.37,-91.15,-2.0,-4.0,270,7,,7.0,30.318897,,,TRUE,TRUE,,,,,,,OVC,800,,,,,,,IFR,,,,,,,,,,,,METAR,167.0
KOEO 150055Z AUTO 32003KT 10SM OVC015 M01/M02 A3025 RMK AO2 T10131020 PWINO,KOEO,2019-01-15T00:55:00Z,45.32,-92.7,-1.3,-2.0,320,3,,10.0,30.250984,,,TRUE,TRUE,,,,,TRUE,,OVC,1500,,,,,,,MVFR,,,,,,,,,,,,METAR,275.0
KOEB 150055Z AUTO 28005KT 10SM OVC017 M02/M05 A3025 RMK AO2 T10201053,KOEB,2019-01-15T00:55:00Z,41.92,-85.03,-2.0,-5.3,280,5,,10.0,30.250984,,,TRUE,TRUE,,,,,,,OVC,1700,,,,,,,MVFR,,,,,,,,,,,,METAR,292.0
KOLG 150055Z AUTO 00000KT 10SM CLR M07/M07 A3020 RMK AO1,KOLG,2019-01-15T00:55:00Z,46.3,-91.82,-7.0,-7.0,0,0,,10.0,30.200787,,,TRUE,TRUE,,,,,,,CLR,,,,,,,,VFR,,,,,,,,,,,,METAR,336.0
KOLE 150055Z AUTO 00000KT 10SM CLR M06/M12 A3011 RMK AO2,KOLE,2019-01-15T00:55:00Z,42.23,-78.37,-6.0,-12.0,0,0,,10.0,30.109253,,,TRUE,TRUE,,,,,,,CLR,,,,,,,,VFR,,,,,,,,,,,,METAR,651.0
K06D 150055Z AUTO 21011KT 10SM SCT080 M09/M10 A3010 RMK AO2,K06D,2019-01-15T00:55:00Z,48.88,-99.62,-9.0,-10.0,210,11,,10.0,30.100393,,,TRUE,TRUE,,,,,,,SCT,8000,,,,,,,VFR,,,,,,,,,,,,METAR,556.0
K0S9 150055Z AUTO 00000KT 10SM CLR 02/02 A2996 RMK AO2,K0S9,2019-01-15T00:55:00Z,48.05,-122.82,2.0,2.0,0,0,,10.0,29.958662,,,TRUE,TRUE,,,,,,,CLR,,,,,,,,VFR,,,,,,,,,,,,METAR,33.0
K08D 150055Z AUTO 17010KT 10SM CLR M06/M06 A3006 RMK AO2,K08D,2019-01-15T00:55:00Z,48.3,-102.4,-6.0,-6.0,170,10,,10.0,30.059055,,,TRUE,TRUE,,,,,,,CLR,,,,,,,,VFR,,,,,,,,,,,,METAR,684.0
K1P1 150055Z AUTO 29009KT 10SM CLR M05/M13 A3008 RMK AO2 T10531126,K1P1,2019-01-15T00:55:00Z,43.78,-71.75,-5.3,-12.6,290,9,,10.0,30.079725,,,TRUE,TRUE,,,,,,,CLR,,,,,,,,VFR,,,,,,,,,,,,METAR,154.0
K1V6 150055Z AUTO 28010KT 10SM CLR 03/M06 A3018 RMK AO2,K1V6,2019-01-15T00:55:00Z,38.43,-105.1,3.0,-6.0,280,10,,10.0,30.180119,,,TRUE,TRUE,,,,,,,CLR,,,,,,,,VFR,,,,,,,,,,,,METAR,1658.0
K20U 150055Z AUTO 22007KT 10SM CLR M02/M04 A3008 RMK AO2,K20U,2019-01-15T00:55:00Z,46.93,-103.98,-2.0,-4.0,220,7,,10.0,30.079725,,,TRUE,TRUE,,,,,,,CLR,,,,,,,,VFR,,,,,,,,,,,,METAR,840.0
K2D5 150055Z AUTO 00000KT 2SM BR OVC004 M07/M07 A3024 RMK AO2 PWINO,K2D5,2019-01-15T00:55:00Z,46.17,-98.08,-7.0,-7.0,0,0,,2.0,30.239174,,,TRUE,TRUE,,,,,TRUE,BR,OVC,400,,,,,,,LIFR,,,,,,,,,,,,METAR,407.0
K2C8 150055Z AUTO 18011KT 7SM OVC005 M09/M10 A3021 RMK AO2,K2C8,2019-01-15T00:55:00Z,48.78,-97.63,-9.0,-10.0,180,11,,7.0,30.209646,,,TRUE,TRUE,,,,,,,OVC,500,,,,,,,IFR,,,,,,,,,,,,METAR,272.0
K24J 150055Z AUTO 33004KT 10SM OVC024 09/05 A3023 RMK A01,K24J,2019-01-15T00:55:00Z,30.3,-83.03,9.0,5.0,330,4,,10.0,30.230314,,,TRUE,TRUE,,,,,,,OVC,2400,,,,,,,MVFR,,,,,,,,,,,,METAR,32.0
K2P2 150055Z AUTO 25005KT 10SM OVC019 M01/M03 A3016 RMK AO2 T10151034,K2P2,2019-01-15T00:55:00Z,45.38,-86.92,-1.5,-3.4,250,5,,10.0,30.159449,,,TRUE,TRUE,,,,,,,OVC,1900,,,,,,,MVFR,,,,,,,,,,,,METAR,199.0
K33V 150055Z AUTO 24005KT 10SM CLR M14/M18 A3025 RMK AO1,K33V,2019-01-15T00:55:00Z,40.75,-106.28,-14.0,-18.0,240,5,,10.0,30.250984,,,TRUE,TRUE,,,,,,,CLR,,,,,,,,VFR,,,,,,,,,,,,METAR,2484.0
K4A6 150055Z AUTO VRB06G12KT 10SM OVC020 04/02 A3031 RMK AO2,K4A6,2019-01-15T00:55:00Z,34.68,-86.0,4.0,2.0,0,6,12,10.0,30.31004,,,TRUE,TRUE,,,,,,,OVC,2000,,,,,,,MVFR,,,,,,,,,,,,METAR,198.0
K46D 150055Z AUTO 13006KT 3SM BR CLR M12/M13 A3021 RMK AO2,K46D,2019-01-15T00:55:00Z,47.45,-99.15,-12.0,-13.0,130,6,,3.0,30.209646,,,TRUE,TRUE,,,,,,BR,CLR,,,,,,,,MVFR,,,,,,,,,,,,METAR,490.0
K42J 150055Z AUTO 02004KT 10SM OVC032 08/07 A3020 RMK A01 TSNO,K42J,2019-01-15T00:55:00Z,29.85,-82.05,8.0,7.0,20,4,,10.0,30.200787,,,TRUE,TRUE,,,TRUE,,,,OVC,3200,,,,,,,VFR,,,,,,,,,,,,METAR,60.0
K4BM 150055Z AUTO 05003KT 10SM SCT110 M05/M21 A3026 RMK AO2,K4BM,2019-01-15T00:55:00Z,39.05,-105.52,-5.0,-21.0,50,3,,10.0,30.259842,,,TRUE,TRUE,,,,,,,SCT,11000,,,,,,,VFR,,,,,,,,,,,,METAR,3438.0
K4M9 150055Z AUTO 00000KT 10SM OVC028 04/02 A3037 RMK AO2 PWINO,K4M9,2019-01-15T00:55:00Z,36.4,-90.65,4.0,2.0,0,0,,10.0,30.369095,,,TRUE,TRUE,,,,,TRUE,,OVC,2800,,,,,,,MVFR,,,,,,,,,,,,METAR,90.0
K4R5 150055Z AUTO 01003KT 10SM SCT020 OVC026 M01/M05 A3021 RMK AO2 T10111048,K4R5,2019-01-15T00:55:00Z,46.78,-90.77,-1.1,-4.8,10,3,,10.0,30.209646,,,TRUE,TRUE,,,,,,,SCT,2000,OVC,2600,,,,,MVFR,,,,,,,,,,,,METAR,198.0
K57C 150055Z AUTO 25005KT 7SM OVC010 M04/M05 A3023 RMK AO2 T10371051,K57C,2019-01-15T00:55:00Z,42.8,-88.37,-3.7,-5.1,250,5,,7.0,30.230314,,,TRUE,TRUE,,,,,,,OVC,1000,,,,,,,MVFR,,,,,,,,,,,,METAR,262.0
K54J 150055Z AUTO 35006KT 10SM OVC014 06/03 A3029 RMK AO2 T00550027,K54J,2019-01-15T00:55:00Z,30.73,-86.15,5.5,2.7,350,6,,10.0,30.28937,,,TRUE,TRUE,,,,,,,OVC,1400,,,,,,,MVFR,,,,,,,,,,,,METAR,88.0
K5H4 150055Z AUTO 14006KT 5SM BR CLR M11/M11 A3018 RMK AO2,K5H4,2019-01-15T00:55:00Z,47.78,-99.93,-11.0,-11.0,140,6,,5.0,30.180119,,,TRUE,TRUE,,,,,,BR,CLR,,,,,,,,MVFR,,,,,,,,,,,,METAR,490.0
K6B9 150055Z AUTO 00000KT 10SM CLR M14/M15 A3016 RMK AO2,K6B9,2019-01-15T00:55:00Z,42.92,-76.43,-14.0,-15.0,0,0,,10.0,30.159449,,,TRUE,TRUE,,,,,,,CLR,,,,,,,,VFR,,,,,,,,,,,,METAR,316.0
K5SM 150055Z AUTO 21008KT 10SM CLR M09/M13 A3029 RMK AO2,K5SM,2019-01-15T00:55:00Z,39.43,-107.38,-9.0,-13.0,210,8,,10.0,30.28937,,,TRUE,TRUE,,,,,,,CLR,,,,,,,,VFR,,,,,,,,,,,,METAR,3232.0
K6S2 150055Z AUTO 08005KT 10SM CLR 10/M01 A2984 RMK AO2,K6S2,2019-01-15T00:55:00Z,43.98,-124.12,10.0,-1.0,80,5,,10.0,29.840551,,,TRUE,TRUE,,,,,,,CLR,,,,,,,,VFR,,,,,,,,,,,,METAR,16.0
K6L4 150055Z AUTO 00000KT 1/4SM FZFG OVC002 M02/M02 A3023 RMK AO2,K6L4,2019-01-15T00:55:00Z,37.85,-81.92,-2.0,-2.0,0,0,,0.25,30.230314,,,TRUE,TRUE,,,,,,FZFG,OVC,200,,,,,,,LIFR,,,,,,,,,,,,METAR,508.0
K7L2 150055Z AUTO 16006KT 1SM BR M05/M05 A3020 RMK AO2,K7L2,2019-01-15T00:55:00Z,46.22,-100.25,-5.0,-5.0,160,6,,1.0,30.200787,,,TRUE,TRUE,,,,,,BR,,,,,,,,,,,,,,,,,,,,,METAR,543.0
K82C 150055Z AUTO 26004KT 5SM BR OVC008 M03/M05 A3022 RMK AO2 T10351047,K82C,2019-01-15T00:55:00Z,43.83,-90.13,-3.5,-4.7,260,4,,5.0,30.221457,,,TRUE,TRUE,,,,,,BR,OVC,800,,,,,,,IFR,,,,,,,,,,,,METAR,276.0
K9D7 150055Z AUTO 20004KT 2 1/2SM BR OVC002 M12/M12 A3019 RMK AO2,K9D7,2019-01-15T00:55:00Z,48.48,-99.23,-12.0,-12.0,200,4,,2.5,30.188976,,,TRUE,TRUE,,,,,,BR,OVC,200,,,,,,,LIFR,,,,,,,,,,,,METAR,452.0
KACQ 150055Z AUTO 30004KT 10SM OVC010 M01/M03 A3023 RMK AO2,KACQ,2019-01-15T00:55:00Z,44.07,-93.55,-1.0,-3.0,300,4,,10.0,30.230314,,,TRUE,TRUE,,,,,,,OVC,1000,,,,,,,MVFR,,,,,,,,,,,,METAR,343.0
KFIN 150055Z AUTO 02005KT 10SM OVC034 11/08 A3020 RMK AO2 T01130083,KFIN,2019-01-15T00:55:00Z,29.47,-81.2,11.3,8.3,20,5,,10.0,30.200787,,,TRUE,TRUE,,,,,,,OVC,3400,,,,,,,VFR,,,,,,,,,,,,METAR,10.0
KFLY 150055Z AUTO 30006KT 10SM CLR M04/M17 A3019 RMK AO2 T10401175,KFLY,2019-01-15T00:55:00Z,38.95,-104.57,-4.0,-17.5,300,6,,10.0,30.188976,,,TRUE,TRUE,,,,,,,CLR,,,,,,,,VFR,,,,,,,,,,,,METAR,2096.0
KFMM 150055Z AUTO 27004KT 10SM 04/M15 A3016 RMK AO2 T00401147,KFMM,2019-01-15T00:55:00Z,40.33,-103.8,4.0,-14.7,270,4,,10.0,30.159449,,,TRUE,TRUE,,,,,,,,,,,,,,,,,,,,,,,,,,,METAR,1393.0
KFSW 150055Z AUTO 25006KT 7SM OVC006 M02/M03 A3031 RMK AO2,KFSW,2019-01-15T00:55:00Z,40.67,-91.32,-2.0,-3.0,250,6,,7.0,30.31004,,,TRUE,TRUE,,,,,,,OVC,600,,,,,,,IFR,,,,,,,,,,,,METAR,221.0
KFRH 150055Z AUTO 28003KT 10SM OVC022 00/M07 A3032 RMK AO1,KFRH,2019-01-15T00:55:00Z,38.5,-86.63,0.0,-7.0,280,3,,10.0,30.318897,,,TRUE,TRUE,,,,,,,OVC,2200,,,,,,,MVFR,,,,,,,,,,,,METAR,241.0
KGHW 150055Z AUTO 00000KT 10SM CLR M06/M07 A3022 RMK AO2,KGHW,2019-01-15T00:55:00Z,45.63,-95.32,-6.0,-7.0,0,0,,10.0,30.221457,,,TRUE,TRUE,,,,,,,CLR,,,,,,,,VFR,,,,,,,,,,,,METAR,425.0
KGPC 150055Z AUTO 00000KT 10SM CLR M03/M08 A3032 RMK AO2,KGPC,2019-01-15T00:55:00Z,39.63,-86.82,-3.0,-8.0,0,0,,10.0,30.318897,,,TRUE,TRUE,,,,,,,CLR,,,,,,,,VFR,,,,,,,,,,,,METAR,257.0
KGNT 150055Z AUTO 00000KT 10SM OVC009 01/00 A3028 RMK AO2 T00130000,KGNT,2019-01-15T00:55:00Z,35.17,-107.9,1.3,0.0,0,0,,10.0,30.280512,,,TRUE,TRUE,,,,,,,OVC,900,,,,,,,IFR,,,,,,,,,,,,METAR,1987.0
KGPI 150055Z 00000KT 10SM OVC015 M06/M09 A3026 RMK AO2 SLP289 T10561094,KGPI,2019-01-15T00:55:00Z,48.32,-114.25,-5.6,-9.4,0,0,,10.0,30.259842,1028.9,,,TRUE,,,,,,,OVC,1500,,,,,,,MVFR,,,,,,,,,,,,METAR,908.0
KGWR 150055Z AUTO 00000KT 2SM BR M07/M07 A3025 RMK A01,KGWR,2019-01-15T00:55:00Z,46.22,-97.65,-7.0,-7.0,0,0,,2.0,30.250984,,,TRUE,TRUE,,,,,,BR,,,,,,,,,,,,,,,,,,,,,METAR,386.0
KHAI 150055Z AUTO 00000KT 10SM OVC018 M03/M06 A3026 RMK AO2 T10271062,KHAI,2019-01-15T00:55:00Z,41.97,-85.6,-2.7,-6.2,0,0,,10.0,30.259842,,,TRUE,TRUE,,,,,,,OVC,1800,,,,,,,MVFR,,,,,,,,,,,,METAR,251.0
KHEG 150055Z AUTO 36006KT 10SM OVC022 09/06 A3023 RMK AO2,KHEG,2019-01-15T00:55:00Z,30.28,-81.8,9.0,6.0,360,6,,10.0,30.230314,,,TRUE,TRUE,,,,,,,OVC,2200,,,,,,,MVFR,,,,,,,,,,,,METAR,27.0
KHCO 150055Z AUTO 00000KT 7SM OVC004 M09/M11 A3024 RMK AO2,KHCO,2019-01-15T00:55:00Z,48.75,-96.93,-9.0,-11.0,0,0,,7.0,30.239174,,,TRUE,TRUE,,,,,,,OVC,400,,,,,,,LIFR,,,,,,,,,,,,METAR,250.0
KHEQ 150055Z AUTO 26004KT 10SM CLR 01/M12 A3015 RMK AO2,KHEQ,2019-01-15T00:55:00Z,40.57,-102.28,1.0,-12.0,260,4,,10.0,30.15059,,,TRUE,TRUE,,,,,,,CLR,,,,,,,,VFR,,,,,,,,,,,,METAR,1137.0
KHNR 150055Z AUTO 24005KT 4SM BR OVC004 M02/M02 A3024 RMK AO2,KHNR,2019-01-15T00:55:00Z,41.58,-95.33,-2.0,-2.0,240,5,,4.0,30.239174,,,TRUE,TRUE,,,,,,BR,OVC,400,,,,,,,LIFR,,,,,,,,,,,,METAR,375.0
KHVS 150055Z AUTO 00000KT 10SM OVC039 02/02 A3020 RMK AO2,KHVS,2019-01-15T00:55:00Z,34.4,-80.12,2.0,2.0,0,0,,10.0,30.200787,,,TRUE,TRUE,,,,,,,OVC,3900,,,,,,,VFR,,,,,,,,,,,,METAR,111.0
KHPT 150055Z AUTO 25003KT 3SM BR OVC003 M01/M01 A3022 RMK AO2,KHPT,2019-01-15T00:55:00Z,42.58,-93.23,-1.0,-1.0,250,3,,3.0,30.221457,,,TRUE,TRUE,,,,,,BR,OVC,300,,,,,,,LIFR,,,,,,,,,,,,METAR,358.0
KHZE 150055Z AUTO 15005KT 8SM CLR M09/M10 A3016 RMK AO2 TSNO,KHZE,2019-01-15T00:55:00Z,47.28,-101.58,-9.0,-10.0,150,5,,8.0,30.159449,,,TRUE,TRUE,,,TRUE,,,,CLR,,,,,,,,VFR,,,,,,,,,,,,METAR,553.0
KI67 150055Z AUTO 00000KT 5SM CLR M06/M07 A3032 RMK AO1,KI67,2019-01-15T00:55:00Z,39.25,-84.78,-6.0,-7.0,0,0,,5.0,30.318897,,,TRUE,TRUE,,,,,,,CLR,,,,,,,,MVFR,,,,,,,,,,,,METAR,178.0
KHZX 150055Z AUTO 00000KT 10SM CLR M08/M10 A3020 RMK AO2,KHZX,2019-01-15T00:55:00Z,46.62,-93.32,-8.0,-10.0,0,0,,10.0,30.200787,,,TRUE,TRUE,,,,,,,CLR,,,,,,,,VFR,,,,,,,,,,,,METAR,374.0
KI75 150055Z AUTO 23007KT 4SM BR OVC003 M02/M02 A3026 RMK AO2 T10201024,KI75,2019-01-15T00:55:00Z,41.05,-93.68,-2.0,-2.4,230,7,,4.0,30.259842,,,TRUE,TRUE,,,,,,BR,OVC,300,,,,,,,LIFR,,,,,,,,,,,,METAR,339.0
KI68 150055Z AUTO 00000KT 10SM CLR M05/M06 A3030 RMK AO1 T10531059,KI68,2019-01-15T00:55:00Z,39.47,-84.25,-5.3,-5.9,0,0,,10.0,30.301182,,,TRUE,TRUE,,,,,,,CLR,,,,,,,,VFR,,,,,,,,,,,,METAR,274.0
KICL 150055Z AUTO 23009KT 5SM BR OVC004 M01/M01 A3029 RMK AO2,KICL,2019-01-15T00:55:00Z,40.72,-95.02,-1.0,-1.0,230,9,,5.0,30.28937,,,TRUE,TRUE,,,,,,BR,OVC,400,,,,,,,LIFR,,,,,,,,,,,,METAR,303.0
KIFA 150055Z AUTO 26004KT 2 1/2SM -SN OVC004 M01/M01 A3025 RMK AO2 T10061010,KIFA,2019-01-15T00:55:00Z,42.47,-93.27,-0.6,-1.0,260,4,,2.5,30.250984,,,TRUE,TRUE,,,,,,-SN,OVC,400,,,,,,,LIFR,,,,,,,,,,,,METAR,347.0
KOOA 150055Z AUTO 27009KT 4SM BR OVC006 M03/M03 A3029 RMK AO2 T10261032,KOOA,2019-01-15T00:55:00Z,41.23,-92.5,-2.6,-3.2,270,9,,4.0,30.28937,,,TRUE,TRUE,,,,,,BR,OVC,600,,,,,,,IFR,,,,,,,,,,,,SPECI,256.0
KORS 150055Z AUTO 34005KT 1/4SM FG OVC002 04/04 A2998 RMK AO2,KORS,2019-01-15T00:55:00Z,48.7,-122.92,4.0,4.0,340,5,,0.25,29.97933,,,TRUE,TRUE,,,,,,FG,OVC,200,,,,,,,LIFR,,,,,,,,,,,,SPECI,9.0
KOXV 150055Z AUTO 24005G10KT 10SM OVC005 M03/M03 A3027 RMK AO2,KOXV,2019-01-15T00:55:00Z,41.28,-93.12,-3.0,-3.0,240,5,10,10.0,30.268702,,,TRUE,TRUE,,,,,,,OVC,500,,,,,,,IFR,,,,,,,,,,,,SPECI,283.0
KPAN 150055Z AUTO 00000KT 10SM OVC090 08/04 A3017 RMK AO2,KPAN,2019-01-15T00:55:00Z,34.25,-111.33,8.0,4.0,0,0,,10.0,30.171259,,,TRUE,TRUE,,,,,,,OVC,9000,,,,,,,VFR,,,,,,,,,,,,SPECI,1572.0
KPDC 150055Z AUTO 00000KT 2 1/2SM BR OVC009 M03/M04 A3026 RMK AO2 T10351043,KPDC,2019-01-15T00:55:00Z,43.02,-91.12,-3.5,-4.3,0,0,,2.5,30.259842,,,TRUE,TRUE,,,,,,BR,OVC,900,,,,,,,IFR,,,,,,,,,,,,SPECI,201.0
KPCM 150055Z AUTO 33006KT 10SM CLR 13/09 A3020 RMK AO2,KPCM,2019-01-15T00:55:00Z,28.0,-82.17,13.0,9.0,330,6,,10.0,30.200787,,,TRUE,TRUE,,,,,,,CLR,,,,,,,,VFR,,,,,,,,,,,,SPECI,47.0
KPLR 150055Z AUTO 00000KT 10SM OVC015 04/02 A3032 RMK A01,KPLR,2019-01-15T00:55:00Z,33.57,-86.25,4.0,2.0,0,0,,10.0,30.318897,,,TRUE,TRUE,,,,,,,OVC,1500,,,,,,,MVFR,,,,,,,,,,,,SPECI,148.0
KPQN 150055Z AUTO 06004KT 4SM BR BKN003 M04/M05 A3021 RMK AO2,KPQN,2019-01-15T00:55:00Z,43.97,-96.32,-4.0,-5.0,60,4,,4.0,30.209646,,,TRUE,TRUE,,,,,,BR,BKN,300,,,,,,,LIFR,,,,,,,,,,,,SPECI,529.0
KRBW 150055Z AUTO 00000KT 10SM OVC011 06/03 A3025 RMK AO2,KRBW,2019-01-15T00:55:00Z,32.92,-80.63,6.0,3.0,0,0,,10.0,30.250984,,,TRUE,TRUE,,,,,,,OVC,1100,,,,,,,MVFR,,,,,,,,,,,,SPECI,31.0
KRCE 150055Z AUTO 17005KT 10SM CLR 03/01 A3031 RMK AO2,KRCE,2019-01-15T00:55:00Z,35.48,-97.82,3.0,1.0,170,5,,10.0,30.31004,,,TRUE,TRUE,,,,,,,CLR,,,,,,,,VFR,,,,,,,,,,,,SPECI,413.0
KRDK 150055Z AUTO 23008KT 5SM BR OVC004 M01/M01 A3026 RMK AO2,KRDK,2019-01-15T00:55:00Z,41.02,-95.27,-1.0,-1.0,230,8,,5.0,30.259842,,,TRUE,TRUE,,,,,,BR,OVC,400,,,,,,,LIFR,,,,,,,,,,,,SPECI,318.0
KRFI 150055Z AUTO 10SM CLR 03/00 A3042 RMK AO2 T00340002,KRFI,2019-01-15T00:55:00Z,32.15,-94.85,3.4,0.2,,,,10.0,30.41929,,,TRUE,TRUE,,,,,,,CLR,,,,,,,,VFR,,,,,,,,,,,,METAR,135.0
KRGK 150055Z AUTO 29003KT 4SM UP SCT008 SCT016 OVC021 M01/M02 A3022 RMK AO2,KRGK,2019-01-15T00:55:00Z,44.58,-92.48,-1.0,-2.0,290,3,,4.0,30.221457,,,TRUE,TRUE,,,,,,UP,SCT,800,SCT,1600,OVC,2100,,,MVFR,,,,,,,,,,,,SPECI,239.0
KRNH 150055Z AUTO 34005KT 7SM BKN006 OVC018 M02/M02 A3022 RMK AO2 T10171024,KRNH,2019-01-15T00:55:00Z,45.15,-92.53,-1.7,-2.4,340,5,,7.0,30.221457,,,TRUE,TRUE,,,,,,,BKN,600,OVC,1800,,,,,IFR,,,,,,,,,,,,SPECI,304.0
KCVX 150055Z AUTO 25008KT 10SM BKN019 OVC026 01/M03 A3017 RMK AO2 T00051026,KCVX,2019-01-15T00:55:00Z,45.3,-85.27,0.5,-2.6,250,8,,10.0,30.171259,,,TRUE,TRUE,,,,,,,BKN,1900,OVC,2600,,,,,MVFR,,,,,,,,,,,,METAR,204.0
KCXP 150055Z AUTO 28004KT 10SM FEW043 SCT049 OVC055 02/M06 A2994 RMK AO2,KCXP,2019-01-15T00:55:00Z,39.18,-119.73,2.0,-6.0,280,4,,10.0,29.940945,,,TRUE,TRUE,,,,,,,FEW,4300,SCT,4900,OVC,5500,,,VFR,,,,,,,,,,,,METAR,1435.0
KD50 150055Z AUTO 20010KT 9SM CLR M05/M05 A3004 RMK AO2,KD50,2019-01-15T00:55:00Z,48.93,-103.3,-5.0,-5.0,200,10,,9.0,30.041338,,,TRUE,TRUE,,,,,,,CLR,,,,,,,,VFR,,,,,,,,,,,,METAR,595.0
KD55 150055Z AUTO 20009KT 1/4SM FZFG OVC001 M11/M11 A3015 RMK AO2,KD55,2019-01-15T00:55:00Z,48.75,-98.4,-11.0,-11.0,200,9,,0.25,30.15059,,,TRUE,TRUE,,,,,,FZFG,OVC,100,,,,,,,LIFR,,,,,,,,,,,,METAR,491.0
KD60 150055Z AUTO 17012KT 6SM BR CLR M06/M06 A3005 RMK AO2,KD60,2019-01-15T00:55:00Z,48.38,-102.9,-6.0,-6.0,170,12,,6.0,30.050198,,,TRUE,TRUE,,,,,,BR,CLR,,,,,,,,VFR,,,,,,,,,,,,METAR,693.0
KDEH 150055Z AUTO 20004KT 3SM BR OVC003 M03/M02 A3021 RMK AO2,KDEH,2019-01-15T00:55:00Z,43.27,-91.72,-3.0,-2.0,200,4,,3.0,30.209646,,,TRUE,TRUE,,,,,,BR,OVC,300,,,,,,,LIFR,,,,,,,,,,,,METAR,353.0
KDLL 150055Z AUTO 24006KT 2 1/2SM BR OVC006 M04/M05 A3022 RMK AO2 T10451055,KDLL,2019-01-15T00:55:00Z,43.52,-89.77,-4.5,-5.5,240,6,,2.5,30.221457,,,TRUE,TRUE,,,,,,BR,OVC,600,,,,,,,IFR,,,,,,,,,,,,METAR,299.0
KDLZ 150055Z AUTO 00000KT 1/4SM FZFG VV002 M11/M12 A3028 RMK AO2,KDLZ,2019-01-15T00:55:00Z,40.28,-83.12,-11.0,-12.0,0,0,,0.25,30.280512,,,TRUE,TRUE,,,,,,FZFG,OVX,0,,,,,,,LIFR,,,,,,,,,,,200,METAR,289.0
KDNS 150055Z AUTO 21004KT 4SM BR OVC004 M01/M01 A3024 RMK AO2,KDNS,2019-01-15T00:55:00Z,41.97,-95.37,-1.0,-1.0,210,4,,4.0,30.239174,,,TRUE,TRUE,,,,,,BR,OVC,400,,,,,,,LIFR,,,,,,,,,,,,METAR,388.0
KDNA 150055Z AUTO 35004KT 10SM CLR 10/02 A3021 RMK AO2,KDNA,2019-01-15T00:55:00Z,31.88,-106.7,10.0,2.0,350,4,,10.0,30.209646,,,TRUE,TRUE,,,,,,,CLR,,,,,,,,VFR,,,,,,,,,,,,METAR,1253.0
KEDC 150055Z AUTO 00000KT 10SM OVC060 08/03 A3039 RMK AO2,KEDC,2019-01-15T00:55:00Z,30.4,-97.57,8.0,3.0,0,0,,10.0,30.389763,,,TRUE,TRUE,,,,,,,OVC,6000,,,,,,,VFR,,,,,,,,,,,,METAR,189.0
KEFT 150055Z AUTO 7SM BKN006 OVC010 M05/M06 A3025 RMK AO2 T10531062,KEFT,2019-01-15T00:55:00Z,42.62,-89.6,-5.3,-6.2,,,,7.0,30.250984,,,TRUE,TRUE,,,,,,,BKN,600,OVC,1000,,,,,IFR,,,,,,,,,,,,METAR,331.0
KEIK 150055Z AUTO 20005KT 10SM CLR M02/M09 A3022 RMK AO2 T10161095,KEIK,2019-01-15T00:55:00Z,40.02,-105.05,-1.6,-9.5,200,5,,10.0,30.221457,,,TRUE,TRUE,,,,,,,CLR,,,,,,,,VFR,,,,,,,,,,,,METAR,1564.0
KELO 150055Z AUTO 00000KT 10SM SCT018 M11/M13 A3018 RMK AO2 TSNO,KELO,2019-01-15T00:55:00Z,47.82,-91.82,-11.0,-13.0,0,0,,10.0,30.180119,,,TRUE,TRUE,,,TRUE,,,,SCT,1800,,,,,,,VFR,,,,,,,,,,,,METAR,443.0
KETH 150055Z AUTO 31005KT 4SM BR OVC004 M05/M06 A3028 RMK AO2,KETH,2019-01-15T00:55:00Z,45.78,-96.55,-5.0,-6.0,310,5,,4.0,30.280512,,,TRUE,TRUE,,,,,,BR,OVC,400,,,,,,,LIFR,,,,,,,,,,,,METAR,313.0
KEVM 150055Z AUTO 33003KT 10SM CLR M09/M10 A3020 RMK AO2 T10871098,KEVM,2019-01-15T00:55:00Z,47.42,-92.5,-8.7,-9.8,330,3,,10.0,30.200787,,,TRUE,TRUE,,,,,,,CLR,,,,,,,,VFR,,,,,,,,,,,,METAR,421.0
KFFL 150055Z AUTO 24006KT 4SM BR OVC005 M02/M03 A3029 RMK AO2 PWINO,KFFL,2019-01-15T00:55:00Z,41.03,-91.97,-2.0,-3.0,240,6,,4.0,30.28937,,,TRUE,TRUE,,,,,TRUE,BR,OVC,500,,,,,,,IFR,,,,,,,,,,,,METAR,244.0
KFGX 150055Z AUTO 30004KT 10SM OVC011 M02/M03 A3031 RMK AO2 T10171030,KFGX,2019-01-15T00:55:00Z,38.55,-83.75,-1.7,-3.0,300,4,,10.0,30.31004,,,TRUE,TRUE,,,,,,,OVC,1100,,,,,,,MVFR,,,,,,,,,,,,METAR,278.0
KIIB 150055Z AUTO 00000KT 2 1/2SM BR OVC003 M02/M02 A3025 RMK AO2 T10201021,KIIB,2019-01-15T00:55:00Z,42.45,-91.95,-2.0,-2.1,0,0,,2.5,30.250984,,,TRUE,TRUE,,,,,,BR,OVC,300,,,,,,,LIFR,,,,,,,,,,,,METAR,298.0
KIKV 150055Z AUTO 3SM BR OVC005 M01/M02 A3028 RMK AO2,KIKV,2019-01-15T00:55:00Z,41.68,-93.57,-1.0,-2.0,,,,3.0,30.280512,,,TRUE,TRUE,,,,,,BR,OVC,500,,,,,,,IFR,,,,,,,,,,,,METAR,275.0
KIKW 150055Z AUTO 21004KT 10SM OVC019 M01/M04 A3020 RMK AO2 T10111041,KIKW,2019-01-15T00:55:00Z,43.67,-84.27,-1.1,-4.1,210,4,,10.0,30.200787,,,TRUE,TRUE,,,,,,,OVC,1900,,,,,,,MVFR,,,,,,,,,,,,METAR,194.0
KIWA 150055Z 00000KT 20SM FEW070 SCT120 BKN200 19/07 A3006,KIWA,2019-01-15T00:55:00Z,33.3,-111.65,19.0,7.0,0,0,,20.0,30.059055,,,,,,,,,,,FEW,7000,SCT,12000,BKN,20000,,,VFR,,,,,,,,,,,,METAR,412.0
KJFX 150055Z AUTO 00000KT 10SM 05/01 A3034 RMK AO2 PWINO,KJFX,2019-01-15T00:55:00Z,33.9,-87.32,5.0,1.0,0,0,,10.0,30.339567,,,TRUE,TRUE,,,,,TRUE,,,,,,,,,,,,,,,,,,,,,,METAR,148.0
KJVY 150055Z AUTO 00000KT 10SM CLR M01/M04 A3033 RMK AO2 T10111039,KJVY,2019-01-15T00:55:00Z,,,-1.1,-3.9,0,0,,10.0,30.33071,,,TRUE,TRUE,,,,,,,CLR,,,,,,,,VFR,,,,,,,,,,,,METAR,
KJVW 150055Z AUTO 36004G10KT 10SM 05/02 A3037 RMK AO2,KJVW,2019-01-15T00:55:00Z,32.3,-90.42,5.0,2.0,360,4,10,10.0,30.369095,,,TRUE,TRUE,,,,,,,,,,,,,,,,,,,,,,,,,,,METAR,76.0
KJZI 150055Z AUTO VRB06KT 7SM OVC014 06/03 A3023 RMK AO2 PWINO,KJZI,2019-01-15T00:55:00Z,32.7,-80.0,6.0,3.0,0,6,,7.0,30.230314,,,TRUE,TRUE,,,,,TRUE,,OVC,1400,,,,,,,MVFR,,,,,,,,,,,,METAR,6.0
KKY8 150055Z AUTO 27004KT 10SM OVC024 01/M02 A3035 RMK A01,KKY8,2019-01-15T00:55:00Z,37.95,-86.87,1.0,-2.0,270,4,,10.0,30.351377,,,TRUE,TRUE,,,,,,,OVC,2400,,,,,,,MVFR,,,,,,,,,,,,METAR,126.0
KL52 150055Z AUTO VRB05KT 5SM BR SCT035 BKN041 BKN048 13/11 A2991 RMK A01 P0002,KL52,2019-01-15T00:55:00Z,35.1,-120.62,13.0,11.0,0,5,,5.0,29.911417,,,TRUE,TRUE,,,,,,BR,SCT,3500,BKN,4100,BKN,4800,,,MVFR,,,,,,0.02,,,,,,METAR,4.0
KL08 150055Z AUTO 00000KT 3SM RA OVC033 10/10 A3004 RMK AO2 P0006,KL08,2019-01-15T00:55:00Z,33.27,-116.32,10.0,10.0,0,0,,3.0,30.041338,,,TRUE,TRUE,,,,,,RA,OVC,3300,,,,,,,MVFR,,,,,,0.06,,,,,,METAR,159.0
KLDJ 150055Z AUTO 00000KT 10SM CLR M02/M11 A3016 RMK AO2 T10161114,KLDJ,2019-01-15T00:55:00Z,40.62,-74.25,-1.6,-11.4,0,0,,10.0,30.159449,,,TRUE,TRUE,,,,,,,CLR,,,,,,,,VFR,,,,,,,,,,,,METAR,7.0
KLMO 150055Z AUTO 26005KT 10SM CLR 00/M09 A3019 RMK AO2 T10021088,KLMO,2019-01-15T00:55:00Z,40.17,-105.17,-0.2,-8.8,260,5,,10.0,30.188976,,,TRUE,TRUE,,,,,,,CLR,,,,,,,,VFR,,,,,,,,,,,,METAR,1541.0
KLRJ 150055Z AUTO 02003KT 10SM OVC015 00/M01 A3023 RMK AO2,KLRJ,2019-01-15T00:55:00Z,42.77,-96.2,0.0,-1.0,20,3,,10.0,30.230314,,,TRUE,TRUE,,,,,,,OVC,1500,,,,,,,MVFR,,,,,,,,,,,,METAR,365.0
KLRO 150055Z AUTO 31004KT 10SM OVC019 06/03 A3023 RMK AO2,KLRO,2019-01-15T00:55:00Z,32.9,-79.78,6.0,3.0,310,4,,10.0,30.230314,,,TRUE,TRUE,,,,,,,OVC,1900,,,,,,,MVFR,,,,,,,,,,,,METAR,4.0
KADU 150055Z AUTO 00000KT 2 1/2SM BR OVC004 M02/M03 A3024 RMK AO2,KADU,2019-01-15T00:55:00Z,41.7,-94.92,-2.0,-3.0,0,0,,2.5,30.239174,,,TRUE,TRUE,,,,,,BR,OVC,400,,,,,,,LIFR,,,,,,,,,,,,SPECI,392.0
KAEJ 150055Z AUTO 27008KT 10SM CLR M14/M17 A3024 RMK AO2 T11441171,KAEJ,2019-01-15T00:55:00Z,38.82,-106.12,-14.4,-17.1,270,8,,10.0,30.239174,,,TRUE,TRUE,,,,,,,CLR,,,,,,,,VFR,,,,,,,,,,,,SPECI,2422.0
KAIB 150055Z AUTO 18003KT 10SM CLR 01/M05 A3029 RMK AO2,KAIB,2019-01-15T00:55:00Z,38.23,-108.57,1.0,-5.0,180,3,,10.0,30.28937,,,TRUE,TRUE,,,,,,,CLR,,,,,,,,VFR,,,,,,,,,,,,SPECI,1811.0
KAIO 150055Z AUTO 24008KT 5SM BR OVC003 M01/M01 A3025 RMK AO2,KAIO,2019-01-15T00:55:00Z,41.38,-95.03,-1.0,-1.0,240,8,,5.0,30.250984,,,TRUE,TRUE,,,,,,BR,OVC,300,,,,,,,LIFR,,,,,,,,,,,,METAR,360.0
KAJZ 150055Z AUTO 35004KT 10SM CLR M02/M07 A3028 RMK AO2 T10211067,KAJZ,2019-01-15T00:55:00Z,38.78,-108.07,-2.1,-6.7,350,4,,10.0,30.280512,,,TRUE,TRUE,,,,,,,CLR,,,,,,,,VFR,,,,,,,,,,,,METAR,1583.0
KANK 150055Z AUTO 00000KT 10SM CLR M04/M08 A3031 RMK AO1 T10451081,KANK,2019-01-15T00:55:00Z,38.53,-106.05,-4.5,-8.1,0,0,,10.0,30.31004,,,TRUE,TRUE,,,,,,,CLR,,,,,,,,VFR,,,,,,,,,,,,METAR,2293.0
KAQX 150055Z AUTO 00000KT 10SM OVC011 06/05 A3022 RMK AO2 TSNO,KAQX,2019-01-15T00:55:00Z,32.98,-81.27,6.0,5.0,0,0,,10.0,30.221457,,,TRUE,TRUE,,,TRUE,,,,OVC,1100,,,,,,,MVFR,,,,,,,,,,,,METAR,49.0
KARV 150055Z AUTO 35008KT 7SM OVC006 M01/M02 A3013 RMK AO2 T10151025,KARV,2019-01-15T00:55:00Z,45.92,-89.72,-1.5,-2.5,350,8,,7.0,30.129921,,,TRUE,TRUE,,,,,,,OVC,600,,,,,,,IFR,,,,,,,,,,,,METAR,496.0
KATS 150055Z AUTO 15007KT 10SM SCT014 03/02 A3029 RMK AO2,KATS,2019-01-15T00:55:00Z,32.85,-104.47,3.0,2.0,150,7,,10.0,30.28937,,,TRUE,TRUE,,,,,,,SCT,1400,,,,,,,VFR,,,,,,,,,,,,METAR,1081.0
KAWG 150055Z AUTO 25009KT 5SM BR OVC007 M02/M02 A3030 RMK AO2,KAWG,2019-01-15T00:55:00Z,41.27,-91.67,-2.0,-2.0,250,9,,5.0,30.301182,,,TRUE,TRUE,,,,,,BR,OVC,700,,,,,,,IFR,,,,,,,,,,,,METAR,230.0
KAXA 150055Z AUTO 32005KT 8SM OVC006 M01/M01 A3022 RMK AO2 PWINO,KAXA,2019-01-15T00:55:00Z,43.07,-94.27,-1.0,-1.0,320,5,,8.0,30.221457,,,TRUE,TRUE,,,,,TRUE,,OVC,600,,,,,,,IFR,,,,,,,,,,,,METAR,372.0
KBCK 150055Z AUTO 00000KT 2 1/2SM BR BKN004 OVC020 M02/M02 A3022 RMK AO2 T10251025,KBCK,2019-01-15T00:55:00Z,44.25,-90.85,-2.5,-2.5,0,0,,2.5,30.221457,,,TRUE,TRUE,,,,,,BR,BKN,400,OVC,2000,,,,,LIFR,,,,,,,,,,,,METAR,255.0
KBAC 150055Z AUTO 00000KT 4SM BR BKN011 BKN016 M09/M09 A3024 RMK AO2,KBAC,2019-01-15T00:55:00Z,46.93,-98.02,-9.0,-9.0,0,0,,4.0,30.239174,,,TRUE,TRUE,,,,,,BR,BKN,1100,BKN,1600,,,,,MVFR,,,,,,,,,,,,METAR,427.0
KBDH 150055Z AUTO 34003KT 10SM OVC012 M03/M05 A3026 RMK AO2,KBDH,2019-01-15T00:55:00Z,45.12,-95.13,-3.0,-5.0,340,3,,10.0,30.259842,,,TRUE,TRUE,,,,,,,OVC,1200,,,,,,,MVFR,,,,,,,,,,,,METAR,247.0
KBDU 150055Z AUTO 22003KT 10SM CLR 02/M10 A3016 RMK AO2,KBDU,2019-01-15T00:55:00Z,40.03,-105.23,2.0,-10.0,220,3,,10.0,30.159449,,,TRUE,TRUE,,,,,,,CLR,,,,,,,,VFR,,,,,,,,,,,,METAR,1612.0
KBDN 150055Z AUTO 35004KT 10SM CLR M02/M05 A3004 RMK AO2,KBDN,2019-01-15T00:55:00Z,44.1,-121.2,-2.0,-5.0,350,4,,10.0,30.041338,,,TRUE,TRUE,,,,,,,CLR,,,,,,,,VFR,,,,,,,,,,,,METAR,1055.0
KBNW 150055Z AUTO 26006KT 1 3/4SM BR OVC003 M01/M01 A3024 RMK AO2,KBNW,2019-01-15T00:55:00Z,42.03,-93.83,-1.0,-1.0,260,6,,1.75,30.239174,,,TRUE,TRUE,,,,,,BR,OVC,300,,,,,,,LIFR,,,,,,,,,,,,METAR,354.0
KBKN 150055Z AUTO 13005KT 9SM CLR 02/02 A3034 RMK AO2,KBKN,2019-01-15T00:55:00Z,36.75,-97.35,2.0,2.0,130,5,,9.0,30.339567,,,TRUE,TRUE,,,,,,,CLR,,,,,,,,VFR,,,,,,,,,,,,METAR,314.0
KBRG 150055Z AUTO 00000KT 10SM BKN110 05/02 A3026 RMK AO2 T00470017,KBRG,2019-01-15T00:55:00Z,34.65,-106.83,4.7,1.7,0,0,,10.0,30.259842,,,TRUE,TRUE,,,,,,,BKN,11000,,,,,,,VFR,,,,,,,,,,,,METAR,1585.0
KBOW 150055Z AUTO 36007KT 10SM CLR 14/09 A3016 RMK AO2,KBOW,2019-01-15T00:55:00Z,27.93,-81.77,14.0,9.0,360,7,,10.0,30.159449,,,TRUE,TRUE,,,,,,,CLR,,,,,,,,VFR,,,,,,,,,,,,METAR,39.0
KBRY 150055Z AUTO 00000KT 10SM CLR M02/M04 A3031 RMK AO1,KBRY,2019-01-15T00:55:00Z,37.82,-85.5,-2.0,-4.0,0,0,,10.0,30.31004,,,TRUE,TRUE,,,,,,,CLR,,,,,,,,VFR,,,,,,,,,,,,METAR,204.0
KTWM 150055Z AUTO 00000KT 10SM CLR M06/M09 A3018 RMK AO2,KTWM,2019-01-15T00:55:00Z,47.03,-91.75,-6.0,-9.0,0,0,,10.0,30.180119,,,TRUE,TRUE,,,,,,,CLR,,,,,,,,VFR,,,,,,,,,,,,METAR,328.0
KTSP 150055Z AUTO 12011KT 1 3/4SM -RA BKN009 BKN016 OVC022 01/00 A2995 RMK AO2 P0004,KTSP,2019-01-15T00:55:00Z,35.13,-118.43,1.0,0.0,120,11,,1.75,29.949802,,,TRUE,TRUE,,,,,,-RA,BKN,900,BKN,1600,OVC,2200,,,IFR,,,,,,0.04,,,,,,METAR,1220.0
KUBE 150055Z AUTO 35008KT 10SM OVC014 M02/M04 A3020 RMK AO2,KUBE,2019-01-15T00:55:00Z,45.5,-91.98,-2.0,-4.0,350,8,,10.0,30.200787,,,TRUE,TRUE,,,,,,,OVC,1400,,,,,,,MVFR,,,,,,,,,,,,METAR,379.0
KULM 150055Z AUTO 34003KT 10SM OVC012 M02/M04 A3023 RMK AO2,KULM,2019-01-15T00:55:00Z,44.32,-94.5,-2.0,-4.0,340,3,,10.0,30.230314,,,TRUE,TRUE,,,,,,,OVC,1200,,,,,,,MVFR,,,,,,,,,,,,METAR,308.0
KUKT 150055Z AUTO 00000KT 10SM CLR M06/M10 A3014 RMK A01,KUKT,2019-01-15T00:55:00Z,40.43,-75.38,-6.0,-10.0,0,0,,10.0,30.138779,,,TRUE,TRUE,,,,,,,CLR,,,,,,,,VFR,,,,,,,,,,,,METAR,160.0
KVDF 150055Z AUTO 33003KT 10SM CLR 11/08 A3019 RMK AO2,KVDF,2019-01-15T00:55:00Z,28.02,-82.33,11.0,8.0,330,3,,10.0,30.188976,,,TRUE,TRUE,,,,,,,CLR,,,,,,,,VFR,,,,,,,,,,,,METAR,7.0
KUOX 150055Z AUTO 00000KT 9SM OVC015 03/00 A3038 RMK AO2,KUOX,2019-01-15T00:55:00Z,34.38,-89.53,3.0,0.0,0,0,,9.0,30.380905,,,TRUE,TRUE,,,,,,,OVC,1500,,,,,,,MVFR,,,,,,,,,,,,METAR,137.0
KWWD 150055Z AUTO 33003KT 10SM CLR M02/M08 A3018 RMK AO2 SLP223 T10221078 FZRANO,KWWD,2019-01-15T00:55:00Z,39.02,-74.92,-2.2,-7.8,330,3,,10.0,30.180119,1022.3,,TRUE,TRUE,,,,TRUE,,,CLR,,,,,,,,VFR,,,,,,,,,,,,METAR,7.0
KY23 150055Z AUTO 00000KT 10SM OVC014 M01/M02 A3020 RMK AO2 T10131019,KY23,2019-01-15T00:55:00Z,45.3,-91.63,-1.3,-1.9,0,0,,10.0,30.200787,,,TRUE,TRUE,,,,,,,OVC,1400,,,,,,,MVFR,,,,,,,,,,,,METAR,322.0
KY19 150055Z AUTO 17007KT 7SM CLR M08/M08 A3017 RMK AO2,KY19,2019-01-15T00:55:00Z,46.77,-100.9,-8.0,-8.0,170,7,,7.0,30.171259,,,TRUE,TRUE,,,,,,,CLR,,,,,,,,VFR,,,,,,,,,,,,METAR,593.0
KX07 150055Z AUTO 00000KT 10SM OVC032 13/10 A3018 RMK A01,KX07,2019-01-15T00:55:00Z,27.9,-81.62,13.0,10.0,0,0,,10.0,30.180119,,,TRUE,TRUE,,,,,,,OVC,3200,,,,,,,VFR,,,,,,,,,,,,METAR,39.0
KNFG 150055Z 00000KT 3SM BR OVC012 12/12 A2998 RMK AO2 RAB2358E55 SLP150 P0004 T01170117 $ ,KNFG,2019-01-15T00:55:00Z,33.28,-117.33,11.7,11.7,0,0,,3.0,29.97933,1015.0,,,TRUE,TRUE,,,,,BR,OVC,1200,,,,,,,MVFR,,,,,,0.04,,,,,,METAR,24.0
KDLH 150055Z 00000KT 10SM CLR M07/M09 A3017 RMK AO2 SLP242 T10671094,KDLH,2019-01-15T00:55:00Z,46.85,-92.2,-6.7,-9.4,0,0,,10.0,30.171259,1024.2,,,TRUE,,,,,,,CLR,,,,,,,,VFR,,,,,,,,,,,,METAR,435.0
KEAT 150055Z AUTO 00000KT 10SM OVC007 M03/M04 A3024 RMK AO2 SLP257 T10281044,KEAT,2019-01-15T00:55:00Z,47.4,-120.2,-2.8,-4.4,0,0,,10.0,30.239174,1025.7,,TRUE,TRUE,,,,,,,OVC,700,,,,,,,IFR,,,,,,,,,,,,METAR,377.0
KFKR 150055Z AUTO 29003KT 1/4SM FZFG VV002 M10/M12 A3032 RMK AO2 T11021122 TSNO,KFKR,2019-01-15T00:55:00Z,40.27,-86.57,-10.2,-12.2,290,3,,0.25,30.318897,,,TRUE,TRUE,,,TRUE,,,FZFG,OVX,0,,,,,,,LIFR,,,,,,,,,,,200,METAR,262.0
KRAW 150055Z AUTO 24004KT 5SM BR OVC005 A3034 RMK AO2,KRAW,2019-01-15T00:55:00Z,38.35,-93.35,,,240,4,,5.0,30.339567,,,TRUE,TRUE,,,,,,BR,OVC,500,,,,,,,IFR,,,,,,,,,,,,SPECI,285.0
KORC 150055Z AUTO 01005KT 7SM OVC008 00/M01 A3022 RMK AO2,KORC,2019-01-15T00:55:00Z,42.97,-96.07,0.0,-1.0,10,5,,7.0,30.221457,,,TRUE,TRUE,,,,,,,OVC,800,,,,,,,IFR,,,,,,,,,,,,SPECI,431.0
KLHM 150055Z AUTO 00000KT 10SM BKN065 BKN090 10/07 A2990 RMK AO1,KLHM,2019-01-15T00:55:00Z,38.92,-121.35,10.0,7.0,0,0,,10.0,29.899607,,,TRUE,TRUE,,,,,,,BKN,6500,BKN,9000,,,,,VFR,,,,,,,,,,,,METAR,37.0
KLIC 150055Z AUTO 32004KT 10SM CLR M06/M10 A3018 RMK AO2 SLP269 T10611100,KLIC,2019-01-15T00:55:00Z,39.27,-103.67,-6.1,-10.0,320,4,,10.0,30.180119,1026.9,,TRUE,TRUE,,,,,,,CLR,,,,,,,,VFR,,,,,,,,,,,,METAR,1630.0
KLLJ 150055Z AUTO 00000KT 10SM CLR M14/M17 A3022 RMK AO2 SLP317 T11391172,KLLJ,2019-01-15T00:55:00Z,44.52,-114.22,-13.9,-17.2,0,0,,10.0,30.221457,1031.7,,TRUE,TRUE,,,,,,,CLR,,,,,,,,VFR,,,,,,,,,,,,METAR,1536.0
KMKG 150055Z 24010KT 10SM OVC013 00/M04 A3023 RMK AO2 SLP243 T00001039 $,KMKG,2019-01-15T00:55:00Z,43.17,-86.23,0.0,-3.9,240,10,,10.0,30.230314,1024.3,,,TRUE,TRUE,,,,,,OVC,1300,,,,,,,MVFR,,,,,,,,,,,,METAR,191.0
KMLJ 150055Z AUTO 31006KT 10SM OVC037 08/04 A3022 RMK AO2,KMLJ,2019-01-15T00:55:00Z,33.15,-83.23,8.0,4.0,310,6,,10.0,30.221457,,,TRUE,TRUE,,,,,,,OVC,3700,,,,,,,VFR,,,,,,,,,,,,METAR,117.0
KOWP 150055Z AUTO 12004KT 10SM CLR 02/00 A3035 RMK AO2 T00181005,KOWP,2019-01-15T00:55:00Z,36.18,-96.15,1.8,-0.5,120,4,,10.0,30.351377,,,TRUE,TRUE,,,,,,,CLR,,,,,,,,VFR,,,,,,,,,,,,METAR,272.0
KPHP 150055Z AUTO 10004KT 9SM CLR M03/M04 A3017 RMK AO2 SLP244 T10331044,KPHP,2019-01-15T00:55:00Z,44.05,-101.6,-3.3,-4.4,100,4,,9.0,30.171259,1024.4,,TRUE,TRUE,,,,,,,CLR,,,,,,,,VFR,,,,,,,,,,,,METAR,672.0
KRGA 150055Z AUTO 00000KT 10SM BKN020 M01/M03 A3029 RMK AO2,KRGA,2019-01-15T00:55:00Z,37.63,-84.33,-1.0,-3.0,0,0,,10.0,30.28937,,,TRUE,TRUE,,,,,,,BKN,2000,,,,,,,MVFR,,,,,,,,,,,,METAR,305.0
KRNO 150055Z 18005KT 10SM FEW055 BKN075 BKN120 OVC180 05/M06 A2994 RMK AO2 SLP145 ACSL DSNT E CLDS TPG MTNS DSNT SW T00501061,KRNO,2019-01-15T00:55:00Z,39.5,-119.77,5.0,-6.1,180,5,,10.0,29.940945,1014.5,,,TRUE,,,,,,,FEW,5500,BKN,7500,BKN,12000,OVC,18000,VFR,,,,,,,,,,,,METAR,1342.0
KSCK 150055Z 12012KT 10SM OVC060 13/07 A2988 RMK AO2 RAB19E36 SLP118 P0000 T01280067,KSCK,2019-01-15T00:55:00Z,37.88,-121.22,12.8,6.7,120,12,,10.0,29.878937,1011.8,,,TRUE,,,,,,,OVC,6000,,,,,,,VFR,,,,,,0.005,,,,,,METAR,10.0
K0V4 150055Z AUTO 2 1/2SM SCT050 OVC080 01/01 A3020 RMK AO1 T00100008,K0V4,2019-01-15T00:55:00Z,37.15,-79.02,1.0,0.8,,,,2.5,30.200787,,,TRUE,TRUE,,,,,,,SCT,5000,OVC,8000,,,,,IFR,,,,,,,,,,,,METAR,182.0
K3LF 150055Z AUTO 24006KT 10SM OVC013 M01/M03 A3035 RMK AO2 T10121030,K3LF,2019-01-15T00:55:00Z,39.17,-89.67,-1.2,-3.0,240,6,,10.0,30.351377,,,TRUE,TRUE,,,,,,,OVC,1300,,,,,,,MVFR,,,,,,,,,,,,METAR,210.0
KAAT 150055Z AUTO 19010KT 10SM BKN100 03/M05 A2992 RMK AO2 SLP155 T00331050,KAAT,2019-01-15T00:55:00Z,41.48,-120.57,3.3,-5.0,190,10,,10.0,29.920275,1015.5,,TRUE,TRUE,,,,,,,BKN,10000,,,,,,,VFR,,,,,,,,,,,,METAR,1331.0
KANJ 150055Z AUTO 24005KT 5SM -SN BR OVC005 M01/M02 A3009 RMK AO2 SLP201 P0001 T10111022,KANJ,2019-01-15T00:55:00Z,46.47,-84.37,-1.1,-2.2,240,5,,5.0,30.088583,1020.1,,TRUE,TRUE,,,,,,-SN BR,OVC,500,,,,,,,IFR,,,,,,0.01,,,,,,METAR,218.0
KAST 150055Z AUTO 08008KT 10SM CLR 08/M02 A2989 RMK AO2 SLP122 T00831017,KAST,2019-01-15T00:55:00Z,46.15,-123.88,8.3,-1.7,80,8,,10.0,29.890747,1012.2,,TRUE,TRUE,,,,,,,CLR,,,,,,,,VFR,,,,,,,,,,,,METAR,3.0
KAZC 150055Z AUTO 07016G20KT 10SM SCT100 SCT120 06/M01 A3014 RMK AO2,KAZC,2019-01-15T00:55:00Z,36.97,-113.02,6.0,-1.0,70,16,20,10.0,30.138779,,,TRUE,TRUE,,,,,,,SCT,10000,SCT,12000,,,,,VFR,,,,,,,,,,,,METAR,1486.0
KBKS 150055Z AUTO 04006KT 10SM OVC017 10/05 A3038 RMK AO1 T00960051,KBKS,2019-01-15T00:55:00Z,27.2,-98.12,9.6,5.1,40,6,,10.0,30.380905,,,TRUE,TRUE,,,,,,,OVC,1700,,,,,,,MVFR,,,,,,,,,,,,METAR,34.0
KBQK 150055Z AUTO 00000KT 10SM OVC013 08/06 A3023 RMK AO2,KBQK,2019-01-15T00:55:00Z,31.25,-81.47,8.0,6.0,0,0,,10.0,30.230314,,,TRUE,TRUE,,,,,,,OVC,1300,,,,,,,MVFR,,,,,,,,,,,,METAR,8.0
KCAO 150055Z AUTO 09008KT 10SM CLR 03/M05 A3019 RMK AO2 SLP235 T00281050,KCAO,2019-01-15T00:55:00Z,36.45,-103.15,2.8,-5.0,90,8,,10.0,30.188976,1023.5,,TRUE,TRUE,,,,,,,CLR,,,,,,,,VFR,,,,,,,,,,,,METAR,1514.0
KCMA 150055Z 07010KT 10SM FEW055 12/07 A2995 RMK AO2 SLP152 T01170067,KCMA,2019-01-15T00:55:00Z,34.22,-119.1,11.7,6.7,70,10,,10.0,29.949802,1015.2,,,TRUE,,,,,,,FEW,5500,,,,,,,VFR,,,,,,,,,,,,METAR,23.0
KCNK 150055Z AUTO 25008KT 4SM BR OVC003 00/00 A3026 RMK AO2 SLP262 T00000000 $,KCNK,2019-01-15T00:55:00Z,39.55,-97.65,0.0,0.0,250,8,,4.0,30.259842,1026.2,,TRUE,TRUE,TRUE,,,,,BR,OVC,300,,,,,,,LIFR,,,,,,,,,,,,METAR,447.0
KUGN 150055Z 24007KT 6SM HZ OVC010 M04/M07 A3025 RMK AO2 SLP260 T10391072,KUGN,2019-01-15T00:55:00Z,42.42,-87.87,-3.9,-7.2,240,7,,6.0,30.250984,1026.0,,,TRUE,,,,,,HZ,OVC,1000,,,,,,,MVFR,,,,,,,,,,,,METAR,222.0
KXSA 150055Z AUTO 00000KT 10SM OVC070 M01/M03 A3022 RMK AO2 T10121030,KXSA,2019-01-15T00:55:00Z,37.87,-76.9,-1.2,-3.0,0,0,,10.0,30.221457,,,TRUE,TRUE,,,,,,,OVC,7000,,,,,,,VFR,,,,,,,,,,,,METAR,42.0
KCVH 150055Z AUTO 14010KT 10SM BKN047 OVC055 13/08 A2986 RMK A01,KCVH,2019-01-15T00:55:00Z,36.9,-121.42,13.0,8.0,140,10,,10.0,29.861221,,,TRUE,TRUE,,,,,,,BKN,4700,OVC,5500,,,,,VFR,,,,,,,,,,,,METAR,70.0
KCSQ 150055Z AUTO 26010KT 1/2SM FZFG OVC002 M01/M01 A3026 RMK AO2,KCSQ,2019-01-15T00:55:00Z,41.02,-94.37,-1.0,-1.0,260,10,,0.5,30.259842,,,TRUE,TRUE,,,,,,FZFG,OVC,200,,,,,,,LIFR,,,,,,,,,,,,METAR,394.0
KCQW 150055Z AUTO 00000KT 10SM OVC041 05/03 A3020 RMK AO2,KCQW,2019-01-15T00:55:00Z,34.72,-79.95,5.0,3.0,0,0,,10.0,30.200787,,,TRUE,TRUE,,,,,,,OVC,4100,,,,,,,VFR,,,,,,,,,,,,METAR,73.0
KCPT 150055Z AUTO 00000KT 10SM OVC055 06/01 A3039 RMK AO2,KCPT,2019-01-15T00:55:00Z,32.35,-97.43,6.0,1.0,0,0,,10.0,30.389763,,,TRUE,TRUE,,,,,,,OVC,5500,,,,,,,VFR,,,,,,,,,,,,METAR,260.0
KHON 150055Z AUTO VRB03KT 8SM OVC007 M03/M05 A3023 RMK AO2 SLP257 T10331050,KHON,2019-01-15T00:55:00Z,44.38,-98.23,-3.3,-5.0,0,3,,8.0,30.230314,1025.7,,TRUE,TRUE,,,,,,,OVC,700,,,,,,,IFR,,,,,,,,,,,,METAR,390.0
KI35 150055Z AUTO 28003KT 10SM OVC013 00/M02 A3025 RMK AO2 T10021023,KI35,2019-01-15T00:55:00Z,36.87,-83.37,-0.2,-2.3,280,3,,10.0,30.250984,,,TRUE,TRUE,,,,,,,OVC,1300,,,,,,,MVFR,,,,,,,,,,,,METAR,473.0
KIER 150055Z AUTO 02005KT 10SM OVC019 05/01 A3042 RMK AO2 T00480014,KIER,2019-01-15T00:55:00Z,31.73,-93.1,4.8,1.4,20,5,,10.0,30.41929,,,TRUE,TRUE,,,,,,,OVC,1900,,,,,,,MVFR,,,,,,,,,,,,METAR,37.0
KIKG 150055Z AUTO 01004KT 10SM OVC025 10/06 A3039 RMK AO2 T01030060,KIKG,2019-01-15T00:55:00Z,27.55,-98.03,10.3,6.0,10,4,,10.0,30.389763,,,TRUE,TRUE,,,,,,,OVC,2500,,,,,,,MVFR,,,,,,,,,,,,METAR,40.0
KINL 150055Z AUTO 00000KT 10SM CLR M13/M14 A3021 RMK AO2 SLP258 T11331144,KINL,2019-01-15T00:55:00Z,48.57,-93.4,-13.3,-14.4,0,0,,10.0,30.209646,1025.8,,TRUE,TRUE,,,,,,,CLR,,,,,,,,VFR,,,,,,,,,,,,METAR,360.0
KIRK 150055Z AUTO 23009KT 1 3/4SM BR OVC002 M03/M03 A3030 RMK AO2 SLP278 I1000 T10281028,KIRK,2019-01-15T00:55:00Z,40.1,-92.55,-2.8,-2.8,230,9,,1.75,30.301182,1027.8,,TRUE,TRUE,,,,,,BR,OVC,200,,,,,,,LIFR,,,,,,,,,,,,METAR,293.0
KNBG 150055Z 02008KT 10SM OVC021 07/03 A3035 RMK AO2 SLP275 T00670033 $ ,KNBG,2019-01-15T00:55:00Z,29.82,-90.02,6.7,3.3,20,8,,10.0,30.351377,1027.5,,,TRUE,TRUE,,,,,,OVC,2100,,,,,,,MVFR,,,,,,,,,,,,METAR,1.0
EHAM 150055Z 22009KT 9999 FEW022 SCT042 03/00 Q1019 NOSIG,EHAM,2019-01-15T00:55:00Z,52.32,4.78,3.0,0.0,220,9,,6.21,30.088583,,,,,,TRUE,,,,,FEW,2200,SCT,4200,,,,,VFR,,,,,,,,,,,,METAR,9.0
EHBK 150055Z AUTO 23005KT 9999 BKN021 BKN026 OVC030 03/02 Q1021,EHBK,2019-01-15T00:55:00Z,50.92,5.77,3.0,2.0,230,5,,6.21,30.147638,,,TRUE,,,,,,,,BKN,2100,BKN,2600,OVC,3000,,,MVFR,,,,,,,,,,,,METAR,116.0
EHGG 150055Z AUTO 25009KT 9999 NSC 03/01 Q1016,EHGG,2019-01-15T00:55:00Z,53.12,6.57,3.0,1.0,250,9,,6.21,30.0,,,TRUE,,,,,,,,CLR,,,,,,,,VFR,,,,,,,,,,,,METAR,4.0
EHRD 150055Z AUTO 22005KT 9999 FEW023 BKN043 01/M00 Q1020 NOSIG,EHRD,2019-01-15T00:55:00Z,51.95,4.45,1.0,0.0,220,5,,6.21,30.11811,,,TRUE,,,TRUE,,,,,FEW,2300,BKN,4300,,,,,VFR,,,,,,,,,,,,METAR,-5.0
PAUT 150055Z AUTO 22014G26KT 10SM SCT023 SCT027 03/00 A2903 RMK AO2 T00341001,PAUT,2019-01-15T00:55:00Z,54.15,-165.6,3.4,-0.1,220,14,26,10.0,29.028543,,,TRUE,TRUE,,,,,,,SCT,2300,SCT,2700,,,,,VFR,,,,,,,,,,,,METAR,25.0
PAIM 150055Z AUTO 00000KT 10SM CLR M17/M19 A2997 RMK AO2 SLP193 T11691189,PAIM,2019-01-15T00:55:00Z,66.0,-153.7,-16.9,-18.9,0,0,,10.0,29.970472,1019.3,,TRUE,TRUE,,,,,,,CLR,,,,,,,,VFR,,,,,,,,,,,,METAR,389.0
PALU 150055Z AUTO 13010KT 10SM BKN024 BKN043 M09/M10 A2992 RMK AO2 SLP130 T10861097,PALU,2019-01-15T00:55:00Z,68.88,-166.1,-8.6,-9.7,130,10,,10.0,29.920275,1013.0,,TRUE,TRUE,,,,,,,BKN,2400,BKN,4300,,,,,MVFR,,,,,,,,,,,,METAR,3.0
PATL 150055Z AUTO 08005KT 10SM BKN160 M09/M11 A2982 RMK AO2 SLP128 T10911108,PATL,2019-01-15T00:55:00Z,62.9,-155.97,-9.1,-10.8,80,5,,10.0,29.819881,1012.8,,TRUE,TRUE,,,,,,,BKN,16000,,,,,,,VFR,,,,,,,,,,,,METAR,294.0
GMME 150055Z VRB02KT 2000 R21/0200VP2000U SCT010 06/04 Q1021 NOSIG,GMME,2019-01-15T00:55:00Z,34.03,-6.77,6.0,4.0,0,2,,1.24,30.147638,,,,,,TRUE,,,,,SCT,1000,,,,,,,IFR,,,,,,,,,,,,SPECI,75.0
KCDA 150055Z AUTO 00000KT 10SM CLR M11/M14 A3010 RMK AO2 T11131142,KCDA,2019-01-15T00:55:00Z,44.57,-72.02,-11.3,-14.2,0,0,,10.0,30.100393,,,TRUE,TRUE,,,,,,,CLR,,,,,,,,VFR,,,,,,,,,,,,METAR,363.0
KCDH 150055Z AUTO 00000KT 10SM OVC021 05/00 A3041 RMK AO2,KCDH,2019-01-15T00:55:00Z,33.62,-92.77,5.0,0.0,0,0,,10.0,30.410433,,,TRUE,TRUE,,,,,,,OVC,2100,,,,,,,MVFR,,,,,,,,,,,,METAR,35.0
KCKC 150055Z AUTO 34004KT 10SM BKN016 M08/M12 A3014 RMK AO2,KCKC,2019-01-15T00:55:00Z,47.83,-90.37,-8.0,-12.0,340,4,,10.0,30.138779,,,TRUE,TRUE,,,,,,,BKN,1600,,,,,,,MVFR,,,,,,,,,,,,METAR,548.0
KCKN 150055Z AUTO 00000KT 1/4SM FZFG OVC002 M10/M11 A3027 RMK AO2,KCKN,2019-01-15T00:55:00Z,47.85,-96.62,-10.0,-11.0,0,0,,0.25,30.268702,,,TRUE,TRUE,,,,,,FZFG,OVC,200,,,,,,,LIFR,,,,,,,,,,,,METAR,273.0
KCMD 150055Z AUTO 36007KT 10SM OVC021 03/M01 A3032 RMK AO2 T00251009,KCMD,2019-01-15T00:55:00Z,34.27,-86.85,2.5,-0.9,360,7,,10.0,30.318897,,,TRUE,TRUE,,,,,,,OVC,2100,,,,,,,MVFR,,,,,,,,,,,,METAR,294.0
KCNB 150055Z AUTO 33005KT 7SM OVC004 M02/M03 A3026 RMK AO2 T10221026,KCNB,2019-01-15T00:55:00Z,44.73,-96.27,-2.2,-2.6,330,5,,7.0,30.259842,,,TRUE,TRUE,,,,,,,OVC,400,,,,,,,LIFR,,,,,,,,,,,,METAR,364.0
KCPK 150055Z AUTO 00000KT 10SM CLR M02/M03 A3021 RMK AO2 T10201029,KCPK,2019-01-15T00:55:00Z,36.67,-76.32,-2.0,-2.9,0,0,,10.0,30.209646,,,TRUE,TRUE,,,,,,,CLR,,,,,,,,VFR,,,,,,,,,,,,METAR,6.0
KCQM 150055Z AUTO 00000KT 10SM CLR M11/M12 A3019 RMK AO2,KCQM,2019-01-15T00:55:00Z,47.82,-92.68,-11.0,-12.0,0,0,,10.0,30.188976,,,TRUE,TRUE,,,,,,,CLR,,,,,,,,VFR,,,,,,,,,,,,METAR,404.0
KCWC 150055Z AUTO 15003KT 10SM CLR 03/01 A3037 RMK AO2 T00320006,KCWC,2019-01-15T00:55:00Z,33.85,-98.48,3.2,0.6,150,3,,10.0,30.369095,,,TRUE,TRUE,,,,,,,CLR,,,,,,,,VFR,,,,,,,,,,,,METAR,305.0
KCXU 150055Z AUTO 00000KT 10SM OVC019 08/05 A3027 RMK AO1 T00810046,KCXU,2019-01-15T00:55:00Z,31.22,-84.23,8.1,4.6,0,0,,10.0,30.268702,,,TRUE,TRUE,,,,,,,OVC,1900,,,,,,,MVFR,,,,,,,,,,,,METAR,53.0
KCZL 150055Z AUTO 34005KT 10SM OVC025 05/00 A3030 RMK AO2,KCZL,2019-01-15T00:55:00Z,34.47,-84.93,5.0,0.0,340,5,,10.0,30.301182,,,TRUE,TRUE,,,,,,,OVC,2500,,,,,,,MVFR,,,,,,,,,,,,METAR,195.0
KDLO 150055Z AUTO 16004KT 10SM CLR 13/03 A2990 RMK AO2 T01260032,KDLO,2019-01-15T00:55:00Z,35.75,-119.23,12.6,3.2,160,4,,10.0,29.899607,,,TRUE,TRUE,,,,,,,CLR,,,,,,,,VFR,,,,,,,,,,,,METAR,96.0
KDRI 150055Z AUTO 02003KT 10SM CLR 05/02 A3041 RMK AO2 T00460017,KDRI,2019-01-15T00:55:00Z,30.83,-93.33,4.6,1.7,20,3,,10.0,30.410433,,,TRUE,TRUE,,,,,,,CLR,,,,,,,,VFR,,,,,,,,,,,,METAR,63.0
KDTL 150055Z AUTO 00000KT 7SM OVC005 M05/M06 A3023 RMK AO2,KDTL,2019-01-15T00:55:00Z,46.82,-95.87,-5.0,-6.0,0,0,,7.0,30.230314,,,TRUE,TRUE,,,,,,,OVC,500,,,,,,,IFR,,,,,,,,,,,,METAR,426.0
KDXX 150055Z AUTO 00000KT 7SM OVC005 M03/M04 A3025 RMK AO2,KDXX,2019-01-15T00:55:00Z,44.98,-96.18,-3.0,-4.0,0,0,,7.0,30.250984,,,TRUE,TRUE,,,,,,,OVC,500,,,,,,,IFR,,,,,,,,,,,,METAR,330.0
KDUX 150055Z AUTO 00000KT 10SM CLR 06/00 A3020 RMK AO2 T00631001,KDUX,2019-01-15T00:55:00Z,35.85,-102.02,6.3,-0.1,0,0,,10.0,30.200787,,,TRUE,TRUE,,,,,,,CLR,,,,,,,,VFR,,,,,,,,,,,,METAR,1129.0
KDZB 150055Z AUTO 00000KT 10SM OVC049 07/02 A3037 RMK AO2 T00680024,KDZB,2019-01-15T00:55:00Z,30.53,-98.37,6.8,2.4,0,0,,10.0,30.369095,,,TRUE,TRUE,,,,,,,OVC,4900,,,,,,,VFR,,,,,,,,,,,,METAR,334.0
KECU 150055Z AUTO 17005KT 10SM OVC025 08/05 A3037 RMK AO2,KECU,2019-01-15T00:55:00Z,29.95,-100.17,8.0,5.0,170,5,,10.0,30.369095,,,TRUE,TRUE,,,,,,,OVC,2500,,,,,,,MVFR,,,,,,,,,,,,METAR,725.0
KEDJ 150055Z AUTO 20004KT 7SM CLR M09/M09 A3027 RMK AO1,KEDJ,2019-01-15T00:55:00Z,40.37,-83.82,-9.0,-9.0,200,4,,7.0,30.268702,,,TRUE,TRUE,,,,,,,CLR,,,,,,,,VFR,,,,,,,,,,,,METAR,342.0
KEDN 150055Z AUTO 00000KT 10SM SCT018 OVC024 06/04 A3027 RMK AO2 T00560035,KEDN,2019-01-15T00:55:00Z,31.3,-85.9,5.6,3.5,0,0,,10.0,30.268702,,,TRUE,TRUE,,,,,,,SCT,1800,OVC,2400,,,,,MVFR,,,,,,,,,,,,METAR,110.0
KERV 150055Z AUTO 00000KT 7SM OVC036 07/03 A3034 RMK AO2 T00720031,KERV,2019-01-15T00:55:00Z,29.98,-99.08,7.2,3.1,0,0,,7.0,30.339567,,,TRUE,TRUE,,,,,,,OVC,3600,,,,,,,VFR,,,,,,,,,,,,METAR,510.0
KF05 150055Z AUTO 15005KT 10SM CLR 06/02 A3033 RMK AO1 T00590021,KF05,2019-01-15T00:55:00Z,34.23,-99.28,5.9,2.1,150,5,,10.0,30.33071,,,TRUE,TRUE,,,,,,,CLR,,,,,,,,VFR,,,,,,,,,,,,METAR,386.0
KF46 150055Z AUTO 00000KT 10SM CLR 05/02 A3039 RMK AO2 T00530020,KF46,2019-01-15T00:55:00Z,32.93,-96.43,5.3,2.0,0,0,,10.0,30.389763,,,TRUE,TRUE,,,,,,,CLR,,,,,,,,VFR,,,,,,,,,,,,METAR,176.0
KFGN 150055Z AUTO 15004KT BKN001 OVC075 M14/M15 A3018 RMK AO2 PWINO,KFGN,2019-01-15T00:55:00Z,49.32,-94.9,-14.0,-15.0,150,4,,,30.180119,,,TRUE,TRUE,,,,,TRUE,,BKN,100,OVC,7500,,,,,,,,,,,,,,,,,METAR,328.0
KGPM 150055Z AUTO 00000KT 10SM SCT060 06/00 A3040 RMK AO2 T00560000,KGPM,2019-01-15T00:55:00Z,32.7,-97.05,5.6,0.0,0,0,,10.0,30.398623,,,TRUE,TRUE,,,,,,,SCT,6000,,,,,,,VFR,,,,,,,,,,,,METAR,180.0
KGLW 150055Z AUTO 00000KT 7SM OVC025 01/00 A3032 RMK AO2 T00061005,KGLW,2019-01-15T00:55:00Z,37.03,-85.95,0.6,-0.5,0,0,,7.0,30.318897,,,TRUE,TRUE,,,,,,,OVC,2500,,,,,,,MVFR,,,,,,,,,,,,METAR,218.0
KGAO 150055Z AUTO 36008KT 10SM OVC018 06/02 A3036 RMK AO2 T00640021,KGAO,2019-01-15T00:55:00Z,29.45,-90.27,6.4,2.1,360,8,,10.0,30.360237,,,TRUE,TRUE,,,,,,,OVC,1800,,,,,,,MVFR,,,,,,,,,,,,METAR,1.0
KFWZ 150055Z AUTO 25010KT 10SM CLR 00/M16 A3009 RMK AO2,KFWZ,2019-01-15T00:55:00Z,42.52,-108.78,0.0,-16.0,250,10,,10.0,30.088583,,,TRUE,TRUE,,,,,,,CLR,,,,,,,,VFR,,,,,,,,,,,,METAR,2588.0
KFSO 150055Z AUTO 00000KT 10SM CLR M15/M16 A3019 RMK AO2 T11461156,KFSO,2019-01-15T00:55:00Z,44.93,-73.1,-14.6,-15.6,0,0,,10.0,30.188976,,,TRUE,TRUE,,,,,,,CLR,,,,,,,,VFR,,,,,,,,,,,,METAR,70.0
K0E0 150055Z AUTO 00000KT 10SM CLR 02/01 A3027 RMK AO2 T00170005,K0E0,2019-01-15T00:55:00Z,34.98,-106.0,1.7,0.5,0,0,,10.0,30.268702,,,TRUE,TRUE,,,,,,,CLR,,,,,,,,VFR,,,,,,,,,,,,METAR,1890.0
K0F2 150055Z AUTO 17003KT 10SM CLR 03/00 A3035 RMK AO2 T00330001,K0F2,2019-01-15T00:55:00Z,33.6,-97.78,3.3,0.1,170,3,,10.0,30.351377,,,TRUE,TRUE,,,,,,,CLR,,,,,,,,VFR,,,,,,,,,,,,METAR,336.0
K1K1 150055Z AUTO 17005KT 7SM OVC007 00/00 A3030 RMK AO2 T00031004,K1K1,2019-01-15T00:55:00Z,37.77,-97.12,0.3,-0.4,170,5,,7.0,30.301182,,,TRUE,TRUE,,,,,,,OVC,700,,,,,,,IFR,,,,,,,,,,,,METAR,416.0
K1A9 150055Z AUTO 33008KT 10SM OVC018 05/02 A3030 RMK AO2 T00530020,K1A9,2019-01-15T00:55:00Z,32.43,-86.52,5.3,2.0,330,8,,10.0,30.301182,,,TRUE,TRUE,,,,,,,OVC,1800,,,,,,,MVFR,,,,,,,,,,,,METAR,69.0
K82V 150055Z AUTO 30004KT 10SM CLR M02/M14 A3016 RMK AO2,K82V,2019-01-15T00:55:00Z,41.15,-104.13,-2.0,-14.0,300,4,,10.0,30.159449,,,TRUE,TRUE,,,,,,,CLR,,,,,,,,VFR,,,,,,,,,,,,METAR,1570.0
K7W4 150055Z AUTO 00000KT 10SM OVC085 M01/M04 A3021 RMK AO1 T10101040,K7W4,2019-01-15T00:55:00Z,37.97,-77.75,-1.0,-4.0,0,0,,10.0,30.209646,,,TRUE,TRUE,,,,,,,OVC,8500,,,,,,,VFR,,,,,,,,,,,,METAR,106.0
K6A2 150055Z AUTO 32005KT 10SM OVC025 05/01 A3022 RMK AO2,K6A2,2019-01-15T00:55:00Z,33.23,-84.27,5.0,1.0,320,5,,10.0,30.221457,,,TRUE,TRUE,,,,,,,OVC,2500,,,,,,,MVFR,,,,,,,,,,,,METAR,292.0
K5R8 150055Z AUTO 00000KT 10SM CLR 05/02 A3039 RMK AO2 T00510020,K5R8,2019-01-15T00:55:00Z,30.43,-93.47,5.1,2.0,0,0,,10.0,30.389763,,,TRUE,TRUE,,,,,,,CLR,,,,,,,,VFR,,,,,,,,,,,,METAR,24.0
K4S1 150055Z AUTO 00000KT 1SM HZ OVC001 11/08 A2980 RMK AO1,K4S1,2019-01-15T00:55:00Z,42.42,-124.42,11.0,8.0,0,0,,1.0,29.799213,,,TRUE,TRUE,,,,,,HZ,OVC,100,,,,,,,LIFR,,,,,,,,,,,,METAR,5.0
K3R7 150055Z AUTO 02004KT 10SM SCT023 05/02 A3039 RMK AO2 T00510020,K3R7,2019-01-15T00:55:00Z,30.25,-92.67,5.1,2.0,20,4,,10.0,30.389763,,,TRUE,TRUE,,,,,,,SCT,2300,,,,,,,VFR,,,,,,,,,,,,METAR,7.0
KBXA 150055Z AUTO 01005KT 10SM OVC023 07/03 A3036 RMK AO2 T00680029,KBXA,2019-01-15T00:55:00Z,30.82,-89.87,6.8,2.9,10,5,,10.0,30.360237,,,TRUE,TRUE,,,,,,,OVC,2300,,,,,,,MVFR,,,,,,,,,,,,METAR,36.0
KHMZ 150055Z AUTO 32004KT 10SM CLR M04/M06 A3017 RMK AO2 T10361062,KHMZ,2019-01-15T00:55:00Z,40.08,-78.52,-3.6,-6.2,320,4,,10.0,30.171259,,,TRUE,TRUE,,,,,,,CLR,,,,,,,,VFR,,,,,,,,,,,,METAR,354.0
PATC 150055Z AUTO 04020KT 4SM -SHSN BKN080 M11/M11 A2959 RMK AO2 SLP030,PATC,2019-01-15T00:55:00Z,65.57,-167.92,-11.0,-11.0,40,20,,4.0,29.589567,1003.0,,TRUE,TRUE,,,,,,-SHSN,BKN,8000,,,,,,,MVFR,,,,,,,,,,,,METAR,83.0
KHRX 150055Z AUTO 20007KT 7SM CLR 07/01 A3022 RMK AO2 T00740013,KHRX,2019-01-15T00:55:00Z,34.87,-102.33,7.4,1.3,200,7,,7.0,30.221457,,,TRUE,TRUE,,,,,,,CLR,,,,,,,,VFR,,,,,,,,,,,,METAR,1154.0
KHVE 150055Z AUTO 10SM BKN065 00/M05 A3032 RMK AO2,KHVE,2019-01-15T00:55:00Z,38.42,-110.7,0.0,-5.0,,,,10.0,30.318897,,,TRUE,TRUE,,,,,,,BKN,6500,,,,,,,VFR,,,,,,,,,,,,METAR,1350.0
KHYX 150055Z AUTO 22006KT 10SM OVC021 M01/M05 A3021 RMK AO2,KHYX,2019-01-15T00:55:00Z,43.43,-83.87,-1.0,-5.0,220,6,,10.0,30.209646,,,TRUE,TRUE,,,,,,,OVC,2100,,,,,,,MVFR,,,,,,,,,,,,METAR,183.0
KIMS 150055Z AUTO 00000KT 10SM CLR M02/M03 A3032 RMK AO1,KIMS,2019-01-15T00:55:00Z,38.75,-85.47,-2.0,-3.0,0,0,,10.0,30.318897,,,TRUE,TRUE,,,,,,,CLR,,,,,,,,VFR,,,,,,,,,,,,METAR,250.0
KISQ 150055Z AUTO 27003KT 7SM OVC030 M02/M05 A3013 RMK AO2 T10171047,KISQ,2019-01-15T00:55:00Z,45.97,-86.17,-1.7,-4.7,270,3,,7.0,30.129921,,,TRUE,TRUE,,,,,,,OVC,3000,,,,,,,MVFR,,,,,,,,,,,,METAR,209.0
KIZA 150055Z AUTO 15003KT 2 1/2SM -SN SCT034 BKN048 OVC050 11/08 A2992 RMK AO2 P0005,KIZA,2019-01-15T00:55:00Z,34.6,-120.07,11.0,8.0,150,3,,2.5,29.920275,,,TRUE,TRUE,,,,,,-SN,SCT,3400,BKN,4800,OVC,5000,,,IFR,,,,,,0.05,,,,,,METAR,205.0
KJSV 150055Z AUTO 00000KT 10SM OVC016 02/M01 A3040 RMK AO2,KJSV,2019-01-15T00:55:00Z,35.43,-94.8,2.0,-1.0,0,0,,10.0,30.398623,,,TRUE,TRUE,,,,,,,OVC,1600,,,,,,,MVFR,,,,,,,,,,,,METAR,161.0
KJWY 150055Z AUTO 00000KT 10SM CLR 04/01 A3039 RMK AO2 T00400010,KJWY,2019-01-15T00:55:00Z,32.45,-96.92,4.0,1.0,0,0,,10.0,30.389763,,,TRUE,TRUE,,,,,,,CLR,,,,,,,,VFR,,,,,,,,,,,,METAR,217.0
KJYL 150055Z AUTO 00000KT 3SM BR BKN004 OVC009 07/07 A3023 RMK AO2 T00700066,KJYL,2019-01-15T00:55:00Z,32.65,-81.6,7.0,6.6,0,0,,3.0,30.230314,,,TRUE,TRUE,,,,,,BR,BKN,400,OVC,900,,,,,LIFR,,,,,,,,,,,,METAR,57.0
KJYR 150055Z AUTO 00000KT 1/2SM FG OVC002 00/00 A3021 RMK AO2,KJYR,2019-01-15T00:55:00Z,40.9,-97.62,0.0,0.0,0,0,,0.5,30.209646,,,TRUE,TRUE,,,,,,FG,OVC,200,,,,,,,LIFR,,,,,,,,,,,,METAR,509.0
KBTA 150055Z AUTO 19005KT 5SM BR OVC003 00/M01 A3023 RMK AO2 T10011007,KBTA,2019-01-15T00:55:00Z,41.42,-96.12,-0.1,-0.7,190,5,,5.0,30.230314,,,TRUE,TRUE,,,,,,BR,OVC,300,,,,,,,LIFR,,,,,,,,,,,,METAR,396.0
KBPG 150055Z AUTO 11003KT 10SM OVC020 07/03 A3033 RMK AO2 T00670031,KBPG,2019-01-15T00:55:00Z,32.22,-101.52,6.7,3.1,110,3,,10.0,30.33071,,,TRUE,TRUE,,,,,,,OVC,2000,,,,,,,MVFR,,,,,,,,,,,,METAR,784.0
KBPC 150055Z AUTO 00000KT 10SM CLR 07/00 A3022 RMK AO2,KBPC,2019-01-15T00:55:00Z,35.88,-101.03,7.0,0.0,0,0,,10.0,30.221457,,,TRUE,TRUE,,,,,,,CLR,,,,,,,,VFR,,,,,,,,,,,,METAR,845.0
KBJI 150055Z AUTO 27005KT 1 1/2SM BR BKN002 M09/M10 A3020 RMK AO2 T10891097,KBJI,2019-01-15T00:55:00Z,47.5,-94.92,-8.9,-9.7,270,5,,1.5,30.200787,,,TRUE,TRUE,,,,,,BR,BKN,200,,,,,,,LIFR,,,,,,,,,,,,METAR,420.0
KBFW 150055Z AUTO 00000KT 10SM CLR M06/M08 A3018 RMK AO2,KBFW,2019-01-15T00:55:00Z,47.25,-91.4,-6.0,-8.0,0,0,,10.0,30.180119,,,TRUE,TRUE,,,,,,,CLR,,,,,,,,VFR,,,,,,,,,,,,METAR,331.0
KBEC 150055Z AUTO 17003KT 5SM BR CLR M01/M02 A3029 RMK AO2 T10101018,KBEC,2019-01-15T00:55:00Z,37.7,-97.22,-1.0,-1.8,170,3,,5.0,30.28937,,,TRUE,TRUE,,,,,,BR,CLR,,,,,,,,MVFR,,,,,,,,,,,,METAR,429.0
KBEA 150055Z AUTO 05004KT 10SM OVC039 11/03 A3037 RMK AO2 T01080028,KBEA,2019-01-15T00:55:00Z,28.37,-97.78,10.8,2.8,50,4,,10.0,30.369095,,,TRUE,TRUE,,,,,,,OVC,3900,,,,,,,VFR,,,,,,,,,,,,METAR,82.0
KBAM 150055Z AUTO 06010KT 10SM BKN095 03/M04 A3003 RMK AO1,KBAM,2019-01-15T00:55:00Z,,,3.0,-4.0,60,10,,10.0,30.029528,,,TRUE,TRUE,,,,,,,BKN,9500,,,,,,,VFR,,,,,,,,,,,,METAR,
KAZE 150055Z AUTO 00000KT 10SM OVC022 09/06 A3022 RMK AO2 T00910060,KAZE,2019-01-15T00:55:00Z,31.88,-82.65,9.1,6.0,0,0,,10.0,30.221457,,,TRUE,TRUE,,,,,,,OVC,2200,,,,,,,MVFR,,,,,,,,,,,,METAR,78.0
KAXX 150055Z AUTO 24007KT 10SM M05/M08 A3025 RMK AO2 T10491079,KAXX,2019-01-15T00:55:00Z,36.42,-105.28,-4.9,-7.9,240,7,,10.0,30.250984,,,TRUE,TRUE,,,,,,,,,,,,,,,,,,,,,,,,,,,METAR,2548.0
KAXS 150055Z AUTO 13006KT 10SM CLR 05/01 A3033 RMK AO2 T00480014,KAXS,2019-01-15T00:55:00Z,34.7,-99.33,4.8,1.4,130,6,,10.0,30.33071,,,TRUE,TRUE,,,,,,,CLR,,,,,,,,VFR,,,,,,,,,,,,METAR,437.0
KAXH 150055Z AUTO 28003KT 10SM OVC070 10/04 A3038 RMK AO2 T01030035,KAXH,2019-01-15T00:55:00Z,29.52,-95.48,10.3,3.5,280,3,,10.0,30.380905,,,TRUE,TRUE,,,,,,,OVC,7000,,,,,,,VFR,,,,,,,,,,,,METAR,21.0
KAVQ 150055Z AUTO 00000KT 10SM SCT080 19/04 RMK AO2 T01870043,KAVQ,2019-01-15T00:55:00Z,32.4,-111.22,18.7,4.3,0,0,,10.0,,,,TRUE,TRUE,,,,,,,SCT,8000,,,,,,,VFR,,,,,,,,,,,,METAR,619.0
KAVC 150055Z AUTO 00000KT 10SM OVC085 00/M01 A3027 RMK AO2 T00021006,KAVC,2019-01-15T00:55:00Z,36.68,-78.03,0.2,-0.6,0,0,,10.0,30.268702,,,TRUE,TRUE,,,,,,,OVC,8500,,,,,,,VFR,,,,,,,,,,,,METAR,135.0
KASW 150055Z AUTO 26004KT 7SM OVC010 M05/M07 A3029 RMK AO2,KASW,2019-01-15T00:55:00Z,41.27,-85.83,-5.0,-7.0,260,4,,7.0,30.28937,,,TRUE,TRUE,,,,,,,OVC,1000,,,,,,,MVFR,,,,,,,,,,,,METAR,259.0
KARM 150055Z AUTO 33004KT 10SM OVC070 09/03 A3040 RMK AO2 T00880028,KARM,2019-01-15T00:55:00Z,29.25,-96.15,8.8,2.8,330,4,,10.0,30.398623,,,TRUE,TRUE,,,,,,,OVC,7000,,,,,,,VFR,,,,,,,,,,,,METAR,31.0
KAJR 150055Z AUTO 00000KT 7SM OVC033 05/02 A3018 RMK AO2 T00460016,KAJR,2019-01-15T00:55:00Z,34.5,-83.55,4.6,1.6,0,0,,7.0,30.180119,,,TRUE,TRUE,,,,,,,OVC,3300,,,,,,,VFR,,,,,,,,,,,,METAR,441.0
KAJG 150055Z AUTO 00000KT 10SM CLR M01/M03 A3035 RMK AO2 T10131031,KAJG,2019-01-15T00:55:00Z,38.62,-87.73,-1.3,-3.1,0,0,,10.0,30.351377,,,TRUE,TRUE,,,,,,,CLR,,,,,,,,VFR,,,,,,,,,,,,METAR,131.0
KAIT 150055Z AUTO 00000KT 10SM CLR M11/M12 A3020 RMK AO2,KAIT,2019-01-15T00:55:00Z,46.53,-93.67,-11.0,-12.0,0,0,,10.0,30.200787,,,TRUE,TRUE,,,,,,,CLR,,,,,,,,VFR,,,,,,,,,,,,METAR,367.0
KAAS 150055Z AUTO 00000KT 10SM SCT013 BKN027 00/M01 A3035 RMK AO1,KAAS,2019-01-15T00:55:00Z,37.35,-85.32,0.0,-1.0,0,0,,10.0,30.351377,,,TRUE,TRUE,,,,,,,SCT,1300,BKN,2700,,,,,MVFR,,,,,,,,,,,,METAR,281.0
K8W2 150055Z AUTO 00000KT 10SM OVC031 M01/M03 A3018 RMK AO1 T10131032,K8W2,2019-01-15T00:55:00Z,38.65,-78.7,-1.3,-3.2,0,0,,10.0,30.180119,,,TRUE,TRUE,,,,,,,OVC,3100,,,,,,,VFR,,,,,,,,,,,,METAR,297.0
KHHF 150055Z AUTO 17010KT 10SM CLR 08/02 A3021 RMK AO2 T00780015,KHHF,2019-01-15T00:55:00Z,35.9,-100.4,7.8,1.5,170,10,,10.0,30.209646,,,TRUE,TRUE,,,,,,,CLR,,,,,,,,VFR,,,,,,,,,,,,METAR,712.0
KHFJ 150055Z AUTO 25004KT 10SM OVC006 00/M01 A3034 RMK AO2,KHFJ,2019-01-15T00:55:00Z,36.9,-94.02,0.0,-1.0,250,4,,10.0,30.339567,,,TRUE,TRUE,,,,,,,OVC,600,,,,,,,IFR,,,,,,,,,,,,METAR,401.0
KHCR 150055Z AUTO 00000KT 10SM CLR M06/M12 A3019 RMK AO2,KHCR,2019-01-15T00:55:00Z,40.48,-111.43,-6.0,-12.0,0,0,,10.0,30.188976,,,TRUE,TRUE,,,,,,,CLR,,,,,,,,VFR,,,,,,,,,,,,METAR,1706.0
KHCD 150055Z AUTO 01003KT 10SM OVC016 M02/M05 A3024 RMK AO2 T10221047,KHCD,2019-01-15T00:55:00Z,44.87,-94.38,-2.2,-4.7,10,3,,10.0,30.239174,,,TRUE,TRUE,,,,,,,OVC,1600,,,,,,,MVFR,,,,,,,,,,,,METAR,323.0
KGYB 150055Z AUTO 00000KT 10SM OVC060 09/02 A3039 RMK AO2 T00850022,KGYB,2019-01-15T00:55:00Z,30.17,-96.98,8.5,2.2,0,0,,10.0,30.389763,,,TRUE,TRUE,,,,,,,OVC,6000,,,,,,,VFR,,,,,,,,,,,,METAR,148.0
KGWB 150055Z AUTO 22004KT 10SM CLR M04/M07 A3027 RMK AO2,KGWB,2019-01-15T00:55:00Z,41.3,-85.07,-4.0,-7.0,220,4,,10.0,30.268702,,,TRUE,TRUE,,,,,,,CLR,,,,,,,,VFR,,,,,,,,,,,,METAR,269.0
KBYY 150055Z AUTO 00000KT 10SM OVC060 10/05 A3038 RMK AO2 T01050051,KBYY,2019-01-15T00:55:00Z,28.97,-95.87,10.5,5.1,0,0,,10.0,30.380905,,,TRUE,TRUE,,,,,,,OVC,6000,,,,,,,VFR,,,,,,,,,,,,METAR,14.0
KK88 150055Z AUTO 20006KT 5SM OVC006 M01/M01 A3035 RMK AO1 T10101010,KK88,2019-01-15T00:55:00Z,37.87,-95.38,-1.0,-1.0,200,6,,5.0,30.351377,,,TRUE,TRUE,,,,,,,OVC,600,,,,,,,IFR,,,,,,,,,,,,METAR,309.0
KL18 150055Z AUTO 00000KT 4SM +DZ SCT006 SCT010 OVC016 10/10 A2998 RMK AO2 P0002,KL18,2019-01-15T00:55:00Z,33.35,-117.25,10.0,10.0,0,0,,4.0,29.97933,,,TRUE,TRUE,,,,,,+DZ,SCT,600,SCT,1000,OVC,1600,,,MVFR,,,,,,0.02,,,,,,METAR,216.0
KDYB 150055Z AUTO 00000KT 10SM OVC015 05/02 A3024 RMK AO1,KDYB,2019-01-15T00:55:00Z,33.07,-80.28,5.0,2.0,0,0,,10.0,30.239174,,,TRUE,TRUE,,,,,,,OVC,1500,,,,,,,MVFR,,,,,,,,,,,,METAR,18.0
KAIK 150055Z AUTO 00000KT 10SM OVC017 06/05 A3023 RMK AO2,KAIK,2019-01-15T00:55:00Z,33.65,-81.68,6.0,5.0,0,0,,10.0,30.230314,,,TRUE,TRUE,,,,,,,OVC,1700,,,,,,,MVFR,,,,,,,,,,,,METAR,161.0
K2V5 150055Z AUTO 24004KT 10SM CLR 01/M13 A3016 RMK AO2,K2V5,2019-01-15T00:55:00Z,40.1,-102.25,1.0,-13.0,240,4,,10.0,30.159449,,,TRUE,TRUE,,,,,,,CLR,,,,,,,,VFR,,,,,,,,,,,,METAR,1118.0
KLNA 150055Z AUTO 34006KT 10SM CLR 17/13 A3013 RMK AO2 T01680130,KLNA,2019-01-15T00:55:00Z,26.6,-80.02,16.8,13.0,340,6,,10.0,30.129921,,,TRUE,TRUE,,,,,,,CLR,,,,,,,,VFR,,,,,,,,,,,,METAR,11.0
KLNC 150055Z AUTO 00000KT 10SM CLR 05/01 A3040 RMK AO2 T00470013,KLNC,2019-01-15T00:55:00Z,32.58,-96.72,4.7,1.3,0,0,,10.0,30.398623,,,TRUE,TRUE,,,,,,,CLR,,,,,,,,VFR,,,,,,,,,,,,METAR,153.0
KLNP 150055Z AUTO 32004KT 2 1/2SM BR OVC003 M01/M01 A3019 RMK AO2,KLNP,2019-01-15T00:55:00Z,36.97,-82.52,-1.0,-1.0,320,4,,2.5,30.188976,,,TRUE,TRUE,,,,,,BR,OVC,300,,,,,,,LIFR,,,,,,,,,,,,METAR,817.0
KLUD 150055Z AUTO 00000KT 10SM CLR 04/00 A3035 RMK AO2 T00441001,KLUD,2019-01-15T00:55:00Z,33.25,-97.58,4.4,-0.1,0,0,,10.0,30.351377,,,TRUE,TRUE,,,,,,,CLR,,,,,,,,VFR,,,,,,,,,,,,METAR,319.0
KLXL 150055Z AUTO 00000KT 10SM CLR M07/M08 A3022 RMK AO2,KLXL,2019-01-15T00:55:00Z,45.95,-94.33,-7.0,-8.0,0,0,,10.0,30.221457,,,TRUE,TRUE,,,,,,,CLR,,,,,,,,VFR,,,,,,,,,,,,METAR,342.0
KLXY 150055Z AUTO 03004KT 10SM CLR 04/01 A3038 RMK AO2 T00410005,KLXY,2019-01-15T00:55:00Z,31.63,-96.52,4.1,0.5,30,4,,10.0,30.380905,,,TRUE,TRUE,,,,,,,CLR,,,,,,,,VFR,,,,,,,,,,,,METAR,166.0
KMJQ 150055Z AUTO 00000KT 10SM OVC007 M01/M03 A3022 RMK AO2,KMJQ,2019-01-15T00:55:00Z,43.63,-94.97,-1.0,-3.0,0,0,,10.0,30.221457,,,TRUE,TRUE,,,,,,,OVC,700,,,,,,,IFR,,,,,,,,,,,,METAR,441.0
KMKN 150055Z AUTO 00000KT 10SM OVC046 07/02 A3036 RMK AO2 T00660022,KMKN,2019-01-15T00:55:00Z,31.92,-98.6,6.6,2.2,0,0,,10.0,30.360237,,,TRUE,TRUE,,,,,,,OVC,4600,,,,,,,VFR,,,,,,,,,,,,METAR,423.0
KMMH 150055Z AUTO 12006KT 5SM -SN SCT012 BKN035 OVC050 M02/M03 A2992 RMK AO2 T10251035,KMMH,2019-01-15T00:55:00Z,37.62,-118.82,-2.5,-3.5,120,6,,5.0,29.920275,,,TRUE,TRUE,,,,,,-SN,SCT,1200,BKN,3500,OVC,5000,,,MVFR,,,,,,,,,,,,METAR,2173.0
KMNE 150055Z AUTO 00000KT 10SM OVC017 04/01 A3043 RMK AO2 T00430012,KMNE,2019-01-15T00:55:00Z,32.65,-93.3,4.3,1.2,0,0,,10.0,30.431103,,,TRUE,TRUE,,,,,,,OVC,1700,,,,,,,MVFR,,,,,,,,,,,,METAR,85.0
KMOP 150055Z AUTO 22004KT 10SM OVC018 M01/M05 A3019 RMK AO2 T10061046,KMOP,2019-01-15T00:55:00Z,43.62,-84.73,-0.6,-4.6,220,4,,10.0,30.188976,,,TRUE,TRUE,,,,,,,OVC,1800,,,,,,,MVFR,,,,,,,,,,,,METAR,230.0
KTMA 150055Z AUTO 32006KT 10SM OVC018 08/04 A3024 RMK AO2 T00760039,KTMA,2019-01-15T00:55:00Z,31.43,-83.48,7.6,3.9,320,6,,10.0,30.239174,,,TRUE,TRUE,,,,,,,OVC,1800,,,,,,,MVFR,,,,,,,,,,,,METAR,109.0
KTNB 150055Z AUTO 30009G16KT 10SM BKN012 OVC023 00/M02 A3012 RMK AO2 T00001020,KTNB,2019-01-15T00:55:00Z,36.2,-81.65,0.0,-2.0,300,9,16,10.0,30.121063,,,TRUE,TRUE,,,,,,,BKN,1200,OVC,2300,,,,,MVFR,,,,,,,,,,,,METAR,911.0
KTQH 150055Z AUTO 00000KT 10SM OVC010 00/M01 A3037 RMK AO2,KTQH,2019-01-15T00:55:00Z,35.93,-95.0,0.0,-1.0,0,0,,10.0,30.369095,,,TRUE,TRUE,,,,,,,OVC,1000,,,,,,,MVFR,,,,,,,,,,,,METAR,266.0
KTYQ 150055Z AUTO 00000KT 1/2SM FZFG VV005 M11/M12 A3031 RMK AO2 T11121118,KTYQ,2019-01-15T00:55:00Z,40.03,-86.25,-11.2,-11.8,0,0,,0.5,30.31004,,,TRUE,TRUE,,,,,,FZFG,OVX,0,,,,,,,LIFR,,,,,,,,,,,500,METAR,281.0
KU68 150055Z AUTO 00000KT 10SM CLR M01/M09 A3013 RMK AO2,KU68,2019-01-15T00:55:00Z,44.92,-108.45,-1.0,-9.0,0,0,,10.0,30.129921,,,TRUE,TRUE,,,,,,,CLR,,,,,,,,VFR,,,,,,,,,,,,METAR,1247.0
KULS 150055Z AUTO 20003KT 7SM CLR 00/00 A3021 RMK AO2,KULS,2019-01-15T00:55:00Z,37.6,-101.37,0.0,0.0,200,3,,7.0,30.209646,,,TRUE,TRUE,,,,,,,CLR,,,,,,,,VFR,,,,,,,,,,,,METAR,936.0
KUNI 150055Z AUTO 28003KT 10SM OVC017 M02/M04 A3029 RMK AO2 T10171037,KUNI,2019-01-15T00:55:00Z,39.22,-82.23,-1.7,-3.7,280,3,,10.0,30.28937,,,TRUE,TRUE,,,,,,,OVC,1700,,,,,,,MVFR,,,,,,,,,,,,METAR,193.0
KUVA 150055Z AUTO 14003KT 10SM OVC044 09/04 A3038 RMK AO2 T00850039,KUVA,2019-01-15T00:55:00Z,29.22,-99.75,8.5,3.9,140,3,,10.0,30.380905,,,TRUE,TRUE,,,,,,,OVC,4400,,,,,,,VFR,,,,,,,,,,,,METAR,287.0
KVBW 150055Z AUTO 00000KT 10SM SCT030 OVC070 M01/M03 A3017 RMK AO1 T10151032,KVBW,2019-01-15T00:55:00Z,38.37,-78.97,-1.5,-3.2,0,0,,10.0,30.171259,,,TRUE,TRUE,,,,,,,SCT,3000,OVC,7000,,,,,VFR,,,,,,,,,,,,METAR,355.0
KVJI 150055Z AUTO 33005KT 5SM -SN SCT008 OVC017 00/00 A3018 RMK AO2 T00001005,KVJI,2019-01-15T00:55:00Z,36.67,-82.02,0.0,-0.5,330,5,,5.0,30.180119,,,TRUE,TRUE,,,,,,-SN,SCT,800,OVC,1700,,,,,MVFR,,,,,,,,,,,,METAR,631.0
KW13 150055Z AUTO 00000KT 10SM OVC075 M01/M05 A3016 RMK AO1 T10151047,KW13,2019-01-15T00:55:00Z,38.08,-78.95,-1.5,-4.7,0,0,,10.0,30.159449,,,TRUE,TRUE,,,,,,,OVC,7500,,,,,,,VFR,,,,,,,,,,,,METAR,443.0
KW31 150055Z AUTO 00000KT 10SM BKN035 OVC085 00/00 A3020 RMK AO1 T10021002,KW31,2019-01-15T00:55:00Z,36.95,-78.18,-0.2,-0.2,0,0,,10.0,30.200787,,,TRUE,TRUE,,,,,,,BKN,3500,OVC,8500,,,,,VFR,,,,,,,,,,,,METAR,162.0
KW63 150055Z AUTO 00000KT 10SM OVC085 01/00 A3021 RMK AO1,KW63,2019-01-15T00:55:00Z,36.6,-78.55,1.0,0.0,0,0,,10.0,30.209646,,,TRUE,TRUE,,,,,,,OVC,8500,,,,,,,VFR,,,,,,,,,,,,METAR,129.0
KW75 150055Z AUTO 32004KT 10SM CLR 00/M03 A3021 RMK AO1 T10021030,KW75,2019-01-15T00:55:00Z,37.6,-76.45,-0.2,-3.0,320,4,,10.0,30.209646,,,TRUE,TRUE,,,,,,,CLR,,,,,,,,VFR,,,,,,,,,,,,METAR,9.0
KW96 150055Z AUTO 00000KT 10SM OVC080 M02/M02 A3021 RMK AO1 T10171017,KW96,2019-01-15T00:55:00Z,37.5,-77.12,-1.7,-1.7,0,0,,10.0,30.209646,,,TRUE,TRUE,,,,,,,OVC,8000,,,,,,,VFR,,,,,,,,,,,,METAR,37.0
KW99 150055Z AUTO 00000KT 5SM BR OVC029 M02/M03 A3019 RMK AO2 T10161032,KW99,2019-01-15T00:55:00Z,39.0,-79.15,-1.6,-3.2,0,0,,5.0,30.188976,,,TRUE,TRUE,,,,,,BR,OVC,2900,,,,,,,MVFR,,,,,,,,,,,,METAR,293.0
KY31 150055Z AUTO 13004KT 10SM OVC017 M02/M04 A3015 RMK AO2 T10221045,KY31,2019-01-15T00:55:00Z,44.25,-84.18,-2.2,-4.5,130,4,,10.0,30.15059,,,TRUE,TRUE,,,,,,,OVC,1700,,,,,,,MVFR,,,,,,,,,,,,METAR,269.0
KWWR 150055Z AUTO 18009KT 10SM CLR 05/00 A3026 RMK AO2,KWWR,2019-01-15T00:55:00Z,36.45,-99.52,5.0,0.0,180,9,,10.0,30.259842,,,TRUE,TRUE,,,,,,,CLR,,,,,,,,VFR,,,,,,,,,,,,METAR,667.0
KMRT 150055Z AUTO 23003KT 3/4SM VV005 M13/M14 A3028 RMK AO2 T11301142,KMRT,2019-01-15T00:55:00Z,40.22,-83.35,-13.0,-14.2,230,3,,0.75,30.280512,,,TRUE,TRUE,,,,,,,OVX,0,,,,,,,LIFR,,,,,,,,,,,500,METAR,312.0
KMQB 150055Z AUTO 26008KT 5SM BR OVC006 M03/M04 A3033 RMK AO2 T10301037,KMQB,2019-01-15T00:55:00Z,40.52,-90.65,-3.0,-3.7,260,8,,5.0,30.33071,,,TRUE,TRUE,,,,,,BR,OVC,600,,,,,,,IFR,,,,,,,,,,,,METAR,215.0
KPKV 150055Z AUTO 01004KT 10SM BKN050 OVC070 11/06 A3039 RMK AO2 T01070055,KPKV,2019-01-15T00:55:00Z,28.65,-96.68,10.7,5.5,10,4,,10.0,30.389763,,,TRUE,TRUE,,,,,,,BKN,5000,OVC,7000,,,,,VFR,,,,,,,,,,,,METAR,9.0
KPIM 150055Z AUTO 30005KT 10SM SCT017 OVC027 06/03 A3024 RMK AO2 T00600028 PWINO,KPIM,2019-01-15T00:55:00Z,32.83,-84.88,6.0,2.8,300,5,,10.0,30.239174,,,TRUE,TRUE,,,,,TRUE,,SCT,1700,OVC,2700,,,,,MVFR,,,,,,,,,,,,METAR,275.0
KOWX 150055Z AUTO 22005KT 7SM CLR M09/M10 A3029 RMK AO1,KOWX,2019-01-15T00:55:00Z,41.03,-83.98,-9.0,-10.0,220,5,,7.0,30.28937,,,TRUE,TRUE,,,,,,,CLR,,,,,,,,VFR,,,,,,,,,,,,METAR,233.0
KOSC 150055Z AUTO 21009KT 10SM OVC023 M02/M05 A3017 RMK AO2 T10251050,KOSC,2019-01-15T00:55:00Z,44.45,-83.4,-2.5,-5.0,210,9,,10.0,30.171259,,,TRUE,TRUE,,,,,,,OVC,2300,,,,,,,MVFR,,,,,,,,,,,,METAR,193.0
KONP 150055Z AUTO 08015G20KT 10SM CLR 09/00 A2987 RMK AO2,KONP,2019-01-15T00:55:00Z,44.57,-124.03,9.0,0.0,80,15,20,10.0,29.870079,,,TRUE,TRUE,,,,,,,CLR,,,,,,,,VFR,,,,,,,,,,,,METAR,48.0
KOMH 150055Z AUTO 00000KT 10SM OVC085 M01/M03 A3020 RMK AO2,KOMH,2019-01-15T00:55:00Z,38.25,-78.05,-1.0,-3.0,0,0,,10.0,30.200787,,,TRUE,TRUE,,,,,,,OVC,8500,,,,,,,VFR,,,,,,,,,,,,METAR,142.0
KOJA 150055Z AUTO 18003KT 10SM CLR 03/01 A3030 RMK AO2,KOJA,2019-01-15T00:55:00Z,35.55,-98.67,3.0,1.0,180,3,,10.0,30.301182,,,TRUE,TRUE,,,,,,,CLR,,,,,,,,VFR,,,,,,,,,,,,METAR,490.0
KOBE 150055Z AUTO 06004KT 10SM CLR 13/10 A3015 RMK AO2,KOBE,2019-01-15T00:55:00Z,27.27,-80.85,13.0,10.0,60,4,,10.0,30.15059,,,TRUE,TRUE,,,,,,,CLR,,,,,,,,VFR,,,,,,,,,,,,METAR,11.0
KMZH 150055Z AUTO 00000KT 10SM CLR M07/M08 A3019 RMK AO2,KMZH,2019-01-15T00:55:00Z,46.42,-92.8,-7.0,-8.0,0,0,,10.0,30.188976,,,TRUE,TRUE,,,,,,,CLR,,,,,,,,VFR,,,,,,,,,,,,METAR,328.0
KPMH 150055Z AUTO 27004KT 10SM OVC014 M02/M04 A3031 RMK AO2 T10171037,KPMH,2019-01-15T00:55:00Z,38.83,-82.85,-1.7,-3.7,270,4,,10.0,30.31004,,,TRUE,TRUE,,,,,,,OVC,1400,,,,,,,MVFR,,,,,,,,,,,,METAR,202.0
KPRS 150055Z AUTO 05008KT 10SM CLR 13/04 A3022 RMK AO2 T01260042,KPRS,2019-01-15T00:55:00Z,29.63,-104.35,12.6,4.2,50,8,,10.0,30.221457,,,TRUE,TRUE,,,,,,,CLR,,,,,,,,VFR,,,,,,,,,,,,METAR,896.0
KPTB 150055Z AUTO 00000KT 10SM OVC085 00/M02 A3022 RMK AO2 P0001 T00001021,KPTB,2019-01-15T00:55:00Z,37.17,-77.52,0.0,-2.1,0,0,,10.0,30.221457,,,TRUE,TRUE,,,,,,,OVC,8500,,,,,,,VFR,,,,,,0.01,,,,,,METAR,59.0
KPVJ 150055Z AUTO 15003KT 10SM CLR 04/00 A3034 RMK AO2 T00400000,KPVJ,2019-01-15T00:55:00Z,34.72,-97.22,4.0,0.0,150,3,,10.0,30.339567,,,TRUE,TRUE,,,,,,,CLR,,,,,,,,VFR,,,,,,,,,,,,METAR,295.0
KPUJ 150055Z AUTO 32010KT 10SM OVC012 03/02 A3024 RMK AO2,KPUJ,2019-01-15T00:55:00Z,33.92,-84.93,3.0,2.0,320,10,,10.0,30.239174,,,TRUE,TRUE,,,,,,,OVC,1200,,,,,,,MVFR,,,,,,,,,,,,METAR,393.0
KPWC 150055Z AUTO 00000KT 10SM CLR M10/M11 A3024 RMK AO2,KPWC,2019-01-15T00:55:00Z,46.72,-94.37,-10.0,-11.0,0,0,,10.0,30.239174,,,TRUE,TRUE,,,,,,,CLR,,,,,,,,VFR,,,,,,,,,,,,METAR,395.0
KRKR 150055Z AUTO 00000KT 10SM OVC019 02/M01 A3041 RMK AO2,KRKR,2019-01-15T00:55:00Z,35.02,-94.62,2.0,-1.0,0,0,,10.0,30.410433,,,TRUE,TRUE,,,,,,,OVC,1900,,,,,,,MVFR,,,,,,,,,,,,METAR,138.0
KRQB 150055Z AUTO 27009KT 10SM OVC015 M01/M03 A3017 RMK AO2 T10061033,KRQB,2019-01-15T00:55:00Z,43.72,-85.5,-0.6,-3.3,270,9,,10.0,30.171259,,,TRUE,TRUE,,,,,,,OVC,1500,,,,,,,MVFR,,,,,,,,,,,,METAR,302.0
KRSN 150055Z AUTO 00000KT 10SM OVC017 04/00 A3044 RMK AO2 T00410003,KRSN,2019-01-15T00:55:00Z,32.52,-92.58,4.1,0.3,0,0,,10.0,30.43996,,,TRUE,TRUE,,,,,,,OVC,1700,,,,,,,MVFR,,,,,,,,,,,,METAR,95.0
KQVF 150055Z AUTO 00000KT 7SM SCT120 OVC160 26/ A2981 RMK AO2 SLP095 WND DATA ESTMD T0258,KQVF,2019-01-15T00:55:00Z,,,25.8,,0,0,,7.0,29.811024,1009.5,,TRUE,TRUE,,,,,,,SCT,12000,OVC,16000,,,,,VFR,,,,,,,,,,,,METAR,
KSYF 150055Z AUTO 25004KT 10SM CLR 04/M12 A3016 RMK AO2 T00401123,KSYF,2019-01-15T00:55:00Z,39.77,-101.8,4.0,-12.3,250,4,,10.0,30.159449,,,TRUE,TRUE,,,,,,,CLR,,,,,,,,VFR,,,,,,,,,,,,METAR,1025.0
KSLR 150055Z AUTO 08003KT 10SM OVC014 03/00 A3043 RMK AO2 T00250000,KSLR,2019-01-15T00:55:00Z,33.17,-95.62,2.5,0.0,80,3,,10.0,30.431103,,,TRUE,TRUE,,,,,,,OVC,1400,,,,,,,MVFR,,,,,,,,,,,,METAR,149.0
KSLO 150055Z AUTO 24004KT 5SM BR OVC024 00/M02 A3035 RMK AO2 T10051020,KSLO,2019-01-15T00:55:00Z,38.65,-88.97,-0.5,-2.0,240,4,,5.0,30.351377,,,TRUE,TRUE,,,,,,BR,OVC,2400,,,,,,,MVFR,,,,,,,,,,,,METAR,175.0
KSEP 150055Z AUTO 00000KT 10SM OVC048 06/01 A3038 RMK AO2 T00600012,KSEP,2019-01-15T00:55:00Z,32.22,-98.17,6.0,1.2,0,0,,10.0,30.380905,,,TRUE,TRUE,,,,,,,OVC,4800,,,,,,,VFR,,,,,,,,,,,,METAR,402.0
KSCD 150055Z AUTO 01005KT 10SM OVC018 05/02 A3030 RMK AO2 T00490022,KSCD,2019-01-15T00:55:00Z,33.17,-86.3,4.9,2.2,10,5,,10.0,30.301182,,,TRUE,TRUE,,,,,,,OVC,1800,,,,,,,MVFR,,,,,,,,,,,,METAR,173.0
KSAR 150055Z AUTO 00000KT 10SM OVC017 00/M01 A3037 RMK AO2 T10021008,KSAR,2019-01-15T00:55:00Z,38.15,-89.7,-0.2,-0.8,0,0,,10.0,30.369095,,,TRUE,TRUE,,,,,,,OVC,1700,,,,,,,MVFR,,,,,,,,,,,,METAR,164.0
KRYW 150055Z AUTO 00000KT 10SM OVC050 07/03 A3037 RMK AO2 T00700034,KRYW,2019-01-15T00:55:00Z,30.5,-97.97,7.0,3.4,0,0,,10.0,30.369095,,,TRUE,TRUE,,,,,,,OVC,5000,,,,,,,VFR,,,,,,,,,,,,METAR,376.0
KRSV 150055Z AUTO 31004KT 10SM CLR M04/M06 A3036 RMK AO2 T10401060,KRSV,2019-01-15T00:55:00Z,39.02,-87.65,-4.0,-6.0,310,4,,10.0,30.360237,,,TRUE,TRUE,,,,,,,CLR,,,,,,,,VFR,,,,,,,,,,,,METAR,141.0
EHWO 150055Z AUTO 23006KT 9999 SCT028 OVC032 04/04 Q1021 BLU,EHWO,2019-01-15T00:55:00Z,51.45,4.32,4.0,4.0,230,6,,6.21,30.147638,,,TRUE,,,,,,,,SCT,2800,OVC,3200,,,,,VFR,,,,,,,,,,,,METAR,17.0
EHVL 150055Z AUTO 26020KT 9999 FEW017 BKN020 OVC024 06/03 Q1017 WHT,EHVL,2019-01-15T00:55:00Z,53.23,4.92,6.0,3.0,260,20,,6.21,30.029528,,,TRUE,,,,,,,,FEW,1700,BKN,2000,OVC,2400,,,MVFR,,,,,,,,,,,,METAR,5.0
EHVK 150055Z AUTO 24005KT 9999 OVC140 M00/M00 Q1020 BLU,EHVK,2019-01-15T00:55:00Z,51.63,5.7,0.0,0.0,240,5,,6.21,30.11811,,,TRUE,,,,,,,,OVC,14000,,,,,,,VFR,,,,,,,,,,,,METAR,21.0
EHLW 150055Z AUTO 25009KT 9999 OVC100 04/01 Q1017 BLU,EHLW,2019-01-15T00:55:00Z,53.22,5.75,4.0,1.0,250,9,,6.21,30.029528,,,TRUE,,,,,,,,OVC,10000,,,,,,,VFR,,,,,,,,,,,,METAR,2.0
EHKD 150055Z AUTO 26012KT 9999 SCT021 BKN025 OVC028 06/03 Q1018 WHT,EHKD,2019-01-15T00:55:00Z,52.92,4.77,6.0,3.0,260,12,,6.21,30.059055,,,TRUE,,,,,,,,SCT,2100,BKN,2500,OVC,2800,,,MVFR,,,,,,,,,,,,METAR,14.0
EHGR 150055Z AUTO 23004KT 9999 FEW024 BKN032 BKN037 03/02 Q1021 BLU,EHGR,2019-01-15T00:55:00Z,51.57,4.92,3.0,2.0,230,4,,6.21,30.147638,,,TRUE,,,,,,,,FEW,2400,BKN,3200,BKN,3700,,,VFR,,,,,,,,,,,,METAR,13.0
EHEH 150055Z AUTO 23006KT 9999 SCT023 BKN027 02/01 Q1021 WHT,EHEH,2019-01-15T00:55:00Z,51.45,5.38,2.0,1.0,230,6,,6.21,30.147638,,,TRUE,,,,,,,,SCT,2300,BKN,2700,,,,,MVFR,,,,,,,,,,,,METAR,22.0
EHDL 150055Z AUTO 23007KT 180V270 9999 OVC130 M00/M00 Q1019 BLU,EHDL,2019-01-15T00:55:00Z,52.07,5.87,0.0,0.0,230,7,,6.21,30.088583,,,TRUE,,,,,,,,OVC,13000,,,,,,,VFR,,,,,,,,,,,,METAR,52.0
KOQN 150055Z AUTO 26004KT 10SM CLR M03/M09 A3015 RMK AO2,KOQN,2019-01-15T00:55:00Z,39.98,-75.58,-3.0,-9.0,260,4,,10.0,30.15059,,,TRUE,TRUE,,,,,,,CLR,,,,,,,,VFR,,,,,,,,,,,,METAR,142.0
KRID 150055Z AUTO 7SM CLR M10/M10 A3028 RMK AO2,KRID,2019-01-15T00:55:00Z,39.75,-84.85,-10.0,-10.0,,,,7.0,30.280512,,,TRUE,TRUE,,,,,,,CLR,,,,,,,,VFR,,,,,,,,,,,,METAR,348.0
KMAO 150055Z AUTO 00000KT 10SM CLR 00/00 A3023 RMK AO2,KMAO,2019-01-15T00:55:00Z,34.18,-79.33,0.0,0.0,0,0,,10.0,30.230314,,,TRUE,TRUE,,,,,,,CLR,,,,,,,,VFR,,,,,,,,,,,,SPECI,28.0
KQZF 150055Z AUTO 01003KT 5SM HZ CLR 15/M07 A3006 RMK AO2 SLP171 WND DATA ESTMD T01481074 $,KQZF,2019-01-15T00:55:00Z,,,14.8,-7.4,10,3,,5.0,30.059055,1017.1,,TRUE,TRUE,TRUE,,,,,HZ,CLR,,,,,,,,MVFR,,,,,,,,,,,,METAR,
KEGV 150055Z AUTO 34006KT 10SM BKN009 BKN014 OVC019 M02/M03 A3013 RMK AO2 T10221031,KEGV,2019-01-15T00:55:00Z,45.93,-89.27,-2.2,-3.1,340,6,,10.0,30.129921,,,TRUE,TRUE,,,,,,,BKN,900,BKN,1400,OVC,1900,,,IFR,,,,,,,,,,,,METAR,500.0
KANQ 150055Z AUTO 26005KT 10SM OVC018 M03/M06 A3024 RMK AO2,KANQ,2019-01-15T00:55:00Z,41.63,-85.08,-3.0,-6.0,260,5,,10.0,30.239174,,,TRUE,TRUE,,,,,,,OVC,1800,,,,,,,MVFR,,,,,,,,,,,,METAR,303.0
KY51 150055Z AUTO 19004KT 2SM OVC003 M04/M04 A3020 RMK AO1 T10371037,KY51,2019-01-15T00:55:00Z,43.58,-90.9,-3.7,-3.7,190,4,,2.0,30.200787,,,TRUE,TRUE,,,,,,,OVC,300,,,,,,,LIFR,,,,,,,,,,,,METAR,394.0
KPEA 150055Z AUTO 25007KT 10SM OVC006 M02/M04 A3029 RMK AO2 T10251037,KPEA,2019-01-15T00:55:00Z,41.4,-92.95,-2.5,-3.7,250,7,,10.0,30.28937,,,TRUE,TRUE,,,,,,,OVC,600,,,,,,,IFR,,,,,,,,,,,,METAR,270.0
KIDI 150055Z AUTO 27003KT 10SM FEW027 M05/M08 A3021 RMK A01,KIDI,2019-01-15T00:55:00Z,40.62,-79.08,-5.0,-8.0,270,3,,10.0,30.209646,,,TRUE,TRUE,,,,,,,FEW,2700,,,,,,,VFR,,,,,,,,,,,,METAR,429.0
CYKL 150054Z AUTO 28015G23KT 5SM -SN FEW026 OVC075 M16/M20 A2957 RMK SLP066,CYKL,2019-01-15T00:54:00Z,54.78,-66.82,-16.0,-20.0,280,15,23,5.0,29.568897,1006.6,,TRUE,,,,,,,-SN,FEW,2600,OVC,7500,,,,,MVFR,,,,,,,,,,,,SPECI,521.0
CYTE 150054Z AUTO 36012G20KT 5SM HZ CLR M20/M23 A2946 RMK SLP985,CYTE,2019-01-15T00:54:00Z,64.22,-76.52,-20.0,-23.0,360,12,20,5.0,29.459646,998.5,,TRUE,,,,,,,HZ,CLR,,,,,,,,MVFR,,,,,,,,,,,,SPECI,47.0
PKMR 150054Z 09008KT 15SM SCT015 BKN050 BKN120 OVC300 28/25 A2976 RMK SLP080 T02820246,PKMR,2019-01-15T00:54:00Z,7.08,171.38,28.2,24.6,90,8,,15.0,29.760826,1008.0,,,,,,,,,,SCT,1500,BKN,5000,BKN,12000,OVC,30000,VFR,,,,,,,,,,,,SPECI,4.0
KNAK 150054Z AUTO 00000KT 10SM CLR M02/M07 A3020 RMK AO2 SLP228 T10171067,KNAK,2019-01-15T00:54:00Z,38.98,-76.48,-1.7,-6.7,0,0,,10.0,30.200787,1022.8,,TRUE,TRUE,,,,,,,CLR,,,,,,,,VFR,,,,,,,,,,,,METAR,2.0
KNKT 150054Z 35006KT 10SM FEW018 OVC075 04/01 A3022 RMK AO2 SLP229 T00440011 PNO $ ,KNKT,2019-01-15T00:54:00Z,34.9,-76.88,4.4,1.1,350,6,,10.0,30.221457,1022.9,,,TRUE,TRUE,,,,,,FEW,1800,OVC,7500,,,,,VFR,,,,,,,,,,,,METAR,9.0
K12N 150054Z AUTO 00000KT M07/M11 A3013 RMK AO1 SLP221 T10671106 ,K12N,2019-01-15T00:54:00Z,41.02,-74.73,-6.7,-10.6,0,0,,,30.129921,1022.1,,TRUE,TRUE,,,,,,,,,,,,,,,,,,,,,,,,,,,METAR,177.0
PGUM 150054Z 06011KT 5SM -RA BR BKN030 OVC038 27/26 A2989 RMK AO2 PK WND 04026/0006 RAE00B34 SLP112 P0001 T02670261 ,PGUM,2019-01-15T00:54:00Z,13.48,144.8,26.7,26.1,60,11,,5.0,29.890747,1011.2,,,TRUE,,,,,,-RA BR,BKN,3000,OVC,3800,,,,,MVFR,,,,,,0.01,,,,,,METAR,91.0
KBKB 150054Z AUTO 00000KT 10SM OVC017 05/02 A3037 RMK AO2 SLP316 T00500017 $ ,KBKB,2019-01-15T00:54:00Z,31.0,-92.92,5.0,1.7,0,0,,10.0,30.369095,1031.6,,TRUE,TRUE,TRUE,,,,,,OVC,1700,,,,,,,MVFR,,,,,,,,,,,,METAR,94.0
KBTV 150054Z 09003KT 10SM BKN200 M11/M14 A3016 RMK AO2 SLP223 T11111139,KBTV,2019-01-15T00:54:00Z,44.47,-73.15,-11.1,-13.9,90,3,,10.0,30.159449,1022.3,,,TRUE,,,,,,,BKN,20000,,,,,,,VFR,,,,,,,,,,,,METAR,105.0
KBUF 150054Z 24007KT 10SM SCT016 BKN200 BKN280 M04/M08 A3020 RMK AO2 SLP239 T10441078,KBUF,2019-01-15T00:54:00Z,42.93,-78.73,-4.4,-7.8,240,7,,10.0,30.200787,1023.9,,,TRUE,,,,,,,SCT,1600,BKN,20000,BKN,28000,,,VFR,,,,,,,,,,,,METAR,211.0
KBUY 150054Z AUTO 00000KT 10SM OVC039 04/01 A3020 RMK AO2 SLP230 T00390006,KBUY,2019-01-15T00:54:00Z,36.05,-79.47,3.9,0.6,0,0,,10.0,30.200787,1023.0,,TRUE,TRUE,,,,,,,OVC,3900,,,,,,,VFR,,,,,,,,,,,,METAR,180.0
KBWI 150054Z 25003KT 10SM CLR M04/M08 A3019 RMK AO2 SLP223 T10441083,KBWI,2019-01-15T00:54:00Z,39.17,-76.68,-4.4,-8.3,250,3,,10.0,30.188976,1022.3,,,TRUE,,,,,,,CLR,,,,,,,,VFR,,,,,,,,,,,,METAR,59.0
KCEU 150054Z AUTO 00000KT 10SM OVC018 06/04 A3019 RMK AO2 SLP227 T00610044,KCEU,2019-01-15T00:54:00Z,34.67,-82.88,6.1,4.4,0,0,,10.0,30.188976,1022.7,,TRUE,TRUE,,,,,,,OVC,1800,,,,,,,MVFR,,,,,,,,,,,,METAR,268.0
KCAR 150054Z AUTO 00000KT 10SM CLR M14/M19 A3002 RMK AO2 SLP186 T11441189,KCAR,2019-01-15T00:54:00Z,46.87,-68.02,-14.4,-18.9,0,0,,10.0,30.02067,1018.6,,TRUE,TRUE,,,,,,,CLR,,,,,,,,VFR,,,,,,,,,,,,METAR,191.0
KCOS 150054Z 00000KT 10SM FEW240 02/M12 A3019 RMK AO2 SLP260 T00221117,KCOS,2019-01-15T00:54:00Z,38.82,-104.68,2.2,-11.7,0,0,,10.0,30.188976,1026.0,,,TRUE,,,,,,,FEW,24000,,,,,,,VFR,,,,,,,,,,,,METAR,1856.0
KROC 150054Z 28003KT 10SM FEW140 BKN200 M08/M10 A3020 RMK AO2 SLP242 T10781100,KROC,2019-01-15T00:54:00Z,43.12,-77.68,-7.8,-10.0,280,3,,10.0,30.200787,1024.2,,,TRUE,,,,,,,FEW,14000,BKN,20000,,,,,VFR,,,,,,,,,,,,METAR,178.0
KRST 150054Z 32009KT 10SM OVC008 M02/M03 A3021 RMK AO2 CIG 007V011 SLP249 T10221033,KRST,2019-01-15T00:54:00Z,43.9,-92.5,-2.2,-3.3,320,9,,10.0,30.209646,1024.9,,,TRUE,,,,,,,OVC,800,,,,,,,IFR,,,,,,,,,,,,METAR,403.0
KSBN 150054Z 24008KT 7SM OVC009 M04/M07 A3029 RMK AO2 SLP271 T10441067,KSBN,2019-01-15T00:54:00Z,41.7,-86.32,-4.4,-6.7,240,8,,7.0,30.28937,1027.1,,,TRUE,,,,,,,OVC,900,,,,,,,IFR,,,,,,,,,,,,METAR,237.0
KSET 150054Z AUTO 25006KT 10SM OVC016 01/M02 A3034 RMK AO2 SLP278 T00061022,KSET,2019-01-15T00:54:00Z,38.93,-90.43,0.6,-2.2,250,6,,10.0,30.339567,1027.8,,TRUE,TRUE,,,,,,,OVC,1600,,,,,,,MVFR,,,,,,,,,,,,METAR,134.0
KSBY 150054Z 33003KT 10SM CLR M04/M07 A3019 RMK AO2 SLP225 T10391072,KSBY,2019-01-15T00:54:00Z,38.33,-75.5,-3.9,-7.2,330,3,,10.0,30.188976,1022.5,,,TRUE,,,,,,,CLR,,,,,,,,VFR,,,,,,,,,,,,METAR,19.0
KSJN 150054Z AUTO 29005KT 10SM FEW055 05/03 A3017 RMK AO2 SLP205 T00500028,KSJN,2019-01-15T00:54:00Z,34.52,-109.38,5.0,2.8,290,5,,10.0,30.171259,1020.5,,TRUE,TRUE,,,,,,,FEW,5500,,,,,,,VFR,,,,,,,,,,,,METAR,1745.0
KSLC 150054Z 35006KT 10SM FEW120 FEW180 SCT230 M04/M07 A3026 RMK AO2 SLP276 T10391072,KSLC,2019-01-15T00:54:00Z,40.77,-111.97,-3.9,-7.2,350,6,,10.0,30.259842,1027.6,,,TRUE,,,,,,,FEW,12000,FEW,18000,SCT,23000,,,VFR,,,,,,,,,,,,METAR,1286.0
KSUS 150054Z 26004KT 5SM HZ OVC016 01/M02 A3034 RMK AO2 SLP283 T00061022,KSUS,2019-01-15T00:54:00Z,38.65,-90.65,0.6,-2.2,260,4,,5.0,30.339567,1028.3,,,TRUE,,,,,,HZ,OVC,1600,,,,,,,MVFR,,,,,,,,,,,,METAR,141.0
KTAD 150054Z AUTO 00000KT 10SM CLR 03/M02 A3019 RMK AO2 SLP240 T00281022,KTAD,2019-01-15T00:54:00Z,37.27,-104.33,2.8,-2.2,0,0,,10.0,30.188976,1024.0,,TRUE,TRUE,,,,,,,CLR,,,,,,,,VFR,,,,,,,,,,,,METAR,1756.0
KSYR 150054Z 00000KT 9SM BKN200 M11/M12 A3021 RMK AO2 SLP235 T11061117,KSYR,2019-01-15T00:54:00Z,43.12,-76.1,-10.6,-11.7,0,0,,9.0,30.209646,1023.5,,,TRUE,,,,,,,BKN,20000,,,,,,,VFR,,,,,,,,,,,,METAR,127.0
KLYH 150054Z 00000KT 4SM BR FEW003 BKN050 OVC075 00/M01 A3018 RMK AO2 SNB21E31 SLP228 P0000 T00001006,KLYH,2019-01-15T00:54:00Z,37.32,-79.2,0.0,-0.6,0,0,,4.0,30.180119,1022.8,,,TRUE,,,,,,BR,FEW,300,BKN,5000,OVC,7500,,,MVFR,,,,,,0.005,,,,,,METAR,295.0
KMFI 150054Z AUTO 26006KT 2SM BR OVC003 M03/M04 A3017 RMK AO2 SLP237 I1001 T10331039,KMFI,2019-01-15T00:54:00Z,44.63,-90.18,-3.3,-3.9,260,6,,2.0,30.171259,1023.7,,TRUE,TRUE,,,,,,BR,OVC,300,,,,,,,LIFR,,,,,,,,,,,,METAR,389.0
KMGJ 150054Z AUTO 00000KT 10SM CLR M07/M10 A3013 RMK AO2 SLP210 T10721100,KMGJ,2019-01-15T00:54:00Z,41.52,-74.27,-7.2,-10.0,0,0,,10.0,30.129921,1021.0,,TRUE,TRUE,,,,,,,CLR,,,,,,,,VFR,,,,,,,,,,,,METAR,108.0
KMIV 150054Z AUTO 25004KT 10SM CLR A3017 RMK AO2 SLPNO TSNO $,KMIV,2019-01-15T00:54:00Z,39.37,-75.08,,,250,4,,10.0,30.171259,,,TRUE,TRUE,TRUE,,TRUE,,,,CLR,,,,,,,,VFR,,,,,,,,,,,,METAR,23.0
KMKC 150054Z 23008KT 9SM OVC005 M01/M03 A3033 RMK AO2 SLP279 T10111033,KMKC,2019-01-15T00:54:00Z,39.12,-94.6,-1.1,-3.3,230,8,,9.0,30.33071,1027.9,,,TRUE,,,,,,,OVC,500,,,,,,,IFR,,,,,,,,,,,,METAR,227.0
KMOT 150054Z 17008KT 10SM CLR M06/M09 A3010 RMK AO2 SLP227 T10561089,KMOT,2019-01-15T00:54:00Z,48.25,-101.27,-5.6,-8.9,170,8,,10.0,30.100393,1022.7,,,TRUE,,,,,,,CLR,,,,,,,,VFR,,,,,,,,,,,,METAR,519.0
KMVL 150054Z AUTO 00000KT 10SM CLR M16/M17 A3014 RMK AO2 SLP229 T11561172,KMVL,2019-01-15T00:54:00Z,44.53,-72.62,-15.6,-17.2,0,0,,10.0,30.138779,1022.9,,TRUE,TRUE,,,,,,,CLR,,,,,,,,VFR,,,,,,,,,,,,METAR,234.0
KMRY 150054Z 12003KT 9SM -RA BKN050 OVC055 12/08 A2986 RMK AO2 RAB08 SLP123 P0003 T01220083,KMRY,2019-01-15T00:54:00Z,36.58,-121.85,12.2,8.3,120,3,,9.0,29.861221,1012.3,,,TRUE,,,,,,-RA,BKN,5000,OVC,5500,,,,,VFR,,,,,,0.03,,,,,,METAR,66.0
KOFP 150054Z AUTO 00000KT 9SM OVC085 00/M02 A3023 RMK AO2 SLP236 T00001022,KOFP,2019-01-15T00:54:00Z,37.7,-77.43,0.0,-2.2,0,0,,9.0,30.230314,1023.6,,TRUE,TRUE,,,,,,,OVC,8500,,,,,,,VFR,,,,,,,,,,,,METAR,62.0
KOLM 150054Z 00000KT M1/4SM FG VV001 02/02 A2997 RMK AO2 SLP150 T00220022,KOLM,2019-01-15T00:54:00Z,46.97,-122.9,2.2,2.2,0,0,,0.25,29.970472,1015.0,,,TRUE,,,,,,FG,OVX,0,,,,,,,LIFR,,,,,,,,,,,100,METAR,58.0
KOLS 150054Z AUTO 12004KT 10SM CLR 14/M03 A3012 RMK AO2 SLP173 T01391033,KOLS,2019-01-15T00:54:00Z,31.42,-110.85,13.9,-3.3,120,4,,10.0,30.121063,1017.3,,TRUE,TRUE,,,,,,,CLR,,,,,,,,VFR,,,,,,,,,,,,METAR,1184.0
K20V 150054Z AUTO 00000KT 10SM CLR M15/M18 A3032 RMK AO2,K20V,2019-01-15T00:54:00Z,40.05,-106.37,-15.0,-18.0,0,0,,10.0,30.318897,,,TRUE,TRUE,,,,,,,CLR,,,,,,,,VFR,,,,,,,,,,,,METAR,2259.0
KAAO 150054Z AUTO 17004KT 5SM BR CLR M01/M01 A3030 RMK AO2 SLP276 T10061006,KAAO,2019-01-15T00:54:00Z,37.75,-97.22,-0.6,-0.6,170,4,,5.0,30.301182,1027.6,,TRUE,TRUE,,,,,,BR,CLR,,,,,,,,MVFR,,,,,,,,,,,,METAR,434.0
KACY 150054Z 26004KT 10SM CLR M04/M07 A3016 RMK AO2 SLP215 T10391072,KACY,2019-01-15T00:54:00Z,39.45,-74.57,-3.9,-7.2,260,4,,10.0,30.159449,1021.5,,,TRUE,,,,,,,CLR,,,,,,,,VFR,,,,,,,,,,,,METAR,23.0
PAHN 150054Z AUTO 29007KT 10SM SCT017 OVC023 00/M01 A3010 RMK AO2 SLP196 T00001006 TSNO,PAHN,2019-01-15T00:54:00Z,59.25,-135.52,0.0,-0.6,290,7,,10.0,30.100393,1019.6,,TRUE,TRUE,,,TRUE,,,,SCT,1700,OVC,2300,,,,,MVFR,,,,,,,,,,,,METAR,5.0
PAKN 150054Z 11021G34KT 10SM CLR A2945 RMK AO2 PK WND 11034/0043 SLPNO $,PAKN,2019-01-15T00:54:00Z,58.68,-156.65,,,110,21,34,10.0,29.450787,,,,TRUE,TRUE,,,,,,CLR,,,,,,,,VFR,,,,,,,,,,,,METAR,17.0
KFLG 150054Z 05006KT 1/2SM FZFG VV003 M01/M01 A3018 RMK AO2 I1000,KFLG,2019-01-15T00:54:00Z,35.13,-111.67,-1.0,-1.0,50,6,,0.5,30.180119,,,,TRUE,,,,,,FZFG,OVX,0,,,,,,,LIFR,,,,,,,,,,,300,SPECI,2134.0
KFWA 150054Z 22008KT 9SM FEW023 M08/M11 A3028 RMK AO2 SLP271 T10781106,KFWA,2019-01-15T00:54:00Z,40.98,-85.18,-7.8,-10.6,220,8,,9.0,30.280512,1027.1,,,TRUE,,,,,,,FEW,2300,,,,,,,VFR,,,,,,,,,,,,METAR,248.0
KFZY 150054Z AUTO 00000KT 8SM CLR M11/M14 A3021 RMK AO2 SLP239 I1001 T11111139,KFZY,2019-01-15T00:54:00Z,43.35,-76.38,-11.1,-13.9,0,0,,8.0,30.209646,1023.9,,TRUE,TRUE,,,,,,,CLR,,,,,,,,VFR,,,,,,,,,,,,METAR,138.0
KGCN 150054Z 09007KT 10SM BKN090 00/M02 A3017 RMK AO2 SLP221 T00001022,KGCN,2019-01-15T00:54:00Z,35.95,-112.15,0.0,-2.2,90,7,,10.0,30.171259,1022.1,,,TRUE,,,,,,,BKN,9000,,,,,,,VFR,,,,,,,,,,,,METAR,2016.0
KGCK 150054Z 20005KT 2 1/2SM BR OVC003 00/M01 A3021 RMK AO2 SLP253 T00001006,KGCK,2019-01-15T00:54:00Z,37.92,-100.72,0.0,-0.6,200,5,,2.5,30.209646,1025.3,,,TRUE,,,,,,BR,OVC,300,,,,,,,LIFR,,,,,,,,,,,,METAR,877.0
KGED 150054Z AUTO 00000KT 10SM CLR M02/M08 A3019 RMK AO2 SLP222 T10221083,KGED,2019-01-15T00:54:00Z,38.68,-75.37,-2.2,-8.3,0,0,,10.0,30.188976,1022.2,,TRUE,TRUE,,,,,,,CLR,,,,,,,,VFR,,,,,,,,,,,,METAR,19.0
KGSO 150054Z 09003KT 8SM SCT021 BKN028 OVC043 03/02 A3018 RMK AO2 SLP227 T00280017,KGSO,2019-01-15T00:54:00Z,36.1,-79.95,2.8,1.7,90,3,,8.0,30.180119,1022.7,,,TRUE,,,,,,,SCT,2100,BKN,2800,OVC,4300,,,MVFR,,,,,,,,,,,,METAR,275.0
KHWD 150054Z 14011KT 10SM BKN060 14/08 A2984 RMK AO2 RAB12E35 SLP115 P0000 T01390078,KHWD,2019-01-15T00:54:00Z,37.67,-122.12,13.9,7.8,140,11,,10.0,29.840551,1011.5,,,TRUE,,,,,,,BKN,6000,,,,,,,VFR,,,,,,0.005,,,,,,METAR,21.0
KORH 150054Z 33005KT 10SM CLR M04/M16 A3004 RMK AO2 SLP191 T10441156,KORH,2019-01-15T00:54:00Z,42.27,-71.87,-4.4,-15.6,330,5,,10.0,30.041338,1019.1,,,TRUE,,,,,,,CLR,,,,,,,,VFR,,,,,,,,,,,,METAR,304.0
KPHF 150054Z 33004KT 10SM BKN065 M01/M04 A3021 RMK AO2 SLP229 T10061039,KPHF,2019-01-15T00:54:00Z,37.13,-76.5,-0.6,-3.9,330,4,,10.0,30.209646,1022.9,,,TRUE,,,,,,,BKN,6500,,,,,,,VFR,,,,,,,,,,,,SPECI,12.0
KPHL 150054Z 29008KT 10SM CLR M01/M11 A3018 RMK AO2 SLP218 T10111106,KPHL,2019-01-15T00:54:00Z,39.87,-75.23,-1.1,-10.6,290,8,,10.0,30.180119,1021.8,,,TRUE,,,,,,,CLR,,,,,,,,VFR,,,,,,,,,,,,SPECI,18.0
KPIA 150054Z 26005KT 7SM OVC009 M02/M04 A3031 RMK AO2 SLP276 T10221044,KPIA,2019-01-15T00:54:00Z,40.67,-89.68,-2.2,-4.4,260,5,,7.0,30.31004,1027.6,,,TRUE,,,,,,,OVC,900,,,,,,,IFR,,,,,,,,,,,,METAR,205.0
KPLN 150054Z AUTO 28005KT 9SM OVC016 M01/M03 A3014 RMK AO2 CIG 011V022 SLP217 T10061028,KPLN,2019-01-15T00:54:00Z,45.57,-84.8,-0.6,-2.8,280,5,,9.0,30.138779,1021.7,,TRUE,TRUE,,,,,,,OVC,1600,,,,,,,MVFR,,,,,,,,,,,,SPECI,217.0
KPNE 150054Z 00000KT 10SM CLR M02/M11 A3017 RMK AO2 SLP219 T10171111,KPNE,2019-01-15T00:54:00Z,40.08,-75.02,-1.7,-11.1,0,0,,10.0,30.171259,1021.9,,,TRUE,,,,,,,CLR,,,,,,,,VFR,,,,,,,,,,,,SPECI,28.0
KRDG 150054Z 00000KT 10SM CLR M03/M08 A3016 RMK AO2 SLP222 T10331083,KRDG,2019-01-15T00:54:00Z,40.37,-75.97,-3.3,-8.3,0,0,,10.0,30.159449,1022.2,,,TRUE,,,,,,,CLR,,,,,,,,VFR,,,,,,,,,,,,SPECI,109.0
KRFD 150054Z 24006KT 3SM BR OVC007 M04/M06 A3029 RMK AO2 SLP268 T10391061,KRFD,2019-01-15T00:54:00Z,42.2,-89.1,-3.9,-6.1,240,6,,3.0,30.28937,1026.8,,,TRUE,,,,,,BR,OVC,700,,,,,,,IFR,,,,,,,,,,,,METAR,221.0
KRIC 150054Z 29004KT 10SM BKN085 M01/M03 A3021 RMK AO2 SLP237 T10061028,KRIC,2019-01-15T00:54:00Z,37.52,-77.32,-0.6,-2.8,290,4,,10.0,30.209646,1023.7,,,TRUE,,,,,,,BKN,8500,,,,,,,VFR,,,,,,,,,,,,METAR,50.0
KDDH 150054Z AUTO 19003KT 10SM CLR M08/M13 A3012 RMK AO2 SLP216 T10831128,KDDH,2019-01-15T00:54:00Z,42.9,-73.25,-8.3,-12.8,190,3,,10.0,30.121063,1021.6,,TRUE,TRUE,,,,,,,CLR,,,,,,,,VFR,,,,,,,,,,,,METAR,244.0
KDEC 150054Z 21004KT 9SM OVC009 M04/M07 A3033 RMK AO2 SLP284 T10391067,KDEC,2019-01-15T00:54:00Z,39.83,-88.85,-3.9,-6.7,210,4,,9.0,30.33071,1028.4,,,TRUE,,,,,,,OVC,900,,,,,,,IFR,,,,,,,,,,,,METAR,207.0
KDSM 150054Z 26007KT 5SM -FZDZ BR OVC004 M02/M03 A3027 RMK AO2 SNE02 SLP262 P0000 I1000 T10221028,KDSM,2019-01-15T00:54:00Z,41.53,-93.67,-2.2,-2.8,260,7,,5.0,30.268702,1026.2,,,TRUE,,,,,,-FZDZ BR,OVC,400,,,,,,,LIFR,,,,,,0.005,,,,,,METAR,295.0
KDSV 150054Z AUTO 00000KT 10SM CLR M05/M11 A3019 RMK AO2 SLP245 T10501106,KDSV,2019-01-15T00:54:00Z,42.57,-77.72,-5.0,-10.6,0,0,,10.0,30.188976,1024.5,,TRUE,TRUE,,,,,,,CLR,,,,,,,,VFR,,,,,,,,,,,,METAR,198.0
KDYL 150054Z AUTO 00000KT 10SM CLR M04/M12 A3013 RMK AO2 SLP215 T10391117,KDYL,2019-01-15T00:54:00Z,40.33,-75.12,-3.9,-11.7,0,0,,10.0,30.129921,1021.5,,TRUE,TRUE,,,,,,,CLR,,,,,,,,VFR,,,,,,,,,,,,METAR,117.0
KECG 150054Z 36006KT 10SM CLR 01/M03 A3020 RMK AO2 SLP226 T00111028,KECG,2019-01-15T00:54:00Z,36.27,-76.18,1.1,-2.8,360,6,,10.0,30.200787,1022.6,,,TRUE,,,,,,,CLR,,,,,,,,VFR,,,,,,,,,,,,METAR,11.0
KEUG 150054Z 00000KT 10SM FEW100 04/01 A2990 RMK AO2 SLP127 T00440006,KEUG,2019-01-15T00:54:00Z,44.13,-123.22,4.4,0.6,0,0,,10.0,29.899607,1012.7,,,TRUE,,,,,,,FEW,10000,,,,,,,VFR,,,,,,,,,,,,METAR,114.0
KEVV 150054Z 29003KT 10SM CLR M01/M03 A3035 RMK AO2 SLP282 T10111033,KEVV,2019-01-15T00:54:00Z,38.05,-87.52,-1.1,-3.3,290,3,,10.0,30.351377,1028.2,,,TRUE,,,,,,,CLR,,,,,,,,VFR,,,,,,,,,,,,METAR,117.0
KEWN 150054Z 33003KT 10SM OVC080 03/M01 A3022 RMK AO2 SLP231 T00281006,KEWN,2019-01-15T00:54:00Z,35.07,-77.05,2.8,-0.6,330,3,,10.0,30.221457,1023.1,,,TRUE,,,,,,,OVC,8000,,,,,,,VFR,,,,,,,,,,,,METAR,3.0
KFFZ 150054Z 08004KT 10SM BKN100 18/07 A3005 RMK AO2 SLP162 T01830067,KFFZ,2019-01-15T00:54:00Z,33.47,-111.72,18.3,6.7,80,4,,10.0,30.050198,1016.2,,,TRUE,,,,,,,BKN,10000,,,,,,,VFR,,,,,,,,,,,,METAR,424.0
KFIG 150054Z AUTO 22004KT 10SM CLR M03/M09 A3014 RMK AO2 SLP235 T10281094,KFIG,2019-01-15T00:54:00Z,41.05,-78.42,-2.8,-9.4,220,4,,10.0,30.138779,1023.5,,TRUE,TRUE,,,,,,,CLR,,,,,,,,VFR,,,,,,,,,,,,METAR,462.0
KILN 150054Z AUTO 22004KT 5SM BR CLR M08/M09 A3028 RMK AO2 SLP289 T10781089,KILN,2019-01-15T00:54:00Z,39.43,-83.8,-7.8,-8.9,220,4,,5.0,30.280512,1028.9,,TRUE,TRUE,,,,,,BR,CLR,,,,,,,,MVFR,,,,,,,,,,,,METAR,322.0
KIND 150054Z 32004KT 10SM CLR M05/M08 A3031 RMK AO2 SLP275 T10501078,KIND,2019-01-15T00:54:00Z,39.72,-86.3,-5.0,-7.8,320,4,,10.0,30.31004,1027.5,,,TRUE,,,,,,,CLR,,,,,,,,VFR,,,,,,,,,,,,METAR,241.0
KIMT 150054Z AUTO 30003KT 10SM SCT022 OVC028 M02/M03 A3013 RMK AO2 SLP221 T10171033,KIMT,2019-01-15T00:54:00Z,45.82,-88.12,-1.7,-3.3,300,3,,10.0,30.129921,1022.1,,TRUE,TRUE,,,,,,,SCT,2200,OVC,2800,,,,,MVFR,,,,,,,,,,,,METAR,349.0
KINT 150054Z 00000KT 9SM BKN032 OVC055 03/02 A3020 RMK AO2 SLP230 T00280017,KINT,2019-01-15T00:54:00Z,36.13,-80.22,2.8,1.7,0,0,,9.0,30.200787,1023.0,,,TRUE,,,,,,,BKN,3200,OVC,5500,,,,,VFR,,,,,,,,,,,,METAR,291.0
KIPT 150054Z 00000KT 10SM CLR M04/M10 A3017 RMK AO2 SLP224 T10441100,KIPT,2019-01-15T00:54:00Z,41.25,-76.92,-4.4,-10.0,0,0,,10.0,30.171259,1022.4,,,TRUE,,,,,,,CLR,,,,,,,,VFR,,,,,,,,,,,,METAR,164.0
KISW 150054Z AUTO 26006KT 6SM BR OVC007 M03/M06 A3021 RMK AO2 SLP246 T10331056 TSNO,KISW,2019-01-15T00:54:00Z,44.37,-89.83,-3.3,-5.6,260,6,,6.0,30.209646,1024.6,,TRUE,TRUE,,,TRUE,,,BR,OVC,700,,,,,,,IFR,,,,,,,,,,,,METAR,307.0
KJAN 150054Z 33005KT 10SM OVC019 05/01 A3036 RMK AO2 SLP282 T00500006 $,KJAN,2019-01-15T00:54:00Z,32.32,-90.08,5.0,0.6,330,5,,10.0,30.360237,1028.2,,,TRUE,TRUE,,,,,,OVC,1900,,,,,,,MVFR,,,,,,,,,,,,METAR,91.0
KJST 150054Z AUTO 27007KT 10SM CLR M04/M07 A3011 RMK AO2 SLP229 T10391067,KJST,2019-01-15T00:54:00Z,40.32,-78.83,-3.9,-6.7,270,7,,10.0,30.109253,1022.9,,TRUE,TRUE,,,,,,,CLR,,,,,,,,VFR,,,,,,,,,,,,METAR,694.0
KLAF 150054Z 00000KT 6SM BR CLR M10/M11 A3032 RMK AO2 SLP279 I1000 T11001111,KLAF,2019-01-15T00:54:00Z,40.42,-86.93,-10.0,-11.1,0,0,,6.0,30.318897,1027.9,,,TRUE,,,,,,BR,CLR,,,,,,,,VFR,,,,,,,,,,,,METAR,182.0
KLBT 150054Z AUTO 00000KT 10SM CLR 02/00 A3021 RMK AO2 SLP231 T00170000,KLBT,2019-01-15T00:54:00Z,34.6,-79.07,1.7,0.0,0,0,,10.0,30.209646,1023.1,,TRUE,TRUE,,,,,,,CLR,,,,,,,,VFR,,,,,,,,,,,,METAR,37.0
KLEX 150054Z 34004KT 10SM OVC008 M01/M04 A3030 RMK AO2 SLP269 T10111039,KLEX,2019-01-15T00:54:00Z,38.03,-84.6,-1.1,-3.9,340,4,,10.0,30.301182,1026.9,,,TRUE,,,,,,,OVC,800,,,,,,,IFR,,,,,,,,,,,,METAR,300.0
KLNK 150054Z 22006KT 6SM BR OVC003 01/00 A3025 RMK AO2 SLP256 T00060000,KLNK,2019-01-15T00:54:00Z,40.85,-96.77,0.6,0.0,220,6,,6.0,30.250984,1025.6,,,TRUE,,,,,,BR,OVC,300,,,,,,,LIFR,,,,,,,,,,,,METAR,364.0
KLWT 150054Z AUTO 17006KT 10SM CLR M02/M13 A3002 RMK AO2 SLP205 T10171128,KLWT,2019-01-15T00:54:00Z,47.03,-109.47,-1.7,-12.8,170,6,,10.0,30.02067,1020.5,,TRUE,TRUE,,,,,,,CLR,,,,,,,,VFR,,,,,,,,,,,,METAR,1270.0
KLWM 150054Z 00000KT 10SM CLR M05/M11 A3011 RMK AO2 SLP199 T10501111,KLWM,2019-01-15T00:54:00Z,42.72,-71.13,-5.0,-11.1,0,0,,10.0,30.109253,1019.9,,,TRUE,,,,,,,CLR,,,,,,,,VFR,,,,,,,,,,,,METAR,54.0
KAKH 150054Z AUTO 00000KT 10SM BKN035 OVC045 07/02 A3018 RMK AO2 SLP225 T00670022,KAKH,2019-01-15T00:54:00Z,35.2,-81.15,6.7,2.2,0,0,,10.0,30.180119,1022.5,,TRUE,TRUE,,,,,,,BKN,3500,OVC,4500,,,,,VFR,,,,,,,,,,,,METAR,243.0
KAKQ 150054Z AUTO VRB03KT 10SM CLR M01/M03 A3021 RMK AO2 SLP234 T10061033,KAKQ,2019-01-15T00:54:00Z,36.98,-77.0,-0.6,-3.3,0,3,,10.0,30.209646,1023.4,,TRUE,TRUE,,,,,,,CLR,,,,,,,,VFR,,,,,,,,,,,,METAR,34.0
KAKR 150054Z AUTO 27008KT 10SM OVC012 M02/M06 A3023 RMK AO2 SLP254 T10221061 $,KAKR,2019-01-15T00:54:00Z,41.03,-81.47,-2.2,-6.1,270,8,,10.0,30.230314,1025.4,,TRUE,TRUE,TRUE,,,,,,OVC,1200,,,,,,,MVFR,,,,,,,,,,,,METAR,363.0
KALO 150054Z 20003KT 2 1/2SM BR OVC005 M02/M02 A3025 RMK AO2 CIG 004V008 SLP257 I1001 T10171022,KALO,2019-01-15T00:54:00Z,42.55,-92.4,-1.7,-2.2,200,3,,2.5,30.250984,1025.7,,,TRUE,,,,,,BR,OVC,500,,,,,,,IFR,,,,,,,,,,,,METAR,264.0
KAPC 150054Z 08014G22KT 10SM BKN050 OVC060 11/06 A2984 RMK AO2 PK WND 09026/0012 SLP097 T01110056,KAPC,2019-01-15T00:54:00Z,38.2,-122.28,11.1,5.6,80,14,22,10.0,29.840551,1009.7,,,TRUE,,,,,,,BKN,5000,OVC,6000,,,,,VFR,,,,,,,,,,,,METAR,13.0
KAPN 150054Z AUTO 22004KT 10SM OVC015 M01/M04 A3014 RMK AO2 SLP219 T10111039,KAPN,2019-01-15T00:54:00Z,45.07,-83.57,-1.1,-3.9,220,4,,10.0,30.138779,1021.9,,TRUE,TRUE,,,,,,,OVC,1500,,,,,,,MVFR,,,,,,,,,,,,METAR,210.0
KAUW 150054Z AUTO 29004KT 2 1/2SM BR OVC005 M03/M04 A3015 RMK AO2 SLP233 I1000 T10281039,KAUW,2019-01-15T00:54:00Z,44.93,-89.62,-2.8,-3.9,290,4,,2.5,30.15059,1023.3,,TRUE,TRUE,,,,,,BR,OVC,500,,,,,,,IFR,,,,,,,,,,,,METAR,362.0
KAVL 150054Z 36006KT 10SM OVC027 03/M01 A3017 RMK AO2 SLP222 T00281011,KAVL,2019-01-15T00:54:00Z,35.43,-82.53,2.8,-1.1,360,6,,10.0,30.171259,1022.2,,,TRUE,,,,,,,OVC,2700,,,,,,,MVFR,,,,,,,,,,,,METAR,670.0
KAVP 150054Z 00000KT 10SM CLR M05/M12 A3014 RMK AO2 SLP221 T10501117,KAVP,2019-01-15T00:54:00Z,41.33,-75.72,-5.0,-11.7,0,0,,10.0,30.138779,1022.1,,,TRUE,,,,,,,CLR,,,,,,,,VFR,,,,,,,,,,,,METAR,291.0
KBFL 150054Z 12019KT 10SM CLR 13/02 A2990 RMK AO2 PK WND 13028/0002 SLP120 T01330022,KBFL,2019-01-15T00:54:00Z,35.43,-119.05,13.3,2.2,120,19,,10.0,29.899607,1012.0,,,TRUE,,,,,,,CLR,,,,,,,,VFR,,,,,,,,,,,,METAR,151.0
KBOS 150054Z 36003KT 10SM FEW250 M02/M10 A3010 RMK AO2 SLP192 T10171100,KBOS,2019-01-15T00:54:00Z,42.37,-71.02,-1.7,-10.0,360,3,,10.0,30.100393,1019.2,,,TRUE,,,,,,,FEW,25000,,,,,,,VFR,,,,,,,,,,,,METAR,6.0
KTQE 150054Z AUTO 16006KT 10SM OVC008 00/M01 A3024 RMK AO2 SLP247 T00001006,KTQE,2019-01-15T00:54:00Z,41.77,-96.18,0.0,-0.6,160,6,,10.0,30.239174,1024.7,,TRUE,TRUE,,,,,,,OVC,800,,,,,,,IFR,,,,,,,,,,,,METAR,312.0
KUIN 150054Z AUTO 26007KT 5SM BR OVC005 M02/M04 A3032 RMK AO2 SLP275 T10221039,KUIN,2019-01-15T00:54:00Z,39.95,-91.2,-2.2,-3.9,260,7,,5.0,30.318897,1027.5,,TRUE,TRUE,,,,,,BR,OVC,500,,,,,,,IFR,,,,,,,,,,,,METAR,234.0
KVAY 150054Z AUTO 00000KT 10SM CLR M06/M10 A3016 RMK AO2 SLP215 T10561100,KVAY,2019-01-15T00:54:00Z,39.93,-74.83,-5.6,-10.0,0,0,,10.0,30.159449,1021.5,,TRUE,TRUE,,,,,,,CLR,,,,,,,,VFR,,,,,,,,,,,,METAR,15.0
KUZA 150054Z AUTO 00000KT 10SM FEW050 OVC060 06/04 A3019 RMK AO2 SLP229 T00610039,KUZA,2019-01-15T00:54:00Z,34.98,-81.05,6.1,3.9,0,0,,10.0,30.188976,1022.9,,TRUE,TRUE,,,,,,,FEW,5000,OVC,6000,,,,,VFR,,,,,,,,,,,,METAR,202.0
KVSF 150054Z AUTO 00000KT 10SM CLR M09/M11 A3012 RMK AO2 SLP215 T10891111,KVSF,2019-01-15T00:54:00Z,43.35,-72.52,-8.9,-11.1,0,0,,10.0,30.121063,1021.5,,TRUE,TRUE,,,,,,,CLR,,,,,,,,VFR,,,,,,,,,,,,METAR,175.0
KVTA 150054Z AUTO 29006KT 6SM BR OVC009 M02/M04 A3027 RMK AO2 SLP263 T10221044,KVTA,2019-01-15T00:54:00Z,40.02,-82.47,-2.2,-4.4,290,6,,6.0,30.268702,1026.3,,TRUE,TRUE,,,,,,BR,OVC,900,,,,,,,IFR,,,,,,,,,,,,METAR,268.0
KWAL 150054Z AUTO 32005KT 10SM CLR M02/M05 A3020 RMK AO2 SLP224 T10171050,KWAL,2019-01-15T00:54:00Z,37.93,-75.47,-1.7,-5.0,320,5,,10.0,30.200787,1022.4,,TRUE,TRUE,,,,,,,CLR,,,,,,,,VFR,,,,,,,,,,,,METAR,14.0
PHMK 150054Z VRB06KT 10SM BKN048 26/14 A3001 RMK AO2 SLP164 T02610144,PHMK,2019-01-15T00:54:00Z,21.15,-157.1,26.1,14.4,0,6,,10.0,30.008858,1016.4,,,TRUE,,,,,,,BKN,4800,,,,,,,VFR,,,,,,,,,,,,METAR,141.0
PHOG 150054Z 03010KT 10SM FEW040 SCT060 27/18 A2999 RMK AO2 SLP159 T02720183,PHOG,2019-01-15T00:54:00Z,20.9,-156.43,27.2,18.3,30,10,,10.0,29.991142,1015.9,,,TRUE,,,,,,,FEW,4000,SCT,6000,,,,,VFR,,,,,,,,,,,,METAR,12.0
PGSN 150054Z 05018G26KT 10SM CLR 29/20 A2989 RMK AO2 PK WND 05026/0047 SLP144 T02890200 PNO $,PGSN,2019-01-15T00:54:00Z,15.12,145.72,28.9,20.0,50,18,26,10.0,29.890747,1014.4,,,TRUE,TRUE,,,,,,CLR,,,,,,,,VFR,,,,,,,,,,,,METAR,65.0
KRBL 150054Z AUTO 16011KT 10SM OVC090 12/04 A2988 RMK AO2 SLP119 T01220044,KRBL,2019-01-15T00:54:00Z,40.15,-122.25,12.2,4.4,160,11,,10.0,29.878937,1011.9,,TRUE,TRUE,,,,,,,OVC,9000,,,,,,,VFR,,,,,,,,,,,,SPECI,104.0
KPTW 150054Z AUTO 32003KT 10SM CLR M06/M11 A3017 RMK AO2 SLP217 T10561106 TSNO $,KPTW,2019-01-15T00:54:00Z,40.23,-75.55,-5.6,-10.6,320,3,,10.0,30.171259,1021.7,,TRUE,TRUE,TRUE,,TRUE,,,,CLR,,,,,,,,VFR,,,,,,,,,,,,SPECI,92.0
KPSF 150054Z AUTO 28007KT 10SM CLR M07/M13 A3007 RMK AO2 SLP212 T10671128,KPSF,2019-01-15T00:54:00Z,42.43,-73.28,-6.7,-12.8,280,7,,10.0,30.070866,1021.2,,TRUE,TRUE,,,,,,,CLR,,,,,,,,VFR,,,,,,,,,,,,SPECI,355.0
KRKS 150054Z AUTO 00000KT 9SM CLR M17/M20 A3026 RMK AO2 SLP378 T11721200,KRKS,2019-01-15T00:54:00Z,41.6,-109.07,-17.2,-20.0,0,0,,9.0,30.259842,1037.8,,TRUE,TRUE,,,,,,,CLR,,,,,,,,VFR,,,,,,,,,,,,METAR,2060.0
KROA 150054Z 00000KT 10SM OVC075 02/00 A3019 RMK AO2 SLP232 T00170000,KROA,2019-01-15T00:54:00Z,37.32,-79.97,1.7,0.0,0,0,,10.0,30.188976,1023.2,,,TRUE,,,,,,,OVC,7500,,,,,,,VFR,,,,,,,,,,,,METAR,362.0
KCRW 150054Z 28003KT 8SM BKN012 OVC019 M01/M03 A3027 RMK AO2 SLP258 CIG 010V014 T10111028,KCRW,2019-01-15T00:54:00Z,38.38,-81.58,-1.1,-2.8,280,3,,8.0,30.268702,1025.8,,,TRUE,,,,,,,BKN,1200,OVC,1900,,,,,MVFR,,,,,,,,,,,,METAR,309.0
KCOU 150054Z 24009KT 6SM BR OVC004 M02/M02 A3033 RMK AO2 SLP281 T10171022,KCOU,2019-01-15T00:54:00Z,38.82,-92.22,-1.7,-2.2,240,9,,6.0,30.33071,1028.1,,,TRUE,,,,,,BR,OVC,400,,,,,,,LIFR,,,,,,,,,,,,METAR,271.0
KMEM 150054Z 35004KT 10SM FEW018 OVC035 03/00 A3037 RMK AO2 SLP287 T00330000,KMEM,2019-01-15T00:54:00Z,35.07,-89.98,3.3,0.0,350,4,,10.0,30.369095,1028.7,,,TRUE,,,,,,,FEW,1800,OVC,3500,,,,,VFR,,,,,,,,,,,,METAR,86.0
KORB 150054Z AUTO 00000KT 10SM CLR M09/M12 A3017 RMK AO2,KORB,2019-01-15T00:54:00Z,48.02,-92.87,-9.0,-12.0,0,0,,10.0,30.171259,,,TRUE,TRUE,,,,,,,CLR,,,,,,,,VFR,,,,,,,,,,,,METAR,397.0
KIZG 150054Z AUTO 00000KT 10SM CLR M13/M14 A3007 RMK AO2 SLP198 T11281144,KIZG,2019-01-15T00:54:00Z,43.98,-70.95,-12.8,-14.4,0,0,,10.0,30.070866,1019.8,,TRUE,TRUE,,,,,,,CLR,,,,,,,,VFR,,,,,,,,,,,,METAR,135.0
KWLD 150054Z AUTO 13004KT 8SM CLR 01/00 A3032 RMK AO2 SLP278 T00060000,KWLD,2019-01-15T00:54:00Z,37.17,-97.03,0.6,0.0,130,4,,8.0,30.318897,1027.8,,TRUE,TRUE,,,,,,,CLR,,,,,,,,VFR,,,,,,,,,,,,METAR,350.0
KRAL 150053Z 11009KT 8SM -RA OVC027 10/08 A2998 RMK AO2 RAE26B48 SLP143 P0000 T01000083,KRAL,2019-01-15T00:53:00Z,33.95,-117.45,10.0,8.3,110,9,,8.0,29.97933,1014.3,,,TRUE,,,,,,-RA,OVC,2700,,,,,,,MVFR,,,,,,0.005,,,,,,SPECI,252.0
CYMM 150053Z AUTO 34017G22KT 7SM -SN OVC015 M16/M19 A3013 RMK PRESRR SLP241,CYMM,2019-01-15T00:53:00Z,56.65,-111.22,-16.0,-19.0,340,17,22,7.0,30.129921,1024.1,,TRUE,,,,,,,-SN,OVC,1500,,,,,,,MVFR,,,,,,,,,,,,SPECI,369.0
KCRS 150053Z AUTO 11003KT 10SM CLR 05/01 A3040 RMK AO2 SLP297 T00500011,KCRS,2019-01-15T00:53:00Z,32.03,-96.4,5.0,1.1,110,3,,10.0,30.398623,1029.7,,TRUE,TRUE,,,,,,,CLR,,,,,,,,VFR,,,,,,,,,,,,METAR,133.0
KCRQ 150053Z 10004KT 3SM BR SCT012 SCT017 OVC025 13/12 A2996 RMK AO2 RAE36 SLP145 P0001 T01330117,KCRQ,2019-01-15T00:53:00Z,33.13,-117.28,13.3,11.7,100,4,,3.0,29.958662,1014.5,,,TRUE,,,,,,BR,SCT,1200,SCT,1700,OVC,2500,,,MVFR,,,,,,0.01,,,,,,METAR,99.0
KCSV 150053Z AUTO 32004KT 9SM OVC005 M01/M02 A3024 RMK AO2 SNB2356E03B41E52 CIG 002V008 SLP254 P0000 T10061022,KCSV,2019-01-15T00:53:00Z,35.95,-85.08,-0.6,-2.2,320,4,,9.0,30.239174,1025.4,,TRUE,TRUE,,,,,,,OVC,500,,,,,,,IFR,,,,,,0.005,,,,,,METAR,570.0
KCSM 150053Z 17011KT 10SM CLR 03/01 A3028 RMK AO2 SLP264 T00330006,KCSM,2019-01-15T00:53:00Z,35.35,-99.2,3.3,0.6,170,11,,10.0,30.280512,1026.4,,,TRUE,,,,,,,CLR,,,,,,,,VFR,,,,,,,,,,,,METAR,588.0
KCUT 150053Z AUTO 25004KT 10SM CLR 00/M14 A3009 RMK AO2 SLP222 T00001144 $,KCUT,2019-01-15T00:53:00Z,43.73,-103.62,0.0,-14.4,250,4,,10.0,30.088583,1022.2,,TRUE,TRUE,TRUE,,,,,,CLR,,,,,,,,VFR,,,,,,,,,,,,METAR,1725.0
KCUB 150053Z AUTO 00000KT 10SM OVC039 06/02 A3023 RMK AO2 SLP237 T00610022,KCUB,2019-01-15T00:53:00Z,33.97,-81.0,6.1,2.2,0,0,,10.0,30.230314,1023.7,,TRUE,TRUE,,,,,,,OVC,3900,,,,,,,VFR,,,,,,,,,,,,METAR,56.0
KCXO 150053Z 00000KT 10SM CLR 06/04 A3039 RMK AO2 SLP290 T00610044,KCXO,2019-01-15T00:53:00Z,30.35,-95.42,6.1,4.4,0,0,,10.0,30.389763,1029.0,,,TRUE,,,,,,,CLR,,,,,,,,VFR,,,,,,,,,,,,METAR,75.0
KCYS 150053Z 29007KT 10SM CLR M02/M13 A3015 RMK AO2 SLP252 T10171128,KCYS,2019-01-15T00:53:00Z,41.15,-104.8,-1.7,-12.8,290,7,,10.0,30.15059,1025.2,,,TRUE,,,,,,,CLR,,,,,,,,VFR,,,,,,,,,,,,METAR,1868.0
KDAB 150053Z 01008KT 10SM FEW020 SCT031 12/10 A3019 RMK AO2 SLP222 T01220100,KDAB,2019-01-15T00:53:00Z,29.18,-81.07,12.2,10.0,10,8,,10.0,30.188976,1022.2,,,TRUE,,,,,,,FEW,2000,SCT,3100,,,,,VFR,,,,,,,,,,,,METAR,9.0
KDAL 150053Z 00000KT 9SM FEW250 06/00 A3039 RMK AO2 SLP290 T00610000,KDAL,2019-01-15T00:53:00Z,32.85,-96.85,6.1,0.0,0,0,,9.0,30.389763,1029.0,,,TRUE,,,,,,,FEW,25000,,,,,,,VFR,,,,,,,,,,,,METAR,158.0
KDAN 150053Z AUTO 00000KT 10SM OVC012 01/00 A3021 RMK AO2 SLP230 T00110000,KDAN,2019-01-15T00:53:00Z,36.57,-79.33,1.1,0.0,0,0,,10.0,30.209646,1023.0,,TRUE,TRUE,,,,,,,OVC,1200,,,,,,,MVFR,,,,,,,,,,,,METAR,175.0
KDBQ 150053Z 26005KT 3SM BR OVC004 M05/M06 A3026 RMK AO2 SLP266 I1001 T10501056,KDBQ,2019-01-15T00:53:00Z,42.4,-90.7,-5.0,-5.6,260,5,,3.0,30.259842,1026.6,,,TRUE,,,,,,BR,OVC,400,,,,,,,LIFR,,,,,,,,,,,,METAR,326.0
KDEN 150053Z 21008KT 10SM FEW250 00/M13 A3016 RMK AO2 SLP238 T00001128,KDEN,2019-01-15T00:53:00Z,39.85,-104.65,0.0,-12.8,210,8,,10.0,30.159449,1023.8,,,TRUE,,,,,,,FEW,25000,,,,,,,VFR,,,,,,,,,,,,METAR,1640.0
KUNV 150053Z 00000KT 10SM SKC M02/M11 A3014,KUNV,2019-01-15T00:53:00Z,40.85,-77.83,-2.0,-11.0,0,0,,10.0,30.138779,,,,,,,,,,,SKC,,,,,,,,VFR,,,,,,,,,,,,METAR,378.0
KEWB 150053Z 00000KT 10SM CLR M08/M08 A3009 RMK AO2 SLP191 T10781083,KEWB,2019-01-15T00:53:00Z,41.68,-70.95,-7.8,-8.3,0,0,,10.0,30.088583,1019.1,,,TRUE,,,,,,,CLR,,,,,,,,VFR,,,,,,,,,,,,METAR,23.0
KEVW 150053Z AUTO 09012KT 10SM CLR M13/M20 A3019 RMK AO2 SLP317 T11281200,KEVW,2019-01-15T00:53:00Z,41.27,-111.03,-12.8,-20.0,90,12,,10.0,30.188976,1031.7,,TRUE,TRUE,,,,,,,CLR,,,,,,,,VFR,,,,,,,,,,,,METAR,2177.0
KESF 150053Z AUTO 02005KT 10SM OVC019 05/02 A3040 RMK AO2 SLP293 T00500017,KESF,2019-01-15T00:53:00Z,31.4,-92.28,5.0,1.7,20,5,,10.0,30.398623,1029.3,,TRUE,TRUE,,,,,,,OVC,1900,,,,,,,MVFR,,,,,,,,,,,,METAR,28.0
KEQY 150053Z AUTO 00000KT 10SM OVC031 05/02 A3019 RMK AO2 SLP242 T00500017,KEQY,2019-01-15T00:53:00Z,35.02,-80.62,5.0,1.7,0,0,,10.0,30.188976,1024.2,,TRUE,TRUE,,,,,,,OVC,3100,,,,,,,VFR,,,,,,,,,,,,METAR,212.0
KEPH 150053Z AUTO 02005KT 10SM OVC010 M01/M03 A3023 RMK AO2 SLP253 T10111033,KEPH,2019-01-15T00:53:00Z,47.3,-119.52,-1.1,-3.3,20,5,,10.0,30.230314,1025.3,,TRUE,TRUE,,,,,,,OVC,1000,,,,,,,MVFR,,,,,,,,,,,,SPECI,383.0
KENW 150053Z 26010KT 4SM BR OVC009 M03/M05 A3025 RMK AO2 SLP254 T10331050,KENW,2019-01-15T00:53:00Z,42.6,-87.93,-3.3,-5.0,260,10,,4.0,30.250984,1025.4,,,TRUE,,,,,,BR,OVC,900,,,,,,,IFR,,,,,,,,,,,,METAR,219.0
KEMP 150053Z AUTO 22007KT 3SM BR OVC004 M01/M01 A3031 RMK AO2 SLP280 T10061006,KEMP,2019-01-15T00:53:00Z,38.33,-96.2,-0.6,-0.6,220,7,,3.0,30.31004,1028.0,,TRUE,TRUE,,,,,,BR,OVC,400,,,,,,,LIFR,,,,,,,,,,,,METAR,367.0
KELN 150053Z AUTO 23003KT 10SM OVC006 M02/M04 A3020 RMK AO2 SLP245 T10171039,KELN,2019-01-15T00:53:00Z,47.03,-120.53,-1.7,-3.9,230,3,,10.0,30.200787,1024.5,,TRUE,TRUE,,,,,,,OVC,600,,,,,,,IFR,,,,,,,,,,,,SPECI,519.0
KELM 150053Z 00000KT 10SM CLR M07/M11 A3016 RMK AO2 SLP232 T10721106,KELM,2019-01-15T00:53:00Z,42.15,-76.9,-7.2,-10.6,0,0,,10.0,30.159449,1023.2,,,TRUE,,,,,,,CLR,,,,,,,,VFR,,,,,,,,,,,,METAR,302.0
KELD 150053Z AUTO 00000KT 10SM OVC018 04/02 A3043 RMK AO2 SLP303 T00440017,KELD,2019-01-15T00:53:00Z,33.22,-92.82,4.4,1.7,0,0,,10.0,30.431103,1030.3,,TRUE,TRUE,,,,,,,OVC,1800,,,,,,,MVFR,,,,,,,,,,,,METAR,81.0
KEET 150053Z AUTO 34007KT 10SM OVC013 04/01 A3031 RMK AO2 SLP267 T00390011,KEET,2019-01-15T00:53:00Z,33.18,-86.78,3.9,1.1,340,7,,10.0,30.31004,1026.7,,TRUE,TRUE,,,,,,,OVC,1300,,,,,,,MVFR,,,,,,,,,,,,METAR,173.0
KEEO 150053Z AUTO 00000KT 10SM CLR M11/M16 A3030 RMK AO2 SLP342 T11111156,KEEO,2019-01-15T00:53:00Z,40.05,-107.88,-11.1,-15.6,0,0,,10.0,30.301182,1034.2,,TRUE,TRUE,,,,,,,CLR,,,,,,,,VFR,,,,,,,,,,,,METAR,1930.0
KECP 150053Z 32011KT 10SM OVC015 07/03 A3027 RMK AO2 RAB31E48 SLP262 P0000 T00720033,KECP,2019-01-15T00:53:00Z,30.35,-85.8,7.2,3.3,320,11,,10.0,30.268702,1026.2,,,TRUE,,,,,,,OVC,1500,,,,,,,MVFR,,,,,,0.005,,,,,,METAR,21.0
KCDR 150053Z AUTO 16003KT 10SM CLR M02/M06 A3014 RMK AO2 SLP256 I1000 T10171061 $,KCDR,2019-01-15T00:53:00Z,42.83,-103.1,-1.7,-6.1,160,3,,10.0,30.138779,1025.6,,TRUE,TRUE,TRUE,,,,,,CLR,,,,,,,,VFR,,,,,,,,,,,,METAR,1010.0
KCDC 150053Z AUTO 00000KT 10SM FEW060 BKN110 M02/M04 A3013 RMK AO2 SLP224 T10171039,KCDC,2019-01-15T00:53:00Z,37.7,-113.1,-1.7,-3.9,0,0,,10.0,30.129921,1022.4,,TRUE,TRUE,,,,,,,FEW,6000,BKN,11000,,,,,VFR,,,,,,,,,,,,METAR,1714.0
KCCR 150053Z 11004KT 10SM BKN047 OVC055 13/07 A2986 RMK AO2 RAB38E53 SLP096 P0000 T01280067,KCCR,2019-01-15T00:53:00Z,38.0,-122.05,12.8,6.7,110,4,,10.0,29.861221,1009.6,,,TRUE,,,,,,,BKN,4700,OVC,5500,,,,,VFR,,,,,,0.005,,,,,,METAR,11.0
KCAG 150053Z AUTO 07004KT 7SM FEW001 BKN009 M14/M16 A3032 RMK AO2 SLP372 T11391156,KCAG,2019-01-15T00:53:00Z,40.5,-107.52,-13.9,-15.6,70,4,,7.0,30.318897,1037.2,,TRUE,TRUE,,,,,,,FEW,100,BKN,900,,,,,IFR,,,,,,,,,,,,METAR,1887.0
KBYI 150053Z AUTO 05009KT 10SM CLR M04/M08 A3017 RMK AO2 SLP258 T10391083,KBYI,2019-01-15T00:53:00Z,42.55,-113.77,-3.9,-8.3,50,9,,10.0,30.171259,1025.8,,TRUE,TRUE,,,,,,,CLR,,,,,,,,VFR,,,,,,,,,,,,METAR,1264.0
KBYG 150053Z AUTO 24005KT 10SM CLR M01/M09 A3007 RMK AO2 SLP206 T10111089,KBYG,2019-01-15T00:53:00Z,44.38,-106.72,-1.1,-8.9,240,5,,10.0,30.070866,1020.6,,TRUE,TRUE,,,,,,,CLR,,,,,,,,VFR,,,,,,,,,,,,METAR,1497.0
KBWG 150053Z AUTO 28005KT 10SM OVC029 02/M02 A3034 RMK AO2 SLP278 T00171022,KBWG,2019-01-15T00:53:00Z,36.97,-86.42,1.7,-2.2,280,5,,10.0,30.339567,1027.8,,TRUE,TRUE,,,,,,,OVC,2900,,,,,,,MVFR,,,,,,,,,,,,METAR,168.0
KBVY 150053Z 00000KT 10SM CLR M07/M11 A3009 RMK AO2 SLP188 T10671106,KBVY,2019-01-15T00:53:00Z,42.58,-70.92,-6.7,-10.6,0,0,,10.0,30.088583,1018.8,,,TRUE,,,,,,,CLR,,,,,,,,VFR,,,,,,,,,,,,METAR,28.0
KBVO 150053Z AUTO 00000KT 8SM BKN014 00/M02 A3037 RMK AO2 SLP286 T00001017,KBVO,2019-01-15T00:53:00Z,36.77,-96.02,0.0,-1.7,0,0,,8.0,30.369095,1028.6,,TRUE,TRUE,,,,,,,BKN,1400,,,,,,,MVFR,,,,,,,,,,,,METAR,210.0
KBUR 150053Z VRB03KT 1 1/4SM RA BR OVC011 09/09 A2996 RMK AO2 SLP138 P0019 T00890089 $,KBUR,2019-01-15T00:53:00Z,34.2,-118.37,8.9,8.9,0,3,,1.25,29.958662,1013.8,,,TRUE,TRUE,,,,,RA BR,OVC,1100,,,,,,,IFR,,,,,,0.19,,,,,,METAR,217.0
KDTO 150053Z 11004KT 10SM CLR 04/M01 A3037 RMK AO2 SLP287 T00391011,KDTO,2019-01-15T00:53:00Z,33.2,-97.2,3.9,-1.1,110,4,,10.0,30.369095,1028.7,,,TRUE,,,,,,,CLR,,,,,,,,VFR,,,,,,,,,,,,METAR,196.0
KDTN 150053Z 34004KT 10SM OVC018 05/01 A3043 RMK AO2 SLP303 T00500006,KDTN,2019-01-15T00:53:00Z,32.55,-93.75,5.0,0.6,340,4,,10.0,30.431103,1030.3,,,TRUE,,,,,,,OVC,1800,,,,,,,MVFR,,,,,,,,,,,,METAR,53.0
KDRT 150053Z AUTO 14007KT 10SM OVC039 09/05 A3035 RMK AO2 SLP273 T00940050,KDRT,2019-01-15T00:53:00Z,29.37,-100.92,9.4,5.0,140,7,,10.0,30.351377,1027.3,,TRUE,TRUE,,,,,,,OVC,3900,,,,,,,VFR,,,,,,,,,,,,METAR,313.0
KDRO 150053Z AUTO 00000KT 10SM CLR M02/M04 A3025 RMK AO2 SLP304 T10221039,KDRO,2019-01-15T00:53:00Z,37.15,-107.77,-2.2,-3.9,0,0,,10.0,30.250984,1030.4,,TRUE,TRUE,,,,,,,CLR,,,,,,,,VFR,,,,,,,,,,,,METAR,2035.0
KDNL 150053Z AUTO 00000KT 10SM FEW013 SCT025 OVC037 08/04 A3021 RMK AO2 SLP230 T00830044 TSNO,KDNL,2019-01-15T00:53:00Z,33.47,-82.03,8.3,4.4,0,0,,10.0,30.209646,1023.0,,TRUE,TRUE,,,TRUE,,,,FEW,1300,SCT,2500,OVC,3700,,,VFR,,,,,,,,,,,,METAR,130.0
KDMO 150053Z AUTO 4SM BR OVC002 M03/M03 A3035 RMK AO2 SLP289 T10331033,KDMO,2019-01-15T00:53:00Z,38.72,-93.17,-3.3,-3.3,,,,4.0,30.351377,1028.9,,TRUE,TRUE,,,,,,BR,OVC,200,,,,,,,LIFR,,,,,,,,,,,,METAR,274.0
KDMN 150053Z AUTO 06004KT 10SM CLR 10/01 A3020 RMK AO2 SLP211 T01000011,KDMN,2019-01-15T00:53:00Z,32.27,-107.72,10.0,1.1,60,4,,10.0,30.200787,1021.1,,TRUE,TRUE,,,,,,,CLR,,,,,,,,VFR,,,,,,,,,,,,METAR,1311.0
KEYE 150053Z AUTO 33003KT 8SM CLR M06/M08 A3030 RMK AO2 SLP274 T10561078,KEYE,2019-01-15T00:53:00Z,39.83,-86.3,-5.6,-7.8,330,3,,8.0,30.301182,1027.4,,TRUE,TRUE,,,,,,,CLR,,,,,,,,VFR,,,,,,,,,,,,METAR,248.0
KFAR 150053Z 33004KT 3SM BR OVC004 M07/M07 A3027 RMK AO2 SLP266 T10671072,KFAR,2019-01-15T00:53:00Z,46.93,-96.82,-6.7,-7.2,330,4,,3.0,30.268702,1026.6,,,TRUE,,,,,,BR,OVC,400,,,,,,,LIFR,,,,,,,,,,,,METAR,277.0
KEYW 150053Z 34007KT 10SM BKN018 21/16 A3014 RMK AO2 SLP207 T02060161,KEYW,2019-01-15T00:53:00Z,24.55,-81.75,20.6,16.1,340,7,,10.0,30.138779,1020.7,,,TRUE,,,,,,,BKN,1800,,,,,,,MVFR,,,,,,,,,,,,METAR,5.0
KTKI 150053Z 00000KT 10SM CLR 04/00 A3039 RMK AO2 SLP304 T00390000,KTKI,2019-01-15T00:53:00Z,33.18,-96.58,3.9,0.0,0,0,,10.0,30.389763,1030.4,,,TRUE,,,,,,,CLR,,,,,,,,VFR,,,,,,,,,,,,METAR,179.0
KFAT 150053Z 03007KT 10SM -RA BKN060 OVC090 11/09 A2992 RMK AO2 SLP131 P0003 T01060089,KFAT,2019-01-15T00:53:00Z,36.78,-119.72,10.6,8.9,30,7,,10.0,29.920275,1013.1,,,TRUE,,,,,,-RA,BKN,6000,OVC,9000,,,,,VFR,,,,,,0.03,,,,,,METAR,104.0
KFFC 150053Z AUTO 31007KT 10SM OVC023 07/03 A3024 RMK AO2 SLP245 T00720028,KFFC,2019-01-15T00:53:00Z,33.35,-84.57,7.2,2.8,310,7,,10.0,30.239174,1024.5,,TRUE,TRUE,,,,,,,OVC,2300,,,,,,,MVFR,,,,,,,,,,,,METAR,262.0
KFDY 150053Z AUTO 22004KT 4SM BR CLR M08/M10 A3027 RMK AO2 SLP258 T10831100,KFDY,2019-01-15T00:53:00Z,41.02,-83.67,-8.3,-10.0,220,4,,4.0,30.268702,1025.8,,TRUE,TRUE,,,,,,BR,CLR,,,,,,,,MVFR,,,,,,,,,,,,METAR,247.0
KFDR 150053Z AUTO 11007KT 10SM CLR 03/02 A3030 RMK AO2 SLP266 T00330017,KFDR,2019-01-15T00:53:00Z,34.35,-98.98,3.3,1.7,110,7,,10.0,30.301182,1026.6,,TRUE,TRUE,,,,,,,CLR,,,,,,,,VFR,,,,,,,,,,,,METAR,386.0
KFCM 150053Z 31004KT 9SM OVC016 M02/M06 A3022 RMK AO2 SLP247 T10221056,KFCM,2019-01-15T00:53:00Z,44.83,-93.47,-2.2,-5.6,310,4,,9.0,30.221457,1024.7,,,TRUE,,,,,,,OVC,1600,,,,,,,MVFR,,,,,,,,,,,,METAR,280.0
KFAY 150053Z 00000KT 10SM BKN029 OVC041 03/01 A3022 RMK AO2 SLP228 T00280011,KFAY,2019-01-15T00:53:00Z,34.98,-78.88,2.8,1.1,0,0,,10.0,30.221457,1022.8,,,TRUE,,,,,,,BKN,2900,OVC,4100,,,,,MVFR,,,,,,,,,,,,METAR,55.0
KJLN 150053Z 23007KT 5SM BR OVC006 M01/M02 A3036 RMK AO2 SLP290 T10061017,KJLN,2019-01-15T00:53:00Z,37.15,-94.5,-0.6,-1.7,230,7,,5.0,30.360237,1029.0,,,TRUE,,,,,,BR,OVC,600,,,,,,,IFR,,,,,,,,,,,,METAR,299.0
KFLL 150053Z AUTO 02003KT 10SM CLR 19/14 A3011 RMK AO2 SLP195 T01890139,KFLL,2019-01-15T00:53:00Z,26.07,-80.15,18.9,13.9,20,3,,10.0,30.109253,1019.5,,TRUE,TRUE,,,,,,,CLR,,,,,,,,VFR,,,,,,,,,,,,METAR,3.0
KFHR 150053Z AUTO 33004KT 10SM CLR 04/03 A2998 RMK AO2 SLP152 T00440028,KFHR,2019-01-15T00:53:00Z,48.52,-123.03,4.4,2.8,330,4,,10.0,29.97933,1015.2,,TRUE,TRUE,,,,,,,CLR,,,,,,,,VFR,,,,,,,,,,,,SPECI,32.0
KFFT 150053Z AUTO 00000KT 10SM CLR M02/M05 A3030 RMK AO2 SLP268 T10171050,KFFT,2019-01-15T00:53:00Z,38.18,-84.9,-1.7,-5.0,0,0,,10.0,30.301182,1026.8,,TRUE,TRUE,,,,,,,CLR,,,,,,,,VFR,,,,,,,,,,,,METAR,236.0
KLFT 150053Z 01009KT 10SM OVC019 07/02 A3037 RMK AO2 SLP285 T00670022,KLFT,2019-01-15T00:53:00Z,30.2,-92.0,6.7,2.2,10,9,,10.0,30.369095,1028.5,,,TRUE,,,,,,,OVC,1900,,,,,,,MVFR,,,,,,,,,,,,METAR,11.0
KLFK 150053Z AUTO 00000KT 10SM CLR 04/02 A3039 RMK AO2 SLP292 T00390017,KLFK,2019-01-15T00:53:00Z,31.23,-94.75,3.9,1.7,0,0,,10.0,30.389763,1029.2,,TRUE,TRUE,,,,,,,CLR,,,,,,,,VFR,,,,,,,,,,,,METAR,88.0
KLEE 150053Z AUTO 03004KT 10SM CLR 11/07 A3019 RMK AO2 SLP223 T01060072,KLEE,2019-01-15T00:53:00Z,28.82,-81.82,10.6,7.2,30,4,,10.0,30.188976,1022.3,,TRUE,TRUE,,,,,,,CLR,,,,,,,,VFR,,,,,,,,,,,,METAR,23.0
KLEB 150053Z 00000KT 10SM CLR M11/M14 A3012 RMK AO2 SLP224 T11111144,KLEB,2019-01-15T00:53:00Z,43.63,-72.3,-11.1,-14.4,0,0,,10.0,30.121063,1022.4,,,TRUE,,,,,,,CLR,,,,,,,,VFR,,,,,,,,,,,,METAR,171.0
KLCH 150053Z 01004KT 10SM CLR 07/03 A3039 RMK AO2 SLP297 T00670033,KLCH,2019-01-15T00:53:00Z,30.13,-93.22,6.7,3.3,10,4,,10.0,30.389763,1029.7,,,TRUE,,,,,,,CLR,,,,,,,,VFR,,,,,,,,,,,,METAR,4.0
KLBX 150053Z AUTO 31004KT 10SM OVC065 11/04 A3038 RMK AO2 SLP285 T01060044,KLBX,2019-01-15T00:53:00Z,29.12,-95.47,10.6,4.4,310,4,,10.0,30.380905,1028.5,,TRUE,TRUE,,,,,,,OVC,6500,,,,,,,VFR,,,,,,,,,,,,METAR,6.0
KLBF 150053Z AUTO 00000KT 10SM CLR M02/M07 A3014 RMK AO2 SLP237 T10171072,KLBF,2019-01-15T00:53:00Z,41.12,-100.67,-1.7,-7.2,0,0,,10.0,30.138779,1023.7,,TRUE,TRUE,,,,,,,CLR,,,,,,,,VFR,,,,,,,,,,,,METAR,847.0
KLBB 150053Z 22010KT 10SM SCT250 06/02 A3026 RMK AO2 SLP248 T00610017,KLBB,2019-01-15T00:53:00Z,33.67,-101.82,6.1,1.7,220,10,,10.0,30.259842,1024.8,,,TRUE,,,,,,,SCT,25000,,,,,,,VFR,,,,,,,,,,,,METAR,993.0
KLAX 150053Z 08008KT 2 1/2SM -RA BR BKN006 OVC014 12/11 A2996 RMK AO2 SLP144 P0004 T01170111,KLAX,2019-01-15T00:53:00Z,33.93,-118.38,11.7,11.1,80,8,,2.5,29.958662,1014.4,,,TRUE,,,,,,-RA BR,BKN,600,OVC,1400,,,,,IFR,,,,,,0.04,,,,,,METAR,46.0
KLAW 150053Z AUTO 16004KT 10SM CLR 03/01 A3034 RMK AO2 SLP282 T00330011,KLAW,2019-01-15T00:53:00Z,34.55,-98.42,3.3,1.1,160,4,,10.0,30.339567,1028.2,,TRUE,TRUE,,,,,,,CLR,,,,,,,,VFR,,,,,,,,,,,,METAR,337.0
KLAR 150053Z AUTO 01006KT 10SM CLR M13/M18 A3019 RMK AO2 SLP349 T11331178,KLAR,2019-01-15T00:53:00Z,41.32,-105.67,-13.3,-17.8,10,6,,10.0,30.188976,1034.9,,TRUE,TRUE,,,,,,,CLR,,,,,,,,VFR,,,,,,,,,,,,METAR,2216.0
KLAN 150053Z 25007KT 10SM OVC019 M02/M06 A3023 RMK AO2 SLP253 T10171056,KLAN,2019-01-15T00:53:00Z,42.78,-84.58,-1.7,-5.6,250,7,,10.0,30.230314,1025.3,,,TRUE,,,,,,,OVC,1900,,,,,,,MVFR,,,,,,,,,,,,METAR,264.0
KLAA 150053Z AUTO 20007KT 10SM CLR M01/M03 A3017 RMK AO2 SLP233 T10061033,KLAA,2019-01-15T00:53:00Z,38.07,-102.68,-0.6,-3.3,200,7,,10.0,30.171259,1023.3,,TRUE,TRUE,,,,,,,CLR,,,,,,,,VFR,,,,,,,,,,,,METAR,1119.0
KLND 150053Z AUTO 00000KT 10SM CLR M10/M14 A3018 RMK AO2 SLP307 T11001139,KLND,2019-01-15T00:53:00Z,42.82,-108.73,-10.0,-13.9,0,0,,10.0,30.180119,1030.7,,TRUE,TRUE,,,,,,,CLR,,,,,,,,VFR,,,,,,,,,,,,METAR,1694.0
KLMT 150053Z 32006KT 10SM SCT100 01/M05 A2989 RMK AO2 SLP143 T00111050,KLMT,2019-01-15T00:53:00Z,42.15,-121.72,1.1,-5.0,320,6,,10.0,29.890747,1014.3,,,TRUE,,,,,,,SCT,10000,,,,,,,VFR,,,,,,,,,,,,METAR,1246.0
KLLQ 150053Z AUTO 00000KT 10SM OVC020 05/01 A3040 RMK AO2 SLP296 T00500006,KLLQ,2019-01-15T00:53:00Z,33.63,-91.75,5.0,0.6,0,0,,10.0,30.398623,1029.6,,TRUE,TRUE,,,,,,,OVC,2000,,,,,,,MVFR,,,,,,,,,,,,METAR,83.0
KLIT 150053Z 00000KT 10SM OVC026 05/M01 A3040 RMK AO2 SLP298 T00501011,KLIT,2019-01-15T00:53:00Z,34.73,-92.23,5.0,-1.1,0,0,,10.0,30.398623,1029.8,,,TRUE,,,,,,,OVC,2600,,,,,,,MVFR,,,,,,,,,,,,METAR,79.0
KLHX 150053Z AUTO 17003KT 10SM CLR 06/M06 A3018 RMK AO2 SLP223 T00611056,KLHX,2019-01-15T00:53:00Z,38.05,-103.52,6.1,-5.6,170,3,,10.0,30.180119,1022.3,,TRUE,TRUE,,,,,,,CLR,,,,,,,,VFR,,,,,,,,,,,,METAR,1277.0
KLHQ 150053Z AUTO 29006KT 8SM OVC008 M04/M05 A3029 RMK AO2 SLP270 T10391050,KLHQ,2019-01-15T00:53:00Z,39.75,-82.67,-3.9,-5.0,290,6,,8.0,30.28937,1027.0,,TRUE,TRUE,,,,,,,OVC,800,,,,,,,IFR,,,,,,,,,,,,METAR,260.0
KLGB 150053Z 08005KT 6SM -RA BR FEW008 OVC013 12/11 A2996 RMK AO2 RAE17B40 SLP144 P0001 T01220111,KLGB,2019-01-15T00:53:00Z,33.82,-118.15,12.2,11.1,80,5,,6.0,29.958662,1014.4,,,TRUE,,,,,,-RA BR,FEW,800,OVC,1300,,,,,MVFR,,,,,,0.01,,,,,,METAR,10.0
KLOU 150053Z 09003KT 9SM CLR M02/M06 A3032 RMK AO2 SLP273 T10171056,KLOU,2019-01-15T00:53:00Z,38.22,-85.67,-1.7,-5.6,90,3,,9.0,30.318897,1027.3,,,TRUE,,,,,,,CLR,,,,,,,,VFR,,,,,,,,,,,,METAR,164.0
KLOL 150053Z AUTO 03007KT 10SM OVC075 03/M04 A2998 RMK AO2 SLP169 T00331044,KLOL,2019-01-15T00:53:00Z,40.07,-118.57,3.3,-4.4,30,7,,10.0,29.97933,1016.9,,TRUE,TRUE,,,,,,,OVC,7500,,,,,,,VFR,,,,,,,,,,,,METAR,1189.0
KLPR 150053Z AUTO 25006KT 10SM CLR M07/M11 A3026 RMK AO2 SLP260 T10721111,KLPR,2019-01-15T00:53:00Z,41.35,-82.18,-7.2,-11.1,250,6,,10.0,30.259842,1026.0,,TRUE,TRUE,,,,,,,CLR,,,,,,,,VFR,,,,,,,,,,,,METAR,241.0
KLOZ 150053Z AUTO 30004KT 8SM BKN007 OVC011 00/M01 A3027 RMK AO2 UPB30E40 CIG 005V009 SLP260 P0000 I1000 T00001006,KLOZ,2019-01-15T00:53:00Z,37.08,-84.07,0.0,-0.6,300,4,,8.0,30.268702,1026.0,,TRUE,TRUE,,,,,,,BKN,700,OVC,1100,,,,,IFR,,,,,,0.005,,,,,,METAR,362.0
KDLS 150053Z AUTO 11009KT 10SM OVC023 02/M03 A3025 RMK AO2 SLP246 T00171033,KDLS,2019-01-15T00:53:00Z,45.62,-121.17,1.7,-3.3,110,9,,10.0,30.250984,1024.6,,TRUE,TRUE,,,,,,,OVC,2300,,,,,,,MVFR,,,,,,,,,,,,METAR,71.0
KDLN 150053Z AUTO 15006KT 10SM CLR M07/M13 A3011 RMK AO2 SLP270 T10721128,KDLN,2019-01-15T00:53:00Z,45.25,-112.55,-7.2,-12.8,150,6,,10.0,30.109253,1027.0,,TRUE,TRUE,,,,,,,CLR,,,,,,,,VFR,,,,,,,,,,,,METAR,1591.0
KDKK 150053Z AUTO 25009KT 10SM OVC015 M04/M07 A3023 RMK AO2 SLP249 T10391072,KDKK,2019-01-15T00:53:00Z,42.5,-79.28,-3.9,-7.2,250,9,,10.0,30.230314,1024.9,,TRUE,TRUE,,,,,,,OVC,1500,,,,,,,MVFR,,,,,,,,,,,,METAR,202.0
KDHT 150053Z AUTO 10005KT 10SM CLR 05/M01 A3020 RMK AO2 SLP234 T00501006,KDHT,2019-01-15T00:53:00Z,36.02,-102.55,5.0,-0.6,100,5,,10.0,30.200787,1023.4,,TRUE,TRUE,,,,,,,CLR,,,,,,,,VFR,,,,,,,,,,,,METAR,1217.0
KDHN 150053Z 30006KT 10SM BKN022 OVC029 07/03 A3029 RMK AO2 SLP258 T00670028,KDHN,2019-01-15T00:53:00Z,31.32,-85.45,6.7,2.8,300,6,,10.0,30.28937,1025.8,,,TRUE,,,,,,,BKN,2200,OVC,2900,,,,,MVFR,,,,,,,,,,,,METAR,113.0
KDGW 150053Z AUTO 29006KT 10SM CLR M03/M12 A3014 RMK AO2 SLP262 T10281122,KDGW,2019-01-15T00:53:00Z,42.8,-105.38,-2.8,-12.2,290,6,,10.0,30.138779,1026.2,,TRUE,TRUE,,,,,,,CLR,,,,,,,,VFR,,,,,,,,,,,,METAR,1499.0
KDFW 150053Z 06003KT 10SM FEW150 FEW300 04/M01 A3036 RMK AO2 SLP284 T00441006,KDFW,2019-01-15T00:53:00Z,32.9,-97.02,4.4,-0.6,60,3,,10.0,30.360237,1028.4,,,TRUE,,,,,,,FEW,15000,FEW,30000,,,,,VFR,,,,,,,,,,,,METAR,174.0
KDFI 150053Z AUTO 21004KT 8SM OVC023 M05/M08 A3028 RMK AO2 SLP266 T10501083,KDFI,2019-01-15T00:53:00Z,41.33,-84.43,-5.0,-8.3,210,4,,8.0,30.280512,1026.6,,TRUE,TRUE,,,,,,,OVC,2300,,,,,,,MVFR,,,,,,,,,,,,METAR,219.0
KDEW 150053Z AUTO 34004KT 10SM CLR M04/M06 A3018 RMK AO2 SLP254 T10441061,KDEW,2019-01-15T00:53:00Z,47.97,-117.43,-4.4,-6.1,340,4,,10.0,30.180119,1025.4,,TRUE,TRUE,,,,,,,CLR,,,,,,,,VFR,,,,,,,,,,,,METAR,674.0
KDET 150053Z 22005KT 10SM CLR M04/M08 A3023 RMK AO2 SLP499 T10391078,KDET,2019-01-15T00:53:00Z,42.4,-83.02,-3.9,-7.8,220,5,,10.0,30.230314,1049.9,,,TRUE,,,,,,,CLR,,,,,,,,VFR,,,,,,,,,,,,METAR,190.0
KDEQ 150053Z AUTO 22005KT 10SM OVC019 04/01 A3040 RMK AO2 SLP293 T00390011,KDEQ,2019-01-15T00:53:00Z,34.05,-94.4,3.9,1.1,220,5,,10.0,30.398623,1029.3,,TRUE,TRUE,,,,,,,OVC,1900,,,,,,,MVFR,,,,,,,,,,,,METAR,106.0
KLUK 150053Z 00000KT 5SM BR SCT035 M05/M07 A3034 RMK AO2 SLP279 T10501067,KLUK,2019-01-15T00:53:00Z,39.1,-84.42,-5.0,-6.7,0,0,,5.0,30.339567,1027.9,,,TRUE,,,,,,BR,SCT,3500,,,,,,,MVFR,,,,,,,,,,,,SPECI,155.0
KLVJ 150053Z AUTO 11004KT 10SM OVC065 12/05 A3039 RMK AO2 SLP289 T01170050,KLVJ,2019-01-15T00:53:00Z,29.52,-95.25,11.7,5.0,110,4,,10.0,30.389763,1028.9,,TRUE,TRUE,,,,,,,OVC,6500,,,,,,,VFR,,,,,,,,,,,,METAR,12.0
KLVK 150053Z 07009KT 9SM OVC045 11/07 A2985 RMK AO2 SLP107 T01110072,KLVK,2019-01-15T00:53:00Z,37.7,-121.82,11.1,7.2,70,9,,9.0,29.84941,1010.7,,,TRUE,,,,,,,OVC,4500,,,,,,,VFR,,,,,,,,,,,,METAR,117.0
KLVS 150053Z AUTO 26004KT 10SM CLR 02/M01 A3021 RMK AO2 SLP221 T00221011,KLVS,2019-01-15T00:53:00Z,35.65,-105.13,2.2,-1.1,260,4,,10.0,30.209646,1022.1,,TRUE,TRUE,,,,,,,CLR,,,,,,,,VFR,,,,,,,,,,,,METAR,2091.0
KGRR 150053Z 22008KT 10SM OVC015 M01/M04 A3022 RMK AO2 SLP247 T10111044,KGRR,2019-01-15T00:53:00Z,42.88,-85.52,-1.1,-4.4,220,8,,10.0,30.221457,1024.7,,,TRUE,,,,,,,OVC,1500,,,,,,,MVFR,,,,,,,,,,,,METAR,237.0
KGRI 150053Z 22010KT 3/4SM R35/3500V4000FT BR VV003 M01/M01 A3019 RMK AO2 SLP247 T10061011,KGRI,2019-01-15T00:53:00Z,40.97,-98.32,-0.6,-1.1,220,10,,0.75,30.188976,1024.7,,,TRUE,,,,,,BR,OVX,0,,,,,,,LIFR,,,,,,,,,,,300,METAR,561.0
KGRB 150053Z 27008KT 10SM OVC011 M02/M04 A3019 RMK AO2 SLP235 T10171044,KGRB,2019-01-15T00:53:00Z,44.48,-88.13,-1.7,-4.4,270,8,,10.0,30.188976,1023.5,,,TRUE,,,,,,,OVC,1100,,,,,,,MVFR,,,,,,,,,,,,METAR,208.0
KGPT 150053Z 34005KT 10SM OVC024 07/03 A3034 RMK AO2 SLP272 T00670028,KGPT,2019-01-15T00:53:00Z,30.42,-89.08,6.7,2.8,340,5,,10.0,30.339567,1027.2,,,TRUE,,,,,,,OVC,2400,,,,,,,MVFR,,,,,,,,,,,,METAR,14.0
KGOK 150053Z AUTO 14004KT 10SM CLR 02/M01 A3032 RMK AO2 SLP277 T00171006,KGOK,2019-01-15T00:53:00Z,35.85,-97.4,1.7,-0.6,140,4,,10.0,30.318897,1027.7,,TRUE,TRUE,,,,,,,CLR,,,,,,,,VFR,,,,,,,,,,,,METAR,324.0
KGNV 150053Z 33006KT 10SM OVC032 09/06 A3023 RMK AO2 SLP238 T00940056,KGNV,2019-01-15T00:53:00Z,29.7,-82.28,9.4,5.6,330,6,,10.0,30.230314,1023.8,,,TRUE,,,,,,,OVC,3200,,,,,,,VFR,,,,,,,,,,,,METAR,45.0
KGMU 150053Z 28004KT 10SM -RA SCT045 OVC055 07/04 A3019 RMK AO2 RAE01B21 SLP227 P0000 T00670044,KGMU,2019-01-15T00:53:00Z,34.85,-82.35,6.7,4.4,280,4,,10.0,30.188976,1022.7,,,TRUE,,,,,,-RA,SCT,4500,OVC,5500,,,,,VFR,,,,,,0.005,,,,,,METAR,315.0
KGSH 150053Z AUTO 26010KT 5SM BR OVC009 M04/M06 A3028 RMK AO2 CIG 008V013 SLP268 T10441061,KGSH,2019-01-15T00:53:00Z,41.53,-85.78,-4.4,-6.1,260,10,,5.0,30.280512,1026.8,,TRUE,TRUE,,,,,,BR,OVC,900,,,,,,,IFR,,,,,,,,,,,,METAR,252.0
KGTF 150053Z 22013KT 10SM CLR 03/M15 A3001 RMK AO2 SLP208 T00281150,KGTF,2019-01-15T00:53:00Z,47.47,-111.38,2.8,-15.0,220,13,,10.0,30.008858,1020.8,,,TRUE,,,,,,,CLR,,,,,,,,VFR,,,,,,,,,,,,METAR,1119.0
KGSP 150053Z 26004KT 10SM OVC035 06/04 A3019 RMK AO2 SLP224 T00610044,KGSP,2019-01-15T00:53:00Z,34.9,-82.22,6.1,4.4,260,4,,10.0,30.188976,1022.4,,,TRUE,,,,,,,OVC,3500,,,,,,,VFR,,,,,,,,,,,,METAR,287.0
KCWA 150053Z 25005KT 1 3/4 SM BR OVC004 M03/M03 A3018,KCWA,2019-01-15T00:53:00Z,44.78,-89.67,-3.0,-3.0,250,5,,,30.180119,,,,,,,,,,BR,OVC,400,,,,,,,,,,,,,,,,,,,METAR,389.0
KOJC 150053Z 25008KT 4SM BR OVC002 M02/M02 A3032 RMK AO2 SLP278 T10221022,KOJC,2019-01-15T00:53:00Z,38.85,-94.73,-2.2,-2.2,250,8,,4.0,30.318897,1027.8,,,TRUE,,,,,,BR,OVC,200,,,,,,,LIFR,,,,,,,,,,,,SPECI,326.0
KOGD 150053Z 32005KT 10SM CLR M07/M10 A3025 RMK AO2 SLP289 T10721100,KOGD,2019-01-15T00:53:00Z,41.2,-112.02,-7.2,-10.0,320,5,,10.0,30.250984,1028.9,,,TRUE,,,,,,,CLR,,,,,,,,VFR,,,,,,,,,,,,METAR,1353.0
KOGB 150053Z AUTO 08003KT 10SM OVC017 06/02 A3023 RMK AO2 SLP236 T00560022,KOGB,2019-01-15T00:53:00Z,33.47,-80.85,5.6,2.2,80,3,,10.0,30.230314,1023.6,,TRUE,TRUE,,,,,,,OVC,1700,,,,,,,MVFR,,,,,,,,,,,,SPECI,59.0
KODX 150053Z AUTO 34004KT 10SM CLR 01/M03 A3017 RMK AO2 SLP240 T00061028,KODX,2019-01-15T00:53:00Z,41.62,-98.95,0.6,-2.8,340,4,,10.0,30.171259,1024.0,,TRUE,TRUE,,,,,,,CLR,,,,,,,,VFR,,,,,,,,,,,,METAR,631.0
KODO 150053Z AUTO 19008KT 9SM OVC015 06/02 A3030 RMK AO2 SLP259 T00610022,KODO,2019-01-15T00:53:00Z,31.92,-102.4,6.1,2.2,190,8,,9.0,30.301182,1025.9,,TRUE,TRUE,,,,,,,OVC,1500,,,,,,,MVFR,,,,,,,,,,,,METAR,902.0
KOAK 150053Z 14012KT 10SM -RA FEW014 SCT044 BKN060 OVC140 13/09 A2985 RMK AO2 RAB29 SLP108 P0000 T01280089,KOAK,2019-01-15T00:53:00Z,37.72,-122.23,12.8,8.9,140,12,,10.0,29.84941,1010.8,,,TRUE,,,,,,-RA,FEW,1400,SCT,4400,BKN,6000,OVC,14000,VFR,,,,,,0.005,,,,,,METAR,26.0
KMYF 150053Z 00000KT 1 1/4SM -RA BR FEW007 BKN013 OVC018 12/11 A2997 RMK AO2 SLP148 P0007 T01220111,KMYF,2019-01-15T00:53:00Z,32.82,-117.13,12.2,11.1,0,0,,1.25,29.970472,1014.8,,,TRUE,,,,,,-RA BR,FEW,700,BKN,1300,OVC,1800,,,IFR,,,,,,0.07,,,,,,METAR,136.0
KMWL 150053Z AUTO 14006KT 9SM OVC050 06/00 A3034 RMK AO2 SLP278 T00560000,KMWL,2019-01-15T00:53:00Z,32.78,-98.07,5.6,0.0,140,6,,9.0,30.339567,1027.8,,TRUE,TRUE,,,,,,,OVC,5000,,,,,,,VFR,,,,,,,,,,,,METAR,284.0
KMVY 150053Z AUTO 36008KT 10SM FEW025 M03/M07 A3009 RMK AO2 SLP191 T10281067,KMVY,2019-01-15T00:53:00Z,41.4,-70.62,-2.8,-6.7,360,8,,10.0,30.088583,1019.1,,TRUE,TRUE,,,,,,,FEW,2500,,,,,,,VFR,,,,,,,,,,,,SPECI,16.0
KMTO 150053Z AUTO 00000KT 10SM OVC018 M04/M06 A3033 RMK AO2 SLP282 T10441061,KMTO,2019-01-15T00:53:00Z,39.47,-88.27,-4.4,-6.1,0,0,,10.0,30.33071,1028.2,,TRUE,TRUE,,,,,,,OVC,1800,,,,,,,MVFR,,,,,,,,,,,,SPECI,214.0
KMTJ 150053Z AUTO 09003KT 9SM FEW100 M05/M09 A3028 RMK AO2 SLP297 T10501089,KMTJ,2019-01-15T00:53:00Z,38.5,-107.9,-5.0,-8.9,90,3,,9.0,30.280512,1029.7,,TRUE,TRUE,,,,,,,FEW,10000,,,,,,,VFR,,,,,,,,,,,,METAR,1750.0
KMTH 150053Z AUTO 31011G16KT 10SM CLR 21/16 A3013 RMK AO2 SLP203 T02060156,KMTH,2019-01-15T00:53:00Z,24.73,-81.05,20.6,15.6,310,11,16,10.0,30.129921,1020.3,,TRUE,TRUE,,,,,,,CLR,,,,,,,,VFR,,,,,,,,,,,,SPECI,2.0
KMSY 150053Z 35008KT 10SM OVC018 07/03 A3036 RMK AO2 SLP282 T00720033,KMSY,2019-01-15T00:53:00Z,30.0,-90.25,7.2,3.3,350,8,,10.0,30.360237,1028.2,,,TRUE,,,,,,,OVC,1800,,,,,,,MVFR,,,,,,,,,,,,SPECI,5.0
KMSP 150053Z 30003KT 10SM OVC018 M02/M04 A3023 RMK AO2 SLP250 T10171039,KMSP,2019-01-15T00:53:00Z,44.88,-93.23,-1.7,-3.9,300,3,,10.0,30.230314,1025.0,,,TRUE,,,,,,,OVC,1800,,,,,,,MVFR,,,,,,,,,,,,SPECI,265.0
KMSO 150053Z 00000KT 8SM OVC011 M11/M13 A3025 RMK AO2 SLP299 T11111133,KMSO,2019-01-15T00:53:00Z,46.92,-114.1,-11.1,-13.3,0,0,,8.0,30.250984,1029.9,,,TRUE,,,,,,,OVC,1100,,,,,,,MVFR,,,,,,,,,,,,METAR,975.0
KMSN 150053Z VRB04KT 6SM BR OVC009 M04/M07 A3023 RMK AO2 SLP251 T10441067,KMSN,2019-01-15T00:53:00Z,43.13,-89.35,-4.4,-6.7,0,4,,6.0,30.230314,1025.1,,,TRUE,,,,,,BR,OVC,900,,,,,,,IFR,,,,,,,,,,,,METAR,261.0
KMSL 150053Z AUTO 34005KT 10SM BKN022 OVC038 04/00 A3035 RMK AO2 SLP280 T00390000,KMSL,2019-01-15T00:53:00Z,34.75,-87.6,3.9,0.0,340,5,,10.0,30.351377,1028.0,,TRUE,TRUE,,,,,,,BKN,2200,OVC,3800,,,,,MVFR,,,,,,,,,,,,SPECI,164.0
KMRH 150053Z AUTO 36005KT 10SM SCT024 02/M02 A3021 RMK AO2,KMRH,2019-01-15T00:53:00Z,34.73,-76.65,2.0,-2.0,360,5,,10.0,30.209646,,,TRUE,TRUE,,,,,,,SCT,2400,,,,,,,VFR,,,,,,,,,,,,METAR,3.0
KMRB 150053Z 22003KT 4SM CLR M07/M07 A3018 RMK AO2 SLP228 I1001 T10721072 $,KMRB,2019-01-15T00:53:00Z,39.4,-77.98,-7.2,-7.2,220,3,,4.0,30.180119,1022.8,,,TRUE,TRUE,,,,,,CLR,,,,,,,,MVFR,,,,,,,,,,,,SPECI,164.0
KMPO 150053Z AUTO 30007KT 10SM CLR M06/M13 A3006 RMK AO2 SLP214 T10561128,KMPO,2019-01-15T00:53:00Z,41.13,-75.38,-5.6,-12.8,300,7,,10.0,30.059055,1021.4,,TRUE,TRUE,,,,,,,CLR,,,,,,,,VFR,,,,,,,,,,,,SPECI,577.0
KMOD 150053Z 13010KT 10SM BKN065 12/07 A2989 RMK AO2 RAE19 SLP122 P0000 T01170067,KMOD,2019-01-15T00:53:00Z,37.62,-120.95,11.7,6.7,130,10,,10.0,29.890747,1012.2,,,TRUE,,,,,,,BKN,6500,,,,,,,VFR,,,,,,0.005,,,,,,METAR,29.0
KMNN 150053Z AUTO 00000KT 5SM BR CLR M11/M13 A3027 RMK AO2 SLP268 I1000 T11061128,KMNN,2019-01-15T00:53:00Z,40.62,-83.07,-10.6,-12.8,0,0,,5.0,30.268702,1026.8,,TRUE,TRUE,,,,,,BR,CLR,,,,,,,,MVFR,,,,,,,,,,,,SPECI,301.0
KMMV 150053Z AUTO 35010KT 10SM CLR 06/M02 A2993 RMK AO2 SLP135 T00561022,KMMV,2019-01-15T00:53:00Z,45.2,-123.13,5.6,-2.2,350,10,,10.0,29.929134,1013.5,,TRUE,TRUE,,,,,,,CLR,,,,,,,,VFR,,,,,,,,,,,,METAR,48.0
KMMK 150053Z AUTO 15004KT 10SM CLR M06/M09 A3012 RMK AO2 SLP201 T10611094,KMMK,2019-01-15T00:53:00Z,41.52,-72.83,-6.1,-9.4,150,4,,10.0,30.121063,1020.1,,TRUE,TRUE,,,,,,,CLR,,,,,,,,VFR,,,,,,,,,,,,SPECI,31.0
KMLU 150053Z 04005KT 10SM HZ OVC020 06/01 A3042 RMK AO2 SLPNO T00560011,KMLU,2019-01-15T00:53:00Z,32.52,-92.03,5.6,1.1,40,5,,10.0,30.41929,,,,TRUE,,,,,,HZ,OVC,2000,,,,,,,MVFR,,,,,,,,,,,,METAR,29.0
KHOT 150053Z AUTO 25003KT 10SM OVC021 05/01 A3039 RMK AO2 SLP293 T00500011,KHOT,2019-01-15T00:53:00Z,34.48,-93.1,5.0,1.1,250,3,,10.0,30.389763,1029.3,,TRUE,TRUE,,,,,,,OVC,2100,,,,,,,MVFR,,,,,,,,,,,,METAR,162.0
KHLN 150053Z 25005KT 9SM CLR M06/M11 A3015 RMK AO2 SLP287 T10611111,KHLN,2019-01-15T00:53:00Z,46.6,-111.98,-6.1,-11.1,250,5,,9.0,30.15059,1028.7,,,TRUE,,,,,,,CLR,,,,,,,,VFR,,,,,,,,,,,,METAR,1182.0
KHLG 150053Z 27004KT 10SM OVC027 M02/M07 A3022 RMK AO2 SLP253 T10171072,KHLG,2019-01-15T00:53:00Z,40.17,-80.65,-1.7,-7.2,270,4,,10.0,30.221457,1025.3,,,TRUE,,,,,,,OVC,2700,,,,,,,MVFR,,,,,,,,,,,,METAR,372.0
KHLC 150053Z AUTO 22007KT 1/4SM FZFG VV002 M01/M01 A3021 RMK AO2 SLP251 I1000 T10111011,KHLC,2019-01-15T00:53:00Z,39.37,-99.83,-1.1,-1.1,220,7,,0.25,30.209646,1025.1,,TRUE,TRUE,,,,,,FZFG,OVX,0,,,,,,,LIFR,,,,,,,,,,,200,METAR,669.0
KHKY 150053Z 09003KT 10SM FEW039 OVC050 05/03 A3017 RMK AO2 SLP214 T00500028,KHKY,2019-01-15T00:53:00Z,35.75,-81.38,5.0,2.8,90,3,,10.0,30.171259,1021.4,,,TRUE,,,,,,,FEW,3900,OVC,5000,,,,,VFR,,,,,,,,,,,,METAR,354.0
KHKS 150053Z 35004KT 10SM OVC017 05/02 A3037 RMK AO2 SLP279 T00500017,KHKS,2019-01-15T00:53:00Z,32.33,-90.22,5.0,1.7,350,4,,10.0,30.369095,1027.9,,,TRUE,,,,,,,OVC,1700,,,,,,,MVFR,,,,,,,,,,,,METAR,108.0
KHKA 150053Z AUTO 06003KT 9SM OVC035 02/M02 A3039 RMK AO2 SLP292 T00221017 $,KHKA,2019-01-15T00:53:00Z,35.93,-89.83,2.2,-1.7,60,3,,9.0,30.389763,1029.2,,TRUE,TRUE,TRUE,,,,,,OVC,3500,,,,,,,VFR,,,,,,,,,,,,METAR,78.0
KHJO 150053Z AUTO 02003KT 10SM BKN070 11/09 A2992 RMK AO2 SLP134 T01060089,KHJO,2019-01-15T00:53:00Z,36.32,-119.62,10.6,8.9,20,3,,10.0,29.920275,1013.4,,TRUE,TRUE,,,,,,,BKN,7000,,,,,,,VFR,,,,,,,,,,,,METAR,74.0
KHIO 150053Z 08012G20KT 10SM CLR 04/M04 A2997 RMK AO2 SLP151 T00441039,KHIO,2019-01-15T00:53:00Z,45.55,-122.95,4.4,-3.9,80,12,20,10.0,29.970472,1015.1,,,TRUE,,,,,,,CLR,,,,,,,,VFR,,,,,,,,,,,,METAR,68.0
KHIB 150053Z AUTO 36003KT 7SM CLR M11/M12 A3018 RMK AO2 SLP251 T11061117,KHIB,2019-01-15T00:53:00Z,47.38,-92.83,-10.6,-11.7,360,3,,7.0,30.180119,1025.1,,TRUE,TRUE,,,,,,,CLR,,,,,,,,VFR,,,,,,,,,,,,METAR,412.0
KHHR 150053Z 09007KT 2SM -RA BR BKN007 OVC014 12/11 A2996 RMK AO2 CIG 005V011 SLP145 P0003 T01170111,KHHR,2019-01-15T00:53:00Z,33.92,-118.33,11.7,11.1,90,7,,2.0,29.958662,1014.5,,,TRUE,,,,,,-RA BR,BKN,700,OVC,1400,,,,,IFR,,,,,,0.03,,,,,,METAR,18.0
KHGR 150053Z 00000KT 10SM CLR M02/M08 A3018 RMK AO2 SLP237 T10171078 $,KHGR,2019-01-15T00:53:00Z,39.7,-77.73,-1.7,-7.8,0,0,,10.0,30.180119,1023.7,,,TRUE,TRUE,,,,,,CLR,,,,,,,,VFR,,,,,,,,,,,,METAR,224.0
KHFD 150053Z 00000KT 10SM CLR M04/M09 A3012 RMK AO2 SLP200 T10391094,KHFD,2019-01-15T00:53:00Z,41.73,-72.65,-3.9,-9.4,0,0,,10.0,30.121063,1020.0,,,TRUE,,,,,,,CLR,,,,,,,,VFR,,,,,,,,,,,,METAR,4.0
KHEI 150053Z AUTO 15006KT 10SM CLR M03/M06 A3012 RMK AO2 SLP237 T10331056,KHEI,2019-01-15T00:53:00Z,46.02,-102.65,-3.3,-5.6,150,6,,10.0,30.121063,1023.7,,TRUE,TRUE,,,,,,,CLR,,,,,,,,VFR,,,,,,,,,,,,METAR,828.0
KHBR 150053Z AUTO 17008KT 8SM CLR 04/01 A3031 RMK AO2 SLP272 T00390011,KHBR,2019-01-15T00:53:00Z,34.98,-99.05,3.9,1.1,170,8,,8.0,30.31004,1027.2,,TRUE,TRUE,,,,,,,CLR,,,,,,,,VFR,,,,,,,,,,,,METAR,473.0
KHBG 150053Z AUTO 35003KT 10SM OVC026 07/02 A3035 RMK AO2 SLP277 T00670017,KHBG,2019-01-15T00:53:00Z,31.27,-89.25,6.7,1.7,350,3,,10.0,30.351377,1027.7,,TRUE,TRUE,,,,,,,OVC,2600,,,,,,,MVFR,,,,,,,,,,,,METAR,44.0
KHAO 150053Z AUTO 00000KT 5SM HZ CLR M09/M12 A3033 RMK AO2 SLP279 I1000 T10941122,KHAO,2019-01-15T00:53:00Z,39.37,-84.52,-9.4,-12.2,0,0,,5.0,30.33071,1027.9,,TRUE,TRUE,,,,,,HZ,CLR,,,,,,,,MVFR,,,,,,,,,,,,METAR,188.0
KGZH 150053Z AUTO VRB03KT 10SM FEW020 OVC028 07/03 A3030 RMK AO2 SLP262 T00670028,KGZH,2019-01-15T00:53:00Z,31.42,-87.05,6.7,2.8,0,3,,10.0,30.301182,1026.2,,TRUE,TRUE,,,,,,,FEW,2000,OVC,2800,,,,,MVFR,,,,,,,,,,,,METAR,78.0
KGWO 150053Z AUTO 02006KT 10SM OVC018 05/01 A3039 RMK AO2 SLP290 T00500006,KGWO,2019-01-15T00:53:00Z,33.5,-90.08,5.0,0.6,20,6,,10.0,30.389763,1029.0,,TRUE,TRUE,,,,,,,OVC,1800,,,,,,,MVFR,,,,,,,,,,,,METAR,44.0
KGVL 150053Z AUTO 31011KT 10SM OVC032 04/02 A3020 RMK AO2 SLP232 T00440017,KGVL,2019-01-15T00:53:00Z,34.27,-83.83,4.4,1.7,310,11,,10.0,30.200787,1023.2,,TRUE,TRUE,,,,,,,OVC,3200,,,,,,,VFR,,,,,,,,,,,,METAR,386.0
KGUY 150053Z AUTO 05005KT 10SM CLR 04/01 A3022 RMK AO2 SLP237 T00440006,KGUY,2019-01-15T00:53:00Z,36.68,-101.5,4.4,0.6,50,5,,10.0,30.221457,1023.7,,TRUE,TRUE,,,,,,,CLR,,,,,,,,VFR,,,,,,,,,,,,METAR,948.0
KGUP 150053Z AUTO 00000KT 10SM CLR 01/M01 A3024 RMK AO2 SLP257 T00061011,KGUP,2019-01-15T00:53:00Z,35.52,-108.8,0.6,-1.1,0,0,,10.0,30.239174,1025.7,,TRUE,TRUE,,,,,,,CLR,,,,,,,,VFR,,,,,,,,,,,,METAR,1971.0
KOLF 150053Z AUTO 31003KT 8SM CLR M07/M08 A3006 RMK AO2 SLP214 T10671083 TSNO,KOLF,2019-01-15T00:53:00Z,48.1,-105.58,-6.7,-8.3,310,3,,8.0,30.059055,1021.4,,TRUE,TRUE,,,TRUE,,,,CLR,,,,,,,,VFR,,,,,,,,,,,,METAR,604.0
KRDD 150053Z VRB03KT 10SM OVC095 15/M01 A2984,KRDD,2019-01-15T00:53:00Z,40.52,-122.3,15.0,-1.0,0,3,,10.0,29.840551,,,,,,,,,,,OVC,9500,,,,,,,VFR,,,,,,,,,,,,METAR,155.0
KLVM 150053Z AUTO 28015KT 10SM CLR 01/M10 A3006 RMK AO2 SLP226 T00111100 $,KLVM,2019-01-15T00:53:00Z,45.7,-110.43,1.1,-10.0,280,15,,10.0,30.059055,1022.6,,TRUE,TRUE,TRUE,,,,,,CLR,,,,,,,,VFR,,,,,,,,,,,,METAR,1418.0
KONT 150053Z 04007KT 3SM -RA BR SCT008 OVC018 11/08 A2998 RMK AO2 RAB28 SLP153 P0001 T01060083,KONT,2019-01-15T00:53:00Z,34.05,-117.58,10.6,8.3,40,7,,3.0,29.97933,1015.3,,,TRUE,,,,,,-RA BR,SCT,800,OVC,1800,,,,,MVFR,,,,,,0.01,,,,,,METAR,274.0
KONO 150053Z AUTO 04003KT 10SM CLR 01/M05 A3023 RMK AO2 SLP260 T00061050,KONO,2019-01-15T00:53:00Z,44.02,-117.02,0.6,-5.0,40,3,,10.0,30.230314,1026.0,,TRUE,TRUE,,,,,,,CLR,,,,,,,,VFR,,,,,,,,,,,,METAR,667.0
KOMK 150053Z AUTO 35004KT 10SM OVC005 M04/M04 A3026 RMK AO2 SLP267 T10391044,KOMK,2019-01-15T00:53:00Z,48.47,-119.52,-3.9,-4.4,350,4,,10.0,30.259842,1026.7,,TRUE,TRUE,,,,,,,OVC,500,,,,,,,IFR,,,,,,,,,,,,METAR,395.0
KRNM 150053Z 04006KT 1 3/4SM -RA BR BKN013 OVC021 10/09 A2997 RMK AO2 SLP145 VSBLY N 2 P0010 T01000089,KRNM,2019-01-15T00:53:00Z,33.03,-116.92,10.0,8.9,40,6,,1.75,29.970472,1014.5,,,TRUE,,,,,,-RA BR,BKN,1300,OVC,2100,,,,,IFR,,,,,,0.1,,,,,,METAR,427.0
KRMG 150053Z AUTO 34006KT 10SM OVC021 05/00 A3028 RMK AO2 SLP251 T00500000,KRMG,2019-01-15T00:53:00Z,34.35,-85.17,5.0,0.0,340,6,,10.0,30.280512,1025.1,,TRUE,TRUE,,,,,,,OVC,2100,,,,,,,MVFR,,,,,,,,,,,,METAR,193.0
KRME 150053Z 00000KT 10SM CLR M09/M11 A3021 RMK AO2 SLP240 T10941111,KRME,2019-01-15T00:53:00Z,43.22,-75.4,-9.4,-11.1,0,0,,10.0,30.209646,1024.0,,,TRUE,,,,,,,CLR,,,,,,,,VFR,,,,,,,,,,,,METAR,154.0
KRKP 150053Z AUTO 02007KT 9SM OVC044 10/04 A3038 RMK AO2 SLP289 T01000039,KRKP,2019-01-15T00:53:00Z,28.08,-97.05,10.0,3.9,20,7,,9.0,30.380905,1028.9,,TRUE,TRUE,,,,,,,OVC,4400,,,,,,,VFR,,,,,,,,,,,,SPECI,6.0
KRIW 150053Z AUTO 29003KT 10SM CLR M13/M17 A3019 RMK AO2 SLP324 T11331167,KRIW,2019-01-15T00:53:00Z,43.07,-108.47,-13.3,-16.7,290,3,,10.0,30.188976,1032.4,,TRUE,TRUE,,,,,,,CLR,,,,,,,,VFR,,,,,,,,,,,,METAR,1697.0
KRAC 150053Z AUTO 26008KT 6SM HZ OVC011 M03/M06 A3026 RMK AO2 SLP256 T10281061,KRAC,2019-01-15T00:53:00Z,42.77,-87.82,-2.8,-6.1,260,8,,6.0,30.259842,1025.6,,TRUE,TRUE,,,,,,HZ,OVC,1100,,,,,,,MVFR,,,,,,,,,,,,METAR,203.0
KPWA 150053Z 19004KT 10SM CLR 02/M01 A3032 RMK AO2 SLP276 T00221011,KPWA,2019-01-15T00:53:00Z,35.53,-97.65,2.2,-1.1,190,4,,10.0,30.318897,1027.6,,,TRUE,,,,,,,CLR,,,,,,,,VFR,,,,,,,,,,,,METAR,397.0
KPUW 150053Z AUTO 32006KT 9SM CLR M03/M04 A3015 RMK AO2 SLP241 T10281039,KPUW,2019-01-15T00:53:00Z,46.75,-117.12,-2.8,-3.9,320,6,,9.0,30.15059,1024.1,,TRUE,TRUE,,,,,,,CLR,,,,,,,,VFR,,,,,,,,,,,,METAR,773.0
KPUB 150053Z 20004KT 10SM CLR 04/M06 A3017 RMK AO2 SLP235 T00441061,KPUB,2019-01-15T00:53:00Z,38.28,-104.5,4.4,-6.1,200,4,,10.0,30.171259,1023.5,,,TRUE,,,,,,,CLR,,,,,,,,VFR,,,,,,,,,,,,METAR,1420.0
KPTK 150053Z 32004KT 10SM BKN029 BKN230 M03/M07 A3020 RMK AO2 SLP243 T10281067,KPTK,2019-01-15T00:53:00Z,42.67,-83.42,-2.8,-6.7,320,4,,10.0,30.200787,1024.3,,,TRUE,,,,,,,BKN,2900,BKN,23000,,,,,MVFR,,,,,,,,,,,,SPECI,299.0
KPSX 150053Z AUTO 35005KT 10SM OVC060 11/06 A3039 RMK AO2 SLP289 T01060056,KPSX,2019-01-15T00:53:00Z,28.72,-96.25,10.6,5.6,350,5,,10.0,30.389763,1028.9,,TRUE,TRUE,,,,,,,OVC,6000,,,,,,,VFR,,,,,,,,,,,,METAR,5.0
KPSP 150053Z 32003KT 4SM -RA BR OVC060 11/09 A3005 RMK AO2 SLP178 P0010 T01110094,KPSP,2019-01-15T00:53:00Z,33.82,-116.5,11.1,9.4,320,3,,4.0,30.050198,1017.8,,,TRUE,,,,,,-RA BR,OVC,6000,,,,,,,MVFR,,,,,,0.1,,,,,,METAR,135.0
KPRB 150053Z AUTO 16009KT 10SM -RA FEW032 BKN049 OVC070 10/08 A2989 RMK AO2 RAB00 SLP120 P0006 T01000083,KPRB,2019-01-15T00:53:00Z,35.67,-120.63,10.0,8.3,160,9,,10.0,29.890747,1012.0,,TRUE,TRUE,,,,,,-RA,FEW,3200,BKN,4900,OVC,7000,,,VFR,,,,,,0.06,,,,,,METAR,245.0
KPQL 150053Z 01005KT 10SM OVC024 07/02 A3033 RMK AO2 SLP273 T00720022,KPQL,2019-01-15T00:53:00Z,30.47,-88.53,7.2,2.2,10,5,,10.0,30.33071,1027.3,,,TRUE,,,,,,,OVC,2400,,,,,,,MVFR,,,,,,,,,,,,SPECI,6.0
KPOU 150053Z 00000KT 10SM CLR M07/M11 A3015 RMK AO2 SLP209 T10671111,KPOU,2019-01-15T00:53:00Z,41.63,-73.88,-6.7,-11.1,0,0,,10.0,30.15059,1020.9,,,TRUE,,,,,,,CLR,,,,,,,,VFR,,,,,,,,,,,,SPECI,46.0
KOPF 150053Z 36004KT 10SM FU CLR 20/13 A3012 RMK AO2 SLP202 T02000128,KOPF,2019-01-15T00:53:00Z,25.92,-80.28,20.0,12.8,360,4,,10.0,30.121063,1020.2,,,TRUE,,,,,,FU,CLR,,,,,,,,VFR,,,,,,,,,,,,SPECI,16.0
KRTN 150053Z AUTO 04008KT 10SM FEW120 02/M07 A3018 RMK AO2 SLP230 T00171067,KRTN,2019-01-15T00:53:00Z,36.73,-104.5,1.7,-6.7,40,8,,10.0,30.180119,1023.0,,TRUE,TRUE,,,,,,,FEW,12000,,,,,,,VFR,,,,,,,,,,,,METAR,1936.0
KRSW 150053Z 32006KT 10SM CLR 16/12 A3015 RMK AO2 SLP207 T01560122,KRSW,2019-01-15T00:53:00Z,26.53,-81.75,15.6,12.2,320,6,,10.0,30.15059,1020.7,,,TRUE,,,,,,,CLR,,,,,,,,VFR,,,,,,,,,,,,METAR,10.0
KRSL 150053Z AUTO 24007KT 2SM BR OVC002 00/00 A3024 RMK AO2 SLP258 T00000000,KRSL,2019-01-15T00:53:00Z,38.87,-98.82,0.0,0.0,240,7,,2.0,30.239174,1025.8,,TRUE,TRUE,,,,,,BR,OVC,200,,,,,,,LIFR,,,,,,,,,,,,METAR,567.0
KRQE 150053Z AUTO 13003KT 10SM BKN012 02/00 A3024 RMK AO2 SLP235 T00170000,KRQE,2019-01-15T00:53:00Z,35.65,-109.07,1.7,0.0,130,3,,10.0,30.239174,1023.5,,TRUE,TRUE,,,,,,,BKN,1200,,,,,,,MVFR,,,,,,,,,,,,METAR,2055.0
KRNT 150053Z 17003KT 10SM CLR 07/03 A2997 RMK AO2 SLP152 T00720028,KRNT,2019-01-15T00:53:00Z,47.5,-122.22,7.2,2.8,170,3,,10.0,29.970472,1015.2,,,TRUE,,,,,,,CLR,,,,,,,,VFR,,,,,,,,,,,,METAR,21.0
KRUE 150053Z AUTO 25003KT 10SM OVC019 04/00 A3039 RMK AO2 SLP288 T00390000,KRUE,2019-01-15T00:53:00Z,35.25,-93.1,3.9,0.0,250,3,,10.0,30.389763,1028.8,,TRUE,TRUE,,,,,,,OVC,1900,,,,,,,MVFR,,,,,,,,,,,,METAR,115.0
KRWF 150053Z AUTO 31003KT 10SM OVC009 M03/M04 A3023 RMK AO2 SLP252 T10281039,KRWF,2019-01-15T00:53:00Z,44.55,-95.08,-2.8,-3.9,310,3,,10.0,30.230314,1025.2,,TRUE,TRUE,,,,,,,OVC,900,,,,,,,IFR,,,,,,,,,,,,METAR,311.0
KSTP 150053Z 33004KT 10SM OVC018 M01/M04 A3024 RMK AO2 SLP249 T10111044,KSTP,2019-01-15T00:53:00Z,44.93,-93.05,-1.1,-4.4,330,4,,10.0,30.239174,1024.9,,,TRUE,,,,,,,OVC,1800,,,,,,,MVFR,,,,,,,,,,,,METAR,219.0
KSTJ 150053Z AUTO 20006KT 4SM BR OVC004 M01/M01 A3032 RMK AO2 SLP277 T10111011,KSTJ,2019-01-15T00:53:00Z,39.77,-94.92,-1.1,-1.1,200,6,,4.0,30.318897,1027.7,,TRUE,TRUE,,,,,,BR,OVC,400,,,,,,,LIFR,,,,,,,,,,,,METAR,247.0
KSTS 150053Z 12009KT 10SM BKN040 12/06 A2982 RMK AO2 SLP094 T01220056,KSTS,2019-01-15T00:53:00Z,38.5,-122.82,12.2,5.6,120,9,,10.0,29.819881,1009.4,,,TRUE,,,,,,,BKN,4000,,,,,,,VFR,,,,,,,,,,,,METAR,39.0
KSUN 150053Z 00000KT 10SM SCT130 M03/M09 A3019,KSUN,2019-01-15T00:53:00Z,43.5,-114.28,-3.0,-9.0,0,0,,10.0,30.188976,,,,,,,,,,,SCT,13000,,,,,,,VFR,,,,,,,,,,,,METAR,1620.0
KSWO 150053Z 12005KT 10SM CLR 03/M01 A3033 RMK AO2 SLP275 T00281011,KSWO,2019-01-15T00:53:00Z,36.17,-97.08,2.8,-1.1,120,5,,10.0,30.33071,1027.5,,,TRUE,,,,,,,CLR,,,,,,,,VFR,,,,,,,,,,,,METAR,290.0
KTCC 150053Z AUTO 21005KT 10SM CLR 06/01 A3017 RMK AO2 SLP219 T00610006,KTCC,2019-01-15T00:53:00Z,35.18,-103.6,6.1,0.6,210,5,,10.0,30.171259,1021.9,,TRUE,TRUE,,,,,,,CLR,,,,,,,,VFR,,,,,,,,,,,,METAR,1235.0
KTCL 150053Z 34008KT 10SM OVC015 05/01 A3036 RMK AO2 SLP279 T00500011,KTCL,2019-01-15T00:53:00Z,33.22,-87.62,5.0,1.1,340,8,,10.0,30.360237,1027.9,,,TRUE,,,,,,,OVC,1500,,,,,,,MVFR,,,,,,,,,,,,METAR,49.0
KTCS 150053Z AUTO 01003KT 10SM CLR 10/02 A3021 RMK AO2 SLP208 T01000017,KTCS,2019-01-15T00:53:00Z,33.23,-107.27,10.0,1.7,10,3,,10.0,30.209646,1020.8,,TRUE,TRUE,,,,,,,CLR,,,,,,,,VFR,,,,,,,,,,,,METAR,1469.0
PABT 150053Z 35008KT 10SM FEW048 FEW250 M17/M20 A3009 RMK AO2 SLP214 T11671200 PNO,PABT,2019-01-15T00:53:00Z,66.92,-151.52,-16.7,-20.0,350,8,,10.0,30.088583,1021.4,,,TRUE,,,,,,,FEW,4800,FEW,25000,,,,,VFR,,,,,,,,,,,,METAR,195.0
KBRL 150053Z AUTO 27005KT 7SM OVC006 M02/M04 A3030 RMK AO2 SLP271 T10221044,KBRL,2019-01-15T00:53:00Z,40.77,-91.13,-2.2,-4.4,270,5,,7.0,30.301182,1027.1,,TRUE,TRUE,,,,,,,OVC,600,,,,,,,IFR,,,,,,,,,,,,METAR,211.0
KPIR 150053Z AUTO 16005KT 9SM OVC003 M05/M05 A3020 RMK AO2 SLP253 I1000 T10501050,KPIR,2019-01-15T00:53:00Z,44.38,-100.28,-5.0,-5.0,160,5,,9.0,30.200787,1025.3,,TRUE,TRUE,,,,,,,OVC,300,,,,,,,LIFR,,,,,,,,,,,,METAR,526.0
KMSS 150053Z AUTO 00000KT 10SM CLR M11/M13 A3021 RMK AO2 SLP242 T11061133,KMSS,2019-01-15T00:53:00Z,44.93,-74.85,-10.6,-13.3,0,0,,10.0,30.209646,1024.2,,TRUE,TRUE,,,,,,,CLR,,,,,,,,VFR,,,,,,,,,,,,METAR,66.0
KMLT 150053Z AUTO 00000KT 10SM CLR M17/M19 A3007 RMK AO2 SLP200 I1000 T11671194,KMLT,2019-01-15T00:53:00Z,45.65,-68.7,-16.7,-19.4,0,0,,10.0,30.070866,1020.0,,TRUE,TRUE,,,,,,,CLR,,,,,,,,VFR,,,,,,,,,,,,METAR,123.0
KLXT 150053Z AUTO 24006KT 5SM BR OVC003 M02/M02 A3032 RMK AO2 SLP280 T10171017,KLXT,2019-01-15T00:53:00Z,38.97,-94.37,-1.7,-1.7,240,6,,5.0,30.318897,1028.0,,TRUE,TRUE,,,,,,BR,OVC,300,,,,,,,LIFR,,,,,,,,,,,,METAR,306.0
KLSE 150053Z 18006KT 3SM BR BKN005 OVC015 M02/M03 A3023 RMK AO2 SLP254 I1001 T10221028,KLSE,2019-01-15T00:53:00Z,43.88,-91.25,-2.2,-2.8,180,6,,3.0,30.230314,1025.4,,,TRUE,,,,,,BR,BKN,500,OVC,1500,,,,,IFR,,,,,,,,,,,,METAR,199.0
KLKV 150053Z AUTO 11012G19KT 10SM CLR 02/M07 A2994 RMK AO2 SLP177 T00171072 FZRANO,KLKV,2019-01-15T00:53:00Z,42.17,-120.4,1.7,-7.2,110,12,19,10.0,29.940945,1017.7,,TRUE,TRUE,,,,TRUE,,,CLR,,,,,,,,VFR,,,,,,,,,,,,METAR,1441.0
KGFL 150053Z AUTO 00000KT 10SM CLR M09/M12 A3017 RMK AO2 SLP229 T10891117,KGFL,2019-01-15T00:53:00Z,43.33,-73.62,-8.9,-11.7,0,0,,10.0,30.171259,1022.9,,TRUE,TRUE,,,,,,,CLR,,,,,,,,VFR,,,,,,,,,,,,METAR,103.0
KFLD 150053Z AUTO 27006KT 10SM OVC021 M02/M06 A3021 RMK AO2 SLP241 T10221056,KFLD,2019-01-15T00:53:00Z,43.77,-88.48,-2.2,-5.6,270,6,,10.0,30.209646,1024.1,,TRUE,TRUE,,,,,,,OVC,2100,,,,,,,MVFR,,,,,,,,,,,,METAR,240.0
KELY 150053Z AUTO 34005KT 10SM CLR M06/M07 A3012 RMK AO2 SLP244 T10561072,KELY,2019-01-15T00:53:00Z,39.3,-114.85,-5.6,-7.2,340,5,,10.0,30.121063,1024.4,,TRUE,TRUE,,,,,,,CLR,,,,,,,,VFR,,,,,,,,,,,,METAR,1906.0
KCMX 150053Z AUTO 36003KT 10SM SCT015 OVC022 M02/M06 A3015 RMK AO2 SLP224 T10221061,KCMX,2019-01-15T00:53:00Z,47.17,-88.48,-2.2,-6.1,360,3,,10.0,30.15059,1022.4,,TRUE,TRUE,,,,,,,SCT,1500,OVC,2200,,,,,MVFR,,,,,,,,,,,,METAR,326.0
KRVS 150053Z 00000KT 10SM CLR M01/M02 A3037 RMK AO2 SLP293 T10061022,KRVS,2019-01-15T00:53:00Z,36.05,-95.98,-0.6,-2.2,0,0,,10.0,30.369095,1029.3,,,TRUE,,,,,,,CLR,,,,,,,,VFR,,,,,,,,,,,,METAR,200.0
KSDB 150053Z AUTO 11006KT 6SM -RA BR SCT010 BKN016 OVC023 02/01 A2993 RMK AO2 UPB2356E2358B23E24B41E47RAB2358 SLP129 P0001 T00170011,KSDB,2019-01-15T00:53:00Z,34.75,-118.72,1.7,1.1,110,6,,6.0,29.929134,1012.9,,TRUE,TRUE,,,,,,-RA BR,SCT,1000,BKN,1600,OVC,2300,,,MVFR,,,,,,0.01,,,,,,METAR,1377.0
KOQT 150053Z AUTO 00000KT 10SM OVC020 03/M01 A3028 RMK AO2 SLP267 T00281006,KOQT,2019-01-15T00:53:00Z,36.02,-84.23,2.8,-0.6,0,0,,10.0,30.280512,1026.7,,TRUE,TRUE,,,,,,,OVC,2000,,,,,,,MVFR,,,,,,,,,,,,METAR,277.0
KP92 150053Z AUTO 00000KT A3035 RMK AO1 SLP279 $,KP92,2019-01-15T00:53:00Z,29.57,-91.53,,,0,0,,,30.351377,1027.9,,TRUE,TRUE,TRUE,,,,,,,,,,,,,,,,,,,,,,,,,,METAR,1.0
TJNR 150053Z AUTO 06007KT 10SM FEW028 SCT033 BKN045 24/19 A3008 RMK AO2 SLP184 T02440194,TJNR,2019-01-15T00:53:00Z,18.25,-65.63,24.4,19.4,60,7,,10.0,30.079725,1018.4,,TRUE,TRUE,,,,,,,FEW,2800,SCT,3300,BKN,4500,,,VFR,,,,,,,,,,,,METAR,12.0
KNIP 150053Z 34009KT 10SM OVC018 11/06 A3022 RMK AO2 SLP229 T01060061,KNIP,2019-01-15T00:53:00Z,30.22,-81.67,10.6,6.1,340,9,,10.0,30.221457,1022.9,,,TRUE,,,,,,,OVC,1800,,,,,,,MVFR,,,,,,,,,,,,METAR,7.0
KNUI 150053Z AUTO 00000KT 7SM CLR M03/M05 A3020 RMK AO2 SLP226 T10281050,KNUI,2019-01-15T00:53:00Z,38.15,-76.43,-2.8,-5.0,0,0,,7.0,30.200787,1022.6,,TRUE,TRUE,,,,,,,CLR,,,,,,,,VFR,,,,,,,,,,,,METAR,7.0
KTWF 150053Z 07003KT 10SM CLR M02/M04 A3016 RMK AO2 SLP240 T10221039,KTWF,2019-01-15T00:53:00Z,42.48,-114.48,-2.2,-3.9,70,3,,10.0,30.159449,1024.0,,,TRUE,,,,,,,CLR,,,,,,,,VFR,,,,,,,,,,,,METAR,1266.0
PACV 150053Z 00000KT 10SM OVC055 01/M01 A3000 RMK AO2 SLP161 T00061006,PACV,2019-01-15T00:53:00Z,60.5,-145.47,0.6,-0.6,0,0,,10.0,30.0,1016.1,,,TRUE,,,,,,,OVC,5500,,,,,,,VFR,,,,,,,,,,,,METAR,12.0
PADE 150053Z AUTO 06009KT 10SM BKN100 A2978 RMK AO2 SLP086 TSNO $,PADE,2019-01-15T00:53:00Z,66.07,-162.77,,,60,9,,10.0,29.778543,1008.6,,TRUE,TRUE,TRUE,,TRUE,,,,BKN,10000,,,,,,,VFR,,,,,,,,,,,,METAR,5.0
PAEG 150053Z AUTO 12011G20KT 090V160 10SM SCT024 M13/M17 A3013 RMK AO2 SLP224 T11281172 TSNO,PAEG,2019-01-15T00:53:00Z,64.78,-141.15,-12.8,-17.2,120,11,20,10.0,30.129921,1022.4,,TRUE,TRUE,,,TRUE,,,,SCT,2400,,,,,,,VFR,,,,,,,,,,,,METAR,268.0
PAEN 150053Z 03006KT 10SM FEW090 M01/M03 A2990 RMK AO2 SLP127 T10061028,PAEN,2019-01-15T00:53:00Z,60.57,-151.25,-0.6,-2.8,30,6,,10.0,29.899607,1012.7,,,TRUE,,,,,,,FEW,9000,,,,,,,VFR,,,,,,,,,,,,METAR,27.0
PAFA 150053Z 00000KT 10SM FEW120 BKN200 M19/M22 A3003 RMK AO2 SLP184 T11941222 PNO,PAFA,2019-01-15T00:53:00Z,64.8,-147.85,-19.4,-22.2,0,0,,10.0,30.029528,1018.4,,,TRUE,,,,,,,FEW,12000,BKN,20000,,,,,VFR,,,,,,,,,,,,METAR,132.0
PAGY 150053Z AUTO 00000KT 10SM FEW014 OVC030 02/01 A3012 RMK AO2 SLP198 T00220011 TSNO,PAGY,2019-01-15T00:53:00Z,59.47,-135.3,2.2,1.1,0,0,,10.0,30.121063,1019.8,,TRUE,TRUE,,,TRUE,,,,FEW,1400,OVC,3000,,,,,MVFR,,,,,,,,,,,,METAR,5.0
KLNS 150053Z 28005KT 10SM CLR M03/M11 A3017 RMK AO2 SLP221 T10331106,KLNS,2019-01-15T00:53:00Z,40.12,-76.3,-3.3,-10.6,280,5,,10.0,30.171259,1022.1,,,TRUE,,,,,,,CLR,,,,,,,,VFR,,,,,,,,,,,,METAR,125.0
PAKV 150053Z AUTO 05011KT 10SM CLR M07/M12 A2989 RMK AO2 SLP127 T10721117 TSNO,PAKV,2019-01-15T00:53:00Z,64.33,-158.75,-7.2,-11.7,50,11,,10.0,29.890747,1012.7,,TRUE,TRUE,,,TRUE,,,,CLR,,,,,,,,VFR,,,,,,,,,,,,METAR,61.0
PAKT 150053Z 00000KT 10SM FEW003 BKN070 06/06 A3001 RMK AO2 SLP163 HARBOR WIND 12004KT T00610056,PAKT,2019-01-15T00:53:00Z,55.35,-131.7,6.1,5.6,0,0,,10.0,30.008858,1016.3,,,TRUE,,,,,,,FEW,300,BKN,7000,,,,,VFR,,,,,,,,,,,,METAR,28.0
PAJN 150053Z 00000KT 1/2SM R08/P6000FT BR BKN002 OVC007 02/02 A3008 RMK AO2 SFC VIS 3/4 SLP186 T00170017,PAJN,2019-01-15T00:53:00Z,58.35,-134.58,1.7,1.7,0,0,,0.5,30.079725,1018.6,,,TRUE,,,,,,BR,BKN,200,OVC,700,,,,,LIFR,,,,,,,,,,,,METAR,5.0
PAIL 150053Z 09020G29KT 10SM BKN035 BKN043 BKN100 04/02 A2970 RMK AO2 PK WND 09031/0037 RAE31 SLP058 P0000 T00390017 $,PAIL,2019-01-15T00:53:00Z,59.75,-154.92,3.9,1.7,90,20,29,10.0,29.698818,1005.8,,,TRUE,TRUE,,,,,,BKN,3500,BKN,4300,BKN,10000,,,VFR,,,,,,0.005,,,,,,METAR,49.0
PAHO 150053Z 08007KT 10SM CLR 06/00 A2985 RMK AO2 SLP108 T00560000,PAHO,2019-01-15T00:53:00Z,59.63,-151.47,5.6,0.0,80,7,,10.0,29.84941,1010.8,,,TRUE,,,,,,,CLR,,,,,,,,VFR,,,,,,,,,,,,METAR,28.0
PAMR 150053Z 36006KT 10SM FEW090 M03/M07 A2994 RMK AO2 SLP140 T10281067,PAMR,2019-01-15T00:53:00Z,61.22,-149.85,-2.8,-6.7,360,6,,10.0,29.940945,1014.0,,,TRUE,,,,,,,FEW,9000,,,,,,,VFR,,,,,,,,,,,,METAR,41.0
PAMC 150053Z AUTO VRB06KT 10SM CLR M20/M22 A2985 RMK AO2 SLP120 T12001217 TSNO $,PAMC,2019-01-15T00:53:00Z,62.97,-155.62,-20.0,-21.7,0,6,,10.0,29.84941,1012.0,,TRUE,TRUE,TRUE,,TRUE,,,,CLR,,,,,,,,VFR,,,,,,,,,,,,METAR,103.0
PASI 150053Z 34004KT 10SM SCT050 BKN065 OVC250 07/06 A2998 RMK AO2 SLP152 T00670056 $,PASI,2019-01-15T00:53:00Z,57.07,-135.35,6.7,5.6,340,4,,10.0,29.97933,1015.2,,,TRUE,TRUE,,,,,,SCT,5000,BKN,6500,OVC,25000,,,VFR,,,,,,,,,,,,METAR,5.0
PASN 150053Z AUTO 13014KT 4SM -SN BR FEW010 SCT016 OVC023 01/00 A2884 RMK AO2 RAB2354E05B22E33UPB21E40SNB05E21B40 SLP767 P0001 T00110000 FZRANO TSNO $,PASN,2019-01-15T00:53:00Z,57.15,-170.22,1.1,0.0,130,14,,4.0,28.839567,976.7,,TRUE,TRUE,TRUE,,TRUE,TRUE,,-SN BR,FEW,1000,SCT,1600,OVC,2300,,,MVFR,,,,,,0.01,,,,,,METAR,29.0
PASO 150053Z AUTO 00000KT 10SM FEW049 02/01 A2983 RMK AO2 SLP103 T00220011 TSNO,PASO,2019-01-15T00:53:00Z,59.45,-151.7,2.2,1.1,0,0,,10.0,29.828741,1010.3,,TRUE,TRUE,,,TRUE,,,,FEW,4900,,,,,,,VFR,,,,,,,,,,,,METAR,9.0
PATK 150053Z 01005KT 10SM CLR M01/M08 A2997 RMK AO2 SLP157 T10111083,PATK,2019-01-15T00:53:00Z,62.3,-150.1,-1.1,-8.3,10,5,,10.0,29.970472,1015.7,,,TRUE,,,,,,,CLR,,,,,,,,VFR,,,,,,,,,,,,METAR,109.0
PATO 150053Z AUTO 14008KT 10SM SCT037 OVC055 04/00 A2999 RMK AO2 SLP155 T00390000 TSNO,PATO,2019-01-15T00:53:00Z,60.78,-148.85,3.9,0.0,140,8,,10.0,29.991142,1015.5,,TRUE,TRUE,,,TRUE,,,,SCT,3700,OVC,5500,,,,,VFR,,,,,,,,,,,,METAR,31.0
PAVL 150053Z AUTO 07012KT 7SM CLR M06/M08 A2985 RMK AO2 SLP107 T10561083 TSNO $,PAVL,2019-01-15T00:53:00Z,67.73,-164.55,-5.6,-8.3,70,12,,7.0,29.84941,1010.7,,TRUE,TRUE,TRUE,,TRUE,,,,CLR,,,,,,,,VFR,,,,,,,,,,,,METAR,3.0
PAWI 150053Z AUTO 09029G35KT 1/4SM UP VV004 M22/M24 A3007 RMK AO2 PK WND 09037/0000 UPB18SNE18B34E45 SLP183 P0000 T12171244 TSNO,PAWI,2019-01-15T00:53:00Z,70.62,-159.85,-21.7,-24.4,90,29,35,0.25,30.070866,1018.3,,TRUE,TRUE,,,TRUE,,,UP,OVX,0,,,,,,,LIFR,,,,,,0.005,,,,,400,METAR,27.0
PAYA 150053Z AUTO 07004KT 2 1/2SM BR OVC013 03/02 A3002 RMK AO2 SLP165 T00330022 TSNO,PAYA,2019-01-15T00:53:00Z,59.52,-139.67,3.3,2.2,70,4,,2.5,30.02067,1016.5,,TRUE,TRUE,,,TRUE,,,BR,OVC,1300,,,,,,,IFR,,,,,,,,,,,,METAR,11.0
KFOZ 150053Z AUTO 00000KT 10SM CLR M12/M13 A3019 RMK AO2,KFOZ,2019-01-15T00:53:00Z,47.77,-93.65,-12.0,-13.0,0,0,,10.0,30.188976,,,TRUE,TRUE,,,,,,,CLR,,,,,,,,VFR,,,,,,,,,,,,METAR,411.0
PASC 150053Z 09030KT 1/2SM R06/3000V4500FT BLSN FZFG VV003 M23/M26 A3025 RMK AO2 PK WND 08038/0024 SLP246 T12281261,PASC,2019-01-15T00:53:00Z,70.2,-148.47,-22.8,-26.1,90,30,,0.5,30.250984,1024.6,,,TRUE,,,,,,BLSN FZFG,OVX,0,,,,,,,LIFR,,,,,,,,,,,300,METAR,15.0
PAOT 150053Z 11023KT 10SM CLR M07/M09 A2986 RMK AO2 PK WND 10029/0022 SLP110 T10671094 VISNO E,PAOT,2019-01-15T00:53:00Z,66.87,-162.58,-6.7,-9.4,110,23,,10.0,29.861221,1011.0,,,TRUE,,,,,,,CLR,,,,,,,,VFR,,,,,,,,,,,,METAR,3.0
PAOR 150053Z 00000KT 10SM FEW170 SCT200 SCT230 M28/M31 A3014 RMK AO2 SLP293 T12781311,PAOR,2019-01-15T00:53:00Z,62.97,-141.93,-27.8,-31.1,0,0,,10.0,30.138779,1029.3,,,TRUE,,,,,,,FEW,17000,SCT,20000,SCT,23000,,,VFR,,,,,,,,,,,,METAR,523.0
PAOM 150053Z 09014KT 10SM FEW028 OVC039 M01/M04 A2959 RMK AO2 PK WND 10032/0010 SNB30E41 SLP019 P0000 T10111039 $,PAOM,2019-01-15T00:53:00Z,64.5,-165.43,-1.1,-3.9,90,14,,10.0,29.589567,1001.9,,,TRUE,TRUE,,,,,,FEW,2800,OVC,3900,,,,,VFR,,,,,,0.005,,,,,,METAR,11.0
TISX 150053Z 03005KT 10SM CLR 23/21 A3006 RMK AO2 SLP179 T02280206 PNO,TISX,2019-01-15T00:53:00Z,17.7,-64.8,22.8,20.6,30,5,,10.0,30.059055,1017.9,,,TRUE,,,,,,,CLR,,,,,,,,VFR,,,,,,,,,,,,METAR,19.0
YBCS 150053Z AUTO 16007KT 9999 -SHRA SCT024 BKN039 BKN053 28/25 Q1011 INTER 0053/0353 14015G25KT 4000 SHRA FEW008 BKN018,YBCS,2019-01-15T00:53:00Z,-16.87,145.75,28.0,25.0,160,7,,6.21,29.852362,,,TRUE,,,,,,,-SHRA,SCT,2400,BKN,3900,BKN,5300,,,VFR,,,,,,,,,,,,SPECI,7.0
TIST 150053Z 08005KT 10SM CLR 24/20 A3006 RMK AO2 SLP179 T02390200,TIST,2019-01-15T00:53:00Z,18.33,-64.98,23.9,20.0,80,5,,10.0,30.059055,1017.9,,,TRUE,,,,,,,CLR,,,,,,,,VFR,,,,,,,,,,,,METAR,7.0
PALH 150053Z 02004KT 10SM CLR M03/M08 A2995 RMK AO2 SLP144 T10331078,PALH,2019-01-15T00:53:00Z,61.18,-149.97,-3.3,-7.8,20,4,,10.0,29.949802,1014.4,,,TRUE,,,,,,,CLR,,,,,,,,VFR,,,,,,,,,,,,METAR,22.0
PACD 150053Z 15018G28KT 10SM SCT024 04/02 A2905 RMK AO2 PK WND 14030/0031 RAE07 PRESRR SLP839 P0001 T00390022 $,PACD,2019-01-15T00:53:00Z,55.2,-162.72,3.9,2.2,150,18,28,10.0,29.049213,983.9,,,TRUE,TRUE,,,,,,SCT,2400,,,,,,,VFR,,,,,,0.01,,,,,,METAR,30.0
KMYP 150053Z AUTO 26022KT 10SM CLR M09/M20 A3034 RMK AO2,KMYP,2019-01-15T00:53:00Z,38.48,-106.32,-9.0,-20.0,260,22,,10.0,30.339567,,,TRUE,TRUE,,,,,,,CLR,,,,,,,,VFR,,,,,,,,,,,,METAR,3667.0
PANN 150053Z AUTO 07011KT 10SM UP CLR M08/M14 A2997 RMK AO2 UPE26B50 SLP164 P0000 T10831144 TSNO,PANN,2019-01-15T00:53:00Z,64.55,-149.08,-8.3,-14.4,70,11,,10.0,29.970472,1016.4,,TRUE,TRUE,,,TRUE,,,UP,CLR,,,,,,,,VFR,,,,,,0.005,,,,,,METAR,110.0
PANC 150053Z 00000KT 10SM FEW090 BKN220 M02/M07 A2994 RMK AO2 SLP140 T10221067,PANC,2019-01-15T00:53:00Z,61.17,-150.0,-2.2,-6.7,0,0,,10.0,29.940945,1014.0,,,TRUE,,,,,,,FEW,9000,BKN,22000,,,,,VFR,,,,,,,,,,,,METAR,38.0
KPBG 150053Z AUTO 00000KT 10SM CLR M12/M13 A3017 RMK AO2 SLP223 I1000 T11221133,KPBG,2019-01-15T00:53:00Z,44.65,-73.47,-12.2,-13.3,0,0,,10.0,30.171259,1022.3,,TRUE,TRUE,,,,,,,CLR,,,,,,,,VFR,,,,,,,,,,,,METAR,72.0
KPBI 150053Z 33006KT 10SM FEW250 17/13 A3013 RMK AO2 SLP203 T01670128 $,KPBI,2019-01-15T00:53:00Z,26.68,-80.1,16.7,12.8,330,6,,10.0,30.129921,1020.3,,,TRUE,TRUE,,,,,,FEW,25000,,,,,,,VFR,,,,,,,,,,,,METAR,6.0
KPDK 150053Z 33012KT 9SM SCT020 OVC026 04/01 A3023 RMK AO2 SLP248 T00440006,KPDK,2019-01-15T00:53:00Z,33.88,-84.3,4.4,0.6,330,12,,9.0,30.230314,1024.8,,,TRUE,,,,,,,SCT,2000,OVC,2600,,,,,MVFR,,,,,,,,,,,,METAR,302.0
KPKD 150053Z AUTO 00000KT 9SM CLR M10/M12 A3019 RMK AO2 SLP252 T11001122,KPKD,2019-01-15T00:53:00Z,46.9,-95.07,-10.0,-12.2,0,0,,9.0,30.188976,1025.2,,TRUE,TRUE,,,,,,,CLR,,,,,,,,VFR,,,,,,,,,,,,METAR,442.0
ETIH 150053Z AUTO 29009KT 9999 -RA BKN032 OVC055 00/00 A3001 RMK AO2 SNE24UPB24E34RAB34E49RAB53 SLP186 $,ETIH,2019-01-15T00:53:00Z,49.22,11.82,0.0,0.0,290,9,,6.21,30.008858,1018.6,,TRUE,TRUE,TRUE,,,,,-RA,BKN,3200,OVC,5500,,,,,VFR,,,,,,,,,,,,SPECI,442.0
EGVA 150053Z AUTO 27010KT 1000 R27/0600VP1500 BR CLR 02/01 A3019 RMK AO2 SLP230 $,EGVA,2019-01-15T00:53:00Z,51.67,-1.77,2.0,1.0,270,10,,0.62,30.188976,1023.0,,TRUE,TRUE,TRUE,,,,,BR,CLR,,,,,,,,LIFR,,,,,,,,,,,,SPECI,87.0
EBBL 150053Z AUTO 23006KT 7000 FEW036/// BKN140/// 02/02 Q1021 WHT,EBBL,2019-01-15T00:53:00Z,51.17,5.47,2.0,2.0,230,6,,4.35,30.147638,,,TRUE,,,,,,,,FEW,3600,BKN,14000,,,,,MVFR,,,,,,,,,,,,SPECI,64.0
KDXR 150053Z AUTO 28003KT 10SM CLR M04/M12 A3012 RMK AO2 SLP206 T10441122,KDXR,2019-01-15T00:53:00Z,41.37,-73.48,-4.4,-12.2,280,3,,10.0,30.121063,1020.6,,TRUE,TRUE,,,,,,,CLR,,,,,,,,VFR,,,,,,,,,,,,METAR,139.0
KDWH 150053Z 36003KT 10SM CLR 09/03 A3038 RMK AO2 SLP287 T00890028,KDWH,2019-01-15T00:53:00Z,30.07,-95.55,8.9,2.8,360,3,,10.0,30.380905,1028.7,,,TRUE,,,,,,,CLR,,,,,,,,VFR,,,,,,,,,,,,SPECI,46.0
KDVT 150053Z 08005KT 10SM BKN100 18/07 A3005 RMK AO2 SLP165 T01780067,KDVT,2019-01-15T00:53:00Z,33.68,-112.07,17.8,6.7,80,5,,10.0,30.050198,1016.5,,,TRUE,,,,,,,BKN,10000,,,,,,,VFR,,,,,,,,,,,,METAR,443.0
KDUJ 150053Z AUTO 25007KT 10SM CLR M04/M10 A3013 RMK AO2 SLP234 T10391100,KDUJ,2019-01-15T00:53:00Z,41.17,-78.9,-3.9,-10.0,250,7,,10.0,30.129921,1023.4,,TRUE,TRUE,,,,,,,CLR,,,,,,,,VFR,,,,,,,,,,,,METAR,554.0
KDTW 150053Z 23007KT 9SM FEW250 M04/M08 A3024 RMK AO2 SLP250 T10391083,KDTW,2019-01-15T00:53:00Z,42.23,-83.33,-3.9,-8.3,230,7,,9.0,30.239174,1025.0,,,TRUE,,,,,,,FEW,25000,,,,,,,VFR,,,,,,,,,,,,METAR,195.0
KDTS 150053Z 36010KT 10SM OVC16 07/03 A3029,KDTS,2019-01-15T00:53:00Z,30.4,-86.47,7.0,3.0,360,10,,10.0,30.28937,,,,,,,,,,,,,,,,,,,,,,,,,,,,,,,METAR,5.0
KCQC 150053Z AUTO 28007KT 10SM CLR M02/M04 A3026 RMK AO2 SLP266 T10221039,KCQC,2019-01-15T00:53:00Z,35.0,-105.67,-2.2,-3.9,280,7,,10.0,30.259842,1026.6,,TRUE,TRUE,,,,,,,CLR,,,,,,,,VFR,,,,,,,,,,,,METAR,2160.0
KBTR 150053Z 01004KT 10SM OVC019 06/02 A3037 RMK AO2 SLP283 T00610022,KBTR,2019-01-15T00:53:00Z,30.53,-91.15,6.1,2.2,10,4,,10.0,30.369095,1028.3,,,TRUE,,,,,,,OVC,1900,,,,,,,MVFR,,,,,,,,,,,,METAR,21.0
KBTM 150053Z AUTO 15003KT 10SM CLR M13/M19 A3011 RMK AO2 SLP312 T11331189,KBTM,2019-01-15T00:53:00Z,45.97,-112.5,-13.3,-18.9,150,3,,10.0,30.109253,1031.2,,TRUE,TRUE,,,,,,,CLR,,,,,,,,VFR,,,,,,,,,,,,METAR,1688.0
KBTL 150053Z 25006KT 10SM OVC012 M03/M06 A3025 RMK AO2 SLP258 T10281056,KBTL,2019-01-15T00:53:00Z,42.32,-85.23,-2.8,-5.6,250,6,,10.0,30.250984,1025.8,,,TRUE,,,,,,,OVC,1200,,,,,,,MVFR,,,,,,,,,,,,METAR,290.0
KBRO 150053Z 35007KT 10SM BKN005 BKN021 OVC027 14/13 A3031 RMK AO2 SLP263 T01390133,KBRO,2019-01-15T00:53:00Z,25.92,-97.42,13.9,13.3,350,7,,10.0,30.31004,1026.3,,,TRUE,,,,,,,BKN,500,BKN,2100,OVC,2700,,,IFR,,,,,,,,,,,,METAR,7.0
KBRD 150053Z AUTO 00000KT 7SM CLR M07/M11 A3021 RMK AO2 SLP253 T10721106,KBRD,2019-01-15T00:53:00Z,46.4,-94.13,-7.2,-10.6,0,0,,7.0,30.209646,1025.3,,TRUE,TRUE,,,,,,,CLR,,,,,,,,VFR,,,,,,,,,,,,METAR,372.0
KBPT 150053Z 05005KT 10SM CLR 09/03 A3037 RMK AO2 SLP284 T00890033 $,KBPT,2019-01-15T00:53:00Z,29.95,-94.03,8.9,3.3,50,5,,10.0,30.369095,1028.4,,,TRUE,TRUE,,,,,,CLR,,,,,,,,VFR,,,,,,,,,,,,METAR,5.0
KBPK 150053Z AUTO 00000KT 10SM OVC017 02/M02 A3035 RMK AO2 SLP282 T00171017,KBPK,2019-01-15T00:53:00Z,36.37,-92.47,1.7,-1.7,0,0,,10.0,30.351377,1028.2,,TRUE,TRUE,,,,,,,OVC,1700,,,,,,,MVFR,,,,,,,,,,,,METAR,280.0
KBPI 150053Z AUTO 00000KT 10SM CLR M14/M18 A3024 RMK AO2 SLP358 T11441183,KBPI,2019-01-15T00:53:00Z,42.58,-110.1,-14.4,-18.3,0,0,,10.0,30.239174,1035.8,,TRUE,TRUE,,,,,,,CLR,,,,,,,,VFR,,,,,,,,,,,,METAR,2117.0
KBOI 150053Z 31003KT 10SM CLR 00/M06 A3018 RMK AO2 SLP246 T00001056,KBOI,2019-01-15T00:53:00Z,43.57,-116.23,0.0,-5.6,310,3,,10.0,30.180119,1024.6,,,TRUE,,,,,,,CLR,,,,,,,,VFR,,,,,,,,,,,,METAR,875.0
KBNO 150053Z AUTO 05009KT 10SM CLR M02/M08 A3006 RMK AO2 SLP216 T10171083,KBNO,2019-01-15T00:53:00Z,43.6,-118.95,-1.7,-8.3,50,9,,10.0,30.059055,1021.6,,TRUE,TRUE,,,,,,,CLR,,,,,,,,VFR,,,,,,,,,,,,METAR,1264.0
KBNA 150053Z 32007KT 9SM BKN020 OVC027 03/M02 A3033 RMK AO2 SLP276 T00281017,KBNA,2019-01-15T00:53:00Z,36.12,-86.68,2.8,-1.7,320,7,,9.0,30.33071,1027.6,,,TRUE,,,,,,,BKN,2000,OVC,2700,,,,,MVFR,,,,,,,,,,,,METAR,210.0
KBMQ 150053Z AUTO 00000KT 10SM OVC050 07/02 A3038 RMK AO2 SLP289 T00670022,KBMQ,2019-01-15T00:53:00Z,30.73,-98.23,6.7,2.2,0,0,,10.0,30.380905,1028.9,,TRUE,TRUE,,,,,,,OVC,5000,,,,,,,VFR,,,,,,,,,,,,METAR,389.0
KBMG 150053Z 00000KT 10SM CLR M05/M07 A3031 RMK AO2 SLP275 T10501072,KBMG,2019-01-15T00:53:00Z,39.15,-86.62,-5.0,-7.2,0,0,,10.0,30.31004,1027.5,,,TRUE,,,,,,,CLR,,,,,,,,VFR,,,,,,,,,,,,METAR,257.0
KBLI 150053Z 00000KT 3SM BR SCT001 03/02 A2997 RMK AO2 SLP159 T00330022,KBLI,2019-01-15T00:53:00Z,48.8,-122.53,3.3,2.2,0,0,,3.0,29.970472,1015.9,,,TRUE,,,,,,BR,SCT,100,,,,,,,MVFR,,,,,,,,,,,,METAR,50.0
KBKV 150053Z 00000KT 10SM CLR 11/08 A3020 RMK AO2 SLP225 T01060078,KBKV,2019-01-15T00:53:00Z,28.47,-82.45,10.6,7.8,0,0,,10.0,30.200787,1022.5,,,TRUE,,,,,,,CLR,,,,,,,,VFR,,,,,,,,,,,,METAR,20.0
KBKL 150053Z 22010KT 10SM BKN020 M04/M08 A3026 RMK AO2 SLP255 T10441083,KBKL,2019-01-15T00:53:00Z,41.53,-81.67,-4.4,-8.3,220,10,,10.0,30.259842,1025.5,,,TRUE,,,,,,,BKN,2000,,,,,,,MVFR,,,,,,,,,,,,METAR,184.0
KBKE 150053Z AUTO 14008KT 10SM CLR M01/M06 A3014 RMK AO2 SLP237 T10061056,KBKE,2019-01-15T00:53:00Z,44.85,-117.82,-0.6,-5.6,140,8,,10.0,30.138779,1023.7,,TRUE,TRUE,,,,,,,CLR,,,,,,,,VFR,,,,,,,,,,,,METAR,1024.0
KBIV 150053Z AUTO 25009KT 9SM OVC013 M01/M04 A3024 RMK AO2 SLP251 T10061039,KBIV,2019-01-15T00:53:00Z,42.75,-86.1,-0.6,-3.9,250,9,,9.0,30.239174,1025.1,,TRUE,TRUE,,,,,,,OVC,1300,,,,,,,MVFR,,,,,,,,,,,,METAR,208.0
KBIL 150053Z 23020KT 10SM CLR 03/M10 A3004 RMK AO2 SLP202 T00331100,KBIL,2019-01-15T00:53:00Z,45.8,-108.55,3.3,-10.0,230,20,,10.0,30.041338,1020.2,,,TRUE,,,,,,,CLR,,,,,,,,VFR,,,,,,,,,,,,METAR,1091.0
KBHM 150053Z 34007KT 10SM OVC015 03/00 A3034 RMK AO2 SLP277 T00330000,KBHM,2019-01-15T00:53:00Z,33.57,-86.75,3.3,0.0,340,7,,10.0,30.339567,1027.7,,,TRUE,,,,,,,OVC,1500,,,,,,,MVFR,,,,,,,,,,,,METAR,197.0
KBGR 150053Z 00000KT 10SM FEW250 M12/M14 A3009 RMK AO2 SLP197 T11221144,KBGR,2019-01-15T00:53:00Z,44.8,-68.82,-12.2,-14.4,0,0,,10.0,30.088583,1019.7,,,TRUE,,,,,,,FEW,25000,,,,,,,VFR,,,,,,,,,,,,METAR,57.0
KBGM 150053Z 32004KT 10SM CLR M06/M16 A3010 RMK AO2 SLP223 T10611156,KBGM,2019-01-15T00:53:00Z,42.22,-75.98,-6.1,-15.6,320,4,,10.0,30.100393,1022.3,,,TRUE,,,,,,,CLR,,,,,,,,VFR,,,,,,,,,,,,METAR,490.0
KBFM 150053Z 34009KT 10SM OVC023 07/03 A3034 RMK AO2 SLP273 T00720028,KBFM,2019-01-15T00:53:00Z,30.62,-88.07,7.2,2.8,340,9,,10.0,30.339567,1027.3,,,TRUE,,,,,,,OVC,2300,,,,,,,MVFR,,,,,,,,,,,,METAR,20.0
KBFI 150053Z 00000KT 10SM SCT200 08/02 A2997 RMK AO2 SLP147 T00830017,KBFI,2019-01-15T00:53:00Z,47.55,-122.32,8.3,1.7,0,0,,10.0,29.970472,1014.7,,,TRUE,,,,,,,SCT,20000,,,,,,,VFR,,,,,,,,,,,,METAR,4.0
KBFF 150053Z AUTO 30008KT 10SM CLR 01/M11 A3015 RMK AO2 SLP254 T00111111,KBFF,2019-01-15T00:53:00Z,41.87,-103.58,1.1,-11.1,300,8,,10.0,30.15059,1025.4,,TRUE,TRUE,,,,,,,CLR,,,,,,,,VFR,,,,,,,,,,,,METAR,1203.0
KBFD 150053Z AUTO 30006KT 10SM CLR M04/M13 A3011 RMK AO2 SLP235 T10441128,KBFD,2019-01-15T00:53:00Z,41.8,-78.63,-4.4,-12.8,300,6,,10.0,30.109253,1023.5,,TRUE,TRUE,,,,,,,CLR,,,,,,,,VFR,,,,,,,,,,,,METAR,647.0
KBEH 150053Z AUTO 22007KT 7SM OVC011 M02/M05 A3026 RMK AO2 SLP258 T10171050,KBEH,2019-01-15T00:53:00Z,42.13,-86.42,-1.7,-5.0,220,7,,7.0,30.259842,1025.8,,TRUE,TRUE,,,,,,,OVC,1100,,,,,,,MVFR,,,,,,,,,,,,METAR,191.0
KBDE 150053Z AUTO 00000KT 7SM CLR M13/M15 A3020 RMK AO2 SLP253 I1001 T11331150,KBDE,2019-01-15T00:53:00Z,48.73,-94.62,-13.3,-15.0,0,0,,7.0,30.200787,1025.3,,TRUE,TRUE,,,,,,,CLR,,,,,,,,VFR,,,,,,,,,,,,METAR,329.0
KBCE 150053Z AUTO 18007KT 10SM OVC023 M02/M05 A3019 RMK AO2 SLP212 T10171050,KBCE,2019-01-15T00:53:00Z,37.7,-112.15,-1.7,-5.0,180,7,,10.0,30.188976,1021.2,,TRUE,TRUE,,,,,,,OVC,2300,,,,,,,MVFR,,,,,,,,,,,,METAR,2312.0
KBBW 150053Z AUTO 34003KT 10SM CLR M02/M04 A3015 RMK AO2 SLP237 T10171039,KBBW,2019-01-15T00:53:00Z,41.43,-99.63,-1.7,-3.9,340,3,,10.0,30.15059,1023.7,,TRUE,TRUE,,,,,,,CLR,,,,,,,,VFR,,,,,,,,,,,,METAR,776.0
KBAF 150053Z 00000KT 10SM CLR M06/M12 A3010 RMK AO2 SLP204 T10611117,KBAF,2019-01-15T00:53:00Z,42.17,-72.72,-6.1,-11.7,0,0,,10.0,30.100393,1020.4,,,TRUE,,,,,,,CLR,,,,,,,,VFR,,,,,,,,,,,,METAR,83.0
KAZO 150053Z 23006KT 10SM OVC013 M03/M06 A3025 RMK AO2 SLP259 T10281056,KAZO,2019-01-15T00:53:00Z,42.23,-85.55,-2.8,-5.6,230,6,,10.0,30.250984,1025.9,,,TRUE,,,,,,,OVC,1300,,,,,,,MVFR,,,,,,,,,,,,METAR,272.0
KAXN 150053Z AUTO 31004KT 10SM SCT011 M04/M08 A3022 RMK AO2 SLP256 T10441078,KAXN,2019-01-15T00:53:00Z,45.87,-95.4,-4.4,-7.8,310,4,,10.0,30.221457,1025.6,,TRUE,TRUE,,,,,,,SCT,1100,,,,,,,VFR,,,,,,,,,,,,METAR,433.0
KAWM 150053Z AUTO 02003KT 8SM BKN017 OVC032 05/02 A3038 RMK AO2 SLP288 T00500022 $,KAWM,2019-01-15T00:53:00Z,35.13,-90.23,5.0,2.2,20,3,,8.0,30.380905,1028.8,,TRUE,TRUE,TRUE,,,,,,BKN,1700,OVC,3200,,,,,MVFR,,,,,,,,,,,,METAR,65.0
KAUS 150053Z 00000KT 10SM OVC055 10/03 A3038 RMK AO2 SLP292 T01000028,KAUS,2019-01-15T00:53:00Z,30.18,-97.68,10.0,2.8,0,0,,10.0,30.380905,1029.2,,,TRUE,,,,,,,OVC,5500,,,,,,,VFR,,,,,,,,,,,,METAR,166.0
KAUG 150053Z AUTO 00000KT 10SM CLR M10/M14 A3008 RMK AO2 SLP196 T11001144,KAUG,2019-01-15T00:53:00Z,44.32,-69.8,-10.0,-14.4,0,0,,10.0,30.079725,1019.6,,TRUE,TRUE,,,,,,,CLR,,,,,,,,VFR,,,,,,,,,,,,METAR,109.0
KATY 150053Z AUTO 04004KT 1/4SM FZFG VV002 M06/M07 A3020 RMK AO2 SLP254 I1002 T10611072,KATY,2019-01-15T00:53:00Z,44.9,-97.15,-6.1,-7.2,40,4,,0.25,30.200787,1025.4,,TRUE,TRUE,,,,,,FZFG,OVX,0,,,,,,,LIFR,,,,,,,,,,,200,METAR,532.0
KASX 150053Z AUTO 23005KT 9SM OVC024 M05/M06 A3022 RMK AO2 SLP246 T10501061,KASX,2019-01-15T00:53:00Z,46.55,-90.92,-5.0,-6.1,230,5,,9.0,30.221457,1024.6,,TRUE,TRUE,,,,,,,OVC,2400,,,,,,,MVFR,,,,,,,,,,,,METAR,251.0
KASE 150053Z 20008KT 10SM CLR M07/M13 A3025 RMK AO2 SLP298 T10671128,KASE,2019-01-15T00:53:00Z,39.23,-106.87,-6.7,-12.8,200,8,,10.0,30.250984,1029.8,,,TRUE,,,,,,,CLR,,,,,,,,VFR,,,,,,,,,,,,METAR,2354.0
KASD 150053Z AUTO 34003KT 10SM OVC021 06/02 A3035 RMK AO2 SLP277 T00610022,KASD,2019-01-15T00:53:00Z,30.35,-89.82,6.1,2.2,340,3,,10.0,30.351377,1027.7,,TRUE,TRUE,,,,,,,OVC,2100,,,,,,,MVFR,,,,,,,,,,,,METAR,9.0
KARB 150053Z AUTO 23005KT 10SM CLR M06/M08 A3023 RMK AO2 SLP253 T10561078,KARB,2019-01-15T00:53:00Z,42.22,-83.73,-5.6,-7.8,230,5,,10.0,30.230314,1025.3,,TRUE,TRUE,,,,,,,CLR,,,,,,,,VFR,,,,,,,,,,,,METAR,251.0
KARA 150053Z 01009KT 10SM OVC020 06/01 A3037 RMK AO2 SLP282 T00610011,KARA,2019-01-15T00:53:00Z,30.03,-91.88,6.1,1.1,10,9,,10.0,30.369095,1028.2,,,TRUE,,,,,,,OVC,2000,,,,,,,MVFR,,,,,,,,,,,,METAR,18.0
KAPF 150053Z 31006KT 10SM CLR 17/13 A3014 RMK AO2 SLP206 T01720133,KAPF,2019-01-15T00:53:00Z,26.15,-81.77,17.2,13.3,310,6,,10.0,30.138779,1020.6,,,TRUE,,,,,,,CLR,,,,,,,,VFR,,,,,,,,,,,,METAR,3.0
KAPA 150053Z 19004KT 10SM FEW220 M01/M14 A3017 RMK AO2 SLP272 T10111139,KAPA,2019-01-15T00:53:00Z,39.57,-104.85,-1.1,-13.9,190,4,,10.0,30.171259,1027.2,,,TRUE,,,,,,,FEW,22000,,,,,,,VFR,,,,,,,,,,,,METAR,1775.0
KAOO 150053Z AUTO 00000KT 10SM CLR M06/M10 A3015 RMK AO2 SLP233 T10561100,KAOO,2019-01-15T00:53:00Z,40.3,-78.32,-5.6,-10.0,0,0,,10.0,30.15059,1023.3,,TRUE,TRUE,,,,,,,CLR,,,,,,,,VFR,,,,,,,,,,,,METAR,455.0
KAOH 150053Z AUTO 21004KT 5SM BR CLR M07/M09 A3027 RMK AO2 SLP264 T10721094,KAOH,2019-01-15T00:53:00Z,40.7,-84.02,-7.2,-9.4,210,4,,5.0,30.268702,1026.4,,TRUE,TRUE,,,,,,BR,CLR,,,,,,,,MVFR,,,,,,,,,,,,METAR,296.0
KANB 150053Z AUTO 35008KT 10SM OVC014 04/01 A3030 RMK AO2 SLP269 T00390006,KANB,2019-01-15T00:53:00Z,33.58,-85.85,3.9,0.6,350,8,,10.0,30.301182,1026.9,,TRUE,TRUE,,,,,,,OVC,1400,,,,,,,MVFR,,,,,,,,,,,,METAR,183.0
KAMW 150053Z AUTO 25007KT 5SM BR OVC005 M01/M02 A3026 RMK AO2 SLP255 T10111022,KAMW,2019-01-15T00:53:00Z,41.98,-93.62,-1.1,-2.2,250,7,,5.0,30.259842,1025.5,,TRUE,TRUE,,,,,,BR,OVC,500,,,,,,,IFR,,,,,,,,,,,,METAR,279.0
KAMG 150053Z AUTO 31003KT 10SM OVC021 09/05 A3022 RMK AO2 SLP235 T00940050,KAMG,2019-01-15T00:53:00Z,31.53,-82.5,9.4,5.0,310,3,,10.0,30.221457,1023.5,,TRUE,TRUE,,,,,,,OVC,2100,,,,,,,MVFR,,,,,,,,,,,,METAR,59.0
KAMA 150053Z 15007KT 10SM CLR 07/01 A3019 RMK AO2 SLP230 T00720006,KAMA,2019-01-15T00:53:00Z,35.22,-101.72,7.2,0.6,150,7,,10.0,30.188976,1023.0,,,TRUE,,,,,,,CLR,,,,,,,,VFR,,,,,,,,,,,,METAR,1093.0
KALW 150053Z 00000KT 10SM OVC011 M01/M04 A3022 RMK AO2 SLP246 T10111044,KALW,2019-01-15T00:53:00Z,46.1,-118.28,-1.1,-4.4,0,0,,10.0,30.221457,1024.6,,,TRUE,,,,,,,OVC,1100,,,,,,,MVFR,,,,,,,,,,,,METAR,363.0
KALI 150053Z AUTO 07005KT 10SM BKN038 OVC045 10/03 A3037 RMK AO2 SLP284 T01000033,KALI,2019-01-15T00:53:00Z,27.73,-98.02,10.0,3.3,70,5,,10.0,30.369095,1028.4,,TRUE,TRUE,,,,,,,BKN,3800,OVC,4500,,,,,VFR,,,,,,,,,,,,METAR,53.0
KAKO 150053Z AUTO 27008KT 10SM CLR M01/M10 A3015 RMK AO2 SLP250 T10111100,KAKO,2019-01-15T00:53:00Z,40.17,-103.22,-1.1,-10.0,270,8,,10.0,30.15059,1025.0,,TRUE,TRUE,,,,,,,CLR,,,,,,,,VFR,,,,,,,,,,,,METAR,1421.0
KAIA 150053Z AUTO 00000KT 10SM CLR M03/M12 A3013 RMK AO2 SLP257 T10281117,KAIA,2019-01-15T00:53:00Z,42.05,-102.8,-2.8,-11.7,0,0,,10.0,30.129921,1025.7,,TRUE,TRUE,,,,,,,CLR,,,,,,,,VFR,,,,,,,,,,,,METAR,1196.0
KAGS 150053Z 13003KT 10SM BKN020 BKN029 OVC040 08/06 A3021 RMK AO2 SLP231 T00830056,KAGS,2019-01-15T00:53:00Z,33.37,-81.97,8.3,5.6,130,3,,10.0,30.209646,1023.1,,,TRUE,,,,,,,BKN,2000,BKN,2900,OVC,4000,,,MVFR,,,,,,,,,,,,METAR,44.0
KAGC 150053Z 28006KT 10SM OVC030 M01/M06 A3020 RMK AO2 SLP247 T10111061,KAGC,2019-01-15T00:53:00Z,40.35,-79.92,-1.1,-6.1,280,6,,10.0,30.200787,1024.7,,,TRUE,,,,,,,OVC,3000,,,,,,,MVFR,,,,,,,,,,,,METAR,389.0
KAFW 150053Z 09004KT 10SM FEW300 06/M01 A3037 RMK AO2 SLP291 T00561006,KAFW,2019-01-15T00:53:00Z,32.97,-97.32,5.6,-0.6,90,4,,10.0,30.369095,1029.1,,,TRUE,,,,,,,FEW,30000,,,,,,,VFR,,,,,,,,,,,,METAR,233.0
KAEX 150053Z 35006KT 10SM OVC017 05/01 A3039 RMK AO2 SLP296 T00500011,KAEX,2019-01-15T00:53:00Z,31.33,-92.57,5.0,1.1,350,6,,10.0,30.389763,1029.6,,,TRUE,,,,,,,OVC,1700,,,,,,,MVFR,,,,,,,,,,,,METAR,27.0
KADG 150053Z AUTO 28006KT 10SM OVC024 M02/M07 A3026 RMK AO2 SLP262 T10221072 TSNO,KADG,2019-01-15T00:53:00Z,41.87,-84.08,-2.2,-7.2,280,6,,10.0,30.259842,1026.2,,TRUE,TRUE,,,TRUE,,,,OVC,2400,,,,,,,MVFR,,,,,,,,,,,,METAR,241.0
KACV 150053Z AUTO 07004KT 10SM OVC100 14/02 A2978 RMK AO2 SLP089 T01390022,KACV,2019-01-15T00:53:00Z,40.98,-124.1,13.9,2.2,70,4,,10.0,29.778543,1008.9,,TRUE,TRUE,,,,,,,OVC,10000,,,,,,,VFR,,,,,,,,,,,,METAR,67.0
KACK 150053Z 36012KT 10SM OVC023 M01/M06 A3006 RMK AO2 SLP178 T10061056,KACK,2019-01-15T00:53:00Z,41.25,-70.07,-0.6,-5.6,360,12,,10.0,30.059055,1017.8,,,TRUE,,,,,,,OVC,2300,,,,,,,MVFR,,,,,,,,,,,,METAR,16.0
KABY 150053Z AUTO 00000KT 10SM OVC032 08/04 A3027 RMK AO2 SLP250 T00780039,KABY,2019-01-15T00:53:00Z,31.53,-84.2,7.8,3.9,0,0,,10.0,30.268702,1025.0,,TRUE,TRUE,,,,,,,OVC,3200,,,,,,,VFR,,,,,,,,,,,,METAR,58.0
KABR 150053Z AUTO 10005KT 4SM BR OVC003 M06/M07 A3024 RMK AO2 SLP260 T10611067,KABR,2019-01-15T00:53:00Z,45.45,-98.42,-6.1,-6.7,100,5,,4.0,30.239174,1026.0,,TRUE,TRUE,,,,,,BR,OVC,300,,,,,,,LIFR,,,,,,,,,,,,METAR,397.0
KAAF 150053Z AUTO 35006KT 10SM OVC023 08/03 A3025 RMK AO2 SLP243 T00830033,KAAF,2019-01-15T00:53:00Z,29.73,-85.03,8.3,3.3,350,6,,10.0,30.250984,1024.3,,TRUE,TRUE,,,,,,,OVC,2300,,,,,,,MVFR,,,,,,,,,,,,METAR,5.0
KCRG 150053Z 02005KT 10SM OVC015 09/06 A3022 RMK AO2 SLP233 T00890061,KCRG,2019-01-15T00:53:00Z,30.33,-81.52,8.9,6.1,20,5,,10.0,30.221457,1023.3,,,TRUE,,,,,,,OVC,1500,,,,,,,MVFR,,,,,,,,,,,,METAR,13.0
KCRE 150053Z 35004KT 10SM OVC014 04/01 A3023 RMK AO1 SLP236 T00390011,KCRE,2019-01-15T00:53:00Z,33.82,-78.72,3.9,1.1,350,4,,10.0,30.230314,1023.6,,,TRUE,,,,,,,OVC,1400,,,,,,,MVFR,,,,,,,,,,,,METAR,10.0
KCPS 150053Z 24003KT 10SM OVC018 01/M03 A3035 RMK AO2 SLP282 T00061028,KCPS,2019-01-15T00:53:00Z,38.57,-90.15,0.6,-2.8,240,3,,10.0,30.351377,1028.2,,,TRUE,,,,,,,OVC,1800,,,,,,,MVFR,,,,,,,,,,,,METAR,126.0
KCPR 150053Z 22013KT 10SM CLR M03/M11 A3017 RMK AO2 SLP263 T10281111,KCPR,2019-01-15T00:53:00Z,42.9,-106.47,-2.8,-11.1,220,13,,10.0,30.171259,1026.3,,,TRUE,,,,,,,CLR,,,,,,,,VFR,,,,,,,,,,,,METAR,1621.0
KCOT 150053Z AUTO 11004KT 10SM SCT037 OVC046 09/03 A3038 RMK AO2 SLP286 T00890033,KCOT,2019-01-15T00:53:00Z,28.45,-99.22,8.9,3.3,110,4,,10.0,30.380905,1028.6,,TRUE,TRUE,,,,,,,SCT,3700,OVC,4600,,,,,VFR,,,,,,,,,,,,METAR,140.0
KCNY 150053Z AUTO 30004KT 10SM CLR M04/M07 A3027 RMK AO2 SLP293 T10441072,KCNY,2019-01-15T00:53:00Z,38.77,-109.75,-4.4,-7.2,300,4,,10.0,30.268702,1029.3,,TRUE,TRUE,,,,,,,CLR,,,,,,,,VFR,,,,,,,,,,,,METAR,1390.0
KCNO 150053Z 08006KT 1 1/2SM RA BR OVC018 12/10 A2999 RMK AO2 RAB20 SLP154 P0001 T01170100,KCNO,2019-01-15T00:53:00Z,33.98,-117.62,11.7,10.0,80,6,,1.5,29.991142,1015.4,,,TRUE,,,,,,RA BR,OVC,1800,,,,,,,IFR,,,,,,0.01,,,,,,METAR,207.0
KCNM 150053Z AUTO 11006KT 10SM OVC014 03/01 A3028 RMK AO2 SLP254 T00280006,KCNM,2019-01-15T00:53:00Z,32.33,-104.25,2.8,0.6,110,6,,10.0,30.280512,1025.4,,TRUE,TRUE,,,,,,,OVC,1400,,,,,,,MVFR,,,,,,,,,,,,METAR,985.0
KCMI 150053Z 22004KT 5SM BR OVC008 M06/M07 A3032 RMK AO2 SLP284 T10611072,KCMI,2019-01-15T00:53:00Z,40.03,-88.27,-6.1,-7.2,220,4,,5.0,30.318897,1028.4,,,TRUE,,,,,,BR,OVC,800,,,,,,,IFR,,,,,,,,,,,,METAR,228.0
KCLM 150053Z AUTO 00000KT 8SM CLR 03/02 A2997 RMK AO2 SLP151 T00280022,KCLM,2019-01-15T00:53:00Z,48.12,-123.5,2.8,2.2,0,0,,8.0,29.970472,1015.1,,TRUE,TRUE,,,,,,,CLR,,,,,,,,VFR,,,,,,,,,,,,METAR,85.0
KCLL 150053Z 32005KT 10SM CLR 07/03 A3039 RMK AO2 SLP290 T00720028,KCLL,2019-01-15T00:53:00Z,30.58,-96.37,7.2,2.8,320,5,,10.0,30.389763,1029.0,,,TRUE,,,,,,,CLR,,,,,,,,VFR,,,,,,,,,,,,METAR,96.0
KCKB 150053Z 25005KT 5SM HZ FEW009 OVC016 M01/M03 A3023 RMK AO2 SNE22 SLP244 P0000 T10061033,KCKB,2019-01-15T00:53:00Z,39.3,-80.22,-0.6,-3.3,250,5,,5.0,30.230314,1024.4,,,TRUE,,,,,,HZ,FEW,900,OVC,1600,,,,,MVFR,,,,,,0.005,,,,,,METAR,360.0
KCHO 150053Z 22003KT 10SM OVC085 01/M04 A3019 RMK AO2 SLP225 T00111044,KCHO,2019-01-15T00:53:00Z,38.13,-78.45,1.1,-4.4,220,3,,10.0,30.188976,1022.5,,,TRUE,,,,,,,OVC,8500,,,,,,,VFR,,,,,,,,,,,,METAR,192.0
KCHA 150053Z 33008KT 10SM OVC022 04/M01 A3029 RMK AO2 SLP258 T00441006,KCHA,2019-01-15T00:53:00Z,35.03,-85.2,4.4,-0.6,330,8,,10.0,30.28937,1025.8,,,TRUE,,,,,,,OVC,2200,,,,,,,MVFR,,,,,,,,,,,,METAR,210.0
KCGI 150053Z AUTO 00000KT 9SM OVC023 02/M02 A3037 RMK AO2 SLP285 T00171017,KCGI,2019-01-15T00:53:00Z,37.23,-89.58,1.7,-1.7,0,0,,9.0,30.369095,1028.5,,TRUE,TRUE,,,,,,,OVC,2300,,,,,,,MVFR,,,,,,,,,,,,METAR,102.0
KCEZ 150053Z AUTO 07005KT 10SM OVC060 01/M03 A3024 RMK AO2 SLP253 T00061028,KCEZ,2019-01-15T00:53:00Z,37.3,-108.63,0.6,-2.8,70,5,,10.0,30.239174,1025.3,,TRUE,TRUE,,,,,,,OVC,6000,,,,,,,VFR,,,,,,,,,,,,METAR,1797.0
KCEW 150053Z AUTO 01004KT 10SM OVC016 06/03 A3031 RMK AO2 SLP262 T00610028,KCEW,2019-01-15T00:53:00Z,30.78,-86.52,6.1,2.8,10,4,,10.0,30.31004,1026.2,,TRUE,TRUE,,,,,,,OVC,1600,,,,,,,MVFR,,,,,,,,,,,,METAR,55.0
KCDW 150053Z 00000KT 10SM CLR M04/M11 A3015 RMK AO2 SLP219 T10441106,KCDW,2019-01-15T00:53:00Z,40.88,-74.28,-4.4,-10.6,0,0,,10.0,30.15059,1021.9,,,TRUE,,,,,,,CLR,,,,,,,,VFR,,,,,,,,,,,,METAR,64.0
KCDS 150053Z AUTO 16009KT 10SM CLR 08/02 A3028 RMK AO2 SLP259 T00780022,KCDS,2019-01-15T00:53:00Z,34.43,-100.28,7.8,2.2,160,9,,10.0,30.280512,1025.9,,TRUE,TRUE,,,,,,,CLR,,,,,,,,VFR,,,,,,,,,,,,METAR,594.0
KMWT 150053Z AUTO 00000KT 10SM OVC018 04/M01 A3036 RMK AO2 SLP289 T00391006 ,KMWT,2019-01-15T00:53:00Z,34.55,-93.58,3.9,-0.6,0,0,,10.0,30.360237,1028.9,,TRUE,TRUE,,,,,,,OVC,1800,,,,,,,MVFR,,,,,,,,,,,,METAR,214.0
KDCU 150053Z AUTO 35005KT 10SM OVC027 03/00 A3033 RMK AO2 SLP274 T00330000,KDCU,2019-01-15T00:53:00Z,34.65,-86.95,3.3,0.0,350,5,,10.0,30.33071,1027.4,,TRUE,TRUE,,,,,,,OVC,2700,,,,,,,MVFR,,,,,,,,,,,,METAR,176.0
KIXD 150053Z 22009KT 5SM BR OVC003 M02/M02 A3032 RMK AO2 SLP279 T10171017,KIXD,2019-01-15T00:53:00Z,38.82,-94.88,-1.7,-1.7,220,9,,5.0,30.318897,1027.9,,,TRUE,,,,,,BR,OVC,300,,,,,,,LIFR,,,,,,,,,,,,METAR,342.0
KOSH 150053Z 26006KT 6SM HZ OVC015 M02/M05 A3020 RMK AO2 SLP244 T10221050,KOSH,2019-01-15T00:53:00Z,43.97,-88.55,-2.2,-5.0,260,6,,6.0,30.200787,1024.4,,,TRUE,,,,,,HZ,OVC,1500,,,,,,,MVFR,,,,,,,,,,,,METAR,248.0
KORL 150053Z 01005KT 10SM CLR 13/08 A3018 RMK AO2 SLP225 T01280078,KORL,2019-01-15T00:53:00Z,28.55,-81.33,12.8,7.8,10,5,,10.0,30.180119,1022.5,,,TRUE,,,,,,,CLR,,,,,,,,VFR,,,,,,,,,,,,METAR,37.0
KJKL 150053Z AUTO 30003KT 5SM BR BKN004 OVC009 M01/M02 A3026 RMK AO2 SLP259 I1000 T10111017,KJKL,2019-01-15T00:53:00Z,37.6,-83.32,-1.1,-1.7,300,3,,5.0,30.259842,1025.9,,TRUE,TRUE,,,,,,BR,BKN,400,OVC,900,,,,,LIFR,,,,,,,,,,,,METAR,416.0
KJER 150053Z AUTO 06018G21KT 10SM CLR M02/M07 A3016 RMK AO2 SLP251 T10171067,KJER,2019-01-15T00:53:00Z,42.72,-114.45,-1.7,-6.7,60,18,21,10.0,30.159449,1025.1,,TRUE,TRUE,,,,,,,CLR,,,,,,,,VFR,,,,,,,,,,,,METAR,1222.0
KJEF 150053Z 23008KT 10SM OVC009 M01/M03 A3036 RMK AO2 SLP276 T10061028,KJEF,2019-01-15T00:53:00Z,38.6,-92.15,-0.6,-2.8,230,8,,10.0,30.360237,1027.6,,,TRUE,,,,,,,OVC,900,,,,,,,IFR,,,,,,,,,,,,METAR,168.0
KJBR 150053Z AUTO 00000KT 10SM OVC026 04/01 A3038 RMK AO2 SLP287 T00390006,KJBR,2019-01-15T00:53:00Z,35.83,-90.65,3.9,0.6,0,0,,10.0,30.380905,1028.7,,TRUE,TRUE,,,,,,,OVC,2600,,,,,,,MVFR,,,,,,,,,,,,METAR,79.0
KMYV 150053Z AUTO 00000KT 10SM OVC070 11/07 A2991 RMK AO2 RAE42 SLP131 P0000 T01060072,KMYV,2019-01-15T00:53:00Z,39.1,-121.57,10.6,7.2,0,0,,10.0,29.911417,1013.1,,TRUE,TRUE,,,,,,,OVC,7000,,,,,,,VFR,,,,,,0.005,,,,,,METAR,21.0
KNEW 150053Z 36011KT 9SM OVC018 07/02 A3036 RMK AO2 SLP274 T00670022,KNEW,2019-01-15T00:53:00Z,30.05,-90.03,6.7,2.2,360,11,,9.0,30.360237,1027.4,,,TRUE,,,,,,,OVC,1800,,,,,,,MVFR,,,,,,,,,,,,SPECI,3.0
KPSC 150053Z 32007KT 10SM OVC018 01/M02 A3028 RMK AO2 SLP256 T00061017,KPSC,2019-01-15T00:53:00Z,46.27,-119.12,0.6,-1.7,320,7,,10.0,30.280512,1025.6,,,TRUE,,,,,,,OVC,1800,,,,,,,MVFR,,,,,,,,,,,,METAR,121.0
KPRC 150053Z 15010KT 10SM SCT050 BKN085 08/03 A3012 RMK AO2 SLP182 T00780028,KPRC,2019-01-15T00:53:00Z,34.65,-112.42,7.8,2.8,150,10,,10.0,30.121063,1018.2,,,TRUE,,,,,,,SCT,5000,BKN,8500,,,,,VFR,,,,,,,,,,,,METAR,1524.0
PAGK 150053Z AUTO 00000KT 10SM CLR M21/M23 A3008 RMK AO2 SLP258 T12061228 TSNO,PAGK,2019-01-15T00:53:00Z,62.15,-145.45,-20.6,-22.8,0,0,,10.0,30.079725,1025.8,,TRUE,TRUE,,,TRUE,,,,CLR,,,,,,,,VFR,,,,,,,,,,,,METAR,481.0
KRIL 150053Z AUTO 13003KT 10SM CLR M04/M10 A3028 RMK AO2 SLP314 T10391100,KRIL,2019-01-15T00:53:00Z,39.53,-107.73,-3.9,-10.0,130,3,,10.0,30.280512,1031.4,,TRUE,TRUE,,,,,,,CLR,,,,,,,,VFR,,,,,,,,,,,,METAR,1678.0
KRHI 150053Z AUTO 28004KT 5SM BR BKN007 OVC012 M02/M04 A3013 RMK AO2 CIG 006V010 SLP226 I1000 T10171039,KRHI,2019-01-15T00:53:00Z,45.63,-89.48,-1.7,-3.9,280,4,,5.0,30.129921,1022.6,,TRUE,TRUE,,,,,,BR,BKN,700,OVC,1200,,,,,IFR,,,,,,,,,,,,METAR,485.0
KRBG 150053Z AUTO 25003KT 2 1/2SM BR OVC002 02/01 A2989 RMK AO2 VIS 1 3/4V4 SLP127 T00170011,KRBG,2019-01-15T00:53:00Z,43.23,-123.35,1.7,1.1,250,3,,2.5,29.890747,1012.7,,TRUE,TRUE,,,,,,BR,OVC,200,,,,,,,LIFR,,,,,,,,,,,,SPECI,154.0
KRBD 150053Z 01003KT 10SM CLR 04/00 A3037 RMK AO2 SLP288 T00440000 $,KRBD,2019-01-15T00:53:00Z,32.68,-96.87,4.4,0.0,10,3,,10.0,30.369095,1028.8,,,TRUE,TRUE,,,,,,CLR,,,,,,,,VFR,,,,,,,,,,,,METAR,203.0
FALE 150053Z 18006KT 3500 -DZ SCT002 OVC006 23/22 Q1010 NOSIG,FALE,2019-01-15T00:53:00Z,-29.62,31.12,23.0,22.0,180,6,,2.17,29.822834,,,,,,TRUE,,,,-DZ,SCT,200,OVC,600,,,,,IFR,,,,,,,,,,,,SPECI,109.0
KTVC 150053Z 25005KT 9SM OVC018 00/M04 A3016 RMK AO2 SLP222 T00001039,KTVC,2019-01-15T00:53:00Z,44.73,-85.57,0.0,-3.9,250,5,,9.0,30.159449,1022.2,,,TRUE,,,,,,,OVC,1800,,,,,,,MVFR,,,,,,,,,,,,METAR,190.0
KTUS 150053Z 07004KT 10SM FEW080 18/06 A3009 RMK AO2 SLP168 T01780056,KTUS,2019-01-15T00:53:00Z,32.13,-110.95,17.8,5.6,70,4,,10.0,30.088583,1016.8,,,TRUE,,,,,,,FEW,8000,,,,,,,VFR,,,,,,,,,,,,METAR,776.0
KTUP 150053Z 35005KT 10SM OVC020 04/01 A3036 RMK AO2 SLP281 T00440011 $,KTUP,2019-01-15T00:53:00Z,34.27,-88.77,4.4,1.1,350,5,,10.0,30.360237,1028.1,,,TRUE,TRUE,,,,,,OVC,2000,,,,,,,MVFR,,,,,,,,,,,,METAR,105.0
KTUL 150053Z 14004KT 10SM FEW017 02/M02 A3035 RMK AO2 SLP283 T00171017,KTUL,2019-01-15T00:53:00Z,36.2,-95.88,1.7,-1.7,140,4,,10.0,30.351377,1028.3,,,TRUE,,,,,,,FEW,1700,,,,,,,VFR,,,,,,,,,,,,METAR,207.0
KTTN 150053Z 30003KT 10SM CLR M02/M12 A3014 RMK AO2 SLP205 T10221117,KTTN,2019-01-15T00:53:00Z,40.28,-74.82,-2.2,-11.7,300,3,,10.0,30.138779,1020.5,,,TRUE,,,,,,,CLR,,,,,,,,VFR,,,,,,,,,,,,METAR,59.0
KTTD 150053Z 09021G33KT 10SM CLR 03/M03 A3001 RMK AO2 PK WND 09033/0051 SLP163 T00331028,KTTD,2019-01-15T00:53:00Z,45.55,-122.42,3.3,-2.8,90,21,33,10.0,30.008858,1016.3,,,TRUE,,,,,,,CLR,,,,,,,,VFR,,,,,,,,,,,,METAR,14.0
KTRL 150053Z AUTO 09003KT 10SM CLR 04/00 A3040 RMK AO2 SLP296 T00390000,KTRL,2019-01-15T00:53:00Z,32.72,-96.27,3.9,0.0,90,3,,10.0,30.398623,1029.6,,TRUE,TRUE,,,,,,,CLR,,,,,,,,VFR,,,,,,,,,,,,METAR,145.0
KTRI 150053Z 33003KT 10SM -DZ OVC014 02/01 A3022 RMK AO2 DZB30SNE30 SLP230 P0000 T00220011,KTRI,2019-01-15T00:53:00Z,36.48,-82.4,2.2,1.1,330,3,,10.0,30.221457,1023.0,,,TRUE,,,,,,-DZ,OVC,1400,,,,,,,MVFR,,,,,,0.005,,,,,,METAR,474.0
KTPA 150053Z 32005KT 10SM CLR 12/08 A3019 RMK AO2 SLP223 T01220078,KTPA,2019-01-15T00:53:00Z,27.97,-82.53,12.2,7.8,320,5,,10.0,30.188976,1022.3,,,TRUE,,,,,,,CLR,,,,,,,,VFR,,,,,,,,,,,,METAR,11.0
KTOR 150053Z AUTO 27007KT 10SM CLR 01/M12 A3014 RMK AO2 SLP249 T00061122,KTOR,2019-01-15T00:53:00Z,42.07,-104.15,0.6,-12.2,270,7,,10.0,30.138779,1024.9,,TRUE,TRUE,,,,,,,CLR,,,,,,,,VFR,,,,,,,,,,,,SPECI,1277.0
KTOP 150053Z 22007KT 8SM OVC005 00/M02 A3032 RMK AO2 SLP276 T00001017,KTOP,2019-01-15T00:53:00Z,39.07,-95.63,0.0,-1.7,220,7,,8.0,30.318897,1027.6,,,TRUE,,,,,,,OVC,500,,,,,,,IFR,,,,,,,,,,,,METAR,268.0
KTOI 150053Z AUTO 29003KT 10SM FEW021 OVC027 06/03 A3028 RMK AO2 SLP254 T00610033,KTOI,2019-01-15T00:53:00Z,31.85,-86.02,6.1,3.3,290,3,,10.0,30.280512,1025.4,,TRUE,TRUE,,,,,,,FEW,2100,OVC,2700,,,,,MVFR,,,,,,,,,,,,METAR,118.0
KTMB 150053Z 36005KT 10SM FEW026 19/14 A3011 RMK AO2 SLP197 T01940139,KTMB,2019-01-15T00:53:00Z,25.65,-80.43,19.4,13.9,360,5,,10.0,30.109253,1019.7,,,TRUE,,,,,,,FEW,2600,,,,,,,VFR,,,,,,,,,,,,METAR,2.0
KTLH 150053Z 35008KT 10SM OVC020 09/04 A3025 RMK AO2 SLP242 T00890044,KTLH,2019-01-15T00:53:00Z,30.4,-84.35,8.9,4.4,350,8,,10.0,30.250984,1024.2,,,TRUE,,,,,,,OVC,2000,,,,,,,MVFR,,,,,,,,,,,,METAR,19.0
KTIW 150053Z 00000KT M1/4SM FG VV002 03/03 A2997 RMK AO2 SLP152 T00330033,KTIW,2019-01-15T00:53:00Z,47.27,-122.58,3.3,3.3,0,0,,0.25,29.970472,1015.2,,,TRUE,,,,,,FG,OVX,0,,,,,,,LIFR,,,,,,,,,,,200,METAR,89.0
KTHV 150053Z AUTO 00000KT 10SM CLR M12/M13 A3018 RMK AO2 SLP231 T11171133,KTHV,2019-01-15T00:53:00Z,39.92,-76.88,-11.7,-13.3,0,0,,10.0,30.180119,1023.1,,TRUE,TRUE,,,,,,,CLR,,,,,,,,VFR,,,,,,,,,,,,METAR,144.0
KTDZ 150053Z AUTO 23006KT 5SM BR FEW029 M08/M10 A3027 RMK AO2 SLP262 T10781100,KTDZ,2019-01-15T00:53:00Z,41.57,-83.48,-7.8,-10.0,230,6,,5.0,30.268702,1026.2,,TRUE,TRUE,,,,,,BR,FEW,2900,,,,,,,MVFR,,,,,,,,,,,,METAR,189.0
PAPB 150053Z AUTO 14017G22KT 10SM FEW016 SCT023 BKN100 02/02 A2882 RMK AO2 SLP748 T00220017 TSNO,PAPB,2019-01-15T00:53:00Z,56.58,-169.67,2.2,1.7,140,17,22,10.0,28.818897,974.8,,TRUE,TRUE,,,TRUE,,,,FEW,1600,SCT,2300,BKN,10000,,,VFR,,,,,,,,,,,,METAR,35.0
PAKW 150053Z AUTO 04007KT 10SM OVC080 07/07 A2997 RMK AO2 SLP149 T00720067 TSNO,PAKW,2019-01-15T00:53:00Z,55.58,-133.07,7.2,6.7,40,7,,10.0,29.970472,1014.9,,TRUE,TRUE,,,TRUE,,,,OVC,8000,,,,,,,VFR,,,,,,,,,,,,METAR,15.0
PADQ 150053Z COR 10010KT 2 1/2SM RA BR SCT007 BKN015 OVC020 05/04 A2975 RMK AO2 RAE15B41 SLP075 P0002 T00500044,PADQ,2019-01-15T00:53:00Z,57.75,-152.5,5.0,4.4,100,10,,2.5,29.749016,1007.5,TRUE,,TRUE,,,,,,RA BR,SCT,700,BKN,1500,OVC,2000,,,IFR,,,,,,0.02,,,,,,METAR,34.0
PABI 150053Z 11020G26KT 10SM BKN200 M13/M17 A3001 RMK AO2 PK WND 12027/0014 SLP206 CIG THN T11281167,PABI,2019-01-15T00:53:00Z,64.0,-145.72,-12.8,-16.7,110,20,26,10.0,30.008858,1020.6,,,TRUE,,,,,,,BKN,20000,,,,,,,VFR,,,,,,,,,,,,METAR,386.0
PABE 150053Z 10017G23KT 10SM OVC095 04/M01 A2937 RMK AO2 PK WND 09027/0010 SLP946 T00391011,PABE,2019-01-15T00:53:00Z,60.78,-161.83,3.9,-1.1,100,17,23,10.0,29.371063,994.6,,,TRUE,,,,,,,OVC,9500,,,,,,,VFR,,,,,,,,,,,,METAR,41.0
PAAQ 150053Z 34013KT 10SM FEW095 SCT200 M01/M08 A2994 RMK AO2 SLP143 T10111078,PAAQ,2019-01-15T00:53:00Z,61.6,-149.08,-1.1,-7.8,340,13,,10.0,29.940945,1014.3,,,TRUE,,,,,,,FEW,9500,SCT,20000,,,,,VFR,,,,,,,,,,,,METAR,73.0
KZZV 150053Z AUTO 27006KT 9SM OVC016 M03/M06 A3027 RMK AO2 SLP262 T10281061,KZZV,2019-01-15T00:53:00Z,39.95,-81.9,-2.8,-6.1,270,6,,9.0,30.268702,1026.2,,TRUE,TRUE,,,,,,,OVC,1600,,,,,,,MVFR,,,,,,,,,,,,METAR,268.0
KYKM 150053Z 02008KT 10SM OVC016 M01/M04 A3024 RMK AO2 SLP252 T10061044,KYKM,2019-01-15T00:53:00Z,46.57,-120.53,-0.6,-4.4,20,8,,10.0,30.239174,1025.2,,,TRUE,,,,,,,OVC,1600,,,,,,,MVFR,,,,,,,,,,,,METAR,324.0
KYIP 150053Z 23007KT 10SM CLR M04/M07 A3024 RMK AO2 SLP248 T10391072,KYIP,2019-01-15T00:53:00Z,42.23,-83.53,-3.9,-7.2,230,7,,10.0,30.239174,1024.8,,,TRUE,,,,,,,CLR,,,,,,,,VFR,,,,,,,,,,,,METAR,215.0
KXNA 150053Z 21005KT 10SM OVC008 01/M02 A3035 RMK AO2 SLP287 T00111022,KXNA,2019-01-15T00:53:00Z,36.28,-94.3,1.1,-2.2,210,5,,10.0,30.351377,1028.7,,,TRUE,,,,,,,OVC,800,,,,,,,IFR,,,,,,,,,,,,METAR,392.0
KWVI 150053Z AUTO 03003KT 10SM FEW046 OVC060 12/11 A2986 RMK AO2 RAE19 SLP113 P0001 T01170106,KWVI,2019-01-15T00:53:00Z,36.93,-121.78,11.7,10.6,30,3,,10.0,29.861221,1011.3,,TRUE,TRUE,,,,,,,FEW,4600,OVC,6000,,,,,VFR,,,,,,0.01,,,,,,METAR,43.0
KWST 150053Z AUTO 00000KT 10SM CLR M04/M08 A3011 RMK AO2 SLP197 T10441078,KWST,2019-01-15T00:53:00Z,41.35,-71.8,-4.4,-7.8,0,0,,10.0,30.109253,1019.7,,TRUE,TRUE,,,,,,,CLR,,,,,,,,VFR,,,,,,,,,,,,SPECI,21.0
KWRL 150053Z AUTO 18011KT 10SM CLR M03/M09 A3012 RMK AO2 SLP257 T10281094,KWRL,2019-01-15T00:53:00Z,43.97,-107.95,-2.8,-9.4,180,11,,10.0,30.121063,1025.7,,TRUE,TRUE,,,,,,,CLR,,,,,,,,VFR,,,,,,,,,,,,METAR,1271.0
KVUO 150053Z AUTO VRB05G15KT 10SM CLR 05/M04 A2999 RMK AO2 SLP156 T00501044,KVUO,2019-01-15T00:53:00Z,45.62,-122.65,5.0,-4.4,0,5,15,10.0,29.991142,1015.6,,TRUE,TRUE,,,,,,,CLR,,,,,,,,VFR,,,,,,,,,,,,METAR,8.0
KVRB 150053Z 01005KT 10SM CLR 14/11 A3015 RMK AO2 SLP207 T01440111,KVRB,2019-01-15T00:53:00Z,27.65,-80.42,14.4,11.1,10,5,,10.0,30.15059,1020.7,,,TRUE,,,,,,,CLR,,,,,,,,VFR,,,,,,,,,,,,METAR,10.0
KVPC 150053Z AUTO VRB06KT 10SM OVC022 04/01 A3028 RMK AO2 SLP251 T00440006,KVPC,2019-01-15T00:53:00Z,34.13,-84.85,4.4,0.6,0,6,,10.0,30.280512,1025.1,,TRUE,TRUE,,,,,,,OVC,2200,,,,,,,MVFR,,,,,,,,,,,,METAR,222.0
KVLD 150053Z 00000KT 10SM OVC020 08/05 A3024 RMK AO2 SLP248 T00830050,KVLD,2019-01-15T00:53:00Z,30.78,-83.27,8.3,5.0,0,0,,10.0,30.239174,1024.8,,,TRUE,,,,,,,OVC,2000,,,,,,,MVFR,,,,,,,,,,,,METAR,62.0
KVIH 150053Z AUTO 24006KT 10SM OVC007 M01/M03 A3032 RMK AO2 SLP281 T10111033,KVIH,2019-01-15T00:53:00Z,38.13,-91.77,-1.1,-3.3,240,6,,10.0,30.318897,1028.1,,TRUE,TRUE,,,,,,,OVC,700,,,,,,,IFR,,,,,,,,,,,,METAR,333.0
KVGT 150053Z 24007KT 10SM -RA BKN049 BKN060 OVC075 11/02 A3003 RMK AO2 RAE2354B53 SLP190 P0000 T01110017,KVGT,2019-01-15T00:53:00Z,36.22,-115.2,11.1,1.7,240,7,,10.0,30.029528,1019.0,,,TRUE,,,,,,-RA,BKN,4900,BKN,6000,OVC,7500,,,VFR,,,,,,0.005,,,,,,METAR,671.0
KVEL 150053Z AUTO 00000KT 10SM CLR M09/M13 A3037 RMK AO2 SLP345 T10941133,KVEL,2019-01-15T00:53:00Z,40.45,-109.52,-9.4,-13.3,0,0,,10.0,30.369095,1034.5,,TRUE,TRUE,,,,,,,CLR,,,,,,,,VFR,,,,,,,,,,,,METAR,1604.0
KVCB 150053Z AUTO 34006KT 6SM -RA BR OVC050 09/08 A2991 RMK AO2 SLP127 P0002 T00890078,KVCB,2019-01-15T00:53:00Z,38.38,-121.95,8.9,7.8,340,6,,6.0,29.911417,1012.7,,TRUE,TRUE,,,,,,-RA BR,OVC,5000,,,,,,,VFR,,,,,,0.02,,,,,,METAR,33.0
KUUU 150053Z AUTO 00000KT 10SM CLR M06/M08 A3009 RMK AO2 SLP192 T10561078,KUUU,2019-01-15T00:53:00Z,41.53,-71.28,-5.6,-7.8,0,0,,10.0,30.088583,1019.2,,TRUE,TRUE,,,,,,,CLR,,,,,,,,VFR,,,,,,,,,,,,METAR,51.0
KUTS 150053Z AUTO 00000KT 10SM CLR 04/02 A3038 RMK AO2 SLP290 T00440017,KUTS,2019-01-15T00:53:00Z,30.75,-95.58,4.4,1.7,0,0,,10.0,30.380905,1029.0,,TRUE,TRUE,,,,,,,CLR,,,,,,,,VFR,,,,,,,,,,,,METAR,104.0
KUNO 150053Z AUTO 25005KT 10SM OVC012 01/M02 A3034 RMK AO2 SLP282 T00061022,KUNO,2019-01-15T00:53:00Z,36.88,-91.9,0.6,-2.2,250,5,,10.0,30.339567,1028.2,,TRUE,TRUE,,,,,,,OVC,1200,,,,,,,MVFR,,,,,,,,,,,,METAR,372.0
KUIL 150053Z AUTO 06003KT 10SM CLR 07/03 A2991 RMK AO2 SLP128 T00720033,KUIL,2019-01-15T00:53:00Z,47.93,-124.55,7.2,3.3,60,3,,10.0,29.911417,1012.8,,TRUE,TRUE,,,,,,,CLR,,,,,,,,VFR,,,,,,,,,,,,METAR,54.0
KPOF 150053Z AUTO 00000KT 9SM OVC027 03/01 A3036 RMK AO2 SLP288 T00280006,KPOF,2019-01-15T00:53:00Z,36.77,-90.32,2.8,0.6,0,0,,9.0,30.360237,1028.8,,TRUE,TRUE,,,,,,,OVC,2700,,,,,,,MVFR,,,,,,,,,,,,METAR,99.0
KPNS 150053Z 36008KT 10SM OVC015 07/02 A3030 RMK AO2 SLP265 T00670022,KPNS,2019-01-15T00:53:00Z,30.48,-87.18,6.7,2.2,360,8,,10.0,30.301182,1026.5,,,TRUE,,,,,,,OVC,1500,,,,,,,MVFR,,,,,,,,,,,,METAR,38.0
KPNC 150053Z AUTO 13007KT 9SM CLR 02/M02 A3032 RMK AO2 SLP273 T00171017,KPNC,2019-01-15T00:53:00Z,36.73,-97.1,1.7,-1.7,130,7,,9.0,30.318897,1027.3,,TRUE,TRUE,,,,,,,CLR,,,,,,,,VFR,,,,,,,,,,,,METAR,308.0
KPMP 150053Z 01005KT 9SM CLR 19/12 A3011 RMK AO2 SLP198 T01890117,KPMP,2019-01-15T00:53:00Z,26.25,-80.12,18.9,11.7,10,5,,9.0,30.109253,1019.8,,,TRUE,,,,,,,CLR,,,,,,,,VFR,,,,,,,,,,,,METAR,6.0
KPMD 150053Z 35010KT 9SM BKN004 BKN009 OVC013 06/04 A2997 RMK AO2 RAE50 SLP150 P0004 T00560039,KPMD,2019-01-15T00:53:00Z,34.63,-118.08,5.6,3.9,350,10,,9.0,29.970472,1015.0,,,TRUE,,,,,,,BKN,400,BKN,900,OVC,1300,,,LIFR,,,,,,0.04,,,,,,METAR,780.0
KPKB 150053Z 33003KT 10SM OVC017 M01/M05 A3028 RMK AO2 SLP264 T10111050,KPKB,2019-01-15T00:53:00Z,39.35,-81.42,-1.1,-5.0,330,3,,10.0,30.280512,1026.4,,,TRUE,,,,,,,OVC,1700,,,,,,,MVFR,,,,,,,,,,,,METAR,262.0
KPIL 150053Z AUTO 02011KT 7SM OVC020 15/13 A3030 RMK AO2 SLP261 T01500133,KPIL,2019-01-15T00:53:00Z,26.17,-97.33,15.0,13.3,20,11,,7.0,30.301182,1026.1,,TRUE,TRUE,,,,,,,OVC,2000,,,,,,,MVFR,,,,,,,,,,,,METAR,5.0
KPIH 150053Z 08006KT 10SM CLR M07/M12 A3023 RMK AO2 SLP296 T10721117 $,KPIH,2019-01-15T00:53:00Z,42.92,-112.57,-7.2,-11.7,80,6,,10.0,30.230314,1029.6,,,TRUE,TRUE,,,,,,CLR,,,,,,,,VFR,,,,,,,,,,,,METAR,1359.0
KPIE 150053Z 34009KT 10SM CLR 12/09 A3019 RMK AO2 SLP222 T01220089 $,KPIE,2019-01-15T00:53:00Z,27.92,-82.68,12.2,8.9,340,9,,10.0,30.188976,1022.2,,,TRUE,TRUE,,,,,,CLR,,,,,,,,VFR,,,,,,,,,,,,METAR,4.0
KPHD 150053Z AUTO 27004KT 10SM OVC015 M02/M05 A3026 RMK AO2 SLP260 T10171050,KPHD,2019-01-15T00:53:00Z,40.47,-81.42,-1.7,-5.0,270,4,,10.0,30.259842,1026.0,,TRUE,TRUE,,,,,,,OVC,1500,,,,,,,MVFR,,,,,,,,,,,,METAR,272.0
KPGD 150053Z 33011KT 10SM CLR 15/11 A3017 RMK AO2 SLP217 T01500106,KPGD,2019-01-15T00:53:00Z,26.92,-82.0,15.0,10.6,330,11,,10.0,30.171259,1021.7,,,TRUE,,,,,,,CLR,,,,,,,,VFR,,,,,,,,,,,,METAR,7.0
KPGA 150053Z AUTO 00000KT 10SM OVC040 06/M01 A3022 RMK AO2 SLP233 T00561011 TSNO,KPGA,2019-01-15T00:53:00Z,36.92,-111.45,5.6,-1.1,0,0,,10.0,30.221457,1023.3,,TRUE,TRUE,,,TRUE,,,,OVC,4000,,,,,,,VFR,,,,,,,,,,,,METAR,1307.0
KPEO 150053Z AUTO 00000KT 10SM CLR M11/M12 A3017 RMK AO2 SLP238 T11061122,KPEO,2019-01-15T00:53:00Z,42.65,-77.05,-10.6,-12.2,0,0,,10.0,30.171259,1023.8,,TRUE,TRUE,,,,,,,CLR,,,,,,,,VFR,,,,,,,,,,,,METAR,256.0
KPDX 150053Z 10027G34KT 10SM FEW040 05/M04 A2998 RMK AO2 PK WND 10034/0053 SLP151 T00501039,KPDX,2019-01-15T00:53:00Z,45.6,-122.62,5.0,-3.9,100,27,34,10.0,29.97933,1015.1,,,TRUE,,,,,,,FEW,4000,,,,,,,VFR,,,,,,,,,,,,METAR,7.0
KPDT 150053Z AUTO 04008KT 10SM OVC015 M01/M04 A3019 RMK AO2 SLP231 T10111039,KPDT,2019-01-15T00:53:00Z,45.7,-118.83,-1.1,-3.9,40,8,,10.0,30.188976,1023.1,,TRUE,TRUE,,,,,,,OVC,1500,,,,,,,MVFR,,,,,,,,,,,,METAR,462.0
KPBF 150053Z AUTO 00000KT 10SM OVC025 05/M01 A3040 RMK AO2 SLP296 T00501006,KPBF,2019-01-15T00:53:00Z,34.18,-91.93,5.0,-0.6,0,0,,10.0,30.398623,1029.6,,TRUE,TRUE,,,,,,,OVC,2500,,,,,,,MVFR,,,,,,,,,,,,METAR,62.0
KPAH 150053Z 29003KT 10SM OVC029 01/M03 A3036 RMK AO2 SLP284 T00111033,KPAH,2019-01-15T00:53:00Z,37.07,-88.77,1.1,-3.3,290,3,,10.0,30.360237,1028.4,,,TRUE,,,,,,,OVC,2900,,,,,,,MVFR,,,,,,,,,,,,METAR,119.0
KPAE 150053Z 00000KT 10SM CLR 06/M01 A2996 RMK AO2 SLP150 T00561011,KPAE,2019-01-15T00:53:00Z,47.92,-122.28,5.6,-1.1,0,0,,10.0,29.958662,1015.0,,,TRUE,,,,,,,CLR,,,,,,,,VFR,,,,,,,,,,,,METAR,180.0
KOXB 150053Z AUTO 32004KT 10SM CLR M03/M06 A3019 RMK AO2 SLP223 T10281061,KOXB,2019-01-15T00:53:00Z,38.32,-75.12,-2.8,-6.1,320,4,,10.0,30.188976,1022.3,,TRUE,TRUE,,,,,,,CLR,,,,,,,,VFR,,,,,,,,,,,,METAR,3.0
KOWD 150053Z 00000KT 10SM CLR M08/M11 A3010 RMK AO2 SLP194 I1001 T10831106,KOWD,2019-01-15T00:53:00Z,42.18,-71.17,-8.3,-10.6,0,0,,10.0,30.100393,1019.4,,,TRUE,,,,,,,CLR,,,,,,,,VFR,,,,,,,,,,,,METAR,19.0
KOVS 150053Z AUTO 00000KT 3SM BR OVC006 M03/M04 A3026 RMK AO2 SLP260 I1000 T10331044,KOVS,2019-01-15T00:53:00Z,43.15,-90.68,-3.3,-4.4,0,0,,3.0,30.259842,1026.0,,TRUE,TRUE,,,,,,BR,OVC,600,,,,,,,IFR,,,,,,,,,,,,METAR,202.0
KOVE 150053Z AUTO 12003KT 10SM -RA OVC065 11/05 A2993 RMK AO2 SLP138 P0000 T01060050,KOVE,2019-01-15T00:53:00Z,39.5,-121.62,10.6,5.0,120,3,,10.0,29.929134,1013.8,,TRUE,TRUE,,,,,,-RA,OVC,6500,,,,,,,VFR,,,,,,0.005,,,,,,METAR,58.0
KOTM 150053Z AUTO 25007KT 5SM BR OVC006 M02/M03 A3028 RMK AO2 SLP265 T10221033,KOTM,2019-01-15T00:53:00Z,41.1,-92.45,-2.2,-3.3,250,7,,5.0,30.280512,1026.5,,TRUE,TRUE,,,,,,BR,OVC,600,,,,,,,IFR,,,,,,,,,,,,METAR,256.0
KOSU 150053Z 26003KT 8SM CLR M06/M08 A3028 RMK AO2 SLP267 T10611078,KOSU,2019-01-15T00:53:00Z,40.08,-83.08,-6.1,-7.8,260,3,,8.0,30.280512,1026.7,,,TRUE,,,,,,,CLR,,,,,,,,VFR,,,,,,,,,,,,METAR,280.0
KIWI 150053Z AUTO 00000KT 10SM CLR M11/M13 A3011 RMK AO2 SLP198 T11061128,KIWI,2019-01-15T00:53:00Z,43.97,-69.72,-10.6,-12.8,0,0,,10.0,30.109253,1019.8,,TRUE,TRUE,,,,,,,CLR,,,,,,,,VFR,,,,,,,,,,,,METAR,20.0
KITR 150053Z AUTO 28006KT 10SM CLR M01/M11 A3017 RMK AO2 SLP245 T10061106,KITR,2019-01-15T00:53:00Z,39.23,-102.28,-0.6,-10.6,280,6,,10.0,30.171259,1024.5,,TRUE,TRUE,,,,,,,CLR,,,,,,,,VFR,,,,,,,,,,,,METAR,1279.0
KIPL 150053Z AUTO 32006KT 10SM -RA BKN080 OVC090 11/11 A3001 RMK AO2 RAB14 SLP161 P0000 T01060106,KIPL,2019-01-15T00:53:00Z,32.83,-115.58,10.6,10.6,320,6,,10.0,30.008858,1016.1,,TRUE,TRUE,,,,,,-RA,BKN,8000,OVC,9000,,,,,VFR,,,,,,0.005,,,,,,METAR,-17.0
KINK 150053Z AUTO 17004KT 10SM OVC013 05/02 A3029 RMK AO2 SLP259 T00500017,KINK,2019-01-15T00:53:00Z,31.78,-103.2,5.0,1.7,170,4,,10.0,30.28937,1025.9,,TRUE,TRUE,,,,,,,OVC,1300,,,,,,,MVFR,,,,,,,,,,,,SPECI,855.0
KIML 150053Z AUTO 00000KT 10SM CLR M01/M13 A3015 RMK AO2 SLP249 T10061128,KIML,2019-01-15T00:53:00Z,40.52,-101.62,-0.6,-12.8,0,0,,10.0,30.15059,1024.9,,TRUE,TRUE,,,,,,,CLR,,,,,,,,VFR,,,,,,,,,,,,METAR,998.0
KILM 150053Z 35004KT 10SM OVC023 03/M01 A3022 RMK AO2 SLP233 T00331006,KILM,2019-01-15T00:53:00Z,34.27,-77.9,3.3,-0.6,350,4,,10.0,30.221457,1023.3,,,TRUE,,,,,,,OVC,2300,,,,,,,MVFR,,,,,,,,,,,,METAR,9.0
KIDA 150053Z 33004KT 10SM CLR M13/M16 A3024 RMK AO2 SLP330 T11331156,KIDA,2019-01-15T00:53:00Z,43.52,-112.07,-13.3,-15.6,330,4,,10.0,30.239174,1033.0,,,TRUE,,,,,,,CLR,,,,,,,,VFR,,,,,,,,,,,,METAR,1453.0
KICT 150053Z 16004KT 7SM CLR 00/M01 A3029 RMK AO2 SLP271 T00001006 $,KICT,2019-01-15T00:53:00Z,37.65,-97.43,0.0,-0.6,160,4,,7.0,30.28937,1027.1,,,TRUE,TRUE,,,,,,CLR,,,,,,,,VFR,,,,,,,,,,,,METAR,407.0
KICR 150053Z AUTO 03003KT 1/2SM FZFG VV002 M03/M05 A3021 RMK AO2 SLP257 I1000 T10331050,KICR,2019-01-15T00:53:00Z,43.38,-99.85,-3.3,-5.0,30,3,,0.5,30.209646,1025.7,,TRUE,TRUE,,,,,,FZFG,OVX,0,,,,,,,LIFR,,,,,,,,,,,200,METAR,621.0
KIAH 150053Z 35006KT 10SM FEW070 10/04 A3038 RMK AO2 SLP289 T01000039,KIAH,2019-01-15T00:53:00Z,30.0,-95.37,10.0,3.9,350,6,,10.0,30.380905,1028.9,,,TRUE,,,,,,,FEW,7000,,,,,,,VFR,,,,,,,,,,,,METAR,36.0
KIAG 150053Z 24009KT 10SM CLR M04/M07 A3020 RMK AO2 SLP249 T10441072 $,KIAG,2019-01-15T00:53:00Z,43.12,-78.93,-4.4,-7.2,240,9,,10.0,30.200787,1024.9,,,TRUE,TRUE,,,,,,CLR,,,,,,,,VFR,,,,,,,,,,,,METAR,182.0
KHZY 150053Z AUTO 00000KT 10SM OVC018 M07/M08 A3024 RMK AO2 SLP258 T10721083,KHZY,2019-01-15T00:53:00Z,41.78,-80.7,-7.2,-8.3,0,0,,10.0,30.239174,1025.8,,TRUE,TRUE,,,,,,,OVC,1800,,,,,,,MVFR,,,,,,,,,,,,METAR,276.0
KHYR 150053Z AUTO 35004KT 10SM OVC014 M02/M04 A3019 RMK AO2 SLP242 T10171044,KHYR,2019-01-15T00:53:00Z,46.02,-91.45,-1.7,-4.4,350,4,,10.0,30.188976,1024.2,,TRUE,TRUE,,,,,,,OVC,1400,,,,,,,MVFR,,,,,,,,,,,,METAR,370.0
KHWO 150053Z 36003KT 10SM CLR 19/13 A3013 RMK AO2 SLP203 T01890128,KHWO,2019-01-15T00:53:00Z,26.0,-80.23,18.9,12.8,360,3,,10.0,30.129921,1020.3,,,TRUE,,,,,,,CLR,,,,,,,,VFR,,,,,,,,,,,,METAR,2.0
KHVR 150053Z AUTO 13003KT 10SM CLR M05/M13 A3002 RMK AO2 SLP207 T10501133,KHVR,2019-01-15T00:53:00Z,48.55,-109.77,-5.0,-13.3,130,3,,10.0,30.02067,1020.7,,TRUE,TRUE,,,,,,,CLR,,,,,,,,VFR,,,,,,,,,,,,METAR,787.0
KHVN 150053Z 31004KT 10SM CLR M01/M12 A3012 RMK AO2 SLP198 T10061122,KHVN,2019-01-15T00:53:00Z,41.27,-72.87,-0.6,-12.2,310,4,,10.0,30.121063,1019.8,,,TRUE,,,,,,,CLR,,,,,,,,VFR,,,,,,,,,,,,METAR,4.0
KHUL 150053Z AUTO 00000KT 10SM CLR M19/M21 A3004 RMK AO2 SLP190 T11891206 TSNO,KHUL,2019-01-15T00:53:00Z,46.12,-67.8,-18.9,-20.6,0,0,,10.0,30.041338,1019.0,,TRUE,TRUE,,,TRUE,,,,CLR,,,,,,,,VFR,,,,,,,,,,,,METAR,150.0
KHUF 150053Z 32004KT 10SM CLR M05/M07 A3034 RMK AO2 SLP283 T10501072,KHUF,2019-01-15T00:53:00Z,39.45,-87.3,-5.0,-7.2,320,4,,10.0,30.339567,1028.3,,,TRUE,,,,,,,CLR,,,,,,,,VFR,,,,,,,,,,,,METAR,179.0
KHTL 150053Z AUTO 25005KT 9SM OVC014 M02/M04 A3015 RMK AO2 SLP227 T10171044,KHTL,2019-01-15T00:53:00Z,44.35,-84.67,-1.7,-4.4,250,5,,9.0,30.15059,1022.7,,TRUE,TRUE,,,,,,,OVC,1400,,,,,,,MVFR,,,,,,,,,,,,METAR,351.0
KHSV 150053Z 33004KT 10SM OVC026 04/01 A3032 RMK AO2 SLP270 T00390006,KHSV,2019-01-15T00:53:00Z,34.65,-86.78,3.9,0.6,330,4,,10.0,30.318897,1027.0,,,TRUE,,,,,,,OVC,2600,,,,,,,MVFR,,,,,,,,,,,,METAR,191.0
KHSI 150053Z AUTO 24005KT 1/4SM FZFG VV002 M01/M01 A3020 RMK AO2 SLP248 T10061011,KHSI,2019-01-15T00:53:00Z,40.6,-98.43,-0.6,-1.1,240,5,,0.25,30.200787,1024.8,,TRUE,TRUE,,,,,,FZFG,OVX,0,,,,,,,LIFR,,,,,,,,,,,200,METAR,591.0
KHRO 150053Z AUTO 25003KT 10SM OVC010 01/M02 A3034 RMK AO2 SLP284 T00111017,KHRO,2019-01-15T00:53:00Z,36.27,-93.15,1.1,-1.7,250,3,,10.0,30.339567,1028.4,,TRUE,TRUE,,,,,,,OVC,1000,,,,,,,MVFR,,,,,,,,,,,,METAR,417.0
KHRI 150053Z AUTO 01005KT 10SM OVC024 01/M02 A3024 RMK AO2 SLP244 T00111022,KHRI,2019-01-15T00:53:00Z,45.83,-119.27,1.1,-2.2,10,5,,10.0,30.239174,1024.4,,TRUE,TRUE,,,,,,,OVC,2400,,,,,,,MVFR,,,,,,,,,,,,METAR,195.0
KHQM 150053Z AUTO 07008KT 9SM CLR 08/03 A2991 RMK AO2 SLP130 T00830028,KHQM,2019-01-15T00:53:00Z,46.97,-123.93,8.3,2.8,70,8,,9.0,29.911417,1013.0,,TRUE,TRUE,,,,,,,CLR,,,,,,,,VFR,,,,,,,,,,,,METAR,7.0
KHOU 150053Z 33004KT 10SM BKN060 12/02 A3037 RMK AO2 SLP289 T01220022,KHOU,2019-01-15T00:53:00Z,29.63,-95.28,12.2,2.2,330,4,,10.0,30.369095,1028.9,,,TRUE,,,,,,,BKN,6000,,,,,,,VFR,,,,,,,,,,,,METAR,36.0
KMLS 150053Z AUTO 16004KT 10SM CLR 01/M05 A3006 RMK AO2 SLP211 T00111050,KMLS,2019-01-15T00:53:00Z,46.43,-105.88,1.1,-5.0,160,4,,10.0,30.059055,1021.1,,TRUE,TRUE,,,,,,,CLR,,,,,,,,VFR,,,,,,,,,,,,METAR,801.0
KMLP 150053Z AUTO 00000KT 10SM CLR 06/M33 A3007 RMK AO2 SLP133 T00561333,KMLP,2019-01-15T00:53:00Z,47.45,-115.67,5.6,-33.3,0,0,,10.0,30.070866,1013.3,,TRUE,TRUE,,,,,,,CLR,,,,,,,,VFR,,,,,,,,,,,,METAR,1837.0
KMLC 150053Z AUTO 00000KT 9SM FEW075 M01/M02 A3039 RMK AO2 SLPNO T10111022,KMLC,2019-01-15T00:53:00Z,34.88,-95.78,-1.1,-2.2,0,0,,9.0,30.389763,,,TRUE,TRUE,,,,,,,FEW,7500,,,,,,,VFR,,,,,,,,,,,,METAR,232.0
KMLB 150053Z 01012KT 10SM CLR 14/09 A3015 RMK AO2 SLP210 T01440094,KMLB,2019-01-15T00:53:00Z,28.1,-80.65,14.4,9.4,10,12,,10.0,30.15059,1021.0,,,TRUE,,,,,,,CLR,,,,,,,,VFR,,,,,,,,,,,,METAR,11.0
KMKO 150053Z AUTO 19004KT 10SM OVC016 02/M01 A3040 RMK AO2 SLP297 T00221006,KMKO,2019-01-15T00:53:00Z,35.65,-95.37,2.2,-0.6,190,4,,10.0,30.398623,1029.7,,TRUE,TRUE,,,,,,,OVC,1600,,,,,,,MVFR,,,,,,,,,,,,METAR,185.0
KMKL 150053Z 33003KT 8SM OVC014 02/M01 A3037 RMK AO2 SLP287 T00171006,KMKL,2019-01-15T00:53:00Z,35.6,-88.92,1.7,-0.6,330,3,,8.0,30.369095,1028.7,,,TRUE,,,,,,,OVC,1400,,,,,,,MVFR,,,,,,,,,,,,METAR,128.0
KMIW 150053Z AUTO 24004KT 3SM BR OVC005 M02/M02 A3025 RMK AO2 SLP258 I1000 T10221022,KMIW,2019-01-15T00:53:00Z,42.12,-92.92,-2.2,-2.2,240,4,,3.0,30.250984,1025.8,,TRUE,TRUE,,,,,,BR,OVC,500,,,,,,,IFR,,,,,,,,,,,,METAR,296.0
KMIE 150053Z 25003KT 10SM CLR M06/M09 A3029 RMK AO2 SLP269 T10561094,KMIE,2019-01-15T00:53:00Z,40.23,-85.4,-5.6,-9.4,250,3,,10.0,30.28937,1026.9,,,TRUE,,,,,,,CLR,,,,,,,,VFR,,,,,,,,,,,,METAR,285.0
KMIC 150053Z 33003KT 10SM OVC013 M02/M03 A3022 RMK AO2 SLP245 T10171033,KMIC,2019-01-15T00:53:00Z,45.07,-93.35,-1.7,-3.3,330,3,,10.0,30.221457,1024.5,,,TRUE,,,,,,,OVC,1300,,,,,,,MVFR,,,,,,,,,,,,METAR,265.0
KMIA 150053Z 04004KT 10SM SCT044 BKN250 21/14 A3012 RMK AO2 SLP200 T02060139,KMIA,2019-01-15T00:53:00Z,25.8,-80.28,20.6,13.9,40,4,,10.0,30.121063,1020.0,,,TRUE,,,,,,,SCT,4400,BKN,25000,,,,,VFR,,,,,,,,,,,,METAR,3.0
KMHT 150053Z 33004KT 10SM SCT250 M03/M13 A3008 RMK AO2 SLP208 T10331128,KMHT,2019-01-15T00:53:00Z,42.93,-71.43,-3.3,-12.8,330,4,,10.0,30.079725,1020.8,,,TRUE,,,,,,,SCT,25000,,,,,,,VFR,,,,,,,,,,,,METAR,81.0
KMHE 150053Z AUTO 31006KT 8SM OVC005 M02/M03 A3024 RMK AO2 SLP259 T10221033,KMHE,2019-01-15T00:53:00Z,43.77,-98.02,-2.2,-3.3,310,6,,8.0,30.239174,1025.9,,TRUE,TRUE,,,,,,,OVC,500,,,,,,,IFR,,,,,,,,,,,,METAR,397.0
KMGY 150053Z AUTO 00000KT 8SM CLR M06/M09 A3028 RMK AO2 SLP266 T10561094,KMGY,2019-01-15T00:53:00Z,39.6,-84.23,-5.6,-9.4,0,0,,8.0,30.280512,1026.6,,TRUE,TRUE,,,,,,,CLR,,,,,,,,VFR,,,,,,,,,,,,METAR,289.0
KMGW 150053Z 21004KT 2 1/2SM BR OVC005 M02/M02 A3023 RMK AO2 CIG 003V011 SLP249 I1000 T10171022,KMGW,2019-01-15T00:53:00Z,39.65,-79.92,-1.7,-2.2,210,4,,2.5,30.230314,1024.9,,,TRUE,,,,,,BR,OVC,500,,,,,,,IFR,,,,,,,,,,,,METAR,378.0
KMGM 150053Z 33010KT 10SM OVC019 07/02 A3031 RMK AO2 SLP263 T00670022,KMGM,2019-01-15T00:53:00Z,32.3,-86.4,6.7,2.2,330,10,,10.0,30.31004,1026.3,,,TRUE,,,,,,,OVC,1900,,,,,,,MVFR,,,,,,,,,,,,METAR,63.0
KMFR 150053Z 12005KT 10SM OVC110 12/M06 A2985 RMK AO2 SLP111 T01171056,KMFR,2019-01-15T00:53:00Z,42.38,-122.87,11.7,-5.6,120,5,,10.0,29.84941,1011.1,,,TRUE,,,,,,,OVC,11000,,,,,,,VFR,,,,,,,,,,,,METAR,396.0
KMFE 150053Z 01007KT 7SM OVC009 11/09 A3036 RMK AO2 SLP279 T01110089,KMFE,2019-01-15T00:53:00Z,26.18,-98.25,11.1,8.9,10,7,,7.0,30.360237,1027.9,,,TRUE,,,,,,,OVC,900,,,,,,,IFR,,,,,,,,,,,,METAR,38.0
KMDW 150053Z 23010KT 8SM OVC014 M03/M06 A3029 RMK AO2 SLP270 T10331061,KMDW,2019-01-15T00:53:00Z,41.78,-87.75,-3.3,-6.1,230,10,,8.0,30.28937,1027.0,,,TRUE,,,,,,,OVC,1400,,,,,,,MVFR,,,,,,,,,,,,METAR,188.0
KMCW 150053Z AUTO 30006KT 9SM OVC006 M02/M02 A3023 RMK AO2 SLP249 I1000 T10171022,KMCW,2019-01-15T00:53:00Z,43.15,-93.33,-1.7,-2.2,300,6,,9.0,30.230314,1024.9,,TRUE,TRUE,,,,,,,OVC,600,,,,,,,IFR,,,,,,,,,,,,METAR,369.0
KMCO 150053Z 35010KT 10SM FEW030 13/08 A3018 RMK AO2 SLP218 T01280078,KMCO,2019-01-15T00:53:00Z,28.42,-81.33,12.8,7.8,350,10,,10.0,30.180119,1021.8,,,TRUE,,,,,,,FEW,3000,,,,,,,VFR,,,,,,,,,,,,METAR,29.0
KMCN 150053Z AUTO 33006KT 10SM OVC034 08/03 A3023 RMK AO2 SLP235 T00830028,KMCN,2019-01-15T00:53:00Z,32.68,-83.65,8.3,2.8,330,6,,10.0,30.230314,1023.5,,TRUE,TRUE,,,,,,,OVC,3400,,,,,,,VFR,,,,,,,,,,,,METAR,109.0
KMCK 150053Z AUTO 21005KT 10SM CLR 01/M01 A3017 RMK AO2 SLP239 T00061011,KMCK,2019-01-15T00:53:00Z,40.2,-100.58,0.6,-1.1,210,5,,10.0,30.171259,1023.9,,TRUE,TRUE,,,,,,,CLR,,,,,,,,VFR,,,,,,,,,,,,METAR,782.0
KMCI 150053Z 23009KT 1/2SM R19R/P6000FT BR OVC002 M02/M03 A3031 RMK AO2 SFC VIS 3 SLP275 T10221033,KMCI,2019-01-15T00:53:00Z,39.3,-94.73,-2.2,-3.3,230,9,,0.5,30.31004,1027.5,,,TRUE,,,,,,BR,OVC,200,,,,,,,LIFR,,,,,,,,,,,,METAR,320.0
KMCE 150053Z AUTO 12011KT 8SM FEW055 BKN070 OVC100 11/09 A2991 RMK AO2 RAB2354E05 SLP128 P0001 T01060089,KMCE,2019-01-15T00:53:00Z,37.28,-120.5,10.6,8.9,120,11,,8.0,29.911417,1012.8,,TRUE,TRUE,,,,,,,FEW,5500,BKN,7000,OVC,10000,,,VFR,,,,,,0.01,,,,,,METAR,47.0
KMCB 150053Z AUTO 02004KT 10SM OVC018 06/01 A3035 RMK AO2 SLP277 T00560006,KMCB,2019-01-15T00:53:00Z,31.18,-90.47,5.6,0.6,20,4,,10.0,30.351377,1027.7,,TRUE,TRUE,,,,,,,OVC,1800,,,,,,,MVFR,,,,,,,,,,,,METAR,124.0
KMBS 150053Z 21007KT 10SM OVC020 M02/M04 A3022 RMK AO2 SLP243 T10171044,KMBS,2019-01-15T00:53:00Z,43.53,-84.08,-1.7,-4.4,210,7,,10.0,30.221457,1024.3,,,TRUE,,,,,,,OVC,2000,,,,,,,MVFR,,,,,,,,,,,,METAR,202.0
KMAI 150053Z AUTO 36010KT 10SM OVC017 07/04 A3027 RMK AO2 SLP248 T00720039,KMAI,2019-01-15T00:53:00Z,30.83,-85.18,7.2,3.9,360,10,,10.0,30.268702,1024.8,,TRUE,TRUE,,,,,,,OVC,1700,,,,,,,MVFR,,,,,,,,,,,,METAR,32.0
KMAF 150053Z 17008KT 10SM OVC016 07/03 A3031 RMK AO2 SLP260 T00670028,KMAF,2019-01-15T00:53:00Z,31.95,-102.2,6.7,2.8,170,8,,10.0,30.31004,1026.0,,,TRUE,,,,,,,OVC,1600,,,,,,,MVFR,,,,,,,,,,,,METAR,874.0
KMAE 150053Z AUTO 10006KT 7SM -RA OVC050 12/08 A2993 RMK AO2 SLP134 P0002 T01220083,KMAE,2019-01-15T00:53:00Z,36.98,-120.12,12.2,8.3,100,6,,7.0,29.929134,1013.4,,TRUE,TRUE,,,,,,-RA,OVC,5000,,,,,,,VFR,,,,,,0.02,,,,,,METAR,77.0
KLXV 150053Z AUTO 04004KT 10SM CLR M08/M16 A3022 RMK AO2 SLP273 T10781161,KLXV,2019-01-15T00:53:00Z,39.23,-106.32,-7.8,-16.1,40,4,,10.0,30.221457,1027.3,,TRUE,TRUE,,,,,,,CLR,,,,,,,,VFR,,,,,,,,,,,,METAR,3028.0
KLWV 150053Z AUTO 30004KT 10SM CLR M02/M06 A3035 RMK AO2 SLP283 T10221061,KLWV,2019-01-15T00:53:00Z,38.77,-87.6,-2.2,-6.1,300,4,,10.0,30.351377,1028.3,,TRUE,TRUE,,,,,,,CLR,,,,,,,,VFR,,,,,,,,,,,,METAR,131.0
KLWD 150053Z AUTO 22009KT 3SM BR OVC002 M03/M04 A3026 RMK AO2 SLP264 I1000 T10281039,KLWD,2019-01-15T00:53:00Z,40.63,-93.9,-2.8,-3.9,220,9,,3.0,30.259842,1026.4,,TRUE,TRUE,,,,,,BR,OVC,200,,,,,,,LIFR,,,,,,,,,,,,METAR,346.0
YBTL 150053Z 15011KT 5000 SHRA SCT023 SCT055 BKN260 28/23 Q1012 FM0100 08017KT 9999 -SHRA SCT030 SCT050,YBTL,2019-01-15T00:53:00Z,-19.25,146.75,28.0,23.0,150,11,,3.11,29.88189,,,,,,,,,,SHRA,SCT,2300,SCT,5500,BKN,26000,,,MVFR,,,,,,,,,,,,SPECI,6.0
KGLR 150053Z AUTO 26009KT 5SM BR OVC008 M02/M03 A3011 RMK AO2 SLP217 T10221028,KGLR,2019-01-15T00:53:00Z,45.02,-84.68,-2.2,-2.8,260,9,,5.0,30.109253,1021.7,,TRUE,TRUE,,,,,,BR,OVC,800,,,,,,,IFR,,,,,,,,,,,,METAR,407.0
KGLH 150053Z AUTO 01005KT 10SM OVC020 04/01 A3039 RMK AO2 SLP300 T00440011,KGLH,2019-01-15T00:53:00Z,33.5,-90.98,4.4,1.1,10,5,,10.0,30.389763,1030.0,,TRUE,TRUE,,,,,,,OVC,2000,,,,,,,MVFR,,,,,,,,,,,,METAR,45.0
KGLD 150053Z AUTO 22005KT 10SM CLR M01/M06 A3015 RMK AO2 SLP238 T10061061,KGLD,2019-01-15T00:53:00Z,39.37,-101.7,-0.6,-6.1,220,5,,10.0,30.15059,1023.8,,TRUE,TRUE,,,,,,,CLR,,,,,,,,VFR,,,,,,,,,,,,METAR,1113.0
KGKY 150053Z 00000KT 10SM FEW060 05/01 A3038 RMK AO2 SLP289 T00500011,KGKY,2019-01-15T00:53:00Z,32.67,-97.1,5.0,1.1,0,0,,10.0,30.380905,1028.9,,,TRUE,,,,,,,FEW,6000,,,,,,,VFR,,,,,,,,,,,,METAR,192.0
KGKJ 150053Z AUTO 32003KT 10SM OVC013 M06/M07 A3020 RMK AO2 SLP250 T10611072 TSNO,KGKJ,2019-01-15T00:53:00Z,41.63,-80.22,-6.1,-7.2,320,3,,10.0,30.200787,1025.0,,TRUE,TRUE,,,TRUE,,,,OVC,1300,,,,,,,MVFR,,,,,,,,,,,,METAR,428.0
KGJT 150053Z 00000KT 10SM CLR M03/M07 A3028 RMK AO2 SLP294 T10331067,KGJT,2019-01-15T00:53:00Z,39.12,-108.52,-3.3,-6.7,0,0,,10.0,30.280512,1029.4,,,TRUE,,,,,,,CLR,,,,,,,,VFR,,,,,,,,,,,,SPECI,1475.0
KGIF 150053Z AUTO 02006KT 10SM CLR 15/10 A3018 RMK AO2 SLPNO T01500100,KGIF,2019-01-15T00:53:00Z,28.07,-81.75,15.0,10.0,20,6,,10.0,30.180119,,,TRUE,TRUE,,,,,,,CLR,,,,,,,,VFR,,,,,,,,,,,,METAR,43.0
KGGW 150053Z AUTO 12005KT 10SM CLR M04/M07 A3003 RMK AO2 SLP209 T10441067,KGGW,2019-01-15T00:53:00Z,48.22,-106.62,-4.4,-6.7,120,5,,10.0,30.029528,1020.9,,TRUE,TRUE,,,,,,,CLR,,,,,,,,VFR,,,,,,,,,,,,METAR,694.0
KGGG 150053Z 02003KT 10SM OVC017 04/01 A3040 RMK AO2 SLP299 T00390011,KGGG,2019-01-15T00:53:00Z,32.38,-94.72,3.9,1.1,20,3,,10.0,30.398623,1029.9,,,TRUE,,,,,,,OVC,1700,,,,,,,MVFR,,,,,,,,,,,,METAR,107.0
KGFK 150053Z 00000KT 7SM OVC005 M08/M09 A3025 RMK AO2 SLP262 T10831094,KGFK,2019-01-15T00:53:00Z,47.95,-97.18,-8.3,-9.4,0,0,,7.0,30.250984,1026.2,,,TRUE,,,,,,,OVC,500,,,,,,,IFR,,,,,,,,,,,,METAR,258.0
KGEZ 150053Z AUTO 21003KT 8SM CLR M08/M11 A3030 RMK AO2 SLP272 T10831111,KGEZ,2019-01-15T00:53:00Z,39.58,-85.8,-8.3,-11.1,210,3,,8.0,30.301182,1027.2,,TRUE,TRUE,,,,,,,CLR,,,,,,,,VFR,,,,,,,,,,,,METAR,245.0
KGEY 150053Z AUTO 00000KT 10SM CLR M04/M08 A3012 RMK AO2 SLP259 T10391078,KGEY,2019-01-15T00:53:00Z,44.52,-108.08,-3.9,-7.8,0,0,,10.0,30.121063,1025.9,,TRUE,TRUE,,,,,,,CLR,,,,,,,,VFR,,,,,,,,,,,,METAR,1191.0
KGEG 150053Z 01006KT 10SM FEW010 FEW250 M02/M05 A3016 RMK AO2 SLP240 T10171050,KGEG,2019-01-15T00:53:00Z,47.62,-117.53,-1.7,-5.0,10,6,,10.0,30.159449,1024.0,,,TRUE,,,,,,,FEW,1000,FEW,25000,,,,,VFR,,,,,,,,,,,,METAR,735.0
KGCC 150053Z AUTO 20010KT 10SM CLR 01/M07 A3008 RMK AO2 SLP218 T00111072,KGCC,2019-01-15T00:53:00Z,44.33,-105.55,1.1,-7.2,200,10,,10.0,30.079725,1021.8,,TRUE,TRUE,,,,,,,CLR,,,,,,,,VFR,,,,,,,,,,,,METAR,1320.0
KGAG 150053Z AUTO 17009KT 9SM CLR 06/00 A3022 RMK AO2 SLP245 T00560000 TSNO,KGAG,2019-01-15T00:53:00Z,36.3,-99.77,5.6,0.0,170,9,,9.0,30.221457,1024.5,,TRUE,TRUE,,,TRUE,,,,CLR,,,,,,,,VFR,,,,,,,,,,,,METAR,668.0
KFYV 150053Z 22003KT 10SM OVC011 01/M02 A3035 RMK AO2 SLP286 T00111017,KFYV,2019-01-15T00:53:00Z,36.02,-94.17,1.1,-1.7,220,3,,10.0,30.351377,1028.6,,,TRUE,,,,,,,OVC,1100,,,,,,,MVFR,,,,,,,,,,,,METAR,379.0
KFXE 150053Z 00000KT 10SM FU CLR 19/13 A3011 RMK AO2 SLP199 T01890128,KFXE,2019-01-15T00:53:00Z,26.2,-80.18,18.9,12.8,0,0,,10.0,30.109253,1019.9,,,TRUE,,,,,,FU,CLR,,,,,,,,VFR,,,,,,,,,,,,METAR,6.0
KFWN 150053Z AUTO 00000KT 10SM CLR M08/M11 A3013 RMK AO2 SLP211 T10781106,KFWN,2019-01-15T00:53:00Z,41.2,-74.63,-7.8,-10.6,0,0,,10.0,30.129921,1021.1,,TRUE,TRUE,,,,,,,CLR,,,,,,,,VFR,,,,,,,,,,,,METAR,133.0
KFVE 150053Z AUTO 10003KT 10SM CLR M12/M17 A2998 RMK AO2 SLP173 T11171167,KFVE,2019-01-15T00:53:00Z,47.28,-68.3,-11.7,-16.7,100,3,,10.0,29.97933,1017.3,,TRUE,TRUE,,,,,,,CLR,,,,,,,,VFR,,,,,,,,,,,,METAR,301.0
KFUL 150053Z 08006KT 10SM OVC022 13/11 A2996 RMK AO2 SLP146 T01280106,KFUL,2019-01-15T00:53:00Z,33.87,-117.98,12.8,10.6,80,6,,10.0,29.958662,1014.6,,,TRUE,,,,,,,OVC,2200,,,,,,,MVFR,,,,,,,,,,,,SPECI,35.0
KFTY 150053Z 34010KT 10SM OVC022 06/02 A3024 RMK AO2 SLP243 T00560017,KFTY,2019-01-15T00:53:00Z,33.78,-84.52,5.6,1.7,340,10,,10.0,30.239174,1024.3,,,TRUE,,,,,,,OVC,2200,,,,,,,MVFR,,,,,,,,,,,,METAR,263.0
KFTW 150053Z 10004KT 10SM CLR 06/M01 A3037 RMK AO2 SLP287 T00561006,KFTW,2019-01-15T00:53:00Z,32.83,-97.37,5.6,-0.6,100,4,,10.0,30.369095,1028.7,,,TRUE,,,,,,,CLR,,,,,,,,VFR,,,,,,,,,,,,SPECI,214.0
KFST 150053Z AUTO 12007KT 10SM OVC015 06/03 A3029 RMK AO2 SLP248 T00610033,KFST,2019-01-15T00:53:00Z,30.92,-102.92,6.1,3.3,120,7,,10.0,30.28937,1024.8,,TRUE,TRUE,,,,,,,OVC,1500,,,,,,,MVFR,,,,,,,,,,,,METAR,918.0
KFSM 150053Z 26005KT 10SM OVC017 03/M02 A3040 RMK AO2 SLP296 T00281017,KFSM,2019-01-15T00:53:00Z,35.33,-94.37,2.8,-1.7,260,5,,10.0,30.398623,1029.6,,,TRUE,,,,,,,OVC,1700,,,,,,,MVFR,,,,,,,,,,,,METAR,140.0
KFRG 150053Z AUTO VRB03KT 10SM CLR M03/M11 A3014 RMK AO2 SLP206 T10331111,KFRG,2019-01-15T00:53:00Z,40.73,-73.42,-3.3,-11.1,0,3,,10.0,30.138779,1020.6,,TRUE,TRUE,,,,,,,CLR,,,,,,,,VFR,,,,,,,,,,,,METAR,21.0
KFPR 150053Z 02004KT 10SM CLR 15/11 A3014 RMK AO2 SLP207 T01500106,KFPR,2019-01-15T00:53:00Z,27.5,-80.38,15.0,10.6,20,4,,10.0,30.138779,1020.7,,,TRUE,,,,,,,CLR,,,,,,,,VFR,,,,,,,,,,,,METAR,13.0
KFOK 150053Z 00000KT 10SM CLR M09/M13 A3013 RMK AO2 SLP204 T10941133,KFOK,2019-01-15T00:53:00Z,40.85,-72.62,-9.4,-13.3,0,0,,10.0,30.129921,1020.4,,,TRUE,,,,,,,CLR,,,,,,,,VFR,,,,,,,,,,,,METAR,33.0
KFOE 150053Z 21007KT 5SM BR OVC003 M01/M02 A3030 RMK AO2 SLP273 T10061017,KFOE,2019-01-15T00:53:00Z,38.93,-95.65,-0.6,-1.7,210,7,,5.0,30.301182,1027.3,,,TRUE,,,,,,BR,OVC,300,,,,,,,LIFR,,,,,,,,,,,,METAR,320.0
KFNT 150053Z 27007KT 10SM OVC023 M02/M07 A3023 RMK AO2 SLP251 T10221067,KFNT,2019-01-15T00:53:00Z,42.97,-83.75,-2.2,-6.7,270,7,,10.0,30.230314,1025.1,,,TRUE,,,,,,,OVC,2300,,,,,,,MVFR,,,,,,,,,,,,METAR,233.0
KFNB 150053Z AUTO 23008KT 5SM BR OVC003 00/M01 A3028 RMK AO2 SLP266 T00001011,KFNB,2019-01-15T00:53:00Z,40.07,-95.58,0.0,-1.1,230,8,,5.0,30.280512,1026.6,,TRUE,TRUE,,,,,,BR,OVC,300,,,,,,,LIFR,,,,,,,,,,,,METAR,300.0
KFMY 150053Z 32011KT 10SM CLR 16/12 A3015 RMK AO2 SLP210 T01560122,KFMY,2019-01-15T00:53:00Z,26.58,-81.87,15.6,12.2,320,11,,10.0,30.15059,1021.0,,,TRUE,,,,,,,CLR,,,,,,,,VFR,,,,,,,,,,,,METAR,4.0
KFMN 150053Z 27003KT 10SM BKN070 BKN120 03/M01 A3024 RMK AO2 SLP253 T00331006,KFMN,2019-01-15T00:53:00Z,36.75,-108.23,3.3,-0.6,270,3,,10.0,30.239174,1025.3,,,TRUE,,,,,,,BKN,7000,BKN,12000,,,,,VFR,,,,,,,,,,,,METAR,1685.0
KFLO 150053Z 00000KT 10SM CLR 03/01 A3022 RMK AO2 SLP233 T00280011,KFLO,2019-01-15T00:53:00Z,34.18,-79.73,2.8,1.1,0,0,,10.0,30.221457,1023.3,,,TRUE,,,,,,,CLR,,,,,,,,VFR,,,,,,,,,,,,METAR,44.0
KSTC 150053Z 00000KT 10SM CLR M07/M08 A3023 RMK AO2 SLP260 T10671083,KSTC,2019-01-15T00:53:00Z,45.55,-94.05,-6.7,-8.3,0,0,,10.0,30.230314,1026.0,,,TRUE,,,,,,,CLR,,,,,,,,VFR,,,,,,,,,,,,METAR,314.0
KSSI 150053Z AUTO 00000KT 10SM OVC014 09/06 A3022 RMK AO2 SLP234 T00940056,KSSI,2019-01-15T00:53:00Z,31.15,-81.38,9.4,5.6,0,0,,10.0,30.221457,1023.4,,TRUE,TRUE,,,,,,,OVC,1400,,,,,,,MVFR,,,,,,,,,,,,METAR,6.0
KSSF 150053Z 11006KT 10SM OVC050 09/02 A3036 RMK AO2 SLP285 T00890017,KSSF,2019-01-15T00:53:00Z,29.33,-98.47,8.9,1.7,110,6,,10.0,30.360237,1028.5,,,TRUE,,,,,,,OVC,5000,,,,,,,VFR,,,,,,,,,,,,METAR,176.0
KSRQ 150053Z 35006KT 10SM CLR 13/09 A3016 RMK AO2 SLP211 T01330094,KSRQ,2019-01-15T00:53:00Z,27.4,-82.57,13.3,9.4,350,6,,10.0,30.159449,1021.1,,,TRUE,,,,,,,CLR,,,,,,,,VFR,,,,,,,,,,,,METAR,18.0
KSPW 150053Z AUTO 34003KT 8SM OVC005 M01/M02 A3022 RMK AO2 SLP250 T10111022,KSPW,2019-01-15T00:53:00Z,43.17,-95.22,-1.1,-2.2,340,3,,8.0,30.221457,1025.0,,TRUE,TRUE,,,,,,,OVC,500,,,,,,,IFR,,,,,,,,,,,,METAR,403.0
KSPG 150053Z 35009KT 10SM CLR 13/09 A3016 RMK AO2 SLP214 T01330089,KSPG,2019-01-15T00:53:00Z,27.77,-82.63,13.3,8.9,350,9,,10.0,30.159449,1021.4,,,TRUE,,,,,,,CLR,,,,,,,,VFR,,,,,,,,,,,,METAR,2.0
KSPB 150053Z AUTO 21005KT 10SM CLR 07/M04 A2999 RMK AO2 SLP154 T00671039,KSPB,2019-01-15T00:53:00Z,45.77,-122.87,6.7,-3.9,210,5,,10.0,29.991142,1015.4,,TRUE,TRUE,,,,,,,CLR,,,,,,,,VFR,,,,,,,,,,,,METAR,14.0
KSNY 150053Z AUTO 00000KT 10SM CLR M06/M15 A3015 RMK AO2 SLP266 T10611150,KSNY,2019-01-15T00:53:00Z,41.1,-102.98,-6.1,-15.0,0,0,,10.0,30.15059,1026.6,,TRUE,TRUE,,,,,,,CLR,,,,,,,,VFR,,,,,,,,,,,,METAR,1307.0
KSNS 150053Z 14012KT 10SM OVC060 12/09 A2985 RMK AO2 SLP118 T01220089,KSNS,2019-01-15T00:53:00Z,36.67,-121.6,12.2,8.9,140,12,,10.0,29.84941,1011.8,,,TRUE,,,,,,,OVC,6000,,,,,,,VFR,,,,,,,,,,,,METAR,30.0
KSNA 150053Z 10006KT 10SM BKN016 OVC025 13/11 A2996 RMK AO2 RAB2358E20 SLP145 P0000 T01330106,KSNA,2019-01-15T00:53:00Z,33.67,-117.87,13.3,10.6,100,6,,10.0,29.958662,1014.5,,,TRUE,,,,,,,BKN,1600,OVC,2500,,,,,MVFR,,,,,,0.005,,,,,,METAR,16.0
KSMQ 150053Z AUTO 00000KT 10SM CLR M06/M10 A3014 RMK AO2 SLP209 T10561100,KSMQ,2019-01-15T00:53:00Z,40.62,-74.67,-5.6,-10.0,0,0,,10.0,30.138779,1020.9,,TRUE,TRUE,,,,,,,CLR,,,,,,,,VFR,,,,,,,,,,,,METAR,30.0
KSMF 150053Z 16005KT 10SM -RA BKN060 OVC080 12/07 A2989 RMK AO2 RAB13E22B50 SLP120 P0000 T01220067,KSMF,2019-01-15T00:53:00Z,38.7,-121.6,12.2,6.7,160,5,,10.0,29.890747,1012.0,,,TRUE,,,,,,-RA,BKN,6000,OVC,8000,,,,,VFR,,,,,,0.005,,,,,,METAR,6.0
KSLN 150053Z 19003KT 7SM OVC007 01/01 A3029 RMK AO2 SLP268 T00060006,KSLN,2019-01-15T00:53:00Z,38.78,-97.65,0.6,0.6,190,3,,7.0,30.28937,1026.8,,,TRUE,,,,,,,OVC,700,,,,,,,IFR,,,,,,,,,,,,METAR,385.0
KSJC 150053Z 14009KT 10SM FEW023 BKN050 BKN100 12/09 A2985 RMK AO2 RAE41 SLP106 P0001 T01220089,KSJC,2019-01-15T00:53:00Z,37.37,-121.92,12.2,8.9,140,9,,10.0,29.84941,1010.6,,,TRUE,,,,,,,FEW,2300,BKN,5000,BKN,10000,,,VFR,,,,,,0.01,,,,,,METAR,24.0
KSIY 150053Z AUTO 00000KT 10SM BKN100 06/M05 A2988 RMK AO2 SLP145 T00561050,KSIY,2019-01-15T00:53:00Z,41.77,-122.47,5.6,-5.0,0,0,,10.0,29.878937,1014.5,,TRUE,TRUE,,,,,,,BKN,10000,,,,,,,VFR,,,,,,,,,,,,METAR,807.0
KSHR 150053Z AUTO 29003KT 10SM CLR M03/M08 A3006 RMK AO2 SLP230 T10331078,KSHR,2019-01-15T00:53:00Z,44.77,-106.97,-3.3,-7.8,290,3,,10.0,30.059055,1023.0,,TRUE,TRUE,,,,,,,CLR,,,,,,,,VFR,,,,,,,,,,,,METAR,1202.0
KSHN 150053Z AUTO 00000KT M1/4SM FG VV001 02/01 A2994 RMK AO2 SLP145 T00170006,KSHN,2019-01-15T00:53:00Z,47.23,-123.13,1.7,0.6,0,0,,0.25,29.940945,1014.5,,TRUE,TRUE,,,,,,FG,OVX,0,,,,,,,LIFR,,,,,,,,,,,100,METAR,82.0
KSGR 150053Z 30005KT 10SM OVC060 11/04 A3038 RMK AO2 SLP290 T01110039,KSGR,2019-01-15T00:53:00Z,29.62,-95.65,11.1,3.9,300,5,,10.0,30.380905,1029.0,,,TRUE,,,,,,,OVC,6000,,,,,,,VFR,,,,,,,,,,,,METAR,2.0
KSFF 150053Z 07004KT 10SM CLR M01/M04 A3019 RMK AO2 SLP244 T10061039,KSFF,2019-01-15T00:53:00Z,47.68,-117.32,-0.6,-3.9,70,4,,10.0,30.188976,1024.4,,,TRUE,,,,,,,CLR,,,,,,,,VFR,,,,,,,,,,,,METAR,609.0
KSFB 150053Z 02005KT 10SM CLR 12/09 A3018 RMK AO2 SLP221 T01170089,KSFB,2019-01-15T00:53:00Z,28.77,-81.22,11.7,8.9,20,5,,10.0,30.180119,1022.1,,,TRUE,,,,,,,CLR,,,,,,,,VFR,,,,,,,,,,,,METAR,17.0
KSEG 150053Z AUTO 00000KT 10SM CLR M06/M09 A3018 RMK AO2 SLP227 T10611089,KSEG,2019-01-15T00:53:00Z,40.82,-76.87,-6.1,-8.9,0,0,,10.0,30.180119,1022.7,,TRUE,TRUE,,,,,,,CLR,,,,,,,,VFR,,,,,,,,,,,,SPECI,134.0
KSEA 150053Z 18004KT 8SM FEW250 06/04 A2996 RMK AO2 SLP154 T00560039,KSEA,2019-01-15T00:53:00Z,47.45,-122.32,5.6,3.9,180,4,,8.0,29.958662,1015.4,,,TRUE,,,,,,,FEW,25000,,,,,,,VFR,,,,,,,,,,,,METAR,136.0
KSDM 150053Z 13007KT 7SM -RA SCT021 OVC027 13/12 A2996 RMK AO2 SLP145 P0001 T01280117,KSDM,2019-01-15T00:53:00Z,32.58,-117.0,12.8,11.7,130,7,,7.0,29.958662,1014.5,,,TRUE,,,,,,-RA,SCT,2100,OVC,2700,,,,,MVFR,,,,,,0.01,,,,,,METAR,159.0
KSDL 150053Z 10003KT 10SM SCT110 18/06 A3006 RMK AO2 SLP168 T01830061,KSDL,2019-01-15T00:53:00Z,33.62,-111.92,18.3,6.1,100,3,,10.0,30.059055,1016.8,,,TRUE,,,,,,,SCT,11000,,,,,,,VFR,,,,,,,,,,,,METAR,447.0
KSBM 150053Z AUTO 28009KT 10SM OVC020 M01/M05 A3020 RMK AO2 SLP238 T10111050,KSBM,2019-01-15T00:53:00Z,43.78,-87.85,-1.1,-5.0,280,9,,10.0,30.200787,1023.8,,TRUE,TRUE,,,,,,,OVC,2000,,,,,,,MVFR,,,,,,,,,,,,METAR,232.0
KSBA 150053Z 11012KT 10SM SCT060 BKN120 14/08 A2992 RMK AO2 RAB44E53 SLP131 P0000 T01390083,KSBA,2019-01-15T00:53:00Z,34.43,-119.85,13.9,8.3,110,12,,10.0,29.920275,1013.1,,,TRUE,,,,,,,SCT,6000,BKN,12000,,,,,VFR,,,,,,0.005,,,,,,METAR,3.0
KSAV 150053Z 35005KT 10SM OVC014 08/06 A3023 RMK AO2 SLP238 T00780056,KSAV,2019-01-15T00:53:00Z,32.12,-81.2,7.8,5.6,350,5,,10.0,30.230314,1023.8,,,TRUE,,,,,,,OVC,1400,,,,,,,MVFR,,,,,,,,,,,,METAR,14.0
KSAF 150053Z 36008KT 10SM BKN095 M01/M03 A3025 RMK AO2 SLP251 T10061033,KSAF,2019-01-15T00:53:00Z,35.62,-106.1,-0.6,-3.3,360,8,,10.0,30.250984,1025.1,,,TRUE,,,,,,,BKN,9500,,,,,,,VFR,,,,,,,,,,,,METAR,1930.0
KSAC 150053Z 16005KT 10SM OVC070 12/07 A2989 RMK AO2 RAE15 SLP121 P0000 T01220067 $,KSAC,2019-01-15T00:53:00Z,38.5,-121.5,12.2,6.7,160,5,,10.0,29.890747,1012.1,,,TRUE,TRUE,,,,,,OVC,7000,,,,,,,VFR,,,,,,0.005,,,,,,METAR,11.0
KRXE 150053Z AUTO 05003KT 10SM CLR M10/M14 A3023 RMK AO2 SLP321 T11001144,KRXE,2019-01-15T00:53:00Z,43.83,-111.8,-10.0,-14.4,50,3,,10.0,30.230314,1032.1,,TRUE,TRUE,,,,,,,CLR,,,,,,,,VFR,,,,,,,,,,,,METAR,1480.0
KRWL 150053Z AUTO 36006KT 10SM CLR M13/M16 A3025 RMK AO2 SLP360 T11331156,KRWL,2019-01-15T00:53:00Z,41.78,-107.2,-13.3,-15.6,360,6,,10.0,30.250984,1036.0,,TRUE,TRUE,,,,,,,CLR,,,,,,,,VFR,,,,,,,,,,,,METAR,2077.0
KRWI 150053Z AUTO 00000KT 10SM CLR M01/M01 A3022 RMK AO2 SLP233 T10061011,KRWI,2019-01-15T00:53:00Z,35.85,-77.9,-0.6,-1.1,0,0,,10.0,30.221457,1023.3,,TRUE,TRUE,,,,,,,CLR,,,,,,,,VFR,,,,,,,,,,,,METAR,47.0
PGWT 150053Z 07016KT 7SM SCT016 SCT150 M/M A2988 RMK WIND DATA ESTIMATED,PGWT,2019-01-15T00:53:00Z,14.98,145.62,,,70,16,,7.0,29.878937,,,,,,,,,,,SCT,1600,SCT,15000,,,,,VFR,,,,,,,,,,,,SPECI,82.0
PHJR 150053Z 17009KT 10SM CLR 27/16 A3000 RMK AO2 SLP165 T02670161,PHJR,2019-01-15T00:53:00Z,21.32,-158.07,26.7,16.1,170,9,,10.0,30.0,1016.5,,,TRUE,,,,,,,CLR,,,,,,,,VFR,,,,,,,,,,,,METAR,15.0
PHLI 150053Z 05012KT 10SM CLR 26/18 A3000 RMK AO2 SLP157 T02610183,PHLI,2019-01-15T00:53:00Z,21.97,-159.33,26.1,18.3,50,12,,10.0,30.0,1015.7,,,TRUE,,,,,,,CLR,,,,,,,,VFR,,,,,,,,,,,,METAR,45.0
PHKO 150053Z 30010KT 10SM SCT050 27/18 A2998 RMK AO2 SLP151 T02670178,PHKO,2019-01-15T00:53:00Z,19.73,-156.05,26.7,17.8,300,10,,10.0,29.97933,1015.1,,,TRUE,,,,,,,SCT,5000,,,,,,,VFR,,,,,,,,,,,,METAR,27.0
PHTO 150053Z 12010KT 10SM FEW032 OVC055 26/18 A3000 RMK AO2 SLP157 T02560178,PHTO,2019-01-15T00:53:00Z,19.72,-155.05,25.6,17.8,120,10,,10.0,30.0,1015.7,,,TRUE,,,,,,,FEW,3200,OVC,5500,,,,,VFR,,,,,,,,,,,,METAR,12.0
PHNL 150053Z 15011KT 10SM FEW039 SCT055 27/16 A2999 RMK AO2 SLP155 T02720161,PHNL,2019-01-15T00:53:00Z,21.33,-157.92,27.2,16.1,150,11,,10.0,29.991142,1015.5,,,TRUE,,,,,,,FEW,3900,SCT,5500,,,,,VFR,,,,,,,,,,,,METAR,4.0
KUAO 150053Z 03012KT 10SM CLR 07/M03 A2992 RMK AO2 SLP133 T00671033,KUAO,2019-01-15T00:53:00Z,45.25,-122.77,6.7,-3.3,30,12,,10.0,29.920275,1013.3,,,TRUE,,,,,,,CLR,,,,,,,,VFR,,,,,,,,,,,,METAR,59.0
KTYS 150053Z 00000KT 10SM -RA OVC023 02/01 A3026 RMK AO2 SLP251 P0001 I1000 T00170011,KTYS,2019-01-15T00:53:00Z,35.82,-83.98,1.7,1.1,0,0,,10.0,30.259842,1025.1,,,TRUE,,,,,,-RA,OVC,2300,,,,,,,MVFR,,,,,,0.01,,,,,,METAR,302.0
KTYR 150053Z 04004KT 10SM CLR 03/00 A3039 RMK AO2 SLP293 T00280000,KTYR,2019-01-15T00:53:00Z,32.37,-95.4,2.8,0.0,40,4,,10.0,30.389763,1029.3,,,TRUE,,,,,,,CLR,,,,,,,,VFR,,,,,,,,,,,,METAR,165.0
KTXK 150053Z 33004KT 10SM OVC018 04/01 A3042 RMK AO2 SLP301 T00390006,KTXK,2019-01-15T00:53:00Z,33.45,-93.98,3.9,0.6,330,4,,10.0,30.41929,1030.1,,,TRUE,,,,,,,OVC,1800,,,,,,,MVFR,,,,,,,,,,,,METAR,111.0
KTVR 150053Z AUTO VRB04KT 10SM OVC019 04/01 A3039 RMK AO2 SLP300 T00440006,KTVR,2019-01-15T00:53:00Z,32.35,-91.03,4.4,0.6,0,4,,10.0,30.389763,1030.0,,TRUE,TRUE,,,,,,,OVC,1900,,,,,,,MVFR,,,,,,,,,,,,METAR,26.0
KTVL 150053Z AUTO 09003KT 10SM BKN120 01/M06 A2989 RMK AO2 SLP135 T00061056,KTVL,2019-01-15T00:53:00Z,38.9,-120.0,0.6,-5.6,90,3,,10.0,29.890747,1013.5,,TRUE,TRUE,,,,,,,BKN,12000,,,,,,,VFR,,,,,,,,,,,,SPECI,1924.0
KPUC 150053Z AUTO 00000KT 10SM OVC046 M02/M06 A3025 RMK AO2 SLP302 T10171056,KPUC,2019-01-15T00:53:00Z,39.62,-110.75,-1.7,-5.6,0,0,,10.0,30.250984,1030.2,,TRUE,TRUE,,,,,,,OVC,4600,,,,,,,VFR,,,,,,,,,,,,METAR,2091.0
KFWS 150052Z 00000KT 10SM OVC060 06/02 A3039,KFWS,2019-01-15T00:52:00Z,32.57,-97.3,6.0,2.0,0,0,,10.0,30.389763,,,,,,,,,,,OVC,6000,,,,,,,VFR,,,,,,,,,,,,METAR,208.0
KBAN 150052Z AUTO VRB05KT 10SM FEW025 OVC030 03/M06 A2987 RMK AO2 SLP131 T00281056 $,KBAN,2019-01-15T00:52:00Z,38.35,-119.52,2.8,-5.6,0,5,,10.0,29.870079,1013.1,,TRUE,TRUE,TRUE,,,,,,FEW,2500,OVC,3000,,,,,MVFR,,,,,,,,,,,,METAR,2057.0
KCDJ 150052Z AUTO 23004KT M02/M03 A3034 RMK AO1 SLP290 T10221028,KCDJ,2019-01-15T00:52:00Z,39.82,-93.58,-2.2,-2.8,230,4,,,30.339567,1029.0,,TRUE,TRUE,,,,,,,,,,,,,,,,,,,,,,,,,,,SPECI,234.0
KREO 150052Z AUTO 09005KT M03/M08 A3008 RMK AO1 SLP218 T10331078,KREO,2019-01-15T00:52:00Z,42.58,-117.87,-3.3,-7.8,90,5,,,30.079725,1021.8,,TRUE,TRUE,,,,,,,,,,,,,,,,,,,,,,,,,,,METAR,1235.0
CYIN 150052Z AUTO 11004KT 1/2SM FZFG OVC003 M06/M07 A3006 RMK SLP242,CYIN,2019-01-15T00:52:00Z,51.27,-121.68,-6.0,-7.0,110,4,,0.5,30.059055,1024.2,,TRUE,,,,,,,FZFG,OVC,300,,,,,,,LIFR,,,,,,,,,,,,SPECI,1128.0
PTTP 150052Z 12004KT 15SM FEW018 BKN130 OVC300 29/24 A2977 RMK SLP080 T02890241,PTTP,2019-01-15T00:52:00Z,6.97,158.22,28.9,24.1,120,4,,15.0,29.769686,1008.0,,,,,,,,,,FEW,1800,BKN,13000,OVC,30000,,,VFR,,,,,,,,,,,,SPECI,2.0
CZSJ 150052Z AUTO 11003KT 6SM BR FEW120 M19/M21 A3012 RMK SLP235,CZSJ,2019-01-15T00:52:00Z,53.07,-93.35,-19.0,-21.0,110,3,,6.0,30.121063,1023.5,,TRUE,,,,,,,BR,FEW,12000,,,,,,,VFR,,,,,,,,,,,,SPECI,290.0
CYUX 150052Z AUTO 33015KT 6SM HZ CLR M37/M41 A2983 RMK SLP105,CYUX,2019-01-15T00:52:00Z,68.77,-81.25,-37.0,-41.0,330,15,,6.0,29.828741,1010.5,,TRUE,,,,,,,HZ,CLR,,,,,,,,VFR,,,,,,,,,,,,SPECI,8.0
KTAN 150052Z AUTO 00000KT 7SM CLR M09/M11 A3010 RMK AO2 SLP192 I1001 T10891111,KTAN,2019-01-15T00:52:00Z,41.88,-71.02,-8.9,-11.1,0,0,,7.0,30.100393,1019.2,,TRUE,TRUE,,,,,,,CLR,,,,,,,,VFR,,,,,,,,,,,,METAR,7.0
KVTN 150052Z AUTO 08003KT 10SM CLR 00/M03 A3017 RMK AO2 SLP249 T00001028 $,KVTN,2019-01-15T00:52:00Z,42.87,-100.55,0.0,-2.8,80,3,,10.0,30.171259,1024.9,,TRUE,TRUE,TRUE,,,,,,CLR,,,,,,,,VFR,,,,,,,,,,,,SPECI,788.0
KABQ 150052Z 02007KT 10SM FEW040 SCT110 BKN200 06/01 A3025 RMK AO2 SLP242 MTN TOPS OBSC NE T00560006,KABQ,2019-01-15T00:52:00Z,35.05,-106.62,5.6,0.6,20,7,,10.0,30.250984,1024.2,,,TRUE,,,,,,,FEW,4000,SCT,11000,BKN,20000,,,VFR,,,,,,,,,,,,METAR,1618.0
KABI 150052Z 18003KT 10SM OVC036 07/03 A3033 RMK AO2 SLP274 T00670033,KABI,2019-01-15T00:52:00Z,32.42,-99.68,6.7,3.3,180,3,,10.0,30.33071,1027.4,,,TRUE,,,,,,,OVC,3600,,,,,,,VFR,,,,,,,,,,,,METAR,548.0
PABA 150052Z AUTO 09027G33KT 2 1/2SM BR FEW009 M26/M28 A3032 RMK AO2 PK WND 09035/0034 VIS 2V3 SLP253 T12561278 FZRANO TSNO,PABA,2019-01-15T00:52:00Z,70.13,-143.58,-25.6,-27.8,90,27,33,2.5,30.318897,1025.3,,TRUE,TRUE,,,TRUE,TRUE,,BR,FEW,900,,,,,,,IFR,,,,,,,,,,,,METAR,2.0
CYAH 150052Z AUTO 26016G21KT 2 1/2SM -SN OVC019 M18/M21 A2985 RMK SLP140,CYAH,2019-01-15T00:52:00Z,53.75,-73.67,-18.0,-21.0,260,16,21,2.5,29.84941,1014.0,,TRUE,,,,,,,-SN,OVC,1900,,,,,,,IFR,,,,,,,,,,,,SPECI,306.0
KCID 150052Z 27006KT 6SM BR OVC005 M04/M04 A3027 RMK AO2 SLP264 T10391039,KCID,2019-01-15T00:52:00Z,41.88,-91.72,-3.9,-3.9,270,6,,6.0,30.268702,1026.4,,,TRUE,,,,,,BR,OVC,500,,,,,,,IFR,,,,,,,,,,,,METAR,264.0
KCFV 150052Z AUTO 19005KT 9SM OVC013 01/M01 A3036 RMK AO2 SLP287 T00111011,KCFV,2019-01-15T00:52:00Z,37.08,-95.57,1.1,-1.1,190,5,,9.0,30.360237,1028.7,,TRUE,TRUE,,,,,,,OVC,1300,,,,,,,MVFR,,,,,,,,,,,,METAR,225.0
KBML 150052Z AUTO 00000KT 10SM CLR M12/M14 A3006 RMK AO2 SLP214 T11221144,KBML,2019-01-15T00:52:00Z,44.58,-71.18,-12.2,-14.4,0,0,,10.0,30.059055,1021.4,,TRUE,TRUE,,,,,,,CLR,,,,,,,,VFR,,,,,,,,,,,,METAR,345.0
KBLU 150052Z AUTO 26003KT 10SM OVC050 03/M04 A2990 RMK AO2 SLP120 T00281044,KBLU,2019-01-15T00:52:00Z,39.28,-120.7,2.8,-4.4,260,3,,10.0,29.899607,1012.0,,TRUE,TRUE,,,,,,,OVC,5000,,,,,,,VFR,,,,,,,,,,,,METAR,1609.0
KBLH 150052Z AUTO 08005KT 10SM -RA FEW050 SCT065 OVC085 14/11 A3001 RMK AO2 RAB09 SLP159 P0001 T01440111,KBLH,2019-01-15T00:52:00Z,33.62,-114.72,14.4,11.1,80,5,,10.0,30.008858,1015.9,,TRUE,TRUE,,,,,,-RA,FEW,5000,SCT,6500,OVC,8500,,,VFR,,,,,,0.01,,,,,,METAR,119.0
KBLF 150052Z AUTO 29007KT 1/2SM FZFG VV002 M03/M03 A3016 RMK AO2 SLP235 I1001 T10331033,KBLF,2019-01-15T00:52:00Z,37.3,-81.2,-3.3,-3.3,290,7,,0.5,30.159449,1023.5,,TRUE,TRUE,,,,,,FZFG,OVX,0,,,,,,,LIFR,,,,,,,,,,,200,METAR,873.0
KBIS 150052Z 16007KT 7SM CLR M07/M09 A3019 RMK AO2 SLP255 T10721089,KBIS,2019-01-15T00:52:00Z,46.77,-100.75,-7.2,-8.9,160,7,,7.0,30.188976,1025.5,,,TRUE,,,,,,,CLR,,,,,,,,VFR,,,,,,,,,,,,METAR,505.0
KBDR 150052Z 32004KT 10SM CLR M02/M14 A3013 RMK AO2 SLP202 T10221139,KBDR,2019-01-15T00:52:00Z,41.17,-73.13,-2.2,-13.9,320,4,,10.0,30.129921,1020.2,,,TRUE,,,,,,,CLR,,,,,,,,VFR,,,,,,,,,,,,METAR,7.0
KATL 150052Z 35013G20KT 10SM BKN024 OVC030 06/01 A3023 RMK AO2 SLP242 T00610006,KATL,2019-01-15T00:52:00Z,33.63,-84.45,6.1,0.6,350,13,20,10.0,30.230314,1024.2,,,TRUE,,,,,,,BKN,2400,OVC,3000,,,,,MVFR,,,,,,,,,,,,METAR,296.0
KARR 150052Z 24010KT 5SM BR OVC009 M05/M07 A3029 RMK AO2 SLP268 T10501072,KARR,2019-01-15T00:52:00Z,41.77,-88.48,-5.0,-7.2,240,10,,5.0,30.28937,1026.8,,,TRUE,,,,,,BR,OVC,900,,,,,,,IFR,,,,,,,,,,,,METAR,215.0
KAQW 150052Z AUTO 26005KT 10SM CLR M07/M12 A3013 RMK AO2 SLP219 T10721117,KAQW,2019-01-15T00:52:00Z,42.7,-73.17,-7.2,-11.7,260,5,,10.0,30.129921,1021.9,,TRUE,TRUE,,,,,,,CLR,,,,,,,,VFR,,,,,,,,,,,,METAR,199.0
KALS 150052Z AUTO 35005KT 10SM CLR M09/M11 A3028 RMK AO2 SLP328 T10891106,KALS,2019-01-15T00:52:00Z,37.43,-105.87,-8.9,-10.6,350,5,,10.0,30.280512,1032.8,,TRUE,TRUE,,,,,,,CLR,,,,,,,,VFR,,,,,,,,,,,,METAR,2299.0
KAFN 150052Z AUTO 02004KT 10SM CLR M05/M13 A3005 RMK AO2 SLP202 T10501133,KAFN,2019-01-15T00:52:00Z,42.8,-72.0,-5.0,-13.3,20,4,,10.0,30.050198,1020.2,,TRUE,TRUE,,,,,,,CLR,,,,,,,,VFR,,,,,,,,,,,,METAR,313.0
KOMA 150052Z 19004KT 5SM BR OVC007 00/M02 A3025 RMK AO2 SLP253 T00001022,KOMA,2019-01-15T00:52:00Z,41.32,-95.9,0.0,-2.2,190,4,,5.0,30.250984,1025.3,,,TRUE,,,,,,BR,OVC,700,,,,,,,IFR,,,,,,,,,,,,METAR,312.0
KOKC 150052Z 19007KT 10SM FEW250 03/00 A3032 RMK AO2 SLP275 T00330000 $,KOKC,2019-01-15T00:52:00Z,35.38,-97.6,3.3,0.0,190,7,,10.0,30.318897,1027.5,,,TRUE,TRUE,,,,,,FEW,25000,,,,,,,VFR,,,,,,,,,,,,METAR,390.0
KOKB 150052Z AUTO 07005KT 6SM BR FEW006 OVC016 13/12 A2997 RMK AO2 RAB01E19 SLP148 P0001 T01280122,KOKB,2019-01-15T00:52:00Z,33.22,-117.35,12.8,12.2,70,5,,6.0,29.970472,1014.8,,TRUE,TRUE,,,,,,BR,FEW,600,OVC,1600,,,,,MVFR,,,,,,0.01,,,,,,METAR,8.0
KMWH 150052Z 36004KT 10SM OVC015 M01/M04 A3024 RMK AO2 SLP255 T10061039,KMWH,2019-01-15T00:52:00Z,47.2,-119.32,-0.6,-3.9,360,4,,10.0,30.239174,1025.5,,,TRUE,,,,,,,OVC,1500,,,,,,,MVFR,,,,,,,,,,,,METAR,362.0
KMLI 150052Z 26006KT 5SM BR OVC009 M02/M04 A3030 RMK AO2 SLP269 T10221044,KMLI,2019-01-15T00:52:00Z,41.45,-90.52,-2.2,-4.4,260,6,,5.0,30.301182,1026.9,,,TRUE,,,,,,BR,OVC,900,,,,,,,IFR,,,,,,,,,,,,METAR,184.0
KMLF 150052Z AUTO 01010KT 10SM OVC011 M02/M05 A3019 RMK AO2 WSHFT 0037 SLP248 T10221050,KMLF,2019-01-15T00:52:00Z,38.42,-113.02,-2.2,-5.0,10,10,,10.0,30.188976,1024.8,,TRUE,TRUE,,,,,,,OVC,1100,,,,,,,MVFR,,,,,,,,,,,,METAR,1534.0
KMKE 150052Z 23009KT 6SM HZ OVC013 M02/M06 A3023 RMK AO2 SLP248 T10221061,KMKE,2019-01-15T00:52:00Z,42.95,-87.9,-2.2,-6.1,230,9,,6.0,30.230314,1024.8,,,TRUE,,,,,,HZ,OVC,1300,,,,,,,MVFR,,,,,,,,,,,,METAR,206.0
KMHK 150052Z 24007KT 9SM OVC006 02/01 A3030 RMK AO2 SLP272 T00170006,KMHK,2019-01-15T00:52:00Z,39.13,-96.68,1.7,0.6,240,7,,9.0,30.301182,1027.2,,,TRUE,,,,,,,OVC,600,,,,,,,IFR,,,,,,,,,,,,SPECI,317.0
KMFD 150052Z 24003KT 9SM CLR M08/M09 A3024 RMK AO2 SLP261 T10781094,KMFD,2019-01-15T00:52:00Z,40.82,-82.52,-7.8,-9.4,240,3,,9.0,30.239174,1026.1,,,TRUE,,,,,,,CLR,,,,,,,,VFR,,,,,,,,,,,,SPECI,395.0
KMEB 150052Z AUTO 00000KT 10SM OVC037 06/02 A3022 RMK AO2 SLP234 T00560022,KMEB,2019-01-15T00:52:00Z,34.78,-79.37,5.6,2.2,0,0,,10.0,30.221457,1023.4,,TRUE,TRUE,,,,,,,OVC,3700,,,,,,,VFR,,,,,,,,,,,,METAR,67.0
KMDH 150052Z 22003KT 8SM OVC025 00/M02 A3036 RMK AO2 SLP286 T00001022,KMDH,2019-01-15T00:52:00Z,37.78,-89.25,0.0,-2.2,220,3,,8.0,30.360237,1028.6,,,TRUE,,,,,,,OVC,2500,,,,,,,MVFR,,,,,,,,,,,,METAR,130.0
KMBG 150052Z AUTO 18006KT 4SM BR OVC003 M04/M06 A3017 RMK AO2 SLP243 T10391056,KMBG,2019-01-15T00:52:00Z,45.55,-100.42,-3.9,-5.6,180,6,,4.0,30.171259,1024.3,,TRUE,TRUE,,,,,,BR,OVC,300,,,,,,,LIFR,,,,,,,,,,,,SPECI,510.0
KLWC 150052Z AUTO 21007KT 5SM BR OVC005 M01/M02 A3033 RMK AO2 SLP279 T10111022,KLWC,2019-01-15T00:52:00Z,39.02,-95.22,-1.1,-2.2,210,7,,5.0,30.33071,1027.9,,TRUE,TRUE,,,,,,BR,OVC,500,,,,,,,IFR,,,,,,,,,,,,METAR,253.0
KISN 150052Z AUTO 18006KT 10SM CLR M02/M05 A3006 RMK AO2 SLP212 T10171050,KISN,2019-01-15T00:52:00Z,48.17,-103.63,-1.7,-5.0,180,6,,10.0,30.059055,1021.2,,TRUE,TRUE,,,,,,,CLR,,,,,,,,VFR,,,,,,,,,,,,METAR,579.0
KIOW 150052Z AUTO 27007KT 9SM OVC007 M03/M04 A3031 RMK AO2 SLP272 T10281044,KIOW,2019-01-15T00:52:00Z,41.63,-91.55,-2.8,-4.4,270,7,,9.0,30.31004,1027.2,,TRUE,TRUE,,,,,,,OVC,700,,,,,,,IFR,,,,,,,,,,,,METAR,198.0
KIJD 150052Z AUTO 00000KT 10SM CLR M07/M09 A3011 RMK AO2 SLP199 T10671094,KIJD,2019-01-15T00:52:00Z,41.75,-72.18,-6.7,-9.4,0,0,,10.0,30.109253,1019.9,,TRUE,TRUE,,,,,,,CLR,,,,,,,,VFR,,,,,,,,,,,,METAR,75.0
KIEN 150052Z AUTO 07006KT 10SM CLR M02/M07 A3014 RMK AO2 SLP246 T10221072,KIEN,2019-01-15T00:52:00Z,43.03,-102.52,-2.2,-7.2,70,6,,10.0,30.138779,1024.6,,TRUE,TRUE,,,,,,,CLR,,,,,,,,VFR,,,,,,,,,,,,METAR,998.0
KIAD 150052Z 00000KT 10SM FEW200 M06/M07 A3020 RMK AO2 SLP230 I1000 T10561067,KIAD,2019-01-15T00:52:00Z,38.93,-77.45,-5.6,-6.7,0,0,,10.0,30.200787,1023.0,,,TRUE,,,,,,,FEW,20000,,,,,,,VFR,,,,,,,,,,,,METAR,93.0
KHUT 150052Z 00000KT 9SM CLR 02/01 A3027 RMK AO2 SLP256 T00170006,KHUT,2019-01-15T00:52:00Z,38.07,-97.87,1.7,0.6,0,0,,9.0,30.268702,1025.6,,,TRUE,,,,,,,CLR,,,,,,,,VFR,,,,,,,,,,,,METAR,467.0
KHRL 150052Z 36011KT 4SM BR OVC005 11/09 A3033 RMK AO2 SLP271 T01060094,KHRL,2019-01-15T00:52:00Z,26.23,-97.65,10.6,9.4,360,11,,4.0,30.33071,1027.1,,,TRUE,,,,,,BR,OVC,500,,,,,,,IFR,,,,,,,,,,,,METAR,10.0
KHIE 150052Z AUTO 00000KT 10SM CLR M12/M14 A3009 RMK AO2 SLP220 T11221144,KHIE,2019-01-15T00:52:00Z,44.37,-71.55,-12.2,-14.4,0,0,,10.0,30.088583,1022.0,,TRUE,TRUE,,,,,,,CLR,,,,,,,,VFR,,,,,,,,,,,,METAR,318.0
KGLS 150052Z AUTO 01005KT 10SM OVC070 11/05 A3038 RMK AO2 SLP289 T01110050,KGLS,2019-01-15T00:52:00Z,29.27,-94.87,11.1,5.0,10,5,,10.0,30.380905,1028.9,,TRUE,TRUE,,,,,,,OVC,7000,,,,,,,VFR,,,,,,,,,,,,METAR,6.0
KFIT 150052Z AUTO 01003KT 10SM CLR M04/M12 A3009 RMK AO2 SLP197 T10441117,KFIT,2019-01-15T00:52:00Z,42.55,-71.75,-4.4,-11.7,10,3,,10.0,30.088583,1019.7,,TRUE,TRUE,,,,,,,CLR,,,,,,,,VFR,,,,,,,,,,,,METAR,103.0
KEST 150052Z AUTO 36005KT 9SM OVC005 M02/M03 A3021 RMK AO2 SLP249 T10221028,KEST,2019-01-15T00:52:00Z,43.4,-94.75,-2.2,-2.8,360,5,,9.0,30.209646,1024.9,,TRUE,TRUE,,,,,,,OVC,500,,,,,,,IFR,,,,,,,,,,,,METAR,401.0
PATA 150052Z 00000KT 10SM FEW080 FEW120 M19/M23 A3008 RMK AO2 SLP195 T11941233 PNO,PATA,2019-01-15T00:52:00Z,65.17,-152.1,-19.4,-23.3,0,0,,10.0,30.079725,1019.5,,,TRUE,,,,,,,FEW,8000,FEW,12000,,,,,VFR,,,,,,,,,,,,METAR,67.0
KDVN 150052Z AUTO 28007KT 6SM BR OVC006 M03/M05 A3031 RMK AO2 SLP273 T10331050,KDVN,2019-01-15T00:52:00Z,41.62,-90.58,-3.3,-5.0,280,7,,6.0,30.31004,1027.3,,TRUE,TRUE,,,,,,BR,OVC,600,,,,,,,IFR,,,,,,,,,,,,METAR,230.0
KDPA 150052Z 24008KT 5SM BR OVC009 M04/M07 A3027 RMK AO2 SLP263 T10441067,KDPA,2019-01-15T00:52:00Z,41.92,-88.25,-4.4,-6.7,240,8,,5.0,30.268702,1026.3,,,TRUE,,,,,,BR,OVC,900,,,,,,,IFR,,,,,,,,,,,,METAR,231.0
KDDC 150052Z AUTO 27008KT 6SM BR OVC004 01/M01 A3023 RMK AO2 SLP255 T00061011,KDDC,2019-01-15T00:52:00Z,37.77,-99.97,0.6,-1.1,270,8,,6.0,30.230314,1025.5,,TRUE,TRUE,,,,,,BR,OVC,400,,,,,,,LIFR,,,,,,,,,,,,METAR,789.0
KDCA 150052Z 26003KT 10SM CLR 01/M08 A3021 RMK AO2 SLP230 T00111078,KDCA,2019-01-15T00:52:00Z,38.85,-77.03,1.1,-7.8,260,3,,10.0,30.209646,1023.0,,,TRUE,,,,,,,CLR,,,,,,,,VFR,,,,,,,,,,,,METAR,18.0
KCVG 150052Z 00000KT 6SM BR SCT019 M06/M08 A3029 RMK AO2 SLP267 T10561078,KCVG,2019-01-15T00:52:00Z,39.05,-84.67,-5.6,-7.8,0,0,,6.0,30.28937,1026.7,,,TRUE,,,,,,BR,SCT,1900,,,,,,,VFR,,,,,,,,,,,,METAR,269.0
KCQX 150052Z AUTO VRB06KT 10SM OVC025 M01/M07 A3008 RMK AO2 SLP186 T10061067,KCQX,2019-01-15T00:52:00Z,41.68,-70.0,-0.6,-6.7,0,6,,10.0,30.079725,1018.6,,TRUE,TRUE,,,,,,,OVC,2500,,,,,,,MVFR,,,,,,,,,,,,METAR,19.0
KCNU 150052Z AUTO 21008KT 7SM OVC005 M01/M01 A3035 RMK AO2 SLP286 T10061011,KCNU,2019-01-15T00:52:00Z,37.67,-95.48,-0.6,-1.1,210,8,,7.0,30.351377,1028.6,,TRUE,TRUE,,,,,,,OVC,500,,,,,,,IFR,,,,,,,,,,,,METAR,297.0
KCLT 150052Z 10004KT 10SM FEW036 BKN048 06/02 A3019 RMK AO2 SLP228 T00560022,KCLT,2019-01-15T00:52:00Z,35.22,-80.95,5.6,2.2,100,4,,10.0,30.188976,1022.8,,,TRUE,,,,,,,FEW,3600,BKN,4800,,,,,VFR,,,,,,,,,,,,METAR,220.0
KCKV 150052Z AUTO 34006KT 7SM OVC013 01/M02 A3034 RMK AO2 SLP280 T00111017,KCKV,2019-01-15T00:52:00Z,36.62,-87.42,1.1,-1.7,340,6,,7.0,30.339567,1028.0,,TRUE,TRUE,,,,,,,OVC,1300,,,,,,,MVFR,,,,,,,,,,,,METAR,165.0
KPPF 150052Z AUTO 23004KT 8SM OVC009 01/M01 A3036 RMK AO2 SLP289 T00061011,KPPF,2019-01-15T00:52:00Z,37.33,-95.5,0.6,-1.1,230,4,,8.0,30.360237,1028.9,,TRUE,TRUE,,,,,,,OVC,900,,,,,,,IFR,,,,,,,,,,,,METAR,274.0
KSGF 150052Z 26005KT 8SM OVC007 M01/M03 A3033 RMK AO2 SLP281 T10061028,KSGF,2019-01-15T00:52:00Z,37.23,-93.38,-0.6,-2.8,260,5,,8.0,30.33071,1028.1,,,TRUE,,,,,,,OVC,700,,,,,,,IFR,,,,,,,,,,,,METAR,390.0
KRAP 150052Z 00000KT 10SM CLR M03/M07 A3012 RMK AO2 SLP245 T10331072,KRAP,2019-01-15T00:52:00Z,44.05,-103.05,-3.3,-7.2,0,0,,10.0,30.121063,1024.5,,,TRUE,,,,,,,CLR,,,,,,,,VFR,,,,,,,,,,,,METAR,965.0
KTRM 150052Z AUTO 33004KT 9SM -RA OVC045 12/10 A3004 RMK AO2 SLP171 P0006 T01220100 TSNO,KTRM,2019-01-15T00:52:00Z,33.63,-116.17,12.2,10.0,330,4,,9.0,30.041338,1017.1,,TRUE,TRUE,,,TRUE,,,-RA,OVC,4500,,,,,,,VFR,,,,,,0.06,,,,,,METAR,-35.0
KTOL 150052Z 23006KT 9SM OVC024 M04/M09 A3026 RMK AO2 SLP259 T10391089,KTOL,2019-01-15T00:52:00Z,41.58,-83.8,-3.9,-8.9,230,6,,9.0,30.259842,1025.9,,,TRUE,,,,,,,OVC,2400,,,,,,,MVFR,,,,,,,,,,,,METAR,210.0
KSUX 150052Z 07004KT 10SM OVC022 M01/M02 A3023 RMK AO2 SLP248 T10061022,KSUX,2019-01-15T00:52:00Z,42.38,-96.38,-0.6,-2.2,70,4,,10.0,30.230314,1024.8,,,TRUE,,,,,,,OVC,2200,,,,,,,MVFR,,,,,,,,,,,,METAR,338.0
KSPS 150052Z 15006KT 10SM CLR 02/01 A3034 RMK AO2 SLP280 T00220006,KSPS,2019-01-15T00:52:00Z,33.98,-98.5,2.2,0.6,150,6,,10.0,30.339567,1028.0,,,TRUE,,,,,,,CLR,,,,,,,,VFR,,,,,,,,,,,,METAR,308.0
KSPI 150052Z 25009KT 10SM OVC009 M02/M04 A3033 RMK AO2 SLP280 T10171039,KSPI,2019-01-15T00:52:00Z,39.85,-89.68,-1.7,-3.9,250,9,,10.0,30.33071,1028.0,,,TRUE,,,,,,,OVC,900,,,,,,,IFR,,,,,,,,,,,,METAR,181.0
ETAD 150052Z AUTO 25007KT 9999 -DZ BKN023 BKN032 OVC040 01/00 A3015 RMK AO2 DZB52 CIG 023V034 BKN023 V SCT SLP217 $,ETAD,2019-01-15T00:52:00Z,49.98,6.7,1.0,0.0,250,7,,6.21,30.15059,1021.7,,TRUE,TRUE,TRUE,,,,,-DZ,BKN,2300,BKN,3200,OVC,4000,,,MVFR,,,,,,,,,,,,SPECI,365.0
KORE 150052Z AUTO 02003KT 10SM CLR M06/M12 A3010 RMK AO2 SLP205 T10611122,KORE,2019-01-15T00:52:00Z,42.57,-72.28,-6.1,-12.2,20,3,,10.0,30.100393,1020.5,,TRUE,TRUE,,,,,,,CLR,,,,,,,,VFR,,,,,,,,,,,,METAR,164.0
KAQP 150052Z AUTO 34003KT 10SM OVC007 M03/M05 A3024 RMK AO2,KAQP,2019-01-15T00:52:00Z,45.22,-96.0,-3.0,-5.0,340,3,,10.0,30.239174,,,TRUE,TRUE,,,,,,,OVC,700,,,,,,,IFR,,,,,,,,,,,,METAR,311.0
KN60 150052Z AUTO 15004KT M10/M11 A3013 RMK AO1 SLP241 T11001111,KN60,2019-01-15T00:52:00Z,47.65,-101.43,-10.0,-11.1,150,4,,,30.129921,1024.1,,TRUE,TRUE,,,,,,,,,,,,,,,,,,,,,,,,,,,METAR,582.0
KP69 150052Z AUTO 35003KT M02/M04 A3020 RMK AO1 SLP260 T10221039 TSNO,KP69,2019-01-15T00:52:00Z,46.15,-115.6,-2.2,-3.9,350,3,,,30.200787,1026.0,,TRUE,TRUE,,,TRUE,,,,,,,,,,,,,,,,,,,,,,,,SPECI,480.0
KCZZ 150052Z AUTO 07010KT 09/07 A2993 RMK AO1 SLP124 P0009 T00890067,KCZZ,2019-01-15T00:52:00Z,32.63,-116.47,8.9,6.7,70,10,,,29.929134,1012.4,,TRUE,TRUE,,,,,,,,,,,,,,,,,,,,,0.09,,,,,,METAR,807.0
KNRB 150052Z 33006KT 10SM OVC012 09/07 A3022 RMK AO2 SLP233 T00940067 $,KNRB,2019-01-15T00:52:00Z,30.38,-81.42,9.4,6.7,330,6,,10.0,30.221457,1023.3,,,TRUE,TRUE,,,,,,OVC,1200,,,,,,,MVFR,,,,,,,,,,,,METAR,5.0
KPYM 150052Z AUTO 00000KT 10SM CLR M07/M09 A3009 RMK AO2 SLP191 T10671094,KPYM,2019-01-15T00:52:00Z,41.92,-70.73,-6.7,-9.4,0,0,,10.0,30.088583,1019.1,,TRUE,TRUE,,,,,,,CLR,,,,,,,,VFR,,,,,,,,,,,,METAR,43.0
KPWK 150052Z 24008KT 8SM OVC012 M03/M07 A3029 RMK AO2 SLP265 T10331072,KPWK,2019-01-15T00:52:00Z,42.12,-87.9,-3.3,-7.2,240,8,,8.0,30.28937,1026.5,,,TRUE,,,,,,,OVC,1200,,,,,,,MVFR,,,,,,,,,,,,METAR,203.0
CYVL 150051Z AUTO 10006KT 9SM -SN SCT018 OVC032 M25/M28 A3036 RMK SLP329,CYVL,2019-01-15T00:51:00Z,67.02,-126.13,-25.0,-28.0,100,6,,9.0,30.360237,1032.9,,TRUE,,,,,,,-SN,SCT,1800,OVC,3200,,,,,VFR,,,,,,,,,,,,SPECI,259.0
YCDU 150051Z AUTO 21004KT 9999 // NCD 42/06 Q1007,YCDU,2019-01-15T00:51:00Z,-32.12,133.7,42.0,6.0,210,4,,6.21,29.734253,,,TRUE,,,,,,,,CLR,,,,,,,,VFR,,,,,,,,,,,,SPECI,15.0
KIFP 150051Z 36009KT 09SM -RA SCT040 BKN050 14/03 A3004,KIFP,2019-01-15T00:51:00Z,35.15,-114.57,14.0,3.0,360,9,,9.0,30.041338,,,,,,,,,,-RA,SCT,4000,BKN,5000,,,,,VFR,,,,,,,,,,,,METAR,212.0
KLGU 150051Z AUTO 33004KT 9SM CLR M13/M14 A3028 RMK AO2 SLP316 T11281144,KLGU,2019-01-15T00:51:00Z,41.78,-111.85,-12.8,-14.4,330,4,,9.0,30.280512,1031.6,,TRUE,TRUE,,,,,,,CLR,,,,,,,,VFR,,,,,,,,,,,,METAR,1355.0
KOXC 150051Z 32005KT 10SM CLR M04/M12 A3009 RMK AO2 SLP213 T10441122,KOXC,2019-01-15T00:51:00Z,41.47,-73.13,-4.4,-12.2,320,5,,10.0,30.088583,1021.3,,,TRUE,,,,,,,CLR,,,,,,,,VFR,,,,,,,,,,,,METAR,222.0
KOCF 150051Z AUTO 36005KT 10SM CLR 09/07 A3020 RMK AO2 SLP231 T00940067 $,KOCF,2019-01-15T00:51:00Z,29.17,-82.22,9.4,6.7,360,5,,10.0,30.200787,1023.1,,TRUE,TRUE,TRUE,,,,,,CLR,,,,,,,,VFR,,,,,,,,,,,,SPECI,27.0
KMPV 150051Z AUTO 00000KT 10SM CLR M12/M14 A3013 RMK AO2 SLP236 T11221139,KMPV,2019-01-15T00:51:00Z,44.2,-72.57,-12.2,-13.9,0,0,,10.0,30.129921,1023.6,,TRUE,TRUE,,,,,,,CLR,,,,,,,,VFR,,,,,,,,,,,,METAR,343.0
KTPL 150051Z AUTO 09003KT 10SM OVC050 07/03 A3039 RMK AO2 SLP309 T00670028,KTPL,2019-01-15T00:51:00Z,31.13,-97.4,6.7,2.8,90,3,,10.0,30.389763,1030.9,,TRUE,TRUE,,,,,,,OVC,5000,,,,,,,VFR,,,,,,,,,,,,METAR,208.0
PAMD 150051Z AUTO 08008KT 4SM -RA BR SCT011 BKN021 OVC027 05/04 A2997 RMK AO2 RAB11 SLP139 P0000 T00500039,PAMD,2019-01-15T00:51:00Z,59.43,-146.3,5.0,3.9,80,8,,4.0,29.970472,1013.9,,TRUE,TRUE,,,,,,-RA BR,SCT,1100,BKN,2100,OVC,2700,,,MVFR,,,,,,0.005,,,,,,SPECI,14.0
KATT 150051Z AUTO 00000KT 10SM OVC055 08/02 A3039 RMK AO2 SLP296 T00830022,KATT,2019-01-15T00:51:00Z,30.32,-97.77,8.3,2.2,0,0,,10.0,30.389763,1029.6,,TRUE,TRUE,,,,,,,OVC,5500,,,,,,,VFR,,,,,,,,,,,,METAR,201.0
KBVE 150051Z AUTO 36007KT 320V030 10SM OVC017 07/03 A3035 RMK AO2 SLP275 T00670028,KBVE,2019-01-15T00:51:00Z,29.32,-89.4,6.7,2.8,360,7,,10.0,30.351377,1027.5,,TRUE,TRUE,,,,,,,OVC,1700,,,,,,,MVFR,,,,,,,,,,,,SPECI,1.0
KSLK 150051Z AUTO 00000KT 10SM CLR M15/M17 A3006 RMK AO2 SLPNO I1000 T11501167,KSLK,2019-01-15T00:51:00Z,44.4,-74.2,-15.0,-16.7,0,0,,10.0,30.059055,,,TRUE,TRUE,,,,,,,CLR,,,,,,,,VFR,,,,,,,,,,,,METAR,498.0
KSJT 150051Z 00000KT 10SM OVC032 07/03 A3033 RMK AO2 SLP280 T00720028,KSJT,2019-01-15T00:51:00Z,31.37,-100.5,7.2,2.8,0,0,,10.0,30.33071,1028.0,,,TRUE,,,,,,,OVC,3200,,,,,,,VFR,,,,,,,,,,,,METAR,576.0
KSAT 150051Z 04005KT 10SM BKN040 OVC048 08/03 A3037 RMK AO2 SLP277 T00830028,KSAT,2019-01-15T00:51:00Z,29.53,-98.47,8.3,2.8,40,5,,10.0,30.369095,1027.7,,,TRUE,,,,,,,BKN,4000,OVC,4800,,,,,VFR,,,,,,,,,,,,SPECI,243.0
KSAN 150051Z 12006KT 6SM FEW008 FEW013 OVC017 14/12 A2999 RMK AO2 RAE50 SLP154 VCSH P0002 T01390117,KSAN,2019-01-15T00:51:00Z,32.73,-117.18,13.9,11.7,120,6,,6.0,29.991142,1015.4,,,TRUE,,,,,,,FEW,800,FEW,1300,OVC,1700,,,MVFR,,,,,,0.02,,,,,,METAR,12.0
KSAD 150051Z AUTO 00000KT 10SM FEW120 14/03 A3012 RMK AO2 SLP183 T01440028,KSAD,2019-01-15T00:51:00Z,32.85,-109.63,14.4,2.8,0,0,,10.0,30.121063,1018.3,,TRUE,TRUE,,,,,,,FEW,12000,,,,,,,VFR,,,,,,,,,,,,METAR,962.0
KROW 150051Z 16010KT 10SM CLR 04/01 A3026 RMK AO2 SLP236 T00440011,KROW,2019-01-15T00:51:00Z,33.3,-104.5,4.4,1.1,160,10,,10.0,30.259842,1023.6,,,TRUE,,,,,,,CLR,,,,,,,,VFR,,,,,,,,,,,,SPECI,1112.0
KRDU 150051Z 00000KT 10SM FEW045 SCT085 01/M01 A3021 RMK AO2 SLP234 T00061006,KRDU,2019-01-15T00:51:00Z,35.9,-78.78,0.6,-0.6,0,0,,10.0,30.209646,1023.4,,,TRUE,,,,,,,FEW,4500,SCT,8500,,,,,VFR,,,,,,,,,,,,SPECI,130.0
KPWM 150051Z VRB03KT 10SM CLR M07/M11 A3010 RMK AO2 SLP194 T10721111,KPWM,2019-01-15T00:51:00Z,43.65,-70.3,-7.2,-11.1,0,3,,10.0,30.100393,1019.4,,,TRUE,,,,,,,CLR,,,,,,,,VFR,,,,,,,,,,,,METAR,15.0
KPVD 150051Z 00000KT 10SM CLR M05/M08 A3011 RMK AO2 SLP195 T10501078,KPVD,2019-01-15T00:51:00Z,41.72,-71.43,-5.0,-7.8,0,0,,10.0,30.109253,1019.5,,,TRUE,,,,,,,CLR,,,,,,,,VFR,,,,,,,,,,,,SPECI,16.0
KPIT 150051Z 29006KT 10SM OVC033 M02/M06 A3021 RMK AO2 SLP256 T10171056,KPIT,2019-01-15T00:51:00Z,40.5,-80.27,-1.7,-5.6,290,6,,10.0,30.209646,1025.6,,,TRUE,,,,,,,OVC,3300,,,,,,,VFR,,,,,,,,,,,,METAR,357.0
KPHX 150051Z 08004KT 10SM FEW055 FEW070 SCT120 SCT170 BKN220 19/08 A3002 RMK AO2 SLP159 T01890083,KPHX,2019-01-15T00:51:00Z,33.43,-112.02,18.9,8.3,80,4,,10.0,30.02067,1015.9,,,TRUE,,,,,,,FEW,5500,FEW,7000,SCT,12000,SCT,17000,VFR,,,,,,,,,,,,METAR,336.0
KOXR 150051Z 07009KT 10SM FEW110 12/07 A2995 RMK AO2 SLP140 T01170072,KOXR,2019-01-15T00:51:00Z,34.2,-119.2,11.7,7.2,70,9,,10.0,29.949802,1014.0,,,TRUE,,,,,,,FEW,11000,,,,,,,VFR,,,,,,,,,,,,SPECI,20.0
KORF 150051Z 33004KT 10SM CLR 01/M03 A3020 RMK AO2 SLP225 T00111028,KORF,2019-01-15T00:51:00Z,36.9,-76.2,1.1,-2.8,330,4,,10.0,30.200787,1022.5,,,TRUE,,,,,,,CLR,,,,,,,,VFR,,,,,,,,,,,,SPECI,14.0
KORD 150051Z 25009KT 7SM OVC011 M04/M07 A3027 RMK AO2 SLP261 T10441067,KORD,2019-01-15T00:51:00Z,41.98,-87.93,-4.4,-6.7,250,9,,7.0,30.268702,1026.1,,,TRUE,,,,,,,OVC,1100,,,,,,,MVFR,,,,,,,,,,,,METAR,200.0
KMYL 150051Z AUTO 00000KT 10SM CLR M06/M10 A3009 RMK AO2 SLP259 T10611100,KMYL,2019-01-15T00:51:00Z,44.9,-116.1,-6.1,-10.0,0,0,,10.0,30.088583,1025.9,,TRUE,TRUE,,,,,,,CLR,,,,,,,,VFR,,,,,,,,,,,,SPECI,1533.0
KLGA 150051Z VRB04KT 10SM FEW250 00/M12 A3015 RMK AO2 SLP208 T00001117,KLGA,2019-01-15T00:51:00Z,40.78,-73.88,0.0,-11.7,0,4,,10.0,30.15059,1020.8,,,TRUE,,,,,,,FEW,25000,,,,,,,VFR,,,,,,,,,,,,METAR,11.0
KJFK 150051Z 32007KT 10SM FEW250 M02/M12 A3016 RMK AO2 SLP212 T10171117,KJFK,2019-01-15T00:51:00Z,40.63,-73.77,-1.7,-11.7,320,7,,10.0,30.159449,1021.2,,,TRUE,,,,,,,FEW,25000,,,,,,,VFR,,,,,,,,,,,,METAR,9.0
KJCT 150051Z AUTO 00000KT 10SM OVC041 07/03 A3034 RMK AO2 SLP264 T00720028,KJCT,2019-01-15T00:51:00Z,30.5,-99.77,7.2,2.8,0,0,,10.0,30.339567,1026.4,,TRUE,TRUE,,,,,,,OVC,4100,,,,,,,VFR,,,,,,,,,,,,METAR,522.0
KILG 150051Z 27005KT 10SM CLR M03/M11 A3018 RMK AO2 SLP222 T10331106,KILG,2019-01-15T00:51:00Z,39.67,-75.6,-3.3,-10.6,270,5,,10.0,30.180119,1022.2,,,TRUE,,,,,,,CLR,,,,,,,,VFR,,,,,,,,,,,,METAR,28.0
KIGM 150051Z AUTO 30005KT 10SM BKN055 OVC090 11/02 A3005 RMK AO2 SLP147 T01110022,KIGM,2019-01-15T00:51:00Z,35.25,-113.93,11.1,2.2,300,5,,10.0,30.050198,1014.7,,TRUE,TRUE,,,,,,,BKN,5500,OVC,9000,,,,,VFR,,,,,,,,,,,,METAR,1032.0
KHTS 150051Z 31003KT 7SM OVC009 M01/M04 A3028 RMK AO2 SLP262 T10111039,KHTS,2019-01-15T00:51:00Z,38.37,-82.55,-1.1,-3.9,310,3,,7.0,30.280512,1026.2,,,TRUE,,,,,,,OVC,900,,,,,,,IFR,,,,,,,,,,,,SPECI,254.0
KHSE 150051Z AUTO VRB06KT 10SM OVC023 04/M01 A3018 RMK AO2 SLP219 T00391006 TSNO,KHSE,2019-01-15T00:51:00Z,35.23,-75.62,3.9,-0.6,0,6,,10.0,30.180119,1021.9,,TRUE,TRUE,,,TRUE,,,,OVC,2300,,,,,,,MVFR,,,,,,,,,,,,SPECI,3.0
KHDO 150051Z AUTO 15005KT 10SM OVC045 10/04 A3037 RMK AO2 SLP279 T01000039,KHDO,2019-01-15T00:51:00Z,29.37,-99.17,10.0,3.9,150,5,,10.0,30.369095,1027.9,,TRUE,TRUE,,,,,,,OVC,4500,,,,,,,VFR,,,,,,,,,,,,METAR,282.0
KEWR 150051Z 02004KT 10SM FEW250 M02/M12 A3015 RMK AO2 SLP210 T10171117,KEWR,2019-01-15T00:51:00Z,40.68,-74.17,-1.7,-11.7,20,4,,10.0,30.15059,1021.0,,,TRUE,,,,,,,FEW,25000,,,,,,,VFR,,,,,,,,,,,,METAR,7.0
KERI 150051Z 19005KT 10SM OVC016 M03/M07 A3024 RMK AO2 SLP252 T10331072,KERI,2019-01-15T00:51:00Z,42.08,-80.18,-3.3,-7.2,190,5,,10.0,30.239174,1025.2,,,TRUE,,,,,,,OVC,1600,,,,,,,MVFR,,,,,,,,,,,,METAR,222.0
KELP 150051Z 36005KT 10SM BKN200 OVC250 12/02 A3018 RMK AO2 SLP199 T01220022,KELP,2019-01-15T00:51:00Z,31.82,-106.38,12.2,2.2,360,5,,10.0,30.180119,1019.9,,,TRUE,,,,,,,BKN,20000,OVC,25000,,,,,VFR,,,,,,,,,,,,SPECI,1197.0
KEKN 150051Z AUTO 30003KT 5SM BR OVC007 M02/M04 A3019 RMK AO2 SLP249 T10221039 TSNO,KEKN,2019-01-15T00:51:00Z,38.88,-79.85,-2.2,-3.9,300,3,,5.0,30.188976,1024.9,,TRUE,TRUE,,,TRUE,,,BR,OVC,700,,,,,,,IFR,,,,,,,,,,,,SPECI,603.0
KDAW 150051Z AUTO 32003KT 10SM CLR M06/M11 A3008 RMK AO2 SLP188 T10611111,KDAW,2019-01-15T00:51:00Z,43.28,-70.92,-6.1,-11.1,320,3,,10.0,30.079725,1018.8,,TRUE,TRUE,,,,,,,CLR,,,,,,,,VFR,,,,,,,,,,,,METAR,100.0
KCSG 150051Z 35008KT 10SM OVC030 08/02 A3025 RMK AO2 SLP244 T00830022,KCSG,2019-01-15T00:51:00Z,32.52,-84.95,8.3,2.2,350,8,,10.0,30.250984,1024.4,,,TRUE,,,,,,,OVC,3000,,,,,,,MVFR,,,,,,,,,,,,SPECI,135.0
KCRP 150051Z 05007KT 10SM FEW034 BKN050 OVC060 11/04 A3038 RMK AO2 SLP286 T01060039,KCRP,2019-01-15T00:51:00Z,27.77,-97.5,10.6,3.9,50,7,,10.0,30.380905,1028.6,,,TRUE,,,,,,,FEW,3400,BKN,5000,OVC,6000,,,VFR,,,,,,,,,,,,SPECI,14.0
KCON 150051Z AUTO 00000KT 10SM CLR M06/M12 A3009 RMK AO2 SLP196 T10561122,KCON,2019-01-15T00:51:00Z,43.2,-71.5,-5.6,-12.2,0,0,,10.0,30.088583,1019.6,,TRUE,TRUE,,,,,,,CLR,,,,,,,,VFR,,,,,,,,,,,,SPECI,103.0
KCLE 150051Z 25010KT 10SM OVC017 M04/M08 A3028 RMK AO2 SLP264 T10441083,KCLE,2019-01-15T00:51:00Z,41.42,-81.85,-4.4,-8.3,250,10,,10.0,30.280512,1026.4,,,TRUE,,,,,,,OVC,1700,,,,,,,MVFR,,,,,,,,,,,,METAR,233.0
KCAK 150051Z 27008KT 8SM OVC009 M03/M06 A3023 RMK AO2 SLP255 T10281061,KCAK,2019-01-15T00:51:00Z,40.92,-81.45,-2.8,-6.1,270,8,,8.0,30.230314,1025.5,,,TRUE,,,,,,,OVC,900,,,,,,,IFR,,,,,,,,,,,,SPECI,377.0
KBKW 150051Z AUTO 32007KT 3/4SM BR OVC002 M03/M03 A3017 RMK AO2 SLP251 I1000 T10281028,KBKW,2019-01-15T00:51:00Z,37.8,-81.12,-2.8,-2.8,320,7,,0.75,30.171259,1025.1,,TRUE,TRUE,,,,,,BR,OVC,200,,,,,,,LIFR,,,,,,,,,,,,SPECI,764.0
KBHK 150051Z AUTO 22006KT 10SM CLR M02/M06 A3007 RMK AO2 SLP217 T10171061,KBHK,2019-01-15T00:51:00Z,46.35,-104.25,-1.7,-6.1,220,6,,10.0,30.070866,1021.7,,TRUE,TRUE,,,,,,,CLR,,,,,,,,VFR,,,,,,,,,,,,METAR,902.0
KBGD 150051Z AUTO 00000KT 10SM CLR 11/00 A3021 RMK AO2 SLP230 T01110000,KBGD,2019-01-15T00:51:00Z,35.7,-101.4,11.1,0.0,0,0,,10.0,30.209646,1023.0,,TRUE,TRUE,,,,,,,CLR,,,,,,,,VFR,,,,,,,,,,,,METAR,927.0
KBDL 150051Z 30004KT 10SM FEW200 SCT250 M07/M11 A3011 RMK AO2 SLP198 T10671106,KBDL,2019-01-15T00:51:00Z,41.93,-72.68,-6.7,-10.6,300,4,,10.0,30.109253,1019.8,,,TRUE,,,,,,,FEW,20000,SCT,25000,,,,,VFR,,,,,,,,,,,,SPECI,60.0
KBAZ 150051Z AUTO 09003KT 10SM OVC050 08/03 A3037 RMK AO2 SLP284 T00830028,KBAZ,2019-01-15T00:51:00Z,29.72,-98.05,8.3,2.8,90,3,,10.0,30.369095,1028.4,,TRUE,TRUE,,,,,,,OVC,5000,,,,,,,VFR,,,,,,,,,,,,METAR,195.0
KAVX 150051Z AUTO 18008KT 10SM SCT003 BKN015 OVC029 10/10 A2995 RMK AO2 RAB2357E16 SLP141 P0004 T01000100 $,KAVX,2019-01-15T00:51:00Z,33.4,-118.42,10.0,10.0,180,8,,10.0,29.949802,1014.1,,TRUE,TRUE,TRUE,,,,,,SCT,300,BKN,1500,OVC,2900,,,MVFR,,,,,,0.04,,,,,,METAR,482.0
KALB 150051Z 36003KT 10SM SCT180 BKN220 OVC250 M06/M12 A3017 RMK AO2 SLP223 T10611122,KALB,2019-01-15T00:51:00Z,42.75,-73.8,-6.1,-12.2,360,3,,10.0,30.171259,1022.3,,,TRUE,,,,,,,SCT,18000,BKN,22000,OVC,25000,,,VFR,,,,,,,,,,,,SPECI,92.0
KAHN 150051Z AUTO 28003KT 10SM OVC034 07/03 A3020 RMK AO2 SLP231 T00670028,KAHN,2019-01-15T00:51:00Z,33.95,-83.33,6.7,2.8,280,3,,10.0,30.200787,1023.1,,TRUE,TRUE,,,,,,,OVC,3400,,,,,,,VFR,,,,,,,,,,,,SPECI,244.0
KACT 150051Z 06004KT 9SM CLR 04/00 A3039 RMK AO2 SLP293 T00390000,KACT,2019-01-15T00:51:00Z,31.62,-97.23,3.9,0.0,60,4,,9.0,30.389763,1029.3,,,TRUE,,,,,,,CLR,,,,,,,,VFR,,,,,,,,,,,,METAR,151.0
KABE 150051Z 26004KT 10SM CLR M03/M09 A3015 RMK AO2 SLP214 T10331094,KABE,2019-01-15T00:51:00Z,40.65,-75.45,-3.3,-9.4,260,4,,10.0,30.15059,1021.4,,,TRUE,,,,,,,CLR,,,,,,,,VFR,,,,,,,,,,,,SPECI,114.0
KNYC 150051Z AUTO 10SM CLR M01/M13 A3016 RMK AO2 SLP207 T10111128 $,KNYC,2019-01-15T00:51:00Z,40.78,-73.97,-1.1,-12.8,,,,10.0,30.159449,1020.7,,TRUE,TRUE,TRUE,,,,,,CLR,,,,,,,,VFR,,,,,,,,,,,,METAR,11.0
KSNT 150051Z AUTO 18003KT M13/M17 A3013 RMK AO1 SLP288 T11331167,KSNT,2019-01-15T00:51:00Z,44.17,-114.93,-13.3,-16.7,180,3,,,30.129921,1028.8,,TRUE,TRUE,,,,,,,,,,,,,,,,,,,,,,,,,,,METAR,1980.0
KP58 150051Z AUTO 20005KT M03/M06 A3018 RMK AO1 SLP234 T10281056,KP58,2019-01-15T00:51:00Z,44.02,-82.8,-2.8,-5.6,200,5,,,30.180119,1023.4,,TRUE,TRUE,,,,,,,,,,,,,,,,,,,,,,,,,,,METAR,179.0
KSMX 150051Z 19007KT 4SM R12/5500VP6000FT RA BR FEW023 BKN048 OVC055 12/11 A2991 RMK AO2 SLP130 P0009 T01220106 $,KSMX,2019-01-15T00:51:00Z,34.9,-120.45,12.2,10.6,190,7,,4.0,29.911417,1013.0,,,TRUE,TRUE,,,,,RA BR,FEW,2300,BKN,4800,OVC,5500,,,MVFR,,,,,,0.09,,,,,,SPECI,74.0
KSMO 150051Z 02007KT 1 3/4SM RA BR SCT011 BKN019 OVC032 13/11 A2996 RMK AO2 SLP145 P0016 T01280106,KSMO,2019-01-15T00:51:00Z,34.02,-118.45,12.8,10.6,20,7,,1.75,29.958662,1014.5,,,TRUE,,,,,,RA BR,SCT,1100,BKN,1900,OVC,3200,,,IFR,,,,,,0.16,,,,,,METAR,57.0
KVCT 150051Z 03004KT 10SM OVC060 09/04 A3039 RMK AO2 SLP289 T00940039,KVCT,2019-01-15T00:51:00Z,28.87,-96.93,9.4,3.9,30,4,,10.0,30.389763,1028.9,,,TRUE,,,,,,,OVC,6000,,,,,,,VFR,,,,,,,,,,,,SPECI,31.0
KTEB 150051Z VRB05KT 10SM CLR M02/M12 A3015 RMK AO2 SLP209 T10221117,KTEB,2019-01-15T00:51:00Z,40.87,-74.05,-2.2,-11.7,0,5,,10.0,30.15059,1020.9,,,TRUE,,,,,,,CLR,,,,,,,,VFR,,,,,,,,,,,,SPECI,7.0
KSTL 150051Z 25007KT 8SM OVC016 01/M03 A3034 RMK AO2 SLP287 T00061028,KSTL,2019-01-15T00:51:00Z,38.75,-90.37,0.6,-2.8,250,7,,8.0,30.339567,1028.7,,,TRUE,,,,,,,OVC,1600,,,,,,,MVFR,,,,,,,,,,,,SPECI,171.0
PADG 150051Z 08014KT 15SM FEW030 SCT080 M03/M07 A2986,PADG,2019-01-15T00:51:00Z,68.03,-162.9,-3.0,-7.0,80,14,,15.0,29.861221,,,,,,,,,,,FEW,3000,SCT,8000,,,,,VFR,,,,,,,,,,,,SPECI,297.0
KYNG 150051Z 25005KT 10SM OVC018 M04/M07 A3022 RMK AO2 SLP253 T10441067,KYNG,2019-01-15T00:51:00Z,41.25,-80.67,-4.4,-6.7,250,5,,10.0,30.221457,1025.3,,,TRUE,,,,,,,OVC,1800,,,,,,,MVFR,,,,,,,,,,,,SPECI,360.0
KVNY 150051Z 36006KT 1 1/2SM -RA BR BKN012 OVC021 10/08 A2996 RMK AO2 SLP141 P0006 T01000078,KVNY,2019-01-15T00:51:00Z,34.22,-118.48,10.0,7.8,360,6,,1.5,29.958662,1014.1,,,TRUE,,,,,,-RA BR,BKN,1200,OVC,2100,,,,,IFR,,,,,,0.06,,,,,,METAR,245.0
KRDR 150051Z AUTO 21005KT 10SM -SN OVC005 M08/M08 A3024 RMK AO2 SNE00SNB04E13SNB51 CIG 004 RWY17 SLP264 $,KRDR,2019-01-15T00:51:00Z,47.97,-97.4,-8.0,-8.0,210,5,,10.0,30.239174,1026.4,,TRUE,TRUE,TRUE,,,,,-SN,OVC,500,,,,,,,IFR,,,,,,,,,,,,METAR,278.0
KCMH 150051Z 30005KT 9SM BKN014 M03/M07 A3028 RMK AO2 SLP266 T10331067,KCMH,2019-01-15T00:51:00Z,40.0,-82.88,-3.3,-6.7,300,5,,9.0,30.280512,1026.6,,,TRUE,,,,,,,BKN,1400,,,,,,,MVFR,,,,,,,,,,,,METAR,247.0
KP59 150051Z AUTO 03013G23KT M02/M06 A3017 RMK AO1 SLP230 T10171061 $,KP59,2019-01-15T00:51:00Z,47.47,-87.88,-1.7,-6.1,30,13,23,,30.171259,1023.0,,TRUE,TRUE,TRUE,,,,,,,,,,,,,,,,,,,,,,,,,,SPECI,190.0
CYLW 150051Z AUTO 03002KT 9SM OVC013 M01/M03 A3023 RMK SLP260,CYLW,2019-01-15T00:51:00Z,49.95,-119.37,-1.0,-3.0,30,2,,9.0,30.230314,1026.0,,TRUE,,,,,,,,OVC,1300,,,,,,,MVFR,,,,,,,,,,,,SPECI,430.0
EFKI 150050Z AUTO 06010KT 8000 -SN OVC035 M08/M10 Q0982,EFKI,2019-01-15T00:50:00Z,64.27,27.67,-8.0,-10.0,60,10,,4.97,28.996063,,,TRUE,,,,,,,-SN,OVC,3500,,,,,,,MVFR,,,,,,,,,,,,METAR,136.0
EFKE 150050Z AUTO 03009KT 9999 BKN026 M11/M12 Q0988,EFKE,2019-01-15T00:50:00Z,65.77,24.57,-11.0,-12.0,30,9,,6.21,29.17323,,,TRUE,,,,,,,,BKN,2600,,,,,,,MVFR,,,,,,,,,,,,METAR,15.0
EFET 150050Z AUTO 01002KT 9999 -SHSN FEW121 M13/M14 Q0988,EFET,2019-01-15T00:50:00Z,68.37,23.43,-13.0,-14.0,10,2,,6.21,29.17323,,,TRUE,,,,,,,-SHSN,FEW,12100,,,,,,,VFR,,,,,,,,,,,,METAR,306.0
EFUT 150050Z AUTO 29005KT 260V340 9999 -SN OVC009 M05/M06 Q0977,EFUT,2019-01-15T00:50:00Z,60.88,26.92,-5.0,-6.0,290,5,,6.21,28.848425,,,TRUE,,,,,,,-SN,OVC,900,,,,,,,IFR,,,,,,,,,,,,METAR,100.0
EFSA 150050Z AUTO 05006KT 010V090 1400 -SN OVC005 M01/M02 Q0977,EFSA,2019-01-15T00:50:00Z,61.95,28.93,-1.0,-2.0,50,6,,0.87,28.848425,,,TRUE,,,,,,,-SN,OVC,500,,,,,,,LIFR,,,,,,,,,,,,METAR,95.0
EFMI 150050Z AUTO 03001KT 6000 -SN OVC008 M02/M02 Q0977,EFMI,2019-01-15T00:50:00Z,61.68,27.2,-2.0,-2.0,30,1,,3.73,28.848425,,,TRUE,,,,,,,-SN,OVC,800,,,,,,,IFR,,,,,,,,,,,,METAR,138.0
EFLP 150050Z AUTO 08002KT 0250 R06/1000V1300D R24/0900N FZFG VV002 M01/M01 Q0976,EFLP,2019-01-15T00:50:00Z,61.07,28.13,-1.0,-1.0,80,2,,0.16,28.818897,,,TRUE,,,,,,,FZFG,OVX,0,,,,,,,LIFR,,,,,,,,,,,200,METAR,106.0
EFJO 150050Z AUTO 07008KT 2500 -SN OVC026 M03/M04 Q0979,EFJO,2019-01-15T00:50:00Z,62.67,29.62,-3.0,-4.0,70,8,,1.55,28.90748,,,TRUE,,,,,,,-SN,OVC,2600,,,,,,,IFR,,,,,,,,,,,,METAR,117.0
EFPO 150050Z AUTO 33006KT 9999 -SN FEW031/// BKN059/// M05/M07 Q0982,EFPO,2019-01-15T00:50:00Z,61.47,21.8,-5.0,-7.0,330,6,,6.21,28.996063,,,TRUE,,,,,,,-SN,FEW,3100,BKN,5900,,,,,VFR,,,,,,,,,,,,METAR,17.0
EFKK 150050Z AUTO 35009KT 9999 -SN SCT031 OVC089 M07/M09 Q0984,EFKK,2019-01-15T00:50:00Z,63.72,23.13,-7.0,-9.0,350,9,,6.21,29.055119,,,TRUE,,,,,,,-SN,SCT,3100,OVC,8900,,,,,VFR,,,,,,,,,,,,METAR,25.0
EFHA 150050Z AUTO 31008KT 9999 -SN FEW024 BKN051 M07/M08 Q0979,EFHA,2019-01-15T00:50:00Z,61.85,24.8,-7.0,-8.0,310,8,,6.21,28.90748,,,TRUE,,,,,,,-SN,FEW,2400,BKN,5100,,,,,VFR,,,,,,,,,,,,METAR,145.0
EFKU 150050Z AUTO VRB03KT 9999 -SN OVC011 M04/M05 Q0980,EFKU,2019-01-15T00:50:00Z,63.02,27.8,-4.0,-5.0,0,3,,6.21,28.937008,,,TRUE,,,,,,,-SN,OVC,1100,,,,,,,MVFR,,,,,,,,,,,,METAR,102.0
EFJY 150050Z AUTO 34008KT 4100 -PL OVC021 M05/M07 Q0978,EFJY,2019-01-15T00:50:00Z,62.4,25.68,-5.0,-7.0,340,8,,2.55,28.877953,,,TRUE,,,,,,,-PL,OVC,2100,,,,,,,IFR,,,,,,,,,,,,METAR,145.0
EFKS 150050Z AUTO 07005KT 020V110 9999 -SN OVC006 M09/M11 Q0986,EFKS,2019-01-15T00:50:00Z,66.0,29.23,-9.0,-11.0,70,5,,6.21,29.114174,,,TRUE,,,,,,,-SN,OVC,600,,,,,,,IFR,,,,,,,,,,,,METAR,263.0
EGPE 150050Z AUTO 22015KT 9999 SCT049/// 08/07 Q1007,EGPE,2019-01-15T00:50:00Z,57.52,-4.03,8.0,7.0,220,15,,6.21,29.734253,,,TRUE,,,,,,,,SCT,4900,,,,,,,VFR,,,,,,,,,,,,METAR,9.0
EFKT 150050Z AUTO VRB01KT 9999 -SHSN OVC005 M14/M16 Q0988,EFKT,2019-01-15T00:50:00Z,67.7,24.85,-14.0,-16.0,0,1,,6.21,29.17323,,,TRUE,,,,,,,-SHSN,OVC,500,,,,,,,IFR,,,,,,,,,,,,METAR,643.0
LATI 150050Z VRB02KT CAVOK M01/M02 Q1005 NOSIG,LATI,2019-01-15T00:50:00Z,41.42,19.72,-1.0,-2.0,0,2,,6.21,29.675198,,,,,,TRUE,,,,,CAVOK,,,,,,,,VFR,,,,,,,,,,,,METAR,90.0
PTRO 150050Z 05010G22KT 15SM SCT017 SCT120 BKN300 29/22 A2983 ,PTRO,2019-01-15T00:50:00Z,7.37,134.55,29.0,22.0,50,10,22,15.0,29.828741,,,,,,,,,,,SCT,1700,SCT,12000,BKN,30000,,,VFR,,,,,,,,,,,,METAR,54.0
BGSF 150050Z AUTO 05005KT 010V070 9999NDV -SN NCD M32/M36 Q1000,BGSF,2019-01-15T00:50:00Z,67.0,-50.72,-32.0,-36.0,50,5,,,29.52756,,,TRUE,,,,,,,-SN,CLR,,,,,,,,,,,,,,,,,,,,METAR,53.0
K2G4 150050Z AUTO 00000KT 1/4SM OVC001 A3010 RMK AO1,K2G4,2019-01-15T00:50:00Z,39.58,-79.33,,,0,0,,0.25,30.100393,,,TRUE,TRUE,,,,,,,OVC,100,,,,,,,LIFR,,,,,,,,,,,,SPECI,894.0
KJNX 150050Z AUTO 00000KT 10SM CLR 00/00 A3022 RMK AO2,KJNX,2019-01-15T00:50:00Z,35.53,-78.38,0.0,0.0,0,0,,10.0,30.221457,,,TRUE,TRUE,,,,,,,CLR,,,,,,,,VFR,,,,,,,,,,,,METAR,50.0
KIXA 150050Z AUTO 34004KT 10SM OVC085 00/00 A3021 RMK AO2,KIXA,2019-01-15T00:50:00Z,36.33,-77.63,0.0,0.0,340,4,,10.0,30.209646,,,TRUE,TRUE,,,,,,,OVC,8500,,,,,,,VFR,,,,,,,,,,,,METAR,44.0
KIPJ 150050Z AUTO 00000KT 10SM BKN027 OVC050 05/03 A3019 RMK AO2 T00470025,KIPJ,2019-01-15T00:50:00Z,35.48,-81.17,4.7,2.5,0,0,,10.0,30.188976,,,TRUE,TRUE,,,,,,,BKN,2700,OVC,5000,,,,,MVFR,,,,,,,,,,,,METAR,267.0
KHXD 150050Z 35006KT 10SM OVC015 08/05 A3024,KHXD,2019-01-15T00:50:00Z,32.22,-80.7,8.0,5.0,350,6,,10.0,30.239174,,,,,,,,,,,OVC,1500,,,,,,,MVFR,,,,,,,,,,,,METAR,6.0
KEVB 150050Z 01006KT 10SM FEW019 SCT034 12/09 A3020,KEVB,2019-01-15T00:50:00Z,29.05,-80.95,12.0,9.0,10,6,,10.0,30.200787,,,,,,,,,,,FEW,1900,SCT,3400,,,,,VFR,,,,,,,,,,,,METAR,3.0
KVQQ 150050Z 01007KT 10SM OVC030 10/07 A3022,KVQQ,2019-01-15T00:50:00Z,30.22,-81.88,10.0,7.0,10,7,,10.0,30.221457,,,,,,,,,,,OVC,3000,,,,,,,MVFR,,,,,,,,,,,,METAR,25.0
MSSS 150050Z 36011KT 340V040 CAVOK 24/16 Q1016 A3002,MSSS,2019-01-15T00:50:00Z,13.7,-89.12,24.0,16.0,360,11,,6.21,30.0,,,,,,,,,,,CAVOK,,,,,,,,VFR,,,,,,,,,,,,METAR,616.0
MSLP 150050Z 29006KT 9999 FEW079 28/21 Q1011 A2987 NOSIG,MSLP,2019-01-15T00:50:00Z,13.43,-89.05,28.0,21.0,290,6,,6.21,29.852362,,,,,,TRUE,,,,,FEW,7900,,,,,,,VFR,,,,,,,,,,,,METAR,25.0
OAKB 150050Z 31004KT 2000 1000S FU SCT110 M03/M08 Q1022 NOSIG RMK A3020 YLO YLO,OAKB,2019-01-15T00:50:00Z,34.55,69.22,-3.0,-8.0,310,4,,1.24,30.177166,,,,,,TRUE,,,,FU,SCT,11000,,,,,,,IFR,,,,,,,,,,,,METAR,1791.0
OAMS 150050Z 09016KT 9999 FEW060 BKN080 BKN120 13/M05 Q1014 BLU BLU,OAMS,2019-01-15T00:50:00Z,36.7,67.2,13.0,-5.0,90,16,,6.21,29.940945,,,,,,,,,,,FEW,6000,BKN,8000,BKN,12000,,,VFR,,,,,,,,,,,,METAR,378.0
KHOB 150050Z 16006KT 10SM OVC012 04/02 A3029,KHOB,2019-01-15T00:50:00Z,32.67,-103.22,4.0,2.0,160,6,,10.0,30.28937,,,,,,,,,,,OVC,1200,,,,,,,MVFR,,,,,,,,,,,,METAR,1115.0
EVRA 150050Z 26004KT 220V300 CAVOK M04/M04 Q0984 R36/590295 NOSIG,EVRA,2019-01-15T00:50:00Z,56.92,23.97,-4.0,-4.0,260,4,,6.21,29.055119,,,,,,TRUE,,,,,CAVOK,,,,,,,,VFR,,,,,,,,,,,,METAR,10.0
ESIB 150050Z AUTO 28011KT 9999 NCD M01/M07 Q0999,ESIB,2019-01-15T00:50:00Z,58.42,12.68,-1.0,-7.0,280,11,,6.21,29.498032,,,TRUE,,,,,,,,CLR,,,,,,,,VFR,,,,,,,,,,,,METAR,74.0
ESDF 150050Z AUTO 30010KT 280V340 9999 NCD 00/M06 Q0999,ESDF,2019-01-15T00:50:00Z,56.27,15.27,0.0,-6.0,300,10,,6.21,29.498032,,,TRUE,,,,,,,,CLR,,,,,,,,VFR,,,,,,,,,,,,METAR,74.0
ESCF 150050Z AUTO 29014KT 9999 NCD M01/M06 Q0994,ESCF,2019-01-15T00:50:00Z,58.38,15.52,-1.0,-6.0,290,14,,6.21,29.350393,,,TRUE,,,,,,,,CLR,,,,,,,,VFR,,,,,,,,,,,,METAR,117.0
EYVI 150050Z 27008KT 9999 -SHSN OVC006CB M03/M05 Q0987 R19/5/0294 NOSIG,EYVI,2019-01-15T00:50:00Z,54.63,25.28,-3.0,-5.0,270,8,,6.21,29.143702,,,,,,TRUE,,,,-SHSN,OVC,600,,,,,,,IFR,,,,,,,,,,,,METAR,197.0
EDFH 150050Z 27008KT 9999 FEW014 SCT040 00/M01 Q1020,EDFH,2019-01-15T00:50:00Z,49.95,7.27,0.0,-1.0,270,8,,6.21,30.11811,,,,,,,,,,,FEW,1400,SCT,4000,,,,,VFR,,,,,,,,,,,,METAR,498.0
EYPA 150050Z AUTO 34012G24KT 300V010 1100 R01/1800VP2000N -UP FEW011/// FEW015/// SCT036/// M01/M03 Q0989,EYPA,2019-01-15T00:50:00Z,55.97,21.08,-1.0,-3.0,340,12,24,0.68,29.202755,,,TRUE,,,,,,,UP,FEW,1100,FEW,1500,SCT,3600,,,LIFR,,,,,,,,,,,,METAR,10.0
ENAL 150050Z AUTO 17008KT 9999 FEW027/// M01/M02 Q1001,ENAL,2019-01-15T00:50:00Z,62.57,6.12,-1.0,-2.0,170,8,,6.21,29.557087,,,TRUE,,,,,,,,FEW,2700,,,,,,,VFR,,,,,,,,,,,,METAR,22.0
ENCN 150050Z AUTO VRB02KT 9999 FEW042/// 00/M04 Q1004,ENCN,2019-01-15T00:50:00Z,58.2,8.07,0.0,-4.0,0,2,,6.21,29.64567,,,TRUE,,,,,,,,FEW,4200,,,,,,,VFR,,,,,,,,,,,,METAR,17.0
ENHD 150050Z AUTO 11007KT 9999 SCT034/// 00/M01 Q1004,ENHD,2019-01-15T00:50:00Z,59.35,5.22,0.0,-1.0,110,7,,6.21,29.64567,,,TRUE,,,,,,,,SCT,3400,,,,,,,VFR,,,,,,,,,,,,METAR,24.0
ENRO 150050Z AUTO 30011KT 270V330 9999NDV NCD M07/M10 Q0994,ENRO,2019-01-15T00:50:00Z,62.57,11.33,-7.0,-10.0,300,11,,,29.350393,,,TRUE,,,,,,,,CLR,,,,,,,,,,,,,,,,,,,,METAR,626.0
ENRY 150050Z AUTO 33007KT 9999NDV NCD M01/M12 Q1001,ENRY,2019-01-15T00:50:00Z,59.37,10.77,-1.0,-12.0,330,7,,,29.557087,,,TRUE,,,,,,,,CLR,,,,,,,,,,,,,,,,,,,,METAR,53.0
ENTC 150050Z 21015KT 4000 -SN SCT001 BKN011 OVC035 M04/M05 Q0989 RMK WIND 2600FT /////KT,ENTC,2019-01-15T00:50:00Z,69.68,18.92,-4.0,-5.0,210,15,,2.49,29.202755,,,,,,,,,,-SN,SCT,100,BKN,1100,OVC,3500,,,IFR,,,,,,,,,,,,METAR,10.0
ENTO 150050Z AUTO 33008KT 290V360 9999 NCD M01/M12 Q1001,ENTO,2019-01-15T00:50:00Z,59.2,10.27,-1.0,-12.0,330,8,,6.21,29.557087,,,TRUE,,,,,,,,CLR,,,,,,,,VFR,,,,,,,,,,,,METAR,88.0
ENAN 150050Z AUTO 28017KT 9999 BKN041/// M00/M07 Q0989,ENAN,2019-01-15T00:50:00Z,69.28,16.13,0.0,-7.0,280,17,,6.21,29.202755,,,TRUE,,,,,,,,BKN,4100,,,,,,,VFR,,,,,,,,,,,,METAR,14.0
ENBR 150050Z 11004KT 9999 FEW015 BKN038 BKN051 M01/M03 Q1004 RESN RMK WIND 1200FT 13007KT,ENBR,2019-01-15T00:50:00Z,60.28,5.22,-1.0,-3.0,110,4,,6.21,29.64567,,,,,,,,,,,FEW,1500,BKN,3800,BKN,5100,,,VFR,,,,,,,,,,,,METAR,50.0
ENBO 150050Z 08010KT 9999 4000NE -SHSN FEW008 FEW012CB BKN050 M05/M06 Q0992,ENBO,2019-01-15T00:50:00Z,67.27,14.37,-5.0,-6.0,80,10,,6.21,29.291338,,,,,,,,,,-SHSN,FEW,800,FEW,1200,BKN,5000,,,VFR,,,,,,,,,,,,METAR,13.0
ENDU 150050Z AUTO 00000KT 9999 -SN FEW013/// BKN031/// BKN041/// M13/M14 Q0990 RMK WIND 1100FT 19008KT WIND 2200FT 20014KT,ENDU,2019-01-15T00:50:00Z,69.03,18.55,-13.0,-14.0,0,0,,6.21,29.232283,,,TRUE,,,,,,,-SN,FEW,1300,BKN,3100,BKN,4100,,,VFR,,,1.4,,,,,,,,,SPECI,79.0
ENGM 150050Z 31005KT 260V020 CAVOK M03/M12 Q0998,ENGM,2019-01-15T00:50:00Z,60.2,11.1,-3.0,-12.0,310,5,,6.21,29.468504,,,,,,,,,,,CAVOK,,,,,,,,VFR,,,,,,,,,,,,METAR,204.0
ENVA 150050Z 29017KT 9999 FEW008 SCT032 BKN050 M01/M04 Q0998 RMK WIND 670FT 30022KT,ENVA,2019-01-15T00:50:00Z,63.47,10.92,-1.0,-4.0,290,17,,6.21,29.468504,,,,,,,,,,,FEW,800,SCT,3200,BKN,5000,,,VFR,,,,,,,,,,,,METAR,17.0
ENZV 150050Z 00000KT 9999 FEW010 BKN025 01/M01 Q1005,ENZV,2019-01-15T00:50:00Z,58.87,5.62,1.0,-1.0,0,0,,6.21,29.675198,,,,,,,,,,,FEW,1000,BKN,2500,,,,,MVFR,,,,,,,,,,,,METAR,9.0
EFHK 150050Z 28005KT 9999 FEW009 M08/M09 Q0980 NOSIG,EFHK,2019-01-15T00:50:00Z,60.32,24.97,-8.0,-9.0,280,5,,6.21,28.937008,,,,,,TRUE,,,,,FEW,900,,,,,,,VFR,,,,,,,,,,,,METAR,56.0
EFTP 150050Z AUTO VRB03KT 270V340 9999 FEW007 SCT022 M08/M08 Q0980,EFTP,2019-01-15T00:50:00Z,61.42,23.62,-8.0,-8.0,0,3,,6.21,28.937008,,,TRUE,,,,,,,,FEW,700,SCT,2200,,,,,VFR,,,,,,,,,,,,METAR,112.0
EFTU 150050Z AUTO VRB02KT 9999 FEW001/// BKN040/// M13/M14 Q0981,EFTU,2019-01-15T00:50:00Z,60.52,22.27,-13.0,-14.0,0,2,,6.21,28.966536,,,TRUE,,,,,,,,FEW,100,BKN,4000,,,,,VFR,,,,,,,,,,,,METAR,59.0
EFVA 150050Z AUTO 02010KT 6000 -FZDZ OVC010/// M04/M05 Q0984,EFVA,2019-01-15T00:50:00Z,63.03,21.77,-4.0,-5.0,20,10,,3.73,29.055119,,,TRUE,,,,,,,-FZDZ,OVC,1000,,,,,,,MVFR,,,,,,,,,,,,METAR,4.0
EFOU 150050Z AUTO 04007KT 9999 OVC065/// M09/M11 Q0985,EFOU,2019-01-15T00:50:00Z,64.92,25.37,-9.0,-11.0,40,7,,6.21,29.084646,,,TRUE,,,,,,,,OVC,6500,,,,,,,VFR,,,,,,,,,,,,METAR,15.0
EFRO 150050Z AUTO 02010KT 9999 FEW008 SCT012 BKN016 M12/M13 Q0987,EFRO,2019-01-15T00:50:00Z,66.57,25.82,-12.0,-13.0,20,10,,6.21,29.143702,,,TRUE,,,,,,,,FEW,800,SCT,1200,BKN,1600,,,MVFR,,,,,,,,,,,,METAR,201.0
EFIV 150050Z AUTO 24004KT 1800 -FZDZSN VV003 M12/M13 Q0989,EFIV,2019-01-15T00:50:00Z,68.62,27.42,-12.0,-13.0,240,4,,1.12,29.202755,,,TRUE,,,,,,,-FZDZ SN,OVX,0,,,,,,,LIFR,,,,,,,,,,,300,METAR,148.0
EFMA 150050Z AUTO 33010KT 290V350 7000 -SN BKN007 M02/M04 Q0983,EFMA,2019-01-15T00:50:00Z,60.12,19.88,-2.0,-4.0,330,10,,4.35,29.02559,,,TRUE,,,,,,,-SN,BKN,700,,,,,,,IFR,,,,,,,,,,,,METAR,6.0
ETNG 150050Z 23004KT 9999 FEW028 BKN040 03/02 Q1021,ETNG,2019-01-15T00:50:00Z,50.97,6.03,3.0,2.0,230,4,,6.21,30.147638,,,,,,,,,,,FEW,2800,BKN,4000,,,,,VFR,,,,,,,,,,,,METAR,98.0
KQEN 150050Z AUTO 26011G20KT 4800 HZ FEW028 M04/M10 A2996 RMK A02 TSNO,KQEN,2019-01-15T00:50:00Z,,,-4.0,-10.0,260,11,20,2.98,29.958662,,,TRUE,TRUE,,,TRUE,,,HZ,FEW,2800,,,,,,,IFR,,,,,,,,,,,,METAR,
KQEL 150050Z AUTO 05001KT 3200 HZ BKN040 M02/M06 A3026 RMK A02 TSNO,KQEL,2019-01-15T00:50:00Z,,,-2.0,-6.0,50,1,,1.99,30.259842,,,TRUE,TRUE,,,TRUE,,,HZ,BKN,4000,,,,,,,IFR,,,,,,,,,,,,METAR,
KQES 150050Z AUTO 31007KT 4800 HZ OVC023 04/M01 A3026 RMK A02 TSNO,KQES,2019-01-15T00:50:00Z,,,4.0,-1.0,310,7,,2.98,30.259842,,,TRUE,TRUE,,,TRUE,,,HZ,OVC,2300,,,,,,,IFR,,,,,,,,,,,,METAR,
KQEV 150050Z AUTO 00000KT 1200 HZ BKN025 01/M02 A3020 RMK A02 TSNO,KQEV,2019-01-15T00:50:00Z,,,1.0,-2.0,0,0,,0.75,30.200787,,,TRUE,TRUE,,,TRUE,,,HZ,BKN,2500,,,,,,,LIFR,,,,,,,,,,,,METAR,
KQEW 150050Z AUTO 20005G15KT 4000 HZ BKN031 02/M06 A3017 RMK A02 TSNO,KQEW,2019-01-15T00:50:00Z,,,2.0,-6.0,200,5,15,2.49,30.171259,,,TRUE,TRUE,,,TRUE,,,HZ,BKN,3100,,,,,,,IFR,,,,,,,,,,,,METAR,
KQEY 150050Z AUTO 28003KT 2000 HZ BKN026 02/M03 A2992 RMK A02 TSNO,KQEY,2019-01-15T00:50:00Z,,,2.0,-3.0,280,3,,1.24,29.920275,,,TRUE,TRUE,,,TRUE,,,HZ,BKN,2600,,,,,,,IFR,,,,,,,,,,,,METAR,
KQFB 150050Z AUTO 07002KT 4000 HZ OVC031 01/M04 A3022 RMK A02 TSNO,KQFB,2019-01-15T00:50:00Z,,,1.0,-4.0,70,2,,2.49,30.221457,,,TRUE,TRUE,,,TRUE,,,HZ,OVC,3100,,,,,,,IFR,,,,,,,,,,,,METAR,
KQFX 150050Z AUTO 19001KT 0800 BR FEW036 M01/M03 A3019 RMK A02 TSNO,KQFX,2019-01-15T00:50:00Z,,,-1.0,-3.0,190,1,,0.5,30.188976,,,TRUE,TRUE,,,TRUE,,,BR,FEW,3600,,,,,,,LIFR,,,,,,,,,,,,METAR,
KEKM 150050Z 22006KT 7SM OVC012 M04/M06 A3029 RMK AO2,KEKM,2019-01-15T00:50:00Z,41.72,-86.0,-4.0,-6.0,220,6,,7.0,30.28937,,,,TRUE,,,,,,,OVC,1200,,,,,,,MVFR,,,,,,,,,,,,METAR,237.0
KESN 150050Z 00000KT 10SM SKC M04/M07 A3023,KESN,2019-01-15T00:50:00Z,38.8,-76.07,-4.0,-7.0,0,0,,10.0,30.230314,,,,,,,,,,,SKC,,,,,,,,VFR,,,,,,,,,,,,METAR,22.0
KFTG 150050Z 20006KT 10SM FEW220 M06/M13 A3017,KFTG,2019-01-15T00:50:00Z,39.78,-104.55,-6.0,-13.0,200,6,,10.0,30.171259,,,,,,,,,,,FEW,22000,,,,,,,VFR,,,,,,,,,,,,METAR,1675.0
KJQF 150050Z 00000KT 10SM OVC038 04/02 A3022,KJQF,2019-01-15T00:50:00Z,35.38,-80.72,4.0,2.0,0,0,,10.0,30.221457,,,,,,,,,,,OVC,3800,,,,,,,VFR,,,,,,,,,,,,METAR,210.0
KHQZ 150050Z 00000KT 10SM CLR 04/01 A3039,KHQZ,2019-01-15T00:50:00Z,32.75,-96.53,4.0,1.0,0,0,,10.0,30.389763,,,,,,,,,,,CLR,,,,,,,,VFR,,,,,,,,,,,,METAR,136.0
TJBQ 150050Z 08009KT 10SM SCT026 SCT036 OVC050 23/19 A3008,TJBQ,2019-01-15T00:50:00Z,18.5,-67.13,23.0,19.0,80,9,,10.0,30.079725,,,,,,,,,,,SCT,2600,SCT,3600,OVC,5000,,,VFR,,,,,,,,,,,,METAR,72.0
RKJB 150050Z 32004KT 3200 BR SCT030 05/02 Q1024 NOSIG,RKJB,2019-01-15T00:50:00Z,34.98,126.38,5.0,2.0,320,4,,1.99,30.236221,,,,,,TRUE,,,,BR,SCT,3000,,,,,,,IFR,,,,,,,,,,,,SPECI,2.0
KQFV 150050Z AUTO 23002KT 2400 HZ BKN023 M02/M07 A3017 RMK A02 TSNO,KQFV,2019-01-15T00:50:00Z,,,-2.0,-7.0,230,2,,1.49,30.171259,,,TRUE,TRUE,,,TRUE,,,HZ,BKN,2300,,,,,,,IFR,,,,,,,,,,,,METAR,
KQFT 150050Z AUTO 26001KT 2400 HZ BKN027 OVC048 M00/M05 A3020 RMK A02 TSNO,KQFT,2019-01-15T00:50:00Z,,,0.0,-5.0,260,1,,1.49,30.200787,,,TRUE,TRUE,,,TRUE,,,HZ,BKN,2700,OVC,4800,,,,,IFR,,,,,,,,,,,,METAR,
EKSP 150050Z 26009KT 8000 -DZ SCT020 BKN033 03/01 Q1009 R28R/09//95,EKSP,2019-01-15T00:50:00Z,55.22,9.27,3.0,1.0,260,9,,4.97,29.793306,,,,,,,,,,-DZ,SCT,2000,BKN,3300,,,,,MVFR,,,,,,,,,,,,SPECI,40.0
KQFW 150050Z AUTO 15001KT 1200 HZ BKN032 M02/M05 A3018 RMK A02 TSNO,KQFW,2019-01-15T00:50:00Z,,,-2.0,-5.0,150,1,,0.75,30.180119,,,TRUE,TRUE,,,TRUE,,,HZ,BKN,3200,,,,,,,LIFR,,,,,,,,,,,,METAR,
KOLV 150050Z 35003KT 10SM BKN016 OVC035 01/02 A3037,KOLV,2019-01-15T00:50:00Z,34.98,-89.78,1.0,2.0,350,3,,10.0,30.369095,,,,,,,,,,,BKN,1600,OVC,3500,,,,,MVFR,,,,,,,,,,,,METAR,122.0
KCWF 150050Z 04003KT 10SM SKC 06/03 A3039,KCWF,2019-01-15T00:50:00Z,30.22,-93.15,6.0,3.0,40,3,,10.0,30.389763,,,,,,,,,,,SKC,,,,,,,,VFR,,,,,,,,,,,,METAR,4.0
PGRO 150050Z 05017KT 7SM FEW013 SCT120 27/22 A2988 RMK WIND DATA ESTIMATED,PGRO,2019-01-15T00:50:00Z,14.18,145.25,27.0,22.0,50,17,,7.0,29.878937,,,,,,,,,,,FEW,1300,SCT,12000,,,,,VFR,,,,,,,,,,,,METAR,185.0
EETN 150050Z 24004KT 9999 SCT025 BKN032 M04/M05 Q0980 R08/920295,EETN,2019-01-15T00:50:00Z,59.4,24.82,-4.0,-5.0,240,4,,6.21,28.937008,,,,,,,,,,,SCT,2500,BKN,3200,,,,,VFR,,,,,,,,,,,,METAR,40.0
EYKA 150050Z AUTO 28010KT 250V320 9999 -SN FEW040/// SCT049/// OVC056/// M03/M05 Q0988,EYKA,2019-01-15T00:50:00Z,54.97,24.08,-3.0,-5.0,280,10,,6.21,29.17323,,,TRUE,,,,,,,-SN,FEW,4000,SCT,4900,OVC,5600,,,VFR,,,,,,,,,,,,METAR,77.0
EKVG 150050Z AUTO 28025KT 9999NDV -SHRA FEW019/// SCT025/// BKN055/// 05/02 Q0995 RMK FEW020/// BKN028/// BKN056/// WIND SKEID 29041G51KT,EKVG,2019-01-15T00:50:00Z,62.07,-7.3,5.0,2.0,280,25,,,29.379921,,,TRUE,,,,,,,-SHRA,FEW,1900,SCT,2500,BKN,5500,,,,,,,,,,,,,,,METAR,85.0
KNQA 150050Z 00000KT 10SM OVC018 03/00 A3037,KNQA,2019-01-15T00:50:00Z,35.35,-89.87,3.0,0.0,0,0,,10.0,30.369095,,,,,,,,,,,OVC,1800,,,,,,,MVFR,,,,,,,,,,,,METAR,86.0
EGQL 150050Z 26018KT CAVOK 08/06 Q1010 BLU,EGQL,2019-01-15T00:50:00Z,56.38,-2.87,8.0,6.0,260,18,,6.21,29.822834,,,,,,,,,,,CAVOK,,,,,,,,VFR,,,,,,,,,,,,SPECI,12.0
ESUT 150050Z AUTO VRB02KT 9999 ///////// M18/M20 Q0990,ESUT,2019-01-15T00:50:00Z,65.8,15.08,-18.0,-20.0,0,2,,6.21,29.232283,,,TRUE,,,,,,,,,,,,,,,,,,,,,,,,,,,,METAR,463.0
ESNX 150050Z AUTO 29008KT 9999 FEW170/// M12/M14 Q0987,ESNX,2019-01-15T00:50:00Z,65.58,19.28,-12.0,-14.0,290,8,,6.21,29.143702,,,TRUE,,,,,,,,FEW,17000,,,,,,,VFR,,,,,,,,,,,,METAR,379.0
ESNL 150050Z AUTO 31006KT 9999 NCD M09/M13 Q0989,ESNL,2019-01-15T00:50:00Z,64.55,18.72,-9.0,-13.0,310,6,,6.21,29.202755,,,TRUE,,,,,,,,CLR,,,,,,,,VFR,,,,,,,,,,,,METAR,214.0
LSGC 150050Z AUTO 23003KT 2100 -SN BKN/// M01/M01 Q1021 REFZDZ,LSGC,2019-01-15T00:50:00Z,47.08,6.8,-1.0,-1.0,230,3,,1.3,30.147638,,,TRUE,,,,,,,-SN,,,,,,,,,,,,,,,,,,,,,SPECI,1027.0
LSGS 150050Z AUTO 26004KT 230V300 CAVOK 02/M01 Q1023,LSGS,2019-01-15T00:50:00Z,46.22,7.32,2.0,-1.0,260,4,,6.21,30.206694,,,TRUE,,,,,,,,CAVOK,,,,,,,,VFR,,,,,,,,,,,,METAR,481.0
LSZG 150050Z AUTO 23004KT 9999 BKN045 SCT050 03/02 Q1023,LSZG,2019-01-15T00:50:00Z,47.17,7.42,3.0,2.0,230,4,,6.21,30.206694,,,TRUE,,,,,,,,BKN,4500,SCT,5000,,,,,VFR,,,,,,,,,,,,METAR,430.0
LSZR 150050Z AUTO 12002KT 9999 FEW033 BKN049 BKN060 00/00 Q1022 RESN,LSZR,2019-01-15T00:50:00Z,47.48,9.57,0.0,0.0,120,2,,6.21,30.177166,,,TRUE,,,,,,,,FEW,3300,BKN,4900,BKN,6000,,,VFR,,,,,,,,,,,,METAR,398.0
LSZS 150050Z AUTO 33015G27KT 300V010 2500 SN BKN/// M05/M14 Q1013,LSZS,2019-01-15T00:50:00Z,46.53,9.88,-5.0,-14.0,330,15,27,1.55,29.911417,,,TRUE,,,,,,,SN,,,,,,,,,,,,,,,,,,,,,SPECI,1706.0
LSZC 150050Z AUTO 22006KT 9999 SCT050 OVC070 02/01 Q1023,LSZC,2019-01-15T00:50:00Z,46.97,8.38,2.0,1.0,220,6,,6.21,30.206694,,,TRUE,,,,,,,,SCT,5000,OVC,7000,,,,,VFR,,,,,,,,,,,,METAR,450.0
LSZL 150050Z AUTO 12014KT 040V150 9999NDV NCD 08/M02 Q1016 RMK,LSZL,2019-01-15T00:50:00Z,46.17,8.88,8.0,-2.0,120,14,,,30.0,,,TRUE,,,,,,,,CLR,,,,,,,,,,,,,,,,,,,,SPECI,600.0
LSZH 150050Z 23004KT 9999 FEW013 BKN060 01/00 Q1023 NOSIG,LSZH,2019-01-15T00:50:00Z,47.48,8.53,1.0,0.0,230,4,,6.21,30.206694,,,,,,TRUE,,,,,FEW,1300,BKN,6000,,,,,VFR,,,,,,,,,,,,METAR,432.0
LSGG 150050Z AUTO VRB01KT 5000 NCD 00/M00 Q1023 BECMG 4500 BR,LSGG,2019-01-15T00:50:00Z,46.25,6.12,0.0,0.0,0,1,,3.11,30.206694,,,TRUE,,,,,,,,CLR,,,,,,,,MVFR,,,,,,,,,,,,SPECI,416.0
KQER 150050Z AUTO 16004KT 2800 HZ OVC021 M03/M07 A3012 RMK A02 TSNO,KQER,2019-01-15T00:50:00Z,,,-3.0,-7.0,160,4,,1.74,30.121063,,,TRUE,TRUE,,,TRUE,,,HZ,OVC,2100,,,,,,,IFR,,,,,,,,,,,,METAR,
EKKA 150050Z AUTO 26010KT 9999NDV SCT012/// BKN022/// BKN063/// 03/01 Q1006 R27L/120095,EKKA,2019-01-15T00:50:00Z,56.3,9.12,3.0,1.0,260,10,,0.06,29.704725,,,TRUE,,,,,,,,SCT,1200,BKN,2200,BKN,6300,,,LIFR,,,,,,,,,,,,SPECI,52.0
LSZB 150050Z AUTO 28005KT 250V320 9999 OVC070 03/00 Q1023,LSZB,2019-01-15T00:50:00Z,46.92,7.5,3.0,0.0,280,5,,6.21,30.206694,,,TRUE,,,,,,,,OVC,7000,,,,,,,VFR,,,,,,,,,,,,METAR,505.0
LSZA 150050Z AUTO 01014KT CAVOK 07/M04 Q1015,LSZA,2019-01-15T00:50:00Z,46.0,8.92,7.0,-4.0,10,14,,6.21,29.970472,,,TRUE,,,,,,,,CAVOK,,,,,,,,VFR,,,,,,,,,,,,METAR,276.0
KEFD 150050Z 00000KT 10SM BKN070 11/02 A3039,KEFD,2019-01-15T00:50:00Z,29.6,-95.17,11.0,2.0,0,0,,10.0,30.389763,,,,,,,,,,,BKN,7000,,,,,,,VFR,,,,,,,,,,,,METAR,10.0
KCDD 150050Z AUTO 00000KT 10SM CLR M13/M14 A3023 RMK AO2,KCDD,2019-01-15T00:50:00Z,48.27,-92.48,-13.0,-14.0,0,0,,10.0,30.230314,,,TRUE,TRUE,,,,,,,CLR,,,,,,,,VFR,,,,,,,,,,,,METAR,341.0
KDAG 150050Z AUTO 08009KT 10SM OVC070 09/06 A2997 RMK AO2 RAE26 SLP146 P0000 T00940061,KDAG,2019-01-15T00:50:00Z,34.85,-116.78,9.4,6.1,80,9,,10.0,29.970472,1014.6,,TRUE,TRUE,,,,,,,OVC,7000,,,,,,,VFR,,,,,,0.005,,,,,,METAR,587.0
KGEU 150050Z 06004KT 10SM SCT080 BKN120 19/09 A3005,KGEU,2019-01-15T00:50:00Z,33.53,-112.3,19.0,9.0,60,4,,10.0,30.050198,,,,,,,,,,,SCT,8000,BKN,12000,,,,,VFR,,,,,,,,,,,,METAR,325.0
EDNY 150050Z AUTO VRB02KT 9999 // FEW031/// OVC057/// 01/M00 Q1022,EDNY,2019-01-15T00:50:00Z,47.67,9.52,1.0,0.0,0,2,,6.21,30.177166,,,TRUE,,,,,,,,FEW,3100,OVC,5700,,,,,VFR,,,,,,,,,,,,METAR,424.0
LGBL 150050Z 28007KT 9999 -RA SCT030 BKN080 05/M00 Q1003,LGBL,2019-01-15T00:50:00Z,39.22,22.8,5.0,0.0,280,7,,6.21,29.616142,,,,,,,,,,-RA,SCT,3000,BKN,8000,,,,,VFR,,,,,,,,,,,,METAR,26.0
EDSB 150050Z AUTO 22003KT 200V260 9999 // OVC054/// 02/00 Q1023,EDSB,2019-01-15T00:50:00Z,48.78,8.08,2.0,0.0,220,3,,6.21,30.206694,,,TRUE,,,,,,,,OVC,5400,,,,,,,VFR,,,,,,,,,,,,METAR,124.0
LGKP 150050Z AUTO 18014KT //// -RA ////// 15/08 Q1000 RE//,LGKP,2019-01-15T00:50:00Z,35.42,27.15,15.0,8.0,180,14,,,29.52756,,,TRUE,,,,,,,-RA,,,,,,,,,,,,,,,,,,,,,SPECI,20.0
LGPA 150050Z AUTO 08005KT //// -RA ////// 09/08 Q0997 RE//,LGPA,2019-01-15T00:50:00Z,37.0,25.13,9.0,8.0,80,5,,,29.438976,,,TRUE,,,,,,,-RA,,,,,,,,,,,,,,,,,,,,,METAR,36.0
LGSO 150050Z AUTO VRB01KT //// -RA ////// 08/06 Q0998 RE//,LGSO,2019-01-15T00:50:00Z,37.42,24.95,8.0,6.0,0,1,,,29.468504,,,TRUE,,,,,,,-RA,,,,,,,,,,,,,,,,,,,,,METAR,72.0
EBAW 150050Z AUTO 23005KT 9999 // OVC028/// 04/03 Q1021,EBAW,2019-01-15T00:50:00Z,51.2,4.47,4.0,3.0,230,5,,6.21,30.147638,,,TRUE,,,,,,,,OVC,2800,,,,,,,MVFR,,,,,,,,,,,,METAR,14.0
EBBR 150050Z 23005KT 9999 FEW014 BKN035 04/03 Q1021 NOSIG,EBBR,2019-01-15T00:50:00Z,50.9,4.5,4.0,3.0,230,5,,6.21,30.147638,,,,,,TRUE,,,,,FEW,1400,BKN,3500,,,,,VFR,,,,,,,,,,,,METAR,58.0
EBLG 150050Z 23006KT 9999 SCT025 BKN030 03/02 Q1021 NOSIG,EBLG,2019-01-15T00:50:00Z,50.63,5.45,3.0,2.0,230,6,,6.21,30.147638,,,,,,TRUE,,,,,SCT,2500,BKN,3000,,,,,MVFR,,,,,,,,,,,,METAR,178.0
EBCI 150050Z 24007KT 8000 SCT024 03/02 Q1022 NOSIG,EBCI,2019-01-15T00:50:00Z,50.47,4.45,3.0,2.0,240,7,,4.97,30.177166,,,,,,TRUE,,,,,SCT,2400,,,,,,,MVFR,,,,,,,,,,,,METAR,192.0
ELLX 150050Z 25005KT 9999 SCT014 BKN027 01/00 Q1021 NOSIG,ELLX,2019-01-15T00:50:00Z,49.63,6.2,1.0,0.0,250,5,,6.21,30.147638,,,,,,TRUE,,,,,SCT,1400,BKN,2700,,,,,MVFR,,,,,,,,,,,,METAR,379.0
EBOS 150050Z 23005KT 9000 FEW019 BKN048 03/02 Q1022 NOSIG,EBOS,2019-01-15T00:50:00Z,51.2,2.87,3.0,2.0,230,5,,5.59,30.177166,,,,,,TRUE,,,,,FEW,1900,BKN,4800,,,,,VFR,,,,,,,,,,,,METAR,5.0
EEKE 150050Z AUTO 30009KT 260V350 2300NDV -SN SCT008 BKN017 BKN035 M03/M03 Q0983,EEKE,2019-01-15T00:50:00Z,58.23,22.52,-3.0,-3.0,300,9,,,29.02559,,,TRUE,,,,,,,-SN,SCT,800,BKN,1700,BKN,3500,,,,,,,,,,,,,,,METAR,4.0
LGSR 150050Z AUTO 36018KT //// -RA ////// 14/07 Q0996 RE//,LGSR,2019-01-15T00:50:00Z,36.4,25.48,14.0,7.0,360,18,,,29.409449,,,TRUE,,,,,,,-RA,,,,,,,,,,,,,,,,,,,,,METAR,40.0
LGRX 150050Z 02014KT 9999 FEW018 BKN025 OVC080 09/06 Q0999,LGRX,2019-01-15T00:50:00Z,38.17,21.42,9.0,6.0,20,14,,6.21,29.498032,,,,,,,,,,,FEW,1800,BKN,2500,OVC,8000,,,MVFR,,,,,,,,,,,,METAR,15.0
LGPZ 150050Z 05008KT 9999 FEW016 SCT025 OVC070 07/05 Q1001,LGPZ,2019-01-15T00:50:00Z,38.92,20.77,7.0,5.0,50,8,,6.21,29.557087,,,,,,,,,,,FEW,1600,SCT,2500,OVC,7000,,,VFR,,,,,,,,,,,,METAR,4.0
LGEL 150050Z 32007KT 8000 -RA BKN025 OVC070 07/05 Q1001,LGEL,2019-01-15T00:50:00Z,38.07,23.55,7.0,5.0,320,7,,4.97,29.557087,,,,,,,,,,-RA,BKN,2500,OVC,7000,,,,,MVFR,,,,,,,,,,,,METAR,31.0
EETU 150050Z 25008KT 9999 SCT040 M04/M06 Q0981,EETU,2019-01-15T00:50:00Z,58.32,26.68,-4.0,-6.0,250,8,,6.21,28.966536,,,,,,,,,,,SCT,4000,,,,,,,VFR,,,,,,,,,,,,METAR,67.0
ESSD 150050Z AUTO 30017KT 9999 NCD M02/M08 Q0992,ESSD,2019-01-15T00:50:00Z,60.42,15.5,-2.0,-8.0,300,17,,6.21,29.291338,,,TRUE,,,,,,,,CLR,,,,,,,,VFR,,,,,,,,,,,,METAR,161.0
PTKK 150050Z VRB04KT 12SM -SHRA SCT010CB OVC110 28/23 A2973 RMK CB ALQDS SLP069 T02760234,PTKK,2019-01-15T00:50:00Z,7.47,151.85,27.6,23.4,0,4,,12.0,29.731298,1006.9,,,,,,,,,-SHRA,SCT,1000,OVC,11000,,,,,VFR,,,,,,,,,,,,METAR,2.0
EVLA 150050Z AUTO 33009G21KT 300V030 9999 FEW019/// BKN036/// 00/M06 Q0987,EVLA,2019-01-15T00:50:00Z,56.52,21.1,0.0,-6.0,330,9,21,6.21,29.143702,,,TRUE,,,,,,,,FEW,1900,BKN,3600,,,,,VFR,,,,,,,,,,,,METAR,4.0
EVVA 150050Z AUTO 31016G28KT 9999 FEW011 SCT035 SCT060 M01/M05 Q0985,EVVA,2019-01-15T00:50:00Z,57.35,21.55,-1.0,-5.0,310,16,28,6.21,29.084646,,,TRUE,,,,,,,,FEW,1100,SCT,3500,SCT,6000,,,VFR,,,,,,,,,,,,METAR,6.0
EGPD 150050Z AUTO 19005KT 9999 NCD 05/03 Q1008,EGPD,2019-01-15T00:50:00Z,57.2,-2.22,5.0,3.0,190,5,,6.21,29.763779,,,TRUE,,,,,,,,CLR,,,,,,,,VFR,,,,,,,,,,,,METAR,65.0
EGNX 150050Z 21008KT 9999 FEW030 BKN040 04/02 Q1020,EGNX,2019-01-15T00:50:00Z,52.82,-1.32,4.0,2.0,210,8,,6.21,30.11811,,,,,,,,,,,FEW,3000,BKN,4000,,,,,VFR,,,,,,,,,,,,METAR,94.0
EGKK 150050Z 21004KT CAVOK 03/01 Q1023,EGKK,2019-01-15T00:50:00Z,51.13,-0.17,3.0,1.0,210,4,,6.21,30.206694,,,,,,,,,,,CAVOK,,,,,,,,VFR,,,,,,,,,,,,METAR,62.0
EGBB 150050Z 25007KT 210V270 CAVOK 04/02 Q1021,EGBB,2019-01-15T00:50:00Z,52.47,-1.75,4.0,2.0,250,7,,6.21,30.147638,,,,,,,,,,,CAVOK,,,,,,,,VFR,,,,,,,,,,,,METAR,99.0
EGPF 150050Z AUTO 24018KT 9999 SCT018 09/07 Q1014,EGPF,2019-01-15T00:50:00Z,55.87,-4.42,9.0,7.0,240,18,,6.21,29.940945,,,TRUE,,,,,,,,SCT,1800,,,,,,,VFR,,,,,,,,,,,,METAR,8.0
ESPE 150050Z AUTO 32008KT 9999 NCD M11/M13 Q0989,ESPE,2019-01-15T00:50:00Z,65.88,20.15,-11.0,-13.0,320,8,,6.21,29.202755,,,TRUE,,,,,,,,CLR,,,,,,,,VFR,,,,,,,,,,,,METAR,182.0
ESPA 150050Z AUTO 35007KT 9999 NCD M08/M10 Q0989,ESPA,2019-01-15T00:50:00Z,65.53,22.12,-8.0,-10.0,350,7,,6.21,29.202755,,,TRUE,,,,,,,,CLR,,,,,,,,VFR,,,,,,,,,,,,METAR,34.0
EGMC 150050Z 26006KT CAVOK 04/01 Q1022,EGMC,2019-01-15T00:50:00Z,51.57,0.7,4.0,1.0,260,6,,6.21,30.177166,,,,,,,,,,,CAVOK,,,,,,,,VFR,,,,,,,,,,,,METAR,15.0
ESCM 150050Z AUTO 32017KT 9999 VV038 M02/M08 Q0989,ESCM,2019-01-15T00:50:00Z,59.87,17.6,-2.0,-8.0,320,17,,6.21,29.202755,,,TRUE,,,,,,,,OVX,0,,,,,,,LIFR,,,,,,,,,,,3800,METAR,41.0
ESIA 150050Z AUTO 30008KT 270V340 9999 NCD M01/M07 Q0996,ESIA,2019-01-15T00:50:00Z,58.52,14.5,-1.0,-7.0,300,8,,6.21,29.409449,,,TRUE,,,,,,,,CLR,,,,,,,,VFR,,,,,,,,,,,,METAR,94.0
ESSL 150050Z AUTO 29017KT 9999 NCD M01/M06 Q0994,ESSL,2019-01-15T00:50:00Z,58.38,15.67,-1.0,-6.0,290,17,,6.21,29.350393,,,TRUE,,,,,,,,CLR,,,,,,,,VFR,,,,,,,,,,,,METAR,52.0
EGMD 150050Z AUTO 28007KT 9999 FEW048/// 04/01 Q1023,EGMD,2019-01-15T00:50:00Z,50.95,0.92,4.0,1.0,280,7,,6.21,30.206694,,,TRUE,,,,,,,,FEW,4800,,,,,,,VFR,,,,,,,,,,,,METAR,3.0
ESOK 150050Z AUTO 29009KT 9999 NCD M03/M08 Q0997,ESOK,2019-01-15T00:50:00Z,59.45,13.33,-3.0,-8.0,290,9,,6.21,29.438976,,,TRUE,,,,,,,,CLR,,,,,,,,VFR,,,,,,,,,,,,METAR,107.0
ESOE 150050Z AUTO 30015KT 9999 NCD M01/M07 Q0995,ESOE,2019-01-15T00:50:00Z,59.22,15.05,-1.0,-7.0,300,15,,6.21,29.379921,,,TRUE,,,,,,,,CLR,,,,,,,,VFR,,,,,,,,,,,,METAR,57.0
ESKN 150050Z 31016KT CAVOK M01/M09 Q0991 R26/09//95,ESKN,2019-01-15T00:50:00Z,58.78,16.9,-1.0,-9.0,310,16,,6.21,29.26181,,,,,,,,,,,CAVOK,,,,,,,,VFR,,,,,,,,,,,,SPECI,43.0
ESOW 150050Z AUTO 31017KT 9999 NCD M01/M10 Q0991,ESOW,2019-01-15T00:50:00Z,59.57,16.62,-1.0,-10.0,310,17,,6.21,29.26181,,,TRUE,,,,,,,,CLR,,,,,,,,VFR,,,,,,,,,,,,METAR,31.0
ESSA 150050Z 31014KT 2300 -SN VV021 M03/M05 Q0988 R01L/520154 R08/SNOCLO R01R/SNOCLO TEMPO 4800 -SN,ESSA,2019-01-15T00:50:00Z,59.63,17.93,-3.0,-5.0,310,14,,1.43,29.17323,,,,,,,,,,-SN SN SN,OVX,0,,,,,,,LIFR,,,,,,,,,,,2100,SPECI,61.0
ESSB 150050Z AUTO 32013KT 9999 SG OVC046/// M02/M07 Q0989,ESSB,2019-01-15T00:50:00Z,59.35,17.93,-2.0,-7.0,320,13,,6.21,29.202755,,,TRUE,,,,,,,SG,OVC,4600,,,,,,,VFR,,,,,,,,,,,,METAR,11.0
KSBD 150050Z 12004KT 4SM -RA FEW005 OVC038 11/09 A2998,KSBD,2019-01-15T00:50:00Z,34.08,-117.25,11.0,9.0,120,4,,4.0,29.97933,,,,,,,,,,-RA,FEW,500,OVC,3800,,,,,MVFR,,,,,,,,,,,,METAR,353.0
KLAL 150050Z 33007KT 10SM SKC 13/09 A3018,KLAL,2019-01-15T00:50:00Z,27.97,-82.02,13.0,9.0,330,7,,10.0,30.180119,,,,,,,,,,,SKC,,,,,,,,VFR,,,,,,,,,,,,METAR,43.0
LLBG 150050Z 16008KT CAVOK 11/05 Q1016 NOSIG RMK OBS WS IN APCH 1000FT-WIND 230/26KT,LLBG,2019-01-15T00:50:00Z,32.0,34.88,11.0,5.0,160,8,,6.21,30.0,,,,,,TRUE,,,,,CAVOK,,,,,,,,VFR,,,,,,,,,,,,METAR,49.0
EGLL 150050Z AUTO 28008KT 9999 NCD 04/01 Q1023 NOSIG,EGLL,2019-01-15T00:50:00Z,51.48,-0.45,4.0,1.0,280,8,,6.21,30.206694,,,TRUE,,,TRUE,,,,,CLR,,,,,,,,VFR,,,,,,,,,,,,METAR,24.0
EGCC 150050Z AUTO 21005KT 9999 BKN020 BKN024 BKN035 06/03 Q1020 NOSIG,EGCC,2019-01-15T00:50:00Z,53.35,-2.27,6.0,3.0,210,5,,6.21,30.11811,,,TRUE,,,TRUE,,,,,BKN,2000,BKN,2400,BKN,3500,,,MVFR,,,,,,,,,,,,METAR,78.0
EGSS 150050Z AUTO 25003KT 9999 NCD 03/01 Q1021,EGSS,2019-01-15T00:50:00Z,51.88,0.22,3.0,1.0,250,3,,6.21,30.147638,,,TRUE,,,,,,,,CLR,,,,,,,,VFR,,,,,,,,,,,,METAR,106.0
EGPK 150050Z 22010KT 9999 FEW007 SCT017 BKN020 09/07 Q1015,EGPK,2019-01-15T00:50:00Z,55.5,-4.57,9.0,7.0,220,10,,6.21,29.970472,,,,,,,,,,,FEW,700,SCT,1700,BKN,2000,,,MVFR,,,,,,,,,,,,METAR,20.0
EGPH 150050Z 24018KT 9999 SCT013 BKN049 09/07 Q1012,EGPH,2019-01-15T00:50:00Z,55.95,-3.35,9.0,7.0,240,18,,6.21,29.88189,,,,,,,,,,,SCT,1300,BKN,4900,,,,,VFR,,,,,,,,,,,,METAR,41.0
EGTE 150050Z 19004KT 9999 SCT020 SCT025 07/04 Q1024,EGTE,2019-01-15T00:50:00Z,50.72,-3.42,7.0,4.0,190,4,,6.21,30.236221,,,,,,,,,,,SCT,2000,SCT,2500,,,,,VFR,,,,,,,,,,,,METAR,30.0
EGJJ 150050Z AUTO 31003KT 9999 OVC031/// 08/03 Q1025,EGJJ,2019-01-15T00:50:00Z,49.22,-2.2,8.0,3.0,310,3,,6.21,30.265747,,,TRUE,,,,,,,,OVC,3100,,,,,,,VFR,,,,,,,,,,,,METAR,84.0
EGJB 150050Z 30004KT 280V360 9999 BKN030 08/02 Q1025,EGJB,2019-01-15T00:50:00Z,49.42,-2.6,8.0,2.0,300,4,,6.21,30.265747,,,,,,,,,,,BKN,3000,,,,,,,MVFR,,,,,,,,,,,,METAR,102.0
ESNZ 150050Z AUTO 32008KT 9999 R12/P1500N R30///// NCD M05/M08 Q0992,ESNZ,2019-01-15T00:50:00Z,63.17,14.5,-5.0,-8.0,320,8,,6.21,29.291338,,,TRUE,,,,,,,,CLR,,,,,,,,VFR,,,,,,,,,,,,METAR,370.0
ESNU 150050Z 33012KT 6000 SG SCT014 OVC045 M05/M07 Q0987 R14/75//30,ESNU,2019-01-15T00:50:00Z,63.78,20.27,-5.0,-7.0,330,12,,3.73,29.143702,,,,,,,,,,SG,SCT,1400,OVC,4500,,,,,MVFR,,,,,,,,,,,,SPECI,14.0
ESNS 150050Z AUTO 33007KT 7000 -SN BKN015/// OVC066/// M07/M08 Q0988,ESNS,2019-01-15T00:50:00Z,64.62,21.07,-7.0,-8.0,330,7,,4.35,29.17323,,,TRUE,,,,,,,-SN,BKN,1500,OVC,6600,,,,,MVFR,,,,,,,,,,,,METAR,49.0
ESNQ 150050Z AUTO 24003KT 9999 BKN059/// M18/M20 Q0987,ESNQ,2019-01-15T00:50:00Z,67.82,20.32,-18.0,-20.0,240,3,,6.21,29.143702,,,TRUE,,,,,,,,BKN,5900,,,,,,,VFR,,,,,,,,,,,,METAR,452.0
ESNO 150050Z AUTO 33011KT 9999 NCD M05/M09 Q0987 RESG,ESNO,2019-01-15T00:50:00Z,63.38,18.97,-5.0,-9.0,330,11,,6.21,29.143702,,,TRUE,,,,,,,,CLR,,,,,,,,VFR,,,,,,,,,,,,METAR,103.0
ESNN 150050Z AUTO 31015KT 9999 NCD M03/M10 Q0990,ESNN,2019-01-15T00:50:00Z,62.52,17.43,-3.0,-10.0,310,15,,6.21,29.232283,,,TRUE,,,,,,,,CLR,,,,,,,,VFR,,,,,,,,,,,,METAR,10.0
ESNK 150050Z AUTO 33012KT 9999 NCD M04/M11 Q0990,ESNK,2019-01-15T00:50:00Z,63.03,17.77,-4.0,-11.0,330,12,,6.21,29.232283,,,TRUE,,,,,,,,CLR,,,,,,,,VFR,,,,,,,,,,,,METAR,19.0
ESNG 150050Z AUTO 32006KT 9999 NCD M13/M15 Q0988,ESNG,2019-01-15T00:50:00Z,67.13,20.82,-13.0,-15.0,320,6,,6.21,29.17323,,,TRUE,,,,,,,,CLR,,,,,,,,VFR,,,,,,,,,,,,METAR,310.0
EGSH 150050Z AUTO 25008KT 9999 FEW038/// 03/02 Q1019,EGSH,2019-01-15T00:50:00Z,52.68,1.28,3.0,2.0,250,8,,6.21,30.088583,,,TRUE,,,,,,,,FEW,3800,,,,,,,VFR,,,,,,,,,,,,METAR,36.0
EGCN 150050Z 24011KT 9999 SCT032 07/04 Q1019,EGCN,2019-01-15T00:50:00Z,53.48,-1.0,7.0,4.0,240,11,,6.21,30.088583,,,,,,,,,,,SCT,3200,,,,,,,VFR,,,,,,,,,,,,METAR,17.0
PALP 150050Z 09016G26KT 1 1/2SM BLSN BKN004 BKN060 OVC110 M23/M26 A3026,PALP,2019-01-15T00:50:00Z,70.33,-150.93,-23.0,-26.0,90,16,26,1.5,30.259842,,,,,,,,,,BLSN,BKN,400,BKN,6000,OVC,11000,,,LIFR,,,,,,,,,,,,METAR,5.0
LSME 150050Z AUTO 05003KT 9999NDV FEW011 SCT041 BKN069 01/M00 Q1023 RMK,LSME,2019-01-15T00:50:00Z,47.1,8.3,1.0,0.0,50,3,,,30.206694,,,TRUE,,,,,,,,FEW,1100,SCT,4100,BKN,6900,,,,,,,,,,,,,,,METAR,427.0
LSMD 150050Z AUTO 00000KT 7000NDV FEW056 M00/M00 Q1023 RMK,LSMD,2019-01-15T00:50:00Z,47.4,8.65,0.0,0.0,0,0,,,30.206694,,,TRUE,,,,,,,,FEW,5600,,,,,,,,,,,,,,,,,,,METAR,448.0
LSMA 150050Z AUTO VRB02KT 9999NDV -SHRA FEW043 BKN053 BKN068 02/01 Q1023 RMK,LSMA,2019-01-15T00:50:00Z,46.95,8.28,2.0,1.0,0,2,,,30.206694,,,TRUE,,,,,,,-SHRA,FEW,4300,BKN,5300,BKN,6800,,,,,,,,,,,,,,,METAR,444.0
LSMM 150050Z AUTO 28007G17KT 230V350 9999NDV FEW023 BKN045 OVC070 03/M00 Q1022 RMK,LSMM,2019-01-15T00:50:00Z,46.75,8.12,3.0,0.0,280,7,17,,30.177166,,,TRUE,,,,,,,,FEW,2300,BKN,4500,OVC,7000,,,,,,,,,,,,,,,METAR,577.0
EKVD 150050Z AUTO 27011KT //// ///////// 03/01 Q1008,EKVD,2019-01-15T00:50:00Z,55.42,9.32,3.0,1.0,270,11,,,29.763779,,,TRUE,,,,,,,,,,,,,,,,,,,,,,,,,,,,SPECI,45.0
LSMS 150050Z AUTO 26004KT 230V300 CAVOK 02/M01 Q1023,LSMS,2019-01-15T00:50:00Z,46.22,7.32,2.0,-1.0,260,4,,6.21,30.206694,,,TRUE,,,,,,,,CAVOK,,,,,,,,VFR,,,,,,,,,,,,METAR,481.0
LSMP 150050Z AUTO 19003KT 9999NDV SCT033 OVC062 00/M01 Q1023 RMK,LSMP,2019-01-15T00:50:00Z,46.82,6.92,0.0,-1.0,190,3,,,30.206694,,,TRUE,,,,,,,,SCT,3300,OVC,6200,,,,,,,,,,,,,,,,,METAR,491.0
EKSB 150050Z AUTO 26007KT 240V300 9999NDV -RA BKN039/// 03/00 Q1009,EKSB,2019-01-15T00:50:00Z,54.97,9.8,3.0,0.0,260,7,,,29.793306,,,TRUE,,,,,,,-RA,BKN,3900,,,,,,,,,,,,,,,,,,,SPECI,23.0
EKYT 150050Z AUTO 29012KT 9999 SCT042/// OVC050/// 04/M01 Q1004 R26L/710195,EKYT,2019-01-15T00:50:00Z,57.1,9.87,4.0,-1.0,290,12,,6.21,29.64567,,,TRUE,,,,,,,,SCT,4200,OVC,5000,,,,,VFR,,,,,,,,,,,,METAR,3.0
EKEB 150050Z AUTO 26016KT 9999 -SHRA BKN031/// 04/02 Q1008,EKEB,2019-01-15T00:50:00Z,55.52,8.55,4.0,2.0,260,16,,6.21,29.763779,,,TRUE,,,,,,,-SHRA,BKN,3100,,,,,,,VFR,,,,,,,,,,,,METAR,29.0
EKRN 150050Z AUTO 31022G33KT 9999 NCD 03/M03 Q1001,EKRN,2019-01-15T00:50:00Z,55.07,14.75,3.0,-3.0,310,22,33,6.21,29.557087,,,TRUE,,,,,,,,CLR,,,,,,,,VFR,,,,,,,,,,,,METAR,16.0
EKCH 150050Z 31012KT CAVOK 02/M04 Q1004 R04L/710157 R04R/710165 R12/710165 TEMPO 29015G25KT,EKCH,2019-01-15T00:50:00Z,55.62,12.67,2.0,-4.0,310,12,,6.21,29.64567,,,,,,,,,,,CAVOK,,,,,,,,VFR,,,,,,,,,,,,METAR,5.0
EKRK 150050Z AUTO 30015KT 9999NDV NCD 02/M03 Q1005 R99/410194 R99/710194,EKRK,2019-01-15T00:50:00Z,55.57,12.12,2.0,-3.0,300,15,,0.12,29.675198,,,TRUE,,,,,,,,CLR,,,,,,,,LIFR,,,,,,,,,,,,METAR,44.0
EKAH 150050Z AUTO 28015KT 9999NDV BKN026/// BKN040/// 03/00 Q1006 R10R/010095,EKAH,2019-01-15T00:50:00Z,56.28,10.62,3.0,0.0,280,15,,0.06,29.704725,,,TRUE,,,,,,,,BKN,2600,BKN,4000,,,,,LIFR,,,,,,,,,,,,METAR,25.0
ESMK 150050Z AUTO 29012KT 9999 NCD 01/// Q1001,ESMK,2019-01-15T00:50:00Z,55.92,14.07,,,290,12,,6.21,29.557087,,,TRUE,,,,,,,,CLR,,,,,,,,VFR,,,,,,,,,,,,METAR,23.0
ESGT 150050Z AUTO 29010KT 9999 NCD M01/M10 Q1000,ESGT,2019-01-15T00:50:00Z,58.32,12.33,-1.0,-10.0,290,10,,6.21,29.52756,,,TRUE,,,,,,,,CLR,,,,,,,,VFR,,,,,,,,,,,,METAR,41.0
ESGJ 150050Z 28012KT CAVOK M03/M08 Q0997,ESGJ,2019-01-15T00:50:00Z,57.77,14.07,-3.0,-8.0,280,12,,6.21,29.438976,,,,,,,,,,,CAVOK,,,,,,,,VFR,,,,,,,,,,,,METAR,232.0
ESGG 150050Z 29005KT CAVOK M01/M08 Q1000 R03/19//95,ESGG,2019-01-15T00:50:00Z,57.67,12.3,-1.0,-8.0,290,5,,6.21,29.52756,,,,,,,,,,,CAVOK,,,,,,,,VFR,,,,,,,,,,,,SPECI,169.0
EKBI 150050Z AUTO 26012KT 9999 OVC012/// 02/01 Q1007,EKBI,2019-01-15T00:50:00Z,55.72,9.15,2.0,1.0,260,12,,6.21,29.734253,,,TRUE,,,,,,,,OVC,1200,,,,,,,MVFR,,,,,,,,,,,,METAR,66.0
ESMT 150050Z AUTO 32012KT 9999 SCT042/// 02/M05 Q1002,ESMT,2019-01-15T00:50:00Z,56.67,12.82,2.0,-5.0,320,12,,6.21,29.586615,,,TRUE,,,,,,,,SCT,4200,,,,,,,VFR,,,,,,,,,,,,METAR,30.0
ESMS 150050Z 30013KT CAVOK 01/M03 Q1003 R17/19//95,ESMS,2019-01-15T00:50:00Z,55.53,13.37,1.0,-3.0,300,13,,6.21,29.616142,,,,,,,,,,,CAVOK,,,,,,,,VFR,,,,,,,,,,,,SPECI,106.0
ESMQ 150050Z AUTO 30017KT 9999 NCD M00/M07 Q0996,ESMQ,2019-01-15T00:50:00Z,56.68,16.3,0.0,-7.0,300,17,,6.21,29.409449,,,TRUE,,,,,,,,CLR,,,,,,,,VFR,,,,,,,,,,,,METAR,16.0
ESMX 150050Z AUTO 29012KT 9999 NCD M01/M08 Q0998,ESMX,2019-01-15T00:50:00Z,56.92,14.72,-1.0,-8.0,290,12,,6.21,29.468504,,,TRUE,,,,,,,,CLR,,,,,,,,VFR,,,,,,,,,,,,METAR,186.0
ESTA 150050Z AUTO 29021KT 9999 BKN041/// 03/M04 Q1002,ESTA,2019-01-15T00:50:00Z,56.28,12.83,3.0,-4.0,290,21,,6.21,29.586615,,,TRUE,,,,,,,,BKN,4100,,,,,,,VFR,,,,,,,,,,,,METAR,47.0
ESST 150050Z AUTO VRB02KT 9999 NCD M05/M07 Q0997,ESST,2019-01-15T00:50:00Z,60.15,12.98,-5.0,-7.0,0,2,,6.21,29.438976,,,TRUE,,,,,,,,CLR,,,,,,,,VFR,,,,,,,,,,,,METAR,120.0
ESNV 150050Z AUTO 00000KT 9999 BKN030/// M16/M18 Q0989,ESNV,2019-01-15T00:50:00Z,64.58,16.83,-16.0,-18.0,0,0,,6.21,29.202755,,,TRUE,,,,,,,,BKN,3000,,,,,,,MVFR,,,,,,,,,,,,METAR,348.0
ESKM 150050Z AUTO 31013KT 9999 NCD M02/M08 Q0993,ESKM,2019-01-15T00:50:00Z,60.97,14.52,-2.0,-8.0,310,13,,6.21,29.320866,,,TRUE,,,,,,,,CLR,,,,,,,,VFR,,,,,,,,,,,,METAR,193.0
ESGR 150050Z AUTO 32010KT 9999 NCD M00/M08 Q0997,ESGR,2019-01-15T00:50:00Z,58.45,13.97,0.0,-8.0,320,10,,6.21,29.438976,,,TRUE,,,,,,,,CLR,,,,,,,,VFR,,,,,,,,,,,,METAR,105.0
ESSV 150050Z AUTO 33029KT 9999 SCT046/// 01/M08 Q0989,ESSV,2019-01-15T00:50:00Z,57.67,18.35,1.0,-8.0,330,29,,6.21,29.202755,,,TRUE,,,,,,,,SCT,4600,,,,,,,VFR,,,,,,,,,,,,METAR,47.0
ESSP 150050Z AUTO 30015KT 9999 NCD M01/M08 Q0993,ESSP,2019-01-15T00:50:00Z,58.57,16.25,-1.0,-8.0,300,15,,6.21,29.320866,,,TRUE,,,,,,,,CLR,,,,,,,,VFR,,,,,,,,,,,,METAR,8.0
EGGD 150050Z AUTO 25008KT 9999 OVC022 06/05 Q1023,EGGD,2019-01-15T00:50:00Z,51.37,-2.72,6.0,5.0,250,8,,6.21,30.206694,,,TRUE,,,,,,,,OVC,2200,,,,,,,MVFR,,,,,,,,,,,,METAR,189.0
EGPO 150050Z AUTO 26015KT 9999 BKN006/// OVC012/// 10/09 Q1005,EGPO,2019-01-15T00:50:00Z,58.22,-6.32,10.0,9.0,260,15,,6.21,29.675198,,,TRUE,,,,,,,,BKN,600,OVC,1200,,,,,IFR,,,,,,,,,,,,METAR,13.0
EGPM 150050Z AUTO 16024KT 7000 -RA FEW004/// BKN013/// OVC025/// 03/02 Q0997,EGPM,2019-01-15T00:50:00Z,60.42,-1.3,3.0,2.0,160,24,,4.35,29.438976,,,TRUE,,,,,,,-RA,FEW,400,BKN,1300,OVC,2500,,,MVFR,,,,,,,,,,,,METAR,22.0
EGPL 150050Z AUTO 25020KT 9999 BKN004/// BKN009/// 10/09 Q1008 RERA,EGPL,2019-01-15T00:50:00Z,57.47,-7.37,10.0,9.0,250,20,,6.21,29.763779,,,TRUE,,,,,,,,BKN,400,BKN,900,,,,,LIFR,,,,,,,,,,,,METAR,6.0
EGPC 150050Z AUTO 25014KT 9999 -RA FEW034/// 08/07 Q1004,EGPC,2019-01-15T00:50:00Z,58.45,-3.07,8.0,7.0,250,14,,6.21,29.64567,,,TRUE,,,,,,,-RA,FEW,3400,,,,,,,VFR,,,,,,,,,,,,METAR,39.0
EGPA 150050Z AUTO 25024KT 9999 OVC011/// ///// Q1002,EGPA,2019-01-15T00:50:00Z,58.95,-2.88,,,250,24,,6.21,29.586615,,,TRUE,,,,,,,,OVC,1100,,,,,,,MVFR,,,,,,,,,,,,SPECI,21.0
ESND 150050Z AUTO 26004KT 220V290 9999 NCD M08/M11 Q0993,ESND,2019-01-15T00:50:00Z,62.05,14.42,-8.0,-11.0,260,4,,6.21,29.320866,,,TRUE,,,,,,,,CLR,,,,,,,,VFR,,,,,,,,,,,,METAR,359.0
ESUP 150050Z AUTO 20001KT 9999 FEW027/// SCT044/// M20/M22 Q0989,ESUP,2019-01-15T00:50:00Z,67.25,23.07,-20.0,-22.0,200,1,,6.21,29.202755,,,TRUE,,,,,,,,FEW,2700,SCT,4400,,,,,VFR,,,,,,,,,,,,METAR,165.0
VNKT 150050Z 09003KT 2000 BR FEW015 03/02 Q1019 NOSIG,VNKT,2019-01-15T00:50:00Z,27.68,85.37,3.0,2.0,90,3,,1.24,30.088583,,,,,,TRUE,,,,BR,FEW,1500,,,,,,,IFR,,,,,,,,,,,,METAR,1337.0
ESTL 150050Z AUTO 29013KT 9999 BKN041/// 02/M03 Q1002,ESTL,2019-01-15T00:50:00Z,56.07,13.2,2.0,-3.0,290,13,,6.21,29.586615,,,TRUE,,,,,,,,BKN,4100,,,,,,,VFR,,,,,,,,,,,,METAR,43.0
PTPN 150050Z 06004KT 15SM BKN018 OVC300 29/26 A2973 ,PTPN,2019-01-15T00:50:00Z,6.97,158.22,29.0,26.0,60,4,,15.0,29.731298,,,,,,,,,,,BKN,1800,OVC,30000,,,,,MVFR,,,,,,,,,,,,METAR,2.0
EDHI 150050Z AUTO 27012KT 3900 // FEW037/// BKN086/// OVC100/// 03/M00 Q1012,EDHI,2019-01-15T00:50:00Z,53.53,9.83,3.0,0.0,270,12,,2.42,29.88189,,,TRUE,,,,,,,,FEW,3700,BKN,8600,OVC,10000,,,IFR,,,,,,,,,,,,SPECI,13.0
EGQM 150050Z AUTO 22011KT 9999 BKN021/// SCT100/// BKN130/// 08/06 Q1013,EGQM,2019-01-15T00:50:00Z,55.42,-1.6,8.0,6.0,220,11,,6.21,29.911417,,,TRUE,,,,,,,,BKN,2100,SCT,10000,BKN,13000,,,MVFR,,,,,,,,,,,,SPECI,23.0
LGAV 150050Z 02014KT 8000 -RA SCT030 BKN070 07/04 Q0999 NOSIG,LGAV,2019-01-15T00:50:00Z,37.93,23.95,7.0,4.0,20,14,,4.97,29.498032,,,,,,TRUE,,,,-RA,SCT,3000,BKN,7000,,,,,MVFR,,,,,,,,,,,,METAR,94.0
LGRP 150050Z 16002KT 9999 -RA FEW018TCU BKN025 11/09 Q1001 NOSIG,LGRP,2019-01-15T00:50:00Z,36.4,28.08,11.0,9.0,160,2,,6.21,29.557087,,,,,,TRUE,,,,-RA,FEW,1800,BKN,2500,,,,,MVFR,,,,,,,,,,,,METAR,5.0
LGKR 150050Z 00000KT 9999 FEW015 SCT025 06/05 Q1000 NOSIG,LGKR,2019-01-15T00:50:00Z,39.62,19.92,6.0,5.0,0,0,,6.21,29.52756,,,,,,TRUE,,,,,FEW,1500,SCT,2500,,,,,VFR,,,,,,,,,,,,METAR,2.0
LGIR 150050Z 21007KT 8000 -RA FEW018TCU BKN025 BKN080 11/10 Q0996 NOSIG,LGIR,2019-01-15T00:50:00Z,35.32,25.17,11.0,10.0,210,7,,4.97,29.409449,,,,,,TRUE,,,,-RA,FEW,1800,BKN,2500,BKN,8000,,,MVFR,,,,,,,,,,,,METAR,39.0
EGDY 150050Z 24004KT 9999 BKN028 07/03 Q1024 BLU,EGDY,2019-01-15T00:50:00Z,51.0,-2.62,7.0,3.0,240,4,,6.21,30.236221,,,,,,,,,,,BKN,2800,,,,,,,MVFR,,,,,,,,,,,,METAR,23.0
KGNB 150050Z AUTO 00000KT 10SM CLR M13/M17 A3027 RMK AO2 T11341167,KGNB,2019-01-15T00:50:00Z,40.08,-105.92,-13.4,-16.7,0,0,,10.0,30.268702,,,TRUE,TRUE,,,,,,,CLR,,,,,,,,VFR,,,,,,,,,,,,METAR,2500.0
KWYS 150050Z AUTO 00000KT 10SM CLR M10/M14 A3017 RMK AO2,KWYS,2019-01-15T00:50:00Z,44.67,-111.12,-10.0,-14.0,0,0,,10.0,30.171259,,,TRUE,TRUE,,,,,,,CLR,,,,,,,,VFR,,,,,,,,,,,,METAR,2025.0
LCRA 150050Z 23021G33KT 9999 SCT030 OVC050 16/11 Q1007 RESHRA TEMPO 7000 SHRA BKN024CB,LCRA,2019-01-15T00:50:00Z,34.57,32.97,16.0,11.0,230,21,33,6.21,29.734253,,,,,,,,,,,SCT,3000,OVC,5000,,,,,VFR,,,,,,,,,,,,METAR,23.0
EGYP 150050Z 29009KT 9999 FEW020 BKN200 10/05 Q1005 BLU,EGYP,2019-01-15T00:50:00Z,-51.82,-58.45,10.0,5.0,290,9,,6.21,29.675198,,,,,,,,,,,FEW,2000,BKN,20000,,,,,VFR,,,,,,,,,,,,METAR,74.0
KRHV 150050Z 17010KT 10SM BKN040 12/10 A2984,KRHV,2019-01-15T00:50:00Z,37.32,-121.82,12.0,10.0,170,10,,10.0,29.840551,,,,,,,,,,,BKN,4000,,,,,,,VFR,,,,,,,,,,,,METAR,41.0
NZSP 150050Z 02010KT 3200 -SG BR BKN008 BKN040 M22/ A2901 RMK CLN AIR 03010KT ALL WNDS GRID SDF/HDP,NZSP,2019-01-15T00:50:00Z,-89.98,179.98,-22.0,,20,10,,1.99,29.010826,,,,,,,,,,-SG BR,BKN,800,BKN,4000,,,,,IFR,,,,,,,,,,,,METAR,2830.0
EGVN 150050Z 24002KT 9999 FEW045 01/M00 Q1022 NOSIG,EGVN,2019-01-15T00:50:00Z,51.77,-1.58,1.0,0.0,240,2,,6.21,30.177166,,,,,,TRUE,,,,,FEW,4500,,,,,,,VFR,,,,,,,,,,,,METAR,88.0
RCMQ 150050Z 01006KT 1200 R36/P2000 BR BKN002 BKN016 19/16 Q1019 NOSIG RMK A3009,RCMQ,2019-01-15T00:50:00Z,24.27,120.62,19.0,16.0,10,6,,0.75,30.088583,,,,,,TRUE,,,,BR,BKN,200,BKN,1600,,,,,LIFR,,,,,,,,,,,,SPECI,5.0
LOWK 150050Z AUTO 33004KT 9999 FEW060 BKN080 M03/M04 Q1013,LOWK,2019-01-15T00:50:00Z,46.65,14.32,-3.0,-4.0,330,4,,6.21,29.911417,,,TRUE,,,,,,,,FEW,6000,BKN,8000,,,,,VFR,,,,,,,,,,,,METAR,441.0
LOWG 150050Z AUTO VRB02KT 9999 NSC M01/M03 Q1013,LOWG,2019-01-15T00:50:00Z,47.0,15.42,-1.0,-3.0,0,2,,6.21,29.911417,,,TRUE,,,,,,,,CLR,,,,,,,,VFR,,,,,,,,,,,,METAR,347.0
LOWI 150050Z AUTO 27011KT 230V290 5000 -SN FEW010 SCT017 BKN026 00/M03 Q1018,LOWI,2019-01-15T00:50:00Z,47.27,11.33,0.0,-3.0,270,11,,3.11,30.059055,,,TRUE,,,,,,,-SN,FEW,1000,SCT,1700,BKN,2600,,,MVFR,,,,,,,,,,,,METAR,581.0
LOWS 150050Z AUTO 30011KT 9999 FEW020 SCT026 BKN060 01/M03 Q1017,LOWS,2019-01-15T00:50:00Z,47.78,13.02,1.0,-3.0,300,11,,6.21,30.029528,,,TRUE,,,,,,,,FEW,2000,SCT,2600,BKN,6000,,,VFR,,,,,,,,,,,,METAR,430.0
LOWL 150050Z AUTO 28016KT 9999 -SHSN FEW030 SCT050 BKN060 01/M03 Q1015,LOWL,2019-01-15T00:50:00Z,48.22,14.18,1.0,-3.0,280,16,,6.21,29.970472,,,TRUE,,,,,,,-SHSN,FEW,3000,SCT,5000,BKN,6000,,,VFR,,,,,,,,,,,,METAR,313.0
LOWW 150050Z 31013KT 280V340 9999 FEW045 00/M07 Q1012 R88/19//95 NOSIG,LOWW,2019-01-15T00:50:00Z,48.12,16.57,0.0,-7.0,310,13,,6.21,29.88189,,,,,,TRUE,,,,,FEW,4500,,,,,,,VFR,,,,,,,,,,,,SPECI,190.0
LIPZ 150050Z 03008KT CAVOK 02/M04 Q1013 NOSIG,LIPZ,2019-01-15T00:50:00Z,45.5,12.35,2.0,-4.0,30,8,,6.21,29.911417,,,,,,TRUE,,,,,CAVOK,,,,,,,,VFR,,,,,,,,,,,,METAR,6.0
LIPX 150050Z 28007KT CAVOK 07/M06 Q1012,LIPX,2019-01-15T00:50:00Z,45.38,10.87,7.0,-6.0,280,7,,6.21,29.88189,,,,,,,,,,,CAVOK,,,,,,,,VFR,,,,,,,,,,,,METAR,68.0
LIPR 150050Z AUTO 26007KT 9999 NCD 04/M04 Q1013,LIPR,2019-01-15T00:50:00Z,44.02,12.62,4.0,-4.0,260,7,,6.21,29.911417,,,TRUE,,,,,,,,CLR,,,,,,,,VFR,,,,,,,,,,,,METAR,13.0
LIPQ 150050Z AUTO 05008KT 9999 NCD 04/M06 Q1012,LIPQ,2019-01-15T00:50:00Z,45.82,13.47,4.0,-6.0,50,8,,6.21,29.88189,,,TRUE,,,,,,,,CLR,,,,,,,,VFR,,,,,,,,,,,,METAR,12.0
LIPH 150050Z AUTO 31008KT 9999 NCD 09/M10 Q1013,LIPH,2019-01-15T00:50:00Z,45.63,12.17,9.0,-10.0,310,8,,6.21,29.911417,,,TRUE,,,,,,,,CLR,,,,,,,,VFR,,,,,,,,,,,,METAR,23.0
LIPE 150050Z 23005KT 200V270 CAVOK 05/M06 Q1014,LIPE,2019-01-15T00:50:00Z,44.52,11.3,5.0,-6.0,230,5,,6.21,29.940945,,,,,,,,,,,CAVOK,,,,,,,,VFR,,,,,,,,,,,,METAR,42.0
LICJ 150050Z 34012KT 9999 SCT030 14/09 Q1009,LICJ,2019-01-15T00:50:00Z,38.17,13.08,14.0,9.0,340,12,,6.21,29.793306,,,,,,,,,,,SCT,3000,,,,,,,VFR,,,,,,,,,,,,METAR,34.0
LICC 150050Z 27013KT 9999 FEW090 10/06 Q1005,LICC,2019-01-15T00:50:00Z,37.47,15.05,10.0,6.0,270,13,,6.21,29.675198,,,,,,,,,,,FEW,9000,,,,,,,VFR,,,,,,,,,,,,METAR,17.0
LIBR 150050Z 02020KT 9999 SCT030 11/03 Q1005,LIBR,2019-01-15T00:50:00Z,40.65,17.95,11.0,3.0,20,20,,6.21,29.675198,,,,,,,,,,,SCT,3000,,,,,,,VFR,,,,,,,,,,,,METAR,10.0
LIBD 150050Z 30011KT 9999 VCTS FEW025CB 06/03 Q1007,LIBD,2019-01-15T00:50:00Z,41.12,16.77,6.0,3.0,300,11,,6.21,29.734253,,,,,,,,,,VCTS,FEW,2500,,,,,,,VFR,,,,,,,,,,,,METAR,44.0
PTSA 150050Z 05015KT 10SM BKN017 BKN130 OVC300 28/25 A2973 ,PTSA,2019-01-15T00:50:00Z,5.35,162.95,28.0,25.0,50,15,,10.0,29.731298,,,,,,,,,,,BKN,1700,BKN,13000,OVC,30000,,,MVFR,,,,,,,,,,,,METAR,3.0
EGPB 150050Z AUTO 23017KT 2200 DZ OVC004/// 08/07 Q0999 RERA,EGPB,2019-01-15T00:50:00Z,59.87,-1.3,8.0,7.0,230,17,,1.37,29.498032,,,TRUE,,,,,,,DZ,OVC,400,,,,,,,LIFR,,,,,,,,,,,,METAR,5.0
EGGP 150050Z 25009KT 9999 BKN040 08/05 Q1020,EGGP,2019-01-15T00:50:00Z,53.32,-2.85,8.0,5.0,250,9,,6.21,30.11811,,,,,,,,,,,BKN,4000,,,,,,,VFR,,,,,,,,,,,,METAR,26.0
LIEA 150050Z 11003KT 080V140 CAVOK 06/05 Q1013,LIEA,2019-01-15T00:50:00Z,40.62,8.27,6.0,5.0,110,3,,6.21,29.911417,,,,,,,,,,,CAVOK,,,,,,,,VFR,,,,,,,,,,,,METAR,23.0
BGBW 150050Z AUTO VRB02KT 9999NDV OVC065/// M03/M08 Q0999,BGBW,2019-01-15T00:50:00Z,61.17,-45.42,-3.0,-8.0,0,2,,,29.498032,,,TRUE,,,,,,,,OVC,6500,,,,,,,,,,,,,,,,,,,METAR,26.0
BGGH 150050Z AUTO 09006KT 9999NDV -SHSN BKN019/// M10/M13 Q0996,BGGH,2019-01-15T00:50:00Z,64.2,-51.68,-10.0,-13.0,90,6,,,29.409449,,,TRUE,,,,,,,-SHSN,BKN,1900,,,,,,,,,,,,,,,,,,,METAR,70.0
BGJN 150050Z AUTO 14007KT 9999NDV NCD M23/M30 Q0999,BGJN,2019-01-15T00:50:00Z,69.25,-51.07,-23.0,-30.0,140,7,,,29.498032,,,TRUE,,,,,,,,CLR,,,,,,,,,,,,,,,,,,,,METAR,25.0
BGKK 150050Z AUTO 11012KT 9999NDV NCD M11/M17 Q1006,BGKK,2019-01-15T00:50:00Z,65.57,-37.13,-11.0,-17.0,110,12,,,29.704725,,,TRUE,,,,,,,,CLR,,,,,,,,,,,,,,,,,,,,METAR,34.0
EDDH 150050Z 27010KT CAVOK 04/M01 Q1012 NOSIG,EDDH,2019-01-15T00:50:00Z,53.63,10.0,4.0,-1.0,270,10,,6.21,29.88189,,,,,,TRUE,,,,,CAVOK,,,,,,,,VFR,,,,,,,,,,,,METAR,16.0
EDDF 150050Z 24005KT 9999 FEW025 03/M00 Q1021 NOSIG,EDDF,2019-01-15T00:50:00Z,50.05,8.6,3.0,0.0,240,5,,6.21,30.147638,,,,,,TRUE,,,,,FEW,2500,,,,,,,VFR,,,,,,,,,,,,METAR,113.0
EDDL 150050Z 26007KT 9999 FEW044 02/00 Q1020 NOSIG,EDDL,2019-01-15T00:50:00Z,51.3,6.77,2.0,0.0,260,7,,6.21,30.11811,,,,,,TRUE,,,,,FEW,4400,,,,,,,VFR,,,,,,,,,,,,METAR,44.0
EDDK 150050Z 26004KT 220V290 9999 FEW015 BKN044 01/M00 Q1021 NOSIG,EDDK,2019-01-15T00:50:00Z,50.87,7.15,1.0,0.0,260,4,,6.21,30.147638,,,,,,TRUE,,,,,FEW,1500,BKN,4400,,,,,VFR,,,,,,,,,,,,METAR,99.0
EDDM 150050Z 28010KT 9999 -SHSN FEW020TCU 01/M03 Q1018 TEMPO 4500 -SHSN,EDDM,2019-01-15T00:50:00Z,48.35,11.82,1.0,-3.0,280,10,,6.21,30.059055,,,,,,,,,,-SHSN,FEW,2000,,,,,,,VFR,,,,,,,,,,,,METAR,447.0
EDDN 150050Z 28014KT 9999 -SN FEW033 02/M02 Q1017,EDDN,2019-01-15T00:50:00Z,49.5,11.08,2.0,-2.0,280,14,,6.21,30.029528,,,,,,,,,,-SN,FEW,3300,,,,,,,VFR,,,,,,,,,,,,METAR,312.0
EDDS 150050Z 27008KT 9999 FEW020 01/M02 Q1020,EDDS,2019-01-15T00:50:00Z,48.67,9.22,1.0,-2.0,270,8,,6.21,30.11811,,,,,,,,,,,FEW,2000,,,,,,,VFR,,,,,,,,,,,,METAR,419.0
EDDV 150050Z 27011KT CAVOK 02/M01 Q1015,EDDV,2019-01-15T00:50:00Z,52.47,9.68,2.0,-1.0,270,11,,6.21,29.970472,,,,,,,,,,,CAVOK,,,,,,,,VFR,,,,,,,,,,,,METAR,54.0
EDDT 150050Z 28015KT 9999 FEW033 02/M02 Q1009,EDDT,2019-01-15T00:50:00Z,52.57,13.32,2.0,-2.0,280,15,,6.21,29.793306,,,,,,,,,,,FEW,3300,,,,,,,VFR,,,,,,,,,,,,METAR,37.0
EDDE 150050Z 28014KT 9999 SCT030 01/M02 Q1015 R88/450394,EDDE,2019-01-15T00:50:00Z,50.98,10.97,1.0,-2.0,280,14,,6.21,29.970472,,,,,,,,,,,SCT,3000,,,,,,,VFR,,,,,,,,,,,,METAR,323.0
EDDG 150050Z 25007KT 9999 FEW025 BKN040 02/M00 Q1018 NOSIG,EDDG,2019-01-15T00:50:00Z,52.13,7.7,2.0,0.0,250,7,,6.21,30.059055,,,,,,TRUE,,,,,FEW,2500,BKN,4000,,,,,VFR,,,,,,,,,,,,METAR,52.0
EDDC 150050Z 29010KT 250V340 7000 -SN SCT007 BKN015 M00/M01 Q1010 RESN,EDDC,2019-01-15T00:50:00Z,51.13,13.75,0.0,-1.0,290,10,,4.35,29.822834,,,,,,,,,,-SN,SCT,700,BKN,1500,,,,,MVFR,,,,,,,,,,,,METAR,226.0
EDDB 150050Z 29018KT 9999 FEW025 02/M02 Q1009 NOSIG,EDDB,2019-01-15T00:50:00Z,52.38,13.53,2.0,-2.0,290,18,,6.21,29.793306,,,,,,TRUE,,,,,FEW,2500,,,,,,,VFR,,,,,,,,,,,,METAR,48.0
EGNM 150050Z 25011KT 210V280 9999 BKN009 06/05 Q1017,EGNM,2019-01-15T00:50:00Z,53.87,-1.63,6.0,5.0,250,11,,6.21,30.029528,,,,,,,,,,,BKN,900,,,,,,,IFR,,,,,,,,,,,,METAR,208.0
EGLC 150050Z AUTO 23007KT 9999 NCD 06/02 Q1023,EGLC,2019-01-15T00:50:00Z,51.5,0.05,6.0,2.0,230,7,,6.21,30.206694,,,TRUE,,,,,,,,CLR,,,,,,,,VFR,,,,,,,,,,,,METAR,5.0
EGGW 150050Z AUTO 27009KT 9999 NCD 03/01 Q1022,EGGW,2019-01-15T00:50:00Z,51.87,-0.37,3.0,1.0,270,9,,6.21,30.177166,,,TRUE,,,,,,,,CLR,,,,,,,,VFR,,,,,,,,,,,,METAR,160.0
EGFF 150050Z AUTO 27010KT 9999 OVC023 08/06 Q1023,EGFF,2019-01-15T00:50:00Z,51.38,-3.35,8.0,6.0,270,10,,6.21,30.206694,,,TRUE,,,,,,,,OVC,2300,,,,,,,MVFR,,,,,,,,,,,,METAR,67.0
EGAC 150050Z AUTO 23012KT 9999 BKN014/// 08/07 Q1017,EGAC,2019-01-15T00:50:00Z,54.62,-5.87,8.0,7.0,230,12,,6.21,30.029528,,,TRUE,,,,,,,,BKN,1400,,,,,,,MVFR,,,,,,,,,,,,METAR,5.0
EGAA 150050Z 21011KT 9999 FEW004 SCT008 07/07 Q1017,EGAA,2019-01-15T00:50:00Z,54.63,-6.22,7.0,7.0,210,11,,6.21,30.029528,,,,,,,,,,,FEW,400,SCT,800,,,,,VFR,,,,,,,,,,,,METAR,81.0
EGNJ 150050Z AUTO 22013KT 9999 BKN015/// OVC022/// 05/04 Q1018,EGNJ,2019-01-15T00:50:00Z,53.57,-0.35,5.0,4.0,220,13,,6.21,30.059055,,,TRUE,,,,,,,,BKN,1500,OVC,2200,,,,,MVFR,,,,,,,,,,,,METAR,31.0
EGNS 150050Z 25015KT 9999 BKN009 BKN048 09/07 Q1018 NOSIG,EGNS,2019-01-15T00:50:00Z,54.08,-4.63,9.0,7.0,250,15,,6.21,30.059055,,,,,,TRUE,,,,,BKN,900,BKN,4800,,,,,IFR,,,,,,,,,,,,METAR,17.0
EDDR 150050Z 27006KT CAVOK 01/M00 Q1022,EDDR,2019-01-15T00:50:00Z,49.22,7.1,1.0,0.0,270,6,,6.21,30.177166,,,,,,,,,,,CAVOK,,,,,,,,VFR,,,,,,,,,,,,METAR,320.0
EDDW 150050Z 26012KT 9999 BKN038 02/M00 Q1015,EDDW,2019-01-15T00:50:00Z,53.03,8.8,2.0,0.0,260,12,,6.21,29.970472,,,,,,,,,,,BKN,3800,,,,,,,VFR,,,,,,,,,,,,METAR,5.0
EGCK 150050Z AUTO 23014KT 9999 OVC024/// 09/07 Q1021,EGCK,2019-01-15T00:50:00Z,53.1,4.33,9.0,7.0,230,14,,6.21,30.147638,,,TRUE,,,,,,,,OVC,2400,,,,,,,MVFR,,,,,,,,,,,,METAR,0.0
EDDP 150050Z 28016KT CAVOK 02/M02 Q1013 R26R/7902// R26L/210195 TEMPO 28015G25KT,EDDP,2019-01-15T00:50:00Z,51.43,12.23,2.0,-2.0,280,16,,6.21,29.911417,,,,,,,,,,,CAVOK,,,,,,,,VFR,,,,,,,,,,,,METAR,149.0
EDMA 150050Z AUTO 24010KT 9999 // OVC056/// 00/M02 Q1019,EDMA,2019-01-15T00:50:00Z,48.42,10.92,0.0,-2.0,240,10,,6.21,30.088583,,,TRUE,,,,,,,,OVC,5600,,,,,,,VFR,,,,,,,,,,,,METAR,463.0
EDLW 150050Z AUTO 25008KT 9999 // BKN039/// 02/00 Q1019,EDLW,2019-01-15T00:50:00Z,51.52,7.62,2.0,0.0,250,8,,6.21,30.088583,,,TRUE,,,,,,,,BKN,3900,,,,,,,VFR,,,,,,,,,,,,METAR,127.0
EDLP 150050Z 25008KT 230V290 CAVOK 01/M00 Q1017,EDLP,2019-01-15T00:50:00Z,51.62,8.62,1.0,0.0,250,8,,6.21,30.029528,,,,,,,,,,,CAVOK,,,,,,,,VFR,,,,,,,,,,,,METAR,213.0
EDAC 150050Z AUTO 27014KT 9999 // FEW023/// BKN035/// OVC056/// 01/M02 Q1013,EDAC,2019-01-15T00:50:00Z,50.98,12.5,1.0,-2.0,270,14,,6.21,29.911417,,,TRUE,,,,,,,,FEW,2300,BKN,3500,OVC,5600,,,VFR,,,,,,,,,,,,METAR,195.0
ENHF 150050Z 06003KT CAVOK M07/M10 Q0989 RMK WIND 1254FT VRB02KT,ENHF,2019-01-15T00:50:00Z,70.67,23.67,-7.0,-10.0,60,3,,6.21,29.202755,,,,,,,,,,,CAVOK,,,,,,,,VFR,,,,,,,,,,,,SPECI,81.0
ENBN 150050Z AUTO 15005KT 5000NDV SN FEW003/// SCT007/// BKN013/// M02/M03 Q0993,ENBN,2019-01-15T00:50:00Z,65.47,12.22,-2.0,-3.0,150,5,,,29.320866,,,TRUE,,,,,,,SN,FEW,300,SCT,700,BKN,1300,,,,,,,,,,,,,,,SPECI,9.0
LGTS 150050Z 35011G21KT 9999 FEW020 06/M02 Q1004 NOSIG,LGTS,2019-01-15T00:50:00Z,40.52,22.97,6.0,-2.0,350,11,21,6.21,29.64567,,,,,,TRUE,,,,,FEW,2000,,,,,,,VFR,,,,,,,,,,,,METAR,7.0
LGSA 150050Z 28006KT 8000 -RA SCT020 SCT025 OVC080 09/08 Q0993,LGSA,2019-01-15T00:50:00Z,35.53,24.13,9.0,8.0,280,6,,4.97,29.320866,,,,,,,,,,-RA,SCT,2000,SCT,2500,OVC,8000,,,MVFR,,,,,,,,,,,,METAR,135.0
LGLM 150050Z AUTO 00000KT //// // ////// 08/03 Q1001 RE//,LGLM,2019-01-15T00:50:00Z,39.92,25.23,8.0,3.0,0,0,,,29.557087,,,TRUE,,,,,,,,,,,,,,,,,,,,,,,,,,,,METAR,5.0
LGKO 150050Z 12004KT 9999 -RA FEW016TCU BKN025 09/08 Q1000,LGKO,2019-01-15T00:50:00Z,36.8,27.08,9.0,8.0,120,4,,6.21,29.52756,,,,,,,,,,-RA,FEW,1600,BKN,2500,,,,,MVFR,,,,,,,,,,,,METAR,125.0
LGKL 150050Z AUTO 32004KT 310V020 //// -RA ////// 07/05 Q0996 RE//,LGKL,2019-01-15T00:50:00Z,37.07,22.02,7.0,5.0,320,4,,,29.409449,,,TRUE,,,,,,,-RA,,,,,,,,,,,,,,,,,,,,,METAR,8.0
ENWV 150050Z AUTO 27025KT 9999NDV FEW056/// BKN150/// 07/03 Q1009 W///S6,ENWV,2019-01-15T00:50:00Z,,,7.0,3.0,270,25,,,29.793306,,,TRUE,,,,,,,,FEW,5600,BKN,15000,,,,,,,,,,,,,,,,,METAR,
ENUG 150050Z AUTO 09012G24KT 050V120 3100NDV SN OVC007/// M01/M02 Q0988 RESN W06/S4,ENUG,2019-01-15T00:50:00Z,,,-1.0,-2.0,90,12,24,,29.17323,,,TRUE,,,,,,,SN,OVC,700,,,,,,,,,,,,,,,,,,,METAR,
ENLA 150050Z AUTO 27025KT //// FEW019/// 07/04 Q//// W///S6,ENLA,2019-01-15T00:50:00Z,57.1,2.83,7.0,4.0,270,25,,,,,,TRUE,,,,,,,,FEW,1900,,,,,,,,,,,,,,,,,,,METAR,4.0
ENHM 150050Z AUTO 18012KT 9999NDV -RA FEW011/// SCT020/// BKN026/// 02/01 Q1003 W07/S6,ENHM,2019-01-15T00:50:00Z,59.57,2.23,2.0,1.0,180,12,,,29.616142,,,TRUE,,,,,,,-RA,FEW,1100,SCT,2000,BKN,2600,,,,,,,,,,,,,,,METAR,10.0
ENQA 150050Z AUTO 17009KT 9999NDV -RA FEW019/// OVC035/// 01/M02 Q1002 W03/S6,ENQA,2019-01-15T00:50:00Z,60.65,3.72,1.0,-2.0,170,9,,,29.586615,,,TRUE,,,,,,,-RA,FEW,1900,OVC,3500,,,,,,,,,,,,,,,,,METAR,20.0
ENQC 150050Z AUTO 14009KT 9999NDV -RA BKN026/// 01/M03 Q1001 W///S6,ENQC,2019-01-15T00:50:00Z,60.88,3.62,1.0,-3.0,140,9,,,29.557087,,,TRUE,,,,,,,-RA,BKN,2600,,,,,,,,,,,,,,,,,,,METAR,20.0
ENSE 150050Z AUTO 16015KT 1000NDV SHSN FEW008/// 01/M02 Q1000 W///S6,ENSE,2019-01-15T00:50:00Z,61.45,2.15,1.0,-2.0,160,15,,,29.52756,,,TRUE,,,,,,,SHSN,FEW,800,,,,,,,,,,,,,,,,,,,METAR,10.0
ENQR 150050Z AUTO 16017KT 1600NDV OVC006/// 00/M01 Q1000 W///S6,ENQR,2019-01-15T00:50:00Z,61.35,2.22,0.0,-1.0,160,17,,,29.52756,,,TRUE,,,,,,,,OVC,600,,,,,,,,,,,,,,,,,,,METAR,10.0
ENNE 150050Z AUTO 29027KT 9999NDV -SHSN BKN025/// M01/M07 Q0994 W///S6,ENNE,2019-01-15T00:50:00Z,66.03,8.08,-1.0,-7.0,290,27,,,29.350393,,,TRUE,,,,,,,-SHSN,BKN,2500,,,,,,,,,,,,,,,,,,,METAR,10.0
ENNA 150050Z 00000KT 9999 BKN007 M11/M13 Q0990 RMK WIND 1800FT 26005KT,ENNA,2019-01-15T00:50:00Z,70.07,24.97,-11.0,-13.0,0,0,,6.21,29.232283,,,,,,,,,,,BKN,700,,,,,,,IFR,,,,,,,,,,,,METAR,8.0
ENML 150050Z AUTO 24016KT 9999NDV -SN FEW009/// SCT012/// BKN017/// M01/M03 Q1000,ENML,2019-01-15T00:50:00Z,62.75,7.27,-1.0,-3.0,240,16,,,29.52756,,,TRUE,,,,,,,-SN,FEW,900,SCT,1200,BKN,1700,,,,,,,,,,,,,,,METAR,3.0
ENKR 150050Z AUTO 17006KT 2100 -SN VV005 M12/M14 Q0990 RMK WIND 731FT 26005KT,ENKR,2019-01-15T00:50:00Z,69.72,29.88,-12.0,-14.0,170,6,,1.3,29.232283,,,TRUE,,,,,,,-SN,OVX,0,,,,,,,LIFR,,,,,,,,,,,500,METAR,91.0
ENKB 150050Z AUTO 22003KT 140V290 9999 -FZRA FEW001/// OVC023/// M01/M04 Q0999 RMK WIND 745FT 22008KT,ENKB,2019-01-15T00:50:00Z,63.12,7.82,-1.0,-4.0,220,3,,6.21,29.498032,,,TRUE,,,,,,,-FZRA,FEW,100,OVC,2300,,,,,MVFR,,,,,,,,,,,,SPECI,62.0
ENFL 150050Z AUTO 10010KT 9999NDV FEW018/// BKN031/// OVC040/// M00/M03 Q1002,ENFL,2019-01-15T00:50:00Z,61.57,5.02,0.0,-3.0,100,10,,,29.586615,,,TRUE,,,,,,,,FEW,1800,BKN,3100,OVC,4000,,,,,,,,,,,,,,,SPECI,9.0
ENEV 150050Z AUTO 00000KT 9999 NCD M08/M09 Q0991 RMK WIND 1400FT 25009KT,ENEV,2019-01-15T00:50:00Z,68.52,16.67,-8.0,-9.0,0,0,,6.21,29.26181,,,TRUE,,,,,,,,CLR,,,,,,,,VFR,,,,,,,,,,,,SPECI,26.0
ENAT 150050Z AUTO 16003KT 9999 BKN023/// OVC044/// M06/M08 Q0990 RMK WIND 700FT 14005KT,ENAT,2019-01-15T00:50:00Z,69.97,23.37,-6.0,-8.0,160,3,,6.21,29.232283,,,TRUE,,,,,,,,BKN,2300,OVC,4400,,,,,MVFR,,,,,,,,,,,,SPECI,3.0
ENUN 150050Z AUTO 29022KT 9999NDV -SHSN FEW013/// SCT047/// BKN071/// M03/// Q0993 W05/S/,ENUN,2019-01-15T00:50:00Z,,,,,290,22,,,29.320866,,,TRUE,,,,,,,-SHSN,FEW,1300,SCT,4700,BKN,7100,,,,,,,,,,,,,,,METAR,
ENSF 150050Z AUTO 18017KT //// BKN007/// 03/00 Q1000 W///S6,ENSF,2019-01-15T00:50:00Z,61.25,1.85,3.0,0.0,180,17,,,29.52756,,,TRUE,,,,,,,,BKN,700,,,,,,,,,,,,,,,,,,,METAR,10.0
ENFB 150050Z AUTO 19021G33KT 2200NDV RASN OVC006/// 01/00 Q1000 W///S6,ENFB,2019-01-15T00:50:00Z,61.2,1.83,1.0,0.0,190,21,33,,29.52756,,,TRUE,,,,,,,SN RA,OVC,600,,,,,,,,,,,,,,,,,,,METAR,10.0
ENSL 150050Z AUTO 25018KT 8000NDV -SHRA OVC013/// 06/04 Q1005 W05/S5,ENSL,2019-01-15T00:50:00Z,58.37,1.9,6.0,4.0,250,18,,,29.675198,,,TRUE,,,,,,,-SHRA,OVC,1300,,,,,,,,,,,,,,,,,,,METAR,50.0
ENOA 150050Z 16015KT 9999 -SHRA BKN012 02/M01 Q1002 W///S6,ENOA,2019-01-15T00:50:00Z,60.5,2.83,2.0,-1.0,160,15,,6.21,29.586615,,,,,,,,,,-SHRA,BKN,1200,,,,,,,MVFR,,,,,,,,,,,,METAR,5.0
ENHE 150050Z 32023KT 9999 BKN025 M01/M11 Q0996 W///S7,ENHE,2019-01-15T00:50:00Z,65.33,2.33,-1.0,-11.0,320,23,,6.21,29.409449,,,,,,,,,,,BKN,2500,,,,,,,MVFR,,,,,,,,,,,,METAR,1.0
ENGC 150050Z 18014KT 2500 SHSN BKN006 00/M02 Q1000 W04/S6,ENGC,2019-01-15T00:50:00Z,61.02,2.02,0.0,-2.0,180,14,,1.55,29.52756,,,,,,,,,,SHSN,BKN,600,,,,,,,IFR,,,,,,,,,,,,SPECI,10.0
ENLE 150050Z 26028KT 9999 FEW020 SCT180 07/03 Q1009 W08/S6,ENLE,2019-01-15T00:50:00Z,56.53,3.22,7.0,3.0,260,28,,6.21,29.793306,,,,,,,,,,,FEW,2000,SCT,18000,,,,,VFR,,,,,,,,,,,,METAR,3.0
LIRQ 150050Z 33005KT CAVOK 11/M07 Q1012,LIRQ,2019-01-15T00:50:00Z,43.78,11.18,11.0,-7.0,330,5,,6.21,29.88189,,,,,,,,,,,CAVOK,,,,,,,,VFR,,,,,,,,,,,,METAR,38.0
LIRN 150050Z 32005KT CAVOK 05/02 Q1008 NOSIG,LIRN,2019-01-15T00:50:00Z,40.88,14.3,5.0,2.0,320,5,,6.21,29.763779,,,,,,TRUE,,,,,CAVOK,,,,,,,,VFR,,,,,,,,,,,,METAR,72.0
LIRF 150050Z 02008KT CAVOK 05/M01 Q1010 NOSIG,LIRF,2019-01-15T00:50:00Z,41.78,12.22,5.0,-1.0,20,8,,6.21,29.822834,,,,,,TRUE,,,,,CAVOK,,,,,,,,VFR,,,,,,,,,,,,METAR,3.0
LIRA 150050Z 04006KT CAVOK 07/02 Q1009,LIRA,2019-01-15T00:50:00Z,41.8,12.58,7.0,2.0,40,6,,6.21,29.793306,,,,,,,,,,,CAVOK,,,,,,,,VFR,,,,,,,,,,,,METAR,101.0
LIMJ 150050Z 01013G23KT 330V040 CAVOK 14/M10 Q1012,LIMJ,2019-01-15T00:50:00Z,44.42,8.83,14.0,-10.0,10,13,23,6.21,29.88189,,,,,,,,,,,CAVOK,,,,,,,,VFR,,,,,,,,,,,,METAR,3.0
LIMF 150050Z 21005KT CAVOK 05/M06 Q1014,LIMF,2019-01-15T00:50:00Z,45.22,7.65,5.0,-6.0,210,5,,6.21,29.940945,,,,,,,,,,,CAVOK,,,,,,,,VFR,,,,,,,,,,,,METAR,287.0
LIME 150050Z 33005KT 270V010 CAVOK 05/M05 Q1013 NOSIG,LIME,2019-01-15T00:50:00Z,45.67,9.68,5.0,-5.0,330,5,,6.21,29.911417,,,,,,TRUE,,,,,CAVOK,,,,,,,,VFR,,,,,,,,,,,,METAR,237.0
LIMC 150050Z 29004KT 260V320 CAVOK 07/M06 Q1014 NOSIG,LIMC,2019-01-15T00:50:00Z,45.62,8.72,7.0,-6.0,290,4,,6.21,29.940945,,,,,,TRUE,,,,,CAVOK,,,,,,,,VFR,,,,,,,,,,,,METAR,211.0
LIEO 150050Z 23010KT CAVOK 09/08 Q1013,LIEO,2019-01-15T00:50:00Z,40.88,9.52,9.0,8.0,230,10,,6.21,29.911417,,,,,,,,,,,CAVOK,,,,,,,,VFR,,,,,,,,,,,,METAR,13.0
LIEE 150050Z 01009KT 9999 FEW040 09/07 Q1014,LIEE,2019-01-15T00:50:00Z,39.25,9.07,9.0,7.0,10,9,,6.21,29.940945,,,,,,,,,,,FEW,4000,,,,,,,VFR,,,,,,,,,,,,METAR,4.0
PAMY 150049Z AUTO 11027KT 2SM -RA BR SCT008 OVC014 01/00 A2919 RMK AO2 PK WND 12035/0000 UPB2357E46RAB46 P0001 FZRANO $,PAMY,2019-01-15T00:49:00Z,60.37,-166.27,1.0,0.0,110,27,,2.0,29.190945,,,TRUE,TRUE,TRUE,,,TRUE,,-RA BR,SCT,800,OVC,1400,,,,,IFR,,,,,,0.01,,,,,,METAR,13.0
KNID 150049Z 30007KT 4SM RA BR SCT011 OVC020 05/04 A3002 RMK AO2 P0004 T00500039 $,KNID,2019-01-15T00:49:00Z,35.67,-117.67,5.0,3.9,300,7,,4.0,30.02067,,,,TRUE,TRUE,,,,,RA BR,SCT,1100,OVC,2000,,,,,MVFR,,,,,,0.04,,,,,,METAR,696.0
KVCV 150049Z 12004KT 10SM RA- OVC070 A2994,KVCV,2019-01-15T00:49:00Z,34.58,-117.38,,,120,4,,10.0,29.940945,,,,,,,,,,RA,OVC,7000,,,,,,,VFR,,,,,,,,,,,,METAR,876.0
KSUA 150048Z 01006KT 7SM SKC 17/12 A3015,KSUA,2019-01-15T00:48:00Z,27.18,-80.22,17.0,12.0,10,6,,7.0,30.15059,,,,,,,,,,,SKC,,,,,,,,VFR,,,,,,,,,,,,METAR,6.0
KHSA 150048Z 32008KT 7SM OVC018 06/03 A3035,KHSA,2019-01-15T00:48:00Z,30.37,-89.45,6.0,3.0,320,8,,7.0,30.351377,,,,,,,,,,,OVC,1800,,,,,,,MVFR,,,,,,,,,,,,METAR,7.0
KALN 150048Z 26007KT 10SM OVC015 00/M02 A3035,KALN,2019-01-15T00:48:00Z,38.88,-90.03,0.0,-2.0,260,7,,10.0,30.351377,,,,,,,,,,,OVC,1500,,,,,,,MVFR,,,,,,,,,,,,METAR,166.0
CYQZ 150048Z AUTO 00000KT 3/8SM FZFG CLR M07/M08 A3013 RMK SLP243,CYQZ,2019-01-15T00:48:00Z,53.02,-122.52,-7.0,-8.0,0,0,,0.38,30.129921,1024.3,,TRUE,,,,,,,FZFG,CLR,,,,,,,,LIFR,,,,,,,,,,,,SPECI,545.0
KRYY 150048Z 34007KT 10SM OVC018 04/01 A3026 RMK AO2 SLP967 T00440011,KRYY,2019-01-15T00:48:00Z,34.02,-84.6,4.4,1.1,340,7,,10.0,30.259842,996.7,,,TRUE,,,,,,,OVC,1800,,,,,,,MVFR,,,,,,,,,,,,METAR,317.0
KASG 150048Z 20005KT 10SM OVC008 00/00 A3036,KASG,2019-01-15T00:48:00Z,36.17,-94.12,0.0,0.0,200,5,,10.0,30.360237,,,,,,,,,,,OVC,800,,,,,,,IFR,,,,,,,,,,,,METAR,412.0
KSCH 150048Z 02003KT 10SM CLR M07/M12 A3017,KSCH,2019-01-15T00:48:00Z,42.85,-73.92,-7.0,-12.0,20,3,,10.0,30.171259,,,,,,,,,,,CLR,,,,,,,,VFR,,,,,,,,,,,,METAR,115.0
KJDN 150048Z AUTO 00000KT M04/M09 A3004 RMK AO1 SLP219 T10441094,KJDN,2019-01-15T00:48:00Z,47.33,-106.95,-4.4,-9.4,0,0,,,30.041338,1021.9,,TRUE,TRUE,,,,,,,,,,,,,,,,,,,,,,,,,,,SPECI,801.0
RCKH 150048Z 02004KT 350V070 4500 HZ FEW014 SCT080 22/18 Q1019 NOSIG RMK A3009,RCKH,2019-01-15T00:48:00Z,22.57,120.33,22.0,18.0,20,4,,2.8,30.088583,,,,,,TRUE,,,,HZ,FEW,1400,SCT,8000,,,,,IFR,,,,,,,,,,,,METAR,9.0
KGUS 150048Z 28006KT 1/4SM R23/3500V4000FT FZFG VV001 M08/M08 A3029 RMK AO2A TWR VIS 0 SLP277 $,KGUS,2019-01-15T00:48:00Z,40.63,-86.15,-8.0,-8.0,280,6,,0.25,30.28937,1027.7,,,TRUE,TRUE,,,,,FZFG,OVX,0,,,,,,,LIFR,,,,,,,,,,,100,METAR,247.0
KC07 150048Z AUTO 27009KT 10SM CLR M08/M25 A3023 RMK AO2,KC07,2019-01-15T00:48:00Z,40.35,-106.7,-8.0,-25.0,270,9,,10.0,30.230314,,,TRUE,TRUE,,,,,,,CLR,,,,,,,,VFR,,,,,,,,,,,,METAR,3224.0
KMNH 150048Z AUTO 22006KT 10SM CLR M10/M21 A3020 RMK AO2,KMNH,2019-01-15T00:48:00Z,39.22,-104.65,-10.0,-21.0,220,6,,10.0,30.200787,,,TRUE,TRUE,,,,,,,CLR,,,,,,,,VFR,,,,,,,,,,,,METAR,2152.0
K7BM 150048Z AUTO 34003KT 10SM CLR M04/M10 A3023 RMK AO2,K7BM,2019-01-15T00:48:00Z,38.78,-106.22,-4.0,-10.0,340,3,,10.0,30.230314,,,TRUE,TRUE,,,,,,,CLR,,,,,,,,VFR,,,,,,,,,,,,METAR,2995.0
KCPW 150048Z AUTO 25006KT 10SM CLR M10/M10 A3030 RMK AO2,KCPW,2019-01-15T00:48:00Z,37.45,-106.8,-10.0,-10.0,250,6,,10.0,30.301182,,,TRUE,TRUE,,,,,,,CLR,,,,,,,,VFR,,,,,,,,,,,,METAR,3584.0
KPAO 150047Z 15009KT 10SM VCSH SCT030 BKN065 BKN100 14/ A2986,KPAO,2019-01-15T00:47:00Z,37.47,-122.12,14.0,,150,9,,10.0,29.861221,,,,,,,,,,VCSH,SCT,3000,BKN,6500,BKN,10000,,,VFR,,,,,,,,,,,,METAR,2.0
KTIX 150047Z 34005KT 7SM CLR 13/09 A3018,KTIX,2019-01-15T00:47:00Z,28.5,-80.8,13.0,9.0,340,5,,7.0,30.180119,,,,,,,,,,,CLR,,,,,,,,VFR,,,,,,,,,,,,METAR,11.0
KSQL 150047Z 14008KT 10SM BKN040 BKN047 OVC060 13/08 A2985,KSQL,2019-01-15T00:47:00Z,37.52,-122.25,13.0,8.0,140,8,,10.0,29.84941,,,,,,,,,,,BKN,4000,BKN,4700,OVC,6000,,,VFR,,,,,,,,,,,,METAR,1.0
KFDK 150047Z 00000KT 10SM SKC M08/M08 A3023,KFDK,2019-01-15T00:47:00Z,39.42,-77.37,-8.0,-8.0,0,0,,10.0,30.230314,,,,,,,,,,,SKC,,,,,,,,VFR,,,,,,,,,,,,METAR,92.0
CYIO 150047Z AUTO 22004KT 6SM HZ CLR M40/M44 A2987 RMK SLP131,CYIO,2019-01-15T00:47:00Z,72.67,-77.97,-40.0,-44.0,220,4,,6.0,29.870079,1013.1,,TRUE,,,,,,,HZ,CLR,,,,,,,,VFR,,,,,,,,,,,,SPECI,57.0
CYPH 150047Z AUTO 30019G24KT 1 1/4SM -SN OVC015 M20/M23 A2963 RMK SLP040,CYPH,2019-01-15T00:47:00Z,58.45,-78.08,-20.0,-23.0,300,19,24,1.25,29.630905,1004.0,,TRUE,,,,,,,-SN,OVC,1500,,,,,,,IFR,,,,,,,,,,,,SPECI,3.0
KGYR 150047Z 07004KT 10SM SCT120 BKN200 18/10 A3004,KGYR,2019-01-15T00:47:00Z,33.42,-112.37,18.0,10.0,70,4,,10.0,30.041338,,,,,,,,,,,SCT,12000,BKN,20000,,,,,VFR,,,,,,,,,,,,METAR,295.0
KGYH 150047Z 00000KT 10SM -DZ OVC032 06/04 A3018,KGYH,2019-01-15T00:47:00Z,34.75,-82.38,6.0,4.0,0,0,,10.0,30.180119,,,,,,,,,,-DZ,OVC,3200,,,,,,,VFR,,,,,,,,,,,,METAR,292.0
CYPA 150047Z 22008KT 5SM BR SCT007 OVC160 M06/M07 A2986 RMK ST3AC5 PRESFR SLP143,CYPA,2019-01-15T00:47:00Z,53.22,-105.67,-6.0,-7.0,220,8,,5.0,29.861221,1014.3,,,,,,,,,BR,SCT,700,OVC,16000,,,,,MVFR,,,,,,,,,,,,SPECI,428.0
KHUM 150047Z 02008KT 7SM OVC019 06/03 A3036,KHUM,2019-01-15T00:47:00Z,29.57,-90.67,6.0,3.0,20,8,,7.0,30.360237,,,,,,,,,,,OVC,1900,,,,,,,MVFR,,,,,,,,,,,,METAR,3.0
KCQT 150047Z AUTO 09007KT 050V130 2 1/2SM -RA BKN009 OVC019 17/11 A2995 RMK AO2 CIG 006V013 SLP141 P0002 T01670106,KCQT,2019-01-15T00:47:00Z,34.02,-118.28,16.7,10.6,90,7,,2.5,29.949802,1014.1,,TRUE,TRUE,,,,,,-RA,BKN,900,OVC,1900,,,,,IFR,,,,,,0.02,,,,,,SPECI,56.0
KCIC 150047Z 17008KT 10SM -RA BKN030 BKN045 OVC090 10/05 A2992,KCIC,2019-01-15T00:47:00Z,39.78,-121.83,10.0,5.0,170,8,,10.0,29.920275,,,,,,,,,,-RA,BKN,3000,BKN,4500,OVC,9000,,,MVFR,,,,,,,,,,,,METAR,73.0
KSAW 150047Z 31004KT 10SM OVC013 M02/M03 A3012,KSAW,2019-01-15T00:47:00Z,46.35,-87.4,-2.0,-3.0,310,4,,10.0,30.121063,,,,,,,,,,,OVC,1300,,,,,,,MVFR,,,,,,,,,,,,METAR,372.0
RCFN 150047Z VRB02KT 7000 -RA SCT016 BKN035 BKN080 21/17 Q1021 NOSIG RMK A3015,RCFN,2019-01-15T00:47:00Z,22.77,121.07,21.0,17.0,0,2,,4.35,30.147638,,,,,,TRUE,,,,-RA,SCT,1600,BKN,3500,BKN,8000,,,MVFR,,,,,,,,,,,,METAR,42.0
KCHD 150047Z 09003KT 10SM FEW070 BKN200 19/08 A3004,KCHD,2019-01-15T00:47:00Z,33.27,-111.82,19.0,8.0,90,3,,10.0,30.041338,,,,,,,,,,,FEW,7000,BKN,20000,,,,,VFR,,,,,,,,,,,,METAR,379.0
KAEG 150047Z VRB04KT 10SM FEW050 SCT090 BKN110 02/01 A3026,KAEG,2019-01-15T00:47:00Z,35.13,-106.8,2.0,1.0,0,4,,10.0,30.259842,,,,,,,,,,,FEW,5000,SCT,9000,BKN,11000,,,VFR,,,,,,,,,,,,METAR,1779.0
KBCT 150047Z 03005KT 10SM SCT039 18/14 A3012,KBCT,2019-01-15T00:47:00Z,26.38,-80.1,18.0,14.0,30,5,,10.0,30.121063,,,,,,,,,,,SCT,3900,,,,,,,VFR,,,,,,,,,,,,METAR,4.0
KADS 150047Z 03003KT 10SM SKC 05/00 A3039,KADS,2019-01-15T00:47:00Z,32.97,-96.82,5.0,0.0,30,3,,10.0,30.389763,,,,,,,,,,,SKC,,,,,,,,VFR,,,,,,,,,,,,METAR,196.0
KPOC 150047Z 08007KT 1 1/4SM RA SCT009 OVC017 10/09 A2997,KPOC,2019-01-15T00:47:00Z,34.1,-117.77,10.0,9.0,80,7,,1.25,29.970472,,,,,,,,,,RA,SCT,900,OVC,1700,,,,,IFR,,,,,,,,,,,,METAR,308.0
MMMX 150046Z 34007KT 7SM SCT020 17/05 A3032 NOSIG RMK 8/400 HZY ISOL AC,MMMX,2019-01-15T00:46:00Z,19.42,-99.08,17.0,5.0,340,7,,7.0,30.318897,,,,,,TRUE,,,,,SCT,2000,,,,,,,VFR,,,,,,,,,,,,SPECI,2238.0
KMGN 150046Z AUTO 28006KT 10SM BKN014 OVC019 00/M02 A3014 RMK AO2,KMGN,2019-01-15T00:46:00Z,45.43,-84.92,0.0,-2.0,280,6,,10.0,30.138779,,,TRUE,TRUE,,,,,,,BKN,1400,OVC,1900,,,,,MVFR,,,,,,,,,,,,SPECI,209.0
KAPG 150046Z 00000KT 10SM CLR M08/M11 A3020 RMK SLP231,KAPG,2019-01-15T00:46:00Z,39.47,-76.17,-8.0,-11.0,0,0,,10.0,30.200787,1023.1,,,,,,,,,,CLR,,,,,,,,VFR,,,,,,,,,,,,SPECI,18.0
KMHR 150045Z 14011KT 10SM OVC060 11/07 A2989,KMHR,2019-01-15T00:45:00Z,38.53,-121.28,11.0,7.0,140,11,,10.0,29.890747,,,,,,,,,,,OVC,6000,,,,,,,VFR,,,,,,,,,,,,METAR,29.0
PAKU 150045Z 09024G29KT 3/4SM R06/5500FT BLSN BR VV006 M24/M26 A3025,PAKU,2019-01-15T00:45:00Z,70.32,-149.58,-24.0,-26.0,90,24,29,0.75,30.250984,,,,,,,,,,BLSN BR,OVX,0,,,,,,,LIFR,,,,,,,,,,,600,METAR,2.0
KRYN 150045Z 06004KT 10SM CLR 18/06 A3008,KRYN,2019-01-15T00:45:00Z,32.15,-111.17,18.0,6.0,60,4,,10.0,30.079725,,,,,,,,,,,CLR,,,,,,,,VFR,,,,,,,,,,,,METAR,737.0
KOUN 150045Z 14006KT 10SM CLR 04/00 A3031,KOUN,2019-01-15T00:45:00Z,35.25,-97.47,4.0,0.0,140,6,,10.0,30.31004,,,,,,,,,,,CLR,,,,,,,,VFR,,,,,,,,,,,,METAR,357.0
KANE 150045Z 34004KT 10SM SCT006 OVC013 M01/M01 A3023,KANE,2019-01-15T00:45:00Z,45.15,-93.22,-1.0,-1.0,340,4,,10.0,30.230314,,,,,,,,,,,SCT,600,OVC,1300,,,,,MVFR,,,,,,,,,,,,METAR,278.0
KWDG 150045Z 14007KT 7SM FEW200 02/01 A3030,KWDG,2019-01-15T00:45:00Z,36.37,-97.77,2.0,1.0,140,7,,7.0,30.301182,,,,,,,,,,,FEW,20000,,,,,,,VFR,,,,,,,,,,,,METAR,356.0
KATW 150045Z 27006KT 10SM OVC012 M02/M06 A3017,KATW,2019-01-15T00:45:00Z,44.27,-88.52,-2.0,-6.0,270,6,,10.0,30.171259,,,,,,,,,,,OVC,1200,,,,,,,MVFR,,,,,,,,,,,,METAR,280.0
KMWC 150045Z 24008KT 10SM OVC015 M02/M06 A3023,KMWC,2019-01-15T00:45:00Z,43.12,-88.03,-2.0,-6.0,240,8,,10.0,30.230314,,,,,,,,,,,OVC,1500,,,,,,,MVFR,,,,,,,,,,,,METAR,227.0
KUES 150045Z 23006KT 7SM OVC012 M04/M06 A3023,KUES,2019-01-15T00:45:00Z,43.05,-88.25,-4.0,-6.0,230,6,,7.0,30.230314,,,,,,,,,,,OVC,1200,,,,,,,MVFR,,,,,,,,,,,,METAR,278.0
KEHO 150045Z AUTO 00000KT 10SM -RA OVC031 06/03 A3019 RMK AO2 T00570029,KEHO,2019-01-15T00:45:00Z,35.25,-81.6,5.7,2.9,0,0,,10.0,30.188976,,,TRUE,TRUE,,,,,,-RA,OVC,3100,,,,,,,VFR,,,,,,,,,,,,METAR,258.0
KLBE 150045Z 23006KT 10SM OVC030 M01/M03 A3020,KLBE,2019-01-15T00:45:00Z,40.27,-79.4,-1.0,-3.0,230,6,,10.0,30.200787,,,,,,,,,,,OVC,3000,,,,,,,MVFR,,,,,,,,,,,,METAR,361.0
KBJC 150045Z 25007KT 70SM FEW250 00/M15 A3017,KBJC,2019-01-15T00:45:00Z,39.9,-105.1,0.0,-15.0,250,7,,70.0,30.171259,,,,,,,,,,,FEW,25000,,,,,,,VFR,,,,,,,,,,,,METAR,1724.0
KEMT 150045Z 08007KT 1 1/4SM -RA OVC021 12/11 A2999,KEMT,2019-01-15T00:45:00Z,34.07,-118.02,12.0,11.0,80,7,,1.25,29.991142,,,,,,,,,,-RA,OVC,2100,,,,,,,IFR,,,,,,,,,,,,METAR,90.0
CMGB 150045Z AUTO 21002KT M12/M15 RMK AO1 SOG 16 6010 SLP228 T11201150,CMGB,2019-01-15T00:45:00Z,45.37,-72.77,-12.0,-15.0,210,2,,,,1022.8,,TRUE,TRUE,,,,,,,,,,,,,,,,,,,,,,,,,,,METAR,86.0
KMWK 150045Z AUTO 00000KT 5SM BR OVC030 02/01 A3020 RMK AO2 T00190007,KMWK,2019-01-15T00:45:00Z,36.47,-80.55,1.9,0.7,0,0,,5.0,30.200787,,,TRUE,TRUE,,,,,,BR,OVC,3000,,,,,,,MVFR,,,,,,,,,,,,METAR,380.0
KHNZ 150045Z AUTO 00000KT 10SM SCT039 BKN085 00/M02 A3021 RMK AO2 T00001023,KHNZ,2019-01-15T00:45:00Z,36.37,-78.53,0.0,-2.3,0,0,,10.0,30.209646,,,TRUE,TRUE,,,,,,,SCT,3900,BKN,8500,,,,,VFR,,,,,,,,,,,,METAR,161.0
KMER 150045Z 13012KT 5SM -RA SCT040 OVC060 11/11 A2991,KMER,2019-01-15T00:45:00Z,37.38,-120.57,11.0,11.0,130,12,,5.0,29.911417,,,,,,,,,,-RA,SCT,4000,OVC,6000,,,,,MVFR,,,,,,,,,,,,METAR,57.0
KBAK 150045Z 00000KT 10SM SKC M09/M11 A3032,KBAK,2019-01-15T00:45:00Z,39.27,-85.9,-9.0,-11.0,0,0,,10.0,30.318897,,,,,,,,,,,SKC,,,,,,,,VFR,,,,,,,,,,,,METAR,200.0
KCGF 150045Z 24007KT 10SM BKN020 M05/M08 A3024,KCGF,2019-01-15T00:45:00Z,41.57,-81.47,-5.0,-8.0,240,7,,10.0,30.239174,,,,,,,,,,,BKN,2000,,,,,,,MVFR,,,,,,,,,,,,METAR,268.0
KGYY 150045Z 23007KT 7SM OVC013 M03/M06 A3030,KGYY,2019-01-15T00:45:00Z,41.62,-87.42,-3.0,-6.0,230,7,,7.0,30.301182,,,,,,,,,,,OVC,1300,,,,,,,MVFR,,,,,,,,,,,,METAR,180.0
KBBG 150045Z 00000KT 7SM OVC010 00/M01 A3034,KBBG,2019-01-15T00:45:00Z,36.53,-93.2,0.0,-1.0,0,0,,7.0,30.339567,,,,,,,,,,,OVC,1000,,,,,,,MVFR,,,,,,,,,,,,METAR,397.0
KJVL 150045Z 28008KT 3SM BR BKN006 OVC012 M03/M03 A3026,KJVL,2019-01-15T00:45:00Z,42.62,-89.05,-3.0,-3.0,280,8,,3.0,30.259842,,,,,,,,,,BR,BKN,600,OVC,1200,,,,,IFR,,,,,,,,,,,,METAR,246.0
LHKE 150045Z 32017KT CAVOK M01/M08 Q1009 NOSIG RMK BLU,LHKE,2019-01-15T00:45:00Z,46.92,19.75,-1.0,-8.0,320,17,,6.21,29.793306,,,,,,TRUE,,,,,CAVOK,,,,,,,,VFR,,,,,,,,,,,,SPECI,115.0
LHSN 150045Z 32016G25KT CAVOK M01/M08 Q1008 NOSIG RMK BLU,LHSN,2019-01-15T00:45:00Z,47.12,20.23,-1.0,-8.0,320,16,25,6.21,29.763779,,,,,,TRUE,,,,,CAVOK,,,,,,,,VFR,,,,,,,,,,,,SPECI,98.0
KMWA 150045Z 00000KT 7SM OVC025 00/M02 A3037,KMWA,2019-01-15T00:45:00Z,37.77,-89.02,0.0,-2.0,0,0,,7.0,30.369095,,,,,,,,,,,OVC,2500,,,,,,,MVFR,,,,,,,,,,,,METAR,144.0
PHJH 150045Z 04008KT 15SM SCT045 29/15 A3000,PHJH,2019-01-15T00:45:00Z,20.97,-156.67,29.0,15.0,40,8,,15.0,30.0,,,,,,,,,,,SCT,4500,,,,,,,VFR,,,,,,,,,,,,METAR,78.0
KTRK 150045Z 00000KT 10SM SCT080 SCT090 OVC110 00/M06 A2991,KTRK,2019-01-15T00:45:00Z,39.32,-120.12,0.0,-6.0,0,0,,10.0,29.911417,,,,,,,,,,,SCT,8000,SCT,9000,OVC,11000,,,VFR,,,,,,,,,,,,METAR,1798.0
LMML 150045Z 32013KT 9999 FEW023 13/10 Q1009 NOSIG,LMML,2019-01-15T00:45:00Z,35.85,14.47,13.0,10.0,320,13,,6.21,29.793306,,,,,,TRUE,,,,,FEW,2300,,,,,,,VFR,,,,,,,,,,,,METAR,91.0
KMTN 150045Z 00000KT 10SM SKC M04/M06 A3021,KMTN,2019-01-15T00:45:00Z,39.32,-76.42,-4.0,-6.0,0,0,,10.0,30.209646,,,,,,,,,,,SKC,,,,,,,,VFR,,,,,,,,,,,,METAR,7.0
KMMU 150045Z 00000KT 10SM SKC M07/M08 A3015,KMMU,2019-01-15T00:45:00Z,40.78,-74.42,-7.0,-8.0,0,0,,10.0,30.15059,,,,,,,,,,,SKC,,,,,,,,VFR,,,,,,,,,,,,METAR,57.0
CWPF 150045Z AUTO 03007KT 08/04 RMK AO1 T00790043,CWPF,2019-01-15T00:45:00Z,48.43,-123.43,7.9,4.3,30,7,,,,,,TRUE,TRUE,,,,,,,,,,,,,,,,,,,,,,,,,,,METAR,12.0
LIRP 150045Z 34005KT CAVOK 10/M04 Q1011 NOSIG,LIRP,2019-01-15T00:45:00Z,43.67,10.37,10.0,-4.0,340,5,,6.21,29.852362,,,,,,TRUE,,,,,CAVOK,,,,,,,,VFR,,,,,,,,,,,,METAR,2.0
CWLY 150044Z AUTO 01013G21KT 330V040 9SM CLR 00/M04 A3018 RMK SLP232,CWLY,2019-01-15T00:44:00Z,50.22,-121.58,0.0,-4.0,10,13,21,9.0,30.180119,1023.2,,TRUE,,,,,,,,CLR,,,,,,,,VFR,,,,,,,,,,,,SPECI,229.0
CYSF 150044Z AUTO 06007G15KT 020V100 1 3/4SM -SN OVC028 M24/M28 A3019 RMK SLP262,CYSF,2019-01-15T00:44:00Z,59.25,-105.82,-24.0,-28.0,60,7,15,1.75,30.188976,1026.2,,TRUE,,,,,,,-SN,OVC,2800,,,,,,,IFR,,,,,,,,,,,,SPECI,250.0
CYEK 150044Z AUTO 34020G27KT 3/4SM -SN OVC006 M33/M36 A3022 RMK SLP235,CYEK,2019-01-15T00:44:00Z,61.1,-94.07,-33.0,-36.0,340,20,27,0.75,30.221457,1023.5,,TRUE,,,,,,,-SN,OVC,600,,,,,,,LIFR,,,,,,,,,,,,SPECI,10.0
CYMJ 150044Z 25008KT 15SM FEW300 M00/M04 A2998 RMK CI2 LAST OBS / NXT 151000 UTC SLP188,CYMJ,2019-01-15T00:44:00Z,50.32,-105.53,0.0,-4.0,250,8,,15.0,29.97933,1018.8,,,,,,,,,,FEW,30000,,,,,,,VFR,,,,,,,,,,,,SPECI,577.0
EBLB 150044Z AUTO 28004KT 9000 -RASN OVC006/// 00/M00 Q1020 YLO,EBLB,2019-01-15T00:44:00Z,50.47,6.17,0.0,0.0,280,4,,5.59,30.11811,,,TRUE,,,,,,,-RA -SN,OVC,600,,,,,,,IFR,,,,,,,,,,,,SPECI,570.0
K9L2 150044Z AUTO 32013KT 3/8SM -RA FG FEW008 BKN016 OVC023 05/04 A2997 RMK AO2 SLP152 RVRNO,K9L2,2019-01-15T00:44:00Z,34.97,-117.87,5.0,4.0,320,13,,0.38,29.970472,1015.2,,TRUE,TRUE,,,,,,-RA FG,FEW,800,BKN,1600,OVC,2300,,,LIFR,,,,,,,,,,,,METAR,701.0
CYNM 150043Z AUTO 33008KT 9SM -SN OVC026 M11/M13 A3004 RMK SLP198,CYNM,2019-01-15T00:43:00Z,49.77,-77.82,-11.0,-13.0,330,8,,9.0,30.041338,1019.8,,TRUE,,,,,,,-SN,OVC,2600,,,,,,,MVFR,,,,,,,,,,,,SPECI,281.0
CYYR 150043Z 26009KT 15SM BKN067 M11/M14 A2983 RMK AC7 SLP107,CYYR,2019-01-15T00:43:00Z,53.32,-60.42,-11.0,-14.0,260,9,,15.0,29.828741,1010.7,,,,,,,,,,BKN,6700,,,,,,,VFR,,,,,,,,,,,,SPECI,49.0
KCGS 150043Z AUTO 00000KT 10SM CLR M06/M07 A3020 RMK AO1 T10591067,KCGS,2019-01-15T00:43:00Z,38.98,-76.92,-5.9,-6.7,0,0,,10.0,30.200787,,,TRUE,TRUE,,,,,,,CLR,,,,,,,,VFR,,,,,,,,,,,,METAR,15.0
K2W6 150043Z AUTO 00000KT 10SM CLR M04/M05 A3022 RMK AO1,K2W6,2019-01-15T00:43:00Z,38.32,-76.55,-4.0,-5.0,0,0,,10.0,30.221457,,,TRUE,TRUE,,,,,,,CLR,,,,,,,,VFR,,,,,,,,,,,,METAR,44.0
KSMP 150043Z AUTO VRB06KT 1SM BR VV002 M07/M08 A3001 RMK AO2 VIS 1/2V2 I1001 T10671083 $,KSMP,2019-01-15T00:43:00Z,47.28,-121.33,-6.7,-8.3,0,6,,1.0,30.008858,,,TRUE,TRUE,TRUE,,,,,BR,OVX,0,,,,,,,LIFR,,,,,,,,,,,200,METAR,1208.0
CYVV 150043Z 23009KT 5SM -FZRA OVC011 M02/M03 A3014 RMK SF8 SLP220,CYVV,2019-01-15T00:43:00Z,44.75,-81.08,-2.0,-3.0,230,9,,5.0,30.138779,1022.0,,,,,,,,,-FZRA,OVC,1100,,,,,,,MVFR,,,,,,,,,,,,SPECI,222.0
CYCY 150042Z AUTO 25006KT 9SM BKN060 BKN120 M34/M37 A2986 RMK SLP119,CYCY,2019-01-15T00:42:00Z,70.47,-68.52,-34.0,-37.0,250,6,,9.0,29.861221,1011.9,,TRUE,,,,,,,,BKN,6000,BKN,12000,,,,,VFR,,,,,,,,,,,,SPECI,26.0
KFME 150042Z AUTO 00000KT 10SM CLR M06/M08 A3022 RMK AO1,KFME,2019-01-15T00:42:00Z,39.08,-76.77,-6.0,-8.0,0,0,,10.0,30.221457,,,TRUE,TRUE,,,,,,,CLR,,,,,,,,VFR,,,,,,,,,,,,METAR,46.0
CYDF 150041Z 24007KT 12SM -SHSN OVC022 M06/M10 A3009 RMK SC8 CVCTV CLD EMBD SLP192,CYDF,2019-01-15T00:41:00Z,49.22,-57.4,-6.0,-10.0,240,7,,12.0,30.088583,1019.2,,,,,,,,,-SHSN,OVC,2200,,,,,,,MVFR,,,,,,,,,,,,SPECI,22.0
PASM 150041Z AUTO 09020G25KT 8SM -SN SCT035 OVC050 M03/M04 A2942 RMK AO2 PK WND 10030/2355 SNB2352 P0000 FZRANO,PASM,2019-01-15T00:41:00Z,62.07,-163.3,-3.0,-4.0,90,20,25,8.0,29.421259,,,TRUE,TRUE,,,,TRUE,,-SN,SCT,3500,OVC,5000,,,,,VFR,,,,,,0.005,,,,,,METAR,92.0
CYUY 150041Z 31002KT 3SM -SN OVC011 M08/M09 A3005 RMK SN1SC7 SLP202,CYUY,2019-01-15T00:41:00Z,48.2,-78.82,-8.0,-9.0,310,2,,3.0,30.050198,1020.2,,,,,,,,,-SN,OVC,1100,,,,,,,MVFR,,,,,,,,,,,,SPECI,301.0
KC99 150041Z AUTO 12003KT 10SM CLR M05/M21 A3022 RMK AO2,KC99,2019-01-15T00:41:00Z,29.87,-105.55,-5.0,-21.0,120,3,,10.0,30.221457,,,TRUE,TRUE,,,,,,,CLR,,,,,,,,VFR,,,,,,,,,,,,METAR,3320.0
BIRK 150040Z 22022KT 4000 -SHRASN BKN016 02/M01 Q0990,BIRK,2019-01-15T00:40:00Z,64.13,-21.93,2.0,-1.0,220,22,,2.49,29.232283,,,,,,,,,,-SHRA -SHSN,BKN,1600,,,,,,,IFR,,,,,,,,,,,,METAR,61.0
CWSA 150040Z AUTO 07020KT 9SM SCT014 OVC140 00/M02 A2995 RMK SLP145,CWSA,2019-01-15T00:40:00Z,43.93,-60.0,0.0,-2.0,70,20,,9.0,29.949802,1014.5,,TRUE,,,,,,,,SCT,1400,OVC,14000,,,,,VFR,,,,,,,,,,,,SPECI,4.0
PKWA 150040Z AUTO 09010KT 10SM CLR 30/21 A2980 RMK AO2 T03040212,PKWA,2019-01-15T00:40:00Z,8.72,167.72,30.4,21.2,90,10,,10.0,29.799213,,,TRUE,TRUE,,,,,,,CLR,,,,,,,,VFR,,,,,,,,,,,,METAR,8.0
KINJ 150040Z AUTO 00000KT 10SM CLR 05/04 A3038 RMK AO2 T00470035,KINJ,2019-01-15T00:40:00Z,32.08,-97.1,4.7,3.5,0,0,,10.0,30.380905,,,TRUE,TRUE,,,,,,,CLR,,,,,,,,VFR,,,,,,,,,,,,METAR,209.0
KMDS 150040Z AUTO 05006KT 3SM BR M04/M04 A3021 RMK AO2,KMDS,2019-01-15T00:40:00Z,44.02,-97.08,-4.0,-4.0,50,6,,3.0,30.209646,,,TRUE,TRUE,,,,,,BR,,,,,,,,,,,,,,,,,,,,,METAR,524.0
KAMN 150040Z AUTO 21005KT 10SM OVC019 M02/M05 A3022 RMK AO2,KAMN,2019-01-15T00:40:00Z,43.32,-84.68,-2.0,-5.0,210,5,,10.0,30.221457,,,TRUE,TRUE,,,,,,,OVC,1900,,,,,,,MVFR,,,,,,,,,,,,METAR,230.0
RKSO 150040Z 25003KT 1 1/4SM BR OVC039 00/M02 A3021 RMK SLP234,RKSO,2019-01-15T00:40:00Z,37.07,127.02,0.0,-2.0,250,3,,1.25,30.209646,1023.4,,,,,,,,,BR,OVC,3900,,,,,,,IFR,,,,,,,,,,,,SPECI,12.0
CYVO 150040Z 26002KT 3SM -SN OVC026 M08/M09 A3002 RMK SN2SC6 SLP200,CYVO,2019-01-15T00:40:00Z,48.07,-77.77,-8.0,-9.0,260,2,,3.0,30.02067,1020.0,,,,,,,,,-SN,OVC,2600,,,,,,,MVFR,,,,,,,,,,,,SPECI,337.0
K24A 150040Z AUTO 31008KT 10SM BKN018 OVC024 01/00 A3015 RMK AO2 T00141002,K24A,2019-01-15T00:40:00Z,35.32,-83.2,1.4,-0.2,310,8,,10.0,30.15059,,,TRUE,TRUE,,,,,,,BKN,1800,OVC,2400,,,,,MVFR,,,,,,,,,,,,METAR,871.0
KASJ 150040Z AUTO 00000KT 10SM OVC085 M01/M01 A3022 RMK AO2 T10071015,KASJ,2019-01-15T00:40:00Z,36.28,-77.17,-0.7,-1.5,0,0,,10.0,30.221457,,,TRUE,TRUE,,,,,,,OVC,8500,,,,,,,VFR,,,,,,,,,,,,METAR,21.0
KFQD 150040Z AUTO 03005KT 7SM -RA OVC022 05/04 A3019 RMK AO2,KFQD,2019-01-15T00:40:00Z,35.42,-81.93,5.0,4.0,30,5,,7.0,30.188976,,,TRUE,TRUE,,,,,,-RA,OVC,2200,,,,,,,MVFR,,,,,,,,,,,,METAR,329.0
KETC 150040Z AUTO 27003KT 10SM CLR M01/M02 A3022 RMK AO2 T10091017,KETC,2019-01-15T00:40:00Z,35.93,-77.55,-0.9,-1.7,270,3,,10.0,30.221457,,,TRUE,TRUE,,,,,,,CLR,,,,,,,,VFR,,,,,,,,,,,,METAR,17.0
KGWW 150040Z AUTO 00000KT 10SM SCT024 01/01 A3022 RMK AO2 T00090005,KGWW,2019-01-15T00:40:00Z,35.47,-77.97,0.9,0.5,0,0,,10.0,30.221457,,,TRUE,TRUE,,,,,,,SCT,2400,,,,,,,VFR,,,,,,,,,,,,METAR,41.0
KLHZ 150040Z AUTO 10SM OVC080 01/00 A3023 RMK AO2,KLHZ,2019-01-15T00:40:00Z,36.02,-78.33,1.0,0.0,,,,10.0,30.230314,,,TRUE,TRUE,,,,,,,OVC,8000,,,,,,,VFR,,,,,,,,,,,,METAR,113.0
KOCW 150040Z AUTO 00000KT 10SM CLR 01/M01 A3021 RMK AO2 T00111010,KOCW,2019-01-15T00:40:00Z,35.57,-77.05,1.1,-1.0,0,0,,10.0,30.209646,,,TRUE,TRUE,,,,,,,CLR,,,,,,,,VFR,,,,,,,,,,,,METAR,12.0
KRCZ 150040Z AUTO 00000KT 10SM OVC033 06/04 A3021 RMK AO2 T00550038,KRCZ,2019-01-15T00:40:00Z,34.88,-79.77,5.5,3.8,0,0,,10.0,30.209646,,,TRUE,TRUE,,,,,,,OVC,3300,,,,,,,VFR,,,,,,,,,,,,METAR,109.0
KRHP 150040Z AUTO 10004KT 10SM OVC029 03/00 A3020 RMK AO2 T00300000,KRHP,2019-01-15T00:40:00Z,35.18,-83.85,3.0,0.0,100,4,,10.0,30.200787,,,TRUE,TRUE,,,,,,,OVC,2900,,,,,,,MVFR,,,,,,,,,,,,METAR,518.0
KSCR 150040Z AUTO 00000KT 10SM OVC037 03/01 A3021 RMK AO2 T00300006,KSCR,2019-01-15T00:40:00Z,35.7,-79.5,3.0,0.6,0,0,,10.0,30.209646,,,TRUE,TRUE,,,,,,,OVC,3700,,,,,,,VFR,,,,,,,,,,,,METAR,188.0
KSVH 150040Z AUTO 00000KT 10SM OVC050 05/02 A3018 RMK AO2 T00460016,KSVH,2019-01-15T00:40:00Z,35.75,-80.95,4.6,1.6,0,0,,10.0,30.180119,,,TRUE,TRUE,,,,,,,OVC,5000,,,,,,,VFR,,,,,,,,,,,,METAR,294.0
KUKF 150040Z AUTO 00000KT 10SM OVC044 01/01 A3023 RMK AO2,KUKF,2019-01-15T00:40:00Z,36.22,-81.1,1.0,1.0,0,0,,10.0,30.230314,,,TRUE,TRUE,,,,,,,OVC,4400,,,,,,,VFR,,,,,,,,,,,,METAR,396.0
KVUJ 150040Z AUTO 00000KT 10SM OVC033 05/03 A3025 RMK AO2 T00480025,KVUJ,2019-01-15T00:40:00Z,35.42,-80.15,4.8,2.5,0,0,,10.0,30.250984,,,TRUE,TRUE,,,,,,,OVC,3300,,,,,,,VFR,,,,,,,,,,,,METAR,186.0
KCPC 150040Z AUTO 00000KT 10SM CLR 03/01 A3022 RMK AO2 T00300006,KCPC,2019-01-15T00:40:00Z,34.28,-78.72,3.0,0.6,0,0,,10.0,30.221457,,,TRUE,TRUE,,,,,,,CLR,,,,,,,,VFR,,,,,,,,,,,,METAR,29.0
KCGE 150040Z AUTO 00000KT 10SM CLR M05/M06 A3020 RMK A01,KCGE,2019-01-15T00:40:00Z,38.53,-76.03,-5.0,-6.0,0,0,,10.0,30.200787,,,TRUE,TRUE,,,,,,,CLR,,,,,,,,VFR,,,,,,,,,,,,METAR,6.0
KCBE 150040Z AUTO 31006KT 10SM OVC025 00/M03 A3024 RMK AO2 T00001032,KCBE,2019-01-15T00:40:00Z,39.62,-78.77,0.0,-3.2,310,6,,10.0,30.239174,,,TRUE,TRUE,,,,,,,OVC,2500,,,,,,,MVFR,,,,,,,,,,,,METAR,236.0
KAFP 150040Z AUTO 00000KT 10SM OVC040 06/02 A3021 RMK AO2 T00560021,KAFP,2019-01-15T00:40:00Z,35.02,-80.08,5.6,2.1,0,0,,10.0,30.209646,,,TRUE,TRUE,,,,,,,OVC,4000,,,,,,,VFR,,,,,,,,,,,,METAR,92.0
K7W6 150040Z AUTO 00000KT 10SM BKN023 00/M01 A3020 RMK AO2 T00041011,K7W6,2019-01-15T00:40:00Z,35.55,-75.95,0.4,-1.1,0,0,,10.0,30.200787,,,TRUE,TRUE,,,,,,,BKN,2300,,,,,,,MVFR,,,,,,,,,,,,METAR,2.0
K1A5 150040Z AUTO 29004KT 10SM BKN032 02/01 A3021 RMK AO2 T00240005,K1A5,2019-01-15T00:40:00Z,35.22,-83.42,2.4,0.5,290,4,,10.0,30.209646,,,TRUE,TRUE,,,,,,,BKN,3200,,,,,,,VFR,,,,,,,,,,,,METAR,616.0
KW29 150040Z AUTO 10SM CLR M05/M07 A3020 RMK AO2,KW29,2019-01-15T00:40:00Z,38.98,-76.33,-5.0,-7.0,,,,10.0,30.200787,,,TRUE,TRUE,,,,,,,CLR,,,,,,,,VFR,,,,,,,,,,,,METAR,15.0
KSUT 150040Z AUTO 01006KT 10SM OVC017 04/00 A3022 RMK AO2 T00400000,KSUT,2019-01-15T00:40:00Z,33.93,-78.08,4.0,0.0,10,6,,10.0,30.221457,,,TRUE,TRUE,,,,,,,OVC,1700,,,,,,,MVFR,,,,,,,,,,,,METAR,8.0
KCTZ 150040Z AUTO 00000KT 10SM BKN024 04/00 A3023 RMK AO2 T00420002,KCTZ,2019-01-15T00:40:00Z,34.98,-78.37,4.2,0.2,0,0,,10.0,30.230314,,,TRUE,TRUE,,,,,,,BKN,2400,,,,,,,MVFR,,,,,,,,,,,,METAR,45.0
KDMW 150040Z AUTO 00000KT 10SM CLR M03/M12 A3016 RMK AO2,KDMW,2019-01-15T00:40:00Z,39.6,-77.0,-3.0,-12.0,0,0,,10.0,30.159449,,,TRUE,TRUE,,,,,,,CLR,,,,,,,,VFR,,,,,,,,,,,,METAR,241.0
KDPL 150040Z AUTO 00000KT 7SM OVC023 02/01 A3022 RMK AO2,KDPL,2019-01-15T00:40:00Z,35.0,-77.97,2.0,1.0,0,0,,7.0,30.221457,,,TRUE,TRUE,,,,,,,OVC,2300,,,,,,,MVFR,,,,,,,,,,,,METAR,42.0
KEXX 150040Z AUTO 00000KT 10SM OVC037 05/02 A3020 RMK AO2 T00460021,KEXX,2019-01-15T00:40:00Z,35.78,-80.3,4.6,2.1,0,0,,10.0,30.200787,,,TRUE,TRUE,,,,,,,OVC,3700,,,,,,,VFR,,,,,,,,,,,,METAR,223.0
KFFA 150040Z AUTO 32006KT 10SM OVC020 02/M01 A3017 RMK AO2 T00191010,KFFA,2019-01-15T00:40:00Z,36.02,-75.67,1.9,-1.0,320,6,,10.0,30.171259,,,TRUE,TRUE,,,,,,,OVC,2000,,,,,,,MVFR,,,,,,,,,,,,METAR,4.0
KEYF 150040Z AUTO 00000KT 10SM CLR 02/01 A3022 RMK AO2 PWINO T00190006,KEYF,2019-01-15T00:40:00Z,34.6,-78.58,1.9,0.6,0,0,,10.0,30.221457,,,TRUE,TRUE,,,,,TRUE,,CLR,,,,,,,,VFR,,,,,,,,,,,,METAR,41.0
KONX 150040Z AUTO 10SM CLR 00/M01 A3020 RMK AO2 T00011008,KONX,2019-01-15T00:40:00Z,36.4,-76.02,0.1,-0.8,,,,10.0,30.200787,,,TRUE,TRUE,,,,,,,CLR,,,,,,,,VFR,,,,,,,,,,,,METAR,5.0
KMRN 150040Z AUTO 00000KT 10SM SCT031 SCT039 OVC049 05/03 A3021 RMK AO2 T00450032,KMRN,2019-01-15T00:40:00Z,35.82,-81.62,4.5,3.2,0,0,,10.0,30.209646,,,TRUE,TRUE,,,,,,,SCT,3100,SCT,3900,OVC,4900,,,VFR,,,,,,,,,,,,METAR,387.0
KMQI 150040Z AUTO 35007KT 10SM OVC019 02/M01 A3020 RMK AO2 T00201011 PWINO,KMQI,2019-01-15T00:40:00Z,35.92,-75.7,2.0,-1.1,350,7,,10.0,30.200787,,,TRUE,TRUE,,,,,TRUE,,OVC,1900,,,,,,,MVFR,,,,,,,,,,,,METAR,4.0
KHRJ 150040Z AUTO 00000KT 10SM BKN043 02/02 A3022 RMK AO2 T00220021,KHRJ,2019-01-15T00:40:00Z,35.38,-78.73,2.2,2.1,0,0,,10.0,30.221457,,,TRUE,TRUE,,,,,,,BKN,4300,,,,,,,VFR,,,,,,,,,,,,METAR,60.0
KHBI 150040Z AUTO 00000KT 10SM SCT031 SCT043 OVC049 04/01 A3023 RMK AO2 T00410006,KHBI,2019-01-15T00:40:00Z,35.65,-79.9,4.1,0.6,0,0,,10.0,30.230314,,,TRUE,TRUE,,,,,,,SCT,3100,SCT,4300,OVC,4900,,,VFR,,,,,,,,,,,,METAR,205.0
KEDE 150040Z AUTO 00000KT 10SM CLR 00/M01 A3021 RMK AO2 T00001006,KEDE,2019-01-15T00:40:00Z,36.02,-76.57,0.0,-0.6,0,0,,10.0,30.209646,,,TRUE,TRUE,,,,,,,CLR,,,,,,,,VFR,,,,,,,,,,,,METAR,6.0
MMTM 150040Z 35012KT 1SM -RA BR BKN004 OVC010 17/17 A3024 RMK 8/6// -DZE-RAB35 VRB CONDS,MMTM,2019-01-15T00:40:00Z,22.27,-97.87,17.0,17.0,350,12,,1.0,30.239174,,,,,,,,,,-RA BR,BKN,400,OVC,1000,,,,,LIFR,,,,,,,,,,,,METAR,24.0
KVBG 150040Z 14009KT 10SM FEW004 SCT019 BKN025 BKN035 BKN055 11/10 A2991 RMK RAE0040,KVBG,2019-01-15T00:40:00Z,34.73,-120.58,11.0,10.0,140,9,,10.0,29.911417,,,,,,,,,,,FEW,400,SCT,1900,BKN,2500,BKN,3500,MVFR,,,,,,,,,,,,METAR,112.0
KHQI 150040Z AUTO 10SM SCT021 BKN065 13/08 A3034 RMK A01,KHQI,2019-01-15T00:40:00Z,27.93,-93.67,13.0,8.0,,,,10.0,30.339567,,,TRUE,TRUE,,,,,,,SCT,2100,BKN,6500,,,,,VFR,,,,,,,,,,,,SPECI,26.0
KHSD 150040Z AUTO 20003KT 10SM CLR 05/01 A3032 RMK A01,KHSD,2019-01-15T00:40:00Z,35.6,-97.72,5.0,1.0,200,3,,10.0,30.318897,,,TRUE,TRUE,,,,,,,CLR,,,,,,,,VFR,,,,,,,,,,,,METAR,364.0
KEMK 150040Z AUTO 10012KT 10SM BKN022 OVC060 15/08 A3035 RMK A01,KEMK,2019-01-15T00:40:00Z,27.82,-94.32,15.0,8.0,100,12,,10.0,30.351377,,,TRUE,TRUE,,,,,,,BKN,2200,OVC,6000,,,,,MVFR,,,,,,,,,,,,SPECI,26.0
KGHB 150040Z AUTO 05017KT 10SM SCT018 OVC065 12/08 A3033 RMK A01,KGHB,2019-01-15T00:40:00Z,27.83,-91.98,12.0,8.0,50,17,,10.0,30.33071,,,TRUE,TRUE,,,,,,,SCT,1800,OVC,6500,,,,,VFR,,,,,,,,,,,,SPECI,30.0
KFYM 150040Z AUTO 34004KT 10SM BKN018 OVC033 02/M00 A3030 RMK A01,KFYM,2019-01-15T00:40:00Z,35.07,-86.57,2.0,0.0,340,4,,10.0,30.301182,,,TRUE,TRUE,,,,,,,BKN,1800,OVC,3300,,,,,MVFR,,,,,,,,,,,,SPECI,300.0
KGOO 150040Z AUTO 00000KT 10SM FEW045 07/00 A2990 RMK AO1,KGOO,2019-01-15T00:40:00Z,39.22,-121.0,7.0,0.0,0,0,,10.0,29.899607,,,TRUE,TRUE,,,,,,,FEW,4500,,,,,,,VFR,,,,,,,,,,,,SPECI,962.0
KGRY 150040Z AUTO 35008G14KT 320V030 10SM OVC021 12/08 A3031 RMK A01,KGRY,2019-01-15T00:40:00Z,27.63,-90.45,12.0,8.0,350,8,14,10.0,30.31004,,,TRUE,TRUE,,,,,,,OVC,2100,,,,,,,MVFR,,,,,,,,,,,,SPECI,58.0
KEDU 150040Z AUTO 00000KT 9SM FEW035 FEW041 OVC050 10/08 A2989 RMK AO1 P0002,KEDU,2019-01-15T00:40:00Z,38.53,-121.78,10.0,8.0,0,0,,9.0,29.890747,,,TRUE,TRUE,,,,,,,FEW,3500,FEW,4100,OVC,5000,,,VFR,,,,,,0.02,,,,,,SPECI,21.0
KWBF 150040Z AUTO 00000G11KT 10SM OVC022 14/09 A3029 RMK A01,KWBF,2019-01-15T00:40:00Z,,,14.0,9.0,0,0,11,10.0,30.28937,,,TRUE,TRUE,,,,,,,OVC,2200,,,,,,,MVFR,,,,,,,,,,,,SPECI,
PAJC 150039Z AUTO 15016G40KT 110V180 2SM -RA BR OVC016 06/04 A2922 RMK AO2 PK WND 16043/0023 VIS 1 1/2V3 P0007,PAJC,2019-01-15T00:39:00Z,56.32,-158.37,6.0,4.0,150,16,40,2.0,29.220472,,,TRUE,TRUE,,,,,,-RA BR,OVC,1600,,,,,,,IFR,,,,,,0.07,,,,,,METAR,15.0
KAND 150039Z AUTO 00000KT 10SM BKN025 OVC043 07/04 A3019 RMK AO2 T00670044,KAND,2019-01-15T00:39:00Z,34.5,-82.72,6.7,4.4,0,0,,10.0,30.188976,,,TRUE,TRUE,,,,,,,BKN,2500,OVC,4300,,,,,MVFR,,,,,,,,,,,,METAR,239.0
CYBC 150039Z AUTO 23003KT 9SM -SN OVC070 M09/M15 A3002 RMK SLP169,CYBC,2019-01-15T00:39:00Z,49.12,-68.2,-9.0,-15.0,230,3,,9.0,30.02067,1016.9,,TRUE,,,,,,,-SN,OVC,7000,,,,,,,VFR,,,,,,,,,,,,SPECI,22.0
KCUL 150038Z AUTO 27004KT 10SM BKN029 M02/M03 A3036 RMK AO2,KCUL,2019-01-15T00:38:00Z,38.08,-88.12,-2.0,-3.0,270,4,,10.0,30.360237,,,TRUE,TRUE,,,,,,,BKN,2900,,,,,,,MVFR,,,,,,,,,,,,SPECI,118.0
KXVG 150038Z AUTO 00000KT 10SM CLR M09/M11 A3020 RMK AO2,KXVG,2019-01-15T00:38:00Z,46.98,-94.2,-9.0,-11.0,0,0,,10.0,30.200787,,,TRUE,TRUE,,,,,,,CLR,,,,,,,,VFR,,,,,,,,,,,,SPECI,407.0
CWHN 150037Z AUTO 32012G22KT 280V340 8SM OVC011 01/M03 A2986,CWHN,2019-01-15T00:37:00Z,54.88,-109.97,1.0,-3.0,320,12,22,8.0,29.861221,,,TRUE,,,,,,,,OVC,1100,,,,,,,MVFR,,,,,,,,,,,,SPECI,636.0
LZIB 150037Z 29018G28KT CAVOK M00/M07 Q1011 R13/32//95 R04/0///95,LZIB,2019-01-15T00:37:00Z,48.17,17.22,0.0,-7.0,290,18,28,6.21,29.852362,,,,,,,,,,,CAVOK,,,,,,,,VFR,,,,,,,,,,,,SPECI,134.0
PAOH 150037Z AUTO 09005KT 5SM -RA BR OVC008 03/03 A3007 RMK AO2 RAB33 P0000,PAOH,2019-01-15T00:37:00Z,58.1,-135.45,3.0,3.0,90,5,,5.0,30.070866,,,TRUE,TRUE,,,,,,-RA BR,OVC,800,,,,,,,IFR,,,,,,0.005,,,,,,SPECI,9.0
KOFF 150036Z 24005KT 10SM OVC004 00/00 A3024 RMK AO2A TWR VIS 3 SLP257 $,KOFF,2019-01-15T00:36:00Z,41.12,-95.92,0.0,0.0,240,5,,10.0,30.239174,1025.7,,,TRUE,TRUE,,,,,,OVC,400,,,,,,,LIFR,,,,,,,,,,,,SPECI,319.0
KMGG 150036Z AUTO 00000KT 10SM OVC015 M02/M05 A3024 RMK AO2 T10221046,KMGG,2019-01-15T00:36:00Z,45.23,-93.98,-2.2,-4.6,0,0,,10.0,30.239174,,,TRUE,TRUE,,,,,,,OVC,1500,,,,,,,MVFR,,,,,,,,,,,,METAR,313.0
KHZR 150036Z AUTO 35007KT 10SM OVC019 05/01 A3038 RMK AO2,KHZR,2019-01-15T00:36:00Z,30.72,-91.48,5.0,1.0,350,7,,10.0,30.380905,,,TRUE,TRUE,,,,,,,OVC,1900,,,,,,,MVFR,,,,,,,,,,,,METAR,12.0
KGDB 150036Z AUTO 35006KT 10SM OVC008 M02/M03 A3025 RMK AO2 T10171032,KGDB,2019-01-15T00:36:00Z,44.75,-95.55,-1.7,-3.2,350,6,,10.0,30.250984,,,TRUE,TRUE,,,,,,,OVC,800,,,,,,,IFR,,,,,,,,,,,,METAR,319.0
KCFE 150036Z AUTO 00000KT 10SM OVC013 M02/M05 A3024 RMK AO2 T10241051,KCFE,2019-01-15T00:36:00Z,45.17,-93.85,-2.4,-5.1,0,0,,10.0,30.239174,,,TRUE,TRUE,,,,,,,OVC,1300,,,,,,,MVFR,,,,,,,,,,,,METAR,295.0
KCDI 150036Z AUTO 25004KT 10SM OVC022 M02/M04 A3028 RMK AO2 T10201045,KCDI,2019-01-15T00:36:00Z,39.97,-81.58,-2.0,-4.5,250,4,,10.0,30.280512,,,TRUE,TRUE,,,,,,,OVC,2200,,,,,,,MVFR,,,,,,,,,,,,METAR,244.0
K04W 150036Z AUTO 00000KT 10SM CLR M06/M06 A3022 RMK AO2,K04W,2019-01-15T00:36:00Z,46.02,-92.9,-6.0,-6.0,0,0,,10.0,30.221457,,,TRUE,TRUE,,,,,,,CLR,,,,,,,,VFR,,,,,,,,,,,,METAR,311.0
KPEX 150036Z AUTO 00000KT 10SM SCT015 M04/M05 A3023 RMK AO2 T10411049,KPEX,2019-01-15T00:36:00Z,45.37,-94.73,-4.1,-4.9,0,0,,10.0,30.230314,,,TRUE,TRUE,,,,,,,SCT,1500,,,,,,,VFR,,,,,,,,,,,,METAR,360.0
KOXD 150036Z AUTO 00000KT 10SM CLR M06/M07 A3029 RMK AO2 T10591070,KOXD,2019-01-15T00:36:00Z,39.5,-84.78,-5.9,-7.0,0,0,,10.0,30.28937,,,TRUE,TRUE,,,,,,,CLR,,,,,,,,VFR,,,,,,,,,,,,SPECI,317.0
KSYN 150036Z AUTO 32003KT 10SM OVC013 M01/M04 A3021 RMK AO2 T10121036,KSYN,2019-01-15T00:36:00Z,44.47,-93.02,-1.2,-3.6,320,3,,10.0,30.209646,,,TRUE,TRUE,,,,,,,OVC,1300,,,,,,,MVFR,,,,,,,,,,,,METAR,280.0
KSFY 150036Z AUTO 28006KT 5SM BR OVC008 M03/M05 A3030 RMK AO2,KSFY,2019-01-15T00:36:00Z,42.05,-90.12,-3.0,-5.0,280,6,,5.0,30.301182,,,TRUE,TRUE,,,,,,BR,OVC,800,,,,,,,IFR,,,,,,,,,,,,SPECI,188.0
KI19 150036Z AUTO 00000KT 10SM CLR M03/M06 A3031 RMK AO2 T10351062,KI19,2019-01-15T00:36:00Z,39.7,-83.98,-3.5,-6.2,0,0,,10.0,30.31004,,,TRUE,TRUE,,,,,,,CLR,,,,,,,,VFR,,,,,,,,,,,,METAR,289.0
K21D 150036Z AUTO 32003KT 10SM M01/M01 A3023 RMK AO2,K21D,2019-01-15T00:36:00Z,45.0,-92.85,-1.0,-1.0,320,3,,10.0,30.230314,,,TRUE,TRUE,,,,,,,,,,,,,,,,,,,,,,,,,,,SPECI,285.0
KTOC 150035Z AUTO 00000KT 10SM SCT015 SCT026 OVC037 07/05 A3019 RMK AO2 T00670048,KTOC,2019-01-15T00:35:00Z,34.6,-83.3,6.7,4.8,0,0,,10.0,30.188976,,,TRUE,TRUE,,,,,,,SCT,1500,SCT,2600,OVC,3700,,,VFR,,,,,,,,,,,,METAR,304.0
KTMK 150035Z AUTO 03011G20KT 10SM CLR 10/M02 A2989 RMK AO2,KTMK,2019-01-15T00:35:00Z,45.42,-123.82,10.0,-2.0,30,11,20,10.0,29.890747,,,TRUE,TRUE,,,,,,,CLR,,,,,,,,VFR,,,,,,,,,,,,SPECI,11.0
KTIP 150035Z AUTO 25006KT 7SM OVC005 M05/M06 A3033 RMK AO2 T10501056,KTIP,2019-01-15T00:35:00Z,40.28,-88.15,-5.0,-5.6,250,6,,7.0,30.33071,,,TRUE,TRUE,,,,,,,OVC,500,,,,,,,IFR,,,,,,,,,,,,SPECI,225.0
KTFP 150035Z AUTO 05007KT 10SM OVC044 11/05 A3037 RMK AO2 T01070047 PNO,KTFP,2019-01-15T00:35:00Z,27.92,-97.22,10.7,4.7,50,7,,10.0,30.369095,,,TRUE,TRUE,,,,,,,OVC,4400,,,,,,,VFR,,,,,,,,,,,,SPECI,6.0
KTAZ 150035Z AUTO 23005KT 10SM OVC011 M02/M04 A3033 RMK AO2 T10251040,KTAZ,2019-01-15T00:35:00Z,39.53,-89.33,-2.5,-4.0,230,5,,10.0,30.33071,,,TRUE,TRUE,,,,,,,OVC,1100,,,,,,,MVFR,,,,,,,,,,,,METAR,190.0
KT35 150035Z AUTO 03004KT 10SM CLR 05/02 A3039 RMK AO2 T00500021,KT35,2019-01-15T00:35:00Z,30.88,-96.97,5.0,2.1,30,4,,10.0,30.389763,,,TRUE,TRUE,,,,,,,CLR,,,,,,,,VFR,,,,,,,,,,,,METAR,123.0
KT20 150035Z AUTO 00000KT 10SM OVC060 09/03 A3038 RMK AO2 T00870034,KT20,2019-01-15T00:35:00Z,29.52,-97.47,8.7,3.4,0,0,,10.0,30.380905,,,TRUE,TRUE,,,,,,,OVC,6000,,,,,,,VFR,,,,,,,,,,,,SPECI,108.0
KVDI 150035Z AUTO 00000KT 10SM OVC027 08/05 A3022 RMK AO2,KVDI,2019-01-15T00:35:00Z,32.2,-82.37,8.0,5.0,0,0,,10.0,30.221457,,,TRUE,TRUE,,,,,,,OVC,2700,,,,,,,MVFR,,,,,,,,,,,,METAR,84.0
KUXL 150035Z AUTO 34004KT 10SM CLR 07/03 A3039 RMK AO2 T00700027,KUXL,2019-01-15T00:35:00Z,30.13,-93.38,7.0,2.7,340,4,,10.0,30.389763,,,TRUE,TRUE,,,,,,,CLR,,,,,,,,VFR,,,,,,,,,,,,METAR,4.0
KVYS 150035Z AUTO 25009KT 10SM OVC010 M04/M06 A3031 RMK AO2 T10401060,KVYS,2019-01-15T00:35:00Z,41.35,-89.15,-4.0,-6.0,250,9,,10.0,30.31004,,,TRUE,TRUE,,,,,,,OVC,1000,,,,,,,MVFR,,,,,,,,,,,,SPECI,199.0
KW43 150035Z AUTO 19009KT 10SM CLR 00/M07 A3010 RMK AO2,KW43,2019-01-15T00:35:00Z,44.67,-104.57,0.0,-7.0,190,9,,10.0,30.100393,,,TRUE,TRUE,,,,,,,CLR,,,,,,,,VFR,,,,,,,,,,,,SPECI,1300.0
KXLL 150035Z AUTO 00000KT 10SM CLR M01/M08 A3017 RMK AO2,KXLL,2019-01-15T00:35:00Z,40.57,-75.48,-1.0,-8.0,0,0,,10.0,30.171259,,,TRUE,TRUE,,,,,,,CLR,,,,,,,,VFR,,,,,,,,,,,,SPECI,122.0
KECS 150035Z AUTO 02005KT 10SM CLR M01/M08 A3013 RMK AO2,KECS,2019-01-15T00:35:00Z,43.88,-104.32,-1.0,-8.0,20,5,,10.0,30.129921,,,TRUE,TRUE,,,,,,,CLR,,,,,,,,VFR,,,,,,,,,,,,SPECI,1273.0
ETIC 150035Z AUTO 27009G14KT 9999 -UP FEW005 FEW015 SCT020 SCT031 OVC060 00/M02 A2998 RMK AO2 SNE12UPB12E28UPB32 SLP173 $,ETIC,2019-01-15T00:35:00Z,49.7,11.93,0.0,-2.0,270,9,14,6.21,29.97933,1017.3,,TRUE,TRUE,TRUE,,,,,UP,FEW,500,FEW,1500,SCT,2000,SCT,3100,VFR,,,,,,,,,,,,SPECI,415.0
K17J 150035Z AUTO 01006KT 10SM OVC016 07/04 A3028 RMK AO2 T00710039,K17J,2019-01-15T00:35:00Z,31.07,-84.92,7.1,3.9,10,6,,10.0,30.280512,,,TRUE,TRUE,,,,,,,OVC,1600,,,,,,,MVFR,,,,,,,,,,,,METAR,45.0
K3J7 150035Z AUTO 00000KT 7SM BKN010 BKN016 OVC025 07/07 A3018 RMK AO2,K3J7,2019-01-15T00:35:00Z,33.6,-83.13,7.0,7.0,0,0,,7.0,30.180119,,,TRUE,TRUE,,,,,,,BKN,1000,BKN,1600,OVC,2500,,,MVFR,,,,,,,,,,,,METAR,206.0
KACP 150035Z AUTO 35005KT 10SM OVC019 06/01 A3039 RMK AO2 T00600014,KACP,2019-01-15T00:35:00Z,30.75,-92.68,6.0,1.4,350,5,,10.0,30.389763,,,TRUE,TRUE,,,,,,,OVC,1900,,,,,,,MVFR,,,,,,,,,,,,METAR,33.0
KGNC 150035Z AUTO 17004KT 10SM OVC015 06/02 A3033 RMK AO2 T00550022,KGNC,2019-01-15T00:35:00Z,32.68,-102.65,5.5,2.2,170,4,,10.0,30.33071,,,TRUE,TRUE,,,,,,,OVC,1500,,,,,,,MVFR,,,,,,,,,,,,METAR,1010.0
KEHY 150035Z AUTO 10SM CLR M08/M15 A3016 RMK AO2 PWINO,KEHY,2019-01-15T00:35:00Z,41.73,-106.47,-8.0,-15.0,,,,10.0,30.159449,,,TRUE,TRUE,,,,,TRUE,,CLR,,,,,,,,VFR,,,,,,,,,,,,METAR,2225.0
KEAN 150035Z AUTO 18015G18KT 10SM CLR 00/M13 A3016 RMK AO2 T10051134,KEAN,2019-01-15T00:35:00Z,42.05,-104.93,-0.5,-13.4,180,15,18,10.0,30.159449,,,TRUE,TRUE,,,,,,,CLR,,,,,,,,VFR,,,,,,,,,,,,METAR,1456.0
KDWX 150035Z AUTO 07007KT 10SM CLR M17/M21 A3032 RMK AO2 T11741206,KDWX,2019-01-15T00:35:00Z,41.03,-107.5,-17.4,-20.6,70,7,,10.0,30.318897,,,TRUE,TRUE,,,,,,,CLR,,,,,,,,VFR,,,,,,,,,,,,METAR,1996.0
KD73 150035Z AUTO 31008KT 10SM OVC033 06/02 A3021 RMK AO2 T00630024,KD73,2019-01-15T00:35:00Z,33.78,-83.7,6.3,2.4,310,8,,10.0,30.209646,,,TRUE,TRUE,,,,,,,OVC,3300,,,,,,,VFR,,,,,,,,,,,,METAR,267.0
KCCO 150035Z AUTO 32005KT OVC020 07/02 A3024 RMK AO2 T00660020 PWINO,KCCO,2019-01-15T00:35:00Z,33.32,-84.77,6.6,2.0,320,5,,,30.239174,,,TRUE,TRUE,,,,,TRUE,,OVC,2000,,,,,,,,,,,,,,,,,,,METAR,296.0
KFRR 150035Z AUTO 11004KT 10SM CLR M01/M03 A3018 RMK AO1,KFRR,2019-01-15T00:35:00Z,38.92,-78.25,-1.0,-3.0,110,4,,10.0,30.180119,,,TRUE,TRUE,,,,,,,CLR,,,,,,,,VFR,,,,,,,,,,,,METAR,216.0
KFYJ 150035Z AUTO 00000KT 10SM OVC070 00/M02 A3023 RMK AO1 T00031023,KFYJ,2019-01-15T00:35:00Z,37.52,-76.77,0.3,-2.3,0,0,,10.0,30.230314,,,TRUE,TRUE,,,,,,,OVC,7000,,,,,,,VFR,,,,,,,,,,,,METAR,7.0
KGVT 150035Z AUTO 00000KT 10SM CLR 04/01 A3040 RMK AO2,KGVT,2019-01-15T00:35:00Z,33.07,-96.07,4.0,1.0,0,0,,10.0,30.398623,,,TRUE,TRUE,,,,,,,CLR,,,,,,,,VFR,,,,,,,,,,,,METAR,163.0
KHII 150035Z AUTO 34003KT 10SM FEW055 BKN100 14/02 A3002 RMK AO2,KHII,2019-01-15T00:35:00Z,34.57,-114.37,14.0,2.0,340,3,,10.0,30.02067,,,TRUE,TRUE,,,,,,,FEW,5500,BKN,10000,,,,,VFR,,,,,,,,,,,,METAR,238.0
KIDP 150035Z AUTO 21006KT 10SM OVC011 00/M01 A3036 RMK AO2 T00041010,KIDP,2019-01-15T00:35:00Z,37.17,-95.78,0.4,-1.0,210,6,,10.0,30.360237,,,TRUE,TRUE,,,,,,,OVC,1100,,,,,,,MVFR,,,,,,,,,,,,METAR,251.0
KLWB 150035Z AUTO 26005KT 7SM BKN007 BKN014 OVC018 M02/M03 A3017 RMK AO2 T10171030,KLWB,2019-01-15T00:35:00Z,37.87,-80.4,-1.7,-3.0,260,5,,7.0,30.171259,,,TRUE,TRUE,,,,,,,BKN,700,BKN,1400,OVC,1800,,,IFR,,,,,,,,,,,,METAR,702.0
KMRJ 150035Z AUTO 23007KT 3SM BR OVC003 M04/M04 A3024 RMK AO2,KMRJ,2019-01-15T00:35:00Z,42.88,-90.23,-4.0,-4.0,230,7,,3.0,30.239174,,,TRUE,TRUE,,,,,,BR,OVC,300,,,,,,,LIFR,,,,,,,,,,,,METAR,359.0
KMZZ 150035Z AUTO 00000KT 5SM BR CLR M11/M11 A3031 RMK AO2 T11111111,KMZZ,2019-01-15T00:35:00Z,40.48,-85.68,-11.1,-11.1,0,0,,5.0,30.31004,,,TRUE,TRUE,,,,,,BR,CLR,,,,,,,,MVFR,,,,,,,,,,,,METAR,262.0
KOYM 150035Z AUTO 27003KT 10SM CLR M03/M11 A3015 RMK AO2,KOYM,2019-01-15T00:35:00Z,41.42,-78.5,-3.0,-11.0,270,3,,10.0,30.15059,,,TRUE,TRUE,,,,,,,CLR,,,,,,,,VFR,,,,,,,,,,,,METAR,590.0
KPSK 150035Z AUTO 27008KT 10SM OVC014 01/00 A3017 RMK AO2 T00051005,KPSK,2019-01-15T00:35:00Z,37.12,-80.67,0.5,-0.5,270,8,,10.0,30.171259,,,TRUE,TRUE,,,,,,,OVC,1400,,,,,,,MVFR,,,,,,,,,,,,METAR,642.0
KPTT 150035Z AUTO 17005KT 10SM CLR 04/02 A3025 RMK AO2 T00380015,KPTT,2019-01-15T00:35:00Z,37.7,-98.75,3.8,1.5,170,5,,10.0,30.250984,,,TRUE,TRUE,,,,,,,CLR,,,,,,,,VFR,,,,,,,,,,,,METAR,595.0
KSEF 150035Z AUTO 02006KT 10SM CLR 15/10 A3015 RMK AO2 T01510100,KSEF,2019-01-15T00:35:00Z,27.45,-81.35,15.1,10.0,20,6,,10.0,30.15059,,,TRUE,TRUE,,,,,,,CLR,,,,,,,,VFR,,,,,,,,,,,,METAR,19.0
KSFQ 150035Z AUTO 00000KT 10SM CLR 01/M02 A3022 RMK AO2 T00061020,KSFQ,2019-01-15T00:35:00Z,36.68,-76.6,0.6,-2.0,0,0,,10.0,30.221457,,,TRUE,TRUE,,,,,,,CLR,,,,,,,,VFR,,,,,,,,,,,,METAR,22.0
KSME 150035Z AUTO 31003KT 10SM OVC017 00/00 A3031 RMK AO2,KSME,2019-01-15T00:35:00Z,37.05,-84.62,0.0,0.0,310,3,,10.0,30.31004,,,TRUE,TRUE,,,,,,,OVC,1700,,,,,,,MVFR,,,,,,,,,,,,METAR,283.0
KT82 150035Z AUTO 00000KT 10SM OVC044 07/02 A3034 RMK AO2 T00680017,KT82,2019-01-15T00:35:00Z,30.25,-98.92,6.8,1.7,0,0,,10.0,30.339567,,,TRUE,TRUE,,,,,,,OVC,4400,,,,,,,VFR,,,,,,,,,,,,METAR,517.0
KTVK 150035Z AUTO 24007KT 4SM BR OVC002 M03/M03 A3030 RMK AO2,KTVK,2019-01-15T00:35:00Z,40.68,-92.9,-3.0,-3.0,240,7,,4.0,30.301182,,,TRUE,TRUE,,,,,,BR,OVC,200,,,,,,,LIFR,,,,,,,,,,,,METAR,314.0
KW78 150035Z AUTO 00000KT 10SM SCT043 OVC085 01/00 A3022 RMK AO1 T00080001,KW78,2019-01-15T00:35:00Z,36.68,-78.85,0.8,0.1,0,0,,10.0,30.221457,,,TRUE,TRUE,,,,,,,SCT,4300,OVC,8500,,,,,VFR,,,,,,,,,,,,METAR,129.0
KY49 150035Z AUTO 31003KT 10SM CLR M07/M09 A3020 RMK AO2 T10681087,KY49,2019-01-15T00:35:00Z,47.13,-94.65,-6.8,-8.7,310,3,,10.0,30.200787,,,TRUE,TRUE,,,,,,,CLR,,,,,,,,VFR,,,,,,,,,,,,METAR,416.0
KEBS 150035Z AUTO 26004KT 2 1/2SM BR OVC005 M01/M01 A3022 RMK AO2,KEBS,2019-01-15T00:35:00Z,42.42,-93.87,-1.0,-1.0,260,4,,2.5,30.221457,,,TRUE,TRUE,,,,,,BR,OVC,500,,,,,,,IFR,,,,,,,,,,,,METAR,342.0
KPVF 150035Z AUTO 00000KT 10SM BKN060 08/00 A2991 RMK AO1,KPVF,2019-01-15T00:35:00Z,38.72,-120.75,8.0,0.0,0,0,,10.0,29.911417,,,TRUE,TRUE,,,,,,,BKN,6000,,,,,,,VFR,,,,,,,,,,,,SPECI,789.0
KJHN 150035Z AUTO 00000KT 10SM CLR 01/M01 A3021 RMK AO2 T00141006,KJHN,2019-01-15T00:35:00Z,37.58,-101.73,1.4,-0.6,0,0,,10.0,30.209646,,,TRUE,TRUE,,,,,,,CLR,,,,,,,,VFR,,,,,,,,,,,,METAR,1013.0
KFYG 150035Z AUTO 25004KT 9SM OVC016 00/M02 A3035 RMK AO2,KFYG,2019-01-15T00:35:00Z,38.58,-91.0,0.0,-2.0,250,4,,9.0,30.351377,,,TRUE,TRUE,,,,,,,OVC,1600,,,,,,,MVFR,,,,,,,,,,,,METAR,149.0
K5M9 150035Z AUTO 28003KT 10SM OVC030 00/M03 A3035 RMK AO2 T10011030,K5M9,2019-01-15T00:35:00Z,37.33,-88.12,-0.1,-3.0,280,3,,10.0,30.351377,,,TRUE,TRUE,,,,,,,OVC,3000,,,,,,,MVFR,,,,,,,,,,,,METAR,199.0
KJGG 150035Z AUTO 00000KT 10SM CLR 00/M02 A3023 RMK AO1,KJGG,2019-01-15T00:35:00Z,37.23,-76.72,0.0,-2.0,0,0,,10.0,30.230314,,,TRUE,TRUE,,,,,,,CLR,,,,,,,,VFR,,,,,,,,,,,,SPECI,15.0
KIOB 150035Z AUTO 30003KT 10SM BKN010 OVC016 00/M01 A3031 RMK AO2,KIOB,2019-01-15T00:35:00Z,38.05,-83.98,0.0,-1.0,300,3,,10.0,30.31004,,,TRUE,TRUE,,,,,,,BKN,1000,OVC,1600,,,,,MVFR,,,,,,,,,,,,SPECI,311.0
KIKK 150035Z AUTO 26010KT 10SM OVC007 M05/M06 A3032 RMK AO2 T10501065,KIKK,2019-01-15T00:35:00Z,41.07,-87.85,-5.0,-6.5,260,10,,10.0,30.318897,,,TRUE,TRUE,,,,,,,OVC,700,,,,,,,IFR,,,,,,,,,,,,METAR,192.0
KRLD 150035Z AUTO 33003KT 10SM OVC017 01/M01 A3028 RMK AO2 T00081006,KRLD,2019-01-15T00:35:00Z,46.3,-119.3,0.8,-0.6,330,3,,10.0,30.280512,,,TRUE,TRUE,,,,,,,OVC,1700,,,,,,,MVFR,,,,,,,,,,,,SPECI,120.0
KRKW 150035Z AUTO 00000KT 1 3/4SM BR FEW003 OVC008 M00/M01 A3024 RMK A01,KRKW,2019-01-15T00:35:00Z,35.92,-84.68,0.0,-1.0,0,0,,1.75,30.239174,,,TRUE,TRUE,,,,,,BR,FEW,300,OVC,800,,,,,IFR,,,,,,,,,,,,SPECI,508.0
KRCV 150035Z AUTO 00000KT 10SM CLR M13/M15 A3028 RMK AO2 T11291151,KRCV,2019-01-15T00:35:00Z,37.72,-106.35,-12.9,-15.1,0,0,,10.0,30.280512,,,TRUE,TRUE,,,,,,,CLR,,,,,,,,VFR,,,,,,,,,,,,SPECI,2424.0
KRAS 150035Z AUTO 03008KT 10SM OVC043 10/05 A3039 RMK AO2 T01000050,KRAS,2019-01-15T00:35:00Z,27.82,-97.08,10.0,5.0,30,8,,10.0,30.389763,,,TRUE,TRUE,,,,,,,OVC,4300,,,,,,,VFR,,,,,,,,,,,,SPECI,2.0
KPYX 150035Z AUTO 03006KT 10SM CLR 05/02 A3021 RMK AO2 T00470021,KPYX,2019-01-15T00:35:00Z,36.42,-100.75,4.7,2.1,30,6,,10.0,30.209646,,,TRUE,TRUE,,,,,,,CLR,,,,,,,,VFR,,,,,,,,,,,,SPECI,889.0
KPVE 150035Z AUTO 00000KT 7SM OVC014 02/01 A3035 RMK A01,KPVE,2019-01-15T00:35:00Z,35.65,-88.2,2.0,1.0,0,0,,7.0,30.351377,,,TRUE,TRUE,,,,,,,OVC,1400,,,,,,,MVFR,,,,,,,,,,,,SPECI,149.0
KPVB 150035Z AUTO 00000KT 2 1/2SM OVC004 M05/M05 A3027 RMK AO1 T10471047,KPVB,2019-01-15T00:35:00Z,42.68,-90.43,-4.7,-4.7,0,0,,2.5,30.268702,,,TRUE,TRUE,,,,,,,OVC,400,,,,,,,LIFR,,,,,,,,,,,,SPECI,313.0
KPTD 150035Z AUTO 00000KT 10SM FEW045 SCT050 M13/M15 A3019 RMK AO2,KPTD,2019-01-15T00:35:00Z,44.68,-74.95,-13.0,-15.0,0,0,,10.0,30.188976,,,TRUE,TRUE,,,,,,,FEW,4500,SCT,5000,,,,,VFR,,,,,,,,,,,,SPECI,144.0
KPSN 150035Z AUTO 05003KT 10SM CLR 05/01 A3040 RMK AO2 T00570019,KPSN,2019-01-15T00:35:00Z,31.78,-95.7,5.7,1.9,50,3,,10.0,30.398623,,,TRUE,TRUE,,,,,,,CLR,,,,,,,,VFR,,,,,,,,,,,,SPECI,129.0
KPRO 150035Z AUTO 25008KT 5SM BR OVC006 M01/M01 A3025 RMK AO2 T10131013,KPRO,2019-01-15T00:35:00Z,41.83,-94.17,-1.3,-1.3,250,8,,5.0,30.250984,,,TRUE,TRUE,,,,,,BR,OVC,600,,,,,,,IFR,,,,,,,,,,,,SPECI,308.0
KPPQ 150035Z AUTO 25008KT 7SM OVC006 M01/M02 A3033 RMK AO2 T10151022,KPPQ,2019-01-15T00:35:00Z,39.63,-90.78,-1.5,-2.2,250,8,,7.0,30.33071,,,TRUE,TRUE,,,,,,,OVC,600,,,,,,,IFR,,,,,,,,,,,,METAR,216.0
KPOY 150035Z AUTO 13012KT 10SM CLR M03/M10 A3008 RMK AO2,KPOY,2019-01-15T00:35:00Z,44.87,-108.8,-3.0,-10.0,130,12,,10.0,30.079725,,,TRUE,TRUE,,,,,,,CLR,,,,,,,,VFR,,,,,,,,,,,,SPECI,1552.0
KPHT 150035Z AUTO 00000KT 6SM BR SCT016 OVC033 01/M00 A3035 RMK A01,KPHT,2019-01-15T00:35:00Z,36.33,-88.38,1.0,0.0,0,0,,6.0,30.351377,,,TRUE,TRUE,,,,,,BR,SCT,1600,OVC,3300,,,,,VFR,,,,,,,,,,,,SPECI,177.0
KPEQ 150035Z AUTO 00000KT 10SM OVC015 05/01 A3031 RMK AO2 T00450011,KPEQ,2019-01-15T00:35:00Z,31.38,-103.52,4.5,1.1,0,0,,10.0,30.31004,,,TRUE,TRUE,,,,,,,OVC,1500,,,,,,,MVFR,,,,,,,,,,,,METAR,797.0
KPCW 150035Z AUTO 22007KT 10SM CLR M06/M08 A3026 RMK AO2,KPCW,2019-01-15T00:35:00Z,41.52,-82.87,-6.0,-8.0,220,7,,10.0,30.259842,,,TRUE,TRUE,,,,,,,CLR,,,,,,,,VFR,,,,,,,,,,,,METAR,178.0
KPCD 150035Z AUTO 7SM OVC019 00/M01 A3036 RMK AO2 T00001012,KPCD,2019-01-15T00:35:00Z,37.87,-89.87,0.0,-1.2,,,,7.0,30.360237,,,TRUE,TRUE,,,,,,,OVC,1900,,,,,,,MVFR,,,,,,,,,,,,SPECI,113.0
KP08 150035Z AUTO 00000KT 10SM FEW120 19/08 A3007 RMK AO2,KP08,2019-01-15T00:35:00Z,32.93,-111.43,19.0,8.0,0,0,,10.0,30.070866,,,TRUE,TRUE,,,,,,,FEW,12000,,,,,,,VFR,,,,,,,,,,,,SPECI,481.0
KOWI 150035Z AUTO 22007KT 7SM OVC004 M01/M01 A3032 RMK AO2,KOWI,2019-01-15T00:35:00Z,38.53,-95.25,-1.0,-1.0,220,7,,7.0,30.318897,,,TRUE,TRUE,,,,,,,OVC,400,,,,,,,LIFR,,,,,,,,,,,,SPECI,292.0
KOKM 150035Z AUTO 10007KT 10SM CLR 01/M01 A3036 RMK AO2 T00051008,KOKM,2019-01-15T00:35:00Z,35.67,-95.95,0.5,-0.8,100,7,,10.0,30.360237,,,TRUE,TRUE,,,,,,,CLR,,,,,,,,VFR,,,,,,,,,,,,SPECI,220.0
KO69 150035Z AUTO 13008KT 10SM BKN032 OVC038 12/06 A2984 RMK A01,KO69,2019-01-15T00:35:00Z,38.25,-122.6,12.0,6.0,130,8,,10.0,29.840551,,,TRUE,TRUE,,,,,,,BKN,3200,OVC,3800,,,,,VFR,,,,,,,,,,,,METAR,28.0
KN03 150035Z AUTO 00000KT 10SM CLR M11/M13 A3015 RMK AO2,KN03,2019-01-15T00:35:00Z,42.6,-76.22,-11.0,-13.0,0,0,,10.0,30.15059,,,TRUE,TRUE,,,,,,,CLR,,,,,,,,VFR,,,,,,,,,,,,METAR,366.0
KRMN 150035Z AUTO 00000KT 10SM CLR M04/M04 A3026 RMK AO2 T10361036,KRMN,2019-01-15T00:35:00Z,38.4,-77.45,-3.6,-3.6,0,0,,10.0,30.259842,,,TRUE,TRUE,,,,,,,CLR,,,,,,,,VFR,,,,,,,,,,,,SPECI,65.0
KDTA 150035Z AUTO 00000KT 10SM OVC013 M03/M05 A3024 RMK AO1,KDTA,2019-01-15T00:35:00Z,39.38,-112.5,-3.0,-5.0,0,0,,10.0,30.239174,,,TRUE,TRUE,,,,,,,OVC,1300,,,,,,,MVFR,,,,,,,,,,,,METAR,1402.0
KDQH 150035Z AUTO 00000KT 10SM OVC020 09/05 A3024 RMK AO2 T00880051,KDQH,2019-01-15T00:35:00Z,31.48,-82.87,8.8,5.1,0,0,,10.0,30.239174,,,TRUE,TRUE,,,,,,,OVC,2000,,,,,,,MVFR,,,,,,,,,,,,METAR,78.0
KDKR 150035Z AUTO 00000KT 10SM 04/02 A3041 RMK AO2,KDKR,2019-01-15T00:35:00Z,31.3,-95.4,4.0,2.0,0,0,,10.0,30.410433,,,TRUE,TRUE,,,,,,,,,,,,,,,,,,,,,,,,,,,METAR,106.0
KDKB 150035Z AUTO 24009KT 7SM OVC007 M05/M06 A3028 RMK AO2 T10501059,KDKB,2019-01-15T00:35:00Z,41.93,-88.7,-5.0,-5.9,240,9,,7.0,30.280512,,,TRUE,TRUE,,,,,,,OVC,700,,,,,,,IFR,,,,,,,,,,,,METAR,279.0
KOKV 150035Z AUTO 00000KT 5SM BR CLR M05/M06 A3020 RMK AO2,KOKV,2019-01-15T00:35:00Z,39.13,-78.15,-5.0,-6.0,0,0,,5.0,30.200787,,,TRUE,TRUE,,,,,,BR,CLR,,,,,,,,MVFR,,,,,,,,,,,,SPECI,222.0
KOCQ 150035Z AUTO 26004KT 10SM OVC017 M02/M04 A3019 RMK AO1 T10201042,KOCQ,2019-01-15T00:35:00Z,44.87,-87.92,-2.0,-4.2,260,4,,10.0,30.188976,,,TRUE,TRUE,,,,,,,OVC,1700,,,,,,,MVFR,,,,,,,,,,,,METAR,183.0
KMWO 150035Z AUTO 00000KT 4SM BR CLR M07/M08 A3032 RMK AO2 T10731082,KMWO,2019-01-15T00:35:00Z,39.53,-84.4,-7.3,-8.2,0,0,,4.0,30.318897,,,TRUE,TRUE,,,,,,BR,CLR,,,,,,,,MVFR,,,,,,,,,,,,METAR,198.0
KMQS 150035Z AUTO 28005KT 10SM CLR M05/M11 A3016 RMK AO2,KMQS,2019-01-15T00:35:00Z,39.98,-75.87,-5.0,-11.0,280,5,,10.0,30.159449,,,TRUE,TRUE,,,,,,,CLR,,,,,,,,VFR,,,,,,,,,,,,METAR,201.0
KMKJ 150035Z AUTO 30003KT 10SM OVC010 01/00 A3018 RMK AO2 T00050000,KMKJ,2019-01-15T00:35:00Z,36.88,-81.33,0.5,0.0,300,3,,10.0,30.180119,,,TRUE,TRUE,,,,,,,OVC,1000,,,,,,,MVFR,,,,,,,,,,,,SPECI,780.0
KMEZ 150035Z AUTO 00000KT 10SM OVC016 02/02 A3037 RMK AO2,KMEZ,2019-01-15T00:35:00Z,34.55,-94.2,2.0,2.0,0,0,,10.0,30.369095,,,TRUE,TRUE,,,,,,,OVC,1600,,,,,,,MVFR,,,,,,,,,,,,SPECI,329.0
KMDQ 150035Z AUTO 34007KT 10SM BKN024 OVC034 03/00 A3032 RMK A02 T00261001,KMDQ,2019-01-15T00:35:00Z,34.87,-86.55,2.6,-0.1,340,7,,10.0,30.318897,,,TRUE,TRUE,,,,,,,BKN,2400,OVC,3400,,,,,MVFR,,,,,,,,,,,,SPECI,230.0
KLVL 150035Z AUTO 10SM OVC085 01/M02 A3021 RMK AO1 T00051021,KLVL,2019-01-15T00:35:00Z,36.78,-77.8,0.5,-2.1,,,,10.0,30.209646,,,TRUE,TRUE,,,,,,,OVC,8500,,,,,,,VFR,,,,,,,,,,,,SPECI,100.0
KLNQ 150035Z AUTO 36008KT 10SM OVC015 07/02 A3035 RMK AO2 T00690022,KLNQ,2019-01-15T00:35:00Z,29.35,-89.43,6.9,2.2,360,8,,10.0,30.351377,,,TRUE,TRUE,,,,,,,OVC,1500,,,,,,,MVFR,,,,,,,,,,,,METAR,1.0
KLCG 150035Z AUTO 36006KT 10SM CLR M01/M03 A3021 RMK AO2 T10121035,KLCG,2019-01-15T00:35:00Z,42.25,-96.98,-1.2,-3.5,360,6,,10.0,30.209646,,,TRUE,TRUE,,,,,,,CLR,,,,,,,,VFR,,,,,,,,,,,,METAR,436.0
KLAM 150035Z AUTO 00000KT 10SM OVC039 M01/M01 A3027 RMK AO2 T10081015,KLAM,2019-01-15T00:35:00Z,35.87,-106.27,-0.8,-1.5,0,0,,10.0,30.268702,,,TRUE,TRUE,,,,,,,OVC,3900,,,,,,,VFR,,,,,,,,,,,,METAR,2179.0
KL35 150035Z AUTO 25006KT 3SM -SN SCT004 BKN013 OVC046 00/00 A2994 RMK AO2 P0002,KL35,2019-01-15T00:35:00Z,34.27,-116.85,0.0,0.0,250,6,,3.0,29.940945,,,TRUE,TRUE,,,,,,-SN,SCT,400,BKN,1300,OVC,4600,,,MVFR,,,,,,0.02,,,,,,METAR,2059.0
KJWG 150035Z AUTO 18006KT 10SM CLR 04/02 A3031 RMK AO2 T00390022,KJWG,2019-01-15T00:35:00Z,35.87,-98.42,3.9,2.2,180,6,,10.0,30.31004,,,TRUE,TRUE,,,,,,,CLR,,,,,,,,VFR,,,,,,,,,,,,SPECI,472.0
KJOT 150035Z AUTO 27007KT 10SM OVC011 M03/M05 A3031 RMK AO2 T10321052,KJOT,2019-01-15T00:35:00Z,41.52,-88.18,-3.2,-5.2,270,7,,10.0,30.31004,,,TRUE,TRUE,,,,,,,OVC,1100,,,,,,,MVFR,,,,,,,,,,,,METAR,177.0
KONL 150035Z AUTO 36008KT 4SM BR OVC002 M02/M02 A3021 RMK AO2 T10191021,KONL,2019-01-15T00:35:00Z,42.47,-98.67,-1.9,-2.1,360,8,,4.0,30.209646,,,TRUE,TRUE,,,,,,BR,OVC,200,,,,,,,LIFR,,,,,,,,,,,,METAR,619.0
K06C 150035Z AUTO 25003KT 7SM OVC010 M05/M06 A3027 RMK AO2 T10461065,K06C,2019-01-15T00:35:00Z,41.98,-88.1,-4.6,-6.5,250,3,,7.0,30.268702,,,TRUE,TRUE,,,,,,,OVC,1000,,,,,,,MVFR,,,,,,,,,,,,METAR,244.0
K0R4 150035Z AUTO 34004KT 10SM OVC016 05/02 A3038 RMK AO2 T00480015,K0R4,2019-01-15T00:35:00Z,31.57,-91.5,4.8,1.5,340,4,,10.0,30.380905,,,TRUE,TRUE,,,,,,,OVC,1600,,,,,,,MVFR,,,,,,,,,,,,METAR,17.0
K1H2 150035Z AUTO 00000KT 10SM OVC021 M02/M05 A3036 RMK AO2 T10201050,K1H2,2019-01-15T00:35:00Z,39.07,-88.53,-2.0,-5.0,0,0,,10.0,30.360237,,,TRUE,TRUE,,,,,,,OVC,2100,,,,,,,MVFR,,,,,,,,,,,,SPECI,179.0
K19S 150035Z AUTO 24006KT 2 1/2SM BR OVC002 00/00 A3024 RMK AO2 VIS 1 3/4V3 1/2 T00021000,K19S,2019-01-15T00:35:00Z,37.48,-100.83,0.2,0.0,240,6,,2.5,30.239174,,,TRUE,TRUE,,,,,,BR,OVC,200,,,,,,,LIFR,,,,,,,,,,,,METAR,886.0
K11R 150035Z AUTO 00000KT 10SM CLR 07/04 A3039 RMK AO2 T00700036,K11R,2019-01-15T00:35:00Z,30.22,-96.37,7.0,3.6,0,0,,10.0,30.389763,,,TRUE,TRUE,,,,,,,CLR,,,,,,,,VFR,,,,,,,,,,,,METAR,94.0
K2J3 150035Z AUTO 00000KT 10SM OVC034 07/06 A3021 RMK AO2 T00730064,K2J3,2019-01-15T00:35:00Z,32.98,-82.38,7.3,6.4,0,0,,10.0,30.209646,,,TRUE,TRUE,,,,,,,OVC,3400,,,,,,,VFR,,,,,,,,,,,,METAR,100.0
K3F3 150035Z AUTO 36004KT 10SM OVC021 05/01 A3045 RMK AO2 T00510010,K3F3,2019-01-15T00:35:00Z,32.07,-93.77,5.1,1.0,360,4,,10.0,30.448818,,,TRUE,TRUE,,,,,,,OVC,2100,,,,,,,MVFR,,,,,,,,,,,,METAR,96.0
K3AU 150035Z AUTO 16005KT 7SM OVC008 00/00 A3030 RMK AO2,K3AU,2019-01-15T00:35:00Z,37.67,-97.08,0.0,0.0,160,5,,7.0,30.301182,,,TRUE,TRUE,,,,,,,OVC,800,,,,,,,IFR,,,,,,,,,,,,METAR,405.0
K2J5 150035Z AUTO 00000KT 10SM OVC034 06/06 A3022 RMK AO2 PWINO T00650061,K2J5,2019-01-15T00:35:00Z,32.9,-81.97,6.5,6.1,0,0,,10.0,30.221457,,,TRUE,TRUE,,,,,TRUE,,OVC,3400,,,,,,,VFR,,,,,,,,,,,,METAR,72.0
K40J 150035Z AUTO 34005KT 10SM OVC024 10/05 A3025 RMK AO2 T01010050,K40J,2019-01-15T00:35:00Z,30.07,-83.57,10.1,5.0,340,5,,10.0,30.250984,,,TRUE,TRUE,,,,,,,OVC,2400,,,,,,,MVFR,,,,,,,,,,,,METAR,13.0
K3K3 150035Z AUTO 01003KT 10SM CLR 00/M01 A3020 RMK AO2,K3K3,2019-01-15T00:35:00Z,38.0,-101.75,0.0,-1.0,10,3,,10.0,30.200787,,,TRUE,TRUE,,,,,,,CLR,,,,,,,,VFR,,,,,,,,,,,,METAR,1013.0
K49A 150035Z AUTO 00000KT 10SM OVC017 03/01 A3026 RMK AO2 T00310009,K49A,2019-01-15T00:35:00Z,34.63,-84.53,3.1,0.9,0,0,,10.0,30.259842,,,TRUE,TRUE,,,,,,,OVC,1700,,,,,,,MVFR,,,,,,,,,,,,METAR,453.0
K48A 150035Z AUTO 26005KT 10SM OVC036 08/05 A3022 RMK AO2 T00790047,K48A,2019-01-15T00:35:00Z,,,7.9,4.7,260,5,,10.0,30.221457,,,TRUE,TRUE,,,,,,,OVC,3600,,,,,,,VFR,,,,,,,,,,,,METAR,
K4V0 150035Z AUTO 33004KT 10SM OVC015 M06/M09 A3036 RMK AO2 T10631090,K4V0,2019-01-15T00:35:00Z,40.1,-108.77,-6.3,-9.0,330,4,,10.0,30.360237,,,TRUE,TRUE,,,,,,,OVC,1500,,,,,,,MVFR,,,,,,,,,,,,METAR,1608.0
K4A9 150035Z AUTO 34005KT 10SM OVC020 03/00 A3028 RMK AO2 T00291004,K4A9,2019-01-15T00:35:00Z,34.47,-85.72,2.9,-0.4,340,5,,10.0,30.280512,,,TRUE,TRUE,,,,,,,OVC,2000,,,,,,,MVFR,,,,,,,,,,,,METAR,267.0
K66R 150035Z AUTO 00000KT 10SM OVC065 09/02 A3040 RMK AO2 T00910020,K66R,2019-01-15T00:35:00Z,29.65,-96.52,9.1,2.0,0,0,,10.0,30.398623,,,TRUE,TRUE,,,,,,,OVC,6500,,,,,,,VFR,,,,,,,,,,,,METAR,74.0
K5C1 150035Z AUTO 00000KT 10SM OVC042 06/02 A3036 RMK AO1,K5C1,2019-01-15T00:35:00Z,29.72,-98.7,6.0,2.0,0,0,,10.0,30.360237,,,TRUE,TRUE,,,,,,,OVC,4200,,,,,,,VFR,,,,,,,,,,,,METAR,423.0
K5A6 150035Z AUTO 35004KT 10SM OVC016 04/01 A3037 RMK AO2 T00380007,K5A6,2019-01-15T00:35:00Z,33.47,-89.73,3.8,0.7,350,4,,10.0,30.369095,,,TRUE,TRUE,,,,,,,OVC,1600,,,,,,,MVFR,,,,,,,,,,,,METAR,111.0
K9A5 150035Z AUTO 00000KT 10SM OVC022 03/00 A3029 RMK AO2 T00341005,K9A5,2019-01-15T00:35:00Z,34.68,-85.28,3.4,-0.5,0,0,,10.0,30.28937,,,TRUE,TRUE,,,,,,,OVC,2200,,,,,,,MVFR,,,,,,,,,,,,METAR,237.0
K8A0 150035Z AUTO 36007KT 10SM OVC015 02/00 A3029 RMK AO2,K8A0,2019-01-15T00:35:00Z,34.23,-86.25,2.0,0.0,360,7,,10.0,30.28937,,,TRUE,TRUE,,,,,,,OVC,1500,,,,,,,MVFR,,,,,,,,,,,,METAR,315.0
K6R3 150035Z AUTO 00000KT 10SM CLR 07/05 A3039 RMK AO2 T00650045,K6R3,2019-01-15T00:35:00Z,30.35,-95.0,6.5,4.5,0,0,,10.0,30.389763,,,TRUE,TRUE,,,,,,,CLR,,,,,,,,VFR,,,,,,,,,,,,SPECI,46.0
K6P9 150035Z AUTO 21003KT 10SM OVC046 07/02 A3034 RMK AO2 T00680017,K6P9,2019-01-15T00:35:00Z,32.43,-98.6,6.8,1.7,210,3,,10.0,30.339567,,,TRUE,TRUE,,,,,,,OVC,4600,,,,,,,VFR,,,,,,,,,,,,METAR,449.0
K6B0 150035Z AUTO 00000KT 10SM CLR M12/M13 A3016 RMK AO2 T11221135,K6B0,2019-01-15T00:35:00Z,43.98,-73.1,-12.2,-13.5,0,0,,10.0,30.159449,,,TRUE,TRUE,,,,,,,CLR,,,,,,,,VFR,,,,,,,,,,,,METAR,149.0
KA08 150035Z AUTO 34006KT 10SM OVC015 05/02 A3033 RMK AO2 T00450022,KA08,2019-01-15T00:35:00Z,32.52,-87.38,4.5,2.2,340,6,,10.0,30.33071,,,TRUE,TRUE,,,,,,,OVC,1500,,,,,,,MVFR,,,,,,,,,,,,METAR,69.0
K9V9 150035Z AUTO 00000KT 4SM BR OVC003 M03/M03 A3022 RMK AO2 T10291029,K9V9,2019-01-15T00:35:00Z,43.77,-99.32,-2.9,-2.9,0,0,,4.0,30.221457,,,TRUE,TRUE,,,,,,BR,OVC,300,,,,,,,LIFR,,,,,,,,,,,,METAR,519.0
KAAA 150035Z AUTO 00000KT 7SM OVC010 M04/M05 A3032 RMK AO2 T10391049,KAAA,2019-01-15T00:35:00Z,40.17,-89.33,-3.9,-4.9,0,0,,7.0,30.318897,,,TRUE,TRUE,,,,,,,OVC,1000,,,,,,,MVFR,,,,,,,,,,,,METAR,182.0
KAFO 150035Z AUTO 00000KT 7SM CLR M18/M20 A3021 RMK AO2,KAFO,2019-01-15T00:35:00Z,42.72,-110.95,-18.0,-20.0,0,0,,7.0,30.209646,,,TRUE,TRUE,,,,,,,CLR,,,,,,,,VFR,,,,,,,,,,,,SPECI,1897.0
KAPS 150035Z AUTO 03006KT 10SM OVC019 07/03 A3037 RMK AO2 T00690025,KAPS,2019-01-15T00:35:00Z,30.08,-90.58,6.9,2.5,30,6,,10.0,30.369095,,,TRUE,TRUE,,,,,,,OVC,1900,,,,,,,MVFR,,,,,,,,,,,,METAR,2.0
KAQR 150035Z AUTO 00000KT 10SM CLR 01/00 A3039 RMK AO2,KAQR,2019-01-15T00:35:00Z,34.4,-96.15,1.0,0.0,0,0,,10.0,30.389763,,,TRUE,TRUE,,,,,,,CLR,,,,,,,,VFR,,,,,,,,,,,,METAR,189.0
KBDG 150035Z AUTO 00000KT 10SM 01/M02 A3031 RMK AO1 T00131016,KBDG,2019-01-15T00:35:00Z,37.58,-109.47,1.3,-1.6,0,0,,10.0,30.31004,,,TRUE,TRUE,,,,,,,,,,,,,,,,,,,,,,,,,,,SPECI,1788.0
KBCB 150035Z AUTO 00000KT 10SM OVC011 00/M01 A3018 RMK AO2 T00001008,KBCB,2019-01-15T00:35:00Z,37.22,-80.42,0.0,-0.8,0,0,,10.0,30.180119,,,TRUE,TRUE,,,,,,,OVC,1100,,,,,,,MVFR,,,,,,,,,,,,METAR,650.0
KASL 150035Z AUTO 00000KT 10SM OVC017 03/00 A3044 RMK AO1 T00301001,KASL,2019-01-15T00:35:00Z,32.52,-94.3,3.0,-0.1,0,0,,10.0,30.43996,,,TRUE,TRUE,,,,,,,OVC,1700,,,,,,,MVFR,,,,,,,,,,,,SPECI,109.0
KCWV 150035Z AUTO 00000KT 7SM OVC017 09/07 A3023 RMK AO2 T00920069,KCWV,2019-01-15T00:35:00Z,32.2,-81.87,9.2,6.9,0,0,,7.0,30.230314,,,TRUE,TRUE,,,,,,,OVC,1700,,,,,,,MVFR,,,,,,,,,,,,METAR,33.0
KCVC 150035Z AUTO 31008KT 10SM OVC034 07/02 A3021 RMK AO2 PNO,KCVC,2019-01-15T00:35:00Z,33.63,-83.85,7.0,2.0,310,8,,10.0,30.209646,,,TRUE,TRUE,,,,,,,OVC,3400,,,,,,,VFR,,,,,,,,,,,,METAR,247.0
KCTJ 150035Z AUTO 34010KT 10SM BKN013 OVC020 04/01 A3028 RMK AO2 T00390013,KCTJ,2019-01-15T00:35:00Z,33.63,-85.15,3.9,1.3,340,10,,10.0,30.280512,,,TRUE,TRUE,,,,,,,BKN,1300,OVC,2000,,,,,MVFR,,,,,,,,,,,,METAR,354.0
KCQB 150035Z AUTO 12005KT 7SM CLR 02/00 A3034 RMK AO2 T00201005,KCQB,2019-01-15T00:35:00Z,35.72,-96.82,2.0,-0.5,120,5,,7.0,30.339567,,,TRUE,TRUE,,,,,,,CLR,,,,,,,,VFR,,,,,,,,,,,,METAR,300.0
KCKF 150035Z AUTO 00000KT 10SM OVC028 08/04 A3025 RMK AO2 T00750040,KCKF,2019-01-15T00:35:00Z,31.98,-83.77,7.5,4.0,0,0,,10.0,30.250984,,,TRUE,TRUE,,,,,,,OVC,2800,,,,,,,MVFR,,,,,,,,,,,,METAR,91.0
KCFD 150035Z AUTO 29003KT 10SM CLR 07/02 A3039 RMK AO2 T00650023,KCFD,2019-01-15T00:35:00Z,30.72,-96.33,6.5,2.3,290,3,,10.0,30.389763,,,TRUE,TRUE,,,,,,,CLR,,,,,,,,VFR,,,,,,,,,,,,METAR,112.0
KC75 150035Z AUTO 26005KT 7SM OVC010 M03/M05 A3031 RMK AO2 T10281046,KC75,2019-01-15T00:35:00Z,41.02,-89.38,-2.8,-4.6,260,5,,7.0,30.31004,,,TRUE,TRUE,,,,,,,OVC,1000,,,,,,,MVFR,,,,,,,,,,,,METAR,173.0
KC09 150035Z AUTO 27008KT 10SM OVC012 M04/M06 A3031 RMK AO2 T10411060,KC09,2019-01-15T00:35:00Z,41.43,-88.42,-4.1,-6.0,270,8,,10.0,30.31004,,,TRUE,TRUE,,,,,,,OVC,1200,,,,,,,MVFR,,,,,,,,,,,,METAR,178.0
KBKD 150035Z AUTO 00000KT 10SM OVC048 08/02 A3034 RMK AO2 T00750018,KBKD,2019-01-15T00:35:00Z,32.72,-98.88,7.5,1.8,0,0,,10.0,30.339567,,,TRUE,TRUE,,,,,,,OVC,4800,,,,,,,VFR,,,,,,,,,,,,METAR,392.0
KBIE 150035Z AUTO 23008KT 3SM OVC003 01/01 A3024 RMK AO2 T00100007 PWINO,KBIE,2019-01-15T00:35:00Z,40.28,-96.75,1.0,0.7,230,8,,3.0,30.239174,,,TRUE,TRUE,,,,,TRUE,,OVC,300,,,,,,,LIFR,,,,,,,,,,,,METAR,403.0
KBHC 150035Z AUTO 00000KT 10SM OVC020 07/06 A3022 RMK AO2,KBHC,2019-01-15T00:35:00Z,31.72,-82.4,7.0,6.0,0,0,,10.0,30.221457,,,TRUE,TRUE,,,,,,,OVC,2000,,,,,,,MVFR,,,,,,,,,,,,METAR,61.0
KBGE 150035Z 10SM 08/03 A3027 RMK AO2 PWINO,KBGE,2019-01-15T00:35:00Z,30.97,-84.63,8.0,3.0,,,,10.0,30.268702,,,,TRUE,,,,,TRUE,,,,,,,,,,,,,,,,,,,,,,METAR,43.0
KCXE 150035Z AUTO 00000KT 10SM OVC085 00/00 A3021 RMK AO1 T00010001,KCXE,2019-01-15T00:35:00Z,36.78,-78.5,0.1,0.1,0,0,,10.0,30.209646,,,TRUE,TRUE,,,,,,,OVC,8500,,,,,,,VFR,,,,,,,,,,,,METAR,153.0
KDCY 150035Z AUTO 28004KT 10SM OVC026 M01/M04 A3034 RMK AO2 T10061045,KDCY,2019-01-15T00:35:00Z,38.7,-87.13,-0.6,-4.5,280,4,,10.0,30.339567,,,TRUE,TRUE,,,,,,,OVC,2600,,,,,,,MVFR,,,,,,,,,,,,METAR,144.0
KDBN 150035Z AUTO 00000KT 10SM SCT028 OVC038 07/06 A3024 RMK AO2,KDBN,2019-01-15T00:35:00Z,32.57,-82.98,7.0,6.0,0,0,,10.0,30.239174,,,TRUE,TRUE,,,,,,,SCT,2800,OVC,3800,,,,,VFR,,,,,,,,,,,,METAR,94.0
KLOM 150035Z AUTO 00000KT 10SM CLR M03/M10 A3017 RMK AO1,KLOM,2019-01-15T00:35:00Z,40.13,-75.27,-3.0,-10.0,0,0,,10.0,30.171259,,,TRUE,TRUE,,,,,,,CLR,,,,,,,,VFR,,,,,,,,,,,,SPECI,92.0
KLKU 150035Z AUTO 00000KT 10SM OVC085 M02/M03 A3025 RMK AO2 T10191029,KLKU,2019-01-15T00:35:00Z,38.02,-77.97,-1.9,-2.9,0,0,,10.0,30.250984,,,TRUE,TRUE,,,,,,,OVC,8500,,,,,,,VFR,,,,,,,,,,,,METAR,150.0
KLGC 150035Z AUTO 32007KT 10SM OVC030 07/03 A3026 RMK AO2 T00700032,KLGC,2019-01-15T00:35:00Z,33.0,-85.07,7.0,3.2,320,7,,10.0,30.259842,,,TRUE,TRUE,,,,,,,OVC,3000,,,,,,,MVFR,,,,,,,,,,,,METAR,211.0
KLCQ 150035Z AUTO 04003KT 10SM OVC023 09/05 A3022 RMK AO2,KLCQ,2019-01-15T00:35:00Z,30.18,-82.58,9.0,5.0,40,3,,10.0,30.221457,,,TRUE,TRUE,,,,,,,OVC,2300,,,,,,,MVFR,,,,,,,,,,,,METAR,61.0
KLCK 150035Z AUTO 25006KT 10SM OVC012 M04/M06 A3029 RMK AO2 T10371060,KLCK,2019-01-15T00:35:00Z,39.82,-82.92,-3.7,-6.0,250,6,,10.0,30.28937,,,TRUE,TRUE,,,,,,,OVC,1200,,,,,,,MVFR,,,,,,,,,,,,SPECI,227.0
KJZP 150035Z AUTO 36007KT 10SM OVC009 02/01 A3025 RMK AO2 T00220010 PNO,KJZP,2019-01-15T00:35:00Z,34.45,-84.47,2.2,1.0,360,7,,10.0,30.250984,,,TRUE,TRUE,,,,,,,OVC,900,,,,,,,IFR,,,,,,,,,,,,METAR,468.0
KJYO 150035Z AUTO 30003KT 10SM CLR M02/M03 A3021 RMK AO2,KJYO,2019-01-15T00:35:00Z,39.07,-77.57,-2.0,-3.0,300,3,,10.0,30.209646,,,TRUE,TRUE,,,,,,,CLR,,,,,,,,VFR,,,,,,,,,,,,METAR,119.0
KJKA 150035Z AUTO 35007G17KT 10SM OVC018 06/02 A3032 RMK AO2 T00560018,KJKA,2019-01-15T00:35:00Z,30.28,-87.67,5.6,1.8,350,7,17,10.0,30.318897,,,TRUE,TRUE,,,,,,,OVC,1800,,,,,,,MVFR,,,,,,,,,,,,METAR,5.0
KJCA 150035Z AUTO 29007KT 10SM OVC034 06/03 A3020 RMK AO2 PWINO T00610028,KJCA,2019-01-15T00:35:00Z,34.18,-83.57,6.1,2.8,290,7,,10.0,30.200787,,,TRUE,TRUE,,,,,TRUE,,OVC,3400,,,,,,,VFR,,,,,,,,,,,,METAR,290.0
KJAS 150035Z AUTO 05004KT 10SM CLR 07/04 A3041 RMK AO2 T00670037,KJAS,2019-01-15T00:35:00Z,30.88,-94.03,6.7,3.7,50,4,,10.0,30.410433,,,TRUE,TRUE,,,,,,,CLR,,,,,,,,VFR,,,,,,,,,,,,SPECI,65.0
KIJX 150035Z AUTO 25007KT 10SM OVC010 M01/M03 A3033 RMK AO2 T10151030,KIJX,2019-01-15T00:35:00Z,39.77,-90.25,-1.5,-3.0,250,7,,10.0,30.33071,,,TRUE,TRUE,,,,,,,OVC,1000,,,,,,,MVFR,,,,,,,,,,,,METAR,190.0
KI63 150035Z AUTO 26008KT 7SM OVC006 M03/M03 A3031 RMK AO2 T10261033,KI63,2019-01-15T00:35:00Z,39.98,-90.8,-2.6,-3.3,260,8,,7.0,30.31004,,,TRUE,TRUE,,,,,,,OVC,600,,,,,,,IFR,,,,,,,,,,,,METAR,223.0
KHYW 150035Z AUTO 00000KT 7SM SCT014 02/02 A3024 RMK AO2,KHYW,2019-01-15T00:35:00Z,33.83,-79.12,2.0,2.0,0,0,,7.0,30.239174,,,TRUE,TRUE,,,,,,,SCT,1400,,,,,,,VFR,,,,,,,,,,,,METAR,11.0
KHWY 150035Z AUTO 00000KT 5SM BR CLR M06/M08 A3020 RMK AO2 T10571077,KHWY,2019-01-15T00:35:00Z,38.58,-77.72,-5.7,-7.7,0,0,,5.0,30.200787,,,TRUE,TRUE,,,,,,BR,CLR,,,,,,,,MVFR,,,,,,,,,,,,METAR,103.0
KHTO 150035Z AUTO 00000KT 10SM CLR M06/M09 A3011 RMK AO2 T10571086,KHTO,2019-01-15T00:35:00Z,40.95,-72.25,-5.7,-8.6,0,0,,10.0,30.109253,,,TRUE,TRUE,,,,,,,CLR,,,,,,,,VFR,,,,,,,,,,,,SPECI,17.0
KHSG 150035Z AUTO 24004KT 10SM CLR M04/M12 A3011 RMK AO2 T10421124,KHSG,2019-01-15T00:35:00Z,43.72,-108.38,-4.2,-12.4,240,4,,10.0,30.109253,,,TRUE,TRUE,,,,,,,CLR,,,,,,,,VFR,,,,,,,,,,,,METAR,1494.0
KHHW 150035Z AUTO 17004KT 10SM OVC015 03/M01 A3039 RMK AO2 T00301008,KHHW,2019-01-15T00:35:00Z,34.03,-95.55,3.0,-0.8,170,4,,10.0,30.389763,,,TRUE,TRUE,,,,,,,OVC,1500,,,,,,,MVFR,,,,,,,,,,,,METAR,144.0
KHHG 150035Z AUTO 22003KT 10SM CLR M07/M10 A3029 RMK AO2 T10681102,KHHG,2019-01-15T00:35:00Z,40.85,-85.45,-6.8,-10.2,220,3,,10.0,30.28937,,,TRUE,TRUE,,,,,,,CLR,,,,,,,,VFR,,,,,,,,,,,,SPECI,246.0
KGLE 150035Z AUTO 18003KT 7SM CLR 02/00 A3038 RMK AO2 T00220000,KGLE,2019-01-15T00:35:00Z,33.65,-97.2,2.2,0.0,180,3,,7.0,30.380905,,,TRUE,TRUE,,,,,,,CLR,,,,,,,,VFR,,,,,,,,,,,,SPECI,256.0
KGGP 150035Z AUTO 27007KT 7SM OVC005 M06/M07 A3032 RMK AO2,KGGP,2019-01-15T00:35:00Z,40.72,-86.37,-6.0,-7.0,270,7,,7.0,30.318897,,,TRUE,TRUE,,,,,,,OVC,500,,,,,,,IFR,,,,,,,,,,,,SPECI,225.0
KGBG 150035Z AUTO 24005KT 4SM BR OVC006 M03/M03 A3031 RMK AO2 T10301035,KGBG,2019-01-15T00:35:00Z,40.93,-90.43,-3.0,-3.5,240,5,,4.0,30.31004,,,TRUE,TRUE,,,,,,BR,OVC,600,,,,,,,IFR,,,,,,,,,,,,METAR,233.0
KFZG 150035Z AUTO 00000KT 10SM OVC020 08/05 A3026 RMK AO2 T00830053 PWINO,KFZG,2019-01-15T00:35:00Z,31.68,-83.27,8.3,5.3,0,0,,10.0,30.259842,,,TRUE,TRUE,,,,,TRUE,,OVC,2000,,,,,,,MVFR,,,,,,,,,,,,METAR,111.0
KFKN 150035Z AUTO 00000KT 10SM CLR M01/M02 A3022 RMK AO2 T10111016,KFKN,2019-01-15T00:35:00Z,36.7,-76.9,-1.1,-1.6,0,0,,10.0,30.221457,,,TRUE,TRUE,,,,,,,CLR,,,,,,,,VFR,,,,,,,,,,,,METAR,12.0
KF70 150035Z AUTO 10005KT 4SM OVC019 09/08 A2998 RMK AO1 P0006,KF70,2019-01-15T00:35:00Z,33.57,-117.13,9.0,8.0,100,5,,4.0,29.97933,,,TRUE,TRUE,,,,,,,OVC,1900,,,,,,,MVFR,,,,,,0.06,,,,,,SPECI,412.0
KEZM 150035Z AUTO 00000KT 10SM OVC035 08/05 A3025 RMK AO2 T00750051,KEZM,2019-01-15T00:35:00Z,32.22,-83.13,7.5,5.1,0,0,,10.0,30.250984,,,TRUE,TRUE,,,,,,,OVC,3500,,,,,,,VFR,,,,,,,,,,,,METAR,93.0
KEQA 150035Z AUTO 20005KT 7SM OVC006 01/00 A3030 RMK AO2,KEQA,2019-01-15T00:35:00Z,37.78,-96.82,1.0,0.0,200,5,,7.0,30.301182,,,TRUE,TRUE,,,,,,,OVC,600,,,,,,,IFR,,,,,,,,,,,,METAR,420.0
KENL 150035Z AUTO 23003KT 4SM BR OVC025 M01/M01 A3035 RMK AO2 T10071014,KENL,2019-01-15T00:35:00Z,38.52,-89.1,-0.7,-1.4,230,3,,4.0,30.351377,,,TRUE,TRUE,,,,,,BR,OVC,2500,,,,,,,MVFR,,,,,,,,,,,,SPECI,163.0
KELK 150035Z AUTO 17008KT 10SM CLR 04/01 A3025 RMK AO2 T00410007,KELK,2019-01-15T00:35:00Z,35.43,-99.4,4.1,0.7,170,8,,10.0,30.250984,,,TRUE,TRUE,,,,,,,CLR,,,,,,,,VFR,,,,,,,,,,,,METAR,610.0
KELA 150035Z AUTO 00000KT 10SM OVC060 10/05 A3038 RMK AO2 T01000046,KELA,2019-01-15T00:35:00Z,29.6,-96.32,10.0,4.6,0,0,,10.0,30.380905,,,TRUE,TRUE,,,,,,,OVC,6000,,,,,,,VFR,,,,,,,,,,,,SPECI,56.0
KEHA 150035Z AUTO 00000KT 10SM CLR 04/02 A3022 RMK AO2 T00410023,KEHA,2019-01-15T00:35:00Z,37.0,-101.9,4.1,2.3,0,0,,10.0,30.221457,,,TRUE,TRUE,,,,,,,CLR,,,,,,,,VFR,,,,,,,,,,,,METAR,1099.0
KE38 150035Z AUTO 08003KT 10SM CLR 04/02 A3032 RMK AO2 T00400015,KE38,2019-01-15T00:35:00Z,30.38,-103.68,4.0,1.5,80,3,,10.0,30.318897,,,TRUE,TRUE,,,,,,,CLR,,,,,,,,VFR,,,,,,,,,,,,SPECI,1376.0
KE11 150035Z AUTO 19005KT 10SM OVC014 05/03 A3030 RMK AO2 T00520025,KE11,2019-01-15T00:35:00Z,32.33,-102.53,5.2,2.5,190,5,,10.0,30.301182,,,TRUE,TRUE,,,,,,,OVC,1400,,,,,,,MVFR,,,,,,,,,,,,SPECI,967.0
KDVK 150035Z AUTO 00000KT 10SM CLR M03/M04 A3032 RMK AO2,KDVK,2019-01-15T00:35:00Z,37.58,-84.77,-3.0,-4.0,0,0,,10.0,30.318897,,,TRUE,TRUE,,,,,,,CLR,,,,,,,,VFR,,,,,,,,,,,,METAR,312.0
KDUC 150035Z AUTO 00000KT 10SM CLR 04/00 A3036 RMK AO2 T00410003,KDUC,2019-01-15T00:35:00Z,34.47,-97.97,4.1,0.3,0,0,,10.0,30.360237,,,TRUE,TRUE,,,,,,,CLR,,,,,,,,VFR,,,,,,,,,,,,METAR,339.0
KDUB 150035Z AUTO 00000KT 10SM CLR M04/M13 A3013 RMK AO2,KDUB,2019-01-15T00:35:00Z,43.55,-109.68,-4.0,-13.0,0,0,,10.0,30.129921,,,TRUE,TRUE,,,,,,,CLR,,,,,,,,VFR,,,,,,,,,,,,METAR,2224.0
KLVN 150035Z AUTO 35005KT 10SM OVC014 M02/M03 A3023 RMK AO2,KLVN,2019-01-15T00:35:00Z,44.63,-93.23,-2.0,-3.0,350,5,,10.0,30.230314,,,TRUE,TRUE,,,,,,,OVC,1400,,,,,,,MVFR,,,,,,,,,,,,METAR,293.0
RJCH 150035Z 16010KT 9999 FEW020 BKN030 04/M02 Q1018 RMK 1CU020 6CU030 A3007,RJCH,2019-01-15T00:35:00Z,41.77,140.82,4.0,-2.0,160,10,,6.21,30.059055,,,,,,,,,,,FEW,2000,BKN,3000,,,,,MVFR,,,,,,,,,,,,SPECI,36.0
KOZS 150035Z AUTO 23006KT 7SM OVC005 00/M01 A3034 RMK AO2,KOZS,2019-01-15T00:35:00Z,37.97,-92.68,0.0,-1.0,230,6,,7.0,30.339567,,,TRUE,TRUE,,,,,,,OVC,500,,,,,,,IFR,,,,,,,,,,,,SPECI,324.0
KOSA 150035Z AUTO 00000KT 10SM OVC015 03/M01 A3043 RMK AO1 T00261008,KOSA,2019-01-15T00:35:00Z,33.1,-94.97,2.6,-0.8,0,0,,10.0,30.431103,,,TRUE,TRUE,,,,,,,OVC,1500,,,,,,,MVFR,,,,,,,,,,,,METAR,111.0
KORG 150035Z AUTO 00000KT 10SM CLR 08/05 A3040 RMK AO2 T00750045,KORG,2019-01-15T00:35:00Z,30.07,-93.8,7.5,4.5,0,0,,10.0,30.398623,,,TRUE,TRUE,,,,,,,CLR,,,,,,,,VFR,,,,,,,,,,,,METAR,4.0
KMGR 150035Z AUTO 32006KT 10SM OVC020 07/04 A3025 RMK AO2,KMGR,2019-01-15T00:35:00Z,31.08,-83.8,7.0,4.0,320,6,,10.0,30.250984,,,TRUE,TRUE,,,,,,,OVC,2000,,,,,,,MVFR,,,,,,,,,,,,METAR,90.0
KMFV 150035Z AUTO 34003KT 10SM CLR M02/M03 A3020 RMK AO2 T10161030,KMFV,2019-01-15T00:35:00Z,37.63,-75.77,-1.6,-3.0,340,3,,10.0,30.200787,,,TRUE,TRUE,,,,,,,CLR,,,,,,,,VFR,,,,,,,,,,,,METAR,15.0
KMDD 150035Z AUTO 18005KT 10SM 08/04 A3030 RMK AO2 T00800041,KMDD,2019-01-15T00:35:00Z,32.03,-102.1,8.0,4.1,180,5,,10.0,30.301182,,,TRUE,TRUE,,,,,,,,,,,,,,,,,,,,,,,,,,,SPECI,854.0
KM30 150035Z AUTO 00000KT 10SM OVC029 01/M02 A3038 RMK AO2 T00051022,KM30,2019-01-15T00:35:00Z,37.18,-88.75,0.5,-2.2,0,0,,10.0,30.380905,,,TRUE,TRUE,,,,,,,OVC,2900,,,,,,,MVFR,,,,,,,,,,,,METAR,117.0
KTDF 150035Z AUTO 00000KT 10SM SCT050 OVC080 01/00 A3023 RMK AO2,KTDF,2019-01-15T00:35:00Z,36.28,-78.98,1.0,0.0,0,0,,10.0,30.230314,,,TRUE,TRUE,,,,,,,SCT,5000,OVC,8000,,,,,VFR,,,,,,,,,,,,METAR,186.0
KRPJ 150035Z AUTO 25007KT 7SM OVC009 M04/M05 A3029 RMK AO2 T10451055,KRPJ,2019-01-15T00:35:00Z,41.88,-89.08,-4.5,-5.5,250,7,,7.0,30.28937,,,TRUE,TRUE,,,,,,,OVC,900,,,,,,,IFR,,,,,,,,,,,,METAR,238.0
KRNV 150035Z AUTO 35005KT 10SM OVC020 05/01 A3039 RMK AO2 T00450009,KRNV,2019-01-15T00:35:00Z,33.77,-90.75,4.5,0.9,350,5,,10.0,30.389763,,,TRUE,TRUE,,,,,,,OVC,2000,,,,,,,MVFR,,,,,,,,,,,,SPECI,41.0
KPPA 150035Z AUTO 16007KT 10SM CLR 08/01 A3021 RMK AO2 T00800014,KPPA,2019-01-15T00:35:00Z,35.62,-101.0,8.0,1.4,160,7,,10.0,30.209646,,,TRUE,TRUE,,,,,,,CLR,,,,,,,,VFR,,,,,,,,,,,,METAR,989.0
KPMU 150035Z AUTO 33004KT 10SM OVC019 04/01 A3038 RMK AO2,KPMU,2019-01-15T00:35:00Z,34.37,-89.9,4.0,1.0,330,4,,10.0,30.380905,,,TRUE,TRUE,,,,,,,OVC,1900,,,,,,,MVFR,,,,,,,,,,,,SPECI,67.0
KGHG 150035Z AUTO 27003KT 10SM CLR M05/M08 A3010 RMK AO2,KGHG,2019-01-15T00:35:00Z,42.1,-70.67,-5.0,-8.0,270,3,,10.0,30.100393,,,TRUE,TRUE,,,,,,,CLR,,,,,,,,VFR,,,,,,,,,,,,METAR,4.0
KFWC 150035Z AUTO 00000KT 10SM OVC028 00/M03 A3035 RMK AO1 T00001030,KFWC,2019-01-15T00:35:00Z,38.38,-88.42,0.0,-3.0,0,0,,10.0,30.351377,,,TRUE,TRUE,,,,,,,OVC,2800,,,,,,,MVFR,,,,,,,,,,,,METAR,133.0
KFVX 150035Z AUTO 00000KT 5SM BR BKN043 OVC080 00/00 A3021 RMK AO2 T00001001,KFVX,2019-01-15T00:35:00Z,37.35,-78.42,0.0,-0.1,0,0,,5.0,30.209646,,,TRUE,TRUE,,,,,,BR,BKN,4300,OVC,8000,,,,,MVFR,,,,,,,,,,,,SPECI,125.0
KFET 150035Z AUTO 21005KT 7SM OVC005 01/01 A3022 RMK AO2 T00130007,KFET,2019-01-15T00:35:00Z,41.45,-96.52,1.3,0.7,210,5,,7.0,30.221457,,,TRUE,TRUE,,,,,,,OVC,500,,,,,,,IFR,,,,,,,,,,,,METAR,367.0
KEZZ 150035Z AUTO 25010KT 3SM BR OVC003 M03/M04 A3031 RMK AO2 T10331037,KEZZ,2019-01-15T00:35:00Z,39.72,-94.28,-3.3,-3.7,250,10,,3.0,30.31004,,,TRUE,TRUE,,,,,,BR,OVC,300,,,,,,,LIFR,,,,,,,,,,,,SPECI,317.0
KEZF 150035Z AUTO 00000KT 10SM CLR M03/M04 A3021 RMK AO2 T10271037,KEZF,2019-01-15T00:35:00Z,38.27,-77.45,-2.7,-3.7,0,0,,10.0,30.209646,,,TRUE,TRUE,,,,,,,CLR,,,,,,,,VFR,,,,,,,,,,,,SPECI,26.0
KEFK 150035Z AUTO 24003KT 10SM CLR M14/M15 A3012 RMK AO2 T11361153,KEFK,2019-01-15T00:35:00Z,44.88,-72.23,-13.6,-15.3,240,3,,10.0,30.121063,,,TRUE,TRUE,,,,,,,CLR,,,,,,,,VFR,,,,,,,,,,,,METAR,284.0
KEBG 150035Z AUTO 01007KT 4SM BR OVC006 10/09 A3036 RMK AO2 T01000085,KEBG,2019-01-15T00:35:00Z,26.45,-98.13,10.0,8.5,10,7,,4.0,30.360237,,,TRUE,TRUE,,,,,,BR,OVC,600,,,,,,,IFR,,,,,,,,,,,,METAR,24.0
KDVO 150035Z AUTO 13006KT 4SM -DZ BKN030 OVC037 11/08 A2986 RMK AO2,KDVO,2019-01-15T00:35:00Z,38.15,-122.55,11.0,8.0,130,6,,4.0,29.861221,,,TRUE,TRUE,,,,,,-DZ,BKN,3000,OVC,3700,,,,,MVFR,,,,,,,,,,,,METAR,1.0
KDUA 150035Z AUTO 00000KT 10SM CLR 01/M01 A3039 RMK AO2,KDUA,2019-01-15T00:35:00Z,33.95,-96.4,1.0,-1.0,0,0,,10.0,30.389763,,,TRUE,TRUE,,,,,,,CLR,,,,,,,,VFR,,,,,,,,,,,,SPECI,213.0
KDED 150035Z AUTO 01007KT 10SM OVC030 11/09 A3019 RMK AO2,KDED,2019-01-15T00:35:00Z,29.07,-81.28,11.0,9.0,10,7,,10.0,30.188976,,,TRUE,TRUE,,,,,,,OVC,3000,,,,,,,MVFR,,,,,,,,,,,,SPECI,24.0
KD39 150035Z AUTO 00000KT 10SM CLR M08/M09 A3022 RMK AO2 T10791090,KD39,2019-01-15T00:35:00Z,45.7,-94.93,-7.9,-9.0,0,0,,10.0,30.221457,,,TRUE,TRUE,,,,,,,CLR,,,,,,,,VFR,,,,,,,,,,,,METAR,380.0
KCUH 150035Z AUTO 14003KT 10SM CLR 03/00 A3033 RMK AO2 T00261003,KCUH,2019-01-15T00:35:00Z,35.95,-96.77,2.6,-0.3,140,3,,10.0,30.33071,,,TRUE,TRUE,,,,,,,CLR,,,,,,,,VFR,,,,,,,,,,,,SPECI,279.0
KCTY 150035Z AUTO 35003KT 10SM OVC025 09/07 A3022 RMK AO2 T00890066,KCTY,2019-01-15T00:35:00Z,29.63,-83.1,8.9,6.6,350,3,,10.0,30.221457,,,TRUE,TRUE,,,,,,,OVC,2500,,,,,,,MVFR,,,,,,,,,,,,SPECI,13.0
KCHK 150035Z AUTO 19006KT 10SM CLR 04/00 A3029 RMK AO2 T00420005,KCHK,2019-01-15T00:35:00Z,35.1,-97.97,4.2,0.5,190,6,,10.0,30.28937,,,TRUE,TRUE,,,,,,,CLR,,,,,,,,VFR,,,,,,,,,,,,SPECI,351.0
KC65 150035Z AUTO VRB05KT 7SM OVC005 M05/M05 A3028 RMK A01,KC65,2019-01-15T00:35:00Z,41.37,-86.3,-5.0,-5.0,0,5,,7.0,30.280512,,,TRUE,TRUE,,,,,,,OVC,500,,,,,,,IFR,,,,,,,,,,,,METAR,244.0
KBVS 150035Z AUTO 32005KT 10SM CLR 05/02 A2997 RMK A01,KBVS,2019-01-15T00:35:00Z,48.47,-122.42,5.0,2.0,320,5,,10.0,29.970472,,,TRUE,TRUE,,,,,,,CLR,,,,,,,,VFR,,,,,,,,,,,,METAR,43.0
KBQP 150035Z AUTO 00000KT 10SM OVC018 05/01 A3041 RMK AO2 T00470006,KBQP,2019-01-15T00:35:00Z,32.75,-91.88,4.7,0.6,0,0,,10.0,30.410433,,,TRUE,TRUE,,,,,,,OVC,1800,,,,,,,MVFR,,,,,,,,,,,,SPECI,51.0
KBMT 150035Z AUTO 02003KT 10SM CLR 09/03 A3038 RMK AO2 T00870033,KBMT,2019-01-15T00:35:00Z,30.07,-94.22,8.7,3.3,20,3,,10.0,30.380905,,,TRUE,TRUE,,,,,,,CLR,,,,,,,,VFR,,,,,,,,,,,,METAR,10.0
KAUN 150035Z AUTO 00000KT 10SM SCT075 OVC090 10/03 A2989 RMK A01,KAUN,2019-01-15T00:35:00Z,38.95,-121.08,10.0,3.0,0,0,,10.0,29.890747,,,TRUE,TRUE,,,,,,,SCT,7500,OVC,9000,,,,,VFR,,,,,,,,,,,,METAR,467.0
KAUH 150035Z AUTO 23009KT 1/2SM FG OVC003 00/00 A3019 RMK AO2 T10011001,KAUH,2019-01-15T00:35:00Z,40.88,-98.0,-0.1,-0.1,230,9,,0.5,30.188976,,,TRUE,TRUE,,,,,,FG,OVC,300,,,,,,,LIFR,,,,,,,,,,,,METAR,550.0
KANW 150035Z AUTO 06005KT 10SM CLR M02/M03 A3017 RMK AO2 T10201030,KANW,2019-01-15T00:35:00Z,42.57,-100.0,-2.0,-3.0,60,5,,10.0,30.171259,,,TRUE,TRUE,,,,,,,CLR,,,,,,,,VFR,,,,,,,,,,,,METAR,789.0
KALX 150035Z AUTO 10SM OVC017 06/02 A3028 RMK AO2 T00560017,KALX,2019-01-15T00:35:00Z,32.92,-85.97,5.6,1.7,,,,10.0,30.280512,,,TRUE,TRUE,,,,,,,OVC,1700,,,,,,,MVFR,,,,,,,,,,,,SPECI,209.0
KAHQ 150035Z AUTO 21008KT 7SM OVC005 00/00 A3023 RMK AO2 T00020002,KAHQ,2019-01-15T00:35:00Z,41.23,-96.6,0.2,0.2,210,8,,7.0,30.230314,,,TRUE,TRUE,,,,,,,OVC,500,,,,,,,IFR,,,,,,,,,,,,METAR,374.0
KADH 150035Z AUTO 13004KT 10SM CLR 02/00 A3036 RMK AO2,KADH,2019-01-15T00:35:00Z,34.8,-96.67,2.0,0.0,130,4,,10.0,30.360237,,,TRUE,TRUE,,,,,,,CLR,,,,,,,,VFR,,,,,,,,,,,,SPECI,308.0
K4S2 150035Z AUTO 05009KT 040V140 10SM OVC018 00/M02 A3022 RMK AO2,K4S2,2019-01-15T00:35:00Z,45.68,-121.55,0.0,-2.0,50,9,,10.0,30.221457,,,TRUE,TRUE,,,,,,,OVC,1800,,,,,,,MVFR,,,,,,,,,,,,METAR,192.0
K3N8 150035Z AUTO 00000KT 5SM BR OVC003 M07/M08 A3023 RMK AO2 T10751082,K3N8,2019-01-15T00:35:00Z,47.25,-95.88,-7.5,-8.2,0,0,,5.0,30.230314,,,TRUE,TRUE,,,,,,BR,OVC,300,,,,,,,LIFR,,,,,,,,,,,,METAR,383.0
K3D2 150035Z AUTO 25005KT 7SM SCT011 SCT018 OVC023 M02/M04 A3016 RMK AO2 T10221040,K3D2,2019-01-15T00:35:00Z,45.13,-87.18,-2.2,-4.0,250,5,,7.0,30.159449,,,TRUE,TRUE,,,,,,,SCT,1100,SCT,1800,OVC,2300,,,MVFR,,,,,,,,,,,,METAR,234.0
K2I0 150035Z AUTO 29005KT 10SM OVC032 01/M01 A3036 RMK AO2 T00051014,K2I0,2019-01-15T00:35:00Z,37.35,-87.4,0.5,-1.4,290,5,,10.0,30.360237,,,TRUE,TRUE,,,,,,,OVC,3200,,,,,,,VFR,,,,,,,,,,,,SPECI,134.0
K1A6 150035Z AUTO 33004KT 10SM OVC016 01/M01 A3028 RMK AO2 T00081013,K1A6,2019-01-15T00:35:00Z,36.62,-83.73,0.8,-1.3,330,4,,10.0,30.280512,,,TRUE,TRUE,,,,,,,OVC,1600,,,,,,,MVFR,,,,,,,,,,,,SPECI,352.0
KPLU 150035Z AUTO 00000KT 10SM CLR 06/03 A2996 RMK AO2,KPLU,2019-01-15T00:35:00Z,47.1,-122.28,6.0,3.0,0,0,,10.0,29.958662,,,TRUE,TRUE,,,,,,,CLR,,,,,,,,VFR,,,,,,,,,,,,METAR,164.0
KPEZ 150035Z AUTO 06003KT 10SM OVC050 08/03 A3039 RMK AO2 T00790025,KPEZ,2019-01-15T00:35:00Z,28.95,-98.52,7.9,2.5,60,3,,10.0,30.389763,,,TRUE,TRUE,,,,,,,OVC,5000,,,,,,,VFR,,,,,,,,,,,,METAR,132.0
KPBX 150035Z AUTO 27003KT 5SM BR OVC003 M01/M01 A3025 RMK AO2 T10121012,KPBX,2019-01-15T00:35:00Z,37.57,-82.57,-1.2,-1.2,270,3,,5.0,30.250984,,,TRUE,TRUE,,,,,,BR,OVC,300,,,,,,,LIFR,,,,,,,,,,,,SPECI,449.0
KOPN 150035Z AUTO 00000KT 10SM OVC028 07/00 A3024 RMK AO2,KOPN,2019-01-15T00:35:00Z,32.95,-84.27,7.0,0.0,0,0,,10.0,30.239174,,,TRUE,TRUE,,,,,,,OVC,2800,,,,,,,MVFR,,,,,,,,,,,,METAR,243.0
KOPL 150035Z AUTO 03006KT 10SM OVC019 05/02 A3037 RMK AO2 T00520015,KOPL,2019-01-15T00:35:00Z,30.55,-92.1,5.2,1.5,30,6,,10.0,30.369095,,,TRUE,TRUE,,,,,,,OVC,1900,,,,,,,MVFR,,,,,,,,,,,,METAR,23.0
KONM 150035Z AUTO 35003KT 10SM CLR 06/01 A3025 RMK AO2 T00600011,KONM,2019-01-15T00:35:00Z,34.02,-106.9,6.0,1.1,350,3,,10.0,30.250984,,,TRUE,TRUE,,,,,,,CLR,,,,,,,,VFR,,,,,,,,,,,,SPECI,1410.0
KOLY 150035Z AUTO 00000KT 10SM OVC026 M01/M03 A3036 RMK AO2 T10101029,KOLY,2019-01-15T00:35:00Z,38.72,-88.18,-1.0,-2.9,0,0,,10.0,30.360237,,,TRUE,TRUE,,,,,,,OVC,2600,,,,,,,MVFR,,,,,,,,,,,,SPECI,147.0
KOGA 150035Z AUTO 29003KT 10SM CLR M01/M11 A3014 RMK AO2 T10121111,KOGA,2019-01-15T00:35:00Z,41.12,-101.77,-1.2,-11.1,290,3,,10.0,30.138779,,,TRUE,TRUE,,,,,,,CLR,,,,,,,,VFR,,,,,,,,,,,,SPECI,999.0
KMYZ 150035Z AUTO 25008KT 7SM OVC003 00/00 A3027 RMK AO2,KMYZ,2019-01-15T00:35:00Z,39.85,-96.63,0.0,0.0,250,8,,7.0,30.268702,,,TRUE,TRUE,,,,,,,OVC,300,,,,,,,LIFR,,,,,,,,,,,,METAR,319.0
KMTV 150035Z AUTO 00000KT 2 1/2SM BR BKN028 OVC049 02/02 A3022 RMK AO2 T00150015,KMTV,2019-01-15T00:35:00Z,36.63,-80.02,1.5,1.5,0,0,,2.5,30.221457,,,TRUE,TRUE,,,,,,BR,BKN,2800,OVC,4900,,,,,IFR,,,,,,,,,,,,METAR,287.0
KMLE 150035Z AUTO 21004KT 10SM OVC006 01/00 A3025 RMK AO2 T00071002,KMLE,2019-01-15T00:35:00Z,41.2,-96.12,0.7,-0.2,210,4,,10.0,30.250984,,,TRUE,TRUE,,,,,,,OVC,600,,,,,,,IFR,,,,,,,,,,,,SPECI,320.0
KVER 150035Z AUTO 25005KT 7SM OVC005 M01/ A3035 RMK AO2 T1015,KVER,2019-01-15T00:35:00Z,38.95,-92.68,-1.5,,250,5,,7.0,30.351377,,,TRUE,TRUE,,,,,,,OVC,500,,,,,,,IFR,,,,,,,,,,,,METAR,218.0
KOXI 150035Z AUTO 23007KT 10SM OVC006 M05/M06 A3030 RMK AO1,KOXI,2019-01-15T00:35:00Z,41.33,-86.67,-5.0,-6.0,230,7,,10.0,30.301182,,,TRUE,TRUE,,,,,,,OVC,600,,,,,,,IFR,,,,,,,,,,,,SPECI,209.0
KSBO 150035Z AUTO 00000KT 10SM OVC034 08/07 A3022 RMK AO2,KSBO,2019-01-15T00:35:00Z,32.62,-82.37,8.0,7.0,0,0,,10.0,30.221457,,,TRUE,TRUE,,,,,,,OVC,3400,,,,,,,VFR,,,,,,,,,,,,METAR,100.0
KSAA 150035Z AUTO 00000KT 10SM CLR M12/M15 A3024 RMK AO2,KSAA,2019-01-15T00:35:00Z,41.45,-106.83,-12.0,-15.0,0,0,,10.0,30.239174,,,TRUE,TRUE,,,,,,,CLR,,,,,,,,VFR,,,,,,,,,,,,SPECI,2138.0
KRZN 150035Z AUTO 00000KT 10SM OVC018 M02/M04 A3022 RMK AO2 T10231043,KRZN,2019-01-15T00:35:00Z,45.82,-92.37,-2.3,-4.3,0,0,,10.0,30.221457,,,TRUE,TRUE,,,,,,,OVC,1800,,,,,,,MVFR,,,,,,,,,,,,SPECI,301.0
KREG 150035Z AUTO 36006KT 10SM OVC019 06/02 A3036 RMK AO2 T00600019,KREG,2019-01-15T00:35:00Z,30.17,-90.93,6.0,1.9,360,6,,10.0,30.360237,,,TRUE,TRUE,,,,,,,OVC,1900,,,,,,,MVFR,,,,,,,,,,,,METAR,4.0
KRCR 150035Z AUTO 24007KT 7SM OVC006 M04/M06 A3030 RMK AO2,KRCR,2019-01-15T00:35:00Z,41.07,-86.18,-4.0,-6.0,240,7,,7.0,30.301182,,,TRUE,TRUE,,,,,,,OVC,600,,,,,,,IFR,,,,,,,,,,,,METAR,241.0
KPXE 150035Z AUTO 32009G15KT 10SM OVC034 08/03 A3023 RMK AO2 T00820031,KPXE,2019-01-15T00:35:00Z,32.52,-83.77,8.2,3.1,320,9,15,10.0,30.230314,,,TRUE,TRUE,,,,,,,OVC,3400,,,,,,,VFR,,,,,,,,,,,,METAR,127.0
KPVW 150035Z AUTO 20008KT 10SM CLR 06/00 A3022 RMK AO2 T00590000,KPVW,2019-01-15T00:35:00Z,34.17,-101.72,5.9,0.0,200,8,,10.0,30.221457,,,TRUE,TRUE,,,,,,,CLR,,,,,,,,VFR,,,,,,,,,,,,METAR,1028.0
KPRG 150035Z AUTO 00000KT 7SM OVC022 M09/M10 A3035 RMK AO2 T10901103,KPRG,2019-01-15T00:35:00Z,39.7,-87.67,-9.0,-10.3,0,0,,7.0,30.351377,,,TRUE,TRUE,,,,,,,OVC,2200,,,,,,,MVFR,,,,,,,,,,,,SPECI,199.0
KWDR 150035Z AUTO 30007KT 10SM OVC033 07/02 A3023 RMK AO2,KWDR,2019-01-15T00:35:00Z,33.98,-83.67,7.0,2.0,300,7,,10.0,30.230314,,,TRUE,TRUE,,,,,,,OVC,3300,,,,,,,VFR,,,,,,,,,,,,SPECI,287.0
KW22 150035Z AUTO 00000KT 2SM -SN BKN004 BKN007 OVC010 M02/M02 A3021 RMK AO2,KW22,2019-01-15T00:35:00Z,39.0,-80.27,-2.0,-2.0,0,0,,2.0,30.209646,,,TRUE,TRUE,,,,,,-SN,BKN,400,BKN,700,OVC,1000,,,LIFR,,,,,,,,,,,,METAR,499.0
KUTA 150035Z AUTO 00000KT 10SM 02/01 A3040 RMK AO2 TSNO,KUTA,2019-01-15T00:35:00Z,34.68,-90.35,2.0,1.0,0,0,,10.0,30.398623,,,TRUE,TRUE,,,TRUE,,,,,,,,,,,,,,,,,,,,,,,,SPECI,59.0
KTXW 150035Z AUTO 03007KT 5SM BR OVC006 09/08 A3034 RMK AO2 T00930082,KTXW,2019-01-15T00:35:00Z,26.18,-97.97,9.3,8.2,30,7,,5.0,30.339567,,,TRUE,TRUE,,,,,,BR,OVC,600,,,,,,,IFR,,,,,,,,,,,,METAR,21.0
KTIF 150035Z AUTO 05003KT 10SM CLR 01/M04 A3016 RMK AO2 T00071041,KTIF,2019-01-15T00:35:00Z,41.97,-100.57,0.7,-4.1,50,3,,10.0,30.159449,,,TRUE,TRUE,,,,,,,CLR,,,,,,,,VFR,,,,,,,,,,,,METAR,892.0
KTEX 150035Z AUTO 26003KT 10SM SCT070 M02/M07 A3025 RMK AO2,KTEX,2019-01-15T00:35:00Z,37.95,-107.9,-2.0,-7.0,260,3,,10.0,30.250984,,,TRUE,TRUE,,,,,,,SCT,7000,,,,,,,VFR,,,,,,,,,,,,METAR,2769.0
KTBR 150035Z AUTO 00000KT 10SM OVC015 07/06 A3023 RMK AO2 T00700062,KTBR,2019-01-15T00:35:00Z,32.48,-81.73,7.0,6.2,0,0,,10.0,30.230314,,,TRUE,TRUE,,,,,,,OVC,1500,,,,,,,MVFR,,,,,,,,,,,,SPECI,57.0
KSWW 150035Z AUTO 00000KT 10SM OVC027 07/03 A3034 RMK AO2 T00650030,KSWW,2019-01-15T00:35:00Z,32.47,-100.47,6.5,3.0,0,0,,10.0,30.339567,,,TRUE,TRUE,,,,,,,OVC,2700,,,,,,,MVFR,,,,,,,,,,,,METAR,727.0
KSVE 150035Z AUTO 17003KT 10SM FEW060 BKN095 03/M05 A2994 RMK AO2,KSVE,2019-01-15T00:35:00Z,40.37,-120.57,3.0,-5.0,170,3,,10.0,29.940945,,,TRUE,TRUE,,,,,,,FEW,6000,BKN,9500,,,,,VFR,,,,,,,,,,,,METAR,1263.0
KSTE 150035Z AUTO 23005KT 1 3/4SM BR OVC004 M04/M04 A3019 RMK AO2 T10411041,KSTE,2019-01-15T00:35:00Z,44.55,-89.53,-4.1,-4.1,230,5,,1.75,30.188976,,,TRUE,TRUE,,,,,,BR,OVC,400,,,,,,,LIFR,,,,,,,,,,,,METAR,338.0
KSRR 150035Z AUTO 15003KT 10SM CLR 04/00 A3026 RMK AO2,KSRR,2019-01-15T00:35:00Z,33.47,-105.52,4.0,0.0,150,3,,10.0,30.259842,,,TRUE,TRUE,,,,,,,CLR,,,,,,,,VFR,,,,,,,,,,,,METAR,2076.0
KSOA 150035Z AUTO 00000KT 10SM OVC029 08/04 A3037 RMK AO2,KSOA,2019-01-15T00:35:00Z,30.58,-100.65,8.0,4.0,0,0,,10.0,30.369095,,,TRUE,TRUE,,,,,,,OVC,2900,,,,,,,MVFR,,,,,,,,,,,,METAR,652.0
KSNL 150035Z AUTO 16006KT 10SM CLR 03/00 A3034 RMK AO2 T00291005,KSNL,2019-01-15T00:35:00Z,35.35,-96.95,2.9,-0.5,160,6,,10.0,30.339567,,,TRUE,TRUE,,,,,,,CLR,,,,,,,,VFR,,,,,,,,,,,,SPECI,327.0
KSJS 150035Z AUTO 00000KT 10SM BKN008 OVC015 M01/M01 A3027 RMK AO2 T10071007,KSJS,2019-01-15T00:35:00Z,37.75,-82.63,-0.7,-0.7,0,0,,10.0,30.268702,,,TRUE,TRUE,,,,,,,BKN,800,OVC,1500,,,,,IFR,,,,,,,,,,,,SPECI,372.0
KSBS 150035Z AUTO 00000KT 10SM CLR M12/M17 A3027 RMK AO1 T11231166,KSBS,2019-01-15T00:35:00Z,40.52,-106.87,-12.3,-16.6,0,0,,10.0,30.268702,,,TRUE,TRUE,,,,,,,CLR,,,,,,,,VFR,,,,,,,,,,,,METAR,2096.0
KRWV 150035Z AUTO 36004KT 10SM CLR 07/02 A3039 RMK AO2 T00650020,KRWV,2019-01-15T00:35:00Z,30.52,-96.7,6.5,2.0,360,4,,10.0,30.389763,,,TRUE,TRUE,,,,,,,CLR,,,,,,,,VFR,,,,,,,,,,,,METAR,119.0
KCCB 150035Z AUTO 08008KT 2SM BR OVC019 10/08 A2997 RMK AO2,KCCB,2019-01-15T00:35:00Z,34.12,-117.68,10.0,8.0,80,8,,2.0,29.970472,,,TRUE,TRUE,,,,,,BR,OVC,1900,,,,,,,IFR,,,,,,,,,,,,METAR,440.0
KO54 150035Z AUTO 00000KT 10SM FEW110 09/M04 A2985 RMK AO1,KO54,2019-01-15T00:35:00Z,40.75,-122.92,9.0,-4.0,0,0,,10.0,29.84941,,,TRUE,TRUE,,,,,,,FEW,11000,,,,,,,VFR,,,,,,,,,,,,METAR,717.0
KSHD 150035Z AUTO 00000KT 10SM BKN029 OVC080 M01/M04 A3020 RMK AO2 T10151042,KSHD,2019-01-15T00:35:00Z,38.27,-78.9,-1.5,-4.2,0,0,,10.0,30.200787,,,TRUE,TRUE,,,,,,,BKN,2900,OVC,8000,,,,,MVFR,,,,,,,,,,,,METAR,366.0
KPPO 150035Z AUTO 24005KT 7SM SCT007 M05/M06 A3029 RMK AO2 T10471060,KPPO,2019-01-15T00:35:00Z,41.57,-86.73,-4.7,-6.0,240,5,,7.0,30.28937,,,TRUE,TRUE,,,,,,,SCT,700,,,,,,,VFR,,,,,,,,,,,,SPECI,248.0
KPNT 150035Z AUTO 25009KT 7SM OVC009 M04/M04 A3032 RMK AO2 T10401041,KPNT,2019-01-15T00:35:00Z,40.92,-88.62,-4.0,-4.1,250,9,,7.0,30.318897,,,TRUE,TRUE,,,,,,,OVC,900,,,,,,,IFR,,,,,,,,,,,,METAR,201.0
KPNA 150035Z AUTO 31003KT 10SM CLR M17/M20 A3024 RMK AO2,KPNA,2019-01-15T00:35:00Z,42.8,-109.8,-17.0,-20.0,310,3,,10.0,30.239174,,,TRUE,TRUE,,,,,,,CLR,,,,,,,,VFR,,,,,,,,,,,,SPECI,2160.0
KPMV 150035Z AUTO 24007KT 4SM BR OVC004 00/00 A3025 RMK AO2 T00001005,KPMV,2019-01-15T00:35:00Z,40.95,-95.92,0.0,-0.5,240,7,,4.0,30.250984,,,TRUE,TRUE,,,,,,BR,OVC,400,,,,,,,LIFR,,,,,,,,,,,,SPECI,367.0
KOZA 150035Z AUTO 10SM OVC023 07/03 A3035 RMK AO2,KOZA,2019-01-15T00:35:00Z,30.73,-101.2,7.0,3.0,,,,10.0,30.351377,,,TRUE,TRUE,,,,,,,OVC,2300,,,,,,,MVFR,,,,,,,,,,,,SPECI,726.0
KRTS 150035Z AUTO 14006KT 10SM FEW070 BKN090 02/M06 A2992 RMK AO2,KRTS,2019-01-15T00:35:00Z,39.67,-119.88,2.0,-6.0,140,6,,10.0,29.920275,,,TRUE,TRUE,,,,,,,FEW,7000,BKN,9000,,,,,VFR,,,,,,,,,,,,SPECI,1540.0
KRPH 150035Z AUTO 17003KT 10SM CLR 06/02 A3033 RMK AO2 T00550015,KRPH,2019-01-15T00:35:00Z,33.12,-98.55,5.5,1.5,170,3,,10.0,30.33071,,,TRUE,TRUE,,,,,,,CLR,,,,,,,,VFR,,,,,,,,,,,,SPECI,342.0
KRNC 150035Z AUTO 01004KT 10SM OVC017 01/M01 A3030 RMK A01,KRNC,2019-01-15T00:35:00Z,35.7,-85.85,1.0,-1.0,10,4,,10.0,30.301182,,,TRUE,TRUE,,,,,,,OVC,1700,,,,,,,MVFR,,,,,,,,,,,,SPECI,315.0
KSIK 150035Z AUTO 00000KT 10SM OVC026 02/00 A3037 RMK AO2,KSIK,2019-01-15T00:35:00Z,36.9,-89.57,2.0,0.0,0,0,,10.0,30.369095,,,TRUE,TRUE,,,,,,,OVC,2600,,,,,,,MVFR,,,,,,,,,,,,SPECI,96.0
KSCX 150035Z AUTO 35005KT 10SM OVC012 M00/M02 A3026 RMK A01,KSCX,2019-01-15T00:35:00Z,36.45,-84.58,0.0,-2.0,350,5,,10.0,30.259842,,,TRUE,TRUE,,,,,,,OVC,1200,,,,,,,MVFR,,,,,,,,,,,,METAR,471.0
KSCF 150035Z AUTO 02008G15KT 10SM BKN022 09/04 A3028 RMK A01,KSCF,2019-01-15T00:35:00Z,29.12,-91.87,9.0,4.0,20,8,15,10.0,30.280512,,,TRUE,TRUE,,,,,,,BKN,2200,,,,,,,MVFR,,,,,,,,,,,,SPECI,8.0
KS52 150035Z AUTO 00000KT 5SM BR OVC003 M07/M08 A3025 RMK AO2 T10741084,KS52,2019-01-15T00:35:00Z,48.38,-120.15,-7.4,-8.4,0,0,,5.0,30.250984,,,TRUE,TRUE,,,,,,BR,OVC,300,,,,,,,LIFR,,,,,,,,,,,,METAR,520.0
KS39 150035Z AUTO 30005KT 10SM CLR 00/M05 A3003 RMK AO2,KS39,2019-01-15T00:35:00Z,44.28,-120.9,0.0,-5.0,300,5,,10.0,30.029528,,,TRUE,TRUE,,,,,,,CLR,,,,,,,,VFR,,,,,,,,,,,,SPECI,991.0
KRZR 150035Z AUTO 32004KT 10SM OVC026 04/01 A3026 RMK A01,KRZR,2019-01-15T00:35:00Z,35.22,-84.8,4.0,1.0,320,4,,10.0,30.259842,,,TRUE,TRUE,,,,,,,OVC,2600,,,,,,,MVFR,,,,,,,,,,,,SPECI,263.0
KRZL 150035Z AUTO 23007KT 10SM OVC009 M05/M07 A3031 RMK AO2,KRZL,2019-01-15T00:35:00Z,40.95,-87.18,-5.0,-7.0,230,7,,10.0,30.31004,,,TRUE,TRUE,,,,,,,OVC,900,,,,,,,IFR,,,,,,,,,,,,SPECI,213.0
KSNH 150035Z AUTO 00000KT 10SM OVC013 03/01 A3035 RMK A01,KSNH,2019-01-15T00:35:00Z,35.17,-88.22,3.0,1.0,0,0,,10.0,30.351377,,,TRUE,TRUE,,,,,,,OVC,1300,,,,,,,MVFR,,,,,,,,,,,,SPECI,144.0
KMOR 150035Z AUTO 33008KT 10SM SCT019 BKN024 OVC033 01/M01 A3024 RMK A01,KMOR,2019-01-15T00:35:00Z,36.18,-83.37,1.0,-1.0,330,8,,10.0,30.239174,,,TRUE,TRUE,,,,,,,SCT,1900,BKN,2400,OVC,3300,,,MVFR,,,,,,,,,,,,SPECI,400.0
KMRC 150035Z AUTO 00000KT 10SM OVC021 02/02 A3032 RMK A01,KMRC,2019-01-15T00:35:00Z,35.55,-87.18,2.0,2.0,0,0,,10.0,30.318897,,,TRUE,TRUE,,,,,,,OVC,2100,,,,,,,MVFR,,,,,,,,,,,,SPECI,208.0
KBMC 150035Z AUTO 00000KT 10SM CLR M08/M12 A3029 RMK AO1 T10771119,KBMC,2019-01-15T00:35:00Z,41.55,-112.07,-7.7,-11.9,0,0,,10.0,30.28937,,,TRUE,TRUE,,,,,,,CLR,,,,,,,,VFR,,,,,,,,,,,,METAR,1288.0
KSYI 150035Z AUTO 32004KT 10SM OVC016 02/M00 A3032 RMK A01,KSYI,2019-01-15T00:35:00Z,35.57,-86.45,2.0,0.0,320,4,,10.0,30.318897,,,TRUE,TRUE,,,,,,,OVC,1600,,,,,,,MVFR,,,,,,,,,,,,SPECI,245.0
KSXU 150035Z AUTO 11006KT 10SM CLR 05/01 A3019 RMK AO2 T00500013,KSXU,2019-01-15T00:35:00Z,34.93,-104.65,5.0,1.3,110,6,,10.0,30.188976,,,TRUE,TRUE,,,,,,,CLR,,,,,,,,VFR,,,,,,,,,,,,SPECI,1460.0
KSRE 150035Z AUTO 14004KT 10SM FEW021 02/M01 A3034 RMK AO2,KSRE,2019-01-15T00:35:00Z,35.27,-96.68,2.0,-1.0,140,4,,10.0,30.339567,,,TRUE,TRUE,,,,,,,FEW,2100,,,,,,,VFR,,,,,,,,,,,,SPECI,312.0
KSRB 150035Z AUTO 34004KT 5SM BR FEW008 OVC017 01/M00 A3029 RMK A01,KSRB,2019-01-15T00:35:00Z,36.05,-85.53,1.0,0.0,340,4,,5.0,30.28937,,,TRUE,TRUE,,,,,,BR,FEW,800,OVC,1700,,,,,MVFR,,,,,,,,,,,,SPECI,313.0
KSNK 150035Z AUTO 18004KT 10SM OVC026 06/02 A3032 RMK AO2 T00560020,KSNK,2019-01-15T00:35:00Z,32.7,-100.95,5.6,2.0,180,4,,10.0,30.318897,,,TRUE,TRUE,,,,,,,OVC,2600,,,,,,,MVFR,,,,,,,,,,,,SPECI,741.0
KTCY 150035Z AUTO 12010KT 10SM BKN029 OVC060 11/09 A2988 RMK A01,KTCY,2019-01-15T00:35:00Z,37.68,-121.43,11.0,9.0,120,10,,10.0,29.878937,,,TRUE,TRUE,,,,,,,BKN,2900,OVC,6000,,,,,MVFR,,,,,,,,,,,,METAR,59.0
KSZY 150035Z AUTO 00000KT 9SM OVC009 02/00 A3035 RMK A01,KSZY,2019-01-15T00:35:00Z,,,2.0,0.0,0,0,,9.0,30.351377,,,TRUE,TRUE,,,,,,,OVC,900,,,,,,,IFR,,,,,,,,,,,,SPECI,
KSZT 150035Z AUTO 04008KT 10SM CLR M02/M07 A3021 RMK AO2,KSZT,2019-01-15T00:35:00Z,48.3,-116.57,-2.0,-7.0,40,8,,10.0,30.209646,,,TRUE,TRUE,,,,,,,CLR,,,,,,,,VFR,,,,,,,,,,,,SPECI,648.0
KMZG 150035Z AUTO 12013G18KT 10SM FEW046 OVC065 12/07 A3035 RMK A01,KMZG,2019-01-15T00:35:00Z,27.73,-96.18,12.0,7.0,120,13,18,10.0,30.351377,,,TRUE,TRUE,,,,,,,FEW,4600,OVC,6500,,,,,VFR,,,,,,,,,,,,SPECI,29.0
KMVH 150035Z AUTO 24004KT 10SM CLR 00/M12 A3004 RMK AO2,KMVH,2019-01-15T00:35:00Z,46.83,-108.93,0.0,-12.0,240,4,,10.0,30.041338,,,TRUE,TRUE,,,,,,,CLR,,,,,,,,VFR,,,,,,,,,,,,SPECI,1355.0
KMTK 150035Z AUTO 01008G17KT 340V060 10SM OVC015 08/05 A3033 RMK A01,KMTK,2019-01-15T00:35:00Z,,,8.0,5.0,10,8,17,10.0,30.33071,,,TRUE,TRUE,,,,,,,OVC,1500,,,,,,,MVFR,,,,,,,,,,,,METAR,
KTMT 150035Z AUTO 11006KT 10SM SCT065 OVC090 03/M06 A2999 RMK AO2 T00291057,KTMT,2019-01-15T00:35:00Z,39.47,-117.2,2.9,-5.7,110,6,,10.0,29.991142,,,TRUE,TRUE,,,,,,,SCT,6500,OVC,9000,,,,,VFR,,,,,,,,,,,,METAR,1748.0
KTHA 150035Z AUTO 32004KT 10SM FEW009 OVC014 01/M00 A3029 RMK A01,KTHA,2019-01-15T00:35:00Z,35.38,-86.25,1.0,0.0,320,4,,10.0,30.28937,,,TRUE,TRUE,,,,,,,FEW,900,OVC,1400,,,,,MVFR,,,,,,,,,,,,SPECI,331.0
KHDE 150035Z AUTO 23004KT 1/4SM FZFG OVC002 M02/M02 A3018 RMK AO2 T10171017,KHDE,2019-01-15T00:35:00Z,40.45,-99.32,-1.7,-1.7,230,4,,0.25,30.180119,,,TRUE,TRUE,,,,,,FZFG,OVC,200,,,,,,,LIFR,,,,,,,,,,,,METAR,705.0
KGRN 150035Z AUTO 00000KT 10SM CLR M01/M08 A3014 RMK AO2 T10111076,KGRN,2019-01-15T00:35:00Z,42.8,-102.17,-1.1,-7.6,0,0,,10.0,30.138779,,,TRUE,TRUE,,,,,,,CLR,,,,,,,,VFR,,,,,,,,,,,,METAR,1086.0
KGOP 150035Z AUTO 00000KT 10SM SCT049 07/02 A3038 RMK AO2,KGOP,2019-01-15T00:35:00Z,31.42,-97.8,7.0,2.0,0,0,,10.0,30.380905,,,TRUE,TRUE,,,,,,,SCT,4900,,,,,,,VFR,,,,,,,,,,,,METAR,276.0
KGIC 150035Z AUTO 15010KT 10SM CLR 00/M04 A3010 RMK AO1,KGIC,2019-01-15T00:35:00Z,45.95,-116.12,0.0,-4.0,150,10,,10.0,30.100393,,,TRUE,TRUE,,,,,,,CLR,,,,,,,,VFR,,,,,,,,,,,,METAR,1009.0
PAAD 150035Z AUTO 10025G30KT 1 1/4SM -SN BKN005 M26/M28 A3024 RMK AO2 T12561282,PAAD,2019-01-15T00:35:00Z,70.13,-146.28,-25.6,-28.2,100,25,30,1.25,30.239174,,,TRUE,TRUE,,,,,,-SN,BKN,500,,,,,,,IFR,,,,,,,,,,,,SPECI,8.0
KUYF 150035Z AUTO 00000KT M1/4SM FZFG VV000 M14/M15 A3027 RMK AO2,KUYF,2019-01-15T00:35:00Z,39.93,-83.47,-14.0,-15.0,0,0,,0.25,30.268702,,,TRUE,TRUE,,,,,,FZFG,OVX,0,,,,,,,LIFR,,,,,,,,,,,0,SPECI,330.0
KUCY 150035Z AUTO 32004KT 10SM OVC035 01/M01 A3037 RMK A01,KUCY,2019-01-15T00:35:00Z,36.38,-88.98,1.0,-1.0,320,4,,10.0,30.369095,,,TRUE,TRUE,,,,,,,OVC,3500,,,,,,,VFR,,,,,,,,,,,,SPECI,104.0
KU42 150035Z AUTO 33006KT 5SM CLR M05/M06 A3025 RMK AO1 T10471060,KU42,2019-01-15T00:35:00Z,40.62,-111.98,-4.7,-6.0,330,6,,5.0,30.250984,,,TRUE,TRUE,,,,,,,CLR,,,,,,,,MVFR,,,,,,,,,,,,SPECI,1402.0
KTYL 150035Z AUTO 00000KT 8SM FEW009 01/01 A3020 RMK AO2,KTYL,2019-01-15T00:35:00Z,,,1.0,1.0,0,0,,8.0,30.200787,,,TRUE,TRUE,,,,,,,FEW,900,,,,,,,VFR,,,,,,,,,,,,SPECI,
KTVI 150035Z AUTO 33003KT 10SM OVC021 08/05 A3025 RMK AO2,KTVI,2019-01-15T00:35:00Z,30.9,-83.88,8.0,5.0,330,3,,10.0,30.250984,,,TRUE,TRUE,,,,,,,OVC,2100,,,,,,,MVFR,,,,,,,,,,,,SPECI,80.0
KHJH 150035Z AUTO 24007KT 5SM BR OVC004 01/01 A3024 RMK AO2 T00110005,KHJH,2019-01-15T00:35:00Z,40.15,-97.58,1.1,0.5,240,7,,5.0,30.239174,,,TRUE,TRUE,,,,,,BR,OVC,400,,,,,,,LIFR,,,,,,,,,,,,METAR,447.0
KHSP 150035Z AUTO 00000KT OVC002 A3005 RMK AO2 PWINO,KHSP,2019-01-15T00:35:00Z,37.95,-79.82,,,0,0,,,30.050198,,,TRUE,TRUE,,,,,TRUE,,OVC,200,,,,,,,,,,,,,,,,,,,SPECI,1156.0
KHSB 150035Z AUTO 27004KT 10SM SCT013 OVC030 00/M01 A3037 RMK AO2 T10011013,KHSB,2019-01-15T00:35:00Z,37.82,-88.55,-0.1,-1.3,270,4,,10.0,30.369095,,,TRUE,TRUE,,,,,,,SCT,1300,OVC,3000,,,,,MVFR,,,,,,,,,,,,METAR,121.0
KHLX 150035Z AUTO 30006KT 10SM OVC009 00/00 A3012 RMK AO2 T00001005,KHLX,2019-01-15T00:35:00Z,36.77,-80.82,0.0,-0.5,300,6,,10.0,30.121063,,,TRUE,TRUE,,,,,,,OVC,900,,,,,,,IFR,,,,,,,,,,,,SPECI,834.0
KEAR 150035Z AUTO 23007KT 1/2SM -SN FZFG OVC003 M01/M02 A3019 RMK AO2 P0000 FZRANO,KEAR,2019-01-15T00:35:00Z,40.72,-99.0,-1.0,-2.0,230,7,,0.5,30.188976,,,TRUE,TRUE,,,,TRUE,,-SN FZFG,OVC,300,,,,,,,LIFR,,,,,,0.005,,,,,,SPECI,649.0
CYWG 150035Z 18011KT 15SM IC SCT006 OVC086 M11/M13 A3018 RMK SF3AC5 SLP243,CYWG,2019-01-15T00:35:00Z,49.88,-97.22,-11.0,-13.0,180,11,,15.0,30.180119,1024.3,,,,,,,,,IC,SCT,600,OVC,8600,,,,,VFR,,,,,,,,,,,,SPECI,239.0
K05U 150035Z AUTO 13006KT 10SM FEW038 SCT046 01/M05 A3006 RMK A01,K05U,2019-01-15T00:35:00Z,39.6,-116.0,1.0,-5.0,130,6,,10.0,30.059055,,,TRUE,TRUE,,,,,,,FEW,3800,SCT,4600,,,,,VFR,,,,,,,,,,,,METAR,1816.0
K0A9 150035Z AUTO 27003KT 10SM 03/01 A3020 RMK AO2,K0A9,2019-01-15T00:35:00Z,36.37,-82.17,3.0,1.0,270,3,,10.0,30.200787,,,TRUE,TRUE,,,,,,,,,,,,,,,,,,,,,,,,,,,SPECI,486.0
K13K 150035Z AUTO 22006KT 5SM BR OVC004 00/M01 A3033 RMK AO2 T10051010,K13K,2019-01-15T00:35:00Z,37.85,-96.3,-0.5,-1.0,220,6,,5.0,30.33071,,,TRUE,TRUE,,,,,,BR,OVC,400,,,,,,,LIFR,,,,,,,,,,,,SPECI,369.0
K18H 150035Z AUTO VRB06G19KT 6SM HZ BKN026 16/11 A3027 RMK A01,K18H,2019-01-15T00:35:00Z,26.13,-92.03,16.0,11.0,0,6,19,6.0,30.268702,,,TRUE,TRUE,,,,,,HZ,BKN,2600,,,,,,,MVFR,,,,,,,,,,,,METAR,10.0
K1U7 150035Z AUTO 00000KT 10SM CLR M16/M19 A3025 RMK A01,K1U7,2019-01-15T00:35:00Z,,,-16.0,-19.0,0,0,,10.0,30.250984,,,TRUE,TRUE,,,,,,,CLR,,,,,,,,VFR,,,,,,,,,,,,METAR,
K28J 150035Z AUTO 06006KT 10SM SCT017 BKN023 OVC036 11/08 A3021 RMK AO2,K28J,2019-01-15T00:35:00Z,29.65,-81.58,11.0,8.0,60,6,,10.0,30.209646,,,TRUE,TRUE,,,,,,,SCT,1700,BKN,2300,OVC,3600,,,MVFR,,,,,,,,,,,,SPECI,15.0
K2A0 150035Z AUTO 34003KT 10SM BKN021 OVC027 04/00 A3029 RMK A01,K2A0,2019-01-15T00:35:00Z,35.48,-84.93,4.0,0.0,340,3,,10.0,30.28937,,,TRUE,TRUE,,,,,,,BKN,2100,OVC,2700,,,,,MVFR,,,,,,,,,,,,SPECI,219.0
K2G9 150035Z AUTO 27005KT 10SM SCT010 OVC020 M03/M05 A3013 RMK AO2,K2G9,2019-01-15T00:35:00Z,40.03,-79.02,-3.0,-5.0,270,5,,10.0,30.129921,,,TRUE,TRUE,,,,,,,SCT,1000,OVC,2000,,,,,MVFR,,,,,,,,,,,,METAR,693.0
K2LS 150035Z AUTO 36006KT 10SM OVC017 07/03 A3037 RMK AO2,K2LS,2019-01-15T00:35:00Z,29.42,-90.3,7.0,3.0,360,6,,10.0,30.369095,,,TRUE,TRUE,,,,,,,OVC,1700,,,,,,,MVFR,,,,,,,,,,,,METAR,-2.0
K2M2 150035Z AUTO 32004KT 10SM BKN013 BKN017 OVC034 02/M00 A3031 RMK A01,K2M2,2019-01-15T00:35:00Z,35.23,-87.25,2.0,0.0,320,4,,10.0,30.31004,,,TRUE,TRUE,,,,,,,BKN,1300,BKN,1700,OVC,3400,,,MVFR,,,,,,,,,,,,SPECI,286.0
K33N 150035Z AUTO 28004KT 10SM CLR M05/M09 A3019 RMK A01,K33N,2019-01-15T00:35:00Z,39.22,-75.6,-5.0,-9.0,280,4,,10.0,30.188976,,,TRUE,TRUE,,,,,,,CLR,,,,,,,,VFR,,,,,,,,,,,,METAR,17.0
K3L4 150035Z AUTO 06008KT 10SM OVC024 A3037 RMK A01,K3L4,2019-01-15T00:35:00Z,29.8,-92.8,,,60,8,,10.0,30.369095,,,TRUE,TRUE,,,,,,,OVC,2400,,,,,,,MVFR,,,,,,,,,,,,SPECI,2.0
K3S8 150035Z AUTO 00000KT 10SM CLR 07/03 A2988 RMK AO2,K3S8,2019-01-15T00:35:00Z,42.5,-123.4,7.0,3.0,0,0,,10.0,29.878937,,,TRUE,TRUE,,,,,,,CLR,,,,,,,,VFR,,,,,,,,,,,,METAR,343.0
K3T5 150035Z AUTO 00000KT 10SM OVC060 10/03 A3037 RMK AO2 T01020031,K3T5,2019-01-15T00:35:00Z,29.9,-96.95,10.2,3.1,0,0,,10.0,30.369095,,,TRUE,TRUE,,,,,,,OVC,6000,,,,,,,VFR,,,,,,,,,,,,SPECI,99.0
K46U 150035Z AUTO 00000KT 10SM CLR M12/M16 A3024 RMK A01,K46U,2019-01-15T00:35:00Z,43.18,-111.05,-12.0,-16.0,0,0,,10.0,30.239174,,,TRUE,TRUE,,,,,,,CLR,,,,,,,,VFR,,,,,,,,,,,,METAR,1717.0
K4O4 150035Z AUTO 00000KT 10SM OVC016 02/M01 A3041 RMK AO2,K4O4,2019-01-15T00:35:00Z,33.92,-94.87,2.0,-1.0,0,0,,10.0,30.410433,,,TRUE,TRUE,,,,,,,OVC,1600,,,,,,,MVFR,,,,,,,,,,,,SPECI,144.0
K54A 150035Z AUTO 33006G13KT 10SM OVC029 14/11 A3016 RMK AO2,K54A,2019-01-15T00:35:00Z,26.85,-82.25,14.0,11.0,330,6,13,10.0,30.159449,,,TRUE,TRUE,,,,,,,OVC,2900,,,,,,,MVFR,,,,,,,,,,,,METAR,14.0
K5T9 150035Z AUTO 14003KT 10SM BKN027 OVC041 05/M01 A3036 RMK A01,K5T9,2019-01-15T00:35:00Z,28.85,-100.52,5.0,-1.0,140,3,,10.0,30.360237,,,TRUE,TRUE,,,,,,,BKN,2700,OVC,4100,,,,,MVFR,,,,,,,,,,,,METAR,270.0
K8A3 150035Z AUTO 00000KT 8SM OVC012 M00/M01 A3027 RMK A01,K8A3,2019-01-15T00:35:00Z,36.42,-85.32,0.0,-1.0,0,0,,8.0,30.268702,,,TRUE,TRUE,,,,,,,OVC,1200,,,,,,,MVFR,,,,,,,,,,,,SPECI,419.0
K6S0 150035Z AUTO 28011KT 10SM CLR 02/M14 A3006 RMK A01,K6S0,2019-01-15T00:35:00Z,45.8,-109.97,2.0,-14.0,280,11,,10.0,30.059055,,,TRUE,TRUE,,,,,,,CLR,,,,,,,,VFR,,,,,,,,,,,,METAR,1363.0
KA39 150035Z AUTO 09005KT 10SM SCT090 SCT120 18/09 A3009 RMK AO2,KA39,2019-01-15T00:35:00Z,32.98,-111.92,18.0,9.0,90,5,,10.0,30.088583,,,TRUE,TRUE,,,,,,,SCT,9000,SCT,12000,,,,,VFR,,,,,,,,,,,,METAR,396.0
KAFK 150035Z AUTO 23011KT 4SM BR OVC003 00/00 A3026 RMK AO2 T00001005,KAFK,2019-01-15T00:35:00Z,40.6,-95.85,0.0,-0.5,230,11,,4.0,30.259842,,,TRUE,TRUE,,,,,,BR,OVC,300,,,,,,,LIFR,,,,,,,,,,,,METAR,354.0
KAIG 150035Z AUTO 27005KT 3SM BR OVC003 M03/M03 A3014 RMK AO2 T10301030,KAIG,2019-01-15T00:35:00Z,45.15,-89.12,-3.0,-3.0,270,5,,3.0,30.138779,,,TRUE,TRUE,,,,,,BR,OVC,300,,,,,,,LIFR,,,,,,,,,,,,METAR,464.0
KALM 150035Z AUTO 00000KT 10SM CLR 09/01 A3022 RMK AO2,KALM,2019-01-15T00:35:00Z,32.82,-105.97,9.0,1.0,0,0,,10.0,30.221457,,,TRUE,TRUE,,,,,,,CLR,,,,,,,,VFR,,,,,,,,,,,,METAR,1279.0
KAPY 150035Z AUTO 07003KT 7SM SCT012 OVC021 10/07 A3036 RMK AO2 T01010077,KAPY,2019-01-15T00:35:00Z,26.97,-99.25,10.1,7.7,70,3,,7.0,30.360237,,,TRUE,TRUE,,,,,,,SCT,1200,OVC,2100,,,,,MVFR,,,,,,,,,,,,METAR,129.0
KARW 150035Z AUTO 01005KT 7SM OVC015 07/04 A3023 RMK AO2,KARW,2019-01-15T00:35:00Z,32.42,-80.63,7.0,4.0,10,5,,7.0,30.230314,,,TRUE,TRUE,,,,,,,OVC,1500,,,,,,,MVFR,,,,,,,,,,,,SPECI,4.0
KASN 150035Z AUTO 01008KT 10SM OVC015 04/02 A3031 RMK AO2 T00420016,KASN,2019-01-15T00:35:00Z,33.57,-86.05,4.2,1.6,10,8,,10.0,30.31004,,,TRUE,TRUE,,,,,,,OVC,1500,,,,,,,MVFR,,,,,,,,,,,,SPECI,162.0
KAVK 150035Z AUTO 15009KT 9SM FEW041 04/02 A3026 RMK AO2,KAVK,2019-01-15T00:35:00Z,36.77,-98.67,4.0,2.0,150,9,,9.0,30.259842,,,TRUE,TRUE,,,,,,,FEW,4100,,,,,,,VFR,,,,,,,,,,,,SPECI,449.0
KAYS 150035Z AUTO 34005KT 10SM OVC018 09/06 A3023 RMK AO2 T00910061,KAYS,2019-01-15T00:35:00Z,31.25,-82.4,9.1,6.1,340,5,,10.0,30.230314,,,TRUE,TRUE,,,,,,,OVC,1800,,,,,,,MVFR,,,,,,,,,,,,SPECI,46.0
KBBD 150035Z AUTO 00000KT 10SM OVC036 06/02 A3034 RMK AO2,KBBD,2019-01-15T00:35:00Z,31.18,-99.32,6.0,2.0,0,0,,10.0,30.339567,,,TRUE,TRUE,,,,,,,OVC,3600,,,,,,,VFR,,,,,,,,,,,,METAR,557.0
KBBF 150035Z AUTO 04010KT 10SM OVC048 11/06 A3035 RMK A01,KBBF,2019-01-15T00:35:00Z,27.83,-96.02,11.0,6.0,40,10,,10.0,30.351377,,,TRUE,TRUE,,,,,,,OVC,4800,,,,,,,VFR,,,,,,,,,,,,METAR,36.0
KBBP 150035Z AUTO 00000KT 10SM OVC036 05/03 A3022 RMK AO2,KBBP,2019-01-15T00:35:00Z,34.62,-79.73,5.0,3.0,0,0,,10.0,30.221457,,,TRUE,TRUE,,,,,,,OVC,3600,,,,,,,VFR,,,,,,,,,,,,SPECI,45.0
KHHV 150035Z AUTO 04015KT 10SM FEW027 FEW034 OVC060 18/10 A3033 RMK A01,KHHV,2019-01-15T00:35:00Z,26.93,-94.68,18.0,10.0,40,15,,10.0,30.33071,,,TRUE,TRUE,,,,,,,FEW,2700,FEW,3400,OVC,6000,,,VFR,,,,,,,,,,,,SPECI,25.0
KHLB 150035Z AUTO 00000KT 8SM CLR M07/M07 A3030 RMK A01,KHLB,2019-01-15T00:35:00Z,,,-7.0,-7.0,0,0,,8.0,30.301182,,,TRUE,TRUE,,,,,,,CLR,,,,,,,,VFR,,,,,,,,,,,,SPECI,
KHQU 150035Z AUTO 00000KT 10SM SCT022 OVC035 07/06 A3026 RMK AO2 T00660059,KHQU,2019-01-15T00:35:00Z,33.53,-82.52,6.6,5.9,0,0,,10.0,30.259842,,,TRUE,TRUE,,,,,,,SCT,2200,OVC,3500,,,,,VFR,,,,,,,,,,,,SPECI,152.0
KHTH 150035Z AUTO 18012KT 10SM BKN048 BKN060 OVC070 06/M04 A2994 RMK A01,KHTH,2019-01-15T00:35:00Z,,,6.0,-4.0,180,12,,10.0,29.940945,,,TRUE,TRUE,,,,,,,BKN,4800,BKN,6000,OVC,7000,,,VFR,,,,,,,,,,,,SPECI,
KHZD 150035Z AUTO 00000KT 6SM BR OVC012 02/00 A3035 RMK A01,KHZD,2019-01-15T00:35:00Z,36.08,-88.47,2.0,0.0,0,0,,6.0,30.351377,,,TRUE,TRUE,,,,,,BR,OVC,1200,,,,,,,MVFR,,,,,,,,,,,,SPECI,151.0
KJAU 150035Z AUTO 00000KT 10SM OVC017 01/M02 A3030 RMK A01,KJAU,2019-01-15T00:35:00Z,36.33,-84.17,1.0,-2.0,0,0,,10.0,30.301182,,,TRUE,TRUE,,,,,,,OVC,1700,,,,,,,MVFR,,,,,,,,,,,,SPECI,360.0
KJAQ 150035Z AUTO 13008KT 10SM SCT037 BKN049 OVC060 09/05 A2990 RMK AO1 T00910051,KJAQ,2019-01-15T00:35:00Z,38.37,-120.8,9.1,5.1,130,8,,10.0,29.899607,,,TRUE,TRUE,,,,,,,SCT,3700,BKN,4900,OVC,6000,,,VFR,,,,,,,,,,,,SPECI,512.0
KIMM 150035Z AUTO 28005KT 10SM CLR 15/12 A3014 RMK A01,KIMM,2019-01-15T00:35:00Z,26.43,-81.4,15.0,12.0,280,5,,10.0,30.138779,,,TRUE,TRUE,,,,,,,CLR,,,,,,,,VFR,,,,,,,,,,,,SPECI,12.0
KIKT 150035Z AUTO VRB06G12KT 10SM OVC021 13/07 A3030 RMK A01,KIKT,2019-01-15T00:35:00Z,28.52,-88.28,13.0,7.0,0,6,12,10.0,30.301182,,,TRUE,TRUE,,,,,,,OVC,2100,,,,,,,MVFR,,,,,,,,,,,,SPECI,25.0
KIGQ 150035Z AUTO 23009KT 10SM OVC011 M04/M06 A3030 RMK AO2 T10451060,KIGQ,2019-01-15T00:35:00Z,41.53,-87.53,-4.5,-6.0,230,9,,10.0,30.301182,,,TRUE,TRUE,,,,,,,OVC,1100,,,,,,,MVFR,,,,,,,,,,,,SPECI,188.0
KIBM 150035Z AUTO 00000KT 10SM CLR 00/M12 A3015 RMK AO2 T10021122,KIBM,2019-01-15T00:35:00Z,41.18,-103.68,-0.2,-12.2,0,0,,10.0,30.15059,,,TRUE,TRUE,,,,,,,CLR,,,,,,,,VFR,,,,,,,,,,,,SPECI,1501.0
KI23 150035Z AUTO 00000KT 1/2SM VV005 M10/M11 A3029 RMK AO1,KI23,2019-01-15T00:35:00Z,39.57,-83.42,-10.0,-11.0,0,0,,0.5,30.28937,,,TRUE,TRUE,,,,,,,OVX,0,,,,,,,LIFR,,,,,,,,,,,500,SPECI,299.0
KJTC 150035Z AUTO 33005KT 10SM SCT095 04/01 A3022 RMK AO2,KJTC,2019-01-15T00:35:00Z,34.13,-109.32,4.0,1.0,330,5,,10.0,30.221457,,,TRUE,TRUE,,,,,,,SCT,9500,,,,,,,VFR,,,,,,,,,,,,SPECI,2150.0
KJWN 150035Z AUTO 31004KT 10SM OVC031 02/M00 A3032 RMK A01,KJWN,2019-01-15T00:35:00Z,36.18,-86.88,2.0,0.0,310,4,,10.0,30.318897,,,TRUE,TRUE,,,,,,,OVC,3100,,,,,,,VFR,,,,,,,,,,,,SPECI,151.0
KJXI 150035Z AUTO 10SM TS OVC014 03/00 A3041 RMK AO2 T00250000,KJXI,2019-01-15T00:35:00Z,32.7,-94.95,2.5,0.0,,,,10.0,30.410433,,,TRUE,TRUE,,,,,,TS,OVC,1400,,,,,,,MVFR,,,,,,,,,,,,SPECI,127.0
KLHB 150035Z AUTO 32005KT 10SM CLR 06/04 A3041 RMK AO2 T00560035,KLHB,2019-01-15T00:35:00Z,30.87,-96.62,5.6,3.5,320,5,,10.0,30.410433,,,TRUE,TRUE,,,,,,,CLR,,,,,,,,VFR,,,,,,,,,,,,SPECI,87.0
KLNN 150035Z AUTO 25006KT 10SM OVC018 A3025 RMK AO1,KLNN,2019-01-15T00:35:00Z,41.67,-81.37,,,250,6,,10.0,30.250984,,,TRUE,TRUE,,,,,,,OVC,1800,,,,,,,MVFR,,,,,,,,,,,,SPECI,191.0
KLOT 150035Z AUTO 25010KT 7SM OVC010 M04/M06 A3030 RMK AO2 T10431059,KLOT,2019-01-15T00:35:00Z,41.6,-88.1,-4.3,-5.9,250,10,,7.0,30.301182,,,TRUE,TRUE,,,,,,,OVC,1000,,,,,,,MVFR,,,,,,,,,,,,SPECI,205.0
KLRU 150035Z AUTO 00000KT 10SM CLR 11/03 A3023 RMK AO2 T01140028,KLRU,2019-01-15T00:35:00Z,32.27,-106.92,11.4,2.8,0,0,,10.0,30.230314,,,TRUE,TRUE,,,,,,,CLR,,,,,,,,VFR,,,,,,,,,,,,SPECI,1358.0
KLUA 150035Z AUTO 00000KT 10SM OVC029 M01/M02 A3019 RMK AO2,KLUA,2019-01-15T00:35:00Z,38.67,-78.5,-1.0,-2.0,0,0,,10.0,30.188976,,,TRUE,TRUE,,,,,,,OVC,2900,,,,,,,MVFR,,,,,,,,,,,,SPECI,275.0
KLUG 150035Z AUTO 00000KT 10SM SCT018 OVC036 02/M00 A3032 RMK A01,KLUG,2019-01-15T00:35:00Z,35.52,-86.8,2.0,0.0,0,0,,10.0,30.318897,,,TRUE,TRUE,,,,,,,SCT,1800,OVC,3600,,,,,VFR,,,,,,,,,,,,SPECI,219.0
KLUV 150035Z AUTO 20010KT 10SM OVC020 06/02 A3030 RMK AO2,KLUV,2019-01-15T00:35:00Z,32.75,-101.92,6.0,2.0,200,10,,10.0,30.301182,,,TRUE,TRUE,,,,,,,OVC,2000,,,,,,,MVFR,,,,,,,,,,,,SPECI,912.0
KJFZ 150035Z AUTO 00000KT M1/4SM FZFG OVC002 M02/M03 A3018 RMK AO2 T10251027,KJFZ,2019-01-15T00:35:00Z,37.07,-81.8,-2.5,-2.7,0,0,,0.25,30.180119,,,TRUE,TRUE,,,,,,FZFG,OVC,200,,,,,,,LIFR,,,,,,,,,,,,SPECI,809.0
KLXN 150035Z AUTO 17006KT 10SM CLR 00/M02 A3016 RMK AO2 T00021019,KLXN,2019-01-15T00:35:00Z,40.78,-99.77,0.2,-1.9,170,6,,10.0,30.159449,,,TRUE,TRUE,,,,,,,CLR,,,,,,,,VFR,,,,,,,,,,,,SPECI,734.0
KLYO 150035Z AUTO 36003KT 5SM BR SCT019 00/00 A3027 RMK AO2 T00031002,KLYO,2019-01-15T00:35:00Z,38.35,-98.23,0.3,-0.2,360,3,,5.0,30.268702,,,TRUE,TRUE,,,,,,BR,SCT,1900,,,,,,,MVFR,,,,,,,,,,,,SPECI,515.0
LKPR 150035Z 27015KT 9999 -SN SCT010 M00/M05 Q1011 R24/29//95 R30/29//95 RMK REG QNH 1006,LKPR,2019-01-15T00:35:00Z,50.1,14.27,0.0,-5.0,270,15,,6.21,29.852362,,,,,,,,,,-SN,SCT,1000,,,,,,,VFR,,,,,,,,,,,,SPECI,365.0
KLZZ 150035Z AUTO 00000KT 10SM OVC048 07/03 A3035 RMK AO2 T00660025,KLZZ,2019-01-15T00:35:00Z,31.1,-98.2,6.6,2.5,0,0,,10.0,30.351377,,,TRUE,TRUE,,,,,,,OVC,4800,,,,,,,VFR,,,,,,,,,,,,SPECI,371.0
KEKS 150035Z AUTO 18009G16KT 10SM CLR 01/M10 A3015 RMK AO2,KEKS,2019-01-15T00:35:00Z,45.27,-111.65,1.0,-10.0,180,9,16,10.0,30.15059,,,TRUE,TRUE,,,,,,,CLR,,,,,,,,VFR,,,,,,,,,,,,SPECI,1641.0
KM08 150035Z AUTO 00000KT 10SM OVC015 02/01 A3036 RMK A01,KM08,2019-01-15T00:35:00Z,35.22,-89.05,2.0,1.0,0,0,,10.0,30.360237,,,TRUE,TRUE,,,,,,,OVC,1500,,,,,,,MVFR,,,,,,,,,,,,SPECI,152.0
KM04 150035Z AUTO 35004KT 10SM OVC036 02/00 A3038 RMK A01,KM04,2019-01-15T00:35:00Z,35.58,-89.58,2.0,0.0,350,4,,10.0,30.380905,,,TRUE,TRUE,,,,,,,OVC,3600,,,,,,,VFR,,,,,,,,,,,,SPECI,85.0
KM02 150035Z AUTO 33004KT 10SM OVC011 01/M00 A3031 RMK A01,KM02,2019-01-15T00:35:00Z,36.13,-87.43,1.0,0.0,330,4,,10.0,30.31004,,,TRUE,TRUE,,,,,,,OVC,1100,,,,,,,MVFR,,,,,,,,,,,,SPECI,272.0
KETB 150035Z AUTO 27007KT 10SM OVC017 M02/M04 A3021 RMK AO2,KETB,2019-01-15T00:35:00Z,43.42,-88.13,-2.0,-4.0,270,7,,10.0,30.209646,,,TRUE,TRUE,,,,,,,OVC,1700,,,,,,,MVFR,,,,,,,,,,,,SPECI,270.0
KF44 150035Z AUTO 00000KT 10SM CLR 05/00 A3038 RMK AO2,KF44,2019-01-15T00:35:00Z,32.17,-95.83,5.0,0.0,0,0,,10.0,30.380905,,,TRUE,TRUE,,,,,,,CLR,,,,,,,,VFR,,,,,,,,,,,,SPECI,135.0
KFEP 150035Z AUTO 28007KT 7SM OVC007 M04/M05 A3029 RMK AO2 T10421055,KFEP,2019-01-15T00:35:00Z,42.25,-89.58,-4.2,-5.5,280,7,,7.0,30.28937,,,TRUE,TRUE,,,,,,,OVC,700,,,,,,,IFR,,,,,,,,,,,,SPECI,262.0
KFCH 150035Z AUTO 00000KT 6SM BR FEW034 BKN046 BKN055 11/10 A2991 RMK A01,KFCH,2019-01-15T00:35:00Z,36.72,-119.82,11.0,10.0,0,0,,6.0,29.911417,,,TRUE,TRUE,,,,,,BR,FEW,3400,BKN,4600,BKN,5500,,,VFR,,,,,,,,,,,,SPECI,85.0
KF17 150035Z AUTO 36004KT 10SM OVC019 04/01 A3042 RMK AO2 T00420007,KF17,2019-01-15T00:35:00Z,31.83,-94.15,4.2,0.7,360,4,,10.0,30.41929,,,TRUE,TRUE,,,,,,,OVC,1900,,,,,,,MVFR,,,,,,,,,,,,SPECI,97.0
KF00 150035Z AUTO 08004KT 10SM CLR 02/M01 A3039 RMK AO2 T00171008,KF00,2019-01-15T00:35:00Z,33.62,-96.18,1.7,-0.8,80,4,,10.0,30.389763,,,TRUE,TRUE,,,,,,,CLR,,,,,,,,VFR,,,,,,,,,,,,SPECI,188.0
KEVU 150035Z AUTO 24010KT 2 1/2SM BR OVC002 00/00 A3027 RMK AO2,KEVU,2019-01-15T00:35:00Z,40.35,-94.92,0.0,0.0,240,10,,2.5,30.268702,,,TRUE,TRUE,,,,,,BR,OVC,200,,,,,,,LIFR,,,,,,,,,,,,SPECI,349.0
KETN 150035Z AUTO 00000KT 10SM OVC044 07/01 A3034 RMK AO2 T00690012,KETN,2019-01-15T00:35:00Z,32.42,-98.82,6.9,1.2,0,0,,10.0,30.339567,,,TRUE,TRUE,,,,,,,OVC,4400,,,,,,,VFR,,,,,,,,,,,,SPECI,446.0
KFOA 150035Z AUTO 26004KT 10SM OVC026 00/M03 A3036 RMK AO2 T00001033,KFOA,2019-01-15T00:35:00Z,38.67,-88.45,0.0,-3.3,260,4,,10.0,30.360237,,,TRUE,TRUE,,,,,,,OVC,2600,,,,,,,MVFR,,,,,,,,,,,,SPECI,144.0
KFKA 150035Z AUTO 00000KT 3SM BR BKN005 OVC013 M02/M03 A3021 RMK AO2 T10211029,KFKA,2019-01-15T00:35:00Z,43.68,-92.17,-2.1,-2.9,0,0,,3.0,30.209646,,,TRUE,TRUE,,,,,,BR,BKN,500,OVC,1300,,,,,IFR,,,,,,,,,,,,SPECI,389.0
KFHB 150035Z AUTO 01006KT 10SM OVC012 09/06 A3023 RMK AO2 T00860062,KFHB,2019-01-15T00:35:00Z,30.62,-81.47,8.6,6.2,10,6,,10.0,30.230314,,,TRUE,TRUE,,,,,,,OVC,1200,,,,,,,MVFR,,,,,,,,,,,,SPECI,5.0
KFOT 150035Z AUTO 00000KT 10SM OVC090 11/11 A2978 RMK AO1,KFOT,2019-01-15T00:35:00Z,40.55,-124.13,11.0,11.0,0,0,,10.0,29.778543,,,TRUE,TRUE,,,,,,,OVC,9000,,,,,,,VFR,,,,,,,,,,,,SPECI,120.0
KFTN 150035Z AUTO 10005KT 10SM OVC029 09/03 A3036 RMK A01,KFTN,2019-01-15T00:35:00Z,28.22,-100.02,9.0,3.0,100,5,,10.0,30.360237,,,TRUE,TRUE,,,,,,,OVC,2900,,,,,,,MVFR,,,,,,,,,,,,SPECI,236.0
KFXY 150035Z AUTO 32006KT 7SM OVC005 M01/M01 A3022 RMK AO2,KFXY,2019-01-15T00:35:00Z,43.23,-93.62,-1.0,-1.0,320,6,,7.0,30.221457,,,TRUE,TRUE,,,,,,,OVC,500,,,,,,,IFR,,,,,,,,,,,,SPECI,375.0
KFYE 150035Z AUTO 00000KT 10SM FEW017 OVC036 03/00 A3035 RMK A01,KFYE,2019-01-15T00:35:00Z,35.2,-89.38,3.0,0.0,0,0,,10.0,30.351377,,,TRUE,TRUE,,,,,,,FEW,1700,OVC,3600,,,,,VFR,,,,,,,,,,,,SPECI,133.0
CYXR 150035Z AUTO 00000KT 3SM -SN OVC038 M07/M07 A3006 RMK ICG SLP200,CYXR,2019-01-15T00:35:00Z,47.7,-79.83,-7.0,-7.0,0,0,,3.0,30.059055,1020.0,,TRUE,,,,,,,-SN,OVC,3800,,,,,,,MVFR,,,,,,,,,,,,SPECI,243.0
KFWB 150035Z AUTO 27005KT 10SM OVC009 00/00 A3034 RMK AO2,KFWB,2019-01-15T00:35:00Z,36.7,-93.4,0.0,0.0,270,5,,10.0,30.339567,,,TRUE,TRUE,,,,,,,OVC,900,,,,,,,IFR,,,,,,,,,,,,SPECI,406.0
KGDJ 150035Z AUTO 13003KT 10SM OVC060 08/02 A3039 RMK AO2 T00780016,KGDJ,2019-01-15T00:35:00Z,32.45,-97.82,7.8,1.6,130,3,,10.0,30.389763,,,TRUE,TRUE,,,,,,,OVC,6000,,,,,,,VFR,,,,,,,,,,,,SPECI,237.0
KGCY 150035Z AUTO 26004KT 10SM OVC008 01/00 A3022 RMK A01,KGCY,2019-01-15T00:35:00Z,36.2,-82.82,1.0,0.0,260,4,,10.0,30.221457,,,TRUE,TRUE,,,,,,,OVC,800,,,,,,,IFR,,,,,,,,,,,,SPECI,490.0
KGCM 150035Z AUTO 19003KT 10SM OVC014 01/M01 A3039 RMK AO2 TSNO,KGCM,2019-01-15T00:35:00Z,36.3,-95.48,1.0,-1.0,190,3,,10.0,30.389763,,,TRUE,TRUE,,,TRUE,,,,OVC,1400,,,,,,,MVFR,,,,,,,,,,,,SPECI,221.0
KGCD 150035Z AUTO 00000KT 10SM CLR 03/M07 A3005 RMK AO2 T00331073,KGCD,2019-01-15T00:35:00Z,44.38,-118.97,3.3,-7.3,0,0,,10.0,30.050198,,,TRUE,TRUE,,,,,,,CLR,,,,,,,,VFR,,,,,,,,,,,,SPECI,1127.0
KGBK 150035Z AUTO VRB06G13KT 10SM BKN022 BKN045 14/10 A3030 RMK A01,KGBK,2019-01-15T00:35:00Z,27.2,-92.2,14.0,10.0,0,6,13,10.0,30.301182,,,TRUE,TRUE,,,,,,,BKN,2200,BKN,4500,,,,,MVFR,,,,,,,,,,,,SPECI,59.0
KGKT 150035Z AUTO 32006KT 10SM OVC018 02/00 A3026 RMK A01,KGKT,2019-01-15T00:35:00Z,35.85,-83.53,2.0,0.0,320,6,,10.0,30.259842,,,TRUE,TRUE,,,,,,,OVC,1800,,,,,,,MVFR,,,,,,,,,,,,SPECI,309.0
KGUL 150035Z AUTO 04008G13KT 360V060 10SM SCT023 BKN060 14/09 A3033 RMK A01,KGUL,2019-01-15T00:35:00Z,27.3,-93.53,14.0,9.0,40,8,13,10.0,30.33071,,,TRUE,TRUE,,,,,,,SCT,2300,BKN,6000,,,,,VFR,,,,,,,,,,,,SPECI,30.0
KGZL 150035Z AUTO 00000KT 10SM OVC017 02/M03 A3039 RMK AO2,KGZL,2019-01-15T00:35:00Z,35.28,-95.1,2.0,-3.0,0,0,,10.0,30.389763,,,TRUE,TRUE,,,,,,,OVC,1700,,,,,,,MVFR,,,,,,,,,,,,SPECI,183.0
KFMH 150035Z AUTO 35004KT 10SM OVC024 M03/M07 A3009 RMK AO2,KFMH,2019-01-15T00:35:00Z,41.63,-70.52,-3.0,-7.0,350,4,,10.0,30.088583,,,TRUE,TRUE,,,,,,,OVC,2400,,,,,,,MVFR,,,,,,,,,,,,METAR,40.0
KHAE 150035Z AUTO 24007KT 4SM BR OVC004 M01/M02 A3032 RMK AO2,KHAE,2019-01-15T00:35:00Z,39.73,-91.45,-1.0,-2.0,240,7,,4.0,30.318897,,,TRUE,TRUE,,,,,,BR,OVC,400,,,,,,,LIFR,,,,,,,,,,,,SPECI,234.0
KHDC 150035Z AUTO 01004KT 10SM OVC019 05/02 A3037 RMK AO2,KHDC,2019-01-15T00:35:00Z,30.52,-90.42,5.0,2.0,10,4,,10.0,30.369095,,,TRUE,TRUE,,,,,,,OVC,1900,,,,,,,MVFR,,,,,,,,,,,,SPECI,13.0
KBIJ 150035Z AUTO 00000KT 10SM OVC027 06/03 A3027 RMK AO2,KBIJ,2019-01-15T00:35:00Z,31.4,-84.9,6.0,3.0,0,0,,10.0,30.268702,,,TRUE,TRUE,,,,,,,OVC,2700,,,,,,,MVFR,,,,,,,,,,,,SPECI,65.0
KBVN 150035Z AUTO 33005KT 10SM CLR 00/M03 A3018 RMK AO2 T10011028,KBVN,2019-01-15T00:35:00Z,41.73,-98.05,-0.1,-2.8,330,5,,10.0,30.180119,,,TRUE,TRUE,,,,,,,CLR,,,,,,,,VFR,,,,,,,,,,,,SPECI,551.0
KBQX 150035Z AUTO 00000KT 10SM OVC055 10/06 A3038 RMK A01,KBQX,2019-01-15T00:35:00Z,28.5,-95.72,10.0,6.0,0,0,,10.0,30.380905,,,TRUE,TRUE,,,,,,,OVC,5500,,,,,,,VFR,,,,,,,,,,,,SPECI,34.0
KBKT 150035Z AUTO 33003KT 10SM SCT038 OVC080 00/00 A3021 RMK AO1 T00000000,KBKT,2019-01-15T00:35:00Z,37.07,-77.95,0.0,0.0,330,3,,10.0,30.209646,,,TRUE,TRUE,,,,,,,SCT,3800,OVC,8000,,,,,VFR,,,,,,,,,,,,SPECI,134.0
KC29 150035Z AUTO 26005KT 7SM OVC009 M04/M05 A3025 RMK AO1 T10401055,KC29,2019-01-15T00:35:00Z,43.12,-89.53,-4.0,-5.5,260,5,,7.0,30.250984,,,TRUE,TRUE,,,,,,,OVC,900,,,,,,,IFR,,,,,,,,,,,,METAR,283.0
KBYL 150035Z AUTO 00000KT 10SM OVC019 00/00 A3028 RMK AO1,KBYL,2019-01-15T00:35:00Z,36.8,-84.2,0.0,0.0,0,0,,10.0,30.280512,,,TRUE,TRUE,,,,,,,OVC,1900,,,,,,,MVFR,,,,,,,,,,,,SPECI,359.0
KC83 150035Z AUTO 00000KT 10SM SCT070 BKN080 OVC090 10/09 A2988 RMK AO2,KC83,2019-01-15T00:35:00Z,37.83,-121.62,10.0,9.0,0,0,,10.0,29.878937,,,TRUE,TRUE,,,,,,,SCT,7000,BKN,8000,OVC,9000,,,VFR,,,,,,,,,,,,SPECI,24.0
KBWD 150035Z AUTO 21004KT 10SM OVC044 08/02 A3035 RMK AO1,KBWD,2019-01-15T00:35:00Z,31.8,-98.95,8.0,2.0,210,4,,10.0,30.351377,,,TRUE,TRUE,,,,,,,OVC,4400,,,,,,,VFR,,,,,,,,,,,,SPECI,423.0
KGZS 150035Z AUTO 00000KT OVC019 03/00 A3033 RMK A01,KGZS,2019-01-15T00:35:00Z,35.15,-87.05,3.0,0.0,0,0,,,30.33071,,,TRUE,TRUE,,,,,,,OVC,1900,,,,,,,,,,,,,,,,,,,SPECI,209.0
KBGF 150035Z AUTO 01005KT 10SM BKN019 OVC025 02/M01 A3029 RMK A01,KBGF,2019-01-15T00:35:00Z,35.18,-86.07,2.0,-1.0,10,5,,10.0,30.28937,,,TRUE,TRUE,,,,,,,BKN,1900,OVC,2500,,,,,MVFR,,,,,,,,,,,,SPECI,299.0
KDZJ 150035Z AUTO 29004KT 10SM OVC013 02/M01 A3021 RMK AO2 T00191006,KDZJ,2019-01-15T00:35:00Z,34.85,-84.0,1.9,-0.6,290,4,,10.0,30.209646,,,TRUE,TRUE,,,,,,,OVC,1300,,,,,,,MVFR,,,,,,,,,,,,SPECI,582.0
KDSF 150035Z AUTO 10SM OVC024 15/08 A3028 RMK A01,KDSF,2019-01-15T00:35:00Z,28.35,-88.27,15.0,8.0,,,,10.0,30.280512,,,TRUE,TRUE,,,,,,,OVC,2400,,,,,,,MVFR,,,,,,,,,,,,METAR,130.0
KDNV 150035Z AUTO 24003KT 10SM BKN009 M08/M09 A3030 RMK AO2 T10791092,KDNV,2019-01-15T00:35:00Z,40.2,-87.6,-7.9,-9.2,240,3,,10.0,30.301182,,,TRUE,TRUE,,,,,,,BKN,900,,,,,,,IFR,,,,,,,,,,,,SPECI,212.0
KDNN 150035Z AUTO 33006KT 10SM OVC026 03/00 A3029 RMK AO2,KDNN,2019-01-15T00:35:00Z,34.72,-84.87,3.0,0.0,330,6,,10.0,30.28937,,,TRUE,TRUE,,,,,,,OVC,2600,,,,,,,MVFR,,,,,,,,,,,,SPECI,216.0
KDKX 150035Z AUTO VRB03KT 10SM OVC017 03/01 A3028 RMK A01,KDKX,2019-01-15T00:35:00Z,35.97,-83.87,3.0,1.0,0,3,,10.0,30.280512,,,TRUE,TRUE,,,,,,,OVC,1700,,,,,,,MVFR,,,,,,,,,,,,SPECI,254.0
KD25 150035Z AUTO 32005KT 5SM BR OVC004 M03/M03 A3014 RMK AO2 T10301030,KD25,2019-01-15T00:35:00Z,46.12,-89.88,-3.0,-3.0,320,5,,5.0,30.138779,,,TRUE,TRUE,,,,,,BR,OVC,400,,,,,,,LIFR,,,,,,,,,,,,SPECI,491.0
KCXW 150035Z AUTO 00000KT 10SM OVC025 06/01 A3039 RMK A01,KCXW,2019-01-15T00:35:00Z,35.02,-92.55,6.0,1.0,0,0,,10.0,30.389763,,,TRUE,TRUE,,,,,,,OVC,2500,,,,,,,MVFR,,,,,,,,,,,,SPECI,84.0
KCVW 150035Z AUTO 05005KT 10SM SCT026 08/04 A3036 RMK A01,KCVW,2019-01-15T00:35:00Z,29.78,-93.3,8.0,4.0,50,5,,10.0,30.360237,,,TRUE,TRUE,,,,,,,SCT,2600,,,,,,,VFR,,,,,,,,,,,,SPECI,1.0
KCVB 150035Z AUTO 14004KT 7SM OVC047 09/02 A3038 RMK AO2 T00900020,KCVB,2019-01-15T00:35:00Z,29.35,-98.85,9.0,2.0,140,4,,7.0,30.380905,,,TRUE,TRUE,,,,,,,OVC,4700,,,,,,,VFR,,,,,,,,,,,,SPECI,235.0
KCRX 150035Z AUTO 31004KT 10SM OVC015 03/00 A3036 RMK AO2,KCRX,2019-01-15T00:35:00Z,34.92,-88.6,3.0,0.0,310,4,,10.0,30.360237,,,TRUE,TRUE,,,,,,,OVC,1500,,,,,,,MVFR,,,,,,,,,,,,SPECI,130.0
KCQF 150035Z AUTO 01008KT 10SM OVC018 05/02 A3032 RMK AO2,KCQF,2019-01-15T00:35:00Z,30.47,-87.88,5.0,2.0,10,8,,10.0,30.318897,,,TRUE,TRUE,,,,,,,OVC,1800,,,,,,,MVFR,,,,,,,,,,,,SPECI,28.0
KCOM 150035Z AUTO 18005KT 10SM OVC039 08/02 A3034 RMK AO2 T00750021,KCOM,2019-01-15T00:35:00Z,31.83,-99.4,7.5,2.1,180,5,,10.0,30.339567,,,TRUE,TRUE,,,,,,,OVC,3900,,,,,,,VFR,,,,,,,,,,,,SPECI,517.0
KCNI 150035Z AUTO 30007KT 10SM OVC017 05/01 A3024 RMK AO2,KCNI,2019-01-15T00:35:00Z,34.32,-84.42,5.0,1.0,300,7,,10.0,30.239174,,,TRUE,TRUE,,,,,,,OVC,1700,,,,,,,MVFR,,,,,,,,,,,,SPECI,372.0
KCMY 150035Z AUTO 00000KT 3SM BR OVC008 M04/M04 A3023 RMK AO2 T10401042,KCMY,2019-01-15T00:35:00Z,43.97,-90.73,-4.0,-4.2,0,0,,3.0,30.230314,,,TRUE,TRUE,,,,,,BR,OVC,800,,,,,,,IFR,,,,,,,,,,,,METAR,256.0
KCKP 150035Z AUTO 00000KT 10SM OVC011 00/M01 A3023 RMK AO2 T00001008,KCKP,2019-01-15T00:35:00Z,42.73,-95.55,0.0,-0.8,0,0,,10.0,30.230314,,,TRUE,TRUE,,,,,,,OVC,1100,,,,,,,MVFR,,,,,,,,,,,,METAR,374.0
KCIR 150035Z AUTO 00000KT 10SM OVC027 01/M01 A3038 RMK AO2 T00071013,KCIR,2019-01-15T00:35:00Z,37.07,-89.22,0.7,-1.3,0,0,,10.0,30.380905,,,TRUE,TRUE,,,,,,,OVC,2700,,,,,,,MVFR,,,,,,,,,,,,SPECI,98.0
KEBA 150035Z AUTO 00000KT 10SM OVC040 07/06 A3022 RMK AO2 T00720061,KEBA,2019-01-15T00:35:00Z,34.1,-82.82,7.2,6.1,0,0,,10.0,30.221457,,,TRUE,TRUE,,,,,,,OVC,4000,,,,,,,VFR,,,,,,,,,,,,SPECI,184.0
KVAF 150035Z AUTO 03007KT 10SM SCT027 OVC060 15/09 A3034 RMK A01,KVAF,2019-01-15T00:35:00Z,27.35,-94.63,15.0,9.0,30,7,,10.0,30.339567,,,TRUE,TRUE,,,,,,,SCT,2700,OVC,6000,,,,,VFR,,,,,,,,,,,,SPECI,46.0
KEIR 150035Z AUTO 02010G16KT 10SM BKN020 09/05 A3035 RMK A01,KEIR,2019-01-15T00:35:00Z,28.63,-91.48,9.0,5.0,20,10,16,10.0,30.351377,,,TRUE,TRUE,,,,,,,BKN,2000,,,,,,,MVFR,,,,,,,,,,,,SPECI,28.0
KVBS 150035Z AUTO 06009KT 10SM BKN025 OVC036 10/04 A3036 RMK A01,KVBS,2019-01-15T00:35:00Z,29.48,-93.63,10.0,4.0,60,9,,10.0,30.360237,,,TRUE,TRUE,,,,,,,BKN,2500,OVC,3600,,,,,MVFR,,,,,,,,,,,,SPECI,31.0
KXPY 150035Z AUTO 01008G16KT 10SM OVC016 07/04 A3036 RMK A01,KXPY,2019-01-15T00:35:00Z,29.12,-90.2,7.0,4.0,10,8,16,10.0,30.360237,,,TRUE,TRUE,,,,,,,OVC,1600,,,,,,,MVFR,,,,,,,,,,,,SPECI,2.0
KXNX 150035Z AUTO 00000KT 10SM OVC024 02/M00 A3036 RMK A01,KXNX,2019-01-15T00:35:00Z,36.38,-86.42,2.0,0.0,0,0,,10.0,30.360237,,,TRUE,TRUE,,,,,,,OVC,2400,,,,,,,MVFR,,,,,,,,,,,,SPECI,178.0
KXIH 150035Z AUTO 00000KT 10SM OVC070 A3035 RMK A01,KXIH,2019-01-15T00:35:00Z,29.18,-94.52,,,0,0,,10.0,30.351377,,,TRUE,TRUE,,,,,,,OVC,7000,,,,,,,VFR,,,,,,,,,,,,SPECI,75.0
KXER 150035Z AUTO VRB06G13KT 10SM BKN020 11/06 A3033 RMK A01,KXER,2019-01-15T00:35:00Z,,,11.0,6.0,0,6,13,10.0,30.33071,,,TRUE,TRUE,,,,,,,BKN,2000,,,,,,,MVFR,,,,,,,,,,,,METAR,
KXBP 150035Z AUTO 12003KT 10SM CLR 04/00 A3038 RMK AO2 T00400000 PNO,KXBP,2019-01-15T00:35:00Z,33.18,-97.83,4.0,0.0,120,3,,10.0,30.380905,,,TRUE,TRUE,,,,,,,CLR,,,,,,,,VFR,,,,,,,,,,,,SPECI,260.0
KVQT 150035Z AUTO 02011G16KT 10SM OVC019 10/07 A3034 RMK A01,KVQT,2019-01-15T00:35:00Z,28.27,-92.27,10.0,7.0,20,11,16,10.0,30.339567,,,TRUE,TRUE,,,,,,,OVC,1900,,,,,,,MVFR,,,,,,,,,,,,SPECI,25.0
KVOA 150035Z AUTO 36010G15KT 10SM OVC017 10/06 A3028 RMK A01,KVOA,2019-01-15T00:35:00Z,29.23,-87.78,10.0,6.0,360,10,15,10.0,30.280512,,,TRUE,TRUE,,,,,,,OVC,1700,,,,,,,MVFR,,,,,,,,,,,,SPECI,53.0
KVKY 150035Z AUTO 01015KT 10SM OVC018 09/05 A3033 RMK A01,KVKY,2019-01-15T00:35:00Z,29.25,-88.43,9.0,5.0,10,15,,10.0,30.33071,,,TRUE,TRUE,,,,,,,OVC,1800,,,,,,,MVFR,,,,,,,,,,,,SPECI,32.0
KVKS 150035Z AUTO 34005KT 10SM OVC017 05/02 A3039 RMK A01,KVKS,2019-01-15T00:35:00Z,32.23,-90.93,5.0,2.0,340,5,,10.0,30.389763,,,TRUE,TRUE,,,,,,,OVC,1700,,,,,,,MVFR,,,,,,,,,,,,SPECI,32.0
KMBT 150035Z AUTO 00000KT 10SM OVC019 02/M00 A3031 RMK A01,KMBT,2019-01-15T00:35:00Z,35.88,-86.38,2.0,0.0,0,0,,10.0,30.31004,,,TRUE,TRUE,,,,,,,OVC,1900,,,,,,,MVFR,,,,,,,,,,,,SPECI,188.0
KM91 150035Z AUTO 31004KT 10SM BKN018 BKN023 OVC028 01/M00 A3032 RMK A01,KM91,2019-01-15T00:35:00Z,36.53,-86.92,1.0,0.0,310,4,,10.0,30.318897,,,TRUE,TRUE,,,,,,,BKN,1800,BKN,2300,OVC,2800,,,MVFR,,,,,,,,,,,,SPECI,215.0
KM75 150035Z AUTO 00000KT 10SM CLR M06/M09 A3002 RMK A01,KM75,2019-01-15T00:35:00Z,48.37,-107.92,-6.0,-9.0,0,0,,10.0,30.02067,,,TRUE,TRUE,,,,,,,CLR,,,,,,,,VFR,,,,,,,,,,,,SPECI,687.0
KM54 150035Z AUTO 36004KT 10SM OVC023 02/M01 A3032 RMK A01,KM54,2019-01-15T00:35:00Z,36.18,-86.32,2.0,-1.0,360,4,,10.0,30.318897,,,TRUE,TRUE,,,,,,,OVC,2300,,,,,,,MVFR,,,,,,,,,,,,SPECI,180.0
KMEV 150035Z AUTO 18003KT 10SM FEW050 SCT120 00/M05 A2994 RMK AO2,KMEV,2019-01-15T00:35:00Z,38.98,-119.75,0.0,-5.0,180,3,,10.0,29.940945,,,TRUE,TRUE,,,,,,,FEW,5000,SCT,12000,,,,,VFR,,,,,,,,,,,,SPECI,1439.0
KMDJ 150035Z AUTO 35015KT 10SM OVC017 08/04 A3034 RMK A01,KMDJ,2019-01-15T00:35:00Z,28.65,-89.8,8.0,4.0,350,15,,10.0,30.339567,,,TRUE,TRUE,,,,,,,OVC,1700,,,,,,,MVFR,,,,,,,,,,,,SPECI,31.0
KMCC 150035Z AUTO 14010KT 5SM -RA FEW036 BKN065 OVC070 12/07 A2990 RMK AO2,KMCC,2019-01-15T00:35:00Z,38.67,-121.4,12.0,7.0,140,10,,5.0,29.899607,,,TRUE,TRUE,,,,,,-RA,FEW,3600,BKN,6500,OVC,7000,,,MVFR,,,,,,,,,,,,METAR,23.0
KTKV 150035Z AUTO 28003KT 5SM BR OVC008 M03/M03 A3016 RMK AO2 T10261033,KTKV,2019-01-15T00:35:00Z,45.47,-89.82,-2.6,-3.3,280,3,,5.0,30.159449,,,TRUE,TRUE,,,,,,BR,OVC,800,,,,,,,IFR,,,,,,,,,,,,METAR,453.0
KMIS 150035Z AUTO 01014G21KT 10SM OVC017 09/05 A3033 RMK A01,KMIS,2019-01-15T00:35:00Z,29.3,-88.85,9.0,5.0,10,14,21,10.0,30.33071,,,TRUE,TRUE,,,,,,,OVC,1700,,,,,,,MVFR,,,,,,,,,,,,SPECI,32.0
KMNV 150035Z AUTO 34006KT 10SM OVC022 03/M00 A3027 RMK A01,KMNV,2019-01-15T00:35:00Z,35.55,-84.38,3.0,0.0,340,6,,10.0,30.268702,,,TRUE,TRUE,,,,,,,OVC,2200,,,,,,,MVFR,,,,,,,,,,,,SPECI,314.0
KMMI 150035Z AUTO 04004KT 10SM OVC021 03/M00 A3030 RMK A01,KMMI,2019-01-15T00:35:00Z,35.4,-84.57,3.0,0.0,40,4,,10.0,30.301182,,,TRUE,TRUE,,,,,,,OVC,2100,,,,,,,MVFR,,,,,,,,,,,,SPECI,266.0
KMNZ 150035Z AUTO 08003KT 10SM OVC048 07/02 A3036 RMK AO2 T00710023,KMNZ,2019-01-15T00:35:00Z,31.67,-98.15,7.1,2.3,80,3,,10.0,30.360237,,,TRUE,TRUE,,,,,,,OVC,4800,,,,,,,VFR,,,,,,,,,,,,SPECI,396.0
KNZY 150034Z VRB04KT 3SM FEW007 BKN015 OVC018 14/12 A2996 RMK AO2 RAE34 T01440117 PNO $,KNZY,2019-01-15T00:34:00Z,32.7,-117.22,14.4,11.7,0,4,,3.0,29.958662,,,,TRUE,TRUE,,,,,,FEW,700,BKN,1500,OVC,1800,,,MVFR,,,,,,,,,,,,METAR,8.0
CYMT 150034Z AUTO 26004KT 6SM -SN OVC039 M11/M13 A2994 RMK SLP175,CYMT,2019-01-15T00:34:00Z,49.77,-74.52,-11.0,-13.0,260,4,,6.0,29.940945,1017.5,,TRUE,,,,,,,-SN,OVC,3900,,,,,,,VFR,,,,,,,,,,,,SPECI,387.0
CYSM 150034Z 34006KT 15SM FEW025 M23/M26 A3032 RMK SC2 SLP299,CYSM,2019-01-15T00:34:00Z,60.03,-111.97,-23.0,-26.0,340,6,,15.0,30.318897,1029.9,,,,,,,,,,FEW,2500,,,,,,,VFR,,,,,,,,,,,,SPECI,203.0
KSBP 150034Z 07005KT 10SM BKN042 BKN048 OVC065 12/09 A2989 RMK AO2 RAE29 P0000 T01170089,KSBP,2019-01-15T00:34:00Z,35.23,-120.63,11.7,8.9,70,5,,10.0,29.890747,,,,TRUE,,,,,,,BKN,4200,BKN,4800,OVC,6500,,,VFR,,,,,,0.005,,,,,,METAR,59.0
EBFN 150033Z AUTO 22006KT 7000 /// 04/03 Q1022 WHT,EBFN,2019-01-15T00:33:00Z,51.07,2.63,4.0,3.0,220,6,,4.35,30.177166,,,TRUE,,,,,,,,,,,,,,,,,,,,,,,,,,,,METAR,9.0
KNTD 150033Z 04009KT 10SM SCT018 SCT029 BKN045 BKN200 11/08 A2995 RMK AO2 T01110078 $,KNTD,2019-01-15T00:33:00Z,34.12,-119.12,11.1,7.8,40,9,,10.0,29.949802,,,,TRUE,TRUE,,,,,,SCT,1800,SCT,2900,BKN,4500,BKN,20000,VFR,,,,,,,,,,,,SPECI,4.0
KEMV 150032Z AUTO 30005KT 10SM OVC085 01/M03 A3024 RMK AO2,KEMV,2019-01-15T00:32:00Z,36.68,-77.48,1.0,-3.0,300,5,,10.0,30.239174,,,TRUE,TRUE,,,,,,,OVC,8500,,,,,,,VFR,,,,,,,,,,,,METAR,39.0
KTGI 150032Z AUTO 35009KT 10SM CLR 00/M03 A3020 RMK AO1,KTGI,2019-01-15T00:32:00Z,37.82,-75.98,0.0,-3.0,350,9,,10.0,30.200787,,,TRUE,TRUE,,,,,,,CLR,,,,,,,,VFR,,,,,,,,,,,,METAR,2.0
CYPX 150032Z AUTO 25014KT 1 3/4SM -SN OVC014 M19/M21 A2947 RMK SLP985,CYPX,2019-01-15T00:32:00Z,60.03,-77.27,-19.0,-21.0,250,14,,1.75,29.471457,998.5,,TRUE,,,,,,,-SN,OVC,1400,,,,,,,IFR,,,,,,,,,,,,SPECI,23.0
CYQD 150032Z AUTO 13013G18KT 1 3/4SM -SN BKN024 OVC028 M13/M15 A2987 RMK SLP141,CYQD,2019-01-15T00:32:00Z,53.97,-101.08,-13.0,-15.0,130,13,18,1.75,29.870079,1014.1,,TRUE,,,,,,,-SN,BKN,2400,OVC,2800,,,,,IFR,,,,,,,,,,,,SPECI,271.0
CYPY 150032Z AUTO 34005KT 6SM -SN OVC035 M19/M22 A3024 RMK PRESRR SLP270,CYPY,2019-01-15T00:32:00Z,58.77,-111.12,-19.0,-22.0,340,5,,6.0,30.239174,1027.0,,TRUE,,,,,,,-SN,OVC,3500,,,,,,,VFR,,,,,,,,,,,,SPECI,232.0
UTNN 150030Z 30008KT 8000 OVC004 01/M00 Q1011 R33/CLRD60 NOSIG RMK BASE400,UTNN,2019-01-15T00:30:00Z,42.48,59.63,1.0,0.0,300,8,,4.97,29.852362,,,,,,TRUE,,,,,OVC,400,,,,,,,LIFR,,,,,,,,,,,,METAR,67.0
UTFN 150030Z 36004KT 4100 BR NSC 01/M04 Q1014 28/CLRD70 NOSIG,UTFN,2019-01-15T00:30:00Z,40.98,71.57,1.0,-4.0,360,4,,2.55,29.940945,,,,,,TRUE,,,,BR,CLR,,,,,,,,IFR,,,,,,,,,,,,METAR,490.0
UTSS 150030Z 24006KT 190V280 6000 -SHRA OVC058CB 14/04 Q1009 R27/19//65 NOSIG,UTSS,2019-01-15T00:30:00Z,39.7,66.98,14.0,4.0,240,6,,3.73,29.793306,,,,,,TRUE,,,,-SHRA,OVC,5800,,,,,,,MVFR,,,,,,,,,,,,METAR,724.0
UTSK 150030Z 13002KT 9999 SCT050CB 10/03 Q1010 R16/CLRD70,UTSK,2019-01-15T00:30:00Z,38.83,65.77,10.0,3.0,130,2,,6.21,29.822834,,,,,,,,,,,SCT,5000,,,,,,,VFR,,,,,,,,,,,,METAR,1365.0
UTSB 150030Z 23010KT 2100 HZ BKN026CB 09/01 Q1010 R01/290055 NOSIG,UTSB,2019-01-15T00:30:00Z,39.77,64.48,9.0,1.0,230,10,,1.3,29.822834,,,,,,TRUE,,,,HZ,BKN,2600,,,,,,,IFR,,,,,,,,,,,,METAR,226.0
UTNU 150030Z 27008KT 7000 -SHRA OVC040CB 05/03 Q1010 R31/290350 NOSIG,UTNU,2019-01-15T00:30:00Z,41.58,60.63,5.0,3.0,270,8,,4.35,29.822834,,,,,,TRUE,,,,-SHRA,OVC,4000,,,,,,,MVFR,,,,,,,,,,,,METAR,98.0
UTTT 150030Z 10006KT 9999 SCT066CB 09/04 Q1011 R08R/29//50 NOSIG,UTTT,2019-01-15T00:30:00Z,41.27,69.27,9.0,4.0,100,6,,6.21,29.852362,,,,,,TRUE,,,,,SCT,6600,,,,,,,VFR,,,,,,,,,,,,METAR,489.0
UTFF 150030Z VRB01KT 8000 NSC 01/M03 Q1013 R99/CLRD70,UTFF,2019-01-15T00:30:00Z,40.37,71.77,1.0,-3.0,0,1,,4.97,29.911417,,,,,,,,,,,CLR,,,,,,,,MVFR,,,,,,,,,,,,METAR,577.0
UTST 150030Z 10008KT 9999 BKN060CB 07/00 Q1016 R88/290165 NOSIG,UTST,2019-01-15T00:30:00Z,37.28,67.32,7.0,0.0,100,8,,6.21,30.0,,,,,,TRUE,,,,,BKN,6000,,,,,,,VFR,,,,,,,,,,,,METAR,302.0
KAQO 150030Z AUTO 00000KT 10SM OVC050 08/03 A3040 RMK AO2,KAQO,2019-01-15T00:30:00Z,30.78,-98.67,8.0,3.0,0,0,,10.0,30.398623,,,TRUE,TRUE,,,,,,,OVC,5000,,,,,,,VFR,,,,,,,,,,,,METAR,336.0
KACJ 150030Z AUTO 27003KT 10SM OVC030 09/04 A3025 RMK AO2,KACJ,2019-01-15T00:30:00Z,32.12,-84.18,9.0,4.0,270,3,,10.0,30.250984,,,TRUE,TRUE,,,,,,,OVC,3000,,,,,,,MVFR,,,,,,,,,,,,METAR,143.0
KCPU 150030Z AUTO 15011KT 10SM BKN045 OVC055 08/05 A2991 RMK AO2 T00820050,KCPU,2019-01-15T00:30:00Z,38.15,-120.65,8.2,5.0,150,11,,10.0,29.911417,,,TRUE,TRUE,,,,,,,BKN,4500,OVC,5500,,,,,VFR,,,,,,,,,,,,METAR,404.0
KCJR 150030Z AUTO 00000KT 10SM CLR M03/M04 A3022 RMK AO2 T10291040,KCJR,2019-01-15T00:30:00Z,38.53,-77.87,-2.9,-4.0,0,0,,10.0,30.221457,,,TRUE,TRUE,,,,,,,CLR,,,,,,,,VFR,,,,,,,,,,,,METAR,97.0
KEMM 150030Z AUTO 00000KT 10SM CLR M20/M22 A3022 RMK AO2,KEMM,2019-01-15T00:30:00Z,41.82,-110.55,-20.0,-22.0,0,0,,10.0,30.221457,,,TRUE,TRUE,,,,,,,CLR,,,,,,,,VFR,,,,,,,,,,,,METAR,2220.0
KGVE 150030Z AUTO 00000KT 10SM OVC085 M01/M02 A3020 RMK AO1 T10071017,KGVE,2019-01-15T00:30:00Z,38.15,-78.17,-0.7,-1.7,0,0,,10.0,30.200787,,,TRUE,TRUE,,,,,,,OVC,8500,,,,,,,VFR,,,,,,,,,,,,METAR,138.0
KHBV 150030Z AUTO 00000KT 10SM OVC019 09/04 A3036 RMK AO2 T00930038,KHBV,2019-01-15T00:30:00Z,27.35,-98.73,9.3,3.8,0,0,,10.0,30.360237,,,TRUE,TRUE,,,,,,,OVC,1900,,,,,,,MVFR,,,,,,,,,,,,METAR,202.0
KHFY 150030Z AUTO 00000KT 10SM CLR M08/M13 A3031 RMK AO2 T10801135,KHFY,2019-01-15T00:30:00Z,39.63,-86.08,-8.0,-13.5,0,0,,10.0,30.31004,,,TRUE,TRUE,,,,,,,CLR,,,,,,,,VFR,,,,,,,,,,,,METAR,251.0
KI16 150030Z AUTO 7SM OVC006 00/M01 A3027 RMK AO2 T10031012,KI16,2019-01-15T00:30:00Z,37.6,-81.57,-0.3,-1.2,,,,7.0,30.268702,,,TRUE,TRUE,,,,,,,OVC,600,,,,,,,IFR,,,,,,,,,,,,METAR,544.0
KIYA 150030Z AUTO 36005KT 10SM OVC020 05/03 A3037 RMK AO2 T00540026,KIYA,2019-01-15T00:30:00Z,29.98,-92.08,5.4,2.6,360,5,,10.0,30.369095,,,TRUE,TRUE,,,,,,,OVC,2000,,,,,,,MVFR,,,,,,,,,,,,METAR,5.0
KNOW 150030Z AUTO 07003KT 10SM CLR 06/04 A2998 RMK AO2 T00620040,KNOW,2019-01-15T00:30:00Z,48.13,-123.4,6.2,4.0,70,3,,10.0,29.97933,,,TRUE,TRUE,,,,,,,CLR,,,,,,,,VFR,,,,,,,,,,,,METAR,4.0
KRQO 150030Z AUTO 18007KT 10SM CLR 03/01 A3032 RMK AO2 T00330013,KRQO,2019-01-15T00:30:00Z,35.47,-98.0,3.3,1.3,180,7,,10.0,30.318897,,,TRUE,TRUE,,,,,,,CLR,,,,,,,,VFR,,,,,,,,,,,,METAR,432.0
KSEZ 150030Z AUTO 14003KT 10SM SCT043 SCT050 OVC100 10/03 A3015 RMK AO2,KSEZ,2019-01-15T00:30:00Z,34.85,-111.78,10.0,3.0,140,3,,10.0,30.15059,,,TRUE,TRUE,,,,,,,SCT,4300,SCT,5000,OVC,10000,,,VFR,,,,,,,,,,,,METAR,1473.0
KVES 150030Z AUTO 00000KT 7SM CLR M08/M09 A3028 RMK AO2,KVES,2019-01-15T00:30:00Z,40.2,-84.53,-8.0,-9.0,0,0,,7.0,30.280512,,,TRUE,TRUE,,,,,,,CLR,,,,,,,,VFR,,,,,,,,,,,,METAR,307.0
HUEN 150030Z 27003KT 9999 SCT019 FEW021CB BKN100 23/21 Q1016,HUEN,2019-01-15T00:30:00Z,0.03,32.45,23.0,21.0,270,3,,6.21,30.0,,,,,,,,,,,SCT,1900,FEW,2100,BKN,10000,,,VFR,,,,,,,,,,,,METAR,1155.0
HRYR 150030Z 06003KT 9999 SCT025 BKN100 19/14 Q1020 NOSIG,HRYR,2019-01-15T00:30:00Z,-1.97,30.12,19.0,14.0,60,3,,6.21,30.11811,,,,,,TRUE,,,,,SCT,2500,BKN,10000,,,,,VFR,,,,,,,,,,,,METAR,1497.0
HKJK 150030Z 02006KT 9999 BKN022 19/15 Q1021 NOSIG,HKJK,2019-01-15T00:30:00Z,-1.32,36.92,19.0,15.0,20,6,,6.21,30.147638,,,,,,TRUE,,,,,BKN,2200,,,,,,,MVFR,,,,,,,,,,,,METAR,1624.0
RJBB 150030Z 06007KT 9999 FEW020 BKN070 BKN/// 07/02 Q1021 NOSIG,RJBB,2019-01-15T00:30:00Z,34.42,135.25,7.0,2.0,60,7,,6.21,30.147638,,,,,,TRUE,,,,,FEW,2000,BKN,7000,,,,,VFR,,,,,,,,,,,,METAR,8.0
YPTN 150030Z AUTO 08007KT 9999 // NCD 28/24 Q1008,YPTN,2019-01-15T00:30:00Z,-14.52,132.38,28.0,24.0,80,7,,6.21,29.763779,,,TRUE,,,,,,,,CLR,,,,,,,,VFR,,,,,,,,,,,,METAR,109.0
YPLM 150030Z AUTO 20016KT 9999 // NCD 26/18 Q1007 RF00.0/000.0,YPLM,2019-01-15T00:30:00Z,-22.22,114.07,26.0,18.0,200,16,,6.21,29.734253,,,TRUE,,,,,,,,CLR,,,,,,,,VFR,,,,,,,,,,,,METAR,6.0
YPKG 150030Z AUTO 13017KT 9999 // NCD ///// Q1012 RF00.0/000.0,YPKG,2019-01-15T00:30:00Z,-30.77,121.45,,,130,17,,6.21,29.88189,,,TRUE,,,,,,,,CLR,,,,,,,,VFR,,,,,,,,,,,,METAR,360.0
YBCG 150030Z AUTO 06009KT 9999 // SCT040 28/20 Q1016 RF00.0/000.0,YBCG,2019-01-15T00:30:00Z,-28.17,153.5,28.0,20.0,60,9,,6.21,30.0,,,TRUE,,,,,,,,SCT,4000,,,,,,,VFR,,,,,,,,,,,,METAR,6.0
KO86 150030Z AUTO 00000KT 10SM FEW090 06/03 A2987 RMK AO1,KO86,2019-01-15T00:30:00Z,40.98,-122.7,6.0,3.0,0,0,,10.0,29.870079,,,TRUE,TRUE,,,,,,,FEW,9000,,,,,,,VFR,,,,,,,,,,,,METAR,729.0
LFSX 150030Z AUTO 06001KT 9999 FEW049 OVC068 02/02 Q1024,LFSX,2019-01-15T00:30:00Z,47.77,6.33,2.0,2.0,60,1,,6.21,30.236221,,,TRUE,,,,,,,,FEW,4900,OVC,6800,,,,,VFR,,,,,,,,,,,,METAR,273.0
LFSO 150030Z AUTO 23004KT 9999 FEW042 OVC064 02/01 Q1023,LFSO,2019-01-15T00:30:00Z,48.57,5.97,2.0,1.0,230,4,,6.21,30.206694,,,TRUE,,,,,,,,FEW,4200,OVC,6400,,,,,VFR,,,,,,,,,,,,METAR,350.0
LFSI 150030Z AUTO 18003KT 7000 FEW016 BKN060 03/02 Q1024,LFSI,2019-01-15T00:30:00Z,48.62,4.9,3.0,2.0,180,3,,4.35,30.236221,,,TRUE,,,,,,,,FEW,1600,BKN,6000,,,,,MVFR,,,,,,,,,,,,METAR,140.0
LFRL 150030Z AUTO 20003KT 9999 OVC029 08/04 Q1026,LFRL,2019-01-15T00:30:00Z,48.27,-4.42,8.0,4.0,200,3,,6.21,30.295275,,,TRUE,,,,,,,,OVC,2900,,,,,,,MVFR,,,,,,,,,,,,METAR,82.0
LFRJ 150030Z AUTO 22005KT 9999 OVC028 07/05 Q1026,LFRJ,2019-01-15T00:30:00Z,48.52,-4.15,7.0,5.0,220,5,,6.21,30.295275,,,TRUE,,,,,,,,OVC,2800,,,,,,,MVFR,,,,,,,,,,,,METAR,115.0
LFOJ 150030Z AUTO 30004KT 270V330 9999 OVC042 06/04 Q1025 TEMPO 0400 FG VV///,LFOJ,2019-01-15T00:30:00Z,47.97,1.75,6.0,4.0,300,4,,6.21,30.265747,,,TRUE,,,,,,,,OVC,4200,,,,,,,VFR,,,,,,,,,,,,METAR,125.0
LFOE 150030Z AUTO 24005KT 9999 OVC038 06/04 Q1024 TEMPO 3000 BR,LFOE,2019-01-15T00:30:00Z,49.02,1.22,6.0,4.0,240,5,,6.21,30.236221,,,TRUE,,,,,,,,OVC,3800,,,,,,,VFR,,,,,,,,,,,,SPECI,146.0
LFOC 150030Z AUTO 25005KT 9999 OVC040 06/02 Q1025,LFOC,2019-01-15T00:30:00Z,48.03,1.37,6.0,2.0,250,5,,6.21,30.265747,,,TRUE,,,,,,,,OVC,4000,,,,,,,VFR,,,,,,,,,,,,METAR,127.0
OICC 150030Z 28006KT 9999 FEW045 SCT100 04/01 Q1017 A3005,OICC,2019-01-15T00:30:00Z,34.35,47.17,4.0,1.0,280,6,,6.21,30.029528,,,,,,,,,,,FEW,4500,SCT,10000,,,,,VFR,,,,,,,,,,,,METAR,1322.0
YSNF 150030Z 16014KT 9999 FEW042 24/13 Q1014,YSNF,2019-01-15T00:30:00Z,-29.02,167.92,24.0,13.0,160,14,,6.21,29.940945,,,,,,,,,,,FEW,4200,,,,,,,VFR,,,,,,,,,,,,METAR,109.0
YMLT 150030Z AUTO 33007KT 290V010 9999 // NCD 27/14 Q1009 RF00.0/000.0,YMLT,2019-01-15T00:30:00Z,-41.52,147.18,27.0,14.0,330,7,,6.21,29.793306,,,TRUE,,,,,,,,CLR,,,,,,,,VFR,,,,,,,,,,,,METAR,178.0
YMHB 150030Z 15010KT CAVOK 25/17 Q1008,YMHB,2019-01-15T00:30:00Z,-42.82,147.52,25.0,17.0,150,10,,6.21,29.763779,,,,,,,,,,,CAVOK,,,,,,,,VFR,,,,,,,,,,,,METAR,27.0
YPCC 150030Z 14015KT 9999 FEW030 SCT045 28/21 Q1012 RF00.0/000.0,YPCC,2019-01-15T00:30:00Z,-12.17,96.82,28.0,21.0,140,15,,6.21,29.88189,,,,,,,,,,,FEW,3000,SCT,4500,,,,,VFR,,,,,,,,,,,,METAR,3.0
YBRM 150030Z 10004KT 040V150 9999 FEW018 32/25 Q1006 RF00.0/000.0,YBRM,2019-01-15T00:30:00Z,-17.93,122.22,32.0,25.0,100,4,,6.21,29.704725,,,,,,,,,,,FEW,1800,,,,,,,VFR,,,,,,,,,,,,METAR,9.0
WALL 150030Z 01005KT 9999 SCT020 26/25 Q1010,WALL,2019-01-15T00:30:00Z,-1.27,116.9,26.0,25.0,10,5,,6.21,29.822834,,,,,,,,,,,SCT,2000,,,,,,,VFR,,,,,,,,,,,,METAR,3.0
WAHS 150030Z 11003KT 5000 HZ FEW013CB FEW014 28/23 Q1009 CB TO N AND NE,WAHS,2019-01-15T00:30:00Z,-6.98,110.38,28.0,23.0,110,3,,3.11,29.793306,,,,,,,,,,HZ,FEW,1300,FEW,1400,,,,,MVFR,,,,,,,,,,,,METAR,5.0
WAPP 150030Z 03005KT 300V090 9999 FEW019CB SCT020 31/25 Q1009NOSIG RMK CB TO S,WAPP,2019-01-15T00:30:00Z,-3.7,128.07,31.0,25.0,30,5,,6.21,,,,,,,TRUE,,,,,FEW,1900,SCT,2000,,,,,VFR,,,,,,,,,,,,METAR,12.0
WATT 150030Z 11003KT 060V140 9999 BKN015 27/24 Q1008 NOSIG,WATT,2019-01-15T00:30:00Z,-10.17,123.67,27.0,24.0,110,3,,6.21,29.763779,,,,,,TRUE,,,,,BKN,1500,,,,,,,MVFR,,,,,,,,,,,,METAR,102.0
YGEL 150030Z AUTO 19020KT 9999 // OVC017 22/16 Q1011 RF00.0/000.0,YGEL,2019-01-15T00:30:00Z,-28.8,114.7,22.0,16.0,190,20,,6.21,29.852362,,,TRUE,,,,,,,,OVC,1700,,,,,,,MVFR,,,,,,,,,,,,METAR,37.0
NZCH 150030Z AUTO 21009KT 170V250 9999 FEW027/// OVC037/// 17/11 Q1017 NOSIG,NZCH,2019-01-15T00:30:00Z,-43.47,172.55,17.0,11.0,210,9,,6.21,30.029528,,,TRUE,,,TRUE,,,,,FEW,2700,OVC,3700,,,,,VFR,,,,,,,,,,,,METAR,34.0
NZWN 150030Z AUTO 18024KT 9999 BKN019/// OVC028/// 16/11 Q1014 NOSIG,NZWN,2019-01-15T00:30:00Z,-41.32,174.8,16.0,11.0,180,24,,6.21,29.940945,,,TRUE,,,TRUE,,,,,BKN,1900,OVC,2800,,,,,MVFR,,,,,,,,,,,,METAR,7.0
NZAA 150030Z AUTO 22008KT 9999 SCT026/// 19/14 Q1007 TEMPO FM 150100 6000 SHRA,NZAA,2019-01-15T00:30:00Z,-37.02,174.8,19.0,14.0,220,8,,6.21,29.734253,,,TRUE,,,,,,,,SCT,2600,,,,,,,VFR,,,,,,,,,,,,METAR,6.0
WADD 150030Z 32009KT 9999 SCT016 29/25 Q1007 NOSIG,WADD,2019-01-15T00:30:00Z,-8.73,115.17,29.0,25.0,320,9,,6.21,29.734253,,,,,,TRUE,,,,,SCT,1600,,,,,,,VFR,,,,,,,,,,,,METAR,216.0
WARR 150030Z 27007KT 5000 HZ FEW020 27/25 Q1009 NOSIG,WARR,2019-01-15T00:30:00Z,-7.37,112.78,27.0,25.0,270,7,,3.11,29.793306,,,,,,TRUE,,,,HZ,FEW,2000,,,,,,,MVFR,,,,,,,,,,,,METAR,2.0
WAAA 150030Z 11003KT 080V150 9999 FEW018CB SCT027 27/26 Q1010 NOSIG,WAAA,2019-01-15T00:30:00Z,-5.07,119.53,27.0,26.0,110,3,,6.21,29.822834,,,,,,TRUE,,,,,FEW,1800,SCT,2700,,,,,VFR,,,,,,,,,,,,METAR,14.0
YWLM 150030Z 01007KT CAVOK 32/20 Q1013 FM0030 04010KT CAVOK,YWLM,2019-01-15T00:30:00Z,-32.8,151.83,32.0,20.0,10,7,,6.21,29.911417,,,,,,,,,,,CAVOK,,,,,,,,VFR,,,,,,,,,,,,METAR,9.0
YBRK 150030Z 10010KT 9999 FEW035 29/20 Q1015,YBRK,2019-01-15T00:30:00Z,-23.37,150.47,29.0,20.0,100,10,,6.21,29.970472,,,,,,,,,,,FEW,3500,,,,,,,VFR,,,,,,,,,,,,METAR,14.0
YPPD 150030Z AUTO 34005KT 310V010 //// // SCT078 35/22 Q1006,YPPD,2019-01-15T00:30:00Z,-20.37,118.62,35.0,22.0,340,5,,,29.704725,,,TRUE,,,,,,,,SCT,7800,,,,,,,,,,,,,,,,,,,METAR,6.0
OTBD 150030Z AUTO 03003KT 350V050 CAVOK 20/17 Q1017 NOSIG,OTBD,2019-01-15T00:30:00Z,25.25,51.57,20.0,17.0,30,3,,6.21,30.029528,,,TRUE,,,TRUE,,,,,CAVOK,,,,,,,,VFR,,,,,,,,,,,,METAR,10.0
LYNI 150030Z 11003KT CAVOK M03/M03 Q1008 R11/2///95 NOSIG,LYNI,2019-01-15T00:30:00Z,43.32,21.88,-3.0,-3.0,110,3,,6.21,29.763779,,,,,,TRUE,,,,,CAVOK,,,,,,,,VFR,,,,,,,,,,,,SPECI,202.0
LFYR 150030Z AUTO 00000KT 9999 OVC047 05/04 Q1025,LFYR,2019-01-15T00:30:00Z,47.32,1.67,5.0,4.0,0,0,,6.21,30.265747,,,TRUE,,,,,,,,OVC,4700,,,,,,,VFR,,,,,,,,,,,,METAR,86.0
LFBC 150030Z AUTO 36004KT 9999 OVC037 08/05 Q1026,LFBC,2019-01-15T00:30:00Z,44.52,-1.12,8.0,5.0,360,4,,6.21,30.295275,,,TRUE,,,,,,,,OVC,3700,,,,,,,VFR,,,,,,,,,,,,METAR,33.0
LFBG 150030Z AUTO 00000KT 9999 BKN043 05/02 Q1026,LFBG,2019-01-15T00:30:00Z,45.67,-0.32,5.0,2.0,0,0,,6.21,30.295275,,,TRUE,,,,,,,,BKN,4300,,,,,,,VFR,,,,,,,,,,,,METAR,31.0
LYKV 150030Z 31006KT CAVOK 01/M05 Q1009 R14/////// NOSIG,LYKV,2019-01-15T00:30:00Z,43.82,20.58,1.0,-5.0,310,6,,6.21,29.793306,,,,,,TRUE,,,,,CAVOK,,,,,,,,VFR,,,,,,,,,,,,METAR,209.0
LFLW 150030Z AUTO 10003KT CAVOK M01/M03 Q1023,LFLW,2019-01-15T00:30:00Z,44.88,2.42,-1.0,-3.0,100,3,,6.21,30.206694,,,TRUE,,,,,,,,CAVOK,,,,,,,,VFR,,,,,,,,,,,,METAR,639.0
YSCB 150030Z AUTO 32010KT 9999 // NCD 35/12 Q1014 RMK RF00.0/000.0 NOSIG,YSCB,2019-01-15T00:30:00Z,-35.28,149.17,35.0,12.0,320,10,,6.21,29.940945,,,TRUE,,,,,,,,CLR,,,,,,,,VFR,,,,,,,,,,,,METAR,577.0
YLHI 150030Z 08009KT 9999 FEW042 25/15 Q1018,YLHI,2019-01-15T00:30:00Z,-31.53,159.07,25.0,15.0,80,9,,6.21,30.059055,,,,,,,,,,,FEW,4200,,,,,,,VFR,,,,,,,,,,,,METAR,2.0
YCFS 150030Z AUTO 05015KT 9999 // NCD 28/20 Q1015 RF00.0/000.0,YCFS,2019-01-15T00:30:00Z,-30.32,153.12,28.0,20.0,50,15,,6.21,29.970472,,,TRUE,,,,,,,,CLR,,,,,,,,VFR,,,,,,,,,,,,METAR,5.0
YCIN 150030Z AUTO 35005KT 9999 // SCT016 30/27 Q1007 RF00.0/011.2,YCIN,2019-01-15T00:30:00Z,-17.58,123.83,30.0,27.0,350,5,,6.21,29.734253,,,TRUE,,,,,,,,SCT,1600,,,,,,,VFR,,,,,,,,,,,,METAR,91.0
VEBN 150030Z 24005KT 1800 BR NSC 10/07 Q1017 BECMG 1500 BR,VEBN,2019-01-15T00:30:00Z,25.45,82.85,10.0,7.0,240,5,,1.12,30.029528,,,,,,,,,,BR,CLR,,,,,,,,IFR,,,,,,,,,,,,METAR,83.0
YPGV 150030Z 01011KT 9999 SCT017 FEW025TCU 30/25 Q1009 RF00.0/000.0,YPGV,2019-01-15T00:30:00Z,-12.27,136.82,30.0,25.0,10,11,,6.21,29.793306,,,,,,,,,,,SCT,1700,FEW,2500,,,,,VFR,,,,,,,,,,,,METAR,55.0
YPKU 150030Z AUTO 07004KT 040V100 9999 // NCD 30/24 Q1008 RF00.0/000.0,YPKU,2019-01-15T00:30:00Z,-15.77,128.68,30.0,24.0,70,4,,6.21,29.763779,,,TRUE,,,,,,,,CLR,,,,,,,,VFR,,,,,,,,,,,,METAR,45.0
YFRT 150030Z AUTO 16014KT //// // NCD 23/17 Q1011 RF00.0/000.0,YFRT,2019-01-15T00:30:00Z,-30.83,128.12,23.0,17.0,160,14,,,29.852362,,,TRUE,,,,,,,,CLR,,,,,,,,,,,,,,,,,,,,METAR,156.0
VOVZ 150030Z VRB02KT 1900 BR NSC 16/15 Q1014 TEMPO 1500 BR,VOVZ,2019-01-15T00:30:00Z,17.75,83.22,16.0,15.0,0,2,,1.18,29.940945,,,,,,,,,,BR,CLR,,,,,,,,IFR,,,,,,,,,,,,METAR,5.0
VEPT 150030Z 25002KT 2000 HZ NSC 09/05 Q1016 NOSIG,VEPT,2019-01-15T00:30:00Z,25.6,85.08,9.0,5.0,250,2,,1.24,30.0,,,,,,TRUE,,,,HZ,CLR,,,,,,,,IFR,,,,,,,,,,,,METAR,60.0
KRUQ 150030Z AUTO 00000KT 10SM OVC038 03/01 A3020 RMK AO2 T00260009,KRUQ,2019-01-15T00:30:00Z,35.65,-80.52,2.6,0.9,0,0,,10.0,30.200787,,,TRUE,TRUE,,,,,,,OVC,3800,,,,,,,VFR,,,,,,,,,,,,METAR,236.0
UTSA 150030Z 19012KT 2400 FU OVC028 10/M00 Q1008 R25/CLRD70 NOSIG,UTSA,2019-01-15T00:30:00Z,40.12,65.17,10.0,0.0,190,12,,1.49,29.763779,,,,,,TRUE,,,,FU,OVC,2800,,,,,,,IFR,,,,,,,,,,,,METAR,346.0
LFMY 150030Z AUTO 33017G29KT 300V360 CAVOK 08/00 Q1017,LFMY,2019-01-15T00:30:00Z,43.6,5.08,8.0,0.0,330,17,29,6.21,30.029528,,,TRUE,,,,,,,,CAVOK,,,,,,,,VFR,,,,,,,,,,,,METAR,60.0
LFMO 150030Z AUTO 34019G34KT CAVOK 08/01 Q1020 TEMPO 35030G45KT,LFMO,2019-01-15T00:30:00Z,44.12,4.87,8.0,1.0,340,19,34,6.21,30.11811,,,TRUE,,,,,,,,CAVOK,,,,,,,,VFR,,,,,,,,,,,,METAR,55.0
LFMC 150030Z AUTO 20004KT 160V280 9999 ////// 08/M03 Q1014,LFMC,2019-01-15T00:30:00Z,43.37,6.37,8.0,-3.0,200,4,,6.21,29.940945,,,TRUE,,,,,,,,,,,,,,,,,,,,,,,,,,,,METAR,78.0
LFKS 150030Z AUTO 27007KT CAVOK 10/M01 Q1012,LFKS,2019-01-15T00:30:00Z,41.92,9.4,10.0,-1.0,270,7,,6.21,29.88189,,,TRUE,,,,,,,,CAVOK,,,,,,,,VFR,,,,,,,,,,,,METAR,22.0
LFBY 150030Z AUTO VRB01KT 4000 // FEW005 OVC040 08/08 Q1025,LFBY,2019-01-15T00:30:00Z,43.67,-1.07,8.0,8.0,0,1,,2.49,30.265747,,,TRUE,,,,,,,,FEW,500,OVC,4000,,,,,IFR,,,,,,,,,,,,METAR,32.0
LFBM 150030Z AUTO 33002KT 9999 OVC036 08/07 Q1026 NOSIG,LFBM,2019-01-15T00:30:00Z,43.92,-0.5,8.0,7.0,330,2,,6.21,30.295275,,,TRUE,,,TRUE,,,,,OVC,3600,,,,,,,VFR,,,,,,,,,,,,METAR,63.0
VIAR 150030Z 00000KT 1500 BR FEW100 04/04 Q1018 NOSIG,VIAR,2019-01-15T00:30:00Z,31.7,74.8,4.0,4.0,0,0,,0.93,30.059055,,,,,,TRUE,,,,BR,FEW,10000,,,,,,,LIFR,,,,,,,,,,,,METAR,234.0
UMKK 150030Z 30007MPS 9999 -SHSNRA BKN023CB 01/M04 Q0991 RESHRASN R24/590338 NOSIG RMK QFE742/0990,UMKK,2019-01-15T00:30:00Z,54.88,20.6,1.0,-4.0,300,14,,6.21,29.26181,,,,,,TRUE,,,,-SHSN -SHRA,BKN,2300,,,,,,,MVFR,,,,,,,,,,,,METAR,21.0
UUYY 150030Z 17004MPS 9999 -SN BKN012 OVC046 M08/M09 Q0998 R18/420250 NOSIG RMK QFE740/0987,UUYY,2019-01-15T00:30:00Z,61.65,50.82,-8.0,-9.0,170,8,,6.21,29.468504,,,,,,TRUE,,,,-SN,BKN,1200,OVC,4600,,,,,MVFR,,,,,,,,,,,,METAR,119.0
UUOO 150030Z 14005MPS 3400 -SN BR OVC006 M01/M02 Q0995 R12/820242 TEMPO OVC004 RMK QFE732,UUOO,2019-01-15T00:30:00Z,51.82,39.23,-1.0,-2.0,140,10,,2.11,29.379921,,,,,,,,,,-SN BR,OVC,600,,,,,,,IFR,,,,,,,,,,,,SPECI,157.0
ULMM 150030Z 15001MPS 7000 BKN003 M24/M27 Q0990 R31/420145 TEMPO 0300 FZFG BKN002 RMK QBB100 OBST OBSC QFE736,ULMM,2019-01-15T00:30:00Z,68.78,32.75,-24.0,-27.0,150,2,,4.35,29.232283,,,,,,,,,,,BKN,300,,,,,,,LIFR,,,,,,,,,,,,SPECI,51.0
ULAA 150030Z 14003MPS 4900 -SN OVC005 M06/M06 Q0989 R08/590534 TEMPO 0700 +SN BKN003 RMK QBB150 QFE740/0987,ULAA,2019-01-15T00:30:00Z,64.6,40.72,-6.0,-6.0,140,6,,3.04,29.202755,,,,,,,,,,-SN,OVC,500,,,,,,,IFR,,,,,,,,,,,,SPECI,19.0
YMML 150030Z 16005KT CAVOK 33/16 Q1008 NOSIG,YMML,2019-01-15T00:30:00Z,-37.67,144.82,33.0,16.0,160,5,,6.21,29.763779,,,,,,TRUE,,,,,CAVOK,,,,,,,,VFR,,,,,,,,,,,,METAR,141.0
YPDN 150030Z 06005KT 9999 FEW024 SCT225 30/24 Q1008 TEMPO 0200/0330 VRB20G35KT 1000 TSRA BKN010 SCT020CB,YPDN,2019-01-15T00:30:00Z,-12.42,130.9,30.0,24.0,60,5,,6.21,29.763779,,,,,,,,,,,FEW,2400,SCT,22500,,,,,VFR,,,,,,,,,,,,METAR,30.0
YBBN 150030Z 03009KT 9999 FEW028 SCT038 28/20 Q1016 NOSIG,YBBN,2019-01-15T00:30:00Z,-27.38,153.13,28.0,20.0,30,9,,6.21,30.0,,,,,,TRUE,,,,,FEW,2800,SCT,3800,,,,,VFR,,,,,,,,,,,,METAR,5.0
YPAD 150030Z 25011KT CAVOK 28/15 Q1008 NOSIG,YPAD,2019-01-15T00:30:00Z,-34.95,138.52,28.0,15.0,250,11,,6.21,29.763779,,,,,,TRUE,,,,,CAVOK,,,,,,,,VFR,,,,,,,,,,,,METAR,4.0
YBMA 150030Z AUTO 03008KT 9999 // SCT063 35/18 Q1012 RF00.0/000.0,YBMA,2019-01-15T00:30:00Z,-20.67,139.47,35.0,18.0,30,8,,6.21,29.88189,,,TRUE,,,,,,,,SCT,6300,,,,,,,VFR,,,,,,,,,,,,METAR,344.0
YBHM 150030Z AUTO 11023KT 9999 // SCT030 28/22 Q1013 RF00.0/000.2,YBHM,2019-01-15T00:30:00Z,-20.35,148.95,28.0,22.0,110,23,,6.21,29.911417,,,TRUE,,,,,,,,SCT,3000,,,,,,,VFR,,,,,,,,,,,,METAR,5.0
GABS 150030Z 05003KT CAVOK 21/M03 Q1015 NOSIG,GABS,2019-01-15T00:30:00Z,12.52,-7.95,21.0,-3.0,50,3,,6.21,29.970472,,,,,,TRUE,,,,,CAVOK,,,,,,,,VFR,,,,,,,,,,,,METAR,381.0
GQNO 150030Z 35007KT CAVOK 18/11 Q1014 NOSIG,GQNO,2019-01-15T00:30:00Z,18.3,-15.97,18.0,11.0,350,7,,6.21,29.940945,,,,,,TRUE,,,,,CAVOK,,,,,,,,VFR,,,,,,,,,,,,METAR,4.0
LFMT 150030Z AUTO 27007KT CAVOK 06/M02 Q1021 NOSIG,LFMT,2019-01-15T00:30:00Z,43.57,3.97,6.0,-2.0,270,7,,6.21,30.147638,,,TRUE,,,TRUE,,,,,CAVOK,,,,,,,,VFR,,,,,,,,,,,,METAR,6.0
LFMN 150030Z 34011KT CAVOK 09/M01 Q1013 NOSIG,LFMN,2019-01-15T00:30:00Z,43.63,7.2,9.0,-1.0,340,11,,6.21,29.911417,,,,,,TRUE,,,,,CAVOK,,,,,,,,VFR,,,,,,,,,,,,METAR,10.0
LFLL 150030Z 35004KT CAVOK 03/02 Q1024 NOSIG,LFLL,2019-01-15T00:30:00Z,45.72,5.07,3.0,2.0,350,4,,6.21,30.236221,,,,,,TRUE,,,,,CAVOK,,,,,,,,VFR,,,,,,,,,,,,METAR,240.0
LFPG 150030Z 18003KT CAVOK 05/03 Q1024 NOSIG,LFPG,2019-01-15T00:30:00Z,49.02,2.52,5.0,3.0,180,3,,6.21,30.236221,,,,,,TRUE,,,,,CAVOK,,,,,,,,VFR,,,,,,,,,,,,METAR,109.0
LFQQ 150030Z AUTO 17002KT 8000 NSC 03/02 Q1022 NOSIG,LFQQ,2019-01-15T00:30:00Z,50.57,3.1,3.0,2.0,170,2,,4.97,30.177166,,,TRUE,,,TRUE,,,,,CLR,,,,,,,,MVFR,,,,,,,,,,,,METAR,52.0
LFPO 150030Z 27004KT CAVOK 06/03 Q1024 NOSIG,LFPO,2019-01-15T00:30:00Z,48.72,2.38,6.0,3.0,270,4,,6.21,30.236221,,,,,,TRUE,,,,,CAVOK,,,,,,,,VFR,,,,,,,,,,,,METAR,96.0
LFBH 150030Z AUTO 07003KT 9999 OVC040 07/02 Q1026 NOSIG,LFBH,2019-01-15T00:30:00Z,46.18,-1.2,7.0,2.0,70,3,,6.21,30.295275,,,TRUE,,,TRUE,,,,,OVC,4000,,,,,,,VFR,,,,,,,,,,,,METAR,10.0
LFBD 150030Z AUTO 03002KT 9999 OVC038 08/04 Q1026 NOSIG,LFBD,2019-01-15T00:30:00Z,44.82,-0.7,8.0,4.0,30,2,,6.21,30.295275,,,TRUE,,,TRUE,,,,,OVC,3800,,,,,,,VFR,,,,,,,,,,,,METAR,61.0
LFRB 150030Z AUTO VRB02KT 9999 OVC026 07/04 Q1026 NOSIG,LFRB,2019-01-15T00:30:00Z,48.45,-4.42,7.0,4.0,0,2,,6.21,30.295275,,,TRUE,,,TRUE,,,,,OVC,2600,,,,,,,MVFR,,,,,,,,,,,,METAR,103.0
LFMK 150030Z AUTO 27014KT 9999 FEW036 BKN044 08/06 Q1023,LFMK,2019-01-15T00:30:00Z,43.22,2.32,8.0,6.0,270,14,,6.21,30.206694,,,TRUE,,,,,,,,FEW,3600,BKN,4400,,,,,VFR,,,,,,,,,,,,METAR,130.0
LFLY 150030Z AUTO 34005KT CAVOK 04/02 Q1024 NOSIG,LFLY,2019-01-15T00:30:00Z,45.72,4.95,4.0,2.0,340,5,,6.21,30.236221,,,TRUE,,,TRUE,,,,,CAVOK,,,,,,,,VFR,,,,,,,,,,,,METAR,201.0
LFRS 150030Z AUTO 00000KT 9999 OVC038 08/02 Q1026 NOSIG,LFRS,2019-01-15T00:30:00Z,47.17,-1.6,8.0,2.0,0,0,,6.21,30.295275,,,TRUE,,,TRUE,,,,,OVC,3800,,,,,,,VFR,,,,,,,,,,,,METAR,27.0
LFBP 150030Z AUTO 33002KT 1600 1100 R31/P2000 R13/1400U BR BKN004 OVC021 08/07 Q1025 BECMG 9999 NSW BKN030,LFBP,2019-01-15T00:30:00Z,43.37,-0.42,8.0,7.0,330,2,,0.99,30.265747,,,TRUE,,,,,,,BR,BKN,400,OVC,2100,,,,,LIFR,,,,,,,,,,,,SPECI,185.0
LFBO 150030Z AUTO 32006KT 9999 OVC038 08/06 Q1025 NOSIG,LFBO,2019-01-15T00:30:00Z,43.62,1.37,8.0,6.0,320,6,,6.21,30.265747,,,TRUE,,,TRUE,,,,,OVC,3800,,,,,,,VFR,,,,,,,,,,,,METAR,153.0
LFBL 150030Z AUTO 34003KT 9999 OVC035 05/M00 Q1025 TEMPO 4000 BR,LFBL,2019-01-15T00:30:00Z,45.87,1.17,5.0,0.0,340,3,,6.21,30.265747,,,TRUE,,,,,,,,OVC,3500,,,,,,,VFR,,,,,,,,,,,,SPECI,402.0
LFBI 150030Z AUTO 28002KT 9999 OVC043 06/03 Q1026 TEMPO 3000 BR,LFBI,2019-01-15T00:30:00Z,46.57,0.32,6.0,3.0,280,2,,6.21,30.295275,,,TRUE,,,,,,,,OVC,4300,,,,,,,VFR,,,,,,,,,,,,SPECI,120.0
LFPV 150030Z AUTO 25003KT 9999 OVC046 05/03 Q1024 NOSIG,LFPV,2019-01-15T00:30:00Z,48.77,2.2,5.0,3.0,250,3,,6.21,30.236221,,,TRUE,,,TRUE,,,,,OVC,4600,,,,,,,VFR,,,,,,,,,,,,METAR,179.0
LFOA 150030Z AUTO 32003KT 9999 OVC048 05/03 Q1025,LFOA,2019-01-15T00:30:00Z,47.03,2.63,5.0,3.0,320,3,,6.21,30.265747,,,TRUE,,,,,,,,OVC,4800,,,,,,,VFR,,,,,,,,,,,,METAR,179.0
LFSB 150030Z AUTO 26007KT 9999 BKN048 BKN078 03/01 Q1023 NOSIG,LFSB,2019-01-15T00:30:00Z,47.6,7.52,3.0,1.0,260,7,,6.21,30.206694,,,TRUE,,,TRUE,,,,,BKN,4800,BKN,7800,,,,,VFR,,,,,,,,,,,,METAR,271.0
LFRN 150030Z AUTO 23003KT 9999 OVC036 07/03 Q1026 NOSIG,LFRN,2019-01-15T00:30:00Z,48.07,-1.72,7.0,3.0,230,3,,6.21,30.295275,,,TRUE,,,TRUE,,,,,OVC,3600,,,,,,,VFR,,,,,,,,,,,,METAR,37.0
LFRD 150030Z AUTO 22003KT 9999 OVC035 07/04 Q1026 NOSIG,LFRD,2019-01-15T00:30:00Z,48.58,-2.07,7.0,4.0,220,3,,6.21,30.295275,,,TRUE,,,TRUE,,,,,OVC,3500,,,,,,,VFR,,,,,,,,,,,,METAR,59.0
LFPB 150030Z AUTO 17002KT CAVOK 05/03 Q1024 NOSIG,LFPB,2019-01-15T00:30:00Z,48.97,2.45,5.0,3.0,170,2,,6.21,30.236221,,,TRUE,,,TRUE,,,,,CAVOK,,,,,,,,VFR,,,,,,,,,,,,METAR,65.0
LFOK 150030Z AUTO 26006KT CAVOK 03/02 Q1024 NOSIG,LFOK,2019-01-15T00:30:00Z,48.78,4.18,3.0,2.0,260,6,,6.21,30.236221,,,TRUE,,,TRUE,,,,,CAVOK,,,,,,,,VFR,,,,,,,,,,,,METAR,162.0
LFOB 150030Z AUTO 00000KT 9999 FEW034 OVC046 04/03 Q1024 NOSIG,LFOB,2019-01-15T00:30:00Z,49.47,2.12,4.0,3.0,0,0,,6.21,30.236221,,,TRUE,,,TRUE,,,,,FEW,3400,OVC,4600,,,,,VFR,,,,,,,,,,,,METAR,111.0
LFMU 150030Z AUTO 34010KT CAVOK 09/01 Q1022,LFMU,2019-01-15T00:30:00Z,43.32,3.35,9.0,1.0,340,10,,6.21,30.177166,,,TRUE,,,,,,,,CAVOK,,,,,,,,VFR,,,,,,,,,,,,METAR,17.0
LFBZ 150030Z AUTO 10003KT 1900 BR SCT001 OVC036 09/08 Q1025 TEMPO BKN004 BECMG 9999 NSW,LFBZ,2019-01-15T00:30:00Z,43.47,-1.52,9.0,8.0,100,3,,1.18,30.265747,,,TRUE,,,,,,,BR,SCT,100,OVC,3600,,,,,IFR,,,,,,,,,,,,SPECI,71.0
LFBT 150030Z AUTO VRB02KT 9999 -DZ BKN003 OVC010 07/07 Q1025 TEMPO 0600 FG VV///,LFBT,2019-01-15T00:30:00Z,43.17,0.0,7.0,7.0,0,2,,6.21,30.265747,,,TRUE,,,,,,,-DZ,BKN,300,OVC,1000,,,,,LIFR,,,,,,,,,,,,SPECI,363.0
GOBD 150030Z 36015KT 8000 NSC 20/18 Q1014 NOSIG,GOBD,2019-01-15T00:30:00Z,14.67,-17.07,20.0,18.0,360,15,,4.97,29.940945,,,,,,TRUE,,,,,CLR,,,,,,,,MVFR,,,,,,,,,,,,METAR,88.0
LFKB 150030Z AUTO 30008KT CAVOK 14/M01 Q1012 NOSIG,LFKB,2019-01-15T00:30:00Z,42.53,9.47,14.0,-1.0,300,8,,6.21,29.88189,,,TRUE,,,TRUE,,,,,CAVOK,,,,,,,,VFR,,,,,,,,,,,,METAR,12.0
LFLB 150030Z AUTO 30004KT 270V340 CAVOK 03/02 Q1024,LFLB,2019-01-15T00:30:00Z,45.63,5.87,3.0,2.0,300,4,,6.21,30.236221,,,TRUE,,,,,,,,CAVOK,,,,,,,,VFR,,,,,,,,,,,,METAR,239.0
LFML 150030Z AUTO 33025KT CAVOK 08/02 Q1016 BECMG 32025G40KT,LFML,2019-01-15T00:30:00Z,43.45,5.22,8.0,2.0,330,25,,6.21,30.0,,,TRUE,,,,,,,,CAVOK,,,,,,,,VFR,,,,,,,,,,,,SPECI,36.0
LEAG 150030Z AUTO 31008KT 270V340 CAVOK 14/04 Q1020,LEAG,2019-01-15T00:30:00Z,,,14.0,4.0,310,8,,6.21,30.11811,,,TRUE,,,,,,,,CAVOK,,,,,,,,VFR,,,,,,,,,,,,METAR,
RJAH 150030Z VRB01KT 9999 FEW025 BKN180 BKN230 04/M02 Q1023 RMK 1CU025 5AC180 A3021,RJAH,2019-01-15T00:30:00Z,36.17,140.42,4.0,-2.0,0,1,,6.21,30.206694,,,,,,,,,,,FEW,2500,BKN,18000,BKN,23000,,,VFR,,,,,,,,,,,,SPECI,35.0
LETL 150030Z AUTO 33006KT 9999 NCD M02/M04 Q1022,LETL,2019-01-15T00:30:00Z,40.42,-1.22,-2.0,-4.0,330,6,,6.21,30.177166,,,TRUE,,,,,,,,CLR,,,,,,,,VFR,,,,,,,,,,,,METAR,1013.0
LECH 150030Z AUTO 00000KT 9999 NCD 05/02 Q1020,LECH,2019-01-15T00:30:00Z,40.2,0.07,5.0,2.0,0,0,,6.21,30.11811,,,TRUE,,,,,,,,CLR,,,,,,,,VFR,,,,,,,,,,,,METAR,337.0
LEBG 150030Z AUTO 05012KT 9999 OVC008/// 05/04 Q1024,LEBG,2019-01-15T00:30:00Z,42.37,-3.62,5.0,4.0,50,12,,6.21,30.236221,,,TRUE,,,,,,,,OVC,800,,,,,,,IFR,,,,,,,,,,,,METAR,891.0
LEAL 150030Z 00000KT CAVOK 08/01 Q1020 NOSIG,LEAL,2019-01-15T00:30:00Z,38.27,-0.55,8.0,1.0,0,0,,6.21,30.11811,,,,,,TRUE,,,,,CAVOK,,,,,,,,VFR,,,,,,,,,,,,METAR,31.0
UTO8 M M M 172/-31/-34/2522/M/ PK WND 2530 2340Z SOG 10 8021 68MM,UTO8,2019-01-15T00:30:00Z,,,,,,,,4.98,,,,,,,,,,,,,,,,,,,,,,,,,,,,,,,,METAR,
LEMG 150030Z 27016KT CAVOK 15/00 Q1018 NOSIG,LEMG,2019-01-15T00:30:00Z,36.67,-4.5,15.0,0.0,270,16,,6.21,30.059055,,,,,,TRUE,,,,,CAVOK,,,,,,,,VFR,,,,,,,,,,,,METAR,7.0
LEMD 150030Z 09002KT 8000 NSC M01/M02 Q1021 NOSIG,LEMD,2019-01-15T00:30:00Z,40.48,-3.57,-1.0,-2.0,90,2,,4.97,30.147638,,,,,,TRUE,,,,,CLR,,,,,,,,MVFR,,,,,,,,,,,,METAR,582.0
LEIB 150030Z AUTO VRB02KT CAVOK 06/04 Q1020,LEIB,2019-01-15T00:30:00Z,38.87,1.37,6.0,4.0,0,2,,6.21,30.11811,,,TRUE,,,,,,,,CAVOK,,,,,,,,VFR,,,,,,,,,,,,METAR,12.0
LEVC 150030Z 28003KT CAVOK 05/02 Q1021 NOSIG,LEVC,2019-01-15T00:30:00Z,39.5,-0.47,5.0,2.0,280,3,,6.21,30.147638,,,,,,TRUE,,,,,CAVOK,,,,,,,,VFR,,,,,,,,,,,,METAR,62.0
LEPA 150030Z 05006KT CAVOK 04/04 Q1020 NOSIG,LEPA,2019-01-15T00:30:00Z,39.53,2.72,4.0,4.0,50,6,,6.21,30.11811,,,,,,TRUE,,,,,CAVOK,,,,,,,,VFR,,,,,,,,,,,,METAR,8.0
LEZL 150030Z AUTO 14003KT 8000 NCD 06/05 Q1021,LEZL,2019-01-15T00:30:00Z,37.42,-5.9,6.0,5.0,140,3,,4.97,30.147638,,,TRUE,,,,,,,,CLR,,,,,,,,MVFR,,,,,,,,,,,,METAR,31.0
LEVX 150030Z 23006KT 200V260 CAVOK 05/04 Q1021 NOSIG,LEVX,2019-01-15T00:30:00Z,42.22,-8.62,5.0,4.0,230,6,,6.21,30.147638,,,,,,TRUE,,,,,CAVOK,,,,,,,,VFR,,,,,,,,,,,,METAR,256.0
GEML 150030Z AUTO 24007KT 180V280 9999 NCD 15/06 Q1019,GEML,2019-01-15T00:30:00Z,35.27,-2.95,15.0,6.0,240,7,,6.21,30.088583,,,TRUE,,,,,,,,CLR,,,,,,,,VFR,,,,,,,,,,,,METAR,55.0
LELN 150030Z AUTO 32004KT 9999 NCD M04/M05 Q1023,LELN,2019-01-15T00:30:00Z,42.57,-5.65,-4.0,-5.0,320,4,,6.21,30.206694,,,TRUE,,,,,,,,CLR,,,,,,,,VFR,,,,,,,,,,,,METAR,914.0
LELC 150030Z AUTO 26003KT 9000 NCD 07/06 Q1020,LELC,2019-01-15T00:30:00Z,37.77,-0.8,7.0,6.0,260,3,,5.59,30.11811,,,TRUE,,,,,,,,CLR,,,,,,,,VFR,,,,,,,,,,,,METAR,3.0
LEXJ 150030Z AUTO 00000KT 6000 SCT031/// OVC037/// 10/10 Q1026,LEXJ,2019-01-15T00:30:00Z,43.42,-3.82,10.0,10.0,0,0,,3.73,30.295275,,,TRUE,,,,,,,,SCT,3100,OVC,3700,,,,,MVFR,,,,,,,,,,,,METAR,6.0
LEPP 150030Z AUTO 33008KT 8000 SCT027/// 07/05 Q1023,LEPP,2019-01-15T00:30:00Z,42.77,-1.65,7.0,5.0,330,8,,4.97,30.206694,,,TRUE,,,,,,,,SCT,2700,,,,,,,MVFR,,,,,,,,,,,,METAR,459.0
LEZG 150030Z 29010KT CAVOK 08/04 Q1022,LEZG,2019-01-15T00:30:00Z,41.67,-1.02,8.0,4.0,290,10,,6.21,30.177166,,,,,,,,,,,CAVOK,,,,,,,,VFR,,,,,,,,,,,,METAR,258.0
LEJR 150030Z AUTO VRB02KT 9999 NCD 03/01 Q1021,LEJR,2019-01-15T00:30:00Z,36.75,-6.07,3.0,1.0,0,2,,6.21,30.147638,,,TRUE,,,,,,,,CLR,,,,,,,,VFR,,,,,,,,,,,,METAR,30.0
LEST 150030Z 10006KT 9000 NSC 05/04 Q1022 NOSIG,LEST,2019-01-15T00:30:00Z,42.88,-8.42,5.0,4.0,100,6,,5.59,30.177166,,,,,,TRUE,,,,,CLR,,,,,,,,VFR,,,,,,,,,,,,METAR,367.0
LEDA 150030Z AUTO VRB01KT 9999 NCD 01/01 Q1021,LEDA,2019-01-15T00:30:00Z,41.73,0.53,1.0,1.0,0,1,,6.21,30.147638,,,TRUE,,,,,,,,CLR,,,,,,,,VFR,,,,,,,,,,,,METAR,350.0
LESA 150030Z AUTO 00000KT 2300 BR NSC M02/M03 Q1023,LESA,2019-01-15T00:30:00Z,40.95,-5.5,-2.0,-3.0,0,0,,1.43,30.206694,,,TRUE,,,,,,,BR,CLR,,,,,,,,IFR,,,,,,,,,,,,METAR,795.0
LEMI 150030Z AUTO 36006KT 9999 NCD 10/01 Q1020,LEMI,2019-01-15T00:30:00Z,,,10.0,1.0,360,6,,6.21,30.11811,,,TRUE,,,,,,,,CLR,,,,,,,,VFR,,,,,,,,,,,,METAR,
GCFV 150030Z AUTO 05010KT 9999 NCD 18/09 Q1021,GCFV,2019-01-15T00:30:00Z,28.43,-13.87,18.0,9.0,50,10,,6.21,30.147638,,,TRUE,,,,,,,,CLR,,,,,,,,VFR,,,,,,,,,,,,METAR,23.0
GCLA 150030Z AUTO 30010KT 9999 NCD 17/09 Q1020,GCLA,2019-01-15T00:30:00Z,28.62,-17.75,17.0,9.0,300,10,,6.21,30.11811,,,TRUE,,,,,,,,CLR,,,,,,,,VFR,,,,,,,,,,,,METAR,31.0
GCLP 150030Z 31007KT 280V340 CAVOK 16/01 Q1020 NOSIG,GCLP,2019-01-15T00:30:00Z,27.92,-15.37,16.0,1.0,310,7,,6.21,30.11811,,,,,,TRUE,,,,,CAVOK,,,,,,,,VFR,,,,,,,,,,,,METAR,25.0
GCTS 150030Z 06011KT CAVOK 17/M04 Q1020 NOSIG,GCTS,2019-01-15T00:30:00Z,28.05,-16.57,17.0,-4.0,60,11,,6.21,30.11811,,,,,,TRUE,,,,,CAVOK,,,,,,,,VFR,,,,,,,,,,,,METAR,72.0
GCRR 150030Z 02009KT CAVOK 15/04 Q1021,GCRR,2019-01-15T00:30:00Z,28.93,-13.58,15.0,4.0,20,9,,6.21,30.147638,,,,,,,,,,,CAVOK,,,,,,,,VFR,,,,,,,,,,,,METAR,40.0
GCXO 150030Z AUTO 15005KT 120V190 9999 NCD 11/06 Q1021,GCXO,2019-01-15T00:30:00Z,28.48,-16.35,11.0,6.0,150,5,,6.21,30.147638,,,TRUE,,,,,,,,CLR,,,,,,,,VFR,,,,,,,,,,,,METAR,632.0
LFLN 150030Z AUTO 00000KT CAVOK 02/01 Q1025,LFLN,2019-01-15T00:30:00Z,46.42,4.02,2.0,1.0,0,0,,6.21,30.265747,,,TRUE,,,,,,,,CAVOK,,,,,,,,VFR,,,,,,,,,,,,METAR,244.0
LFRQ 150030Z AUTO 00000KT 9999 OVC031 07/03 Q1027,LFRQ,2019-01-15T00:30:00Z,47.97,-4.17,7.0,3.0,0,0,,6.21,30.324802,,,TRUE,,,,,,,,OVC,3100,,,,,,,VFR,,,,,,,,,,,,METAR,94.0
LFSD 150030Z AUTO 00000KT 9000 NSC 01/00 Q1024,LFSD,2019-01-15T00:30:00Z,47.27,5.07,1.0,0.0,0,0,,5.59,30.236221,,,TRUE,,,,,,,,CLR,,,,,,,,VFR,,,,,,,,,,,,METAR,227.0
LEAM 150030Z AUTO 02005KT 330V080 9999 NCD 13/03 Q1019,LEAM,2019-01-15T00:30:00Z,36.85,-2.37,13.0,3.0,20,5,,6.21,30.088583,,,TRUE,,,,,,,,CLR,,,,,,,,VFR,,,,,,,,,,,,METAR,21.0
LEMH 150030Z AUTO 34008KT 300V010 9999 FEW027/// 11/07 Q1019,LEMH,2019-01-15T00:30:00Z,39.87,4.22,11.0,7.0,340,8,,6.21,30.088583,,,TRUE,,,,,,,,FEW,2700,,,,,,,VFR,,,,,,,,,,,,METAR,82.0
LEBL 150030Z 32005KT CAVOK 07/04 Q1020 NOSIG,LEBL,2019-01-15T00:30:00Z,41.27,2.07,7.0,4.0,320,5,,6.21,30.11811,,,,,,TRUE,,,,,CAVOK,,,,,,,,VFR,,,,,,,,,,,,METAR,6.0
LERS 150030Z AUTO 35004KT 290V060 9999 NCD 04/01 Q1020,LERS,2019-01-15T00:30:00Z,41.13,1.17,4.0,1.0,350,4,,6.21,30.11811,,,TRUE,,,,,,,,CLR,,,,,,,,VFR,,,,,,,,,,,,METAR,76.0
LEGE 150030Z VRB01KT 8000 NSC 04/04 Q1020,LEGE,2019-01-15T00:30:00Z,41.88,2.77,4.0,4.0,0,1,,4.97,30.11811,,,,,,,,,,,CLR,,,,,,,,MVFR,,,,,,,,,,,,METAR,129.0
LECO 150030Z AUTO 17004KT 0450 0200 R21/1400D R03/P2000 FG VV/// 03/03 Q1023,LECO,2019-01-15T00:30:00Z,43.28,-8.37,3.0,3.0,170,4,,0.28,30.206694,,,TRUE,,,,,,,FG,OVX,0,,,,,,,LIFR,,,,,,,,,,,,METAR,103.0
LEBB 150030Z AUTO 36001KT 8000 2400 VV003 10/09 Q1026,LEBB,2019-01-15T00:30:00Z,43.28,-2.92,10.0,9.0,360,1,,4.97,30.295275,,,TRUE,,,,,,,,OVX,0,,,,,,,LIFR,,,,,,,,,,,300,METAR,34.0
LEAS 150030Z AUTO 12004KT 080V160 9999 OVC022/// 08/07 Q1024,LEAS,2019-01-15T00:30:00Z,43.53,-6.02,8.0,7.0,120,4,,6.21,30.236221,,,TRUE,,,,,,,,OVC,2200,,,,,,,MVFR,,,,,,,,,,,,METAR,134.0
LESO 150030Z AUTO VRB01KT 9999 -RA FEW025/// BKN030/// OVC038/// 10/09 Q1026,LESO,2019-01-15T00:30:00Z,43.35,-1.8,10.0,9.0,0,1,,6.21,30.295275,,,TRUE,,,,,,,-RA,FEW,2500,BKN,3000,OVC,3800,,,MVFR,,,,,,,,,,,,METAR,8.0
LFRC 150030Z AUTO 28009KT 9999 OVC030 08/01 Q1025,LFRC,2019-01-15T00:30:00Z,49.63,-1.47,8.0,1.0,280,9,,6.21,30.265747,,,TRUE,,,,,,,,OVC,3000,,,,,,,MVFR,,,,,,,,,,,,METAR,138.0
LFPN 150030Z AUTO 24004KT 9999 OVC044 06/03 Q1024,LFPN,2019-01-15T00:30:00Z,48.75,2.12,6.0,3.0,240,4,,6.21,30.236221,,,TRUE,,,,,,,,OVC,4400,,,,,,,VFR,,,,,,,,,,,,METAR,164.0
LFJR 150030Z AUTO 23002KT 9999 OVC041 06/03 Q1026,LFJR,2019-01-15T00:30:00Z,47.57,-0.3,6.0,3.0,230,2,,6.21,30.295275,,,TRUE,,,,,,,,OVC,4100,,,,,,,VFR,,,,,,,,,,,,METAR,60.0
LFGA 150030Z AUTO 19005KT CAVOK 02/M00 Q1023,LFGA,2019-01-15T00:30:00Z,48.1,7.35,2.0,0.0,190,5,,6.21,30.206694,,,TRUE,,,,,,,,CAVOK,,,,,,,,VFR,,,,,,,,,,,,METAR,191.0
LFBU 150030Z AUTO 07002KT 9999 OVC042 04/00 Q1026,LFBU,2019-01-15T00:30:00Z,45.72,0.22,4.0,0.0,70,2,,6.21,30.295275,,,TRUE,,,,,,,,OVC,4200,,,,,,,VFR,,,,,,,,,,,,METAR,133.0
LFAT 150030Z AUTO 30006KT 9999 FEW044 OVC050 08/04 Q1023,LFAT,2019-01-15T00:30:00Z,50.52,1.62,8.0,4.0,300,6,,6.21,30.206694,,,TRUE,,,,,,,,FEW,4400,OVC,5000,,,,,VFR,,,,,,,,,,,,METAR,14.0
LFAQ 150030Z AUTO 28003KT 9999 FEW020 OVC054 05/04 Q1023,LFAQ,2019-01-15T00:30:00Z,49.97,2.7,5.0,4.0,280,3,,6.21,30.206694,,,TRUE,,,,,,,,FEW,2000,OVC,5400,,,,,VFR,,,,,,,,,,,,METAR,111.0
LFRK 150030Z AUTO 26006KT 9999 OVC036 07/03 Q1025,LFRK,2019-01-15T00:30:00Z,49.17,-0.45,7.0,3.0,260,6,,6.21,30.265747,,,TRUE,,,,,,,,OVC,3600,,,,,,,VFR,,,,,,,,,,,,METAR,67.0
GCGM 150030Z AUTO VRB03KT 9999 NCD 16/10 Q1020 RMK R09/04006KT 010V070 ARP/04005KT 010V070,GCGM,2019-01-15T00:30:00Z,28.03,-17.22,16.0,10.0,0,3,,6.21,30.11811,,,TRUE,,,,,,,,CLR,,,,,,,,VFR,,,,,,,,,,,,METAR,219.0
GCHI 150030Z AUTO 21007KT CAVOK 17/09 Q1020,GCHI,2019-01-15T00:30:00Z,27.82,-17.87,17.0,9.0,210,7,,6.21,30.11811,,,TRUE,,,,,,,,CAVOK,,,,,,,,VFR,,,,,,,,,,,,METAR,30.0
LPMA 150030Z 01006KT 9999 SCT015 17/12 Q1024,LPMA,2019-01-15T00:30:00Z,32.7,-16.77,17.0,12.0,10,6,,6.21,30.236221,,,,,,,,,,,SCT,1500,,,,,,,VFR,,,,,,,,,,,,METAR,55.0
LPPR 150030Z 05003KT 4100 BR NSC 04/04 Q1021,LPPR,2019-01-15T00:30:00Z,41.22,-8.67,4.0,4.0,50,3,,2.55,30.147638,,,,,,,,,,BR,CLR,,,,,,,,IFR,,,,,,,,,,,,METAR,73.0
LPPS 150030Z 02004KT 9999 FEW015 14/10 Q1024,LPPS,2019-01-15T00:30:00Z,33.07,-16.35,14.0,10.0,20,4,,6.21,30.236221,,,,,,,,,,,FEW,1500,,,,,,,VFR,,,,,,,,,,,,METAR,82.0
VOHS 150030Z VRB03KT 5000 BR NSC 16/15 Q1018 TEMPO 3000,VOHS,2019-01-15T00:30:00Z,17.23,78.43,16.0,15.0,0,3,,3.11,30.059055,,,,,,,,,,BR,CLR,,,,,,,,MVFR,,,,,,,,,,,,SPECI,1.0
LPPT 150030Z 32007KT CAVOK 10/08 Q1021,LPPT,2019-01-15T00:30:00Z,38.77,-9.12,10.0,8.0,320,7,,6.21,30.147638,,,,,,,,,,,CAVOK,,,,,,,,VFR,,,,,,,,,,,,METAR,123.0
VABP 150030Z 05004KT 3000 HZ NSC 08/06 Q1019 TEMPO 2000 HZ,VABP,2019-01-15T00:30:00Z,23.27,77.33,8.0,6.0,50,4,,1.86,30.088583,,,,,,,,,,HZ,CLR,,,,,,,,IFR,,,,,,,,,,,,METAR,523.0
LFRH 150030Z AUTO 00000KT 9999 OVC034 07/02 Q1027 NOSIG,LFRH,2019-01-15T00:30:00Z,47.77,-3.45,7.0,2.0,0,0,,6.21,30.324802,,,TRUE,,,TRUE,,,,,OVC,3400,,,,,,,VFR,,,,,,,,,,,,METAR,44.0
LFPT 150030Z AUTO VRB02KT 9999 OVC049 03/01 Q1024,LFPT,2019-01-15T00:30:00Z,49.1,2.03,3.0,1.0,0,2,,6.21,30.236221,,,TRUE,,,,,,,,OVC,4900,,,,,,,VFR,,,,,,,,,,,,METAR,99.0
LFPM 150030Z AUTO 26005KT 9999 OVC049 06/04 Q1024,LFPM,2019-01-15T00:30:00Z,48.62,2.67,6.0,4.0,260,5,,6.21,30.236221,,,TRUE,,,,,,,,OVC,4900,,,,,,,VFR,,,,,,,,,,,,METAR,92.0
EPWR 150030Z 28019KT 9999 BKN030 M00/M05 Q1007 R11/71//93,EPWR,2019-01-15T00:30:00Z,51.1,16.87,0.0,-5.0,280,19,,6.21,29.734253,,,,,,,,,,,BKN,3000,,,,,,,MVFR,,,,,,,,,,,,SPECI,121.0
EPSC 150030Z 27014KT 9999 SCT030 00/M04 Q1004,EPSC,2019-01-15T00:30:00Z,53.58,14.9,0.0,-4.0,270,14,,6.21,29.64567,,,,,,,,,,,SCT,3000,,,,,,,VFR,,,,,,,,,,,,METAR,47.0
YMAV 150030Z AUTO 18007KT 150V210 //// // NCD 30/19 Q1008 RF00.0/000.0 PRESENT WEATHER SENSOR US,YMAV,2019-01-15T00:30:00Z,-38.03,144.48,30.0,19.0,180,7,,,29.763779,,,TRUE,,,,,,,,CLR,,,,,,,,,,,,,,,,,,,,METAR,8.0
YBAS 150030Z AUTO 29004KT 240V340 9999 // NCD 39/05 Q1011 RF00.0/000.0,YBAS,2019-01-15T00:30:00Z,-23.8,133.9,39.0,5.0,290,4,,6.21,29.852362,,,TRUE,,,,,,,,CLR,,,,,,,,VFR,,,,,,,,,,,,METAR,541.0
YGLA 150030Z AUTO 10012KT 9999 // NCD 30/19 Q1015 RF00.0/000.0,YGLA,2019-01-15T00:30:00Z,-23.87,151.22,30.0,19.0,100,12,,6.21,29.970472,,,TRUE,,,,,,,,CLR,,,,,,,,VFR,,,,,,,,,,,,METAR,52.0
YAMB 150030Z 05007KT 360V090 9999 SCT045 30/18 Q1016 NOSIG,YAMB,2019-01-15T00:30:00Z,-27.63,152.72,30.0,18.0,50,7,,6.21,30.0,,,,,,TRUE,,,,,SCT,4500,,,,,,,VFR,,,,,,,,,,,,METAR,28.0
YSTW 150030Z AUTO 01006KT 9999 // NCD 34/11 Q1016 RF00.0/000.0,YSTW,2019-01-15T00:30:00Z,-31.07,150.85,34.0,11.0,10,6,,6.21,30.0,,,TRUE,,,,,,,,CLR,,,,,,,,VFR,,,,,,,,,,,,METAR,410.0
YHID 150030Z AUTO 07007KT 9999 // SCT023 30/24 Q1009,YHID,2019-01-15T00:30:00Z,-10.58,142.3,30.0,24.0,70,7,,6.21,29.793306,,,TRUE,,,,,,,,SCT,2300,,,,,,,VFR,,,,,,,,,,,,METAR,13.0
YPJT 150030Z AUTO 13009KT 9999 // NCD 21/12 Q1013 RF00.0/000.0,YPJT,2019-01-15T00:30:00Z,-32.1,115.88,21.0,12.0,130,9,,6.21,29.911417,,,TRUE,,,,,,,,CLR,,,,,,,,VFR,,,,,,,,,,,,METAR,30.0
YSRI 150030Z AUTO 06003KT 9999 // NCD 29/21 Q1012 RF00.0/000.0 PRESENT WEATHER SENSOR US,YSRI,2019-01-15T00:30:00Z,-33.6,150.77,29.0,21.0,60,3,,6.21,29.88189,,,TRUE,,,,,,,,CLR,,,,,,,,VFR,,,,,,,,,,,,METAR,21.0
YPEA 150030Z AUTO 11010KT 070V140 9999 // NCD 22/11 Q1012,YPEA,2019-01-15T00:30:00Z,-31.67,116.02,22.0,11.0,110,10,,6.21,29.88189,,,TRUE,,,,,,,,CLR,,,,,,,,VFR,,,,,,,,,,,,METAR,49.0
YPWR 150030Z AUTO 35014KT 9999 // NCD 42/03 Q1009 RF00.0/000.0,YPWR,2019-01-15T00:30:00Z,-31.12,136.82,42.0,3.0,350,14,,6.21,29.793306,,,TRUE,,,,,,,,CLR,,,,,,,,VFR,,,,,,,,,,,,METAR,167.0
YSDU 150030Z AUTO 31015KT 9999 // NCD 37/06 Q1014 RF00.0/000.0,YSDU,2019-01-15T00:30:00Z,-32.22,148.57,37.0,6.0,310,15,,6.21,29.940945,,,TRUE,,,,,,,,CLR,,,,,,,,VFR,,,,,,,,,,,,METAR,275.0
YSSY 150030Z 05013KT CAVOK 30/21 Q1012 NOSIG,YSSY,2019-01-15T00:30:00Z,-33.95,151.17,30.0,21.0,50,13,,6.21,29.88189,,,,,,TRUE,,,,,CAVOK,,,,,,,,VFR,,,,,,,,,,,,METAR,3.0
YPPH 150030Z 10013KT CAVOK 22/10 Q1013 NOSIG,YPPH,2019-01-15T00:30:00Z,-31.93,115.98,22.0,10.0,100,13,,6.21,29.911417,,,,,,TRUE,,,,,CAVOK,,,,,,,,VFR,,,,,,,,,,,,METAR,13.0
VILK 150030Z 27004KT 2000 HZ NSC 07/03 Q1017 NOSIG,VILK,2019-01-15T00:30:00Z,26.75,80.87,7.0,3.0,270,4,,1.24,30.029528,,,,,,TRUE,,,,HZ,CLR,,,,,,,,IFR,,,,,,,,,,,,METAR,128.0
WMKP 150030Z 02005KT 320V070 8000 FEW020 BKN280 27/21 Q1010 NOSIG,WMKP,2019-01-15T00:30:00Z,5.28,100.27,27.0,21.0,20,5,,4.97,29.822834,,,,,,TRUE,,,,,FEW,2000,BKN,28000,,,,,MVFR,,,,,,,,,,,,METAR,4.0
WMKK 150030Z VRB01KT 9999 FEW017CB SCT140 BKN280 26/24 Q1010 NOSIG,WMKK,2019-01-15T00:30:00Z,2.75,101.72,26.0,24.0,0,1,,6.21,29.822834,,,,,,TRUE,,,,,FEW,1700,SCT,14000,BKN,28000,,,VFR,,,,,,,,,,,,METAR,22.0
WBSB 150030Z 19003KT 9999 FEW015 FEW016CB SCT140 BKN300 28/25 Q1010 NOSIG,WBSB,2019-01-15T00:30:00Z,4.92,114.92,28.0,25.0,190,3,,6.21,29.822834,,,,,,TRUE,,,,,FEW,1500,FEW,1600,SCT,14000,BKN,30000,VFR,,,,,,,,,,,,METAR,15.0
WBKK 150030Z 10005KT 070V130 9999 FEW014 SCT140 BKN270 26/24 Q1010 NOSIG,WBKK,2019-01-15T00:30:00Z,5.92,116.03,26.0,24.0,100,5,,6.21,29.822834,,,,,,TRUE,,,,,FEW,1400,SCT,14000,BKN,27000,,,VFR,,,,,,,,,,,,METAR,3.0
KBWP 150030Z AUTO 31004KT 3SM OVC006 M05/M06 A3027 RMK AO1,KBWP,2019-01-15T00:30:00Z,46.25,-96.62,-5.0,-6.0,310,4,,3.0,30.268702,,,TRUE,TRUE,,,,,,,OVC,600,,,,,,,IFR,,,,,,,,,,,,METAR,295.0
LYVR 150030Z 31012KT CAVOK 01/M04 Q1008 R01/////// NOSIG,LYVR,2019-01-15T00:30:00Z,45.13,21.32,1.0,-4.0,310,12,,6.21,29.763779,,,,,,TRUE,,,,,CAVOK,,,,,,,,VFR,,,,,,,,,,,,METAR,85.0
LYUZ 150030Z AUTO 00000KT 9999 -SN FEW002/// OVC008/// M03/M05 Q1007,LYUZ,2019-01-15T00:30:00Z,43.9,19.7,-3.0,-5.0,0,0,,6.21,29.734253,,,TRUE,,,,,,,-SN,FEW,200,OVC,800,,,,,IFR,,,,,,,,,,,,METAR,904.0
LYTV 150030Z 02006G21KT CAVOK 08/M07 Q1007,LYTV,2019-01-15T00:30:00Z,42.38,18.72,8.0,-7.0,20,6,21,6.21,29.734253,,,,,,,,,,,CAVOK,,,,,,,,VFR,,,,,,,,,,,,METAR,5.0
LYPG 150030Z 35018KT CAVOK 07/M07 Q1007 R18/29//94 NOSIG,LYPG,2019-01-15T00:30:00Z,42.37,19.25,7.0,-7.0,350,18,,6.21,29.734253,,,,,,TRUE,,,,,CAVOK,,,,,,,,VFR,,,,,,,,,,,,SPECI,43.0
LYBT 150030Z 26011KT CAVOK 02/M03 Q1009 NOSIG,LYBT,2019-01-15T00:30:00Z,44.93,20.25,2.0,-3.0,260,11,,6.21,29.793306,,,,,,TRUE,,,,,CAVOK,,,,,,,,VFR,,,,,,,,,,,,METAR,80.0
LYBE 150030Z 28015KT CAVOK 02/M02 Q1009 R12/1///95 NOSIG,LYBE,2019-01-15T00:30:00Z,44.82,20.28,2.0,-2.0,280,15,,6.21,29.793306,,,,,,TRUE,,,,,CAVOK,,,,,,,,VFR,,,,,,,,,,,,SPECI,99.0
LQBK 150030Z 06004KT 9999 FEW047 02/M01 Q1013 RESN NOSIG,LQBK,2019-01-15T00:30:00Z,44.93,17.3,2.0,-1.0,60,4,,6.21,29.911417,,,,,,TRUE,,,,,FEW,4700,,,,,,,VFR,,,,,,,,,,,,METAR,122.0
OITT 150030Z VRB02KT 9999 FEW035 SCT180 M00/M04 Q1014 A2996,OITT,2019-01-15T00:30:00Z,38.13,46.23,0.0,-4.0,0,2,,6.21,29.940945,,,,,,,,,,,FEW,3500,SCT,18000,,,,,VFR,,,,,,,,,,,,METAR,1361.0
OISS 150030Z 00000KT 9999 FEW040 SCT200 07/M01 Q1022 A3018,OISS,2019-01-15T00:30:00Z,29.52,52.57,7.0,-1.0,0,0,,6.21,30.177166,,,,,,,,,,,FEW,4000,SCT,20000,,,,,VFR,,,,,,,,,,,,METAR,1491.0
OIMM 150030Z 29006KT 9999 SCT030 SCT200 08/03 Q1012 A2990,OIMM,2019-01-15T00:30:00Z,36.23,59.62,8.0,3.0,290,6,,6.21,29.88189,,,,,,,,,,,SCT,3000,SCT,20000,,,,,VFR,,,,,,,,,,,,METAR,980.0
OIII 150030Z 30008KT 9999 FEW035 08/00 Q1014 A2995,OIII,2019-01-15T00:30:00Z,35.68,51.3,8.0,0.0,300,8,,6.21,29.940945,,,,,,,,,,,FEW,3500,,,,,,,VFR,,,,,,,,,,,,METAR,1191.0
OIFM 150030Z 00000KT CAVOK 02/01 Q1016 A3003,OIFM,2019-01-15T00:30:00Z,32.75,51.87,2.0,1.0,0,0,,6.21,30.0,,,,,,,,,,,CAVOK,,,,,,,,VFR,,,,,,,,,,,,METAR,1542.0
BIKF 150030Z 23025KT 9999 VCSH FEW010CB BKN016 03/00 Q0989 R28/290075,BIKF,2019-01-15T00:30:00Z,63.98,-22.6,3.0,0.0,230,25,,6.21,29.202755,,,,,,,,,,VCSH,FEW,1000,BKN,1600,,,,,MVFR,,,,,,,,,,,,METAR,54.0
LKTB 150030Z 32014KT CAVOK M01/M07 Q1010 R27/450195 NOSIG,LKTB,2019-01-15T00:30:00Z,49.13,16.68,-1.0,-7.0,320,14,,6.21,29.822834,,,,,,TRUE,,,,,CAVOK,,,,,,,,VFR,,,,,,,,,,,,SPECI,246.0
LKMT 150030Z 21010KT CAVOK M04/M08 Q1008 R04/490294 NOSIG,LKMT,2019-01-15T00:30:00Z,49.67,18.12,-4.0,-8.0,210,10,,6.21,29.763779,,,,,,TRUE,,,,,CAVOK,,,,,,,,VFR,,,,,,,,,,,,SPECI,256.0
LZZI 150030Z 31004KT 270V340 CAVOK M04/M08 Q1008,LZZI,2019-01-15T00:30:00Z,49.23,18.62,-4.0,-8.0,310,4,,6.21,29.763779,,,,,,,,,,,CAVOK,,,,,,,,VFR,,,,,,,,,,,,METAR,311.0
LZSL 150030Z 30004KT 280V350 9999 FEW043 M03/M10 Q1008,LZSL,2019-01-15T00:30:00Z,48.63,19.13,-3.0,-10.0,300,4,,6.21,29.763779,,,,,,,,,,,FEW,4300,,,,,,,VFR,,,,,,,,,,,,METAR,313.0
LZPP 150030Z AUTO 22006KT 9999 OVC040/// M03/M07 Q1011,LZPP,2019-01-15T00:30:00Z,48.62,17.83,-3.0,-7.0,220,6,,6.21,29.852362,,,TRUE,,,,,,,,OVC,4000,,,,,,,VFR,,,,,,,,,,,,METAR,161.0
VTCT 150030Z 00000KT 1500 BR BKN010 17/17 Q1015 BECMG TL0130 3000 BR,VTCT,2019-01-15T00:30:00Z,19.95,99.88,17.0,17.0,0,0,,0.93,29.970472,,,,,,,,,,BR,BKN,1000,,,,,,,LIFR,,,,,,,,,,,,SPECI,390.0
VTSS 150030Z 00000KT 9999 FEW020 23/22 Q1011 NOSIG,VTSS,2019-01-15T00:30:00Z,6.92,100.38,23.0,22.0,0,0,,6.21,29.852362,,,,,,TRUE,,,,,FEW,2000,,,,,,,VFR,,,,,,,,,,,,METAR,35.0
VTSP 150030Z 00000KT 9000 FEW020 25/23 Q1011 NOSIG,VTSP,2019-01-15T00:30:00Z,8.12,98.32,25.0,23.0,0,0,,5.59,29.852362,,,,,,TRUE,,,,,FEW,2000,,,,,,,VFR,,,,,,,,,,,,METAR,10.0
VTCC 150030Z 00000KT 9999 FEW035 17/16 Q1015 NOSIG,VTCC,2019-01-15T00:30:00Z,18.77,98.97,17.0,16.0,0,0,,6.21,29.970472,,,,,,TRUE,,,,,FEW,3500,,,,,,,VFR,,,,,,,,,,,,METAR,314.0
VTBU 150030Z 01004KT 1500 BR FEW020TCU 24/22 Q1011 NOSIG,VTBU,2019-01-15T00:30:00Z,12.68,101.0,24.0,22.0,10,4,,0.93,29.852362,,,,,,TRUE,,,,BR,FEW,2000,,,,,,,LIFR,,,,,,,,,,,,METAR,5.0
VTBS 150030Z 08006KT 070V140 2300 BR FEW018CB 27/24 Q1011 BECMG TL0200 5000 BR,VTBS,2019-01-15T00:30:00Z,13.68,100.75,27.0,24.0,80,6,,1.43,29.852362,,,,,,,,,,BR,FEW,1800,,,,,,,IFR,,,,,,,,,,,,METAR,2.0
VTBD 150030Z 11005KT 2500 BR FEW018 SCT030 26/25 Q1012 BECMG TL0130 3000 BR,VTBD,2019-01-15T00:30:00Z,13.92,100.6,26.0,25.0,110,5,,1.55,29.88189,,,,,,,,,,BR,FEW,1800,SCT,3000,,,,,IFR,,,,,,,,,,,,METAR,3.0
VEMN 150030Z 34002KT 1500 BR NSC 10/09 Q1016 NOSIG,VEMN,2019-01-15T00:30:00Z,27.47,95.02,10.0,9.0,340,2,,0.93,30.0,,,,,,TRUE,,,,BR,CLR,,,,,,,,LIFR,,,,,,,,,,,,METAR,111.0
VYYY 150030Z 30002KT 5000 BR NSC 20/20 Q1012,VYYY,2019-01-15T00:30:00Z,16.9,96.13,20.0,20.0,300,2,,3.11,29.88189,,,,,,,,,,BR,CLR,,,,,,,,MVFR,,,,,,,,,,,,METAR,33.0
VYMD 150030Z 00000KT 4000 BR BKN020 SCT120 13/11 Q1013,VYMD,2019-01-15T00:30:00Z,21.7,95.98,13.0,11.0,0,0,,2.49,29.911417,,,,,,,,,,BR,BKN,2000,SCT,12000,,,,,IFR,,,,,,,,,,,,METAR,91.0
VLVT 150030Z 09002KT 5000 BR SCT020 BKN083 22/20 Q1014 NOSIG,VLVT,2019-01-15T00:30:00Z,17.98,102.57,22.0,20.0,90,2,,3.11,29.940945,,,,,,TRUE,,,,BR,SCT,2000,BKN,8300,,,,,MVFR,,,,,,,,,,,,METAR,171.0
VDSV 150030Z VRB01KT 9000 FEW015 24/23 Q1011,VDSV,2019-01-15T00:30:00Z,10.58,103.63,24.0,23.0,0,1,,5.59,29.852362,,,,,,,,,,,FEW,1500,,,,,,,VFR,,,,,,,,,,,,METAR,10.0
VDSR 150030Z 09002KT 9000 NSC 23/19 Q1011,VDSR,2019-01-15T00:30:00Z,13.42,103.83,23.0,19.0,90,2,,5.59,29.852362,,,,,,,,,,,CLR,,,,,,,,VFR,,,,,,,,,,,,METAR,15.0
VDPP 150030Z 36004KT 310V050 9000 NSC 24/20 Q1011,VDPP,2019-01-15T00:30:00Z,11.55,104.83,24.0,20.0,360,4,,5.59,29.852362,,,,,,,,,,,CLR,,,,,,,,VFR,,,,,,,,,,,,METAR,10.0
VVDN 150030Z 22003KT 4500 -RA BR SCT013 BKN050 22/21 Q1016 NOSIG,VVDN,2019-01-15T00:30:00Z,16.02,108.2,22.0,21.0,220,3,,2.8,30.0,,,,,,TRUE,,,,-RA BR,SCT,1300,BKN,5000,,,,,IFR,,,,,,,,,,,,METAR,7.0
VVTS 150030Z 33005KT 300V360 4000 BR FEW017 SCT050 25/24 Q1011 NOSIG,VVTS,2019-01-15T00:30:00Z,10.82,106.67,25.0,24.0,330,5,,2.49,29.852362,,,,,,TRUE,,,,BR,FEW,1700,SCT,5000,,,,,IFR,,,,,,,,,,,,METAR,19.0
VVPQ 150030Z VRB02KT 9999 FEW017 25/23 Q1010 NOSIG,VVPQ,2019-01-15T00:30:00Z,10.23,103.97,25.0,23.0,0,2,,6.21,29.822834,,,,,,TRUE,,,,,FEW,1700,,,,,,,VFR,,,,,,,,,,,,METAR,4.0
VVPB 150030Z 28003KT 3500 BR SCT015 BKN050 21/21 Q1017 BECMG TL0115 6000 NSW,VVPB,2019-01-15T00:30:00Z,16.38,107.7,21.0,21.0,280,3,,2.17,30.029528,,,,,,,,,,BR,SCT,1500,BKN,5000,,,,,IFR,,,,,,,,,,,,METAR,17.0
VVNB 150030Z 09005KT 3100 BR SCT012 BKN031 20/20 Q1017 NOSIG,VVNB,2019-01-15T00:30:00Z,21.22,105.8,20.0,20.0,90,5,,1.93,30.029528,,,,,,TRUE,,,,BR,SCT,1200,BKN,3100,,,,,IFR,,,,,,,,,,,,METAR,12.0
VABO 150030Z 01006KT 6000 NSC 13/10 Q1016 TEMPO 4000 HZ,VABO,2019-01-15T00:30:00Z,22.33,73.22,13.0,10.0,10,6,,3.73,30.0,,,,,,,,,,,CLR,,,,,,,,MVFR,,,,,,,,,,,,METAR,39.0
VIDP 150030Z 25005KT 1400 R28/P2000 R29/P2000 BR NSC 06/04 Q1018 NOSIG,VIDP,2019-01-15T00:30:00Z,28.57,77.12,6.0,4.0,250,5,,0.87,30.059055,,,,,,TRUE,,,,BR,CLR,,,,,,,,LIFR,,,,,,,,,,,,METAR,233.0
UHBB 150030Z 30003MPS CAVOK M20/M29 Q1021 R36/090060 NOSIG RMK QFE748/0997,UHBB,2019-01-15T00:30:00Z,50.43,127.42,-20.0,-29.0,300,6,,6.21,30.147638,,,,,,TRUE,,,,,CAVOK,,,,,,,,VFR,,,,,,,,,,,,METAR,195.0
UHHH 150030Z 24004MPS 3400 -SHSN SCT033CB M12/M14 Q1014 R23L/490350 NOSIG RMK QFE754/1006,UHHH,2019-01-15T00:30:00Z,48.52,135.18,-12.0,-14.0,240,8,,2.11,29.940945,,,,,,TRUE,,,,-SHSN,SCT,3300,,,,,,,IFR,,,,,,,,,,,,METAR,72.0
UHPP 150030Z 01003MPS 9999 FEW040 M10/M14 Q1010 R34L/720350 NOSIG RMK MT OBSC QFE754/1006,UHPP,2019-01-15T00:30:00Z,53.17,158.45,-10.0,-14.0,10,6,,6.21,29.822834,,,,,,TRUE,,,,,FEW,4000,,,,,,,VFR,,,,,,,,,,,,METAR,40.0
UHWW 150030Z 31003MPS 4500 HZ NSC M07/M11 Q1015 R25L/0///70 NOSIG RMK QFE760,UHWW,2019-01-15T00:30:00Z,43.4,132.15,-7.0,-11.0,310,6,,2.8,29.970472,,,,,,TRUE,,,,HZ,CLR,,,,,,,,IFR,,,,,,,,,,,,METAR,14.0
UHMA 150030Z 35006MPS 4000 -SN DRSN NSC M25/M28 Q1005 R88/750542 TEMPO 2000 SN RMK END R01/35008MPS QFE750/1000,UHMA,2019-01-15T00:30:00Z,64.73,177.73,-25.0,-28.0,350,12,,2.49,29.675198,,,,,,,,,,-SN DRSN,CLR,,,,,,,,IFR,,,,,,,,,,,,METAR,62.0
UHMD 150030Z 35010G17MPS 1000 SN BLSN VV003 M09/M09 Q0998 RMK QBB090 MT OBSC QFE748/0998,UHMD,2019-01-15T00:30:00Z,64.38,-173.22,-9.0,-9.0,350,19,33,0.62,29.468504,,,,,,,,,,SN BLSN,OVX,0,,,,,,,LIFR,,,,,,,,,,,300,SPECI,3.0
UHSS 150030Z 16004MPS 2100 -SHSN BKN005 OVC017CB M01/M02 Q1013 R01/490335 NOSIG RMK MT OBSC QFE759/1012,UHSS,2019-01-15T00:30:00Z,46.88,142.72,-1.0,-2.0,160,8,,1.3,29.911417,,,,,,TRUE,,,,-SHSN,BKN,500,OVC,1700,,,,,IFR,,,,,,,,,,,,METAR,31.0
UHMM 150030Z 11003MPS 9999 VCFG NSC M33/M36 Q1018 R10/82//45 NOSIG RMK QFE749,UHMM,2019-01-15T00:30:00Z,59.92,150.72,-33.0,-36.0,110,6,,6.21,30.059055,,,,,,TRUE,,,,VCFG,CLR,,,,,,,,VFR,,,,,,,,,,,,METAR,175.0
USCC 150030Z 20001MPS 4000 BR FU NSC M18/M19 Q1012 R27/350040 TEMPO 1100 BR RMK QFE739,USCC,2019-01-15T00:30:00Z,55.3,61.5,-18.0,-19.0,200,2,,2.49,29.88189,,,,,,,,,,BR FU,CLR,,,,,,,,IFR,,,,,,,,,,,,SPECI,234.0
UWUU 150030Z 18003MPS 4500 BR BKN030 M12/M13 Q1013 R14R/0///60 TEMPO 1000 BR RMK QFE749/0999,UWUU,2019-01-15T00:30:00Z,54.57,55.87,-12.0,-13.0,180,6,,2.8,29.911417,,,,,,,,,,BR,BKN,3000,,,,,,,IFR,,,,,,,,,,,,SPECI,137.0
USNN 150030Z 21007MPS 9000 DRSN OVC029 M07/M10 Q1003 R21/420232 NOSIG RMK QFE747,USNN,2019-01-15T00:30:00Z,60.95,76.48,-7.0,-10.0,210,14,,5.59,29.616142,,,,,,TRUE,,,,DRSN,OVC,2900,,,,,,,MVFR,,,,,,,,,,,,SPECI,54.0
USRR 150030Z 22004MPS 3300 -SHSN SCT026CB SCT032 M08/M09 Q1000 R25/452034 TEMPO 1000 SHSN BKN005 BKN015CB RMK OBST OBSC QFE745,USRR,2019-01-15T00:30:00Z,61.33,73.42,-8.0,-9.0,220,8,,2.05,29.52756,,,,,,,,,,-SHSN,SCT,2600,SCT,3200,,,,,IFR,,,,,,,,,,,,SPECI,44.0
USSS 150030Z 16002MPS 9000 -SN SCT025 M16/M18 Q1010 R26R/820350 NOSIG RMK QFE737/0983,USSS,2019-01-15T00:30:00Z,56.75,60.82,-16.0,-18.0,160,4,,5.59,29.822834,,,,,,TRUE,,,,-SN,SCT,2500,,,,,,,VFR,,,,,,,,,,,,SPECI,233.0
UUOB 150030Z 17006MPS 1900 SN BR OVC005 00/M00 Q0992 R11/590531 NOSIG,UUOB,2019-01-15T00:30:00Z,50.65,36.58,0.0,0.0,170,12,,1.18,29.291338,,,,,,TRUE,,,,SN BR,OVC,500,,,,,,,IFR,,,,,,,,,,,,METAR,224.0
WBGG 150030Z VRB01KT 9999 FEW010 SCT020 BKN300 26/24 Q1010 NOSIG,WBGG,2019-01-15T00:30:00Z,1.47,110.35,26.0,24.0,0,1,,6.21,29.822834,,,,,,TRUE,,,,,FEW,1000,SCT,2000,BKN,30000,,,VFR,,,,,,,,,,,,METAR,27.0
USPP 150030Z 21005MPS 190V250 CAVOK M08/M11 Q1008 R21/420155 NOSIG RMK QFE745,USPP,2019-01-15T00:30:00Z,57.92,56.02,-8.0,-11.0,210,10,,6.21,29.763779,,,,,,TRUE,,,,,CAVOK,,,,,,,,VFR,,,,,,,,,,,,SPECI,123.0
UWGG 150030Z 17005G10MPS 9999 -SN OVC012 M03/M07 Q0997 R18L/490332 NOSIG,UWGG,2019-01-15T00:30:00Z,56.23,43.78,-3.0,-7.0,170,10,19,6.21,29.438976,,,,,,TRUE,,,,-SN,OVC,1200,,,,,,,MVFR,,,,,,,,,,,,METAR,73.0
UWKD 150030Z 17005G10MPS 9999 DRSN NSC M07/M09 Q1005 R11/810045 NOSIG RMK QFE744/0992,UWKD,2019-01-15T00:30:00Z,55.62,49.28,-7.0,-9.0,170,10,19,6.21,29.675198,,,,,,TRUE,,,,DRSN,CLR,,,,,,,,VFR,,,,,,,,,,,,SPECI,126.0
UWKE 150030Z 22009MPS 9999 DRSN SCT020 M10/M12 Q1007 R21/410565 NOSIG RMK QFE738/0984,UWKE,2019-01-15T00:30:00Z,55.57,52.08,-10.0,-12.0,220,17,,6.21,29.734253,,,,,,TRUE,,,,DRSN,SCT,2000,,,,,,,VFR,,,,,,,,,,,,SPECI,196.0
UWKS 150030Z 20007MPS 9999 DRSN SCT010 M05/M07 Q1002 R24/820345 NOSIG RMK QFE737,UWKS,2019-01-15T00:30:00Z,56.08,47.35,-5.0,-7.0,200,14,,6.21,29.586615,,,,,,TRUE,,,,DRSN,SCT,1000,,,,,,,VFR,,,,,,,,,,,,METAR,170.0
UWOO 150030Z 25002MPS 220V280 5000 -SN OVC006 M09/M11 Q1015 R26/820550 NOSIG RMK QBB200 QFE751/1001,UWOO,2019-01-15T00:30:00Z,51.8,55.47,-9.0,-11.0,250,4,,3.11,29.970472,,,,,,TRUE,,,,-SN,OVC,600,,,,,,,IFR,,,,,,,,,,,,SPECI,109.0
UWWW 150030Z 12004MPS 7000 -SN BKN008 M09/M10 Q1009 R15/410240 NOSIG RMK QFE745/0993,UWWW,2019-01-15T00:30:00Z,53.5,50.17,-9.0,-10.0,120,8,,4.35,29.793306,,,,,,TRUE,,,,-SN,BKN,800,,,,,,,IFR,,,,,,,,,,,,SPECI,146.0
UNAA 150030Z 22002MPS 3200 BR FU FEW007 M27/M30 Q1029 R20/810257 NOSIG RMK QFE749,UNAA,2019-01-15T00:30:00Z,53.75,91.4,-27.0,-30.0,220,4,,1.99,30.383858,,,,,,TRUE,,,,BR FU,FEW,700,,,,,,,IFR,,,,,,,,,,,,SPECI,245.0
UNBB 150030Z 16006MPS CAVOK M12/M15 Q1018 R24/390135 NOSIG RMK QFE741,UNBB,2019-01-15T00:30:00Z,53.37,83.53,-12.0,-15.0,160,12,,6.21,30.059055,,,,,,TRUE,,,,,CAVOK,,,,,,,,VFR,,,,,,,,,,,,SPECI,255.0
UNEE 150030Z 14003MPS CAVOK M16/M17 Q1019 R23/851034 NOSIG RMK QFE741,UNEE,2019-01-15T00:30:00Z,55.27,86.08,-16.0,-17.0,140,6,,6.21,30.088583,,,,,,TRUE,,,,,CAVOK,,,,,,,,VFR,,,,,,,,,,,,SPECI,260.0
UNKL 150030Z 00000MPS CAVOK M19/M21 Q1024 R29/390135 NOSIG RMK QFE742,UNKL,2019-01-15T00:30:00Z,56.17,92.48,-19.0,-21.0,0,0,,6.21,30.236221,,,,,,TRUE,,,,,CAVOK,,,,,,,,VFR,,,,,,,,,,,,SPECI,276.0
UNNT 150030Z 15005MPS CAVOK M13/M16 Q1017 R25/390140 R34/390137 NOSIG RMK QFE753/1004,UNNT,2019-01-15T00:30:00Z,55.02,82.63,-13.0,-16.0,150,10,,6.21,30.029528,,,,,,TRUE,,,,,CAVOK,,,,,,,,VFR,,,,,,,,,,,,SPECI,111.0
UNOO 150030Z 00000MPS 8000 -SHSN BKN010 BKN033CB M08/M10 Q1008 R25/390135 NOSIG RMK QFE748,UNOO,2019-01-15T00:30:00Z,54.97,73.32,-8.0,-10.0,0,0,,4.97,29.763779,,,,,,TRUE,,,,-SHSN,BKN,1000,BKN,3300,,,,,MVFR,,,,,,,,,,,,SPECI,95.0
UNTT 150030Z VRB01MPS CAVOK M12/M16 Q1017 R21/390040 NOSIG RMK QFE748,UNTT,2019-01-15T00:30:00Z,56.38,85.22,-12.0,-16.0,0,2,,6.21,30.029528,,,,,,TRUE,,,,,CAVOK,,,,,,,,VFR,,,,,,,,,,,,METAR,182.0
UIAA 150030Z 22005MPS 9999 NSC M17/M26 Q1020 R29/420150 NOSIG RMK QFE707/0942,UIAA,2019-01-15T00:30:00Z,52.02,113.32,-17.0,-26.0,220,10,,6.21,30.11811,,,,,,TRUE,,,,,CLR,,,,,,,,VFR,,,,,,,,,,,,SPECI,685.0
USTR 150030Z 23004MPS CAVOK M16/M19 Q1010 R30/390047 NOSIG RMK QFE748/0998,USTR,2019-01-15T00:30:00Z,57.17,65.32,-16.0,-19.0,230,8,,6.21,29.822834,,,,,,TRUE,,,,,CAVOK,,,,,,,,VFR,,,,,,,,,,,,SPECI,115.0
UIBB 150030Z 26005MPS 9999 NSC M14/M18 Q1023 R30/490137 NOSIG RMK QFE724/0965,UIBB,2019-01-15T00:30:00Z,56.37,101.7,-14.0,-18.0,260,10,,6.21,30.206694,,,,,,TRUE,,,,,CLR,,,,,,,,VFR,,,,,,,,,,,,SPECI,490.0
UIII 150030Z VRB01MPS CAVOK M19/M22 Q1028 R12/810550 NOSIG RMK QFE728/0971,UIII,2019-01-15T00:30:00Z,52.27,104.4,-19.0,-22.0,0,2,,6.21,30.35433,,,,,,TRUE,,,,,CAVOK,,,,,,,,VFR,,,,,,,,,,,,SPECI,513.0
URKA 150030Z AUTO 20006MPS 9999 // NCD 07/03 Q1002 RMK QFE748/0997,URKA,2019-01-15T00:30:00Z,45.0,37.35,7.0,3.0,200,12,,6.21,29.586615,,,TRUE,,,,,,,,CLR,,,,,,,,VFR,,,,,,,,,,,,SPECI,53.0
URKK 150030Z VRB01MPS 9999 BKN036 05/04 Q1004 R23L/290257 TEMPO 1000 -SHRA BR SCT004 BKN020CB RMK QFE749,URKK,2019-01-15T00:30:00Z,45.03,39.15,5.0,4.0,0,2,,6.21,29.64567,,,,,,,,,,,BKN,3600,,,,,,,VFR,,,,,,,,,,,,SPECI,34.0
URMG 150030Z 24002MPS 0900 0800E R26/1800U FZFG VV002 M01/M01 Q1006 R26/190060 TEMPO 0400 FZFG OVC001 RMK QBB070 MT OBSC OBST OBSC QFE740/0987,URMG,2019-01-15T00:30:00Z,43.37,45.7,-1.0,-1.0,240,4,,0.56,29.704725,,,,,,,,,,FZFG,OVX,0,,,,,,,LIFR,,,,,,,,,,,200,METAR,263.0
URML 150030Z 21004MPS 9999 NSC 00/M02 Q1008 R14/010070 NOSIG RMK QFE756/1008,URML,2019-01-15T00:30:00Z,42.82,47.65,0.0,-2.0,210,8,,6.21,29.763779,,,,,,TRUE,,,,,CLR,,,,,,,,VFR,,,,,,,,,,,,SPECI,4.0
URMM 150030Z 11004MPS 5000 BR OVC003 M02/M03 Q1005 R12/090070 NOSIG RMK MT OBSC QFE726/0968,URMM,2019-01-15T00:30:00Z,44.22,43.1,-2.0,-3.0,110,8,,3.11,29.675198,,,,,,TRUE,,,,BR,OVC,300,,,,,,,LIFR,,,,,,,,,,,,SPECI,314.0
URMT 150030Z 01001MPS CAVOK M02/M03 Q1004 R07/150060 NOSIG RMK QFE713,URMT,2019-01-15T00:30:00Z,45.12,42.12,-2.0,-3.0,10,2,,6.21,29.64567,,,,,,TRUE,,,,,CAVOK,,,,,,,,VFR,,,,,,,,,,,,SPECI,453.0
URRP 150030Z 18003MPS 4900 BR SCT003 BKN031 02/01 Q1001 R23/290053 TEMPO 0200 +SHRASN FZRA OVC001 OVC015 BKN020CB RMK QBB100 QFE743/0991,URRP,2019-01-15T00:30:00Z,47.5,39.92,2.0,1.0,180,6,,3.04,29.557087,,,,,,,,,,BR,SCT,300,BKN,3100,,,,,MVFR,,,,,,,,,,,,METAR,65.0
URSS 150030Z 15006G12MPS 9999 -SHRA SCT060CB OVC070 13/00 Q1007 WS ALL RWY R02/090070 R06/090070 NOSIG RMK R06/16006G13MPS QFE753,URSS,2019-01-15T00:30:00Z,43.45,39.95,13.0,0.0,150,12,23,6.21,29.734253,,,,,,TRUE,,,,-SHRA,SCT,6000,OVC,7000,,,,,VFR,,,,,,,,,,,,SPECI,16.0
UEEE 150030Z 33001MPS 0300 0200NE R23L/0225D FG NSC M45/M50 Q1025 R23L/490150 NOSIG RMK QFE760,UEEE,2019-01-15T00:30:00Z,62.08,129.77,-45.0,-50.0,330,2,,0.19,30.265747,,,,,,TRUE,,,,FG,CLR,,,,,,,,LIFR,,,,,,,,,,,,METAR,103.0
USHH 150030Z 26004MPS 9999 FEW010 M14/M16 Q1004 R24/420345 TEMPO 2000 SN BR BKN005 RMK QFE749,USHH,2019-01-15T00:30:00Z,61.03,69.08,-14.0,-16.0,260,8,,6.21,29.64567,,,,,,,,,,,FEW,1000,,,,,,,VFR,,,,,,,,,,,,METAR,23.0
URWI 150030Z AUTO 15008MPS 0250 0200E // ///002/// M01/M01 Q1007 RMK QBB060,URWI,2019-01-15T00:30:00Z,46.37,44.33,-1.0,-1.0,150,16,,0.16,29.734253,,,TRUE,,,,,,,,,,,,,,,,,,,,,,,,,,,,SPECI,150.0
URWW 150030Z 16009MPS 9999 DRSN BKN006 OVC046 M01/M02 Q1004 R06/820240 NOSIG RMK OBST OBSC,URWW,2019-01-15T00:30:00Z,48.78,44.33,-1.0,-2.0,160,17,,6.21,29.64567,,,,,,TRUE,,,,DRSN,BKN,600,OVC,4600,,,,,IFR,,,,,,,,,,,,SPECI,147.0
ULLI 150030Z 14002MPS 9000 -SHSN BKN008 BKN017CB OVC034 00/M00 Q0977 R10L/520547 NOSIG RMK OBST OBSC,ULLI,2019-01-15T00:30:00Z,59.8,30.27,0.0,0.0,140,4,,5.59,28.848425,,,,,,TRUE,,,,-SHSN,BKN,800,BKN,1700,OVC,3400,,,IFR,,,,,,,,,,,,SPECI,4.0
UUBW 150030Z 14006MPS 9999 OVC011 M02/M04 Q0990 R12/890535 NOSIG,UUBW,2019-01-15T00:30:00Z,55.55,38.15,-2.0,-4.0,140,12,,6.21,29.232283,,,,,,TRUE,,,,,OVC,1100,,,,,,,MVFR,,,,,,,,,,,,METAR,115.0
UUDD 150030Z 16007MPS 3600 -SHSN BKN008 BKN033CB M02/M04 Q0989 R14R/590292 TEMPO 2000 SHSN,UUDD,2019-01-15T00:30:00Z,55.4,37.9,-2.0,-4.0,160,14,,2.24,29.202755,,,,,,,,,,-SHSN,BKN,800,BKN,3300,,,,,IFR,,,,,,,,,,,,SPECI,168.0
UUDL 150030Z 18004MPS 9999 OVC014 M02/M05 Q0991 R23/492034 NOSIG RMK QFE735,UUDL,2019-01-15T00:30:00Z,57.57,40.17,-2.0,-5.0,180,8,,6.21,29.26181,,,,,,TRUE,,,,,OVC,1400,,,,,,,MVFR,,,,,,,,,,,,METAR,88.0
UUEE 150030Z 14005MPS 8000 -SN OVC011 M02/M04 Q0988 R06R/420345 NOSIG,UUEE,2019-01-15T00:30:00Z,55.97,37.42,-2.0,-4.0,140,10,,4.97,29.17323,,,,,,TRUE,,,,-SN,OVC,1100,,,,,,,MVFR,,,,,,,,,,,,SPECI,190.0
UUWW 150030Z 12005MPS 8000 -SN OVC008 M03/M05 Q0988 R19/490337 TEMPO 1100 SHSN BKN015CB,UUWW,2019-01-15T00:30:00Z,55.6,37.27,-3.0,-5.0,120,10,,4.97,29.17323,,,,,,,,,,-SN,OVC,800,,,,,,,IFR,,,,,,,,,,,,SPECI,203.0
UUOL 150030Z 16006MPS 7000 DRSN OVC008 M02/M03 Q0994 R15/850342 TEMPO 1000 FZDZ BR OVC004,UUOL,2019-01-15T00:30:00Z,52.7,39.53,-2.0,-3.0,160,12,,4.35,29.350393,,,,,,,,,,DRSN,OVC,800,,,,,,,IFR,,,,,,,,,,,,METAR,176.0
LRSV 150030Z 33014KT CAVOK M02/M07 Q0999 R16/590194,LRSV,2019-01-15T00:30:00Z,47.68,26.35,-2.0,-7.0,330,14,,6.21,29.498032,,,,,,,,,,,CAVOK,,,,,,,,VFR,,,,,,,,,,,,METAR,351.0
LRIA 150030Z 31007KT CAVOK 01/M05 Q1000 R14/29//95,LRIA,2019-01-15T00:30:00Z,47.17,27.62,1.0,-5.0,310,7,,6.21,29.52756,,,,,,,,,,,CAVOK,,,,,,,,VFR,,,,,,,,,,,,METAR,104.0
LRCV 150030Z 26010KT CAVOK 00/M05 Q1001,LRCV,2019-01-15T00:30:00Z,44.32,23.88,0.0,-5.0,260,10,,6.21,29.557087,,,,,,,,,,,CAVOK,,,,,,,,VFR,,,,,,,,,,,,METAR,191.0
LRBC 150030Z AUTO 33011KT 4000 -SN FEW023/// BKN027/// OVC033/// 00/M01 Q1000,LRBC,2019-01-15T00:30:00Z,46.52,26.92,0.0,-1.0,330,11,,2.49,29.52756,,,TRUE,,,,,,,-SN,FEW,2300,BKN,2700,OVC,3300,,,IFR,,,,,,,,,,,,METAR,185.0
USCM 150030Z 34002MPS 0150 R36/0400N FZFG VV002 M14/M16 Q1010 R36/850250 NOSIG RMK QBB060 QFE719,USCM,2019-01-15T00:30:00Z,53.4,58.75,-14.0,-16.0,340,4,,0.09,29.822834,,,,,,TRUE,,,,FZFG,OVX,0,,,,,,,LIFR,,,,,,,,,,,200,METAR,435.0
K65S 150030Z AUTO 07005KT 10SM CLR M03/M08 A3022 RMK AO2,K65S,2019-01-15T00:30:00Z,48.73,-116.3,-3.0,-8.0,70,5,,10.0,30.221457,,,TRUE,TRUE,,,,,,,CLR,,,,,,,,VFR,,,,,,,,,,,,METAR,713.0
K6I2 150030Z AUTO 00000KT 8SM CLR M02/M03 A3031 RMK AO2,K6I2,2019-01-15T00:30:00Z,37.63,-85.25,-2.0,-3.0,0,0,,8.0,30.31004,,,TRUE,TRUE,,,,,,,CLR,,,,,,,,VFR,,,,,,,,,,,,SPECI,264.0
URWA 150030Z 13006MPS 3900 BR OVC003 M00/M01 Q1012 R09/010060 TEMPO 1000 BR OVC002 RMK OBST OBSC QFE761/1014,URWA,2019-01-15T00:30:00Z,46.28,48.02,0.0,-1.0,130,12,,2.42,29.88189,,,,,,,,,,BR,OVC,300,,,,,,,LIFR,,,,,,,,,,,,SPECI,-20.0
LFRV 150030Z AUTO 27002KT 9999 OVC032 07/03 Q1026,LFRV,2019-01-15T00:30:00Z,47.72,-2.72,7.0,3.0,270,2,,6.21,30.295275,,,TRUE,,,,,,,,OVC,3200,,,,,,,VFR,,,,,,,,,,,,METAR,133.0
LFRO 150030Z AUTO 27002KT 9999 OVC031 07/04 Q1026,LFRO,2019-01-15T00:30:00Z,48.75,-3.47,7.0,4.0,270,2,,6.21,30.295275,,,TRUE,,,,,,,,OVC,3100,,,,,,,VFR,,,,,,,,,,,,METAR,89.0
LFRM 150030Z AUTO VRB02KT 9999 OVC041 07/03 Q1026,LFRM,2019-01-15T00:30:00Z,47.95,0.2,7.0,3.0,0,2,,6.21,30.295275,,,TRUE,,,,,,,,OVC,4100,,,,,,,VFR,,,,,,,,,,,,METAR,52.0
LFRI 150030Z AUTO VRB01KT 9999 OVC037 08/01 Q1026,LFRI,2019-01-15T00:30:00Z,46.7,-1.37,8.0,1.0,0,1,,6.21,30.295275,,,TRUE,,,,,,,,OVC,3700,,,,,,,VFR,,,,,,,,,,,,METAR,91.0
LFOV 150030Z AUTO VRB02KT 9999 OVC033 07/01 Q1026,LFOV,2019-01-15T00:30:00Z,48.03,-0.75,7.0,1.0,0,2,,6.21,30.295275,,,TRUE,,,,,,,,OVC,3300,,,,,,,VFR,,,,,,,,,,,,METAR,101.0
LFMI 150030Z AUTO 31012KT CAVOK 08/01 Q1019 BECMG 30025G35KT,LFMI,2019-01-15T00:30:00Z,43.52,4.92,8.0,1.0,310,12,,6.21,30.088583,,,TRUE,,,,,,,,CAVOK,,,,,,,,VFR,,,,,,,,,,,,METAR,24.0
LFBA 150030Z AUTO 30002KT 9999 OVC041 07/05 Q1025,LFBA,2019-01-15T00:30:00Z,44.17,0.6,7.0,5.0,300,2,,6.21,30.265747,,,TRUE,,,,,,,,OVC,4100,,,,,,,VFR,,,,,,,,,,,,METAR,60.0
LJPZ 150030Z AUTO VRB02KT 9999 NCD 04/M02 Q1012,LJPZ,2019-01-15T00:30:00Z,45.47,13.62,4.0,-2.0,0,2,,6.21,29.88189,,,TRUE,,,,,,,,CLR,,,,,,,,VFR,,,,,,,,,,,,METAR,2.0
LJMB 150030Z AUTO 36007KT 9999 NCD 00/M04 Q1013,LJMB,2019-01-15T00:30:00Z,46.47,15.67,0.0,-4.0,360,7,,6.21,29.911417,,,TRUE,,,,,,,,CLR,,,,,,,,VFR,,,,,,,,,,,,METAR,265.0
LJLJ 150030Z 31008KT 9999 FEW050 01/M07 Q1012 NOSIG,LJLJ,2019-01-15T00:30:00Z,46.22,14.47,1.0,-7.0,310,8,,6.21,29.88189,,,,,,TRUE,,,,,FEW,5000,,,,,,,VFR,,,,,,,,,,,,METAR,385.0
LRTM 150030Z AUTO 28011KT 9999 BKN060/// BKN076/// M00/M03 Q1002,LRTM,2019-01-15T00:30:00Z,46.47,24.42,0.0,-3.0,280,11,,6.21,29.586615,,,TRUE,,,,,,,,BKN,6000,BKN,7600,,,,,VFR,,,,,,,,,,,,METAR,309.0
LRSM 150030Z AUTO 33011KT 9999 -SN BKN085/// M01/M06 Q1005,LRSM,2019-01-15T00:30:00Z,47.7,22.88,-1.0,-6.0,330,11,,6.21,29.675198,,,TRUE,,,,,,,-SN,BKN,8500,,,,,,,VFR,,,,,,,,,,,,METAR,124.0
LROD 150030Z AUTO 08003KT 030V110 9999 -SHSN FEW039/// BKN055/// M01/M03 Q1006,LROD,2019-01-15T00:30:00Z,47.03,21.92,-1.0,-3.0,80,3,,6.21,29.704725,,,TRUE,,,,,,,-SHSN,FEW,3900,BKN,5500,,,,,VFR,,,,,,,,,,,,METAR,140.0
LRCL 150030Z 28013KT 9999 -SN NSC M02/M06 Q1003 R07/29//95,LRCL,2019-01-15T00:30:00Z,46.78,23.68,-2.0,-6.0,280,13,,6.21,29.616142,,,,,,,,,,-SN,CLR,,,,,,,,VFR,,,,,,,,,,,,METAR,413.0
LRBM 150030Z AUTO 26008KT 9999 FEW090/// SCT230/// M02/M06 Q1004,LRBM,2019-01-15T00:30:00Z,47.67,23.47,-2.0,-6.0,260,8,,6.21,29.64567,,,TRUE,,,,,,,,FEW,9000,SCT,23000,,,,,VFR,,,,,,,,,,,,METAR,185.0
LRAR 150030Z AUTO 31012KT 9999 NCD M01/M05 Q1007,LRAR,2019-01-15T00:30:00Z,46.18,21.27,-1.0,-5.0,310,12,,6.21,29.734253,,,TRUE,,,,,,,,CLR,,,,,,,,VFR,,,,,,,,,,,,METAR,118.0
LRTR 150030Z 29011KT 9999 FEW046 M00/M03 Q1007 R11/19//95,LRTR,2019-01-15T00:30:00Z,45.82,21.33,0.0,-3.0,290,11,,6.21,29.734253,,,,,,,,,,,FEW,4600,,,,,,,VFR,,,,,,,,,,,,SPECI,88.0
LRSB 150030Z 29007KT 4000 -SN BR OVC020 M02/M03 Q1002 R27/690194,LRSB,2019-01-15T00:30:00Z,45.78,24.08,-2.0,-3.0,290,7,,2.49,29.586615,,,,,,,,,,-SN BR,OVC,2000,,,,,,,IFR,,,,,,,,,,,,METAR,444.0
LROP 150030Z 24009KT CAVOK M02/M03 Q0999 R26L/19//95 R26R/19//95 NOSIG,LROP,2019-01-15T00:30:00Z,44.57,26.1,-2.0,-3.0,240,9,,6.21,29.498032,,,,,,TRUE,,,,,CAVOK,,,,,,,,VFR,,,,,,,,,,,,SPECI,95.0
LRCK 150030Z 27011KT CAVOK 01/00 Q0999 NOSIG,LRCK,2019-01-15T00:30:00Z,44.37,28.48,1.0,0.0,270,11,,6.21,29.498032,,,,,,TRUE,,,,,CAVOK,,,,,,,,VFR,,,,,,,,,,,,METAR,108.0
LRBS 150030Z 26006KT CAVOK M02/M02 Q0999 R07/19//95 NOSIG,LRBS,2019-01-15T00:30:00Z,44.5,26.08,-2.0,-2.0,260,6,,6.21,29.498032,,,,,,TRUE,,,,,CAVOK,,,,,,,,VFR,,,,,,,,,,,,SPECI,91.0
LRTC 150030Z AUTO 36006KT 7000 BKN055/// BKN120/// M00/M02 Q0999,LRTC,2019-01-15T00:30:00Z,45.07,28.72,0.0,-2.0,360,6,,4.35,29.498032,,,TRUE,,,,,,,,BKN,5500,BKN,12000,,,,,MVFR,,,,,,,,,,,,METAR,6.0
LFRZ 150030Z AUTO VRB02KT 9999 OVC035 08/02 Q1027 NOSIG,LFRZ,2019-01-15T00:30:00Z,47.32,-2.17,8.0,2.0,0,2,,6.21,30.324802,,,TRUE,,,TRUE,,,,,OVC,3500,,,,,,,VFR,,,,,,,,,,,,METAR,4.0
LFKC 150030Z AUTO 19005KT CAVOK 04/M01 Q1013,LFKC,2019-01-15T00:30:00Z,42.52,8.8,4.0,-1.0,190,5,,6.21,29.911417,,,TRUE,,,,,,,,CAVOK,,,,,,,,VFR,,,,,,,,,,,,METAR,58.0
LFKF 150030Z AUTO 02003KT 340V070 CAVOK 00/M01 Q1013,LFKF,2019-01-15T00:30:00Z,41.5,9.08,0.0,-1.0,20,3,,6.21,29.911417,,,TRUE,,,,,,,,CAVOK,,,,,,,,VFR,,,,,,,,,,,,METAR,23.0
LFGJ 150030Z AUTO VRB02KT 6000 FEW045 OVC066 03/02 Q1024,LFGJ,2019-01-15T00:30:00Z,47.05,5.43,3.0,2.0,0,2,,3.73,30.236221,,,TRUE,,,,,,,,FEW,4500,OVC,6600,,,,,MVFR,,,,,,,,,,,,METAR,196.0
LFKJ 150030Z AUTO 03006KT CAVOK 06/03 Q1012 NOSIG,LFKJ,2019-01-15T00:30:00Z,41.92,8.8,6.0,3.0,30,6,,6.21,29.88189,,,TRUE,,,TRUE,,,,,CAVOK,,,,,,,,VFR,,,,,,,,,,,,METAR,9.0
LFLC 150030Z AUTO VRB01KT 9999 OVC047 05/01 Q1024 TEMPO 2000 BR OVC014,LFLC,2019-01-15T00:30:00Z,45.77,3.17,5.0,1.0,0,1,,6.21,30.236221,,,TRUE,,,,,,,,OVC,4700,,,,,,,VFR,,,,,,,,,,,,SPECI,330.0
LFLS 150030Z AUTO 35010KT CAVOK 04/01 Q1023,LFLS,2019-01-15T00:30:00Z,45.37,5.32,4.0,1.0,350,10,,6.21,30.206694,,,TRUE,,,,,,,,CAVOK,,,,,,,,VFR,,,,,,,,,,,,METAR,386.0
LFMP 150030Z AUTO 32010KT 290V350 9999 FEW035 11/04 Q1021,LFMP,2019-01-15T00:30:00Z,42.72,2.87,11.0,4.0,320,10,,6.21,30.147638,,,TRUE,,,,,,,,FEW,3500,,,,,,,VFR,,,,,,,,,,,,METAR,48.0
LFMV 150030Z AUTO 35017G30KT 320V020 CAVOK 08/01 Q1019,LFMV,2019-01-15T00:30:00Z,43.9,4.9,8.0,1.0,350,17,30,6.21,30.088583,,,TRUE,,,,,,,,CAVOK,,,,,,,,VFR,,,,,,,,,,,,METAR,38.0
LFSL 150030Z AUTO 29002KT CAVOK M00/M01 Q1025,LFSL,2019-01-15T00:30:00Z,45.03,1.48,0.0,-1.0,290,2,,6.21,30.265747,,,TRUE,,,,,,,,CAVOK,,,,,,,,VFR,,,,,,,,,,,,METAR,310.0
LFCK 150030Z AUTO 32007KT 9999 OVC046 06/05 Q1025,LFCK,2019-01-15T00:30:00Z,43.55,2.28,6.0,5.0,320,7,,6.21,30.265747,,,TRUE,,,,,,,,OVC,4600,,,,,,,VFR,,,,,,,,,,,,METAR,240.0
LFQA 150030Z AUTO VRB03KT CAVOK 04/02 Q1024,LFQA,2019-01-15T00:30:00Z,49.2,4.15,4.0,2.0,0,3,,6.21,30.236221,,,TRUE,,,,,,,,CAVOK,,,,,,,,VFR,,,,,,,,,,,,METAR,95.0
LFQB 150030Z AUTO 27007KT 9999 ////// 05/04 Q1024,LFQB,2019-01-15T00:30:00Z,48.32,4.02,5.0,4.0,270,7,,6.21,30.236221,,,TRUE,,,,,,,,,,,,,,,,,,,,,,,,,,,,SPECI,118.0
LFSN 150030Z AUTO VRB02KT 9999 BKN047 OVC066 04/01 Q1023,LFSN,2019-01-15T00:30:00Z,48.67,6.22,4.0,1.0,0,2,,6.21,30.206694,,,TRUE,,,,,,,,BKN,4700,OVC,6600,,,,,VFR,,,,,,,,,,,,METAR,217.0
LFBE 150030Z AUTO 00000KT 9999 OVC044 06/05 Q1026,LFBE,2019-01-15T00:30:00Z,44.82,0.52,6.0,5.0,0,0,,6.21,30.295275,,,TRUE,,,,,,,,OVC,4400,,,,,,,VFR,,,,,,,,,,,,METAR,52.0
LFMD 150030Z AUTO VRB06KT CAVOK 05/02 Q1013,LFMD,2019-01-15T00:30:00Z,43.53,6.95,5.0,2.0,0,6,,6.21,29.911417,,,TRUE,,,,,,,,CAVOK,,,,,,,,VFR,,,,,,,,,,,,METAR,9.0
LFJL 150030Z AUTO 21006KT 9999 BKN040 BKN046 OVC060 02/02 Q1023 TEMPO 0300 FG VV///,LFJL,2019-01-15T00:30:00Z,48.97,6.25,2.0,2.0,210,6,,6.21,30.206694,,,TRUE,,,,,,,,BKN,4000,BKN,4600,OVC,6000,,,VFR,,,,,,,,,,,,METAR,264.0
LFCR 150030Z AUTO 31005KT CAVOK 01/M00 Q1023 TEMPO 0250 VV///,LFCR,2019-01-15T00:30:00Z,44.38,2.47,1.0,0.0,310,5,,6.21,30.206694,,,TRUE,,,,,,,,CAVOK,,,,,,,,VFR,,,,,,,,,,,,METAR,580.0
LJCE 150030Z AUTO 04004KT 9999 NCD M01/M04 Q1013,LJCE,2019-01-15T00:30:00Z,45.9,15.52,-1.0,-4.0,40,4,,6.21,29.911417,,,TRUE,,,,,,,,CLR,,,,,,,,VFR,,,,,,,,,,,,METAR,155.0
LFSG 150030Z AUTO 24005KT //// R26///// // BKN046 OVC060 02/01 Q1023,LFSG,2019-01-15T00:30:00Z,48.33,6.07,2.0,1.0,240,5,,,30.206694,,,TRUE,,,,,,,,BKN,4600,OVC,6000,,,,,,,,,,,,,,,,,METAR,330.0
LFMH 150030Z AUTO VRB02KT 9999 FEW021 03/01 Q1024,LFMH,2019-01-15T00:30:00Z,45.52,4.28,3.0,1.0,0,2,,6.21,30.236221,,,TRUE,,,,,,,,FEW,2100,,,,,,,VFR,,,,,,,,,,,,METAR,402.0
LFOT 150030Z AUTO 27003KT 9999 OVC041 07/03 Q1025 NOSIG,LFOT,2019-01-15T00:30:00Z,47.43,0.72,7.0,3.0,270,3,,6.21,30.265747,,,TRUE,,,TRUE,,,,,OVC,4100,,,,,,,VFR,,,,,,,,,,,,METAR,108.0
LFOP 150030Z AUTO 26005KT 9999 OVC040 06/03 Q1024,LFOP,2019-01-15T00:30:00Z,49.37,1.17,6.0,3.0,260,5,,6.21,30.236221,,,TRUE,,,,,,,,OVC,4000,,,,,,,VFR,,,,,,,,,,,,METAR,157.0
LFOH 150030Z AUTO 29008KT 250V320 9999 OVC036 08/02 Q1024,LFOH,2019-01-15T00:30:00Z,49.52,0.07,8.0,2.0,290,8,,6.21,30.236221,,,TRUE,,,,,,,,OVC,3600,,,,,,,VFR,,,,,,,,,,,,METAR,103.0
LFLX 150030Z AUTO 29004KT 9999 OVC043 06/03 Q1025 NOSIG,LFLX,2019-01-15T00:30:00Z,46.85,1.72,6.0,3.0,290,4,,6.21,30.265747,,,TRUE,,,TRUE,,,,,OVC,4300,,,,,,,VFR,,,,,,,,,,,,METAR,157.0
LFLP 150030Z AUTO 02003KT CAVOK M00/M01 Q1023,LFLP,2019-01-15T00:30:00Z,45.92,6.08,0.0,-1.0,20,3,,6.21,30.206694,,,TRUE,,,,,,,,CAVOK,,,,,,,,VFR,,,,,,,,,,,,METAR,463.0
LFST 150030Z AUTO 19004KT 160V220 9999 OVC060 02/M00 Q1023 TEMPO 0500 FG VV///,LFST,2019-01-15T00:30:00Z,48.53,7.62,2.0,0.0,190,4,,6.21,30.206694,,,TRUE,,,,,,,,OVC,6000,,,,,,,VFR,,,,,,,,,,,,METAR,154.0
LFRG 150030Z AUTO 26006KT 240V300 9999 OVC036 07/03 Q1025,LFRG,2019-01-15T00:30:00Z,49.37,0.15,7.0,3.0,260,6,,6.21,30.265747,,,TRUE,,,,,,,,OVC,3600,,,,,,,VFR,,,,,,,,,,,,METAR,146.0
LFTH 150030Z AUTO 35011KT CAVOK 10/M04 Q1013 NOSIG,LFTH,2019-01-15T00:30:00Z,43.1,6.15,10.0,-4.0,350,11,,6.21,29.911417,,,TRUE,,,TRUE,,,,,CAVOK,,,,,,,,VFR,,,,,,,,,,,,METAR,4.0
LFTW 150030Z AUTO 34017KT CAVOK 08/M02 Q1019,LFTW,2019-01-15T00:30:00Z,43.75,4.42,8.0,-2.0,340,17,,6.21,30.088583,,,TRUE,,,,,,,,CAVOK,,,,,,,,VFR,,,,,,,,,,,,METAR,96.0
VECC 150030Z 35006KT 1800 BR FEW020 SCT100 14/11 Q1015 NOSIG,VECC,2019-01-15T00:30:00Z,22.65,88.43,14.0,11.0,350,6,,1.12,29.970472,,,,,,TRUE,,,,BR,FEW,2000,SCT,10000,,,,,IFR,,,,,,,,,,,,METAR,6.0
LPPD 150030Z 01003KT 9999 FEW018 14/11 Q1026,LPPD,2019-01-15T00:30:00Z,37.72,-25.68,14.0,11.0,10,3,,6.21,30.295275,,,,,,,,,,,FEW,1800,,,,,,,VFR,,,,,,,,,,,,METAR,72.0
VOKN 150030Z 07009KT 3000 BR FEW015 22/18 Q1012 NOSIG,VOKN,2019-01-15T00:30:00Z,11.92,75.55,22.0,18.0,70,9,,1.86,29.88189,,,,,,TRUE,,,,BR,FEW,1500,,,,,,,IFR,,,,,,,,,,,,METAR,105.0
LPAZ 150030Z 08005KT 9999 FEW022 12/10 Q1026,LPAZ,2019-01-15T00:30:00Z,36.97,-25.17,12.0,10.0,80,5,,6.21,30.295275,,,,,,,,,,,FEW,2200,,,,,,,VFR,,,,,,,,,,,,METAR,100.0
VANP 150030Z 00000KT 2500 HZ NSC 14/07 Q1018 NOSIG,VANP,2019-01-15T00:30:00Z,21.08,79.05,14.0,7.0,0,0,,1.55,30.059055,,,,,,TRUE,,,,HZ,CLR,,,,,,,,IFR,,,,,,,,,,,,METAR,310.0
VERC 150030Z 00000KT 2000 HZ NSC 10/06 Q1018 NOSIG,VERC,2019-01-15T00:30:00Z,23.32,85.32,10.0,6.0,0,0,,1.24,30.059055,,,,,,TRUE,,,,HZ,CLR,,,,,,,,IFR,,,,,,,,,,,,METAR,652.0
VOTV 150030Z 17003KT 3000 BR FEW015 25/23 Q1011 NOSIG,VOTV,2019-01-15T00:30:00Z,8.47,76.95,25.0,23.0,170,3,,1.86,29.852362,,,,,,TRUE,,,,BR,FEW,1500,,,,,,,IFR,,,,,,,,,,,,METAR,8.0
UMMS 150030Z 28006G09MPS 240V300 9999 BKN025 M03/M05 Q0987 R31/590532 NOSIG,UMMS,2019-01-15T00:30:00Z,53.88,28.03,-3.0,-5.0,280,12,17,6.21,29.143702,,,,,,TRUE,,,,,BKN,2500,,,,,,,MVFR,,,,,,,,,,,,METAR,205.0
VOTR 150030Z 02006KT 2500 BR FEW016 20/17 Q1013 BECMG 2000 BR,VOTR,2019-01-15T00:30:00Z,10.77,78.72,20.0,17.0,20,6,,1.55,29.911417,,,,,,,,,,BR,FEW,1600,,,,,,,IFR,,,,,,,,,,,,METAR,88.0
VABB 150030Z 08004KT 2500 FU NSC 25/12 Q1013 NOSIG,VABB,2019-01-15T00:30:00Z,19.1,72.87,25.0,12.0,80,4,,1.55,29.911417,,,,,,TRUE,,,,FU,CLR,,,,,,,,IFR,,,,,,,,,,,,METAR,8.0
VOMM 150030Z VRB02KT 2000 BR FEW020 20/19 Q1014 NOSIG,VOMM,2019-01-15T00:30:00Z,13.0,80.17,20.0,19.0,0,2,,1.24,29.940945,,,,,,TRUE,,,,BR,FEW,2000,,,,,,,IFR,,,,,,,,,,,,METAR,16.0
VORY 150030Z 00000KT 1000 BR FEW020 19/18 Q1015 NOSIG,VORY,2019-01-15T00:30:00Z,17.1,81.82,19.0,18.0,0,0,,0.62,29.970472,,,,,,TRUE,,,,BR,FEW,2000,,,,,,,LIFR,,,,,,,,,,,,METAR,46.0
VEBS 150030Z 00000KT 1200 BR NSC 16/16 Q1015 TEMPO 0800 FG,VEBS,2019-01-15T00:30:00Z,20.25,85.82,16.0,16.0,0,0,,0.75,29.970472,,,,,,,,,,BR,CLR,,,,,,,,LIFR,,,,,,,,,,,,METAR,46.0
RKSI 150030Z 35005KT 1800 BR SCT030 00/M03 Q1024 NOSIG,RKSI,2019-01-15T00:30:00Z,37.47,126.45,0.0,-3.0,350,5,,1.12,30.236221,,,,,,TRUE,,,,BR,SCT,3000,,,,,,,IFR,,,,,,,,,,,,METAR,7.0
LEVT 150030Z 00000KT 9999 SCT010 SCT020 06/05 Q1024,LEVT,2019-01-15T00:30:00Z,42.87,-2.72,6.0,5.0,0,0,,6.21,30.236221,,,,,,,,,,,SCT,1000,SCT,2000,,,,,VFR,,,,,,,,,,,,METAR,509.0
LEBA 150030Z AUTO VRB01KT CAVOK 02/M00 Q1021,LEBA,2019-01-15T00:30:00Z,37.85,-4.82,2.0,0.0,0,1,,6.21,30.147638,,,TRUE,,,,,,,,CAVOK,,,,,,,,VFR,,,,,,,,,,,,METAR,92.0
LEHC 150030Z AUTO 00000KT 9999 NCD 01/01 Q1020,LEHC,2019-01-15T00:30:00Z,42.08,-0.32,1.0,1.0,0,0,,6.21,30.11811,,,TRUE,,,,,,,,CLR,,,,,,,,VFR,,,,,,,,,,,,METAR,539.0
LEBT 150030Z AUTO 36002KT 9999 NCD 03/02 Q1020,LEBT,2019-01-15T00:30:00Z,39.58,-0.45,3.0,2.0,360,2,,6.21,30.11811,,,TRUE,,,,,,,,CLR,,,,,,,,VFR,,,,,,,,,,,,METAR,50.0
LELO 150030Z AUTO 28008KT 9999 SCT031/// 06/04 Q1024,LELO,2019-01-15T00:30:00Z,42.45,-2.32,6.0,4.0,280,8,,6.21,30.236221,,,TRUE,,,,,,,,SCT,3100,,,,,,,VFR,,,,,,,,,,,,METAR,363.0
LEBR 150030Z AUTO 28015KT 9999 NCD 09/04 Q1023,LEBR,2019-01-15T00:30:00Z,42.2,-1.43,9.0,4.0,280,15,,6.21,30.206694,,,TRUE,,,,,,,,CLR,,,,,,,,VFR,,,,,,,,,,,,METAR,295.0
LETU 150030Z AUTO 27009KT 9999 FEW032 09/03 Q1023,LETU,2019-01-15T00:30:00Z,,,9.0,3.0,270,9,,6.21,30.206694,,,TRUE,,,,,,,,FEW,3200,,,,,,,VFR,,,,,,,,,,,,METAR,
LELL 150030Z AUTO VRB02KT 9999 NCD 03/02 Q1021,LELL,2019-01-15T00:30:00Z,41.52,2.1,3.0,2.0,0,2,,6.21,30.147638,,,TRUE,,,,,,,,CLR,,,,,,,,VFR,,,,,,,,,,,,METAR,250.0
LESB 150030Z AUTO VRB02KT CAVOK 06/05 Q1021,LESB,2019-01-15T00:30:00Z,39.6,2.7,6.0,5.0,0,2,,6.21,30.147638,,,TRUE,,,,,,,,CAVOK,,,,,,,,VFR,,,,,,,,,,,,METAR,48.0
ZBAA 150030Z 32011MPS CAVOK M07/M28 Q1041 NOSIG,ZBAA,2019-01-15T00:30:00Z,40.07,116.58,-7.0,-28.0,320,21,,6.21,30.73819,,,,,,TRUE,,,,,CAVOK,,,,,,,,VFR,,,,,,,,,,,,METAR,30.0
ZBTJ 150030Z 35010MPS CAVOK M08/M25 Q1039 NOSIG,ZBTJ,2019-01-15T00:30:00Z,39.12,117.35,-8.0,-25.0,350,19,,6.21,30.679134,,,,,,TRUE,,,,,CAVOK,,,,,,,,VFR,,,,,,,,,,,,METAR,3.0
ZBYN 150030Z 34006MPS CAVOK M10/M28 Q1036 NOSIG,ZBYN,2019-01-15T00:30:00Z,37.77,112.63,-10.0,-28.0,340,12,,6.21,30.590551,,,,,,TRUE,,,,,CAVOK,,,,,,,,VFR,,,,,,,,,,,,METAR,779.0
ZGGG 150030Z 34004MPS 5000 HZ NSC 17/12 Q1020 NOSIG,ZGGG,2019-01-15T00:30:00Z,23.4,113.3,17.0,12.0,340,8,,3.11,30.11811,,,,,,TRUE,,,,HZ,CLR,,,,,,,,MVFR,,,,,,,,,,,,METAR,15.0
ZSHC 150030Z 06004MPS 1600 -RA BR SCT003 BKN005 BKN017 07/07 Q1027 NOSIG,ZSHC,2019-01-15T00:30:00Z,30.22,120.43,7.0,7.0,60,8,,0.99,30.324802,,,,,,TRUE,,,,-RA BR,SCT,300,BKN,500,BKN,1700,,,LIFR,,,,,,,,,,,,METAR,43.0
VOTP 150030Z 22002KT 2000 BR SCT020 17/15 Q1015,VOTP,2019-01-15T00:30:00Z,13.63,79.55,17.0,15.0,220,2,,1.24,29.970472,,,,,,,,,,BR,SCT,2000,,,,,,,IFR,,,,,,,,,,,,METAR,107.0
ZSPD 150030Z 35005MPS 2500 -RA BR SCT010 OVC040 07/06 Q1027 BECMG TL0100 3000,ZSPD,2019-01-15T00:30:00Z,31.15,121.8,7.0,6.0,350,10,,1.55,30.324802,,,,,,,,,,-RA BR,SCT,1000,OVC,4000,,,,,IFR,,,,,,,,,,,,METAR,4.0
ZSSS 150030Z 36005MPS 2500 -RA BR BKN007 OVC040 07/06 Q1027 BECMG TL0130 3000 BKN010 OVC040,ZSSS,2019-01-15T00:30:00Z,31.2,121.33,7.0,6.0,360,10,,1.55,30.324802,,,,,,,,,,-RA BR,BKN,700,OVC,4000,,,,,IFR,,,,,,,,,,,,METAR,7.0
ZWWW 150030Z VRB01MPS 1200 R25/P2000N -SN BR BKN011 M17/M19 Q1028 NOSIG,ZWWW,2019-01-15T00:30:00Z,43.88,87.47,-17.0,-19.0,0,2,,0.75,30.35433,,,,,,TRUE,,,,-SN BR,BKN,1100,,,,,,,LIFR,,,,,,,,,,,,METAR,654.0
ZYTL 150030Z 36008G14MPS 330V050 9999 FEW040 M07/M17 Q1033 NOSIG,ZYTL,2019-01-15T00:30:00Z,38.97,121.53,-7.0,-17.0,360,16,27,6.21,30.501968,,,,,,TRUE,,,,,FEW,4000,,,,,,,VFR,,,,,,,,,,,,METAR,97.0
ZYTX 150030Z 32005MPS 290V350 CAVOK M12/M24 Q1032 NOSIG,ZYTX,2019-01-15T00:30:00Z,41.63,123.48,-12.0,-24.0,320,10,,6.21,30.47244,,,,,,TRUE,,,,,CAVOK,,,,,,,,VFR,,,,,,,,,,,,METAR,35.0
UMGG 150030Z 23007G11MPS 9999 BKN022CB M01/M02 Q0988 R28/590530 TEMPO 1200 SHSN,UMGG,2019-01-15T00:30:00Z,52.53,31.02,-1.0,-2.0,230,14,21,6.21,29.17323,,,,,,,,,,,BKN,2200,,,,,,,MVFR,,,,,,,,,,,,METAR,144.0
VVCT 150030Z VRB01KT 7000 FEW015 SCT050 24/23 Q1011 NOSIG,VVCT,2019-01-15T00:30:00Z,10.08,105.72,24.0,23.0,0,1,,4.35,29.852362,,,,,,TRUE,,,,,FEW,1500,SCT,5000,,,,,MVFR,,,,,,,,,,,,METAR,3.0
VOMD 150030Z 02003KT 3000 BR NSC 21/19 Q1014 NOSIG,VOMD,2019-01-15T00:30:00Z,9.82,78.07,21.0,19.0,20,3,,1.86,29.940945,,,,,,TRUE,,,,BR,CLR,,,,,,,,IFR,,,,,,,,,,,,METAR,131.0
VOCL 150030Z 06004KT 3000 BR FEW080 22/19 Q1012 NOSIG,VOCL,2019-01-15T00:30:00Z,11.13,75.95,22.0,19.0,60,4,,1.86,29.88189,,,,,,TRUE,,,,BR,FEW,8000,,,,,,,IFR,,,,,,,,,,,,METAR,104.0
FMCZ 150030Z AUTO 04003KT CAVOK 28/24 Q1011 TEMPO VRB15G35KT 1500 TSRA BKN010 SCT012CB,FMCZ,2019-01-15T00:30:00Z,-12.8,45.27,28.0,24.0,40,3,,6.21,29.852362,,,TRUE,,,,,,,,CAVOK,,,,,,,,VFR,,,,,,,,,,,,METAR,7.0
VTSM 150030Z 00000KT 9999 -RA SCT020 27/25 Q1011 NOSIG,VTSM,2019-01-15T00:30:00Z,9.55,100.07,27.0,25.0,0,0,,6.21,29.852362,,,,,,TRUE,,,,-RA,SCT,2000,,,,,,,VFR,,,,,,,,,,,,METAR,17.0
VVCR 150030Z 01004KT 9999 FEW015 BKN050 25/20 Q1014 NOSIG,VVCR,2019-01-15T00:30:00Z,12.0,109.22,25.0,20.0,10,4,,6.21,29.940945,,,,,,TRUE,,,,,FEW,1500,BKN,5000,,,,,VFR,,,,,,,,,,,,METAR,12.0
VVCI 150030Z 08010KT 9000 NSC 20/18 Q1017 NOSIG,VVCI,2019-01-15T00:30:00Z,20.82,106.73,20.0,18.0,80,10,,5.59,30.029528,,,,,,TRUE,,,,,CLR,,,,,,,,VFR,,,,,,,,,,,,METAR,3.0
VASU 150030Z 02004KT 4000 NSC 15/09 Q1014,VASU,2019-01-15T00:30:00Z,21.12,72.73,15.0,9.0,20,4,,2.49,29.940945,,,,,,,,,,,CLR,,,,,,,,IFR,,,,,,,,,,,,METAR,5.0
EPPO 150030Z 28017KT 9999 OVC029 M01/M04 Q1004 R10/290094,EPPO,2019-01-15T00:30:00Z,52.42,16.82,-1.0,-4.0,280,17,,6.21,29.64567,,,,,,,,,,,OVC,2900,,,,,,,MVFR,,,,,,,,,,,,SPECI,92.0
EPLL 150030Z 26020KT 9999 BKN021 M01/M05 Q1001 R25/29//95,EPLL,2019-01-15T00:30:00Z,51.72,19.4,-1.0,-5.0,260,20,,6.21,29.557087,,,,,,,,,,,BKN,2100,,,,,,,MVFR,,,,,,,,,,,,SPECI,184.0
EPKK 150030Z 27017KT 9999 SCT028 M02/M06 Q1004 R25/55//93,EPKK,2019-01-15T00:30:00Z,50.07,19.8,-2.0,-6.0,270,17,,6.21,29.64567,,,,,,,,,,,SCT,2800,,,,,,,VFR,,,,,,,,,,,,SPECI,237.0
EPGD 150030Z 29021KT 9999 FEW035 01/M05 Q0995 R11/290095,EPGD,2019-01-15T00:30:00Z,54.37,18.47,1.0,-5.0,290,21,,6.21,29.379921,,,,,,,,,,,FEW,3500,,,,,,,VFR,,,,,,,,,,,,SPECI,138.0
GMTT 150030Z VRB02KT 6000 NSC 05/04 Q1021 NOSIG,GMTT,2019-01-15T00:30:00Z,35.72,-5.9,5.0,4.0,0,2,,3.73,30.147638,,,,,,TRUE,,,,,CLR,,,,,,,,MVFR,,,,,,,,,,,,METAR,21.0
GMMX 150030Z 22005KT CAVOK 09/03 Q1021 NOSIG,GMMX,2019-01-15T00:30:00Z,31.62,-8.02,9.0,3.0,220,5,,6.21,30.147638,,,,,,TRUE,,,,,CAVOK,,,,,,,,VFR,,,,,,,,,,,,METAR,466.0
GMMN 150030Z VRB02KT 3000 BR SCT010 06/06 Q1022 NOSIG,GMMN,2019-01-15T00:30:00Z,33.37,-7.57,6.0,6.0,0,2,,1.86,30.177166,,,,,,TRUE,,,,BR,SCT,1000,,,,,,,IFR,,,,,,,,,,,,METAR,206.0
GMFF 150030Z 17010KT CAVOK 04/M01 Q1022 NOSIG,GMFF,2019-01-15T00:30:00Z,33.92,-4.97,4.0,-1.0,170,10,,6.21,30.177166,,,,,,TRUE,,,,,CAVOK,,,,,,,,VFR,,,,,,,,,,,,METAR,579.0
GMAD 150030Z 07005KT CAVOK 10/09 Q1021 NOSIG,GMAD,2019-01-15T00:30:00Z,30.32,-9.42,10.0,9.0,70,5,,6.21,30.147638,,,,,,TRUE,,,,,CAVOK,,,,,,,,VFR,,,,,,,,,,,,METAR,74.0
EPSY 150030Z 27007KT 230V320 1700 +SHSN BKN016CB M02/M03 Q0994 R01/590393,EPSY,2019-01-15T00:30:00Z,53.47,20.93,-2.0,-3.0,270,7,,1.06,29.350393,,,,,,,,,,+SHSN,BKN,1600,,,,,,,IFR,,,,,,,,,,,,METAR,141.0
EPZG 150030Z 26011KT 240V300 9999 BKN037 01/M03 Q1007,EPZG,2019-01-15T00:30:00Z,52.13,15.8,1.0,-3.0,260,11,,6.21,29.734253,,,,,,,,,,,BKN,3700,,,,,,,VFR,,,,,,,,,,,,METAR,59.0
VOBZ 150030Z 00000KT 1200 BR NSC 19/18 Q1014 NOSIG,VOBZ,2019-01-15T00:30:00Z,16.52,80.78,19.0,18.0,0,0,,0.75,29.940945,,,,,,TRUE,,,,BR,CLR,,,,,,,,LIFR,,,,,,,,,,,,METAR,24.0
DAAG 150030Z VRB01KT 9999 FEW020 04/03 Q1021,DAAG,2019-01-15T00:30:00Z,36.72,3.22,4.0,3.0,0,1,,6.21,30.147638,,,,,,,,,,,FEW,2000,,,,,,,VFR,,,,,,,,,,,,METAR,25.0
DAAT 150030Z 09003KT CAVOK 02/M19 Q1021,DAAT,2019-01-15T00:30:00Z,22.82,5.47,2.0,-19.0,90,3,,6.21,30.147638,,,,,,,,,,,CAVOK,,,,,,,,VFR,,,,,,,,,,,,METAR,1377.0
DAON 150030Z 00000KT CAVOK 04/M05 Q1021,DAON,2019-01-15T00:30:00Z,35.02,-1.47,4.0,-5.0,0,0,,6.21,30.147638,,,,,,,,,,,CAVOK,,,,,,,,VFR,,,,,,,,,,,,METAR,247.0
DABC 150030Z 25007KT 9999 FEW020 BKN026 07/04 Q1019,DABC,2019-01-15T00:30:00Z,36.27,6.62,7.0,4.0,250,7,,6.21,30.088583,,,,,,,,,,,FEW,2000,BKN,2600,,,,,MVFR,,,,,,,,,,,,METAR,694.0
DABB 150030Z 32012KT 290V010 9999 FEW020 BKN033 13/09 Q1017,DABB,2019-01-15T00:30:00Z,36.82,7.82,13.0,9.0,320,12,,6.21,30.029528,,,,,,,,,,,FEW,2000,BKN,3300,,,,,VFR,,,,,,,,,,,,METAR,4.0
UAKK 150030Z 17010MPS 9999 DRSN BKN047 M04/M09 Q1008 R23/920555 NOSIG RMK QFE709/0946,UAKK,2019-01-15T00:30:00Z,49.67,73.33,-4.0,-9.0,170,19,,6.21,29.763779,,,,,,TRUE,,,,DRSN,BKN,4700,,,,,,,VFR,,,,,,,,,,,,SPECI,538.0
UARR 150030Z 15003MPS 0700 R22/1600 FZFG VV003 M11/M12 Q1014 R22/990235 TEMPO 0400 FZFG VV002 RMK QBB090 QFE756/1009,UARR,2019-01-15T00:30:00Z,51.15,51.53,-11.0,-12.0,150,6,,0.43,29.940945,,,,,,,,,,FZFG,OVX,0,,,,,,,LIFR,,,,,,,,,,,300,METAR,38.0
UASP 150030Z 17006MPS CAVOK M07/M10 Q1012 R21/390145 NOSIG RMK QFE748/0997,UASP,2019-01-15T00:30:00Z,52.2,77.07,-7.0,-10.0,170,12,,6.21,29.88189,,,,,,TRUE,,,,,CAVOK,,,,,,,,VFR,,,,,,,,,,,,SPECI,125.0
UASK 150030Z 14007MPS 9999 NSC M03/M13 Q1018 R12/820250 NOSIG RMK QFE738/0984,UASK,2019-01-15T00:30:00Z,50.03,82.5,-3.0,-13.0,140,14,,6.21,30.059055,,,,,,TRUE,,,,,CLR,,,,,,,,VFR,,,,,,,,,,,,METAR,286.0
UKKM 150030Z AUTO 25005MPS 9999 // NCD M02/M07 Q0993,UKKM,2019-01-15T00:30:00Z,50.6,30.2,-2.0,-7.0,250,10,,6.21,29.320866,,,TRUE,,,,,,,,CLR,,,,,,,,VFR,,,,,,,,,,,,METAR,157.0
UKKK 150030Z 26006MPS 9999 BKN029 M02/M07 Q0994 R26/810340 NOSIG,UKKK,2019-01-15T00:30:00Z,50.4,30.45,-2.0,-7.0,260,12,,6.21,29.350393,,,,,,TRUE,,,,,BKN,2900,,,,,,,MVFR,,,,,,,,,,,,METAR,179.0
RJCC 150030Z 17004KT 9999 -SHSN FEW015 SCT025 BKN045 M03/M08 Q1019 RMK 1ST015 4CU025 7CU045 A3011,RJCC,2019-01-15T00:30:00Z,42.77,141.67,-3.0,-8.0,170,4,,6.21,30.088583,,,,,,,,,,-SHSN,FEW,1500,SCT,2500,BKN,4500,,,VFR,,,,,,,,,,,,METAR,30.0
RJAA 150030Z VRB02KT 9999 FEW030 BKN180 BKN/// 04/M00 Q1023 NOSIG,RJAA,2019-01-15T00:30:00Z,35.77,140.37,4.0,0.0,0,2,,6.21,30.206694,,,,,,TRUE,,,,,FEW,3000,BKN,18000,,,,,VFR,,,,,,,,,,,,METAR,44.0
UAII 150030Z 15002MPS 9999 -SHRA BKN043CB OVC100 06/05 Q1009 R28/2///55 NOSIG RMK QFE720/0960,UAII,2019-01-15T00:30:00Z,42.37,69.48,6.0,5.0,150,4,,6.21,29.793306,,,,,,TRUE,,,,-SHRA,BKN,4300,OVC,10000,,,,,VFR,,,,,,,,,,,,SPECI,422.0
UACC 150030Z 20003MPS 9999 OVC005 M07/M09 Q1009 R22/35//60 NOSIG RMK QBB150 QFE726/0968,UACC,2019-01-15T00:30:00Z,51.02,71.47,-7.0,-9.0,200,6,,6.21,29.793306,,,,,,TRUE,,,,,OVC,500,,,,,,,IFR,,,,,,,,,,,,METAR,355.0
UADD 150030Z 06002MPS 9999 SCT050CB OVC100 08/M01 Q1008 R13/0///65 NOSIG RMK QFE700/0933,UADD,2019-01-15T00:30:00Z,42.85,71.3,8.0,-1.0,60,4,,6.21,29.763779,,,,,,TRUE,,,,,SCT,5000,OVC,10000,,,,,VFR,,,,,,,,,,,,SPECI,665.0
UAAA 150030Z 18002MPS 150V210 2500 BR FU SCT100 BKN200 M07/M09 Q1010 R23R/91//60 R23L/91//50 NOSIG,UAAA,2019-01-15T00:30:00Z,43.35,77.03,-7.0,-9.0,180,4,,1.55,29.822834,,,,,,TRUE,,,,BR FU,SCT,10000,BKN,20000,,,,,IFR,,,,,,,,,,,,METAR,681.0
UDSG 150030Z 00000KT 4200 BR OVC016 M06/M07 Q1011 R02/420160 NOSIG,UDSG,2019-01-15T00:30:00Z,40.75,43.87,-6.0,-7.0,0,0,,2.61,29.852362,,,,,,TRUE,,,,BR,OVC,1600,,,,,,,IFR,,,,,,,,,,,,METAR,1524.0
UDYZ 150030Z 00000KT 2300 BR BKN014 M01/M03 Q1014 R09/010070 NOSIG,UDYZ,2019-01-15T00:30:00Z,40.15,44.4,-1.0,-3.0,0,0,,1.43,29.940945,,,,,,TRUE,,,,BR,BKN,1400,,,,,,,IFR,,,,,,,,,,,,METAR,865.0
DAUH 150030Z 21005KT CAVOK 04/M07 Q1018,DAUH,2019-01-15T00:30:00Z,31.67,6.15,4.0,-7.0,210,5,,6.21,30.059055,,,,,,,,,,,CAVOK,,,,,,,,VFR,,,,,,,,,,,,METAR,142.0
DAOO 150030Z 17003KT CAVOK 04/M01 Q1020,DAOO,2019-01-15T00:30:00Z,35.62,-0.6,4.0,-1.0,170,3,,6.21,30.11811,,,,,,,,,,,CAVOK,,,,,,,,VFR,,,,,,,,,,,,METAR,90.0
RJGG 150030Z 32003KT 280V020 9999 FEW030 BKN/// 06/M01 Q1023 NOSIG,RJGG,2019-01-15T00:30:00Z,34.87,136.8,6.0,-1.0,320,3,,6.21,30.206694,,,,,,TRUE,,,,,FEW,3000,,,,,,,VFR,,,,,,,,,,,,METAR,5.0
RJFF 150030Z 19003KT 150V250 9999 FEW015 SCT030 BKN045 09/04 Q1021 BECMG TL0130 29011KT,RJFF,2019-01-15T00:30:00Z,33.57,130.43,9.0,4.0,190,3,,6.21,30.147638,,,,,,,,,,,FEW,1500,SCT,3000,BKN,4500,,,VFR,,,,,,,,,,,,METAR,12.0
UAUU 150030Z 02004MPS 0600 R33/1100 FZFG BKN001 OVC030 M09/M10 Q1012 R33/850152 TEMPO 0400 FZFG VV002 RMK QBB050 QFE743/0991,UAUU,2019-01-15T00:30:00Z,53.2,63.55,-9.0,-10.0,20,8,,0.37,29.88189,,,,,,,,,,FZFG,BKN,100,OVC,3000,,,,,LIFR,,,,,,,,,,,,SPECI,182.0
UAKD 150030Z 06004MPS 9999 SCT020 OVC100 M09/M10 Q1006 R04/820055 NOSIG RMK QFE721/0962,UAKD,2019-01-15T00:30:00Z,47.7,67.73,-9.0,-10.0,60,8,,6.21,29.704725,,,,,,TRUE,,,,,SCT,2000,OVC,10000,,,,,VFR,,,,,,,,,,,,SPECI,381.0
RJTT 150030Z VRB02KT 9999 FEW030 SCT180 BKN/// 06/M01 Q1023 NOSIG,RJTT,2019-01-15T00:30:00Z,35.53,139.77,6.0,-1.0,0,2,,6.21,30.206694,,,,,,TRUE,,,,,FEW,3000,SCT,18000,,,,,VFR,,,,,,,,,,,,METAR,8.0
UKHH 150030Z 19005MPS 9000 -SHSNRA BKN005 BKN018CB 01/M01 Q0993 R07/550245 NOSIG,UKHH,2019-01-15T00:30:00Z,49.92,36.28,1.0,-1.0,190,10,,5.59,29.320866,,,,,,TRUE,,,,-SHSN -SHRA,BKN,500,BKN,1800,,,,,IFR,,,,,,,,,,,,METAR,155.0
UKBB 150030Z 27004MPS 9999 FEW032 M02/M06 Q0994 R88/451035 TEMPO 29009G14MPS,UKBB,2019-01-15T00:30:00Z,50.33,30.9,-2.0,-6.0,270,8,,6.21,29.350393,,,,,,,,,,,FEW,3200,,,,,,,VFR,,,,,,,,,,,,METAR,119.0
UKOO 150030Z 32001MPS CAVOK 01/M01 Q0998 R16/190056 NOSIG,UKOO,2019-01-15T00:30:00Z,46.42,30.68,1.0,-1.0,320,2,,6.21,29.468504,,,,,,TRUE,,,,,CAVOK,,,,,,,,VFR,,,,,,,,,,,,METAR,35.0
UKDD 150030Z 22006MPS 9999 OVC009 01/M01 Q0995 R08/811056 NOSIG,UKDD,2019-01-15T00:30:00Z,48.37,35.1,1.0,-1.0,220,12,,6.21,29.379921,,,,,,TRUE,,,,,OVC,900,,,,,,,IFR,,,,,,,,,,,,METAR,149.0
UKLL 150030Z 28006MPS 9999 SCT020CB BKN020 M04/M06 Q1000 R31/491028 NOSIG,UKLL,2019-01-15T00:30:00Z,49.82,23.93,-4.0,-6.0,280,12,,6.21,29.52756,,,,,,TRUE,,,,,SCT,2000,BKN,2000,,,,,MVFR,,,,,,,,,,,,METAR,325.0
UKDR 150030Z 26004MPS 9999 OVC007 01/M01 Q0996 R18/890532 NOSIG,UKDR,2019-01-15T00:30:00Z,48.05,33.22,1.0,-1.0,260,8,,6.21,29.409449,,,,,,TRUE,,,,,OVC,700,,,,,,,IFR,,,,,,,,,,,,METAR,124.0
DTTA 150030Z 27011KT 9999 FEW026 13/07 Q1014 NOSIG,DTTA,2019-01-15T00:30:00Z,36.85,10.22,13.0,7.0,270,11,,6.21,29.940945,,,,,,TRUE,,,,,FEW,2600,,,,,,,VFR,,,,,,,,,,,,METAR,4.0
RCSS 150030Z VRB02KT 9999 FEW020 SCT045 BKN060 21/19 Q1019 NOSIG RMK A3011,RCSS,2019-01-15T00:30:00Z,25.07,121.53,21.0,19.0,0,2,,6.21,30.088583,,,,,,TRUE,,,,,FEW,2000,SCT,4500,BKN,6000,,,VFR,,,,,,,,,,,,METAR,6.0
RCTP 150030Z 34002KT 8000 FEW012 SCT050 BKN070 20/19 Q1020 NOSIG RMK A3012,RCTP,2019-01-15T00:30:00Z,25.07,121.22,20.0,19.0,340,2,,4.97,30.11811,,,,,,TRUE,,,,,FEW,1200,SCT,5000,BKN,7000,,,MVFR,,,,,,,,,,,,METAR,33.0
ROAH 150030Z 08005KT 040V120 CAVOK 21/13 Q1020 RMK A3014,ROAH,2019-01-15T00:30:00Z,26.17,127.65,21.0,13.0,80,5,,6.21,30.11811,,,,,,,,,,,CAVOK,,,,,,,,VFR,,,,,,,,,,,,METAR,8.0
DTTJ 150030Z 24013KT CAVOK 13/03 Q1015 NOSIG,DTTJ,2019-01-15T00:30:00Z,33.87,10.77,13.0,3.0,240,13,,6.21,29.970472,,,,,,TRUE,,,,,CAVOK,,,,,,,,VFR,,,,,,,,,,,,METAR,4.0
UCFM 150030Z 10005MPS CAVOK 06/M08 Q1008 R08/09//95 NOSIG,UCFM,2019-01-15T00:30:00Z,43.07,74.48,6.0,-8.0,100,10,,6.21,29.763779,,,,,,TRUE,,,,,CAVOK,,,,,,,,VFR,,,,,,,,,,,,METAR,633.0
UCFO 150030Z 14002MPS 110V170 4000 BR NSC 01/M03 Q1014 R12/CLRD95 NOSIG,UCFO,2019-01-15T00:30:00Z,40.6,72.8,1.0,-3.0,140,4,,2.49,29.940945,,,,,,TRUE,,,,BR,CLR,,,,,,,,IFR,,,,,,,,,,,,METAR,884.0
UTDD 150030Z 04004MPS 9999 -SHRA SCT042CB SCT042 06/03 Q1020 R09/29//50 NOSIG RMK QFE696/0928,UTDD,2019-01-15T00:30:00Z,38.53,68.82,6.0,3.0,40,8,,6.21,30.11811,,,,,,TRUE,,,,-SHRA,SCT,4200,SCT,4200,,,,,VFR,,,,,,,,,,,,METAR,803.0
UTDK 150030Z 03004MPS 010V070 9999 OVC066 09/00 Q1018 R01/09//70 RMK QFE706/0942,UTDK,2019-01-15T00:30:00Z,37.98,69.8,9.0,0.0,30,8,,6.21,30.059055,,,,,,,,,,,OVC,6600,,,,,,,VFR,,,,,,,,,,,,METAR,699.0
UIUU 150030Z 28003MPS 9000 1400NW FU NSC M23/M27 Q1031 R26/810550 NOSIG RMK QFE729/0972,UIUU,2019-01-15T00:30:00Z,51.8,107.45,-23.0,-27.0,280,6,,5.59,30.442913,,,,,,TRUE,,,,FU,CLR,,,,,,,,VFR,,,,,,,,,,,,SPECI,515.0
UTDT 150030Z 05002MPS 350V130 9999 BKN053CB OVC093 07/01 Q1017 R35/CLRD70 RMK QFE723/0965,UTDT,2019-01-15T00:30:00Z,37.87,68.87,7.0,1.0,50,4,,6.21,30.029528,,,,,,,,,,,BKN,5300,OVC,9300,,,,,VFR,,,,,,,,,,,,METAR,449.0
UTDL 150030Z 06006MPS 7000 FEW066CB OVC086 04/M03 Q1013 R08/CLRD70 NOSIG RMK QFE720/0961,UTDL,2019-01-15T00:30:00Z,40.22,69.7,4.0,-3.0,60,12,,4.35,29.911417,,,,,,TRUE,,,,,FEW,6600,OVC,8600,,,,,MVFR,,,,,,,,,,,,METAR,442.0
UATT 150030Z 28003MPS 7000 OVC008 M09/M10 Q1014 R31/820240 NOSIG RMK QFE740/0987,UATT,2019-01-15T00:30:00Z,50.25,57.2,-9.0,-10.0,280,6,,4.35,29.940945,,,,,,TRUE,,,,,OVC,800,,,,,,,IFR,,,,,,,,,,,,METAR,227.0
UATG 150030Z 12001MPS 0400 R14/1000 FZFG VV001 M02/M02 Q1015 R14/19//65 NOSIG RMK QBB050 QFE763/1018,UATG,2019-01-15T00:30:00Z,47.12,51.83,-2.0,-2.0,120,2,,0.25,29.970472,,,,,,TRUE,,,,FZFG,OVX,0,,,,,,,LIFR,,,,,,,,,,,100,METAR,-22.0
UATE 150030Z 12006MPS 9999 OVC004 M01/M01 Q1013 R12/0///70 NOSIG RMK QBB140 QFE758/1010,UATE,2019-01-15T00:30:00Z,43.87,51.1,-1.0,-1.0,120,12,,6.21,29.911417,,,,,,TRUE,,,,,OVC,400,,,,,,,LIFR,,,,,,,,,,,,METAR,22.0
EPWA 150030Z 27010KT 230V300 9999 SCT023 M01/M04 Q0997 R33/2///95 NOSIG,EPWA,2019-01-15T00:30:00Z,52.17,20.97,-1.0,-4.0,270,10,,6.21,29.438976,,,,,,TRUE,,,,,SCT,2300,,,,,,,VFR,,,,,,,,,,,,SPECI,107.0
EPRZ 150030Z 26018KT 9999 -SHSN FEW023CB BKN035 M02/M06 Q1001,EPRZ,2019-01-15T00:30:00Z,50.1,22.05,-2.0,-6.0,260,18,,6.21,29.557087,,,,,,,,,,-SHSN,FEW,2300,BKN,3500,,,,,VFR,,,,,,,,,,,,METAR,202.0
LEGR 150030Z AUTO 00000KT 9999 NCD M00/M02 Q1021,LEGR,2019-01-15T00:30:00Z,37.17,-3.77,0.0,-2.0,0,0,,6.21,30.147638,,,TRUE,,,,,,,,CLR,,,,,,,,VFR,,,,,,,,,,,,METAR,559.0
LCPH 150030Z 24017KT 5000 -SHRA BR FEW017 FEW025CB BKN030 14/12 Q1008 RERA,LCPH,2019-01-15T00:30:00Z,34.72,32.47,14.0,12.0,240,17,,3.11,29.763779,,,,,,,,,,-SHRA BR,FEW,1700,FEW,2500,BKN,3000,,,MVFR,,,,,,,,,,,,METAR,8.0
LCLK 150030Z 24013KT 7000 +RA FEW012 BKN050 14/12 Q1008 NOSIG,LCLK,2019-01-15T00:30:00Z,34.87,33.62,14.0,12.0,240,13,,4.35,29.763779,,,,,,TRUE,,,,+RA,FEW,1200,BKN,5000,,,,,MVFR,,,,,,,,,,,,METAR,2.0
OPPS 150030Z 23004KT 4000 HZ SCT200 05/M02 Q1019,OPPS,2019-01-15T00:30:00Z,34.02,71.52,5.0,-2.0,230,4,,2.49,30.088583,,,,,,,,,,HZ,SCT,20000,,,,,,,IFR,,,,,,,,,,,,METAR,360.0
HECA 150030Z 18009KT 6000 NSC 10/M00 Q1016 NOSIG,HECA,2019-01-15T00:30:00Z,30.12,31.38,10.0,0.0,180,9,,3.73,30.0,,,,,,TRUE,,,,,CLR,,,,,,,,MVFR,,,,,,,,,,,,METAR,74.0
UBBB 150030Z 19012KT 9999 BKN013 07/06 Q1009 R88/D NOSIG,UBBB,2019-01-15T00:30:00Z,40.45,50.07,7.0,6.0,190,12,,6.21,29.793306,,,,,,TRUE,,,,,BKN,1300,,,,,,,MVFR,,,,,,,,,,,,METAR,-6.0
WIDD 150030Z 00000KT 9999 FEW014 27/24 Q1012 NOSIG,WIDD,2019-01-15T00:30:00Z,1.12,104.12,27.0,24.0,0,0,,6.21,29.88189,,,,,,TRUE,,,,,FEW,1400,,,,,,,VFR,,,,,,,,,,,,METAR,38.0
BKPR 150030Z VRB02KT 2000 BR SCT015 SCT030 M09/M11 Q1007 NOSIG RMK 17290095,BKPR,2019-01-15T00:30:00Z,42.58,21.03,-9.0,-11.0,0,2,,1.24,29.734253,,,,,,TRUE,,,,BR,SCT,1500,SCT,3000,,,,,IFR,,,,,,,,,,,,SPECI,576.0
SPZO 150030Z /////KT 9999 SCT046 BKN100 13/07 Q1029 NOSIG RMK BIRD HAZARD RWY 28,SPZO,2019-01-15T00:30:00Z,-13.55,-71.97,13.0,7.0,,,,6.21,30.383858,,,,,,TRUE,,,,,SCT,4600,BKN,10000,,,,,VFR,,,,,,,,,,,,SPECI,3249.0
RCNN 150030Z 03006KT 3200 BR FEW010 BKN050 19/15 Q1018 NOSIG RMK A3009,RCNN,2019-01-15T00:30:00Z,22.93,120.2,19.0,15.0,30,6,,1.99,30.059055,,,,,,TRUE,,,,BR,FEW,1000,BKN,5000,,,,,IFR,,,,,,,,,,,,METAR,19.0
WIII 150030Z 30005KT 6000 FEW020 26/24 Q1010 NOSIG,WIII,2019-01-15T00:30:00Z,-6.13,106.67,26.0,24.0,300,5,,3.73,29.822834,,,,,,TRUE,,,,,FEW,2000,,,,,,,MVFR,,,,,,,,,,,,METAR,8.0
WIPP 150030Z 30008KT 4000 -RA BKN010 23/23 Q1011,WIPP,2019-01-15T00:30:00Z,-2.88,104.7,23.0,23.0,300,8,,2.49,29.852362,,,,,,,,,,-RA,BKN,1000,,,,,,,IFR,,,,,,,,,,,,METAR,10.0
WIOO 150030Z 07003KT 0800 BR VV006 23/23 Q1010 BECMG FM0130 5000,WIOO,2019-01-15T00:30:00Z,-0.15,109.4,23.0,23.0,70,3,,0.5,29.822834,,,,,,,,,,BR,OVX,0,,,,,,,LIFR,,,,,,,,,,,600,METAR,3.0
WIBB 150030Z 00000KT 6000 SCT015 24/23 Q1009,WIBB,2019-01-15T00:30:00Z,0.47,101.45,24.0,23.0,0,0,,3.73,29.793306,,,,,,,,,,,SCT,1500,,,,,,,MVFR,,,,,,,,,,,,METAR,31.0
WAJJ 150030Z 26011KT 9999 SCT012 30/23 Q1007 NOSIG,WAJJ,2019-01-15T00:30:00Z,-2.58,140.52,30.0,23.0,260,11,,6.21,29.734253,,,,,,TRUE,,,,,SCT,1200,,,,,,,VFR,,,,,,,,,,,,METAR,88.0
KE16 150030Z AUTO 18004KT 10SM BKN039 BKN060 OVC070 12/09 A2987 RMK AO2,KE16,2019-01-15T00:30:00Z,37.08,-121.6,12.0,9.0,180,4,,10.0,29.870079,,,TRUE,TRUE,,,,,,,BKN,3900,BKN,6000,OVC,7000,,,VFR,,,,,,,,,,,,SPECI,86.0
LPFR 150030Z 02005KT CAVOK 07/03 Q1021,LPFR,2019-01-15T00:30:00Z,37.02,-7.97,7.0,3.0,20,5,,6.21,30.147638,,,,,,,,,,,CAVOK,,,,,,,,VFR,,,,,,,,,,,,METAR,4.0
HSSS 150030Z 32009KT CAVOK 20/M04 Q1014 NOSIG,HSSS,2019-01-15T00:30:00Z,15.58,32.53,20.0,-4.0,320,9,,6.21,29.940945,,,,,,TRUE,,,,,CAVOK,,,,,,,,VFR,,,,,,,,,,,,METAR,380.0
VOML 150030Z 09003KT 6000 NSC 22/19 Q1012 NOSIG,VOML,2019-01-15T00:30:00Z,12.97,74.88,22.0,19.0,90,3,,3.73,29.88189,,,,,,TRUE,,,,,CLR,,,,,,,,MVFR,,,,,,,,,,,,METAR,103.0
UBBN 150030Z 12002KT 1900 BR BKN016 M02/M02 Q1014 R14R/CLRD// NOSIG RMK MT OBSC QFE685,UBBN,2019-01-15T00:30:00Z,39.18,45.45,-2.0,-2.0,120,2,,1.18,29.940945,,,,,,TRUE,,,,BR,BKN,1600,,,,,,,IFR,,,,,,,,,,,,SPECI,873.0
LUKK 150030Z 32009KT 7000 -SN OVC049 00/M03 Q0999 R08/590195 NOSIG,LUKK,2019-01-15T00:30:00Z,46.93,28.93,0.0,-3.0,320,9,,4.35,29.498032,,,,,,TRUE,,,,-SN,OVC,4900,,,,,,,MVFR,,,,,,,,,,,,METAR,122.0
FOOL 150030Z 30008KT 160V220 6000 RA BKN016 27/25 Q1011 BECMG NSW,FOOL,2019-01-15T00:30:00Z,0.45,9.42,27.0,25.0,300,8,,3.73,29.852362,,,,,,,,,,RA,BKN,1600,,,,,,,MVFR,,,,,,,,,,,,SPECI,15.0
LWSK 150030Z 17003KT 3500 BR NSC M07/M07 Q1008 R99/1///95 NOSIG,LWSK,2019-01-15T00:30:00Z,41.97,21.63,-7.0,-7.0,170,3,,2.17,29.763779,,,,,,TRUE,,,,BR,CLR,,,,,,,,IFR,,,,,,,,,,,,SPECI,239.0
VOCB 150030Z 00000KT 3000 BR NSC 19/17 Q1016 BECMG 1500 BR,VOCB,2019-01-15T00:30:00Z,11.02,77.03,19.0,17.0,0,0,,1.86,30.0,,,,,,,,,,BR,CLR,,,,,,,,IFR,,,,,,,,,,,,METAR,399.0
EICK 150030Z 21004KT 9999 FEW001 SCT018 05/05 Q1023 TEMPO 3000 BKN002,EICK,2019-01-15T00:30:00Z,51.85,-8.47,5.0,5.0,210,4,,6.21,30.206694,,,,,,,,,,,FEW,100,SCT,1800,,,,,VFR,,,,,,,,,,,,SPECI,162.0
EINN 150030Z 22008KT 9999 FEW005 SCT008 BKN045 08/08 Q1022 TEMPO 4000 BKN007,EINN,2019-01-15T00:30:00Z,52.7,-8.92,8.0,8.0,220,8,,6.21,30.177166,,,,,,,,,,,FEW,500,SCT,800,BKN,4500,,,VFR,,,,,,,,,,,,SPECI,20.0
EIDW 150030Z 23008KT 190V260 9999 FEW006 SCT012 BKN040 08/07 Q1020 NOSIG,EIDW,2019-01-15T00:30:00Z,53.42,-6.25,8.0,7.0,230,8,,6.21,30.11811,,,,,,TRUE,,,,,FEW,600,SCT,1200,BKN,4000,,,VFR,,,,,,,,,,,,METAR,85.0
FMMI 150030Z 09009KT 6000 -RADZ FEW003 BKN020 19/18 Q1021 TEMPO 3000 RADZ,FMMI,2019-01-15T00:30:00Z,-18.8,47.47,19.0,18.0,90,9,,3.73,30.147638,,,,,,,,,,-RA -DZ,FEW,300,BKN,2000,,,,,MVFR,,,,,,,,,,,,METAR,1276.0
TFFF 150030Z AUTO 06004KT 9999 FEW025 24/20 Q1016 NOSIG,TFFF,2019-01-15T00:30:00Z,14.6,-61.0,24.0,20.0,60,4,,6.21,30.0,,,TRUE,,,TRUE,,,,,FEW,2500,,,,,,,VFR,,,,,,,,,,,,METAR,5.0
LZTT 150030Z 27018KT 1600 -SN DRSN FEW011 SCT043 OVC053 M06/M09 Q1002,LZTT,2019-01-15T00:30:00Z,49.07,20.25,-6.0,-9.0,270,18,,0.99,29.586615,,,,,,,,,,-SN DRSN,FEW,1100,SCT,4300,OVC,5300,,,LIFR,,,,,,,,,,,,METAR,707.0
TFFR 150030Z AUTO VRB03KT 9999 FEW024 SCT084 23/20 Q1017 TEMPO 4000 SHRA BKN015TCU,TFFR,2019-01-15T00:30:00Z,16.27,-61.53,23.0,20.0,0,3,,6.21,30.029528,,,TRUE,,,,,,,,FEW,2400,SCT,8400,,,,,VFR,,,,,,,,,,,,METAR,11.0
SOCA 150030Z AUTO 02004KT 9999 FEW020 SCT029 BKN066 26/23 Q1014 TEMPO 3000 SHRA FEW012TCU,SOCA,2019-01-15T00:30:00Z,4.82,-52.37,26.0,23.0,20,4,,6.21,29.940945,,,TRUE,,,,,,,,FEW,2000,SCT,2900,BKN,6600,,,VFR,,,,,,,,,,,,METAR,9.0
LZKZ 150030Z 32010KT CAVOK M03/M10 Q1005,LZKZ,2019-01-15T00:30:00Z,48.67,21.23,-3.0,-10.0,320,10,,6.21,29.675198,,,,,,,,,,,CAVOK,,,,,,,,VFR,,,,,,,,,,,,METAR,232.0
LBGO 150030Z AUTO 26015KT 9999 NCD 03/M04 Q1003,LBGO,2019-01-15T00:30:00Z,43.15,25.72,3.0,-4.0,260,15,,6.21,29.616142,,,TRUE,,,,,,,,CLR,,,,,,,,VFR,,,,,,,,,,,,METAR,86.0
LBPD 150030Z AUTO 28023KT 9999 FEW054 05/M06 Q1002,LBPD,2019-01-15T00:30:00Z,42.13,24.8,5.0,-6.0,280,23,,6.21,29.586615,,,TRUE,,,,,,,,FEW,5400,,,,,,,VFR,,,,,,,,,,,,METAR,185.0
LBBG 150030Z 26009KT 9999 FEW049 02/M01 Q1002 NOSIG,LBBG,2019-01-15T00:30:00Z,42.57,27.52,2.0,-1.0,260,9,,6.21,29.586615,,,,,,TRUE,,,,,FEW,4900,,,,,,,VFR,,,,,,,,,,,,METAR,28.0
LBWN 150030Z 28008KT CAVOK 03/M01 Q1000 NOSIG,LBWN,2019-01-15T00:30:00Z,43.22,27.82,3.0,-1.0,280,8,,6.21,29.52756,,,,,,TRUE,,,,,CAVOK,,,,,,,,VFR,,,,,,,,,,,,METAR,43.0
LBSF 150030Z 28015KT CAVOK M00/M06 Q1004 NOSIG,LBSF,2019-01-15T00:30:00Z,42.7,23.42,0.0,-6.0,280,15,,6.21,29.64567,,,,,,TRUE,,,,,CAVOK,,,,,,,,VFR,,,,,,,,,,,,METAR,530.0
LHBP 150030Z 30009KT CAVOK M02/M07 Q1010 NOSIG,LHBP,2019-01-15T00:30:00Z,47.42,19.27,-2.0,-7.0,300,9,,6.21,29.822834,,,,,,TRUE,,,,,CAVOK,,,,,,,,VFR,,,,,,,,,,,,METAR,185.0
UBBG 150030Z 24004KT 0200 R30/0500 FG VV002 02/02 Q1011 R30/CLRD// NOSIG,UBBG,2019-01-15T00:30:00Z,40.73,46.32,2.0,2.0,240,4,,0.12,29.852362,,,,,,TRUE,,,,FG,OVX,0,,,,,,,LIFR,,,,,,,,,,,200,SPECI,330.0
UGKO 150030Z AUTO 08016KT CAVOK 10/M03 Q1007 NOSIG,UGKO,2019-01-15T00:30:00Z,42.18,42.48,10.0,-3.0,80,16,,6.21,29.734253,,,TRUE,,,TRUE,,,,,CAVOK,,,,,,,,VFR,,,,,,,,,,,,METAR,68.0
UGTB 150030Z 02003KT 280V070 CAVOK M02/M05 Q1013 NOSIG,UGTB,2019-01-15T00:30:00Z,41.67,44.95,-2.0,-5.0,20,3,,6.21,29.911417,,,,,,TRUE,,,,,CAVOK,,,,,,,,VFR,,,,,,,,,,,,METAR,495.0
UGSB 150030Z AUTO 13019KT 9999 BKN120 11/M02 Q1006 NOSIG,UGSB,2019-01-15T00:30:00Z,41.62,41.6,11.0,-2.0,130,19,,6.21,29.704725,,,TRUE,,,TRUE,,,,,BKN,12000,,,,,,,VFR,,,,,,,,,,,,METAR,32.0
NWWW 150030Z AUTO 13017KT 110V170 CAVOK 31/21 Q1008 NOSIG,NWWW,2019-01-15T00:30:00Z,-22.02,166.22,31.0,21.0,130,17,,6.21,29.763779,,,TRUE,,,TRUE,,,,,CAVOK,,,,,,,,VFR,,,,,,,,,,,,METAR,16.0
LDDU 150030Z VRB11G24KT CAVOK 06/M05 Q1007,LDDU,2019-01-15T00:30:00Z,42.57,18.27,6.0,-5.0,0,11,24,6.21,29.734253,,,,,,,,,,,CAVOK,,,,,,,,VFR,,,,,,,,,,,,METAR,165.0
LDPL 150030Z 04008KT CAVOK 04/M05 Q1011,LDPL,2019-01-15T00:30:00Z,44.88,13.92,4.0,-5.0,40,8,,6.21,29.852362,,,,,,,,,,,CAVOK,,,,,,,,VFR,,,,,,,,,,,,METAR,63.0
LDOS 150030Z 32017KT CAVOK 01/M04 Q1011,LDOS,2019-01-15T00:30:00Z,45.47,18.82,1.0,-4.0,320,17,,6.21,29.852362,,,,,,,,,,,CAVOK,,,,,,,,VFR,,,,,,,,,,,,METAR,89.0
LDZA 150030Z 09006KT CAVOK M00/M03 Q1013 NOSIG,LDZA,2019-01-15T00:30:00Z,45.72,16.07,0.0,-3.0,90,6,,6.21,29.911417,,,,,,TRUE,,,,,CAVOK,,,,,,,,VFR,,,,,,,,,,,,METAR,107.0
LDSP 150030Z AUTO 34009KT CAVOK 07/00 Q1009,LDSP,2019-01-15T00:30:00Z,43.52,16.3,7.0,0.0,340,9,,6.21,29.793306,,,TRUE,,,,,,,,CAVOK,,,,,,,,VFR,,,,,,,,,,,,METAR,21.0
LDRI 150030Z 36008KT 320V100 CAVOK 08/M04 Q1012,LDRI,2019-01-15T00:30:00Z,45.22,14.57,8.0,-4.0,360,8,,6.21,29.88189,,,,,,,,,,,CAVOK,,,,,,,,VFR,,,,,,,,,,,,METAR,85.0
LDZD 150030Z 14007KT 070V190 9999 FEW040 03/M01 Q1010,LDZD,2019-01-15T00:30:00Z,44.1,15.37,3.0,-1.0,140,7,,6.21,29.822834,,,,,,,,,,,FEW,4000,,,,,,,VFR,,,,,,,,,,,,METAR,84.0
WSSS 150030Z 33005KT 290V010 9999 FEW018 BKN300 27/23 Q1011 NOSIG,WSSS,2019-01-15T00:30:00Z,1.37,103.97,27.0,23.0,330,5,,6.21,29.852362,,,,,,TRUE,,,,,FEW,1800,BKN,30000,,,,,VFR,,,,,,,,,,,,METAR,16.0
VOBL 150030Z 00000KT 4000 BR FEW008 10/10 Q1018 NOSIG,VOBL,2019-01-15T00:30:00Z,13.2,77.7,10.0,10.0,0,0,,2.49,30.059055,,,,,,TRUE,,,,BR,FEW,800,,,,,,,IFR,,,,,,,,,,,,METAR,915.0
OPRN 150030Z 05003KT 4000 BR NSC 03/02 Q1018 TEMPO 2500 BR RMK A3008,OPRN,2019-01-15T00:30:00Z,33.62,73.08,3.0,2.0,50,3,,2.49,30.059055,,,,,,,,,,BR,CLR,,,,,,,,IFR,,,,,,,,,,,,SPECI,508.0
VHHH 150030Z VRB02KT 7000 -RA FEW007 SCT022 19/17 Q1020 TEMPO 4000 BR -RA,VHHH,2019-01-15T00:30:00Z,22.32,113.92,19.0,17.0,0,2,,4.35,30.11811,,,,,,,,,,-RA,FEW,700,SCT,2200,,,,,MVFR,,,,,,,,,,,,METAR,9.0
DIAP 150030Z 22008KT 9000 FEW011 29/25 Q1011 NOSIG,DIAP,2019-01-15T00:30:00Z,5.25,-3.92,29.0,25.0,220,8,,5.59,29.852362,,,,,,TRUE,,,,,FEW,1100,,,,,,,VFR,,,,,,,,,,,,SPECI,8.0
VOBG 150030Z 00000KT 5000 BR NSC 12/08 Q1017,VOBG,2019-01-15T00:30:00Z,12.95,77.63,12.0,8.0,0,0,,3.11,30.029528,,,,,,,,,,BR,CLR,,,,,,,,MVFR,,,,,,,,,,,,METAR,897.0
VMMC 150030Z 04004KT 010V070 3000 -RA BR FEW004 SCT015 BKN040 18/17 Q1019 NOSIG,VMMC,2019-01-15T00:30:00Z,22.15,113.58,18.0,17.0,40,4,,1.86,30.088583,,,,,,TRUE,,,,-RA BR,FEW,400,SCT,1500,BKN,4000,,,IFR,,,,,,,,,,,,METAR,6.0
FMEP 150030Z AUTO 04004KT CAVOK 25/18 Q1015,FMEP,2019-01-15T00:30:00Z,-21.32,55.42,25.0,18.0,40,4,,6.21,29.970472,,,TRUE,,,,,,,,CAVOK,,,,,,,,VFR,,,,,,,,,,,,METAR,18.0
FMEE 150030Z AUTO 11010KT CAVOK 26/19 Q1015 TEMPO SHRA,FMEE,2019-01-15T00:30:00Z,-20.87,55.52,26.0,19.0,110,10,,6.21,29.970472,,,TRUE,,,,,,,,CAVOK,,,,,,,,VFR,,,,,,,,,,,,METAR,25.0
VEGT 150030Z 00000KT 2000 BR FEW020 12/11 Q1016 BECMG 3000 BR,VEGT,2019-01-15T00:30:00Z,26.1,91.58,12.0,11.0,0,0,,1.24,30.0,,,,,,,,,,BR,FEW,2000,,,,,,,IFR,,,,,,,,,,,,METAR,54.0
NTAA 150030Z 06011KT 9999 VCSH FEW020 SCT180 BKN280 30/24 Q1008 NOSIG,NTAA,2019-01-15T00:30:00Z,-17.55,-149.62,30.0,24.0,60,11,,6.21,29.763779,,,,,,TRUE,,,,VCSH,FEW,2000,SCT,18000,BKN,28000,,,VFR,,,,,,,,,,,,METAR,2.0
VIJP 150030Z 00000KT 2000 HZ NSC 09/M04 Q1019 NOSIG,VIJP,2019-01-15T00:30:00Z,26.82,75.78,9.0,-4.0,0,0,,1.24,30.088583,,,,,,TRUE,,,,HZ,CLR,,,,,,,,IFR,,,,,,,,,,,,METAR,390.0
EPLB 150030Z 27017KT 6000 -SHSN DRSN FEW006 BKN020CB M03/M04 Q0997,EPLB,2019-01-15T00:30:00Z,51.23,22.72,-3.0,-4.0,270,17,,3.73,29.438976,,,,,,,,,,-SHSN DRSN,FEW,600,BKN,2000,,,,,MVFR,,,,,,,,,,,,METAR,206.0
EPKT 150030Z 28016KT 9999 -SN FEW021 BKN024 M02/M06 Q1004,EPKT,2019-01-15T00:30:00Z,50.47,19.08,-2.0,-6.0,280,16,,6.21,29.64567,,,,,,,,,,-SN,FEW,2100,BKN,2400,,,,,MVFR,,,,,,,,,,,,METAR,284.0
EPBY 150030Z 28016KT CAVOK M01/M04 Q1000,EPBY,2019-01-15T00:30:00Z,53.1,18.0,-1.0,-4.0,280,16,,6.21,29.52756,,,,,,,,,,,CAVOK,,,,,,,,VFR,,,,,,,,,,,,METAR,71.0
VOCI 150030Z VRB03KT 3500 BR FEW010 SCT090 22/20 Q1011 TEMPO 2500 BR,VOCI,2019-01-15T00:30:00Z,10.15,76.4,22.0,20.0,0,3,,2.17,29.852362,,,,,,,,,,BR,FEW,1000,SCT,9000,,,,,IFR,,,,,,,,,,,,METAR,8.0
EPMO 150030Z 27019KT CAVOK M01/M05 Q0997 R08/290194,EPMO,2019-01-15T00:30:00Z,52.45,20.65,-1.0,-5.0,270,19,,6.21,29.438976,,,,,,,,,,,CAVOK,,,,,,,,VFR,,,,,,,,,,,,SPECI,104.0
KNQX 150029Z 35010KT 10SM BKN019 21/16 A3014 RMK T02060156,KNQX,2019-01-15T00:29:00Z,24.57,-81.67,20.6,15.6,350,10,,10.0,30.138779,,,,,,,,,,,BKN,1900,,,,,,,MVFR,,,,,,,,,,,,SPECI,2.0
PASY 150028Z COR AUTO 34023G28KT 6SM -SHSN BKN037 OVC048 M02/M09 A2962 RMK AO2 SHSNB28 SLP035 FZRANO $ COR 0053,PASY,2019-01-15T00:28:00Z,52.72,174.12,-2.0,-9.0,340,23,28,6.0,29.619095,1003.5,TRUE,TRUE,TRUE,TRUE,,,TRUE,,-SHSN,BKN,3700,OVC,4800,,,,,VFR,,,,,,,,,,,,METAR,31.0
KNKX 150028Z 00000KT 1 1/4SM -RA BR SCT008 OVC013 13/11 A2996 RMK AO2 P0004 T01330106,KNKX,2019-01-15T00:28:00Z,32.87,-117.13,13.3,10.6,0,0,,1.25,29.958662,,,,TRUE,,,,,,-RA BR,SCT,800,OVC,1300,,,,,IFR,,,,,,0.04,,,,,,METAR,146.0
CYRT 150028Z 34025KT 1/4SM +BLSN BKN250 M38/M42 A3007 RMK BLSN5CI1 PRESFR SLP192,CYRT,2019-01-15T00:28:00Z,62.82,-92.12,-38.0,-42.0,340,25,,0.25,30.070866,1019.2,,,,,,,,,+BLSN,BKN,25000,,,,,,,LIFR,,,,,,,,,,,,SPECI,32.0
KWJF 150028Z 01014KT 10SM -RA BKN025 BKN030 OVC050 05/04 A2997 RMK AO2 RAE13B21 P0000 T00500044,KWJF,2019-01-15T00:28:00Z,34.72,-118.22,5.0,4.4,10,14,,10.0,29.970472,,,,TRUE,,,,,,-RA,BKN,2500,BKN,3000,OVC,5000,,,MVFR,,,,,,0.005,,,,,,SPECI,715.0
KRIV 150028Z 11009KT 3SM -RA BR FEW007 SCT013 OVC020 09/09 A2997 RMK AO2A SLP148,KRIV,2019-01-15T00:28:00Z,33.87,-117.27,9.0,9.0,110,9,,3.0,29.970472,1014.8,,,TRUE,,,,,,-RA BR,FEW,700,SCT,1300,OVC,2000,,,MVFR,,,,,,,,,,,,SPECI,469.0
LTFE 150028Z 06004KT 360V100 8000 -SHRA SCT030 BKN090 08/07 Q1002 NOSIG RMK RWY10 07006KT,LTFE,2019-01-15T00:28:00Z,37.25,27.67,8.0,7.0,60,4,,4.97,29.586615,,,,,,TRUE,,,,-SHRA,SCT,3000,BKN,9000,,,,,MVFR,,,,,,,,,,,,SPECI,6.0
RJNY 150027Z 33002KT 9999 -SHRA FEW025 BKN050 BKN220 08/M00 Q1022 RMK 1CU025 5SC050 A3021,RJNY,2019-01-15T00:27:00Z,34.82,138.3,8.0,0.0,330,2,,6.21,30.177166,,,,,,,,,,-SHRA,FEW,2500,BKN,5000,BKN,22000,,,VFR,,,,,,,,,,,,METAR,10.0
CYYL 150027Z AUTO 08007KT 2 1/4SM -SN OVC019 M23/M26 A2996 RMK VIS VRB 1 1/2-3 SLP197,CYYL,2019-01-15T00:27:00Z,56.87,-101.07,-23.0,-26.0,80,7,,2.25,29.958662,1019.7,,TRUE,,,,,,,-SN,OVC,1900,,,,,,,IFR,,,,,,,,,,,,SPECI,357.0
CYTS 150027Z 34005KT 10SM -SN SCT006 BKN020 OVC030 M08/M09 A3008 RMK SF3SC2SC3 SLP210,CYTS,2019-01-15T00:27:00Z,48.57,-81.37,-8.0,-9.0,340,5,,10.0,30.079725,1021.0,,,,,,,,,-SN,SCT,600,BKN,2000,OVC,3000,,,MVFR,,,,,,,,,,,,SPECI,295.0
SULS 150026Z 11008KT 5000 DZ BKN008 OVC010 22/20 Q1012,SULS,2019-01-15T00:26:00Z,-34.87,-55.1,22.0,20.0,110,8,,3.11,29.88189,,,,,,,,,,DZ,BKN,800,OVC,1000,,,,,IFR,,,,,,,,,,,,SPECI,30.0
KROX 150026Z AUTO 19004KT 7SM CLR M12/M14 A3023 RMK AO2,KROX,2019-01-15T00:26:00Z,48.85,-95.7,-12.0,-14.0,190,4,,7.0,30.230314,,,TRUE,TRUE,,,,,,,CLR,,,,,,,,VFR,,,,,,,,,,,,SPECI,323.0
RJTK 150025Z 07003KT 9999 FEW030 BKN180 BKN200 05/01 Q1023 RMK 1CU030 5AC180 7CI200 A3023,RJTK,2019-01-15T00:25:00Z,35.38,139.92,5.0,1.0,70,3,,6.21,30.206694,,,,,,,,,,,FEW,3000,BKN,18000,BKN,20000,,,VFR,,,,,,,,,,,,SPECI,6.0
OPKC 150025Z 03006KT 4000 HZ NSC 15/00 Q1019 NOSIG,OPKC,2019-01-15T00:25:00Z,24.88,67.17,15.0,0.0,30,6,,2.49,30.088583,,,,,,TRUE,,,,HZ,CLR,,,,,,,,IFR,,,,,,,,,,,,METAR,22.0
EBCV 150025Z AUTO 23005KT 4800 BR SCT033/// 02/02 Q1023 GRN,EBCV,2019-01-15T00:25:00Z,50.57,3.82,2.0,2.0,230,5,,2.98,30.206694,,,TRUE,,,,,,,BR,SCT,3300,,,,,,,IFR,,,,,,,,,,,,METAR,63.0
EHFS 150025Z AUTO 23011KT 9999 NSC 05/04 Q1021 W///H///,EHFS,2019-01-15T00:25:00Z,51.45,3.6,5.0,4.0,230,11,,6.21,30.147638,,,TRUE,,,,,,,,CLR,,,,,,,,VFR,,,,,,,,,,,,METAR,32.0
CYVT 150025Z CCA 34013G24KT 6SM -SN BR DRSN SCT006 OVC012 M06/M08 A2987 RMK SF3SC5 SLP150,CYVT,2019-01-15T00:25:00Z,55.82,-108.42,-6.0,-8.0,340,13,24,6.0,29.870079,1015.0,,,,,,,,,DRSN -SN BR,SCT,600,OVC,1200,,,,,MVFR,,,,,,,,,,,,SPECI,434.0
CYVR 150025Z 28003KT 1/8SM R08R/1400V1800FT/N R08L/1400FT/N FG VV001 04/04 A2999 RMK FG8 SLP157,CYVR,2019-01-15T00:25:00Z,49.17,-123.17,4.0,4.0,280,3,,0.13,29.991142,1015.7,,,,,,,,,FG,OVX,0,,,,,,,LIFR,,,,,,,,,,,100,SPECI,2.0
EHFD 150025Z AUTO 27031KT //// // FEW012/// SCT016/// BKN020/// 07/04 Q1012 RE// W///H///,EHFD,2019-01-15T00:25:00Z,54.85,4.7,7.0,4.0,270,31,,,29.88189,,,TRUE,,,,,,,,FEW,1200,SCT,1600,BKN,2000,,,,,,,,,,,,,,,METAR,50.0
EHFZ 150025Z AUTO 25022KT 9999 FEW012 SCT015 BKN021 07/05 Q1015 W///H///,EHFZ,2019-01-15T00:25:00Z,54.12,4.02,7.0,5.0,250,22,,6.21,29.970472,,,TRUE,,,,,,,,FEW,1200,SCT,1500,BKN,2100,,,MVFR,,,,,,,,,,,,METAR,50.0
EHHW 150025Z AUTO 28024KT //// // FEW024/// 06/01 Q1015 RE// W///H///,EHHW,2019-01-15T00:25:00Z,54.03,6.03,6.0,1.0,280,24,,,29.970472,,,TRUE,,,,,,,,FEW,2400,,,,,,,,,,,,,,,,,,,METAR,0.0
EHJA 150025Z AUTO 25025KT 9999 FEW012/// 07/05 Q1016 W///H///,EHJA,2019-01-15T00:25:00Z,53.82,2.95,7.0,5.0,250,25,,6.21,30.0,,,TRUE,,,,,,,,FEW,1200,,,,,,,VFR,,,,,,,,,,,,METAR,50.0
EHJR 150025Z AUTO 27023KT //// // ///////// 07/04 Q1017 RE// W///H26,EHJR,2019-01-15T00:25:00Z,53.22,3.22,7.0,4.0,270,23,,,30.029528,,,TRUE,,,,,,,,,,,,,,,,,,,,,,,,,,,,METAR,50.0
EHKV 150025Z AUTO 26024KT 9999 FEW031 BKN035 07/04 Q1018 W///H///,EHKV,2019-01-15T00:25:00Z,53.27,3.63,7.0,4.0,260,24,,6.21,30.059055,,,TRUE,,,,,,,,FEW,3100,BKN,3500,,,,,VFR,,,,,,,,,,,,METAR,50.0
EHMA 150025Z AUTO 26016KT 9999 FEW027 SCT032 06/01 Q1016 W///H///,EHMA,2019-01-15T00:25:00Z,53.5,5.95,6.0,1.0,260,16,,6.21,30.0,,,TRUE,,,,,,,,FEW,2700,SCT,3200,,,,,VFR,,,,,,,,,,,,METAR,50.0
EHDV 150025Z AUTO 27027KT 230V320 9999 FEW014/// 08/04 Q1014 W///H///,EHDV,2019-01-15T00:25:00Z,54.32,2.93,8.0,4.0,270,27,,6.21,29.940945,,,TRUE,,,,,,,,FEW,1400,,,,,,,VFR,,,,,,,,,,,,METAR,50.0
EHAK 150025Z AUTO 29026KT 9999 FEW012/// SCT014/// BKN017/// 07/05 Q1012 W///H///,EHAK,2019-01-15T00:25:00Z,55.42,3.82,7.0,5.0,290,26,,6.21,29.88189,,,TRUE,,,,,,,,FEW,1200,SCT,1400,BKN,1700,,,MVFR,,,,,,,,,,,,METAR,50.0
EHPG 150025Z AUTO 25019KT 220V280 4400 -RA FEW013 07/04 Q1019 W///H///,EHPG,2019-01-15T00:25:00Z,52.37,3.35,7.0,4.0,250,19,,2.73,30.088583,,,TRUE,,,,,,,-RA,FEW,1300,,,,,,,IFR,,,,,,,,,,,,METAR,50.0
EHMG 150025Z AUTO 25021KT 9999 FEW023 SCT026 07/02 Q1016 W///H///,EHMG,2019-01-15T00:25:00Z,53.62,4.97,7.0,2.0,250,21,,6.21,30.0,,,TRUE,,,,,,,,FEW,2300,SCT,2600,,,,,VFR,,,,,,,,,,,,METAR,50.0
EHSA 150025Z AUTO 24016KT 9999 ///////// 07/04 Q1020 W06/H17,EHSA,2019-01-15T00:25:00Z,52.0,3.28,7.0,4.0,240,16,,6.21,30.11811,,,TRUE,,,,,,,,,,,,,,,,,,,,,,,,,,,,METAR,50.0
EHSC 150025Z AUTO 27014KT 9999 ///////// 07/03 Q1020 W07/H15,EHSC,2019-01-15T00:25:00Z,51.93,3.67,7.0,3.0,270,14,,6.21,30.11811,,,TRUE,,,,,,,,,,,,,,,,,,,,,,,,,,,,METAR,50.0
PPNU 150025Z AUTO 09022G29KT 1/4SM OVC003 M23/M25 A3025 RMK AO1,PPNU,2019-01-15T00:25:00Z,70.42,-150.03,-23.0,-25.0,90,22,29,0.25,30.250984,,,TRUE,TRUE,,,,,,,OVC,300,,,,,,,LIFR,,,,,,,,,,,,METAR,27.0
EBBE 150025Z AUTO 23006KT 9999 FEW018/// BKN034/// 03/02 Q1022 BLU,EBBE,2019-01-15T00:25:00Z,50.75,4.77,3.0,2.0,230,6,,6.21,30.177166,,,TRUE,,,,,,,,FEW,1800,BKN,3400,,,,,VFR,,,,,,,,,,,,SPECI,127.0
EHQE 150025Z AUTO 22020KT 9999 FEW018 BKN028 BKN033 07/03 Q1018 W///H///,EHQE,2019-01-15T00:25:00Z,52.92,4.15,7.0,3.0,220,20,,6.21,30.059055,,,TRUE,,,,,,,,FEW,1800,BKN,2800,BKN,3300,,,MVFR,,,,,,,,,,,,METAR,50.0
OPIS 150025Z 26007KT 6000 NSC 04/M02 Q1017 RH64,OPIS,2019-01-15T00:25:00Z,33.55,72.83,4.0,-2.0,260,7,,3.73,30.029528,,,,,,,,,,,CLR,,,,,,,,MVFR,,,,,,,,,,,,METAR,537.0
OPLA 150025Z 00000KT 4000 FU SCT100 06/03 Q1018 RMK QFE992 RMK A30.02,OPLA,2019-01-15T00:25:00Z,31.52,74.4,6.0,3.0,0,0,,2.49,30.059055,,,,,,,,,,FU,SCT,10000,,,,,,,IFR,,,,,,,,,,,,SPECI,217.0
EBDT 150025Z AUTO 25004KT 9999 FEW024/// SCT040/// 03/02 Q1021 BLU,EBDT,2019-01-15T00:25:00Z,51.02,5.07,3.0,2.0,250,4,,6.21,30.147638,,,TRUE,,,,,,,,FEW,2400,SCT,4000,,,,,VFR,,,,,,,,,,,,SPECI,54.0
EBFS 150025Z AUTO 25006KT 8000 -RA FEW021/// SCT035/// OVC042/// 03/02 Q1022 BLU,EBFS,2019-01-15T00:25:00Z,50.22,4.65,3.0,2.0,250,6,,4.97,30.177166,,,TRUE,,,,,,,-RA,FEW,2100,SCT,3500,OVC,4200,,,MVFR,,,,,,,,,,,,SPECI,299.0
CYKA 150024Z 15004KT 15SM OVC016 M01/M04 A3025 RMK SC8 SLP264,CYKA,2019-01-15T00:24:00Z,50.7,-120.45,-1.0,-4.0,150,4,,15.0,30.250984,1026.4,,,,,,,,,,OVC,1600,,,,,,,MVFR,,,,,,,,,,,,SPECI,346.0
SGES 150023Z 25004KT 9999 TS OVC027 FEW040CB 24/22 Q1013 RERA,SGES,2019-01-15T00:23:00Z,-25.45,-54.85,24.0,22.0,250,4,,6.21,29.911417,,,,,,,,,,TS,OVC,2700,FEW,4000,,,,,MVFR,,,,,,,,,,,,SPECI,849.0
CYPW 150023Z 00000KT 20SM FEW250 02/02 A2999 RMK CI1 SHLW BR OVR RWY SLP161,CYPW,2019-01-15T00:23:00Z,49.82,-124.5,2.0,2.0,0,0,,20.0,29.991142,1016.1,,,,,,,,,,FEW,25000,,,,,,,VFR,,,,,,,,,,,,SPECI,130.0
RKJK 150023Z 00000KT 2 1/4SM BR CLR 02/02 A3025 RMK AO2A TWR VIS 1 3/8 SLP249 PNO $,RKJK,2019-01-15T00:23:00Z,35.9,126.62,2.0,2.0,0,0,,2.25,30.250984,1024.9,,,TRUE,TRUE,,,,,BR,CLR,,,,,,,,IFR,,,,,,,,,,,,METAR,9.0
CYCD 150022Z 04003KT 1/8SM FG VV002 04/03 A2999 RMK FG8 SLP159,CYCD,2019-01-15T00:22:00Z,49.05,-123.87,4.0,3.0,40,3,,0.13,29.991142,1015.9,,,,,,,,,FG,OVX,0,,,,,,,LIFR,,,,,,,,,,,200,SPECI,30.0
KVPZ 150022Z AUTO 25010KT 9SM OVC010 M03/M07 A3029 RMK AO2 T10331072 TSNO,KVPZ,2019-01-15T00:22:00Z,41.45,-87.0,-3.3,-7.2,250,10,,9.0,30.28937,,,TRUE,TRUE,,,TRUE,,,,OVC,1000,,,,,,,MVFR,,,,,,,,,,,,SPECI,231.0
RJOF 150021Z VRB02KT 9999 FEW030 SCT120 07/05 Q1020 RMK 1CU030 3AC120 A3014,RJOF,2019-01-15T00:21:00Z,34.02,131.55,7.0,5.0,0,2,,6.21,30.11811,,,,,,,,,,,FEW,3000,SCT,12000,,,,,VFR,,,,,,,,,,,,SPECI,5.0
PAMO 150021Z AUTO 08024KT 3SM -SN BR FEW024 BKN030 OVC035 M03/M04 A2942 RMK AO2 PK WND 08032/0006 P0000 FZRANO,PAMO,2019-01-15T00:21:00Z,62.1,-163.68,-3.0,-4.0,80,24,,3.0,29.421259,,,TRUE,TRUE,,,,TRUE,,-SN BR,FEW,2400,BKN,3000,OVC,3500,,,MVFR,,,,,,0.005,,,,,,METAR,103.0
KGZN 150020Z AUTO 00000KT 10SM OVC041 07/02 A3034 RMK AO2,KGZN,2019-01-15T00:20:00Z,32.37,-99.02,7.0,2.0,0,0,,10.0,30.339567,,,TRUE,TRUE,,,,,,,OVC,4100,,,,,,,VFR,,,,,,,,,,,,SPECI,522.0
SAOR 150020Z 05005KT 9999 SCT030 FEW040CB 19/15 Q1015,SAOR,2019-01-15T00:20:00Z,-33.72,-65.37,19.0,15.0,50,5,,6.21,29.970472,,,,,,,,,,,SCT,3000,FEW,4000,,,,,VFR,,,,,,,,,,,,SPECI,486.0
KJSL 150020Z AUTO 01008G13KT 10SM BKN025 16/10 A3027 RMK A01,KJSL,2019-01-15T00:20:00Z,26.23,-95.25,16.0,10.0,10,8,13,10.0,30.268702,,,TRUE,TRUE,,,,,,,BKN,2500,,,,,,,MVFR,,,,,,,,,,,,METAR,10.0
EGNT 150020Z 25017KT 9999 BKN014 08/06 Q1014,EGNT,2019-01-15T00:20:00Z,55.02,-1.7,8.0,6.0,250,17,,6.21,29.940945,,,,,,,,,,,BKN,1400,,,,,,,MVFR,,,,,,,,,,,,METAR,81.0
LIML 150020Z 26003KT CAVOK 07/M06 Q1014 NOSIG,LIML,2019-01-15T00:20:00Z,45.47,9.27,7.0,-6.0,260,3,,6.21,29.940945,,,,,,TRUE,,,,,CAVOK,,,,,,,,VFR,,,,,,,,,,,,METAR,103.0
ETSL 150020Z 24007KT 9999 -SN FEW020 BKN050 M00/M03 Q1019 BLACKBLU,ETSL,2019-01-15T00:20:00Z,48.17,10.87,0.0,-3.0,240,7,,6.21,30.088583,,,,,,,,,,-SN,FEW,2000,BKN,5000,,,,,VFR,,,,,,,,,,,,SPECI,562.0
ETSI 150020Z AUTO 26008KT 3800 // ////// 01/M03 Q1018 ///,ETSI,2019-01-15T00:20:00Z,48.72,11.52,1.0,-3.0,260,8,,2.36,30.059055,,,TRUE,,,,,,,,,,,,,,,,,,,,,,,,,,,,METAR,370.0
ETSB 150020Z AUTO 23004KT 7000 // ////// 00/M02 Q1020 ///,ETSB,2019-01-15T00:20:00Z,50.17,7.07,0.0,-2.0,230,4,,4.35,30.11811,,,TRUE,,,,,,,,,,,,,,,,,,,,,,,,,,,,METAR,486.0
ETHN 150020Z 29012KT 9999 BKN047 00/M02 Q1018 BLU,ETHN,2019-01-15T00:20:00Z,49.38,9.97,0.0,-2.0,290,12,,6.21,30.059055,,,,,,,,,,,BKN,4700,,,,,,,VFR,,,,,,,,,,,,METAR,473.0
ETHL 150020Z 27007KT 9999 -SN FEW020 BKN050 00/M03 Q1020 BLU,ETHL,2019-01-15T00:20:00Z,48.22,9.92,0.0,-3.0,270,7,,6.21,30.11811,,,,,,,,,,-SN,FEW,2000,BKN,5000,,,,,VFR,,,,,,,,,,,,METAR,549.0
ETHA 150020Z AUTO 28010KT //// // ////// M02/M04 Q1018 ///,ETHA,2019-01-15T00:20:00Z,47.82,10.87,-2.0,-4.0,280,10,,,30.059055,,,TRUE,,,,,,,,,,,,,,,,,,,,,,,,,,,,METAR,760.0
ETWM 150020Z AUTO 26006KT 9999 // ////// 03/01 Q1017 ///,ETWM,2019-01-15T00:20:00Z,52.72,7.33,3.0,1.0,260,6,,6.21,30.029528,,,TRUE,,,,,,,,,,,,,,,,,,,,,,,,,,,,METAR,21.0
ETSH 150020Z 28010KT 9999 BKN035 01/M01 Q1011 BLU,ETSH,2019-01-15T00:20:00Z,51.77,13.17,1.0,-1.0,280,10,,6.21,29.852362,,,,,,,,,,,BKN,3500,,,,,,,VFR,,,,,,,,,,,,METAR,79.0
ETNW 150020Z 27010KT 9999 FEW045 BKN090 03/M01 Q1015 BLU,ETNW,2019-01-15T00:20:00Z,52.45,9.42,3.0,-1.0,270,10,,6.21,29.970472,,,,,,,,,,,FEW,4500,BKN,9000,,,,,VFR,,,,,,,,,,,,METAR,70.0
ETNT 150020Z AUTO 26009KT 9000 // ////// 04/M00 Q1015 ///,ETNT,2019-01-15T00:20:00Z,53.53,7.67,4.0,0.0,260,9,,5.59,29.970472,,,TRUE,,,,,,,,,,,,,,,,,,,,,,,,,,,,METAR,12.0
ETNS 150020Z AUTO 27006KT 9999 // ////// 02/M00 Q1011 ///,ETNS,2019-01-15T00:20:00Z,54.47,9.52,2.0,0.0,270,6,,6.21,29.852362,,,TRUE,,,,,,,,,,,,,,,,,,,,,,,,,,,,SPECI,25.0
ETNL 150020Z 30015KT 9999 BKN033 BKN200 03/M02 Q1007 BLU,ETNL,2019-01-15T00:20:00Z,53.92,12.27,3.0,-2.0,300,15,,6.21,29.734253,,,,,,,,,,,BKN,3300,BKN,20000,,,,,VFR,,,,,,,,,,,,METAR,40.0
ETNH 150020Z AUTO 26007KT 9000 // ////// 03/M00 Q1011 ///,ETNH,2019-01-15T00:20:00Z,54.32,9.55,3.0,0.0,260,7,,5.59,29.852362,,,TRUE,,,,,,,,,,,,,,,,,,,,,,,,,,,,METAR,17.0
ETMN 150020Z 30013KT 9999 FEW025 BKN090 04/01 Q1013 BLU,ETMN,2019-01-15T00:20:00Z,53.77,8.67,4.0,1.0,300,13,,6.21,29.911417,,,,,,,,,,,FEW,2500,BKN,9000,,,,,VFR,,,,,,,,,,,,METAR,31.0
ETHS 150020Z 28009KT 9999 BKN090 02/M01 Q1013 BLU,ETHS,2019-01-15T00:20:00Z,52.92,10.18,2.0,-1.0,280,9,,6.21,29.911417,,,,,,,,,,,BKN,9000,,,,,,,VFR,,,,,,,,,,,,METAR,88.0
ETHF 150020Z 35005KT 9999 FEW050 BKN300 02/M02 Q1018 BLU+,ETHF,2019-01-15T00:20:00Z,51.12,9.27,2.0,-2.0,350,5,,6.21,30.059055,,,,,,,,,,,FEW,5000,BKN,30000,,,,,VFR,,,,,,,,,,,,METAR,181.0
ETHC 150020Z 25009G19KT 9999 BKN040 02/M01 Q1014 BLU,ETHC,2019-01-15T00:20:00Z,52.6,10.02,2.0,-1.0,250,9,19,6.21,29.940945,,,,,,,,,,,BKN,4000,,,,,,,VFR,,,,,,,,,,,,METAR,52.0
ETHB 150020Z 29013KT 9999 FEW045 BKN089 03/M01 Q1016 BLU,ETHB,2019-01-15T00:20:00Z,52.27,9.07,3.0,-1.0,290,13,,6.21,30.0,,,,,,,,,,,FEW,4500,BKN,8900,,,,,VFR,,,,,,,,,,,,METAR,78.0
ETGG 150020Z 29015KT 9999 SCT030 SCT120 BKN200 03/01 Q1010 BLU+,ETGG,2019-01-15T00:20:00Z,54.83,9.5,3.0,1.0,290,15,,6.21,29.822834,,,,,,,,,,,SCT,3000,SCT,12000,BKN,20000,,,VFR,,,,,,,,,,,,METAR,33.0
ETNN 150020Z 30005KT 9999 SCT045 SCT350 01/M00 Q1021 BLU+,ETNN,2019-01-15T00:20:00Z,50.82,6.67,1.0,0.0,300,5,,6.21,30.147638,,,,,,,,,,,SCT,4500,SCT,35000,,,,,VFR,,,,,,,,,,,,METAR,135.0
EYSA 150020Z AUTO 27009KT 9999NDV FEW008 BKN037 BKN049 M04/M04 Q0986 RESN R32R/29//95,EYSA,2019-01-15T00:20:00Z,55.9,23.4,-4.0,-4.0,270,9,,,29.114174,,,TRUE,,,,,,,,FEW,800,BKN,3700,BKN,4900,,,,,,,,,,,,,,,SPECI,135.0
LCEN 150020Z 08005KT 9999 FEW025 SCT030 BKN080 11/09 Q1007 NOSIG RMK RWY11 07006KT 040V100,LCEN,2019-01-15T00:20:00Z,35.13,33.5,11.0,9.0,80,5,,6.21,29.734253,,,,,,TRUE,,,,,FEW,2500,SCT,3000,BKN,8000,,,VFR,,,,,,,,,,,,SPECI,91.0
LTAC 150020Z 34002KT 4400 BR SCT025 BKN100 M00/M01 Q1002 BECMG 9999 NSW,LTAC,2019-01-15T00:20:00Z,40.12,32.97,0.0,-1.0,340,2,,2.73,29.586615,,,,,,,,,,BR,SCT,2500,BKN,10000,,,,,IFR,,,,,,,,,,,,SPECI,949.0
LTAI 150020Z 34003KT 9999 FEW020CB BKN030 08/07 Q1005 NOSIG RMK RWY18C 32001KT RWY36R 31004KT RWY18L 30005KT,LTAI,2019-01-15T00:20:00Z,36.9,30.8,8.0,7.0,340,3,,6.21,29.675198,,,,,,TRUE,,,,,FEW,2000,BKN,3000,,,,,MVFR,,,,,,,,,,,,SPECI,54.0
LTAF 150020Z 01010KT 4500 -SHRA BR SCT035 BKN100 09/08 Q1009 NOSIG RMK RWY23 03012KT,LTAF,2019-01-15T00:20:00Z,36.97,35.28,9.0,8.0,10,10,,2.8,29.793306,,,,,,TRUE,,,,-SHRA BR,SCT,3500,BKN,10000,,,,,IFR,,,,,,,,,,,,SPECI,20.0
LTFC 150020Z 01003KT 340V040 9999 BKN030 BKN090 04/02 Q1003 RMK RWY23 02004KT,LTFC,2019-01-15T00:20:00Z,37.87,30.38,4.0,2.0,10,3,,6.21,29.616142,,,,,,,,,,,BKN,3000,BKN,9000,,,,,MVFR,,,,,,,,,,,,SPECI,864.0
LTCS 150020Z 13010KT 0800 R04/P1500N R22/P1500U -RA BCFG VV002 03/03 Q1015,LTCS,2019-01-15T00:20:00Z,37.45,38.9,3.0,3.0,130,10,,0.5,29.970472,,,,,,,,,,BCFG -RA,OVX,0,,,,,,,LIFR,,,,,,,,,,,200,METAR,825.0
LTCG 150020Z 27007KT 250V310 9999 BKN100 13/M01 Q1007 NOSIG RMK RWY29 27004KT 140V300,LTCG,2019-01-15T00:20:00Z,41.0,39.8,13.0,-1.0,270,7,,6.21,29.734253,,,,,,TRUE,,,,,BKN,10000,,,,,,,VFR,,,,,,,,,,,,SPECI,30.0
LTBS 150020Z 11009KT 9999 -SHRA SCT025 BKN090 10/07 Q1003 NOSIG RMK RWY19 VRB01KT,LTBS,2019-01-15T00:20:00Z,36.7,28.77,10.0,7.0,110,9,,6.21,29.616142,,,,,,TRUE,,,,-SHRA,SCT,2500,BKN,9000,,,,,VFR,,,,,,,,,,,,SPECI,2.0
LTBR 150020Z VRB02KT 4500 BR SCT040 BKN100 03/03 Q1001 BECMG TL0120 6000,LTBR,2019-01-15T00:20:00Z,40.25,29.57,3.0,3.0,0,2,,2.8,29.557087,,,,,,,,,,BR,SCT,4000,BKN,10000,,,,,IFR,,,,,,,,,,,,SPECI,232.0
LTBJ 150020Z VRB02KT 9999 SCT025 BKN090 06/05 Q1001 R342///95 BECMG 4000 BR,LTBJ,2019-01-15T00:20:00Z,38.28,27.15,6.0,5.0,0,2,,6.21,29.557087,,,,,,,,,,,SCT,2500,BKN,9000,,,,,VFR,,,,,,,,,,,,SPECI,120.0
LTBA 150020Z 30005KT 260V330 7000 -SHRA FEW018 BKN027 07/05 Q1003 NOSIG RMK RWY17L 32006KT 270V350 RWY05 29004KT 250V310 RWY23 31005KT 280V340,LTBA,2019-01-15T00:20:00Z,40.97,28.82,7.0,5.0,300,5,,4.35,29.616142,,,,,,TRUE,,,,-SHRA,FEW,1800,BKN,2700,,,,,MVFR,,,,,,,,,,,,SPECI,37.0
LTAJ 150020Z 14008KT 4000 -RA BR BKN003 BKN016 OVC070 04/03 Q1012 TEMPO 0700 FG,LTAJ,2019-01-15T00:20:00Z,36.95,37.48,4.0,3.0,140,8,,2.49,29.88189,,,,,,,,,,-RA BR,BKN,300,BKN,1600,OVC,7000,,,LIFR,,,,,,,,,,,,SPECI,855.0
LTFJ 150020Z 03002KT 9999 -SHRA BKN033 BKN090 06/05 Q1002 NOSIG RMK RWY24 01001KT,LTFJ,2019-01-15T00:20:00Z,40.9,29.3,6.0,5.0,30,2,,6.21,29.586615,,,,,,TRUE,,,,-SHRA,BKN,3300,BKN,9000,,,,,VFR,,,,,,,,,,,,SPECI,98.0
LTFM 150020Z 22004KT 170V260 9999 SCT030 BKN070 05/02 Q1002 RMK RWY17L 27005KT RWY34L 26003KT RWY16R 23004KT,LTFM,2019-01-15T00:20:00Z,41.27,28.75,5.0,2.0,220,4,,6.21,29.586615,,,,,,,,,,,SCT,3000,BKN,7000,,,,,VFR,,,,,,,,,,,,METAR,99.0
LTAG 150020Z 02011KT 9999 -SHRA BKN030 BKN070 08/07 Q1009 NOSIG,LTAG,2019-01-15T00:20:00Z,37.0,35.42,8.0,7.0,20,11,,6.21,29.793306,,,,,,TRUE,,,,-SHRA,BKN,3000,BKN,7000,,,,,MVFR,,,,,,,,,,,,METAR,66.0
ETSN 150020Z 27011KT 9999 FEW020 BKN045 01/M02 Q1018 BLU,ETSN,2019-01-15T00:20:00Z,48.72,11.22,1.0,-2.0,270,11,,6.21,30.059055,,,,,,,,,,,FEW,2000,BKN,4500,,,,,VFR,,,,,,,,,,,,METAR,387.0
LTAU 150020Z 06004KT 020V090 9999 BKN040 BKN080 02/M01 Q1006 RERA NOSIG RMK RWY07 /////KT,LTAU,2019-01-15T00:20:00Z,38.77,35.47,2.0,-1.0,60,4,,6.21,29.704725,,,,,,TRUE,,,,,BKN,4000,BKN,8000,,,,,VFR,,,,,,,,,,,,SPECI,1054.0
LTCC 150020Z 10005KT 1200 R34/1500D R16/1100U BR SCT001 BKN040 03/03 Q1015 NOSIG,LTCC,2019-01-15T00:20:00Z,37.87,40.2,3.0,3.0,100,5,,0.75,29.970472,,,,,,TRUE,,,,BR,SCT,100,BKN,4000,,,,,LIFR,,,,,,,,,,,,SPECI,677.0
LTBU 150020Z VRB01KT 9999 SCT040 BKN100 02/00 Q1002 RMK RWY22 26004KT,LTBU,2019-01-15T00:20:00Z,41.12,27.92,2.0,0.0,0,1,,6.21,29.586615,,,,,,,,,,,SCT,4000,BKN,10000,,,,,VFR,,,,,,,,,,,,SPECI,173.0
LTCJ 150020Z 36003KT 3500 BR SCT037 BKN090 04/04 Q1015 RMK RWY20 01004KT,LTCJ,2019-01-15T00:20:00Z,37.93,41.12,4.0,4.0,360,3,,2.17,29.970472,,,,,,,,,,BR,SCT,3700,BKN,9000,,,,,IFR,,,,,,,,,,,,SPECI,540.0
EGPU 150020Z AUTO 24021KT 210V270 2600 -DZ BKN003/// 10/09 Q1011,EGPU,2019-01-15T00:20:00Z,56.5,-6.87,10.0,9.0,240,21,,1.62,29.852362,,,TRUE,,,,,,,-DZ,BKN,300,,,,,,,LIFR,,,,,,,,,,,,METAR,12.0
EGPI 150020Z AUTO 25018KT 9999 SCT042/// BKN049/// 10/08 Q1015,EGPI,2019-01-15T00:20:00Z,55.68,-6.25,10.0,8.0,250,18,,6.21,29.970472,,,TRUE,,,,,,,,SCT,4200,BKN,4900,,,,,VFR,,,,,,,,,,,,METAR,18.0
KMHV 150020Z AUTO 02015KT 9SM BKN017 OVC022 04/04 A2996 RMK A01,KMHV,2019-01-15T00:20:00Z,35.07,-118.15,4.0,4.0,20,15,,9.0,29.958662,,,TRUE,TRUE,,,,,,,BKN,1700,OVC,2200,,,,,MVFR,,,,,,,,,,,,SPECI,849.0
LTAT 150020Z 23004KT 4500 BR FEW015 BKN028 OVC090 01/M00 Q1013 TEMPO 2500,LTAT,2019-01-15T00:20:00Z,38.42,38.07,1.0,0.0,230,4,,2.8,29.911417,,,,,,,,,,BR,FEW,1500,BKN,2800,OVC,9000,,,IFR,,,,,,,,,,,,SPECI,849.0
LTAP 150020Z 00000KT 9999 SCT040 BKN100 05/01 Q1004 NOSIG RMK RWY23 21004KT 150V320,LTAP,2019-01-15T00:20:00Z,40.83,35.52,5.0,1.0,0,0,,6.21,29.64567,,,,,,TRUE,,,,,SCT,4000,BKN,10000,,,,,VFR,,,-0.4,,,,,,,,,SPECI,535.0
LTCE 150020Z 26004KT 170V320 7000 SCT030 BKN070 M03/M06 Q1011 NOSIG RMK RWY08R VRB02KT RWY26R 30004KT 210V360 RWY08L VRB04KT,LTCE,2019-01-15T00:20:00Z,39.95,41.17,-3.0,-6.0,260,4,,4.35,29.852362,,,,,,TRUE,,,,,SCT,3000,BKN,7000,,,,,MVFR,,,,,,,,,,,,SPECI,1758.0
LTAZ 150020Z 12008KT 9999 BKN030 BKN080 02/01 Q1005 RMK RWY29 13004KT 110V180,LTAZ,2019-01-15T00:20:00Z,38.77,34.55,2.0,1.0,120,8,,6.21,29.675198,,,,,,,,,,,BKN,3000,BKN,8000,,,,,MVFR,,,,,,,,,,,,SPECI,945.0
CYGV 150019Z AUTO 30008KT 9SM OVC019 M09/M12 A2997 RMK SLP153,CYGV,2019-01-15T00:19:00Z,50.27,-63.62,-9.0,-12.0,300,8,,9.0,29.970472,1015.3,,TRUE,,,,,,,,OVC,1900,,,,,,,MVFR,,,,,,,,,,,,SPECI,33.0
LIBP 150019Z AUTO 24004KT 190V270 3900 BR BKN038/// BKN210/// 03/02 Q1010,LIBP,2019-01-15T00:19:00Z,42.42,14.18,3.0,2.0,240,4,,2.42,29.822834,,,TRUE,,,,,,,BR,BKN,3800,BKN,21000,,,,,IFR,,,,,,,,,,,,SPECI,11.0
CYGW 150018Z AUTO 26018G26KT 3/4SM -SN SCT011 BKN022 OVC030 M17/M19 A2992 RMK SLP134,CYGW,2019-01-15T00:18:00Z,55.27,-77.77,-17.0,-19.0,260,18,26,0.75,29.920275,1013.4,,TRUE,,,,,,,-SN,SCT,1100,BKN,2200,OVC,3000,,,LIFR,,,,,,,,,,,,SPECI,12.0
CYVM 150018Z AUTO 34003KT 6SM HZ OVC030 M30/M33 A2983 RMK SLP105,CYVM,2019-01-15T00:18:00Z,67.53,-64.02,-30.0,-33.0,340,3,,6.0,29.828741,1010.5,,TRUE,,,,,,,HZ,OVC,3000,,,,,,,MVFR,,,,,,,,,,,,SPECI,6.0
KJES 150017Z AUTO 36004KT 10SM OVC015 09/06 A3023 RMK AO2,KJES,2019-01-15T00:17:00Z,31.55,-81.88,9.0,6.0,360,4,,10.0,30.230314,,,TRUE,TRUE,,,,,,,OVC,1500,,,,,,,MVFR,,,,,,,,,,,,METAR,33.0
KNY0 150017Z AUTO 29007KT 10SM CLR M09/M13 A3013 RMK AO2,KNY0,2019-01-15T00:17:00Z,42.98,-74.33,-9.0,-13.0,290,7,,10.0,30.129921,,,TRUE,TRUE,,,,,,,CLR,,,,,,,,VFR,,,,,,,,,,,,METAR,271.0
CYZP 150017Z AUTO 13009KT BKN011 OVC120 08/07 A2995 RMK WX MISG VIS MISG PCPN MISG SLP145,CYZP,2019-01-15T00:17:00Z,53.25,-131.82,8.0,7.0,130,9,,,29.949802,1014.5,,TRUE,,,,,,,,BKN,1100,OVC,12000,,,,,,,,,,,,,,,,,SPECI,6.0
SADF 150016Z 09009KT 9000 FEW010 FEW045CB BKN100 BKN200 24/20 Q1012 RMK CB OBT TO W,SADF,2019-01-15T00:16:00Z,-34.45,-58.58,24.0,20.0,90,9,,5.59,29.88189,,,,,,,,,,,FEW,1000,FEW,4500,BKN,10000,BKN,20000,VFR,,,,,,,,,,,,SPECI,4.0
K40B 150016Z AUTO 00000KT M12/M15 A3002 RMK AO1 SLP207 T11241153 11070 21142 57014 P0003 60024,K40B,2019-01-15T00:16:00Z,46.62,-69.52,-12.4,-15.3,0,0,,,30.02067,1020.7,,TRUE,TRUE,,,,,,,,,,,,,,,,-1.4,-7.0,-14.2,,,0.03,,0.24,,,,METAR,314.0
KHOP 150015Z AUTO 32005KT 10SM BKN013 OVC034 01/00 A3034 RMK AO2 CIG 013V034 SLP281 $,KHOP,2019-01-15T00:15:00Z,36.67,-87.5,1.0,0.0,320,5,,10.0,30.339567,1028.1,,TRUE,TRUE,TRUE,,,,,,BKN,1300,OVC,3400,,,,,MVFR,,,,,,,,,,,,SPECI,174.0
KGLY 150015Z AUTO 22009KT 4SM BR OVC004 M02/M02 A3035 RMK AO2,KGLY,2019-01-15T00:15:00Z,38.35,-93.68,-2.0,-2.0,220,9,,4.0,30.351377,,,TRUE,TRUE,,,,,,BR,OVC,400,,,,,,,LIFR,,,,,,,,,,,,SPECI,251.0
SBCT 150015Z 01004KT 9999 BKN005 BKN100 21/20 Q1020,SBCT,2019-01-15T00:15:00Z,-25.52,-49.17,21.0,20.0,10,4,,6.21,30.11811,,,,,,,,,,,BKN,500,BKN,10000,,,,,IFR,,,,,,,,,,,,SPECI,908.0
LHPR 150015Z AUTO 28007KT CAVOK M03/M06 Q1012 RMK BLU,LHPR,2019-01-15T00:15:00Z,47.63,17.82,-3.0,-6.0,280,7,,6.21,29.88189,,,TRUE,,,,,,,,CAVOK,,,,,,,,VFR,,,,,,,,,,,,METAR,129.0
LHPA 150015Z 29006KT CAVOK M02/M07 Q1013 NOSIG RMK BLU,LHPA,2019-01-15T00:15:00Z,47.35,17.5,-2.0,-7.0,290,6,,6.21,29.911417,,,,,,TRUE,,,,,CAVOK,,,,,,,,VFR,,,,,,,,,,,,METAR,148.0
ETEB 150011Z AUTO 28011KT 9999 FEW014 OVC050 00/M01 A3005 RMK AO2 RAE11 SLP212 $,ETEB,2019-01-15T00:11:00Z,49.32,10.62,0.0,-1.0,280,11,,6.21,30.050198,1021.2,,TRUE,TRUE,TRUE,,,,,,FEW,1400,OVC,5000,,,,,VFR,,,,,,,,,,,,SPECI,467.0
CYTH 150011Z 08005KT 050V110 1 1/4SM -SN OVC010 M21/M24 A3008 RMK SC8 VIS VRB 3/4 - 1 3/4 SLP218,CYTH,2019-01-15T00:11:00Z,55.78,-97.87,-21.0,-24.0,80,5,,1.25,30.079725,1021.8,,,,,,,,,-SN,OVC,1000,,,,,,,IFR,,,,,,,,,,,,SPECI,218.0
KNBT 150011Z AUTO 35008KT 10SM FEW021 OVC080 03/M01 A3020 RMK AO2 T00331006 PNO $,KNBT,2019-01-15T00:11:00Z,35.02,-76.47,3.3,-0.6,350,8,,10.0,30.200787,,,TRUE,TRUE,TRUE,,,,,,FEW,2100,OVC,8000,,,,,VFR,,,,,,,,,,,,SPECI,5.0
VCRI 150010Z 35005KT 8000 FEW018 23/23 Q1011 NOSIG,VCRI,2019-01-15T00:10:00Z,6.28,81.13,23.0,23.0,350,5,,4.97,29.852362,,,,,,TRUE,,,,,FEW,1800,,,,,,,MVFR,,,,,,,,,,,,METAR,7.0
VCBI 150010Z 03007KT 9999 BKN030 24/21 Q1011 NOSIG,VCBI,2019-01-15T00:10:00Z,7.17,79.87,24.0,21.0,30,7,,6.21,29.852362,,,,,,TRUE,,,,,BKN,3000,,,,,,,MVFR,,,,,,,,,,,,METAR,8.0
CWUW 150010Z AUTO 10018G24KT ////SM BKN003 OVC021 M31/M34 A2944,CWUW,2019-01-15T00:10:00Z,68.65,-71.17,-31.0,-34.0,100,18,24,,29.438976,,,TRUE,,,,,,,,BKN,300,OVC,2100,,,,,,,,,,,,,,,,,SPECI,527.0
CYYB 150010Z 28007KT 230V290 12SM -SN OVC007 M06/M07 A3006 RMK ST8 SLP210,CYYB,2019-01-15T00:10:00Z,46.35,-79.42,-6.0,-7.0,280,7,,12.0,30.059055,1021.0,,,,,,,,,-SN,OVC,700,,,,,,,IFR,,,,,,,,,,,,SPECI,371.0
RKTN 150010Z 32006KT 4800 HZ NSC 03/M03 Q1021,RKTN,2019-01-15T00:10:00Z,35.88,128.65,3.0,-3.0,320,6,,2.98,30.147638,,,,,,,,,,HZ,CLR,,,,,,,,IFR,,,,,,,,,,,,SPECI,35.0
CWFD 150008Z AUTO 36020G30KT ////SM //// FEW004 FEW050 FEW065 M29/M32 A2932,CWFD,2019-01-15T00:08:00Z,66.57,-61.58,-29.0,-32.0,360,20,30,,29.320866,,,TRUE,,,,,,,,FEW,400,FEW,5000,FEW,6500,,,,,,,,,,,,,,,SPECI,393.0
KDVP 150008Z AUTO 00000KT 3SM BR BKN003 OVC006 A3022 RMK AO2,KDVP,2019-01-15T00:08:00Z,43.98,-95.78,,,0,0,,3.0,30.221457,,,TRUE,TRUE,,,,,,BR,BKN,300,OVC,600,,,,,LIFR,,,,,,,,,,,,SPECI,495.0
RKSG 150006Z COR 27003KT 1 5/8SM BR CLR 00/00 A3021 RMK AO2A SLP234 $ COR 0030,RKSG,2019-01-15T00:06:00Z,36.97,127.02,0.0,0.0,270,3,,1.63,30.209646,1023.4,TRUE,,TRUE,TRUE,,,,,BR,CLR,,,,,,,,IFR,,,,,,,,,,,,SPECI,16.0
KTTA 150005Z AUTO 00000KT 10SM CLR 02/00 A3022 RMK AO2 T00150001,KTTA,2019-01-15T00:05:00Z,35.58,-79.1,1.5,0.1,0,0,,10.0,30.221457,,,TRUE,TRUE,,,,,,,CLR,,,,,,,,VFR,,,,,,,,,,,,METAR,75.0
YBHI 150005Z AUTO 34018G28KT 9999 // NCD 40/04 Q1011,YBHI,2019-01-15T00:05:00Z,-32.0,141.47,40.0,4.0,340,18,28,6.21,29.852362,,,TRUE,,,,,,,,CLR,,,,,,,,VFR,,,,,,,,,,,,METAR,292.0
CYPD 150004Z AUTO 04006KT 9SM BKN010 M11/M13 A3006 RMK SLP189,CYPD,2019-01-15T00:04:00Z,45.67,-61.37,-11.0,-13.0,40,6,,9.0,30.059055,1018.9,,TRUE,,,,,,,,BKN,1000,,,,,,,MVFR,,,,,,,,,,,,SPECI,114.0
KEAU 150003Z 26003KT 4SM BR FEW005 BKN021 OVC028 M02/M02 A3020 RMK AO2 T10171022,KEAU,2019-01-15T00:03:00Z,44.87,-91.47,-1.7,-2.2,260,3,,4.0,30.200787,,,,TRUE,,,,,,BR,FEW,500,BKN,2100,OVC,2800,,,MVFR,,,,,,,,,,,,SPECI,276.0
PADM 150002Z AUTO 10032G38KT 10SM FEW031 BKN080 OVC100 03/M01 A2947 RMK AO2 PK WND 11042/2338 RAB2328E2351 SLP988 P0000 60000 T00281011 10033 20022 58003,PADM,2019-01-15T00:02:00Z,61.87,-162.03,2.8,-1.1,100,32,38,10.0,29.471457,998.8,,TRUE,TRUE,,,,,,,FEW,3100,BKN,8000,OVC,10000,,,VFR,-0.3,3.3,2.2,,,0.005,,0.005,,,,METAR,31.0
KPOB 150001Z AUTO 00000KT 10SM SCT029 BKN041 03/00 A3022 RMK AO2 SLP238 $,KPOB,2019-01-15T00:01:00Z,35.17,-79.02,3.0,0.0,0,0,,10.0,30.221457,1023.8,,TRUE,TRUE,TRUE,,,,,,SCT,2900,BKN,4100,,,,,VFR,,,,,,,,,,,,SPECI,66.0
EGUN 150001Z 26007KT 9999 SCT049 04/04 A3014 RMK AO2A SLP210 WND DATA ESTMD $,EGUN,2019-01-15T00:01:00Z,52.37,0.47,4.0,4.0,260,7,,6.21,30.138779,1021.0,,,TRUE,TRUE,,,,,,SCT,4900,,,,,,,VFR,,,,,,,,,,,,METAR,10.0
PAFS 150001Z AUTO 05009KT 10SM CLR M12/M15 A2987 RMK AO2 SLP134 T11171150 11106 21139 50005 FZRANO,PAFS,2019-01-15T00:01:00Z,63.02,-154.35,-11.7,-15.0,50,9,,10.0,29.870079,1013.4,,TRUE,TRUE,,,,TRUE,,,CLR,,,,,,,,VFR,0.5,-10.6,-13.9,,,,,,,,,METAR,126.0
KOWA 150001Z AUTO 32004KT 10SM OVC009 M02/M03 A3021 RMK AO2,KOWA,2019-01-15T00:01:00Z,44.12,-93.25,-2.0,-3.0,320,4,,10.0,30.209646,,,TRUE,TRUE,,,,,,,OVC,900,,,,,,,IFR,,,,,,,,,,,,METAR,350.0
GAMB 150000Z 00000KT CAVOK 21/05 Q1015,GAMB,2019-01-15T00:00:00Z,14.52,-4.08,21.0,5.0,0,0,,6.21,29.970472,,,,,,,,,,,CAVOK,,,,,,,,VFR,,,,,,,,,,,,METAR,272.0
CWNL 150000Z AUTO 26014KT 00/M01 RMK AO1 PK WND 26017/2308 SLP207 T00001013 58001,CWNL,2019-01-15T00:00:00Z,45.62,-82.97,0.0,-1.3,260,14,,,,1020.7,,TRUE,TRUE,,,,,,,,,,,,,,,,-0.1,,,,,,,,,,,METAR,183.0
CWPS 150000Z AUTO 23010KT M05/M07 RMK AO1 SLP243 T10481069 53002,CWPS,2019-01-15T00:00:00Z,42.57,-80.03,-4.8,-6.9,230,10,,,,1024.3,,TRUE,TRUE,,,,,,,,,,,,,,,,0.2,,,,,,,,,,,METAR,175.0
CXAT 150000Z AUTO 13004KT M35/M39 RMK AO1 SOG 02 8015 SLP140 T13511391,CXAT,2019-01-15T00:00:00Z,73.0,-85.03,-35.1,-39.1,130,4,,,,1014.0,,TRUE,TRUE,,,,,,,,,,,,,,,,,,,,,,,,,,,METAR,19.0
CZPS 150000Z AUTO 26005KT M02/M07 RMK AO1 T10151068,CZPS,2019-01-15T00:00:00Z,52.43,-113.6,-1.5,-6.8,260,5,,,,,,TRUE,TRUE,,,,,,,,,,,,,,,,,,,,,,,,,,,METAR,965.0
CZOL 150000Z AUTO 30004KT 01/M03 RMK AO1 T00121031,CZOL,2019-01-15T00:00:00Z,53.65,-113.35,1.2,-3.1,300,4,,,,,,TRUE,TRUE,,,,,,,,,,,,,,,,,,,,,,,,,,,METAR,665.0
CXOL 150000Z AUTO 30006KT 01/M06 RMK AO1 T00061058,CXOL,2019-01-15T00:00:00Z,51.77,-114.08,0.6,-5.8,300,6,,,,,,TRUE,TRUE,,,,,,,,,,,,,,,,,,,,,,,,,,,METAR,1046.0
CXMO 150000Z AUTO 21004KT M04/M08 RMK AO1 T10351076,CXMO,2019-01-15T00:00:00Z,51.67,-112.68,-3.5,-7.6,210,4,,,,,,TRUE,TRUE,,,,,,,,,,,,,,,,,,,,,,,,,,,METAR,836.0
CXWM 150000Z AUTO 33009KT 02/M09 RMK AO1 T00151089,CXWM,2019-01-15T00:00:00Z,49.5,-112.12,1.5,-8.9,330,9,,,,,,TRUE,TRUE,,,,,,,,,,,,,,,,,,,,,,,,,,,METAR,944.0
CXAJ 150000Z AUTO 01/M02 RMK AO1 SOG 41 PK WND 31017/2358 T00081015,CXAJ,2019-01-15T00:00:00Z,54.77,-112.82,0.8,-1.5,,,,,,,,TRUE,TRUE,,,,,,,,,,,,,,,,,,,,,,,,,,,METAR,574.0
CXAG 150000Z AUTO 28009KT M03/M06 RMK AO1 T10281058,CXAG,2019-01-15T00:00:00Z,53.92,-112.28,-2.8,-5.8,280,9,,,,,,TRUE,TRUE,,,,,,,,,,,,,,,,,,,,,,,,,,,METAR,625.0
CZMU 150000Z AUTO 29011KT M00/M04 RMK AO1 SOG 20 T10031036,CZMU,2019-01-15T00:00:00Z,53.57,-112.3,-0.3,-3.6,290,11,,,,,,TRUE,TRUE,,,,,,,,,,,,,,,,,,,,,,,,,,,METAR,683.0
CWMZ 150000Z AUTO 26017KT M01/M04 RMK AO1 PK WND 27026/2325 SLP213 T10141041 57002,CWMZ,2019-01-15T00:00:00Z,45.02,-80.37,-1.4,-4.1,260,17,,,,1021.3,,TRUE,TRUE,,,,,,,,,,,,,,,,-0.2,,,,,,,,,,,METAR,191.0
HETR 150000Z 01008KT CAVOK 10/03 Q1017,HETR,2019-01-15T00:00:00Z,28.22,33.65,10.0,3.0,10,8,,6.21,30.029528,,,,,,,,,,,CAVOK,,,,,,,,VFR,,,,,,,,,,,,METAR,35.0
HEMM 150000Z 23014KT 9999 SCT020 11/M01 Q1011 NOSIG,HEMM,2019-01-15T00:00:00Z,31.32,27.22,11.0,-1.0,230,14,,6.21,29.852362,,,,,,TRUE,,,,,SCT,2000,,,,,,,VFR,,,,,,,,,,,,METAR,30.0
HEAX 150000Z 19009KT CAVOK 09/04 Q1013 NOSIG,HEAX,2019-01-15T00:00:00Z,31.18,29.93,9.0,4.0,190,9,,6.21,29.911417,,,,,,TRUE,,,,,CAVOK,,,,,,,,VFR,,,,,,,,,,,,METAR,7.0
HELX 150000Z 00000KT CAVOK 08/01 Q1018 NOSIG,HELX,2019-01-15T00:00:00Z,25.67,32.7,8.0,1.0,0,0,,6.21,30.059055,,,,,,TRUE,,,,,CAVOK,,,,,,,,VFR,,,,,,,,,,,,METAR,88.0
HEAR 150000Z 16004KT CAVOK 07/05 Q1016 NOSIG,HEAR,2019-01-15T00:00:00Z,31.07,33.82,7.0,5.0,160,4,,6.21,30.0,,,,,,TRUE,,,,,CAVOK,,,,,,,,VFR,,,,,,,,,,,,METAR,32.0
HEPS 150000Z 20009KT CAVOK 11/07 Q1015 NOSIG,HEPS,2019-01-15T00:00:00Z,31.28,32.25,11.0,7.0,200,9,,6.21,29.970472,,,,,,TRUE,,,,,CAVOK,,,,,,,,VFR,,,,,,,,,,,,METAR,6.0
HEGN 150000Z 31006KT CAVOK 10/01 Q1017 NOSIG,HEGN,2019-01-15T00:00:00Z,27.18,33.8,10.0,1.0,310,6,,6.21,30.029528,,,,,,TRUE,,,,,CAVOK,,,,,,,,VFR,,,,,,,,,,,,METAR,14.0
HESH 150000Z VRB03KT CAVOK 13/05 Q1016 NOSIG,HESH,2019-01-15T00:00:00Z,27.97,34.38,13.0,5.0,0,3,,6.21,30.0,,,,,,TRUE,,,,,CAVOK,,,,,,,,VFR,,,,,,,,,,,,METAR,50.0
HEBA 150000Z 17008KT CAVOK 11/05 Q1013 NOSIG,HEBA,2019-01-15T00:00:00Z,30.92,29.7,11.0,5.0,170,8,,6.21,29.911417,,,,,,TRUE,,,,,CAVOK,,,,,,,,VFR,,,,,,,,,,,,METAR,54.0
HEBL 150000Z 34009KT CAVOK 12/M03 Q1017 NOSIG,HEBL,2019-01-15T00:00:00Z,22.38,31.62,12.0,-3.0,340,9,,6.21,30.029528,,,,,,TRUE,,,,,CAVOK,,,,,,,,VFR,,,,,,,,,,,,METAR,188.0
HESC 150000Z 00000KT CAVOK 02/M01 Q1019 NOSIG,HESC,2019-01-15T00:00:00Z,28.68,34.07,2.0,-1.0,0,0,,6.21,30.088583,,,,,,TRUE,,,,,CAVOK,,,,,,,,VFR,,,,,,,,,,,,METAR,1332.0
HESG 150000Z VRB03KT CAVOK 07/02 Q1017 NOSIG,HESG,2019-01-15T00:00:00Z,26.33,31.75,7.0,2.0,0,3,,6.21,30.029528,,,,,,TRUE,,,,,CAVOK,,,,,,,,VFR,,,,,,,,,,,,METAR,70.0
HEMA 150000Z 26010KT CAVOK 13/M01 Q1016 NOSIG,HEMA,2019-01-15T00:00:00Z,25.55,34.58,13.0,-1.0,260,10,,6.21,30.0,,,,,,TRUE,,,,,CAVOK,,,,,,,,VFR,,,,,,,,,,,,METAR,77.0
CWCI 150000Z AUTO M00/M02 RMK AO1 SLP202 T10011018 53010,CWCI,2019-01-15T00:00:00Z,47.32,-85.82,-0.1,-1.8,,,,,,1020.2,,TRUE,TRUE,,,,,,,,,,,,,,,,1.0,,,,,,,,,,,METAR,187.0
CWEF 150000Z AUTO M05/M08 RMK AO1 SLP194 T10491084 58015,CWEF,2019-01-15T00:00:00Z,47.22,-60.12,-4.9,-8.4,,,,,,1019.4,,TRUE,TRUE,,,,,,,,,,,,,,,,-1.5,,,,,,,,,,,METAR,26.0
HEAT 150000Z 31011KT CAVOK 08/02 Q1020 NOSIG,HEAT,2019-01-15T00:00:00Z,27.05,31.02,8.0,2.0,310,11,,6.21,30.11811,,,,,,TRUE,,,,,CAVOK,,,,,,,,VFR,,,,,,,,,,,,METAR,70.0
MWCR 150000Z 04009KT 9999 FEW020 26/23 Q1017,MWCR,2019-01-15T00:00:00Z,19.3,-81.37,26.0,23.0,40,9,,6.21,30.029528,,,,,,,,,,,FEW,2000,,,,,,,VFR,,,,,,,,,,,,METAR,3.0
MWCB 150000Z 03005KT 9999 SCT018 26/22 Q1017,MWCB,2019-01-15T00:00:00Z,19.68,-79.88,26.0,22.0,30,5,,6.21,30.029528,,,,,,,,,,,SCT,1800,,,,,,,VFR,,,,,,,,,,,,METAR,2.0
MRPV 150000Z 09016G26KT CAVOK 20/12 A3002 NOSIG,MRPV,2019-01-15T00:00:00Z,9.95,-84.15,20.0,12.0,90,16,26,6.21,30.02067,,,,,,TRUE,,,,,CAVOK,,,,,,,,VFR,,,,,,,,,,,,METAR,994.0
GVNP 150000Z 02016KT 9999 FEW018 21/17 Q1016 NOSIG,GVNP,2019-01-15T00:00:00Z,14.95,-23.48,21.0,17.0,20,16,,6.21,30.0,,,,,,TRUE,,,,,FEW,1800,,,,,,,VFR,,,,,,,,,,,,METAR,70.0
MROC 150000Z 08015KT CAVOK 23/10 A2998 NOSIG,MROC,2019-01-15T00:00:00Z,10.0,-84.22,23.0,10.0,80,15,,6.21,29.97933,,,,,,TRUE,,,,,CAVOK,,,,,,,,VFR,,,,,,,,,,,,METAR,920.0
OJAM 150000Z 22006KT 4000 HZ SCT020 SCT025 08/05 Q1016 NOSIG,OJAM,2019-01-15T00:00:00Z,31.97,35.97,8.0,5.0,220,6,,2.49,30.0,,,,,,TRUE,,,,HZ,SCT,2000,SCT,2500,,,,,IFR,,,,,,,,,,,,METAR,773.0
AGGM 150000Z 23007KT 9999 HZ FEW018 SCT028 31/25 Q1005,AGGM,2019-01-15T00:00:00Z,-8.32,157.27,31.0,25.0,230,7,,6.21,29.675198,,,,,,,,,,HZ,FEW,1800,SCT,2800,,,,,VFR,,,,,,,,,,,,METAR,6.0
TKPN 150000Z 08011KT 9999 SCT022 26/20 Q1017,TKPN,2019-01-15T00:00:00Z,17.18,-62.57,26.0,20.0,80,11,,6.21,30.029528,,,,,,,,,,,SCT,2200,,,,,,,VFR,,,,,,,,,,,,METAR,17.0
SESA 150000Z 24010KT 9999 FEW012 25/23 Q1010,SESA,2019-01-15T00:00:00Z,-2.2,-80.97,25.0,23.0,240,10,,6.21,29.822834,,,,,,,,,,,FEW,1200,,,,,,,VFR,,,,,,,,,,,,METAR,8.0
SBTE 150000Z 35006KT 9999 -RA BKN030 OVC070 23/22 Q1014 RETS,SBTE,2019-01-15T00:00:00Z,-5.03,-42.82,23.0,22.0,350,6,,6.21,29.940945,,,,,,,,,,-RA,BKN,3000,OVC,7000,,,,,MVFR,,,,,,,,,,,,METAR,69.0
VAAH 150000Z 05005KT 4000 HZ NSC 13/06 Q1017 NOSIG,VAAH,2019-01-15T00:00:00Z,23.07,72.62,13.0,6.0,50,5,,2.49,30.029528,,,,,,TRUE,,,,HZ,CLR,,,,,,,,IFR,,,,,,,,,,,,METAR,55.0
SBPA 150000Z 14005KT 9999 TS FEW027 FEW035CB OVC100 25/22 Q1012,SBPA,2019-01-15T00:00:00Z,-30.0,-51.17,25.0,22.0,140,5,,6.21,29.88189,,,,,,,,,,TS,FEW,2700,FEW,3500,OVC,10000,,,VFR,,,,,,,,,,,,METAR,3.0
MPMG 150000Z 35007KT 320V020 9999 FEW018 27/21 Q1011 NOSIG,MPMG,2019-01-15T00:00:00Z,8.98,-79.57,27.0,21.0,350,7,,6.21,29.852362,,,,,,TRUE,,,,,FEW,1800,,,,,,,VFR,,,,,,,,,,,,METAR,13.0
MPPA 150000Z 02012KT 9999 FEW020 26/21 Q1011,MPPA,2019-01-15T00:00:00Z,8.92,-79.6,26.0,21.0,20,12,,6.21,29.852362,,,,,,,,,,,FEW,2000,,,,,,,VFR,,,,,,,,,,,,METAR,13.0
MPDA 150000Z 03018KT CAVOK 30/16 Q1008,MPDA,2019-01-15T00:00:00Z,8.4,-82.43,30.0,16.0,30,18,,6.21,29.763779,,,,,,,,,,,CAVOK,,,,,,,,VFR,,,,,,,,,,,,METAR,27.0
MPSM 150000Z 35010KT(E) 9999 FEW020 27/19 Q1010,MPSM,2019-01-15T00:00:00Z,8.35,-80.13,27.0,19.0,,,,6.21,29.822834,,,,,,,,,,,FEW,2000,,,,,,,VFR,,,,,,,,,,,,METAR,0.0
MPBO 150000Z VRB02KT 9999 FEW020 Q1016,MPBO,2019-01-15T00:00:00Z,9.35,-82.25,,,0,2,,6.21,30.0,,,,,,,,,,,FEW,2000,,,,,,,VFR,,,,,,,,,,,,METAR,3.0
MKJS 150000Z 12004KT 9999 SCT022 27/22 Q1016,MKJS,2019-01-15T00:00:00Z,18.5,-77.92,27.0,22.0,120,4,,6.21,30.0,,,,,,,,,,,SCT,2200,,,,,,,VFR,,,,,,,,,,,,METAR,1.0
CYBR 150000Z 22005KT 10SM BKN087 M08/M09 A3012 RMK AC7 SLP233,CYBR,2019-01-15T00:00:00Z,49.92,-99.95,-8.0,-9.0,220,5,,10.0,30.121063,1023.3,,,,,,,,,,BKN,8700,,,,,,,VFR,,,,,,,,,,,,METAR,409.0
CYPC 150000Z VRB02KT 15SM FEW100 M32/M35 A3064 RMK AC2 -27.8/-32.4/0/20 LAST STFD OBS/NEXT 151400 UTC SLP377,CYPC,2019-01-15T00:00:00Z,69.37,-124.07,-32.0,-35.0,0,2,,15.0,30.640747,1037.7,,,,,,,,,,FEW,10000,,,,,,,VFR,,,,,,,,,,,,METAR,6.0
RKNY 150000Z 26016KT 5000 HZ NSC 03/M08 Q1017 NOSIG,RKNY,2019-01-15T00:00:00Z,38.07,128.67,3.0,-8.0,260,16,,3.11,30.029528,,,,,,TRUE,,,,HZ,CLR,,,,,,,,MVFR,,,,,,,,,,,,METAR,74.0
RKTU 150000Z 21004KT 3600 BR FEW030 00/M03 Q1023,RKTU,2019-01-15T00:00:00Z,36.7,127.5,0.0,-3.0,210,4,,2.24,30.206694,,,,,,,,,,BR,FEW,3000,,,,,,,IFR,,,,,,,,,,,,METAR,66.0
RKPK 150000Z 28004KT 6000 NSC 03/M04 Q1022,RKPK,2019-01-15T00:00:00Z,35.17,128.92,3.0,-4.0,280,4,,3.73,30.177166,,,,,,,,,,,CLR,,,,,,,,MVFR,,,,,,,,,,,,METAR,15.0
RKPC 150000Z 24005KT 210V310 5000 HZ BKN035 BKN100 07/00 Q1024 NOSIG,RKPC,2019-01-15T00:00:00Z,33.5,126.48,7.0,0.0,240,5,,3.11,30.236221,,,,,,TRUE,,,,HZ,BKN,3500,BKN,10000,,,,,MVFR,,,,,,,,,,,,METAR,27.0
RKSS 150000Z 35005KT 1400 R32L/0900N R32R/1400D BR SCT020 M02/M04 Q1023 NOSIG,RKSS,2019-01-15T00:00:00Z,37.53,126.78,-2.0,-4.0,350,5,,0.87,30.206694,,,,,,TRUE,,,,BR,SCT,2000,,,,,,,LIFR,,,,,,,,,,,,METAR,19.0
OERK 150000Z 00000KT CAVOK 14/M04 Q1017,OERK,2019-01-15T00:00:00Z,24.95,46.72,14.0,-4.0,0,0,,6.21,30.029528,,,,,,,,,,,CAVOK,,,,,,,,VFR,,,,,,,,,,,,METAR,612.0
LETO 150000Z 02006KT CAVOK 02/M01 Q1021 NOSIG,LETO,2019-01-15T00:00:00Z,40.47,-3.47,2.0,-1.0,20,6,,6.21,30.147638,,,,,,TRUE,,,,,CAVOK,,,,,,,,VFR,,,,,,,,,,,,METAR,608.0
LERT 150000Z 09005KT CAVOK 06/04 Q1021 NOSIG,LERT,2019-01-15T00:00:00Z,36.63,-6.33,6.0,4.0,90,5,,6.21,30.147638,,,,,,TRUE,,,,,CAVOK,,,,,,,,VFR,,,,,,,,,,,,METAR,26.0
RPMR 150000Z 36006KT 9999 FEW015 SCT080 27/21 Q1008 NOSIG RMK A2977,RPMR,2019-01-15T00:00:00Z,6.05,125.1,27.0,21.0,360,6,,6.21,29.763779,,,,,,TRUE,,,,,FEW,1500,SCT,8000,,,,,VFR,,,,,,,,,,,,METAR,154.0
RPVD 150000Z 29006KT 9999 SCT015CB SCT080 27/22 Q1012 RMK A2988 CB S/SW/W,RPVD,2019-01-15T00:00:00Z,9.33,123.3,27.0,22.0,290,6,,6.21,29.88189,,,,,,,,,,,SCT,1500,SCT,8000,,,,,VFR,,,,,,,,,,,,METAR,8.0
RPVP 150000Z 09015KT 9999 FEW019 BKN250 28/23 Q1012 RMK A2988,RPVP,2019-01-15T00:00:00Z,9.75,118.72,28.0,23.0,90,15,,6.21,29.88189,,,,,,,,,,,FEW,1900,BKN,25000,,,,,VFR,,,,,,,,,,,,METAR,16.0
RPLC 150000Z 32004KT 9999 FEW020 BKN300 25/19 Q1015 NOSIG RMK A2997,RPLC,2019-01-15T00:00:00Z,15.17,120.58,25.0,19.0,320,4,,6.21,29.970472,,,,,,TRUE,,,,,FEW,2000,BKN,30000,,,,,VFR,,,,,,,,,,,,METAR,196.0
LEAB 150000Z 17004KT CAVOK 00/M02 Q1021 NOSIG,LEAB,2019-01-15T00:00:00Z,38.95,-1.85,0.0,-2.0,170,4,,6.21,30.147638,,,,,,TRUE,,,,,CAVOK,,,,,,,,VFR,,,,,,,,,,,,METAR,704.0
LKPD 150000Z 27014KT 9999 OVC040 M01/M06 Q1010 RMK BLU,LKPD,2019-01-15T00:00:00Z,50.02,15.73,-1.0,-6.0,270,14,,6.21,29.822834,,,,,,,,,,,OVC,4000,,,,,,,VFR,,,,,,,,,,,,METAR,226.0
LKNA 150000Z 30021KT CAVOK M03/M07 Q1009 RMK BLU,LKNA,2019-01-15T00:00:00Z,49.17,16.12,-3.0,-7.0,300,21,,6.21,29.793306,,,,,,,,,,,CAVOK,,,,,,,,VFR,,,,,,,,,,,,METAR,472.0
LKLN 150000Z AUTO 26006KT 220V300 9999 SCT027 OVC033 00/M04 Q1014,LKLN,2019-01-15T00:00:00Z,49.68,13.27,0.0,-4.0,260,6,,6.21,29.940945,,,TRUE,,,,,,,,SCT,2700,OVC,3300,,,,,VFR,,,,,,,,,,,,METAR,362.0
LKKB 150000Z 26011KT 9999 BKN044 M00/M06 Q1011,LKKB,2019-01-15T00:00:00Z,50.12,14.53,0.0,-6.0,260,11,,6.21,29.852362,,,,,,,,,,,BKN,4400,,,,,,,VFR,,,,,,,,,,,,METAR,286.0
LKCV 150000Z 28017KT 9999 OVC040 M00/M06 Q1010 NOSIG RMK BLU BLU,LKCV,2019-01-15T00:00:00Z,49.93,15.38,0.0,-6.0,280,17,,6.21,29.822834,,,,,,TRUE,,,,,OVC,4000,,,,,,,VFR,,,,,,,,,,,,METAR,242.0
OIKQ 150000Z 00000KT 5000 BR NSC 17/14 Q1018,OIKQ,2019-01-15T00:00:00Z,26.75,55.9,17.0,14.0,0,0,,3.11,30.059055,,,,,,,,,,BR,CLR,,,,,,,,MVFR,,,,,,,,,,,,METAR,12.0
RKSM 150000Z 00000KT 2000 BR FEW000 SCT025 M01/M03 A3021,RKSM,2019-01-15T00:00:00Z,37.42,127.12,-1.0,-3.0,0,0,,1.24,30.209646,,,,,,,,,,BR,FEW,0,SCT,2500,,,,,IFR,,,,,,,,,,,,METAR,20.0
MDSD 150000Z 13004KT 9999 SCT018 25/21 Q1016,MDSD,2019-01-15T00:00:00Z,18.42,-69.67,25.0,21.0,130,4,,6.21,30.0,,,,,,,,,,,SCT,1800,,,,,,,VFR,,,,,,,,,,,,METAR,18.0
MDLR 150000Z 09004KT 9999 BKN018 23/21 Q1017,MDLR,2019-01-15T00:00:00Z,18.45,-68.92,23.0,21.0,90,4,,6.21,30.029528,,,,,,,,,,,BKN,1800,,,,,,,MVFR,,,,,,,,,,,,METAR,8.0
MDCY 150000Z 08008KT 9999 FEW017 24/22 Q1017,MDCY,2019-01-15T00:00:00Z,19.27,-69.73,24.0,22.0,80,8,,6.21,30.029528,,,,,,,,,,,FEW,1700,,,,,,,VFR,,,,,,,,,,,,METAR,10.0
MDPP 150000Z 00000KT 9999 FEW018 24/22 Q1017,MDPP,2019-01-15T00:00:00Z,19.75,-70.57,24.0,22.0,0,0,,6.21,30.029528,,,,,,,,,,,FEW,1800,,,,,,,VFR,,,,,,,,,,,,METAR,5.0
FALW 150000Z AUTO 19003KT //// // ////// 15/11 Q1014,FALW,2019-01-15T00:00:00Z,-32.97,18.17,15.0,11.0,190,3,,,29.940945,,,TRUE,,,,,,,,,,,,,,,,,,,,,,,,,,,,METAR,0.0
FQCH 150000Z VRB02KT 8000 -RA FEW010 BKN015 FEW025CB 22/21 Q1015 RMK CB TO N/S,FQCH,2019-01-15T00:00:00Z,-19.15,33.43,22.0,21.0,0,2,,4.97,29.970472,,,,,,,,,,-RA,FEW,1000,BKN,1500,FEW,2500,,,MVFR,,,,,,,,,,,,METAR,732.0
ZBSJ 150000Z 36004MPS CAVOK M06/M26 Q1040 NOSIG,ZBSJ,2019-01-15T00:00:00Z,38.28,114.7,-6.0,-26.0,360,8,,6.21,30.708662,,,,,,TRUE,,,,,CAVOK,,,,,,,,VFR,,,,,,,,,,,,METAR,71.0
ZWSH 150000Z VRB02MPS 6000 FEW040 M08/M13 Q1023 NOSIG,ZWSH,2019-01-15T00:00:00Z,39.55,76.02,-8.0,-13.0,0,4,,3.73,30.206694,,,,,,TRUE,,,,,FEW,4000,,,,,,,MVFR,,,,,,,,,,,,METAR,1380.0
CWWL 150000Z AUTO 14001KT 08/07 RMK AO1 SLP150 T00820067 56017,CWWL,2019-01-15T00:00:00Z,53.5,-130.63,8.2,6.7,140,1,,,,1015.0,,TRUE,TRUE,,,,,,,,,,,,,,,,-1.7,,,,,,,,,,,METAR,17.0
CWEK 150000Z AUTO 04027G33KT 07/05 RMK AO1 PK WND 04035/2318 SLP154 T00740052 56016,CWEK,2019-01-15T00:00:00Z,54.58,-130.7,7.4,5.2,40,27,33,,,1015.4,,TRUE,TRUE,,,,,,,,,,,,,,,,-1.6,,,,,,,,,,,METAR,8.0
CXTN 150000Z AUTO 01002KT M27/M30 RMK AO1 SOG 66 3009 SLP362 T12651301,CXTN,2019-01-15T00:00:00Z,69.2,-122.35,-26.5,-30.1,10,2,,,,1036.2,,TRUE,TRUE,,,,,,,,,,,,,,,,,,,,,,,,,,,METAR,552.0
CXLL 150000Z AUTO M27/M30 RMK AO1 SOG 44 8003 SLP332 T12721302,CXLL,2019-01-15T00:00:00Z,61.12,-122.85,-27.2,-30.2,,,,,,1033.2,,TRUE,TRUE,,,,,,,,,,,,,,,,,,,,,,,,,,,METAR,183.0
CWDM 150000Z AUTO 23011KT M05/M07 RMK AO1 SOG 23 6012 PK WND 23018/2333 SLP157 T10481071,CWDM,2019-01-15T00:00:00Z,50.47,-59.62,-4.8,-7.1,230,11,,,,1015.7,,TRUE,TRUE,,,,,,,,,,,,,,,,,,,,,,,,,,,METAR,6.0
CXYH 150000Z AUTO 00000KT M27/M30 RMK AO1 SLP310 T12661301 58005,CXYH,2019-01-15T00:00:00Z,61.25,-123.75,-26.6,-30.1,0,0,,,,1031.0,,TRUE,TRUE,,,,,,,,,,,,,,,,-0.5,,,,,,,,,,,METAR,204.0
CXDK 150000Z AUTO 00000KT M30/M34 RMK AO1 SOG 33 6004 SLP306 T13031339,CXDK,2019-01-15T00:00:00Z,61.27,-124.47,-30.3,-33.9,0,0,,,,1030.6,,TRUE,TRUE,,,,,,,,,,,,,,,,,,,,,,,,,,,METAR,283.0
CWQS 150000Z AUTO 09001KT 10/08 RMK AO1 SLP127 T00960078 56021,CWQS,2019-01-15T00:00:00Z,53.32,-132.77,9.6,7.8,90,1,,,,1012.7,,TRUE,TRUE,,,,,,,,,,,,,,,,-2.1,,,,,,,,,,,METAR,14.0
CWME 150000Z AUTO 05022G28KT 06/03 RMK AO1 PK WND 04031/2335 T00610031,CWME,2019-01-15T00:00:00Z,52.18,-127.47,6.1,3.1,50,22,28,,,,,TRUE,TRUE,,,,,,,,,,,,,,,,,,,,,,,,,,,METAR,32.0
CWXC 150000Z AUTO 18002KT M12/M13 RMK AO1 SLP170 T11151129 58001,CWXC,2019-01-15T00:00:00Z,48.88,-71.03,-11.5,-12.9,180,2,,,,1017.0,,TRUE,TRUE,,,,,,,,,,,,,,,,-0.1,,,,,,,,,,,METAR,300.0
CWXA 150000Z AUTO 26013G19KT 01/M10 RMK AO1 PK WND 26019/2350 SLP218 T00051104 50000,CWXA,2019-01-15T00:00:00Z,51.07,-115.07,0.5,-10.4,260,13,19,,,1021.8,,TRUE,TRUE,,,,,,,,,,,,,,,,0.0,,,,,,,,,,,METAR,1298.0
CWVU 150000Z AUTO 35012KT M04/M07 RMK AO1 SOG 01 8016 SLP193 T10401074,CWVU,2019-01-15T00:00:00Z,44.28,-66.33,-4.0,-7.4,350,12,,,,1019.3,,TRUE,TRUE,,,,,,,,,,,,,,,,,,,,,,,,,,,METAR,16.0
CWND 150000Z AUTO 00010KT M28/M31 RMK AO1 SLP288 T12831312 53014,CWND,2019-01-15T00:00:00Z,69.63,-135.43,-28.3,-31.2,0,10,,,,1028.8,,TRUE,TRUE,,,,,,,,,,,,,,,,1.4,,,,,,,,,,,METAR,12.0
FAUT 150000Z AUTO 18003KT //// // ////// 19/19 Q1015,FAUT,2019-01-15T00:00:00Z,-31.52,28.67,19.0,19.0,180,3,,,29.970472,,,TRUE,,,,,,,,,,,,,,,,,,,,,,,,,,,,METAR,732.0
FAPP 150000Z AUTO 04003KT //// // ////// 22/19 Q1016,FAPP,2019-01-15T00:00:00Z,-23.83,29.45,22.0,19.0,40,3,,,30.0,,,TRUE,,,,,,,,,,,,,,,,,,,,,,,,,,,,METAR,1242.0
FAPN 150000Z AUTO 28012KT //// // ////// ///// Q1014,FAPN,2019-01-15T00:00:00Z,-25.33,27.17,,,280,12,,,29.940945,,,TRUE,,,,,,,,,,,,,,,,,,,,,,,,,,,,METAR,1039.0
FAMM 150000Z AUTO 04008KT //// // ////// 24/15 Q1016,FAMM,2019-01-15T00:00:00Z,-25.8,25.52,24.0,15.0,40,8,,,30.0,,,TRUE,,,,,,,,,,,,,,,,,,,,,,,,,,,,METAR,1277.0
FAHS 150000Z AUTO 14005KT //// // ////// 25/23 Q1012,FAHS,2019-01-15T00:00:00Z,-24.37,31.02,25.0,23.0,140,5,,,29.88189,,,TRUE,,,,,,,,,,,,,,,,,,,,,,,,,,,,METAR,500.0
FAGG 150000Z AUTO VRB01KT 9999 FEW021/// OVC028/// 19/15 Q1015,FAGG,2019-01-15T00:00:00Z,-34.0,22.37,19.0,15.0,0,1,,6.21,29.970472,,,TRUE,,,,,,,,FEW,2100,OVC,2800,,,,,MVFR,,,,,,,,,,,,METAR,193.0
FACT 150000Z 10002KT CAVOK 16/13 Q1015 NOSIG,FACT,2019-01-15T00:00:00Z,-33.97,18.6,16.0,13.0,100,2,,6.21,29.970472,,,,,,TRUE,,,,,CAVOK,,,,,,,,VFR,,,,,,,,,,,,METAR,42.0
UCFL 150000Z 35005MPS 9999 SCT150 M04/M09 Q1017 R07/CLRD95,UCFL,2019-01-15T00:00:00Z,42.58,76.7,-4.0,-9.0,350,10,,6.21,30.029528,,,,,,,,,,,SCT,15000,,,,,,,VFR,,,,,,,,,,,,METAR,1648.0
GMMB 150000Z AUTO 08004KT //// R32/1900N ////// 07/07 Q1022 NOSIG,GMMB,2019-01-15T00:00:00Z,33.65,-7.22,7.0,7.0,80,4,,1.18,30.177166,,,TRUE,,,TRUE,,,,,,,,,,,,,,,,,,,,,,,,,METAR,191.0
FAOR 150000Z 29012KT CAVOK 21/16 Q1019 NOSIG,FAOR,2019-01-15T00:00:00Z,-26.12,28.22,21.0,16.0,290,12,,6.21,30.088583,,,,,,TRUE,,,,,CAVOK,,,,,,,,VFR,,,,,,,,,,,,METAR,1700.0
FAKN 150000Z AUTO 08008KT //// // ////// 21/21 Q1016,FAKN,2019-01-15T00:00:00Z,-25.38,31.1,21.0,21.0,80,8,,,30.0,,,TRUE,,,,,,,,,,,,,,,,,,,,,,,,,,,,METAR,862.0
FAKM 150000Z AUTO 23007KT //// // ////// 24/M01 Q1014,FAKM,2019-01-15T00:00:00Z,-28.8,24.77,24.0,-1.0,230,7,,,29.940945,,,TRUE,,,,,,,,,,,,,,,,,,,,,,,,,,,,METAR,1192.0
SYEC 150000Z 02008KT 9999 SCT018 27/23 Q1014 NOSIG,SYEC,2019-01-15T00:00:00Z,6.8,-58.1,27.0,23.0,20,8,,6.21,29.940945,,,,,,TRUE,,,,,SCT,1800,,,,,,,VFR,,,,,,,,,,,,METAR,10.0
ZGOW 150000Z 00000MPS 2800 BR FEW005 BKN030 17/16 Q1020 BECMG TL0130 3000 BR,ZGOW,2019-01-15T00:00:00Z,23.55,116.5,17.0,16.0,0,0,,1.74,30.11811,,,,,,,,,,BR,FEW,500,BKN,3000,,,,,IFR,,,,,,,,,,,,METAR,3.0
ZGNN 150000Z 04002MPS 2100 -RA BR FEW002 SCT004 OVC020 12/12 Q1021 NOSIG,ZGNN,2019-01-15T00:00:00Z,22.62,108.17,12.0,12.0,40,4,,1.3,30.147638,,,,,,TRUE,,,,-RA BR,FEW,200,SCT,400,OVC,2000,,,IFR,,,,,,,,,,,,METAR,73.0
ZGKL 150000Z VRB01MPS 5000 BR SCT023 OVC040 07/06 Q1025 NOSIG,ZGKL,2019-01-15T00:00:00Z,25.22,110.03,7.0,6.0,0,2,,3.11,30.265747,,,,,,TRUE,,,,BR,SCT,2300,OVC,4000,,,,,MVFR,,,,,,,,,,,,METAR,166.0
FQTT 150000Z 07004KT 9999 SCT020 FEW025CB SCT100 25/24 Q1010 RMK CB TO NE/S,FQTT,2019-01-15T00:00:00Z,-16.1,33.62,25.0,24.0,70,4,,6.21,29.822834,,,,,,,,,,,SCT,2000,FEW,2500,SCT,10000,,,VFR,,,,,,,,,,,,METAR,160.0
FQQL 150000Z 06005KT 030V090 9999 BKN020 BKN100 25/24 Q1010,FQQL,2019-01-15T00:00:00Z,-17.87,36.87,25.0,24.0,60,5,,6.21,29.822834,,,,,,,,,,,BKN,2000,BKN,10000,,,,,MVFR,,,,,,,,,,,,METAR,16.0
DTTZ 150000Z 34005KT CAVOK 11/M03 Q1017 NOSIG,DTTZ,2019-01-15T00:00:00Z,33.92,8.08,11.0,-3.0,340,5,,6.21,30.029528,,,,,,TRUE,,,,,CAVOK,,,,,,,,VFR,,,,,,,,,,,,METAR,93.0
DTTX 150000Z 28004KT 250V320 CAVOK 14/04 Q1014 NOSIG,DTTX,2019-01-15T00:00:00Z,34.72,10.67,14.0,4.0,280,4,,6.21,29.940945,,,,,,TRUE,,,,,CAVOK,,,,,,,,VFR,,,,,,,,,,,,METAR,23.0
DTTG 150000Z 22010KT CAVOK 09/M03 Q1016 NOSIG,DTTG,2019-01-15T00:00:00Z,33.73,9.92,9.0,-3.0,220,10,,6.21,30.0,,,,,,TRUE,,,,,CAVOK,,,,,,,,VFR,,,,,,,,,,,,METAR,5.0
DTTF 150000Z 21003KT 160V270 CAVOK 08/02 Q1017 NOSIG,DTTF,2019-01-15T00:00:00Z,34.42,8.82,8.0,2.0,210,3,,6.21,30.029528,,,,,,TRUE,,,,,CAVOK,,,,,,,,VFR,,,,,,,,,,,,METAR,314.0
DTNH 150000Z 30023KT CAVOK 14/05 Q1013 NOSIG,DTNH,2019-01-15T00:00:00Z,36.07,10.43,14.0,5.0,300,23,,6.21,29.911417,,,,,,TRUE,,,,,CAVOK,,,,,,,,VFR,,,,,,,,,,,,METAR,2.0
DTMB 150000Z 30018KT 8000 NSC 14/07 Q1013,DTMB,2019-01-15T00:00:00Z,35.77,10.75,14.0,7.0,300,18,,4.97,29.911417,,,,,,,,,,,CLR,,,,,,,,MVFR,,,,,,,,,,,,METAR,2.0
DTKA 150000Z AUTO 29019G29KT /// 14/07 Q1016,DTKA,2019-01-15T00:00:00Z,36.98,8.88,14.0,7.0,290,19,29,,30.0,,,TRUE,,,,,,,,,,,,,,,,,,,,,,,,,,,,METAR,21.0
FLKK 150000Z 29004KT 9000 RA 19/19 Q1018,FLKK,2019-01-15T00:00:00Z,-15.32,28.45,19.0,19.0,290,4,,5.59,30.059055,,,,,,,,,,RA,,,,,,,,,,,,,,,,,,,,,METAR,1154.0
FAUP 150000Z 21002KT CAVOK 24/04 Q1014 NOSIG,FAUP,2019-01-15T00:00:00Z,-28.38,21.27,24.0,4.0,210,2,,6.21,29.940945,,,,,,TRUE,,,,,CAVOK,,,,,,,,VFR,,,,,,,,,,,,METAR,836.0
FAPE 150000Z 23007KT CAVOK 19/17 Q1014 NOSIG,FAPE,2019-01-15T00:00:00Z,-33.97,25.6,19.0,17.0,230,7,,6.21,29.940945,,,,,,TRUE,,,,,CAVOK,,,,,,,,VFR,,,,,,,,,,,,METAR,60.0
FVRG 150000Z VRB02KT CAVOK 19/18 Q1019,FVRG,2019-01-15T00:00:00Z,-17.93,31.1,19.0,18.0,0,2,,6.21,30.088583,,,,,,,,,,,CAVOK,,,,,,,,VFR,,,,,,,,,,,,METAR,1490.0
YCCY 150000Z AUTO 35010KT 9999 // SCT049 33/19 Q1011,YCCY,2019-01-15T00:00:00Z,-20.67,140.5,33.0,19.0,350,10,,6.21,29.852362,,,TRUE,,,,,,,,SCT,4900,,,,,,,VFR,,,,,,,,,,,,METAR,570.0
YCBP 150000Z AUTO 36019KT 9999 // NCD 41/// Q1009,YCBP,2019-01-15T00:00:00Z,-29.03,134.72,,,360,19,,6.21,29.793306,,,TRUE,,,,,,,,CLR,,,,,,,,VFR,,,,,,,,,,,,METAR,226.0
YCBB 150000Z AUTO 31013KT 9999 // NCD 32/10 Q1018,YCBB,2019-01-15T00:00:00Z,-31.33,149.27,32.0,10.0,310,13,,6.21,30.059055,,,TRUE,,,,,,,,CLR,,,,,,,,VFR,,,,,,,,,,,,METAR,645.0
YCBA 150000Z AUTO 32016KT 9999 // NCD 38/07 Q1013,YCBA,2019-01-15T00:00:00Z,-31.53,145.8,38.0,7.0,320,16,,6.21,29.911417,,,TRUE,,,,,,,,CLR,,,,,,,,VFR,,,,,,,,,,,,METAR,221.0
YCAS 150000Z AUTO 01005KT //// // ////// 31/18 Q1016,YCAS,2019-01-15T00:00:00Z,-28.88,153.07,31.0,18.0,10,5,,,30.0,,,TRUE,,,,,,,,,,,,,,,,,,,,,,,,,,,,METAR,26.0
YCAR 150000Z AUTO 18020KT 9999 // OVC020 23/19 Q1010,YCAR,2019-01-15T00:00:00Z,-24.88,113.67,23.0,19.0,180,20,,6.21,29.822834,,,TRUE,,,,,,,,OVC,2000,,,,,,,MVFR,,,,,,,,,,,,METAR,8.0
YBWX 150000Z AUTO 19013KT //// // ////// 30/23 Q1006,YBWX,2019-01-15T00:00:00Z,-20.88,115.4,30.0,23.0,190,13,,,29.704725,,,TRUE,,,,,,,,,,,,,,,,,,,,,,,,,,,,METAR,6.0
YBWP 150000Z AUTO 12005KT 9999 // NCD 30/23 Q1008,YBWP,2019-01-15T00:00:00Z,-12.68,141.92,30.0,23.0,120,5,,6.21,29.763779,,,TRUE,,,,,,,,CLR,,,,,,,,VFR,,,,,,,,,,,,METAR,12.0
YBUD 150000Z AUTO 09009KT 9999 // BKN032 OVC043 29/19 Q1015,YBUD,2019-01-15T00:00:00Z,-24.9,152.32,29.0,19.0,90,9,,6.21,29.970472,,,TRUE,,,,,,,,BKN,3200,OVC,4300,,,,,VFR,,,,,,,,,,,,METAR,82.0
UAOO 150000Z 23002MPS 5000 BR BKN023 02/M00 Q1007 NOSIG RMK QFE744/0992,UAOO,2019-01-15T00:00:00Z,44.7,65.6,2.0,0.0,230,4,,3.11,29.734253,,,,,,TRUE,,,,BR,BKN,2300,,,,,,,MVFR,,,,,,,,,,,,METAR,129.0
UTAT 150000Z 34010KT 9000 OVC027 02/01 Q1010 R08/19//60 NOSIG,UTAT,2019-01-15T00:00:00Z,41.77,59.83,2.0,1.0,340,10,,5.59,29.822834,,,,,,TRUE,,,,,OVC,2700,,,,,,,MVFR,,,,,,,,,,,,METAR,83.0
UTAM 150000Z 30010KT 6000 BKN230 09/03 Q1013 NOSIG,UTAM,2019-01-15T00:00:00Z,37.62,61.9,9.0,3.0,300,10,,3.73,29.911417,,,,,,TRUE,,,,,BKN,23000,,,,,,,MVFR,,,,,,,,,,,,METAR,222.0
UTAK 150000Z 13004KT 9999 OVC030 06/04 Q1012 R16R/CLRD70 NOSIG,UTAK,2019-01-15T00:00:00Z,40.05,53.0,6.0,4.0,130,4,,6.21,29.88189,,,,,,TRUE,,,,,OVC,3000,,,,,,,MVFR,,,,,,,,,,,,METAR,85.0
UTAA 150000Z 17006KT 9999 FEW035CB BKN035 OVC091 09/07 Q1012 R12L/290055 R12R/290050 NOSIG,UTAA,2019-01-15T00:00:00Z,37.98,58.37,9.0,7.0,170,6,,6.21,29.88189,,,,,,TRUE,,,,,FEW,3500,BKN,3500,OVC,9100,,,VFR,,,,,,,,,,,,METAR,210.0
ZGSZ 150000Z 00000MPS 1800 -SHRA BR SCT010 BKN023 18/17 Q1020 BECMG AT0140 3000,ZGSZ,2019-01-15T00:00:00Z,22.63,113.8,18.0,17.0,0,0,,1.12,30.11811,,,,,,,,,,-SHRA BR,SCT,1000,BKN,2300,,,,,IFR,,,,,,,,,,,,METAR,18.0
ZPPP 150000Z 05002MPS 330V080 9999 SCT020 BKN040 06/05 Q1021 NOSIG,ZPPP,2019-01-15T00:00:00Z,25.0,102.75,6.0,5.0,50,4,,6.21,30.147638,,,,,,TRUE,,,,,SCT,2000,BKN,4000,,,,,VFR,,,,,,,,,,,,METAR,1892.0
ZLXY 150000Z 09005MPS CAVOK 01/M14 Q1036 NOSIG,ZLXY,2019-01-15T00:00:00Z,34.43,108.75,1.0,-14.0,90,10,,6.21,30.590551,,,,,,TRUE,,,,,CAVOK,,,,,,,,VFR,,,,,,,,,,,,METAR,479.0
ZSFZ 150000Z VRB01MPS 6000 OVC027 15/12 Q1021 NOSIG,ZSFZ,2019-01-15T00:00:00Z,25.93,119.67,15.0,12.0,0,2,,3.73,30.147638,,,,,,TRUE,,,,,OVC,2700,,,,,,,MVFR,,,,,,,,,,,,METAR,85.0
ZSAM 150000Z VRB01MPS 6000 -RA BKN020 OVC040 16/16 Q1021 NOSIG,ZSAM,2019-01-15T00:00:00Z,24.53,118.13,16.0,16.0,0,2,,3.73,30.147638,,,,,,TRUE,,,,-RA,BKN,2000,OVC,4000,,,,,MVFR,,,,,,,,,,,,METAR,18.0
ZUUU 150000Z 00000MPS 7000 NSC 06/03 Q1027 NOSIG,ZUUU,2019-01-15T00:00:00Z,30.58,103.95,6.0,3.0,0,0,,4.35,30.324802,,,,,,TRUE,,,,,CLR,,,,,,,,MVFR,,,,,,,,,,,,METAR,508.0
ZUGY 150000Z 01003MPS 8000 FEW009 BKN015 OVC023 04/02 Q1024 NOSIG,ZUGY,2019-01-15T00:00:00Z,26.53,106.8,4.0,2.0,10,6,,4.97,30.236221,,,,,,TRUE,,,,,FEW,900,BKN,1500,OVC,2300,,,MVFR,,,,,,,,,,,,METAR,1074.0
ZSQD 150000Z 01008MPS 4000 BR FEW026 M00/M04 Q1031 NOSIG,ZSQD,2019-01-15T00:00:00Z,36.27,120.38,0.0,-4.0,10,16,,2.49,30.442913,,,,,,TRUE,,,,BR,FEW,2600,,,,,,,IFR,,,,,,,,,,,,METAR,77.0
ZSNB 150000Z 01003MPS 350V050 1800 -RA BR SCT005 BKN016 OVC040 08/08 Q1026 BECMG TL0150 3000,ZSNB,2019-01-15T00:00:00Z,29.83,121.47,8.0,8.0,10,6,,1.12,30.295275,,,,,,,,,,-RA BR,SCT,500,BKN,1600,OVC,4000,,,IFR,,,,,,,,,,,,METAR,4.0
WAQQ 150000Z 33002KT 8000 BKN015 26/24 Q1010,WAQQ,2019-01-15T00:00:00Z,3.33,117.57,26.0,24.0,330,2,,4.97,29.822834,,,,,,,,,,,BKN,1500,,,,,,,MVFR,,,,,,,,,,,,METAR,0.0
WAOO 150000Z 15002KT 9999 SCT018 25/24 Q1009,WAOO,2019-01-15T00:00:00Z,-3.45,114.77,25.0,24.0,150,2,,6.21,29.793306,,,,,,,,,,,SCT,1800,,,,,,,VFR,,,,,,,,,,,,METAR,20.0
MNMG 150000Z 07010KT 9999 FEW027 29/18 Q1011 A2986 NOSIG,MNMG,2019-01-15T00:00:00Z,12.15,-86.17,29.0,18.0,70,10,,6.21,29.852362,,,,,,TRUE,,,,,FEW,2700,,,,,,,VFR,,,,,,,,,,,,METAR,59.0
DAAS 150000Z 12003KT CAVOK 02/M02 Q1020,DAAS,2019-01-15T00:00:00Z,36.18,5.33,2.0,-2.0,120,3,,6.21,30.11811,,,,,,,,,,,CAVOK,,,,,,,,VFR,,,,,,,,,,,,METAR,1038.0
DAUB 150000Z 15005KT CAVOK 13/01 Q1017,DAUB,2019-01-15T00:00:00Z,34.78,5.72,13.0,1.0,150,5,,6.21,30.029528,,,,,,,,,,,CAVOK,,,,,,,,VFR,,,,,,,,,,,,METAR,87.0
DAOB 150000Z 22008KT CAVOK M00/M05 Q1020,DAOB,2019-01-15T00:00:00Z,35.33,1.47,0.0,-5.0,220,8,,6.21,30.11811,,,,,,,,,,,CAVOK,,,,,,,,VFR,,,,,,,,,,,,METAR,989.0
DABS 150000Z 27010KT 9999 SCT033 08/03 Q1018,DABS,2019-01-15T00:00:00Z,35.43,8.12,8.0,3.0,270,10,,6.21,30.059055,,,,,,,,,,,SCT,3300,,,,,,,VFR,,,,,,,,,,,,METAR,813.0
DAOI 150000Z 05009KT CAVOK 06/01 Q1020,DAOI,2019-01-15T00:00:00Z,36.22,1.32,6.0,1.0,50,9,,6.21,30.11811,,,,,,,,,,,CAVOK,,,,,,,,VFR,,,,,,,,,,,,METAR,143.0
DAUG 150000Z 00000KT CAVOK 11/M11 Q1019,DAUG,2019-01-15T00:00:00Z,32.37,3.82,11.0,-11.0,0,0,,6.21,30.088583,,,,,,,,,,,CAVOK,,,,,,,,VFR,,,,,,,,,,,,METAR,450.0
TDPD 150000Z 29003KT 9999 SCT017 22/20 Q1017,TDPD,2019-01-15T00:00:00Z,15.55,-61.3,22.0,20.0,290,3,,6.21,30.029528,,,,,,,,,,,SCT,1700,,,,,,,VFR,,,,,,,,,,,,METAR,14.0
SACO 150000Z 16006KT 7000 -RA FEW015 SCT025 BKN050 21/19 Q1014 BCMG 2500 -RA BR SCT010 BKN020,SACO,2019-01-15T00:00:00Z,-31.32,-64.22,21.0,19.0,160,6,,4.35,29.940945,,,,,,,,,,-RA -RA BR,FEW,1500,SCT,2500,BKN,5000,SCT,1000,MVFR,,,,,,,,,,,,METAR,474.0
GOTT 150000Z 02006KT CAVOK 25/03 Q1012,GOTT,2019-01-15T00:00:00Z,13.73,-13.65,25.0,3.0,20,6,,6.21,29.88189,,,,,,,,,,,CAVOK,,,,,,,,VFR,,,,,,,,,,,,METAR,50.0
GOSS 150000Z 36006KT CAVOK 20/15 Q1014,GOSS,2019-01-15T00:00:00Z,16.05,-16.43,20.0,15.0,360,6,,6.21,29.940945,,,,,,,,,,,CAVOK,,,,,,,,VFR,,,,,,,,,,,,METAR,4.0
GOOK 150000Z 04008KT CAVOK 26/14 Q1013,GOOK,2019-01-15T00:00:00Z,14.15,-16.07,26.0,14.0,40,8,,6.21,29.911417,,,,,,,,,,,CAVOK,,,,,,,,VFR,,,,,,,,,,,,METAR,7.0
GOGS 150000Z VRB02KT CAVOK 21/18 Q1013,GOGS,2019-01-15T00:00:00Z,12.4,-16.75,21.0,18.0,0,2,,6.21,29.911417,,,,,,,,,,,CAVOK,,,,,,,,VFR,,,,,,,,,,,,METAR,13.0
GOOY 150000Z 36008KT 8000 NSC 21/19 Q1014,GOOY,2019-01-15T00:00:00Z,14.72,-17.5,21.0,19.0,360,8,,4.97,29.940945,,,,,,,,,,,CLR,,,,,,,,MVFR,,,,,,,,,,,,METAR,24.0
GANR 150000Z 08004KT CAVOK 21/M05 Q1016,GANR,2019-01-15T00:00:00Z,15.23,-9.58,21.0,-5.0,80,4,,6.21,30.0,,,,,,,,,,,CAVOK,,,,,,,,VFR,,,,,,,,,,,,METAR,237.0
GOGG 150000Z 00000KT CAVOK 22/16 Q1013,GOGG,2019-01-15T00:00:00Z,12.55,-16.27,22.0,16.0,0,0,,6.21,29.911417,,,,,,,,,,,CAVOK,,,,,,,,VFR,,,,,,,,,,,,METAR,23.0
EIME 150000Z 23013KT 9999 FEW010 BKN016 BKN040 08/07 Q1021 RERADZ,EIME,2019-01-15T00:00:00Z,53.3,-6.45,8.0,7.0,230,13,,6.21,30.147638,,,,,,,,,,,FEW,1000,BKN,1600,BKN,4000,,,MVFR,,,,,,,,,,,,METAR,93.0
UTAV 150000Z 27008KT 1400 R13/P2000 N HZ OVC018 11/M02 Q1010 NOSIG,UTAV,2019-01-15T00:00:00Z,39.08,63.62,11.0,-2.0,270,8,,0.87,29.822834,,,,,,TRUE,,,,HZ,OVC,1800,,,,,,,LIFR,,,,,,,,,,,,METAR,192.0
FAVV 150000Z AUTO 33008KT //// // ////// 22/17 Q1016,FAVV,2019-01-15T00:00:00Z,-26.57,27.97,22.0,17.0,330,8,,,30.0,,,TRUE,,,,,,,,,,,,,,,,,,,,,,,,,,,,METAR,1483.0
FAJB 150000Z AUTO 00000KT //// // ////// 20/18 Q1018,FAJB,2019-01-15T00:00:00Z,-26.15,28.0,20.0,18.0,0,0,,,30.059055,,,TRUE,,,,,,,,,,,,,,,,,,,,,,,,,,,,METAR,1626.0
TLPL 150000Z 07014KT 9999 FEW026 26/21 Q1016,TLPL,2019-01-15T00:00:00Z,13.75,-60.95,26.0,21.0,70,14,,6.21,30.0,,,,,,,,,,,FEW,2600,,,,,,,VFR,,,,,,,,,,,,METAR,3.0
SLVR 150000Z 32004KT 9999 FEW017 SCT200 26/24 Q1011,SLVR,2019-01-15T00:00:00Z,-17.63,-63.12,26.0,24.0,320,4,,6.21,29.852362,,,,,,,,,,,FEW,1700,SCT,20000,,,,,VFR,,,,,,,,,,,,METAR,373.0
SLTJ 150000Z 00000KT 9999 BKN027 BKN200 21/18 Q1016,SLTJ,2019-01-15T00:00:00Z,-21.55,-64.72,21.0,18.0,0,0,,6.21,30.0,,,,,,,,,,,BKN,2700,BKN,20000,,,,,MVFR,,,,,,,,,,,,METAR,1858.0
SLLP 150000Z 09011KT 9999 FEW015 FEW017CB BKN200 10/04Q1036,SLLP,2019-01-15T00:00:00Z,-16.52,-68.17,,,90,11,,6.21,30.590551,,,,,,,,,,,FEW,1500,FEW,1700,BKN,20000,,,VFR,,,,,,,,,,,,SPECI,4014.0
SLCB 150000Z 15003KT 9999 SCT030 BKN080 21/08 Q1021,SLCB,2019-01-15T00:00:00Z,-17.42,-66.18,21.0,8.0,150,3,,6.21,30.147638,,,,,,,,,,,SCT,3000,BKN,8000,,,,,VFR,,,,,,,,,,,,METAR,2548.0
SGAS 150000Z 05003KT 9000 NSC 29/24 Q1009,SGAS,2019-01-15T00:00:00Z,-25.25,-57.52,29.0,24.0,50,3,,5.59,29.793306,,,,,,,,,,,CLR,,,,,,,,VFR,,,,,,,,,,,,METAR,101.0
SYCJ 150000Z 02004KT 9999 SCT018 25/21 Q1014 NOSIG,SYCJ,2019-01-15T00:00:00Z,6.5,-58.25,25.0,21.0,20,4,,6.21,29.940945,,,,,,TRUE,,,,,SCT,1800,,,,,,,VFR,,,,,,,,,,,,METAR,30.0
TNCC 150000Z AUTO 10010KT 9999 NSC 26/20 Q1014 NOSIG ,TNCC,2019-01-15T00:00:00Z,12.2,-68.97,26.0,20.0,100,10,,6.21,29.940945,,,TRUE,,,TRUE,,,,,CLR,,,,,,,,VFR,,,,,,,,,,,,METAR,9.0
DAUZ 150000Z 24005KT CAVOK 03/M12 Q1020,DAUZ,2019-01-15T00:00:00Z,28.05,9.62,3.0,-12.0,240,5,,6.21,30.11811,,,,,,,,,,,CAVOK,,,,,,,,VFR,,,,,,,,,,,,METAR,562.0
DABT 150000Z 18003KT CAVOK M02/M05 Q1020,DABT,2019-01-15T00:00:00Z,35.75,6.32,-2.0,-5.0,180,3,,6.21,30.11811,,,,,,,,,,,CAVOK,,,,,,,,VFR,,,,,,,,,,,,METAR,823.0
DAAV 150000Z 21004KT 9999 SCT020 BKN030 12/10 Q1019,DAAV,2019-01-15T00:00:00Z,36.8,5.88,12.0,10.0,210,4,,6.21,30.088583,,,,,,,,,,,SCT,2000,BKN,3000,,,,,MVFR,,,,,,,,,,,,METAR,11.0
DAAJ 150000Z VRB01KT CAVOK 01/M12 Q1021,DAAJ,2019-01-15T00:00:00Z,24.28,9.47,1.0,-12.0,0,1,,6.21,30.147638,,,,,,,,,,,CAVOK,,,,,,,,VFR,,,,,,,,,,,,METAR,968.0
DAAE 150000Z 24008KT 9999 FEW020 06/05 Q1020,DAAE,2019-01-15T00:00:00Z,36.72,5.07,6.0,5.0,240,8,,6.21,30.11811,,,,,,,,,,,FEW,2000,,,,,,,VFR,,,,,,,,,,,,METAR,2.0
SBSG 150000Z 19004KT 9999 FEW015 SCT020 26/24 Q1014,SBSG,2019-01-15T00:00:00Z,-5.77,-35.37,26.0,24.0,190,4,,6.21,29.940945,,,,,,,,,,,FEW,1500,SCT,2000,,,,,VFR,,,,,,,,,,,,SPECI,83.0
SBBE 150000Z 08004KT 9999 VCTS FEW033 FEW034CB SCT070 26/24 Q10 13,SBBE,2019-01-15T00:00:00Z,-1.37,-48.47,26.0,24.0,80,4,,6.21,,,,,,,,,,,VCTS,FEW,3300,FEW,3400,SCT,7000,,,VFR,,,,,,,,,,,,SPECI,16.0
SARL 150000Z 18007KT 9999 FEW015 FEW045CB BKN100 BKN200 25/24 Q1011,SARL,2019-01-15T00:00:00Z,-29.67,-57.13,25.0,24.0,180,7,,6.21,29.852362,,,,,,,,,,,FEW,1500,FEW,4500,BKN,10000,BKN,20000,VFR,,,,,,,,,,,,METAR,70.0
SARI 150000Z 05007KT 6000 -TSRA SCT025 OVC040 FEW050CB 23/22 Q1014,SARI,2019-01-15T00:00:00Z,-25.72,-54.47,23.0,22.0,50,7,,3.73,29.940945,,,,,,,,,,-TSRA,SCT,2500,OVC,4000,FEW,5000,,,MVFR,,,,,,,,,,,,METAR,270.0
SARF 150000Z 14006KT 9999 FEW025 BKN100 OVC200 29/27 Q1009,SARF,2019-01-15T00:00:00Z,-26.22,-58.22,29.0,27.0,140,6,,6.21,29.793306,,,,,,,,,,,FEW,2500,BKN,10000,OVC,20000,,,VFR,,,,,,,,,,,,METAR,60.0
SARC 150000Z 14004KT CAVOK 25/24 Q1009,SARC,2019-01-15T00:00:00Z,-27.43,-58.77,25.0,24.0,140,4,,6.21,29.793306,,,,,,,,,,,CAVOK,,,,,,,,VFR,,,,,,,,,,,,METAR,62.0
VLSK 150000Z 04002KT 3000 BR SCT040 SCT100 19/18 Q1017 NOSIG,VLSK,2019-01-15T00:00:00Z,16.55,104.75,19.0,18.0,40,2,,1.86,30.029528,,,,,,TRUE,,,,BR,SCT,4000,SCT,10000,,,,,IFR,,,,,,,,,,,,METAR,155.0
VLPS 150000Z 04002KT 9999 FEW050 SCT200 21/18 Q1013 NOSIG,VLPS,2019-01-15T00:00:00Z,15.13,105.78,21.0,18.0,40,2,,6.21,29.911417,,,,,,TRUE,,,,,FEW,5000,SCT,20000,,,,,VFR,,,,,,,,,,,,METAR,107.0
VLLN 150000Z 00000KT 0200 FG VV/// 16/16 Q1015 NOSIG,VLLN,2019-01-15T00:00:00Z,20.97,101.4,16.0,16.0,0,0,,0.12,29.970472,,,,,,TRUE,,,,FG,OVX,0,,,,,,,LIFR,,,,,,,,,,,,METAR,600.0
VLLB 150000Z 04004KT 3000 BR OVC006 19/18 Q1014 NOSIG,VLLB,2019-01-15T00:00:00Z,19.9,102.17,19.0,18.0,40,4,,1.86,29.940945,,,,,,TRUE,,,,BR,OVC,600,,,,,,,IFR,,,,,,,,,,,,METAR,291.0
VOBM 150000Z 00000KT 8000 NSC 14/09 Q1018,VOBM,2019-01-15T00:00:00Z,15.85,74.62,14.0,9.0,0,0,,4.97,30.059055,,,,,,,,,,,CLR,,,,,,,,MVFR,,,,,,,,,,,,METAR,758.0
VEAT 150000Z 00000KT 1500 BR NSC 10/09 Q1015 NOSIG,VEAT,2019-01-15T00:00:00Z,23.87,91.25,10.0,9.0,0,0,,0.93,29.970472,,,,,,TRUE,,,,BR,CLR,,,,,,,,LIFR,,,,,,,,,,,,METAR,16.0
DTTR 150000Z AUTO 20004KT NCD 05/M04 Q1019,DTTR,2019-01-15T00:00:00Z,31.7,9.27,5.0,-4.0,200,4,,,30.088583,,,TRUE,,,,,,,,CLR,,,,,,,,,,,,,,,,,,,,METAR,259.0
DTTN 150000Z 30013KT 270V340 8000 SCT020 SCT030 13/07 Q1016,DTTN,2019-01-15T00:00:00Z,36.47,8.8,13.0,7.0,300,13,,4.97,30.0,,,,,,,,,,,SCT,2000,SCT,3000,,,,,MVFR,,,,,,,,,,,,METAR,144.0
DTTL 150000Z AUTO VRB12G24KT NCD 14/09 Q1012,DTTL,2019-01-15T00:00:00Z,36.85,11.07,14.0,9.0,0,12,24,,29.88189,,,TRUE,,,,,,,,CLR,,,,,,,,,,,,,,,,,,,,METAR,30.0
DTTK 150000Z 34009KT 9999 FEW023 14/05 Q1014,DTTK,2019-01-15T00:00:00Z,35.67,10.08,14.0,5.0,340,9,,6.21,29.940945,,,,,,,,,,,FEW,2300,,,,,,,VFR,,,,,,,,,,,,METAR,68.0
DTTD 150000Z AUTO 29011KT NCD 09/M05 Q1017,DTTD,2019-01-15T00:00:00Z,32.32,10.4,9.0,-5.0,290,11,,,30.029528,,,TRUE,,,,,,,,CLR,,,,,,,,,,,,,,,,,,,,METAR,301.0
OITP 150000Z 28006KT CAVOK M01/M02 Q1011,OITP,2019-01-15T00:00:00Z,39.6,47.88,-1.0,-2.0,280,6,,6.21,29.852362,,,,,,,,,,,CAVOK,,,,,,,,VFR,,,,,,,,,,,,METAR,77.0
OISF 150000Z 00000KT CAVOK 05/M01 Q1021,OISF,2019-01-15T00:00:00Z,28.9,53.72,5.0,-1.0,0,0,,6.21,30.147638,,,,,,,,,,,CAVOK,,,,,,,,VFR,,,,,,,,,,,,METAR,1383.0
CWDZ 150000Z AUTO 00000KT M04/M08 RMK AO1 T10391079,CWDZ,2019-01-15T00:00:00Z,51.42,-112.67,-3.9,-7.9,0,0,,,,,,TRUE,TRUE,,,,,,,,,,,,,,,,,,,,,,,,,,,METAR,678.0
VTSG 150000Z 03003KT 360V060 5000 BR FEW020 23/22 Q1011 NOSIG,VTSG,2019-01-15T00:00:00Z,8.1,98.98,23.0,22.0,30,3,,3.11,29.852362,,,,,,TRUE,,,,BR,FEW,2000,,,,,,,MVFR,,,,,,,,,,,,METAR,25.0
ZBHH 150000Z 08003MPS 040V110 CAVOK M21/M29 Q1036 NOSIG,ZBHH,2019-01-15T00:00:00Z,40.85,111.82,-21.0,-29.0,80,6,,6.21,30.590551,,,,,,TRUE,,,,,CAVOK,,,,,,,,VFR,,,,,,,,,,,,METAR,1065.0
ZGHA 150000Z 36004MPS 1600 BR BKN006 OVC050 05/05 Q1028 BECMG TL0100 1200,ZGHA,2019-01-15T00:00:00Z,28.18,113.22,5.0,5.0,360,8,,0.99,30.35433,,,,,,,,,,BR,BKN,600,OVC,5000,,,,,LIFR,,,,,,,,,,,,METAR,66.0
SBIL 150000Z 14005KT 9999 FEW025 SCT070 27/24 Q1015,SBIL,2019-01-15T00:00:00Z,-14.8,-39.02,27.0,24.0,140,5,,6.21,29.970472,,,,,,,,,,,FEW,2500,SCT,7000,,,,,VFR,,,,,,,,,,,,METAR,5.0
LBPL 150000Z 26010KT 9999 FEW100 03/M02 Q1002,LBPL,2019-01-15T00:00:00Z,43.45,24.5,3.0,-2.0,260,10,,6.21,29.586615,,,,,,,,,,,FEW,10000,,,,,,,VFR,,,,,,,,,,,,METAR,101.0
LBPG 150000Z 27016KT 9999 BKN100 03/M03 Q1002,LBPG,2019-01-15T00:00:00Z,42.28,24.72,3.0,-3.0,270,16,,6.21,29.586615,,,,,,,,,,,BKN,10000,,,,,,,VFR,,,,,,,,,,,,METAR,58.0
UUBC 150000Z AUTO 16006MPS 5000 // ///009/// M01/M03 Q0987 RMK QFE722/0963,UUBC,2019-01-15T00:00:00Z,54.55,36.37,-1.0,-3.0,160,12,,3.11,29.143702,,,TRUE,,,,,,,,,,,,,,,,,,,,,,,,,,,,METAR,199.0
VTSH 150000Z 00000KT 6000 SCT020 25/24 Q1009 NOSIG,VTSH,2019-01-15T00:00:00Z,7.2,100.58,25.0,24.0,0,0,,3.73,29.793306,,,,,,TRUE,,,,,SCT,2000,,,,,,,MVFR,,,,,,,,,,,,METAR,5.0
SBMA 150000Z 17002KT CAVOK 25/24 Q1013,SBMA,2019-01-15T00:00:00Z,-5.37,-49.13,25.0,24.0,170,2,,6.21,29.911417,,,,,,,,,,,CAVOK,,,,,,,,VFR,,,,,,,,,,,,METAR,102.0
SBVT 150000Z 03013KT 9999 BKN040 28/23 Q1016,SBVT,2019-01-15T00:00:00Z,-20.27,-40.27,28.0,23.0,30,13,,6.21,30.0,,,,,,,,,,,BKN,4000,,,,,,,VFR,,,,,,,,,,,,METAR,4.0
SBRP 150000Z 30002KT CAVOK 28/20 Q1015,SBRP,2019-01-15T00:00:00Z,-21.12,-47.77,28.0,20.0,300,2,,6.21,29.970472,,,,,,,,,,,CAVOK,,,,,,,,VFR,,,,,,,,,,,,METAR,549.0
CWJC 150000Z AUTO 35008KT M37/M40 RMK AO1 SLP302 T13681404 53001,CWJC,2019-01-15T00:00:00Z,61.13,-100.9,-36.8,-40.4,350,8,,,,1030.2,,TRUE,TRUE,,,,,,,,,,,,,,,,0.1,,,,,,,,,,,METAR,357.0
CWJB 150000Z AUTO 22003KT M12/M16 RMK AO1 SOG 52 T11231156,CWJB,2019-01-15T00:00:00Z,46.78,-71.27,-12.3,-15.6,220,3,,,,,,TRUE,TRUE,,,,,,,,,,,,,,,,,,,,,,,,,,,METAR,91.0
CWIZ 150000Z AUTO 22002KT M13/M16 RMK AO1 SOG 10 T11291162,CWIZ,2019-01-15T00:00:00Z,45.28,-73.33,-12.9,-16.2,220,2,,,,,,TRUE,TRUE,,,,,,,,,,,,,,,,,,,,,,,,,,,METAR,45.0
CWIW 150000Z AUTO 20008KT M08/M09 RMK AO1 SOG 05 8023 SLP178 T10751087,CWIW,2019-01-15T00:00:00Z,51.67,-105.4,-7.5,-8.7,200,8,,,,1017.8,,TRUE,TRUE,,,,,,,,,,,,,,,,,,,,,,,,,,,METAR,526.0
CWIT 150000Z AUTO 00000KT M13/M15 RMK AO1 SOG 11 7008 SLP223 T11251154,CWIT,2019-01-15T00:00:00Z,45.17,-73.67,-12.5,-15.4,0,0,,,,1022.3,,TRUE,TRUE,,,,,,,,,,,,,,,,,,,,,,,,,,,METAR,52.0
CWIP 150000Z AUTO 28006KT M10/ RMK AO1 T1097,CWIP,2019-01-15T00:00:00Z,50.17,-66.43,-9.7,,280,6,,,,,,TRUE,TRUE,,,,,,,,,,,,,,,,,,,,,,,,,,,METAR,25.0
CWIJ 150000Z AUTO 27002KT M39/M43 RMK AO1 SOG 60 2006 SLP384 T13891426,CWIJ,2019-01-15T00:00:00Z,65.77,-111.23,-38.9,-42.6,270,2,,,,1038.4,,TRUE,TRUE,,,,,,,,,,,,,,,,,,,,,,,,,,,METAR,500.0
CWII 150000Z AUTO 18007KT M10/M11 RMK AO1 PRESFR SLP228 T10991114 58037,CWII,2019-01-15T00:00:00Z,50.7,-96.57,-9.9,-11.4,180,7,,,,1022.8,,TRUE,TRUE,,,,,,,,,,,,,,,,-3.7,,,,,,,,,,,METAR,220.0
CWID 150000Z AUTO 36002KT M28/M31 RMK AO1 SLP350 T12761311 51021,CWID,2019-01-15T00:00:00Z,61.32,-117.6,-27.6,-31.1,360,2,,,,1035.0,,TRUE,TRUE,,,,,,,,,,,,,,,,2.1,,,,,,,,,,,METAR,161.0
CWHV 150000Z AUTO 35002KT M12/M15 RMK AO1 SLP206 T11231146 56011,CWHV,2019-01-15T00:00:00Z,46.2,-70.77,-12.3,-14.6,350,2,,,,1020.6,,TRUE,TRUE,,,,,,,,,,,,,,,,-1.1,,,,,,,,,,,METAR,229.0
CWHT 150000Z AUTO 00000KT M16/M18 RMK AO1 SOG 07 6004 SLP263 T11631181,CWHT,2019-01-15T00:00:00Z,60.77,-137.58,-16.3,-18.1,0,0,,,,1026.3,,TRUE,TRUE,,,,,,,,,,,,,,,,,,,,,,,,,,,METAR,599.0
CWHQ 150000Z AUTO 00000KT M14/ RMK AO1 T1141,CWHQ,2019-01-15T00:00:00Z,46.68,-71.97,-14.1,,0,0,,,,,,TRUE,TRUE,,,,,,,,,,,,,,,,,,,,,,,,,,,METAR,55.0
CWHL 150000Z AUTO 07001KT 08/05 RMK AO1 T00760052,CWHL,2019-01-15T00:00:00Z,54.17,-130.35,7.6,5.2,70,1,,,,,,TRUE,TRUE,,,,,,,,,,,,,,,,,,,,,,,,,,,METAR,5.0
CWHI 150000Z AUTO 28006KT M02/M07 RMK AO1 T10221067,CWHI,2019-01-15T00:00:00Z,51.7,-113.22,-2.2,-6.7,280,6,,,,,,TRUE,TRUE,,,,,,,,,,,,,,,,,,,,,,,,,,,METAR,907.0
CWGY 150000Z AUTO M04/M07 RMK AO1 SLP208 T10361073 55007,CWGY,2019-01-15T00:00:00Z,51.67,-110.2,-3.6,-7.3,,,,,,1020.8,,TRUE,TRUE,,,,,,,,,,,,,,,,-0.7,,,,,,,,,,,METAR,707.0
CWGX 150000Z AUTO 29001KT M24/M28 RMK AO1 SOG 16 8021 SLP243 T12381278,CWGX,2019-01-15T00:00:00Z,56.35,-94.7,-23.8,-27.8,290,1,,,,1024.3,,TRUE,TRUE,,,,,,,,,,,,,,,,,,,,,,,,,,,METAR,145.0
CWGW 150000Z AUTO 26001KT M07/M09 RMK AO1 SOG 12 6006 SLP304 T10711089,CWGW,2019-01-15T00:00:00Z,49.75,-114.9,-7.1,-8.9,260,1,,,,1030.4,,TRUE,TRUE,,,,,,,,,,,,,,,,,,,,,,,,,,,METAR,1137.0
CWGT 150000Z AUTO 28002KT 04/04 RMK AO1 SLP159 T00390038 56014,CWGT,2019-01-15T00:00:00Z,49.48,-124.43,3.9,3.8,280,2,,,,1015.9,,TRUE,TRUE,,,,,,,,,,,,,,,,-1.4,,,,,,,,,,,METAR,5.0
CWGR 150000Z AUTO 20005KT M08/M10 RMK AO1 SLP197 T10781103 58007,CWGR,2019-01-15T00:00:00Z,47.42,-61.8,-7.8,-10.3,200,5,,,,1019.7,,TRUE,TRUE,,,,,,,,,,,,,,,,-0.7,,,,,,,,,,,METAR,60.0
CWZW 150000Z AUTO 11001KT M06/M07 RMK AO1 SOG 27 6004 SLP243 T10551069,CWZW,2019-01-15T00:00:00Z,60.17,-132.73,-5.5,-6.9,110,1,,,,1024.3,,TRUE,TRUE,,,,,,,,,,,,,,,,,,,,,,,,,,,METAR,705.0
CWZG 150000Z AUTO 24006KT M03/M08 RMK AO1 SOG 20 6004 SLP255 T10251083,CWZG,2019-01-15T00:00:00Z,51.2,-115.53,-2.5,-8.3,240,6,,,,1025.5,,TRUE,TRUE,,,,,,,,,,,,,,,,,,,,,,,,,,,METAR,1397.0
CWJD 150000Z AUTO 14002KT M14/M16 RMK AO1 3PAST HR SOG 31 6060 SLP185 P0005 T11381155 50028,CWJD,2019-01-15T00:00:00Z,53.17,-99.27,-13.8,-15.5,140,2,,,,1018.5,,TRUE,TRUE,,,,,,,,,,,,,,,,2.8,,,,,0.05,,,,,,METAR,223.0
CWEQ 150000Z AUTO 23001KT M08/M09 RMK AO1 SOG 13 8051 SLP166 T10821094,CWEQ,2019-01-15T00:00:00Z,52.12,-101.22,-8.2,-9.4,230,1,,,,1016.6,,TRUE,TRUE,,,,,,,,,,,,,,,,,,,,,,,,,,,METAR,335.0
CWEH 150000Z AUTO 29007KT M03/M07 RMK AO1 SLP196 T10331074 56010,CWEH,2019-01-15T00:00:00Z,49.42,-108.97,-3.3,-7.4,290,7,,,,1019.6,,TRUE,TRUE,,,,,,,,,,,,,,,,-1.0,,,,,,,,,,,METAR,1078.0
CWDC 150000Z AUTO 04009KT M23/M27 RMK AO1 2PAST HR SOG 35 3037 SLP263 P0001 T12311268 50025,CWDC,2019-01-15T00:00:00Z,59.57,-108.47,-23.1,-26.8,40,9,,,,1026.3,,TRUE,TRUE,,,,,,,,,,,,,,,,2.5,,,,,0.01,,,,,,METAR,318.0
CWLB 150000Z AUTO 29009KT 01/M01 RMK AO1 SOG 22 3012 SLP171 T00111013 50005,CWLB,2019-01-15T00:00:00Z,54.77,-112.02,1.1,-1.3,290,9,,,,1017.1,,TRUE,TRUE,,,,,,,,,,,,,,,,0.5,,,,,,,,,,,METAR,567.0
CXVW 150000Z AUTO 25007KT M02/M04 RMK AO1 T10171037,CXVW,2019-01-15T00:00:00Z,55.1,-117.2,-1.7,-3.7,250,7,,,,,,TRUE,TRUE,,,,,,,,,,,,,,,,,,,,,,,,,,,METAR,698.0
CXTH 150000Z AUTO 28013KT M05/M07 RMK AO1 T10511066,CXTH,2019-01-15T00:00:00Z,53.63,-111.68,-5.1,-6.6,280,13,,,,,,TRUE,TRUE,,,,,,,,,,,,,,,,,,,,,,,,,,,METAR,678.0
CXSP 150000Z AUTO 25010KT M02/M05 RMK AO1 T10241053 50005,CXSP,2019-01-15T00:00:00Z,54.02,-111.27,-2.4,-5.3,250,10,,,,,,TRUE,TRUE,,,,,,,,,,,,,,,,0.5,,,,,,,,,,,METAR,649.0
CXSL 150000Z AUTO 27005KT M02/M04 RMK AO1 T10161042,CXSL,2019-01-15T00:00:00Z,54.28,-112.5,-1.6,-4.2,270,5,,,,,,TRUE,TRUE,,,,,,,,,,,,,,,,,,,,,,,,,,,METAR,680.0
CXSC 150000Z AUTO 29012KT M00/M07 RMK AO1 T10031070,CXSC,2019-01-15T00:00:00Z,50.3,-110.08,-0.3,-7.0,290,12,,,,,,TRUE,TRUE,,,,,,,,,,,,,,,,,,,,,,,,,,,METAR,800.0
CXPL 150000Z AUTO 27006KT M05/M07 RMK AO1 T10491069,CXPL,2019-01-15T00:00:00Z,51.13,-111.7,-4.9,-6.9,270,6,,,,,,TRUE,TRUE,,,,,,,,,,,,,,,,,,,,,,,,,,,METAR,750.0
CXMG 150000Z AUTO 03004KT M13/M14 RMK AO1 T11301135,CXMG,2019-01-15T00:00:00Z,56.97,-117.45,-13.0,-13.5,30,4,,,,,,TRUE,TRUE,,,,,,,,,,,,,,,,,,,,,,,,,,,METAR,457.0
CXHP 150000Z AUTO 27006KT 01/M02 RMK AO1 T00051018,CXHP,2019-01-15T00:00:00Z,55.4,-116.48,0.5,-1.8,270,6,,,,,,TRUE,TRUE,,,,,,,,,,,,,,,,,,,,,,,,,,,METAR,602.0
CXHD 150000Z AUTO 27008KT M01/M05 RMK AO1 T10051053,CXHD,2019-01-15T00:00:00Z,53.18,-112.25,-0.5,-5.3,270,8,,,,,,TRUE,TRUE,,,,,,,,,,,,,,,,,,,,,,,,,,,METAR,688.0
CXFM 150000Z AUTO 14004KT 01/M08 RMK AO1 T00071082,CXFM,2019-01-15T00:00:00Z,49.48,-111.48,0.7,-8.2,140,4,,,,,,TRUE,TRUE,,,,,,,,,,,,,,,,,,,,,,,,,,,METAR,881.0
CPSV 150000Z AUTO 27006KT 01/M07 RMK AO1 T00051070,CPSV,2019-01-15T00:00:00Z,49.92,-110.92,0.5,-7.0,270,6,,,,,,TRUE,TRUE,,,,,,,,,,,,,,,,,,,,,,,,,,,METAR,766.0
CPST 150000Z AUTO 02008KT 02/M04 RMK AO1 T00181044,CPST,2019-01-15T00:00:00Z,51.03,-113.28,1.8,-4.4,20,8,,,,,,TRUE,TRUE,,,,,,,,,,,,,,,,,,,,,,,,,,,METAR,967.0
ZSNJ 150000Z 02003MPS 340V060 1200 R06/1700N R07/1700N -RA BR BKN007 OVC020 05/04 Q1029 BECMG TL0130 1500,ZSNJ,2019-01-15T00:00:00Z,31.75,118.87,5.0,4.0,20,6,,0.75,30.383858,,,,,,,,,,-RA BR,BKN,700,OVC,2000,,,,,LIFR,,,,,,,,,,,,METAR,33.0
ZLLL 150000Z 36001MPS 9999 FEW046 M14/M16 Q1028 NOSIG,ZLLL,2019-01-15T00:00:00Z,36.52,103.62,-14.0,-16.0,360,2,,6.21,30.35433,,,,,,TRUE,,,,,FEW,4600,,,,,,,VFR,,,,,,,,,,,,METAR,1947.0
ZJSY 150000Z 06005MPS 9999 BKN066 24/17 Q1016 NOSIG,ZJSY,2019-01-15T00:00:00Z,18.3,109.42,24.0,17.0,60,10,,6.21,30.0,,,,,,TRUE,,,,,BKN,6600,,,,,,,VFR,,,,,,,,,,,,METAR,27.0
ZJHK 150000Z 04004MPS 9999 SCT010 BKN026 21/20 Q1018 NOSIG,ZJHK,2019-01-15T00:00:00Z,19.93,110.47,21.0,20.0,40,8,,6.21,30.059055,,,,,,TRUE,,,,,SCT,1000,BKN,2600,,,,,MVFR,,,,,,,,,,,,METAR,23.0
ZHHH 150000Z 35002MPS 320V030 1500 BR FEW005 03/02 Q1029 NOSIG,ZHHH,2019-01-15T00:00:00Z,30.78,114.22,3.0,2.0,350,4,,0.93,30.383858,,,,,,TRUE,,,,BR,FEW,500,,,,,,,LIFR,,,,,,,,,,,,METAR,33.0
ZHCC 150000Z 03007MPS 3000 HZ NSC M02/M09 Q1036 NOSIG,ZHCC,2019-01-15T00:00:00Z,34.52,113.83,-2.0,-9.0,30,14,,1.86,30.590551,,,,,,TRUE,,,,HZ,CLR,,,,,,,,IFR,,,,,,,,,,,,METAR,151.0
RJCO 150000Z 14016KT 9999 FEW010 SCT040 BKN220 M02/M05 Q1019,RJCO,2019-01-15T00:00:00Z,43.12,141.37,-2.0,-5.0,140,16,,6.21,30.088583,,,,,,,,,,,FEW,1000,SCT,4000,BKN,22000,,,VFR,,,,,,,,,,,,METAR,11.0
RJCN 150000Z 25011KT CAVOK M04/M10 Q1020,RJCN,2019-01-15T00:00:00Z,43.57,144.97,-4.0,-10.0,250,11,,6.21,30.11811,,,,,,,,,,,CAVOK,,,,,,,,VFR,,,,,,,,,,,,METAR,70.0
RJBT 150000Z 19010KT 9999 FEW050 BKN170 BKN/// 04/04 Q1018,RJBT,2019-01-15T00:00:00Z,35.5,134.8,4.0,4.0,190,10,,6.21,30.059055,,,,,,,,,,,FEW,5000,BKN,17000,,,,,VFR,,,,,,,,,,,,METAR,210.0
RJBE 150000Z 06012KT 9999 FEW025 BKN070 BKN/// 07/00 Q1021,RJBE,2019-01-15T00:00:00Z,34.63,135.23,7.0,0.0,60,12,,6.21,30.147638,,,,,,,,,,,FEW,2500,BKN,7000,,,,,VFR,,,,,,,,,,,,METAR,5.0
RJBD 150000Z 11007KT 9999 FEW030 SCT070 BKN/// 10/02 Q1021,RJBD,2019-01-15T00:00:00Z,33.67,135.37,10.0,2.0,110,7,,6.21,30.147638,,,,,,,,,,,FEW,3000,SCT,7000,,,,,VFR,,,,,,,,,,,,METAR,108.0
RJTO 150000Z 07003KT 030V090 9999 FEW030 BKN070 BKN/// 10/03 Q1023,RJTO,2019-01-15T00:00:00Z,34.77,139.37,10.0,3.0,70,3,,6.21,30.206694,,,,,,,,,,,FEW,3000,BKN,7000,,,,,VFR,,,,,,,,,,,,METAR,41.0
RJTI 150000Z 33003KT 270V030 9999 FEW030 BKN180 BKN/// 04/M02 Q1023,RJTI,2019-01-15T00:00:00Z,35.63,139.83,4.0,-2.0,330,3,,6.21,30.206694,,,,,,,,,,,FEW,3000,BKN,18000,,,,,VFR,,,,,,,,,,,,METAR,8.0
RJTF 150000Z 34003KT 300V010 9999 FEW030 SCT180 BKN/// 03/M02 Q1023,RJTF,2019-01-15T00:00:00Z,35.67,139.52,3.0,-2.0,340,3,,6.21,30.206694,,,,,,,,,,,FEW,3000,SCT,18000,,,,,VFR,,,,,,,,,,,,METAR,44.0
RJSY 150000Z 11007KT 9999 FEW010 SCT180 BKN/// 00/M03 Q1020,RJSY,2019-01-15T00:00:00Z,38.82,139.77,0.0,-3.0,110,7,,6.21,30.11811,,,,,,,,,,,FEW,1000,SCT,18000,,,,,VFR,,,,,,,,,,,,METAR,22.0
RJSR 150000Z 33002KT 9999 FEW010 BKN/// M07/M07 Q1020,RJSR,2019-01-15T00:00:00Z,40.18,140.37,-7.0,-7.0,330,2,,6.21,30.11811,,,,,,,,,,,FEW,1000,,,,,,,VFR,,,,,,,,,,,,METAR,87.0
RJSM 150000Z 20009KT 9999 FEW030 BKN200 M01/M10 Q1020,RJSM,2019-01-15T00:00:00Z,40.7,141.37,-1.0,-10.0,200,9,,6.21,30.11811,,,,,,,,,,,FEW,3000,BKN,20000,,,,,VFR,,,,,,,,,,,,METAR,36.0
RJSI 150000Z 02003KT 9999 FEW030 BKN/// M04/M07 Q1023,RJSI,2019-01-15T00:00:00Z,39.42,141.12,-4.0,-7.0,20,3,,6.21,30.206694,,,,,,,,,,,FEW,3000,,,,,,,VFR,,,,,,,,,,,,METAR,93.0
RJCB 150000Z VRB02KT 9999 FEW010 BKN/// M13/M15 Q1021,RJCB,2019-01-15T00:00:00Z,42.72,143.22,-13.0,-15.0,0,2,,6.21,30.147638,,,,,,,,,,,FEW,1000,,,,,,,VFR,,,,,,,,,,,,METAR,152.0
RJCM 150000Z 19005KT CAVOK M10/M15 Q1019,RJCM,2019-01-15T00:00:00Z,43.88,144.17,-10.0,-15.0,190,5,,6.21,30.088583,,,,,,,,,,,CAVOK,,,,,,,,VFR,,,,,,,,,,,,METAR,36.0
RJCK 150000Z VRB02KT 9999 FEW015 BKN/// M05/M07 Q1021,RJCK,2019-01-15T00:00:00Z,43.02,144.18,-5.0,-7.0,0,2,,6.21,30.147638,,,,,,,,,,,FEW,1500,,,,,,,VFR,,,,,,,,,,,,METAR,98.0
ZYHB 150000Z 34006MPS CAVOK M15/M18 Q1025 NOSIG,ZYHB,2019-01-15T00:00:00Z,45.62,126.25,-15.0,-18.0,340,12,,6.21,30.265747,,,,,,TRUE,,,,,CAVOK,,,,,,,,VFR,,,,,,,,,,,,METAR,140.0
ZYCC 150000Z 31003MPS 260V340 3000 -SN BR SCT010 OVC023 M14/M18 Q1026 NOSIG,ZYCC,2019-01-15T00:00:00Z,43.98,125.68,-14.0,-18.0,310,6,,1.86,30.295275,,,,,,TRUE,,,,-SN BR,SCT,1000,OVC,2300,,,,,IFR,,,,,,,,,,,,METAR,238.0
ZUCK 150000Z 13001MPS 1800 BR FEW015 07/06 Q1027 BECMG TL0140 3100,ZUCK,2019-01-15T00:00:00Z,29.72,106.63,7.0,6.0,130,2,,1.12,30.324802,,,,,,,,,,BR,FEW,1500,,,,,,,IFR,,,,,,,,,,,,METAR,416.0
ZSOF 150000Z 36004MPS 1100 R33/1500U BR BKN007 03/02 Q1029 NOSIG,ZSOF,2019-01-15T00:00:00Z,31.98,116.97,3.0,2.0,360,8,,0.68,30.383858,,,,,,TRUE,,,,BR,BKN,700,,,,,,,LIFR,,,,,,,,,,,,METAR,63.0
TTCP 150000Z 07004KT 9999 VCSH FEW016 BKN040 26/20 Q1015 RMK VCSH NE,TTCP,2019-01-15T00:00:00Z,11.15,-60.85,26.0,20.0,70,4,,6.21,29.970472,,,,,,,,,,VCSH,FEW,1600,BKN,4000,,,,,VFR,,,,,,,,,,,,METAR,8.0
TTPP 150000Z 00000KT 9999 FEW018 25/20 Q1015 RMK FU,TTPP,2019-01-15T00:00:00Z,10.58,-61.35,25.0,20.0,0,0,,6.21,29.970472,,,,,,,,,,,FEW,1800,,,,,,,VFR,,,,,,,,,,,,METAR,15.0
RJSK 150000Z 14006KT 9999 FEW040 SCT180 BKN/// M03/M06 Q1020,RJSK,2019-01-15T00:00:00Z,39.62,140.22,-3.0,-6.0,140,6,,6.21,30.11811,,,,,,,,,,,FEW,4000,SCT,18000,,,,,VFR,,,,,,,,,,,,METAR,96.0
RJFR 150000Z 00000KT 9999 FEW030 10/04 Q1020,RJFR,2019-01-15T00:00:00Z,33.82,131.03,10.0,4.0,0,0,,6.21,30.11811,,,,,,,,,,,FEW,3000,,,,,,,VFR,,,,,,,,,,,,METAR,6.0
RJEC 150000Z 17015KT 9999 FEW025 BKN/// M05/M08 Q1018,RJEC,2019-01-15T00:00:00Z,43.67,142.43,-5.0,-8.0,170,15,,6.21,30.059055,,,,,,,,,,,FEW,2500,,,,,,,VFR,,,,,,,,,,,,METAR,211.0
RJFM 150000Z 29004KT 9999 FEW030 SCT110 10/07 Q1020,RJFM,2019-01-15T00:00:00Z,31.87,131.43,10.0,7.0,290,4,,6.21,30.11811,,,,,,,,,,,FEW,3000,SCT,11000,,,,,VFR,,,,,,,,,,,,METAR,9.0
RJOK 150000Z 32008KT 9999 -RA FEW015 SCT035 BKN050 07/04 Q1021,RJOK,2019-01-15T00:00:00Z,33.52,133.67,7.0,4.0,320,8,,6.21,30.147638,,,,,,,,,,-RA,FEW,1500,SCT,3500,BKN,5000,,,VFR,,,,,,,,,,,,METAR,10.0
RJOM 150000Z 11008KT 9999 -RA FEW020 BKN050 BKN070 08/05 Q1020,RJOM,2019-01-15T00:00:00Z,33.82,132.68,8.0,5.0,110,8,,6.21,30.11811,,,,,,,,,,-RA,FEW,2000,BKN,5000,BKN,7000,,,VFR,,,,,,,,,,,,METAR,7.0
RJSF 150000Z 20003KT 9999 FEW005 BKN/// 00/M02 Q1021,RJSF,2019-01-15T00:00:00Z,37.22,140.42,0.0,-2.0,200,3,,6.21,30.147638,,,,,,,,,,,FEW,500,,,,,,,VFR,,,,,,,,,,,,METAR,375.0
RJSA 150000Z 19007KT 9999 FEW030 SCT180 BKN/// 01/M04 Q1018,RJSA,2019-01-15T00:00:00Z,40.72,140.68,1.0,-4.0,190,7,,6.21,30.059055,,,,,,,,,,,FEW,3000,SCT,18000,,,,,VFR,,,,,,,,,,,,METAR,201.0
RJNS 150000Z 35004KT 9999 FEW025 BKN050 BKN/// 07/M01 Q1022,RJNS,2019-01-15T00:00:00Z,34.8,138.18,7.0,-1.0,350,4,,6.21,30.177166,,,,,,,,,,,FEW,2500,BKN,5000,,,,,VFR,,,,,,,,,,,,METAR,135.0
RJFS 150000Z 33002KT 9999 FEW030 SCT035 BKN040 06/05 Q1021,RJFS,2019-01-15T00:00:00Z,33.15,130.3,6.0,5.0,330,2,,6.21,30.147638,,,,,,,,,,,FEW,3000,SCT,3500,BKN,4000,,,VFR,,,,,,,,,,,,METAR,5.0
ROIG 150000Z 11005KT 9999 FEW032 23/16 Q1019,ROIG,2019-01-15T00:00:00Z,24.32,124.17,23.0,16.0,110,5,,6.21,30.088583,,,,,,,,,,,FEW,3200,,,,,,,VFR,,,,,,,,,,,,METAR,7.0
RJOH 150000Z 17009KT 9999 FEW050 SCT130 BKN160 09/M01 Q1017,RJOH,2019-01-15T00:00:00Z,35.47,133.25,9.0,-1.0,170,9,,6.21,30.029528,,,,,,,,,,,FEW,5000,SCT,13000,BKN,16000,,,VFR,,,,,,,,,,,,METAR,9.0
RJOC 150000Z 22006KT 180V250 9999 FEW035 BKN120 BKN/// 09/01 Q1017,RJOC,2019-01-15T00:00:00Z,35.42,132.87,9.0,1.0,220,6,,6.21,30.029528,,,,,,,,,,,FEW,3500,BKN,12000,,,,,VFR,,,,,,,,,,,,METAR,5.0
AYMH 150000Z VRB04KT 9999 SCT035 Q1017 RMK: TEMP AND DP NOT AVBL,AYMH,2019-01-15T00:00:00Z,-5.83,144.3,,,0,4,,6.21,30.029528,,,,,,,,,,,SCT,3500,,,,,,,VFR,,,,,,,,,,,,METAR,1642.0
HTZA 150000Z 00000KT 9999 FEW008 26/25 Q1011 NOSIG,HTZA,2019-01-15T00:00:00Z,-6.22,39.22,26.0,25.0,0,0,,6.21,29.852362,,,,,,TRUE,,,,,FEW,800,,,,,,,VFR,,,,,,,,,,,,METAR,15.0
HTSU 150000Z 00000KT 9999 SCT017 FEW018CB OVC230 17/16 Q1020,HTSU,2019-01-15T00:00:00Z,-7.95,31.67,17.0,16.0,0,0,,6.21,30.11811,,,,,,,,,,,SCT,1700,FEW,1800,OVC,23000,,,VFR,,,,,,,,,,,,METAR,1804.0
HTMT 150000Z 00000KT 9999 BKN020 FEW021CB 24/24 Q1013,HTMT,2019-01-15T00:00:00Z,-10.27,40.17,24.0,24.0,0,0,,6.21,29.911417,,,,,,,,,,,BKN,2000,FEW,2100,,,,,MVFR,,,,,,,,,,,,METAR,113.0
HTSO 150000Z 00000KT 9999 FEW016 FEW018CB BKN070 19/19 Q1018,HTSO,2019-01-15T00:00:00Z,-10.67,35.57,19.0,19.0,0,0,,6.21,30.059055,,,,,,,,,,,FEW,1600,FEW,1800,BKN,7000,,,VFR,,,,,,,,,,,,METAR,1067.0
HTMW 150000Z 15010KT 9999 FEW020 FEW021CB SCT100 22/19 Q1014 NOSIG,HTMW,2019-01-15T00:00:00Z,-2.47,32.92,22.0,19.0,150,10,,6.21,29.940945,,,,,,TRUE,,,,,FEW,2000,FEW,2100,SCT,10000,,,VFR,,,,,,,,,,,,METAR,1140.0
HTMU 150000Z 00000KT 9999 FEW018CB BKN090 21/18 Q1017,HTMU,2019-01-15T00:00:00Z,-1.5,33.78,21.0,18.0,0,0,,6.21,30.029528,,,,,,,,,,,FEW,1800,BKN,9000,,,,,VFR,,,,,,,,,,,,METAR,1147.0
HTMG 150000Z 00000KT 9999 SCT023 24/21 Q1014,HTMG,2019-01-15T00:00:00Z,-6.82,37.63,24.0,21.0,0,0,,6.21,29.940945,,,,,,,,,,,SCT,2300,,,,,,,VFR,,,,,,,,,,,,METAR,526.0
HTKA 150000Z 00000KT 9999 FEW019 FEW020CB BKN080 20/20 Q1018,HTKA,2019-01-15T00:00:00Z,-4.87,29.67,20.0,20.0,0,0,,6.21,30.059055,,,,,,,,,,,FEW,1900,FEW,2000,BKN,8000,,,VFR,,,,,,,,,,,,METAR,885.0
HTIR 150000Z 00000KT 9999 FEW017 SCT070 19/16 Q1020,HTIR,2019-01-15T00:00:00Z,-7.67,35.75,19.0,16.0,0,0,,6.21,30.11811,,,,,,,,,,,FEW,1700,SCT,7000,,,,,VFR,,,,,,,,,,,,METAR,1428.0
HTDO 150000Z 00000KT 9999 BKN020 FEW021CB 22/20 Q1016 NOSIG,HTDO,2019-01-15T00:00:00Z,-6.17,35.77,22.0,20.0,0,0,,6.21,30.0,,,,,,TRUE,,,,,BKN,2000,FEW,2100,,,,,MVFR,,,,,,,,,,,,METAR,1120.0
HTBU 150000Z 00000KT 9999 FEW017 FEW019CB SCT090 23/19 Q1015,HTBU,2019-01-15T00:00:00Z,-1.32,31.82,23.0,19.0,0,0,,6.21,29.970472,,,,,,,,,,,FEW,1700,FEW,1900,SCT,9000,,,VFR,,,,,,,,,,,,METAR,1137.0
HTAR 150000Z 00000KT 9999 SCT022 17/15 Q1017 NOSIG,HTAR,2019-01-15T00:00:00Z,-3.37,36.63,17.0,15.0,0,0,,6.21,30.029528,,,,,,TRUE,,,,,SCT,2200,,,,,,,VFR,,,,,,,,,,,,METAR,1387.0
SBGL 150000Z 10005KT CAVOK 29/22 Q1013,SBGL,2019-01-15T00:00:00Z,-22.82,-43.25,29.0,22.0,100,5,,6.21,29.911417,,,,,,,,,,,CAVOK,,,,,,,,VFR,,,,,,,,,,,,METAR,6.0
HKMO 150000Z 30003KT 9999 FEW021 25/23 Q1011 NOSIG,HKMO,2019-01-15T00:00:00Z,-4.02,39.62,25.0,23.0,300,3,,6.21,29.852362,,,,,,TRUE,,,,,FEW,2100,,,,,,,VFR,,,,,,,,,,,,METAR,55.0
OJAI 150000Z 21008KT 4000 BR SCT030 BKN040 07/05 Q1017 NOSIG,OJAI,2019-01-15T00:00:00Z,31.72,36.0,7.0,5.0,210,8,,2.49,30.029528,,,,,,TRUE,,,,BR,SCT,3000,BKN,4000,,,,,IFR,,,,,,,,,,,,METAR,730.0
VRMM 150000Z 07014KT 9000 FEW018 BKN270 27/24 Q1010 TEMPO 5000 -TSRA,VRMM,2019-01-15T00:00:00Z,4.2,73.52,27.0,24.0,70,14,,5.59,29.822834,,,,,,,,,,,FEW,1800,BKN,27000,,,,,VFR,,,,,,,,,,,,SPECI,2.0
NVVA 150000Z 18005KT 9999 SCT020 FEW025CB BKN110 28/26 Q1007 RMK RESH,NVVA,2019-01-15T00:00:00Z,-20.25,169.77,28.0,26.0,180,5,,6.21,29.734253,,,,,,,,,,,SCT,2000,FEW,2500,BKN,11000,,,VFR,,,,,,,,,,,,METAR,3.0
NVVW 150000Z 16010KT 9999 SCT025 29/24 Q1006 RMK NIL,NVVW,2019-01-15T00:00:00Z,-19.45,169.22,29.0,24.0,160,10,,6.21,29.704725,,,,,,,,,,,SCT,2500,,,,,,,VFR,,,,,,,,,,,,METAR,6.0
NVVV 150000Z 15009KT 9999 BKN025 31/24 Q1006 RMK NIL,NVVV,2019-01-15T00:00:00Z,-17.68,168.3,31.0,24.0,150,9,,6.21,29.704725,,,,,,,,,,,BKN,2500,,,,,,,MVFR,,,,,,,,,,,,METAR,21.0
NVSL 150000Z AUTO 11009KT //// // NCD 32/26 Q1006 RMK NIL,NVSL,2019-01-15T00:00:00Z,-16.45,167.83,32.0,26.0,110,9,,,29.704725,,,TRUE,,,,,,,,CLR,,,,,,,,,,,,,,,,,,,,METAR,26.0
NVSS 150000Z 11009KT 9999 FEW025 BKN110 31/25 Q1006 RMK NIL,NVSS,2019-01-15T00:00:00Z,-15.52,167.22,31.0,25.0,110,9,,6.21,29.704725,,,,,,,,,,,FEW,2500,BKN,11000,,,,,VFR,,,,,,,,,,,,METAR,44.0
NVSG 150000Z AUTO /////KT //// // NCD 31/27 Q1006 RMK NIL,NVSG,2019-01-15T00:00:00Z,-15.3,167.97,31.0,27.0,,,,,29.704725,,,TRUE,,,,,,,,CLR,,,,,,,,,,,,,,,,,,,,METAR,51.0
NVSC 150000Z AUTO 03003KT //// // NCD 32/26 Q1006 RMK NIL,NVSC,2019-01-15T00:00:00Z,-13.83,167.55,32.0,26.0,30,3,,,29.704725,,,TRUE,,,,,,,,CLR,,,,,,,,,,,,,,,,,,,,METAR,18.0
NGFU 150000Z 01007KT 9999 SCT021 BKN300 31/27 Q1007,NGFU,2019-01-15T00:00:00Z,-8.52,179.22,31.0,27.0,10,7,,6.21,29.734253,,,,,,,,,,,SCT,2100,BKN,30000,,,,,VFR,,,,,,,,,,,,METAR,1.0
SKCG 150000Z 03011KT CAVOK 26/23 A2981,SKCG,2019-01-15T00:00:00Z,10.43,-75.52,26.0,23.0,30,11,,6.21,29.811024,,,,,,,,,,,CAVOK,,,,,,,,VFR,,,,,,,,,,,,METAR,1.0
PLCH 150000Z 12009KT 9999 SCT019 BKN040 29/25 Q1006,PLCH,2019-01-15T00:00:00Z,1.98,-157.35,29.0,25.0,120,9,,6.21,29.704725,,,,,,,,,,,SCT,1900,BKN,4000,,,,,VFR,,,,,,,,,,,,METAR,3.0
SKPE 150000Z VRB02KT 9999 FEW014TCU BKN080 23/18 A3000 RMK TCU S/SW,SKPE,2019-01-15T00:00:00Z,4.82,-75.73,23.0,18.0,0,2,,6.21,30.0,,,,,,,,,,,FEW,1400,BKN,8000,,,,,VFR,,,,,,,,,,,,METAR,1346.0
FSIA 150000Z 20003KT 9999 FEW018 26/23 Q1010 NOSIG,FSIA,2019-01-15T00:00:00Z,-4.67,55.52,26.0,23.0,200,3,,6.21,29.822834,,,,,,TRUE,,,,,FEW,1800,,,,,,,VFR,,,,,,,,,,,,METAR,3.0
SBNF 150000Z 35010KT 9999 TS BKN015 FEW025CB 26/23 Q1013,SBNF,2019-01-15T00:00:00Z,-26.88,-48.65,26.0,23.0,350,10,,6.21,29.911417,,,,,,,,,,TS,BKN,1500,FEW,2500,,,,,MVFR,,,,,,,,,,,,METAR,5.0
WSSL 150000Z 33004KT 280V360 9999 FEW020 BKN300 26/23 Q1010,WSSL,2019-01-15T00:00:00Z,1.42,103.87,26.0,23.0,330,4,,6.21,29.822834,,,,,,,,,,,FEW,2000,BKN,30000,,,,,VFR,,,,,,,,,,,,METAR,14.0
TGPY 150000Z 08007KT 9999 FEW020 25/22 Q1015 NOSIG,TGPY,2019-01-15T00:00:00Z,12.0,-61.78,25.0,22.0,80,7,,6.21,29.970472,,,,,,TRUE,,,,,FEW,2000,,,,,,,VFR,,,,,,,,,,,,METAR,7.0
VTSK 150000Z 00000KT 9999 FEW030 SCT300 23/19 Q1010,VTSK,2019-01-15T00:00:00Z,6.77,101.15,23.0,19.0,0,0,,6.21,29.822834,,,,,,,,,,,FEW,3000,SCT,30000,,,,,VFR,,,,,,,,,,,,METAR,9.0
VTSF 150000Z 00000KT 9999 FEW018 23/23 Q1011 NOSIG,VTSF,2019-01-15T00:00:00Z,8.53,99.95,23.0,23.0,0,0,,6.21,29.852362,,,,,,TRUE,,,,,FEW,1800,,,,,,,VFR,,,,,,,,,,,,METAR,4.0
VTSR 150000Z 00000KT 9999 FEW020 24/23 Q1011 NOSIG,VTSR,2019-01-15T00:00:00Z,9.78,98.58,24.0,23.0,0,0,,6.21,29.852362,,,,,,TRUE,,,,,FEW,2000,,,,,,,VFR,,,,,,,,,,,,METAR,8.0
VTUL 150000Z 00000KT 7000 FEW035 20/20 Q1014 NOSIG,VTUL,2019-01-15T00:00:00Z,17.43,101.72,20.0,20.0,0,0,,4.35,29.940945,,,,,,TRUE,,,,,FEW,3500,,,,,,,MVFR,,,,,,,,,,,,METAR,254.0
VTUK 150000Z 08004KT 040V110 8000 SCT035 BKN100 22/17 Q1013 NOSIG,VTUK,2019-01-15T00:00:00Z,16.47,102.78,22.0,17.0,80,4,,4.97,29.911417,,,,,,TRUE,,,,,SCT,3500,BKN,10000,,,,,MVFR,,,,,,,,,,,,METAR,204.0
VTUI 150000Z 16003KT 120V190 9999 FEW030 21/18 Q1014 NOSIG,VTUI,2019-01-15T00:00:00Z,17.2,104.12,21.0,18.0,160,3,,6.21,29.940945,,,,,,TRUE,,,,,FEW,3000,,,,,,,VFR,,,,,,,,,,,,METAR,172.0
VTUD 150000Z 00000KT 8000 NSC 20/19 Q1014 NOSIG,VTUD,2019-01-15T00:00:00Z,17.37,102.78,20.0,19.0,0,0,,4.97,29.940945,,,,,,TRUE,,,,,CLR,,,,,,,,MVFR,,,,,,,,,,,,METAR,182.0
VTST 150000Z 01003KT 8000 FEW020 23/22 Q1009 NOSIG,VTST,2019-01-15T00:00:00Z,7.52,99.62,23.0,22.0,10,3,,4.97,29.793306,,,,,,TRUE,,,,,FEW,2000,,,,,,,MVFR,,,,,,,,,,,,METAR,16.0
VTUO 150000Z 07004KT 7000 NSC 19/18 Q1014 NOSIG,VTUO,2019-01-15T00:00:00Z,15.23,103.25,19.0,18.0,70,4,,4.35,29.940945,,,,,,TRUE,,,,,CLR,,,,,,,,MVFR,,,,,,,,,,,,METAR,183.0
UWLW 150000Z 16007MPS 5000 -SN BKN010 M08/M09 Q1006 R20/820550 NOSIG RMK QFE749,UWLW,2019-01-15T00:00:00Z,54.4,48.8,-8.0,-9.0,160,14,,3.11,29.704725,,,,,,TRUE,,,,-SN,BKN,1000,,,,,,,MVFR,,,,,,,,,,,,METAR,66.0
RJNT 150000Z 16006KT 100V210 9999 FEW030 BKN/// 08/M02 Q1019,RJNT,2019-01-15T00:00:00Z,36.63,137.17,8.0,-2.0,160,6,,6.21,30.088583,,,,,,,,,,,FEW,3000,,,,,,,VFR,,,,,,,,,,,,METAR,27.0
RJFO 150000Z VRB01KT 9999 FEW030 SCT070 BKN120 09/06 Q1020,RJFO,2019-01-15T00:00:00Z,33.47,131.72,9.0,6.0,0,1,,6.21,30.11811,,,,,,,,,,,FEW,3000,SCT,7000,BKN,12000,,,VFR,,,,,,,,,,,,METAR,8.0
CYZX 150000Z 12003KT 15SM SKC M10/M13 A3008 RMK SLP187,CYZX,2019-01-15T00:00:00Z,44.98,-64.92,-10.0,-13.0,120,3,,15.0,30.079725,1018.7,,,,,,,,,,SKC,,,,,,,,VFR,,,,,,,,,,,,SPECI,28.0
CYZV 150000Z VRB02KT 15SM SCT050 OVC085 M12/M17 A3000 RMK SC4AC4 SLP166,CYZV,2019-01-15T00:00:00Z,50.22,-66.27,-12.0,-17.0,0,2,,15.0,30.0,1016.6,,,,,,,,,,SCT,5000,OVC,8500,,,,,VFR,,,,,,,,,,,,SPECI,55.0
CYZF 150000Z 04006KT 15SM FEW140 SCT200 M29/M32 A3044 RMK AC2CI1 SLP344,CYZF,2019-01-15T00:00:00Z,62.47,-114.45,-29.0,-32.0,40,6,,15.0,30.43996,1034.4,,,,,,,,,,FEW,14000,SCT,20000,,,,,VFR,,,,,,,,,,,,SPECI,206.0
CYYZ 150000Z 28008KT 15SM BKN180 M04/M09 A3019 RMK AC7 SLP236,CYYZ,2019-01-15T00:00:00Z,43.67,-79.62,-4.0,-9.0,280,8,,15.0,30.188976,1023.6,,,,,,,,,,BKN,18000,,,,,,,VFR,,,,,,,,,,,,SPECI,173.0
CYYT 150000Z 26012G17KT 15SM OVC015 M05/M08 A3015 RMK SC8 SLP220,CYYT,2019-01-15T00:00:00Z,47.62,-52.72,-5.0,-8.0,260,12,17,15.0,30.15059,1022.0,,,,,,,,,,OVC,1500,,,,,,,MVFR,,,,,,,,,,,,SPECI,140.0
CYYQ 150000Z 32012KT 12SM IC DRSN FEW270 M27/M30 A3024 RMK CI2 SLP245,CYYQ,2019-01-15T00:00:00Z,58.75,-94.07,-27.0,-30.0,320,12,,12.0,30.239174,1024.5,,,,,,,,,IC DRSN,FEW,27000,,,,,,,VFR,,,,,,,,,,,,SPECI,29.0
CYYJ 150000Z 01005KT 30SM FEW004 07/05 A2998 RMK ST1 ST TR SLP154,CYYJ,2019-01-15T00:00:00Z,48.63,-123.42,7.0,5.0,10,5,,30.0,29.97933,1015.4,,,,,,,,,,FEW,400,,,,,,,VFR,,,,,,,,,,,,SPECI,19.0
CYYC 150000Z 36008KT 40SM FEW350 02/M06 A3005 RMK CI1 SLP227,CYYC,2019-01-15T00:00:00Z,51.12,-114.02,2.0,-6.0,360,8,,40.0,30.050198,1022.7,,,,,,,,,,FEW,35000,,,,,,,VFR,,,,,,,,,,,,SPECI,1084.0
CYXX 150000Z 03005KT 30SM SCT240 10/01 A2998 RMK CI3 SLP157,CYXX,2019-01-15T00:00:00Z,49.03,-122.38,10.0,1.0,30,5,,30.0,29.97933,1015.7,,,,,,,,,,SCT,24000,,,,,,,VFR,,,,,,,,,,,,SPECI,58.0
CYUL 150000Z 25006KT 15SM FEW140 BKN180 BKN240 M10/M14 A3020 RMK AC1AC4CI2 SLP230,CYUL,2019-01-15T00:00:00Z,45.47,-73.73,-10.0,-14.0,250,6,,15.0,30.200787,1023.0,,,,,,,,,,FEW,14000,BKN,18000,BKN,24000,,,VFR,,,,,,,,,,,,SPECI,36.0
CYTR 150000Z 26004KT 15SM SCT020 BKN250 M06/M08 A3021 RMK SC3CI3 SLP238,CYTR,2019-01-15T00:00:00Z,44.12,-77.52,-6.0,-8.0,260,4,,15.0,30.209646,1023.8,,,,,,,,,,SCT,2000,BKN,25000,,,,,VFR,,,,,,,,,,,,SPECI,86.0
CYQY 150000Z VRB03KT 15SM OVC014 M06/M09 A3010 RMK SC8 SLP199,CYQY,2019-01-15T00:00:00Z,46.17,-60.03,-6.0,-9.0,0,3,,15.0,30.100393,1019.9,,,,,,,,,,OVC,1400,,,,,,,MVFR,,,,,,,,,,,,SPECI,62.0
CYQX 150000Z 24012KT 20SM FEW250 M08/M11 A3009 RMK CI1 CONTRAILS SLP201,CYQX,2019-01-15T00:00:00Z,48.95,-54.58,-8.0,-11.0,240,12,,20.0,30.088583,1020.1,,,,,,,,,,FEW,25000,,,,,,,VFR,,,,,,,,,,,,SPECI,151.0
CYQQ 150000Z 18003KT 1/4SM R12/0800FT/N FG SKC 03/03 A3000 RMK FG6 SLP161,CYQQ,2019-01-15T00:00:00Z,49.72,-124.9,3.0,3.0,180,3,,0.25,30.0,1016.1,,,,,,,,,FG,SKC,,,,,,,,LIFR,,,,,,,,,,,,SPECI,24.0
CYQM 150000Z 00000KT 15SM SKC M12/M15 A3007 RMK SLP190,CYQM,2019-01-15T00:00:00Z,46.12,-64.67,-12.0,-15.0,0,0,,15.0,30.070866,1019.0,,,,,,,,,,SKC,,,,,,,,VFR,,,,,,,,,,,,SPECI,71.0
CYQG 150000Z AUTO 20007KT 9SM CLR M04/M06 A3024 RMK SLP252,CYQG,2019-01-15T00:00:00Z,42.27,-82.97,-4.0,-6.0,200,7,,9.0,30.239174,1025.2,,TRUE,,,,,,,,CLR,,,,,,,,VFR,,,,,,,,,,,,SPECI,190.0
CYQB 150000Z 27008KT 15SM FEW012 FEW120 BKN150 BKN200 M12/M16 A3016 RMK SF1AC2AC4CI1 SF TR SLP221,CYQB,2019-01-15T00:00:00Z,46.78,-71.37,-12.0,-16.0,270,8,,15.0,30.159449,1022.1,,,,,,,,,,FEW,1200,FEW,12000,BKN,15000,BKN,20000,VFR,,,,,,,,,,,,SPECI,73.0
CYOW 150000Z 20005KT 15SM SCT025 OVC028 M09/M13 A3018 RMK SC4SC4 SLP232,CYOW,2019-01-15T00:00:00Z,45.32,-75.67,-9.0,-13.0,200,5,,15.0,30.180119,1023.2,,,,,,,,,,SCT,2500,OVC,2800,,,,,MVFR,,,,,,,,,,,,SPECI,114.0
CYMX 150000Z 24006KT 220V280 25SM SCT160 BKN190 M12/M15 A3018 RMK AC4CI3 SLP230,CYMX,2019-01-15T00:00:00Z,45.67,-74.02,-12.0,-15.0,240,6,,25.0,30.180119,1023.0,,,,,,,,,,SCT,16000,BKN,19000,,,,,VFR,,,,,,,,,,,,SPECI,82.0
CYJT 150000Z 20017KT 15SM OVC024 M05/M08 A3012 RMK SC8 SLP202,CYJT,2019-01-15T00:00:00Z,48.55,-58.57,-5.0,-8.0,200,17,,15.0,30.121063,1020.2,,,,,,,,,,OVC,2400,,,,,,,MVFR,,,,,,,,,,,,SPECI,26.0
CYHZ 150000Z 05005KT 15SM SCT300 M10/M13 A3003 RMK CI3 SLP182,CYHZ,2019-01-15T00:00:00Z,44.87,-63.5,-10.0,-13.0,50,5,,15.0,30.029528,1018.2,,,,,,,,,,SCT,30000,,,,,,,VFR,,,,,,,,,,,,SPECI,145.0
CYGL 150000Z 27013KT 4SM -SN BKN016 OVC040 M20/M23 A2998 RMK SC5SC3 SLP175,CYGL,2019-01-15T00:00:00Z,53.62,-77.7,-20.0,-23.0,270,13,,4.0,29.97933,1017.5,,,,,,,,,-SN,BKN,1600,OVC,4000,,,,,MVFR,,,,,,,,,,,,SPECI,195.0
CYFC 150000Z AUTO 27002KT 9SM CLR M14/M15 A3009 RMK PRESFR SLP195,CYFC,2019-01-15T00:00:00Z,45.87,-66.52,-14.0,-15.0,270,2,,9.0,30.088583,1019.5,,TRUE,,,,,,,,CLR,,,,,,,,VFR,,,,,,,,,,,,SPECI,20.0
CYEG 150000Z 27008KT 20SM FEW160 FEW200 SCT260 00/M05 A3002 RMK AC1CC1CI3 AC TR CC TR SLP211,CYEG,2019-01-15T00:00:00Z,53.28,-113.57,0.0,-5.0,270,8,,20.0,30.02067,1021.1,,,,,,,,,,FEW,16000,FEW,20000,SCT,26000,,,VFR,,,,,,,,,,,,SPECI,723.0
CYBG 150000Z 00000KT 25SM -SN OVC026 M11/M13 A3006 RMK SC8 SLP195,CYBG,2019-01-15T00:00:00Z,48.33,-70.98,-11.0,-13.0,0,0,,25.0,30.059055,1019.5,,,,,,,,,-SN,OVC,2600,,,,,,,MVFR,,,,,,,,,,,,SPECI,159.0
CYAW 150000Z 03006KT 15SM SCT250 M08/M13 A3006 RMK CI3 DA-2847FT LAST OBS/NEXT 150900 UTC SLP181,CYAW,2019-01-15T00:00:00Z,44.63,-63.5,-8.0,-13.0,30,6,,15.0,30.059055,1018.1,,,,,,,,,,SCT,25000,,,,,,,VFR,,,,,,,,,,,,METAR,51.0
CYFB 150000Z CCA 08008KT 3SM -SN DRSN SCT032 OVC041 M18/M22 A2946 RMK SN2SC2SC4 SLP982,CYFB,2019-01-15T00:00:00Z,63.75,-68.55,-18.0,-22.0,80,8,,3.0,29.459646,998.2,,,,,,,,,DRSN -SN,SCT,3200,OVC,4100,,,,,MVFR,,,,,,,,,,,,METAR,34.0
RJSS 150000Z VRB01KT 9999 FEW040 BKN/// 00/M03 Q1023,RJSS,2019-01-15T00:00:00Z,38.12,140.92,0.0,-3.0,0,1,,6.21,30.206694,,,,,,,,,,,FEW,4000,,,,,,,VFR,,,,,,,,,,,,METAR,5.0
RJOO 150000Z VRB01KT 9999 FEW025 SCT080 BKN170 04/01 Q1021 RMK 1CU025 3AC080 5AC170 A3017,RJOO,2019-01-15T00:00:00Z,34.77,135.43,4.0,1.0,0,1,,6.21,30.147638,,,,,,,,,,,FEW,2500,SCT,8000,BKN,17000,,,VFR,,,,,,,,,,,,METAR,15.0
VTPP 150000Z 00000KT 8000 SCT040 24/21 Q1011 NOSIG,VTPP,2019-01-15T00:00:00Z,16.78,100.28,24.0,21.0,0,0,,4.97,29.852362,,,,,,TRUE,,,,,SCT,4000,,,,,,,MVFR,,,,,,,,,,,,METAR,44.0
VTPO 150000Z 32003KT 3000 BR FEW020CB SCT025 23/20 Q1011 NOSIG,VTPO,2019-01-15T00:00:00Z,17.23,99.82,23.0,20.0,320,3,,1.86,29.852362,,,,,,TRUE,,,,BR,FEW,2000,SCT,2500,,,,,IFR,,,,,,,,,,,,METAR,54.0
VTPM 150000Z 00000KT 4000 BR BKN060 20/20 Q1013 NOSIG,VTPM,2019-01-15T00:00:00Z,16.67,98.53,20.0,20.0,0,0,,2.49,29.911417,,,,,,TRUE,,,,BR,BKN,6000,,,,,,,IFR,,,,,,,,,,,,METAR,197.0
VTPH 150000Z VRB01KT 6000 FEW032 22/22 Q1011 NOSIG,VTPH,2019-01-15T00:00:00Z,12.63,99.95,22.0,22.0,0,1,,3.73,29.852362,,,,,,TRUE,,,,,FEW,3200,,,,,,,MVFR,,,,,,,,,,,,METAR,6.0
VTPB 150000Z 34003KT 7000 SCT030 24/22 Q1012 NOSIG,VTPB,2019-01-15T00:00:00Z,16.67,101.2,24.0,22.0,340,3,,4.35,29.88189,,,,,,TRUE,,,,,SCT,3000,,,,,,,MVFR,,,,,,,,,,,,METAR,137.0
VTCP 150000Z 00000KT 3500 BR FEW025 21/21 Q1012 NOSIG,VTCP,2019-01-15T00:00:00Z,18.13,100.17,21.0,21.0,0,0,,2.17,29.88189,,,,,,TRUE,,,,BR,FEW,2500,,,,,,,IFR,,,,,,,,,,,,METAR,162.0
VTCN 150000Z 34002KT 4000 BR FEW005 18/18 Q1012 BECMG FM0030 5000 BR,VTCN,2019-01-15T00:00:00Z,18.82,100.77,18.0,18.0,340,2,,2.49,29.88189,,,,,,,,,,BR,FEW,500,,,,,,,IFR,,,,,,,,,,,,METAR,201.0
VTCH 150000Z 34003KT 1000 BR VV/// 18/17 Q1014,VTCH,2019-01-15T00:00:00Z,19.3,97.98,18.0,17.0,340,3,,0.62,29.940945,,,,,,,,,,BR,OVX,0,,,,,,,LIFR,,,,,,,,,,,,METAR,269.0
VTBO 150000Z 05001KT 0100 FG FEW020 23/23 Q1011,VTBO,2019-01-15T00:00:00Z,12.28,102.32,23.0,23.0,50,1,,0.06,29.852362,,,,,,,,,,FG,FEW,2000,,,,,,,LIFR,,,,,,,,,,,,METAR,32.0
VTUV 150000Z 04004KT 7000 NSC 19/16 Q1014 NOSIG,VTUV,2019-01-15T00:00:00Z,16.12,103.78,19.0,16.0,40,4,,4.35,29.940945,,,,,,TRUE,,,,,CLR,,,,,,,,MVFR,,,,,,,,,,,,METAR,138.0
VTUU 150000Z 00000KT 9000 NSC 19/18 Q1013 NOSIG,VTUU,2019-01-15T00:00:00Z,15.25,104.87,19.0,18.0,0,0,,5.59,29.911417,,,,,,TRUE,,,,,CLR,,,,,,,,VFR,,,,,,,,,,,,METAR,127.0
VTUQ 150000Z 04003KT 360V070 6000 NSC 20/17 Q1013 NOSIG,VTUQ,2019-01-15T00:00:00Z,14.95,102.32,20.0,17.0,40,3,,3.73,29.911417,,,,,,TRUE,,,,,CLR,,,,,,,,MVFR,,,,,,,,,,,,METAR,234.0
RJFT 150000Z VRB02KT 9999 BKN050 BKN/// 10/05 Q1020,RJFT,2019-01-15T00:00:00Z,32.82,130.83,10.0,5.0,0,2,,6.21,30.11811,,,,,,,,,,,BKN,5000,,,,,,,VFR,,,,,,,,,,,,METAR,196.0
RJSN 150000Z 19010KT 9999 FEW030 SCT150 BKN/// 03/M02 Q1020,RJSN,2019-01-15T00:00:00Z,37.95,139.12,3.0,-2.0,190,10,,6.21,30.11811,,,,,,,,,,,FEW,3000,SCT,15000,,,,,VFR,,,,,,,,,,,,METAR,4.0
RJFK 150000Z 01003KT 9999 FEW005 SCT060 09/05 Q1020 RMK 1ST005 3SC060 A3014 VOLCANIC ASH CLOUD S,RJFK,2019-01-15T00:00:00Z,31.8,130.72,9.0,5.0,10,3,,6.21,30.11811,,,,,,,,,,,FEW,500,SCT,6000,,,,,VFR,,,,,,,,,,,,METAR,275.0
RJOB 150000Z 36006KT 9999 -RASN FEW025 BKN045 04/02 Q1020,RJOB,2019-01-15T00:00:00Z,34.75,133.83,4.0,2.0,360,6,,6.21,30.11811,,,,,,,,,,-RA -SN,FEW,2500,BKN,4500,,,,,VFR,,,,,,,,,,,,METAR,242.0
RJOA 150000Z 12003KT 9999 FEW015 SCT045 BKN130 05/01 Q1019,RJOA,2019-01-15T00:00:00Z,34.42,132.92,5.0,1.0,120,3,,6.21,30.088583,,,,,,,,,,,FEW,1500,SCT,4500,BKN,13000,,,VFR,,,,,,,,,,,,METAR,6.0
RJNK 150000Z 21006KT 9999 FEW030 BKN180 BKN230 07/M02 Q1019,RJNK,2019-01-15T00:00:00Z,36.37,136.42,7.0,-2.0,210,6,,6.21,30.088583,,,,,,,,,,,FEW,3000,BKN,18000,BKN,23000,,,VFR,,,,,,,,,,,,METAR,9.0
RJFU 150000Z VRB02KT 9999 FEW020 SCT025 BKN030 09/07 Q1021,RJFU,2019-01-15T00:00:00Z,32.92,129.92,9.0,7.0,0,2,,6.21,30.147638,,,,,,,,,,,FEW,2000,SCT,2500,BKN,3000,,,MVFR,,,,,,,,,,,,METAR,5.0
UWSS 150000Z 17005MPS 3000 BR OVC004 M05/M05 Q1006 R12/490140 NOSIG RMK QFE742,UWSS,2019-01-15T00:00:00Z,51.57,46.07,-5.0,-5.0,170,10,,1.86,29.704725,,,,,,TRUE,,,,BR,OVC,400,,,,,,,LIFR,,,,,,,,,,,,METAR,166.0
UWOR 150000Z 28005MPS 9999 OVC021 M12/M14 Q1012 R25/490145 NOSIG RMK QFE735/0981,UWOR,2019-01-15T00:00:00Z,51.07,58.6,-12.0,-14.0,280,10,,6.21,29.88189,,,,,,TRUE,,,,,OVC,2100,,,,,,,MVFR,,,,,,,,,,,,METAR,277.0
OMAD 150000Z 06004KT CAVOK 19/15 Q1018 NOSIG,OMAD,2019-01-15T00:00:00Z,24.42,54.47,19.0,15.0,60,4,,6.21,30.059055,,,,,,TRUE,,,,,CAVOK,,,,,,,,VFR,,,,,,,,,,,,METAR,3.0
OMAA 150000Z 09003KT CAVOK 18/15 Q1017 NOSIG,OMAA,2019-01-15T00:00:00Z,24.42,54.63,18.0,15.0,90,3,,6.21,30.029528,,,,,,TRUE,,,,,CAVOK,,,,,,,,VFR,,,,,,,,,,,,METAR,27.0
OMAL 150000Z 08006KT CAVOK 20/15 Q1019 NOSIG,OMAL,2019-01-15T00:00:00Z,24.25,55.6,20.0,15.0,80,6,,6.21,30.088583,,,,,,TRUE,,,,,CAVOK,,,,,,,,VFR,,,,,,,,,,,,METAR,262.0
OMDB 150000Z 08005KT 360V130 CAVOK 21/16 Q1018 NOSIG,OMDB,2019-01-15T00:00:00Z,25.25,55.37,21.0,16.0,80,5,,6.21,30.059055,,,,,,TRUE,,,,,CAVOK,,,,,,,,VFR,,,,,,,,,,,,METAR,5.0
OMDW 150000Z 08005KT CAVOK 16/15 Q1019 NOSIG,OMDW,2019-01-15T00:00:00Z,24.9,55.17,16.0,15.0,80,5,,6.21,30.088583,,,,,,TRUE,,,,,CAVOK,,,,,,,,VFR,,,,,,,,,,,,METAR,25.0
MRLB 150000Z 08018KT 9999 FEW045 27/18 A2982 NOSIG,MRLB,2019-01-15T00:00:00Z,10.6,-85.55,27.0,18.0,80,18,,6.21,29.819881,,,,,,TRUE,,,,,FEW,4500,,,,,,,VFR,,,,,,,,,,,,METAR,82.0
OMSJ 150000Z 07003KT CAVOK 18/15 Q1019,OMSJ,2019-01-15T00:00:00Z,25.32,55.52,18.0,15.0,70,3,,6.21,30.088583,,,,,,,,,,,CAVOK,,,,,,,,VFR,,,,,,,,,,,,METAR,33.0
OMRK 150000Z VRB02KT CAVOK 17/14 Q1019 A3009,OMRK,2019-01-15T00:00:00Z,25.62,55.92,17.0,14.0,0,2,,6.21,30.088583,,,,,,,,,,,CAVOK,,,,,,,,VFR,,,,,,,,,,,,METAR,31.0
OMFJ 150000Z 29003KT 6000 NSC 21/17 Q1019 RMK A3009,OMFJ,2019-01-15T00:00:00Z,25.1,56.32,21.0,17.0,290,3,,3.73,30.088583,,,,,,,,,,,CLR,,,,,,,,MVFR,,,,,,,,,,,,SPECI,28.0
RJOT 150000Z 14005KT 9999 FEW025 SCT060 BKN130 06/01 Q1019,RJOT,2019-01-15T00:00:00Z,34.22,134.02,6.0,1.0,140,5,,6.21,30.088583,,,,,,,,,,,FEW,2500,SCT,6000,BKN,13000,,,VFR,,,,,,,,,,,,METAR,188.0
OIZH 150000Z 24019KT 8000 NSC 15/M04 Q1018 A3007,OIZH,2019-01-15T00:00:00Z,29.47,60.92,15.0,-4.0,240,19,,4.97,30.059055,,,,,,,,,,,CLR,,,,,,,,MVFR,,,,,,,,,,,,METAR,1370.0
SBLO 150000Z 25006KT 9999 VCTS FEW045 FEW050CB 28/20 Q1016,SBLO,2019-01-15T00:00:00Z,-23.32,-51.12,28.0,20.0,250,6,,6.21,30.0,,,,,,,,,,VCTS,FEW,4500,FEW,5000,,,,,VFR,,,,,,,,,,,,METAR,570.0
SERO 150000Z 14002KT 9999 VCSH FEW010 BKN016 OVC070 24/23 Q1010,SERO,2019-01-15T00:00:00Z,-3.43,-79.98,24.0,23.0,140,2,,6.21,29.822834,,,,,,,,,,VCSH,FEW,1000,BKN,1600,OVC,7000,,,MVFR,,,,,,,,,,,,METAR,51.0
KTZR 150000Z 25004KT 10SM SCT013 M05/M07 A3029,KTZR,2019-01-15T00:00:00Z,39.9,-83.13,-5.0,-7.0,250,4,,10.0,30.28937,,,,,,,,,,,SCT,1300,,,,,,,VFR,,,,,,,,,,,,SPECI,276.0
SPTN 150000Z 21007KT 9999 BKN120 19/14 Q1015 RMK PP000,SPTN,2019-01-15T00:00:00Z,-18.07,-70.28,19.0,14.0,210,7,,6.21,29.970472,,,,,,,,,,,BKN,12000,,,,,,,VFR,,,,,,,,,,,,METAR,458.0
SPSO 150000Z 22016KT CAVOK 23/20 Q1011 RMK PP000,SPSO,2019-01-15T00:00:00Z,-13.73,-76.22,23.0,20.0,220,16,,6.21,29.852362,,,,,,,,,,,CAVOK,,,,,,,,VFR,,,,,,,,,,,,METAR,10.0
SPRU 150000Z 14010KT 9999 OVC030 23/20 Q1012 RMK PP000,SPRU,2019-01-15T00:00:00Z,-8.08,-79.12,23.0,20.0,140,10,,6.21,29.88189,,,,,,,,,,,OVC,3000,,,,,,,MVFR,,,,,,,,,,,,METAR,30.0
SPQU 150000Z 26007KT 220V280 9999 SCT060 BKN100 14/10 Q1025 NOSIG RMK PP000,SPQU,2019-01-15T00:00:00Z,-16.33,-71.57,14.0,10.0,260,7,,6.21,30.265747,,,,,,TRUE,,,,,SCT,6000,BKN,10000,,,,,VFR,,,,,,,,,,,,METAR,2554.0
SPQT 150000Z 03003KT 9999 FEW020 27/23 Q1009 NOSIG RMK PP000,SPQT,2019-01-15T00:00:00Z,-3.78,-73.32,27.0,23.0,30,3,,6.21,29.793306,,,,,,TRUE,,,,,FEW,2000,,,,,,,VFR,,,,,,,,,,,,METAR,126.0
SPHI 150000Z 14004KT 9999 OVC040 24/19 Q1012 RMK PP000,SPHI,2019-01-15T00:00:00Z,-6.77,-79.82,24.0,19.0,140,4,,6.21,29.88189,,,,,,,,,,,OVC,4000,,,,,,,VFR,,,,,,,,,,,,METAR,34.0
CWIL 150000Z AUTO 32019KT ////SM BKN027 OVC031 ///// A////,CWIL,2019-01-15T00:00:00Z,68.32,-100.07,,,320,19,,,,,,TRUE,,,,,,,,BKN,2700,OVC,3100,,,,,,,,,,,,,,,,,METAR,36.0
CWLI 150000Z AUTO 07018KT ////SM //// SCT065 OVC080 M23/M25 A////,CWLI,2019-01-15T00:00:00Z,69.58,-130.9,-23.0,-25.0,70,18,,,,,,TRUE,,,,,,,,SCT,6500,OVC,8000,,,,,,,,,,,,,,,,,METAR,102.0
CWPX 150000Z AUTO 31019KT ////SM //// SCT026 OVC065 M34/M39 A3042,CWPX,2019-01-15T00:00:00Z,69.02,-107.82,-34.0,-39.0,310,19,,,30.41929,,,TRUE,,,,,,,,SCT,2600,OVC,6500,,,,,,,,,,,,,,,,,METAR,165.0
CWRX 150000Z AUTO 35010KT ////SM //// SCT190 M32/M35 A2979,CWRX,2019-01-15T00:00:00Z,69.07,-79.02,-32.0,-35.0,350,10,,,29.790354,,,TRUE,,,,,,,,SCT,19000,,,,,,,,,,,,,,,,,,,METAR,41.0
CWSW 150000Z VRB02KT 7SM OVC010 M07/M10 A3030 RMK ST8 LAST STFD OBS/NEXT 151400Z SLP329,CWSW,2019-01-15T00:00:00Z,49.75,-114.87,-7.0,-10.0,0,2,,7.0,30.301182,1032.9,,,,,,,,,,OVC,1000,,,,,,,MVFR,,,,,,,,,,,,METAR,1138.0
CWZZ 150000Z AUTO ///// ////SM FEW039 FEW045 FEW050 M19/M21 A2931,CWZZ,2019-01-15T00:00:00Z,58.32,-62.57,-19.0,-21.0,,,,,29.309055,,,TRUE,,,,,,,,FEW,3900,FEW,4500,FEW,5000,,,,,,,,,,,,,,,METAR,483.0
CYCA 150000Z AUTO 22007KT 9SM SCT070 M12/M15 A2982 RMK SLP103,CYCA,2019-01-15T00:00:00Z,53.68,-57.03,-12.0,-15.0,220,7,,9.0,29.819881,1010.3,,TRUE,,,,,,,,SCT,7000,,,,,,,VFR,,,,,,,,,,,,METAR,12.0
CZBF 150000Z AUTO 24002KT 9SM CLR M18/M20 A3008 RMK SLP193,CZBF,2019-01-15T00:00:00Z,47.62,-65.75,-18.0,-20.0,240,2,,9.0,30.079725,1019.3,,TRUE,,,,,,,,CLR,,,,,,,,VFR,,,,,,,,,,,,SPECI,59.0
CZCP 150000Z AUTO 08020KT ////SM //// NCD M29/M33 A3061,CZCP,2019-01-15T00:00:00Z,70.17,-124.72,-29.0,-33.0,80,20,,,30.611221,,,TRUE,,,,,,,,CLR,,,,,,,,,,,,,,,,,,,,METAR,93.0
CZST 150000Z 07002KT 15SM OVC075 01/01 A3011 RMK AC8 SLP199,CZST,2019-01-15T00:00:00Z,55.93,-129.98,1.0,1.0,70,2,,15.0,30.109253,1019.9,,,,,,,,,,OVC,7500,,,,,,,VFR,,,,,,,,,,,,METAR,7.0
CYWH 150000Z 01006KT 340V050 15SM FEW005 FEW250 08/05 A2998 RMK SF1CI2 SF TR SLP154,CYWH,2019-01-15T00:00:00Z,48.42,-123.38,8.0,5.0,10,6,,15.0,29.97933,1015.4,,,,,,,,,,FEW,500,FEW,25000,,,,,VFR,,,,,,,,,,,,METAR,10.0
CYAT 150000Z AUTO 29010G15KT 9SM OVC018 M20/M24 A3019 RMK SLP227,CYAT,2019-01-15T00:00:00Z,52.93,-82.43,-20.0,-24.0,290,10,15,9.0,30.188976,1022.7,,TRUE,,,,,,,,OVC,1800,,,,,,,MVFR,,,,,,,,,,,,METAR,9.0
CYBN 150000Z AUTO 27003KT 260V320 9SM OVC022 M04/M07 A3017 RMK SLP236,CYBN,2019-01-15T00:00:00Z,44.27,-79.92,-4.0,-7.0,270,3,,9.0,30.171259,1023.6,,TRUE,,,,,,,,OVC,2200,,,,,,,MVFR,,,,,,,,,,,,METAR,223.0
CYCK 150000Z AUTO 24008KT 9SM CLR M05/M06 A3023 RMK SLP250,CYCK,2019-01-15T00:00:00Z,42.3,-82.08,-5.0,-6.0,240,8,,9.0,30.230314,1025.0,,TRUE,,,,,,,,CLR,,,,,,,,VFR,,,,,,,,,,,,METAR,198.0
CYER 150000Z AUTO 28010KT 9SM CLR M24/M27 A3018 RMK SLP225,CYER,2019-01-15T00:00:00Z,56.02,-87.68,-24.0,-27.0,280,10,,9.0,30.180119,1022.5,,TRUE,,,,,,,,CLR,,,,,,,,VFR,,,,,,,,,,,,METAR,16.0
CYGK 150000Z 22005KT 15SM SCT140 M06/M10 A3021 RMK AC3 SLP237,CYGK,2019-01-15T00:00:00Z,44.22,-76.58,-6.0,-10.0,220,5,,15.0,30.209646,1023.7,,,,,,,,,,SCT,14000,,,,,,,VFR,,,,,,,,,,,,METAR,93.0
CYGQ 150000Z 28002KT 15SM FEW026 M14/M17 A3016 RMK SC1 SLP244,CYGQ,2019-01-15T00:00:00Z,49.77,-86.92,-14.0,-17.0,280,2,,15.0,30.159449,1024.4,,,,,,,,,,FEW,2600,,,,,,,VFR,,,,,,,,,,,,METAR,351.0
CYHM 150000Z 25007KT 15SM SCT250 M06/M09 A3020 RMK CI3 SLP242,CYHM,2019-01-15T00:00:00Z,43.17,-79.93,-6.0,-9.0,250,7,,15.0,30.200787,1024.2,,,,,,,,,,SCT,25000,,,,,,,VFR,,,,,,,,,,,,METAR,238.0
CYKF 150000Z AUTO 29005KT 8SM FEW140 SCT160 M07/M09 A3018 RMK SLP240,CYKF,2019-01-15T00:00:00Z,43.47,-80.38,-7.0,-9.0,290,5,,8.0,30.180119,1024.0,,TRUE,,,,,,,,FEW,14000,SCT,16000,,,,,VFR,,,,,,,,,,,,METAR,317.0
CYKP 150000Z AUTO 29005KT 9SM FEW220 SCT240 M17/M21 A3020 RMK ICG SLP251,CYKP,2019-01-15T00:00:00Z,51.67,-85.9,-17.0,-21.0,290,5,,9.0,30.200787,1025.1,,TRUE,,,,,,,,FEW,22000,SCT,24000,,,,,VFR,,,,,,,,,,,,METAR,179.0
CYLD 150000Z 02009KT 8SM -SN OVC004 M05/M06 A3005 RMK SC8 SLP210,CYLD,2019-01-15T00:00:00Z,47.82,-83.33,-5.0,-6.0,20,9,,8.0,30.050198,1021.0,,,,,,,,,-SN,OVC,400,,,,,,,LIFR,,,,,,,,,,,,METAR,447.0
CYLH 150000Z AUTO 25003KT 9SM CLR M20/M23 A3019 RMK SLP253,CYLH,2019-01-15T00:00:00Z,52.2,-87.93,-20.0,-23.0,250,3,,9.0,30.188976,1025.3,,TRUE,,,,,,,,CLR,,,,,,,,VFR,,,,,,,,,,,,METAR,254.0
SBKP 150000Z 13006KT CAVOK 27/21 Q1016,SBKP,2019-01-15T00:00:00Z,-23.0,-47.12,27.0,21.0,130,6,,6.21,30.0,,,,,,,,,,,CAVOK,,,,,,,,VFR,,,,,,,,,,,,METAR,661.0
SBCZ 150000Z 30003KT 9999 TS BKN020 FEW030CB 25/24 Q1010 RERA,SBCZ,2019-01-15T00:00:00Z,-7.62,-72.77,25.0,24.0,300,3,,6.21,29.822834,,,,,,,,,,TS,BKN,2000,FEW,3000,,,,,MVFR,,,,,,,,,,,,METAR,170.0
TLPC 150000Z 10004KT 9999 FEW024 25/20 Q1016 NOSIG,TLPC,2019-01-15T00:00:00Z,14.02,-61.0,25.0,20.0,100,4,,6.21,30.0,,,,,,TRUE,,,,,FEW,2400,,,,,,,VFR,,,,,,,,,,,,METAR,2.0
OKBK 150000Z 36012KT 7000 -TSRA FEW025CB SCT040 BKN080 14/09 Q1017 NOSIG,OKBK,2019-01-15T00:00:00Z,29.22,47.97,14.0,9.0,360,12,,4.35,30.029528,,,,,,TRUE,,,,-TSRA,FEW,2500,SCT,4000,BKN,8000,,,MVFR,,,,,,,,,,,,METAR,55.0
CYOO 150000Z AUTO 24004KT 9SM FEW016 BKN150 OVC230 M03/M06 A3020 RMK SLP235,CYOO,2019-01-15T00:00:00Z,43.92,-78.9,-3.0,-6.0,240,4,,9.0,30.200787,1023.5,,TRUE,,,,,,,,FEW,1600,BKN,15000,OVC,23000,,,VFR,,,,,,,,,,,,METAR,139.0
CYPL 150000Z 29002KT 15SM SCT140 BKN240 M14/M19 A3016 RMK AC3CI4 SLP249,CYPL,2019-01-15T00:00:00Z,51.47,-90.2,-14.0,-19.0,290,2,,15.0,30.159449,1024.9,,,,,,,,,,SCT,14000,BKN,24000,,,,,VFR,,,,,,,,,,,,SPECI,373.0
CYPO 150000Z AUTO 25005KT 9SM CLR M26/M29 A3016 RMK SLP223,CYPO,2019-01-15T00:00:00Z,54.98,-85.43,-26.0,-29.0,250,5,,9.0,30.159449,1022.3,,TRUE,,,,,,,,CLR,,,,,,,,VFR,,,,,,,,,,,,METAR,53.0
CYQA 150000Z AUTO 21004KT 9SM OVC022 M04/M07 A3012 RMK ICG SLP224,CYQA,2019-01-15T00:00:00Z,44.97,-79.28,-4.0,-7.0,210,4,,9.0,30.121063,1022.4,,TRUE,,,,,,,,OVC,2200,,,,,,,MVFR,,,,,,,,,,,,METAR,282.0
CYQK 150000Z 17003KT 20SM FEW180 BKN240 M11/M14 A3018 RMK AC2CI4 SLP251,CYQK,2019-01-15T00:00:00Z,49.77,-94.37,-11.0,-14.0,170,3,,20.0,30.180119,1025.1,,,,,,,,,,FEW,18000,BKN,24000,,,,,VFR,,,,,,,,,,,,METAR,411.0
CYRB 150000Z 34027KT 1SM R35/1800FT/N IC BLSN BKN050 M28/M32 A3004 RMK BLSN2SC3 VIS VRB 1/2-1 3/4 PRESFR SLP187,CYRB,2019-01-15T00:00:00Z,74.72,-94.97,-28.0,-32.0,340,27,,1.0,30.041338,1018.7,,,,,,,,,BLSN IC,BKN,5000,,,,,,,IFR,,,,,,,,,,,,SPECI,67.0
CYRQ 150000Z AUTO 21006KT 9SM FEW180 OVC210 M14/M16 A3016 RMK SLP220,CYRQ,2019-01-15T00:00:00Z,46.35,-72.68,-14.0,-16.0,210,6,,9.0,30.159449,1022.0,,TRUE,,,,,,,,FEW,18000,OVC,21000,,,,,VFR,,,,,,,,,,,,METAR,61.0
CYSC 150000Z AUTO 11003KT 040V110 9SM SCT190 M15/M17 A3012 RMK SLP225,CYSC,2019-01-15T00:00:00Z,45.43,-71.68,-15.0,-17.0,110,3,,9.0,30.121063,1022.5,,TRUE,,,,,,,,SCT,19000,,,,,,,VFR,,,,,,,,,,,,METAR,241.0
CYSN 150000Z 21007KT 15SM BKN180 M04/M06 A3022 RMK AC7 SLP240,CYSN,2019-01-15T00:00:00Z,43.2,-79.17,-4.0,-6.0,210,7,,15.0,30.221457,1024.0,,,,,,,,,,BKN,18000,,,,,,,VFR,,,,,,,,,,,,METAR,98.0
CYVQ 150000Z 10006KT 30SM SCT120 M23/M28 A3040 RMK AC3 SLP309,CYVQ,2019-01-15T00:00:00Z,65.27,-126.78,-23.0,-28.0,100,6,,30.0,30.398623,1030.9,,,,,,,,,,SCT,12000,,,,,,,VFR,,,,,,,,,,,,METAR,74.0
CYXL 150000Z 22002KT 15SM -SN BKN017 M12/M14 A3018 RMK SC7 SLP255,CYXL,2019-01-15T00:00:00Z,50.12,-91.9,-12.0,-14.0,220,2,,15.0,30.180119,1025.5,,,,,,,,,-SN,BKN,1700,,,,,,,MVFR,,,,,,,,,,,,METAR,390.0
CYXU 150000Z 11003KT 8SM FEW019 BKN170 M09/M10 A3020 RMK SC1AC4 FROIN SLP247,CYXU,2019-01-15T00:00:00Z,43.02,-81.15,-9.0,-10.0,110,3,,8.0,30.200787,1024.7,,,,,,,,,,FEW,1900,BKN,17000,,,,,VFR,,,,,,,,,,,,SPECI,278.0
CYXZ 150000Z 03005KT 340V070 12SM -SN OVC009 M05/M07 A3010 RMK ST8 LAST OBS/NEXT 151100UTC SLP212,CYXZ,2019-01-15T00:00:00Z,47.97,-84.77,-5.0,-7.0,30,5,,12.0,30.100393,1021.2,,,,,,,,,-SN,OVC,900,,,,,,,IFR,,,,,,,,,,,,METAR,287.0
CYYH 150000Z 18006KT 15SM IC SKC M39/M43 A3009 RMK FROIN SLP196,CYYH,2019-01-15T00:00:00Z,69.53,-93.57,-39.0,-43.0,180,6,,15.0,30.088583,1019.6,,,,,,,,,IC,SKC,,,,,,,,VFR,,,,,,,,,,,,METAR,28.0
CYYU 150000Z 32005KT 6SM -SN BKN028 M10/M12 A3014 RMK SC7 SLP224,CYYU,2019-01-15T00:00:00Z,49.42,-82.47,-10.0,-12.0,320,5,,6.0,30.138779,1022.4,,,,,,,,,-SN,BKN,2800,,,,,,,MVFR,,,,,,,,,,,,METAR,227.0
CYYW 150000Z AUTO 00000KT 9SM SCT180 M15/M17 A3019 RMK SLP259,CYYW,2019-01-15T00:00:00Z,50.3,-88.9,-15.0,-17.0,0,0,,9.0,30.188976,1025.9,,TRUE,,,,,,,,SCT,18000,,,,,,,VFR,,,,,,,,,,,,METAR,351.0
CZMD 150000Z AUTO 05002KT 9SM BKN200 BKN220 M21/M23 A3017 RMK SLP252,CZMD,2019-01-15T00:00:00Z,53.43,-91.77,-21.0,-23.0,50,2,,9.0,30.171259,1025.2,,TRUE,,,,,,,,BKN,20000,BKN,22000,,,,,VFR,,,,,,,,,,,,METAR,278.0
CYCX 150000Z AUTO 22003KT 9SM FEW080 M16/M19 A3009 RMK SLP196,CYCX,2019-01-15T00:00:00Z,45.82,-66.42,-16.0,-19.0,220,3,,9.0,30.088583,1019.6,,TRUE,,,,,,,,FEW,8000,,,,,,,VFR,,,,,,,,,,,,METAR,51.0
CYDP 150000Z 25011G16KT 15SM BKN110 M13/M19 A2963 RMK AC6 LAST STFD OBS/ NXT 150900Z SLP037,CYDP,2019-01-15T00:00:00Z,56.53,-61.67,-13.0,-19.0,250,11,16,15.0,29.630905,1003.7,,,,,,,,,,BKN,11000,,,,,,,VFR,,,,,,,,,,,,METAR,7.0
CYSJ 150000Z 00000KT 15SM SKC M14/M16 A3006 RMK SLP191,CYSJ,2019-01-15T00:00:00Z,45.32,-65.87,-14.0,-16.0,0,0,,15.0,30.059055,1019.1,,,,,,,,,,SKC,,,,,,,,VFR,,,,,,,,,,,,SPECI,109.0
CYYG 150000Z 00000KT 15SM SKC M15/M16 A3008 RMK SLP194,CYYG,2019-01-15T00:00:00Z,46.27,-63.12,-15.0,-16.0,0,0,,15.0,30.079725,1019.4,,,,,,,,,,SKC,,,,,,,,VFR,,,,,,,,,,,,METAR,54.0
CYAZ 150000Z 17002KT 15SM SKC 08/05 A2995 RMK SLP143,CYAZ,2019-01-15T00:00:00Z,49.08,-125.77,8.0,5.0,170,2,,15.0,29.949802,1014.3,,,,,,,,,,SKC,,,,,,,,VFR,,,,,,,,,,,,METAR,24.0
OSKL 150000Z 33002KT 1200 BR SCT026 BKN100 03/02 Q1016,OSKL,2019-01-15T00:00:00Z,37.03,41.2,3.0,2.0,330,2,,0.75,30.0,,,,,,,,,,BR,SCT,2600,BKN,10000,,,,,LIFR,,,,,,,,,,,,METAR,455.0
CYBL 150000Z 11002KT 30SM SKC 06/05 A2999 RMK SLP160,CYBL,2019-01-15T00:00:00Z,49.95,-125.27,6.0,5.0,110,2,,30.0,29.991142,1016.0,,,,,,,,,,SKC,,,,,,,,VFR,,,,,,,,,,,,METAR,106.0
CYCP 150000Z VRB02KT 2SM BR OVC004 M06/M07 A3021 RMK FG4ST4 FROIN LAST STFD OBS/NEXT 151400Z SLP274,CYCP,2019-01-15T00:00:00Z,52.13,-119.28,-6.0,-7.0,0,2,,2.0,30.209646,1027.4,,,,,,,,,BR,OVC,400,,,,,,,LIFR,,,,,,,,,,,,METAR,683.0
CYCQ 150000Z 00000KT 35SM FEW080 FEW120 BKN170 OVC200 04/M02 A3009 RMK AC1AC2AS3CS3 AC TR PARHELIA LAST STFD OBS/NEXT 151400Z SLP219,CYCQ,2019-01-15T00:00:00Z,55.7,-121.62,4.0,-2.0,0,0,,35.0,30.088583,1021.9,,,,,,,,,,FEW,8000,FEW,12000,BKN,17000,OVC,20000,VFR,,,,,,,,,,,,METAR,609.0
CYDB 150000Z AUTO 00000KT 9SM CLR M22/M24 A3001 RMK SLP259,CYDB,2019-01-15T00:00:00Z,61.37,-139.05,-22.0,-24.0,0,0,,9.0,30.008858,1025.9,,TRUE,,,,,,,,CLR,,,,,,,,VFR,,,,,,,,,,,,METAR,801.0
CYDC 150000Z 07003KT 7SM FEW005 SCT008 BKN010 M06/M07 A3018 RMK SF1ST3ST2 SLP258,CYDC,2019-01-15T00:00:00Z,49.47,-120.52,-6.0,-7.0,70,3,,7.0,30.180119,1025.8,,,,,,,,,,FEW,500,SCT,800,BKN,1000,,,MVFR,,,,,,,,,,,,METAR,700.0
CYDQ 150000Z AUTO 21003KT 9SM CLR M03/M05 A3010 RMK SLP230,CYDQ,2019-01-15T00:00:00Z,55.75,-120.17,-3.0,-5.0,210,3,,9.0,30.100393,1023.0,,TRUE,,,,,,,,CLR,,,,,,,,VFR,,,,,,,,,,,,SPECI,655.0
CYEV 150000Z 08003KT 15SM FEW100 FEW230 M29/M33 A3044 RMK AC1CI1 AC TR SLP322,CYEV,2019-01-15T00:00:00Z,68.32,-133.5,-29.0,-33.0,80,3,,15.0,30.43996,1032.2,,,,,,,,,,FEW,10000,FEW,23000,,,,,VFR,,,,,,,,,,,,METAR,68.0
CYFO 150000Z 14006KT 5/8SM -SN VV016 M16/M19 A2987 RMK SN8 LAST OBS/NEXT 151200UTC /S05/ SLP151,CYFO,2019-01-15T00:00:00Z,54.67,-101.67,-16.0,-19.0,140,6,,0.63,29.870079,1015.1,,,,,,,,,-SN,OVX,0,,,,,,,LIFR,,,,,,,,,,,1600,METAR,304.0
CYHE 150000Z AUTO 12016G22KT 9SM CLR 06/M01 A3008 RMK SLP189,CYHE,2019-01-15T00:00:00Z,49.37,-121.5,6.0,-1.0,120,16,22,9.0,30.079725,1018.9,,TRUE,,,,,,,,CLR,,,,,,,,VFR,,,,,,,,,,,,METAR,39.0
CYIV 150000Z 14004KT 15SM BKN080 BKN220 M19/M23 A3015 RMK AS6CI1 PRESFR SLP239,CYIV,2019-01-15T00:00:00Z,53.85,-94.65,-19.0,-23.0,140,4,,15.0,30.15059,1023.9,,,,,,,,,,BKN,8000,BKN,22000,,,,,VFR,,,,,,,,,,,,METAR,237.0
CYKY 150000Z 24009KT 12SM FEW100 M10/M11 A2997 RMK AC1 AC TR FG SLP202,CYKY,2019-01-15T00:00:00Z,51.52,-109.17,-10.0,-11.0,240,9,,12.0,29.970472,1020.2,,,,,,,,,,FEW,10000,,,,,,,VFR,,,,,,,,,,,,METAR,694.0
CYPR 150000Z AUTO 00000KT 9SM BKN110 BKN150 07/06 A2998 RMK SLP156,CYPR,2019-01-15T00:00:00Z,54.28,-130.42,7.0,6.0,0,0,,9.0,29.97933,1015.6,,TRUE,,,,,,,,BKN,11000,BKN,15000,,,,,VFR,,,,,,,,,,,,METAR,34.0
CYRV 150000Z AUTO 00000KT 9SM OVC020 M02/M04 A3029 RMK SLP283,CYRV,2019-01-15T00:00:00Z,50.97,-118.17,-2.0,-4.0,0,0,,9.0,30.28937,1028.3,,TRUE,,,,,,,,OVC,2000,,,,,,,MVFR,,,,,,,,,,,,METAR,443.0
CYXE 150000Z 21011KT 10SM FEW120 SCT250 M09/M11 A2996 RMK AC1CI3 SLP182,CYXE,2019-01-15T00:00:00Z,52.17,-106.7,-9.0,-11.0,210,11,,10.0,29.958662,1018.2,,,,,,,,,,FEW,12000,SCT,25000,,,,,VFR,,,,,,,,,,,,METAR,504.0
CYXS 150000Z AUTO 35005KT 9SM CLR M02/M02 A3012 RMK SLP244,CYXS,2019-01-15T00:00:00Z,53.9,-122.68,-2.0,-2.0,350,5,,9.0,30.121063,1024.4,,TRUE,,,,,,,,CLR,,,,,,,,VFR,,,,,,,,,,,,METAR,691.0
CYDN 150000Z AUTO 06004KT 9SM OVC100 M08/M09 A3001 RMK SLP189,CYDN,2019-01-15T00:00:00Z,51.1,-100.03,-8.0,-9.0,60,4,,9.0,30.008858,1018.9,,TRUE,,,,,,,,OVC,10000,,,,,,,VFR,,,,,,,,,,,,METAR,305.0
CYBU 150000Z AUTO 20014KT 7SM FEW011 BKN120 OVC140 M03/M04 A2985 RMK SLP136,CYBU,2019-01-15T00:00:00Z,53.32,-104.0,-3.0,-4.0,200,14,,7.0,29.84941,1013.6,,TRUE,,,,,,,,FEW,1100,BKN,12000,OVC,14000,,,VFR,,,,,,,,,,,,METAR,374.0
CYBQ 150000Z AUTO 35004KT 9SM OVC110 M31/M34 A3016 RMK SLP263,CYBQ,2019-01-15T00:00:00Z,58.7,-98.5,-31.0,-34.0,350,4,,9.0,30.159449,1026.3,,TRUE,,,,,,,,OVC,11000,,,,,,,VFR,,,,,,,,,,,,METAR,262.0
CYBK 150000Z 33016KT 5SM IC BLSN SKC M37/M41 A3030 RMK BLSN1 SLP266,CYBK,2019-01-15T00:00:00Z,64.28,-96.07,-37.0,-41.0,330,16,,5.0,30.301182,1026.6,,,,,,,,,IC BLSN,SKC,,,,,,,,MVFR,,,,,,,,,,,,METAR,18.0
CYEN 150000Z AUTO 17007KT 9SM CLR M05/M07 A3005 RMK SLP216,CYEN,2019-01-15T00:00:00Z,49.22,-102.97,-5.0,-7.0,170,7,,9.0,30.050198,1021.6,,TRUE,,,,,,,,CLR,,,,,,,,VFR,,,,,,,,,,,,METAR,581.0
CXCD 150000Z AUTO 32002KT M02/M02 RMK AO1 T10211021 50006,CXCD,2019-01-15T00:00:00Z,56.32,-119.75,-2.1,-2.1,320,2,,,,,,TRUE,TRUE,,,,,,,,,,,,,,,,0.6,,,,,,,,,,,METAR,630.0
CXBR 150000Z AUTO 28002KT M01/M12 RMK AO1 T10091115,CXBR,2019-01-15T00:00:00Z,49.62,-113.82,-0.9,-11.5,280,2,,,,,,TRUE,TRUE,,,,,,,,,,,,,,,,,,,,,,,,,,,METAR,1073.0
SKSP 150000Z 05011KT 9999 FEW018 27/22 A2994,SKSP,2019-01-15T00:00:00Z,12.57,-81.72,27.0,22.0,50,11,,6.21,29.940945,,,,,,,,,,,FEW,1800,,,,,,,VFR,,,,,,,,,,,,METAR,-2.0
SBCG 150000Z 07004KT 9999 FEW040 SCT100 24/20 Q1014,SBCG,2019-01-15T00:00:00Z,-20.47,-54.67,24.0,20.0,70,4,,6.21,29.940945,,,,,,,,,,,FEW,4000,SCT,10000,,,,,VFR,,,,,,,,,,,,METAR,567.0
SMZO 150000Z 04004KT 9999 FEW010 BKN025 27/23 Q1013 NOSIG,SMZO,2019-01-15T00:00:00Z,5.82,-55.18,27.0,23.0,40,4,,6.21,29.911417,,,,,,TRUE,,,,,FEW,1000,BKN,2500,,,,,MVFR,,,,,,,,,,,,METAR,10.0
SMJP 150000Z 07006KT 9999 FEW035 25/22 Q1014 NOSIG,SMJP,2019-01-15T00:00:00Z,5.45,-55.17,25.0,22.0,70,6,,6.21,29.940945,,,,,,TRUE,,,,,FEW,3500,,,,,,,VFR,,,,,,,,,,,,METAR,16.0
SPJC 150000Z 16012KT 9999 SCT013 SCT050 BKN230 23/20 Q1013 NOSIG RMK PP000,SPJC,2019-01-15T00:00:00Z,-12.02,-77.12,23.0,20.0,160,12,,6.21,29.911417,,,,,,TRUE,,,,,SCT,1300,SCT,5000,BKN,23000,,,VFR,,,,,,,,,,,,METAR,13.0
GVSV 150000Z 07016KT 9999 FEW022 22/16 Q1018 NOSIG,GVSV,2019-01-15T00:00:00Z,16.83,-25.07,22.0,16.0,70,16,,6.21,30.059055,,,,,,TRUE,,,,,FEW,2200,,,,,,,VFR,,,,,,,,,,,,METAR,20.0
DXXX 150000Z 22008KT 9999 FEW012 29/26 Q1012 NOSIG,DXXX,2019-01-15T00:00:00Z,6.17,1.25,29.0,26.0,220,8,,6.21,29.88189,,,,,,TRUE,,,,,FEW,1200,,,,,,,VFR,,,,,,,,,,,,METAR,25.0
AGGH 150000Z METAR ,AGGH,2019-01-15T00:00:00Z,-9.42,160.05,,,,,,,,,,,,,,,,,,,,,,,,,,,,,,,,,,,,,,METAR,9.0
MHCH 150000Z 02012KT 9999 SCT030 SCT250 31/17 HZ,MHCH,2019-01-15T00:00:00Z,13.32,-87.15,31.0,17.0,20,12,,6.21,,,,,,,,,,,HZ,SCT,3000,SCT,25000,,,,,VFR,,,,,,,,,,,,METAR,48.0
MHLE 150000Z 01006KT 9999 SCT024 SCT200 15/12,MHLE,2019-01-15T00:00:00Z,14.32,-88.15,15.0,12.0,10,6,,6.21,,,,,,,,,,,,SCT,2400,SCT,20000,,,,,VFR,,,,,,,,,,,,METAR,1100.0
MHGS 150000Z 36006KT 2000 -RA BKN010 OVC090 19/19 2 KM ALL VCSH HZ,MHGS,2019-01-15T00:00:00Z,14.57,-88.6,19.0,19.0,360,6,,1.24,,,,,,,,,,,-RA VCSH HZ,BKN,1000,OVC,9000,,,,,IFR,,,,,,,,,,,,METAR,913.0
MHSR 150000Z 34004KT 2000 DZ OVC005 17/17 2 KM ALL VCSH CL HZ,MHSR,2019-01-15T00:00:00Z,14.78,-88.78,17.0,17.0,340,4,,1.24,,,,,,,,,,,DZ VCSH HZ,OVC,500,,,,,,,IFR,,,,,,,,,,,,METAR,1079.0
MHPL 150000Z 05012KT 9999 BKN026TCU 26/22 Q1016 TCU ALL HZ,MHPL,2019-01-15T00:00:00Z,15.27,-83.78,26.0,22.0,50,12,,6.21,30.0,,,,,,,,,,HZ,BKN,2600,,,,,,,MVFR,,,,,,,,,,,,METAR,13.0
MHTR 150000Z 10002KT 9999 FEW022TCU 25/23 Q1017 TCU N NE HZ,MHTR,2019-01-15T00:00:00Z,15.93,-85.93,25.0,23.0,100,2,,6.21,30.029528,,,,,,,,,,HZ,FEW,2200,,,,,,,VFR,,,,,,,,,,,,METAR,3.0
MHAM 150000Z 05014KT 9999 FEW032 SCT250 32/22,MHAM,2019-01-15T00:00:00Z,13.27,-87.65,32.0,22.0,50,14,,6.21,,,,,,,,,,,,FEW,3200,SCT,25000,,,,,VFR,,,,,,,,,,,,METAR,5.0
CYOJ 150000Z 35011KT 10SM -SN DRSN OVC018 M19/M22 A3031 RMK SC8 SLP305,CYOJ,2019-01-15T00:00:00Z,58.62,-117.17,-19.0,-22.0,350,11,,10.0,30.31004,1030.5,,,,,,,,,-SN DRSN,OVC,1800,,,,,,,MVFR,,,,,,,,,,,,METAR,338.0
CYNE 150000Z AUTO 13005KT 1 1/4SM -SN OVC019 M16/M18 A3005 RMK PRESFR SLP205,CYNE,2019-01-15T00:00:00Z,53.97,-97.82,-16.0,-18.0,130,5,,1.25,30.050198,1020.5,,TRUE,,,,,,,-SN,OVC,1900,,,,,,,IFR,,,,,,,,,,,,METAR,223.0
CYLL 150000Z 28014KT 15SM FEW075 FEW220 M04/M07 A2991 RMK AC1CI1 SLP178,CYLL,2019-01-15T00:00:00Z,53.32,-110.07,-4.0,-7.0,280,14,,15.0,29.911417,1017.8,,,,,,,,,,FEW,7500,FEW,22000,,,,,VFR,,,,,,,,,,,,METAR,669.0
CYKJ 150000Z AUTO 06011KT 1SM -SN OVC012 M21/M23 A2983 RMK SLP159,CYKJ,2019-01-15T00:00:00Z,57.25,-105.62,-21.0,-23.0,60,11,,1.0,29.828741,1015.9,,TRUE,,,,,,,-SN,OVC,1200,,,,,,,IFR,,,,,,,,,,,,METAR,509.0
CYGX 150000Z 00000KT 15SM SCT120 BKN220 M24/M28 A3018 RMK AS3CC4 SLP243,CYGX,2019-01-15T00:00:00Z,56.35,-94.7,-24.0,-28.0,0,0,,15.0,30.180119,1024.3,,,,,,,,,,SCT,12000,BKN,22000,,,,,VFR,,,,,,,,,,,,METAR,145.0
CYET 150000Z AUTO 34004KT 9SM FEW230 01/M02 A3006 RMK SLP230,CYET,2019-01-15T00:00:00Z,53.57,-116.47,1.0,-2.0,340,4,,9.0,30.059055,1023.0,,TRUE,,,,,,,,FEW,23000,,,,,,,VFR,,,,,,,,,,,,METAR,925.0
GBYD 150000Z 23006KT CAVOK 22/15 Q1012,GBYD,2019-01-15T00:00:00Z,13.33,-16.65,22.0,15.0,230,6,,6.21,29.88189,,,,,,,,,,,CAVOK,,,,,,,,VFR,,,,,,,,,,,,METAR,36.0
CYZT 150000Z 00000KT 20SM SKC 07/05 A2996 RMK SLP146,CYZT,2019-01-15T00:00:00Z,50.67,-127.37,7.0,5.0,0,0,,20.0,29.958662,1014.6,,,,,,,,,,SKC,,,,,,,,VFR,,,,,,,,,,,,METAR,22.0
SKBO 150000Z 35003KT 9999 BKN020 14/10 A3029,SKBO,2019-01-15T00:00:00Z,4.7,-74.12,14.0,10.0,350,3,,6.21,30.28937,,,,,,,,,,,BKN,2000,,,,,,,MVFR,,,,,,,,,,,,METAR,2548.0
OEAB 150000Z 00000KT CAVOK 12/M16 Q1025 NOSIG,OEAB,2019-01-15T00:00:00Z,18.22,42.63,12.0,-16.0,0,0,,6.21,30.265747,,,,,,TRUE,,,,,CAVOK,,,,,,,,VFR,,,,,,,,,,,,METAR,2084.0
OEAH 150000Z 00000KT CAVOK 12/04 Q1016 NOSIG,OEAH,2019-01-15T00:00:00Z,25.27,49.47,12.0,4.0,0,0,,6.21,30.0,,,,,,TRUE,,,,,CAVOK,,,,,,,,VFR,,,,,,,,,,,,METAR,172.0
OEGT 150000Z 10006KT 7000 SCT040 05/00 Q1016 NOSIG,OEGT,2019-01-15T00:00:00Z,31.42,37.27,5.0,0.0,100,6,,4.35,30.0,,,,,,TRUE,,,,,SCT,4000,,,,,,,MVFR,,,,,,,,,,,,METAR,499.0
OEGS 150000Z 05010KT 9999 BKN040 13/01 Q1017,OEGS,2019-01-15T00:00:00Z,26.3,43.77,13.0,1.0,50,10,,6.21,30.029528,,,,,,,,,,,BKN,4000,,,,,,,VFR,,,,,,,,,,,,METAR,650.0
OEGN 150000Z 00000KT 8000 NSC 24/21 Q1013 NOSIG,OEGN,2019-01-15T00:00:00Z,16.88,42.57,24.0,21.0,0,0,,4.97,29.911417,,,,,,TRUE,,,,,CLR,,,,,,,,MVFR,,,,,,,,,,,,METAR,3.0
OEDR 150000Z 13006KT CAVOK 19/14 Q1015 NOSIG,OEDR,2019-01-15T00:00:00Z,26.27,50.17,19.0,14.0,130,6,,6.21,29.970472,,,,,,TRUE,,,,,CAVOK,,,,,,,,VFR,,,,,,,,,,,,METAR,17.0
OEBH 150000Z 21004KT CAVOK 15/01 Q1018 NOSIG,OEBH,2019-01-15T00:00:00Z,19.97,42.62,15.0,1.0,210,4,,6.21,30.059055,,,,,,TRUE,,,,,CAVOK,,,,,,,,VFR,,,,,,,,,,,,METAR,1157.0
OEBA 150000Z 17003KT CAVOK 16/04 Q1021 NOSIG,OEBA,2019-01-15T00:00:00Z,20.3,41.62,16.0,4.0,170,3,,6.21,30.147638,,,,,,TRUE,,,,,CAVOK,,,,,,,,VFR,,,,,,,,,,,,METAR,1656.0
OEAR 150000Z 00000KT 8000 SKC 21/16 Q1014,OEAR,2019-01-15T00:00:00Z,,,21.0,16.0,0,0,,4.97,29.940945,,,,,,,,,,,SKC,,,,,,,,MVFR,,,,,,,,,,,,METAR,
OEJB 150000Z AUTO 17008KT CAVOK 18/15 Q1016 NOSIG,OEJB,2019-01-15T00:00:00Z,27.05,49.38,18.0,15.0,170,8,,6.21,30.0,,,TRUE,,,TRUE,,,,,CAVOK,,,,,,,,VFR,,,,,,,,,,,,METAR,8.0
OEHL 150000Z 00000KT CAVOK 09/00 Q1018 NOSIG,OEHL,2019-01-15T00:00:00Z,27.42,41.67,9.0,0.0,0,0,,6.21,30.059055,,,,,,TRUE,,,,,CAVOK,,,,,,,,VFR,,,,,,,,,,,,METAR,1013.0
WMSA 150000Z VRB01KT 9000 FEW016CB SCT140 BKN270 25/24 Q1010,WMSA,2019-01-15T00:00:00Z,3.13,101.55,25.0,24.0,0,1,,5.59,29.822834,,,,,,,,,,,FEW,1600,SCT,14000,BKN,27000,,,VFR,,,,,,,,,,,,METAR,27.0
GGOV 150000Z 22004KT CAVOK 22/19 Q1012 NOSIG,GGOV,2019-01-15T00:00:00Z,11.87,-15.65,22.0,19.0,220,4,,6.21,29.88189,,,,,,TRUE,,,,,CAVOK,,,,,,,,VFR,,,,,,,,,,,,METAR,36.0
CYQF 150000Z 19005KT 15SM FEW250 M06/M09 A3004 RMK CI2 SLP236,CYQF,2019-01-15T00:00:00Z,52.17,-113.9,-6.0,-9.0,190,5,,15.0,30.041338,1023.6,,,,,,,,,,FEW,25000,,,,,,,VFR,,,,,,,,,,,,METAR,905.0
CYQL 150000Z 31007KT 60SM BKN300 01/M09 A3003 RMK CI6 SLP212,CYQL,2019-01-15T00:00:00Z,49.63,-112.8,1.0,-9.0,310,7,,60.0,30.029528,1021.2,,,,,,,,,,BKN,30000,,,,,,,VFR,,,,,,,,,,,,METAR,929.0
CYQR 150000Z 16010KT 8SM FEW001 FEW280 M04/M05 A2998 RMK ST1CI1 ST TR CI TR SLP192,CYQR,2019-01-15T00:00:00Z,50.43,-104.67,-4.0,-5.0,160,10,,8.0,29.97933,1019.2,,,,,,,,,,FEW,100,FEW,28000,,,,,VFR,,,,,,,,,,,,METAR,577.0
CYQW 150000Z AUTO 27004KT 9SM CLR M07/M10 A2994 RMK SLP176,CYQW,2019-01-15T00:00:00Z,52.77,-108.25,-7.0,-10.0,270,4,,9.0,29.940945,1017.6,,TRUE,,,,,,,,CLR,,,,,,,,VFR,,,,,,,,,,,,METAR,548.0
CYVC 150000Z 20003KT 15SM -SN SCT012 OVC021 M05/M06 A2976 RMK SC3SC5 /S03/ SLP110,CYVC,2019-01-15T00:00:00Z,55.15,-105.27,-5.0,-6.0,200,3,,15.0,29.760826,1011.0,,,,,,,,,-SN,SCT,1200,OVC,2100,,,,,MVFR,,,,,,,,,,,,METAR,379.0
CYYN 150000Z AUTO 24009KT 9SM CLR M01/M05 A2996 RMK SLP188,CYYN,2019-01-15T00:00:00Z,50.27,-107.67,-1.0,-5.0,240,9,,9.0,29.958662,1018.8,,TRUE,,,,,,,,CLR,,,,,,,,VFR,,,,,,,,,,,,METAR,818.0
ORER 150000Z 15005KT 7000 BKN035 09/04 Q1020 NOSIG,ORER,2019-01-15T00:00:00Z,36.23,43.97,9.0,4.0,150,5,,4.35,30.11811,,,,,,TRUE,,,,,BKN,3500,,,,,,,MVFR,,,,,,,,,,,,METAR,409.0
ORNI 150000Z 00000KT 6000 NSC 09/05 Q1018 NOSIG,ORNI,2019-01-15T00:00:00Z,31.98,44.4,9.0,5.0,0,0,,3.73,30.059055,,,,,,TRUE,,,,,CLR,,,,,,,,MVFR,,,,,,,,,,,,METAR,53.0
ORMM 150000Z 32006KT CAVOK 13/09 Q1018 NOSIG,ORMM,2019-01-15T00:00:00Z,30.57,47.67,13.0,9.0,320,6,,6.21,30.059055,,,,,,TRUE,,,,,CAVOK,,,,,,,,VFR,,,,,,,,,,,,METAR,2.0
SBGR 150000Z 12002KT CAVOK 24/22 Q1018,SBGR,2019-01-15T00:00:00Z,-23.42,-46.47,24.0,22.0,120,2,,6.21,30.059055,,,,,,,,,,,CAVOK,,,,,,,,VFR,,,,,,,,,,,,METAR,750.0
CYAM 150000Z 26008KT 2 1/4SM -SHSN FEW005 BKN010 OVC018 M01/M02 A3010 RMK SN1SF1ST4CU2 VIS VRB 1 3/4 - 4 CIG VRB 7-13 /S01/ SLP207,CYAM,2019-01-15T00:00:00Z,46.47,-84.52,-1.0,-2.0,260,8,,2.25,30.100393,1020.7,,,,,,,,,-SHSN,FEW,500,BKN,1000,OVC,1800,,,IFR,,,,,,,,,,,,METAR,192.0
CZVL 150000Z AUTO 29010KT 9SM FEW160 SCT190 03/M02 A3001 RMK SLP202,CZVL,2019-01-15T00:00:00Z,53.67,-113.85,3.0,-2.0,290,10,,9.0,30.008858,1020.2,,TRUE,,,,,,,,FEW,16000,SCT,19000,,,,,VFR,,,,,,,,,,,,METAR,686.0
CYHD 150000Z AUTO 08002KT 9SM CLR M10/M12 A3018 RMK SLP253,CYHD,2019-01-15T00:00:00Z,49.82,-92.75,-10.0,-12.0,80,2,,9.0,30.180119,1025.3,,TRUE,,,,,,,,CLR,,,,,,,,VFR,,,,,,,,,,,,METAR,413.0
CYGR 150000Z 22005KT 15SM BKN014 M08/M11 A3011 RMK SC5 SLP199,CYGR,2019-01-15T00:00:00Z,47.42,-61.77,-8.0,-11.0,220,5,,15.0,30.109253,1019.9,,,,,,,,,,BKN,1400,,,,,,,MVFR,,,,,,,,,,,,METAR,10.0
CYOA 150000Z 00000KT 15SM FEW200 M38/M43 A3037 RMK CS2 LAST OB/NEXT 151200Z,CYOA,2019-01-15T00:00:00Z,64.7,-110.62,-38.0,-43.0,0,0,,15.0,30.369095,,,,,,,,,,,FEW,20000,,,,,,,VFR,,,,,,,,,,,,METAR,469.0
YLRE 150000Z AUTO 06015KT //// // NCD 32/17 Q1014,YLRE,2019-01-15T00:00:00Z,-23.43,144.28,32.0,17.0,60,15,,,29.940945,,,TRUE,,,,,,,,CLR,,,,,,,,,,,,,,,,,,,,METAR,193.0
WBKL 150000Z 00000KT 9999 FEW013 BKN140 BKN290 26/26 Q1009,WBKL,2019-01-15T00:00:00Z,5.28,115.25,26.0,26.0,0,0,,6.21,29.793306,,,,,,,,,,,FEW,1300,BKN,14000,BKN,29000,,,VFR,,,,,,,,,,,,METAR,30.0
HTKJ 150000Z 12012KT 9999 FEW024 22/19 Q1015 NOSIG,HTKJ,2019-01-15T00:00:00Z,-3.42,37.07,22.0,19.0,120,12,,6.21,29.970472,,,,,,TRUE,,,,,FEW,2400,,,,,,,VFR,,,,,,,,,,,,METAR,896.0
HTDA 150000Z 00000KT 9999 -RA FEW012 FEW014CB 27/26 Q1012 NOSIG,HTDA,2019-01-15T00:00:00Z,-6.88,39.2,27.0,26.0,0,0,,6.21,29.88189,,,,,,TRUE,,,,-RA,FEW,1200,FEW,1400,,,,,VFR,,,,,,,,,,,,METAR,55.0
CWIX 150000Z AUTO 23007KT M10/M12 RMK AO1 SLP182 T10961118 58002,CWIX,2019-01-15T00:00:00Z,48.6,-71.72,-9.6,-11.8,230,7,,,,1018.2,,TRUE,TRUE,,,,,,,,,,,,,,,,-0.2,,,,,,,,,,,METAR,113.0
CWDT 150000Z AUTO 00000KT M14/M16 RMK AO1 SLP180 T11381155 58001,CWDT,2019-01-15T00:00:00Z,49.88,-71.25,-13.8,-15.5,0,0,,,,1018.0,,TRUE,TRUE,,,,,,,,,,,,,,,,-0.1,,,,,,,,,,,METAR,399.0
VAID 150000Z 09006KT 2000 HZ NSC 12/06 Q1019 NOSIG,VAID,2019-01-15T00:00:00Z,22.72,75.78,12.0,6.0,90,6,,1.24,30.088583,,,,,,TRUE,,,,HZ,CLR,,,,,,,,IFR,,,,,,,,,,,,METAR,567.0
YMOR 150000Z AUTO 34009KT 9999 // NCD 31/15 Q1016,YMOR,2019-01-15T00:00:00Z,-29.5,149.85,31.0,15.0,340,9,,6.21,30.0,,,TRUE,,,,,,,,CLR,,,,,,,,VFR,,,,,,,,,,,,METAR,214.0
SBPL 150000Z 13003KT CAVOK 28/19 Q1014,SBPL,2019-01-15T00:00:00Z,-9.37,-40.57,28.0,19.0,130,3,,6.21,29.940945,,,,,,,,,,,CAVOK,,,,,,,,VFR,,,,,,,,,,,,METAR,375.0
CYND 150000Z 00000KT 15SM OVC026 M10/M13 A3020 RMK SC8 SLP233,CYND,2019-01-15T00:00:00Z,45.52,-75.57,-10.0,-13.0,0,0,,15.0,30.200787,1023.3,,,,,,,,,,OVC,2600,,,,,,,MVFR,,,,,,,,,,,,METAR,64.0
RJDT 150000Z 27007KT 240V310 7000 FEW030 BKN/// 07/00 Q1020,RJDT,2019-01-15T00:00:00Z,34.27,129.32,7.0,0.0,270,7,,4.35,30.11811,,,,,,,,,,,FEW,3000,,,,,,,MVFR,,,,,,,,,,,,METAR,66.0
CYPQ 150000Z AUTO VRB02KT 9SM OVC150 M06/M07 A3018 RMK SLP236,CYPQ,2019-01-15T00:00:00Z,44.22,-78.37,-6.0,-7.0,0,2,,9.0,30.180119,1023.6,,TRUE,,,,,,,,OVC,15000,,,,,,,VFR,,,,,,,,,,,,METAR,191.0
CYQT 150000Z 32004KT 15SM OVC029 M06/M10 A3022 RMK SC8 SLP247,CYQT,2019-01-15T00:00:00Z,48.37,-89.32,-6.0,-10.0,320,4,,15.0,30.221457,1024.7,,,,,,,,,,OVC,2900,,,,,,,MVFR,,,,,,,,,,,,METAR,199.0
CYRL 150000Z 17004KT 15SM SCT085 BKN200 M12/M14 A3015 RMK AC4CS1 FROIN SLP244,CYRL,2019-01-15T00:00:00Z,51.07,-93.78,-12.0,-14.0,170,4,,15.0,30.15059,1024.4,,,,,,,,,,SCT,8500,BKN,20000,,,,,VFR,,,,,,,,,,,,METAR,383.0
CYRJ 150000Z 25009G15KT 2SM -SN OVC022 M10/M13 A3003 RMK SN4SC4 SLP185,CYRJ,2019-01-15T00:00:00Z,48.52,-72.27,-10.0,-13.0,250,9,15,2.0,30.029528,1018.5,,,,,,,,,-SN,OVC,2200,,,,,,,IFR,,,,,,,,,,,,METAR,179.0
CYTZ 150000Z AUTO 27010KT 9SM FEW150 OVC170 M02/M08 A3021 RMK SLP235,CYTZ,2019-01-15T00:00:00Z,43.63,-79.4,-2.0,-8.0,270,10,,9.0,30.209646,1023.5,,TRUE,,,,,,,,FEW,15000,OVC,17000,,,,,VFR,,,,,,,,,,,,METAR,77.0
CYTL 150000Z AUTO 27004KT 9SM CLR M21/M25 A3019 RMK SLP253,CYTL,2019-01-15T00:00:00Z,53.82,-89.88,-21.0,-25.0,270,4,,9.0,30.188976,1025.3,,TRUE,,,,,,,,CLR,,,,,,,,VFR,,,,,,,,,,,,SPECI,224.0
CYWA 150000Z AUTO 00000KT 9SM OVC021 M10/M13 A3015 RMK SLP224,CYWA,2019-01-15T00:00:00Z,45.95,-77.32,-10.0,-13.0,0,0,,9.0,30.15059,1022.4,,TRUE,,,,,,,,OVC,2100,,,,,,,MVFR,,,,,,,,,,,,METAR,130.0
CYVP 150000Z 19006KT 10SM -SN BKN048 M21/M24 A2959 RMK SC6 SLP025,CYVP,2019-01-15T00:00:00Z,58.12,-68.42,-21.0,-24.0,190,6,,10.0,29.589567,1002.5,,,,,,,,,-SN,BKN,4800,,,,,,,VFR,,,,,,,,,,,,SPECI,60.0
CYYY 150000Z 22007KT 15SM OVC030 M08/M13 A3003 RMK SC8 SLP176,CYYY,2019-01-15T00:00:00Z,48.6,-68.22,-8.0,-13.0,220,7,,15.0,30.029528,1017.6,,,,,,,,,,OVC,3000,,,,,,,MVFR,,,,,,,,,,,,METAR,52.0
CBBC 150000Z AUTO 00000KT 9SM CLR 06/05 A2997 RMK SLP151,CBBC,2019-01-15T00:00:00Z,52.18,-128.15,6.0,5.0,0,0,,9.0,29.970472,1015.1,,TRUE,,,,,,,,CLR,,,,,,,,VFR,,,,,,,,,,,,METAR,43.0
CYZR 150000Z AUTO 20004KT 9SM FEW210 M03/M07 A3022 RMK SLP245,CYZR,2019-01-15T00:00:00Z,43.0,-82.3,-3.0,-7.0,200,4,,9.0,30.221457,1024.5,,TRUE,,,,,,,,FEW,21000,,,,,,,VFR,,,,,,,,,,,,METAR,181.0
SBRJ 150000Z 16004KT CAVOK 28/23 Q1013,SBRJ,2019-01-15T00:00:00Z,-22.88,-43.17,28.0,23.0,160,4,,6.21,29.911417,,,,,,,,,,,CAVOK,,,,,,,,VFR,,,,,,,,,,,,METAR,3.0
CYZE 150000Z AUTO 23004KT 8SM OVC015 M01/M01 A3011 RMK SLP208,CYZE,2019-01-15T00:00:00Z,45.87,-82.57,-1.0,-1.0,230,4,,8.0,30.109253,1020.8,,TRUE,,,,,,,,OVC,1500,,,,,,,MVFR,,,,,,,,,,,,METAR,193.0
CYBD 150000Z VRB02KT 15SM FEW260 00/00 A3006 RMK CI1 CI TR MIFG RWY W END SLP182,CYBD,2019-01-15T00:00:00Z,52.37,-126.57,0.0,0.0,0,2,,15.0,30.059055,1018.2,,,,,,,,,,FEW,26000,,,,,,,VFR,,,,,,,,,,,,METAR,35.0
CYCG 150000Z 36008KT 15SM OVC020 M01/M04 A3026 RMK SC8 SLP270,CYCG,2019-01-15T00:00:00Z,49.28,-117.62,-1.0,-4.0,360,8,,15.0,30.259842,1027.0,,,,,,,,,,OVC,2000,,,,,,,MVFR,,,,,,,,,,,,METAR,495.0
VTSE 150000Z 32003KT 6000 SCT020 24/24 Q1010 NOSIG,VTSE,2019-01-15T00:00:00Z,10.72,99.37,24.0,24.0,320,3,,3.73,29.822834,,,,,,TRUE,,,,,SCT,2000,,,,,,,MVFR,,,,,,,,,,,,METAR,5.0
VTSC 150000Z 20004KT 9999 FEW018 23/22 Q1011 NOSIG,VTSC,2019-01-15T00:00:00Z,6.52,101.75,23.0,22.0,200,4,,6.21,29.852362,,,,,,TRUE,,,,,FEW,1800,,,,,,,VFR,,,,,,,,,,,,METAR,6.0
VTSB 150000Z 00000KT 5000 BR FEW020 23/23 Q1011,VTSB,2019-01-15T00:00:00Z,9.12,99.13,23.0,23.0,0,0,,3.11,29.852362,,,,,,,,,,BR,FEW,2000,,,,,,,MVFR,,,,,,,,,,,,METAR,11.0
CYOC 150000Z 00000KT 35SM FEW040 FEW200 M32/M36 A3025 RMK SC1CI1 SLP291,CYOC,2019-01-15T00:00:00Z,67.57,-139.82,-32.0,-36.0,0,0,,35.0,30.250984,1029.1,,,,,,,,,,FEW,4000,FEW,20000,,,,,VFR,,,,,,,,,,,,METAR,251.0
CYMA 150000Z 20003KT 20SM FEW016 FEW030 M27/M30 A3021 RMK SC1SC1 CLIMAT -25.9/-31.4/0.0 SOG 18 SLP307,CYMA,2019-01-15T00:00:00Z,63.62,-135.87,-27.0,-30.0,200,3,,20.0,30.209646,1030.7,,,,,,,,,,FEW,1600,FEW,3000,,,,,VFR,,,,,,,,,,,,METAR,504.0
CYGE 150000Z VRB02KT 10SM OVC015 M04/M07 A3030 RMK SC8 VIS E LWR LAST STFD OBS/NEXT 151400Z SLP304,CYGE,2019-01-15T00:00:00Z,51.3,-116.98,-4.0,-7.0,0,2,,10.0,30.301182,1030.4,,,,,,,,,,OVC,1500,,,,,,,MVFR,,,,,,,,,,,,METAR,785.0
MDST 150000Z 16006KT 9999 FEW018 25/22 Q1016 NOSIG,MDST,2019-01-15T00:00:00Z,19.4,-70.6,25.0,22.0,160,6,,6.21,30.0,,,,,,TRUE,,,,,FEW,1800,,,,,,,VFR,,,,,,,,,,,,METAR,184.0
CYDL 150000Z AUTO 06004KT 9SM OVC080 M05/M06 A3007 RMK SLP226,CYDL,2019-01-15T00:00:00Z,58.42,-130.02,-5.0,-6.0,60,4,,9.0,30.070866,1022.6,,TRUE,,,,,,,,OVC,8000,,,,,,,VFR,,,,,,,,,,,,METAR,816.0
NCMG 150000Z AUTO 15009KT //// ////// 28/23 Q1004,NCMG,2019-01-15T00:00:00Z,-21.92,-157.95,28.0,23.0,150,9,,,29.64567,,,TRUE,,,,,,,,,,,,,,,,,,,,,,,,,,,,METAR,41.0
NCAT 150000Z AUTO 15003KT //// ////// Q1002,NCAT,2019-01-15T00:00:00Z,-19.97,-158.12,,,150,3,,,29.586615,,,TRUE,,,,,,,,,,,,,,,,,,,,,,,,,,,,METAR,11.0
NCRG 150000Z 11004KT 9999 SCT023 29/23 Q1009,NCRG,2019-01-15T00:00:00Z,-21.2,-159.82,29.0,23.0,110,4,,6.21,29.793306,,,,,,,,,,,SCT,2300,,,,,,,VFR,,,,,,,,,,,,METAR,7.0
CYXT 150000Z 36016G26KT 20SM FEW004 FEW009 SCT040 BKN110 OVC220 04/02 A3006 RMK SF1CF1CF1AC4CI1 SLP192,CYXT,2019-01-15T00:00:00Z,54.47,-128.57,4.0,2.0,360,16,26,20.0,30.059055,1019.2,,,,,,,,,,FEW,400,FEW,900,SCT,4000,BKN,11000,VFR,,,,,,,,,,,,METAR,217.0
CYXJ 150000Z 36013KT 60SM SCT170 BKN200 M02/M05 A3011 RMK AC3CI3 SLP232,CYXJ,2019-01-15T00:00:00Z,56.25,-120.73,-2.0,-5.0,360,13,,60.0,30.109253,1023.2,,,,,,,,,,SCT,17000,BKN,20000,,,,,VFR,,,,,,,,,,,,METAR,695.0
CYWL 150000Z 22002KT 15SM SCT220 M01/M05 A3008 RMK CI3 SLP235,CYWL,2019-01-15T00:00:00Z,52.18,-122.07,-1.0,-5.0,220,2,,15.0,30.079725,1023.5,,,,,,,,,,SCT,22000,,,,,,,VFR,,,,,,,,,,,,METAR,940.0
CYQU 150000Z 29008KT 25SM BKN190 BKN220 M03/M04 A3009 RMK CI5CI2 SLP236,CYQU,2019-01-15T00:00:00Z,55.18,-118.88,-3.0,-4.0,290,8,,25.0,30.088583,1023.6,,,,,,,,,,BKN,19000,BKN,22000,,,,,VFR,,,,,,,,,,,,METAR,669.0
OENG 150000Z 00000KT CAVOK 15/M01 Q1018 NOSIG,OENG,2019-01-15T00:00:00Z,17.62,44.42,15.0,-1.0,0,0,,6.21,30.059055,,,,,,TRUE,,,,,CAVOK,,,,,,,,VFR,,,,,,,,,,,,METAR,1203.0
OEPA 150000Z 01005KT 9000 TSRA FEW025CB BKN035 13/08 Q1017 NOSIG,OEPA,2019-01-15T00:00:00Z,28.32,46.12,13.0,8.0,10,5,,5.59,30.029528,,,,,,TRUE,,,,TSRA,FEW,2500,BKN,3500,,,,,VFR,,,,,,,,,,,,METAR,355.0
OERF 150000Z 00000KT CAVOK 11/M01 Q1018,OERF,2019-01-15T00:00:00Z,29.62,43.47,11.0,-1.0,0,0,,6.21,30.059055,,,,,,,,,,,CAVOK,,,,,,,,VFR,,,,,,,,,,,,METAR,447.0
CYXY 150000Z 35003KT 3SM BR OVC006 M12/M14 A3005 RMK ST8 OVC TPG HILLS ALQDS SLP244,CYXY,2019-01-15T00:00:00Z,60.72,-135.07,-12.0,-14.0,350,3,,3.0,30.050198,1024.4,,,,,,,,,BR,OVC,600,,,,,,,IFR,,,,,,,,,,,,SPECI,703.0
CYYD 150000Z 17003KT 25SM FEW002 FEW015 SCT065 BKN110 BKN210 01/00 A3010 RMK SF1SC1SC1AC3CI1 SLP213,CYYD,2019-01-15T00:00:00Z,54.82,-127.18,1.0,0.0,170,3,,25.0,30.100393,1021.3,,,,,,,,,,FEW,200,FEW,1500,SCT,6500,BKN,11000,VFR,,,,,,,,,,,,METAR,523.0
CYYE 150000Z 36003KT 15SM SCT050 M19/M22 RMK SC4 DENSITY ALT MISG,CYYE,2019-01-15T00:00:00Z,58.82,-122.57,-19.0,-22.0,360,3,,15.0,,,,,,,,,,,,SCT,5000,,,,,,,VFR,,,,,,,,,,,,METAR,382.0
CYZW 150000Z 00000KT 15SM OVC012 M06/M07 A3009 RMK ST8 SLP243,CYZW,2019-01-15T00:00:00Z,60.17,-132.75,-6.0,-7.0,0,0,,15.0,30.088583,1024.3,,,,,,,,,,OVC,1200,,,,,,,MVFR,,,,,,,,,,,,METAR,705.0
CYYF 150000Z 06003KT 15SM OVC015 M01/M04 A3027 RMK SC8 SLP267,CYYF,2019-01-15T00:00:00Z,49.47,-119.58,-1.0,-4.0,60,3,,15.0,30.268702,1026.7,,,,,,,,,,OVC,1500,,,,,,,MVFR,,,,,,,,,,,,METAR,344.0
OEKM 150000Z 20005KT CAVOK 11/M02 Q1024 NOSIG,OEKM,2019-01-15T00:00:00Z,18.3,42.78,11.0,-2.0,200,5,,6.21,30.236221,,,,,,TRUE,,,,,CAVOK,,,,,,,,VFR,,,,,,,,,,,,METAR,2054.0
CYGP 150000Z 26003KT 15SM SCT140 M13/M15 A3001 RMK AC3 SLP169,CYGP,2019-01-15T00:00:00Z,48.77,-64.47,-13.0,-15.0,260,3,,15.0,30.008858,1016.9,,,,,,,,,,SCT,14000,,,,,,,VFR,,,,,,,,,,,,METAR,33.0
CYBX 150000Z 25023G29KT 15SM -SN DRSN OVC014 M06/M08 A2996 RMK SC8 SLP150,CYBX,2019-01-15T00:00:00Z,51.45,-57.17,-6.0,-8.0,250,23,29,15.0,29.958662,1015.0,,,,,,,,,-SN DRSN,OVC,1400,,,,,,,MVFR,,,,,,,,,,,,METAR,35.0
CYMH 150000Z AUTO 25013G22KT 9SM BKN100 OVC130 M09/M13 A2991 RMK SLP130,CYMH,2019-01-15T00:00:00Z,52.28,-55.85,-9.0,-13.0,250,13,22,9.0,29.911417,1013.0,,TRUE,,,,,,,,BKN,10000,OVC,13000,,,,,VFR,,,,,,,,,,,,SPECI,11.0
CZMT 150000Z 09003KT 050V130 15SM FEW020 BKN040 OVC100 08/07 A2998 RMK CU1SC4AC3 SLP153,CZMT,2019-01-15T00:00:00Z,54.03,-132.13,8.0,7.0,90,3,,15.0,29.97933,1015.3,,,,,,,,,,FEW,2000,BKN,4000,OVC,10000,,,VFR,,,,,,,,,,,,METAR,8.0
NCMR 150000Z AUTO 12005KT //// ////// Q1007,NCMR,2019-01-15T00:00:00Z,-19.85,-157.7,,,120,5,,,29.734253,,,TRUE,,,,,,,,,,,,,,,,,,,,,,,,,,,,METAR,8.0
CYQI 150000Z 01009KT 15SM OVC240 M08/M11 A3003 RMK CS8 HALO SLP175,CYQI,2019-01-15T00:00:00Z,43.83,-66.08,-8.0,-11.0,10,9,,15.0,30.029528,1017.5,,,,,,,,,,OVC,24000,,,,,,,VFR,,,,,,,,,,,,METAR,43.0
CYOY 150000Z 24002KT 15SM OVC110 M13/M16 A3012 RMK AC8 DA-3104FT MOON DIMLY VISBL SLP219,CYOY,2019-01-15T00:00:00Z,46.88,-71.5,-13.0,-16.0,240,2,,15.0,30.121063,1021.9,,,,,,,,,,OVC,11000,,,,,,,VFR,,,,,,,,,,,,METAR,168.0
OETB 150000Z 00000KT CAVOK 05/M02 Q1016 NOSIG,OETB,2019-01-15T00:00:00Z,28.37,36.62,5.0,-2.0,0,0,,6.21,30.0,,,,,,TRUE,,,,,CAVOK,,,,,,,,VFR,,,,,,,,,,,,METAR,770.0
OESK 150000Z 13003KT CAVOK 06/M01 Q1020,OESK,2019-01-15T00:00:00Z,29.77,40.1,6.0,-1.0,130,3,,6.21,30.11811,,,,,,,,,,,CAVOK,,,,,,,,VFR,,,,,,,,,,,,METAR,684.0
OESH 150000Z 26004KT CAVOK 15/01 Q1016 NOSIG,OESH,2019-01-15T00:00:00Z,17.47,47.12,15.0,1.0,260,4,,6.21,30.0,,,,,,TRUE,,,,,CAVOK,,,,,,,,VFR,,,,,,,,,,,,METAR,722.0
CYZY 150000Z AUTO 08002KT 9SM FEW085 SCT140 RMK T MISG TD MISG DENSITY ALT MISG,CYZY,2019-01-15T00:00:00Z,55.28,-123.12,,,80,2,,9.0,,,,TRUE,,,,,,,,FEW,8500,SCT,14000,,,,,VFR,,,,,,,,,,,,SPECI,690.0
NCPY 150000Z AUTO 02008KT //// ////// 31/24 Q1007,NCPY,2019-01-15T00:00:00Z,-9.02,-158.07,31.0,24.0,20,8,,,29.734253,,,TRUE,,,,,,,,,,,,,,,,,,,,,,,,,,,,METAR,2.0
NCRK 150000Z AUTO 03002KT //// ////// 32/25 Q1007,NCRK,2019-01-15T00:00:00Z,-10.05,-161.08,32.0,25.0,30,2,,,29.734253,,,TRUE,,,,,,,,,,,,,,,,,,,,,,,,,,,,METAR,5.0
NCPK 150000Z AUTO NIL,NCPK,2019-01-15T00:00:00Z,-10.88,-165.82,,,,,,,,,,TRUE,,,,,,,,,,,,,,,,,,,,,,,,,,,,METAR,3.0
NIUE 150000Z 11012KT 9999 SCT018 31/23 Q1007,NIUE,2019-01-15T00:00:00Z,-19.07,-169.92,31.0,23.0,110,12,,6.21,29.734253,,,,,,,,,,,SCT,1800,,,,,,,VFR,,,,,,,,,,,,METAR,20.0
OIMD 150000Z AUTO 22010KT //// // ////// 06/M00 Q1013,OIMD,2019-01-15T00:00:00Z,34.38,58.63,6.0,0.0,220,10,,,29.911417,,,TRUE,,,,,,,,,,,,,,,,,,,,,,,,,,,,METAR,1100.0
OIMB 150000Z 13004KT CAVOK 06/M09 Q1016,OIMB,2019-01-15T00:00:00Z,32.9,59.28,6.0,-9.0,130,4,,6.21,30.0,,,,,,,,,,,CAVOK,,,,,,,,VFR,,,,,,,,,,,,METAR,1491.0
HDAM 150000Z 11008KT 9999 FEW020 25/21 Q1015,HDAM,2019-01-15T00:00:00Z,11.55,43.17,25.0,21.0,110,8,,6.21,29.970472,,,,,,,,,,,FEW,2000,,,,,,,VFR,,,,,,,,,,,,METAR,49.0
SAOC 150000Z 02006KT 9999 -TSRA FEW025 SCT040 FEW040CB 21/17 Q1014,SAOC,2019-01-15T00:00:00Z,-33.12,-64.27,21.0,17.0,20,6,,6.21,29.940945,,,,,,,,,,-TSRA,FEW,2500,SCT,4000,FEW,4000,,,VFR,,,,,,,,,,,,METAR,421.0
ULOO 150000Z AUTO 30004MPS 7000 // ///083/// M03/M04 Q0980 RMK QFE731,ULOO,2019-01-15T00:00:00Z,57.78,28.4,-3.0,-4.0,300,8,,4.35,28.937008,,,TRUE,,,,,,,,,,,,,,,,,,,,,,,,,,,,METAR,47.0
CYBB 150000Z 24012KT 10SM IC DRSN FEW010 M35/M39 A3006 RMK ST2 -33.5/-36.0/0.0/16/HARD PACK/LAST STFD OBS/NXT/151300Z SLP183,CYBB,2019-01-15T00:00:00Z,68.52,-89.82,-35.0,-39.0,240,12,,10.0,30.059055,1018.3,,,,,,,,,IC DRSN,FEW,1000,,,,,,,VFR,,,,,,,,,,,,METAR,15.0
CYCB 150000Z 28012KT 5SM -SN BR BKN030 M33/M37 A3047 RMK FG1SC5 FROIN SLP326,CYCB,2019-01-15T00:00:00Z,69.08,-105.12,-33.0,-37.0,280,12,,5.0,30.469488,1032.6,,,,,,,,,-SN BR,BKN,3000,,,,,,,MVFR,,,,,,,,,,,,METAR,27.0
OPST 150000Z 00000KT 4000 FU FEW040 SCT100 04/01 Q1017 NOSIG RH83,OPST,2019-01-15T00:00:00Z,32.53,74.37,4.0,1.0,0,0,,2.49,30.029528,,,,,,TRUE,,,,FU,FEW,4000,SCT,10000,,,,,IFR,,,,,,,,,,,,METAR,247.0
CYHI 150000Z 02007KT 15SM SKC M32/M36 A3066 RMK SLP391,CYHI,2019-01-15T00:00:00Z,70.77,-117.78,-32.0,-36.0,20,7,,15.0,30.661417,1039.1,,,,,,,,,,SKC,,,,,,,,VFR,,,,,,,,,,,,METAR,36.0
CYGT 150000Z 36011KT 15SM SKC M36/M40 A2982 RMK CALL OUT SLP110,CYGT,2019-01-15T00:00:00Z,69.37,-81.82,-36.0,-40.0,360,11,,15.0,29.819881,1011.0,,,,,,,,,,SKC,,,,,,,,VFR,,,,,,,,,,,,METAR,51.0
CYGH 150000Z 06006KT 15SM FEW110 FEW210 M27/M30 A3039 RMK AC2CI1 CI TR -25.9/ -28.1/ 0.0/ SNW CVR/ MEDIUM PACK/ LAST STFD OBS/ NXT 151400Z SLP307,CYGH,2019-01-15T00:00:00Z,66.27,-128.62,-27.0,-30.0,60,6,,15.0,30.389763,1030.7,,,,,,,,,,FEW,11000,FEW,21000,,,,,VFR,,,,,,,,,,,,METAR,66.0
CYFS 150000Z 08003KT 15SM FEW210 M28/M31 A3047 RMK CI1 CI TR SLP346,CYFS,2019-01-15T00:00:00Z,61.75,-121.22,-28.0,-31.0,80,3,,15.0,30.469488,1034.6,,,,,,,,,,FEW,21000,,,,,,,VFR,,,,,,,,,,,,METAR,169.0
CYCO 150000Z 22013KT 6SM IC DRSN FEW180 M38/M42 A3068 RMK AC1 AC TR VIS S 12 SLP396,CYCO,2019-01-15T00:00:00Z,67.82,-115.15,-38.0,-42.0,220,13,,6.0,30.679134,1039.6,,,,,,,,,IC DRSN,FEW,18000,,,,,,,VFR,,,,,,,,,,,,METAR,22.0
CYHK 150000Z 35014G22KT 3/4SM BLSN SKC M35/M38 A3017 RMK SLP230,CYHK,2019-01-15T00:00:00Z,68.62,-95.83,-35.0,-38.0,350,14,22,0.75,30.171259,1023.0,,,,,,,,,BLSN,SKC,,,,,,,,LIFR,,,,,,,,,,,,METAR,46.0
CYHY 150000Z 33005KT 15SM FEW050 SCT230 M28/M31 A3047 RMK SC1CI2 SLP345,CYHY,2019-01-15T00:00:00Z,60.82,-115.77,-28.0,-31.0,330,5,,15.0,30.469488,1034.5,,,,,,,,,,FEW,5000,SCT,23000,,,,,VFR,,,,,,,,,,,,METAR,166.0
FIMR 150000Z 11007KT 9999 FEW018 26/23 Q1014,FIMR,2019-01-15T00:00:00Z,-19.75,63.37,26.0,23.0,110,7,,6.21,29.940945,,,,,,,,,,,FEW,1800,,,,,,,VFR,,,,,,,,,,,,METAR,31.0
GMFM 150000Z 00000KT CAVOK 05/02 Q1021 NOSIG,GMFM,2019-01-15T00:00:00Z,33.87,-5.52,5.0,2.0,0,0,,6.21,30.147638,,,,,,TRUE,,,,,CAVOK,,,,,,,,VFR,,,,,,,,,,,,METAR,549.0
GMFK 150000Z 34003KT CAVOK 07/M08 Q1023 NOSIG,GMFK,2019-01-15T00:00:00Z,31.95,-4.4,7.0,-8.0,340,3,,6.21,30.206694,,,,,,TRUE,,,,,CAVOK,,,,,,,,VFR,,,,,,,,,,,,METAR,1045.0
GMFO 150000Z 18006KT CAVOK 04/M07 Q1021 NOSIG,GMFO,2019-01-15T00:00:00Z,34.77,-1.92,4.0,-7.0,180,6,,6.21,30.147638,,,,,,TRUE,,,,,CAVOK,,,,,,,,VFR,,,,,,,,,,,,METAR,470.0
CYKD 150000Z 17004KT 15SM SKC M33/M37 A3047 RMK 0.0 SNWCVR MUCHLOOSELAST STFD OBS/NEXT 151400Z SLP321,CYKD,2019-01-15T00:00:00Z,68.22,-135.0,-33.0,-37.0,170,4,,15.0,30.469488,1032.1,,,,,,,,,,SKC,,,,,,,,VFR,,,,,,,,,,,,METAR,7.0
CYLK 150000Z CCA 07005KT 25SM FEW070 M33/M38 A3048 RMK AC1 VIA CYWG SLP356,CYLK,2019-01-15T00:00:00Z,62.42,-110.67,-33.0,-38.0,70,5,,25.0,30.481298,1035.6,,,,,,,,,,FEW,7000,,,,,,,VFR,,,,,,,,,,,,SPECI,179.0
GMTN 150000Z AUTO 27014KT 9999NDV /// 15/01 Q1019,GMTN,2019-01-15T00:00:00Z,35.57,-5.32,15.0,1.0,270,14,,,30.088583,,,TRUE,,,,,,,,,,,,,,,,,,,,,,,,,,,,SPECI,10.0
GMTA 150000Z 18004KT CAVOK 09/00 Q1020 NOSIG,GMTA,2019-01-15T00:00:00Z,35.17,-3.85,9.0,0.0,180,4,,6.21,30.11811,,,,,,TRUE,,,,,CAVOK,,,,,,,,VFR,,,,,,,,,,,,METAR,14.0
GMMZ 150000Z VRB02KT CAVOK 08/M09 Q1022 NOSIG,GMMZ,2019-01-15T00:00:00Z,30.92,-6.9,8.0,-9.0,0,2,,6.21,30.177166,,,,,,TRUE,,,,,CAVOK,,,,,,,,VFR,,,,,,,,,,,,METAR,1140.0
GMMW 150000Z 31002KT CAVOK 05/M03 Q1019 NOSIG,GMMW,2019-01-15T00:00:00Z,34.98,-3.02,5.0,-3.0,310,2,,6.21,30.088583,,,,,,TRUE,,,,,CAVOK,,,,,,,,VFR,,,,,,,,,,,,METAR,175.0
GMML 150000Z 07012KT CAVOK 12/M02 Q1020 NOSIG,GMML,2019-01-15T00:00:00Z,27.13,-13.23,12.0,-2.0,70,12,,6.21,30.11811,,,,,,TRUE,,,,,CAVOK,,,,,,,,VFR,,,,,,,,,,,,METAR,6.0
YABA 150000Z AUTO 09007KT 9999 // OVC031 18/11 Q1016,YABA,2019-01-15T00:00:00Z,-34.93,117.8,18.0,11.0,90,7,,6.21,30.0,,,TRUE,,,,,,,,OVC,3100,,,,,,,VFR,,,,,,,,,,,,METAR,69.0
YAYE 150000Z AUTO 31006KT 280V340 9999 // NCD 38/06 Q1010,YAYE,2019-01-15T00:00:00Z,-25.18,130.98,38.0,6.0,310,6,,6.21,29.822834,,,TRUE,,,,,,,,CLR,,,,,,,,VFR,,,,,,,,,,,,SPECI,496.0
YARG 150000Z AUTO 33003KT 9999 // NCD 30/22 Q1009,YARG,2019-01-15T00:00:00Z,-16.63,128.45,30.0,22.0,330,3,,6.21,29.793306,,,TRUE,,,,,,,,CLR,,,,,,,,VFR,,,,,,,,,,,,METAR,165.0
WSAP 150000Z 35005KT 9999 FEW016 BKN300 27/24 Q1010,WSAP,2019-01-15T00:00:00Z,1.37,103.92,27.0,24.0,350,5,,6.21,29.822834,,,,,,,,,,,FEW,1600,BKN,30000,,,,,VFR,,,,,,,,,,,,METAR,32.0
YBDV 150000Z AUTO 36015KT //// // ////// 40/11 Q1009,YBDV,2019-01-15T00:00:00Z,-25.9,139.35,40.0,11.0,360,15,,,29.793306,,,TRUE,,,,,,,,,,,,,,,,,,,,,,,,,,,,METAR,47.0
YBCV 150000Z AUTO 01007KT 9999 // NCD 32/14 Q1015,YBCV,2019-01-15T00:00:00Z,-26.38,146.27,32.0,14.0,10,7,,6.21,29.970472,,,TRUE,,,,,,,,CLR,,,,,,,,VFR,,,,,,,,,,,,METAR,304.0
CYSY 150000Z 07013KT 15SM IC FEW210 M28/M31 A3067 RMK CI1 CI TR LAST OBS/NEXT 151400Z SLP405,CYSY,2019-01-15T00:00:00Z,72.0,-125.27,-28.0,-31.0,70,13,,15.0,30.670275,1040.5,,,,,,,,,IC,FEW,21000,,,,,,,VFR,,,,,,,,,,,,METAR,86.0
CYQH 150000Z 29004KT 20SM SCT014 OVC030 M11/M13 A3014 RMK SC3SC5 CLIMAT -11.0/-12.2/TRCM/TRMM MWE SLP265,CYQH,2019-01-15T00:00:00Z,60.12,-128.82,-11.0,-13.0,290,4,,20.0,30.138779,1026.5,,,,,,,,,,SCT,1400,OVC,3000,,,,,MVFR,,,,,,,,,,,,METAR,690.0
CYWK 150000Z 20005KT 180V250 15SM SCT029 M17/M20 A2969 RMK SC4 SLP110,CYWK,2019-01-15T00:00:00Z,52.92,-66.87,-17.0,-20.0,200,5,,15.0,29.68996,1011.0,,,,,,,,,,SCT,2900,,,,,,,VFR,,,,,,,,,,,,SPECI,551.0
CYBW 150000Z AUTO 35005KT 9SM CLR 04/M08 A3005 RMK SLP233,CYBW,2019-01-15T00:00:00Z,51.1,-114.37,4.0,-8.0,350,5,,9.0,30.050198,1023.3,,TRUE,,,,,,,,CLR,,,,,,,,VFR,,,,,,,,,,,,METAR,1200.0
CWRF 150000Z AUTO 32014KT M38/ A2983 RMK SLP170,CWRF,2019-01-15T00:00:00Z,69.42,-89.72,-38.0,,320,14,,,29.828741,1017.0,,TRUE,,,,,,,,,,,,,,,,,,,,,,,,,,,,METAR,325.0
CZUM 150000Z AUTO 24005KT 200V300 9SM BKN060 M15/M18 A2969 RMK SLP098,CZUM,2019-01-15T00:00:00Z,53.53,-64.08,-15.0,-18.0,240,5,,9.0,29.68996,1009.8,,TRUE,,,,,,,,BKN,6000,,,,,,,VFR,,,,,,,,,,,,METAR,440.0
CZPC 150000Z AUTO 36008KT 9SM CLR 02/M14 A3004 RMK SLP221,CZPC,2019-01-15T00:00:00Z,49.52,-114.0,2.0,-14.0,360,8,,9.0,30.041338,1022.1,,TRUE,,,,,,,,CLR,,,,,,,,VFR,,,,,,,,,,,,METAR,1190.0
CZFN 150000Z 06010KT 20SM SCT096 M24/M28 A3041 RMK AC3 -23.3 / -26.6 / TR / SNW CVR / MUCH LOOSE / LAST STFD OBS/NEXT 151600Z SLP314,CZFN,2019-01-15T00:00:00Z,64.92,-125.57,-24.0,-28.0,60,10,,20.0,30.410433,1031.4,,,,,,,,,,SCT,9600,,,,,,,VFR,,,,,,,,,,,,METAR,98.0
CZFM 150000Z 13004KT 35SM SKC M36/M40 A3044 RMK 0.0/0/SN CVR/MUCH LOOSE LAST OBS/JNXT 151400Z SLP318,CZFM,2019-01-15T00:00:00Z,67.4,-134.87,-36.0,-40.0,130,4,,35.0,30.43996,1031.8,,,,,,,,,,SKC,,,,,,,,VFR,,,,,,,,,,,,METAR,43.0
CWEU 150000Z 27005KT 230V020 10SM IC BKN097 M31/M34 A3017 RMK AC7 SLP219,CWEU,2019-01-15T00:00:00Z,80.0,-85.92,-31.0,-34.0,270,5,,10.0,30.171259,1021.9,,,,,,,,,IC,BKN,9700,,,,,,,VFR,,,,,,,,,,,,METAR,10.0
CYWJ 150000Z 10013G19KT 10SM SCT033 BKN088 M26/M29 A3041 RMK SC4AC3 -25.9/-27.2/0/33 MUCH LOOSE LAST STFD OBS/NXT 151400UTC SLP332,CYWJ,2019-01-15T00:00:00Z,65.22,-123.43,-26.0,-29.0,100,13,19,10.0,30.410433,1033.2,,,,,,,,,,SCT,3300,BKN,8800,,,,,VFR,,,,,,,,,,,,METAR,176.0
CYWE 150000Z AUTO 06006KT 9SM SCT110 M32/M36 A3042 RMK ICG SLP371,CYWE,2019-01-15T00:00:00Z,64.18,-114.08,-32.0,-36.0,60,6,,9.0,30.41929,1037.1,,TRUE,,,,,,,,SCT,11000,,,,,,,VFR,,,,,,,,,,,,METAR,371.0
DRRN 150000Z 05006KT 4500 DU NSC 22/M08 Q1014 BECMG 6000,DRRN,2019-01-15T00:00:00Z,13.47,2.17,22.0,-8.0,50,6,,2.8,29.940945,,,,,,,,,,DU,CLR,,,,,,,,IFR,,,,,,,,,,,,SPECI,227.0
DGAA 150000Z 22009KT 8000 FEW014 28/26 Q1012 NOSIG,DGAA,2019-01-15T00:00:00Z,5.58,-0.17,28.0,26.0,220,9,,4.97,29.88189,,,,,,TRUE,,,,,FEW,1400,,,,,,,MVFR,,,,,,,,,,,,METAR,69.0
CYQV 150000Z AUTO 18012G18KT 9SM FEW140 M04/M07 A2994 RMK PRESFR SLP177,CYQV,2019-01-15T00:00:00Z,51.27,-102.47,-4.0,-7.0,180,12,18,9.0,29.940945,1017.7,,TRUE,,,,,,,,FEW,14000,,,,,,,VFR,,,,,,,,,,,,METAR,498.0
CYPE 150000Z 06010KT 6SM BR OVC005 M10/M11 A3013 RMK ST8 SLP247,CYPE,2019-01-15T00:00:00Z,56.22,-117.45,-10.0,-11.0,60,10,,6.0,30.129921,1024.7,,,,,,,,,BR,OVC,500,,,,,,,IFR,,,,,,,,,,,,METAR,571.0
CYOD 150000Z 28008KT 10SM FEW017 SCT100 BKN190 M03/M05 A2991 RMK SC2AC2AC3 SLP160,CYOD,2019-01-15T00:00:00Z,54.4,-110.28,-3.0,-5.0,280,8,,10.0,29.911417,1016.0,,,,,,,,,,FEW,1700,SCT,10000,BKN,19000,,,VFR,,,,,,,,,,,,METAR,544.0
CYLJ 150000Z 24014KT 15SM DRSN FEW120 M04/M07 A2985 RMK AC2 LAST STFD OB/NXT 15 1200UTC SLP140,CYLJ,2019-01-15T00:00:00Z,54.12,-108.52,-4.0,-7.0,240,14,,15.0,29.84941,1014.0,,,,,,,,,DRSN,FEW,12000,,,,,,,VFR,,,,,,,,,,,,METAR,480.0
CYED 150000Z AUTO 28009KT 9SM CLR 02/M02 A3000 RMK SLP195,CYED,2019-01-15T00:00:00Z,53.67,-113.47,2.0,-2.0,280,9,,9.0,30.0,1019.5,,TRUE,,,,,,,,CLR,,,,,,,,VFR,,,,,,,,,,,,METAR,688.0
FYGB 150000Z AUTO 30006KT //// // ////// 22/17 Q1020,FYGB,2019-01-15T00:00:00Z,-22.5,18.97,22.0,17.0,300,6,,,30.11811,,,TRUE,,,,,,,,,,,,,,,,,,,,,,,,,,,,METAR,1442.0
FYKT 150000Z AUTO 22012KT //// // ////// 25/05 Q1016,FYKT,2019-01-15T00:00:00Z,-26.52,18.12,25.0,5.0,220,12,,,30.0,,,TRUE,,,,,,,,,,,,,,,,,,,,,,,,,,,,METAR,1061.0
FYOA 150000Z AUTO 06004KT //// // ////// 26/13 Q1013,FYOA,2019-01-15T00:00:00Z,-17.88,15.97,26.0,13.0,60,4,,,29.911417,,,TRUE,,,,,,,,,,,,,,,,,,,,,,,,,,,,METAR,1095.0
FYOW 150000Z AUTO 14001KT //// // ////// 20/13 Q1016,FYOW,2019-01-15T00:00:00Z,-20.43,16.67,20.0,13.0,140,1,,,30.0,,,TRUE,,,,,,,,,,,,,,,,,,,,,,,,,,,,SPECI,1481.0
FYOO 150000Z AUTO 21003KT //// // ////// 24/11 Q1014,FYOO,2019-01-15T00:00:00Z,-19.15,15.92,24.0,11.0,210,3,,,29.940945,,,TRUE,,,,,,,,,,,,,,,,,,,,,,,,,,,,METAR,1192.0
FYWB 150000Z AUTO 24005KT //// // ////// 19/16 Q1014,FYWB,2019-01-15T00:00:00Z,-22.98,14.65,19.0,16.0,240,5,,,29.940945,,,TRUE,,,,,,,,,,,,,,,,,,,,,,,,,,,,METAR,46.0
FYWH 150000Z AUTO 28005KT //// // ////// 21/00 Q1021,FYWH,2019-01-15T00:00:00Z,-22.47,17.47,21.0,0.0,280,5,,,30.147638,,,TRUE,,,,,,,,,,,,,,,,,,,,,,,,,,,,METAR,1700.0
AYPY 150000Z 31010KT 9999 SCT030 31/24 Q1009,AYPY,2019-01-15T00:00:00Z,-9.42,147.22,31.0,24.0,310,10,,6.21,29.793306,,,,,,,,,,,SCT,3000,,,,,,,VFR,,,,,,,,,,,,METAR,47.0
GOOD 150000Z 36004KT 8000 NSC 23/12 Q1014,GOOD,2019-01-15T00:00:00Z,14.65,-16.22,23.0,12.0,360,4,,4.97,29.940945,,,,,,,,,,,CLR,,,,,,,,MVFR,,,,,,,,,,,,METAR,9.0
GOGK 150000Z 00000KT 8000 NSC 19/16 Q1011,GOGK,2019-01-15T00:00:00Z,12.9,-14.97,19.0,16.0,0,0,,4.97,29.852362,,,,,,,,,,,CLR,,,,,,,,MVFR,,,,,,,,,,,,METAR,10.0
GOOG 150000Z 02004KT 8000 NSC 23/08 Q////,GOOG,2019-01-15T00:00:00Z,15.4,-15.08,23.0,8.0,20,4,,4.97,,,,,,,,,,,,CLR,,,,,,,,MVFR,,,,,,,,,,,,METAR,21.0
GOSM 150000Z 12002KT CAVOK 23/04 Q1013,GOSM,2019-01-15T00:00:00Z,15.6,-13.33,23.0,4.0,120,2,,6.21,29.911417,,,,,,,,,,,CAVOK,,,,,,,,VFR,,,,,,,,,,,,METAR,17.0
GOSP 150000Z 00000KT CAVOK 23/03 Q1014,GOSP,2019-01-15T00:00:00Z,16.68,-14.97,23.0,3.0,0,0,,6.21,29.940945,,,,,,,,,,,CAVOK,,,,,,,,VFR,,,,,,,,,,,,METAR,7.0
FYWW 150000Z AUTO 34003KT //// // ////// 20/12 Q1020,FYWW,2019-01-15T00:00:00Z,-22.57,17.1,20.0,12.0,340,3,,,30.11811,,,TRUE,,,,,,,,,,,,,,,,,,,,,,,,,,,,SPECI,1725.0
DXSK 150000Z 00000KT CAVOK 24/09 Q////,DXSK,2019-01-15T00:00:00Z,9.0,1.15,24.0,9.0,0,0,,6.21,,,,,,,,,,,,CAVOK,,,,,,,,VFR,,,,,,,,,,,,METAR,387.0
DXNG 150000Z 06004KT CAVOK 23/M04 Q1015,DXNG,2019-01-15T00:00:00Z,9.77,1.1,23.0,-4.0,60,4,,6.21,29.970472,,,,,,,,,,,CAVOK,,,,,,,,VFR,,,,,,,,,,,,METAR,343.0
AYNZ 150000Z 27010KT 9999 SCT030 30/22 Q1007 RMK: BUILD UPS IN AREA,AYNZ,2019-01-15T00:00:00Z,-6.57,146.72,30.0,22.0,270,10,,6.21,29.734253,,,,,,,,,,,SCT,3000,,,,,,,VFR,,,,,,,,,,,,METAR,70.0
FTTJ 150000Z 32005KT 6000 NSC 17/03 Q1014 NOSIG,FTTJ,2019-01-15T00:00:00Z,12.12,15.02,17.0,3.0,320,5,,3.73,29.940945,,,,,,TRUE,,,,,CLR,,,,,,,,MVFR,,,,,,,,,,,,METAR,295.0
DBBB 150000Z 22009KT 8000 SCT011 29/26 Q1011 NOSIG,DBBB,2019-01-15T00:00:00Z,6.33,2.37,29.0,26.0,220,9,,4.97,29.852362,,,,,,TRUE,,,,,SCT,1100,,,,,,,MVFR,,,,,,,,,,,,METAR,9.0
DFOO 150000Z 02006KT CAVOK 25/04 Q1014,DFOO,2019-01-15T00:00:00Z,11.17,-4.32,25.0,4.0,20,6,,6.21,29.940945,,,,,,,,,,,CAVOK,,,,,,,,VFR,,,,,,,,,,,,METAR,460.0
CYUB 150000Z 10014KT 15SM FEW026 BKN075 M22/M25 A3050 RMK SC1AC7 SC TR SLP331,CYUB,2019-01-15T00:00:00Z,69.45,-133.02,-22.0,-25.0,100,14,,15.0,30.499016,1033.1,,,,,,,,,,FEW,2600,BKN,7500,,,,,VFR,,,,,,,,,,,,METAR,5.0
DAOR 150000Z 12002KT CAVOK 04/M08 Q1022,DAOR,2019-01-15T00:00:00Z,31.65,-2.27,4.0,-8.0,120,2,,6.21,30.177166,,,,,,,,,,,CAVOK,,,,,,,,VFR,,,,,,,,,,,,METAR,773.0
DAOF 150000Z 06004KT CAVOK 08/M08 Q1021,DAOF,2019-01-15T00:00:00Z,27.7,-8.17,8.0,-8.0,60,4,,6.21,30.147638,,,,,,,,,,,CAVOK,,,,,,,,VFR,,,,,,,,,,,,METAR,431.0
CYZU 150000Z 28008KT 15SM FEW150 SCT210 01/M02 A3007 RMK AC2CI1 SLP224,CYZU,2019-01-15T00:00:00Z,54.15,-115.78,1.0,-2.0,280,8,,15.0,30.070866,1022.4,,,,,,,,,,FEW,15000,SCT,21000,,,,,VFR,,,,,,,,,,,,METAR,785.0
CYXH 150000Z 29007KT 30SM FEW270 03/M07 A3000 RMK CI1 SLP196,CYXH,2019-01-15T00:00:00Z,50.02,-110.72,3.0,-7.0,290,7,,30.0,30.0,1019.6,,,,,,,,,,FEW,27000,,,,,,,VFR,,,,,,,,,,,,METAR,716.0
DAUT 150000Z 00000KT CAVOK 05/M05 Q1021,DAUT,2019-01-15T00:00:00Z,29.25,0.27,5.0,-5.0,0,0,,6.21,30.147638,,,,,,,,,,,CAVOK,,,,,,,,VFR,,,,,,,,,,,,METAR,312.0
DAUO 150000Z 21006KT CAVOK 08/01 Q1016,DAUO,2019-01-15T00:00:00Z,33.5,6.78,8.0,1.0,210,6,,6.21,30.0,,,,,,,,,,,CAVOK,,,,,,,,VFR,,,,,,,,,,,,METAR,63.0
DAUI 150000Z 00000KT CAVOK 03/M10 Q1020,DAUI,2019-01-15T00:00:00Z,27.25,2.52,3.0,-10.0,0,0,,6.21,30.11811,,,,,,,,,,,CAVOK,,,,,,,,VFR,,,,,,,,,,,,METAR,269.0
DAUE 150000Z 33007KT CAVOK 06/M04 Q1020,DAUE,2019-01-15T00:00:00Z,30.57,2.87,6.0,-4.0,330,7,,6.21,30.11811,,,,,,,,,,,CAVOK,,,,,,,,VFR,,,,,,,,,,,,METAR,397.0
RJAW 150000Z 06011KT 9999 BKN030 20/13 Q1018 RMK 5CU030 A3007,RJAW,2019-01-15T00:00:00Z,24.77,141.32,20.0,13.0,60,11,,6.21,30.059055,,,,,,,,,,,BKN,3000,,,,,,,MVFR,,,,,,,,,,,,METAR,116.0
CWZL 150000Z AUTO 14009KT 08/07 RMK AO1 SLP151 T00750074 56016,CWZL,2019-01-15T00:00:00Z,53.03,-131.6,7.5,7.4,140,9,,,,1015.1,,TRUE,TRUE,,,,,,,,,,,,,,,,-1.6,,,,,,,,,,,METAR,17.0
CXTV 150000Z AUTO 08002KT M29/M32 RMK AO1 SOG 34 3009 SLP316 T12931323,CXTV,2019-01-15T00:00:00Z,68.75,-133.5,-29.3,-32.3,80,2,,,,1031.6,,TRUE,TRUE,,,,,,,,,,,,,,,,,,,,,,,,,,,METAR,85.0
CWZV 150000Z AUTO 10012KT 08/ RMK AO1 SLP137 T0077 56017,CWZV,2019-01-15T00:00:00Z,51.93,-131.02,7.7,,100,12,,,,1013.7,,TRUE,TRUE,,,,,,,,,,,,,,,,-1.7,,,,,,,,,,,METAR,92.0
CXAF 150000Z AUTO 29008KT M01/M04 RMK AO1 T10131038,CXAF,2019-01-15T00:00:00Z,54.28,-112.97,-1.3,-3.8,290,8,,,,,,TRUE,TRUE,,,,,,,,,,,,,,,,,,,,,,,,,,,METAR,664.0
CWJO 150000Z AUTO 13001KT M11/M14 RMK AO1 SLP198 T11081135 57002,CWJO,2019-01-15T00:00:00Z,48.43,-71.15,-10.8,-13.5,130,1,,,,1019.8,,TRUE,TRUE,,,,,,,,,,,,,,,,-0.2,,,,,,,,,,,METAR,133.0
CXDP 150000Z AUTO 27006KT M04/M05 RMK AO1 T10361051,CXDP,2019-01-15T00:00:00Z,54.32,-113.95,-3.6,-5.1,270,6,,,,,,TRUE,TRUE,,,,,,,,,,,,,,,,,,,,,,,,,,,METAR,614.0
CWWX 150000Z AUTO 29010G17KT M00/M02 RMK AO1 PK WND 31019/2323 SLP205 T10021016 58002,CWWX,2019-01-15T00:00:00Z,45.32,-81.73,-0.2,-1.6,290,10,17,,,1020.5,,TRUE,TRUE,,,,,,,,,,,,,,,,-0.2,,,,,,,,,,,METAR,181.0
CWHP 150000Z AUTO 24019KT M05/M08 RMK AO1 SOG 06 6010 PK WND 24023/2304 SLP175 T10541082,CWHP,2019-01-15T00:00:00Z,49.07,-61.7,-5.4,-8.2,240,19,,,,1017.5,,TRUE,TRUE,,,,,,,,,,,,,,,,,,,,,,,,,,,METAR,4.0
CWRU 150000Z AUTO 36011KT 08/06 RMK AO1 SLP132 T00830057 56012,CWRU,2019-01-15T00:00:00Z,50.12,-127.93,8.3,5.7,360,11,,,,1013.2,,TRUE,TRUE,,,,,,,,,,,,,,,,-1.2,,,,,,,,,,,METAR,98.0
OIAM 150000Z 12006KT 5000 BR FEW035CB SCT040 OVC100 18/17 Q1015,OIAM,2019-01-15T00:00:00Z,30.55,49.15,18.0,17.0,120,6,,3.11,29.970472,,,,,,,,,,BR,FEW,3500,SCT,4000,OVC,10000,,,MVFR,,,,,,,,,,,,METAR,4.0
VYNT 150000Z 31005KT 5000 HZ FEW018 FEW110 15/13 Q1013,VYNT,2019-01-15T00:00:00Z,19.62,96.2,15.0,13.0,310,5,,3.11,29.911417,,,,,,,,,,HZ,FEW,1800,FEW,11000,,,,,MVFR,,,,,,,,,,,,METAR,610.0
CYRA 150000Z 35005KT 15SM SCT100 M35/M39 A3052 RMK AC4 SLP377,CYRA,2019-01-15T00:00:00Z,64.12,-117.32,-35.0,-39.0,350,5,,15.0,30.519686,1037.7,,,,,,,,,,SCT,10000,,,,,,,VFR,,,,,,,,,,,,METAR,213.0
LPOV 150000Z VRB01KT 8000 NSC 03/03 Q1021,LPOV,2019-01-15T00:00:00Z,40.92,-8.65,3.0,3.0,0,1,,4.97,30.147638,,,,,,,,,,,CLR,,,,,,,,MVFR,,,,,,,,,,,,METAR,17.0
LPMT 150000Z VRB01KT CAVOK 08/08 Q1021,LPMT,2019-01-15T00:00:00Z,38.7,-9.05,8.0,8.0,0,1,,6.21,30.147638,,,,,,,,,,,CAVOK,,,,,,,,VFR,,,,,,,,,,,,METAR,11.0
LPMR 150000Z 16002KT 3000 BR NSC 05/05 Q1022,LPMR,2019-01-15T00:00:00Z,39.82,-8.87,5.0,5.0,160,2,,1.86,30.177166,,,,,,,,,,BR,CLR,,,,,,,,IFR,,,,,,,,,,,,METAR,54.0
WMKE 150000Z VRB02KT 9999 FEW012 SCT150 BKN270 24/23 Q1010,WMKE,2019-01-15T00:00:00Z,4.53,103.43,24.0,23.0,0,2,,6.21,29.822834,,,,,,,,,,,FEW,1200,SCT,15000,BKN,27000,,,VFR,,,,,,,,,,,,METAR,5.0
WMKB 150000Z VRB03KT 9999 FEW020 BKN280 24/22 Q1009 NOSIG,WMKB,2019-01-15T00:00:00Z,5.47,100.37,24.0,22.0,0,3,,6.21,29.793306,,,,,,TRUE,,,,,FEW,2000,BKN,28000,,,,,VFR,,,,,,,,,,,,METAR,4.0
WMKI 150000Z 02004KT 9999 FEW005 FEW017CB BKN280 23/21 Q1010,WMKI,2019-01-15T00:00:00Z,4.57,101.08,23.0,21.0,20,4,,6.21,29.822834,,,,,,,,,,,FEW,500,FEW,1700,BKN,28000,,,VFR,,,,,,,,,,,,METAR,39.0
OJAQ 150000Z 04004KT 7000 NSC 12/01 Q1016 NOSIG,OJAQ,2019-01-15T00:00:00Z,29.62,35.02,12.0,1.0,40,4,,4.35,30.0,,,,,,TRUE,,,,,CLR,,,,,,,,MVFR,,,,,,,,,,,,METAR,51.0
DFFD 150000Z 02004KT CAVOK 23/M05 Q1014 NOSIG,DFFD,2019-01-15T00:00:00Z,12.33,-1.52,23.0,-5.0,20,4,,6.21,29.940945,,,,,,TRUE,,,,,CAVOK,,,,,,,,VFR,,,,,,,,,,,,METAR,306.0
OLBA 150000Z 19017KT 8000 BKN026 15/08 Q1015 NOSIG,OLBA,2019-01-15T00:00:00Z,33.82,35.47,15.0,8.0,190,17,,4.97,29.970472,,,,,,TRUE,,,,,BKN,2600,,,,,,,MVFR,,,,,,,,,,,,METAR,19.0
MZBZ 150000Z 00000KT 9999 FEW022 BKN045 25/22 A3005 Q1017 NOSIG,MZBZ,2019-01-15T00:00:00Z,17.52,-88.3,25.0,22.0,0,0,,6.21,30.029528,,,,,,TRUE,,,,,FEW,2200,BKN,4500,,,,,VFR,,,,,,,,,,,,METAR,5.0
MPTO 150000Z 33008KT 9999 SCT020 28/20 Q1011 NOSIG,MPTO,2019-01-15T00:00:00Z,9.05,-79.37,28.0,20.0,330,8,,6.21,29.852362,,,,,,TRUE,,,,,SCT,2000,,,,,,,VFR,,,,,,,,,,,,METAR,45.0
LKKV 150000Z 26010KT 2000 -SN BR BKN006 BKN013 OVC013 M03/M04 Q1012 R29///////,LKKV,2019-01-15T00:00:00Z,50.2,12.92,-3.0,-4.0,260,10,,1.24,29.88189,,,,,,,,,,-SN BR,BKN,600,BKN,1300,OVC,1300,,,IFR,,,,,,,,,,,,METAR,604.0
VGHS 150000Z 34006KT 3100 HZ NSC 16/12 Q1015 TEMPO S/VIS 2500M,VGHS,2019-01-15T00:00:00Z,23.85,90.4,16.0,12.0,340,6,,1.93,29.970472,,,,,,,,,,HZ,CLR,,,,,,,,IFR,,,,,,,,,,,,METAR,10.0
CWAE 150000Z 32002KT 15SM SKC M01/M02 A3005 RMK WND ESTD SLP199,CWAE,2019-01-15T00:00:00Z,50.13,-122.95,-1.0,-2.0,320,2,,15.0,30.050198,1019.9,,,,,,,,,,SKC,,,,,,,,VFR,,,,,,,,,,,,METAR,658.0
BIEG 150000Z 02007G18KT 9999 SCT017 BKN022 OVC033 M01/M04 Q0992 R04/750195,BIEG,2019-01-15T00:00:00Z,65.27,-14.4,-1.0,-4.0,20,7,18,6.21,29.291338,,,,,,,,,,,SCT,1700,BKN,2200,OVC,3300,,,MVFR,,,,,,,,,,,,METAR,38.0
BIAR 150000Z 15006KT 9999 -SG FEW017 SCT052 M05/M05 Q0991,BIAR,2019-01-15T00:00:00Z,65.67,-18.07,-5.0,-5.0,150,6,,6.21,29.26181,,,,,,,,,,-SG,FEW,1700,SCT,5200,,,,,VFR,,,,,,,,,,,,METAR,27.0
OERR 150000Z 27006KT CAVOK 05/05 Q1017 NOSIG,OERR,2019-01-15T00:00:00Z,30.88,41.12,5.0,5.0,270,6,,6.21,30.029528,,,,,,TRUE,,,,,CAVOK,,,,,,,,VFR,,,,,,,,,,,,METAR,552.0
TAPA 150000Z 08007KT 9999 FEW020 25/20 Q1017 NOSIG,TAPA,2019-01-15T00:00:00Z,17.12,-61.78,25.0,20.0,80,7,,6.21,30.029528,,,,,,TRUE,,,,,FEW,2000,,,,,,,VFR,,,,,,,,,,,,METAR,14.0
DAUK 150000Z 20003KT CAVOK 07/M05 Q1017,DAUK,2019-01-15T00:00:00Z,33.08,6.12,7.0,-5.0,200,3,,6.21,30.029528,,,,,,,,,,,CAVOK,,,,,,,,VFR,,,,,,,,,,,,METAR,85.0
DAOV 150000Z 17002KT CAVOK 02/M05 Q1020,DAOV,2019-01-15T00:00:00Z,35.2,0.15,2.0,-5.0,170,2,,6.21,30.11811,,,,,,,,,,,CAVOK,,,,,,,,VFR,,,,,,,,,,,,METAR,514.0
DAOL 150000Z 00000KT CAVOK 02/M00 Q1020,DAOL,2019-01-15T00:00:00Z,35.53,-0.52,2.0,0.0,0,0,,6.21,30.11811,,,,,,,,,,,CAVOK,,,,,,,,VFR,,,,,,,,,,,,METAR,112.0
DAAP 150000Z 00000KT CAVOK 03/M07 Q1021,DAAP,2019-01-15T00:00:00Z,26.72,8.62,3.0,-7.0,0,0,,6.21,30.147638,,,,,,,,,,,CAVOK,,,,,,,,VFR,,,,,,,,,,,,METAR,558.0
WMKJ 150000Z 00000KT 9999 FEW024 BKN280 25/24 Q1010,WMKJ,2019-01-15T00:00:00Z,1.62,103.67,25.0,24.0,0,0,,6.21,29.822834,,,,,,,,,,,FEW,2400,BKN,28000,,,,,VFR,,,,,,,,,,,,METAR,40.0
WBGB 150000Z 12003KT 080V160 9999 FEW016 BKN150 25/24 Q1009,WBGB,2019-01-15T00:00:00Z,3.12,113.02,25.0,24.0,120,3,,6.21,29.793306,,,,,,,,,,,FEW,1600,BKN,15000,,,,,VFR,,,,,,,,,,,,METAR,5.0
SAWG 150000Z 34011KT CAVOK 17/M01 Q1001,SAWG,2019-01-15T00:00:00Z,-51.62,-69.32,17.0,-1.0,340,11,,6.21,29.557087,,,,,,,,,,,CAVOK,,,,,,,,VFR,,,,,,,,,,,,METAR,19.0
SASJ 150000Z 18008KT 9999 VCSH FEW004 SCT015 OVC050 21/20 Q1012,SASJ,2019-01-15T00:00:00Z,-24.37,-65.1,21.0,20.0,180,8,,6.21,29.88189,,,,,,,,,,VCSH,FEW,400,SCT,1500,OVC,5000,,,VFR,,,,,,,,,,,,METAR,1167.0
LBIA 142400Z 00000KT 9999 BKN100 M00/M02 Q1002,LBIA,2019-01-15T00:00:00Z,42.45,26.35,0.0,-2.0,0,0,,6.21,29.586615,,,,,,,,,,,BKN,10000,,,,,,,VFR,,,,,,,,,,,,METAR,155.0
MYGF 150000Z 34008KT 9999 FEW025 21/18 A3010,MYGF,2019-01-15T00:00:00Z,26.55,-78.7,21.0,18.0,340,8,,6.21,30.100393,,,,,,,,,,,FEW,2500,,,,,,,VFR,,,,,,,,,,,,METAR,2.0
FMSD 150000Z 10006KT 9999 SCT016 27/25 Q1015,FMSD,2019-01-15T00:00:00Z,-25.02,46.95,27.0,25.0,100,6,,6.21,29.970472,,,,,,,,,,,SCT,1600,,,,,,,VFR,,,,,,,,,,,,METAR,9.0
FMMT 150000Z 24004KT 9999 VCSH FEW007 SCT017TCU BKN033 25/24 Q1014,FMMT,2019-01-15T00:00:00Z,-18.12,49.38,25.0,24.0,240,4,,6.21,29.940945,,,,,,,,,,VCSH,FEW,700,SCT,1700,BKN,3300,,,VFR,,,,,,,,,,,,METAR,6.0
FMNM 150000Z 16002KT 9999 FEW020CB 26/23 Q1011,FMNM,2019-01-15T00:00:00Z,-15.67,46.35,26.0,23.0,160,2,,6.21,29.852362,,,,,,,,,,,FEW,2000,,,,,,,VFR,,,,,,,,,,,,METAR,18.0
DAUU 150000Z 00000KT CAVOK 08/M08 Q1017,DAUU,2019-01-15T00:00:00Z,31.92,5.4,8.0,-8.0,0,0,,6.21,30.029528,,,,,,,,,,,CAVOK,,,,,,,,VFR,,,,,,,,,,,,METAR,141.0
FQMA 150000Z 19003KT 9999 BKN020 26/24 Q1009 RESHRA NOSIG,FQMA,2019-01-15T00:00:00Z,-25.92,32.57,26.0,24.0,190,3,,6.21,29.793306,,,,,,TRUE,,,,,BKN,2000,,,,,,,MVFR,,,,,,,,,,,,SPECI,44.0
WBGR 150000Z VRB03KT 9999 FEW010 SCT150 BKN300 26/24 Q1009,WBGR,2019-01-15T00:00:00Z,4.32,113.97,26.0,24.0,0,3,,6.21,29.793306,,,,,,,,,,,FEW,1000,SCT,15000,BKN,30000,,,VFR,,,,,,,,,,,,METAR,18.0
WBGS 150000Z VRB01KT 9999 FEW010 SCT150 BKN300 25/24 Q1009,WBGS,2019-01-15T00:00:00Z,2.27,111.98,25.0,24.0,0,1,,6.21,29.793306,,,,,,,,,,,FEW,1000,SCT,15000,BKN,30000,,,VFR,,,,,,,,,,,,METAR,8.0
WBGY 150000Z VRB01KT 9999 FEW004 SCT022 BKN300 24/24 Q1009,WBGY,2019-01-15T00:00:00Z,1.22,111.43,24.0,24.0,0,1,,6.21,29.793306,,,,,,,,,,,FEW,400,SCT,2200,BKN,30000,,,VFR,,,,,,,,,,,,METAR,34.0
WBKT 150000Z 06006KT 300V100 9999 FEW009 SCT032 BKN260 27/25 Q1010,WBKT,2019-01-15T00:00:00Z,6.92,116.82,27.0,25.0,60,6,,6.21,29.822834,,,,,,,,,,,FEW,900,SCT,3200,BKN,26000,,,VFR,,,,,,,,,,,,METAR,5.0
WBKS 150000Z 30006KT 240V040 9000 SCT010 SCT050 BKN280 26/24 Q1010,WBKS,2019-01-15T00:00:00Z,5.9,118.07,26.0,24.0,300,6,,5.59,29.822834,,,,,,,,,,,SCT,1000,SCT,5000,BKN,28000,,,VFR,,,,,,,,,,,,METAR,13.0
YGFN 150000Z AUTO 36007KT 320V030 9999 // NCD 28/18 Q1016,YGFN,2019-01-15T00:00:00Z,-29.77,153.03,28.0,18.0,360,7,,6.21,30.0,,,TRUE,,,,,,,,CLR,,,,,,,,VFR,,,,,,,,,,,,METAR,34.0
WABB 150000Z 31007KT 9999 FEW018 OVC100 28/25 Q1008 NOSIG,WABB,2019-01-15T00:00:00Z,-1.17,136.12,28.0,25.0,310,7,,6.21,29.763779,,,,,,TRUE,,,,,FEW,1800,OVC,10000,,,,,VFR,,,,,,,,,,,,METAR,11.0
OIMT 150000Z AUTO 09002KT //// // ////// 12/M03 Q1013,OIMT,2019-01-15T00:00:00Z,33.67,56.92,12.0,-3.0,90,2,,,29.911417,,,TRUE,,,,,,,,,,,,,,,,,,,,,,,,,,,,METAR,711.0
URMN 150000Z 00000MPS 0500 R24/0650 FZFG VV001 M02/M02 Q1004 R24/////// NOSIG RMK QBB050 MT OBSC OBST OBSC QFE717,URMN,2019-01-15T00:00:00Z,43.52,43.63,-2.0,-2.0,0,0,,0.31,29.64567,,,,,,TRUE,,,,FZFG,OVX,0,,,,,,,LIFR,,,,,,,,,,,100,METAR,445.0
RJOY 150000Z VRB02KT 9999 FEW025 SCT080 BKN/// 05/01 Q1021,RJOY,2019-01-15T00:00:00Z,34.6,135.58,5.0,1.0,0,2,,6.21,30.147638,,,,,,,,,,,FEW,2500,SCT,8000,,,,,VFR,,,,,,,,,,,,METAR,13.0
RJOW 150000Z 16011KT 9999 FEW030 SCT070 BKN130 09/04 Q1018,RJOW,2019-01-15T00:00:00Z,34.67,131.8,9.0,4.0,160,11,,6.21,30.059055,,,,,,,,,,,FEW,3000,SCT,7000,BKN,13000,,,VFR,,,,,,,,,,,,METAR,54.0
RJOS 150000Z 28004KT 9999 FEW030 BKN070 04/01 Q1021,RJOS,2019-01-15T00:00:00Z,34.12,134.62,4.0,1.0,280,4,,6.21,30.147638,,,,,,,,,,,FEW,3000,BKN,7000,,,,,VFR,,,,,,,,,,,,METAR,11.0
RJOR 150000Z 17018KT 9999 FEW040 SCT070 BKN150 09/01 Q1017,RJOR,2019-01-15T00:00:00Z,35.52,134.17,9.0,1.0,170,18,,6.21,30.029528,,,,,,,,,,,FEW,4000,SCT,7000,BKN,15000,,,VFR,,,,,,,,,,,,METAR,18.0
PGUA 150000Z 07014KT 10SM BKN016 BKN034 OVC041 25/22 A2990 RMK AO2A RAE00 SLP115 $,PGUA,2019-01-15T00:00:00Z,13.57,144.92,25.0,22.0,70,14,,10.0,29.899607,1011.5,,,TRUE,TRUE,,,,,,BKN,1600,BKN,3400,OVC,4100,,,MVFR,,,,,,,,,,,,METAR,187.0
OEYN 150000Z 27005KT 9999 FEW040 18/10 Q1012 NOSIG,OEYN,2019-01-15T00:00:00Z,24.13,38.07,18.0,10.0,270,5,,6.21,29.88189,,,,,,TRUE,,,,,FEW,4000,,,,,,,VFR,,,,,,,,,,,,METAR,8.0
OEWJ 150000Z 02006KT 9000 NSC 14/08 Q1016 NOSIG,OEWJ,2019-01-15T00:00:00Z,26.18,36.47,14.0,8.0,20,6,,5.59,30.0,,,,,,TRUE,,,,,CLR,,,,,,,,VFR,,,,,,,,,,,,METAR,16.0
OEWD 150000Z 18004KT CAVOK 16/05 Q1015 NOSIG,OEWD,2019-01-15T00:00:00Z,20.5,45.2,16.0,5.0,180,4,,6.21,29.970472,,,,,,TRUE,,,,,CAVOK,,,,,,,,VFR,,,,,,,,,,,,METAR,617.0
OETR 150000Z 23004KT CAVOK 03/02 Q1016,OETR,2019-01-15T00:00:00Z,31.7,38.73,3.0,2.0,230,4,,6.21,30.0,,,,,,,,,,,CAVOK,,,,,,,,VFR,,,,,,,,,,,,METAR,855.0
OETF 150000Z 00000KT CAVOK 14/04 Q1020 NOSIG,OETF,2019-01-15T00:00:00Z,21.47,40.53,14.0,4.0,0,0,,6.21,30.11811,,,,,,TRUE,,,,,CAVOK,,,,,,,,VFR,,,,,,,,,,,,METAR,1449.0
WMKM 150000Z 05003KT 360V080 9999 FEW017CB SCT150 BKN280 24/23 Q1010,WMKM,2019-01-15T00:00:00Z,2.27,102.25,24.0,23.0,50,3,,6.21,29.822834,,,,,,,,,,,FEW,1700,SCT,15000,BKN,28000,,,VFR,,,,,,,,,,,,METAR,9.0
CTNK 150000Z AUTO 00000KT M08/M10 RMK AO1 SOG 44 6004 SLP223 T10771095,CTNK,2019-01-15T00:00:00Z,45.53,-78.27,-7.7,-9.5,0,0,,,,1022.3,,TRUE,TRUE,,,,,,,,,,,,,,,,,,,,,,,,,,,METAR,410.0
CYSB 150000Z 24008KT 3SM -SN OVC005 M04/M05 A3005 RMK ST8 SLP204,CYSB,2019-01-15T00:00:00Z,46.63,-80.8,-4.0,-5.0,240,8,,3.0,30.050198,1020.4,,,,,,,,,-SN,OVC,500,,,,,,,IFR,,,,,,,,,,,,METAR,348.0
CYXC 150000Z VRB02KT 15SM FEW004 OVC008 M06/M08 A3027 RMK SF1SC7 SLP300,CYXC,2019-01-15T00:00:00Z,49.6,-115.77,-6.0,-8.0,0,2,,15.0,30.268702,1030.0,,,,,,,,,,FEW,400,OVC,800,,,,,IFR,,,,,,,,,,,,METAR,939.0
CXBO 150000Z AUTO 26005KT RMK AO1,CXBO,2019-01-15T00:00:00Z,46.83,-71.2,,,260,5,,,,,,TRUE,TRUE,,,,,,,,,,,,,,,,,,,,,,,,,,,METAR,100.0
CXBK 150000Z AUTO 18010KT M04/M05 RMK AO1 SOG 02 8029 SLP180 T10431049,CXBK,2019-01-15T00:00:00Z,50.2,-104.7,-4.3,-4.9,180,10,,,,1018.0,,TRUE,TRUE,,,,,,,,,,,,,,,,,,,,,,,,,,,METAR,580.0
CXZC 150000Z AUTO 27004KT M18/M22 RMK AO1 SOG 47 1019 SLP228 T11801220,CXZC,2019-01-15T00:00:00Z,51.3,-80.62,-18.0,-22.0,270,4,,,,1022.8,,TRUE,TRUE,,,,,,,,,,,,,,,,,,,,,,,,,,,METAR,9.0
CXBI 150000Z AUTO 25001KT M04/M07 RMK AO1 SLP229 T10371074 56003,CXBI,2019-01-15T00:00:00Z,44.48,-79.55,-3.7,-7.4,250,1,,,,1022.9,,TRUE,TRUE,,,,,,,,,,,,,,,,-0.3,,,,,,,,,,,METAR,289.0
CWKK 150000Z AUTO 33007KT M10/M13 RMK AO1 SOG 37 1005 SLP240 T11001130,CWKK,2019-01-15T00:00:00Z,49.72,-88.33,-10.0,-13.0,330,7,,,,1024.0,,TRUE,TRUE,,,,,,,,,,,,,,,,,,,,,,,,,,,METAR,260.0
CTRA 150000Z AUTO 15001KT M10/M12 RMK AO1 SOG 34 8007 T11041118,CTRA,2019-01-15T00:00:00Z,49.67,-93.73,-10.4,-11.8,150,1,,,,,,TRUE,TRUE,,,,,,,,,,,,,,,,,,,,,,,,,,,METAR,435.0
VOGO 150000Z 06008KT 5000 BR NSC 22/19 Q1012 NOSIG,VOGO,2019-01-15T00:00:00Z,15.38,73.83,22.0,19.0,60,8,,3.11,29.88189,,,,,,TRUE,,,,BR,CLR,,,,,,,,MVFR,,,,,,,,,,,,METAR,52.0
VOGO 150000Z 06008KT 5000 BR NSC 22/19 Q1012 NOSIG,VOGO,2019-01-15T00:00:00Z,15.38,73.83,22.0,19.0,60,8,,3.11,29.88189,,,,,,TRUE,,,,BR,CLR,,,,,,,,MVFR,,,,,,,,,,,,METAR,52.0
DAUA 150000Z 08005KT CAVOK 07/M07 Q1020,DAUA,2019-01-15T00:00:00Z,27.83,-0.18,7.0,-7.0,80,5,,6.21,30.11811,,,,,,,,,,,CAVOK,,,,,,,,VFR,,,,,,,,,,,,METAR,263.0
VEGY 150000Z 21009KT 1200 MIFG NSC 07/04 Q1017,VEGY,2019-01-15T00:00:00Z,24.75,84.95,7.0,4.0,210,9,,0.75,30.029528,,,,,,,,,,MIFG,CLR,,,,,,,,LIFR,,,,,,,,,,,,METAR,116.0
FBSK 150000Z 13007KT 9999 FEW035CB BKN070 24/18 Q1015 NOSIG,FBSK,2019-01-15T00:00:00Z,-24.55,25.92,24.0,18.0,130,7,,6.21,29.970472,,,,,,TRUE,,,,,FEW,3500,BKN,7000,,,,,VFR,,,,,,,,,,,,METAR,1005.0
CXDW 150000Z AUTO 17005KT M09/M10 RMK AO1 SOG 04 8020 SLP247 T10921103 50003,CXDW,2019-01-15T00:00:00Z,49.4,-98.32,-9.2,-10.3,170,5,,,,1024.7,,TRUE,TRUE,,,,,,,,,,,,,,,,0.3,,,,,,,,,,,METAR,341.0
OTHH 150000Z AUTO 09008KT CAVOK 21/16 Q1016 NOSIG,OTHH,2019-01-15T00:00:00Z,25.25,51.6,21.0,16.0,90,8,,6.21,30.0,,,TRUE,,,TRUE,,,,,CAVOK,,,,,,,,VFR,,,,,,,,,,,,METAR,0.0
FCPP 150000Z 09002KT 7000 FEW011 SCT023 26/25 Q1012 NOSIG,FCPP,2019-01-15T00:00:00Z,-4.82,11.9,26.0,25.0,90,2,,4.35,29.88189,,,,,,TRUE,,,,,FEW,1100,SCT,2300,,,,,MVFR,,,,,,,,,,,,METAR,17.0
FCBB 150000Z VRB02KT 9000 NSC 24/23 Q1014 NOSIG,FCBB,2019-01-15T00:00:00Z,-4.25,15.25,24.0,23.0,0,2,,5.59,29.940945,,,,,,TRUE,,,,,CLR,,,,,,,,VFR,,,,,,,,,,,,METAR,316.0
FKKD 150000Z VRB03KT 9999 FEW016 FEW020CB 26/26 Q1012 NOSIG,FKKD,2019-01-15T00:00:00Z,4.0,9.72,26.0,26.0,0,3,,6.21,29.88189,,,,,,TRUE,,,,,FEW,1600,FEW,2000,,,,,VFR,,,,,,,,,,,,METAR,9.0
CXCK 150000Z AUTO 00000KT M19/M21 RMK AO1 SOG 12 6001 SLP280 T11901211,CXCK,2019-01-15T00:00:00Z,62.12,-136.2,-19.0,-21.1,0,0,,,,1028.0,,TRUE,TRUE,,,,,,,,,,,,,,,,,,,,,,,,,,,METAR,540.0
CXCA 150000Z AUTO 34002KT M09/M13 RMK AO1 SOG 19 1013 SLP251 T10911130,CXCA,2019-01-15T00:00:00Z,49.15,-88.35,-9.1,-13.0,340,2,,,,1025.1,,TRUE,TRUE,,,,,,,,,,,,,,,,,,,,,,,,,,,METAR,228.0
FKYS 150000Z /////KT 9000 FEW010 22/21 Q1017 NOSIG,FKYS,2019-01-15T00:00:00Z,3.82,11.52,22.0,21.0,,,,5.59,30.029528,,,,,,TRUE,,,,,FEW,1000,,,,,,,VFR,,,,,,,,,,,,METAR,760.0
CXEG 150000Z AUTO M00/M05 RMK AO1 T10041046,CXEG,2019-01-15T00:00:00Z,53.3,-113.6,-0.4,-4.6,,,,,,,,TRUE,TRUE,,,,,,,,,,,,,,,,,,,,,,,,,,,METAR,715.0
FEFF 150000Z VRB02KT CAVOK 26/25 Q1012 NOSIG,FEFF,2019-01-15T00:00:00Z,4.4,18.52,26.0,25.0,0,2,,6.21,29.88189,,,,,,TRUE,,,,,CAVOK,,,,,,,,VFR,,,,,,,,,,,,METAR,366.0
FKKR 150000Z 06002KT 3000 HZ NSC 23/05 Q1013,FKKR,2019-01-15T00:00:00Z,9.32,13.37,23.0,5.0,60,2,,1.86,29.911417,,,,,,,,,,HZ,CLR,,,,,,,,IFR,,,,,,,,,,,,METAR,244.0
CXHA 150000Z AUTO 22006KT M03/M06 RMK AO1 SOG 02 5000 SLP251 T10341061,CXHA,2019-01-15T00:00:00Z,42.03,-82.9,-3.4,-6.1,220,6,,,,1025.1,,TRUE,TRUE,,,,,,,,,,,,,,,,,,,,,,,,,,,METAR,191.0
CXET 150000Z AUTO 24005KT M05/M08 RMK AO1 SOG 05 6001 SLP228 T10491082 50002,CXET,2019-01-15T00:00:00Z,44.23,-79.78,-4.9,-8.2,240,5,,,,1022.8,,TRUE,TRUE,,,,,,,,,,,,,,,,0.2,,,,,,,,,,,METAR,251.0
FDPP 150000Z AUTO 06008KT //// // ////// 19/19 Q1019,FDPP,2019-01-15T00:00:00Z,-25.97,31.25,19.0,19.0,60,8,,,30.088583,,,TRUE,,,,,,,,,,,,,,,,,,,,,,,,,,,,METAR,1099.0
FDST 150000Z AUTO 00000KT //// // ////// 22/22 Q1013,FDST,2019-01-15T00:00:00Z,-26.43,31.95,22.0,22.0,0,0,,,29.911417,,,TRUE,,,,,,,,,,,,,,,,,,,,,,,,,,,,METAR,667.0
WMAU 150000Z 27006KT 220V310 9000 FEW018 SCT140 BKN280 24/23 Q//// QFF1010,WMAU,2019-01-15T00:00:00Z,2.38,103.88,24.0,23.0,270,6,,5.59,,,,,,,,,,,,FEW,1800,SCT,14000,BKN,28000,,,VFR,,,,,,,,,,,,METAR,45.0
WMKA 150000Z 01004KT 320V070 9999 FEW020 SCT140 BKN300 23/22 Q1010,WMKA,2019-01-15T00:00:00Z,6.2,100.4,23.0,22.0,10,4,,6.21,29.822834,,,,,,,,,,,FEW,2000,SCT,14000,BKN,30000,,,VFR,,,,,,,,,,,,METAR,5.0
WMBA 150000Z 00000KT 9000 FEW017CB SCT150 BKN280 25/24 Q1009,WMBA,2019-01-15T00:00:00Z,4.22,100.7,25.0,24.0,0,0,,5.59,29.793306,,,,,,,,,,,FEW,1700,SCT,15000,BKN,28000,,,VFR,,,,,,,,,,,,METAR,8.0
WMKD 150000Z VRB02KT 9999 FEW020 BKN280 23/22 Q1010 NOSIG,WMKD,2019-01-15T00:00:00Z,3.77,103.22,23.0,22.0,0,2,,6.21,29.822834,,,,,,TRUE,,,,,FEW,2000,BKN,28000,,,,,VFR,,,,,,,,,,,,METAR,16.0
WMKC 150000Z 21003KT 170V250 6000 FEW020 BKN280 24/23 Q1010,WMKC,2019-01-15T00:00:00Z,6.17,102.27,24.0,23.0,210,3,,3.73,29.822834,,,,,,,,,,,FEW,2000,BKN,28000,,,,,MVFR,,,,,,,,,,,,METAR,5.0
FGSL 150000Z 23003KT 170V260 9999 FEW010 24/21 Q1012 NOSIG,FGSL,2019-01-15T00:00:00Z,3.75,8.72,24.0,21.0,230,3,,6.21,29.88189,,,,,,TRUE,,,,,FEW,1000,,,,,,,VFR,,,,,,,,,,,,METAR,56.0
CWAF 150000Z AUTO 22018KT M07/M10 RMK AO1 PK WND 22022/2350 T10681095,CWAF,2019-01-15T00:00:00Z,48.07,-69.53,-6.8,-9.5,220,18,,,,,,TRUE,TRUE,,,,,,,,,,,,,,,,,,,,,,,,,,,METAR,5.0
CWSS 150000Z AUTO 31002KT M14/M15 RMK AO1 SOG 09 8010 SLP195 T11351153,CWSS,2019-01-15T00:00:00Z,45.2,-67.25,-13.5,-15.3,310,2,,,,1019.5,,TRUE,TRUE,,,,,,,,,,,,,,,,,,,,,,,,,,,METAR,26.0
CWRN 150000Z AUTO 08006KT M05/M08 RMK AO1 SLP185 T10461077 56026,CWRN,2019-01-15T00:00:00Z,45.35,-60.98,-4.6,-7.7,80,6,,,,1018.5,,TRUE,TRUE,,,,,,,,,,,,,,,,-2.6,,,,,,,,,,,METAR,8.0
CWBV 150000Z AUTO 07013KT M04/M07 RMK AO1 PK WND 07017/2346 SLP173 T10431070 58024,CWBV,2019-01-15T00:00:00Z,44.82,-62.32,-4.3,-7.0,70,13,,,,1017.3,,TRUE,TRUE,,,,,,,,,,,,,,,,-2.4,,,,,,,,,,,METAR,10.0
CWNH 150000Z AUTO 20010G16KT M10/M14 RMK AO1 SOG 15 8006 PK WND 21018/2337 SLP190 T11041141,CWNH,2019-01-15T00:00:00Z,47.78,-69.53,-10.4,-14.1,200,10,16,,,1019.0,,TRUE,TRUE,,,,,,,,,,,,,,,,,,,,,,,,,,,METAR,148.0
CWER 150000Z AUTO 23020KT RMK AO1 PK WND 23024/2316,CWER,2019-01-15T00:00:00Z,47.0,-70.82,,,230,20,,,,,,TRUE,TRUE,,,,,,,,,,,,,,,,,,,,,,,,,,,METAR,5.0
CWEP 150000Z AUTO 19003KT M07/M09 RMK AO1 SOG 41 8016 SLP195 T10651090,CWEP,2019-01-15T00:00:00Z,46.45,-61.97,-6.5,-9.0,190,3,,,,1019.5,,TRUE,TRUE,,,,,,,,,,,,,,,,,,,,,,,,,,,METAR,11.0
CWWE 150000Z AUTO 01005KT M05/M08 RMK AO1 SLP167 T10531081 58025,CWWE,2019-01-15T00:00:00Z,43.97,-64.67,-5.3,-8.1,10,5,,,,1016.7,,TRUE,TRUE,,,,,,,,,,,,,,,,-2.5,,,,,,,,,,,METAR,9.0
CWPK 150000Z AUTO 22001KT M11/M13 RMK AO1 2PAST HR SOG 39 1002 SLP200 P0001 T11051133 50005,CWPK,2019-01-15T00:00:00Z,47.92,-74.62,-10.5,-13.3,220,1,,,,1020.0,,TRUE,TRUE,,,,,,,,,,,,,,,,0.5,,,,,0.01,,,,,,METAR,442.0
CXKT 150000Z AUTO 16004KT M12/M13 RMK AO1 SOG 08 8016 SLP181 T11211132,CXKT,2019-01-15T00:00:00Z,45.07,-64.48,-12.1,-13.2,160,4,,,,1018.1,,TRUE,TRUE,,,,,,,,,,,,,,,,,,,,,,,,,,,METAR,49.0
CXWN 150000Z AUTO 21004KT M10/M12 RMK AO1 SLP247 T11041115 58023,CXWN,2019-01-15T00:00:00Z,49.88,-97.13,-10.4,-11.5,210,4,,,,1024.7,,TRUE,TRUE,,,,,,,,,,,,,,,,-2.3,,,,,,,,,,,METAR,230.0
CXSH 150000Z AUTO 24001KT M14/M16 RMK AO1 SLP213 T11381159 57014,CXSH,2019-01-15T00:00:00Z,46.58,-72.73,-13.8,-15.9,240,1,,,,1021.3,,TRUE,TRUE,,,,,,,,,,,,,,,,-1.4,,,,,,,,,,,METAR,110.0
CXOX 150000Z AUTO 20003KT M05/M06 RMK AO1 SOG 46 6033 SLP102 T10481060 50027,CXOX,2019-01-15T00:00:00Z,55.15,-105.27,-4.8,-6.0,200,3,,,,1010.2,,TRUE,TRUE,,,,,,,,,,,,,,,,2.7,,,,,,,,,,,METAR,379.0
CXNM 150000Z AUTO 15004KT M13/M13 RMK AO1 T11261134,CXNM,2019-01-15T00:00:00Z,46.82,-60.67,-12.6,-13.4,150,4,,,,,,TRUE,TRUE,,,,,,,,,,,,,,,,,,,,,,,,,,,METAR,439.0
CXMI 150000Z AUTO 04005KT M08/ RMK AO1 SLP177 T1078 58017,CXMI,2019-01-15T00:00:00Z,44.6,-63.53,-7.8,,40,5,,,,1017.7,,TRUE,TRUE,,,,,,,,,,,,,,,,-1.7,,,,,,,,,,,METAR,15.0
CXMD 150000Z AUTO 20003KT M11/M12 RMK AO1 SOG 16 8021 SLP252 T11071122,CXMD,2019-01-15T00:00:00Z,49.22,-98.08,-10.7,-12.2,200,3,,,,1025.2,,TRUE,TRUE,,,,,,,,,,,,,,,,,,,,,,,,,,,METAR,301.0
CXHF 150000Z AUTO M10/M14 RMK AO1 T10961142,CXHF,2019-01-15T00:00:00Z,45.83,-75.65,-9.6,-14.2,,,,,,,,TRUE,TRUE,,,,,,,,,,,,,,,,,,,,,,,,,,,METAR,190.0
CWBA 150000Z AUTO 18005KT M04/M06 RMK AO1 SOG 51 T10391056,CWBA,2019-01-15T00:00:00Z,46.72,-79.1,-3.9,-5.6,180,5,,,,,,TRUE,TRUE,,,,,,,,,,,,,,,,,,,,,,,,,,,METAR,181.0
CWAV 150000Z AUTO 20002KT M00/M08 RMK AO1 SLP226 T10031083 50000,CWAV,2019-01-15T00:00:00Z,51.77,-114.67,-0.3,-8.3,200,2,,,,1022.6,,TRUE,TRUE,,,,,,,,,,,,,,,,0.0,,,,,,,,,,,METAR,1114.0
CWAQ 150000Z AUTO 17005KT M05/M06 RMK AO1 SLP203 T10541061 56020,CWAQ,2019-01-15T00:00:00Z,49.05,-105.48,-5.4,-6.1,170,5,,,,1020.3,,TRUE,TRUE,,,,,,,,,,,,,,,,-2.0,,,,,,,,,,,METAR,756.0
WIMM 150000Z 26003KT 5000 HZ SCT017 25/24 Q1009 NOSIG,WIMM,2019-01-15T00:00:00Z,3.57,98.67,25.0,24.0,260,3,,3.11,29.793306,,,,,,TRUE,,,,HZ,SCT,1700,,,,,,,MVFR,,,,,,,,,,,,SPECI,25.0
WBKW 150000Z 00000KT 9999 FEW010 BKN140 26/24 Q1010,WBKW,2019-01-15T00:00:00Z,4.32,118.12,26.0,24.0,0,0,,6.21,29.822834,,,,,,,,,,,FEW,1000,BKN,14000,,,,,VFR,,,,,,,,,,,,METAR,20.0
CWTA 150000Z AUTO 27003KT M10/M14 RMK AO1 SOG 30 8008 SLP225 T10961143,CWTA,2019-01-15T00:00:00Z,45.5,-73.58,-9.6,-14.3,270,3,,,,1022.5,,TRUE,TRUE,,,,,,,,,,,,,,,,,,,,,,,,,,,METAR,63.0
CWVI 150000Z AUTO 29010KT M00/M04 RMK AO1 SOG 21 3004 SLP190 T10021040,CWVI,2019-01-15T00:00:00Z,53.52,-112.1,-0.2,-4.0,290,10,,,,1019.0,,TRUE,TRUE,,,,,,,,,,,,,,,,,,,,,,,,,,,METAR,639.0
CWQO 150000Z AUTO 22021G27KT M07/M10 RMK AO1 PK WND 22028/2341 T10741095,CWQO,2019-01-15T00:00:00Z,48.42,-68.9,-7.4,-9.5,220,21,27,,,,,TRUE,TRUE,,,,,,,,,,,,,,,,,,,,,,,,,,,METAR,1.0
CWQP 150000Z AUTO 26006KT M04/M08 RMK AO1 SOG 02 6006 SLP237 T10411075,CWQP,2019-01-15T00:00:00Z,43.83,-77.15,-4.1,-7.5,260,6,,,,1023.7,,TRUE,TRUE,,,,,,,,,,,,,,,,,,,,,,,,,,,METAR,79.0
CWSP 150000Z AUTO 12014KT 08/05 RMK AO1 PK WND 12020/2303 SLP148 T00820050 58004,CWSP,2019-01-15T00:00:00Z,48.38,-123.92,8.2,5.0,120,14,,,,1014.8,,TRUE,TRUE,,,,,,,,,,,,,,,,-0.4,,,,,,,,,,,METAR,21.0
CWRJ 150000Z AUTO 25006KT M10/M11 RMK AO1 SOG 07 8018 SLP188 T11011113,CWRJ,2019-01-15T00:00:00Z,51.57,-107.92,-10.1,-11.3,250,6,,,,1018.8,,TRUE,TRUE,,,,,,,,,,,,,,,,,,,,,,,,,,,METAR,586.0
CWJV 150000Z AUTO 09003KT M02/M04 RMK AO1 SLP264 T10231038 56010,CWJV,2019-01-15T00:00:00Z,50.22,-119.18,-2.3,-3.8,90,3,,,,1026.4,,TRUE,TRUE,,,,,,,,,,,,,,,,-1.0,,,,,,,,,,,METAR,556.0
CWJI 150000Z AUTO 21009KT M03/M07 RMK AO1 SLP197 T10341072 58021,CWJI,2019-01-15T00:00:00Z,49.72,-105.92,-3.4,-7.2,210,9,,,,1019.7,,TRUE,TRUE,,,,,,,,,,,,,,,,-2.1,,,,,,,,,,,METAR,724.0
CWST 150000Z AUTO 23013KT M10/M14 RMK AO1 SOG 21 8008 PK WND 22017/2344 SLP191 T10991135,CWST,2019-01-15T00:00:00Z,47.35,-70.02,-9.9,-13.5,230,13,,,,1019.1,,TRUE,TRUE,,,,,,,,,,,,,,,,,,,,,,,,,,,METAR,31.0
CWJW 150000Z AUTO 21003KT M06/M08 RMK AO1 SOG 16 5004 SLP274 T10621077,CWJW,2019-01-15T00:00:00Z,52.93,-118.03,-6.2,-7.7,210,3,,,,1027.4,,TRUE,TRUE,,,,,,,,,,,,,,,,,,,,,,,,,,,METAR,1020.0
CWJX 150000Z AUTO 27003KT M04/M07 RMK AO1 SOG 03 8007 SLP203 T10391074,CWJX,2019-01-15T00:00:00Z,50.88,-109.5,-3.9,-7.4,270,3,,,,1020.3,,TRUE,TRUE,,,,,,,,,,,,,,,,,,,,,,,,,,,METAR,672.0
CWKH 150000Z AUTO 06/01 RMK AO1 SLP142 T00600008 57011,CWKH,2019-01-15T00:00:00Z,48.57,-123.55,6.0,0.8,,,,,,1014.2,,TRUE,TRUE,,,,,,,,,,,,,,,,-1.1,,,,,,,,,,,METAR,366.0
SBJP 150000Z 13005KT 9999 FEW025 25/22 Q1015,SBJP,2019-01-15T00:00:00Z,-7.15,-34.95,25.0,22.0,130,5,,6.21,29.970472,,,,,,,,,,,FEW,2500,,,,,,,VFR,,,,,,,,,,,,METAR,66.0
LQSA 150000Z 04004KT 1000 R12/1100N SN FEW004 SCT015 BKN030 M01/M01 Q1009,LQSA,2019-01-15T00:00:00Z,43.82,18.32,-1.0,-1.0,40,4,,0.62,29.793306,,,,,,,,,,SN,FEW,400,SCT,1500,BKN,3000,,,LIFR,,,,,,,,,,,,METAR,511.0
LQMO 150000Z VRB02KT 2000 BR SCT001 M02/M02 Q1007,LQMO,2019-01-15T00:00:00Z,43.28,17.83,-2.0,-2.0,0,2,,1.24,29.734253,,,,,,,,,,BR,SCT,100,,,,,,,IFR,,,,,,,,,,,,METAR,48.0
CWBO 150000Z AUTO 32002KT M01/M06 RMK AO1 SLP210 T10141061 50003,CWBO,2019-01-15T00:00:00Z,50.53,-111.83,-1.4,-6.1,320,2,,,,1021.0,,TRUE,TRUE,,,,,,,,,,,,,,,,0.3,,,,,,,,,,,METAR,747.0
CWBS 150000Z AUTO 20010KT M11/M14 RMK AO1 T11131143,CWBS,2019-01-15T00:00:00Z,46.18,-72.92,-11.3,-14.3,200,10,,,,,,TRUE,TRUE,,,,,,,,,,,,,,,,,,,,,,,,,,,METAR,16.0
KNEL 150000Z 00000KT 10SM CLR 01/M09 A3015 RMK AO2 SLPNO 6//// T00061089 55003 PNO $,KNEL,2019-01-15T00:00:00Z,40.02,-74.33,0.6,-8.9,0,0,,10.0,30.15059,,,,TRUE,TRUE,,,,,,CLR,,,,,,,,VFR,-0.3,,,,,,,,,,,METAR,31.0
GQPP 150000Z 32011KT 7000 NSC 17/16 Q1016 NOSIG,GQPP,2019-01-15T00:00:00Z,20.92,-17.02,17.0,16.0,320,11,,4.35,30.0,,,,,,TRUE,,,,,CLR,,,,,,,,MVFR,,,,,,,,,,,,METAR,3.0
RJSC 150000Z 20001KT 9999 VCFG FEW005 BKN/// M04/M04 Q1022,RJSC,2019-01-15T00:00:00Z,38.42,140.37,-4.0,-4.0,200,1,,6.21,30.177166,,,,,,,,,,VCFG,FEW,500,,,,,,,VFR,,,,,,,,,,,,METAR,108.0
CWBZ 150000Z AUTO 26002KT M13/M15 RMK AO1 SLP232 T11291148 56006,CWBZ,2019-01-15T00:00:00Z,45.12,-74.27,-12.9,-14.8,260,2,,,,1023.2,,TRUE,TRUE,,,,,,,,,,,,,,,,-0.6,,,,,,,,,,,METAR,49.0
RPMZ 150000Z 00000KT 9999 FEW017 SCT300 27/22 Q1010 RMK A2983,RPMZ,2019-01-15T00:00:00Z,6.92,122.07,27.0,22.0,0,0,,6.21,29.822834,,,,,,,,,,,FEW,1700,SCT,30000,,,,,VFR,,,,,,,,,,,,METAR,6.0
RPMD 150000Z 36011G21KT 9999 SCT016 SCT090 25/23 Q1012 RMK A2988,RPMD,2019-01-15T00:00:00Z,7.12,125.65,25.0,23.0,360,11,21,6.21,29.88189,,,,,,,,,,,SCT,1600,SCT,9000,,,,,VFR,,,,,,,,,,,,METAR,18.0
RPVM 150000Z 02012KT 9999 FEW020 BKN300 27/22 Q1013 NOSIG RMK A2991,RPVM,2019-01-15T00:00:00Z,10.32,123.98,27.0,22.0,20,12,,6.21,29.911417,,,,,,TRUE,,,,,FEW,2000,BKN,30000,,,,,VFR,,,,,,,,,,,,METAR,10.0
RPLI 150000Z 11005KT 9999 FEW018 23/19 Q1013 NOSIG RMK A2991,RPLI,2019-01-15T00:00:00Z,18.17,120.52,23.0,19.0,110,5,,6.21,29.911417,,,,,,TRUE,,,,,FEW,1800,,,,,,,VFR,,,,,,,,,,,,METAR,5.0
RPLB 150000Z 06005KT 010V110 9999 FEW020 BKN300 26/19 Q1014 NOSIG RMK A2994,RPLB,2019-01-15T00:00:00Z,14.8,120.27,26.0,19.0,60,5,,6.21,29.940945,,,,,,TRUE,,,,,FEW,2000,BKN,30000,,,,,VFR,,,,,,,,,,,,METAR,17.0
RPLL 150000Z 08004KT 9999 FEW025 SCT300 27/19 Q1014 NOSIG RMK A2994,RPLL,2019-01-15T00:00:00Z,14.52,121.0,27.0,19.0,80,4,,6.21,29.940945,,,,,,TRUE,,,,,FEW,2500,SCT,30000,,,,,VFR,,,,,,,,,,,,METAR,21.0
MKJP 150000Z 13008KT 9999 FEW020 27/19 Q1016,MKJP,2019-01-15T00:00:00Z,17.92,-76.78,27.0,19.0,130,8,,6.21,30.0,,,,,,,,,,,FEW,2000,,,,,,,VFR,,,,,,,,,,,,METAR,3.0
YMIA 150000Z AUTO 33012KT 9999 // NCD 40/05 Q1008,YMIA,2019-01-15T00:00:00Z,-34.23,142.08,40.0,5.0,330,12,,6.21,29.763779,,,TRUE,,,,,,,,CLR,,,,,,,,VFR,,,,,,,,,,,,METAR,51.0
YMER 150000Z AUTO 05010KT 9999 // SCT020 26/21 Q1011,YMER,2019-01-15T00:00:00Z,-36.92,149.9,26.0,21.0,50,10,,6.21,29.852362,,,TRUE,,,,,,,,SCT,2000,,,,,,,VFR,,,,,,,,,,,,METAR,2.0
YMEN 150000Z AUTO 18006KT 9999 // NCD 32/17 Q1008,YMEN,2019-01-15T00:00:00Z,-37.72,144.9,32.0,17.0,180,6,,6.21,29.763779,,,TRUE,,,,,,,,CLR,,,,,,,,VFR,,,,,,,,,,,,METAR,86.0
YMEK 150000Z AUTO 09008KT 9999 // NCD 37/08 Q1008,YMEK,2019-01-15T00:00:00Z,-26.62,118.55,37.0,8.0,90,8,,6.21,29.763779,,,TRUE,,,,,,,,CLR,,,,,,,,VFR,,,,,,,,,,,,METAR,522.0
YMDG 150000Z AUTO 30009KT 9999 // NCD 33/14 Q1016,YMDG,2019-01-15T00:00:00Z,-32.57,149.62,33.0,14.0,300,9,,6.21,30.0,,,TRUE,,,,,,,,CLR,,,,,,,,VFR,,,,,,,,,,,,METAR,471.0
YMAY 150000Z AUTO 16005KT 120V250 9999 // NCD 36/14 Q1010,YMAY,2019-01-15T00:00:00Z,-36.07,146.93,36.0,14.0,160,5,,6.21,29.822834,,,TRUE,,,,,,,,CLR,,,,,,,,VFR,,,,,,,,,,,,METAR,171.0
CWLE 150000Z AUTO 25007KT M06/M08 RMK AO1 SOG 14 6012 SLP192 T10591075,CWLE,2019-01-15T00:00:00Z,50.95,-107.15,-5.9,-7.5,250,7,,,,1019.2,,TRUE,TRUE,,,,,,,,,,,,,,,,,,,,,,,,,,,METAR,665.0
CWKX 150000Z AUTO 06005KT M05/M06 RMK AO1 SOG 38 6006 SLP240 T10531055,CWKX,2019-01-15T00:00:00Z,58.43,-130.02,-5.3,-5.5,60,5,,,,1024.0,,TRUE,TRUE,,,,,,,,,,,,,,,,,,,,,,,,,,,METAR,793.0
WAHQ 150000Z 33004KT 3000 HAZE FEW015 25/24 Q1009 NOSIG,WAHQ,2019-01-15T00:00:00Z,-7.52,110.75,25.0,24.0,330,4,,1.86,29.793306,,,,,,TRUE,,,,,FEW,1500,,,,,,,IFR,,,,,,,,,,,,METAR,126.0
CWLM 150000Z AUTO 03006KT 07/03 RMK AO1 SLP152 T00660031 56011,CWLM,2019-01-15T00:00:00Z,48.42,-123.32,6.6,3.1,30,6,,,,1015.2,,TRUE,TRUE,,,,,,,,,,,,,,,,-1.1,,,,,,,,,,,METAR,70.0
CWMJ 150000Z AUTO 18003KT M09/M13 RMK AO1 SOG 32 8005 SLP220 T10901126,CWMJ,2019-01-15T00:00:00Z,46.27,-76.0,-9.0,-12.6,180,3,,,,1022.0,,TRUE,TRUE,,,,,,,,,,,,,,,,,,,,,,,,,,,METAR,200.0
CXDE 150000Z AUTO 10010G16KT M26/M29 RMK AO1 SOG 19 3002 PK WND 11018/2306 SLP327 T12561290,CXDE,2019-01-15T00:00:00Z,65.22,-123.43,-25.6,-29.0,100,10,16,,,1032.7,,TRUE,TRUE,,,,,,,,,,,,,,,,,,,,,,,,,,,METAR,213.0
CXDI 150000Z AUTO 24002KT M07/M08 RMK AO1 SLP242 T10661075 53001,CXDI,2019-01-15T00:00:00Z,42.87,-80.55,-6.6,-7.5,240,2,,,,1024.2,,TRUE,TRUE,,,,,,,,,,,,,,,,0.1,,,,,,,,,,,METAR,232.0
CWMQ 150000Z AUTO 00000KT M03/M08 RMK AO1 SLP207 T10261080 56008,CWMQ,2019-01-15T00:00:00Z,49.9,-109.47,-2.6,-8.0,0,0,,,,1020.7,,TRUE,TRUE,,,,,,,,,,,,,,,,-0.8,,,,,,,,,,,METAR,767.0
CWMM 150000Z AUTO 29001KT 07/03 RMK AO1 SLP155 T00670029 58013,CWMM,2019-01-15T00:00:00Z,49.22,-122.68,6.7,2.9,290,1,,,,1015.5,,TRUE,TRUE,,,,,,,,,,,,,,,,-1.3,,,,,,,,,,,METAR,5.0
CWCJ 150000Z AUTO 02004KT M06/M10 RMK AO1 SOG 23 3017 SLP223 T10581101,CWCJ,2019-01-15T00:00:00Z,48.6,-86.28,-5.8,-10.1,20,4,,,,1022.3,,TRUE,TRUE,,,,,,,,,,,,,,,,,,,,,,,,,,,METAR,206.0
CWCF 150000Z AUTO 13005KT M11/M14 RMK AO1 SOG 17 8047 SLP211 T11071141,CWCF,2019-01-15T00:00:00Z,52.35,-97.03,-10.7,-14.1,130,5,,,,1021.1,,TRUE,TRUE,,,,,,,,,,,,,,,,,,,,,,,,,,,METAR,222.0
CXGH 150000Z AUTO 18011KT M10/M12 RMK AO1 PRESFR SLP217 T11001117 58042,CXGH,2019-01-15T00:00:00Z,50.63,-97.0,-10.0,-11.7,180,11,,,,1021.7,,TRUE,TRUE,,,,,,,,,,,,,,,,-4.2,,,,,,,,,,,METAR,217.0
NCMK 150000Z AUTO 12006KT //// ////// 29/24 Q1006,NCMK,2019-01-15T00:00:00Z,-20.15,-157.38,29.0,24.0,120,6,,,29.704725,,,TRUE,,,,,,,,,,,,,,,,,,,,,,,,,,,,METAR,9.0
NCMH 150000Z AUTO 03003KT //// ////// 32/25 Q1008,NCMH,2019-01-15T00:00:00Z,-10.38,-161.0,32.0,25.0,30,3,,,29.763779,,,TRUE,,,,,,,,,,,,,,,,,,,,,,,,,,,,METAR,0.0
CXEA 150000Z AUTO 11001KT M12/M14 RMK AO1 SOG 32 8014 SLP251 T11241135,CXEA,2019-01-15T00:00:00Z,50.63,-93.22,-12.4,-13.5,110,1,,,,1025.1,,TRUE,TRUE,,,,,,,,,,,,,,,,,,,,,,,,,,,METAR,355.0
CXEC 150000Z AUTO 29005KT 02/M03 RMK AO1 SOG 25 3007 SLP199 T00221030,CXEC,2019-01-15T00:00:00Z,53.57,-113.52,2.2,-3.0,290,5,,,,1019.9,,TRUE,TRUE,,,,,,,,,,,,,,,,,,,,,,,,,,,METAR,671.0
CXMM 150000Z AUTO 34010KT M15/M18 RMK AO1 SOG 29 2052 PK WND 34019/2321 SLP214 T11511179 50021,CXMM,2019-01-15T00:00:00Z,56.65,-111.22,-15.1,-17.9,340,10,,,,1021.4,,TRUE,TRUE,,,,,,,,,,,,,,,,2.1,,,,,,,,,,,METAR,369.0
CXIB 150000Z AUTO 25003KT M09/M12 RMK AO1 SOG 34 8013 SLP197 T10871116,CXIB,2019-01-15T00:00:00Z,46.67,-60.38,-8.7,-11.6,250,3,,,,1019.7,,TRUE,TRUE,,,,,,,,,,,,,,,,,,,,,,,,,,,METAR,8.0
CXMY 150000Z AUTO M12/M13 RMK AO1 T11171128,CXMY,2019-01-15T00:00:00Z,44.98,-62.48,-11.7,-12.8,,,,,,,,TRUE,TRUE,,,,,,,,,,,,,,,,,,,,,,,,,,,METAR,40.0
CXTP 150000Z AUTO 23005KT M10/M12 RMK AO1 SOG 35 0002 SLP202 T10951124,CXTP,2019-01-15T00:00:00Z,48.55,-53.97,-9.5,-12.4,230,5,,,,1020.2,,TRUE,TRUE,,,,,,,,,,,,,,,,,,,,,,,,,,,METAR,107.0
CXRH 150000Z AUTO 23006KT RMK AO1,CXRH,2019-01-15T00:00:00Z,49.57,-57.88,,,230,6,,,,,,TRUE,TRUE,,,,,,,,,,,,,,,,,,,,,,,,,,,METAR,68.0
CPRO 150000Z AUTO 28006KT M02/M06 RMK AO1 T10181055,CPRO,2019-01-15T00:00:00Z,50.83,-112.05,-1.8,-5.5,280,6,,,,,,TRUE,TRUE,,,,,,,,,,,,,,,,,,,,,,,,,,,METAR,714.0
CWNM 150000Z AUTO 08005KT M00/M03 RMK AO1 SOG 03 7008 SLP267 T10011034,CWNM,2019-01-15T00:00:00Z,49.5,-117.28,-0.1,-3.4,80,5,,,,1026.7,,TRUE,TRUE,,,,,,,,,,,,,,,,,,,,,,,,,,,METAR,535.0
CWNK 150000Z AUTO 14005KT M10/M11 RMK AO1 T11011111,CWNK,2019-01-15T00:00:00Z,49.5,-98.03,-10.1,-11.1,140,5,,,,,,TRUE,TRUE,,,,,,,,,,,,,,,,,,,,,,,,,,,METAR,268.0
CPXL 150000Z AUTO 14002KT 01/M08 RMK AO1 T00071075,CPXL,2019-01-15T00:00:00Z,49.87,-111.38,0.7,-7.5,140,2,,,,,,TRUE,TRUE,,,,,,,,,,,,,,,,,,,,,,,,,,,METAR,799.0
CWNP 150000Z AUTO 01001KT M02/M04 RMK AO1 SOG 23 6008 SLP275 T10161042 50002,CWNP,2019-01-15T00:00:00Z,50.27,-117.82,-1.6,-4.2,10,1,,,,1027.5,,TRUE,TRUE,,,,,,,,,,,,,,,,0.2,,,,,,,,,,,METAR,524.0
CWOC 150000Z AUTO 32006KT M11/M14 RMK AO1 SLP180 T11121143 58014,CWOC,2019-01-15T00:00:00Z,48.02,-65.32,-11.2,-14.3,320,6,,,,1018.0,,TRUE,TRUE,,,,,,,,,,,,,,,,-1.4,,,,,,,,,,,METAR,47.0
CXBA 150000Z AUTO 26008KT M04/M07 RMK AO1 T10401073,CXBA,2019-01-15T00:00:00Z,52.12,-110.1,-4.0,-7.3,260,8,,,,,,TRUE,TRUE,,,,,,,,,,,,,,,,,,,,,,,,,,,METAR,687.0
CXCS 150000Z AUTO 28013KT M03/M07 RMK AO1 PK WND 28017/2311 T10261071,CXCS,2019-01-15T00:00:00Z,51.93,-110.72,-2.6,-7.1,280,13,,,,,,TRUE,TRUE,,,,,,,,,,,,,,,,,,,,,,,,,,,METAR,772.0
CWMT 150000Z AUTO 04003KT M31/M34 RMK AO1 SOG 35 3016 SLP355 T13111335,CWMT,2019-01-15T00:00:00Z,63.13,-117.25,-31.1,-33.5,40,3,,,,1035.5,,TRUE,TRUE,,,,,,,,,,,,,,,,,,,,,,,,,,,METAR,271.0
CZEV 150000Z AUTO 10004KT M28/M32 RMK AO1 SOG 49 3009 SLP321 T12751316,CZEV,2019-01-15T00:00:00Z,68.32,-133.52,-27.5,-31.6,100,4,,,,1032.1,,TRUE,TRUE,,,,,,,,,,,,,,,,,,,,,,,,,,,METAR,103.0
CXPA 150000Z AUTO 33007KT 00/M02 RMK AO1 T00001022,CXPA,2019-01-15T00:00:00Z,55.62,-118.3,0.0,-2.2,330,7,,,,,,TRUE,TRUE,,,,,,,,,,,,,,,,,,,,,,,,,,,METAR,621.0
CXLB 150000Z AUTO 04007KT M06/M11 RMK AO1 SLP168 T10561112 58015,CXLB,2019-01-15T00:00:00Z,44.37,-64.3,-5.6,-11.2,40,7,,,,1016.8,,TRUE,TRUE,,,,,,,,,,,,,,,,-1.5,,,,,,,,,,,METAR,4.0
CXPC 150000Z AUTO M02/M04 RMK AO1 SOG 08 6003 SLP208 T10161042,CXPC,2019-01-15T00:00:00Z,45.35,-80.05,-1.6,-4.2,,,,,,1020.8,,TRUE,TRUE,,,,,,,,,,,,,,,,,,,,,,,,,,,METAR,176.0
CWDK 150000Z AUTO 36005KT 02/M09 RMK AO1 SLP224 T00221086 51014,CWDK,2019-01-15T00:00:00Z,50.02,-113.62,2.2,-8.6,360,5,,,,1022.4,,TRUE,TRUE,,,,,,,,,,,,,,,,1.4,,,,,,,,,,,METAR,1012.0
CXSE 150000Z AUTO 31012KT M25/M28 RMK AO1 SOG 43 6001 SLP295 T12501276,CXSE,2019-01-15T00:00:00Z,73.77,-105.28,-25.0,-27.6,310,12,,,,1029.5,,TRUE,TRUE,,,,,,,,,,,,,,,,,,,,,,,,,,,METAR,11.0
CXTD 150000Z AUTO 12005KT M10/M12 RMK AO1 SOG 02 8023 SLP193 T11011119,CXTD,2019-01-15T00:00:00Z,45.62,-61.68,-10.1,-11.9,120,5,,,,1019.3,,TRUE,TRUE,,,,,,,,,,,,,,,,,,,,,,,,,,,METAR,68.0
CWIS 150000Z AUTO 31003KT M10/M14 RMK AO1 SOG 130 8003 SLP177 T11031142,CWIS,2019-01-15T00:00:00Z,47.28,-70.63,-10.3,-14.2,310,3,,,,1017.7,,TRUE,TRUE,,,,,,,,,,,,,,,,,,,,,,,,,,,METAR,719.0
CWIG 150000Z AUTO 22022G29KT RMK AO1 PK WND 21029/2352,CWIG,2019-01-15T00:00:00Z,47.07,-70.53,,,220,22,29,,,,,TRUE,TRUE,,,,,,,,,,,,,,,,,,,,,,,,,,,METAR,18.0
CZHY 150000Z AUTO 34003KT M28/M32 RMK AO1 SOG 29 1026 SLP338 T12811316 50002,CZHY,2019-01-15T00:00:00Z,60.83,-115.78,-28.1,-31.6,340,3,,,,1033.8,,TRUE,TRUE,,,,,,,,,,,,,,,,0.2,,,,,,,,,,,SPECI,164.0
CZFS 150000Z AUTO 06002KT M28/M31 RMK AO1 SOG 36 2007 SLP345 T12811310,CZFS,2019-01-15T00:00:00Z,61.77,-121.23,-28.1,-31.0,60,2,,,,1034.5,,TRUE,TRUE,,,,,,,,,,,,,,,,,,,,,,,,,,,SPECI,168.0
CZZJ 150000Z AUTO 00000KT 00/M02 RMK AO1 SOG 26 3008 SLP235 T00001022,CZZJ,2019-01-15T00:00:00Z,53.58,-116.47,0.0,-2.2,0,0,,,,1023.5,,TRUE,TRUE,,,,,,,,,,,,,,,,,,,,,,,,,,,METAR,927.0
CZTB 150000Z AUTO 32005KT M06/M10 RMK AO1 SOG 40 1016 SLP245 T10561095,CZTB,2019-01-15T00:00:00Z,48.37,-89.32,-5.6,-9.5,320,5,,,,1024.5,,TRUE,TRUE,,,,,,,,,,,,,,,,,,,,,,,,,,,METAR,199.0
CZMJ 150000Z AUTO 20004KT 01/M05 RMK AO1 SLP190 T00051047 56028,CZMJ,2019-01-15T00:00:00Z,50.33,-105.57,0.5,-4.7,200,4,,,,1019.0,,TRUE,TRUE,,,,,,,,,,,,,,,,-2.8,,,,,,,,,,,METAR,577.0
CXVN 150000Z AUTO 22007KT M04/M06 RMK AO1 SOG 01 0001 SLP234 T10361055,CXVN,2019-01-15T00:00:00Z,43.18,-79.4,-3.6,-5.5,220,7,,,,1023.4,,TRUE,TRUE,,,,,,,,,,,,,,,,,,,,,,,,,,,METAR,79.0
CWSF 150000Z AUTO 17006KT M08/M11 RMK AO1 SLP164 T10821112 56011,CWSF,2019-01-15T00:00:00Z,49.25,-65.32,-8.2,-11.2,170,6,,,,1016.4,,TRUE,TRUE,,,,,,,,,,,,,,,,-1.1,,,,,,,,,,,METAR,29.0
CWRA 150000Z AUTO 25010KT RMK AO1 53002,CWRA,2019-01-15T00:00:00Z,46.63,-53.07,,,250,10,,,,,,TRUE,TRUE,,,,,,,,,,,,,,,,0.2,,,,,,,,,,,METAR,28.0
CWBY 150000Z AUTO 25015KT M06/M08 RMK AO1 SOG 22 7010 PK WND 25020/2344 SLP154 T10601078,CWBY,2019-01-15T00:00:00Z,49.82,-64.28,-6.0,-7.8,250,15,,,,1015.4,,TRUE,TRUE,,,,,,,,,,,,,,,,,,,,,,,,,,,METAR,53.0
CWDO 150000Z AUTO 23012KT M07/M10 RMK AO1 SOG 02 0000 PK WND 23018/2314 SLP191 T10691099,CWDO,2019-01-15T00:00:00Z,49.67,-54.78,-6.9,-9.9,230,12,,,,1019.1,,TRUE,TRUE,,,,,,,,,,,,,,,,,,,,,,,,,,,METAR,92.0
CWPE 150000Z AUTO 35006KT M10/M14 RMK AO1 SOG 02 8013 SLP189 T10991135,CWPE,2019-01-15T00:00:00Z,45.07,-66.47,-9.9,-13.5,350,6,,,,1018.9,,TRUE,TRUE,,,,,,,,,,,,,,,,,,,,,,,,,,,METAR,1.0
CWJH 150000Z AUTO 08003KT M18/M20 RMK AO1 5PAST HR SOG 50 6035 SLP155 P0002 T11801202 50076,CWJH,2019-01-15T00:00:00Z,56.32,-103.27,-18.0,-20.2,80,3,,,,1015.5,,TRUE,TRUE,,,,,,,,,,,,,,,,7.6,,,,,0.02,,,,,,METAR,344.0
CWKO 150000Z AUTO 23013KT M05/M06 RMK AO1 SOG 15 7020 SLP201 T10491055,CWKO,2019-01-15T00:00:00Z,49.17,-105.97,-4.9,-5.5,230,13,,,,1020.1,,TRUE,TRUE,,,,,,,,,,,,,,,,,,,,,,,,,,,METAR,917.0
CWCT 150000Z AUTO 28009KT M05/M08 RMK AO1 SOG 02 0000 SLP209 T10491080,CWCT,2019-01-15T00:00:00Z,52.07,-111.47,-4.9,-8.0,280,9,,,,1020.9,,TRUE,TRUE,,,,,,,,,,,,,,,,,,,,,,,,,,,METAR,791.0
CWOY 150000Z AUTO 23016G21KT M03/M06 RMK AO1 SOG 02 6030 PK WND 23021/2354 SLP165 T10341056,CWOY,2019-01-15T00:00:00Z,51.77,-104.2,-3.4,-5.6,230,16,21,,,1016.5,,TRUE,TRUE,,,,,,,,,,,,,,,,,,,,,,,,,,,METAR,560.0
SAAR 150000Z 11004KT 9999 SCT042 BKN100 24/19 Q1010,SAAR,2019-01-15T00:00:00Z,-32.92,-60.77,24.0,19.0,110,4,,6.21,29.822834,,,,,,,,,,,SCT,4200,BKN,10000,,,,,VFR,,,,,,,,,,,,METAR,25.0
CWCO 150000Z AUTO 27003KT M02/M06 RMK AO1 SLP235 T10231055 54000,CWCO,2019-01-15T00:00:00Z,44.45,-80.17,-2.3,-5.5,270,3,,,,1023.5,,TRUE,TRUE,,,,,,,,,,,,,,,,,,,,,,,,,,,METAR,221.0
SAEZ 150000Z 08007KT 9999 SCT022 BKN036 BKN070 24/21 Q1013PROB30 7000 -SHRA BKN030,SAEZ,2019-01-15T00:00:00Z,-34.82,-58.52,24.0,21.0,80,7,,6.21,,,,,,,,,,,-SHRA,SCT,2200,BKN,3600,BKN,7000,BKN,3000,VFR,,,,,,,,,,,,SPECI,20.0
SAME 150000Z 00000KT 9999 FEW040 SCT04521/16 Q1016,SAME,2019-01-15T00:00:00Z,-32.82,-68.77,21.0,16.0,0,0,,6.21,30.0,,,,,,,,,,,FEW,4000,,,,,,,VFR,,,,,,,,,,,,SPECI,704.0
SANT 150000Z 23006KT 3500 -DZ BR BKN004 OVC035 20/20 Q1012,SANT,2019-01-15T00:00:00Z,-26.85,-65.08,20.0,20.0,230,6,,2.17,29.88189,,,,,,,,,,-DZ BR,BKN,400,OVC,3500,,,,,LIFR,,,,,,,,,,,,METAR,450.0
SARP 150000Z 14005KT 9999 SCT040 SCT200 30/24 Q1011,SARP,2019-01-15T00:00:00Z,-27.38,-55.97,30.0,24.0,140,5,,6.21,29.852362,,,,,,,,,,,SCT,4000,SCT,20000,,,,,VFR,,,,,,,,,,,,METAR,125.0
SABE 150000Z 12013KT 9999 SCT017 SCT095 24/21 Q1012 NOSIG,SABE,2019-01-15T00:00:00Z,-34.57,-58.42,24.0,21.0,120,13,,6.21,29.88189,,,,,,TRUE,,,,,SCT,1700,SCT,9500,,,,,VFR,,,,,,,,,,,,METAR,6.0
SAVC 150000Z 27012KT CAVOK 30/M03 Q1004,SAVC,2019-01-15T00:00:00Z,-45.77,-67.47,30.0,-3.0,270,12,,6.21,29.64567,,,,,,,,,,,CAVOK,,,,,,,,VFR,,,,,,,,,,,,METAR,46.0
SARE 150000Z 13002KT CAVOK 24/24 Q1009,SARE,2019-01-15T00:00:00Z,-27.43,-59.03,24.0,24.0,130,2,,6.21,29.793306,,,,,,,,,,,CAVOK,,,,,,,,VFR,,,,,,,,,,,,METAR,52.0
SASA 150000Z 09002KT 3000 DZ OVC008 19/18 Q1014,SASA,2019-01-15T00:00:00Z,-24.85,-65.47,19.0,18.0,90,2,,1.86,29.940945,,,,,,,,,,DZ,OVC,800,,,,,,,IFR,,,,,,,,,,,,METAR,1216.0
SAWH 150000Z 23012KT 9999 VCSH BKN040 SCT080 12/07 Q0997,SAWH,2019-01-15T00:00:00Z,-54.85,-68.3,12.0,7.0,230,12,,6.21,29.438976,,,,,,,,,,VCSH,BKN,4000,SCT,8000,,,,,VFR,,,,,,,,,,,,METAR,14.0
SAWE 150000Z 27016KT 9999 BKN025 13/10 Q1000,SAWE,2019-01-15T00:00:00Z,-53.78,-67.75,13.0,10.0,270,16,,6.21,29.52756,,,,,,,,,,,BKN,2500,,,,,,,MVFR,,,,,,,,,,,,METAR,22.0
CWNQ 150000Z AUTO 16003KT M13/M17 RMK AO1 SLP216 T11301174 58011,CWNQ,2019-01-15T00:00:00Z,46.22,-72.65,-13.0,-17.4,160,3,,,,1021.6,,TRUE,TRUE,,,,,,,,,,,,,,,,-1.1,,,,,,,,,,,METAR,10.0
CWPD 150000Z AUTO 21006KT M11/M15 RMK AO1 SLP209 T11141146 58005,CWPD,2019-01-15T00:00:00Z,47.57,-71.22,-11.4,-14.6,210,6,,,,1020.9,,TRUE,TRUE,,,,,,,,,,,,,,,,-0.5,,,,,,,,,,,METAR,803.0
CWOD 150000Z AUTO 33002KT M10/M12 RMK AO1 SOG 31 0002 SLP170 T11031121,CWOD,2019-01-15T00:00:00Z,48.85,-72.55,-10.3,-12.1,330,2,,,,1017.0,,TRUE,TRUE,,,,,,,,,,,,,,,,,,,,,,,,,,,METAR,137.0
CWNE 150000Z AUTO 20003KT M13/M16 RMK AO1 SLP194 T11321155 56009,CWNE,2019-01-15T00:00:00Z,47.07,-64.0,-13.2,-15.5,200,3,,,,1019.4,,TRUE,TRUE,,,,,,,,,,,,,,,,-0.9,,,,,,,,,,,METAR,15.0
CZSM 150000Z AUTO 34004KT M22/M25 RMK AO1 SOG 52 2038 SLP288 T12241252 50021,CZSM,2019-01-15T00:00:00Z,60.03,-111.93,-22.4,-25.2,340,4,,,,1028.8,,TRUE,TRUE,,,,,,,,,,,,,,,,2.1,,,,,,,,,,,METAR,203.0
CWLP 150000Z AUTO 15008KT 08/05 RMK AO1 SLP143 T00800050 56015,CWLP,2019-01-15T00:00:00Z,50.93,-127.63,8.0,5.0,150,8,,,,1014.3,,TRUE,TRUE,,,,,,,,,,,,,,,,-1.5,,,,,,,,,,,METAR,17.0
VAAU 150000Z 00000 2000 HZ NSC 15/12 Q1017 NOSIG,VAAU,2019-01-15T00:00:00Z,19.85,75.4,15.0,12.0,0,0,,1.24,30.029528,,,,,,TRUE,,,,HZ,CLR,,,,,,,,IFR,,,,,,,,,,,,METAR,579.0
CWRO 150000Z AUTO 08008KT 07/07 RMK AO1 SLP152 T00700067 56014,CWRO,2019-01-15T00:00:00Z,54.17,-131.67,7.0,6.7,80,8,,,,1015.2,,TRUE,TRUE,,,,,,,,,,,,,,,,-1.4,,,,,,,,,,,METAR,7.0
CWPR 150000Z AUTO 11001KT M06/M07 RMK AO1 SOG 03 6014 SLP252 T10611072,CWPR,2019-01-15T00:00:00Z,49.47,-120.52,-6.1,-7.2,110,1,,,,1025.2,,TRUE,TRUE,,,,,,,,,,,,,,,,,,,,,,,,,,,METAR,700.0
CYMO 150000Z AUTO 28006KT 9SM CLR M18/M22 A3020 RMK SLP228,CYMO,2019-01-15T00:00:00Z,51.28,-80.62,-18.0,-22.0,280,6,,9.0,30.200787,1022.8,,TRUE,,,,,,,,CLR,,,,,,,,VFR,,,,,,,,,,,,METAR,10.0
CYHU 150000Z AUTO 18005KT 8SM FEW150 OVC200 M11/M14 A3019 RMK SLP227,CYHU,2019-01-15T00:00:00Z,45.52,-73.42,-11.0,-14.0,180,5,,8.0,30.188976,1022.7,,TRUE,,,,,,,,FEW,15000,OVC,20000,,,,,VFR,,,,,,,,,,,,METAR,27.0
OIMC 150000Z AUTO 26004KT //// // ////// 08/01 Q1013,OIMC,2019-01-15T00:00:00Z,36.5,61.07,8.0,1.0,260,4,,,29.911417,,,TRUE,,,,,,,,,,,,,,,,,,,,,,,,,,,,METAR,288.0
SAZN 150000Z 29006KT 9999 SCT045 26/10 Q1011,SAZN,2019-01-15T00:00:00Z,-38.95,-68.15,26.0,10.0,290,6,,6.21,29.852362,,,,,,,,,,,SCT,4500,,,,,,,VFR,,,,,,,,,,,,METAR,271.0
MGRT 150000Z 24004KT 9999 FEW020 28/22 Q1014 A2994 VOL. STA. MARIA Y SANTIAGUITO EN ACTIVIDAD,MGRT,2019-01-15T00:00:00Z,14.53,-91.7,28.0,22.0,240,4,,6.21,29.940945,,,,,,,,,,SA,FEW,2000,,,,,,,VFR,,,,,,,,,,,,METAR,200.0
MGSJ 150000Z 00000KT CAVOK 28/21 Q1012 A2988 FEW080,MGSJ,2019-01-15T00:00:00Z,13.92,-90.83,28.0,21.0,0,0,,6.21,29.88189,,,,,,,,,,,FEW,8000,,,,,,,VFR,,,,,,,,,,,,METAR,9.0
MGCB 150000Z 00000KT 9999 FEW014 OVC016 15/14 QFE873.8 PCPN DIST N/NE MTN N/NE/W/NW CUB/CL,MGCB,2019-01-15T00:00:00Z,15.48,-90.42,15.0,14.0,0,0,,6.21,,,,,,,,,,,,FEW,1400,OVC,1600,,,,,MVFR,,,,,,,,,,,,METAR,1316.0
MGQZ 150000Z 36016KT 9999 SCT020 13/11 QFE773/5,MGQZ,2019-01-15T00:00:00Z,14.87,-91.5,13.0,11.0,360,16,,6.21,,,,,,,,,,,,SCT,2000,,,,,,,VFR,,,,,,,,,,,,METAR,2371.0
SKSM 150000Z 03014KT 9999 FEW020 28/20 A2980,SKSM,2019-01-15T00:00:00Z,11.12,-74.22,28.0,20.0,30,14,,6.21,29.799213,,,,,,,,,,,FEW,2000,,,,,,,VFR,,,,,,,,,,,,METAR,4.0
MGMT 150000Z 05006KT CAVOK 31/21 QFE1009.8 SCT070,MGMT,2019-01-15T00:00:00Z,,,31.0,21.0,50,6,,6.21,,,,,,,,,,,,SCT,7000,,,,,,,VFR,,,,,,,,,,,,METAR,
MGES 150000Z 03006KT 9999 OVC012 18/16 QFE911.1 PCPN NNE/NE/ENE MTN T.D. CUB/CL,MGES,2019-01-15T00:00:00Z,14.57,-89.32,18.0,16.0,30,6,,6.21,,,,,,,,,,,,OVC,1200,,,,,,,MVFR,,,,,,,,,,,,METAR,965.0
MGZA 150000Z 07008KT 9999 SCT035 BKN090 25/15 QFE991/6 PCPN N,MGZA,2019-01-15T00:00:00Z,14.97,-89.52,25.0,15.0,70,8,,6.21,,,,,,,,,,,,SCT,3500,BKN,9000,,,,,VFR,,,,,,,,,,,,METAR,490.0
CWPZ 150000Z AUTO 14003KT M02/M02 RMK AO1 SOG 38 6009 SLP220 T10191021,CWPZ,2019-01-15T00:00:00Z,54.38,-125.97,-1.9,-2.1,140,3,,,,1022.0,,TRUE,TRUE,,,,,,,,,,,,,,,,,,,,,,,,,,,METAR,713.0
CPEH 150000Z AUTO 36006KT 01/M07 RMK AO1 T00081072,CPEH,2019-01-15T00:00:00Z,50.18,-112.43,0.8,-7.2,360,6,,,,,,TRUE,TRUE,,,,,,,,,,,,,,,,,,,,,,,,,,,METAR,801.0
CPBT 150000Z AUTO 32009KT 01/M08 RMK AO1 T00101079,CPBT,2019-01-15T00:00:00Z,49.57,-113.05,1.0,-7.9,320,9,,,,,,TRUE,TRUE,,,,,,,,,,,,,,,,,,,,,,,,,,,METAR,980.0
OIBL 150000Z 03006KT 6000 FEW030 19/15 Q1018,OIBL,2019-01-15T00:00:00Z,26.53,54.82,19.0,15.0,30,6,,3.73,30.059055,,,,,,,,,,,FEW,3000,,,,,,,MVFR,,,,,,,,,,,,METAR,14.0
SKMR 150000Z 31009KT 9999 FEW020 28/23 A2981,SKMR,2019-01-15T00:00:00Z,8.82,-75.83,28.0,23.0,310,9,,6.21,29.811024,,,,,,,,,,,FEW,2000,,,,,,,VFR,,,,,,,,,,,,METAR,26.0
SKUI 150000Z 00000KT 9999 FEW025 26/24 A2979,SKUI,2019-01-15T00:00:00Z,5.72,-76.62,26.0,24.0,0,0,,6.21,29.790354,,,,,,,,,,,FEW,2500,,,,,,,VFR,,,,,,,,,,,,METAR,33.0
SKVP 150000Z 08012KT 9999 FEW015 29/17 A2988,SKVP,2019-01-15T00:00:00Z,10.42,-73.25,29.0,17.0,80,12,,6.21,29.878937,,,,,,,,,,,FEW,1500,,,,,,,VFR,,,,,,,,,,,,METAR,138.0
SKAR 150000Z 25004KT 210V280 9999 -DZ FEW020TCU BKN022 24/18 A2996 RMK TCU/E,SKAR,2019-01-15T00:00:00Z,4.45,-75.77,24.0,18.0,250,4,,6.21,29.958662,,,,,,,,,,-DZ,FEW,2000,BKN,2200,,,,,MVFR,,,,,,,,,,,,METAR,1219.0
SKIB 150000Z 29003KT 9999 SCT020 SCT100 23/22 A3004,SKIB,2019-01-15T00:00:00Z,4.42,-75.15,23.0,22.0,290,3,,6.21,30.041338,,,,,,,,,,,SCT,2000,SCT,10000,,,,,VFR,,,,,,,,,,,,METAR,928.0
SKNV 150000Z 19004KT 9999 FEW040 BKN110 27/20 A2985,SKNV,2019-01-15T00:00:00Z,2.97,-75.28,27.0,20.0,190,4,,6.21,29.84941,,,,,,,,,,,FEW,4000,BKN,11000,,,,,VFR,,,,,,,,,,,,METAR,443.0
TVSA 150000Z 06011KT 9999 -SHRA BKN018 25/21 Q1015 ,TVSA,2019-01-15T00:00:00Z,13.15,-61.15,25.0,21.0,60,11,,6.21,29.970472,,,,,,,,,,-SHRA,BKN,1800,,,,,,,MVFR,,,,,,,,,,,,METAR,17.0
WMKN 150000Z 00000KT 9999 FEW018 BKN300 24/23 Q1010,WMKN,2019-01-15T00:00:00Z,5.37,103.08,24.0,23.0,0,0,,6.21,29.822834,,,,,,,,,,,FEW,1800,BKN,30000,,,,,VFR,,,,,,,,,,,,METAR,6.0
WMKL 150000Z 04005KT 350V080 9999 FEW022 BKN280 27/22 Q1010,WMKL,2019-01-15T00:00:00Z,6.32,99.72,27.0,22.0,40,5,,6.21,29.822834,,,,,,,,,,,FEW,2200,BKN,28000,,,,,VFR,,,,,,,,,,,,METAR,7.0
ROYN 150000Z AUTO 12008KT 9999 FEW030 SCT120 23/17 Q1019,ROYN,2019-01-15T00:00:00Z,24.47,122.97,23.0,17.0,120,8,,6.21,30.088583,,,TRUE,,,,,,,,FEW,3000,SCT,12000,,,,,VFR,,,,,,,,,,,,METAR,17.0
RORY 150000Z AUTO 07002KT 9999 FEW000 SCT060 20/12 Q1021,RORY,2019-01-15T00:00:00Z,27.05,128.4,20.0,12.0,70,2,,6.21,30.147638,,,TRUE,,,,,,,,FEW,0,SCT,6000,,,,,VFR,,,,,,,,,,,,METAR,16.0
RORS 150000Z 11004KT 9999 FEW042 SCT120 22/16 Q1019,RORS,2019-01-15T00:00:00Z,24.82,125.15,22.0,16.0,110,4,,6.21,30.088583,,,,,,,,,,,FEW,4200,SCT,12000,,,,,VFR,,,,,,,,,,,,METAR,16.0
RJNW 150000Z 22003KT 9999 FEW000 SCT170 BKN180 03/M02 Q1018,RJNW,2019-01-15T00:00:00Z,37.3,136.97,3.0,-2.0,220,3,,6.21,30.059055,,,,,,,,,,,FEW,0,SCT,17000,BKN,18000,,,VFR,,,,,,,,,,,,METAR,219.0
RJKA 150000Z 26003KT 240V300 9999 FEW035 SCT120 18/10 Q1020,RJKA,2019-01-15T00:00:00Z,28.42,129.72,18.0,10.0,260,3,,6.21,30.11811,,,,,,,,,,,FEW,3500,SCT,12000,,,,,VFR,,,,,,,,,,,,METAR,7.0
RJFE 150000Z 33012KT 7000 FEW035 SCT050 BKN120 10/05 Q1022,RJFE,2019-01-15T00:00:00Z,32.67,128.82,10.0,5.0,330,12,,4.35,30.177166,,,,,,,,,,,FEW,3500,SCT,5000,BKN,12000,,,MVFR,,,,,,,,,,,,METAR,80.0
RJEB 150000Z VRB02KT CAVOK M06/M10 Q1017,RJEB,2019-01-15T00:00:00Z,44.3,143.4,-6.0,-10.0,0,2,,6.21,30.029528,,,,,,,,,,,CAVOK,,,,,,,,VFR,,,,,,,,,,,,METAR,25.0
CWTG 150000Z AUTO 27011G18KT M07/M11 RMK AO1 PK WND 26018/2359 SLP167 T10671106 58006,CWTG,2019-01-15T00:00:00Z,49.32,-67.37,-6.7,-10.6,270,11,18,,,1016.7,,TRUE,TRUE,,,,,,,,,,,,,,,,-0.6,,,,,,,,,,,METAR,5.0
CWTN 150000Z AUTO 26004KT M11/M16 RMK AO1 SLP205 T11101159 56008,CWTN,2019-01-15T00:00:00Z,47.07,-70.78,-11.0,-15.9,260,4,,,,1020.5,,TRUE,TRUE,,,,,,,,,,,,,,,,-0.8,,,,,,,,,,,METAR,6.0
CPIR 150000Z AUTO 36006KT 01/M08 RMK AO1 T00111075,CPIR,2019-01-15T00:00:00Z,49.9,-112.73,1.1,-7.5,360,6,,,,,,TRUE,TRUE,,,,,,,,,,,,,,,,,,,,,,,,,,,METAR,858.0
CPFI 150000Z AUTO 35008KT 01/M07 RMK AO1 T00051067,CPFI,2019-01-15T00:00:00Z,49.8,-112.03,0.5,-6.7,350,8,,,,,,TRUE,TRUE,,,,,,,,,,,,,,,,,,,,,,,,,,,METAR,833.0
CWTT 150000Z AUTO 25005KT M12/M14 RMK AO1 T11171140,CWTT,2019-01-15T00:00:00Z,45.27,-72.17,-11.7,-14.0,250,5,,,,,,TRUE,TRUE,,,,,,,,,,,,,,,,,,,,,,,,,,,METAR,209.0
CWTY 150000Z AUTO 19009KT M11/M13 RMK AO1 SLP217 T11071128 57013,CWTY,2019-01-15T00:00:00Z,46.35,-72.52,-10.7,-12.8,190,9,,,,1021.7,,TRUE,TRUE,,,,,,,,,,,,,,,,-1.3,,,,,,,,,,,METAR,6.0
SBFI 150000Z 13011KT 8000 -TSRA FEW017 BKN030 FEW040CB 24/23 Q1 013 RETS,SBFI,2019-01-15T00:00:00Z,-25.6,-54.48,24.0,23.0,130,11,,4.97,,,,,,,,,,,-TSRA,FEW,1700,BKN,3000,FEW,4000,,,MVFR,,,,,,,,,,,,SPECI,243.0
UKDE 150000Z 18006MPS 130V210 9999 OVC009 02/01 Q0996 R20L/620550 NOSIG,UKDE,2019-01-15T00:00:00Z,47.87,35.32,2.0,1.0,180,12,,6.21,29.409449,,,,,,TRUE,,,,,OVC,900,,,,,,,IFR,,,,,,,,,,,,METAR,113.0
OING 150000Z 00000KT 6000 FEW030 SCT090 06/06 Q1014,OING,2019-01-15T00:00:00Z,36.9,54.4,6.0,6.0,0,0,,3.73,29.940945,,,,,,,,,,,FEW,3000,SCT,9000,,,,,MVFR,,,,,,,,,,,,METAR,155.0
VAUD 150000Z 32002KT 2500 BR NSC 07/04 Q1019 NOSIG,VAUD,2019-01-15T00:00:00Z,24.6,73.9,7.0,4.0,320,2,,1.55,30.088583,,,,,,TRUE,,,,BR,CLR,,,,,,,,IFR,,,,,,,,,,,,METAR,514.0
GAKD 150000Z VRB02KT CAVOK 22/M00 Q1014,GAKD,2019-01-15T00:00:00Z,14.48,-11.4,22.0,0.0,0,2,,6.21,29.940945,,,,,,,,,,,CAVOK,,,,,,,,VFR,,,,,,,,,,,,METAR,53.0
SBPJ 150000Z 00000KT 9999 FEW020 SCT050 23/23 Q1013,SBPJ,2019-01-15T00:00:00Z,-10.28,-48.37,23.0,23.0,0,0,,6.21,29.911417,,,,,,,,,,,FEW,2000,SCT,5000,,,,,VFR,,,,,,,,,,,,METAR,236.0
OEAO 150000Z 15004KT 9999 FEW040 11/M05 Q1017,OEAO,2019-01-15T00:00:00Z,26.48,38.12,11.0,-5.0,150,4,,6.21,30.029528,,,,,,,,,,,FEW,4000,,,,,,,VFR,,,,,,,,,,,,METAR,624.0
OITM 150000Z 36002KT 9999 FEW035 SCT190 01/M03 Q1014,OITM,2019-01-15T00:00:00Z,37.35,46.15,1.0,-3.0,360,2,,6.21,29.940945,,,,,,,,,,,FEW,3500,SCT,19000,,,,,VFR,,,,,,,,,,,,METAR,1340.0
OISL 150000Z 00000KT CAVOK 08/05 Q1020,OISL,2019-01-15T00:00:00Z,27.67,54.37,8.0,5.0,0,0,,6.21,30.11811,,,,,,,,,,,CAVOK,,,,,,,,VFR,,,,,,,,,,,,METAR,805.0
OINR 150000Z 00000KT 9999 FEW025 08/06 Q1010,OINR,2019-01-15T00:00:00Z,36.88,50.67,8.0,6.0,0,0,,6.21,29.822834,,,,,,,,,,,FEW,2500,,,,,,,VFR,,,,,,,,,,,,METAR,-20.0
OINN 150000Z 00000KT 9999 SCT025 09/07 Q1010,OINN,2019-01-15T00:00:00Z,36.67,51.47,9.0,7.0,0,0,,6.21,29.822834,,,,,,,,,,,SCT,2500,,,,,,,VFR,,,,,,,,,,,,METAR,-19.0
OICI 150000Z 08004KT 9999 SCT035 02/01 Q1019 A3010,OICI,2019-01-15T00:00:00Z,33.58,46.4,2.0,1.0,80,4,,6.21,30.088583,,,,,,,,,,,SCT,3500,,,,,,,VFR,,,,,,,,,,,,METAR,1343.0
OISY 150000Z 09004KT 3000 RA FEW035CB SCT035 OVC080 05/04 Q1023,OISY,2019-01-15T00:00:00Z,30.7,51.55,5.0,4.0,90,4,,1.86,30.206694,,,,,,,,,,RA,FEW,3500,SCT,3500,OVC,8000,,,IFR,,,,,,,,,,,,METAR,1811.0
OITR 150000Z 30004KT 9999 FEW040 M03/M05 Q1012,OITR,2019-01-15T00:00:00Z,37.67,45.07,-3.0,-5.0,300,4,,6.21,29.88189,,,,,,,,,,,FEW,4000,,,,,,,VFR,,,,,,,,,,,,METAR,1312.0
OIIE 150000Z 32010KT 9999 FEW040 SCT100 05/02 Q1015,OIIE,2019-01-15T00:00:00Z,35.42,51.15,5.0,2.0,320,10,,6.21,29.970472,,,,,,,,,,,FEW,4000,SCT,10000,,,,,VFR,,,,,,,,,,,,METAR,1008.0
OIGG 150000Z 00000KT 1100 R27/1200D BR NSC 05/05 Q1011,OIGG,2019-01-15T00:00:00Z,37.33,49.6,5.0,5.0,0,0,,0.68,29.852362,,,,,,,,,,BR,CLR,,,,,,,,LIFR,,,,,,,,,,,,METAR,-13.0
OIBK 150000Z 10010KT 6000 NSC 20/15 Q1018,OIBK,2019-01-15T00:00:00Z,26.53,53.98,20.0,15.0,100,10,,3.73,30.059055,,,,,,,,,,,CLR,,,,,,,,MVFR,,,,,,,,,,,,METAR,30.0
OIAA 150000Z 34008KT 7000 FEW035CB FEW040 OVC100 14/11 Q1017,OIAA,2019-01-15T00:00:00Z,30.37,48.25,14.0,11.0,340,8,,4.35,30.029528,,,,,,,,,,,FEW,3500,FEW,4000,OVC,10000,,,MVFR,,,,,,,,,,,,METAR,11.0
OIYY 150000Z 03002KT 9999 FEW040 BKN090 17/M02 Q1015,OIYY,2019-01-15T00:00:00Z,31.9,54.28,17.0,-2.0,30,2,,6.21,29.970472,,,,,,,,,,,FEW,4000,BKN,9000,,,,,VFR,,,,,,,,,,,,METAR,1236.0
YSWG 150000Z 29005KT CAVOK 37/11 Q1011,YSWG,2019-01-15T00:00:00Z,-35.13,147.47,37.0,11.0,290,5,,6.21,29.852362,,,,,,,,,,,CAVOK,,,,,,,,VFR,,,,,,,,,,,,METAR,213.0
YTNK 150000Z AUTO 35005KT 9999 // NCD 33/18 Q1011,YTNK,2019-01-15T00:00:00Z,-19.63,134.18,33.0,18.0,350,5,,6.21,29.852362,,,TRUE,,,,,,,,CLR,,,,,,,,VFR,,,,,,,,,,,,METAR,377.0
YTEF 150000Z AUTO 29005KT 9999 // NCD 34/18 Q1007,YTEF,2019-01-15T00:00:00Z,-21.72,122.23,34.0,18.0,290,5,,6.21,29.734253,,,TRUE,,,,,,,,CLR,,,,,,,,VFR,,,,,,,,,,,,METAR,296.0
YTRE 150000Z AUTO 05013KT 9999 // NCD 30/18 Q1014,YTRE,2019-01-15T00:00:00Z,-31.88,152.52,30.0,18.0,50,13,,6.21,29.940945,,,TRUE,,,,,,,,CLR,,,,,,,,VFR,,,,,,,,,,,,METAR,12.0
YWGT 150000Z AUTO 01007KT 9999 // NCD 35/14 Q1010,YWGT,2019-01-15T00:00:00Z,-36.42,146.3,35.0,14.0,10,7,,6.21,29.822834,,,TRUE,,,,,,,,CLR,,,,,,,,VFR,,,,,,,,,,,,METAR,153.0
YWHA 150000Z AUTO 16006KT 9999 // NCD 32/14 Q1008,YWHA,2019-01-15T00:00:00Z,-33.07,137.52,32.0,14.0,160,6,,6.21,29.763779,,,TRUE,,,,,,,,CLR,,,,,,,,VFR,,,,,,,,,,,,METAR,13.0
OIAW 150000Z 31002KT 7000 OVC020 16/12 Q1016,OIAW,2019-01-15T00:00:00Z,31.32,48.77,16.0,12.0,310,2,,4.35,30.0,,,,,,,,,,,OVC,2000,,,,,,,MVFR,,,,,,,,,,,,METAR,22.0
OIKB 150000Z 35004KT 5000 BR FEW030 18/16 Q1019 A3010,OIKB,2019-01-15T00:00:00Z,27.22,56.37,18.0,16.0,350,4,,3.11,30.088583,,,,,,,,,,BR,FEW,3000,,,,,,,MVFR,,,,,,,,,,,,METAR,10.0
OIZJ 150000Z 03004KT 6000 NSC 20/16 Q1018,OIZJ,2019-01-15T00:00:00Z,25.65,57.8,20.0,16.0,30,4,,3.73,30.059055,,,,,,,,,,,CLR,,,,,,,,MVFR,,,,,,,,,,,,METAR,4.0
OIFS 150000Z 23012KT 9999 SCT035 BKN080 05/02 Q1019,OIFS,2019-01-15T00:00:00Z,32.32,50.85,5.0,2.0,230,12,,6.21,30.088583,,,,,,,,,,,SCT,3500,BKN,8000,,,,,VFR,,,,,,,,,,,,METAR,2078.0
OIKK 150000Z 10008KT CAVOK 07/M18 Q1022 A3019,OIKK,2019-01-15T00:00:00Z,30.25,56.97,7.0,-18.0,100,8,,6.21,30.177166,,,,,,,,,,,CAVOK,,,,,,,,VFR,,,,,,,,,,,,METAR,1754.0
OINE 150000Z 00000KT 8000 -RA SCT030 BKN100 10/07 Q1012,OINE,2019-01-15T00:00:00Z,37.38,55.45,10.0,7.0,0,0,,4.97,29.88189,,,,,,,,,,-RA,SCT,3000,BKN,10000,,,,,MVFR,,,,,,,,,,,,METAR,130.0
OIMQ 150000Z AUTO 14004KT //// // ////// 08/M02 Q1014,OIMQ,2019-01-15T00:00:00Z,35.23,58.47,8.0,-2.0,140,4,,,29.940945,,,TRUE,,,,,,,,,,,,,,,,,,,,,,,,,,,,METAR,1140.0
OIAH 150000Z 00000KT 9999 SCT040 OVC100 12/10 Q1021,OIAH,2019-01-15T00:00:00Z,30.33,50.83,12.0,10.0,0,0,,6.21,30.147638,,,,,,,,,,,SCT,4000,OVC,10000,,,,,VFR,,,,,,,,,,,,METAR,738.0
CWVF 150000Z AUTO 30005KT 04/ RMK AO1 T0042,CWVF,2019-01-15T00:00:00Z,49.1,-123.3,4.2,,300,5,,,,,,TRUE,TRUE,,,,,,,,,,,,,,,,,,,,,,,,,,,METAR,1.0
CWUS 150000Z AUTO 33001KT M02/M04 RMK AO1 SLP265 T10161040 56009,CWUS,2019-01-15T00:00:00Z,49.57,-119.65,-1.6,-4.0,330,1,,,,1026.5,,TRUE,TRUE,,,,,,,,,,,,,,,,-0.9,,,,,,,,,,,METAR,454.0
OEDF 150000Z 15007KT 8000 NSC 16/13 Q1016 NOSIG,OEDF,2019-01-15T00:00:00Z,26.47,49.8,16.0,13.0,150,7,,4.97,30.0,,,,,,TRUE,,,,,CLR,,,,,,,,MVFR,,,,,,,,,,,,METAR,22.0
CWVP 150000Z AUTO 24003KT 01/M10 RMK AO1 SOG 12 6008 SLP180 T00051095,CWVP,2019-01-15T00:00:00Z,49.63,-109.52,0.5,-9.5,240,3,,,,1018.0,,TRUE,TRUE,,,,,,,,,,,,,,,,,,,,,,,,,,,METAR,1271.0
CWVN 150000Z AUTO 19002KT M05/M09 RMK AO1 SLP212 T10521088 56016,CWVN,2019-01-15T00:00:00Z,49.07,-107.57,-5.2,-8.8,190,2,,,,1021.2,,TRUE,TRUE,,,,,,,,,,,,,,,,-1.6,,,,,,,,,,,METAR,785.0
SVBM 150000Z 09002KT 9999 FEW016 BKN300 23/16 Q1016,SVBM,2019-01-15T00:00:00Z,10.05,-69.37,23.0,16.0,90,2,,6.21,30.0,,,,,,,,,,,FEW,1600,BKN,30000,,,,,VFR,,,,,,,,,,,,METAR,614.0
CWVQ 150000Z AUTO 28003KT M11/M15 RMK AO1 SOG 14 8009 SLP230 T11101148,CWVQ,2019-01-15T00:00:00Z,45.42,-73.92,-11.0,-14.8,280,3,,,,1023.0,,TRUE,TRUE,,,,,,,,,,,,,,,,,,,,,,,,,,,METAR,39.0
CWWA 150000Z AUTO 00000KT 05/03 RMK AO1 SLP151 T00510031 58013,CWWA,2019-01-15T00:00:00Z,49.35,-123.17,5.1,3.1,0,0,,,,1015.1,,TRUE,TRUE,,,,,,,,,,,,,,,,-1.3,,,,,,,,,,,METAR,178.0
CWWZ 150000Z AUTO 21006KT M03/M06 RMK AO1 SOG 02 8002 SLP238 T10291061,CWWZ,2019-01-15T00:00:00Z,43.25,-79.22,-2.9,-6.1,210,6,,,,1023.8,,TRUE,TRUE,,,,,,,,,,,,,,,,,,,,,,,,,,,METAR,79.0
CWPO 150000Z AUTO 18009KT M10/M11 RMK AO1 SLP254 T11001114 58023,CWPO,2019-01-15T00:00:00Z,49.2,-98.9,-10.0,-11.4,180,9,,,,1025.4,,TRUE,TRUE,,,,,,,,,,,,,,,,-2.3,,,,,,,,,,,METAR,470.0
CWBE 150000Z AUTO 28003KT M03/M04 RMK AO1 SLP221 T10291042 56003,CWBE,2019-01-15T00:00:00Z,45.98,-81.48,-2.9,-4.2,280,3,,,,1022.1,,TRUE,TRUE,,,,,,,,,,,,,,,,-0.3,,,,,,,,,,,METAR,196.0
CTCK 150000Z AUTO 18003KT M13/M15 RMK AO1 SOG 06 7007 SLP239 T11281146,CTCK,2019-01-15T00:00:00Z,45.25,-74.97,-12.8,-14.6,180,3,,,,1023.9,,TRUE,TRUE,,,,,,,,,,,,,,,,,,,,,,,,,,,METAR,85.0
CMFM 150000Z AUTO 19001KT M10/M14 RMK AO1 SOG 62 7007 SLP188 T11011144,CMFM,2019-01-15T00:00:00Z,47.32,-71.15,-10.1,-14.4,190,1,,,,1018.8,,TRUE,TRUE,,,,,,,,,,,,,,,,,,,,,,,,,,,METAR,672.0
FAOB 150000Z AUTO 02003KT //// // ////// 15/12 Q1015,FAOB,2019-01-15T00:00:00Z,-34.6,20.27,15.0,12.0,20,3,,,29.970472,,,TRUE,,,,,,,,,,,,,,,,,,,,,,,,,,,,METAR,75.0
FABL 150000Z AUTO 20005KT 9999 ///////// 22/04 Q1015,FABL,2019-01-15T00:00:00Z,-29.1,26.3,22.0,4.0,200,5,,6.21,29.970472,,,TRUE,,,,,,,,,,,,,,,,,,,,,,,,,,,,METAR,1348.0
CWSR 150000Z AUTO 29011G16KT M03/M07 RMK AO1 SOG 17 6021 SLP132 T10281071,CWSR,2019-01-15T00:00:00Z,53.37,-107.53,-2.8,-7.1,290,11,16,,,1013.2,,TRUE,TRUE,,,,,,,,,,,,,,,,,,,,,,,,,,,METAR,584.0
CWSL 150000Z AUTO 05001KT M01/M03 RMK AO1 SOG 12 6012 SLP263 T10091029,CWSL,2019-01-15T00:00:00Z,50.7,-119.27,-0.9,-2.9,50,1,,,,1026.3,,TRUE,TRUE,,,,,,,,,,,,,,,,,,,,,,,,,,,METAR,351.0
CWSK 150000Z AUTO 36002KT 05/01 RMK AO1 SLP158 T00500014 56014,CWSK,2019-01-15T00:00:00Z,49.78,-123.17,5.0,1.4,360,2,,,,1015.8,,TRUE,TRUE,,,,,,,,,,,,,,,,-1.4,,,,,,,,,,,METAR,60.0
CWSG 150000Z AUTO 21005KT M07/M12 RMK AO1 SLP173 T10741115 56008,CWSG,2019-01-15T00:00:00Z,49.12,-66.65,-7.4,-11.5,210,5,,,,1017.3,,TRUE,TRUE,,,,,,,,,,,,,,,,-0.8,,,,,,,,,,,METAR,5.0
CWSD 150000Z AUTO 17006KT M13/M15 RMK AO1 SOG 17 7013 SLP189 T11251152,CWSD,2019-01-15T00:00:00Z,46.42,-63.85,-12.5,-15.2,170,6,,,,1018.9,,TRUE,TRUE,,,,,,,,,,,,,,,,,,,,,,,,,,,METAR,24.0
CWRZ 150000Z AUTO 31006KT M11/M12 RMK AO1 PK WND 24017/2304 SLP169 T11061124 58009,CWRZ,2019-01-15T00:00:00Z,48.42,-64.32,-10.6,-12.4,310,6,,,,1016.9,,TRUE,TRUE,,,,,,,,,,,,,,,,-0.9,,,,,,,,,,,METAR,16.0
CWRY 150000Z AUTO 12001KT 03/M12 RMK AO1 SOG 01 3002 SLP202 T00291118,CWRY,2019-01-15T00:00:00Z,49.12,-112.03,2.9,-11.8,120,1,,,,1020.2,,TRUE,TRUE,,,,,,,,,,,,,,,,,,,,,,,,,,,METAR,1050.0
CWRT 150000Z AUTO 29003KT M05/M09 RMK AO1 T10471090,CWRT,2019-01-15T00:00:00Z,49.62,-114.47,-4.7,-9.0,290,3,,,,,,TRUE,TRUE,,,,,,,,,,,,,,,,,,,,,,,,,,,METAR,1303.0
CWRK 150000Z AUTO 19004KT M07/M10 RMK AO1 SOG 19 7005 SLP225 T10701100,CWRK,2019-01-15T00:00:00Z,45.07,-77.87,-7.0,-10.0,190,4,,,,1022.5,,TRUE,TRUE,,,,,,,,,,,,,,,,,,,,,,,,,,,METAR,331.0
CWQV 150000Z AUTO 36003KT M11/M16 RMK AO1 T11121155,CWQV,2019-01-15T00:00:00Z,48.27,-70.12,-11.2,-15.5,360,3,,,,,,TRUE,TRUE,,,,,,,,,,,,,,,,,,,,,,,,,,,METAR,1.0
CWQR 150000Z AUTO 28013KT M08/M11 RMK AO1 PK WND 30017/2304 T10801112,CWQR,2019-01-15T00:00:00Z,50.22,-64.22,-8.0,-11.2,280,13,,,,,,TRUE,TRUE,,,,,,,,,,,,,,,,,,,,,,,,,,,METAR,9.0
CWQK 150000Z AUTO 07014KT 08/03 RMK AO1 PK WND 08017/2313 SLP149 T00830033 57011,CWQK,2019-01-15T00:00:00Z,48.3,-123.53,8.3,3.3,70,14,,,,1014.9,,TRUE,TRUE,,,,,,,,,,,,,,,,-1.1,,,,,,,,,,,METAR,5.0
CWQH 150000Z AUTO 09003KT M14/M16 RMK AO1 SOG 14 T11441164,CWQH,2019-01-15T00:00:00Z,45.37,-71.82,-14.4,-16.4,90,3,,,,,,TRUE,TRUE,,,,,,,,,,,,,,,,,,,,,,,,,,,METAR,181.0
CWGM 150000Z AUTO 20015G23KT 04/M16 RMK AO1 PK WND 20023/2352 T00411159,CWGM,2019-01-15T00:00:00Z,49.13,-113.78,4.1,-15.9,200,15,23,,,,,TRUE,TRUE,,,,,,,,,,,,,,,,,,,,,,,,,,,METAR,1296.0
CWGB 150000Z AUTO 28006KT 04/04 RMK AO1 SLP156 T00420040 56014,CWGB,2019-01-15T00:00:00Z,49.35,-124.17,4.2,4.0,280,6,,,,1015.6,,TRUE,TRUE,,,,,,,,,,,,,,,,-1.4,,,,,,,,,,,METAR,5.0
CWFQ 150000Z AUTO 17001KT M11/M14 RMK AO1 SOG 22 6011 SLP221 T11091135,CWFQ,2019-01-15T00:00:00Z,45.03,-72.82,-10.9,-13.5,170,1,,,,1022.1,,TRUE,TRUE,,,,,,,,,,,,,,,,,,,,,,,,,,,METAR,152.0
CWFJ 150000Z AUTO 34006KT 04/M09 RMK AO1 T00381089,CWFJ,2019-01-15T00:00:00Z,49.2,-113.27,3.8,-8.9,340,6,,,,,,TRUE,TRUE,,,,,,,,,,,,,,,,,,,,,,,,,,,METAR,1136.0
CWFF 150000Z AUTO 22011KT M05/M07 RMK AO1 SOG 14 8037 SLP147 T10501066,CWFF,2019-01-15T00:00:00Z,52.82,-104.58,-5.0,-6.6,220,11,,,,1014.7,,TRUE,TRUE,,,,,,,,,,,,,,,,,,,,,,,,,,,METAR,490.0
CWEZ 150000Z AUTO 30003KT RMK AO1 56013,CWEZ,2019-01-15T00:00:00Z,48.78,-123.05,,,300,3,,,,,,TRUE,TRUE,,,,,,,,,,,,,,,,-1.3,,,,,,,,,,,METAR,7.0
CWEW 150000Z AUTO 23006KT M11/M15 RMK AO1 SOG 14 8010 SLP229 T11071147,CWEW,2019-01-15T00:00:00Z,45.82,-73.43,-10.7,-14.7,230,6,,,,1022.9,,TRUE,TRUE,,,,,,,,,,,,,,,,,,,,,,,,,,,METAR,21.0
CWEL 150000Z AUTO 34007KT 05/04 RMK AO1 SLP157 T00480044 56014,CWEL,2019-01-15T00:00:00Z,49.22,-123.78,4.8,4.4,340,7,,,,1015.7,,TRUE,TRUE,,,,,,,,,,,,,,,,-1.4,,,,,,,,,,,METAR,5.0
CWEB 150000Z AUTO 07003KT 08/04 RMK AO1 SLP141 T00840035 56010,CWEB,2019-01-15T00:00:00Z,49.38,-126.55,8.4,3.5,70,3,,,,1014.1,,TRUE,TRUE,,,,,,,,,,,,,,,,-1.0,,,,,,,,,,,METAR,7.0
CWIK 150000Z AUTO 21011KT M04/M06 RMK AO1 SOG 06 8032 SLP195 T10401055,CWIK,2019-01-15T00:00:00Z,50.37,-102.58,-4.0,-5.5,210,11,,,,1019.5,,TRUE,TRUE,,,,,,,,,,,,,,,,,,,,,,,,,,,METAR,602.0
CWBU 150000Z AUTO 23013KT M04/M05 RMK AO1 SOG 24 8045 PK WND 23018/2341 SLP133 T10371046 50002,CWBU,2019-01-15T00:00:00Z,53.33,-104.02,-3.7,-4.6,230,13,,,,1013.3,,TRUE,TRUE,,,,,,,,,,,,,,,,0.2,,,,,,,,,,,METAR,373.0
CWWK 150000Z AUTO 16002KT 05/03 RMK AO1 SLP159 T00530033 57014,CWWK,2019-01-15T00:00:00Z,49.02,-122.78,5.3,3.3,160,2,,,,1015.9,,TRUE,TRUE,,,,,,,,,,,,,,,,-1.4,,,,,,,,,,,METAR,15.0
CWWF 150000Z AUTO 15005KT M07/M10 RMK AO1 SOG 05 8026 SLP207 T10741096,CWWF,2019-01-15T00:00:00Z,49.7,-103.8,-7.4,-9.6,150,5,,,,1020.7,,TRUE,TRUE,,,,,,,,,,,,,,,,,,,,,,,,,,,METAR,589.0
CWXI 150000Z AUTO 25023G29KT M04/M08 RMK AO1 PK WND 24030/2332 SLP135 T10441076 56005,CWXI,2019-01-15T00:00:00Z,51.02,-57.1,-4.4,-7.6,250,23,29,,,1013.5,,TRUE,TRUE,,,,,,,,,,,,,,,,-0.5,,,,,,,,,,,METAR,6.0
CWBK 150000Z AUTO 06004KT M08/M11 RMK AO1 SOG 73 8019 SLP186 T10801108 50006,CWBK,2019-01-15T00:00:00Z,45.77,-62.67,-8.0,-10.8,60,4,,,,1018.6,,TRUE,TRUE,,,,,,,,,,,,,,,,0.6,,,,,,,,,,,METAR,2.0
CERM 150000Z AUTO 00000KT M15/M17 RMK AO1 SOG 46 6014 SLP188 T11501174,CERM,2019-01-15T00:00:00Z,47.42,-68.32,-15.0,-17.4,0,0,,,,1018.8,,TRUE,TRUE,,,,,,,,,,,,,,,,,,,,,,,,,,,METAR,154.0
CWNZ 150000Z AUTO 36005KT M12/M16 RMK AO1 SOG 45 3018 SLP237 T11201159,CWNZ,2019-01-15T00:00:00Z,49.75,-84.17,-12.0,-15.9,360,5,,,,1023.7,,TRUE,TRUE,,,,,,,,,,,,,,,,,,,,,,,,,,,METAR,256.0
YLEC 150000Z AUTO 35016KT //// // ////// 41/04 Q1011,YLEC,2019-01-15T00:00:00Z,-30.6,138.43,41.0,4.0,350,16,,,29.852362,,,TRUE,,,,,,,,,,,,,,,,,,,,,,,,,,,,METAR,262.0
YKRY 150000Z AUTO 13003KT 9999 // NCD 26/16 Q1018,YKRY,2019-01-15T00:00:00Z,-26.57,151.83,26.0,16.0,130,3,,6.21,30.059055,,,TRUE,,,,,,,,CLR,,,,,,,,VFR,,,,,,,,,,,,METAR,434.0
YHUG 150000Z AUTO 08012KT 9999 // NCD 32/14 Q1013,YHUG,2019-01-15T00:00:00Z,-20.82,144.23,32.0,14.0,80,12,,6.21,29.911417,,,TRUE,,,,,,,,CLR,,,,,,,,VFR,,,,,,,,,,,,METAR,318.0
YGTH 150000Z AUTO 29020KT 9999 // NCD 41/07 Q1010,YGTH,2019-01-15T00:00:00Z,-34.25,146.07,41.0,7.0,290,20,,6.21,29.822834,,,TRUE,,,,,,,,CLR,,,,,,,,VFR,,,,,,,,,,,,METAR,134.0
YGTE 150000Z AUTO 09009KT 060V120 9999 // SCT036 32/23 Q1008,YGTE,2019-01-15T00:00:00Z,-13.97,136.45,32.0,23.0,90,9,,6.21,29.763779,,,TRUE,,,,,,,,SCT,3600,,,,,,,VFR,,,,,,,,,,,,METAR,14.0
YPBO 150000Z AUTO 29004KT 9999 // NCD 33/17 Q1009,YPBO,2019-01-15T00:00:00Z,-23.2,117.75,33.0,17.0,290,4,,6.21,29.793306,,,TRUE,,,,,,,,CLR,,,,,,,,VFR,,,,,,,,,,,,METAR,1292.0
YNWN 150000Z AUTO 24009KT 9999 // NCD 35/14 Q1009,YNWN,2019-01-15T00:00:00Z,-23.42,119.8,35.0,14.0,240,9,,6.21,29.793306,,,TRUE,,,,,,,,CLR,,,,,,,,VFR,,,,,,,,,,,,METAR,525.0
YNTN 150000Z AUTO 14007KT 110V180 9999 // BKN028 31/24 Q1011,YNTN,2019-01-15T00:00:00Z,-17.68,141.07,31.0,24.0,140,7,,6.21,29.852362,,,TRUE,,,,,,,,BKN,2800,,,,,,,MVFR,,,,,,,,,,,,METAR,22.0
YNBR 150000Z AUTO 35013KT 9999 // NCD 33/14 Q1016,YNBR,2019-01-15T00:00:00Z,-30.32,149.83,33.0,14.0,350,13,,6.21,30.0,,,TRUE,,,,,,,,CLR,,,,,,,,VFR,,,,,,,,,,,,METAR,240.0
YNAR 150000Z AUTO 30013KT //// // ////// 40/09 Q1011,YNAR,2019-01-15T00:00:00Z,-34.7,146.52,40.0,9.0,300,13,,,29.852362,,,TRUE,,,,,,,,,,,,,,,,,,,,,,,,,,,,METAR,145.0
YMTG 150000Z AUTO 03006KT 9999 // NCD 28/09 Q1010,YMTG,2019-01-15T00:00:00Z,-37.75,140.78,28.0,9.0,30,6,,6.21,29.822834,,,TRUE,,,,,,,,CLR,,,,,,,,VFR,,,,,,,,,,,,METAR,65.0
YLIS 150000Z AUTO 31005KT 9999 // NCD 28/17 Q1016,YLIS,2019-01-15T00:00:00Z,-28.83,153.27,28.0,17.0,310,5,,6.21,30.0,,,TRUE,,,,,,,,CLR,,,,,,,,VFR,,,,,,,,,,,,METAR,11.0
CXKA 150000Z AUTO 32004KT M09/M12 RMK AO1 SOG 37 1017 SLP220 T10851121,CXKA,2019-01-15T00:00:00Z,49.4,-82.45,-8.5,-12.1,320,4,,,,1022.0,,TRUE,TRUE,,,,,,,,,,,,,,,,,,,,,,,,,,,METAR,218.0
CWZS 150000Z AUTO 16002KT M10/M13 RMK AO1 SLP172 T11021132 58011,CWZS,2019-01-15T00:00:00Z,48.47,-67.43,-10.2,-13.2,160,2,,,,1017.2,,TRUE,TRUE,,,,,,,,,,,,,,,,-1.1,,,,,,,,,,,METAR,166.0
CWYY 150000Z AUTO 19002KT M01/M04 RMK AO1 SLP271 T10121040 57010,CWYY,2019-01-15T00:00:00Z,49.03,-119.43,-1.2,-4.0,190,2,,,,1027.1,,TRUE,TRUE,,,,,,,,,,,,,,,,-1.0,,,,,,,,,,,METAR,283.0
CWYJ 150000Z AUTO 01004KT 07/04 RMK AO1 SLP153 T00660039 56011,CWYJ,2019-01-15T00:00:00Z,48.45,-123.3,6.6,3.9,10,4,,,,1015.3,,TRUE,TRUE,,,,,,,,,,,,,,,,-1.1,,,,,,,,,,,METAR,39.0
CZDB 150000Z AUTO 01006KT M12/M15 RMK AO1 SOG 09 8023 SLP186 T11181148,CZDB,2019-01-15T00:00:00Z,45.42,-63.47,-11.8,-14.8,10,6,,,,1018.6,,TRUE,TRUE,,,,,,,,,,,,,,,,,,,,,,,,,,,METAR,38.0
CZCR 150000Z AUTO 23004KT M10/M15 RMK AO1 SOG 35 8009 SLP186 T10951146,CZCR,2019-01-15T00:00:00Z,47.97,-66.32,-9.5,-14.6,230,4,,,,1018.6,,TRUE,TRUE,,,,,,,,,,,,,,,,,,,,,,,,,,,METAR,38.0
CXNP 150000Z AUTO 36001KT M13/M15 RMK AO1 SOG 09 8015 SLP191 T11311152,CXNP,2019-01-15T00:00:00Z,45.75,-64.23,-13.1,-15.2,360,1,,,,1019.1,,TRUE,TRUE,,,,,,,,,,,,,,,,,,,,,,,,,,,METAR,20.0
CAHR 150000Z AUTO 19004KT M13/M14 RMK AO1 SOG 36 8013 SLP193 T11271143,CAHR,2019-01-15T00:00:00Z,46.35,-63.17,-12.7,-14.3,190,4,,,,1019.3,,TRUE,TRUE,,,,,,,,,,,,,,,,,,,,,,,,,,,METAR,53.0
CWNC 150000Z AUTO 36003KT M05/M08 RMK AO1 SOG 01 8007 SLP227 T10521077,CWNC,2019-01-15T00:00:00Z,43.95,-78.17,-5.2,-7.7,360,3,,,,1022.7,,TRUE,TRUE,,,,,,,,,,,,,,,,,,,,,,,,,,,METAR,78.0
CWDV 150000Z AUTO 35002KT M10/M12 RMK AO1 SOG 40 0006 SLP246 T10991124,CWDV,2019-01-15T00:00:00Z,49.02,-90.47,-9.9,-12.4,350,2,,,,1024.6,,TRUE,TRUE,,,,,,,,,,,,,,,,,,,,,,,,,,,METAR,489.0
CWDQ 150000Z AUTO 17004KT M12/M14 RMK AO1 SOG 47 8004 SLP208 T11161143,CWDQ,2019-01-15T00:00:00Z,47.42,-72.78,-11.6,-14.3,170,4,,,,1020.8,,TRUE,TRUE,,,,,,,,,,,,,,,,,,,,,,,,,,,METAR,169.0
CWWB 150000Z AUTO 26005KT M03/M08 RMK AO1 SLP237 T10261081 53001,CWWB,2019-01-15T00:00:00Z,43.3,-79.78,-2.6,-8.1,260,5,,,,1023.7,,TRUE,TRUE,,,,,,,,,,,,,,,,0.1,,,,,,,,,,,METAR,76.0
CWPC 150000Z AUTO 25014KT M03/M06 RMK AO1 PK WND 26017/2353 SLP243 T10311055 50001,CWPC,2019-01-15T00:00:00Z,42.87,-79.25,-3.1,-5.5,250,14,,,,1024.3,,TRUE,TRUE,,,,,,,,,,,,,,,,0.1,,,,,,,,,,,METAR,184.0
CWLS 150000Z AUTO 26004KT M05/M07 RMK AO1 SOG 10 6005 SLP233 T10511071,CWLS,2019-01-15T00:00:00Z,43.97,-80.75,-5.1,-7.1,260,4,,,,1023.3,,TRUE,TRUE,,,,,,,,,,,,,,,,,,,,,,,,,,,METAR,415.0
CWGL 150000Z AUTO 22008KT M03/M06 RMK AO1 SLP220 T10281056 56005,CWGL,2019-01-15T00:00:00Z,44.52,-79.22,-2.8,-5.6,220,8,,,,1022.0,,TRUE,TRUE,,,,,,,,,,,,,,,,-0.5,,,,,,,,,,,METAR,221.0
CWGD 150000Z AUTO 22006KT M02/M05 RMK AO1 SOG 02 5002 SLP238 T10231050,CWGD,2019-01-15T00:00:00Z,43.77,-81.72,-2.3,-5.0,220,6,,,,1023.8,,TRUE,TRUE,,,,,,,,,,,,,,,,,,,,,,,,,,,METAR,214.0
CWDJ 150000Z AUTO 17009KT M04/M06 RMK AO1 SLP188 T10421056 57030,CWDJ,2019-01-15T00:00:00Z,50.4,-104.58,-4.2,-5.6,170,9,,,,1018.8,,TRUE,TRUE,,,,,,,,,,,,,,,,-3.0,,,,,,,,,,,METAR,573.0
CWBT 150000Z AUTO 28003KT M10/M10 RMK AO1 SLP158 T10971104 58005,CWBT,2019-01-15T00:00:00Z,50.27,-64.23,-9.7,-10.4,280,3,,,,1015.8,,TRUE,TRUE,,,,,,,,,,,,,,,,-0.5,,,,,,,,,,,METAR,11.0
CWVT 150000Z AUTO 32012KT M05/M06 RMK AO1 SOG 33 3020 PK WND 32019/2333 SLP155 T10471060,CWVT,2019-01-15T00:00:00Z,55.82,-108.42,-4.7,-6.0,320,12,,,,1015.5,,TRUE,TRUE,,,,,,,,,,,,,,,,,,,,,,,,,,,METAR,434.0
CWWS 150000Z AUTO 16011G17KT M11/M14 RMK AO1 PRESFR SOG 36 8051 PK WND 15017/2359 SLP203 T11131136,CWWS,2019-01-15T00:00:00Z,52.82,-97.62,-11.3,-13.6,160,11,17,,,1020.3,,TRUE,TRUE,,,,,,,,,,,,,,,,,,,,,,,,,,,METAR,223.0
YBOK 150000Z AUTO 33006KT 290V350 9999 // NCD 27/15 Q1018,YBOK,2019-01-15T00:00:00Z,-27.42,151.72,27.0,15.0,330,6,,6.21,30.059055,,,TRUE,,,,,,,,CLR,,,,,,,,VFR,,,,,,,,,,,,METAR,407.0
YBNA 150000Z AUTO 05008KT 010V090 9999 // SCT028 BKN035 BKN043 27/22 Q1016,YBNA,2019-01-15T00:00:00Z,-28.83,153.57,27.0,22.0,50,8,,6.21,30.0,,,TRUE,,,,,,,,SCT,2800,BKN,3500,BKN,4300,,,VFR,,,,,,,,,,,,METAR,2.0
YBMK 150000Z AUTO 13017KT 9999 // ////// 29/22 Q1013,YBMK,2019-01-15T00:00:00Z,-21.17,149.17,29.0,22.0,130,17,,6.21,29.911417,,,TRUE,,,,,,,,,,,,,,,,,,,,,,,,,,,,METAR,31.0
YCNM 150000Z AUTO 35014KT //// // ////// 35/13 Q1014,YCNM,2019-01-15T00:00:00Z,-30.98,148.38,35.0,13.0,350,14,,,29.940945,,,TRUE,,,,,,,,,,,,,,,,,,,,,,,,,,,,METAR,184.0
YBPN 150000Z AUTO 12016KT 9999 // SCT024 28/22 Q1013,YBPN,2019-01-15T00:00:00Z,-20.5,148.55,28.0,22.0,120,16,,6.21,29.911417,,,TRUE,,,,,,,,SCT,2400,,,,,,,VFR,,,,,,,,,,,,METAR,25.0
FAWK 150000Z AUTO 01005KT //// // ////// ///// Q1019,FAWK,2019-01-15T00:00:00Z,-25.82,28.22,,,10,5,,,30.088583,,,TRUE,,,,,,,,,,,,,,,,,,,,,,,,,,,,SPECI,1500.0
FALA 150000Z AUTO 10003KT 080V140 //// // ////// 21/17 Q1018,FALA,2019-01-15T00:00:00Z,-25.92,27.92,21.0,17.0,100,3,,,30.059055,,,TRUE,,,,,,,,,,,,,,,,,,,,,,,,,,,,METAR,1377.0
NSFA 150000Z 30007KT 270V340 9999 VCSH FEW020CB SCT050 32/26 Q1 006 RMK CB TO NW/ SSE,NSFA,2019-01-15T00:00:00Z,-13.83,-172.0,32.0,26.0,300,7,,6.21,,,,,,,,,,,VCSH,FEW,2000,SCT,5000,,,,,VFR,,,,,,,,,,,,METAR,5.0
WIHH 150000Z 25004KT 6000 NSW 26/24 Q1010 NOSIG,WIHH,2019-01-15T00:00:00Z,-6.25,106.88,26.0,24.0,250,4,,3.73,29.822834,,,,,,TRUE,,,,,,,,,,,,,,,,,,,,,,,,,SPECI,25.0
YSNW 150000Z 09005KT CAVOK 30/21 Q1011 NOSIG,YSNW,2019-01-15T00:00:00Z,-34.95,150.52,30.0,21.0,90,5,,6.21,29.852362,,,,,,TRUE,,,,,CAVOK,,,,,,,,VFR,,,,,,,,,,,,METAR,110.0
YRMD 150000Z AUTO 06008KT 010V110 9999 // NCD 33/17 Q1012,YRMD,2019-01-15T00:00:00Z,-20.7,143.12,33.0,17.0,60,8,,6.21,29.88189,,,TRUE,,,,,,,,CLR,,,,,,,,VFR,,,,,,,,,,,,METAR,207.0
YESP 150000Z AUTO 08008KT 9999 // OVC027 19/11 Q1016,YESP,2019-01-15T00:00:00Z,-33.68,121.82,19.0,11.0,80,8,,6.21,30.0,,,TRUE,,,,,,,,OVC,2700,,,,,,,MVFR,,,,,,,,,,,,METAR,143.0
YEML 150000Z AUTO 12006G16KT 9999 // BKN042 30/18 Q1015,YEML,2019-01-15T00:00:00Z,-23.57,148.18,30.0,18.0,120,6,16,6.21,29.970472,,,TRUE,,,,,,,,BKN,4200,,,,,,,VFR,,,,,,,,,,,,METAR,190.0
YDBY 150000Z AUTO 21004KT //// // NCD 30/25 Q1007,YDBY,2019-01-15T00:00:00Z,-17.37,123.67,30.0,25.0,210,4,,,29.734253,,,TRUE,,,,,,,,CLR,,,,,,,,,,,,,,,,,,,,METAR,7.0
YCOM 150000Z AUTO 29008KT 250V320 9999 // NCD 33/10 Q1016,YCOM,2019-01-15T00:00:00Z,-36.3,148.97,33.0,10.0,290,8,,6.21,30.0,,,TRUE,,,,,,,,CLR,,,,,,,,VFR,,,,,,,,,,,,METAR,941.0
WIEE 150000Z 05001KT 9999 SCT020 24/23 Q1010 NOSIG,WIEE,2019-01-15T00:00:00Z,-0.78,100.28,24.0,23.0,50,1,,6.21,29.822834,,,,,,TRUE,,,,,SCT,2000,,,,,,,VFR,,,,,,,,,,,,METAR,5.0
SCIP 150000Z 07007KT 360V090 9999 SCT020 BKN030 24/19 Q1020 NOSIG,SCIP,2019-01-15T00:00:00Z,-27.17,-109.43,24.0,19.0,70,7,,6.21,30.11811,,,,,,TRUE,,,,,SCT,2000,BKN,3000,,,,,MVFR,,,,,,,,,,,,SPECI,69.0
SBJV 150000Z 28003KT 260V340 9999 SCT020 24/23 Q1014,SBJV,2019-01-15T00:00:00Z,-26.22,-48.8,24.0,23.0,280,3,,6.21,29.940945,,,,,,,,,,,SCT,2000,,,,,,,VFR,,,,,,,,,,,,METAR,4.0
SBSY 150000Z AUTO 24007KT 200V270 CAVOK 24/18 Q1016,SBSY,2019-01-15T00:00:00Z,-11.57,-50.67,24.0,18.0,240,7,,6.21,30.0,,,TRUE,,,,,,,,CAVOK,,,,,,,,VFR,,,,,,,,,,,,METAR,197.0
DNKN 150000Z 00000KT 5000 HZ NSC 14/04 Q1018 NOSIG,DNKN,2019-01-15T00:00:00Z,12.05,8.52,14.0,4.0,0,0,,3.11,30.059055,,,,,,TRUE,,,,HZ,CLR,,,,,,,,MVFR,,,,,,,,,,,,METAR,481.0
SBBI 150000Z 36005KT 9999 FEW020 BKN090 21/20 Q1020,SBBI,2019-01-15T00:00:00Z,-25.4,-49.23,21.0,20.0,360,5,,6.21,30.11811,,,,,,,,,,,FEW,2000,BKN,9000,,,,,VFR,,,,,,,,,,,,METAR,923.0
SBAN 150000Z 34003KT 9999 FEW040 20/17 Q1020,SBAN,2019-01-15T00:00:00Z,-16.22,-48.97,20.0,17.0,340,3,,6.21,30.11811,,,,,,,,,,,FEW,4000,,,,,,,VFR,,,,,,,,,,,,METAR,1137.0
SBMG 150000Z 06010KT 9999 VCTS FEW025 FEW035CB 25/19 Q1014,SBMG,2019-01-15T00:00:00Z,-23.48,-52.02,25.0,19.0,60,10,,6.21,29.940945,,,,,,,,,,VCTS,FEW,2500,FEW,3500,,,,,VFR,,,,,,,,,,,,METAR,542.0
SBSM 150000Z 01004KT 9999 -TSRA SCT025 FEW035CB BKN070 25/23 Q1012,SBSM,2019-01-15T00:00:00Z,-29.72,-53.7,25.0,23.0,10,4,,6.21,29.88189,,,,,,,,,,-TSRA,SCT,2500,FEW,3500,BKN,7000,,,VFR,,,,,,,,,,,,METAR,85.0
CZSP 150000Z AUTO 17003KT M13/M14 RMK AO1 SOG 29 8014 SLP200 T11291142,CZSP,2019-01-15T00:00:00Z,46.45,-62.58,-12.9,-14.2,170,3,,,,1020.0,,TRUE,TRUE,,,,,,,,,,,,,,,,,,,,,,,,,,,METAR,30.0
SBCO 150000Z 13006KT 100V160 9999 -TSRA SCT035 FEW040CB BKN080 24/23 Q1011 RERA,SBCO,2019-01-15T00:00:00Z,-29.95,-51.15,24.0,23.0,130,6,,6.21,29.852362,,,,,,,,,,-TSRA,SCT,3500,FEW,4000,BKN,8000,,,VFR,,,,,,,,,,,,METAR,47.0
SBCH 150000Z 00000KT 9999 TS FEW003 SCT025 FEW040CB OVC100 22/22 Q1018,SBCH,2019-01-15T00:00:00Z,-27.13,-52.67,22.0,22.0,0,0,,6.21,30.059055,,,,,,,,,,TS,FEW,300,SCT,2500,FEW,4000,OVC,10000,VFR,,,,,,,,,,,,METAR,650.0
SBCA 150000Z 15010KT 9999 SCT030 FEW050TCU 22/20 Q1017,SBCA,2019-01-15T00:00:00Z,-25.0,-53.5,22.0,20.0,150,10,,6.21,30.029528,,,,,,,,,,,SCT,3000,FEW,5000,,,,,VFR,,,,,,,,,,,,METAR,754.0
SBKG 150000Z 11011KT 9999 SCT020 24/19 Q1017,SBKG,2019-01-15T00:00:00Z,-7.27,-35.87,24.0,19.0,110,11,,6.21,30.029528,,,,,,,,,,,SCT,2000,,,,,,,VFR,,,,,,,,,,,,METAR,560.0
SBJU 150000Z 00000KT 9999 SCT020 26/22 Q1016,SBJU,2019-01-15T00:00:00Z,-7.22,-39.27,26.0,22.0,0,0,,6.21,30.0,,,,,,,,,,,SCT,2000,,,,,,,VFR,,,,,,,,,,,,METAR,409.0
SBQV 150000Z 12011KT 9999 FEW020 21/19 Q1020,SBQV,2019-01-15T00:00:00Z,-14.87,-40.87,21.0,19.0,120,11,,6.21,30.11811,,,,,,,,,,,FEW,2000,,,,,,,VFR,,,,,,,,,,,,METAR,893.0
SBBU 150000Z 14003KT 9999 FEW045 SCT080 29/22 Q1016,SBBU,2019-01-15T00:00:00Z,-22.32,-49.07,29.0,22.0,140,3,,6.21,30.0,,,,,,,,,,,FEW,4500,SCT,8000,,,,,VFR,,,,,,,,,,,,METAR,590.0
SBDN 150000Z 07005KT 9999 FEW010 SCT035 28/20 Q1015,SBDN,2019-01-15T00:00:00Z,-22.18,-51.43,28.0,20.0,70,5,,6.21,29.970472,,,,,,,,,,,FEW,1000,SCT,3500,,,,,VFR,,,,,,,,,,,,METAR,435.0
SBMK 150000Z 10003KT CAVOK 25/15 Q1016,SBMK,2019-01-15T00:00:00Z,-16.7,-43.82,25.0,15.0,100,3,,6.21,30.0,,,,,,,,,,,CAVOK,,,,,,,,VFR,,,,,,,,,,,,METAR,646.0
SBLS 150000Z 14006KT CAVOK 24/16 Q1018,SBLS,2019-01-15T00:00:00Z,-19.67,-43.88,24.0,16.0,140,6,,6.21,30.059055,,,,,,,,,,,CAVOK,,,,,,,,VFR,,,,,,,,,,,,METAR,852.0
SBIP 150000Z 29002KT CAVOK 24/20 Q1014,SBIP,2019-01-15T00:00:00Z,-19.47,-42.48,24.0,20.0,290,2,,6.21,29.940945,,,,,,,,,,,CAVOK,,,,,,,,VFR,,,,,,,,,,,,METAR,239.0
SBMT 150000Z 11004KT 040V160 8000 NSC 25/20 Q1018,SBMT,2019-01-15T00:00:00Z,-23.52,-46.62,25.0,20.0,110,4,,4.97,30.059055,,,,,,,,,,,CLR,,,,,,,,MVFR,,,,,,,,,,,,METAR,722.0
SBSC 150000Z 25009KT CAVOK 27/23 Q1013,SBSC,2019-01-15T00:00:00Z,-22.92,-43.72,27.0,23.0,250,9,,6.21,29.911417,,,,,,,,,,,CAVOK,,,,,,,,VFR,,,,,,,,,,,,METAR,3.0
SBTA 150000Z 16003KT 090V230 9000 VCTS BKN025 FEW030CB BKN080 21/18 Q1017,SBTA,2019-01-15T00:00:00Z,-23.03,-45.5,21.0,18.0,160,3,,5.59,30.029528,,,,,,,,,,VCTS,BKN,2500,FEW,3000,BKN,8000,,,MVFR,,,,,,,,,,,,METAR,586.0
SBSR 150000Z 00000KT CAVOK 28/17 Q1015,SBSR,2019-01-15T00:00:00Z,-20.8,-49.4,28.0,17.0,0,0,,6.21,29.970472,,,,,,,,,,,CAVOK,,,,,,,,VFR,,,,,,,,,,,,METAR,543.0
CXCP 150000Z AUTO 35012KT 02/M06 RMK AO1 PK WND 00019/2300 T00151062,CXCP,2019-01-15T00:00:00Z,50.28,-113.35,1.5,-6.2,350,12,,,,,,TRUE,TRUE,,,,,,,,,,,,,,,,,,,,,,,,,,,METAR,1006.0
GUCY 150000Z 00000KT 3000 BR FEW015 26/25 Q1012 NOSIG,GUCY,2019-01-15T00:00:00Z,9.57,-13.62,26.0,25.0,0,0,,1.86,29.88189,,,,,,TRUE,,,,BR,FEW,1500,,,,,,,IFR,,,,,,,,,,,,METAR,26.0
CXAK 150000Z AUTO 25009KT M03/M06 RMK AO1 T10251063,CXAK,2019-01-15T00:00:00Z,52.35,-112.6,-2.5,-6.3,250,9,,,,,,TRUE,TRUE,,,,,,,,,,,,,,,,,,,,,,,,,,,METAR,795.0
CXDB 150000Z AUTO 32011KT 04/M12 RMK AO1 T00381116,CXDB,2019-01-15T00:00:00Z,49.05,-112.82,3.8,-11.6,320,11,,,,,,TRUE,TRUE,,,,,,,,,,,,,,,,,,,,,,,,,,,METAR,1310.0
SBYS 150000Z 24007KT 9999 TS VCSH FEW045CB BKN090 24/18 Q1016,SBYS,2019-01-15T00:00:00Z,-21.97,-47.32,24.0,18.0,240,7,,6.21,30.0,,,,,,,,,,TS VCSH,FEW,4500,BKN,9000,,,,,VFR,,,,,,,,,,,,METAR,598.0
SBUR 150000Z 16010KT 8000 -TSRA BKN020 FEW030CB 23/20 Q1018,SBUR,2019-01-15T00:00:00Z,-19.77,-47.97,23.0,20.0,160,10,,4.97,30.059055,,,,,,,,,,-TSRA,BKN,2000,FEW,3000,,,,,MVFR,,,,,,,,,,,,METAR,807.0
SBUL 150000Z 01003KT CAVOK 25/16 Q1018,SBUL,2019-01-15T00:00:00Z,-18.87,-48.22,25.0,16.0,10,3,,6.21,30.059055,,,,,,,,,,,CAVOK,,,,,,,,VFR,,,,,,,,,,,,METAR,922.0
CWOE 150000Z AUTO 06008KT M02/M09 RMK AO1 SLP199 T10151088 56010,CWOE,2019-01-15T00:00:00Z,49.12,-110.47,-1.5,-8.8,60,8,,,,1019.9,,TRUE,TRUE,,,,,,,,,,,,,,,,-1.0,,,,,,,,,,,METAR,935.0
CXFR 150000Z AUTO 36003KT M03/M04 RMK AO1 T10341037,CXFR,2019-01-15T00:00:00Z,56.08,-118.43,-3.4,-3.7,360,3,,,,,,TRUE,TRUE,,,,,,,,,,,,,,,,,,,,,,,,,,,METAR,655.0
CXHR 150000Z AUTO 32015KT 01/M05 RMK AO1 PK WND 32017/2353 T00091054,CXHR,2019-01-15T00:00:00Z,51.18,-112.5,0.9,-5.4,320,15,,,,,,TRUE,TRUE,,,,,,,,,,,,,,,,,,,,,,,,,,,METAR,971.0
OEMA 150000Z 22003KT CAVOK 21/12 Q1014 NOSIG,OEMA,2019-01-15T00:00:00Z,24.55,39.7,21.0,12.0,220,3,,6.21,29.940945,,,,,,TRUE,,,,,CAVOK,,,,,,,,VFR,,,,,,,,,,,,METAR,631.0
OEJN 150000Z 02006KT 9999 FEW040 23/15 Q1014 NOSIG,OEJN,2019-01-15T00:00:00Z,21.68,39.15,23.0,15.0,20,6,,6.21,29.940945,,,,,,TRUE,,,,,FEW,4000,,,,,,,VFR,,,,,,,,,,,,METAR,15.0
CXKI 150000Z AUTO M06/M07 RMK AO1 SOG 36 3010 SLP197 T10551071,CXKI,2019-01-15T00:00:00Z,48.22,-80.0,-5.5,-7.1,,,,,,1019.7,,TRUE,TRUE,,,,,,,,,,,,,,,,,,,,,,,,,,,METAR,324.0
OIZI 150000Z 00000KT CAVOK 13/M02 Q1020,OIZI,2019-01-15T00:00:00Z,27.23,60.72,13.0,-2.0,0,0,,6.21,30.11811,,,,,,,,,,,CAVOK,,,,,,,,VFR,,,,,,,,,,,,METAR,591.0
OIZB 150000Z 35004KT CAVOK 04/M15 Q1017,OIZB,2019-01-15T00:00:00Z,31.1,61.55,4.0,-15.0,350,4,,6.21,30.029528,,,,,,,,,,,CAVOK,,,,,,,,VFR,,,,,,,,,,,,METAR,489.0
SKPC 150000Z 00000KT 9999 BKN080 30/21 A2981,SKPC,2019-01-15T00:00:00Z,6.17,-67.5,30.0,21.0,0,0,,6.21,29.811024,,,,,,,,,,,BKN,8000,,,,,,,VFR,,,,,,,,,,,,METAR,55.0
SKUC 150000Z 00000KT 9999 NSC 27/19 A2988,SKUC,2019-01-15T00:00:00Z,7.07,-70.72,27.0,19.0,0,0,,6.21,29.878937,,,,,,,,,,,CLR,,,,,,,,VFR,,,,,,,,,,,,METAR,128.0
CXOY 150000Z AUTO 28011KT M02/M06 RMK AO1 T10151055,CXOY,2019-01-15T00:00:00Z,51.38,-110.35,-1.5,-5.5,280,11,,,,,,TRUE,TRUE,,,,,,,,,,,,,,,,,,,,,,,,,,,METAR,767.0
CXKM 150000Z AUTO 30012KT M01/M05 RMK AO1 T10121051,CXKM,2019-01-15T00:00:00Z,52.82,-111.85,-1.2,-5.1,300,12,,,,,,TRUE,TRUE,,,,,,,,,,,,,,,,,,,,,,,,,,,METAR,675.0
CXRB 150000Z AUTO 34015G22KT M28/M31 RMK AO1 SOG 03 8021 PK WND 35022/2359 SLP175 T12811309,CXRB,2019-01-15T00:00:00Z,74.72,-94.98,-28.1,-30.9,340,15,22,,,1017.5,,TRUE,TRUE,,,,,,,,,,,,,,,,,,,,,,,,,,,METAR,68.0
CXRL 150000Z AUTO 31010KT 01/M00 RMK AO1 T00101003,CXRL,2019-01-15T00:00:00Z,54.5,-111.7,1.0,-0.3,310,10,,,,,,TRUE,TRUE,,,,,,,,,,,,,,,,,,,,,,,,,,,METAR,585.0
CXTO 150000Z AUTO M02/M08 RMK AO1 SOG 01 8003 SLP230 T10211078,CXTO,2019-01-15T00:00:00Z,43.67,-79.4,-2.1,-7.8,,,,,,1023.0,,TRUE,TRUE,,,,,,,,,,,,,,,,,,,,,,,,,,,METAR,113.0
ROMY 150000Z 11006KT 020V200 9999 FEW030 21/15 Q1019,ROMY,2019-01-15T00:00:00Z,24.77,125.27,21.0,15.0,110,6,,6.21,30.088583,,,,,,,,,,,FEW,3000,,,,,,,VFR,,,,,,,,,,,,METAR,41.0
RJFG 150000Z 36003KT 330V050 9999 -RA FEW015 SCT050 BKN080 13/10 Q1020,RJFG,2019-01-15T00:00:00Z,30.62,130.98,13.0,10.0,360,3,,6.21,30.11811,,,,,,,,,,-RA,FEW,1500,SCT,5000,BKN,8000,,,VFR,,,,,,,,,,,,METAR,237.0
RJAF 150000Z 14009KT 100V180 9999 VCSH FEW035 BKN050 BKN/// 01/M06 Q1019,RJAF,2019-01-15T00:00:00Z,36.17,137.92,1.0,-6.0,140,9,,6.21,30.088583,,,,,,,,,,VCSH,FEW,3500,BKN,5000,,,,,VFR,,,,,,,,,,,,METAR,660.0
CWLC 150000Z AUTO 21002KT 07/07 RMK AO1 T00740066,CWLC,2019-01-15T00:00:00Z,54.3,-130.62,7.4,6.6,210,2,,,,,,TRUE,TRUE,,,,,,,,,,,,,,,,,,,,,,,,,,,METAR,27.0
CWKG 150000Z AUTO 05003KT M10/M11 RMK AO1 SOG 06 8016 SLP176 T10991112,CWKG,2019-01-15T00:00:00Z,44.43,-65.2,-9.9,-11.2,50,3,,,,1017.6,,TRUE,TRUE,,,,,,,,,,,,,,,,,,,,,,,,,,,METAR,165.0
CWJT 150000Z AUTO 00000KT M11/M13 RMK AO1 SLP238 T11111127 58008,CWJT,2019-01-15T00:00:00Z,46.07,-74.57,-11.1,-12.7,0,0,,,,1023.8,,TRUE,TRUE,,,,,,,,,,,,,,,,-0.8,,,,,,,,,,,METAR,239.0
CWJR 150000Z AUTO 31002KT M03/M06 RMK AO1 SOG 05 6012 SLP280 T10261062,CWJR,2019-01-15T00:00:00Z,49.07,-116.5,-2.6,-6.2,310,2,,,,1028.0,,TRUE,TRUE,,,,,,,,,,,,,,,,,,,,,,,,,,,METAR,646.0
CXKE 150000Z AUTO 18003KT M12/M14 RMK AO1 SOG 08 8006 SLP232 T11211142,CXKE,2019-01-15T00:00:00Z,45.0,-75.63,-12.1,-14.2,180,3,,,,1023.2,,TRUE,TRUE,,,,,,,,,,,,,,,,,,,,,,,,,,,METAR,99.0
CXHM 150000Z AUTO 27003KT M04/M07 RMK AO1 SLP238 T10421073 55000,CXHM,2019-01-15T00:00:00Z,43.28,-79.9,-4.2,-7.3,270,3,,,,1023.8,,TRUE,TRUE,,,,,,,,,,,,,,,,0.0,,,,,,,,,,,METAR,107.0
CWZQ 150000Z AUTO 18006KT M09/M12 RMK AO1 SLP194 T10931116 58014,CWZQ,2019-01-15T00:00:00Z,46.53,-61.05,-9.3,-11.6,180,6,,,,1019.4,,TRUE,TRUE,,,,,,,,,,,,,,,,-1.4,,,,,,,,,,,METAR,17.0
CWZO 150000Z AUTO 06007KT RMK AO1,CWZO,2019-01-15T00:00:00Z,48.55,-123.23,,,60,7,,,,,,TRUE,TRUE,,,,,,,,,,,,,,,,,,,,,,,,,,,METAR,1.0
CWZA 150000Z AUTO 36012G24KT 10/M02 RMK AO1 PK WND 00024/2357 SLP151 T00961019 56012,CWZA,2019-01-15T00:00:00Z,49.25,-121.77,9.6,-1.9,360,12,24,,,1015.1,,TRUE,TRUE,,,,,,,,,,,,,,,,-1.2,,,,,,,,,,,METAR,15.0
CWXL 150000Z AUTO 18003KT 01/M07 RMK AO1 T00121074,CWXL,2019-01-15T00:00:00Z,49.73,-111.45,1.2,-7.4,180,3,,,,,,TRUE,TRUE,,,,,,,,,,,,,,,,,,,,,,,,,,,METAR,817.0
CZKD 150000Z AUTO 07002KT M22/M24 RMK AO1 SOG 33 8029 SLP224 T12161244,CZKD,2019-01-15T00:00:00Z,56.03,-96.52,-21.6,-24.4,70,2,,,,1022.4,,TRUE,TRUE,,,,,,,,,,,,,,,,,,,,,,,,,,,METAR,183.0
CXZV 150000Z AUTO 31002KT M12/M16 RMK AO1 SOG 68 8006 SLP163 T11191156,CXZV,2019-01-15T00:00:00Z,50.22,-66.25,-11.9,-15.6,310,2,,,,1016.3,,TRUE,TRUE,,,,,,,,,,,,,,,,,,,,,,,,,,,METAR,52.0
LPLA 150000Z /////KT 9999 FEW018 SCT040 14/14 Q1026,LPLA,2019-01-15T00:00:00Z,38.77,-27.1,14.0,14.0,,,,6.21,30.295275,,,,,,,,,,,FEW,1800,SCT,4000,,,,,VFR,,,,,,,,,,,,METAR,55.0
LPBJ 150000Z 28005KT CAVOK 04/03 Q1021,LPBJ,2019-01-15T00:00:00Z,38.08,-7.93,4.0,3.0,280,5,,6.21,30.147638,,,,,,,,,,,CAVOK,,,,,,,,VFR,,,,,,,,,,,,METAR,194.0
SCCY 150000Z 25008G18KT 200V330 CAVOK 20/M07 Q1010,SCCY,2019-01-15T00:00:00Z,-45.57,-72.1,20.0,-7.0,250,8,18,6.21,29.822834,,,,,,,,,,,CAVOK,,,,,,,,VFR,,,,,,,,,,,,METAR,311.0
SCIC 150000Z 25008KT CAVOK 24/11 Q1013,SCIC,2019-01-15T00:00:00Z,-34.97,-71.22,24.0,11.0,250,8,,6.21,29.911417,,,,,,,,,,,CAVOK,,,,,,,,VFR,,,,,,,,,,,,METAR,242.0
SCRM 150000Z 29011KT 2000 -SHSN BKN005 OVC010 01/M00 Q0988 NOSIG,SCRM,2019-01-15T00:00:00Z,-62.18,-58.98,1.0,0.0,290,11,,1.24,29.17323,,,,,,TRUE,,,,-SHSN,BKN,500,OVC,1000,,,,,IFR,,,,,,,,,,,,METAR,45.0
SCCH 150000Z 27008KT 9999 FEW040 20/12 Q1015,SCCH,2019-01-15T00:00:00Z,-36.57,-72.02,20.0,12.0,270,8,,6.21,29.970472,,,,,,,,,,,FEW,4000,,,,,,,VFR,,,,,,,,,,,,METAR,148.0
SCTN 150000Z AUTO 18009KT //// R/////// // NCD 13/10 Q1015,SCTN,2019-01-15T00:00:00Z,-42.92,-72.7,13.0,10.0,180,9,,,29.970472,,,TRUE,,,,,,,,CLR,,,,,,,,,,,,,,,,,,,,METAR,4.0
SCPQ 150000Z AUTO 12004KT 020V150 //// R35///// FEW046 16/10 Q1015,SCPQ,2019-01-15T00:00:00Z,-42.33,-73.72,16.0,10.0,120,4,,,29.970472,,,TRUE,,,,,,,,FEW,4600,,,,,,,,,,,,,,,,,,,METAR,5.0
SCCI 150000Z 25006KT 9999 BKN040 14/06 Q1000 NOSIG,SCCI,2019-01-15T00:00:00Z,-53.0,-70.83,14.0,6.0,250,6,,6.21,29.52756,,,,,,TRUE,,,,,BKN,4000,,,,,,,VFR,,,,,,,,,,,,METAR,37.0
SCTE 150000Z 24004KT CAVOK 16/09 Q1015 NOSIG,SCTE,2019-01-15T00:00:00Z,-41.42,-73.07,16.0,9.0,240,4,,6.21,29.970472,,,,,,TRUE,,,,,CAVOK,,,,,,,,VFR,,,,,,,,,,,,METAR,86.0
SCQP 150000Z 26009KT 230V300 CAVOK 15/11 Q1016,SCQP,2019-01-15T00:00:00Z,-38.92,-72.65,15.0,11.0,260,9,,6.21,30.0,,,,,,,,,,,CAVOK,,,,,,,,VFR,,,,,,,,,,,,METAR,97.0
SCSE 150000Z 30007KT CAVOK 18/13 Q1013,SCSE,2019-01-15T00:00:00Z,-29.92,-71.2,18.0,13.0,300,7,,6.21,29.911417,,,,,,,,,,,CAVOK,,,,,,,,VFR,,,,,,,,,,,,METAR,146.0
SCDA 150000Z 18016KT 9999 FEW040 21/14 Q1013,SCDA,2019-01-15T00:00:00Z,-20.52,-70.17,21.0,14.0,180,16,,6.21,29.911417,,,,,,,,,,,FEW,4000,,,,,,,VFR,,,,,,,,,,,,METAR,52.0
SCAT 150000Z 22011KT 9999 SCT015 18/14 Q1014,SCAT,2019-01-15T00:00:00Z,-27.27,-70.77,18.0,14.0,220,11,,6.21,29.940945,,,,,,,,,,,SCT,1500,,,,,,,VFR,,,,,,,,,,,,METAR,204.0
SCIE 150000Z METAR 31005KT 290V360 9999 FEW025 16/13 Q1016,SCIE,2019-01-15T00:00:00Z,-36.77,-73.07,16.0,13.0,310,5,,6.21,30.0,,,,,,,,,,,FEW,2500,,,,,,,VFR,,,,,,,,,,,,METAR,16.0
SCCF 150000Z 26017KT 9999 SCT150 19/01 Q1024,SCCF,2019-01-15T00:00:00Z,-22.5,-68.9,19.0,1.0,260,17,,6.21,30.236221,,,,,,,,,,,SCT,15000,,,,,,,VFR,,,,,,,,,,,,METAR,2312.0
SCBA 150000Z AUTO 31022KT CAVOK 18/00 Q1010,SCBA,2019-01-15T00:00:00Z,-45.92,-71.67,18.0,0.0,310,22,,6.21,29.822834,,,TRUE,,,,,,,,CAVOK,,,,,,,,VFR,,,,,,,,,,,,METAR,524.0
SCAR 150000Z 25004KT CAVOK 21/15 Q1013,SCAR,2019-01-15T00:00:00Z,-18.35,-70.32,21.0,15.0,250,4,,6.21,29.911417,,,,,,,,,,,CAVOK,,,,,,,,VFR,,,,,,,,,,,,METAR,59.0
SCFA 150000Z 18008KT 9999 FEW015 19/14 Q1013 NOSIG,SCFA,2019-01-15T00:00:00Z,-23.42,-70.42,19.0,14.0,180,8,,6.21,29.911417,,,,,,TRUE,,,,,FEW,1500,,,,,,,VFR,,,,,,,,,,,,METAR,120.0
TNCM 150000Z 06007KT 030V090 9999 FEW020 25/19 Q1017 A3005 NOSIG ,TNCM,2019-01-15T00:00:00Z,18.05,-63.12,25.0,19.0,60,7,,6.21,30.029528,,,,,,TRUE,,,,,FEW,2000,,,,,,,VFR,,,,,,,,,,,,METAR,4.0
TNCA 150000Z 09015KT 9999 FEW018 26/21 Q1014 NOSIG,TNCA,2019-01-15T00:00:00Z,12.5,-70.0,26.0,21.0,90,15,,6.21,29.940945,,,,,,TRUE,,,,,FEW,1800,,,,,,,VFR,,,,,,,,,,,,METAR,18.0
GLRB 150000Z 00000KT 7000 FEW011 24/23 Q1012 BRVC,GLRB,2019-01-15T00:00:00Z,6.25,-10.33,24.0,23.0,0,0,,4.35,29.88189,,,,,,,,,,BR,FEW,1100,,,,,,,MVFR,,,,,,,,,,,,METAR,18.0
SBSN 150000Z 15002KT 9999 FEW015 22/21 Q1012,SBSN,2019-01-15T00:00:00Z,-2.42,-54.78,22.0,21.0,150,2,,6.21,29.88189,,,,,,,,,,,FEW,1500,,,,,,,VFR,,,,,,,,,,,,METAR,72.0
SEGS 150000Z 13009KT 9999 FEW020 27/22 Q1010 A2983,SEGS,2019-01-15T00:00:00Z,-0.45,-90.27,27.0,22.0,130,9,,6.21,29.822834,,,,,,,,,,,FEW,2000,,,,,,,VFR,,,,,,,,,,,,METAR,16.0
SEST 150000Z 14007KT 9999 FEW013 SCT040 BKN080 25/24 Q1007 RMK A2976,SEST,2019-01-15T00:00:00Z,-0.9,-89.58,25.0,24.0,140,7,,6.21,29.734253,,,,,,,,,,,FEW,1300,SCT,4000,BKN,8000,,,VFR,,,,,,,,,,,,METAR,6.0
SECU 150000Z 07002KT 9999 VCSH OVC040 16/12 Q1023,SECU,2019-01-15T00:00:00Z,-2.87,-78.97,16.0,12.0,70,2,,6.21,30.206694,,,,,,,,,,VCSH,OVC,4000,,,,,,,VFR,,,,,,,,,,,,METAR,2531.0
SEGU 150000Z 20008KT 170V230 6000 -RA SCT010 BKN020 OVC090 24/24 Q1009 NOSIG RMK A2984,SEGU,2019-01-15T00:00:00Z,-2.13,-79.87,24.0,24.0,200,8,,3.73,29.793306,,,,,,TRUE,,,,-RA,SCT,1000,BKN,2000,OVC,9000,,,MVFR,,,,,,,,,,,,METAR,9.0
SELT 150000Z 18012KT 9999 BKN030 14/10 Q1027,SELT,2019-01-15T00:00:00Z,-0.92,-78.62,14.0,10.0,180,12,,6.21,30.324802,,,,,,,,,,,BKN,3000,,,,,,,MVFR,,,,,,,,,,,,METAR,2785.0
SEMT 150000Z 30003KT 9999 BKN026 27/23 Q1010 RMK A2983,SEMT,2019-01-15T00:00:00Z,-0.95,-80.67,27.0,23.0,300,3,,6.21,29.822834,,,,,,,,,,,BKN,2600,,,,,,,MVFR,,,,,,,,,,,,METAR,14.0
SEQM 150000Z 02004KT 9999 FEW010 SCT026 BKN080 14/14 Q1024 NOSIG RMK A3024,SEQM,2019-01-15T00:00:00Z,-0.12,-78.35,14.0,14.0,20,4,,6.21,30.236221,,,,,,TRUE,,,,,FEW,1000,SCT,2600,BKN,8000,,,VFR,,,,,,,,,,,,METAR,2400.0
TBPB 150000Z 08013KT 9999 SCT018 25/20 Q1015 NOSIG,TBPB,2019-01-15T00:00:00Z,13.07,-59.48,25.0,20.0,80,13,,6.21,29.970472,,,,,,TRUE,,,,,SCT,1800,,,,,,,VFR,,,,,,,,,,,,METAR,52.0
SPCL 150000Z VRBO2KT 9999 SCT020 BKN070 26/24 Q1010 RMK PP000,SPCL,2019-01-15T00:00:00Z,-8.38,-74.58,26.0,24.0,,,,6.21,29.822834,,,,,,,,,,,SCT,2000,BKN,7000,,,,,VFR,,,,,,,,,,,,METAR,149.0
SPJL 150000Z 11005KT 9999 BKN020 13/06 Q1032 RMK PP000,SPJL,2019-01-15T00:00:00Z,-15.47,-70.15,13.0,6.0,110,5,,6.21,30.47244,,,,,,,,,,,BKN,2000,,,,,,,MVFR,,,,,,,,,,,,METAR,3827.0
SPME 150000Z 16005KT 9999 SCT013 BKN020 24/22 Q1010 RMK BIRD HAZARD RWY 32/14 PP000,SPME,2019-01-15T00:00:00Z,-3.53,-80.4,24.0,22.0,160,5,,6.21,29.822834,,,,,,,,,,,SCT,1300,BKN,2000,,,,,MVFR,,,,,,,,,,,,METAR,27.0
DIBK 150000Z 20004KT CAVOK 26/16 Q1014 NOSIG,DIBK,2019-01-15T00:00:00Z,7.72,-5.07,26.0,16.0,200,4,,6.21,29.940945,,,,,,TRUE,,,,,CAVOK,,,,,,,,VFR,,,,,,,,,,,,SPECI,376.0
FQNP 150000Z /////KT 9999 BKN020 23/22 Q1014,FQNP,2019-01-15T00:00:00Z,-15.08,39.27,23.0,22.0,,,,6.21,29.940945,,,,,,,,,,,BKN,2000,,,,,,,MVFR,,,,,,,,,,,,SPECI,441.0
FQPB 150000Z 30005KT 9999 SCT020 FEW025CB BKN100 26/24 Q1012 RMK RERA CB TO S/SW/W,FQPB,2019-01-15T00:00:00Z,-12.97,40.5,26.0,24.0,300,5,,6.21,29.88189,,,,,,,,,,,SCT,2000,FEW,2500,BKN,10000,,,VFR,,,,,,,,,,,,SPECI,50.0
MDBH 150000Z 13006KT 9999 SCT018 25/20 Q1017,MDBH,2019-01-15T00:00:00Z,18.25,-71.12,25.0,20.0,130,6,,6.21,30.029528,,,,,,,,,,,SCT,1800,,,,,,,VFR,,,,,,,,,,,,METAR,3.0
MDPC 150000Z 06005KT 9999 FEW020 24/20 Q1017 NOSIG,MDPC,2019-01-15T00:00:00Z,18.57,-68.37,24.0,20.0,60,5,,6.21,30.029528,,,,,,TRUE,,,,,FEW,2000,,,,,,,VFR,,,,,,,,,,,,METAR,12.0
SPST 150000Z 00000KT 9999 FEW020 23/22 Q1009 RMK BIRD HAZARD RWY 17/35 PP000,SPST,2019-01-15T00:00:00Z,-6.52,-76.37,23.0,22.0,0,0,,6.21,29.793306,,,,,,,,,,,FEW,2000,,,,,,,VFR,,,,,,,,,,,,METAR,282.0
RJCW 150000Z 17010KT 9999 FEW006 SCT030 BKN040 00/M01 Q1014,RJCW,2019-01-15T00:00:00Z,45.38,141.8,0.0,-1.0,170,10,,6.21,29.940945,,,,,,,,,,,FEW,600,SCT,3000,BKN,4000,,,VFR,,,,,,,,,,,,METAR,11.0
RJDC 150000Z 07003KT 9999 FEW025 SCT/// 09/08 Q1020,RJDC,2019-01-15T00:00:00Z,33.92,131.27,9.0,8.0,70,3,,6.21,30.11811,,,,,,,,,,,FEW,2500,,,,,,,VFR,,,,,,,,,,,,METAR,8.0
NGTA 150000Z 04007KT 9999 -SHRA FEW018TCU SCT040 BKN300 28/26 Q1007,NGTA,2019-01-15T00:00:00Z,1.37,173.13,28.0,26.0,40,7,,6.21,29.734253,,,,,,,,,,-SHRA,FEW,1800,SCT,4000,BKN,30000,,,VFR,,,,,,,,,,,,METAR,2.0
YOLD 150000Z AUTO 35010KT 9999 // NCD 41/02 Q1009,YOLD,2019-01-15T00:00:00Z,-30.48,136.88,41.0,2.0,350,10,,6.21,29.793306,,,TRUE,,,,,,,,CLR,,,,,,,,VFR,,,,,,,,,,,,METAR,105.0
UBBY 150000Z 15004KT 9999 SCT100 M00/M02 Q1014 R33/////// NOSIG RMK MT OP,UBBY,2019-01-15T00:00:00Z,41.57,46.67,0.0,-2.0,150,4,,6.21,29.940945,,,,,,TRUE,,,,,SCT,10000,,,,,,,VFR,,,,,,,,,,,,METAR,390.0
SAZS 150000Z 29014KT 9999 FEW055 22/03 Q1014,SAZS,2019-01-15T00:00:00Z,-41.13,-71.17,22.0,3.0,290,14,,6.21,29.940945,,,,,,,,,,,FEW,5500,,,,,,,VFR,,,,,,,,,,,,METAR,840.0
SAZM 150000Z 11008KT CAVOK 20/18 Q1015,SAZM,2019-01-15T00:00:00Z,-37.92,-57.57,20.0,18.0,110,8,,6.21,29.970472,,,,,,,,,,,CAVOK,,,,,,,,VFR,,,,,,,,,,,,METAR,21.0
KGXF 142359Z COR 06003KT 10SM BKN060 BKN100 BKN200 21/08 A3000 RMK AO2A SLPNO 5//// WND DATA ESTMD ALSTG ESTMD $ COR 0012,KGXF,2019-01-14T23:59:00Z,32.87,-112.72,21.0,8.0,60,3,,10.0,30.0,,TRUE,,TRUE,TRUE,,,,,,BKN,6000,BKN,10000,BKN,20000,,,VFR,,,,,,,,,,,,SPECI,262.0
KNGU 142359Z 34005KT 10SM FEW025 SCT070 01/M03 A3022 RMK AO2 SLP233 T00111033 10033 20011 53005,KNGU,2019-01-14T23:59:00Z,36.92,-76.27,1.1,-3.3,340,5,,10.0,30.221457,1023.3,,,TRUE,,,,,,,FEW,2500,SCT,7000,,,,,VFR,0.5,3.3,1.1,,,,,,,,,METAR,5.0
KNOZ 142359Z AUTO 19004KT 10SM BKN070 OVC100 17/09 A3002 RMK AO2 RAB23E39 SLP117 P0000 60000 T01720089 10178 20150 56007 $,KNOZ,2019-01-14T23:59:00Z,32.5,-114.45,17.2,8.9,190,4,,10.0,30.02067,1011.7,,TRUE,TRUE,TRUE,,,,,,BKN,7000,OVC,10000,,,,,VFR,-0.7,17.8,15.0,,,0.005,,0.005,,,,METAR,103.0
KROG 142358Z VRB03KT 10SM OVC007 00/M02 A3035 RMK AO2 SLP288 T00001017 10011 20000 55006,KROG,2019-01-14T23:58:00Z,36.37,-94.08,0.0,-1.7,0,3,,10.0,30.351377,1028.8,,,TRUE,,,,,,,OVC,700,,,,,,,IFR,-0.6,1.1,0.0,,,,,,,,,METAR,415.0
OAIX 142358Z 00000KT 6000 BR BKN100 OVC140 M01/M03 A3020 RMK AO2A SLP208 T10091029 10001 21016 58007 $,OAIX,2019-01-14T23:58:00Z,34.95,69.27,-0.9,-2.9,0,0,,3.73,30.200787,1020.8,,,TRUE,TRUE,,,,,BR,BKN,10000,OVC,14000,,,,,MVFR,-0.7,0.1,-1.6,,,,,,,,,METAR,1492.0
KT70 142358Z AUTO 14006KT 9SM OVC039 09/04 A3029 RMK AO2 SLP257 T00940040 10100 20082 57006 $,KT70,2019-01-14T23:58:00Z,29.12,-100.48,9.4,4.0,140,6,,9.0,30.28937,1025.7,,TRUE,TRUE,TRUE,,,,,,OVC,3900,,,,,,,VFR,-0.6,10.0,8.2,,,,,,,,,METAR,298.0
KMEI 142358Z 35006KT 10SM OVC019 07/02 A3034 RMK AO2 SLP273 I1000 I6/// T00670022 10083 20067 50001,KMEI,2019-01-14T23:58:00Z,32.33,-88.75,6.7,2.2,350,6,,10.0,30.339567,1027.3,,,TRUE,,,,,,,OVC,1900,,,,,,,MVFR,0.1,8.3,6.7,,,,,,,,,METAR,89.0
KLSV 142358Z COR 02009G14KT 10SM BKN050 SCT055 SCT140 BKN160 13/M01 A3005 RMK SLP175 WND DATA ESTMD ALSTG/SLP ESTMD 60000 T01271015 10130 20093 58017 COR 0036,KLSV,2019-01-14T23:58:00Z,36.22,-115.02,12.7,-1.5,20,9,14,10.0,30.050198,1017.5,TRUE,,,,,,,,,BKN,5000,SCT,5500,SCT,14000,BKN,16000,VFR,-1.7,13.0,9.3,,,,,0.005,,,,METAR,570.0
PAFB 142358Z 00000KT 10SM CLR M18/M20 A3004 RMK AO2A SLP190 4/011 T11831200 11176 21221 51006 $,PAFB,2019-01-14T23:58:00Z,64.83,-147.62,-18.3,-20.0,0,0,,10.0,30.041338,1019.0,,,TRUE,TRUE,,,,,,CLR,,,,,,,,VFR,0.6,-17.6,-22.1,,,,,,,11.0,,METAR,137.0
PAFR 142358Z AUTO 00000KT 9SM CLR M05/M06 A2991 RMK AO2 SLP139 60000 T10471063 11016 21078 55005,PAFR,2019-01-14T23:58:00Z,61.27,-149.65,-4.7,-6.3,0,0,,9.0,29.911417,1013.9,,TRUE,TRUE,,,,,,,CLR,,,,,,,,VFR,-0.5,-1.6,-7.8,,,,,0.005,,,,METAR,115.0
KFHU 142358Z AUTO 17006KT 10SM CLR 14/M04 A3015 RMK AO2 SLP180 T01401044 10160 20116 55001,KFHU,2019-01-14T23:58:00Z,31.58,-110.35,14.0,-4.4,170,6,,10.0,30.15059,1018.0,,TRUE,TRUE,,,,,,,CLR,,,,,,,,VFR,-0.1,16.0,11.6,,,,,,,,,METAR,1438.0
KBKF 142358Z 17005KT 10SM FEW220 03/M14 A3016 RMK AO2A SLP235 4/001 T00271140 10060 20004 58002,KBKF,2019-01-14T23:58:00Z,39.72,-104.75,2.7,-14.0,170,5,,10.0,30.159449,1023.5,,,TRUE,,,,,,,FEW,22000,,,,,,,VFR,-0.2,6.0,0.4,,,,,,,1.0,,METAR,1726.0
KEUF 142358Z AUTO 27004KT 10SM OVC034 08/04 A3025 RMK AO2 SLP243 T00780044 10089 20072 53002 $,KEUF,2019-01-14T23:58:00Z,31.95,-85.13,7.8,4.4,270,4,,10.0,30.250984,1024.3,,TRUE,TRUE,TRUE,,,,,,OVC,3400,,,,,,,VFR,0.2,8.9,7.2,,,,,,,,,METAR,87.0
KGOV 142358Z AUTO 25011G15KT 8SM OVC013 M02/M04 A3013 RMK AO2 SLPNO T10161038 11015 21032 55000 $,KGOV,2019-01-14T23:58:00Z,44.68,-84.73,-1.6,-3.8,250,11,15,8.0,30.129921,,,TRUE,TRUE,TRUE,,,,,,OVC,1300,,,,,,,MVFR,0.0,-1.5,-3.2,,,,,,,,,METAR,353.0
KNYL 142357Z AUTO 00000KT 10SM -RA OVC090 17/09 A3001 RMK AO2 RAB24 SLP162 P0001 60001 T01720089 10183 20161 56007 $,KNYL,2019-01-14T23:57:00Z,32.63,-114.62,17.2,8.9,0,0,,10.0,30.008858,1016.2,,TRUE,TRUE,TRUE,,,,,-RA,OVC,9000,,,,,,,VFR,-0.7,18.3,16.1,,,0.01,,0.01,,,,METAR,65.0
KNSI 142357Z COR 20007KT 10SM FEW007 FEW015 BKN180 BKN230 14/11 A2992 RMK AO2 SLP129 TCU DSNT NE T01440111 10161 20139 53006 60000 $,KNSI,2019-01-14T23:57:00Z,33.22,-119.45,14.4,11.1,200,7,,10.0,29.920275,1012.9,TRUE,,TRUE,TRUE,,,,,,FEW,700,FEW,1500,BKN,18000,BKN,23000,VFR,0.6,16.1,13.9,,,,,0.005,,,,METAR,154.0
PHNG 142357Z AUTO 12006KT 7SM CLR 27/20 A2998 RMK AO2 SLP147 T02720200 10278 20217 58027 $,PHNG,2019-01-14T23:57:00Z,21.43,-157.77,27.2,20.0,120,6,,7.0,29.97933,1014.7,,TRUE,TRUE,TRUE,,,,,,CLR,,,,,,,,VFR,-2.7,27.8,21.7,,,,,,,,,METAR,3.0
K0J4 142357Z AUTO VRB04KT 10SM OVC016 06/02 A3031 RMK AO2 SLP264 T00610022 10067 20061 53004,K0J4,2019-01-14T23:57:00Z,31.05,-86.32,6.1,2.2,0,4,,10.0,30.31004,1026.4,,TRUE,TRUE,,,,,,,OVC,1600,,,,,,,MVFR,0.4,6.7,6.1,,,,,,,,,METAR,96.0
EQYG 142357Z AUTO 26005KT 5SM RA OVC060 10/ A2942 RMK AO2 RAB2258 SLP958 P0006 60007 T0100 10128 20100 56049 $ ,EQYG,2019-01-14T23:57:00Z,,,10.0,,260,5,,5.0,29.421259,995.8,,TRUE,TRUE,TRUE,,,,,RA,OVC,6000,,,,,,,MVFR,-4.9,12.8,10.0,,,0.06,,0.07,,,,METAR,
KNJM 142357Z AUTO 36007KT 10SM OVC020 04/00 A3022 RMK AO2 SLP237 T00440000 10050 20039 51013 $,KNJM,2019-01-14T23:57:00Z,34.67,-77.02,4.4,0.0,360,7,,10.0,30.221457,1023.7,,TRUE,TRUE,TRUE,,,,,,OVC,2000,,,,,,,MVFR,1.3,5.0,3.9,,,,,,,,,METAR,7.0
KSVN 142356Z AUTO 36006KT 10SM OVC015 08/05 A3020 RMK AO2 CIG 013 RWY10 SLP230 T00830047 10094 20083 52007 FZRANO $,KSVN,2019-01-14T23:56:00Z,32.02,-81.15,8.3,4.7,360,6,,10.0,30.200787,1023.0,,TRUE,TRUE,TRUE,,,TRUE,,,OVC,1500,,,,,,,MVFR,0.7,9.4,8.3,,,,,,,,,METAR,13.0
KLSF 142356Z AUTO 28005KT 10SM OVC031 08/05 A3025 RMK AO2 SLP250 T00840050 10097 20075 53003,KLSF,2019-01-14T23:56:00Z,32.32,-84.97,8.4,5.0,280,5,,10.0,30.250984,1025.0,,TRUE,TRUE,,,,,,,OVC,3100,,,,,,,VFR,0.3,9.7,7.5,,,,,,,,,METAR,71.0
RJTY 142356Z AUTO 00000KT 10SM SCT180 02/M02 A3026 RMK AO2 SLP259 T00151023 10015 21038 58004 FZRANO $,RJTY,2019-01-14T23:56:00Z,35.75,139.33,1.5,-2.3,0,0,,10.0,30.259842,1025.9,,TRUE,TRUE,TRUE,,,TRUE,,,SCT,18000,,,,,,,VFR,-0.4,1.5,-3.8,,,,,,,,,METAR,139.0
EGUL 142356Z AUTO 25009KT 9999 BKN045 04/02 A3014 RMK AO2 SLP210 60000 T00420017 10054 20026 400790025 57003 $,EGUL,2019-01-14T23:56:00Z,52.42,0.57,4.2,1.7,250,9,,6.21,30.138779,1021.0,,TRUE,TRUE,TRUE,,,,,,BKN,4500,,,,,,,VFR,-0.3,5.4,2.6,7.9,2.5,,,0.005,,,,METAR,10.0
BGTL 142356Z AUTO 10013KT 9999 CLR M31/M36 A2964 RMK AO2 SLP032 T13141358 11314 21348 57016 TSNO CHINO RWY26 $,BGTL,2019-01-14T23:56:00Z,76.53,-68.7,-31.4,-35.8,100,13,,6.21,29.639763,1003.2,,TRUE,TRUE,TRUE,,TRUE,,,,CLR,,,,,,,,VFR,-1.6,-31.4,-34.8,,,,,,,,,METAR,77.0
K1BW 142356Z AUTO 31010KT 10SM CLR 00/M11 A3016 RMK AO2 SLP257 T00011107 10060 20001 58003 $,K1BW,2019-01-14T23:56:00Z,41.52,-104.0,0.1,-10.7,310,10,,10.0,30.159449,1025.7,,TRUE,TRUE,TRUE,,,,,,CLR,,,,,,,,VFR,-0.3,6.0,0.1,,,,,,,,,METAR,1607.0
KGTU 142356Z 33005KT 10SM OVC055 07/02 A3039 RMK AO2 SLP296 T00720017 10100 20067 55002,KGTU,2019-01-14T23:56:00Z,30.68,-97.68,7.2,1.7,330,5,,10.0,30.389763,1029.6,,,TRUE,,,,,,,OVC,5500,,,,,,,VFR,-0.2,10.0,6.7,,,,,,,,,METAR,240.0
KWMC 142356Z AUTO 03009G19KT 10SM CLR 06/M06 A3000 RMK AO2 SLP173 T00561061 10067 21006 56015,KWMC,2019-01-14T23:56:00Z,40.9,-117.8,5.6,-6.1,30,9,19,10.0,30.0,1017.3,,TRUE,TRUE,,,,,,,CLR,,,,,,,,VFR,-1.5,6.7,-0.6,,,,,,,,,METAR,1310.0
MHSC 142356Z AUTO 34011KT 9999 BKN080 23/19 A3005 RMK AO2 SLP146 T02250194 10277 20225 53008 $,MHSC,2019-01-14T23:56:00Z,14.37,-87.62,22.5,19.4,340,11,,6.21,30.050198,1014.6,,TRUE,TRUE,TRUE,,,,,,BKN,8000,,,,,,,VFR,0.8,27.7,22.5,,,,,,,,,METAR,626.0
KDIK 142356Z AUTO 14006KT 10SM CLR M02/M05 A3008 RMK AO2 SLP222 I6001 T10221050 10033 21039 58010,KDIK,2019-01-14T23:56:00Z,46.8,-102.8,-2.2,-5.0,140,6,,10.0,30.079725,1022.2,,TRUE,TRUE,,,,,,,CLR,,,,,,,,VFR,-1.0,3.3,-3.9,,,,,,,,,METAR,788.0
PHHI 142356Z AUTO 00000KT 10SM OVC050 25/15 A3001 RMK AO2 SLP155 60000 T02470153 10257 20175 57028 $,PHHI,2019-01-14T23:56:00Z,21.48,-158.05,24.7,15.3,0,0,,10.0,30.008858,1015.5,,TRUE,TRUE,TRUE,,,,,,OVC,5000,,,,,,,VFR,-2.8,25.7,17.5,,,,,0.005,,,,METAR,255.0
KADW 142356Z COR 00000KT 10SM CLR M06/M08 A3020 RMK AO2A SLP238 4/006 T10601084 10007 21067 53002 $ COR 0010,KADW,2019-01-14T23:56:00Z,38.82,-76.87,-6.0,-8.4,0,0,,10.0,30.200787,1023.8,TRUE,,TRUE,TRUE,,,,,,CLR,,,,,,,,VFR,0.2,0.7,-6.7,,,,,,,6.0,,SPECI,86.0
K1GM 142356Z AUTO 18015KT 10SM CLR 00/M14 A3002 RMK AO2 SLP212 T10051140 10030 21006 56003 $,K1GM,2019-01-14T23:56:00Z,47.33,-112.1,-0.5,-14.0,180,15,,10.0,30.02067,1021.2,,TRUE,TRUE,TRUE,,,,,,CLR,,,,,,,,VFR,-0.3,3.0,-0.6,,,,,,,,,METAR,1311.0
KEDW 142356Z 34011KT 10SM -SHRA BKN025 OVC035 08/08 A2995 RMK AO2A SLP145 P0001 60017 T00750075 10093 20075 58003,KEDW,2019-01-14T23:56:00Z,34.88,-117.87,7.5,7.5,340,11,,10.0,29.949802,1014.5,,,TRUE,,,,,,-SHRA,BKN,2500,OVC,3500,,,,,MVFR,-0.3,9.3,7.5,,,0.01,,0.17,,,,METAR,702.0
KGNR 142356Z AUTO 36005KT M09/M16 A2999 RMK AO1 SLP191 T10941156 11078 21100 56010,KGNR,2019-01-14T23:56:00Z,45.47,-69.55,-9.4,-15.6,360,5,,,29.991142,1019.1,,TRUE,TRUE,,,,,,,,,,,,,,,,-1.0,-7.8,-10.0,,,,,,,,,METAR,427.0
KQAZ 142356Z AUTO 00000KT 9999 CLR 12/M12 A3004 RMK AO2 SLP197 WND DATA ESTMD T01231124 10194 20123 57007,KQAZ,2019-01-14T23:56:00Z,,,12.3,-12.4,0,0,,6.21,30.041338,1019.7,,TRUE,TRUE,,,,,,,CLR,,,,,,,,VFR,-0.7,19.4,12.3,,,,,,,,,METAR,
KNLC 142356Z 17005KT 10SM -RA BKN060 OVC080 11/08 A2991 RMK AO2 SLP127 RH/86 P0003 60011 T01060083 10133 20100 58003,KNLC,2019-01-14T23:56:00Z,36.32,-119.95,10.6,8.3,170,5,,10.0,29.911417,1012.7,,,TRUE,,,,,,-RA,BKN,6000,OVC,8000,,,,,VFR,-0.3,13.3,10.0,,,0.03,,0.11,,,,METAR,72.0
KNUW 142356Z 00000KT 10SM FEW250 10/03 A3002 RMK AO2 SLP163 T01000028 10117 20044 56013 $,KNUW,2019-01-14T23:56:00Z,48.35,-122.65,10.0,2.8,0,0,,10.0,30.02067,1016.3,,,TRUE,TRUE,,,,,,FEW,25000,,,,,,,VFR,-1.3,11.7,4.4,,,,,,,,,METAR,14.0
ETOU 142356Z AUTO 28007KT 9999 FEW024 OVC055 03/M02 A3014 RMK AO2 SLP214 60000 T00311022 10033 20017 52015 $,ETOU,2019-01-14T23:56:00Z,50.03,8.32,3.1,-2.2,280,7,,6.21,30.138779,1021.4,,TRUE,TRUE,TRUE,,,,,,FEW,2400,OVC,5500,,,,,VFR,1.5,3.3,1.7,,,,,0.005,,,,METAR,141.0
KNXP 142356Z 19003KT 6SM -RA BKN043 OVC055 08/07 A3008 RMK AO2 SLP175 P0014 60020 T00830067 10106 20083 55007,KNXP,2019-01-14T23:56:00Z,34.28,-116.17,8.3,6.7,190,3,,6.0,30.079725,1017.5,,,TRUE,,,,,,-RA,BKN,4300,OVC,5500,,,,,VFR,-0.7,10.6,8.3,,,0.14,,,,,,SPECI,626.0
KNDZ 142356Z 35009KT 10SM OVC015 06/03 A3030 RMK AO2 SLP250 T00560028 10067 20056 53003 $,KNDZ,2019-01-14T23:56:00Z,30.7,-87.02,5.6,2.8,350,9,,10.0,30.301182,1025.0,,,TRUE,TRUE,,,,,,OVC,1500,,,,,,,MVFR,0.3,6.7,5.6,,,,,,,,,METAR,54.0
KBLV 142356Z AUTO 17003KT 10SM OVC018 00/M03 A3034 RMK AO2 CIG 017 RWY32L SLPNO T00011031 10002 21011 56005 $,KBLV,2019-01-14T23:56:00Z,38.53,-89.83,0.1,-3.1,170,3,,10.0,30.339567,,,TRUE,TRUE,TRUE,,,,,,OVC,1800,,,,,,,MVFR,-0.5,0.2,-1.1,,,,,,,,,METAR,138.0
KD07 142356Z AUTO 17006KT M04/M04 A3014 RMK AO1 SLP249 T10391039 10006 21044 58007,KD07,2019-01-14T23:56:00Z,45.03,-102.02,-3.9,-3.9,170,6,,,30.138779,1024.9,,TRUE,TRUE,,,,,,,,,,,,,,,,-0.7,0.6,-4.4,,,,,,,,,METAR,784.0
PHSF 142356Z AUTO 25004KT 10SM CLR 21/11 A3029 RMK AO2 SLP152 WND DATA ESTMD T02060105 10225 20121 57020 $,PHSF,2019-01-14T23:56:00Z,19.77,-155.55,20.6,10.5,250,4,,10.0,30.28937,1015.2,,TRUE,TRUE,TRUE,,,,,,CLR,,,,,,,,VFR,-2.0,22.5,12.1,,,,,,,,,METAR,1887.0
KFAF 142356Z AUTO 32007KT 10SM FEW020 01/M03 A3019 RMK AO2 SLP227 T00091027 10042 20009 52005 $,KFAF,2019-01-14T23:56:00Z,37.12,-76.62,0.9,-2.7,320,7,,10.0,30.188976,1022.7,,TRUE,TRUE,TRUE,,,,,,FEW,2000,,,,,,,VFR,0.5,4.2,0.9,,,,,,,,,METAR,4.0
KMIB 142356Z AUTO 17009KT 10SM CLR M09/M11 A3012 RMK AO2 SLP237 T10881109 11044 21088 57021,KMIB,2019-01-14T23:56:00Z,48.42,-101.33,-8.8,-10.9,170,9,,10.0,30.121063,1023.7,,TRUE,TRUE,,,,,,,CLR,,,,,,,,VFR,-2.1,-4.4,-8.8,,,,,,,,,METAR,508.0
KGTB 142356Z 20003KT 10SM CLR M10/M12 A3017 RMK AO2A SLP234 4/004 T11031119 11063 21118 55005 VISNO RWY03 $,KGTB,2019-01-14T23:56:00Z,44.07,-75.72,-10.3,-11.9,200,3,,10.0,30.171259,1023.4,,,TRUE,TRUE,,,,,,CLR,,,,,,,,VFR,-0.5,-6.3,-11.8,,,,,,,4.0,,METAR,207.0
KFTK 142356Z AUTO 26006KT 10SM OVC028 01/M03 A3031 RMK AO2 SLP274 T00071029 10034 20002 53002,KFTK,2019-01-14T23:56:00Z,37.88,-85.97,0.7,-2.9,260,6,,10.0,30.31004,1027.4,,TRUE,TRUE,,,,,,,OVC,2800,,,,,,,MVFR,0.2,3.4,0.2,,,,,,,,,METAR,230.0
KFFO 142356Z AUTO 00000KT 10SM CLR M07/M10 A3029 RMK AO2 SLP273 T10671101 11013 21067 53002,KFFO,2019-01-14T23:56:00Z,39.82,-84.03,-6.7,-10.1,0,0,,10.0,30.28937,1027.3,,TRUE,TRUE,,,,,,,CLR,,,,,,,,VFR,0.2,-1.3,-6.7,,,,,,,,,METAR,251.0
KPSM 142356Z 00000KT 10SM SCT250 M05/M12 A3009 RMK AO2A SLP193 T10521120 11006 21054 57009,KPSM,2019-01-14T23:56:00Z,43.07,-70.82,-5.2,-12.0,0,0,,10.0,30.088583,1019.3,,,TRUE,,,,,,,SCT,25000,,,,,,,VFR,-0.9,-0.6,-5.4,,,,,,,,,METAR,31.0
KMUI 142356Z AUTO 24004KT 10SM CLR M02/M12 A3017 RMK AO2 SLP227 T10191117 10027 21019 53002 $,KMUI,2019-01-14T23:56:00Z,40.42,-76.57,-1.9,-11.7,240,4,,10.0,30.171259,1022.7,,TRUE,TRUE,TRUE,,,,,,CLR,,,,,,,,VFR,0.2,2.7,-1.9,,,,,,,,,METAR,149.0
KRDM 142356Z 35009KT 10SM CLR 01/M04 A3005 RMK AO2 SLP198 T00061044 10028 21033 56017,KRDM,2019-01-14T23:56:00Z,44.25,-121.15,0.6,-4.4,350,9,,10.0,30.050198,1019.8,,,TRUE,,,,,,,CLR,,,,,,,,VFR,-1.7,2.8,-3.3,,,,,,,,,METAR,938.0
RODN 142356Z AUTO 05006KT 10SM OVC065 18/15 A3015 RMK AO2 SLP217 T01760149 10176 20110 52014 $,RODN,2019-01-14T23:56:00Z,26.35,127.77,17.6,14.9,50,6,,10.0,30.15059,1021.7,,TRUE,TRUE,TRUE,,,,,,OVC,6500,,,,,,,VFR,1.4,17.6,11.0,,,,,,,,,METAR,45.0
KWRI 142356Z AUTO 00000KT 10SM CLR M05/M10 A3014 RMK AO2 SLP208 T10511105 10005 21051 55004 $,KWRI,2019-01-14T23:56:00Z,40.02,-74.58,-5.1,-10.5,0,0,,10.0,30.138779,1020.8,,TRUE,TRUE,TRUE,,,,,,CLR,,,,,,,,VFR,-0.4,0.5,-5.1,,,,,,,,,METAR,41.0
KSHV 142356Z 31003KT 10SM OVC018 04/01 A3040 RMK AO2 SLP295 T00440006 10056 20044 55001,KSHV,2019-01-14T23:56:00Z,32.45,-93.83,4.4,0.6,310,3,,10.0,30.398623,1029.5,,,TRUE,,,,,,,OVC,1800,,,,,,,MVFR,-0.1,5.6,4.4,,,,,,,,,METAR,83.0
KSFO 142356Z 16010KT 10SM FEW038 BKN045 OVC120 13/07 A2983 RMK AO2 RAB31E56 SLP100 P0000 60000 T01330072 10139 20128 53004,KSFO,2019-01-14T23:56:00Z,37.62,-122.37,13.3,7.2,160,10,,10.0,29.828741,1010.0,,,TRUE,,,,,,,FEW,3800,BKN,4500,OVC,12000,,,VFR,0.4,13.9,12.8,,,0.005,,0.005,,,,METAR,3.0
KSDF 142356Z 10005KT 10SM FEW025 00/M05 A3032 RMK AO2 SLP273 T00001050 10028 20000 53000,KSDF,2019-01-14T23:56:00Z,38.18,-85.73,0.0,-5.0,100,5,,10.0,30.318897,1027.3,,,TRUE,,,,,,,FEW,2500,,,,,,,VFR,0.0,2.8,0.0,,,,,,,,,METAR,146.0
KSLE 142356Z 36014KT 10SM CLR 09/M02 A2992 RMK AO2 SLP131 T00891022 10106 20033 58019,KSLE,2019-01-14T23:56:00Z,44.9,-123.0,8.9,-2.2,360,14,,10.0,29.920275,1013.1,,,TRUE,,,,,,,CLR,,,,,,,,VFR,-1.9,10.6,3.3,,,,,,,,,METAR,59.0
KART 142356Z AUTO 17004KT 8SM CLR M10/M11 A3021 RMK AO2 SLP244 T11001111 11078 21100 56008,KART,2019-01-14T23:56:00Z,43.98,-76.03,-10.0,-11.1,170,4,,8.0,30.209646,1024.4,,TRUE,TRUE,,,,,,,CLR,,,,,,,,VFR,-0.8,-7.8,-10.0,,,,,,,,,METAR,100.0
KBED 142356Z 00000KT 10SM CLR M07/M12 A3010 RMK AO2 SLP211 T10671117 10006 21067 56007 $,KBED,2019-01-14T23:56:00Z,42.47,-71.3,-6.7,-11.7,0,0,,10.0,30.100393,1021.1,,,TRUE,TRUE,,,,,,CLR,,,,,,,,VFR,-0.7,0.6,-6.7,,,,,,,,,METAR,50.0
KBIH 142356Z AUTO 17012KT 10SM FEW050 BKN065 OVC080 03/00 A2997 RMK AO2 PK WND 17026/2309 RAB16E41 SLP157 P0000 60000 T00280000 10078 20028 58006,KBIH,2019-01-14T23:56:00Z,37.37,-118.35,2.8,0.0,170,12,,10.0,29.970472,1015.7,,TRUE,TRUE,,,,,,,FEW,5000,BKN,6500,OVC,8000,,,VFR,-0.6,7.8,2.8,,,0.005,,0.005,,,,METAR,1253.0
KBJJ 142356Z AUTO 27006KT 8SM OVC008 M03/M04 A3024 RMK AO2 SLP262 T10331044 11022 21033 53001 $,KBJJ,2019-01-14T23:56:00Z,40.87,-81.88,-3.3,-4.4,270,6,,8.0,30.239174,1026.2,,TRUE,TRUE,TRUE,,,,,,OVC,800,,,,,,,IFR,0.1,-2.2,-3.3,,,,,,,,,METAR,343.0
KSXT 142356Z AUTO 12007G17KT 10SM CLR 06/M06 A2984 RMK AO2 SLP110 T00611061 10083 20050 56006,KSXT,2019-01-14T23:56:00Z,42.6,-123.37,6.1,-6.1,120,7,17,10.0,29.840551,1011.0,,TRUE,TRUE,,,,,,,CLR,,,,,,,,VFR,-0.6,8.3,5.0,,,,,,,,,SPECI,1170.0
KTPH 142356Z AUTO 13020KT 10SM FEW040 BKN050 OVC085 05/M05 A3000 RMK AO2 PK WND 14026/2313 SLP175 T00501050 10056 20028 58013,KTPH,2019-01-14T23:56:00Z,38.05,-117.08,5.0,-5.0,130,20,,10.0,30.0,1017.5,,TRUE,TRUE,,,,,,,FEW,4000,BKN,5000,OVC,8500,,,VFR,-1.3,5.6,2.8,,,,,,,,,METAR,1652.0
KLWS 142356Z 28003KT 10SM FEW014 M01/M05 A3021 RMK AO2 SLP247 T10111050 11006 21011 58015,KLWS,2019-01-14T23:56:00Z,46.37,-117.02,-1.1,-5.0,280,3,,10.0,30.209646,1024.7,,,TRUE,,,,,,,FEW,1400,,,,,,,VFR,-1.5,-0.6,-1.1,,,,,,,,,METAR,438.0
KLAS 142356Z 00000KT 10SM BKN060 BKN070 OVC110 12/M01 A3004 RMK AO2 RAB37E47 SLP170 P0000 60000 T01171006 10122 20100 58013,KLAS,2019-01-14T23:56:00Z,36.07,-115.17,11.7,-0.6,0,0,,10.0,30.041338,1017.0,,,TRUE,,,,,,,BKN,6000,BKN,7000,OVC,11000,,,VFR,-1.3,12.2,10.0,,,0.005,,0.005,,,,METAR,636.0
KJXN 142356Z 24008KT 10SM OVC020 M02/M07 A3023 RMK AO2 SLP255 T10221067 10011 21022 53003,KJXN,2019-01-14T23:56:00Z,42.27,-84.47,-2.2,-6.7,240,8,,10.0,30.230314,1025.5,,,TRUE,,,,,,,OVC,2000,,,,,,,MVFR,0.3,1.1,-2.2,,,,,,,,,METAR,305.0
KJMS 142356Z AUTO 01003KT 10SM CLR M08/M10 A3021 RMK AO2 SLP257 T10831100 11028 21083 55006,KJMS,2019-01-14T23:56:00Z,46.93,-98.67,-8.3,-10.0,10,3,,10.0,30.209646,1025.7,,TRUE,TRUE,,,,,,,CLR,,,,,,,,VFR,-0.6,-2.8,-8.3,,,,,,,,,METAR,455.0
KJAX 142356Z 35006KT 10SM OVC016 09/06 A3022 RMK AO2 SLP233 T00940061 10150 20094 53014,KJAX,2019-01-14T23:56:00Z,30.5,-81.68,9.4,6.1,350,6,,10.0,30.221457,1023.3,,,TRUE,,,,,,,OVC,1600,,,,,,,MVFR,1.4,15.0,9.4,,,,,,,,,METAR,10.0
KISP 142356Z 31003KT 10SM FEW250 M04/M09 A3013 RMK AO2 SLP205 T10391089 10006 21039 57004,KISP,2019-01-14T23:56:00Z,40.8,-73.1,-3.9,-8.9,310,3,,10.0,30.129921,1020.5,,,TRUE,,,,,,,FEW,25000,,,,,,,VFR,-0.4,0.6,-3.9,,,,,,,,,METAR,43.0
KINW 142356Z AUTO 23004KT 10SM OVC014 04/01 A3020 RMK AO2 SLP234 T00440006 10050 20017 56002,KINW,2019-01-14T23:56:00Z,35.03,-110.72,4.4,0.6,230,4,,10.0,30.200787,1023.4,,TRUE,TRUE,,,,,,,OVC,1400,,,,,,,MVFR,-0.2,5.0,1.7,,,,,,,,,METAR,1490.0
KHYA 142356Z 01009KT 10SM OVC023 M01/M07 A3007 RMK AO2 SLP184 T10061067 10011 21006 58002,KHYA,2019-01-14T23:56:00Z,41.67,-70.27,-0.6,-6.7,10,9,,10.0,30.070866,1018.4,,,TRUE,,,,,,,OVC,2300,,,,,,,MVFR,-0.2,1.1,-0.6,,,,,,,,,METAR,22.0
KHWV 142356Z AUTO 00000KT 10SM CLR M05/M09 A3014 RMK AO2 SLP207 T10501094 10006 21050 58003,KHWV,2019-01-14T23:56:00Z,40.82,-72.87,-5.0,-9.4,0,0,,10.0,30.138779,1020.7,,TRUE,TRUE,,,,,,,CLR,,,,,,,,VFR,-0.3,0.6,-5.0,,,,,,,,,METAR,21.0
PANV 142356Z AUTO 04015KT 10SM BKN050 BKN120 M09/M11 A2965 RMK AO2 SLP061 60000 T10891111 11089 21100 58003 FZRANO,PANV,2019-01-14T23:56:00Z,62.65,-160.18,-8.9,-11.1,40,15,,10.0,29.648623,1006.1,,TRUE,TRUE,,,,TRUE,,,BKN,5000,BKN,12000,,,,,VFR,-0.3,-8.9,-10.0,,,,,0.005,,,,METAR,99.0
KUKI 142356Z AUTO 15007G16KT 080V210 10SM FEW041 OVC050 12/03 A2984 RMK AO2 RAE10 SLP102 P0000 60000 T01170033 10144 20089 53005,KUKI,2019-01-14T23:56:00Z,39.12,-123.2,11.7,3.3,150,7,16,10.0,29.840551,1010.2,,TRUE,TRUE,,,,,,,FEW,4100,OVC,5000,,,,,VFR,0.5,14.4,8.9,,,0.005,,0.005,,,,METAR,187.0
TJSJ 142356Z 09006KT 10SM FEW034 SCT085 24/20 A3006 RMK AO2 SLP176 T02440200 10283 20244 53011,TJSJ,2019-01-14T23:56:00Z,18.43,-66.02,24.4,20.0,90,6,,10.0,30.059055,1017.6,,,TRUE,,,,,,,FEW,3400,SCT,8500,,,,,VFR,1.1,28.3,24.4,,,,,,,,,METAR,21.0
KELZ 142356Z AUTO 29003KT 10SM CLR M03/M15 A3012 RMK AO2 SLP240 T10331150 10000 21044 53001,KELZ,2019-01-14T23:56:00Z,42.1,-77.98,-3.3,-15.0,290,3,,10.0,30.121063,1024.0,,TRUE,TRUE,,,,,,,CLR,,,,,,,,VFR,0.1,0.0,-4.4,,,,,,,,,METAR,646.0
KEKO 142356Z AUTO 04009KT 10SM CLR M01/M08 A3009 RMK AO2 SLP240 T10111083 11006 21094 58018,KEKO,2019-01-14T23:56:00Z,40.82,-115.78,-1.1,-8.3,40,9,,10.0,30.088583,1024.0,,TRUE,TRUE,,,,,,,CLR,,,,,,,,VFR,-1.8,-0.6,-9.4,,,,,,,,,METAR,1547.0
KEED 142356Z AUTO 28004KT 10SM -RA BKN055 BKN070 OVC090 14/02 A3004 RMK AO2 RAB51 SLP161 P0000 60000 T01440022 10150 20122 56015,KEED,2019-01-14T23:56:00Z,34.77,-114.62,14.4,2.2,280,4,,10.0,30.041338,1016.1,,TRUE,TRUE,,,,,,-RA,BKN,5500,BKN,7000,OVC,9000,,,VFR,-1.5,15.0,12.2,,,0.005,,0.005,,,,METAR,302.0
ETIK 142356Z AUTO 26012KT 9999 OVC055 01/00 A3008 RMK AO2 UPE23 SLP203 P0000 60000 T00110001 10028 20011 52013 $,ETIK,2019-01-14T23:56:00Z,49.47,10.37,1.1,0.1,260,12,,6.21,30.079725,1020.3,,TRUE,TRUE,TRUE,,,,,,OVC,5500,,,,,,,VFR,1.3,2.8,1.1,,,0.005,,0.005,,,,METAR,325.0
KFSD 142356Z 05006KT 4SM BR OVC005 M01/M02 A3021 RMK AO2 SLP250 T10111022 10000 21011 53010,KFSD,2019-01-14T23:56:00Z,43.58,-96.75,-1.1,-2.2,50,6,,4.0,30.209646,1025.0,,,TRUE,,,,,,BR,OVC,500,,,,,,,IFR,1.0,0.0,-1.1,,,,,,,,,METAR,436.0
KGON 142356Z 33004KT 10SM CLR M02/M09 A3012 RMK AO2 SLP199 T10221094 10017 21028 56002,KGON,2019-01-14T23:56:00Z,41.33,-72.05,-2.2,-9.4,330,4,,10.0,30.121063,1019.9,,,TRUE,,,,,,,CLR,,,,,,,,VFR,-0.2,1.7,-2.8,,,,,,,,,METAR,3.0
KGRD 142356Z AUTO 00000KT 10SM OVC034 06/04 A3021 RMK AO2 SLP233 T00610044 10078 20061 53002,KGRD,2019-01-14T23:56:00Z,34.25,-82.15,6.1,4.4,0,0,,10.0,30.209646,1023.3,,TRUE,TRUE,,,,,,,OVC,3400,,,,,,,VFR,0.2,7.8,6.1,,,,,,,,,METAR,185.0
K1KM 142356Z AUTO 23006KT 10SM CLR 04/M16 A3003 RMK AO2 SLP206 T00421156 10109 20041 57009 $,K1KM,2019-01-14T23:56:00Z,46.45,-109.8,4.2,-15.6,230,6,,10.0,30.029528,1020.6,,TRUE,TRUE,TRUE,,,,,,CLR,,,,,,,,VFR,-0.9,10.9,4.1,,,,,,,,,METAR,1330.0
K1CM 142356Z AUTO 00000KT 10SM CLR 07/M17 A3002 RMK AO2 SLP194 T00731166 10103 20040 56006 $,K1CM,2019-01-14T23:56:00Z,47.1,-110.17,7.3,-16.6,0,0,,10.0,30.02067,1019.4,,TRUE,TRUE,TRUE,,,,,,CLR,,,,,,,,VFR,-0.6,10.3,4.0,,,,,,,,,METAR,1337.0
KMDT 142356Z 00000KT 10SM CLR M03/M08 A3018 RMK AO2 SLP225 T10281083 10017 21033 50001,KMDT,2019-01-14T23:56:00Z,40.2,-76.77,-2.8,-8.3,0,0,,10.0,30.180119,1022.5,,,TRUE,,,,,,,CLR,,,,,,,,VFR,0.1,1.7,-3.3,,,,,,,,,METAR,95.0
KMOB 142356Z 34011KT 7SM OVC021 07/02 A3033 RMK AO2 SLP269 T00670017 10067 20061 53003 $,KMOB,2019-01-14T23:56:00Z,30.68,-88.25,6.7,1.7,340,11,,7.0,30.33071,1026.9,,,TRUE,TRUE,,,,,,OVC,2100,,,,,,,MVFR,0.3,6.7,6.1,,,,,,,,,METAR,63.0
KNUQ 142356Z 19009KT 10SM FEW030 BKN038 OVC080 14/07 A2985 RMK AO2 SLP109 60001 T01390067 10144 20111 53004,KNUQ,2019-01-14T23:56:00Z,37.4,-122.05,13.9,6.7,190,9,,10.0,29.84941,1010.9,,,TRUE,,,,,,,FEW,3000,BKN,3800,OVC,8000,,,VFR,0.4,14.4,11.1,,,,,,,,,SPECI,12.0
KOFK 142356Z AUTO VRB05KT 10SM CLR 01/M03 A3015 RMK AO2 SLP227 T00111028 10067 20006 50003,KOFK,2019-01-14T23:56:00Z,41.98,-97.43,1.1,-2.8,0,5,,10.0,30.15059,1022.7,,TRUE,TRUE,,,,,,,CLR,,,,,,,,VFR,0.3,6.7,0.6,,,,,,,,,METAR,470.0
KCAE 142356Z 11007KT 10SM SCT021 OVC039 07/04 A3022 RMK AO2 SLP232 T00670039 10083 20061 51006,KCAE,2019-01-14T23:56:00Z,33.93,-81.12,6.7,3.9,110,7,,10.0,30.221457,1023.2,,,TRUE,,,,,,,SCT,2100,OVC,3900,,,,,VFR,0.6,8.3,6.1,,,,,,,,,METAR,70.0
KCEC 142356Z AUTO 00000KT 5SM HZ FEW120 13/07 A2981 RMK AO2 SLP096 T01280067 10172 20111 56009,KCEC,2019-01-14T23:56:00Z,41.77,-124.22,12.8,6.7,0,0,,5.0,29.811024,1009.6,,TRUE,TRUE,,,,,,HZ,FEW,12000,,,,,,,MVFR,-0.9,17.2,11.1,,,,,,,,,METAR,17.0
KCHS 142356Z 33006KT 10SM OVC015 06/02 A3024 RMK AO2 SLP238 T00560022 10067 20056 53010,KCHS,2019-01-14T23:56:00Z,32.9,-80.03,5.6,2.2,330,6,,10.0,30.239174,1023.8,,,TRUE,,,,,,,OVC,1500,,,,,,,MVFR,1.0,6.7,5.6,,,,,,,,,METAR,13.0
OTBH 142356Z 05005KT 9000 BR FEW250 18/15 A3004 RMK AO2A SLP174 T01820153 10198 20182 55003 $,OTBH,2019-01-14T23:56:00Z,25.12,51.32,18.2,15.3,50,5,,5.59,30.041338,1017.4,,,TRUE,TRUE,,,,,BR,FEW,25000,,,,,,,VFR,-0.3,19.8,18.2,,,,,,,,,SPECI,40.0
OAKN 142356Z 04006KT 9999 SCT220 06/M16 A3010 RMK AO2A SLP171 WND DATA ESTMD Q1020 PA3139 DA2872 T00631158 10087 20063 57006,OAKN,2019-01-14T23:56:00Z,31.5,65.83,6.3,-15.8,40,6,,6.21,30.100393,1017.1,,,TRUE,,,,,,,SCT,22000,,,,,,,VFR,-0.6,8.7,6.3,,,,,,,,,METAR,1010.0
KSKA 142356Z 03004KT 10SM CLR M01/M02 A3016 RMK AO2A SLP245 T10151016 11012 21045 57014,KSKA,2019-01-14T23:56:00Z,47.62,-117.65,-1.5,-1.6,30,4,,10.0,30.159449,1024.5,,,TRUE,,,,,,,CLR,,,,,,,,VFR,-1.4,-1.2,-4.5,,,,,,,,,METAR,750.0
KNGP 142356Z 04009KT 10SM SCT040 BKN049 OVC060 12/06 A3036 RMK AO2 SLP281 T01170056 10122 20106 55001,KNGP,2019-01-14T23:56:00Z,27.68,-97.27,11.7,5.6,40,9,,10.0,30.360237,1028.1,,,TRUE,,,,,,,SCT,4000,BKN,4900,OVC,6000,,,VFR,-0.1,12.2,10.6,,,,,,,,,METAR,6.0
K2WX 142356Z AUTO 16009KT 01/M04 A3007 RMK AO1 SLP219 T00111039 10056 20006 56008,K2WX,2019-01-14T23:56:00Z,45.6,-103.55,1.1,-3.9,160,9,,,30.070866,1021.9,,TRUE,TRUE,,,,,,,,,,,,,,,,-0.8,5.6,0.6,,,,,,,,,METAR,915.0
KQRH 142356Z AUTO VRB05KT 9999 CLR 25/19 A2999 RMK AO2 SLPNO WND DATA ESTMD T02490188 10258 20249 57012,KQRH,2019-01-14T23:56:00Z,,,24.9,18.8,0,5,,6.21,29.991142,,,TRUE,TRUE,,,,,,,CLR,,,,,,,,VFR,-1.2,25.8,24.9,,,,,,,,,METAR,
KQND 142356Z AUTO 00000KT 5000 HZ CLR 17/03 A3001 RMK AO2 SLP156 WND DATA ESTMD T01720029 10238 20172 57007,KQND,2019-01-14T23:56:00Z,,,17.2,2.9,0,0,,3.11,30.008858,1015.6,,TRUE,TRUE,,,,,,HZ,CLR,,,,,,,,MVFR,-0.7,23.8,17.2,,,,,,,,,METAR,
KQN3 142356Z AUTO 00000KT 9999 CLR 22/M07 A2995 RMK AO2 SLP137 WND DATA ESTMD T02191074 10293 20219,KQN3,2019-01-14T23:56:00Z,,,21.9,-7.4,0,0,,6.21,29.949802,1013.7,,TRUE,TRUE,,,,,,,CLR,,,,,,,,VFR,,29.3,21.9,,,,,,,,,METAR,
KQHY 142356Z AUTO 36003KT 10SM OVC016 06/03 A3031 RMK AO2 SLP271 T00640032 10072 20063 53004 $,KQHY,2019-01-14T23:56:00Z,,,6.4,3.2,360,3,,10.0,30.31004,1027.1,,TRUE,TRUE,TRUE,,,,,,OVC,1600,,,,,,,MVFR,0.4,7.2,6.3,,,,,,,,,METAR,
KQDG 142356Z AUTO 20009KT M M BKN180 M01/M05 A3016 RMK AO2 SLP215 T10141047 11014 21062 57014 PWINO FZRANO $,KQDG,2019-01-14T23:56:00Z,,,-1.4,-4.7,200,9,,,30.159449,1021.5,,TRUE,TRUE,TRUE,,,TRUE,TRUE,,BKN,18000,,,,,,,,-1.4,-1.4,-6.2,,,,,,,,,METAR,
KQD3 142356Z AUTO VRB03KT 9999 FEW036 24/19 A2996 RMK AO2 SLPNO WND DATA ESTMD T02390192 10254 20239 57010,KQD3,2019-01-14T23:56:00Z,,,23.9,19.2,0,3,,6.21,29.958662,,,TRUE,TRUE,,,,,,,FEW,3600,,,,,,,VFR,-1.0,25.4,23.9,,,,,,,,,METAR,
KQBF 142356Z AUTO 02003KT 9999 CLR 25/M04 A2995 RMK AO2 SLP098 WND DATA ESTMD T02511044 10319 20251 57008,KQBF,2019-01-14T23:56:00Z,,,25.1,-4.4,20,3,,6.21,29.949802,1009.8,,TRUE,TRUE,,,,,,,CLR,,,,,,,,VFR,-0.8,31.9,25.1,,,,,,,,,METAR,
KDUG 142356Z AUTO 13008KT 10SM CLR 14/01 A3014 RMK AO2 SLP185 T01390006 10161 20122 55001,KDUG,2019-01-14T23:56:00Z,31.47,-109.58,13.9,0.6,130,8,,10.0,30.138779,1018.5,,TRUE,TRUE,,,,,,,CLR,,,,,,,,VFR,-0.1,16.1,12.2,,,,,,,,,METAR,1265.0
KDAY 142356Z 25004KT 7SM FEW250 M07/M09 A3029 RMK AO2 SLP273 4/006 T10671089 11006 21072 53001,KDAY,2019-01-14T23:56:00Z,39.9,-84.22,-6.7,-8.9,250,4,,7.0,30.28937,1027.3,,,TRUE,,,,,,,FEW,25000,,,,,,,VFR,0.1,-0.6,-7.2,,,,,,,6.0,,METAR,305.0
KCXY 142356Z 26003KT 8SM CLR M03/M09 A3019 RMK AO2 SLP230 T10331094 10028 21033 50001,KCXY,2019-01-14T23:56:00Z,40.22,-76.85,-3.3,-9.4,260,3,,8.0,30.188976,1023.0,,,TRUE,,,,,,,CLR,,,,,,,,VFR,0.1,2.8,-3.3,,,,,,,,,METAR,106.0
KNSE 142356Z 34010KT 10SM OVC015 06/03 A3030 RMK AO2 SLP249 T00560028 10061 20056 53002 $,KNSE,2019-01-14T23:56:00Z,30.73,-87.02,5.6,2.8,340,10,,10.0,30.301182,1024.9,,,TRUE,TRUE,,,,,,OVC,1500,,,,,,,MVFR,0.2,6.1,5.6,,,,,,,,,SPECI,61.0
PAWG 142356Z 28004KT 10SM FEW003 BKN050 OVC070 03/03 A3006,PAWG,2019-01-14T23:56:00Z,56.48,-132.37,3.0,3.0,280,4,,10.0,30.059055,,,,,,,,,,,FEW,300,BKN,5000,OVC,7000,,,VFR,,,,,,,,,,,,METAR,11.0
PAEI 142356Z 00000KT 10SM FEW120 BKN200 M18/M21 A3002 RMK AO2A SLP185 4/008 T11791207 11170 21210 53001 $,PAEI,2019-01-14T23:56:00Z,64.67,-147.1,-17.9,-20.7,0,0,,10.0,30.02067,1018.5,,,TRUE,TRUE,,,,,,FEW,12000,BKN,20000,,,,,VFR,0.1,-17.0,-21.0,,,,,,,8.0,,METAR,167.0
KDRA 142356Z AUTO 10017G23KT 10SM FEW060 BKN095 OVC110 10/M02 A2999 RMK AO2 SLP144 T01001017 10111 20072 58017,KDRA,2019-01-14T23:56:00Z,36.62,-116.03,10.0,-1.7,100,17,23,10.0,29.991142,1014.4,,TRUE,TRUE,,,,,,,FEW,6000,BKN,9500,OVC,11000,,,VFR,-1.7,11.1,7.2,,,,,,,,,SPECI,1006.0
KCEF 142356Z 00000KT 10SM FEW240 M06/M11 A3011 RMK AO2A SLP207 T10591109 11005 21060 55007,KCEF,2019-01-14T23:56:00Z,42.2,-72.52,-5.9,-10.9,0,0,,10.0,30.109253,1020.7,,,TRUE,,,,,,,FEW,24000,,,,,,,VFR,-0.7,-0.5,-6.0,,,,,,,,,METAR,75.0
PAED 142356Z 00000KT 10SM SCT100 M04/M05 A2994 RMK AO2A SLP136 4/010 T10391047 11017 21079 56004,PAED,2019-01-14T23:56:00Z,61.25,-149.8,-3.9,-4.7,0,0,,10.0,29.940945,1013.6,,,TRUE,,,,,,,SCT,10000,,,,,,,VFR,-0.4,-1.7,-7.9,,,,,,,10.0,,METAR,59.0
KLUF 142356Z AUTO 10006KT 10SM CLR 20/08 A3002 RMK AO2 SLP162 T01970081 10201 20157 57007 $,KLUF,2019-01-14T23:56:00Z,33.52,-112.37,19.7,8.1,100,6,,10.0,30.02067,1016.2,,TRUE,TRUE,TRUE,,,,,,CLR,,,,,,,,VFR,-0.7,20.1,15.7,,,,,,,,,METAR,332.0
KRYM 142356Z AUTO 00000KT 10SM CLR M05/M08 A3022 RMK AO2 SLP255 T10481079 11019 21062 53002 $,KRYM,2019-01-14T23:56:00Z,46.08,-94.37,-4.8,-7.9,0,0,,10.0,30.221457,1025.5,,TRUE,TRUE,TRUE,,,,,,CLR,,,,,,,,VFR,0.2,-1.9,-6.2,,,,,,,,,METAR,351.0
KP60 142356Z AUTO 00000KT M11/M13 A3020 RMK AO1 SLP340 T11111133 11072 21139 58006,KP60,2019-01-14T23:56:00Z,44.55,-110.42,-11.1,-13.3,0,0,,,30.200787,1034.0,,TRUE,TRUE,,,,,,,,,,,,,,,,-0.6,-7.2,-13.9,,,,,,,,,METAR,2388.0
KHIF 142356Z 31006KT 10SM FEW080 BKN200 M06/M10 A3024 RMK AO2A SLP286 4/004 T10571100 11036 21068 57014,KHIF,2019-01-14T23:56:00Z,41.12,-111.97,-5.7,-10.0,310,6,,10.0,30.239174,1028.6,,,TRUE,,,,,,,FEW,8000,BKN,20000,,,,,VFR,-1.4,-3.6,-6.8,,,,,,,4.0,,METAR,1459.0
KNRS 142356Z 11003KT 6SM -RA BR SCT006 BKN012 OVC029 13/12 A2997 RMK AO2 SLP149 P0005 6//// T01330117 10139 20122 53000 $,KNRS,2019-01-14T23:56:00Z,32.57,-117.12,13.3,11.7,110,3,,6.0,29.970472,1014.9,,,TRUE,TRUE,,,,,-RA BR,SCT,600,BKN,1200,OVC,2900,,,MVFR,0.0,13.9,12.2,,,0.05,,,,,,METAR,7.0
ETAR 142356Z 25008KT 9999 BKN050 02/00 A3016 RMK AO2A SLP226 T0021 10034 20014 52012 $,ETAR,2019-01-14T23:56:00Z,49.42,7.58,2.1,0.0,250,8,,6.21,30.159449,1022.6,,,TRUE,TRUE,,,,,,BKN,5000,,,,,,,VFR,1.2,3.4,1.4,,,,,,,,,METAR,238.0
KCVS 142356Z AUTO 22007KT 10SM CLR 07/00 A3022 RMK AO2 SLP234 T00741001 10109 20071 57004 $,KCVS,2019-01-14T23:56:00Z,34.37,-103.32,7.4,-0.1,220,7,,10.0,30.221457,1023.4,,TRUE,TRUE,TRUE,,,,,,CLR,,,,,,,,VFR,-0.4,10.9,7.1,,,,,,,,,METAR,1309.0
KNOG 142356Z AUTO 05005KT 10SM FEW034 OVC046 10/04 A3038 RMK AO2 SLP268 T01000039 10100 20089 55000 PWINO $,KNOG,2019-01-14T23:56:00Z,27.9,-98.05,10.0,3.9,50,5,,10.0,30.380905,1026.8,,TRUE,TRUE,TRUE,,,,TRUE,,FEW,3400,OVC,4600,,,,,VFR,0.0,10.0,8.9,,,,,,,,,SPECI,78.0
OKAS 142356Z 34006KT 8000 BR FEW050 SCT100 BKN250 12/08 A3007 RMK AO2A LTG DSNT SE RAE02SHRAB02E14SHRAB22E49 TSE15 SLP182 WND DATA ESTMD P0001 60012 T01240082 10145 20109 PA +335,OKAS,2019-01-14T23:56:00Z,,,12.4,8.2,340,6,,4.97,30.070866,1018.2,,,TRUE,,,,,,BR,FEW,5000,SCT,10000,BKN,25000,,,MVFR,,14.5,10.9,,,0.01,,0.12,,,,METAR,
KCOF 142356Z 36009KT 10SM CLR 14/11 A3015 RMK AO2A SLP210 ALSTG ESTMD SLP ESTMD T01440106 10188 20144 $,KCOF,2019-01-14T23:56:00Z,28.23,-80.6,14.4,10.6,360,9,,10.0,30.15059,1021.0,,,TRUE,TRUE,,,,,,CLR,,,,,,,,VFR,,18.8,14.4,,,,,,,,,METAR,3.0
MUGM 142356Z 32003KT 9999 FEW030 SCT070 26/21 A3004 RMK SLP172 T02560213 10282 20256 53010,MUGM,2019-01-14T23:56:00Z,19.9,-75.2,25.6,21.3,320,3,,6.21,30.041338,1017.2,,,,,,,,,,FEW,3000,SCT,7000,,,,,VFR,1.0,28.2,25.6,,,,,,,,,METAR,17.0
KWRB 142356Z 32011KT 10SM OVC033 09/04 A3021 RMK AO2A SLP234 T00910037 10106 20091 53003,KWRB,2019-01-14T23:56:00Z,32.62,-83.58,9.1,3.7,320,11,,10.0,30.209646,1023.4,,,TRUE,,,,,,,OVC,3300,,,,,,,VFR,0.3,10.6,9.1,,,,,,,,,SPECI,90.0
KVOK 142356Z 24006KT 5SM BR BKN007 OVC012 M03/M03 A3021 RMK AO2A SLP248 53002,KVOK,2019-01-14T23:56:00Z,43.92,-90.27,-3.0,-3.0,240,6,,5.0,30.209646,1024.8,,,TRUE,,,,,,BR,BKN,700,OVC,1200,,,,,IFR,0.2,,,,,,,,,,,METAR,277.0
LIPC 142355Z 29007KT CAVOK 04/M03 Q1013 RMK SKC VIS MIN 9999 WIND THR11/////KT WIND THR29 28006KT BLU,LIPC,2019-01-14T23:55:00Z,44.22,12.3,4.0,-3.0,290,7,,6.21,29.911417,,,,,,,,,,,CAVOK,,,,,,,,VFR,,,,,,,,,,,,METAR,10.0
LIRM 142355Z /////KT 9999 FEW070 03/01 Q1008,LIRM,2019-01-14T23:55:00Z,41.03,14.07,3.0,1.0,,,,6.21,29.763779,,,,,,,,,,,FEW,7000,,,,,,,VFR,,,,,,,,,,,,METAR,10.0
LICT 142355Z 33014KT 9999 SCT020 14/11 Q1009 RMK SCT VIS MIN 9999 WIND THR13 31018KT BLU,LICT,2019-01-14T23:55:00Z,37.92,12.5,14.0,11.0,330,14,,6.21,29.793306,,,,,,,,,,,SCT,2000,,,,,,,VFR,,,,,,,,,,,,SPECI,7.0
OAJL 142355Z 26002KT 9000 HZ BKN130 06/M05 A3015 RMK AO2A SLP211 T00551045 10090 20044 401390023 57012,OAJL,2019-01-14T23:55:00Z,34.42,70.47,5.5,-4.5,260,2,,5.59,30.15059,1021.1,,,TRUE,,,,,,HZ,BKN,13000,,,,,,,VFR,-1.2,9.0,4.4,13.9,2.3,,,,,,,METAR,580.0
LIRS 142355Z 36004KT CAVOK 04/02 Q1010,LIRS,2019-01-14T23:55:00Z,42.75,11.07,4.0,2.0,360,4,,6.21,29.822834,,,,,,,,,,,CAVOK,,,,,,,,VFR,,,,,,,,,,,,METAR,7.0
KFBR 142355Z AUTO 00000KT 10SM CLR M20/M22 A3027 RMK AO2 T11991224 11183 21220,KFBR,2019-01-14T23:55:00Z,41.4,-110.4,-19.9,-22.4,0,0,,10.0,30.268702,,,TRUE,TRUE,,,,,,,CLR,,,,,,,,VFR,,-18.3,-22.0,,,,,,,,,METAR,2144.0
KGYI 142355Z 00000KT 10SM CLR 03/00 A3038,KGYI,2019-01-14T23:55:00Z,33.72,-96.67,3.0,0.0,0,0,,10.0,30.380905,,,,,,,,,,,CLR,,,,,,,,VFR,,,,,,,,,,,,METAR,228.0
KWHP 142355Z 32005KT 3SM -RA SCT004 OVC014 08/08 A2999,KWHP,2019-01-14T23:55:00Z,34.25,-118.42,8.0,8.0,320,5,,3.0,29.991142,,,,,,,,,,-RA,SCT,400,OVC,1400,,,,,MVFR,,,,,,,,,,,,METAR,306.0
KMTC 142355Z 21005KT 12SM FEW230 M04/M06 A3021 RMK AO2A SLP245 WND DATA ESTMD T10441057 10002 21044 55002 $,KMTC,2019-01-14T23:55:00Z,42.62,-82.82,-4.4,-5.7,210,5,,12.0,30.209646,1024.5,,,TRUE,TRUE,,,,,,FEW,23000,,,,,,,VFR,-0.2,0.2,-4.4,,,,,,,,,METAR,177.0
KADM 142355Z 00000KT 10SM CLR 06/01 A3036,KADM,2019-01-14T23:55:00Z,34.28,-97.02,6.0,1.0,0,0,,10.0,30.360237,,,,,,,,,,,CLR,,,,,,,,VFR,,,,,,,,,,,,METAR,232.0
PTYA 142355Z 03012G18KT 12SM FEW016 SCT130 BKN300 29/23 A2984 RMK SLP105 8/171 T02910231 10291 20262 52019,PTYA,2019-01-14T23:55:00Z,9.48,138.08,29.1,23.1,30,12,18,12.0,29.840551,1010.5,,,,,,,,,,FEW,1600,SCT,13000,BKN,30000,,,VFR,1.9,29.1,26.2,,,,,,,,,METAR,17.0
LICZ 142355Z 28012KT 9999 -RA FEW020 SCT080 10/10 Q1006 RMK SCT VIS MIN 9999 WIND THR28 /////KT WIND THR10 29012KT A2972 BLU,LICZ,2019-01-14T23:55:00Z,37.38,14.92,10.0,10.0,280,12,,6.21,29.704725,,,,,,,,,,-RA,FEW,2000,SCT,8000,,,,,VFR,,,,,,,,,,,,METAR,22.0
HLLM 142355Z 24010KT 7000 SKC 12/M00 Q1015 ,HLLM,2019-01-14T23:55:00Z,32.9,13.28,12.0,0.0,240,10,,4.35,29.970472,,,,,,,,,,,SKC,,,,,,,,MVFR,,,,,,,,,,,,METAR,11.0
KDPG 142355Z 30003KT 10SM SCT009 OVC020 M02/M05 A3026 RMK SLP262 LAST T10231051 11018 21039 58010,KDPG,2019-01-14T23:55:00Z,40.2,-112.92,-2.3,-5.1,300,3,,10.0,30.259842,1026.2,,,,,,,,,,SCT,900,OVC,2000,,,,,MVFR,-1.0,-1.8,-3.9,,,,,,,,,METAR,1326.0
PASV 142355Z AUTO 12023G37KT 10SM SCT120 BKN150 05/M06 A2967 RMK AO2 PK WND 14039/2325 SLP060 T00511056 10054 20041 54001,PASV,2019-01-14T23:55:00Z,61.1,-155.57,5.1,-5.6,120,23,37,10.0,29.66929,1006.0,,TRUE,TRUE,,,,,,,SCT,12000,BKN,15000,,,,,VFR,,5.4,4.1,,,,,,,,,METAR,484.0
RJOI 142355Z 00000KT 9999 FEW010 SCT080 BKN120 08/03 A3014 RMK SLP204 T00780033 10078 20050 58007,RJOI,2019-01-14T23:55:00Z,34.13,132.22,7.8,3.3,0,0,,6.21,30.138779,1020.4,,,,,,,,,,FEW,1000,SCT,8000,BKN,12000,,,VFR,-0.7,7.8,5.0,,,,,,,,,METAR,2.0
LIPS 142355Z 32014KT CAVOK 08/M07 Q1012 RMK SKC VIS MIN 9999 WIND THR26 32014KT WIND THR08 32017KT BLU,LIPS,2019-01-14T23:55:00Z,45.67,12.08,8.0,-7.0,320,14,,6.21,29.88189,,,,,,,,,,,CAVOK,,,,,,,,VFR,,,,,,,,,,,,METAR,41.0
LIPL 142355Z 35008KT CAVOK 04/M04 Q1012 RMK SKC VIS MIN 9999 WIND THR31 35007KT WIND THR13 35005KT BLU,LIPL,2019-01-14T23:55:00Z,45.42,10.27,4.0,-4.0,350,8,,6.21,29.88189,,,,,,,,,,,CAVOK,,,,,,,,VFR,,,,,,,,,,,,METAR,92.0
LIEB 142355Z 30013KT CAVOK 12/M01 Q1010 RMK QUK / QUL / VIS MAR 30 KM MON INVIS VIS MIN 9999,LIEB,2019-01-14T23:55:00Z,39.93,9.72,12.0,-1.0,300,13,,6.21,29.822834,,,,,,,,,,,CAVOK,,,,,,,,VFR,,,,,,,,,,,,METAR,156.0
TNCE 142355Z AUTO 06011KT 030V100 //// // ///////// 24/20 Q1017 RE//,TNCE,2019-01-14T23:55:00Z,17.47,-62.97,24.0,20.0,60,11,,,30.029528,,,TRUE,,,,,,,,,,,,,,,,,,,,,,,,,,,,METAR,39.0
TNCB 142355Z AUTO 08010KT 050V110 9999 FEW020/// 25/21 Q1014,TNCB,2019-01-14T23:55:00Z,12.13,-68.28,25.0,21.0,80,10,,6.21,29.940945,,,TRUE,,,,,,,,FEW,2000,,,,,,,VFR,,,,,,,,,,,,METAR,6.0
LIBN 142355Z 33008KT 9999 -RA SCT025 05/03 Q1003 RMK OVC BKN090 VIS MIN 9999 WIND TRH14 33008KT WIND TRH32 33008KT,LIBN,2019-01-14T23:55:00Z,40.22,18.13,5.0,3.0,330,8,,6.21,29.616142,,,,,,,,,,-RA,SCT,2500,,,,,,,VFR,,,,,,,,,,,,SPECI,61.0
LIBQ 142355Z 03011KT 0000 -SN FZFG VV/// M03/M03 Q1001 RMK MON INVIS VAL INVIS VIS MIN 0000,LIBQ,2019-01-14T23:55:00Z,39.32,16.38,-3.0,-3.0,30,11,,0.0,29.557087,,,,,,,,,,-SN FZFG,OVX,0,,,,,,,LIFR,,,,,,,,,,,,SPECI,1720.0
LIED 142355Z 10004KT CAVOK 11/10 Q1012 RMK SKC VIS MIN 9999 WIND THR35 /////KT WIND THR17 /////KT BLU,LIED,2019-01-14T23:55:00Z,39.35,8.97,11.0,10.0,100,4,,6.21,29.88189,,,,,,,,,,,CAVOK,,,,,,,,VFR,,,,,,,,,,,,SPECI,28.0
LIMH 142355Z /////KT CAVOK M17/M17 Q1009 RMK SKC MON LIB VAL NIL VIS MIN 9999,LIMH,2019-01-14T23:55:00Z,45.93,7.7,-17.0,-17.0,,,,6.21,29.793306,,,,,,,,,,,CAVOK,,,,,,,,VFR,,,,,,,,,,,,SPECI,3488.0
LIMK 142355Z 17003KT CAVOK 05/M12 Q1012 RMK SKC VAL NIL VIS MIN 9999,LIMK,2019-01-14T23:55:00Z,45.02,7.72,5.0,-12.0,170,3,,6.21,29.88189,,,,,,,,,,,CAVOK,,,,,,,,VFR,,,,,,,,,,,,SPECI,710.0
LIMU 142355Z 00000KT CAVOK 11/M02 Q1011 RMK SKC QUK / QUL / VIS MAR 30 KM VIS MIN 9999,LIMU,2019-01-14T23:55:00Z,43.95,8.17,11.0,-2.0,0,0,,6.21,29.852362,,,,,,,,,,,CAVOK,,,,,,,,VFR,,,,,,,,,,,,SPECI,221.0
LIQC 142355Z 26002KT CAVOK 09/02 Q1006 RMK SKC QUK / QUL / VIS MAR 10 KM VIS MIN 9999,LIQC,2019-01-14T23:55:00Z,40.55,14.2,9.0,2.0,260,2,,6.21,29.704725,,,,,,,,,,,CAVOK,,,,,,,,VFR,,,,,,,,,,,,SPECI,269.0
LIRE 142355Z 02007KT CAVOK 06/04 Q1008 RMK SKC VIS MIN 9999 WIND THR13 03006KT WIND THR31 /////KT BLU,LIRE,2019-01-14T23:55:00Z,41.63,12.42,6.0,4.0,20,7,,6.21,29.763779,,,,,,,,,,,CAVOK,,,,,,,,VFR,,,,,,,,,,,,SPECI,12.0
LIRT 142355Z 12005KT CAVOK M01/M03 Q1005 RMK SKC MON INVIS VAL INVIS VIS MIN 9999,LIRT,2019-01-14T23:55:00Z,41.03,15.22,-1.0,-3.0,120,5,,6.21,29.675198,,,,,,,,,,,CAVOK,,,,,,,,VFR,,,,,,,,,,,,SPECI,1093.0
LIVC 142355Z 34015G30KT CAVOK M07/M14 Q1008 RMK SKC MON LIB VAL NIL VIS MIN 9999,LIVC,2019-01-14T23:55:00Z,44.2,10.68,-7.0,-14.0,340,15,30,6.21,29.763779,,,,,,,,,,,CAVOK,,,,,,,,VFR,,,,,,,,,,,,SPECI,2173.0
LIVE 142355Z 35007KT 5000 BR SCT012 BKN018 M04/M09 Q1012 RMK OVC VIS MIN 5000,LIVE,2019-01-14T23:55:00Z,46.85,10.5,-4.0,-9.0,350,7,,3.11,29.88189,,,,,,,,,,BR,SCT,1200,BKN,1800,,,,,MVFR,,,,,,,,,,,,SPECI,1800.0
LIVP 142355Z 33008KT CAVOK M08/M13 Q1006 RMK FEW FEW060 MON LIB VAL NIL VIS MIN 9999,LIVP,2019-01-14T23:55:00Z,46.15,11.03,-8.0,-13.0,330,8,,6.21,29.704725,,,,,,,,,,,CAVOK,,,,,,,,VFR,,,,,,,,,,,,SPECI,2129.0
TXKF 142355Z 25014KT 9999 SCT025 OVC048 20/17 Q1011 ,TXKF,2019-01-14T23:55:00Z,32.37,-64.68,20.0,17.0,250,14,,6.21,29.852362,,,,,,,,,,,SCT,2500,OVC,4800,,,,,VFR,,,,,,,,,,,,METAR,6.0
LIBY 142355Z 01013KT 9999 BKN013 08/05 Q1002 RMK OVC OVC070 QUK / QUL / VIS MAR 10 KM VIS MIN 9999,LIBY,2019-01-14T23:55:00Z,39.82,18.35,8.0,5.0,10,13,,6.21,29.586615,,,,,,,,,,,BKN,1300,,,,,,,MVFR,,,,,,,,,,,,SPECI,112.0
KQBL 142355Z AUTO 07002KT 10SM OVC016 07/03 A3032 RMK AO2 SLP267 WND DATA ESTMD T00650032 10073 20064 401050064 53003,KQBL,2019-01-14T23:55:00Z,,,6.5,3.2,70,2,,10.0,30.318897,1026.7,,TRUE,TRUE,,,,,,,OVC,1600,,,,,,,MVFR,0.3,7.3,6.4,10.5,6.4,,,,,,,METAR,
LIVF 142355Z 27011KT CAVOK 05/M10 Q1009 RMK SKC MON LIB VAL NIL VIS MIN 9999,LIVF,2019-01-14T23:55:00Z,43.52,12.72,5.0,-10.0,270,11,,6.21,29.793306,,,,,,,,,,,CAVOK,,,,,,,,VFR,,,,,,,,,,,,METAR,574.0
LIRK 142355Z AUTO 36019G32KT //// M03/M11 Q1007,LIRK,2019-01-14T23:55:00Z,42.47,12.97,-3.0,-11.0,360,19,32,,29.734253,,,TRUE,,,,,,,,,,,,,,,,,,,,,,,,,,,,METAR,1875.0
MUHA 142355Z 03007KT 9000 SCT030 22/18 Q1020,MUHA,2019-01-14T23:55:00Z,22.97,-82.42,22.0,18.0,30,7,,5.59,30.11811,,,,,,,,,,,SCT,3000,,,,,,,VFR,,,,,,,,,,,,METAR,64.0
NZCM 142355Z 09009KT 9999 FEW020 SCT170 M02/M07 A2959 RMK AO2A SLP026 FG DSNT SE-SW-W T10171068,NZCM,2019-01-14T23:55:00Z,-77.85,166.67,-1.7,-6.8,90,9,,6.21,29.589567,1002.6,,,TRUE,,,,,,,FEW,2000,SCT,17000,,,,,VFR,,,,,,,,,,,,METAR,8.0
KMTP 142354Z AUTO 34007KT 00/M07 A3013 RMK AO1 SLP201 T00001072 10006 20000 56002,KMTP,2019-01-14T23:54:00Z,41.07,-71.92,0.0,-7.2,340,7,,,30.129921,1020.1,,TRUE,TRUE,,,,,,,,,,,,,,,,-0.2,0.6,0.0,,,,,,,,,METAR,2.0
KMWN 142354Z 31022KT 110SM FEW050 FEW100 BKN120 BKN150 BKN200 M10/M16 RMK HALO ARND MOON 4/014 11064 21102,KMWN,2019-01-14T23:54:00Z,44.27,-71.3,-10.0,-16.0,310,22,,10.0,,,,,,,,,,,,FEW,5000,FEW,10000,BKN,12000,BKN,15000,VFR,,-6.4,-10.2,,,,,,,14.0,,SPECI,1910.0
K1V4 142354Z AUTO M10/M13 A3012 RMK AO1 SLP229 T11001128 11072 21106 56009,K1V4,2019-01-14T23:54:00Z,44.42,-72.02,-10.0,-12.8,,,,,30.121063,1022.9,,TRUE,TRUE,,,,,,,,,,,,,,,,-0.9,-7.2,-10.6,,,,,,,,,METAR,210.0
KP68 142353Z AUTO 14011KT 02/M05 A3005 RMK AO1 SLP194 T00221050 10022 21050 55010,KP68,2019-01-14T23:53:00Z,39.6,-116.0,2.2,-5.0,140,11,,,30.050198,1019.4,,TRUE,TRUE,,,,,,,,,,,,,,,,-1.0,2.2,-5.0,,,,,,,,,METAR,1809.0
OIBB 142353Z 14016KT CAVOK 20/12 Q1015 A3000,OIBB,2019-01-14T23:53:00Z,28.97,50.82,20.0,12.0,140,16,,6.21,29.970472,,,,,,,,,,,CAVOK,,,,,,,,VFR,,,,,,,,,,,,METAR,19.0
OICS 142353Z 14002KT 9999 FEW040 M00/M01 Q1017,OICS,2019-01-14T23:53:00Z,35.25,47.02,0.0,-1.0,140,2,,6.21,30.029528,,,,,,,,,,,FEW,4000,,,,,,,VFR,,,,,,,,,,,,METAR,1373.0
K6R6 142353Z AUTO 12005KT 08/04 A3028 RMK AO1 SLP251 T00780039 10078 20067 55003,K6R6,2019-01-14T23:53:00Z,30.05,-102.22,7.8,3.9,120,5,,,30.280512,1025.1,,TRUE,TRUE,,,,,,,,,,,,,,,,-0.3,7.8,6.7,,,,,,,,,SPECI,701.0
PABR 142353Z 08030G38KT 1/2SM BLSN BKN008 OVC015 M20/M23 A3023 RMK PK WND 11032/2340 SNB03E50 SLP239 P0000 60000 T12001233 11200 21228 53004 RVRNO VIA AUTODIAL,PABR,2019-01-14T23:53:00Z,71.28,-156.77,-20.0,-23.3,80,30,38,0.5,30.230314,1023.9,,,,,,,,,BLSN,BKN,800,OVC,1500,,,,,LIFR,0.4,-20.0,-22.8,,,0.005,,,,,,SPECI,7.0
PAQT 142353Z AUTO 09020G29KT 1/2SM UP FZFG VV010 M24/M26 A3025 RMK PK WND 08034/2319 UPE09B31SNB09E31B39E52 SLP246 P0000 60000 T12391256 11239 21250 53014 TSNO VIA AUTODIAL,PAQT,2019-01-14T23:53:00Z,70.22,-151.0,-23.9,-25.6,90,20,29,0.5,30.250984,1024.6,,TRUE,,,,TRUE,,,FZFG UP,OVX,0,,,,,,,LIFR,1.4,-23.9,-25.0,,,0.005,,,,,1000,SPECI,12.0
PAWD 142353Z AUTO 00000KT 5SM BR FEW038 BKN050 03/02 A2995 RMK SLP141 6//// T00280022 10033 20011 58009 TSNO PNO $ VIA AUTODIAL,PAWD,2019-01-14T23:53:00Z,60.12,-149.42,2.8,2.2,0,0,,5.0,29.949802,1014.1,,TRUE,,TRUE,,TRUE,,,BR,FEW,3800,BKN,5000,,,,,MVFR,-0.9,3.3,1.1,,,,,,,,,SPECI,23.0
PANT 142353Z AUTO 33003KT 10SM OVC055 08/07 A3000 RMK SLP160 60002 T00780067 10083 20072 58011 TSNO $ VIA AUTODIAL,PANT,2019-01-14T23:53:00Z,55.03,-131.57,7.8,6.7,330,3,,10.0,30.0,1016.0,,TRUE,,TRUE,,TRUE,,,,OVC,5500,,,,,,,VFR,-1.1,8.3,7.2,,,,,,,,,SPECI,36.0
MMCZ 142352Z 36004KT 6SM BKN015 BKN070 OVC250 23/22 A3008 RMK SLP192 52003 900 60615 8/473 CB VC,MMCZ,2019-01-14T23:52:00Z,20.52,-86.92,23.0,22.0,360,4,,6.0,30.079725,1019.2,,,,,,,,,,BKN,1500,BKN,7000,OVC,25000,,,MVFR,0.3,,,,,,,6.15,,,,METAR,5.0
KNHK 142352Z AUTO 28004KT 10SM CLR M04/M04 A3021 RMK AO2 SLP231 T10441044 10006 21056 53001 $,KNHK,2019-01-14T23:52:00Z,38.27,-76.4,-4.4,-4.4,280,4,,10.0,30.209646,1023.1,,TRUE,TRUE,TRUE,,,,,,CLR,,,,,,,,VFR,0.1,0.6,-5.6,,,,,,,,,METAR,12.0
MMEP 142352Z 36003KT 10SM SCT030 BKN100 BKN250 23/17 A3009 RMK SLP199 55004 910 8/558,MMEP,2019-01-14T23:52:00Z,21.42,-104.85,23.0,17.0,360,3,,10.0,30.088583,1019.9,,,,,,,,,,SCT,3000,BKN,10000,BKN,25000,,,VFR,-0.4,,,,,,,,,,,METAR,922.0
MMDO 142352Z 15004KT 14SM BKN025 OVC200 20/00 A3021 RMK SLP157 57011 952 8/507 BINOVC ISOL AC,MMDO,2019-01-14T23:52:00Z,24.12,-104.52,20.0,0.0,150,4,,14.0,30.209646,1015.7,,,,,,,,,,BKN,2500,OVC,20000,,,,,MVFR,-1.1,,,,,,,,,,,METAR,1857.0
MMTJ 142352Z 09006KT 2SM RA OVC007 12/11 A2999 RMK SLP155 54000 980 60305 8/7//,MMTJ,2019-01-14T23:52:00Z,32.53,-116.97,12.0,11.0,90,6,,2.0,29.991142,1015.5,,,,,,,,,RA,OVC,700,,,,,,,IFR,,,,,,,,3.05,,,,METAR,152.0
MMRX 142352Z 00000KT 3SM BR OVC025 11/07 A3034 RMK SLP259 57008 915 8/7//,MMRX,2019-01-14T23:52:00Z,26.02,-98.22,11.0,7.0,0,0,,3.0,30.339567,1025.9,,,,,,,,,BR,OVC,2500,,,,,,,MVFR,-0.8,,,,,,,,,,,METAR,39.0
KNFW 142352Z 11005KT 10SM SCT070 07/M01 A3037 RMK AO2 SLP266 T00671006 10083 20033 58005 VISNO N $,KNFW,2019-01-14T23:52:00Z,32.78,-97.43,6.7,-0.6,110,5,,10.0,30.369095,1026.6,,,TRUE,TRUE,,,,,,SCT,7000,,,,,,,VFR,-0.5,8.3,3.3,,,,,,,,,METAR,198.0
MMPA 142352Z 01012KT 6SM SCT025 24/17 A3019 RMK SLP205 52008 901 8/500 HZY ISOL CI,MMPA,2019-01-14T23:52:00Z,20.5,-97.47,24.0,17.0,10,12,,6.0,30.188976,1020.5,,,,,,,,,,SCT,2500,,,,,,,VFR,0.8,,,,,,,,,,,METAR,142.0
MMTG 142351Z 32010KT 10SM FEW020 BKN080 24/15 A3005 RMK SLP153 51002 906 8/430,MMTG,2019-01-14T23:51:00Z,16.57,-93.03,24.0,15.0,320,10,,10.0,30.050198,1015.3,,,,,,,,,,FEW,2000,BKN,8000,,,,,VFR,0.2,,,,,,,,,,,METAR,528.0
OITL 142351Z 19010KT 9999 FEW100 01/M04 Q1011,OITL,2019-01-14T23:51:00Z,38.33,48.42,1.0,-4.0,190,10,,6.21,29.852362,,,,,,,,,,,FEW,10000,,,,,,,VFR,,,,,,,,,,,,METAR,1316.0
OIHH 142351Z 25006KT 9999 FEW040 04/M03 Q1015,OIHH,2019-01-14T23:51:00Z,34.87,48.55,4.0,-3.0,250,6,,6.21,29.970472,,,,,,,,,,,FEW,4000,,,,,,,VFR,,,,,,,,,,,,METAR,1757.0
MMGL 142351Z 19004KT 8SM FEW030CB SCT100 BKN300 23/07 A3016 RMK SLP124 57006 954 8/363,MMGL,2019-01-14T23:51:00Z,20.52,-103.32,23.0,7.0,190,4,,8.0,30.159449,1012.4,,,,,,,,,,FEW,3000,SCT,10000,BKN,30000,,,VFR,-0.6,,,,,,,,,,,METAR,1528.0
MUCU 142351Z 34003KT 290V030 9000 SCT020CB 25/19 Q1017,MUCU,2019-01-14T23:51:00Z,19.97,-75.83,25.0,19.0,340,3,,5.59,30.029528,,,,,,,,,,,SCT,2000,,,,,,,VFR,,,,,,,,,,,,METAR,76.0
EGQS 142350Z 25013KT 9999 -RA SCT049 BKN100 08/06 Q1007 BLU,EGQS,2019-01-14T23:50:00Z,57.72,-3.32,8.0,6.0,250,13,,6.21,29.734253,,,,,,,,,,-RA,SCT,4900,BKN,10000,,,,,VFR,,,,,,,,,,,,METAR,13.0
ENOL 142350Z 27012KT 9999 VCSH FEW012CB SCT035 BKN060 M00/M05 Q0998,ENOL,2019-01-14T23:50:00Z,63.7,9.58,0.0,-5.0,270,12,,6.21,29.468504,,,,,,,,,,VCSH,FEW,1200,SCT,3500,BKN,6000,,,VFR,,,,,,,,,,,,METAR,7.0
KOMN 142350Z 33004KT 10SM OVC034 12/12 A3019 RMK LAST,KOMN,2019-01-14T23:50:00Z,29.3,-81.12,12.0,12.0,330,4,,10.0,30.188976,,,,,,,,,,,OVC,3400,,,,,,,VFR,,,,,,,,,,,,METAR,9.0
LIPO 142350Z 03006KT CAVOK 06/M07 Q1012,LIPO,2019-01-14T23:50:00Z,45.42,10.33,6.0,-7.0,30,6,,6.21,29.88189,,,,,,,,,,,CAVOK,,,,,,,,VFR,,,,,,,,,,,,METAR,109.0
LIRZ 142350Z AUTO VRB02KT 9999 NCD M02/M04 Q1010,LIRZ,2019-01-14T23:50:00Z,43.1,12.5,-2.0,-4.0,0,2,,6.21,29.822834,,,TRUE,,,,,,,,CLR,,,,,,,,VFR,,,,,,,,,,,,METAR,205.0
LICA 142350Z VRB04KT 9999 FEW020 BKN060 09/07 Q1005,LICA,2019-01-14T23:50:00Z,38.88,16.25,9.0,7.0,0,4,,6.21,29.675198,,,,,,,,,,,FEW,2000,BKN,6000,,,,,VFR,,,,,,,,,,,,METAR,15.0
EGXZ 142350Z AUTO 23010KT 9999 FEW023/// SCT033/// 07/05 Q1018,EGXZ,2019-01-14T23:50:00Z,54.2,-1.38,7.0,5.0,230,10,,6.21,30.059055,,,TRUE,,,,,,,,FEW,2300,SCT,3300,,,,,VFR,,,,,,,,,,,,METAR,28.0
EGXT 142350Z AUTO 25009KT 9999 NCD 03/02 Q1020,EGXT,2019-01-14T23:50:00Z,52.62,-0.47,3.0,2.0,250,9,,6.21,30.11811,,,TRUE,,,,,,,,CLR,,,,,,,,VFR,,,,,,,,,,,,METAR,84.0
EGWU 142350Z AUTO 27009KT 9999 // NCD 04/01 Q1022,EGWU,2019-01-14T23:50:00Z,51.55,-0.42,4.0,1.0,270,9,,6.21,30.177166,,,TRUE,,,,,,,,CLR,,,,,,,,VFR,,,,,,,,,,,,METAR,40.0
EGVO 142350Z AUTO 27006KT 9999 FEW039/// 04/02 Q1023,EGVO,2019-01-14T23:50:00Z,51.23,-0.95,4.0,2.0,270,6,,6.21,30.206694,,,TRUE,,,,,,,,FEW,3900,,,,,,,VFR,,,,,,,,,,,,METAR,123.0
EGUB 142350Z AUTO 17002KT 9999 // NCD M01/M02 Q1023,EGUB,2019-01-14T23:50:00Z,51.62,-1.07,-1.0,-2.0,170,2,,6.21,30.206694,,,TRUE,,,,,,,,CLR,,,,,,,,VFR,,,,,,,,,,,,METAR,63.0
EGDX 142350Z AUTO 28009KT 9999 OVC026/// 08/05 Q1023,EGDX,2019-01-14T23:50:00Z,51.4,-3.43,8.0,5.0,280,9,,6.21,30.206694,,,TRUE,,,,,,,,OVC,2600,,,,,,,MVFR,,,,,,,,,,,,METAR,50.0
EGQK 142350Z AUTO 23011KT 9999 BKN070/// 09/06 Q1007,EGQK,2019-01-14T23:50:00Z,57.65,-3.57,9.0,6.0,230,11,,6.21,29.734253,,,TRUE,,,,,,,,BKN,7000,,,,,,,VFR,,,,,,,,,,,,METAR,7.0
EGOS 142350Z AUTO 24009KT 9999 FEW048/// 05/03 Q1021,EGOS,2019-01-14T23:50:00Z,52.8,-2.67,5.0,3.0,240,9,,6.21,30.147638,,,TRUE,,,,,,,,FEW,4800,,,,,,,VFR,,,,,,,,,,,,METAR,76.0
EGDM 142350Z AUTO 27006KT 9999 NCD 03/01 Q1023,EGDM,2019-01-14T23:50:00Z,51.17,-1.75,3.0,1.0,270,6,,6.21,30.206694,,,TRUE,,,,,,,,CLR,,,,,,,,VFR,,,,,,,,,,,,METAR,124.0
ENSB 142350Z 11009KT 9999 FEW025 M15/M19 Q1002 RMK WIND 1400FT 12007KT,ENSB,2019-01-14T23:50:00Z,78.25,15.47,-15.0,-19.0,110,9,,6.21,29.586615,,,,,,,,,,,FEW,2500,,,,,,,VFR,,,,,,,,,,,,METAR,29.0
MSSM 142350Z 00000KT CAVOK 31/19 Q//// A////,MSSM,2019-01-14T23:50:00Z,13.43,-88.12,31.0,19.0,0,0,,6.21,,,,,,,,,,,,CAVOK,,,,,,,,VFR,,,,,,,,,,,,METAR,80.0
LTBF 142350Z 35002KT 9999 SCT035 BKN100 05/05 Q1002 RESHRA NOSIG,LTBF,2019-01-14T23:50:00Z,39.62,27.92,5.0,5.0,350,2,,6.21,29.586615,,,,,,TRUE,,,,,SCT,3500,BKN,10000,,,,,VFR,,,,,,,,,,,,METAR,102.0
OOSH 142350Z AUTO 00000KT //// 20/16 Q1018,OOSH,2019-01-14T23:50:00Z,24.55,56.62,20.0,16.0,0,0,,,30.059055,,,TRUE,,,,,,,,,,,,,,,,,,,,,,,,,,,,METAR,35.0
OOSA 142350Z 12004KT 9999 FEW025 23/18 Q1017 NOSIG,OOSA,2019-01-14T23:50:00Z,17.02,54.07,23.0,18.0,120,4,,6.21,30.029528,,,,,,TRUE,,,,,FEW,2500,,,,,,,VFR,,,,,,,,,,,,METAR,20.0
OOMS 142350Z 24003KT CAVOK 20/17 Q1018 NOSIG,OOMS,2019-01-14T23:50:00Z,23.57,58.27,20.0,17.0,240,3,,6.21,30.059055,,,,,,TRUE,,,,,CAVOK,,,,,,,,VFR,,,,,,,,,,,,METAR,8.0
OODQ 142350Z AUTO 09009KT 9999 FEW024 OVC046 23/18 Q1017 NOSIG,OODQ,2019-01-14T23:50:00Z,19.52,57.65,23.0,18.0,90,9,,6.21,30.029528,,,TRUE,,,TRUE,,,,,FEW,2400,OVC,4600,,,,,VFR,,,,,,,,,,,,METAR,0.0
ENVD 142350Z 28008KT 9999 FEW047 M06/M08 Q0989,ENVD,2019-01-14T23:50:00Z,70.07,29.85,-6.0,-8.0,280,8,,6.21,29.202755,,,,,,,,,,,FEW,4700,,,,,,,VFR,,,,,,,,,,,,METAR,39.0
LGAD 142350Z 36008KT 9999 -RA BKN025 BKN080 08/06 Q0998,LGAD,2019-01-14T23:50:00Z,37.92,21.27,8.0,6.0,360,8,,6.21,29.468504,,,,,,,,,,-RA,BKN,2500,BKN,8000,,,,,MVFR,,,,,,,,,,,,METAR,12.0
OICK 142350Z 26010KT 9999 FEW040 SCT090 08/05 Q1017,OICK,2019-01-14T23:50:00Z,33.43,48.28,8.0,5.0,260,10,,6.21,30.029528,,,,,,,,,,,FEW,4000,SCT,9000,,,,,VFR,,,,,,,,,,,,METAR,1155.0
OIHM 142350Z AUTO 34006KT //// // ////// 04/M02 Q1017,OIHM,2019-01-14T23:50:00Z,34.28,48.82,4.0,-2.0,340,6,,,30.029528,,,TRUE,,,,,,,,,,,,,,,,,,,,,,,,,,,,METAR,1726.0
KHME 142350Z AUTO 01004KT //// // ////// 08/05 Q1012,KHME,2019-01-14T23:50:00Z,,,8.0,5.0,10,4,,,29.88189,,,TRUE,,,,,,,,,,,,,,,,,,,,,,,,,,,,METAR,
NSTU 142350Z 34008KT 12SM VCSH FEW018TCU FEW110 31/26 A2970 RMK VCSH S TCU S SLP058 8/270 T03090259 10321 20285 56015,NSTU,2019-01-14T23:50:00Z,-14.33,-170.72,30.9,25.9,340,8,,12.0,29.698818,1005.8,,,,,,,,,VCSH,FEW,1800,FEW,11000,,,,,VFR,-1.5,32.1,28.5,,,,,,,,,METAR,3.0
LTAR 142350Z 15023KT 4000 -SN BR BKN011 BKN025 OVC070 M02/M04 Q1006,LTAR,2019-01-14T23:50:00Z,39.8,36.9,-2.0,-4.0,150,23,,2.49,29.704725,,,,,,,,,,-SN BR,BKN,1100,BKN,2500,OVC,7000,,,IFR,,,,,,,,,,,,METAR,1271.0
EGYM 142350Z 26010KT 9999 FEW040 SCT050 05/03 Q1020 BLU,EGYM,2019-01-14T23:50:00Z,52.63,0.57,5.0,3.0,260,10,,6.21,30.11811,,,,,,,,,,,FEW,4000,SCT,5000,,,,,VFR,,,,,,,,,,,,METAR,23.0
EGXW 142350Z 24012KT 9999 SCT028 05/03 Q1019 BLU,EGXW,2019-01-14T23:50:00Z,53.18,-0.52,5.0,3.0,240,12,,6.21,30.088583,,,,,,,,,,,SCT,2800,,,,,,,VFR,,,,,,,,,,,,METAR,70.0
EGXV 142350Z AUTO 24009KT 9999 FEW023/// 06/03 Q1017,EGXV,2019-01-14T23:50:00Z,53.87,-0.45,6.0,3.0,240,9,,6.21,30.029528,,,TRUE,,,,,,,,FEW,2300,,,,,,,VFR,,,,,,,,,,,,METAR,6.0
EGXC 142350Z 24009KT 9999 FEW040 BKN250 03/03 Q1020 BLU,EGXC,2019-01-14T23:50:00Z,53.1,-0.17,3.0,3.0,240,9,,6.21,30.11811,,,,,,,,,,,FEW,4000,BKN,25000,,,,,VFR,,,,,,,,,,,,METAR,7.0
KTOA 142350Z 05008KT 2SM -RA OVC012 12/11 A2995,KTOA,2019-01-14T23:50:00Z,33.78,-118.32,12.0,11.0,50,8,,2.0,29.949802,,,,,,,,,,-RA,OVC,1200,,,,,,,IFR,,,,,,,,,,,,METAR,31.0
EGXU 142350Z AUTO 26011KT 9999 // FEW050/// 06/05 Q1018,EGXU,2019-01-14T23:50:00Z,54.05,-1.25,6.0,5.0,260,11,,6.21,30.059055,,,TRUE,,,,,,,,FEW,5000,,,,,,,VFR,,,,,,,,,,,,METAR,16.0
EGXS 142350Z AUTO 22009KT 9999 // FEW060/// 04/03 Q1018,EGXS,2019-01-14T23:50:00Z,53.48,0.15,4.0,3.0,220,9,,6.21,30.059055,,,TRUE,,,,,,,,FEW,6000,,,,,,,VFR,,,,,,,,,,,,METAR,3.0
EGXE 142350Z AUTO 23011KT 9999 FEW025/// 08/05 Q1017,EGXE,2019-01-14T23:50:00Z,54.28,-1.52,8.0,5.0,230,11,,6.21,30.029528,,,TRUE,,,,,,,,FEW,2500,,,,,,,VFR,,,,,,,,,,,,METAR,40.0
EGVP 142350Z AUTO 26003KT 9999 // NCD 02/00 Q1023,EGVP,2019-01-14T23:50:00Z,51.13,-1.57,2.0,0.0,260,3,,6.21,30.206694,,,TRUE,,,,,,,,CLR,,,,,,,,VFR,,,,,,,,,,,,METAR,91.0
EGOV 142350Z AUTO 23017KT 9999 BKN018/// 09/07 Q1021,EGOV,2019-01-14T23:50:00Z,53.25,-4.53,9.0,7.0,230,17,,6.21,30.147638,,,TRUE,,,,,,,,BKN,1800,,,,,,,MVFR,,,,,,,,,,,,METAR,11.0
EGOP 142350Z AUTO 26011KT 9999 // BKN028/// 09/07 Q1024,EGOP,2019-01-14T23:50:00Z,51.72,-4.32,9.0,7.0,260,11,,6.21,30.236221,,,TRUE,,,,,,,,BKN,2800,,,,,,,MVFR,,,,,,,,,,,,METAR,6.0
EGOM 142350Z AUTO 25022KT 0400 FG OVC001/// 06/06 Q1014,EGOM,2019-01-14T23:50:00Z,55.05,-2.55,6.0,6.0,250,22,,0.25,29.940945,,,TRUE,,,,,,,FG,OVC,100,,,,,,,LIFR,,,,,,,,,,,,METAR,325.0
EGYD 142350Z AUTO 26014KT 9999 // FEW029/// 04/03 Q1020,EGYD,2019-01-14T23:50:00Z,53.03,-0.5,4.0,3.0,260,14,,6.21,30.11811,,,TRUE,,,,,,,,FEW,2900,,,,,,,VFR,,,,,,,,,,,,METAR,67.0
MMAA 142350Z 25006KT 7SM FEW300 28/23 A2987 RMK SLP108 57010 910 8/002 HZY,MMAA,2019-01-14T23:50:00Z,16.75,-99.75,28.0,23.0,250,6,,7.0,29.870079,1010.8,,,,,,,,,,FEW,30000,,,,,,,VFR,-1.0,,,,,,,,,,,METAR,5.0
EGXP 142350Z AUTO 25012KT 9999 // BKN029/// 05/03 Q1019,EGXP,2019-01-14T23:50:00Z,53.3,-0.55,5.0,3.0,250,12,,6.21,30.088583,,,TRUE,,,,,,,,BKN,2900,,,,,,,MVFR,,,,,,,,,,,,METAR,61.0
EGUW 142350Z AUTO 25007KT 9999 BKN039/// 02/02 Q1021,EGUW,2019-01-14T23:50:00Z,52.12,0.97,2.0,2.0,250,7,,6.21,30.147638,,,TRUE,,,,,,,,BKN,3900,,,,,,,VFR,,,,,,,,,,,,METAR,87.0
EGDR 142350Z 26006KT 9999 SCT023 OVC026 08/05 Q1025 WHT,EGDR,2019-01-14T23:50:00Z,50.08,-5.25,8.0,5.0,260,6,,6.21,30.265747,,,,,,,,,,,SCT,2300,OVC,2600,,,,,MVFR,,,,,,,,,,,,METAR,82.0
LXGB 142350Z AUTO 27013KT 9999 // NCD 13/08 Q1020,LXGB,2019-01-14T23:50:00Z,36.13,-5.33,13.0,8.0,270,13,,6.21,30.11811,,,TRUE,,,,,,,,CLR,,,,,,,,VFR,,,,,,,,,,,,METAR,5.0
MUSC 142350Z 02004KT 9000 BKN020 22/18 Q1019,MUSC,2019-01-14T23:50:00Z,22.5,-79.95,22.0,18.0,20,4,,5.59,30.088583,,,,,,,,,,,BKN,2000,,,,,,,MVFR,,,,,,,,,,,,METAR,103.0
MUVR 142350Z 36008KT 9000 BKN019 22/18 Q1020,MUVR,2019-01-14T23:50:00Z,23.03,-81.43,22.0,18.0,360,8,,5.59,30.11811,,,,,,,,,,,BKN,1900,,,,,,,MVFR,,,,,,,,,,,,METAR,65.0
MUCC 142350Z 03006KT 9000 FEW020 23/19 Q1018,MUCC,2019-01-14T23:50:00Z,22.47,-78.33,23.0,19.0,30,6,,5.59,30.059055,,,,,,,,,,,FEW,2000,,,,,,,VFR,,,,,,,,,,,,METAR,4.0
MUCM 142350Z 03008KT 9000 FEW020 23/20 Q1018,MUCM,2019-01-14T23:50:00Z,21.42,-77.85,23.0,20.0,30,8,,5.59,30.059055,,,,,,,,,,,FEW,2000,,,,,,,VFR,,,,,,,,,,,,METAR,122.0
MUHG 142350Z 09009KT 9999 FEW040TCU 23/20 Q1017,MUHG,2019-01-14T23:50:00Z,20.77,-76.32,23.0,20.0,90,9,,6.21,30.029528,,,,,,,,,,,FEW,4000,,,,,,,VFR,,,,,,,,,,,,METAR,106.0
MUCL 142350Z 01012KT 330V050 9000 FEW020 26/19 Q1018,MUCL,2019-01-14T23:50:00Z,21.63,-81.55,26.0,19.0,10,12,,5.59,30.059055,,,,,,,,,,,FEW,2000,,,,,,,VFR,,,,,,,,,,,,METAR,5.0
MUCF 142350Z 22003KT 9999 FEW020 24/19 Q1019,MUCF,2019-01-14T23:50:00Z,22.13,-80.4,24.0,19.0,220,3,,6.21,30.088583,,,,,,,,,,,FEW,2000,,,,,,,VFR,,,,,,,,,,,,METAR,39.0
LTCN 142350Z 13009KT 090V150 9999 -SHRA SCT030 BKN080 05/02 Q1013 NOSIG,LTCN,2019-01-14T23:50:00Z,37.53,36.95,5.0,2.0,130,9,,6.21,29.911417,,,,,,TRUE,,,,-SHRA,SCT,3000,BKN,8000,,,,,VFR,,,,,,,,,,,,METAR,526.0
LTCB 142350Z VRB01KT 9999 FEW035 BKN090 09/00 Q1005,LTCB,2019-01-14T23:50:00Z,40.97,38.07,9.0,0.0,0,1,,6.21,29.675198,,,,,,,,,,,FEW,3500,BKN,9000,,,,,VFR,,,,,,,,,,,,METAR,5.0
LTAN 142350Z 01001KT 9999 FEW020 SCT100 01/M00 Q1004 BECMG 4000 BR,LTAN,2019-01-14T23:50:00Z,37.97,32.53,1.0,0.0,10,1,,6.21,29.64567,,,,,,,,,,,FEW,2000,SCT,10000,,,,,VFR,,,,,,,,,,,,METAR,1006.0
LTFG 142350Z 11004KT 070V160 9999 -SHRA BKN030 09/08 Q1006,LTFG,2019-01-14T23:50:00Z,36.3,32.3,9.0,8.0,110,4,,6.21,29.704725,,,,,,,,,,-SHRA,BKN,3000,,,,,,,MVFR,,,,,,,,,,,,METAR,95.0
LTFD 142350Z 07007KT 9999 SCT035 BKN100 06/05 Q1002,LTFD,2019-01-14T23:50:00Z,39.55,27.02,6.0,5.0,70,7,,6.21,29.586615,,,,,,,,,,,SCT,3500,BKN,10000,,,,,VFR,,,,,,,,,,,,METAR,16.0
LTBQ 142350Z 00000KT 6000 SCT040 BKN080 02/02 Q1002 TEMPO 4000 BR,LTBQ,2019-01-14T23:50:00Z,40.72,30.07,2.0,2.0,0,0,,3.73,29.586615,,,,,,,,,,,SCT,4000,BKN,8000,,,,,MVFR,,,,,,,,,,,,METAR,50.0
LTFH 142350Z 10007KT 9999 FEW036 BKN100 09/02 Q1004 NOSIG,LTFH,2019-01-14T23:50:00Z,41.27,36.55,9.0,2.0,100,7,,6.21,29.64567,,,,,,TRUE,,,,,FEW,3600,BKN,10000,,,,,VFR,,,,,,,,,,,,METAR,5.0
LTDA 142350Z 05015KT 7000 -SHRA FEW020CB BKN025 08/07 Q1012 TEMPO -TSRA,LTDA,2019-01-14T23:50:00Z,36.37,36.28,8.0,7.0,50,15,,4.35,29.88189,,,,,,,,,,-SHRA,FEW,2000,BKN,2500,,,,,MVFR,,,,,,,,,,,,METAR,82.0
LTCI 142350Z 34003KT 9999 SCT035 BKN080 M04/M05 Q1014 NOSIG,LTCI,2019-01-14T23:50:00Z,38.45,43.32,-4.0,-5.0,340,3,,6.21,29.940945,,,,,,TRUE,,,,,SCT,3500,BKN,8000,,,,,VFR,,,,,,,,,,,,METAR,1661.0
LTCF 142350Z 34008KT 290V360 4500 BR BKN030 BKN070 M11/M12 Q1011,LTCF,2019-01-14T23:50:00Z,40.57,43.12,-11.0,-12.0,340,8,,2.8,29.852362,,,,,,,,,,BR,BKN,3000,BKN,7000,,,,,IFR,,,,,,,,,,,,METAR,1795.0
LTCD 142350Z 24003KT 210V280 4000 BR SCT040 BKN090 M08/M09 Q1011 NOSIG,LTCD,2019-01-14T23:50:00Z,39.72,39.5,-8.0,-9.0,240,3,,2.49,29.852362,,,,,,TRUE,,,,BR,SCT,4000,BKN,9000,,,,,IFR,,,,,,,,,,,,METAR,1215.0
LTCA 142350Z 00000KT 6000 OVC010 00/00 Q1013 NOSIG,LTCA,2019-01-14T23:50:00Z,38.6,39.27,0.0,0.0,0,0,,3.73,29.911417,,,,,,TRUE,,,,,OVC,1000,,,,,,,MVFR,,,,,,,,,,,,METAR,882.0
LTBZ 142350Z 17005KT 9999 BKN020 01/01 Q1001 RERA,LTBZ,2019-01-14T23:50:00Z,38.63,27.35,1.0,1.0,170,5,,6.21,29.557087,,,,,,,,,,,BKN,2000,,,,,,,MVFR,,,,,,,,,,,,METAR,73.0
LTBY 142350Z 10006KT 9999 BKN035 BKN100 02/00 Q1001,LTBY,2019-01-14T23:50:00Z,39.82,30.52,2.0,0.0,100,6,,6.21,29.557087,,,,,,,,,,,BKN,3500,BKN,10000,,,,,VFR,,,,,,,,,,,,METAR,789.0
LTAY 142350Z 07004KT 040V110 9999 SCT035 BKN100 04/01 Q1002,LTAY,2019-01-14T23:50:00Z,37.77,29.68,4.0,1.0,70,4,,6.21,29.586615,,,,,,,,,,,SCT,3500,BKN,10000,,,,,VFR,,,,,,,,,,,,METAR,849.0
MMPR 142349Z 21008KT 15SM BKN150 OVC250 26/23 A2997 RMK SLP144 52012 914 8/077 CU,MMPR,2019-01-14T23:49:00Z,20.67,-105.25,26.0,23.0,210,8,,15.0,29.970472,1014.4,,,,,,,,,,BKN,15000,OVC,25000,,,,,VFR,1.2,,,,,,,,,,,METAR,6.0
MMMD 142348Z 01003KT 7SM BKN020TCU 24/19 A3013 RMK SLP206 52003 912 8/200,MMMD,2019-01-14T23:48:00Z,20.95,-89.65,24.0,19.0,10,3,,7.0,30.129921,1020.6,,,,,,,,,,BKN,2000,,,,,,,MVFR,0.3,,,,,,,,,,,METAR,10.0
PAEC 142348Z 02004KT 30SM FEW070 M04/M09 A2990 RMK NOSPECI,PAEC,2019-01-14T23:48:00Z,62.88,-149.83,-4.0,-9.0,20,4,,30.0,29.899607,,,,,,,,,,,FEW,7000,,,,,,,VFR,,,,,,,,,,,,METAR,381.0
MMCU 142348Z 08005KT 10SM FEW070 BKN200 17/02 A3016 RMK SLP198 57003 924 8/032,MMCU,2019-01-14T23:48:00Z,28.7,-105.97,17.0,2.0,80,5,,10.0,30.159449,1019.8,,,,,,,,,,FEW,7000,BKN,20000,,,,,VFR,-0.3,,,,,,,,,,,METAR,1372.0
PADL 142347Z 06013G20KT 10SM FEW085 04/M01 A2945,PADL,2019-01-14T23:47:00Z,59.05,-158.5,4.0,-1.0,60,13,20,10.0,29.450787,,,,,,,,,,,FEW,8500,,,,,,,VFR,,,,,,,,,,,,METAR,26.0
KSEE 142347Z 00000KT 2SM RA BKN017 OVC035 11/10 A2997,KSEE,2019-01-14T23:47:00Z,32.82,-116.97,11.0,10.0,0,0,,2.0,29.970472,,,,,,,,,,RA,BKN,1700,OVC,3500,,,,,IFR,,,,,,,,,,,,METAR,117.0
MMCV 142347Z 30008KT 1SM -DZ BR BKN008 OVC010 13/13 A3030 RMK SLP285 52002 924 60025 8/6// VRB COND,MMCV,2019-01-14T23:47:00Z,23.72,-98.97,13.0,13.0,300,8,,1.0,30.301182,1028.5,,,,,,,,,-DZ BR,BKN,800,OVC,1000,,,,,IFR,0.2,,,,,,,0.25,,,,METAR,238.0
MMLT 142347Z 00000KT 10SM FEW030 SCT130 OVC200 19/16 A3002 RMK SLP166 8/537,MMLT,2019-01-14T23:47:00Z,26.02,-111.33,19.0,16.0,0,0,,10.0,30.02067,1016.6,,,,,,,,,,FEW,3000,SCT,13000,OVC,20000,,,VFR,,,,,,,,,,,,METAR,15.0
MMCE 142346Z 01011KT 7SM SCT010 BKN020 BKN280 24/21 A3010 RMK SLP190 57003 904 8/808,MMCE,2019-01-14T23:46:00Z,18.65,-91.8,24.0,21.0,10,11,,7.0,30.100393,1019.0,,,,,,,,,,SCT,1000,BKN,2000,BKN,28000,,,MVFR,-0.3,,,,,,,,,,,METAR,2.0
MMTC 142346Z 36006KT 15SM SCT110 BKN250 24/08 A3014 RMK SLP159 56010 924 8/072,MMTC,2019-01-14T23:46:00Z,25.57,-103.4,24.0,8.0,360,6,,15.0,30.138779,1015.9,,,,,,,,,,SCT,11000,BKN,25000,,,,,VFR,-1.0,,,,,,,,,,,METAR,1124.0
MMTO 142346Z 13010KT 7SM SCT020 SCT070 15/01 A3035 RMK SLP128 57001 952 8/230 HZY,MMTO,2019-01-14T23:46:00Z,19.35,-99.57,15.0,1.0,130,10,,7.0,30.351377,1012.8,,,,,,,,,,SCT,2000,SCT,7000,,,,,VFR,-0.1,,,,,,,,,,,METAR,2576.0
MMQT 142346Z 06010KT 10SM SKC 16/07 A3033 RMK CI,MMQT,2019-01-14T23:46:00Z,20.62,-100.18,16.0,7.0,60,10,,10.0,30.33071,,,,,,,,,,,SKC,,,,,,,,VFR,,,,,,,,,,,,METAR,1919.0
MMOX 142346Z 35005KT 12SM SCT040 SCT210 18/02 A3027 RMK SLP187 52014 905 8/406,MMOX,2019-01-14T23:46:00Z,17.0,-96.72,18.0,2.0,350,5,,12.0,30.268702,1018.7,,,,,,,,,,SCT,4000,SCT,21000,,,,,VFR,1.4,,,,,,,,,,,METAR,1528.0
MMML 142346Z 00000KT 10SM BKN050 OVC120 16/08 A3002 RMK SLP166 57007 967 8/72/ OCNL DROPS,MMML,2019-01-14T23:46:00Z,32.62,-115.23,16.0,8.0,0,0,,10.0,30.02067,1016.6,,,,,,,,,,BKN,5000,OVC,12000,,,,,VFR,-0.7,,,,,,,,,,,METAR,22.0
MMLP 142346Z 00000KT 7SM FEW020 BKN100 OVC200 18/18 A3006 RMK SLP180 57016 923 60045 8/537,MMLP,2019-01-14T23:46:00Z,24.07,-110.37,18.0,18.0,0,0,,7.0,30.059055,1018.0,,,,,,,,,,FEW,2000,BKN,10000,OVC,20000,,,VFR,-1.6,,,,,,,0.45,,,,METAR,21.0
RJTC 142345Z 00000KT 9999 FEW030 BKN170 BKN200 02/M04 Q1024 RMK 1CU030 5AC170 7CI200 A3024,RJTC,2019-01-14T23:45:00Z,35.7,139.4,2.0,-4.0,0,0,,6.21,30.236221,,,,,,,,,,,FEW,3000,BKN,17000,BKN,20000,,,VFR,,,,,,,,,,,,SPECI,98.0
KSWF 142345Z 00000KT 10SM SKC M06/M09 A3016,KSWF,2019-01-14T23:45:00Z,41.5,-74.08,-6.0,-9.0,0,0,,10.0,30.159449,,,,,,,,,,,SKC,,,,,,,,VFR,,,,,,,,,,,,METAR,150.0
KMOX 142345Z AUTO 32004KT 10SM OVC007 A3024 RMK AO1,KMOX,2019-01-14T23:45:00Z,45.57,-95.97,,,320,4,,10.0,30.239174,,,TRUE,TRUE,,,,,,,OVC,700,,,,,,,IFR,,,,,,,,,,,,METAR,344.0
MMIA 142345Z 25005KT 8SM SCT020 BKN200 24/18 A3004 RMK SLP/// 5//// 9// 8/201 CB-E,MMIA,2019-01-14T23:45:00Z,19.27,-103.57,24.0,18.0,250,5,,8.0,30.041338,,,,,,,,,,,SCT,2000,BKN,20000,,,,,VFR,,,,,,,,,,,,METAR,723.0
LHUD 142345Z 30014KT 9999 FEW026 01/M04 Q1008,LHUD,2019-01-14T23:45:00Z,46.25,20.1,1.0,-4.0,300,14,,6.21,29.763779,,,,,,,,,,,FEW,2600,,,,,,,VFR,,,,,,,,,,,,METAR,84.0
LHDC 142345Z 31008KT CAVOK 00/M06 Q1006 NOSIG,LHDC,2019-01-14T23:45:00Z,47.47,21.62,0.0,-6.0,310,8,,6.21,29.704725,,,,,,TRUE,,,,,CAVOK,,,,,,,,VFR,,,,,,,,,,,,METAR,112.0
MMPN 142345Z 00000KT 7SM SCT040CB SCT090 BKN120 BKN270 20/14 A3016 RMK 8/363 HZY ISOL DSNT CBS ARND,MMPN,2019-01-14T23:45:00Z,19.38,-102.02,20.0,14.0,0,0,,7.0,30.159449,,,,,,,,,,,SCT,4000,SCT,9000,BKN,12000,BKN,27000,VFR,,,,,,,,,,,,METAR,1593.0
MMCN 142345Z 27005KT 10SM BKN080 OVC200 21/11 A3001 RMK SLP163 8/037 HZY,MMCN,2019-01-14T23:45:00Z,27.4,-109.83,21.0,11.0,270,5,,10.0,30.008858,1016.3,,,,,,,,,,BKN,8000,OVC,20000,,,,,VFR,,,,,,,,,,,,METAR,43.0
MMBT 142345Z 00000KT 7SM BKN220 29/20 A2990 RMK 8/001 HZY,MMBT,2019-01-14T23:45:00Z,15.77,-96.27,29.0,20.0,0,0,,7.0,29.899607,,,,,,,,,,,BKN,22000,,,,,,,VFR,,,,,,,,,,,,METAR,143.0
KBBB 142345Z AUTO 02004KT 10SM OVC011 M03/M05 A3025 RMK AO1,KBBB,2019-01-14T23:45:00Z,45.32,-95.65,-3.0,-5.0,20,4,,10.0,30.250984,,,TRUE,TRUE,,,,,,,OVC,1100,,,,,,,MVFR,,,,,,,,,,,,SPECI,317.0
MMSP 142344Z 08010KT 15SM FEW018 OVC030 15/07 A3032 RMK SLP185 54000 908 8/5// BINOVC,MMSP,2019-01-14T23:44:00Z,22.25,-100.93,15.0,7.0,80,10,,15.0,30.318897,1018.5,,,,,,,,,,FEW,1800,OVC,3000,,,,,MVFR,,,,,,,,,,,,METAR,1903.0
MMLM 142344Z 00000KT 5SM -RA BKN020 OVC070 17/13 A3008 RMK SLP187 60415 8/77/ RAE20,MMLM,2019-01-14T23:44:00Z,25.67,-109.07,17.0,13.0,0,0,,5.0,30.079725,1018.7,,,,,,,,,-RA,BKN,2000,OVC,7000,,,,,MVFR,,,,,,,,,,,,METAR,4.0
MMSL 142344Z 30010KT 9SM -RA SCT040 BKN065 BKN100 OVC220 20/16 A3009 RMK 6//// 8/577 INTMNT RA,MMSL,2019-01-14T23:44:00Z,22.95,-109.93,20.0,16.0,300,10,,9.0,30.088583,,,,,,,,,,-RA,SCT,4000,BKN,6500,BKN,10000,OVC,22000,VFR,,,,,,,,,,,,METAR,140.0
MMMA 142344Z 36012KT 5SM BKN015 OVC070 14/12 A3030 RMK SLP261 54000 910 8/15/ HZ,MMMA,2019-01-14T23:44:00Z,25.77,-97.52,14.0,12.0,360,12,,5.0,30.301182,1026.1,,,,,,,,,,BKN,1500,OVC,7000,,,,,MVFR,,,,,,,,,,,,METAR,8.0
MMVR 142344Z 01010KT 7SM FEW010 SCT250 23/20 A3015 RMK SLP193 52003 904 8/104 HZY,MMVR,2019-01-14T23:44:00Z,19.15,-96.18,23.0,20.0,10,10,,7.0,30.15059,1019.3,,,,,,,,,,FEW,1000,SCT,25000,,,,,VFR,0.3,,,,,,,,,,,METAR,16.0
