No errors
No warnings
460 ms
data source=metars
5083 results
raw_text,station_id,observation_time,latitude,longitude,temp_c,dewpoint_c,wind_dir_degrees,wind_speed_kt,wind_gust_kt,visibility_statute_mi,altim_in_hg,sea_level_pressure_mb,corrected,auto,auto_station,maintenance_indicator_on,no_signal,lightning_sensor_off,freezing_rain_sensor_off,present_weather_sensor_off,wx_string,sky_cover,cloud_base_ft_agl,sky_cover,cloud_base_ft_agl,sky_cover,cloud_base_ft_agl,sky_cover,cloud_base_ft_agl,flight_category,three_hr_pressure_tendency_mb,maxT_c,minT_c,maxT24hr_c,minT24hr_c,precip_in,pcp3hr_in,pcp6hr_in,pcp24hr_in,snow_in,vert_vis_ft,metar_type,elevation_m
KHSD 171440Z AUTO 33008KT 7SM OVC007 04/03 A3017 RMK A01,KHSD,2019-01-17T14:40:00Z,35.6,-97.72,4.0,3.0,330,8,,7.0,30.171259,,,TRUE,TRUE,,,,,,,OVC,700,,,,,,,IFR,,,,,,,,,,,,METAR,364.0
KHQI 171440Z AUTO 10SM FEW020 FEW037 FEW065 22/18 A3018 RMK A01,KHQI,2019-01-17T14:40:00Z,27.93,-93.67,22.0,18.0,,,,10.0,30.180119,,,TRUE,TRUE,,,,,,,FEW,2000,FEW,3700,FEW,6500,,,VFR,,,,,,,,,,,,METAR,26.0
KEDU 171440Z AUTO 19011KT 10SM FEW027 SCT035 BKN048 13/10 A2990 RMK AO1,KEDU,2019-01-17T14:40:00Z,38.53,-121.78,13.0,10.0,190,11,,10.0,29.899607,,,TRUE,TRUE,,,,,,,FEW,2700,SCT,3500,BKN,4800,,,VFR,,,,,,,,,,,,METAR,21.0
SEGS 171440Z 21004KT 5000 -RA FEW010 BKN020 OVC070 25/23 Q1013 A2993 ,SEGS,2019-01-17T14:40:00Z,-0.45,-90.27,25.0,23.0,210,4,,3.11,29.911417,,,,,,,,,,-RA,FEW,1000,BKN,2000,OVC,7000,,,MVFR,,,,,,,,,,,,SPECI,16.0
KWBF 171440Z AUTO 00000KT 10SM CLR 21/15 A3024 RMK A01,KWBF,2019-01-17T14:40:00Z,,,21.0,15.0,0,0,,10.0,30.239174,,,TRUE,TRUE,,,,,,,CLR,,,,,,,,VFR,,,,,,,,,,,,METAR,
KGRY 171440Z AUTO 19006KT 10SM CLR 20/15 A3024 RMK A01,KGRY,2019-01-17T14:40:00Z,27.63,-90.45,20.0,15.0,190,6,,10.0,30.239174,,,TRUE,TRUE,,,,,,,CLR,,,,,,,,VFR,,,,,,,,,,,,METAR,58.0
KGOO 171440Z AUTO 18007G21KT 6SM OVC001 06/05 A2988 RMK AO1,KGOO,2019-01-17T14:40:00Z,39.22,-121.0,6.0,5.0,180,7,21,6.0,29.878937,,,TRUE,TRUE,,,,,,,OVC,100,,,,,,,LIFR,,,,,,,,,,,,METAR,962.0
KGHB 171440Z AUTO 21009KT 10SM CLR 22/16 A3023 RMK A01,KGHB,2019-01-17T14:40:00Z,27.83,-91.98,22.0,16.0,210,9,,10.0,30.230314,,,TRUE,TRUE,,,,,,,CLR,,,,,,,,VFR,,,,,,,,,,,,METAR,30.0
KFYM 171440Z AUTO 02004KT 2 1/2SM BR OVC024 05/04 A3019 RMK A01,KFYM,2019-01-17T14:40:00Z,35.07,-86.57,5.0,4.0,20,4,,2.5,30.188976,,,TRUE,TRUE,,,,,,BR,OVC,2400,,,,,,,IFR,,,,,,,,,,,,METAR,300.0
KEMK 171440Z AUTO 28015G20KT 5SM HZ FEW016 BKN023 OVC031 21/18 A3019 RMK A01,KEMK,2019-01-17T14:40:00Z,27.82,-94.32,21.0,18.0,280,15,20,5.0,30.188976,,,TRUE,TRUE,,,,,,HZ,FEW,1600,BKN,2300,OVC,3100,,,MVFR,,,,,,,,,,,,METAR,26.0
KSIF 171440Z AUTO 10SM BKN010 00/M01 A3031 RMK AO2 T10011015,KSIF,2019-01-17T14:40:00Z,36.43,-79.85,-0.1,-1.5,,,,10.0,30.31004,,,TRUE,TRUE,,,,,,,BKN,1000,,,,,,,MVFR,,,,,,,,,,,,SPECI,211.0
EKSB 171439Z 36013KT 1000 R14/P1500N R32/P1500N SHRASN SCT006 BKN015 01/M00 Q0994,EKSB,2019-01-17T14:39:00Z,54.97,9.8,1.0,0.0,360,13,,0.62,29.350393,,,,,,,,,,SHRA SN,SCT,600,BKN,1500,,,,,LIFR,,,,,,,,,,,,SPECI,23.0
CYPH 171439Z AUTO 22005KT 4SM HZ FEW012 M29/M33 A2983 RMK SLP106,CYPH,2019-01-17T14:39:00Z,58.45,-78.08,-29.0,-33.0,220,5,,4.0,29.828741,1010.6,,TRUE,,,,,,,HZ,FEW,1200,,,,,,,MVFR,,,,,,,,,,,,SPECI,3.0
CYAY 171439Z AUTO 17013KT 2 1/2SM -SN FEW009 OVC025 M03/M03 A2950 RMK ICG SLP993,CYAY,2019-01-17T14:39:00Z,51.38,-56.07,-3.0,-3.0,170,13,,2.5,29.500984,999.3,,TRUE,,,,,,,-SN,FEW,900,OVC,2500,,,,,IFR,,,,,,,,,,,,SPECI,28.0
KMKT 171438Z AUTO 30008KT 9SM -SN OVC031 M07/M09 A3010 RMK AO2 SNB09 P0000 FZRANO,KMKT,2019-01-17T14:38:00Z,44.22,-93.92,-7.0,-9.0,300,8,,9.0,30.100393,,,TRUE,TRUE,,,,TRUE,,-SN,OVC,3100,,,,,,,VFR,,,,,,0.005,,,,,,SPECI,311.0
PAVA 171438Z AUTO 22003KT 4SM -SN BR BKN030 OVC038 M09/M11 A2971 RMK AO2 FZRANO PNO $,PAVA,2019-01-17T14:38:00Z,61.53,-165.6,-9.0,-11.0,220,3,,4.0,29.71063,,,TRUE,TRUE,TRUE,,,TRUE,,-SN BR,BKN,3000,OVC,3800,,,,,MVFR,,,,,,,,,,,,SPECI,23.0
KHEZ 171437Z AUTO 17013KT 10SM BKN009 OVC017 11/09 A3016 RMK AO2,KHEZ,2019-01-17T14:37:00Z,31.62,-91.3,11.0,9.0,170,13,,10.0,30.159449,,,TRUE,TRUE,,,,,,,BKN,900,OVC,1700,,,,,IFR,,,,,,,,,,,,SPECI,83.0
EHGR 171437Z AUTO 28015G25KT 260V330 5000 RA FEW007 BKN015 OVC020 03/01 Q1005 WHT 28012KT 9999 SCT025 BKN035 TEMPO 30015G25KT 2500 SHRAGS SCT005 BKN010 SCT015CB,EHGR,2019-01-17T14:37:00Z,51.57,4.92,3.0,1.0,280,15,25,6.21,29.675198,,,TRUE,,,,,,,RA,FEW,700,BKN,1500,OVC,2000,SCT,2500,MVFR,,,,,,,,,,,,SPECI,13.0
PAPG 171437Z AUTO 00000KT 3/4SM BR OVC001 M03/M04 A2961 RMK AO2 FZRANO,PAPG,2019-01-17T14:37:00Z,56.82,-132.97,-3.0,-4.0,0,0,,0.75,29.610237,,,TRUE,TRUE,,,,TRUE,,BR,OVC,100,,,,,,,LIFR,,,,,,,,,,,,SPECI,15.0
PAFE 171437Z AUTO 00000KT 1/2SM FZFG BKN001 M03/M04 A2963 RMK AO2 FZRANO,PAFE,2019-01-17T14:37:00Z,56.97,-133.92,-3.0,-4.0,0,0,,0.5,29.630905,,,TRUE,TRUE,,,,TRUE,,FZFG,BKN,100,,,,,,,LIFR,,,,,,,,,,,,SPECI,9.0
KYKN 171437Z AUTO 36003KT 1 3/4SM BR OVC005 M06/M07 A3011 RMK AO2 FZRANO,KYKN,2019-01-17T14:37:00Z,42.92,-97.37,-6.0,-7.0,360,3,,1.75,30.109253,,,TRUE,TRUE,,,,TRUE,,BR,OVC,500,,,,,,,IFR,,,,,,,,,,,,SPECI,398.0
KOKK 171437Z AUTO 12007KT 2SM -SN BR OVC005 00/00 A3008 RMK AO2 P0000 FZRANO,KOKK,2019-01-17T14:37:00Z,40.53,-86.07,0.0,0.0,120,7,,2.0,30.079725,,,TRUE,TRUE,,,,TRUE,,-SN BR,OVC,500,,,,,,,IFR,,,,,,0.005,,,,,,SPECI,253.0
KQFR 171437Z AUTO 00000KT 10SM CLR M09/M14 A2968 RMK AO1,KQFR,2019-01-17T14:37:00Z,,,-9.0,-14.0,0,0,,10.0,29.681103,,,TRUE,TRUE,,,,,,,CLR,,,,,,,,VFR,,,,,,,,,,,,METAR,
CYPD 171437Z AUTO 29020G30KT 9SM SCT021 M10/M16 A3003 RMK SLP178,CYPD,2019-01-17T14:37:00Z,45.67,-61.37,-10.0,-16.0,290,20,30,9.0,30.029528,1017.8,,TRUE,,,,,,,,SCT,2100,,,,,,,VFR,,,,,,,,,,,,SPECI,114.0
KMLP 171437Z AUTO 13011G18KT 2SM -SN BR OVC002 M06/M08 A2960 RMK AO2 SNB25 P0000 T10611078,KMLP,2019-01-17T14:37:00Z,47.45,-115.67,-6.1,-7.8,130,11,18,2.0,29.601377,,,TRUE,TRUE,,,,,,-SN BR,OVC,200,,,,,,,LIFR,,,,,,0.005,,,,,,SPECI,1837.0
KLWC 171437Z AUTO 32006KT 1 3/4SM BR OVC004 01/M01 A3012 RMK AO2 T00061006,KLWC,2019-01-17T14:37:00Z,39.02,-95.22,0.6,-0.6,320,6,,1.75,30.121063,,,TRUE,TRUE,,,,,,BR,OVC,400,,,,,,,LIFR,,,,,,,,,,,,SPECI,253.0
KLUK 171437Z 00000KT 7SM SCT010 OVC033 02/01 A3014 RMK AO2 RAE32 P0000 T00170006,KLUK,2019-01-17T14:37:00Z,39.1,-84.42,1.7,0.6,0,0,,7.0,30.138779,,,,TRUE,,,,,,,SCT,1000,OVC,3300,,,,,VFR,,,,,,0.005,,,,,,SPECI,155.0
KJLN 171437Z 35004KT 1SM BR OVC002 05/04 A3007 RMK AO2 T00500044,KJLN,2019-01-17T14:37:00Z,37.15,-94.5,5.0,4.4,350,4,,1.0,30.070866,,,,TRUE,,,,,,BR,OVC,200,,,,,,,LIFR,,,,,,,,,,,,SPECI,299.0
KGEZ 171437Z AUTO 13008KT 4SM -RA BR SCT024 BKN060 OVC075 02/00 A3007 RMK AO2 P0000 T00170000,KGEZ,2019-01-17T14:37:00Z,39.58,-85.8,1.7,0.0,130,8,,4.0,30.070866,,,TRUE,TRUE,,,,,,-RA BR,SCT,2400,BKN,6000,OVC,7500,,,MVFR,,,,,,0.005,,,,,,SPECI,245.0
KFUL 171437Z 17007KT 3SM -RA BR OVC005 16/14 A3010 RMK AO2 CIG 004V008 P0004 T01610144,KFUL,2019-01-17T14:37:00Z,33.87,-117.98,16.1,14.4,170,7,,3.0,30.100393,,,,TRUE,,,,,,-RA BR,OVC,500,,,,,,,IFR,,,,,,0.04,,,,,,SPECI,35.0
KFDY 171437Z AUTO 13009KT 6SM BR BKN028 OVC033 M01/M03 A3014 RMK AO2 T10061028,KFDY,2019-01-17T14:37:00Z,41.02,-83.67,-0.6,-2.8,130,9,,6.0,30.138779,,,TRUE,TRUE,,,,,,BR,BKN,2800,OVC,3300,,,,,MVFR,,,,,,,,,,,,SPECI,247.0
KBHM 171437Z 13003KT 2SM -RA OVC030 07/04 A3025 RMK AO2 SFC VIS 4 RAB17 P0003 T00670039,KBHM,2019-01-17T14:37:00Z,33.57,-86.75,6.7,3.9,130,3,,2.0,30.250984,,,,TRUE,,,,,,-RA,OVC,3000,,,,,,,IFR,,,,,,0.03,,,,,,SPECI,197.0
CYKG 171437Z 29005KT 5SM -SN FEW016 SCT030 BKN050 BKN080 OVC250 M25/M29 A2969 RMK SC1SC3SC2AS1CI1 SLP080,CYKG,2019-01-17T14:37:00Z,61.57,-71.92,-25.0,-29.0,290,5,,5.0,29.68996,1008.0,,,,,,,,,-SN,FEW,1600,SCT,3000,BKN,5000,BKN,8000,MVFR,,,,,,,,,,,,SPECI,151.0
KROS 171436Z AUTO 35003KT 10SM OVC043 M13/M16 A3010 RMK AO2 T11351162,KROS,2019-01-17T14:36:00Z,45.7,-92.95,-13.5,-16.2,350,3,,10.0,30.100393,,,TRUE,TRUE,,,,,,,OVC,4300,,,,,,,VFR,,,,,,,,,,,,METAR,281.0
KRGK 171436Z AUTO 00000KT 10SM SCT035 OVC050 M06/M09 A3008 RMK AO2,KRGK,2019-01-17T14:36:00Z,44.58,-92.48,-6.0,-9.0,0,0,,10.0,30.079725,,,TRUE,TRUE,,,,,,,SCT,3500,OVC,5000,,,,,VFR,,,,,,,,,,,,METAR,239.0
KPHN 171436Z AUTO 12007KT 10SM BKN110 M05/M08 A3023 RMK AO2,KPHN,2019-01-17T14:36:00Z,42.92,-82.52,-5.0,-8.0,120,7,,10.0,30.230314,,,TRUE,TRUE,,,,,,,BKN,11000,,,,,,,VFR,,,,,,,,,,,,METAR,198.0
KFPK 171436Z AUTO 14003KT 10SM OVC030 M04/M06 A3014 RMK AO2 T10381060,KFPK,2019-01-17T14:36:00Z,42.57,-84.82,-3.8,-6.0,140,3,,10.0,30.138779,,,TRUE,TRUE,,,,,,,OVC,3000,,,,,,,MVFR,,,,,,,,,,,,METAR,272.0
KHZL 171436Z AUTO 05004KT 10SM CLR M04/M12 A3033 RMK AO2,KHZL,2019-01-17T14:36:00Z,40.98,-76.0,-4.0,-12.0,50,4,,10.0,30.33071,,,TRUE,TRUE,,,,,,,CLR,,,,,,,,VFR,,,,,,,,,,,,METAR,489.0
KIRS 171436Z AUTO 11006KT 3SM BR OVC008 M02/M04 A3011 RMK AO2 T10251041,KIRS,2019-01-17T14:36:00Z,41.8,-85.43,-2.5,-4.1,110,6,,3.0,30.109253,,,TRUE,TRUE,,,,,,BR,OVC,800,,,,,,,IFR,,,,,,,,,,,,METAR,282.0
KAMN 171436Z AUTO 09003KT 10SM SCT013 OVC032 M06/M08 A3019 RMK AO2 T10601085,KAMN,2019-01-17T14:36:00Z,43.32,-84.68,-6.0,-8.5,90,3,,10.0,30.188976,,,TRUE,TRUE,,,,,,,SCT,1300,OVC,3200,,,,,VFR,,,,,,,,,,,,METAR,230.0
KAUM 171436Z AUTO 29005KT 5SM -SN SCT020 BKN025 OVC039 M03/M08 A3007 RMK AO2,KAUM,2019-01-17T14:36:00Z,43.67,-92.92,-3.0,-8.0,290,5,,5.0,30.070866,,,TRUE,TRUE,,,,,,-SN,SCT,2000,BKN,2500,OVC,3900,,,MVFR,,,,,,,,,,,,METAR,375.0
KBAX 171436Z AUTO 16006KT 10SM OVC026 M07/M10 A3022 RMK AO2 T10741098,KBAX,2019-01-17T14:36:00Z,43.78,-82.98,-7.4,-9.8,160,6,,10.0,30.221457,,,TRUE,TRUE,,,,,,,OVC,2600,,,,,,,MVFR,,,,,,,,,,,,METAR,234.0
KY63 171436Z AUTO 30005KT 10SM OVC085 M17/M19 A3013 RMK AO2 T11671195,KY63,2019-01-17T14:36:00Z,45.98,-96.0,-16.7,-19.5,300,5,,10.0,30.129921,,,TRUE,TRUE,,,,,,,OVC,8500,,,,,,,VFR,,,,,,,,,,,,METAR,367.0
KJYG 171436Z AUTO 30006KT 10SM BKN009 OVC060 M07/M08 A3011 RMK AO2,KJYG,2019-01-17T14:36:00Z,43.98,-94.55,-7.0,-8.0,300,6,,10.0,30.109253,,,TRUE,TRUE,,,,,,,BKN,900,OVC,6000,,,,,IFR,,,,,,,,,,,,METAR,325.0
KY70 171436Z AUTO 12005KT 10SM OVC032 M05/M08 A3015 RMK AO2 T10461076,KY70,2019-01-17T14:36:00Z,42.93,-85.07,-4.6,-7.6,120,5,,10.0,30.15059,,,TRUE,TRUE,,,,,,,OVC,3200,,,,,,,VFR,,,,,,,,,,,,METAR,250.0
K14Y 171436Z AUTO 00000KT OVC090 M18/M21 A3009 RMK AO2 PWINO,K14Y,2019-01-17T14:36:00Z,45.9,-94.87,-18.0,-21.0,0,0,,,30.088583,,,TRUE,TRUE,,,,,TRUE,,OVC,9000,,,,,,,,,,,,,,,,,,,METAR,406.0
K04V 171436Z AUTO 00000KT 10SM CLR M11/M13 A3023 RMK AO2,K04V,2019-01-17T14:36:00Z,38.1,-106.17,-11.0,-13.0,0,0,,10.0,30.230314,,,TRUE,TRUE,,,,,,,CLR,,,,,,,,VFR,,,,,,,,,,,,METAR,2385.0
KEIK 171436Z AUTO 19011KT 10SM CLR 05/M08 A3004 RMK AO2 T00451078,KEIK,2019-01-17T14:36:00Z,40.02,-105.05,4.5,-7.8,190,11,,10.0,30.041338,,,TRUE,TRUE,,,,,,,CLR,,,,,,,,VFR,,,,,,,,,,,,METAR,1564.0
KDUH 171436Z AUTO 11003KT 10SM OVC033 M02/M05 A3018 RMK AO2 T10251053,KDUH,2019-01-17T14:36:00Z,41.73,-83.65,-2.5,-5.3,110,3,,10.0,30.180119,,,TRUE,TRUE,,,,,,,OVC,3300,,,,,,,VFR,,,,,,,,,,,,METAR,204.0
KD95 171436Z AUTO 13006KT 10SM SCT016 OVC120 M06/M09 A3020 RMK AO2 T10571090,KD95,2019-01-17T14:36:00Z,43.07,-83.27,-5.7,-9.0,130,6,,10.0,30.200787,,,TRUE,TRUE,,,,,,,SCT,1600,OVC,12000,,,,,VFR,,,,,,,,,,,,METAR,255.0
KRQB 171436Z AUTO 00000KT 10SM OVC027 M08/M10 A3015 RMK AO2 T10811101,KRQB,2019-01-17T14:36:00Z,43.72,-85.5,-8.1,-10.1,0,0,,10.0,30.15059,,,TRUE,TRUE,,,,,,,OVC,2700,,,,,,,MVFR,,,,,,,,,,,,METAR,302.0
KPWC 171436Z AUTO 00000KT 10SM SCT090 M21/M24 A3012 RMK AO2,KPWC,2019-01-17T14:36:00Z,46.72,-94.37,-21.0,-24.0,0,0,,10.0,30.121063,,,TRUE,TRUE,,,,,,,SCT,9000,,,,,,,VFR,,,,,,,,,,,,METAR,395.0
KISQ 171436Z AUTO 00000KT 10SM SCT036 SCT100 M12/M17 A3015 RMK AO2 T11201174,KISQ,2019-01-17T14:36:00Z,45.97,-86.17,-12.0,-17.4,0,0,,10.0,30.15059,,,TRUE,TRUE,,,,,,,SCT,3600,SCT,10000,,,,,VFR,,,,,,,,,,,,METAR,209.0
KIMS 171436Z AUTO 11005KT 2SM SCT003 BKN025 OVC032 02/02 A3011 RMK AO1,KIMS,2019-01-17T14:36:00Z,38.75,-85.47,2.0,2.0,110,5,,2.0,30.109253,,,TRUE,TRUE,,,,,,,SCT,300,BKN,2500,OVC,3200,,,IFR,,,,,,,,,,,,METAR,250.0
KDXX 171436Z AUTO 33006KT 10SM OVC090 M12/M14 A3015 RMK AO2,KDXX,2019-01-17T14:36:00Z,44.98,-96.18,-12.0,-14.0,330,6,,10.0,30.15059,,,TRUE,TRUE,,,,,,,OVC,9000,,,,,,,VFR,,,,,,,,,,,,METAR,330.0
KDTL 171436Z AUTO 00000KT 10SM OVC032 M17/M20 A3011 RMK AO2,KDTL,2019-01-17T14:36:00Z,46.82,-95.87,-17.0,-20.0,0,0,,10.0,30.109253,,,TRUE,TRUE,,,,,,,OVC,3200,,,,,,,VFR,,,,,,,,,,,,METAR,426.0
KCKN 171436Z AUTO 00000KT 10SM OVC040 M16/M19 A3016 RMK AO2,KCKN,2019-01-17T14:36:00Z,47.85,-96.62,-16.0,-19.0,0,0,,10.0,30.159449,,,TRUE,TRUE,,,,,,,OVC,4000,,,,,,,VFR,,,,,,,,,,,,METAR,273.0
KBJI 171436Z AUTO 00000KT 10SM OVC030 M22/M25 A3008 RMK AO2 T12211248,KBJI,2019-01-17T14:36:00Z,47.5,-94.92,-22.1,-24.8,0,0,,10.0,30.079725,,,TRUE,TRUE,,,,,,,OVC,3000,,,,,,,MVFR,,,,,,,,,,,,METAR,420.0
KOVL 171436Z AUTO 31006KT 10SM OVC033 M10/M12 A3011 RMK AO2,KOVL,2019-01-17T14:36:00Z,44.78,-95.03,-10.0,-12.0,310,6,,10.0,30.109253,,,TRUE,TRUE,,,,,,,OVC,3300,,,,,,,VFR,,,,,,,,,,,,METAR,328.0
KOSC 171436Z AUTO 00000KT 10SM CLR M14/M17 A3023 RMK AO2 T11451167,KOSC,2019-01-17T14:36:00Z,44.45,-83.4,-14.5,-16.7,0,0,,10.0,30.230314,,,TRUE,TRUE,,,,,,,CLR,,,,,,,,VFR,,,,,,,,,,,,METAR,193.0
KMZH 171436Z AUTO 00000KT 10SM OVC100 M17/M20 A3008 RMK AO2,KMZH,2019-01-17T14:36:00Z,46.42,-92.8,-17.0,-20.0,0,0,,10.0,30.079725,,,TRUE,TRUE,,,,,,,OVC,10000,,,,,,,VFR,,,,,,,,,,,,METAR,328.0
KMRT 171436Z AUTO 14003KT 10SM BKN018 OVC029 00/M02 A3015 RMK AO2 T00001025,KMRT,2019-01-17T14:36:00Z,40.22,-83.35,0.0,-2.5,140,3,,10.0,30.15059,,,TRUE,TRUE,,,,,,,BKN,1800,OVC,2900,,,,,MVFR,,,,,,,,,,,,METAR,312.0
KMJQ 171436Z AUTO 32005KT 10SM OVC035 M06/M08 A3008 RMK AO2,KMJQ,2019-01-17T14:36:00Z,43.63,-94.97,-6.0,-8.0,320,5,,10.0,30.079725,,,TRUE,TRUE,,,,,,,OVC,3500,,,,,,,VFR,,,,,,,,,,,,METAR,441.0
KVBG 171436Z AUTO 18004KT 9SM -RA FEW035 SCT047 BKN055 OVC075 13/13 A3007 RMK AO2 RAB36 SLP185,KVBG,2019-01-17T14:36:00Z,34.73,-120.58,13.0,13.0,180,4,,9.0,30.070866,1018.5,,TRUE,TRUE,,,,,,-RA,FEW,3500,SCT,4700,BKN,5500,OVC,7500,VFR,,,,,,,,,,,,SPECI,112.0
KBLV 171436Z AUTO 32003KT 1/4SM R32L/2000V2400FT FG VV004 02/01 A3003 RMK AO2 CIG 001 RWY14L CIG 000 RWY14R CIG 001 RWY32R SLP176 $,KBLV,2019-01-17T14:36:00Z,38.53,-89.83,2.0,1.0,320,3,,0.25,30.029528,1017.6,,TRUE,TRUE,TRUE,,,,,FG,OVX,0,,,,,,,LIFR,,,,,,,,,,,400,SPECI,138.0
ETMN 171436Z 30014KT 4000 -SHRAGS BKN018CB 04/01 Q0996 GRN BLU TEMPO GRN,ETMN,2019-01-17T14:36:00Z,53.77,8.67,4.0,1.0,300,14,,2.49,29.409449,,,,,,,,,,-SHRA -SHGS,BKN,1800,,,,,,,IFR,,,,,,,,,,,,SPECI,31.0
KUNO 171436Z AUTO 00000KT 3SM BR OVC007 06/06 A3002 RMK AO2 T00610056,KUNO,2019-01-17T14:36:00Z,36.88,-91.9,6.1,5.6,0,0,,3.0,30.02067,,,TRUE,TRUE,,,,,,BR,OVC,700,,,,,,,IFR,,,,,,,,,,,,SPECI,372.0
KSGF 171436Z 34007KT 3/4SM BR VV003 06/05 A3003 RMK AO2 T00610050,KSGF,2019-01-17T14:36:00Z,37.23,-93.38,6.1,5.0,340,7,,0.75,30.029528,,,,TRUE,,,,,,BR,OVX,0,,,,,,,LIFR,,,,,,,,,,,300,SPECI,390.0
KMLF 171436Z AUTO 20018KT 10SM OVC039 03/01 A3001 RMK AO2 WSHFT 1422 T00330011,KMLF,2019-01-17T14:36:00Z,38.42,-113.02,3.3,1.1,200,18,,10.0,30.008858,,,TRUE,TRUE,,,,,,,OVC,3900,,,,,,,VFR,,,,,,,,,,,,SPECI,1534.0
KEVV 171436Z 17006KT 1SM R22/P6000FT BR OVC005 06/06 A3005 RMK AO2 RAE30 P0002 T00560056,KEVV,2019-01-17T14:36:00Z,38.05,-87.52,5.6,5.6,170,6,,1.0,30.050198,,,,TRUE,,,,,,BR,OVC,500,,,,,,,IFR,,,,,,0.02,,,,,,SPECI,117.0
KDIK 171436Z AUTO 02004KT 1SM -SN BR OVC005 M06/M08 A3000 RMK AO2 SNB24 P0000 T10611078,KDIK,2019-01-17T14:36:00Z,46.8,-102.8,-6.1,-7.8,20,4,,1.0,30.0,,,TRUE,TRUE,,,,,,-SN BR,OVC,500,,,,,,,IFR,,,,,,0.005,,,,,,SPECI,788.0
KAZO 171436Z 12005KT 10SM OVC017 M03/M07 A3013 RMK AO2 T10331067,KAZO,2019-01-17T14:36:00Z,42.23,-85.55,-3.3,-6.7,120,5,,10.0,30.129921,,,,TRUE,,,,,,,OVC,1700,,,,,,,MVFR,,,,,,,,,,,,SPECI,272.0
CYZG 171436Z 26003KT 3SM IC HZ FEW014 BKN030 M32/M35 A2971 RMK ST2SC3 SLP101,CYZG,2019-01-17T14:36:00Z,62.17,-75.67,-32.0,-35.0,260,3,,3.0,29.71063,1010.1,,,,,,,,,IC HZ,FEW,1400,BKN,3000,,,,,MVFR,,,,,,,,,,,,SPECI,226.0
KOZW 171436Z AUTO 12009KT 10SM OVC035 M04/M07 A3016 RMK AO2 T10401066,KOZW,2019-01-17T14:36:00Z,42.62,-83.97,-4.0,-6.6,120,9,,10.0,30.159449,,,TRUE,TRUE,,,,,,,OVC,3500,,,,,,,VFR,,,,,,,,,,,,METAR,293.0
KONA 171436Z AUTO 00000KT 10SM SCT050 OVC055 M05/M07 A3010 RMK AO2,KONA,2019-01-17T14:36:00Z,44.07,-91.7,-5.0,-7.0,0,0,,10.0,30.100393,,,TRUE,TRUE,,,,,,,SCT,5000,OVC,5500,,,,,VFR,,,,,,,,,,,,METAR,200.0
KMWM 171436Z AUTO 30005KT 10SM SCT035 M08/M09 A3007 RMK AO2,KMWM,2019-01-17T14:36:00Z,43.9,-95.1,-8.0,-9.0,300,5,,10.0,30.070866,,,TRUE,TRUE,,,,,,,SCT,3500,,,,,,,VFR,,,,,,,,,,,,METAR,430.0
KMQY 171436Z 16008KT 6SM -RA BR SCT008 BKN025 OVC075 05/04 A3014 RMK AO2 P0006,KMQY,2019-01-17T14:36:00Z,36.02,-86.52,5.0,4.0,160,8,,6.0,30.138779,,,,TRUE,,,,,,-RA BR,SCT,800,BKN,2500,OVC,7500,,,MVFR,,,,,,0.06,,,,,,SPECI,166.0
KMOX 171436Z AUTO 31005KT 10SM OVC095 M18/M22 A3014 RMK AO2,KMOX,2019-01-17T14:36:00Z,45.57,-95.97,-18.0,-22.0,310,5,,10.0,30.138779,,,TRUE,TRUE,,,,,,,OVC,9500,,,,,,,VFR,,,,,,,,,,,,METAR,344.0
KMOP 171436Z AUTO 00000KT 10SM OVC030 M08/M11 A3018 RMK AO2 T10771112,KMOP,2019-01-17T14:36:00Z,43.62,-84.73,-7.7,-11.2,0,0,,10.0,30.180119,,,TRUE,TRUE,,,,,,,OVC,3000,,,,,,,MVFR,,,,,,,,,,,,METAR,230.0
KMGN 171436Z AUTO 09005KT 10SM SCT030 M10/M14 A3021 RMK AO2 T11051145,KMGN,2019-01-17T14:36:00Z,45.43,-84.92,-10.5,-14.5,90,5,,10.0,30.209646,,,TRUE,TRUE,,,,,,,SCT,3000,,,,,,,VFR,,,,,,,,,,,,METAR,209.0
KLKV 171436Z AUTO 13007KT 10SM -SN SCT021 OVC028 01/00 A2969 RMK AO2 RAE34SNB34 P0001 FZRANO,KLKV,2019-01-17T14:36:00Z,42.17,-120.4,1.0,0.0,130,7,,10.0,29.68996,,,TRUE,TRUE,,,,TRUE,,-SN,SCT,2100,OVC,2800,,,,,MVFR,,,,,,0.01,,,,,,SPECI,1441.0
KIKW 171436Z AUTO 10004KT 10SM OVC024 M07/M10 A3020 RMK AO2 T10661097,KIKW,2019-01-17T14:36:00Z,43.67,-84.27,-6.6,-9.7,100,4,,10.0,30.200787,,,TRUE,TRUE,,,,,,,OVC,2400,,,,,,,MVFR,,,,,,,,,,,,METAR,194.0
KHZX 171436Z AUTO 00000KT 10SM OVC090 M18/M21 A3009 RMK AO2,KHZX,2019-01-17T14:36:00Z,46.62,-93.32,-18.0,-21.0,0,0,,10.0,30.088583,,,TRUE,TRUE,,,,,,,OVC,9000,,,,,,,VFR,,,,,,,,,,,,METAR,374.0
KHCO 171436Z AUTO 34008KT 10SM BKN034 OVC100 M17/M20 A3019 RMK AO2,KHCO,2019-01-17T14:36:00Z,48.75,-96.93,-17.0,-20.0,340,8,,10.0,30.188976,,,TRUE,TRUE,,,,,,,BKN,3400,OVC,10000,,,,,VFR,,,,,,,,,,,,METAR,250.0
KHAI 171436Z AUTO 11005KT 4SM BR OVC010 M03/M05 A3012 RMK AO2 T10331055,KHAI,2019-01-17T14:36:00Z,41.97,-85.6,-3.3,-5.5,110,5,,4.0,30.121063,,,TRUE,TRUE,,,,,,BR,OVC,1000,,,,,,,MVFR,,,,,,,,,,,,METAR,251.0
KULM 171436Z AUTO 32007KT 10SM BKN038 M08/M10 A3010 RMK AO2,KULM,2019-01-17T14:36:00Z,44.32,-94.5,-8.0,-10.0,320,7,,10.0,30.100393,,,TRUE,TRUE,,,,,,,BKN,3800,,,,,,,VFR,,,,,,,,,,,,METAR,308.0
KTTF 171436Z AUTO 10009G14KT 10SM OVC014 M02/M03 A3018 RMK AO2 T10211035,KTTF,2019-01-17T14:36:00Z,41.93,-83.42,-2.1,-3.5,100,9,14,10.0,30.180119,,,TRUE,TRUE,,,,,,,OVC,1400,,,,,,,MVFR,,,,,,,,,,,,METAR,188.0
KTOB 171436Z AUTO 00000KT 5SM -SN OVC036 M06/M07 A3005 RMK AO2,KTOB,2019-01-17T14:36:00Z,44.02,-92.82,-6.0,-7.0,0,0,,5.0,30.050198,,,TRUE,TRUE,,,,,,-SN,OVC,3600,,,,,,,MVFR,,,,,,,,,,,,METAR,398.0
KTKC 171436Z AUTO 32003KT 10SM OVC025 M09/M10 A3010 RMK AO2 T10891100,KTKC,2019-01-17T14:36:00Z,44.25,-95.62,-8.9,-10.0,320,3,,10.0,30.100393,,,TRUE,TRUE,,,,,,,OVC,2500,,,,,,,MVFR,,,,,,,,,,,,METAR,408.0
KTEW 171436Z AUTO 14007KT 10SM OVC032 M04/M06 A3015 RMK AO2 T10381060,KTEW,2019-01-17T14:36:00Z,42.57,-84.42,-3.8,-6.0,140,7,,10.0,30.15059,,,TRUE,TRUE,,,,,,,OVC,3200,,,,,,,VFR,,,,,,,,,,,,METAR,280.0
KSLH 171436Z AUTO 16006KT 10SM BKN029 M10/M14 A3021 RMK AO2 T10981139,KSLH,2019-01-17T14:36:00Z,45.65,-84.52,-9.8,-13.9,160,6,,10.0,30.209646,,,TRUE,TRUE,,,,,,,BKN,2900,,,,,,,MVFR,,,,,,,,,,,,METAR,195.0
KSGS 171436Z AUTO 00000KT 7SM OVC021 M06/M09 A3009 RMK AO2 T10641087,KSGS,2019-01-17T14:36:00Z,44.87,-93.03,-6.4,-8.7,0,0,,7.0,30.088583,,,TRUE,TRUE,,,,,,,OVC,2100,,,,,,,MVFR,,,,,,,,,,,,METAR,250.0
KGAD 171436Z AUTO 00000KT 2 1/2SM RA BR OVC031 02/02 A3025 RMK AO2 P0002 FZRANO,KGAD,2019-01-17T14:36:00Z,33.97,-86.07,2.0,2.0,0,0,,2.5,30.250984,,,TRUE,TRUE,,,,TRUE,,RA BR,OVC,3100,,,,,,,IFR,,,,,,0.02,,,,,,SPECI,173.0
KCVX 171436Z AUTO 12003KT 10SM CLR M11/M14 A3023 RMK AO2 T11061145,KCVX,2019-01-17T14:36:00Z,45.3,-85.27,-10.6,-14.5,120,3,,10.0,30.230314,,,TRUE,TRUE,,,,,,,CLR,,,,,,,,VFR,,,,,,,,,,,,SPECI,204.0
KCOQ 171436Z AUTO 33005KT 10SM OVC100 M18/M22 A3006 RMK AO2,KCOQ,2019-01-17T14:36:00Z,46.7,-92.5,-18.0,-22.0,330,5,,10.0,30.059055,,,TRUE,TRUE,,,,,,,OVC,10000,,,,,,,VFR,,,,,,,,,,,,SPECI,390.0
KCFS 171436Z AUTO 10005KT 10SM SCT027 M07/M09 A3020 RMK AO2 T10721091,KCFS,2019-01-17T14:36:00Z,43.47,-83.45,-7.2,-9.1,100,5,,10.0,30.200787,,,TRUE,TRUE,,,,,,,SCT,2700,,,,,,,VFR,,,,,,,,,,,,SPECI,214.0
KCAD 171436Z AUTO 08004KT 10SM BKN012 OVC023 M11/M13 A3013 RMK AO2 T11151137,KCAD,2019-01-17T14:36:00Z,44.27,-85.42,-11.5,-13.7,80,4,,10.0,30.129921,,,TRUE,TRUE,,,,,,,BKN,1200,OVC,2300,,,,,MVFR,,,,,,,,,,,,SPECI,398.0
PASM 171436Z AUTO 08006KT 10SM SCT023 OVC034 M08/M11 A2969 RMK AO2 FZRANO,PASM,2019-01-17T14:36:00Z,62.07,-163.3,-8.0,-11.0,80,6,,10.0,29.68996,,,TRUE,TRUE,,,,TRUE,,,SCT,2300,OVC,3400,,,,,VFR,,,,,,,,,,,,SPECI,92.0
PAOU 171436Z AUTO 23009KT 3SM BR BKN004 OVC007 01/00 A2955 RMK AO2 UPE00 CIG 001V006 P0000 FZRANO,PAOU,2019-01-17T14:36:00Z,56.0,-161.17,1.0,0.0,230,9,,3.0,29.551182,,,TRUE,TRUE,,,,TRUE,,BR,BKN,400,OVC,700,,,,,LIFR,,,,,,0.005,,,,,,SPECI,4.0
CYQR 171436Z 01009KT 15SM BKN072 M16/M20 A3019 RMK AC7 SLP276,CYQR,2019-01-17T14:36:00Z,50.43,-104.67,-16.0,-20.0,10,9,,15.0,30.188976,1027.6,,,,,,,,,,BKN,7200,,,,,,,VFR,,,,,,,,,,,,SPECI,577.0
CYMH 171436Z AUTO 16008KT 1 3/4SM -SN FEW011 OVC023 M03/M04 A2949 RMK VIS VRB 1-2 1/2 PRESFR SLP987,CYMH,2019-01-17T14:36:00Z,52.28,-55.85,-3.0,-4.0,160,8,,1.75,29.489174,998.7,,TRUE,,,,,,,-SN,FEW,1100,OVC,2300,,,,,IFR,,,,,,,,,,,,SPECI,11.0
CYDQ 171436Z AUTO 04005KT 3SM -SN OVC013 M18/M21 A3015 RMK SLP275,CYDQ,2019-01-17T14:36:00Z,55.75,-120.17,-18.0,-21.0,40,5,,3.0,30.15059,1027.5,,TRUE,,,,,,,-SN,OVC,1300,,,,,,,MVFR,,,,,,,,,,,,SPECI,655.0
KY31 171436Z AUTO 00000KT 10SM OVC026 M12/M14 A3019 RMK AO2 T11161139,KY31,2019-01-17T14:36:00Z,44.25,-84.18,-11.6,-13.9,0,0,,10.0,30.188976,,,TRUE,TRUE,,,,,,,OVC,2600,,,,,,,MVFR,,,,,,,,,,,,METAR,269.0
KVWU 171436Z AUTO 29003KT 10SM BKN034 OVC100 M16/M20 A3009 RMK AO2,KVWU,2019-01-17T14:36:00Z,48.15,-94.52,-16.0,-20.0,290,3,,10.0,30.088583,,,TRUE,TRUE,,,,,,,BKN,3400,OVC,10000,,,,,VFR,,,,,,,,,,,,METAR,360.0
KHCD 171436Z AUTO 27004KT 10SM OVC036 M08/M11 A3011 RMK AO2 T10851108,KHCD,2019-01-17T14:36:00Z,44.87,-94.38,-8.5,-10.8,270,4,,10.0,30.109253,,,TRUE,TRUE,,,,,,,OVC,3600,,,,,,,VFR,,,,,,,,,,,,METAR,323.0
KMGG 171436Z AUTO 00000KT 10SM OVC038 M10/M13 A3010 RMK AO2 T11011127,KMGG,2019-01-17T14:36:00Z,45.23,-93.98,-10.1,-12.7,0,0,,10.0,30.100393,,,TRUE,TRUE,,,,,,,OVC,3800,,,,,,,VFR,,,,,,,,,,,,METAR,313.0
KI19 171436Z AUTO 16005KT 2SM -SN BKN012 OVC030 01/00 A3014 RMK AO2 T00051003,KI19,2019-01-17T14:36:00Z,39.7,-83.98,0.5,-0.3,160,5,,2.0,30.138779,,,TRUE,TRUE,,,,,,-SN,BKN,1200,OVC,3000,,,,,IFR,,,,,,,,,,,,METAR,289.0
KFKA 171436Z AUTO 00000KT 5SM BR BKN008 BKN038 M05/M06 A3006 RMK AO2 T10551065,KFKA,2019-01-17T14:36:00Z,43.68,-92.17,-5.5,-6.5,0,0,,5.0,30.059055,,,TRUE,TRUE,,,,,,BR,BKN,800,BKN,3800,,,,,IFR,,,,,,,,,,,,METAR,389.0
KFGN 171436Z AUTO 32006KT 10SM OVC060 M18/M21 A3013 RMK AO2,KFGN,2019-01-17T14:36:00Z,49.32,-94.9,-18.0,-21.0,320,6,,10.0,30.129921,,,TRUE,TRUE,,,,,,,OVC,6000,,,,,,,VFR,,,,,,,,,,,,METAR,328.0
K04W 171436Z AUTO 00000KT 10SM SCT027 OVC048 M15/M17 A3009 RMK AO2,K04W,2019-01-17T14:36:00Z,46.02,-92.9,-15.0,-17.0,0,0,,10.0,30.088583,,,TRUE,TRUE,,,,,,,SCT,2700,OVC,4800,,,,,VFR,,,,,,,,,,,,METAR,311.0
KGYL 171436Z AUTO 28006KT 10SM OVC035 M08/M10 A3010 RMK AO2 T10771098,KGYL,2019-01-17T14:36:00Z,44.77,-94.08,-7.7,-9.8,280,6,,10.0,30.100393,,,TRUE,TRUE,,,,,,,OVC,3500,,,,,,,VFR,,,,,,,,,,,,METAR,302.0
KMBY 171435Z AUTO 00000KT 1/2SM FG OVC002 00/M01 A3008 RMK AO2,KMBY,2019-01-17T14:35:00Z,39.47,-92.43,0.0,-1.0,0,0,,0.5,30.079725,,,TRUE,TRUE,,,,,,FG,OVC,200,,,,,,,LIFR,,,,,,,,,,,,SPECI,264.0
KONZ 171435Z AUTO 12008KT 10SM OVC039 M02/M06 A3020 RMK AO2 T10251058,KONZ,2019-01-17T14:35:00Z,42.1,-83.15,-2.5,-5.8,120,8,,10.0,30.200787,,,TRUE,TRUE,,,,,,,OVC,3900,,,,,,,VFR,,,,,,,,,,,,METAR,180.0
KORC 171435Z AUTO 00000KT 10SM SCT009 OVC026 M06/M07 A3009 RMK AO2,KORC,2019-01-17T14:35:00Z,42.97,-96.07,-6.0,-7.0,0,0,,10.0,30.088583,,,TRUE,TRUE,,,,,,,SCT,900,OVC,2600,,,,,MVFR,,,,,,,,,,,,METAR,431.0
KOQN 171435Z AUTO 04004KT 10SM CLR M02/M10 A3038 RMK AO2,KOQN,2019-01-17T14:35:00Z,39.98,-75.58,-2.0,-10.0,40,4,,10.0,30.380905,,,TRUE,TRUE,,,,,,,CLR,,,,,,,,VFR,,,,,,,,,,,,METAR,142.0
KSDA 171435Z AUTO 00000KT 4SM BR BKN034 OVC060 M03/M03 A3012 RMK AO2,KSDA,2019-01-17T14:35:00Z,40.75,-95.42,-3.0,-3.0,0,0,,4.0,30.121063,,,TRUE,TRUE,,,,,,BR,BKN,3400,OVC,6000,,,,,MVFR,,,,,,,,,,,,METAR,296.0
KSAZ 171435Z AUTO 00000KT 10SM OVC090 M20/M23 A3009 RMK AO2,KSAZ,2019-01-17T14:35:00Z,46.37,-94.8,-20.0,-23.0,0,0,,10.0,30.088583,,,TRUE,TRUE,,,,,,,OVC,9000,,,,,,,VFR,,,,,,,,,,,,METAR,392.0
KS33 171435Z AUTO 00000KT 2SM BR OVC003 M02/M02 A2960 RMK AO2,KS33,2019-01-17T14:35:00Z,44.67,-121.15,-2.0,-2.0,0,0,,2.0,29.601377,,,TRUE,TRUE,,,,,,BR,OVC,300,,,,,,,LIFR,,,,,,,,,,,,METAR,743.0
KS25 171435Z AUTO 00000KT 3SM BR SCT005 SCT015 BKN036 M09/M08 A3008 RMK AO2,KS25,2019-01-17T14:35:00Z,47.8,-103.25,-9.0,-8.0,0,0,,3.0,30.079725,,,TRUE,TRUE,,,,,,BR,SCT,500,SCT,1500,BKN,3600,,,MVFR,,,,,,,,,,,,METAR,644.0
KRYV 171435Z AUTO 10004KT 10SM OVC028 M03/M06 A3009 RMK AO2 T10351060,KRYV,2019-01-17T14:35:00Z,43.17,-88.72,-3.5,-6.0,100,4,,10.0,30.088583,,,TRUE,TRUE,,,,,,,OVC,2800,,,,,,,MVFR,,,,,,,,,,,,METAR,254.0
KRVL 171435Z AUTO 00000KT 10SM -SN CLR M04/M09 A3034 RMK AO2,KRVL,2019-01-17T14:35:00Z,40.68,-77.63,-4.0,-9.0,0,0,,10.0,30.339567,,,TRUE,TRUE,,,,,,-SN,CLR,,,,,,,,VFR,,,,,,,,,,,,METAR,250.0
KRRT 171435Z AUTO 32003KT 10SM CLR M17/M21 A3013 RMK AO2,KRRT,2019-01-17T14:35:00Z,48.93,-95.33,-17.0,-21.0,320,3,,10.0,30.129921,,,TRUE,TRUE,,,,,,,CLR,,,,,,,,VFR,,,,,,,,,,,,METAR,327.0
KRNH 171435Z AUTO 00000KT 10SM -SN OVC015 M07/M10 A3007 RMK AO2 T10711104,KRNH,2019-01-17T14:35:00Z,45.15,-92.53,-7.1,-10.4,0,0,,10.0,30.070866,,,TRUE,TRUE,,,,,,-SN,OVC,1500,,,,,,,MVFR,,,,,,,,,,,,METAR,304.0
KRDK 171435Z AUTO 36004KT 3SM BR OVC031 M03/M03 A3011 RMK AO2,KRDK,2019-01-17T14:35:00Z,41.02,-95.27,-3.0,-3.0,360,4,,3.0,30.109253,,,TRUE,TRUE,,,,,,BR,OVC,3100,,,,,,,MVFR,,,,,,,,,,,,METAR,318.0
KRBW 171435Z AUTO 00000KT 10SM CLR 07/02 A3031 RMK AO2,KRBW,2019-01-17T14:35:00Z,32.92,-80.63,7.0,2.0,0,0,,10.0,30.31004,,,TRUE,TRUE,,,,,,,CLR,,,,,,,,VFR,,,,,,,,,,,,METAR,31.0
KRAW 171435Z AUTO 33005KT 1/4SM FG OVC002 A3008 RMK AO2,KRAW,2019-01-17T14:35:00Z,38.35,-93.35,,,330,5,,0.25,30.079725,,,TRUE,TRUE,,,,,,FG,OVC,200,,,,,,,LIFR,,,,,,,,,,,,METAR,285.0
KPZQ 171435Z AUTO 17004KT 10SM SCT028 M11/M15 A3025 RMK AO2 T11091148,KPZQ,2019-01-17T14:35:00Z,45.4,-83.82,-10.9,-14.8,170,4,,10.0,30.250984,,,TRUE,TRUE,,,,,,,SCT,2800,,,,,,,VFR,,,,,,,,,,,,METAR,204.0
KPSO 171435Z AUTO 00000KT 5SM BR CLR M09/M09 A3026 RMK AO2 T10881088,KPSO,2019-01-17T14:35:00Z,37.28,-107.05,-8.8,-8.8,0,0,,5.0,30.259842,,,TRUE,TRUE,,,,,,BR,CLR,,,,,,,,MVFR,,,,,,,,,,,,METAR,2334.0
KPRO 171435Z AUTO 00000KT 4SM BR SCT016 OVC032 M03/M04 A3009 RMK AO2 T10351040,KPRO,2019-01-17T14:35:00Z,41.83,-94.17,-3.5,-4.0,0,0,,4.0,30.088583,,,TRUE,TRUE,,,,,,BR,SCT,1600,OVC,3200,,,,,MVFR,,,,,,,,,,,,METAR,308.0
KPQN 171435Z AUTO 34005KT 10SM OVC021 M08/M09 A3007 RMK AO2,KPQN,2019-01-17T14:35:00Z,43.97,-96.32,-8.0,-9.0,340,5,,10.0,30.070866,,,TRUE,TRUE,,,,,,,OVC,2100,,,,,,,MVFR,,,,,,,,,,,,METAR,529.0
KPLR 171435Z AUTO 00000KT 4SM BR FEW020 FEW025 OVC032 02/02 A3026 RMK A01,KPLR,2019-01-17T14:35:00Z,33.57,-86.25,2.0,2.0,0,0,,4.0,30.259842,,,TRUE,TRUE,,,,,,BR,FEW,2000,FEW,2500,OVC,3200,,,MVFR,,,,,,,,,,,,METAR,148.0
KPDC 171435Z AUTO 11003KT 10SM OVC013 M02/M05 A3010 RMK AO2 T10231053,KPDC,2019-01-17T14:35:00Z,43.02,-91.12,-2.3,-5.3,110,3,,10.0,30.100393,,,TRUE,TRUE,,,,,,,OVC,1300,,,,,,,MVFR,,,,,,,,,,,,METAR,201.0
KPCM 171435Z AUTO 03004KT 10SM CLR 13/07 A3029 RMK AO2,KPCM,2019-01-17T14:35:00Z,28.0,-82.17,13.0,7.0,30,4,,10.0,30.28937,,,TRUE,TRUE,,,,,,,CLR,,,,,,,,VFR,,,,,,,,,,,,METAR,47.0
KPAN 171435Z AUTO 04003KT 10SM CLR 01/M01 A3023 RMK AO2,KPAN,2019-01-17T14:35:00Z,34.25,-111.33,1.0,-1.0,40,3,,10.0,30.230314,,,TRUE,TRUE,,,,,,,CLR,,,,,,,,VFR,,,,,,,,,,,,METAR,1572.0
KOXV 171435Z AUTO 30004KT 2SM BR OVC005 M02/M02 A3009 RMK AO2,KOXV,2019-01-17T14:35:00Z,41.28,-93.12,-2.0,-2.0,300,4,,2.0,30.088583,,,TRUE,TRUE,,,,,,BR,OVC,500,,,,,,,IFR,,,,,,,,,,,,METAR,283.0
KORS 171435Z AUTO VRB03KT 10SM OVC045 07/03 A2949 RMK AO2,KORS,2019-01-17T14:35:00Z,48.7,-122.92,7.0,3.0,0,3,,10.0,29.489174,,,TRUE,TRUE,,,,,,,OVC,4500,,,,,,,VFR,,,,,,,,,,,,METAR,9.0
KLUM 171435Z AUTO 00000KT 3SM -SN SCT014 SCT021 OVC050 M08/M11 A3008 RMK AO2 T10851110,KLUM,2019-01-17T14:35:00Z,44.9,-91.87,-8.5,-11.0,0,0,,3.0,30.079725,,,TRUE,TRUE,,,,,,-SN,SCT,1400,SCT,2100,OVC,5000,,,MVFR,,,,,,,,,,,,METAR,273.0
KLNL 171435Z AUTO 00000KT 4SM -SN OVC025 M16/M18 A3005 RMK AO2 T11601180,KLNL,2019-01-17T14:35:00Z,46.15,-89.22,-16.0,-18.0,0,0,,4.0,30.050198,,,TRUE,TRUE,,,,,,-SN,OVC,2500,,,,,,,MVFR,,,,,,,,,,,,METAR,520.0
KLKR 171435Z AUTO 07005KT 6SM HZ CLR 02/M01 A3029 RMK AO2,KLKR,2019-01-17T14:35:00Z,34.72,-80.85,2.0,-1.0,70,5,,6.0,30.28937,,,TRUE,TRUE,,,,,,HZ,CLR,,,,,,,,VFR,,,,,,,,,,,,METAR,149.0
KLBO 171435Z AUTO 00000KT 1 1/2SM BR OVC002 05/05 A3004 RMK AO2,KLBO,2019-01-17T14:35:00Z,37.65,-92.65,5.0,5.0,0,0,,1.5,30.041338,,,TRUE,TRUE,,,,,,BR,OVC,200,,,,,,,LIFR,,,,,,,,,,,,METAR,403.0
KJSO 171435Z AUTO 23006KT 10SM BKN006 BKN010 OVC020 14/14 A3011 RMK AO2 T01450145,KJSO,2019-01-17T14:35:00Z,31.87,-95.22,14.5,14.5,230,6,,10.0,30.109253,,,TRUE,TRUE,,,,,,,BKN,600,BKN,1000,OVC,2000,,,IFR,,,,,,,,,,,,METAR,206.0
KINF 171435Z AUTO 36005KT 5SM HZ CLR 10/07 A3030 RMK AO2,KINF,2019-01-17T14:35:00Z,28.8,-82.32,10.0,7.0,360,5,,5.0,30.301182,,,TRUE,TRUE,,,,,,HZ,CLR,,,,,,,,MVFR,,,,,,,,,,,,METAR,15.0
KDYB 171435Z AUTO 00000KT 10SM CLR 06/03 A3033 RMK AO1,KDYB,2019-01-17T14:35:00Z,33.07,-80.28,6.0,3.0,0,0,,10.0,30.33071,,,TRUE,TRUE,,,,,,,CLR,,,,,,,,VFR,,,,,,,,,,,,METAR,18.0
KCKI 171435Z AUTO 00000KT 10SM CLR 05/02 A3031 RMK AO2,KCKI,2019-01-17T14:35:00Z,33.72,-79.85,5.0,2.0,0,0,,10.0,30.31004,,,TRUE,TRUE,,,,,,,CLR,,,,,,,,VFR,,,,,,,,,,,,METAR,21.0
K2J9 171435Z AUTO 00000KT 10SM CLR 06/03 A3029 RMK AO2,K2J9,2019-01-17T14:35:00Z,30.6,-84.55,6.0,3.0,0,0,,10.0,30.28937,,,TRUE,TRUE,,,,,,,CLR,,,,,,,,VFR,,,,,,,,,,,,METAR,69.0
KTVY 171435Z AUTO 19025G32KT 10SM CLR 07/01 A2991 RMK AO2,KTVY,2019-01-17T14:35:00Z,40.62,-112.35,7.0,1.0,190,25,32,10.0,29.911417,,,TRUE,TRUE,,,,,,,CLR,,,,,,,,VFR,,,,,,,,,,,,METAR,1317.0
KRUG 171435Z AUTO 33005KT 8SM OVC017 M14/M16 A3011 RMK AO2,KRUG,2019-01-17T14:35:00Z,48.38,-100.02,-14.0,-16.0,330,5,,8.0,30.109253,,,TRUE,TRUE,,,,,,,OVC,1700,,,,,,,MVFR,,,,,,,,,,,,METAR,472.0
KMAW 171435Z AUTO 19005KT 3SM BR OVC003 08/07 A3004 RMK AO2,KMAW,2019-01-17T14:35:00Z,36.6,-90.0,8.0,7.0,190,5,,3.0,30.041338,,,TRUE,TRUE,,,,,,BR,OVC,300,,,,,,,LIFR,,,,,,,,,,,,METAR,90.0
KM25 171435Z AUTO 20007KT 10SM OVC004 06/06 A3006 RMK AO2,KM25,2019-01-17T14:35:00Z,36.77,-88.58,6.0,6.0,200,7,,10.0,30.059055,,,TRUE,TRUE,,,,,,,OVC,400,,,,,,,LIFR,,,,,,,,,,,,METAR,160.0
KRID 171435Z AUTO 2 1/2SM -RA OVC004 00/00 A3010 RMK AO2,KRID,2019-01-17T14:35:00Z,39.75,-84.85,0.0,0.0,,,,2.5,30.100393,,,TRUE,TRUE,,,,,,-RA,OVC,400,,,,,,,LIFR,,,,,,,,,,,,METAR,348.0
KPTS 171435Z AUTO 34005KT 4SM BR OVC003 03/02 A3008 RMK AO2 T00250024,KPTS,2019-01-17T14:35:00Z,37.45,-94.73,2.5,2.4,340,5,,4.0,30.079725,,,TRUE,TRUE,,,,,,BR,OVC,300,,,,,,,LIFR,,,,,,,,,,,,METAR,290.0
KPOV 171435Z AUTO 11006KT 10SM BKN011 OVC033 M06/M09 A3022 RMK AO2 T10631090 PWINO,KPOV,2019-01-17T14:35:00Z,41.22,-81.25,-6.3,-9.0,110,6,,10.0,30.221457,,,TRUE,TRUE,,,,,TRUE,,BKN,1100,OVC,3300,,,,,MVFR,,,,,,,,,,,,METAR,365.0
KPNM 171435Z AUTO 00000KT 10SM OVC042 M12/M15 A3010 RMK AO2,KPNM,2019-01-17T14:35:00Z,45.57,-93.6,-12.0,-15.0,0,0,,10.0,30.100393,,,TRUE,TRUE,,,,,,,OVC,4200,,,,,,,VFR,,,,,,,,,,,,METAR,298.0
KPEA 171435Z AUTO 34003KT 1 3/4SM BR OVC004 M02/M03 A3011 RMK AO2 T10171030,KPEA,2019-01-17T14:35:00Z,41.4,-92.95,-1.7,-3.0,340,3,,1.75,30.109253,,,TRUE,TRUE,,,,,,BR,OVC,400,,,,,,,LIFR,,,,,,,,,,,,METAR,270.0
KMQJ 171435Z AUTO 16006KT 2SM OVC006 00/00 A3007 RMK AO1,KMQJ,2019-01-17T14:35:00Z,39.85,-85.9,0.0,0.0,160,6,,2.0,30.070866,,,TRUE,TRUE,,,,,,,OVC,600,,,,,,,IFR,,,,,,,,,,,,METAR,263.0
KLYV 171435Z AUTO 33005KT 10SM OVC026 M06/M08 A3010 RMK AO2,KLYV,2019-01-17T14:35:00Z,43.62,-96.22,-6.0,-8.0,330,5,,10.0,30.100393,,,TRUE,TRUE,,,,,,,OVC,2600,,,,,,,MVFR,,,,,,,,,,,,METAR,436.0
KRNP 171435Z AUTO 13005KT 10SM SCT035 BKN095 BKN120 M04/M07 A3018 RMK AO2 T10361066,KRNP,2019-01-17T14:35:00Z,43.0,-84.13,-3.6,-6.6,130,5,,10.0,30.180119,,,TRUE,TRUE,,,,,,,SCT,3500,BKN,9500,BKN,12000,,,VFR,,,,,,,,,,,,METAR,224.0
KRMY 171435Z AUTO 11006KT 10SM OVC023 M03/M05 A3013 RMK AO2 T10311051,KRMY,2019-01-17T14:35:00Z,42.23,-84.95,-3.1,-5.1,110,6,,10.0,30.129921,,,TRUE,TRUE,,,,,,,OVC,2300,,,,,,,MVFR,,,,,,,,,,,,METAR,287.0
KSJX 171435Z AUTO 16006KT 10SM OVC028 M06/M11 A3017 RMK AO2 T10641110,KSJX,2019-01-17T14:35:00Z,45.7,-85.57,-6.4,-11.0,160,6,,10.0,30.171259,,,TRUE,TRUE,,,,,,,OVC,2800,,,,,,,MVFR,,,,,,,,,,,,METAR,204.0
KRZT 171435Z AUTO 18004KT 10SM OVC031 00/M01 A3017 RMK AO2,KRZT,2019-01-17T14:35:00Z,39.43,-83.02,0.0,-1.0,180,4,,10.0,30.171259,,,TRUE,TRUE,,,,,,,OVC,3100,,,,,,,VFR,,,,,,,,,,,,METAR,221.0
KSTF 171435Z AUTO 20005KT 4SM OVC009 08/08 A3018 RMK AO2 PWINO,KSTF,2019-01-17T14:35:00Z,33.43,-88.85,8.0,8.0,200,5,,4.0,30.180119,,,TRUE,TRUE,,,,,TRUE,,OVC,900,,,,,,,IFR,,,,,,,,,,,,METAR,102.0
KSQL 171435Z AUTO 20010G14KT 8SM FEW008 BKN023 OVC060 14/09 A2993 RMK AO2,KSQL,2019-01-17T14:35:00Z,37.52,-122.25,14.0,9.0,200,10,14,8.0,29.929134,,,TRUE,TRUE,,,,,,,FEW,800,BKN,2300,OVC,6000,,,MVFR,,,,,,,,,,,,METAR,1.0
KY51 171435Z AUTO 14005KT 7SM BKN020 OVC025 M05/M05 A3006 RMK AO1 T10461046,KY51,2019-01-17T14:35:00Z,43.58,-90.9,-4.6,-4.6,140,5,,7.0,30.059055,,,TRUE,TRUE,,,,,,,BKN,2000,OVC,2500,,,,,MVFR,,,,,,,,,,,,METAR,394.0
KSVC 171435Z AUTO 02007KT 10SM CLR M03/M06 A3028 RMK AO2 T10281064,KSVC,2019-01-17T14:35:00Z,32.63,-108.15,-2.8,-6.4,20,7,,10.0,30.280512,,,TRUE,TRUE,,,,,,,CLR,,,,,,,,VFR,,,,,,,,,,,,METAR,1659.0
K22N 171435Z AUTO 09003KT 10SM CLR M04/M13 A3040 RMK AO2,K22N,2019-01-17T14:35:00Z,40.8,-75.77,-4.0,-13.0,90,3,,10.0,30.398623,,,TRUE,TRUE,,,,,,,CLR,,,,,,,,VFR,,,,,,,,,,,,METAR,163.0
K2V5 171435Z AUTO 26008KT 10SM CLR M03/M06 A3005 RMK AO2,K2V5,2019-01-17T14:35:00Z,40.1,-102.25,-3.0,-6.0,260,8,,10.0,30.050198,,,TRUE,TRUE,,,,,,,CLR,,,,,,,,VFR,,,,,,,,,,,,SPECI,1118.0
K4I3 171435Z AUTO 10006KT 5SM BR BKN029 M02/M02 A3017 RMK AO2,K4I3,2019-01-17T14:35:00Z,40.33,-82.53,-2.0,-2.0,100,6,,5.0,30.171259,,,TRUE,TRUE,,,,,,BR,BKN,2900,,,,,,,MVFR,,,,,,,,,,,,METAR,363.0
KGWR 171435Z AUTO 00000KT 10SM M14/M16 A3011 RMK A01,KGWR,2019-01-17T14:35:00Z,46.22,-97.65,-14.0,-16.0,0,0,,10.0,30.109253,,,TRUE,TRUE,,,,,,,,,,,,,,,,,,,,,,,,,,,METAR,386.0
KAIK 171435Z AUTO 07004KT 10SM CLR 02/02 A3028 RMK AO2,KAIK,2019-01-17T14:35:00Z,33.65,-81.68,2.0,2.0,70,4,,10.0,30.280512,,,TRUE,TRUE,,,,,,,CLR,,,,,,,,VFR,,,,,,,,,,,,METAR,161.0
KACB 171435Z AUTO 00000KT 10SM CLR M15/M16 A3022 RMK AO2 T11461165,KACB,2019-01-17T14:35:00Z,44.98,-85.2,-14.6,-16.5,0,0,,10.0,30.221457,,,TRUE,TRUE,,,,,,,CLR,,,,,,,,VFR,,,,,,,,,,,,SPECI,190.0
K9MN 171435Z AUTO 00000KT 4SM OVC042 M04/M05 A3007 RMK AO1 T10401048,K9MN,2019-01-17T14:35:00Z,44.02,-92.48,-4.0,-4.8,0,0,,4.0,30.070866,,,TRUE,TRUE,,,,,,,OVC,4200,,,,,,,MVFR,,,,,,,,,,,,METAR,355.0
KGPC 171435Z AUTO 00000KT 1 1/4SM -RA OVC004 01/00 A3005 RMK AO2 P0002,KGPC,2019-01-17T14:35:00Z,39.63,-86.82,1.0,0.0,0,0,,1.25,30.050198,,,TRUE,TRUE,,,,,,-RA,OVC,400,,,,,,,LIFR,,,,,,0.02,,,,,,METAR,257.0
KGNT 171435Z AUTO 17004KT 10SM CLR M03/M04 A3030 RMK AO2 T10311037,KGNT,2019-01-17T14:35:00Z,35.17,-107.9,-3.1,-3.7,170,4,,10.0,30.301182,,,TRUE,TRUE,,,,,,,CLR,,,,,,,,VFR,,,,,,,,,,,,METAR,1987.0
KFSW 171435Z AUTO 00000KT 1/4SM FZFG OVC002 M01/M01 A3008 RMK AO2,KFSW,2019-01-17T14:35:00Z,40.67,-91.32,-1.0,-1.0,0,0,,0.25,30.079725,,,TRUE,TRUE,,,,,,FZFG,OVC,200,,,,,,,LIFR,,,,,,,,,,,,METAR,221.0
KFSE 171435Z AUTO 00000KT 10SM OVC033 M18/M20 A3012 RMK AO2,KFSE,2019-01-17T14:35:00Z,47.58,-95.77,-18.0,-20.0,0,0,,10.0,30.121063,,,TRUE,TRUE,,,,,,,OVC,3300,,,,,,,VFR,,,,,,,,,,,,METAR,389.0
KFRH 171435Z AUTO 14006KT 5SM SCT012 SCT019 OVC029 04/00 A3005 RMK AO1,KFRH,2019-01-17T14:35:00Z,38.5,-86.63,4.0,0.0,140,6,,5.0,30.050198,,,TRUE,TRUE,,,,,,,SCT,1200,SCT,1900,OVC,2900,,,MVFR,,,,,,,,,,,,METAR,241.0
KFMM 171435Z AUTO 21005KT 10SM M06/M08 A3003 RMK AO2 T10571082,KFMM,2019-01-17T14:35:00Z,40.33,-103.8,-5.7,-8.2,210,5,,10.0,30.029528,,,TRUE,TRUE,,,,,,,,,,,,,,,,,,,,,,,,,,,METAR,1393.0
KSMS 171435Z AUTO 00000KT 10SM CLR 04/02 A3032 RMK AO2,KSMS,2019-01-17T14:35:00Z,34.0,-80.37,4.0,2.0,0,0,,10.0,30.318897,,,TRUE,TRUE,,,,,,,CLR,,,,,,,,VFR,,,,,,,,,,,,METAR,56.0
KSLB 171435Z AUTO 32005KT 4SM BR FEW007 BKN026 M05/M05 A3007 RMK AO2,KSLB,2019-01-17T14:35:00Z,42.6,-95.22,-5.0,-5.0,320,5,,4.0,30.070866,,,TRUE,TRUE,,,,,,BR,FEW,700,BKN,2600,,,,,MVFR,,,,,,,,,,,,METAR,454.0
KSIK 171435Z AUTO 19003KT 7SM -DZ OVC005 07/07 A3004 RMK AO2,KSIK,2019-01-17T14:35:00Z,36.9,-89.57,7.0,7.0,190,3,,7.0,30.041338,,,TRUE,TRUE,,,,,,-DZ,OVC,500,,,,,,,IFR,,,,,,,,,,,,METAR,96.0
KSHL 171435Z AUTO 32005KT 10SM OVC029 M06/M06 A3008 RMK AO2,KSHL,2019-01-17T14:35:00Z,43.22,-95.82,-6.0,-6.0,320,5,,10.0,30.079725,,,TRUE,TRUE,,,,,,,OVC,2900,,,,,,,MVFR,,,,,,,,,,,,METAR,432.0
KHVS 171435Z AUTO 08005KT 10SM CLR 02/00 A3030 RMK AO2,KHVS,2019-01-17T14:35:00Z,34.4,-80.12,2.0,0.0,80,5,,10.0,30.301182,,,TRUE,TRUE,,,,,,,CLR,,,,,,,,VFR,,,,,,,,,,,,METAR,111.0
KMYJ 171435Z AUTO 35003KT 1/4SM FG OVC002 00/00 A3005 RMK AO2,KMYJ,2019-01-17T14:35:00Z,39.15,-91.82,0.0,0.0,350,3,,0.25,30.050198,,,TRUE,TRUE,,,,,,FG,OVC,200,,,,,,,LIFR,,,,,,,,,,,,SPECI,251.0
KHZE 171435Z AUTO 06003KT 2 1/2SM -SN OVC004 M09/M09 A3011 RMK AO2 TSNO,KHZE,2019-01-17T14:35:00Z,47.28,-101.58,-9.0,-9.0,60,3,,2.5,30.109253,,,TRUE,TRUE,,,TRUE,,,-SN,OVC,400,,,,,,,LIFR,,,,,,,,,,,,METAR,553.0
KICL 171435Z AUTO 35005KT 4SM BR OVC035 M03/M04 A3013 RMK AO2,KICL,2019-01-17T14:35:00Z,40.72,-95.02,-3.0,-4.0,350,5,,4.0,30.129921,,,TRUE,TRUE,,,,,,BR,OVC,3500,,,,,,,MVFR,,,,,,,,,,,,METAR,303.0
KI75 171435Z AUTO 32003KT 1 1/4SM BR OVC003 M02/M03 A3009 RMK AO2 T10231026,KI75,2019-01-17T14:35:00Z,41.05,-93.68,-2.3,-2.6,320,3,,1.25,30.088583,,,TRUE,TRUE,,,,,,BR,OVC,300,,,,,,,LIFR,,,,,,,,,,,,METAR,339.0
KI68 171435Z AUTO 14007KT 1SM A3012 RMK AO1 PWINO,KI68,2019-01-17T14:35:00Z,39.47,-84.25,,,140,7,,1.0,30.121063,,,TRUE,TRUE,,,,,TRUE,,,,,,,,,,,,,,,,,,,,,,METAR,274.0
KI67 171435Z AUTO 00000KT 3SM OVC008 01/00 A3012 RMK AO1 P0005,KI67,2019-01-17T14:35:00Z,39.25,-84.78,1.0,0.0,0,0,,3.0,30.121063,,,TRUE,TRUE,,,,,,,OVC,800,,,,,,,IFR,,,,,,0.05,,,,,,METAR,178.0
KIDI 171435Z AUTO 10003KT 10SM OVC029 M04/M06 A3028 RMK A01,KIDI,2019-01-17T14:35:00Z,40.62,-79.08,-4.0,-6.0,100,3,,10.0,30.280512,,,TRUE,TRUE,,,,,,,OVC,2900,,,,,,,MVFR,,,,,,,,,,,,METAR,429.0
KIIB 171435Z AUTO 00000KT 3SM BR OVC006 M02/M02 A3007 RMK AO2 T10161021,KIIB,2019-01-17T14:35:00Z,42.45,-91.95,-1.6,-2.1,0,0,,3.0,30.070866,,,TRUE,TRUE,,,,,,BR,OVC,600,,,,,,,IFR,,,,,,,,,,,,METAR,298.0
KIFA 171435Z AUTO 00000KT 3SM BR BKN031 OVC055 M03/M04 A3009 RMK AO2 T10301037,KIFA,2019-01-17T14:35:00Z,42.47,-93.27,-3.0,-3.7,0,0,,3.0,30.088583,,,TRUE,TRUE,,,,,,BR,BKN,3100,OVC,5500,,,,,MVFR,,,,,,,,,,,,METAR,347.0
KIKV 171435Z AUTO 1 3/4SM BR OVC005 M03/M03 A3011 RMK AO2,KIKV,2019-01-17T14:35:00Z,41.68,-93.57,-3.0,-3.0,,,,1.75,30.109253,,,TRUE,TRUE,,,,,,BR,OVC,500,,,,,,,IFR,,,,,,,,,,,,METAR,275.0
KJFX 171435Z AUTO 00000KT 5SM BR 05/05 A3020 RMK AO2 PWINO,KJFX,2019-01-17T14:35:00Z,33.9,-87.32,5.0,5.0,0,0,,5.0,30.200787,,,TRUE,TRUE,,,,,TRUE,BR,,,,,,,,,,,,,,,,,,,,,METAR,148.0
KJVW 171435Z AUTO 17007KT 10SM 10/10 A3017 RMK AO2,KJVW,2019-01-17T14:35:00Z,32.3,-90.42,10.0,10.0,170,7,,10.0,30.171259,,,TRUE,TRUE,,,,,,,,,,,,,,,,,,,,,,,,,,,METAR,76.0
KJKJ 171435Z AUTO 00000KT 10SM OVC039 M17/M20 A3016 RMK AO2,KJKJ,2019-01-17T14:35:00Z,46.83,-96.67,-17.0,-20.0,0,0,,10.0,30.159449,,,TRUE,TRUE,,,,,,,OVC,3900,,,,,,,VFR,,,,,,,,,,,,METAR,280.0
KJVY 171435Z AUTO 00000KT 5SM -RA OVC035 04/03 A3010 RMK AO2 T00420030,KJVY,2019-01-17T14:35:00Z,,,4.2,3.0,0,0,,5.0,30.100393,,,TRUE,TRUE,,,,,,-RA,OVC,3500,,,,,,,MVFR,,,,,,,,,,,,METAR,
KANQ 171435Z AUTO 11008KT 2SM BR SCT008 SCT015 OVC024 M04/M05 A3011 RMK AO2,KANQ,2019-01-17T14:35:00Z,41.63,-85.08,-4.0,-5.0,110,8,,2.0,30.109253,,,TRUE,TRUE,,,,,,BR,SCT,800,SCT,1500,OVC,2400,,,IFR,,,,,,,,,,,,METAR,303.0
KAXV 171435Z AUTO 12008KT 2SM -SN SCT013 OVC020 00/M01 A3012 RMK AO2,KAXV,2019-01-17T14:35:00Z,40.5,-84.3,0.0,-1.0,120,8,,2.0,30.121063,,,TRUE,TRUE,,,,,,-SN,SCT,1300,OVC,2000,,,,,IFR,,,,,,,,,,,,METAR,279.0
KAXA 171435Z AUTO 33005KT 7SM OVC027 M05/M05 A3007 RMK AO2 PWINO,KAXA,2019-01-17T14:35:00Z,43.07,-94.27,-5.0,-5.0,330,5,,7.0,30.070866,,,TRUE,TRUE,,,,,TRUE,,OVC,2700,,,,,,,MVFR,,,,,,,,,,,,METAR,372.0
KAWG 171435Z AUTO 3.20833303KT M1/4SM FZFG OVC002 M01/M01 A3010 RMK AO2,KAWG,2019-01-17T14:35:00Z,41.27,-91.67,-1.0,-1.0,208,0,,0.25,30.100393,,,TRUE,TRUE,,,,,,FZFG,OVC,200,,,,,,,LIFR,,,,,,,,,,,,METAR,230.0
KATS 171435Z AUTO 23009KT 10SM CLR 02/M01 A3023 RMK AO2,KATS,2019-01-17T14:35:00Z,32.85,-104.47,2.0,-1.0,230,9,,10.0,30.230314,,,TRUE,TRUE,,,,,,,CLR,,,,,,,,VFR,,,,,,,,,,,,METAR,1081.0
KARV 171435Z AUTO 13003KT 10SM OVC025 M11/M13 A3002 RMK AO2 T11151132,KARV,2019-01-17T14:35:00Z,45.92,-89.72,-11.5,-13.2,130,3,,10.0,30.02067,,,TRUE,TRUE,,,,,,,OVC,2500,,,,,,,MVFR,,,,,,,,,,,,METAR,496.0
KAQX 171435Z AUTO 00000KT 10SM CLR 05/04 A3028 RMK AO2 TSNO,KAQX,2019-01-17T14:35:00Z,32.98,-81.27,5.0,4.0,0,0,,10.0,30.280512,,,TRUE,TRUE,,,TRUE,,,,CLR,,,,,,,,VFR,,,,,,,,,,,,METAR,49.0
KCBG 171435Z AUTO 00000KT 10SM OVC042 M12/M17 A3010 RMK AO2,KCBG,2019-01-17T14:35:00Z,45.57,-93.27,-12.0,-17.0,0,0,,10.0,30.100393,,,TRUE,TRUE,,,,,,,OVC,4200,,,,,,,VFR,,,,,,,,,,,,METAR,287.0
KCBF 171435Z AUTO 35004KT 3SM BR OVC025 M04/M04 A3010 RMK AO2,KCBF,2019-01-17T14:35:00Z,41.27,-95.77,-4.0,-4.0,350,4,,3.0,30.100393,,,TRUE,TRUE,,,,,,BR,OVC,2500,,,,,,,MVFR,,,,,,,,,,,,METAR,382.0
KCAV 171435Z AUTO 30004KT 4SM BR FEW007 OVC018 M04/M05 A3008 RMK AO2 PWINO,KCAV,2019-01-17T14:35:00Z,42.75,-93.77,-4.0,-5.0,300,4,,4.0,30.079725,,,TRUE,TRUE,,,,,TRUE,BR,FEW,700,OVC,1800,,,,,MVFR,,,,,,,,,,,,METAR,354.0
KBXK 171435Z AUTO 31003KT 9SM CLR 05/05 A3019 RMK AO1,KBXK,2019-01-17T14:35:00Z,33.42,-112.68,5.0,5.0,310,3,,9.0,30.188976,,,TRUE,TRUE,,,,,,,CLR,,,,,,,,VFR,,,,,,,,,,,,METAR,315.0
KBWW 171435Z AUTO 34007KT 9SM OVC004 M05/M05 A2988 RMK AO2,KBWW,2019-01-17T14:35:00Z,46.17,-103.3,-5.0,-5.0,340,7,,9.0,29.878937,,,TRUE,TRUE,,,,,,,OVC,400,,,,,,,LIFR,,,,,,,,,,,,METAR,910.0
KBVU 171435Z AUTO 17011KT 10SM BKN037 OVC065 12/09 A3010 RMK AO2,KBVU,2019-01-17T14:35:00Z,35.95,-114.87,12.0,9.0,170,11,,10.0,30.100393,,,TRUE,TRUE,,,,,,,BKN,3700,OVC,6500,,,,,VFR,,,,,,,,,,,,METAR,671.0
KBUU 171435Z AUTO 00000KT 5SM -SN OVC032 M03/M06 A3010 RMK AO2 T10301056,KBUU,2019-01-17T14:35:00Z,42.68,-88.3,-3.0,-5.6,0,0,,5.0,30.100393,,,TRUE,TRUE,,,,,,-SN,OVC,3200,,,,,,,MVFR,,,,,,,,,,,,METAR,237.0
KBRY 171435Z AUTO 18004KT 10SM SCT021 SCT027 BKN036 04/02 A3011 RMK AO1,KBRY,2019-01-17T14:35:00Z,37.82,-85.5,4.0,2.0,180,4,,10.0,30.109253,,,TRUE,TRUE,,,,,,,SCT,2100,SCT,2700,BKN,3600,,,VFR,,,,,,,,,,,,METAR,204.0
KBRG 171435Z AUTO 00000KT 10SM CLR M01/M03 A3030 RMK AO2 T10061026,KBRG,2019-01-17T14:35:00Z,34.65,-106.83,-0.6,-2.6,0,0,,10.0,30.301182,,,TRUE,TRUE,,,,,,,CLR,,,,,,,,VFR,,,,,,,,,,,,METAR,1585.0
KBNW 171435Z AUTO 31004KT 3SM BR FEW007 SCT029 OVC050 M04/M04 A3008 RMK AO2,KBNW,2019-01-17T14:35:00Z,42.03,-93.83,-4.0,-4.0,310,4,,3.0,30.079725,,,TRUE,TRUE,,,,,,BR,FEW,700,SCT,2900,OVC,5000,,,MVFR,,,,,,,,,,,,METAR,354.0
KBKN 171435Z AUTO 33011KT 6SM BR OVC009 03/03 A3018 RMK AO2,KBKN,2019-01-17T14:35:00Z,36.75,-97.35,3.0,3.0,330,11,,6.0,30.180119,,,TRUE,TRUE,,,,,,BR,OVC,900,,,,,,,IFR,,,,,,,,,,,,METAR,314.0
KBDN 171435Z AUTO 00000KT 3/4SM BR OVC001 M02/M02 A2955 RMK AO2 VIS 1/2V2,KBDN,2019-01-17T14:35:00Z,44.1,-121.2,-2.0,-2.0,0,0,,0.75,29.551182,,,TRUE,TRUE,,,,,,BR,OVC,100,,,,,,,LIFR,,,,,,,,,,,,METAR,1055.0
KBDH 171435Z AUTO 31008KT 10SM OVC033 M12/M14 A3013 RMK AO2,KBDH,2019-01-17T14:35:00Z,45.12,-95.13,-12.0,-14.0,310,8,,10.0,30.129921,,,TRUE,TRUE,,,,,,,OVC,3300,,,,,,,VFR,,,,,,,,,,,,METAR,247.0
KBCK 171435Z AUTO 00000KT 10SM OVC050 M06/M08 A3009 RMK AO2 T10641077,KBCK,2019-01-17T14:35:00Z,44.25,-90.85,-6.4,-7.7,0,0,,10.0,30.088583,,,TRUE,TRUE,,,,,,,OVC,5000,,,,,,,VFR,,,,,,,,,,,,METAR,255.0
KBAC 171435Z AUTO 00000KT 1 3/4SM -SN OVC004 M15/M15 A3012 RMK AO2,KBAC,2019-01-17T14:35:00Z,46.93,-98.02,-15.0,-15.0,0,0,,1.75,30.121063,,,TRUE,TRUE,,,,,,-SN,OVC,400,,,,,,,LIFR,,,,,,,,,,,,METAR,427.0
KCCU 171435Z AUTO 25019G34KT 1SM -SN VV007 M04/M11 A3015 RMK AO2,KCCU,2019-01-17T14:35:00Z,39.48,-106.15,-4.0,-11.0,250,19,34,1.0,30.15059,,,TRUE,TRUE,,,,,,-SN,OVX,0,,,,,,,LIFR,,,,,,,,,,,700,METAR,3680.0
KCDN 171435Z AUTO 06005KT 9SM CLR 03/M00 A3031 RMK AO2,KCDN,2019-01-17T14:35:00Z,34.28,-80.57,3.0,0.0,60,5,,9.0,30.31004,,,TRUE,TRUE,,,,,,,CLR,,,,,,,,VFR,,,,,,,,,,,,METAR,92.0
KCFJ 171435Z AUTO 11004KT 1 3/4SM -SN OVC004 00/00 A3006 RMK AO2 P0003 T10011001,KCFJ,2019-01-17T14:35:00Z,39.98,-86.92,-0.1,-0.1,110,4,,1.75,30.059055,,,TRUE,TRUE,,,,,,-SN,OVC,400,,,,,,,LIFR,,,,,,0.03,,,,,,METAR,244.0
KCEY 171435Z AUTO 17005KT 10SM OVC005 06/06 A3005 RMK AO1,KCEY,2019-01-17T14:35:00Z,36.67,-88.37,6.0,6.0,170,5,,10.0,30.050198,,,TRUE,TRUE,,,,,,,OVC,500,,,,,,,IFR,,,,,,,,,,,,METAR,176.0
KCIN 171435Z AUTO 34005KT 1 3/4SM BR OVC003 M04/M04 A3008 RMK AO2,KCIN,2019-01-17T14:35:00Z,42.03,-94.77,-4.0,-4.0,340,5,,1.75,30.079725,,,TRUE,TRUE,,,,,,BR,OVC,300,,,,,,,LIFR,,,,,,,,,,,,METAR,375.0
KCGC 171435Z AUTO 05003KT 10SM CLR 10/05 A3030 RMK AO2,KCGC,2019-01-17T14:35:00Z,28.87,-82.57,10.0,5.0,50,3,,10.0,30.301182,,,TRUE,TRUE,,,,,,,CLR,,,,,,,,VFR,,,,,,,,,,,,METAR,3.0
KCKZ 171435Z AUTO 06007KT 10SM CLR M03/M14 A3039 RMK AO2,KCKZ,2019-01-17T14:35:00Z,40.38,-75.28,-3.0,-14.0,60,7,,10.0,30.389763,,,TRUE,TRUE,,,,,,,CLR,,,,,,,,VFR,,,,,,,,,,,,METAR,173.0
KTWM 171435Z AUTO 00000KT 10SM BKN110 M14/M22 A3005 RMK AO2,KTWM,2019-01-17T14:35:00Z,47.03,-91.75,-14.0,-22.0,0,0,,10.0,30.050198,,,TRUE,TRUE,,,,,,,BKN,11000,,,,,,,VFR,,,,,,,,,,,,METAR,328.0
KTSP 171435Z AUTO 35003KT 2 1/2SM +RA OVC030 09/09 A3007 RMK AO2 P0031,KTSP,2019-01-17T14:35:00Z,35.13,-118.43,9.0,9.0,350,3,,2.5,30.070866,,,TRUE,TRUE,,,,,,+RA,OVC,3000,,,,,,,IFR,,,,,,0.31,,,,,,METAR,1220.0
KTPF 171435Z AUTO 05006KT 10SM CLR 13/07 A3028 RMK AO2,KTPF,2019-01-17T14:35:00Z,27.92,-82.45,13.0,7.0,50,6,,10.0,30.280512,,,TRUE,TRUE,,,,,,,CLR,,,,,,,,VFR,,,,,,,,,,,,METAR,3.0
KTNU 171435Z AUTO 31004KT 1 1/4SM BR OVC004 M02/M02 A3010 RMK AO2,KTNU,2019-01-17T14:35:00Z,41.67,-93.02,-2.0,-2.0,310,4,,1.25,30.100393,,,TRUE,TRUE,,,,,,BR,OVC,400,,,,,,,LIFR,,,,,,,,,,,,METAR,290.0
KTME 171435Z AUTO 26007KT 9SM OVC007 15/14 A3018 RMK AO2,KTME,2019-01-17T14:35:00Z,29.8,-95.9,15.0,14.0,260,7,,9.0,30.180119,,,TRUE,TRUE,,,,,,,OVC,700,,,,,,,IFR,,,,,,,,,,,,METAR,51.0
KTKX 171435Z AUTO 21007KT 4SM BR OVC004 09/09 A3003 RMK AO2,KTKX,2019-01-17T14:35:00Z,36.22,-90.02,9.0,9.0,210,7,,4.0,30.029528,,,TRUE,TRUE,,,,,,BR,OVC,400,,,,,,,LIFR,,,,,,,,,,,,METAR,80.0
KSYM 171435Z AUTO VRB04KT 10SM OVC043 02/M00 A3015 RMK AO2,KSYM,2019-01-17T14:35:00Z,38.22,-83.58,2.0,0.0,0,4,,10.0,30.15059,,,TRUE,TRUE,,,,,,,OVC,4300,,,,,,,VFR,,,,,,,,,,,,METAR,313.0
KSUZ 171435Z AUTO 21004KT 1 1/4SM BR OVC003 11/11 A3005 RMK A01,KSUZ,2019-01-17T14:35:00Z,34.58,-92.48,11.0,11.0,210,4,,1.25,30.050198,,,TRUE,TRUE,,,,,,BR,OVC,300,,,,,,,LIFR,,,,,,,,,,,,METAR,119.0
KSPF 171435Z AUTO 20004KT 10SM CLR M05/M09 A2994 RMK AO2 PWINO,KSPF,2019-01-17T14:35:00Z,44.47,-103.77,-5.0,-9.0,200,4,,10.0,29.940945,,,TRUE,TRUE,,,,,TRUE,,CLR,,,,,,,,VFR,,,,,,,,,,,,METAR,1188.0
KSPA 171435Z AUTO 05005KT 10SM CLR 02/M01 A3027 RMK AO2,KSPA,2019-01-17T14:35:00Z,34.92,-81.93,2.0,-1.0,50,5,,10.0,30.268702,,,TRUE,TRUE,,,,,,,CLR,,,,,,,,VFR,,,,,,,,,,,,METAR,303.0
KSOW 171435Z AUTO 19010KT 10SM CLR 01/M10 A3025 RMK AO2,KSOW,2019-01-17T14:35:00Z,34.27,-110.0,1.0,-10.0,190,10,,10.0,30.250984,,,TRUE,TRUE,,,,,,,CLR,,,,,,,,VFR,,,,,,,,,,,,METAR,1954.0
KSNC 171435Z AUTO 35007KT 10SM CLR M05/M24 A3039 RMK AO2,KSNC,2019-01-17T14:35:00Z,41.38,-72.5,-5.0,-24.0,350,7,,10.0,30.389763,,,TRUE,TRUE,,,,,,,CLR,,,,,,,,VFR,,,,,,,,,,,,METAR,127.0
KUOX 171435Z AUTO VRB06G12KT 3SM -DZ OVC005 08/08 A3013 RMK AO2,KUOX,2019-01-17T14:35:00Z,34.38,-89.53,8.0,8.0,0,6,12,3.0,30.129921,,,TRUE,TRUE,,,,,,-DZ,OVC,500,,,,,,,IFR,,,,,,,,,,,,METAR,137.0
KUKT 171435Z AUTO 05004KT 10SM CLR M04/M13 A3039 RMK A01,KUKT,2019-01-17T14:35:00Z,40.43,-75.38,-4.0,-13.0,50,4,,10.0,30.389763,,,TRUE,TRUE,,,,,,,CLR,,,,,,,,VFR,,,,,,,,,,,,METAR,160.0
KY23 171435Z AUTO 00000KT 10SM OVC024 M09/M11 A3007 RMK AO2 T10861112,KY23,2019-01-17T14:35:00Z,45.3,-91.63,-8.6,-11.2,0,0,,10.0,30.070866,,,TRUE,TRUE,,,,,,,OVC,2400,,,,,,,MVFR,,,,,,,,,,,,METAR,322.0
KY19 171435Z AUTO 36004KT 1/4SM FZFG OVC002 M09/M08 A3007 RMK AO2,KY19,2019-01-17T14:35:00Z,46.77,-100.9,-9.0,-8.0,360,4,,0.25,30.070866,,,TRUE,TRUE,,,,,,FZFG,OVC,200,,,,,,,LIFR,,,,,,,,,,,,METAR,593.0
KX07 171435Z AUTO 04007KT 10SM CLR 15/09 A3028 RMK A01,KX07,2019-01-17T14:35:00Z,27.9,-81.62,15.0,9.0,40,7,,10.0,30.280512,,,TRUE,TRUE,,,,,,,CLR,,,,,,,,VFR,,,,,,,,,,,,METAR,39.0
KWYS 171435Z AUTO 19005KT 3SM -SN FEW003 BKN015 BKN027 M01/M02 A2984 RMK AO2,KWYS,2019-01-17T14:35:00Z,44.67,-111.12,-1.0,-2.0,190,5,,3.0,29.840551,,,TRUE,TRUE,,,,,,-SN,FEW,300,BKN,1500,BKN,2700,,,MVFR,,,,,,,,,,,,METAR,2025.0
KJZI 171435Z AUTO 00000KT 5SM HZ CLR 11/08 A3031 RMK AO2 PWINO,KJZI,2019-01-17T14:35:00Z,32.7,-80.0,11.0,8.0,0,0,,5.0,30.31004,,,TRUE,TRUE,,,,,TRUE,HZ,CLR,,,,,,,,MVFR,,,,,,,,,,,,METAR,6.0
KCNC 171435Z AUTO 34004KT M1/4SM FZFG OVC002 M03/M03 A3009 RMK AO2,KCNC,2019-01-17T14:35:00Z,41.02,-93.37,-3.0,-3.0,340,4,,0.25,30.088583,,,TRUE,TRUE,,,,,,FZFG,OVC,200,,,,,,,LIFR,,,,,,,,,,,,METAR,320.0
KCMR 171435Z AUTO 15008KT 10SM CLR M02/M03 A3021 RMK AO2,KCMR,2019-01-17T14:35:00Z,35.3,-112.2,-2.0,-3.0,150,8,,10.0,30.209646,,,TRUE,TRUE,,,,,,,CLR,,,,,,,,VFR,,,,,,,,,,,,METAR,2036.0
KCLW 171435Z AUTO 03005KT 10SM CLR 12/02 A3028 RMK AO2,KCLW,2019-01-17T14:35:00Z,27.98,-82.75,12.0,2.0,30,5,,10.0,30.280512,,,TRUE,TRUE,,,,,,,CLR,,,,,,,,VFR,,,,,,,,,,,,METAR,22.0
KCLS 171435Z AUTO 06003KT 3SM BR OVC005 05/05 A2944 RMK AO2,KCLS,2019-01-17T14:35:00Z,46.68,-122.98,5.0,5.0,60,3,,3.0,29.438976,,,TRUE,TRUE,,,,,,BR,OVC,500,,,,,,,IFR,,,,,,,,,,,,METAR,54.0
KOLG 171435Z AUTO 00000KT 10SM OVC029 M17/M19 A3007 RMK AO1,KOLG,2019-01-17T14:35:00Z,46.3,-91.82,-17.0,-19.0,0,0,,10.0,30.070866,,,TRUE,TRUE,,,,,,,OVC,2900,,,,,,,MVFR,,,,,,,,,,,,METAR,336.0
KOEO 171435Z AUTO 00000KT 10SM OVC020 M08/M10 A3011 RMK AO2 T10801102,KOEO,2019-01-17T14:35:00Z,45.32,-92.7,-8.0,-10.2,0,0,,10.0,30.109253,,,TRUE,TRUE,,,,,,,OVC,2000,,,,,,,MVFR,,,,,,,,,,,,METAR,275.0
KOEB 171435Z AUTO 12005KT 7SM OVC010 M03/M05 A3013 RMK AO2 T10281046,KOEB,2019-01-17T14:35:00Z,41.92,-85.03,-2.8,-4.6,120,5,,7.0,30.129921,,,TRUE,TRUE,,,,,,,OVC,1000,,,,,,,MVFR,,,,,,,,,,,,METAR,292.0
KO22 171435Z AUTO 00000KT 8SM FEW024 BKN033 OVC043 09/09 A2995 RMK A01,KO22,2019-01-17T14:35:00Z,38.03,-120.42,9.0,9.0,0,0,,8.0,29.949802,,,TRUE,TRUE,,,,,,,FEW,2400,BKN,3300,OVC,4300,,,VFR,,,,,,,,,,,,METAR,646.0
KMVE 171435Z AUTO 35007KT 10SM BKN031 OVC095 M12/M16 A3014 RMK AO2,KMVE,2019-01-17T14:35:00Z,44.97,-95.72,-12.0,-16.0,350,7,,10.0,30.138779,,,TRUE,TRUE,,,,,,,BKN,3100,OVC,9500,,,,,VFR,,,,,,,,,,,,METAR,315.0
KMUT 171435Z AUTO 00000KT 1 3/4SM BR OVC004 M01/M02 A3011 RMK AO2,KMUT,2019-01-17T14:35:00Z,41.37,-91.15,-1.0,-2.0,0,0,,1.75,30.109253,,,TRUE,TRUE,,,,,,BR,OVC,400,,,,,,,LIFR,,,,,,,,,,,,METAR,167.0
KMPZ 171435Z AUTO 03004KT 1/4SM FG OVC001 00/00 A3009 RMK AO2,KMPZ,2019-01-17T14:35:00Z,40.95,-91.52,0.0,0.0,30,4,,0.25,30.088583,,,TRUE,TRUE,,,,,,FG,OVC,100,,,,,,,LIFR,,,,,,,,,,,,METAR,224.0
KMKS 171435Z AUTO 00000KT 7SM CLR 07/05 A3031 RMK AO2,KMKS,2019-01-17T14:35:00Z,33.18,-80.03,7.0,5.0,0,0,,7.0,30.31004,,,TRUE,TRUE,,,,,,,CLR,,,,,,,,VFR,,,,,,,,,,,,METAR,23.0
KMHL 171435Z AUTO 00000KT 1/4SM FG OVC002 00/00 A3010 RMK AO2,KMHL,2019-01-17T14:35:00Z,39.1,-93.2,0.0,0.0,0,0,,0.25,30.100393,,,TRUE,TRUE,,,,,,FG,OVC,200,,,,,,,LIFR,,,,,,,,,,,,METAR,237.0
KMGC 171435Z AUTO 12005KT 7SM OVC009 M01/M04 A3010 RMK AO2,KMGC,2019-01-17T14:35:00Z,41.7,-86.82,-1.0,-4.0,120,5,,7.0,30.100393,,,TRUE,TRUE,,,,,,,OVC,900,,,,,,,IFR,,,,,,,,,,,,METAR,200.0
KMDZ 171435Z AUTO 16005KT 10SM OVC009 M08/M10 A3003 RMK AO2 T10851100 TSNO,KMDZ,2019-01-17T14:35:00Z,45.1,-90.3,-8.5,-10.0,160,5,,10.0,30.029528,,,TRUE,TRUE,,,TRUE,,,,OVC,900,,,,,,,IFR,,,,,,,,,,,,METAR,448.0
KMCX 171435Z AUTO 10004KT 1 3/4SM -SN OVC003 00/M01 A3007 RMK AO2 P0001 T10011007,KMCX,2019-01-17T14:35:00Z,40.72,-86.77,-0.1,-0.7,100,4,,1.75,30.070866,,,TRUE,TRUE,,,,,,-SN,OVC,300,,,,,,,LIFR,,,,,,0.01,,,,,,METAR,206.0
KMCD 171435Z AUTO 15008KT 140V200 10SM OVC027 M09/M12 A3019 RMK AO2 T10871122,KMCD,2019-01-17T14:35:00Z,45.85,-84.63,-8.7,-12.2,150,8,,10.0,30.188976,,,TRUE,TRUE,,,,,,,OVC,2700,,,,,,,MVFR,,,,,,,,,,,,METAR,226.0
KMBO 171435Z AUTO 17005KT 5SM BKN007 BKN010 OVC018 08/08 A3018 RMK AO2 PWINO,KMBO,2019-01-17T14:35:00Z,32.43,-90.1,8.0,8.0,170,5,,5.0,30.180119,,,TRUE,TRUE,,,,,TRUE,,BKN,700,BKN,1000,OVC,1800,,,IFR,,,,,,,,,,,,METAR,99.0
KMAN 171435Z AUTO 14015G21KT 10SM FEW060 SCT080 07/07 A2966 RMK A01,KMAN,2019-01-17T14:35:00Z,43.58,-116.52,7.0,7.0,140,15,21,10.0,29.660433,,,TRUE,TRUE,,,,,,,FEW,6000,SCT,8000,,,,,VFR,,,,,,,,,,,,METAR,774.0
KM40 171435Z AUTO 18009KT 1 1/4SM -DZ OVC005 07/07 A3018 RMK AO2,KM40,2019-01-17T14:35:00Z,33.87,-88.48,7.0,7.0,180,9,,1.25,30.180119,,,TRUE,TRUE,,,,,,-DZ,OVC,500,,,,,,,IFR,,,,,,,,,,,,METAR,69.0
KM21 171435Z AUTO 16005KT 4SM DZ OVC008 05/05 A3006 RMK AO2 T00490049,KM21,2019-01-17T14:35:00Z,37.22,-87.15,4.9,4.9,160,5,,4.0,30.059055,,,TRUE,TRUE,,,,,,DZ,OVC,800,,,,,,,IFR,,,,,,,,,,,,METAR,129.0
KLRO 171435Z AUTO 00000KT 9SM CLR 08/06 A3030 RMK AO2,KLRO,2019-01-17T14:35:00Z,32.9,-79.78,8.0,6.0,0,0,,9.0,30.301182,,,TRUE,TRUE,,,,,,,CLR,,,,,,,,VFR,,,,,,,,,,,,METAR,4.0
KLRJ 171435Z AUTO 32004KT 10SM SCT024 SCT029 OVC033 M06/M07 A3011 RMK AO2,KLRJ,2019-01-17T14:35:00Z,42.77,-96.2,-6.0,-7.0,320,4,,10.0,30.109253,,,TRUE,TRUE,,,,,,,SCT,2400,SCT,2900,OVC,3300,,,VFR,,,,,,,,,,,,METAR,365.0
KLMO 171435Z AUTO 01003KT 10SM CLR 00/M06 A3000 RMK AO2 T00021061,KLMO,2019-01-17T14:35:00Z,40.17,-105.17,0.2,-6.1,10,3,,10.0,30.0,,,TRUE,TRUE,,,,,,,CLR,,,,,,,,VFR,,,,,,,,,,,,METAR,1541.0
KLDM 171435Z AUTO 10004KT 10SM OVC028 M08/M12 A3016 RMK AO2 T10851116,KLDM,2019-01-17T14:35:00Z,43.97,-86.4,-8.5,-11.6,100,4,,10.0,30.159449,,,TRUE,TRUE,,,,,,,OVC,2800,,,,,,,MVFR,,,,,,,,,,,,METAR,197.0
KLDJ 171435Z AUTO 00000KT 10SM CLR M02/M13 A3043 RMK AO2 T10221134,KLDJ,2019-01-17T14:35:00Z,40.62,-74.25,-2.2,-13.4,0,0,,10.0,30.431103,,,TRUE,TRUE,,,,,,,CLR,,,,,,,,VFR,,,,,,,,,,,,METAR,7.0
KL52 171435Z AUTO 00000KT 2SM BR OVC009 14/14 A3004 RMK A01,KL52,2019-01-17T14:35:00Z,35.1,-120.62,14.0,14.0,0,0,,2.0,30.041338,,,TRUE,TRUE,,,,,,BR,OVC,900,,,,,,,IFR,,,,,,,,,,,,METAR,4.0
KL08 171435Z AUTO 32004KT 1 1/2SM BR OVC002 11/10 A3013 RMK AO2,KL08,2019-01-17T14:35:00Z,33.27,-116.32,11.0,10.0,320,4,,1.5,30.129921,,,TRUE,TRUE,,,,,,BR,OVC,200,,,,,,,LIFR,,,,,,,,,,,,METAR,159.0
KKY8 171435Z AUTO 13007G12KT 2 1/2SM BR FEW007 BKN016 OVC028 06/06 A3005 RMK A01,KKY8,2019-01-17T14:35:00Z,37.95,-86.87,6.0,6.0,130,7,12,2.5,30.050198,,,TRUE,TRUE,,,,,,BR,FEW,700,BKN,1600,OVC,2800,,,IFR,,,,,,,,,,,,METAR,126.0
KCPT 171435Z AUTO 31013KT 10SM SCT010 09/09 A3014 RMK AO2,KCPT,2019-01-17T14:35:00Z,32.35,-97.43,9.0,9.0,310,13,,10.0,30.138779,,,TRUE,TRUE,,,,,,,SCT,1000,,,,,,,VFR,,,,,,,,,,,,METAR,260.0
KCQW 171435Z AUTO 00000KT 10SM CLR 03/00 A3031 RMK AO2,KCQW,2019-01-17T14:35:00Z,34.72,-79.95,3.0,0.0,0,0,,10.0,30.31004,,,TRUE,TRUE,,,,,,,CLR,,,,,,,,VFR,,,,,,,,,,,,METAR,73.0
KCVH 171435Z AUTO 24007KT 10SM CLR 13/10 A2998 RMK A01,KCVH,2019-01-17T14:35:00Z,36.9,-121.42,13.0,10.0,240,7,,10.0,29.97933,,,TRUE,TRUE,,,,,,,CLR,,,,,,,,VFR,,,,,,,,,,,,METAR,70.0
KCSQ 171435Z AUTO 32004KT 2 1/2SM BR SCT028 OVC046 M03/M03 A3009 RMK AO2,KCSQ,2019-01-17T14:35:00Z,41.02,-94.37,-3.0,-3.0,320,4,,2.5,30.088583,,,TRUE,TRUE,,,,,,BR,SCT,2800,OVC,4600,,,,,IFR,,,,,,,,,,,,METAR,394.0
K46D 171435Z AUTO 36004KT 4SM BR BKN003 OVC008 M12/M13 A3012 RMK AO2,K46D,2019-01-17T14:35:00Z,47.45,-99.15,-12.0,-13.0,360,4,,4.0,30.121063,,,TRUE,TRUE,,,,,,BR,BKN,300,OVC,800,,,,,LIFR,,,,,,,,,,,,METAR,490.0
K42J 171435Z AUTO 00000KT 10SM CLR 09/06 A3030 RMK A01 TSNO,K42J,2019-01-17T14:35:00Z,29.85,-82.05,9.0,6.0,0,0,,10.0,30.301182,,,TRUE,TRUE,,,TRUE,,,,CLR,,,,,,,,VFR,,,,,,,,,,,,METAR,60.0
K33V 171435Z AUTO 17009KT 10SM CLR M02/M07 A3010 RMK AO1,K33V,2019-01-17T14:35:00Z,40.75,-106.28,-2.0,-7.0,170,9,,10.0,30.100393,,,TRUE,TRUE,,,,,,,CLR,,,,,,,,VFR,,,,,,,,,,,,METAR,2484.0
K2P2 171435Z AUTO 00000KT 10SM OVC035 M07/M09 A3014 RMK AO2 T10751093,K2P2,2019-01-17T14:35:00Z,45.38,-86.92,-7.5,-9.3,0,0,,10.0,30.138779,,,TRUE,TRUE,,,,,,,OVC,3500,,,,,,,VFR,,,,,,,,,,,,METAR,199.0
K2D5 171435Z AUTO 00000KT 10SM OVC008 M14/M16 A3011 RMK AO2 PWINO,K2D5,2019-01-17T14:35:00Z,46.17,-98.08,-14.0,-16.0,0,0,,10.0,30.109253,,,TRUE,TRUE,,,,,TRUE,,OVC,800,,,,,,,IFR,,,,,,,,,,,,METAR,407.0
K2C8 171435Z AUTO 35010KT 10SM OVC028 M16/M20 A3020 RMK AO2,K2C8,2019-01-17T14:35:00Z,48.78,-97.63,-16.0,-20.0,350,10,,10.0,30.200787,,,TRUE,TRUE,,,,,,,OVC,2800,,,,,,,MVFR,,,,,,,,,,,,METAR,272.0
K24J 171435Z AUTO 00000KT CLR 08/05 A3029 RMK A01,K24J,2019-01-17T14:35:00Z,30.3,-83.03,8.0,5.0,0,0,,,30.28937,,,TRUE,TRUE,,,,,,,CLR,,,,,,,,,,,,,,,,,,,,METAR,32.0
K20U 171435Z AUTO 36006KT 7SM OVC006 M06/M06 A3004 RMK AO2,K20U,2019-01-17T14:35:00Z,46.93,-103.98,-6.0,-6.0,360,6,,7.0,30.041338,,,TRUE,TRUE,,,,,,,OVC,600,,,,,,,IFR,,,,,,,,,,,,METAR,840.0
K1P1 171435Z AUTO 29005KT 10SM CLR M14/M22 A3040 RMK AO2 T11391220,K1P1,2019-01-17T14:35:00Z,43.78,-71.75,-13.9,-22.0,290,5,,10.0,30.398623,,,TRUE,TRUE,,,,,,,CLR,,,,,,,,VFR,,,,,,,,,,,,METAR,154.0
K0S9 171435Z AUTO 00000KT 10SM FEW030 BKN050 BKN065 06/06 A2947 RMK AO2,K0S9,2019-01-17T14:35:00Z,48.05,-122.82,6.0,6.0,0,0,,10.0,29.471457,,,TRUE,TRUE,,,,,,,FEW,3000,BKN,5000,BKN,6500,,,VFR,,,,,,,,,,,,METAR,33.0
K08D 171435Z AUTO 01005KT 10SM FEW013 BKN018 OVC048 M12/M12 A3007 RMK AO2,K08D,2019-01-17T14:35:00Z,48.3,-102.4,-12.0,-12.0,10,5,,10.0,30.070866,,,TRUE,TRUE,,,,,,,FEW,1300,BKN,1800,OVC,4800,,,MVFR,,,,,,,,,,,,METAR,684.0
K06D 171435Z AUTO 36010KT 10SM OVC013 M17/M19 A3011 RMK AO2,K06D,2019-01-17T14:35:00Z,48.88,-99.62,-17.0,-19.0,360,10,,10.0,30.109253,,,TRUE,TRUE,,,,,,,OVC,1300,,,,,,,MVFR,,,,,,,,,,,,METAR,556.0
KFMH 171435Z AUTO 35009KT 10SM CLR M06/M19 A3039 RMK AO2,KFMH,2019-01-17T14:35:00Z,41.63,-70.52,-6.0,-19.0,350,9,,10.0,30.389763,,,TRUE,TRUE,,,,,,,CLR,,,,,,,,VFR,,,,,,,,,,,,METAR,40.0
KFLY 171435Z AUTO 00000KT 10SM CLR M02/M10 A3009 RMK AO2 T10171101,KFLY,2019-01-17T14:35:00Z,38.95,-104.57,-1.7,-10.1,0,0,,10.0,30.088583,,,TRUE,TRUE,,,,,,,CLR,,,,,,,,VFR,,,,,,,,,,,,METAR,2096.0
KFKS 171435Z AUTO 00000KT 10SM BKN100 M11/M13 A3017 RMK AO2 T11071135,KFKS,2019-01-17T14:35:00Z,44.63,-86.2,-10.7,-13.5,0,0,,10.0,30.171259,,,TRUE,TRUE,,,,,,,BKN,10000,,,,,,,VFR,,,,,,,,,,,,METAR,193.0
KFGX 171435Z AUTO 12006KT 10SM SCT050 SCT070 BKN100 02/01 A3014 RMK AO2 T00150006,KFGX,2019-01-17T14:35:00Z,38.55,-83.75,1.5,0.6,120,6,,10.0,30.138779,,,TRUE,TRUE,,,,,,,SCT,5000,SCT,7000,BKN,10000,,,VFR,,,,,,,,,,,,METAR,278.0
KFFM 171435Z AUTO 00000KT 10SM OVC090 M16/M19 A3014 RMK AO2,KFFM,2019-01-17T14:35:00Z,46.28,-96.15,-16.0,-19.0,0,0,,10.0,30.138779,,,TRUE,TRUE,,,,,,,OVC,9000,,,,,,,VFR,,,,,,,,,,,,METAR,361.0
KFFL 171435Z AUTO 02004KT M1/4SM FZFG OVC002 M01/M01 A3008 RMK AO2 PWINO,KFFL,2019-01-17T14:35:00Z,41.03,-91.97,-1.0,-1.0,20,4,,0.25,30.079725,,,TRUE,TRUE,,,,,TRUE,FZFG,OVC,200,,,,,,,LIFR,,,,,,,,,,,,METAR,244.0
KFDW 171435Z AUTO 13003KT 10SM CLR 03/00 A3028 RMK AO1,KFDW,2019-01-17T14:35:00Z,34.32,-81.12,3.0,0.0,130,3,,10.0,30.280512,,,TRUE,TRUE,,,,,,,CLR,,,,,,,,VFR,,,,,,,,,,,,METAR,176.0
KEVM 171435Z AUTO 00000KT 10SM OVC090 M20/M22 A3007 RMK AO2 T12001222,KEVM,2019-01-17T14:35:00Z,47.42,-92.5,-20.0,-22.2,0,0,,10.0,30.070866,,,TRUE,TRUE,,,,,,,OVC,9000,,,,,,,VFR,,,,,,,,,,,,METAR,421.0
KERY 171435Z AUTO 00000KT 4SM -SN OVC016 M12/M15 A3015 RMK AO2 T11161149,KERY,2019-01-17T14:35:00Z,46.3,-85.45,-11.6,-14.9,0,0,,4.0,30.15059,,,TRUE,TRUE,,,,,,-SN,OVC,1600,,,,,,,MVFR,,,,,,,,,,,,METAR,265.0
KEOE 171435Z AUTO 00000KT 10SM CLR 01/01 A3031 RMK AO2,KEOE,2019-01-17T14:35:00Z,34.32,-81.63,1.0,1.0,0,0,,10.0,30.31004,,,TRUE,TRUE,,,,,,,CLR,,,,,,,,VFR,,,,,,,,,,,,METAR,174.0
KELO 171435Z AUTO 00000KT 10SM OVC120 M18/M21 A3005 RMK AO2 TSNO,KELO,2019-01-17T14:35:00Z,47.82,-91.82,-18.0,-21.0,0,0,,10.0,30.050198,,,TRUE,TRUE,,,TRUE,,,,OVC,12000,,,,,,,VFR,,,,,,,,,,,,METAR,443.0
KEFT 171435Z AUTO 10SM OVC011 M03/M06 A3007 RMK AO2 T10271056,KEFT,2019-01-17T14:35:00Z,42.62,-89.6,-2.7,-5.6,,,,10.0,30.070866,,,TRUE,TRUE,,,,,,,OVC,1100,,,,,,,MVFR,,,,,,,,,,,,METAR,331.0
KEDC 171435Z AUTO 22006KT 10SM CLR 13/12 A3016 RMK AO2,KEDC,2019-01-17T14:35:00Z,30.4,-97.57,13.0,12.0,220,6,,10.0,30.159449,,,TRUE,TRUE,,,,,,,CLR,,,,,,,,VFR,,,,,,,,,,,,METAR,189.0
KDNS 171435Z AUTO 32004KT 4SM BR SCT008 BKN025 OVC050 M04/M05 A3010 RMK AO2,KDNS,2019-01-17T14:35:00Z,41.97,-95.37,-4.0,-5.0,320,4,,4.0,30.100393,,,TRUE,TRUE,,,,,,BR,SCT,800,BKN,2500,OVC,5000,,,MVFR,,,,,,,,,,,,METAR,388.0
KDNA 171435Z AUTO 00000KT 10SM CLR 00/M01 A3029 RMK AO2,KDNA,2019-01-17T14:35:00Z,31.88,-106.7,0.0,-1.0,0,0,,10.0,30.28937,,,TRUE,TRUE,,,,,,,CLR,,,,,,,,VFR,,,,,,,,,,,,METAR,1253.0
KDLZ 171435Z AUTO 13007KT 10SM SCT030 OVC036 00/M02 A3016 RMK AO2,KDLZ,2019-01-17T14:35:00Z,40.28,-83.12,0.0,-2.0,130,7,,10.0,30.159449,,,TRUE,TRUE,,,,,,,SCT,3000,OVC,3600,,,,,VFR,,,,,,,,,,,,METAR,289.0
KDLL 171435Z AUTO 14005KT 10SM OVC017 M04/M07 A3007 RMK AO2 T10381070,KDLL,2019-01-17T14:35:00Z,43.52,-89.77,-3.8,-7.0,140,5,,10.0,30.070866,,,TRUE,TRUE,,,,,,,OVC,1700,,,,,,,MVFR,,,,,,,,,,,,METAR,299.0
KDEH 171435Z AUTO 00000KT 3SM BR OVC007 M03/M03 A3005 RMK AO2,KDEH,2019-01-17T14:35:00Z,43.27,-91.72,-3.0,-3.0,0,0,,3.0,30.050198,,,TRUE,TRUE,,,,,,BR,OVC,700,,,,,,,IFR,,,,,,,,,,,,METAR,353.0
KD60 171435Z AUTO 02007KT 7SM BKN020 OVC042 M12/M12 A3008 RMK AO2,KD60,2019-01-17T14:35:00Z,48.38,-102.9,-12.0,-12.0,20,7,,7.0,30.079725,,,TRUE,TRUE,,,,,,,BKN,2000,OVC,4200,,,,,MVFR,,,,,,,,,,,,METAR,693.0
KD55 171435Z AUTO 02009KT 9SM FEW006 FEW018 OVC025 M15/M16 A3012 RMK AO2,KD55,2019-01-17T14:35:00Z,48.75,-98.4,-15.0,-16.0,20,9,,9.0,30.121063,,,TRUE,TRUE,,,,,,,FEW,600,FEW,1800,OVC,2500,,,MVFR,,,,,,,,,,,,METAR,491.0
KD50 171435Z AUTO 35005KT 6SM -SN FEW002 SCT012 OVC024 M13/M14 A3014 RMK AO2,KD50,2019-01-17T14:35:00Z,48.93,-103.3,-13.0,-14.0,350,5,,6.0,30.138779,,,TRUE,TRUE,,,,,,-SN,FEW,200,SCT,1200,OVC,2400,,,MVFR,,,,,,,,,,,,METAR,595.0
KCXP 171435Z AUTO 00000KT 10SM FEW029 SCT043 BKN075 03/01 A2982 RMK AO2,KCXP,2019-01-17T14:35:00Z,39.18,-119.73,3.0,1.0,0,0,,10.0,29.819881,,,TRUE,TRUE,,,,,,,FEW,2900,SCT,4300,BKN,7500,,,VFR,,,,,,,,,,,,METAR,1435.0
KNUC 171435Z AUTO 21015KT -RA SCT004 OVC010 14/ A3015 RMK AO2 RAB10 P0001 T0144 $,KNUC,2019-01-17T14:35:00Z,33.02,-118.57,14.4,,210,15,,,30.15059,,,TRUE,TRUE,TRUE,,,,,-RA,SCT,400,OVC,1000,,,,,,,,,,,0.01,,,,,,METAR,55.0
PGUM 171435Z 08013KT 10SM FEW023 BKN028 27/25 A2982 RMK AO2 T02720250 $,PGUM,2019-01-17T14:35:00Z,13.48,144.8,27.2,25.0,80,13,,10.0,29.819881,,,,TRUE,TRUE,,,,,,FEW,2300,BKN,2800,,,,,MVFR,,,,,,,,,,,,SPECI,91.0
CYJT 171435Z 28020G28KT 3SM R27/4500VP6000FT/U -SN DRSN BKN021 M05/M10 A2977 RMK SC7 SLP085,CYJT,2019-01-17T14:35:00Z,48.55,-58.57,-5.0,-10.0,280,20,28,3.0,29.769686,1008.5,,,,,,,,,DRSN -SN,BKN,2100,,,,,,,MVFR,,,,,,,,,,,,SPECI,26.0
KAJZ 171435Z AUTO 03005KT 1/2SM FG OVC001 00/00 A3023 RMK AO2 T00020000,KAJZ,2019-01-17T14:35:00Z,38.78,-108.07,0.2,0.0,30,5,,0.5,30.230314,,,TRUE,TRUE,,,,,,FG,OVC,100,,,,,,,LIFR,,,,,,,,,,,,METAR,1583.0
KAIO 171435Z AUTO 31004KT 3SM BR FEW027 OVC042 M03/M03 A3010 RMK AO2,KAIO,2019-01-17T14:35:00Z,41.38,-95.03,-3.0,-3.0,310,4,,3.0,30.100393,,,TRUE,TRUE,,,,,,BR,FEW,2700,OVC,4200,,,,,MVFR,,,,,,,,,,,,METAR,360.0
KAIB 171435Z AUTO 12008KT 10SM CLR 00/M03 A3024 RMK AO2,KAIB,2019-01-17T14:35:00Z,38.23,-108.57,0.0,-3.0,120,8,,10.0,30.239174,,,TRUE,TRUE,,,,,,,CLR,,,,,,,,VFR,,,,,,,,,,,,METAR,1811.0
KAEJ 171435Z AUTO 24011G16KT 10SM CLR 02/M11 A3011 RMK AO2 T00171106,KAEJ,2019-01-17T14:35:00Z,38.82,-106.12,1.7,-10.6,240,11,16,10.0,30.109253,,,TRUE,TRUE,,,,,,,CLR,,,,,,,,VFR,,,,,,,,,,,,METAR,2422.0
KADU 171435Z AUTO 00000KT 4SM BR BKN009 OVC029 M03/M05 A3008 RMK AO2,KADU,2019-01-17T14:35:00Z,41.7,-94.92,-3.0,-5.0,0,0,,4.0,30.079725,,,TRUE,TRUE,,,,,,BR,BKN,900,OVC,2900,,,,,IFR,,,,,,,,,,,,METAR,392.0
KACQ 171435Z AUTO 29007KT 10SM OVC008 M06/M08 A3009 RMK AO2,KACQ,2019-01-17T14:35:00Z,44.07,-93.55,-6.0,-8.0,290,7,,10.0,30.088583,,,TRUE,TRUE,,,,,,,OVC,800,,,,,,,IFR,,,,,,,,,,,,METAR,343.0
K9D7 171435Z AUTO 01008KT 10SM FEW014 OVC021 M14/M16 A3014 RMK AO2,K9D7,2019-01-17T14:35:00Z,48.48,-99.23,-14.0,-16.0,10,8,,10.0,30.138779,,,TRUE,TRUE,,,,,,,FEW,1400,OVC,2100,,,,,MVFR,,,,,,,,,,,,METAR,452.0
K82C 171435Z AUTO 00000KT 2 1/2SM -SN BKN016 OVC021 M05/M06 A3008 RMK AO2 T10461065,K82C,2019-01-17T14:35:00Z,43.83,-90.13,-4.6,-6.5,0,0,,2.5,30.079725,,,TRUE,TRUE,,,,,,-SN,BKN,1600,OVC,2100,,,,,IFR,,,,,,,,,,,,METAR,276.0
K7L2 171435Z AUTO 00000KT 9SM M08/M10 A3009 RMK AO2,K7L2,2019-01-17T14:35:00Z,46.22,-100.25,-8.0,-10.0,0,0,,9.0,30.088583,,,TRUE,TRUE,,,,,,,,,,,,,,,,,,,,,,,,,,,METAR,543.0
K6S2 171435Z AUTO 15010G20KT 7SM RA SCT021 BKN028 OVC046 09/08 A2945 RMK AO2,K6S2,2019-01-17T14:35:00Z,43.98,-124.12,9.0,8.0,150,10,20,7.0,29.450787,,,TRUE,TRUE,,,,,,RA,SCT,2100,BKN,2800,OVC,4600,,,MVFR,,,,,,,,,,,,METAR,16.0
K6L4 171435Z AUTO 18006KT 10SM OVC030 02/M01 A3016 RMK AO2,K6L4,2019-01-17T14:35:00Z,37.85,-81.92,2.0,-1.0,180,6,,10.0,30.159449,,,TRUE,TRUE,,,,,,,OVC,3000,,,,,,,MVFR,,,,,,,,,,,,METAR,508.0
K6B9 171435Z AUTO 00000KT 10SM CLR M12/M13 A3035 RMK AO2,K6B9,2019-01-17T14:35:00Z,42.92,-76.43,-12.0,-13.0,0,0,,10.0,30.351377,,,TRUE,TRUE,,,,,,,CLR,,,,,,,,VFR,,,,,,,,,,,,METAR,316.0
K5H4 171435Z AUTO 35007KT 9SM OVC008 M13/M14 A3013 RMK AO2,K5H4,2019-01-17T14:35:00Z,47.78,-99.93,-13.0,-14.0,350,7,,9.0,30.129921,,,TRUE,TRUE,,,,,,,OVC,800,,,,,,,IFR,,,,,,,,,,,,METAR,490.0
K57C 171435Z AUTO 00000KT 10SM OVC031 M03/M05 A3009 RMK AO2 T10271051,K57C,2019-01-17T14:35:00Z,42.8,-88.37,-2.7,-5.1,0,0,,10.0,30.088583,,,TRUE,TRUE,,,,,,,OVC,3100,,,,,,,VFR,,,,,,,,,,,,METAR,262.0
K4R5 171435Z AUTO 00000KT 10SM OVC065 M12/M14 A3010 RMK AO2 T11171138,K4R5,2019-01-17T14:35:00Z,46.78,-90.77,-11.7,-13.8,0,0,,10.0,30.100393,,,TRUE,TRUE,,,,,,,OVC,6500,,,,,,,VFR,,,,,,,,,,,,METAR,198.0
K4M9 171435Z AUTO 00000KT 2 1/2SM BR OVC003 08/08 A3003 RMK AO2 PWINO,K4M9,2019-01-17T14:35:00Z,36.4,-90.65,8.0,8.0,0,0,,2.5,30.029528,,,TRUE,TRUE,,,,,TRUE,BR,OVC,300,,,,,,,LIFR,,,,,,,,,,,,METAR,90.0
K4A6 171435Z AUTO 00000KT 2 1/2SM -DZ BKN024 BKN030 03/03 A3022 RMK AO2,K4A6,2019-01-17T14:35:00Z,34.68,-86.0,3.0,3.0,0,0,,2.5,30.221457,,,TRUE,TRUE,,,,,,-DZ,BKN,2400,BKN,3000,,,,,IFR,,,,,,,,,,,,METAR,198.0
KSCX 171435Z AUTO 21005KT 3SM BR SCT032 OVC041 02/01 A3016 RMK A01,KSCX,2019-01-17T14:35:00Z,36.45,-84.58,2.0,1.0,210,5,,3.0,30.159449,,,TRUE,TRUE,,,,,,BR,SCT,3200,OVC,4100,,,,,MVFR,,,,,,,,,,,,METAR,471.0
KSCF 171435Z AUTO 16013KT 10SM SCT060 18/16 A3012 RMK A01,KSCF,2019-01-17T14:35:00Z,29.12,-91.87,18.0,16.0,160,13,,10.0,30.121063,,,TRUE,TRUE,,,,,,,SCT,6000,,,,,,,VFR,,,,,,,,,,,,METAR,8.0
KS52 171435Z AUTO 00000KT 1 3/4SM -SN BR BKN020 OVC024 M02/M02 A2967 RMK AO2 P0002 T10171021,KS52,2019-01-17T14:35:00Z,48.38,-120.15,-1.7,-2.1,0,0,,1.75,29.66929,,,TRUE,TRUE,,,,,,-SN BR,BKN,2000,OVC,2400,,,,,IFR,,,,,,0.02,,,,,,METAR,520.0
KS39 171435Z AUTO 00000KT 6SM BR OVC004 M02/M02 A2956 RMK AO2,KS39,2019-01-17T14:35:00Z,44.28,-120.9,-2.0,-2.0,0,0,,6.0,29.56004,,,TRUE,TRUE,,,,,,BR,OVC,400,,,,,,,LIFR,,,,,,,,,,,,METAR,991.0
KRZR 171435Z AUTO 27004KT 5SM BR FEW048 OVC060 03/03 A3019 RMK A01,KRZR,2019-01-17T14:35:00Z,35.22,-84.8,3.0,3.0,270,4,,5.0,30.188976,,,TRUE,TRUE,,,,,,BR,FEW,4800,OVC,6000,,,,,MVFR,,,,,,,,,,,,METAR,263.0
KRZL 171435Z AUTO 00000KT 1 1/4SM -SN OVC004 00/00 A3007 RMK AO2,KRZL,2019-01-17T14:35:00Z,40.95,-87.18,0.0,0.0,0,0,,1.25,30.070866,,,TRUE,TRUE,,,,,,-SN,OVC,400,,,,,,,LIFR,,,,,,,,,,,,METAR,213.0
KRTS 171435Z AUTO 23017G24KT 10SM SCT026 BKN055 OVC100 03/M01 A2978 RMK AO2,KRTS,2019-01-17T14:35:00Z,39.67,-119.88,3.0,-1.0,230,17,24,10.0,29.778543,,,TRUE,TRUE,,,,,,,SCT,2600,BKN,5500,OVC,10000,,,VFR,,,,,,,,,,,,METAR,1540.0
KRPH 171435Z AUTO 32007KT 10SM OVC011 08/06 A3016 RMK AO2 T00750062,KRPH,2019-01-17T14:35:00Z,33.12,-98.55,7.5,6.2,320,7,,10.0,30.159449,,,TRUE,TRUE,,,,,,,OVC,1100,,,,,,,MVFR,,,,,,,,,,,,METAR,342.0
KRNC 171435Z AUTO 15005KT 2 1/2SM BR FEW021 SCT034 BKN040 04/04 A3015 RMK A01,KRNC,2019-01-17T14:35:00Z,35.7,-85.85,4.0,4.0,150,5,,2.5,30.15059,,,TRUE,TRUE,,,,,,BR,FEW,2100,SCT,3400,BKN,4000,,,IFR,,,,,,,,,,,,METAR,315.0
KRMN 171435Z AUTO 00000KT 10SM OVC045 00/00 A3040 RMK AO2 T00040004,KRMN,2019-01-17T14:35:00Z,38.4,-77.45,0.4,0.4,0,0,,10.0,30.398623,,,TRUE,TRUE,,,,,,,OVC,4500,,,,,,,VFR,,,,,,,,,,,,METAR,65.0
KRLD 171435Z AUTO 27005KT 10SM -SN OVC018 03/02 A2964 RMK AO2 T00250020,KRLD,2019-01-17T14:35:00Z,46.3,-119.3,2.5,2.0,270,5,,10.0,29.639763,,,TRUE,TRUE,,,,,,-SN,OVC,1800,,,,,,,MVFR,,,,,,,,,,,,METAR,120.0
KRKW 171435Z AUTO 28003KT 1 1/2SM BR SCT002 BKN029 OVC038 01/01 A3018 RMK A01,KRKW,2019-01-17T14:35:00Z,35.92,-84.68,1.0,1.0,280,3,,1.5,30.180119,,,TRUE,TRUE,,,,,,BR,SCT,200,BKN,2900,OVC,3800,,,IFR,,,,,,,,,,,,METAR,508.0
KRCV 171435Z AUTO 27012KT 10SM CLR M12/M14 A3023 RMK AO2 T11211139,KRCV,2019-01-17T14:35:00Z,37.72,-106.35,-12.1,-13.9,270,12,,10.0,30.230314,,,TRUE,TRUE,,,,,,,CLR,,,,,,,,VFR,,,,,,,,,,,,METAR,2424.0
KRAS 171435Z AUTO 29007KT 5SM BR BKN005 OVC020 14/14 A3022 RMK AO2 T01440139,KRAS,2019-01-17T14:35:00Z,27.82,-97.08,14.4,13.9,290,7,,5.0,30.221457,,,TRUE,TRUE,,,,,,BR,BKN,500,OVC,2000,,,,,IFR,,,,,,,,,,,,METAR,2.0
KPYX 171435Z AUTO 25004KT 5SM CLR 00/00 A3012 RMK AO2 T00020000,KPYX,2019-01-17T14:35:00Z,36.42,-100.75,0.2,0.0,250,4,,5.0,30.121063,,,TRUE,TRUE,,,,,,,CLR,,,,,,,,MVFR,,,,,,,,,,,,METAR,889.0
KPVE 171435Z AUTO 17006KT 2SM BR BKN005 OVC009 07/07 A3010 RMK A01,KPVE,2019-01-17T14:35:00Z,35.65,-88.2,7.0,7.0,170,6,,2.0,30.100393,,,TRUE,TRUE,,,,,,BR,BKN,500,OVC,900,,,,,IFR,,,,,,,,,,,,METAR,149.0
KPVB 171435Z AUTO 11005KT 10SM OVC020 M03/M04 A3007 RMK AO1 T10301040,KPVB,2019-01-17T14:35:00Z,42.68,-90.43,-3.0,-4.0,110,5,,10.0,30.070866,,,TRUE,TRUE,,,,,,,OVC,2000,,,,,,,MVFR,,,,,,,,,,,,METAR,313.0
KM54 171435Z AUTO 19010G16KT 3SM BR FEW033 SCT042 BKN055 05/04 A3011 RMK A01,KM54,2019-01-17T14:35:00Z,36.18,-86.32,5.0,4.0,190,10,16,3.0,30.109253,,,TRUE,TRUE,,,,,,BR,FEW,3300,SCT,4200,BKN,5500,,,MVFR,,,,,,,,,,,,METAR,180.0
KM08 171435Z AUTO 00000KT 2SM BR OVC004 09/08 A3009 RMK A01,KM08,2019-01-17T14:35:00Z,35.22,-89.05,9.0,8.0,0,0,,2.0,30.088583,,,TRUE,TRUE,,,,,,BR,OVC,400,,,,,,,LIFR,,,,,,,,,,,,METAR,152.0
KM04 171435Z AUTO 21009KT 9SM OVC006 09/09 A3005 RMK A01,KM04,2019-01-17T14:35:00Z,35.58,-89.58,9.0,9.0,210,9,,9.0,30.050198,,,TRUE,TRUE,,,,,,,OVC,600,,,,,,,IFR,,,,,,,,,,,,METAR,85.0
KM02 171435Z AUTO 21011KT 9SM BKN005 OVC012 06/05 A3007 RMK A01,KM02,2019-01-17T14:35:00Z,36.13,-87.43,6.0,5.0,210,11,,9.0,30.070866,,,TRUE,TRUE,,,,,,,BKN,500,OVC,1200,,,,,IFR,,,,,,,,,,,,METAR,272.0
KLZZ 171435Z AUTO 27007KT 10SM CLR 11/09 A3013 RMK AO2 T01110086,KLZZ,2019-01-17T14:35:00Z,31.1,-98.2,11.1,8.6,270,7,,10.0,30.129921,,,TRUE,TRUE,,,,,,,CLR,,,,,,,,VFR,,,,,,,,,,,,METAR,371.0
KLYO 171435Z AUTO 28007KT 3SM BR OVC003 M01/M01 A3012 RMK AO2 T10051007,KLYO,2019-01-17T14:35:00Z,38.35,-98.23,-0.5,-0.7,280,7,,3.0,30.121063,,,TRUE,TRUE,,,,,,BR,OVC,300,,,,,,,LIFR,,,,,,,,,,,,METAR,515.0
KLXN 171435Z AUTO 31004KT 3SM BR OVC003 00/M01 A3005 RMK AO2 T10021010,KLXN,2019-01-17T14:35:00Z,40.78,-99.77,-0.2,-1.0,310,4,,3.0,30.050198,,,TRUE,TRUE,,,,,,BR,OVC,300,,,,,,,LIFR,,,,,,,,,,,,METAR,734.0
KLUV 171435Z AUTO 32010KT 10SM CLR 08/00 A3020 RMK AO2,KLUV,2019-01-17T14:35:00Z,32.75,-101.92,8.0,0.0,320,10,,10.0,30.200787,,,TRUE,TRUE,,,,,,,CLR,,,,,,,,VFR,,,,,,,,,,,,METAR,912.0
KLUG 171435Z AUTO 18010KT 2 1/2SM BR FEW010 OVC037 05/05 A3014 RMK A01,KLUG,2019-01-17T14:35:00Z,35.52,-86.8,5.0,5.0,180,10,,2.5,30.138779,,,TRUE,TRUE,,,,,,BR,FEW,1000,OVC,3700,,,,,IFR,,,,,,,,,,,,METAR,219.0
KLUA 171435Z AUTO 25003KT 10SM OVC031 00/M02 A3030 RMK AO2,KLUA,2019-01-17T14:35:00Z,38.67,-78.5,0.0,-2.0,250,3,,10.0,30.301182,,,TRUE,TRUE,,,,,,,OVC,3100,,,,,,,VFR,,,,,,,,,,,,METAR,275.0
KLRU 171435Z AUTO 31003KT 10SM CLR 01/00 A3028 RMK AO2 T00050000,KLRU,2019-01-17T14:35:00Z,32.27,-106.92,0.5,0.0,310,3,,10.0,30.280512,,,TRUE,TRUE,,,,,,,CLR,,,,,,,,VFR,,,,,,,,,,,,METAR,1358.0
KLOT 171435Z AUTO 06003KT 3SM BR OVC008 M02/M03 A3009 RMK AO2 T10181027,KLOT,2019-01-17T14:35:00Z,41.6,-88.1,-1.8,-2.7,60,3,,3.0,30.088583,,,TRUE,TRUE,,,,,,BR,OVC,800,,,,,,,IFR,,,,,,,,,,,,METAR,205.0
KLJF 171435Z AUTO 30007KT 10SM OVC036 M09/M12 A3010 RMK AO2,KLJF,2019-01-17T14:35:00Z,45.1,-94.52,-9.0,-12.0,300,7,,10.0,30.100393,,,TRUE,TRUE,,,,,,,OVC,3600,,,,,,,VFR,,,,,,,,,,,,METAR,348.0
KLCK 171435Z AUTO 13003KT 10SM SCT022 OVC029 00/M03 A3017 RMK AO2 T00001027,KLCK,2019-01-17T14:35:00Z,39.82,-82.92,0.0,-2.7,130,3,,10.0,30.171259,,,TRUE,TRUE,,,,,,,SCT,2200,OVC,2900,,,,,MVFR,,,,,,,,,,,,METAR,227.0
KJWN 171435Z AUTO VRB06KT 8SM OVC011 06/05 A3009 RMK A01,KJWN,2019-01-17T14:35:00Z,36.18,-86.88,6.0,5.0,0,6,,8.0,30.088583,,,TRUE,TRUE,,,,,,,OVC,1100,,,,,,,MVFR,,,,,,,,,,,,METAR,151.0
KJTC 171435Z AUTO 24007KT 10SM SCT120 M04/M11 A3025 RMK AO2,KJTC,2019-01-17T14:35:00Z,34.13,-109.32,-4.0,-11.0,240,7,,10.0,30.250984,,,TRUE,TRUE,,,,,,,SCT,12000,,,,,,,VFR,,,,,,,,,,,,METAR,2150.0
KJFZ 171435Z AUTO 00000KT 10SM CLR M01/M03 A3015 RMK AO2 T10111027,KJFZ,2019-01-17T14:35:00Z,37.07,-81.8,-1.1,-2.7,0,0,,10.0,30.15059,,,TRUE,TRUE,,,,,,,CLR,,,,,,,,VFR,,,,,,,,,,,,METAR,809.0
KJAQ 171435Z AUTO 13005KT 7SM BKN007 BKN044 BKN055 10/10 A2992 RMK AO1 T00950095,KJAQ,2019-01-17T14:35:00Z,38.37,-120.8,9.5,9.5,130,5,,7.0,29.920275,,,TRUE,TRUE,,,,,,,BKN,700,BKN,4400,BKN,5500,,,IFR,,,,,,,,,,,,METAR,512.0
KIMM 171435Z AUTO 35006KT 10SM CLR 14/09 A3026 RMK A01,KIMM,2019-01-17T14:35:00Z,26.43,-81.4,14.0,9.0,350,6,,10.0,30.259842,,,TRUE,TRUE,,,,,,,CLR,,,,,,,,VFR,,,,,,,,,,,,METAR,12.0
KIKT 171435Z AUTO VRB05G10KT 10SM BKN030 BKN120 21/11 A3025 RMK A01,KIKT,2019-01-17T14:35:00Z,28.52,-88.28,21.0,11.0,0,5,10,10.0,30.250984,,,TRUE,TRUE,,,,,,,BKN,3000,BKN,12000,,,,,MVFR,,,,,,,,,,,,METAR,25.0
KIFP 171435Z 15005KT 10SM FEW043 SCT048 BKN060 13/10 A3015 RMK AO2,KIFP,2019-01-17T14:35:00Z,35.15,-114.57,13.0,10.0,150,5,,10.0,30.15059,,,,TRUE,,,,,,,FEW,4300,SCT,4800,BKN,6000,,,VFR,,,,,,,,,,,,METAR,212.0
KIBM 171435Z AUTO 00000KT 10SM CLR M03/M07 A3000 RMK AO2 T10311070,KIBM,2019-01-17T14:35:00Z,41.18,-103.68,-3.1,-7.0,0,0,,10.0,30.0,,,TRUE,TRUE,,,,,,,CLR,,,,,,,,VFR,,,,,,,,,,,,METAR,1501.0
KHZD 171435Z AUTO 18007KT 9SM OVC005 08/07 A3006 RMK A01,KHZD,2019-01-17T14:35:00Z,36.08,-88.47,8.0,7.0,180,7,,9.0,30.059055,,,TRUE,TRUE,,,,,,,OVC,500,,,,,,,IFR,,,,,,,,,,,,METAR,151.0
KHTH 171435Z AUTO 08007G15KT 050V110 10SM CLR 08/03 A2984 RMK A01,KHTH,2019-01-17T14:35:00Z,,,8.0,3.0,80,7,15,10.0,29.840551,,,TRUE,TRUE,,,,,,,CLR,,,,,,,,VFR,,,,,,,,,,,,METAR,
KHSP 171435Z AUTO 00000KT M1/4SM FG OVC003 A3014 RMK AO2,KHSP,2019-01-17T14:35:00Z,37.95,-79.82,,,0,0,,0.25,30.138779,,,TRUE,TRUE,,,,,,FG,OVC,300,,,,,,,LIFR,,,,,,,,,,,,METAR,1156.0
KHQU 171435Z AUTO 00000KT 10SM CLR 02/01 A3031 RMK AO2 T00240012,KHQU,2019-01-17T14:35:00Z,33.53,-82.52,2.4,1.2,0,0,,10.0,30.31004,,,TRUE,TRUE,,,,,,,CLR,,,,,,,,VFR,,,,,,,,,,,,METAR,152.0
KHLB 171435Z AUTO 13006KT 2 1/2SM BR OVC004 01/01 A3009 RMK A01,KHLB,2019-01-17T14:35:00Z,,,1.0,1.0,130,6,,2.5,30.088583,,,TRUE,TRUE,,,,,,BR,OVC,400,,,,,,,LIFR,,,,,,,,,,,,METAR,
KHHV 171435Z AUTO 20008G14KT 10SM BKN037 BKN070 22/18 A3020 RMK A01,KHHV,2019-01-17T14:35:00Z,26.93,-94.68,22.0,18.0,200,8,14,10.0,30.200787,,,TRUE,TRUE,,,,,,,BKN,3700,BKN,7000,,,,,VFR,,,,,,,,,,,,METAR,25.0
KHDC 171435Z AUTO 11005KT 2 1/2SM -DZ BKN005 BKN008 OVC018 10/10 A3023 RMK AO2,KHDC,2019-01-17T14:35:00Z,30.52,-90.42,10.0,10.0,110,5,,2.5,30.230314,,,TRUE,TRUE,,,,,,-DZ,BKN,500,BKN,800,OVC,1800,,,IFR,,,,,,,,,,,,METAR,13.0
KBGF 171435Z AUTO 00000KT 1 1/2SM BR OVC024 05/03 A3021 RMK A01,KBGF,2019-01-17T14:35:00Z,35.18,-86.07,5.0,3.0,0,0,,1.5,30.209646,,,TRUE,TRUE,,,,,,BR,OVC,2400,,,,,,,IFR,,,,,,,,,,,,METAR,299.0
KBFW 171435Z AUTO 00000KT 10SM BKN110 M17/M19 A3005 RMK AO2,KBFW,2019-01-17T14:35:00Z,47.25,-91.4,-17.0,-19.0,0,0,,10.0,30.050198,,,TRUE,TRUE,,,,,,,BKN,11000,,,,,,,VFR,,,,,,,,,,,,METAR,331.0
KBBP 171435Z AUTO 06003KT 10SM CLR 03/00 A3031 RMK AO2,KBBP,2019-01-17T14:35:00Z,34.62,-79.73,3.0,0.0,60,3,,10.0,30.31004,,,TRUE,TRUE,,,,,,,CLR,,,,,,,,VFR,,,,,,,,,,,,METAR,45.0
KBBF 171435Z AUTO 29009KT 10SM OVC008 17/14 A3018 RMK A01,KBBF,2019-01-17T14:35:00Z,27.83,-96.02,17.0,14.0,290,9,,10.0,30.180119,,,TRUE,TRUE,,,,,,,OVC,800,,,,,,,IFR,,,,,,,,,,,,METAR,36.0
KBBD 171435Z AUTO 28007KT 10SM CLR 07/06 A3017 RMK AO2,KBBD,2019-01-17T14:35:00Z,31.18,-99.32,7.0,6.0,280,7,,10.0,30.171259,,,TRUE,TRUE,,,,,,,CLR,,,,,,,,VFR,,,,,,,,,,,,METAR,557.0
KBAM 171435Z AUTO 23007KT 10SM CLR 02/02 A2981 RMK AO1,KBAM,2019-01-17T14:35:00Z,,,2.0,2.0,230,7,,10.0,29.811024,,,TRUE,TRUE,,,,,,,CLR,,,,,,,,VFR,,,,,,,,,,,,METAR,
KAYS 171435Z AUTO 00000KT 10SM CLR 08/06 A3030 RMK AO2 T00800055,KAYS,2019-01-17T14:35:00Z,31.25,-82.4,8.0,5.5,0,0,,10.0,30.301182,,,TRUE,TRUE,,,,,,,CLR,,,,,,,,VFR,,,,,,,,,,,,METAR,46.0
KAVK 171435Z AUTO 00000KT 10SM OVC011 01/01 A3016 RMK AO2,KAVK,2019-01-17T14:35:00Z,36.77,-98.67,1.0,1.0,0,0,,10.0,30.159449,,,TRUE,TRUE,,,,,,,OVC,1100,,,,,,,MVFR,,,,,,,,,,,,METAR,449.0
KASN 171435Z AUTO 00000KT 7SM OVC036 03/02 A3026 RMK AO2 T00270019,KASN,2019-01-17T14:35:00Z,33.57,-86.05,2.7,1.9,0,0,,7.0,30.259842,,,TRUE,TRUE,,,,,,,OVC,3600,,,,,,,VFR,,,,,,,,,,,,METAR,162.0
KARW 171435Z AUTO 00000KT 7SM CLR 10/06 A3031 RMK AO2,KARW,2019-01-17T14:35:00Z,32.42,-80.63,10.0,6.0,0,0,,7.0,30.31004,,,TRUE,TRUE,,,,,,,CLR,,,,,,,,VFR,,,,,,,,,,,,METAR,4.0
KAPY 171435Z AUTO 31003KT 1 1/4SM BR OVC002 12/12 A3023 RMK AO2 T01300130,KAPY,2019-01-17T14:35:00Z,26.97,-99.25,13.0,13.0,310,3,,1.25,30.230314,,,TRUE,TRUE,,,,,,BR,OVC,200,,,,,,,LIFR,,,,,,,,,,,,METAR,129.0
KANW 171435Z AUTO 00000KT 1/4SM FZFG OVC003 M06/M06 A3003 RMK AO2 T10571057,KANW,2019-01-17T14:35:00Z,42.57,-100.0,-5.7,-5.7,0,0,,0.25,30.029528,,,TRUE,TRUE,,,,,,FZFG,OVC,300,,,,,,,LIFR,,,,,,,,,,,,METAR,789.0
KALM 171435Z AUTO 16005KT 10SM CLR 02/M02 A3029 RMK AO2,KALM,2019-01-17T14:35:00Z,32.82,-105.97,2.0,-2.0,160,5,,10.0,30.28937,,,TRUE,TRUE,,,,,,,CLR,,,,,,,,VFR,,,,,,,,,,,,METAR,1279.0
KAIG 171435Z AUTO 17005KT 10SM OVC011 M10/M11 A3005 RMK AO2 T10961115,KAIG,2019-01-17T14:35:00Z,45.15,-89.12,-9.6,-11.5,170,5,,10.0,30.050198,,,TRUE,TRUE,,,,,,,OVC,1100,,,,,,,MVFR,,,,,,,,,,,,METAR,464.0
KA39 171435Z AUTO 32006KT 5SM BR SCT003 06/05 A3023 RMK AO2,KA39,2019-01-17T14:35:00Z,32.98,-111.92,6.0,5.0,320,6,,5.0,30.230314,,,TRUE,TRUE,,,,,,BR,SCT,300,,,,,,,MVFR,,,,,,,,,,,,METAR,396.0
K8A3 171435Z AUTO 19006KT 3SM BR FEW032 SCT039 SCT047 04/03 A3011 RMK A01,K8A3,2019-01-17T14:35:00Z,36.42,-85.32,4.0,3.0,190,6,,3.0,30.109253,,,TRUE,TRUE,,,,,,BR,FEW,3200,SCT,3900,SCT,4700,,,MVFR,,,,,,,,,,,,METAR,419.0
K6S0 171435Z AUTO 04012KT 10SM OVC070 M02/M06 A2986 RMK A01,K6S0,2019-01-17T14:35:00Z,45.8,-109.97,-2.0,-6.0,40,12,,10.0,29.861221,,,TRUE,TRUE,,,,,,,OVC,7000,,,,,,,VFR,,,,,,,,,,,,METAR,1363.0
K5T9 171435Z AUTO 00000KT 1/4SM FG OVC002 07/06 A3024 RMK A01,K5T9,2019-01-17T14:35:00Z,28.85,-100.52,7.0,6.0,0,0,,0.25,30.239174,,,TRUE,TRUE,,,,,,FG,OVC,200,,,,,,,LIFR,,,,,,,,,,,,METAR,270.0
K54A 171435Z AUTO 05006KT 10SM CLR 12/07 A3025 RMK AO2,K54A,2019-01-17T14:35:00Z,26.85,-82.25,12.0,7.0,50,6,,10.0,30.250984,,,TRUE,TRUE,,,,,,,CLR,,,,,,,,VFR,,,,,,,,,,,,METAR,14.0
K46U 171435Z AUTO 06004KT 2 1/2SM BR BKN003 BKN014 OVC021 01/M00 A2995 RMK A01,K46U,2019-01-17T14:35:00Z,43.18,-111.05,1.0,0.0,60,4,,2.5,29.949802,,,TRUE,TRUE,,,,,,BR,BKN,300,BKN,1400,OVC,2100,,,LIFR,,,,,,,,,,,,METAR,1717.0
K3T5 171435Z AUTO 26004KT 7SM OVC006 A3017 RMK AO2,K3T5,2019-01-17T14:35:00Z,29.9,-96.95,,,260,4,,7.0,30.171259,,,TRUE,TRUE,,,,,,,OVC,600,,,,,,,IFR,,,,,,,,,,,,METAR,99.0
K3S8 171435Z AUTO VRB04G12KT 10SM BKN034 BKN040 OVC055 08/05 A2959 RMK AO2,K3S8,2019-01-17T14:35:00Z,42.5,-123.4,8.0,5.0,0,4,12,10.0,29.589567,,,TRUE,TRUE,,,,,,,BKN,3400,BKN,4000,OVC,5500,,,VFR,,,,,,,,,,,,METAR,343.0
K3L4 171435Z AUTO 16007KT 5SM HZ FEW020 BKN030 OVC048 A3017 RMK A01,K3L4,2019-01-17T14:35:00Z,29.8,-92.8,,,160,7,,5.0,30.171259,,,TRUE,TRUE,,,,,,HZ,FEW,2000,BKN,3000,OVC,4800,,,MVFR,,,,,,,,,,,,METAR,2.0
K33N 171435Z AUTO 06007G12KT 10SM CLR M00/M07 A3039 RMK A01,K33N,2019-01-17T14:35:00Z,39.22,-75.6,0.0,-7.0,60,7,12,10.0,30.389763,,,TRUE,TRUE,,,,,,,CLR,,,,,,,,VFR,,,,,,,,,,,,METAR,17.0
K2M2 171435Z AUTO 16009KT 1 1/2SM BR BKN006 BKN032 OVC039 05/04 A3013 RMK A01,K2M2,2019-01-17T14:35:00Z,35.23,-87.25,5.0,4.0,160,9,,1.5,30.129921,,,TRUE,TRUE,,,,,,BR,BKN,600,BKN,3200,OVC,3900,,,IFR,,,,,,,,,,,,METAR,286.0
K2LS 171435Z AUTO 13005KT 10SM BKN048 OVC055 14/10 A3024 RMK AO2,K2LS,2019-01-17T14:35:00Z,29.42,-90.3,14.0,10.0,130,5,,10.0,30.239174,,,TRUE,TRUE,,,,,,,BKN,4800,OVC,5500,,,,,VFR,,,,,,,,,,,,METAR,-2.0
K2G9 171435Z AUTO 00000KT 10SM OVC023 M03/M05 A3020 RMK AO2,K2G9,2019-01-17T14:35:00Z,40.03,-79.02,-3.0,-5.0,0,0,,10.0,30.200787,,,TRUE,TRUE,,,,,,,OVC,2300,,,,,,,MVFR,,,,,,,,,,,,METAR,693.0
K2A0 171435Z AUTO 00000G10KT 2SM BR FEW030 OVC044 03/03 A3023 RMK A01,K2A0,2019-01-17T14:35:00Z,35.48,-84.93,3.0,3.0,0,0,10,2.0,30.230314,,,TRUE,TRUE,,,,,,BR,FEW,3000,OVC,4400,,,,,IFR,,,,,,,,,,,,METAR,219.0
K28J 171435Z AUTO 34003KT 10SM CLR 10/10 A3030 RMK AO2,K28J,2019-01-17T14:35:00Z,29.65,-81.58,10.0,10.0,340,3,,10.0,30.301182,,,TRUE,TRUE,,,,,,,CLR,,,,,,,,VFR,,,,,,,,,,,,METAR,15.0
K1U7 171435Z AUTO 00000KT 9SM OVC024 M02/M03 A2994 RMK A01,K1U7,2019-01-17T14:35:00Z,,,-2.0,-3.0,0,0,,9.0,29.940945,,,TRUE,TRUE,,,,,,,OVC,2400,,,,,,,MVFR,,,,,,,,,,,,METAR,
K18H 171435Z AUTO VRB05G12KT 8SM SCT025 BKN095 23/17 A3021 RMK A01,K18H,2019-01-17T14:35:00Z,26.13,-92.03,23.0,17.0,0,5,12,8.0,30.209646,,,TRUE,TRUE,,,,,,,SCT,2500,BKN,9500,,,,,VFR,,,,,,,,,,,,METAR,10.0
K13K 171435Z AUTO 31007KT 7SM BR OVC004 01/00 A3012 RMK AO2 T00070005,K13K,2019-01-17T14:35:00Z,37.85,-96.3,0.7,0.5,310,7,,7.0,30.121063,,,TRUE,TRUE,,,,,,BR,OVC,400,,,,,,,LIFR,,,,,,,,,,,,METAR,369.0
K0R0 171435Z AUTO 15003KT 10SM BKN029 BKN034 08/07 A3027 RMK AO2,K0R0,2019-01-17T14:35:00Z,31.3,-89.82,8.0,7.0,150,3,,10.0,30.268702,,,TRUE,TRUE,,,,,,,BKN,2900,BKN,3400,,,,,MVFR,,,,,,,,,,,,METAR,81.0
K0A9 171435Z AUTO 11004KT 10SM CLR 03/M01 A3019 RMK AO2,K0A9,2019-01-17T14:35:00Z,36.37,-82.17,3.0,-1.0,110,4,,10.0,30.188976,,,TRUE,TRUE,,,,,,,CLR,,,,,,,,VFR,,,,,,,,,,,,METAR,486.0
K05U 171435Z AUTO 19007G14KT 10SM SCT037 BKN043 OVC060 04/01 A2988 RMK A01,K05U,2019-01-17T14:35:00Z,39.6,-116.0,4.0,1.0,190,7,14,10.0,29.878937,,,TRUE,TRUE,,,,,,,SCT,3700,BKN,4300,OVC,6000,,,VFR,,,,,,,,,,,,METAR,1816.0
KEBA 171435Z AUTO 04003KT 7SM CLR 03/02 A3028 RMK AO2 T00320022,KEBA,2019-01-17T14:35:00Z,34.1,-82.82,3.2,2.2,40,3,,7.0,30.280512,,,TRUE,TRUE,,,,,,,CLR,,,,,,,,VFR,,,,,,,,,,,,METAR,184.0
KDZJ 171435Z AUTO 15003KT 5SM BR SCT050 OVC065 00/M01 A3018 RMK AO2 T00001007,KDZJ,2019-01-17T14:35:00Z,34.85,-84.0,0.0,-0.7,150,3,,5.0,30.180119,,,TRUE,TRUE,,,,,,BR,SCT,5000,OVC,6500,,,,,MVFR,,,,,,,,,,,,METAR,582.0
KDUA 171435Z AUTO 32009KT 10SM OVC022 10/09 A3009 RMK AO2,KDUA,2019-01-17T14:35:00Z,33.95,-96.4,10.0,9.0,320,9,,10.0,30.088583,,,TRUE,TRUE,,,,,,,OVC,2200,,,,,,,MVFR,,,,,,,,,,,,METAR,213.0
KDSF 171435Z AUTO 19005KT 10SM FEW120 19/12 A3024 RMK A01,KDSF,2019-01-17T14:35:00Z,28.35,-88.27,19.0,12.0,190,5,,10.0,30.239174,,,TRUE,TRUE,,,,,,,FEW,12000,,,,,,,VFR,,,,,,,,,,,,METAR,130.0
KDNV 171435Z AUTO 11003KT 2 1/2SM -RA OVC004 00/00 A3002 RMK AO2 P0006 T00000000,KDNV,2019-01-17T14:35:00Z,40.2,-87.6,0.0,0.0,110,3,,2.5,30.02067,,,TRUE,TRUE,,,,,,-RA,OVC,400,,,,,,,LIFR,,,,,,0.06,,,,,,METAR,212.0
KDNN 171435Z AUTO 00000KT 4SM BR SCT060 OVC070 01/01 A3022 RMK AO2,KDNN,2019-01-17T14:35:00Z,34.72,-84.87,1.0,1.0,0,0,,4.0,30.221457,,,TRUE,TRUE,,,,,,BR,SCT,6000,OVC,7000,,,,,MVFR,,,,,,,,,,,,METAR,216.0
KDKX 171435Z AUTO 00000KT 7SM OVC050 03/02 A3019 RMK A01,KDKX,2019-01-17T14:35:00Z,35.97,-83.87,3.0,2.0,0,0,,7.0,30.188976,,,TRUE,TRUE,,,,,,,OVC,5000,,,,,,,VFR,,,,,,,,,,,,METAR,254.0
KD25 171435Z AUTO 00000KT 10SM OVC024 M16/M18 A3002 RMK AO2 T11611181,KD25,2019-01-17T14:35:00Z,46.12,-89.88,-16.1,-18.1,0,0,,10.0,30.02067,,,TRUE,TRUE,,,,,,,OVC,2400,,,,,,,MVFR,,,,,,,,,,,,METAR,491.0
KCXW 171435Z AUTO 18007KT 6SM BR OVC007 11/11 A3003 RMK A01,KCXW,2019-01-17T14:35:00Z,35.02,-92.55,11.0,11.0,180,7,,6.0,30.029528,,,TRUE,TRUE,,,,,,BR,OVC,700,,,,,,,IFR,,,,,,,,,,,,METAR,84.0
KCVW 171435Z AUTO 17005KT 4SM BR BKN023 OVC028 16/16 A3015 RMK A01,KCVW,2019-01-17T14:35:00Z,29.78,-93.3,16.0,16.0,170,5,,4.0,30.15059,,,TRUE,TRUE,,,,,,BR,BKN,2300,OVC,2800,,,,,MVFR,,,,,,,,,,,,METAR,1.0
KCVB 171435Z AUTO 27007KT 4SM BR OVC003 11/11 A3023 RMK AO2 T01110111,KCVB,2019-01-17T14:35:00Z,29.35,-98.85,11.1,11.1,270,7,,4.0,30.230314,,,TRUE,TRUE,,,,,,BR,OVC,300,,,,,,,LIFR,,,,,,,,,,,,METAR,235.0
KCRX 171435Z AUTO 16005KT 3SM -DZ OVC004 08/07 A3011 RMK AO2,KCRX,2019-01-17T14:35:00Z,34.92,-88.6,8.0,7.0,160,5,,3.0,30.109253,,,TRUE,TRUE,,,,,,-DZ,OVC,400,,,,,,,LIFR,,,,,,,,,,,,METAR,130.0
KCQM 171435Z AUTO 00000KT 10SM OVC110 M20/M22 A3008 RMK AO2,KCQM,2019-01-17T14:35:00Z,47.82,-92.68,-20.0,-22.0,0,0,,10.0,30.079725,,,TRUE,TRUE,,,,,,,OVC,11000,,,,,,,VFR,,,,,,,,,,,,METAR,404.0
KCQF 171435Z AUTO 00000KT 10SM SCT070 08/07 A3024 RMK AO2,KCQF,2019-01-17T14:35:00Z,30.47,-87.88,8.0,7.0,0,0,,10.0,30.239174,,,TRUE,TRUE,,,,,,,SCT,7000,,,,,,,VFR,,,,,,,,,,,,METAR,28.0
KCOM 171435Z AUTO 27007KT 10SM CLR 09/06 A3017 RMK AO2 T00880057,KCOM,2019-01-17T14:35:00Z,31.83,-99.4,8.8,5.7,270,7,,10.0,30.171259,,,TRUE,TRUE,,,,,,,CLR,,,,,,,,VFR,,,,,,,,,,,,METAR,517.0
KCNI 171435Z AUTO 13003KT 10SM BKN048 BKN070 BKN120 02/01 A3023 RMK AO2,KCNI,2019-01-17T14:35:00Z,34.32,-84.42,2.0,1.0,130,3,,10.0,30.230314,,,TRUE,TRUE,,,,,,,BKN,4800,BKN,7000,BKN,12000,,,VFR,,,,,,,,,,,,METAR,372.0
KCNB 171435Z AUTO 00000KT 10SM SCT028 SCT034 BKN090 M12/M14 A3014 RMK AO2 T11221136,KCNB,2019-01-17T14:35:00Z,44.73,-96.27,-12.2,-13.6,0,0,,10.0,30.138779,,,TRUE,TRUE,,,,,,,SCT,2800,SCT,3400,BKN,9000,,,VFR,,,,,,,,,,,,METAR,364.0
KCMY 171435Z AUTO 00000KT 10SM CLR M05/M07 A3009 RMK AO2 T10551066,KCMY,2019-01-17T14:35:00Z,43.97,-90.73,-5.5,-6.6,0,0,,10.0,30.088583,,,TRUE,TRUE,,,,,,,CLR,,,,,,,,VFR,,,,,,,,,,,,METAR,256.0
KCKP 171435Z AUTO 33003KT 5SM BR SCT010 OVC036 M05/M06 A3010 RMK AO2 T10501057,KCKP,2019-01-17T14:35:00Z,42.73,-95.55,-5.0,-5.7,330,3,,5.0,30.100393,,,TRUE,TRUE,,,,,,BR,SCT,1000,OVC,3600,,,,,MVFR,,,,,,,,,,,,METAR,374.0
KCIR 171435Z AUTO 21003KT 5SM BR OVC003 07/07 A3005 RMK AO2 T00660066,KCIR,2019-01-17T14:35:00Z,37.07,-89.22,6.6,6.6,210,3,,5.0,30.050198,,,TRUE,TRUE,,,,,,BR,OVC,300,,,,,,,LIFR,,,,,,,,,,,,METAR,98.0
KCFE 171435Z AUTO 27003KT 10SM BKN038 OVC045 M10/M13 A3011 RMK AO2 T11001135,KCFE,2019-01-17T14:35:00Z,45.17,-93.85,-10.0,-13.5,270,3,,10.0,30.109253,,,TRUE,TRUE,,,,,,,BKN,3800,OVC,4500,,,,,VFR,,,,,,,,,,,,METAR,295.0
KCCB 171435Z AUTO 21005KT 1 3/4SM RA OVC003 13/13 A3011 RMK AO2,KCCB,2019-01-17T14:35:00Z,34.12,-117.68,13.0,13.0,210,5,,1.75,30.109253,,,TRUE,TRUE,,,,,,RA,OVC,300,,,,,,,LIFR,,,,,,,,,,,,METAR,440.0
KCBK 171435Z AUTO 27007KT 10SM CLR M02/M04 A3007 RMK AO2,KCBK,2019-01-17T14:35:00Z,39.43,-101.05,-2.0,-4.0,270,7,,10.0,30.070866,,,TRUE,TRUE,,,,,,,CLR,,,,,,,,VFR,,,,,,,,,,,,METAR,971.0
KC83 171435Z AUTO 11007KT 10SM SCT040 BKN048 OVC055 12/10 A2993 RMK AO2,KC83,2019-01-17T14:35:00Z,37.83,-121.62,12.0,10.0,110,7,,10.0,29.929134,,,TRUE,TRUE,,,,,,,SCT,4000,BKN,4800,OVC,5500,,,VFR,,,,,,,,,,,,METAR,24.0
KC29 171435Z AUTO 00000KT 10SM OVC020 M02/M05 A3009 RMK AO1 T10221055,KC29,2019-01-17T14:35:00Z,43.12,-89.53,-2.2,-5.5,0,0,,10.0,30.088583,,,TRUE,TRUE,,,,,,,OVC,2000,,,,,,,MVFR,,,,,,,,,,,,METAR,283.0
KBYL 171435Z AUTO 16005KT 3SM OVC044 03/01 A3017 RMK AO1,KBYL,2019-01-17T14:35:00Z,36.8,-84.2,3.0,1.0,160,5,,3.0,30.171259,,,TRUE,TRUE,,,,,,,OVC,4400,,,,,,,MVFR,,,,,,,,,,,,METAR,359.0
KBWD 171435Z AUTO 00000KT 3SM CLR 05/05 A3017 RMK AO1,KBWD,2019-01-17T14:35:00Z,31.8,-98.95,5.0,5.0,0,0,,3.0,30.171259,,,TRUE,TRUE,,,,,,,CLR,,,,,,,,MVFR,,,,,,,,,,,,METAR,423.0
KBVN 171435Z AUTO 00000KT 1 3/4SM BR OVC010 M02/M03 A3005 RMK AO2 T10211030,KBVN,2019-01-17T14:35:00Z,41.73,-98.05,-2.1,-3.0,0,0,,1.75,30.050198,,,TRUE,TRUE,,,,,,BR,OVC,1000,,,,,,,IFR,,,,,,,,,,,,METAR,551.0
KBQX 171435Z AUTO 27011KT 10SM BKN008 OVC012 16/15 A3020 RMK A01,KBQX,2019-01-17T14:35:00Z,28.5,-95.72,16.0,15.0,270,11,,10.0,30.200787,,,TRUE,TRUE,,,,,,,BKN,800,OVC,1200,,,,,IFR,,,,,,,,,,,,METAR,34.0
KBKT 171435Z AUTO 08005KT 10SM SCT037 02/00 A3035 RMK AO1 T00191002,KBKT,2019-01-17T14:35:00Z,37.07,-77.95,1.9,-0.2,80,5,,10.0,30.351377,,,TRUE,TRUE,,,,,,,SCT,3700,,,,,,,VFR,,,,,,,,,,,,METAR,134.0
KBIJ 171435Z AUTO 00000KT 10SM CLR 05/03 A3027 RMK AO2,KBIJ,2019-01-17T14:35:00Z,31.4,-84.9,5.0,3.0,0,0,,10.0,30.268702,,,TRUE,TRUE,,,,,,,CLR,,,,,,,,VFR,,,,,,,,,,,,METAR,65.0
KPTD 171435Z AUTO 25003KT 10SM CLR M19/M24 A3044 RMK AO2,KPTD,2019-01-17T14:35:00Z,44.68,-74.95,-19.0,-24.0,250,3,,10.0,30.43996,,,TRUE,TRUE,,,,,,,CLR,,,,,,,,VFR,,,,,,,,,,,,METAR,144.0
KPSN 171435Z AUTO 22005KT 7SM BKN015 15/15 A3012 RMK AO2 T01470147,KPSN,2019-01-17T14:35:00Z,31.78,-95.7,14.7,14.7,220,5,,7.0,30.121063,,,TRUE,TRUE,,,,,,,BKN,1500,,,,,,,MVFR,,,,,,,,,,,,METAR,129.0
KPOY 171435Z AUTO 15009G15KT 10SM SCT080 OVC120 M03/M08 A2984 RMK AO2,KPOY,2019-01-17T14:35:00Z,44.87,-108.8,-3.0,-8.0,150,9,15,10.0,29.840551,,,TRUE,TRUE,,,,,,,SCT,8000,OVC,12000,,,,,VFR,,,,,,,,,,,,METAR,1552.0
KPHT 171435Z AUTO 19008KT 10SM OVC005 07/06 A3006 RMK A01,KPHT,2019-01-17T14:35:00Z,36.33,-88.38,7.0,6.0,190,8,,10.0,30.059055,,,TRUE,TRUE,,,,,,,OVC,500,,,,,,,IFR,,,,,,,,,,,,METAR,177.0
KPEZ 171435Z AUTO 28008KT 7SM OVC005 11/11 A3022 RMK AO2 T01120105,KPEZ,2019-01-17T14:35:00Z,28.95,-98.52,11.2,10.5,280,8,,7.0,30.221457,,,TRUE,TRUE,,,,,,,OVC,500,,,,,,,IFR,,,,,,,,,,,,METAR,132.0
KPEQ 171435Z AUTO 25004KT 10SM CLR 04/00 A3025 RMK AO2 T00351003,KPEQ,2019-01-17T14:35:00Z,31.38,-103.52,3.5,-0.3,250,4,,10.0,30.250984,,,TRUE,TRUE,,,,,,,CLR,,,,,,,,VFR,,,,,,,,,,,,METAR,797.0
KPCW 171435Z AUTO 12007KT 10SM OVC034 M03/M06 A3018 RMK AO2,KPCW,2019-01-17T14:35:00Z,41.52,-82.87,-3.0,-6.0,120,7,,10.0,30.180119,,,TRUE,TRUE,,,,,,,OVC,3400,,,,,,,VFR,,,,,,,,,,,,METAR,178.0
KPCD 171435Z AUTO 00000KT 1 1/4SM +DZ BKN012 OVC019 05/05 A3004 RMK AO2 T00480046,KPCD,2019-01-17T14:35:00Z,37.87,-89.87,4.8,4.6,0,0,,1.25,30.041338,,,TRUE,TRUE,,,,,,+DZ,BKN,1200,OVC,1900,,,,,IFR,,,,,,,,,,,,METAR,113.0
KP08 171435Z AUTO 12005KT 10SM CLR 08/06 A3018 RMK AO2,KP08,2019-01-17T14:35:00Z,32.93,-111.43,8.0,6.0,120,5,,10.0,30.180119,,,TRUE,TRUE,,,,,,,CLR,,,,,,,,VFR,,,,,,,,,,,,METAR,481.0
KOWI 171435Z AUTO 32005KT 3SM BR OVC004 01/00 A3010 RMK AO2,KOWI,2019-01-17T14:35:00Z,38.53,-95.25,1.0,0.0,320,5,,3.0,30.100393,,,TRUE,TRUE,,,,,,BR,OVC,400,,,,,,,LIFR,,,,,,,,,,,,METAR,292.0
KOLE 171435Z AUTO 11003KT 10SM SCT120 M12/M12 A3020 RMK AO2,KOLE,2019-01-17T14:35:00Z,42.23,-78.37,-12.0,-12.0,110,3,,10.0,30.200787,,,TRUE,TRUE,,,,,,,SCT,12000,,,,,,,VFR,,,,,,,,,,,,METAR,651.0
KO69 171435Z AUTO 19006G14KT 5SM BR SCT009 BKN032 OVC065 13/11 A2989 RMK A01,KO69,2019-01-17T14:35:00Z,38.25,-122.6,13.0,11.0,190,6,14,5.0,29.890747,,,TRUE,TRUE,,,,,,BR,SCT,900,BKN,3200,OVC,6500,,,MVFR,,,,,,,,,,,,METAR,28.0
KN38 171435Z AUTO 00000KT 10SM CLR M10/M11 A3026 RMK AO2,KN38,2019-01-17T14:35:00Z,41.73,-77.4,-10.0,-11.0,0,0,,10.0,30.259842,,,TRUE,TRUE,,,,,,,CLR,,,,,,,,VFR,,,,,,,,,,,,METAR,577.0
KN03 171435Z AUTO 00000KT 10SM CLR M13/M15 A3034 RMK AO2,KN03,2019-01-17T14:35:00Z,42.6,-76.22,-13.0,-15.0,0,0,,10.0,30.339567,,,TRUE,TRUE,,,,,,,CLR,,,,,,,,VFR,,,,,,,,,,,,METAR,366.0
KMZG 171435Z AUTO 01008KT 10SM BKN008 BKN014 BKN030 17/16 A3020 RMK A01,KMZG,2019-01-17T14:35:00Z,27.73,-96.18,17.0,16.0,10,8,,10.0,30.200787,,,TRUE,TRUE,,,,,,,BKN,800,BKN,1400,BKN,3000,,,IFR,,,,,,,,,,,,METAR,29.0
KMVH 171435Z AUTO 06005KT 1/4SM FZFG OVC002 M09/M10 A2993 RMK AO2,KMVH,2019-01-17T14:35:00Z,46.83,-108.93,-9.0,-10.0,60,5,,0.25,29.929134,,,TRUE,TRUE,,,,,,FZFG,OVC,200,,,,,,,LIFR,,,,,,,,,,,,METAR,1355.0
KMTK 171435Z AUTO 21004KT 10SM BKN075 OVC085 19/12 A3024 RMK A01,KMTK,2019-01-17T14:35:00Z,,,19.0,12.0,210,4,,10.0,30.239174,,,TRUE,TRUE,,,,,,,BKN,7500,OVC,8500,,,,,VFR,,,,,,,,,,,,METAR,
KMRC 171435Z AUTO 19008G13KT 4SM BR BKN032 OVC038 06/06 A3010 RMK A01,KMRC,2019-01-17T14:35:00Z,35.55,-87.18,6.0,6.0,190,8,13,4.0,30.100393,,,TRUE,TRUE,,,,,,BR,BKN,3200,OVC,3800,,,,,MVFR,,,,,,,,,,,,METAR,208.0
KMOR 171435Z AUTO 07004KT 9SM OVC048 02/01 A3017 RMK A01,KMOR,2019-01-17T14:35:00Z,36.18,-83.37,2.0,1.0,70,4,,9.0,30.171259,,,TRUE,TRUE,,,,,,,OVC,4800,,,,,,,VFR,,,,,,,,,,,,METAR,400.0
KMNZ 171435Z AUTO 29010KT 10SM CLR 11/09 A3015 RMK AO2 T01060088,KMNZ,2019-01-17T14:35:00Z,31.67,-98.15,10.6,8.8,290,10,,10.0,30.15059,,,TRUE,TRUE,,,,,,,CLR,,,,,,,,VFR,,,,,,,,,,,,METAR,396.0
KMNV 171435Z AUTO 00000KT 10SM OVC055 03/02 A3018 RMK A01,KMNV,2019-01-17T14:35:00Z,35.55,-84.38,3.0,2.0,0,0,,10.0,30.180119,,,TRUE,TRUE,,,,,,,OVC,5500,,,,,,,VFR,,,,,,,,,,,,METAR,314.0
KMMI 171435Z AUTO 00000KT 8SM FEW050 OVC055 03/01 A3019 RMK A01,KMMI,2019-01-17T14:35:00Z,35.4,-84.57,3.0,1.0,0,0,,8.0,30.188976,,,TRUE,TRUE,,,,,,,FEW,5000,OVC,5500,,,,,VFR,,,,,,,,,,,,METAR,266.0
KMMH 171435Z AUTO 27019G30KT 1SM -SN OVC006 01/01 A2996 RMK AO2 P0002 T00060005,KMMH,2019-01-17T14:35:00Z,37.62,-118.82,0.6,0.5,270,19,30,1.0,29.958662,,,TRUE,TRUE,,,,,,-SN,OVC,600,,,,,,,IFR,,,,,,0.02,,,,,,METAR,2173.0
KMIS 171435Z AUTO 11006KT 10SM OVC100 16/10 A3024 RMK A01,KMIS,2019-01-17T14:35:00Z,29.3,-88.85,16.0,10.0,110,6,,10.0,30.239174,,,TRUE,TRUE,,,,,,,OVC,10000,,,,,,,VFR,,,,,,,,,,,,METAR,32.0
KMEV 171435Z AUTO 28012G15KT 10SM CLR 03/01 A2980 RMK AO2,KMEV,2019-01-17T14:35:00Z,38.98,-119.75,3.0,1.0,280,12,15,10.0,29.799213,,,TRUE,TRUE,,,,,,,CLR,,,,,,,,VFR,,,,,,,,,,,,METAR,1439.0
KMCC 171435Z AUTO 18010KT 10SM BKN038 12/10 A2993 RMK AO2,KMCC,2019-01-17T14:35:00Z,38.67,-121.4,12.0,10.0,180,10,,10.0,29.929134,,,TRUE,TRUE,,,,,,,BKN,3800,,,,,,,VFR,,,,,,,,,,,,METAR,23.0
KMBT 171435Z AUTO 17010KT 2 1/2SM BR FEW027 BKN040 05/04 A3012 RMK A01,KMBT,2019-01-17T14:35:00Z,35.88,-86.38,5.0,4.0,170,10,,2.5,30.121063,,,TRUE,TRUE,,,,,,BR,FEW,2700,BKN,4000,,,,,IFR,,,,,,,,,,,,METAR,188.0
KM91 171435Z AUTO 17008KT 4SM BR BKN008 OVC013 05/05 A3008 RMK A01,KM91,2019-01-17T14:35:00Z,36.53,-86.92,5.0,5.0,170,8,,4.0,30.079725,,,TRUE,TRUE,,,,,,BR,BKN,800,OVC,1300,,,,,IFR,,,,,,,,,,,,METAR,215.0
KM75 171435Z AUTO 04010KT 10SM OVC009 M07/M08 A3006 RMK A01,KM75,2019-01-17T14:35:00Z,48.37,-107.92,-7.0,-8.0,40,10,,10.0,30.059055,,,TRUE,TRUE,,,,,,,OVC,900,,,,,,,IFR,,,,,,,,,,,,METAR,687.0
PAEH 171435Z AUTO 13018G24KT 090V150 7SM RA FEW011 OVC024 03/01 A2955 RMK AO2 PK WND 10027/1414 SLP016,PAEH,2019-01-17T14:35:00Z,58.65,-162.07,3.0,1.0,130,18,24,7.0,29.551182,1001.6,,TRUE,TRUE,,,,,,RA,FEW,1100,OVC,2400,,,,,MVFR,,,,,,,,,,,,SPECI,161.0
ETHN 171435Z 26020KT 5000 -SHRA BKN019TCU 04/01 Q1004 WHT WHT TEMPO YLO,ETHN,2019-01-17T14:35:00Z,49.38,9.97,4.0,1.0,260,20,,3.11,29.64567,,,,,,,,,,-SHRA,BKN,1900,,,,,,,MVFR,,,,,,,,,,,,SPECI,473.0
KPKV 171435Z AUTO 25008KT 10SM OVC009 16/14 A3020 RMK AO2 T01550142,KPKV,2019-01-17T14:35:00Z,28.65,-96.68,15.5,14.2,250,8,,10.0,30.200787,,,TRUE,TRUE,,,,,,,OVC,900,,,,,,,IFR,,,,,,,,,,,,METAR,9.0
KPIM 171435Z AUTO 14005KT 10SM CLR 07/02 A3020 RMK AO2 T00660015 PWINO,KPIM,2019-01-17T14:35:00Z,32.83,-84.88,6.6,1.5,140,5,,10.0,30.200787,,,TRUE,TRUE,,,,,TRUE,,CLR,,,,,,,,VFR,,,,,,,,,,,,METAR,275.0
KOWX 171435Z AUTO 12006KT 5SM OVC025 M01/M03 A3016 RMK AO1,KOWX,2019-01-17T14:35:00Z,41.03,-83.98,-1.0,-3.0,120,6,,5.0,30.159449,,,TRUE,TRUE,,,,,,,OVC,2500,,,,,,,MVFR,,,,,,,,,,,,METAR,233.0
KOWP 171435Z AUTO 30004KT 10SM OVC004 07/07 A3011 RMK AO2 T00710066,KOWP,2019-01-17T14:35:00Z,36.18,-96.15,7.1,6.6,300,4,,10.0,30.109253,,,TRUE,TRUE,,,,,,,OVC,400,,,,,,,LIFR,,,,,,,,,,,,METAR,272.0
KORD 171435Z 02005KT 6SM BR OVC009 M01/M03 A3009 RMK AO2 SNE32 P0000 T10111028,KORD,2019-01-17T14:35:00Z,41.98,-87.93,-1.1,-2.8,20,5,,6.0,30.088583,,,,TRUE,,,,,,BR,OVC,900,,,,,,,IFR,,,,,,0.005,,,,,,SPECI,200.0
KONP 171435Z AUTO 17022G33KT 10SM OVC029 10/08 A2942 RMK AO2,KONP,2019-01-17T14:35:00Z,44.57,-124.03,10.0,8.0,170,22,33,10.0,29.421259,,,TRUE,TRUE,,,,,,,OVC,2900,,,,,,,MVFR,,,,,,,,,,,,METAR,48.0
KOMH 171435Z AUTO 00000KT 10SM BKN045 M01/M03 A3035 RMK AO2,KOMH,2019-01-17T14:35:00Z,38.25,-78.05,-1.0,-3.0,0,0,,10.0,30.351377,,,TRUE,TRUE,,,,,,,BKN,4500,,,,,,,VFR,,,,,,,,,,,,METAR,142.0
KOJA 171435Z AUTO 33005KT 10SM OVC009 03/02 A3017 RMK AO2,KOJA,2019-01-17T14:35:00Z,35.55,-98.67,3.0,2.0,330,5,,10.0,30.171259,,,TRUE,TRUE,,,,,,,OVC,900,,,,,,,IFR,,,,,,,,,,,,METAR,490.0
KOBE 171435Z AUTO 00000KT 10SM CLR 13/09 A3024 RMK AO2,KOBE,2019-01-17T14:35:00Z,27.27,-80.85,13.0,9.0,0,0,,10.0,30.239174,,,TRUE,TRUE,,,,,,,CLR,,,,,,,,VFR,,,,,,,,,,,,METAR,11.0
KMQB 171435Z AUTO 36007KT 3/4SM BR OVC003 00/00 A3009 RMK AO2 T10021002,KMQB,2019-01-17T14:35:00Z,40.52,-90.65,-0.2,-0.2,360,7,,0.75,30.088583,,,TRUE,TRUE,,,,,,BR,OVC,300,,,,,,,LIFR,,,,,,,,,,,,METAR,215.0
KMNE 171435Z AUTO 00000KT 7SM OVC004 13/12 A3008 RMK AO2 T01300120,KMNE,2019-01-17T14:35:00Z,32.65,-93.3,13.0,12.0,0,0,,7.0,30.079725,,,TRUE,TRUE,,,,,,,OVC,400,,,,,,,LIFR,,,,,,,,,,,,METAR,85.0
KMLS 171435Z AUTO 31004KT 2 1/2SM BR OVC003 M05/M05 A3003 RMK AO2 I1000 T10501050,KMLS,2019-01-17T14:35:00Z,46.43,-105.88,-5.0,-5.0,310,4,,2.5,30.029528,,,TRUE,TRUE,,,,,,BR,OVC,300,,,,,,,LIFR,,,,,,,,,,,,SPECI,801.0
KMLJ 171435Z AUTO 00000KT 10SM CLR 05/04 A3026 RMK AO2,KMLJ,2019-01-17T14:35:00Z,33.15,-83.23,5.0,4.0,0,0,,10.0,30.259842,,,TRUE,TRUE,,,,,,,CLR,,,,,,,,VFR,,,,,,,,,,,,METAR,117.0
KMKN 171435Z AUTO 29009KT 10SM CLR 11/06 A3015 RMK AO2 T01140057,KMKN,2019-01-17T14:35:00Z,31.92,-98.6,11.4,5.7,290,9,,10.0,30.15059,,,TRUE,TRUE,,,,,,,CLR,,,,,,,,VFR,,,,,,,,,,,,METAR,423.0
KMDS 171435Z AUTO 33005KT 10SM M08/M08 A3008 RMK AO2,KMDS,2019-01-17T14:35:00Z,44.02,-97.08,-8.0,-8.0,330,5,,10.0,30.079725,,,TRUE,TRUE,,,,,,,,,,,,,,,,,,,,,,,,,,,METAR,524.0
KLXY 171435Z AUTO 23007KT 5SM BR SCT004 13/12 A3011 RMK AO2 T01250122,KLXY,2019-01-17T14:35:00Z,31.63,-96.52,12.5,12.2,230,7,,5.0,30.109253,,,TRUE,TRUE,,,,,,BR,SCT,400,,,,,,,MVFR,,,,,,,,,,,,METAR,166.0
KLXL 171435Z AUTO 00000KT 10SM OVC090 M18/M21 A3011 RMK AO2,KLXL,2019-01-17T14:35:00Z,45.95,-94.33,-18.0,-21.0,0,0,,10.0,30.109253,,,TRUE,TRUE,,,,,,,OVC,9000,,,,,,,VFR,,,,,,,,,,,,METAR,342.0
KLUD 171435Z AUTO 32009KT 10SM OVC010 09/07 A3013 RMK AO2 T00910070,KLUD,2019-01-17T14:35:00Z,33.25,-97.58,9.1,7.0,320,9,,10.0,30.129921,,,TRUE,TRUE,,,,,,,OVC,1000,,,,,,,MVFR,,,,,,,,,,,,METAR,319.0
KLNP 171435Z AUTO 13003KT 10SM SCT050 BKN100 01/01 A3015 RMK AO2,KLNP,2019-01-17T14:35:00Z,36.97,-82.52,1.0,1.0,130,3,,10.0,30.15059,,,TRUE,TRUE,,,,,,,SCT,5000,BKN,10000,,,,,VFR,,,,,,,,,,,,METAR,817.0
KLNC 171435Z AUTO 29009KT 10SM CLR 12/09 A3010 RMK AO2 T01170091,KLNC,2019-01-17T14:35:00Z,32.58,-96.72,11.7,9.1,290,9,,10.0,30.100393,,,TRUE,TRUE,,,,,,,CLR,,,,,,,,VFR,,,,,,,,,,,,METAR,153.0
KLNA 171435Z AUTO 00000KT 10SM CLR 17/13 A3023 RMK AO2 T01680125,KLNA,2019-01-17T14:35:00Z,26.6,-80.02,16.8,12.5,0,0,,10.0,30.230314,,,TRUE,TRUE,,,,,,,CLR,,,,,,,,VFR,,,,,,,,,,,,METAR,11.0
KLLQ 171435Z AUTO 19006KT 1 3/4SM BR BKN006 OVC010 10/09 A3009 RMK AO2 T01000089,KLLQ,2019-01-17T14:35:00Z,33.63,-91.75,10.0,8.9,190,6,,1.75,30.088583,,,TRUE,TRUE,,,,,,BR,BKN,600,OVC,1000,,,,,IFR,,,,,,,,,,,,SPECI,83.0
KLHM 171435Z AUTO 17010KT 10SM BKN032 OVC038 12/10 A2989 RMK AO1,KLHM,2019-01-17T14:35:00Z,38.92,-121.35,12.0,10.0,170,10,,10.0,29.890747,,,TRUE,TRUE,,,,,,,BKN,3200,OVC,3800,,,,,VFR,,,,,,,,,,,,METAR,37.0
KLHB 171435Z AUTO 21007KT 10SM OVC010 14/14 A3016 RMK AO2 T01400135,KLHB,2019-01-17T14:35:00Z,30.87,-96.62,14.0,13.5,210,7,,10.0,30.159449,,,TRUE,TRUE,,,,,,,OVC,1000,,,,,,,MVFR,,,,,,,,,,,,METAR,87.0
KLAF 171435Z 08006KT 2 1/2SM -RA BR OVC009 01/00 A3006 RMK AO2 UPE34RAB34 P0003 T00060000,KLAF,2019-01-17T14:35:00Z,40.42,-86.93,0.6,0.0,80,6,,2.5,30.059055,,,,TRUE,,,,,,-RA BR,OVC,900,,,,,,,IFR,,,,,,0.03,,,,,,SPECI,182.0
KL18 171435Z AUTO 19006KT 3/4SM BR BKN003 OVC007 13/13 A3016 RMK AO2,KL18,2019-01-17T14:35:00Z,33.35,-117.25,13.0,13.0,190,6,,0.75,30.159449,,,TRUE,TRUE,,,,,,BR,BKN,300,OVC,700,,,,,LIFR,,,,,,,,,,,,METAR,216.0
KK88 171435Z AUTO 00000KT 4SM OVC003 01/01 A3011 RMK AO1 T00050005,KK88,2019-01-17T14:35:00Z,37.87,-95.38,0.5,0.5,0,0,,4.0,30.109253,,,TRUE,TRUE,,,,,,,OVC,300,,,,,,,LIFR,,,,,,,,,,,,METAR,309.0
KJYR 171435Z AUTO 22003KT 3SM BR OVC017 M03/M03 A3007 RMK AO2,KJYR,2019-01-17T14:35:00Z,40.9,-97.62,-3.0,-3.0,220,3,,3.0,30.070866,,,TRUE,TRUE,,,,,,BR,OVC,1700,,,,,,,MVFR,,,,,,,,,,,,METAR,509.0
KJYL 171435Z AUTO 00000KT 10SM CLR 07/04 A3030 RMK AO2 T00660040,KJYL,2019-01-17T14:35:00Z,32.65,-81.6,6.6,4.0,0,0,,10.0,30.301182,,,TRUE,TRUE,,,,,,,CLR,,,,,,,,VFR,,,,,,,,,,,,METAR,57.0
KJWY 171435Z AUTO 29011KT 10SM CLR 11/10 A3012 RMK AO2 T01100097,KJWY,2019-01-17T14:35:00Z,32.45,-96.92,11.0,9.7,290,11,,10.0,30.121063,,,TRUE,TRUE,,,,,,,CLR,,,,,,,,VFR,,,,,,,,,,,,METAR,217.0
KJSV 171435Z AUTO 00000KT 4SM BR OVC007 10/08 A3004 RMK AO2,KJSV,2019-01-17T14:35:00Z,35.43,-94.8,10.0,8.0,0,0,,4.0,30.041338,,,TRUE,TRUE,,,,,,BR,OVC,700,,,,,,,IFR,,,,,,,,,,,,METAR,161.0
KIZA 171435Z AUTO 25006KT 5SM BR BKN007 BKN013 OVC037 13/13 RMK AO2 P0001,KIZA,2019-01-17T14:35:00Z,34.6,-120.07,13.0,13.0,250,6,,5.0,,,,TRUE,TRUE,,,,,,BR,BKN,700,BKN,1300,OVC,3700,,,IFR,,,,,,0.01,,,,,,METAR,205.0
KINJ 171435Z AUTO 00000KT 10SM CLR A3011 RMK AO2,KINJ,2019-01-17T14:35:00Z,32.08,-97.1,,,0,0,,10.0,30.109253,,,TRUE,TRUE,,,,,,,CLR,,,,,,,,VFR,,,,,,,,,,,,METAR,209.0
KILN 171435Z AUTO 14009KT 1 3/4SM -SN BR FEW006 SCT021 OVC035 00/M02 A3012 RMK AO2 SNB08 P0000 T00001017,KILN,2019-01-17T14:35:00Z,39.43,-83.8,0.0,-1.7,140,9,,1.75,30.121063,,,TRUE,TRUE,,,,,,-SN BR,FEW,600,SCT,2100,OVC,3500,,,IFR,,,,,,0.005,,,,,,SPECI,322.0
KIKG 171435Z AUTO 00000KT 10SM SCT005 OVC015 14/14 A3022 RMK AO2 T01430143,KIKG,2019-01-17T14:35:00Z,27.55,-98.03,14.3,14.3,0,0,,10.0,30.221457,,,TRUE,TRUE,,,,,,,SCT,500,OVC,1500,,,,,MVFR,,,,,,,,,,,,METAR,40.0
KIGQ 171435Z AUTO 12004KT 4SM -SN OVC007 M01/M02 A3009 RMK AO2 T10131020,KIGQ,2019-01-17T14:35:00Z,41.53,-87.53,-1.3,-2.0,120,4,,4.0,30.088583,,,TRUE,TRUE,,,,,,-SN,OVC,700,,,,,,,IFR,,,,,,,,,,,,METAR,188.0
KIER 171435Z AUTO 03003KT 5SM BR OVC008 14/13 A3011 RMK AO2 T01420134,KIER,2019-01-17T14:35:00Z,31.73,-93.1,14.2,13.4,30,3,,5.0,30.109253,,,TRUE,TRUE,,,,,,BR,OVC,800,,,,,,,IFR,,,,,,,,,,,,METAR,37.0
KI35 171435Z AUTO 11004KT 10SM SCT028 BKN048 OVC055 02/M01 A3016 RMK AO2 T00201007,KI35,2019-01-17T14:35:00Z,36.87,-83.37,2.0,-0.7,110,4,,10.0,30.159449,,,TRUE,TRUE,,,,,,,SCT,2800,BKN,4800,OVC,5500,,,VFR,,,,,,,,,,,,METAR,473.0
KHYX 171435Z AUTO 10006KT 10SM OVC032 M06/M09 A3020 RMK AO2,KHYX,2019-01-17T14:35:00Z,43.43,-83.87,-6.0,-9.0,100,6,,10.0,30.200787,,,TRUE,TRUE,,,,,,,OVC,3200,,,,,,,VFR,,,,,,,,,,,,METAR,183.0
KHRX 171435Z AUTO 22003KT 7SM CLR 00/M02 A3018 RMK AO2 T00011022,KHRX,2019-01-17T14:35:00Z,34.87,-102.33,0.1,-2.2,220,3,,7.0,30.180119,,,TRUE,TRUE,,,,,,,CLR,,,,,,,,VFR,,,,,,,,,,,,METAR,1154.0
KHQG 171435Z AUTO 29005KT 10SM CLR M02/M03 A3011 RMK AO2 T10191026,KHQG,2019-01-17T14:35:00Z,37.17,-101.37,-1.9,-2.6,290,5,,10.0,30.109253,,,TRUE,TRUE,,,,,,,CLR,,,,,,,,VFR,,,,,,,,,,,,METAR,956.0
KHQG 171435Z AUTO 29005KT 10SM CLR M02/M03 A3011 RMK AO2 T10191026,KHQG,2019-01-17T14:35:00Z,37.17,-101.37,-1.9,-2.6,290,5,,10.0,30.109253,,,TRUE,TRUE,,,,,,,CLR,,,,,,,,VFR,,,,,,,,,,,,METAR,956.0
KHMZ 171435Z AUTO 13003KT 10SM SCT024 OVC032 M02/M08 A3028 RMK AO2 T10201076,KHMZ,2019-01-17T14:35:00Z,40.08,-78.52,-2.0,-7.6,130,3,,10.0,30.280512,,,TRUE,TRUE,,,,,,,SCT,2400,OVC,3200,,,,,VFR,,,,,,,,,,,,METAR,354.0
KHHF 171435Z AUTO 00000KT 7SM SCT006 02/02 A3016 RMK AO2 T00230017,KHHF,2019-01-17T14:35:00Z,35.9,-100.4,2.3,1.7,0,0,,7.0,30.159449,,,TRUE,TRUE,,,,,,,SCT,600,,,,,,,VFR,,,,,,,,,,,,METAR,712.0
KHFY 171435Z AUTO 15006KT 2SM OVC003 01/00 A3007 RMK AO2 T00050003,KHFY,2019-01-17T14:35:00Z,39.63,-86.08,0.5,0.3,150,6,,2.0,30.070866,,,TRUE,TRUE,,,,,,,OVC,300,,,,,,,LIFR,,,,,,,,,,,,METAR,251.0
KHFJ 171435Z AUTO 35004KT 1SM BR OVC003 06/06 A3003 RMK AO2,KHFJ,2019-01-17T14:35:00Z,36.9,-94.02,6.0,6.0,350,4,,1.0,30.029528,,,TRUE,TRUE,,,,,,BR,OVC,300,,,,,,,LIFR,,,,,,,,,,,,METAR,401.0
KHCR 171435Z AUTO 15006KT 10SM UP SCT028 OVC040 02/M01 A3002 RMK AO2,KHCR,2019-01-17T14:35:00Z,40.48,-111.43,2.0,-1.0,150,6,,10.0,30.02067,,,TRUE,TRUE,,,,,,UP,SCT,2800,OVC,4000,,,,,VFR,,,,,,,,,,,,METAR,1706.0
KGYB 171435Z AUTO 24007KT 7SM OVC006 11/10 A3017 RMK AO2 T01060100,KGYB,2019-01-17T14:35:00Z,30.17,-96.98,10.6,10.0,240,7,,7.0,30.171259,,,TRUE,TRUE,,,,,,,OVC,600,,,,,,,IFR,,,,,,,,,,,,METAR,148.0
KGWB 171435Z AUTO 09005KT 1 3/4SM -SN OVC004 M02/M03 A3012 RMK AO2,KGWB,2019-01-17T14:35:00Z,41.3,-85.07,-2.0,-3.0,90,5,,1.75,30.121063,,,TRUE,TRUE,,,,,,-SN,OVC,400,,,,,,,LIFR,,,,,,,,,,,,METAR,269.0
KGMJ 171435Z AUTO 33006KT 5SM BR OVC004 07/06 A3007 RMK AO2,KGMJ,2019-01-17T14:35:00Z,36.6,-94.73,7.0,6.0,330,6,,5.0,30.070866,,,TRUE,TRUE,,,,,,BR,OVC,400,,,,,,,LIFR,,,,,,,,,,,,SPECI,254.0
KGLW 171435Z AUTO 17005KT 5SM RA SCT019 OVC032 05/03 A3012 RMK AO2 P0006 T00450034,KGLW,2019-01-17T14:35:00Z,37.03,-85.95,4.5,3.4,170,5,,5.0,30.121063,,,TRUE,TRUE,,,,,,RA,SCT,1900,OVC,3200,,,,,MVFR,,,,,,0.06,,,,,,SPECI,218.0
KGHW 171435Z AUTO 31003KT 10SM OVC085 M16/M19 A3010 RMK AO2,KGHW,2019-01-17T14:35:00Z,45.63,-95.32,-16.0,-19.0,310,3,,10.0,30.100393,,,TRUE,TRUE,,,,,,,OVC,8500,,,,,,,VFR,,,,,,,,,,,,SPECI,425.0
KGAO 171435Z AUTO 11003KT 10SM BKN060 OVC090 13/09 A3022 RMK AO2 T01250092,KGAO,2019-01-17T14:35:00Z,29.45,-90.27,12.5,9.2,110,3,,10.0,30.221457,,,TRUE,TRUE,,,,,,,BKN,6000,OVC,9000,,,,,VFR,,,,,,,,,,,,SPECI,1.0
KVJI 171435Z AUTO 11007KT 10SM CLR 01/M01 A3018 RMK AO2 T00051012,KVJI,2019-01-17T14:35:00Z,36.67,-82.02,0.5,-1.2,110,7,,10.0,30.180119,,,TRUE,TRUE,,,,,,,CLR,,,,,,,,VFR,,,,,,,,,,,,METAR,631.0
KUVA 171435Z AUTO 27006KT 7SM OVC004 10/10 A3024 RMK AO2 T01000099,KUVA,2019-01-17T14:35:00Z,29.22,-99.75,10.0,9.9,270,6,,7.0,30.239174,,,TRUE,TRUE,,,,,,,OVC,400,,,,,,,LIFR,,,,,,,,,,,,METAR,287.0
KUNI 171435Z AUTO 00000KT 10SM OVC026 00/00 A3019 RMK AO2 T00020000,KUNI,2019-01-17T14:35:00Z,39.22,-82.23,0.2,0.0,0,0,,10.0,30.188976,,,TRUE,TRUE,,,,,,,OVC,2600,,,,,,,MVFR,,,,,,,,,,,,METAR,193.0
KULS 171435Z AUTO 00000KT 10SM CLR M02/M02 A3010 RMK AO2,KULS,2019-01-17T14:35:00Z,37.6,-101.37,-2.0,-2.0,0,0,,10.0,30.100393,,,TRUE,TRUE,,,,,,,CLR,,,,,,,,VFR,,,,,,,,,,,,METAR,936.0
KU68 171435Z AUTO 28004KT 10SM BKN085 BKN110 M06/M08 A2990 RMK AO2,KU68,2019-01-17T14:35:00Z,44.92,-108.45,-6.0,-8.0,280,4,,10.0,29.899607,,,TRUE,TRUE,,,,,,,BKN,8500,BKN,11000,,,,,VFR,,,,,,,,,,,,METAR,1247.0
KTYQ 171435Z AUTO 14007KT 1 1/4SM DZ OVC003 00/00 A3007 RMK AO2 P0001 T00000000,KTYQ,2019-01-17T14:35:00Z,40.03,-86.25,0.0,0.0,140,7,,1.25,30.070866,,,TRUE,TRUE,,,,,,DZ,OVC,300,,,,,,,LIFR,,,,,,0.01,,,,,,METAR,281.0
KTQH 171435Z AUTO 35010G14KT 10SM OVC007 07/07 A3006 RMK AO2,KTQH,2019-01-17T14:35:00Z,35.93,-95.0,7.0,7.0,350,10,14,10.0,30.059055,,,TRUE,TRUE,,,,,,,OVC,700,,,,,,,IFR,,,,,,,,,,,,METAR,266.0
KTMA 171435Z AUTO 12004KT 10SM CLR 09/05 A3026 RMK AO2 T00900045,KTMA,2019-01-17T14:35:00Z,31.43,-83.48,9.0,4.5,120,4,,10.0,30.259842,,,TRUE,TRUE,,,,,,,CLR,,,,,,,,VFR,,,,,,,,,,,,METAR,109.0
KSYF 171435Z AUTO 24009KT 10SM CLR M04/M06 A3005 RMK AO2 T10421058,KSYF,2019-01-17T14:35:00Z,39.77,-101.8,-4.2,-5.8,240,9,,10.0,30.050198,,,TRUE,TRUE,,,,,,,CLR,,,,,,,,VFR,,,,,,,,,,,,METAR,1025.0
KSLR 171435Z AUTO 24008KT 10SM SCT012 14/13 A3008 RMK AO2 T01420127,KSLR,2019-01-17T14:35:00Z,33.17,-95.62,14.2,12.7,240,8,,10.0,30.079725,,,TRUE,TRUE,,,,,,,SCT,1200,,,,,,,VFR,,,,,,,,,,,,METAR,149.0
KSLO 171435Z AUTO 00000KT M1/4SM FG OVC003 05/04 A3003 RMK AO2 T00450039,KSLO,2019-01-17T14:35:00Z,38.65,-88.97,4.5,3.9,0,0,,0.25,30.029528,,,TRUE,TRUE,,,,,,FG,OVC,300,,,,,,,LIFR,,,,,,,,,,,,METAR,175.0
KSEZ 171435Z AUTO 03006KT 10SM CLR 03/01 A3023 RMK AO2,KSEZ,2019-01-17T14:35:00Z,34.85,-111.78,3.0,1.0,30,6,,10.0,30.230314,,,TRUE,TRUE,,,,,,,CLR,,,,,,,,VFR,,,,,,,,,,,,METAR,1473.0
KSEP 171435Z AUTO 34011G17KT 10SM CLR 09/06 A3016 RMK AO2 T00940060,KSEP,2019-01-17T14:35:00Z,32.22,-98.17,9.4,6.0,340,11,17,10.0,30.159449,,,TRUE,TRUE,,,,,,,CLR,,,,,,,,VFR,,,,,,,,,,,,METAR,402.0
KSCD 171435Z AUTO 00000KT 10SM -RA SCT034 BKN070 OVC090 04/04 A3024 RMK AO2 T00410041,KSCD,2019-01-17T14:35:00Z,33.17,-86.3,4.1,4.1,0,0,,10.0,30.239174,,,TRUE,TRUE,,,,,,-RA,SCT,3400,BKN,7000,OVC,9000,,,VFR,,,,,,,,,,,,METAR,173.0
KSAR 171435Z AUTO 00000KT 1/2SM DZ OVC003 04/04 A3005 RMK AO2 P0001 T00440044,KSAR,2019-01-17T14:35:00Z,38.15,-89.7,4.4,4.4,0,0,,0.5,30.050198,,,TRUE,TRUE,,,,,,DZ,OVC,300,,,,,,,LIFR,,,,,,0.01,,,,,,METAR,164.0
KSAN 171435Z 12003KT 10SM FEW021 BKN025 BKN060 16/11 A3020 RMK AO2 T01560106,KSAN,2019-01-17T14:35:00Z,32.73,-117.18,15.6,10.6,120,3,,10.0,30.200787,,,,TRUE,,,,,,,FEW,2100,BKN,2500,BKN,6000,,,MVFR,,,,,,,,,,,,SPECI,12.0
KRYW 171435Z AUTO 27006KT M1/4SM FG OVC002 11/11 A3016 RMK AO2 T01050105,KRYW,2019-01-17T14:35:00Z,30.5,-97.97,10.5,10.5,270,6,,0.25,30.159449,,,TRUE,TRUE,,,,,,FG,OVC,200,,,,,,,LIFR,,,,,,,,,,,,METAR,376.0
KRSV 171435Z AUTO 15005KT 1 1/4SM DZ OVC003 04/04 A3005 RMK AO2 P0002 T00350035,KRSV,2019-01-17T14:35:00Z,39.02,-87.65,3.5,3.5,150,5,,1.25,30.050198,,,TRUE,TRUE,,,,,,DZ,OVC,300,,,,,,,LIFR,,,,,,0.02,,,,,,METAR,141.0
KRSN 171435Z AUTO 18009KT 10SM OVC007 12/11 A3012 RMK AO2 T01160105,KRSN,2019-01-17T14:35:00Z,32.52,-92.58,11.6,10.5,180,9,,10.0,30.121063,,,TRUE,TRUE,,,,,,,OVC,700,,,,,,,IFR,,,,,,,,,,,,METAR,95.0
KRKR 171435Z AUTO 00000KT 10SM BKN023 OVC032 12/11 A3003 RMK AO2,KRKR,2019-01-17T14:35:00Z,35.02,-94.62,12.0,11.0,0,0,,10.0,30.029528,,,TRUE,TRUE,,,,,,,BKN,2300,OVC,3200,,,,,MVFR,,,,,,,,,,,,METAR,138.0
KRGA 171435Z AUTO 00000KT 10SM OVC037 04/01 A3013 RMK AO2,KRGA,2019-01-17T14:35:00Z,37.63,-84.33,4.0,1.0,0,0,,10.0,30.129921,,,TRUE,TRUE,,,,,,,OVC,3700,,,,,,,VFR,,,,,,,,,,,,METAR,305.0
KPVJ 171435Z AUTO 33011G15KT 10SM OVC007 06/06 A3013 RMK AO2 T00600060,KPVJ,2019-01-17T14:35:00Z,34.72,-97.22,6.0,6.0,330,11,15,10.0,30.129921,,,TRUE,TRUE,,,,,,,OVC,700,,,,,,,IFR,,,,,,,,,,,,METAR,295.0
KPUJ 171435Z AUTO 00000KT 10SM OVC045 02/02 A3022 RMK AO2,KPUJ,2019-01-17T14:35:00Z,33.92,-84.93,2.0,2.0,0,0,,10.0,30.221457,,,TRUE,TRUE,,,,,,,OVC,4500,,,,,,,VFR,,,,,,,,,,,,METAR,393.0
KPTB 171435Z AUTO 08003KT 10SM OVC037 03/M01 A3036 RMK AO2 T00281011,KPTB,2019-01-17T14:35:00Z,37.17,-77.52,2.8,-1.1,80,3,,10.0,30.360237,,,TRUE,TRUE,,,,,,,OVC,3700,,,,,,,VFR,,,,,,,,,,,,METAR,59.0
KPRS 171435Z AUTO 34006KT 10SM CLR 08/05 A3028 RMK AO2 T00830053,KPRS,2019-01-17T14:35:00Z,29.63,-104.35,8.3,5.3,340,6,,10.0,30.280512,,,TRUE,TRUE,,,,,,,CLR,,,,,,,,VFR,,,,,,,,,,,,METAR,896.0
KPMH 171435Z AUTO 00000KT 3SM -RA SCT005 BKN041 OVC047 00/00 A3020 RMK AO2 T10041004,KPMH,2019-01-17T14:35:00Z,38.83,-82.85,-0.4,-0.4,0,0,,3.0,30.200787,,,TRUE,TRUE,,,,,,-RA,SCT,500,BKN,4100,OVC,4700,,,MVFR,,,,,,,,,,,,METAR,202.0
KXSA 171435Z AUTO 00000KT 10SM OVC042 02/M01 A3036 RMK AO2 T00221015,KXSA,2019-01-17T14:35:00Z,37.87,-76.9,2.2,-1.5,0,0,,10.0,30.360237,,,TRUE,TRUE,,,,,,,OVC,4200,,,,,,,VFR,,,,,,,,,,,,METAR,42.0
KWWR 171435Z AUTO 26008KT 3SM BR OVC003 00/M01 A3017 RMK AO2,KWWR,2019-01-17T14:35:00Z,36.45,-99.52,0.0,-1.0,260,8,,3.0,30.171259,,,TRUE,TRUE,,,,,,BR,OVC,300,,,,,,,LIFR,,,,,,,,,,,,METAR,667.0
KW96 171435Z AUTO 00000KT 10SM OVC041 02/M01 A3036 RMK AO1 T00211008,KW96,2019-01-17T14:35:00Z,37.5,-77.12,2.1,-0.8,0,0,,10.0,30.360237,,,TRUE,TRUE,,,,,,,OVC,4100,,,,,,,VFR,,,,,,,,,,,,METAR,37.0
KW75 171435Z AUTO 00000KT 10SM OVC044 03/M01 A3036 RMK AO1 T00311011,KW75,2019-01-17T14:35:00Z,37.6,-76.45,3.1,-1.1,0,0,,10.0,30.360237,,,TRUE,TRUE,,,,,,,OVC,4400,,,,,,,VFR,,,,,,,,,,,,METAR,9.0
KW63 171435Z AUTO 07005KT 10SM CLR 01/00 A3032 RMK AO1,KW63,2019-01-17T14:35:00Z,36.6,-78.55,1.0,0.0,70,5,,10.0,30.318897,,,TRUE,TRUE,,,,,,,CLR,,,,,,,,VFR,,,,,,,,,,,,METAR,129.0
KW31 171435Z AUTO 10SM SCT035 01/M01 A3033 RMK AO1 T00051011,KW31,2019-01-17T14:35:00Z,36.95,-78.18,0.5,-1.1,,,,10.0,30.33071,,,TRUE,TRUE,,,,,,,SCT,3500,,,,,,,VFR,,,,,,,,,,,,METAR,162.0
KW13 171435Z AUTO 14006KT 10SM OVC023 00/M03 A3028 RMK AO1 T00001027,KW13,2019-01-17T14:35:00Z,38.08,-78.95,0.0,-2.7,140,6,,10.0,30.280512,,,TRUE,TRUE,,,,,,,OVC,2300,,,,,,,MVFR,,,,,,,,,,,,METAR,443.0
KTBN 171435Z AUTO 30003KT 1 7/8SM BR OVC005 05/05 A3003 RMK AO2 DZE00 OVC V BKN SLP178 $,KTBN,2019-01-17T14:35:00Z,37.72,-92.12,5.0,5.0,300,3,,1.88,30.029528,1017.8,,TRUE,TRUE,TRUE,,,,,BR,OVC,500,,,,,,,IFR,,,,,,,,,,,,SPECI,353.0
KFWZ 171435Z AUTO 25029G35KT 4SM HZ CLR 00/M05 RMK AO2,KFWZ,2019-01-17T14:35:00Z,42.52,-108.78,0.0,-5.0,250,29,35,4.0,,,,TRUE,TRUE,,,,,,HZ,CLR,,,,,,,,MVFR,,,,,,,,,,,,METAR,2588.0
KFSO 171435Z AUTO 00000KT 10SM CLR M18/M23 A3047 RMK AO2 T11801233,KFSO,2019-01-17T14:35:00Z,44.93,-73.1,-18.0,-23.3,0,0,,10.0,30.469488,,,TRUE,TRUE,,,,,,,CLR,,,,,,,,VFR,,,,,,,,,,,,SPECI,70.0
KFKR 171435Z AUTO 14007KT 1 3/4SM -RA OVC005 02/01 A3007 RMK AO2 P0002 T00160005 TSNO,KFKR,2019-01-17T14:35:00Z,40.27,-86.57,1.6,0.5,140,7,,1.75,30.070866,,,TRUE,TRUE,,,TRUE,,,-RA,OVC,500,,,,,,,IFR,,,,,,0.02,,,,,,SPECI,262.0
KFBR 171435Z AUTO 00000KT 10SM CLR M05/M08 A3000 RMK AO2 T10521077,KFBR,2019-01-17T14:35:00Z,41.4,-110.4,-5.2,-7.7,0,0,,10.0,30.0,,,TRUE,TRUE,,,,,,,CLR,,,,,,,,VFR,,,,,,,,,,,,METAR,2144.0
KF46 171435Z AUTO 26006KT 10SM CLR 14/13 A3009 RMK AO2 T01380131,KF46,2019-01-17T14:35:00Z,32.93,-96.43,13.8,13.1,260,6,,10.0,30.088583,,,TRUE,TRUE,,,,,,,CLR,,,,,,,,VFR,,,,,,,,,,,,METAR,176.0
KF05 171435Z AUTO 36009KT 10SM OVC012 06/03 A3020 RMK AO1 T00550029,KF05,2019-01-17T14:35:00Z,34.23,-99.28,5.5,2.9,360,9,,10.0,30.200787,,,TRUE,TRUE,,,,,,,OVC,1200,,,,,,,MVFR,,,,,,,,,,,,METAR,386.0
KERV 171435Z AUTO 00000KT 7SM OVC004 09/08 A3020 RMK AO2 T00920080,KERV,2019-01-17T14:35:00Z,29.98,-99.08,9.2,8.0,0,0,,7.0,30.200787,,,TRUE,TRUE,,,,,,,OVC,400,,,,,,,LIFR,,,,,,,,,,,,METAR,510.0
KEDN 171435Z AUTO 00000KT 10SM CLR 06/04 A3025 RMK AO2 T00590044,KEDN,2019-01-17T14:35:00Z,31.3,-85.9,5.9,4.4,0,0,,10.0,30.250984,,,TRUE,TRUE,,,,,,,CLR,,,,,,,,VFR,,,,,,,,,,,,SPECI,110.0
KEDJ 171435Z AUTO 15008KT 3SM FEW001 M02/M02 A3013 RMK AO1,KEDJ,2019-01-17T14:35:00Z,40.37,-83.82,-2.0,-2.0,150,8,,3.0,30.129921,,,TRUE,TRUE,,,,,,,FEW,100,,,,,,,MVFR,,,,,,,,,,,,SPECI,342.0
KECU 171435Z AUTO 29007KT M1/4SM FG OVC002 06/06 A3025 RMK AO2,KECU,2019-01-17T14:35:00Z,29.95,-100.17,6.0,6.0,290,7,,0.25,30.250984,,,TRUE,TRUE,,,,,,FG,OVC,200,,,,,,,LIFR,,,,,,,,,,,,METAR,725.0
KECS 171435Z AUTO 00000KT 10SM CLR M07/M10 A2995 RMK AO2,KECS,2019-01-17T14:35:00Z,43.88,-104.32,-7.0,-10.0,0,0,,10.0,29.949802,,,TRUE,TRUE,,,,,,,CLR,,,,,,,,VFR,,,,,,,,,,,,METAR,1273.0
KDZB 171435Z AUTO 00000KT 10SM SCT001 10/10 A3017 RMK AO2 T00990099,KDZB,2019-01-17T14:35:00Z,30.53,-98.37,9.9,9.9,0,0,,10.0,30.171259,,,TRUE,TRUE,,,,,,,SCT,100,,,,,,,VFR,,,,,,,,,,,,METAR,334.0
KDUX 171435Z AUTO 28004KT 10SM CLR 00/M04 A3014 RMK AO2 T10011040,KDUX,2019-01-17T14:35:00Z,35.85,-102.02,-0.1,-4.0,280,4,,10.0,30.138779,,,TRUE,TRUE,,,,,,,CLR,,,,,,,,VFR,,,,,,,,,,,,METAR,1129.0
KDRI 171435Z AUTO 17006KT 2SM BR OVC002 15/14 A3016 RMK AO2 T01480141,KDRI,2019-01-17T14:35:00Z,30.83,-93.33,14.8,14.1,170,6,,2.0,30.159449,,,TRUE,TRUE,,,,,,BR,OVC,200,,,,,,,LIFR,,,,,,,,,,,,SPECI,63.0
KDLO 171435Z AUTO 00000KT 7SM RA SCT026 BKN050 OVC085 12/12 A3003 RMK AO2 P0006 T01220115,KDLO,2019-01-17T14:35:00Z,35.75,-119.23,12.2,11.5,0,0,,7.0,30.029528,,,TRUE,TRUE,,,,,,RA,SCT,2600,BKN,5000,OVC,8500,,,VFR,,,,,,0.06,,,,,,METAR,96.0
KDEQ 171435Z AUTO 22003KT 5SM BR BKN004 BKN007 OVC033 13/13 A3003 RMK AO2 CIG 003V007 T01330133,KDEQ,2019-01-17T14:35:00Z,34.05,-94.4,13.3,13.3,220,3,,5.0,30.029528,,,TRUE,TRUE,,,,,,BR,BKN,400,BKN,700,OVC,3300,,,LIFR,,,,,,,,,,,,SPECI,106.0
KCZL 171435Z AUTO 21004KT 4SM BR SCT048 SCT060 BKN120 02/02 A3023 RMK AO2,KCZL,2019-01-17T14:35:00Z,34.47,-84.93,2.0,2.0,210,4,,4.0,30.230314,,,TRUE,TRUE,,,,,,BR,SCT,4800,SCT,6000,BKN,12000,,,MVFR,,,,,,,,,,,,SPECI,195.0
KCXU 171435Z AUTO 00000KT 10SM CLR 07/04 A3027 RMK AO1 T00680039,KCXU,2019-01-17T14:35:00Z,31.22,-84.23,6.8,3.9,0,0,,10.0,30.268702,,,TRUE,TRUE,,,,,,,CLR,,,,,,,,VFR,,,,,,,,,,,,SPECI,53.0
KCWC 171435Z AUTO 33011G15KT 10SM OVC013 07/04 A3019 RMK AO2 T00660040,KCWC,2019-01-17T14:35:00Z,33.85,-98.48,6.6,4.0,330,11,15,10.0,30.188976,,,TRUE,TRUE,,,,,,,OVC,1300,,,,,,,MVFR,,,,,,,,,,,,METAR,305.0
KCPK 171435Z AUTO 06009KT 10SM CLR 06/M01 A3036 RMK AO2 T00561006,KCPK,2019-01-17T14:35:00Z,36.67,-76.32,5.6,-0.6,60,9,,10.0,30.360237,,,TRUE,TRUE,,,,,,,CLR,,,,,,,,VFR,,,,,,,,,,,,SPECI,6.0
KCMD 171435Z AUTO 16006KT 5SM -DZ BKN009 BKN019 BKN027 04/02 A3020 RMK AO2 P0001 T00420023,KCMD,2019-01-17T14:35:00Z,34.27,-86.85,4.2,2.3,160,6,,5.0,30.200787,,,TRUE,TRUE,,,,,,-DZ,BKN,900,BKN,1900,BKN,2700,,,IFR,,,,,,0.01,,,,,,SPECI,294.0
KCKC 171435Z AUTO 36004KT 10SM SCT070 SCT095 120 M17/M22 A3000 RMK AO2,KCKC,2019-01-17T14:35:00Z,47.83,-90.37,-17.0,-22.0,360,4,,10.0,30.0,,,TRUE,TRUE,,,,,,,SCT,7000,SCT,9500,,,,,VFR,,,,,,,,,,,,SPECI,548.0
KCDH 171435Z AUTO 16007KT 1SM BR SCT004 SCT009 BKN014 11/09 A3007 RMK AO2,KCDH,2019-01-17T14:35:00Z,33.62,-92.77,11.0,9.0,160,7,,1.0,30.070866,,,TRUE,TRUE,,,,,,BR,SCT,400,SCT,900,BKN,1400,,,IFR,,,,,,,,,,,,SPECI,35.0
KCDA 171435Z AUTO 00000KT 10SM CLR M20/M24 A3035 RMK AO2 T11961239,KCDA,2019-01-17T14:35:00Z,44.57,-72.02,-19.6,-23.9,0,0,,10.0,30.351377,,,TRUE,TRUE,,,,,,,CLR,,,,,,,,VFR,,,,,,,,,,,,SPECI,363.0
KBYY 171435Z AUTO 24006KT 10SM OVC005 15/15 A3019 RMK AO2 T01510151,KBYY,2019-01-17T14:35:00Z,28.97,-95.87,15.1,15.1,240,6,,10.0,30.188976,,,TRUE,TRUE,,,,,,,OVC,500,,,,,,,IFR,,,,,,,,,,,,METAR,14.0
KBXA 171435Z AUTO 18003KT 2 1/2SM +RA SCT030 BKN036 OVC045 10/08 A3024 RMK AO2 T00970080,KBXA,2019-01-17T14:35:00Z,30.82,-89.87,9.7,8.0,180,3,,2.5,30.239174,,,TRUE,TRUE,,,,,,+RA,SCT,3000,BKN,3600,OVC,4500,,,IFR,,,,,,,,,,,,SPECI,36.0
PAUT 171435Z AUTO 32032G42KT 5SM UP OVC023 00/M02 A2966 RMK AO2 T00031017,PAUT,2019-01-17T14:35:00Z,54.15,-165.6,0.3,-1.7,320,32,42,5.0,29.660433,,,TRUE,TRUE,,,,,,UP,OVC,2300,,,,,,,MVFR,,,,,,,,,,,,METAR,25.0
KBUY 171435Z AUTO VRB03KT 10SM SCT007 OVC013 02/M01 A3030 RMK AO2 T00221006,KBUY,2019-01-17T14:35:00Z,36.05,-79.47,2.2,-0.6,0,3,,10.0,30.301182,,,TRUE,TRUE,,,,,,,SCT,700,OVC,1300,,,,,MVFR,,,,,,,,,,,,SPECI,180.0
KBTA 171435Z AUTO 00000KT 10SM OVC019 M04/M06 A3009 RMK AO2 T10401060,KBTA,2019-01-17T14:35:00Z,41.42,-96.12,-4.0,-6.0,0,0,,10.0,30.088583,,,TRUE,TRUE,,,,,,,OVC,1900,,,,,,,MVFR,,,,,,,,,,,,SPECI,396.0
KBQK 171435Z AUTO 00000KT 10SM CLR 09/05 A3031 RMK AO2,KBQK,2019-01-17T14:35:00Z,31.25,-81.47,9.0,5.0,0,0,,10.0,30.31004,,,TRUE,TRUE,,,,,,,CLR,,,,,,,,VFR,,,,,,,,,,,,SPECI,8.0
KBPG 171435Z AUTO 18004KT 10SM CLR 05/01 A3021 RMK AO2 T00470008,KBPG,2019-01-17T14:35:00Z,32.22,-101.52,4.7,0.8,180,4,,10.0,30.209646,,,TRUE,TRUE,,,,,,,CLR,,,,,,,,VFR,,,,,,,,,,,,METAR,784.0
KBPC 171435Z AUTO 23005KT 1/4SM FG OVC002 00/00 A3017 RMK AO2,KBPC,2019-01-17T14:35:00Z,35.88,-101.03,0.0,0.0,230,5,,0.25,30.171259,,,TRUE,TRUE,,,,,,FG,OVC,200,,,,,,,LIFR,,,,,,,,,,,,METAR,845.0
KBNA 171435Z 18012KT 7SM BKN026 OVC038 06/04 A3012 RMK AO2 RAE22 P0003 T00610039,KBNA,2019-01-17T14:35:00Z,36.12,-86.68,6.1,3.9,180,12,,7.0,30.121063,,,,TRUE,,,,,,,BKN,2600,OVC,3800,,,,,MVFR,,,,,,0.03,,,,,,SPECI,210.0
KBKS 171435Z AUTO 36003KT 3SM OVC003 14/13 A3021 RMK AO1 T01410130,KBKS,2019-01-17T14:35:00Z,27.2,-98.12,14.1,13.0,360,3,,3.0,30.209646,,,TRUE,TRUE,,,,,,,OVC,300,,,,,,,LIFR,,,,,,,,,,,,METAR,34.0
KBEC 171435Z AUTO 00000KT 7SM OVC005 00/00 A3012 RMK AO2 T00001002,KBEC,2019-01-17T14:35:00Z,37.7,-97.22,0.0,-0.2,0,0,,7.0,30.121063,,,TRUE,TRUE,,,,,,,OVC,500,,,,,,,IFR,,,,,,,,,,,,SPECI,429.0
KBEA 171435Z AUTO 28005KT 7SM OVC003 15/12 A3020 RMK AO2 T01450124,KBEA,2019-01-17T14:35:00Z,28.37,-97.78,14.5,12.4,280,5,,7.0,30.200787,,,TRUE,TRUE,,,,,,,OVC,300,,,,,,,LIFR,,,,,,,,,,,,METAR,82.0
KAZE 171435Z AUTO 00000KT 10SM CLR 09/05 A3027 RMK AO2 T00890045,KAZE,2019-01-17T14:35:00Z,31.88,-82.65,8.9,4.5,0,0,,10.0,30.268702,,,TRUE,TRUE,,,,,,,CLR,,,,,,,,VFR,,,,,,,,,,,,SPECI,78.0
KAZC 171435Z AUTO 13007KT 10SM OVC060 03/02 A3019 RMK AO2,KAZC,2019-01-17T14:35:00Z,36.97,-113.02,3.0,2.0,130,7,,10.0,30.188976,,,TRUE,TRUE,,,,,,,OVC,6000,,,,,,,VFR,,,,,,,,,,,,METAR,1486.0
KAXX 171435Z AUTO 18010KT 10SM M05/M07 A3025 RMK AO2 T10471073,KAXX,2019-01-17T14:35:00Z,36.42,-105.28,-4.7,-7.3,180,10,,10.0,30.250984,,,TRUE,TRUE,,,,,,,,,,,,,,,,,,,,,,,,,,,METAR,2548.0
KAXS 171435Z AUTO 36011KT 10SM OVC011 05/02 A3019 RMK AO2 T00460020,KAXS,2019-01-17T14:35:00Z,34.7,-99.33,4.6,2.0,360,11,,10.0,30.188976,,,TRUE,TRUE,,,,,,,OVC,1100,,,,,,,MVFR,,,,,,,,,,,,SPECI,437.0
KAXH 171435Z AUTO 25009G15KT 4SM BR OVC004 15/15 A3018 RMK AO2 T01470147,KAXH,2019-01-17T14:35:00Z,29.52,-95.48,14.7,14.7,250,9,15,4.0,30.180119,,,TRUE,TRUE,,,,,,BR,OVC,400,,,,,,,LIFR,,,,,,,,,,,,METAR,21.0
KAVQ 171435Z AUTO 11007KT 10SM CLR 07/04 RMK AO2 T00680037,KAVQ,2019-01-17T14:35:00Z,32.4,-111.22,6.8,3.7,110,7,,10.0,,,,TRUE,TRUE,,,,,,,CLR,,,,,,,,VFR,,,,,,,,,,,,METAR,619.0
KAVC 171435Z AUTO 00000KT 10SM CLR 00/M01 A3040 RMK AO2 T00021007,KAVC,2019-01-17T14:35:00Z,36.68,-78.03,0.2,-0.7,0,0,,10.0,30.398623,,,TRUE,TRUE,,,,,,,CLR,,,,,,,,VFR,,,,,,,,,,,,METAR,135.0
KASW 171435Z AUTO 12006KT 1 3/4SM -SN OVC005 M02/M02 A3009 RMK AO2,KASW,2019-01-17T14:35:00Z,41.27,-85.83,-2.0,-2.0,120,6,,1.75,30.088583,,,TRUE,TRUE,,,,,,-SN,OVC,500,,,,,,,IFR,,,,,,,,,,,,METAR,259.0
KARM 171435Z AUTO 25008KT 10SM OVC008 14/13 A3019 RMK AO2 T01400127,KARM,2019-01-17T14:35:00Z,29.25,-96.15,14.0,12.7,250,8,,10.0,30.188976,,,TRUE,TRUE,,,,,,,OVC,800,,,,,,,IFR,,,,,,,,,,,,METAR,31.0
KAJR 171435Z AUTO 08004KT 10SM CLR 03/00 A3023 RMK AO2 T00260000,KAJR,2019-01-17T14:35:00Z,34.5,-83.55,2.6,0.0,80,4,,10.0,30.230314,,,TRUE,TRUE,,,,,,,CLR,,,,,,,,VFR,,,,,,,,,,,,METAR,441.0
KAJG 171435Z AUTO 19006KT 1 1/2SM -RA OVC004 05/05 A3004 RMK AO2 T00500046,KAJG,2019-01-17T14:35:00Z,38.62,-87.73,5.0,4.6,190,6,,1.5,30.041338,,,TRUE,TRUE,,,,,,-RA,OVC,400,,,,,,,LIFR,,,,,,,,,,,,METAR,131.0
KAIT 171435Z AUTO 00000KT 10SM BKN090 M20/M23 A3008 RMK AO2,KAIT,2019-01-17T14:35:00Z,46.53,-93.67,-20.0,-23.0,0,0,,10.0,30.079725,,,TRUE,TRUE,,,,,,,BKN,9000,,,,,,,VFR,,,,,,,,,,,,METAR,367.0
KADC 171435Z AUTO 00000KT 10SM OVC090 M19/M22 A3009 RMK AO2,KADC,2019-01-17T14:35:00Z,46.45,-95.22,-19.0,-22.0,0,0,,10.0,30.088583,,,TRUE,TRUE,,,,,,,OVC,9000,,,,,,,VFR,,,,,,,,,,,,METAR,418.0
KAAS 171435Z AUTO 16006KT 5SM BKN031 OVC037 05/03 A3017 RMK AO1,KAAS,2019-01-17T14:35:00Z,37.35,-85.32,5.0,3.0,160,6,,5.0,30.171259,,,TRUE,TRUE,,,,,,,BKN,3100,OVC,3700,,,,,MVFR,,,,,,,,,,,,METAR,281.0
K82V 171435Z AUTO 08003KT 10SM CLR M05/M07 A3000 RMK AO2,K82V,2019-01-17T14:35:00Z,41.15,-104.13,-5.0,-7.0,80,3,,10.0,30.0,,,TRUE,TRUE,,,,,,,CLR,,,,,,,,VFR,,,,,,,,,,,,METAR,1570.0
K7W4 171435Z AUTO 19005KT 10SM OVC039 02/M03 A3035 RMK AO1 T00161026,K7W4,2019-01-17T14:35:00Z,37.97,-77.75,1.6,-2.6,190,5,,10.0,30.351377,,,TRUE,TRUE,,,,,,,OVC,3900,,,,,,,VFR,,,,,,,,,,,,METAR,106.0
K6A2 171435Z AUTO 14004KT 10SM CLR 04/01 A3020 RMK AO2,K6A2,2019-01-17T14:35:00Z,33.23,-84.27,4.0,1.0,140,4,,10.0,30.200787,,,TRUE,TRUE,,,,,,,CLR,,,,,,,,VFR,,,,,,,,,,,,METAR,292.0
K5R8 171435Z AUTO 17004KT 4SM BR OVC003 16/15 A3015 RMK AO2 T01550150,K5R8,2019-01-17T14:35:00Z,30.43,-93.47,15.5,15.0,170,4,,4.0,30.15059,,,TRUE,TRUE,,,,,,BR,OVC,300,,,,,,,LIFR,,,,,,,,,,,,METAR,24.0
K4S1 171435Z AUTO 22030G42KT 3SM RA SCT023 BKN030 OVC041 10/07 A2955 RMK AO1,K4S1,2019-01-17T14:35:00Z,42.42,-124.42,10.0,7.0,220,30,42,3.0,29.551182,,,TRUE,TRUE,,,,,,RA,SCT,2300,BKN,3000,OVC,4100,,,MVFR,,,,,,,,,,,,METAR,5.0
K3R7 171435Z AUTO 15003KT 10SM BKN027 BKN041 15/14 A3017 RMK AO2 T01520137,K3R7,2019-01-17T14:35:00Z,30.25,-92.67,15.2,13.7,150,3,,10.0,30.171259,,,TRUE,TRUE,,,,,,,BKN,2700,BKN,4100,,,,,MVFR,,,,,,,,,,,,METAR,7.0
K3LF 171435Z AUTO 34004KT 1/4SM FG OVC003 00/00 A3005 RMK AO2 T00030003,K3LF,2019-01-17T14:35:00Z,39.17,-89.67,0.3,0.3,340,4,,0.25,30.050198,,,TRUE,TRUE,,,,,,FG,OVC,300,,,,,,,LIFR,,,,,,,,,,,,METAR,210.0
K1K1 171435Z AUTO 32005KT 7SM OVC004 00/00 A3012 RMK AO2 T00001001,K1K1,2019-01-17T14:35:00Z,37.77,-97.12,0.0,-0.1,320,5,,7.0,30.121063,,,TRUE,TRUE,,,,,,,OVC,400,,,,,,,LIFR,,,,,,,,,,,,METAR,416.0
K1A9 171435Z AUTO 00000KT 10SM BKN070 OVC085 04/03 A3025 RMK AO2 T00400031,K1A9,2019-01-17T14:35:00Z,32.43,-86.52,4.0,3.1,0,0,,10.0,30.250984,,,TRUE,TRUE,,,,,,,BKN,7000,OVC,8500,,,,,VFR,,,,,,,,,,,,METAR,69.0
K0V4 171435Z AUTO 00000KT 10SM OVC033 01/00 A3031 RMK AO1 T00050004,K0V4,2019-01-17T14:35:00Z,37.15,-79.02,0.5,0.4,0,0,,10.0,30.31004,,,TRUE,TRUE,,,,,,,OVC,3300,,,,,,,VFR,,,,,,,,,,,,METAR,182.0
K0F2 171435Z AUTO 33014G17KT 10SM OVC010 08/07 A3013 RMK AO2 T00830065,K0F2,2019-01-17T14:35:00Z,33.6,-97.78,8.3,6.5,330,14,17,10.0,30.129921,,,TRUE,TRUE,,,,,,,OVC,1000,,,,,,,MVFR,,,,,,,,,,,,METAR,336.0
K0E0 171435Z AUTO 28003KT 10SM CLR M02/M02 A3029 RMK AO2 T10201023,K0E0,2019-01-17T14:35:00Z,34.98,-106.0,-2.0,-2.3,280,3,,10.0,30.28937,,,TRUE,TRUE,,,,,,,CLR,,,,,,,,VFR,,,,,,,,,,,,METAR,1890.0
KUTA 171435Z AUTO 19009KT 2SM -DZ 08/07 A3011 RMK AO2 P0001 TSNO,KUTA,2019-01-17T14:35:00Z,34.68,-90.35,8.0,7.0,190,9,,2.0,30.109253,,,TRUE,TRUE,,,TRUE,,,-DZ,,,,,,,,,,,,,,,0.01,,,,,,METAR,59.0
KSTE 171435Z AUTO 00000KT 10SM OVC014 M08/M09 A3009 RMK AO2 T10811095,KSTE,2019-01-17T14:35:00Z,44.55,-89.53,-8.1,-9.5,0,0,,10.0,30.088583,,,TRUE,TRUE,,,,,,,OVC,1400,,,,,,,MVFR,,,,,,,,,,,,METAR,338.0
KSRR 171435Z AUTO 00000KT 10SM CLR 03/M07 A3030 RMK AO2,KSRR,2019-01-17T14:35:00Z,33.47,-105.52,3.0,-7.0,0,0,,10.0,30.301182,,,TRUE,TRUE,,,,,,,CLR,,,,,,,,VFR,,,,,,,,,,,,METAR,2076.0
KRNV 171435Z AUTO 20008KT 10SM OVC016 10/10 A3011 RMK AO2 T00960096,KRNV,2019-01-17T14:35:00Z,33.77,-90.75,9.6,9.6,200,8,,10.0,30.109253,,,TRUE,TRUE,,,,,,,OVC,1600,,,,,,,MVFR,,,,,,,,,,,,METAR,41.0
KOZS 171435Z AUTO 32004KT 1/4SM FG OVC003 03/03 A3005 RMK AO2,KOZS,2019-01-17T14:35:00Z,37.97,-92.68,3.0,3.0,320,4,,0.25,30.050198,,,TRUE,TRUE,,,,,,FG,OVC,300,,,,,,,LIFR,,,,,,,,,,,,METAR,324.0
KOCQ 171435Z AUTO 00000KT 10SM OVC035 M08/M10 A3013 RMK AO1 T10831098,KOCQ,2019-01-17T14:35:00Z,44.87,-87.92,-8.3,-9.8,0,0,,10.0,30.129921,,,TRUE,TRUE,,,,,,,OVC,3500,,,,,,,VFR,,,,,,,,,,,,METAR,183.0
KMEZ 171435Z AUTO 24003KT 10SM BKN008 OVC013 14/13 A3004 RMK AO2,KMEZ,2019-01-17T14:35:00Z,34.55,-94.2,14.0,13.0,240,3,,10.0,30.041338,,,TRUE,TRUE,,,,,,,BKN,800,OVC,1300,,,,,IFR,,,,,,,,,,,,METAR,329.0
KIOB 171435Z AUTO 15005KT 10SM SCT043 OVC050 02/01 A3015 RMK AO2,KIOB,2019-01-17T14:35:00Z,38.05,-83.98,2.0,1.0,150,5,,10.0,30.15059,,,TRUE,TRUE,,,,,,,SCT,4300,OVC,5000,,,,,VFR,,,,,,,,,,,,METAR,311.0
K4S2 171435Z AUTO 00000KT 3SM BR OVC015 00/00 A2964 RMK AO2,K4S2,2019-01-17T14:35:00Z,45.68,-121.55,0.0,0.0,0,0,,3.0,29.639763,,,TRUE,TRUE,,,,,,BR,OVC,1500,,,,,,,MVFR,,,,,,,,,,,,METAR,192.0
K3D2 171435Z AUTO 00000KT 10SM OVC035 M07/M10 A3013 RMK AO2 T10751105,K3D2,2019-01-17T14:35:00Z,45.13,-87.18,-7.5,-10.5,0,0,,10.0,30.129921,,,TRUE,TRUE,,,,,,,OVC,3500,,,,,,,VFR,,,,,,,,,,,,METAR,234.0
KXPY 171435Z AUTO 12006KT 10SM BKN070 OVC100 14/11 A3023 RMK A01,KXPY,2019-01-17T14:35:00Z,29.12,-90.2,14.0,11.0,120,6,,10.0,30.230314,,,TRUE,TRUE,,,,,,,BKN,7000,OVC,10000,,,,,VFR,,,,,,,,,,,,METAR,2.0
KXNX 171435Z AUTO VRB04KT 3SM BR BKN009 OVC012 05/05 A3016 RMK A01,KXNX,2019-01-17T14:35:00Z,36.38,-86.42,5.0,5.0,0,4,,3.0,30.159449,,,TRUE,TRUE,,,,,,BR,BKN,900,OVC,1200,,,,,IFR,,,,,,,,,,,,METAR,178.0
KXIH 171435Z AUTO 24010KT 4SM HZ FEW004 OVC017 A3016 RMK A01,KXIH,2019-01-17T14:35:00Z,29.18,-94.52,,,240,10,,4.0,30.159449,,,TRUE,TRUE,,,,,,HZ,FEW,400,OVC,1700,,,,,MVFR,,,,,,,,,,,,METAR,75.0
KXER 171435Z AUTO 19010KT 10SM FEW090 21/15 A3023 RMK A01,KXER,2019-01-17T14:35:00Z,,,21.0,15.0,190,10,,10.0,30.230314,,,TRUE,TRUE,,,,,,,FEW,9000,,,,,,,VFR,,,,,,,,,,,,METAR,
KXBP 171435Z AUTO 34010G14KT 10SM OVC013 09/07 A3018 RMK AO2 T00930065 PNO,KXBP,2019-01-17T14:35:00Z,33.18,-97.83,9.3,6.5,340,10,14,10.0,30.180119,,,TRUE,TRUE,,,,,,,OVC,1300,,,,,,,MVFR,,,,,,,,,,,,METAR,260.0
KW81 171435Z AUTO 00000KT 10SM OVC037 00/00 A3035 RMK AO1 T00021002,KW81,2019-01-17T14:35:00Z,37.18,-78.1,0.2,-0.2,0,0,,10.0,30.351377,,,TRUE,TRUE,,,,,,,OVC,3700,,,,,,,VFR,,,,,,,,,,,,METAR,129.0
KVQT 171435Z AUTO 23007G14KT 190V250 10SM FEW023 FEW090 22/17 A3022 RMK A01,KVQT,2019-01-17T14:35:00Z,28.27,-92.27,22.0,17.0,230,7,14,10.0,30.221457,,,TRUE,TRUE,,,,,,,FEW,2300,FEW,9000,,,,,VFR,,,,,,,,,,,,METAR,25.0
KVOA 171435Z AUTO 07006KT 10SM CLR 19/12 A3024 RMK A01,KVOA,2019-01-17T14:35:00Z,29.23,-87.78,19.0,12.0,70,6,,10.0,30.239174,,,TRUE,TRUE,,,,,,,CLR,,,,,,,,VFR,,,,,,,,,,,,METAR,53.0
KVKY 171435Z AUTO 00000KT 10SM BKN031 OVC110 17/11 A3026 RMK A01,KVKY,2019-01-17T14:35:00Z,29.25,-88.43,17.0,11.0,0,0,,10.0,30.259842,,,TRUE,TRUE,,,,,,,BKN,3100,OVC,11000,,,,,VFR,,,,,,,,,,,,METAR,32.0
KVKS 171435Z AUTO VRB06KT 10SM OVC017 11/09 A3016 RMK A01,KVKS,2019-01-17T14:35:00Z,32.23,-90.93,11.0,9.0,0,6,,10.0,30.159449,,,TRUE,TRUE,,,,,,,OVC,1700,,,,,,,MVFR,,,,,,,,,,,,METAR,32.0
KVBS 171435Z AUTO 27007KT 10SM FEW013 SCT020 BKN026 18/17 A3016 RMK A01,KVBS,2019-01-17T14:35:00Z,29.48,-93.63,18.0,17.0,270,7,,10.0,30.159449,,,TRUE,TRUE,,,,,,,FEW,1300,SCT,2000,BKN,2600,,,MVFR,,,,,,,,,,,,METAR,31.0
KVAF 171435Z AUTO 24016KT 7SM BKN026 OVC036 22/18 A3019 RMK A01,KVAF,2019-01-17T14:35:00Z,27.35,-94.63,22.0,18.0,240,16,,7.0,30.188976,,,TRUE,TRUE,,,,,,,BKN,2600,OVC,3600,,,,,MVFR,,,,,,,,,,,,METAR,46.0
KUYF 171435Z AUTO 12008KT 7SM -SN OVC019 00/M01 A3013 RMK AO2,KUYF,2019-01-17T14:35:00Z,39.93,-83.47,0.0,-1.0,120,8,,7.0,30.129921,,,TRUE,TRUE,,,,,,-SN,OVC,1900,,,,,,,MVFR,,,,,,,,,,,,METAR,330.0
KUCY 171435Z AUTO 19006KT 10SM OVC006 08/07 A3004 RMK A01,KUCY,2019-01-17T14:35:00Z,36.38,-88.98,8.0,7.0,190,6,,10.0,30.041338,,,TRUE,TRUE,,,,,,,OVC,600,,,,,,,IFR,,,,,,,,,,,,METAR,104.0
KUBE 171435Z AUTO 00000KT 10SM OVC018 M08/M12 A3005 RMK AO2,KUBE,2019-01-17T14:35:00Z,45.5,-91.98,-8.0,-12.0,0,0,,10.0,30.050198,,,TRUE,TRUE,,,,,,,OVC,1800,,,,,,,MVFR,,,,,,,,,,,,METAR,379.0
KGZS 171435Z AUTO 14006KT 1 1/4SM BR SCT004 BKN029 OVC034 05/05 A3016 RMK A01,KGZS,2019-01-17T14:35:00Z,35.15,-87.05,5.0,5.0,140,6,,1.25,30.159449,,,TRUE,TRUE,,,,,,BR,SCT,400,BKN,2900,OVC,3400,,,IFR,,,,,,,,,,,,METAR,209.0
KGZL 171435Z AUTO 32012KT 10SM OVC006 09/09 A3006 RMK AO2,KGZL,2019-01-17T14:35:00Z,35.28,-95.1,9.0,9.0,320,12,,10.0,30.059055,,,TRUE,TRUE,,,,,,,OVC,600,,,,,,,IFR,,,,,,,,,,,,METAR,183.0
KGUL 171435Z AUTO 22017KT 10SM CLR 21/17 A3022 RMK A01,KGUL,2019-01-17T14:35:00Z,27.3,-93.53,21.0,17.0,220,17,,10.0,30.221457,,,TRUE,TRUE,,,,,,,CLR,,,,,,,,VFR,,,,,,,,,,,,METAR,30.0
KGKT 171435Z AUTO 00000KT 8SM OVC055 02/01 A3017 RMK A01,KGKT,2019-01-17T14:35:00Z,35.85,-83.53,2.0,1.0,0,0,,8.0,30.171259,,,TRUE,TRUE,,,,,,,OVC,5500,,,,,,,VFR,,,,,,,,,,,,METAR,309.0
KGIC 171435Z AUTO 14010KT 10SM CLR 00/00 A2959 RMK AO1,KGIC,2019-01-17T14:35:00Z,45.95,-116.12,0.0,0.0,140,10,,10.0,29.589567,,,TRUE,TRUE,,,,,,,CLR,,,,,,,,VFR,,,,,,,,,,,,METAR,1009.0
KGDJ 171435Z AUTO 31011KT 7SM OVC011 10/07 A3016 RMK AO2 T00950072,KGDJ,2019-01-17T14:35:00Z,32.45,-97.82,9.5,7.2,310,11,,7.0,30.159449,,,TRUE,TRUE,,,,,,,OVC,1100,,,,,,,MVFR,,,,,,,,,,,,METAR,237.0
KGCY 171435Z AUTO 08004KT 10SM BKN055 OVC070 02/M01 A3018 RMK A01,KGCY,2019-01-17T14:35:00Z,36.2,-82.82,2.0,-1.0,80,4,,10.0,30.180119,,,TRUE,TRUE,,,,,,,BKN,5500,OVC,7000,,,,,VFR,,,,,,,,,,,,METAR,490.0
KGCM 171435Z AUTO 32006KT 2 1/2SM BR OVC002 05/05 A3011 RMK AO2 TSNO,KGCM,2019-01-17T14:35:00Z,36.3,-95.48,5.0,5.0,320,6,,2.5,30.109253,,,TRUE,TRUE,,,TRUE,,,BR,OVC,200,,,,,,,LIFR,,,,,,,,,,,,METAR,221.0
KGCD 171435Z AUTO 19016G22KT 10SM SCT033 SCT045 OVC120 06/02 A2957 RMK AO2 T00600024,KGCD,2019-01-17T14:35:00Z,44.38,-118.97,6.0,2.4,190,16,22,10.0,29.568897,,,TRUE,TRUE,,,,,,,SCT,3300,SCT,4500,OVC,12000,,,VFR,,,,,,,,,,,,METAR,1127.0
KGBK 171435Z AUTO 17009KT 10SM FEW021 BKN055 BKN080 21/17 A3022 RMK A01,KGBK,2019-01-17T14:35:00Z,27.2,-92.2,21.0,17.0,170,9,,10.0,30.221457,,,TRUE,TRUE,,,,,,,FEW,2100,BKN,5500,BKN,8000,,,VFR,,,,,,,,,,,,METAR,59.0
KFYE 171435Z AUTO 21005KT 2SM BR OVC004 09/09 A3008 RMK A01,KFYE,2019-01-17T14:35:00Z,35.2,-89.38,9.0,9.0,210,5,,2.0,30.079725,,,TRUE,TRUE,,,,,,BR,OVC,400,,,,,,,LIFR,,,,,,,,,,,,METAR,133.0
KFXY 171435Z AUTO 31005KT 5SM -SN SCT006 OVC034 M04/M05 A3008 RMK AO2,KFXY,2019-01-17T14:35:00Z,43.23,-93.62,-4.0,-5.0,310,5,,5.0,30.079725,,,TRUE,TRUE,,,,,,-SN,SCT,600,OVC,3400,,,,,MVFR,,,,,,,,,,,,METAR,375.0
KFWB 171435Z AUTO 31003KT 1 1/4SM BR OVC003 06/06 A3003 RMK AO2,KFWB,2019-01-17T14:35:00Z,36.7,-93.4,6.0,6.0,310,3,,1.25,30.029528,,,TRUE,TRUE,,,,,,BR,OVC,300,,,,,,,LIFR,,,,,,,,,,,,METAR,406.0
KFTN 171435Z AUTO 34004KT 1/2SM BR OVC003 11/11 A3022 RMK A01,KFTN,2019-01-17T14:35:00Z,28.22,-100.02,11.0,11.0,340,4,,0.5,30.221457,,,TRUE,TRUE,,,,,,BR,OVC,300,,,,,,,LIFR,,,,,,,,,,,,METAR,236.0
KFOT 171435Z AUTO 12009G14KT 10SM BKN034 BKN043 OVC060 08/08 A2972 RMK AO1 P0002,KFOT,2019-01-17T14:35:00Z,40.55,-124.13,8.0,8.0,120,9,14,10.0,29.719488,,,TRUE,TRUE,,,,,,,BKN,3400,BKN,4300,OVC,6000,,,VFR,,,,,,0.02,,,,,,METAR,120.0
KFHB 171435Z AUTO 35004KT 10SM CLR 12/07 A3030 RMK AO2 T01150073,KFHB,2019-01-17T14:35:00Z,30.62,-81.47,11.5,7.3,350,4,,10.0,30.301182,,,TRUE,TRUE,,,,,,,CLR,,,,,,,,VFR,,,,,,,,,,,,METAR,5.0
KFET 171435Z AUTO 00000KT 10SM OVC022 M03/M05 A3011 RMK AO2 T10291054,KFET,2019-01-17T14:35:00Z,41.45,-96.52,-2.9,-5.4,0,0,,10.0,30.109253,,,TRUE,TRUE,,,,,,,OVC,2200,,,,,,,MVFR,,,,,,,,,,,,METAR,367.0
KFEP 171435Z AUTO 05003KT 10SM OVC020 M03/M05 A3011 RMK AO2 T10321052,KFEP,2019-01-17T14:35:00Z,42.25,-89.58,-3.2,-5.2,50,3,,10.0,30.109253,,,TRUE,TRUE,,,,,,,OVC,2000,,,,,,,MVFR,,,,,,,,,,,,METAR,262.0
KFCH 171435Z AUTO 12008KT 10SM SCT040 BKN050 OVC110 14/14 A2998 RMK A01,KFCH,2019-01-17T14:35:00Z,36.72,-119.82,14.0,14.0,120,8,,10.0,29.97933,,,TRUE,TRUE,,,,,,,SCT,4000,BKN,5000,OVC,11000,,,VFR,,,,,,,,,,,,METAR,85.0
KF44 171435Z AUTO 23003KT 10SM OVC012 14/12 A3008 RMK AO2,KF44,2019-01-17T14:35:00Z,32.17,-95.83,14.0,12.0,230,3,,10.0,30.079725,,,TRUE,TRUE,,,,,,,OVC,1200,,,,,,,MVFR,,,,,,,,,,,,METAR,135.0
KF17 171435Z AUTO 20005KT 10SM OVC005 14/14 A3010 RMK AO2 T01440136,KF17,2019-01-17T14:35:00Z,31.83,-94.15,14.4,13.6,200,5,,10.0,30.100393,,,TRUE,TRUE,,,,,,,OVC,500,,,,,,,IFR,,,,,,,,,,,,METAR,97.0
KF00 171435Z AUTO 28005KT 10SM BKN017 10/ A3007 RMK AO2 T0101////,KF00,2019-01-17T14:35:00Z,33.62,-96.18,10.1,,280,5,,10.0,30.070866,,,TRUE,TRUE,,,,,,,BKN,1700,,,,,,,MVFR,,,,,,,,,,,,METAR,188.0
KEVU 171435Z AUTO 33003KT 1/2SM FZFG OVC002 M01/M01 A3009 RMK AO2,KEVU,2019-01-17T14:35:00Z,40.35,-94.92,-1.0,-1.0,330,3,,0.5,30.088583,,,TRUE,TRUE,,,,,,FZFG,OVC,200,,,,,,,LIFR,,,,,,,,,,,,METAR,349.0
KETN 171435Z AUTO 33007KT 4SM BR BKN005 06/05 A3017 RMK AO2 T00560047,KETN,2019-01-17T14:35:00Z,32.42,-98.82,5.6,4.7,330,7,,4.0,30.171259,,,TRUE,TRUE,,,,,,BR,BKN,500,,,,,,,IFR,,,,,,,,,,,,METAR,446.0
KETB 171435Z AUTO 00000KT 10SM OVC036 M05/M06 A3010 RMK AO2,KETB,2019-01-17T14:35:00Z,43.42,-88.13,-5.0,-6.0,0,0,,10.0,30.100393,,,TRUE,TRUE,,,,,,,OVC,3600,,,,,,,VFR,,,,,,,,,,,,METAR,270.0
KEKS 171435Z AUTO 18019G28KT 10SM FEW049 OVC075 04/M04 A2980 RMK AO2,KEKS,2019-01-17T14:35:00Z,45.27,-111.65,4.0,-4.0,180,19,28,10.0,29.799213,,,TRUE,TRUE,,,,,,,FEW,4900,OVC,7500,,,,,VFR,,,,,,,,,,,,METAR,1641.0
KEIR 171435Z AUTO 17011KT 10SM SCT085 20/16 A3022 RMK A01,KEIR,2019-01-17T14:35:00Z,28.63,-91.48,20.0,16.0,170,11,,10.0,30.221457,,,TRUE,TRUE,,,,,,,SCT,8500,,,,,,,VFR,,,,,,,,,,,,METAR,28.0
KEHA 171435Z AUTO 26009KT 10SM CLR 02/00 A3013 RMK AO2 T00161005,KEHA,2019-01-17T14:35:00Z,37.0,-101.9,1.6,-0.5,260,9,,10.0,30.129921,,,TRUE,TRUE,,,,,,,CLR,,,,,,,,VFR,,,,,,,,,,,,METAR,1099.0
KU42 171435Z AUTO 16015G20KT 10SM SCT055 SCT110 05/01 A2996 RMK AO1 T00460005,KU42,2019-01-17T14:35:00Z,40.62,-111.98,4.6,0.5,160,15,20,10.0,29.958662,,,TRUE,TRUE,,,,,,,SCT,5500,SCT,11000,,,,,VFR,,,,,,,,,,,,METAR,1402.0
KTYL 171435Z AUTO 24005KT 10SM CLR M03/M03 A3025 RMK AO2,KTYL,2019-01-17T14:35:00Z,,,-3.0,-3.0,240,5,,10.0,30.250984,,,TRUE,TRUE,,,,,,,CLR,,,,,,,,VFR,,,,,,,,,,,,METAR,
KTVI 171435Z AUTO 00000KT 10SM CLR 08/04 A3030 RMK AO2,KTVI,2019-01-17T14:35:00Z,30.9,-83.88,8.0,4.0,0,0,,10.0,30.301182,,,TRUE,TRUE,,,,,,,CLR,,,,,,,,VFR,,,,,,,,,,,,METAR,80.0
KTNB 171435Z AUTO 00000KT 5SM BR OVC008 M02/M02 A3017 RMK AO2 T10211021,KTNB,2019-01-17T14:35:00Z,36.2,-81.65,-2.1,-2.1,0,0,,5.0,30.171259,,,TRUE,TRUE,,,,,,BR,OVC,800,,,,,,,IFR,,,,,,,,,,,,METAR,911.0
KTMT 171435Z AUTO 19004KT 10SM -DZ SCT021 BKN027 OVC037 03/02 A2988 RMK AO2 T00270015,KTMT,2019-01-17T14:35:00Z,39.47,-117.2,2.7,1.5,190,4,,10.0,29.878937,,,TRUE,TRUE,,,,,,-DZ,SCT,2100,BKN,2700,OVC,3700,,,MVFR,,,,,,,,,,,,METAR,1748.0
KTKV 171435Z AUTO 00000KT 10SM BKN010 OVC026 M10/M12 A3004 RMK AO2 T11001120,KTKV,2019-01-17T14:35:00Z,45.47,-89.82,-10.0,-12.0,0,0,,10.0,30.041338,,,TRUE,TRUE,,,,,,,BKN,1000,OVC,2600,,,,,MVFR,,,,,,,,,,,,METAR,453.0
KTHA 171435Z AUTO 19005G11KT 3SM BR FEW017 SCT032 BKN047 04/03 A3016 RMK A01,KTHA,2019-01-17T14:35:00Z,35.38,-86.25,4.0,3.0,190,5,11,3.0,30.159449,,,TRUE,TRUE,,,,,,BR,FEW,1700,SCT,3200,BKN,4700,,,MVFR,,,,,,,,,,,,METAR,331.0
KTCY 171435Z AUTO 29004KT 10SM FEW042 SCT048 BKN055 11/09 A2995 RMK A01,KTCY,2019-01-17T14:35:00Z,37.68,-121.43,11.0,9.0,290,4,,10.0,29.949802,,,TRUE,TRUE,,,,,,,FEW,4200,SCT,4800,BKN,5500,,,VFR,,,,,,,,,,,,METAR,59.0
KSZY 171435Z AUTO 18006KT 4SM BR OVC003 07/06 A3010 RMK A01,KSZY,2019-01-17T14:35:00Z,,,7.0,6.0,180,6,,4.0,30.100393,,,TRUE,TRUE,,,,,,BR,OVC,300,,,,,,,LIFR,,,,,,,,,,,,METAR,
KSZT 171435Z AUTO 07008KT 10SM M01/M05 A2971 RMK AO2,KSZT,2019-01-17T14:35:00Z,48.3,-116.57,-1.0,-5.0,70,8,,10.0,29.71063,,,TRUE,TRUE,,,,,,,,,,,,,,,,,,,,,,,,,,,METAR,648.0
KSYN 171435Z AUTO 00000KT 10SM SCT009 BKN031 OVC039 M06/M08 A3007 RMK AO2 T10601076,KSYN,2019-01-17T14:35:00Z,44.47,-93.02,-6.0,-7.6,0,0,,10.0,30.070866,,,TRUE,TRUE,,,,,,,SCT,900,BKN,3100,OVC,3900,,,VFR,,,,,,,,,,,,METAR,280.0
KSYI 171435Z AUTO 16009KT 3SM BR FEW023 SCT029 BKN040 05/04 A3015 RMK A01,KSYI,2019-01-17T14:35:00Z,35.57,-86.45,5.0,4.0,160,9,,3.0,30.15059,,,TRUE,TRUE,,,,,,BR,FEW,2300,SCT,2900,BKN,4000,,,MVFR,,,,,,,,,,,,METAR,245.0
KSRE 171435Z AUTO 32008G14KT 300V360 10SM OVC007 06/05 A3013 RMK AO2,KSRE,2019-01-17T14:35:00Z,35.27,-96.68,6.0,5.0,320,8,14,10.0,30.129921,,,TRUE,TRUE,,,,,,,OVC,700,,,,,,,IFR,,,,,,,,,,,,METAR,312.0
KSRB 171435Z AUTO 17008KT 2 1/2SM BR BKN030 OVC038 04/03 A3015 RMK A01,KSRB,2019-01-17T14:35:00Z,36.05,-85.53,4.0,3.0,170,8,,2.5,30.15059,,,TRUE,TRUE,,,,,,BR,BKN,3000,OVC,3800,,,,,IFR,,,,,,,,,,,,METAR,313.0
KSNH 171435Z AUTO 16005KT 5SM BR BKN005 OVC008 07/07 A3011 RMK A01,KSNH,2019-01-17T14:35:00Z,35.17,-88.22,7.0,7.0,160,5,,5.0,30.109253,,,TRUE,TRUE,,,,,,BR,BKN,500,OVC,800,,,,,IFR,,,,,,,,,,,,METAR,144.0
KPEX 171435Z AUTO 29006KT 10SM OVC032 M12/M15 A3011 RMK AO2 T11201146,KPEX,2019-01-17T14:35:00Z,45.37,-94.73,-12.0,-14.6,290,6,,10.0,30.109253,,,TRUE,TRUE,,,,,,,OVC,3200,,,,,,,VFR,,,,,,,,,,,,METAR,360.0
KOXD 171435Z AUTO 13005KT 1SM -SN OVC004 01/01 A3010 RMK AO2 P0003 T00060006,KOXD,2019-01-17T14:35:00Z,39.5,-84.78,0.6,0.6,130,5,,1.0,30.100393,,,TRUE,TRUE,,,,,,-SN,OVC,400,,,,,,,LIFR,,,,,,0.03,,,,,,METAR,317.0
KD39 171435Z AUTO 00000KT 10SM OVC090 M17/M20 A3010 RMK AO2 T11701204,KD39,2019-01-17T14:35:00Z,45.7,-94.93,-17.0,-20.4,0,0,,10.0,30.100393,,,TRUE,TRUE,,,,,,,OVC,9000,,,,,,,VFR,,,,,,,,,,,,METAR,380.0
KCDI 171435Z AUTO 05006KT 10SM OVC030 M01/M02 A3021 RMK AO2 T10071023,KCDI,2019-01-17T14:35:00Z,39.97,-81.58,-0.7,-2.3,50,6,,10.0,30.209646,,,TRUE,TRUE,,,,,,,OVC,3000,,,,,,,MVFR,,,,,,,,,,,,METAR,244.0
KRCM 171435Z AUTO 32005KT 1/4SM FG OVC002 00/00 A3009 RMK AO2,KRCM,2019-01-17T14:35:00Z,38.78,-93.8,0.0,0.0,320,5,,0.25,30.088583,,,TRUE,TRUE,,,,,,FG,OVC,200,,,,,,,LIFR,,,,,,,,,,,,SPECI,244.0
KOIN 171435Z AUTO 00000KT 10SM CLR M03/M03 A3010 RMK AO1 T10331035,KOIN,2019-01-17T14:35:00Z,39.83,-100.53,-3.3,-3.5,0,0,,10.0,30.100393,,,TRUE,TRUE,,,,,,,CLR,,,,,,,,VFR,,,,,,,,,,,,SPECI,824.0
KRCX 171435Z AUTO 00000KT 10SM OVC027 M08/M10 A3007 RMK AO2 T10781101,KRCX,2019-01-17T14:35:00Z,45.5,-91.0,-7.8,-10.1,0,0,,10.0,30.070866,,,TRUE,TRUE,,,,,,,OVC,2700,,,,,,,MVFR,,,,,,,,,,,,METAR,377.0
KGAF 171435Z AUTO 35005KT 8SM OVC027 M16/M18 A3020 RMK AO2 PWINO,KGAF,2019-01-17T14:35:00Z,48.4,-97.37,-16.0,-18.0,350,5,,8.0,30.200787,,,TRUE,TRUE,,,,,TRUE,,OVC,2700,,,,,,,MVFR,,,,,,,,,,,,METAR,252.0
KD57 171435Z AUTO 34005KT 2SM BR OVC004 M07/M08 A3006 RMK AO2 PWINO,KD57,2019-01-17T14:35:00Z,46.82,-101.87,-7.0,-8.0,340,5,,2.0,30.059055,,,TRUE,TRUE,,,,,TRUE,BR,OVC,400,,,,,,,LIFR,,,,,,,,,,,,METAR,637.0
KBNL 171435Z AUTO 00000KT 10SM CLR 04/03 A3029 RMK AO2,KBNL,2019-01-17T14:35:00Z,33.25,-81.38,4.0,3.0,0,0,,10.0,30.28937,,,TRUE,TRUE,,,,,,,CLR,,,,,,,,VFR,,,,,,,,,,,,SPECI,75.0
KOOA 171435Z AUTO 33005KT 3/4SM BR OVC006 M02/M02 A3010 RMK AO2 T10191020,KOOA,2019-01-17T14:35:00Z,41.23,-92.5,-1.9,-2.0,330,5,,0.75,30.100393,,,TRUE,TRUE,,,,,,BR,OVC,600,,,,,,,LIFR,,,,,,,,,,,,METAR,256.0
KSXU 171435Z AUTO 22004KT 10SM CLR 03/M02 A3019 RMK AO2 T00251017,KSXU,2019-01-17T14:35:00Z,34.93,-104.65,2.5,-1.7,220,4,,10.0,30.188976,,,TRUE,TRUE,,,,,,,CLR,,,,,,,,VFR,,,,,,,,,,,,METAR,1460.0
KMNI 171435Z AUTO 00000KT 10SM CLR 04/02 A3031 RMK AO2,KMNI,2019-01-17T14:35:00Z,33.58,-80.22,4.0,2.0,0,0,,10.0,30.31004,,,TRUE,TRUE,,,,,,,CLR,,,,,,,,VFR,,,,,,,,,,,,SPECI,32.0
KDYA 171435Z AUTO 00000KT 10SM DZ OVC044 08/06 A3023 RMK AO2 T00760057,KDYA,2019-01-17T14:35:00Z,32.47,-87.95,7.6,5.7,0,0,,10.0,30.230314,,,TRUE,TRUE,,,,,,DZ,OVC,4400,,,,,,,VFR,,,,,,,,,,,,SPECI,34.0
KGEV 171435Z AUTO 17005KT 5SM BR OVC009 M03/M03 A3016 RMK AO2 T10311035,KGEV,2019-01-17T14:35:00Z,36.43,-81.42,-3.1,-3.5,170,5,,5.0,30.159449,,,TRUE,TRUE,,,,,,BR,OVC,900,,,,,,,IFR,,,,,,,,,,,,SPECI,969.0
KDCM 171435Z AUTO 04006KT 7SM CLR 01/00 A3028 RMK AO2,KDCM,2019-01-17T14:35:00Z,34.78,-81.2,1.0,0.0,40,6,,7.0,30.280512,,,TRUE,TRUE,,,,,,,CLR,,,,,,,,VFR,,,,,,,,,,,,SPECI,200.0
KAID 171435Z AUTO 00000KT 3SM RA OVC007 01/00 A3008 RMK AO2 T00050000,KAID,2019-01-17T14:35:00Z,40.12,-85.62,0.5,0.0,0,0,,3.0,30.079725,,,TRUE,TRUE,,,,,,RA,OVC,700,,,,,,,IFR,,,,,,,,,,,,SPECI,280.0
KLUX 171435Z AUTO 04004KT 10SM CLR 01/00 A3027 RMK AO2,KLUX,2019-01-17T14:35:00Z,34.5,-81.95,1.0,0.0,40,4,,10.0,30.268702,,,TRUE,TRUE,,,,,,,CLR,,,,,,,,VFR,,,,,,,,,,,,SPECI,213.0
KPGV 171435Z AUTO 00000KT 10SM CLR 03/01 A3034 RMK AO2,KPGV,2019-01-17T14:35:00Z,35.62,-77.4,3.0,1.0,0,0,,10.0,30.339567,,,TRUE,TRUE,,,,,,,CLR,,,,,,,,VFR,,,,,,,,,,,,SPECI,8.0
KVNC 171435Z AUTO 05008KT 10SM CLR 14/08 A3026 RMK AO2,KVNC,2019-01-17T14:35:00Z,27.07,-82.43,14.0,8.0,50,8,,10.0,30.259842,,,TRUE,TRUE,,,,,,,CLR,,,,,,,,VFR,,,,,,,,,,,,SPECI,6.0
KSDC 171435Z AUTO 16003KT 10SM SCT030 M09/M14 A3040 RMK AO2,KSDC,2019-01-17T14:35:00Z,43.23,-77.12,-9.0,-14.0,160,3,,10.0,30.398623,,,TRUE,TRUE,,,,,,,SCT,3000,,,,,,,VFR,,,,,,,,,,,,SPECI,129.0
KPLD 171435Z AUTO 00000KT 1 1/4SM -SN SCT009 OVC016 00/00 A3009 RMK AO2,KPLD,2019-01-17T14:35:00Z,40.45,-84.98,0.0,0.0,0,0,,1.25,30.088583,,,TRUE,TRUE,,,,,,-SN,SCT,900,OVC,1600,,,,,IFR,,,,,,,,,,,,SPECI,282.0
K74V 171435Z AUTO 24003KT 5SM BR BKN070 BKN080 M06/M08 A3015 RMK AO2,K74V,2019-01-17T14:35:00Z,40.28,-110.05,-6.0,-8.0,240,3,,5.0,30.15059,,,TRUE,TRUE,,,,,,BR,BKN,7000,BKN,8000,,,,,MVFR,,,,,,,,,,,,SPECI,1576.0
K96D 171435Z AUTO 36010KT 9SM M17/M19 A3020 RMK AO2,K96D,2019-01-17T14:35:00Z,48.93,-97.9,-17.0,-19.0,360,10,,9.0,30.200787,,,TRUE,TRUE,,,,,,,,,,,,,,,,,,,,,,,,,,,METAR,290.0
KCCA 171435Z AUTO 00000KT 3SM BR OVC004 08/08 A3004 RMK AO2,KCCA,2019-01-17T14:35:00Z,35.6,-92.45,8.0,8.0,0,0,,3.0,30.041338,,,TRUE,TRUE,,,,,,BR,OVC,400,,,,,,,LIFR,,,,,,,,,,,,SPECI,157.0
KGGE 171435Z AUTO 00000KT 10SM CLR 07/06 A3030 RMK AO2,KGGE,2019-01-17T14:35:00Z,33.32,-79.32,7.0,6.0,0,0,,10.0,30.301182,,,TRUE,TRUE,,,,,,,CLR,,,,,,,,VFR,,,,,,,,,,,,SPECI,12.0
KMCJ 171435Z AUTO VRB04G11KT 10SM OVC007 16/16 A3015 RMK A01,KMCJ,2019-01-17T14:35:00Z,29.72,-95.4,16.0,16.0,0,4,11,10.0,30.15059,,,TRUE,TRUE,,,,,,,OVC,700,,,,,,,IFR,,,,,,,,,,,,METAR,69.0
KPCZ 171435Z AUTO 00000KT 10SM OVC022 M06/M09 A3011 RMK AO2 T10601087,KPCZ,2019-01-17T14:35:00Z,44.33,-89.02,-6.0,-8.7,0,0,,10.0,30.109253,,,TRUE,TRUE,,,,,,,OVC,2200,,,,,,,MVFR,,,,,,,,,,,,METAR,252.0
KS32 171435Z AUTO 33003KT 4SM -SN SCT003 OVC009 M13/M14 A3011 RMK AO2,KS32,2019-01-17T14:35:00Z,47.42,-98.1,-13.0,-14.0,330,3,,4.0,30.109253,,,TRUE,TRUE,,,,,,-SN,SCT,300,OVC,900,,,,,IFR,,,,,,,,,,,,METAR,684.0
KSEM 171435Z AUTO 00000KT 3SM -RA SCT030 BKN036 OVC050 06/04 A3024 RMK AO2,KSEM,2019-01-17T14:35:00Z,32.35,-86.98,6.0,4.0,0,0,,3.0,30.239174,,,TRUE,TRUE,,,,,,-RA,SCT,3000,BKN,3600,OVC,5000,,,MVFR,,,,,,,,,,,,SPECI,51.0
KVTI 171435Z AUTO 00000KT 2 1/2SM BR OVC007 M02/M03 A3008 RMK AO2 T10201027,KVTI,2019-01-17T14:35:00Z,42.22,-92.02,-2.0,-2.7,0,0,,2.5,30.079725,,,TRUE,TRUE,,,,,,BR,OVC,700,,,,,,,IFR,,,,,,,,,,,,METAR,255.0
KC35 171435Z AUTO 00000KT 10SM OVC017 M04/M07 A3008 RMK AO2 T10401070,KC35,2019-01-17T14:35:00Z,43.53,-89.98,-4.0,-7.0,0,0,,10.0,30.079725,,,TRUE,TRUE,,,,,,,OVC,1700,,,,,,,MVFR,,,,,,,,,,,,SPECI,276.0
KANK 171435Z AUTO 22019G27KT 10SM CLR 03/M08 A3018 RMK AO1 T00251076,KANK,2019-01-17T14:35:00Z,38.53,-106.05,2.5,-7.6,220,19,27,10.0,30.180119,,,TRUE,TRUE,,,,,,,CLR,,,,,,,,VFR,,,,,,,,,,,,SPECI,2293.0
KUNU 171435Z AUTO 00000KT 10SM OVC031 M04/M06 A3011 RMK AO2 T10401065 TSNO,KUNU,2019-01-17T14:35:00Z,43.42,-88.7,-4.0,-6.5,0,0,,10.0,30.109253,,,TRUE,TRUE,,,TRUE,,,,OVC,3100,,,,,,,VFR,,,,,,,,,,,,SPECI,285.0
KMAO 171435Z AUTO 08003KT 10SM CLR 03/00 A3030 RMK AO2,KMAO,2019-01-17T14:35:00Z,34.18,-79.33,3.0,0.0,80,3,,10.0,30.301182,,,TRUE,TRUE,,,,,,,CLR,,,,,,,,VFR,,,,,,,,,,,,SPECI,28.0
KGGI 171435Z AUTO 00000KT 1 1/2SM BR OVC005 M02/M03 A3010 RMK AO2 T10231028,KGGI,2019-01-17T14:35:00Z,41.72,-92.73,-2.3,-2.8,0,0,,1.5,30.100393,,,TRUE,TRUE,,,,,,BR,OVC,500,,,,,,,IFR,,,,,,,,,,,,SPECI,307.0
KEZS 171435Z AUTO 00000KT 10SM OVC026 M08/M11 A3012 RMK AO2 T10851106,KEZS,2019-01-17T14:35:00Z,44.78,-88.57,-8.5,-10.6,0,0,,10.0,30.121063,,,TRUE,TRUE,,,,,,,OVC,2600,,,,,,,MVFR,,,,,,,,,,,,SPECI,248.0
KFFX 171435Z AUTO 09005KT 10SM OVC030 M06/M09 A3015 RMK AO2 T10611093,KFFX,2019-01-17T14:35:00Z,43.43,-86.0,-6.1,-9.3,90,5,,10.0,30.15059,,,TRUE,TRUE,,,,,,,OVC,3000,,,,,,,MVFR,,,,,,,,,,,,SPECI,236.0
KEOK 171435Z AUTO 36004KT M1/4SM FZFG OVC002 M00/M00 A3007 RMK AO2,KEOK,2019-01-17T14:35:00Z,40.47,-91.42,0.0,0.0,360,4,,0.25,30.070866,,,TRUE,TRUE,,,,,,FZFG,OVC,200,,,,,,,LIFR,,,,,,,,,,,,METAR,205.0
KEKX 171435Z AUTO 16006KT 10SM -RA BKN018 OVC032 04/04 A3010 RMK AO2 P0001 T00420035,KEKX,2019-01-17T14:35:00Z,,,4.2,3.5,160,6,,10.0,30.100393,,,TRUE,TRUE,,,,,,-RA,BKN,1800,OVC,3200,,,,,MVFR,,,,,,0.01,,,,,,METAR,
KDYT 171435Z AUTO 10SM SCT060 OVC090 M15/M18 A3012 RMK AO2,KDYT,2019-01-17T14:35:00Z,46.72,-92.03,-15.0,-18.0,,,,10.0,30.121063,,,TRUE,TRUE,,,,,,,SCT,6000,OVC,9000,,,,,VFR,,,,,,,,,,,,METAR,186.0
KDRM 171435Z AUTO 00000KT 10SM OVC026 M12/M14 A3021 RMK AO2 T11201145,KDRM,2019-01-17T14:35:00Z,46.0,-83.75,-12.0,-14.5,0,0,,10.0,30.209646,,,TRUE,TRUE,,,,,,,OVC,2600,,,,,,,MVFR,,,,,,,,,,,,SPECI,204.0
KCCY 171435Z AUTO 27004KT 2 1/2SM -SN SCT005 SCT046 OVC060 M03/M04 A3008 RMK AO2,KCCY,2019-01-17T14:35:00Z,43.07,-92.62,-3.0,-4.0,270,4,,2.5,30.079725,,,TRUE,TRUE,,,,,,-SN,SCT,500,SCT,4600,OVC,6000,,,IFR,,,,,,,,,,,,SPECI,343.0
KCLI 171435Z AUTO 07003KT 10SM OVC025 M08/M10 A3011 RMK AO2 T10811105,KCLI,2019-01-17T14:35:00Z,44.62,-88.73,-8.1,-10.5,70,3,,10.0,30.109253,,,TRUE,TRUE,,,,,,,OVC,2500,,,,,,,MVFR,,,,,,,,,,,,SPECI,250.0
KRRL 171435Z AUTO 00000KT 10SM OVC010 M08/M11 A3007 RMK AO2 T10851106 TSNO,KRRL,2019-01-17T14:35:00Z,45.2,-89.72,-8.5,-10.6,0,0,,10.0,30.070866,,,TRUE,TRUE,,,TRUE,,,,OVC,1000,,,,,,,MVFR,,,,,,,,,,,,SPECI,401.0
KRPD 171435Z AUTO 00000KT 10SM OVC023 M08/M11 A3008 RMK AO2 T10821108,KRPD,2019-01-17T14:35:00Z,45.42,-91.77,-8.2,-10.8,0,0,,10.0,30.079725,,,TRUE,TRUE,,,,,,,OVC,2300,,,,,,,MVFR,,,,,,,,,,,,SPECI,338.0
KGPH 171435Z AUTO 34003KT 2 1/2SM BR OVC004 00/00 A3010 RMK AO2,KGPH,2019-01-17T14:35:00Z,39.33,-94.32,0.0,0.0,340,3,,2.5,30.100393,,,TRUE,TRUE,,,,,,BR,OVC,400,,,,,,,LIFR,,,,,,,,,,,,SPECI,235.0
KEGV 171435Z AUTO 00000KT 7SM -SN SCT019 OVC026 M15/M18 A3003 RMK AO2 T11551180,KEGV,2019-01-17T14:35:00Z,45.93,-89.27,-15.5,-18.0,0,0,,7.0,30.029528,,,TRUE,TRUE,,,,,,-SN,SCT,1900,OVC,2600,,,,,MVFR,,,,,,,,,,,,SPECI,500.0
K1S5 171435Z AUTO 00000KT 5SM -SN OVC003 00/00 A2964 RMK AO2 P0001 T00030003,K1S5,2019-01-17T14:35:00Z,46.33,-119.97,0.3,0.3,0,0,,5.0,29.639763,,,TRUE,TRUE,,,,,,-SN,OVC,300,,,,,,,LIFR,,,,,,0.01,,,,,,SPECI,234.0
KCKM 171435Z AUTO 18006KT 4SM BR OVC018 10/10 A3011 RMK A01,KCKM,2019-01-17T14:35:00Z,34.3,-90.52,10.0,10.0,180,6,,4.0,30.109253,,,TRUE,TRUE,,,,,,BR,OVC,1800,,,,,,,MVFR,,,,,,,,,,,,SPECI,53.0
KC62 171435Z AUTO 09005KT 1 3/4SM BR OVC006 M03/M05 A3010 RMK AO2 T10361051,KC62,2019-01-17T14:35:00Z,41.47,-85.25,-3.6,-5.1,90,5,,1.75,30.100393,,,TRUE,TRUE,,,,,,BR,OVC,600,,,,,,,IFR,,,,,,,,,,,,SPECI,306.0
KSUW 171435Z AUTO 00000KT 10SM OVC060 M17/M20 A3013 RMK AO2 T11751202,KSUW,2019-01-17T14:35:00Z,46.68,-92.1,-17.5,-20.2,0,0,,10.0,30.129921,,,TRUE,TRUE,,,,,,,OVC,6000,,,,,,,VFR,,,,,,,,,,,,SPECI,206.0
KLUL 171435Z AUTO 00000KT 7SM OVC041 08/07 A3024 RMK AO2 P0001 T00770070,KLUL,2019-01-17T14:35:00Z,31.67,-89.17,7.7,7.0,0,0,,7.0,30.239174,,,TRUE,TRUE,,,,,,,OVC,4100,,,,,,,VFR,,,,,,0.01,,,,,,SPECI,73.0
KGDB 171435Z AUTO 30007KT 10SM OVC029 M10/M13 A3014 RMK AO2 T10991129,KGDB,2019-01-17T14:35:00Z,44.75,-95.55,-9.9,-12.9,300,7,,10.0,30.138779,,,TRUE,TRUE,,,,,,,OVC,2900,,,,,,,MVFR,,,,,,,,,,,,SPECI,319.0
KPBH 171435Z AUTO 00000KT 10SM OVC023 M09/M11 A3003 RMK AO2 T10951110,KPBH,2019-01-17T14:35:00Z,45.7,-90.4,-9.5,-11.0,0,0,,10.0,30.029528,,,TRUE,TRUE,,,,,,,OVC,2300,,,,,,,MVFR,,,,,,,,,,,,SPECI,449.0
KHPT 171435Z AUTO 00000KT 4SM UP BKN050 OVC060 M03/M06 A3007 RMK AO2,KHPT,2019-01-17T14:35:00Z,42.58,-93.23,-3.0,-6.0,0,0,,4.0,30.070866,,,TRUE,TRUE,,,,,,UP,BKN,5000,OVC,6000,,,,,MVFR,,,,,,,,,,,,METAR,358.0
KHNR 171435Z AUTO 32005KT 4SM BR SCT009 BKN026 OVC043 M04/M04 A3009 RMK AO2,KHNR,2019-01-17T14:35:00Z,41.58,-95.33,-4.0,-4.0,320,5,,4.0,30.088583,,,TRUE,TRUE,,,,,,BR,SCT,900,BKN,2600,OVC,4300,,,MVFR,,,,,,,,,,,,METAR,375.0
KHEG 171435Z AUTO 00000KT 9SM CLR 10/03 A3032 RMK AO2,KHEG,2019-01-17T14:35:00Z,30.28,-81.8,10.0,3.0,0,0,,9.0,30.318897,,,TRUE,TRUE,,,,,,,CLR,,,,,,,,VFR,,,,,,,,,,,,METAR,27.0
KHAF 171435Z AUTO 17015G21KT 3SM BR FEW019 SCT030 OVC075 13/12 A2994 RMK AO2,KHAF,2019-01-17T14:35:00Z,37.52,-122.5,13.0,12.0,170,15,21,3.0,29.940945,,,TRUE,TRUE,,,,,,BR,FEW,1900,SCT,3000,OVC,7500,,,MVFR,,,,,,,,,,,,METAR,21.0
KLWA 171435Z AUTO 11006KT 10SM OVC025 M02/M06 A3012 RMK AO2 T10241058,KLWA,2019-01-17T14:35:00Z,42.35,-86.25,-2.4,-5.8,110,6,,10.0,30.121063,,,TRUE,TRUE,,,,,,,OVC,2500,,,,,,,MVFR,,,,,,,,,,,,METAR,203.0
KLRY 171435Z AUTO 32005KT 1/2SM FG OVC003 01/01 A3013 RMK AO2,KLRY,2019-01-17T14:35:00Z,38.62,-94.35,1.0,1.0,320,5,,0.5,30.129921,,,TRUE,TRUE,,,,,,FG,OVC,300,,,,,,,LIFR,,,,,,,,,,,,METAR,279.0
KLQK 171435Z AUTO 08003KT 10SM CLR 03/00 A3025 RMK AO2 T00300004,KLQK,2019-01-17T14:35:00Z,34.82,-82.7,3.0,0.4,80,3,,10.0,30.250984,,,TRUE,TRUE,,,,,,,CLR,,,,,,,,VFR,,,,,,,,,,,,METAR,309.0
KJYM 171435Z AUTO 12005KT 10SM SCT011 OVC023 M04/M07 A3011 RMK AO2 T10381067,KJYM,2019-01-17T14:35:00Z,41.92,-84.58,-3.8,-6.7,120,5,,10.0,30.109253,,,TRUE,TRUE,,,,,,,SCT,1100,OVC,2300,,,,,MVFR,,,,,,,,,,,,METAR,360.0
KJMR 171435Z AUTO 00000KT 10SM OVC040 M14/M17 A3011 RMK AO2,KJMR,2019-01-17T14:35:00Z,45.88,-93.27,-14.0,-17.0,0,0,,10.0,30.109253,,,TRUE,TRUE,,,,,,,OVC,4000,,,,,,,VFR,,,,,,,,,,,,SPECI,309.0
KJHN 171435Z AUTO 26004KT 10SM CLR M01/M03 A3010 RMK AO2 T10071032,KJHN,2019-01-17T14:35:00Z,37.58,-101.73,-0.7,-3.2,260,4,,10.0,30.100393,,,TRUE,TRUE,,,,,,,CLR,,,,,,,,VFR,,,,,,,,,,,,METAR,1013.0
KI69 171435Z AUTO 12004KT 4SM BR BKN005 OVC011 01/01 A3014 RMK AO2 T00060005,KI69,2019-01-17T14:35:00Z,39.08,-84.22,0.6,0.5,120,4,,4.0,30.138779,,,TRUE,TRUE,,,,,,BR,BKN,500,OVC,1100,,,,,IFR,,,,,,,,,,,,SPECI,255.0
CYNA 171435Z AUTO 29018G28KT 3SM -SN CLR M12/M16 A2966 RMK PRESRR SLP047,CYNA,2019-01-17T14:35:00Z,50.17,-61.82,-12.0,-16.0,290,18,28,3.0,29.660433,1004.7,,TRUE,,,,,,,-SN,CLR,,,,,,,,MVFR,,,,,,,,,,,,SPECI,11.0
CZVL 171435Z AUTO 08006KT 8SM OVC095 M21/M23 A3022 RMK SLP301,CZVL,2019-01-17T14:35:00Z,53.67,-113.85,-21.0,-23.0,80,6,,8.0,30.221457,1030.1,,TRUE,,,,,,,,OVC,9500,,,,,,,VFR,,,,,,,,,,,,SPECI,686.0
CZSJ 171435Z AUTO 28007KT 9SM -SN BKN017 M31/M34 A3000 RMK SLP203,CZSJ,2019-01-17T14:35:00Z,53.07,-93.35,-31.0,-34.0,280,7,,9.0,30.0,1020.3,,TRUE,,,,,,,-SN,BKN,1700,,,,,,,MVFR,,,,,,,,,,,,SPECI,290.0
KVVV 171435Z AUTO 34006KT 10SM OVC095 M15/M17 A3014 RMK AO2,KVVV,2019-01-17T14:35:00Z,45.3,-96.42,-15.0,-17.0,340,6,,10.0,30.138779,,,TRUE,TRUE,,,,,,,OVC,9500,,,,,,,VFR,,,,,,,,,,,,METAR,335.0
KVLL 171435Z AUTO 12006KT 10SM OVC014 M03/M07 A3022 RMK AO2 T10281068,KVLL,2019-01-17T14:35:00Z,42.55,-83.18,-2.8,-6.8,120,6,,10.0,30.221457,,,TRUE,TRUE,,,,,,,OVC,1400,,,,,,,MVFR,,,,,,,,,,,,METAR,222.0
KVDF 171435Z AUTO 00000KT 10SM CLR 11/07 A3028 RMK AO2,KVDF,2019-01-17T14:35:00Z,28.02,-82.33,11.0,7.0,0,0,,10.0,30.280512,,,TRUE,TRUE,,,,,,,CLR,,,,,,,,VFR,,,,,,,,,,,,METAR,7.0
KSDM 171434Z AUTO 16006KT 10SM BKN017 OVC033 13/11 A3018 RMK AO2 T01330106,KSDM,2019-01-17T14:34:00Z,32.58,-117.0,13.3,10.6,160,6,,10.0,30.180119,,,TRUE,TRUE,,,,,,,BKN,1700,OVC,3300,,,,,MVFR,,,,,,,,,,,,METAR,159.0
CYCA 171434Z AUTO 16009G21KT 5SM -SN OVC029 M06/M09 A2947 RMK PRESFR SLP981,CYCA,2019-01-17T14:34:00Z,53.68,-57.03,-6.0,-9.0,160,9,21,5.0,29.471457,998.1,,TRUE,,,,,,,-SN,OVC,2900,,,,,,,MVFR,,,,,,,,,,,,SPECI,12.0
PAPH 171434Z AUTO 00000KT 10SM SCT023 BKN033 BKN055 03/01 A2956 RMK AO2 RAB20E31 P0000,PAPH,2019-01-17T14:34:00Z,56.95,-158.62,3.0,1.0,0,0,,10.0,29.56004,,,TRUE,TRUE,,,,,,,SCT,2300,BKN,3300,BKN,5500,,,VFR,,,,,,0.005,,,,,,SPECI,29.0
KFOZ 171434Z AUTO 00000KT 10SM OVC110 M22/M24 A3008 RMK AO2,KFOZ,2019-01-17T14:34:00Z,47.77,-93.65,-22.0,-24.0,0,0,,10.0,30.079725,,,TRUE,TRUE,,,,,,,OVC,11000,,,,,,,VFR,,,,,,,,,,,,METAR,411.0
PACD 171434Z AUTO 35016KT 7SM -SN FEW014 OVC027 00/M01 A2959 RMK AO2 P0001 T00001011 TSNO,PACD,2019-01-17T14:34:00Z,55.2,-162.72,0.0,-1.1,350,16,,7.0,29.589567,,,TRUE,TRUE,,,TRUE,,,-SN,FEW,1400,OVC,2700,,,,,MVFR,,,,,,0.01,,,,,,METAR,30.0
KMYP 171434Z AUTO 26024KT M08/M10 A3025 RMK AO2 PWINO,KMYP,2019-01-17T14:34:00Z,38.48,-106.32,-8.0,-10.0,260,24,,,30.250984,,,TRUE,TRUE,,,,,TRUE,,,,,,,,,,,,,,,,,,,,,,METAR,3667.0
K2V6 171434Z AUTO 23007KT 10SM CLR M07/M09 A3003 RMK AO2,K2V6,2019-01-17T14:34:00Z,40.1,-102.72,-7.0,-9.0,230,7,,10.0,30.029528,,,TRUE,TRUE,,,,,,,CLR,,,,,,,,VFR,,,,,,,,,,,,METAR,1261.0
KEMP 171434Z AUTO 32005KT 3SM BR OVC006 00/00 A3011 RMK AO2 T00000000,KEMP,2019-01-17T14:34:00Z,38.33,-96.2,0.0,0.0,320,5,,3.0,30.109253,,,TRUE,TRUE,,,,,,BR,OVC,600,,,,,,,IFR,,,,,,,,,,,,METAR,367.0
KVOK 171434Z 14003KT 7SM -SN BKN017 OVC025 M05/M05 A3008 RMK AO2A,KVOK,2019-01-17T14:34:00Z,43.92,-90.27,-5.0,-5.0,140,3,,7.0,30.079725,,,,TRUE,,,,,,-SN,BKN,1700,OVC,2500,,,,,MVFR,,,,,,,,,,,,SPECI,277.0
ETNN 171434Z 31017G27KT 9999 FEW010 SCT015TCU BKN045 03/01 Q1005 BLU BLU TEMPO GRN,ETNN,2019-01-17T14:34:00Z,50.82,6.67,3.0,1.0,310,17,27,6.21,29.675198,,,,,,,,,,,FEW,1000,SCT,1500,BKN,4500,,,VFR,,,,,,,,,,,,SPECI,135.0
K1YT 171434Z AUTO 00000KT 5SM -SN FG OVC005 00/M01 A2959 RMK AO2 CIG 005V010 SLPNO $,K1YT,2019-01-17T14:34:00Z,46.67,-120.45,0.0,-1.0,0,0,,5.0,29.589567,,,TRUE,TRUE,TRUE,,,,,-SN FG,OVC,500,,,,,,,IFR,,,,,,,,,,,,SPECI,438.0
KFLP 171434Z AUTO 00000KT 2 1/2SM -RA BR BKN003 OVC007 07/07 A3003 RMK AO2 P0001,KFLP,2019-01-17T14:34:00Z,36.28,-92.58,7.0,7.0,0,0,,2.5,30.029528,,,TRUE,TRUE,,,,,,-RA BR,BKN,300,OVC,700,,,,,LIFR,,,,,,0.01,,,,,,SPECI,219.0
KHAO 171434Z AUTO VRB03KT 1 3/4SM -SN BR FEW007 OVC022 01/M01 A3013 RMK AO2 RAE08SNB08 P0007 T00061006,KHAO,2019-01-17T14:34:00Z,39.37,-84.52,0.6,-0.6,0,3,,1.75,30.129921,,,TRUE,TRUE,,,,,,-SN BR,FEW,700,OVC,2200,,,,,IFR,,,,,,0.07,,,,,,SPECI,188.0
EHWO 171433Z AUTO 27010KT 230V320 9999 BKN021 BKN026 OVC030 03/02 Q1006 WHT,EHWO,2019-01-17T14:33:00Z,51.45,4.32,3.0,2.0,270,10,,6.21,29.704725,,,TRUE,,,,,,,,BKN,2100,BKN,2600,OVC,3000,,,MVFR,,,,,,,,,,,,SPECI,17.0
KPOB 171433Z AUTO 04003KT 10SM CLR 03/01 A3032 RMK AO2 SLP272 $,KPOB,2019-01-17T14:33:00Z,35.17,-79.02,3.0,1.0,40,3,,10.0,30.318897,1027.2,,TRUE,TRUE,TRUE,,,,,,CLR,,,,,,,,VFR,,,,,,,,,,,,SPECI,66.0
PACZ 171433Z AUTO 00000KT 1 1/4SM -SN SCT009 OVC026 M08/M08 A2965 RMK AO2 SLP054,PACZ,2019-01-17T14:33:00Z,61.78,-166.03,-8.0,-8.0,0,0,,1.25,29.648623,1005.4,,TRUE,TRUE,,,,,,-SN,SCT,900,OVC,2600,,,,,IFR,,,,,,,,,,,,METAR,146.0
KLWT 171433Z AUTO 26004KT 5SM BR OVC002 M09/M09 A2994 RMK AO2 I1000 T10891094,KLWT,2019-01-17T14:33:00Z,47.03,-109.47,-8.9,-9.4,260,4,,5.0,29.940945,,,TRUE,TRUE,,,,,,BR,OVC,200,,,,,,,LIFR,,,,,,,,,,,,SPECI,1270.0
KMHK 171433Z 26003KT 7SM BKN008 OVC017 M01/M02 A3012 RMK AO2 T10061017,KMHK,2019-01-17T14:33:00Z,39.13,-96.68,-0.6,-1.7,260,3,,7.0,30.121063,,,,TRUE,,,,,,,BKN,800,OVC,1700,,,,,IFR,,,,,,,,,,,,METAR,317.0
KMCW 171433Z AUTO 30005KT 2SM BR SCT020 OVC034 M04/M05 A3008 RMK AO2 SNE29 P0000 T10441050,KMCW,2019-01-17T14:33:00Z,43.15,-93.33,-4.4,-5.0,300,5,,2.0,30.079725,,,TRUE,TRUE,,,,,,BR,SCT,2000,OVC,3400,,,,,IFR,,,,,,0.005,,,,,,SPECI,369.0
KLXT 171433Z AUTO 34006KT 3/4SM BR OVC002 A3009 RMK AO2 $,KLXT,2019-01-17T14:33:00Z,38.97,-94.37,,,340,6,,0.75,30.088583,,,TRUE,TRUE,TRUE,,,,,BR,OVC,200,,,,,,,LIFR,,,,,,,,,,,,SPECI,306.0
KRSL 171433Z AUTO 27007KT 1 1/2SM BR OVC002 M02/M02 A3010 RMK AO2 T10171017,KRSL,2019-01-17T14:33:00Z,38.87,-98.82,-1.7,-1.7,270,7,,1.5,30.100393,,,TRUE,TRUE,,,,,,BR,OVC,200,,,,,,,LIFR,,,,,,,,,,,,SPECI,567.0
KXNA 171433Z 36009KT 3SM BR OVC004 08/06 A3004 RMK AO2 T00830061,KXNA,2019-01-17T14:33:00Z,36.28,-94.3,8.3,6.1,360,9,,3.0,30.041338,,,,TRUE,,,,,,BR,OVC,400,,,,,,,LIFR,,,,,,,,,,,,SPECI,392.0
EBFS 171433Z 30012KT 1000 -SHSN SCT004 BKN010 01/M00 Q1008 AMB YLO TEMPO AMB,EBFS,2019-01-17T14:33:00Z,50.22,4.65,1.0,0.0,300,12,,0.62,29.763779,,,,,,,,,,-SHSN,SCT,400,BKN,1000,,,,,LIFR,,,,,,,,,,,,SPECI,299.0
KORB 171433Z AUTO 00000KT 10SM OVC110 M18/M22 A3005 RMK AO2,KORB,2019-01-17T14:33:00Z,48.02,-92.87,-18.0,-22.0,0,0,,10.0,30.050198,,,TRUE,TRUE,,,,,,,OVC,11000,,,,,,,VFR,,,,,,,,,,,,METAR,397.0
ETNW 171433Z 25012KT 6000 -RA BKN009 04/02 Q0998 GRN BLU TEMPO GRN,ETNW,2019-01-17T14:33:00Z,52.45,9.42,4.0,2.0,250,12,,3.73,29.468504,,,,,,,,,,-RA,BKN,900,,,,,,,IFR,,,,,,,,,,,,SPECI,70.0
PAQH 171433Z AUTO 34007KT 10SM SCT024 M06/M07 A2962 RMK AO2 FZRANO,PAQH,2019-01-17T14:33:00Z,59.75,-161.85,-6.0,-7.0,340,7,,10.0,29.619095,,,TRUE,TRUE,,,,TRUE,,,SCT,2400,,,,,,,VFR,,,,,,,,,,,,SPECI,13.0
CYAH 171433Z AUTO 22010KT 3SM -SN FEW008 SCT013 BKN026 OVC065 M32/M36 A2995 RMK SLP194,CYAH,2019-01-17T14:33:00Z,53.75,-73.67,-32.0,-36.0,220,10,,3.0,29.949802,1019.4,,TRUE,,,,,,,-SN,FEW,800,SCT,1300,BKN,2600,OVC,6500,MVFR,,,,,,,,,,,,SPECI,306.0
KAOH 171433Z AUTO 14009KT 2 1/2SM -SN SCT028 BKN039 OVC049 M01/M03 A3012 RMK AO2 SNB1355 P0000 T10061033,KAOH,2019-01-17T14:33:00Z,40.7,-84.02,-0.6,-3.3,140,9,,2.5,30.121063,,,TRUE,TRUE,,,,,,-SN,SCT,2800,BKN,3900,OVC,4900,,,IFR,,,,,,0.005,,,,,,SPECI,296.0
KNLC 171433Z 17009KT 10SM SCT032 BKN090 OVC110 13/12 A2998 RMK AO2 T01330122,KNLC,2019-01-17T14:33:00Z,36.32,-119.95,13.3,12.2,170,9,,10.0,29.97933,,,,TRUE,,,,,,,SCT,3200,BKN,9000,OVC,11000,,,VFR,,,,,,,,,,,,SPECI,72.0
KHHR 171433Z 18008KT 5SM -RA BR BKN006 OVC012 16/15 A3011 RMK AO2 CIG 004V009 P0006 T01560150,KHHR,2019-01-17T14:33:00Z,33.92,-118.33,15.6,15.0,180,8,,5.0,30.109253,,,,TRUE,,,,,,-RA BR,BKN,600,OVC,1200,,,,,IFR,,,,,,0.06,,,,,,SPECI,18.0
CYGE 171433Z 00000KT 10SM BKN018 OVC085 M09/M11 A2989 RMK SC5AC3 SLP174,CYGE,2019-01-17T14:33:00Z,51.3,-116.98,-9.0,-11.0,0,0,,10.0,29.890747,1017.4,,,,,,,,,,BKN,1800,OVC,8500,,,,,MVFR,,,,,,,,,,,,SPECI,785.0
CYET 171433Z AUTO 07011KT 9SM -SN M17/M18 A3005 RMK CLD MISG SLP251,CYET,2019-01-17T14:33:00Z,53.57,-116.47,-17.0,-18.0,70,11,,9.0,30.050198,1025.1,,TRUE,,,,,,,-SN,,,,,,,,,,,,,,,,,,,,,SPECI,925.0
CYMM 171433Z AUTO 16004KT 9SM BKN230 M35/M38 A3044 RMK SLP366,CYMM,2019-01-17T14:33:00Z,56.65,-111.22,-35.0,-38.0,160,4,,9.0,30.43996,1036.6,,TRUE,,,,,,,,BKN,23000,,,,,,,VFR,,,,,,,,,,,,SPECI,369.0
KFAM 171433Z AUTO 00000KT 1 3/4SM -RA BR OVC005 05/05 A3004 RMK AO2 RAB29 P0000,KFAM,2019-01-17T14:33:00Z,37.77,-90.42,5.0,5.0,0,0,,1.75,30.041338,,,TRUE,TRUE,,,,,,-RA BR,OVC,500,,,,,,,IFR,,,,,,0.005,,,,,,SPECI,288.0
EHKD 171432Z AUTO 34016G31KT 290V030 9999 FEW019 SCT022 OVC110 03/01 Q1003 WHT 32015G28KT 9999 SCT022 BKN035 TEMPO FEW012 SCT015CB BKN020,EHKD,2019-01-17T14:32:00Z,52.92,4.77,3.0,1.0,340,16,31,6.21,29.616142,,,TRUE,,,,,,,,FEW,1900,SCT,2200,OVC,11000,SCT,2200,VFR,,,,,,,,,,,,METAR,14.0
RJSO 171432Z 27016G33KT 240V300 3200 -SHSN BLSN FEW005 SCT008 BKN012 M07/M13 Q1005 RMK 2ST005 4ST008 7CU012 A2968,RJSO,2019-01-17T14:32:00Z,41.22,141.12,-7.0,-13.0,270,16,33,1.99,29.675198,,,,,,,,,,-SHSN BLSN,FEW,500,SCT,800,BKN,1200,,,IFR,,,,,,,,,,,,SPECI,10.0
KNSI 171432Z 20014G21KT 1/16SM FG VV002 16/16 A3011 RMK AO2 T01560156 $ ,KNSI,2019-01-17T14:32:00Z,33.22,-119.45,15.6,15.6,200,14,21,0.06,30.109253,,,,TRUE,TRUE,,,,,FG,OVX,0,,,,,,,LIFR,,,,,,,,,,,200,SPECI,154.0
KSET 171432Z AUTO 30003KT 1/2SM FG OVC005 01/01 A3005 RMK AO2 T00110011,KSET,2019-01-17T14:32:00Z,38.93,-90.43,1.1,1.1,300,3,,0.5,30.050198,,,TRUE,TRUE,,,,,,FG,OVC,500,,,,,,,LIFR,,,,,,,,,,,,SPECI,134.0
KOMK 171432Z AUTO 36010KT 5SM BR BKN022 OVC036 00/M01 A2967 RMK AO2 T00001011,KOMK,2019-01-17T14:32:00Z,48.47,-119.52,0.0,-1.1,360,10,,5.0,29.66929,,,TRUE,TRUE,,,,,,BR,BKN,2200,OVC,3600,,,,,MVFR,,,,,,,,,,,,SPECI,395.0
KPDT 171432Z 30009KT 1/4SM R25/1200V1400FT -FZRA FG VV001 00/M01 A2957 RMK AO2 FZRAB26 P0000 I1001 T00001006,KPDT,2019-01-17T14:32:00Z,45.7,-118.83,0.0,-0.6,300,9,,0.25,29.568897,,,,TRUE,,,,,,-FZRA FG,OVX,0,,,,,,,LIFR,,,,,,0.005,,,,,100,SPECI,462.0
CYTZ 171432Z AUTO 07008KT 9SM -SN BKN034 OVC150 M07/M11 A3034 RMK SLP282,CYTZ,2019-01-17T14:32:00Z,43.63,-79.4,-7.0,-11.0,70,8,,9.0,30.339567,1028.2,,TRUE,,,,,,,-SN,BKN,3400,OVC,15000,,,,,VFR,,,,,,,,,,,,SPECI,77.0
CYPX 171432Z AUTO 10006KT 2 1/2SM -SN CLR M36/M40 A2983 RMK SLP107,CYPX,2019-01-17T14:32:00Z,60.03,-77.27,-36.0,-40.0,100,6,,2.5,29.828741,1010.7,,TRUE,,,,,,,-SN,CLR,,,,,,,,IFR,,,,,,,,,,,,SPECI,23.0
KGBD 171432Z AUTO 25009KT 1SM BR OVC003 M01/M02 A3013 RMK AO2 FZRANO,KGBD,2019-01-17T14:32:00Z,38.35,-98.87,-1.0,-2.0,250,9,,1.0,30.129921,,,TRUE,TRUE,,,,TRUE,,BR,OVC,300,,,,,,,LIFR,,,,,,,,,,,,SPECI,575.0
KRVS 171432Z 34007KT 10SM BKN011 OVC033 08/06 A3011 RMK AO2 T00780056,KRVS,2019-01-17T14:32:00Z,36.05,-95.98,7.8,5.6,340,7,,10.0,30.109253,,,,TRUE,,,,,,,BKN,1100,OVC,3300,,,,,MVFR,,,,,,,,,,,,SPECI,200.0
CZUM 171432Z AUTO 30014G26KT 3SM -SN SCT037 BKN044 OVC050 M25/M30 A2965 RMK SLP093,CZUM,2019-01-17T14:32:00Z,53.53,-64.08,-25.0,-30.0,300,14,26,3.0,29.648623,1009.3,,TRUE,,,,,,,-SN,SCT,3700,BKN,4400,OVC,5000,,,MVFR,,,,,,,,,,,,SPECI,440.0
PAKF 171432Z AUTO 33015G29KT 1 3/4SM -SN FEW008 BKN014 OVC034 01/M02 A2960 RMK AO2 PK WND 34029/1425 P0000 FZRANO,PAKF,2019-01-17T14:32:00Z,54.85,-163.42,1.0,-2.0,330,15,29,1.75,29.601377,,,TRUE,TRUE,,,,TRUE,,-SN,FEW,800,BKN,1400,OVC,3400,,,IFR,,,,,,0.005,,,,,,SPECI,6.0
KFNB 171432Z AUTO 34003KT 2SM BR OVC003 M03/M03 A3011 RMK AO2 T10281033,KFNB,2019-01-17T14:32:00Z,40.07,-95.58,-2.8,-3.3,340,3,,2.0,30.109253,,,TRUE,TRUE,,,,,,BR,OVC,300,,,,,,,LIFR,,,,,,,,,,,,METAR,300.0
KMSL 171432Z AUTO 06004KT 1 3/4SM -RA BR OVC013 07/06 A3016 RMK AO2 P0002 T00720056,KMSL,2019-01-17T14:32:00Z,34.75,-87.6,7.2,5.6,60,4,,1.75,30.159449,,,TRUE,TRUE,,,,,,-RA BR,OVC,1300,,,,,,,IFR,,,,,,0.02,,,,,,SPECI,164.0
KMDH 171432Z 23005KT 7SM OVC005 06/06 A3004 RMK AO2 RAB1355E26 P0001 T00610056,KMDH,2019-01-17T14:32:00Z,37.78,-89.25,6.1,5.6,230,5,,7.0,30.041338,,,,TRUE,,,,,,,OVC,500,,,,,,,IFR,,,,,,0.01,,,,,,SPECI,130.0
EHVK 171431Z AUTO 28007KT 250V340 9999 FEW009 SCT026 BKN031 03/01 Q1004 BLU 29008KT 9999 SCT020 BKN030 TEMPO 30012G22KT 3000 SHRAGS SCT005 BKN010 SCT018CB,EHVK,2019-01-17T14:31:00Z,51.63,5.7,3.0,1.0,280,7,,6.21,29.64567,,,TRUE,,,,,,,,FEW,900,SCT,2600,BKN,3100,SCT,2000,VFR,,,,,,,,,,,,SPECI,21.0
KRIV 171431Z AUTO 14013KT 10SM -RA BKN015 BKN021 OVC065 13/13 A3012 RMK AO2 RAB30 CIG 014V018 CIG 009 RWY14 SLP197 $,KRIV,2019-01-17T14:31:00Z,33.87,-117.27,13.0,13.0,140,13,,10.0,30.121063,1019.7,,TRUE,TRUE,TRUE,,,,,-RA,BKN,1500,BKN,2100,OVC,6500,,,MVFR,,,,,,,,,,,,SPECI,469.0
KRDR 171431Z AUTO 00000KT 10SM -SN OVC037 M15/M18 A3016 RMK AO2 SNB1356E13SNB14E15SNB31 SLP243 $,KRDR,2019-01-17T14:31:00Z,47.97,-97.4,-15.0,-18.0,0,0,,10.0,30.159449,1024.3,,TRUE,TRUE,TRUE,,,,,-SN,OVC,3700,,,,,,,VFR,,,,,,,,,,,,METAR,278.0
KETH 171431Z AUTO 00000KT 10SM OVC095 M16/M18 A3017 RMK AO2,KETH,2019-01-17T14:31:00Z,45.78,-96.55,-16.0,-18.0,0,0,,10.0,30.171259,,,TRUE,TRUE,,,,,,,OVC,9500,,,,,,,VFR,,,,,,,,,,,,METAR,313.0
PAGS 171431Z AUTO 00000KT 1SM BR OVC002 M07/M08 A2964 RMK AO2 FZRANO RVRNO,PAGS,2019-01-17T14:31:00Z,58.42,-135.73,-7.0,-8.0,0,0,,1.0,29.639763,,,TRUE,TRUE,,,,TRUE,,BR,OVC,200,,,,,,,LIFR,,,,,,,,,,,,SPECI,9.0
PASD 171431Z AUTO 26006KT 10SM -RA BKN005 OVC009 02/01 A2953 RMK AO2 RAB07UPB16E20 FZRANO PNO $,PASD,2019-01-17T14:31:00Z,55.33,-160.5,2.0,1.0,260,6,,10.0,29.530512,,,TRUE,TRUE,TRUE,,,TRUE,,-RA,BKN,500,OVC,900,,,,,IFR,,,,,,,,,,,,SPECI,7.0
KACV 171431Z AUTO 20019G36KT 2 1/2SM R32/6000VP6000FT +RA BR FEW019 BKN028 OVC036 08/07 A2970 RMK AO2 PK WND 23036/1423 WSHFT 1407 VIS 1 1/2V5 RAB1355 P0010 T00830067,KACV,2019-01-17T14:31:00Z,40.98,-124.1,8.3,6.7,200,19,36,2.5,29.698818,,,TRUE,TRUE,,,,,,+RA BR,FEW,1900,BKN,2800,OVC,3600,,,IFR,,,,,,0.1,,,,,,SPECI,67.0
KBLU 171431Z AUTO 19015G29KT 1/2SM -RA FG VV003 01/00 A2987 RMK AO2 PK WND 18029/1423 UPE1355RAB1357 P0010 T00110000 $,KBLU,2019-01-17T14:31:00Z,39.28,-120.7,1.1,0.0,190,15,29,0.5,29.870079,,,TRUE,TRUE,TRUE,,,,,-RA FG,OVX,0,,,,,,,LIFR,,,,,,0.1,,,,,300,SPECI,1609.0
KGLS 171431Z 22007KT 2SM BR SCT005 OVC013 17/17 A3018 RMK AO2 T01670167,KGLS,2019-01-17T14:31:00Z,29.27,-94.87,16.7,16.7,220,7,,2.0,30.180119,,,,TRUE,,,,,,BR,SCT,500,OVC,1300,,,,,IFR,,,,,,,,,,,,SPECI,6.0
KLBX 171431Z AUTO VRB04KT 6SM BR OVC009 16/15 A3018 RMK AO2 T01560150,KLBX,2019-01-17T14:31:00Z,29.12,-95.47,15.6,15.0,0,4,,6.0,30.180119,,,TRUE,TRUE,,,,,,BR,OVC,900,,,,,,,IFR,,,,,,,,,,,,SPECI,6.0
KALO 171431Z 00000KT 1 1/2SM -SN BR OVC010 M02/M03 A3008 RMK AO2 SNB1359 CIG 005V012 P0000 T10221033,KALO,2019-01-17T14:31:00Z,42.55,-92.4,-2.2,-3.3,0,0,,1.5,30.079725,,,,TRUE,,,,,,-SN BR,OVC,1000,,,,,,,IFR,,,,,,0.005,,,,,,SPECI,264.0
BKPR 171430Z 00000KT 7000 NSC M01/M06 Q1018 NOSIG RMK 17010095,BKPR,2019-01-17T14:30:00Z,42.58,21.03,-1.0,-6.0,0,0,,4.35,30.059055,,,,,,TRUE,,,,,CLR,,,,,,,,MVFR,,,,,,,,,,,,METAR,576.0
WADL 171430Z 00000KT 7000 BKN016 26/25 Q1009 NOSIG,WADL,2019-01-17T14:30:00Z,-8.75,116.28,26.0,25.0,0,0,,4.35,29.793306,,,,,,TRUE,,,,,BKN,1600,,,,,,,MVFR,,,,,,,,,,,,METAR,97.0
HSSS 171430Z 34011KT 4000 BLSA 29/04 Q1013 NOSIG,HSSS,2019-01-17T14:30:00Z,15.58,32.53,29.0,4.0,340,11,,2.49,29.911417,,,,,,TRUE,,,,BLSA,,,,,,,,,,,,,,,,,,,,,METAR,380.0
VVNB 171430Z 06003KT 9000 BKN045 15/10 Q1023 NOSIG,VVNB,2019-01-17T14:30:00Z,21.22,105.8,15.0,10.0,60,3,,5.59,30.206694,,,,,,TRUE,,,,,BKN,4500,,,,,,,VFR,,,,,,,,,,,,METAR,12.0
VVPQ 171430Z 06003KT 9999 FEW017 27/23 Q1011 NOSIG,VVPQ,2019-01-17T14:30:00Z,10.23,103.97,27.0,23.0,60,3,,6.21,29.852362,,,,,,TRUE,,,,,FEW,1700,,,,,,,VFR,,,,,,,,,,,,METAR,4.0
VVTS 171430Z 10007KT 8000 SCT017 SCT050 28/22 Q1011 NOSIG,VVTS,2019-01-17T14:30:00Z,10.82,106.67,28.0,22.0,100,7,,4.97,29.852362,,,,,,TRUE,,,,,SCT,1700,SCT,5000,,,,,MVFR,,,,,,,,,,,,METAR,19.0
VTSP 171430Z 00000KT 8000 FEW020 SCT100 26/22 Q1011 NOSIG,VTSP,2019-01-17T14:30:00Z,8.12,98.32,26.0,22.0,0,0,,4.97,29.852362,,,,,,TRUE,,,,,FEW,2000,SCT,10000,,,,,MVFR,,,,,,,,,,,,METAR,10.0
VTCC 171430Z 00000KT 9999 FEW035 22/18 Q1017 NOSIG,VTCC,2019-01-17T14:30:00Z,18.77,98.97,22.0,18.0,0,0,,6.21,30.029528,,,,,,TRUE,,,,,FEW,3500,,,,,,,VFR,,,,,,,,,,,,METAR,314.0
VTBU 171430Z 36003KT 2000 BR FEW020 26/22 Q1011 NOSIG,VTBU,2019-01-17T14:30:00Z,12.68,101.0,26.0,22.0,360,3,,1.24,29.852362,,,,,,TRUE,,,,BR,FEW,2000,,,,,,,IFR,,,,,,,,,,,,METAR,5.0
VTBS 171430Z 04007KT 9999 FEW020 28/19 Q1012 NOSIG,VTBS,2019-01-17T14:30:00Z,13.68,100.75,28.0,19.0,40,7,,6.21,29.88189,,,,,,TRUE,,,,,FEW,2000,,,,,,,VFR,,,,,,,,,,,,METAR,2.0
VTBD 171430Z 05004KT 360V080 9999 FEW030 28/21 Q1012 NOSIG,VTBD,2019-01-17T14:30:00Z,13.92,100.6,28.0,21.0,50,4,,6.21,29.88189,,,,,,TRUE,,,,,FEW,3000,,,,,,,VFR,,,,,,,,,,,,METAR,3.0
VOKN 171430Z VRB01KT 3000 BR FEW015 26/23 Q1011 NOSIG,VOKN,2019-01-17T14:30:00Z,11.92,75.55,26.0,23.0,0,1,,1.86,29.852362,,,,,,TRUE,,,,BR,FEW,1500,,,,,,,IFR,,,,,,,,,,,,METAR,105.0
VVDN 171430Z VRB02KT 4000 -RA BR FEW008 SCT012 BKN050 20/19 Q1020 NOSIG,VVDN,2019-01-17T14:30:00Z,16.02,108.2,20.0,19.0,0,2,,2.49,30.11811,,,,,,TRUE,,,,-RA BR,FEW,800,SCT,1200,BKN,5000,,,IFR,,,,,,,,,,,,METAR,7.0
LEJR 171430Z 33007KT 260V060 9999 FEW049 15/08 Q1017,LEJR,2019-01-17T14:30:00Z,36.75,-6.07,15.0,8.0,330,7,,6.21,30.029528,,,,,,,,,,,FEW,4900,,,,,,,VFR,,,,,,,,,,,,METAR,30.0
LEST 171430Z 36006KT 320V060 9999 SCT020 SCT041 09/05 Q1022 NOSIG,LEST,2019-01-17T14:30:00Z,42.88,-8.42,9.0,5.0,360,6,,6.21,30.177166,,,,,,TRUE,,,,,SCT,2000,SCT,4100,,,,,VFR,,,,,,,,,,,,METAR,367.0
GCXO 171430Z 31019KT 9999 FEW007 SCT013 BKN022 13/10 Q1021 NOSIG,GCXO,2019-01-17T14:30:00Z,28.48,-16.35,13.0,10.0,310,19,,6.21,30.147638,,,,,,TRUE,,,,,FEW,700,SCT,1300,BKN,2200,,,MVFR,,,,,,,,,,,,METAR,632.0
GCRR 171430Z 35020KT 280V010 9999 -RA FEW030 BKN045 18/12 Q1019,GCRR,2019-01-17T14:30:00Z,28.93,-13.58,18.0,12.0,350,20,,6.21,30.088583,,,,,,,,,,-RA,FEW,3000,BKN,4500,,,,,VFR,,,,,,,,,,,,METAR,40.0
GCLP 171430Z 35016KT 310V020 9999 FEW030 BKN045 20/09 Q1020 NOSIG,GCLP,2019-01-17T14:30:00Z,27.92,-15.37,20.0,9.0,350,16,,6.21,30.11811,,,,,,TRUE,,,,,FEW,3000,BKN,4500,,,,,VFR,,,,,,,,,,,,METAR,25.0
GCLA 171430Z 04014KT 010V080 9999 FEW045 21/10 Q1021,GCLA,2019-01-17T14:30:00Z,28.62,-17.75,21.0,10.0,40,14,,6.21,30.147638,,,,,,,,,,,FEW,4500,,,,,,,VFR,,,,,,,,,,,,METAR,31.0
GCFV 171430Z 34015KT 9999 SCT045 21/08 Q1018,GCFV,2019-01-17T14:30:00Z,28.43,-13.87,21.0,8.0,340,15,,6.21,30.059055,,,,,,,,,,,SCT,4500,,,,,,,VFR,,,,,,,,,,,,METAR,23.0
LPCS 171430Z 35018KT 9999 FEW020 14/04 Q1020,LPCS,2019-01-17T14:30:00Z,38.73,-9.35,14.0,4.0,350,18,,6.21,30.11811,,,,,,,,,,,FEW,2000,,,,,,,VFR,,,,,,,,,,,,METAR,99.0
LPFL 171430Z 19007KT 150V240 9999 FEW015TCU 19/14 Q1030,LPFL,2019-01-17T14:30:00Z,39.45,-31.12,19.0,14.0,190,7,,6.21,30.413385,,,,,,,,,,,FEW,1500,,,,,,,VFR,,,,,,,,,,,,METAR,29.0
LPHR 171430Z 23006KT 9999 FEW012 SCT030 17/14 Q1031,LPHR,2019-01-17T14:30:00Z,38.52,-28.72,17.0,14.0,230,6,,6.21,30.442913,,,,,,,,,,,FEW,1200,SCT,3000,,,,,VFR,,,,,,,,,,,,METAR,41.0
LEZL 171430Z 34003KT 290V030 9999 FEW034 14/07 Q1017 NOSIG,LEZL,2019-01-17T14:30:00Z,37.42,-5.9,14.0,7.0,340,3,,6.21,30.029528,,,,,,TRUE,,,,,FEW,3400,,,,,,,VFR,,,,,,,,,,,,METAR,31.0
LEVX 171430Z 35008KT 290V020 9999 BKN030 11/05 Q1022 NOSIG,LEVX,2019-01-17T14:30:00Z,42.22,-8.62,11.0,5.0,350,8,,6.21,30.177166,,,,,,TRUE,,,,,BKN,3000,,,,,,,MVFR,,,,,,,,,,,,METAR,256.0
LEVC 171430Z 00000KT 9999 FEW035 BKN060 13/06 Q1016 NOSIG,LEVC,2019-01-17T14:30:00Z,39.5,-0.47,13.0,6.0,0,0,,6.21,30.0,,,,,,TRUE,,,,,FEW,3500,BKN,6000,,,,,VFR,,,,,,,,,,,,METAR,62.0
LEPA 171430Z 23007KT 9999 -RA FEW020 15/11 Q1014 NOSIG,LEPA,2019-01-17T14:30:00Z,39.53,2.72,15.0,11.0,230,7,,6.21,29.940945,,,,,,TRUE,,,,-RA,FEW,2000,,,,,,,VFR,,,,,,,,,,,,METAR,8.0
LEMG 171430Z 31008KT 280V340 9999 FEW050 SCT080 17/04 Q1016 NOSIG,LEMG,2019-01-17T14:30:00Z,36.67,-4.5,17.0,4.0,310,8,,6.21,30.0,,,,,,TRUE,,,,,FEW,5000,SCT,8000,,,,,VFR,,,,,,,,,,,,METAR,7.0
LEMD 171430Z 31003KT 250V030 7000 FEW050 BKN070 07/03 Q1017 NOSIG,LEMD,2019-01-17T14:30:00Z,40.48,-3.57,7.0,3.0,310,3,,4.35,30.029528,,,,,,TRUE,,,,,FEW,5000,BKN,7000,,,,,MVFR,,,,,,,,,,,,METAR,582.0
LEIB 171430Z 02007KT 350V050 9999 FEW018TCU SCT025 BKN030 14/10 Q1015 NOSIG,LEIB,2019-01-17T14:30:00Z,38.87,1.37,14.0,10.0,20,7,,6.21,29.970472,,,,,,TRUE,,,,,FEW,1800,SCT,2500,BKN,3000,,,MVFR,,,,,,,,,,,,METAR,12.0
LEVT 171430Z 33011KT 9999 -RA FEW012 BKN025 06/03 Q1019,LEVT,2019-01-17T14:30:00Z,42.87,-2.72,6.0,3.0,330,11,,6.21,30.088583,,,,,,,,,,-RA,FEW,1200,BKN,2500,,,,,MVFR,,,,,,,,,,,,METAR,509.0
UATE 171430Z 35010MPS 9999 OVC013 00/M02 Q1014 R30/0///70 NOSIG RMK QFE759/1012,UATE,2019-01-17T14:30:00Z,43.87,51.1,0.0,-2.0,350,19,,6.21,29.940945,,,,,,TRUE,,,,,OVC,1300,,,,,,,MVFR,,,,,,,,,,,,METAR,22.0
UARR 171430Z 33003MPS CAVOK M12/M13 Q1015 R22/720245 NOSIG RMK QFE758/1011,UARR,2019-01-17T14:30:00Z,51.15,51.53,-12.0,-13.0,330,6,,6.21,29.970472,,,,,,TRUE,,,,,CAVOK,,,,,,,,VFR,,,,,,,,,,,,METAR,38.0
UASP 171430Z 11005MPS CAVOK M19/M21 Q1032 R21/4/0160 NOSIG RMK QFE762/1017,UASP,2019-01-17T14:30:00Z,52.2,77.07,-19.0,-21.0,110,10,,6.21,30.47244,,,,,,TRUE,,,,,CAVOK,,,,,,,,VFR,,,,,,,,,,,,METAR,125.0
UASK 171430Z 01002MPS 330V040 0100 R12/0500 FZFG BKN003 M15/M16 Q1032 R12/590538 TEMPO 0200 FZFG VV001 RMK QBB110 QFE748/0998,UASK,2019-01-17T14:30:00Z,50.03,82.5,-15.0,-16.0,10,4,,0.06,30.47244,,,,,,,,,,FZFG,BKN,300,,,,,,,LIFR,,,,,,,,,,,,METAR,286.0
UAKK 171430Z 13003MPS CAVOK M11/M12 Q1024 R23/920555 NOSIG RMK QFE721/0962,UAKK,2019-01-17T14:30:00Z,49.67,73.33,-11.0,-12.0,130,6,,6.21,30.236221,,,,,,TRUE,,,,,CAVOK,,,,,,,,VFR,,,,,,,,,,,,METAR,538.0
UAII 171430Z 09003MPS CAVOK 07/M03 Q1014 R10/0///70 NOSIG RMK QFE725/0967,UAII,2019-01-17T14:30:00Z,42.37,69.48,7.0,-3.0,90,6,,6.21,29.940945,,,,,,TRUE,,,,,CAVOK,,,,,,,,VFR,,,,,,,,,,,,METAR,422.0
UACC 171430Z 07003MPS 050V130 CAVOK M16/M17 Q1024 R22/35//60 NOSIG RMK QFE736/0982,UACC,2019-01-17T14:30:00Z,51.02,71.47,-16.0,-17.0,70,6,,6.21,30.236221,,,,,,TRUE,,,,,CAVOK,,,,,,,,VFR,,,,,,,,,,,,METAR,355.0
UADD 171430Z 22003MPS 6000 NSC 01/M00 Q1016 R13/0///65 NOSIG RMK QFE705/0940,UADD,2019-01-17T14:30:00Z,42.85,71.3,1.0,0.0,220,6,,3.73,30.0,,,,,,TRUE,,,,,CLR,,,,,,,,MVFR,,,,,,,,,,,,METAR,665.0
VTSS 171430Z 05003KT 9999 FEW020 BKN100 26/23 Q1011 NOSIG,VTSS,2019-01-17T14:30:00Z,6.92,100.38,26.0,23.0,50,3,,6.21,29.852362,,,,,,TRUE,,,,,FEW,2000,BKN,10000,,,,,VFR,,,,,,,,,,,,METAR,35.0
LEZG 171430Z 30017KT 280V340 9999 SCT085 10/03 Q1018,LEZG,2019-01-17T14:30:00Z,41.67,-1.02,10.0,3.0,300,17,,6.21,30.059055,,,,,,,,,,,SCT,8500,,,,,,,VFR,,,,,,,,,,,,METAR,258.0
LEBL 171430Z 14003KT 9999 FEW030 SCT045 13/08 Q1015 NOSIG,LEBL,2019-01-17T14:30:00Z,41.27,2.07,13.0,8.0,140,3,,6.21,29.970472,,,,,,TRUE,,,,,FEW,3000,SCT,4500,,,,,VFR,,,,,,,,,,,,METAR,6.0
LEAL 171430Z 27008KT 9999 FEW064 15/02 Q1015 NOSIG,LEAL,2019-01-17T14:30:00Z,38.27,-0.55,15.0,2.0,270,8,,6.21,29.970472,,,,,,TRUE,,,,,FEW,6400,,,,,,,VFR,,,,,,,,,,,,METAR,31.0
LEAG 171430Z AUTO 29008G25KT 210V010 9999 FEW039 16/07 Q1016,LEAG,2019-01-17T14:30:00Z,,,16.0,7.0,290,8,25,6.21,30.0,,,TRUE,,,,,,,,FEW,3900,,,,,,,VFR,,,,,,,,,,,,METAR,
GCTS 171430Z 13007KT 090V190 9999 BKN046 20/10 Q1020 WS R07 NOSIG,GCTS,2019-01-17T14:30:00Z,28.05,-16.57,20.0,10.0,130,7,,6.21,30.11811,,,,,,TRUE,,,,,BKN,4600,,,,,,,VFR,,,,,,,,,,,,METAR,72.0
VOTR 171430Z 08010KT 3000 HZ FEW016 25/19 Q1012 NOSIG,VOTR,2019-01-17T14:30:00Z,10.77,78.72,25.0,19.0,80,10,,1.86,29.88189,,,,,,TRUE,,,,HZ,FEW,1600,,,,,,,IFR,,,,,,,,,,,,METAR,88.0
LETL 171430Z AUTO 34011KT 9999 OVC048 04/M00 Q1016,LETL,2019-01-17T14:30:00Z,40.42,-1.22,4.0,0.0,340,11,,6.21,30.0,,,TRUE,,,,,,,,OVC,4800,,,,,,,VFR,,,,,,,,,,,,METAR,1013.0
LECH 171430Z AUTO 01002KT CAVOK 12/01 Q1015,LECH,2019-01-17T14:30:00Z,40.2,0.07,12.0,1.0,10,2,,6.21,29.970472,,,TRUE,,,,,,,,CAVOK,,,,,,,,VFR,,,,,,,,,,,,METAR,337.0
LEBG 171430Z 03011KT 350V060 9999 SCT032 07/00 Q1018,LEBG,2019-01-17T14:30:00Z,42.37,-3.62,7.0,0.0,30,11,,6.21,30.059055,,,,,,,,,,,SCT,3200,,,,,,,VFR,,,,,,,,,,,,METAR,891.0
VEAT 171430Z 00000KT 3500 BR NSC 17/14 Q1014 NOSIG,VEAT,2019-01-17T14:30:00Z,23.87,91.25,17.0,14.0,0,0,,2.17,29.940945,,,,,,TRUE,,,,BR,CLR,,,,,,,,IFR,,,,,,,,,,,,METAR,16.0
VAAH 171430Z 00000KT 4000 FU NSC 20/07 Q1014 NOSIG,VAAH,2019-01-17T14:30:00Z,23.07,72.62,20.0,7.0,0,0,,2.49,29.940945,,,,,,TRUE,,,,FU,CLR,,,,,,,,IFR,,,,,,,,,,,,METAR,55.0
VABV 171430Z 34003KT 3000 FU NSC 23/11 Q1013,VABV,2019-01-17T14:30:00Z,21.75,72.2,23.0,11.0,340,3,,1.86,29.911417,,,,,,,,,,FU,CLR,,,,,,,,IFR,,,,,,,,,,,,METAR,11.0
VOCL 171430Z 18004KT 5000 HZ FEW080 27/19 Q1010 NOSIG,VOCL,2019-01-17T14:30:00Z,11.13,75.95,27.0,19.0,180,4,,3.11,29.822834,,,,,,TRUE,,,,HZ,FEW,8000,,,,,,,MVFR,,,,,,,,,,,,METAR,104.0
VOMY 171430Z 06004KT 6000 NSC 24/06 Q1016,VOMY,2019-01-17T14:30:00Z,12.23,76.65,24.0,6.0,60,4,,3.73,30.0,,,,,,,,,,,CLR,,,,,,,,MVFR,,,,,,,,,,,,METAR,722.0
VEPT 171430Z 00000KT 2000 BR NSC 14/10 Q1014 NOSIG,VEPT,2019-01-17T14:30:00Z,25.6,85.08,14.0,10.0,0,0,,1.24,29.940945,,,,,,TRUE,,,,BR,CLR,,,,,,,,IFR,,,,,,,,,,,,METAR,60.0
VOTP 171430Z 06007KT 4000 HZ FEW020 24/20 Q1013,VOTP,2019-01-17T14:30:00Z,13.63,79.55,24.0,20.0,60,7,,2.49,29.911417,,,,,,,,,,HZ,FEW,2000,,,,,,,IFR,,,,,,,,,,,,METAR,107.0
VVPB 171430Z 25006KT 2500 -RA BR SCT005 SCT013 BKN040 18/18 Q1021 NOSIG,VVPB,2019-01-17T14:30:00Z,16.38,107.7,18.0,18.0,250,6,,1.55,30.147638,,,,,,TRUE,,,,-RA BR,SCT,500,SCT,1300,BKN,4000,,,IFR,,,,,,,,,,,,METAR,17.0
EIWF 171430Z 34003KT CAVOK 04/M01 Q1018,EIWF,2019-01-17T14:30:00Z,52.18,-7.08,4.0,-1.0,340,3,,6.21,30.059055,,,,,,,,,,,CAVOK,,,,,,,,VFR,,,,,,,,,,,,METAR,36.0
EIME 171430Z 24007KT 9999 FEW020 BKN250 03/00 Q1017,EIME,2019-01-17T14:30:00Z,53.3,-6.45,3.0,0.0,240,7,,6.21,30.029528,,,,,,,,,,,FEW,2000,BKN,25000,,,,,VFR,,,,,,,,,,,,METAR,93.0
EIKY 171430Z 21003KT 170V250 CAVOK 05/02 Q1018,EIKY,2019-01-17T14:30:00Z,52.18,-9.52,5.0,2.0,210,3,,6.21,30.059055,,,,,,,,,,,CAVOK,,,,,,,,VFR,,,,,,,,,,,,METAR,34.0
EIDL 171430Z 16006KT 140V200 CAVOK 05/02 Q1017,EIDL,2019-01-17T14:30:00Z,55.05,-8.33,5.0,2.0,160,6,,6.21,30.029528,,,,,,,,,,,CAVOK,,,,,,,,VFR,,,,,,,,,,,,METAR,9.0
VOBZ 171430Z 00000KT 3500 HZ FEW020 23/18 Q1013 BECMG 3000 BR,VOBZ,2019-01-17T14:30:00Z,16.52,80.78,23.0,18.0,0,0,,2.17,29.911417,,,,,,,,,,HZ,FEW,2000,,,,,,,IFR,,,,,,,,,,,,METAR,24.0
LJLJ 171430Z 28001KT 7000 -RA OVC020 06/05 Q1011 NOSIG,LJLJ,2019-01-17T14:30:00Z,46.22,14.47,6.0,5.0,280,1,,4.35,29.852362,,,,,,TRUE,,,,-RA,OVC,2000,,,,,,,MVFR,,,,,,,,,,,,METAR,385.0
VOHS 171430Z 11004KT 6000 NSC 23/13 Q1016 NOSIG,VOHS,2019-01-17T14:30:00Z,17.23,78.43,23.0,13.0,110,4,,3.73,30.0,,,,,,TRUE,,,,,CLR,,,,,,,,MVFR,,,,,,,,,,,,METAR,1.0
VANP 171430Z 12003KT 3000 HZ NSC 22/09 Q1014 NOSIG,VANP,2019-01-17T14:30:00Z,21.08,79.05,22.0,9.0,120,3,,1.86,29.940945,,,,,,TRUE,,,,HZ,CLR,,,,,,,,IFR,,,,,,,,,,,,METAR,310.0
LJMB 171430Z 21017KT 9999 FEW029 09/04 Q1009,LJMB,2019-01-17T14:30:00Z,46.47,15.67,9.0,4.0,210,17,,6.21,29.793306,,,,,,,,,,,FEW,2900,,,,,,,VFR,,,,,,,,,,,,METAR,265.0
LRCL 171430Z VRB02KT 9999 OVC054 01/M01 Q1013 R07/15//95,LRCL,2019-01-17T14:30:00Z,46.78,23.68,1.0,-1.0,0,2,,6.21,29.911417,,,,,,,,,,,OVC,5400,,,,,,,VFR,,,,,,,,,,,,METAR,413.0
LRBM 171430Z 06005KT 9999 BKN040 03/01 Q1013 R09/19//95,LRBM,2019-01-17T14:30:00Z,47.67,23.47,3.0,1.0,60,5,,6.21,29.911417,,,,,,,,,,,BKN,4000,,,,,,,VFR,,,,,,,,,,,,METAR,185.0
LRAR 171430Z 19010KT CAVOK 05/01 Q1013,LRAR,2019-01-17T14:30:00Z,46.18,21.27,5.0,1.0,190,10,,6.21,29.911417,,,,,,,,,,,CAVOK,,,,,,,,VFR,,,,,,,,,,,,METAR,118.0
LJPZ 171430Z 19003KT 130V270 9999 FEW027 BKN042 12/07 Q1013,LJPZ,2019-01-17T14:30:00Z,45.47,13.62,12.0,7.0,190,3,,6.21,29.911417,,,,,,,,,,,FEW,2700,BKN,4200,,,,,VFR,,,,,,,,,,,,METAR,2.0
LROD 171430Z 20014KT CAVOK 05/00 Q1012,LROD,2019-01-17T14:30:00Z,47.03,21.92,5.0,0.0,200,14,,6.21,29.88189,,,,,,,,,,,CAVOK,,,,,,,,VFR,,,,,,,,,,,,METAR,140.0
LRTM 171430Z 08005KT 9999 BKN045 03/M00 Q1013 R07/19//95,LRTM,2019-01-17T14:30:00Z,46.47,24.42,3.0,0.0,80,5,,6.21,29.911417,,,,,,,,,,,BKN,4500,,,,,,,VFR,,,,,,,,,,,,METAR,309.0
LRSM 171430Z 19006KT 9999 BKN036 03/M00 Q1012 R01/720195,LRSM,2019-01-17T14:30:00Z,47.7,22.88,3.0,0.0,190,6,,6.21,29.88189,,,,,,,,,,,BKN,3600,,,,,,,VFR,,,,,,,,,,,,METAR,124.0
LRBS 171430Z 26009KT CAVOK 06/M00 Q1015 R07/19//95 NOSIG,LRBS,2019-01-17T14:30:00Z,44.5,26.08,6.0,0.0,260,9,,6.21,29.970472,,,,,,TRUE,,,,,CAVOK,,,,,,,,VFR,,,,,,,,,,,,METAR,91.0
LJCE 171430Z 23011KT 200V270 9999 FEW035 BKN040 11/02 Q1011 RMK BLU,LJCE,2019-01-17T14:30:00Z,45.9,15.52,11.0,2.0,230,11,,6.21,29.852362,,,,,,,,,,,FEW,3500,BKN,4000,,,,,VFR,,,,,,,,,,,,METAR,155.0
LRTR 171430Z 19014KT CAVOK 06/01 Q1014 R11/190095,LRTR,2019-01-17T14:30:00Z,45.82,21.33,6.0,1.0,190,14,,6.21,29.940945,,,,,,,,,,,CAVOK,,,,,,,,VFR,,,,,,,,,,,,METAR,88.0
VASU 171430Z 35002KT 6000 NSC 23/13 Q1012,VASU,2019-01-17T14:30:00Z,21.12,72.73,23.0,13.0,350,2,,3.73,29.88189,,,,,,,,,,,CLR,,,,,,,,MVFR,,,,,,,,,,,,METAR,5.0
LRSB 171430Z 04003KT 9999 SCT055 06/00 Q1013,LRSB,2019-01-17T14:30:00Z,45.78,24.08,6.0,0.0,40,3,,6.21,29.911417,,,,,,,,,,,SCT,5500,,,,,,,VFR,,,,,,,,,,,,METAR,444.0
LROP 171430Z 23008KT CAVOK 04/M02 Q1014 NOSIG,LROP,2019-01-17T14:30:00Z,44.57,26.1,4.0,-2.0,230,8,,6.21,29.940945,,,,,,TRUE,,,,,CAVOK,,,,,,,,VFR,,,,,,,,,,,,METAR,95.0
LRCK 171430Z 21006KT CAVOK 06/02 Q1015 NOSIG,LRCK,2019-01-17T14:30:00Z,44.37,28.48,6.0,2.0,210,6,,6.21,29.970472,,,,,,TRUE,,,,,CAVOK,,,,,,,,VFR,,,,,,,,,,,,METAR,108.0
WSSS 171430Z 32002KT 9999 FEW012 BKN150 25/24 Q1011 TEMPO FM1530 4000 SHRA FEW012CB BKN150,WSSS,2019-01-17T14:30:00Z,1.37,103.97,25.0,24.0,320,2,,6.21,29.852362,,,,,,,,,,,FEW,1200,BKN,15000,,,,,VFR,,,,,,,,,,,,METAR,16.0
VOVZ 171430Z 07003KT 2200 BR NSC 23/20 Q1014 NOSIG,VOVZ,2019-01-17T14:30:00Z,17.75,83.22,23.0,20.0,70,3,,1.37,29.940945,,,,,,TRUE,,,,BR,CLR,,,,,,,,IFR,,,,,,,,,,,,METAR,5.0
LRTC 171430Z 17009KT CAVOK 04/01 Q1015 R16/590892,LRTC,2019-01-17T14:30:00Z,45.07,28.72,4.0,1.0,170,9,,6.21,29.970472,,,,,,,,,,,CAVOK,,,,,,,,VFR,,,,,,,,,,,,SPECI,6.0
LRSV 171430Z 22013KT CAVOK 05/M00 Q1008 R16/09//95,LRSV,2019-01-17T14:30:00Z,47.68,26.35,5.0,0.0,220,13,,6.21,29.763779,,,,,,,,,,,CAVOK,,,,,,,,VFR,,,,,,,,,,,,METAR,351.0
LRIA 171430Z 10011KT CAVOK 00/M03 Q1011 R14/19//95,LRIA,2019-01-17T14:30:00Z,47.17,27.62,0.0,-3.0,100,11,,6.21,29.852362,,,,,,,,,,,CAVOK,,,,,,,,VFR,,,,,,,,,,,,METAR,104.0
LRCV 171430Z 23004KT 200V270 CAVOK 09/01 Q1014,LRCV,2019-01-17T14:30:00Z,44.32,23.88,9.0,1.0,230,4,,6.21,29.940945,,,,,,,,,,,CAVOK,,,,,,,,VFR,,,,,,,,,,,,METAR,191.0
LRBC 171430Z 14009KT 120V180 CAVOK 03/M01 Q1011,LRBC,2019-01-17T14:30:00Z,46.52,26.92,3.0,-1.0,140,9,,6.21,29.852362,,,,,,,,,,,CAVOK,,,,,,,,VFR,,,,,,,,,,,,METAR,185.0
UMMS 171430Z 21005MPS 180V300 9999 BKN013 02/00 Q0995 R13/610247 NOSIG,UMMS,2019-01-17T14:30:00Z,53.88,28.03,2.0,0.0,210,10,,6.21,29.379921,,,,,,TRUE,,,,,BKN,1300,,,,,,,MVFR,,,,,,,,,,,,METAR,205.0
RKSI 171430Z 34007KT CAVOK M03/M11 Q1027 NOSIG,RKSI,2019-01-17T14:30:00Z,37.47,126.45,-3.0,-11.0,340,7,,6.21,30.324802,,,,,,TRUE,,,,,CAVOK,,,,,,,,VFR,,,,,,,,,,,,METAR,7.0
DTMB 171430Z 06005KT 9999 SCT030 17/10 Q1017,DTMB,2019-01-17T14:30:00Z,35.77,10.75,17.0,10.0,60,5,,6.21,30.029528,,,,,,,,,,,SCT,3000,,,,,,,VFR,,,,,,,,,,,,METAR,2.0
DTTA 171430Z 25004KT 210V290 9999 FEW026 18/03 Q1016 NOSIG,DTTA,2019-01-17T14:30:00Z,36.85,10.22,18.0,3.0,250,4,,6.21,30.0,,,,,,TRUE,,,,,FEW,2600,,,,,,,VFR,,,,,,,,,,,,METAR,4.0
DTTJ 171430Z 11006KT 080V150 CAVOK 18/03 Q1016 NOSIG,DTTJ,2019-01-17T14:30:00Z,33.87,10.77,18.0,3.0,110,6,,6.21,30.0,,,,,,TRUE,,,,,CAVOK,,,,,,,,VFR,,,,,,,,,,,,METAR,4.0
LEPP 171430Z 33013KT 9999 FEW023 SCT030 BKN035 08/03 Q1018,LEPP,2019-01-17T14:30:00Z,42.77,-1.65,8.0,3.0,330,13,,6.21,30.059055,,,,,,,,,,,FEW,2300,SCT,3000,BKN,3500,,,VFR,,,,,,,,,,,,METAR,459.0
LPPD 171430Z 24006KT 9999 FEW025 15/09 Q1031,LPPD,2019-01-17T14:30:00Z,37.72,-25.68,15.0,9.0,240,6,,6.21,30.442913,,,,,,,,,,,FEW,2500,,,,,,,VFR,,,,,,,,,,,,METAR,72.0
LPAZ 171430Z VRB06KT 9999 FEW030 15/08 Q1031,LPAZ,2019-01-17T14:30:00Z,36.97,-25.17,15.0,8.0,0,6,,6.21,30.442913,,,,,,,,,,,FEW,3000,,,,,,,VFR,,,,,,,,,,,,METAR,100.0
GCHI 171430Z 36014KT 330V040 9999 FEW035 20/12 Q1021,GCHI,2019-01-17T14:30:00Z,27.82,-17.87,20.0,12.0,360,14,,6.21,30.147638,,,,,,,,,,,FEW,3500,,,,,,,VFR,,,,,,,,,,,,METAR,30.0
GCGM 171430Z 06010KT 010V100 9999 FEW020 20/06 Q1021 RMK R09/VRB05KT ARP/VRB03KT,GCGM,2019-01-17T14:30:00Z,28.03,-17.22,20.0,6.0,60,10,,6.21,30.147638,,,,,,,,,,,FEW,2000,,,,,,,VFR,,,,,,,,,,,,METAR,219.0
LESO 171430Z 22006KT 190V260 9999 FEW020 BKN050 10/08 Q1020,LESO,2019-01-17T14:30:00Z,43.35,-1.8,10.0,8.0,220,6,,6.21,30.11811,,,,,,,,,,,FEW,2000,BKN,5000,,,,,VFR,,,,,,,,,,,,METAR,8.0
LERS 171430Z 03006KT CAVOK 10/04 Q1016,LERS,2019-01-17T14:30:00Z,41.13,1.17,10.0,4.0,30,6,,6.21,30.0,,,,,,,,,,,CAVOK,,,,,,,,VFR,,,,,,,,,,,,METAR,76.0
LEMH 171430Z 22005KT 9999 FEW018 13/10 Q1014,LEMH,2019-01-17T14:30:00Z,39.87,4.22,13.0,10.0,220,5,,6.21,29.940945,,,,,,,,,,,FEW,1800,,,,,,,VFR,,,,,,,,,,,,METAR,82.0
LEGR 171430Z 31004KT 250V360 9999 BKN050 11/00 Q1016,LEGR,2019-01-17T14:30:00Z,37.17,-3.77,11.0,0.0,310,4,,6.21,30.0,,,,,,,,,,,BKN,5000,,,,,,,VFR,,,,,,,,,,,,METAR,559.0
LECO 171430Z 01006KT 320V060 9999 -SHRA SCT028TCU 11/07 Q1022 TEMPO SHRA,LECO,2019-01-17T14:30:00Z,43.28,-8.37,11.0,7.0,10,6,,6.21,30.177166,,,,,,,,,,-SHRA,SCT,2800,,,,,,,VFR,,,,,,,,,,,,METAR,103.0
LEBB 171430Z 29007KT 250V330 9999 FEW026 SCT045 11/07 Q1020 TEMPO RA,LEBB,2019-01-17T14:30:00Z,43.28,-2.92,11.0,7.0,290,7,,6.21,30.11811,,,,,,,,,,,FEW,2600,SCT,4500,,,,,VFR,,,,,,,,,,,,METAR,34.0
LEAS 171430Z 25009KT 9999 FEW035TCU BKN075 09/07 Q1021 TEMPO SHRA,LEAS,2019-01-17T14:30:00Z,43.53,-6.02,9.0,7.0,250,9,,6.21,30.147638,,,,,,,,,,,FEW,3500,BKN,7500,,,,,VFR,,,,,,,,,,,,METAR,134.0
LEAM 171430Z 21013KT 170V240 9999 FEW015 FEW020TCU 16/10 Q1015,LEAM,2019-01-17T14:30:00Z,36.85,-2.37,16.0,10.0,210,13,,6.21,29.970472,,,,,,,,,,,FEW,1500,FEW,2000,,,,,VFR,,,,,,,,,,,,METAR,21.0
LPPT 171430Z 35016KT 320V020 9999 FEW038 13/02 Q1020,LPPT,2019-01-17T14:30:00Z,38.77,-9.12,13.0,2.0,350,16,,6.21,30.11811,,,,,,,,,,,FEW,3800,,,,,,,VFR,,,,,,,,,,,,METAR,123.0
LPPS 171430Z 01017KT 9999 SCT015 17/08 Q1023,LPPS,2019-01-17T14:30:00Z,33.07,-16.35,17.0,8.0,10,17,,6.21,30.206694,,,,,,,,,,,SCT,1500,,,,,,,VFR,,,,,,,,,,,,METAR,82.0
LPPR 171430Z 35011KT 320V030 9999 FEW030 13/03 Q1021,LPPR,2019-01-17T14:30:00Z,41.22,-8.67,13.0,3.0,350,11,,6.21,30.147638,,,,,,,,,,,FEW,3000,,,,,,,VFR,,,,,,,,,,,,METAR,73.0
LPMA 171430Z 02016G32KT 320V040 9999 SCT015 17/08 Q1023,LPMA,2019-01-17T14:30:00Z,32.7,-16.77,17.0,8.0,20,16,32,6.21,30.206694,,,,,,,,,,,SCT,1500,,,,,,,VFR,,,,,,,,,,,,METAR,55.0
LPFR 171430Z 23007KT 9999 FEW025 SCT035 16/10 Q1018,LPFR,2019-01-17T14:30:00Z,37.02,-7.97,16.0,10.0,230,7,,6.21,30.059055,,,,,,,,,,,FEW,2500,SCT,3500,,,,,VFR,,,,,,,,,,,,METAR,4.0
LFSD 171430Z AUTO 26013KT 9999 FEW039 SCT050 08/M00 Q1012,LFSD,2019-01-17T14:30:00Z,47.27,5.07,8.0,0.0,260,13,,6.21,29.88189,,,TRUE,,,,,,,,FEW,3900,SCT,5000,,,,,VFR,,,,,,,,,,,,METAR,227.0
LFRT 171430Z AUTO 35010KT 320V020 9999 FEW040 OVC050 07/M00 Q1017,LFRT,2019-01-17T14:30:00Z,48.52,-2.85,7.0,0.0,350,10,,6.21,30.029528,,,TRUE,,,,,,,,FEW,4000,OVC,5000,,,,,VFR,,,,,,,,,,,,METAR,136.0
LFRQ 171430Z AUTO 01010KT 330V030 9999 FEW030 08/04 Q1017 NOSIG,LFRQ,2019-01-17T14:30:00Z,47.97,-4.17,8.0,4.0,10,10,,6.21,30.029528,,,TRUE,,,TRUE,,,,,FEW,3000,,,,,,,VFR,,,,,,,,,,,,METAR,94.0
LFRH 171430Z AUTO 34011KT 290V020 9999 RA BKN032 BKN043 BKN052 09/03 Q1017 BECMG NSW,LFRH,2019-01-17T14:30:00Z,47.77,-3.45,9.0,3.0,340,11,,6.21,30.029528,,,TRUE,,,,,,,RA,BKN,3200,BKN,4300,BKN,5200,,,VFR,,,,,,,,,,,,METAR,44.0
LFPT 171430Z AUTO 31008KT 9999 FEW027 BKN100 05/03 Q1012,LFPT,2019-01-17T14:30:00Z,49.1,2.03,5.0,3.0,310,8,,6.21,29.88189,,,TRUE,,,,,,,,FEW,2700,BKN,10000,,,,,VFR,,,,,,,,,,,,METAR,99.0
LFPM 171430Z AUTO 27015KT 9999 -RA FEW021/// BKN034/// BKN052/// ///CB 05/03 Q1012,LFPM,2019-01-17T14:30:00Z,48.62,2.67,5.0,3.0,270,15,,6.21,29.88189,,,TRUE,,,,,,,-RA,FEW,2100,BKN,3400,BKN,5200,,,VFR,,,,,,,,,,,,METAR,92.0
LFLN 171430Z AUTO 29010KT 9999 FEW039/// SCT049/// BKN064/// ///TCU 08/02 Q1014 TEMPO SHRA,LFLN,2019-01-17T14:30:00Z,46.42,4.02,8.0,2.0,290,10,,6.21,29.940945,,,TRUE,,,,,,,,FEW,3900,SCT,4900,BKN,6400,,,VFR,,,,,,,,,,,,METAR,244.0
LFML 171430Z AUTO 24010KT CAVOK 11/08 Q1013 NOSIG,LFML,2019-01-17T14:30:00Z,43.45,5.22,11.0,8.0,240,10,,6.21,29.911417,,,TRUE,,,TRUE,,,,,CAVOK,,,,,,,,VFR,,,,,,,,,,,,METAR,36.0
LFLB 171430Z AUTO VRB02KT 9000 FEW033 BKN042 BKN052 05/04 Q1015 TEMPO 4000 SHRA SCT030TCU,LFLB,2019-01-17T14:30:00Z,45.63,5.87,5.0,4.0,0,2,,5.59,29.970472,,,TRUE,,,,,,,,FEW,3300,BKN,4200,BKN,5200,,,VFR,,,,,,,,,,,,METAR,239.0
LFKB 171430Z AUTO 13003KT 9999 OVC090 13/07 Q1013 NOSIG,LFKB,2019-01-17T14:30:00Z,42.53,9.47,13.0,7.0,130,3,,6.21,29.911417,,,TRUE,,,TRUE,,,,,OVC,9000,,,,,,,VFR,,,,,,,,,,,,METAR,12.0
LFBZ 171430Z AUTO 26010KT 220V300 9999 FEW023/// BKN029/// BKN037/// ///TCU 10/07 Q1019 TEMPO 27015G25KT 4000 SHRA FEW015CB BKN020TCU,LFBZ,2019-01-17T14:30:00Z,43.47,-1.52,10.0,7.0,260,10,,6.21,30.088583,,,TRUE,,,,,,,,FEW,2300,BKN,2900,BKN,3700,,,MVFR,,,,,,,,,,,,METAR,71.0
LFBT 171430Z AUTO 28005KT 250V310 9999 RA FEW029/// BKN037/// BKN043/// ///TCU 08/04 Q1018 TEMPO 4000 SHRA,LFBT,2019-01-17T14:30:00Z,43.17,0.0,8.0,4.0,280,5,,6.21,30.059055,,,TRUE,,,,,,,RA,FEW,2900,BKN,3700,BKN,4300,,,VFR,,,,,,,,,,,,METAR,363.0
LFBP 171430Z AUTO 28007KT 250V310 5000 -RA BR FEW017/// BKN032/// OVC038/// ///TCU 07/05 Q1019 TEMPO SHRA BKN020TCU FEW020CB,LFBP,2019-01-17T14:30:00Z,43.37,-0.42,7.0,5.0,280,7,,3.11,30.088583,,,TRUE,,,,,,,-RA BR,FEW,1700,BKN,3200,OVC,3800,,,MVFR,,,,,,,,,,,,METAR,185.0
LFBO 171430Z AUTO 28006KT 250V310 9999 FEW039/// ///TCU 10/06 Q1017 TEMPO 4000 -SHRA,LFBO,2019-01-17T14:30:00Z,43.62,1.37,10.0,6.0,280,6,,6.21,30.029528,,,TRUE,,,,,,,,FEW,3900,,,,,,,VFR,,,,,,,,,,,,METAR,153.0
LFBL 171430Z AUTO 29010KT 260V320 CAVOK 08/M00 Q1015 TEMPO 4000 -SHRA BKN012 SCT016TCU,LFBL,2019-01-17T14:30:00Z,45.87,1.17,8.0,0.0,290,10,,6.21,29.970472,,,TRUE,,,,,,,,CAVOK,,,,,,,,VFR,,,,,,,,,,,,METAR,402.0
LFBI 171430Z AUTO 28009KT 250V310 9999 SCT041 10/02 Q1015 TEMPO BKN014,LFBI,2019-01-17T14:30:00Z,46.57,0.32,10.0,2.0,280,9,,6.21,29.970472,,,TRUE,,,,,,,,SCT,4100,,,,,,,VFR,,,,,,,,,,,,METAR,120.0
LFTW 171430Z AUTO 32010KT 280V340 CAVOK 13/03 Q1013 NOSIG,LFTW,2019-01-17T14:30:00Z,43.75,4.42,13.0,3.0,320,10,,6.21,29.911417,,,TRUE,,,TRUE,,,,,CAVOK,,,,,,,,VFR,,,,,,,,,,,,METAR,96.0
LFTH 171430Z AUTO 24012KT CAVOK 13/08 Q1012 BECMG 30015KT,LFTH,2019-01-17T14:30:00Z,43.1,6.15,13.0,8.0,240,12,,6.21,29.88189,,,TRUE,,,,,,,,CAVOK,,,,,,,,VFR,,,,,,,,,,,,METAR,4.0
LFST 171430Z AUTO 23017KT 9999 FEW049 08/02 Q1008 TEMPO 25018G30KT SCT023TCU,LFST,2019-01-17T14:30:00Z,48.53,7.62,8.0,2.0,230,17,,6.21,29.763779,,,TRUE,,,,,,,,FEW,4900,,,,,,,VFR,,,,,,,,,,,,METAR,154.0
LFRG 171430Z AUTO 34011KT 310V010 CAVOK 05/M02 Q1014 NOSIG,LFRG,2019-01-17T14:30:00Z,49.37,0.15,5.0,-2.0,340,11,,6.21,29.940945,,,TRUE,,,TRUE,,,,,CAVOK,,,,,,,,VFR,,,,,,,,,,,,METAR,146.0
LFOT 171430Z AUTO 28009KT 9999 FEW029 OVC049 08/03 Q1015 TEMPO 3000 SHRA BKN020CB,LFOT,2019-01-17T14:30:00Z,47.43,0.72,8.0,3.0,280,9,,6.21,29.970472,,,TRUE,,,,,,,,FEW,2900,OVC,4900,,,,,VFR,,,,,,,,,,,,METAR,108.0
LEBR 171430Z AUTO 33011KT 9999 FEW036 10/02 Q1018,LEBR,2019-01-17T14:30:00Z,42.2,-1.43,10.0,2.0,330,11,,6.21,30.059055,,,TRUE,,,,,,,,FEW,3600,,,,,,,VFR,,,,,,,,,,,,METAR,295.0
LELO 171430Z 28007KT 240V330 9999 FEW025 SCT045 11/01 Q1019,LELO,2019-01-17T14:30:00Z,42.45,-2.32,11.0,1.0,280,7,,6.21,30.088583,,,,,,,,,,,FEW,2500,SCT,4500,,,,,VFR,,,,,,,,,,,,METAR,363.0
LEBT 171430Z AUTO VRB02KT CAVOK 13/05 Q1016,LEBT,2019-01-17T14:30:00Z,39.58,-0.45,13.0,5.0,0,2,,6.21,30.0,,,TRUE,,,,,,,,CAVOK,,,,,,,,VFR,,,,,,,,,,,,METAR,50.0
LESU 171430Z VRB02KT 9999 FEW056 SCT069 BKN090 05/M02 Q1014,LESU,2019-01-17T14:30:00Z,42.33,1.4,5.0,-2.0,0,2,,6.21,29.940945,,,,,,,,,,,FEW,5600,SCT,6900,BKN,9000,,,VFR,,,,,,,,,,,,METAR,800.0
LEHC 171430Z VRB02KT 9999 BKN007 03/02 Q1016,LEHC,2019-01-17T14:30:00Z,42.08,-0.32,3.0,2.0,0,2,,6.21,30.0,,,,,,,,,,,BKN,700,,,,,,,IFR,,,,,,,,,,,,METAR,539.0
LEBA 171430Z VRB02KT 9999 FEW040 12/05 Q1017,LEBA,2019-01-17T14:30:00Z,37.85,-4.82,12.0,5.0,0,2,,6.21,30.029528,,,,,,,,,,,FEW,4000,,,,,,,VFR,,,,,,,,,,,,METAR,92.0
ZBTJ 171430Z 17001MPS 6000 NSC M03/M16 Q1026 NOSIG,ZBTJ,2019-01-17T14:30:00Z,39.12,117.35,-3.0,-16.0,170,2,,3.73,30.295275,,,,,,TRUE,,,,,CLR,,,,,,,,MVFR,,,,,,,,,,,,METAR,3.0
ZBAA 171430Z VRB01MPS CAVOK M06/M20 Q1025 NOSIG,ZBAA,2019-01-17T14:30:00Z,40.07,116.58,-6.0,-20.0,0,2,,6.21,30.265747,,,,,,TRUE,,,,,CAVOK,,,,,,,,VFR,,,,,,,,,,,,METAR,30.0
LESB 171430Z AUTO 23005KT 9999 FEW025/// BKN057/// 13/10 Q1015,LESB,2019-01-17T14:30:00Z,39.6,2.7,13.0,10.0,230,5,,6.21,29.970472,,,TRUE,,,,,,,,FEW,2500,BKN,5700,,,,,VFR,,,,,,,,,,,,METAR,48.0
LELL 171430Z 22003KT 170V260 9999 FEW030 BKN045 13/07 Q1015,LELL,2019-01-17T14:30:00Z,41.52,2.1,13.0,7.0,220,3,,6.21,29.970472,,,,,,,,,,,FEW,3000,BKN,4500,,,,,VFR,,,,,,,,,,,,METAR,250.0
LEVS 171430Z VRB02KT 6000 FEW040 BKN055 08/03 Q1017,LEVS,2019-01-17T14:30:00Z,40.37,-3.77,8.0,3.0,0,2,,3.73,30.029528,,,,,,,,,,,FEW,4000,BKN,5500,,,,,MVFR,,,,,,,,,,,,METAR,687.0
DAUH 171430Z 32010KT CAVOK 17/06 Q1017,DAUH,2019-01-17T14:30:00Z,31.67,6.15,17.0,6.0,320,10,,6.21,30.029528,,,,,,,,,,,CAVOK,,,,,,,,VFR,,,,,,,,,,,,METAR,142.0
DAOO 171430Z 25008KT 9999 FEW016 SCT023 18/06 Q1016,DAOO,2019-01-17T14:30:00Z,35.62,-0.6,18.0,6.0,250,8,,6.21,30.0,,,,,,,,,,,FEW,1600,SCT,2300,,,,,VFR,,,,,,,,,,,,METAR,90.0
DAON 171430Z 28004KT 9999 BKN026 17/02 Q1016,DAON,2019-01-17T14:30:00Z,35.02,-1.47,17.0,2.0,280,4,,6.21,30.0,,,,,,,,,,,BKN,2600,,,,,,,MVFR,,,,,,,,,,,,METAR,247.0
DABC 171430Z 02005KT 250V060 9999 FEW030 BKN200 11/04 Q1016,DABC,2019-01-17T14:30:00Z,36.27,6.62,11.0,4.0,20,5,,6.21,30.0,,,,,,,,,,,FEW,3000,BKN,20000,,,,,VFR,,,,,,,,,,,,METAR,694.0
DABB 171430Z VRB02KT 9999 FEW026 BKN200 15/06 Q1015,DABB,2019-01-17T14:30:00Z,36.82,7.82,15.0,6.0,0,2,,6.21,29.970472,,,,,,,,,,,FEW,2600,BKN,20000,,,,,VFR,,,,,,,,,,,,METAR,4.0
DAAT 171430Z 21010KT 170V240 CAVOK 20/// Q1018,DAAT,2019-01-17T14:30:00Z,22.82,5.47,,,210,10,,6.21,30.059055,,,,,,,,,,,CAVOK,,,,,,,,VFR,,,,,,,,,,,,METAR,1377.0
DAAG 171430Z 32007KT 290V350 9999 FEW023 SCT200 17/07 Q1016,DAAG,2019-01-17T14:30:00Z,36.72,3.22,17.0,7.0,320,7,,6.21,30.0,,,,,,,,,,,FEW,2300,SCT,20000,,,,,VFR,,,,,,,,,,,,METAR,25.0
LYKV 171430Z VRB02KT CAVOK 06/M03 Q1016 NOSIG,LYKV,2019-01-17T14:30:00Z,43.82,20.58,6.0,-3.0,0,2,,6.21,30.0,,,,,,TRUE,,,,,CAVOK,,,,,,,,VFR,,,,,,,,,,,,METAR,209.0
ZYTX 171430Z 05004MPS CAVOK M11/M21 Q1027 NOSIG,ZYTX,2019-01-17T14:30:00Z,41.63,123.48,-11.0,-21.0,50,8,,6.21,30.324802,,,,,,TRUE,,,,,CAVOK,,,,,,,,VFR,,,,,,,,,,,,METAR,35.0
ZYTL 171430Z VRB01MPS 4000 BR NSC M05/M08 Q1027 NOSIG,ZYTL,2019-01-17T14:30:00Z,38.97,121.53,-5.0,-8.0,0,2,,2.49,30.324802,,,,,,TRUE,,,,BR,CLR,,,,,,,,IFR,,,,,,,,,,,,METAR,97.0
ZWWW 171430Z 34002MPS 1400 R25/P2000N BR BKN040 M09/M10 Q1028 NOSIG,ZWWW,2019-01-17T14:30:00Z,43.88,87.47,-9.0,-10.0,340,4,,0.87,30.35433,,,,,,TRUE,,,,BR,BKN,4000,,,,,,,LIFR,,,,,,,,,,,,METAR,654.0
ZSSS 171430Z 15003MPS CAVOK 04/M01 Q1030 NOSIG,ZSSS,2019-01-17T14:30:00Z,31.2,121.33,4.0,-1.0,150,6,,6.21,30.413385,,,,,,TRUE,,,,,CAVOK,,,,,,,,VFR,,,,,,,,,,,,METAR,7.0
ZSPD 171430Z 17002MPS 7000 NSC 02/M00 Q1031 NOSIG,ZSPD,2019-01-17T14:30:00Z,31.15,121.8,2.0,0.0,170,4,,4.35,30.442913,,,,,,TRUE,,,,,CLR,,,,,,,,MVFR,,,,,,,,,,,,METAR,4.0
ZSHC 171430Z 12001MPS 5000 HZ NSC 04/M01 Q1030 NOSIG,ZSHC,2019-01-17T14:30:00Z,30.22,120.43,4.0,-1.0,120,2,,3.11,30.413385,,,,,,TRUE,,,,HZ,CLR,,,,,,,,MVFR,,,,,,,,,,,,METAR,43.0
ZGGG 171430Z 01003MPS CAVOK 13/06 Q1024 NOSIG,ZGGG,2019-01-17T14:30:00Z,23.4,113.3,13.0,6.0,10,6,,6.21,30.236221,,,,,,TRUE,,,,,CAVOK,,,,,,,,VFR,,,,,,,,,,,,METAR,15.0
ZBYN 171430Z 12002MPS CAVOK M09/M25 Q1023 NOSIG,ZBYN,2019-01-17T14:30:00Z,37.77,112.63,-9.0,-25.0,120,4,,6.21,30.206694,,,,,,TRUE,,,,,CAVOK,,,,,,,,VFR,,,,,,,,,,,,METAR,779.0
UAAA 171430Z 25002MPS 0300 R23R/1000U R23L/1000D FZFG VV001 M01/M02 Q1022 R88/3///50 NOSIG RMK QBB040,UAAA,2019-01-17T14:30:00Z,43.35,77.03,-1.0,-2.0,250,4,,0.19,30.177166,,,,,,TRUE,,,,FZFG,OVX,0,,,,,,,LIFR,,,,,,,,,,,100,METAR,681.0
LFGA 171430Z AUTO 24010KT 210V270 9999 SCT046/// ///TCU 08/M01 Q1009,LFGA,2019-01-17T14:30:00Z,48.1,7.35,8.0,-1.0,240,10,,6.21,29.793306,,,TRUE,,,,,,,,SCT,4600,,,,,,,VFR,,,,,,,,,,,,METAR,191.0
LFBU 171430Z AUTO 30011KT 9999 FEW039 10/02 Q1017 TEMPO BKN014,LFBU,2019-01-17T14:30:00Z,45.72,0.22,10.0,2.0,300,11,,6.21,30.029528,,,TRUE,,,,,,,,FEW,3900,,,,,,,VFR,,,,,,,,,,,,METAR,133.0
LFAT 171430Z AUTO 33018KT 9999 BKN034 05/M01 Q1012 TEMPO 32015G25KT,LFAT,2019-01-17T14:30:00Z,50.52,1.62,5.0,-1.0,330,18,,6.21,29.88189,,,TRUE,,,,,,,,BKN,3400,,,,,,,VFR,,,,,,,,,,,,METAR,14.0
LFAQ 171430Z AUTO 31013KT 9999 FEW011 BKN017 BKN022 04/01 Q1011 NOSIG,LFAQ,2019-01-17T14:30:00Z,49.97,2.7,4.0,1.0,310,13,,6.21,29.852362,,,TRUE,,,TRUE,,,,,FEW,1100,BKN,1700,BKN,2200,,,MVFR,,,,,,,,,,,,METAR,111.0
LEMI 171430Z 33007KT 300V360 9999 FEW040 12/02 Q1016,LEMI,2019-01-17T14:30:00Z,,,12.0,2.0,330,7,,6.21,30.0,,,,,,,,,,,FEW,4000,,,,,,,VFR,,,,,,,,,,,,METAR,
GEML 171430Z 31009KT 280V340 9999 FEW024 16/09 Q1017,GEML,2019-01-17T14:30:00Z,35.27,-2.95,16.0,9.0,310,9,,6.21,30.029528,,,,,,,,,,,FEW,2400,,,,,,,VFR,,,,,,,,,,,,METAR,55.0
LELN 171430Z 34008KT 300V030 9999 FEW040 07/M04 Q1018,LELN,2019-01-17T14:30:00Z,42.57,-5.65,7.0,-4.0,340,8,,6.21,30.059055,,,,,,,,,,,FEW,4000,,,,,,,VFR,,,,,,,,,,,,METAR,914.0
LELC 171430Z 29005KT 250V320 9999 FEW054 15/04 Q1016 NOSIG,LELC,2019-01-17T14:30:00Z,37.77,-0.8,15.0,4.0,290,5,,6.21,30.0,,,,,,TRUE,,,,,FEW,5400,,,,,,,VFR,,,,,,,,,,,,METAR,3.0
LEXJ 171430Z 29011KT 260V320 9999 -RA FEW018 SCT030TCU BKN042 09/08 Q1021,LEXJ,2019-01-17T14:30:00Z,43.42,-3.82,9.0,8.0,290,11,,6.21,30.147638,,,,,,,,,,-RA,FEW,1800,SCT,3000,BKN,4200,,,VFR,,,,,,,,,,,,METAR,6.0
UAUU 171430Z 16006MPS 7000 -SN OVC010 M06/M06 Q1014 R15/820156 NOSIG RMK QFE744/0992,UAUU,2019-01-17T14:30:00Z,53.2,63.55,-6.0,-6.0,160,12,,4.35,29.940945,,,,,,TRUE,,,,-SN,OVC,1000,,,,,,,MVFR,,,,,,,,,,,,METAR,182.0
UATT 171430Z 17001MPS 1200 R13/2000 BR OVC002 M02/M03 Q1010 R13/490235 NOSIG RMK QBB070 QFE738/0984,UATT,2019-01-17T14:30:00Z,50.25,57.2,-2.0,-3.0,170,2,,0.75,29.822834,,,,,,TRUE,,,,BR,OVC,200,,,,,,,LIFR,,,,,,,,,,,,METAR,227.0
UATG 171430Z 34008MPS CAVOK M03/M05 Q1015 R32/CLRD70 NOSIG RMK QFE763/1017,UATG,2019-01-17T14:30:00Z,47.12,51.83,-3.0,-5.0,340,16,,6.21,29.970472,,,,,,TRUE,,,,,CAVOK,,,,,,,,VFR,,,,,,,,,,,,METAR,-22.0
LFMH 171430Z AUTO 01008KT 330V030 9999 BKN049 OVC058 09/01 Q1014 TEMPO 33015G25KT SHRA BKN035TCU,LFMH,2019-01-17T14:30:00Z,45.52,4.28,9.0,1.0,10,8,,6.21,29.940945,,,TRUE,,,,,,,,BKN,4900,OVC,5800,,,,,VFR,,,,,,,,,,,,METAR,402.0
LFMD 171430Z AUTO VRB02KT 9999 BKN024 BKN066 13/08 Q1011 NOSIG,LFMD,2019-01-17T14:30:00Z,43.53,6.95,13.0,8.0,0,2,,6.21,29.852362,,,TRUE,,,TRUE,,,,,BKN,2400,BKN,6600,,,,,MVFR,,,,,,,,,,,,METAR,9.0
LFGJ 171430Z AUTO 27012KT 9999 FEW019 BKN048 BKN054 07/01 Q1013 TEMPO 4000 SHRA SCT020TCU,LFGJ,2019-01-17T14:30:00Z,47.05,5.43,7.0,1.0,270,12,,6.21,29.911417,,,TRUE,,,,,,,,FEW,1900,BKN,4800,BKN,5400,,,VFR,,,,,,,,,,,,METAR,196.0
LFBE 171430Z AUTO 29011KT 9999 SCT037 BKN050 BKN064 12/05 Q1017 TEMPO 4000 SHRA BKN010 SCT025TCU,LFBE,2019-01-17T14:30:00Z,44.82,0.52,12.0,5.0,290,11,,6.21,30.029528,,,TRUE,,,,,,,,SCT,3700,BKN,5000,BKN,6400,,,VFR,,,,,,,,,,,,METAR,52.0
LFSN 171430Z AUTO 25016G28KT 210V270 9999 BKN021/// OVC027/// ///CB 05/02 Q1009,LFSN,2019-01-17T14:30:00Z,48.67,6.22,5.0,2.0,250,16,28,6.21,29.793306,,,TRUE,,,,,,,,BKN,2100,OVC,2700,,,,,MVFR,,,,,,,,,,,,METAR,217.0
LFQB 171430Z AUTO 27017KT 9999 -RA FEW019 SCT028 BKN041 05/03 Q1012,LFQB,2019-01-17T14:30:00Z,48.32,4.02,5.0,3.0,270,17,,6.21,29.88189,,,TRUE,,,,,,,-RA,FEW,1900,SCT,2800,BKN,4100,,,VFR,,,,,,,,,,,,METAR,118.0
LFQA 171430Z AUTO 31014KT 260V330 9999 -RA SCT025/// BKN030/// BKN039/// ///TCU 05/01 Q1010,LFQA,2019-01-17T14:30:00Z,49.2,4.15,5.0,1.0,310,14,,6.21,29.822834,,,TRUE,,,,,,,-RA,SCT,2500,BKN,3000,BKN,3900,,,MVFR,,,,,,,,,,,,METAR,95.0
LFOP 171430Z AUTO 33012KT CAVOK 05/00 Q1013 NOSIG,LFOP,2019-01-17T14:30:00Z,49.37,1.17,5.0,0.0,330,12,,6.21,29.911417,,,TRUE,,,TRUE,,,,,CAVOK,,,,,,,,VFR,,,,,,,,,,,,METAR,157.0
LFOH 171430Z AUTO 34015KT CAVOK 05/M02 Q1014 NOSIG,LFOH,2019-01-17T14:30:00Z,49.52,0.07,5.0,-2.0,340,15,,6.21,29.940945,,,TRUE,,,TRUE,,,,,CAVOK,,,,,,,,VFR,,,,,,,,,,,,METAR,103.0
LFLX 171430Z AUTO 28012KT 9999 FEW031 08/02 Q1015 NOSIG,LFLX,2019-01-17T14:30:00Z,46.85,1.72,8.0,2.0,280,12,,6.21,29.970472,,,TRUE,,,TRUE,,,,,FEW,3100,,,,,,,VFR,,,,,,,,,,,,METAR,157.0
LFJR 171430Z AUTO 28011KT 9999 BKN028 BKN041 09/03 Q1015 TEMPO 4000 SHRA SCT020TCU,LFJR,2019-01-17T14:30:00Z,47.57,-0.3,9.0,3.0,280,11,,6.21,29.970472,,,TRUE,,,,,,,,BKN,2800,BKN,4100,,,,,MVFR,,,,,,,,,,,,METAR,60.0
LFLU 171430Z AUTO 04006KT 9999 FEW044 SCT180 09/07 Q1014,LFLU,2019-01-17T14:30:00Z,44.92,4.98,9.0,7.0,40,6,,6.21,29.940945,,,TRUE,,,,,,,,FEW,4400,SCT,18000,,,,,VFR,,,,,,,,,,,,METAR,160.0
KGNB 171430Z AUTO 02005KT 10SM SCT027 M05/M08 A3012 RMK AO2 T10531085,KGNB,2019-01-17T14:30:00Z,40.08,-105.92,-5.3,-8.5,20,5,,10.0,30.121063,,,TRUE,TRUE,,,,,,,SCT,2700,,,,,,,VFR,,,,,,,,,,,,METAR,2500.0
FMMI 171430Z 05006KT 9999 FEW023CB 27/15 Q1016 NOSIG,FMMI,2019-01-17T14:30:00Z,-18.8,47.47,27.0,15.0,50,6,,6.21,30.0,,,,,,TRUE,,,,,FEW,2300,,,,,,,VFR,,,,,,,,,,,,METAR,1276.0
VOML 171430Z 32005KT 6000 NSC 26/18 Q1010 NOSIG,VOML,2019-01-17T14:30:00Z,12.97,74.88,26.0,18.0,320,5,,3.73,29.822834,,,,,,TRUE,,,,,CLR,,,,,,,,MVFR,,,,,,,,,,,,METAR,103.0
SOCA 171430Z AUTO 05011KT 9999 BKN048 OVC064 29/22 Q1015 TEMPO 4000 SHRA FEW012TCU,SOCA,2019-01-17T14:30:00Z,4.82,-52.37,29.0,22.0,50,11,,6.21,29.970472,,,TRUE,,,,,,,,BKN,4800,OVC,6400,,,,,VFR,,,,,,,,,,,,METAR,9.0
KC07 171430Z AUTO 23008KT 210V270 10SM CLR A3011 RMK AO2,KC07,2019-01-17T14:30:00Z,40.35,-106.7,,,230,8,,10.0,30.109253,,,TRUE,TRUE,,,,,,,CLR,,,,,,,,VFR,,,,,,,,,,,,METAR,3224.0
KBDU 171430Z AUTO 00000KT 10SM CLR 05/M07 A2998 RMK AO2,KBDU,2019-01-17T14:30:00Z,40.03,-105.23,5.0,-7.0,0,0,,10.0,29.97933,,,TRUE,TRUE,,,,,,,CLR,,,,,,,,VFR,,,,,,,,,,,,METAR,1612.0
KCPW 171430Z AUTO 23010KT 10SM CLR M09/M09 A3030 RMK AO2 LTG DSNT SW,KCPW,2019-01-17T14:30:00Z,37.45,-106.8,-9.0,-9.0,230,10,,10.0,30.301182,,,TRUE,TRUE,,,,,,,CLR,,,,,,,,VFR,,,,,,,,,,,,METAR,3584.0
K20V 171430Z AUTO 33003KT 10SM SCT120 00/M05 A3012 RMK AO2,K20V,2019-01-17T14:30:00Z,40.05,-106.37,0.0,-5.0,330,3,,10.0,30.121063,,,TRUE,TRUE,,,,,,,SCT,12000,,,,,,,VFR,,,,,,,,,,,,METAR,2259.0
K1V6 171430Z AUTO 22007KT 10SM CLR 00/M07 A3008 RMK AO2,K1V6,2019-01-17T14:30:00Z,38.43,-105.1,0.0,-7.0,220,7,,10.0,30.079725,,,TRUE,TRUE,,,,,,,CLR,,,,,,,,VFR,,,,,,,,,,,,METAR,1658.0
FMEP 171430Z AUTO 17005KT 120V210 9999 FEW070/// ///TCU 29/22 Q1013 BECMG FEW050 SCT060,FMEP,2019-01-17T14:30:00Z,-21.32,55.42,29.0,22.0,170,5,,6.21,29.911417,,,TRUE,,,,,,,,FEW,7000,,,,,,,VFR,,,,,,,,,,,,METAR,18.0
FMEE 171430Z AUTO 09006KT 9999 FEW019 29/24 Q1013 NOSIG,FMEE,2019-01-17T14:30:00Z,-20.87,55.52,29.0,24.0,90,6,,6.21,29.911417,,,TRUE,,,TRUE,,,,,FEW,1900,,,,,,,VFR,,,,,,,,,,,,METAR,25.0
K7BM 171430Z AUTO 29011G29KT 230V340 10SM CLR 00/M12 A3013 RMK AO2,K7BM,2019-01-17T14:30:00Z,38.78,-106.22,0.0,-12.0,290,11,29,10.0,30.129921,,,TRUE,TRUE,,,,,,,CLR,,,,,,,,VFR,,,,,,,,,,,,METAR,2995.0
K5SM 171430Z AUTO 22010G21KT 170V250 10SM BKN075 OVC090 M07/M08 A3018 RMK AO2,K5SM,2019-01-17T14:30:00Z,39.43,-107.38,-7.0,-8.0,220,10,21,10.0,30.180119,,,TRUE,TRUE,,,,,,,BKN,7500,OVC,9000,,,,,VFR,,,,,,,,,,,,METAR,3232.0
K4BM 171430Z AUTO 29009G18KT 260V330 10SM CLR M04/M13 A3014 RMK AO2 LTG DSNT NW,K4BM,2019-01-17T14:30:00Z,39.05,-105.52,-4.0,-13.0,290,9,18,10.0,30.138779,,,TRUE,TRUE,,,,,,,CLR,,,,,,,,VFR,,,,,,,,,,,,METAR,3438.0
SPJR 171430Z 15010KT 9999 FEW030 SCT050 18/10 Q1029,SPJR,2019-01-17T14:30:00Z,-7.12,-78.47,18.0,10.0,150,10,,6.21,30.383858,,,,,,,,,,,FEW,3000,SCT,5000,,,,,VFR,,,,,,,,,,,,SPECI,2622.0
K6I2 171430Z AUTO 15007KT 7SM BKN037 OVC045 04/04 A3012 RMK AO2,K6I2,2019-01-17T14:30:00Z,37.63,-85.25,4.0,4.0,150,7,,7.0,30.121063,,,TRUE,TRUE,,,,,,,BKN,3700,OVC,4500,,,,,VFR,,,,,,,,,,,,METAR,264.0
K65S 171430Z AUTO 00000KT 10SM SCT039 SCT048 OVC060 M03/M06 A2975 RMK AO2,K65S,2019-01-17T14:30:00Z,48.73,-116.3,-3.0,-6.0,0,0,,10.0,29.749016,,,TRUE,TRUE,,,,,,,SCT,3900,SCT,4800,OVC,6000,,,VFR,,,,,,,,,,,,METAR,713.0
KE16 171430Z AUTO 22006KT 9SM BKN018 OVC025 13/10 A2999 RMK AO2 PWINO PNO,KE16,2019-01-17T14:30:00Z,37.08,-121.6,13.0,10.0,220,6,,9.0,29.991142,,,TRUE,TRUE,,,,,TRUE,,BKN,1800,OVC,2500,,,,,MVFR,,,,,,,,,,,,METAR,86.0
KO86 171430Z AUTO 26006KT 6SM OVC022 04/03 A2970 RMK AO1 P0004,KO86,2019-01-17T14:30:00Z,40.98,-122.7,4.0,3.0,260,6,,6.0,29.698818,,,TRUE,TRUE,,,,,,,OVC,2200,,,,,,,MVFR,,,,,,0.04,,,,,,METAR,729.0
VIAR 171430Z 00000KT 3000 HZ NSC 10/06 Q1017 NOSIG,VIAR,2019-01-17T14:30:00Z,31.7,74.8,10.0,6.0,0,0,,1.86,30.029528,,,,,,TRUE,,,,HZ,CLR,,,,,,,,IFR,,,,,,,,,,,,METAR,234.0
VEBN 171430Z 00000KT 2000 BR NSC 17/13 Q1015 NOSIG,VEBN,2019-01-17T14:30:00Z,25.45,82.85,17.0,13.0,0,0,,1.24,29.970472,,,,,,TRUE,,,,BR,CLR,,,,,,,,IFR,,,,,,,,,,,,METAR,83.0
USHH 171430Z 19009MPS CAVOK M07/M10 Q1007 R24/390042 TEMPO 18010G18MPS RMK QFE752,USHH,2019-01-17T14:30:00Z,61.03,69.08,-7.0,-10.0,190,17,,6.21,29.734253,,,,,,,,,,,CAVOK,,,,,,,,VFR,,,,,,,,,,,,METAR,23.0
USTR 171430Z 19006MPS 9999 BKN016 M09/M11 Q1011 R21/350060 NOSIG RMK QFE749/0998,USTR,2019-01-17T14:30:00Z,57.17,65.32,-9.0,-11.0,190,12,,6.21,29.852362,,,,,,TRUE,,,,,BKN,1600,,,,,,,MVFR,,,,,,,,,,,,METAR,115.0
UNOO 171430Z 16003MPS 8000 NSC M19/M21 Q1027 R25/CLRD60 NOSIG RMK QFE762,UNOO,2019-01-17T14:30:00Z,54.97,73.32,-19.0,-21.0,160,6,,4.97,30.324802,,,,,,TRUE,,,,,CLR,,,,,,,,MVFR,,,,,,,,,,,,METAR,95.0
UNNT 171430Z 18003MPS 9000 NSC M17/M20 Q1034 R07/810160 R16/810160 NOSIG RMK QFE765/1021,UNNT,2019-01-17T14:30:00Z,55.02,82.63,-17.0,-20.0,180,6,,5.59,30.531496,,,,,,TRUE,,,,,CLR,,,,,,,,VFR,,,,,,,,,,,,METAR,111.0
UNKL 171430Z 26004MPS CAVOK M09/M12 Q1029 R29/350142 NOSIG RMK QFE746,UNKL,2019-01-17T14:30:00Z,56.17,92.48,-9.0,-12.0,260,8,,6.21,30.383858,,,,,,TRUE,,,,,CAVOK,,,,,,,,VFR,,,,,,,,,,,,METAR,276.0
UNEE 171430Z 18002MPS 9999 SCT046 M13/M15 Q1032 R23/851035 NOSIG RMK QFE751,UNEE,2019-01-17T14:30:00Z,55.27,86.08,-13.0,-15.0,180,4,,6.21,30.47244,,,,,,TRUE,,,,,SCT,4600,,,,,,,VFR,,,,,,,,,,,,METAR,260.0
UNBB 171430Z 20002MPS 7000 FEW005 M13/M15 Q1033 R24/390137 NOSIG RMK QFE752,UNBB,2019-01-17T14:30:00Z,53.37,83.53,-13.0,-15.0,200,4,,4.35,30.501968,,,,,,TRUE,,,,,FEW,500,,,,,,,MVFR,,,,,,,,,,,,METAR,255.0
UNAA 171430Z 00000MPS 2000 BR NSC M17/M19 Q1033 R02/420149 NOSIG RMK QFE752,UNAA,2019-01-17T14:30:00Z,53.75,91.4,-17.0,-19.0,0,0,,1.24,30.501968,,,,,,TRUE,,,,BR,CLR,,,,,,,,IFR,,,,,,,,,,,,METAR,245.0
URWW 171430Z 28003MPS 9999 OVC010 M06/M08 Q1019 R24/710160 NOSIG,URWW,2019-01-17T14:30:00Z,48.78,44.33,-6.0,-8.0,280,6,,6.21,30.088583,,,,,,TRUE,,,,,OVC,1000,,,,,,,MVFR,,,,,,,,,,,,METAR,147.0
URWI 171430Z 34002MPS 9000 FEW/// M03/M04 Q1020 R27/010055 NOSIG,URWI,2019-01-17T14:30:00Z,46.37,44.33,-3.0,-4.0,340,4,,5.59,30.11811,,,,,,TRUE,,,,,,,,,,,,,,,,,,,,,,,,,METAR,150.0
URWA 171430Z 33003MPS CAVOK M02/M07 Q1019 R27/010060 NOSIG RMK QFE766/1022,URWA,2019-01-17T14:30:00Z,46.28,48.02,-2.0,-7.0,330,6,,6.21,30.088583,,,,,,TRUE,,,,,CAVOK,,,,,,,,VFR,,,,,,,,,,,,METAR,-20.0
URSS 171430Z 11002MPS 070V140 9999 FEW030 05/M01 Q1018 R06/090070 R02/////// NOSIG RMK R02/04002MPS MT OBSC QFE762,URSS,2019-01-17T14:30:00Z,43.45,39.95,5.0,-1.0,110,4,,6.21,30.059055,,,,,,TRUE,,,,,FEW,3000,,,,,,,VFR,,,,,,,,,,,,METAR,16.0
URRP 171430Z VRB01MPS 1500 1400E R23/1700U BR SCT000 M10/M11 Q1019 R23/190060 TEMPO 0050 FZFG RMK QBB020 OBST OBSC QFE757/1009,URRP,2019-01-17T14:30:00Z,47.5,39.92,-10.0,-11.0,0,2,,0.93,30.088583,,,,,,,,,,BR,SCT,0,,,,,,,LIFR,,,,,,,,,,,,METAR,65.0
URMT 171430Z 09003MPS 9999 BKN024 M04/M06 Q1018 R07/250060 NOSIG RMK QFE723,URMT,2019-01-17T14:30:00Z,45.12,42.12,-4.0,-6.0,90,6,,6.21,30.059055,,,,,,TRUE,,,,,BKN,2400,,,,,,,MVFR,,,,,,,,,,,,METAR,453.0
URMO 171430Z 17001MPS 9999 -SN BKN040 M02/M04 Q1018 R09/290150 NOSIG RMK QFE720/0960,URMO,2019-01-17T14:30:00Z,43.2,44.6,-2.0,-4.0,170,2,,6.21,30.059055,,,,,,TRUE,,,,-SN,BKN,4000,,,,,,,VFR,,,,,,,,,,,,METAR,510.0
URMN 171430Z 05001MPS 9999 OVC022CB M01/M04 Q1017 R24/210155 NOSIG RMK QFE726,URMN,2019-01-17T14:30:00Z,43.52,43.63,-1.0,-4.0,50,2,,6.21,30.029528,,,,,,TRUE,,,,,OVC,2200,,,,,,,MVFR,,,,,,,,,,,,METAR,445.0
URMM 171430Z 09004MPS 9999 SCT022 M02/M05 Q1019 R12/090070 NOSIG RMK QFE736/0981,URMM,2019-01-17T14:30:00Z,44.22,43.1,-2.0,-5.0,90,8,,6.21,30.088583,,,,,,TRUE,,,,,SCT,2200,,,,,,,VFR,,,,,,,,,,,,METAR,314.0
URML 171430Z 30006MPS 9999 NSC 02/M05 Q1020 R32/010070 NOSIG RMK QFE764/1019,URML,2019-01-17T14:30:00Z,42.82,47.65,2.0,-5.0,300,12,,6.21,30.11811,,,,,,TRUE,,,,,CLR,,,,,,,,VFR,,,,,,,,,,,,METAR,4.0
URMG 171430Z 33002MPS 9999 OVC047 M00/M04 Q1021 R26/000070 NOSIG RMK QFE751/1001,URMG,2019-01-17T14:30:00Z,43.37,45.7,0.0,-4.0,330,4,,6.21,30.147638,,,,,,TRUE,,,,,OVC,4700,,,,,,,VFR,,,,,,,,,,,,METAR,263.0
URKK 171430Z 10003MPS CAVOK 01/M03 Q1019 R23L/CLRD70 NOSIG RMK QFE761,URKK,2019-01-17T14:30:00Z,45.03,39.15,1.0,-3.0,100,6,,6.21,30.088583,,,,,,TRUE,,,,,CAVOK,,,,,,,,VFR,,,,,,,,,,,,METAR,34.0
URKA 171430Z 09004MPS CAVOK 01/M03 Q1018 R04/010070 NOSIG RMK QFE759/1013,URKA,2019-01-17T14:30:00Z,45.0,37.35,1.0,-3.0,90,8,,6.21,30.059055,,,,,,TRUE,,,,,CAVOK,,,,,,,,VFR,,,,,,,,,,,,METAR,53.0
USSS 171430Z 17004MPS 9000 -SHSN SCT033CB M07/M09 Q1006 R08L/450337 NOSIG RMK QFE735/0980,USSS,2019-01-17T14:30:00Z,56.75,60.82,-7.0,-9.0,170,8,,5.59,29.704725,,,,,,TRUE,,,,-SHSN,SCT,3300,,,,,,,VFR,,,,,,,,,,,,METAR,233.0
USRR 171430Z 18006MPS CAVOK M09/M11 Q1014 R25/35//42 NOSIG RMK QFE755,USRR,2019-01-17T14:30:00Z,61.33,73.42,-9.0,-11.0,180,12,,6.21,29.940945,,,,,,TRUE,,,,,CAVOK,,,,,,,,VFR,,,,,,,,,,,,METAR,44.0
USNN 171430Z 19005MPS CAVOK M11/M12 Q1019 R21/420233 NOSIG RMK QFE759,USNN,2019-01-17T14:30:00Z,60.95,76.48,-11.0,-12.0,190,10,,6.21,30.088583,,,,,,TRUE,,,,,CAVOK,,,,,,,,VFR,,,,,,,,,,,,METAR,54.0
USCC 171430Z 18006MPS 0700 0650N R09/1600N +SN VV002 M07/M09 Q1009 R09/450545 NOSIG RMK QBB060 QFE736,USCC,2019-01-17T14:30:00Z,55.3,61.5,-7.0,-9.0,180,12,,0.43,29.793306,,,,,,TRUE,,,,+SN,OVX,0,,,,,,,LIFR,,,,,,,,,,,200,METAR,234.0
UWUU 171430Z 25002MPS 200V290 9999 OVC017 M05/M07 Q1011 R14R/452040 NOSIG RMK QFE748/0997,UWUU,2019-01-17T14:30:00Z,54.57,55.87,-5.0,-7.0,250,4,,6.21,29.852362,,,,,,TRUE,,,,,OVC,1700,,,,,,,MVFR,,,,,,,,,,,,METAR,137.0
UWWW 171430Z VRB01MPS 9999 BKN015 M08/M10 Q1013 R33/410242 NOSIG RMK QFE749/0999,UWWW,2019-01-17T14:30:00Z,53.5,50.17,-8.0,-10.0,0,2,,6.21,29.911417,,,,,,TRUE,,,,,BKN,1500,,,,,,,MVFR,,,,,,,,,,,,METAR,146.0
UWSS 171430Z 25003MPS 9999 BKN036 M06/M10 Q1015 R30/890335 NOSIG RMK QFE747,UWSS,2019-01-17T14:30:00Z,51.57,46.07,-6.0,-10.0,250,6,,6.21,29.970472,,,,,,TRUE,,,,,BKN,3600,,,,,,,VFR,,,,,,,,,,,,METAR,166.0
UWOO 171430Z 31002MPS 9999 OVC038 M06/M07 Q1012 R08/790135 NOSIG RMK QFE748/0998,UWOO,2019-01-17T14:30:00Z,51.8,55.47,-6.0,-7.0,310,4,,6.21,29.88189,,,,,,TRUE,,,,,OVC,3800,,,,,,,VFR,,,,,,,,,,,,METAR,109.0
UWKS 171430Z 22007MPS 9999 DRSN BKN015 M06/M08 Q1006 R24/850344 NOSIG RMK QFE740,UWKS,2019-01-17T14:30:00Z,56.08,47.35,-6.0,-8.0,220,14,,6.21,29.704725,,,,,,TRUE,,,,DRSN,BKN,1500,,,,,,,MVFR,,,,,,,,,,,,METAR,170.0
UWKE 171430Z 24006G11MPS 9999 -SN DRSN OVC009 M08/M10 Q1009 R21/410550 NOSIG RMK QFE740/0987,UWKE,2019-01-17T14:30:00Z,55.57,52.08,-8.0,-10.0,240,12,21,6.21,29.793306,,,,,,TRUE,,,,-SN DRSN,OVC,900,,,,,,,IFR,,,,,,,,,,,,METAR,196.0
UWKD 171430Z 21004MPS 9999 -SN BKN029 M08/M10 Q1009 R29/4/0340 NOSIG RMK QFE745/0994,UWKD,2019-01-17T14:30:00Z,55.62,49.28,-8.0,-10.0,210,8,,6.21,29.793306,,,,,,TRUE,,,,-SN,BKN,2900,,,,,,,MVFR,,,,,,,,,,,,METAR,126.0
USPP 171430Z 25006MPS 9999 BKN030 M04/M08 Q1004 R21/490545 NOSIG RMK QFE742,USPP,2019-01-17T14:30:00Z,57.92,56.02,-4.0,-8.0,250,12,,6.21,29.64567,,,,,,TRUE,,,,,BKN,3000,,,,,,,MVFR,,,,,,,,,,,,METAR,123.0
USCM 171430Z 19003MPS 9999 -SHSN OVC011CB M09/M10 Q1009 R18/490537 TEMPO 0500 -SHSN FZFG VV002 RMK QFE719,USCM,2019-01-17T14:30:00Z,53.4,58.75,-9.0,-10.0,190,6,,6.21,29.793306,,,,,,,,,,-SHSN,OVC,1100,,,,,,,MVFR,,,,,,,,,,,,METAR,435.0
ULWC 171430Z 17002G07MPS 1800 R21/1800N SN BKN004 M05/M07 Q0986 R21/590135 TEMPO 0700 +SN OVC003 RMK QBB140 QFE730/0973,ULWC,2019-01-17T14:30:00Z,59.28,38.02,-5.0,-7.0,170,4,14,1.12,29.114174,,,,,,,,,,SN,BKN,400,,,,,,,LIFR,,,,,,,,,,,,METAR,115.0
UWGG 171430Z 20008MPS 9999 DRSN SCT020 M04/M07 Q1003 R18L/450252 NOSIG,UWGG,2019-01-17T14:30:00Z,56.23,43.78,-4.0,-7.0,200,16,,6.21,29.616142,,,,,,TRUE,,,,DRSN,SCT,2000,,,,,,,VFR,,,,,,,,,,,,METAR,73.0
UUOK 171430Z 19008MPS 9999 OVC027 M04/M06 Q1009 R12/CLRD57 NOSIG RMK QFE739/0985,UUOK,2019-01-17T14:30:00Z,51.75,36.28,-4.0,-6.0,190,16,,6.21,29.793306,,,,,,TRUE,,,,,OVC,2700,,,,,,,MVFR,,,,,,,,,,,,METAR,209.0
UUOB 171430Z 20005MPS 9000 NSC M06/M08 Q1013 R29/810355 NOSIG,UUOB,2019-01-17T14:30:00Z,50.65,36.58,-6.0,-8.0,200,10,,5.59,29.911417,,,,,,TRUE,,,,,CLR,,,,,,,,VFR,,,,,,,,,,,,METAR,224.0
UUBC 171430Z 19005MPS 2200 -SHSN OVC008 BKN017CB M03/M05 Q0999 R13/450337 TEMPO 1200 SHSN BKN003CB RMK QFE732/0976,UUBC,2019-01-17T14:30:00Z,54.55,36.37,-3.0,-5.0,190,10,,1.37,29.498032,,,,,,,,,,-SHSN,OVC,800,BKN,1700,,,,,IFR,,,,,,,,,,,,METAR,199.0
ROAH 171430Z 01018KT 9999 SCT040 16/05 Q1024 RMK 3SC040 A3025,ROAH,2019-01-17T14:30:00Z,26.17,127.65,16.0,5.0,10,18,,6.21,30.236221,,,,,,,,,,,SCT,4000,,,,,,,VFR,,,,,,,,,,,,METAR,8.0
RJTT 171430Z 03005KT 9999 FEW030 09/M02 Q1009 NOSIG RMK 1CU030 A2981,RJTT,2019-01-17T14:30:00Z,35.53,139.77,9.0,-2.0,30,5,,6.21,29.793306,,,,,,TRUE,,,,,FEW,3000,,,,,,,VFR,,,,,,,,,,,,METAR,8.0
RJFF 171430Z AUTO 30004KT 9999 SCT045 OVC049 08/M02 Q1023 NOSIG RMK A3022,RJFF,2019-01-17T14:30:00Z,33.57,130.43,8.0,-2.0,300,4,,6.21,30.206694,,,TRUE,,,TRUE,,,,,SCT,4500,OVC,4900,,,,,VFR,,,,,,,,,,,,METAR,12.0
RJCC 171430Z 16006KT 9999 -SHSN FEW015 SCT025 BKN035 M12/M16 Q1003 RMK 1ST015 4CU025 6CU035 A2963,RJCC,2019-01-17T14:30:00Z,42.77,141.67,-12.0,-16.0,160,6,,6.21,29.616142,,,,,,,,,,-SHSN,FEW,1500,SCT,2500,BKN,3500,,,VFR,,,,,,,,,,,,METAR,30.0
RJAA 171430Z 31009KT 9999 FEW030 06/M03 Q1008 NOSIG RMK 1CU030 A2979,RJAA,2019-01-17T14:30:00Z,35.77,140.37,6.0,-3.0,310,9,,6.21,29.763779,,,,,,TRUE,,,,,FEW,3000,,,,,,,VFR,,,,,,,,,,,,METAR,44.0
UIUU 171430Z 08001MPS 0800 0750NE R26/1600N FU BKN032CB M19/M22 Q1024 R26/810550 NOSIG RMK QFE724/0965,UIUU,2019-01-17T14:30:00Z,51.8,107.45,-19.0,-22.0,80,2,,0.5,30.236221,,,,,,TRUE,,,,FU,BKN,3200,,,,,,,LIFR,,,,,,,,,,,,METAR,515.0
UIII 171430Z 07002MPS 4800 BR SCT030 M17/M19 Q1027 R30/810550 NOSIG RMK QFE725/0967,UIII,2019-01-17T14:30:00Z,52.27,104.4,-17.0,-19.0,70,4,,2.98,30.324802,,,,,,TRUE,,,,BR,SCT,3000,,,,,,,IFR,,,,,,,,,,,,METAR,513.0
UIBB 171430Z AUTO 25003MPS 9000 // ///025/// M12/M14 Q1023 RMK QFE724/0965,UIBB,2019-01-17T14:30:00Z,56.37,101.7,-12.0,-14.0,250,6,,5.59,30.206694,,,TRUE,,,,,,,,,,,,,,,,,,,,,,,,,,,,METAR,490.0
UIAA 171430Z AUTO 34001MPS 9000 NCD M24/M27 Q1019 RMK QFE705/0941,UIAA,2019-01-17T14:30:00Z,52.02,113.32,-24.0,-27.0,340,2,,5.59,30.088583,,,TRUE,,,,,,,,CLR,,,,,,,,VFR,,,,,,,,,,,,METAR,685.0
UUOL 171430Z 19009MPS CAVOK M07/M07 Q1010 R15/810350 NOSIG,UUOL,2019-01-17T14:30:00Z,52.7,39.53,-7.0,-7.0,190,17,,6.21,29.822834,,,,,,TRUE,,,,,CAVOK,,,,,,,,VFR,,,,,,,,,,,,METAR,176.0
UUMO 171430Z 21006MPS 1700 R26/P2000 SN BKN008 OVC030 M03/M04 Q0997 R26/551040 NOSIG RMK QFE733/0977,UUMO,2019-01-17T14:30:00Z,55.52,37.5,-3.0,-4.0,210,12,,1.06,29.438976,,,,,,TRUE,,,,SN,BKN,800,OVC,3000,,,,,IFR,,,,,,,,,,,,METAR,174.0
UUWW 171430Z 19005MPS 1200 R24/P2000D SN SCT008 OVC020 M03/M05 Q0997 R24/450540 TEMPO 1200 SHSN BLSN BKN012CB,UUWW,2019-01-17T14:30:00Z,55.6,37.27,-3.0,-5.0,190,10,,0.75,29.438976,,,,,,,,,,SN,SCT,800,OVC,2000,,,,,LIFR,,,,,,,,,,,,METAR,203.0
UUEE 171430Z 18007MPS 1800 R24L/P2000U SN BLSN OVC008 M03/M04 Q0995 R24L/590336 TEMPO 1200 SHSN BLSN BKN011CB,UUEE,2019-01-17T14:30:00Z,55.97,37.42,-3.0,-4.0,180,14,,1.12,29.379921,,,,,,,,,,BLSN SN,OVC,800,,,,,,,IFR,,,,,,,,,,,,METAR,190.0
UUDL 171430Z 19006MPS 1600 R23/P2000N SN BLSN OVC024 M04/M06 Q0994 R23/450240 NOSIG RMK QFE737,UUDL,2019-01-17T14:30:00Z,57.57,40.17,-4.0,-6.0,190,12,,0.99,29.350393,,,,,,TRUE,,,,SN BLSN,OVC,2400,,,,,,,LIFR,,,,,,,,,,,,METAR,88.0
UUDD 171430Z 20008MPS 2000 1300SW R14R/P2000N R14L/P2000N SHSN BLSN BKN009 BKN033CB M04/M05 Q0998 R88/490293 TEMPO 1000 SHSN BLSN,UUDD,2019-01-17T14:30:00Z,55.4,37.9,-4.0,-5.0,200,16,,1.24,29.468504,,,,,,,,,,BLSN SHSN,BKN,900,BKN,3300,,,,,IFR,,,,,,,,,,,,METAR,168.0
ULLI 171430Z 21004MPS 9000 -SHSNRA SCT008 BKN026CB OVC036 01/00 Q0976 R28L/452536 R28R/520548 NOSIG,ULLI,2019-01-17T14:30:00Z,59.8,30.27,1.0,0.0,210,8,,5.59,28.818897,,,,,,TRUE,,,,-SHSN -SHRA,SCT,800,BKN,2600,OVC,3600,,,MVFR,,,,,,,,,,,,METAR,4.0
UUBW 171430Z 19006G11MPS 3300 -SN BKN015 M03/M05 Q0998 R30/420343 TEMPO 1200 SN,UUBW,2019-01-17T14:30:00Z,55.55,38.15,-3.0,-5.0,190,12,21,2.05,29.468504,,,,,,,,,,-SN,BKN,1500,,,,,,,IFR,,,,,,,,,,,,METAR,115.0
UHWW 171430Z 35005MPS 9999 NSC M15/M31 Q1023 R25L/0///70 NOSIG RMK QFE766,UHWW,2019-01-17T14:30:00Z,43.4,132.15,-15.0,-31.0,350,10,,6.21,30.206694,,,,,,TRUE,,,,,CLR,,,,,,,,VFR,,,,,,,,,,,,METAR,14.0
UHHH 171430Z 24009MPS CAVOK M20/M27 Q1012 R23L/090060 NOSIG RMK QFE752/1003,UHHH,2019-01-17T14:30:00Z,48.52,135.18,-20.0,-27.0,240,17,,6.21,29.88189,,,,,,TRUE,,,,,CAVOK,,,,,,,,VFR,,,,,,,,,,,,METAR,72.0
WMKP 171430Z 08008KT 9000 FEW025 SCT140 BKN270 28/23 Q1010 NOSIG,WMKP,2019-01-17T14:30:00Z,5.28,100.27,28.0,23.0,80,8,,5.59,29.822834,,,,,,TRUE,,,,,FEW,2500,SCT,14000,BKN,27000,,,VFR,,,,,,,,,,,,METAR,4.0
WMKK 171430Z 00000KT 9000 -RA FEW008 FEW017CB SCT030 BKN270 25/24 Q1011 NOSIG,WMKK,2019-01-17T14:30:00Z,2.75,101.72,25.0,24.0,0,0,,5.59,29.852362,,,,,,TRUE,,,,-RA,FEW,800,FEW,1700,SCT,3000,BKN,27000,VFR,,,,,,,,,,,,METAR,22.0
WBSB 171430Z 03009KT 9999 SCT015 BKN300 28/25 Q1010 NOSIG,WBSB,2019-01-17T14:30:00Z,4.92,114.92,28.0,25.0,30,9,,6.21,29.822834,,,,,,TRUE,,,,,SCT,1500,BKN,30000,,,,,VFR,,,,,,,,,,,,METAR,15.0
WBKK 171430Z 07003KT 020V100 9999 FEW014 SCT140 BKN280 26/23 Q1010 NOSIG,WBKK,2019-01-17T14:30:00Z,5.92,116.03,26.0,23.0,70,3,,6.21,29.822834,,,,,,TRUE,,,,,FEW,1400,SCT,14000,BKN,28000,,,VFR,,,,,,,,,,,,METAR,3.0
WBGG 171430Z 00000KT 9999 FEW020 SCT150 BKN300 26/25 Q1010 NOSIG,WBGG,2019-01-17T14:30:00Z,1.47,110.35,26.0,25.0,0,0,,6.21,29.822834,,,,,,TRUE,,,,,FEW,2000,SCT,15000,BKN,30000,,,VFR,,,,,,,,,,,,METAR,27.0
LETU 171430Z AUTO 32013KT 280V350 9999 FEW050 10/01 Q1019,LETU,2019-01-17T14:30:00Z,,,10.0,1.0,320,13,,6.21,30.088583,,,TRUE,,,,,,,,FEW,5000,,,,,,,VFR,,,,,,,,,,,,METAR,
NZCH 171430Z AUTO 25005KT 190V280 9999 SCT017/// BKN038/// BKN090/// 16/14 Q1009 BECMG BKN012,NZCH,2019-01-17T14:30:00Z,-43.47,172.55,16.0,14.0,250,5,,6.21,29.793306,,,TRUE,,,,,,,,SCT,1700,BKN,3800,BKN,9000,,,VFR,,,,,,,,,,,,METAR,34.0
NZWN 171430Z AUTO 03004KT 9999 NCD 17/14 Q1007 NOSIG,NZWN,2019-01-17T14:30:00Z,-41.32,174.8,17.0,14.0,30,4,,6.21,29.734253,,,TRUE,,,TRUE,,,,,CLR,,,,,,,,VFR,,,,,,,,,,,,METAR,7.0
NZAA 171430Z AUTO 23013KT 9999 BKN024/// 19/15 Q1010 NOSIG,NZAA,2019-01-17T14:30:00Z,-37.02,174.8,19.0,15.0,230,13,,6.21,29.822834,,,TRUE,,,TRUE,,,,,BKN,2400,,,,,,,MVFR,,,,,,,,,,,,METAR,6.0
LFLW 171430Z AUTO 28007KT 9999 FEW036/// BKN054/// BKN066/// ///TCU 06/02 Q1015 TEMPO SHRA,LFLW,2019-01-17T14:30:00Z,44.88,2.42,6.0,2.0,280,7,,6.21,29.970472,,,TRUE,,,,,,,,FEW,3600,BKN,5400,BKN,6600,,,VFR,,,,,,,,,,,,METAR,639.0
LFHP 171430Z AUTO 28009KT 240V320 9999 BKN041 BKN048 BKN058 05/M03 Q1013,LFHP,2019-01-17T14:30:00Z,45.07,3.77,5.0,-3.0,280,9,,6.21,29.911417,,,TRUE,,,,,,,,BKN,4100,BKN,4800,BKN,5800,,,VFR,,,,,,,,,,,,METAR,833.0
UKWW 171430Z 19005MPS 9999 SCT030 BKN100 00/M04 Q1007 R13/0///60 NOSIG,UKWW,2019-01-17T14:30:00Z,49.25,28.6,0.0,-4.0,190,10,,6.21,29.734253,,,,,,TRUE,,,,,SCT,3000,BKN,10000,,,,,VFR,,,,,,,,,,,,METAR,293.0
UKOH 171430Z 19004MPS CAVOK M01/M05 Q1017 R21/290050 NOSIG,UKOH,2019-01-17T14:30:00Z,46.67,32.5,-1.0,-5.0,190,8,,6.21,30.029528,,,,,,TRUE,,,,,CAVOK,,,,,,,,VFR,,,,,,,,,,,,METAR,45.0
UKKM 171430Z 20007MPS CAVOK 01/M02 Q1006 R15/450842 NOSIG,UKKM,2019-01-17T14:30:00Z,50.6,30.2,1.0,-2.0,200,14,,6.21,29.704725,,,,,,TRUE,,,,,CAVOK,,,,,,,,VFR,,,,,,,,,,,,METAR,157.0
UKKK 171430Z 21005MPS 180V240 CAVOK 00/M03 Q1007 R26/810345 NOSIG,UKKK,2019-01-17T14:30:00Z,50.4,30.45,0.0,-3.0,210,10,,6.21,29.734253,,,,,,TRUE,,,,,CAVOK,,,,,,,,VFR,,,,,,,,,,,,METAR,179.0
UKLU 171430Z 11004MPS 9999 BKN027 04/M02 Q1011 R10/670337 NOSIG,UKLU,2019-01-17T14:30:00Z,48.63,22.27,4.0,-2.0,110,8,,6.21,29.852362,,,,,,TRUE,,,,,BKN,2700,,,,,,,MVFR,,,,,,,,,,,,METAR,117.0
UKLI 171430Z 20004MPS CAVOK 07/00 Q1006 R28/190050 NOSIG,UKLI,2019-01-17T14:30:00Z,48.88,24.68,7.0,0.0,200,8,,6.21,29.704725,,,,,,TRUE,,,,,CAVOK,,,,,,,,VFR,,,,,,,,,,,,METAR,280.0
UKLR 171430Z 23009MPS CAVOK 03/M01 Q1004 R29/691227 NOSIG,UKLR,2019-01-17T14:30:00Z,50.6,26.13,3.0,-1.0,230,17,,6.21,29.64567,,,,,,TRUE,,,,,CAVOK,,,,,,,,VFR,,,,,,,,,,,,METAR,230.0
KGPM 171430Z 19009KT 10SM OVC011 12/08 A3010,KGPM,2019-01-17T14:30:00Z,32.7,-97.05,12.0,8.0,190,9,,10.0,30.100393,,,,,,,,,,,OVC,1100,,,,,,,MVFR,,,,,,,,,,,,SPECI,180.0
VIJP 171430Z VRB02KT 2000 HZ NSC 18/05 Q1017 NOSIG,VIJP,2019-01-17T14:30:00Z,26.82,75.78,18.0,5.0,0,2,,1.24,30.029528,,,,,,TRUE,,,,HZ,CLR,,,,,,,,IFR,,,,,,,,,,,,METAR,390.0
WIDD 171430Z 00000KT 9999 -RA SCT013 25/25 Q1012,WIDD,2019-01-17T14:30:00Z,1.12,104.12,25.0,25.0,0,0,,6.21,29.88189,,,,,,,,,,-RA,SCT,1300,,,,,,,VFR,,,,,,,,,,,,METAR,38.0
WARR 171430Z 27011KT 0400 TSRA SCT020CB 25/25 Q1009 NOSIG,WARR,2019-01-17T14:30:00Z,-7.37,112.78,25.0,25.0,270,11,,0.25,29.793306,,,,,,TRUE,,,,TSRA,SCT,2000,,,,,,,LIFR,,,,,,,,,,,,METAR,2.0
WAHS 171430Z 21002KT 5000 -RA FEW013CB FEW014 24/24 Q1009 NOSIG,WAHS,2019-01-17T14:30:00Z,-6.98,110.38,24.0,24.0,210,2,,3.11,29.793306,,,,,,TRUE,,,,-RA,FEW,1300,FEW,1400,,,,,MVFR,,,,,,,,,,,,METAR,5.0
UMGG 171430Z 19007G12MPS 9999 FEW014 BKN100 01/M01 Q1001 R28/820238 NOSIG,UMGG,2019-01-17T14:30:00Z,52.53,31.02,1.0,-1.0,190,14,23,6.21,29.557087,,,,,,TRUE,,,,,FEW,1400,BKN,10000,,,,,VFR,,,,,,,,,,,,METAR,144.0
GQNO 171430Z 05014KT 7000 NSC 27/M12 Q1013 NOSIG,GQNO,2019-01-17T14:30:00Z,18.3,-15.97,27.0,-12.0,50,14,,4.35,29.911417,,,,,,TRUE,,,,,CLR,,,,,,,,MVFR,,,,,,,,,,,,METAR,4.0
GABS 171430Z VRB03KT CAVOK 36/M02 Q1011 NOSIG,GABS,2019-01-17T14:30:00Z,12.52,-7.95,36.0,-2.0,0,3,,6.21,29.852362,,,,,,TRUE,,,,,CAVOK,,,,,,,,VFR,,,,,,,,,,,,METAR,381.0
UEEE 171430Z 36001MPS 1000 R23L/2000N BR NSC M41/M46 Q1023 R23L/490150 NOSIG RMK QFE758,UEEE,2019-01-17T14:30:00Z,62.08,129.77,-41.0,-46.0,360,2,,0.62,30.206694,,,,,,TRUE,,,,BR,CLR,,,,,,,,LIFR,,,,,,,,,,,,METAR,103.0
WALL 171430Z 36005KT 8000 SCT018 26/25 Q1010,WALL,2019-01-17T14:30:00Z,-1.27,116.9,26.0,25.0,360,5,,4.97,29.822834,,,,,,,,,,,SCT,1800,,,,,,,MVFR,,,,,,,,,,,,METAR,3.0
WIOO 171430Z 00000KT 6000 SCT012 26/24 Q1009,WIOO,2019-01-17T14:30:00Z,-0.15,109.4,26.0,24.0,0,0,,3.73,29.793306,,,,,,,,,,,SCT,1200,,,,,,,MVFR,,,,,,,,,,,,METAR,3.0
WIII 171430Z 24009KT 7000 FEW020 27/23 Q1009 NOSIG,WIII,2019-01-17T14:30:00Z,-6.13,106.67,27.0,23.0,240,9,,4.35,29.793306,,,,,,TRUE,,,,,FEW,2000,,,,,,,MVFR,,,,,,,,,,,,METAR,8.0
OPPS 171430Z 23004KT 4000 HZ SCT210 14/03 Q1017,OPPS,2019-01-17T14:30:00Z,34.02,71.52,14.0,3.0,230,4,,2.49,30.029528,,,,,,,,,,HZ,SCT,21000,,,,,,,IFR,,,,,,,,,,,,METAR,360.0
LUKK 171430Z 20004KT CAVOK 01/M03 Q1013 R26/150095 NOSIG,LUKK,2019-01-17T14:30:00Z,46.93,28.93,1.0,-3.0,200,4,,6.21,29.911417,,,,,,TRUE,,,,,CAVOK,,,,,,,,VFR,,,,,,,,,,,,METAR,122.0
LWSK 171430Z 00000KT CAVOK 04/M04 Q1019 NOSIG,LWSK,2019-01-17T14:30:00Z,41.97,21.63,4.0,-4.0,0,0,,6.21,30.088583,,,,,,TRUE,,,,,CAVOK,,,,,,,,VFR,,,,,,,,,,,,METAR,239.0
CYXR 171430Z AUTO 14005KT 5SM -SN BKN036 BKN048 BKN065 OVC077 M25/M27 A3021 RMK ICG SLP265,CYXR,2019-01-17T14:30:00Z,47.7,-79.83,-25.0,-27.0,140,5,,5.0,30.209646,1026.5,,TRUE,,,,,,,-SN,BKN,3600,BKN,4800,BKN,6500,OVC,7700,MVFR,,,,,,,,,,,,SPECI,243.0
WAAA 171430Z 06004KT 8000 SCT018 24/24 Q1011 NOSIG,WAAA,2019-01-17T14:30:00Z,-5.07,119.53,24.0,24.0,60,4,,4.97,29.852362,,,,,,TRUE,,,,,SCT,1800,,,,,,,MVFR,,,,,,,,,,,,METAR,14.0
CMGB 171430Z AUTO 21002KT M19/M21 RMK AO1 SOG 15 3016 SLP317 T11931213,CMGB,2019-01-17T14:30:00Z,45.37,-72.77,-19.3,-21.3,210,2,,,,1031.7,,TRUE,TRUE,,,,,,,,,,,,,,,,,,,,,,,,,,,METAR,86.0
LFBM 171430Z AUTO 31004KT 260V350 9999 RA FEW018/// SCT030/// OVC037/// ///TCU 09/06 Q1019 TEMPO 4000 -SHRA,LFBM,2019-01-17T14:30:00Z,43.92,-0.5,9.0,6.0,310,4,,6.21,30.088583,,,TRUE,,,,,,,RA,FEW,1800,SCT,3000,OVC,3700,,,VFR,,,,,,,,,,,,METAR,63.0
LFBG 171430Z AUTO 29011KT 9999 SCT041 SCT047 11/02 Q1017 NOSIG,LFBG,2019-01-17T14:30:00Z,45.67,-0.32,11.0,2.0,290,11,,6.21,30.029528,,,TRUE,,,TRUE,,,,,SCT,4100,SCT,4700,,,,,VFR,,,,,,,,,,,,METAR,31.0
LFBC 171430Z AUTO 32004KT 9999 FEW035/// SCT070/// BKN084/// ///TCU 10/06 Q1018 BECMG FEW020 BKN030,LFBC,2019-01-17T14:30:00Z,44.52,-1.12,10.0,6.0,320,4,,6.21,30.059055,,,TRUE,,,,,,,,FEW,3500,SCT,7000,BKN,8400,,,VFR,,,,,,,,,,,,METAR,33.0
LFPV 171430Z AUTO 27010KT 250V310 9999 FEW026/// SCT035/// BKN054/// ///CB 04/03 Q1012 BECMG NSC,LFPV,2019-01-17T14:30:00Z,48.77,2.2,4.0,3.0,270,10,,6.21,29.88189,,,TRUE,,,,,,,,FEW,2600,SCT,3500,BKN,5400,,,VFR,,,,,,,,,,,,METAR,179.0
LFOA 171430Z AUTO 27012KT 9999 SCT031 BKN047 08/02 Q1014 TEMPO 4000 SHRA BKN020TCU,LFOA,2019-01-17T14:30:00Z,47.03,2.63,8.0,2.0,270,12,,6.21,29.940945,,,TRUE,,,,,,,,SCT,3100,BKN,4700,,,,,VFR,,,,,,,,,,,,METAR,179.0
OIYY 171430Z 20014KT 9999 SCT035TCU 19/00 Q1005,OIYY,2019-01-17T14:30:00Z,31.9,54.28,19.0,0.0,200,14,,6.21,29.675198,,,,,,,,,,,SCT,3500,,,,,,,VFR,,,,,,,,,,,,METAR,1236.0
OITR 171430Z 04004KT 9999 SCT030CB SCT035 BKN090 01/00 Q1003,OITR,2019-01-17T14:30:00Z,37.67,45.07,1.0,0.0,40,4,,6.21,29.616142,,,,,,,,,,,SCT,3000,SCT,3500,BKN,9000,,,VFR,,,,,,,,,,,,METAR,1312.0
OIIE 171430Z 30006KT 9999 FEW035CB SCT040 BKN100 04/02 Q1004,OIIE,2019-01-17T14:30:00Z,35.42,51.15,4.0,2.0,300,6,,6.21,29.64567,,,,,,,,,,,FEW,3500,SCT,4000,BKN,10000,,,VFR,,,,,,,,,,,,METAR,1008.0
OIGG 171430Z 35006KT 2000 +RA SCT009CB SCT012 OVC060 08/08 Q1009,OIGG,2019-01-17T14:30:00Z,37.33,49.6,8.0,8.0,350,6,,1.24,29.793306,,,,,,,,,,+RA,SCT,900,SCT,1200,OVC,6000,,,IFR,,,,,,,,,,,,METAR,-13.0
OICC 171430Z 21008KT 7000 FEW030CB BKN040 BKN070 02/M03 Q1010 A2984 NOSIG,OICC,2019-01-17T14:30:00Z,34.35,47.17,2.0,-3.0,210,8,,4.35,29.822834,,,,,,TRUE,,,,,FEW,3000,BKN,4000,BKN,7000,,,MVFR,,,,,,,,,,,,METAR,1322.0
LFMO 171430Z AUTO 36007KT 9999 FEW019 SCT054 BKN068 11/07 Q1014 TEMPO 4000 SHRA BKN020TCU,LFMO,2019-01-17T14:30:00Z,44.12,4.87,11.0,7.0,360,7,,6.21,29.940945,,,TRUE,,,,,,,,FEW,1900,SCT,5400,BKN,6800,,,VFR,,,,,,,,,,,,METAR,55.0
LFMC 171430Z AUTO 29008KT 9999 ////// 12/08 Q1012,LFMC,2019-01-17T14:30:00Z,43.37,6.37,12.0,8.0,290,8,,6.21,29.88189,,,TRUE,,,,,,,,,,,,,,,,,,,,,,,,,,,,METAR,78.0
LFKS 171430Z AUTO 03005KT 9999 BKN082 15/05 Q1013,LFKS,2019-01-17T14:30:00Z,41.92,9.4,15.0,5.0,30,5,,6.21,29.911417,,,TRUE,,,,,,,,BKN,8200,,,,,,,VFR,,,,,,,,,,,,METAR,22.0
LFPB 171430Z AUTO 30009KT 260V330 9999 FEW022 SCT030 BKN040 06/02 Q1012 NOSIG,LFPB,2019-01-17T14:30:00Z,48.97,2.45,6.0,2.0,300,9,,6.21,29.88189,,,TRUE,,,TRUE,,,,,FEW,2200,SCT,3000,BKN,4000,,,VFR,,,,,,,,,,,,METAR,65.0
LFOK 171430Z AUTO 27012KT 9999 SCT023 SCT042 BKN056 06/02 Q1010 TEMPO VRB20G30KT 3000 SHRAGS BKN011 BKN020CB,LFOK,2019-01-17T14:30:00Z,48.78,4.18,6.0,2.0,270,12,,6.21,29.822834,,,TRUE,,,,,,,,SCT,2300,SCT,4200,BKN,5600,,,VFR,,,,,,,,,,,,METAR,162.0
LFOB 171430Z AUTO 33011KT 9999 FEW012/// SCT025/// BKN058/// ///TCU 03/02 Q1012 BECMG BKN025,LFOB,2019-01-17T14:30:00Z,49.47,2.12,3.0,2.0,330,11,,6.21,29.88189,,,TRUE,,,,,,,,FEW,1200,SCT,2500,BKN,5800,,,VFR,,,,,,,,,,,,METAR,111.0
LFMU 171430Z AUTO 31011KT CAVOK 12/01 Q1016 NOSIG,LFMU,2019-01-17T14:30:00Z,43.32,3.35,12.0,1.0,310,11,,6.21,30.0,,,TRUE,,,TRUE,,,,,CAVOK,,,,,,,,VFR,,,,,,,,,,,,METAR,17.0
LFMT 171430Z AUTO 30015KT CAVOK 13/00 Q1014 TEMPO VRB02KT,LFMT,2019-01-17T14:30:00Z,43.57,3.97,13.0,0.0,300,15,,6.21,29.940945,,,TRUE,,,,,,,,CAVOK,,,,,,,,VFR,,,,,,,,,,,,METAR,6.0
LFMK 171430Z AUTO 27011KT 230V290 9999 FEW026 SCT078 OVC090 08/04 Q1017 TEMPO 1200 RA BR OVC003,LFMK,2019-01-17T14:30:00Z,43.22,2.32,8.0,4.0,270,11,,6.21,30.029528,,,TRUE,,,,,,,,FEW,2600,SCT,7800,OVC,9000,,,VFR,,,,,,,,,,,,METAR,130.0
LFLY 171430Z AUTO 33008KT CAVOK 11/M01 Q1014 TEMPO SHRA SCT030TCU,LFLY,2019-01-17T14:30:00Z,45.72,4.95,11.0,-1.0,330,8,,6.21,29.940945,,,TRUE,,,,,,,,CAVOK,,,,,,,,VFR,,,,,,,,,,,,METAR,201.0
LFMY 171430Z AUTO 26007KT 240V310 9999 BKN027 OVC033 13/07 Q1013 NOSIG,LFMY,2019-01-17T14:30:00Z,43.6,5.08,13.0,7.0,260,7,,6.21,29.911417,,,TRUE,,,TRUE,,,,,BKN,2700,OVC,3300,,,,,MVFR,,,,,,,,,,,,METAR,60.0
LFRO 171430Z AUTO 35008KT 310V030 9999 FEW043 07/M01 Q1017 NOSIG,LFRO,2019-01-17T14:30:00Z,48.75,-3.47,7.0,-1.0,350,8,,6.21,30.029528,,,TRUE,,,TRUE,,,,,FEW,4300,,,,,,,VFR,,,,,,,,,,,,METAR,89.0
LFRM 171430Z AUTO 28008KT 230V310 9999 FEW027/// BKN032/// BKN041/// ///TCU 08/03 Q1014 TEMPO 4000 SHRA,LFRM,2019-01-17T14:30:00Z,47.95,0.2,8.0,3.0,280,8,,6.21,29.940945,,,TRUE,,,,,,,,FEW,2700,BKN,3200,BKN,4100,,,VFR,,,,,,,,,,,,METAR,52.0
LFRI 171430Z AUTO 29011KT 9999 SCT039 09/03 Q1016 NOSIG,LFRI,2019-01-17T14:30:00Z,46.7,-1.37,9.0,3.0,290,11,,6.21,30.0,,,TRUE,,,TRUE,,,,,SCT,3900,,,,,,,VFR,,,,,,,,,,,,METAR,91.0
LFOV 171430Z AUTO 28007KT 260V320 9999 FEW025/// ///TCU 08/03 Q1014,LFOV,2019-01-17T14:30:00Z,48.03,-0.75,8.0,3.0,280,7,,6.21,29.940945,,,TRUE,,,,,,,,FEW,2500,,,,,,,VFR,,,,,,,,,,,,METAR,101.0
LFMI 171430Z AUTO 28009KT CAVOK 12/08 Q1013 NOSIG,LFMI,2019-01-17T14:30:00Z,43.52,4.92,12.0,8.0,280,9,,6.21,29.911417,,,TRUE,,,TRUE,,,,,CAVOK,,,,,,,,VFR,,,,,,,,,,,,METAR,24.0
LFBA 171430Z AUTO 27007KT 230V300 9999 ///TCU 11/06 Q1017 TEMPO 4000 SHRA,LFBA,2019-01-17T14:30:00Z,44.17,0.6,11.0,6.0,270,7,,6.21,30.029528,,,TRUE,,,,,,,,,,,,,,,,,,,,,,,,,,,,METAR,60.0
LFSB 171430Z 29007KT 230V330 9999 FEW023TCU BKN035 07/03 Q1010 TEMPO 27017G34KT 3000 SHRA,LFSB,2019-01-17T14:30:00Z,47.6,7.52,7.0,3.0,290,7,,6.21,29.822834,,,,,,,,,,,FEW,2300,BKN,3500,,,,,VFR,,,,,,,,,,,,METAR,271.0
LFRN 171430Z AUTO 34008KT 9999 FEW028 SCT040 BKN050 08/05 Q1016 NOSIG,LFRN,2019-01-17T14:30:00Z,48.07,-1.72,8.0,5.0,340,8,,6.21,30.0,,,TRUE,,,TRUE,,,,,FEW,2800,SCT,4000,BKN,5000,,,VFR,,,,,,,,,,,,METAR,37.0
LFRD 171430Z AUTO 34014KT 9999 FEW048 SCT054 07/01 Q1016 NOSIG,LFRD,2019-01-17T14:30:00Z,48.58,-2.07,7.0,1.0,340,14,,6.21,30.0,,,TRUE,,,TRUE,,,,,FEW,4800,SCT,5400,,,,,VFR,,,,,,,,,,,,METAR,59.0
LFRZ 171430Z AUTO 29010KT 9999 BKN032 BKN039 10/04 Q1016 TEMPO 4000 SHRA SCT020TCU,LFRZ,2019-01-17T14:30:00Z,47.32,-2.17,10.0,4.0,290,10,,6.21,30.0,,,TRUE,,,,,,,,BKN,3200,BKN,3900,,,,,VFR,,,,,,,,,,,,METAR,4.0
LFRV 171430Z AUTO 36004KT 310V020 9999 FEW029 07/03 Q1016,LFRV,2019-01-17T14:30:00Z,47.72,-2.72,7.0,3.0,360,4,,6.21,30.0,,,TRUE,,,,,,,,FEW,2900,,,,,,,VFR,,,,,,,,,,,,METAR,133.0
LFSG 171430Z AUTO 25020KT 9999 FEW021 BKN028 BKN037 05/01 Q1009,LFSG,2019-01-17T14:30:00Z,48.33,6.07,5.0,1.0,250,20,,6.21,29.793306,,,TRUE,,,,,,,,FEW,2100,BKN,2800,BKN,3700,,,MVFR,,,,,,,,,,,,METAR,330.0
LFLC 171430Z AUTO 27013G24KT 9999 BKN037 BKN046 BKN060 08/00 Q1015 TEMPO 33015G25KT SHRA BKN035TCU,LFLC,2019-01-17T14:30:00Z,45.77,3.17,8.0,0.0,270,13,24,6.21,29.970472,,,TRUE,,,,,,,,BKN,3700,BKN,4600,BKN,6000,,,VFR,,,,,,,,,,,,METAR,330.0
LFKJ 171430Z AUTO 08004KT 040V100 9999 -RA FEW012 BKN032 OVC056 11/09 Q1014 TEMPO SHRA BKN025TCU BKN040,LFKJ,2019-01-17T14:30:00Z,41.92,8.8,11.0,9.0,80,4,,6.21,29.940945,,,TRUE,,,,,,,-RA,FEW,1200,BKN,3200,OVC,5600,,,VFR,,,,,,,,,,,,METAR,9.0
LFKF 171430Z AUTO 27008KT 220V300 9999 BKN047 BKN058 13/08 Q1014 TEMPO 28015G25KT SHRA BKN015TCU BKN040,LFKF,2019-01-17T14:30:00Z,41.5,9.08,13.0,8.0,270,8,,6.21,29.940945,,,TRUE,,,,,,,,BKN,4700,BKN,5800,,,,,VFR,,,,,,,,,,,,METAR,23.0
LFKC 171430Z AUTO 20006KT 9999 FEW036 BKN056 BKN070 12/07 Q1013 TEMPO 20015G25KT SCT030TCU BKN040,LFKC,2019-01-17T14:30:00Z,42.52,8.8,12.0,7.0,200,6,,6.21,29.911417,,,TRUE,,,,,,,,FEW,3600,BKN,5600,BKN,7000,,,VFR,,,1.5,,,,,,,,,METAR,58.0
LFJL 171430Z AUTO 25016KT 9999 SCT014/// BKN020/// BKN028/// ///CB 05/03 Q1008 TEMPO 2500 SHRASN BKN008 SCT013CB,LFJL,2019-01-17T14:30:00Z,48.97,6.25,5.0,3.0,250,16,,6.21,29.763779,,,TRUE,,,,,,,,SCT,1400,BKN,2000,BKN,2800,,,MVFR,,,,,,,,,,,,METAR,264.0
LFCR 171430Z AUTO 27005KT 9999 FEW011 SCT018 05/04 Q1015 TEMPO 4000 -SHRA BKN012 SCT015TCU,LFCR,2019-01-17T14:30:00Z,44.38,2.47,5.0,4.0,270,5,,6.21,29.970472,,,TRUE,,,,,,,,FEW,1100,SCT,1800,,,,,VFR,,,,,,,,,,,,METAR,580.0
LFMP 171430Z AUTO 31014KT 9999 NCD 11/04 Q1016 TEMPO 34015G25KT,LFMP,2019-01-17T14:30:00Z,42.72,2.87,11.0,4.0,310,14,,6.21,30.0,,,TRUE,,,,,,,,CLR,,,,,,,,VFR,,,,,,,,,,,,METAR,48.0
LFLS 171430Z AUTO 06005KT 030V090 9999 FEW078 BKN092 BKN170 07/04 Q1014 TEMPO SHRA SCT030TCU BKN033,LFLS,2019-01-17T14:30:00Z,45.37,5.32,7.0,4.0,60,5,,6.21,29.940945,,,TRUE,,,,,,,,FEW,7800,BKN,9200,BKN,17000,,,VFR,,,,,,,,,,,,METAR,386.0
YCDU 171430Z AUTO 17015KT //// // OVC006 20/18 Q1009,YCDU,2019-01-17T14:30:00Z,-32.12,133.7,20.0,18.0,170,15,,,29.793306,,,TRUE,,,,,,,,OVC,600,,,,,,,,,,,,,,,,,,,SPECI,15.0
TFFF 171430Z AUTO 11015KT 9999 SCT034 SCT047 28/19 Q1019 NOSIG,TFFF,2019-01-17T14:30:00Z,14.6,-61.0,28.0,19.0,110,15,,6.21,30.088583,,,TRUE,,,TRUE,,,,,SCT,3400,SCT,4700,,,,,VFR,,,,,,,,,,,,METAR,5.0
YBRM 171430Z AUTO 18010KT 110V200 2600 +SHRA SCT012 BKN029 BKN040 24/23 Q1009,YBRM,2019-01-17T14:30:00Z,-17.93,122.22,24.0,23.0,180,10,,1.62,29.793306,,,TRUE,,,,,,,+SHRA,SCT,1200,BKN,2900,BKN,4000,,,IFR,,,,,,,,,,,,METAR,9.0
ORBI 171430Z 22005KT 180V260 1800 DU OVC035 14/04 Q1013,ORBI,2019-01-17T14:30:00Z,33.27,44.23,14.0,4.0,220,5,,1.12,29.911417,,,,,,,,,,DU,OVC,3500,,,,,,,IFR,,,,,,,,,,,,METAR,35.0
UBBG 171430Z 30016KT 9999 FEW033CB OVC060 03/M01 Q1010 R30/CLRD// NOSIG,UBBG,2019-01-17T14:30:00Z,40.73,46.32,3.0,-1.0,300,16,,6.21,29.822834,,,,,,TRUE,,,,,FEW,3300,OVC,6000,,,,,VFR,,,,,,,,,,,,METAR,330.0
SPZO 171430Z /////KT 9999 FEW036TCU SCT040 BKN100 14/06 Q1035 NOSIG RMK BIRD HAZARD RWY 28,SPZO,2019-01-17T14:30:00Z,-13.55,-71.97,14.0,6.0,,,,6.21,30.561024,,,,,,TRUE,,,,,FEW,3600,SCT,4000,BKN,10000,,,VFR,,,,,,,,,,,,METAR,3249.0
K2G4 171430Z AUTO 00000KT 10SM OVC013 A3015 RMK AO1,K2G4,2019-01-17T14:30:00Z,39.58,-79.33,,,0,0,,10.0,30.15059,,,TRUE,TRUE,,,,,,,OVC,1300,,,,,,,MVFR,,,,,,,,,,,,SPECI,894.0
LBWN 171430Z 12006KT CAVOK 09/01 Q1016 NOSIG,LBWN,2019-01-17T14:30:00Z,43.22,27.82,9.0,1.0,120,6,,6.21,30.0,,,,,,TRUE,,,,,CAVOK,,,,,,,,VFR,,,,,,,,,,,,METAR,43.0
LBSF 171430Z VRB02KT CAVOK 06/M04 Q1017 NOSIG,LBSF,2019-01-17T14:30:00Z,42.7,23.42,6.0,-4.0,0,2,,6.21,30.029528,,,,,,TRUE,,,,,CAVOK,,,,,,,,VFR,,,,,,,,,,,,METAR,530.0
TFFR 171430Z AUTO 12007KT 080V170 9999 BKN040 28/20 Q1020 NOSIG,TFFR,2019-01-17T14:30:00Z,16.27,-61.53,28.0,20.0,120,7,,6.21,30.11811,,,TRUE,,,TRUE,,,,,BKN,4000,,,,,,,VFR,,,,,,,,,,,,METAR,11.0
NWWW 171430Z AUTO 01002KT CAVOK 20/15 Q1012 NOSIG,NWWW,2019-01-17T14:30:00Z,-22.02,166.22,20.0,15.0,10,2,,6.21,29.88189,,,TRUE,,,TRUE,,,,,CAVOK,,,,,,,,VFR,,,,,,,,,,,,METAR,16.0
LCLK 171430Z VRB01KT 9999 FEW020 14/M00 Q1019 NOSIG,LCLK,2019-01-17T14:30:00Z,34.87,33.62,14.0,0.0,0,1,,6.21,30.088583,,,,,,TRUE,,,,,FEW,2000,,,,,,,VFR,,,,,,,,,,,,METAR,2.0
LZKZ 171430Z 22004KT 190V250 7000 BKN006 00/M01 Q1009 NOSIG,LZKZ,2019-01-17T14:30:00Z,48.67,21.23,0.0,-1.0,220,4,,4.35,29.793306,,,,,,TRUE,,,,,BKN,600,,,,,,,IFR,,,,,,,,,,,,METAR,232.0
ZMUB 171430Z VRB01MPS CAVOK M23/M26 Q1021 NOSIG RMK QFE658.1 72,ZMUB,2019-01-17T14:30:00Z,47.83,106.78,-23.0,-26.0,0,2,,6.21,30.147638,,,,,,TRUE,,,,,CAVOK,,,,,,,,VFR,,,,,,,,,,,,SPECI,1330.0
UBBN 171430Z 21010KT 9999 BKN040CB OVC083 05/M02 Q1004 R32L/CLRD// NOSIG RMK MT OP QFE680,UBBN,2019-01-17T14:30:00Z,39.18,45.45,5.0,-2.0,210,10,,6.21,29.64567,,,,,,TRUE,,,,,BKN,4000,OVC,8300,,,,,VFR,,,,,,,,,,,,METAR,873.0
LZTT 171430Z 26017KT CAVOK 04/M02 Q1006 NOSIG,LZTT,2019-01-17T14:30:00Z,49.07,20.25,4.0,-2.0,260,17,,6.21,29.704725,,,,,,TRUE,,,,,CAVOK,,,,,,,,VFR,,,,,,,,,,,,METAR,707.0
KDYR 171430Z AUTO 22003KT 10SM OVC005 08/08 A3007 RMK AO2 RAE15 PNO $,KDYR,2019-01-17T14:30:00Z,36.0,-89.4,8.0,8.0,220,3,,10.0,30.070866,,,TRUE,TRUE,TRUE,,,,,,OVC,500,,,,,,,IFR,,,,,,,,,,,,SPECI,103.0
LFCK 171430Z AUTO 35009KT 330V030 9999 FEW022 SCT028 BKN041 08/04 Q1018 TEMPO 4000 -SHRA BKN013 SCT016TCU,LFCK,2019-01-17T14:30:00Z,43.55,2.28,8.0,4.0,350,9,,6.21,30.059055,,,TRUE,,,,,,,,FEW,2200,SCT,2800,BKN,4100,,,VFR,,,,,,,,,,,,METAR,240.0
LFYR 171430Z AUTO 26007KT 230V290 9999 FEW036 09/01 Q1014 TEMPO 4000 -SHRA SCT012 BKN020CB,LFYR,2019-01-17T14:30:00Z,47.32,1.67,9.0,1.0,260,7,,6.21,29.940945,,,TRUE,,,,,,,,FEW,3600,,,,,,,VFR,,,,,,,,,,,,METAR,86.0
LFSX 171430Z AUTO 26013KT 9999 FEW023 BKN038 BKN046 07/02 Q1011,LFSX,2019-01-17T14:30:00Z,47.77,6.33,7.0,2.0,260,13,,6.21,29.852362,,,TRUE,,,,,,,,FEW,2300,BKN,3800,BKN,4600,,,VFR,,,,,,,,,,,,METAR,273.0
LFSO 171430Z AUTO 25017KT 9999 BKN015/// BKN021/// OVC031/// ///TCU 04/02 Q1009 TEMPO 27020G35KT 4500 -SHRA BKN007 BKN010TCU OVC015,LFSO,2019-01-17T14:30:00Z,48.57,5.97,4.0,2.0,250,17,,6.21,29.793306,,,TRUE,,,,,,,,BKN,1500,BKN,2100,OVC,3100,,,MVFR,,,,,,,,,,,,METAR,350.0
LFSI 171430Z AUTO 28012KT 9999 FEW030/// SCT049/// BKN070/// ///TCU 06/02 Q1010,LFSI,2019-01-17T14:30:00Z,48.62,4.9,6.0,2.0,280,12,,6.21,29.822834,,,TRUE,,,,,,,,FEW,3000,SCT,4900,BKN,7000,,,VFR,,,,,,,,,,,,METAR,140.0
LFRL 171430Z AUTO 36011KT 330V040 9999 SCT030 08/02 Q1018 NOSIG,LFRL,2019-01-17T14:30:00Z,48.27,-4.42,8.0,2.0,360,11,,6.21,30.059055,,,TRUE,,,TRUE,,,,,SCT,3000,,,,,,,VFR,,,,,,,,,,,,METAR,82.0
LFRJ 171430Z AUTO 01010KT 340V040 9999 SCT041/// 07/01 Q1017 NOSIG,LFRJ,2019-01-17T14:30:00Z,48.52,-4.15,7.0,1.0,10,10,,6.21,30.029528,,,TRUE,,,TRUE,,,,,SCT,4100,,,,,,,VFR,,,,,,,,,,,,METAR,115.0
LFOJ 171430Z AUTO 26016KT 9999 FEW030 08/02 Q1013 TEMPO 28020G30KT 3000 SHRA BKN020TCU,LFOJ,2019-01-17T14:30:00Z,47.97,1.75,8.0,2.0,260,16,,6.21,29.911417,,,TRUE,,,,,,,,FEW,3000,,,,,,,VFR,,,,,,,,,,,,METAR,125.0
LFOE 171430Z AUTO 30010KT 260V350 9999 BKN016 BKN022 BKN029 05/02 Q1013 TEMPO 32020G30KT 1500 -TSRAGS BKN008 BKN015CB,LFOE,2019-01-17T14:30:00Z,49.02,1.22,5.0,2.0,300,10,,6.21,29.911417,,,TRUE,,,,,,,,BKN,1600,BKN,2200,BKN,2900,,,MVFR,,,,,,,,,,,,METAR,146.0
LFOC 171430Z AUTO 26013KT 9999 SCT029 BKN043 BKN050 08/02 Q1013 TEMPO 28020G30KT 3000 SHRA BKN020TCU,LFOC,2019-01-17T14:30:00Z,48.03,1.37,8.0,2.0,260,13,,6.21,29.911417,,,TRUE,,,,,,,,SCT,2900,BKN,4300,BKN,5000,,,VFR,,,,,,,,,,,,METAR,127.0
LFRS 171430Z AUTO 31010KT 9999 FEW036 BKN044 10/03 Q1016 NOSIG,LFRS,2019-01-17T14:30:00Z,47.17,-1.6,10.0,3.0,310,10,,6.21,30.0,,,TRUE,,,TRUE,,,,,FEW,3600,BKN,4400,,,,,VFR,,,,,,,,,,,,METAR,27.0
LFRB 171430Z AUTO 01007KT 330V030 9999 FEW030 08/01 Q1017 NOSIG,LFRB,2019-01-17T14:30:00Z,48.45,-4.42,8.0,1.0,10,7,,6.21,30.029528,,,TRUE,,,TRUE,,,,,FEW,3000,,,,,,,VFR,,,,,,,,,,,,METAR,103.0
LFQQ 171430Z AUTO 29017KT 9999 SCT028 SCT034 04/M00 Q1010 NOSIG,LFQQ,2019-01-17T14:30:00Z,50.57,3.1,4.0,0.0,290,17,,6.21,29.822834,,,TRUE,,,TRUE,,,,,SCT,2800,SCT,3400,,,,,VFR,,,,,,,,,,,,METAR,52.0
LFPO 171430Z 27013KT 9999 FEW026 SCT040CB BKN040 05/03 Q1012 RESHRA TEMPO 30015G30KT 4000 SHRA SCT020CB,LFPO,2019-01-17T14:30:00Z,48.72,2.38,5.0,3.0,270,13,,6.21,29.88189,,,,,,,,,,,FEW,2600,SCT,4000,BKN,4000,,,VFR,,,,,,,,,,,,METAR,96.0
LFPG 171430Z 31014KT 9999 FEW015TCU SCT023 05/03 Q1012 RESHRA NOSIG,LFPG,2019-01-17T14:30:00Z,49.02,2.52,5.0,3.0,310,14,,6.21,29.88189,,,,,,TRUE,,,,,FEW,1500,SCT,2300,,,,,VFR,,,,,,,,,,,,METAR,109.0
LFMN 171430Z 21009KT 9999 FEW018 BKN066 12/08 Q1011 NOSIG,LFMN,2019-01-17T14:30:00Z,43.63,7.2,12.0,8.0,210,9,,6.21,29.852362,,,,,,TRUE,,,,,FEW,1800,BKN,6600,,,,,VFR,,,,,,,,,,,,METAR,10.0
LFLL 171430Z 34003KT 300V360 CAVOK 09/02 Q1014 NOSIG,LFLL,2019-01-17T14:30:00Z,45.72,5.07,9.0,2.0,340,3,,6.21,29.940945,,,,,,TRUE,,,,,CAVOK,,,,,,,,VFR,,,,,,,,,,,,METAR,240.0
LFBH 171430Z AUTO 29010KT CAVOK 10/06 Q1017 TEMPO 3000 SHRA BKN020TCU,LFBH,2019-01-17T14:30:00Z,46.18,-1.2,10.0,6.0,290,10,,6.21,30.029528,,,TRUE,,,,,,,,CAVOK,,,,,,,,VFR,,,,,,,,,,,,METAR,10.0
LFBD 171430Z AUTO 31009KT 9999 SCT035 SCT045 11/05 Q1018 TEMPO 4000 -SHRA BKN020TCU,LFBD,2019-01-17T14:30:00Z,44.82,-0.7,11.0,5.0,310,9,,6.21,30.059055,,,TRUE,,,,,,,,SCT,3500,SCT,4500,,,,,VFR,,,,,,,,,,,,METAR,61.0
LFSL 171430Z AUTO 28007KT 230V320 9999 SCT030/// BKN040/// ///TCU 10/04 Q1016 TEMPO 4000 -SHRA BECMG SCT020 BKN025,LFSL,2019-01-17T14:30:00Z,45.03,1.48,10.0,4.0,280,7,,6.21,30.0,,,TRUE,,,,,,,,SCT,3000,BKN,4000,,,,,VFR,,,,,,,,,,,,METAR,310.0
LFMV 171430Z AUTO 35004KT 9999 SCT064 OVC076 12/07 Q1014 NOSIG,LFMV,2019-01-17T14:30:00Z,43.9,4.9,12.0,7.0,350,4,,6.21,29.940945,,,TRUE,,,TRUE,,,,,SCT,6400,OVC,7600,,,,,VFR,,,,,,,,,,,,METAR,38.0
LFPN 171430Z AUTO 27009KT 240V300 9999 FEW023/// SCT042/// OVC074/// ///CB 05/03 Q1012 TEMPO 30015G30KT 2000 SHRAGS BECMG NSC,LFPN,2019-01-17T14:30:00Z,48.75,2.12,5.0,3.0,270,9,,6.21,29.88189,,,TRUE,,,,,,,,FEW,2300,SCT,4200,OVC,7400,,,VFR,,,,,,,,,,,,METAR,164.0
LEDA 171430Z 21003KT 170V250 8000 BKN007 04/04 Q1017,LEDA,2019-01-17T14:30:00Z,41.73,0.53,4.0,4.0,210,3,,4.97,30.029528,,,,,,,,,,,BKN,700,,,,,,,IFR,,,,,,,,,,,,METAR,350.0
LEVD 171430Z 12002KT 9999 SCT014 BKN017 06/01 Q1019,LEVD,2019-01-17T14:30:00Z,41.72,-4.83,6.0,1.0,120,2,,6.21,30.088583,,,,,,,,,,,SCT,1400,BKN,1700,,,,,MVFR,,,,,,,,,,,,METAR,854.0
LESA 171430Z 06004KT 020V090 9999 OVC011 04/01 Q1019,LESA,2019-01-17T14:30:00Z,40.95,-5.5,4.0,1.0,60,4,,6.21,30.088583,,,,,,,,,,,OVC,1100,,,,,,,MVFR,,,,,,,,,,,,METAR,795.0
LFRU 171430Z AUTO 01011KT 9999 FEW039 BKN045 08/00 Q1017,LFRU,2019-01-17T14:30:00Z,48.6,-3.82,8.0,0.0,10,11,,6.21,30.029528,,,TRUE,,,,,,,,FEW,3900,BKN,4500,,,,,VFR,,,,,,,,,,,,METAR,86.0
LFRK 171430Z AUTO 34011KT 9999 FEW031 06/M02 Q1015 NOSIG,LFRK,2019-01-17T14:30:00Z,49.17,-0.45,6.0,-2.0,340,11,,6.21,29.970472,,,TRUE,,,TRUE,,,,,FEW,3100,,,,,,,VFR,,,,,,,,,,,,METAR,67.0
LFRC 171430Z AUTO 35010KT 310V020 CAVOK 05/M03 Q1015 NOSIG,LFRC,2019-01-17T14:30:00Z,49.63,-1.47,5.0,-3.0,350,10,,6.21,29.970472,,,TRUE,,,TRUE,,,,,CAVOK,,,,,,,,VFR,,,,,,,,,,,,METAR,138.0
KIPJ 171430Z AUTO 00000KT 10SM CLR 01/M01 A3028 RMK AO2 T00111008,KIPJ,2019-01-17T14:30:00Z,35.48,-81.17,1.1,-0.8,0,0,,10.0,30.280512,,,TRUE,TRUE,,,,,,,CLR,,,,,,,,VFR,,,,,,,,,,,,SPECI,267.0
OIKK 171430Z 25021G33KT 9999 FEW045 BKN100 17/M14 Q1014 A2994,OIKK,2019-01-17T14:30:00Z,30.25,56.97,17.0,-14.0,250,21,33,6.21,29.940945,,,,,,,,,,,FEW,4500,BKN,10000,,,,,VFR,,,,,,,,,,,,METAR,1754.0
LWOH 171430Z VRB01KT CAVOK 05/M03 Q1019,LWOH,2019-01-17T14:30:00Z,41.18,20.75,5.0,-3.0,0,1,,6.21,30.088583,,,,,,,,,,,CAVOK,,,,,,,,VFR,,,,,,,,,,,,METAR,761.0
KJNX 171430Z AUTO 00000KT 10SM CLR 03/01 A3032 RMK AO2,KJNX,2019-01-17T14:30:00Z,35.53,-78.38,3.0,1.0,0,0,,10.0,30.318897,,,TRUE,TRUE,,,,,,,CLR,,,,,,,,VFR,,,,,,,,,,,,SPECI,50.0
GOBD 171430Z 35009KT CAVOK 31/04 Q1012 NOSIG,GOBD,2019-01-17T14:30:00Z,14.67,-17.07,31.0,4.0,350,9,,6.21,29.88189,,,,,,TRUE,,,,,CAVOK,,,,,,,,VFR,,,,,,,,,,,,METAR,88.0
WAMM 171430Z VRB02KT 8000 -RA SCT020 24/23 Q1011 TEMPO-RA,WAMM,2019-01-17T14:30:00Z,1.55,124.92,24.0,23.0,0,2,,4.97,29.852362,,,,,,,,,,-RA,SCT,2000,,,,,,,MVFR,,,,,,,,,,,,METAR,80.0
WATT 171430Z 24002KT 8000 SCT015 BKN100 25/24 Q1010 NOSIG,WATT,2019-01-17T14:30:00Z,-10.17,123.67,25.0,24.0,240,2,,4.97,29.822834,,,,,,TRUE,,,,,SCT,1500,BKN,10000,,,,,MVFR,,,,,,,,,,,,METAR,102.0
SACO 171430Z 21016KT 7000 -RA BKN007 BKN035 15/14 Q1021 NOSIG,SACO,2019-01-17T14:30:00Z,-31.32,-64.22,15.0,14.0,210,16,,4.35,30.147638,,,,,,TRUE,,,,-RA,BKN,700,BKN,3500,,,,,IFR,,,,,,,,,,,,METAR,474.0
LHBP 171430Z 22006KT CAVOK 10/04 Q1010 NOSIG,LHBP,2019-01-17T14:30:00Z,47.42,19.27,10.0,4.0,220,6,,6.21,29.822834,,,,,,TRUE,,,,,CAVOK,,,,,,,,VFR,,,,,,,,,,,,METAR,185.0
CYXJ 171430Z 11009KT 5SM -SN OVC024 M19/M22 A3014 RMK SN4SC4 SLP279,CYXJ,2019-01-17T14:30:00Z,56.25,-120.73,-19.0,-22.0,110,9,,5.0,30.138779,1027.9,,,,,,,,,-SN,OVC,2400,,,,,,,MVFR,,,,,,,,,,,,SPECI,695.0
LDDU 171430Z 11010KT 9999 SCT033 09/04 Q1019 NOSIG,LDDU,2019-01-17T14:30:00Z,42.57,18.27,9.0,4.0,110,10,,6.21,30.088583,,,,,,TRUE,,,,,SCT,3300,,,,,,,VFR,,,,,,,,,,,,METAR,165.0
LDOS 171430Z 21011KT CAVOK 12/02 Q1013,LDOS,2019-01-17T14:30:00Z,45.47,18.82,12.0,2.0,210,11,,6.21,29.911417,,,,,,,,,,,CAVOK,,,,,,,,VFR,,,,,,,,,,,,METAR,89.0
LDPL 171430Z 19005KT 120V230 9999 BKN040 OVC055 11/06 Q1013 NOSIG,LDPL,2019-01-17T14:30:00Z,44.88,13.92,11.0,6.0,190,5,,6.21,29.911417,,,,,,TRUE,,,,,BKN,4000,OVC,5500,,,,,VFR,,,,,,,,,,,,METAR,63.0
LDSP 171430Z 11013KT 9999 SCT030 12/07 Q1017 NOSIG,LDSP,2019-01-17T14:30:00Z,43.52,16.3,12.0,7.0,110,13,,6.21,30.029528,,,,,,TRUE,,,,,SCT,3000,,,,,,,VFR,,,,,,,,,,,,METAR,21.0
LDZA 171430Z 24014KT 9999 FEW030 11/03 Q1012 NOSIG,LDZA,2019-01-17T14:30:00Z,45.72,16.07,11.0,3.0,240,14,,6.21,29.88189,,,,,,TRUE,,,,,FEW,3000,,,,,,,VFR,,,,,,,,,,,,METAR,107.0
LDZD 171430Z 16015KT 9999 FEW025 SCT075 12/05 Q1015 NOSIG,LDZD,2019-01-17T14:30:00Z,44.1,15.37,12.0,5.0,160,15,,6.21,29.970472,,,,,,TRUE,,,,,FEW,2500,SCT,7500,,,,,VFR,,,,,,,,,,,,METAR,84.0
UGTB 171430Z 31033G43KT 9999 FEW036 03/M04 Q1012 NOSIG,UGTB,2019-01-17T14:30:00Z,41.67,44.95,3.0,-4.0,310,33,43,6.21,29.88189,,,,,,TRUE,,,,,FEW,3600,,,,,,,VFR,,,,,,,,,,,,METAR,495.0
UGKO 171430Z 26015KT 8000 -RA SCT019 OVC041 03/03 Q1018 NOSIG,UGKO,2019-01-17T14:30:00Z,42.18,42.48,3.0,3.0,260,15,,4.97,30.059055,,,,,,TRUE,,,,-RA,SCT,1900,OVC,4100,,,,,MVFR,,,,,,,,,,,,METAR,68.0
UGSB 171430Z 18006KT 150V210 9999 SCT016 BKN025CB 04/02 Q1020 R13/2///55 NOSIG,UGSB,2019-01-17T14:30:00Z,41.62,41.6,4.0,2.0,180,6,,6.21,30.11811,,,,,,TRUE,,,,,SCT,1600,BKN,2500,,,,,MVFR,,,,,,,,,,,,METAR,32.0
UKBB 171430Z 21007MPS CAVOK M00/M03 Q1008 R18L/821040 R18R/851045 NOSIG,UKBB,2019-01-17T14:30:00Z,50.33,30.9,0.0,-3.0,210,14,,6.21,29.763779,,,,,,TRUE,,,,,CAVOK,,,,,,,,VFR,,,,,,,,,,,,METAR,119.0
UKHH 171430Z 17003MPS 8000 NSC M07/M09 Q1015 R07/71//72 NOSIG,UKHH,2019-01-17T14:30:00Z,49.92,36.28,-7.0,-9.0,170,6,,4.97,29.970472,,,,,,TRUE,,,,,CLR,,,,,,,,MVFR,,,,,,,,,,,,METAR,155.0
UKOO 171430Z 18005MPS CAVOK 02/M00 Q1015 R16/190056 NOSIG,UKOO,2019-01-17T14:30:00Z,46.42,30.68,2.0,0.0,180,10,,6.21,29.970472,,,,,,TRUE,,,,,CAVOK,,,,,,,,VFR,,,,,,,,,,,,METAR,35.0
UKDE 171430Z 18005MPS 140V220 9999 BKN011 M00/M01 Q1017 R20L/710370 NOSIG,UKDE,2019-01-17T14:30:00Z,47.87,35.32,0.0,-1.0,180,10,,6.21,30.029528,,,,,,TRUE,,,,,BKN,1100,,,,,,,MVFR,,,,,,,,,,,,METAR,113.0
UKDD 171430Z 23005MPS 9999 OVC007 M02/M03 Q1016 R26/715070 NOSIG,UKDD,2019-01-17T14:30:00Z,48.37,35.1,-2.0,-3.0,230,10,,6.21,30.0,,,,,,TRUE,,,,,OVC,700,,,,,,,IFR,,,,,,,,,,,,METAR,149.0
UKLL 171430Z 24005MPS CAVOK 04/M01 Q1006 R31/190060 NOSIG,UKLL,2019-01-17T14:30:00Z,49.82,23.93,4.0,-1.0,240,10,,6.21,29.704725,,,,,,TRUE,,,,,CAVOK,,,,,,,,VFR,,,,,,,,,,,,METAR,325.0
UKDR 171430Z 16003MPS CAVOK M06/M08 Q1015 R18/920540 NOSIG,UKDR,2019-01-17T14:30:00Z,48.05,33.22,-6.0,-8.0,160,6,,6.21,29.970472,,,,,,TRUE,,,,,CAVOK,,,,,,,,VFR,,,,,,,,,,,,METAR,124.0
VHHH 171430Z 07006KT CAVOK 16/10 Q1023 NOSIG,VHHH,2019-01-17T14:30:00Z,22.32,113.92,16.0,10.0,70,6,,6.21,30.206694,,,,,,TRUE,,,,,CAVOK,,,,,,,,VFR,,,,,,,,,,,,METAR,9.0
DIAP 171430Z 21014KT 8000 FEW013 FEW020CB 31/26 Q1009 TEMPO TS,DIAP,2019-01-17T14:30:00Z,5.25,-3.92,31.0,26.0,210,14,,4.97,29.793306,,,,,,,,,,,FEW,1300,FEW,2000,,,,,MVFR,,,,,,,,,,,,METAR,8.0
FOOL 171430Z 23006KT 190V260 9999 FEW013 30/24 Q1008 NOSIG,FOOL,2019-01-17T14:30:00Z,0.45,9.42,30.0,24.0,230,6,,6.21,29.763779,,,,,,TRUE,,,,,FEW,1300,,,,,,,VFR,,,,,,,,,,,,METAR,15.0
HECA 171430Z 25004KT 6000 SCT025 BKN070 15/04 Q1022 NOSIG,HECA,2019-01-17T14:30:00Z,30.12,31.38,15.0,4.0,250,4,,3.73,30.177166,,,,,,TRUE,,,,,SCT,2500,BKN,7000,,,,,MVFR,,,,,,,,,,,,SPECI,74.0
EPWA 171430Z 23007KT 200V260 9999 BKN025 06/01 Q1000 NOSIG,EPWA,2019-01-17T14:30:00Z,52.17,20.97,6.0,1.0,230,7,,6.21,29.52756,,,,,,TRUE,,,,,BKN,2500,,,,,,,MVFR,,,,,,,,,,,,METAR,107.0
EPRZ 171430Z 20013KT CAVOK 02/M01 Q1005,EPRZ,2019-01-17T14:30:00Z,50.1,22.05,2.0,-1.0,200,13,,6.21,29.675198,,,,,,,,,,,CAVOK,,,,,,,,VFR,,,,,,,,,,,,METAR,202.0
EPPO 171430Z 24009KT 9999 BKN033 06/01 Q0999 R10/29//95,EPPO,2019-01-17T14:30:00Z,52.42,16.82,6.0,1.0,240,9,,6.21,29.498032,,,,,,,,,,,BKN,3300,,,,,,,VFR,,,,,,,,,,,,METAR,92.0
EPLL 171430Z 22008KT 9999 BKN025 05/01 Q1001 R25/29//95,EPLL,2019-01-17T14:30:00Z,51.72,19.4,5.0,1.0,220,8,,6.21,29.557087,,,,,,,,,,,BKN,2500,,,,,,,MVFR,,,,,,,,,,,,SPECI,184.0
EPKK 171430Z 21010KT CAVOK 06/00 Q1004 R25/CLRD//,EPKK,2019-01-17T14:30:00Z,50.07,19.8,6.0,0.0,210,10,,6.21,29.64567,,,,,,,,,,,CAVOK,,,,,,,,VFR,,,,,,,,,,,,METAR,237.0
EPGD 171430Z 24014KT 9999 BKN032 04/01 Q0994,EPGD,2019-01-17T14:30:00Z,54.37,18.47,4.0,1.0,240,14,,6.21,29.350393,,,,,,,,,,,BKN,3200,,,,,,,VFR,,,,,,,,,,,,METAR,138.0
GLRB 171430Z 21009KT 9999 BKN023 34/25 Q1010 NOSIG,GLRB,2019-01-17T14:30:00Z,6.25,-10.33,34.0,25.0,210,9,,6.21,29.822834,,,,,,TRUE,,,,,BKN,2300,,,,,,,MVFR,,,,,,,,,,,,METAR,18.0
VOBL 171430Z 03004KT 6000 NSC 21/04 Q1017 NOSIG,VOBL,2019-01-17T14:30:00Z,13.2,77.7,21.0,4.0,30,4,,3.73,30.029528,,,,,,TRUE,,,,,CLR,,,,,,,,MVFR,,,,,,,,,,,,METAR,915.0
GMMX 171430Z 01004KT 280V060 8000 FEW026 17/02 Q1017 NOSIG,GMMX,2019-01-17T14:30:00Z,31.62,-8.02,17.0,2.0,10,4,,4.97,30.029528,,,,,,TRUE,,,,,FEW,2600,,,,,,,MVFR,,,,,,,,,,,,METAR,466.0
GMTT 171430Z 24008KT 8000 SCT020 BKN033 14/09 Q1017 NOSIG,GMTT,2019-01-17T14:30:00Z,35.72,-5.9,14.0,9.0,240,8,,4.97,30.029528,,,,,,TRUE,,,,,SCT,2000,BKN,3300,,,,,MVFR,,,,,,,,,,,,METAR,21.0
KQEL 171430Z AUTO 03001KT 9999 CLR M08/M13 A3039 RMK A02 TSNO,KQEL,2019-01-17T14:30:00Z,,,-8.0,-13.0,30,1,,6.21,30.389763,,,TRUE,TRUE,,,TRUE,,,,CLR,,,,,,,,VFR,,,,,,,,,,,,METAR,
KQEN 171430Z AUTO 26013G19KT 9999 CLR M07/M16 A3011 RMK A02 TSNO,KQEN,2019-01-17T14:30:00Z,,,-7.0,-16.0,260,13,19,6.21,30.109253,,,TRUE,TRUE,,,TRUE,,,,CLR,,,,,,,,VFR,,,,,,,,,,,,METAR,
KQER 171430Z AUTO 03001KT 9999 CLR M06/M14 A3025 RMK A02 TSNO,KQER,2019-01-17T14:30:00Z,,,-6.0,-14.0,30,1,,6.21,30.250984,,,TRUE,TRUE,,,TRUE,,,,CLR,,,,,,,,VFR,,,,,,,,,,,,METAR,
KQES 171430Z AUTO 31011G16KT 9999 CLR 03/M05 A3038 RMK A02 TSNO,KQES,2019-01-17T14:30:00Z,,,3.0,-5.0,310,11,16,6.21,30.380905,,,TRUE,TRUE,,,TRUE,,,,CLR,,,,,,,,VFR,,,,,,,,,,,,METAR,
KQEV 171430Z AUTO 24001KT 9000 HZ CLR M05/M08 A3032 RMK A02 TSNO,KQEV,2019-01-17T14:30:00Z,,,-5.0,-8.0,240,1,,5.59,30.318897,,,TRUE,TRUE,,,TRUE,,,HZ,CLR,,,,,,,,VFR,,,,,,,,,,,,METAR,
KQEW 171430Z AUTO 21003KT 9999 CLR 00/M08 A3030 RMK A02 TSNO,KQEW,2019-01-17T14:30:00Z,,,0.0,-8.0,210,3,,6.21,30.301182,,,TRUE,TRUE,,,TRUE,,,,CLR,,,,,,,,VFR,,,,,,,,,,,,METAR,
KQEY 171430Z AUTO 12001KT 4000 BR CLR M04/M05 A3004 RMK A02 TSNO,KQEY,2019-01-17T14:30:00Z,,,-4.0,-5.0,120,1,,2.49,30.041338,,,TRUE,TRUE,,,TRUE,,,BR,CLR,,,,,,,,IFR,,,,,,,,,,,,METAR,
KQFB 171430Z AUTO 21002KT 9000 HZ CLR M02/M06 A3035 RMK A02 TSNO,KQFB,2019-01-17T14:30:00Z,,,-2.0,-6.0,210,2,,5.59,30.351377,,,TRUE,TRUE,,,TRUE,,,HZ,CLR,,,,,,,,VFR,,,,,,,,,,,,METAR,
KQFT 171430Z AUTO 19001KT 9999 CLR M06/M12 A3032 RMK A02 TSNO,KQFT,2019-01-17T14:30:00Z,,,-6.0,-12.0,190,1,,6.21,30.318897,,,TRUE,TRUE,,,TRUE,,,,CLR,,,,,,,,VFR,,,,,,,,,,,,METAR,
KQFV 171430Z AUTO 00000KT 9000 HZ CLR M07/M14 A3029 RMK A02 TSNO,KQFV,2019-01-17T14:30:00Z,,,-7.0,-14.0,0,0,,5.59,30.28937,,,TRUE,TRUE,,,TRUE,,,HZ,CLR,,,,,,,,VFR,,,,,,,,,,,,METAR,
KQFW 171430Z AUTO 25001KT 9000 HZ CLR M06/M13 A3031 RMK A02 TSNO,KQFW,2019-01-17T14:30:00Z,,,-6.0,-13.0,250,1,,5.59,30.31004,,,TRUE,TRUE,,,TRUE,,,HZ,CLR,,,,,,,,VFR,,,,,,,,,,,,METAR,
KQFX 171430Z AUTO 12001KT 6000 HZ CLR M06/M13 A3031 RMK A02 TSNO,KQFX,2019-01-17T14:30:00Z,,,-6.0,-13.0,120,1,,3.73,30.31004,,,TRUE,TRUE,,,TRUE,,,HZ,CLR,,,,,,,,MVFR,,,,,,,,,,,,METAR,
LDRI 171430Z 19012KT 170V230 9999 -RA FEW023 BKN040 11/06 Q1014,LDRI,2019-01-17T14:30:00Z,45.22,14.57,11.0,6.0,190,12,,6.21,29.940945,,,,,,,,,,-RA,FEW,2300,BKN,4000,,,,,VFR,,,,,,,,,,,,METAR,85.0
KELD 171430Z AUTO 00000KT 1 3/4SM BR OVC004 12/12 A3009 RMK AO2 T01170117,KELD,2019-01-17T14:30:00Z,33.22,-92.82,11.7,11.7,0,0,,1.75,30.088583,,,TRUE,TRUE,,,,,,BR,OVC,400,,,,,,,LIFR,,,,,,,,,,,,SPECI,81.0
KHDO 171430Z AUTO 26009KT 4SM BR OVC002 12/11 A3022 RMK AO2 T01170106 $,KHDO,2019-01-17T14:30:00Z,29.37,-99.17,11.7,10.6,260,9,,4.0,30.221457,,,TRUE,TRUE,TRUE,,,,,BR,OVC,200,,,,,,,LIFR,,,,,,,,,,,,SPECI,282.0
KHRO 171430Z AUTO 32003KT 2 1/2SM -RA BR OVC002 07/06 A3001 RMK AO2 P0001 T00670061,KHRO,2019-01-17T14:30:00Z,36.27,-93.15,6.7,6.1,320,3,,2.5,30.008858,,,TRUE,TRUE,,,,,,-RA BR,OVC,200,,,,,,,LIFR,,,,,,0.01,,,,,,SPECI,417.0
KPOF 171430Z AUTO 00000KT 6SM BR OVC003 07/07 A3003 RMK AO2 T00720072,KPOF,2019-01-17T14:30:00Z,36.77,-90.32,7.2,7.2,0,0,,6.0,30.029528,,,TRUE,TRUE,,,,,,BR,OVC,300,,,,,,,LIFR,,,,,,,,,,,,SPECI,99.0
KTVL 171430Z AUTO VRB06G21KT 1SM -SN BR VV010 01/M01 A2983 RMK AO2 P0006 T00061006,KTVL,2019-01-17T14:30:00Z,38.9,-120.0,0.6,-0.6,0,6,21,1.0,29.828741,,,TRUE,TRUE,,,,,,-SN BR,OVX,0,,,,,,,LIFR,,,,,,0.06,,,,,1000,SPECI,1924.0
KVCB 171430Z AUTO 20011G19KT 9SM OVC029 13/10 A2990 RMK AO2 T01330100,KVCB,2019-01-17T14:30:00Z,38.38,-121.95,13.3,10.0,200,11,19,9.0,29.899607,,,TRUE,TRUE,,,,,,,OVC,2900,,,,,,,MVFR,,,,,,,,,,,,SPECI,33.0
KFTK 171430Z AUTO 16008KT 10SM -RA BKN005 BKN012 BKN027 OVC036 05/04 A3010 RMK AO2 RAB15 SLP200 $,KFTK,2019-01-17T14:30:00Z,37.88,-85.97,5.0,4.0,160,8,,10.0,30.100393,1020.0,,TRUE,TRUE,TRUE,,,,,-RA,BKN,500,BKN,1200,BKN,2700,OVC,3600,IFR,,,,,,,,,,,,SPECI,230.0
VOTV 171430Z 00000KT 4000 HZ FEW015 29/24 Q1010 NOSIG,VOTV,2019-01-17T14:30:00Z,8.47,76.95,29.0,24.0,0,0,,2.49,29.822834,,,,,,TRUE,,,,HZ,FEW,1500,,,,,,,IFR,,,,,,,,,,,,METAR,8.0
VORY 171430Z 10006KT 1500 BR NSC 23/18 Q1014 NOSIG,VORY,2019-01-17T14:30:00Z,17.1,81.82,23.0,18.0,100,6,,0.93,29.940945,,,,,,TRUE,,,,BR,CLR,,,,,,,,LIFR,,,,,,,,,,,,METAR,46.0
GMME 171430Z 28008KT 250V320 8000 SCT016 BKN026 16/09 Q1017 NOSIG,GMME,2019-01-17T14:30:00Z,34.03,-6.77,16.0,9.0,280,8,,4.97,30.029528,,,,,,TRUE,,,,,SCT,1600,BKN,2600,,,,,MVFR,,,,,,,,,,,,METAR,75.0
GMFF 171430Z 28007KT 240V300 9999 BKN033 14/06 Q1018 NOSIG,GMFF,2019-01-17T14:30:00Z,33.92,-4.97,14.0,6.0,280,7,,6.21,30.059055,,,,,,TRUE,,,,,BKN,3300,,,,,,,VFR,,,,,,,,,,,,METAR,579.0
GMAD 171430Z 25005KT 210V290 CAVOK 19/06 Q1015 NOSIG,GMAD,2019-01-17T14:30:00Z,30.32,-9.42,19.0,6.0,250,5,,6.21,29.970472,,,,,,TRUE,,,,,CAVOK,,,,,,,,VFR,,,,,,,,,,,,METAR,74.0
EPWR 171430Z 23009KT 9999 BKN033 BKN046 07/02 Q1002,EPWR,2019-01-17T14:30:00Z,51.1,16.87,7.0,2.0,230,9,,6.21,29.586615,,,,,,,,,,,BKN,3300,BKN,4600,,,,,VFR,,,,,,,,,,,,METAR,121.0
EPSY 171430Z 22008KT 9999 BKN019 OVC030 03/01 Q0997 R01/290095,EPSY,2019-01-17T14:30:00Z,53.47,20.93,3.0,1.0,220,8,,6.21,29.438976,,,,,,,,,,,BKN,1900,OVC,3000,,,,,MVFR,,,,,,,,,,,,METAR,141.0
EPSC 171430Z 21010KT 9999 FEW026 SCT031 BKN036 05/00 Q0996,EPSC,2019-01-17T14:30:00Z,53.58,14.9,5.0,0.0,210,10,,6.21,29.409449,,,,,,,,,,,FEW,2600,SCT,3100,BKN,3600,,,VFR,,,,,,,,,,,,METAR,47.0
EPRA 171430Z 24011KT 9999 BKN030 06/02 Q1002,EPRA,2019-01-17T14:30:00Z,51.38,21.22,6.0,2.0,240,11,,6.21,29.586615,,,,,,,,,,,BKN,3000,,,,,,,MVFR,,,,,,,,,,,,METAR,178.0
EPMO 171430Z 23011KT 9999 OVC027 05/02 Q1000,EPMO,2019-01-17T14:30:00Z,52.45,20.65,5.0,2.0,230,11,,6.21,29.52756,,,,,,,,,,,OVC,2700,,,,,,,MVFR,,,,,,,,,,,,METAR,104.0
EPLB 171430Z 23012KT 9999 OVC036 04/M00 Q1002,EPLB,2019-01-17T14:30:00Z,51.23,22.72,4.0,0.0,230,12,,6.21,29.586615,,,,,,,,,,,OVC,3600,,,,,,,VFR,,,,,,,,,,,,METAR,206.0
EPKT 171430Z 21010KT CAVOK 04/M01 Q1003,EPKT,2019-01-17T14:30:00Z,50.47,19.08,4.0,-1.0,210,10,,6.21,29.616142,,,,,,,,,,,CAVOK,,,,,,,,VFR,,,,,,,,,,,,METAR,284.0
EPBY 171430Z 25013KT 220V280 9999 -RA SCT016 BKN024 05/02 Q0998,EPBY,2019-01-17T14:30:00Z,53.1,18.0,5.0,2.0,250,13,,6.21,29.468504,,,,,,,,,,-RA,SCT,1600,BKN,2400,,,,,MVFR,,,,,,,,,,,,METAR,71.0
GMMN 171430Z 31008KT 270V340 9999 BKN020 SCT080 16/10 Q1018 NOSIG,GMMN,2019-01-17T14:30:00Z,33.37,-7.57,16.0,10.0,310,8,,6.21,30.059055,,,,,,TRUE,,,,,BKN,2000,SCT,8000,,,,,MVFR,,,,,,,,,,,,METAR,206.0
VABO 171430Z 06004KT 5000 FU NSC 28/11 Q1013 NOSIG,VABO,2019-01-17T14:30:00Z,22.33,73.22,28.0,11.0,60,4,,3.11,29.911417,,,,,,TRUE,,,,FU,CLR,,,,,,,,MVFR,,,,,,,,,,,,METAR,39.0
VEGT 171430Z 00000KT 2500 BR FEW020 18/14 Q1014 NOSIG,VEGT,2019-01-17T14:30:00Z,26.1,91.58,18.0,14.0,0,0,,1.55,29.940945,,,,,,TRUE,,,,BR,FEW,2000,,,,,,,IFR,,,,,,,,,,,,METAR,54.0
YMHB 171430Z 19005KT 9999 FEW012 BKN017 17/13 Q1005 RF00/0/000/2,YMHB,2019-01-17T14:30:00Z,-42.82,147.52,17.0,13.0,190,5,,6.21,29.675198,,,,,,,,,,,FEW,1200,BKN,1700,,,,,MVFR,,,,,,,,,,,,METAR,27.0
VERC 171430Z 00000KT 4000 HZ NSC 16/03 Q1016 NOSIG,VERC,2019-01-17T14:30:00Z,23.32,85.32,16.0,3.0,0,0,,2.49,30.0,,,,,,TRUE,,,,HZ,CLR,,,,,,,,IFR,,,,,,,,,,,,METAR,652.0
VABP 171430Z 05005KT 6000 NSC 18/08 Q1017 NOSIG,VABP,2019-01-17T14:30:00Z,23.27,77.33,18.0,8.0,50,5,,3.73,30.029528,,,,,,TRUE,,,,,CLR,,,,,,,,MVFR,,,,,,,,,,,,METAR,523.0
LCPH 171430Z 30009KT 9999 FEW035 14/03 Q1019,LCPH,2019-01-17T14:30:00Z,34.72,32.47,14.0,3.0,300,9,,6.21,30.088583,,,,,,,,,,,FEW,3500,,,,,,,VFR,,,,,,,,,,,,METAR,8.0
EIKN 171430Z 18003KT CAVOK 03/M01 Q1016 NOSIG,EIKN,2019-01-17T14:30:00Z,53.92,-8.82,3.0,-1.0,180,3,,6.21,30.0,,,,,,TRUE,,,,,CAVOK,,,,,,,,VFR,,,,,,,,,,,,METAR,64.0
LZIB 171430Z 03003KT 360V060 9999 FEW030 06/01 Q1008 NOSIG,LZIB,2019-01-17T14:30:00Z,48.17,17.22,6.0,1.0,30,3,,6.21,29.763779,,,,,,TRUE,,,,,FEW,3000,,,,,,,VFR,,,,,,,,,,,,METAR,134.0
LBGO 171430Z AUTO 00000KT 9999 NCD 13/M00 Q1016 NOSIG,LBGO,2019-01-17T14:30:00Z,43.15,25.72,13.0,0.0,0,0,,6.21,30.0,,,TRUE,,,TRUE,,,,,CLR,,,,,,,,VFR,,,,,,,,,,,,METAR,86.0
LBPD 171430Z AUTO 14004KT 9999 NCD 12/M04 Q1016 NOSIG,LBPD,2019-01-17T14:30:00Z,42.13,24.8,12.0,-4.0,140,4,,6.21,30.0,,,TRUE,,,TRUE,,,,,CLR,,,,,,,,VFR,,,,,,,,,,,,METAR,185.0
UBBB 171430Z 33037G50KT 9999 -SHRASN SCT010 BKN030CB OVC030 02/01 Q1012 WS RWY34 R34/290055 R35/290050 NOSIG,UBBB,2019-01-17T14:30:00Z,40.45,50.07,2.0,1.0,330,37,50,6.21,29.88189,,,,,,TRUE,,,,-SHRA -SHSN,SCT,1000,BKN,3000,OVC,3000,,,MVFR,,,,,,,,,,,,METAR,-6.0
CWPF 171430Z AUTO 01010KT 07/04 RMK AO1 T00650040,CWPF,2019-01-17T14:30:00Z,48.43,-123.43,6.5,4.0,10,10,,,,,,TRUE,TRUE,,,,,,,,,,,,,,,,,,,,,,,,,,,METAR,12.0
OPMT 171430Z 00000KT 4000 FU NSC 14/08 Q1017 NOSIG,OPMT,2019-01-17T14:30:00Z,30.18,71.42,14.0,8.0,0,0,,2.49,30.029528,,,,,,TRUE,,,,FU,CLR,,,,,,,,IFR,,,,,,,,,,,,METAR,123.0
VOCB 171430Z 08003KT 5000 HZ NSC 25/13 Q1014 NOSIG,VOCB,2019-01-17T14:30:00Z,11.02,77.03,25.0,13.0,80,3,,3.11,29.940945,,,,,,TRUE,,,,HZ,CLR,,,,,,,,MVFR,,,,,,,,,,,,METAR,399.0
OTBD 171430Z 32016KT 2000 DU NSC 20/07 Q1016 NOSIG,OTBD,2019-01-17T14:30:00Z,25.25,51.57,20.0,7.0,320,16,,1.24,30.0,,,,,,TRUE,,,,DU,CLR,,,,,,,,IFR,,,,,,,,,,,,METAR,10.0
FMCZ 171430Z AUTO 06008KT 020V080 9999 SCT020 BKN210 29/25 Q1008 NOSIG,FMCZ,2019-01-17T14:30:00Z,-12.8,45.27,29.0,25.0,60,8,,6.21,29.763779,,,TRUE,,,TRUE,,,,,SCT,2000,BKN,21000,,,,,VFR,,,,,,,,,,,,METAR,7.0
LFLP 171430Z AUTO VRB02KT 9999 SCT025 BKN033 BKN040 05/04 Q1014 TEMPO SHRA BKN014,LFLP,2019-01-17T14:30:00Z,45.92,6.08,5.0,4.0,0,2,,6.21,29.940945,,,TRUE,,,,,,,,SCT,2500,BKN,3300,BKN,4000,,,VFR,,,,,,,,,,,,METAR,463.0
LZPP 171430Z 24005KT CAVOK 04/01 Q1008,LZPP,2019-01-17T14:30:00Z,48.62,17.83,4.0,1.0,240,5,,6.21,29.763779,,,,,,,,,,,CAVOK,,,,,,,,VFR,,,,,,,,,,,,METAR,161.0
LZSL 171430Z 00000KT 0400 R36/0600N FZFG OVC002 M01/M01 Q1009,LZSL,2019-01-17T14:30:00Z,48.63,19.13,-1.0,-1.0,0,0,,0.25,29.793306,,,,,,,,,,FZFG,OVC,200,,,,,,,LIFR,,,,,,,,,,,,METAR,313.0
LQBK 171430Z 20015KT CAVOK 13/M01 Q1014 WS ALL RWY NOSIG,LQBK,2019-01-17T14:30:00Z,44.93,17.3,13.0,-1.0,200,15,,6.21,29.940945,,,,,,TRUE,,,,,CAVOK,,,,,,,,VFR,,,,,,,,,,,,METAR,122.0
LZZI 171430Z VRB02KT 8000 NSC 01/01 Q1007,LZZI,2019-01-17T14:30:00Z,49.23,18.62,1.0,1.0,0,2,,4.97,29.734253,,,,,,,,,,,CLR,,,,,,,,MVFR,,,,,,,,,,,,METAR,311.0
LQSA 171430Z VRB02KT 7000 NSC 07/00 Q1016 NOSIG,LQSA,2019-01-17T14:30:00Z,43.82,18.32,7.0,0.0,0,2,,4.35,30.0,,,,,,TRUE,,,,,CLR,,,,,,,,MVFR,,,,,,,,,,,,METAR,511.0
LQTZ 171430Z 25004KT CAVOK 11/M01 Q1015,LQTZ,2019-01-17T14:30:00Z,44.47,18.73,11.0,-1.0,250,4,,6.21,29.970472,,,,,,,,,,,CAVOK,,,,,,,,VFR,,,,,,,,,,,,METAR,306.0
BIKF 171430Z 08009KT 2500 -SN FEW005 BKN010 OVC020 M00/M00 Q1006 R19/190065,BIKF,2019-01-17T14:30:00Z,63.98,-22.6,0.0,0.0,80,9,,1.55,29.704725,,,,,,,,,,-SN,FEW,500,BKN,1000,OVC,2000,,,IFR,,,,,,,,,,,,METAR,54.0
LKKV 171430Z 24007KT 190V270 9999 -RA BKN007 BKN013 02/01 Q1001 R29/29//95,LKKV,2019-01-17T14:30:00Z,50.2,12.92,2.0,1.0,240,7,,6.21,29.557087,,,,,,,,,,-RA,BKN,700,BKN,1300,,,,,IFR,,,,,,,,,,,,METAR,604.0
LKMT 171430Z 21010KT CAVOK 08/M01 Q1004 NOSIG,LKMT,2019-01-17T14:30:00Z,49.67,18.12,8.0,-1.0,210,10,,6.21,29.64567,,,,,,TRUE,,,,,CAVOK,,,,,,,,VFR,,,,,,,,,,,,METAR,256.0
LKPR 171430Z 22013KT 9999 BKN025 06/02 Q1002 NOSIG,LKPR,2019-01-17T14:30:00Z,50.1,14.27,6.0,2.0,220,13,,6.21,29.586615,,,,,,TRUE,,,,,BKN,2500,,,,,,,MVFR,,,,,,,,,,,,METAR,365.0
LKTB 171430Z 20008KT CAVOK 08/02 Q1005 NOSIG,LKTB,2019-01-17T14:30:00Z,49.13,16.68,8.0,2.0,200,8,,6.21,29.675198,,,,,,TRUE,,,,,CAVOK,,,,,,,,VFR,,,,,,,,,,,,METAR,246.0
NTAA 171430Z AUTO VRB02KT 9999 NCD 26/22 Q1012 NOSIG,NTAA,2019-01-17T14:30:00Z,-17.55,-149.62,26.0,22.0,0,2,,6.21,29.88189,,,TRUE,,,TRUE,,,,,CLR,,,,,,,,VFR,,,,,,,,,,,,METAR,2.0
LYBE 171430Z 19007KT CAVOK 11/M00 Q1015 NOSIG,LYBE,2019-01-17T14:30:00Z,44.82,20.28,11.0,0.0,190,7,,6.21,29.970472,,,,,,TRUE,,,,,CAVOK,,,,,,,,VFR,,,,,,,,,,,,METAR,99.0
LYBT 171430Z 13005KT CAVOK 10/01 Q1015 NOSIG,LYBT,2019-01-17T14:30:00Z,44.93,20.25,10.0,1.0,130,5,,6.21,29.970472,,,,,,TRUE,,,,,CAVOK,,,,,,,,VFR,,,,,,,,,,,,METAR,80.0
LYNI 171430Z 12002KT CAVOK 06/M03 Q1017 R11/2///95 NOSIG,LYNI,2019-01-17T14:30:00Z,43.32,21.88,6.0,-3.0,120,2,,6.21,30.029528,,,,,,TRUE,,,,,CAVOK,,,,,,,,VFR,,,,,,,,,,,,METAR,202.0
LYPG 171430Z 24003KT 210V280 9999 FEW050 BKN070 07/M01 Q1021 NOSIG,LYPG,2019-01-17T14:30:00Z,42.37,19.25,7.0,-1.0,240,3,,6.21,30.147638,,,,,,TRUE,,,,,FEW,5000,BKN,7000,,,,,VFR,,,,,,,,,,,,METAR,43.0
LYTV 171430Z VRB02KT 9999 FEW033 BKN060 10/04 Q1020 NOSIG,LYTV,2019-01-17T14:30:00Z,42.38,18.72,10.0,4.0,0,2,,6.21,30.11811,,,,,,TRUE,,,,,FEW,3300,BKN,6000,,,,,VFR,,,,,,,,,,,,METAR,5.0
LYUZ 171430Z 21008KT 180V290 CAVOK 04/M04 Q1015,LYUZ,2019-01-17T14:30:00Z,43.9,19.7,4.0,-4.0,210,8,,6.21,29.970472,,,,,,,,,,,CAVOK,,,,,,,,VFR,,,,,,,,,,,,METAR,904.0
LYVR 171430Z 15020KT CAVOK 08/M03 Q1015 NOSIG,LYVR,2019-01-17T14:30:00Z,45.13,21.32,8.0,-3.0,150,20,,6.21,29.970472,,,,,,TRUE,,,,,CAVOK,,,,,,,,VFR,,,,,,,,,,,,METAR,85.0
EIDW 171430Z 28007KT 9999 FEW018 BKN250 03/M00 Q1017 NOSIG,EIDW,2019-01-17T14:30:00Z,53.42,-6.25,3.0,0.0,280,7,,6.21,30.029528,,,,,,TRUE,,,,,FEW,1800,BKN,25000,,,,,VFR,,,,,,,,,,,,METAR,85.0
EINN 171430Z 16003KT CAVOK 05/01 Q1018 NOSIG,EINN,2019-01-17T14:30:00Z,52.7,-8.92,5.0,1.0,160,3,,6.21,30.059055,,,,,,TRUE,,,,,CAVOK,,,,,,,,VFR,,,,,,,,,,,,METAR,20.0
EICK 171430Z VRB03KT 9999 FEW018 BKN280 04/M01 Q1018 NOSIG,EICK,2019-01-17T14:30:00Z,51.85,-8.47,4.0,-1.0,0,3,,6.21,30.059055,,,,,,TRUE,,,,,FEW,1800,BKN,28000,,,,,VFR,,,,,,,,,,,,METAR,162.0
OBBI 171430Z 32023KT 0800 R12L/1900 R30R/1900 DS NSC 19/05 Q1017 NOSIG,OBBI,2019-01-17T14:30:00Z,26.27,50.63,19.0,5.0,320,23,,0.5,30.029528,,,,,,TRUE,,,,DS,CLR,,,,,,,,LIFR,,,,,,,,,,,,METAR,2.0
OIII 171430Z 25012KT 9999 SCT025 FEW030CB SCT090 04/03 Q1003 A2963,OIII,2019-01-17T14:30:00Z,35.68,51.3,4.0,3.0,250,12,,6.21,29.616142,,,,,,,,,,,SCT,2500,FEW,3000,SCT,9000,,,VFR,,,,,,,,,,,,METAR,1191.0
OIFM 171430Z 26025KT 9999 FEW040 05/M05 Q1008 A2979,OIFM,2019-01-17T14:30:00Z,32.75,51.87,5.0,-5.0,260,25,,6.21,29.763779,,,,,,,,,,,FEW,4000,,,,,,,VFR,,,,,,,,,,,,METAR,1542.0
OIAW 171430Z 33004KT 1000 R12/P2000 R30/P2000 DU VV/// 13/05 Q1016,OIAW,2019-01-17T14:30:00Z,31.32,48.77,13.0,5.0,330,4,,0.62,30.0,,,,,,,,,,DU,OVX,0,,,,,,,LIFR,,,,,,,,,,,,METAR,22.0
VTSM 171430Z VRB02KT 9999 FEW020 27/25 Q1012 RETS NOSIG,VTSM,2019-01-17T14:30:00Z,9.55,100.07,27.0,25.0,0,2,,6.21,29.88189,,,,,,TRUE,,,,,FEW,2000,,,,,,,VFR,,,,,,,,,,,,METAR,17.0
OIKB 171430Z 23008KT 6000 SCT030 24/20 Q1012 A2988,OIKB,2019-01-17T14:30:00Z,27.22,56.37,24.0,20.0,230,8,,3.73,29.88189,,,,,,,,,,,SCT,3000,,,,,,,MVFR,,,,,,,,,,,,METAR,10.0
LBBG 171430Z 13007KT CAVOK 08/03 Q1017 NOSIG,LBBG,2019-01-17T14:30:00Z,42.57,27.52,8.0,3.0,130,7,,6.21,30.029528,,,,,,TRUE,,,,,CAVOK,,,,,,,,VFR,,,,,,,,,,,,METAR,28.0
WIPP 171430Z 02002KT 7000 FEW012 27/26 Q1009,WIPP,2019-01-17T14:30:00Z,-2.88,104.7,27.0,26.0,20,2,,4.35,29.793306,,,,,,,,,,,FEW,1200,,,,,,,MVFR,,,,,,,,,,,,METAR,10.0
KRDD 171430Z 160/19G25KT 10SM SCT050 BKN070 OVC100 11/08 A2973,KRDD,2019-01-17T14:30:00Z,40.52,-122.3,11.0,8.0,,,,10.0,29.731298,,,,,,,,,,,SCT,5000,BKN,7000,OVC,10000,,,VFR,,,,,,,,,,,,METAR,155.0
KHEQ 171430Z AUTO 28009KT 10SM CLR M02/M06 A3003 RMK AO2,KHEQ,2019-01-17T14:30:00Z,40.57,-102.28,-2.0,-6.0,280,9,,10.0,30.029528,,,TRUE,TRUE,,,,,,,CLR,,,,,,,,VFR,,,,,,,,,,,,METAR,1137.0
UTDD 171430Z 07005MPS 9999 NSC 08/M04 Q1017 R09/D NOSIG RMK QFE694/0926,UTDD,2019-01-17T14:30:00Z,38.53,68.82,8.0,-4.0,70,10,,6.21,30.029528,,,,,,TRUE,,,,,CLR,,,,,,,,VFR,,,,,,,,,,,,METAR,803.0
OICK 171430Z 24014KT 9999 FEW035CB SCT040 06/M05 Q1011,OICK,2019-01-17T14:30:00Z,33.43,48.28,6.0,-5.0,240,14,,6.21,29.852362,,,,,,,,,,,FEW,3500,SCT,4000,,,,,VFR,,,,,,,,,,,,METAR,1155.0
OIBB 171430Z 33012KT 5000 SA FEW030 16/06 Q1016 A3002,OIBB,2019-01-17T14:30:00Z,28.97,50.82,16.0,6.0,330,12,,3.11,30.0,,,,,,,,,,SA,FEW,3000,,,,,,,MVFR,,,,,,,,,,,,METAR,19.0
OITT 171430Z 24008KT 8000 3500E FEW030 SCT032CB OVC170 02/M01 Q1004 A2965,OITT,2019-01-17T14:30:00Z,38.13,46.23,2.0,-1.0,240,8,,4.97,29.64567,,,,,,,,,,,FEW,3000,SCT,3200,OVC,17000,,,MVFR,,,,,,,,,,,,METAR,1361.0
OISS 171430Z 24010G22KT 6000 FEW030CB FEW035TCU 10/02 Q1014 A2996,OISS,2019-01-17T14:30:00Z,29.52,52.57,10.0,2.0,240,10,22,3.73,29.940945,,,,,,,,,,,FEW,3000,FEW,3500,,,,,MVFR,,,,,,,,,,,,METAR,1491.0
OIMM 171430Z 08008KT 9999 FEW035 SCT090 BKN200 17/01 Q1003 A2964,OIMM,2019-01-17T14:30:00Z,36.23,59.62,17.0,1.0,80,8,,6.21,29.616142,,,,,,,,,,,FEW,3500,SCT,9000,BKN,20000,,,VFR,,,,,,,,,,,,METAR,980.0
UTDK 171430Z 04004MPS 9999 NSC 10/M04 Q1016 R01/09//70 RMK QFE705/0940,UTDK,2019-01-17T14:30:00Z,37.98,69.8,10.0,-4.0,40,8,,6.21,30.0,,,,,,,,,,,CLR,,,,,,,,VFR,,,,,,,,,,,,METAR,699.0
UTDL 171430Z 08007MPS 4800 BR NSC 04/01 Q1017 R08/CLRD70 NOSIG RMK QFE723/0965,UTDL,2019-01-17T14:30:00Z,40.22,69.7,4.0,1.0,80,14,,2.98,30.029528,,,,,,TRUE,,,,BR,CLR,,,,,,,,IFR,,,,,,,,,,,,METAR,442.0
UTDT 171430Z 29001MPS 8000 SCT200 10/03 Q1015 R35/////// RMK QFE722/0962,UTDT,2019-01-17T14:30:00Z,37.87,68.87,10.0,3.0,290,2,,4.97,29.970472,,,,,,,,,,,SCT,20000,,,,,,,MVFR,,,,,,,,,,,,METAR,449.0
VECC 171430Z 00000KT 2600 HZ NSC 18/10 Q1014 NOSIG,VECC,2019-01-17T14:30:00Z,22.65,88.43,18.0,10.0,0,0,,1.62,29.940945,,,,,,TRUE,,,,HZ,CLR,,,,,,,,IFR,,,,,,,,,,,,METAR,6.0
UDSG 171430Z 33014KT 9000 OVC026 M04/M10 Q1007 R02/350140 NOSIG,UDSG,2019-01-17T14:30:00Z,40.75,43.87,-4.0,-10.0,330,14,,5.59,29.734253,,,,,,TRUE,,,,,OVC,2600,,,,,,,MVFR,,,,,,,,,,,,METAR,1524.0
UDYZ 171430Z 23004KT 9999 BKN020 03/00 Q1006 R09/190065 NOSIG,UDYZ,2019-01-17T14:30:00Z,40.15,44.4,3.0,0.0,230,4,,6.21,29.704725,,,,,,TRUE,,,,,BKN,2000,,,,,,,MVFR,,,,,,,,,,,,METAR,865.0
VOMM 171430Z 05006KT 3500 BR NSC 25/21 Q1014 BECMG 3000 BR,VOMM,2019-01-17T14:30:00Z,13.0,80.17,25.0,21.0,50,6,,2.17,29.940945,,,,,,,,,,BR,CLR,,,,,,,,IFR,,,,,,,,,,,,METAR,16.0
VOCI 171430Z 00000KT 4000 HZ NSC 26/21 Q1010 NOSIG,VOCI,2019-01-17T14:30:00Z,10.15,76.4,26.0,21.0,0,0,,2.49,29.822834,,,,,,TRUE,,,,HZ,CLR,,,,,,,,IFR,,,,,,,,,,,,METAR,8.0
VABB 171430Z 28003KT 2200 FU NSC 26/16 Q1012 NOSIG,VABB,2019-01-17T14:30:00Z,19.1,72.87,26.0,16.0,280,3,,1.37,29.88189,,,,,,TRUE,,,,FU,CLR,,,,,,,,IFR,,,,,,,,,,,,METAR,8.0
VDSR 171430Z VRB03KT 9000 SCT017 SCT040 28/21 Q1011,VDSR,2019-01-17T14:30:00Z,13.42,103.83,28.0,21.0,0,3,,5.59,29.852362,,,,,,,,,,,SCT,1700,SCT,4000,,,,,VFR,,,,,,,,,,,,METAR,15.0
VDPP 171430Z VRB03KT 9000 SCT017 SCT040 23/23 Q1011,VDPP,2019-01-17T14:30:00Z,11.55,104.83,23.0,23.0,0,3,,5.59,29.852362,,,,,,,,,,,SCT,1700,SCT,4000,,,,,VFR,,,,,,,,,,,,METAR,10.0
VYYY 171430Z 32002KT 7000 NSC 25/19 Q1012,VYYY,2019-01-17T14:30:00Z,16.9,96.13,25.0,19.0,320,2,,4.35,29.88189,,,,,,,,,,,CLR,,,,,,,,MVFR,,,,,,,,,,,,METAR,33.0
VLVT 171430Z 09006KT 3000 BR NSC 24/16 Q1016 NOSIG,VLVT,2019-01-17T14:30:00Z,17.98,102.57,24.0,16.0,90,6,,1.86,30.0,,,,,,TRUE,,,,BR,CLR,,,,,,,,IFR,,,,,,,,,,,,METAR,171.0
VDSV 171430Z 15002KT 9000 FEW015 28/23 Q1011,VDSV,2019-01-17T14:30:00Z,10.58,103.63,28.0,23.0,150,2,,5.59,29.852362,,,,,,,,,,,FEW,1500,,,,,,,VFR,,,,,,,,,,,,METAR,10.0
UCFO 171430Z 12002MPS 0900 0350NW R12/1000D FZFG FEW008 M00/M01 Q1018 R12/CLRD95 TEMPO 0200 FZFG FU,UCFO,2019-01-17T14:30:00Z,40.6,72.8,0.0,-1.0,120,4,,0.56,30.059055,,,,,,,,,,FZFG,FEW,800,,,,,,,LIFR,,,,,,,,,,,,METAR,884.0
UCFM 171430Z 32001MPS CAVOK M00/M04 Q1018 R08/09//95 NOSIG,UCFM,2019-01-17T14:30:00Z,43.07,74.48,0.0,-4.0,320,2,,6.21,30.059055,,,,,,TRUE,,,,,CAVOK,,,,,,,,VFR,,,,,,,,,,,,METAR,633.0
VIDP 171430Z 30005KT 1500 R28/P2000 R29/P2000 FU NSC 15/09 Q1017 NOSIG,VIDP,2019-01-17T14:30:00Z,28.57,77.12,15.0,9.0,300,5,,0.93,30.029528,,,,,,TRUE,,,,FU,CLR,,,,,,,,LIFR,,,,,,,,,,,,METAR,233.0
VEBS 171430Z 14003KT 2500 HZ NSC 20/17 Q1014 NOSIG,VEBS,2019-01-17T14:30:00Z,20.25,85.82,20.0,17.0,140,3,,1.55,29.940945,,,,,,TRUE,,,,HZ,CLR,,,,,,,,IFR,,,,,,,,,,,,METAR,46.0
VVCT 171430Z 07007KT 9999 FEW015 SCT040 26/22 Q1012 NOSIG,VVCT,2019-01-17T14:30:00Z,10.08,105.72,26.0,22.0,70,7,,6.21,29.88189,,,,,,TRUE,,,,,FEW,1500,SCT,4000,,,,,VFR,,,,,,,,,,,,METAR,3.0
VVCR 171430Z 06011KT 9999 SCT013 26/24 Q1016 NOSIG,VVCR,2019-01-17T14:30:00Z,12.0,109.22,26.0,24.0,60,11,,6.21,30.0,,,,,,TRUE,,,,,SCT,1300,,,,,,,VFR,,,,,,,,,,,,METAR,12.0
VVCI 171430Z 10002KT 9999 BKN033 16/12 Q1023 NOSIG,VVCI,2019-01-17T14:30:00Z,20.82,106.73,16.0,12.0,100,2,,6.21,30.206694,,,,,,TRUE,,,,,BKN,3300,,,,,,,VFR,,,,,,,,,,,,METAR,3.0
OPRN 171429Z 27004KT 4000 HZ NSC 12/05 Q1018 NOSIG RMK A3009,OPRN,2019-01-17T14:29:00Z,33.62,73.08,12.0,5.0,270,4,,2.49,30.059055,,,,,,TRUE,,,,HZ,CLR,,,,,,,,IFR,,,,,,,,,,,,SPECI,508.0
TJNR 171429Z AUTO 00000KT 10SM FEW020 SCT028 BKN120 25/21 A3014 RMK AO2 T02500211,TJNR,2019-01-17T14:29:00Z,18.25,-65.63,25.0,21.1,0,0,,10.0,30.138779,,,TRUE,TRUE,,,,,,,FEW,2000,SCT,2800,BKN,12000,,,VFR,,,,,,,,,,,,METAR,12.0
KDPA 171429Z 05004KT 2 1/2SM BR OVC009 M02/M04 A3008 RMK AO2 T10171039,KDPA,2019-01-17T14:29:00Z,41.92,-88.25,-1.7,-3.9,50,4,,2.5,30.079725,,,,TRUE,,,,,,BR,OVC,900,,,,,,,IFR,,,,,,,,,,,,SPECI,231.0
KOLM 171429Z AUTO 36004KT 6SM -RA BR FEW035 BKN080 BKN095 03/03 A2943 RMK AO2 RAB20 P0000 T00330033,KOLM,2019-01-17T14:29:00Z,46.97,-122.9,3.3,3.3,360,4,,6.0,29.430119,,,TRUE,TRUE,,,,,,-RA BR,FEW,3500,BKN,8000,BKN,9500,,,VFR,,,,,,0.005,,,,,,SPECI,58.0
KMWL 171429Z AUTO 33010KT 3SM BR OVC011 09/07 A3014 RMK AO2 T00890072,KMWL,2019-01-17T14:29:00Z,32.78,-98.07,8.9,7.2,330,10,,3.0,30.138779,,,TRUE,TRUE,,,,,,BR,OVC,1100,,,,,,,MVFR,,,,,,,,,,,,SPECI,284.0
KFWA 171429Z 10007KT 2SM -SN BR BKN006 OVC016 M01/M02 A3011 RMK AO2 P0000 T10061017 $,KFWA,2019-01-17T14:29:00Z,40.98,-85.18,-0.6,-1.7,100,7,,2.0,30.109253,,,,TRUE,TRUE,,,,,-SN BR,BKN,600,OVC,1600,,,,,IFR,,,,,,0.005,,,,,,SPECI,248.0
KSSF 171429Z 26008KT 9SM OVC004 12/11 A3019 RMK AO2 T01220106,KSSF,2019-01-17T14:29:00Z,29.33,-98.47,12.2,10.6,260,8,,9.0,30.188976,,,,TRUE,,,,,,,OVC,400,,,,,,,LIFR,,,,,,,,,,,,SPECI,176.0
KCDD 171429Z AUTO 00000KT 10SM SCT085 OVC110 M19/M22 A3011 RMK AO2,KCDD,2019-01-17T14:29:00Z,48.27,-92.48,-19.0,-22.0,0,0,,10.0,30.109253,,,TRUE,TRUE,,,,,,,SCT,8500,OVC,11000,,,,,VFR,,,,,,,,,,,,METAR,341.0
KEDW 171429Z 05006KT 2 1/4SM +RA BR BKN007 OVC015 10/10 A3004 RMK AO2A VIS 2 1/4V2 3/4 CIG 007V015 SLP169,KEDW,2019-01-17T14:29:00Z,34.88,-117.87,10.0,10.0,50,6,,2.25,30.041338,1016.9,,,TRUE,,,,,,+RA BR,BKN,700,OVC,1500,,,,,IFR,,,,,,,,,,,,SPECI,702.0
ETNS 171429Z 29014KT 7000 -SHRA SCT012CB BKN022 BKN060 04/01 Q0994 WHT BLU TEMPO GRN,ETNS,2019-01-17T14:29:00Z,54.47,9.52,4.0,1.0,290,14,,4.35,29.350393,,,,,,,,,,-SHRA,SCT,1200,BKN,2200,BKN,6000,,,MVFR,,,,,,,,,,,,SPECI,25.0
KSXT 171429Z AUTO 17017G28KT 2SM UP BR BKN003 OVC009 02/02 A2951 RMK AO2 PK WND 20032/1416 VIS 1 1/4V3 P0000 T00170017,KSXT,2019-01-17T14:29:00Z,42.6,-123.37,1.7,1.7,170,17,28,2.0,29.509842,,,TRUE,TRUE,,,,,,BR UP,BKN,300,OVC,900,,,,,LIFR,,,,,,0.005,,,,,,SPECI,1170.0
CYHD 171428Z AUTO 29006KT 1 3/4SM -SN OVC034 M21/M24 A3008 RMK SLP238,CYHD,2019-01-17T14:28:00Z,49.82,-92.75,-21.0,-24.0,290,6,,1.75,30.079725,1023.8,,TRUE,,,,,,,-SN,OVC,3400,,,,,,,IFR,,,,,,,,,,,,SPECI,413.0
K9L2 171428Z AUTO 06004KT 5/8SM RA BR SCT002 OVC009 10/09 A3005 RMK AO2 CIG 008V010 SLP172 RVRNO,K9L2,2019-01-17T14:28:00Z,34.97,-117.87,10.0,9.0,60,4,,0.63,30.050198,1017.2,,TRUE,TRUE,,,,,,RA BR,SCT,200,OVC,900,,,,,LIFR,,,,,,,,,,,,SPECI,701.0
KRBD 171428Z 30014G21KT 10SM BKN014 11/08 A3010 RMK AO2 T01060078,KRBD,2019-01-17T14:28:00Z,32.68,-96.87,10.6,7.8,300,14,21,10.0,30.100393,,,,TRUE,,,,,,,BKN,1400,,,,,,,MVFR,,,,,,,,,,,,SPECI,203.0
KMTO 171428Z AUTO 14004KT 3SM BR BKN013 OVC020 02/02 A3002 RMK AO2 RAE15UPB15E26 P0000 T00170017,KMTO,2019-01-17T14:28:00Z,39.47,-88.27,1.7,1.7,140,4,,3.0,30.02067,,,TRUE,TRUE,,,,,,BR,BKN,1300,OVC,2000,,,,,MVFR,,,,,,0.005,,,,,,SPECI,214.0
KMEI 171428Z 20005KT 3SM -RA BR BKN041 OVC050 08/07 A3023 RMK AO2 P0002 I1000 T00780067,KMEI,2019-01-17T14:28:00Z,32.33,-88.75,7.8,6.7,200,5,,3.0,30.230314,,,,TRUE,,,,,,-RA BR,BKN,4100,OVC,5000,,,,,MVFR,,,,,,0.02,,,,,,SPECI,89.0
KCAK 171428Z 12008KT 8SM SCT009 OVC028 M04/M08 A3020 RMK AO2 T10391078,KCAK,2019-01-17T14:28:00Z,40.92,-81.45,-3.9,-7.8,120,8,,8.0,30.200787,,,,TRUE,,,,,,,SCT,900,OVC,2800,,,,,MVFR,,,,,,,,,,,,SPECI,377.0
KBVO 171428Z AUTO 00000KT 9SM SCT007 BKN020 OVC032 04/03 A3013 RMK AO2 T00390028,KBVO,2019-01-17T14:28:00Z,36.77,-96.02,3.9,2.8,0,0,,9.0,30.129921,,,TRUE,TRUE,,,,,,,SCT,700,BKN,2000,OVC,3200,,,MVFR,,,,,,,,,,,,SPECI,210.0
YSCB 171428Z AUTO 06014KT 050V120 9999 TSRA SCT019 SCT036 BKN063 21/18 Q1014,YSCB,2019-01-17T14:28:00Z,-35.28,149.17,21.0,18.0,60,14,,6.21,29.940945,,,TRUE,,,,,,,TSRA,SCT,1900,SCT,3600,BKN,6300,,,VFR,,,,,,,,,,,,SPECI,577.0
PAJC 171428Z AUTO 08003KT 10SM SCT020 SCT026 OVC036 04/02 A2955 RMK AO2 RAE05 P0000,PAJC,2019-01-17T14:28:00Z,56.32,-158.37,4.0,2.0,80,3,,10.0,29.551182,,,TRUE,TRUE,,,,,,,SCT,2000,SCT,2600,OVC,3600,,,VFR,,,,,,0.005,,,,,,SPECI,15.0
KROG 171428Z 34008KT 2SM BR OVC003 07/07 A3004 RMK AO2 RAE27 P0000,KROG,2019-01-17T14:28:00Z,36.37,-94.08,7.0,7.0,340,8,,2.0,30.041338,,,,TRUE,,,,,,BR,OVC,300,,,,,,,LIFR,,,,,,0.005,,,,,,SPECI,415.0
CYBX 171428Z 21019KT 3SM -SN BKN010 OVC032 M02/M03 A2947 RMK SC6SC2 SLP986,CYBX,2019-01-17T14:28:00Z,51.45,-57.17,-2.0,-3.0,210,19,,3.0,29.471457,998.6,,,,,,,,,-SN,BKN,1000,OVC,3200,,,,,MVFR,,,,,,,,,,,,SPECI,35.0
CYXN 171428Z 34011KT 15SM FEW240 M36/M40 A2989 RMK CI1 CI TR -30.7/-37.4/0/0.0MM SLP124,CYXN,2019-01-17T14:28:00Z,62.22,-92.58,-36.0,-40.0,340,11,,15.0,29.890747,1012.4,,,,,,,,,,FEW,24000,,,,,,,VFR,,,,,,,,,,,,SPECI,20.0
CYQU 171427Z 05010KT 5SM IC -SN SCT009 OVC018 M19/M22 A3014 RMK SC3SC5 SLP272,CYQU,2019-01-17T14:27:00Z,55.18,-118.88,-19.0,-22.0,50,10,,5.0,30.138779,1027.2,,,,,,,,,IC -SN,SCT,900,OVC,1800,,,,,MVFR,,,,,,,,,,,,SPECI,669.0
KINS 171427Z AUTO 10019KT 10SM -RA SCT060 BKN095 09/09 A3000 RMK AO2 RAB27 SLP145 $,KINS,2019-01-17T14:27:00Z,36.58,-115.67,9.0,9.0,100,19,,10.0,30.0,1014.5,,TRUE,TRUE,TRUE,,,,,-RA,SCT,6000,BKN,9500,,,,,VFR,,,,,,,,,,,,METAR,955.0
KDAL 171427Z 31009KT 10SM BKN013 BKN017 BKN250 11/08 A3010 RMK AO2 T01060083 $,KDAL,2019-01-17T14:27:00Z,32.85,-96.85,10.6,8.3,310,9,,10.0,30.100393,,,,TRUE,TRUE,,,,,,BKN,1300,BKN,1700,BKN,25000,,,MVFR,,,,,,,,,,,,SPECI,158.0
KCNO 171427Z AUTO 08003KT 5SM BR BKN024 OVC036 15/14 A3011 RMK AO2 RAE26 P0000 T01500144,KCNO,2019-01-17T14:27:00Z,33.98,-117.62,15.0,14.4,80,3,,5.0,30.109253,,,TRUE,TRUE,,,,,,BR,BKN,2400,OVC,3600,,,,,MVFR,,,,,,0.005,,,,,,SPECI,207.0
KSWO 171427Z 31009KT 7SM BKN008 OVC024 04/02 A3014 RMK AO2 CIG 006V010 T00440022,KSWO,2019-01-17T14:27:00Z,36.17,-97.08,4.4,2.2,310,9,,7.0,30.138779,,,,TRUE,,,,,,,BKN,800,OVC,2400,,,,,IFR,,,,,,,,,,,,SPECI,290.0
KMVN 171427Z AUTO 23005KT 1/2SM -RA FG OVC003 06/06 A3004 RMK AO2 RAB23 P0000,KMVN,2019-01-17T14:27:00Z,38.32,-88.87,6.0,6.0,230,5,,0.5,30.041338,,,TRUE,TRUE,,,,,,-RA FG,OVC,300,,,,,,,LIFR,,,,,,0.005,,,,,,SPECI,146.0
KJAC 171427Z 23009KT 1 3/4SM -SN BR FEW004 OVC019 M02/M02 A2991 RMK AO2 P0000,KJAC,2019-01-17T14:27:00Z,43.62,-110.73,-2.0,-2.0,230,9,,1.75,29.911417,,,,TRUE,,,,,,-SN BR,FEW,400,OVC,1900,,,,,IFR,,,,,,0.005,,,,,,SPECI,1961.0
KGTR 171427Z 17010KT 7SM -RA SCT009 OVC034 08/08 A3017 RMK AO2 RAB00 P0001,KGTR,2019-01-17T14:27:00Z,33.45,-88.57,8.0,8.0,170,10,,7.0,30.171259,,,,TRUE,,,,,,-RA,SCT,900,OVC,3400,,,,,VFR,,,,,,0.01,,,,,,SPECI,80.0
CYUY 171427Z 21003KT 15SM -SN FEW050 BKN070 OVC180 M25/M28 A3019 RMK SC1AC7AC1 SC TR SLP267,CYUY,2019-01-17T14:27:00Z,48.2,-78.82,-25.0,-28.0,210,3,,15.0,30.188976,1026.7,,,,,,,,,-SN,FEW,5000,BKN,7000,OVC,18000,,,VFR,,,,,,,,,,,,SPECI,301.0
CYXZ 171427Z VRB02KT 3SM -SN OVC034 M17/M19 A3008 RMK SC8 SLP220,CYXZ,2019-01-17T14:27:00Z,47.97,-84.77,-17.0,-19.0,0,2,,3.0,30.079725,1022.0,,,,,,,,,-SN,OVC,3400,,,,,,,MVFR,,,,,,,,,,,,SPECI,287.0
MMML 171427Z RTD 14002KT 0SM FG VV000 08/08 A3015 RMK 8//// RTS,MMML,2019-01-17T14:27:00Z,32.62,-115.23,8.0,8.0,140,2,,0.0,30.15059,,,,,,,,,,FG,OVX,0,,,,,,,LIFR,,,,,,,,,,,0,METAR,22.0
OTBH 171427Z 33023G28KT 1000 BLDU SCT015 20/06 A3001 RMK DZB24 SLPNO,OTBH,2019-01-17T14:27:00Z,25.12,51.32,20.0,6.0,330,23,28,0.62,30.008858,,,,,,,,,,BLDU,SCT,1500,,,,,,,LIFR,,,,,,,,,,,,METAR,40.0
EGDR 171427Z 02008KT 9999 FEW030 BKN200 07/01 Q1018 BLU NOSIG,EGDR,2019-01-17T14:27:00Z,50.08,-5.25,7.0,1.0,20,8,,6.21,30.059055,,,,,,TRUE,,,,,FEW,3000,BKN,20000,,,,,VFR,,,,,,,,,,,,SPECI,82.0
KSKA 171426Z 07006KT 7SM FZRA OVC004 M01/M01 A2960 RMK AO2A SLP046,KSKA,2019-01-17T14:26:00Z,47.62,-117.65,-1.0,-1.0,70,6,,7.0,29.601377,1004.6,,,TRUE,,,,,,FZRA,OVC,400,,,,,,,LIFR,,,,,,,,,,,,SPECI,750.0
PGUA 171426Z 09019KT 10SM BKN014 OVC022 26/23 A2984 RMK AO2A BKN V OVC CIG 013 RWY24L SLP095 $,PGUA,2019-01-17T14:26:00Z,13.57,144.92,26.0,23.0,90,19,,10.0,29.840551,1009.5,,,TRUE,TRUE,,,,,,BKN,1400,OVC,2200,,,,,MVFR,,,,,,,,,,,,SPECI,187.0
ETIC 171426Z AUTO 23009G17KT 9999 SCT015 OVC100 05/04 A2962 RMK AO2 SLPNO $,ETIC,2019-01-17T14:26:00Z,49.7,11.93,5.0,4.0,230,9,17,6.21,29.619095,,,TRUE,TRUE,TRUE,,,,,,SCT,1500,OVC,10000,,,,,VFR,,,,,,,,,,,,SPECI,415.0
EGUN 171426Z 31012G20KT 9999 SCT032 04/01 A2987 RMK AO2A SLPNO WND DATA ESTMD $,EGUN,2019-01-17T14:26:00Z,52.37,0.47,4.0,1.0,310,12,20,6.21,29.870079,,,,TRUE,TRUE,,,,,,SCT,3200,,,,,,,VFR,,,,,,,,,,,,METAR,10.0
KPPF 171426Z AUTO 36009KT 6SM BR OVC004 02/02 A3010 RMK AO2 T00220022,KPPF,2019-01-17T14:26:00Z,37.33,-95.5,2.2,2.2,360,9,,6.0,30.100393,,,TRUE,TRUE,,,,,,BR,OVC,400,,,,,,,LIFR,,,,,,,,,,,,SPECI,274.0
KOLF 171426Z AUTO 08003KT 7SM SCT020 OVC042 M06/M07 A3010 RMK AO2 T10561072 TSNO,KOLF,2019-01-17T14:26:00Z,48.1,-105.58,-5.6,-7.2,80,3,,7.0,30.100393,,,TRUE,TRUE,,,TRUE,,,,SCT,2000,OVC,4200,,,,,VFR,,,,,,,,,,,,SPECI,604.0
KHSI 171426Z AUTO 00000KT 2SM BR SCT022 M02/M03 A3006 RMK AO2 T10171033,KHSI,2019-01-17T14:26:00Z,40.6,-98.43,-1.7,-3.3,0,0,,2.0,30.059055,,,TRUE,TRUE,,,,,,BR,SCT,2200,,,,,,,IFR,,,,,,,,,,,,SPECI,591.0
CZPC 171426Z AUTO 10010KT 1 1/2SM -SN OVC003 M10/M11 A2996 RMK ICG PAST HR SLP217,CZPC,2019-01-17T14:26:00Z,49.52,-114.0,-10.0,-11.0,100,10,,1.5,29.958662,1021.7,,TRUE,,,,,,,-SN,OVC,300,,,,,,,LIFR,,,,,,,,,,,,SPECI,1190.0
KROX 171426Z AUTO 33003KT 10SM OVC100 M17/M20 A3014 RMK AO2,KROX,2019-01-17T14:26:00Z,48.85,-95.7,-17.0,-20.0,330,3,,10.0,30.138779,,,TRUE,TRUE,,,,,,,OVC,10000,,,,,,,VFR,,,,,,,,,,,,SPECI,323.0
KBAD 171426Z 22004KT 10SM OVC007 14/14 A3007 RMK AO2A SLP185,KBAD,2019-01-17T14:26:00Z,32.5,-93.67,14.0,14.0,220,4,,10.0,30.070866,1018.5,,,TRUE,,,,,,,OVC,700,,,,,,,IFR,,,,,,,,,,,,SPECI,51.0
EBBE 171425Z 28011KT 9999 FEW012 SCT017 BKN050 03/00 Q1007 WHT WHT TEMPO GRN,EBBE,2019-01-17T14:25:00Z,50.75,4.77,3.0,0.0,280,11,,6.21,29.734253,,,,,,,,,,,FEW,1200,SCT,1700,BKN,5000,,,VFR,,,,,,,,,,,,METAR,127.0
EBBL 171425Z 26010KT 9999 FEW018 SCT022 BKN070 03/01 Q1006 WHT BLU TEMPO GRN,EBBL,2019-01-17T14:25:00Z,51.17,5.47,3.0,1.0,260,10,,6.21,29.704725,,,,,,,,,,,FEW,1800,SCT,2200,BKN,7000,,,VFR,,,,,,,,,,,,METAR,64.0
EBCV 171425Z AUTO 29014KT 9999 SCT026/// 04/00 Q1009 BLU,EBCV,2019-01-17T14:25:00Z,50.57,3.82,4.0,0.0,290,14,,6.21,29.793306,,,TRUE,,,,,,,,SCT,2600,,,,,,,VFR,,,,,,,,,,,,METAR,63.0
EBDT 171425Z AUTO 28010KT 9999 FEW009/// SCT055/// BKN120/// 02/01 Q1007 BLU,EBDT,2019-01-17T14:25:00Z,51.02,5.07,2.0,1.0,280,10,,6.21,29.734253,,,TRUE,,,,,,,,FEW,900,SCT,5500,BKN,12000,,,VFR,,,,,,,,,,,,METAR,54.0
EBLB 171425Z AUTO 30010KT 1200 -SN OVC005/// M01/M01 Q1004 AMB,EBLB,2019-01-17T14:25:00Z,50.47,6.17,-1.0,-1.0,300,10,,0.75,29.64567,,,TRUE,,,,,,,-SN,OVC,500,,,,,,,LIFR,,,,,,,,,,,,METAR,570.0
EBFN 171425Z 31017KT 9999 SCT027 05/M01 Q1010 BLU BLU TEMPO WHT,EBFN,2019-01-17T14:25:00Z,51.07,2.63,5.0,-1.0,310,17,,6.21,29.822834,,,,,,,,,,,SCT,2700,,,,,,,VFR,,,,,,,,,,,,METAR,9.0
KC99 171425Z AUTO 29018G26KT 10SM CLR M08/M10 A3004 RMK AO2,KC99,2019-01-17T14:25:00Z,29.87,-105.55,-8.0,-10.0,290,18,26,10.0,30.041338,,,TRUE,TRUE,,,,,,,CLR,,,,,,,,VFR,,,,,,,,,,,,METAR,3320.0
PPNU 171425Z AUTO 10012KT 7SM CLR M22/M24 A2998 RMK AO1,PPNU,2019-01-17T14:25:00Z,70.42,-150.03,-22.0,-24.0,100,12,,7.0,29.97933,,,TRUE,TRUE,,,,,,,CLR,,,,,,,,VFR,,,,,,,,,,,,METAR,27.0
OPLA 171425Z 00000KT 4000 FU NSC 13/06 Q1017 RMK QFE992 RMK A30.03,OPLA,2019-01-17T14:25:00Z,31.52,74.4,13.0,6.0,0,0,,2.49,30.029528,,,,,,,,,,FU,CLR,,,,,,,,IFR,,,,,,,,,,,,SPECI,217.0
OPKC 171425Z 05012KT 5000 HZ NSC 22/02 Q1016 NOSIG,OPKC,2019-01-17T14:25:00Z,24.88,67.17,22.0,2.0,50,12,,3.11,30.0,,,,,,TRUE,,,,HZ,CLR,,,,,,,,MVFR,,,,,,,,,,,,METAR,22.0
OPIS 171425Z 25006KT 5000 HZ FEW100 08/04 Q1017 RH74,OPIS,2019-01-17T14:25:00Z,33.55,72.83,8.0,4.0,250,6,,3.11,30.029528,,,,,,,,,,HZ,FEW,10000,,,,,,,MVFR,,,,,,,,,,,,METAR,537.0
EHSC 171425Z AUTO 30037KT 8000 DZ ///////// 04/02 Q1005 W07/H28,EHSC,2019-01-17T14:25:00Z,51.93,3.67,4.0,2.0,300,37,,4.97,29.675198,,,TRUE,,,,,,,DZ,,,,,,,,,,,,,,,,,,,,,METAR,50.0
EHSA 171425Z AUTO 28038KT 4300 -RADZ ///////// 04/02 Q1005 W06/H29,EHSA,2019-01-17T14:25:00Z,52.0,3.28,4.0,2.0,280,38,,2.67,29.675198,,,TRUE,,,,,,,-RA -DZ,,,,,,,,,,,,,,,,,,,,,METAR,50.0
EHPG 171425Z AUTO 33041KT 300V360 9999 -UP FEW014 SCT017 BKN020 03/01 Q1004 REUPRA W///H///,EHPG,2019-01-17T14:25:00Z,52.37,3.35,3.0,1.0,330,41,,6.21,29.64567,,,TRUE,,,,,,,UP,FEW,1400,SCT,1700,BKN,2000,,,MVFR,,,,,,,,,,,,METAR,50.0
EHMG 171425Z AUTO 35023KT 9999 FEW004 03/00 Q1002 REDZ W///H///,EHMG,2019-01-17T14:25:00Z,53.62,4.97,3.0,0.0,350,23,,6.21,29.586615,,,TRUE,,,,,,,,FEW,400,,,,,,,VFR,,,,,,,,,,,,METAR,50.0
EHMA 171425Z AUTO 32029KT //// // FEW015 04/M01 Q0999 RE// W///H///,EHMA,2019-01-17T14:25:00Z,53.5,5.95,4.0,-1.0,320,29,,,29.498032,,,TRUE,,,,,,,,FEW,1500,,,,,,,,,,,,,,,,,,,METAR,50.0
EHKV 171425Z AUTO 33025KT 9999 FEW015 05/M00 Q1005 W///H///,EHKV,2019-01-17T14:25:00Z,53.27,3.63,5.0,0.0,330,25,,6.21,29.675198,,,TRUE,,,,,,,,FEW,1500,,,,,,,VFR,,,,,,,,,,,,METAR,50.0
EHJR 171425Z AUTO 35031KT //// // ///////// 05/M01 Q1005 RE// W///H35,EHJR,2019-01-17T14:25:00Z,53.22,3.22,5.0,-1.0,350,31,,,29.675198,,,TRUE,,,,,,,,,,,,,,,,,,,,,,,,,,,,METAR,50.0
EHJA 171425Z AUTO 32031KT 290V350 9999 FEW028/// SCT034/// 06/M01 Q1004 W///H///,EHJA,2019-01-17T14:25:00Z,53.82,2.95,6.0,-1.0,320,31,,6.21,29.64567,,,TRUE,,,,,,,,FEW,2800,SCT,3400,,,,,VFR,,,,,,,,,,,,METAR,50.0
EHHW 171425Z AUTO 35021G31KT //// // FEW005/// SCT017/// BKN020/// 03/01 Q0999 RE// W///H///,EHHW,2019-01-17T14:25:00Z,54.03,6.03,3.0,1.0,350,21,31,,29.498032,,,TRUE,,,,,,,,FEW,500,SCT,1700,BKN,2000,,,,,,,,,,,,,,,METAR,0.0
EHFZ 171425Z AUTO 33032KT 9999 FEW018 SCT035 06/M03 Q1002 W///H///,EHFZ,2019-01-17T14:25:00Z,54.12,4.02,6.0,-3.0,330,32,,6.21,29.586615,,,TRUE,,,,,,,,FEW,1800,SCT,3500,,,,,VFR,,,,,,,,,,,,METAR,50.0
EHFD 171425Z AUTO VRB21G33KT //// // FEW022/// SCT041/// 04/M02 Q1000 RE// W///H///,EHFD,2019-01-17T14:25:00Z,54.85,4.7,4.0,-2.0,0,21,33,,29.52756,,,TRUE,,,,,,,,FEW,2200,SCT,4100,,,,,,,,,,,,,,,,,METAR,50.0
EHDV 171425Z AUTO 34032KT 9999 NCD 06/M01 Q1004 W///H///,EHDV,2019-01-17T14:25:00Z,54.32,2.93,6.0,-1.0,340,32,,6.21,29.64567,,,TRUE,,,,,,,,CLR,,,,,,,,VFR,,,,,,,,,,,,METAR,50.0
EHAK 171425Z AUTO 34040KT 290V020 9999 FEW015/// SCT039/// 03/M01 Q1001 REDZ W///H///,EHAK,2019-01-17T14:25:00Z,55.42,3.82,3.0,-1.0,340,40,,6.21,29.557087,,,TRUE,,,,,,,,FEW,1500,SCT,3900,,,,,VFR,,,,,,,,,,,,METAR,50.0
ETAD 171425Z AUTO 27013KT 9999 BKN022 OVC029 04/00 A2966 RMK AO2 CIG 019V027 CIG 020 RWY23 SLPNO $,ETAD,2019-01-17T14:25:00Z,49.98,6.7,4.0,0.0,270,13,,6.21,29.660433,,,TRUE,TRUE,TRUE,,,,,,BKN,2200,OVC,2900,,,,,MVFR,,,,,,,,,,,,METAR,365.0
KMTC 171425Z 10010KT 10SM BKN015 OVC038 M04/M06 A3021 RMK AO2A SLP245 WND DATA ESTMD $,KMTC,2019-01-17T14:25:00Z,42.62,-82.82,-4.0,-6.0,100,10,,10.0,30.209646,1024.5,,,TRUE,TRUE,,,,,,BKN,1500,OVC,3800,,,,,MVFR,,,,,,,,,,,,SPECI,177.0
EHLW 171425Z AUTO 33016KT 290V360 9999 FEW030 SCT043 BKN067 04/00 Q1001 REDZ BLU 29010KT 9999 FEW015 SCT025 TEMPO 31015G25KT 4500 SHRA FEW008 SCT015CB BKN020 RMK R23,EHLW,2019-01-17T14:25:00Z,53.22,5.75,4.0,0.0,330,16,,6.21,29.557087,,,TRUE,,,,,,,,FEW,3000,SCT,4300,BKN,6700,FEW,1500,VFR,,,,,,,,,,,,SPECI,2.0
EHDL 171425Z AUTO 26009KT 210V300 9999 FEW020 04/02 Q1003 BLU,EHDL,2019-01-17T14:25:00Z,52.07,5.87,4.0,2.0,260,9,,6.21,29.616142,,,TRUE,,,,,,,,FEW,2000,,,,,,,VFR,,,,,,,,,,,,METAR,52.0
CYLD 171425Z 05003KT 3/4SM -SN VV014 M16/M18 A3004 RMK SN8 SLP225,CYLD,2019-01-17T14:25:00Z,47.82,-83.33,-16.0,-18.0,50,3,,0.75,30.041338,1022.5,,,,,,,,,-SN,OVX,0,,,,,,,LIFR,,,,,,,,,,,1400,SPECI,447.0
KMPO 171425Z AUTO 36005KT 10SM CLR M08/M17 A3027 RMK AO2 T10781172 $,KMPO,2019-01-17T14:25:00Z,41.13,-75.38,-7.8,-17.2,360,5,,10.0,30.268702,,,TRUE,TRUE,TRUE,,,,,,CLR,,,,,,,,VFR,,,,,,,,,,,,SPECI,577.0
EHVL 171425Z AUTO 34020KT 9999 FEW017 SCT033 BKN041 03/01 Q1002 REDZ BLU,EHVL,2019-01-17T14:25:00Z,53.23,4.92,3.0,1.0,340,20,,6.21,29.586615,,,TRUE,,,,,,,,FEW,1700,SCT,3300,BKN,4100,,,VFR,,,,,,,,,,,,SPECI,5.0
KHNZ 171425Z AUTO 06004KT 10SM CLR 00/M02 A3031 RMK AO2 T10021022,KHNZ,2019-01-17T14:25:00Z,36.37,-78.53,-0.2,-2.2,60,4,,10.0,30.31004,,,TRUE,TRUE,,,,,,,CLR,,,,,,,,VFR,,,,,,,,,,,,SPECI,161.0
KHBI 171425Z AUTO 08003KT 10SM CLR 01/M02 A3030 RMK AO2 T00141019,KHBI,2019-01-17T14:25:00Z,35.65,-79.9,1.4,-1.9,80,3,,10.0,30.301182,,,TRUE,TRUE,,,,,,,CLR,,,,,,,,VFR,,,,,,,,,,,,SPECI,205.0
EHAM 171425Z 28014KT 9999 SCT016CB 04/01 Q1003 TEMPO 31020G30KT 6000 SHRAGS BECMG 32016KT,EHAM,2019-01-17T14:25:00Z,52.32,4.78,4.0,1.0,280,14,,6.21,29.616142,,,,,,,,,,,SCT,1600,,,,,,,VFR,,,,,,,,,,,,METAR,9.0
EHBK 171425Z AUTO 28010G21KT 210V330 9999 +DZ FEW007 SCT010 BKN012 02/01 Q1006 TEMPO 29015G25KT 7000 SHRA BKN008 SCT015CB,EHBK,2019-01-17T14:25:00Z,50.92,5.77,2.0,1.0,280,10,21,6.21,29.704725,,,TRUE,,,,,,,+DZ,FEW,700,SCT,1000,BKN,1200,,,MVFR,,,,,,,,,,,,METAR,116.0
KMWK 171425Z AUTO 00000KT 10SM CLR 00/M01 A3029 RMK AO2 T00041010,KMWK,2019-01-17T14:25:00Z,36.47,-80.55,0.4,-1.0,0,0,,10.0,30.28937,,,TRUE,TRUE,,,,,,,CLR,,,,,,,,VFR,,,,,,,,,,,,SPECI,380.0
KILM 171425Z 06006KT 1/4SM R35/2200V3500FT FG OVC002 03/02 A3032 RMK AO2 T00280022,KILM,2019-01-17T14:25:00Z,34.27,-77.9,2.8,2.2,60,6,,0.25,30.318897,,,,TRUE,,,,,,FG,OVC,200,,,,,,,LIFR,,,,,,,,,,,,SPECI,9.0
KENW 171425Z 02003KT 2 1/2SM -SN BR BKN018 BKN025 OVC030 M01/M03 A3009 RMK AO2 P0000 T10061028,KENW,2019-01-17T14:25:00Z,42.6,-87.93,-0.6,-2.8,20,3,,2.5,30.088583,,,,TRUE,,,,,,-SN BR,BKN,1800,BKN,2500,OVC,3000,,,IFR,,,,,,0.005,,,,,,SPECI,219.0
KBWG 171425Z AUTO 15007KT 2 1/2SM RA BR FEW009 BKN020 OVC027 06/03 A3010 RMK AO2 P0005 T00560033,KBWG,2019-01-17T14:25:00Z,36.97,-86.42,5.6,3.3,150,7,,2.5,30.100393,,,TRUE,TRUE,,,,,,RA BR,FEW,900,BKN,2000,OVC,2700,,,IFR,,,,,,0.05,,,,,,SPECI,168.0
KBRL 171425Z AUTO 03006KT 1/4SM FZFG VV002 M01/M02 A3007 RMK AO2 I1000 T10111017,KBRL,2019-01-17T14:25:00Z,40.77,-91.13,-1.1,-1.7,30,6,,0.25,30.070866,,,TRUE,TRUE,,,,,,FZFG,OVX,0,,,,,,,LIFR,,,,,,,,,,,200,SPECI,211.0
KBCE 171425Z AUTO 06005KT 1/4SM FZFG BKN003 BKN027 OVC035 M01/M02 A3016 RMK AO2 T10061022,KBCE,2019-01-17T14:25:00Z,37.7,-112.15,-0.6,-2.2,60,5,,0.25,30.159449,,,TRUE,TRUE,,,,,,FZFG,BKN,300,BKN,2700,OVC,3500,,,LIFR,,,,,,,,,,,,SPECI,2312.0
KAFW 171425Z 33012G22KT 10SM OVC010 10/08 A3012 RMK AO2 T01000078,KAFW,2019-01-17T14:25:00Z,32.97,-97.32,10.0,7.8,330,12,22,10.0,30.121063,,,,TRUE,,,,,,,OVC,1000,,,,,,,MVFR,,,,,,,,,,,,SPECI,233.0
MSLP 171425Z 04009KT CAVOK 29/17 Q1015 NOSIG,MSLP,2019-01-17T14:25:00Z,13.43,-89.05,29.0,17.0,40,9,,6.21,29.970472,,,,,,TRUE,,,,,CAVOK,,,,,,,,VFR,,,,,,,,,,,,METAR,25.0
YPAD 171425Z 22019KT CAVOK 27/17 Q1007 FM1435 20010KT 9999 -SHRA NSC,YPAD,2019-01-17T14:25:00Z,-34.95,138.52,27.0,17.0,220,19,,6.21,29.734253,,,,,,,,,,,CAVOK,,,,,,,,VFR,,,1.0,,,,,,,,,SPECI,4.0
KTTA 171425Z AUTO 00000KT 10SM CLR 00/00 A3031 RMK AO2 T00041001,KTTA,2019-01-17T14:25:00Z,35.58,-79.1,0.4,-0.1,0,0,,10.0,30.31004,,,TRUE,TRUE,,,,,,,CLR,,,,,,,,VFR,,,,,,,,,,,,SPECI,75.0
EHGG 171425Z AUTO 31017G27KT 280V340 9999 -RA FEW011 FEW015CB SCT017 BKN021 02/M00 Q1000 BECMG 28012KT TEMPO 6000 SHRA,EHGG,2019-01-17T14:25:00Z,53.12,6.57,2.0,0.0,310,17,27,6.21,29.52756,,,TRUE,,,,,,,-RA,FEW,1100,FEW,1500,SCT,1700,BKN,2100,MVFR,,,,,,,,,,,,METAR,4.0
EHEH 171425Z AUTO 28008KT 230V310 9999 -DZ SCT016 BKN020 OVC024 03/02 Q1005 REDZ WHT 28010KT 9999 SCT025 BKN035 TEMPO 30012G22KT 4000 SHRASN SCT005 BKN010 SCT018CB,EHEH,2019-01-17T14:25:00Z,51.45,5.38,3.0,2.0,280,8,,6.21,29.675198,,,TRUE,,,,,,,-DZ,SCT,1600,BKN,2000,OVC,2400,SCT,2500,MVFR,,,,,,,,,,,,METAR,22.0
EHRD 171425Z AUTO 29010KT 250V330 9999 -RA FEW018 SCT043 03/01 Q1004 TEMPO 7000 SHRA FEW025CB,EHRD,2019-01-17T14:25:00Z,51.95,4.45,3.0,1.0,290,10,,6.21,29.64567,,,TRUE,,,,,,,-RA,FEW,1800,SCT,4300,,,,,VFR,,,,,,,,,,,,METAR,-5.0
EHFS 171425Z AUTO 30020G31KT 270V350 9999 FEW024 SCT030 OVC034 05/M00 Q1007 W///H///,EHFS,2019-01-17T14:25:00Z,51.45,3.6,5.0,0.0,300,20,31,6.21,29.734253,,,TRUE,,,,,,,,FEW,2400,SCT,3000,OVC,3400,,,VFR,,,,,,,,,,,,METAR,32.0
KSMP 171425Z AUTO VRB05KT 1SM -SN BR VV002 M02/M03 A2950 RMK AO2 P0003 T10171033 $,KSMP,2019-01-17T14:25:00Z,47.28,-121.33,-1.7,-3.3,0,5,,1.0,29.500984,,,TRUE,TRUE,TRUE,,,,,-SN BR,OVX,0,,,,,,,LIFR,,,,,,0.03,,,,,200,SPECI,1208.0
KEHO 171425Z AUTO 01004KT 10SM CLR 01/M01 A3029 RMK AO2 T00101010,KEHO,2019-01-17T14:25:00Z,35.25,-81.6,1.0,-1.0,10,4,,10.0,30.28937,,,TRUE,TRUE,,,,,,,CLR,,,,,,,,VFR,,,,,,,,,,,,SPECI,258.0
CYMT 171425Z AUTO 21007KT 9SM -SN CLR M31/M35 A3012 RMK SLP259,CYMT,2019-01-17T14:25:00Z,49.77,-74.52,-31.0,-35.0,210,7,,9.0,30.121063,1025.9,,TRUE,,,,,,,-SN,CLR,,,,,,,,VFR,,,,,,,,,,,,SPECI,387.0
KVTN 171425Z AUTO 35003KT 3/4SM BR OVC002 M05/M06 A3002 RMK AO2 T10501061,KVTN,2019-01-17T14:25:00Z,42.87,-100.55,-5.0,-6.1,350,3,,0.75,30.02067,,,TRUE,TRUE,,,,,,BR,OVC,200,,,,,,,LIFR,,,,,,,,,,,,SPECI,788.0
KLWV 171425Z AUTO 16005KT 3/4SM -RA BR OVC003 05/04 A3004 RMK AO2 P0002 T00500044,KLWV,2019-01-17T14:25:00Z,38.77,-87.6,5.0,4.4,160,5,,0.75,30.041338,,,TRUE,TRUE,,,,,,-RA BR,OVC,300,,,,,,,LIFR,,,,,,0.02,,,,,,SPECI,131.0
ETIH 171425Z AUTO 29009G17KT 9999 FEW010 BKN015 BKN023 OVC028 05/05 A2968 RMK AO2 RAB04E22DZB22E25 CIG 015V026 BKN015 V SCT SLPNO $,ETIH,2019-01-17T14:25:00Z,49.22,11.82,5.0,5.0,290,9,17,6.21,29.681103,,,TRUE,TRUE,TRUE,,,,,,FEW,1000,BKN,1500,BKN,2300,OVC,2800,MVFR,,,,,,,,,,,,SPECI,442.0
KMNH 171424Z AUTO 17010KT 10SM CLR M04/M11 A3009 RMK AO2,KMNH,2019-01-17T14:24:00Z,39.22,-104.65,-4.0,-11.0,170,10,,10.0,30.088583,,,TRUE,TRUE,,,,,,,CLR,,,,,,,,VFR,,,,,,,,,,,,METAR,2152.0
KLLJ 171424Z AUTO 00000KT 1SM -SN BR VV011 M06/M08 A2980 RMK AO2 P0003 T10561078,KLLJ,2019-01-17T14:24:00Z,44.52,-114.22,-5.6,-7.8,0,0,,1.0,29.799213,,,TRUE,TRUE,,,,,,-SN BR,OVX,0,,,,,,,LIFR,,,,,,0.03,,,,,1100,SPECI,1536.0
KGRI 171424Z 00000KT 3SM BR OVC020 M01/M02 A3005 RMK AO2 T10111022,KGRI,2019-01-17T14:24:00Z,40.97,-98.32,-1.1,-2.2,0,0,,3.0,30.050198,,,,TRUE,,,,,,BR,OVC,2000,,,,,,,MVFR,,,,,,,,,,,,SPECI,561.0
KGLH 171424Z 19010KT 10SM OVC014 10/08 A3010 RMK AO2 T01000078,KGLH,2019-01-17T14:24:00Z,33.5,-90.98,10.0,7.8,190,10,,10.0,30.100393,,,,TRUE,,,,,,,OVC,1400,,,,,,,MVFR,,,,,,,,,,,,SPECI,45.0
KDSM 171424Z 34003KT 1 1/2SM -SN BR OVC003 M03/M03 A3010 RMK AO2 SNB17 P0000 T10281033,KDSM,2019-01-17T14:24:00Z,41.53,-93.67,-2.8,-3.3,340,3,,1.5,30.100393,,,,TRUE,,,,,,-SN BR,OVC,300,,,,,,,LIFR,,,,,,0.005,,,,,,SPECI,295.0
KDFW 171424Z 30014KT 10SM OVC011 10/08 A3009 RMK AO2 T01000078,KDFW,2019-01-17T14:24:00Z,32.9,-97.02,10.0,7.8,300,14,,10.0,30.088583,,,,TRUE,,,,,,,OVC,1100,,,,,,,MVFR,,,,,,,,,,,,SPECI,174.0
KBIV 171424Z AUTO 10006KT 10SM BKN027 OVC032 M03/M07 A3014 RMK AO2 T10331072,KBIV,2019-01-17T14:24:00Z,42.75,-86.1,-3.3,-7.2,100,6,,10.0,30.138779,,,TRUE,TRUE,,,,,,,BKN,2700,OVC,3200,,,,,MVFR,,,,,,,,,,,,SPECI,208.0
KBBB 171424Z AUTO 35004KT 10SM SCT027 SCT033 BKN090 M16/M19 A3014 RMK AO2,KBBB,2019-01-17T14:24:00Z,45.32,-95.65,-16.0,-19.0,350,4,,10.0,30.138779,,,TRUE,TRUE,,,,,,,SCT,2700,SCT,3300,BKN,9000,,,VFR,,,,,,,,,,,,SPECI,317.0
KMFI 171424Z AUTO 14005KT 4SM -SN BR BKN006 OVC010 M07/M08 A3005 RMK AO2 SNB05 P0000 T10721078 $,KMFI,2019-01-17T14:24:00Z,44.63,-90.18,-7.2,-7.8,140,5,,4.0,30.050198,,,TRUE,TRUE,TRUE,,,,,-SN BR,BKN,600,OVC,1000,,,,,IFR,,,,,,0.005,,,,,,SPECI,389.0
K2W6 171423Z AUTO 06003KT 10SM OVC046 01/M02 A3038 RMK AO1,K2W6,2019-01-17T14:23:00Z,38.32,-76.55,1.0,-2.0,60,3,,10.0,30.380905,,,TRUE,TRUE,,,,,,,OVC,4600,,,,,,,VFR,,,,,,,,,,,,SPECI,44.0
KCGS 171423Z AUTO 06005KT 10SM OVC050 01/M06 A3038 RMK AO1 T00101058,KCGS,2019-01-17T14:23:00Z,38.98,-76.92,1.0,-5.8,60,5,,10.0,30.380905,,,TRUE,TRUE,,,,,,,OVC,5000,,,,,,,VFR,,,,,,,,,,,,SPECI,15.0
KALI 171423Z AUTO 32006KT 10SM SCT007 OVC013 14/12 A3021 RMK AO2 T01390122 $,KALI,2019-01-17T14:23:00Z,27.73,-98.02,13.9,12.2,320,6,,10.0,30.209646,,,TRUE,TRUE,TRUE,,,,,,SCT,700,OVC,1300,,,,,MVFR,,,,,,,,,,,,SPECI,53.0
KGUP 171423Z AUTO 00000KT 10SM FEW002 M06/M07 A3026 RMK AO2 T10611072,KGUP,2019-01-17T14:23:00Z,35.52,-108.8,-6.1,-7.2,0,0,,10.0,30.259842,,,TRUE,TRUE,,,,,,,FEW,200,,,,,,,VFR,,,,,,,,,,,,SPECI,1971.0
KPUC 171423Z AUTO 00000KT 1 3/4SM -SN BR BKN009 OVC029 M01/M01 A3013 RMK AO2 P0000 T10061006,KPUC,2019-01-17T14:23:00Z,39.62,-110.75,-0.6,-0.6,0,0,,1.75,30.129921,,,TRUE,TRUE,,,,,,-SN BR,BKN,900,OVC,2900,,,,,IFR,,,,,,0.005,,,,,,SPECI,2091.0
KLBF 171423Z AUTO 32004KT 1/4SM FZFG VV002 M04/M04 A3002 RMK AO2 I1000 T10391044,KLBF,2019-01-17T14:23:00Z,41.12,-100.67,-3.9,-4.4,320,4,,0.25,30.02067,,,TRUE,TRUE,,,,,,FZFG,OVX,0,,,,,,,LIFR,,,,,,,,,,,200,SPECI,847.0
KMGY 171423Z AUTO 14008KT 1 1/2SM -SN BR OVC021 01/M01 A3011 RMK AO2 UPE02SNB02 P0000 T00111006,KMGY,2019-01-17T14:23:00Z,39.6,-84.23,1.1,-0.6,140,8,,1.5,30.109253,,,TRUE,TRUE,,,,,,-SN BR,OVC,2100,,,,,,,IFR,,,,,,0.005,,,,,,SPECI,289.0
PAWM 171422Z AUTO 33005KT 2 1/2SM -SN OVC020 M08/M11 A2970 RMK AO2 P0000 FZRANO,PAWM,2019-01-17T14:22:00Z,64.68,-163.42,-8.0,-11.0,330,5,,2.5,29.698818,,,TRUE,TRUE,,,,TRUE,,-SN,OVC,2000,,,,,,,IFR,,,,,,0.005,,,,,,SPECI,82.0
KCVO 171422Z AUTO 00000KT 5SM -RA BR BKN002 OVC050 03/03 A2948 RMK AO2 P0001,KCVO,2019-01-17T14:22:00Z,44.5,-123.27,3.0,3.0,0,0,,5.0,29.480314,,,TRUE,TRUE,,,,,,-RA BR,BKN,200,OVC,5000,,,,,LIFR,,,,,,0.01,,,,,,SPECI,75.0
KHOP 171422Z AUTO 17006KT 10SM OVC005 06/06 A3006 RMK AO2 RAE07DZB07E14 SLP183,KHOP,2019-01-17T14:22:00Z,36.67,-87.5,6.0,6.0,170,6,,10.0,30.059055,1018.3,,TRUE,TRUE,,,,,,,OVC,500,,,,,,,IFR,,,,,,,,,,,,METAR,174.0
KCMA 171422Z AUTO 21012G19KT 2SM -RA BR OVC003 17/14 A3007 RMK AO2 P0001 T01670144 TSNO,KCMA,2019-01-17T14:22:00Z,34.22,-119.1,16.7,14.4,210,12,19,2.0,30.070866,,,TRUE,TRUE,,,TRUE,,,-RA BR,OVC,300,,,,,,,LIFR,,,,,,0.01,,,,,,SPECI,23.0
KALW 171422Z 16004KT 1SM R20/4000V5500FT BR VV002 00/M02 A2959 RMK AO2 T00001017,KALW,2019-01-17T14:22:00Z,46.1,-118.28,0.0,-1.7,160,4,,1.0,29.589567,,,,TRUE,,,,,,BR,OVX,0,,,,,,,LIFR,,,,,,,,,,,200,SPECI,363.0
FAPE 171422Z 08020G30KT 9999 SCT008 24/21 Q1007 NOSIG,FAPE,2019-01-17T14:22:00Z,-33.97,25.6,24.0,21.0,80,20,30,6.21,29.734253,,,,,,TRUE,,,,,SCT,800,,,,,,,VFR,,,,,,,,,,,,SPECI,60.0
KADS 171422Z 30009G13KT 10SM OVC013 10/08 A3010,KADS,2019-01-17T14:22:00Z,32.97,-96.82,10.0,8.0,300,9,13,10.0,30.100393,,,,,,,,,,,OVC,1300,,,,,,,MVFR,,,,,,,,,,,,SPECI,196.0
KFTW 171422Z 32014KT 10SM OVC009 09/08 A3012 RMK AO2 T00940083,KFTW,2019-01-17T14:22:00Z,32.83,-97.37,9.4,8.3,320,14,,10.0,30.121063,,,,TRUE,,,,,,,OVC,900,,,,,,,IFR,,,,,,,,,,,,SPECI,214.0
KHNB 171421Z AUTO 15009KT 5SM -RA BR OVC008 05/04 A3005 RMK AO2 P0000,KHNB,2019-01-17T14:21:00Z,38.25,-86.95,5.0,4.0,150,9,,5.0,30.050198,,,TRUE,TRUE,,,,,,-RA BR,OVC,800,,,,,,,IFR,,,,,,0.005,,,,,,SPECI,161.0
KBUR 171421Z 13007KT 2 1/2SM RA BR SCT004 OVC009 14/14 A3008 RMK AO2 P0011 T01440139,KBUR,2019-01-17T14:21:00Z,34.2,-118.37,14.4,13.9,130,7,,2.5,30.079725,,,,TRUE,,,,,,RA BR,SCT,400,OVC,900,,,,,IFR,,,,,,0.11,,,,,,SPECI,217.0
KGUS 171421Z AUTO 11006KT 7/8SM R05/4500V5500FT -SN BR VV008 00/00 A3006 RMK AO2 CIG 004 RWY23 SLP191 $,KGUS,2019-01-17T14:21:00Z,40.63,-86.15,0.0,0.0,110,6,,0.88,30.059055,1019.1,,TRUE,TRUE,TRUE,,,,,-SN BR,OVX,0,,,,,,,LIFR,,,,,,,,,,,800,SPECI,247.0
KFME 171421Z AUTO 08006KT 10SM BKN050 00/M06 A3040 RMK AO1,KFME,2019-01-17T14:21:00Z,39.08,-76.77,0.0,-6.0,80,6,,10.0,30.398623,,,TRUE,TRUE,,,,,,,BKN,5000,,,,,,,VFR,,,,,,,,,,,,SPECI,46.0
CYCK 171421Z AUTO 14014KT 9SM BKN018 BKN100 BKN120 M04/M07 A3023 RMK SLP250,CYCK,2019-01-17T14:21:00Z,42.3,-82.08,-4.0,-7.0,140,14,,9.0,30.230314,1025.0,,TRUE,,,,,,,,BKN,1800,BKN,10000,BKN,12000,,,MVFR,,,,,,,,,,,,SPECI,198.0
PKWA 171420Z AUTO 07017G22KT 10SM BKN027 BKN034 27/22 A2980 RMK AO2 T02740222,PKWA,2019-01-17T14:20:00Z,8.72,167.72,27.4,22.2,70,17,22,10.0,29.799213,,,TRUE,TRUE,,,,,,,BKN,2700,BKN,3400,,,,,MVFR,,,,,,,,,,,,SPECI,8.0
KJES 171420Z AUTO 00000KT 10SM CLR 07/04 A3031 RMK AO2,KJES,2019-01-17T14:20:00Z,31.55,-81.88,7.0,4.0,0,0,,10.0,30.31004,,,TRUE,TRUE,,,,,,,CLR,,,,,,,,VFR,,,,,,,,,,,,SPECI,33.0
KMCE 171420Z AUTO 08003KT 10SM SCT022 SCT040 BKN055 13/12 A2996 RMK AO2 T01280122,KMCE,2019-01-17T14:20:00Z,37.28,-120.5,12.8,12.2,80,3,,10.0,29.958662,,,TRUE,TRUE,,,,,,,SCT,2200,SCT,4000,BKN,5500,,,VFR,,,,,,,,,,,,SPECI,47.0
KMKO 171420Z AUTO 34012KT 10SM OVC006 08/08 A3008 RMK AO2 CIG 003V009 T00830083,KMKO,2019-01-17T14:20:00Z,35.65,-95.37,8.3,8.3,340,12,,10.0,30.079725,,,TRUE,TRUE,,,,,,,OVC,600,,,,,,,IFR,,,,,,,,,,,,SPECI,185.0
KNEW 171420Z 14003KT 1 3/4SM -RA BKN048 OVC065 11/08 A3025 RMK AO2 RAE1354B12 P0000 T01110078,KNEW,2019-01-17T14:20:00Z,30.05,-90.03,11.1,7.8,140,3,,1.75,30.250984,,,,TRUE,,,,,,-RA,BKN,4800,OVC,6500,,,,,IFR,,,,,,0.005,,,,,,SPECI,3.0
KPBF 171420Z AUTO 21011KT 9SM OVC009 11/09 A3007 RMK AO2 T01060089,KPBF,2019-01-17T14:20:00Z,34.18,-91.93,10.6,8.9,210,11,,9.0,30.070866,,,TRUE,TRUE,,,,,,,OVC,900,,,,,,,IFR,,,,,,,,,,,,SPECI,62.0
KTPH 171420Z AUTO 20019G27KT 10SM -RA SCT011 BKN014 OVC043 06/04 A2993 RMK AO2 PK WND 19027/1404 P0000 T00610044,KTPH,2019-01-17T14:20:00Z,38.05,-117.08,6.1,4.4,200,19,27,10.0,29.929134,,,TRUE,TRUE,,,,,,-RA,SCT,1100,BKN,1400,OVC,4300,,,MVFR,,,,,,0.005,,,,,,SPECI,1652.0
PAMY 171420Z AUTO 31017KT 1 1/4SM -SN BR BKN008 BKN015 OVC028 M06/M06 A2973 RMK AO2 P0000 FZRANO $,PAMY,2019-01-17T14:20:00Z,60.37,-166.27,-6.0,-6.0,310,17,,1.25,29.731298,,,TRUE,TRUE,TRUE,,,TRUE,,-SN BR,BKN,800,BKN,1500,OVC,2800,,,IFR,,,,,,0.005,,,,,,SPECI,13.0
EYSA 171420Z 24010KT 9999 -RA SCT008 OVC010 02/02 Q0989 R14L/29//95 GRN NOSIG,EYSA,2019-01-17T14:20:00Z,55.9,23.4,2.0,2.0,240,10,,6.21,29.202755,,,,,,TRUE,,,,-RA,SCT,800,OVC,1000,,,,,MVFR,,,,,,,,,,,,METAR,135.0
EVLA 171420Z AUTO 31006KT 290V350 9999 FEW006/// OVC009/// 02/01 Q0989,EVLA,2019-01-17T14:20:00Z,56.52,21.1,2.0,1.0,310,6,,6.21,29.202755,,,TRUE,,,,,,,,FEW,600,OVC,900,,,,,IFR,,,,,,,,,,,,METAR,4.0
ESGG 171420Z 34007KT CAVOK M05/M08 Q0993 R03/29//95,ESGG,2019-01-17T14:20:00Z,57.67,12.3,-5.0,-8.0,340,7,,6.21,29.320866,,,,,,,,,,,CAVOK,,,,,,,,VFR,,,,,,,,,,,,METAR,169.0
ESGJ 171420Z 34010KT 9999 BKN012 M05/M06 Q0991 R01/290070,ESGJ,2019-01-17T14:20:00Z,57.77,14.07,-5.0,-6.0,340,10,,6.21,29.26181,,,,,,,,,,,BKN,1200,,,,,,,MVFR,,,,,,,,,,,,METAR,232.0
ESGT 171420Z 36010KT CAVOK M04/M08 Q0995,ESGT,2019-01-17T14:20:00Z,58.32,12.33,-4.0,-8.0,360,10,,6.21,29.379921,,,,,,,,,,,CAVOK,,,,,,,,VFR,,,,,,,,,,,,METAR,41.0
ESMQ 171420Z 35008KT 9999 FEW021 M01/M03 Q0991,ESMQ,2019-01-17T14:20:00Z,56.68,16.3,-1.0,-3.0,350,8,,6.21,29.26181,,,,,,,,,,,FEW,2100,,,,,,,VFR,,,,,,,,,,,,METAR,16.0
ESMK 171420Z VRB02KT 9999 SCT035 01/// Q0990,ESMK,2019-01-17T14:20:00Z,55.92,14.07,,,0,2,,6.21,29.232283,,,,,,,,,,,SCT,3500,,,,,,,VFR,,,,,,,,,,,,METAR,23.0
ESMS 171420Z 23016KT 9999 BKN007 04/03 Q0989 R17/29//95,ESMS,2019-01-17T14:20:00Z,55.53,13.37,4.0,3.0,230,16,,6.21,29.202755,,,,,,,,,,,BKN,700,,,,,,,IFR,,,,,,,,,,,,METAR,106.0
ESMT 171420Z 02010KT 9999 FEW025 M01/M04 Q0992,ESMT,2019-01-17T14:20:00Z,56.67,12.82,-1.0,-4.0,20,10,,6.21,29.291338,,,,,,,,,,,FEW,2500,,,,,,,VFR,,,,,,,,,,,,METAR,30.0
ENNE 171420Z 32043KT 9999 VCSH SCT015CB BKN040 M01/M06 Q0997 W///S6,ENNE,2019-01-17T14:20:00Z,66.03,8.08,-1.0,-6.0,320,43,,6.21,29.438976,,,,,,,,,,VCSH,SCT,1500,BKN,4000,,,,,VFR,,,,,,,,,,,,METAR,10.0
ESMX 171420Z 36009KT 9999 BKN015 M02/M04 Q0991,ESMX,2019-01-17T14:20:00Z,56.92,14.72,-2.0,-4.0,360,9,,6.21,29.26181,,,,,,,,,,,BKN,1500,,,,,,,MVFR,,,,,,,,,,,,METAR,186.0
ESTA 171420Z 34005KT 260V030 9999 SCT045 BKN062 01/M03 Q0991,ESTA,2019-01-17T14:20:00Z,56.28,12.83,1.0,-3.0,340,5,,6.21,29.26181,,,,,,,,,,,SCT,4500,BKN,6200,,,,,VFR,,,,,,,,,,,,METAR,47.0
ESTL 171420Z AUTO 27004KT 9999 FEW007/// SCT009/// BKN050/// 02/01 Q0991 RESHUP,ESTL,2019-01-17T14:20:00Z,56.07,13.2,2.0,1.0,270,4,,6.21,29.26181,,,TRUE,,,,,,,,FEW,700,SCT,900,BKN,5000,,,VFR,,,,,,,,,,,,METAR,43.0
LSMS 171420Z 24008KT 200V270 9999 -RA SCT025 OVC050 04/00 Q1011 RMK BLU,LSMS,2019-01-17T14:20:00Z,46.22,7.32,4.0,0.0,240,8,,6.21,29.852362,,,,,,,,,,-RA,SCT,2500,OVC,5000,,,,,VFR,,,,,,,,,,,,METAR,481.0
LSMP 171420Z 25009KT 210V280 9999 -SHRA SCT034 SCT040 BKN046 06/00 Q1012 RMK BLU,LSMP,2019-01-17T14:20:00Z,46.82,6.92,6.0,0.0,250,9,,6.21,29.88189,,,,,,,,,,-SHRA,SCT,3400,SCT,4000,BKN,4600,,,VFR,,,,,,,,,,,,METAR,491.0
LSMM 171420Z 07002KT 2400 -SN SCT015 OVC024 01/M00 Q1011 RMK YLO,LSMM,2019-01-17T14:20:00Z,46.75,8.12,1.0,0.0,70,2,,1.49,29.852362,,,,,,,,,,-SN,SCT,1500,OVC,2400,,,,,IFR,,,,,,,,,,,,METAR,577.0
LSME 171420Z 23004G15KT 190V360 9999 -SHRA BKN033 BKN039 OVC046 05/02 Q1011 RMK BLU,LSME,2019-01-17T14:20:00Z,47.1,8.3,5.0,2.0,230,4,15,6.21,29.852362,,,,,,,,,,-SHRA,BKN,3300,BKN,3900,OVC,4600,,,VFR,,,,,,,,,,,,METAR,427.0
LSMD 171420Z 26010G20KT 210V290 9999 -SHRA OVC029 06/01 Q1010 RMK BLU,LSMD,2019-01-17T14:20:00Z,47.4,8.65,6.0,1.0,260,10,20,6.21,29.822834,,,,,,,,,,-SHRA,OVC,2900,,,,,,,MVFR,,,,,,,,,,,,METAR,448.0
LSMA 171420Z VRB02KT 9999 -RA BKN026 BKN036 OVC041 04/01 Q1011 RMK BLU,LSMA,2019-01-17T14:20:00Z,46.95,8.28,4.0,1.0,0,2,,6.21,29.852362,,,,,,,,,,-RA,BKN,2600,BKN,3600,OVC,4100,,,MVFR,,,,,,,,,,,,METAR,444.0
EDDK 171420Z 28013KT 9999 -SHRA FEW008 SCT012 BKN018CB 04/02 Q1004 NOSIG,EDDK,2019-01-17T14:20:00Z,50.87,7.15,4.0,2.0,280,13,,6.21,29.64567,,,,,,TRUE,,,,-SHRA,FEW,800,SCT,1200,BKN,1800,,,MVFR,,,,,,,,,,,,METAR,99.0
EDDH 171420Z 27011KT 240V300 9999 SCT018 05/01 Q0995 TEMPO 27015G25KT,EDDH,2019-01-17T14:20:00Z,53.63,10.0,5.0,1.0,270,11,,6.21,29.379921,,,,,,,,,,,SCT,1800,,,,,,,VFR,,,,,,,,,,,,SPECI,16.0
EDDF 171420Z 22016KT 9999 -SHRA FEW014 SCT027CB BKN035 07/02 Q1003 TEMPO SHRA,EDDF,2019-01-17T14:20:00Z,50.05,8.6,7.0,2.0,220,16,,6.21,29.616142,,,,,,,,,,-SHRA,FEW,1400,SCT,2700,BKN,3500,,,VFR,,,,,,,,,,,,SPECI,113.0
EDDW 171420Z 27010KT 9999 FEW010 SCT042 03/02 Q0998 TEMPO 28015G25KT BKN010,EDDW,2019-01-17T14:20:00Z,53.03,8.8,3.0,2.0,270,10,,6.21,29.468504,,,,,,,,,,,FEW,1000,SCT,4200,,,,,VFR,,,,,,,,,,,,SPECI,5.0
EDDR 171420Z 26022KT 9999 -SHRA FEW015 BKN018CB 04/02 Q1006 TEMPO SHRA,EDDR,2019-01-17T14:20:00Z,49.22,7.1,4.0,2.0,260,22,,6.21,29.704725,,,,,,,,,,-SHRA,FEW,1500,BKN,1800,,,,,MVFR,,,,,,,,,,,,METAR,320.0
EDDP 171420Z 23013KT 9999 SCT032TCU SCT041 07/01 Q0999 TEMPO 24015G25KT,EDDP,2019-01-17T14:20:00Z,51.43,12.23,7.0,1.0,230,13,,6.21,29.498032,,,,,,,,,,,SCT,3200,SCT,4100,,,,,VFR,,,,,,,,,,,,METAR,149.0
EDDG 171420Z 27009KT 9999 SCT007 BKN037 03/01 Q1001 NOSIG,EDDG,2019-01-17T14:20:00Z,52.13,7.7,3.0,1.0,270,9,,6.21,29.557087,,,,,,TRUE,,,,,SCT,700,BKN,3700,,,,,VFR,,,,,,,,,,,,METAR,52.0
EDDE 171420Z 22014KT 9999 VCSH FEW020 SCT038 05/01 Q0999 NOSIG,EDDE,2019-01-17T14:20:00Z,50.98,10.97,5.0,1.0,220,14,,6.21,29.498032,,,,,,TRUE,,,,VCSH,FEW,2000,SCT,3800,,,,,VFR,,,,,,,,,,,,METAR,323.0
EDDC 171420Z 23008KT 9999 SCT024 06/04 Q1000 NOSIG,EDDC,2019-01-17T14:20:00Z,51.13,13.75,6.0,4.0,230,8,,6.21,29.52756,,,,,,TRUE,,,,,SCT,2400,,,,,,,VFR,,,,,,,,,,,,METAR,226.0
EDDB 171420Z 23014KT 9999 SCT033 06/01 Q0998 TEMPO 24015G25KT,EDDB,2019-01-17T14:20:00Z,52.38,13.53,6.0,1.0,230,14,,6.21,29.468504,,,,,,,,,,,SCT,3300,,,,,,,VFR,,,,,,,,,,,,METAR,48.0
EKYT 171420Z AUTO 36003KT 9999 BKN090/// 01/M05 Q0996 R26L/710195,EKYT,2019-01-17T14:20:00Z,57.1,9.87,1.0,-5.0,360,3,,6.21,29.409449,,,TRUE,,,,,,,,BKN,9000,,,,,,,VFR,,,,,,,,,,,,SPECI,3.0
EKAH 171420Z AUTO 02011KT 350V050 9999NDV BKN087/// 01/M04 Q0995,EKAH,2019-01-17T14:20:00Z,56.28,10.62,1.0,-4.0,20,11,,,29.379921,,,TRUE,,,,,,,,BKN,8700,,,,,,,,,,,,,,,,,,,SPECI,25.0
EKRK 171420Z AUTO 35011KT 9999NDV -SN FEW004/// SCT008/// BKN037/// 00/M00 Q0991,EKRK,2019-01-17T14:20:00Z,55.57,12.12,0.0,0.0,350,11,,,29.26181,,,TRUE,,,,,,,-SN,FEW,400,SCT,800,BKN,3700,,,,,,,,,,,,,,,SPECI,44.0
EKEB 171420Z AUTO 02014KT 350V050 9999 RA BKN008/// 01/00 Q0994,EKEB,2019-01-17T14:20:00Z,55.52,8.55,1.0,0.0,20,14,,6.21,29.350393,,,TRUE,,,,,,,RA,BKN,800,,,,,,,IFR,,,,,,,,,,,,METAR,29.0
EKRN 171420Z AUTO 24019KT 9999 -SHRA BKN019/// OVC043/// 05/02 Q0992,EKRN,2019-01-17T14:20:00Z,55.07,14.75,5.0,2.0,240,19,,6.21,29.291338,,,TRUE,,,,,,,-SHRA,BKN,1900,OVC,4300,,,,,MVFR,,,,,,,,,,,,METAR,16.0
EKCH 171420Z 01014KT 8000 -SHSN FEW005 SCT015CB BKN031 01/00 Q0991 R04L/510166 R04R/550271 R12/590360 TEMPO 0800 SHSN BKN004,EKCH,2019-01-17T14:20:00Z,55.62,12.67,1.0,0.0,10,14,,4.97,29.26181,,,,,,,,,,-SHSN,FEW,500,SCT,1500,BKN,3100,,,MVFR,,,,,,,,,,,,SPECI,5.0
EKVD 171420Z 06013KT 6000 -SHSN BKN015 00/M01 Q0994,EKVD,2019-01-17T14:20:00Z,55.42,9.32,0.0,-1.0,60,13,,3.73,29.350393,,,,,,,,,,-SHSN,BKN,1500,,,,,,,MVFR,,,,,,,,,,,,METAR,45.0
EKOD 171420Z 01011KT 340V040 9999 FEW020 SCT060 BKN075 01/M01 Q0994,EKOD,2019-01-17T14:20:00Z,55.47,10.32,1.0,-1.0,10,11,,6.21,29.350393,,,,,,,,,,,FEW,2000,SCT,6000,BKN,7500,,,VFR,,,,,,,,,,,,METAR,17.0
EDDL 171420Z 29010KT 9999 FEW010 04/02 Q1004 NOSIG,EDDL,2019-01-17T14:20:00Z,51.3,6.77,4.0,2.0,290,10,,6.21,29.64567,,,,,,TRUE,,,,,FEW,1000,,,,,,,VFR,,,,,,,,,,,,METAR,44.0
EDDM 171420Z 26015KT 9999 -RA FEW024 BKN034 06/02 Q1006 NOSIG,EDDM,2019-01-17T14:20:00Z,48.35,11.82,6.0,2.0,260,15,,6.21,29.704725,,,,,,TRUE,,,,-RA,FEW,2400,BKN,3400,,,,,VFR,,,,,,,,,,,,METAR,447.0
EDDN 171420Z 24014KT 9999 FEW025 06/01 Q1004 TEMPO 27015G25KT,EDDN,2019-01-17T14:20:00Z,49.5,11.08,6.0,1.0,240,14,,6.21,29.64567,,,,,,,,,,,FEW,2500,,,,,,,VFR,,,,,,,,,,,,SPECI,312.0
EDDS 171420Z 23011G23KT 160V260 9999 FEW013 06/01 Q1006 NOSIG,EDDS,2019-01-17T14:20:00Z,48.67,9.22,6.0,1.0,230,11,23,6.21,29.704725,,,,,,TRUE,,,,,FEW,1300,,,,,,,VFR,,,,,,,,,,,,METAR,419.0
EDDT 171420Z 23013KT 9999 SCT035 07/M00 Q0998 TEMPO 25015G25KT,EDDT,2019-01-17T14:20:00Z,52.57,13.32,7.0,0.0,230,13,,6.21,29.468504,,,,,,,,,,,SCT,3500,,,,,,,VFR,,,,,,,,,,,,METAR,37.0
EDDV 171420Z 24008KT 9999 -RA FEW012 SCT020 04/02 Q0998 TEMPO 25015G25KT BKN013,EDDV,2019-01-17T14:20:00Z,52.47,9.68,4.0,2.0,240,8,,6.21,29.468504,,,,,,,,,,-RA,FEW,1200,SCT,2000,,,,,VFR,,,,,,,,,,,,METAR,54.0
EFJY 171420Z AUTO 35007KT 9999 -SN BKN011 BKN138 M11/M13 Q0983,EFJY,2019-01-17T14:20:00Z,62.4,25.68,-11.0,-13.0,350,7,,6.21,29.02559,,,TRUE,,,,,,,-SN,BKN,1100,BKN,13800,,,,,MVFR,,,,,,,,,,,,METAR,145.0
EFKU 171420Z AUTO 34008KT CAVOK M13/M15 Q0984,EFKU,2019-01-17T14:20:00Z,63.02,27.8,-13.0,-15.0,340,8,,6.21,29.055119,,,TRUE,,,,,,,,CAVOK,,,,,,,,VFR,,,,,,,,,,,,METAR,102.0
EFHA 171420Z AUTO 34009KT 1600 -SN OVC021 M09/M11 Q0983 RESN,EFHA,2019-01-17T14:20:00Z,61.85,24.8,-9.0,-11.0,340,9,,0.99,29.02559,,,TRUE,,,,,,,-SN,OVC,2100,,,,,,,LIFR,,,,,,,,,,,,METAR,145.0
EFKK 171420Z AUTO 32006KT 290V350 9999 -SN OVC014 M07/M09 Q0987,EFKK,2019-01-17T14:20:00Z,63.72,23.13,-7.0,-9.0,320,6,,6.21,29.143702,,,TRUE,,,,,,,-SN,OVC,1400,,,,,,,MVFR,,,,,,,,,,,,METAR,25.0
LTAT 171420Z 32022G33KT 9999 FEW040 01/M09 Q1015 NOSIG RMK RWY03 33018KT 300V360,LTAT,2019-01-17T14:20:00Z,38.42,38.07,1.0,-9.0,320,22,33,6.21,29.970472,,,,,,TRUE,,,,,FEW,4000,,,,,,,VFR,,,,,,,,,,,,METAR,849.0
EFET 171420Z AUTO 01005KT 9000 -SN BKN028 M13/M15 Q0986,EFET,2019-01-17T14:20:00Z,68.37,23.43,-13.0,-15.0,10,5,,5.59,29.114174,,,TRUE,,,,,,,-SN,BKN,2800,,,,,,,MVFR,,,,,,,,,,,,METAR,306.0
EFUT 171420Z AUTO 35010KT 9999 -SN OVC009 M08/M09 Q0979,EFUT,2019-01-17T14:20:00Z,60.88,26.92,-8.0,-9.0,350,10,,6.21,28.90748,,,TRUE,,,,,,,-SN,OVC,900,,,,,,,IFR,,,,,,,,,,,,METAR,100.0
EFSI 171420Z AUTO 34005KT 9999 -SN BKN021 M09/M10 Q0986,EFSI,2019-01-17T14:20:00Z,62.7,22.83,-9.0,-10.0,340,5,,6.21,29.114174,,,TRUE,,,,,,,-SN,BKN,2100,,,,,,,MVFR,,,,,,,,,,,,METAR,91.0
EFSA 171420Z AUTO 01006KT 340V060 9999 -SN FEW031 BKN084 M09/M11 Q0980,EFSA,2019-01-17T14:20:00Z,61.95,28.93,-9.0,-11.0,10,6,,6.21,28.937008,,,TRUE,,,,,,,-SN,FEW,3100,BKN,8400,,,,,VFR,,,,,,,,,,,,METAR,95.0
EFMI 171420Z AUTO VRB06KT 9000 -SN OVC029 M09/M11 Q0981,EFMI,2019-01-17T14:20:00Z,61.68,27.2,-9.0,-11.0,0,6,,5.59,28.966536,,,TRUE,,,,,,,-SN,OVC,2900,,,,,,,MVFR,,,,,,,,,,,,METAR,138.0
EFLP 171420Z AUTO 35010KT 320V020 9999 -SN OVC009 M07/M09 Q0978,EFLP,2019-01-17T14:20:00Z,61.07,28.13,-7.0,-9.0,350,10,,6.21,28.877953,,,TRUE,,,,,,,-SN,OVC,900,,,,,,,IFR,,,,,,,,,,,,METAR,106.0
EFJO 171420Z AUTO 35005KT 9999 -SN OVC093 M12/M14 Q0982,EFJO,2019-01-17T14:20:00Z,62.67,29.62,-12.0,-14.0,350,5,,6.21,28.996063,,,TRUE,,,,,,,-SN,OVC,9300,,,,,,,VFR,,,,,,,,,,,,METAR,117.0
EFPO 171420Z AUTO 34007KT 310V010 9999 -SN OVC053/// M07/M11 Q0987,EFPO,2019-01-17T14:20:00Z,61.47,21.8,-7.0,-11.0,340,7,,6.21,29.143702,,,TRUE,,,,,,,-SN,OVC,5300,,,,,,,VFR,,,,,,,,,,,,METAR,17.0
EFKI 171420Z AUTO 14001KT 8000 -SN OVC028 M18/M21 Q0984,EFKI,2019-01-17T14:20:00Z,64.27,27.67,-18.0,-21.0,140,1,,4.97,29.055119,,,TRUE,,,,,,,-SN,OVC,2800,,,,,,,MVFR,,,,,,,,,,,,METAR,136.0
EFKE 171420Z 02004KT 9999 -SN BKN028 M22/M25 Q0987,EFKE,2019-01-17T14:20:00Z,65.77,24.57,-22.0,-25.0,20,4,,6.21,29.143702,,,,,,,,,,-SN,BKN,2800,,,,,,,MVFR,,,,,,,,,,,,METAR,15.0
EFKS 171420Z AUTO 05004KT 020V080 9999 -SN BKN033 M10/M12 Q0984,EFKS,2019-01-17T14:20:00Z,66.0,29.23,-10.0,-12.0,50,4,,6.21,29.055119,,,TRUE,,,,,,,-SN,BKN,3300,,,,,,,VFR,,,,,,,,,,,,METAR,263.0
EFKT 171420Z 31002KT 9999 -SN BKN040 BKN117 M16/M18 Q0987,EFKT,2019-01-17T14:20:00Z,67.7,24.85,-16.0,-18.0,310,2,,6.21,29.143702,,,,,,,,,,-SN,BKN,4000,BKN,11700,,,,,VFR,,,,,,,,,,,,METAR,643.0
LATI 171420Z VRB01KT CAVOK 15/M01 Q1020 NOSIG,LATI,2019-01-17T14:20:00Z,41.42,19.72,15.0,-1.0,0,1,,6.21,30.11811,,,,,,TRUE,,,,,CAVOK,,,,,,,,VFR,,,,,,,,,,,,METAR,90.0
KJSL 171420Z AUTO 15007KT 130V220 10SM FEW022 SCT110 21/16 A3022 RMK A01,KJSL,2019-01-17T14:20:00Z,26.23,-95.25,21.0,16.0,150,7,,10.0,30.221457,,,TRUE,TRUE,,,,,,,FEW,2200,SCT,11000,,,,,VFR,,,,,,,,,,,,METAR,10.0
KMHV 171420Z AUTO 26005KT 5SM BR FEW045 OVC060 11/11 A3004 RMK A01,KMHV,2019-01-17T14:20:00Z,35.07,-118.15,11.0,11.0,260,5,,5.0,30.041338,,,TRUE,TRUE,,,,,,BR,FEW,4500,OVC,6000,,,,,MVFR,,,,,,,,,,,,METAR,849.0
KGZN 171420Z AUTO 34006KT 10SM CLR 07/03 A3016 RMK AO2,KGZN,2019-01-17T14:20:00Z,32.37,-99.02,7.0,3.0,340,6,,10.0,30.159449,,,TRUE,TRUE,,,,,,,CLR,,,,,,,,VFR,,,,,,,,,,,,METAR,522.0
EGEO 171420Z 32005KT 9999 FEW030 04/M01 Q1016,EGEO,2019-01-17T14:20:00Z,56.47,-5.4,4.0,-1.0,320,5,,6.21,30.0,,,,,,,,,,,FEW,3000,,,,,,,VFR,,,,,,,,,,,,METAR,6.0
EGAE 171420Z 20006KT 9999 FEW040 05/00 Q1017,EGAE,2019-01-17T14:20:00Z,55.03,-7.15,5.0,0.0,200,6,,6.21,30.029528,,,,,,,,,,,FEW,4000,,,,,,,VFR,,,,,,,,,,,,METAR,9.0
EGPM 171420Z 33011KT 9999 VCSH FEW026CB 04/M03 Q1011 NOSIG,EGPM,2019-01-17T14:20:00Z,60.42,-1.3,4.0,-3.0,330,11,,6.21,29.852362,,,,,,TRUE,,,,VCSH,FEW,2600,,,,,,,VFR,,,,,,,,,,,,METAR,22.0
EGPO 171420Z 30002KT 9999 FEW018CB FEW039 03/00 Q1015,EGPO,2019-01-17T14:20:00Z,58.22,-6.32,3.0,0.0,300,2,,6.21,29.970472,,,,,,,,,,,FEW,1800,FEW,3900,,,,,VFR,,,,,,,,,,,,METAR,13.0
EGPL 171420Z 00000KT 9999 FEW020 05/M01 Q1016,EGPL,2019-01-17T14:20:00Z,57.47,-7.37,5.0,-1.0,0,0,,6.21,30.0,,,,,,,,,,,FEW,2000,,,,,,,VFR,,,,,,,,,,,,METAR,6.0
EGPC 171420Z 33006KT 9999 VCSH FEW012CB 02/M01 Q1013,EGPC,2019-01-17T14:20:00Z,58.45,-3.07,2.0,-1.0,330,6,,6.21,29.911417,,,,,,,,,,VCSH,FEW,1200,,,,,,,VFR,,,,,,,,,,,,METAR,39.0
EGPA 171420Z 31007KT 9999 VCSH FEW014 FEW022CB 03/M00 Q1013,EGPA,2019-01-17T14:20:00Z,58.95,-2.88,3.0,0.0,310,7,,6.21,29.911417,,,,,,,,,,VCSH,FEW,1400,FEW,2200,,,,,VFR,,,,,,,,,,,,METAR,21.0
EGTK 171420Z 31013KT CAVOK 04/M03 Q1014,EGTK,2019-01-17T14:20:00Z,51.83,-1.32,4.0,-3.0,310,13,,6.21,29.940945,,,,,,,,,,,CAVOK,,,,,,,,VFR,,,,,,,,,,,,METAR,82.0
EGTC 171420Z 30011KT 9999 FEW035 03/M03 Q1013,EGTC,2019-01-17T14:20:00Z,52.07,-0.62,3.0,-3.0,300,11,,6.21,29.911417,,,,,,,,,,,FEW,3500,,,,,,,VFR,,,,,,,,,,,,METAR,111.0
EGMD 171420Z 32017KT 9999 FEW030 05/M01 Q1013,EGMD,2019-01-17T14:20:00Z,50.95,0.92,5.0,-1.0,320,17,,6.21,29.911417,,,,,,,,,,,FEW,3000,,,,,,,VFR,,,,,,,,,,,,METAR,3.0
EGMC 171420Z 31015KT 9999 FEW038 04/M04 Q1012,EGMC,2019-01-17T14:20:00Z,51.57,0.7,4.0,-4.0,310,15,,6.21,29.88189,,,,,,,,,,,FEW,3800,,,,,,,VFR,,,,,,,,,,,,METAR,15.0
EGLF 171420Z 31011KT 9999 FEW032 04/M04 Q1014,EGLF,2019-01-17T14:20:00Z,51.28,-0.77,4.0,-4.0,310,11,,6.21,29.940945,,,,,,,,,,,FEW,3200,,,,,,,VFR,,,,,,,,,,,,METAR,65.0
EGKB 171420Z 30012KT 270V340 CAVOK 03/M04 Q1013,EGKB,2019-01-17T14:20:00Z,51.32,0.02,3.0,-4.0,300,12,,6.21,29.911417,,,,,,,,,,,CAVOK,,,,,,,,VFR,,,,,,,,,,,,METAR,183.0
EGKA 171420Z 31011KT CAVOK 05/M04 Q1014,EGKA,2019-01-17T14:20:00Z,50.83,-0.3,5.0,-4.0,310,11,,6.21,29.940945,,,,,,,,,,,CAVOK,,,,,,,,VFR,,,,,,,,,,,,METAR,2.0
EGHH 171420Z 35011KT 300V020 CAVOK 06/M04 Q1016,EGHH,2019-01-17T14:20:00Z,50.78,-1.83,6.0,-4.0,350,11,,6.21,30.0,,,,,,,,,,,CAVOK,,,,,,,,VFR,,,,,,,,,,,,METAR,11.0
CWZQ 171420Z AUTO 27020G28KT M09/M11 RMK AO1 T10921109,CWZQ,2019-01-17T14:20:00Z,46.53,-61.05,-9.2,-10.9,270,20,28,,,,,TRUE,TRUE,,,,,,,,,,,,,,,,,,,,,,,,,,,METAR,17.0
LTFM 171420Z 21013KT CAVOK 08/02 Q1019 RMK RWY17L 20014KT RWY34L 20013KT RWY16R 19010KT,LTFM,2019-01-17T14:20:00Z,41.27,28.75,8.0,2.0,210,13,,6.21,30.088583,,,,,,,,,,,CAVOK,,,,,,,,VFR,,,1.4,,,,,,,,,METAR,99.0
LTFJ 171420Z 23007KT CAVOK 09/01 Q1020 NOSIG RMK RWY24 22006KT,LTFJ,2019-01-17T14:20:00Z,40.9,29.3,9.0,1.0,230,7,,6.21,30.11811,,,,,,TRUE,,,,,CAVOK,,,,,,,,VFR,,,,,,,,,,,,METAR,98.0
LTFE 171420Z 27008KT CAVOK 12/03 Q1020 NOSIG RMK RWY10 26008KT,LTFE,2019-01-17T14:20:00Z,37.25,27.67,12.0,3.0,270,8,,6.21,30.11811,,,,,,TRUE,,,,,CAVOK,,,,,,,,VFR,,,,,,,,,,,,METAR,6.0
LTFC 171420Z 32008KT 9999 FEW035 SCT200 04/M03 Q1020 RMK RWY23 29008KT,LTFC,2019-01-17T14:20:00Z,37.87,30.38,4.0,-3.0,320,8,,6.21,30.11811,,,,,,,,,,,FEW,3500,SCT,20000,,,,,VFR,,,,,,,,,,,,METAR,864.0
LTCG 171420Z 19005KT 130V220 9999 SCT012 BKN033 05/01 Q1020 RERA NOSIG RMK RWY29 VRB03KT,LTCG,2019-01-17T14:20:00Z,41.0,39.8,5.0,1.0,190,5,,6.21,30.11811,,,,,,TRUE,,,,,SCT,1200,BKN,3300,,,,,VFR,,,,,,,,,,,,METAR,30.0
LTBS 171420Z 00000KT CAVOK 15/M01 Q1019 NOSIG RMK RWY19 28004KT,LTBS,2019-01-17T14:20:00Z,36.7,28.77,15.0,-1.0,0,0,,6.21,30.088583,,,,,,TRUE,,,,,CAVOK,,,,,,,,VFR,,,,,,,,,,,,METAR,2.0
LTBR 171420Z 00000KT CAVOK 08/00 Q1020 NOSIG RMK RWY07 00000KT,LTBR,2019-01-17T14:20:00Z,40.25,29.57,8.0,0.0,0,0,,6.21,30.11811,,,,,,TRUE,,,,,CAVOK,,,,,,,,VFR,,,,,,,,,,,,METAR,232.0
LTBJ 171420Z VRB02KT CAVOK 11/M00 Q1020 NOSIG RMK RWY16 18004KT,LTBJ,2019-01-17T14:20:00Z,38.28,27.15,11.0,0.0,0,2,,6.21,30.11811,,,,,,TRUE,,,,,CAVOK,,,,,,,,VFR,,,,,,,,,,,,METAR,120.0
LTBA 171420Z 20005KT 170V230 CAVOK 09/03 Q1020 NOSIG RMK RWY17L 20009KT RWY05 19004KT RWY23 21007KT,LTBA,2019-01-17T14:20:00Z,40.97,28.82,9.0,3.0,200,5,,6.21,30.11811,,,,,,TRUE,,,,,CAVOK,,,,,,,,VFR,,,0.9,,,,,,,,,METAR,37.0
LTAZ 171420Z 13002KT 9999 BKN035 M03/M05 Q1019 RMK RWY29 18006KT 140V210,LTAZ,2019-01-17T14:20:00Z,38.77,34.55,-3.0,-5.0,130,2,,6.21,30.088583,,,,,,,,,,,BKN,3500,,,,,,,VFR,,,,,,,,,,,,METAR,945.0
LTAJ 171420Z 31021KT CAVOK 04/M07 Q1013 NOSIG RMK RWY10 31016KT,LTAJ,2019-01-17T14:20:00Z,36.95,37.48,4.0,-7.0,310,21,,6.21,29.911417,,,,,,TRUE,,,,,CAVOK,,,,,,,,VFR,,,,,,,,,,,,METAR,855.0
LTAI 171420Z 33008KT 290V350 CAVOK 15/M03 Q1019 NOSIG RMK RWY18C 31009KT RWY36R 33008KT 300V360 RWY18L 32007KT,LTAI,2019-01-17T14:20:00Z,36.9,30.8,15.0,-3.0,330,8,,6.21,30.088583,,,,,,TRUE,,,,,CAVOK,,,,,,,,VFR,,,,,,,,,,,,METAR,54.0
LTAF 171420Z 30005KT 270V340 CAVOK 12/M02 Q1017 NOSIG RMK RWY23 34008KT 300V010,LTAF,2019-01-17T14:20:00Z,36.97,35.28,12.0,-2.0,300,5,,6.21,30.029528,,,,,,TRUE,,,,,CAVOK,,,,,,,,VFR,,,,,,,,,,,,METAR,20.0
LTAC 171420Z 28006KT 9999 SCT040 BKN100 00/M04 Q1018 NOSIG RMK RWY21L 25010KT RWY03L 27005KT RWY21R 25008KT,LTAC,2019-01-17T14:20:00Z,40.12,32.97,0.0,-4.0,280,6,,6.21,30.059055,,,,,,TRUE,,,,,SCT,4000,BKN,10000,,,,,VFR,,,,,,,,,,,,METAR,949.0
LTCJ 171420Z 02001KT 1500 R02/P1500N R20/P1500D -SN BR FEW005 BKN025 OVC080 00/00 Q1007,LTCJ,2019-01-17T14:20:00Z,37.93,41.12,0.0,0.0,20,1,,0.93,29.734253,,,,,,,,,,-SN BR,FEW,500,BKN,2500,OVC,8000,,,LIFR,,,,,,,,,,,,METAR,540.0
LTCE 171420Z VRB02KT 9999 SCT030 BKN070 M08/M12 Q1009 NOSIG RMK RWY08R VRB02KT RWY26R VRB02KT RWY08L 18003KT,LTCE,2019-01-17T14:20:00Z,39.95,41.17,-8.0,-12.0,0,2,,6.21,29.793306,,,,,,TRUE,,,,,SCT,3000,BKN,7000,,,,,VFR,,,,,,,,,,,,METAR,1758.0
LTCC 171420Z 32015KT 9999 BKN035 BKN100 04/M05 Q1008 NOSIG RMK RWY16 33014KT,LTCC,2019-01-17T14:20:00Z,37.87,40.2,4.0,-5.0,320,15,,6.21,29.763779,,,,,,TRUE,,,,,BKN,3500,BKN,10000,,,,,VFR,,,,,,,,,,,,METAR,677.0
LTBU 171420Z 12007KT CAVOK 08/04 Q1019 RMK RWY22 16006KT,LTBU,2019-01-17T14:20:00Z,41.12,27.92,8.0,4.0,120,7,,6.21,30.088583,,,,,,,,,,,CAVOK,,,,,,,,VFR,,,,,,,,,,,,METAR,173.0
LTAU 171420Z 27009KT 7000 -SN FEW010 BKN026 M04/M05 Q1018 NOSIG RMK RWY07 /////KT,LTAU,2019-01-17T14:20:00Z,38.77,35.47,-4.0,-5.0,270,9,,4.35,30.059055,,,,,,TRUE,,,,-SN,FEW,1000,BKN,2600,,,,,MVFR,,,,,,,,,,,,METAR,1054.0
ETNT 171420Z 29009KT 9999 FEW015TCU SCT060 03/01 Q0998 BLU+BLU+ TEMPO GRN,ETNT,2019-01-17T14:20:00Z,53.53,7.67,3.0,1.0,290,9,,6.21,29.468504,,,,,,,,,,,FEW,1500,SCT,6000,,,,,VFR,,,,,,,,,,,,SPECI,12.0
ETWM 171420Z 28006KT 9999 FEW010 SCT020CB BKN060 03/02 Q1000 BLU,ETWM,2019-01-17T14:20:00Z,52.72,7.33,3.0,2.0,280,6,,6.21,29.52756,,,,,,,,,,,FEW,1000,SCT,2000,BKN,6000,,,VFR,,,,,,,,,,,,METAR,21.0
KAFP 171420Z AUTO 00000KT 10SM CLR 01/M01 A3029 RMK AO2 T00071008,KAFP,2019-01-17T14:20:00Z,35.02,-80.08,0.7,-0.8,0,0,,10.0,30.28937,,,TRUE,TRUE,,,,,,,CLR,,,,,,,,VFR,,,,,,,,,,,,SPECI,92.0
K7W6 171420Z AUTO 04008KT 10SM CLR 06/02 A3033 RMK AO2 T00610022,K7W6,2019-01-17T14:20:00Z,35.55,-75.95,6.1,2.2,40,8,,10.0,30.33071,,,TRUE,TRUE,,,,,,,CLR,,,,,,,,VFR,,,,,,,,,,,,SPECI,2.0
ETGG 171420Z 31021G36KT 9999 SCT012CB BKN025 02/00 Q0994 RESHRA BLU,ETGG,2019-01-17T14:20:00Z,54.83,9.5,2.0,0.0,310,21,36,6.21,29.350393,,,,,,,,,,,SCT,1200,BKN,2500,,,,,MVFR,,,,,,,,,,,,METAR,33.0
K1A5 171420Z AUTO 00000KT 5SM BR OVC003 00/00 A3024 RMK AO2 T10051005,K1A5,2019-01-17T14:20:00Z,35.22,-83.42,-0.5,-0.5,0,0,,5.0,30.239174,,,TRUE,TRUE,,,,,,BR,OVC,300,,,,,,,LIFR,,,,,,,,,,,,SPECI,616.0
VNKT 171420Z 10004KT 4000 BR FEW015 10/06 Q1019 NOSIG,VNKT,2019-01-17T14:20:00Z,27.68,85.37,10.0,6.0,100,4,,2.49,30.088583,,,,,,TRUE,,,,BR,FEW,1500,,,,,,,IFR,,,,,,,,,,,,METAR,1337.0
EGPU 171420Z 04002KT 9999 FEW035 05/M01 Q1016,EGPU,2019-01-17T14:20:00Z,56.5,-6.87,5.0,-1.0,40,2,,6.21,30.0,,,,,,,,,,,FEW,3500,,,,,,,VFR,,,,,,,,,,,,METAR,12.0
EDAC 171420Z 23011KT 9999 SCT030 07/02 Q1000,EDAC,2019-01-17T14:20:00Z,50.98,12.5,7.0,2.0,230,11,,6.21,29.52756,,,,,,,,,,,SCT,3000,,,,,,,VFR,,,,,,,,,,,,METAR,195.0
EGPN 171420Z 31008KT 290V360 9999 FEW025 05/M02 Q1014,EGPN,2019-01-17T14:20:00Z,56.45,-3.02,5.0,-2.0,310,8,,6.21,29.940945,,,,,,,,,,,FEW,2500,,,,,,,VFR,,,,,,,,,,,,METAR,4.0
ESNX 171420Z 30002KT CAVOK M24/M26 Q0986,ESNX,2019-01-17T14:20:00Z,65.58,19.28,-24.0,-26.0,300,2,,6.21,29.114174,,,,,,,,,,,CAVOK,,,,,,,,VFR,,,,,,,,,,,,METAR,379.0
ESNG 171420Z 30003KT 9999 -SN FEW013 SCT021 BKN062 M21/M24 Q0986,ESNG,2019-01-17T14:20:00Z,67.13,20.82,-21.0,-24.0,300,3,,6.21,29.114174,,,,,,,,,,-SN,FEW,1300,SCT,2100,BKN,6200,,,VFR,,,,,,,,,,,,METAR,310.0
LIRN 171420Z 20009KT 170V240 9999 FEW040 SCT050 13/06 Q1018 NOSIG,LIRN,2019-01-17T14:20:00Z,40.88,14.3,13.0,6.0,200,9,,6.21,30.059055,,,,,,TRUE,,,,,FEW,4000,SCT,5000,,,,,VFR,,,,,,,,,,,,METAR,72.0
ESNS 171420Z 26002KT CAVOK M21/M23 Q0989,ESNS,2019-01-17T14:20:00Z,64.62,21.07,-21.0,-23.0,260,2,,6.21,29.202755,,,,,,,,,,,CAVOK,,,,,,,,VFR,,,,,,,,,,,,METAR,49.0
ESNU 171420Z 31006KT CAVOK M18/M21 Q0990 R14/75//39,ESNU,2019-01-17T14:20:00Z,63.78,20.27,-18.0,-21.0,310,6,,6.21,29.232283,,,,,,,,,,,CAVOK,,,,,,,,VFR,,,,,,,,,,,,METAR,14.0
ESNZ 171420Z 30013KT 9999 R12/P1500N R30/1500 BKN035 M08/M10 Q0989,ESNZ,2019-01-17T14:20:00Z,63.17,14.5,-8.0,-10.0,300,13,,6.21,29.202755,,,,,,,,,,,BKN,3500,,,,,,,VFR,,,,,,,,,,,,METAR,370.0
EGHC 171420Z 36010KT 9999 FEW025 06/M01 Q1017,EGHC,2019-01-17T14:20:00Z,50.1,-5.67,6.0,-1.0,360,10,,6.21,30.029528,,,,,,,,,,,FEW,2500,,,,,,,VFR,,,,,,,,,,,,METAR,122.0
EGHE 171420Z 35009KT 9999 FEW036 08/M01 Q1019,EGHE,2019-01-17T14:20:00Z,49.92,-6.28,8.0,-1.0,350,9,,6.21,30.088583,,,,,,,,,,,FEW,3600,,,,,,,VFR,,,,,,,,,,,,METAR,31.0
EGHQ 171420Z 01005KT 350V070 9999 FEW020 06/00 Q1017,EGHQ,2019-01-17T14:20:00Z,50.43,-5.0,6.0,0.0,10,5,,6.21,30.029528,,,,,,,,,,,FEW,2000,,,,,,,VFR,,,,,,,,,,,,METAR,119.0
EGJA 171420Z 34013KT 9999 FEW028 06/M03 Q1016,EGJA,2019-01-17T14:20:00Z,49.72,-2.2,6.0,-3.0,340,13,,6.21,30.0,,,,,,,,,,,FEW,2800,,,,,,,VFR,,,,,,,,,,,,METAR,71.0
EGJB 171420Z 36011KT 9999 FEW030 06/M05 Q1016,EGJB,2019-01-17T14:20:00Z,49.42,-2.6,6.0,-5.0,360,11,,6.21,30.0,,,,,,,,,,,FEW,3000,,,,,,,VFR,,,,,,,,,,,,METAR,102.0
EGJJ 171420Z 36010KT 320V040 9999 FEW028 08/M00 Q1016,EGJJ,2019-01-17T14:20:00Z,49.22,-2.2,8.0,0.0,360,10,,6.21,30.0,,,,,,,,,,,FEW,2800,,,,,,,VFR,,,,,,,,,,,,METAR,84.0
EGKK 171420Z 31012KT CAVOK 05/M04 Q1014,EGKK,2019-01-17T14:20:00Z,51.13,-0.17,5.0,-4.0,310,12,,6.21,29.940945,,,,,,,,,,,CAVOK,,,,,,,,VFR,,,,,,,,,,,,METAR,62.0
EGBB 171420Z 32012KT CAVOK 05/M05 Q1014,EGBB,2019-01-17T14:20:00Z,52.47,-1.75,5.0,-5.0,320,12,,6.21,29.940945,,,,,,,,,,,CAVOK,,,,,,,,VFR,,,,,,,,,,,,METAR,99.0
EGLL 171420Z AUTO 31008KT 280V350 9999 NCD 05/M03 Q1014,EGLL,2019-01-17T14:20:00Z,51.48,-0.45,5.0,-3.0,310,8,,6.21,29.940945,,,TRUE,,,,,,,,CLR,,,,,,,,VFR,,,,,,,,,,,,METAR,24.0
EGPF 171420Z AUTO 25007KT 9999 NCD 04/M02 Q1016,EGPF,2019-01-17T14:20:00Z,55.87,-4.42,4.0,-2.0,250,7,,6.21,30.0,,,TRUE,,,,,,,,CLR,,,,,,,,VFR,,,,,,,,,,,,METAR,8.0
EGPH 171420Z 28005KT CAVOK 05/M03 Q1015,EGPH,2019-01-17T14:20:00Z,55.95,-3.35,5.0,-3.0,280,5,,6.21,29.970472,,,,,,,,,,,CAVOK,,,,,,,,VFR,,,,,,,,,,,,METAR,41.0
EGSS 171420Z AUTO 32011KT 9999 SCT038 03/M03 Q1012,EGSS,2019-01-17T14:20:00Z,51.88,0.22,3.0,-3.0,320,11,,6.21,29.88189,,,TRUE,,,,,,,,SCT,3800,,,,,,,VFR,,,,,,,,,,,,METAR,106.0
EGPK 171420Z 33005KT 9999 FEW030 04/M02 Q1016,EGPK,2019-01-17T14:20:00Z,55.5,-4.57,4.0,-2.0,330,5,,6.21,30.0,,,,,,,,,,,FEW,3000,,,,,,,VFR,,,,,,,,,,,,METAR,20.0
EGCC 171420Z AUTO 32009KT 280V350 9999 NCD 04/M05 Q1015 NOSIG,EGCC,2019-01-17T14:20:00Z,53.35,-2.27,4.0,-5.0,320,9,,6.21,29.970472,,,TRUE,,,TRUE,,,,,CLR,,,,,,,,VFR,,,,,,,,,,,,METAR,78.0
ESKN 171420Z 31007KT 9999 BKN015 M03/M04 Q0991 R26/710195,ESKN,2019-01-17T14:20:00Z,58.78,16.9,-3.0,-4.0,310,7,,6.21,29.26181,,,,,,,,,,,BKN,1500,,,,,,,MVFR,,,,,,,,,,,,METAR,43.0
ESOE 171420Z 35005KT 9999 FEW040 BKN058 M03/M07 Q0993,ESOE,2019-01-17T14:20:00Z,59.22,15.05,-3.0,-7.0,350,5,,6.21,29.320866,,,,,,,,,,,FEW,4000,BKN,5800,,,,,VFR,,,,,,,,,,,,METAR,57.0
ESOK 171420Z 35009KT 9999 SCT030 M07/M08 Q0994,ESOK,2019-01-17T14:20:00Z,59.45,13.33,-7.0,-8.0,350,9,,6.21,29.350393,,,,,,,,,,,SCT,3000,,,,,,,VFR,,,,,,,,,,,,METAR,107.0
ESOW 171420Z 34007KT 9999 BKN023 M03/M07 Q0992 R01/790538,ESOW,2019-01-17T14:20:00Z,59.57,16.62,-3.0,-7.0,340,7,,6.21,29.291338,,,,,,,,,,,BKN,2300,,,,,,,MVFR,,,,,,,,,,,,METAR,31.0
ESSA 171420Z 33010KT 9999 FEW015 M04/M06 Q0990 R01L/29//64 R08/29//66 R01R/SNOCLO NOSIG,ESSA,2019-01-17T14:20:00Z,59.63,17.93,-4.0,-6.0,330,10,,6.21,29.232283,,,,,,TRUE,,,,SN,FEW,1500,,,,,,,VFR,,,,,,,,,,,,METAR,61.0
ESSB 171420Z 33012KT 9999 SCT020 M03/M06 Q0991 R12/29//72,ESSB,2019-01-17T14:20:00Z,59.35,17.93,-3.0,-6.0,330,12,,6.21,29.26181,,,,,,,,,,,SCT,2000,,,,,,,VFR,,,,,,,,,,,,METAR,11.0
ESSD 171420Z 31008KT CAVOK M07/M09 Q0993,ESSD,2019-01-17T14:20:00Z,60.42,15.5,-7.0,-9.0,310,8,,6.21,29.320866,,,,,,,,,,,CAVOK,,,,,,,,VFR,,,,,,,,,,,,METAR,161.0
ESSP 171420Z 31007KT 9999 FEW017 SCT040 M03/M05 Q0992 R27/19//72,ESSP,2019-01-17T14:20:00Z,58.57,16.25,-3.0,-5.0,310,7,,6.21,29.291338,,,,,,,,,,,FEW,1700,SCT,4000,,,,,VFR,,,,,,,,,,,,METAR,8.0
EGAA 171420Z 09003KT CAVOK 04/M02 Q1016,EGAA,2019-01-17T14:20:00Z,54.63,-6.22,4.0,-2.0,90,3,,6.21,30.0,,,,,,,,,,,CAVOK,,,,,,,,VFR,,,,,,,,,,,,METAR,81.0
ESSV 171420Z 35015KT 9999 BKN018 M01/M04 Q0990 R21/19//62,ESSV,2019-01-17T14:20:00Z,57.67,18.35,-1.0,-4.0,350,15,,6.21,29.232283,,,,,,,,,,,BKN,1800,,,,,,,MVFR,,,,,,,,,,,,METAR,47.0
EGAC 171420Z AUTO 33005KT 9999 NCD 05/M01 Q1016,EGAC,2019-01-17T14:20:00Z,54.62,-5.87,5.0,-1.0,330,5,,6.21,30.0,,,TRUE,,,,,,,,CLR,,,,,,,,VFR,,,,,,,,,,,,METAR,5.0
EGGW 171420Z AUTO 31017KT 9999 NCD 03/M03 Q1013,EGGW,2019-01-17T14:20:00Z,51.87,-0.37,3.0,-3.0,310,17,,6.21,29.911417,,,TRUE,,,,,,,,CLR,,,,,,,,VFR,,,,,,,,,,,,METAR,160.0
EGFF 171420Z AUTO 36009KT 9999 NCD 06/M02 Q1016,EGFF,2019-01-17T14:20:00Z,51.38,-3.35,6.0,-2.0,360,9,,6.21,30.0,,,TRUE,,,,,,,,CLR,,,,,,,,VFR,,,,,,,,,,,,METAR,67.0
ESNQ 171420Z 00000KT 9999 FEW013 M25/M28 Q0985,ESNQ,2019-01-17T14:20:00Z,67.82,20.32,-25.0,-28.0,0,0,,6.21,29.084646,,,,,,,,,,,FEW,1300,,,,,,,VFR,,,,,,,,,,,,METAR,452.0
ESNO 171420Z 33003KT CAVOK M15/M18 Q0989,ESNO,2019-01-17T14:20:00Z,63.38,18.97,-15.0,-18.0,330,3,,6.21,29.202755,,,,,,,,,,,CAVOK,,,,,,,,VFR,,,,,,,,,,,,METAR,103.0
ESNN 171420Z 26003KT CAVOK M09/M11 Q0991 R16/79//49,ESNN,2019-01-17T14:20:00Z,62.52,17.43,-9.0,-11.0,260,3,,6.21,29.26181,,,,,,,,,,,CAVOK,,,,,,,,VFR,,,,,,,,,,,,METAR,10.0
ESNK 171420Z AUTO 35004KT 9999 NCD M13/M14 Q0991,ESNK,2019-01-17T14:20:00Z,63.03,17.77,-13.0,-14.0,350,4,,6.21,29.26181,,,TRUE,,,,,,,,CLR,,,,,,,,VFR,,,,,,,,,,,,METAR,19.0
KIXA 171420Z AUTO 00000KT 10SM CLR 00/00 A3035 RMK AO2,KIXA,2019-01-17T14:20:00Z,36.33,-77.63,0.0,0.0,0,0,,10.0,30.351377,,,TRUE,TRUE,,,,,,,CLR,,,,,,,,VFR,,,,,,,,,,,,SPECI,44.0
KHRJ 171420Z AUTO 09006KT 10SM CLR 04/02 A3031 RMK AO2 T00400020,KHRJ,2019-01-17T14:20:00Z,35.38,-78.73,4.0,2.0,90,6,,10.0,30.31004,,,TRUE,TRUE,,,,,,,CLR,,,,,,,,VFR,,,,,,,,,,,,SPECI,60.0
KFFA 171420Z AUTO 06007KT 030V110 10SM CLR 07/00 A3032 RMK AO2 T00670004,KFFA,2019-01-17T14:20:00Z,36.02,-75.67,6.7,0.4,60,7,,10.0,30.318897,,,TRUE,TRUE,,,,,,,CLR,,,,,,,,VFR,,,,,,,,,,,,SPECI,4.0
KEYF 171420Z AUTO 07004KT 10SM BKN006 03/01 A3032 RMK AO2 PWINO T00250011,KEYF,2019-01-17T14:20:00Z,34.6,-78.58,2.5,1.1,70,4,,10.0,30.318897,,,TRUE,TRUE,,,,,TRUE,,BKN,600,,,,,,,IFR,,,,,,,,,,,,SPECI,41.0
KEXX 171420Z AUTO 00000KT 10SM CLR 01/M01 A3029 RMK AO2 T00101009,KEXX,2019-01-17T14:20:00Z,35.78,-80.3,1.0,-0.9,0,0,,10.0,30.28937,,,TRUE,TRUE,,,,,,,CLR,,,,,,,,VFR,,,,,,,,,,,,SPECI,223.0
KEDE 171420Z AUTO 07004KT 10SM CLR 05/02 A3035 RMK AO2 T00540022,KEDE,2019-01-17T14:20:00Z,36.02,-76.57,5.4,2.2,70,4,,10.0,30.351377,,,TRUE,TRUE,,,,,,,CLR,,,,,,,,VFR,,,,,,,,,,,,SPECI,6.0
KDPL 171420Z AUTO 08003KT 7SM BR CLR 03/02 A3032 RMK AO2,KDPL,2019-01-17T14:20:00Z,35.0,-77.97,3.0,2.0,80,3,,7.0,30.318897,,,TRUE,TRUE,,,,,,BR,CLR,,,,,,,,VFR,,,,,,,,,,,,SPECI,42.0
KDMW 171420Z AUTO 07004KT 10SM OVC035 M01/M08 A3033 RMK AO2,KDMW,2019-01-17T14:20:00Z,39.6,-77.0,-1.0,-8.0,70,4,,10.0,30.33071,,,TRUE,TRUE,,,,,,,OVC,3500,,,,,,,VFR,,,,,,,,,,,,SPECI,241.0
KCTZ 171420Z AUTO 09005KT 10SM CLR 04/03 A3033 RMK AO2 T00400028,KCTZ,2019-01-17T14:20:00Z,34.98,-78.37,4.0,2.8,90,5,,10.0,30.33071,,,TRUE,TRUE,,,,,,,CLR,,,,,,,,VFR,,,,,,,,,,,,SPECI,45.0
KCPC 171420Z AUTO 05005KT 10SM CLR 04/02 A3030 RMK AO2 T00350015,KCPC,2019-01-17T14:20:00Z,34.28,-78.72,3.5,1.5,50,5,,10.0,30.301182,,,TRUE,TRUE,,,,,,,CLR,,,,,,,,VFR,,,,,,,,,,,,SPECI,29.0
KCGE 171420Z AUTO VRB04KT 10SM CLR 01/M04 A3038 RMK A01,KCGE,2019-01-17T14:20:00Z,38.53,-76.03,1.0,-4.0,0,4,,10.0,30.380905,,,TRUE,TRUE,,,,,,,CLR,,,,,,,,VFR,,,,,,,,,,,,SPECI,6.0
KCBE 171420Z AUTO 03003KT 10SM OVC039 00/M04 A3033 RMK AO2 T00011043,KCBE,2019-01-17T14:20:00Z,39.62,-78.77,0.1,-4.3,30,3,,10.0,30.33071,,,TRUE,TRUE,,,,,,,OVC,3900,,,,,,,VFR,,,,,,,,,,,,SPECI,236.0
LGAL 171420Z 24006KT 9999 FEW030 12/08 Q1018,LGAL,2019-01-17T14:20:00Z,40.85,25.95,12.0,8.0,240,6,,6.21,30.059055,,,,,,,,,,,FEW,3000,,,,,,,VFR,,,,,,,,,,,,METAR,3.0
KMQI 171420Z AUTO 07012KT 10SM CLR 07/01 A3033 RMK AO2 T00700008,KMQI,2019-01-17T14:20:00Z,35.92,-75.7,7.0,0.8,70,12,,10.0,30.33071,,,TRUE,TRUE,,,,,,,CLR,,,,,,,,VFR,,,,,,,,,,,,SPECI,4.0
KMRN 171420Z AUTO 00000KT 10SM CLR 00/M01 A3030 RMK AO2 T00021007,KMRN,2019-01-17T14:20:00Z,35.82,-81.62,0.2,-0.7,0,0,,10.0,30.301182,,,TRUE,TRUE,,,,,,,CLR,,,,,,,,VFR,,,,,,,,,,,,SPECI,387.0
KONX 171420Z AUTO 10SM CLR 06/02 A3035 RMK AO2 T00560015,KONX,2019-01-17T14:20:00Z,36.4,-76.02,5.6,1.5,,,,10.0,30.351377,,,TRUE,TRUE,,,,,,,CLR,,,,,,,,VFR,,,,,,,,,,,,SPECI,5.0
EKBI 171420Z 03012KT 9999 FEW015CB BKN037 01/M03 Q0995 RESHSN,EKBI,2019-01-17T14:20:00Z,55.72,9.15,1.0,-3.0,30,12,,6.21,29.379921,,,,,,,,,,,FEW,1500,BKN,3700,,,,,VFR,,,,,,,,,,,,METAR,66.0
ETNL 171420Z 24012KT 9999 SCT023 BKN038 05/01 Q0994 BLU BLU TEMPO WHT,ETNL,2019-01-17T14:20:00Z,53.92,12.27,5.0,1.0,240,12,,6.21,29.350393,,,,,,,,,,,SCT,2300,BKN,3800,,,,,VFR,,,,,,,,,,,,METAR,40.0
ETNH 171420Z 28012KT 9999 FEW010TCU SCT170 04/02 Q0995 BLU+BLU+ TEMPO YLO,ETNH,2019-01-17T14:20:00Z,54.32,9.55,4.0,2.0,280,12,,6.21,29.379921,,,,,,,,,,,FEW,1000,SCT,17000,,,,,VFR,,,,,,,,,,,,METAR,17.0
ETND 171420Z 29008KT 9999 FEW010 SCT014 BKN040 03/02 Q0999 BLU,ETND,2019-01-17T14:20:00Z,52.58,8.35,3.0,2.0,290,8,,6.21,29.498032,,,,,,,,,,,FEW,1000,SCT,1400,BKN,4000,,,VFR,,,,,,,,,,,,METAR,43.0
ETHS 171420Z 26011KT 9999 SCT011 BKN018 BKN035 04/01 Q0997 WHT BLU TEMPO GRN,ETHS,2019-01-17T14:20:00Z,52.92,10.18,4.0,1.0,260,11,,6.21,29.438976,,,,,,,,,,,SCT,1100,BKN,1800,BKN,3500,,,MVFR,,,,,,,,,,,,METAR,88.0
ETHF 171420Z 26013KT 5000 -SHRA FEW015 BKN026 04/02 Q1000 RESHRA WHT BLU TEMPO YLO,ETHF,2019-01-17T14:20:00Z,51.12,9.27,4.0,2.0,260,13,,3.11,29.52756,,,,,,,,,,-SHRA,FEW,1500,BKN,2600,,,,,MVFR,,,,,,,,,,,,METAR,181.0
ETHC 171420Z 22009KT 9999 -RA SCT015 BKN029 BKN080 04/02 Q0998 BLU BLU TEMPO WHT,ETHC,2019-01-17T14:20:00Z,52.6,10.02,4.0,2.0,220,9,,6.21,29.468504,,,,,,,,,,-RA,SCT,1500,BKN,2900,BKN,8000,,,MVFR,,,,,,,,,,,,SPECI,52.0
LTCS 171420Z 28017KT CAVOK 02/M06 Q1010 RMK RWY22 31016KT,LTCS,2019-01-17T14:20:00Z,37.45,38.9,2.0,-6.0,280,17,,6.21,29.822834,,,,,,,,,,,CAVOK,,,,,,,,VFR,,,,,,,,,,,,METAR,825.0
ETSN 171420Z 26008G21KT 9999 FEW025 BKN040 06/02 Q1006 BLU BLU TEMPO WHT,ETSN,2019-01-17T14:20:00Z,48.72,11.22,6.0,2.0,260,8,21,6.21,29.704725,,,,,,,,,,,FEW,2500,BKN,4000,,,,,VFR,,,,,,,,,,,,SPECI,387.0
ETSL 171420Z 22011KT 9999 -RA FEW015 BKN050 BKN080 04/01 Q1007 BLU BLU TEMPO WHT,ETSL,2019-01-17T14:20:00Z,48.17,10.87,4.0,1.0,220,11,,6.21,29.734253,,,,,,,,,,-RA,FEW,1500,BKN,5000,BKN,8000,,,VFR,,,,,,,,,,,,METAR,562.0
ETSI 171420Z 25010KT 9999 FEW030 BKN060 BKN100 06/02 Q1006 BLU BLU TEMPO WHT,ETSI,2019-01-17T14:20:00Z,48.72,11.52,6.0,2.0,250,10,,6.21,29.704725,,,,,,,,,,,FEW,3000,BKN,6000,BKN,10000,,,VFR,,,,,,,,,,,,METAR,370.0
ETSB 171420Z 29011KT 9999 FEW007 BKN012 02/00 Q1003 RESHGS GRN GRN TEMPO YLO,ETSB,2019-01-17T14:20:00Z,50.17,7.07,2.0,0.0,290,11,,6.21,29.616142,,,,,,,,,,,FEW,700,BKN,1200,,,,,MVFR,,,,,,,,,,,,METAR,486.0
ETHL 171420Z 22012KT 9999 FEW015 SCT030 BKN080 05/01 Q1007 BLU BLU TEMPO WHT,ETHL,2019-01-17T14:20:00Z,48.22,9.92,5.0,1.0,220,12,,6.21,29.734253,,,,,,,,,,,FEW,1500,SCT,3000,BKN,8000,,,VFR,,,,,,,,,,,,SPECI,549.0
ETHA 171420Z 29027G37KT 5000 -RASN BR BKN020 BKN060 02/M00 Q1006 BLACKWHT BLU TEMPO GRN,ETHA,2019-01-17T14:20:00Z,47.82,10.87,2.0,0.0,290,27,37,3.11,29.704725,,,,,,,,,,-RA -SN BR,BKN,2000,BKN,6000,,,,,MVFR,,,,,,,,,,,,SPECI,760.0
KW29 171420Z AUTO 08007KT 10SM CLR 01/M06 A3039 RMK AO2,KW29,2019-01-17T14:20:00Z,38.98,-76.33,1.0,-6.0,80,7,,10.0,30.389763,,,TRUE,TRUE,,,,,,,CLR,,,,,,,,VFR,,,,,,,,,,,,SPECI,15.0
KSUT 171420Z AUTO 02003KT 10SM CLR 04/03 A3030 RMK AO2 T00440032,KSUT,2019-01-17T14:20:00Z,33.93,-78.08,4.4,3.2,20,3,,10.0,30.301182,,,TRUE,TRUE,,,,,,,CLR,,,,,,,,VFR,,,,,,,,,,,,SPECI,8.0
ESCF 171420Z 33006KT 9999 FEW014 BKN035 M04/M06 Q0992,ESCF,2019-01-17T14:20:00Z,58.38,15.52,-4.0,-6.0,330,6,,6.21,29.291338,,,,,,,,,,,FEW,1400,BKN,3500,,,,,VFR,,,,,,,,,,,,METAR,117.0
ESND 171420Z 25005KT 9999 -SN FEW039 OVC053 M09/M10 Q0991 RESN,ESND,2019-01-17T14:20:00Z,62.05,14.42,-9.0,-10.0,250,5,,6.21,29.26181,,,,,,,,,,-SN,FEW,3900,OVC,5300,,,,,VFR,,,,,,,,,,,,METAR,359.0
ESUP 171420Z AUTO 23003KT 3500 -SN FEW009/// M22/M24 Q0988,ESUP,2019-01-17T14:20:00Z,67.25,23.07,-22.0,-24.0,230,3,,2.17,29.17323,,,TRUE,,,,,,,-SN,FEW,900,,,,,,,IFR,,,,,,,,,,,,METAR,165.0
ESST 171420Z AUTO 31009KT 9999 ///////// M08/M10 Q0996,ESST,2019-01-17T14:20:00Z,60.15,12.98,-8.0,-10.0,310,9,,6.21,29.409449,,,TRUE,,,,,,,,,,,,,,,,,,,,,,,,,,,,METAR,120.0
ESNV 171420Z AUTO 00000KT 0550 R10/1400D R28/1400U SN FEW003/// M25/M27 Q0988,ESNV,2019-01-17T14:20:00Z,64.58,16.83,-25.0,-27.0,0,0,,0.34,29.17323,,,TRUE,,,,,,,SN,FEW,300,,,,,,,LIFR,,,,,,,,,,,,METAR,348.0
ESKM 171420Z AUTO 29006KT 9999 NCD M08/M11 Q0993,ESKM,2019-01-17T14:20:00Z,60.97,14.52,-8.0,-11.0,290,6,,6.21,29.320866,,,TRUE,,,,,,,,CLR,,,,,,,,VFR,,,,,,,,,,,,METAR,193.0
ESGR 171420Z AUTO 34007KT 9999 OVC012/// M04/M06 Q0993,ESGR,2019-01-17T14:20:00Z,58.45,13.97,-4.0,-6.0,340,7,,6.21,29.320866,,,TRUE,,,,,,,,OVC,1200,,,,,,,MVFR,,,,,,,,,,,,METAR,105.0
EGSH 171420Z 31016KT 270V350 9999 FEW015 SCT020 BKN037 04/01 Q1010 TEMPO 3000 SHRASN BKN006,EGSH,2019-01-17T14:20:00Z,52.68,1.28,4.0,1.0,310,16,,6.21,29.822834,,,,,,,,,,,FEW,1500,SCT,2000,BKN,3700,,,VFR,,,,,,,,,,,,METAR,36.0
EGSC 171420Z 32012KT 9999 SCT034 05/M04 Q1012,EGSC,2019-01-17T14:20:00Z,52.2,0.17,5.0,-4.0,320,12,,6.21,29.88189,,,,,,,,,,,SCT,3400,,,,,,,VFR,,,,,,,,,,,,METAR,15.0
EGCN 171420Z 33016KT CAVOK 04/M03 Q1014,EGCN,2019-01-17T14:20:00Z,53.48,-1.0,4.0,-3.0,330,16,,6.21,29.940945,,,,,,,,,,,CAVOK,,,,,,,,VFR,,,,,,,,,,,,METAR,17.0
EGCK 171420Z 32008KT 9999 SCT045 06/00 Q1016,EGCK,2019-01-17T14:20:00Z,53.1,4.33,6.0,0.0,320,8,,6.21,30.0,,,,,,,,,,,SCT,4500,,,,,,,VFR,,,,,,,,,,,,METAR,0.0
EGBJ 171420Z 31008KT 9999 FEW030 06/M02 Q1015,EGBJ,2019-01-17T14:20:00Z,51.9,-2.17,6.0,-2.0,310,8,,6.21,29.970472,,,,,,,,,,,FEW,3000,,,,,,,VFR,,,,,,,,,,,,METAR,29.0
EGPD 171420Z 30013KT 8000 VCSH FEW016CB SCT032 03/00 Q1013 TEMPO 3000 SHRASN,EGPD,2019-01-17T14:20:00Z,57.2,-2.22,3.0,0.0,300,13,,4.97,29.911417,,,,,,,,,,VCSH,FEW,1600,SCT,3200,,,,,MVFR,,,,,,,,,,,,METAR,65.0
EGPB 171420Z 01008KT 9999 VCSH FEW017 02/M04 Q1011,EGPB,2019-01-17T14:20:00Z,59.87,-1.3,2.0,-4.0,10,8,,6.21,29.852362,,,,,,,,,,VCSH,FEW,1700,,,,,,,VFR,,,,,,,,,,,,METAR,5.0
EGNV 171420Z 32013KT 9999 FEW020 04/M03 Q1013,EGNV,2019-01-17T14:20:00Z,54.52,-1.42,4.0,-3.0,320,13,,6.21,29.911417,,,,,,,,,,,FEW,2000,,,,,,,VFR,,,,,,,,,,,,METAR,37.0
EGNT 171420Z 31011KT 9999 FEW020 04/M02 Q1013,EGNT,2019-01-17T14:20:00Z,55.02,-1.7,4.0,-2.0,310,11,,6.21,29.911417,,,,,,,,,,,FEW,2000,,,,,,,VFR,,,,,,,,,,,,METAR,81.0
EGHI 171420Z 33011KT 300V020 9999 FEW032 04/M05 Q1015,EGHI,2019-01-17T14:20:00Z,50.95,-1.35,4.0,-5.0,330,11,,6.21,29.970472,,,,,,,,,,,FEW,3200,,,,,,,VFR,,,,,,,,,,,,METAR,14.0
EGGP 171420Z 32010KT CAVOK 05/M04 Q1015,EGGP,2019-01-17T14:20:00Z,53.32,-2.85,5.0,-4.0,320,10,,6.21,29.970472,,,,,,,,,,,CAVOK,,,,,,,,VFR,,,,,,,,,,,,METAR,26.0
EGGD 171420Z AUTO 34010KT 9999 NCD 04/M03 Q1015,EGGD,2019-01-17T14:20:00Z,51.37,-2.72,4.0,-3.0,340,10,,6.21,29.970472,,,TRUE,,,,,,,,CLR,,,,,,,,VFR,,,,,,,,,,,,METAR,189.0
EGNX 171420Z 30012KT CAVOK 04/M03 Q1014,EGNX,2019-01-17T14:20:00Z,52.82,-1.32,4.0,-3.0,300,12,,6.21,29.940945,,,,,,,,,,,CAVOK,,,,,,,,VFR,,,,,,,,,,,,METAR,94.0
EGNM 171420Z 31015KT 9999 FEW030 03/M03 Q1013,EGNM,2019-01-17T14:20:00Z,53.87,-1.63,3.0,-3.0,310,15,,6.21,29.911417,,,,,,,,,,,FEW,3000,,,,,,,VFR,,,,,,,,,,,,METAR,208.0
EGLC 171420Z AUTO 30016KT 9999 NCD 05/M04 Q1013,EGLC,2019-01-17T14:20:00Z,51.5,0.05,5.0,-4.0,300,16,,6.21,29.911417,,,TRUE,,,,,,,,CLR,,,,,,,,VFR,,,,,,,,,,,,METAR,5.0
ETSH 171420Z 23007KT 9999 VCSH FEW021 SCT027TCU BKN040 06/03 Q0999 BLU BLU TEMPO AMB,ETSH,2019-01-17T14:20:00Z,51.77,13.17,6.0,3.0,230,7,,6.21,29.498032,,,,,,,,,,VCSH,FEW,2100,SCT,2700,BKN,4000,,,VFR,,,,,,,,,,,,SPECI,79.0
ESDF 171420Z 35007KT 9999 SCT010 BKN013 02/01 Q0990,ESDF,2019-01-17T14:20:00Z,56.27,15.27,2.0,1.0,350,7,,6.21,29.232283,,,,,,,,,,,SCT,1000,BKN,1300,,,,,MVFR,,,,,,,,,,,,METAR,74.0
ESIB 171420Z 36014KT 9999 SCT023 M04/M07 Q0994,ESIB,2019-01-17T14:20:00Z,58.42,12.68,-4.0,-7.0,360,14,,6.21,29.350393,,,,,,,,,,,SCT,2300,,,,,,,VFR,,,,,,,,,,,,METAR,74.0
LTAP 171420Z 28006KT 9999 SCT040 BKN080 M01/M03 Q1018 NOSIG RMK RWY23 27004KT,LTAP,2019-01-17T14:20:00Z,40.83,35.52,-1.0,-3.0,280,6,,6.21,30.059055,,,,,,TRUE,,,,,SCT,4000,BKN,8000,,,,,VFR,,,,,,,,,,,,METAR,535.0
LTAG 171420Z 27017KT 9999 FEW035 10/M03 Q1017 NOSIG,LTAG,2019-01-17T14:20:00Z,37.0,35.42,10.0,-3.0,270,17,,6.21,30.029528,,,,,,TRUE,,,,,FEW,3500,,,,,,,VFR,,,,,,,,,,,,METAR,66.0
LCEN 171420Z 00000KT CAVOK 12/01 Q1018 NOSIG RMK RWY11 00000KT,LCEN,2019-01-17T14:20:00Z,35.13,33.5,12.0,1.0,0,0,,6.21,30.059055,,,,,,TRUE,,,,,CAVOK,,,,,,,,VFR,,,,,,,,,,,,METAR,91.0
ENHK 171420Z 12010KT 9999 -SHSN FEW018 BKN025 M04/M08 Q0990,ENHK,2019-01-17T14:20:00Z,70.47,22.13,-4.0,-8.0,120,10,,6.21,29.232283,,,,,,,,,,-SHSN,FEW,1800,BKN,2500,,,,,MVFR,,,,,,,,,,,,METAR,10.0
EGNS 171420Z 36006KT 240V030 9999 FEW035 06/M04 Q1016 NOSIG,EGNS,2019-01-17T14:20:00Z,54.08,-4.63,6.0,-4.0,360,6,,6.21,30.0,,,,,,TRUE,,,,,FEW,3500,,,,,,,VFR,,,,,,,,,,,,METAR,17.0
EGEC 171420Z 04003KT CAVOK 05/M02 Q1016,EGEC,2019-01-17T14:20:00Z,55.43,-5.68,5.0,-2.0,40,3,,6.21,30.0,,,,,,,,,,,CAVOK,,,,,,,,VFR,,,,,,,,,,,,METAR,13.0
ESCM 171420Z AUTO 34011KT 9999 BKN017/// M04/M06 Q0991,ESCM,2019-01-17T14:20:00Z,59.87,17.6,-4.0,-6.0,340,11,,6.21,29.26181,,,TRUE,,,,,,,,BKN,1700,,,,,,,MVFR,,,,,,,,,,,,METAR,41.0
ESIA 171420Z 35005KT 270V030 9999 FEW011 BKN017 OVC021 M04/M06 Q0993,ESIA,2019-01-17T14:20:00Z,58.52,14.5,-4.0,-6.0,350,5,,6.21,29.320866,,,,,,,,,,,FEW,1100,BKN,1700,OVC,2100,,,MVFR,,,,,,,,,,,,METAR,94.0
ESSL 171420Z 31006KT 9999 SCT012 BKN037 M04/M05 Q0992 R29/09//95,ESSL,2019-01-17T14:20:00Z,58.38,15.67,-4.0,-5.0,310,6,,6.21,29.291338,,,,,,,,,,,SCT,1200,BKN,3700,,,,,VFR,,,,,,,,,,,,METAR,52.0
ESPE 171420Z 27001KT CAVOK M28/M31 Q0989,ESPE,2019-01-17T14:20:00Z,65.88,20.15,-28.0,-31.0,270,1,,6.21,29.202755,,,,,,,,,,,CAVOK,,,,,,,,VFR,,,,,,,,,,,,METAR,182.0
ESPA 171420Z 33006KT CAVOK M22/M25 Q0989,ESPA,2019-01-17T14:20:00Z,65.53,22.12,-22.0,-25.0,330,6,,6.21,29.202755,,,,,,,,,,,CAVOK,,,,,,,,VFR,,,,,,,,,,,,METAR,34.0
EDGS 171420Z 28015KT 1200 R31/1100VP2000D SHSN BR SCT002 BKN003 M00/M00 Q1000,EDGS,2019-01-17T14:20:00Z,50.7,8.08,0.0,0.0,280,15,,0.75,29.52756,,,,,,,,,,SHSN BR,SCT,200,BKN,300,,,,,LIFR,,,,,,,,,,,,METAR,602.0
KLHZ 171420Z AUTO 7SM SCT018 00/00 A3036 RMK AO2,KLHZ,2019-01-17T14:20:00Z,36.02,-78.33,0.0,0.0,,,,7.0,30.360237,,,TRUE,TRUE,,,,,,,SCT,1800,,,,,,,VFR,,,,,,,,,,,,SPECI,113.0
KGWW 171420Z AUTO 06003KT 10SM CLR 02/01 A3033 RMK AO2 T00220011,KGWW,2019-01-17T14:20:00Z,35.47,-77.97,2.2,1.1,60,3,,10.0,30.33071,,,TRUE,TRUE,,,,,,,CLR,,,,,,,,VFR,,,,,,,,,,,,SPECI,41.0
KFQD 171420Z AUTO 00000KT 10SM CLR 01/00 A3029 RMK AO2,KFQD,2019-01-17T14:20:00Z,35.42,-81.93,1.0,0.0,0,0,,10.0,30.28937,,,TRUE,TRUE,,,,,,,CLR,,,,,,,,VFR,,,,,,,,,,,,SPECI,329.0
KETC 171420Z AUTO 03003KT 10SM CLR 02/00 A3035 RMK AO2 T00171005,KETC,2019-01-17T14:20:00Z,35.93,-77.55,1.7,-0.5,30,3,,10.0,30.351377,,,TRUE,TRUE,,,,,,,CLR,,,,,,,,VFR,,,,,,,,,,,,SPECI,17.0
KASJ 171420Z AUTO 00000KT 10SM CLR 02/M01 A3036 RMK AO2 T00151007,KASJ,2019-01-17T14:20:00Z,36.28,-77.17,1.5,-0.7,0,0,,10.0,30.360237,,,TRUE,TRUE,,,,,,,CLR,,,,,,,,VFR,,,,,,,,,,,,SPECI,21.0
K24A 171420Z AUTO 00000KT 10SM OVC050 M01/M01 A3018 RMK AO2 T10071014,K24A,2019-01-17T14:20:00Z,35.32,-83.2,-0.7,-1.4,0,0,,10.0,30.180119,,,TRUE,TRUE,,,,,,,OVC,5000,,,,,,,VFR,,,,,,,,,,,,SPECI,871.0
LGRP 171420Z 25010KT 9999 FEW025 14/05 Q1020 NOSIG,LGRP,2019-01-17T14:20:00Z,36.4,28.08,14.0,5.0,250,10,,6.21,30.11811,,,,,,TRUE,,,,,FEW,2500,,,,,,,VFR,,,,,,,,,,,,METAR,5.0
EDOP 171420Z 22015KT 9999 FEW022 SCT045 05/01 Q0995,EDOP,2019-01-17T14:20:00Z,53.43,11.78,5.0,1.0,220,15,,6.21,29.379921,,,,,,,,,,,FEW,2200,SCT,4500,,,,,VFR,,,,,,,,,,,,METAR,51.0
EDXW 171420Z 32013KT 9999 FEW022 BKN059 04/02 Q0994,EDXW,2019-01-17T14:20:00Z,54.92,8.33,4.0,2.0,320,13,,6.21,29.350393,,,,,,,,,,,FEW,2200,BKN,5900,,,,,VFR,,,,,,,,,,,,METAR,20.0
EDVE 171420Z 27012KT 9999 -RA FEW019 SCT024 BKN030 04/M00 Q0998,EDVE,2019-01-17T14:20:00Z,52.32,10.55,4.0,0.0,270,12,,6.21,29.468504,,,,,,,,,,-RA,FEW,1900,SCT,2400,BKN,3000,,,MVFR,,,,,,,,,,,,METAR,88.0
EDTY 171420Z 24015KT 9999 FEW023 SCT041 BKN049 06/02 Q1005,EDTY,2019-01-17T14:20:00Z,49.12,9.78,6.0,2.0,240,15,,6.21,29.675198,,,,,,,,,,,FEW,2300,SCT,4100,BKN,4900,,,VFR,,,,,,,,,,,,METAR,400.0
EDTL 171420Z 27013KT 9999 BKN040 07/02 Q1009,EDTL,2019-01-17T14:20:00Z,48.37,7.83,7.0,2.0,270,13,,6.21,29.793306,,,,,,,,,,,BKN,4000,,,,,,,VFR,,,,,,,,,,,,METAR,156.0
EDMO 171420Z 24019KT 9999 SCT023 04/M00 Q1006,EDMO,2019-01-17T14:20:00Z,48.07,11.27,4.0,0.0,240,19,,6.21,29.704725,,,,,,,,,,,SCT,2300,,,,,,,VFR,,,,,,,,,,,,METAR,600.0
EDJA 171420Z 23015KT 9999 FEW016 SCT034 03/00 Q1007,EDJA,2019-01-17T14:20:00Z,47.98,10.23,3.0,0.0,230,15,,6.21,29.734253,,,,,,,,,,,FEW,1600,SCT,3400,,,,,VFR,,,,,,,,,,,,METAR,633.0
EDHI 171420Z 27012KT 9999 FEW016 04/02 Q0996,EDHI,2019-01-17T14:20:00Z,53.53,9.83,4.0,2.0,270,12,,6.21,29.409449,,,,,,,,,,,FEW,1600,,,,,,,VFR,,,,,,,,,,,,METAR,13.0
EDAH 171420Z 24014KT 9999 BKN038 05/01 Q0995,EDAH,2019-01-17T14:20:00Z,53.87,14.15,5.0,1.0,240,14,,6.21,29.379921,,,,,,,,,,,BKN,3800,,,,,,,VFR,,,,,,,,,,,,METAR,28.0
LGKR 171420Z 14005KT 9999 FEW035 14/06 Q1021 NOSIG,LGKR,2019-01-17T14:20:00Z,39.62,19.92,14.0,6.0,140,5,,6.21,30.147638,,,,,,TRUE,,,,,FEW,3500,,,,,,,VFR,,,,,,,,,,,,METAR,2.0
LGIR 171420Z 31007KT 9999 FEW025 14/11 Q1020 NOSIG,LGIR,2019-01-17T14:20:00Z,35.32,25.17,14.0,11.0,310,7,,6.21,30.11811,,,,,,TRUE,,,,,FEW,2500,,,,,,,VFR,,,,,,,,,,,,METAR,39.0
LGAV 171420Z 19009KT CAVOK 13/01 Q1019 NOSIG,LGAV,2019-01-17T14:20:00Z,37.93,23.95,13.0,1.0,190,9,,6.21,30.088583,,,,,,TRUE,,,,,CAVOK,,,,,,,,VFR,,,,,,,,,,,,METAR,94.0
EDVK 171420Z 23018G29KT 9999 VCSH FEW011 BKN032 BKN064 04/02 Q0998,EDVK,2019-01-17T14:20:00Z,51.38,9.37,4.0,2.0,230,18,29,6.21,29.468504,,,,,,,,,,VCSH,FEW,1100,BKN,3200,BKN,6400,,,VFR,,,,,,,,,,,,METAR,285.0
EDLV 171420Z 30006KT 250V330 9999 -RA BKN015 03/02 Q1004,EDLV,2019-01-17T14:20:00Z,51.6,6.15,3.0,2.0,300,6,,6.21,29.64567,,,,,,,,,,-RA,BKN,1500,,,,,,,MVFR,,,,,,,,,,,,METAR,32.0
EDFM 171420Z 23012KT 200V260 9999 FEW026 FEW031TCU 07/02 Q1005,EDFM,2019-01-17T14:20:00Z,49.47,8.52,7.0,2.0,230,12,,6.21,29.675198,,,,,,,,,,,FEW,2600,FEW,3100,,,,,VFR,,,,,,,,,,,,METAR,100.0
EDFH 171420Z 27022G34KT 9999 -RA BKN009 02/02 Q1003,EDFH,2019-01-17T14:20:00Z,49.95,7.27,2.0,2.0,270,22,34,6.21,29.616142,,,,,,,,,,-RA,BKN,900,,,,,,,IFR,,,,,,,,,,,,METAR,498.0
EDHL 171420Z 23014G25KT 190V270 9999 BKN021 05/01 Q0995,EDHL,2019-01-17T14:20:00Z,53.8,10.72,5.0,1.0,230,14,25,6.21,29.379921,,,,,,,,,,,BKN,2100,,,,,,,MVFR,,,,,,,,,,,,METAR,16.0
EDSB 171420Z 23016G26KT 9999 VCSH FEW034TCU BKN040 BKN058 07/02 Q1007,EDSB,2019-01-17T14:20:00Z,48.78,8.08,7.0,2.0,230,16,26,6.21,29.734253,,,,,,,,,,VCSH,FEW,3400,BKN,4000,BKN,5800,,,VFR,,,,,,,,,,,,METAR,124.0
EDQM 171420Z 23014G25KT 9999 FEW012 SCT017 BKN023 03/01 Q1001,EDQM,2019-01-17T14:20:00Z,50.3,11.85,3.0,1.0,230,14,25,6.21,29.557087,,,,,,,,,,,FEW,1200,SCT,1700,BKN,2300,,,MVFR,,,,,,,,,,,,METAR,568.0
EDNY 171420Z 24015KT 9999 -RA FEW049 OVC054 05/03 Q1009,EDNY,2019-01-17T14:20:00Z,47.67,9.52,5.0,3.0,240,15,,6.21,29.793306,,,,,,,,,,-RA,FEW,4900,OVC,5400,,,,,VFR,,,,,,,,,,,,METAR,424.0
EDMA 171420Z 25012KT 9999 -RA FEW014 BKN019 OVC027 04/03 Q1006 RERA,EDMA,2019-01-17T14:20:00Z,48.42,10.92,4.0,3.0,250,12,,6.21,29.704725,,,,,,,,,,-RA,FEW,1400,BKN,1900,OVC,2700,,,MVFR,,,,,,,,,,,,METAR,463.0
EDLW 171420Z 27010KT 230V310 9999 -RA BKN008 BKN014 03/02 Q1001,EDLW,2019-01-17T14:20:00Z,51.52,7.62,3.0,2.0,270,10,,6.21,29.557087,,,,,,,,,,-RA,BKN,800,BKN,1400,,,,,IFR,,,,,,,,,,,,METAR,127.0
EDLP 171420Z 26009KT 200V310 6000 FEW003 BKN005 02/01 Q1000,EDLP,2019-01-17T14:20:00Z,51.62,8.62,2.0,1.0,260,9,,3.73,29.52756,,,,,,,,,,,FEW,300,BKN,500,,,,,IFR,,,,,,,,,,,,METAR,213.0
EDLN 171420Z 30011KT 9999 SCT026 BKN070 04/02 Q1004,EDLN,2019-01-17T14:20:00Z,51.23,6.5,4.0,2.0,300,11,,6.21,29.64567,,,,,,,,,,,SCT,2600,BKN,7000,,,,,VFR,,,,,,,,,,,,METAR,38.0
KOLV 171420Z 20012KT 1SM RA BR OVC006 08/08 A3008,KOLV,2019-01-17T14:20:00Z,34.98,-89.78,8.0,8.0,200,12,,1.0,30.079725,,,,,,,,,,RA BR,OVC,600,,,,,,,IFR,,,,,,,,,,,,SPECI,122.0
LOWW 171420Z 14015KT CAVOK 08/M01 Q1007 NOSIG,LOWW,2019-01-17T14:20:00Z,48.12,16.57,8.0,-1.0,140,15,,6.21,29.734253,,,,,,TRUE,,,,,CAVOK,,,,,,,,VFR,,,,,,,,,,,,METAR,190.0
LOWL 171420Z VRB02KT 9999 FEW070 09/01 Q1006 NOSIG,LOWL,2019-01-17T14:20:00Z,48.22,14.18,9.0,1.0,0,2,,6.21,29.704725,,,,,,TRUE,,,,,FEW,7000,,,,,,,VFR,,,,,,,,,,,,METAR,313.0
LOWS 171420Z 15003KT 120V240 9999 FEW090 05/M02 Q1006 NOSIG,LOWS,2019-01-17T14:20:00Z,47.78,13.02,5.0,-2.0,150,3,,6.21,29.704725,,,,,,TRUE,,,,,FEW,9000,,,,,,,VFR,,,,,,,,,,,,METAR,430.0
LOWI 171420Z 25003KT 190V280 9999 SCT070 06/M01 Q1006 WS R26 NOSIG,LOWI,2019-01-17T14:20:00Z,47.27,11.33,6.0,-1.0,250,3,,6.21,29.704725,,,,,,TRUE,,,,,SCT,7000,,,,,,,VFR,,,,,,,,,,,,SPECI,581.0
LOWG 171420Z 16004KT 9999 FEW060 SCT300 12/01 Q1007 R17/19//95 NOSIG,LOWG,2019-01-17T14:20:00Z,47.0,15.42,12.0,1.0,160,4,,6.21,29.734253,,,,,,TRUE,,,,,FEW,6000,SCT,30000,,,,,VFR,,,,,,,,,,,,SPECI,347.0
LOWK 171420Z 08002KT 9999 FEW040 BKN080 07/00 Q1009 R10L/19//95 NOSIG,LOWK,2019-01-17T14:20:00Z,46.65,14.32,7.0,0.0,80,2,,6.21,29.793306,,,,,,TRUE,,,,,FEW,4000,BKN,8000,,,,,VFR,,,,,,,,,,,,SPECI,441.0
ENMS 171420Z 16001KT 9999 VCSH SCT016 BKN026 M12/M13 Q0991 RMK WIND 412FT /////KT,ENMS,2019-01-17T14:20:00Z,65.78,13.22,-12.0,-13.0,160,1,,6.21,29.26181,,,,,,,,,,VCSH,SCT,1600,BKN,2600,,,,,MVFR,,,,,,,,,,,,SPECI,70.0
ENRS 171420Z 31030KT 9999 VCSH FEW009 SCT015 BKN035 M01/M05 Q0991,ENRS,2019-01-17T14:20:00Z,67.52,12.08,-1.0,-5.0,310,30,,6.21,29.26181,,,,,,,,,,VCSH,FEW,900,SCT,1500,BKN,3500,,,VFR,,,,,,,,,,,,METAR,4.0
ENSK 171420Z 34006KT 9999 FEW015 SCT020 BKN040 M05/M07 Q0989,ENSK,2019-01-17T14:20:00Z,68.57,15.02,-5.0,-7.0,340,6,,6.21,29.202755,,,,,,,,,,,FEW,1500,SCT,2000,BKN,4000,,,VFR,,,,,,,,,,,,METAR,3.0
ENSO 171420Z 36010KT 9999 FEW022 01/M05 Q1002,ENSO,2019-01-17T14:20:00Z,59.78,5.33,1.0,-5.0,360,10,,6.21,29.586615,,,,,,,,,,,FEW,2200,,,,,,,VFR,,,,,,,,,,,,METAR,49.0
ENST 171420Z 34013G24KT 290V030 9999 -SHSNGS FEW010CB FEW015 BKN030 01/M04 Q0992 RMK WIND 300FT 32018G28KT,ENST,2019-01-17T14:20:00Z,65.97,12.47,1.0,-4.0,340,13,24,6.21,29.291338,,,,,,,,,,-SHSN -SHGS,FEW,1000,FEW,1500,BKN,3000,,,MVFR,,,,,,,,,,,,SPECI,17.0
ENVD 171420Z 13012KT 9999 SCT020 BKN065 M02/M06 Q0989,ENVD,2019-01-17T14:20:00Z,70.07,29.85,-2.0,-6.0,130,12,,6.21,29.202755,,,,,,,,,,,SCT,2000,BKN,6500,,,,,VFR,,,,,,,,,,,,METAR,39.0
ENQR 171420Z AUTO 02032KT 9999NDV SCT022/// 02/M04 Q1006 W///S6,ENQR,2019-01-17T14:20:00Z,61.35,2.22,2.0,-4.0,20,32,,,29.704725,,,TRUE,,,,,,,,SCT,2200,,,,,,,,,,,,,,,,,,,METAR,10.0
ENSE 171420Z AUTO 01032KT 9999NDV FEW025/// SCT066/// 02/M02 Q1007 W///S7,ENSE,2019-01-17T14:20:00Z,61.45,2.15,2.0,-2.0,10,32,,,29.734253,,,TRUE,,,,,,,,FEW,2500,SCT,6600,,,,,,,,,,,,,,,,,METAR,10.0
ENQC 171420Z AUTO 02030KT 9999NDV FEW027/// 03/M02 Q1004 W///S6,ENQC,2019-01-17T14:20:00Z,60.88,3.62,3.0,-2.0,20,30,,,29.64567,,,TRUE,,,,,,,,FEW,2700,,,,,,,,,,,,,,,,,,,METAR,20.0
ENQA 171420Z AUTO 02030KT 4200NDV -SHSN SCT011/// BKN048/// BKN058/// 01/00 Q1004 W02/S6,ENQA,2019-01-17T14:20:00Z,60.65,3.72,1.0,0.0,20,30,,,29.64567,,,TRUE,,,,,,,-SHSN,SCT,1100,BKN,4800,BKN,5800,,,,,,,,,,,,,,,METAR,20.0
ENHM 171420Z 01025KT 9999 VCSH FEW010 SCT030TCU 02/00 Q1006 W07/S6,ENHM,2019-01-17T14:20:00Z,59.57,2.23,2.0,0.0,10,25,,6.21,29.704725,,,,,,,,,,VCSH,FEW,1000,SCT,3000,,,,,VFR,,,,,,,,,,,,METAR,10.0
ENLA 171420Z AUTO 36036KT //// SCT037/// 05/M02 Q//// W///S5,ENLA,2019-01-17T14:20:00Z,57.1,2.83,5.0,-2.0,360,36,,,,,,TRUE,,,,,,,,SCT,3700,,,,,,,,,,,,,,,,,,,METAR,4.0
ENUG 171420Z AUTO 12008KT 080V160 9999NDV FEW028/// SCT110/// BKN170/// M01/M07 Q0989 W06/S4,ENUG,2019-01-17T14:20:00Z,,,-1.0,-7.0,120,8,,,29.202755,,,TRUE,,,,,,,,FEW,2800,SCT,11000,BKN,17000,,,,,,,,,,,,,,,METAR,
ENWV 171420Z AUTO 35026G38KT 310V010 9999NDV FEW044/// 05/M04 Q1002 W///S5,ENWV,2019-01-17T14:20:00Z,,,5.0,-4.0,350,26,38,,29.586615,,,TRUE,,,,,,,,FEW,4400,,,,,,,,,,,,,,,,,,,METAR,
ENOV 171420Z VRB06KT 9999 VCSH FEW037 SCT045 01/M08 Q1003 RMK WIND 2175FT 34026G36KT,ENOV,2019-01-17T14:20:00Z,62.17,6.07,1.0,-8.0,0,6,,6.21,29.616142,,,,,,,,,,VCSH,FEW,3700,SCT,4500,,,,,VFR,,,,,,,,,,,,SPECI,74.0
ENSD 171420Z 16007KT 100V250 9999 FEW007 SCT021 BKN045 M01/M03 Q1003 RMK WIND 1138FT 35006KT,ENSD,2019-01-17T14:20:00Z,61.82,6.12,-1.0,-3.0,160,7,,6.21,29.616142,,,,,,,,,,,FEW,700,SCT,2100,BKN,4500,,,VFR,,,,,,,,,,,,SPECI,60.0
ENBL 171420Z 33008KT 1000 SHSN VV006 M03/M04 Q1001,ENBL,2019-01-17T14:20:00Z,61.4,5.77,-3.0,-4.0,330,8,,0.62,29.557087,,,,,,,,,,SHSN,OVX,0,,,,,,,LIFR,,,,,,,,,,,600,METAR,150.0
ENFL 171420Z 36015G30KT 9999 VCSH FEW010 SCT018CB 02/M06 Q1004,ENFL,2019-01-17T14:20:00Z,61.57,5.02,2.0,-6.0,360,15,30,6.21,29.64567,,,,,,,,,,VCSH,FEW,1000,SCT,1800,,,,,VFR,,,,,,,,,,,,METAR,9.0
ENKB 171420Z 34012KT 4000 -SHSN FEW003 FEW010CB SCT013 BKN019 M01/M03 Q1001 RMK WIND 745FT 34031KT,ENKB,2019-01-17T14:20:00Z,63.12,7.82,-1.0,-3.0,340,12,,2.49,29.557087,,,,,,,,,,-SHSN,FEW,300,FEW,1000,SCT,1300,BKN,1900,IFR,,,,,,,,,,,,SPECI,62.0
EKVG 171420Z AUTO 00000KT 9999NDV FEW190/// M02/M05 Q1014 RMK NCD WIND SKEID 32004KT,EKVG,2019-01-17T14:20:00Z,62.07,-7.3,-2.0,-5.0,0,0,,,29.940945,,,TRUE,,,,,,,,FEW,19000,,,,,,,,,,,,,,,,,,,METAR,85.0
ETHB 171420Z 26013KT 9999 -RADZ FEW003 BKN008 03/02 Q0999 GRN BLU TEMPO GRN,ETHB,2019-01-17T14:20:00Z,52.27,9.07,3.0,2.0,260,13,,6.21,29.498032,,,,,,,,,,-RA -DZ,FEW,300,BKN,800,,,,,IFR,,,,,,,,,,,,SPECI,78.0
EGNO 171420Z 34007KT 300V010 9999 FEW030 05/M02 Q1015,EGNO,2019-01-17T14:20:00Z,53.75,-2.88,5.0,-2.0,340,7,,6.21,29.970472,,,,,,,,,,,FEW,3000,,,,,,,VFR,,,,,,,,,,,,METAR,17.0
LSGG 171420Z 21008KT 170V240 9999 VCSH SCT035 BKN050 07/00 Q1013 NOSIG,LSGG,2019-01-17T14:20:00Z,46.25,6.12,7.0,0.0,210,8,,6.21,29.911417,,,,,,TRUE,,,,VCSH,SCT,3500,BKN,5000,,,,,VFR,,,,,,,,,,,,METAR,416.0
LSZH 171420Z 22008KT 9999 -SHRA SCT020 BKN026 05/02 Q1010 TEMPO SHRA,LSZH,2019-01-17T14:20:00Z,47.48,8.53,5.0,2.0,220,8,,6.21,29.822834,,,,,,,,,,-SHRA,SCT,2000,BKN,2600,,,,,MVFR,,,,,,,,,,,,METAR,432.0
EKKA 171420Z AUTO 04014KT 010V070 9999NDV -RA OVC051/// 01/M05 Q0996 NOSIG,EKKA,2019-01-17T14:20:00Z,56.3,9.12,1.0,-5.0,40,14,,,29.409449,,,TRUE,,,TRUE,,,,-RA,OVC,5100,,,,,,,,,,,,,,,,,,,SPECI,52.0
EKSP 171420Z 28003KT 9999 FEW012 SCT016CB BKN062 04/02 Q0993 TEMPO 5000 SHRA SCT020CB,EKSP,2019-01-17T14:20:00Z,55.22,9.27,4.0,2.0,280,3,,6.21,29.320866,,,,,,,,,,,FEW,1200,SCT,1600,BKN,6200,,,VFR,,,,,,,,,,,,SPECI,40.0
LSZL 171420Z 25003KT 9000 -RA SCT030 BKN040 OVC060 06/04 Q1012 RMK BLU,LSZL,2019-01-17T14:20:00Z,46.17,8.88,6.0,4.0,250,3,,5.59,29.88189,,,,,,,,,,-RA,SCT,3000,BKN,4000,OVC,6000,,,VFR,,,,,,,,,,,,METAR,600.0
LSZC 171420Z 19005KT 100V270 9999 -RA BKN030 04/03 Q1011,LSZC,2019-01-17T14:20:00Z,46.97,8.38,4.0,3.0,190,5,,6.21,29.852362,,,,,,,,,,-RA,BKN,3000,,,,,,,MVFR,,,,,,,,,,,,METAR,450.0
LSZS 171420Z 24012KT 9999 BKN045 M00/M04 Q1006 R03/910195 RMK P,LSZS,2019-01-17T14:20:00Z,46.53,9.88,0.0,-4.0,240,12,,6.21,29.704725,,,,,,,,,,,BKN,4500,,,,,,,VFR,,,,,,,,,,,,METAR,1706.0
LSZR 171420Z 25013KT 220V290 9999 -RA FEW038 BKN046 06/03 Q1009 NOSIG RMK J,LSZR,2019-01-17T14:20:00Z,47.48,9.57,6.0,3.0,250,13,,6.21,29.793306,,,,,,TRUE,,,,-RA,FEW,3800,BKN,4600,,,,,VFR,,,,,,,,,,,,METAR,398.0
LSZG 171420Z 23014KT 9999 SCT040 SCT045 BKN050 06/01 Q1011 NOSIG,LSZG,2019-01-17T14:20:00Z,47.17,7.42,6.0,1.0,230,14,,6.21,29.852362,,,,,,TRUE,,,,,SCT,4000,SCT,4500,BKN,5000,,,VFR,,,,,,,,,,,,METAR,430.0
LSGS 171420Z 24008KT 200V270 9999 -RA SCT025 OVC050 04/00 Q1011,LSGS,2019-01-17T14:20:00Z,46.22,7.32,4.0,0.0,240,8,,6.21,29.852362,,,,,,,,,,-RA,SCT,2500,OVC,5000,,,,,VFR,,,,,,,,,,,,METAR,481.0
LSGC 171420Z AUTO 23009KT 9999 BKN008 SCT013 00/M01 Q1010,LSGC,2019-01-17T14:20:00Z,47.08,6.8,0.0,-1.0,230,9,,6.21,29.822834,,,TRUE,,,,,,,,BKN,800,SCT,1300,,,,,IFR,,,,,,,,,,,,METAR,1027.0
ESNL 171420Z AUTO 29003KT 9999 FEW024/// OVC037/// M25/M29 Q0989,ESNL,2019-01-17T14:20:00Z,64.55,18.72,-25.0,-29.0,290,3,,6.21,29.202755,,,TRUE,,,,,,,,FEW,2400,OVC,3700,,,,,VFR,,,,,,,,,,,,METAR,214.0
ESUT 171420Z AUTO 00000KT 8000 -SN BKN017/// BKN024/// OVC036/// M20/M23 Q0987,ESUT,2019-01-17T14:20:00Z,65.8,15.08,-20.0,-23.0,0,0,,4.97,29.143702,,,TRUE,,,,,,,-SN,BKN,1700,BKN,2400,OVC,3600,,,MVFR,,,,,,,,,,,,METAR,463.0
LSZA 171420Z VRB01KT 7000 FEW004 SCT023 BKN028 06/06 Q1012 NOSIG,LSZA,2019-01-17T14:20:00Z,46.0,8.92,6.0,6.0,0,1,,4.35,29.88189,,,,,,TRUE,,,,,FEW,400,SCT,2300,BKN,2800,,,MVFR,,,,,,,,,,,,METAR,276.0
LSZB 171420Z 26011G21KT 220V300 9999 -RA SCT023 OVC035 05/02 Q1011 NOSIG,LSZB,2019-01-17T14:20:00Z,46.92,7.5,5.0,2.0,260,11,21,6.21,29.852362,,,,,,TRUE,,,,-RA,SCT,2300,OVC,3500,,,,,VFR,,,,,,,,,,,,METAR,505.0
ENKR 171420Z 16003KT 9999 FEW045 SCT076 M09/M10 Q0989 RMK WIND 731FT 09006KT,ENKR,2019-01-17T14:20:00Z,69.72,29.88,-9.0,-10.0,160,3,,6.21,29.202755,,,,,,,,,,,FEW,4500,SCT,7600,,,,,VFR,,,,,,,,,,,,SPECI,91.0
ENML 171420Z 33013KT 290V360 1000 R07/P2000D SHSNRA VV007 M01/M03 Q1002,ENML,2019-01-17T14:20:00Z,62.75,7.27,-1.0,-3.0,330,13,,0.62,29.586615,,,,,,,,,,SHSN RA,OVX,0,,,,,,,LIFR,,,,,,,,,,,700,SPECI,3.0
ENNA 171420Z 21002KT 4000 -SN FEW007 BKN018 M10/M12 Q0990 RMK WIND 1800FT 06006KT,ENNA,2019-01-17T14:20:00Z,70.07,24.97,-10.0,-12.0,210,2,,2.49,29.232283,,,,,,,,,,-SN,FEW,700,BKN,1800,,,,,IFR,,,,,,,,,,,,SPECI,8.0
LGBL 171420Z 09004KT CAVOK 12/00 Q1018,LGBL,2019-01-17T14:20:00Z,39.22,22.8,12.0,0.0,90,4,,6.21,30.059055,,,,,,,,,,,CAVOK,,,,,,,,VFR,,,,,,,,,,,,METAR,26.0
LGKP 171420Z 28008KT 9999 FEW035 14/06 Q1021,LGKP,2019-01-17T14:20:00Z,35.42,27.15,14.0,6.0,280,8,,6.21,30.147638,,,,,,,,,,,FEW,3500,,,,,,,VFR,,,,,,,,,,,,METAR,20.0
LGMK 171420Z 15004KT CAVOK 13/04 Q1019,LGMK,2019-01-17T14:20:00Z,37.43,25.35,13.0,4.0,150,4,,6.21,30.088583,,,,,,,,,,,CAVOK,,,,,,,,VFR,,,,,,,,,,,,METAR,123.0
LGPA 171420Z AUTO 17007KT //// // ////// 14/05 Q1020 RE//,LGPA,2019-01-17T14:20:00Z,37.0,25.13,14.0,5.0,170,7,,,30.11811,,,TRUE,,,,,,,,,,,,,,,,,,,,,,,,,,,,METAR,36.0
LGSO 171420Z AUTO 21004KT 140V220 //// // ////// 13/03 Q1020 RE//,LGSO,2019-01-17T14:20:00Z,37.42,24.95,13.0,3.0,210,4,,,30.11811,,,TRUE,,,,,,,,,,,,,,,,,,,,,,,,,,,,METAR,72.0
EBAW 171420Z 32012KT 300V360 7000 -SHRASN FEW010 SCT015TCU BKN024 04/01 Q1007 RESHGS TEMPO 30020G35KT 2500 SHRAGS BKN008CB,EBAW,2019-01-17T14:20:00Z,51.2,4.47,4.0,1.0,320,12,,4.35,29.734253,,,,,,,,,,-SHRA -SHSN,FEW,1000,SCT,1500,BKN,2400,,,MVFR,,,,,,,,,,,,SPECI,14.0
EBBR 171420Z 30016G27KT 270V330 1800 SHGSRASN BKN012CB 02/M01 Q1008 TEMPO 29020G30KT 1500 SHGSSN BKN009CB,EBBR,2019-01-17T14:20:00Z,50.9,4.5,2.0,-1.0,300,16,27,1.12,29.763779,,,,,,,,,,SHGS SHRA SHSN,BKN,1200,,,,,,,IFR,,,,,,,,,,,,SPECI,58.0
EBCI 171420Z 29008KT 250V360 9999 -SHRA FEW010 BKN013 03/01 Q1008 TEMPO 28015G25KT 4000 SHRA BKN012,EBCI,2019-01-17T14:20:00Z,50.47,4.45,3.0,1.0,290,8,,6.21,29.763779,,,,,,,,,,-SHRA,FEW,1000,BKN,1300,,,,,MVFR,,,,,,,,,,,,SPECI,192.0
ENVA 171420Z VRB03KT 9999 VCSH FEW005 SCT032 BKN047 M05/M06 Q0996 RMK WIND 670FT 29017KT,ENVA,2019-01-17T14:20:00Z,63.47,10.92,-5.0,-6.0,0,3,,6.21,29.409449,,,,,,,,,,VCSH,FEW,500,SCT,3200,BKN,4700,,,VFR,,,,,,,,,,,,SPECI,17.0
ENOL 171420Z 33026KT 9999 -SHSN DRSN FEW012 FEW018CB BKN030 01/M05 Q0997 TEMPO 33030G40 0800 SHSNGS DRSN VV007,ENOL,2019-01-17T14:20:00Z,63.7,9.58,1.0,-5.0,330,26,,6.21,29.438976,,,,,,,,,,-SHSN DRSN,FEW,1200,FEW,1800,BKN,3000,,,MVFR,,,,,,,,,,,,SPECI,7.0
ENGM 171420Z 36005KT 340V040 CAVOK M06/M10 Q0996 NOSIG,ENGM,2019-01-17T14:20:00Z,60.2,11.1,-6.0,-10.0,360,5,,6.21,29.409449,,,,,,TRUE,,,,,CAVOK,,,,,,,,VFR,,,,,,,,,,,,METAR,204.0
ENDU 171420Z 00000KT 9999 8000NE -SN FEW012 BKN035 M13/M14 Q0989 NOSIG RMK WIND 1100FT 16007KT WIND 2200FT 20008KT,ENDU,2019-01-17T14:20:00Z,69.03,18.55,-13.0,-14.0,0,0,,6.21,29.202755,,,,,,TRUE,,,,-SN,FEW,1200,BKN,3500,,,,,VFR,,,0.8,,,,,,,,,SPECI,79.0
ENBO 171420Z 08016KT 9999 4000SW VCSH FEW003 FEW012CB SCT020 M07/M09 Q0989 TEMPO 0500 +SHSNGS VV005,ENBO,2019-01-17T14:20:00Z,67.27,14.37,-7.0,-9.0,80,16,,6.21,29.202755,,,,,,,,,,VCSH,FEW,300,FEW,1200,SCT,2000,,,VFR,,,,,,,,,,,,SPECI,13.0
ENBR 171420Z 03004KT 340V070 9999 FEW020 01/M05 Q1002 NOSIG RMK WIND 1200FT 34017KT,ENBR,2019-01-17T14:20:00Z,60.28,5.22,1.0,-5.0,30,4,,6.21,29.586615,,,,,,TRUE,,,,,FEW,2000,,,,,,,VFR,,,,,,,,,,,,SPECI,50.0
ENAN 171420Z 27010KT 9999 FEW030 SCT053 M04/M05 Q0988,ENAN,2019-01-17T14:20:00Z,69.28,16.13,-4.0,-5.0,270,10,,6.21,29.17323,,,,,,,,,,,FEW,3000,SCT,5300,,,,,VFR,,,,,,,,,,,,METAR,14.0
EYVI 171420Z 23012KT 6000 -RASN OVC005 01/00 Q0993 R19/2///95 NOSIG,EYVI,2019-01-17T14:20:00Z,54.63,25.28,1.0,0.0,230,12,,3.73,29.320866,,,,,,TRUE,,,,-RA -SN,OVC,500,,,,,,,IFR,,,,,,,,,,,,METAR,197.0
ENTO 171420Z 36006KT CAVOK M05/M09 Q0997 NOSIG,ENTO,2019-01-17T14:20:00Z,59.2,10.27,-5.0,-9.0,360,6,,6.21,29.438976,,,,,,TRUE,,,,,CAVOK,,,,,,,,VFR,,,,,,,,,,,,METAR,88.0
ENTC 171420Z 19008KT 9999 SG BKN012 BKN021 M06/M09 Q0989 TEMPO 4000 -SN BKN015 RMK WIND 2600FT /////KT,ENTC,2019-01-17T14:20:00Z,69.68,18.92,-6.0,-9.0,190,8,,6.21,29.202755,,,,,,,,,,SG,BKN,1200,BKN,2100,,,,,MVFR,,,,,,,,,,,,SPECI,10.0
ENRY 171420Z 35006KT CAVOK M04/M08 Q0997 NOSIG,ENRY,2019-01-17T14:20:00Z,59.37,10.77,-4.0,-8.0,350,6,,6.21,29.438976,,,,,,TRUE,,,,,CAVOK,,,,,,,,VFR,,,,,,,,,,,,METAR,53.0
ENRO 171420Z 31014KT 7000 -SN BKN019 M06/M07 Q0991,ENRO,2019-01-17T14:20:00Z,62.57,11.33,-6.0,-7.0,310,14,,4.35,29.26181,,,,,,,,,,-SN,BKN,1900,,,,,,,MVFR,,,,,,,,,,,,METAR,626.0
ENHD 171420Z 36020KT 9999 FEW022 03/M05 Q1002,ENHD,2019-01-17T14:20:00Z,59.35,5.22,3.0,-5.0,360,20,,6.21,29.586615,,,,,,,,,,,FEW,2200,,,,,,,VFR,,,,,,,,,,,,METAR,24.0
ENCN 171420Z 01004KT 320V060 CAVOK 01/M08 Q0998,ENCN,2019-01-17T14:20:00Z,58.2,8.07,1.0,-8.0,10,4,,6.21,29.468504,,,,,,,,,,,CAVOK,,,,,,,,VFR,,,,,,,,,,,,METAR,17.0
ENAL 171420Z 32012KT 300V360 9999 VCSH FEW011 SCT029 BKN047 M00/M05 Q1003,ENAL,2019-01-17T14:20:00Z,62.57,6.12,0.0,-5.0,320,12,,6.21,29.616142,,,,,,,,,,VCSH,FEW,1100,SCT,2900,BKN,4700,,,VFR,,,,,,,,,,,,METAR,22.0
EYKA 171420Z 25015KT 9999 OVC012 02/01 Q0992 R08/29//95,EYKA,2019-01-17T14:20:00Z,54.97,24.08,2.0,1.0,250,15,,6.21,29.291338,,,,,,,,,,,OVC,1200,,,,,,,MVFR,,,,,,,,,,,,METAR,77.0
EETN 171420Z 34008KT 9999 -SN OVC008 M03/M03 Q0980 R08/590294 NOSIG,EETN,2019-01-17T14:20:00Z,59.4,24.82,-3.0,-3.0,340,8,,6.21,28.937008,,,,,,TRUE,,,,-SN,OVC,800,,,,,,,IFR,,,,,,,,,,,,METAR,40.0
EVRA 171420Z 24007KT 210V290 9999 -RA OVC013 03/02 Q0986 R18/290195 NOSIG,EVRA,2019-01-17T14:20:00Z,56.92,23.97,3.0,2.0,240,7,,6.21,29.114174,,,,,,TRUE,,,,-RA,OVC,1300,,,,,,,MVFR,,,,,,,,,,,,METAR,10.0
EFHK 171420Z 35011KT 9999 BKN011 M06/M08 Q0981 NOSIG,EFHK,2019-01-17T14:20:00Z,60.32,24.97,-6.0,-8.0,350,11,,6.21,28.966536,,,,,,TRUE,,,,,BKN,1100,,,,,,,MVFR,,,,,,,,,,,,METAR,56.0
EYPA 171420Z 29007G17KT 220V360 9999 BKN016 04/02 Q0990 R19/2///95,EYPA,2019-01-17T14:20:00Z,55.97,21.08,4.0,2.0,290,7,17,6.21,29.232283,,,,,,,,,,,BKN,1600,,,,,,,MVFR,,,,,,,,,,,,METAR,10.0
ENZV 171420Z 35013KT CAVOK 02/M05 Q1001 NOSIG,ENZV,2019-01-17T14:20:00Z,58.87,5.62,2.0,-5.0,350,13,,6.21,29.557087,,,,,,TRUE,,,,,CAVOK,,,,,,,,VFR,,,,,,,,,,,,METAR,9.0
EFVA 171420Z AUTO 29003KT 3300 -SN FEW019/// SCT027/// BKN031/// M08/M09 Q0988,EFVA,2019-01-17T14:20:00Z,63.03,21.77,-8.0,-9.0,290,3,,2.05,29.17323,,,TRUE,,,,,,,-SN,FEW,1900,SCT,2700,BKN,3100,,,IFR,,,,,,,,,,,,METAR,4.0
EFTU 171420Z AUTO 35008KT 310V040 9999 -SN BKN013/// OVC087/// M07/M09 Q0985,EFTU,2019-01-17T14:20:00Z,60.52,22.27,-7.0,-9.0,350,8,,6.21,29.084646,,,TRUE,,,,,,,-SN,BKN,1300,OVC,8700,,,,,MVFR,,,,,,,,,,,,METAR,59.0
EFTP 171420Z AUTO 36009KT 5000 -SN FEW022 SCT026 BKN050 BKN095 M09/M10 Q0984,EFTP,2019-01-17T14:20:00Z,61.42,23.62,-9.0,-10.0,360,9,,3.11,29.055119,,,TRUE,,,,,,,-SN,FEW,2200,SCT,2600,BKN,5000,BKN,9500,MVFR,,,,,,,,,,,,METAR,112.0
ENHE 171420Z 35038KT 9999 VCSH FEW008 SCT015CB BKN030 00/M08 Q0998 W///S6,ENHE,2019-01-17T14:20:00Z,65.33,2.33,0.0,-8.0,350,38,,6.21,29.468504,,,,,,,,,,VCSH,FEW,800,SCT,1500,BKN,3000,,,MVFR,,,,,,,,,,,,METAR,1.0
ENGC 171420Z 02022KT 9999 VCSH FEW015CB SCT030 03/M04 Q1007 W05/S6,ENGC,2019-01-17T14:20:00Z,61.02,2.02,3.0,-4.0,20,22,,6.21,29.734253,,,,,,,,,,VCSH,FEW,1500,SCT,3000,,,,,VFR,,,,,,,,,,,,SPECI,10.0
ELLX 171420Z 28011KT 9999 FEW007 SCT012 03/02 Q1006 RESHSN TEMPO 25015G30KT 2500 SHSN BKN006CB,ELLX,2019-01-17T14:20:00Z,49.63,6.2,3.0,2.0,280,11,,6.21,29.704725,,,,,,,,,,,FEW,700,SCT,1200,,,,,VFR,,,,,,,,,,,,SPECI,379.0
EBOS 171420Z 30019KT 9999 SCT025 SCT042 04/M00 Q1010 TEMPO 31020G30KT,EBOS,2019-01-17T14:20:00Z,51.2,2.87,4.0,0.0,300,19,,6.21,29.822834,,,,,,,,,,,SCT,2500,SCT,4200,,,,,VFR,,,,,,,,,,,,SPECI,5.0
EBLG 171420Z 29011KT 260V320 9999 SCT010 BKN015 02/00 Q1006 TEMPO 30015G25KT 3500 SHRASN BKN006,EBLG,2019-01-17T14:20:00Z,50.63,5.45,2.0,0.0,290,11,,6.21,29.704725,,,,,,,,,,,SCT,1000,BKN,1500,,,,,MVFR,,,,,,,,,,,,SPECI,178.0
LGPZ 171420Z 00000KT 9999 FEW025 13/05 Q1022,LGPZ,2019-01-17T14:20:00Z,38.92,20.77,13.0,5.0,0,0,,6.21,30.177166,,,,,,,,,,,FEW,2500,,,,,,,VFR,,,,,,,,,,,,METAR,4.0
LGMT 171420Z 15007KT 130V220 CAVOK 11/04 Q1021,LGMT,2019-01-17T14:20:00Z,39.05,26.6,11.0,4.0,150,7,,6.21,30.147638,,,,,,,,,,,CAVOK,,,,,,,,VFR,,,,,,,,,,,,METAR,17.0
LGKV 171420Z 21004KT CAVOK 12/M01 Q1018,LGKV,2019-01-17T14:20:00Z,40.92,24.62,12.0,-1.0,210,4,,6.21,30.059055,,,,,,,,,,,CAVOK,,,,,,,,VFR,,,,,,,,,,,,METAR,5.0
LGEL 171420Z 18010KT CAVOK 14/11 Q1019,LGEL,2019-01-17T14:20:00Z,38.07,23.55,14.0,11.0,180,10,,6.21,30.088583,,,,,,,,,,,CAVOK,,,,,,,,VFR,,,,,,,,,,,,METAR,31.0
ENUN 171420Z AUTO 31039KT //// SCT042/// SCT048/// M01/M10 Q0997 W06/S/,ENUN,2019-01-17T14:20:00Z,,,-1.0,-10.0,310,39,,,29.438976,,,TRUE,,,,,,,,SCT,4200,SCT,4800,,,,,,,,,,,,,,,,,METAR,
ENSF 171420Z AUTO 01021KT //// SCT024/// ///// Q//// W///S6,ENSF,2019-01-17T14:20:00Z,61.25,1.85,,,10,21,,,,,,TRUE,,,,,,,,SCT,2400,,,,,,,,,,,,,,,,,,,METAR,10.0
ENFB 171420Z AUTO 02020KT 9999NDV -SHRA FEW030/// 02/00 Q1007 W///S6,ENFB,2019-01-17T14:20:00Z,61.2,1.83,2.0,0.0,20,20,,,29.734253,,,TRUE,,,,,,,-SHRA,FEW,3000,,,,,,,,,,,,,,,,,,,SPECI,10.0
ENSL 171420Z 36038KT 9999 VCSH SCT030TCU 06/M02 Q1005 W05/S6,ENSL,2019-01-17T14:20:00Z,58.37,1.9,6.0,-2.0,360,38,,6.21,29.675198,,,,,,,,,,VCSH,SCT,3000,,,,,,,VFR,,,,,,,,,,,,METAR,50.0
LGRX 171420Z 00000KT 9999 FEW020 14/05 Q1021,LGRX,2019-01-17T14:20:00Z,38.17,21.42,14.0,5.0,0,0,,6.21,30.147638,,,,,,,,,,,FEW,2000,,,,,,,VFR,,,,,,,,,,,,METAR,15.0
LGSR 171420Z 20006KT 9999 FEW025 14/06 Q1020,LGSR,2019-01-17T14:20:00Z,36.4,25.48,14.0,6.0,200,6,,6.21,30.11811,,,,,,,,,,,FEW,2500,,,,,,,VFR,,,,,,,,,,,,METAR,40.0
EFRO 171420Z AUTO 02007KT 7000 -SN FEW037 BKN085 M13/M15 Q0985,EFRO,2019-01-17T14:20:00Z,66.57,25.82,-13.0,-15.0,20,7,,4.35,29.084646,,,TRUE,,,,,,,-SN,FEW,3700,BKN,8500,,,,,MVFR,,,,,,,,,,,,METAR,201.0
EFOU 171420Z AUTO 31003KT 3000 -SN FEW001/// BKN020/// M21/M23 Q0987,EFOU,2019-01-17T14:20:00Z,64.92,25.37,-21.0,-23.0,310,3,,1.86,29.143702,,,TRUE,,,,,,,-SN,FEW,100,BKN,2000,,,,,IFR,,,,,,,,,,,,METAR,15.0
EFMA 171420Z AUTO 34010KT 320V020 1800 -SN OVC010 M03/M05 Q0988,EFMA,2019-01-17T14:20:00Z,60.12,19.88,-3.0,-5.0,340,10,,1.12,29.17323,,,TRUE,,,,,,,-SN,OVC,1000,,,,,,,IFR,,,,,,,,,,,,METAR,6.0
EFIV 171420Z AUTO 22001KT 9999 -SN BKN032 M17/M19 Q0988,EFIV,2019-01-17T14:20:00Z,68.62,27.42,-17.0,-19.0,220,1,,6.21,29.17323,,,TRUE,,,,,,,-SN,BKN,3200,,,,,,,VFR,,,,,,,,,,,,METAR,148.0
LOXZ 171420Z 05004KT 40KM FEW045SC 04/M03 Q1007 NOSIG,LOXZ,2019-01-17T14:20:00Z,47.2,14.75,4.0,-3.0,50,4,,24.86,29.734253,,,,,,TRUE,,,,,,,,,,,,,,,,,,,,,,,,,METAR,682.0
EGNJ 171420Z 32015KT 9999 FEW023CB 04/M00 Q1012,EGNJ,2019-01-17T14:20:00Z,53.57,-0.35,4.0,0.0,320,15,,6.21,29.88189,,,,,,,,,,,FEW,2300,,,,,,,VFR,,,,,,,,,,,,METAR,31.0
LGAD 171420Z 31004KT 9999 FEW025 14/04 Q1021,LGAD,2019-01-17T14:20:00Z,37.92,21.27,14.0,4.0,310,4,,6.21,30.147638,,,,,,,,,,,FEW,2500,,,,,,,VFR,,,,,,,,,,,,METAR,12.0
LGLM 171420Z 19006KT 9999 FEW015 13/06 Q1019,LGLM,2019-01-17T14:20:00Z,39.92,25.23,13.0,6.0,190,6,,6.21,30.088583,,,,,,,,,,,FEW,1500,,,,,,,VFR,,,,,,,,,,,,METAR,5.0
LGKL 171420Z 32008KT 9999 FEW030 15/03 Q1020,LGKL,2019-01-17T14:20:00Z,37.07,22.02,15.0,3.0,320,8,,6.21,30.11811,,,,,,,,,,,FEW,3000,,,,,,,VFR,,,,,,,,,,,,METAR,8.0
LGSA 171420Z 27015KT 9999 FEW030 13/06 Q1019,LGSA,2019-01-17T14:20:00Z,35.53,24.13,13.0,6.0,270,15,,6.21,30.088583,,,,,,,,,,,FEW,3000,,,,,,,VFR,,,,,,,,,,,,METAR,135.0
LIPR 171420Z 14003KT 100V180 9999 BKN035 12/05 Q1013,LIPR,2019-01-17T14:20:00Z,44.02,12.62,12.0,5.0,140,3,,6.21,29.911417,,,,,,,,,,,BKN,3500,,,,,,,VFR,,,,,,,,,,,,METAR,13.0
LIPQ 171420Z 19004KT 9999 BKN060 10/05 Q1013,LIPQ,2019-01-17T14:20:00Z,45.82,13.47,10.0,5.0,190,4,,6.21,29.911417,,,,,,,,,,,BKN,6000,,,,,,,VFR,,,,,,,,,,,,METAR,12.0
LIPH 171420Z 05003KT 9999 BKN060 08/03 Q1012,LIPH,2019-01-17T14:20:00Z,45.63,12.17,8.0,3.0,50,3,,6.21,29.88189,,,,,,,,,,,BKN,6000,,,,,,,VFR,,,,,,,,,,,,METAR,23.0
LIPE 171420Z 31005KT 280V350 9999 FEW040 12/06 Q1011,LIPE,2019-01-17T14:20:00Z,44.52,11.3,12.0,6.0,310,5,,6.21,29.852362,,,,,,,,,,,FEW,4000,,,,,,,VFR,,,,,,,,,,,,METAR,42.0
LICJ 171420Z 21014KT 9999 FEW035 15/06 Q1017,LICJ,2019-01-17T14:20:00Z,38.17,13.08,15.0,6.0,210,14,,6.21,30.029528,,,,,,,,,,,FEW,3500,,,,,,,VFR,,,,,,,,,,,,METAR,34.0
KVUJ 171420Z AUTO 05006KT 10SM CLR 02/M01 A3033 RMK AO2 T00201014,KVUJ,2019-01-17T14:20:00Z,35.42,-80.15,2.0,-1.4,50,6,,10.0,30.33071,,,TRUE,TRUE,,,,,,,CLR,,,,,,,,VFR,,,,,,,,,,,,SPECI,186.0
CYYR 171420Z 28011KT 1 3/4SM -SN OVC026 M16/M20 A2956 RMK SN3SC5 SLP018,CYYR,2019-01-17T14:20:00Z,53.32,-60.42,-16.0,-20.0,280,11,,1.75,29.56004,1001.8,,,,,,,,,-SN,OVC,2600,,,,,,,IFR,,,,,,,,,,,,SPECI,49.0
KUKF 171420Z AUTO 21003KT 10SM CLR M01/M01 A3031 RMK AO2,KUKF,2019-01-17T14:20:00Z,36.22,-81.1,-1.0,-1.0,210,3,,10.0,30.31004,,,TRUE,TRUE,,,,,,,CLR,,,,,,,,VFR,,,,,,,,,,,,SPECI,396.0
KSVH 171420Z AUTO 04003KT 10SM CLR 01/M01 A3028 RMK AO2 T00071015,KSVH,2019-01-17T14:20:00Z,35.75,-80.95,0.7,-1.5,40,3,,10.0,30.280512,,,TRUE,TRUE,,,,,,,CLR,,,,,,,,VFR,,,,,,,,,,,,SPECI,294.0
KSCR 171420Z AUTO 07005KT 10SM CLR 02/00 A3030 RMK AO2 T00161005,KSCR,2019-01-17T14:20:00Z,35.7,-79.5,1.6,-0.5,70,5,,10.0,30.301182,,,TRUE,TRUE,,,,,,,CLR,,,,,,,,VFR,,,,,,,,,,,,SPECI,188.0
LLBG 171420Z 27011KT 9999 SCT037 15/08 Q1020 NOSIG RMK BKN060,LLBG,2019-01-17T14:20:00Z,32.0,34.88,15.0,8.0,270,11,,6.21,30.11811,,,,,,TRUE,,,,,SCT,3700,,,,,,,VFR,,,,,,,,,,,,METAR,49.0
KRUQ 171420Z AUTO 00000KT 10SM CLR 00/M02 A3029 RMK AO2 T00011018,KRUQ,2019-01-17T14:20:00Z,35.65,-80.52,0.1,-1.8,0,0,,10.0,30.28937,,,TRUE,TRUE,,,,,,,CLR,,,,,,,,VFR,,,,,,,,,,,,SPECI,236.0
KRHP 171420Z AUTO 00000KT 7SM SCT060 OVC100 00/00 A3018 RMK AO2 T00000000,KRHP,2019-01-17T14:20:00Z,35.18,-83.85,0.0,0.0,0,0,,7.0,30.180119,,,TRUE,TRUE,,,,,,,SCT,6000,OVC,10000,,,,,VFR,,,,,,,,,,,,SPECI,518.0
KRCZ 171420Z AUTO 00000KT 10SM CLR 02/00 A3029 RMK AO2 T00200003,KRCZ,2019-01-17T14:20:00Z,34.88,-79.77,2.0,0.3,0,0,,10.0,30.28937,,,TRUE,TRUE,,,,,,,CLR,,,,,,,,VFR,,,,,,,,,,,,SPECI,109.0
KOCW 171420Z AUTO 05005KT 10SM CLR 03/01 A3033 RMK AO2 T00320012,KOCW,2019-01-17T14:20:00Z,35.57,-77.05,3.2,1.2,50,5,,10.0,30.33071,,,TRUE,TRUE,,,,,,,CLR,,,,,,,,VFR,,,,,,,,,,,,SPECI,12.0
PAHP 171420Z AUTO 31012KT 2 1/2SM -SN BR SCT011 OVC024 M05/M07 A2970 RMK AO2 UPE10SNB10 P0000 FZRANO,PAHP,2019-01-17T14:20:00Z,61.52,-166.15,-5.0,-7.0,310,12,,2.5,29.698818,,,TRUE,TRUE,,,,TRUE,,-SN BR,SCT,1100,OVC,2400,,,,,IFR,,,,,,0.005,,,,,,SPECI,5.0
LGTS 171420Z VRB02KT CAVOK 10/M01 Q1019 NOSIG,LGTS,2019-01-17T14:20:00Z,40.52,22.97,10.0,-1.0,0,2,,6.21,30.088583,,,,,,TRUE,,,,,CAVOK,,,,,,,,VFR,,,,,,,,,,,,METAR,7.0
ENBN 171420Z 33018KT 9999 5000NE -SN FEW016 BKN024 01/M04 Q0992,ENBN,2019-01-17T14:20:00Z,65.47,12.22,1.0,-4.0,330,18,,6.21,29.291338,,,,,,,,,,-SN,FEW,1600,BKN,2400,,,,,MVFR,,,,,,,,,,,,SPECI,9.0
ENHF 171420Z 04006KT 9999 FEW030 SCT049 M07/M10 Q0989 RMK WIND 1254FT 12012KT,ENHF,2019-01-17T14:20:00Z,70.67,23.67,-7.0,-10.0,40,6,,6.21,29.202755,,,,,,,,,,,FEW,3000,SCT,4900,,,,,VFR,,,,,,,,,,,,SPECI,81.0
EGPI 171420Z 04002KT 9999 FEW026 05/M00 Q1016,EGPI,2019-01-17T14:20:00Z,55.68,-6.25,5.0,0.0,40,2,,6.21,30.0,,,,,,,,,,,FEW,2600,,,,,,,VFR,,,,,,,,,,,,METAR,18.0
EGPE 171420Z 22007KT 9999 FEW035 02/M01 Q1015,EGPE,2019-01-17T14:20:00Z,57.52,-4.03,2.0,-1.0,220,7,,6.21,29.970472,,,,,,,,,,,FEW,3500,,,,,,,VFR,,,,,,,,,,,,METAR,9.0
EGNR 171420Z 33009KT 9999 FEW020 05/M04 Q1016,EGNR,2019-01-17T14:20:00Z,53.17,-2.97,5.0,-4.0,330,9,,6.21,30.0,,,,,,,,,,,FEW,2000,,,,,,,VFR,,,,,,,,,,,,METAR,10.0
EGNH 171420Z 32012KT 300V360 9999 FEW018 05/M03 Q1016,EGNH,2019-01-17T14:20:00Z,53.77,-3.02,5.0,-3.0,320,12,,6.21,30.0,,,,,,,,,,,FEW,1800,,,,,,,VFR,,,,,,,,,,,,METAR,10.0
LIMJ 171420Z 08003KT 9999 FEW015 SCT025 BKN030 12/09 Q1011,LIMJ,2019-01-17T14:20:00Z,44.42,8.83,12.0,9.0,80,3,,6.21,29.852362,,,,,,,,,,,FEW,1500,SCT,2500,BKN,3000,,,MVFR,,,,,,,,,,,,METAR,3.0
LIMF 171420Z 10005KT 070V130 CAVOK 09/02 Q1011,LIMF,2019-01-17T14:20:00Z,45.22,7.65,9.0,2.0,100,5,,6.21,29.852362,,,,,,,,,,,CAVOK,,,,,,,,VFR,,,,,,,,,,,,METAR,287.0
LIME 171420Z 20003KT 160V230 3000 BR SCT006 BKN020 05/04 Q1012 NOSIG,LIME,2019-01-17T14:20:00Z,45.67,9.68,5.0,4.0,200,3,,1.86,29.88189,,,,,,TRUE,,,,BR,SCT,600,BKN,2000,,,,,IFR,,,,,,,,,,,,METAR,237.0
LIMC 171420Z 16003KT 140V200 5000 BR BKN012 08/06 Q1011 NOSIG,LIMC,2019-01-17T14:20:00Z,45.62,8.72,8.0,6.0,160,3,,3.11,29.852362,,,,,,TRUE,,,,BR,BKN,1200,,,,,,,MVFR,,,,,,,,,,,,METAR,211.0
LIEO 171420Z 36006KT 9999 FEW030 SCT045 14/08 Q1014,LIEO,2019-01-17T14:20:00Z,40.88,9.52,14.0,8.0,360,6,,6.21,29.940945,,,,,,,,,,,FEW,3000,SCT,4500,,,,,VFR,,,,,,,,,,,,METAR,13.0
LIEE 171420Z 19007KT 9999 FEW030 14/08 Q1015,LIEE,2019-01-17T14:20:00Z,39.25,9.07,14.0,8.0,190,7,,6.21,29.970472,,,,,,,,,,,FEW,3000,,,,,,,VFR,,,,,,,,,,,,METAR,4.0
LIEA 171420Z 20007KT 170V230 9999 SCT020 13/10 Q1015,LIEA,2019-01-17T14:20:00Z,40.62,8.27,13.0,10.0,200,7,,6.21,29.970472,,,,,,,,,,,SCT,2000,,,,,,,VFR,,,,,,,,,,,,METAR,23.0
ENNM 171420Z VRB04KT 9999 4000E -SHSN FEW005 SCT010 BKN016 M05/M06 Q0994,ENNM,2019-01-17T14:20:00Z,64.47,11.57,-5.0,-6.0,0,4,,6.21,29.350393,,,,,,,,,,-SHSN,FEW,500,SCT,1000,BKN,1600,,,MVFR,,,,,,,,,,,,SPECI,2.0
ENLK 171420Z 02008KT 290V020 2000 SN VV006 M02/M02 Q0989,ENLK,2019-01-17T14:20:00Z,68.15,13.62,-2.0,-2.0,20,8,,1.24,29.202755,,,,,,,,,,SN,OVX,0,,,,,,,LIFR,,,,,,,,,,,600,METAR,26.0
ENSH 171420Z 34005KT 9999 FEW025 M05/M07 Q0989 RMK WIND 150FT 34005KT,ENSH,2019-01-17T14:20:00Z,68.25,14.67,-5.0,-7.0,340,5,,6.21,29.202755,,,,,,,,,,,FEW,2500,,,,,,,VFR,,,,,,,,,,,,SPECI,9.0
LICC 171420Z 31004KT 8000 SCT025 BKN050 13/11 Q1019,LICC,2019-01-17T14:20:00Z,37.47,15.05,13.0,11.0,310,4,,4.97,30.088583,,,,,,,,,,,SCT,2500,BKN,5000,,,,,MVFR,,,,,,,,,,,,METAR,17.0
LIRF 171420Z 12010KT 9999 FEW015 SCT020TCU BKN025 12/10 Q1015 RERA NOSIG,LIRF,2019-01-17T14:20:00Z,41.78,12.22,12.0,10.0,120,10,,6.21,29.970472,,,,,,TRUE,,,,,FEW,1500,SCT,2000,BKN,2500,,,MVFR,,,,,,,,,,,,METAR,3.0
LIRA 171420Z 15015KT 9999 FEW020 SCT030 12/07 Q1015,LIRA,2019-01-17T14:20:00Z,41.8,12.58,12.0,7.0,150,15,,6.21,29.970472,,,,,,,,,,,FEW,2000,SCT,3000,,,,,VFR,,,,,,,,,,,,METAR,101.0
LGSM 171420Z 00000KT 9999 FEW020 13/05 Q1020,LGSM,2019-01-17T14:20:00Z,37.68,26.92,13.0,5.0,0,0,,6.21,30.11811,,,,,,,,,,,FEW,2000,,,,,,,VFR,,,,,,,,,,,,METAR,6.0
LIML 171420Z 08005KT 040V100 3500 BR SCT007 BKN015 06/05 Q1012 NOSIG,LIML,2019-01-17T14:20:00Z,45.47,9.27,6.0,5.0,80,5,,2.17,29.88189,,,,,,TRUE,,,,BR,SCT,700,BKN,1500,,,,,IFR,,,,,,,,,,,,METAR,103.0
LIRQ 171420Z 09006KT 9999 FEW025 BKN050 11/08 Q1013,LIRQ,2019-01-17T14:20:00Z,43.78,11.18,11.0,8.0,90,6,,6.21,29.911417,,,,,,,,,,,FEW,2500,BKN,5000,,,,,VFR,,,,,,,,,,,,METAR,38.0
LIPZ 171420Z 05004KT 9999 SCT040 08/03 Q1013 NOSIG,LIPZ,2019-01-17T14:20:00Z,45.5,12.35,8.0,3.0,50,4,,6.21,29.911417,,,,,,TRUE,,,,,SCT,4000,,,,,,,VFR,,,,,,,,,,,,METAR,6.0
LIBR 171420Z 12006KT 090V150 CAVOK 13/06 Q1018,LIBR,2019-01-17T14:20:00Z,40.65,17.95,13.0,6.0,120,6,,6.21,30.059055,,,,,,,,,,,CAVOK,,,,,,,,VFR,,,,,,,,,,,,METAR,10.0
ENRA 171420Z VRB01KT 2000 SHSN VV010 M16/M19 Q0991,ENRA,2019-01-17T14:20:00Z,66.37,14.3,-16.0,-19.0,0,1,,1.24,29.26181,,,,,,,,,,SHSN,OVX,0,,,,,,,LIFR,,,,,,,,,,,1000,METAR,70.0
KLGB 171419Z 16009G18KT 4SM RA BR OVC005 16/16 A3011 RMK AO2 P0005 T01610156,KLGB,2019-01-17T14:19:00Z,33.82,-118.15,16.1,15.6,160,9,18,4.0,30.109253,,,,TRUE,,,,,,RA BR,OVC,500,,,,,,,IFR,,,,,,0.05,,,,,,SPECI,10.0
ETOU 171419Z AUTO 25016G23KT 9999 BKN030 OVC040 07/00 A2962 RMK AO2 RAB00E19 SLPNO $,ETOU,2019-01-17T14:19:00Z,50.03,8.32,7.0,0.0,250,16,23,6.21,29.619095,,,TRUE,TRUE,TRUE,,,,,,BKN,3000,OVC,4000,,,,,MVFR,,,,,,,,,,,,SPECI,141.0
CZBF 171419Z AUTO 29010G20KT 260V350 7SM -SN CLR M20/M27 A3017 RMK SLP222,CZBF,2019-01-17T14:19:00Z,47.62,-65.75,-20.0,-27.0,290,10,20,7.0,30.171259,1022.2,,TRUE,,,,,,,-SN,CLR,,,,,,,,VFR,,,,,,,,,,,,SPECI,59.0
KAQP 171419Z AUTO 31004KT 10SM BKN095 M14/M17 A3015 RMK AO2,KAQP,2019-01-17T14:19:00Z,45.22,-96.0,-14.0,-17.0,310,4,,10.0,30.15059,,,TRUE,TRUE,,,,,,,BKN,9500,,,,,,,VFR,,,,,,,,,,,,SPECI,311.0
MMCM 171419Z RTD 02005KT 7SM SCT020 17/16 A3014 RMK 8/500,MMCM,2019-01-17T14:19:00Z,18.5,-88.33,17.0,16.0,20,5,,7.0,30.138779,,,,,,,,,,,SCT,2000,,,,,,,VFR,,,,,,,,,,,,METAR,12.0
CYYQ 171419Z 28010KT 2SM -SN OVC023 M33/M36 A2992 RMK SC8 SLP139,CYYQ,2019-01-17T14:19:00Z,58.75,-94.07,-33.0,-36.0,280,10,,2.0,29.920275,1013.9,,,,,,,,,-SN,OVC,2300,,,,,,,IFR,,,,,,,,,,,,SPECI,29.0
KBPK 171419Z AUTO 06003KT 5SM BR OVC002 07/06 A3000 RMK AO2 RAE19 P0000 T00670061,KBPK,2019-01-17T14:19:00Z,36.37,-92.47,6.7,6.1,60,3,,5.0,30.0,,,TRUE,TRUE,,,,,,BR,OVC,200,,,,,,,LIFR,,,,,,0.005,,,,,,SPECI,280.0
KELN 171419Z AUTO 00000KT 1SM -SN BR BKN003 BKN018 OVC024 01/M01 A2961 RMK AO2 P0001 T00061011,KELN,2019-01-17T14:19:00Z,47.03,-120.53,0.6,-1.1,0,0,,1.0,29.610237,,,TRUE,TRUE,,,,,,-SN BR,BKN,300,BKN,1800,OVC,2400,,,LIFR,,,,,,0.01,,,,,,SPECI,519.0
KFSM 171419Z 00000KT 3SM BR BKN023 OVC042 10/08 A3002 RMK AO2 T01000083,KFSM,2019-01-17T14:19:00Z,35.33,-94.37,10.0,8.3,0,0,,3.0,30.02067,,,,TRUE,,,,,,BR,BKN,2300,OVC,4200,,,,,MVFR,,,,,,,,,,,,SPECI,140.0
UTO8 M M M 216/-33/-36/3410/M/ 2002 71MM,UTO8,2019-01-17T14:18:14Z,,,,,,,,,,,,,,,,,,,,,,,,,,,,,,,,,,,,,,,,SPECI,
K4O4 171418Z AUTO 00000KT 10SM SCT016 BKN024 OVC029 13/12 A3004 RMK AO2,K4O4,2019-01-17T14:18:00Z,33.92,-94.87,13.0,12.0,0,0,,10.0,30.041338,,,TRUE,TRUE,,,,,,,SCT,1600,BKN,2400,OVC,2900,,,MVFR,,,,,,,,,,,,METAR,144.0
KCUL 171418Z AUTO 17007KT 1SM BR OVC004 06/06 A3003 RMK AO2,KCUL,2019-01-17T14:18:00Z,38.08,-88.12,6.0,6.0,170,7,,1.0,30.029528,,,TRUE,TRUE,,,,,,BR,OVC,400,,,,,,,LIFR,,,,,,,,,,,,SPECI,118.0
KSFY 171418Z AUTO 00000KT 10SM OVC012 M03/M05 A3010 RMK AO2,KSFY,2019-01-17T14:18:00Z,42.05,-90.12,-3.0,-5.0,0,0,,10.0,30.100393,,,TRUE,TRUE,,,,,,,OVC,1200,,,,,,,MVFR,,,,,,,,,,,,SPECI,188.0
KPPQ 171418Z AUTO 00000KT M1/4SM OVC002 01/01 A3006 RMK AO2,KPPQ,2019-01-17T14:18:00Z,39.63,-90.78,1.0,1.0,0,0,,0.25,30.059055,,,TRUE,TRUE,,,,,,,OVC,200,,,,,,,LIFR,,,,,,,,,,,,SPECI,216.0
KXVG 171418Z AUTO 00000KT 10SM SCT080 M21/M23 A3009 RMK AO2,KXVG,2019-01-17T14:18:00Z,46.98,-94.2,-21.0,-23.0,0,0,,10.0,30.088583,,,TRUE,TRUE,,,,,,,SCT,8000,,,,,,,VFR,,,,,,,,,,,,SPECI,407.0
CYYN 171418Z AUTO 06010KT 9SM -SN BKN008 OVC042 M17/M19 A3011 RMK SLP258,CYYN,2019-01-17T14:18:00Z,50.27,-107.67,-17.0,-19.0,60,10,,9.0,30.109253,1025.8,,TRUE,,,,,,,-SN,BKN,800,OVC,4200,,,,,IFR,,,,,,,,,,,,SPECI,818.0
KHUF 171418Z 13006KT 1 1/4SM R05/4500VP6000FT RA BR BKN005 OVC010 02/02 A3004 RMK AO2 P0002 T00220017,KHUF,2019-01-17T14:18:00Z,39.45,-87.3,2.2,1.7,130,6,,1.25,30.041338,,,,TRUE,,,,,,RA BR,BKN,500,OVC,1000,,,,,IFR,,,,,,0.02,,,,,,SPECI,179.0
KMKC 171418Z AUTO 36004KT 1SM BR OVC003 01/M01 A3009 RMK AO2 T00111006,KMKC,2019-01-17T14:18:00Z,39.12,-94.6,1.1,-0.6,360,4,,1.0,30.088583,,,TRUE,TRUE,,,,,,BR,OVC,300,,,,,,,LIFR,,,,,,,,,,,,SPECI,227.0
KIJX 171417Z AUTO 00000KT 1SM BR OVC003 00/00 A3005 RMK AO2,KIJX,2019-01-17T14:17:00Z,39.77,-90.25,0.0,0.0,0,0,,1.0,30.050198,,,TRUE,TRUE,,,,,,BR,OVC,300,,,,,,,LIFR,,,,,,,,,,,,SPECI,190.0
KI63 171417Z AUTO 00000KT 1/4SM FZFG OVC002 M01/M01 A3005 RMK AO2,KI63,2019-01-17T14:17:00Z,39.98,-90.8,-1.0,-1.0,0,0,,0.25,30.050198,,,TRUE,TRUE,,,,,,FZFG,OVC,200,,,,,,,LIFR,,,,,,,,,,,,SPECI,223.0
KVBT 171417Z AUTO 35007KT 1 1/2SM BR OVC003 07/07 A3005 RMK AO2 RAE1357,KVBT,2019-01-17T14:17:00Z,36.35,-94.22,7.0,7.0,350,7,,1.5,30.050198,,,TRUE,TRUE,,,,,,BR,OVC,300,,,,,,,LIFR,,,,,,,,,,,,SPECI,395.0
CYIK 171417Z 13009KT 15SM IC FEW004 SCT140 M31/M34 A2982 RMK ST1AS3 ST TR SLP107,CYIK,2019-01-17T14:17:00Z,62.42,-77.93,-31.0,-34.0,130,9,,15.0,29.819881,1010.7,,,,,,,,,IC,FEW,400,SCT,14000,,,,,VFR,,,,,,,,,,,,SPECI,42.0
KMYL 171417Z AUTO 14009KT 2 1/2SM -SN BR FEW005 BKN022 OVC029 01/M01 A2966 RMK AO2 P0002 T00061006,KMYL,2019-01-17T14:17:00Z,44.9,-116.1,0.6,-0.6,140,9,,2.5,29.660433,,,TRUE,TRUE,,,,,,-SN BR,FEW,500,BKN,2200,OVC,2900,,,IFR,,,,,,0.02,,,,,,SPECI,1533.0
KODX 171417Z AUTO 31008KT 5SM BR SCT007 OVC012 M01/M03 A3004 RMK AO2 T10111028,KODX,2019-01-17T14:17:00Z,41.62,-98.95,-1.1,-2.8,310,8,,5.0,30.041338,,,TRUE,TRUE,,,,,,BR,SCT,700,OVC,1200,,,,,MVFR,,,,,,,,,,,,SPECI,631.0
KRKP 171417Z AUTO 27005KT 5SM BR FEW008 OVC012 14/13 A3020 RMK AO2 T01390133,KRKP,2019-01-17T14:17:00Z,28.08,-97.05,13.9,13.3,270,5,,5.0,30.200787,,,TRUE,TRUE,,,,,,BR,FEW,800,OVC,1200,,,,,MVFR,,,,,,,,,,,,SPECI,6.0
KSBA 171417Z 25011G17KT 2 1/2SM RA BR SCT006 BKN010 OVC016 16/15 A3006 RMK AO2 P0005 T01560150,KSBA,2019-01-17T14:17:00Z,34.43,-119.85,15.6,15.0,250,11,17,2.5,30.059055,,,,TRUE,,,,,,RA BR,SCT,600,BKN,1000,OVC,1600,,,IFR,,,,,,0.05,,,,,,SPECI,3.0
KMOT 171417Z 33010KT 10SM FEW014 SCT060 OVC085 M14/M17 A3012 RMK AO2 SNE09 P0000 T11391167,KMOT,2019-01-17T14:17:00Z,48.25,-101.27,-13.9,-16.7,330,10,,10.0,30.121063,,,,TRUE,,,,,,,FEW,1400,SCT,6000,OVC,8500,,,VFR,,,,,,0.005,,,,,,SPECI,519.0
KCBM 171417Z AUTO 16007KT 7SM -DZ BKN004 08/07 A3017 RMK AO2 RAB1358E09DZB09E13DZB17 SLP220 $,KCBM,2019-01-17T14:17:00Z,33.63,-88.45,8.0,7.0,160,7,,7.0,30.171259,1022.0,,TRUE,TRUE,TRUE,,,,,-DZ,BKN,400,,,,,,,LIFR,,,,,,,,,,,,SPECI,67.0
KBHK 171416Z AUTO 36006KT 8SM OVC004 M06/M06 A3001 RMK AO2 T10561061,KBHK,2019-01-17T14:16:00Z,46.35,-104.25,-5.6,-6.1,360,6,,8.0,30.008858,,,TRUE,TRUE,,,,,,,OVC,400,,,,,,,LIFR,,,,,,,,,,,,SPECI,902.0
KGGW 171416Z AUTO 36003KT 9SM BKN014 OVC019 M06/M07 A3006 RMK AO2 T10561072,KGGW,2019-01-17T14:16:00Z,48.22,-106.62,-5.6,-7.2,360,3,,9.0,30.059055,,,TRUE,TRUE,,,,,,,BKN,1400,OVC,1900,,,,,MVFR,,,,,,,,,,,,SPECI,694.0
KGAG 171416Z AUTO 28007KT 1 1/2SM BR OVC004 01/M01 A3015 RMK AO2 T00111006 TSNO,KGAG,2019-01-17T14:16:00Z,36.3,-99.77,1.1,-0.6,280,7,,1.5,30.15059,,,TRUE,TRUE,,,TRUE,,,BR,OVC,400,,,,,,,LIFR,,,,,,,,,,,,SPECI,668.0
K40B 171416Z AUTO VRB05KT M23/M28 A3025 RMK AO1 SLP300 T12301277 52033 P0019,K40B,2019-01-17T14:16:00Z,46.62,-69.52,-23.0,-27.7,0,5,,,30.250984,1030.0,,TRUE,TRUE,,,,,,,,,,,,,,,,3.3,,,,,0.19,,,,,,SPECI,314.0
KBAZ 171416Z 24009KT 10SM OVC005 12/11 A3017 RMK AO2 T01220111,KBAZ,2019-01-17T14:16:00Z,29.72,-98.05,12.2,11.1,240,9,,10.0,30.171259,,,,TRUE,,,,,,,OVC,500,,,,,,,IFR,,,,,,,,,,,,SPECI,195.0
KAGS 171416Z 00000KT 4SM BR FEW002 03/02 A3027 RMK AO2 T00330022,KAGS,2019-01-17T14:16:00Z,33.37,-81.97,3.3,2.2,0,0,,4.0,30.268702,,,,TRUE,,,,,,BR,FEW,200,,,,,,,MVFR,,,,,,,,,,,,SPECI,44.0
KMHE 171416Z AUTO 34005KT 5SM BR OVC004 M07/M09 A3012 RMK AO2 T10721089,KMHE,2019-01-17T14:16:00Z,43.77,-98.02,-7.2,-8.9,340,5,,5.0,30.121063,,,TRUE,TRUE,,,,,,BR,OVC,400,,,,,,,LIFR,,,,,,,,,,,,SPECI,397.0
KMIB 171416Z AUTO 36007KT 10SM -SN FEW003 BKN016 OVC070 M15/M17 A3011 RMK AO2 SNE00UPB00E12SNB12 BKN V OVC CIG 011 RWY30 SLP243,KMIB,2019-01-17T14:16:00Z,48.42,-101.33,-15.0,-17.0,360,7,,10.0,30.109253,1024.3,,TRUE,TRUE,,,,,,-SN,FEW,300,BKN,1600,OVC,7000,,,MVFR,,,,,,,,,,,,SPECI,508.0
KSDF 171416Z 15008KT 7SM OVC030 06/02 A3010 RMK AO2 T00560022,KSDF,2019-01-17T14:16:00Z,38.18,-85.73,5.6,2.2,150,8,,7.0,30.100393,,,,TRUE,,,,,,,OVC,3000,,,,,,,MVFR,,,,,,,,,,,,SPECI,146.0
KSTS 171416Z AUTO 19011G16KT 6SM RA BR BKN035 BKN065 OVC110 12/11 A2984 RMK AO2 RAB09 P0001 T01220106,KSTS,2019-01-17T14:16:00Z,38.5,-122.82,12.2,10.6,190,11,16,6.0,29.840551,,,TRUE,TRUE,,,,,,RA BR,BKN,3500,BKN,6500,OVC,11000,,,VFR,,,,,,0.01,,,,,,SPECI,39.0
KSTJ 171416Z 34008KT 1 1/2SM BR OVC004 M01/M01 A3013 RMK AO2 CIG 003V008 T10061006,KSTJ,2019-01-17T14:16:00Z,39.77,-94.92,-0.6,-0.6,340,8,,1.5,30.129921,,,,TRUE,,,,,,BR,OVC,400,,,,,,,LIFR,,,,,,,,,,,,SPECI,247.0
UMII 171416Z 21010G14MPS 4300 -SNRA OVC008 01/00 Q0991 R23/913025 TEMPO 2000 SNRA BKN005,UMII,2019-01-17T14:16:00Z,55.13,30.35,1.0,0.0,210,19,27,2.67,29.26181,,,,,,,,,,-SN -RA,OVC,800,,,,,,,IFR,,,,,,,,,,,,SPECI,208.0
KRCA 171416Z 00000KT 1/4SM FZFG BKN000 OVC100 M07/M07 A2996 RMK AO2A VIS 1/4V6 CIG 000V100 BKN V FEW SLP196 RVRNO FZRANO $,KRCA,2019-01-17T14:16:00Z,44.13,-103.08,-7.0,-7.0,0,0,,0.25,29.958662,1019.6,,,TRUE,TRUE,,,TRUE,,FZFG,BKN,0,OVC,10000,,,,,LIFR,,,,,,,,,,,,SPECI,999.0
KEMV 171416Z AUTO 00000KT 02/M01 A3037 RMK AO2,KEMV,2019-01-17T14:16:00Z,36.68,-77.48,2.0,-1.0,0,0,,,30.369095,,,TRUE,TRUE,,,,,,,,,,,,,,,,,,,,,,,,,,,SPECI,39.0
KMRJ 171415Z AUTO 11004KT 10SM SCT011 BKN021 M02/M03 A3007 RMK AO2,KMRJ,2019-01-17T14:15:00Z,42.88,-90.23,-2.0,-3.0,110,4,,10.0,30.070866,,,TRUE,TRUE,,,,,,,SCT,1100,BKN,2100,,,,,MVFR,,,,,,,,,,,,SPECI,359.0
KTVK 171415Z AUTO 00000KT M1/4SM FZFG OVC001 M02/M02 A3010 RMK AO2,KTVK,2019-01-17T14:15:00Z,40.68,-92.9,-2.0,-2.0,0,0,,0.25,30.100393,,,TRUE,TRUE,,,,,,FZFG,OVC,100,,,,,,,LIFR,,,,,,,,,,,,SPECI,314.0
KHHW 171415Z AUTO 25008KT 10SM OVC022 13/12 A3004 RMK AO2 T01310116,KHHW,2019-01-17T14:15:00Z,34.03,-95.55,13.1,11.6,250,8,,10.0,30.041338,,,TRUE,TRUE,,,,,,,OVC,2200,,,,,,,MVFR,,,,,,,,,,,,SPECI,144.0
KIDP 171415Z AUTO 34014G18KT 10SM OVC004 03/02 A3010 RMK AO2 T00260023,KIDP,2019-01-17T14:15:00Z,37.17,-95.78,2.6,2.3,340,14,18,10.0,30.100393,,,TRUE,TRUE,,,,,,,OVC,400,,,,,,,LIFR,,,,,,,,,,,,SPECI,251.0
KHII 171415Z AUTO 00000KT 10SM OVC070 12/10 A3016 RMK AO2,KHII,2019-01-17T14:15:00Z,34.57,-114.37,12.0,10.0,0,0,,10.0,30.159449,,,TRUE,TRUE,,,,,,,OVC,7000,,,,,,,VFR,,,,,,,,,,,,SPECI,238.0
KVER 171415Z AUTO 00000KT M1/4SM FG OVC002 01/ A3007 RMK AO2 T0006,KVER,2019-01-17T14:15:00Z,38.95,-92.68,0.6,,0,0,,0.25,30.070866,,,TRUE,TRUE,,,,,,FG,OVC,200,,,,,,,LIFR,,,,,,,,,,,,SPECI,218.0
KOPL 171415Z AUTO 16004KT 10SM SCT020 BKN028 OVC037 13/12 A3017 RMK AO2 T01250116,KOPL,2019-01-17T14:15:00Z,30.55,-92.1,12.5,11.6,160,4,,10.0,30.171259,,,TRUE,TRUE,,,,,,,SCT,2000,BKN,2800,OVC,3700,,,MVFR,,,,,,,,,,,,SPECI,23.0
KMZZ 171415Z AUTO 12006KT 2 1/2SM -SN SCT006 OVC012 A3009 RMK AO2 P0001,KMZZ,2019-01-17T14:15:00Z,40.48,-85.68,,,120,6,,2.5,30.088583,,,TRUE,TRUE,,,,,,-SN,SCT,600,OVC,1200,,,,,IFR,,,,,,0.01,,,,,,SPECI,262.0
KLWB 171415Z AUTO 03003KT 10SM BKN018 M02/M04 A3021 RMK AO2 T10161038,KLWB,2019-01-17T14:15:00Z,37.87,-80.4,-1.6,-3.8,30,3,,10.0,30.209646,,,TRUE,TRUE,,,,,,,BKN,1800,,,,,,,MVFR,,,,,,,,,,,,SPECI,702.0
KOYM 171415Z AUTO 12007KT 10SM SCT120 M09/M11 A3025 RMK AO2,KOYM,2019-01-17T14:15:00Z,41.42,-78.5,-9.0,-11.0,120,7,,10.0,30.250984,,,TRUE,TRUE,,,,,,,SCT,12000,,,,,,,VFR,,,,,,,,,,,,SPECI,590.0
KOXI 171415Z AUTO 10005KT 3/4SM OVC006 M01/M02 A3009 RMK AO1,KOXI,2019-01-17T14:15:00Z,41.33,-86.67,-1.0,-2.0,100,5,,0.75,30.088583,,,TRUE,TRUE,,,,,,,OVC,600,,,,,,,LIFR,,,,,,,,,,,,SPECI,209.0
KSBO 171415Z AUTO 00000KT 10SM CLR 07/04 A3027 RMK AO2,KSBO,2019-01-17T14:15:00Z,32.62,-82.37,7.0,4.0,0,0,,10.0,30.268702,,,TRUE,TRUE,,,,,,,CLR,,,,,,,,VFR,,,,,,,,,,,,SPECI,100.0
KPTT 171415Z AUTO 29006KT 3SM BR OVC004 00/M01 A3013 RMK AO2 T00001006,KPTT,2019-01-17T14:15:00Z,37.7,-98.75,0.0,-0.6,290,6,,3.0,30.129921,,,TRUE,TRUE,,,,,,BR,OVC,400,,,,,,,LIFR,,,,,,,,,,,,SPECI,595.0
KPPO 171415Z AUTO 10007KT 3SM BR M02/M03 A3009 RMK AO2 SKY OBSCURED T10221030,KPPO,2019-01-17T14:15:00Z,41.57,-86.73,-2.2,-3.0,100,7,,3.0,30.088583,,,TRUE,TRUE,,,,,,BR,,,,,,,,,,,,,,,,,,,,,SPECI,248.0
LMML 171415Z 21009KT 9999 FEW030 15/08 Q1019 NOSIG,LMML,2019-01-17T14:15:00Z,35.85,14.47,15.0,8.0,210,9,,6.21,30.088583,,,,,,TRUE,,,,,FEW,3000,,,,,,,VFR,,,,,,,,,,,,METAR,91.0
K54J 171415Z AUTO 00000KT 10SM CLR 07/05 A3027 RMK AO2 T00740046,K54J,2019-01-17T14:15:00Z,30.73,-86.15,7.4,4.6,0,0,,10.0,30.268702,,,TRUE,TRUE,,,,,,,CLR,,,,,,,,VFR,,,,,,,,,,,,SPECI,88.0
KCIC 171415Z AUTO 15020G24KT 10SM FEW050 BKN080 OVC100 12/11 A2981 RMK AO1,KCIC,2019-01-17T14:15:00Z,39.78,-121.83,12.0,11.0,150,20,24,10.0,29.811024,,,TRUE,TRUE,,,,,,,FEW,5000,BKN,8000,OVC,10000,,,VFR,,,,,,,,,,,,SPECI,73.0
KWJF 171415Z AUTO 31004KT 3SM -RA BR FEW017 BKN022 OVC028 11/11 A3005 RMK AO2 P0007 T01110111,KWJF,2019-01-17T14:15:00Z,34.72,-118.22,11.1,11.1,310,4,,3.0,30.050198,,,TRUE,TRUE,,,,,,-RA BR,FEW,1700,BKN,2200,OVC,2800,,,MVFR,,,,,,0.07,,,,,,SPECI,715.0
KTCL 171415Z 18004KT 3SM -RA BR FEW030 BKN038 OVC050 07/04 A3024 RMK AO2 P0003 T00670044,KTCL,2019-01-17T14:15:00Z,33.22,-87.62,6.7,4.4,180,4,,3.0,30.239174,,,,TRUE,,,,,,-RA BR,FEW,3000,BKN,3800,OVC,5000,,,MVFR,,,,,,0.03,,,,,,SPECI,49.0
KMSY 171415Z 14004KT 1 1/2SM -RA BR OVC036 11/10 A3024 RMK AO2 P0003 T01110100,KMSY,2019-01-17T14:15:00Z,30.0,-90.25,11.1,10.0,140,4,,1.5,30.239174,,,,TRUE,,,,,,-RA BR,OVC,3600,,,,,,,IFR,,,,,,0.03,,,,,,SPECI,5.0
KGKY 171415Z 29014G21KT 10SM BKN011 11/09 A3011 RMK AO2 T01060089,KGKY,2019-01-17T14:15:00Z,32.67,-97.1,10.6,8.9,290,14,21,10.0,30.109253,,,,TRUE,,,,,,,BKN,1100,,,,,,,MVFR,,,,,,,,,,,,SPECI,192.0
KCRP 171415Z 29005KT 5SM BR SCT004 BKN013 OVC018 14/13 A3021 RMK AO2 T01440133,KCRP,2019-01-17T14:15:00Z,27.77,-97.5,14.4,13.3,290,5,,5.0,30.209646,,,,TRUE,,,,,,BR,SCT,400,BKN,1300,OVC,1800,,,MVFR,,,,,,,,,,,,SPECI,14.0
KBFL 171415Z 07003KT 2 1/2SM -RA BR FEW028 OVC040 15/13 A3000 RMK AO2 TWR VIS 4 P0006 T01500128,KBFL,2019-01-17T14:15:00Z,35.43,-119.05,15.0,12.8,70,3,,2.5,30.0,,,,TRUE,,,,,,-RA BR,FEW,2800,OVC,4000,,,,,IFR,,,,,,0.06,,,,,,SPECI,151.0
KCQT 171415Z AUTO VRB04KT 2SM -RA BR BKN005 OVC009 16/15 A3009 RMK AO2 P0004 T01560150,KCQT,2019-01-17T14:15:00Z,34.02,-118.28,15.6,15.0,0,4,,2.0,30.088583,,,TRUE,TRUE,,,,,,-RA BR,BKN,500,OVC,900,,,,,IFR,,,,,,0.04,,,,,,SPECI,56.0
KRFI 171415Z AUTO 10SM OVC005 15/14 A3009 RMK AO2 T01450142,KRFI,2019-01-17T14:15:00Z,32.15,-94.85,14.5,14.2,,,,10.0,30.088583,,,TRUE,TRUE,,,,,,,OVC,500,,,,,,,IFR,,,,,,,,,,,,METAR,135.0
KAFK 171415Z AUTO 00000KT 3SM BR OVC029 M04/M05 A3010 RMK AO2 T10361046,KAFK,2019-01-17T14:15:00Z,40.6,-95.85,-3.6,-4.6,0,0,,3.0,30.100393,,,TRUE,TRUE,,,,,,BR,OVC,2900,,,,,,,MVFR,,,,,,,,,,,,SPECI,354.0
KJXI 171415Z AUTO 21006KT 10SM BKN011 OVC016 15/14 A3007 RMK AO2 T01460135,KJXI,2019-01-17T14:15:00Z,32.7,-94.95,14.6,13.5,210,6,,10.0,30.070866,,,TRUE,TRUE,,,,,,,BKN,1100,OVC,1600,,,,,MVFR,,,,,,,,,,,,SPECI,127.0
KJAU 171415Z AUTO 7SM FEW015 BKN046 OVC075 03/01 A3022 RMK A01,KJAU,2019-01-17T14:15:00Z,36.33,-84.17,3.0,1.0,,,,7.0,30.221457,,,TRUE,TRUE,,,,,,,FEW,1500,BKN,4600,OVC,7500,,,VFR,,,,,,,,,,,,SPECI,360.0
K3K3 171415Z AUTO 00000KT 7SM CLR M04/M05 A3011 RMK AO2,K3K3,2019-01-17T14:15:00Z,38.0,-101.75,-4.0,-5.0,0,0,,7.0,30.109253,,,TRUE,TRUE,,,,,,,CLR,,,,,,,,VFR,,,,,,,,,,,,SPECI,1013.0
KTAZ 171415Z AUTO 00000KT 1SM BR OVC002 00/00 A3004 RMK AO2 T00020001,KTAZ,2019-01-17T14:15:00Z,39.53,-89.33,0.2,0.1,0,0,,1.0,30.041338,,,TRUE,TRUE,,,,,,BR,OVC,200,,,,,,,LIFR,,,,,,,,,,,,METAR,190.0
KTBR 171415Z AUTO 00000KT 10SM CLR 05/04 A3029 RMK AO2 T00530035,KTBR,2019-01-17T14:15:00Z,32.48,-81.73,5.3,3.5,0,0,,10.0,30.28937,,,TRUE,TRUE,,,,,,,CLR,,,,,,,,VFR,,,,,,,,,,,,SPECI,57.0
KTEX 171415Z AUTO 11006KT 10SM CLR M03/M07 A3024 RMK AO2,KTEX,2019-01-17T14:15:00Z,37.95,-107.9,-3.0,-7.0,110,6,,10.0,30.239174,,,TRUE,TRUE,,,,,,,CLR,,,,,,,,VFR,,,,,,,,,,,,SPECI,2769.0
KTIF 171415Z AUTO 00000KT M1/4SM FZFG OVC002 M04/M05 A3002 RMK AO2 T10421046,KTIF,2019-01-17T14:15:00Z,41.97,-100.57,-4.2,-4.6,0,0,,0.25,30.02067,,,TRUE,TRUE,,,,,,FZFG,OVC,200,,,,,,,LIFR,,,,,,,,,,,,SPECI,892.0
KTIP 171415Z AUTO 02003KT 3SM DZ OVC004 00/00 A3005 RMK AO2 T00000000,KTIP,2019-01-17T14:15:00Z,40.28,-88.15,0.0,0.0,20,3,,3.0,30.050198,,,TRUE,TRUE,,,,,,DZ,OVC,400,,,,,,,LIFR,,,,,,,,,,,,METAR,225.0
KT35 171415Z AUTO 23005KT 10SM SCT009 14/13 A3014 RMK AO2 T01350125,KT35,2019-01-17T14:15:00Z,30.88,-96.97,13.5,12.5,230,5,,10.0,30.138779,,,TRUE,TRUE,,,,,,,SCT,900,,,,,,,VFR,,,,,,,,,,,,SPECI,123.0
KT20 171415Z AUTO 24005KT 10SM OVC005 14/14 A3019 RMK AO2 T01350135,KT20,2019-01-17T14:15:00Z,29.52,-97.47,13.5,13.5,240,5,,10.0,30.188976,,,TRUE,TRUE,,,,,,,OVC,500,,,,,,,IFR,,,,,,,,,,,,SPECI,108.0
KSWW 171415Z AUTO 26004KT 10SM CLR 07/01 A3019 RMK AO2 T00690012,KSWW,2019-01-17T14:15:00Z,32.47,-100.47,6.9,1.2,260,4,,10.0,30.188976,,,TRUE,TRUE,,,,,,,CLR,,,,,,,,VFR,,,,,,,,,,,,SPECI,727.0
KSOA 171415Z AUTO 00000KT M1/4SM FG OVC001 06/06 A3025 RMK AO2,KSOA,2019-01-17T14:15:00Z,30.58,-100.65,6.0,6.0,0,0,,0.25,30.250984,,,TRUE,TRUE,,,,,,FG,OVC,100,,,,,,,LIFR,,,,,,,,,,,,SPECI,652.0
KSNL 171415Z AUTO 33010KT 7SM OVC006 05/04 A3013 RMK AO2 T00450036,KSNL,2019-01-17T14:15:00Z,35.35,-96.95,4.5,3.6,330,10,,7.0,30.129921,,,TRUE,TRUE,,,,,,,OVC,600,,,,,,,IFR,,,,,,,,,,,,SPECI,327.0
KSNK 171415Z AUTO 31010KT 10SM CLR 10/00 A3017 RMK AO2 T01000000,KSNK,2019-01-17T14:15:00Z,32.7,-100.95,10.0,0.0,310,10,,10.0,30.171259,,,TRUE,TRUE,,,,,,,CLR,,,,,,,,VFR,,,,,,,,,,,,METAR,741.0
KSJS 171415Z AUTO 15006KT 10SM OVC038 02/01 A3017 RMK AO2 T00220007,KSJS,2019-01-17T14:15:00Z,37.75,-82.63,2.2,0.7,150,6,,10.0,30.171259,,,TRUE,TRUE,,,,,,,OVC,3800,,,,,,,VFR,,,,,,,,,,,,SPECI,372.0
KSEE 171415Z AUTO 00000KT 10SM BKN023 OVC031 13/12 A3017 RMK AO2,KSEE,2019-01-17T14:15:00Z,32.82,-116.97,13.0,12.0,0,0,,10.0,30.171259,,,TRUE,TRUE,,,,,,,BKN,2300,OVC,3100,,,,,MVFR,,,,,,,,,,,,METAR,117.0
KSBS 171415Z AUTO 00000KT 1/4SM OVC001 M07/M07 A3012 RMK AO1 T10731075,KSBS,2019-01-17T14:15:00Z,40.52,-106.87,-7.3,-7.5,0,0,,0.25,30.121063,,,TRUE,TRUE,,,,,,,OVC,100,,,,,,,LIFR,,,,,,,,,,,,METAR,2096.0
KTMK 171415Z AUTO 13010G16KT 10SM -DZ BKN046 OVC050 11/05 A2939 RMK AO2,KTMK,2019-01-17T14:15:00Z,45.42,-123.82,11.0,5.0,130,10,16,10.0,29.388779,,,TRUE,TRUE,,,,,,-DZ,BKN,4600,OVC,5000,,,,,VFR,,,,,,,,,,,,SPECI,11.0
KTOC 171415Z AUTO 04004KT 10SM CLR 03/01 A3025 RMK AO2 T00290005,KTOC,2019-01-17T14:15:00Z,34.6,-83.3,2.9,0.5,40,4,,10.0,30.250984,,,TRUE,TRUE,,,,,,,CLR,,,,,,,,VFR,,,,,,,,,,,,SPECI,304.0
KTXW 171415Z AUTO 02003KT 7SM OVC012 15/13 A3021 RMK AO2 T01490130,KTXW,2019-01-17T14:15:00Z,26.18,-97.97,14.9,13.0,20,3,,7.0,30.209646,,,TRUE,TRUE,,,,,,,OVC,1200,,,,,,,MVFR,,,,,,,,,,,,SPECI,21.0
KUXL 171415Z AUTO 00000KT 4SM BR SCT004 OVC018 16/16 A3016 RMK AO2 T01600160,KUXL,2019-01-17T14:15:00Z,30.13,-93.38,16.0,16.0,0,0,,4.0,30.159449,,,TRUE,TRUE,,,,,,BR,SCT,400,OVC,1800,,,,,MVFR,,,,,,,,,,,,SPECI,4.0
KPLU 171415Z AUTO 00000KT 9SM SCT080 OVC090 04/04 A2945 RMK AO2,KPLU,2019-01-17T14:15:00Z,47.1,-122.28,4.0,4.0,0,0,,9.0,29.450787,,,TRUE,TRUE,,,,,,,SCT,8000,OVC,9000,,,,,VFR,,,,,,,,,,,,METAR,164.0
KXLL 171415Z AUTO 06003KT 10SM CLR M03/M12 A3040 RMK AO2,KXLL,2019-01-17T14:15:00Z,40.57,-75.48,-3.0,-12.0,60,3,,10.0,30.398623,,,TRUE,TRUE,,,,,,,CLR,,,,,,,,VFR,,,,,,,,,,,,METAR,122.0
KWDR 171415Z AUTO 08003KT 10SM CLR 03/01 A3025 RMK AO2,KWDR,2019-01-17T14:15:00Z,33.98,-83.67,3.0,1.0,80,3,,10.0,30.250984,,,TRUE,TRUE,,,,,,,CLR,,,,,,,,VFR,,,,,,,,,,,,SPECI,287.0
KW43 171415Z AUTO 21005KT 10SM SCT080 M04/M09 A2993 RMK AO2,KW43,2019-01-17T14:15:00Z,44.67,-104.57,-4.0,-9.0,210,5,,10.0,29.929134,,,TRUE,TRUE,,,,,,,SCT,8000,,,,,,,VFR,,,,,,,,,,,,SPECI,1300.0
KVYS 171415Z AUTO 05007KT 1 3/4SM BR OVC004 M03/M03 A3009 RMK AO2 T10271035,KVYS,2019-01-17T14:15:00Z,41.35,-89.15,-2.7,-3.5,50,7,,1.75,30.088583,,,TRUE,TRUE,,,,,,BR,OVC,400,,,,,,,LIFR,,,,,,,,,,,,METAR,199.0
KVDI 171415Z AUTO 00000KT 10SM CLR 08/03 A3027 RMK AO2,KVDI,2019-01-17T14:15:00Z,32.2,-82.37,8.0,3.0,0,0,,10.0,30.268702,,,TRUE,TRUE,,,,,,,CLR,,,,,,,,VFR,,,,,,,,,,,,SPECI,84.0
KMWO 171415Z AUTO 14004KT 5SM -RA BR OVC010 01/00 A3014 RMK AO2 T00091004,KMWO,2019-01-17T14:15:00Z,39.53,-84.4,0.9,-0.4,140,4,,5.0,30.138779,,,TRUE,TRUE,,,,,,-RA BR,OVC,1000,,,,,,,MVFR,,,,,,,,,,,,SPECI,198.0
PAAD 171415Z AUTO 10018KT 7SM CLR M21/M23 A3000 RMK AO2 T12101231,PAAD,2019-01-17T14:15:00Z,70.13,-146.28,-21.0,-23.1,100,18,,7.0,30.0,,,TRUE,TRUE,,,,,,,CLR,,,,,,,,VFR,,,,,,,,,,,,SPECI,8.0
KMYZ 171415Z AUTO 35003KT 2SM BR BKN005 OVC017 M03/M03 A3010 RMK AO2,KMYZ,2019-01-17T14:15:00Z,39.85,-96.63,-3.0,-3.0,350,3,,2.0,30.100393,,,TRUE,TRUE,,,,,,BR,BKN,500,OVC,1700,,,,,IFR,,,,,,,,,,,,SPECI,319.0
KOKM 171415Z AUTO 33007KT 280V360 10SM OVC008 08/08 A3009 RMK AO2 T00800080,KOKM,2019-01-17T14:15:00Z,35.67,-95.95,8.0,8.0,330,7,,10.0,30.088583,,,TRUE,TRUE,,,,,,,OVC,800,,,,,,,IFR,,,,,,,,,,,,SPECI,220.0
KOGA 171415Z AUTO 26005KT 10SM CLR A3001 RMK AO2,KOGA,2019-01-17T14:15:00Z,41.12,-101.77,,,260,5,,10.0,30.008858,,,TRUE,TRUE,,,,,,,CLR,,,,,,,,VFR,,,,,,,,,,,,METAR,999.0
KOLY 171415Z AUTO 00000KT 3/4SM DZ OVC002 05/05 A3004 RMK AO2 P0001 T00450045,KOLY,2019-01-17T14:15:00Z,38.72,-88.18,4.5,4.5,0,0,,0.75,30.041338,,,TRUE,TRUE,,,,,,DZ,OVC,200,,,,,,,LIFR,,,,,,0.01,,,,,,METAR,147.0
KOKV 171415Z AUTO 00000KT 10SM OVC040 00/M04 A3033 RMK AO2,KOKV,2019-01-17T14:15:00Z,39.13,-78.15,0.0,-4.0,0,0,,10.0,30.33071,,,TRUE,TRUE,,,,,,,OVC,4000,,,,,,,VFR,,,,,,,,,,,,SPECI,222.0
KONM 171415Z AUTO 24004KT 10SM CLR M01/M02 A3030 RMK AO2 T10111022,KONM,2019-01-17T14:15:00Z,34.02,-106.9,-1.1,-2.2,240,4,,10.0,30.301182,,,TRUE,TRUE,,,,,,,CLR,,,,,,,,VFR,,,,,,,,,,,,SPECI,1410.0
KONL 171415Z AUTO 36006KT 2 1/2SM BR OVC002 M05/M06 A3006 RMK AO2 T10531060,KONL,2019-01-17T14:15:00Z,42.47,-98.67,-5.3,-6.0,360,6,,2.5,30.059055,,,TRUE,TRUE,,,,,,BR,OVC,200,,,,,,,LIFR,,,,,,,,,,,,METAR,619.0
KORG 171415Z AUTO 20004KT 5SM BR SCT003 BKN009 OVC013 17/17 A3017 RMK AO2 T01650165,KORG,2019-01-17T14:15:00Z,30.07,-93.8,16.5,16.5,200,4,,5.0,30.171259,,,TRUE,TRUE,,,,,,BR,SCT,300,BKN,900,OVC,1300,,,IFR,,,,,,,,,,,,METAR,4.0
KOPN 171415Z AUTO 14004KT 10SM CLR 05/01 A3023 RMK AO2,KOPN,2019-01-17T14:15:00Z,32.95,-84.27,5.0,1.0,140,4,,10.0,30.230314,,,TRUE,TRUE,,,,,,,CLR,,,,,,,,VFR,,,,,,,,,,,,SPECI,243.0
KOZA 171415Z AUTO 1/2SM FG OVC002 02/02 A3024 RMK AO2,KOZA,2019-01-17T14:15:00Z,30.73,-101.2,2.0,2.0,,,,0.5,30.239174,,,TRUE,TRUE,,,,,,FG,OVC,200,,,,,,,LIFR,,,,,,,,,,,,SPECI,726.0
KOSA 171415Z AUTO 24006KT 10SM BKN017 BKN022 15/13 A3008 RMK AO1 T01490125,KOSA,2019-01-17T14:15:00Z,33.1,-94.97,14.9,12.5,240,6,,10.0,30.079725,,,TRUE,TRUE,,,,,,,BKN,1700,BKN,2200,,,,,MVFR,,,,,,,,,,,,SPECI,111.0
KPBX 171415Z AUTO 14006KT 10SM OVC031 02/00 A3016 RMK AO2 T00180004,KPBX,2019-01-17T14:15:00Z,37.57,-82.57,1.8,0.4,140,6,,10.0,30.159449,,,TRUE,TRUE,,,,,,,OVC,3100,,,,,,,VFR,,,,,,,,,,,,SPECI,449.0
KT82 171415Z AUTO 26006KT 10SM SCT002 09/08 A3018 RMK AO2 T00850077,KT82,2019-01-17T14:15:00Z,30.25,-98.92,8.5,7.7,260,6,,10.0,30.180119,,,TRUE,TRUE,,,,,,,SCT,200,,,,,,,VFR,,,,,,,,,,,,SPECI,517.0
KSME 171415Z AUTO 17003KT 10SM RA BKN046 OVC060 03/01 A3016 RMK AO2,KSME,2019-01-17T14:15:00Z,37.05,-84.62,3.0,1.0,170,3,,10.0,30.159449,,,TRUE,TRUE,,,,,,RA,BKN,4600,OVC,6000,,,,,VFR,,,,,,,,,,,,SPECI,283.0
KSHD 171415Z AUTO 00000KT 10SM OVC029 M03/M04 A3030 RMK AO2 T10261042,KSHD,2019-01-17T14:15:00Z,38.27,-78.9,-2.6,-4.2,0,0,,10.0,30.301182,,,TRUE,TRUE,,,,,,,OVC,2900,,,,,,,MVFR,,,,,,,,,,,,SPECI,366.0
KSFQ 171415Z AUTO 06006KT 10SM CLR 05/00 A3036 RMK AO2 T00500000,KSFQ,2019-01-17T14:15:00Z,36.68,-76.6,5.0,0.0,60,6,,10.0,30.360237,,,TRUE,TRUE,,,,,,,CLR,,,,,,,,VFR,,,,,,,,,,,,SPECI,22.0
KPPA 171415Z AUTO 00000KT 7SM CLR 00/00 A3016 RMK AO2 T00001001,KPPA,2019-01-17T14:15:00Z,35.62,-101.0,0.0,-0.1,0,0,,7.0,30.159449,,,TRUE,TRUE,,,,,,,CLR,,,,,,,,VFR,,,,,,,,,,,,SPECI,989.0
KPNT 171415Z AUTO 05006KT 3SM BR BKN006 BKN016 OVC021 M01/M01 A3008 RMK AO2 T10101012,KPNT,2019-01-17T14:15:00Z,40.92,-88.62,-1.0,-1.2,50,6,,3.0,30.079725,,,TRUE,TRUE,,,,,,BR,BKN,600,BKN,1600,OVC,2100,,,IFR,,,,,,,,,,,,METAR,201.0
KPNA 171415Z AUTO 12003KT 10SM OVC060 M06/M07 A2999 RMK AO2,KPNA,2019-01-17T14:15:00Z,42.8,-109.8,-6.0,-7.0,120,3,,10.0,29.991142,,,TRUE,TRUE,,,,,,,OVC,6000,,,,,,,VFR,,,,,,,,,,,,SPECI,2160.0
KPMV 171415Z AUTO 29003KT 4SM BR SCT024 OVC032 M04/M05 A3010 RMK AO2 T10381049,KPMV,2019-01-17T14:15:00Z,40.95,-95.92,-3.8,-4.9,290,3,,4.0,30.100393,,,TRUE,TRUE,,,,,,BR,SCT,2400,OVC,3200,,,,,MVFR,,,,,,,,,,,,METAR,367.0
KPMU 171415Z AUTO 21007KT 5SM BR BKN010 BKN015 OVC023 10/09 A3011 RMK AO2,KPMU,2019-01-17T14:15:00Z,34.37,-89.9,10.0,9.0,210,7,,5.0,30.109253,,,TRUE,TRUE,,,,,,BR,BKN,1000,BKN,1500,OVC,2300,,,MVFR,,,,,,,,,,,,SPECI,67.0
KPRG 171415Z AUTO 00000KT 1SM RA OVC002 02/02 A3005 RMK AO2 P0002 T00200016,KPRG,2019-01-17T14:15:00Z,39.7,-87.67,2.0,1.6,0,0,,1.0,30.050198,,,TRUE,TRUE,,,,,,RA,OVC,200,,,,,,,LIFR,,,,,,0.02,,,,,,METAR,199.0
KPVW 171415Z AUTO 29006KT 10SM CLR 01/M02 A3017 RMK AO2 T00071025,KPVW,2019-01-17T14:15:00Z,34.17,-101.72,0.7,-2.5,290,6,,10.0,30.171259,,,TRUE,TRUE,,,,,,,CLR,,,,,,,,VFR,,,,,,,,,,,,SPECI,1028.0
KPXE 171415Z AUTO 00000KT 10SM CLR 04/03 A3027 RMK AO2 T00420029,KPXE,2019-01-17T14:15:00Z,32.52,-83.77,4.2,2.9,0,0,,10.0,30.268702,,,TRUE,TRUE,,,,,,,CLR,,,,,,,,VFR,,,,,,,,,,,,SPECI,127.0
KTDF 171415Z AUTO 10004KT 10SM OVC018 01/M01 A3032 RMK AO2,KTDF,2019-01-17T14:15:00Z,36.28,-78.98,1.0,-1.0,100,4,,10.0,30.318897,,,TRUE,TRUE,,,,,,,OVC,1800,,,,,,,MVFR,,,,,,,,,,,,SPECI,186.0
LHDC 171415Z 19009KT CAVOK 03/M01 Q1012 NOSIG,LHDC,2019-01-17T14:15:00Z,47.47,21.62,3.0,-1.0,190,9,,6.21,29.88189,,,,,,TRUE,,,,,CAVOK,,,,,,,,VFR,,,,,,,,,,,,METAR,112.0
LHPA 171415Z 20004KT 9999 FEW033 SCT083 11/03 Q1008 NOSIG RMK BLU,LHPA,2019-01-17T14:15:00Z,47.35,17.5,11.0,3.0,200,4,,6.21,29.763779,,,,,,TRUE,,,,,FEW,3300,SCT,8300,,,,,VFR,,,,,,,,,,,,METAR,148.0
LHPP 171415Z 23010KT 9999 FEW043 11/02 Q1012,LHPP,2019-01-17T14:15:00Z,45.98,18.23,11.0,2.0,230,10,,6.21,29.88189,,,,,,,,,,,FEW,4300,,,,,,,VFR,,,,,,,,,,,,METAR,305.0
LHPR 171415Z 15007KT 9999 SCT043 11/03 Q1008 RMK BLU,LHPR,2019-01-17T14:15:00Z,47.63,17.82,11.0,3.0,150,7,,6.21,29.763779,,,,,,,,,,,SCT,4300,,,,,,,VFR,,,,,,,,,,,,METAR,129.0
LHSM 171415Z 21017KT 9999 FEW040 12/04 Q1010 NOSIG,LHSM,2019-01-17T14:15:00Z,46.68,17.17,12.0,4.0,210,17,,6.21,29.822834,,,,,,TRUE,,,,,FEW,4000,,,,,,,VFR,,,,,,,,,,,,METAR,125.0
KREG 171415Z AUTO 13003KT 7SM BKN025 OVC044 12/12 A3019 RMK AO2 T01210117,KREG,2019-01-17T14:15:00Z,30.17,-90.93,12.1,11.7,130,3,,7.0,30.188976,,,TRUE,TRUE,,,,,,,BKN,2500,OVC,4400,,,,,MVFR,,,,,,,,,,,,SPECI,4.0
KRCR 171415Z AUTO 11005KT 3/4SM -SN OVC005 00/M01 A3008 RMK AO2,KRCR,2019-01-17T14:15:00Z,41.07,-86.18,0.0,-1.0,110,5,,0.75,30.079725,,,TRUE,TRUE,,,,,,-SN,OVC,500,,,,,,,LIFR,,,,,,,,,,,,METAR,241.0
KGHG 171415Z AUTO VRB06G11KT 10SM CLR M06/M18 A3040 RMK AO2,KGHG,2019-01-17T14:15:00Z,42.1,-70.67,-6.0,-18.0,0,6,11,10.0,30.398623,,,TRUE,TRUE,,,,,,,CLR,,,,,,,,VFR,,,,,,,,,,,,METAR,4.0
KGBG 171415Z AUTO 04005KT 3/4SM BR OVC003 M02/M02 A3008 RMK AO2 T10171017,KGBG,2019-01-17T14:15:00Z,40.93,-90.43,-1.7,-1.7,40,5,,0.75,30.079725,,,TRUE,TRUE,,,,,,BR,OVC,300,,,,,,,LIFR,,,,,,,,,,,,SPECI,233.0
KFZG 171415Z AUTO 00000KT 10SM CLR 07/05 A3030 RMK AO2 T00680050 PWINO,KFZG,2019-01-17T14:15:00Z,31.68,-83.27,6.8,5.0,0,0,,10.0,30.301182,,,TRUE,TRUE,,,,,TRUE,,CLR,,,,,,,,VFR,,,,,,,,,,,,SPECI,111.0
KFYJ 171415Z AUTO 00000KT 10SM OVC044 02/00 A3038 RMK AO1 T00220001,KFYJ,2019-01-17T14:15:00Z,37.52,-76.77,2.2,0.1,0,0,,10.0,30.380905,,,TRUE,TRUE,,,,,,,OVC,4400,,,,,,,VFR,,,,,,,,,,,,SPECI,7.0
KFWC 171415Z AUTO 20003KT 1SM DZ OVC003 05/05 A3003 RMK AO1 T00530053,KFWC,2019-01-17T14:15:00Z,38.38,-88.42,5.3,5.3,200,3,,1.0,30.029528,,,TRUE,TRUE,,,,,,DZ,OVC,300,,,,,,,LIFR,,,,,,,,,,,,SPECI,133.0
KFVX 171415Z AUTO 00000KT 10SM OVC035 00/00 A3034 RMK AO2 T00001004,KFVX,2019-01-17T14:15:00Z,37.35,-78.42,0.0,-0.4,0,0,,10.0,30.339567,,,TRUE,TRUE,,,,,,,OVC,3500,,,,,,,VFR,,,,,,,,,,,,SPECI,125.0
KFOA 171415Z AUTO 20005KT 1SM -DZ OVC002 05/05 A3003 RMK AO2 P0001 T00530051,KFOA,2019-01-17T14:15:00Z,38.67,-88.45,5.3,5.1,200,5,,1.0,30.029528,,,TRUE,TRUE,,,,,,-DZ,OVC,200,,,,,,,LIFR,,,,,,0.01,,,,,,METAR,144.0
KFKN 171415Z AUTO 00000KT 10SM CLR 03/02 A3036 RMK AO2 T00300018,KFKN,2019-01-17T14:15:00Z,36.7,-76.9,3.0,1.8,0,0,,10.0,30.360237,,,TRUE,TRUE,,,,,,,CLR,,,,,,,,VFR,,,,,,,,,,,,SPECI,12.0
KF70 171415Z AUTO 15006KT 7SM OVC003 13/13 A3015 RMK AO1,KF70,2019-01-17T14:15:00Z,33.57,-117.13,13.0,13.0,150,6,,7.0,30.15059,,,TRUE,TRUE,,,,,,,OVC,300,,,,,,,LIFR,,,,,,,,,,,,SPECI,412.0
KEZZ 171415Z AUTO 33005KT 1/2SM FZFG OVC003 M01/M02 A3011 RMK AO2 T10151017,KEZZ,2019-01-17T14:15:00Z,39.72,-94.28,-1.5,-1.7,330,5,,0.5,30.109253,,,TRUE,TRUE,,,,,,FZFG,OVC,300,,,,,,,LIFR,,,,,,,,,,,,SPECI,317.0
KEZM 171415Z AUTO 00000KT 10SM CLR 05/03 A3030 RMK AO2 T00480034,KEZM,2019-01-17T14:15:00Z,32.22,-83.13,4.8,3.4,0,0,,10.0,30.301182,,,TRUE,TRUE,,,,,,,CLR,,,,,,,,VFR,,,,,,,,,,,,SPECI,93.0
KEZF 171415Z AUTO 00000KT 10SM OVC047 00/00 A3035 RMK AO2 T10011001,KEZF,2019-01-17T14:15:00Z,38.27,-77.45,-0.1,-0.1,0,0,,10.0,30.351377,,,TRUE,TRUE,,,,,,,OVC,4700,,,,,,,VFR,,,,,,,,,,,,SPECI,26.0
KENL 171415Z AUTO 24004KT M1/4SM FG OVC003 05/05 A3003 RMK AO2 T00470047,KENL,2019-01-17T14:15:00Z,38.52,-89.1,4.7,4.7,240,4,,0.25,30.029528,,,TRUE,TRUE,,,,,,FG,OVC,300,,,,,,,LIFR,,,,,,,,,,,,METAR,163.0
KELK 171415Z AUTO 34014KT 7SM OVC007 02/01 A3015 RMK AO2 T00160006,KELK,2019-01-17T14:15:00Z,35.43,-99.4,1.6,0.6,340,14,,7.0,30.15059,,,TRUE,TRUE,,,,,,,OVC,700,,,,,,,IFR,,,,,,,,,,,,SPECI,610.0
KELA 171415Z AUTO 27005KT 7SM OVC007 15/14 A3017 RMK AO2 T01500140,KELA,2019-01-17T14:15:00Z,29.6,-96.32,15.0,14.0,270,5,,7.0,30.171259,,,TRUE,TRUE,,,,,,,OVC,700,,,,,,,IFR,,,,,,,,,,,,METAR,56.0
KSAA 171415Z AUTO 19005KT 10SM OVC090 00/M04 A3005 RMK AO2,KSAA,2019-01-17T14:15:00Z,41.45,-106.83,0.0,-4.0,190,5,,10.0,30.050198,,,TRUE,TRUE,,,,,,,OVC,9000,,,,,,,VFR,,,,,,,,,,,,METAR,2138.0
KRWV 171415Z AUTO 23008KT 7SM BR OVC007 14/13 A3015 RMK AO2 T01390128,KRWV,2019-01-17T14:15:00Z,30.52,-96.7,13.9,12.8,230,8,,7.0,30.15059,,,TRUE,TRUE,,,,,,BR,OVC,700,,,,,,,IFR,,,,,,,,,,,,SPECI,119.0
KRPJ 171415Z AUTO 08007KT 7SM OVC009 M02/M03 A3009 RMK AO2 T10211035,KRPJ,2019-01-17T14:15:00Z,41.88,-89.08,-2.1,-3.5,80,7,,7.0,30.088583,,,TRUE,TRUE,,,,,,,OVC,900,,,,,,,IFR,,,,,,,,,,,,METAR,238.0
KHDE 171415Z AUTO 33003KT 1/2SM FZFG OVC003 M01/M01 A3005 RMK AO2 T10131013,KHDE,2019-01-17T14:15:00Z,40.45,-99.32,-1.3,-1.3,330,3,,0.5,30.050198,,,TRUE,TRUE,,,,,,FZFG,OVC,300,,,,,,,LIFR,,,,,,,,,,,,SPECI,705.0
KGRN 171415Z AUTO 00000KT 10SM CLR M08/M09 A2995 RMK AO2 T10791094,KGRN,2019-01-17T14:15:00Z,42.8,-102.17,-7.9,-9.4,0,0,,10.0,29.949802,,,TRUE,TRUE,,,,,,,CLR,,,,,,,,VFR,,,,,,,,,,,,SPECI,1086.0
KGOP 171415Z AUTO 26004KT 10SM CLR 10/09 A3014 RMK AO2,KGOP,2019-01-17T14:15:00Z,31.42,-97.8,10.0,9.0,260,4,,10.0,30.138779,,,TRUE,TRUE,,,,,,,CLR,,,,,,,,VFR,,,,,,,,,,,,SPECI,276.0
KGNC 171415Z AUTO 33009KT 10SM CLR 06/00 A3025 RMK AO2 T00601005,KGNC,2019-01-17T14:15:00Z,32.68,-102.65,6.0,-0.5,330,9,,10.0,30.250984,,,TRUE,TRUE,,,,,,,CLR,,,,,,,,VFR,,,,,,,,,,,,SPECI,1010.0
KGLE 171415Z AUTO 34010KT 10SM OVC019 09/08 A3012 RMK AO2 T00920075,KGLE,2019-01-17T14:15:00Z,33.65,-97.2,9.2,7.5,340,10,,10.0,30.121063,,,TRUE,TRUE,,,,,,,OVC,1900,,,,,,,MVFR,,,,,,,,,,,,SPECI,256.0
KHHG 171415Z AUTO 11004KT 2 1/2SM -SN BKN005 OVC014 M01/M02 A3010 RMK AO2 T10101016,KHHG,2019-01-17T14:15:00Z,40.85,-85.45,-1.0,-1.6,110,4,,2.5,30.100393,,,TRUE,TRUE,,,,,,-SN,BKN,500,OVC,1400,,,,,IFR,,,,,,,,,,,,SPECI,246.0
KHJH 171415Z AUTO 00000KT 3SM BR OVC007 M02/M03 A3009 RMK AO2 T10251029,KHJH,2019-01-17T14:15:00Z,40.15,-97.58,-2.5,-2.9,0,0,,3.0,30.088583,,,TRUE,TRUE,,,,,,BR,OVC,700,,,,,,,IFR,,,,,,,,,,,,METAR,447.0
KJCA 171415Z AUTO 06007KT 10SM CLR 03/00 A3024 RMK AO2 PWINO T00260005,KJCA,2019-01-17T14:15:00Z,34.18,-83.57,2.6,0.5,60,7,,10.0,30.239174,,,TRUE,TRUE,,,,,TRUE,,CLR,,,,,,,,VFR,,,,,,,,,,,,SPECI,290.0
KJAS 171415Z AUTO 21006KT 3SM BR OVC003 12/12 A3016 RMK AO2 T01150115,KJAS,2019-01-17T14:15:00Z,30.88,-94.03,11.5,11.5,210,6,,3.0,30.159449,,,TRUE,TRUE,,,,,,BR,OVC,300,,,,,,,LIFR,,,,,,,,,,,,METAR,65.0
KIKK 171415Z AUTO 00000KT 2SM -SN OVC006 M01/M01 A3008 RMK AO2 T10071012,KIKK,2019-01-17T14:15:00Z,41.07,-87.85,-0.7,-1.2,0,0,,2.0,30.079725,,,TRUE,TRUE,,,,,,-SN,OVC,600,,,,,,,IFR,,,,,,,,,,,,SPECI,192.0
KHYW 171415Z AUTO 00000KT 5SM BR CLR 03/03 A3030 RMK AO2,KHYW,2019-01-17T14:15:00Z,33.83,-79.12,3.0,3.0,0,0,,5.0,30.301182,,,TRUE,TRUE,,,,,,BR,CLR,,,,,,,,MVFR,,,,,,,,,,,,SPECI,11.0
KEFK 171415Z AUTO 13004KT 10SM CLR M21/M24 A3036 RMK AO2 T12091243,KEFK,2019-01-17T14:15:00Z,44.88,-72.23,-20.9,-24.3,130,4,,10.0,30.360237,,,TRUE,TRUE,,,,,,,CLR,,,,,,,,VFR,,,,,,,,,,,,METAR,284.0
KEBG 171415Z AUTO 01003KT 5SM BR BKN006 BKN010 OVC021 16/14 A3022 RMK AO2 T01560140,KEBG,2019-01-17T14:15:00Z,26.45,-98.13,15.6,14.0,10,3,,5.0,30.221457,,,TRUE,TRUE,,,,,,BR,BKN,600,BKN,1000,OVC,2100,,,IFR,,,,,,,,,,,,SPECI,24.0
KE38 171415Z AUTO 22008KT 10SM CLR 04/M01 A3032 RMK AO2 T00391010,KE38,2019-01-17T14:15:00Z,30.38,-103.68,3.9,-1.0,220,8,,10.0,30.318897,,,TRUE,TRUE,,,,,,,CLR,,,,,,,,VFR,,,,,,,,,,,,METAR,1376.0
KE11 171415Z AUTO 31007KT 10SM CLR 06/M01 A3021 RMK AO2 T00561006,KE11,2019-01-17T14:15:00Z,32.33,-102.53,5.6,-0.6,310,7,,10.0,30.209646,,,TRUE,TRUE,,,,,,,CLR,,,,,,,,VFR,,,,,,,,,,,,METAR,967.0
KDVO 171415Z AUTO 20008KT 10SM FEW031 OVC075 14/10 A2989 RMK AO2,KDVO,2019-01-17T14:15:00Z,38.15,-122.55,14.0,10.0,200,8,,10.0,29.890747,,,TRUE,TRUE,,,,,,,FEW,3100,OVC,7500,,,,,VFR,,,,,,,,,,,,METAR,1.0
KDVK 171415Z AUTO 19003KT 10SM -DZ BKN032 OVC040 03/01 A3013 RMK AO2,KDVK,2019-01-17T14:15:00Z,37.58,-84.77,3.0,1.0,190,3,,10.0,30.129921,,,TRUE,TRUE,,,,,,-DZ,BKN,3200,OVC,4000,,,,,VFR,,,,,,,,,,,,SPECI,312.0
KDUC 171415Z AUTO 35010KT 10SM OVC012 06/04 A3016 RMK AO2 T00600041,KDUC,2019-01-17T14:15:00Z,34.47,-97.97,6.0,4.1,350,10,,10.0,30.159449,,,TRUE,TRUE,,,,,,,OVC,1200,,,,,,,MVFR,,,,,,,,,,,,SPECI,339.0
KDUB 171415Z AUTO 34010G15KT 10SM SCT120 M01/M05 A2985 RMK AO2,KDUB,2019-01-17T14:15:00Z,43.55,-109.68,-1.0,-5.0,340,10,15,10.0,29.84941,,,TRUE,TRUE,,,,,,,SCT,12000,,,,,,,VFR,,,,,,,,,,,,SPECI,2224.0
KDTA 171415Z AUTO 16005KT 10SM OVC060 04/00 A3001 RMK AO1,KDTA,2019-01-17T14:15:00Z,39.38,-112.5,4.0,0.0,160,5,,10.0,30.008858,,,TRUE,TRUE,,,,,,,OVC,6000,,,,,,,VFR,,,,,,,,,,,,METAR,1402.0
KDQH 171415Z AUTO 00000KT 10SM CLR 06/05 A3029 RMK AO2 T00600045,KDQH,2019-01-17T14:15:00Z,31.48,-82.87,6.0,4.5,0,0,,10.0,30.28937,,,TRUE,TRUE,,,,,,,CLR,,,,,,,,VFR,,,,,,,,,,,,SPECI,78.0
KDKR 171415Z AUTO 22011KT 5SM BR 15/15 A3014 RMK AO2,KDKR,2019-01-17T14:15:00Z,31.3,-95.4,15.0,15.0,220,11,,5.0,30.138779,,,TRUE,TRUE,,,,,,BR,,,,,,,,,,,,,,,,,,,,,SPECI,106.0
KDKB 171415Z AUTO 08006KT 5SM BR OVC006 M02/M03 A3008 RMK AO2 T10201030,KDKB,2019-01-17T14:15:00Z,41.93,-88.7,-2.0,-3.0,80,6,,5.0,30.079725,,,TRUE,TRUE,,,,,,BR,OVC,600,,,,,,,IFR,,,,,,,,,,,,METAR,279.0
KDED 171415Z AUTO 34004KT 10SM SCT040 10/08 A3026 RMK AO2,KDED,2019-01-17T14:15:00Z,29.07,-81.28,10.0,8.0,340,4,,10.0,30.259842,,,TRUE,TRUE,,,,,,,SCT,4000,,,,,,,VFR,,,,,,,,,,,,SPECI,24.0
KDCY 171415Z AUTO 14009KT 1SM DZ OVC007 04/03 A3004 RMK AO2 T00400030,KDCY,2019-01-17T14:15:00Z,38.7,-87.13,4.0,3.0,140,9,,1.0,30.041338,,,TRUE,TRUE,,,,,,DZ,OVC,700,,,,,,,IFR,,,,,,,,,,,,METAR,144.0
KDBN 171415Z AUTO 00000KT 10SM CLR 04/02 A3029 RMK AO2,KDBN,2019-01-17T14:15:00Z,32.57,-82.98,4.0,2.0,0,0,,10.0,30.28937,,,TRUE,TRUE,,,,,,,CLR,,,,,,,,VFR,,,,,,,,,,,,SPECI,94.0
KCXE 171415Z AUTO 10005KT 10SM CLR 01/M01 A3033 RMK AO1 T00121013,KCXE,2019-01-17T14:15:00Z,36.78,-78.5,1.2,-1.3,100,5,,10.0,30.33071,,,TRUE,TRUE,,,,,,,CLR,,,,,,,,VFR,,,,,,,,,,,,SPECI,153.0
KCVC 171415Z AUTO 00000KT 7SM CLR 03/02 A3021 RMK AO2 PNO,KCVC,2019-01-17T14:15:00Z,33.63,-83.85,3.0,2.0,0,0,,7.0,30.209646,,,TRUE,TRUE,,,,,,,CLR,,,,,,,,VFR,,,,,,,,,,,,SPECI,247.0
KCUH 171415Z AUTO 33007KT 7SM OVC007 04/04 A3012 RMK AO2 T00400035,KCUH,2019-01-17T14:15:00Z,35.95,-96.77,4.0,3.5,330,7,,7.0,30.121063,,,TRUE,TRUE,,,,,,,OVC,700,,,,,,,IFR,,,,,,,,,,,,SPECI,279.0
KCTY 171415Z AUTO 00000KT 10SM CLR 08/05 A3030 RMK AO2 T00770053,KCTY,2019-01-17T14:15:00Z,29.63,-83.1,7.7,5.3,0,0,,10.0,30.301182,,,TRUE,TRUE,,,,,,,CLR,,,,,,,,VFR,,,,,,,,,,,,SPECI,13.0
KCTJ 171415Z AUTO 00000KT 5SM BR BKN110 00/00 A3026 RMK AO2 T00031002,KCTJ,2019-01-17T14:15:00Z,33.63,-85.15,0.3,-0.2,0,0,,5.0,30.259842,,,TRUE,TRUE,,,,,,BR,BKN,11000,,,,,,,MVFR,,,,,,,,,,,,SPECI,354.0
KCQB 171415Z AUTO 29009G17KT 7SM BR OVC003 04/04 A3013 RMK AO2 T00420039,KCQB,2019-01-17T14:15:00Z,35.72,-96.82,4.2,3.9,290,9,17,7.0,30.129921,,,TRUE,TRUE,,,,,,BR,OVC,300,,,,,,,LIFR,,,,,,,,,,,,SPECI,300.0
KCKF 171415Z AUTO 00000KT 10SM CLR 05/03 A3028 RMK AO2 T00470031,KCKF,2019-01-17T14:15:00Z,31.98,-83.77,4.7,3.1,0,0,,10.0,30.280512,,,TRUE,TRUE,,,,,,,CLR,,,,,,,,VFR,,,,,,,,,,,,SPECI,91.0
KCHK 171415Z AUTO 33014KT 10SM OVC012 04/02 A3014 RMK AO2,KCHK,2019-01-17T14:15:00Z,35.1,-97.97,4.0,2.0,330,14,,10.0,30.138779,,,TRUE,TRUE,,,,,,,OVC,1200,,,,,,,MVFR,,,,,,,,,,,,SPECI,351.0
KCFD 171415Z AUTO 24005KT 7SM OVC009 14/14 A3015 RMK AO2 T01400140,KCFD,2019-01-17T14:15:00Z,30.72,-96.33,14.0,14.0,240,5,,7.0,30.15059,,,TRUE,TRUE,,,,,,,OVC,900,,,,,,,IFR,,,,,,,,,,,,METAR,112.0
KC75 171415Z AUTO 01003KT 3SM BR OVC004 M02/M03 A3008 RMK AO2 T10251030,KC75,2019-01-17T14:15:00Z,41.02,-89.38,-2.5,-3.0,10,3,,3.0,30.079725,,,TRUE,TRUE,,,,,,BR,OVC,400,,,,,,,LIFR,,,,,,,,,,,,METAR,173.0
KC65 171415Z AUTO 10005KT 1 1/2SM BR OVC004 M02/M02 A3008 RMK A01,KC65,2019-01-17T14:15:00Z,41.37,-86.3,-2.0,-2.0,100,5,,1.5,30.079725,,,TRUE,TRUE,,,,,,BR,OVC,400,,,,,,,LIFR,,,,,,,,,,,,METAR,244.0
KC09 171415Z AUTO 00000KT 4SM BR OVC008 M01/M02 A3008 RMK AO2 T10151025,KC09,2019-01-17T14:15:00Z,41.43,-88.42,-1.5,-2.5,0,0,,4.0,30.079725,,,TRUE,TRUE,,,,,,BR,OVC,800,,,,,,,IFR,,,,,,,,,,,,SPECI,178.0
KBVS 171415Z AUTO 07013G20KT 10SM FEW055 FEW090 BKN110 09/05 A2948 RMK A01,KBVS,2019-01-17T14:15:00Z,48.47,-122.42,9.0,5.0,70,13,20,10.0,29.480314,,,TRUE,TRUE,,,,,,,FEW,5500,FEW,9000,BKN,11000,,,VFR,,,,,,,,,,,,SPECI,43.0
KBQP 171415Z AUTO 17005KT 10SM OVC011 10/10 A3011 RMK AO2 T01000097,KBQP,2019-01-17T14:15:00Z,32.75,-91.88,10.0,9.7,170,5,,10.0,30.109253,,,TRUE,TRUE,,,,,,,OVC,1100,,,,,,,MVFR,,,,,,,,,,,,SPECI,51.0
KBMT 171415Z AUTO 22008KT 10SM OVC004 18/17 A3015 RMK AO2 T01800167,KBMT,2019-01-17T14:15:00Z,30.07,-94.22,18.0,16.7,220,8,,10.0,30.15059,,,TRUE,TRUE,,,,,,,OVC,400,,,,,,,LIFR,,,,,,,,,,,,SPECI,10.0
KBKD 171415Z AUTO 34006KT 3SM BR OVC009 08/07 A3017 RMK AO2 T00790070,KBKD,2019-01-17T14:15:00Z,32.72,-98.88,7.9,7.0,340,6,,3.0,30.171259,,,TRUE,TRUE,,,,,,BR,OVC,900,,,,,,,IFR,,,,,,,,,,,,SPECI,392.0
KBIE 171415Z AUTO 00000KT 1 3/4SM SCT005 OVC026 M03/M04 A3009 RMK AO2 T10321036 PWINO,KBIE,2019-01-17T14:15:00Z,40.28,-96.75,-3.2,-3.6,0,0,,1.75,30.088583,,,TRUE,TRUE,,,,,TRUE,,SCT,500,OVC,2600,,,,,IFR,,,,,,,,,,,,METAR,403.0
KBHC 171415Z AUTO 00000KT 10SM CLR 05/05 A3028 RMK AO2,KBHC,2019-01-17T14:15:00Z,31.72,-82.4,5.0,5.0,0,0,,10.0,30.280512,,,TRUE,TRUE,,,,,,,CLR,,,,,,,,VFR,,,,,,,,,,,,SPECI,61.0
KBGE 171415Z 5SM 07/04 A3027 RMK AO2 PWINO,KBGE,2019-01-17T14:15:00Z,30.97,-84.63,7.0,4.0,,,,5.0,30.268702,,,,TRUE,,,,,TRUE,,,,,,,,,,,,,,,,,,,,,,SPECI,43.0
KBDG 171415Z AUTO 05003KT 10SM M02/M03 A3029 RMK AO1 T10221029,KBDG,2019-01-17T14:15:00Z,37.58,-109.47,-2.2,-2.9,50,3,,10.0,30.28937,,,TRUE,TRUE,,,,,,,,,,,,,,,,,,,,,,,,,,,METAR,1788.0
KHWY 171415Z AUTO 00000KT 10SM OVC043 M01/M03 A3034 RMK AO2 T10141033,KHWY,2019-01-17T14:15:00Z,38.58,-77.72,-1.4,-3.3,0,0,,10.0,30.339567,,,TRUE,TRUE,,,,,,,OVC,4300,,,,,,,VFR,,,,,,,,,,,,SPECI,103.0
KHVE 171415Z AUTO 00000KT 1/2SM OVC001 M01/M01 A3017 RMK AO2,KHVE,2019-01-17T14:15:00Z,38.42,-110.7,-1.0,-1.0,0,0,,0.5,30.171259,,,TRUE,TRUE,,,,,,,OVC,100,,,,,,,LIFR,,,,,,,,,,,,SPECI,1350.0
KHTO 171415Z AUTO 35005KT 10SM CLR M04/M16 A3040 RMK AO2 T10391164,KHTO,2019-01-17T14:15:00Z,40.95,-72.25,-3.9,-16.4,350,5,,10.0,30.398623,,,TRUE,TRUE,,,,,,,CLR,,,,,,,,VFR,,,,,,,,,,,,METAR,17.0
KHSG 171415Z AUTO 18011G19KT 10SM OVC075 01/M06 A2987 RMK AO2 T00121057,KHSG,2019-01-17T14:15:00Z,43.72,-108.38,1.2,-5.7,180,11,19,10.0,29.870079,,,TRUE,TRUE,,,,,,,OVC,7500,,,,,,,VFR,,,,,,,,,,,,SPECI,1494.0
KHSB 171415Z AUTO 22003KT 3SM BR OVC005 07/07 A3004 RMK AO2 T00650065,KHSB,2019-01-17T14:15:00Z,37.82,-88.55,6.5,6.5,220,3,,3.0,30.041338,,,TRUE,TRUE,,,,,,BR,OVC,500,,,,,,,IFR,,,,,,,,,,,,METAR,121.0
KJYO 171415Z AUTO 00000KT 10SM OVC045 01/M01 A3036 RMK AO2,KJYO,2019-01-17T14:15:00Z,39.07,-77.57,1.0,-1.0,0,0,,10.0,30.360237,,,TRUE,TRUE,,,,,,,OVC,4500,,,,,,,VFR,,,,,,,,,,,,SPECI,119.0
KJOT 171415Z AUTO 36003KT 5SM BR OVC010 M01/M02 A3009 RMK AO2 T10061020,KJOT,2019-01-17T14:15:00Z,41.52,-88.18,-0.6,-2.0,360,3,,5.0,30.088583,,,TRUE,TRUE,,,,,,BR,OVC,1000,,,,,,,MVFR,,,,,,,,,,,,METAR,177.0
KJKA 171415Z AUTO 29004KT 10SM CLR 08/07 A3024 RMK AO2 T00800071,KJKA,2019-01-17T14:15:00Z,30.28,-87.67,8.0,7.1,290,4,,10.0,30.239174,,,TRUE,TRUE,,,,,,,CLR,,,,,,,,VFR,,,,,,,,,,,,SPECI,5.0
KJGG 171415Z AUTO 00000KT 10SM OVC044 04/M01 A3037 RMK AO1,KJGG,2019-01-17T14:15:00Z,37.23,-76.72,4.0,-1.0,0,0,,10.0,30.369095,,,TRUE,TRUE,,,,,,,OVC,4400,,,,,,,VFR,,,,,,,,,,,,SPECI,15.0
KJZP 171415Z AUTO 21006KT 10SM BKN043 OVC070 02/01 A3024 RMK AO2 T00210005 PNO,KJZP,2019-01-17T14:15:00Z,34.45,-84.47,2.1,0.5,210,6,,10.0,30.239174,,,TRUE,TRUE,,,,,,,BKN,4300,OVC,7000,,,,,VFR,,,,,,,,,,,,SPECI,468.0
KL35 171415Z AUTO 24011G22KT 204V264 3SM DZ OVC006 03/03 A3011 RMK AO2,KL35,2019-01-17T14:15:00Z,34.27,-116.85,3.0,3.0,240,11,22,3.0,30.109253,,,TRUE,TRUE,,,,,,DZ,OVC,600,,,,,,,IFR,,,,,,,,,,,,SPECI,2059.0
KLAM 171415Z AUTO 16005KT 10SM SCT085 M01/M05 A3026 RMK AO2 T10121055,KLAM,2019-01-17T14:15:00Z,35.87,-106.27,-1.2,-5.5,160,5,,10.0,30.259842,,,TRUE,TRUE,,,,,,,SCT,8500,,,,,,,VFR,,,,,,,,,,,,SPECI,2179.0
KLCG 171415Z AUTO 00000KT 10SM OVC013 M04/M07 A3008 RMK AO2 T10451067,KLCG,2019-01-17T14:15:00Z,42.25,-96.98,-4.5,-6.7,0,0,,10.0,30.079725,,,TRUE,TRUE,,,,,,,OVC,1300,,,,,,,MVFR,,,,,,,,,,,,METAR,436.0
KLGC 171415Z AUTO 00000KT 7SM CLR 03/03 A3020 RMK AO2 T00300028,KLGC,2019-01-17T14:15:00Z,33.0,-85.07,3.0,2.8,0,0,,7.0,30.200787,,,TRUE,TRUE,,,,,,,CLR,,,,,,,,VFR,,,,,,,,,,,,SPECI,211.0
KLCQ 171415Z AUTO 00000KT 10SM CLR 08/03 A3029 RMK AO2,KLCQ,2019-01-17T14:15:00Z,30.18,-82.58,8.0,3.0,0,0,,10.0,30.28937,,,TRUE,TRUE,,,,,,,CLR,,,,,,,,VFR,,,,,,,,,,,,SPECI,61.0
KLKU 171415Z AUTO 00000KT 10SM OVC038 01/M02 A3038 RMK AO2 T00061022,KLKU,2019-01-17T14:15:00Z,38.02,-77.97,0.6,-2.2,0,0,,10.0,30.380905,,,TRUE,TRUE,,,,,,,OVC,3800,,,,,,,VFR,,,,,,,,,,,,SPECI,150.0
K6B0 171415Z AUTO 00000KT 10SM CLR M17/M21 A3043 RMK AO2 T11671211,K6B0,2019-01-17T14:15:00Z,43.98,-73.1,-16.7,-21.1,0,0,,10.0,30.431103,,,TRUE,TRUE,,,,,,,CLR,,,,,,,,VFR,,,,,,,,,,,,SPECI,149.0
K66R 171415Z AUTO 25006KT 10SM OVC007 14/12 A3018 RMK AO2 T01400123,K66R,2019-01-17T14:15:00Z,29.65,-96.52,14.0,12.3,250,6,,10.0,30.180119,,,TRUE,TRUE,,,,,,,OVC,700,,,,,,,IFR,,,,,,,,,,,,SPECI,74.0
K5C1 171415Z AUTO 00000KT 10SM SCT002 09/09 A3020 RMK AO1,K5C1,2019-01-17T14:15:00Z,29.72,-98.7,9.0,9.0,0,0,,10.0,30.200787,,,TRUE,TRUE,,,,,,,SCT,200,,,,,,,VFR,,,,,,,,,,,,SPECI,423.0
K4V0 171415Z AUTO 00000KT 10SM OVC002 A3014 RMK AO2,K4V0,2019-01-17T14:15:00Z,40.1,-108.77,,,0,0,,10.0,30.138779,,,TRUE,TRUE,,,,,,,OVC,200,,,,,,,LIFR,,,,,,,,,,,,SPECI,1608.0
K4A9 171415Z AUTO 00000KT 3 1/2SM RA BR BKN027 OVC045 02/01 A3018 RMK AO2 P0001 T00250015,K4A9,2019-01-17T14:15:00Z,34.47,-85.72,2.5,1.5,0,0,,3.5,30.180119,,,TRUE,TRUE,,,,,,RA BR,BKN,2700,OVC,4500,,,,,MVFR,,,,,,0.01,,,,,,SPECI,267.0
K49A 171415Z AUTO 12004KT 10SM SCT046 OVC065 02/01 A3021 RMK AO2 T00240006,K49A,2019-01-17T14:15:00Z,34.63,-84.53,2.4,0.6,120,4,,10.0,30.209646,,,TRUE,TRUE,,,,,,,SCT,4600,OVC,6500,,,,,VFR,,,,,,,,,,,,SPECI,453.0
K48A 171415Z AUTO 09003KT 10SM CLR 05/03 A3026 RMK AO2 T00450030,K48A,2019-01-17T14:15:00Z,,,4.5,3.0,90,3,,10.0,30.259842,,,TRUE,TRUE,,,,,,,CLR,,,,,,,,VFR,,,,,,,,,,,,METAR,
K40J 171415Z AUTO 10003KT 10SM CLR 07/07 A3030 RMK AO2 T00700066,K40J,2019-01-17T14:15:00Z,30.07,-83.57,7.0,6.6,100,3,,10.0,30.301182,,,TRUE,TRUE,,,,,,,CLR,,,,,,,,VFR,,,,,,,,,,,,SPECI,13.0
K3N8 171415Z AUTO 00000KT 10SM OVC034 M17/M20 A3011 RMK AO2 T11681202,K3N8,2019-01-17T14:15:00Z,47.25,-95.88,-16.8,-20.2,0,0,,10.0,30.109253,,,TRUE,TRUE,,,,,,,OVC,3400,,,,,,,VFR,,,,,,,,,,,,SPECI,383.0
K3F3 171415Z AUTO 20009KT 4SM BR OVC003 14/14 A3012 RMK AO2 T01420140,K3F3,2019-01-17T14:15:00Z,32.07,-93.77,14.2,14.0,200,9,,4.0,30.121063,,,TRUE,TRUE,,,,,,BR,OVC,300,,,,,,,LIFR,,,,,,,,,,,,SPECI,96.0
K2J5 171415Z AUTO 00000KT 10SM CLR 04/02 A3028 RMK AO2 PWINO T00420025,K2J5,2019-01-17T14:15:00Z,32.9,-81.97,4.2,2.5,0,0,,10.0,30.280512,,,TRUE,TRUE,,,,,TRUE,,CLR,,,,,,,,VFR,,,,,,,,,,,,METAR,72.0
K2J3 171415Z AUTO 00000KT 10SM CLR 05/03 A3027 RMK AO2 T00450032,K2J3,2019-01-17T14:15:00Z,32.98,-82.38,4.5,3.2,0,0,,10.0,30.268702,,,TRUE,TRUE,,,,,,,CLR,,,,,,,,VFR,,,,,,,,,,,,SPECI,100.0
K2I0 171415Z AUTO 18007KT 5SM RA OVC005 06/06 A3006 RMK AO2 T00560055,K2I0,2019-01-17T14:15:00Z,37.35,-87.4,5.6,5.5,180,7,,5.0,30.059055,,,TRUE,TRUE,,,,,,RA,OVC,500,,,,,,,IFR,,,,,,,,,,,,SPECI,134.0
K1H2 171415Z AUTO 00000KT M1/4SM -SN OVC003 02/02 A3004 RMK AO2 T00160016,K1H2,2019-01-17T14:15:00Z,39.07,-88.53,1.6,1.6,0,0,,0.25,30.041338,,,TRUE,TRUE,,,,,,-SN,OVC,300,,,,,,,LIFR,,,,,,,,,,,,SPECI,179.0
K1F0 171415Z AUTO 33004KT 10SM OVC014 09/07 A3011 RMK AO2,K1F0,2019-01-17T14:15:00Z,34.15,-97.12,9.0,7.0,330,4,,10.0,30.109253,,,TRUE,TRUE,,,,,,,OVC,1400,,,,,,,MVFR,,,,,,,,,,,,SPECI,257.0
K1A6 171415Z AUTO 00000KT 10SM SCT020 BKN065 OVC120 03/00 A3020 RMK AO2 T00300002,K1A6,2019-01-17T14:15:00Z,36.62,-83.73,3.0,0.2,0,0,,10.0,30.200787,,,TRUE,TRUE,,,,,,,SCT,2000,BKN,6500,OVC,12000,,,VFR,,,,,,,,,,,,SPECI,352.0
K19S 171415Z AUTO 28006KT 7SM CLR M01/M02 A3011 RMK AO2 T10121021,K19S,2019-01-17T14:15:00Z,37.48,-100.83,-1.2,-2.1,280,6,,7.0,30.109253,,,TRUE,TRUE,,,,,,,CLR,,,,,,,,VFR,,,,,,,,,,,,SPECI,886.0
K0R4 171415Z AUTO 16006KT 10SM SCT012 OVC020 11/09 A3015 RMK AO2 T01060091,K0R4,2019-01-17T14:15:00Z,31.57,-91.5,10.6,9.1,160,6,,10.0,30.15059,,,TRUE,TRUE,,,,,,,SCT,1200,OVC,2000,,,,,MVFR,,,,,,,,,,,,SPECI,17.0
K06C 171415Z AUTO 00000KT 4SM OVC010 M02/M03 A3008 RMK AO2 T10171032,K06C,2019-01-17T14:15:00Z,41.98,-88.1,-1.7,-3.2,0,0,,4.0,30.079725,,,TRUE,TRUE,,,,,,,OVC,1000,,,,,,,MVFR,,,,,,,,,,,,SPECI,244.0
KMWC 171415Z 00000KT 10SM BKN038 M04/M07 A3012,KMWC,2019-01-17T14:15:00Z,43.12,-88.03,-4.0,-7.0,0,0,,10.0,30.121063,,,,,,,,,,,BKN,3800,,,,,,,VFR,,,,,,,,,,,,SPECI,227.0
KMTV 171415Z AUTO 00000KT 10SM CLR 00/M02 A3031 RMK AO2 T10051017,KMTV,2019-01-17T14:15:00Z,36.63,-80.02,-0.5,-1.7,0,0,,10.0,30.31004,,,TRUE,TRUE,,,,,,,CLR,,,,,,,,VFR,,,,,,,,,,,,SPECI,287.0
KMQS 171415Z AUTO 06004KT 10SM CLR M04/M10 A3038 RMK AO2,KMQS,2019-01-17T14:15:00Z,39.98,-75.87,-4.0,-10.0,60,4,,10.0,30.380905,,,TRUE,TRUE,,,,,,,CLR,,,,,,,,VFR,,,,,,,,,,,,METAR,201.0
KMLE 171415Z AUTO 00000KT 7SM OVC026 M02/M05 A3011 RMK AO2 T10251052,KMLE,2019-01-17T14:15:00Z,41.2,-96.12,-2.5,-5.2,0,0,,7.0,30.109253,,,TRUE,TRUE,,,,,,,OVC,2600,,,,,,,MVFR,,,,,,,,,,,,METAR,320.0
KMKJ 171415Z AUTO 06004KT 10SM OVC007 00/M01 A3022 RMK AO2 T10051010,KMKJ,2019-01-17T14:15:00Z,36.88,-81.33,-0.5,-1.0,60,4,,10.0,30.221457,,,TRUE,TRUE,,,,,,,OVC,700,,,,,,,IFR,,,,,,,,,,,,SPECI,780.0
KMGR 171415Z AUTO 00000KT 10SM CLR 06/05 A3028 RMK AO2,KMGR,2019-01-17T14:15:00Z,31.08,-83.8,6.0,5.0,0,0,,10.0,30.280512,,,TRUE,TRUE,,,,,,,CLR,,,,,,,,VFR,,,,,,,,,,,,SPECI,90.0
KMFV 171415Z AUTO 07003KT 10SM BKN046 01/00 A3037 RMK AO2 T00110001,KMFV,2019-01-17T14:15:00Z,37.63,-75.77,1.1,0.1,70,3,,10.0,30.369095,,,TRUE,TRUE,,,,,,,BKN,4600,,,,,,,VFR,,,,,,,,,,,,SPECI,15.0
KMDQ 171415Z AUTO 00000KT 10SM -RA OVC027 06/02 A3019 RMK A02 T00570022,KMDQ,2019-01-17T14:15:00Z,34.87,-86.55,5.7,2.2,0,0,,10.0,30.188976,,,TRUE,TRUE,,,,,,-RA,OVC,2700,,,,,,,MVFR,,,,,,,,,,,,SPECI,230.0
KMDD 171415Z AUTO 26006KT 10SM 05/01 A3021 RMK AO2 T00540012,KMDD,2019-01-17T14:15:00Z,32.03,-102.1,5.4,1.2,260,6,,10.0,30.209646,,,TRUE,TRUE,,,,,,,,,,,,,,,,,,,,,,,,,,,METAR,854.0
KM30 171415Z AUTO 18003KT 4SM DZ OVC006 07/06 A3005 RMK AO2 P0001 T00690064,KM30,2019-01-17T14:15:00Z,37.18,-88.75,6.9,6.4,180,3,,4.0,30.050198,,,TRUE,TRUE,,,,,,DZ,OVC,600,,,,,,,IFR,,,,,,0.01,,,,,,METAR,117.0
KLVL 171415Z AUTO 10SM CLR 01/M01 A3035 RMK AO1 T00131013,KLVL,2019-01-17T14:15:00Z,36.78,-77.8,1.3,-1.3,,,,10.0,30.351377,,,TRUE,TRUE,,,,,,,CLR,,,,,,,,VFR,,,,,,,,,,,,SPECI,100.0
KLOM 171415Z AUTO 00000KT 10SM CLR M04/M12 A3041 RMK AO1,KLOM,2019-01-17T14:15:00Z,40.13,-75.27,-4.0,-12.0,0,0,,10.0,30.410433,,,TRUE,TRUE,,,,,,,CLR,,,,,,,,VFR,,,,,,,,,,,,METAR,92.0
KLNQ 171415Z AUTO 00000KT 10SM SCT065 OVC100 12/08 A3025 RMK AO2 T01180083,KLNQ,2019-01-17T14:15:00Z,29.35,-89.43,11.8,8.3,0,0,,10.0,30.250984,,,TRUE,TRUE,,,,,,,SCT,6500,OVC,10000,,,,,VFR,,,,,,,,,,,,METAR,1.0
KLNN 171415Z AUTO 12006KT 10SM SCT040 A3025 RMK AO1,KLNN,2019-01-17T14:15:00Z,41.67,-81.37,,,120,6,,10.0,30.250984,,,TRUE,TRUE,,,,,,,SCT,4000,,,,,,,VFR,,,,,,,,,,,,SPECI,191.0
K6P9 171415Z AUTO 36007KT 10SM CLR 06/05 A3015 RMK AO2 T00620045,K6P9,2019-01-17T14:15:00Z,32.43,-98.6,6.2,4.5,360,7,,10.0,30.15059,,,TRUE,TRUE,,,,,,,CLR,,,,,,,,VFR,,,,,,,,,,,,SPECI,449.0
K6R3 171415Z AUTO 24007KT 7SM OVC009 16/16 A3015 RMK AO2 T01620162,K6R3,2019-01-17T14:15:00Z,30.35,-95.0,16.2,16.2,240,7,,7.0,30.15059,,,TRUE,TRUE,,,,,,,OVC,900,,,,,,,IFR,,,,,,,,,,,,SPECI,46.0
K9V9 171415Z AUTO 00000KT 4SM BR OVC002 M06/M06 A3009 RMK AO2 T10651065,K9V9,2019-01-17T14:15:00Z,43.77,-99.32,-6.5,-6.5,0,0,,4.0,30.088583,,,TRUE,TRUE,,,,,,BR,OVC,200,,,,,,,LIFR,,,,,,,,,,,,SPECI,519.0
K9A5 171415Z AUTO 00000KT 4SM BKN040 OVC065 01/01 A3022 RMK AO2 T00110010,K9A5,2019-01-17T14:15:00Z,34.68,-85.28,1.1,1.0,0,0,,4.0,30.221457,,,TRUE,TRUE,,,,,,,BKN,4000,OVC,6500,,,,,MVFR,,,,,,,,,,,,SPECI,237.0
K8A0 171415Z AUTO 16003KT 2 1/2SM RA OVC024 03/02 A3020 RMK AO2,K8A0,2019-01-17T14:15:00Z,34.23,-86.25,3.0,2.0,160,3,,2.5,30.200787,,,TRUE,TRUE,,,,,,RA,OVC,2400,,,,,,,IFR,,,,,,,,,,,,SPECI,315.0
KA08 171415Z AUTO 00000KT 5SM RA BKN048 OVC055 05/04 A3023 RMK AO2 T00450038,KA08,2019-01-17T14:15:00Z,32.52,-87.38,4.5,3.8,0,0,,5.0,30.230314,,,TRUE,TRUE,,,,,,RA,BKN,4800,OVC,5500,,,,,MVFR,,,,,,,,,,,,SPECI,69.0
KAAA 171415Z AUTO 00000KT 5SM BR OVC004 01/01 A3004 RMK AO2 T00070007,KAAA,2019-01-17T14:15:00Z,40.17,-89.33,0.7,0.7,0,0,,5.0,30.041338,,,TRUE,TRUE,,,,,,BR,OVC,400,,,,,,,LIFR,,,,,,,,,,,,SPECI,182.0
KBCB 171415Z AUTO 11003KT 10SM OVC015 M01/M02 A3025 RMK AO2 T10101024,KBCB,2019-01-17T14:15:00Z,37.22,-80.42,-1.0,-2.4,110,3,,10.0,30.250984,,,TRUE,TRUE,,,,,,,OVC,1500,,,,,,,MVFR,,,,,,,,,,,,SPECI,650.0
KAUN 171415Z AUTO 17007KT 10SM FEW023 SCT032 BKN040 10/09 A2989 RMK A01,KAUN,2019-01-17T14:15:00Z,38.95,-121.08,10.0,9.0,170,7,,10.0,29.890747,,,TRUE,TRUE,,,,,,,FEW,2300,SCT,3200,BKN,4000,,,VFR,,,,,,,,,,,,SPECI,467.0
KAUH 171415Z AUTO 00000KT 1 3/4SM BR OVC016 M02/M02 A3006 RMK AO2 T10201020,KAUH,2019-01-17T14:15:00Z,40.88,-98.0,-2.0,-2.0,0,0,,1.75,30.059055,,,TRUE,TRUE,,,,,,BR,OVC,1600,,,,,,,IFR,,,,,,,,,,,,SPECI,550.0
KASL 171415Z AUTO 00000KT 4SM OVC003 14/13 A3009 RMK AO1 T01350125,KASL,2019-01-17T14:15:00Z,32.52,-94.3,13.5,12.5,0,0,,4.0,30.088583,,,TRUE,TRUE,,,,,,,OVC,300,,,,,,,LIFR,,,,,,,,,,,,SPECI,109.0
KAQR 171415Z AUTO 34008KT 10SM BKN014 OVC027 11/10 A3007 RMK AO2,KAQR,2019-01-17T14:15:00Z,34.4,-96.15,11.0,10.0,340,8,,10.0,30.070866,,,TRUE,TRUE,,,,,,,BKN,1400,OVC,2700,,,,,MVFR,,,,,,,,,,,,SPECI,189.0
KALX 171415Z AUTO 00000KT 10SM CLR 03/02 A3022 RMK AO2 T00260016,KALX,2019-01-17T14:15:00Z,32.92,-85.97,2.6,1.6,0,0,,10.0,30.221457,,,TRUE,TRUE,,,,,,,CLR,,,,,,,,VFR,,,,,,,,,,,,SPECI,209.0
KAHQ 171415Z AUTO 00000KT 10SM OVC026 M04/M05 A3010 RMK AO2 T10401053,KAHQ,2019-01-17T14:15:00Z,41.23,-96.6,-4.0,-5.3,0,0,,10.0,30.100393,,,TRUE,TRUE,,,,,,,OVC,2600,,,,,,,MVFR,,,,,,,,,,,,SPECI,374.0
KAFO 171415Z AUTO 22010KT 10SM SCT042 OVC050 00/M02 A2993 RMK AO2,KAFO,2019-01-17T14:15:00Z,42.72,-110.95,0.0,-2.0,220,10,,10.0,29.929134,,,TRUE,TRUE,,,,,,,SCT,4200,OVC,5000,,,,,VFR,,,,,,,,,,,,SPECI,1897.0
KADH 171415Z AUTO 34007KT 10SM OVC007 08/07 A3010 RMK AO2,KADH,2019-01-17T14:15:00Z,34.8,-96.67,8.0,7.0,340,7,,10.0,30.100393,,,TRUE,TRUE,,,,,,,OVC,700,,,,,,,IFR,,,,,,,,,,,,SPECI,308.0
KMER 171415Z AUTO 14003KT 10SM FEW035 SCT044 SCT055 12/12 A2996 RMK AO1,KMER,2019-01-17T14:15:00Z,37.38,-120.57,12.0,12.0,140,3,,10.0,29.958662,,,TRUE,TRUE,,,,,,,FEW,3500,SCT,4400,SCT,5500,,,VFR,,,,,,,,,,,,SPECI,57.0
KHLX 171415Z AUTO 14003KT 7SM BKN004 M02/M02 A3017 RMK AO2 T10171023,KHLX,2019-01-17T14:15:00Z,36.77,-80.82,-1.7,-2.3,140,3,,7.0,30.171259,,,TRUE,TRUE,,,,,,,BKN,400,,,,,,,LIFR,,,,,,,,,,,,SPECI,834.0
OEYN 171415Z 27012KT 4000 NSC 24/06 Q1014 NOSIG,OEYN,2019-01-17T14:15:00Z,24.13,38.07,24.0,6.0,270,12,,2.49,29.940945,,,,,,TRUE,,,,,CLR,,,,,,,,IFR,,,,,,,,,,,,SPECI,8.0
KEBS 171415Z AUTO 31005KT 3SM BR OVC007 M04/M04 A3007 RMK AO2,KEBS,2019-01-17T14:15:00Z,42.42,-93.87,-4.0,-4.0,310,5,,3.0,30.070866,,,TRUE,TRUE,,,,,,BR,OVC,700,,,,,,,IFR,,,,,,,,,,,,SPECI,342.0
KLVN 171415Z AUTO 29006KT 10SM M06/M07 A3008 RMK AO2,KLVN,2019-01-17T14:15:00Z,44.63,-93.23,-6.0,-7.0,290,6,,10.0,30.079725,,,TRUE,TRUE,,,,,,,,,,,,,,,,,,,,,,,,,,,SPECI,293.0
KGLY 171415Z AUTO 34004KT M1/4SM FG OVC002 00/00 A3009 RMK AO2,KGLY,2019-01-17T14:15:00Z,38.35,-93.68,0.0,0.0,340,4,,0.25,30.088583,,,TRUE,TRUE,,,,,,FG,OVC,200,,,,,,,LIFR,,,,,,,,,,,,SPECI,251.0
KFYG 171415Z AUTO 00000KT 1/2SM FG BKN008 01/01 A3005 RMK AO2,KFYG,2019-01-17T14:15:00Z,38.58,-91.0,1.0,1.0,0,0,,0.5,30.050198,,,TRUE,TRUE,,,,,,FG,BKN,800,,,,,,,LIFR,,,,,,,,,,,,SPECI,149.0
KEQA 171415Z AUTO 33008KT 5SM BR OVC004 01/00 A3011 RMK AO2,KEQA,2019-01-17T14:15:00Z,37.78,-96.82,1.0,0.0,330,8,,5.0,30.109253,,,TRUE,TRUE,,,,,,BR,OVC,400,,,,,,,LIFR,,,,,,,,,,,,SPECI,420.0
KAPS 171415Z AUTO 15008KT 5SM -DZ SCT019 OVC030 11/10 A3022 RMK AO2 T01100096,KAPS,2019-01-17T14:15:00Z,30.08,-90.58,11.0,9.6,150,8,,5.0,30.221457,,,TRUE,TRUE,,,,,,-DZ,SCT,1900,OVC,3000,,,,,MVFR,,,,,,,,,,,,SPECI,2.0
K21D 171415Z AUTO 00000KT 10SM M07/M09 A3009 RMK AO2,K21D,2019-01-17T14:15:00Z,45.0,-92.85,-7.0,-9.0,0,0,,10.0,30.088583,,,TRUE,TRUE,,,,,,,,,,,,,,,,,,,,,,,,,,,SPECI,285.0
KO54 171415Z AUTO 00000KT 6SM BKN022 OVC028 04/04 A2970 RMK AO1 P0001,KO54,2019-01-17T14:15:00Z,40.75,-122.92,4.0,4.0,0,0,,6.0,29.698818,,,TRUE,TRUE,,,,,,,BKN,2200,OVC,2800,,,,,MVFR,,,,,,0.01,,,,,,SPECI,717.0
KPVF 171415Z AUTO 15010G16KT 7SM SCT007 BKN019 OVC028 07/07 A2992 RMK AO1,KPVF,2019-01-17T14:15:00Z,38.72,-120.75,7.0,7.0,150,10,16,7.0,29.920275,,,TRUE,TRUE,,,,,,,SCT,700,BKN,1900,OVC,2800,,,MVFR,,,,,,,,,,,,SPECI,789.0
KRZN 171415Z AUTO 00000KT 10SM OVC025 M14/M17 A3008 RMK AO2 T11401167,KRZN,2019-01-17T14:15:00Z,45.82,-92.37,-14.0,-16.7,0,0,,10.0,30.079725,,,TRUE,TRUE,,,,,,,OVC,2500,,,,,,,MVFR,,,,,,,,,,,,SPECI,301.0
LHKE 171415Z 22006KT 9999 SCT044 SCT200 11/03 Q1011 NOSIG RMK BLU,LHKE,2019-01-17T14:15:00Z,46.92,19.75,11.0,3.0,220,6,,6.21,29.852362,,,,,,TRUE,,,,,SCT,4400,SCT,20000,,,,,VFR,,,,,,,,,,,,METAR,115.0
KY49 171415Z AUTO 00000KT 10SM CLR M23/M26 A3009 RMK AO2 T12331258,KY49,2019-01-17T14:15:00Z,47.13,-94.65,-23.3,-25.8,0,0,,10.0,30.088583,,,TRUE,TRUE,,,,,,,CLR,,,,,,,,VFR,,,,,,,,,,,,SPECI,416.0
KW78 171415Z AUTO 00000KT 10SM OVC026 00/M01 A3032 RMK AO1 T10011007,KW78,2019-01-17T14:15:00Z,36.68,-78.85,-0.1,-0.7,0,0,,10.0,30.318897,,,TRUE,TRUE,,,,,,,OVC,2600,,,,,,,MVFR,,,,,,,,,,,,SPECI,129.0
LHSN 171415Z 20008KT 9999 FEW045 11/03 Q1010 NOSIG RMK BLU,LHSN,2019-01-17T14:15:00Z,47.12,20.23,11.0,3.0,200,8,,6.21,29.822834,,,,,,TRUE,,,,,FEW,4500,,,,,,,VFR,,,,,,,,,,,,METAR,98.0
KTFP 171415Z AUTO 31007KT 3SM BR BKN004 OVC010 15/13 A3020 RMK AO2 T01460133 PNO,KTFP,2019-01-17T14:15:00Z,27.92,-97.22,14.6,13.3,310,7,,3.0,30.200787,,,TRUE,TRUE,,,,,,BR,BKN,400,OVC,1000,,,,,LIFR,,,,,,,,,,,,SPECI,6.0
K5A6 171415Z AUTO 19009KT 10SM BKN009 OVC021 09/09 A3014 RMK AO2 T00870087,K5A6,2019-01-17T14:15:00Z,33.47,-89.73,8.7,8.7,190,9,,10.0,30.138779,,,TRUE,TRUE,,,,,,,BKN,900,OVC,2100,,,,,IFR,,,,,,,,,,,,SPECI,111.0
K3J7 171415Z AUTO 00000KT 7SM CLR 03/02 A3022 RMK AO2,K3J7,2019-01-17T14:15:00Z,33.6,-83.13,3.0,2.0,0,0,,7.0,30.221457,,,TRUE,TRUE,,,,,,,CLR,,,,,,,,VFR,,,,,,,,,,,,SPECI,206.0
K3AU 171415Z AUTO 31004KT 5SM BR OVC005 00/00 A3013 RMK AO2,K3AU,2019-01-17T14:15:00Z,37.67,-97.08,0.0,0.0,310,4,,5.0,30.129921,,,TRUE,TRUE,,,,,,BR,OVC,500,,,,,,,IFR,,,,,,,,,,,,SPECI,405.0
K17J 171415Z AUTO 00000KT 10SM CLR 06/05 A3028 RMK AO2 T00640049,K17J,2019-01-17T14:15:00Z,31.07,-84.92,6.4,4.9,0,0,,10.0,30.280512,,,TRUE,TRUE,,,,,,,CLR,,,,,,,,VFR,,,,,,,,,,,,SPECI,45.0
K11R 171415Z AUTO 25007KT 10SM OVC007 15/14 A3016 RMK AO2 T01460143,K11R,2019-01-17T14:15:00Z,30.22,-96.37,14.6,14.3,250,7,,10.0,30.159449,,,TRUE,TRUE,,,,,,,OVC,700,,,,,,,IFR,,,,,,,,,,,,SPECI,94.0
K5M9 171415Z AUTO 20005KT 4SM DZ OVC005 06/06 A3004 RMK AO2 T00550055,K5M9,2019-01-17T14:15:00Z,37.33,-88.12,5.5,5.5,200,5,,4.0,30.041338,,,TRUE,TRUE,,,,,,DZ,OVC,500,,,,,,,IFR,,,,,,,,,,,,SPECI,199.0
KD73 171415Z AUTO 06003KT 10SM CLR 03/01 A3023 RMK AO2 T00310014,KD73,2019-01-17T14:15:00Z,33.78,-83.7,3.1,1.4,60,3,,10.0,30.230314,,,TRUE,TRUE,,,,,,,CLR,,,,,,,,VFR,,,,,,,,,,,,SPECI,267.0
KCWV 171415Z AUTO 00000KT 7SM CLR 06/05 A3029 RMK AO2 T00580045,KCWV,2019-01-17T14:15:00Z,32.2,-81.87,5.8,4.5,0,0,,7.0,30.28937,,,TRUE,TRUE,,,,,,,CLR,,,,,,,,VFR,,,,,,,,,,,,SPECI,33.0
KCCO 171415Z AUTO 14003KT 04/02 A3021 RMK AO2 T00400022 PWINO,KCCO,2019-01-17T14:15:00Z,33.32,-84.77,4.0,2.2,140,3,,,30.209646,,,TRUE,TRUE,,,,,TRUE,,,,,,,,,,,,,,,,,,,,,,SPECI,296.0
KBMC 171415Z AUTO 01004KT 10SM SCT042 SCT049 OVC070 05/M01 A2995 RMK AO1 T00461011,KBMC,2019-01-17T14:15:00Z,41.55,-112.07,4.6,-1.1,10,4,,10.0,29.949802,,,TRUE,TRUE,,,,,,,SCT,4200,SCT,4900,OVC,7000,,,VFR,,,,,,,,,,,,SPECI,1288.0
KACP 171415Z AUTO 00000KT 5SM BR BKN013 BKN019 OVC024 13/13 A3016 RMK AO2 T01330125,KACP,2019-01-17T14:15:00Z,30.75,-92.68,13.3,12.5,0,0,,5.0,30.159449,,,TRUE,TRUE,,,,,,BR,BKN,1300,BKN,1900,OVC,2400,,,MVFR,,,,,,,,,,,,SPECI,33.0
K8W2 171415Z AUTO 00000KT 7SM BKN040 M02/M03 A3028 RMK AO1 T10171029,K8W2,2019-01-17T14:15:00Z,38.65,-78.7,-1.7,-2.9,0,0,,7.0,30.280512,,,TRUE,TRUE,,,,,,,BKN,4000,,,,,,,VFR,,,,,,,,,,,,SPECI,297.0
KEAN 171415Z AUTO 27013G18KT 10SM CLR 04/M04 A2996 RMK AO2 T00411037,KEAN,2019-01-17T14:15:00Z,42.05,-104.93,4.1,-3.7,270,13,18,10.0,29.958662,,,TRUE,TRUE,,,,,,,CLR,,,,,,,,VFR,,,,,,,,,,,,METAR,1456.0
KDWX 171415Z AUTO 18011G14KT 10SM OVC034 01/M04 A3010 RMK AO2 T00101037,KDWX,2019-01-17T14:15:00Z,41.03,-107.5,1.0,-3.7,180,11,14,10.0,30.100393,,,TRUE,TRUE,,,,,,,OVC,3400,,,,,,,VFR,,,,,,,,,,,,SPECI,1996.0
KEHY 171415Z AUTO 24021KT 10SM SCT095 00/M06 A2995 RMK AO2 PWINO,KEHY,2019-01-17T14:15:00Z,41.73,-106.47,0.0,-6.0,240,21,,10.0,29.949802,,,TRUE,TRUE,,,,,TRUE,,SCT,9500,,,,,,,VFR,,,,,,,,,,,,SPECI,2225.0
KFRR 171415Z AUTO 09005KT 10SM OVC041 00/M02 A3030 RMK AO1,KFRR,2019-01-17T14:15:00Z,38.92,-78.25,0.0,-2.0,90,5,,10.0,30.301182,,,TRUE,TRUE,,,,,,,OVC,4100,,,,,,,VFR,,,,,,,,,,,,SPECI,216.0
KGGP 171415Z AUTO 11007KT 1SM -SN OVC004 M01/M01 A3008 RMK AO2 P0001,KGGP,2019-01-17T14:15:00Z,40.72,-86.37,-1.0,-1.0,110,7,,1.0,30.079725,,,TRUE,TRUE,,,,,,-SN,OVC,400,,,,,,,LIFR,,,,,,0.01,,,,,,SPECI,225.0
LIRP 171415Z 13004KT 9999 SCT020 SCT050 12/11 Q1013 NOSIG,LIRP,2019-01-17T14:15:00Z,43.67,10.37,12.0,11.0,130,4,,6.21,29.911417,,,,,,TRUE,,,,,SCT,2000,SCT,5000,,,,,VFR,,,,,,,,,,,,METAR,2.0
KGVT 171415Z AUTO 24006KT 10SM CLR 14/12 A3007 RMK AO2,KGVT,2019-01-17T14:15:00Z,33.07,-96.07,14.0,12.0,240,6,,10.0,30.070866,,,TRUE,TRUE,,,,,,,CLR,,,,,,,,VFR,,,,,,,,,,,,SPECI,163.0
KBIL 171414Z 04013KT 1SM R10L/P6000FT BR BKN002 OVC015 M08/M08 A2992 RMK AO2 SFC VIS 3 T10781083,KBIL,2019-01-17T14:14:00Z,45.8,-108.55,-7.8,-8.3,40,13,,1.0,29.920275,,,,TRUE,,,,,,BR,BKN,200,OVC,1500,,,,,LIFR,,,,,,,,,,,,SPECI,1091.0
KAFJ 171414Z AUTO 09004KT 10SM SCT012 OVC032 M02/M04 A3026 RMK AO2 FZRANO,KAFJ,2019-01-17T14:14:00Z,40.12,-80.27,-2.0,-4.0,90,4,,10.0,30.259842,,,TRUE,TRUE,,,,TRUE,,,SCT,1200,OVC,3200,,,,,VFR,,,,,,,,,,,,SPECI,361.0
SCTE 171414Z 17012KT 140V200 9999 BKN018 SCT200 15/10 Q1026 NOSIG,SCTE,2019-01-17T14:14:00Z,-41.42,-73.07,15.0,10.0,170,12,,6.21,30.295275,,,,,,TRUE,,,,,BKN,1800,SCT,20000,,,,,MVFR,,,,,,,,,,,,SPECI,86.0
MMTM 171414Z E01003KT 3SM BR SCT004 BKN012 OVC020 19/19 A3018 RMK 8/7// INTMNT DZ VRB COND,MMTM,2019-01-17T14:14:00Z,22.27,-97.87,19.0,19.0,10,3,,3.0,30.180119,,,,,,,,,,BR,SCT,400,BKN,1200,OVC,2000,,,MVFR,,,,,,,,,,,,SPECI,24.0
KOMA 171414Z 36003KT 7SM BKN029 OVC037 M03/M06 A3011 RMK AO2 T10331061,KOMA,2019-01-17T14:14:00Z,41.32,-95.9,-3.3,-6.1,360,3,,7.0,30.109253,,,,TRUE,,,,,,,BKN,2900,OVC,3700,,,,,MVFR,,,,,,,,,,,,SPECI,312.0
KMKL 171414Z 19006KT 4SM BR BKN006 OVC016 08/08 A3008 RMK AO2 RAE01 P0001 T00830078,KMKL,2019-01-17T14:14:00Z,35.6,-88.92,8.3,7.8,190,6,,4.0,30.079725,,,,TRUE,,,,,,BR,BKN,600,OVC,1600,,,,,IFR,,,,,,0.01,,,,,,SPECI,128.0
KIXD 171414Z 34007KT 3/4SM BR VV002 00/00 A3009 RMK AO2 T00000000,KIXD,2019-01-17T14:14:00Z,38.82,-94.88,0.0,0.0,340,7,,0.75,30.088583,,,,TRUE,,,,,,BR,OVX,0,,,,,,,LIFR,,,,,,,,,,,200,SPECI,342.0
KGRD 171414Z AUTO 01006KT 7SM SCT009 01/00 A3029 RMK AO2 T00060000,KGRD,2019-01-17T14:14:00Z,34.25,-82.15,0.6,0.0,10,6,,7.0,30.28937,,,TRUE,TRUE,,,,,,,SCT,900,,,,,,,VFR,,,,,,,,,,,,SPECI,185.0
KTUP 171414Z 19008KT 2SM -RA BR OVC003 08/07 A3013 RMK AO2 P0001 T00830072,KTUP,2019-01-17T14:14:00Z,34.27,-88.77,8.3,7.2,190,8,,2.0,30.129921,,,,TRUE,,,,,,-RA BR,OVC,300,,,,,,,LIFR,,,,,,0.01,,,,,,SPECI,105.0
KROA 171414Z 12003KT 10SM OVC014 01/M02 A3030 RMK AO2 T00061022,KROA,2019-01-17T14:14:00Z,37.32,-79.97,0.6,-2.2,120,3,,10.0,30.301182,,,,TRUE,,,,,,,OVC,1400,,,,,,,MVFR,,,,,,,,,,,,SPECI,362.0
MMTO 171413Z 28003KT 3SM HZ FEW015 BKN200 06/03 A3046 RMK 8/508 AC,MMTO,2019-01-17T14:13:00Z,19.35,-99.57,6.0,3.0,280,3,,3.0,30.46063,,,,,,,,,,HZ,FEW,1500,BKN,20000,,,,,MVFR,,,,,,,,,,,,METAR,2576.0
KOTH 171413Z AUTO 18016G25KT 10SM RA FEW022 BKN031 OVC060 10/08 A2948 RMK AO2 P0004,KOTH,2019-01-17T14:13:00Z,43.42,-124.25,10.0,8.0,180,16,25,10.0,29.480314,,,TRUE,TRUE,,,,,,RA,FEW,2200,BKN,3100,OVC,6000,,,VFR,,,,,,0.04,,,,,,SPECI,4.0
CYYU 171413Z 22006KT 10SM -SN FEW045 BKN054 OVC066 M24/M27 A3012 RMK SC2SC3AC3 SLP233,CYYU,2019-01-17T14:13:00Z,49.42,-82.47,-24.0,-27.0,220,6,,10.0,30.121063,1023.3,,,,,,,,,-SN,FEW,4500,BKN,5400,OVC,6600,,,VFR,,,,,,,,,,,,SPECI,227.0
KIPL 171413Z AUTO 14003KT 3SM BR BKN002 07/07 A3013 RMK AO2 T00670067 $,KIPL,2019-01-17T14:13:00Z,32.83,-115.58,6.7,6.7,140,3,,3.0,30.129921,,,TRUE,TRUE,TRUE,,,,,BR,BKN,200,,,,,,,LIFR,,,,,,,,,,,,SPECI,-17.0
KNQI 171413Z VRB04KT 4SM BR BKN004 OVC018 14/14 A3021 RMK AO2 T01440139 $,KNQI,2019-01-17T14:13:00Z,27.5,-97.82,14.4,13.9,0,4,,4.0,30.209646,,,,TRUE,TRUE,,,,,BR,BKN,400,OVC,1800,,,,,LIFR,,,,,,,,,,,,SPECI,15.0
PFYU 171413Z AUTO 00000KT 10SM FEW002 M36/ A3010 RMK AO2 FZRANO,PFYU,2019-01-17T14:13:00Z,66.57,-145.27,-36.0,,0,0,,10.0,30.100393,,,TRUE,TRUE,,,,TRUE,,,FEW,200,,,,,,,VFR,,,,,,,,,,,,SPECI,131.0
KT70 171413Z AUTO 30006KT 1 7/8SM BR OVC001 10/10 A3018 RMK AO2 SLP218 $,KT70,2019-01-17T14:13:00Z,29.12,-100.48,10.0,10.0,300,6,,1.88,30.180119,1021.8,,TRUE,TRUE,TRUE,,,,,BR,OVC,100,,,,,,,LIFR,,,,,,,,,,,,SPECI,298.0
KTGI 171412Z AUTO 00000KT 10SM CLR 04/M01 A3037 RMK AO1,KTGI,2019-01-17T14:12:00Z,37.82,-75.98,4.0,-1.0,0,0,,10.0,30.369095,,,TRUE,TRUE,,,,,,,CLR,,,,,,,,VFR,,,,,,,,,,,,SPECI,2.0
KDAY 171412Z 13010KT 2 1/2SM -SN BR FEW015 OVC026 01/M01 A3012 RMK AO2 P0000 T00061011,KDAY,2019-01-17T14:12:00Z,39.9,-84.22,0.6,-1.1,130,10,,2.5,30.121063,,,,TRUE,,,,,,-SN BR,FEW,1500,OVC,2600,,,,,IFR,,,,,,0.005,,,,,,SPECI,305.0
CYTL 171412Z AUTO 26007KT 9SM CLR M31/M34 A2995 RMK SLP177,CYTL,2019-01-17T14:12:00Z,53.82,-89.88,-31.0,-34.0,260,7,,9.0,29.949802,1017.7,,TRUE,,,,,,,,CLR,,,,,,,,VFR,,,,,,,,,,,,SPECI,224.0
K1M4 171412Z AUTO 19009KT 6SM -RA BR BKN008 OVC020 06/05 A3017 RMK AO2 RAB07 P0000,K1M4,2019-01-17T14:12:00Z,34.28,-87.6,6.0,5.0,190,9,,6.0,30.171259,,,TRUE,TRUE,,,,,,-RA BR,BKN,800,OVC,2000,,,,,IFR,,,,,,0.005,,,,,,SPECI,284.0
RCMQ 171412Z 01016G26KT 7000 FEW008 SCT016 BKN040 14/10 Q1021 NOSIG RMK A3015,RCMQ,2019-01-17T14:12:00Z,24.27,120.62,14.0,10.0,10,16,26,4.35,30.147638,,,,,,TRUE,,,,,FEW,800,SCT,1600,BKN,4000,,,MVFR,,,,,,,,,,,,METAR,5.0
OERR 171412Z 28024KT 0800 BLSA BKN040 12/08 Q1015 NOSIG,OERR,2019-01-17T14:12:00Z,30.88,41.12,12.0,8.0,280,24,,0.5,29.970472,,,,,,TRUE,,,,BLSA,BKN,4000,,,,,,,LIFR,,,,,,,,,,,,SPECI,552.0
MMLM 171411Z RTD 34006KT 10SM FEW100 SCT220 16/14 A3005 RMK 8/034 RTS,MMLM,2019-01-17T14:11:00Z,25.67,-109.07,16.0,14.0,340,6,,10.0,30.050198,,,,,,,,,,,FEW,10000,SCT,22000,,,,,VFR,,,,,,,,,,,,METAR,4.0
KTIK 171411Z AUTO 34012KT 10SM OVC007 04/04 A3012 RMK AO2 CIG 005V007 CIG 006 RWY13 CIG 006 RWY18 SLP212,KTIK,2019-01-17T14:11:00Z,35.42,-97.37,4.0,4.0,340,12,,10.0,30.121063,1021.2,,TRUE,TRUE,,,,,,,OVC,700,,,,,,,IFR,,,,,,,,,,,,SPECI,394.0
CYVV 171411Z 15009KT 12SM -SN SCT025 BKN040 M10/M14 A3025 RMK SC4SC3 SLP262,CYVV,2019-01-17T14:11:00Z,44.75,-81.08,-10.0,-14.0,150,9,,12.0,30.250984,1026.2,,,,,,,,,-SN,SCT,2500,BKN,4000,,,,,VFR,,,,,,,,,,,,SPECI,222.0
PASO 171411Z AUTO 00000KT 7SM FEW002 00/M01 A2967 RMK AO2 T00001011 TSNO,PASO,2019-01-17T14:11:00Z,59.45,-151.7,0.0,-1.1,0,0,,7.0,29.66929,,,TRUE,TRUE,,,TRUE,,,,FEW,200,,,,,,,VFR,,,,,,,,,,,,SPECI,9.0
KHRL 171411Z 01007KT 6SM BR SCT005 BKN014 OVC028 16/14 A3020 RMK AO2 T01560139,KHRL,2019-01-17T14:11:00Z,26.23,-97.65,15.6,13.9,10,7,,6.0,30.200787,,,,TRUE,,,,,,BR,SCT,500,BKN,1400,OVC,2800,,,MVFR,,,,,,,,,,,,SPECI,10.0
KYKM 171411Z 24004KT 3SM -SN BR BKN008 OVC016 01/00 A2963 RMK AO2 P0002 T00060000,KYKM,2019-01-17T14:11:00Z,46.57,-120.53,0.6,0.0,240,4,,3.0,29.630905,,,,TRUE,,,,,,-SN BR,BKN,800,OVC,1600,,,,,IFR,,,,,,0.02,,,,,,SPECI,324.0
KFTG 171411Z 23008KT 10SM FEW110 SCT200 01/M07 A3002,KFTG,2019-01-17T14:11:00Z,39.78,-104.55,1.0,-7.0,230,8,,10.0,30.02067,,,,,,,,,,,FEW,11000,SCT,20000,,,,,VFR,,,,,,,,,,,,SPECI,1675.0
KEND 171411Z 32011KT 10SM FEW008 OVC017 02/02 A3014 RMK AO2A SLP215 $,KEND,2019-01-17T14:11:00Z,36.32,-97.92,2.0,2.0,320,11,,10.0,30.138779,1021.5,,,TRUE,TRUE,,,,,,FEW,800,OVC,1700,,,,,MVFR,,,,,,,,,,,,SPECI,398.0
KCJR 171410Z AUTO 00000KT 10SM BKN036 OVC044 M01/M03 A3035 RMK AO2 T10101027,KCJR,2019-01-17T14:10:00Z,38.53,-77.87,-1.0,-2.7,0,0,,10.0,30.351377,,,TRUE,TRUE,,,,,,,BKN,3600,OVC,4400,,,,,VFR,,,,,,,,,,,,SPECI,97.0
KCPU 171410Z AUTO 15010KT 10SM BKN060 BKN070 10/09 A2993 RMK AO2 T01030086,KCPU,2019-01-17T14:10:00Z,38.15,-120.65,10.3,8.6,150,10,,10.0,29.929134,,,TRUE,TRUE,,,,,,,BKN,6000,BKN,7000,,,,,VFR,,,,,,,,,,,,METAR,404.0
SAAC 171410Z 14004KT 6000 TSRA FEW020 OVC040 FEW050CB 22/19 Q1014,SAAC,2019-01-17T14:10:00Z,-31.3,-58.02,22.0,19.0,140,4,,3.73,29.940945,,,,,,,,,,TSRA,FEW,2000,OVC,4000,FEW,5000,,,MVFR,,,,,,,,,,,,SPECI,38.0
KIYA 171410Z AUTO 15005KT 5SM +DZ BKN021 BKN036 OVC049 13/13 A3018 RMK AO2 T01300130,KIYA,2019-01-17T14:10:00Z,29.98,-92.08,13.0,13.0,150,5,,5.0,30.180119,,,TRUE,TRUE,,,,,,+DZ,BKN,2100,BKN,3600,OVC,4900,,,MVFR,,,,,,,,,,,,SPECI,5.0
KI16 171410Z AUTO 10SM SCT025 SCT110 01/M02 A3023 RMK AO2 T00061020,KI16,2019-01-17T14:10:00Z,37.6,-81.57,0.6,-2.0,,,,10.0,30.230314,,,TRUE,TRUE,,,,,,,SCT,2500,SCT,11000,,,,,VFR,,,,,,,,,,,,SPECI,544.0
KVES 171410Z AUTO 14010KT 4SM -SN BKN007 BKN011 M01/M01 A3010 RMK AO2,KVES,2019-01-17T14:10:00Z,40.2,-84.53,-1.0,-1.0,140,10,,4.0,30.100393,,,TRUE,TRUE,,,,,,-SN,BKN,700,BKN,1100,,,,,IFR,,,,,,,,,,,,SPECI,307.0
KVBW 171410Z AUTO 00000KT 10SM SCT025 OVC033 M02/M04 A3028 RMK AO1 T10211036,KVBW,2019-01-17T14:10:00Z,38.37,-78.97,-2.1,-3.6,0,0,,10.0,30.280512,,,TRUE,TRUE,,,,,,,SCT,2500,OVC,3300,,,,,VFR,,,,,,,,,,,,SPECI,355.0
KTCM 171410Z AUTO 00000KT 10SM SCT070 BKN090 BKN110 04/04 A2944 RMK AO2 RAE10 SLP974 $,KTCM,2019-01-17T14:10:00Z,47.12,-122.47,4.0,4.0,0,0,,10.0,29.438976,997.4,,TRUE,TRUE,TRUE,,,,,,SCT,7000,BKN,9000,BKN,11000,,,VFR,,,,,,,,,,,,SPECI,98.0
KCRQ 171410Z AUTO 15004KT 10SM SCT014 BKN040 BKN048 15/13 A3015 RMK AO2 T01500128,KCRQ,2019-01-17T14:10:00Z,33.13,-117.28,15.0,12.8,150,4,,10.0,30.15059,,,TRUE,TRUE,,,,,,,SCT,1400,BKN,4000,BKN,4800,,,VFR,,,,,,,,,,,,SPECI,99.0
KFSD 171410Z 01004KT 10SM SCT009 OVC025 M06/M08 A3009 RMK AO2 T10611083,KFSD,2019-01-17T14:10:00Z,43.58,-96.75,-6.1,-8.3,10,4,,10.0,30.088583,,,,TRUE,,,,,,,SCT,900,OVC,2500,,,,,MVFR,,,,,,,,,,,,SPECI,436.0
KGEG 171410Z 05010KT 5SM -FZRA BR SCT013 OVC026 M01/M02 A2962 RMK AO2 P0001 I1001 T10111022,KGEG,2019-01-17T14:10:00Z,47.62,-117.53,-1.1,-2.2,50,10,,5.0,29.619095,,,,TRUE,,,,,,-FZRA BR,SCT,1300,OVC,2600,,,,,MVFR,,,,,,0.01,,,,,,SPECI,735.0
KHLC 171410Z AUTO 28004KT 1/4SM FZFG VV002 M01/M01 A3008 RMK AO2 T10111011,KHLC,2019-01-17T14:10:00Z,39.37,-99.83,-1.1,-1.1,280,4,,0.25,30.079725,,,TRUE,TRUE,,,,,,FZFG,OVX,0,,,,,,,LIFR,,,,,,,,,,,200,SPECI,669.0
KIOW 171410Z AUTO 04003KT 1SM BR OVC002 M01/M02 A3010 RMK AO2 T10111022,KIOW,2019-01-17T14:10:00Z,41.63,-91.55,-1.1,-2.2,40,3,,1.0,30.100393,,,TRUE,TRUE,,,,,,BR,OVC,200,,,,,,,LIFR,,,,,,,,,,,,SPECI,198.0
KHTL 171410Z AUTO 05005KT 10SM BKN024 M13/M16 A3017 RMK AO2 T11331161,KHTL,2019-01-17T14:10:00Z,44.35,-84.67,-13.3,-16.1,50,5,,10.0,30.171259,,,TRUE,TRUE,,,,,,,BKN,2400,,,,,,,MVFR,,,,,,,,,,,,SPECI,351.0
KLHQ 171410Z AUTO 14009KT 10SM OVC029 00/M03 A3017 RMK AO2 T00001028,KLHQ,2019-01-17T14:10:00Z,39.75,-82.67,0.0,-2.8,140,9,,10.0,30.171259,,,TRUE,TRUE,,,,,,,OVC,2900,,,,,,,MVFR,,,,,,,,,,,,SPECI,260.0
KLIT 171410Z 19007KT 1 1/2SM BR OVC005 11/10 A3005 RMK AO2 T01060100,KLIT,2019-01-17T14:10:00Z,34.73,-92.23,10.6,10.0,190,7,,1.5,30.050198,,,,TRUE,,,,,,BR,OVC,500,,,,,,,IFR,,,,,,,,,,,,SPECI,79.0
KONT 171410Z 16003KT 4SM -RA BR SCT006 OVC020 14/13 A3010 RMK AO2 CIG 018V023 P0000 T01390128 $,KONT,2019-01-17T14:10:00Z,34.05,-117.58,13.9,12.8,160,3,,4.0,30.100393,,,,TRUE,TRUE,,,,,-RA BR,SCT,600,OVC,2000,,,,,MVFR,,,,,,0.005,,,,,,SPECI,274.0
KNOW 171410Z AUTO 31003KT 10SM SCT075 07/05 A2942 RMK AO2 T00660046,KNOW,2019-01-17T14:10:00Z,48.13,-123.4,6.6,4.6,310,3,,10.0,29.421259,,,TRUE,TRUE,,,,,,,SCT,7500,,,,,,,VFR,,,,,,,,,,,,SPECI,4.0
KRQO 171410Z AUTO 31011KT 7SM OVC010 03/02 A3016 RMK AO2 T00320023,KRQO,2019-01-17T14:10:00Z,35.47,-98.0,3.2,2.3,310,11,,7.0,30.159449,,,TRUE,TRUE,,,,,,,OVC,1000,,,,,,,MVFR,,,,,,,,,,,,SPECI,432.0
KPSK 171410Z AUTO 11005KT 10SM BKN015 OVC028 00/M01 A3023 RMK AO2 T00001015,KPSK,2019-01-17T14:10:00Z,37.12,-80.67,0.0,-1.5,110,5,,10.0,30.230314,,,TRUE,TRUE,,,,,,,BKN,1500,OVC,2800,,,,,MVFR,,,,,,,,,,,,SPECI,642.0
KSEF 171410Z AUTO 02005KT 10SM SCT029 13/09 A3024 RMK AO2 T01300092,KSEF,2019-01-17T14:10:00Z,27.45,-81.35,13.0,9.2,20,5,,10.0,30.239174,,,TRUE,TRUE,,,,,,,SCT,2900,,,,,,,VFR,,,,,,,,,,,,SPECI,19.0
KSLG 171410Z AUTO 36009KT 2 1/2SM BR OVC003 08/07 A3004 RMK AO2,KSLG,2019-01-17T14:10:00Z,36.2,-94.47,8.0,7.0,360,9,,2.5,30.041338,,,TRUE,TRUE,,,,,,BR,OVC,300,,,,,,,LIFR,,,,,,,,,,,,SPECI,300.0
VCRI 171410Z 05010KT 9999 SCT080 27/23 Q1011 NOSIG,VCRI,2019-01-17T14:10:00Z,6.28,81.13,27.0,23.0,50,10,,6.21,29.852362,,,,,,TRUE,,,,,SCT,8000,,,,,,,VFR,,,,,,,,,,,,METAR,7.0
VCBI 171410Z 02009KT 9000 NSC 27/19 Q1011 NOSIG,VCBI,2019-01-17T14:10:00Z,7.17,79.87,27.0,19.0,20,9,,5.59,29.852362,,,,,,TRUE,,,,,CLR,,,,,,,,VFR,,,,,,,,,,,,METAR,8.0
KW22 171410Z AUTO 00000KT 10SM OVC023 M01/M02 A3020 RMK AO2,KW22,2019-01-17T14:10:00Z,39.0,-80.27,-1.0,-2.0,0,0,,10.0,30.200787,,,TRUE,TRUE,,,,,,,OVC,2300,,,,,,,MVFR,,,,,,,,,,,,SPECI,499.0
KNGP 171410Z 31006KT 2 1/2SM BR BKN003 BKN008 OVC016 16/14 A3020 RMK AO2 T01560144,KNGP,2019-01-17T14:10:00Z,27.68,-97.27,15.6,14.4,310,6,,2.5,30.200787,,,,TRUE,,,,,,BR,BKN,300,BKN,800,OVC,1600,,,LIFR,,,,,,,,,,,,SPECI,6.0
KBWP 171410Z AUTO 31003KT 10SM OVC090 M15/M18 A3016 RMK AO1,KBWP,2019-01-17T14:10:00Z,46.25,-96.62,-15.0,-18.0,310,3,,10.0,30.159449,,,TRUE,TRUE,,,,,,,OVC,9000,,,,,,,VFR,,,,,,,,,,,,SPECI,295.0
KAQO 171410Z AUTO 24003KT 10SM CLR 09/08 A3020 RMK AO2,KAQO,2019-01-17T14:10:00Z,30.78,-98.67,9.0,8.0,240,3,,10.0,30.200787,,,TRUE,TRUE,,,,,,,CLR,,,,,,,,VFR,,,,,,,,,,,,SPECI,336.0
KACJ 171410Z AUTO 00000KT 10SM CLR 07/03 A3027 RMK AO2,KACJ,2019-01-17T14:10:00Z,32.12,-84.18,7.0,3.0,0,0,,10.0,30.268702,,,TRUE,TRUE,,,,,,,CLR,,,,,,,,VFR,,,,,,,,,,,,SPECI,143.0
KGVE 171410Z AUTO 00000KT 10SM OVC043 M02/M02 A3033 RMK AO1 T10161018,KGVE,2019-01-17T14:10:00Z,38.15,-78.17,-1.6,-1.8,0,0,,10.0,30.33071,,,TRUE,TRUE,,,,,,,OVC,4300,,,,,,,VFR,,,,,,,,,,,,SPECI,138.0
KHBV 171410Z AUTO 00000KT 4SM BR 12/12 A3021 RMK AO2 T01210117,KHBV,2019-01-17T14:10:00Z,27.35,-98.73,12.1,11.7,0,0,,4.0,30.209646,,,TRUE,TRUE,,,,,,BR,,,,,,,,,,,,,,,,,,,,,SPECI,202.0
PFEL 171409Z AUTO 34005KT 9SM -SN BKN024 BKN029 OVC034 M04/M09 A2974 RMK AO2 P0000 FZRANO,PFEL,2019-01-17T14:09:00Z,64.62,-162.27,-4.0,-9.0,340,5,,9.0,29.740158,,,TRUE,TRUE,,,,TRUE,,-SN,BKN,2400,BKN,2900,OVC,3400,,,MVFR,,,,,,0.005,,,,,,SPECI,49.0
KAMW 171409Z AUTO 00000KT 2 1/2SM BR OVC006 M03/M04 A3010 RMK AO2 CIG 005V010 T10331044,KAMW,2019-01-17T14:09:00Z,41.98,-93.62,-3.3,-4.4,0,0,,2.5,30.100393,,,TRUE,TRUE,,,,,,BR,OVC,600,,,,,,,IFR,,,,,,,,,,,,SPECI,279.0
KBEH 171409Z AUTO 10009KT 10SM OVC033 M02/M06 A3011 RMK AO2 T10221061,KBEH,2019-01-17T14:09:00Z,42.13,-86.42,-2.2,-6.1,100,9,,10.0,30.109253,,,TRUE,TRUE,,,,,,,OVC,3300,,,,,,,VFR,,,,,,,,,,,,SPECI,191.0
KEQY 171409Z AUTO 06004KT 10SM CLR 02/M02 A3027 RMK AO2 T00171022,KEQY,2019-01-17T14:09:00Z,35.02,-80.62,1.7,-2.2,60,4,,10.0,30.268702,,,TRUE,TRUE,,,,,,,CLR,,,,,,,,VFR,,,,,,,,,,,,SPECI,212.0
KRST 171409Z 22003KT 4SM -SN BR BKN008 OVC049 M06/M06 A3005 RMK AO2 P0000 T10561061,KRST,2019-01-17T14:09:00Z,43.9,-92.5,-5.6,-6.1,220,3,,4.0,30.050198,,,,TRUE,,,,,,-SN BR,BKN,800,OVC,4900,,,,,IFR,,,,,,0.005,,,,,,SPECI,403.0
KADG 171408Z AUTO 13007KT 10SM OVC029 M04/M06 A3017 RMK AO2 T10391061 TSNO,KADG,2019-01-17T14:08:00Z,41.87,-84.08,-3.9,-6.1,130,7,,10.0,30.171259,,,TRUE,TRUE,,,TRUE,,,,OVC,2900,,,,,,,MVFR,,,,,,,,,,,,SPECI,241.0
CWND M01/M01 RMK SOG 16 1034 T10071010,CWND,2019-01-17T14:08:00Z,69.63,-135.43,-0.7,-1.0,,,,,,,,,,,,,,,,,,,,,,,,,,,,,,,,,,,,METAR,12.0
KFFT 171407Z AUTO 14003KT 6SM BR OVC028 03/02 A3011 RMK AO2 T00330017,KFFT,2019-01-17T14:07:00Z,38.18,-84.9,3.3,1.7,140,3,,6.0,30.109253,,,TRUE,TRUE,,,,,,BR,OVC,2800,,,,,,,MVFR,,,,,,,,,,,,SPECI,236.0
KFAT 171407Z 16012KT 10SM -RA BKN009 OVC021 14/12 A2999 RMK AO2 P0000 T01390122,KFAT,2019-01-17T14:07:00Z,36.78,-119.72,13.9,12.2,160,12,,10.0,29.991142,,,,TRUE,,,,,,-RA,BKN,900,OVC,2100,,,,,IFR,,,,,,0.005,,,,,,SPECI,104.0
KCID 171407Z 10005KT 1/4SM R09/2000V2200FT FZFG VV002 M03/M03 A3007 RMK AO2 T10281028,KCID,2019-01-17T14:07:00Z,41.88,-91.72,-2.8,-2.8,100,5,,0.25,30.070866,,,,TRUE,,,,,,FZFG,OVX,0,,,,,,,LIFR,,,,,,,,,,,200,SPECI,264.0
KAKR 171407Z AUTO 00000KT 10SM SCT009 OVC029 M04/M08 A3022 RMK AO2 T10441078,KAKR,2019-01-17T14:07:00Z,41.03,-81.47,-4.4,-7.8,0,0,,10.0,30.221457,,,TRUE,TRUE,,,,,,,SCT,900,OVC,2900,,,,,MVFR,,,,,,,,,,,,SPECI,363.0
KDLF 171407Z 31003KT 1 3/8SM BR OVC002 10/10 A3023 RMK AO2A TWR VIS 1/2 SLP236,KDLF,2019-01-17T14:07:00Z,29.37,-100.77,10.0,10.0,310,3,,1.38,30.230314,1023.6,,,TRUE,,,,,,BR,OVC,200,,,,,,,LIFR,,,,,,,,,,,,SPECI,330.0
PACV 171407Z 00000KT 1/4SM R27/2000V5500FT FZFG VV003 M02/M03 A2966 RMK AO2 T10221028,PACV,2019-01-17T14:07:00Z,60.5,-145.47,-2.2,-2.8,0,0,,0.25,29.660433,,,,TRUE,,,,,,FZFG,OVX,0,,,,,,,LIFR,,,,,,,,,,,300,SPECI,12.0
KOTG 171407Z AUTO 30003KT 10SM OVC028 M07/M09 A3008 RMK AO2 FZRANO,KOTG,2019-01-17T14:07:00Z,43.63,-95.57,-7.0,-9.0,300,3,,10.0,30.079725,,,TRUE,TRUE,,,,TRUE,,,OVC,2800,,,,,,,MVFR,,,,,,,,,,,,SPECI,480.0
FAMM 171406Z 30004KT 9999 SCT035CB 28/19 Q1013 NOSIG,FAMM,2019-01-17T14:06:00Z,-25.8,25.52,28.0,19.0,300,4,,6.21,29.911417,,,,,,TRUE,,,,,SCT,3500,,,,,,,VFR,,,,,,,,,,,,SPECI,1277.0
YPKG 171406Z AUTO 15017G30KT 9999 // NCD ///// Q1011 RF00.0/000.0,YPKG,2019-01-17T14:06:00Z,-30.77,121.45,,,150,17,30,6.21,29.852362,,,TRUE,,,,,,,,CLR,,,,,,,,VFR,,,,,,,,,,,,SPECI,360.0
CYZH 171406Z AUTO 10007KT 9SM -SN CLR M25/M27 A3030 RMK SLP324,CYZH,2019-01-17T14:06:00Z,55.28,-114.77,-25.0,-27.0,100,7,,9.0,30.301182,1032.4,,TRUE,,,,,,,-SN,CLR,,,,,,,,VFR,,,,,,,,,,,,SPECI,581.0
KLPC 171406Z AUTO 00000KT 9SM -RA SCT008 OVC038 14/13 A3006 RMK AO2 P0000,KLPC,2019-01-17T14:06:00Z,34.67,-120.47,14.0,13.0,0,0,,9.0,30.059055,,,TRUE,TRUE,,,,,,-RA,SCT,800,OVC,3800,,,,,VFR,,,,,,0.005,,,,,,SPECI,27.0
PAHX 171406Z AUTO 04013KT 10SM OVC029 M11/M13 A2978 RMK AO2 FZRANO,PAHX,2019-01-17T14:06:00Z,62.7,-159.57,-11.0,-13.0,40,13,,10.0,29.778543,,,TRUE,TRUE,,,,TRUE,,,OVC,2900,,,,,,,MVFR,,,,,,,,,,,,SPECI,24.0
KSGH 171406Z AUTO 12009KT 7SM -SN SCT021 OVC034 M01/M01 A3013 RMK AO2 P0000,KSGH,2019-01-17T14:06:00Z,39.83,-83.83,-1.0,-1.0,120,9,,7.0,30.129921,,,TRUE,TRUE,,,,,,-SN,SCT,2100,OVC,3400,,,,,VFR,,,,,,0.005,,,,,,SPECI,321.0
KDEW 171406Z AUTO 04010KT 10SM OVC028 01/M03 A2965 RMK AO2 T00111033,KDEW,2019-01-17T14:06:00Z,47.97,-117.43,1.1,-3.3,40,10,,10.0,29.648623,,,TRUE,TRUE,,,,,,,OVC,2800,,,,,,,MVFR,,,,,,,,,,,,SPECI,674.0
MMNL 171405Z RTD 00000KT 1/2SM FG VV002 12/12 A3022 RMK 8//// RTS,MMNL,2019-01-17T14:05:00Z,27.42,-99.57,12.0,12.0,0,0,,0.5,30.221457,,,,,,,,,,FG,OVX,0,,,,,,,LIFR,,,,,,,,,,,200,SPECI,148.0
KCIU 171405Z AUTO 17005KT 10SM SCT028 BKN100 M12/M15 A3019 RMK AO2 FZRANO,KCIU,2019-01-17T14:05:00Z,46.25,-84.47,-12.0,-15.0,170,5,,10.0,30.188976,,,TRUE,TRUE,,,,TRUE,,,SCT,2800,BKN,10000,,,,,VFR,,,,,,,,,,,,SPECI,244.0
LIRU 171405Z 17006KT 9999 7000W -RA SCT020 SCT030 12/09 Q1016,LIRU,2019-01-17T14:05:00Z,41.95,12.5,12.0,9.0,170,6,,6.21,30.0,,,,,,,,,,-RA,SCT,2000,SCT,3000,,,,,VFR,,,,,,,,,,,,SPECI,24.0
ETAR 171405Z 24017G26KT 9000 -RA BKN025 OVC038 06/06 A2967 RMK AO2A RAB05 SLPNO $,ETAR,2019-01-17T14:05:00Z,49.42,7.58,6.0,6.0,240,17,26,5.59,29.66929,,,,TRUE,TRUE,,,,,-RA,BKN,2500,OVC,3800,,,,,MVFR,,,,,,,,,,,,METAR,238.0
CWWU 171405Z 16012G21KT 15SM -RASN BKN013 BKN060 OVC080 02/M00 A2983 RMK SC5SC2AC1 VIS LWR S-SW SLP104,CWWU,2019-01-17T14:05:00Z,47.52,-52.98,2.0,0.0,160,12,21,15.0,29.828741,1010.4,,,,,,,,,-RA -SN,BKN,1300,BKN,6000,OVC,8000,,,MVFR,,,,,,,,,,,,SPECI,13.0
KMFD 171405Z 12008KT 8SM OVC031 M03/M05 A3016 RMK AO2 T10331050,KMFD,2019-01-17T14:05:00Z,40.82,-82.52,-3.3,-5.0,120,8,,8.0,30.159449,,,,TRUE,,,,,,,OVC,3100,,,,,,,VFR,,,,,,,,,,,,METAR,395.0
KHOT 171405Z AUTO 00000KT 2 1/2SM BR OVC006 12/12 A3004 RMK AO2 T01170117,KHOT,2019-01-17T14:05:00Z,34.48,-93.1,11.7,11.7,0,0,,2.5,30.041338,,,TRUE,TRUE,,,,,,BR,OVC,600,,,,,,,IFR,,,,,,,,,,,,SPECI,162.0
KVEL 171405Z AUTO 00000KT 6SM BR BKN002 OVC013 M07/M09 A3013 RMK AO2 T10721094,KVEL,2019-01-17T14:05:00Z,40.45,-109.52,-7.2,-9.4,0,0,,6.0,30.129921,,,TRUE,TRUE,,,,,,BR,BKN,200,OVC,1300,,,,,LIFR,,,,,,,,,,,,SPECI,1604.0
KSMO 171405Z AUTO 18011G20KT 4SM -RA BR OVC003 17/15 A3008 RMK AO2 P0000 T01720150,KSMO,2019-01-17T14:05:00Z,34.02,-118.45,17.2,15.0,180,11,20,4.0,30.079725,,,TRUE,TRUE,,,,,,-RA BR,OVC,300,,,,,,,LIFR,,,,,,0.005,,,,,,SPECI,57.0
KSIY 171405Z AUTO 22011G20KT 4SM RA OVC026 06/02 A2965 RMK AO2 P0003 T00560022,KSIY,2019-01-17T14:05:00Z,41.77,-122.47,5.6,2.2,220,11,20,4.0,29.648623,,,TRUE,TRUE,,,,,,RA,OVC,2600,,,,,,,MVFR,,,,,,0.03,,,,,,SPECI,807.0
KSAT 171405Z 25007KT 4SM -DZ BR OVC004 12/11 A3019 RMK AO2 P0000 T01170106,KSAT,2019-01-17T14:05:00Z,29.53,-98.47,11.7,10.6,250,7,,4.0,30.188976,,,,TRUE,,,,,,-DZ BR,OVC,400,,,,,,,LIFR,,,,,,0.005,,,,,,METAR,243.0
KJEF 171404Z 00000KT 1/4SM FG VV003 01/01 A3006 RMK AO2 T00110006,KJEF,2019-01-17T14:04:00Z,38.6,-92.15,1.1,0.6,0,0,,0.25,30.059055,,,,TRUE,,,,,,FG,OVX,0,,,,,,,LIFR,,,,,,,,,,,300,SPECI,168.0
KJER 171404Z AUTO 03009KT 10SM -RA OVC030 02/01 A2983 RMK AO2 P0000 T00220011,KJER,2019-01-17T14:04:00Z,42.72,-114.45,2.2,1.1,30,9,,10.0,29.828741,,,TRUE,TRUE,,,,,,-RA,OVC,3000,,,,,,,MVFR,,,,,,0.005,,,,,,SPECI,1222.0
KLCH 171404Z 18003KT 6SM BR FEW021 BKN027 BKN034 16/16 A3016 RMK AO2 T01610161,KLCH,2019-01-17T14:04:00Z,30.13,-93.22,16.1,16.1,180,3,,6.0,30.159449,,,,TRUE,,,,,,BR,FEW,2100,BKN,2700,BKN,3400,,,MVFR,,,,,,,,,,,,SPECI,4.0
KRNM 171404Z AUTO 13004KT 7SM SCT004 OVC011 12/11 A3017 RMK AO2 T01170111,KRNM,2019-01-17T14:04:00Z,33.03,-116.92,11.7,11.1,130,4,,7.0,30.171259,,,TRUE,TRUE,,,,,,,SCT,400,OVC,1100,,,,,MVFR,,,,,,,,,,,,METAR,427.0
KATT 171404Z AUTO VRB03KT 8SM BKN004 12/11 A3017 RMK AO2 CIG 002V007 T01170111,KATT,2019-01-17T14:04:00Z,30.32,-97.77,11.7,11.1,0,3,,8.0,30.171259,,,TRUE,TRUE,,,,,,,BKN,400,,,,,,,LIFR,,,,,,,,,,,,METAR,201.0
KNJK 171404Z COR 00000KT 1 1/2SM BR FEW250 07/07 A3015 RMK AO2 T00720067 $,KNJK,2019-01-17T14:04:00Z,32.82,-115.67,7.2,6.7,0,0,,1.5,30.15059,,TRUE,,TRUE,TRUE,,,,,BR,FEW,25000,,,,,,,IFR,,,,,,,,,,,,SPECI,-13.0
KDVN 171404Z AUTO 07007KT 3SM BR OVC005 M02/M04 A3010 RMK AO2 T10221039,KDVN,2019-01-17T14:04:00Z,41.62,-90.58,-2.2,-3.9,70,7,,3.0,30.100393,,,TRUE,TRUE,,,,,,BR,OVC,500,,,,,,,IFR,,,,,,,,,,,,SPECI,230.0
KEFD 171403Z 22008KT 2SM BR OVC004 17/17 A3017,KEFD,2019-01-17T14:03:00Z,29.6,-95.17,17.0,17.0,220,8,,2.0,30.171259,,,,,,,,,,BR,OVC,400,,,,,,,LIFR,,,,,,,,,,,,SPECI,10.0
KUIN 171403Z AUTO 04004KT 1/4SM FG VV003 00/M01 A3004 RMK AO2 I1001 T00001006,KUIN,2019-01-17T14:03:00Z,39.95,-91.2,0.0,-0.6,40,4,,0.25,30.041338,,,TRUE,TRUE,,,,,,FG,OVX,0,,,,,,,LIFR,,,,,,,,,,,300,METAR,234.0
KTXK 171403Z 20005KT 3SM BR SCT003 OVC034 13/13 A3005 RMK AO2 T01280128,KTXK,2019-01-17T14:03:00Z,33.45,-93.98,12.8,12.8,200,5,,3.0,30.050198,,,,TRUE,,,,,,BR,SCT,300,OVC,3400,,,,,MVFR,,,,,,,,,,,,METAR,111.0
KRFD 171403Z 04005KT 6SM -SN BKN013 OVC026 M02/M06 A3010 RMK AO2 P0000 T10221056,KRFD,2019-01-17T14:03:00Z,42.2,-89.1,-2.2,-5.6,40,5,,6.0,30.100393,,,,TRUE,,,,,,-SN,BKN,1300,OVC,2600,,,,,MVFR,,,,,,0.005,,,,,,SPECI,221.0
KOSH 171403Z 12005KT 10SM OVC029 M04/M08 A3011 RMK AO2 T10441078,KOSH,2019-01-17T14:03:00Z,43.97,-88.55,-4.4,-7.8,120,5,,10.0,30.109253,,,,TRUE,,,,,,,OVC,2900,,,,,,,MVFR,,,,,,,,,,,,METAR,248.0
KMEM 171403Z 21009KT 1 1/2SM -RA BR OVC006 09/09 A3008 RMK AO2 SFC VIS 4 P0000 T00940089,KMEM,2019-01-17T14:03:00Z,35.07,-89.98,9.4,8.9,210,9,,1.5,30.079725,,,,TRUE,,,,,,-RA BR,OVC,600,,,,,,,IFR,,,,,,0.005,,,,,,METAR,86.0
KCKV 171403Z AUTO 16005KT 3SM -RA BR BKN005 OVC010 06/04 A3008 RMK AO2 CIG 004V008 P0001 T00560039,KCKV,2019-01-17T14:03:00Z,36.62,-87.42,5.6,3.9,160,5,,3.0,30.079725,,,TRUE,TRUE,,,,,,-RA BR,BKN,500,OVC,1000,,,,,IFR,,,,,,0.01,,,,,,METAR,165.0
PAOM 171403Z AUTO 09007KT 9SM BKN021 BKN030 OVC039 M07/M10 A2969 RMK AO2 SNE1357 P0000 T10671100 TSNO,PAOM,2019-01-17T14:03:00Z,64.5,-165.43,-6.7,-10.0,90,7,,9.0,29.68996,,,TRUE,TRUE,,,TRUE,,,,BKN,2100,BKN,3000,OVC,3900,,,MVFR,,,,,,0.005,,,,,,SPECI,11.0
RJOP 171403Z 31015G25KT 9999 FEW030 BKN080 08/M03 Q1019 RMK 1CU030 5AC080 A3009,RJOP,2019-01-17T14:03:00Z,34.0,134.62,8.0,-3.0,310,15,25,6.21,30.088583,,,,,,,,,,,FEW,3000,BKN,8000,,,,,VFR,,,,,,,,,,,,METAR,6.0
PADM 171402Z AUTO 08017KT 10SM BKN065 M05/M08 A2970 RMK AO2 SLP065 T10501078 FZRANO,PADM,2019-01-17T14:02:00Z,61.87,-162.03,-5.0,-7.8,80,17,,10.0,29.698818,1006.5,,TRUE,TRUE,,,,TRUE,,,BKN,6500,,,,,,,VFR,,,,,,,,,,,,METAR,31.0
PAMO 171402Z AUTO 11006KT 10SM OVC019 M08/M09 A2968 RMK AO2 SNE1318 SLP060 T10781094 FZRANO,PAMO,2019-01-17T14:02:00Z,62.1,-163.68,-7.8,-9.4,110,6,,10.0,29.681103,1006.0,,TRUE,TRUE,,,,TRUE,,,OVC,1900,,,,,,,MVFR,,,,,,,,,,,,METAR,103.0
PAMD 171402Z AUTO 06006KT 1/4SM FG VV001 03/03 A2966 RMK AO2,PAMD,2019-01-17T14:02:00Z,59.43,-146.3,3.0,3.0,60,6,,0.25,29.660433,,,TRUE,TRUE,,,,,,FG,OVX,0,,,,,,,LIFR,,,,,,,,,,,100,METAR,14.0
KCNU 171402Z AUTO 33008KT 3SM BR OVC002 02/02 A3011 RMK AO2 T00170017,KCNU,2019-01-17T14:02:00Z,37.67,-95.48,1.7,1.7,330,8,,3.0,30.109253,,,TRUE,TRUE,,,,,,BR,OVC,200,,,,,,,LIFR,,,,,,,,,,,,SPECI,297.0
KHBR 171402Z AUTO 36014KT 8SM OVC009 03/02 A3017 RMK AO2 T00330017,KHBR,2019-01-17T14:02:00Z,34.98,-99.05,3.3,1.7,360,14,,8.0,30.171259,,,TRUE,TRUE,,,,,,,OVC,900,,,,,,,IFR,,,,,,,,,,,,METAR,473.0
KHKA 171402Z AUTO 22008KT 5SM -RA BR OVC006 08/08 A3005 RMK AO2 CIG 005V012 P0001 T00830083 $,KHKA,2019-01-17T14:02:00Z,35.93,-89.83,8.3,8.3,220,8,,5.0,30.050198,,,TRUE,TRUE,TRUE,,,,,-RA BR,OVC,600,,,,,,,IFR,,,,,,0.01,,,,,,METAR,78.0
PASY 171402Z 17030G35KT 5SM -SN FEW008 OVC014 01/00 A2974 RMK AO2A SNB02 SLP075 FZRANO $,PASY,2019-01-17T14:02:00Z,52.72,174.12,1.0,0.0,170,30,35,5.0,29.740158,1007.5,,,TRUE,TRUE,,,TRUE,,-SN,FEW,800,OVC,1400,,,,,MVFR,,,,,,,,,,,,SPECI,31.0
PAFS 171401Z AUTO 10003KT 10SM CLR M15/M18 A2982 RMK AO2 SLP119 T11501178 FZRANO,PAFS,2019-01-17T14:01:00Z,63.02,-154.35,-15.0,-17.8,100,3,,10.0,29.819881,1011.9,,TRUE,TRUE,,,,TRUE,,,CLR,,,,,,,,VFR,,,,,,,,,,,,METAR,126.0
KGSH 171401Z AUTO 11007KT 2 1/2SM BR OVC007 M03/M04 A3010 RMK AO2 T10281039 $,KGSH,2019-01-17T14:01:00Z,41.53,-85.78,-2.8,-3.9,110,7,,2.5,30.100393,,,TRUE,TRUE,TRUE,,,,,BR,OVC,700,,,,,,,IFR,,,,,,,,,,,,METAR,252.0
KMLC 171401Z AUTO 33013KT 10SM BKN009 OVC015 11/09 A3006 RMK AO2 CIG 006V013 T01060089,KMLC,2019-01-17T14:01:00Z,34.88,-95.78,10.6,8.9,330,13,,10.0,30.059055,,,TRUE,TRUE,,,,,,,BKN,900,OVC,1500,,,,,IFR,,,,,,,,,,,,METAR,232.0
KGRF 171401Z COR 05006KT 10SM FEW034 SCT065 BKN100 04/04 A2943 RMK AO2 RAE01 $ COR 1404,KGRF,2019-01-17T14:01:00Z,47.07,-122.57,4.0,4.0,50,6,,10.0,29.430119,,TRUE,,TRUE,TRUE,,,,,,FEW,3400,SCT,6500,BKN,10000,,,VFR,,,,,,,,,,,,SPECI,92.0
DTTK 171400Z 16003KT 9999 FEW023 18/07 Q1016,DTTK,2019-01-17T14:00:00Z,35.67,10.08,18.0,7.0,160,3,,6.21,30.0,,,,,,,,,,,FEW,2300,,,,,,,VFR,,,,,,,,,,,,METAR,68.0
DTTD 171400Z AUTO 10004KT 040V160 NCD 17/01 Q1015,DTTD,2019-01-17T14:00:00Z,32.32,10.4,17.0,1.0,100,4,,,29.970472,,,TRUE,,,,,,,,CLR,,,,,,,,,,,,,,,,,,,,METAR,301.0
DTTF 171400Z 04005KT CAVOK 15/05 Q1015 NOSIG,DTTF,2019-01-17T14:00:00Z,34.42,8.82,15.0,5.0,40,5,,6.21,29.970472,,,,,,TRUE,,,,,CAVOK,,,,,,,,VFR,,,,,,,,,,,,METAR,314.0
OEBH 171400Z 05014KT CAVOK 26/11 Q1017 NOSIG,OEBH,2019-01-17T14:00:00Z,19.97,42.62,26.0,11.0,50,14,,6.21,30.029528,,,,,,TRUE,,,,,CAVOK,,,,,,,,VFR,,,,,,,,,,,,METAR,1157.0
OEBA 171400Z 24007KT 9999 FEW030 23/12 Q1020 NOSIG,OEBA,2019-01-17T14:00:00Z,20.3,41.62,23.0,12.0,240,7,,6.21,30.11811,,,,,,TRUE,,,,,FEW,3000,,,,,,,VFR,,,,,,,,,,,,METAR,1656.0
OEAR 171400Z 30007KT CAVOK 26/05 Q1015,OEAR,2019-01-17T14:00:00Z,,,26.0,5.0,300,7,,6.21,29.970472,,,,,,,,,,,CAVOK,,,,,,,,VFR,,,,,,,,,,,,METAR,
OEAO 171400Z 21004KT CAVOK 19/M09 Q1020,OEAO,2019-01-17T14:00:00Z,26.48,38.12,19.0,-9.0,210,4,,6.21,30.11811,,,,,,,,,,,CAVOK,,,,,,,,VFR,,,,,,,,,,,,METAR,624.0
OEAH 171400Z 33024KT 0500 DS VV015 19/M04 Q1017 NOSIG,OEAH,2019-01-17T14:00:00Z,25.27,49.47,19.0,-4.0,330,24,,0.31,30.029528,,,,,,TRUE,,,,DS,OVX,0,,,,,,,LIFR,,,,,,,,,,,1500,METAR,172.0
OEAB 171400Z 22005KT CAVOK 19/12 Q1024 NOSIG,OEAB,2019-01-17T14:00:00Z,18.22,42.63,19.0,12.0,220,5,,6.21,30.236221,,,,,,TRUE,,,,,CAVOK,,,,,,,,VFR,,,,,,,,,,,,METAR,2084.0
NIUE 171400Z AUTO 07006KT //// // ///////// 26/25 Q1008,NIUE,2019-01-17T14:00:00Z,-19.07,-169.92,26.0,25.0,70,6,,,29.763779,,,TRUE,,,,,,,,,,,,,,,,,,,,,,,,,,,,METAR,20.0
GUCY 171400Z 26008KT 5000 HZ NSC 31/23 Q1011 NOSIG,GUCY,2019-01-17T14:00:00Z,9.57,-13.62,31.0,23.0,260,8,,3.11,29.852362,,,,,,TRUE,,,,HZ,CLR,,,,,,,,MVFR,,,,,,,,,,,,METAR,26.0
GOGG 171400Z 32004KT CAVOK 32/11 Q1012,GOGG,2019-01-17T14:00:00Z,12.55,-16.27,32.0,11.0,320,4,,6.21,29.88189,,,,,,,,,,,CAVOK,,,,,,,,VFR,,,,,,,,,,,,METAR,23.0
GOTT 171400Z VRB04KT CAVOK 37/04 Q1010,GOTT,2019-01-17T14:00:00Z,13.73,-13.65,37.0,4.0,0,4,,6.21,29.822834,,,,,,,,,,,CAVOK,,,,,,,,VFR,,,,,,,,,,,,METAR,50.0
GOSS 171400Z 36008KT CAVOK 29/13 Q1012,GOSS,2019-01-17T14:00:00Z,16.05,-16.43,29.0,13.0,360,8,,6.21,29.88189,,,,,,,,,,,CAVOK,,,,,,,,VFR,,,,,,,,,,,,METAR,4.0
GOOY 171400Z 36010KT CAVOK 25/17 Q1013,GOOY,2019-01-17T14:00:00Z,14.72,-17.5,25.0,17.0,360,10,,6.21,29.911417,,,,,,,,,,,CAVOK,,,,,,,,VFR,,,,,,,,,,,,METAR,24.0
WAOO 171400Z 28006KT 9999 FEW018 27/25 Q1009,WAOO,2019-01-17T14:00:00Z,-3.45,114.77,27.0,25.0,280,6,,6.21,29.793306,,,,,,,,,,,FEW,1800,,,,,,,VFR,,,,,,,,,,,,METAR,20.0
WIBB 171400Z 00000KT 8000 FEW017 27/24 Q1009,WIBB,2019-01-17T14:00:00Z,0.47,101.45,27.0,24.0,0,0,,4.97,29.793306,,,,,,,,,,,FEW,1700,,,,,,,MVFR,,,,,,,,,,,,METAR,31.0
OEGS 171400Z 32005KT 2500 DU NSC 16/03 Q1018,OEGS,2019-01-17T14:00:00Z,26.3,43.77,16.0,3.0,320,5,,1.55,30.059055,,,,,,,,,,DU,CLR,,,,,,,,IFR,,,,,,,,,,,,METAR,650.0
OEGN 171400Z 22009KT CAVOK 29/22 Q1013 NOSIG,OEGN,2019-01-17T14:00:00Z,16.88,42.57,29.0,22.0,220,9,,6.21,29.911417,,,,,,TRUE,,,,,CAVOK,,,,,,,,VFR,,,,,,,,,,,,METAR,3.0
YBCS 171400Z AUTO 18007KT 9999 // SCT044 26/21 Q1010 RMK RF00.0/000.0 NOSIG,YBCS,2019-01-17T14:00:00Z,-16.87,145.75,26.0,21.0,180,7,,6.21,29.822834,,,TRUE,,,,,,,,SCT,4400,,,,,,,VFR,,,,,,,,,,,,SPECI,7.0
SBBV 171400Z 09018KT 9999 SCT030 SCT080 31/19 Q1015,SBBV,2019-01-17T14:00:00Z,2.85,-60.7,31.0,19.0,90,18,,6.21,29.970472,,,,,,,,,,,SCT,3000,SCT,8000,,,,,VFR,,,,,,,,,,,,METAR,140.0
DTTL 171400Z 18006KT 130V220 9999 FEW030 15/10 Q1017,DTTL,2019-01-17T14:00:00Z,36.85,11.07,15.0,10.0,180,6,,6.21,30.029528,,,,,,,,,,,FEW,3000,,,,,,,VFR,,,,,,,,,,,,METAR,30.0
SBSV 171400Z 12010KT 080V190 9999 SCT020 SCT060 31/23 Q1016,SBSV,2019-01-17T14:00:00Z,-12.9,-38.32,31.0,23.0,120,10,,6.21,30.0,,,,,,,,,,,SCT,2000,SCT,6000,,,,,VFR,,,,,,,,,,,,METAR,6.0
OJAQ 171400Z 32010KT CAVOK 18/M02 Q1020 NOSIG,OJAQ,2019-01-17T14:00:00Z,29.62,35.02,18.0,-2.0,320,10,,6.21,30.11811,,,,,,TRUE,,,,,CAVOK,,,,,,,,VFR,,,,,,,,,,,,METAR,51.0
SBEG 171400Z 30003KT 9999 SCT020 BKN100 28/24 Q1015,SBEG,2019-01-17T14:00:00Z,-3.02,-60.03,28.0,24.0,300,3,,6.21,29.970472,,,,,,,,,,,SCT,2000,BKN,10000,,,,,VFR,,,,,,,,,,,,METAR,2.0
MPPA 171400Z 01014KT 9999 FEW020 27/21 Q1014,MPPA,2019-01-17T14:00:00Z,8.92,-79.6,27.0,21.0,10,14,,6.21,29.940945,,,,,,,,,,,FEW,2000,,,,,,,VFR,,,,,,,,,,,,METAR,13.0
TUPJ 171400Z 16009KT 10SM FEW019 27/21 A3014 RMK Q1020,TUPJ,2019-01-17T14:00:00Z,18.43,-64.52,27.0,21.0,160,9,,10.0,30.138779,,,,,,,,,,,FEW,1900,,,,,,,VFR,,,,,,,,,,,,METAR,4.0
SBMO 171400Z 11011KT 9999 SCT010 BKN020 BKN070 28/23 Q1015,SBMO,2019-01-17T14:00:00Z,-9.52,-35.77,28.0,23.0,110,11,,6.21,29.970472,,,,,,,,,,,SCT,1000,BKN,2000,BKN,7000,,,MVFR,,,,,,,,,,,,METAR,115.0
SBMN 171400Z 18003KT 9999 SCT020 SCT100 27/24 Q1015,SBMN,2019-01-17T14:00:00Z,-3.13,-59.97,27.0,24.0,180,3,,6.21,29.970472,,,,,,,,,,,SCT,2000,SCT,10000,,,,,VFR,,,,,,,,,,,,METAR,84.0
SBSJ 171400Z 28003KT CAVOK 28/20 Q1019,SBSJ,2019-01-17T14:00:00Z,-23.22,-45.87,28.0,20.0,280,3,,6.21,30.088583,,,,,,,,,,,CAVOK,,,,,,,,VFR,,,,,,,,,,,,METAR,646.0
SCVM 171400Z 32009KT CAVOK 19/13 Q1018,SCVM,2019-01-17T14:00:00Z,-32.95,-71.48,19.0,13.0,320,9,,6.21,30.059055,,,,,,,,,,,CAVOK,,,,,,,,VFR,,,,,,,,,,,,METAR,141.0
NFTV 171400Z 07009KT 9999 SCT017 2726 Q1007,NFTV,2019-01-17T14:00:00Z,-18.58,-173.97,,,70,9,,6.21,29.734253,,,,,,,,,,,SCT,1700,,,,,,,VFR,,,,,,,,,,,,METAR,71.0
NFTF 171400Z VRB02KT 9999 FEW016 SCT120 25/25 Q1008,NFTF,2019-01-17T14:00:00Z,-21.23,-175.15,25.0,25.0,0,2,,6.21,29.763779,,,,,,,,,,,FEW,1600,SCT,12000,,,,,VFR,,,,,,,,,,,,METAR,38.0
SBSL 171400Z 07010KT 9999 BKN020 30/24 Q1014,SBSL,2019-01-17T14:00:00Z,-2.6,-44.22,30.0,24.0,70,10,,6.21,29.940945,,,,,,,,,,,BKN,2000,,,,,,,MVFR,,,,,,,,,,,,METAR,53.0
MPDA 171400Z 25003KT CAVOK 28/20 Q1012,MPDA,2019-01-17T14:00:00Z,8.4,-82.43,28.0,20.0,250,3,,6.21,29.88189,,,,,,,,,,,CAVOK,,,,,,,,VFR,,,,,,,,,,,,METAR,27.0
SBPV 171400Z 26002KT 9999 SCT008 BKN100 27/23 Q1016,SBPV,2019-01-17T14:00:00Z,-8.72,-63.9,27.0,23.0,260,2,,6.21,30.0,,,,,,,,,,,SCT,800,BKN,10000,,,,,VFR,,,,,,,,,,,,METAR,88.0
FQCH 171400Z 17010KT 9999 TS BKN015 SCT020CB 24/22 Q1012 RMK CB TO ALL/D,FQCH,2019-01-17T14:00:00Z,-19.15,33.43,24.0,22.0,170,10,,6.21,29.88189,,,,,,,,,,TS,BKN,1500,SCT,2000,,,,,MVFR,,,,,,,,,,,,METAR,732.0
MDSD 171400Z 04004KT 9999 FEW018 SCT080 25/21 Q1019,MDSD,2019-01-17T14:00:00Z,18.42,-69.67,25.0,21.0,40,4,,6.21,30.088583,,,,,,,,,,,FEW,1800,SCT,8000,,,,,VFR,,,,,,,,,,,,METAR,18.0
MDJB 171400Z 00000KT 9999 FEW020 25/21 Q1020 NOSIG,MDJB,2019-01-17T14:00:00Z,18.57,-69.98,25.0,21.0,0,0,,6.21,30.11811,,,,,,TRUE,,,,,FEW,2000,,,,,,,VFR,,,,,,,,,,,,METAR,30.0
MDBH 171400Z 27005KT 9999 FEW018 25/20 Q1020 NOSIG,MDBH,2019-01-17T14:00:00Z,18.25,-71.12,25.0,20.0,270,5,,6.21,30.11811,,,,,,TRUE,,,,,FEW,1800,,,,,,,VFR,,,,,,,,,,,,METAR,3.0
MDPC 171400Z 10010KT 9999 FEW020 27/21 Q1020 NOSIG,MDPC,2019-01-17T14:00:00Z,18.57,-68.37,27.0,21.0,100,10,,6.21,30.11811,,,,,,TRUE,,,,,FEW,2000,,,,,,,VFR,,,,,,,,,,,,METAR,12.0
MDST 171400Z 12005KT 9999 FEW018 23/23 Q1020,MDST,2019-01-17T14:00:00Z,19.4,-70.6,23.0,23.0,120,5,,6.21,30.11811,,,,,,,,,,,FEW,1800,,,,,,,VFR,,,,,,,,,,,,METAR,184.0
MDPP 171400Z 09005KT 9999 FEW018 25/21 Q1019,MDPP,2019-01-17T14:00:00Z,19.75,-70.57,25.0,21.0,90,5,,6.21,30.088583,,,,,,,,,,,FEW,1800,,,,,,,VFR,,,,,,,,,,,,METAR,5.0
SBCY 171400Z 30004KT 9999 FEW020 33/21 Q1016,SBCY,2019-01-17T14:00:00Z,-15.65,-56.12,33.0,21.0,300,4,,6.21,30.0,,,,,,,,,,,FEW,2000,,,,,,,VFR,,,,,,,,,,,,METAR,182.0
NFNA 171400Z 07004KT 8000 -SHRA BKN017 OVC048 26/26 Q1007,NFNA,2019-01-17T14:00:00Z,-18.05,178.57,26.0,26.0,70,4,,4.97,29.734253,,,,,,,,,,-SHRA,BKN,1700,OVC,4800,,,,,MVFR,,,,,,,,,,,,SPECI,5.0
FQPB 171400Z 06012KT 9999 FEW020 FEW025CB 29/25 Q1008 RMK CB TO SW/NW,FQPB,2019-01-17T14:00:00Z,-12.97,40.5,29.0,25.0,60,12,,6.21,29.763779,,,,,,,,,,,FEW,2000,FEW,2500,,,,,VFR,,,,,,,,,,,,METAR,50.0
SBNT 171400Z 10013KT 070V130 9999 SCT023 SCT070 30/23 Q1014,SBNT,2019-01-17T14:00:00Z,-5.92,-35.25,30.0,23.0,100,13,,6.21,29.940945,,,,,,,,,,,SCT,2300,SCT,7000,,,,,VFR,,,,,,,,,,,,METAR,49.0
MGGT 171400Z 02016KT 9999 SCT018 16/10 Q1028 A3036,MGGT,2019-01-17T14:00:00Z,14.57,-90.53,16.0,10.0,20,16,,6.21,30.35433,,,,,,,,,,,SCT,1800,,,,,,,VFR,,,,,,,,,,,,METAR,1509.0
SBFN 171400Z 12011KT 9999 SCT015 31/26 Q1014,SBFN,2019-01-17T14:00:00Z,-3.85,-32.42,31.0,26.0,120,11,,6.21,29.940945,,,,,,,,,,,SCT,1500,,,,,,,VFR,,,,,,,,,,,,METAR,56.0
GVSV 171400Z 07026KT 9000 FEW022 26/15 Q1017 NOSIG,GVSV,2019-01-17T14:00:00Z,16.83,-25.07,26.0,15.0,70,26,,5.59,30.029528,,,,,,TRUE,,,,,FEW,2200,,,,,,,VFR,,,,,,,,,,,,METAR,20.0
OKBK 171400Z 32010KT 1400 R15R/1300U R33L/1500N R15L/1400N R33R/1300N -DU SKC 16/M01 Q1017 NOSIG,OKBK,2019-01-17T14:00:00Z,29.22,47.97,16.0,-1.0,320,10,,0.87,30.029528,,,,,,TRUE,,,,DU,SKC,,,,,,,,LIFR,,,,,,,,,,,,METAR,55.0
MDAB 171400Z 00000KT 9999 FEW018 24/22 Q1020,MDAB,2019-01-17T14:00:00Z,19.2,-69.43,24.0,22.0,0,0,,6.21,30.11811,,,,,,,,,,,FEW,1800,,,,,,,VFR,,,,,,,,,,,,METAR,35.0
MDCY 171400Z 00000KT 9999 FEW016 22/19 Q1020,MDCY,2019-01-17T14:00:00Z,19.27,-69.73,22.0,19.0,0,0,,6.21,30.11811,,,,,,,,,,,FEW,1600,,,,,,,VFR,,,,,,,,,,,,METAR,10.0
MDLR 171400Z 08006KT 9999 FEW018 25/25 Q1020,MDLR,2019-01-17T14:00:00Z,18.45,-68.92,25.0,25.0,80,6,,6.21,30.11811,,,,,,,,,,,FEW,1800,,,,,,,VFR,,,,,,,,,,,,METAR,8.0
MHRO 171400Z 04008KT 9999 FEW020 BKN080 25/20 Q1019 A3009 TEMPO 8000 -RA,MHRO,2019-01-17T14:00:00Z,16.32,-86.53,25.0,20.0,40,8,,6.21,30.088583,,,,,,,,,,,FEW,2000,BKN,8000,,,,,VFR,,,,,,,,,,,,METAR,5.0
MHLC 171400Z 24003KT 4000 -RA FEW001 BKN020 OVC070 22/22 Q1019 A3009 BECMG 9999 NSW,MHLC,2019-01-17T14:00:00Z,15.75,-86.85,22.0,22.0,240,3,,2.49,30.088583,,,,,,,,,,-RA,FEW,100,BKN,2000,OVC,7000,,,IFR,,,,,,,,,,,,METAR,15.0
MHLM 171400Z 26003KT 2000 -RA FEW004 SCT020 OVC080 22/21 Q1020 A3012 BECMG 9999 NSW,MHLM,2019-01-17T14:00:00Z,15.45,-87.93,22.0,21.0,260,3,,1.24,30.11811,,,,,,,,,,-RA,FEW,400,SCT,2000,OVC,8000,,,IFR,,,,,,,,,,,,METAR,26.0
MHTG 171400Z 36010KT 9999 FEW012 SCT025 18/14 Q1023 A3021 NOSIG,MHTG,2019-01-17T14:00:00Z,14.07,-87.22,18.0,14.0,360,10,,6.21,30.206694,,,,,,TRUE,,,,,FEW,1200,SCT,2500,,,,,VFR,,,,,,,,,,,,METAR,1004.0
GVAC 171400Z 04020KT 9999 FEW014 25/16 Q1017 NOSIG,GVAC,2019-01-17T14:00:00Z,16.72,-22.93,25.0,16.0,40,20,,6.21,30.029528,,,,,,TRUE,,,,,FEW,1400,,,,,,,VFR,,,,,,,,,,,,METAR,55.0
CWNH 171400Z AUTO 34006KT M23/M29 RMK AO1 SOG 15 1026 SLP277 T12271293,CWNH,2019-01-17T14:00:00Z,47.78,-69.53,-22.7,-29.3,340,6,,,,1027.7,,TRUE,TRUE,,,,,,,,,,,,,,,,,,,,,,,,,,,METAR,148.0
HCMM 171400Z 09015KT 9999 FEW024 27/21 Q1008,HCMM,2019-01-17T14:00:00Z,2.02,45.35,27.0,21.0,90,15,,6.21,29.763779,,,,,,,,,,,FEW,2400,,,,,,,VFR,,,,,,,,,,,,METAR,9.0
DAFH 171400Z 36008KT CAVOK 14/02 Q1019,DAFH,2019-01-17T14:00:00Z,32.93,3.32,14.0,2.0,360,8,,6.21,30.088583,,,,,,,,,,,CAVOK,,,,,,,,VFR,,,,,,,,,,,,SPECI,774.0
OIZB 171400Z 11004KT 4000 DU FEW040 SCT090 19/M02 Q1009,OIZB,2019-01-17T14:00:00Z,31.1,61.55,19.0,-2.0,110,4,,2.49,29.793306,,,,,,,,,,DU,FEW,4000,SCT,9000,,,,,IFR,,,,,,,,,,,,METAR,489.0
HKEL 171400Z 11013KT 9999 BKN025 24/08 Q1021,HKEL,2019-01-17T14:00:00Z,0.4,35.23,24.0,8.0,110,13,,6.21,30.147638,,,,,,,,,,,BKN,2500,,,,,,,MVFR,,,,,,,,,,,,METAR,2133.0
OPNH 171400Z 31506KT 3000M FU NSC 20/07 Q1016 NOSIG,OPNH,2019-01-17T14:00:00Z,26.22,68.37,20.0,7.0,315,6,,1.86,30.0,,,,,,TRUE,,,,FU,CLR,,,,,,,,IFR,,,,,,,,,,,,METAR,38.0
MRLB 171400Z 08027G37KT CAVOK 28/17 A2989 NOSIG,MRLB,2019-01-17T14:00:00Z,10.6,-85.55,28.0,17.0,80,27,37,6.21,29.890747,,,,,,TRUE,,,,,CAVOK,,,,,,,,VFR,,,,,,,,,,,,METAR,82.0
SBFZ 171400Z 07010KT 9999 BKN025 FEW027TCU 30/24 Q1013,SBFZ,2019-01-17T14:00:00Z,-3.77,-38.52,30.0,24.0,70,10,,6.21,29.911417,,,,,,,,,,,BKN,2500,FEW,2700,,,,,MVFR,,,,,,,,,,,,METAR,25.0
OEGT 171400Z 27012KT 8000 BKN040 12/03 Q1017 NOSIG,OEGT,2019-01-17T14:00:00Z,31.42,37.27,12.0,3.0,270,12,,4.97,30.029528,,,,,,TRUE,,,,,BKN,4000,,,,,,,MVFR,,,,,,,,,,,,METAR,499.0
VERP 171400Z 13005KT 4000 HZ NSC 20/10 Q1015 NOSIG,VERP,2019-01-17T14:00:00Z,21.18,81.73,20.0,10.0,130,5,,2.49,29.970472,,,,,,TRUE,,,,HZ,CLR,,,,,,,,IFR,,,,,,,,,,,,METAR,316.0
SBCC 171400Z 10005KT 050V220 9999 SCT030 SCT100 27/20 Q1018,SBCC,2019-01-17T14:00:00Z,-9.32,-54.95,27.0,20.0,100,5,,6.21,30.059055,,,,,,,,,,,SCT,3000,SCT,10000,,,,,VFR,,,,,,,,,,,,METAR,536.0
SBAT 171400Z 36003KT 9999 FEW030 30/23 Q1017,SBAT,2019-01-17T14:00:00Z,-9.87,-56.1,30.0,23.0,360,3,,6.21,30.029528,,,,,,,,,,,FEW,3000,,,,,,,VFR,,,,,,,,,,,,METAR,288.0
SBIH 171400Z 03006KT 9999 SCT020 31/25 Q1015,SBIH,2019-01-17T14:00:00Z,-4.25,-56.0,31.0,25.0,30,6,,6.21,29.970472,,,,,,,,,,,SCT,2000,,,,,,,VFR,,,,,,,,,,,,METAR,34.0
SBIC 171400Z 07004KT 9999 SCT016 30/24 Q1015,SBIC,2019-01-17T14:00:00Z,-3.12,-58.47,30.0,24.0,70,4,,6.21,29.970472,,,,,,,,,,,SCT,1600,,,,,,,VFR,,,,,,,,,,,,METAR,43.0
SBHT 171400Z 06006KT 9999 SCT015 BKN020 OVC090 28/24 Q1015,SBHT,2019-01-17T14:00:00Z,-3.25,-52.27,28.0,24.0,60,6,,6.21,29.970472,,,,,,,,,,,SCT,1500,BKN,2000,OVC,9000,,,MVFR,,,,,,,,,,,,METAR,74.0
SBGM 171400Z 02004KT CAVOK 29/22 Q1017,SBGM,2019-01-17T14:00:00Z,-10.78,-65.28,29.0,22.0,20,4,,6.21,30.029528,,,,,,,,,,,CAVOK,,,,,,,,VFR,,,,,,,,,,,,METAR,146.0
SBEK 171400Z 26002KT 9999 SCT015 30/24 Q1015,SBEK,2019-01-17T14:00:00Z,-6.23,-57.78,30.0,24.0,260,2,,6.21,29.970472,,,,,,,,,,,SCT,1500,,,,,,,VFR,,,,,,,,,,,,METAR,98.0
SBCI 171400Z 19003KT 9999 SCT025 32/24 Q1015,SBCI,2019-01-17T14:00:00Z,-7.32,-47.47,32.0,24.0,190,3,,6.21,29.970472,,,,,,,,,,,SCT,2500,,,,,,,VFR,,,,,,,,,,,,METAR,183.0
SBLB 171400Z /////KT 9999 FEW010 ///// Q1016 W///S4,SBLB,2019-01-17T14:00:00Z,-22.1,-39.92,,,,,,6.21,30.0,,,,,,,,,,,FEW,1000,,,,,,,VFR,,,,,,,,,,,,METAR,10.0
SBMD 171400Z 11004KT 9999 BKN015 BKN080 28/25 Q1015,SBMD,2019-01-17T14:00:00Z,-0.87,-52.6,28.0,25.0,110,4,,6.21,29.970472,,,,,,,,,,,BKN,1500,BKN,8000,,,,,MVFR,,,,,,,,,,,,METAR,206.0
SBMY 171400Z 03002KT 9999 SCT018 29/25 Q1016,SBMY,2019-01-17T14:00:00Z,-5.82,-61.28,29.0,25.0,30,2,,6.21,30.0,,,,,,,,,,,SCT,1800,,,,,,,VFR,,,,,,,,,,,,METAR,49.0
SBAA 171400Z 28002KT 9999 BKN025 ///// Q1015,SBAA,2019-01-17T14:00:00Z,-8.35,-49.3,,,280,2,,6.21,29.970472,,,,,,,,,,,BKN,2500,,,,,,,MVFR,,,,,,,,,,,,METAR,199.0
SBUA 171400Z 24004KT 9999 BKN007 25/24 Q1015,SBUA,2019-01-17T14:00:00Z,-0.15,-66.98,25.0,24.0,240,4,,6.21,29.970472,,,,,,,,,,,BKN,700,,,,,,,IFR,,,,,,,,,,,,METAR,79.0
SBTU 171400Z 02007KT 9999 BKN023 ///// Q1016,SBTU,2019-01-17T14:00:00Z,-3.78,-49.72,,,20,7,,6.21,30.0,,,,,,,,,,,BKN,2300,,,,,,,MVFR,,,,,,,,,,,,SPECI,40.0
SBSY 171400Z AUTO 35003KT 310V030 9000 NSC 23/20 Q1020,SBSY,2019-01-17T14:00:00Z,-11.57,-50.67,23.0,20.0,350,3,,5.59,30.11811,,,TRUE,,,,,,,,CLR,,,,,,,,VFR,,,,,,,,,,,,METAR,197.0
SBOI 171400Z 06007KT 9999 FEW017 SCT019 BKN054 27/24 Q1015,SBOI,2019-01-17T14:00:00Z,3.85,-51.82,27.0,24.0,60,7,,6.21,29.970472,,,,,,,,,,,FEW,1700,SCT,1900,BKN,5400,,,VFR,,,,,,,,,,,,METAR,39.0
SBIZ 171400Z 05004KT 9999 SCT020 31/27 Q1014,SBIZ,2019-01-17T14:00:00Z,-5.52,-47.45,31.0,27.0,50,4,,6.21,29.940945,,,,,,,,,,,SCT,2000,,,,,,,VFR,,,,,,,,,,,,METAR,123.0
SBVH 171400Z 27003KT CAVOK 29/22 Q1019,SBVH,2019-01-17T14:00:00Z,-12.72,-60.12,29.0,22.0,270,3,,6.21,30.088583,,,,,,,,,,,CAVOK,,,,,,,,VFR,,,,,,,,,,,,METAR,652.0
FQQL 171400Z 09008KT 9999 TS BKN015 FEW025CB BKN/// 29/23 Q1004 RMK CB TO NW,FQQL,2019-01-17T14:00:00Z,-17.87,36.87,29.0,23.0,90,8,,6.21,29.64567,,,,,,,,,,TS,BKN,1500,FEW,2500,,,,,MVFR,,,,,,,,,,,,METAR,16.0
FQNP 171400Z /////KT 9999 BKN020 31/23 Q1009,FQNP,2019-01-17T14:00:00Z,-15.08,39.27,31.0,23.0,,,,6.21,29.793306,,,,,,,,,,,BKN,2000,,,,,,,MVFR,,,,,,,,,,,,METAR,441.0
FQTT 171400Z 29009KT 9999 SCT020 FEW025CB BKN/// 32/23 Q1006 RMK CB TO NE/S,FQTT,2019-01-17T14:00:00Z,-16.1,33.62,32.0,23.0,290,9,,6.21,29.704725,,,,,,,,,,,SCT,2000,FEW,2500,,,,,VFR,,,,,,,,,,,,METAR,160.0
FCBB 171400Z 06004KT 010V140 9000 FEW013 FEW030CB 30/23 Q1009 NOSIG,FCBB,2019-01-17T14:00:00Z,-4.25,15.25,30.0,23.0,60,4,,5.59,29.793306,,,,,,TRUE,,,,,FEW,1300,FEW,3000,,,,,VFR,,,,,,,,,,,,METAR,316.0
FCPP 171400Z 17005KT 140V200 9999 TS FEW013 SCT021 FEW030CB 28/25 Q1009 NOSIG,FCPP,2019-01-17T14:00:00Z,-4.82,11.9,28.0,25.0,170,5,,6.21,29.793306,,,,,,TRUE,,,,TS,FEW,1300,SCT,2100,FEW,3000,,,VFR,,,,,,,,,,,,METAR,17.0
FKKD 171400Z 26006KT 220V300 6000 SCT016 34/25 Q1008 NOSIG,FKKD,2019-01-17T14:00:00Z,4.0,9.72,34.0,25.0,260,6,,3.73,29.763779,,,,,,TRUE,,,,,SCT,1600,,,,,,,MVFR,,,,,,,,,,,,METAR,9.0
CWLY 171400Z AUTO 01010G16KT 340V050 9SM OVC060 M02/M05 A2968 RMK SLP063,CWLY,2019-01-17T14:00:00Z,50.22,-121.58,-2.0,-5.0,10,10,16,9.0,29.681103,1006.3,,TRUE,,,,,,,,OVC,6000,,,,,,,VFR,,,,,,,,,,,,METAR,229.0
CWLI 171400Z AUTO 07015KT ////SM //// NCD M24/M27 A////,CWLI,2019-01-17T14:00:00Z,69.58,-130.9,-24.0,-27.0,70,15,,,,,,TRUE,,,,,,,,CLR,,,,,,,,,,,,,,,,,,,,METAR,102.0
CWIL 171400Z AUTO 32015KT ////SM FEW130 SCT180 ///// A////,CWIL,2019-01-17T14:00:00Z,68.32,-100.07,,,320,15,,,,,,TRUE,,,,,,,,FEW,13000,SCT,18000,,,,,,,,,,,,,,,,,METAR,36.0
CYVT 171400Z CCA 30011G16KT 15SM SKC M28/M32 A3035 RMK OCNL DRSN SLP334,CYVT,2019-01-17T14:00:00Z,55.82,-108.42,-28.0,-32.0,300,11,16,15.0,30.351377,1033.4,,,,,,,,,,SKC,,,,,,,,VFR,,,,,,,,,,,,METAR,434.0
CZEM 171400Z 20011KT 10SM VCSH OVC039 M28/M31 A3012 RMK SC8 SLP202,CZEM,2019-01-17T14:00:00Z,52.22,-78.52,-28.0,-31.0,200,11,,10.0,30.121063,1020.2,,,,,,,,,VCSH,OVC,3900,,,,,,,VFR,,,,,,,,,,,,METAR,7.0
CWSA 171400Z AUTO 29017G26KT 9SM CLR 01/M04 A3004 RMK SLP174,CWSA,2019-01-17T14:00:00Z,43.93,-60.0,1.0,-4.0,290,17,26,9.0,30.041338,1017.4,,TRUE,,,,,,,,CLR,,,,,,,,VFR,,,,,,,,,,,,METAR,4.0
CWGZ 171400Z VRB03KT 15SM SKC M30/M35 A3005 RMK SLP186,CWGZ,2019-01-17T14:00:00Z,76.42,-82.9,-30.0,-35.0,0,3,,15.0,30.050198,1018.6,,,,,,,,,,SKC,,,,,,,,VFR,,,,,,,,,,,,METAR,45.0
CWFD 171400Z AUTO 01008KT ////SM //// FEW120 M30/M33 A2953,CWFD,2019-01-17T14:00:00Z,66.57,-61.58,-30.0,-33.0,10,8,,,29.530512,,,TRUE,,,,,,,,FEW,12000,,,,,,,,,,,,,,,,,,,METAR,393.0
CWEU 171400Z 26010KT 15SM IC OVC030 M26/M30 A3014 RMK SC8 SLP208,CWEU,2019-01-17T14:00:00Z,80.0,-85.92,-26.0,-30.0,260,10,,15.0,30.138779,1020.8,,,,,,,,,IC,OVC,3000,,,,,,,MVFR,,,,,,,,,,,,METAR,10.0
CYZR 171400Z AUTO 13010KT 9SM OVC130 M06/M10 A3025 RMK SLP256,CYZR,2019-01-17T14:00:00Z,43.0,-82.3,-6.0,-10.0,130,10,,9.0,30.250984,1025.6,,TRUE,,,,,,,,OVC,13000,,,,,,,VFR,,,,,,,,,,,,METAR,181.0
CYZE 171400Z AUTO 08003KT 9SM -SN OVC033 M11/M13 A3023 RMK SLP253,CYZE,2019-01-17T14:00:00Z,45.87,-82.57,-11.0,-13.0,80,3,,9.0,30.230314,1025.3,,TRUE,,,,,,,-SN,OVC,3300,,,,,,,VFR,,,,,,,,,,,,METAR,193.0
CYYY 171400Z 28012KT 15SM -SN DRSN BKN020 M22/M26 A3028 RMK SC7 SLP262,CYYY,2019-01-17T14:00:00Z,48.6,-68.22,-22.0,-26.0,280,12,,15.0,30.280512,1026.2,,,,,,,,,-SN DRSN,BKN,2000,,,,,,,MVFR,,,,,,,,,,,,METAR,52.0
CYWA 171400Z AUTO 00000KT 9SM CLR M30/M35 A3042 RMK SLP319,CYWA,2019-01-17T14:00:00Z,45.95,-77.32,-30.0,-35.0,0,0,,9.0,30.41929,1031.9,,TRUE,,,,,,,,CLR,,,,,,,,VFR,,,,,,,,,,,,METAR,130.0
CYVP 171400Z 25008KT 12SM IC FEW023 BKN075 BKN130 M30/M34 A2984 RMK SC2AS3AS2 SLP112,CYVP,2019-01-17T14:00:00Z,58.12,-68.42,-30.0,-34.0,250,8,,12.0,29.840551,1011.2,,,,,,,,,IC,FEW,2300,BKN,7500,BKN,13000,,,VFR,,,,,,,,,,,,METAR,60.0
CYTS 171400Z 19003KT 6SM -SN BKN040 BKN060 OVC080 M25/M28 A3012 RMK SC5SC2AC1 SLP242,CYTS,2019-01-17T14:00:00Z,48.57,-81.37,-25.0,-28.0,190,3,,6.0,30.121063,1024.2,,,,,,,,,-SN,BKN,4000,BKN,6000,OVC,8000,,,VFR,,,,,,,,,,,,METAR,295.0
CYRL 171400Z 22004KT 15SM FEW025 SCT120 M24/M27 A3006 RMK SC1AC2 LGT FROIN SLP229,CYRL,2019-01-17T14:00:00Z,51.07,-93.78,-24.0,-27.0,220,4,,15.0,30.059055,1022.9,,,,,,,,,,FEW,2500,SCT,12000,,,,,VFR,,,,,,,,,,,,METAR,383.0
CYRJ 171400Z 24010KT 40SM FEW120 M28/M33 A3031 RMK AC1 SLP291,CYRJ,2019-01-17T14:00:00Z,48.52,-72.27,-28.0,-33.0,240,10,,40.0,30.31004,1029.1,,,,,,,,,,FEW,12000,,,,,,,VFR,,,,,,,,,,,,METAR,179.0
CYQT 171400Z 26003KT 20SM FEW025 OVC110 M17/M21 A3014 RMK SC2AC6 SLP231,CYQT,2019-01-17T14:00:00Z,48.37,-89.32,-17.0,-21.0,260,3,,20.0,30.138779,1023.1,,,,,,,,,,FEW,2500,OVC,11000,,,,,VFR,,,,,,,,,,,,METAR,199.0
CYPQ 171400Z AUTO 11003KT 060V140 9SM CLR M15/M18 A3035 RMK SLP297,CYPQ,2019-01-17T14:00:00Z,44.22,-78.37,-15.0,-18.0,110,3,,9.0,30.351377,1029.7,,TRUE,,,,,,,,CLR,,,,,,,,VFR,,,,,,,,,,,,METAR,191.0
CYND 171400Z 00000KT 15SM SCT130 M25/M28 A3046 RMK AC3 SLP322,CYND,2019-01-17T14:00:00Z,45.52,-75.57,-25.0,-28.0,0,0,,15.0,30.46063,1032.2,,,,,,,,,,SCT,13000,,,,,,,VFR,,,,,,,,,,,,METAR,64.0
CYMO 171400Z AUTO 23008KT 9SM CLR M30/M33 A3017 RMK SLP218,CYMO,2019-01-17T14:00:00Z,51.28,-80.62,-30.0,-33.0,230,8,,9.0,30.171259,1021.8,,TRUE,,,,,,,,CLR,,,,,,,,VFR,,,,,,,,,,,,METAR,10.0
CYKO 171400Z 12017KT 6SM DRSN FEW081 SCT220 M33/M37 A2981 RMK AC1CI2 SLP102,CYKO,2019-01-17T14:00:00Z,60.82,-78.15,-33.0,-37.0,120,17,,6.0,29.811024,1010.2,,,,,,,,,DRSN,FEW,8100,SCT,22000,,,,,VFR,,,,,,,,,,,,METAR,9.0
CYHU 171400Z AUTO 31004KT 9SM CLR M19/M25 A3047 RMK SLP321,CYHU,2019-01-17T14:00:00Z,45.52,-73.42,-19.0,-25.0,310,4,,9.0,30.469488,1032.1,,TRUE,,,,,,,,CLR,,,,,,,,VFR,,,,,,,,,,,,METAR,27.0
CYGR 171400Z 28023G31KT 1 3/4SM -SHSN BLSN OVC020 M11/M15 A2995 RMK SC8 CVCTV CLDS EMBD SLP145,CYGR,2019-01-17T14:00:00Z,47.42,-61.77,-11.0,-15.0,280,23,31,1.75,29.949802,1014.5,,,,,,,,,-SHSN BLSN,OVC,2000,,,,,,,IFR,,,,,,,,,,,,METAR,10.0
CYGP 171400Z 29012G21KT 15SM FEW100 M16/M23 A2994 RMK AC1 AC TR PRESRR SLP144,CYGP,2019-01-17T14:00:00Z,48.77,-64.47,-16.0,-23.0,290,12,21,15.0,29.940945,1014.4,,,,,,,,,,FEW,10000,,,,,,,VFR,,,,,,,,,,,,METAR,33.0
CYFT 171400Z 28003KT 250V320 2 1/2SM -SN OVC010 M16/M18 A2954 RMK SC8 SLP013,CYFT,2019-01-17T14:00:00Z,55.07,-59.17,-16.0,-18.0,280,3,,2.5,29.53937,1001.3,,,,,,,,,-SN,OVC,1000,,,,,,,IFR,,,,,,,,,,,,METAR,71.0
CYAM 171400Z 09003KT 080V150 20SM SCT032 BKN160 M11/M15 A3019 RMK CU4AC3 SLP242,CYAM,2019-01-17T14:00:00Z,46.47,-84.52,-11.0,-15.0,90,3,,20.0,30.188976,1024.2,,,,,,,,,,SCT,3200,BKN,16000,,,,,VFR,,,,,,,,,,,,METAR,192.0
CYWH 171400Z 04004KT 350V070 15SM FEW020 BKN050 OVC170 06/04 A2947 RMK SC2SC3AC3 SLP981,CYWH,2019-01-17T14:00:00Z,48.42,-123.38,6.0,4.0,40,4,,15.0,29.471457,998.1,,,,,,,,,,FEW,2000,BKN,5000,OVC,17000,,,VFR,,,,,,,,,,,,METAR,10.0
CYZY 171400Z AUTO 33007KT 9SM CLR M15/M21 A2991 RMK SLP186,CYZY,2019-01-17T14:00:00Z,55.28,-123.12,-15.0,-21.0,330,7,,9.0,29.911417,1018.6,,TRUE,,,,,,,,CLR,,,,,,,,VFR,,,,,,,,,,,,METAR,690.0
CYYF 171400Z 33005KT 10SM -SN FEW018 SCT032 OVC050 M00/M03 A2972 RMK SC2SC2SC4 SLP080,CYYF,2019-01-17T14:00:00Z,49.47,-119.58,0.0,-3.0,330,5,,10.0,29.719488,1008.0,,,,,,,,,-SN,FEW,1800,SCT,3200,OVC,5000,,,VFR,,,,,,,,,,,,METAR,344.0
CYYE 171400Z 11006KT 15SM -SN OVC042 M23/M26 A3031 RMK SC8 SLP313,CYYE,2019-01-17T14:00:00Z,58.82,-122.57,-23.0,-26.0,110,6,,15.0,30.31004,1031.3,,,,,,,,,-SN,OVC,4200,,,,,,,VFR,,,,,,,,,,,,METAR,382.0
CYYD 171400Z AUTO 19011KT 9SM OVC048 M03/M08 A2976 RMK SLP101,CYYD,2019-01-17T14:00:00Z,54.82,-127.18,-3.0,-8.0,190,11,,9.0,29.760826,1010.1,,TRUE,,,,,,,,OVC,4800,,,,,,,VFR,,,,,,,,,,,,METAR,523.0
CYXY 171400Z 19014KT 15SM OVC026 M10/M14 A2977 RMK SC8 SLP135,CYXY,2019-01-17T14:00:00Z,60.72,-135.07,-10.0,-14.0,190,14,,15.0,29.769686,1013.5,,,,,,,,,,OVC,2600,,,,,,,MVFR,,,,,,,,,,,,METAR,703.0
CYXT 171400Z 01018G25KT 15SM FEW240 M00/M05 A2965 RMK CI2 SLP053,CYXT,2019-01-17T14:00:00Z,54.47,-128.57,0.0,-5.0,10,18,25,15.0,29.648623,1005.3,,,,,,,,,,FEW,24000,,,,,,,VFR,,,,,,,,,,,,METAR,217.0
CYWL 171400Z 31006KT 10SM OVC038 M12/M13 A2962 RMK SC8 SLP094,CYWL,2019-01-17T14:00:00Z,52.18,-122.07,-12.0,-13.0,310,6,,10.0,29.619095,1009.4,,,,,,,,,,OVC,3800,,,,,,,VFR,,,,,,,,,,,,METAR,940.0
ULAA 171400Z 14001MPS 5000 BR OVC003 M11/M12 Q0989 R08/590137 NOSIG RMK QBB100 QFE740/0987,ULAA,2019-01-17T14:00:00Z,64.6,40.72,-11.0,-12.0,140,2,,3.11,29.202755,,,,,,TRUE,,,,BR,OVC,300,,,,,,,LIFR,,,,,,,,,,,,METAR,19.0
ULMM 171400Z 17001MPS CAVOK M14/M16 Q0989 R31/450145 NOSIG RMK QFE735,ULMM,2019-01-17T14:00:00Z,68.78,32.75,-14.0,-16.0,170,2,,6.21,29.202755,,,,,,TRUE,,,,,CAVOK,,,,,,,,VFR,,,,,,,,,,,,METAR,51.0
GGOV 171400Z 30007KT CAVOK 33/06 Q1011 NOSIG,GGOV,2019-01-17T14:00:00Z,11.87,-15.65,33.0,6.0,300,7,,6.21,29.852362,,,,,,TRUE,,,,,CAVOK,,,,,,,,VFR,,,,,,,,,,,,METAR,36.0
DNEN 171400Z 05005KT 8000 NSC 36/06 Q1009 NOSIG,DNEN,2019-01-17T14:00:00Z,6.47,7.53,36.0,6.0,50,5,,4.97,29.793306,,,,,,TRUE,,,,,CLR,,,,,,,,MVFR,,,,,,,,,,,,METAR,137.0
DNAA 171400Z 24003KT 4000 HZ NSC 35/03 Q1011 NOSIG,DNAA,2019-01-17T14:00:00Z,9.0,7.27,35.0,3.0,240,3,,2.49,29.852362,,,,,,TRUE,,,,HZ,CLR,,,,,,,,IFR,,,,,,,,,,,,METAR,344.0
DGAA 171400Z 19016KT 7000 FEW031 32/25 Q1009 NOSIG,DGAA,2019-01-17T14:00:00Z,5.58,-0.17,32.0,25.0,190,16,,4.35,29.793306,,,,,,TRUE,,,,,FEW,3100,,,,,,,MVFR,,,,,,,,,,,,METAR,69.0
DRZR 171400Z 12006KT 4000 DU NSC 30/M08 Q1014,DRZR,2019-01-17T14:00:00Z,13.77,8.97,30.0,-8.0,120,6,,2.49,29.940945,,,,,,,,,,DU,CLR,,,,,,,,IFR,,,,,,,,,,,,METAR,453.0
DRZA 171400Z 12014KT CAVOK 27/M05 Q1015,DRZA,2019-01-17T14:00:00Z,16.97,8.0,27.0,-5.0,120,14,,6.21,29.970472,,,,,,,,,,,CAVOK,,,,,,,,VFR,,,,,,,,,,,,METAR,502.0
DRRT 171400Z 18008KT CAVOK 32/M25 Q1012,DRRT,2019-01-17T14:00:00Z,14.9,5.25,32.0,-25.0,180,8,,6.21,29.88189,,,,,,,,,,,CAVOK,,,,,,,,VFR,,,,,,,,,,,,METAR,391.0
DRRN 171400Z 13006KT 070V160 CAVOK 36/M10 Q1010 NOSIG,DRRN,2019-01-17T14:00:00Z,13.47,2.17,36.0,-10.0,130,6,,6.21,29.822834,,,,,,TRUE,,,,,CAVOK,,,,,,,,VFR,,,,,,,,,,,,METAR,227.0
DRRM 171400Z 12010KT CAVOK 31/M04 Q1013,DRRM,2019-01-17T14:00:00Z,13.5,7.12,31.0,-4.0,120,10,,6.21,29.911417,,,,,,,,,,,CAVOK,,,,,,,,VFR,,,,,,,,,,,,METAR,373.0
VAJB 171400Z 00000KT 6000 NSC 18/06 Q1015,VAJB,2019-01-17T14:00:00Z,23.18,80.05,18.0,6.0,0,0,,3.73,29.970472,,,,,,,,,,,CLR,,,,,,,,MVFR,,,,,,,,,,,,METAR,494.0
VAUD 171400Z 00000KT 4000 HZ NSC 19/07 Q1016 NOSIG,VAUD,2019-01-17T14:00:00Z,24.6,73.9,19.0,7.0,0,0,,2.49,30.0,,,,,,TRUE,,,,HZ,CLR,,,,,,,,IFR,,,,,,,,,,,,METAR,514.0
LOAV 171400Z 17015KT 40KM FEW060CU 10/M00,LOAV,2019-01-17T14:00:00Z,47.97,16.27,10.0,0.0,170,15,,24.86,,,,,,,,,,,,FEW,6000,,,,,,,VFR,,,,,,,,,,,,METAR,233.0
LOAN 171400Z 12010KT 40KM FEW045CU,LOAN,2019-01-17T14:00:00Z,47.85,16.25,,,120,10,,24.86,,,,,,,,,,,,FEW,4500,,,,,,,VFR,,,,,,,,,,,,METAR,272.0
UMKK 171400Z 24008MPS 9999 BKN015 04/02 Q0993 R24/29//50 NOSIG RMK QFE744/0992,UMKK,2019-01-17T14:00:00Z,54.88,20.6,4.0,2.0,240,16,,6.21,29.320866,,,,,,TRUE,,,,,BKN,1500,,,,,,,MVFR,,,,,,,,,,,,METAR,21.0
ULOO 171400Z AUTO 20008MPS 7000 // ///009/// 02/01 Q0982 RMK QFE732,ULOO,2019-01-17T14:00:00Z,57.78,28.4,2.0,1.0,200,16,,4.35,28.996063,,,TRUE,,,,,,,,,,,,,,,,,,,,,,,,,,,,SPECI,47.0
UUYY 171400Z 19004MPS 9000 -SHSN BKN019CB M07/M09 Q0994 R18/450337 NOSIG RMK QFE737/0983,UUYY,2019-01-17T14:00:00Z,61.65,50.82,-7.0,-9.0,190,8,,5.59,29.350393,,,,,,TRUE,,,,-SHSN,BKN,1900,,,,,,,MVFR,,,,,,,,,,,,METAR,119.0
UUOO 171400Z 18003MPS 9000 BKN030 M05/M09 Q1012 R30/090050 NOSIG RMK QFE746,UUOO,2019-01-17T14:00:00Z,51.82,39.23,-5.0,-9.0,180,6,,5.59,29.88189,,,,,,TRUE,,,,,BKN,3000,,,,,,,MVFR,,,,,,,,,,,,METAR,157.0
FKKL 171400Z 04005KT 310V120 CAVOK 32/M03 Q1012,FKKL,2019-01-17T14:00:00Z,10.45,14.25,32.0,-3.0,40,5,,6.21,29.88189,,,,,,,,,,,CAVOK,,,,,,,,VFR,,,,,,,,,,,,METAR,424.0
FEFF 171400Z 23004KT CAVOK 33/04 Q1008 NOSIG,FEFF,2019-01-17T14:00:00Z,4.4,18.52,33.0,4.0,230,4,,6.21,29.763779,,,,,,TRUE,,,,,CAVOK,,,,,,,,VFR,,,,,,,,,,,,METAR,366.0
CWRF 171400Z AUTO 01013KT M35/ A2980 RMK SLP156,CWRF,2019-01-17T14:00:00Z,69.42,-89.72,-35.0,,10,13,,,29.799213,1015.6,,TRUE,,,,,,,,,,,,,,,,,,,,,,,,,,,,METAR,325.0
CZCP 171400Z AUTO 09016KT ////SM //// SCT230 M21/M23 A3057,CZCP,2019-01-17T14:00:00Z,70.17,-124.72,-21.0,-23.0,90,16,,,30.569881,,,TRUE,,,,,,,,SCT,23000,,,,,,,,,,,,,,,,,,,METAR,93.0
FKKR 171400Z VRB03KT CAVOK 34/M03 Q1011 NOSIG,FKKR,2019-01-17T14:00:00Z,9.32,13.37,34.0,-3.0,0,3,,6.21,29.852362,,,,,,TRUE,,,,,CAVOK,,,,,,,,VFR,,,,,,,,,,,,METAR,244.0
HDAM 171400Z 09006KT CAVOK 28/21 Q1013,HDAM,2019-01-17T14:00:00Z,11.55,43.17,28.0,21.0,90,6,,6.21,29.911417,,,,,,,,,,,CAVOK,,,,,,,,VFR,,,,,,,,,,,,METAR,49.0
OEWD 171400Z 36012KT CAVOK 29/09 Q1013 NOSIG,OEWD,2019-01-17T14:00:00Z,20.5,45.2,29.0,9.0,360,12,,6.21,29.911417,,,,,,TRUE,,,,,CAVOK,,,,,,,,VFR,,,,,,,,,,,,METAR,617.0
OETR 171400Z 26020KT 5000 BLSA SCT030 BKN100 09/05 Q1015,OETR,2019-01-17T14:00:00Z,31.7,38.73,9.0,5.0,260,20,,3.11,29.970472,,,,,,,,,,BLSA,SCT,3000,BKN,10000,,,,,MVFR,,,,,,,,,,,,METAR,855.0
OETF 171400Z 30010KT CAVOK 22/02 Q1020 NOSIG,OETF,2019-01-17T14:00:00Z,21.47,40.53,22.0,2.0,300,10,,6.21,30.11811,,,,,,TRUE,,,,,CAVOK,,,,,,,,VFR,,,,,,,,,,,,METAR,1449.0
OETB 171400Z 26003KT CAVOK 14/M08 Q1019 NOSIG,OETB,2019-01-17T14:00:00Z,28.37,36.62,14.0,-8.0,260,3,,6.21,30.088583,,,,,,TRUE,,,,,CAVOK,,,,,,,,VFR,,,,,,,,,,,,METAR,770.0
OESK 171400Z 28026KT 4000 BLDU SKC 13/M02 Q1019,OESK,2019-01-17T14:00:00Z,29.77,40.1,13.0,-2.0,280,26,,2.49,30.088583,,,,,,,,,,BLDU,SKC,,,,,,,,IFR,,,,,,,,,,,,METAR,684.0
OESH 171400Z 00000KT CAVOK 33/00 Q1012 NOSIG,OESH,2019-01-17T14:00:00Z,17.47,47.12,33.0,0.0,0,0,,6.21,29.88189,,,,,,TRUE,,,,,CAVOK,,,,,,,,VFR,,,,,,,,,,,,METAR,722.0
OERF 171400Z 29019KT 5000 BLDU SKC 16/M03 Q1015 NOSIG,OERF,2019-01-17T14:00:00Z,29.62,43.47,16.0,-3.0,290,19,,3.11,29.970472,,,,,,TRUE,,,,BLDU,SKC,,,,,,,,MVFR,,,,,,,,,,,,METAR,447.0
OEPA 171400Z 30016KT 1500 BLDU SKC 15/00 Q1017 NOSIG,OEPA,2019-01-17T14:00:00Z,28.32,46.12,15.0,0.0,300,16,,0.93,30.029528,,,,,,TRUE,,,,BLDU,SKC,,,,,,,,LIFR,,,,,,,,,,,,METAR,355.0
OENG 171400Z 09007KT CAVOK 31/M02 Q1015 NOSIG,OENG,2019-01-17T14:00:00Z,17.62,44.42,31.0,-2.0,90,7,,6.21,29.970472,,,,,,TRUE,,,,,CAVOK,,,,,,,,VFR,,,,,,,,,,,,METAR,1203.0
OEKM 171400Z 23010KT CAVOK 20/09 Q1024 NOSIG,OEKM,2019-01-17T14:00:00Z,18.3,42.78,20.0,9.0,230,10,,6.21,30.236221,,,,,,TRUE,,,,,CAVOK,,,,,,,,VFR,,,,,,,,,,,,METAR,2054.0
DFFD 171400Z 15006KT 090V240 CAVOK 37/M07 Q1010 NOSIG,DFFD,2019-01-17T14:00:00Z,12.33,-1.52,37.0,-7.0,150,6,,6.21,29.822834,,,,,,TRUE,,,,,CAVOK,,,,,,,,VFR,,,,,,,,,,,,METAR,306.0
DFOO 171400Z 09005KT 050V150 CAVOK 35/02 Q1011,DFOO,2019-01-17T14:00:00Z,11.17,-4.32,35.0,2.0,90,5,,6.21,29.852362,,,,,,,,,,,CAVOK,,,,,,,,VFR,,,,,,,,,,,,METAR,460.0
FTTA 171400Z 32006KT CAVOK 37/M02 Q1010,FTTA,2019-01-17T14:00:00Z,9.15,18.37,37.0,-2.0,320,6,,6.21,29.822834,,,,,,,,,,,CAVOK,,,,,,,,VFR,,,,,,,,,,,,METAR,365.0
FTTD 171400Z 36006KT CAVOK 33/16 Q1011,FTTD,2019-01-17T14:00:00Z,8.62,16.07,33.0,16.0,360,6,,6.21,29.852362,,,,,,,,,,,CAVOK,,,,,,,,VFR,,,,,,,,,,,,METAR,422.0
FTTY 171400Z 04012KT CAVOK 25/M08 Q1016,FTTY,2019-01-17T14:00:00Z,18.0,19.17,25.0,-8.0,40,12,,6.21,30.0,,,,,,,,,,,CAVOK,,,,,,,,VFR,,,,,,,,,,,,METAR,234.0
FTTJ 171400Z 31007KT 310V040 CAVOK 32/M10 Q1011 NOSIG,FTTJ,2019-01-17T14:00:00Z,12.12,15.02,32.0,-10.0,310,7,,6.21,29.852362,,,,,,TRUE,,,,,CAVOK,,,,,,,,VFR,,,,,,,,,,,,METAR,295.0
DBBB 171400Z 21012KT 7000 SCT012 32/26 Q1009 NOSIG,DBBB,2019-01-17T14:00:00Z,6.33,2.37,32.0,26.0,210,12,,4.35,29.793306,,,,,,TRUE,,,,,SCT,1200,,,,,,,MVFR,,,,,,,,,,,,METAR,9.0
DNMN 171400Z 24006KT 5000 HZ NSC 36/09 Q1006,DNMN,2019-01-17T14:00:00Z,9.65,6.47,36.0,9.0,240,6,,3.11,29.704725,,,,,,,,,,HZ,CLR,,,,,,,,MVFR,,,,,,,,,,,,METAR,254.0
DXNG 171400Z VRB05KT CAVOK 35/M04 Q1012,DXNG,2019-01-17T14:00:00Z,9.77,1.1,35.0,-4.0,0,5,,6.21,29.88189,,,,,,,,,,,CAVOK,,,,,,,,VFR,,,,,,,,,,,,METAR,343.0
DXXX 171400Z 20011KT 9999 FEW015 33/25 Q1009 NOSIG,DXXX,2019-01-17T14:00:00Z,6.17,1.25,33.0,25.0,200,11,,6.21,29.793306,,,,,,TRUE,,,,,FEW,1500,,,,,,,VFR,,,,,,,,,,,,METAR,25.0
DNGO 171400Z 09011KT CAVOK 33/M11 Q1012,DNGO,2019-01-17T14:00:00Z,10.28,10.9,33.0,-11.0,90,11,,6.21,29.88189,,,,,,,,,,,CAVOK,,,,,,,,VFR,,,,,,,,,,,,METAR,469.0
DNMM 171400Z 16009KT 8000 BKN015 34/26 Q1010 NOSIG,DNMM,2019-01-17T14:00:00Z,6.57,3.32,34.0,26.0,160,9,,4.97,29.822834,,,,,,TRUE,,,,,BKN,1500,,,,,,,MVFR,,,,,,,,,,,,METAR,38.0
SARL 171400Z 14025KT 2000 +TSRA BKN006 OVC035 FEW045CB 22/22 Q1012,SARL,2019-01-17T14:00:00Z,-29.67,-57.13,22.0,22.0,140,25,,1.24,29.88189,,,,,,,,,,+TSRA,BKN,600,OVC,3500,FEW,4500,,,IFR,,,,,,,,,,,,METAR,70.0
CYHA 171400Z 34006KT 3SM IC OVC035 M21/M25 A2972 RMK SC8 SLP071,CYHA,2019-01-17T14:00:00Z,61.03,-69.62,-21.0,-25.0,340,6,,3.0,29.719488,1007.1,,,,,,,,,IC,OVC,3500,,,,,,,MVFR,,,,,,,,,,,,SPECI,30.0
CYDA 171400Z CCB 24003KT 220V290 15SM -FZDZ -SN BKN015 OVC027 M12/M13 A2989 RMK ST7SC1 CLIMAT -11.6/-13.2/0.4 MM/0.2 CM/0.2 MWE 47039 FROIN AND ICE ON INDICATOR SLP158,CYDA,2019-01-17T14:00:00Z,64.03,-139.12,-12.0,-13.0,240,3,,15.0,29.890747,1015.8,,,,,,,,,-FZDZ -SN,BKN,1500,OVC,2700,,,,,MVFR,,,,,,,,,,,,SPECI,369.0
CYOJ 171400Z 00000KT 10SM IC SKC M37/M41 A3044 RMK SLP364,CYOJ,2019-01-17T14:00:00Z,58.62,-117.17,-37.0,-41.0,0,0,,10.0,30.43996,1036.4,,,,,,,,,IC,SKC,,,,,,,,VFR,,,,,,,,,,,,SPECI,338.0
CYSJ 171400Z 32017G22KT 15SM DRSN FEW020 M16/M22 A3021 RMK CU1 OBS TAKEN +11 SLP239,CYSJ,2019-01-17T14:00:00Z,45.32,-65.87,-16.0,-22.0,320,17,22,15.0,30.209646,1023.9,,,,,,,,,DRSN,FEW,2000,,,,,,,VFR,,,,,,,,,,,,SPECI,109.0
CZFM 171400Z VRB02KT 10SM -SN OVC032 M26/M29 A3027 RMK SC8 0.0/2/SN CVR/MUCH LOOSE SLP259,CZFM,2019-01-17T14:00:00Z,67.4,-134.87,-26.0,-29.0,0,2,,10.0,30.268702,1025.9,,,,,,,,,-SN,OVC,3200,,,,,,,VFR,,,,,,,,,,,,SPECI,43.0
HUEN 171400Z 18012KT 9999 FEW022 FEW024CB 26/21 Q1014,HUEN,2019-01-17T14:00:00Z,0.03,32.45,26.0,21.0,180,12,,6.21,29.940945,,,,,,,,,,,FEW,2200,FEW,2400,,,,,VFR,,,,,,,,,,,,METAR,1155.0
HRYR 171400Z 15005KT 120V180 9999 SCT025 25/15 Q1016 NOSIG,HRYR,2019-01-17T14:00:00Z,-1.97,30.12,25.0,15.0,150,5,,6.21,30.0,,,,,,TRUE,,,,,SCT,2500,,,,,,,VFR,,,,,,,,,,,,METAR,1497.0
HKNW 171400Z 08015KT 9999 SCT029 27/12 Q1017,HKNW,2019-01-17T14:00:00Z,-1.32,36.82,27.0,12.0,80,15,,6.21,30.029528,,,,,,,,,,,SCT,2900,,,,,,,VFR,,,,,,,,,,,,METAR,1679.0
HKJK 171400Z 08014KT 9999 SCT028 28/12 Q1017 NOSIG,HKJK,2019-01-17T14:00:00Z,-1.32,36.92,28.0,12.0,80,14,,6.21,30.029528,,,,,,TRUE,,,,,SCT,2800,,,,,,,VFR,,,,,,,,,,,,METAR,1624.0
NGFU 171400Z 01005KT 9999 FEW019TCU BKN300 29/25 Q1006,NGFU,2019-01-17T14:00:00Z,-8.52,179.22,29.0,25.0,10,5,,6.21,29.704725,,,,,,,,,,,FEW,1900,BKN,30000,,,,,VFR,,,,,,,,,,,,METAR,1.0
NVVV 171400Z 12011KT 9999 SCT020 25/24 Q1008 RMKS NIL,NVVV,2019-01-17T14:00:00Z,-17.68,168.3,25.0,24.0,120,11,,6.21,29.763779,,,,,,,,,,,SCT,2000,,,,,,,VFR,,,,,,,,,,,,METAR,21.0
TDCF 171400Z 29003KT 9999 FEW023 29/19 Q1018,TDCF,2019-01-17T14:00:00Z,15.33,-61.4,29.0,19.0,290,3,,6.21,30.059055,,,,,,,,,,,FEW,2300,,,,,,,VFR,,,,,,,,,,,,METAR,5.0
FDSK 171400Z 18010KT 9999 BKN030 28/19 Q1010 NOSIG,FDSK,2019-01-17T14:00:00Z,-26.35,31.72,28.0,19.0,180,10,,6.21,29.822834,,,,,,TRUE,,,,,BKN,3000,,,,,,,MVFR,,,,,,,,,,,,METAR,324.0
VTUO 171400Z AUTO 05012KT ////NDV // ////// 25/17 Q1016 A3000,VTUO,2019-01-17T14:00:00Z,15.23,103.25,25.0,17.0,50,12,,,30.0,,,TRUE,,,,,,,,,,,,,,,,,,,,,,,,,,,,SPECI,183.0
VILK 171400Z VRB02KT 1000 R27/2000 RMID/2000 R09/2000 HZ NSC 16/09 Q1015 NOSIG,VILK,2019-01-17T14:00:00Z,26.75,80.87,16.0,9.0,0,2,,0.62,29.970472,,,,,,TRUE,,,,HZ,CLR,,,,,,,,LIFR,,,,,,,,,,,,SPECI,128.0
SBPR 171400Z 35007KT 9999 BKN030 29/20 Q1022,SBPR,2019-01-17T14:00:00Z,-19.9,-43.98,29.0,20.0,350,7,,6.21,30.177166,,,,,,,,,,,BKN,3000,,,,,,,MVFR,,,,,,,,,,,,METAR,927.0
SBMT 171400Z 28005KT 240V310 CAVOK 29/19 Q1020,SBMT,2019-01-17T14:00:00Z,-23.52,-46.62,29.0,19.0,280,5,,6.21,30.11811,,,,,,,,,,,CAVOK,,,,,,,,VFR,,,,,,,,,,,,METAR,722.0
SBMK 171400Z 17008KT 130V230 9999 SCT045 31/16 Q1020,SBMK,2019-01-17T14:00:00Z,-16.7,-43.82,31.0,16.0,170,8,,6.21,30.11811,,,,,,,,,,,SCT,4500,,,,,,,VFR,,,,,,,,,,,,METAR,646.0
SBLS 171400Z VRB04KT 9999 SCT025 26/18 Q1022,SBLS,2019-01-17T14:00:00Z,-19.67,-43.88,26.0,18.0,0,4,,6.21,30.177166,,,,,,,,,,,SCT,2500,,,,,,,VFR,,,,,,,,,,,,METAR,852.0
SBJR 171400Z 12002KT CAVOK 36/21 Q1013,SBJR,2019-01-17T14:00:00Z,-22.97,-43.37,36.0,21.0,120,2,,6.21,29.911417,,,,,,,,,,,CAVOK,,,,,,,,VFR,,,,,,,,,,,,METAR,3.0
SBIP 171400Z 07011KT 9999 SCT025 31/21 Q1018,SBIP,2019-01-17T14:00:00Z,-19.47,-42.48,31.0,21.0,70,11,,6.21,30.059055,,,,,,,,,,,SCT,2500,,,,,,,VFR,,,,,,,,,,,,METAR,239.0
SBGW 171400Z 24002KT 9999 FEW030 30/20 Q1018,SBGW,2019-01-17T14:00:00Z,-22.77,-45.2,30.0,20.0,240,2,,6.21,30.059055,,,,,,,,,,,FEW,3000,,,,,,,VFR,,,,,,,,,,,,METAR,533.0
SBFS 171400Z /////KT CAVOK ///// Q////,SBFS,2019-01-17T14:00:00Z,-22.02,-41.07,,,,,,6.21,,,,,,,,,,,,CAVOK,,,,,,,,VFR,,,,,,,,,,,,METAR,3.0
SBES 171400Z 18007KT CAVOK 35/20 Q1013,SBES,2019-01-17T14:00:00Z,-22.82,-42.1,35.0,20.0,180,7,,6.21,29.911417,,,,,,,,,,,CAVOK,,,,,,,,VFR,,,,,,,,,,,,METAR,11.0
SBDN 171400Z 03005KT CAVOK 33/17 Q1017,SBDN,2019-01-17T14:00:00Z,-22.18,-51.43,33.0,17.0,30,5,,6.21,30.029528,,,,,,,,,,,CAVOK,,,,,,,,VFR,,,,,,,,,,,,METAR,435.0
SBBU 171400Z 35004KT CAVOK 29/22 Q1019,SBBU,2019-01-17T14:00:00Z,-22.32,-49.07,29.0,22.0,350,4,,6.21,30.088583,,,,,,,,,,,CAVOK,,,,,,,,VFR,,,,,,,,,,,,METAR,590.0
SBBQ 171400Z 33007KT 9999 FEW025 29/16 Q1024,SBBQ,2019-01-17T14:00:00Z,-21.25,-43.77,29.0,16.0,330,7,,6.21,30.236221,,,,,,,,,,,FEW,2500,,,,,,,VFR,,,,,,,,,,,,METAR,1171.0
SBBH 171400Z 01005KT 9999 FEW025 SCT100 29/18 Q1021,SBBH,2019-01-17T14:00:00Z,-19.85,-43.95,29.0,18.0,10,5,,6.21,30.147638,,,,,,,,,,,FEW,2500,SCT,10000,,,,,VFR,,,,,,,,,,,,METAR,785.0
SBAX 171400Z 06007KT CAVOK 26/15 Q1022,SBAX,2019-01-17T14:00:00Z,-19.57,-46.97,26.0,15.0,60,7,,6.21,30.177166,,,,,,,,,,,CAVOK,,,,,,,,VFR,,,,,,,,,,,,METAR,998.0
SBAF 171400Z VRB05KT CAVOK 34/20 Q1014,SBAF,2019-01-17T14:00:00Z,-22.87,-43.37,34.0,20.0,0,5,,6.21,29.940945,,,,,,,,,,,CAVOK,,,,,,,,VFR,,,,,,,,,,,,METAR,34.0
SBUF 171400Z 08005KT 9999 BKN020 29/21 Q1016,SBUF,2019-01-17T14:00:00Z,-9.4,-38.25,29.0,21.0,80,5,,6.21,30.0,,,,,,,,,,,BKN,2000,,,,,,,MVFR,,,,,,,,,,,,METAR,252.0
SBQV 171400Z 12008KT 9999 BKN030 25/17 Q1022,SBQV,2019-01-17T14:00:00Z,-14.87,-40.87,25.0,17.0,120,8,,6.21,30.177166,,,,,,,,,,,BKN,3000,,,,,,,MVFR,,,,,,,,,,,,METAR,893.0
SBMS 171400Z 15006KT 9999 BKN025 35/22 Q1012,SBMS,2019-01-17T14:00:00Z,-5.2,-37.37,35.0,22.0,150,6,,6.21,29.88189,,,,,,,,,,,BKN,2500,,,,,,,MVFR,,,,,,,,,,,,METAR,18.0
SBLE 171400Z 06007KT 9999 BKN040 28/19 Q1018,SBLE,2019-01-17T14:00:00Z,-12.48,-41.28,28.0,19.0,60,7,,6.21,30.059055,,,,,,,,,,,BKN,4000,,,,,,,VFR,,,,,,,,,,,,METAR,511.0
SBKG 171400Z 12010KT 9999 BKN030 29/19 Q1016,SBKG,2019-01-17T14:00:00Z,-7.27,-35.87,29.0,19.0,120,10,,6.21,30.0,,,,,,,,,,,BKN,3000,,,,,,,MVFR,,,,,,,,,,,,METAR,560.0
SBJU 171400Z 14003KT 9999 SCT018 SCT070 28/23 Q1018,SBJU,2019-01-17T14:00:00Z,-7.22,-39.27,28.0,23.0,140,3,,6.21,30.059055,,,,,,,,,,,SCT,1800,SCT,7000,,,,,VFR,,,,,,,,,,,,METAR,409.0
SBIL 171400Z 08010KT 9999 SCT020 SCT040 BKN070 30/24 Q1016,SBIL,2019-01-17T14:00:00Z,-14.8,-39.02,30.0,24.0,80,10,,6.21,30.0,,,,,,,,,,,SCT,2000,SCT,4000,BKN,7000,,,VFR,,,,,,,,,,,,METAR,5.0
SBSM 171400Z 12006KT 090V150 9999 TS BKN010 SCT025 FEW040CB BKN100 25/24 Q1014,SBSM,2019-01-17T14:00:00Z,-29.72,-53.7,25.0,24.0,120,6,,6.21,29.940945,,,,,,,,,,TS,BKN,1000,SCT,2500,FEW,4000,BKN,10000,MVFR,,,,,,,,,,,,METAR,85.0
SBPG 171400Z 28006KT CAVOK 29/20 Q1019,SBPG,2019-01-17T14:00:00Z,-25.52,-48.52,29.0,20.0,280,6,,6.21,30.088583,,,,,,,,,,,CAVOK,,,,,,,,VFR,,,,,,,,,,,,METAR,4.0
SBPF 171400Z 35008KT 9999 SCT030 SCT035 27/18 Q1017,SBPF,2019-01-17T14:00:00Z,-28.25,-52.33,27.0,18.0,350,8,,6.21,30.029528,,,,,,,,,,,SCT,3000,SCT,3500,,,,,VFR,,,,,,,,,,,,METAR,684.0
SBMG 171400Z 36010KT 9999 FEW030 30/24 Q1017,SBMG,2019-01-17T14:00:00Z,-23.48,-52.02,30.0,24.0,360,10,,6.21,30.029528,,,,,,,,,,,FEW,3000,,,,,,,VFR,,,,,,,,,,,,METAR,542.0
SBJV 171400Z 11005KT 9999 FEW040TCU 35/25 Q1012,SBJV,2019-01-17T14:00:00Z,-26.22,-48.8,35.0,25.0,110,5,,6.21,29.88189,,,,,,,,,,,FEW,4000,,,,,,,VFR,,,,,,,,,,,,METAR,4.0
SBCX 171400Z 30010KT CAVOK 25/20 Q1018,SBCX,2019-01-17T14:00:00Z,-29.2,-51.18,25.0,20.0,300,10,,6.21,30.059055,,,,,,,,,,,CAVOK,,,,,,,,VFR,,,,,,,,,,,,METAR,754.0
SBCO 171400Z 13006KT 9999 SCT015 OVC028 26/24 Q1014,SBCO,2019-01-17T14:00:00Z,-29.95,-51.15,26.0,24.0,130,6,,6.21,29.940945,,,,,,,,,,,SCT,1500,OVC,2800,,,,,MVFR,,,,,,,,,,,,METAR,47.0
SBCH 171400Z 35012KT 9999 FEW030 30/24 Q1017,SBCH,2019-01-17T14:00:00Z,-27.13,-52.67,30.0,24.0,350,12,,6.21,30.029528,,,,,,,,,,,FEW,3000,,,,,,,VFR,,,,,,,,,,,,METAR,650.0
SBCA 171400Z 01022KT 9999 FEW020 30/20 Q1019,SBCA,2019-01-17T14:00:00Z,-25.0,-53.5,30.0,20.0,10,22,,6.21,30.088583,,,,,,,,,,,FEW,2000,,,,,,,VFR,,,,,,,,,,,,METAR,754.0
SBBI 171400Z VRB02KT 9999 SCT040 29/20 Q1020,SBBI,2019-01-17T14:00:00Z,-25.4,-49.23,29.0,20.0,0,2,,6.21,30.11811,,,,,,,,,,,SCT,4000,,,,,,,VFR,,,,,,,,,,,,METAR,923.0
MGMT 171400Z 05010KT CAVOK 29/17 QFE 1012.7,MGMT,2019-01-17T14:00:00Z,,,29.0,17.0,50,10,,6.21,,,,,,,,,,,,CAVOK,,,,,,,,VFR,,,,,,,,,,,,METAR,
MGES 171400Z 00000KT 8000 -DZ OVC010 16/16 QFE 913.0 MTN T.D. CUB/CL,MGES,2019-01-17T14:00:00Z,14.57,-89.32,16.0,16.0,0,0,,4.97,,,,,,,,,,,-DZ,OVC,1000,,,,,,,MVFR,,,,,,,,,,,,METAR,965.0
MGZA 171400Z 00000KT 9999 BKN030 SCT080 22/19 QFE 994/7,MGZA,2019-01-17T14:00:00Z,14.97,-89.52,22.0,19.0,0,0,,6.21,,,,,,,,,,,,BKN,3000,SCT,8000,,,,,MVFR,,,,,,,,,,,,METAR,490.0
MGCB 171400Z 00000KT 4000 -DZ BR FEW008 OVC014 14/13 QFE 875.3,MGCB,2019-01-17T14:00:00Z,15.48,-90.42,14.0,13.0,0,0,,2.49,,,,,,,,,,,-DZ BR,FEW,800,OVC,1400,,,,,IFR,,,,,,,,,,,,METAR,1316.0
MGQZ 171400Z 36004KT CAVOK 08/05 QFE 775/8,MGQZ,2019-01-17T14:00:00Z,14.87,-91.5,8.0,5.0,360,4,,6.21,,,,,,,,,,,,CAVOK,,,,,,,,VFR,,,,,,,,,,,,METAR,2371.0
MGRT 171400Z 00000KT CAVOK 23/19 Q1017 A3003 VOL. STA. MARIA Y SANTIAGUITO EN ACTIVIDAD,MGRT,2019-01-17T14:00:00Z,14.53,-91.7,23.0,19.0,0,0,,6.21,30.029528,,,,,,,,,,SA,CAVOK,,,,,,,,VFR,,,,,,,,,,,,METAR,200.0
MGSJ 171400Z 00000KT CAVOK 22/22 Q1015 A2997,MGSJ,2019-01-17T14:00:00Z,13.92,-90.83,22.0,22.0,0,0,,6.21,29.970472,,,,,,,,,,,CAVOK,,,,,,,,VFR,,,,,,,,,,,,METAR,9.0
MGPB 171400Z 27004KT 8000 RA SCT010 BKN090 21/21 Q1020 A3012,MGPB,2019-01-17T14:00:00Z,15.72,-88.58,21.0,21.0,270,4,,4.97,30.11811,,,,,,,,,,RA,SCT,1000,BKN,9000,,,,,MVFR,,,,,,,,,,,,METAR,10.0
MGHT 171400Z 00000KT 9999 BKN015 10/08 MTN N CUB/CL,MGHT,2019-01-17T14:00:00Z,15.32,-91.5,10.0,8.0,0,0,,6.21,,,,,,,,,,,,BKN,1500,,,,,,,MVFR,,,,,,,,,,,,METAR,1901.0
MGMM 171400Z 11004KT 9999 FEW008 19/18 Q1022 A3018,MGMM,2019-01-17T14:00:00Z,16.97,-89.87,19.0,18.0,110,4,,6.21,30.177166,,,,,,,,,,,FEW,800,,,,,,,VFR,,,,,,,,,,,,METAR,123.0
FKKN 171400Z 32008KT 8000 NSC 31/03 Q1014,FKKN,2019-01-17T14:00:00Z,7.33,13.57,31.0,3.0,320,8,,4.97,29.940945,,,,,,,,,,,CLR,,,,,,,,MVFR,,,,,,,,,,,,METAR,1104.0
FKYS 171400Z /////KT 6000 SCT023 31/20 Q1012 NOSIG,FKYS,2019-01-17T14:00:00Z,3.82,11.52,31.0,20.0,,,,3.73,29.88189,,,,,,TRUE,,,,,SCT,2300,,,,,,,MVFR,,,,,,,,,,,,METAR,760.0
FYWW 171400Z 29004KT 9999 FEW045CB SCT050 33/08 Q1018,FYWW,2019-01-17T14:00:00Z,-22.57,17.1,33.0,8.0,290,4,,6.21,30.059055,,,,,,,,,,,FEW,4500,SCT,5000,,,,,VFR,,,,,,,,,,,,METAR,1725.0
FYRN 171400Z 36008KT 9999 SHGRRA FEW035CB SCT045TCU 33/16 Q1013,FYRN,2019-01-17T14:00:00Z,-20.02,13.85,33.0,16.0,360,8,,6.21,29.911417,,,,,,,,,,SHGR SHRA,FEW,3500,SCT,4500,,,,,VFR,,,,,,,,,,,,METAR,756.0
FYOW 171400Z AUTO 09003KT //// // ////// 35/07 Q1013,FYOW,2019-01-17T14:00:00Z,-20.43,16.67,35.0,7.0,90,3,,,29.911417,,,TRUE,,,,,,,,,,,,,,,,,,,,,,,,,,,,METAR,1481.0
FYOO 171400Z AUTO 00000KT //// // ////// 36/14 Q1012,FYOO,2019-01-17T14:00:00Z,-19.15,15.92,36.0,14.0,0,0,,,29.88189,,,TRUE,,,,,,,,,,,,,,,,,,,,,,,,,,,,METAR,1192.0
FYGB 171400Z AUTO 09003KT //// // ////// 39/06 Q1018,FYGB,2019-01-17T14:00:00Z,-22.5,18.97,39.0,6.0,90,3,,,30.059055,,,TRUE,,,,,,,,,,,,,,,,,,,,,,,,,,,,METAR,1442.0
FGSL 171400Z 34004KT 240V040 8000 FEW010 33/24 Q1009 NOSIG,FGSL,2019-01-17T14:00:00Z,3.75,8.72,33.0,24.0,340,4,,4.97,29.793306,,,,,,TRUE,,,,,FEW,1000,,,,,,,MVFR,,,,,,,,,,,,METAR,56.0
FAWK 171400Z AUTO 29007KT //// // ////// ///// Q1017,FAWK,2019-01-17T14:00:00Z,-25.82,28.22,,,290,7,,,30.029528,,,TRUE,,,,,,,,,,,,,,,,,,,,,,,,,,,,METAR,1500.0
FYWH 171400Z 20005KT 9999 VC RA FEW050CB SCT060 34/02 Q1018 NOSIG,FYWH,2019-01-17T14:00:00Z,-22.47,17.47,34.0,2.0,200,5,,6.21,30.059055,,,,,,TRUE,,,,VC RA,FEW,5000,SCT,6000,,,,,VFR,,,,,,,,,,,,METAR,1700.0
FYWB 171400Z AUTO 27010KT //// // ////// 25/14 Q1012,FYWB,2019-01-17T14:00:00Z,-22.98,14.65,25.0,14.0,270,10,,,29.88189,,,TRUE,,,,,,,,,,,,,,,,,,,,,,,,,,,,METAR,46.0
FYOA 171400Z 29002KT 9999 SCT050 36/12 Q1011,FYOA,2019-01-17T14:00:00Z,-17.88,15.97,36.0,12.0,290,2,,6.21,29.852362,,,,,,,,,,,SCT,5000,,,,,,,VFR,,,,,,,,,,,,METAR,1095.0
FYKT 171400Z AUTO 23007KT //// // ////// 38/M04 Q1012,FYKT,2019-01-17T14:00:00Z,-26.52,18.12,38.0,-4.0,230,7,,,29.88189,,,TRUE,,,,,,,,,,,,,,,,,,,,,,,,,,,,METAR,1061.0
FQLC 171400Z 33003KT 270V060 9999 SCT010 BKN016 FEW020CB BKN070 21/17 Q//// RMK CB TO ALL/D,FQLC,2019-01-17T14:00:00Z,-13.27,35.25,21.0,17.0,330,3,,6.21,,,,,,,,,,,,SCT,1000,BKN,1600,FEW,2000,BKN,7000,MVFR,,,,,,,,,,,,METAR,1365.0
YSNW 171400Z AUTO 21005KT 9999 // SCT022 BKN027 23/21 Q1014,YSNW,2019-01-17T14:00:00Z,-34.95,150.52,23.0,21.0,210,5,,6.21,29.940945,,,TRUE,,,,,,,,SCT,2200,BKN,2700,,,,,MVFR,,,,,,,,,,,,METAR,110.0
YRMD 171400Z AUTO 11009KT 9999 // NCD 31/10 Q1008,YRMD,2019-01-17T14:00:00Z,-20.7,143.12,31.0,10.0,110,9,,6.21,29.763779,,,TRUE,,,,,,,,CLR,,,,,,,,VFR,,,,,,,,,,,,METAR,207.0
YBPN 171400Z AUTO 10005KT 9999 // NCD 24/21 Q1011,YBPN,2019-01-17T14:00:00Z,-20.5,148.55,24.0,21.0,100,5,,6.21,29.852362,,,TRUE,,,,,,,,CLR,,,,,,,,VFR,,,,,,,,,,,,METAR,25.0
YBOK 171400Z AUTO 07008KT 9999 // NCD 21/15 Q1015,YBOK,2019-01-17T14:00:00Z,-27.42,151.72,21.0,15.0,70,8,,6.21,29.970472,,,TRUE,,,,,,,,CLR,,,,,,,,VFR,,,,,,,,,,,,METAR,407.0
YBNA 171400Z AUTO 01008KT 9999 // NCD 23/19 Q1013,YBNA,2019-01-17T14:00:00Z,-28.83,153.57,23.0,19.0,10,8,,6.21,29.911417,,,TRUE,,,,,,,,CLR,,,,,,,,VFR,,,,,,,,,,,,METAR,2.0
YBMK 171400Z AUTO 09009KT 9999 // SCT022 26/21 Q1011,YBMK,2019-01-17T14:00:00Z,-21.17,149.17,26.0,21.0,90,9,,6.21,29.852362,,,TRUE,,,,,,,,SCT,2200,,,,,,,VFR,,,,,,,,,,,,METAR,31.0
YBHI 171400Z AUTO 29005KT 9999 // NCD 36/07 Q1006,YBHI,2019-01-17T14:00:00Z,-32.0,141.47,36.0,7.0,290,5,,6.21,29.704725,,,TRUE,,,,,,,,CLR,,,,,,,,VFR,,,,,,,,,,,,METAR,292.0
YPBO 171400Z AUTO 04016KT 9999 // NCD 31/16 Q1009,YPBO,2019-01-17T14:00:00Z,-23.2,117.75,31.0,16.0,40,16,,6.21,29.793306,,,TRUE,,,,,,,,CLR,,,,,,,,VFR,,,,,,,,,,,,METAR,1292.0
YOLD 171400Z AUTO 14013KT 9999 // NCD 34/12 Q1004,YOLD,2019-01-17T14:00:00Z,-30.48,136.88,34.0,12.0,140,13,,6.21,29.64567,,,TRUE,,,,,,,,CLR,,,,,,,,VFR,,,,,,,,,,,,METAR,105.0
YNWN 171400Z AUTO 34014KT 9999 // SCT068 29/15 Q1011,YNWN,2019-01-17T14:00:00Z,-23.42,119.8,29.0,15.0,340,14,,6.21,29.852362,,,TRUE,,,,,,,,SCT,6800,,,,,,,VFR,,,,,,,,,,,,METAR,525.0
YNTN 171400Z AUTO 33009KT 9999 // NCD 29/25 Q1006,YNTN,2019-01-17T14:00:00Z,-17.68,141.07,29.0,25.0,330,9,,6.21,29.704725,,,TRUE,,,,,,,,CLR,,,,,,,,VFR,,,,,,,,,,,,METAR,22.0
YNBR 171400Z AUTO 02013KT 9999 // NCD 33/10 Q1010,YNBR,2019-01-17T14:00:00Z,-30.32,149.83,33.0,10.0,20,13,,6.21,29.822834,,,TRUE,,,,,,,,CLR,,,,,,,,VFR,,,,,,,,,,,,METAR,240.0
YNAR 171400Z AUTO 17011KT //// // ////// 32/13 Q1006,YNAR,2019-01-17T14:00:00Z,-34.7,146.52,32.0,13.0,170,11,,,29.704725,,,TRUE,,,,,,,,,,,,,,,,,,,,,,,,,,,,METAR,145.0
YMTG 171400Z AUTO 25005KT 9999 // NCD 18/17 Q1007,YMTG,2019-01-17T14:00:00Z,-37.75,140.78,18.0,17.0,250,5,,6.21,29.734253,,,TRUE,,,,,,,,CLR,,,,,,,,VFR,,,,,,,,,,,,METAR,65.0
YESP 171400Z AUTO 18006KT 9999 // SCT020 16/13 Q1016,YESP,2019-01-17T14:00:00Z,-33.68,121.82,16.0,13.0,180,6,,6.21,30.0,,,TRUE,,,,,,,,SCT,2000,,,,,,,VFR,,,,,,,,,,,,METAR,143.0
YEML 171400Z AUTO 04010KT 9999 // NCD 26/19 Q1012,YEML,2019-01-17T14:00:00Z,-23.57,148.18,26.0,19.0,40,10,,6.21,29.88189,,,TRUE,,,,,,,,CLR,,,,,,,,VFR,,,,,,,,,,,,METAR,190.0
YDBY 171400Z AUTO 35010KT //// // SCT110 SCT125 26/24 Q1007,YDBY,2019-01-17T14:00:00Z,-17.37,123.67,26.0,24.0,350,10,,,29.734253,,,TRUE,,,,,,,,SCT,11000,SCT,12500,,,,,,,,,,,,,,,,,METAR,7.0
YCOM 171400Z AUTO 16001KT 9999 // NCD 20/13 Q1017,YCOM,2019-01-17T14:00:00Z,-36.3,148.97,20.0,13.0,160,1,,6.21,30.029528,,,TRUE,,,,,,,,CLR,,,,,,,,VFR,,,,,,,,,,,,METAR,941.0
YCNM 171400Z AUTO 01011KT //// // ////// 35/13 Q1008,YCNM,2019-01-17T14:00:00Z,-30.98,148.38,35.0,13.0,10,11,,,29.763779,,,TRUE,,,,,,,,,,,,,,,,,,,,,,,,,,,,METAR,184.0
YLIS 171400Z AUTO 00000KT 9999 // NCD 19/16 Q1013,YLIS,2019-01-17T14:00:00Z,-28.83,153.27,19.0,16.0,0,0,,6.21,29.911417,,,TRUE,,,,,,,,CLR,,,,,,,,VFR,,,,,,,,,,,,METAR,11.0
YLEC 171400Z AUTO 20007KT //// // ////// 35/11 Q1005,YLEC,2019-01-17T14:00:00Z,-30.6,138.43,35.0,11.0,200,7,,,29.675198,,,TRUE,,,,,,,,,,,,,,,,,,,,,,,,,,,,METAR,262.0
YKRY 171400Z AUTO 07003KT 9999 // NCD 19/15 Q1016,YKRY,2019-01-17T14:00:00Z,-26.57,151.83,19.0,15.0,70,3,,6.21,30.0,,,TRUE,,,,,,,,CLR,,,,,,,,VFR,,,,,,,,,,,,METAR,434.0
YHUG 171400Z AUTO 08013KT 9999 // NCD 30/11 Q1009,YHUG,2019-01-17T14:00:00Z,-20.82,144.23,30.0,11.0,80,13,,6.21,29.793306,,,TRUE,,,,,,,,CLR,,,,,,,,VFR,,,,,,,,,,,,METAR,318.0
YGTH 171400Z AUTO 13009KT 9999 // NCD 33/13 Q1005,YGTH,2019-01-17T14:00:00Z,-34.25,146.07,33.0,13.0,130,9,,6.21,29.675198,,,TRUE,,,,,,,,CLR,,,,,,,,VFR,,,,,,,,,,,,METAR,134.0
YGTE 171400Z AUTO 00000KT 9999 // NCD 28/26 Q1007,YGTE,2019-01-17T14:00:00Z,-13.97,136.45,28.0,26.0,0,0,,6.21,29.734253,,,TRUE,,,,,,,,CLR,,,,,,,,VFR,,,,,,,,,,,,METAR,14.0
YGFN 171400Z AUTO 00000KT 9999 // NCD 21/17 Q1014,YGFN,2019-01-17T14:00:00Z,-29.77,153.03,21.0,17.0,0,0,,6.21,29.940945,,,TRUE,,,,,,,,CLR,,,,,,,,VFR,,,,,,,,,,,,METAR,34.0
FTTC 171400Z 00000KT CAVOK 35/// Q1012,FTTC,2019-01-17T14:00:00Z,13.83,20.85,,,0,0,,6.21,29.88189,,,,,,,,,,,CAVOK,,,,,,,,VFR,,,,,,,,,,,,METAR,549.0
DTTR 171400Z 19004KT 140V250 CAVOK 18/M03 Q1016 NOSIG,DTTR,2019-01-17T14:00:00Z,31.7,9.27,18.0,-3.0,190,4,,6.21,30.0,,,,,,TRUE,,,,,CAVOK,,,,,,,,VFR,,,,,,,,,,,,METAR,259.0
CWVU 171400Z AUTO 32020KT M10/M13 RMK AO1 SOG 02 2035 PK WND 32025/1300 SLP267 T10981130,CWVU,2019-01-17T14:00:00Z,44.28,-66.33,-9.8,-13.0,320,20,,,,1026.7,,TRUE,TRUE,,,,,,,,,,,,,,,,,,,,,,,,,,,METAR,16.0
CMFM 171400Z AUTO 18001KT M26/M31 RMK AO1 SOG 70 3022 SLP251 T12631314,CMFM,2019-01-17T14:00:00Z,47.32,-71.15,-26.3,-31.4,180,1,,,,1025.1,,TRUE,TRUE,,,,,,,,,,,,,,,,,,,,,,,,,,,METAR,672.0
CWNQ 171400Z AUTO 23001KT M24/M30 RMK AO1 SLP314 T12351297 53018,CWNQ,2019-01-17T14:00:00Z,46.22,-72.65,-23.5,-29.7,230,1,,,,1031.4,,TRUE,TRUE,,,,,,,,,,,,,,,,1.8,,,,,,,,,,,METAR,10.0
CZTB 171400Z AUTO 23003KT M17/M21 RMK AO1 SOG 34 6017 SLP227 T11661208,CZTB,2019-01-17T14:00:00Z,48.37,-89.32,-16.6,-20.8,230,3,,,,1022.7,,TRUE,TRUE,,,,,,,,,,,,,,,,,,,,,,,,,,,METAR,199.0
CZMJ 171400Z AUTO 01007KT M16/M18 RMK AO1 SLP285 T11631175 53012,CZMJ,2019-01-17T14:00:00Z,50.33,-105.57,-16.3,-17.5,10,7,,,,1028.5,,TRUE,TRUE,,,,,,,,,,,,,,,,1.2,,,,,,,,,,,METAR,577.0
CXVN 171400Z AUTO 15004KT M09/M13 RMK AO1 SOG 02 8005 SLP277 T10861129,CXVN,2019-01-17T14:00:00Z,43.18,-79.4,-8.6,-12.9,150,4,,,,1027.7,,TRUE,TRUE,,,,,,,,,,,,,,,,,,,,,,,,,,,METAR,79.0
CXTO 171400Z AUTO M09/M14 RMK AO1 SOG 01 6007 SLP281 T10931141,CXTO,2019-01-17T14:00:00Z,43.67,-79.4,-9.3,-14.1,,,,,,1028.1,,TRUE,TRUE,,,,,,,,,,,,,,,,,,,,,,,,,,,METAR,113.0
CXTD 171400Z AUTO 28011G19KT M10/M18 RMK AO1 SOG 02 1041 PK WND 29022/1333 SLP190 T11031175,CXTD,2019-01-17T14:00:00Z,45.62,-61.68,-10.3,-17.5,280,11,19,,,1019.0,,TRUE,TRUE,,,,,,,,,,,,,,,,,,,,,,,,,,,METAR,68.0
CXRB 171400Z AUTO 02005KT M30/M33 RMK AO1 SOG 03 3005 SLP195 T12951334,CXRB,2019-01-17T14:00:00Z,74.72,-94.98,-29.5,-33.4,20,5,,,,1019.5,,TRUE,TRUE,,,,,,,,,,,,,,,,,,,,,,,,,,,METAR,68.0
CWFF 171400Z AUTO 30008KT M25/M28 RMK AO1 SOG 13 1005 SLP305 T12501278,CWFF,2019-01-17T14:00:00Z,52.82,-104.58,-25.0,-27.8,300,8,,,,1030.5,,TRUE,TRUE,,,,,,,,,,,,,,,,,,,,,,,,,,,METAR,490.0
CWEZ 171400Z AUTO 05014KT RMK AO1 PK WND 06019/1304 55001,CWEZ,2019-01-17T14:00:00Z,48.78,-123.05,,,50,14,,,,,,TRUE,TRUE,,,,,,,,,,,,,,,,-0.1,,,,,,,,,,,METAR,7.0
CXMY 171400Z AUTO M08/M18 RMK AO1 T10831184,CXMY,2019-01-17T14:00:00Z,44.98,-62.48,-8.3,-18.4,,,,,,,,TRUE,TRUE,,,,,,,,,,,,,,,,,,,,,,,,,,,METAR,40.0
CXMD 171400Z AUTO 35007KT M17/M21 RMK AO1 SOG 16 3006 SLP255 T11721207,CXMD,2019-01-17T14:00:00Z,49.22,-98.08,-17.2,-20.7,350,7,,,,1025.5,,TRUE,TRUE,,,,,,,,,,,,,,,,,,,,,,,,,,,METAR,301.0
CXEG 171400Z AUTO M17/M20 RMK AO1 T11691195,CXEG,2019-01-17T14:00:00Z,53.3,-113.6,-16.9,-19.5,,,,,,,,TRUE,TRUE,,,,,,,,,,,,,,,,,,,,,,,,,,,METAR,715.0
CXEA 171400Z AUTO 27003KT M22/M24 RMK AO1 SOG 32 5004 SLP235 T12211244,CXEA,2019-01-17T14:00:00Z,50.63,-93.22,-22.1,-24.4,270,3,,,,1023.5,,TRUE,TRUE,,,,,,,,,,,,,,,,,,,,,,,,,,,METAR,355.0
CXDW 171400Z AUTO 35009KT M18/M22 RMK AO1 SLP258 T11761215 53007,CXDW,2019-01-17T14:00:00Z,49.4,-98.32,-17.6,-21.5,350,9,,,,1025.8,,TRUE,TRUE,,,,,,,,,,,,,,,,0.7,,,,,,,,,,,METAR,341.0
CXDE 171400Z AUTO 09014G20KT M26/M29 RMK AO1 SOG 19 8016 PK WND 10020/1348 SLP316 T12561290,CXDE,2019-01-17T14:00:00Z,65.22,-123.43,-25.6,-29.0,90,14,20,,,1031.6,,TRUE,TRUE,,,,,,,,,,,,,,,,,,,,,,,,,,,METAR,213.0
CXCK 171400Z AUTO 00000KT M12/M14 RMK AO1 SOG 13 7006 SLP147 T11221137,CXCK,2019-01-17T14:00:00Z,62.12,-136.2,-12.2,-13.7,0,0,,,,1014.7,,TRUE,TRUE,,,,,,,,,,,,,,,,,,,,,,,,,,,METAR,540.0
CWZW 171400Z AUTO 10009KT M17/M20 RMK AO1 SOG 27 8012 SLP176 T11731198,CWZW,2019-01-17T14:00:00Z,60.17,-132.73,-17.3,-19.8,100,9,,,,1017.6,,TRUE,TRUE,,,,,,,,,,,,,,,,,,,,,,,,,,,METAR,705.0
CZSP 171400Z AUTO 26014G22KT M14/M18 RMK AO1 SOG 28 1041 PK WND 24022/1359 SLP191 T11351180,CZSP,2019-01-17T14:00:00Z,46.45,-62.58,-13.5,-18.0,260,14,22,,,1019.1,,TRUE,TRUE,,,,,,,,,,,,,,,,,,,,,,,,,,,METAR,30.0
CZDB 171400Z AUTO 28011KT M12/M19 RMK AO1 SOG 10 1036 SLP214 T11151188,CZDB,2019-01-17T14:00:00Z,45.42,-63.47,-11.5,-18.8,280,11,,,,1021.4,,TRUE,TRUE,,,,,,,,,,,,,,,,,,,,,,,,,,,METAR,38.0
CZCR 171400Z AUTO 27014G23KT M20/M26 RMK AO1 SOG 37 1038 PK WND 27023/1357 SLP217 T12031255,CZCR,2019-01-17T14:00:00Z,47.97,-66.32,-20.3,-25.5,270,14,23,,,1021.7,,TRUE,TRUE,,,,,,,,,,,,,,,,,,,,,,,,,,,METAR,38.0
CXKA 171400Z AUTO 22007KT M25/M28 RMK AO1 SOG 37 7013 SLP241 T12451276,CXKA,2019-01-17T14:00:00Z,49.4,-82.45,-24.5,-27.6,220,7,,,,1024.1,,TRUE,TRUE,,,,,,,,,,,,,,,,,,,,,,,,,,,METAR,218.0
CXHM 171400Z AUTO 29001KT M12/M13 RMK AO1 SLP281 T11191129 58006,CXHM,2019-01-17T14:00:00Z,43.28,-79.9,-11.9,-12.9,290,1,,,,1028.1,,TRUE,TRUE,,,,,,,,,,,,,,,,-0.6,,,,,,,,,,,METAR,107.0
CWZO 171400Z AUTO 05010KT RMK AO1,CWZO,2019-01-17T14:00:00Z,48.55,-123.23,,,50,10,,,,,,TRUE,TRUE,,,,,,,,,,,,,,,,,,,,,,,,,,,METAR,1.0
CWZA 171400Z AUTO 05018G25KT 05/M03 RMK AO1 PK WND 04025/1358 SLP006 T00511031 53005,CWZA,2019-01-17T14:00:00Z,49.25,-121.77,5.1,-3.1,50,18,25,,,1000.6,,TRUE,TRUE,,,,,,,,,,,,,,,,0.5,,,,,,,,,,,METAR,15.0
CWPK 171400Z AUTO 17001KT M31/M35 RMK AO1 SOG 38 3004 SLP282 T13101348,CWPK,2019-01-17T14:00:00Z,47.92,-74.62,-31.0,-34.8,170,1,,,,1028.2,,TRUE,TRUE,,,,,,,,,,,,,,,,,,,,,,,,,,,METAR,442.0
CWDO 171400Z AUTO 15011G19KT M03/M03 RMK AO1 SOG 02 8029 PK WND 13022/1334 SLP035 T10271034 50007,CWDO,2019-01-17T14:00:00Z,49.67,-54.78,-2.7,-3.4,150,11,19,,,1003.5,,TRUE,TRUE,,,,,,,,,,,,,,,,0.7,,,,,,,,,,,METAR,92.0
CWIJ 171400Z AUTO 34014KT M27/M30 RMK AO1 SOG 54 0008 PK WND 34021/1321 SLP308 T12681297,CWIJ,2019-01-17T14:00:00Z,65.77,-111.23,-26.8,-29.7,340,14,,,,1030.8,,TRUE,TRUE,,,,,,,,,,,,,,,,,,,,,,,,,,,METAR,500.0
CZSM 171400Z AUTO 26003KT M33/M36 RMK AO1 SOG 50 8012 SLP357 T13251362,CZSM,2019-01-17T14:00:00Z,60.03,-111.93,-32.5,-36.2,260,3,,,,1035.7,,TRUE,TRUE,,,,,,,,,,,,,,,,,,,,,,,,,,,METAR,203.0
OEDM 171400Z 32010KT 8000 NSC 17/M10 Q1019,OEDM,2019-01-17T14:00:00Z,24.45,44.12,17.0,-10.0,320,10,,4.97,30.088583,,,,,,,,,,,CLR,,,,,,,,MVFR,,,,,,,,,,,,METAR,922.0
GVNP 171400Z 02019KT 9999 FEW018 26/15 Q1016 NOSIG,GVNP,2019-01-17T14:00:00Z,14.95,-23.48,26.0,15.0,20,19,,6.21,30.0,,,,,,TRUE,,,,,FEW,1800,,,,,,,VFR,,,,,,,,,,,,METAR,70.0
BIVM 171400Z 11018KT 6000 RASN BKN007 OVC015 02/02 Q1006 R12/550140,BIVM,2019-01-17T14:00:00Z,63.42,-20.27,2.0,2.0,110,18,,3.73,29.704725,,,,,,,,,,RA SN,BKN,700,OVC,1500,,,,,IFR,,,,,,,,,,,,METAR,124.0
GVBA 171400Z 02018KT 9999 FEW014 24/16 Q1017 NOSIG,GVBA,2019-01-17T14:00:00Z,16.13,-22.88,24.0,16.0,20,18,,6.21,30.029528,,,,,,TRUE,,,,,FEW,1400,,,,,,,VFR,,,,,,,,,,,,METAR,22.0
VAID 171400Z 03004KT 4000 HZ NSC 21/08 Q1016 NOSIG,VAID,2019-01-17T14:00:00Z,22.72,75.78,21.0,8.0,30,4,,2.49,30.0,,,,,,TRUE,,,,HZ,CLR,,,,,,,,IFR,,,,,,,,,,,,METAR,567.0
SBPJ 171400Z 22006KT 9999 SCT030 30/25 Q1016,SBPJ,2019-01-17T14:00:00Z,-10.28,-48.37,30.0,25.0,220,6,,6.21,30.0,,,,,,,,,,,SCT,3000,,,,,,,VFR,,,,,,,,,,,,METAR,236.0
SBBW 171400Z 00000KT CAVOK 34/23 Q1018,SBBW,2019-01-17T14:00:00Z,-15.87,-52.37,34.0,23.0,0,0,,6.21,30.059055,,,,,,,,,,,CAVOK,,,,,,,,VFR,,,,,,,,,,,,METAR,350.0
SBAN 171400Z 09011KT 9999 SCT030 24/18 Q1023,SBAN,2019-01-17T14:00:00Z,-16.22,-48.97,24.0,18.0,90,11,,6.21,30.206694,,,,,,,,,,,SCT,3000,,,,,,,VFR,,,,,,,,,,,,METAR,1137.0
SBYS 171400Z 35003KT CAVOK 23/20 Q1020,SBYS,2019-01-17T14:00:00Z,-21.97,-47.32,23.0,20.0,350,3,,6.21,30.11811,,,,,,,,,,,CAVOK,,,,,,,,VFR,,,,,,,,,,,,METAR,598.0
SBUL 171400Z 07009KT 9999 FEW030 BKN100 26/16 Q1022,SBUL,2019-01-17T14:00:00Z,-18.87,-48.22,26.0,16.0,70,9,,6.21,30.177166,,,,,,,,,,,FEW,3000,BKN,10000,,,,,VFR,,,,,,,,,,,,METAR,922.0
SBTA 171400Z 28003KT 9999 FEW025 29/18 Q1018,SBTA,2019-01-17T14:00:00Z,-23.03,-45.5,29.0,18.0,280,3,,6.21,30.059055,,,,,,,,,,,FEW,2500,,,,,,,VFR,,,,,,,,,,,,METAR,586.0
SBST 171400Z 10006KT CAVOK 34/21 Q1013,SBST,2019-01-17T14:00:00Z,-23.92,-46.28,34.0,21.0,100,6,,6.21,29.911417,,,,,,,,,,,CAVOK,,,,,,,,VFR,,,,,,,,,,,,METAR,3.0
SBSR 171400Z 09004KT CAVOK 29/18 Q1018,SBSR,2019-01-17T14:00:00Z,-20.8,-49.4,29.0,18.0,90,4,,6.21,30.059055,,,,,,,,,,,CAVOK,,,,,,,,VFR,,,,,,,,,,,,METAR,543.0
SBSC 171400Z 02008KT CAVOK 37/20 Q1013,SBSC,2019-01-17T14:00:00Z,-22.92,-43.72,37.0,20.0,20,8,,6.21,29.911417,,,,,,,,,,,CAVOK,,,,,,,,VFR,,,,,,,,,,,,METAR,3.0
HKKI 171400Z 22009KT 9999 FEW029 29/18 Q1012,HKKI,2019-01-17T14:00:00Z,-0.1,34.75,29.0,18.0,220,9,,6.21,29.88189,,,,,,,,,,,FEW,2900,,,,,,,VFR,,,,,,,,,,,,METAR,1146.0
FALW 171400Z AUTO 32007KT //// // ////// 26/14 Q1009,FALW,2019-01-17T14:00:00Z,-32.97,18.17,26.0,14.0,320,7,,,29.793306,,,TRUE,,,,,,,,,,,,,,,,,,,,,,,,,,,,METAR,0.0
RKSM 171400Z 00000KT 9999 SKC M04/M12 A3033,RKSM,2019-01-17T14:00:00Z,37.42,127.12,-4.0,-12.0,0,0,,6.21,30.33071,,,,,,,,,,,SKC,,,,,,,,VFR,,,,,,,,,,,,METAR,20.0
VEGY 171400Z 35006KT 2500 BR NSC 13/09 Q1015,VEGY,2019-01-17T14:00:00Z,24.75,84.95,13.0,9.0,350,6,,1.55,29.970472,,,,,,,,,,BR,CLR,,,,,,,,IFR,,,,,,,,,,,,METAR,116.0
CWDZ 171400Z AUTO 05007KT M14/M16 RMK AO1 T11371163,CWDZ,2019-01-17T14:00:00Z,51.42,-112.67,-13.7,-16.3,50,7,,,,,,TRUE,TRUE,,,,,,,,,,,,,,,,,,,,,,,,,,,METAR,678.0
CWGX 171400Z AUTO 28009KT M34/M39 RMK AO1 SOG 16 5006 SLP179 T13431386,CWGX,2019-01-17T14:00:00Z,56.35,-94.7,-34.3,-38.6,280,9,,,,1017.9,,TRUE,TRUE,,,,,,,,,,,,,,,,,,,,,,,,,,,METAR,145.0
CXNP 171400Z AUTO 29015G20KT M14/M20 RMK AO1 SOG 09 3036 PK WND 30022/1311 SLP223 T11391204 50002,CXNP,2019-01-17T14:00:00Z,45.75,-64.23,-13.9,-20.4,290,15,20,,,1022.3,,TRUE,TRUE,,,,,,,,,,,,,,,,0.2,,,,,,,,,,,METAR,20.0
CWDM 171400Z AUTO 25015G20KT M08/M10 RMK AO1 SOG 24 1029 PK WND 25021/1345 SLP015 T10761095,CWDM,2019-01-17T14:00:00Z,50.47,-59.62,-7.6,-9.5,250,15,20,,,1001.5,,TRUE,TRUE,,,,,,,,,,,,,,,,,,,,,,,,,,,METAR,6.0
CXYH 171400Z AUTO 20002KT M25/M28 RMK AO1 SOG 37 7027 SLP314 T12501280,CXYH,2019-01-17T14:00:00Z,61.25,-123.75,-25.0,-28.0,200,2,,,,1031.4,,TRUE,TRUE,,,,,,,,,,,,,,,,,,,,,,,,,,,METAR,204.0
CXSE 171400Z AUTO 34021G27KT M24/M26 RMK AO1 SOG 44 8010 PK WND 35027/1358 SLP272 T12371261,CXSE,2019-01-17T14:00:00Z,73.77,-105.28,-23.7,-26.1,340,21,27,,,1027.2,,TRUE,TRUE,,,,,,,,,,,,,,,,,,,,,,,,,,,METAR,11.0
CXDK 171400Z AUTO 00000KT M25/M28 RMK AO1 SOG 37 6024 SLP310 T12491277,CXDK,2019-01-17T14:00:00Z,61.27,-124.47,-24.9,-27.7,0,0,,,,1031.0,,TRUE,TRUE,,,,,,,,,,,,,,,,,,,,,,,,,,,METAR,283.0
CXTN 171400Z AUTO 09007KT M22/M32 RMK AO1 SOG 66 6012 SLP362 T12171318,CXTN,2019-01-17T14:00:00Z,69.2,-122.35,-21.7,-31.8,90,7,,,,1036.2,,TRUE,TRUE,,,,,,,,,,,,,,,,,,,,,,,,,,,METAR,552.0
CXLL 171400Z AUTO M31/M35 RMK AO1 SOG 45 8022 SLP347 T13121346,CXLL,2019-01-17T14:00:00Z,61.12,-122.85,-31.2,-34.6,,,,,,1034.7,,TRUE,TRUE,,,,,,,,,,,,,,,,,,,,,,,,,,,METAR,183.0
CWXC 171400Z AUTO 20002KT M32/M35 RMK AO1 SLP271 T13181349 53016,CWXC,2019-01-17T14:00:00Z,48.88,-71.03,-31.8,-34.9,200,2,,,,1027.1,,TRUE,TRUE,,,,,,,,,,,,,,,,1.6,,,,,,,,,,,METAR,300.0
CWWS 171400Z AUTO 31014KT M28/M31 RMK AO1 SOG 48 2002 PK WND 30017/1337 SLP252 T12771308,CWWS,2019-01-17T14:00:00Z,52.82,-97.62,-27.7,-30.8,310,14,,,,1025.2,,TRUE,TRUE,,,,,,,,,,,,,,,,,,,,,,,,,,,METAR,223.0
CWEK 171400Z AUTO 05041G51KT 06/M00 RMK AO1 PK WND 04053/1312 SLP968 T00551004 56026,CWEK,2019-01-17T14:00:00Z,54.58,-130.7,5.5,-0.4,50,41,51,,,996.8,,TRUE,TRUE,,,,,,,,,,,,,,,,-2.6,,,,,,,,,,,METAR,8.0
CWDC 171400Z AUTO 24003KT M38/M42 RMK AO1 SOG 35 3001 SLP342 T13771415,CWDC,2019-01-17T14:00:00Z,59.57,-108.47,-37.7,-41.5,240,3,,,,1034.2,,TRUE,TRUE,,,,,,,,,,,,,,,,,,,,,,,,,,,METAR,318.0
DIBK 171400Z VRB02KT 9999 BKN015 34/18 Q1011 NOSIG,DIBK,2019-01-17T14:00:00Z,7.72,-5.07,34.0,18.0,0,2,,6.21,29.852362,,,,,,TRUE,,,,,BKN,1500,,,,,,,MVFR,,,,,,,,,,,,SPECI,376.0
CYHK 171400Z AUTO 34013KT 9SM BKN170 BKN190 M36/M40 A3005 RMK SLP188,CYHK,2019-01-17T14:00:00Z,68.62,-95.83,-36.0,-40.0,340,13,,9.0,30.050198,1018.8,,TRUE,,,,,,,,BKN,17000,BKN,19000,,,,,VFR,,,,,,,,,,,,SPECI,46.0
NLWW 171400Z AUTO 00000KT 9999 NCD 25/24 Q1006 TEMPO 2000 TSRA BKN008 SCT016CB,NLWW,2019-01-17T14:00:00Z,-13.23,-176.17,25.0,24.0,0,0,,6.21,29.704725,,,TRUE,,,,,,,,CLR,,,,,,,,VFR,,,,,,,,,,,,METAR,23.0
PLCH 171400Z 11007KT 9999 FEW020 26/24 Q1007,PLCH,2019-01-17T14:00:00Z,1.98,-157.35,26.0,24.0,110,7,,6.21,29.734253,,,,,,,,,,,FEW,2000,,,,,,,VFR,,,,,,,,,,,,METAR,3.0
NGTA 171400Z 07005KT 9999 FEW019 BKN300 29/25 Q1006,NGTA,2019-01-17T14:00:00Z,1.37,173.13,29.0,25.0,70,5,,6.21,29.704725,,,,,,,,,,,FEW,1900,BKN,30000,,,,,VFR,,,,,,,,,,,,METAR,2.0
LEMO 171400Z 35005KT 310V030 9999 SCT058 14/06 Q1017 NOSIG,LEMO,2019-01-17T14:00:00Z,37.17,-5.62,14.0,6.0,350,5,,6.21,30.029528,,,,,,TRUE,,,,,SCT,5800,,,,,,,VFR,,,,,,,,,,,,METAR,88.0
ZBHH 171400Z 01002MPS 310V050 8000 NSC M12/M21 Q1023 NOSIG,ZBHH,2019-01-17T14:00:00Z,40.85,111.82,-12.0,-21.0,10,4,,4.97,30.206694,,,,,,TRUE,,,,,CLR,,,,,,,,MVFR,,,,,,,,,,,,METAR,1065.0
ZGHA 171400Z 11001MPS 6000 BKN023 BKN050 05/04 Q1028 NOSIG,ZGHA,2019-01-17T14:00:00Z,28.18,113.22,5.0,4.0,110,2,,3.73,30.35433,,,,,,TRUE,,,,,BKN,2300,BKN,5000,,,,,MVFR,,,,,,,,,,,,METAR,66.0
ZHCC 171400Z 15002MPS 120V190 CAVOK 03/M14 Q1026 NOSIG,ZHCC,2019-01-17T14:00:00Z,34.52,113.83,3.0,-14.0,150,4,,6.21,30.295275,,,,,,TRUE,,,,,CAVOK,,,,,,,,VFR,,,,,,,,,,,,METAR,151.0
ZHHH 171400Z 05001MPS 4000 BR NSC 02/00 Q1028 NOSIG,ZHHH,2019-01-17T14:00:00Z,30.78,114.22,2.0,0.0,50,2,,2.49,30.35433,,,,,,TRUE,,,,BR,CLR,,,,,,,,IFR,,,,,,,,,,,,METAR,33.0
FQNC 171400Z 04014KT 9999 SCT020 30/25 Q1008,FQNC,2019-01-17T14:00:00Z,-14.48,40.72,30.0,25.0,40,14,,6.21,29.763779,,,,,,,,,,,SCT,2000,,,,,,,VFR,,,,,,,,,,,,METAR,125.0
ZJSY 171400Z 10004MPS 9999 FEW050 21/15 Q1020 NOSIG,ZJSY,2019-01-17T14:00:00Z,18.3,109.42,21.0,15.0,100,8,,6.21,30.11811,,,,,,TRUE,,,,,FEW,5000,,,,,,,VFR,,,,,,,,,,,,METAR,27.0
ZJHK 171400Z 03004MPS 010V070 9999 OVC020 18/15 Q1022 NOSIG,ZJHK,2019-01-17T14:00:00Z,19.93,110.47,18.0,15.0,30,8,,6.21,30.177166,,,,,,TRUE,,,,,OVC,2000,,,,,,,MVFR,,,,,,,,,,,,METAR,23.0
ZLLL 171400Z 10002MPS CAVOK M05/M21 Q1018 NOSIG,ZLLL,2019-01-17T14:00:00Z,36.52,103.62,-5.0,-21.0,100,4,,6.21,30.059055,,,,,,TRUE,,,,,CAVOK,,,,,,,,VFR,,,,,,,,,,,,METAR,1947.0
ZSNJ 171400Z 25001MPS 5000 BR NSC M01/M02 Q1030 NOSIG,ZSNJ,2019-01-17T14:00:00Z,31.75,118.87,-1.0,-2.0,250,2,,3.11,30.413385,,,,,,TRUE,,,,BR,CLR,,,,,,,,MVFR,,,,,,,,,,,,METAR,33.0
ZSOF 171400Z 12003MPS 7000 NSC 01/M04 Q1028 NOSIG,ZSOF,2019-01-17T14:00:00Z,31.98,116.97,1.0,-4.0,120,6,,4.35,30.35433,,,,,,TRUE,,,,,CLR,,,,,,,,MVFR,,,,,,,,,,,,METAR,63.0
UMBB 171400Z 24007G12MPS 9000 OVC027 04/M02 Q1000 R29/290050 NOSIG,UMBB,2019-01-17T14:00:00Z,52.12,23.9,4.0,-2.0,240,14,23,5.59,29.52756,,,,,,TRUE,,,,,OVC,2700,,,,,,,MVFR,,,,,,,,,,,,METAR,143.0
ZYHB 171400Z 16001MPS 8000 NSC M24/M28 Q1028 NOSIG,ZYHB,2019-01-17T14:00:00Z,45.62,126.25,-24.0,-28.0,160,2,,4.97,30.35433,,,,,,TRUE,,,,,CLR,,,,,,,,MVFR,,,,,,,,,,,,METAR,140.0
ZYCC 171400Z VRB01MPS 8000 NSC M20/M29 Q1028 NOSIG,ZYCC,2019-01-17T14:00:00Z,43.98,125.68,-20.0,-29.0,0,2,,4.97,30.35433,,,,,,TRUE,,,,,CLR,,,,,,,,MVFR,,,,,,,,,,,,METAR,238.0
ZUCK 171400Z 01006MPS CAVOK 09/04 Q1021 NOSIG,ZUCK,2019-01-17T14:00:00Z,29.72,106.63,9.0,4.0,10,12,,6.21,30.147638,,,,,,TRUE,,,,,CAVOK,,,,,,,,VFR,,,,,,,,,,,,METAR,416.0
UKON 171400Z 19005MPS 9999 BKN015 M01/M04 Q1017 R04/090052 NOSIG,UKON,2019-01-17T14:00:00Z,47.05,31.92,-1.0,-4.0,190,10,,6.21,30.029528,,,,,,TRUE,,,,,BKN,1500,,,,,,,MVFR,,,,,,,,,,,,METAR,56.0
VTCT 171400Z 33002KT 9999 FEW025 BKN080 20/19 Q1016 NOSIG,VTCT,2019-01-17T14:00:00Z,19.95,99.88,20.0,19.0,330,2,,6.21,30.0,,,,,,TRUE,,,,,FEW,2500,BKN,8000,,,,,VFR,,,,,,,,,,,,METAR,390.0
VTSG 171400Z 03004KT 360V060 8000 SCT020 24/23 Q1011 NOSIG,VTSG,2019-01-17T14:00:00Z,8.1,98.98,24.0,23.0,30,4,,4.97,29.852362,,,,,,TRUE,,,,,SCT,2000,,,,,,,MVFR,,,,,,,,,,,,METAR,25.0
RJFR 171400Z 25011KT 9999 FEW030 SCT050 07/M02 Q1022,RJFR,2019-01-17T14:00:00Z,33.82,131.03,7.0,-2.0,250,11,,6.21,30.177166,,,,,,,,,,,FEW,3000,SCT,5000,,,,,VFR,,,,,,,,,,,,METAR,6.0
RJAH 171400Z 23006KT 9999 FEW030 01/M05 Q1008,RJAH,2019-01-17T14:00:00Z,36.17,140.42,1.0,-5.0,230,6,,6.21,29.763779,,,,,,,,,,,FEW,3000,,,,,,,VFR,,,,,,,,,,,,METAR,35.0
SPST 171400Z 00000KT 3000 -RA BR BKN008 OVC040 24/23 Q1017 RMK BIRD HAZARD RWY 17/35 PPTRZ,SPST,2019-01-17T14:00:00Z,-6.52,-76.37,24.0,23.0,0,0,,1.86,30.029528,,,,,,,,,,-RA BR,BKN,800,OVC,4000,,,,,IFR,,,,,,,,,,,,METAR,282.0
SPMS 171400Z 24004KT 6000 SCT012 BKN070 25/23 Q1017 RMK BIRD HAZARD RWY09/27 PP000,SPMS,2019-01-17T14:00:00Z,-5.9,-76.12,25.0,23.0,240,4,,3.73,30.029528,,,,,,,,,,,SCT,1200,BKN,7000,,,,,MVFR,,,,,,,,,,,,METAR,179.0
SPME 171400Z 09004KT 9999 BKN020 25/22 Q1013 RMK BIRD HAZARD RWY 32/14 PP000,SPME,2019-01-17T14:00:00Z,-3.53,-80.4,25.0,22.0,90,4,,6.21,29.911417,,,,,,,,,,,BKN,2000,,,,,,,MVFR,,,,,,,,,,,,METAR,27.0
SPLO 171400Z 14011KT CAVOK 22/17 Q1014 RMK PP000,SPLO,2019-01-17T14:00:00Z,-17.7,-71.35,22.0,17.0,140,11,,6.21,29.940945,,,,,,,,,,,CAVOK,,,,,,,,VFR,,,,,,,,,,,,METAR,9.0
SPJL 171400Z 30003KT 9999 BKN010 OVC080 10/04 Q1038 RMK PP000,SPJL,2019-01-17T14:00:00Z,-15.47,-70.15,10.0,4.0,300,3,,6.21,30.649607,,,,,,,,,,,BKN,1000,OVC,8000,,,,,MVFR,,,,,,,,,,,,METAR,3827.0
SPJI 171400Z 00000KT 9000 -RA BKN017 SCT080 24/23 Q1025 RMK PP000,SPJI,2019-01-17T14:00:00Z,-7.17,-76.72,24.0,23.0,0,0,,5.59,30.265747,,,,,,,,,,-RA,BKN,1700,SCT,8000,,,,,MVFR,,,,,,,,,,,,METAR,363.0
SPHY 171400Z 27003KT 7000 1000NE DZ BCFG SCT012 BKN060 08/07 Q1038 RMK PP025,SPHY,2019-01-17T14:00:00Z,-13.7,-73.35,8.0,7.0,270,3,,4.35,30.649607,,,,,,,,,,BCFG DZ,SCT,1200,BKN,6000,,,,,MVFR,,,,,,,,,,,,METAR,3548.0
SPHO 171400Z VRB02KT 9999 FEW015 FEW050TCU BKN080 17/11 Q1031 RMK PP000,SPHO,2019-01-17T14:00:00Z,-13.17,-74.22,17.0,11.0,0,2,,6.21,30.442913,,,,,,,,,,,FEW,1500,FEW,5000,BKN,8000,,,VFR,,,,,,,,,,,,METAR,2749.0
SPGM 171400Z 00000KT 9999 SCT020 OVC100 22/21 Q1020 RMK PP000,SPGM,2019-01-17T14:00:00Z,-9.28,-76.0,22.0,21.0,0,0,,6.21,30.11811,,,,,,,,,,,SCT,2000,OVC,10000,,,,,VFR,,,,,,,,,,,,METAR,665.0
SPCL 171400Z 06003KT 9000 BKN013 BKN070 26/24 Q1017 RMK PP000,SPCL,2019-01-17T14:00:00Z,-8.38,-74.58,26.0,24.0,60,3,,5.59,30.029528,,,,,,,,,,,BKN,1300,BKN,7000,,,,,MVFR,,,,,,,,,,,,METAR,149.0
RJFS 171400Z 27005KT 9999 FEW040 BKN050 07/02 Q1023,RJFS,2019-01-17T14:00:00Z,33.15,130.3,7.0,2.0,270,5,,6.21,30.206694,,,,,,,,,,,FEW,4000,BKN,5000,,,,,VFR,,,,,,,,,,,,METAR,5.0
RJOH 171400Z 30007KT 9999 FEW030 BKN035 BKN050 08/M06 Q1020,RJOH,2019-01-17T14:00:00Z,35.47,133.25,8.0,-6.0,300,7,,6.21,30.11811,,,,,,,,,,,FEW,3000,BKN,3500,BKN,5000,,,VFR,,,,,,,,,,,,METAR,9.0
VTPP 171400Z 09002KT 9999 FEW030 26/20 Q1013 NOSIG,VTPP,2019-01-17T14:00:00Z,16.78,100.28,26.0,20.0,90,2,,6.21,29.911417,,,,,,TRUE,,,,,FEW,3000,,,,,,,VFR,,,,,,,,,,,,METAR,44.0
VTUI 171400Z 12012KT 9999 FEW030 SCT100 21/14 Q1017 NOSIG,VTUI,2019-01-17T14:00:00Z,17.2,104.12,21.0,14.0,120,12,,6.21,30.029528,,,,,,TRUE,,,,,FEW,3000,SCT,10000,,,,,VFR,,,,,,,,,,,,METAR,172.0
VTUD 171400Z 11006KT CAVOK 24/15 Q1016 NOSIG,VTUD,2019-01-17T14:00:00Z,17.37,102.78,24.0,15.0,110,6,,6.21,30.0,,,,,,TRUE,,,,,CAVOK,,,,,,,,VFR,,,,,,,,,,,,METAR,182.0
CXAT 171400Z AUTO 31001KT M34/M38 RMK AO1 SOG 02 1013 SLP171 T13421384,CXAT,2019-01-17T14:00:00Z,73.0,-85.03,-34.2,-38.4,310,1,,,,1017.1,,TRUE,TRUE,,,,,,,,,,,,,,,,,,,,,,,,,,,METAR,19.0
HKMO 171400Z 08012KT 9999 SCT025 30/24 Q1007 NOSIG,HKMO,2019-01-17T14:00:00Z,-4.02,39.62,30.0,24.0,80,12,,6.21,29.734253,,,,,,TRUE,,,,,SCT,2500,,,,,,,VFR,,,,,,,,,,,,METAR,55.0
MHCA 171400Z 02004KT 9999 RA SCT028 BKN080 20/19 Q1021 VCSH E,MHCA,2019-01-17T14:00:00Z,14.9,-85.78,20.0,19.0,20,4,,6.21,30.147638,,,,,,,,,,RA VCSH,SCT,2800,BKN,8000,,,,,VFR,,,,,,,,,,,,SPECI,442.0
FIMR 171400Z 05007KT 9999 FEW016 BKN250 29/25 Q1014,FIMR,2019-01-17T14:00:00Z,-19.75,63.37,29.0,25.0,50,7,,6.21,29.940945,,,,,,,,,,,FEW,1600,BKN,25000,,,,,VFR,,,,,,,,,,,,METAR,31.0
NFFN 171400Z 08004KT 9999 SCT020TCU 25/24 Q1006 NOSIG,NFFN,2019-01-17T14:00:00Z,-17.75,177.45,25.0,24.0,80,4,,6.21,29.704725,,,,,,TRUE,,,,,SCT,2000,,,,,,,VFR,,,,,,,,,,,,METAR,18.0
SBCZ 171400Z 08003KT 9999 SCT010 BKN100 26/23 Q1017,SBCZ,2019-01-17T14:00:00Z,-7.62,-72.77,26.0,23.0,80,3,,6.21,30.029528,,,,,,,,,,,SCT,1000,BKN,10000,,,,,VFR,,,,,,,,,,,,METAR,170.0
SCEL 171400Z 23006KT 160V260 CAVOK 21/07 Q1017 NOSIG,SCEL,2019-01-17T14:00:00Z,-33.37,-70.77,21.0,7.0,230,6,,6.21,30.029528,,,,,,TRUE,,,,,CAVOK,,,,,,,,VFR,,,,,,,,,,,,METAR,476.0
MTPP 171400Z 08010KT 9999 FEW022 26/20 Q1017 A3006,MTPP,2019-01-17T14:00:00Z,18.57,-72.28,26.0,20.0,80,10,,6.21,30.029528,,,,,,,,,,,FEW,2200,,,,,,,VFR,,,,,,,,,,,,METAR,37.0
OPSK 171400Z 00000KT 3000 HZ NSC 17/11 Q1015 NOSIG,OPSK,2019-01-17T14:00:00Z,27.72,68.8,17.0,11.0,0,0,,1.86,29.970472,,,,,,TRUE,,,,HZ,CLR,,,,,,,,IFR,,,,,,,,,,,,METAR,58.0
SBCF 171400Z 00000KT 9999 SCT030 26/18 Q1022,SBCF,2019-01-17T14:00:00Z,-19.63,-43.97,26.0,18.0,0,0,,6.21,30.177166,,,,,,,,,,,SCT,3000,,,,,,,VFR,,,,,,,,,,,,METAR,828.0
OJAI 171400Z 26022KT 6000 SCT030 BKN035 08/05 Q1019,OJAI,2019-01-17T14:00:00Z,31.72,36.0,8.0,5.0,260,22,,3.73,30.088583,,,,,,,,,,,SCT,3000,BKN,3500,,,,,MVFR,,,,,,,,,,,,METAR,730.0
FNUE 171400Z 23008KT 9999 BKN030 28/20 Q1017,FNUE,2019-01-17T14:00:00Z,-11.77,19.9,28.0,20.0,230,8,,6.21,30.029528,,,,,,,,,,,BKN,3000,,,,,,,MVFR,,,,,,,,,,,,METAR,1329.0
FNKU 171400Z 27009KT CAVOK 25/20 Q1017,FNKU,2019-01-17T14:00:00Z,-12.37,16.93,25.0,20.0,270,9,,6.21,30.029528,,,,,,,,,,,CAVOK,,,,,,,,VFR,,,,,,,,,,,,METAR,1699.0
FNMO 171400Z 25014KT 9999 BKN039 26/19 Q1010,FNMO,2019-01-17T14:00:00Z,-15.27,12.15,26.0,19.0,250,14,,6.21,29.822834,,,,,,,,,,,BKN,3900,,,,,,,VFR,,,,,,,,,,,,METAR,64.0
FNSO 171400Z 26010KT 9999 SCT014 FEW017CB ///// Q////,FNSO,2019-01-17T14:00:00Z,-6.13,12.37,,,260,10,,6.21,,,,,,,,,,,,SCT,1400,FEW,1700,,,,,VFR,,,,,,,,,,,,METAR,5.0
MPMG 171400Z 34009KT 9999 FEW030 27/21 Q1015 NOSIG,MPMG,2019-01-17T14:00:00Z,8.98,-79.57,27.0,21.0,340,9,,6.21,29.970472,,,,,,TRUE,,,,,FEW,3000,,,,,,,VFR,,,,,,,,,,,,METAR,13.0
CXTV 171400Z AUTO 11009KT M25/M28 RMK AO1 SOG 34 6004 SLP268 T12541282,CXTV,2019-01-17T14:00:00Z,68.75,-133.5,-25.4,-28.2,110,9,,,,1026.8,,TRUE,TRUE,,,,,,,,,,,,,,,,,,,,,,,,,,,METAR,85.0
CWRU 171400Z AUTO 10031G36KT 10/06 RMK AO1 6026 PK WND 10036/1359 SLP891 T01040064 50002,CWRU,2019-01-17T14:00:00Z,50.12,-127.93,10.4,6.4,100,31,36,,,989.1,,TRUE,TRUE,,,,,,,,,,,,,,,,0.2,,,,,,,,,,,METAR,98.0
CWQS 171400Z AUTO 10015G23KT 07/02 RMK AO1 PK WND 07028/1334 SLP945 T00670015 58010,CWQS,2019-01-17T14:00:00Z,53.32,-132.77,6.7,1.5,100,15,23,,,994.5,,TRUE,TRUE,,,,,,,,,,,,,,,,-1.0,,,,,,,,,,,METAR,14.0
CWME 171400Z AUTO 05040G50KT 04/M04 RMK AO1 PK WND 05052/1316 T00421037,CWME,2019-01-17T14:00:00Z,52.18,-127.47,4.2,-3.7,50,40,50,,,,,TRUE,TRUE,,,,,,,,,,,,,,,,,,,,,,,,,,,METAR,32.0
CWWL 171400Z AUTO 16004KT 07/M02 RMK AO1 SLP963 T00741024 56002,CWWL,2019-01-17T14:00:00Z,53.5,-130.63,7.4,-2.4,160,4,,,,996.3,,TRUE,TRUE,,,,,,,,,,,,,,,,-0.2,,,,,,,,,,,METAR,17.0
CWZV 171400Z AUTO 05016G30KT 07/05 RMK AO1 1PAST HR 7013 PK WND 06030/1350 SLP931 P0004 T00700054 50016,CWZV,2019-01-17T14:00:00Z,51.93,-131.02,7.0,5.4,50,16,30,,,993.1,,TRUE,TRUE,,,,,,,,,,,,,,,,1.6,,,,,0.04,,,,,,METAR,92.0
CWZL 171400Z AUTO 28002KT 06/04 RMK AO1 SLP971 T00620036 56011,CWZL,2019-01-17T14:00:00Z,53.03,-131.6,6.2,3.6,280,2,,,,997.1,,TRUE,TRUE,,,,,,,,,,,,,,,,-1.1,,,,,,,,,,,METAR,17.0
CWWX 171400Z AUTO 17006KT M08/M10 RMK AO1 SLP249 T10761101 57013,CWWX,2019-01-17T14:00:00Z,45.32,-81.73,-7.6,-10.1,170,6,,,,1024.9,,TRUE,TRUE,,,,,,,,,,,,,,,,-1.3,,,,,,,,,,,METAR,181.0
CWHP 171400Z AUTO 27026G32KT M12/M14 RMK AO1 PK WND 28039/1324 SLP086 T11201142,CWHP,2019-01-17T14:00:00Z,49.07,-61.7,-12.0,-14.2,270,26,32,,,1008.6,,TRUE,TRUE,,,,,,,,,,,,,,,,,,,,,,,,,,,METAR,4.0
CXDP 171400Z AUTO 10002KT M26/M28 RMK AO1 T12601281,CXDP,2019-01-17T14:00:00Z,54.32,-113.95,-26.0,-28.1,100,2,,,,,,TRUE,TRUE,,,,,,,,,,,,,,,,,,,,,,,,,,,METAR,614.0
CXAF 171400Z AUTO 07003KT M28/M30 RMK AO1 T12761304,CXAF,2019-01-17T14:00:00Z,54.28,-112.97,-27.6,-30.4,70,3,,,,,,TRUE,TRUE,,,,,,,,,,,,,,,,,,,,,,,,,,,METAR,664.0
CWJO 171400Z AUTO 02002KT M28/M33 RMK AO1 SLP308 T12791327 53015,CWJO,2019-01-17T14:00:00Z,48.43,-71.15,-27.9,-32.7,20,2,,,,1030.8,,TRUE,TRUE,,,,,,,,,,,,,,,,1.5,,,,,,,,,,,METAR,133.0
CXDB 171400Z AUTO 02003KT M11/M12 RMK AO1 T11081123,CXDB,2019-01-17T14:00:00Z,49.05,-112.82,-10.8,-12.3,20,3,,,,,,TRUE,TRUE,,,,,,,,,,,,,,,,,,,,,,,,,,,METAR,1310.0
CXAK 171400Z AUTO 04008KT M17/M19 RMK AO1 T11691186,CXAK,2019-01-17T14:00:00Z,52.35,-112.6,-16.9,-18.6,40,8,,,,,,TRUE,TRUE,,,,,,,,,,,,,,,,,,,,,,,,,,,METAR,795.0
CWIX 171400Z AUTO 02001KT M32/M37 RMK AO1 SLP291 T13191366 53009,CWIX,2019-01-17T14:00:00Z,48.6,-71.72,-31.9,-36.6,20,1,,,,1029.1,,TRUE,TRUE,,,,,,,,,,,,,,,,0.9,,,,,,,,,,,METAR,113.0
TGPY 171400Z 09020KT 9999 SCT020 29/23 Q1018 NOSIG,TGPY,2019-01-17T14:00:00Z,12.0,-61.78,29.0,23.0,90,20,,6.21,30.059055,,,,,,TRUE,,,,,SCT,2000,,,,,,,VFR,,,,,,,,,,,,METAR,7.0
VTUK 171400Z 08007KT 050V130 9000 NSC 25/15 Q1015 NOSIG,VTUK,2019-01-17T14:00:00Z,16.47,102.78,25.0,15.0,80,7,,5.59,29.970472,,,,,,TRUE,,,,,CLR,,,,,,,,VFR,,,,,,,,,,,,METAR,204.0
YWLM 171400Z AUTO 06007KT 9999 // NCD 24/19 Q1009,YWLM,2019-01-17T14:00:00Z,-32.8,151.83,24.0,19.0,60,7,,6.21,29.793306,,,TRUE,,,,,,,,CLR,,,,,,,,VFR,,,,,,,,,,,,METAR,9.0
YWHA 171400Z AUTO 18005KT 9999 // NCD 26/19 Q1006,YWHA,2019-01-17T14:00:00Z,-33.07,137.52,26.0,19.0,180,5,,6.21,29.704725,,,TRUE,,,,,,,,CLR,,,,,,,,VFR,,,,,,,,,,,,METAR,13.0
YWGT 171400Z AUTO 21007KT 9999 // NCD 25/13 Q1008,YWGT,2019-01-17T14:00:00Z,-36.42,146.3,25.0,13.0,210,7,,6.21,29.763779,,,TRUE,,,,,,,,CLR,,,,,,,,VFR,,,,,,,,,,,,METAR,153.0
YTRE 171400Z AUTO 04008KT 9999 // NCD 22/18 Q1011,YTRE,2019-01-17T14:00:00Z,-31.88,152.52,22.0,18.0,40,8,,6.21,29.852362,,,TRUE,,,,,,,,CLR,,,,,,,,VFR,,,,,,,,,,,,METAR,12.0
YTNK 171400Z AUTO 02006KT 9999 // NCD 34/09 Q1007,YTNK,2019-01-17T14:00:00Z,-19.63,134.18,34.0,9.0,20,6,,6.21,29.734253,,,TRUE,,,,,,,,CLR,,,,,,,,VFR,,,,,,,,,,,,METAR,377.0
YTEF 171400Z AUTO 16011KT 9999 // NCD 35/14 Q1007,YTEF,2019-01-17T14:00:00Z,-21.72,122.23,35.0,14.0,160,11,,6.21,29.734253,,,TRUE,,,,,,,,CLR,,,,,,,,VFR,,,,,,,,,,,,METAR,296.0
YSWG 171400Z AUTO 09009KT 9999 // NCD 33/13 Q1007,YSWG,2019-01-17T14:00:00Z,-35.13,147.47,33.0,13.0,90,9,,6.21,29.734253,,,TRUE,,,,,,,,CLR,,,,,,,,VFR,,,,,,,,,,,,METAR,213.0
YSTW 171400Z AUTO 31005KT 9999 // NCD 30/12 Q1012 RF00.0/000.0,YSTW,2019-01-17T14:00:00Z,-31.07,150.85,30.0,12.0,310,5,,6.21,29.88189,,,TRUE,,,,,,,,CLR,,,,,,,,VFR,,,,,,,,,,,,SPECI,410.0
TAPA 171400Z 12008KT 9999 FEW022 27/18 Q1020 NOSIG,TAPA,2019-01-17T14:00:00Z,17.12,-61.78,27.0,18.0,120,8,,6.21,30.11811,,,,,,TRUE,,,,,FEW,2200,,,,,,,VFR,,,,,,,,,,,,METAR,14.0
TLPC 171400Z 08008KT 9999 FEW025 28/20 Q1019 NOSIG,TLPC,2019-01-17T14:00:00Z,14.02,-61.0,28.0,20.0,80,8,,6.21,30.088583,,,,,,TRUE,,,,,FEW,2500,,,,,,,VFR,,,,,,,,,,,,METAR,2.0
UBBL 171400Z VRB02KT 9999 -RA OVC018 03/01 Q1013 R33/CLRD// NOSIG RMK MT OP ,UBBL,2019-01-17T14:00:00Z,38.75,48.82,3.0,1.0,0,2,,6.21,29.911417,,,,,,TRUE,,,,-RA,OVC,1800,,,,,,,MVFR,,,,,,,,,,,,METAR,10.0
SBRP 171400Z 07004KT CAVOK 28/18 Q1019,SBRP,2019-01-17T14:00:00Z,-21.12,-47.77,28.0,18.0,70,4,,6.21,30.088583,,,,,,,,,,,CAVOK,,,,,,,,VFR,,,,,,,,,,,,METAR,549.0
FSIA 171400Z 24004KT 210V280 9999 FEW018CB SCT020 28/24 Q1010 NOSIG,FSIA,2019-01-17T14:00:00Z,-4.67,55.52,28.0,24.0,240,4,,6.21,29.822834,,,,,,TRUE,,,,,FEW,1800,SCT,2000,,,,,VFR,,,,,,,,,,,,METAR,3.0
WSSL 171400Z 05004KT 9999 FEW025 BKN140 25/24 Q1010,WSSL,2019-01-17T14:00:00Z,1.42,103.87,25.0,24.0,50,4,,6.21,29.822834,,,,,,,,,,,FEW,2500,BKN,14000,,,,,VFR,,,,,,,,,,,,METAR,14.0
SERB 171400Z 00000KT 9999 SCT010 BKN030 15/12 Q1031,SERB,2019-01-17T14:00:00Z,-1.62,-78.67,15.0,12.0,0,0,,6.21,30.442913,,,,,,,,,,,SCT,1000,BKN,3000,,,,,MVFR,,,,,,,,,,,,METAR,2796.0
LBWB 171400Z 18010KT 9999 SKC 07/M03 Q1016,LBWB,2019-01-17T14:00:00Z,43.42,28.18,7.0,-3.0,180,10,,6.21,30.0,,,,,,,,,,,SKC,,,,,,,,VFR,,,,,,,,,,,,METAR,201.0
LBPL 171400Z 24006KT 9999 SKC 13/03 Q1016,LBPL,2019-01-17T14:00:00Z,43.45,24.5,13.0,3.0,240,6,,6.21,30.0,,,,,,,,,,,SKC,,,,,,,,VFR,,,,,,,,,,,,METAR,101.0
LBIA 171400Z 26004KT 9999 SKC 12/M01 Q1017,LBIA,2019-01-17T14:00:00Z,42.45,26.35,12.0,-1.0,260,4,,6.21,30.029528,,,,,,,,,,,SKC,,,,,,,,VFR,,,,,,,,,,,,METAR,155.0
LBPG 171400Z 00000KT 5000 HZ SCT060 13/M05 Q1016,LBPG,2019-01-17T14:00:00Z,42.28,24.72,13.0,-5.0,0,0,,3.11,30.0,,,,,,,,,,HZ,SCT,6000,,,,,,,MVFR,,,,,,,,,,,,METAR,58.0
YCCY 171400Z AUTO 09011KT 9999 // NCD 34/06 Q1007,YCCY,2019-01-17T14:00:00Z,-20.67,140.5,34.0,6.0,90,11,,6.21,29.734253,,,TRUE,,,,,,,,CLR,,,,,,,,VFR,,,,,,,,,,,,METAR,570.0
YCBB 171400Z AUTO 34011KT 9999 // NCD 30/11 Q1012,YCBB,2019-01-17T14:00:00Z,-31.33,149.27,30.0,11.0,340,11,,6.21,29.88189,,,TRUE,,,,,,,,CLR,,,,,,,,VFR,,,,,,,,,,,,METAR,645.0
YCBA 171400Z AUTO 05006KT 9999 // NCD 37/09 Q1006,YCBA,2019-01-17T14:00:00Z,-31.53,145.8,37.0,9.0,50,6,,6.21,29.704725,,,TRUE,,,,,,,,CLR,,,,,,,,VFR,,,,,,,,,,,,METAR,221.0
YCAS 171400Z AUTO 00000KT //// // ////// 20/16 Q1013,YCAS,2019-01-17T14:00:00Z,-28.88,153.07,20.0,16.0,0,0,,,29.911417,,,TRUE,,,,,,,,,,,,,,,,,,,,,,,,,,,,METAR,26.0
YCAR 171400Z AUTO 18021KT 9999 // NCD 23/19 Q1010,YCAR,2019-01-17T14:00:00Z,-24.88,113.67,23.0,19.0,180,21,,6.21,29.822834,,,TRUE,,,,,,,,CLR,,,,,,,,VFR,,,,,,,,,,,,METAR,8.0
YBWX 171400Z AUTO 21011KT //// // ////// 28/23 Q1008,YBWX,2019-01-17T14:00:00Z,-20.88,115.4,28.0,23.0,210,11,,,29.763779,,,TRUE,,,,,,,,,,,,,,,,,,,,,,,,,,,,METAR,6.0
YBWP 171400Z AUTO 05005KT 9999 // NCD 26/24 Q1007,YBWP,2019-01-17T14:00:00Z,-12.68,141.92,26.0,24.0,50,5,,6.21,29.734253,,,TRUE,,,,,,,,CLR,,,,,,,,VFR,,,,,,,,,,,,METAR,12.0
YBUD 171400Z AUTO 09006KT 9999 // SCT043 23/18 Q1014,YBUD,2019-01-17T14:00:00Z,-24.9,152.32,23.0,18.0,90,6,,6.21,29.940945,,,TRUE,,,,,,,,SCT,4300,,,,,,,VFR,,,,,,,,,,,,METAR,82.0
YBTL 171400Z AUTO 10008KT 9999 // SCT026 SCT033 BKN039 27/22 Q1010,YBTL,2019-01-17T14:00:00Z,-19.25,146.75,27.0,22.0,100,8,,6.21,29.822834,,,TRUE,,,,,,,,SCT,2600,SCT,3300,BKN,3900,,,VFR,,,,,,,,,,,,METAR,6.0
SBCT 171400Z 29004KT 9999 SCT035 30/20 Q1020,SBCT,2019-01-17T14:00:00Z,-25.52,-49.17,30.0,20.0,290,4,,6.21,30.11811,,,,,,,,,,,SCT,3500,,,,,,,VFR,,,,,,,,,,,,METAR,908.0
SBPL 171400Z 14009KT 9999 SCT025 30/18 Q1016,SBPL,2019-01-17T14:00:00Z,-9.37,-40.57,30.0,18.0,140,9,,6.21,30.0,,,,,,,,,,,SCT,2500,,,,,,,VFR,,,,,,,,,,,,METAR,375.0
SBCP 171400Z 34003KT CAVOK 33/20 Q1014,SBCP,2019-01-17T14:00:00Z,-21.7,-41.3,33.0,20.0,340,3,,6.21,29.940945,,,,,,,,,,,CAVOK,,,,,,,,VFR,,,,,,,,,,,,METAR,11.0
LRCT 171400Z 29004KT 8000 BKN055 01/M01 Q1013 BLU BLU,LRCT,2019-01-17T14:00:00Z,46.5,23.88,1.0,-1.0,290,4,,4.97,29.911417,,,,,,,,,,,BKN,5500,,,,,,,MVFR,,,,,,,,,,,,METAR,331.0
SBPA 171400Z 12007KT 9999 SCT017 OVC032 26/23 Q1014,SBPA,2019-01-17T14:00:00Z,-30.0,-51.17,26.0,23.0,120,7,,6.21,29.940945,,,,,,,,,,,SCT,1700,OVC,3200,,,,,VFR,,,,,,,,,,,,METAR,3.0
SBFL 171400Z 12011KT 9999 FEW030 31/24 Q1012,SBFL,2019-01-17T14:00:00Z,-27.67,-48.53,31.0,24.0,120,11,,6.21,29.88189,,,,,,,,,,,FEW,3000,,,,,,,VFR,,,,,,,,,,,,METAR,5.0
OMSJ 171400Z 28010KT CAVOK 26/16 Q1013,OMSJ,2019-01-17T14:00:00Z,25.32,55.52,26.0,16.0,280,10,,6.21,29.911417,,,,,,,,,,,CAVOK,,,,,,,,VFR,,,,,,,,,,,,METAR,33.0
OMRK 171400Z 33004KT CAVOK 25/14 Q1014 A2994,OMRK,2019-01-17T14:00:00Z,25.62,55.92,25.0,14.0,330,4,,6.21,29.940945,,,,,,,,,,,CAVOK,,,,,,,,VFR,,,,,,,,,,,,METAR,31.0
OMFJ 171400Z 13004KT 8000 NSC 25/20 Q1013 RMK A2991,OMFJ,2019-01-17T14:00:00Z,25.1,56.32,25.0,20.0,130,4,,4.97,29.911417,,,,,,,,,,,CLR,,,,,,,,MVFR,,,,,,,,,,,,SPECI,28.0
OMDW 171400Z 29010KT CAVOK 26/14 Q1013 NOSIG,OMDW,2019-01-17T14:00:00Z,24.9,55.17,26.0,14.0,290,10,,6.21,29.911417,,,,,,TRUE,,,,,CAVOK,,,,,,,,VFR,,,,,,,,,,,,METAR,25.0
OMDB 171400Z 29010KT CAVOK 27/15 Q1013 NOSIG,OMDB,2019-01-17T14:00:00Z,25.25,55.37,27.0,15.0,290,10,,6.21,29.911417,,,,,,TRUE,,,,,CAVOK,,,,,,,,VFR,,,,,,,,,,,,METAR,5.0
OMAL 171400Z 20008KT CAVOK 27/10 Q1014 NOSIG,OMAL,2019-01-17T14:00:00Z,24.25,55.6,27.0,10.0,200,8,,6.21,29.940945,,,,,,TRUE,,,,,CAVOK,,,,,,,,VFR,,,,,,,,,,,,METAR,262.0
OMAD 171400Z 31007KT CAVOK 27/13 Q1013 NOSIG,OMAD,2019-01-17T14:00:00Z,24.42,54.47,27.0,13.0,310,7,,6.21,29.911417,,,,,,TRUE,,,,,CAVOK,,,,,,,,VFR,,,,,,,,,,,,METAR,3.0
OMAA 171400Z 30007KT CAVOK 27/14 Q1012 NOSIG,OMAA,2019-01-17T14:00:00Z,24.42,54.63,27.0,14.0,300,7,,6.21,29.88189,,,,,,TRUE,,,,,CAVOK,,,,,,,,VFR,,,,,,,,,,,,METAR,27.0
TBPB 171400Z 09017KT 9999 BKN016 29/21 Q1018 NOSIG,TBPB,2019-01-17T14:00:00Z,13.07,-59.48,29.0,21.0,90,17,,6.21,30.059055,,,,,,TRUE,,,,,BKN,1600,,,,,,,MVFR,,,,,,,,,,,,METAR,52.0
YCBP 171400Z AUTO 16015G25KT 9999 // NCD 37/// Q1004,YCBP,2019-01-17T14:00:00Z,-29.03,134.72,,,160,15,25,6.21,29.64567,,,TRUE,,,,,,,,CLR,,,,,,,,VFR,,,,,,,,,,,,METAR,226.0
TKPK 171400Z 07013KT 9999 FEW023 28/20 Q1020,TKPK,2019-01-17T14:00:00Z,17.3,-62.72,28.0,20.0,70,13,,6.21,30.11811,,,,,,,,,,,FEW,2300,,,,,,,VFR,,,,,,,,,,,,METAR,48.0
SBJP 171400Z 09012KT 060V130 9999 BKN030 30/22 Q1014,SBJP,2019-01-17T14:00:00Z,-7.15,-34.95,30.0,22.0,90,12,,6.21,29.940945,,,,,,,,,,,BKN,3000,,,,,,,MVFR,,,,,,,,,,,,METAR,66.0
SBRJ 171400Z 33007KT CAVOK 35/22 Q1013,SBRJ,2019-01-17T14:00:00Z,-22.88,-43.17,35.0,22.0,330,7,,6.21,29.911417,,,,,,,,,,,CAVOK,,,,,,,,VFR,,,,,,,,,,,,METAR,3.0
SBTE 171400Z 00000KT 9999 SCT017 SCT100 28/23 Q1014,SBTE,2019-01-17T14:00:00Z,-5.03,-42.82,28.0,23.0,0,0,,6.21,29.940945,,,,,,,,,,,SCT,1700,SCT,10000,,,,,VFR,,,,,,,,,,,,METAR,69.0
UBBQ 171400Z 29003KT 9999 -RA SCT008 OVC050 03/02 Q1008 R16/////// NOSIG RMK MT OBSC,UBBQ,2019-01-17T14:00:00Z,40.82,47.72,3.0,2.0,290,3,,6.21,29.763779,,,,,,TRUE,,,,-RA,SCT,800,OVC,5000,,,,,VFR,,,,,,,,,,,,METAR,338.0
TLPL 171400Z 09020KT 9999 FEW029 28/21 Q1019 NOSIG,TLPL,2019-01-17T14:00:00Z,13.75,-60.95,28.0,21.0,90,20,,6.21,30.088583,,,,,,TRUE,,,,,FEW,2900,,,,,,,VFR,,,,,,,,,,,,METAR,3.0
SBFI 171400Z 36009KT 9999 FEW035 33/24 Q1014,SBFI,2019-01-17T14:00:00Z,-25.6,-54.48,33.0,24.0,360,9,,6.21,29.940945,,,,,,,,,,,FEW,3500,,,,,,,VFR,,,,,,,,,,,,METAR,243.0
NCRK 171400Z AUTO 08003KT //// ////// 28/24 Q1007,NCRK,2019-01-17T14:00:00Z,-10.05,-161.08,28.0,24.0,80,3,,,29.734253,,,TRUE,,,,,,,,,,,,,,,,,,,,,,,,,,,,METAR,5.0
NCPK 171400Z AUTO 08001KT //// ////// 27/25 Q1007,NCPK,2019-01-17T14:00:00Z,-10.88,-165.82,27.0,25.0,80,1,,,29.734253,,,TRUE,,,,,,,,,,,,,,,,,,,,,,,,,,,,METAR,3.0
NCPY 171400Z AUTO 08018KT //// ////// 28/25 Q1008,NCPY,2019-01-17T14:00:00Z,-9.02,-158.07,28.0,25.0,80,18,,,29.763779,,,TRUE,,,,,,,,,,,,,,,,,,,,,,,,,,,,METAR,2.0
NCMH 171400Z AUTO 12005KT //// ////// 29/25 Q1008,NCMH,2019-01-17T14:00:00Z,-10.38,-161.0,29.0,25.0,120,5,,,29.763779,,,TRUE,,,,,,,,,,,,,,,,,,,,,,,,,,,,METAR,0.0
NCMR 171400Z AUTO 04002KT //// ////// Q1010,NCMR,2019-01-17T14:00:00Z,-19.85,-157.7,,,40,2,,,29.822834,,,TRUE,,,,,,,,,,,,,,,,,,,,,,,,,,,,METAR,8.0
NCMK 171400Z AUTO 03003KT //// ////// 27/25 Q1009,NCMK,2019-01-17T14:00:00Z,-20.15,-157.38,27.0,25.0,30,3,,,29.793306,,,TRUE,,,,,,,,,,,,,,,,,,,,,,,,,,,,METAR,9.0
NCMG 171400Z AUTO 11006KT //// ////// 25/24 Q1007,NCMG,2019-01-17T14:00:00Z,-21.92,-157.95,25.0,24.0,110,6,,,29.734253,,,TRUE,,,,,,,,,,,,,,,,,,,,,,,,,,,,METAR,41.0
NCAT 171400Z AUTO 02002KT //// ////// Q1004,NCAT,2019-01-17T14:00:00Z,-19.97,-158.12,,,20,2,,,29.64567,,,TRUE,,,,,,,,,,,,,,,,,,,,,,,,,,,,METAR,11.0
NCRG 171400Z 10007KT 9999 SCT010 26/23 Q1011 RMK CI ABV,NCRG,2019-01-17T14:00:00Z,-21.2,-159.82,26.0,23.0,100,7,,6.21,29.852362,,,,,,,,,,,SCT,1000,,,,,,,VFR,,,,,,,,,,,,METAR,7.0
VGHS 171400Z 00000KT 3500 HZ NSC 20/11 Q1014 NOSIG,VGHS,2019-01-17T14:00:00Z,23.85,90.4,20.0,11.0,0,0,,2.17,29.940945,,,,,,TRUE,,,,HZ,CLR,,,,,,,,IFR,,,,,,,,,,,,METAR,10.0
WAHQ 171400Z 21005KT 5000 -RA SCT012 FEW015CB 24/24 Q1010 CB TO NE,WAHQ,2019-01-17T14:00:00Z,-7.52,110.75,24.0,24.0,210,5,,3.11,29.822834,,,,,,,,,,-RA,SCT,1200,FEW,1500,,,,,MVFR,,,,,,,,,,,,METAR,126.0
SEAM 171400Z 19002KT 9999 BCFG FEW010 BKN030 OVC100 14/12 Q1030,SEAM,2019-01-17T14:00:00Z,-1.18,-78.57,14.0,12.0,190,2,,6.21,30.413385,,,,,,,,,,BCFG,FEW,1000,BKN,3000,OVC,10000,,,MVFR,,,,,,,,,,,,METAR,2520.0
SENL 171400Z 04002KT 9999 SCT023 OVC100 24/23 Q1016 RMK A3002,SENL,2019-01-17T14:00:00Z,0.1,-76.87,24.0,23.0,40,2,,6.21,30.0,,,,,,,,,,,SCT,2300,OVC,10000,,,,,VFR,,,,,,,,,,,,METAR,293.0
CYOA 171400Z 33013KT 3SM BR SKC M29/M33 A3023,CYOA,2019-01-17T14:00:00Z,64.7,-110.62,-29.0,-33.0,330,13,,3.0,30.230314,,,,,,,,,,BR,SKC,,,,,,,,MVFR,,,,,,,,,,,,METAR,469.0
RPLC 171400Z 28003KT 9999 FEW020 BKN300 24/18 Q1015 NOSIG RMK A2997,RPLC,2019-01-17T14:00:00Z,15.17,120.58,24.0,18.0,280,3,,6.21,29.970472,,,,,,TRUE,,,,,FEW,2000,BKN,30000,,,,,VFR,,,,,,,,,,,,METAR,196.0
GMFK 171400Z 15004KT 9999 FEW026 14/M10 Q1017 NOSIG,GMFK,2019-01-17T14:00:00Z,31.95,-4.4,14.0,-10.0,150,4,,6.21,30.029528,,,,,,TRUE,,,,,FEW,2600,,,,,,,VFR,,,,,,,,,,,,METAR,1045.0
GMAT 171400Z 36014KT 9999 BKN016 18/08 Q1017 NOSIG,GMAT,2019-01-17T14:00:00Z,28.43,-11.15,18.0,8.0,360,14,,6.21,30.029528,,,,,,TRUE,,,,,BKN,1600,,,,,,,MVFR,,,,,,,,,,,,METAR,200.0
GMAG 171400Z 36016KT 9999 SCT016 17/03 Q1015 NOSIG,GMAG,2019-01-17T14:00:00Z,29.03,-10.05,17.0,3.0,360,16,,6.21,29.970472,,,,,,TRUE,,,,,SCT,1600,,,,,,,VFR,,,,,,,,,,,,METAR,333.0
GMFM 171400Z 28010KT 8000 FEW013 BKN020 13/06 Q1017 NOSIG,GMFM,2019-01-17T14:00:00Z,33.87,-5.52,13.0,6.0,280,10,,4.97,30.029528,,,,,,TRUE,,,,,FEW,1300,BKN,2000,,,,,MVFR,,,,,,,,,,,,METAR,549.0
MRPV 171400Z 09022G32KT CAVOK 20/12 A3013 NOSIG,MRPV,2019-01-17T14:00:00Z,9.95,-84.15,20.0,12.0,90,22,32,6.21,30.129921,,,,,,TRUE,,,,,CAVOK,,,,,,,,VFR,,,,,,,,,,,,METAR,994.0
GMTN 171400Z 32004KT 290V350 9999 SCT020 BKN033 14/08 Q1017 NOSIG,GMTN,2019-01-17T14:00:00Z,35.57,-5.32,14.0,8.0,320,4,,6.21,30.029528,,,,,,TRUE,,,,,SCT,2000,BKN,3300,,,,,VFR,,,,,,,,,,,,METAR,10.0
GMTA 171400Z 34010G26KT 9999 SCT020TCU SCT026 16/10 Q1017 NOSIG,GMTA,2019-01-17T14:00:00Z,35.17,-3.85,16.0,10.0,340,10,26,6.21,30.029528,,,,,,TRUE,,,,,SCT,2000,SCT,2600,,,,,VFR,,,,,,,,,,,,METAR,14.0
GMMW 171400Z 34004KT 290V030 9999 FEW023 SCT030 16/03 Q1016 NOSIG,GMMW,2019-01-17T14:00:00Z,34.98,-3.02,16.0,3.0,340,4,,6.21,30.0,,,,,,TRUE,,,,,FEW,2300,SCT,3000,,,,,VFR,,,,,,,,,,,,METAR,175.0
GMML 171400Z 36016KT 9999 SCT020 BKN030 20/08 Q1018 NOSIG,GMML,2019-01-17T14:00:00Z,27.13,-13.23,20.0,8.0,360,16,,6.21,30.059055,,,,,,TRUE,,,,,SCT,2000,BKN,3000,,,,,MVFR,,,,,,,,,,,,METAR,6.0
GMMI 171400Z 36010KT 8000 SCT013 SCT016 19/08 Q1017 TEMPO 500 -SHRA BKN013TCU,GMMI,2019-01-17T14:00:00Z,31.4,-9.68,19.0,8.0,360,10,,4.97,30.029528,,,,,,,,,,,SCT,1300,SCT,1600,,,,,MVFR,,,,,,,,,,,,METAR,8.0
GMMH 171400Z 01014KT 9999 SCT033 19/10 Q1019 NOSIG,GMMH,2019-01-17T14:00:00Z,23.72,-15.93,19.0,10.0,10,14,,6.21,30.088583,,,,,,TRUE,,,,,SCT,3300,,,,,,,VFR,,,,,,,,,,,,METAR,11.0
GMMD 171400Z 28006KT 9999 SCT026 15/M00 Q1017 NOSIG,GMMD,2019-01-17T14:00:00Z,32.4,-6.32,15.0,0.0,280,6,,6.21,30.029528,,,,,,TRUE,,,,,SCT,2600,,,,,,,VFR,,,,,,,,,,,,METAR,509.0
GMMC 171400Z 30008KT 9999 FEW016TCU SCT026 17/08 Q1018,GMMC,2019-01-17T14:00:00Z,33.57,-7.67,17.0,8.0,300,8,,6.21,30.059055,,,,,,,,,,,FEW,1600,SCT,2600,,,,,VFR,,,,,,,,,,,,METAR,62.0
GMMB 171400Z 25007KT 210V300 9999 SCT016TCU 17/09 Q1019 NOSIG,GMMB,2019-01-17T14:00:00Z,33.65,-7.22,17.0,9.0,250,7,,6.21,30.088583,,,,,,TRUE,,,,,SCT,1600,,,,,,,VFR,,,,,,,,,,,,METAR,191.0
GMFO 171400Z 24013KT 9999 SCT030 16/01 Q1016 NOSIG,GMFO,2019-01-17T14:00:00Z,34.77,-1.92,16.0,1.0,240,13,,6.21,30.0,,,,,,TRUE,,,,,SCT,3000,,,,,,,VFR,,,,,,,,,,,,METAR,470.0
KMIW 171400Z AUTO 33003KT 1 1/2SM -SN BR OVC006 M03/M03 A3008 RMK AO2 SNB1355 CIG 003V007 P0000 T10331033,KMIW,2019-01-17T14:00:00Z,42.12,-92.92,-3.3,-3.3,330,3,,1.5,30.079725,,,TRUE,TRUE,,,,,,-SN BR,OVC,600,,,,,,,IFR,,,,,,0.005,,,,,,METAR,296.0
KBBW 171400Z AUTO 35009KT 10SM OVC004 M03/M04 A3003 RMK AO2 T10281039,KBBW,2019-01-17T14:00:00Z,41.43,-99.63,-2.8,-3.9,350,9,,10.0,30.029528,,,TRUE,TRUE,,,,,,,OVC,400,,,,,,,LIFR,,,,,,,,,,,,METAR,776.0
VOBG 171400Z 06004KT 8000 NSC 23/03 Q1015,VOBG,2019-01-17T14:00:00Z,12.95,77.63,23.0,3.0,60,4,,4.97,29.970472,,,,,,,,,,,CLR,,,,,,,,MVFR,,,,,,,,,,,,METAR,897.0
MTCH 171400Z VRB02KT 9000 FEW025 24/20 Q1019 A3012,MTCH,2019-01-17T14:00:00Z,19.75,-72.18,24.0,20.0,0,2,,5.59,30.088583,,,,,,,,,,,FEW,2500,,,,,,,VFR,,,,,,,,,,,,METAR,2.0
SETN 171400Z 19004KT 9999 -RA SCT020 OVC100 25/25 Q1013 A2991,SETN,2019-01-17T14:00:00Z,0.98,-79.63,25.0,25.0,190,4,,6.21,29.911417,,,,,,,,,,-RA,SCT,2000,OVC,10000,,,,,VFR,,,,,,,,,,,,METAR,10.0
EPZG 171400Z 22012KT 9999 BKN030 07/03 Q1000,EPZG,2019-01-17T14:00:00Z,52.13,15.8,7.0,3.0,220,12,,6.21,29.52756,,,,,,,,,,,BKN,3000,,,,,,,MVFR,,,,,,,,,,,,METAR,59.0
YAMB 171400Z AUTO 07004KT 9999 // NCD 22/18 Q1014,YAMB,2019-01-17T14:00:00Z,-27.63,152.72,22.0,18.0,70,4,,6.21,29.940945,,,TRUE,,,,,,,,CLR,,,,,,,,VFR,,,,,,,,,,,,METAR,28.0
YBHM 171400Z AUTO 10018KT 9999 // SCT023 26/23 Q1011,YBHM,2019-01-17T14:00:00Z,-20.35,148.95,26.0,23.0,100,18,,6.21,29.852362,,,TRUE,,,,,,,,SCT,2300,,,,,,,VFR,,,,,,,,,,,,METAR,5.0
YBCG 171400Z AUTO 35013KT 9999 // BKN032 OVC038 25/18 Q1014,YBCG,2019-01-17T14:00:00Z,-28.17,153.5,25.0,18.0,350,13,,6.21,29.940945,,,TRUE,,,,,,,,BKN,3200,OVC,3800,,,,,VFR,,,,,,,,,,,,METAR,6.0
YPEA 171400Z AUTO 18007KT 9999 // NCD 18/14 Q1015,YPEA,2019-01-17T14:00:00Z,-31.67,116.02,18.0,14.0,180,7,,6.21,29.970472,,,TRUE,,,,,,,,CLR,,,,,,,,VFR,,,,,,,,,,,,METAR,49.0
YBMA 171400Z AUTO 08006KT 9999 // NCD 33/04 Q1008,YBMA,2019-01-17T14:00:00Z,-20.67,139.47,33.0,4.0,80,6,,6.21,29.763779,,,TRUE,,,,,,,,CLR,,,,,,,,VFR,,,,,,,,,,,,METAR,344.0
YBRK 171400Z AUTO 21007KT 9999 // OVC022 25/21 Q1012,YBRK,2019-01-17T14:00:00Z,-23.37,150.47,25.0,21.0,210,7,,6.21,29.88189,,,TRUE,,,,,,,,OVC,2200,,,,,,,MVFR,,,,,,,,,,,,METAR,14.0
YMLT 171400Z AUTO 32008KT 9999 // NCD 19/15 Q1005 RF00.0/000.2,YMLT,2019-01-17T14:00:00Z,-41.52,147.18,19.0,15.0,320,8,,6.21,29.675198,,,TRUE,,,,,,,,CLR,,,,,,,,VFR,,,,,,,,,,,,SPECI,178.0
YMAV 171400Z AUTO 05008KT 9999 // NCD 23/17 Q1008 RF00.0/000.0,YMAV,2019-01-17T14:00:00Z,-38.03,144.48,23.0,17.0,50,8,,6.21,29.763779,,,TRUE,,,,,,,,CLR,,,,,,,,VFR,,,,,,,,,,,,SPECI,8.0
YFRT 171400Z AUTO 15015KT 9999 // SCT017 20/16 Q1012,YFRT,2019-01-17T14:00:00Z,-30.83,128.12,20.0,16.0,150,15,,6.21,29.88189,,,TRUE,,,,,,,,SCT,1700,,,,,,,VFR,,,,,,,,,,,,METAR,156.0
YCIN 171400Z AUTO 36010KT 9999 -SHRA SCT096 25/24 Q1006 RESHRA,YCIN,2019-01-17T14:00:00Z,-17.58,123.83,25.0,24.0,360,10,,6.21,29.704725,,,TRUE,,,,,,,-SHRA,SCT,9600,,,,,,,VFR,,,,,,,,,,,,METAR,91.0
YPGV 171400Z AUTO 00000KT 9999 // NCD 26/24 Q1008,YPGV,2019-01-17T14:00:00Z,-12.27,136.82,26.0,24.0,0,0,,6.21,29.763779,,,TRUE,,,,,,,,CLR,,,,,,,,VFR,,,,,,,,,,,,METAR,55.0
YPPD 171400Z AUTO 25011KT 9999 // NCD 30/26 Q1008,YPPD,2019-01-17T14:00:00Z,-20.37,118.62,30.0,26.0,250,11,,6.21,29.763779,,,TRUE,,,,,,,,CLR,,,,,,,,VFR,,,,,,,,,,,,METAR,6.0
YSDU 171400Z AUTO 03006KT 9999 // NCD 31/12 Q1008,YSDU,2019-01-17T14:00:00Z,-32.22,148.57,31.0,12.0,30,6,,6.21,29.763779,,,TRUE,,,,,,,,CLR,,,,,,,,VFR,,,,,,,,,,,,METAR,275.0
YSNF 171400Z AUTO 14008KT 9999 // OVC032 21/15 Q1016,YSNF,2019-01-17T14:00:00Z,-29.02,167.92,21.0,15.0,140,8,,6.21,30.0,,,TRUE,,,,,,,,OVC,3200,,,,,,,VFR,,,,,,,,,,,,METAR,109.0
HSNN 171400Z 06008KT CAVOK 28/M07 Q1014,HSNN,2019-01-17T14:00:00Z,12.05,24.97,28.0,-7.0,60,8,,6.21,29.940945,,,,,,,,,,,CAVOK,,,,,,,,VFR,,,,,,,,,,,,METAR,658.0
HSOB 171400Z 01013KT CAVOK 28/M13 Q1013,HSOB,2019-01-17T14:00:00Z,13.17,30.22,28.0,-13.0,10,13,,6.21,29.911417,,,,,,,,,,,CAVOK,,,,,,,,VFR,,,,,,,,,,,,METAR,574.0
YSRI 171400Z AUTO 19007KT 9999 // NCD 26/17 Q1011,YSRI,2019-01-17T14:00:00Z,-33.6,150.77,26.0,17.0,190,7,,6.21,29.852362,,,TRUE,,,,,,,,CLR,,,,,,,,VFR,,,,,,,,,,,,METAR,21.0
SBPB 171400Z 07013KT 9999 FEW020 31/20 Q1013,SBPB,2019-01-17T14:00:00Z,-2.92,-41.75,31.0,20.0,70,13,,6.21,29.911417,,,,,,,,,,,FEW,2000,,,,,,,VFR,,,,,,,,,,,,METAR,5.0
RPMD 171400Z 34005KT 280V030 9999 FEW016 SCT290 25/22 Q1012 RMK A2988,RPMD,2019-01-17T14:00:00Z,7.12,125.65,25.0,22.0,340,5,,6.21,29.88189,,,,,,,,,,,FEW,1600,SCT,29000,,,,,VFR,,,,,,,,,,,,METAR,18.0
RPLB 171400Z 10005KT 9999 FEW020 SCT300 25/18 Q1015 NOSIG RMK A2997,RPLB,2019-01-17T14:00:00Z,14.8,120.27,25.0,18.0,100,5,,6.21,29.970472,,,,,,TRUE,,,,,FEW,2000,SCT,30000,,,,,VFR,,,,,,,,,,,,METAR,17.0
RPVM 171400Z 02009KT 9999 FEW020 BKN100 26/21 Q1014 RMK A2994,RPVM,2019-01-17T14:00:00Z,10.32,123.98,26.0,21.0,20,9,,6.21,29.940945,,,,,,,,,,,FEW,2000,BKN,10000,,,,,VFR,,,,,,,,,,,,METAR,10.0
RPLL 171400Z 10008KT 9999 FEW025 BKN300 25/20 Q1014 NOSIG RMK A2994,RPLL,2019-01-17T14:00:00Z,14.52,121.0,25.0,20.0,100,8,,6.21,29.940945,,,,,,TRUE,,,,,FEW,2500,BKN,30000,,,,,VFR,,,,,,,,,,,,METAR,21.0
SADF 171400Z 14010KT CAVOK 22/13 Q1018,SADF,2019-01-17T14:00:00Z,-34.45,-58.58,22.0,13.0,140,10,,6.21,30.059055,,,,,,,,,,,CAVOK,,,,,,,,VFR,,,,,,,,,,,,METAR,4.0
OLBA 171400Z 30007KT 9999 SCT026 14/01 Q1021 NOSIG,OLBA,2019-01-17T14:00:00Z,33.82,35.47,14.0,1.0,300,7,,6.21,30.147638,,,,,,TRUE,,,,,SCT,2600,,,,,,,VFR,,,,,,,,,,,,METAR,19.0
VGEG 171400Z 00000KT 3500 HZ NSC 21/17 Q1014 NOSIG,VGEG,2019-01-17T14:00:00Z,22.27,91.82,21.0,17.0,0,0,,2.17,29.940945,,,,,,TRUE,,,,HZ,CLR,,,,,,,,IFR,,,,,,,,,,,,METAR,6.0
VTUQ 171400Z AUTO 05005KT 020V080 ////NDV ////// 25/17 Q1015 A2997,VTUQ,2019-01-17T14:00:00Z,14.95,102.32,25.0,17.0,50,5,,,29.970472,,,TRUE,,,,,,,,,,,,,,,,,,,,,,,,,,,,METAR,234.0
SBMQ 171400Z 05010KT 9999 BKN017 31/24 Q1014,SBMQ,2019-01-17T14:00:00Z,0.05,-51.07,31.0,24.0,50,10,,6.21,29.940945,,,,,,,,,,,BKN,1700,,,,,,,MVFR,,,,,,,,,,,,METAR,15.0
MROC 171400Z 10020G30KT CAVOK 22/13 A3007 NOSIG,MROC,2019-01-17T14:00:00Z,10.0,-84.22,22.0,13.0,100,20,30,6.21,30.070866,,,,,,TRUE,,,,,CAVOK,,,,,,,,VFR,,,,,,,,,,,,METAR,920.0
SBGR 171400Z 34003KT CAVOK 28/20 Q1020,SBGR,2019-01-17T14:00:00Z,-23.42,-46.47,28.0,20.0,340,3,,6.21,30.11811,,,,,,,,,,,CAVOK,,,,,,,,VFR,,,,,,,,,,,,METAR,750.0
SKCG 171400Z 06004KT 010V120 CAVOK 28/23 A2992,SKCG,2019-01-17T14:00:00Z,10.43,-75.52,28.0,23.0,60,4,,6.21,29.920275,,,,,,,,,,,CAVOK,,,,,,,,VFR,,,,,,,,,,,,METAR,1.0
VTUU 171400Z 04013KT CAVOK 23/15 Q1015 NOSIG,VTUU,2019-01-17T14:00:00Z,15.25,104.87,23.0,15.0,40,13,,6.21,29.970472,,,,,,TRUE,,,,,CAVOK,,,,,,,,VFR,,,,,,,,,,,,METAR,127.0
MPSM 171400Z 35009KT(E) 9999 SCT018 28/19 Q1014,MPSM,2019-01-17T14:00:00Z,8.35,-80.13,28.0,19.0,,,,6.21,29.940945,,,,,,,,,,,SCT,1800,,,,,,,VFR,,,,,,,,,,,,METAR,0.0
VTUV 171400Z 06011KT 9999 FEW030 SCT060 23/13 Q1016 NOSIG,VTUV,2019-01-17T14:00:00Z,16.12,103.78,23.0,13.0,60,11,,6.21,30.0,,,,,,TRUE,,,,,FEW,3000,SCT,6000,,,,,VFR,,,,,,,,,,,,METAR,138.0
VTSB 171400Z 34004KT 9000 FEW020 25/24 Q1011,VTSB,2019-01-17T14:00:00Z,9.12,99.13,25.0,24.0,340,4,,5.59,29.852362,,,,,,,,,,,FEW,2000,,,,,,,VFR,,,,,,,,,,,,METAR,11.0
LFQG 171400Z AUTO 27010KT 9999 FEW027 07/01 Q1014,LFQG,2019-01-17T14:00:00Z,47.0,3.1,7.0,1.0,270,10,,6.21,29.940945,,,TRUE,,,,,,,,FEW,2700,,,,,,,VFR,,,,,,,,,,,,METAR,181.0
RJBB 171400Z AUTO 30018KT 9999 NSC 08/M00 Q1019 NOSIG,RJBB,2019-01-17T14:00:00Z,34.42,135.25,8.0,0.0,300,18,,6.21,30.088583,,,TRUE,,,TRUE,,,,,CLR,,,,,,,,VFR,,,,,,,,,,,,METAR,8.0
RJGG 171400Z 34013KT 9999 VCSH FEW020 BKN050 07/M00 Q1015 NOSIG,RJGG,2019-01-17T14:00:00Z,34.87,136.8,7.0,0.0,340,13,,6.21,29.970472,,,,,,TRUE,,,,VCSH,FEW,2000,BKN,5000,,,,,VFR,,,,,,,,,,,,METAR,5.0
RJNK 171400Z 35018G28KT 8000 -SHRASN FEW010 SCT015 BKN020 04/01 Q1019,RJNK,2019-01-17T14:00:00Z,36.37,136.42,4.0,1.0,350,18,28,4.97,30.088583,,,,,,,,,,-SHRA -SHSN,FEW,1000,SCT,1500,BKN,2000,,,MVFR,,,,,,,,,,,,METAR,9.0
TTPP 171400Z 09009KT 9999 FEW015 26/23 Q1018 NOSIG,TTPP,2019-01-17T14:00:00Z,10.58,-61.35,26.0,23.0,90,9,,6.21,30.059055,,,,,,TRUE,,,,,FEW,1500,,,,,,,VFR,,,,,,,,,,,,METAR,15.0
TTCP 171400Z 10012KT 9999 FEW018 29/22 Q1018 NOSIG,TTCP,2019-01-17T14:00:00Z,11.15,-60.85,29.0,22.0,100,12,,6.21,30.059055,,,,,,TRUE,,,,,FEW,1800,,,,,,,VFR,,,,,,,,,,,,METAR,8.0
LEBZ 171400Z 33005KT 240V030 9999 FEW030 13/05 Q1018,LEBZ,2019-01-17T14:00:00Z,38.87,-6.82,13.0,5.0,330,5,,6.21,30.059055,,,,,,,,,,,FEW,3000,,,,,,,VFR,,,,,,,,,,,,METAR,192.0
LEAB 171400Z 32011KT 9999 SCT035 08/01 Q1016 NOSIG,LEAB,2019-01-17T14:00:00Z,38.95,-1.85,8.0,1.0,320,11,,6.21,30.0,,,,,,TRUE,,,,,SCT,3500,,,,,,,VFR,,,,,,,,,,,,METAR,704.0
LEEC 171400Z VRB01KT CAVOK 14/07 Q1017,LEEC,2019-01-17T14:00:00Z,37.32,-6.0,14.0,7.0,0,1,,6.21,30.029528,,,,,,,,,,,CAVOK,,,,,,,,VFR,,,,,,,,,,,,METAR,7.0
LECV 171400Z VRB01KT 8000 FEW003 BKN050 06/03 Q1017,LECV,2019-01-17T14:00:00Z,40.63,-3.72,6.0,3.0,0,1,,4.97,30.029528,,,,,,,,,,,FEW,300,BKN,5000,,,,,MVFR,,,,,,,,,,,,METAR,710.0
LETO 171400Z 01003KT 320V050 8000 SCT060 07/04 Q1018 NOSIG,LETO,2019-01-17T14:00:00Z,40.47,-3.47,7.0,4.0,10,3,,4.97,30.059055,,,,,,TRUE,,,,,SCT,6000,,,,,,,MVFR,,,,,,,,,,,,METAR,608.0
LERT 171400Z 32006KT 290V360 9999 FEW057 14/10 Q1018 NOSIG,LERT,2019-01-17T14:00:00Z,36.63,-6.33,14.0,10.0,320,6,,6.21,30.059055,,,,,,TRUE,,,,,FEW,5700,,,,,,,VFR,,,,,,,,,,,,METAR,26.0
LERI 171400Z VRB02KT CAVOK 14/04 Q1016 NOSIG,LERI,2019-01-17T14:00:00Z,37.95,-1.22,14.0,4.0,0,2,,6.21,30.0,,,,,,TRUE,,,,,CAVOK,,,,,,,,VFR,,,,,,,,,,,,METAR,75.0
LEGT 171400Z 00000KT 6000 FEW008 SCT020 BKN040 08/03 Q1018,LEGT,2019-01-17T14:00:00Z,40.28,-3.72,8.0,3.0,0,0,,3.73,30.059055,,,,,,,,,,,FEW,800,SCT,2000,BKN,4000,,,MVFR,,,,,,,,,,,,METAR,612.0
LEGA 171400Z 31004KT 9999 SCT060 11/00 Q1016 1,LEGA,2019-01-17T14:00:00Z,37.12,-3.62,11.0,0.0,310,4,,6.21,30.0,,,,,,,,,,,SCT,6000,,,,,,,VFR,,,,,,,,,,,,METAR,686.0
LEAO 171400Z 02002KT 9999 FEW023 SCT028 09/02 Q1017,LEAO,2019-01-17T14:00:00Z,38.95,-3.73,9.0,2.0,20,2,,6.21,30.029528,,,,,,,,,,,FEW,2300,SCT,2800,,,,,VFR,,,,,,,,,,,,METAR,629.0
SMZO 171400Z 06008KT 9999 SCT020 30/22 Q1016 NOSIG,SMZO,2019-01-17T14:00:00Z,5.82,-55.18,30.0,22.0,60,8,,6.21,30.0,,,,,,TRUE,,,,,SCT,2000,,,,,,,VFR,,,,,,,,,,,,METAR,10.0
SMJP 171400Z 09012KT 9999 SCT020 29/23 Q1016 NOSIG,SMJP,2019-01-17T14:00:00Z,5.45,-55.17,29.0,23.0,90,12,,6.21,30.0,,,,,,TRUE,,,,,SCT,2000,,,,,,,VFR,,,,,,,,,,,,METAR,16.0
SKMR 171400Z 00000KT 9999 SCT018 28/24 A2993,SKMR,2019-01-17T14:00:00Z,8.82,-75.83,28.0,24.0,0,0,,6.21,29.929134,,,,,,,,,,,SCT,1800,,,,,,,VFR,,,,,,,,,,,,METAR,26.0
SKVP 171400Z 07012KT 9999 FEW020 28/21 A3000,SKVP,2019-01-17T14:00:00Z,10.42,-73.25,28.0,21.0,70,12,,6.21,30.0,,,,,,,,,,,FEW,2000,,,,,,,VFR,,,,,,,,,,,,METAR,138.0
SLPO 171400Z 06005KT 9999 FEW020 BKN200 14/07 Q1041,SLPO,2019-01-17T14:00:00Z,-19.52,-65.72,14.0,7.0,60,5,,6.21,30.73819,,,,,,,,,,,FEW,2000,BKN,20000,,,,,VFR,,,,,,,,,,,,METAR,3934.0
VOHY 171400Z 00000KT 5000 HZ NSC 23/15 Q1016 NOSIG,VOHY,2019-01-17T14:00:00Z,17.45,78.45,23.0,15.0,0,0,,3.11,30.0,,,,,,TRUE,,,,HZ,CLR,,,,,,,,MVFR,,,,,,,,,,,,METAR,545.0
SBUG 171400Z 18023G35KT 3000 +TSRA BKN006 SCT017 SCT040CB OVC07 0 22/21 Q1012,SBUG,2019-01-17T14:00:00Z,-29.77,-57.02,22.0,21.0,180,23,35,1.86,29.88189,,,,,,,,,,+TSRA,BKN,600,SCT,1700,SCT,4000,,,IFR,,,,,,,,,,,,METAR,74.0
SBPP 171400Z 32010KT CAVOK 32/20 Q1018,SBPP,2019-01-17T14:00:00Z,-22.55,-55.7,32.0,20.0,320,10,,6.21,30.059055,,,,,,,,,,,CAVOK,,,,,,,,VFR,,,,,,,,,,,,METAR,660.0
SBTF 171400Z 24004KT 9999 BKN008 25/25 Q1016,SBTF,2019-01-17T14:00:00Z,-3.37,-64.72,25.0,25.0,240,4,,6.21,30.0,,,,,,,,,,,BKN,800,,,,,,,IFR,,,,,,,,,,,,METAR,47.0
SBBG 171400Z 14006KT 9999 SCT030 BKN100 26/23 Q1016,SBBG,2019-01-17T14:00:00Z,-31.38,-54.12,26.0,23.0,140,6,,6.21,30.0,,,,,,,,,,,SCT,3000,BKN,10000,,,,,VFR,,,,,,,,,,,,METAR,180.0
SBTT 171400Z 14003KT 9999 -RA FEW015 BKN070 22/21 Q1017,SBTT,2019-01-17T14:00:00Z,-4.25,-69.93,22.0,21.0,140,3,,6.21,30.029528,,,,,,,,,,-RA,FEW,1500,BKN,7000,,,,,VFR,,,,,,,,,,,,METAR,85.0
SBSG 171400Z 16012KT 130V210 9999 BKN030 SCT100 31/23 Q1014,SBSG,2019-01-17T14:00:00Z,-5.77,-35.37,31.0,23.0,160,12,,6.21,29.940945,,,,,,,,,,,BKN,3000,SCT,10000,,,,,MVFR,,,,,,,,,,,,METAR,83.0
SBBE 171400Z 05006KT 9999 BKN023 30/23 Q1014,SBBE,2019-01-17T14:00:00Z,-1.37,-48.47,30.0,23.0,50,6,,6.21,29.940945,,,,,,,,,,,BKN,2300,,,,,,,MVFR,,,,,,,,,,,,METAR,16.0
SLYA 171400Z 00000KT 9999 SCT020 BKN200 27/24 Q1010,SLYA,2019-01-17T14:00:00Z,-21.97,-63.65,27.0,24.0,0,0,,6.21,29.822834,,,,,,,,,,,SCT,2000,BKN,20000,,,,,VFR,,,,,,,,,,,,METAR,645.0
SLVM 171400Z 00000KT 9999 BKN070 27/22 Q1010,SLVM,2019-01-17T14:00:00Z,-21.25,-63.4,27.0,22.0,0,0,,6.21,29.822834,,,,,,,,,,,BKN,7000,,,,,,,VFR,,,,,,,,,,,,METAR,400.0
SLSI 171400Z 36006KT 9999 NSC 29/22 Q1016,SLSI,2019-01-17T14:00:00Z,-16.37,-60.95,29.0,22.0,360,6,,6.21,30.0,,,,,,,,,,,CLR,,,,,,,,VFR,,,,,,,,,,,,METAR,413.0
SLSA 171400Z 31010KT 9999 BKN017 29/24 Q1015,SLSA,2019-01-17T14:00:00Z,-13.77,-65.43,29.0,24.0,310,10,,6.21,29.970472,,,,,,,,,,,BKN,1700,,,,,,,MVFR,,,,,,,,,,,,METAR,144.0
SLRY 171400Z 00000KT 9999 SCT012 BKN080 26/24 Q1013,SLRY,2019-01-17T14:00:00Z,-14.3,-67.37,26.0,24.0,0,0,,6.21,29.911417,,,,,,,,,,,SCT,1200,BKN,8000,,,,,VFR,,,,,,,,,,,,METAR,280.0
SLRQ 171400Z 00000KT 9999 BKN013 BKN070 26/24 Q1018,SLRQ,2019-01-17T14:00:00Z,-14.42,-67.5,26.0,24.0,0,0,,6.21,30.059055,,,,,,,,,,,BKN,1300,BKN,7000,,,,,MVFR,,,,,,,,,,,,METAR,203.0
SLRI 171400Z 00000KT 9999 SCT010 FEW023CB BKN080 28/24 Q1017,SLRI,2019-01-17T14:00:00Z,-11.02,-66.08,28.0,24.0,0,0,,6.21,30.029528,,,,,,,,,,,SCT,1000,FEW,2300,BKN,8000,,,VFR,,,,,,,,,,,,METAR,135.0
SLRB 171400Z 36015KT 9999 NSC 33/24 Q1017,SLRB,2019-01-17T14:00:00Z,-18.32,-59.75,33.0,24.0,360,15,,6.21,30.029528,,,,,,,,,,,CLR,,,,,,,,VFR,,,,,,,,,,,,METAR,284.0
SLPS 171400Z 06005KT 9999 NSC 34/24 Q1013,SLPS,2019-01-17T14:00:00Z,-18.98,-57.82,34.0,24.0,60,5,,6.21,29.911417,,,,,,,,,,,CLR,,,,,,,,VFR,,,,,,,,,,,,METAR,135.0
SYCJ 171400Z 08010KT 9999 BKN022 28/24 Q1016 NOSIG,SYCJ,2019-01-17T14:00:00Z,6.5,-58.25,28.0,24.0,80,10,,6.21,30.0,,,,,,TRUE,,,,,BKN,2200,,,,,,,MVFR,,,,,,,,,,,,METAR,30.0
SUSO 171400Z 14007KT 9999 SCT010 OVC060 22/20 Q1014,SUSO,2019-01-17T14:00:00Z,-31.43,-57.98,22.0,20.0,140,7,,6.21,29.940945,,,,,,,,,,,SCT,1000,OVC,6000,,,,,VFR,,,,,,,,,,,,METAR,34.0
SUDU 171400Z 13015KT 9999 BKN013 BKN020 22/19 Q1017,SUDU,2019-01-17T14:00:00Z,-33.35,-56.5,22.0,19.0,130,15,,6.21,30.029528,,,,,,,,,,,BKN,1300,BKN,2000,,,,,MVFR,,,,,,,,,,,,METAR,93.0
DTTN 171400Z 00000KT 9999 SCT020 16/06 Q1016,DTTN,2019-01-17T14:00:00Z,36.47,8.8,16.0,6.0,0,0,,6.21,30.0,,,,,,,,,,,SCT,2000,,,,,,,VFR,,,,,,,,,,,,METAR,144.0
FYGF 171400Z 09006KT 9999 FEW040CB FEW045TCU SCT050 36/21 Q1015,FYGF,2019-01-17T14:00:00Z,-19.6,18.12,36.0,21.0,90,6,,6.21,29.970472,,,,,,,,,,,FEW,4000,FEW,4500,SCT,5000,,,VFR,,,,,,,,,,,,METAR,1400.0
FXMM 171400Z 27006KT 9999 BKN035 FEW040TCU 31/09 Q1019 NOSIG,FXMM,2019-01-17T14:00:00Z,-29.47,27.55,31.0,9.0,270,6,,6.21,30.088583,,,,,,TRUE,,,,,BKN,3500,FEW,4000,,,,,VFR,,,,,,,,,,,,METAR,1631.0
SUCA 171400Z 15019KT 9999 SCT026 BKN085 22/16 Q1018,SUCA,2019-01-17T14:00:00Z,-34.45,-57.77,22.0,16.0,150,19,,6.21,30.059055,,,,,,,,,,,SCT,2600,BKN,8500,,,,,VFR,,,,,,,,,,,,METAR,23.0
SUAA 171400Z 15011G21KT 9999 SCT020 BKN200 21/14 Q1018,SUAA,2019-01-17T14:00:00Z,-34.77,-56.25,21.0,14.0,150,11,21,6.21,30.059055,,,,,,,,,,,SCT,2000,BKN,20000,,,,,VFR,,,,,,,,,,,,METAR,54.0
SULS 171400Z 15015G25KT 9999 BKN020 22/15 Q1018,SULS,2019-01-17T14:00:00Z,-34.87,-55.1,22.0,15.0,150,15,25,6.21,30.059055,,,,,,,,,,,BKN,2000,,,,,,,MVFR,,,,,,,,,,,,METAR,30.0
FYWE 171400Z VRB02KT 9999 FEW045CB SCT050TCU 34/05 Q1018,FYWE,2019-01-17T14:00:00Z,-22.62,17.08,34.0,5.0,0,2,,6.21,30.059055,,,,,,,,,,,FEW,4500,SCT,5000,,,,,VFR,,,,,,,,,,,,METAR,1700.0
SGES 171400Z 34011KT CAVOK 34/22 Q1013,SGES,2019-01-17T14:00:00Z,-25.45,-54.85,34.0,22.0,340,11,,6.21,29.911417,,,,,,,,,,,CAVOK,,,,,,,,VFR,,,,,,,,,,,,METAR,849.0
SLLP 171400Z 08005KT 030V130 8000 FEW006 SCT015 BKN20011/05 Q1041,SLLP,2019-01-17T14:00:00Z,-16.52,-68.17,11.0,5.0,80,5,,4.97,30.73819,,,,,,,,,,,FEW,600,SCT,1500,,,,,MVFR,,,,,,,,,,,,SPECI,4014.0
SLCB 171400Z 00000KT 9999 FEW033 BKN200 23/08 Q1027,SLCB,2019-01-17T14:00:00Z,-17.42,-66.18,23.0,8.0,0,0,,6.21,30.324802,,,,,,,,,,,FEW,3300,BKN,20000,,,,,VFR,,,,,,,,,,,,METAR,2548.0
SLTJ 171400Z 21003KT 9999 FEW025 BKN200 25/18 Q1018,SLTJ,2019-01-17T14:00:00Z,-21.55,-64.72,25.0,18.0,210,3,,6.21,30.059055,,,,,,,,,,,FEW,2500,BKN,20000,,,,,VFR,,,,,,,,,,,,METAR,1858.0
SLVR 171400Z 34019G30KT 9999 SCT010 BKN015 27/23 Q1014,SLVR,2019-01-17T14:00:00Z,-17.63,-63.12,27.0,23.0,340,19,30,6.21,29.940945,,,,,,,,,,,SCT,1000,BKN,1500,,,,,MVFR,,,,,,,,,,,,METAR,373.0
SLTR 171400Z 29004KT 9999 SCT017 28/24 Q1015,SLTR,2019-01-17T14:00:00Z,-14.83,-64.92,28.0,24.0,290,4,,6.21,29.970472,,,,,,,,,,,SCT,1700,,,,,,,VFR,,,,,,,,,,,,METAR,157.0
SGAS 171400Z 36011KT 290V040 CAVOK 34/23 Q1011,SGAS,2019-01-17T14:00:00Z,-25.25,-57.52,34.0,23.0,360,11,,6.21,29.852362,,,,,,,,,,,CAVOK,,,,,,,,VFR,,,,,,,,,,,,METAR,101.0
SBMA 171400Z 29003KT 9999 SCT020 30/25 Q1014,SBMA,2019-01-17T14:00:00Z,-5.37,-49.13,30.0,25.0,290,3,,6.21,29.940945,,,,,,,,,,,SCT,2000,,,,,,,VFR,,,,,,,,,,,,METAR,102.0
BIAR 171400Z 15003KT 090V200 9999 SCT040 BKN090 M11/M12 Q1011 R01/490095,BIAR,2019-01-17T14:00:00Z,65.67,-18.07,-11.0,-12.0,150,3,,6.21,29.852362,,,,,,,,,,,SCT,4000,BKN,9000,,,,,VFR,,,,,,,,,,,,METAR,27.0
OPST 171400Z 00000KT 4000 FU FEW100 14/06 Q1017 NOSIG RH56,OPST,2019-01-17T14:00:00Z,32.53,74.37,14.0,6.0,0,0,,2.49,30.029528,,,,,,TRUE,,,,FU,FEW,10000,,,,,,,IFR,,,,,,,,,,,,METAR,247.0
DAAD 171400Z 08002KT 8000 FEW030 SCT100 13/04 Q1017,DAAD,2019-01-17T14:00:00Z,35.32,4.2,13.0,4.0,80,2,,4.97,30.029528,,,,,,,,,,,FEW,3000,SCT,10000,,,,,MVFR,,,,,,,,,,,,METAR,461.0
SLET 171400Z 32020G30KT 9999 SCT010 BKN015 27/22 Q1013,SLET,2019-01-17T14:00:00Z,-17.8,-63.17,27.0,22.0,320,20,30,6.21,29.911417,,,,,,,,,,,SCT,1000,BKN,1500,,,,,MVFR,,,,,,,,,,,,METAR,414.0
FAJB 171400Z AUTO 34002KT //// // ////// 30/14 Q1017,FAJB,2019-01-17T14:00:00Z,-26.15,28.0,30.0,14.0,340,2,,,30.029528,,,TRUE,,,,,,,,,,,,,,,,,,,,,,,,,,,,METAR,1626.0
DAAY 171400Z 23012KT 9999 FEW030 SCT233 11/M05 Q1019,DAAY,2019-01-17T14:00:00Z,33.53,-0.25,11.0,-5.0,230,12,,6.21,30.088583,,,,,,,,,,,FEW,3000,SCT,23300,,,,,VFR,,,,,,,,,,,,METAR,1149.0
DAAP 171400Z 34008KT CAVOK 20/M08 Q1016,DAAP,2019-01-17T14:00:00Z,26.72,8.62,20.0,-8.0,340,8,,6.21,30.0,,,,,,,,,,,CAVOK,,,,,,,,VFR,,,,,,,,,,,,METAR,558.0
DAOR 171400Z 21012KT CAVOK 16/M04 Q1018,DAOR,2019-01-17T14:00:00Z,31.65,-2.27,16.0,-4.0,210,12,,6.21,30.059055,,,,,,,,,,,CAVOK,,,,,,,,VFR,,,,,,,,,,,,METAR,773.0
DAOL 171400Z 27014KT 8000 FEW023 17/08 Q1016,DAOL,2019-01-17T14:00:00Z,35.53,-0.52,17.0,8.0,270,14,,4.97,30.0,,,,,,,,,,,FEW,2300,,,,,,,MVFR,,,,,,,,,,,,METAR,112.0
DAOF 171400Z 00000KT CAVOK 17/M00 Q1014,DAOF,2019-01-17T14:00:00Z,27.7,-8.17,17.0,0.0,0,0,,6.21,29.940945,,,,,,,,,,,CAVOK,,,,,,,,VFR,,,,,,,,,,,,METAR,431.0
DAUE 171400Z 31006KT CAVOK 16/M01 Q1017,DAUE,2019-01-17T14:00:00Z,30.57,2.87,16.0,-1.0,310,6,,6.21,30.029528,,,,,,,,,,,CAVOK,,,,,,,,VFR,,,,,,,,,,,,METAR,397.0
DAOV 171400Z 27004KT 9999 SCT026 16/03 Q1016,DAOV,2019-01-17T14:00:00Z,35.2,0.15,16.0,3.0,270,4,,6.21,30.0,,,,,,,,,,,SCT,2600,,,,,,,VFR,,,,,,,,,,,,METAR,514.0
BIEG 171400Z 01008KT 9999 VCSH SCT015 OVC025 M05/M06 Q1011 RESN R04/790194,BIEG,2019-01-17T14:00:00Z,65.27,-14.4,-5.0,-6.0,10,8,,6.21,29.852362,,,,,,,,,,VCSH,SCT,1500,OVC,2500,,,,,MVFR,,,,,,,,,,,,METAR,38.0
SVMI 171400Z 14003KT 9999 BKN016 28/23 Q1016,SVMI,2019-01-17T14:00:00Z,10.58,-67.0,28.0,23.0,140,3,,6.21,30.0,,,,,,,,,,,BKN,1600,,,,,,,MVFR,,,,,,,,,,,,METAR,48.0
DAUO 171400Z 35007KT CAVOK 15/01 Q1016,DAUO,2019-01-17T14:00:00Z,33.5,6.78,15.0,1.0,350,7,,6.21,30.0,,,,,,,,,,,CAVOK,,,,,,,,VFR,,,,,,,,,,,,METAR,63.0
LQMO 171400Z VRB01KT 2500 BR SCT037 BKN050 08/01 Q1018,LQMO,2019-01-17T14:00:00Z,43.28,17.83,8.0,1.0,0,1,,1.55,30.059055,,,,,,,,,,BR,SCT,3700,BKN,5000,,,,,IFR,,,,,,,,,,,,METAR,48.0
DAUL 171400Z 21008KT 9999 FEW030 13/01 Q1017,DAUL,2019-01-17T14:00:00Z,33.77,2.92,13.0,1.0,210,8,,6.21,30.029528,,,,,,,,,,,FEW,3000,,,,,,,VFR,,,,,,,,,,,,METAR,765.0
DAUK 171400Z 33007KT CAVOK 16/04 Q1017,DAUK,2019-01-17T14:00:00Z,33.08,6.12,16.0,4.0,330,7,,6.21,30.029528,,,,,,,,,,,CAVOK,,,,,,,,VFR,,,,,,,,,,,,METAR,85.0
DAUI 171400Z 09012KT CAVOK 20/M05 Q1016,DAUI,2019-01-17T14:00:00Z,27.25,2.52,20.0,-5.0,90,12,,6.21,30.0,,,,,,,,,,,CAVOK,,,,,,,,VFR,,,,,,,,,,,,METAR,269.0
DAUU 171400Z 33007KT CAVOK 16/02 Q1016,DAUU,2019-01-17T14:00:00Z,31.92,5.4,16.0,2.0,330,7,,6.21,30.0,,,,,,,,,,,CAVOK,,,,,,,,VFR,,,,,,,,,,,,METAR,141.0
DAUT 171400Z 02005KT CAVOK 18/M03 Q1017,DAUT,2019-01-17T14:00:00Z,29.25,0.27,18.0,-3.0,20,5,,6.21,30.029528,,,,,,,,,,,CAVOK,,,,,,,,VFR,,,,,,,,,,,,METAR,312.0
DAUB 171400Z 31005KT 9999 FEW040 SCT200 16/02 Q1017,DAUB,2019-01-17T14:00:00Z,34.78,5.72,16.0,2.0,310,5,,6.21,30.029528,,,,,,,,,,,FEW,4000,SCT,20000,,,,,VFR,,,,,,,,,,,,METAR,87.0
DAUA 171400Z 00000KT CAVOK 20/M09 Q1016,DAUA,2019-01-17T14:00:00Z,27.83,-0.18,20.0,-9.0,0,0,,6.21,30.0,,,,,,,,,,,CAVOK,,,,,,,,VFR,,,,,,,,,,,,METAR,263.0
DAOB 171400Z 28009KT 9999 SCT026 12/01 Q1016,DAOB,2019-01-17T14:00:00Z,35.33,1.47,12.0,1.0,280,9,,6.21,30.0,,,,,,,,,,,SCT,2600,,,,,,,VFR,,,,,,,,,,,,METAR,989.0
DABS 171400Z 34002KT 9999 FEW040 14/M05 Q1015,DABS,2019-01-17T14:00:00Z,35.43,8.12,14.0,-5.0,340,2,,6.21,29.970472,,,,,,,,,,,FEW,4000,,,,,,,VFR,,,,,,,,,,,,METAR,813.0
DAAS 171400Z 26006KT 9999 SCT030 SCT233 08/00 Q1016,DAAS,2019-01-17T14:00:00Z,36.18,5.33,8.0,0.0,260,6,,6.21,30.0,,,,,,,,,,,SCT,3000,SCT,23300,,,,,VFR,,,,,,,,,,,,METAR,1038.0
TDPD 171400Z 12009KT 9999 FEW023 28/20 Q1020,TDPD,2019-01-17T14:00:00Z,15.55,-61.3,28.0,20.0,120,9,,6.21,30.11811,,,,,,,,,,,FEW,2300,,,,,,,VFR,,,,,,,,,,,,METAR,14.0
BIRK 171400Z 09007KT 1300 R19/1500N -SN FEW008 OVC015 M00/M02 Q1007,BIRK,2019-01-17T14:00:00Z,64.13,-21.93,0.0,-2.0,90,7,,0.81,29.734253,,,,,,,,,,-SN,FEW,800,OVC,1500,,,,,LIFR,,,,,,,,,,,,METAR,61.0
UCFL 171400Z 02004MPS 9999 FEW030 M02/M07 Q1020 R07/CLRD95,UCFL,2019-01-17T14:00:00Z,42.58,76.7,-2.0,-7.0,20,8,,6.21,30.11811,,,,,,,,,,,FEW,3000,,,,,,,VFR,,,,,,,,,,,,METAR,1648.0
DAUZ 171400Z 24006KT 200V280 CAVOK 19/M11 Q1016,DAUZ,2019-01-17T14:00:00Z,28.05,9.62,19.0,-11.0,240,6,,6.21,30.0,,,,,,,,,,,CAVOK,,,,,,,,VFR,,,,,,,,,,,,METAR,562.0
DABT 171400Z 27006KT 9999 FEW020 BKN200 12/05 Q1016,DABT,2019-01-17T14:00:00Z,35.75,6.32,12.0,5.0,270,6,,6.21,30.0,,,,,,,,,,,FEW,2000,BKN,20000,,,,,VFR,,,,,,,,,,,,METAR,823.0
DAAV 171400Z 36005KT 9999 FEW023 BKN200 16/07 Q1016,DAAV,2019-01-17T14:00:00Z,36.8,5.88,16.0,7.0,360,5,,6.21,30.0,,,,,,,,,,,FEW,2300,BKN,20000,,,,,VFR,,,,,,,,,,,,METAR,11.0
DAAJ 171400Z 24004KT CAVOK 20/M04 Q1018,DAAJ,2019-01-17T14:00:00Z,24.28,9.47,20.0,-4.0,240,4,,6.21,30.059055,,,,,,,,,,,CAVOK,,,,,,,,VFR,,,,,,,,,,,,METAR,968.0
DAAE 171400Z 12005KT 9999 FEW023 SCT090 BKN233 16/08 Q1016,DAAE,2019-01-17T14:00:00Z,36.72,5.07,16.0,8.0,120,5,,6.21,30.0,,,,,,,,,,,FEW,2300,SCT,9000,BKN,23300,,,VFR,,,,,,,,,,,,METAR,2.0
UTAT 171400Z 04004KT 9000 NSC 09/05 Q1003 R08/CLRD70 NOSIG,UTAT,2019-01-17T14:00:00Z,41.77,59.83,9.0,5.0,40,4,,5.59,29.616142,,,,,,TRUE,,,,,CLR,,,,,,,,VFR,,,,,,,,,,,,METAR,83.0
UTAM 171400Z 12008KT 4700 HZ SCT066 SCT100 OVC230 19/09 Q1001 NOSIG,UTAM,2019-01-17T14:00:00Z,37.62,61.9,19.0,9.0,120,8,,2.92,29.557087,,,,,,TRUE,,,,HZ,SCT,6600,SCT,10000,OVC,23000,,,IFR,,,,,,,,,,,,METAR,222.0
UTAV 171400Z 14020KT 0800R 13/1700N +DS VV012 17/M00 Q1004 NOSIG,UTAV,2019-01-17T14:00:00Z,39.08,63.62,17.0,0.0,140,20,,1.06,29.64567,,,,,,TRUE,,,,+DS,OVX,0,,,,,,,LIFR,,,,,,,,,,,1200,METAR,192.0
UTAK 171400Z 33018G28KT 9999 SCT013 OVC100 06/04 Q1003 R34L/19//60 NOSIG,UTAK,2019-01-17T14:00:00Z,40.05,53.0,6.0,4.0,330,18,28,6.21,29.616142,,,,,,TRUE,,,,,SCT,1300,OVC,10000,,,,,VFR,,,,,,,,,,,,METAR,85.0
UTAA 171400Z 29006KT 250V310 9000 FEW050CB SCT050 BKN100 15/08 Q0997 R88/70D NOSIG,UTAA,2019-01-17T14:00:00Z,37.98,58.37,15.0,8.0,290,6,,5.59,29.438976,,,,,,TRUE,,,,,FEW,5000,SCT,5000,BKN,10000,,,VFR,,,,,,,,,,,,METAR,210.0
DAOI 171400Z 21006KT 9999 FEW026 15/07 Q1016,DAOI,2019-01-17T14:00:00Z,36.22,1.32,15.0,7.0,210,6,,6.21,30.0,,,,,,,,,,,FEW,2600,,,,,,,VFR,,,,,,,,,,,,METAR,143.0
DAUG 171400Z 33004KT CAVOK 15/M00 Q1017,DAUG,2019-01-17T14:00:00Z,32.37,3.82,15.0,0.0,330,4,,6.21,30.029528,,,,,,,,,,,CAVOK,,,,,,,,VFR,,,,,,,,,,,,METAR,450.0
OIAI 171400Z 24002KT 4000 DU SCT040 10/06 Q1014,OIAI,2019-01-17T14:00:00Z,32.0,49.27,10.0,6.0,240,2,,2.49,29.940945,,,,,,,,,,DU,SCT,4000,,,,,,,IFR,,,,,,,,,,,,METAR,372.0
MPTO 171400Z 33008KT 9999 SCT018 29/19 Q1015 NOSIG,MPTO,2019-01-17T14:00:00Z,9.05,-79.37,29.0,19.0,330,8,,6.21,29.970472,,,,,,TRUE,,,,,SCT,1800,,,,,,,VFR,,,,,,,,,,,,METAR,45.0
BIHN 171400Z VRB02KT 7000 -SN SCT008 OVC017 M02/M02 Q1010 R18/4925// RMK VIS NW 10 KM.,BIHN,2019-01-17T14:00:00Z,64.3,-15.23,-2.0,-2.0,0,2,,4.35,29.822834,,,,,,,,,,-SN,SCT,800,OVC,1700,,,,,MVFR,,,,,,,,,,,,METAR,7.0
SPTU 171400Z VRB02KT 9999 SCT010 27/24 Q1016 RMK BIRD HAZARD RWY 01/19 PP000,SPTU,2019-01-17T14:00:00Z,-12.62,-69.2,27.0,24.0,0,2,,6.21,30.0,,,,,,,,,,,SCT,1000,,,,,,,VFR,,,,,,,,,,,,METAR,266.0
SBRF 171400Z 11008KT 9999 SCT023 SCT060 30/24 Q1014,SBRF,2019-01-17T14:00:00Z,-8.13,-34.92,30.0,24.0,110,8,,6.21,29.940945,,,,,,,,,,,SCT,2300,SCT,6000,,,,,VFR,,,,,,,,,,,,METAR,19.0
UBEE 171400Z 31014KT 9999 OVC036 05/02 Q1010 R30/CLRD// NOSIG,UBEE,2019-01-17T14:00:00Z,40.63,47.15,5.0,2.0,310,14,,6.21,29.822834,,,,,,TRUE,,,,,OVC,3600,,,,,,,VFR,,,,,,,,,,,,METAR,15.0
MYGF 171400Z 08006KT 9999 FEW020 20/16 A3021,MYGF,2019-01-17T14:00:00Z,26.55,-78.7,20.0,16.0,80,6,,6.21,30.209646,,,,,,,,,,,FEW,2000,,,,,,,VFR,,,,,,,,,,,,METAR,2.0
SBCB 171400Z 13009KT CAVOK 31/22 Q1015,SBCB,2019-01-17T14:00:00Z,-22.92,-42.08,31.0,22.0,130,9,,6.21,29.970472,,,,,,,,,,,CAVOK,,,,,,,,VFR,,,,,,,,,,,,METAR,4.0
OIBQ 171400Z 31019KT 5000 DU NSC 16/09 Q1016,OIBQ,2019-01-17T14:00:00Z,29.27,50.32,16.0,9.0,310,19,,3.11,30.0,,,,,,,,,,DU,CLR,,,,,,,,MVFR,,,,,,,,,,,,METAR,6.0
OIFK 171400Z 22025KT 9999 SCT040 BKN100 09/01 Q1005,OIFK,2019-01-17T14:00:00Z,33.9,51.58,9.0,1.0,220,25,,6.21,29.675198,,,,,,,,,,,SCT,4000,BKN,10000,,,,,VFR,,,,,,,,,,,,METAR,982.0
SPYL 171400Z 14017KT CAVOK 26/20 Q1013 RMK BIRD HAZARD RWY 17/35 PP000,SPYL,2019-01-17T14:00:00Z,-4.57,-81.25,26.0,20.0,140,17,,6.21,29.911417,,,,,,,,,,,CAVOK,,,,,,,,VFR,,,,,,,,,,,,METAR,90.0
AGGH 171400Z 16003KT 9999 FEW015 FEW016CB 25/25 Q1007,AGGH,2019-01-17T14:00:00Z,-9.42,160.05,25.0,25.0,160,3,,6.21,29.734253,,,,,,,,,,,FEW,1500,FEW,1600,,,,,VFR,,,,,,,,,,,,METAR,9.0
YPPH 171400Z 21013KT CAVOK 19/14 Q1015,YPPH,2019-01-17T14:00:00Z,-31.93,115.98,19.0,14.0,210,13,,6.21,29.970472,,,,,,,,,,,CAVOK,,,,,,,,VFR,,,,,,,,,,,,METAR,13.0
YPLM 171400Z AUTO 24009KT 9999 // NCD 29/17 Q1008,YPLM,2019-01-17T14:00:00Z,-22.22,114.07,29.0,17.0,240,9,,6.21,29.763779,,,TRUE,,,,,,,,CLR,,,,,,,,VFR,,,,,,,,,,,,METAR,6.0
YPKU 171400Z AUTO 35007KT 9999 // NCD 29/26 Q1007,YPKU,2019-01-17T14:00:00Z,-15.77,128.68,29.0,26.0,350,7,,6.21,29.734253,,,TRUE,,,,,,,,CLR,,,,,,,,VFR,,,,,,,,,,,,METAR,45.0
YPDN 171400Z 18006KT 9999 VCTS SCT020 BKN160 FEW020CB 28/23 Q1008,YPDN,2019-01-17T14:00:00Z,-12.42,130.9,28.0,23.0,180,6,,6.21,29.763779,,,,,,,,,,VCTS,SCT,2000,BKN,16000,FEW,2000,,,VFR,,,,,,,,,,,,METAR,30.0
YPCC 171400Z AUTO 14010KT 9999 // NCD 27/21 Q1010,YPCC,2019-01-17T14:00:00Z,-12.17,96.82,27.0,21.0,140,10,,6.21,29.822834,,,TRUE,,,,,,,,CLR,,,,,,,,VFR,,,,,,,,,,,,METAR,3.0
YPTN 171400Z AUTO 36008KT 9999 // NCD 27/22 Q1009,YPTN,2019-01-17T14:00:00Z,-14.52,132.38,27.0,22.0,360,8,,6.21,29.793306,,,TRUE,,,,,,,,CLR,,,,,,,,VFR,,,,,,,,,,,,METAR,109.0
YSSY 171400Z 13016KT CAVOK 23/20 Q1012,YSSY,2019-01-17T14:00:00Z,-33.95,151.17,23.0,20.0,130,16,,6.21,29.88189,,,,,,,,,,,CAVOK,,,,,,,,VFR,,,,,,,,,,,,METAR,3.0
YPXM 171400Z AUTO 21005KT 9999 // SCT041 25/20 Q1011,YPXM,2019-01-17T14:00:00Z,-10.45,105.67,25.0,20.0,210,5,,6.21,29.852362,,,TRUE,,,,,,,,SCT,4100,,,,,,,VFR,,,,,,,,,,,,METAR,259.0
OICM 171400Z 11002KT 9999 SCT035 OVC080 10/03 Q1012,OICM,2019-01-17T14:00:00Z,,,10.0,3.0,110,2,,6.21,29.88189,,,,,,,,,,,SCT,3500,OVC,8000,,,,,VFR,,,,,,,,,,,,METAR,
SKSM 171400Z 21006KT 9000 FEW020 27/23 A2995 RMK HZ,SKSM,2019-01-17T14:00:00Z,11.12,-74.22,27.0,23.0,210,6,,5.59,29.949802,,,,,,,,,,,FEW,2000,,,,,,,VFR,,,,,,,,,,,,METAR,4.0
OIIS 171400Z 12002KT 4000 TS SCT030CB SCT035 OVC090 09/06 Q1001 RESH,OIIS,2019-01-17T14:00:00Z,35.38,53.67,9.0,6.0,120,2,,2.49,29.557087,,,,,,,,,,TS,SCT,3000,SCT,3500,OVC,9000,,,IFR,,,,,,,,,,,,METAR,1115.0
SKRH 171400Z 06008KT 9999 OVC020 26/21 A2999,SKRH,2019-01-17T14:00:00Z,11.52,-72.92,26.0,21.0,60,8,,6.21,29.991142,,,,,,,,,,,OVC,2000,,,,,,,MVFR,,,,,,,,,,,,METAR,4.0
SKPV 171400Z 08006KT 030V120 9999 FEW017 28/22 A3004,SKPV,2019-01-17T14:00:00Z,13.37,-81.33,28.0,22.0,80,6,,6.21,30.041338,,,,,,,,,,,FEW,1700,,,,,,,VFR,,,,,,,,,,,,METAR,6.0
DIST CB TO NW,DIST,2019-01-17T14:00:00Z,,,,,,,,,,,,,,,,,,,,,,,,,,,,,,,,,,,,,,,,SPECI,
WSAP 171400Z 05005KT 9999 FEW018 BKN170 26/25 Q1010,WSAP,2019-01-17T14:00:00Z,1.37,103.92,26.0,25.0,50,5,,6.21,29.822834,,,,,,,,,,,FEW,1800,BKN,17000,,,,,VFR,,,,,,,,,,,,METAR,32.0
MWCB 171400Z 06007KT 9999 FEW018 27/22 Q1020,MWCB,2019-01-17T14:00:00Z,19.68,-79.88,27.0,22.0,60,7,,6.21,30.11811,,,,,,,,,,,FEW,1800,,,,,,,VFR,,,,,,,,,,,,METAR,2.0
MWCR 171400Z 05006KT 9999 FEW018 27/23 Q1019,MWCR,2019-01-17T14:00:00Z,19.3,-81.37,27.0,23.0,50,6,,6.21,30.088583,,,,,,,,,,,FEW,1800,,,,,,,VFR,,,,,,,,,,,,METAR,3.0
FLKK 171400Z 23004KT 9999 BKN020 BKN090 22/19 Q1017,FLKK,2019-01-17T14:00:00Z,-15.32,28.45,22.0,19.0,230,4,,6.21,30.029528,,,,,,,,,,,BKN,2000,BKN,9000,,,,,MVFR,,,,,,,,,,,,METAR,1154.0
SBSN 171400Z 05003KT 9999 VCSH FEW013 SCT018 BKN100 26/25 Q1015,SBSN,2019-01-17T14:00:00Z,-2.42,-54.78,26.0,25.0,50,3,,6.21,29.970472,,,,,,,,,,VCSH,FEW,1300,SCT,1800,BKN,10000,,,VFR,,,,,,,,,,,,METAR,72.0
SKMZ 171400Z 28004KT 9000 VCFG SCT020 BKN100 18/13 A3037 RMK VCFG/W,SKMZ,2019-01-17T14:00:00Z,5.03,-75.47,18.0,13.0,280,4,,5.59,30.369095,,,,,,,,,,VCFG,SCT,2000,BKN,10000,,,,,VFR,,,,,,,,,,,,METAR,2080.0
YABA 171400Z AUTO 22003KT 9999 // OVC039 16/12 Q1017,YABA,2019-01-17T14:00:00Z,-34.93,117.8,16.0,12.0,220,3,,6.21,30.029528,,,TRUE,,,,,,,,OVC,3900,,,,,,,VFR,,,,,,,,,,,,METAR,69.0
SLJO 171400Z 34004KT 9999 FEW017 29/24 Q1015,SLJO,2019-01-17T14:00:00Z,-13.07,-64.67,29.0,24.0,340,4,,6.21,29.970472,,,,,,,,,,,FEW,1700,,,,,,,VFR,,,,,,,,,,,,METAR,140.0
SKUI 171400Z 33005KT 7000 BKN015 OVC080 25/23 A2990 RMK HZ,SKUI,2019-01-17T14:00:00Z,5.72,-76.62,25.0,23.0,330,5,,4.35,29.899607,,,,,,,,,,,BKN,1500,OVC,8000,,,,,MVFR,,,,,,,,,,,,METAR,33.0
SKPC 171400Z 09006KT CAVOK 30/22 A2991,SKPC,2019-01-17T14:00:00Z,6.17,-67.5,30.0,22.0,90,6,,6.21,29.911417,,,,,,,,,,,CAVOK,,,,,,,,VFR,,,,,,,,,,,,METAR,55.0
SKMD 171400Z 03005KT 9999 5000SE VCSH BKN025 SCT070 20/17 A3020 RMK VCSH/SE AD BLW MNM MET,SKMD,2019-01-17T14:00:00Z,6.22,-75.58,20.0,17.0,30,5,,6.21,30.200787,,,,,,,,,,VCSH,BKN,2500,SCT,7000,,,,,MVFR,,,,,,,,,,,,METAR,1499.0
SKUC 171400Z 10006KT 9999 NSC 29/21 A3002,SKUC,2019-01-17T14:00:00Z,7.07,-70.72,29.0,21.0,100,6,,6.21,30.02067,,,,,,,,,,,CLR,,,,,,,,VFR,,,,,,,,,,,,METAR,128.0
SKEJ 171400Z 17003KT 9999 FEW015 BKN100 27/24 A2992,SKEJ,2019-01-17T14:00:00Z,7.02,-73.78,27.0,24.0,170,3,,6.21,29.920275,,,,,,,,,,,FEW,1500,BKN,10000,,,,,VFR,,,,,,,,,,,,METAR,134.0
SKIB 171400Z 07003KT 9999 SCT030 SCT100 25/21 A3018,SKIB,2019-01-17T14:00:00Z,4.42,-75.15,25.0,21.0,70,3,,6.21,30.180119,,,,,,,,,,,SCT,3000,SCT,10000,,,,,VFR,,,,,,,,,,,,METAR,928.0
SKNV 171400Z 23004KT 9999 NSC 26/20 A3001,SKNV,2019-01-17T14:00:00Z,2.97,-75.28,26.0,20.0,230,4,,6.21,30.008858,,,,,,,,,,,CLR,,,,,,,,VFR,,,,,,,,,,,,METAR,443.0
SKVV 171400Z 00000KT 9999 BKN020 SCT090 26/19 A3005,SKVV,2019-01-17T14:00:00Z,4.17,-73.62,26.0,19.0,0,0,,6.21,30.050198,,,,,,,,,,,BKN,2000,SCT,9000,,,,,MVFR,,,,,,,,,,,,METAR,431.0
YARG 171400Z AUTO 31005KT 9999 // ////// 31/22 Q1007,YARG,2019-01-17T14:00:00Z,-16.63,128.45,31.0,22.0,310,5,,6.21,29.734253,,,TRUE,,,,,,,,,,,,,,,,,,,,,,,,,,,,METAR,165.0
YAYE 171400Z AUTO 25005KT 9999 // NCD 34/09 Q1005,YAYE,2019-01-17T14:00:00Z,-25.18,130.98,34.0,9.0,250,5,,6.21,29.675198,,,TRUE,,,,,,,,CLR,,,,,,,,VFR,,,,,,,,,,,,SPECI,496.0
SKAR 171400Z 00000KT 8000 VCFG SCT025 SCT120 22/20 A3010,SKAR,2019-01-17T14:00:00Z,4.45,-75.77,22.0,20.0,0,0,,4.97,30.100393,,,,,,,,,,VCFG,SCT,2500,SCT,12000,,,,,MVFR,,,,,,,,,,,,METAR,1219.0
YBBN 171400Z 03011KT 9999 FEW028 24/18 Q1014,YBBN,2019-01-17T14:00:00Z,-27.38,153.13,24.0,18.0,30,11,,6.21,29.940945,,,,,,,,,,,FEW,2800,,,,,,,VFR,,,,,,,,,,,,METAR,5.0
YBAS 171400Z AUTO 01005KT 9999 // NCD 32/13 Q1007 RF00.0/007.8,YBAS,2019-01-17T14:00:00Z,-23.8,133.9,32.0,13.0,10,5,,6.21,29.734253,,,TRUE,,,,,,,,CLR,,,,,,,,VFR,,,,,,,,,,,,SPECI,541.0
OINK 171400Z 20010KT 5000 RA BKN035 OVC100 11/09 Q1001,OINK,2019-01-17T14:00:00Z,37.25,55.1,11.0,9.0,200,10,,3.11,29.557087,,,,,,,,,,RA,BKN,3500,OVC,10000,,,,,MVFR,,,,,,,,,,,,METAR,33.0
SLJE 171400Z 36012KT 9999 NSC 32/23 Q1018,SLJE,2019-01-17T14:00:00Z,-17.82,-60.75,32.0,23.0,360,12,,6.21,30.059055,,,,,,,,,,,CLR,,,,,,,,VFR,,,,,,,,,,,,METAR,284.0
SLCP 171400Z 30006KT 9999 FEW013 27/21 Q1018,SLCP,2019-01-17T14:00:00Z,-16.15,-62.02,27.0,21.0,300,6,,6.21,30.059055,,,,,,,,,,,FEW,1300,,,,,,,VFR,,,,,,,,,,,,METAR,497.0
SLCO 171400Z 35011KT 9999 SCT015 BKN080 28/24 Q1016,SLCO,2019-01-17T14:00:00Z,-11.03,-68.78,28.0,24.0,350,11,,6.21,30.0,,,,,,,,,,,SCT,1500,BKN,8000,,,,,VFR,,,,,,,,,,,,METAR,272.0
SLCA 171400Z 36005KT 9999 NSC 25/20 Q1014,SLCA,2019-01-17T14:00:00Z,-20.0,-63.53,25.0,20.0,360,5,,6.21,29.940945,,,,,,,,,,,CLR,,,,,,,,VFR,,,,,,,,,,,,METAR,798.0
SAZM 171400Z 18018KT 160V220 9999 SCT033 BKN200 19/09 Q1021,SAZM,2019-01-17T14:00:00Z,-37.92,-57.57,19.0,9.0,180,18,,6.21,30.147638,,,,,,,,,,,SCT,3300,BKN,20000,,,,,VFR,,,,,,,,,,,,METAR,21.0
SAWG 171400Z 27013KT 9999 FEW035 SCT100 13/01 Q1016,SAWG,2019-01-17T14:00:00Z,-51.62,-69.32,13.0,1.0,270,13,,6.21,30.0,,,,,,,,,,,FEW,3500,SCT,10000,,,,,VFR,,,,,,,,,,,,METAR,19.0
SARE 171400Z 33010KT 290V360 CAVOK 33/24 Q1009,SARE,2019-01-17T14:00:00Z,-27.43,-59.03,33.0,24.0,330,10,,6.21,29.793306,,,,,,,,,,,CAVOK,,,,,,,,VFR,,,,,,,,,,,,METAR,52.0
SKIP 171400Z 09004KT 9999 -DZ OVC016 10/09 A3050,SKIP,2019-01-17T14:00:00Z,0.88,-77.67,10.0,9.0,90,4,,6.21,30.499016,,,,,,,,,,-DZ,OVC,1600,,,,,,,MVFR,,,,,,,,,,,,METAR,2961.0
SKPS 171400Z 04005KT 9999 FEW023 19/17 A3021,SKPS,2019-01-17T14:00:00Z,1.4,-77.28,19.0,17.0,40,5,,6.21,30.209646,,,,,,,,,,,FEW,2300,,,,,,,VFR,,,,,,,,,,,,METAR,1826.0
CYHE 171400Z AUTO 11012G18KT 9SM BKN065 OVC093 04/M03 A2961 RMK SLP029,CYHE,2019-01-17T14:00:00Z,49.37,-121.5,4.0,-3.0,110,12,18,9.0,29.610237,1002.9,,TRUE,,,,,,,,BKN,6500,OVC,9300,,,,,VFR,,,,,,,,,,,,METAR,39.0
OISA 171400Z 20023G33KT 9999 FEW040 08/M04 Q1009,OISA,2019-01-17T14:00:00Z,31.03,52.78,8.0,-4.0,200,23,33,6.21,29.793306,,,,,,,,,,,FEW,4000,,,,,,,VFR,,,,,,,,,,,,METAR,2004.0
SYEC 171400Z 03012KT 9999 SCT018 28/24 Q1016 NOSIG,SYEC,2019-01-17T14:00:00Z,6.8,-58.1,28.0,24.0,30,12,,6.21,30.0,,,,,,TRUE,,,,,SCT,1800,,,,,,,VFR,,,,,,,,,,,,METAR,10.0
CYCB 171400Z 33006KT 3SM BR SCT007 BKN240 M29/M33 A3029 RMK SF4CI1 SLP265,CYCB,2019-01-17T14:00:00Z,69.08,-105.12,-29.0,-33.0,330,6,,3.0,30.28937,1026.5,,,,,,,,,BR,SCT,700,BKN,24000,,,,,MVFR,,,,,,,,,,,,METAR,27.0
CYBB 171400Z 25009KT 15SM IC FEW080 M38/M42 A3004 RMK AC1 SLP178,CYBB,2019-01-17T14:00:00Z,68.52,-89.82,-38.0,-42.0,250,9,,15.0,30.041338,1017.8,,,,,,,,,IC,FEW,8000,,,,,,,VFR,,,,,,,,,,,,METAR,15.0
CYFS 171400Z 11004KT 080V160 15SM SCT140 SCT210 M29/M33 A3050 RMK AC3CI1 SLP358,CYFS,2019-01-17T14:00:00Z,61.75,-121.22,-29.0,-33.0,110,4,,15.0,30.499016,1035.8,,,,,,,,,,SCT,14000,SCT,21000,,,,,VFR,,,,,,,,,,,,METAR,169.0
CYCS 171400Z 33012KT 15SM IC FEW012 M38/M42 A2990 RMK SC1 SC TR SLP129,CYCS,2019-01-17T14:00:00Z,63.35,-90.72,-38.0,-42.0,330,12,,15.0,29.899607,1012.9,,,,,,,,,IC,FEW,1200,,,,,,,VFR,,,,,,,,,,,,METAR,11.0
CYCO 171400Z 24011KT 15SM SKC M26/M30 A3055 RMK SLP351,CYCO,2019-01-17T14:00:00Z,67.82,-115.15,-26.0,-30.0,240,11,,15.0,30.549213,1035.1,,,,,,,,,,SKC,,,,,,,,VFR,,,,,,,,,,,,METAR,22.0
CYGT 171400Z 04011KT 15SM IC FEW045 FEW220 M37/M40 A2994 RMK SC1CS1 SC TR SLP150,CYGT,2019-01-17T14:00:00Z,69.37,-81.82,-37.0,-40.0,40,11,,15.0,29.940945,1015.0,,,,,,,,,IC,FEW,4500,FEW,22000,,,,,VFR,,,,,,,,,,,,METAR,51.0
CYGH 171400Z 07008KT 15SM SCT120 BKN150 M21/M24 A3025 RMK AC3AC4 -17.4/ -20.7/ 0.0/ 39/8 SNW CVR/ MEDIUM PACK/ SLP256,CYGH,2019-01-17T14:00:00Z,66.27,-128.62,-21.0,-24.0,70,8,,15.0,30.250984,1025.6,,,,,,,,,,SCT,12000,BKN,15000,,,,,VFR,,,,,,,,,,,,METAR,66.0
CYSY 171400Z 12008KT 6SM IC SKC M18/M28 A3060 RMK SNW CVR HARD PACK SLP377,CYSY,2019-01-17T14:00:00Z,72.0,-125.27,-18.0,-28.0,120,8,,6.0,30.59941,1037.7,,,,,,,,,IC,SKC,,,,,,,,VFR,,,,,,,,,,,,METAR,86.0
CYVM 171400Z 20008KT 15SM SKC M33/M36 A2998 RMK -27.4/-38.7/0.1/45 SNW COV/TR LOOSE SLP153,CYVM,2019-01-17T14:00:00Z,67.53,-64.02,-33.0,-36.0,200,8,,15.0,29.97933,1015.3,,,,,,,,,,SKC,,,,,,,,VFR,,,,,,,,,,,,METAR,6.0
YBCV 171400Z AUTO 03009KT 9999 // NCD 34/08 Q1009,YBCV,2019-01-17T14:00:00Z,-26.38,146.27,34.0,8.0,30,9,,6.21,29.793306,,,TRUE,,,,,,,,CLR,,,,,,,,VFR,,,,,,,,,,,,METAR,304.0
YBDV 171400Z AUTO 35005KT //// // ////// 36/07 Q1003,YBDV,2019-01-17T14:00:00Z,-25.9,139.35,36.0,7.0,350,5,,,29.616142,,,TRUE,,,,,,,,,,,,,,,,,,,,,,,,,,,,METAR,47.0
CYHY 171400Z 00000KT 15SM FEW003 SCT240 M34/M38 A3054 RMK ST1CI3 FROIN SLP374,CYHY,2019-01-17T14:00:00Z,60.82,-115.77,-34.0,-38.0,0,0,,15.0,30.540354,1037.4,,,,,,,,,,FEW,300,SCT,24000,,,,,VFR,,,,,,,,,,,,METAR,166.0
CYTE 171400Z VRB02KT 15SM FEW090 SCT260 M27/M30 A2981 RMK AC1CI2 SLP105,CYTE,2019-01-17T14:00:00Z,64.22,-76.52,-27.0,-30.0,0,2,,15.0,29.811024,1010.5,,,,,,,,,,FEW,9000,SCT,26000,,,,,VFR,,,,,,,,,,,,METAR,47.0
CYXP 171400Z VRB02KT 15SM FEW210 M28/M34 A2990 RMK CI1 SLP129,CYXP,2019-01-17T14:00:00Z,66.15,-65.72,-28.0,-34.0,0,2,,15.0,29.899607,1012.9,,,,,,,,,,FEW,21000,,,,,,,VFR,,,,,,,,,,,,METAR,23.0
OJAM 171400Z 27017KT 4000 -DZ SCT018 BKN025 07/05 Q1018 NOSIG,OJAM,2019-01-17T14:00:00Z,31.97,35.97,7.0,5.0,270,17,,2.49,30.059055,,,,,,TRUE,,,,-DZ,SCT,1800,BKN,2500,,,,,IFR,,,,,,,,,,,,METAR,773.0
CYKD 171400Z 12007KT 15SM FEW180 SCT210 M24/M26 A3028 RMK AC2CI2 0.2/SNW CVR/MUCH LOOSE SLP257,CYKD,2019-01-17T14:00:00Z,68.22,-135.0,-24.0,-26.0,120,7,,15.0,30.280512,1025.7,,,,,,,,,,FEW,18000,SCT,21000,,,,,VFR,,,,,,,,,,,,METAR,7.0
CYWJ 171400Z 08015G21KT 10SM BKN150 M26/M29 A3037 RMK AS7 CIG RAG FROIN -23.8/-31.5/0/35 SNW CVR/MUCH LOOSE SLP321,CYWJ,2019-01-17T14:00:00Z,65.22,-123.43,-26.0,-29.0,80,15,21,10.0,30.369095,1032.1,,,,,,,,,,BKN,15000,,,,,,,VFR,,,,,,,,,,,,METAR,176.0
CYWE 171400Z AUTO 24003KT 190V270 9SM CLR M35/M39 A3038 RMK SLP361,CYWE,2019-01-17T14:00:00Z,64.18,-114.08,-35.0,-39.0,240,3,,9.0,30.380905,1036.1,,TRUE,,,,,,,,CLR,,,,,,,,VFR,,,,,,,,,,,,METAR,371.0
CYUT 171400Z 36012KT 15SM FEW080 SCT100 M37/M41 A2994 RMK AC2AS2 SLP146,CYUT,2019-01-17T14:00:00Z,66.52,-86.25,-37.0,-41.0,360,12,,15.0,29.940945,1014.6,,,,,,,,,,FEW,8000,SCT,10000,,,,,VFR,,,,,,,,,,,,METAR,24.0
CYZS 171400Z 05016KT 15SM IC FEW050 M33/M36 A2981 RMK SC1 SLP107,CYZS,2019-01-17T14:00:00Z,64.2,-83.37,-33.0,-36.0,50,16,,15.0,29.811024,1010.7,,,,,,,,,IC,FEW,5000,,,,,,,VFR,,,,,,,,,,,,METAR,64.0
CYCX 171400Z 29012KT 15SM SKC M18/M25 A3027 RMK DA-4390FT SLP255,CYCX,2019-01-17T14:00:00Z,45.82,-66.42,-18.0,-25.0,290,12,,15.0,30.268702,1025.5,,,,,,,,,,SKC,,,,,,,,VFR,,,,,,,,,,,,METAR,51.0
CYDF 171400Z 24014G23KT 220V300 10SM -SN DRSN SCT020 BKN045 M03/M08 A2966 RMK SC3SC3 SLP047,CYDF,2019-01-17T14:00:00Z,49.22,-57.4,-3.0,-8.0,240,14,23,10.0,29.660433,1004.7,,,,,,,,,-SN DRSN,SCT,2000,BKN,4500,,,,,VFR,,,,,,,,,,,,METAR,22.0
CYDP 171400Z 28009KT 15SM BKN230 M18/M23 A2956 RMK CS6 SLP013,CYDP,2019-01-17T14:00:00Z,56.53,-61.67,-18.0,-23.0,280,9,,15.0,29.56004,1001.3,,,,,,,,,,BKN,23000,,,,,,,VFR,,,,,,,,,,,,METAR,7.0
CYGW 171400Z AUTO 19009KT 9SM -SN OVC026 M29/M33 A2997 RMK SLP152,CYGW,2019-01-17T14:00:00Z,55.27,-77.77,-29.0,-33.0,190,9,,9.0,29.970472,1015.2,,TRUE,,,,,,,-SN,OVC,2600,,,,,,,MVFR,,,,,,,,,,,,METAR,12.0
CYLU 171400Z 28010KT 10SM -SN DRSN FEW012 SCT022 BKN083 OVC110 M22/M26 A2973 RMK SC2SC2AS3AS1 SLP077,CYLU,2019-01-17T14:00:00Z,58.72,-65.97,-22.0,-26.0,280,10,,10.0,29.731298,1007.7,,,,,,,,,-SN DRSN,FEW,1200,SCT,2200,BKN,8300,OVC,11000,VFR,,,,,,,,,,,,METAR,60.0
CYNC 171400Z 21006KT 5SM -SN BKN023 OVC260 M25/M28 A3007 RMK SC7CC1 SLP186,CYNC,2019-01-17T14:00:00Z,53.02,-78.82,-25.0,-28.0,210,6,,5.0,30.070866,1018.6,,,,,,,,,-SN,BKN,2300,OVC,26000,,,,,MVFR,,,,,,,,,,,,METAR,14.0
CYYG 171400Z 28012G20KT 15SM DRSN FEW040 M15/M21 A3009 RMK SC1 SC TR SLP196,CYYG,2019-01-17T14:00:00Z,46.27,-63.12,-15.0,-21.0,280,12,20,15.0,30.088583,1019.6,,,,,,,,,DRSN,FEW,4000,,,,,,,VFR,,,,,,,,,,,,METAR,54.0
CYTQ 171400Z 26013G19KT 6SM IC DRSN FEW042 FEW074 SCT230 M32/M36 A2984 RMK SC1AC2CI2 SC TR SLP113,CYTQ,2019-01-17T14:00:00Z,58.67,-69.95,-32.0,-36.0,260,13,19,6.0,29.840551,1011.3,,,,,,,,,IC DRSN,FEW,4200,FEW,7400,SCT,23000,,,VFR,,,,,,,,,,,,METAR,31.0
CYAW 171400Z 29015G21KT 15SM FEW025 M08/M14 A3014 RMK SC1 DA-2917FT SC TR SLP209,CYAW,2019-01-17T14:00:00Z,44.63,-63.5,-8.0,-14.0,290,15,21,15.0,30.138779,1020.9,,,,,,,,,,FEW,2500,,,,,,,VFR,,,,,,,,,,,,METAR,51.0
CYBG 171400Z 27002KT 25SM FEW025 FEW200 M28/M32 A3036 RMK SC1CI1 WND ESTD SLP302,CYBG,2019-01-17T14:00:00Z,48.33,-70.98,-28.0,-32.0,270,2,,25.0,30.360237,1030.2,,,,,,,,,,FEW,2500,FEW,20000,,,,,VFR,,,,,,,,,,,,METAR,159.0
CYEG 171400Z 10009KT 15SM -SN BKN055 OVC090 M17/M20 A3020 RMK SC5AC3 SLP292,CYEG,2019-01-17T14:00:00Z,53.28,-113.57,-17.0,-20.0,100,9,,15.0,30.200787,1029.2,,,,,,,,,-SN,BKN,5500,OVC,9000,,,,,VFR,,,,,,,,,,,,METAR,723.0
CYFB 171400Z 00000KT 6SM IC SCT064 BKN070 OVC093 M28/M31 A2980 RMK IC2SC1AC3AC2 VIS N LWR SLP098,CYFB,2019-01-17T14:00:00Z,63.75,-68.55,-28.0,-31.0,0,0,,6.0,29.799213,1009.8,,,,,,,,,IC,SCT,6400,BKN,7000,OVC,9300,,,VFR,,,,,,,,,,,,METAR,34.0
CYFC 171400Z AUTO 32008KT 250V350 9SM CLR M17/M23 A3028 RMK SLP255,CYFC,2019-01-17T14:00:00Z,45.87,-66.52,-17.0,-23.0,320,8,,9.0,30.280512,1025.5,,TRUE,,,,,,,,CLR,,,,,,,,VFR,,,,,,,,,,,,METAR,20.0
CYGL 171400Z 18010KT 6SM IC BKN030 M31/M34 A2995 RMK SC6 SLP174,CYGL,2019-01-17T14:00:00Z,53.62,-77.7,-31.0,-34.0,180,10,,6.0,29.949802,1017.4,,,,,,,,,IC,BKN,3000,,,,,,,MVFR,,,,,,,,,,,,METAR,195.0
OINZ 171400Z 26006KT 2500 RA BKN012 FEW023CB OVC070 11/10 Q1004,OINZ,2019-01-17T14:00:00Z,36.63,53.2,11.0,10.0,260,6,,1.55,29.64567,,,,,,,,,,RA,BKN,1200,FEW,2300,OVC,7000,,,IFR,,,,,,,,,,,,METAR,11.0
OIBK 171400Z 26006KT 5000 HZ FEW030 SCT100 24/18 Q1012,OIBK,2019-01-17T14:00:00Z,26.53,53.98,24.0,18.0,260,6,,3.11,29.88189,,,,,,,,,,HZ,FEW,3000,SCT,10000,,,,,MVFR,,,,,,,,,,,,METAR,30.0
OISR 171400Z 16006KT 9999 SCT035CB SCT040 BKN100 21/14 Q1013,OISR,2019-01-17T14:00:00Z,27.37,53.2,21.0,14.0,160,6,,6.21,29.911417,,,,,,,,,,,SCT,3500,SCT,4000,BKN,10000,,,VFR,,,,,,,,,,,,METAR,408.0
CYHZ 171400Z 31016G23KT 15SM FEW027 M09/M14 A3010 RMK SC1 SLP204,CYHZ,2019-01-17T14:00:00Z,44.87,-63.5,-9.0,-14.0,310,16,23,15.0,30.100393,1020.4,,,,,,,,,,FEW,2700,,,,,,,VFR,,,,,,,,,,,,METAR,145.0
SANT 171400Z 23008KT 9999 OVC027 27/23 Q1012,SANT,2019-01-17T14:00:00Z,-26.85,-65.08,27.0,23.0,230,8,,6.21,29.88189,,,,,,,,,,,OVC,2700,,,,,,,MVFR,,,,,,,,,,,,METAR,450.0
SAME 171400Z 23003KT 9999 FEW035 BKN04017/14 Q1025,SAME,2019-01-17T14:00:00Z,-32.82,-68.77,17.0,14.0,230,3,,6.21,30.265747,,,,,,,,,,,FEW,3500,,,,,,,VFR,,,,,,,,,,,,SPECI,704.0
SAEZ 171400Z 13010KT 9999 FEW033 BKN200 21/13 Q1019 NOSIG,SAEZ,2019-01-17T14:00:00Z,-34.82,-58.52,21.0,13.0,130,10,,6.21,30.088583,,,,,,TRUE,,,,,FEW,3300,BKN,20000,,,,,VFR,,,,,,,,,,,,METAR,20.0
SABE 171400Z 14012G22KT 9999 FEW030 SCT100 22/12 Q1018 NOSIG,SABE,2019-01-17T14:00:00Z,-34.57,-58.42,22.0,12.0,140,12,22,6.21,30.059055,,,,,,TRUE,,,,,FEW,3000,SCT,10000,,,,,VFR,,,,,,,,,,,,METAR,6.0
SAAR 171400Z 14016KT CAVOK 23/14 Q1015,SAAR,2019-01-17T14:00:00Z,-32.92,-60.77,23.0,14.0,140,16,,6.21,29.970472,,,,,,,,,,,CAVOK,,,,,,,,VFR,,,,,,,,,,,,METAR,25.0
OIZH 171400Z 22014KT 7000 NSC 20/M02 Q1015 A2997 TEMPO 5000 SA,OIZH,2019-01-17T14:00:00Z,29.47,60.92,20.0,-2.0,220,14,,4.35,29.970472,,,,,,,,,,,CLR,,,,,,,,MVFR,,,,,,,,,,,,METAR,1370.0
SASJ 171400Z 18002KT 9999 BKN020 26/21 Q1013,SASJ,2019-01-17T14:00:00Z,-24.37,-65.1,26.0,21.0,180,2,,6.21,29.911417,,,,,,,,,,,BKN,2000,,,,,,,MVFR,,,,,,,,,,,,METAR,1167.0
SASA 171400Z 18004KT 9999 BKN008 25/20 Q1015,SASA,2019-01-17T14:00:00Z,-24.85,-65.47,25.0,20.0,180,4,,6.21,29.970472,,,,,,,,,,,BKN,800,,,,,,,IFR,,,,,,,,,,,,METAR,1216.0
SARP 171400Z 32012KT 9999 FEW040TCU 33/24 Q1012,SARP,2019-01-17T14:00:00Z,-27.38,-55.97,33.0,24.0,320,12,,6.21,29.88189,,,,,,,,,,,FEW,4000,,,,,,,VFR,,,,,,,,,,,,METAR,125.0
SARI 171400Z 36011KT 9999 FEW030 33/24 Q1014,SARI,2019-01-17T14:00:00Z,-25.72,-54.47,33.0,24.0,360,11,,6.21,29.940945,,,,,,,,,,,FEW,3000,,,,,,,VFR,,,,,,,,,,,,METAR,270.0
SARF 171400Z 36018KT CAVOK 34/24 Q1009,SARF,2019-01-17T14:00:00Z,-26.22,-58.22,34.0,24.0,360,18,,6.21,29.793306,,,,,,,,,,,CAVOK,,,,,,,,VFR,,,,,,,,,,,,METAR,60.0
SARC 171400Z 34012KT CAVOK 33/24 Q1009,SARC,2019-01-17T14:00:00Z,-27.43,-58.77,33.0,24.0,340,12,,6.21,29.793306,,,,,,,,,,,CAVOK,,,,,,,,VFR,,,,,,,,,,,,METAR,62.0
SAOC 171400Z 23006KT 8000 FEW004 SCT025 OVC050 14/14 Q1022,SAOC,2019-01-17T14:00:00Z,-33.12,-64.27,14.0,14.0,230,6,,4.97,30.177166,,,,,,,,,,,FEW,400,SCT,2500,OVC,5000,,,MVFR,,,,,,,,,,,,METAR,421.0
OIAA 171400Z 32010KT 1500 DU NSC 15/03 Q1016,OIAA,2019-01-17T14:00:00Z,30.37,48.25,15.0,3.0,320,10,,0.93,30.0,,,,,,,,,,DU,CLR,,,,,,,,LIFR,,,,,,,,,,,,METAR,11.0
TRPG 171400Z 13014KT 9999 FEW023 26/20 Q1020,TRPG,2019-01-17T14:00:00Z,16.78,-62.2,26.0,20.0,130,14,,6.21,30.11811,,,,,,,,,,,FEW,2300,,,,,,,VFR,,,,,,,,,,,,METAR,168.0
SESA 171400Z 27008KT 9999 FEW012 BKN040 26/23 Q1013,SESA,2019-01-17T14:00:00Z,-2.2,-80.97,26.0,23.0,270,8,,6.21,29.911417,,,,,,,,,,,FEW,1200,BKN,4000,,,,,VFR,,,,,,,,,,,,METAR,8.0
SAWE 171400Z 27024G34KT 9999 SCT022 BKN100 14/06 Q1008,SAWE,2019-01-17T14:00:00Z,-53.78,-67.75,14.0,6.0,270,24,34,6.21,29.763779,,,,,,,,,,,SCT,2200,BKN,10000,,,,,VFR,,,,,,,,,,,,METAR,22.0
OIBJ 171400Z 29012KT 6000 FEW030 SCT040 14/12 Q1015,OIBJ,2019-01-17T14:00:00Z,27.82,52.35,14.0,12.0,290,12,,3.73,29.970472,,,,,,,,,,,FEW,3000,SCT,4000,,,,,MVFR,,,,,,,,,,,,METAR,663.0
SLOR 171400Z 33003KT 9999 FEW015 BKN200 14/07 Q1038,SLOR,2019-01-17T14:00:00Z,-17.97,-67.08,14.0,7.0,330,3,,6.21,30.649607,,,,,,,,,,,FEW,1500,BKN,20000,,,,,VFR,,,,,,,,,,,,METAR,3702.0
SLMG 171400Z 32004KT 9999 FEW017 28/25 Q1014,SLMG,2019-01-17T14:00:00Z,-13.27,-64.07,28.0,25.0,320,4,,6.21,29.940945,,,,,,,,,,,FEW,1700,,,,,,,VFR,,,,,,,,,,,,METAR,141.0
OISF 171400Z 20008KT 6000 -SHRA SCT030CB SCT035 OVC080 13/11 Q1011 RETS,OISF,2019-01-17T14:00:00Z,28.9,53.72,13.0,11.0,200,8,,3.73,29.852362,,,,,,,,,,-SHRA,SCT,3000,SCT,3500,OVC,8000,,,MVFR,,,,,,,,,,,,METAR,1383.0
OIAH 171400Z 27010KT 6000 FEW035TCU 09/05 Q1015,OIAH,2019-01-17T14:00:00Z,30.33,50.83,9.0,5.0,270,10,,3.73,29.970472,,,,,,,,,,,FEW,3500,,,,,,,MVFR,,,,,,,,,,,,METAR,738.0
OITZ 171400Z 32008KT 8000 -SHRA FEW020 FEW030CB SCT035 OVC080 02/00 Q1003,OITZ,2019-01-17T14:00:00Z,36.77,48.37,2.0,0.0,320,8,,4.97,29.616142,,,,,,,,,,-SHRA,FEW,2000,FEW,3000,SCT,3500,OVC,8000,MVFR,,,,,,,,,,,,METAR,1663.0
OISY 171400Z 20010KT 6000 SCT035TCU 05/M03 Q1013,OISY,2019-01-17T14:00:00Z,30.7,51.55,5.0,-3.0,200,10,,3.73,29.911417,,,,,,,,,,,SCT,3500,,,,,,,MVFR,,,,,,,,,,,,METAR,1811.0
OISL 171400Z 21010KT 9999 SCT035CB SCT040 19/10 Q1012,OISL,2019-01-17T14:00:00Z,27.67,54.37,19.0,10.0,210,10,,6.21,29.88189,,,,,,,,,,,SCT,3500,SCT,4000,,,,,VFR,,,,,,,,,,,,METAR,805.0
OINR 171400Z 31010KT 4000 RA FEW020CB BKN025 OVC070 08/08 Q1007,OINR,2019-01-17T14:00:00Z,36.88,50.67,8.0,8.0,310,10,,2.49,29.734253,,,,,,,,,,RA,FEW,2000,BKN,2500,OVC,7000,,,IFR,,,,,,,,,,,,METAR,-20.0
OINN 171400Z 30006KT 3000 RA FEW020CB BKN025 OVC070 10/09 Q1005,OINN,2019-01-17T14:00:00Z,36.67,51.47,10.0,9.0,300,6,,1.86,29.675198,,,,,,,,,,RA,FEW,2000,BKN,2500,OVC,7000,,,IFR,,,,,,,,,,,,METAR,-19.0
OIKQ 171400Z 25014KT 6000 FEW025 SCT100 24/20 Q1011,OIKQ,2019-01-17T14:00:00Z,26.75,55.9,24.0,20.0,250,14,,3.73,29.852362,,,,,,,,,,,FEW,2500,SCT,10000,,,,,MVFR,,,,,,,,,,,,METAR,12.0
OICI 171400Z 22006KT 9000 FEW015 FEW025CB BKN030 01/M01 Q1013 A2992,OICI,2019-01-17T14:00:00Z,33.58,46.4,1.0,-1.0,220,6,,5.59,29.911417,,,,,,,,,,,FEW,1500,FEW,2500,BKN,3000,,,MVFR,,,,,,,,,,,,METAR,1343.0
OIAM 171400Z 33008KT 0600 DU NSC 13/06 Q1016,OIAM,2019-01-17T14:00:00Z,30.55,49.15,13.0,6.0,330,8,,0.37,30.0,,,,,,,,,,DU,CLR,,,,,,,,LIFR,,,,,,,,,,,,METAR,4.0
OIAG 171400Z 33012KT 2000 DU VV/// 13/08 Q1016,OIAG,2019-01-17T14:00:00Z,30.77,49.67,13.0,8.0,330,12,,1.24,30.0,,,,,,,,,,DU,OVX,0,,,,,,,LIFR,,,,,,,,,,,,METAR,29.0
LPAR 171400Z 01012KT 9999 FEW025 14/04 Q1020,LPAR,2019-01-17T14:00:00Z,38.88,-9.03,14.0,4.0,10,12,,6.21,30.11811,,,,,,,,,,,FEW,2500,,,,,,,VFR,,,,,,,,,,,,METAR,3.0
LPST 171400Z 36015KT 9999 FEW018 13/02 Q1020,LPST,2019-01-17T14:00:00Z,38.82,-9.32,13.0,2.0,360,15,,6.21,30.11811,,,,,,,,,,,FEW,1800,,,,,,,VFR,,,,,,,,,,,,METAR,130.0
LPMT 171400Z 36010KT 9999 FEW035 14/06 Q1020,LPMT,2019-01-17T14:00:00Z,38.7,-9.05,14.0,6.0,360,10,,6.21,30.11811,,,,,,,,,,,FEW,3500,,,,,,,VFR,,,,,,,,,,,,METAR,11.0
LPMR 171400Z 35015KT 9999 FEW020 13/06 Q1021,LPMR,2019-01-17T14:00:00Z,39.82,-8.87,13.0,6.0,350,15,,6.21,30.147638,,,,,,,,,,,FEW,2000,,,,,,,VFR,,,,,,,,,,,,METAR,54.0
LPOV 171400Z 35010KT 310V010 9999 FEW025 13/06 Q1021,LPOV,2019-01-17T14:00:00Z,40.92,-8.65,13.0,6.0,350,10,,6.21,30.147638,,,,,,,,,,,FEW,2500,,,,,,,VFR,,,,,,,,,,,,METAR,17.0
SAZS 171400Z 00000KT CAVOK 17/01 Q1027,SAZS,2019-01-17T14:00:00Z,-41.13,-71.17,17.0,1.0,0,0,,6.21,30.324802,,,,,,,,,,,CAVOK,,,,,,,,VFR,,,,,,,,,,,,METAR,840.0
SAZN 171400Z 05005KT CAVOK 20/06 Q1027,SAZN,2019-01-17T14:00:00Z,-38.95,-68.15,20.0,6.0,50,5,,6.21,30.324802,,,,,,,,,,,CAVOK,,,,,,,,VFR,,,,,,,,,,,,METAR,271.0
OITP 171400Z 14012KT 8000 -RA BKN030 OVC080 03/02 Q1010,OITP,2019-01-17T14:00:00Z,39.6,47.88,3.0,2.0,140,12,,4.97,29.822834,,,,,,,,,,-RA,BKN,3000,OVC,8000,,,,,MVFR,,,,,,,,,,,,METAR,77.0
OIBL 171400Z 26010KT 7000 SCT030 SCT200 25/18 Q1012,OIBL,2019-01-17T14:00:00Z,26.53,54.82,25.0,18.0,260,10,,4.35,29.88189,,,,,,,,,,,SCT,3000,SCT,20000,,,,,MVFR,,,,,,,,,,,,METAR,14.0
ORMM 171400Z 28010KT 3500 BLDU NSC 14/02 Q1016 NOSIG,ORMM,2019-01-17T14:00:00Z,30.57,47.67,14.0,2.0,280,10,,2.17,30.0,,,,,,TRUE,,,,BLDU,CLR,,,,,,,,IFR,,,,,,,,,,,,METAR,2.0
OIZI 171400Z 24008KT 6000 NSC 27/05 Q1013,OIZI,2019-01-17T14:00:00Z,27.23,60.72,27.0,5.0,240,8,,3.73,29.911417,,,,,,,,,,,CLR,,,,,,,,MVFR,,,,,,,,,,,,METAR,591.0
OIIK 171400Z 10004KT 8000 FEW030CB SCT035 OVC090 03/02 Q1003,OIIK,2019-01-17T14:00:00Z,36.25,50.05,3.0,2.0,100,4,,4.97,29.616142,,,,,,,,,,,FEW,3000,SCT,3500,OVC,9000,,,MVFR,,,,,,,,,,,,METAR,1278.0
CWPX 171400Z AUTO 36031KT ////SM //// OVC003 M26/M29 A3021,CWPX,2019-01-17T14:00:00Z,69.02,-107.82,-26.0,-29.0,360,31,,,30.209646,,,TRUE,,,,,,,,OVC,300,,,,,,,,,,,,,,,,,,,METAR,165.0
CYZV 171400Z 29010G15KT 30SM DRSN FEW015 M22/M30 A3004 RMK CF1 CF TR PRESRR SLP178,CYZV,2019-01-17T14:00:00Z,50.22,-66.27,-22.0,-30.0,290,10,15,30.0,30.041338,1017.8,,,,,,,,,DRSN,FEW,1500,,,,,,,VFR,,,,,,,,,,,,METAR,55.0
OIMD 171400Z 19010KT 9999 SCT035 OVC100 22/00 Q1001,OIMD,2019-01-17T14:00:00Z,34.38,58.63,22.0,0.0,190,10,,6.21,29.557087,,,,,,,,,,,SCT,3500,OVC,10000,,,,,VFR,,,,,,,,,,,,METAR,1100.0
OING 171400Z 24012KT 3000 -RA BR BKN015 FEW025CB OVC070 10/09 Q1004,OING,2019-01-17T14:00:00Z,36.9,54.4,10.0,9.0,240,12,,1.86,29.64567,,,,,,,,,,-RA BR,BKN,1500,FEW,2500,OVC,7000,,,IFR,,,,,,,,,,,,METAR,155.0
OIBS 171400Z 22016KT 6000 FEW030CB SCT090 BKN200 24/19 Q1012,OIBS,2019-01-17T14:00:00Z,25.9,54.55,24.0,19.0,220,16,,3.73,29.88189,,,,,,,,,,,FEW,3000,SCT,9000,BKN,20000,,,MVFR,,,,,,,,,,,,METAR,14.0
OIMC 171400Z 15018KT 6000 NSC 23/02 Q1001,OIMC,2019-01-17T14:00:00Z,36.5,61.07,23.0,2.0,150,18,,3.73,29.557087,,,,,,,,,,,CLR,,,,,,,,MVFR,,,,,,,,,,,,METAR,288.0
CYQB 171400Z 24008KT 30SM FEW240 M24/M30 A3041 RMK CI1 SLP309,CYQB,2019-01-17T14:00:00Z,46.78,-71.37,-24.0,-30.0,240,8,,30.0,30.410433,1030.9,,,,,,,,,,FEW,24000,,,,,,,VFR,,,,,,,,,,,,METAR,73.0
OITM 171400Z 26004KT 9999 FEW015 FEW035CB SCT040 OVC170 04/01 Q1003,OITM,2019-01-17T14:00:00Z,37.35,46.15,4.0,1.0,260,4,,6.21,29.616142,,,,,,,,,,,FEW,1500,FEW,3500,SCT,4000,OVC,17000,VFR,,,,,,,,,,,,METAR,1340.0
OIMQ 171400Z 07006KT 9999 FEW025 SCT035 BKN090 17/02 Q1004,OIMQ,2019-01-17T14:00:00Z,35.23,58.47,17.0,2.0,70,6,,6.21,29.64567,,,,,,,,,,,FEW,2500,SCT,3500,BKN,9000,,,VFR,,,,,,,,,,,,METAR,1140.0
OIBV 171400Z 24014KT 4000 HZ SCT025 FEW030CB BKN090 23/17 Q1012,OIBV,2019-01-17T14:00:00Z,26.82,53.35,23.0,17.0,240,14,,2.49,29.88189,,,,,,,,,,HZ,SCT,2500,FEW,3000,BKN,9000,,,IFR,,,,,,,,,,,,METAR,24.0
OIMN 171400Z 11006KT 9999 SCT045 BKN100 BKN170 16/03 Q1001,OIMN,2019-01-17T14:00:00Z,37.48,57.3,16.0,3.0,110,6,,6.21,29.557087,,,,,,,,,,,SCT,4500,BKN,10000,BKN,17000,,,VFR,,,,,,,,,,,,METAR,1074.0
CYMX 171400Z 00000KT 45SM FEW260 M22/M27 A3044 RMK CI1 CI TR SLP319,CYMX,2019-01-17T14:00:00Z,45.67,-74.02,-22.0,-27.0,0,0,,45.0,30.43996,1031.9,,,,,,,,,,FEW,26000,,,,,,,VFR,,,,,,,,,,,,METAR,82.0
OIFS 171400Z 23019KT 9999 SCT035 00/M09 Q1011,OIFS,2019-01-17T14:00:00Z,32.32,50.85,0.0,-9.0,230,19,,6.21,29.852362,,,,,,,,,,,SCT,3500,,,,,,,VFR,,,,,,,,,,,,METAR,2078.0
OIZJ 171400Z 23004KT 6000 NSC 24/20 Q1011,OIZJ,2019-01-17T14:00:00Z,25.65,57.8,24.0,20.0,230,4,,3.73,29.852362,,,,,,,,,,,CLR,,,,,,,,MVFR,,,,,,,,,,,,METAR,4.0
OIBP 171400Z 30014KT 1800 SA FEW030CB SCT035 BKN090 22/16 Q1012 A2989,OIBP,2019-01-17T14:00:00Z,27.38,52.73,22.0,16.0,300,14,,1.12,29.88189,,,,,,,,,,SA,FEW,3000,SCT,3500,BKN,9000,,,IFR,,,,,,,,,,,,METAR,9.0
SBAR 171400Z 12012KT 9999 SCT021 SCT070 29/22 Q1015,SBAR,2019-01-17T14:00:00Z,-10.97,-37.07,29.0,22.0,120,12,,6.21,29.970472,,,,,,,,,,,SCT,2100,SCT,7000,,,,,VFR,,,,,,,,,,,,METAR,9.0
CYIV 171400Z 29008KT 15SM FEW070 M34/M37 A3003 RMK AC1 AC TR SLP208,CYIV,2019-01-17T14:00:00Z,53.85,-94.65,-34.0,-37.0,290,8,,15.0,30.029528,1020.8,,,,,,,,,,FEW,7000,,,,,,,VFR,,,,,,,,,,,,METAR,237.0
ORNI 171400Z 27010KT 5000 DU BKN030 16/01 Q1014 NOSIG,ORNI,2019-01-17T14:00:00Z,31.98,44.4,16.0,1.0,270,10,,3.11,29.940945,,,,,,TRUE,,,,DU,BKN,3000,,,,,,,MVFR,,,,,,,,,,,,METAR,53.0
LFBY 171400Z 31008KT 280V350 9000 -SHRA SCT011 BKN020 BKN043TCU 10/06 Q1019,LFBY,2019-01-17T14:00:00Z,43.67,-1.07,10.0,6.0,310,8,,5.59,30.088583,,,,,,,,,,-SHRA,SCT,1100,BKN,2000,BKN,4300,,,MVFR,,,,,,,,,,,,METAR,32.0
CYOW 171400Z 25003KT 15SM SCT130 SCT220 M22/M26 A3043 RMK AC3CI1 CI TR SLP320,CYOW,2019-01-17T14:00:00Z,45.32,-75.67,-22.0,-26.0,250,3,,15.0,30.431103,1032.0,,,,,,,,,,SCT,13000,SCT,22000,,,,,VFR,,,,,,,,,,,,METAR,114.0
CYQG 171400Z AUTO 12009KT 9SM FEW017 SCT041 OVC120 M03/M06 A3022 RMK SLP246,CYQG,2019-01-17T14:00:00Z,42.27,-82.97,-3.0,-6.0,120,9,,9.0,30.221457,1024.6,,TRUE,,,,,,,,FEW,1700,SCT,4100,OVC,12000,,,VFR,,,,,,,,,,,,METAR,190.0
CYQQ 171400Z 00000KT 7SM -RA BKN006 OVC017 04/04 A2952 RMK SF6SC2 VIS LWR SW QUAD SLP996,CYQQ,2019-01-17T14:00:00Z,49.72,-124.9,4.0,4.0,0,0,,7.0,29.518702,999.6,,,,,,,,,-RA,BKN,600,OVC,1700,,,,,IFR,,,,,,,,,,,,METAR,24.0
OITL 171400Z 07025KT 0800 R15/1600D R33/P2000 IC OVC004 M03/M03 Q1003,OITL,2019-01-17T14:00:00Z,38.33,48.42,-3.0,-3.0,70,25,,0.5,29.616142,,,,,,,,,,IC,OVC,400,,,,,,,LIFR,,,,,,,,,,,,METAR,1316.0
OICS 171400Z 19012KT 9999 SCT035 02/M04 Q1006,OICS,2019-01-17T14:00:00Z,35.25,47.02,2.0,-4.0,190,12,,6.21,29.704725,,,,,,,,,,,SCT,3500,,,,,,,VFR,,,,,,,,,,,,METAR,1373.0
SKLC 171400Z 35008KT 9000 SCT016 28/23 A2993 RMK HZ,SKLC,2019-01-17T14:00:00Z,7.82,-76.7,28.0,23.0,350,8,,5.59,29.929134,,,,,,,,,,,SCT,1600,,,,,,,VFR,,,,,,,,,,,,METAR,30.0
OIBA 171400Z 24010KT 5000 BR FEW025 24/22 Q1012,OIBA,2019-01-17T14:00:00Z,25.88,55.03,24.0,22.0,240,10,,3.11,29.88189,,,,,,,,,,BR,FEW,2500,,,,,,,MVFR,,,,,,,,,,,,METAR,7.0
CYQM 171400Z 27021KT 15SM DRSN SKC M16/M23 A3015 RMK SLP218,CYQM,2019-01-17T14:00:00Z,46.12,-64.67,-16.0,-23.0,270,21,,15.0,30.15059,1021.8,,,,,,,,,DRSN,SKC,,,,,,,,VFR,,,,,,,,,,,,METAR,71.0
CYQX 171400Z 16022G27KT 2SM -SN DRSN BKN006 OVC035 M01/M02 A2964 RMK SN2SF5SC1 SLP048,CYQX,2019-01-17T14:00:00Z,48.95,-54.58,-1.0,-2.0,160,22,27,2.0,29.639763,1004.8,,,,,,,,,-SN DRSN,BKN,600,OVC,3500,,,,,IFR,,,,,,,,,,,,METAR,151.0
CYQY 171400Z 28017G25KT 10SM DRSN FEW026 M08/M14 A2996 RMK CU2 PRESRR SLP152,CYQY,2019-01-17T14:00:00Z,46.17,-60.03,-8.0,-14.0,280,17,25,10.0,29.958662,1015.2,,,,,,,,,DRSN,FEW,2600,,,,,,,VFR,,,,,,,,,,,,METAR,62.0
CYTR 171400Z 07005KT 15SM FEW035 FEW120 FEW240 M14/M18 A3041 RMK SC1AC1CI1 SLP307,CYTR,2019-01-17T14:00:00Z,44.12,-77.52,-14.0,-18.0,70,5,,15.0,30.410433,1030.7,,,,,,,,,,FEW,3500,FEW,12000,FEW,24000,,,VFR,,,,,,,,,,,,METAR,86.0
KNEL 171400Z VRB04KT 10SM CLR M00/M14 A3039 RMK AO2 SLP291 T00001139 PNO $,KNEL,2019-01-17T14:00:00Z,40.02,-74.33,0.0,-13.9,0,4,,10.0,30.389763,1029.1,,,TRUE,TRUE,,,,,,CLR,,,,,,,,VFR,,,,,,,,,,,,SPECI,31.0
CWLS 171400Z AUTO 17005KT M12/M14 RMK AO1 SOG 10 6008 SLP266 T11191141,CWLS,2019-01-17T14:00:00Z,43.97,-80.75,-11.9,-14.1,170,5,,,,1026.6,,TRUE,TRUE,,,,,,,,,,,,,,,,,,,,,,,,,,,METAR,415.0
CWBE 171400Z AUTO 04004KT M13/M16 RMK AO1 SLP273 T11251163 58012,CWBE,2019-01-17T14:00:00Z,45.98,-81.48,-12.5,-16.3,40,4,,,,1027.3,,TRUE,TRUE,,,,,,,,,,,,,,,,-1.2,,,,,,,,,,,METAR,196.0
CTCK 171400Z AUTO 30001KT M22/M24 RMK AO1 SOG 08 2012 SLP327 T12191239,CTCK,2019-01-17T14:00:00Z,45.25,-74.97,-21.9,-23.9,300,1,,,,1032.7,,TRUE,TRUE,,,,,,,,,,,,,,,,,,,,,,,,,,,METAR,85.0
CXKE 171400Z AUTO 31002KT M20/M25 RMK AO1 SOG 08 1010 SLP318 T12021250,CXKE,2019-01-17T14:00:00Z,45.0,-75.63,-20.2,-25.0,310,2,,,,1031.8,,TRUE,TRUE,,,,,,,,,,,,,,,,,,,,,,,,,,,METAR,99.0
CWZS 171400Z AUTO 31011G16KT M23/M27 RMK AO1 PK WND 30020/1335 SLP230 T12261272 53032,CWZS,2019-01-17T14:00:00Z,48.47,-67.43,-22.6,-27.2,310,11,16,,,1023.0,,TRUE,TRUE,,,,,,,,,,,,,,,,3.2,,,,,,,,,,,METAR,166.0
CWYY 171400Z AUTO 32005KT M00/M01 RMK AO1 SLP076 T10021014 56019,CWYY,2019-01-17T14:00:00Z,49.03,-119.43,-0.2,-1.4,320,5,,,,1007.6,,TRUE,TRUE,,,,,,,,,,,,,,,,-1.9,,,,,,,,,,,METAR,283.0
CWYJ 171400Z AUTO 01005KT 06/05 RMK AO1 SLP981 T00640048 56007,CWYJ,2019-01-17T14:00:00Z,48.45,-123.3,6.4,4.8,10,5,,,,998.1,,TRUE,TRUE,,,,,,,,,,,,,,,,-0.7,,,,,,,,,,,METAR,39.0
CWXL 171400Z AUTO 05006KT M13/M15 RMK AO1 T11281147,CWXL,2019-01-17T14:00:00Z,49.73,-111.45,-12.8,-14.7,50,6,,,,,,TRUE,TRUE,,,,,,,,,,,,,,,,,,,,,,,,,,,METAR,817.0
CWSF 171400Z AUTO 24022G34KT M17/M19 RMK AO1 3PAST HR 1053 PK WND 24040/1301 SLP163 P0001 T11691191 50005,CWSF,2019-01-17T14:00:00Z,49.25,-65.32,-16.9,-19.1,240,22,34,,,1016.3,,TRUE,TRUE,,,,,,,,,,,,,,,,0.5,,,,,0.01,,,,,,METAR,29.0
CWRA 171400Z AUTO 18024KT RMK AO1 PK WND 18028/1357 56022,CWRA,2019-01-17T14:00:00Z,46.63,-53.07,,,180,24,,,,,,TRUE,TRUE,,,,,,,,,,,,,,,,-2.2,,,,,,,,,,,METAR,28.0
CWTA 171400Z AUTO 12002KT M18/M25 RMK AO1 4PAST HR SOG 32 3012 SLP315 P0002 T11841247 50004,CWTA,2019-01-17T14:00:00Z,45.5,-73.58,-18.4,-24.7,120,2,,,,1031.5,,TRUE,TRUE,,,,,,,,,,,,,,,,0.4,,,,,0.02,,,,,,METAR,63.0
CWIK 171400Z AUTO 35004KT M18/M21 RMK AO1 SOG 06 3009 SLP266 T11831209,CWIK,2019-01-17T14:00:00Z,50.37,-102.58,-18.3,-20.9,350,4,,,,1026.6,,TRUE,TRUE,,,,,,,,,,,,,,,,,,,,,,,,,,,SPECI,602.0
CWBU 171400Z AUTO 30007KT M26/M30 RMK AO1 SOG 23 0005 SLP301 T12621298,CWBU,2019-01-17T14:00:00Z,53.33,-104.02,-26.2,-29.8,300,7,,,,1030.1,,TRUE,TRUE,,,,,,,,,,,,,,,,,,,,,,,,,,,SPECI,373.0
CWST 171400Z AUTO 24013KT M22/M26 RMK AO1 SOG 21 3027 SLP282 T12151257 50002,CWST,2019-01-17T14:00:00Z,47.35,-70.02,-21.5,-25.7,240,13,,,,1028.2,,TRUE,TRUE,,,,,,,,,,,,,,,,0.2,,,,,,,,,,,METAR,31.0
CWSR 171400Z AUTO 30004KT M27/M30 RMK AO1 SOG 17 1006 SLP319 T12711295,CWSR,2019-01-17T14:00:00Z,53.37,-107.53,-27.1,-29.5,300,4,,,,1031.9,,TRUE,TRUE,,,,,,,,,,,,,,,,,,,,,,,,,,,METAR,584.0
CWSP 171400Z AUTO 07006G15KT 09/04 RMK AO1 PK WND 08021/1322 SLP964 T00940040 56010,CWSP,2019-01-17T14:00:00Z,48.38,-123.92,9.4,4.0,70,6,15,,,996.4,,TRUE,TRUE,,,,,,,,,,,,,,,,-1.0,,,,,,,,,,,METAR,21.0
CWSL 171400Z AUTO 18003KT M04/M05 RMK AO1 SOG 12 6027 SLP085 T10351047,CWSL,2019-01-17T14:00:00Z,50.7,-119.27,-3.5,-4.7,180,3,,,,1008.5,,TRUE,TRUE,,,,,,,,,,,,,,,,,,,,,,,,,,,METAR,351.0
CWSK 171400Z AUTO 08002KT 01/M01 RMK AO1 SLP012 T00141011 53002,CWSK,2019-01-17T14:00:00Z,49.78,-123.17,1.4,-1.1,80,2,,,,1001.2,,TRUE,TRUE,,,,,,,,,,,,,,,,0.2,,,,,,,,,,,METAR,60.0
CWSG 171400Z AUTO 28023G30KT M18/M19 RMK AO1 PK WND 28033/1306 SLP221 T11781190 53045,CWSG,2019-01-17T14:00:00Z,49.12,-66.65,-17.8,-19.0,280,23,30,,,1022.1,,TRUE,TRUE,,,,,,,,,,,,,,,,4.5,,,,,,,,,,,METAR,5.0
CWSD 171400Z AUTO 28015G22KT M16/M22 RMK AO1 SOG 16 1042 PK WND 30022/1300 SLP201 T11581221,CWSD,2019-01-17T14:00:00Z,46.42,-63.85,-15.8,-22.1,280,15,22,,,1020.1,,TRUE,TRUE,,,,,,,,,,,,,,,,,,,,,,,,,,,METAR,24.0
CWRZ 171400Z AUTO 27009KT M17/M22 RMK AO1 PK WND 28017/1304 SLP154 T11671219 51044,CWRZ,2019-01-17T14:00:00Z,48.42,-64.32,-16.7,-21.9,270,9,,,,1015.4,,TRUE,TRUE,,,,,,,,,,,,,,,,4.4,,,,,,,,,,,METAR,16.0
CWRY 171400Z AUTO 02006KT M10/M12 RMK AO1 SOG 02 6009 SLP217 T11041115,CWRY,2019-01-17T14:00:00Z,49.12,-112.03,-10.4,-11.5,20,6,,,,1021.7,,TRUE,TRUE,,,,,,,,,,,,,,,,,,,,,,,,,,,METAR,1050.0
CWRT 171400Z AUTO 13010G17KT M08/M09 RMK AO1 PK WND 13017/1354 T10841094,CWRT,2019-01-17T14:00:00Z,49.62,-114.47,-8.4,-9.4,130,10,17,,,,,TRUE,TRUE,,,,,,,,,,,,,,,,,,,,,,,,,,,METAR,1303.0
CWRK 171400Z AUTO 00000KT M25/M27 RMK AO1 SOG 20 0003 SLP302 T12471274,CWRK,2019-01-17T14:00:00Z,45.07,-77.87,-24.7,-27.4,0,0,,,,1030.2,,TRUE,TRUE,,,,,,,,,,,,,,,,,,,,,,,,,,,METAR,331.0
CWRJ 171400Z AUTO 04009KT M17/M20 RMK AO1 SOG 07 3006 SLP300 T11731197,CWRJ,2019-01-17T14:00:00Z,51.57,-107.92,-17.3,-19.7,40,9,,,,1030.0,,TRUE,TRUE,,,,,,,,,,,,,,,,,,,,,,,,,,,METAR,586.0
CWQV 171400Z AUTO M26/M32 RMK AO1 25 T12571319,CWQV,2019-01-17T14:00:00Z,48.27,-70.12,-25.7,-31.9,,,,,,,,TRUE,TRUE,,,,,,,,,,,,,,,,,,,,,,,,,,,METAR,1.0
CWQR 171400Z AUTO 31026G32KT M16/M21 RMK AO1 PK WND 32033/1306 T11601211,CWQR,2019-01-17T14:00:00Z,50.22,-64.22,-16.0,-21.1,310,26,32,,,,,TRUE,TRUE,,,,,,,,,,,,,,,,,,,,,,,,,,,METAR,9.0
CWQP 171400Z AUTO 03008KT M12/M15 RMK AO1 2PAST HR SOG 02 0000 SLP303 P0001 T11151149 50002,CWQP,2019-01-17T14:00:00Z,43.83,-77.15,-11.5,-14.9,30,8,,,,1030.3,,TRUE,TRUE,,,,,,,,,,,,,,,,0.2,,,,,0.01,,,,,,METAR,79.0
CWQO 171400Z AUTO 27015KT M21/M24 RMK AO1 PK WND 27023/1336 T12081235,CWQO,2019-01-17T14:00:00Z,48.42,-68.9,-20.8,-23.5,270,15,,,,,,TRUE,TRUE,,,,,,,,,,,,,,,,,,,,,,,,,,,METAR,1.0
CWQK 171400Z AUTO 02028G34KT 08/04 RMK AO1 PK WND 03034/1357 SLP963 T00760042 56008,CWQK,2019-01-17T14:00:00Z,48.3,-123.53,7.6,4.2,20,28,34,,,996.3,,TRUE,TRUE,,,,,,,,,,,,,,,,-0.8,,,,,,,,,,,METAR,5.0
CWQH 171400Z AUTO 19001KT M20/M23 RMK AO1 SOG 14 T12021230,CWQH,2019-01-17T14:00:00Z,45.37,-71.82,-20.2,-23.0,190,1,,,,,,TRUE,TRUE,,,,,,,,,,,,,,,,,,,,,,,,,,,METAR,181.0
CWWB 171400Z AUTO 33005KT M09/M13 RMK AO1 SLP279 T10891133 58006,CWWB,2019-01-17T14:00:00Z,43.3,-79.78,-8.9,-13.3,330,5,,,,1027.9,,TRUE,TRUE,,,,,,,,,,,,,,,,-0.6,,,,,,,,,,,METAR,76.0
CWNZ 171400Z AUTO 01002KT M25/M28 RMK AO1 SOG 49 8015 SLP225 T12511279,CWNZ,2019-01-17T14:00:00Z,49.75,-84.17,-25.1,-27.9,10,2,,,,1022.5,,TRUE,TRUE,,,,,,,,,,,,,,,,,,,,,,,,,,,METAR,256.0
CWNC 171400Z AUTO 07004KT M12/M19 RMK AO1 SOG 02 8003 SLP292 T11241186,CWNC,2019-01-17T14:00:00Z,43.95,-78.17,-12.4,-18.6,70,4,,,,1029.2,,TRUE,TRUE,,,,,,,,,,,,,,,,,,,,,,,,,,,METAR,78.0
CWDV 171400Z AUTO 31003KT M19/M23 RMK AO1 1PAST HR SOG 41 8017 SLP221 P0000 T11851227 50001,CWDV,2019-01-17T14:00:00Z,49.02,-90.47,-18.5,-22.7,310,3,,,,1022.1,,TRUE,TRUE,,,,,,,,,,,,,,,,0.1,,,,,0.005,,,,,,METAR,489.0
CWDQ 171400Z AUTO 00000KT M28/M30 RMK AO1 SOG 41 1014 SLP313 T12791295,CWDQ,2019-01-17T14:00:00Z,47.42,-72.78,-27.9,-29.5,0,0,,,,1031.3,,TRUE,TRUE,,,,,,,,,,,,,,,,,,,,,,,,,,,METAR,169.0
CWWZ 171400Z AUTO 15007KT M07/M11 RMK AO1 SOG 02 8004 SLP285 T10651106,CWWZ,2019-01-17T14:00:00Z,43.25,-79.22,-6.5,-10.6,150,7,,,,1028.5,,TRUE,TRUE,,,,,,,,,,,,,,,,,,,,,,,,,,,METAR,79.0
CWPO 171400Z AUTO 36008KT M17/M21 RMK AO1 SLP259 T11741209 53009,CWPO,2019-01-17T14:00:00Z,49.2,-98.9,-17.4,-20.9,360,8,,,,1025.9,,TRUE,TRUE,,,,,,,,,,,,,,,,0.9,,,,,,,,,,,METAR,470.0
CWPC 171400Z AUTO 13010KT M07/M12 RMK AO1 SLP279 T10701122 58007,CWPC,2019-01-17T14:00:00Z,42.87,-79.25,-7.0,-12.2,130,10,,,,1027.9,,TRUE,TRUE,,,,,,,,,,,,,,,,-0.7,,,,,,,,,,,METAR,184.0
GBYD 171400Z 30007KT CAVOK 31/10 Q1011,GBYD,2019-01-17T14:00:00Z,13.33,-16.65,31.0,10.0,300,7,,6.21,29.852362,,,,,,,,,,,CAVOK,,,,,,,,VFR,,,,,,,,,,,,METAR,36.0
HTKJ 171400Z 09010KT 9999 FEW034CB SCT036 33/16 Q1010 NOSIG,HTKJ,2019-01-17T14:00:00Z,-3.42,37.07,33.0,16.0,90,10,,6.21,29.822834,,,,,,TRUE,,,,,FEW,3400,SCT,3600,,,,,VFR,,,,,,,,,,,,METAR,896.0
SBUR 171400Z 06010KT CAVOK 27/15 Q1021,SBUR,2019-01-17T14:00:00Z,-19.77,-47.97,27.0,15.0,60,10,,6.21,30.147638,,,,,,,,,,,CAVOK,,,,,,,,VFR,,,,,,,,,,,,METAR,807.0
SBME 171400Z 11007KT CAVOK 31/24 Q1014,SBME,2019-01-17T14:00:00Z,-22.35,-41.77,31.0,24.0,110,7,,6.21,29.940945,,,,,,,,,,,CAVOK,,,,,,,,VFR,,,,,,,,,,,,METAR,2.0
CYUL 171400Z 29006KT 30SM FEW250 M19/M25 A3046 RMK CI1 CI TR SLP320,CYUL,2019-01-17T14:00:00Z,45.47,-73.73,-19.0,-25.0,290,6,,30.0,30.46063,1032.0,,,,,,,,,,FEW,25000,,,,,,,VFR,,,,,,,,,,,,METAR,36.0
FGBT 171400Z 23008KT 190V270 8000 -TSRA SCT010 FEW020CB 27/27 Q1008,FGBT,2019-01-17T14:00:00Z,1.88,9.8,27.0,27.0,230,8,,4.97,29.763779,,,,,,,,,,-TSRA,SCT,1000,FEW,2000,,,,,MVFR,,,,,,,,,,,,METAR,8.0
FOON 171400Z 28004KT 9999 SCT016 FEW020CB 30/23 Q1010,FOON,2019-01-17T14:00:00Z,-1.63,13.42,30.0,23.0,280,4,,6.21,29.822834,,,,,,,,,,,SCT,1600,FEW,2000,,,,,VFR,,,,,,,,,,,,METAR,441.0
FOOG 171400Z 22008KT 9999 SCT008 FEW020CB 28/25 Q1009,FOOG,2019-01-17T14:00:00Z,-0.7,8.75,28.0,25.0,220,8,,6.21,29.793306,,,,,,,,,,,SCT,800,FEW,2000,,,,,VFR,,,,,,,,,,,,METAR,4.0
OEWJ 171400Z 31018KT CAVOK 19/07 Q1019 NOSIG,OEWJ,2019-01-17T14:00:00Z,26.18,36.47,19.0,7.0,310,18,,6.21,30.088583,,,,,,TRUE,,,,,CAVOK,,,,,,,,VFR,,,,,,,,,,,,METAR,16.0
SBSP 171400Z 35005KT CAVOK 28/17 Q1021,SBSP,2019-01-17T14:00:00Z,-23.62,-46.63,28.0,17.0,350,5,,6.21,30.147638,,,,,,,,,,,CAVOK,,,,,,,,VFR,,,,,,,,,,,,METAR,803.0
CYLT 171400Z 27003KT 15SM OVC050 M28/M32 A3010 RMK SC8 WND ESTD SLP199,CYLT,2019-01-17T14:00:00Z,82.52,-62.27,-28.0,-32.0,270,3,,15.0,30.100393,1019.9,,,,,,,,,,OVC,5000,,,,,,,VFR,,,,,,,,,,,,SPECI,31.0
ZSQD 171400Z 00000MPS 5000 FU NSC M03/M11 Q1029 NOSIG,ZSQD,2019-01-17T14:00:00Z,36.27,120.38,-3.0,-11.0,0,0,,3.11,30.383858,,,,,,TRUE,,,,FU,CLR,,,,,,,,MVFR,,,,,,,,,,,,METAR,77.0
RCTP 171400Z 07019KT 9999 FEW012 SCT025 BKN045 16/11 Q1025 NOSIG RMK A3028,RCTP,2019-01-17T14:00:00Z,25.07,121.22,16.0,11.0,70,19,,6.21,30.265747,,,,,,TRUE,,,,,FEW,1200,SCT,2500,BKN,4500,,,VFR,,,,,,,,,,,,METAR,33.0
LKKU 171400Z 18010KT CAVOK 09/01 Q1006,LKKU,2019-01-17T14:00:00Z,49.05,17.45,9.0,1.0,180,10,,6.21,29.704725,,,,,,,,,,,CAVOK,,,,,,,,VFR,,,,,,,,,,,,METAR,177.0
AYPY 171400Z 05003KT 9999 BKN070 28/25 Q1008,AYPY,2019-01-17T14:00:00Z,-9.42,147.22,28.0,25.0,50,3,,6.21,29.763779,,,,,,,,,,,BKN,7000,,,,,,,VFR,,,,,,,,,,,,METAR,47.0
FPST 171400Z 11028KT 500 +TSRA SCT004 SCT012CB BKN030 OVC090 25/25 Q1012,FPST,2019-01-17T14:00:00Z,0.37,6.72,25.0,25.0,110,28,,,29.88189,,,,,,,,,,+TSRA,SCT,400,SCT,1200,BKN,3000,OVC,9000,,,,,,,,,,,,,SPECI,13.0
YGLA 171400Z AUTO 10010KT 9999 // SCT027 26/19 Q1013,YGLA,2019-01-17T14:00:00Z,-23.87,151.22,26.0,19.0,100,10,,6.21,29.911417,,,TRUE,,,,,,,,SCT,2700,,,,,,,VFR,,,,,,,,,,,,METAR,52.0
YGEL 171400Z AUTO 17016KT 9999 // NCD 20/16 Q1014,YGEL,2019-01-17T14:00:00Z,-28.8,114.7,20.0,16.0,170,16,,6.21,29.940945,,,TRUE,,,,,,,,CLR,,,,,,,,VFR,,,,,,,,,,,,METAR,37.0
YHID 171400Z AUTO 11003KT 9999 // SCT019 28/25 Q1008,YHID,2019-01-17T14:00:00Z,-10.58,142.3,28.0,25.0,110,3,,6.21,29.763779,,,TRUE,,,,,,,,SCT,1900,,,,,,,VFR,,,,,,,,,,,,METAR,13.0
YPJT 171400Z AUTO 20009KT 9999 // NCD 19/15 Q1015 RF00.0/000.0,YPJT,2019-01-17T14:00:00Z,-32.1,115.88,19.0,15.0,200,9,,6.21,29.970472,,,TRUE,,,,,,,,CLR,,,,,,,,VFR,,,,,,,,,,,,METAR,30.0
FAPN 171400Z AUTO 31001KT //// // ////// ///// Q1012,FAPN,2019-01-17T14:00:00Z,-25.33,27.17,,,310,1,,,29.88189,,,TRUE,,,,,,,,,,,,,,,,,,,,,,,,,,,,METAR,1039.0
YPWR 171400Z AUTO 15014KT 9999 // NCD 31/12 Q1005,YPWR,2019-01-17T14:00:00Z,-31.12,136.82,31.0,12.0,150,14,,6.21,29.675198,,,TRUE,,,,,,,,CLR,,,,,,,,VFR,,,,,,,,,,,,METAR,167.0
YLHI 171400Z AUTO 06009KT 9999 // OVC037 23/16 Q1017,YLHI,2019-01-17T14:00:00Z,-31.53,159.07,23.0,16.0,60,9,,6.21,30.029528,,,TRUE,,,,,,,,OVC,3700,,,,,,,VFR,,,,,,,,,,,,METAR,2.0
YCFS 171400Z AUTO 01012KT 9999 // NCD 24/19 Q1013,YCFS,2019-01-17T14:00:00Z,-30.32,153.12,24.0,19.0,10,12,,6.21,29.911417,,,TRUE,,,,,,,,CLR,,,,,,,,VFR,,,,,,,,,,,,METAR,5.0
VMMC 171400Z 10005KT 080V140 CAVOK 17/14 Q1023 NOSIG,VMMC,2019-01-17T14:00:00Z,22.15,113.58,17.0,14.0,100,5,,6.21,30.206694,,,,,,TRUE,,,,,CAVOK,,,,,,,,VFR,,,,,,,,,,,,METAR,6.0
RCNN 171400Z 35012KT 5000 BR FEW012 14/10 Q1021 RMK A3016,RCNN,2019-01-17T14:00:00Z,22.93,120.2,14.0,10.0,350,12,,3.11,30.147638,,,,,,,,,,BR,FEW,1200,,,,,,,MVFR,,,,,,,,,,,,SPECI,19.0
RCSS 171400Z 09008KT 9999 FEW018 SCT035 BKN050 16/12 Q1026 NOSIG RMK A3031,RCSS,2019-01-17T14:00:00Z,25.07,121.53,16.0,12.0,90,8,,6.21,30.295275,,,,,,TRUE,,,,,FEW,1800,SCT,3500,BKN,5000,,,VFR,,,,,,,,,,,,SPECI,6.0
RCKH 171400Z 34007KT 300V010 7000 FEW016 SCT120 17/14 Q1021 NOSIG RMK A3015,RCKH,2019-01-17T14:00:00Z,22.57,120.33,17.0,14.0,340,7,,4.35,30.147638,,,,,,TRUE,,,,,FEW,1600,SCT,12000,,,,,MVFR,,,,,,,,,,,,METAR,9.0
MZBZ 171400Z 34004KT 9999 FEW023 21/20 A3014 Q1020 NOSIG,MZBZ,2019-01-17T14:00:00Z,17.52,-88.3,21.0,20.0,340,4,,6.21,30.11811,,,,,,TRUE,,,,,FEW,2300,,,,,,,VFR,,,,,,,,,,,,METAR,5.0
SBCG 171400Z 33009KT 9999 FEW030 32/21 Q1018,SBCG,2019-01-17T14:00:00Z,-20.47,-54.67,32.0,21.0,330,9,,6.21,30.059055,,,,,,,,,,,FEW,3000,,,,,,,VFR,,,,,,,,,,,,METAR,567.0
CWAV 171400Z AUTO 10004KT M14/M15 RMK AO1 SLP227 T11361154 57013,CWAV,2019-01-17T14:00:00Z,51.77,-114.67,-13.6,-15.4,100,4,,,,1022.7,,TRUE,TRUE,,,,,,,,,,,,,,,,-1.3,,,,,,,,,,,METAR,1114.0
CWAQ 171400Z AUTO 01007KT M13/M15 RMK AO1 SLP229 T11311149 51015,CWAQ,2019-01-17T14:00:00Z,49.05,-105.48,-13.1,-14.9,10,7,,,,1022.9,,TRUE,TRUE,,,,,,,,,,,,,,,,1.5,,,,,,,,,,,METAR,756.0
CWAF 171400Z AUTO 29016G22KT M23/M26 RMK AO1 PK WND 28024/1304 T12281255,CWAF,2019-01-17T14:00:00Z,48.07,-69.53,-22.8,-25.5,290,16,22,,,,,TRUE,TRUE,,,,,,,,,,,,,,,,,,,,,,,,,,,METAR,5.0
SAVC 171400Z 32008KT CAVOK 23/05 Q1021,SAVC,2019-01-17T14:00:00Z,-45.77,-67.47,23.0,5.0,320,8,,6.21,30.147638,,,,,,,,,,,CAVOK,,,,,,,,VFR,,,,,,,,,,,,METAR,46.0
CYYC 171400Z 09004KT 4SM -SN BR FEW010 BKN014 OVC023 M14/M16 A3002 RMK SF1SC5SC2 PCPN VRY LGT SLP245,CYYC,2019-01-17T14:00:00Z,51.12,-114.02,-14.0,-16.0,90,4,,4.0,30.02067,1024.5,,,,,,,,,-SN BR,FEW,1000,BKN,1400,OVC,2300,,,MVFR,,,,,,,,,,,,METAR,1084.0
CYXX 171400Z 03015KT 10SM -RA BKN050 OVC070 04/02 A2950 RMK SC7AC1 PRESFR SLP994,CYXX,2019-01-17T14:00:00Z,49.03,-122.38,4.0,2.0,30,15,,10.0,29.500984,999.4,,,,,,,,,-RA,BKN,5000,OVC,7000,,,,,VFR,,,,,,,,,,,,METAR,58.0
CYYJ 171400Z 30002KT 20SM SCT041 BKN065 OVC120 05/04 A2949 RMK SC4SC3AC1 SLP988,CYYJ,2019-01-17T14:00:00Z,48.63,-123.42,5.0,4.0,300,2,,20.0,29.489174,998.8,,,,,,,,,,SCT,4100,BKN,6500,OVC,12000,,,VFR,,,,,,,,,,,,METAR,19.0
LEGE 171400Z 16004KT 110V200 9999 FEW060 13/05 Q1015,LEGE,2019-01-17T14:00:00Z,41.88,2.77,13.0,5.0,160,4,,6.21,29.970472,,,,,,,,,,,FEW,6000,,,,,,,VFR,,,,,,,,,,,,METAR,129.0
CXKM 171400Z AUTO 08007KT M19/M22 RMK AO1 T11921219,CXKM,2019-01-17T14:00:00Z,52.82,-111.85,-19.2,-21.9,80,7,,,,,,TRUE,TRUE,,,,,,,,,,,,,,,,,,,,,,,,,,,METAR,675.0
CXKI 171400Z AUTO M25/M28 RMK AO1 SOG 44 8008 SLP255 T12521275,CXKI,2019-01-17T14:00:00Z,48.22,-80.0,-25.2,-27.5,,,,,,1025.5,,TRUE,TRUE,,,,,,,,,,,,,,,,,,,,,,,,,,,METAR,324.0
CXHR 171400Z AUTO 05003KT M16/M17 RMK AO1 T11631171,CXHR,2019-01-17T14:00:00Z,51.18,-112.5,-16.3,-17.1,50,3,,,,,,TRUE,TRUE,,,,,,,,,,,,,,,,,,,,,,,,,,,METAR,971.0
CXFR 171400Z AUTO 06010KT M22/M25 RMK AO1 4PAST HR M P0002 T12191247 50004,CXFR,2019-01-17T14:00:00Z,56.08,-118.43,-21.9,-24.7,60,10,,,,,,TRUE,TRUE,,,,,,,,,,,,,,,,0.4,,,,,0.02,,,,,,METAR,655.0
CXCS 171400Z AUTO 06007KT M17/M20 RMK AO1 T11731195,CXCS,2019-01-17T14:00:00Z,51.93,-110.72,-17.3,-19.5,60,7,,,,,,TRUE,TRUE,,,,,,,,,,,,,,,,,,,,,,,,,,,METAR,772.0
CXCP 171400Z AUTO 09003KT M12/M12 RMK AO1 T11151121,CXCP,2019-01-17T14:00:00Z,50.28,-113.35,-11.5,-12.1,90,3,,,,,,TRUE,TRUE,,,,,,,,,,,,,,,,,,,,,,,,,,,METAR,1006.0
CXCD 171400Z AUTO 10007KT M20/M22 RMK AO1 T11961216,CXCD,2019-01-17T14:00:00Z,56.32,-119.75,-19.6,-21.6,100,7,,,,,,TRUE,TRUE,,,,,,,,,,,,,,,,,,,,,,,,,,,METAR,630.0
CXBR 171400Z AUTO 07007KT M09/M10 RMK AO1 T10921096,CXBR,2019-01-17T14:00:00Z,49.62,-113.82,-9.2,-9.6,70,7,,,,,,TRUE,TRUE,,,,,,,,,,,,,,,,,,,,,,,,,,,METAR,1073.0
CXBA 171400Z AUTO 06007KT M17/M19 RMK AO1 T11691191,CXBA,2019-01-17T14:00:00Z,52.12,-110.1,-16.9,-19.1,60,7,,,,,,TRUE,TRUE,,,,,,,,,,,,,,,,,,,,,,,,,,,METAR,687.0
CWJH 171400Z AUTO 28002KT M31/M35 RMK AO1 SOG 52 8003 SLP281 T13141348,CWJH,2019-01-17T14:00:00Z,56.32,-103.27,-31.4,-34.8,280,2,,,,1028.1,,TRUE,TRUE,,,,,,,,,,,,,,,,,,,,,,,,,,,METAR,344.0
CWJC 171400Z AUTO 34021KT M33/M36 RMK AO1 PK WND 34028/1329 SLP197 T13261361 51002,CWJC,2019-01-17T14:00:00Z,61.13,-100.9,-32.6,-36.1,340,21,,,,1019.7,,TRUE,TRUE,,,,,,,,,,,,,,,,0.2,,,,,,,,,,,METAR,357.0
CWJB 171400Z AUTO 22005KT M24/M30 RMK AO1 SOG 53 T12381295,CWJB,2019-01-17T14:00:00Z,46.78,-71.27,-23.8,-29.5,220,5,,,,,,TRUE,TRUE,,,,,,,,,,,,,,,,,,,,,,,,,,,METAR,91.0
CWIZ 171400Z AUTO 20002KT M21/M26 RMK AO1 SOG 11 T12141259,CWIZ,2019-01-17T14:00:00Z,45.28,-73.33,-21.4,-25.9,200,2,,,,,,TRUE,TRUE,,,,,,,,,,,,,,,,,,,,,,,,,,,METAR,45.0
CWIW 171400Z AUTO 35007KT M21/M23 RMK AO1 SOG 05 3012 SLP305 T12061231,CWIW,2019-01-17T14:00:00Z,51.67,-105.4,-20.6,-23.1,350,7,,,,1030.5,,TRUE,TRUE,,,,,,,,,,,,,,,,,,,,,,,,,,,METAR,526.0
CWIT 171400Z AUTO 28005KT M19/M24 RMK AO1 2PAST HR SOG 12 3013 SLP309 P0016 T11881236 50047,CWIT,2019-01-17T14:00:00Z,45.17,-73.67,-18.8,-23.6,280,5,,,,1030.9,,TRUE,TRUE,,,,,,,,,,,,,,,,4.7,,,,,0.16,,,,,,METAR,52.0
CWIS 171400Z AUTO 01001KT M26/M30 RMK AO1 SOG 133 3023 SLP241 T12641304,CWIS,2019-01-17T14:00:00Z,47.28,-70.63,-26.4,-30.4,10,1,,,,1024.1,,TRUE,TRUE,,,,,,,,,,,,,,,,,,,,,,,,,,,METAR,719.0
CWII 171400Z AUTO 32008KT M19/M22 RMK AO1 SLP244 T11941218 58005,CWII,2019-01-17T14:00:00Z,50.7,-96.57,-19.4,-21.8,320,8,,,,1024.4,,TRUE,TRUE,,,,,,,,,,,,,,,,-0.5,,,,,,,,,,,METAR,220.0
CWIG 171400Z AUTO 21018G24KT RMK AO1 PK WND 20026/1328,CWIG,2019-01-17T14:00:00Z,47.07,-70.53,,,210,18,24,,,,,TRUE,TRUE,,,,,,,,,,,,,,,,,,,,,,,,,,,METAR,18.0
CWID 171400Z AUTO 08001KT M36/M39 RMK AO1 SLP375 T13551392 58015,CWID,2019-01-17T14:00:00Z,61.32,-117.6,-35.5,-39.2,80,1,,,,1037.5,,TRUE,TRUE,,,,,,,,,,,,,,,,-1.5,,,,,,,,,,,METAR,161.0
CWHV 171400Z AUTO 24002KT M22/M28 RMK AO1 1027 SLP290 T12231283 50002,CWHV,2019-01-17T14:00:00Z,46.2,-70.77,-22.3,-28.3,240,2,,,,1029.0,,TRUE,TRUE,,,,,,,,,,,,,,,,0.2,,,,,,,,,,,METAR,229.0
CWHT 171400Z AUTO 00000KT M08/M10 RMK AO1 SOG 09 8011 SLP116 T10831095,CWHT,2019-01-17T14:00:00Z,60.77,-137.58,-8.3,-9.5,0,0,,,,1011.6,,TRUE,TRUE,,,,,,,,,,,,,,,,,,,,,,,,,,,METAR,599.0
CWHQ 171400Z AUTO 32005KT M21/ RMK AO1 T1205,CWHQ,2019-01-17T14:00:00Z,46.68,-71.97,-20.5,,320,5,,,,,,TRUE,TRUE,,,,,,,,,,,,,,,,,,,,,,,,,,,METAR,55.0
CWHI 171400Z AUTO 07004KT M16/M18 RMK AO1 4PAST HR M P0002 T11591178 50004,CWHI,2019-01-17T14:00:00Z,51.7,-113.22,-15.9,-17.8,70,4,,,,,,TRUE,TRUE,,,,,,,,,,,,,,,,0.4,,,,,0.02,,,,,,METAR,907.0
CWGY 171400Z AUTO M17/M19 RMK AO1 SLP290 T11651189 50003,CWGY,2019-01-17T14:00:00Z,51.67,-110.2,-16.5,-18.9,,,,,,1029.0,,TRUE,TRUE,,,,,,,,,,,,,,,,0.3,,,,,,,,,,,METAR,707.0
CWGW 171400Z AUTO 01007KT M08/M10 RMK AO1 SOG 12 8018 SLP184 T10751095,CWGW,2019-01-17T14:00:00Z,49.75,-114.9,-7.5,-9.5,10,7,,,,1018.4,,TRUE,TRUE,,,,,,,,,,,,,,,,,,,,,,,,,,,METAR,1137.0
CWGT 171400Z AUTO 14012KT 06/04 RMK AO1 SLP986 T00630040 58003,CWGT,2019-01-17T14:00:00Z,49.48,-124.43,6.3,4.0,140,12,,,,998.6,,TRUE,TRUE,,,,,,,,,,,,,,,,-0.3,,,,,,,,,,,METAR,5.0
CWGR 171400Z AUTO 26023G30KT M11/M13 RMK AO1 PK WND 27033/1308 SLP143 T11111133 51039,CWGR,2019-01-17T14:00:00Z,47.42,-61.8,-11.1,-13.3,260,23,30,,,1014.3,,TRUE,TRUE,,,,,,,,,,,,,,,,3.9,,,,,,,,,,,METAR,60.0
CWXA 171400Z AUTO 03003KT M11/M13 RMK AO1 SLP195 T11091127 56012,CWXA,2019-01-17T14:00:00Z,51.07,-115.07,-10.9,-12.7,30,3,,,,1019.5,,TRUE,TRUE,,,,,,,,,,,,,,,,-1.2,,,,,,,,,,,METAR,1298.0
CWWK 171400Z AUTO 03004KT 05/03 RMK AO1 6PAST HR 0006 SLP998 P0002 T00500028 50010,CWWK,2019-01-17T14:00:00Z,49.02,-122.78,5.0,2.8,30,4,,,,999.8,,TRUE,TRUE,,,,,,,,,,,,,,,,1.0,,,,,0.02,,,,,,METAR,15.0
CWWF 171400Z AUTO 02009KT M16/M19 RMK AO1 SOG 05 3014 SLP259 T11591187,CWWF,2019-01-17T14:00:00Z,49.7,-103.8,-15.9,-18.7,20,9,,,,1025.9,,TRUE,TRUE,,,,,,,,,,,,,,,,,,,,,,,,,,,METAR,589.0
CWWA 171400Z AUTO 07003KT 06/05 RMK AO1 9PAST HR 0007 SLP995 P0004 T00570046 50013,CWWA,2019-01-17T14:00:00Z,49.35,-123.17,5.7,4.6,70,3,,,,999.5,,TRUE,TRUE,,,,,,,,,,,,,,,,1.3,,,,,0.04,,,,,,METAR,178.0
CWVQ 171400Z AUTO 26003KT M20/M26 RMK AO1 SOG 13 1015 SLP322 T12021259,CWVQ,2019-01-17T14:00:00Z,45.42,-73.92,-20.2,-25.9,260,3,,,,1032.2,,TRUE,TRUE,,,,,,,,,,,,,,,,,,,,,,,,,,,METAR,39.0
CWVP 171400Z AUTO 00000KT M14/M16 RMK AO1 SOG 12 4000 SLP208 T11401162,CWVP,2019-01-17T14:00:00Z,49.63,-109.52,-14.0,-16.2,0,0,,,,1020.8,,TRUE,TRUE,,,,,,,,,,,,,,,,,,,,,,,,,,,METAR,1271.0
CWVN 171400Z AUTO 04009KT M12/M15 RMK AO1 SLP234 T11181146 53007,CWVN,2019-01-17T14:00:00Z,49.07,-107.57,-11.8,-14.6,40,9,,,,1023.4,,TRUE,TRUE,,,,,,,,,,,,,,,,0.7,,,,,,,,,,,METAR,785.0
CWVI 171400Z AUTO 02003KT M28/M30 RMK AO1 SOG 21 8002 SLP327 T12771302,CWVI,2019-01-17T14:00:00Z,53.52,-112.1,-27.7,-30.2,20,3,,,,1032.7,,TRUE,TRUE,,,,,,,,,,,,,,,,,,,,,,,,,,,METAR,639.0
CWVF 171400Z AUTO 03013KT 06/05 RMK AO1 T00600050,CWVF,2019-01-17T14:00:00Z,49.1,-123.3,6.0,5.0,30,13,,,,,,TRUE,TRUE,,,,,,,,,,,,,,,,,,,,,,,,,,,METAR,1.0
CWUS 171400Z AUTO 29002KT M01/M03 RMK AO1 SLP078 T10131031 56024,CWUS,2019-01-17T14:00:00Z,49.57,-119.65,-1.3,-3.1,290,2,,,,1007.8,,TRUE,TRUE,,,,,,,,,,,,,,,,-2.4,,,,,,,,,,,METAR,454.0
CWTY 171400Z AUTO 30007KT M22/M27 RMK AO1 SLP317 T12211274 53016,CWTY,2019-01-17T14:00:00Z,46.35,-72.52,-22.1,-27.4,300,7,,,,1031.7,,TRUE,TRUE,,,,,,,,,,,,,,,,1.6,,,,,,,,,,,METAR,6.0
CWTT 171400Z AUTO 18006G22KT M19/M23 RMK AO1 PK WND 18022/1329 T11881231,CWTT,2019-01-17T14:00:00Z,45.27,-72.17,-18.8,-23.1,180,6,22,,,,,TRUE,TRUE,,,,,,,,,,,,,,,,,,,,,,,,,,,METAR,209.0
CWTN 171400Z AUTO 26004KT M21/M31 RMK AO1 SLP294 T12111308 53030,CWTN,2019-01-17T14:00:00Z,47.07,-70.78,-21.1,-30.8,260,4,,,,1029.4,,TRUE,TRUE,,,,,,,,,,,,,,,,3.0,,,,,,,,,,,METAR,6.0
CWTG 171400Z AUTO 27018G24KT M24/M27 RMK AO1 PK WND 26026/1317 SLP229 T12361270 51037,CWTG,2019-01-17T14:00:00Z,49.32,-67.37,-23.6,-27.0,270,18,24,,,1022.9,,TRUE,TRUE,,,,,,,,,,,,,,,,3.7,,,,,,,,,,,METAR,5.0
CXPC 171400Z AUTO M17/M22 RMK AO1 SOG 12 8006 SLP275 T11681219,CXPC,2019-01-17T14:00:00Z,45.35,-80.05,-16.8,-21.9,,,,,,1027.5,,TRUE,TRUE,,,,,,,,,,,,,,,,,,,,,,,,,,,METAR,176.0
CXPA 171400Z AUTO 02004KT M20/M22 RMK AO1 T12031224,CXPA,2019-01-17T14:00:00Z,55.62,-118.3,-20.3,-22.4,20,4,,,,,,TRUE,TRUE,,,,,,,,,,,,,,,,,,,,,,,,,,,METAR,621.0
CXOY 171400Z AUTO 07008KT M17/M18 RMK AO1 T11651181,CXOY,2019-01-17T14:00:00Z,51.38,-110.35,-16.5,-18.1,70,8,,,,,,TRUE,TRUE,,,,,,,,,,,,,,,,,,,,,,,,,,,METAR,767.0
CXLB 171400Z AUTO 28015KT M09/M14 RMK AO1 PK WND 29027/1317 SLP213 T10871140 52037,CXLB,2019-01-17T14:00:00Z,44.37,-64.3,-8.7,-14.0,280,15,,,,1021.3,,TRUE,TRUE,,,,,,,,,,,,,,,,3.7,,,,,,,,,,,METAR,4.0
VAPR 171400Z 31008KT 5000 HZ NSC 24/19 Q1013,VAPR,2019-01-17T14:00:00Z,21.63,69.67,24.0,19.0,310,8,,3.11,29.911417,,,,,,,,,,HZ,CLR,,,,,,,,MVFR,,,,,,,,,,,,METAR,7.0
LPLA 171400Z /////KT 9999 FEW026 BKN040 17/13 Q1031,LPLA,2019-01-17T14:00:00Z,38.77,-27.1,17.0,13.0,,,,6.21,30.442913,,,,,,,,,,,FEW,2600,BKN,4000,,,,,VFR,,,,,,,,,,,,METAR,55.0
MKJS 171400Z 10006KT 9999 FEW022 27/21 Q1018,MKJS,2019-01-17T14:00:00Z,18.5,-77.92,27.0,21.0,100,6,,6.21,30.059055,,,,,,,,,,,FEW,2200,,,,,,,VFR,,,,,,,,,,,,METAR,1.0
LPBJ 171400Z 33005KT 280V360 9999 FEW015 SCT020 13/07 Q1019,LPBJ,2019-01-17T14:00:00Z,38.08,-7.93,13.0,7.0,330,5,,6.21,30.088583,,,,,,,,,,,FEW,1500,SCT,2000,,,,,VFR,,,,,,,,,,,,METAR,194.0
MNMG 171400Z 10010KT 9999 FEW022 26/19 Q1015 A2999 NOSIG,MNMG,2019-01-17T14:00:00Z,12.15,-86.17,26.0,19.0,100,10,,6.21,29.970472,,,,,,TRUE,,,,,FEW,2200,,,,,,,VFR,,,,,,,,,,,,METAR,59.0
FNSA 171400Z 33005KT 9999 SCT030 30/22 Q1017,FNSA,2019-01-17T14:00:00Z,-9.68,20.43,30.0,22.0,330,5,,6.21,30.029528,,,,,,,,,,,SCT,3000,,,,,,,VFR,,,,,,,,,,,,METAR,1093.0
FNCA 171400Z 18010KT 9999 FEW016 SCT020 FEW025CB 31/24 Q1009,FNCA,2019-01-17T14:00:00Z,-5.58,12.18,31.0,24.0,180,10,,6.21,29.793306,,,,,,,,,,,FEW,1600,SCT,2000,FEW,2500,,,VFR,,,,,,,,,,,,METAR,20.0
FQMA 171400Z 16013KT 9999 FEW020 31/23 Q1008 NOSIG,FQMA,2019-01-17T14:00:00Z,-25.92,32.57,31.0,23.0,160,13,,6.21,29.763779,,,,,,TRUE,,,,,FEW,2000,,,,,,,VFR,,,,,,,,,,,,METAR,44.0
CYYT 171400Z 19022G34KT 15SM OVC007 00/M01 A2983 RMK SC8 SLP110,CYYT,2019-01-17T14:00:00Z,47.62,-52.72,0.0,-1.0,190,22,34,15.0,29.828741,1011.0,,,,,,,,,,OVC,700,,,,,,,IFR,,,,,,,,,,,,METAR,140.0
CYYZ 171400Z 36004KT 15SM FEW020 SCT120 BKN250 M11/M16 A3033 RMK CF1AC3CI3 CF TR SLP285,CYYZ,2019-01-17T14:00:00Z,43.67,-79.62,-11.0,-16.0,360,4,,15.0,30.33071,1028.5,,,,,,,,,,FEW,2000,SCT,12000,BKN,25000,,,VFR,,,,,,,,,,,,METAR,173.0
OINB 171400Z 34014KT 7000 RA BKN020 FEW025CB OVC080 11/10 Q1004,OINB,2019-01-17T14:00:00Z,36.72,52.65,11.0,10.0,340,14,,4.35,29.64567,,,,,,,,,,RA,BKN,2000,FEW,2500,OVC,8000,,,MVFR,,,,,,,,,,,,METAR,-15.0
MRLM 171400Z 23004KT 9999 FEW015 SCT100 25/21 A3006,MRLM,2019-01-17T14:00:00Z,9.97,-83.03,25.0,21.0,230,4,,6.21,30.059055,,,,,,,,,,,FEW,1500,SCT,10000,,,,,VFR,,,,,,,,,,,,SPECI,2.0
OEDR 171400Z 34012KT 0150 BLDU VV/// 20/M01 Q1015 NOSIG,OEDR,2019-01-17T14:00:00Z,26.27,50.17,20.0,-1.0,340,12,,0.09,29.970472,,,,,,TRUE,,,,BLDU,OVX,0,,,,,,,LIFR,,,,,,,,,,,,METAR,17.0
RKNY 171400Z AUTO 25011KT 9999 NCD 02/M15 Q1022,RKNY,2019-01-17T14:00:00Z,38.07,128.67,2.0,-15.0,250,11,,6.21,30.177166,,,TRUE,,,,,,,,CLR,,,,,,,,VFR,,,,,,,,,,,,METAR,74.0
RKJB 171400Z 07004KT 020V100 9999 BKN040 00/M02 Q1028 NOSIG,RKJB,2019-01-17T14:00:00Z,34.98,126.38,0.0,-2.0,70,4,,6.21,30.35433,,,,,,TRUE,,,,,BKN,4000,,,,,,,VFR,,,,,,,,,,,,METAR,2.0
RKTN 171400Z 34001KT CAVOK 00/M07 Q1026,RKTN,2019-01-17T14:00:00Z,35.88,128.65,0.0,-7.0,340,1,,6.21,30.295275,,,,,,,,,,,CAVOK,,,,,,,,VFR,,,,,,,,,,,,METAR,35.0
RKTU 171400Z 29001KT CAVOK M07/M10 Q1027,RKTU,2019-01-17T14:00:00Z,36.7,127.5,-7.0,-10.0,290,1,,6.21,30.324802,,,,,,,,,,,CAVOK,,,,,,,,VFR,,,,,,,,,,,,METAR,66.0
RKPK 171400Z 35006KT CAVOK 02/M07 Q1025,RKPK,2019-01-17T14:00:00Z,35.17,128.92,2.0,-7.0,350,6,,6.21,30.265747,,,,,,,,,,,CAVOK,,,,,,,,VFR,,,,,,,,,,,,METAR,15.0
RKPC 171400Z 33008KT 300V050 9999 SCT035 05/M03 Q1028 NOSIG,RKPC,2019-01-17T14:00:00Z,33.5,126.48,5.0,-3.0,330,8,,6.21,30.35433,,,,,,TRUE,,,,,SCT,3500,,,,,,,VFR,,,,,,,,,,,,METAR,27.0
RKSS 171400Z 29004KT CAVOK M06/M12 Q1027 NOSIG,RKSS,2019-01-17T14:00:00Z,37.53,126.78,-6.0,-12.0,290,4,,6.21,30.324802,,,,,,TRUE,,,,,CAVOK,,,,,,,,VFR,,,,,,,,,,,,METAR,19.0
SECO 171400Z 18007KT 9999 BKN013 OVC090 23/22 Q1016 RMK A3003,SECO,2019-01-17T14:00:00Z,-0.45,-76.98,23.0,22.0,180,7,,6.21,30.0,,,,,,,,,,,BKN,1300,OVC,9000,,,,,MVFR,,,,,,,,,,,,METAR,220.0
CYBR 171400Z 04005KT 10SM -SN BKN020 OVC025 M17/M21 A3018 RMK SC7SC1 SLP266,CYBR,2019-01-17T14:00:00Z,49.92,-99.95,-17.0,-21.0,40,5,,10.0,30.180119,1026.6,,,,,,,,,-SN,BKN,2000,OVC,2500,,,,,MVFR,,,,,,,,,,,,METAR,409.0
FMNN 171400Z 12004KT 9999 TS BKN020CB 26/25 Q1010,FMNN,2019-01-17T14:00:00Z,-13.32,48.32,26.0,25.0,120,4,,6.21,29.822834,,,,,,,,,,TS,BKN,2000,,,,,,,MVFR,,,,,,,,,,,,METAR,9.0
FMNA 171400Z 22006KT 9999 VCSH BKN020 26/24 Q1010,FMNA,2019-01-17T14:00:00Z,-12.33,49.28,26.0,24.0,220,6,,6.21,29.822834,,,,,,,,,,VCSH,BKN,2000,,,,,,,MVFR,,,,,,,,,,,,METAR,105.0
MKJP 171400Z VRB02KT 9999 FEW022 SCT034 28/17 Q1019,MKJP,2019-01-17T14:00:00Z,17.92,-76.78,28.0,17.0,0,2,,6.21,30.088583,,,,,,,,,,,FEW,2200,SCT,3400,,,,,VFR,,,,,,,,,,,,METAR,3.0
FMSD 171400Z 08008KT 9999 FEW020 31/26 Q1008,FMSD,2019-01-17T14:00:00Z,-25.02,46.95,31.0,26.0,80,8,,6.21,29.763779,,,,,,,,,,,FEW,2000,,,,,,,VFR,,,,,,,,,,,,METAR,9.0
FMNM 171400Z 30008KT 9999 FEW020CB 31/25 Q1007 NOSIG,FMNM,2019-01-17T14:00:00Z,-15.67,46.35,31.0,25.0,300,8,,6.21,29.734253,,,,,,TRUE,,,,,FEW,2000,,,,,,,VFR,,,,,,,,,,,,METAR,18.0
FMMT 171400Z 05008KT 020V090 9999 FEW017CB 30/24 Q1009 NOSIG,FMMT,2019-01-17T14:00:00Z,-18.12,49.38,30.0,24.0,50,8,,6.21,29.793306,,,,,,TRUE,,,,,FEW,1700,,,,,,,VFR,,,,,,,,,,,,METAR,6.0
FMCH 171400Z 21011KT 9999 FEW020 32/25 Q1008 NOSIG,FMCH,2019-01-17T14:00:00Z,-11.52,43.27,32.0,25.0,210,11,,6.21,29.763779,,,,,,TRUE,,,,,FEW,2000,,,,,,,VFR,,,,,,,,,,,,METAR,29.0
UMMG 171400Z 25007G10MPS 9999 BKN015 OVC066 03/M01 Q0996 NOSIG,UMMG,2019-01-17T14:00:00Z,53.6,24.05,3.0,-1.0,250,14,19,6.21,29.409449,,,,,,TRUE,,,,,BKN,1500,OVC,6600,,,,,MVFR,,,,,,,,,,,,METAR,135.0
LKPD 171400Z 22009KT CAVOK 07/00 Q1003 NOSIG RMK BLU BLU,LKPD,2019-01-17T14:00:00Z,50.02,15.73,7.0,0.0,220,9,,6.21,29.616142,,,,,,TRUE,,,,,CAVOK,,,,,,,,VFR,,,,,,,,,,,,METAR,226.0
LKNA 171400Z 20007KT 160V220 9999 FEW039 07/01 Q1004 NOSIG RMK BLU BLU,LKNA,2019-01-17T14:00:00Z,49.17,16.12,7.0,1.0,200,7,,6.21,29.64567,,,,,,TRUE,,,,,FEW,3900,,,,,,,VFR,,,,,,,,,,,,METAR,472.0
LKLN 171400Z AUTO 23012KT 9999 -RA FEW045 BKN055 OVC088 07/02 Q1003,LKLN,2019-01-17T14:00:00Z,49.68,13.27,7.0,2.0,230,12,,6.21,29.616142,,,TRUE,,,,,,,-RA,FEW,4500,BKN,5500,OVC,8800,,,VFR,,,,,,,,,,,,METAR,362.0
LKKB 171400Z 22013KT 9999 SCT028 BKN038 07/01 Q1002 NOSIG,LKKB,2019-01-17T14:00:00Z,50.12,14.53,7.0,1.0,220,13,,6.21,29.586615,,,,,,TRUE,,,,,SCT,2800,BKN,3800,,,,,VFR,,,,,,,,,,,,METAR,286.0
LKCV 171400Z 20009KT 9999 SCT036 BKN060 07/02 Q1003 NOSIG RMK BLU BLU,LKCV,2019-01-17T14:00:00Z,49.93,15.38,7.0,2.0,200,9,,6.21,29.616142,,,,,,TRUE,,,,,SCT,3600,BKN,6000,,,,,VFR,,,,,,,,,,,,METAR,242.0
YMOR 171400Z AUTO 01011KT 9999 // NCD 30/08 Q1010,YMOR,2019-01-17T14:00:00Z,-29.5,149.85,30.0,8.0,10,11,,6.21,29.822834,,,TRUE,,,,,,,,CLR,,,,,,,,VFR,,,,,,,,,,,,METAR,214.0
YMML 171400Z 36005KT CAVOK 24/16 Q1009,YMML,2019-01-17T14:00:00Z,-37.67,144.82,24.0,16.0,360,5,,6.21,29.793306,,,,,,,,,,,CAVOK,,,,,,,,VFR,,,,,,,,,,,,METAR,141.0
YMIA 171400Z AUTO 15015KT 9999 // NCD 31/12 Q1007,YMIA,2019-01-17T14:00:00Z,-34.23,142.08,31.0,12.0,150,15,,6.21,29.734253,,,TRUE,,,,,,,,CLR,,,,,,,,VFR,,,,,,,,,,,,METAR,51.0
YMER 171400Z AUTO 00000KT 7000 // NCD 22/21 Q1011,YMER,2019-01-17T14:00:00Z,-36.92,149.9,22.0,21.0,0,0,,4.35,29.852362,,,TRUE,,,,,,,,CLR,,,,,,,,MVFR,,,,,,,,,,,,METAR,2.0
YMEN 171400Z AUTO 03004KT 9999 // NCD 24/17 Q1009,YMEN,2019-01-17T14:00:00Z,-37.72,144.9,24.0,17.0,30,4,,6.21,29.793306,,,TRUE,,,,,,,,CLR,,,,,,,,VFR,,,,,,,,,,,,METAR,86.0
YMEK 171400Z AUTO 19007KT 9999 // NCD 32/M05 Q1011,YMEK,2019-01-17T14:00:00Z,-26.62,118.55,32.0,-5.0,190,7,,6.21,29.852362,,,TRUE,,,,,,,,CLR,,,,,,,,VFR,,,,,,,,,,,,METAR,522.0
YMDG 171400Z AUTO 19005KT 140V220 9999 // NCD 27/14 Q1011,YMDG,2019-01-17T14:00:00Z,-32.57,149.62,27.0,14.0,190,5,,6.21,29.852362,,,TRUE,,,,,,,,CLR,,,,,,,,VFR,,,,,,,,,,,,METAR,471.0
YMAY 171400Z AUTO 02004KT 9999 // NCD 29/14 Q1008,YMAY,2019-01-17T14:00:00Z,-36.07,146.93,29.0,14.0,20,4,,6.21,29.763779,,,TRUE,,,,,,,,CLR,,,,,,,,VFR,,,,,,,,,,,,METAR,171.0
YLRE 171400Z AUTO 03011KT 9999 // NCD 31/10 Q1008,YLRE,2019-01-17T14:00:00Z,-23.43,144.28,31.0,10.0,30,11,,6.21,29.763779,,,TRUE,,,,,,,,CLR,,,,,,,,VFR,,,,,,,,,,,,METAR,193.0
CYQK 171400Z 32003KT 3SM -SN BKN026 OVC060 M19/M22 A3011 RMK SC6SC2 SLP241,CYQK,2019-01-17T14:00:00Z,49.77,-94.37,-19.0,-22.0,320,3,,3.0,30.109253,1024.1,,,,,,,,,-SN,BKN,2600,OVC,6000,,,,,MVFR,,,,,,,,,,,,METAR,411.0
CYQA 171400Z AUTO 12003KT 040V130 9SM CLR M19/M23 A3029 RMK ICG SLP291,CYQA,2019-01-17T14:00:00Z,44.97,-79.28,-19.0,-23.0,120,3,,9.0,30.28937,1029.1,,TRUE,,,,,,,,CLR,,,,,,,,VFR,,,,,,,,,,,,METAR,282.0
CYPO 171400Z AUTO 25007KT 9SM -SN BKN045 M34/M37 A2994 RMK SLP152,CYPO,2019-01-17T14:00:00Z,54.98,-85.43,-34.0,-37.0,250,7,,9.0,29.940945,1015.2,,TRUE,,,,,,,-SN,BKN,4500,,,,,,,VFR,,,,,,,,,,,,METAR,53.0
CYPL 171400Z 23005KT 15SM FEW140 FEW240 M28/M32 A3000 RMK AC1CI1 AC TR CI TR SLP213,CYPL,2019-01-17T14:00:00Z,51.47,-90.2,-28.0,-32.0,230,5,,15.0,30.0,1021.3,,,,,,,,,,FEW,14000,FEW,24000,,,,,VFR,,,,,,,,,,,,METAR,373.0
CYOO 171400Z AUTO 09007KT 9SM BKN150 M12/M19 A3036 RMK SLP295,CYOO,2019-01-17T14:00:00Z,43.92,-78.9,-12.0,-19.0,90,7,,9.0,30.360237,1029.5,,TRUE,,,,,,,,BKN,15000,,,,,,,VFR,,,,,,,,,,,,METAR,139.0
CYLH 171400Z AUTO 23008KT 9SM SCT034 M28/M31 A3000 RMK SLP196,CYLH,2019-01-17T14:00:00Z,52.2,-87.93,-28.0,-31.0,230,8,,9.0,30.0,1019.6,,TRUE,,,,,,,,SCT,3400,,,,,,,VFR,,,,,,,,,,,,METAR,254.0
CYKP 171400Z AUTO 24005KT 9SM CLR M31/M34 A3005 RMK ICG INTMT SLP215,CYKP,2019-01-17T14:00:00Z,51.67,-85.9,-31.0,-34.0,240,5,,9.0,30.050198,1021.5,,TRUE,,,,,,,,CLR,,,,,,,,VFR,,,,,,,,,,,,METAR,179.0
CYKL 171400Z AUTO 29012G18KT 9SM CLR M30/M34 A2967 RMK SLP114,CYKL,2019-01-17T14:00:00Z,54.78,-66.82,-30.0,-34.0,290,12,18,9.0,29.66929,1011.4,,TRUE,,,,,,,,CLR,,,,,,,,VFR,,,,,,,,,,,,METAR,521.0
CYKF 171400Z AUTO 06004KT 9SM OVC150 M13/M15 A3027 RMK SLP276,CYKF,2019-01-17T14:00:00Z,43.47,-80.38,-13.0,-15.0,60,4,,9.0,30.268702,1027.6,,TRUE,,,,,,,,OVC,15000,,,,,,,VFR,,,,,,,,,,,,METAR,317.0
CYHM 171400Z 06005KT 15SM FEW015 BKN150 BKN250 M10/M13 A3029 RMK SC1AC5CI2 SC TR SLP278,CYHM,2019-01-17T14:00:00Z,43.17,-79.93,-10.0,-13.0,60,5,,15.0,30.28937,1027.8,,,,,,,,,,FEW,1500,BKN,15000,BKN,25000,,,VFR,,,,,,,,,,,,METAR,238.0
CYGQ 171400Z 26005KT 8SM -SN SCT056 BKN080 M21/M25 A3006 RMK SC3AC4 SLP226,CYGQ,2019-01-17T14:00:00Z,49.77,-86.92,-21.0,-25.0,260,5,,8.0,30.059055,1022.6,,,,,,,,,-SN,SCT,5600,BKN,8000,,,,,VFR,,,,,,,,,,,,METAR,351.0
CYGK 171400Z 06006KT 15SM FEW015 FEW150 M15/M20 A3042 RMK CF1AC1 CF TR SLP312,CYGK,2019-01-17T14:00:00Z,44.22,-76.58,-15.0,-20.0,60,6,,15.0,30.41929,1031.2,,,,,,,,,,FEW,1500,FEW,15000,,,,,VFR,,,,,,,,,,,,METAR,93.0
CYER 171400Z AUTO 25007KT 9SM M34/M38 A2995 RMK CLD MISG SLP145,CYER,2019-01-17T14:00:00Z,56.02,-87.68,-34.0,-38.0,250,7,,9.0,29.949802,1014.5,,TRUE,,,,,,,,,,,,,,,,,,,,,,,,,,,,METAR,16.0
CYBN 171400Z AUTO 00000KT 9SM SCT038 M15/M18 A3032 RMK SLP286,CYBN,2019-01-17T14:00:00Z,44.27,-79.92,-15.0,-18.0,0,0,,9.0,30.318897,1028.6,,TRUE,,,,,,,,SCT,3800,,,,,,,VFR,,,,,,,,,,,,METAR,223.0
CYBC 171400Z AUTO 28013G20KT 9SM CLR M26/M34 A3026 RMK SLP250,CYBC,2019-01-17T14:00:00Z,49.12,-68.2,-26.0,-34.0,280,13,20,9.0,30.259842,1025.0,,TRUE,,,,,,,,CLR,,,,,,,,VFR,,,,,,,,,,,,METAR,22.0
CYAT 171400Z AUTO 25007KT 9SM CLR M32/M35 A3007 RMK SLP185,CYAT,2019-01-17T14:00:00Z,52.93,-82.43,-32.0,-35.0,250,7,,9.0,30.070866,1018.5,,TRUE,,,,,,,,CLR,,,,,,,,VFR,,,,,,,,,,,,METAR,9.0
CYZU 171400Z 09011KT 15SM -SN SCT008 OVC025 M19/M21 A3016 RMK SF4SC4 SLP285,CYZU,2019-01-17T14:00:00Z,54.15,-115.78,-19.0,-21.0,90,11,,15.0,30.159449,1028.5,,,,,,,,,-SN,SCT,800,OVC,2500,,,,,MVFR,,,,,,,,,,,,METAR,785.0
CYXH 171400Z 05008KT 10SM -SN OVC012 M13/M15 A3011 RMK SC8 SLP248,CYXH,2019-01-17T14:00:00Z,50.02,-110.72,-13.0,-15.0,50,8,,10.0,30.109253,1024.8,,,,,,,,,-SN,OVC,1200,,,,,,,MVFR,,,,,,,,,,,,METAR,716.0
CYUX 171400Z 34011KT 10SM IC DRSN FEW010 M36/M40 A2994 RMK SC1 SLP141,CYUX,2019-01-17T14:00:00Z,68.77,-81.25,-36.0,-40.0,340,11,,10.0,29.940945,1014.1,,,,,,,,,IC DRSN,FEW,1000,,,,,,,VFR,,,,,,,,,,,,METAR,8.0
CYUB 171400Z 10017G22KT 15SM DRSN FEW140 M22/M27 A3038 RMK AS1 AS TR TRACE LOOSE SLP289,CYUB,2019-01-17T14:00:00Z,69.45,-133.02,-22.0,-27.0,100,17,22,15.0,30.380905,1028.9,,,,,,,,,DRSN,FEW,14000,,,,,,,VFR,,,,,,,,,,,,METAR,5.0
CYTH 171400Z 30010KT 15SM SKC M33/M37 A3006 RMK SLP219,CYTH,2019-01-17T14:00:00Z,55.78,-97.87,-33.0,-37.0,300,10,,15.0,30.059055,1021.9,,,,,,,,,,SKC,,,,,,,,VFR,,,,,,,,,,,,METAR,218.0
CYSM 171400Z 29005KT 15SM SKC M34/M37 A3049 RMK FROIN SLP363,CYSM,2019-01-17T14:00:00Z,60.03,-111.97,-34.0,-37.0,290,5,,15.0,30.490158,1036.3,,,,,,,,,,SKC,,,,,,,,VFR,,,,,,,,,,,,METAR,203.0
CYSF 171400Z AUTO 27009KT 9SM CLR M34/M38 A3030 RMK SLP306,CYSF,2019-01-17T14:00:00Z,59.25,-105.82,-34.0,-38.0,270,9,,9.0,30.301182,1030.6,,TRUE,,,,,,,,CLR,,,,,,,,VFR,,,,,,,,,,,,METAR,250.0
CYQV 171400Z AUTO 31007KT 9SM FEW130 M21/M23 A3020 RMK SLP284,CYQV,2019-01-17T14:00:00Z,51.27,-102.47,-21.0,-23.0,310,7,,9.0,30.200787,1028.4,,TRUE,,,,,,,,FEW,13000,,,,,,,VFR,,,,,,,,,,,,METAR,498.0
CYPE 171400Z 04009KT 15SM BKN092 M24/M27 A3027 RMK AC7 SLP314,CYPE,2019-01-17T14:00:00Z,56.22,-117.45,-24.0,-27.0,40,9,,15.0,30.268702,1031.4,,,,,,,,,,BKN,9200,,,,,,,VFR,,,,,,,,,,,,METAR,571.0
CYOD 171400Z 00000KT 15SM FEW250 M28/M32 A3036 RMK CI1 CI TR SLP344,CYOD,2019-01-17T14:00:00Z,54.4,-110.28,-28.0,-32.0,0,0,,15.0,30.360237,1034.4,,,,,,,,,,FEW,25000,,,,,,,VFR,,,,,,,,,,,,METAR,544.0
CYMJ 171400Z 02007KT 6SM -SN OVC074 M16/M18 A3021 RMK AC8 SLP280,CYMJ,2019-01-17T14:00:00Z,50.32,-105.53,-16.0,-18.0,20,7,,6.0,30.209646,1028.0,,,,,,,,,-SN,OVC,7400,,,,,,,VFR,,,,,,,,,,,,METAR,577.0
CYLJ 171400Z 23006KT 15SM SKC M35/M38 A3036 RMK FROIN SLP345,CYLJ,2019-01-17T14:00:00Z,54.12,-108.52,-35.0,-38.0,230,6,,15.0,30.360237,1034.5,,,,,,,,,,SKC,,,,,,,,VFR,,,,,,,,,,,,METAR,480.0
CYIO 171400Z AUTO 19006KT 9SM FEW060 M37/M41 A3002 RMK SLP180,CYIO,2019-01-17T14:00:00Z,72.67,-77.97,-37.0,-41.0,190,6,,9.0,30.02067,1018.0,,TRUE,,,,,,,,FEW,6000,,,,,,,VFR,,,,,,,,,,,,METAR,57.0
CYEK 171400Z 35013KT 4SM IC DRSN OVC032 M30/M34 A2990 RMK SC8 SLP128,CYEK,2019-01-17T14:00:00Z,61.1,-94.07,-30.0,-34.0,350,13,,4.0,29.899607,1012.8,,,,,,,,,IC DRSN,OVC,3200,,,,,,,MVFR,,,,,,,,,,,,METAR,10.0
CYED 171400Z AUTO 07007KT 9SM +SN OVC096 M22/M23 A3024 RMK SLP305,CYED,2019-01-17T14:00:00Z,53.67,-113.47,-22.0,-23.0,70,7,,9.0,30.239174,1030.5,,TRUE,,,,,,,+SN,OVC,9600,,,,,,,VFR,,,,,,,,,,,,METAR,688.0
CYCY 171400Z AUTO 31011KT 9SM OVC044 M28/M30 A2998 RMK SLP158,CYCY,2019-01-17T14:00:00Z,70.47,-68.52,-28.0,-30.0,310,11,,9.0,29.97933,1015.8,,TRUE,,,,,,,,OVC,4400,,,,,,,VFR,,,,,,,,,,,,METAR,26.0
UAOO 171400Z 08004MPS CAVOK M00/M01 Q1014 R05/CLRD70 NOSIG RMK QFE749/0999,UAOO,2019-01-17T14:00:00Z,44.7,65.6,0.0,-1.0,80,8,,6.21,29.940945,,,,,,TRUE,,,,,CAVOK,,,,,,,,VFR,,,,,,,,,,,,METAR,129.0
UACK 171400Z 16007MPS 9999 DRSN NSC M11/M12 Q1021 R20/410245 NOSIG RMK QFE742/0990,UACK,2019-01-17T14:00:00Z,53.32,69.58,-11.0,-12.0,160,14,,6.21,30.147638,,,,,,TRUE,,,,DRSN,CLR,,,,,,,,VFR,,,,,,,,,,,,METAR,2547.0
UAKD 171400Z 09006MPS 9999 NSC M08/M09 Q1019 R04/390050 NOSIG RMK QFE731/0974,UAKD,2019-01-17T14:00:00Z,47.7,67.73,-8.0,-9.0,90,12,,6.21,30.088583,,,,,,TRUE,,,,,CLR,,,,,,,,VFR,,,,,,,,,,,,METAR,381.0
GMMZ 171400Z 25004KT CAVOK 13/M05 Q1015 NOSIG,GMMZ,2019-01-17T14:00:00Z,30.92,-6.9,13.0,-5.0,250,4,,6.21,29.970472,,,,,,TRUE,,,,,CAVOK,,,,,,,,VFR,,,,,,,,,,,,METAR,1140.0
FALA 171400Z VRB07KT 9999 SCT045 30/17 Q1016 NOSIG,FALA,2019-01-17T14:00:00Z,-25.92,27.92,30.0,17.0,0,7,,6.21,30.0,,,,,,TRUE,,,,,SCT,4500,,,,,,,VFR,,,,,,,,,,,,METAR,1377.0
FAPP 171400Z 18003KT 9999 SCT035 31/14 Q1014 NOSIG,FAPP,2019-01-17T14:00:00Z,-23.83,29.45,31.0,14.0,180,3,,6.21,29.940945,,,,,,TRUE,,,,,SCT,3500,,,,,,,VFR,,,,,,,,,,,,METAR,1242.0
FDMS 171400Z 15008KT 9999 SCT035 28/22 Q1012 NOSIG,FDMS,2019-01-17T14:00:00Z,-26.52,31.3,28.0,22.0,150,8,,6.21,29.88189,,,,,,TRUE,,,,,SCT,3500,,,,,,,VFR,,,,,,,,,,,,METAR,641.0
FAUT 171400Z 12014KT 9999 SCT025 26/20 Q1011,FAUT,2019-01-17T14:00:00Z,-31.52,28.67,26.0,20.0,120,14,,6.21,29.852362,,,,,,,,,,,SCT,2500,,,,,,,VFR,,,,,,,,,,,,METAR,732.0
UWOR 171400Z 18005MPS 9999 OVC004 M05/M06 Q1010 R25/990133 NOSIG RMK QBB140 QFE734/0979,UWOR,2019-01-17T14:00:00Z,51.07,58.6,-5.0,-6.0,180,10,,6.21,29.822834,,,,,,TRUE,,,,,OVC,400,,,,,,,LIFR,,,,,,,,,,,,SPECI,277.0
UWLW 171400Z 22004MPS 8000 BKN036 M11/M14 Q1012 R20/320146 NOSIG RMK QFE753,UWLW,2019-01-17T14:00:00Z,54.4,48.8,-11.0,-14.0,220,8,,4.97,29.88189,,,,,,TRUE,,,,,BKN,3600,,,,,,,MVFR,,,,,,,,,,,,METAR,66.0
ZWSH 171400Z 34003MPS 6000 NSC M05/M12 Q1023 NOSIG,ZWSH,2019-01-17T14:00:00Z,39.55,76.02,-5.0,-12.0,340,6,,3.73,30.206694,,,,,,TRUE,,,,,CLR,,,,,,,,MVFR,,,,,,,,,,,,METAR,1380.0
ZBSJ 171400Z 15001MPS CAVOK M02/M18 Q1025 NOSIG,ZBSJ,2019-01-17T14:00:00Z,38.28,114.7,-2.0,-18.0,150,2,,6.21,30.265747,,,,,,TRUE,,,,,CAVOK,,,,,,,,VFR,,,,,,,,,,,,METAR,71.0
FBSK 171400Z 05006KT 010V120 9999 SCT030 FEW035CB 35/13 Q1011 NOSIG,FBSK,2019-01-17T14:00:00Z,-24.55,25.92,35.0,13.0,50,6,,6.21,29.852362,,,,,,TRUE,,,,,SCT,3000,FEW,3500,,,,,VFR,,,,,,,,,,,,METAR,1005.0
FAUP 171400Z 26013KT CAVOK 40/M00 Q1009 NOSIG,FAUP,2019-01-17T14:00:00Z,-28.38,21.27,40.0,0.0,260,13,,6.21,29.793306,,,,,,TRUE,,,,,CAVOK,,,,,,,,VFR,,,,,,,,,,,,METAR,836.0
ORER 171400Z 13015KT 3500 RA BR SCT009 BKN030 05/04 Q1010 NOSIG,ORER,2019-01-17T14:00:00Z,36.23,43.97,5.0,4.0,130,15,,2.17,29.822834,,,,,,TRUE,,,,RA BR,SCT,900,BKN,3000,,,,,IFR,,,,,,,,,,,,METAR,409.0
SBCJ 171400Z 11006KT 9999 SCT017 27/21 Q1018,SBCJ,2019-01-17T14:00:00Z,-6.12,-50.0,27.0,21.0,110,6,,6.21,30.059055,,,,,,,,,,,SCT,1700,,,,,,,VFR,,,,,,,,,,,,METAR,621.0
SPJC 171400Z 18005KT 8000 OVC008 21/20 Q1014 NOSIG RMK PP000,SPJC,2019-01-17T14:00:00Z,-12.02,-77.12,21.0,20.0,180,5,,4.97,29.940945,,,,,,TRUE,,,,,OVC,800,,,,,,,IFR,,,,,,,,,,,,METAR,13.0
TNCM 171400Z 12009KT 080V160 9999 FEW019 BKN040 25/20 Q1020 NOSIG RMK A3013,TNCM,2019-01-17T14:00:00Z,18.05,-63.12,25.0,20.0,120,9,,6.21,30.11811,,,,,,TRUE,,,,,FEW,1900,BKN,4000,,,,,VFR,,,,,,,,,,,,METAR,4.0
FAEL 171400Z 06015G26KT 020V080 9999 SCT003 OVC014 24/22 Q1009,FAEL,2019-01-17T14:00:00Z,-33.02,27.82,24.0,22.0,60,15,26,6.21,29.793306,,,,,,,,,,,SCT,300,OVC,1400,,,,,MVFR,,,,,,,,,,,,METAR,125.0
FACT 171400Z 31018KT CAVOK 24/15 Q1009 NOSIG,FACT,2019-01-17T14:00:00Z,-33.97,18.6,24.0,15.0,310,18,,6.21,29.793306,,,,,,TRUE,,,,,CAVOK,,,,,,,,VFR,,,,,,,,,,,,METAR,42.0
SBCR 171400Z 02006KT CAVOK 34/23 Q1014,SBCR,2019-01-17T14:00:00Z,-19.0,-57.67,34.0,23.0,20,6,,6.21,29.940945,,,,,,,,,,,CAVOK,,,,,,,,VFR,,,,,,,,,,,,METAR,141.0
WAJJ 171400Z 28007KT 9999 FEW013 26/23 Q1007 NOSIG,WAJJ,2019-01-17T14:00:00Z,-2.58,140.52,26.0,23.0,280,7,,6.21,29.734253,,,,,,TRUE,,,,,FEW,1300,,,,,,,VFR,,,,,,,,,,,,METAR,88.0
FAOR 171400Z 34004KT 280V050 9999 FEW050TCU 27/15 Q1018 BECMG TS FEW045CB,FAOR,2019-01-17T14:00:00Z,-26.12,28.22,27.0,15.0,340,4,,6.21,30.059055,,,,,,,,,,,FEW,5000,,,,,,,VFR,,,,,,,,,,,,METAR,1700.0
FALE 171400Z 04011KT 9999 FEW010 26/22 Q1009 NOSIG,FALE,2019-01-17T14:00:00Z,-29.62,31.12,26.0,22.0,40,11,,6.21,29.793306,,,,,,TRUE,,,,,FEW,1000,,,,,,,VFR,,,,,,,,,,,,METAR,109.0
FAKN 171400Z 17009KT 9999 SCT025 29/18 Q1014 NOSIG,FAKN,2019-01-17T14:00:00Z,-25.38,31.1,29.0,18.0,170,9,,6.21,29.940945,,,,,,TRUE,,,,,SCT,2500,,,,,,,VFR,,,,,,,,,,,,METAR,862.0
FAKM 171400Z 23014KT CAVOK 40/M01 Q1010,FAKM,2019-01-17T14:00:00Z,-28.8,24.77,40.0,-1.0,230,14,,6.21,29.822834,,,,,,,,,,,CAVOK,,,,,,,,VFR,,,,,,,,,,,,METAR,1192.0
FAHS 171400Z AUTO 17012KT //// // ////// 33/19 Q1009,FAHS,2019-01-17T14:00:00Z,-24.37,31.02,33.0,19.0,170,12,,,29.793306,,,TRUE,,,,,,,,,,,,,,,,,,,,,,,,,,,,METAR,500.0
FAGG 171400Z VRB03KT 9999 FEW035 28/19 Q1007,FAGG,2019-01-17T14:00:00Z,-34.0,22.37,28.0,19.0,0,3,,6.21,29.734253,,,,,,,,,,,FEW,3500,,,,,,,VFR,,,,,,,,,,,,METAR,193.0
CYZF 171400Z 01008KT 15SM FEW120 M34/M37 A3047 RMK AC1 AC TR SLP359,CYZF,2019-01-17T14:00:00Z,62.47,-114.45,-34.0,-37.0,10,8,,15.0,30.469488,1035.9,,,,,,,,,,FEW,12000,,,,,,,VFR,,,,,,,,,,,,METAR,206.0
CYQZ 171400Z AUTO 34009KT 9SM OVC015 M08/M10 A2975 RMK SLP115,CYQZ,2019-01-17T14:00:00Z,53.02,-122.52,-8.0,-10.0,340,9,,9.0,29.749016,1011.5,,TRUE,,,,,,,,OVC,1500,,,,,,,MVFR,,,,,,,,,,,,METAR,545.0
CYQD 171400Z AUTO 27011KT 9SM CLR M28/M31 A3024 RMK SLP277,CYQD,2019-01-17T14:00:00Z,53.97,-101.08,-28.0,-31.0,270,11,,9.0,30.239174,1027.7,,TRUE,,,,,,,,CLR,,,,,,,,VFR,,,,,,,,,,,,METAR,271.0
CYPR 171400Z AUTO 32003KT 9SM FEW160 SCT180 01/M03 A2943 RMK SLP969,CYPR,2019-01-17T14:00:00Z,54.28,-130.42,1.0,-3.0,320,3,,9.0,29.430119,996.9,,TRUE,,,,,,,,FEW,16000,SCT,18000,,,,,VFR,,,,,,,,,,,,METAR,34.0
CYKY 171400Z 03006KT 340V060 10SM -SN OVC063 M17/M20 A3020 RMK SC8 SLP290,CYKY,2019-01-17T14:00:00Z,51.52,-109.17,-17.0,-20.0,30,6,,10.0,30.200787,1029.0,,,,,,,,,-SN,OVC,6300,,,,,,,VFR,,,,,,,,,,,,METAR,694.0
CYWG 171400Z 33005KT 6SM -SN OVC063 M19/M22 A3020 RMK SC8 SLP255,CYWG,2019-01-17T14:00:00Z,49.88,-97.22,-19.0,-22.0,330,5,,6.0,30.200787,1025.5,,,,,,,,,-SN,OVC,6300,,,,,,,VFR,,,,,,,,,,,,METAR,239.0
CYVR 171400Z 02008KT 15SM -RA FEW026 OVC049 05/04 A2951 RMK SC2SC6 SLP994,CYVR,2019-01-17T14:00:00Z,49.17,-123.17,5.0,4.0,20,8,,15.0,29.509842,999.4,,,,,,,,,-RA,FEW,2600,OVC,4900,,,,,VFR,,,,,,,,,,,,METAR,2.0
SUMU 171400Z 15016KT 9999 SCT016 BKN200 21/14 Q1019 NOSIG,SUMU,2019-01-17T14:00:00Z,-34.82,-56.0,21.0,14.0,150,16,,6.21,30.088583,,,,,,TRUE,,,,,SCT,1600,BKN,20000,,,,,VFR,,,,,,,,,,,,METAR,32.0
LFVP 171400Z 27017KT 9999 BKN020 BKN046 00/00 Q1010 NOSIG,LFVP,2019-01-17T14:00:00Z,46.77,-56.18,0.0,0.0,270,17,,6.21,29.822834,,,,,,TRUE,,,,,BKN,2000,BKN,4600,,,,,MVFR,,,,,,,,,,,,METAR,8.0
SVBM 171400Z 11003KT 9999 BKN016 25/19 Q1019,SVBM,2019-01-17T14:00:00Z,10.05,-69.37,25.0,19.0,110,3,,6.21,30.088583,,,,,,,,,,,BKN,1600,,,,,,,MVFR,,,,,,,,,,,,METAR,614.0
BIIS 171400Z VRB02KT CAVOK M03/M08 Q1009,BIIS,2019-01-17T14:00:00Z,66.05,-23.13,-3.0,-8.0,0,2,,6.21,29.793306,,,,,,,,,,,CAVOK,,,,,,,,VFR,,,,,,,,,,,,METAR,3.0
FNSU 171400Z 20009KT 9999 FEW014 BKN060 29/// Q1012,FNSU,2019-01-17T14:00:00Z,-11.17,13.85,,,200,9,,6.21,29.88189,,,,,,,,,,,FEW,1400,BKN,6000,,,,,VFR,,,,,,,,,,,,METAR,11.0
FNMA 171400Z 26006KT 9999 FEW017 FEW020CB BKN100 27/24 Q1013,FNMA,2019-01-17T14:00:00Z,-9.55,16.32,27.0,24.0,260,6,,6.21,29.911417,,,,,,,,,,,FEW,1700,FEW,2000,BKN,10000,,,VFR,,,,,,,,,,,,METAR,1173.0
FNUB 171400Z 05011KT 9999 FEW018 SCT040 26/07 Q1020,FNUB,2019-01-17T14:00:00Z,-14.93,13.57,26.0,7.0,50,11,,6.21,30.11811,,,,,,,,,,,FEW,1800,SCT,4000,,,,,VFR,,,,,,,,,,,,METAR,1761.0
FNGI 171400Z 14004KT 9999 FEW010 SCT020 33/14 Q1012,FNGI,2019-01-17T14:00:00Z,-17.05,15.68,33.0,14.0,140,4,,6.21,29.88189,,,,,,,,,,,FEW,1000,SCT,2000,,,,,VFR,,,,,,,,,,,,METAR,1087.0
CXRL 171400Z AUTO 09001KT M31/M33 RMK AO1 T13081328,CXRL,2019-01-17T14:00:00Z,54.5,-111.7,-30.8,-32.8,90,1,,,,,,TRUE,TRUE,,,,,,,,,,,,,,,,,,,,,,,,,,,METAR,585.0
CYMA 171400Z 02004KT 6SM -SN OVC041 M06/M08 A2984 RMK SC8 SLP148,CYMA,2019-01-17T14:00:00Z,63.62,-135.87,-6.0,-8.0,20,4,,6.0,29.840551,1014.8,,,,,,,,,-SN,OVC,4100,,,,,,,VFR,,,,,,,,,,,,METAR,504.0
CYLW 171400Z AUTO 00000KT 9SM OVC070 M02/M03 A2971 RMK SLP083,CYLW,2019-01-17T14:00:00Z,49.95,-119.37,-2.0,-3.0,0,0,,9.0,29.71063,1008.3,,TRUE,,,,,,,,OVC,7000,,,,,,,VFR,,,,,,,,,,,,METAR,430.0
CYKA 171400Z 12006KT 20SM FEW017 OVC060 M03/M06 A2972 RMK SC1SC7 SLP083,CYKA,2019-01-17T14:00:00Z,50.7,-120.45,-3.0,-6.0,120,6,,20.0,29.719488,1008.3,,,,,,,,,,FEW,1700,OVC,6000,,,,,VFR,,,,,,,,,,,,METAR,346.0
CYIN 171400Z AUTO 11004KT 9SM OVC027 M06/M07 A2956 RMK SLP063,CYIN,2019-01-17T14:00:00Z,51.27,-121.68,-6.0,-7.0,110,4,,9.0,29.56004,1006.3,,TRUE,,,,,,,,OVC,2700,,,,,,,MVFR,,,,,,,,,,,,METAR,1128.0
CYDL 171400Z AUTO 06004KT 9SM CLR M24/M27 A2984 RMK SLP171,CYDL,2019-01-17T14:00:00Z,58.42,-130.02,-24.0,-27.0,60,4,,9.0,29.840551,1017.1,,TRUE,,,,,,,,CLR,,,,,,,,VFR,,,,,,,,,,,,METAR,816.0
CYCG 171400Z 32010KT 15SM BKN020 M02/M05 A2978 RMK SC7 SLP105,CYCG,2019-01-17T14:00:00Z,49.28,-117.62,-2.0,-5.0,320,10,,15.0,29.778543,1010.5,,,,,,,,,,BKN,2000,,,,,,,MVFR,,,,,,,,,,,,METAR,495.0
CYCD 171400Z 24003KT 190V250 10SM -RA VCFG OVC040 03/02 A2952 RMK SC8 CIG RAG SLP998,CYCD,2019-01-17T14:00:00Z,49.05,-123.87,3.0,2.0,240,3,,10.0,29.518702,999.8,,,,,,,,,-RA VCFG,OVC,4000,,,,,,,VFR,,,,,,,,,,,,METAR,30.0
CWVT 171400Z AUTO 30007KT M28/M32 RMK AO1 SOG 33 8006 SLP349 T12841318,CWVT,2019-01-17T14:00:00Z,55.82,-108.42,-28.4,-31.8,300,7,,,,1034.9,,TRUE,TRUE,,,,,,,,,,,,,,,,,,,,,,,,,,,METAR,434.0
UBBY 171400Z 32006KT 6000 -RA OVC018 03/02 Q1012 R33/290060 NOSIG RMK MT OBSC,UBBY,2019-01-17T14:00:00Z,41.57,46.67,3.0,2.0,320,6,,3.73,29.88189,,,,,,TRUE,,,,-RA,OVC,1800,,,,,,,MVFR,,,,,,,,,,,,METAR,390.0
SBGL 171400Z 05005KT 9999 FEW025 34/21 Q1013,SBGL,2019-01-17T14:00:00Z,-22.82,-43.25,34.0,21.0,50,5,,6.21,29.911417,,,,,,,,,,,FEW,2500,,,,,,,VFR,,,,,,,,,,,,METAR,6.0
CYVL 171400Z AUTO 09006KT 9SM CLR M22/M26 A3034 RMK SLP314,CYVL,2019-01-17T14:00:00Z,67.02,-126.13,-22.0,-26.0,90,6,,9.0,30.339567,1031.4,,TRUE,,,,,,,,CLR,,,,,,,,VFR,,,,,,,,,,,,METAR,259.0
TQPF 171400Z 13011KT 9999 FEW018 SCT038 26/18 Q1020,TQPF,2019-01-17T14:00:00Z,18.18,-63.03,26.0,18.0,130,11,,6.21,30.11811,,,,,,,,,,,FEW,1800,SCT,3800,,,,,VFR,,,,,,,,,,,,METAR,31.0
CBBC 171400Z AUTO 15007KT 9SM OVC085 06/M03 A2941 RMK SLP961,CBBC,2019-01-17T14:00:00Z,52.18,-128.15,6.0,-3.0,150,7,,9.0,29.409449,996.1,,TRUE,,,,,,,,OVC,8500,,,,,,,VFR,,,,,,,,,,,,METAR,43.0
CYZT 171400Z 11014G21KT 15SM OVC063 07/04 A2937 RMK SC8 SLP946,CYZT,2019-01-17T14:00:00Z,50.67,-127.37,7.0,4.0,110,14,21,15.0,29.371063,994.6,,,,,,,,,,OVC,6300,,,,,,,VFR,,,,,,,,,,,,METAR,22.0
CYQH 171400Z 16004KT 8SM -SN OVC027 M20/M23 A3004 RMK SC8 SLP242,CYQH,2019-01-17T14:00:00Z,60.12,-128.82,-20.0,-23.0,160,4,,8.0,30.041338,1024.2,,,,,,,,,-SN,OVC,2700,,,,,,,MVFR,,,,,,,,,,,,METAR,690.0
CYOC 171400Z 00000KT 7SM -SN OVC016 M26/M29 A3009 RMK ST8 VIS N 2 1/2 CLIMAT -21.9/-30.0/TR CM/TR MWE/47053 SLP231,CYOC,2019-01-17T14:00:00Z,67.57,-139.82,-26.0,-29.0,0,0,,7.0,30.088583,1023.1,,,,,,,,,-SN,OVC,1600,,,,,,,MVFR,,,,,,,,,,,,METAR,251.0
CYZP 171400Z AUTO 34011KT 9SM BKN110 BKN130 05/02 A2942 RMK SLP965,CYZP,2019-01-17T14:00:00Z,53.25,-131.82,5.0,2.0,340,11,,9.0,29.421259,996.5,,TRUE,,,,,,,,BKN,11000,BKN,13000,,,,,VFR,,,,,,,,,,,,METAR,6.0
CYXS 171400Z AUTO 35012KT 9SM OVC048 M11/M12 A2974 RMK SLP120,CYXS,2019-01-17T14:00:00Z,53.9,-122.68,-11.0,-12.0,350,12,,9.0,29.740158,1012.0,,TRUE,,,,,,,,OVC,4800,,,,,,,VFR,,,,,,,,,,,,METAR,691.0
CYXE 171400Z 01007KT 15SM SCT250 M23/M25 A3032 RMK CI4 SLP324,CYXE,2019-01-17T14:00:00Z,52.17,-106.7,-23.0,-25.0,10,7,,15.0,30.318897,1032.4,,,,,,,,,,SCT,25000,,,,,,,VFR,,,,,,,,,,,,METAR,504.0
CYXC 171400Z 36003KT 25SM -SN OVC048 M08/M11 A2985 RMK SC8 SLP162,CYXC,2019-01-17T14:00:00Z,49.6,-115.77,-8.0,-11.0,360,3,,25.0,29.84941,1016.2,,,,,,,,,-SN,OVC,4800,,,,,,,VFR,,,,,,,,,,,,METAR,939.0
CWRX 171400Z AUTO 08018KT ////SM //// SCT190 BKN210 M32/M35 A2994,CWRX,2019-01-17T14:00:00Z,69.07,-79.02,-32.0,-35.0,80,18,,,29.940945,,,TRUE,,,,,,,,SCT,19000,BKN,21000,,,,,,,,,,,,,,,,,METAR,41.0
SKPE 171400Z 22003KT 7000 SCT015 SCT070 23/19 A3013 RMK HZ,SKPE,2019-01-17T14:00:00Z,4.82,-75.73,23.0,19.0,220,3,,4.35,30.129921,,,,,,,,,,,SCT,1500,SCT,7000,,,,,MVFR,,,,,,,,,,,,METAR,1346.0
SKBG 171400Z VRB02KT 8000 VCFG BKN008 22/21 A3009,SKBG,2019-01-17T14:00:00Z,7.13,-73.18,22.0,21.0,0,2,,4.97,30.088583,,,,,,,,,,VCFG,BKN,800,,,,,,,IFR,,,,,,,,,,,,METAR,1189.0
SKSP 171400Z 08006KT 030V120 9999 FEW017 28/22 A3004,SKSP,2019-01-17T14:00:00Z,12.57,-81.72,28.0,22.0,80,6,,6.21,30.041338,,,,,,,,,,,FEW,1700,,,,,,,VFR,,,,,,,,,,,,METAR,-2.0
SKRG 171400Z 19004KT 4000 DZ BKN006 SCT070 14/14 A3036,SKRG,2019-01-17T14:00:00Z,6.17,-75.42,14.0,14.0,190,4,,2.49,30.360237,,,,,,,,,,DZ,BKN,600,SCT,7000,,,,,IFR,,,,,,,,,,,,METAR,2137.0
SKLT 171400Z 00000KT 5000 -RA SCT007 OVC080 22/22 A3004,SKLT,2019-01-17T14:00:00Z,-4.2,-69.93,22.0,22.0,0,0,,3.11,30.041338,,,,,,,,,,-RA,SCT,700,OVC,8000,,,,,MVFR,,,,,,,,,,,,METAR,84.0
SKCC 171400Z 35004KT 310V020 7000 VCFG SCT015 SCT090 24/23 A3007,SKCC,2019-01-17T14:00:00Z,7.92,-72.52,24.0,23.0,350,4,,4.35,30.070866,,,,,,,,,,VCFG,SCT,1500,SCT,9000,,,,,MVFR,,,,,,,,,,,,METAR,317.0
FQIN 171400Z 14010KT 8000 DZ SCT010 BKN020 BKN025 26/26 Q1004,FQIN,2019-01-17T14:00:00Z,-23.87,35.37,26.0,26.0,140,10,,4.97,29.64567,,,,,,,,,,DZ,SCT,1000,BKN,2000,BKN,2500,,,MVFR,,,,,,,,,,,,METAR,15.0
OEKJ 171400Z 01019KT 2000 BLDU NSC 19/M04 Q1020,OEKJ,2019-01-17T14:00:00Z,24.07,47.58,19.0,-4.0,10,19,,1.24,30.11811,,,,,,,,,,BLDU,CLR,,,,,,,,IFR,,,,,,,,,,,,METAR,503.0
HTDA 171400Z 03009KT 9999 SCT020 31/26 Q1007 NOSIG,HTDA,2019-01-17T14:00:00Z,-6.88,39.2,31.0,26.0,30,9,,6.21,29.734253,,,,,,TRUE,,,,,SCT,2000,,,,,,,VFR,,,,,,,,,,,,METAR,55.0
HTMW 171400Z 32011KT 9999 FEW025 FEW026CB 26/17 Q1013 NOSIG,HTMW,2019-01-17T14:00:00Z,-2.47,32.92,26.0,17.0,320,11,,6.21,29.911417,,,,,,TRUE,,,,,FEW,2500,FEW,2600,,,,,VFR,,,,,,,,,,,,METAR,1140.0
HTZA 171400Z 07011KT 9999 SCT022 32/25 Q1007 NOSIG,HTZA,2019-01-17T14:00:00Z,-6.22,39.22,32.0,25.0,70,11,,6.21,29.734253,,,,,,TRUE,,,,,SCT,2200,,,,,,,VFR,,,,,,,,,,,,METAR,15.0
CYBQ 171400Z AUTO 30009G15KT 9SM CLR M34/M38 A2995 RMK SLP192,CYBQ,2019-01-17T14:00:00Z,58.7,-98.5,-34.0,-38.0,300,9,15,9.0,29.949802,1019.2,,TRUE,,,,,,,,CLR,,,,,,,,VFR,,,,,,,,,,,,METAR,262.0
CYBU 171400Z AUTO 28007KT 9SM CLR M26/M29 A3029 RMK SLP304,CYBU,2019-01-17T14:00:00Z,53.32,-104.0,-26.0,-29.0,280,7,,9.0,30.28937,1030.4,,TRUE,,,,,,,,CLR,,,,,,,,VFR,,,,,,,,,,,,METAR,374.0
CYDN 171400Z AUTO 26005KT 9SM CLR M21/M23 A3022 RMK SLP270,CYDN,2019-01-17T14:00:00Z,51.1,-100.03,-21.0,-23.0,260,5,,9.0,30.221457,1027.0,,TRUE,,,,,,,,CLR,,,,,,,,VFR,,,,,,,,,,,,METAR,305.0
CYEN 171400Z AUTO 35011KT 9SM -SN FEW034 OVC085 M15/M17 A3012 RMK SLP252,CYEN,2019-01-17T14:00:00Z,49.22,-102.97,-15.0,-17.0,350,11,,9.0,30.121063,1025.2,,TRUE,,,,,,,-SN,FEW,3400,OVC,8500,,,,,VFR,,,,,,,,,,,,METAR,581.0
CYGX 171400Z 28009KT 15SM SKC M35/M38 A2998 RMK SLP180,CYGX,2019-01-17T14:00:00Z,56.35,-94.7,-35.0,-38.0,280,9,,15.0,29.97933,1018.0,,,,,,,,,,SKC,,,,,,,,VFR,,,,,,,,,,,,METAR,145.0
CYKJ 171400Z AUTO 30005KT 9SM CLR M33/M37 A3017 RMK SLP292,CYKJ,2019-01-17T14:00:00Z,57.25,-105.62,-33.0,-37.0,300,5,,9.0,30.171259,1029.2,,TRUE,,,,,,,,CLR,,,,,,,,VFR,,,,,,,,,,,,METAR,509.0
CYLL 171400Z 05006KT 15SM SKC M25/M27 A3026 RMK S01 AFT 00 UTC SLP322,CYLL,2019-01-17T14:00:00Z,53.32,-110.07,-25.0,-27.0,50,6,,15.0,30.259842,1032.2,,,,,,,,,,SKC,,,,,,,,VFR,,,,,,,,,,,,METAR,669.0
CYNE 171400Z AUTO 30005KT 9SM CLR M30/M34 A3014 RMK SLP244,CYNE,2019-01-17T14:00:00Z,53.97,-97.82,-30.0,-34.0,300,5,,9.0,30.138779,1024.4,,TRUE,,,,,,,,CLR,,,,,,,,VFR,,,,,,,,,,,,METAR,223.0
CYPG 171400Z 33008KT 6SM -SN SCT043 OVC070 M18/M21 A3021 RMK SC4AC4 SLP261,CYPG,2019-01-17T14:00:00Z,49.88,-98.27,-18.0,-21.0,330,8,,6.0,30.209646,1026.1,,,,,,,,,-SN,SCT,4300,OVC,7000,,,,,VFR,,,,,,,,,,,,METAR,269.0
CYPA 171400Z 27006KT 15SM SKC M27/M30 A3033 RMK FROIN SLP325,CYPA,2019-01-17T14:00:00Z,53.22,-105.67,-27.0,-30.0,270,6,,15.0,30.33071,1032.5,,,,,,,,,,SKC,,,,,,,,VFR,,,,,,,,,,,,METAR,428.0
CYQL 171400Z 03008KT 10SM -SN OVC006 M11/M12 A3005 RMK SC8 SLP236,CYQL,2019-01-17T14:00:00Z,49.63,-112.8,-11.0,-12.0,30,8,,10.0,30.050198,1023.6,,,,,,,,,-SN,OVC,600,,,,,,,IFR,,,,,,,,,,,,METAR,929.0
CYQF 171400Z 07007KT 3SM -SN OVC013 M16/M18 A3010 RMK SC8 SLP266,CYQF,2019-01-17T14:00:00Z,52.17,-113.9,-16.0,-18.0,70,7,,3.0,30.100393,1026.6,,,,,,,,,-SN,OVC,1300,,,,,,,MVFR,,,,,,,,,,,,METAR,905.0
CYPY 171400Z AUTO 25003KT 9SM CLR M36/M40 A3049 RMK SLP368,CYPY,2019-01-17T14:00:00Z,58.77,-111.12,-36.0,-40.0,250,3,,9.0,30.490158,1036.8,,TRUE,,,,,,,,CLR,,,,,,,,VFR,,,,,,,,,,,,METAR,232.0
CYRV 171400Z AUTO 00000KT 9SM OVC080 M05/M07 A2982 RMK SLP126,CYRV,2019-01-17T14:00:00Z,50.97,-118.17,-5.0,-7.0,0,0,,9.0,29.819881,1012.6,,TRUE,,,,,,,,OVC,8000,,,,,,,VFR,,,,,,,,,,,,METAR,443.0
ZGKL 171400Z 05004MPS 9000 FEW026 BKN043 09/04 Q1026 NOSIG,ZGKL,2019-01-17T14:00:00Z,25.22,110.03,9.0,4.0,50,8,,5.59,30.295275,,,,,,TRUE,,,,,FEW,2600,BKN,4300,,,,,VFR,,,,,,,,,,,,METAR,166.0
SKCL 171400Z 23004KT 210V350 8000 FEW023 SCT200 24/18 A3006 RMK HZ,SKCL,2019-01-17T14:00:00Z,3.53,-76.37,24.0,18.0,230,4,,4.97,30.059055,,,,,,,,,,,FEW,2300,SCT,20000,,,,,MVFR,,,,,,,,,,,,METAR,969.0
SKBO 171400Z 08004KT 9999 FEW023 15/08 A3042,SKBO,2019-01-17T14:00:00Z,4.7,-74.12,15.0,8.0,80,4,,6.21,30.41929,,,,,,,,,,,FEW,2300,,,,,,,VFR,,,,,,,,,,,,METAR,2548.0
SKBQ 171400Z 01009KT CAVOK 28/22 A2993,SKBQ,2019-01-17T14:00:00Z,10.9,-74.77,28.0,22.0,10,9,,6.21,29.929134,,,,,,,,,,,CAVOK,,,,,,,,VFR,,,,,,,,,,,,METAR,10.0
SBNF 171400Z 30005KT 9999 FEW025TCU 34/25 Q1013,SBNF,2019-01-17T14:00:00Z,-26.88,-48.65,34.0,25.0,300,5,,6.21,29.911417,,,,,,,,,,,FEW,2500,,,,,,,VFR,,,,,,,,,,,,METAR,5.0
FIMP 171400Z 04011KT 9999 FEW016 SCT250 29/24 Q1014,FIMP,2019-01-17T14:00:00Z,-20.42,57.67,29.0,24.0,40,11,,6.21,29.940945,,,,,,,,,,,FEW,1600,SCT,25000,,,,,VFR,,,,,,,,,,,,METAR,57.0
OINE 171400Z 22012KT 5000 -RA BR BKN030 OVC100 11/09 Q1002,OINE,2019-01-17T14:00:00Z,37.38,55.45,11.0,9.0,220,12,,3.11,29.586615,,,,,,,,,,-RA BR,BKN,3000,OVC,10000,,,,,MVFR,,,,,,,,,,,,METAR,130.0
ZLXY 171400Z 27003MPS 6000 NSC M05/M11 Q1023 NOSIG,ZLXY,2019-01-17T14:00:00Z,34.43,108.75,-5.0,-11.0,270,6,,3.73,30.206694,,,,,,TRUE,,,,,CLR,,,,,,,,MVFR,,,,,,,,,,,,METAR,479.0
ZGSZ 171400Z 04004MPS CAVOK 16/09 Q1023 NOSIG,ZGSZ,2019-01-17T14:00:00Z,22.63,113.8,16.0,9.0,40,8,,6.21,30.206694,,,,,,TRUE,,,,,CAVOK,,,,,,,,VFR,,,,,,,,,,,,METAR,18.0
ZPPP 171400Z 21005MPS CAVOK 07/04 Q1023 NOSIG,ZPPP,2019-01-17T14:00:00Z,25.0,102.75,7.0,4.0,210,10,,6.21,30.206694,,,,,,TRUE,,,,,CAVOK,,,,,,,,VFR,,,,,,,,,,,,METAR,1892.0
SBKP 171400Z VRB03KT CAVOK ///// Q1019,SBKP,2019-01-17T14:00:00Z,-23.0,-47.12,,,0,3,,6.21,30.088583,,,,,,,,,,,CAVOK,,,,,,,,VFR,,,,,,,,,,,,METAR,661.0
ZSAM 171400Z 06006MPS 9000 BKN040 13/08 Q1026 NOSIG,ZSAM,2019-01-17T14:00:00Z,24.53,118.13,13.0,8.0,60,12,,5.59,30.295275,,,,,,TRUE,,,,,BKN,4000,,,,,,,VFR,,,,,,,,,,,,METAR,18.0
ZSFZ 171400Z 03006MPS 9999 BKN040 11/03 Q1028 NOSIG,ZSFZ,2019-01-17T14:00:00Z,25.93,119.67,11.0,3.0,30,12,,6.21,30.35433,,,,,,TRUE,,,,,BKN,4000,,,,,,,VFR,,,,,,,,,,,,METAR,85.0
CYQW 171400Z AUTO VRB02KT 9SM CLR M25/M29 A3033 RMK SLP331,CYQW,2019-01-17T14:00:00Z,52.77,-108.25,-25.0,-29.0,0,2,,9.0,30.33071,1033.1,,TRUE,,,,,,,,CLR,,,,,,,,VFR,,,,,,,,,,,,METAR,548.0
ORSU 171400Z 12010KT 3500 -RABR SCT012 OVC020 04/04 Q1011,ORSU,2019-01-17T14:00:00Z,35.57,45.32,4.0,4.0,120,10,,2.17,29.852362,,,,,,,,,,-RA BR,SCT,1200,OVC,2000,,,,,IFR,,,,,,,,,,,,METAR,761.0
SBBR 171400Z 08008KT 9999 FEW020 BKN100 26/19 Q1022,SBBR,2019-01-17T14:00:00Z,-15.87,-47.92,26.0,19.0,80,8,,6.21,30.177166,,,,,,,,,,,FEW,2000,BKN,10000,,,,,VFR,,,,,,,,,,,,METAR,1061.0
CYVC 171400Z 27008KT 15SM SKC M29/M32 A3031 RMK SLP314,CYVC,2019-01-17T14:00:00Z,55.15,-105.27,-29.0,-32.0,270,8,,15.0,30.31004,1031.4,,,,,,,,,,SKC,,,,,,,,VFR,,,,,,,,,,,,METAR,379.0
UTNU 171400Z 06006KT 7000 NSC 10/05 Q1003 R31/CLRD70 NOSIG,UTNU,2019-01-17T14:00:00Z,41.58,60.63,10.0,5.0,60,6,,4.35,29.616142,,,,,,TRUE,,,,,CLR,,,,,,,,MVFR,,,,,,,,,,,,SPECI,98.0
UTNN 171400Z VRB02KT CAVOK 07/04 Q1004 R33/CLRD60 NOSIG,UTNN,2019-01-17T14:00:00Z,42.48,59.63,7.0,4.0,0,2,,6.21,29.64567,,,,,,TRUE,,,,,CAVOK,,,,,,,,VFR,,,,,,,,,,,,SPECI,67.0
UTFN 171400Z 00000KT 3200 BR NSC 02/M01 Q1019 R28/CLRD70 NOSIG,UTFN,2019-01-17T14:00:00Z,40.98,71.57,2.0,-1.0,0,0,,1.99,30.088583,,,,,,TRUE,,,,BR,CLR,,,,,,,,IFR,,,,,,,,,,,,METAR,490.0
SBGO 171400Z 12009KT 9999 FEW035 29/21 Q1020,SBGO,2019-01-17T14:00:00Z,-16.62,-49.22,29.0,21.0,120,9,,6.21,30.11811,,,,,,,,,,,FEW,3500,,,,,,,VFR,,,,,,,,,,,,METAR,747.0
ZSNB 171400Z 26001MPS 6000 NSC 03/00 Q1031 NOSIG,ZSNB,2019-01-17T14:00:00Z,29.83,121.47,3.0,0.0,260,2,,3.73,30.442913,,,,,,TRUE,,,,,CLR,,,,,,,,MVFR,,,,,,,,,,,,METAR,4.0
TVSM 171400Z 11012KT 9999 SCT016 28/22 Q1018 ,TVSM,2019-01-17T14:00:00Z,12.88,-61.18,28.0,22.0,110,12,,6.21,30.059055,,,,,,,,,,,SCT,1600,,,,,,,VFR,,,,,,,,,,,,METAR,2.0
UHSS 171400Z 06001MPS 9999 FEW040CB M23/M26 Q0994 R01/420355 NOSIG RMK QFE744/0992,UHSS,2019-01-17T14:00:00Z,46.88,142.72,-23.0,-26.0,60,2,,6.21,29.350393,,,,,,TRUE,,,,,FEW,4000,,,,,,,VFR,,,,,,,,,,,,METAR,31.0
UHMM 171400Z 04005G10MPS 360V070 9999 NSC M17/M27 Q1004 RMK QFE738,UHMM,2019-01-17T14:00:00Z,59.92,150.72,-17.0,-27.0,40,10,19,6.21,29.64567,,,,,,,,,,,CLR,,,,,,,,VFR,,,,,,,,,,,,METAR,175.0
UHMA 171400Z 36009MPS 9999 DRSN NSC M22/M25 Q1010 R01/////// NOSIG RMK END R01/01010MPS QFE753/1005,UHMA,2019-01-17T14:00:00Z,64.73,177.73,-22.0,-25.0,360,17,,6.21,29.822834,,,,,,TRUE,,,,DRSN,CLR,,,,,,,,VFR,,,,,,,,,,,,METAR,62.0
ZUGY 171400Z 16002MPS 8000 BKN023 OVC033 06/02 Q1021 NOSIG,ZUGY,2019-01-17T14:00:00Z,26.53,106.8,6.0,2.0,160,4,,4.97,30.147638,,,,,,TRUE,,,,,BKN,2300,OVC,3300,,,,,MVFR,,,,,,,,,,,,METAR,1074.0
SBRB 171400Z 35008KT 9999 SCT013 BKN100 25/22 Q1018,SBRB,2019-01-17T14:00:00Z,-10.0,-67.78,25.0,22.0,350,8,,6.21,30.059055,,,,,,,,,,,SCT,1300,BKN,10000,,,,,VFR,,,,,,,,,,,,METAR,143.0
SPRU 171400Z 15009KT 9000 FEW014 22/19 Q1014 RMK BR PP000,SPRU,2019-01-17T14:00:00Z,-8.08,-79.12,22.0,19.0,150,9,,5.59,29.940945,,,,,,,,,,,FEW,1400,,,,,,,VFR,,,,,,,,,,,,METAR,30.0
SPQU 171400Z VRB04KT 9999 FEW090 BKN230 20/08 Q1027 NOSIG RMK PP000,SPQU,2019-01-17T14:00:00Z,-16.33,-71.57,20.0,8.0,0,4,,6.21,30.324802,,,,,,TRUE,,,,,FEW,9000,BKN,23000,,,,,VFR,,,,,,,,,,,,METAR,2554.0
FNLU 171400Z 26011KT 9999 FEW020 FEW023CB SCT080 29/24 Q1009,FNLU,2019-01-17T14:00:00Z,-8.83,13.22,29.0,24.0,260,11,,6.21,29.793306,,,,,,,,,,,FEW,2000,FEW,2300,SCT,8000,,,VFR,,,,,,,,,,,,METAR,70.0
SPTN 171400Z VRB03KT CAVOK 22/12 Q1016 RMK FEW200 BKN250 PP000,SPTN,2019-01-17T14:00:00Z,-18.07,-70.28,22.0,12.0,0,3,,6.21,30.0,,,,,,,,,,,CAVOK,,,,,,,,VFR,,,,,,,,,,,,METAR,458.0
HEMA 171400Z 36011KT 5000 SA BKN020 17/07 Q1021 NOSIG,HEMA,2019-01-17T14:00:00Z,25.55,34.58,17.0,7.0,360,11,,3.11,30.147638,,,,,,TRUE,,,,SA,BKN,2000,,,,,,,MVFR,,,,,,,,,,,,METAR,77.0
HESG 171400Z 30012KT CAVOK 16/M01 Q1020 NOSIG,HESG,2019-01-17T14:00:00Z,26.33,31.75,16.0,-1.0,300,12,,6.21,30.11811,,,,,,TRUE,,,,,CAVOK,,,,,,,,VFR,,,,,,,,,,,,METAR,70.0
HESC 171400Z 27005KT CAVOK 08/M06 Q1022 NOSIG,HESC,2019-01-17T14:00:00Z,28.68,34.07,8.0,-6.0,270,5,,6.21,30.177166,,,,,,TRUE,,,,,CAVOK,,,,,,,,VFR,,,,,,,,,,,,METAR,1332.0
HEBL 171400Z 03012KT 4000 SA NSC 17/M03 Q1019 NOSIG,HEBL,2019-01-17T14:00:00Z,22.38,31.62,17.0,-3.0,30,12,,2.49,30.088583,,,,,,TRUE,,,,SA,CLR,,,,,,,,IFR,,,,,,,,,,,,METAR,188.0
HEBA 171400Z 30010KT 9999 SCT020 15/07 Q1023 NOSIG,HEBA,2019-01-17T14:00:00Z,30.92,29.7,15.0,7.0,300,10,,6.21,30.206694,,,,,,TRUE,,,,,SCT,2000,,,,,,,VFR,,,,,,,,,,,,METAR,54.0
HEAT 171400Z 36013KT CAVOK 14/04 Q1024 NOSIG,HEAT,2019-01-17T14:00:00Z,27.05,31.02,14.0,4.0,360,13,,6.21,30.236221,,,,,,TRUE,,,,,CAVOK,,,,,,,,VFR,,,,,,,,,,,,METAR,70.0
HESH 171400Z 02003KT CAVOK 17/06 Q1021 NOSIG,HESH,2019-01-17T14:00:00Z,27.97,34.38,17.0,6.0,20,3,,6.21,30.147638,,,,,,TRUE,,,,,CAVOK,,,,,,,,VFR,,,,,,,,,,,,METAR,50.0
HEPS 171400Z 30005KT 9999 SCT025 BKN100 13/10 Q1022 NOSIG,HEPS,2019-01-17T14:00:00Z,31.28,32.25,13.0,10.0,300,5,,6.21,30.177166,,,,,,TRUE,,,,,SCT,2500,BKN,10000,,,,,VFR,,,,,,,,,,,,METAR,6.0
HEGN 171400Z 36017KT CAVOK 18/02 Q1020 NOSIG,HEGN,2019-01-17T14:00:00Z,27.18,33.8,18.0,2.0,360,17,,6.21,30.11811,,,,,,TRUE,,,,,CAVOK,,,,,,,,VFR,,,,,,,,,,,,METAR,14.0
HEAR 171400Z 28012KT 9999 SCT020 BKN025 15/06 Q1021 NOSIG,HEAR,2019-01-17T14:00:00Z,31.07,33.82,15.0,6.0,280,12,,6.21,30.147638,,,,,,TRUE,,,,,SCT,2000,BKN,2500,,,,,MVFR,,,,,,,,,,,,METAR,32.0
HELX 171400Z 04006KT 4000 HZ NSC 17/02 Q1021 NOSIG,HELX,2019-01-17T14:00:00Z,25.67,32.7,17.0,2.0,40,6,,2.49,30.147638,,,,,,TRUE,,,,HZ,CLR,,,,,,,,IFR,,,,,,,,,,,,METAR,88.0
HEAX 171400Z 29006KT 9999 SCT020 SCT022 16/08 Q1022 NOSIG,HEAX,2019-01-17T14:00:00Z,31.18,29.93,16.0,8.0,290,6,,6.21,30.177166,,,,,,TRUE,,,,,SCT,2000,SCT,2200,,,,,VFR,,,,,,,,,,,,METAR,7.0
HEMM 171400Z 30008KT 9999 BKN020 16/08 Q1023 NOSIG,HEMM,2019-01-17T14:00:00Z,31.32,27.22,16.0,8.0,300,8,,6.21,30.206694,,,,,,TRUE,,,,,BKN,2000,,,,,,,MVFR,,,,,,,,,,,,METAR,30.0
SPSO 171400Z 24008KT 8000 NSC 23/19 Q1013 RMK BIRD HAZARD RWY 22/04 PP000,SPSO,2019-01-17T14:00:00Z,-13.73,-76.22,23.0,19.0,240,8,,4.97,29.911417,,,,,,,,,,,CLR,,,,,,,,MVFR,,,,,,,,,,,,METAR,10.0
SBPK 171400Z 18012KT 9999 SCT020 28/21 Q1015,SBPK,2019-01-17T14:00:00Z,-31.72,-52.33,28.0,21.0,180,12,,6.21,29.970472,,,,,,,,,,,SCT,2000,,,,,,,VFR,,,,,,,,,,,,METAR,13.0
TVSA 171400Z 07012KT 030V090 9999 SCT018 27/22 Q1018 ,TVSA,2019-01-17T14:00:00Z,13.15,-61.15,27.0,22.0,70,12,,6.21,30.059055,,,,,,,,,,,SCT,1800,,,,,,,VFR,,,,,,,,,,,,METAR,17.0
CWGM 171400Z AUTO 04004KT M09/M10 RMK AO1 T10881101 50007,CWGM,2019-01-17T14:00:00Z,49.13,-113.78,-8.8,-10.1,40,4,,,,,,TRUE,TRUE,,,,,,,,,,,,,,,,0.7,,,,,,,,,,,METAR,1296.0
CWGL 171400Z AUTO 06002KT M17/M21 RMK AO1 SLP283 T11661208 56007,CWGL,2019-01-17T14:00:00Z,44.52,-79.22,-16.6,-20.8,60,2,,,,1028.3,,TRUE,TRUE,,,,,,,,,,,,,,,,-0.7,,,,,,,,,,,METAR,221.0
CWGD 171400Z AUTO 14008KT M09/M14 RMK AO1 SOG 02 6007 SLP259 T10931135,CWGD,2019-01-17T14:00:00Z,43.77,-81.72,-9.3,-13.5,140,8,,,,1025.9,,TRUE,TRUE,,,,,,,,,,,,,,,,,,,,,,,,,,,METAR,214.0
CWGB 171400Z AUTO 09013KT 06/04 RMK AO1 1002 PK WND 06020/1317 SLP990 T00600041 50010,CWGB,2019-01-17T14:00:00Z,49.35,-124.17,6.0,4.1,90,13,,,,999.0,,TRUE,TRUE,,,,,,,,,,,,,,,,1.0,,,,,,,,,,,METAR,5.0
CWFQ 171400Z AUTO 21003KT M20/M25 RMK AO1 SOG 21 3017 SLP307 T11951247,CWFQ,2019-01-17T14:00:00Z,45.03,-72.82,-19.5,-24.7,210,3,,,,1030.7,,TRUE,TRUE,,,,,,,,,,,,,,,,,,,,,,,,,,,METAR,152.0
CWFJ 171400Z AUTO 05002KT M09/M10 RMK AO1 T10921099,CWFJ,2019-01-17T14:00:00Z,49.2,-113.27,-9.2,-9.9,50,2,,,,,,TRUE,TRUE,,,,,,,,,,,,,,,,,,,,,,,,,,,METAR,1136.0
CWEW 171400Z AUTO 32002KT M23/M27 RMK AO1 2PAST HR SOG 14 1015 SLP328 P0001 T12311266 50002,CWEW,2019-01-17T14:00:00Z,45.82,-73.43,-23.1,-26.6,320,2,,,,1032.8,,TRUE,TRUE,,,,,,,,,,,,,,,,0.2,,,,,0.01,,,,,,METAR,21.0
CWEL 171400Z AUTO 19003KT 06/05 RMK AO1 2PAST HR 3004 SLP994 P0001 T00630046 50010,CWEL,2019-01-17T14:00:00Z,49.22,-123.78,6.3,4.6,190,3,,,,999.4,,TRUE,TRUE,,,,,,,,,,,,,,,,1.0,,,,,0.01,,,,,,METAR,5.0
CWEB 171400Z AUTO 09009G16KT 09/07 RMK AO1 2PAST HR 8013 PK WND 13018/1328 SLP922 P0001 T00850068 50003,CWEB,2019-01-17T14:00:00Z,49.38,-126.55,8.5,6.8,90,9,16,,,992.2,,TRUE,TRUE,,,,,,,,,,,,,,,,0.3,,,,,0.01,,,,,,METAR,7.0
CZZJ 171400Z AUTO 07004KT M17/M19 RMK AO1 SOG 27 7014 SLP258 T11691186 50002,CZZJ,2019-01-17T14:00:00Z,53.58,-116.47,-16.9,-18.6,70,4,,,,1025.8,,TRUE,TRUE,,,,,,,,,,,,,,,,0.2,,,,,,,,,,,METAR,927.0
CXZV 171400Z AUTO 30009G15KT M23/M29 RMK AO1 SOG 80 3047 SLP174 T12251290,CXZV,2019-01-17T14:00:00Z,50.22,-66.25,-22.5,-29.0,300,9,15,,,1017.4,,TRUE,TRUE,,,,,,,,,,,,,,,,,,,,,,,,,,,METAR,52.0
UUBP 171400Z 19009MPS 4200 -SHSN BLSN OVC012CB M02/M04 Q1002 R16/850240 NOSIG RMK QFE733/0978,UUBP,2019-01-17T14:00:00Z,53.22,34.18,-2.0,-4.0,190,17,,2.61,29.586615,,,,,,TRUE,,,,-SHSN BLSN,OVC,1200,,,,,,,IFR,,,,,,,,,,,,METAR,202.0
UNTT 171400Z 20004MPS 9999 -SHSN SCT018CB BKN038 M11/M13 Q1031 NOSIG RMK QFE758,UNTT,2019-01-17T14:00:00Z,56.38,85.22,-11.0,-13.0,200,8,,6.21,30.442913,,,,,,TRUE,,,,-SHSN,SCT,1800,BKN,3800,,,,,VFR,,,,,,,,,,,,METAR,182.0
UOOO 171400Z 20007MPS 2600 -SN DRSN SCT009 M23/M25 Q1013 R19/39//37 NOSIG RMK QFE743/0991,UOOO,2019-01-17T14:00:00Z,69.32,87.33,-23.0,-25.0,200,14,,1.62,29.911417,,,,,,TRUE,,,,-SN DRSN,SCT,900,,,,,,,IFR,,,,,,,,,,,,METAR,175.0
WAQQ 171400Z 00000KT 8000 FEW015 26/23 Q1011,WAQQ,2019-01-17T14:00:00Z,3.33,117.57,26.0,23.0,0,0,,4.97,29.852362,,,,,,,,,,,FEW,1500,,,,,,,MVFR,,,,,,,,,,,,METAR,0.0
WAPP 171400Z 34004KT 9999 SCT018 25/24 Q1009 NOSIG,WAPP,2019-01-17T14:00:00Z,-3.7,128.07,25.0,24.0,340,4,,6.21,29.793306,,,,,,TRUE,,,,,SCT,1800,,,,,,,VFR,,,,,,,,,,,,METAR,12.0
UTSA 171400Z 10014KT 9999 NSC 14/02 Q1007 R07/CLRD70 NOSIG,UTSA,2019-01-17T14:00:00Z,40.12,65.17,14.0,2.0,100,14,,6.21,29.734253,,,,,,TRUE,,,,,CLR,,,,,,,,VFR,,,,,,,,,,,,SPECI,346.0
CYBK 171400Z 35016KT 15SM DRSN SKC M37/M41 A3001 RMK SLP167,CYBK,2019-01-17T14:00:00Z,64.28,-96.07,-37.0,-41.0,350,16,,15.0,30.008858,1016.7,,,,,,,,,DRSN,SKC,,,,,,,,VFR,,,,,,,,,,,,METAR,18.0
CYAB 171400Z 00000KT 15SM FEW210 M32/M37 A3002 RMK CI1 CI TR SLP171,CYAB,2019-01-17T14:00:00Z,73.0,-85.05,-32.0,-37.0,0,0,,15.0,30.02067,1017.1,,,,,,,,,,FEW,21000,,,,,,,VFR,,,,,,,,,,,,METAR,22.0
CWHN 171400Z AUTO 34005KT 9SM CLR M28/M32 A3029 RMK SLP332,CWHN,2019-01-17T14:00:00Z,54.88,-109.97,-28.0,-32.0,340,5,,9.0,30.28937,1033.2,,TRUE,,,,,,,,CLR,,,,,,,,VFR,,,,,,,,,,,,METAR,636.0
CYZX 171400Z 27015KT 15SM SCT025 M11/M16 A3023 RMK SC3 SLP239,CYZX,2019-01-17T14:00:00Z,44.98,-64.92,-11.0,-16.0,270,15,,15.0,30.230314,1023.9,,,,,,,,,,SCT,2500,,,,,,,VFR,,,,,,,,,,,,METAR,28.0
CYSK 171400Z 22011KT 12SM -SN SCT030 M29/M33 A2989 RMK SC4 SLP127,CYSK,2019-01-17T14:00:00Z,56.53,-79.25,-29.0,-33.0,220,11,,12.0,29.890747,1012.7,,,,,,,,,-SN,SCT,3000,,,,,,,VFR,,,,,,,,,,,,METAR,26.0
CYQI 171400Z 36015G20KT 15SM -SHSN BKN024 M09/M14 A3025 RMK SC6 SLP248,CYQI,2019-01-17T14:00:00Z,43.83,-66.08,-9.0,-14.0,360,15,20,15.0,30.250984,1024.8,,,,,,,,,-SHSN,BKN,2400,,,,,,,MVFR,,,,,,,,,,,,METAR,43.0
CYOY 171400Z 00000KT 15SM FEW220 M26/M31 A3036 RMK CI2 DA-5119FT SLP303,CYOY,2019-01-17T14:00:00Z,46.88,-71.5,-26.0,-31.0,0,0,,15.0,30.360237,1030.3,,,,,,,,,,FEW,22000,,,,,,,VFR,,,,,,,,,,,,METAR,168.0
CYNM 171400Z AUTO 15005KT 9SM FEW200 M32/M35 A3011 RMK SLP243,CYNM,2019-01-17T14:00:00Z,49.77,-77.82,-32.0,-35.0,150,5,,9.0,30.109253,1024.3,,TRUE,,,,,,,,FEW,20000,,,,,,,VFR,,,,,,,,,,,,METAR,281.0
CYMU 171400Z 19015G21KT 12SM IC DRSN BKN040 BKN075 BKN110 M29/M32 A2990 RMK SC5AC2AC1 AC TR SLP139,CYMU,2019-01-17T14:00:00Z,56.52,-76.52,-29.0,-32.0,190,15,21,12.0,29.899607,1013.9,,,,,,,,,IC DRSN,BKN,4000,BKN,7500,BKN,11000,,,VFR,,,,,,,,,,,,METAR,71.0
CYLA 171400Z 24008KT 15SM FEW030 BKN070 M30/M35 A2978 RMK SC2AS4 SLP091,CYLA,2019-01-17T14:00:00Z,59.28,-69.58,-30.0,-35.0,240,8,,15.0,29.778543,1009.1,,,,,,,,,,FEW,3000,BKN,7000,,,,,VFR,,,,,,,,,,,,METAR,35.0
CYGV 171400Z AUTO 28016G21KT 8SM FEW240 M17/M22 A2978 RMK PRESRR SLP089,CYGV,2019-01-17T14:00:00Z,50.27,-63.62,-17.0,-22.0,280,16,21,8.0,29.778543,1008.9,,TRUE,,,,,,,,FEW,24000,,,,,,,VFR,,,,,,,,,,,,METAR,33.0
CYAS 171400Z 28010KT 15SM FEW030 BKN087 M32/M35 A2970 RMK SC2AC5 SLP079,CYAS,2019-01-17T14:00:00Z,60.02,-70.0,-32.0,-35.0,280,10,,15.0,29.698818,1007.9,,,,,,,,,,FEW,3000,BKN,8700,,,,,VFR,,,,,,,,,,,,METAR,117.0
CYYL 171400Z AUTO 30010KT 9SM CLR M33/M36 A3009 RMK SLP248,CYYL,2019-01-17T14:00:00Z,56.87,-101.07,-33.0,-36.0,300,10,,9.0,30.088583,1024.8,,TRUE,,,,,,,,CLR,,,,,,,,VFR,,,,,,,,,,,,METAR,357.0
CYWK 171400Z 30010G20KT 15SM FEW024 M31/M37 A2976 RMK SF2 SLP143,CYWK,2019-01-17T14:00:00Z,52.92,-66.87,-31.0,-37.0,300,10,20,15.0,29.760826,1014.3,,,,,,,,,,FEW,2400,,,,,,,VFR,,,,,,,,,,,,METAR,551.0
CZMD 171400Z AUTO 23007KT 9SM BKN013 BKN023 OVC044 M32/M34 A2996 RMK SLP189,CZMD,2019-01-17T14:00:00Z,53.43,-91.77,-32.0,-34.0,230,7,,9.0,29.958662,1018.9,,TRUE,,,,,,,,BKN,1300,BKN,2300,OVC,4400,,,MVFR,,,,,,,,,,,,METAR,278.0
CYYW 171400Z AUTO 27003KT 9SM BKN120 OVC140 M21/M25 A3006 RMK SLP236,CYYW,2019-01-17T14:00:00Z,50.3,-88.9,-21.0,-25.0,270,3,,9.0,30.059055,1023.6,,TRUE,,,,,,,,BKN,12000,OVC,14000,,,,,VFR,,,,,,,,,,,,METAR,351.0
CYYH 171400Z VRB02KT 15SM IC FEW150 FEW160 FEW180 FEW200 M35/M39 A3005 RMK AC1AC1AC1CI1 AC TR CI TR SLP183,CYYH,2019-01-17T14:00:00Z,69.53,-93.57,-35.0,-39.0,0,2,,15.0,30.050198,1018.3,,,,,,,,,IC,FEW,15000,FEW,16000,FEW,18000,FEW,20000,VFR,,,,,,,,,,,,METAR,28.0
CYYB 171400Z 15008KT 070V170 30SM BKN030 M20/M23 A3022 RMK SC7 SLP277,CYYB,2019-01-17T14:00:00Z,46.35,-79.42,-20.0,-23.0,150,8,,30.0,30.221457,1027.7,,,,,,,,,,BKN,3000,,,,,,,MVFR,,,,,,,,,,,,METAR,371.0
CYXU 171400Z 11006KT 15SM BKN130 BKN220 M10/M14 A3026 RMK AC6CI1 SLP270,CYXU,2019-01-17T14:00:00Z,43.02,-81.15,-10.0,-14.0,110,6,,15.0,30.259842,1027.0,,,,,,,,,,BKN,13000,BKN,22000,,,,,VFR,,,,,,,,,,,,METAR,278.0
CYXL 171400Z 28005KT 3SM -SN BKN022 OVC065 M21/M24 A3008 RMK SN4SC1SC3 CIG RAG SLP233,CYXL,2019-01-17T14:00:00Z,50.12,-91.9,-21.0,-24.0,280,5,,3.0,30.079725,1023.3,,,,,,,,,-SN,BKN,2200,OVC,6500,,,,,MVFR,,,,,,,,,,,,METAR,390.0
CYVQ 171400Z 11023G33KT 15SM DRSN SCT094 BKN110 BKN150 M16/M23 A3024 RMK AC3AC3AC1 SLP250,CYVQ,2019-01-17T14:00:00Z,65.27,-126.78,-16.0,-23.0,110,23,33,15.0,30.239174,1025.0,,,,,,,,,DRSN,SCT,9400,BKN,11000,BKN,15000,,,VFR,,,,,,,,,,,,METAR,74.0
CYVO 171400Z 19008KT 15SM BKN085 OVC180 M27/M30 A3017 RMK AS6AC2 SLP269,CYVO,2019-01-17T14:00:00Z,48.07,-77.77,-27.0,-30.0,190,8,,15.0,30.171259,1026.9,,,,,,,,,,BKN,8500,OVC,18000,,,,,VFR,,,,,,,,,,,,METAR,337.0
CYSP 171400Z 08003KT 10SM -SN OVC057 M19/M24 A3008 RMK SC8 SLP228,CYSP,2019-01-17T14:00:00Z,48.75,-86.35,-19.0,-24.0,80,3,,10.0,30.079725,1022.8,,,,,,,,,-SN,OVC,5700,,,,,,,VFR,,,,,,,,,,,,METAR,315.0
CYSN 171400Z 14005KT 15SM FEW035 SCT160 SCT200 M08/M11 A3034 RMK SC1AC2CI1 SLP283,CYSN,2019-01-17T14:00:00Z,43.2,-79.17,-8.0,-11.0,140,5,,15.0,30.339567,1028.3,,,,,,,,,,FEW,3500,SCT,16000,SCT,20000,,,VFR,,,,,,,,,,,,METAR,98.0
CYSC 171400Z AUTO 00000KT 9SM FEW022 SCT250 M21/M25 A3037 RMK SLP310,CYSC,2019-01-17T14:00:00Z,45.43,-71.68,-21.0,-25.0,0,0,,9.0,30.369095,1031.0,,TRUE,,,,,,,,FEW,2200,SCT,25000,,,,,VFR,,,,,,,,,,,,METAR,241.0
CYSB 171400Z 19008KT 20SM -SN OVC032 M20/M24 A3019 RMK SC8 SLP264,CYSB,2019-01-17T14:00:00Z,46.63,-80.8,-20.0,-24.0,190,8,,20.0,30.188976,1026.4,,,,,,,,,-SN,OVC,3200,,,,,,,VFR,,,,,,,,,,,,METAR,348.0
CYRQ 171400Z AUTO 32004KT 280V360 9SM CLR M22/M27 A3044 RMK SLP316,CYRQ,2019-01-17T14:00:00Z,46.35,-72.68,-22.0,-27.0,320,4,,9.0,30.43996,1031.6,,TRUE,,,,,,,,CLR,,,,,,,,VFR,,,,,,,,,,,,METAR,61.0
CYRB 171400Z 04013KT 12SM IC SKC M30/M35 A3010 RMK SLP207,CYRB,2019-01-17T14:00:00Z,74.72,-94.97,-30.0,-35.0,40,13,,12.0,30.100393,1020.7,,,,,,,,,IC,SKC,,,,,,,,VFR,,,,,,,,,,,,METAR,67.0
VRMM 171400Z 07013KT 8000 FEW018 BKN280 28/23 Q1010 NOSIG,VRMM,2019-01-17T14:00:00Z,4.2,73.52,28.0,23.0,70,13,,4.97,29.822834,,,,,,TRUE,,,,,FEW,1800,BKN,28000,,,,,MVFR,,,,,,,,,,,,METAR,2.0
CYRT 171400Z 36015KT 15SM IC FEW250 M38/M43 A2987 RMK CI1 OBS TAKEN +11 WND ESTD SLP122,CYRT,2019-01-17T14:00:00Z,62.82,-92.12,-38.0,-43.0,360,15,,15.0,29.870079,1012.2,,,,,,,,,IC,FEW,25000,,,,,,,VFR,,,,,,,,,,,,METAR,32.0
FNBG 171400Z 30010KT 9999 FEW015 SCT120 29/22 Q1010,FNBG,2019-01-17T14:00:00Z,-12.62,13.4,29.0,22.0,300,10,,6.21,29.822834,,,,,,,,,,,FEW,1500,SCT,12000,,,,,VFR,,,,,,,,,,,,METAR,36.0
OEHL 171400Z 27010KT 9000 NSC 13/M09 Q1018,OEHL,2019-01-17T14:00:00Z,27.42,41.67,13.0,-9.0,270,10,,5.59,30.059055,,,,,,,,,,,CLR,,,,,,,,VFR,,,,,,,,,,,,METAR,1013.0
UTSK 171400Z 12016KT CAVOK 17/M01 Q1007 R16/CLRD70,UTSK,2019-01-17T14:00:00Z,38.83,65.77,17.0,-1.0,120,16,,6.21,29.734253,,,,,,,,,,,CAVOK,,,,,,,,VFR,,,,,,,,,,,,SPECI,1365.0
UTSB 171400Z 10010KT CAVOK 14/08 Q1005 R01/CLRD70 NOSIG,UTSB,2019-01-17T14:00:00Z,39.77,64.48,14.0,8.0,100,10,,6.21,29.675198,,,,,,TRUE,,,,,CAVOK,,,,,,,,VFR,,,,,,,,,,,,SPECI,226.0
UTTT 171400Z 06012KT CAVOK 08/M07 Q1014 R08R/CLRD70 NOSIG,UTTT,2019-01-17T14:00:00Z,41.27,69.27,8.0,-7.0,60,12,,6.21,29.940945,,,,,,TRUE,,,,,CAVOK,,,,,,,,VFR,,,,,,,,,,,,METAR,489.0
UTFF 171400Z VRB02KT 0000 FG VV001 01/00 Q1019 R18/CLRD70,UTFF,2019-01-17T14:00:00Z,40.37,71.77,1.0,0.0,0,2,,0.0,30.088583,,,,,,,,,,FG,OVX,0,,,,,,,LIFR,,,,,,,,,,,100,METAR,577.0
UTST 171400Z 06006KT CAVOK 13/03 Q1014 R88/CLRD70 NOSIG,UTST,2019-01-17T14:00:00Z,37.28,67.32,13.0,3.0,60,6,,6.21,29.940945,,,,,,TRUE,,,,,CAVOK,,,,,,,,VFR,,,,,,,,,,,,SPECI,302.0
UTSS 171400Z 13006KT 100V160 6000 NSC 10/03 Q1010 R09/70D NOSIG,UTSS,2019-01-17T14:00:00Z,39.7,66.98,10.0,3.0,130,6,,3.73,29.822834,,,,,,TRUE,,,,,CLR,,,,,,,,MVFR,,,,,,,,,,,,METAR,724.0
CWWE 171400Z AUTO 31009G18KT M08/M16 RMK AO1 PK WND 32020/1337 SLP229 T10781160 51036,CWWE,2019-01-17T14:00:00Z,43.97,-64.67,-7.8,-16.0,310,9,18,,,1022.9,,TRUE,TRUE,,,,,,,,,,,,,,,,3.6,,,,,,,,,,,METAR,9.0
CWMQ 171400Z AUTO 07002KT M14/M16 RMK AO1 SLP262 T11441162 53004,CWMQ,2019-01-17T14:00:00Z,49.9,-109.47,-14.4,-16.2,70,2,,,,1026.2,,TRUE,TRUE,,,,,,,,,,,,,,,,0.4,,,,,,,,,,,METAR,767.0
CWMM 171400Z AUTO 28001KT 03/02 RMK AO1 4PAST HR 1017 SLP004 P0002 T00320020 50004,CWMM,2019-01-17T14:00:00Z,49.22,-122.68,3.2,2.0,280,1,,,,1000.4,,TRUE,TRUE,,,,,,,,,,,,,,,,0.4,,,,,0.02,,,,,,METAR,5.0
CWMJ 171400Z AUTO 21002KT M27/M30 RMK AO1 SOG 31 2017 SLP314 T12681300,CWMJ,2019-01-17T14:00:00Z,46.27,-76.0,-26.8,-30.0,210,2,,,,1031.4,,TRUE,TRUE,,,,,,,,,,,,,,,,,,,,,,,,,,,METAR,200.0
CWLM 171400Z AUTO 04006KT 06/04 RMK AO1 SLP979 T00600035 56006,CWLM,2019-01-17T14:00:00Z,48.42,-123.32,6.0,3.5,40,6,,,,997.9,,TRUE,TRUE,,,,,,,,,,,,,,,,-0.6,,,,,,,,,,,METAR,70.0
CWLE 171400Z AUTO 00003KT M17/M19 RMK AO1 SOG 15 3008 SLP287 T11741193,CWLE,2019-01-17T14:00:00Z,50.95,-107.15,-17.4,-19.3,0,3,,,,1028.7,,TRUE,TRUE,,,,,,,,,,,,,,,,,,,,,,,,,,,METAR,665.0
CWLC 171400Z AUTO 01006KT 06/M01 RMK AO1 T00601009,CWLC,2019-01-17T14:00:00Z,54.3,-130.62,6.0,-0.9,10,6,,,,,,TRUE,TRUE,,,,,,,,,,,,,,,,,,,,,,,,,,,METAR,27.0
CXMG 171400Z AUTO 32001KT M28/M31 RMK AO1 T12781309,CXMG,2019-01-17T14:00:00Z,56.97,-117.45,-27.8,-30.9,320,1,,,,,,TRUE,TRUE,,,,,,,,,,,,,,,,,,,,,,,,,,,METAR,457.0
CXHP 171400Z AUTO 09010KT M21/M24 RMK AO1 T12121239,CXHP,2019-01-17T14:00:00Z,55.4,-116.48,-21.2,-23.9,90,10,,,,,,TRUE,TRUE,,,,,,,,,,,,,,,,,,,,,,,,,,,METAR,602.0
CXHD 171400Z AUTO 07006KT M23/M26 RMK AO1 T12321256,CXHD,2019-01-17T14:00:00Z,53.18,-112.25,-23.2,-25.6,70,6,,,,,,TRUE,TRUE,,,,,,,,,,,,,,,,,,,,,,,,,,,METAR,688.0
CXFM 171400Z AUTO 03006KT M12/M13 RMK AO1 T11211134,CXFM,2019-01-17T14:00:00Z,49.48,-111.48,-12.1,-13.4,30,6,,,,,,TRUE,TRUE,,,,,,,,,,,,,,,,,,,,,,,,,,,METAR,881.0
CPXL 171400Z AUTO 05005KT M13/M14 RMK AO1 T11311144,CPXL,2019-01-17T14:00:00Z,49.87,-111.38,-13.1,-14.4,50,5,,,,,,TRUE,TRUE,,,,,,,,,,,,,,,,,,,,,,,,,,,METAR,799.0
FAOB 171400Z AUTO 24011KT //// // ////// 30/19 Q1008,FAOB,2019-01-17T14:00:00Z,-34.6,20.27,30.0,19.0,240,11,,,29.763779,,,TRUE,,,,,,,,,,,,,,,,,,,,,,,,,,,,METAR,75.0
FABL 171400Z 26014KT 230V300 CAVOK 37/01 Q1012 NOSIG,FABL,2019-01-17T14:00:00Z,-29.1,26.3,37.0,1.0,260,14,,6.21,29.88189,,,,,,TRUE,,,,,CAVOK,,,,,,,,VFR,,,,,,,,,,,,METAR,1348.0
VAAU 171400Z 26003KT 5000 HZ NSC 25/13 Q1014 NOSIG,VAAU,2019-01-17T14:00:00Z,19.85,75.4,25.0,13.0,260,3,,3.11,29.940945,,,,,,TRUE,,,,HZ,CLR,,,,,,,,MVFR,,,,,,,,,,,,METAR,579.0
CWPZ 171400Z AUTO 11004KT M08/M12 RMK AO1 SOG 37 6016 SLP115 T10751116,CWPZ,2019-01-17T14:00:00Z,54.38,-125.97,-7.5,-11.6,110,4,,,,1011.5,,TRUE,TRUE,,,,,,,,,,,,,,,,,,,,,,,,,,,METAR,713.0
CWPR 171400Z AUTO 17001KT M06/M08 RMK AO1 SOG 03 7022 SLP070 T10641077,CWPR,2019-01-17T14:00:00Z,49.47,-120.52,-6.4,-7.7,170,1,,,,1007.0,,TRUE,TRUE,,,,,,,,,,,,,,,,,,,,,,,,,,,METAR,700.0
CWPE 171400Z AUTO 32012G19KT M15/M22 RMK AO1 SOG 01 1031 PK WND 34021/1324 SLP253 T11451220,CWPE,2019-01-17T14:00:00Z,45.07,-66.47,-14.5,-22.0,320,12,19,,,1025.3,,TRUE,TRUE,,,,,,,,,,,,,,,,,,,,,,,,,,,METAR,1.0
CWPD 171400Z AUTO 00000KT M33/M36 RMK AO1 SLP289 T13321355 53020,CWPD,2019-01-17T14:00:00Z,47.57,-71.22,-33.2,-35.5,0,0,,,,1028.9,,TRUE,TRUE,,,,,,,,,,,,,,,,2.0,,,,,,,,,,,METAR,803.0
CWOE 171400Z AUTO 35006KT M10/M11 RMK AO1 SLP220 T11001109 58002,CWOE,2019-01-17T14:00:00Z,49.12,-110.47,-10.0,-10.9,350,6,,,,1022.0,,TRUE,TRUE,,,,,,,,,,,,,,,,-0.2,,,,,,,,,,,METAR,935.0
CWOD 171400Z AUTO 10001KT M34/M38 RMK AO1 SOG 31 3008 SLP278 T13361375 50002,CWOD,2019-01-17T14:00:00Z,48.85,-72.55,-33.6,-37.5,100,1,,,,1027.8,,TRUE,TRUE,,,,,,,,,,,,,,,,0.2,,,,,,,,,,,METAR,137.0
CWOC 171400Z AUTO 29017G24KT M19/M25 RMK AO1 PK WND 29029/1328 SLP182 T11901252 53037,CWOC,2019-01-17T14:00:00Z,48.02,-65.32,-19.0,-25.2,290,17,24,,,1018.2,,TRUE,TRUE,,,,,,,,,,,,,,,,3.7,,,,,,,,,,,METAR,47.0
CWNP 171400Z AUTO 08002KT M04/M06 RMK AO1 SOG 22 6028 SLP120 T10351055,CWNP,2019-01-17T14:00:00Z,50.27,-117.82,-3.5,-5.5,80,2,,,,1012.0,,TRUE,TRUE,,,,,,,,,,,,,,,,,,,,,,,,,,,METAR,524.0
CWNM 171400Z AUTO 08007KT M01/M04 RMK AO1 SOG 03 7026 SLP102 T10061035,CWNM,2019-01-17T14:00:00Z,49.5,-117.28,-0.6,-3.5,80,7,,,,1010.2,,TRUE,TRUE,,,,,,,,,,,,,,,,,,,,,,,,,,,METAR,535.0
CWNK 171400Z AUTO 35006KT M18/M21 RMK AO1 T11801214,CWNK,2019-01-17T14:00:00Z,49.5,-98.03,-18.0,-21.4,350,6,,,,,,TRUE,TRUE,,,,,,,,,,,,,,,,,,,,,,,,,,,METAR,268.0
CWNE 171400Z AUTO 28023G28KT M17/M22 RMK AO1 PK WND 28030/1332 SLP191 T11681215 53037,CWNE,2019-01-17T14:00:00Z,47.07,-64.0,-16.8,-21.5,280,23,28,,,1019.1,,TRUE,TRUE,,,,,,,,,,,,,,,,3.7,,,,,,,,,,,METAR,15.0
CWDK 171400Z AUTO 09008KT M10/M11 RMK AO1 SLP229 T11011114 56009,CWDK,2019-01-17T14:00:00Z,50.02,-113.62,-10.1,-11.4,90,8,,,,1022.9,,TRUE,TRUE,,,,,,,,,,,,,,,,-0.9,,,,,,,,,,,METAR,1012.0
CWDJ 171400Z AUTO 02008KT M16/M19 RMK AO1 SLP276 T11591192 53015,CWDJ,2019-01-17T14:00:00Z,50.4,-104.58,-15.9,-19.2,20,8,,,,1027.6,,TRUE,TRUE,,,,,,,,,,,,,,,,1.5,,,,,,,,,,,METAR,573.0
CWCO 171400Z AUTO 15005KT M13/M16 RMK AO1 SLP280 T11261163 57009,CWCO,2019-01-17T14:00:00Z,44.45,-80.17,-12.6,-16.3,150,5,,,,1028.0,,TRUE,TRUE,,,,,,,,,,,,,,,,-0.9,,,,,,,,,,,METAR,221.0
CWCJ 171400Z AUTO 05004KT M21/M24 RMK AO1 SOG 27 8018 SLP222 T12121240,CWCJ,2019-01-17T14:00:00Z,48.6,-86.28,-21.2,-24.0,50,4,,,,1022.2,,TRUE,TRUE,,,,,,,,,,,,,,,,,,,,,,,,,,,METAR,206.0
CWCF 171400Z AUTO 31008KT M26/M29 RMK AO1 SOG 17 7002 SLP245 T12631294,CWCF,2019-01-17T14:00:00Z,52.35,-97.03,-26.3,-29.4,310,8,,,,1024.5,,TRUE,TRUE,,,,,,,,,,,,,,,,,,,,,,,,,,,METAR,222.0
CWBZ 171400Z AUTO 24004KT M19/M23 RMK AO1 SLP322 T11931228 53015,CWBZ,2019-01-17T14:00:00Z,45.12,-74.27,-19.3,-22.8,240,4,,,,1032.2,,TRUE,TRUE,,,,,,,,,,,,,,,,1.5,,,,,,,,,,,METAR,49.0
CWBT 171400Z AUTO 29006KT M17/M18 RMK AO1 SLP112 T11661180 51060,CWBT,2019-01-17T14:00:00Z,50.27,-64.23,-16.6,-18.0,290,6,,,,1011.2,,TRUE,TRUE,,,,,,,,,,,,,,,,6.0,,,,,,,,,,,METAR,11.0
CWBS 171400Z AUTO 35006KT M21/M27 RMK AO1 T12111269,CWBS,2019-01-17T14:00:00Z,46.18,-72.92,-21.1,-26.9,350,6,,,,,,TRUE,TRUE,,,,,,,,,,,,,,,,,,,,,,,,,,,METAR,16.0
CWBO 171400Z AUTO 05006KT M13/M15 RMK AO1 SLP254 T11341149 57005,CWBO,2019-01-17T14:00:00Z,50.53,-111.83,-13.4,-14.9,50,6,,,,1025.4,,TRUE,TRUE,,,,,,,,,,,,,,,,-0.5,,,,,,,,,,,METAR,747.0
CWBA 171400Z AUTO 22001KT M22/M24 RMK AO1 SOG 51 T12221241,CWBA,2019-01-17T14:00:00Z,46.72,-79.1,-22.2,-24.1,220,1,,,,,,TRUE,TRUE,,,,,,,,,,,,,,,,,,,,,,,,,,,METAR,181.0
WBKW 171400Z 01004KT 330V050 9999 FEW017 BKN300 26/23 Q1010,WBKW,2019-01-17T14:00:00Z,4.32,118.12,26.0,23.0,10,4,,6.21,29.822834,,,,,,,,,,,FEW,1700,BKN,30000,,,,,VFR,,,,,,,,,,,,METAR,20.0
WBKT 171400Z 07009KT 350V120 9999 SCT014 BKN270 27/24 Q1011,WBKT,2019-01-17T14:00:00Z,6.92,116.82,27.0,24.0,70,9,,6.21,29.852362,,,,,,,,,,,SCT,1400,BKN,27000,,,,,VFR,,,,,,,,,,,,METAR,5.0
WBKS 171400Z 05011KT 020V080 9999 FEW015 BKN280 27/24 Q1011,WBKS,2019-01-17T14:00:00Z,5.9,118.07,27.0,24.0,50,11,,6.21,29.852362,,,,,,,,,,,FEW,1500,BKN,28000,,,,,VFR,,,,,,,,,,,,METAR,13.0
WBKL 171400Z 02012KT 330V070 9999 FEW013 BKN290 27/24 Q1010,WBKL,2019-01-17T14:00:00Z,5.28,115.25,27.0,24.0,20,12,,6.21,29.822834,,,,,,,,,,,FEW,1300,BKN,29000,,,,,VFR,,,,,,,,,,,,METAR,30.0
WBGY 171400Z AUTO 00000KT //// // 24/23 Q1009,WBGY,2019-01-17T14:00:00Z,1.22,111.43,24.0,23.0,0,0,,,29.793306,,,TRUE,,,,,,,,,,,,,,,,,,,,,,,,,,,,SPECI,34.0
WBGS 171400Z VRB02KT 9999 SCT016 BKN150 24/24 Q1010,WBGS,2019-01-17T14:00:00Z,2.27,111.98,24.0,24.0,0,2,,6.21,29.822834,,,,,,,,,,,SCT,1600,BKN,15000,,,,,VFR,,,,,,,,,,,,METAR,8.0
WBGR 171400Z 04004KT 360V090 9999 SCT016 SCT150 BKN300 26/25 Q1010,WBGR,2019-01-17T14:00:00Z,4.32,113.97,26.0,25.0,40,4,,6.21,29.822834,,,,,,,,,,,SCT,1600,SCT,15000,BKN,30000,,,VFR,,,,,,,,,,,,METAR,18.0
WBGB 171400Z VRB03KT 9999 FEW016 SCT150 BKN300 26/25 Q1010,WBGB,2019-01-17T14:00:00Z,3.12,113.02,26.0,25.0,0,3,,6.21,29.822834,,,,,,,,,,,FEW,1600,SCT,15000,BKN,30000,,,VFR,,,,,,,,,,,,METAR,5.0
WMSA 171400Z VRB01KT 9000 FEW008 FEW017CB SCT026 OVC260 25/25 Q1011,WMSA,2019-01-17T14:00:00Z,3.13,101.55,25.0,25.0,0,1,,5.59,29.852362,,,,,,,,,,,FEW,800,FEW,1700,SCT,2600,OVC,26000,VFR,,,,,,,,,,,,METAR,27.0
WMKJ 171400Z 09004KT 060V120 9999 -RA FEW009 SCT022 BKN260 25/24 Q1010,WMKJ,2019-01-17T14:00:00Z,1.62,103.67,25.0,24.0,90,4,,6.21,29.822834,,,,,,,,,,-RA,FEW,900,SCT,2200,BKN,26000,,,VFR,,,,,,,,,,,,METAR,40.0
OTHH 171400Z 34026KT 1200 R34R/1800U R34L/1900U BLDU NSC 20/06 Q1015 NOSIG,OTHH,2019-01-17T14:00:00Z,25.25,51.6,20.0,6.0,340,26,,0.75,29.970472,,,,,,TRUE,,,,BLDU,CLR,,,,,,,,LIFR,,,,,,,,,,,,METAR,0.0
TNCC 171400Z AUTO 11013KT 9999 SCT035 27/21 Q1017 NOSIG,TNCC,2019-01-17T14:00:00Z,12.2,-68.97,27.0,21.0,110,13,,6.21,30.029528,,,TRUE,,,TRUE,,,,,SCT,3500,,,,,,,VFR,,,,,,,,,,,,METAR,9.0
MNBL 171400Z 36004KT 9999 SCT019 25/23 Q1017,MNBL,2019-01-17T14:00:00Z,12.0,-83.77,25.0,23.0,360,4,,6.21,30.029528,,,,,,,,,,,SCT,1900,,,,,,,VFR,,,,,,,,,,,,METAR,5.0
MNCH 171400Z 00000KT 6000 FEW090 27/20 Q1015 FU,MNCH,2019-01-17T14:00:00Z,12.62,-87.12,27.0,20.0,0,0,,3.73,29.970472,,,,,,,,,,FU,FEW,9000,,,,,,,MVFR,,,,,,,,,,,,METAR,53.0
MNJU 171400Z 08006KT 9999 SCT020 SCT080 25/23 Q1015,MNJU,2019-01-17T14:00:00Z,12.08,-85.37,25.0,23.0,80,6,,6.21,29.970472,,,,,,,,,,,SCT,2000,SCT,8000,,,,,VFR,,,,,,,,,,,,METAR,90.0
MNJG 171400Z 36016KT 9999 SCT017 18/16 Q1017,MNJG,2019-01-17T14:00:00Z,13.08,-86.02,18.0,16.0,360,16,,6.21,30.029528,,,,,,,,,,,SCT,1700,,,,,,,VFR,,,,,,,,,,,,METAR,985.0
MNRS 171400Z 36008KT 9999 BKN015 27/21 Q1015,MNRS,2019-01-17T14:00:00Z,11.42,-85.82,27.0,21.0,360,8,,6.21,29.970472,,,,,,,,,,,BKN,1500,,,,,,,MVFR,,,,,,,,,,,,METAR,53.0
MNPC 171400Z 36004KT 7000 BKN016 25/23 Q1016 HZ,MNPC,2019-01-17T14:00:00Z,14.05,-83.38,25.0,23.0,360,4,,4.35,30.0,,,,,,,,,,HZ,BKN,1600,,,,,,,MVFR,,,,,,,,,,,,METAR,16.0
FBMN 171400Z 12005KT 9999 SCT030 FEW035CB 32/20 Q1012,FBMN,2019-01-17T14:00:00Z,-19.97,23.42,32.0,20.0,120,5,,6.21,29.88189,,,,,,,,,,,SCT,3000,FEW,3500,,,,,VFR,,,,,,,,,,,,METAR,900.0
FBKE 171400Z 33005KT 270V050 9999 SCT030 SCT070 30/20 Q1013,FBKE,2019-01-17T14:00:00Z,-17.82,25.17,30.0,20.0,330,5,,6.21,29.911417,,,,,,,,,,,SCT,3000,SCT,7000,,,,,VFR,,,,,,,,,,,,METAR,1000.0
FBFT 171400Z 09005KT 030V130 9999 BKN030 FEW035CB 33/18 Q1012,FBFT,2019-01-17T14:00:00Z,-21.17,27.48,33.0,18.0,90,5,,6.21,29.88189,,,,,,,,,,,BKN,3000,FEW,3500,,,,,MVFR,,,,,,,,,,,,METAR,1000.0
CXWM 171400Z AUTO 03005KT M11/M12 RMK AO1 T11111121,CXWM,2019-01-17T14:00:00Z,49.5,-112.12,-11.1,-12.1,30,5,,,,,,TRUE,TRUE,,,,,,,,,,,,,,,,,,,,,,,,,,,METAR,944.0
CXAJ 171400Z AUTO 05004KT M30/M32 RMK AO1 SOG 42 T12981323 50004,CXAJ,2019-01-17T14:00:00Z,54.77,-112.82,-29.8,-32.3,50,4,,,,,,TRUE,TRUE,,,,,,,,,,,,,,,,0.4,,,,,,,,,,,METAR,574.0
CXAG 171400Z AUTO 11004KT M27/M30 RMK AO1 T12731302,CXAG,2019-01-17T14:00:00Z,53.92,-112.28,-27.3,-30.2,110,4,,,,,,TRUE,TRUE,,,,,,,,,,,,,,,,,,,,,,,,,,,METAR,625.0
CWDT 171400Z AUTO 07001KT M33/M37 RMK AO1 SLP271 T13321368 51013,CWDT,2019-01-17T14:00:00Z,49.88,-71.25,-33.2,-36.8,70,1,,,,1027.1,,TRUE,TRUE,,,,,,,,,,,,,,,,1.3,,,,,,,,,,,METAR,399.0
SPQT 171400Z 31003KT 250V360 9999 BKN012 BKN100 25/23 Q1016 NOSIG RMK BIRD HAZARD RWY 06/24 PP000,SPQT,2019-01-17T14:00:00Z,-3.78,-73.32,25.0,23.0,310,3,,6.21,30.0,,,,,,TRUE,,,,,BKN,1200,BKN,10000,,,,,MVFR,,,,,,,,,,,,METAR,126.0
SPHI 171400Z 18007KT CAVOK 25/19 Q1013 RMK BIRD HAZARD RWY 19/01 PP000,SPHI,2019-01-17T14:00:00Z,-6.77,-79.82,25.0,19.0,180,7,,6.21,29.911417,,,,,,,,,,,CAVOK,,,,,,,,VFR,,,,,,,,,,,,METAR,34.0
SAWH 171400Z 27007KT 9999 SCT040 SCT100 12/02 Q1006,SAWH,2019-01-17T14:00:00Z,-54.85,-68.3,12.0,2.0,270,7,,6.21,29.704725,,,,,,,,,,,SCT,4000,SCT,10000,,,,,VFR,,,,,,,,,,,,METAR,14.0
SBLO 171400Z 35003KT CAVOK 30/21 Q1019,SBLO,2019-01-17T14:00:00Z,-23.32,-51.12,30.0,21.0,350,3,,6.21,30.088583,,,,,,,,,,,CAVOK,,,,,,,,VFR,,,,,,,,,,,,METAR,570.0
SBVT 171400Z 01011KT 9999 FEW047 33/23 Q1015,SBVT,2019-01-17T14:00:00Z,-20.27,-40.27,33.0,23.0,10,11,,6.21,29.970472,,,,,,,,,,,FEW,4700,,,,,,,VFR,,,,,,,,,,,,METAR,4.0
SCCI 171400Z 27023KT 9999 FEW029 SCT035 12/05 Q1012 NOSIG,SCCI,2019-01-17T14:00:00Z,-53.0,-70.83,12.0,5.0,270,23,,6.21,29.88189,,,,,,TRUE,,,,,FEW,2900,SCT,3500,,,,,VFR,,,,,,,,,,,,METAR,37.0
SCNT 171400Z 28025G35KT 250V320 9999 BKN040 17/03 Q1016,SCNT,2019-01-17T14:00:00Z,-51.67,-72.53,17.0,3.0,280,25,35,6.21,30.0,,,,,,,,,,,BKN,4000,,,,,,,VFR,,,,,,,,,,,,METAR,67.0
SCVD 171400Z 15006KT 100V200 9999 FEW030 16/10 Q1024,SCVD,2019-01-17T14:00:00Z,-39.65,-73.07,16.0,10.0,150,6,,6.21,30.236221,,,,,,,,,,,FEW,3000,,,,,,,VFR,,,,,,,,,,,,METAR,14.0
SCQP 171400Z 17009KT 130V200 CAVOK 19/11 Q1021,SCQP,2019-01-17T14:00:00Z,-38.92,-72.65,19.0,11.0,170,9,,6.21,30.147638,,,,,,,,,,,CAVOK,,,,,,,,VFR,,,,,,,,,,,,METAR,97.0
SCJO 171400Z 18008KT 9999 BKN018 14/10 Q1026,SCJO,2019-01-17T14:00:00Z,-40.6,-73.03,14.0,10.0,180,8,,6.21,30.295275,,,,,,,,,,,BKN,1800,,,,,,,MVFR,,,,,,,,,,,,METAR,65.0
SCSE 171400Z 27011KT 9999 FEW015 18/13 Q1016,SCSE,2019-01-17T14:00:00Z,-29.92,-71.2,18.0,13.0,270,11,,6.21,30.0,,,,,,,,,,,FEW,1500,,,,,,,VFR,,,,,,,,,,,,METAR,146.0
SCDA 171400Z 20009KT CAVOK 22/14 Q1014,SCDA,2019-01-17T14:00:00Z,-20.52,-70.17,22.0,14.0,200,9,,6.21,29.940945,,,,,,,,,,,CAVOK,,,,,,,,VFR,,,,,,,,,,,,METAR,52.0
SCAT 171400Z 36007KT 320V030 9999 OVC015 18/13 Q1018,SCAT,2019-01-17T14:00:00Z,-27.27,-70.77,18.0,13.0,360,7,,6.21,30.059055,,,,,,,,,,,OVC,1500,,,,,,,MVFR,,,,,,,,,,,,METAR,204.0
SCIE 171400Z 21006KT 160V250 CAVOK 19/09 Q1018,SCIE,2019-01-17T14:00:00Z,-36.77,-73.07,19.0,9.0,210,6,,6.21,30.059055,,,,,,,,,,,CAVOK,,,,,,,,VFR,,,,,,,,,,,,METAR,16.0
SCCF 171400Z 05005KT 350V100 CAVOK 20/00 Q1026,SCCF,2019-01-17T14:00:00Z,-22.5,-68.9,20.0,0.0,50,5,,6.21,30.295275,,,,,,,,,,,CAVOK,,,,,,,,VFR,,,,,,,,,,,,METAR,2312.0
SCBA 171400Z 31015KT 240V320 CAVOK 14/02 Q1024,SCBA,2019-01-17T14:00:00Z,-45.92,-71.67,14.0,2.0,310,15,,6.21,30.236221,,,,,,,,,,,CAVOK,,,,,,,,VFR,,,,,,,,,,,,METAR,524.0
SCAR 171400Z VRB03KT CAVOK 24/13 Q1014,SCAR,2019-01-17T14:00:00Z,-18.35,-70.32,24.0,13.0,0,3,,6.21,29.940945,,,,,,,,,,,CAVOK,,,,,,,,VFR,,,,,,,,,,,,METAR,59.0
SCFA 171400Z 20007KT 9999 FEW020 SCT250 20/14 Q1015 NOSIG,SCFA,2019-01-17T14:00:00Z,-23.42,-70.42,20.0,14.0,200,7,,6.21,29.970472,,,,,,TRUE,,,,,FEW,2000,SCT,25000,,,,,VFR,,,,,,,,,,,,METAR,120.0
SCIR 171400Z 22020KT 9999 SCT033 BKN036 15/09 Q1027,SCIR,2019-01-17T14:00:00Z,-33.67,-78.93,15.0,9.0,220,20,,6.21,30.324802,,,,,,,,,,,SCT,3300,BKN,3600,,,,,VFR,,,,,,,,,,,,METAR,29.0
SCCY 171400Z VRB03KT CAVOK 15/04 Q1024,SCCY,2019-01-17T14:00:00Z,-45.57,-72.1,15.0,4.0,0,3,,6.21,30.236221,,,,,,,,,,,CAVOK,,,,,,,,VFR,,,,,,,,,,,,METAR,311.0
SCIC 171400Z VRB04KT 9999 FEW040 SCT100 17/09 Q1018,SCIC,2019-01-17T14:00:00Z,-34.97,-71.22,17.0,9.0,0,4,,6.21,30.059055,,,,,,,,,,,FEW,4000,SCT,10000,,,,,VFR,,,,,,,,,,,,METAR,242.0
SCGE 171400Z 18010KT CAVOK 19/14 Q1018,SCGE,2019-01-17T14:00:00Z,-37.38,-72.42,19.0,14.0,180,10,,6.21,30.059055,,,,,,,,,,,CAVOK,,,,,,,,VFR,,,,,,,,,,,,METAR,114.0
SCRM 171400Z 30009KT 9999 BKN020 01/M02 Q0993 NOSIG,SCRM,2019-01-17T14:00:00Z,-62.18,-58.98,1.0,-2.0,300,9,,6.21,29.320866,,,,,,TRUE,,,,,BKN,2000,,,,,,,MVFR,,,,,,,,,,,,METAR,45.0
SCCH 171400Z 07002KT CAVOK 18/09 Q1018,SCCH,2019-01-17T14:00:00Z,-36.57,-72.02,18.0,9.0,70,2,,6.21,30.059055,,,,,,,,,,,CAVOK,,,,,,,,VFR,,,,,,,,,,,,METAR,148.0
SCTN 171400Z 19010KT 9999 FEW010 13/10 Q1027,SCTN,2019-01-17T14:00:00Z,-42.92,-72.7,13.0,10.0,190,10,,6.21,30.324802,,,,,,,,,,,FEW,1000,,,,,,,VFR,,,,,,,,,,,,METAR,4.0
SCPQ 171400Z 18011KT 140V220 CAVOK 14/08 Q1027,SCPQ,2019-01-17T14:00:00Z,-42.33,-73.72,14.0,8.0,180,11,,6.21,30.324802,,,,,,,,,,,CAVOK,,,,,,,,VFR,,,,,,,,,,,,METAR,5.0
SCIP 171400Z 14005KT 9999 BKN020 20/19 Q1026 NOSIG,SCIP,2019-01-17T14:00:00Z,-27.17,-109.43,20.0,19.0,140,5,,6.21,30.295275,,,,,,TRUE,,,,,BKN,2000,,,,,,,MVFR,,,,,,,,,,,,METAR,69.0
OERK 171400Z 34012KT 2000 BLDU NSC 17/M05 Q1019 NOSIG,OERK,2019-01-17T14:00:00Z,24.95,46.72,17.0,-5.0,340,12,,1.24,30.088583,,,,,,TRUE,,,,BLDU,CLR,,,,,,,,IFR,,,,,,,,,,,,METAR,612.0
OEMA 171400Z 29005KT CAVOK 22/M09 Q1016 NOSIG,OEMA,2019-01-17T14:00:00Z,24.55,39.7,22.0,-9.0,290,5,,6.21,30.0,,,,,,TRUE,,,,,CAVOK,,,,,,,,VFR,,,,,,,,,,,,METAR,631.0
OEJN 171400Z 36018KT CAVOK 24/11 Q1016 NOSIG,OEJN,2019-01-17T14:00:00Z,21.68,39.15,24.0,11.0,360,18,,6.21,30.0,,,,,,TRUE,,,,,CAVOK,,,,,,,,VFR,,,,,,,,,,,,METAR,15.0
OEDF 171400Z 32019KT 0500 BLDU NSC 20/M04 Q1017 NOSIG,OEDF,2019-01-17T14:00:00Z,26.47,49.8,20.0,-4.0,320,19,,0.31,30.029528,,,,,,TRUE,,,,BLDU,CLR,,,,,,,,LIFR,,,,,,,,,,,,METAR,22.0
MHCH 171400Z 04010KT 9999 FEW030 28/19,MHCH,2019-01-17T14:00:00Z,13.32,-87.15,28.0,19.0,40,10,,6.21,,,,,,,,,,,,FEW,3000,,,,,,,VFR,,,,,,,,,,,,METAR,48.0
MHLE 171400Z 06006KT 9999 BKN020 16/12,MHLE,2019-01-17T14:00:00Z,14.32,-88.15,16.0,12.0,60,6,,6.21,,,,,,,,,,,,BKN,2000,,,,,,,MVFR,,,,,,,,,,,,METAR,1100.0
MHNO 171400Z 33014KT 9999 SCT030 20/17 HZ,MHNO,2019-01-17T14:00:00Z,14.43,-89.18,20.0,17.0,330,14,,6.21,,,,,,,,,,,HZ,SCT,3000,,,,,,,VFR,,,,,,,,,,,,METAR,2.0
MHGS 171400Z 33002KT 4000 SCT004 BKN012 17/17 4KM ALL CL HZ,MHGS,2019-01-17T14:00:00Z,14.57,-88.6,17.0,17.0,330,2,,2.49,,,,,,,,,,,HZ,SCT,400,BKN,1200,,,,,IFR,,,,,,,,,,,,METAR,913.0
MHSR 171400Z 00000KT 6000 BR BKN006 OVC020 16/16 6KM ALL CL BR HZ,MHSR,2019-01-17T14:00:00Z,14.78,-88.78,16.0,16.0,0,0,,3.73,,,,,,,,,,,HZ BR BR,BKN,600,OVC,2000,,,,,IFR,,,,,,,,,,,,METAR,1079.0
MHPL 171400Z 00000KT 9999 BKN015 BKN080 24/23 Q1016 REDZ VCSH E SE S SO W HZ,MHPL,2019-01-17T14:00:00Z,15.27,-83.78,24.0,23.0,0,0,,6.21,30.0,,,,,,,,,,VCSH HZ,BKN,1500,BKN,8000,,,,,MVFR,,,,,,,,,,,,METAR,13.0
MHYR 171400Z 09002KT 9999 SCT020 BKN080 20/19 HZ,MHYR,2019-01-17T14:00:00Z,15.13,-87.12,20.0,19.0,90,2,,6.21,,,,,,,,,,,HZ,SCT,2000,BKN,8000,,,,,VFR,,,,,,,,,,,,METAR,670.0
MHTE 171400Z 04002KT 9999 BKN026TCU BKN080 22/21 Q1017 TCU ALL HZ,MHTE,2019-01-17T14:00:00Z,15.78,-87.48,22.0,21.0,40,2,,6.21,30.029528,,,,,,,,,,HZ,BKN,2600,BKN,8000,,,,,MVFR,,,,,,,,,,,,METAR,3.0
MHTR 171400Z 12003KT 5000 VCSH FEW008 SCT018 OVC070 23/22 Q1019 REDZ,MHTR,2019-01-17T14:00:00Z,15.93,-85.93,23.0,22.0,120,3,,3.11,30.088583,,,,,,,,,,VCSH,FEW,800,SCT,1800,OVC,7000,,,MVFR,,,,,,,,,,,,METAR,3.0
MHAM 171400Z 36006KT 9999 FEW028 26/21,MHAM,2019-01-17T14:00:00Z,13.27,-87.65,26.0,21.0,360,6,,6.21,,,,,,,,,,,,FEW,2800,,,,,,,VFR,,,,,,,,,,,,METAR,5.0
CXMI 171400Z AUTO 32008KT M06/ RMK AO1 PK WND 32017/1334 SLP208 T1055 52038,CXMI,2019-01-17T14:00:00Z,44.6,-63.53,-5.5,,320,8,,,,1020.8,,TRUE,TRUE,,,,,,,,,,,,,,,,3.8,,,,,,,,,,,METAR,15.0
CXIB 171400Z AUTO 26007G57KT M08/M14 RMK AO1 SOG 36 2036 PK WND 32057/1353 SLP138 T10811138,CXIB,2019-01-17T14:00:00Z,46.67,-60.38,-8.1,-13.8,260,7,57,,,1013.8,,TRUE,TRUE,,,,,,,,,,,,,,,,,,,,,,,,,,,METAR,8.0
CXHF 171400Z AUTO M26/M29 RMK AO1 T12611290,CXHF,2019-01-17T14:00:00Z,45.83,-75.65,-26.1,-29.0,,,,,,,,TRUE,TRUE,,,,,,,,,,,,,,,,,,,,,,,,,,,METAR,190.0
CXHA 171400Z AUTO 11005KT M03/M06 RMK AO1 SOG 02 8019 SLP238 T10311063,CXHA,2019-01-17T14:00:00Z,42.03,-82.9,-3.1,-6.3,110,5,,,,1023.8,,TRUE,TRUE,,,,,,,,,,,,,,,,,,,,,,,,,,,METAR,191.0
OEJB 171400Z AUTO 32021KT 1600 VV013 19/M06 Q1017 NOSIG,OEJB,2019-01-17T14:00:00Z,27.05,49.38,19.0,-6.0,320,21,,0.99,30.029528,,,TRUE,,,TRUE,,,,,OVX,0,,,,,,,LIFR,,,,,,,,,,,1300,METAR,8.0
WIMM 171400Z 26004KT 6000 BKN017 27/24 Q1010 NOSIG,WIMM,2019-01-17T14:00:00Z,3.57,98.67,27.0,24.0,260,4,,3.73,29.822834,,,,,,TRUE,,,,,BKN,1700,,,,,,,MVFR,,,,,,,,,,,,METAR,25.0
WADD 171400Z 06003KT 9999 FEW018 28/24 Q1008 NOSIG,WADD,2019-01-17T14:00:00Z,-8.73,115.17,28.0,24.0,60,3,,6.21,29.763779,,,,,,TRUE,,,,,FEW,1800,,,,,,,VFR,,,,,,,,,,,,METAR,216.0
DTKA 171400Z 31004KT 260V030 9999 FEW020 15/03 Q1016 NOSIG,DTKA,2019-01-17T14:00:00Z,36.98,8.88,15.0,3.0,310,4,,6.21,30.0,,,,,,TRUE,,,,,FEW,2000,,,,,,,VFR,,,,,,,,,,,,METAR,21.0
ZUUU 171400Z 10002MPS 030V150 6000 SCT050 08/03 Q1022 NOSIG,ZUUU,2019-01-17T14:00:00Z,30.58,103.95,8.0,3.0,100,4,,3.73,30.177166,,,,,,TRUE,,,,,SCT,5000,,,,,,,MVFR,,,,,,,,,,,,METAR,508.0
CZEV 171400Z AUTO 11011KT M18/M22 RMK AO1 SOG 49 8002 PK WND 11017/1347 SLP264 T11831221,CZEV,2019-01-17T14:00:00Z,68.32,-133.52,-18.3,-22.1,110,11,,,,1026.4,,TRUE,TRUE,,,,,,,,,,,,,,,,,,,,,,,,,,,METAR,103.0
WIEE 171400Z 01001KT 9999 FEW020 27/24 Q1010,WIEE,2019-01-17T14:00:00Z,-0.78,100.28,27.0,24.0,10,1,,6.21,29.822834,,,,,,,,,,,FEW,2000,,,,,,,VFR,,,,,,,,,,,,METAR,5.0
CWBY 171400Z AUTO 28014G24KT M15/M17 RMK AO1 SOG 13 1054 PK WND 28029/1310 SLP113 T11531173,CWBY,2019-01-17T14:00:00Z,49.82,-64.28,-15.3,-17.3,280,14,24,,,1011.3,,TRUE,TRUE,,,,,,,,,,,,,,,,,,,,,,,,,,,METAR,53.0
CWER 171400Z AUTO 24012KT RMK AO1 PK WND 25017/1304,CWER,2019-01-17T14:00:00Z,47.0,-70.82,,,240,12,,,,,,TRUE,TRUE,,,,,,,,,,,,,,,,,,,,,,,,,,,METAR,5.0
CXMM 171400Z AUTO 22003KT M35/M39 RMK AO1 SOG 28 8006 SLP356 T13521393 50002,CXMM,2019-01-17T14:00:00Z,56.65,-111.22,-35.2,-39.3,220,3,,,,1035.6,,TRUE,TRUE,,,,,,,,,,,,,,,,0.2,,,,,,,,,,,METAR,369.0
CWBK 171400Z AUTO 28023G31KT M11/M17 RMK AO1 SOG 72 1042 PK WND 27031/1333 SLP196 T11131173,CWBK,2019-01-17T14:00:00Z,45.77,-62.67,-11.3,-17.3,280,23,31,,,1019.6,,TRUE,TRUE,,,,,,,,,,,,,,,,,,,,,,,,,,,METAR,2.0
CERM 171400Z AUTO 30005KT M23/M29 RMK AO1 SOG 55 1033 SLP264 T12341287,CERM,2019-01-17T14:00:00Z,47.42,-68.32,-23.4,-28.7,300,5,,,,1026.4,,TRUE,TRUE,,,,,,,,,,,,,,,,,,,,,,,,,,,METAR,154.0
CAHR 171400Z AUTO 28010G15KT M15/M21 RMK AO1 SOG 36 1039 PK WND 27019/1338 SLP195 T11531208,CAHR,2019-01-17T14:00:00Z,46.35,-63.17,-15.3,-20.8,280,10,15,,,1019.5,,TRUE,TRUE,,,,,,,,,,,,,,,,,,,,,,,,,,,METAR,53.0
CWXI 171400Z AUTO 21021G32KT M03/M03 RMK AO1 3PAST HR 6019 PK WND 21032/1355 SLP977 P0001 T10271034 50003,CWXI,2019-01-17T14:00:00Z,51.02,-57.1,-2.7,-3.4,210,21,32,,,997.7,,TRUE,TRUE,,,,,,,,,,,,,,,,0.3,,,,,0.01,,,,,,METAR,6.0
CXZC 171400Z AUTO 23002KT M30/M33 RMK AO1 SOG 51 6006 SLP216 T12991330,CXZC,2019-01-17T14:00:00Z,51.3,-80.62,-29.9,-33.0,230,2,,,,1021.6,,TRUE,TRUE,,,,,,,,,,,,,,,,,,,,,,,,,,,METAR,9.0
CXWN 171400Z AUTO 34003KT M18/M22 RMK AO1 SLP250 T11821218 58001,CXWN,2019-01-17T14:00:00Z,49.88,-97.13,-18.2,-21.8,340,3,,,,1025.0,,TRUE,TRUE,,,,,,,,,,,,,,,,-0.1,,,,,,,,,,,METAR,230.0
CWJI 171400Z AUTO 03010KT M16/M18 RMK AO1 SLP254 T11581184 51011,CWJI,2019-01-17T14:00:00Z,49.72,-105.92,-15.8,-18.4,30,10,,,,1025.4,,TRUE,TRUE,,,,,,,,,,,,,,,,1.1,,,,,,,,,,,METAR,724.0
CTNK 171400Z AUTO 00000KT M29/M32 RMK AO1 SOG 48 0010 SLP304 T12871320 50002,CTNK,2019-01-17T14:00:00Z,45.53,-78.27,-28.7,-32.0,0,0,,,,1030.4,,TRUE,TRUE,,,,,,,,,,,,,,,,0.2,,,,,,,,,,,METAR,410.0
CWKK 171400Z AUTO 26004KT M19/M22 RMK AO1 SOG 42 6017 SLP217 T11921220,CWKK,2019-01-17T14:00:00Z,49.72,-88.33,-19.2,-22.0,260,4,,,,1021.7,,TRUE,TRUE,,,,,,,,,,,,,,,,,,,,,,,,,,,METAR,260.0
CWJR 171400Z AUTO 01001KT M03/M06 RMK AO1 SOG 06 7031 SLP118 T10291058,CWJR,2019-01-17T14:00:00Z,49.07,-116.5,-2.9,-5.8,10,1,,,,1011.8,,TRUE,TRUE,,,,,,,,,,,,,,,,,,,,,,,,,,,METAR,646.0
CWJW 171400Z AUTO 01008KT M11/M14 RMK AO1 SOG 16 8012 SLP184 T11101141,CWJW,2019-01-17T14:00:00Z,52.93,-118.03,-11.0,-14.1,10,8,,,,1018.4,,TRUE,TRUE,,,,,,,,,,,,,,,,,,,,,,,,,,,METAR,1020.0
CWJV 171400Z AUTO 00000KT M03/M05 RMK AO1 SLP080 T10251047 56026,CWJV,2019-01-17T14:00:00Z,50.22,-119.18,-2.5,-4.7,0,0,,,,1008.0,,TRUE,TRUE,,,,,,,,,,,,,,,,-2.6,,,,,,,,,,,METAR,556.0
CWJT 171400Z AUTO 00000KT M28/M31 RMK AO1 SLP330 T12791309 51013,CWJT,2019-01-17T14:00:00Z,46.07,-74.57,-27.9,-30.9,0,0,,,,1033.0,,TRUE,TRUE,,,,,,,,,,,,,,,,1.3,,,,,,,,,,,METAR,239.0
CXTP 171400Z AUTO 16009G16KT M02/M02 RMK AO1 6PAST HR SOG 55 8026 PK WND 16018/1344 SLP061 P0002 T10151019 50006,CXTP,2019-01-17T14:00:00Z,48.55,-53.97,-1.5,-1.9,160,9,16,,,1006.1,,TRUE,TRUE,,,,,,,,,,,,,,,,0.6,,,,,0.02,,,,,,METAR,107.0
CWKG 171400Z AUTO 33007KT M10/M16 RMK AO1 2PAST HR SOG 06 2037 SLP236 P0001 T11041158 50002,CWKG,2019-01-17T14:00:00Z,44.43,-65.2,-10.4,-15.8,330,7,,,,1023.6,,TRUE,TRUE,,,,,,,,,,,,,,,,0.2,,,,,0.01,,,,,,METAR,165.0
CWJX 171400Z AUTO 06012KT M16/M19 RMK AO1 SOG 03 0000 SLP276 T11641190,CWJX,2019-01-17T14:00:00Z,50.88,-109.5,-16.4,-19.0,60,12,,,,1027.6,,TRUE,TRUE,,,,,,,,,,,,,,,,,,,,,,,,,,,METAR,672.0
CWKH 171400Z AUTO 04/03 RMK AO1 SLP972 T00390032 56005,CWKH,2019-01-17T14:00:00Z,48.57,-123.55,3.9,3.2,,,,,,997.2,,TRUE,TRUE,,,,,,,,,,,,,,,,-0.5,,,,,,,,,,,METAR,366.0
DTTG 171400Z 04006KT 010V100 9999 FEW030 17/05 Q1016 NOSIG,DTTG,2019-01-17T14:00:00Z,33.73,9.92,17.0,5.0,40,6,,6.21,30.0,,,,,,TRUE,,,,,FEW,3000,,,,,,,VFR,,,,,,,,,,,,METAR,5.0
CXSH 171400Z AUTO 31001KT M24/M29 RMK AO1 SLP311 T12421288 52018,CXSH,2019-01-17T14:00:00Z,46.58,-72.73,-24.2,-28.8,310,1,,,,1031.1,,TRUE,TRUE,,,,,,,,,,,,,,,,1.8,,,,,,,,,,,METAR,110.0
CXRH 171400Z AUTO 24012G21KT RMK AO1 21,CXRH,2019-01-17T14:00:00Z,49.57,-57.88,,,240,12,21,,,,,TRUE,TRUE,,,,,,,,,,,,,,,,,,,,,,,,,,,METAR,68.0
CXOX 171400Z AUTO 29006KT M29/M32 RMK AO1 SOG 52 6003 SLP307 T12911315,CXOX,2019-01-17T14:00:00Z,55.15,-105.27,-29.1,-31.5,290,6,,,,1030.7,,TRUE,TRUE,,,,,,,,,,,,,,,,,,,,,,,,,,,METAR,379.0
CXNM 171400Z AUTO 27026G33KT M14/M15 RMK AO1 PK WND 28036/1312 T11381147,CXNM,2019-01-17T14:00:00Z,46.82,-60.67,-13.8,-14.7,270,26,33,,,,,TRUE,TRUE,,,,,,,,,,,,,,,,,,,,,,,,,,,METAR,439.0
CXTH 171400Z AUTO 07010KT M24/M26 RMK AO1 8PAST HR M P0007 T12401261,CXTH,2019-01-17T14:00:00Z,53.63,-111.68,-24.0,-26.1,70,10,,,,,,TRUE,TRUE,,,,,,,,,,,,,,,,,,,,,0.07,,,,,,METAR,678.0
CXSP 171400Z AUTO 03006KT M26/M29 RMK AO1 T12641287,CXSP,2019-01-17T14:00:00Z,54.02,-111.27,-26.4,-28.7,30,6,,,,,,TRUE,TRUE,,,,,,,,,,,,,,,,,,,,,,,,,,,METAR,649.0
CXSL 171400Z AUTO 09004KT M25/M28 RMK AO1 T12511276,CXSL,2019-01-17T14:00:00Z,54.28,-112.5,-25.1,-27.6,90,4,,,,,,TRUE,TRUE,,,,,,,,,,,,,,,,,,,,,,,,,,,METAR,680.0
CXSC 171400Z AUTO 06006KT M15/M16 RMK AO1 T11531163,CXSC,2019-01-17T14:00:00Z,50.3,-110.08,-15.3,-16.3,60,6,,,,,,TRUE,TRUE,,,,,,,,,,,,,,,,,,,,,,,,,,,METAR,800.0
CXBI 171400Z AUTO 11003KT M15/M20 RMK AO1 SLP287 T11491203 58005,CXBI,2019-01-17T14:00:00Z,44.48,-79.55,-14.9,-20.3,110,3,,,,1028.7,,TRUE,TRUE,,,,,,,,,,,,,,,,-0.5,,,,,,,,,,,METAR,289.0
CWKX 171400Z AUTO 06004KT M24/M27 RMK AO1 SOG 37 6016 SLP185 T12411269,CWKX,2019-01-17T14:00:00Z,58.43,-130.02,-24.1,-26.9,60,4,,,,1018.5,,TRUE,TRUE,,,,,,,,,,,,,,,,,,,,,,,,,,,METAR,793.0
CWZG 171400Z AUTO 03005KT M10/M12 RMK AO1 SOG 19 6019 SLP200 T11041124,CWZG,2019-01-17T14:00:00Z,51.2,-115.53,-10.4,-12.4,30,5,,,,1020.0,,TRUE,TRUE,,,,,,,,,,,,,,,,,,,,,,,,,,,METAR,1397.0
CXPL 171400Z AUTO 05009KT M15/M16 RMK AO1 T11541164,CXPL,2019-01-17T14:00:00Z,51.13,-111.7,-15.4,-16.4,50,9,,,,,,TRUE,TRUE,,,,,,,,,,,,,,,,,,,,,,,,,,,METAR,750.0
CYBV 171400Z 32008KT 15SM SKC M26/M29 A3016 RMK SLP247,CYBV,2019-01-17T14:00:00Z,52.35,-97.03,-26.0,-29.0,320,8,,15.0,30.159449,1024.7,,,,,,,,,,SKC,,,,,,,,VFR,,,,,,,,,,,,METAR,222.0
CYBL 171400Z 09003KT 1 1/2SM -RA BR OVC002 02/02 A2950 RMK ST8 WND ESTD SLP996,CYBL,2019-01-17T14:00:00Z,49.95,-125.27,2.0,2.0,90,3,,1.5,29.500984,999.6,,,,,,,,,-RA BR,OVC,200,,,,,,,LIFR,,,,,,,,,,,,METAR,106.0
CYCQ 171400Z 07006KT 10SM -SN OVC018 M19/M22 A3017 RMK SC8 /S0.2/AFT 00Z SLP277,CYCQ,2019-01-17T14:00:00Z,55.7,-121.62,-19.0,-22.0,70,6,,10.0,30.171259,1027.7,,,,,,,,,-SN,OVC,1800,,,,,,,MVFR,,,,,,,,,,,,METAR,609.0
CYCP 171400Z 00000KT 15SM BKN078 M08/M09 A2975 RMK AC7 SLP120,CYCP,2019-01-17T14:00:00Z,52.13,-119.28,-8.0,-9.0,0,0,,15.0,29.749016,1012.0,,,,,,,,,,BKN,7800,,,,,,,VFR,,,,,,,,,,,,METAR,683.0
CPRO 171400Z AUTO 04009KT M15/M16 RMK AO1 T11471162,CPRO,2019-01-17T14:00:00Z,50.83,-112.05,-14.7,-16.2,40,9,,,,,,TRUE,TRUE,,,,,,,,,,,,,,,,,,,,,,,,,,,METAR,714.0
CXVW 171400Z AUTO 02007KT M18/M21 RMK AO1 T11831208,CXVW,2019-01-17T14:00:00Z,55.1,-117.2,-18.3,-20.8,20,7,,,,,,TRUE,TRUE,,,,,,,,,,,,,,,,,,,,,,,,,,,METAR,698.0
CWRM 171400Z AUTO 12004KT M15/M17 RMK AO1 SOG 10 8012 SLP238 T11451174,CWRM,2019-01-17T14:00:00Z,52.42,-114.92,-14.5,-17.4,120,4,,,,1023.8,,TRUE,TRUE,,,,,,,,,,,,,,,,,,,,,,,,,,,METAR,988.0
CYEV 171400Z 09009KT 15SM SCT120 BKN240 M19/M24 A3028 RMK AC3CI3 SLP267,CYEV,2019-01-17T14:00:00Z,68.32,-133.5,-19.0,-24.0,90,9,,15.0,30.280512,1026.7,,,,,,,,,,SCT,12000,BKN,24000,,,,,VFR,,,,,,,,,,,,METAR,68.0
CZPS 171400Z AUTO 08005KT M18/M19 RMK AO1 T11771194,CZPS,2019-01-17T14:00:00Z,52.43,-113.6,-17.7,-19.4,80,5,,,,,,TRUE,TRUE,,,,,,,,,,,,,,,,,,,,,,,,,,,METAR,965.0
CZOL 171400Z AUTO 08003KT M21/M24 RMK AO1 T12141236,CZOL,2019-01-17T14:00:00Z,53.65,-113.35,-21.4,-23.6,80,3,,,,,,TRUE,TRUE,,,,,,,,,,,,,,,,,,,,,,,,,,,METAR,665.0
CXMO 171400Z AUTO 08007KT M16/M18 RMK AO1 T11611180 50004,CXMO,2019-01-17T14:00:00Z,51.67,-112.68,-16.1,-18.0,80,7,,,,,,TRUE,TRUE,,,,,,,,,,,,,,,,0.4,,,,,,,,,,,METAR,836.0
CYBW 171400Z AUTO 10009KT 9SM -SN OVC010 M13/M15 A2998 RMK SLP235,CYBW,2019-01-17T14:00:00Z,51.1,-114.37,-13.0,-15.0,100,9,,9.0,29.97933,1023.5,,TRUE,,,,,,,-SN,OVC,1000,,,,,,,MVFR,,,,,,,,,,,,METAR,1200.0
CWLB 171400Z AUTO 04002KT M29/M33 RMK AO1 SOG 22 8006 SLP339 T12931326,CWLB,2019-01-17T14:00:00Z,54.77,-112.02,-29.3,-32.6,40,2,,,,1033.9,,TRUE,TRUE,,,,,,,,,,,,,,,,,,,,,,,,,,,METAR,567.0
CZHY 171400Z AUTO 00000KT M35/M38 RMK AO1 SOG 28 6018 SLP367 T13491384 50002,CZHY,2019-01-17T14:00:00Z,60.83,-115.78,-34.9,-38.4,0,0,,,,1036.7,,TRUE,TRUE,,,,,,,,,,,,,,,,0.2,,,,,,,,,,,SPECI,164.0
CZFS 171400Z AUTO 10003KT M30/M33 RMK AO1 SOG 37 6020 SLP358 T12951327,CZFS,2019-01-17T14:00:00Z,61.77,-121.23,-29.5,-32.7,100,3,,,,1035.8,,TRUE,TRUE,,,,,,,,,,,,,,,,,,,,,,,,,,,SPECI,168.0
CWMT 171400Z AUTO 26002KT M38/M41 RMK AO1 SOG 34 6015 SLP369 T13781414,CWMT,2019-01-17T14:00:00Z,63.13,-117.25,-37.8,-41.4,260,2,,,,1036.9,,TRUE,TRUE,,,,,,,,,,,,,,,,,,,,,,,,,,,SPECI,271.0
CPIR 171400Z AUTO 06005KT M12/M13 RMK AO1 T11161129,CPIR,2019-01-17T14:00:00Z,49.9,-112.73,-11.6,-12.9,60,5,,,,,,TRUE,TRUE,,,,,,,,,,,,,,,,,,,,,,,,,,,METAR,858.0
CPFI 171400Z AUTO 07006KT M12/M13 RMK AO1 T11171127,CPFI,2019-01-17T14:00:00Z,49.8,-112.03,-11.7,-12.7,70,6,,,,,,TRUE,TRUE,,,,,,,,,,,,,,,,,,,,,,,,,,,METAR,833.0
CPEH 171400Z AUTO 06004KT M12/M14 RMK AO1 T11241135,CPEH,2019-01-17T14:00:00Z,50.18,-112.43,-12.4,-13.5,60,4,,,,,,TRUE,TRUE,,,,,,,,,,,,,,,,,,,,,,,,,,,METAR,801.0
CPBT 171400Z AUTO 07008KT M10/M11 RMK AO1 T11041114,CPBT,2019-01-17T14:00:00Z,49.57,-113.05,-10.4,-11.4,70,8,,,,,,TRUE,TRUE,,,,,,,,,,,,,,,,,,,,,,,,,,,METAR,980.0
CPSV 171400Z AUTO 05005KT M13/M14 RMK AO1 T11301138,CPSV,2019-01-17T14:00:00Z,49.92,-110.92,-13.0,-13.8,50,5,,,,,,TRUE,TRUE,,,,,,,,,,,,,,,,,,,,,,,,,,,METAR,766.0
CPST 171400Z AUTO 06002KT M14/M15 RMK AO1 T11401152,CPST,2019-01-17T14:00:00Z,51.03,-113.28,-14.0,-15.2,60,2,,,,,,TRUE,TRUE,,,,,,,,,,,,,,,,,,,,,,,,,,,METAR,967.0
CPRY 171400Z AUTO 05006KT M10/M11 RMK AO1 T11031109,CPRY,2019-01-17T14:00:00Z,49.48,-112.68,-10.3,-10.9,50,6,,,,,,TRUE,TRUE,,,,,,,,,,,,,,,,,,,,,,,,,,,METAR,937.0
RJOS 171400Z 33014G24KT 9999 FEW030 SCT060 BKN080 08/M03 Q1019,RJOS,2019-01-17T14:00:00Z,34.12,134.62,8.0,-3.0,330,14,24,6.21,30.088583,,,,,,,,,,,FEW,3000,SCT,6000,BKN,8000,,,VFR,,,,,,,,,,,,METAR,11.0
RJSM 171400Z 29019G29KT 1500 R28/P1800N -SHSN FEW006 BKN008 BKN015 M07/M10 Q1006,RJSM,2019-01-17T14:00:00Z,40.7,141.37,-7.0,-10.0,290,19,29,0.93,29.704725,,,,,,,,,,-SHSN,FEW,600,BKN,800,BKN,1500,,,LIFR,,,,,,,,,,,,METAR,36.0
RORY 171400Z AUTO 35015KT 330V030 9999 SCT046 15/06 Q1024,RORY,2019-01-17T14:00:00Z,27.05,128.4,15.0,6.0,350,15,,6.21,30.236221,,,TRUE,,,,,,,,SCT,4600,,,,,,,VFR,,,,,,,,,,,,METAR,16.0
CWSW 171400Z 36008KT 12SM VCSH SCT026 BKN047 M08/M10 A2996 RMK SC4SC3 SH S LWR VIS S SLP208,CWSW,2019-01-17T14:00:00Z,49.75,-114.87,-8.0,-10.0,360,8,,12.0,29.958662,1020.8,,,,,,,,,VCSH,SCT,2600,BKN,4700,,,,,VFR,,,,,,,,,,,,METAR,1138.0
WMAU 171400Z AUTO 04014KT 330V080 //// // 27/24 Q//// QFF1009,WMAU,2019-01-17T14:00:00Z,2.38,103.88,27.0,24.0,40,14,,0.63,,,,TRUE,,,,,,,,,,,,,,,,,,,,,,,,,,,,SPECI,45.0
ROYN 171400Z AUTO 02023KT 9999 FEW031 SCT033 BKN043 18/13 Q1025,ROYN,2019-01-17T14:00:00Z,24.47,122.97,18.0,13.0,20,23,,6.21,30.265747,,,TRUE,,,,,,,,FEW,3100,SCT,3300,BKN,4300,,,VFR,,,,,,,,,,,,METAR,17.0
CWEP 171400Z AUTO 27021G28KT M11/M16 RMK AO1 SOG 41 1045 PK WND 27031/1342 SLP180 T11051159,CWEP,2019-01-17T14:00:00Z,46.45,-61.97,-10.5,-15.9,270,21,28,,,1018.0,,TRUE,TRUE,,,,,,,,,,,,,,,,,,,,,,,,,,,METAR,11.0
WMBA 171400Z 00000KT 7000 -RA SCT029 SCT160 OVC260 24/24 Q1010,WMBA,2019-01-17T14:00:00Z,4.22,100.7,24.0,24.0,0,0,,4.35,29.822834,,,,,,,,,,-RA,SCT,2900,SCT,16000,OVC,26000,,,MVFR,,,,,,,,,,,,METAR,8.0
CWZZ 171400Z AUTO ///// ////SM NCD M19/M21 A2934,CWZZ,2019-01-17T14:00:00Z,58.32,-62.57,-19.0,-21.0,,,,,29.338583,,,TRUE,,,,,,,,CLR,,,,,,,,,,,,,,,,,,,,METAR,483.0
CWUW 171400Z AUTO 09013KT ////SM NCD M32/M35 A2964,CWUW,2019-01-17T14:00:00Z,68.65,-71.17,-32.0,-35.0,90,13,,,29.639763,,,TRUE,,,,,,,,CLR,,,,,,,,,,,,,,,,,,,,METAR,527.0
CYDB 171400Z AUTO 30003KT 9SM OVC011 M12/M14 A2972 RMK SLP133,CYDB,2019-01-17T14:00:00Z,61.37,-139.05,-12.0,-14.0,300,3,,9.0,29.719488,1013.3,,TRUE,,,,,,,,OVC,1100,,,,,,,MVFR,,,,,,,,,,,,METAR,801.0
MYNN 171400Z 08008KT 9999 FEW020 23/15 A3020,MYNN,2019-01-17T14:00:00Z,25.03,-77.47,23.0,15.0,80,8,,6.21,30.200787,,,,,,,,,,,FEW,2000,,,,,,,VFR,,,,,,,,,,,,METAR,3.0
CWEH 171400Z AUTO 06004KT M12/M13 RMK AO1 SLP214 T11211134 54000,CWEH,2019-01-17T14:00:00Z,49.42,-108.97,-12.1,-13.4,60,4,,,,1021.4,,TRUE,TRUE,,,,,,,,,,,,,,,,,,,,,,,,,,,METAR,1078.0
TNCA 171400Z 10021KT 9999 SCT019 28/22 Q1016 NOSIG,TNCA,2019-01-17T14:00:00Z,12.5,-70.0,28.0,22.0,100,21,,6.21,30.0,,,,,,TRUE,,,,,SCT,1900,,,,,,,VFR,,,,,,,,,,,,METAR,18.0
CXDI 171400Z AUTO 08001KT M10/M13 RMK AO1 SLP266 T10961127 57012,CXDI,2019-01-17T14:00:00Z,42.87,-80.55,-9.6,-12.7,80,1,,,,1026.6,,TRUE,TRUE,,,,,,,,,,,,,,,,-1.2,,,,,,,,,,,METAR,232.0
CXCA 171400Z AUTO 18001KT M21/M23 RMK AO1 SOG 19 8022 SLP240 T12101233,CXCA,2019-01-17T14:00:00Z,49.15,-88.35,-21.0,-23.3,180,1,,,,1024.0,,TRUE,TRUE,,,,,,,,,,,,,,,,,,,,,,,,,,,METAR,228.0
CXBO 171400Z AUTO 25006KT RMK AO1,CXBO,2019-01-17T14:00:00Z,46.83,-71.2,,,250,6,,,,,,TRUE,TRUE,,,,,,,,,,,,,,,,,,,,,,,,,,,METAR,100.0
CXKT 171400Z AUTO 28011G20KT M11/M18 RMK AO1 SOG 08 1037 PK WND 27020/1353 SLP223 T11121176,CXKT,2019-01-17T14:00:00Z,45.07,-64.48,-11.2,-17.6,280,11,20,,,1022.3,,TRUE,TRUE,,,,,,,,,,,,,,,,,,,,,,,,,,,METAR,49.0
CXBK 171400Z AUTO 03003KT M16/M18 RMK AO1 SOG 02 3014 SLP256 T11591178,CXBK,2019-01-17T14:00:00Z,50.2,-104.7,-15.9,-17.8,30,3,,,,1025.6,,TRUE,TRUE,,,,,,,,,,,,,,,,,,,,,,,,,,,METAR,580.0
CWSS 171400Z AUTO 31008KT M16/M23 RMK AO1 SOG 09 3033 SLP270 T11611230,CWSS,2019-01-17T14:00:00Z,45.2,-67.25,-16.1,-23.0,310,8,,,,1027.0,,TRUE,TRUE,,,,,,,,,,,,,,,,,,,,,,,,,,,METAR,26.0
CWRN 171400Z AUTO 30024KT M08/M14 RMK AO1 PK WND 29032/1303 SLP174 T10761136 51046,CWRN,2019-01-17T14:00:00Z,45.35,-60.98,-7.6,-13.6,300,24,,,,1017.4,,TRUE,TRUE,,,,,,,,,,,,,,,,4.6,,,,,,,,,,,METAR,8.0
CWBV 171400Z AUTO 31018G23KT M07/M16 RMK AO1 PK WND 31028/1317 SLP192 T10651160 51047,CWBV,2019-01-17T14:00:00Z,44.82,-62.32,-6.5,-16.0,310,18,23,,,1019.2,,TRUE,TRUE,,,,,,,,,,,,,,,,4.7,,,,,,,,,,,METAR,10.0
CWJD 171400Z AUTO 30004KT M28/M31 RMK AO1 SOG 33 3003 SLP270 T12781310,CWJD,2019-01-17T14:00:00Z,53.17,-99.27,-27.8,-31.0,300,4,,,,1027.0,,TRUE,TRUE,,,,,,,,,,,,,,,,,,,,,,,,,,,METAR,223.0
CWEQ 171400Z AUTO 22007KT M22/M25 RMK AO1 SOG 09 3004 SLP274 T12201250,CWEQ,2019-01-17T14:00:00Z,52.12,-101.22,-22.0,-25.0,220,7,,,,1027.4,,TRUE,TRUE,,,,,,,,,,,,,,,,,,,,,,,,,,,METAR,335.0
CWOY 171400Z AUTO 33002KT M21/M24 RMK AO1 SOG 01 2008 SLP294 T12141240,CWOY,2019-01-17T14:00:00Z,51.77,-104.2,-21.4,-24.0,330,2,,,,1029.4,,TRUE,TRUE,,,,,,,,,,,,,,,,,,,,,,,,,,,METAR,560.0
CWKO 171400Z AUTO 01003KT M14/M16 RMK AO1 2PAST HR SOG 15 1008 SLP233 P0001 T11421159 50002,CWKO,2019-01-17T14:00:00Z,49.17,-105.97,-14.2,-15.9,10,3,,,,1023.3,,TRUE,TRUE,,,,,,,,,,,,,,,,0.2,,,,,0.01,,,,,,METAR,917.0
SEQM 171400Z 19004KT 9999 BKN026 15/11 Q1027 NOSIG RMK A3035,SEQM,2019-01-17T14:00:00Z,-0.12,-78.35,15.0,11.0,190,4,,6.21,30.324802,,,,,,TRUE,,,,,BKN,2600,,,,,,,MVFR,,,,,,,,,,,,METAR,2400.0
WMKA 171400Z 04003KT 340V100 9999 FEW030 SCT140 BKN280 27/23 Q1010,WMKA,2019-01-17T14:00:00Z,6.2,100.4,27.0,23.0,40,3,,6.21,29.822834,,,,,,,,,,,FEW,3000,SCT,14000,BKN,28000,,,VFR,,,,,,,,,,,,METAR,5.0
SBPS 171400Z 08010KT 9999 FEW020 30/22 Q1017,SBPS,2019-01-17T14:00:00Z,-16.43,-39.07,30.0,22.0,80,10,,6.21,30.029528,,,,,,,,,,,FEW,2000,,,,,,,VFR,,,,,,,,,,,,METAR,51.0
SECU 171400Z 14001KT 9999 FEW010 OVC040 15/13 Q1028,SECU,2019-01-17T14:00:00Z,-2.87,-78.97,15.0,13.0,140,1,,6.21,30.35433,,,,,,,,,,,FEW,1000,OVC,4000,,,,,VFR,,,,,,,,,,,,METAR,2531.0
SETU 171400Z 06002KT 9999 4000SW -DZ FEW010 OVC020 11/09 Q1034,SETU,2019-01-17T14:00:00Z,0.82,-77.7,11.0,9.0,60,2,,6.21,30.531496,,,,,,,,,,-DZ,FEW,1000,OVC,2000,,,,,MVFR,,,,,,,,,,,,METAR,2940.0
SERO 171400Z 00000KT 9999 FEW013 BKN080 25/23 Q1013,SERO,2019-01-17T14:00:00Z,-3.43,-79.98,25.0,23.0,0,0,,6.21,29.911417,,,,,,,,,,,FEW,1300,BKN,8000,,,,,VFR,,,,,,,,,,,,METAR,51.0
SEGU 171400Z 07005KT 9999 VCSH FEW013 BKN020 BKN090 25/23 Q1013 NOSIG RMK A2991,SEGU,2019-01-17T14:00:00Z,-2.13,-79.87,25.0,23.0,70,5,,6.21,29.911417,,,,,,TRUE,,,,VCSH,FEW,1300,BKN,2000,BKN,9000,,,MVFR,,,,,,,,,,,,METAR,9.0
SELT 171400Z 16012KT 9999 FEW015 BKN030 13/10 Q1031,SELT,2019-01-17T14:00:00Z,-0.92,-78.62,13.0,10.0,160,12,,6.21,30.442913,,,,,,,,,,,FEW,1500,BKN,3000,,,,,MVFR,,,,,,,,,,,,METAR,2785.0
SEMT 171400Z 26006KT 9999 FEW023 26/23 Q1013,SEMT,2019-01-17T14:00:00Z,-0.95,-80.67,26.0,23.0,260,6,,6.21,29.911417,,,,,,,,,,,FEW,2300,,,,,,,VFR,,,,,,,,,,,,METAR,14.0
FQVL 171400Z 05006KT 9999 TS FEW010 BKN018 BKN020 FEW025CB 29/26 Q1002 RMK CB TO N/NW,FQVL,2019-01-17T14:00:00Z,-22.0,35.32,29.0,26.0,50,6,,6.21,29.586615,,,,,,,,,,TS,FEW,1000,BKN,1800,BKN,2000,FEW,2500,MVFR,,,,,,,,,,,,METAR,21.0
CXGH 171400Z AUTO 31003KT M19/M22 RMK AO1 SLP243 T11941224 55001,CXGH,2019-01-17T14:00:00Z,50.63,-97.0,-19.4,-22.4,310,3,,,,1024.3,,TRUE,TRUE,,,,,,,,,,,,,,,,-0.1,,,,,,,,,,,METAR,217.0
CXET 171400Z AUTO 13003KT M15/M21 RMK AO1 SOG 04 6004 SLP280 T11481208,CXET,2019-01-17T14:00:00Z,44.23,-79.78,-14.8,-20.8,130,3,,,,1028.0,,TRUE,TRUE,,,,,,,,,,,,,,,,,,,,,,,,,,,METAR,251.0
CXEC 171400Z AUTO 07009KT M20/M23 RMK AO1 SOG 24 7004 SLP302 T12011227,CXEC,2019-01-17T14:00:00Z,53.57,-113.52,-20.1,-22.7,70,9,,,,1030.2,,TRUE,TRUE,,,,,,,,,,,,,,,,,,,,,,,,,,,METAR,671.0
WMKB 171400Z 34003KT 290V030 8000 FEW024 SCT140 BKN270 27/24 Q1009 NOSIG,WMKB,2019-01-17T14:00:00Z,5.47,100.37,27.0,24.0,340,3,,4.97,29.793306,,,,,,TRUE,,,,,FEW,2400,SCT,14000,BKN,27000,,,MVFR,,,,,,,,,,,,METAR,4.0
WMKC 171400Z 07011KT 040V100 9999 FEW010 SCT020 BKN220 27/23 Q1011,WMKC,2019-01-17T14:00:00Z,6.17,102.27,27.0,23.0,70,11,,6.21,29.852362,,,,,,,,,,,FEW,1000,SCT,2000,BKN,22000,,,VFR,,,,,,,,,,,,METAR,5.0
CYFO 171400Z 31007KT 15SM SKC M28/M32 A3021 RMK SLP275,CYFO,2019-01-17T14:00:00Z,54.67,-101.67,-28.0,-32.0,310,7,,15.0,30.209646,1027.5,,,,,,,,,,SKC,,,,,,,,VFR,,,,,,,,,,,,METAR,304.0
CWLP 171400Z AUTO 11029G37KT 08/04 RMK AO1 2PAST HR 5002 PK WND 11042/1303 SLP939 P0001 T00830041 50004,CWLP,2019-01-17T14:00:00Z,50.93,-127.63,8.3,4.1,110,29,37,,,993.9,,TRUE,TRUE,,,,,,,,,,,,,,,,0.4,,,,,0.01,,,,,,METAR,17.0
WMKD 171400Z 35004KT 300V030 9999 FEW024 SCT160 BKN280 25/23 Q1011 NOSIG,WMKD,2019-01-17T14:00:00Z,3.77,103.22,25.0,23.0,350,4,,6.21,29.852362,,,,,,TRUE,,,,,FEW,2400,SCT,16000,BKN,28000,,,VFR,,,,,,,,,,,,METAR,16.0
UHBB 171400Z 29003MPS CAVOK M21/M31 Q1022 R36/090060 NOSIG RMK QFE749/0998,UHBB,2019-01-17T14:00:00Z,50.43,127.42,-21.0,-31.0,290,6,,6.21,30.177166,,,,,,TRUE,,,,,CAVOK,,,,,,,,VFR,,,,,,,,,,,,METAR,195.0
WMKN 171400Z 06007KT 010V130 9999 SCT022 BKN150 27/24 Q1011,WMKN,2019-01-17T14:00:00Z,5.37,103.08,27.0,24.0,60,7,,6.21,29.852362,,,,,,,,,,,SCT,2200,BKN,15000,,,,,VFR,,,,,,,,,,,,METAR,6.0
WMKM 171400Z 00000KT 8000 FEW010 SCT027 BKN260 24/24 Q1011,WMKM,2019-01-17T14:00:00Z,2.27,102.25,24.0,24.0,0,0,,4.97,29.852362,,,,,,,,,,,FEW,1000,SCT,2700,BKN,26000,,,MVFR,,,,,,,,,,,,METAR,9.0
SESM 171400Z 31005KT 290V350 9999 FEW020 BKN026 OVC080 20/18 Q1021 RMK A3016,SESM,2019-01-17T14:00:00Z,-1.5,-78.07,20.0,18.0,310,5,,6.21,30.147638,,,,,,,,,,,FEW,2000,BKN,2600,OVC,8000,,,MVFR,,,,,,,,,,,,METAR,1056.0
SEST 171400Z 16009KT 9999 VCSH SCT013 BKN033 25/23 Q1010 RMK A2984,SEST,2019-01-17T14:00:00Z,-0.9,-89.58,25.0,23.0,160,9,,6.21,29.822834,,,,,,,,,,VCSH,SCT,1300,BKN,3300,,,,,VFR,,,,,,,,,,,,METAR,6.0
SEJD 171400Z 28003KT 9999 SCT010 BKN100 23/23 Q1017 RMK A3004,SEJD,2019-01-17T14:00:00Z,-1.07,-77.58,23.0,23.0,280,3,,6.21,30.029528,,,,,,,,,,,SCT,1000,BKN,10000,,,,,VFR,,,,,,,,,,,,METAR,375.0
SECA 171400Z 18002KT 9999 BKN040 21/19 Q1019,SECA,2019-01-17T14:00:00Z,-4.0,-79.37,21.0,19.0,180,2,,6.21,30.088583,,,,,,,,,,,BKN,4000,,,,,,,VFR,,,,,,,,,,,,METAR,1121.0
DTTZ 171400Z 080`EZE????&U6L? CAVOK 18/03 Q1015 NOSIG,DTTZ,2019-01-17T14:00:00Z,33.92,8.08,18.0,3.0,,,,6.21,29.970472,,,,,,TRUE,,,,,CAVOK,,,,,,,,VFR,,,,,,,,,,,,METAR,93.0
DTTX 171400Z 13007KT 090V160 CAVOK 17/06 Q1016 NOSIG,DTTX,2019-01-17T14:00:00Z,34.72,10.67,17.0,6.0,130,7,,6.21,30.0,,,,,,TRUE,,,,,CAVOK,,,,,,,,VFR,,,,,,,,,,,,METAR,23.0
UHPP 171400Z 28005MPS 9999 NSC M09/M14 Q0995 R34L/493030 NOSIG RMK QFE743/0990,UHPP,2019-01-17T14:00:00Z,53.17,158.45,-9.0,-14.0,280,10,,6.21,29.379921,,,,,,TRUE,,,,,CLR,,,,,,,,VFR,,,,,,,,,,,,METAR,40.0
WMKL 171400Z 04007KT 350V080 9999 FEW024 SCT140 BKN270 28/23 Q1010,WMKL,2019-01-17T14:00:00Z,6.32,99.72,28.0,23.0,40,7,,6.21,29.822834,,,,,,,,,,,FEW,2400,SCT,14000,BKN,27000,,,VFR,,,,,,,,,,,,METAR,7.0
WMKI 171400Z VRB02KT 9999 FEW005 SCT140 BKN270 26/24 Q1011,WMKI,2019-01-17T14:00:00Z,4.57,101.08,26.0,24.0,0,2,,6.21,29.852362,,,,,,,,,,,FEW,500,SCT,14000,BKN,27000,,,VFR,,,,,,,,,,,,METAR,39.0
WMKE 171400Z AUTO 04007KT 330V070 //// // 27/24 Q1011,WMKE,2019-01-17T14:00:00Z,4.53,103.43,27.0,24.0,40,7,,,29.852362,,,TRUE,,,,,,,,,,,,,,,,,,,,,,,,,,,,METAR,5.0
SEMC 171400Z 03004KT 9999 SCT026 BKN100 20/20 Q1021 RMK A3017,SEMC,2019-01-17T14:00:00Z,-2.3,-78.12,20.0,20.0,30,4,,6.21,30.147638,,,,,,,,,,,SCT,2600,BKN,10000,,,,,VFR,,,,,,,,,,,,METAR,1052.0
ZGOW 171400Z 09004MPS 7000 BKN040 16/13 Q1024 NOSIG,ZGOW,2019-01-17T14:00:00Z,23.55,116.5,16.0,13.0,90,8,,4.35,30.236221,,,,,,TRUE,,,,,BKN,4000,,,,,,,MVFR,,,,,,,,,,,,METAR,3.0
ZGNN 171400Z 07003MPS 050V110 9999 BKN046 11/06 Q1025 NOSIG,ZGNN,2019-01-17T14:00:00Z,22.62,108.17,11.0,6.0,70,6,,6.21,30.265747,,,,,,TRUE,,,,,BKN,4600,,,,,,,VFR,,,,,,,,,,,,METAR,73.0
DTNH 171400Z 11006KT CAVOK 16/09 Q1017 NOSIG,DTNH,2019-01-17T14:00:00Z,36.07,10.43,16.0,9.0,110,6,,6.21,30.029528,,,,,,TRUE,,,,,CAVOK,,,,,,,,VFR,,,,,,,,,,,,METAR,2.0
DTTB 171400Z 00000KT CAVOK 15/05 Q1016,DTTB,2019-01-17T14:00:00Z,37.25,9.8,15.0,5.0,0,0,,6.21,30.0,,,,,,,,,,,CAVOK,,,,,,,,VFR,,,,,,,,,,,,METAR,3.0
KBCT 171359Z 32005KT 10SM CLR 17/12 A3022,KBCT,2019-01-17T13:59:00Z,26.38,-80.1,17.0,12.0,320,5,,10.0,30.221457,,,,,,,,,,,CLR,,,,,,,,VFR,,,,,,,,,,,,METAR,4.0
KRAP 171359Z 06004KT 1/4SM FZFG VV002 M06/M08 A2996 RMK AO2 T10611078 RVRNO,KRAP,2019-01-17T13:59:00Z,44.05,-103.05,-6.1,-7.8,60,4,,0.25,29.958662,,,,TRUE,,,,,,FZFG,OVX,0,,,,,,,LIFR,,,,,,,,,,,200,SPECI,965.0
KEUG 171359Z 17003KT 7SM SCT002 SCT065 BKN200 01/00 A2947 RMK AO2 T00110000,KEUG,2019-01-17T13:59:00Z,44.13,-123.22,1.1,0.0,170,3,,7.0,29.471457,,,,TRUE,,,,,,,SCT,200,SCT,6500,BKN,20000,,,VFR,,,,,,,,,,,,SPECI,114.0
KNOZ 171359Z AUTO 09004KT 10SM CLR 09/08 A3015 RMK AO2 SLP161 T00940083,KNOZ,2019-01-17T13:59:00Z,32.5,-114.45,9.4,8.3,90,4,,10.0,30.15059,1016.1,,TRUE,TRUE,,,,,,,CLR,,,,,,,,VFR,,,,,,,,,,,,METAR,103.0
KNGU 171359Z 06007KT 10SM BKN042 05/M02 A3036 RMK AO2 SLP281 I1000 T00501022,KNGU,2019-01-17T13:59:00Z,36.92,-76.27,5.0,-2.2,60,7,,10.0,30.360237,1028.1,,,TRUE,,,,,,,BKN,4200,,,,,,,VFR,,,,,,,,,,,,METAR,5.0
KDVP 171359Z AUTO 00000KT 10SM BKN024 OVC028 M09/M10 A3008 RMK AO2,KDVP,2019-01-17T13:59:00Z,43.98,-95.78,-9.0,-10.0,0,0,,10.0,30.079725,,,TRUE,TRUE,,,,,,,BKN,2400,OVC,2800,,,,,MVFR,,,,,,,,,,,,SPECI,495.0
KSXS 171358Z AUTO 00000KT 9SM CLR 04/03 A3025 RMK AO2 SLP248 T00410032,KSXS,2019-01-17T13:58:00Z,31.37,-85.85,4.1,3.2,0,0,,9.0,30.250984,1024.8,,TRUE,TRUE,,,,,,,CLR,,,,,,,,VFR,,,,,,,,,,,,METAR,122.0
RKSO 171358Z 00000KT 7SM CLR M06/M09 A3033 RMK AO2A SLP275 T10561094,RKSO,2019-01-17T13:58:00Z,37.07,127.02,-5.6,-9.4,0,0,,7.0,30.33071,1027.5,,,TRUE,,,,,,,CLR,,,,,,,,VFR,,,,,,,,,,,,METAR,12.0
PAFR 171358Z AUTO 00000KT 10SM CLR M10/M11 A2967 RMK AO2 SLP059 T11041113,PAFR,2019-01-17T13:58:00Z,61.27,-149.65,-10.4,-11.3,0,0,,10.0,29.66929,1005.9,,TRUE,TRUE,,,,,,,CLR,,,,,,,,VFR,,,,,,,,,,,,SPECI,115.0
PAFB 171358Z AUTO 00000KT 10SM CLR M26/M28 A2990 RMK AO2 SLP143 T12601285 $,PAFB,2019-01-17T13:58:00Z,64.83,-147.62,-26.0,-28.5,0,0,,10.0,29.899607,1014.3,,TRUE,TRUE,TRUE,,,,,,CLR,,,,,,,,VFR,,,,,,,,,,,,SPECI,137.0
KMUO 171358Z AUTO 12018G28KT 10SM FEW070 OVC110 05/05 A2973 RMK AO2 PK WND 11031/54 PRESFR SLP078 T00520052 $,KMUO,2019-01-17T13:58:00Z,43.03,-115.87,5.2,5.2,120,18,28,10.0,29.731298,1007.8,,TRUE,TRUE,TRUE,,,,,,FEW,7000,OVC,11000,,,,,VFR,,,,,,,,,,,,SPECI,913.0
KLSV 171358Z 00000KT 10SM SCT065 BKN080 12/09 A3008 RMK AO2A SLP179 ALSTG/SLP ESTMD T01160090 $,KLSV,2019-01-17T13:58:00Z,36.22,-115.02,11.6,9.0,0,0,,10.0,30.079725,1017.9,,,TRUE,TRUE,,,,,,SCT,6500,BKN,8000,,,,,VFR,,,,,,,,,,,,METAR,570.0
KHIF 171358Z AUTO 18017KT 10SM BKN070 OVC080 05/00 A2994 RMK AO2 SLP134 T00471003,KHIF,2019-01-17T13:58:00Z,41.12,-111.97,4.7,-0.3,180,17,,10.0,29.940945,1013.4,,TRUE,TRUE,,,,,,,BKN,7000,OVC,8000,,,,,VFR,,,,,,,,,,,,METAR,1459.0
KLUF 171358Z 00000KT 10SM FEW150 08/06 A3016 RMK AO2A SLP213 $,KLUF,2019-01-17T13:58:00Z,33.52,-112.37,8.0,6.0,0,0,,10.0,30.159449,1021.3,,,TRUE,TRUE,,,,,,FEW,15000,,,,,,,VFR,,,,,,,,,,,,METAR,332.0
KBKF 171358Z 17010KT 10SM FEW130 BKN220 00/M09 A3003 RMK AO2A SLP175 T00031092,KBKF,2019-01-17T13:58:00Z,39.72,-104.75,0.3,-9.2,170,10,,10.0,30.029528,1017.5,,,TRUE,,,,,,,FEW,13000,BKN,22000,,,,,VFR,,,,,,,,,,,,METAR,1726.0
OAIX 171358Z 00000KT 9999 BKN100 BKN130 07/M03 A3013 RMK A02 SLP187 T00691032,OAIX,2019-01-17T13:58:00Z,34.95,69.27,6.9,-3.2,0,0,,6.21,30.129921,1018.7,,,TRUE,,,,,,,BKN,10000,BKN,13000,,,,,VFR,,,,,,,,,,,,METAR,1492.0
KFCS 171358Z AUTO 01006KT 10SM CLR M03/M09 A3006 RMK AO2 SLP215 T10331086 $,KFCS,2019-01-17T13:58:00Z,38.67,-104.77,-3.3,-8.6,10,6,,10.0,30.059055,1021.5,,TRUE,TRUE,TRUE,,,,,,CLR,,,,,,,,VFR,,,,,,,,,,,,SPECI,1789.0
KDMA 171358Z AUTO 16005KT 10SM CLR 05/04 A3018 RMK AO2 SLP210 T00510041 $,KDMA,2019-01-17T13:58:00Z,32.17,-110.87,5.1,4.1,160,5,,10.0,30.180119,1021.0,,TRUE,TRUE,TRUE,,,,,,CLR,,,,,,,,VFR,,,,,,,,,,,,METAR,824.0
KAFF 171358Z AUTO 00000KT 10SM CLR M04/M10 A3007 RMK AO2 SLP203 T10401096,KAFF,2019-01-17T13:58:00Z,38.97,-104.82,-4.0,-9.6,0,0,,10.0,30.070866,1020.3,,TRUE,TRUE,,,,,,,CLR,,,,,,,,VFR,,,,,,,,,,,,METAR,2003.0
K4MR 171358Z AUTO 28015KT 10SM CLR 04/M01 A3018 RMK AO2 SLP209 T00391008 $,K4MR,2019-01-17T13:58:00Z,34.3,-103.8,3.9,-0.8,280,15,,10.0,30.180119,1020.9,,TRUE,TRUE,TRUE,,,,,,CLR,,,,,,,,VFR,,,,,,,,,,,,METAR,1326.0
KGXF 171358Z AUTO 12004KT 10SM CLR 07/07 A3014 RMK AO2 SLP203 T00740066,KGXF,2019-01-17T13:58:00Z,32.87,-112.72,7.4,6.6,120,4,,10.0,30.138779,1020.3,,TRUE,TRUE,,,,,,,CLR,,,,,,,,VFR,,,,,,,,,,,,SPECI,262.0
KGFA 171358Z AUTO 00000KT 5SM -SN OVC003 M08/M08 A2998 RMK AO2 SLP217 T10771078 $,KGFA,2019-01-17T13:58:00Z,47.5,-111.17,-7.7,-7.8,0,0,,5.0,29.97933,1021.7,,TRUE,TRUE,TRUE,,,,,-SN,OVC,300,,,,,,,LIFR,,,,,,,,,,,,SPECI,1075.0
KFHU 171358Z AUTO 18003KT 10SM CLR 03/M02 A3024 RMK AO2 SLP223 T00341020,KFHU,2019-01-17T13:58:00Z,31.58,-110.35,3.4,-2.0,180,3,,10.0,30.239174,1022.3,,TRUE,TRUE,,,,,,,CLR,,,,,,,,VFR,,,,,,,,,,,,SPECI,1438.0
KFEW 171358Z AUTO 26003KT 10SM CLR 03/M07 A3001 RMK AO2 SLP171 T00281073 $,KFEW,2019-01-17T13:58:00Z,41.13,-104.87,2.8,-7.3,260,3,,10.0,30.008858,1017.1,,TRUE,TRUE,TRUE,,,,,,CLR,,,,,,,,VFR,,,,,,,,,,,,METAR,1878.0
KCWN 171358Z AUTO 20003KT 10SM CLR 02/M11 A3002 RMK AO2 SLP070 T00171112 $,KCWN,2019-01-17T13:58:00Z,38.75,-104.85,1.7,-11.2,200,3,,10.0,30.02067,1007.0,,TRUE,TRUE,TRUE,,,,,,CLR,,,,,,,,VFR,,,,,,,,,,,,SPECI,2040.0
KCVS 171358Z AUTO 30007KT 10SM CLR 02/M03 A3019 RMK AO2 SLP217 T00171026 $,KCVS,2019-01-17T13:58:00Z,34.37,-103.32,1.7,-2.6,300,7,,10.0,30.188976,1021.7,,TRUE,TRUE,TRUE,,,,,,CLR,,,,,,,,VFR,,,,,,,,,,,,SPECI,1309.0
KBIF 171358Z AUTO 11003KT 10SM CLR 04/M01 A3026 RMK AO2 SLP223 T00361006 $,KBIF,2019-01-17T13:58:00Z,31.85,-106.38,3.6,-0.6,110,3,,10.0,30.259842,1022.3,,TRUE,TRUE,TRUE,,,,,,CLR,,,,,,,,VFR,,,,,,,,,,,,METAR,1203.0
K1LM 171358Z AUTO 36010KT 1 1/4SM -SHSN BR OVC002 M09/M11 A2989 RMK AO2 VIS 1 1/4V3 SNE43SHSNB50 SLP193 T10931107 $,K1LM,2019-01-17T13:58:00Z,46.7,-109.73,-9.3,-10.7,360,10,,1.25,29.890747,1019.3,,TRUE,TRUE,TRUE,,,,,-SHSN BR,OVC,200,,,,,,,LIFR,,,,,,,,,,,,METAR,1414.0
K1KM 171358Z AUTO 06013KT 10SM OVC070 M07/M09 A2990 RMK AO2 SNB46E47 SLP171 T10731089 $,K1KM,2019-01-17T13:58:00Z,46.45,-109.8,-7.3,-8.9,60,13,,10.0,29.899607,1017.1,,TRUE,TRUE,TRUE,,,,,,OVC,7000,,,,,,,VFR,,,,,,,,,,,,METAR,1330.0
K1CM 171358Z AUTO 00000KT 1 7/8SM -SN BR BKN002 M09/M09 A2992 RMK AO2 VIS 1 1/8V1 7/8 SNB41 BKN V OVC SLP200 T10891095 $,K1CM,2019-01-17T13:58:00Z,47.1,-110.17,-8.9,-9.5,0,0,,1.88,29.920275,1020.0,,TRUE,TRUE,TRUE,,,,,-SN BR,BKN,200,,,,,,,LIFR,,,,,,,,,,,,METAR,1337.0
K1AM 171358Z AUTO 29003KT 10SM -SN OVC005 M08/M08 A2995 RMK AO2 SLP162 T10851084 $,K1AM,2019-01-17T13:58:00Z,47.28,-110.8,-8.5,-8.4,290,3,,10.0,29.949802,1016.2,,TRUE,TRUE,TRUE,,,,,-SN,OVC,500,,,,,,,IFR,,,,,,,,,,,,METAR,1219.0
K1OM 171358Z AUTO 31006KT 10SM OVC006 M08/M09 A2998 RMK AO2 SLP215 T10761095 $,K1OM,2019-01-17T13:58:00Z,47.33,-108.93,-7.6,-9.5,310,6,,10.0,29.97933,1021.5,,TRUE,TRUE,TRUE,,,,,,OVC,600,,,,,,,IFR,,,,,,,,,,,,METAR,1086.0
KSLI 171358Z AUTO 17011G18KT 8SM -RA BKN005 BKN010 OVC014 16/16 A3010 RMK AO2 RAE20RAB37 SLP196 P0007 T01560156,KSLI,2019-01-17T13:58:00Z,33.77,-118.03,15.6,15.6,170,11,18,8.0,30.100393,1019.6,,TRUE,TRUE,,,,,,-RA,BKN,500,BKN,1000,OVC,1400,,,IFR,,,,,,0.07,,,,,,SPECI,11.0
KSUU 171358Z AUTO 17006KT 10SM CLR 12/09 A2988 RMK AO2 SLP125 T01180086,KSUU,2019-01-17T13:58:00Z,38.27,-121.92,11.8,8.6,170,6,,10.0,29.878937,1012.5,,TRUE,TRUE,,,,,,,CLR,,,,,,,,VFR,,,,,,,,,,,,METAR,19.0
K1NM 171358Z AUTO 00000KT 1 1/2SM BR OVC002 M08/M08 A2993 RMK AO2 CIG 002V004 SLP209 T10771082 $,K1NM,2019-01-17T13:58:00Z,47.07,-109.03,-7.7,-8.2,0,0,,1.5,29.929134,1020.9,,TRUE,TRUE,TRUE,,,,,BR,OVC,200,,,,,,,LIFR,,,,,,,,,,,,METAR,1161.0
K1MM 171358Z AUTO 35003KT 3/8SM FZFG BKN005 OVC095 M09/M10 A2994 RMK AO2 SLP209 T10881100 $,K1MM,2019-01-17T13:58:00Z,47.02,-109.63,-8.8,-10.0,350,3,,0.38,29.940945,1020.9,,TRUE,TRUE,TRUE,,,,,FZFG,BKN,500,OVC,9500,,,,,LIFR,,,,,,,,,,,,METAR,1256.0
K1HM 171358Z AUTO 35003KT 6SM -SN OVC007 M07/M08 A2995 RMK AO2 SLP204 T10671080 $,K1HM,2019-01-17T13:58:00Z,,,-6.7,-8.0,350,3,,6.0,29.949802,1020.4,,TRUE,TRUE,TRUE,,,,,-SN,OVC,700,,,,,,,IFR,,,,,,,,,,,,METAR,
K1FM 171358Z AUTO 06004KT M M OVC003 M08/ A2993 RMK AO2 SLP220 PWINO FZRANO $,K1FM,2019-01-17T13:58:00Z,47.6,-112.32,-8.0,,60,4,,,29.929134,1022.0,,TRUE,TRUE,TRUE,,,TRUE,TRUE,,OVC,300,,,,,,,,,,,,,,,,,,,METAR,1116.0
K1EM 171358Z AUTO 27006KT 1 1/4SM BR M M09/M09 A2997 RMK AO2 SLP228 T10881095 $,K1EM,2019-01-17T13:58:00Z,47.45,-109.42,-8.8,-9.5,270,6,,1.25,29.970472,1022.8,,TRUE,TRUE,TRUE,,,,,BR,,,,,,,,,,,,,,,,,,,,,METAR,1116.0
K1JM 171358Z AUTO 00000KT 3SM -SHSN BR BKN002 M07/M08 A2995 RMK AO2 SHSNE07SHSNB16 SLP213 T10731079 $,K1JM,2019-01-17T13:58:00Z,47.75,-111.55,-7.3,-7.9,0,0,,3.0,29.949802,1021.3,,TRUE,TRUE,TRUE,,,,,-SHSN BR,BKN,200,,,,,,,LIFR,,,,,,,,,,,,METAR,1152.0
K1GM 171358Z AUTO 00000KT 1/2SM -SN FZFG VV002 M09/M09 A2992 RMK AO2 SHSNE36SNB36 SLP188 T10881094 $,K1GM,2019-01-17T13:58:00Z,47.33,-112.1,-8.8,-9.4,0,0,,0.5,29.920275,1018.8,,TRUE,TRUE,TRUE,,,,,-SN FZFG,OVX,0,,,,,,,LIFR,,,,,,,,,,,200,METAR,1311.0
KEUF 171358Z AUTO 00000KT 1/4SM FG VV001 03/03 A3023 RMK AO2 SLP238 I1001 T00330028 $,KEUF,2019-01-17T13:58:00Z,31.95,-85.13,3.3,2.8,0,0,,0.25,30.230314,1023.8,,TRUE,TRUE,TRUE,,,,,FG,OVX,0,,,,,,,LIFR,,,,,,,,,,,100,SPECI,87.0
K0J4 171358Z AUTO 00000KT 10SM CLR 06/04 A3027 RMK AO2 SLP251 T00610039 $,K0J4,2019-01-17T13:58:00Z,31.05,-86.32,6.1,3.9,0,0,,10.0,30.268702,1025.1,,TRUE,TRUE,TRUE,,,,,,CLR,,,,,,,,VFR,,,,,,,,,,,,SPECI,96.0
K1BW 171358Z AUTO 29009KT 10SM CLR M02/M06 A3000 RMK AO2 SLP185 T10171062 $,K1BW,2019-01-17T13:58:00Z,41.52,-104.0,-1.7,-6.2,290,9,,10.0,30.0,1018.5,,TRUE,TRUE,TRUE,,,,,,CLR,,,,,,,,VFR,,,,,,,,,,,,SPECI,1607.0
KMTJ 171358Z AUTO 16007KT 6SM BR SCT001 M04/M06 A3023 RMK AO2 T10441056,KMTJ,2019-01-17T13:58:00Z,38.5,-107.9,-4.4,-5.6,160,7,,6.0,30.230314,,,TRUE,TRUE,,,,,,BR,SCT,100,,,,,,,VFR,,,,,,,,,,,,SPECI,1750.0
KMRH 171358Z AUTO 05007KT 10SM CLR 07/04 A3031 RMK AO2 SLP265 T00720044 $,KMRH,2019-01-17T13:58:00Z,34.73,-76.65,7.2,4.4,50,7,,10.0,30.31004,1026.5,,TRUE,TRUE,TRUE,,,,,,CLR,,,,,,,,VFR,,,,,,,,,,,,SPECI,3.0
KHMN 171358Z AUTO 08006KT 10SM CLR 01/M03 A3029 RMK AO2 SLP242 T00051027 $,KHMN,2019-01-17T13:58:00Z,32.85,-106.08,0.5,-2.7,80,6,,10.0,30.28937,1024.2,,TRUE,TRUE,TRUE,,,,,,CLR,,,,,,,,VFR,,,,,,,,,,,,METAR,1248.0
KLGF 171358Z AUTO 10004KT 10SM CLR 11/10 A3014 RMK AO2 SLPNO T01090100 $,KLGF,2019-01-17T13:58:00Z,32.87,-114.4,10.9,10.0,100,4,,10.0,30.138779,,,TRUE,TRUE,TRUE,,,,,,CLR,,,,,,,,VFR,,,,,,,,,,,,METAR,132.0
KHEY 171358Z AUTO 00000KT 10SM CLR 03/03 A3025 RMK AO2 SLP248 T00280028,KHEY,2019-01-17T13:58:00Z,31.35,-85.65,2.8,2.8,0,0,,10.0,30.250984,1024.8,,TRUE,TRUE,,,,,,,CLR,,,,,,,,VFR,,,,,,,,,,,,METAR,97.0
KPOE 171358Z AUTO 18009KT 9SM OVC003 14/13 A3013 RMK AO2 SLP205 T01350131,KPOE,2019-01-17T13:58:00Z,31.05,-93.2,13.5,13.1,180,9,,9.0,30.129921,1020.5,,TRUE,TRUE,,,,,,,OVC,300,,,,,,,LIFR,,,,,,,,,,,,METAR,101.0
KLOR 171358Z AUTO 00000KT 10SM CLR 02/02 A3026 RMK AO2 SLP232 T00200020 FZRANO,KLOR,2019-01-17T13:58:00Z,31.35,-85.75,2.0,2.0,0,0,,10.0,30.259842,1023.2,,TRUE,TRUE,,,,TRUE,,,CLR,,,,,,,,VFR,,,,,,,,,,,,METAR,74.0
MHSC 171358Z AUTO 36014KT 9999 SCT050 21/19 A3015 RMK AO2 SLP180 T02130187 $,MHSC,2019-01-17T13:58:00Z,14.37,-87.62,21.3,18.7,360,14,,6.21,30.15059,1018.0,,TRUE,TRUE,TRUE,,,,,,SCT,5000,,,,,,,VFR,,,,,,,,,,,,METAR,626.0
KBAB 171358Z 15015KT 10SM CLR 12/09 A2984 RMK AO2A SLP108 T01180094 $,KBAB,2019-01-17T13:58:00Z,39.12,-121.42,11.8,9.4,150,15,,10.0,29.840551,1010.8,,,TRUE,TRUE,,,,,,CLR,,,,,,,,VFR,,,,,,,,,,,,METAR,34.0
KHUA 171358Z AUTO 18007KT 7SM -RA FEW007 SCT017 BKN022 OVC028 05/03 A3016 RMK AO2 RAB47 CIG 022V029 BKN V SCT SLP218 P0000 T00510025,KHUA,2019-01-17T13:58:00Z,34.68,-86.68,5.1,2.5,180,7,,7.0,30.159449,1021.8,,TRUE,TRUE,,,,,,-RA,FEW,700,SCT,1700,BKN,2200,OVC,2800,MVFR,,,,,,0.005,,,,,,METAR,209.0
KHLR 171358Z AUTO 28008KT 10SM CLR 11/09 A3008 RMK AO2 SLP184 T01050094,KHLR,2019-01-17T13:58:00Z,31.13,-97.72,10.5,9.4,280,8,,10.0,30.079725,1018.4,,TRUE,TRUE,,,,,,,CLR,,,,,,,,VFR,,,,,,,,,,,,METAR,283.0
KGRK 171358Z AUTO 26011KT 10SM CLR 11/10 A3010 RMK AO2 SLP192 T01140095,KGRK,2019-01-17T13:58:00Z,31.07,-97.83,11.4,9.5,260,11,,10.0,30.100393,1019.2,,TRUE,TRUE,,,,,,,CLR,,,,,,,,VFR,,,,,,,,,,,,METAR,309.0
KGOV 171358Z AUTO 00000KT 10SM OVC100 M20/M21 A3017 RMK AO2 SLP254 T11961214 $,KGOV,2019-01-17T13:58:00Z,44.68,-84.73,-19.6,-21.4,0,0,,10.0,30.171259,1025.4,,TRUE,TRUE,TRUE,,,,,,OVC,10000,,,,,,,VFR,,,,,,,,,,,,SPECI,353.0
KNJM 171357Z AUTO 05007KT 7SM 06/04 A3032 RMK AO2 SLP269 T00560044 $,KNJM,2019-01-17T13:57:00Z,34.67,-77.02,5.6,4.4,50,7,,7.0,30.318897,1026.9,,TRUE,TRUE,TRUE,,,,,,,,,,,,,,,,,,,,,,,,,,SPECI,7.0
KNY0 171357Z AUTO 25005KT 10SM CLR M16/M22 A3038 RMK AO2,KNY0,2019-01-17T13:57:00Z,42.98,-74.33,-16.0,-22.0,250,5,,10.0,30.380905,,,TRUE,TRUE,,,,,,,CLR,,,,,,,,VFR,,,,,,,,,,,,METAR,271.0
EQYG 171357Z AUTO 27016G21KT 10SM CLR 14/ A3017 RMK AO2 SLP212 T0144 $ ,EQYG,2019-01-17T13:57:00Z,,,14.4,,270,16,21,10.0,30.171259,1021.2,,TRUE,TRUE,TRUE,,,,,,CLR,,,,,,,,VFR,,,,,,,,,,,,METAR,
KHZR 171357Z AUTO 12004KT 10SM SCT008 OVC023 11/09 A3019 RMK AO2,KHZR,2019-01-17T13:57:00Z,30.72,-91.48,11.0,9.0,120,4,,10.0,30.188976,,,TRUE,TRUE,,,,,,,SCT,800,OVC,2300,,,,,MVFR,,,,,,,,,,,,SPECI,12.0
KEAR 171357Z AUTO 30005KT 4SM BR OVC009 M01/M02 A3004 RMK AO2 SLP194 T10111017 FZRANO,KEAR,2019-01-17T13:57:00Z,40.72,-99.0,-1.1,-1.7,300,5,,4.0,30.041338,1019.4,,TRUE,TRUE,,,,TRUE,,BR,OVC,900,,,,,,,IFR,,,,,,,,,,,,SPECI,649.0
KNTD 171357Z 20016KT 2SM -DZ BR OVC005 16/14 A3007 RMK AO2 DZB53 SLP185 P0000 T01610144 $,KNTD,2019-01-17T13:57:00Z,34.12,-119.12,16.1,14.4,200,16,,2.0,30.070866,1018.5,,,TRUE,TRUE,,,,,-DZ BR,OVC,500,,,,,,,IFR,,,,,,0.005,,,,,,METAR,4.0
PHNG 171357Z VRB04KT 10SM OVC065 25/ A2987 RMK AO2 SLP108 T0250 $,PHNG,2019-01-17T13:57:00Z,21.43,-157.77,25.0,,0,4,,10.0,29.870079,1010.8,,,TRUE,TRUE,,,,,,OVC,6500,,,,,,,VFR,,,,,,,,,,,,SPECI,3.0
KNYL 171357Z 00000KT 7SM FEW200 10/09 A3014 RMK AO2 SLP204 FIRST T01000094,KNYL,2019-01-17T13:57:00Z,32.63,-114.62,10.0,9.4,0,0,,7.0,30.138779,1020.4,,,TRUE,,,,,,,FEW,20000,,,,,,,VFR,,,,,,,,,,,,METAR,65.0
KFLG 171357Z 26003KT 10SM CLR M06/M07 A3022 RMK AO2 SLP243 I1001 T10561072,KFLG,2019-01-17T13:57:00Z,35.13,-111.67,-5.6,-7.2,260,3,,10.0,30.221457,1024.3,,,TRUE,,,,,,,CLR,,,,,,,,VFR,,,,,,,,,,,,METAR,2134.0
KAUO 171356Z AUTO 16006KT CLR 06/03 A3022 RMK AO2 SLP261 T00610028 PWINO $,KAUO,2019-01-17T13:56:00Z,32.62,-85.42,6.1,2.8,160,6,,,30.221457,1026.1,,TRUE,TRUE,TRUE,,,,TRUE,,CLR,,,,,,,,,,,,,,,,,,,,METAR,236.0
KAWO 171356Z AUTO 00000KT 10SM BKN055 OVC100 06/04 A2948 RMK AO2 SLP988 T00560044,KAWO,2019-01-17T13:56:00Z,48.17,-122.17,5.6,4.4,0,0,,10.0,29.480314,998.8,,TRUE,TRUE,,,,,,,BKN,5500,OVC,10000,,,,,VFR,,,,,,,,,,,,SPECI,42.0
PMDY 171356Z AUTO VRB06KT OVC050 16/06 A3012 RMK AO2 SLP201 T01560056 PWINO $,PMDY,2019-01-17T13:56:00Z,28.22,-177.37,15.6,5.6,0,6,,,30.121063,1020.1,,TRUE,TRUE,TRUE,,,,TRUE,,OVC,5000,,,,,,,,,,,,,,,,,,,METAR,4.0
KCOE 171356Z AUTO 01016KT 10SM UP OVC031 M01/M03 A2965 RMK AO2 UPB10SNE10 SLP079 P0000 T10061033 FZRANO,KCOE,2019-01-17T13:56:00Z,47.77,-116.82,-0.6,-3.3,10,16,,10.0,29.648623,1007.9,,TRUE,TRUE,,,,TRUE,,UP,OVC,3100,,,,,,,VFR,,,,,,0.005,,,,,,SPECI,707.0
KTVF 171356Z AUTO 32005KT 10SM OVC035 M17/M21 A3014 RMK AO2 SLP243 T11721206 FZRANO,KTVF,2019-01-17T13:56:00Z,48.07,-96.17,-17.2,-20.6,320,5,,10.0,30.138779,1024.3,,TRUE,TRUE,,,,TRUE,,,OVC,3500,,,,,,,VFR,,,,,,,,,,,,SPECI,340.0
PHNY 171356Z AUTO 19008KT 10SM OVC048 21/14 A2998 RMK AO2 SLP131 T02060144,PHNY,2019-01-17T13:56:00Z,20.77,-156.93,20.6,14.4,190,8,,10.0,29.97933,1013.1,,TRUE,TRUE,,,,,,,OVC,4800,,,,,,,VFR,,,,,,,,,,,,METAR,399.0
PAWG 171356Z AUTO 10006KT 10SM CLR 02/M05 A2960 RMK AO2 SLP024 T00221050 FZRANO TSNO PNO $,PAWG,2019-01-17T13:56:00Z,56.48,-132.37,2.2,-5.0,100,6,,10.0,29.601377,1002.4,,TRUE,TRUE,TRUE,,TRUE,TRUE,,,CLR,,,,,,,,VFR,,,,,,,,,,,,METAR,11.0
PHSF 171356Z AUTO 35006KT 10SM CLR 13/M19 A3020 RMK AO2 SLP108 WND DATA ESTMD T01311189 PWINO $,PHSF,2019-01-17T13:56:00Z,19.77,-155.55,13.1,-18.9,350,6,,10.0,30.200787,1010.8,,TRUE,TRUE,TRUE,,,,TRUE,,CLR,,,,,,,,VFR,,,,,,,,,,,,METAR,1887.0
KGNR 171356Z AUTO 31009G20KT M20/M27 A3020 RMK AO1 SLP265 T12001267,KGNR,2019-01-17T13:56:00Z,45.47,-69.55,-20.0,-26.7,310,9,20,,30.200787,1026.5,,TRUE,TRUE,,,,,,,,,,,,,,,,,,,,,,,,,,,METAR,427.0
PABL 171356Z AUTO 16012KT 10SM CLR M11/M16 A2983 RMK AO2 SLP102 T11111156 FZRANO,PABL,2019-01-17T13:56:00Z,65.98,-161.15,-11.1,-15.6,160,12,,10.0,29.828741,1010.2,,TRUE,TRUE,,,,TRUE,,,CLR,,,,,,,,VFR,,,,,,,,,,,,METAR,7.0
PPIZ 171356Z AUTO 06006KT 10SM CLR M22/M24 A2981 RMK AO2 SLP097 T12221244 FZRANO,PPIZ,2019-01-17T13:56:00Z,69.73,-163.0,-22.2,-24.4,60,6,,10.0,29.811024,1009.7,,TRUE,TRUE,,,,TRUE,,,CLR,,,,,,,,VFR,,,,,,,,,,,,SPECI,8.0
PALG 171356Z AUTO 08010G16KT 10SM CLR M04/M07 A2966 RMK AO2 SLP049 T10441072 FZRANO,PALG,2019-01-17T13:56:00Z,61.53,-160.33,-4.4,-7.2,80,10,16,10.0,29.660433,1004.9,,TRUE,TRUE,,,,TRUE,,,CLR,,,,,,,,VFR,,,,,,,,,,,,METAR,17.0
PAKI 171356Z AUTO 34012KT 7SM -SN OVC023 M08/M09 A2967 RMK AO2 SLP049 P0000 T10781089 FZRANO,PAKI,2019-01-17T13:56:00Z,59.93,-164.03,-7.8,-8.9,340,12,,7.0,29.66929,1004.9,,TRUE,TRUE,,,,TRUE,,-SN,OVC,2300,,,,,,,MVFR,,,,,,0.005,,,,,,METAR,4.0
PAKH 171356Z AUTO 02007KT 10SM -RA OVC021 05/02 A2954 RMK AO2 RAB56 SLP005 P0000 T00500022 $,PAKH,2019-01-17T13:56:00Z,56.93,-154.18,5.0,2.2,20,7,,10.0,29.53937,1000.5,,TRUE,TRUE,TRUE,,,,,-RA,OVC,2100,,,,,,,MVFR,,,,,,0.005,,,,,,METAR,14.0
PAJZ 171356Z AUTO 29004KT 9SM OVC017 M04/M06 A2970 RMK AO2 SLP063 T10441056 FZRANO $,PAJZ,2019-01-17T13:56:00Z,59.73,-157.27,-4.4,-5.6,290,4,,9.0,29.698818,1006.3,,TRUE,TRUE,TRUE,,,TRUE,,,OVC,1700,,,,,,,MVFR,,,,,,,,,,,,METAR,82.0
PAIN 171356Z 00000KT 10SM CLR M21/M23 A2975 RMK AO2 SLP133 T12061228 FZRANO,PAIN,2019-01-17T13:56:00Z,63.73,-148.92,-20.6,-22.8,0,0,,10.0,29.749016,1013.3,,,TRUE,,,,TRUE,,,CLR,,,,,,,,VFR,,,,,,,,,,,,METAR,524.0
PAIK 171356Z AUTO 13005KT 10SM CLR M11/M16 A2988 RMK AO2 SLP126 T11111161 FZRANO,PAIK,2019-01-17T13:56:00Z,66.98,-160.43,-11.1,-16.1,130,5,,10.0,29.878937,1012.6,,TRUE,TRUE,,,,TRUE,,,CLR,,,,,,,,VFR,,,,,,,,,,,,METAR,51.0
PAIG 171356Z AUTO 06014G19KT 10SM FEW055 SCT075 03/02 A2961 RMK AO2 SLP037 T00330022 $,PAIG,2019-01-17T13:56:00Z,59.32,-155.9,3.3,2.2,60,14,19,10.0,29.610237,1003.7,,TRUE,TRUE,TRUE,,,,,,FEW,5500,SCT,7500,,,,,VFR,,,,,,,,,,,,METAR,28.0
PAHL 171356Z AUTO 08010KT 10SM CLR M13/M18 A2989 RMK AO2 SLP132 T11281183 FZRANO,PAHL,2019-01-17T13:56:00Z,65.7,-156.35,-12.8,-18.3,80,10,,10.0,29.890747,1013.2,,TRUE,TRUE,,,,TRUE,,,CLR,,,,,,,,VFR,,,,,,,,,,,,METAR,65.0
PAGM 171356Z AUTO 35011KT 6SM -SN BR OVC006 M07/M08 A2969 RMK AO2 UPE38SNB38 SLP059 P0000 T10721083 FZRANO,PAGM,2019-01-17T13:56:00Z,63.77,-171.73,-7.2,-8.3,350,11,,6.0,29.68996,1005.9,,TRUE,TRUE,,,,TRUE,,-SN BR,OVC,600,,,,,,,IFR,,,,,,0.005,,,,,,METAR,8.0
PAGA 171356Z AUTO VRB03KT 10SM CLR M19/M22 A2990 RMK AO2 SLP129 T11941217 FZRANO,PAGA,2019-01-17T13:56:00Z,64.73,-156.93,-19.4,-21.7,0,3,,10.0,29.899607,1012.9,,TRUE,TRUE,,,,TRUE,,,CLR,,,,,,,,VFR,,,,,,,,,,,,METAR,46.0
PAEM 171356Z AUTO 00000KT 7SM -SN FEW028 OVC041 M08/M09 A2968 RMK AO2 SLP110 P0000 T10781089 FZRANO,PAEM,2019-01-17T13:56:00Z,62.78,-164.48,-7.8,-8.9,0,0,,7.0,29.681103,1011.0,,TRUE,TRUE,,,,TRUE,,-SN,FEW,2800,OVC,4100,,,,,VFR,,,,,,0.005,,,,,,METAR,3.0
PADU 171356Z AUTO 33025G32KT 9SM UP BKN035 OVC044 01/M04 A2976 RMK AO2 PK WND 33032/1353 UPE03B36RAB03E36 SLP082 T00111044 FZRANO PNO $,PADU,2019-01-17T13:56:00Z,53.9,-166.53,1.1,-4.4,330,25,32,9.0,29.760826,1008.2,,TRUE,TRUE,TRUE,,,TRUE,,UP,BKN,3500,OVC,4400,,,,,VFR,,,,,,,,,,,,METAR,4.0
KEKY 171356Z AUTO 17003KT 10SM OVC029 04/02 A3022 RMK AO2 SLP257 T00440017,KEKY,2019-01-17T13:56:00Z,33.32,-86.93,4.4,1.7,170,3,,10.0,30.221457,1025.7,,TRUE,TRUE,,,,,,,OVC,2900,,,,,,,MVFR,,,,,,,,,,,,METAR,213.0
KDVL 171356Z AUTO 34005KT 9SM -SN OVC019 M14/M17 A3012 RMK AO2 SLP255 P0000 T11441167 FZRANO,KDVL,2019-01-17T13:56:00Z,48.12,-98.92,-14.4,-16.7,340,5,,9.0,30.121063,1025.5,,TRUE,TRUE,,,,TRUE,,-SN,OVC,1900,,,,,,,MVFR,,,,,,0.005,,,,,,SPECI,443.0
PAMM 171356Z AUTO 36008KT 10SM 06/M03 A2951 RMK AO2 SLP983 T00611028 $,PAMM,2019-01-17T13:56:00Z,55.13,-131.58,6.1,-2.8,360,8,,10.0,29.509842,998.3,,TRUE,TRUE,TRUE,,,,,,,,,,,,,,,,,,,,,,,,,,METAR,1.0
PAMK 171356Z AUTO 09015KT 10SM SCT055 BKN070 M04/M08 A2968 RMK AO2 SLP053 T10441078 FZRANO,PAMK,2019-01-17T13:56:00Z,63.48,-162.12,-4.4,-7.8,90,15,,10.0,29.681103,1005.3,,TRUE,TRUE,,,,TRUE,,,SCT,5500,BKN,7000,,,,,VFR,,,,,,,,,,,,METAR,28.0
PAMH 171356Z AUTO 00000KT 10SM CLR M16/M18 A2985 RMK AO2 SLP864 T11561183 FZRANO,PAMH,2019-01-17T13:56:00Z,63.9,-152.32,-15.6,-18.3,0,0,,10.0,29.84941,986.4,,TRUE,TRUE,,,,TRUE,,,CLR,,,,,,,,VFR,,,,,,,,,,,,METAR,214.0
RJTY 171356Z AUTO 00000KT 10SM CLR 02/M03 A2983 RMK AO2 SLP111 T00201035 FZRANO $,RJTY,2019-01-17T13:56:00Z,35.75,139.33,2.0,-3.5,0,0,,10.0,29.828741,1011.1,,TRUE,TRUE,TRUE,,,TRUE,,,CLR,,,,,,,,VFR,,,,,,,,,,,,METAR,139.0
KWRB 171356Z 00000KT 5SM BR FEW009 SCT120 SCT250 03/03 A3025 RMK AO2A SLP248 CONTRAILS T00330027,KWRB,2019-01-17T13:56:00Z,32.62,-83.58,3.3,2.7,0,0,,5.0,30.250984,1024.8,,,TRUE,,,,,,BR,FEW,900,SCT,12000,SCT,25000,,,MVFR,,,,,,,,,,,,METAR,90.0
KMMT 171356Z COR 08006KT 10SM BKN250 04/01 A3028 RMK AO2A SLP259 T00360013 $ COR 1407,KMMT,2019-01-17T13:56:00Z,33.92,-80.78,3.6,1.3,80,6,,10.0,30.280512,1025.9,TRUE,,TRUE,TRUE,,,,,,BKN,25000,,,,,,,VFR,,,,,,,,,,,,SPECI,77.0
KKLS 171356Z AUTO 00000KT 10SM -RA FEW055 BKN075 03/03 A2946 RMK AO2 RAB37 SLP981 P0000 T00330028,KKLS,2019-01-17T13:56:00Z,46.12,-122.9,3.3,2.8,0,0,,10.0,29.459646,998.1,,TRUE,TRUE,,,,,,-RA,FEW,5500,BKN,7500,,,,,VFR,,,,,,0.005,,,,,,SPECI,5.0
KMKY 171356Z AUTO 03007KT 10SM CLR 12/08 A3024 RMK AO2 SLP240 T01170083,KMKY,2019-01-17T13:56:00Z,26.0,-81.67,11.7,8.3,30,7,,10.0,30.239174,1024.0,,TRUE,TRUE,,,,,,,CLR,,,,,,,,VFR,,,,,,,,,,,,METAR,2.0
KLZU 171356Z 06003KT 5SM BR CLR 01/00 A3021 RMK AO2 SLP249 T00060000,KLZU,2019-01-17T13:56:00Z,33.98,-83.97,0.6,0.0,60,3,,5.0,30.209646,1024.9,,,TRUE,,,,,,BR,CLR,,,,,,,,MVFR,,,,,,,,,,,,METAR,323.0
KLGD 171356Z AUTO 11015G28KT 10SM OVC022 06/02 A2958 RMK AO2 PK WND 11030/1317 SLP164 T00610022,KLGD,2019-01-17T13:56:00Z,45.27,-118.0,6.1,2.2,110,15,28,10.0,29.58071,1016.4,,TRUE,TRUE,,,,,,,OVC,2200,,,,,,,MVFR,,,,,,,,,,,,SPECI,827.0
MMCT 171356Z 09005KT 4SM BKN008 OVC200 20/19 A3004 RMK 8/501 HZY,MMCT,2019-01-17T13:56:00Z,20.63,-88.45,20.0,19.0,90,5,,4.0,30.041338,,,,,,,,,,,BKN,800,OVC,20000,,,,,IFR,,,,,,,,,,,,METAR,28.0
KNYG 171356Z 30003KT 10SM OVC046 M01/M02 A3038 RMK AO2 SLP288 T10061017,KNYG,2019-01-17T13:56:00Z,38.5,-77.28,-0.6,-1.7,300,3,,10.0,30.380905,1028.8,,,TRUE,,,,,,,OVC,4600,,,,,,,VFR,,,,,,,,,,,,SPECI,4.0
KNCA 171356Z 02004KT 6SM BR SCT190 03/02 A3031 RMK AO2 SLP267 T00280017,KNCA,2019-01-17T13:56:00Z,34.72,-77.45,2.8,1.7,20,4,,6.0,30.31004,1026.7,,,TRUE,,,,,,BR,SCT,19000,,,,,,,VFR,,,,,,,,,,,,SPECI,8.0
KALK 171356Z AUTO 14006KT 10SM CLR 05/M01 A3024 RMK AO2 SLP196 T00501006,KALK,2019-01-17T13:56:00Z,31.6,-110.43,5.0,-0.6,140,6,,10.0,30.239174,1019.6,,TRUE,TRUE,,,,,,,CLR,,,,,,,,VFR,,,,,,,,,,,,SPECI,1453.0
KDAA 171356Z AUTO 00000KT 10SM OVC047 00/M04 A3036 RMK AO2 SLP285 T10021041,KDAA,2019-01-17T13:56:00Z,38.72,-77.17,-0.2,-4.1,0,0,,10.0,30.360237,1028.5,,TRUE,TRUE,,,,,,,OVC,4700,,,,,,,VFR,,,,,,,,,,,,SPECI,21.0
KNTU 171356Z 08007KT 10SM FEW042 BKN085 05/M02 A3035 RMK AO2 RAB26E31 SLP280 P0000 T00501017,KNTU,2019-01-17T13:56:00Z,36.82,-76.02,5.0,-1.7,80,7,,10.0,30.351377,1028.0,,,TRUE,,,,,,,FEW,4200,BKN,8500,,,,,VFR,,,,,,0.005,,,,,,SPECI,7.0
KNFL 171356Z AUTO 16008KT 10SM CLR 06/05 A2979 RMK AO2 SLP067 T00610050,KNFL,2019-01-17T13:56:00Z,39.42,-118.7,6.1,5.0,160,8,,10.0,29.790354,1006.7,,TRUE,TRUE,,,,,,,CLR,,,,,,,,VFR,,,,,,,,,,,,SPECI,1199.0
KPRN 171356Z AUTO 00000KT 8SM CLR 04/02 A3022 RMK AO2 SLP234 T00440022 $,KPRN,2019-01-17T13:56:00Z,31.85,-86.62,4.4,2.2,0,0,,8.0,30.221457,1023.4,,TRUE,TRUE,TRUE,,,,,,CLR,,,,,,,,VFR,,,,,,,,,,,,SPECI,138.0
KNFE 171356Z AUTO 06004KT 10SM CLR 07/02 A3035 RMK AO2 SLP279 T00720017,KNFE,2019-01-17T13:56:00Z,36.7,-76.13,7.2,1.7,60,4,,10.0,30.351377,1027.9,,TRUE,TRUE,,,,,,,CLR,,,,,,,,VFR,,,,,,,,,,,,SPECI,5.0
K79J 171356Z AUTO 00000KT 7SM BKN100 06/03 A3023 RMK AO2 SLP238 T00560033,K79J,2019-01-17T13:56:00Z,31.32,-86.4,5.6,3.3,0,0,,7.0,30.230314,1023.8,,TRUE,TRUE,,,,,,,BKN,10000,,,,,,,VFR,,,,,,,,,,,,SPECI,94.0
KNXP 171356Z AUTO 14007KT 10SM SCT030 12/08 A3015 RMK AO2 SLP190 T01170078,KNXP,2019-01-17T13:56:00Z,34.28,-116.17,11.7,7.8,140,7,,10.0,30.15059,1019.0,,TRUE,TRUE,,,,,,,SCT,3000,,,,,,,VFR,,,,,,,,,,,,METAR,626.0
KDRA 171356Z AUTO 20016G23KT 10SM -RA BKN043 OVC055 12/07 A3000 RMK AO2 PK WND 19027/1335 RAB17 SLP139 P0000 T01170072,KDRA,2019-01-17T13:56:00Z,36.62,-116.03,11.7,7.2,200,16,23,10.0,30.0,1013.9,,TRUE,TRUE,,,,,,-RA,BKN,4300,OVC,5500,,,,,VFR,,,,,,0.005,,,,,,SPECI,1006.0
KNBT 171356Z AUTO 03008KT 10SM CLR 08/05 A3032 RMK AO2 SLP271 T00780050 PNO $,KNBT,2019-01-17T13:56:00Z,35.02,-76.47,7.8,5.0,30,8,,10.0,30.318897,1027.1,,TRUE,TRUE,TRUE,,,,,,CLR,,,,,,,,VFR,,,,,,,,,,,,METAR,5.0
KNRS 171356Z AUTO 12003KT 7SM SCT022 OVC034 14/11 A3018 RMK AO2 SLP219 T01440106,KNRS,2019-01-17T13:56:00Z,32.57,-117.12,14.4,10.6,120,3,,7.0,30.180119,1021.9,,TRUE,TRUE,,,,,,,SCT,2200,OVC,3400,,,,,VFR,,,,,,,,,,,,METAR,7.0
KNPA 171356Z 00000KT 8SM SCT100 SCT250 08/07 A3025 RMK AO2 SLP243 T00780072,KNPA,2019-01-17T13:56:00Z,30.35,-87.32,7.8,7.2,0,0,,8.0,30.250984,1024.3,,,TRUE,,,,,,,SCT,10000,SCT,25000,,,,,VFR,,,,,,,,,,,,SPECI,9.0
KNUW 171356Z 10008KT 10SM SCT080 BKN140 OVC220 08/04 A2950 RMK AO2 SLP990 T00780039 $,KNUW,2019-01-17T13:56:00Z,48.35,-122.65,7.8,3.9,100,8,,10.0,29.500984,999.0,,,TRUE,TRUE,,,,,,SCT,8000,BKN,14000,OVC,22000,,,VFR,,,,,,,,,,,,SPECI,14.0
K8D3 171356Z AUTO 35006KT M17/M18 A3013 RMK AO1 SLP252 T11671183 $,K8D3,2019-01-17T13:56:00Z,45.67,-96.98,-16.7,-18.3,350,6,,,30.129921,1025.2,,TRUE,TRUE,TRUE,,,,,,,,,,,,,,,,,,,,,,,,,,SPECI,354.0
KP28 171356Z AUTO 32008KT 00/M01 A3015 RMK AO1 SLP220 T00001006,KP28,2019-01-17T13:56:00Z,37.28,-98.55,0.0,-0.6,320,8,,,30.15059,1022.0,,TRUE,TRUE,,,,,,,,,,,,,,,,,,,,,,,,,,,METAR,469.0
ROTM 171356Z 36013G20KT 10SM SCT040 14/08 A3026 RMK AO2 SLP236 STNPR29960 T01390083 $,ROTM,2019-01-17T13:56:00Z,26.27,127.75,13.9,8.3,360,13,20,10.0,30.259842,1023.6,,,TRUE,TRUE,,,,,,SCT,4000,,,,,,,VFR,,,,,,,,,,,,METAR,75.0
KP53 171356Z AUTO 19007KT M14/M17 A3015 RMK AO1 SLP227 T11391167,KP53,2019-01-17T13:56:00Z,46.42,-86.65,-13.9,-16.7,190,7,,,30.15059,1022.7,,TRUE,TRUE,,,,,,,,,,,,,,,,,,,,,,,,,,,METAR,187.0
KMQE 171356Z AUTO 33009G14KT M09/M17 A3033 RMK AO1 SLP292 T10941172,KMQE,2019-01-17T13:56:00Z,42.22,-71.12,-9.4,-17.2,330,9,14,,30.33071,1029.2,,TRUE,TRUE,,,,,,,,,,,,,,,,,,,,,,,,,,,METAR,199.0
KSPD 171356Z AUTO 23004KT M04/M06 A3009 RMK AO1 SLP207 T10441061,KSPD,2019-01-17T13:56:00Z,37.28,-102.62,-4.4,-6.1,230,4,,,30.088583,1020.7,,TRUE,TRUE,,,,,,,,,,,,,,,,,,,,,,,,,,,METAR,1335.0
KD07 171356Z AUTO 30003KT M06/M08 A3001 RMK AO1 SLP209 T10561078,KD07,2019-01-17T13:56:00Z,45.03,-102.02,-5.6,-7.8,300,3,,,30.008858,1020.9,,TRUE,TRUE,,,,,,,,,,,,,,,,,,,,,,,,,,,METAR,784.0
K2WX 171356Z AUTO 36006KT M05/M07 A2996 RMK AO1 SLP186 T10501067,K2WX,2019-01-17T13:56:00Z,45.6,-103.55,-5.0,-6.7,360,6,,,29.958662,1018.6,,TRUE,TRUE,,,,,,,,,,,,,,,,,,,,,,,,,,,METAR,915.0
KNMM 171356Z 22004KT 10SM -RA OVC034 10/07 A3021 RMK AO2 RAB53 SLP242 P0000 T01000067 $,KNMM,2019-01-17T13:56:00Z,32.53,-88.57,10.0,6.7,220,4,,10.0,30.209646,1024.2,,,TRUE,TRUE,,,,,-RA,OVC,3400,,,,,,,VFR,,,,,,0.005,,,,,,METAR,97.0
KABH 171356Z AUTO 19005KT A3007 RMK AO2 SLPNO $,KABH,2019-01-17T13:56:00Z,38.75,-104.3,,,190,5,,,30.070866,,,TRUE,TRUE,TRUE,,,,,,,,,,,,,,,,,,,,,,,,,,SPECI,1840.0
KGNA 171356Z AUTO 33006KT M11/M18 A3011 RMK AO1 SLP218 T11111183 $,KGNA,2019-01-17T13:56:00Z,47.75,-90.35,-11.1,-18.3,330,6,,,30.109253,1021.8,,TRUE,TRUE,TRUE,,,,,,,,,,,,,,,,,,,,,,,,,,SPECI,185.0
KNID 171356Z 11007KT 10SM -RA SCT050 SCT065 BKN090 11/11 A2999 RMK AO2 PRESFR SLP156 P0016 T01060106 $,KNID,2019-01-17T13:56:00Z,35.67,-117.67,10.6,10.6,110,7,,10.0,29.991142,1015.6,,,TRUE,TRUE,,,,,-RA,SCT,5000,SCT,6500,BKN,9000,,,VFR,,,,,,0.16,,,,,,SPECI,696.0
KQAZ 171356Z VRB06G14KT 9999 CLR 27/M15 A2994 RMK AO2A SLP160 WND DATA ESTMD T02701153,KQAZ,2019-01-17T13:56:00Z,,,27.0,-15.3,0,6,14,6.21,29.940945,1016.0,,,TRUE,,,,,,,CLR,,,,,,,,VFR,,,,,,,,,,,,METAR,
KAQV 171356Z AUTO VRB06KT 6SM BR OVC004 14/13 A3011 RMK AO2 SLP195 T01440128,KAQV,2019-01-17T13:56:00Z,31.4,-93.3,14.4,12.8,0,6,,6.0,30.109253,1019.5,,TRUE,TRUE,,,,,,BR,OVC,400,,,,,,,LIFR,,,,,,,,,,,,METAR,111.0
KNOG 171356Z AUTO 31007KT 10SM OVC005 13/13 A3022 RMK AO2 SLP214 T01330128 PWINO $,KNOG,2019-01-17T13:56:00Z,27.9,-98.05,13.3,12.8,310,7,,10.0,30.221457,1021.4,,TRUE,TRUE,TRUE,,,,TRUE,,OVC,500,,,,,,,IFR,,,,,,,,,,,,SPECI,78.0
EGUL 171356Z 32010G21KT 9999 FEW032 04/M03 A2985 RMK AO2A SLPNO T00381026 $,EGUL,2019-01-17T13:56:00Z,52.42,0.57,3.8,-2.6,320,10,21,6.21,29.84941,,,,TRUE,TRUE,,,,,,FEW,3200,,,,,,,VFR,,,,,,,,,,,,METAR,10.0
EGVA 171356Z AUTO 33011G20KT M M CLR 05/M04 A2996 RMK AO2 SLPNO T00501038 RVRNO $,EGVA,2019-01-17T13:56:00Z,51.67,-1.77,5.0,-3.8,330,11,20,,29.958662,,,TRUE,TRUE,TRUE,,,,,,CLR,,,,,,,,,,,,,,,,,,,,METAR,87.0
PHHI 171356Z AUTO 23007G15KT 10SM OVC055 22/15 A2990 RMK AO2 SLP116 T02210154 $,PHHI,2019-01-17T13:56:00Z,21.48,-158.05,22.1,15.4,230,7,15,10.0,29.899607,1011.6,,TRUE,TRUE,TRUE,,,,,,OVC,5500,,,,,,,VFR,,,,,,,,,,,,METAR,255.0
ETIK 171356Z AUTO 24014G25KT 9999 FEW027 SCT140 06/03 A2966 RMK AO2 SLPNO T00580030 $,ETIK,2019-01-17T13:56:00Z,49.47,10.37,5.8,3.0,240,14,25,6.21,29.660433,,,TRUE,TRUE,TRUE,,,,,,FEW,2700,SCT,14000,,,,,VFR,,,,,,,,,,,,METAR,325.0
ETEB 171356Z AUTO 23014G22KT 9999 FEW021 FEW027 04/02 A2966 RMK AO2 PK WND 27027/09 SLPNO T00430018 $,ETEB,2019-01-17T13:56:00Z,49.32,10.62,4.3,1.8,230,14,22,6.21,29.660433,,,TRUE,TRUE,TRUE,,,,,,FEW,2100,FEW,2700,,,,,VFR,,,,,,,,,,,,METAR,467.0
KAND 171356Z AUTO 07010KT 10SM CLR 03/00 A3025 RMK AO2 SLP246 T00280000,KAND,2019-01-17T13:56:00Z,34.5,-82.72,2.8,0.0,70,10,,10.0,30.250984,1024.6,,TRUE,TRUE,,,,,,,CLR,,,,,,,,VFR,,,,,,,,,,,,SPECI,239.0
KART 171356Z AUTO 08003KT 10SM CLR M18/M22 A3043 RMK AO2 SLP317 T11831217 $,KART,2019-01-17T13:56:00Z,43.98,-76.03,-18.3,-21.7,80,3,,10.0,30.431103,1031.7,,TRUE,TRUE,TRUE,,,,,,CLR,,,,,,,,VFR,,,,,,,,,,,,SPECI,100.0
KUCP 171356Z AUTO 11003KT 10SM OVC035 M06/M08 A3025 RMK AO2 SLP276 T10561083,KUCP,2019-01-17T13:56:00Z,41.03,-80.42,-5.6,-8.3,110,3,,10.0,30.250984,1027.6,,TRUE,TRUE,,,,,,,OVC,3500,,,,,,,VFR,,,,,,,,,,,,SPECI,327.0
KGON 171356Z 34009KT 10SM CLR M04/M18 A3040 RMK AO2 SLP295 T10441183,KGON,2019-01-17T13:56:00Z,41.33,-72.05,-4.4,-18.3,340,9,,10.0,30.398623,1029.5,,,TRUE,,,,,,,CLR,,,,,,,,VFR,,,,,,,,,,,,SPECI,3.0
KHKS 171356Z 17010KT 3SM -RA BR FEW008 OVC022 09/08 A3017 RMK AO2 P0000 T00890078,KHKS,2019-01-17T13:56:00Z,32.33,-90.22,8.9,7.8,170,10,,3.0,30.171259,,,,TRUE,,,,,,-RA BR,FEW,800,OVC,2200,,,,,MVFR,,,,,,0.005,,,,,,SPECI,108.0
KHPN 171356Z 01007KT 10SM CLR M06/M14 A3038 RMK AO2 SLP297 T10561139 $,KHPN,2019-01-17T13:56:00Z,41.07,-73.7,-5.6,-13.9,10,7,,10.0,30.380905,1029.7,,,TRUE,TRUE,,,,,,CLR,,,,,,,,VFR,,,,,,,,,,,,SPECI,121.0
KHWV 171356Z AUTO 01008KT 10SM CLR M03/M12 A3041 RMK AO2 SLP298 T10331122,KHWV,2019-01-17T13:56:00Z,40.82,-72.87,-3.3,-12.2,10,8,,10.0,30.410433,1029.8,,TRUE,TRUE,,,,,,,CLR,,,,,,,,VFR,,,,,,,,,,,,SPECI,21.0
KHYA 171356Z 35010G18KT 10SM CLR M04/M14 A3035 RMK AO2 SLP281 T10391144,KHYA,2019-01-17T13:56:00Z,41.67,-70.27,-3.9,-14.4,350,10,18,10.0,30.351377,1028.1,,,TRUE,,,,,,,CLR,,,,,,,,VFR,,,,,,,,,,,,SPECI,22.0
KNDZ 171356Z 00000KT 7SM MIFG SCT100 SCT250 04/04 A3025 RMK AO2 SLP234 T00440039 $,KNDZ,2019-01-17T13:56:00Z,30.7,-87.02,4.4,3.9,0,0,,7.0,30.250984,1023.4,,,TRUE,TRUE,,,,,MIFG,SCT,10000,SCT,25000,,,,,VFR,,,,,,,,,,,,METAR,54.0
KINW 171356Z AUTO 12006KT 10SM CLR M03/M04 A3021 RMK AO2 SLP240 I1001 T10281039,KINW,2019-01-17T13:56:00Z,35.03,-110.72,-2.8,-3.9,120,6,,10.0,30.209646,1024.0,,TRUE,TRUE,,,,,,,CLR,,,,,,,,VFR,,,,,,,,,,,,METAR,1490.0
KISP 171356Z 35009KT 10SM BKN150 BKN250 M03/M11 A3039 RMK SLP294 T10331111,KISP,2019-01-17T13:56:00Z,40.8,-73.1,-3.3,-11.1,350,9,,10.0,30.389763,1029.4,,,,,,,,,,BKN,15000,BKN,25000,,,,,VFR,,,,,,,,,,,,SPECI,43.0
KASH 171356Z 32007KT 10SM CLR M11/M18 A3041 RMK AO2 SLP308 T11061183 $,KASH,2019-01-17T13:56:00Z,42.78,-71.52,-10.6,-18.3,320,7,,10.0,30.410433,1030.8,,,TRUE,TRUE,,,,,,CLR,,,,,,,,VFR,,,,,,,,,,,,METAR,61.0
KDUG 171356Z AUTO 00000KT 10SM CLR 03/00 A3024 RMK AO2 SLP218 T00330000,KDUG,2019-01-17T13:56:00Z,31.47,-109.58,3.3,0.0,0,0,,10.0,30.239174,1021.8,,TRUE,TRUE,,,,,,,CLR,,,,,,,,VFR,,,,,,,,,,,,SPECI,1265.0
KEED 171356Z AUTO 26003KT 10SM OVC060 12/10 A3015 RMK AO2 SLP196 T01220100 $,KEED,2019-01-17T13:56:00Z,34.77,-114.62,12.2,10.0,260,3,,10.0,30.15059,1019.6,,TRUE,TRUE,TRUE,,,,,,OVC,6000,,,,,,,VFR,,,,,,,,,,,,SPECI,302.0
KEAU 171356Z 00000KT 9SM OVC014 M07/M11 A3007 RMK AO2 SNB35E53 SLP201 P0000 T10721111,KEAU,2019-01-17T13:56:00Z,44.87,-91.47,-7.2,-11.1,0,0,,9.0,30.070866,1020.1,,,TRUE,,,,,,,OVC,1400,,,,,,,MVFR,,,,,,0.005,,,,,,SPECI,276.0
KELZ 171356Z AUTO 12003KT 10SM CLR M13/M14 A3022 RMK AO2 SLP279 T11331139 $,KELZ,2019-01-17T13:56:00Z,42.1,-77.98,-13.3,-13.9,120,3,,10.0,30.221457,1027.9,,TRUE,TRUE,TRUE,,,,,,CLR,,,,,,,,VFR,,,,,,,,,,,,SPECI,646.0
KEKO 171356Z AUTO 25003KT 10SM BKN032 OVC046 04/01 A2980 RMK AO2 RAE03 SLP090 P0000 T00390011,KEKO,2019-01-17T13:56:00Z,40.82,-115.78,3.9,1.1,250,3,,10.0,29.799213,1009.0,,TRUE,TRUE,,,,,,,BKN,3200,OVC,4600,,,,,VFR,,,,,,0.005,,,,,,SPECI,1547.0
KEKQ 171356Z AUTO 10005KT 10SM -RA BKN044 OVC050 04/02 A3016 RMK AO2 RAB12 SLP242 T00440022 PNO $,KEKQ,2019-01-17T13:56:00Z,36.85,-84.85,4.4,2.2,100,5,,10.0,30.159449,1024.2,,TRUE,TRUE,TRUE,,,,,-RA,BKN,4400,OVC,5000,,,,,VFR,,,,,,,,,,,,METAR,294.0
KEHR 171356Z AUTO 17008KT 4SM BR OVC006 06/05 A3005 RMK AO2 RAE50 SLP187 P0001 T00560050,KEHR,2019-01-17T13:56:00Z,37.82,-87.67,5.6,5.0,170,8,,4.0,30.050198,1018.7,,TRUE,TRUE,,,,,,BR,OVC,600,,,,,,,IFR,,,,,,0.01,,,,,,METAR,117.0
KEGE 171356Z 10004KT 10SM CLR M05/M07 A3019 RMK AO2 SLP264 T10501072,KEGE,2019-01-17T13:56:00Z,39.63,-106.92,-5.0,-7.2,100,4,,10.0,30.188976,1026.4,,,TRUE,,,,,,,CLR,,,,,,,,VFR,,,,,,,,,,,,METAR,1993.0
KESC 171356Z AUTO 00000KT 10SM OVC035 M17/M19 A3016 RMK AO2 SNE00 SLP243 P0000 T11721189 FZRANO,KESC,2019-01-17T13:56:00Z,45.75,-87.08,-17.2,-18.9,0,0,,10.0,30.159449,1024.3,,TRUE,TRUE,,,,TRUE,,,OVC,3500,,,,,,,VFR,,,,,,0.005,,,,,,SPECI,187.0
KENV 171356Z AUTO 28004KT 8SM OVC070 M01/M02 A2992 RMK AO2 SLP156 T10111017 FZRANO,KENV,2019-01-17T13:56:00Z,40.72,-114.02,-1.1,-1.7,280,4,,8.0,29.920275,1015.6,,TRUE,TRUE,,,,TRUE,,,OVC,7000,,,,,,,VFR,,,,,,,,,,,,METAR,1292.0
KEUL 171356Z AUTO 12015KT 10SM BKN055 06/03 A2967 RMK AO2 SLP058 T00610033,KEUL,2019-01-17T13:56:00Z,43.62,-116.62,6.1,3.3,120,15,,10.0,29.66929,1005.8,,TRUE,TRUE,,,,,,,BKN,5500,,,,,,,VFR,,,,,,,,,,,,METAR,740.0
KFCI 171356Z AUTO 06004KT 10SM OVC041 02/M01 A3035 RMK AO2 SLP298 T00171006 FZRANO,KFCI,2019-01-17T13:56:00Z,37.4,-77.52,1.7,-0.6,60,4,,10.0,30.351377,1029.8,,TRUE,TRUE,,,,TRUE,,,OVC,4100,,,,,,,VFR,,,,,,,,,,,,METAR,72.0
KEWK 171356Z AUTO 31007KT 5SM BR OVC003 M01/M01 A3011 RMK AO2 SLP207 T10061006 FZRANO,KEWK,2019-01-17T13:56:00Z,38.03,-97.27,-0.6,-0.6,310,7,,5.0,30.109253,1020.7,,TRUE,TRUE,,,,TRUE,,BR,OVC,300,,,,,,,LIFR,,,,,,,,,,,,METAR,467.0
KFKL 171356Z AUTO 11004KT 10SM CLR M09/M11 A3023 RMK AO2 SLP264 T10941111 FZRANO,KFKL,2019-01-17T13:56:00Z,41.37,-79.87,-9.4,-11.1,110,4,,10.0,30.230314,1026.4,,TRUE,TRUE,,,,TRUE,,,CLR,,,,,,,,VFR,,,,,,,,,,,,SPECI,469.0
KFOD 171356Z AUTO 30004KT 4SM -SN BR BKN007 OVC034 M04/M06 A3009 RMK AO2 SNB40 SLP236 P0000 T10441056 FZRANO,KFOD,2019-01-17T13:56:00Z,42.53,-94.17,-4.4,-5.6,300,4,,4.0,30.088583,1023.6,,TRUE,TRUE,,,,TRUE,,-SN BR,BKN,700,OVC,3400,,,,,IFR,,,,,,0.005,,,,,,METAR,355.0
KFNL 171356Z AUTO 04005KT 10SM CLR M06/M07 A3001 RMK AO2 SLP185 T10611072 FZRANO PNO $,KFNL,2019-01-17T13:56:00Z,40.45,-105.02,-6.1,-7.2,40,5,,10.0,30.008858,1018.5,,TRUE,TRUE,TRUE,,,TRUE,,,CLR,,,,,,,,VFR,,,,,,,,,,,,METAR,1529.0
KFRM 171356Z AUTO 33005KT 9SM SCT006 OVC040 M07/M08 A3010 RMK AO2 SNE51 SLP215 P0000 T10671078 FZRANO,KFRM,2019-01-17T13:56:00Z,43.63,-94.42,-6.7,-7.8,330,5,,9.0,30.100393,1021.5,,TRUE,TRUE,,,,TRUE,,,SCT,600,OVC,4000,,,,,VFR,,,,,,0.005,,,,,,SPECI,354.0
KGPZ 171356Z AUTO 30003KT 10SM OVC085 M19/M21 A3010 RMK AO2 SLP239 T11891206 FZRANO,KGPZ,2019-01-17T13:56:00Z,47.22,-93.52,-18.9,-20.6,300,3,,10.0,30.100393,1023.9,,TRUE,TRUE,,,,TRUE,,,OVC,8500,,,,,,,VFR,,,,,,,,,,,,METAR,413.0
KBED 171356Z 31009KT 10SM CLR M08/M19 A3039 RMK AO2 SLP307 T10831189,KBED,2019-01-17T13:56:00Z,42.47,-71.3,-8.3,-18.9,310,9,,10.0,30.389763,1030.7,,,TRUE,,,,,,,CLR,,,,,,,,VFR,,,,,,,,,,,,SPECI,50.0
KGAI 171356Z AUTO VRB03KT 10SM OVC045 00/M05 A3034 RMK AO2 SLP309 T00001050 FZRANO,KGAI,2019-01-17T13:56:00Z,39.17,-77.17,0.0,-5.0,0,3,,10.0,30.339567,1030.9,,TRUE,TRUE,,,,TRUE,,,OVC,4500,,,,,,,VFR,,,,,,,,,,,,METAR,165.0
KGDV 171356Z AUTO 36007KT 10SM OVC007 M06/M07 A3005 RMK AO2 SLP214 T10611072 FZRANO,KGDV,2019-01-17T13:56:00Z,47.12,-104.78,-6.1,-7.2,360,7,,10.0,30.050198,1021.4,,TRUE,TRUE,,,,TRUE,,,OVC,700,,,,,,,IFR,,,,,,,,,,,,SPECI,749.0
KGXY 171356Z AUTO 00000KT 10SM CLR M09/M11 A3002 RMK AO2 SLP217 T10941111 FZRANO,KGXY,2019-01-17T13:56:00Z,40.42,-104.62,-9.4,-11.1,0,0,,10.0,30.02067,1021.7,,TRUE,TRUE,,,,TRUE,,,CLR,,,,,,,,VFR,,,,,,,,,,,,SPECI,1420.0
KGTU 171356Z 23003KT 10SM CLR 09/09 A3015 RMK AO2 RAB29E33 SLP213 P0000 T00940094,KGTU,2019-01-17T13:56:00Z,30.68,-97.68,9.4,9.4,230,3,,10.0,30.15059,1021.3,,,TRUE,,,,,,,CLR,,,,,,,,VFR,,,,,,0.005,,,,,,METAR,240.0
KHEF 171356Z 00000KT 10SM OVC043 M02/M03 A3036 RMK AO2 SLP295 T10171033 PNO $,KHEF,2019-01-17T13:56:00Z,38.72,-77.52,-1.7,-3.3,0,0,,10.0,30.360237,1029.5,,,TRUE,TRUE,,,,,,OVC,4300,,,,,,,VFR,,,,,,,,,,,,METAR,59.0
KHDN 171356Z AUTO 08008KT 10SM CLR M05/M06 A3012 RMK AO2 SLP230 T10501061 FZRANO,KHDN,2019-01-17T13:56:00Z,40.47,-107.22,-5.0,-6.1,80,8,,10.0,30.121063,1023.0,,TRUE,TRUE,,,,TRUE,,,CLR,,,,,,,,VFR,,,,,,,,,,,,METAR,2012.0
KBJJ 171356Z AUTO 13007KT 10SM OVC031 M04/M07 A3020 RMK AO2 SLP244 T10441067,KBJJ,2019-01-17T13:56:00Z,40.87,-81.88,-4.4,-6.7,130,7,,10.0,30.200787,1024.4,,TRUE,TRUE,,,,,,,OVC,3100,,,,,,,VFR,,,,,,,,,,,,SPECI,343.0
KBIH 171356Z AUTO 15018G22KT 6SM -RA BR FEW013 SCT023 OVC037 07/06 A2991 RMK AO2 SLP115 P0008 T00720056,KBIH,2019-01-17T13:56:00Z,37.37,-118.35,7.2,5.6,150,18,22,6.0,29.911417,1011.5,,TRUE,TRUE,,,,,,-RA BR,FEW,1300,SCT,2300,OVC,3700,,,VFR,,,,,,0.08,,,,,,SPECI,1253.0
KBZN 171356Z 07003KT 10SM OVC055 M06/M08 A2982 RMK AO2 SLP149 T10561078,KBZN,2019-01-17T13:56:00Z,45.78,-111.17,-5.6,-7.8,70,3,,10.0,29.819881,1014.9,,,TRUE,,,,,,,OVC,5500,,,,,,,VFR,,,,,,,,,,,,SPECI,1361.0
KGUC 171356Z AUTO 16003KT 1/4SM -SN FZFG OVC003 M16/M17 A3025 RMK AO2 SLP310 P0000 T11561172 FZRANO,KGUC,2019-01-17T13:56:00Z,38.52,-106.92,-15.6,-17.2,160,3,,0.25,30.250984,1031.0,,TRUE,TRUE,,,,TRUE,,-SN FZFG,OVC,300,,,,,,,LIFR,,,,,,0.005,,,,,,SPECI,2339.0
KHYI 171356Z 23008KT 10SM OVC006 12/12 A3017 RMK AO2 SLPNO T01220117,KHYI,2019-01-17T13:56:00Z,29.88,-97.87,12.2,11.7,230,8,,10.0,30.171259,,,,TRUE,,,,,,,OVC,600,,,,,,,IFR,,,,,,,,,,,,METAR,182.0
KHND 171356Z 17012KT 10SM BKN049 12/08 A3008 RMK AO2 SLP185 T01170083 $,KHND,2019-01-17T13:56:00Z,35.98,-115.13,11.7,8.3,170,12,,10.0,30.079725,1018.5,,,TRUE,TRUE,,,,,,BKN,4900,,,,,,,VFR,,,,,,,,,,,,METAR,749.0
KPRX 171356Z AUTO 24008KT 10SM SCT013 13/12 A3005 RMK AO2 SLP192 T01280117,KPRX,2019-01-17T13:56:00Z,33.62,-95.45,12.8,11.7,240,8,,10.0,30.050198,1019.2,,TRUE,TRUE,,,,,,,SCT,1300,,,,,,,VFR,,,,,,,,,,,,METAR,167.0
KPQI 171356Z AUTO 27010KT 10SM CLR M21/M26 A3028 RMK AO2 SLP303 T12061256 FZRANO,KPQI,2019-01-17T13:56:00Z,46.67,-68.03,-20.6,-25.6,270,10,,10.0,30.280512,1030.3,,TRUE,TRUE,,,,TRUE,,,CLR,,,,,,,,VFR,,,,,,,,,,,,METAR,146.0
KPTN 171356Z AUTO 14007KT 10SM BKN046 12/12 A3020 RMK AO2 SLP226 T01220117,KPTN,2019-01-17T13:56:00Z,29.72,-91.32,12.2,11.7,140,7,,10.0,30.200787,1022.6,,TRUE,TRUE,,,,,,,BKN,4600,,,,,,,VFR,,,,,,,,,,,,METAR,3.0
KPVG 171356Z AUTO 05006KT 10SM OVC039 05/M02 A3036 RMK AO2 SLP281 T00501022 PNO $,KPVG,2019-01-17T13:56:00Z,36.78,-76.45,5.0,-2.2,50,6,,10.0,30.360237,1028.1,,TRUE,TRUE,TRUE,,,,,,OVC,3900,,,,,,,VFR,,,,,,,,,,,,METAR,7.0
KPVC 171356Z AUTO 33012G19KT 10SM CLR M05/M13 A3039 RMK AO2 SLP290 T10501128 FZRANO,KPVC,2019-01-17T13:56:00Z,42.07,-70.22,-5.0,-12.8,330,12,19,10.0,30.389763,1029.0,,TRUE,TRUE,,,,TRUE,,,CLR,,,,,,,,VFR,,,,,,,,,,,,SPECI,2.0
KRKD 171356Z AUTO VRB05KT 10SM CLR M13/M21 A3036 RMK AO2 SLP282 T11281206 FZRANO,KRKD,2019-01-17T13:56:00Z,44.07,-69.08,-12.8,-20.6,0,5,,10.0,30.360237,1028.2,,TRUE,TRUE,,,,TRUE,,,CLR,,,,,,,,VFR,,,,,,,,,,,,METAR,17.0
KPWG 171356Z AUTO 24007KT 10SM CLR 12/11 A3011 RMK AO2 SLP213 T01170106,KPWG,2019-01-17T13:56:00Z,31.47,-97.32,11.7,10.6,240,7,,10.0,30.109253,1021.3,,TRUE,TRUE,,,,,,,CLR,,,,,,,,VFR,,,,,,,,,,,,METAR,180.0
KPVU 171356Z 15007KT 10SM FEW050 OVC060 04/M01 A3003 RMK AO2 SLP170 T00391006,KPVU,2019-01-17T13:56:00Z,40.22,-111.72,3.9,-0.6,150,7,,10.0,30.029528,1017.0,,,TRUE,,,,,,,FEW,5000,OVC,6000,,,,,VFR,,,,,,,,,,,,SPECI,1369.0
KPTV 171356Z AUTO 00000KT 10SM -RA BKN019 OVC029 14/13 A3002 RMK AO2 RAE32B50 SLP178 P0001 T01390133,KPTV,2019-01-17T13:56:00Z,36.02,-119.07,13.9,13.3,0,0,,10.0,30.02067,1017.8,,TRUE,TRUE,,,,,,-RA,BKN,1900,OVC,2900,,,,,MVFR,,,,,,0.01,,,,,,METAR,135.0
KSDY 171356Z AUTO 02006KT 2 1/2SM BR OVC003 M07/M07 A3009 RMK AO2 SLP227 T10671072 FZRANO,KSDY,2019-01-17T13:56:00Z,47.7,-104.2,-6.7,-7.2,20,6,,2.5,30.088583,1022.7,,TRUE,TRUE,,,,TRUE,,BR,OVC,300,,,,,,,LIFR,,,,,,,,,,,,SPECI,605.0
KRUT 171356Z AUTO 12005KT 10SM CLR M16/M19 RMK AO2 SLPNO T11611194 FZRANO $,KRUT,2019-01-17T13:56:00Z,43.52,-72.95,-16.1,-19.4,120,5,,10.0,,,,TRUE,TRUE,TRUE,,,TRUE,,,CLR,,,,,,,,VFR,,,,,,,,,,,,METAR,240.0
KSFZ 171356Z AUTO 35008KT 10SM CLR M08/M16 A3036 RMK AO2 SLP232 T10781161 FZRANO,KSFZ,2019-01-17T13:56:00Z,41.92,-71.5,-7.8,-16.1,350,8,,10.0,30.360237,1023.2,,TRUE,TRUE,,,,TRUE,,,CLR,,,,,,,,VFR,,,,,,,,,,,,METAR,134.0
KSFM 171356Z AUTO 29008KT 10SM CLR M12/M21 A3036 RMK AO2 SLP288 T11171206 FZRANO PNO $,KSFM,2019-01-17T13:56:00Z,43.38,-70.72,-11.7,-20.6,290,8,,10.0,30.360237,1028.8,,TRUE,TRUE,TRUE,,,TRUE,,,CLR,,,,,,,,VFR,,,,,,,,,,,,METAR,74.0
KSGJ 171356Z 32004KT 10SM CLR 09/07 A3028 RMK AO2 SLP254 T00940067,KSGJ,2019-01-17T13:56:00Z,29.97,-81.32,9.4,6.7,320,4,,10.0,30.280512,1025.4,,,TRUE,,,,,,,CLR,,,,,,,,VFR,,,,,,,,,,,,METAR,3.0
KUDG 171356Z AUTO 35003KT 10SM CLR 01/01 A3030 RMK AO2 SLP269 T00110006 FZRANO,KUDG,2019-01-17T13:56:00Z,34.45,-79.88,1.1,0.6,350,3,,10.0,30.301182,1026.9,,TRUE,TRUE,,,,TRUE,,,CLR,,,,,,,,VFR,,,,,,,,,,,,METAR,59.0
KSGU 171356Z AUTO 18005KT 10SM FEW045 BKN060 OVC075 06/05 A3013 RMK AO2 RAB36E53 SLP203 T00610050 PNO $,KSGU,2019-01-17T13:56:00Z,37.07,-113.52,6.1,5.0,180,5,,10.0,30.129921,1020.3,,TRUE,TRUE,TRUE,,,,,,FEW,4500,BKN,6000,OVC,7500,,,VFR,,,,,,,,,,,,SPECI,896.0
KSKX 171356Z AUTO 09004KT 10SM CLR M06/M07 A3027 RMK AO2 SLP276 T10561072 FZRANO $,KSKX,2019-01-17T13:56:00Z,36.45,-105.67,-5.6,-7.2,90,4,,10.0,30.268702,1027.6,,TRUE,TRUE,TRUE,,,TRUE,,,CLR,,,,,,,,VFR,,,,,,,,,,,,SPECI,2161.0
KSUE 171356Z AUTO 00000KT 10SM OVC032 M07/M09 A3016 RMK AO2 SLP236 T10721094 FZRANO,KSUE,2019-01-17T13:56:00Z,44.85,-87.42,-7.2,-9.4,0,0,,10.0,30.159449,1023.6,,TRUE,TRUE,,,,TRUE,,,OVC,3200,,,,,,,VFR,,,,,,,,,,,,METAR,221.0
KSGT 171356Z AUTO 19007KT 7SM OVC010 10/09 A3008 RMK AO2 SLP185 T01000089,KSGT,2019-01-17T13:56:00Z,34.6,-91.57,10.0,8.9,190,7,,7.0,30.079725,1018.5,,TRUE,TRUE,,,,,,,OVC,1000,,,,,,,MVFR,,,,,,,,,,,,METAR,68.0
KSMN 171356Z AUTO 00000KT 9SM BKN060 OVC080 M07/M09 A2983 RMK AO2 SLP152 T10721089 FZRANO TSNO,KSMN,2019-01-17T13:56:00Z,45.12,-113.87,-7.2,-8.9,0,0,,9.0,29.828741,1015.2,,TRUE,TRUE,,,TRUE,TRUE,,,BKN,6000,OVC,8000,,,,,VFR,,,,,,,,,,,,SPECI,1233.0
KSRC 171356Z AUTO 16004KT 1 1/2SM -RA BR OVC002 09/09 A3005 RMK AO2 SLP186 P0000 T00940094,KSRC,2019-01-17T13:56:00Z,35.22,-91.73,9.4,9.4,160,4,,1.5,30.050198,1018.6,,TRUE,TRUE,,,,,,-RA BR,OVC,200,,,,,,,LIFR,,,,,,0.005,,,,,,METAR,80.0
KILE 171356Z AUTO 30005KT 10SM CLR 11/09 A3013 RMK AO2 SLP223 T01060094,KILE,2019-01-17T13:56:00Z,31.07,-97.67,10.6,9.4,300,5,,10.0,30.129921,1022.3,,TRUE,TRUE,,,,,,,CLR,,,,,,,,VFR,,,,,,,,,,,,METAR,258.0
KVIS 171356Z AUTO 11008KT 10SM CLR 14/13 A3000 RMK AO2 SLP168 T01390128 PNO $,KVIS,2019-01-17T13:56:00Z,36.32,-119.4,13.9,12.8,110,8,,10.0,30.0,1016.8,,TRUE,TRUE,TRUE,,,,,,CLR,,,,,,,,VFR,,,,,,,,,,,,SPECI,89.0
KCAE 171356Z 00000KT 7SM BCFG FEW130 SCT250 02/02 A3029 RMK AO2 SLP257 T00220017,KCAE,2019-01-17T13:56:00Z,33.93,-81.12,2.2,1.7,0,0,,7.0,30.28937,1025.7,,,TRUE,,,,,,BCFG,FEW,13000,SCT,25000,,,,,VFR,,,,,,,,,,,,SPECI,70.0
KIWD 171356Z AUTO 00000KT 10SM OVC032 M15/M17 A3007 RMK AO2 SLP217 T11501167 FZRANO PNO $,KIWD,2019-01-17T13:56:00Z,46.52,-90.12,-15.0,-16.7,0,0,,10.0,30.070866,1021.7,,TRUE,TRUE,TRUE,,,TRUE,,,OVC,3200,,,,,,,VFR,,,,,,,,,,,,METAR,375.0
KITH 171356Z 08003KT 10SM CLR M13/M15 A3035 RMK AO2 SLP299 T11331150,KITH,2019-01-17T13:56:00Z,42.47,-76.45,-13.3,-15.0,80,3,,10.0,30.351377,1029.9,,,TRUE,,,,,,,CLR,,,,,,,,VFR,,,,,,,,,,,,METAR,335.0
KJHW 171356Z AUTO 00000KT 10SM CLR M13/M14 A3022 RMK AO2 SLP274 T11331144 FZRANO,KJHW,2019-01-17T13:56:00Z,42.13,-79.27,-13.3,-14.4,0,0,,10.0,30.221457,1027.4,,TRUE,TRUE,,,,TRUE,,,CLR,,,,,,,,VFR,,,,,,,,,,,,METAR,525.0
KISM 171356Z 02005KT 10SM CLR 12/08 A3026 RMK AO2 SLP251 T01220078 PNO $,KISM,2019-01-17T13:56:00Z,28.28,-81.43,12.2,7.8,20,5,,10.0,30.259842,1025.1,,,TRUE,TRUE,,,,,,CLR,,,,,,,,VFR,,,,,,,,,,,,METAR,25.0
KCEC 171356Z AUTO 18022G34KT 8SM SCT026 BKN035 OVC055 11/08 A2960 RMK AO2 PK WND 18039/1339 RAB18E27 SLP024 P0000 T01060083,KCEC,2019-01-17T13:56:00Z,41.77,-124.22,10.6,8.3,180,22,34,8.0,29.601377,1002.4,,TRUE,TRUE,,,,,,,SCT,2600,BKN,3500,OVC,5500,,,VFR,,,,,,0.005,,,,,,SPECI,17.0
KLCI 171356Z AUTO 24005KT 10SM CLR M14/M21 A3038 RMK AO2 SLP308 T11441211 FZRANO $,KLCI,2019-01-17T13:56:00Z,43.57,-71.42,-14.4,-21.1,240,5,,10.0,30.380905,1030.8,,TRUE,TRUE,TRUE,,,TRUE,,,CLR,,,,,,,,VFR,,,,,,,,,,,,SPECI,166.0
KLBL 171356Z AUTO 32005KT 10SM CLR M02/M03 A3012 RMK AO2 SLP219 T10221028 FZRANO,KLBL,2019-01-17T13:56:00Z,37.03,-100.97,-2.2,-2.8,320,5,,10.0,30.121063,1021.9,,TRUE,TRUE,,,,TRUE,,,CLR,,,,,,,,VFR,,,,,,,,,,,,METAR,879.0
KLEW 171356Z AUTO 33009G16KT 10SM CLR M13/M22 A3036 RMK AO2 SLP297 T11331222 FZRANO,KLEW,2019-01-17T13:56:00Z,44.03,-70.27,-13.3,-22.2,330,9,16,10.0,30.360237,1029.7,,TRUE,TRUE,,,,TRUE,,,CLR,,,,,,,,VFR,,,,,,,,,,,,METAR,88.0
KMBL 171356Z AUTO 08006KT 10SM BKN026 M11/M13 A3019 RMK AO2 SLP247 T11111128 FZRANO,KMBL,2019-01-17T13:56:00Z,44.27,-86.25,-11.1,-12.8,80,6,,10.0,30.188976,1024.7,,TRUE,TRUE,,,,TRUE,,,BKN,2600,,,,,,,MVFR,,,,,,,,,,,,SPECI,189.0
KM19 171356Z AUTO 17011KT 3SM BR OVC003 08/08 A3003 RMK AO2 RAE1257 SLP176 P0001 T00830083,KM19,2019-01-17T13:56:00Z,35.65,-91.17,8.3,8.3,170,11,,3.0,30.029528,1017.6,,TRUE,TRUE,,,,,,BR,OVC,300,,,,,,,LIFR,,,,,,0.01,,,,,,METAR,73.0
KLRD 171356Z 32005KT 1 1/4SM BR OVC002 12/12 A3021 RMK AO2 SLP246 T01220117,KLRD,2019-01-17T13:56:00Z,27.55,-99.47,12.2,11.7,320,5,,1.25,30.209646,1024.6,,,TRUE,,,,,,BR,OVC,200,,,,,,,LIFR,,,,,,,,,,,,METAR,155.0
KMNM 171356Z AUTO 00000KT 10SM OVC030 M10/M12 A3016 RMK AO2 SLP235 T11001117 FZRANO $,KMNM,2019-01-17T13:56:00Z,45.12,-87.62,-10.0,-11.7,0,0,,10.0,30.159449,1023.5,,TRUE,TRUE,TRUE,,,TRUE,,,OVC,3000,,,,,,,MVFR,,,,,,,,,,,,METAR,191.0
KMML 171356Z AUTO 34004KT 10SM OVC027 M11/M12 A3012 RMK AO2 SLP226 T11061122 FZRANO,KMML,2019-01-17T13:56:00Z,44.45,-95.82,-10.6,-12.2,340,4,,10.0,30.121063,1022.6,,TRUE,TRUE,,,,TRUE,,,OVC,2700,,,,,,,MVFR,,,,,,,,,,,,METAR,359.0
KMYR 171356Z 01004KT 10SM CLR 04/02 A3030 RMK AO2 SLP262 T00440022,KMYR,2019-01-17T13:56:00Z,33.67,-78.92,4.4,2.2,10,4,,10.0,30.301182,1026.2,,,TRUE,,,,,,,CLR,,,,,,,,VFR,,,,,,,,,,,,METAR,8.0
KMTW 171356Z AUTO 00000KT 10SM OVC095 M09/M10 A3015 RMK AO2 SLP232 T10891100 FZRANO,KMTW,2019-01-17T13:56:00Z,44.12,-87.67,-8.9,-10.0,0,0,,10.0,30.15059,1023.2,,TRUE,TRUE,,,,TRUE,,,OVC,9500,,,,,,,VFR,,,,,,,,,,,,METAR,198.0
KMSV 171356Z AUTO 00000KT 10SM CLR M09/M12 A3033 RMK AO2 SLP294 T10891117 FZRANO,KMSV,2019-01-17T13:56:00Z,41.7,-74.78,-8.9,-11.7,0,0,,10.0,30.33071,1029.4,,TRUE,TRUE,,,,TRUE,,,CLR,,,,,,,,VFR,,,,,,,,,,,,METAR,428.0
KOAJ 171356Z 04006KT 5SM BR CLR 02/02 A3031 RMK AO2 SLP271 T00220022,KOAJ,2019-01-17T13:56:00Z,34.82,-77.62,2.2,2.2,40,6,,5.0,30.31004,1027.1,,,TRUE,,,,,,BR,CLR,,,,,,,,MVFR,,,,,,,,,,,,METAR,29.0
KOWB 171356Z 15009KT 1 1/2SM -RA BR OVC006 05/05 A3006 RMK AO2 SLP192 P0001 T00500050,KOWB,2019-01-17T13:56:00Z,37.72,-87.17,5.0,5.0,150,9,,1.5,30.059055,1019.2,,,TRUE,,,,,,-RA BR,OVC,600,,,,,,,IFR,,,,,,0.01,,,,,,METAR,124.0
KOCH 171356Z AUTO 19006KT 4SM BR OVC003 14/14 A3011 RMK AO2 RAE36 SLP201 P0000 T01440144,KOCH,2019-01-17T13:56:00Z,31.57,-94.72,14.4,14.4,190,6,,4.0,30.109253,1020.1,,TRUE,TRUE,,,,,,BR,OVC,300,,,,,,,LIFR,,,,,,0.005,,,,,,METAR,108.0
KOLU 171356Z AUTO 9SM OVC021 M04/M06 A3009 RMK AO2 SLP211 T10391056 FZRANO $,KOLU,2019-01-17T13:56:00Z,41.45,-97.32,-3.9,-5.6,,,,9.0,30.088583,1021.1,,TRUE,TRUE,TRUE,,,TRUE,,,OVC,2100,,,,,,,MVFR,,,,,,,,,,,,SPECI,440.0
KCHS 171356Z 00000KT 9SM FEW250 07/04 A3027 RMK AO2 SLP250 T00670039,KCHS,2019-01-17T13:56:00Z,32.9,-80.03,6.7,3.9,0,0,,9.0,30.268702,1025.0,,,TRUE,,,,,,,FEW,25000,,,,,,,VFR,,,,,,,,,,,,METAR,13.0
KY50 171356Z AUTO 07003KT 10SM OVC021 M07/M09 RMK AO2 SLPNO T10671089 FZRANO $,KY50,2019-01-17T13:56:00Z,44.03,-89.3,-6.7,-8.9,70,3,,10.0,,,,TRUE,TRUE,TRUE,,,TRUE,,,OVC,2100,,,,,,,MVFR,,,,,,,,,,,,METAR,262.0
KWVL 171356Z AUTO 10SM CLR M14/M22 A3032 RMK AO2 SLP302 T11441222 FZRANO $,KWVL,2019-01-17T13:56:00Z,44.52,-69.67,-14.4,-22.2,,,,10.0,30.318897,1030.2,,TRUE,TRUE,TRUE,,,TRUE,,,CLR,,,,,,,,VFR,,,,,,,,,,,,SPECI,101.0
KFSI 171356Z AUTO 35016G22KT 10SM OVC010 04/04 A3013 RMK AO2 SLP206 T00410041,KFSI,2019-01-17T13:56:00Z,34.65,-98.4,4.1,4.1,350,16,22,10.0,30.129921,1020.6,,TRUE,TRUE,,,,,,,OVC,1000,,,,,,,MVFR,,,,,,,,,,,,SPECI,362.0
KFBG 171356Z AUTO 10004KT 10SM CLR 02/01 A3030 RMK AO2 SLP265 T00240011,KFBG,2019-01-17T13:56:00Z,35.12,-78.92,2.4,1.1,100,4,,10.0,30.301182,1026.5,,TRUE,TRUE,,,,,,,CLR,,,,,,,,VFR,,,,,,,,,,,,SPECI,74.0
KEGI 171356Z AUTO 00000KT 10SM CLR 04/04 A3025 RMK AO2 SLP246 T00410040 $,KEGI,2019-01-17T13:56:00Z,30.63,-86.52,4.1,4.0,0,0,,10.0,30.250984,1024.6,,TRUE,TRUE,TRUE,,,,,,CLR,,,,,,,,VFR,,,,,,,,,,,,METAR,59.0
BGTL 171356Z AUTO 10006KT 9999 CLR M27/M30 A2986 RMK AO2 SLP105 T12751299 TSNO CHINO RWY26 $,BGTL,2019-01-17T13:56:00Z,76.53,-68.7,-27.5,-29.9,100,6,,6.21,29.861221,1010.5,,TRUE,TRUE,TRUE,,TRUE,,,,CLR,,,,,,,,VFR,,,,,,,,,,,,METAR,77.0
KCXY 171356Z 09005KT 10SM CLR M03/M10 A3038 RMK AO2 SLP292 T10281100,KCXY,2019-01-17T13:56:00Z,40.22,-76.85,-2.8,-10.0,90,5,,10.0,30.380905,1029.2,,,TRUE,,,,,,,CLR,,,,,,,,VFR,,,,,,,,,,,,SPECI,106.0
KCTB 171356Z AUTO 02010KT 6SM -SN BR OVC011 M10/M12 A2996 RMK AO2 SNB03E26B51 SLP201 P0000 I1000 T11001117,KCTB,2019-01-17T13:56:00Z,48.6,-112.37,-10.0,-11.7,20,10,,6.0,29.958662,1020.1,,TRUE,TRUE,,,,,,-SN BR,OVC,1100,,,,,,,MVFR,,,,,,0.005,,,,,,SPECI,1175.0
RODN 171356Z AUTO 36010KT 10SM SCT040 15/07 A3025 RMK AO2 SLP251 T01480073 $,RODN,2019-01-17T13:56:00Z,26.35,127.77,14.8,7.3,360,10,,10.0,30.250984,1025.1,,TRUE,TRUE,TRUE,,,,,,SCT,4000,,,,,,,VFR,,,,,,,,,,,,METAR,45.0
RKJK 171356Z AUTO 16003KT 8SM CLR M03/M03 A3035 RMK AO2 SLP283 T10311032 PNO CHINO RWY18 $,RKJK,2019-01-17T13:56:00Z,35.9,126.62,-3.1,-3.2,160,3,,8.0,30.351377,1028.3,,TRUE,TRUE,TRUE,,,,,,CLR,,,,,,,,VFR,,,,,,,,,,,,METAR,9.0
PAEI 171356Z 00000KT 10SM CLR M27/M31 A2988 RMK AO2A SLP141 T12721313 $,PAEI,2019-01-17T13:56:00Z,64.67,-147.1,-27.2,-31.3,0,0,,10.0,29.878937,1014.1,,,TRUE,TRUE,,,,,,CLR,,,,,,,,VFR,,,,,,,,,,,,SPECI,167.0
PAED 171356Z AUTO 06005KT 10SM CLR M05/M06 A2969 RMK AO2 SLP052 T10541061,PAED,2019-01-17T13:56:00Z,61.25,-149.8,-5.4,-6.1,60,5,,10.0,29.68996,1005.2,,TRUE,TRUE,,,,,,,CLR,,,,,,,,VFR,,,,,,,,,,,,METAR,59.0
MUGM 171356Z 36008KT 9999 FEW030 BKN080 24/21 A3011 RMK SLP197 VIRGA N T02430207,MUGM,2019-01-17T13:56:00Z,19.9,-75.2,24.3,20.7,360,8,,6.21,30.109253,1019.7,,,,,,,,,,FEW,3000,BKN,8000,,,,,VFR,,,,,,,,,,,,METAR,17.0
KDYS 171356Z 36004KT 10SM FEW220 06/00 A3016 RMK AO2A SLP206 T00581001,KDYS,2019-01-17T13:56:00Z,32.42,-99.83,5.8,-0.1,360,4,,10.0,30.159449,1020.6,,,TRUE,,,,,,,FEW,22000,,,,,,,VFR,,,,,,,,,,,,SPECI,545.0
PAGL 171356Z AUTO 05007KT 9SM -SN BKN023 OVC032 M03/M07 A2971 RMK AO2 SLP057 P0000 T10331072 FZRANO,PAGL,2019-01-17T13:56:00Z,64.55,-163.03,-3.3,-7.2,50,7,,9.0,29.71063,1005.7,,TRUE,TRUE,,,,TRUE,,-SN,BKN,2300,OVC,3200,,,,,MVFR,,,,,,0.005,,,,,,METAR,8.0
PAGN 171356Z AUTO 00000KT 10SM CLR M04/M04 A2966 RMK AO2 SLP033 T10441044 FZRANO,PAGN,2019-01-17T13:56:00Z,57.5,-134.58,-4.4,-4.4,0,0,,10.0,29.660433,1003.3,,TRUE,TRUE,,,,TRUE,,,CLR,,,,,,,,VFR,,,,,,,,,,,,METAR,2.0
PAII 171356Z AUTO 03003KT 10SM FEW016 SCT036 02/00 A2961 RMK AO2 SLP029 T00170000 FZRANO,PAII,2019-01-17T13:56:00Z,58.18,-157.38,1.7,0.0,30,3,,10.0,29.610237,1002.9,,TRUE,TRUE,,,,TRUE,,,FEW,1600,SCT,3600,,,,,VFR,,,,,,,,,,,,METAR,30.0
PANA 171356Z AUTO 00000KT 10SM SCT035 BKN045 OVC055 M06/M07 A2963 RMK AO2 SLP032 T10561067 FZRANO,PANA,2019-01-17T13:56:00Z,60.68,-161.98,-5.6,-6.7,0,0,,10.0,29.630905,1003.2,,TRUE,TRUE,,,,TRUE,,,SCT,3500,BKN,4500,OVC,5500,,,VFR,,,,,,,,,,,,METAR,5.0
PAFM 171356Z AUTO 03008KT 10SM CLR M11/M15 A2994 RMK AO2 SLP153 T11111150 FZRANO,PAFM,2019-01-17T13:56:00Z,67.1,-157.85,-11.1,-15.0,30,8,,10.0,29.940945,1015.3,,TRUE,TRUE,,,,TRUE,,,CLR,,,,,,,,VFR,,,,,,,,,,,,METAR,88.0
KJMS 171356Z AUTO 00000KT 10SM OVC008 M12/M15 A3007 RMK AO2 SLP220 T11221150,KJMS,2019-01-17T13:56:00Z,46.93,-98.67,-12.2,-15.0,0,0,,10.0,30.070866,1022.0,,TRUE,TRUE,,,,,,,OVC,800,,,,,,,IFR,,,,,,,,,,,,SPECI,455.0
KJAX 171356Z 00000KT 10SM CLR 08/03 A3029 RMK AO2 SLP258 T00780033 $,KJAX,2019-01-17T13:56:00Z,30.5,-81.68,7.8,3.3,0,0,,10.0,30.28937,1025.8,,,TRUE,TRUE,,,,,,CLR,,,,,,,,VFR,,,,,,,,,,,,SPECI,10.0
KIAB 171356Z AUTO 35008KT 10SM OVC005 00/00 A3011 RMK AO2 CIG 004 RWY19 SLP209 T00040004,KIAB,2019-01-17T13:56:00Z,37.62,-97.27,0.4,0.4,350,8,,10.0,30.109253,1020.9,,TRUE,TRUE,,,,,,,OVC,500,,,,,,,IFR,,,,,,,,,,,,SPECI,418.0
KHST 171356Z AUTO 35005KT 10SM CLR 17/12 A3020 RMK AO2 SLP230 T01670124 FZRANO VISNO RWY24 $,KHST,2019-01-17T13:56:00Z,25.47,-80.37,16.7,12.4,350,5,,10.0,30.200787,1023.0,,TRUE,TRUE,TRUE,,,TRUE,,,CLR,,,,,,,,VFR,,,,,,,,,,,,SPECI,2.0
KHFF 171356Z AUTO 09003KT 10SM SCT220 02/M01 A3029 RMK AO2 SLP276 T00191007,KHFF,2019-01-17T13:56:00Z,35.02,-79.5,1.9,-0.7,90,3,,10.0,30.28937,1027.6,,TRUE,TRUE,,,,,,,SCT,22000,,,,,,,VFR,,,,,,,,,,,,SPECI,115.0
KBIX 171356Z AUTO 12004KT 10SM BKN055 10/08 A3022 RMK AO2 SLP237 T00990075,KBIX,2019-01-17T13:56:00Z,30.42,-88.92,9.9,7.5,120,4,,10.0,30.221457,1023.7,,TRUE,TRUE,,,,,,,BKN,5500,,,,,,,VFR,,,,,,,,,,,,SPECI,10.0
KLNR 171356Z AUTO 09005KT 10SM SCT019 OVC028 M03/M06 A3010 RMK AO2 SLP199 T10281061,KLNR,2019-01-17T13:56:00Z,43.22,-90.18,-2.8,-6.1,90,5,,10.0,30.100393,1019.9,,TRUE,TRUE,,,,,,,SCT,1900,OVC,2800,,,,,MVFR,,,,,,,,,,,,SPECI,217.0
KLAS 171356Z 17007KT 10SM BKN045 OVC050 12/08 A3006 RMK AO2 SLP173 T01220083,KLAS,2019-01-17T13:56:00Z,36.07,-115.17,12.2,8.3,170,7,,10.0,30.059055,1017.3,,,TRUE,,,,,,,BKN,4500,OVC,5000,,,,,VFR,,,,,,,,,,,,SPECI,636.0
KJXN 171356Z 09007KT 10SM OVC028 M04/M07 A3014 RMK AO2 SLP223 T10441067,KJXN,2019-01-17T13:56:00Z,42.27,-84.47,-4.4,-6.7,90,7,,10.0,30.138779,1022.3,,,TRUE,,,,,,,OVC,2800,,,,,,,MVFR,,,,,,,,,,,,SPECI,305.0
PADK 171356Z AUTO 21005KT 10SM OVC048 M08/M11 A3012 RMK AO2 SLP200 T10781111 FZRANO,PADK,2019-01-17T13:56:00Z,51.88,-176.65,-7.8,-11.1,210,5,,10.0,30.121063,1020.0,,TRUE,TRUE,,,,TRUE,,,OVC,4800,,,,,,,VFR,,,,,,,,,,,,METAR,4.0
PABV 171356Z AUTO 00000KT 10SM CLR M10/M11 A2971 RMK AO2 SLP070 T11001111 FZRANO,PABV,2019-01-17T13:56:00Z,61.42,-149.52,-10.0,-11.1,0,0,,10.0,29.71063,1007.0,,TRUE,TRUE,,,,TRUE,,,CLR,,,,,,,,VFR,,,,,,,,,,,,METAR,29.0
PAAK 171356Z AUTO 32009KT 10SM FEW038 SCT045 OVC055 M01/M06 A3009 RMK AO2 SLP191 T10061061 FZRANO PNO $,PAAK,2019-01-17T13:56:00Z,52.22,-174.2,-0.6,-6.1,320,9,,10.0,30.088583,1019.1,,TRUE,TRUE,TRUE,,,TRUE,,,FEW,3800,SCT,4500,OVC,5500,,,VFR,,,,,,,,,,,,METAR,17.0
PFCL 171356Z AUTO 02008KT 10SM CLR M02/M03 RMK AO2 SLPNO T10221033 FZRANO TSNO $,PFCL,2019-01-17T13:56:00Z,58.83,-158.53,-2.2,-3.3,20,8,,10.0,,,,TRUE,TRUE,TRUE,,TRUE,TRUE,,,CLR,,,,,,,,VFR,,,,,,,,,,,,METAR,24.0
PATQ 171356Z AUTO 09011KT 10SM CLR M21/M23 A2989 RMK AO2 SLP130 T12111233 FZRANO TSNO,PATQ,2019-01-17T13:56:00Z,70.47,-157.43,-21.1,-23.3,90,11,,10.0,29.890747,1013.0,,TRUE,TRUE,,,TRUE,TRUE,,,CLR,,,,,,,,VFR,,,,,,,,,,,,METAR,29.0
PASL 171356Z AUTO 00000KT 9SM -SN BKN034 OVC043 M10/M12 A2982 RMK AO2 SNB10 SLP094 P0000 T11001117 FZRANO,PASL,2019-01-17T13:56:00Z,61.72,-157.15,-10.0,-11.7,0,0,,9.0,29.819881,1009.4,,TRUE,TRUE,,,,TRUE,,-SN,BKN,3400,OVC,4300,,,,,VFR,,,,,,0.005,,,,,,METAR,55.0
PFNO 171356Z AUTO 07019KT 10SM CLR M11/M16 A2984 RMK AO2 PK WND 07031/1315 SLP105 T11111156 FZRANO,PFNO,2019-01-17T13:56:00Z,66.82,-161.02,-11.1,-15.6,70,19,,10.0,29.840551,1010.5,,TRUE,TRUE,,,,TRUE,,,CLR,,,,,,,,VFR,,,,,,,,,,,,METAR,17.0
K7N0 171356Z AUTO 16005KT 7SM -RA SCT047 OVC060 12/07 A3024 RMK AO2 RAB15 SLP240 P0000 T01220067,K7N0,2019-01-17T13:56:00Z,29.95,-90.07,12.2,6.7,160,5,,7.0,30.239174,1024.0,,TRUE,TRUE,,,,,,-RA,SCT,4700,OVC,6000,,,,,VFR,,,,,,0.005,,,,,,METAR,0.0
PPIT 171356Z AUTO 07010KT 10SM OVC035 M07/M09 A2964 RMK AO2 SNE07 SLP038 P0000 T10721089 FZRANO TSNO,PPIT,2019-01-17T13:56:00Z,60.9,-162.43,-7.2,-8.9,70,10,,10.0,29.639763,1003.8,,TRUE,TRUE,,,TRUE,TRUE,,,OVC,3500,,,,,,,VFR,,,,,,0.005,,,,,,METAR,4.0
PFWS 171356Z AUTO 00000KT 10SM CLR M01/M01 A2961 RMK AO2 SLP032 T10111011 FZRANO,PFWS,2019-01-17T13:56:00Z,58.7,-157.0,-1.1,-1.1,0,0,,10.0,29.610237,1003.2,,TRUE,TRUE,,,,TRUE,,,CLR,,,,,,,,VFR,,,,,,,,,,,,METAR,49.0
KADF 171356Z AUTO 20004KT 5SM BR OVC005 11/11 A3006 RMK AO2 SLP185 T01110111,KADF,2019-01-17T13:56:00Z,34.1,-93.07,11.1,11.1,200,4,,5.0,30.059055,1018.5,,TRUE,TRUE,,,,,,BR,OVC,500,,,,,,,IFR,,,,,,,,,,,,METAR,56.0
KMDT 171356Z 05003KT 10SM SCT150 SCT200 M03/M09 A3037 RMK AO2 SLP289 T10281094,KMDT,2019-01-17T13:56:00Z,40.2,-76.77,-2.8,-9.4,50,3,,10.0,30.369095,1028.9,,,TRUE,,,,,,,SCT,15000,SCT,20000,,,,,VFR,,,,,,,,,,,,SPECI,95.0
KSLE 171356Z AUTO 16003KT 10SM BKN070 OVC090 04/03 A2945 RMK AO2 SLP971 T00390028,KSLE,2019-01-17T13:56:00Z,44.9,-123.0,3.9,2.8,160,3,,10.0,29.450787,997.1,,TRUE,TRUE,,,,,,,BKN,7000,OVC,9000,,,,,VFR,,,,,,,,,,,,SPECI,59.0
KSHV 171356Z 20010KT 10SM OVC006 14/13 A3005 RMK AO2 SLP176 T01390133,KSHV,2019-01-17T13:56:00Z,32.45,-93.83,13.9,13.3,200,10,,10.0,30.050198,1017.6,,,TRUE,,,,,,,OVC,600,,,,,,,IFR,,,,,,,,,,,,SPECI,83.0
KSFO 171356Z 21016G25KT 10SM FEW036 SCT060 BKN080 14/08 A2990 RMK AO2 SLP123 T01440083,KSFO,2019-01-17T13:56:00Z,37.62,-122.37,14.4,8.3,210,16,25,10.0,29.899607,1012.3,,,TRUE,,,,,,,FEW,3600,SCT,6000,BKN,8000,,,VFR,,,,,,,,,,,,SPECI,3.0
KSBP 171356Z 15003KT 10SM FEW034 OVC065 14/13 A3003 RMK AO2 RAE1258 SLP169 P0000 T01440133,KSBP,2019-01-17T13:56:00Z,35.23,-120.63,14.4,13.3,150,3,,10.0,30.029528,1016.9,,,TRUE,,,,,,,FEW,3400,OVC,6500,,,,,VFR,,,,,,0.005,,,,,,SPECI,59.0
KRDM 171356Z 00000KT 10SM OVC003 M02/M03 A2955 RMK AO2 SLP026 T10221033,KRDM,2019-01-17T13:56:00Z,44.25,-121.15,-2.2,-3.3,0,0,,10.0,29.551182,1002.6,,,TRUE,,,,,,,OVC,300,,,,,,,LIFR,,,,,,,,,,,,SPECI,938.0
KNBC 171356Z 00000KT 7SM FEW050 FEW150 07/07 A3028 RMK AO2 SLP253 T00670067,KNBC,2019-01-17T13:56:00Z,32.47,-80.72,6.7,6.7,0,0,,7.0,30.280512,1025.3,,,TRUE,,,,,,,FEW,5000,FEW,15000,,,,,VFR,,,,,,,,,,,,METAR,12.0
PFKW 171356Z AUTO 06006KT 10SM FEW045 OVC060 M07/M08 A2963 RMK AO2 SLP034 T10671078 FZRANO,PFKW,2019-01-17T13:56:00Z,60.8,-161.43,-6.7,-7.8,60,6,,10.0,29.630905,1003.4,,TRUE,TRUE,,,,TRUE,,,FEW,4500,OVC,6000,,,,,VFR,,,,,,,,,,,,METAR,8.0
KARG 171356Z AUTO 21006KT 3SM BR OVC004 08/07 A3003 RMK AO2 RAB29E49 SLP172 P0000 T00780072,KARG,2019-01-17T13:56:00Z,36.12,-90.92,7.8,7.2,210,6,,3.0,30.029528,1017.2,,TRUE,TRUE,,,,,,BR,OVC,400,,,,,,,LIFR,,,,,,0.005,,,,,,METAR,83.0
KAJO 171356Z AUTO 5SM -RA RMK AO2 RAB02 SLPNO P0001 FZRANO $,KAJO,2019-01-17T13:56:00Z,33.9,-117.6,,,,,,5.0,,,,TRUE,TRUE,TRUE,,,TRUE,,-RA,,,,,,,,,,,,,,,0.01,,,,,,METAR,163.0
KBHB 171356Z AUTO 33008G16KT 280V010 10SM CLR M13/M22 A3035 RMK AO2 SLP281 T11331222 FZRANO $,KBHB,2019-01-17T13:56:00Z,44.45,-68.37,-13.3,-22.2,330,8,16,10.0,30.351377,1028.1,,TRUE,TRUE,TRUE,,,TRUE,,,CLR,,,,,,,,VFR,,,,,,,,,,,,METAR,26.0
KBID 171356Z AUTO 34007KT 10SM CLR M04/M15 A3038 RMK AO2 SLP293 T10391150 FZRANO,KBID,2019-01-17T13:56:00Z,41.17,-71.58,-3.9,-15.0,340,7,,10.0,30.380905,1029.3,,TRUE,TRUE,,,,TRUE,,,CLR,,,,,,,,VFR,,,,,,,,,,,,METAR,33.0
KBLM 171356Z AUTO 36007KT 10SM CLR M03/M13 A3041 RMK AO2 SLP301 T10281128 FZRANO,KBLM,2019-01-17T13:56:00Z,40.17,-74.12,-2.8,-12.8,360,7,,10.0,30.410433,1030.1,,TRUE,TRUE,,,,TRUE,,,CLR,,,,,,,,VFR,,,,,,,,,,,,METAR,48.0
KSTL 171356Z 00000KT 1 1/2SM R30R/4500VP6000FT BR SCT004 OVC029 02/02 A3004 RMK AO2 T00220017,KSTL,2019-01-17T13:56:00Z,38.75,-90.37,2.2,1.7,0,0,,1.5,30.041338,,,,TRUE,,,,,,BR,SCT,400,OVC,2900,,,,,IFR,,,,,,,,,,,,SPECI,171.0
KCGZ 171356Z AUTO 06004KT 10SM CLR 07/06 A3016 RMK AO2 SLP214 T00670056 $,KCGZ,2019-01-17T13:56:00Z,32.95,-111.77,6.7,5.6,60,4,,10.0,30.159449,1021.4,,TRUE,TRUE,TRUE,,,,,,CLR,,,,,,,,VFR,,,,,,,,,,,,METAR,446.0
KBVX 171356Z AUTO 18004KT 10SM OVC005 09/08 A3002 RMK AO2 SLP167 T00940083,KBVX,2019-01-17T13:56:00Z,35.73,-91.65,9.4,8.3,180,4,,10.0,30.02067,1016.7,,TRUE,TRUE,,,,,,,OVC,500,,,,,,,IFR,,,,,,,,,,,,METAR,141.0
KBTP 171356Z AUTO 10006KT 10SM OVC026 M06/M08 A3025 RMK AO2 SLP267 T10561078 FZRANO,KBTP,2019-01-17T13:56:00Z,40.77,-79.95,-5.6,-7.8,100,6,,10.0,30.250984,1026.7,,TRUE,TRUE,,,,TRUE,,,OVC,2600,,,,,,,MVFR,,,,,,,,,,,,METAR,380.0
KBMI 171356Z 08005KT 1 1/2SM -SN BR OVC002 M01/M02 A3005 RMK AO2 SLP183 P0000 T10111017,KBMI,2019-01-17T13:56:00Z,40.47,-88.92,-1.1,-1.7,80,5,,1.5,30.050198,1018.3,,,TRUE,,,,,,-SN BR,OVC,200,,,,,,,LIFR,,,,,,0.005,,,,,,METAR,267.0
KCVN 171356Z AUTO 29012KT 10SM CLR 01/M02 A3018 RMK AO2 SLP222 T00111022 FZRANO,KCVN,2019-01-17T13:56:00Z,34.42,-103.07,1.1,-2.2,290,12,,10.0,30.180119,1022.2,,TRUE,TRUE,,,,TRUE,,,CLR,,,,,,,,VFR,,,,,,,,,,,,SPECI,1284.0
KCOD 171356Z AUTO 00000KT 10SM SCT120 M03/M07 A2988 RMK AO2 SLP159 T10281072 FZRANO,KCOD,2019-01-17T13:56:00Z,44.52,-109.02,-2.8,-7.2,0,0,,10.0,29.878937,1015.9,,TRUE,TRUE,,,,TRUE,,,SCT,12000,,,,,,,VFR,,,,,,,,,,,,METAR,1553.0
KEEN 171356Z AUTO 01003KT 10SM CLR M12/M17 A3040 RMK AO2 SLP317 T11171172 FZRANO $,KEEN,2019-01-17T13:56:00Z,42.88,-72.27,-11.7,-17.2,10,3,,10.0,30.398623,1031.7,,TRUE,TRUE,TRUE,,,TRUE,,,CLR,,,,,,,,VFR,,,,,,,,,,,,METAR,149.0
KDWU 171356Z AUTO 00000KT 8SM OVC037 01/01 A3019 RMK AO2 SLP230 T00110006 FZRANO,KDWU,2019-01-17T13:56:00Z,38.55,-82.73,1.1,0.6,0,0,,8.0,30.188976,1023.0,,TRUE,TRUE,,,,TRUE,,,OVC,3700,,,,,,,VFR,,,,,,,,,,,,METAR,166.0
KDIJ 171356Z AUTO 18005KT 7SM -SN BKN023 OVC028 01/M01 A2990 RMK AO2 UPB22E27SNE20B27 SLP146 P0000 T00061006,KDIJ,2019-01-17T13:56:00Z,43.75,-111.1,0.6,-0.6,180,5,,7.0,29.899607,1014.6,,TRUE,TRUE,,,,,,-SN,BKN,2300,OVC,2800,,,,,MVFR,,,,,,0.005,,,,,,METAR,1899.0
KCWI 171356Z AUTO 08006KT 6SM BR OVC007 M03/M04 A3009 RMK AO2 SLP220 T10281039 FZRANO,KCWI,2019-01-17T13:56:00Z,41.82,-90.32,-2.8,-3.9,80,6,,6.0,30.088583,1022.0,,TRUE,TRUE,,,,TRUE,,BR,OVC,700,,,,,,,IFR,,,,,,,,,,,,METAR,216.0
KLFI 171356Z AUTO 06009KT 10SM OVC043 04/M03 A3034 RMK AO2 SLP281 T00441027 $,KLFI,2019-01-17T13:56:00Z,37.07,-76.37,4.4,-2.7,60,9,,10.0,30.339567,1028.1,,TRUE,TRUE,TRUE,,,,,,OVC,4300,,,,,,,VFR,,,,,,,,,,,,SPECI,3.0
KUKI 171356Z AUTO 14005KT 3SM RA OVC034 09/06 A2981 RMK AO2 SLP091 P0021 T00890061,KUKI,2019-01-17T13:56:00Z,39.12,-123.2,8.9,6.1,140,5,,3.0,29.811024,1009.1,,TRUE,TRUE,,,,,,RA,OVC,3400,,,,,,,MVFR,,,,,,0.21,,,,,,SPECI,187.0
KVPZ 171356Z AUTO 09007KT 2 1/2SM HZ OVC004 M01/M03 A3008 RMK AO2 SLP196 I1000 T10061033 TSNO,KVPZ,2019-01-17T13:56:00Z,41.45,-87.0,-0.6,-3.3,90,7,,2.5,30.079725,1019.6,,TRUE,TRUE,,,TRUE,,,HZ,OVC,400,,,,,,,LIFR,,,,,,,,,,,,SPECI,231.0
KWMC 171356Z AUTO 18006KT 10SM -RA FEW019 BKN049 OVC070 04/02 A2977 RMK AO2 RAB36 SLP077 P0000 T00440022,KWMC,2019-01-17T13:56:00Z,40.9,-117.8,4.4,2.2,180,6,,10.0,29.769686,1007.7,,TRUE,TRUE,,,,,,-RA,FEW,1900,BKN,4900,OVC,7000,,,VFR,,,,,,0.005,,,,,,SPECI,1310.0
TJSJ 171356Z 12007KT 10SM FEW026 SCT040 BKN060 24/20 A3014 RMK AO2 SLP203 VCSH E-SE T02440200,TJSJ,2019-01-17T13:56:00Z,18.43,-66.02,24.4,20.0,120,7,,10.0,30.138779,1020.3,,,TRUE,,,,,,,FEW,2600,SCT,4000,BKN,6000,,,VFR,,,,,,,,,,,,METAR,21.0
KMUI 171356Z AUTO 09004KT 10SM BKN160 M04/M10 A3037 RMK AO2 SLP293 T10411101 $,KMUI,2019-01-17T13:56:00Z,40.42,-76.57,-4.1,-10.1,90,4,,10.0,30.369095,1029.3,,TRUE,TRUE,TRUE,,,,,,BKN,16000,,,,,,,VFR,,,,,,,,,,,,METAR,149.0
KFFO 171356Z 11007KT 4SM -SN BR BKN026 OVC032 00/M02 A3013 RMK AO2A SLP215 P0000 T00011020,KFFO,2019-01-17T13:56:00Z,39.82,-84.03,0.1,-2.0,110,7,,4.0,30.129921,1021.5,,,TRUE,,,,,,-SN BR,BKN,2600,OVC,3200,,,,,MVFR,,,,,,0.005,,,,,,METAR,251.0
KLTS 171356Z AUTO 35007KT 10SM OVC012 04/01 A3016 RMK AO2 SLP217 T00360008 $,KLTS,2019-01-17T13:56:00Z,34.67,-99.27,3.6,0.8,350,7,,10.0,30.159449,1021.7,,TRUE,TRUE,TRUE,,,,,,OVC,1200,,,,,,,MVFR,,,,,,,,,,,,SPECI,420.0
KHRT 171356Z AUTO 00000KT 10SM CLR 06/05 A3024 RMK AO2 SLP242 T00640053 $,KHRT,2019-01-17T13:56:00Z,30.42,-86.67,6.4,5.3,0,0,,10.0,30.239174,1024.2,,TRUE,TRUE,TRUE,,,,,,CLR,,,,,,,,VFR,,,,,,,,,,,,SPECI,12.0
KGSB 171356Z AUTO 07006KT 10SM CLR 03/01 A3030 RMK AO2 SLP264 T00260007 $,KGSB,2019-01-17T13:56:00Z,35.32,-77.97,2.6,0.7,70,6,,10.0,30.301182,1026.4,,TRUE,TRUE,TRUE,,,,,,CLR,,,,,,,,VFR,,,,,,,,,,,,SPECI,33.0
KMOB 171356Z 00000KT 7SM FEW100 SCT250 09/07 A3024 RMK AO2 SLP238 T00890072,KMOB,2019-01-17T13:56:00Z,30.68,-88.25,8.9,7.2,0,0,,7.0,30.239174,1023.8,,,TRUE,,,,,,,FEW,10000,SCT,25000,,,,,VFR,,,,,,,,,,,,SPECI,63.0
KOFK 171356Z AUTO 00000KT 10SM OVC015 M04/M06 A3005 RMK AO2 SLP198 T10391056,KOFK,2019-01-17T13:56:00Z,41.98,-97.43,-3.9,-5.6,0,0,,10.0,30.050198,1019.8,,TRUE,TRUE,,,,,,,OVC,1500,,,,,,,MVFR,,,,,,,,,,,,SPECI,470.0
KNUQ 171356Z AUTO 14007KT 10SM OVC042 15/09 A2993 RMK AO2 SLP136 T01500094,KNUQ,2019-01-17T13:56:00Z,37.4,-122.05,15.0,9.4,140,7,,10.0,29.929134,1013.6,,TRUE,TRUE,,,,,,,OVC,4200,,,,,,,VFR,,,,,,,,,,,,SPECI,12.0
KAIZ 171356Z AUTO 00000KT 1/4SM FG OVC002 03/03 A3006 RMK AO2 SLP182 T00280028,KAIZ,2019-01-17T13:56:00Z,38.1,-92.53,2.8,2.8,0,0,,0.25,30.059055,1018.2,,TRUE,TRUE,,,,,,FG,OVC,200,,,,,,,LIFR,,,,,,,,,,,,METAR,265.0
KQBF 171356Z AUTO VRB05KT 9999 FEW220 35/M06 A2984 RMK AO2 SLP059 WND DATA ESTMD T03521063,KQBF,2019-01-17T13:56:00Z,,,35.2,-6.3,0,5,,6.21,29.840551,1005.9,,TRUE,TRUE,,,,,,,FEW,22000,,,,,,,VFR,,,,,,,,,,,,METAR,
KQKR 171356Z AUTO VRB03KT 9999 CLR 33/M04 A2984 RMK AO2 SLP116 WND DATA ESTMD T03261037,KQKR,2019-01-17T13:56:00Z,,,32.6,-3.7,0,3,,6.21,29.840551,1011.6,,TRUE,TRUE,,,,,,,CLR,,,,,,,,VFR,,,,,,,,,,,,METAR,
KQHY 171356Z AUTO 00000KT 10SM CLR 07/06 A3027 RMK AO2 SLP257 T00660056 $,KQHY,2019-01-17T13:56:00Z,,,6.6,5.6,0,0,,10.0,30.268702,1025.7,,TRUE,TRUE,TRUE,,,,,,CLR,,,,,,,,VFR,,,,,,,,,,,,METAR,
KQN3 171356Z AUTO VRB06KT 9999 CLR 34/M09 A2983 RMK AO2 SLP095 WND DATA ESTMD T03401092,KQN3,2019-01-17T13:56:00Z,,,34.0,-9.2,0,6,,6.21,29.828741,1009.5,,TRUE,TRUE,,,,,,,CLR,,,,,,,,VFR,,,,,,,,,,,,METAR,
KOWA 171356Z AUTO 00000KT 7SM -SN SCT018 BKN038 M06/M07 A3006 RMK AO2,KOWA,2019-01-17T13:56:00Z,44.12,-93.25,-6.0,-7.0,0,0,,7.0,30.059055,,,TRUE,TRUE,,,,,,-SN,SCT,1800,BKN,3800,,,,,VFR,,,,,,,,,,,,SPECI,350.0
KPIB 171356Z AUTO 00000KT 9SM OVC040 08/07 A3024 RMK AO2 SLP240 T00830067,KPIB,2019-01-17T13:56:00Z,31.47,-89.32,8.3,6.7,0,0,,9.0,30.239174,1024.0,,TRUE,TRUE,,,,,,,OVC,4000,,,,,,,VFR,,,,,,,,,,,,METAR,91.0
KFAF 171356Z AUTO 00000KT 10SM OVC042 04/M01 A3034 RMK AO2 SLP277 T00381008 $,KFAF,2019-01-17T13:56:00Z,37.12,-76.62,3.8,-0.8,0,0,,10.0,30.339567,1027.7,,TRUE,TRUE,TRUE,,,,,,OVC,4200,,,,,,,VFR,,,,,,,,,,,,SPECI,4.0
KAPG 171356Z 00000KT 10SM BKN050 BKN150 M01/M07 A3039 RMK SLP295,KAPG,2019-01-17T13:56:00Z,39.47,-76.17,-1.0,-7.0,0,0,,10.0,30.389763,1029.5,,,,,,,,,,BKN,5000,BKN,15000,,,,,VFR,,,,,,,,,,,,SPECI,18.0
KADW 171356Z 00000KT 10SM OVC050 00/M05 A3034 RMK AO2A SLP284 T00031047 $,KADW,2019-01-17T13:56:00Z,38.82,-76.87,0.3,-4.7,0,0,,10.0,30.339567,1028.4,,,TRUE,TRUE,,,,,,OVC,5000,,,,,,,VFR,,,,,,,,,,,,SPECI,86.0
KPAM 171356Z AUTO 00000KT 10SM CLR 08/05 A3027 RMK AO2 SLP254 T00810047 $,KPAM,2019-01-17T13:56:00Z,30.07,-85.57,8.1,4.7,0,0,,10.0,30.268702,1025.4,,TRUE,TRUE,TRUE,,,,,,CLR,,,,,,,,VFR,,,,,,,,,,,,SPECI,5.0
KGTB 171356Z AUTO 12011KT 10SM CLR M20/M24 A3038 RMK AO2 SLP307 T11991244,KGTB,2019-01-17T13:56:00Z,44.07,-75.72,-19.9,-24.4,120,11,,10.0,30.380905,1030.7,,TRUE,TRUE,,,,,,,CLR,,,,,,,,VFR,,,,,,,,,,,,SPECI,207.0
KMCF 171356Z AUTO 02003KT 10SM CLR 10/06 A3026 RMK AO2 SLP250 T01030057 FZRANO $,KMCF,2019-01-17T13:56:00Z,27.85,-82.52,10.3,5.7,20,3,,10.0,30.259842,1025.0,,TRUE,TRUE,TRUE,,,TRUE,,,CLR,,,,,,,,VFR,,,,,,,,,,,,SPECI,4.0
KCOF 171356Z AUTO 34008KT 10SM CLR 15/12 A3023 RMK AO2 SLP241 T01530119,KCOF,2019-01-17T13:56:00Z,28.23,-80.6,15.3,11.9,340,8,,10.0,30.230314,1024.1,,TRUE,TRUE,,,,,,,CLR,,,,,,,,VFR,,,,,,,,,,,,SPECI,3.0
K2DP 171356Z AUTO 04004KT 10SM CLR 05/03 A3032 RMK AO2 SLPNO T00510030,K2DP,2019-01-17T13:56:00Z,35.68,-75.9,5.1,3.0,40,4,,10.0,30.318897,,,TRUE,TRUE,,,,,,,CLR,,,,,,,,VFR,,,,,,,,,,,,SPECI,3.0
KMXF 171356Z AUTO 00000KT 10SM CLR 05/02 A3022 RMK AO2 SLP237 T00470022 $,KMXF,2019-01-17T13:56:00Z,32.37,-86.37,4.7,2.2,0,0,,10.0,30.221457,1023.7,,TRUE,TRUE,TRUE,,,,,,CLR,,,,,,,,VFR,,,,,,,,,,,,SPECI,51.0
KSKF 171356Z 25009KT 8SM OVC003 12/11 A3018 RMK AO2A CIG 003V005 SLP219 T01160114 $,KSKF,2019-01-17T13:56:00Z,29.37,-98.57,11.6,11.4,250,9,,8.0,30.180119,1021.9,,,TRUE,TRUE,,,,,,OVC,300,,,,,,,LIFR,,,,,,,,,,,,SPECI,210.0
KRND 171356Z 23008KT 10SM OVC004 12/12 A3018 RMK AO2A SLP219 T01200117,KRND,2019-01-17T13:56:00Z,29.52,-98.27,12.0,11.7,230,8,,10.0,30.180119,1021.9,,,TRUE,,,,,,,OVC,400,,,,,,,LIFR,,,,,,,,,,,,SPECI,232.0
KVPS 171356Z AUTO 06003KT 10SM CLR 06/04 A3025 RMK AO2 SLP251 T00600043 $,KVPS,2019-01-17T13:56:00Z,30.47,-86.52,6.0,4.3,60,3,,10.0,30.250984,1025.1,,TRUE,TRUE,TRUE,,,,,,CLR,,,,,,,,VFR,,,,,,,,,,,,SPECI,26.0
KLSF 171356Z AUTO 11004KT 10SM FEW001 SCT090 01/01 A3024 RMK AO2 SLPNO T00090009,KLSF,2019-01-17T13:56:00Z,32.32,-84.97,0.9,0.9,110,4,,10.0,30.239174,,,TRUE,TRUE,,,,,,,FEW,100,SCT,9000,,,,,VFR,,,,,,,,,,,,SPECI,71.0
KLHW 171356Z AUTO 00000KT 10SM CLR 05/03 A3029 RMK AO2 SLP260 T00460029 $,KLHW,2019-01-17T13:56:00Z,31.87,-81.57,4.6,2.9,0,0,,10.0,30.28937,1026.0,,TRUE,TRUE,TRUE,,,,,,CLR,,,,,,,,VFR,,,,,,,,,,,,SPECI,14.0
KSVN 171356Z AUTO 29003KT 10SM CLR 06/04 A3027 RMK AO2 SLP254 T00580041 FZRANO $,KSVN,2019-01-17T13:56:00Z,32.02,-81.15,5.8,4.1,290,3,,10.0,30.268702,1025.4,,TRUE,TRUE,TRUE,,,TRUE,,,CLR,,,,,,,,VFR,,,,,,,,,,,,SPECI,13.0
KOFF 171356Z AUTO 00000KT 10SM OVC031 M03/M03 A3010 RMK AO2 SLP212 T10351035 $,KOFF,2019-01-17T13:56:00Z,41.12,-95.92,-3.5,-3.5,0,0,,10.0,30.100393,1021.2,,TRUE,TRUE,TRUE,,,,,,OVC,3100,,,,,,,VFR,,,,,,,,,,,,SPECI,319.0
KDOV 171356Z AUTO 02005KT 10SM FEW210 00/M06 A3038 RMK AO2 SLPNO T10031061 $,KDOV,2019-01-17T13:56:00Z,39.12,-75.47,-0.3,-6.1,20,5,,10.0,30.380905,,,TRUE,TRUE,TRUE,,,,,,FEW,21000,,,,,,,VFR,,,,,,,,,,,,SPECI,9.0
KOZR 171356Z AUTO 00000KT 10SM CLR 03/02 A3025 RMK AO2 SLP248 T00280018,KOZR,2019-01-17T13:56:00Z,31.28,-85.72,2.8,1.8,0,0,,10.0,30.250984,1024.8,,TRUE,TRUE,,,,,,,CLR,,,,,,,,VFR,,,,,,,,,,,,METAR,93.0
KSZL 171356Z 34005KT 1/4SM FG VV002 00/00 A3004 RMK AO2A SLPNO ALSTG ESTMD $,KSZL,2019-01-17T13:56:00Z,38.72,-93.53,0.0,0.0,340,5,,0.25,30.041338,,,,TRUE,TRUE,,,,,FG,OVX,0,,,,,,,LIFR,,,,,,,,,,,200,SPECI,265.0
KMEH 171356Z AUTO 00000KT 10SM FEW075 03/00 A2954 RMK AO2 SLP013 T00330000,KMEH,2019-01-17T13:56:00Z,45.52,-118.42,3.3,0.0,0,0,,10.0,29.53937,1001.3,,TRUE,TRUE,,,,,,,FEW,7500,,,,,,,VFR,,,,,,,,,,,,METAR,1136.0
RKSG 171356Z 23005KT 7SM CLR M02/M03 A3033 RMK AO2A SLP275 T10161029 $,RKSG,2019-01-17T13:56:00Z,36.97,127.02,-1.6,-2.9,230,5,,7.0,30.33071,1027.5,,,TRUE,TRUE,,,,,,CLR,,,,,,,,VFR,,,,,,,,,,,,METAR,16.0
KXNO 171356Z AUTO 01003KT 10SM CLR 02/02 A3029 RMK AO2 SLP262 T00190019 $,KXNO,2019-01-17T13:56:00Z,33.62,-81.07,1.9,1.9,10,3,,10.0,30.28937,1026.2,,TRUE,TRUE,TRUE,,,,,,CLR,,,,,,,,VFR,,,,,,,,,,,,METAR,98.0
KWRI 171356Z AUTO 36009KT 10SM FEW160 M03/M15 A3037 RMK AO2 SLP286 T10271151 $,KWRI,2019-01-17T13:56:00Z,40.02,-74.58,-2.7,-15.1,360,9,,10.0,30.369095,1028.6,,TRUE,TRUE,TRUE,,,,,,FEW,16000,,,,,,,VFR,,,,,,,,,,,,SPECI,41.0
KVAD 171356Z AUTO 00000KT 10SM CLR 06/05 A3026 RMK AO2 SLP251 T00640047 $,KVAD,2019-01-17T13:56:00Z,30.97,-83.2,6.4,4.7,0,0,,10.0,30.259842,1025.1,,TRUE,TRUE,TRUE,,,,,,CLR,,,,,,,,VFR,,,,,,,,,,,,METAR,71.0
KQVF 171356Z AUTO VRB04G15KT 9999 CLR 28/28 A2980 RMK AO2 SLPNO WND DATA ESTMD T02800280,KQVF,2019-01-17T13:56:00Z,,,28.0,28.0,0,4,15,6.21,29.799213,,,TRUE,TRUE,,,,,,,CLR,,,,,,,,VFR,,,,,,,,,,,,METAR,
KQRH 171356Z AUTO VRB05KT 9999 CLR 27/19 A2993 RMK AO2 SLPNO WND DATA ESTMD T02680188,KQRH,2019-01-17T13:56:00Z,,,26.8,18.8,0,5,,6.21,29.929134,,,TRUE,TRUE,,,,,,,CLR,,,,,,,,VFR,,,,,,,,,,,,METAR,
KQND 171356Z AUTO VRB04KT 9999 CLR 32/M09 A2994 RMK AO2 SLP130 WND DATA ESTMD T03221092,KQND,2019-01-17T13:56:00Z,,,32.2,-9.2,0,4,,6.21,29.940945,1013.0,,TRUE,TRUE,,,,,,,CLR,,,,,,,,VFR,,,,,,,,,,,,METAR,
KCEF 171356Z 35006KT 10SM FEW200 BKN250 M09/M21 A3040 RMK AO2A SLP305 T10901208,KCEF,2019-01-17T13:56:00Z,42.2,-72.52,-9.0,-20.8,350,6,,10.0,30.398623,1030.5,,,TRUE,,,,,,,FEW,20000,BKN,25000,,,,,VFR,,,,,,,,,,,,METAR,75.0
KQDG 171356Z AUTO 28020G29KT 9999 -SN BKN020 BKN044 M06/M10 A2973 RMK AO2 PK WND 29035/41 CIG 016V020 SLP070 T10631096 $,KQDG,2019-01-17T13:56:00Z,,,-6.3,-9.6,280,20,29,6.21,29.731298,1007.0,,TRUE,TRUE,TRUE,,,,,-SN,BKN,2000,BKN,4400,,,,,MVFR,,,,,,,,,,,,METAR,
KP60 171356Z AUTO 00000KT M04/M06 A2990 RMK AO1 SLP142 P0002 T10441056,KP60,2019-01-17T13:56:00Z,44.55,-110.42,-4.4,-5.6,0,0,,,29.899607,1014.2,,TRUE,TRUE,,,,,,,,,,,,,,,,,,,,,0.02,,,,,,METAR,2388.0
PFKT 171356Z AUTO 09010KT 10SM OVC046 M08/M11 A2971 RMK AO2 SLP062 T10781111 FZRANO,PFKT,2019-01-17T13:56:00Z,65.33,-166.47,-7.8,-11.1,90,10,,10.0,29.71063,1006.2,,TRUE,TRUE,,,,TRUE,,,OVC,4600,,,,,,,VFR,,,,,,,,,,,,METAR,9.0
PAWN 171356Z AUTO 33005KT 10SM CLR M13/M14 A2983 RMK AO2 SLP116 T11281144 FZRANO,PAWN,2019-01-17T13:56:00Z,67.57,-162.98,-12.8,-14.4,330,5,,10.0,29.828741,1011.6,,TRUE,TRUE,,,,TRUE,,,CLR,,,,,,,,VFR,,,,,,,,,,,,METAR,30.0
KNSE 171356Z 00000KT 7SM SCT100 SCT250 04/04 A3025 RMK AO2 SLP232 T00390039 $,KNSE,2019-01-17T13:56:00Z,30.73,-87.02,3.9,3.9,0,0,,7.0,30.250984,1023.2,,,TRUE,TRUE,,,,,,SCT,10000,SCT,25000,,,,,VFR,,,,,,,,,,,,SPECI,61.0
KXMR 171356Z AUTO 32005KT 10SM CLR 16/11 A3022 RMK AO2 SLP237 T01590113 $,KXMR,2019-01-17T13:56:00Z,28.47,-80.57,15.9,11.3,320,5,,10.0,30.221457,1023.7,,TRUE,TRUE,TRUE,,,,,,CLR,,,,,,,,VFR,,,,,,,,,,,,SPECI,3.0
KPWT 171356Z AUTO 07009KT 10SM SCT060 OVC080 06/04 A2945 RMK AO2 SLP990 T00610039,KPWT,2019-01-17T13:56:00Z,47.5,-122.75,6.1,3.9,70,9,,10.0,29.450787,999.0,,TRUE,TRUE,,,,,,,SCT,6000,OVC,8000,,,,,VFR,,,,,,,,,,,,SPECI,147.0
PAPN 171356Z AUTO 07006KT CLR 01/00 A2957 RMK AO2 SLP014 T00110000 PWINO FZRANO $,PAPN,2019-01-17T13:56:00Z,57.58,-157.57,1.1,0.0,70,6,,,29.568897,1001.4,,TRUE,TRUE,TRUE,,,TRUE,TRUE,,CLR,,,,,,,,,,,,,,,,,,,,METAR,18.0
PAOH 171356Z AUTO 09007KT 10SM CLR 01/M02 A2964 RMK AO2 SLP037 T00061022 FZRANO,PAOH,2019-01-17T13:56:00Z,58.1,-135.45,0.6,-2.2,90,7,,10.0,29.639763,1003.7,,TRUE,TRUE,,,,TRUE,,,CLR,,,,,,,,VFR,,,,,,,,,,,,METAR,9.0
PANI 171356Z AUTO 09007KT 10SM CLR M07/M10 A2971 RMK AO2 SLP029 T10671100 FZRANO,PANI,2019-01-17T13:56:00Z,61.58,-159.53,-6.7,-10.0,90,7,,10.0,29.71063,1002.9,,TRUE,TRUE,,,,TRUE,,,CLR,,,,,,,,VFR,,,,,,,,,,,,METAR,26.0
PHBK 171356Z AUTO 20017KT 10SM OVC070 25/21 A2987 RMK AO2 SLP117 T02500206,PHBK,2019-01-17T13:56:00Z,22.03,-159.78,25.0,20.6,200,17,,10.0,29.870079,1011.7,,TRUE,TRUE,,,,,,,OVC,7000,,,,,,,VFR,,,,,,,,,,,,METAR,8.0
KISO 171356Z 06004KT 7SM CLR 02/02 A3033,KISO,2019-01-17T13:56:00Z,35.32,-77.62,2.0,2.0,60,4,,7.0,30.33071,,,,,,,,,,,CLR,,,,,,,,VFR,,,,,,,,,,,,METAR,29.0
KGVQ 171356Z AUTO 16003KT 10SM CLR M13/M14 A3033 RMK AO2 SLP304 T11281144 FZRANO,KGVQ,2019-01-17T13:56:00Z,43.03,-78.17,-12.8,-14.4,160,3,,10.0,30.33071,1030.4,,TRUE,TRUE,,,,TRUE,,,CLR,,,,,,,,VFR,,,,,,,,,,,,SPECI,278.0
PANW 171356Z AUTO 01010KT 10SM CLR M04/M05 A2964 RMK AO2 SLP053 T10441050 FZRANO,PANW,2019-01-17T13:56:00Z,59.45,-157.37,-4.4,-5.0,10,10,,10.0,29.639763,1005.3,,TRUE,TRUE,,,,TRUE,,,CLR,,,,,,,,VFR,,,,,,,,,,,,METAR,92.0
KRYM 171356Z AUTO 02003KT 10SM FEW043 BKN090 M20/M23 A3011 RMK AO2 SLP232 T12001228 $,KRYM,2019-01-17T13:56:00Z,46.08,-94.37,-20.0,-22.8,20,3,,10.0,30.109253,1023.2,,TRUE,TRUE,TRUE,,,,,,FEW,4300,BKN,9000,,,,,VFR,,,,,,,,,,,,SPECI,351.0
PAPO 171356Z AUTO 13007KT 10SM CLR M12/M14 A2980 RMK AO2 SLP091 T11221144 FZRANO,PAPO,2019-01-17T13:56:00Z,68.35,-166.8,-12.2,-14.4,130,7,,10.0,29.799213,1009.1,,TRUE,TRUE,,,,TRUE,,,CLR,,,,,,,,VFR,,,,,,,,,,,,METAR,6.0
PAPM 171356Z AUTO 08011KT 10SM BKN019 OVC100 02/01 A2958 RMK AO2 RAE20 SLP019 P0000 T00220006 FZRANO,PAPM,2019-01-17T13:56:00Z,59.02,-161.82,2.2,0.6,80,11,,10.0,29.58071,1001.9,,TRUE,TRUE,,,,TRUE,,,BKN,1900,OVC,10000,,,,,MVFR,,,,,,0.005,,,,,,METAR,5.0
PAUN 171356Z AUTO 06017KT 10SM OVC060 M07/M12 A2977 RMK AO2 PK WND 08034/1334 SLP085 T10671122 FZRANO,PAUN,2019-01-17T13:56:00Z,63.88,-160.8,-6.7,-12.2,60,17,,10.0,29.769686,1008.5,,TRUE,TRUE,,,,TRUE,,,OVC,6000,,,,,,,VFR,,,,,,,,,,,,METAR,6.0
PATG 171356Z AUTO 05008KT 10SM FEW038 02/01 A2961 RMK AO2 SLP123 T00220006 FZRANO,PATG,2019-01-17T13:56:00Z,59.05,-160.38,2.2,0.6,50,8,,10.0,29.610237,1012.3,,TRUE,TRUE,,,,TRUE,,,FEW,3800,,,,,,,VFR,,,,,,,,,,,,METAR,4.0
PASX 171356Z AUTO 09005KT 10SM CLR M04/M07 A2972 RMK AO2 SLP075 T10441067 FZRANO,PASX,2019-01-17T13:56:00Z,60.48,-151.03,-4.4,-6.7,90,5,,10.0,29.719488,1007.5,,TRUE,TRUE,,,,TRUE,,,CLR,,,,,,,,VFR,,,,,,,,,,,,METAR,32.0
PASK 171356Z AUTO 06016KT 10SM CLR M14/M17 A2988 RMK AO2 SLP114 T11391172 FZRANO $,PASK,2019-01-17T13:56:00Z,66.6,-160.0,-13.9,-17.2,60,16,,10.0,29.878937,1011.4,,TRUE,TRUE,TRUE,,,TRUE,,,CLR,,,,,,,,VFR,,,,,,,,,,,,METAR,8.0
PASH 171356Z AUTO 10007KT 10SM BKN075 OVC100 M12/M14 A2973 RMK AO2 SLP069 T11221139 FZRANO,PASH,2019-01-17T13:56:00Z,66.27,-166.08,-12.2,-13.9,100,7,,10.0,29.731298,1006.9,,TRUE,TRUE,,,,TRUE,,,BKN,7500,OVC,10000,,,,,VFR,,,,,,,,,,,,METAR,2.0
PASA 171356Z AUTO 24014KT 3SM -SN BR OVC005 M07/M07 A2966 RMK AO2 SNB10 SLP046 P0000 T10671072 FZRANO $,PASA,2019-01-17T13:56:00Z,63.68,-170.5,-6.7,-7.2,240,14,,3.0,29.660433,1004.6,,TRUE,TRUE,TRUE,,,TRUE,,-SN BR,OVC,500,,,,,,,IFR,,,,,,0.005,,,,,,METAR,16.0
PARY 171356Z AUTO 08015KT 10SM CLR M15/M19 A2984 RMK AO2 SLP137 T11501189 FZRANO,PARY,2019-01-17T13:56:00Z,64.73,-155.47,-15.0,-18.9,80,15,,10.0,29.840551,1013.7,,TRUE,TRUE,,,,TRUE,,,CLR,,,,,,,,VFR,,,,,,,,,,,,METAR,199.0
PARS 171356Z AUTO 10004KT 10SM CLR M10/M12 A2970 RMK AO2 SLP062 T11001122 FZRANO $,PARS,2019-01-17T13:56:00Z,61.77,-161.32,-10.0,-12.2,100,4,,10.0,29.698818,1006.2,,TRUE,TRUE,TRUE,,,TRUE,,,CLR,,,,,,,,VFR,,,,,,,,,,,,METAR,16.0
PARC 171356Z AUTO 35003KT 10SM CLR M27/M29 A2989 RMK AO2 SLP216 T12721294 FZRANO,PARC,2019-01-17T13:56:00Z,68.12,-145.58,-27.2,-29.4,350,3,,10.0,29.890747,1021.6,,TRUE,TRUE,,,,TRUE,,,CLR,,,,,,,,VFR,,,,,,,,,,,,METAR,636.0
PAVD 171356Z AUTO 00000KT 10SM BKN034 M05/M07 A2972 RMK AO2 SLP089 T10501067 FZRANO,PAVD,2019-01-17T13:56:00Z,61.13,-146.25,-5.0,-6.7,0,0,,10.0,29.719488,1008.9,,TRUE,TRUE,,,,TRUE,,,BKN,3400,,,,,,,VFR,,,,,,,,,,,,METAR,37.0
PAVC 171356Z AUTO 00000KT 10SM -RA FEW032 BKN060 OVC075 01/M03 A2954 RMK AO2 RAB1259UPB13E18 SLP009 P0000 T00111033 FZRANO,PAVC,2019-01-17T13:56:00Z,55.12,-162.27,1.1,-3.3,0,0,,10.0,29.53937,1000.9,,TRUE,TRUE,,,,TRUE,,-RA,FEW,3200,BKN,6000,OVC,7500,,,VFR,,,,,,0.005,,,,,,METAR,47.0
KTTS 171356Z AUTO 34003KT 10SM SCT050 15/12 A3023 RMK AO2 SLP241 T01470122 $,KTTS,2019-01-17T13:56:00Z,28.62,-80.72,14.7,12.2,340,3,,10.0,30.230314,1024.1,,TRUE,TRUE,TRUE,,,,,,SCT,5000,,,,,,,VFR,,,,,,,,,,,,SPECI,3.0
KBKX 171356Z AUTO 32005KT 10SM OVC019 M09/M11 A3008 RMK AO2 SNE1259 SLP233 P0000 T10891106 FZRANO,KBKX,2019-01-17T13:56:00Z,44.28,-96.82,-8.9,-10.6,320,5,,10.0,30.079725,1023.3,,TRUE,TRUE,,,,TRUE,,,OVC,1900,,,,,,,MVFR,,,,,,0.005,,,,,,SPECI,502.0
KPSM 171356Z 28011KT 10SM FEW200 M10/M23 A3036 RMK AO2A SLP285 T10991235,KPSM,2019-01-17T13:56:00Z,43.07,-70.82,-9.9,-23.5,280,11,,10.0,30.360237,1028.5,,,TRUE,,,,,,,FEW,20000,,,,,,,VFR,,,,,,,,,,,,METAR,31.0
KLWS 171356Z AUTO 14004KT 10SM FEW110 02/M02 A2961 RMK AO2 SLP040 T00221017,KLWS,2019-01-17T13:56:00Z,46.37,-117.02,2.2,-1.7,140,4,,10.0,29.610237,1004.0,,TRUE,TRUE,,,,,,,FEW,11000,,,,,,,VFR,,,,,,,,,,,,SPECI,438.0
KMGE 171356Z 11003KT 7SM SCT070 BKN120 BKN250 02/00 A3018 RMK AO2A SLP228 T00190004 $,KMGE,2019-01-17T13:56:00Z,33.92,-84.52,1.9,0.4,110,3,,7.0,30.180119,1022.8,,,TRUE,TRUE,,,,,,SCT,7000,BKN,12000,BKN,25000,,,VFR,,,,,,,,,,,,METAR,326.0
KLRF 171356Z 17003KT 2SM BR OVC002 10/10 A3004 RMK AO2A SLP176 T01040104,KLRF,2019-01-17T13:56:00Z,34.92,-92.15,10.4,10.4,170,3,,2.0,30.041338,1017.6,,,TRUE,,,,,,BR,OVC,200,,,,,,,LIFR,,,,,,,,,,,,METAR,95.0
KSSC 171356Z 06006KT 10SM FEW120 BKN250 03/01 A3026 RMK AO2A SLPNO ALSTG ESTMD T00290006 TSNO $,KSSC,2019-01-17T13:56:00Z,33.97,-80.47,2.9,0.6,60,6,,10.0,30.259842,,,,TRUE,TRUE,,TRUE,,,,FEW,12000,BKN,25000,,,,,VFR,,,,,,,,,,,,METAR,74.0
KBOK 171356Z AUTO 16015G22KT 7SM -RA OVC015 10/09 A2957 RMK AO2 PK WND 16030/1314 SLP030 P0004 T01000089,KBOK,2019-01-17T13:56:00Z,42.07,-124.28,10.0,8.9,160,15,22,7.0,29.568897,1003.0,,TRUE,TRUE,,,,,,-RA,OVC,1500,,,,,,,MVFR,,,,,,0.04,,,,,,SPECI,140.0
KFRI 171356Z 00000KT 6SM HZ BKN007 OVC018 00/M02 A3013 RMK AO2A SLPNO ALSTG ESTMD $,KFRI,2019-01-17T13:56:00Z,39.03,-96.77,0.0,-2.0,0,0,,6.0,30.129921,,,,TRUE,TRUE,,,,,HZ,BKN,700,OVC,1800,,,,,IFR,,,,,,,,,,,,METAR,325.0
PAMB 171356Z AUTO 03010KT 10SM CLR M02/M02 A2963 RMK AO2 SLP038 T10171022 FZRANO $,PAMB,2019-01-17T13:56:00Z,58.98,-159.05,-1.7,-2.2,30,10,,10.0,29.630905,1003.8,,TRUE,TRUE,TRUE,,,TRUE,,,CLR,,,,,,,,VFR,,,,,,,,,,,,METAR,16.0
KAST 171355Z AUTO 12017G26KT 10SM OVC055 09/03 A2935 RMK AO2 PK WND 13026/1346 SLP938 T00890033,KAST,2019-01-17T13:55:00Z,46.15,-123.88,8.9,3.3,120,17,26,10.0,29.350393,993.8,,TRUE,TRUE,,,,,,,OVC,5500,,,,,,,VFR,,,,,,,,,,,,SPECI,3.0
KANE 171355Z 34003KT 5SM -SN SCT030 OVC043 M08/M12 A3008,KANE,2019-01-17T13:55:00Z,45.15,-93.22,-8.0,-12.0,340,3,,5.0,30.079725,,,,,,,,,,-SN,SCT,3000,OVC,4300,,,,,MVFR,,,,,,,,,,,,METAR,278.0
KBYS 171355Z AUTO 14007KT 10SM FEW080 BKN210 10/08 A3008 RMK AO2 SLP195 WND DATA ESTMD T01010081,KBYS,2019-01-17T13:55:00Z,35.28,-116.62,10.1,8.1,140,7,,10.0,30.079725,1019.5,,TRUE,TRUE,,,,,,,FEW,8000,BKN,21000,,,,,VFR,,,,,,,,,,,,SPECI,716.0
FJDG 171355Z 13011KT 9999 FEW023 FEW220 29/26 A2984 RMK SLP102 T02910259,FJDG,2019-01-17T13:55:00Z,-7.32,72.42,29.1,25.9,130,11,,6.21,29.840551,1010.2,,,,,,,,,,FEW,2300,FEW,22000,,,,,VFR,,,,,,,,,,,,METAR,3.0
KHYS 171355Z AUTO 34004KT 1/4SM FZFG OVC003 M02/M02 A3010 RMK AO2 SLP213 T10171017 FZRANO,KHYS,2019-01-17T13:55:00Z,38.85,-99.27,-1.7,-1.7,340,4,,0.25,30.100393,1021.3,,TRUE,TRUE,,,,TRUE,,FZFG,OVC,300,,,,,,,LIFR,,,,,,,,,,,,METAR,609.0
KAAT 171355Z AUTO 16010KT 10SM FEW035 BKN044 OVC090 02/M01 A2970 RMK AO2 SLP058 T00221006,KAAT,2019-01-17T13:55:00Z,41.48,-120.57,2.2,-0.6,160,10,,10.0,29.698818,1005.8,,TRUE,TRUE,,,,,,,FEW,3500,BKN,4400,OVC,9000,,,VFR,,,,,,,,,,,,SPECI,1331.0
OKAS 171355Z 29012KT 3600 DU FEW023 15/M02 A3004 RMK AO2A SLP173 T01501023 PA +359,OKAS,2019-01-17T13:55:00Z,,,15.0,-2.3,290,12,,2.24,30.041338,1017.3,,,TRUE,,,,,,DU,FEW,2300,,,,,,,IFR,,,,,,,,,,,,METAR,
KEAT 171355Z AUTO 29005KT 1 1/4SM -SN BR OVC013 M01/M02 A2966 RMK AO2 SLP053 P0005 T10111017,KEAT,2019-01-17T13:55:00Z,47.4,-120.2,-1.1,-1.7,290,5,,1.25,29.660433,1005.3,,TRUE,TRUE,,,,,,-SN BR,OVC,1300,,,,,,,IFR,,,,,,0.05,,,,,,SPECI,377.0
MUHA 171355Z 00000KT 8000 FEW025TCU 18/16 Q1022,MUHA,2019-01-17T13:55:00Z,22.97,-82.42,18.0,16.0,0,0,,4.97,30.177166,,,,,,,,,,,FEW,2500,,,,,,,MVFR,,,,,,,,,,,,METAR,64.0
RJOI 171355Z 28004KT 9999 FEW030 BKN050 06/M02 A3018 RMK SLP221 T00611017,RJOI,2019-01-17T13:55:00Z,34.13,132.22,6.1,-1.7,280,4,,6.21,30.180119,1022.1,,,,,,,,,,FEW,3000,BKN,5000,,,,,VFR,,,,,,,,,,,,METAR,2.0
KSCK 171355Z AUTO 12005KT 10SM FEW055 12/10 A2990 RMK AO2 SLP124 T01170100,KSCK,2019-01-17T13:55:00Z,37.88,-121.22,11.7,10.0,120,5,,10.0,29.899607,1012.4,,TRUE,TRUE,,,,,,,FEW,5500,,,,,,,VFR,,,,,,,,,,,,SPECI,10.0
OAHR 171355Z 15013KT 9999 FEW070 SCT090 20/M02 Q1009 RMK A2980 BLU,OAHR,2019-01-17T13:55:00Z,34.22,62.22,20.0,-2.0,150,13,,6.21,29.793306,,,,,,,,,,,FEW,7000,SCT,9000,,,,,VFR,,,,,,,,,,,,METAR,964.0
KNKX 171355Z 12005KT 10SM FEW015 BKN030 OVC055 16/12 A3016 RMK AO2 SLP208 T01560117,KNKX,2019-01-17T13:55:00Z,32.87,-117.13,15.6,11.7,120,5,,10.0,30.159449,1020.8,,,TRUE,,,,,,,FEW,1500,BKN,3000,OVC,5500,,,MVFR,,,,,,,,,,,,METAR,146.0
KWWD 171355Z AUTO 04006KT 10SM CLR 00/M07 A3040 RMK AO2 SLP296 T00001067 FZRANO,KWWD,2019-01-17T13:55:00Z,39.02,-74.92,0.0,-6.7,40,6,,10.0,30.398623,1029.6,,TRUE,TRUE,,,,TRUE,,,CLR,,,,,,,,VFR,,,,,,,,,,,,METAR,7.0
KADM 171355Z 33011G17KT 10SM OVC010 09/08 A3009,KADM,2019-01-17T13:55:00Z,34.28,-97.02,9.0,8.0,330,11,17,10.0,30.088583,,,,,,,,,,,OVC,1000,,,,,,,MVFR,,,,,,,,,,,,METAR,232.0
NZWD 171355Z 12011KT 9999 FEW010 BKN020 BKN090 M08/M11 A2928 RMK SLP915 GRID29011KT SDG/HDG,NZWD,2019-01-17T13:55:00Z,-77.87,167.07,-8.0,-11.0,120,11,,6.21,29.279528,991.5,,,,,,,,,,FEW,1000,BKN,2000,BKN,9000,,,MVFR,,,,,,,,,,,,SPECI,22.0
TNCB 171355Z 09017KT 060V130 9999 SCT019 29/22 Q1017,TNCB,2019-01-17T13:55:00Z,12.13,-68.28,29.0,22.0,90,17,,6.21,30.029528,,,,,,,,,,,SCT,1900,,,,,,,VFR,,,,,,,,,,,,METAR,6.0
KGPI 171355Z AUTO 35008KT 10SM OVC065 M04/M08 A2979 RMK AO2 SLP127 T10441078,KGPI,2019-01-17T13:55:00Z,48.32,-114.25,-4.4,-7.8,350,8,,10.0,29.790354,1012.7,,TRUE,TRUE,,,,,,,OVC,6500,,,,,,,VFR,,,,,,,,,,,,METAR,908.0
KPHP 171355Z AUTO 00000KT 9SM OVC004 M06/M07 A3004 RMK AO2 SLP204 T10611067,KPHP,2019-01-17T13:55:00Z,44.05,-101.6,-6.1,-6.7,0,0,,9.0,30.041338,1020.4,,TRUE,TRUE,,,,,,,OVC,400,,,,,,,LIFR,,,,,,,,,,,,METAR,672.0
KHON 171355Z AUTO 36004KT 10SM OVC021 M09/M12 A3012 RMK AO2 SLP225 T10941117,KHON,2019-01-17T13:55:00Z,44.38,-98.23,-9.4,-11.7,360,4,,10.0,30.121063,1022.5,,TRUE,TRUE,,,,,,,OVC,2100,,,,,,,MVFR,,,,,,,,,,,,METAR,390.0
KUGN 171355Z COR 00000KT 4SM HZ OVC013 M01/M03 A3010 RMK AO2 SLP206 T10061033,KUGN,2019-01-17T13:55:00Z,42.42,-87.87,-0.6,-3.3,0,0,,4.0,30.100393,1020.6,TRUE,,TRUE,,,,,,HZ,OVC,1300,,,,,,,MVFR,,,,,,,,,,,,SPECI,222.0
KINL 171355Z AUTO 00000KT 10SM OVC085 M17/M21 A3011 RMK AO2 SLP238 T11721211 $,KINL,2019-01-17T13:55:00Z,48.57,-93.4,-17.2,-21.1,0,0,,10.0,30.109253,1023.8,,TRUE,TRUE,TRUE,,,,,,OVC,8500,,,,,,,VFR,,,,,,,,,,,,METAR,360.0
KIRK 171355Z AUTO 34004KT 1/2SM FZFG VV003 M01/M01 A3007 RMK AO2 SLP197 I1001 T10061006,KIRK,2019-01-17T13:55:00Z,40.1,-92.55,-0.6,-0.6,340,4,,0.5,30.070866,1019.7,,TRUE,TRUE,,,,,,FZFG,OVX,0,,,,,,,LIFR,,,,,,,,,,,300,METAR,293.0
KJQF 171355Z 00000KT 10SM CLR 02/M01 A3030,KJQF,2019-01-17T13:55:00Z,35.38,-80.72,2.0,-1.0,0,0,,10.0,30.301182,,,,,,,,,,,CLR,,,,,,,,VFR,,,,,,,,,,,,METAR,210.0
KLIC 171355Z AUTO 34005KT 10SM CLR M06/M08 A3005 RMK AO2 SLP204 T10611083,KLIC,2019-01-17T13:55:00Z,39.27,-103.67,-6.1,-8.3,340,5,,10.0,30.050198,1020.4,,TRUE,TRUE,,,,,,,CLR,,,,,,,,VFR,,,,,,,,,,,,SPECI,1630.0
KMKG 171355Z 09005KT 10SM OVC034 M05/M09 A3015 RMK AO2 SLP221 T10501094 $,KMKG,2019-01-17T13:55:00Z,43.17,-86.23,-5.0,-9.4,90,5,,10.0,30.15059,1022.1,,,TRUE,TRUE,,,,,,OVC,3400,,,,,,,VFR,,,,,,,,,,,,METAR,191.0
ORBD 171355Z 16005KT 5000 -RA DU BKN050 BKN070 11/07 A2989 RMK WND DATA ALSTG ESTMD,ORBD,2019-01-17T13:55:00Z,33.93,44.37,11.0,7.0,160,5,,3.11,29.890747,,,,,,,,,,-RA DU,BKN,5000,BKN,7000,,,,,MVFR,,,,,,,,,,,,METAR,49.0
PATL 171355Z AUTO 00000KT 10SM BKN090 M12/M14 A2981 RMK AO2 SLP127 T11191140,PATL,2019-01-17T13:55:00Z,62.9,-155.97,-11.9,-14.0,0,0,,10.0,29.811024,1012.7,,TRUE,TRUE,,,,,,,BKN,9000,,,,,,,VFR,,,,,,,,,,,,METAR,294.0
PATC 171355Z AUTO 02003KT 10SM -SN BKN044 M06/M09 A2968 RMK AO2 SNB1355 SLP057 P0000 T10631094,PATC,2019-01-17T13:55:00Z,65.57,-167.92,-6.3,-9.4,20,3,,10.0,29.681103,1005.7,,TRUE,TRUE,,,,,,-SN,BKN,4400,,,,,,,VFR,,,,,,0.005,,,,,,METAR,83.0
LIVT 171355Z 00000KT 9999 FEW020 SCT025 11/09 Q1013 RMK OVC QUK 0 QUL 0 VIS MAR 15 KM VIS MIN 9999,LIVT,2019-01-17T13:55:00Z,45.68,13.75,11.0,9.0,0,0,,6.21,29.911417,,,,,,,,,,,FEW,2000,SCT,2500,,,,,VFR,,,,,,,,,,,,METAR,20.0
LIVR 171355Z 14012KT 9999 4000S BKN015 M03/M04 Q1006 RMK OVC MON GEN INC VIS MIN 4000S,LIVR,2019-01-17T13:55:00Z,46.28,11.77,-3.0,-4.0,140,12,,6.21,29.704725,,,,,,,,,,,BKN,1500,,,,,,,MVFR,,,,,,,,,,,,METAR,2006.0
LIVP 171355Z 21018KT 0000 FZFG VV/// M04/M05 Q1005 RMK MON INVIS VAL INVIS VIS MIN 0000,LIVP,2019-01-17T13:55:00Z,46.15,11.03,-4.0,-5.0,210,18,,0.0,29.675198,,,,,,,,,,FZFG,OVX,0,,,,,,,LIFR,,,,,,,,,,,,METAR,2129.0
LIVO 171355Z 29006KT 9999 BKN030 05/02 Q1010 RMK BKN VIS MIN 9999,LIVO,2019-01-17T13:55:00Z,46.5,13.57,5.0,2.0,290,6,,6.21,29.822834,,,,,,,,,,,BKN,3000,,,,,,,MVFR,,,,,,,,,,,,METAR,778.0
LIVM 171355Z VRB02KT 9999 SCT030 12/05 Q1013 RMK OVC BKN060 QUK 0 QUL 0 VIS MAR 18 KM VIS MIN 9999,LIVM,2019-01-17T13:55:00Z,44.45,12.3,12.0,5.0,0,2,,6.21,29.911417,,,,,,,,,,,SCT,3000,,,,,,,VFR,,,,,,,,,,,,METAR,6.0
LIVF 171355Z 19005KT 9999 BKN025 09/05 Q1012 RMK BKN MON S W CIME INC NC VAL NIL VIS MIN 9999,LIVF,2019-01-17T13:55:00Z,43.52,12.72,9.0,5.0,190,5,,6.21,29.88189,,,,,,,,,,,BKN,2500,,,,,,,MVFR,,,,,,,,,,,,METAR,574.0
LIVE 171355Z 16007KT 7000 FEW030 00/M04 Q1007 RMK BKN SCT060 VIS MIN 7000,LIVE,2019-01-17T13:55:00Z,46.85,10.5,0.0,-4.0,160,7,,4.35,29.734253,,,,,,,,,,,FEW,3000,,,,,,,MVFR,,,,,,,,,,,,METAR,1800.0
LIVD 171355Z /////KT 9999 BKN020 02/M02 Q1009 RMK BKN VIS MIN 9999,LIVD,2019-01-17T13:55:00Z,46.72,12.22,2.0,-2.0,,,,6.21,29.793306,,,,,,,,,,,BKN,2000,,,,,,,MVFR,,,,,,,,,,,,METAR,1226.0
LIRX 171355Z 23010KT 9999 SCT005 11/09 Q1012 RMK SCT VIS MIN 9999 VIS MAR 15 KM,LIRX,2019-01-17T13:55:00Z,42.73,10.38,11.0,9.0,230,10,,6.21,29.88189,,,,,,,,,,,SCT,500,,,,,,,VFR,,,,,,,,,,,,METAR,297.0
LIRT 171355Z 34008KT 9999 FEW007 04/M00 Q1016 RMK FEW MON LIB VAL NIL VIS MIN 9999,LIRT,2019-01-17T13:55:00Z,41.03,15.22,4.0,0.0,340,8,,6.21,30.0,,,,,,,,,,,FEW,700,,,,,,,VFR,,,,,,,,,,,,METAR,1093.0
LIRK 171355Z AUTO VRB04KT //// M02/M02 Q1014,LIRK,2019-01-17T13:55:00Z,42.47,12.97,-2.0,-2.0,0,4,,,29.940945,,,TRUE,,,,,,,,,,,,,,,,,,,,,,,,,,,,METAR,1875.0
LIRE 171355Z 14013KT 9999 -RA SCT020 SCT040 11/10 Q1016 RMK BKN VIS MIN 9999 WIND THR13 14012KT WIND THR31 /////KT BLU,LIRE,2019-01-17T13:55:00Z,41.63,12.42,11.0,10.0,140,13,,6.21,30.0,,,,,,,,,,-RA,SCT,2000,SCT,4000,,,,,VFR,,,,,,,,,,,,METAR,12.0
LIQO 171355Z 18006KT 0000 FG VV/// 10/10 Q1013 RMK VAL INVIS NC VIS MIN 0000,LIQO,2019-01-17T13:55:00Z,42.37,11.17,10.0,10.0,180,6,,0.0,29.911417,,,,,,,,,,FG,OVX,0,,,,,,,LIFR,,,,,,,,,,,,METAR,632.0
LIQC 171355Z 15006KT 9999 SCT025 11/06 Q1018 RMK SCT QUK 1 QUL 1 SE VIS MAR 30 KM VIS MIN 9999,LIQC,2019-01-17T13:55:00Z,40.55,14.2,11.0,6.0,150,6,,6.21,30.059055,,,,,,,,,,,SCT,2500,,,,,,,VFR,,,,,,,,,,,,METAR,269.0
LIPS 171355Z 10004KT 6000 SCT040 BKN070 08/04 Q1012 RMK OVC VIS MIN 6000 WIND THR26 06003KT WIND THR08 09004KT WHT,LIPS,2019-01-17T13:55:00Z,45.67,12.08,8.0,4.0,100,4,,3.73,29.88189,,,,,,,,,,,SCT,4000,BKN,7000,,,,,MVFR,,,,,,,,,,,,METAR,41.0
LIPL 171355Z 08004KT 2500 BR SCT028 SCT040 06/06 Q1013 RMK OVC VIS MIN 2500 WIND THR31 06003KT WIND THR13 08003KT YLO,LIPL,2019-01-17T13:55:00Z,45.42,10.27,6.0,6.0,80,4,,1.55,29.911417,,,,,,,,,,BR,SCT,2800,SCT,4000,,,,,IFR,,,,,,,,,,,,METAR,92.0
LIPI 171355Z /////KT 5000 BR FEW025 SCT030 BKN060 08/04 Q1013 RMK OVC VIS MIN 5000 WIND THR06 03003KT WIND THR24 04002KT WHT,LIPI,2019-01-17T13:55:00Z,45.97,13.05,8.0,4.0,,,,3.11,29.911417,,,,,,,,,,BR,FEW,2500,SCT,3000,BKN,6000,,,MVFR,,,,,,,,,,,,METAR,53.0
LIPA 171355Z 05005KT 7000 SCT030 BKN045 07/05 Q1012 RMK OVC VIS MIN 5000N WIND THR05 04005KT WIND THR23 05006KT A2990 WHT,LIPA,2019-01-17T13:55:00Z,46.02,12.58,7.0,5.0,50,5,,4.35,29.88189,,,,,,,,,,,SCT,3000,BKN,4500,,,,,MVFR,,,,,,,,,,,,METAR,126.0
LIMY 171355Z 35004KT CAVOK 06/02 Q1012 RMK FEW FEW200 VAL FOSCHIA VIS MIN 9999,LIMY,2019-01-17T13:55:00Z,44.25,7.78,6.0,2.0,350,4,,6.21,29.88189,,,,,,,,,,,CAVOK,,,,,,,,VFR,,,,,,,,,,,,METAR,1742.0
LIMV 171355Z /////KT 0100 -RA FG VV/// 07/07 Q1011 RMK MON INVIS VAL INVIS VIS MIN 0100,LIMV,2019-01-17T13:55:00Z,44.55,8.92,7.0,7.0,,,,0.06,29.852362,,,,,,,,,,-RA FG,OVX,0,,,,,,,LIFR,,,,,,,,,,,,METAR,475.0
LIMU 171355Z 26018KT 9999 FEW020 12/08 Q1009 RMK SCT SCT053 QUK 4 QUL 2 S VIS MAR 30 KM VIS MIN 9999,LIMU,2019-01-17T13:55:00Z,43.95,8.17,12.0,8.0,260,18,,6.21,29.793306,,,,,,,,,,,FEW,2000,,,,,,,VFR,,,,,,,,,,,,METAR,221.0
LIMN 171355Z 13005KT 4000 BR BKN010 SCT040 08/06 Q1012 RMK BKN VIS MIN 4000 GRN,LIMN,2019-01-17T13:55:00Z,45.52,8.67,8.0,6.0,130,5,,2.49,29.88189,,,,,,,,,,BR,BKN,1000,SCT,4000,,,,,IFR,,,,,,,,,,,,METAR,169.0
LIMK 171355Z 01002KT CAVOK 04/M00 Q1009 RMK FEW FEW200 VAL FOSCHIA VIS MIN 9999,LIMK,2019-01-17T13:55:00Z,45.02,7.72,4.0,0.0,10,2,,6.21,29.793306,,,,,,,,,,,CAVOK,,,,,,,,VFR,,,,,,,,,,,,METAR,710.0
LIMH 171355Z /////KT 0100 -SN FZFG VV/// M12/M12 Q1003 RMK MON INVIS VAL INVIS VIS MIN 0100,LIMH,2019-01-17T13:55:00Z,45.93,7.7,-12.0,-12.0,,,,0.06,29.616142,,,,,,,,,,FZFG -SN,OVX,0,,,,,,,LIFR,,,,,,,,,,,,METAR,3488.0
LIED 171355Z 35004KT 9999 SCT025 14/12 Q1015 RMK BKN BKN200 VIS MIN 9999 WIND THR35 /////KT WIND THR17 /////KT BLU,LIED,2019-01-17T13:55:00Z,39.35,8.97,14.0,12.0,350,4,,6.21,29.970472,,,,,,,,,,,SCT,2500,,,,,,,VFR,,,,,,,,,,,,METAR,28.0
LIEB 171355Z 12004KT CAVOK 15/09 Q1013 RMK SCT FEW055 QUK 2 QUL 0 VIS MAR 30 KM MON LIB VIS MIN 9999,LIEB,2019-01-17T13:55:00Z,39.93,9.72,15.0,9.0,120,4,,6.21,29.911417,,,,,,,,,,,CAVOK,,,,,,,,VFR,,,,,,,,,,,,METAR,156.0
LICZ 171355Z 02003KT 6000 -RA BKN030 BKN070 11/11 Q1020 RMK OVC VIS MIN 4000SW WIND THR28 /////KT WIND THR10 03002KT A3013 GRN,LICZ,2019-01-17T13:55:00Z,37.38,14.92,11.0,11.0,20,3,,3.73,30.11811,,,,,,,,,,-RA,BKN,3000,BKN,7000,,,,,MVFR,,,,,,,,,,,,METAR,22.0
LIBV 171355Z 19007KT CAVOK 10/M02 Q1017 RMK SKC VIS MIN 9999 WIND THR32 18007KT WIND THR14 18008KT BLU,LIBV,2019-01-17T13:55:00Z,40.77,16.92,10.0,-2.0,190,7,,6.21,30.029528,,,,,,,,,,,CAVOK,,,,,,,,VFR,,,,,,,,,,,,METAR,350.0
LIBQ 171355Z 26007KT 240V300 9999 SCT006 02/M01 Q1016 RMK SCT MON LIB VAL NIL VIS MIN 9999,LIBQ,2019-01-17T13:55:00Z,39.32,16.38,2.0,-1.0,260,7,,6.21,30.0,,,,,,,,,,,SCT,600,,,,,,,VFR,,,,,,,,,,,,METAR,1720.0
LIBN 171355Z 19009KT 9999 FEW025 13/07 Q1019 RMK FEW VIS MIN 9999 WIND THR14 18010KT WIND THR32 18009KT BLU,LIBN,2019-01-17T13:55:00Z,40.22,18.13,13.0,7.0,190,9,,6.21,30.088583,,,,,,,,,,,FEW,2500,,,,,,,VFR,,,,,,,,,,,,METAR,61.0
LIBA 171355Z 21007KT 9999 FEW040 14/04 Q1016 RMK FEW VIS MIN 9999 WIND THR11 22007KT WIND THR29 /////KT BLU,LIBA,2019-01-17T13:55:00Z,41.52,15.72,14.0,4.0,210,7,,6.21,30.0,,,,,,,,,,,FEW,4000,,,,,,,VFR,,,,,,,,,,,,METAR,60.0
KQUJ 171355Z VRB01KT 7SM FEW038 SCT140 BKN160 10/09 A3006 RMK AO2A SLP188 WND DATA ESTMD,KQUJ,2019-01-17T13:55:00Z,,,10.0,9.0,0,1,,7.0,30.059055,1018.8,,,TRUE,,,,,,,FEW,3800,SCT,14000,BKN,16000,,,VFR,,,,,,,,,,,,METAR,
KANJ 171355Z AUTO 07004KT 10SM BKN030 OVC037 M12/M15 A3020 RMK AO2 SLP240 T11171150,KANJ,2019-01-17T13:55:00Z,46.47,-84.37,-11.7,-15.0,70,4,,10.0,30.200787,1024.0,,TRUE,TRUE,,,,,,,BKN,3000,OVC,3700,,,,,MVFR,,,,,,,,,,,,METAR,218.0
KNFG 171355Z AUTO 00000KT 10SM OVC015 14/14 A3015 RMK AO2 RAE16 SLP208 P0001 T01390139,KNFG,2019-01-17T13:55:00Z,33.28,-117.33,13.9,13.9,0,0,,10.0,30.15059,1020.8,,TRUE,TRUE,,,,,,,OVC,1500,,,,,,,MVFR,,,,,,0.01,,,,,,SPECI,24.0
KCAO 171355Z AUTO 26012KT 10SM CLR 03/M06 A3012 RMK AO2 SLP190 T00331056,KCAO,2019-01-17T13:55:00Z,36.45,-103.15,3.3,-5.6,260,12,,10.0,30.121063,1019.0,,TRUE,TRUE,,,,,,,CLR,,,,,,,,VFR,,,,,,,,,,,,METAR,1514.0
KCNK 171355Z AUTO 25003KT 4SM BR OVC009 M03/M03 A3010 RMK AO2 SLP207 T10281028,KCNK,2019-01-17T13:55:00Z,39.55,-97.65,-2.8,-2.8,250,3,,4.0,30.100393,1020.7,,TRUE,TRUE,,,,,,BR,OVC,900,,,,,,,IFR,,,,,,,,,,,,METAR,447.0
KDLH 171355Z 34006KT 10SM SCT055 OVC110 M18/M22 A3004 RMK AO2 SLP216 T11781222,KDLH,2019-01-17T13:55:00Z,46.85,-92.2,-17.8,-22.2,340,6,,10.0,30.041338,1021.6,,,TRUE,,,,,,,SCT,5500,OVC,11000,,,,,VFR,,,,,,,,,,,,SPECI,435.0
KNBG 171355Z 14004KT 5SM -RA BR OVC060 12/08 A3023 RMK AO2 RAB53 SLP234 P0000 T01170083 $,KNBG,2019-01-17T13:55:00Z,29.82,-90.02,11.7,8.3,140,4,,5.0,30.230314,1023.4,,,TRUE,TRUE,,,,,-RA BR,OVC,6000,,,,,,,MVFR,,,,,,0.005,,,,,,SPECI,1.0
LIMS 171355Z 14001KT 1500 BR BKN005 SCT010 05/05 Q1012 RMK OVC VIS MIN 1500 WIND THR30 00000KT AMB,LIMS,2019-01-17T13:55:00Z,44.92,9.72,5.0,5.0,140,1,,0.93,29.88189,,,,,,,,,,BR,BKN,500,SCT,1000,,,,,LIFR,,,,,,,,,,,,METAR,138.0
LIPF 171355Z 03005KT 9999 BKN050 13/08 Q1012 RMK BKN VIS MIN 9999,LIPF,2019-01-17T13:55:00Z,44.82,11.62,13.0,8.0,30,5,,6.21,29.88189,,,,,,,,,,,BKN,5000,,,,,,,VFR,,,,,,,,,,,,METAR,10.0
LIPC 171355Z 15009KT 9999 SCT050 BKN060 11/07 Q1013 RMK BKN VIS MIN 9999 WIND THR11 /////KT WIND THR29 15004KT BLU,LIPC,2019-01-17T13:55:00Z,44.22,12.3,11.0,7.0,150,9,,6.21,29.911417,,,,,,,,,,,SCT,5000,BKN,6000,,,,,VFR,,,,,,,,,,,,METAR,10.0
LICG 171355Z /////KT 9999 FEW020 14/11 Q1017,LICG,2019-01-17T13:55:00Z,36.82,11.97,14.0,11.0,,,,6.21,30.029528,,,,,,,,,,,FEW,2000,,,,,,,VFR,,,,,,,,,,,,METAR,191.0
LICT 171355Z 20014KT 9999 SCT020 14/08 Q1017 RMK BKN BKN200 VIS MIN 9999 WIND THR13 17012KT BLU,LICT,2019-01-17T13:55:00Z,37.92,12.5,14.0,8.0,200,14,,6.21,30.029528,,,,,,,,,,,SCT,2000,,,,,,,VFR,,,,,,,,,,,,METAR,7.0
LIRV 171355Z /////KT 9999 -RA SCT020 BKN035 09/08 Q1014 RMK OVC MON E SE CLD CIME NC VIS MIN 9999 WIND THR04 /////KT BLU,LIRV,2019-01-17T13:55:00Z,42.42,12.07,9.0,8.0,,,,6.21,29.940945,,,,,,,,,,-RA,SCT,2000,BKN,3500,,,,,VFR,,,,,,,,,,,,METAR,300.0
LIRS 171355Z 29002KT 9999 FEW010 FEW015TCU SCT018 12/10 Q1013 RMK BKN VIS MIN 7000 WIND THR03 27002KT WIND THR21 03003KT WHT,LIRS,2019-01-17T13:55:00Z,42.75,11.07,12.0,10.0,290,2,,6.21,29.911417,,,,,,,,,,,FEW,1000,FEW,1500,SCT,1800,,,VFR,,,,,,,,,,,,METAR,7.0
LIRM 171355Z /////KT 9999 FEW030 BKN070 11/05 Q1018,LIRM,2019-01-17T13:55:00Z,41.03,14.07,11.0,5.0,,,,6.21,30.059055,,,,,,,,,,,FEW,3000,BKN,7000,,,,,VFR,,,,,,,,,,,,METAR,10.0
LIRL 171355Z 13011KT 9999 FEW020 SCT030 14/10 Q1016 RMK BKN MON LIB VAR RAPID VIS MIN 9999 WIND THR12 13011KT WIND THR30 13011KT BLU,LIRL,2019-01-17T13:55:00Z,41.53,12.9,14.0,10.0,130,11,,6.21,30.0,,,,,,,,,,,FEW,2000,SCT,3000,,,,,VFR,,,,,,,,,,,,METAR,26.0
LIRH 171355Z 17002KT 1500 -RA BR SCT003 BKN025 07/05 Q1017 RMK OVC MON INVIS VAR RAPID VIS MIN 1500 WIND THR16 /////KT AMB,LIRH,2019-01-17T13:55:00Z,41.65,13.3,7.0,5.0,170,2,,0.93,30.029528,,,,,,,,,,-RA BR,SCT,300,BKN,2500,,,,,LIFR,,,,,,,,,,,,METAR,181.0
LIRG 171355Z 15012KT 9999 FEW025 BKN035 13/06 Q1016 RMK BKN MON NE CLD CIME NC VIS MIN 9999 BLU,LIRG,2019-01-17T13:55:00Z,42.0,12.72,13.0,6.0,150,12,,6.21,30.0,,,,,,,,,,,FEW,2500,BKN,3500,,,,,VFR,,,,,,,,,,,,METAR,89.0
LIQW 171355Z 09004KT 9999 SCT020 BKN025 11/10 Q1013 RMK OVC VIS MIN 9999 WIND THR18 11005KT BLU,LIQW,2019-01-17T13:55:00Z,44.07,9.97,11.0,10.0,90,4,,6.21,29.911417,,,,,,,,,,,SCT,2000,BKN,2500,,,,,MVFR,,-0.5,,,,,,,,,,METAR,10.0
OAKN 171355Z 02005KT 9999 SCT140 18/M07 A3000 RMK AO2A SLP137 WND DATA ESTMD Q1015 PA3231 DA4325 T01791066,OAKN,2019-01-17T13:55:00Z,31.5,65.83,17.9,-6.6,20,5,,6.21,30.0,1013.7,,,TRUE,,,,,,,SCT,14000,,,,,,,VFR,,,,,,,,,,,,METAR,1010.0
KQZF 171355Z AUTO VRB06KT 9SM CLR 29/M06 A2998 RMK AO2 SLP144 WND DATA ESTMD T02921064 $,KQZF,2019-01-17T13:55:00Z,,,29.2,-6.4,0,6,,9.0,29.97933,1014.4,,TRUE,TRUE,TRUE,,,,,,CLR,,,,,,,,VFR,,,,,,,,,,,,METAR,
KQBL 171355Z AUTO 10SM CLR 07/06 A3028 RMK AO2 SLP253 WND DATA ESTMD T00690058,KQBL,2019-01-17T13:55:00Z,,,6.9,5.8,,,,10.0,30.280512,1025.3,,TRUE,TRUE,,,,,,,CLR,,,,,,,,VFR,,,,,,,,,,,,METAR,
PASV 171355Z AUTO 15001KT 10SM OVC065 M01/M04 A2964 RMK AO2 SHRAB1247E1332 SLP065 T10091036,PASV,2019-01-17T13:55:00Z,61.1,-155.57,-0.9,-3.6,150,1,,10.0,29.639763,1006.5,,TRUE,TRUE,,,,,,,OVC,6500,,,,,,,VFR,,,,,,,,,,,,METAR,484.0
PALU 171355Z AUTO VRB03KT 10SM CLR M15/M16 A2980 RMK AO2 SNB1259E1315SHSNB1303E1314 SLP091 T11491165,PALU,2019-01-17T13:55:00Z,68.88,-166.1,-14.9,-16.5,0,3,,10.0,29.799213,1009.1,,TRUE,TRUE,,,,,,,CLR,,,,,,,,VFR,,,,,,,,,,,,METAR,3.0
PAIM 171355Z AUTO VRB05KT 10SM CLR M14/M20 A2987 RMK AO2 SLP157 T11361201,PAIM,2019-01-17T13:55:00Z,66.0,-153.7,-13.6,-20.1,0,5,,10.0,29.870079,1015.7,,TRUE,TRUE,,,,,,,CLR,,,,,,,,VFR,,,,,,,,,,,,METAR,389.0
KCNW 171355Z 22004KT 10SM SKC 11/10 A3012,KCNW,2019-01-17T13:55:00Z,31.63,-97.07,11.0,10.0,220,4,,10.0,30.121063,,,,,,,,,,,SKC,,,,,,,,VFR,,,,,,,,,,,,METAR,156.0
KRNO 171355Z 00000KT 10SM SCT036 BKN150 05/01 A2980 RMK AO2 RAB09E51 SLP080 P0000 T00500011 $,KRNO,2019-01-17T13:55:00Z,39.5,-119.77,5.0,1.1,0,0,,10.0,29.799213,1008.0,,,TRUE,TRUE,,,,,,SCT,3600,BKN,15000,,,,,VFR,,,,,,0.005,,,,,,SPECI,1342.0
MMGM 171355Z 00000KT 10SM BKN170 17/13 A3003 RMK 8/010 HZY RTS,MMGM,2019-01-17T13:55:00Z,27.95,-110.92,17.0,13.0,0,0,,10.0,30.029528,,,,,,,,,,,BKN,17000,,,,,,,VFR,,,,,,,,,,,,METAR,20.0
TXKF 171355Z 36008KT 9999 FEW032 BKN065 17/10 Q1024 ,TXKF,2019-01-17T13:55:00Z,32.37,-64.68,17.0,10.0,360,8,,6.21,30.236221,,,,,,,,,,,FEW,3200,BKN,6500,,,,,VFR,,,,,,,,,,,,METAR,6.0
LIBY 171355Z 15008KT 9999 FEW020 11/09 Q1018 RMK FEW QUK 1 QUL 0 VIS MAR 15 KM VIS MIN 9999,LIBY,2019-01-17T13:55:00Z,39.82,18.35,11.0,9.0,150,8,,6.21,30.059055,,,,,,,,,,,FEW,2000,,,,,,,VFR,,,,,,,,,,,,SPECI,112.0
OAJL 171355Z 22001KT 4400 HZ FEW170 09/02 A3011 AO2A SLP202 T00940019,OAJL,2019-01-17T13:55:00Z,34.42,70.47,9.4,1.9,220,1,,2.73,30.109253,1020.2,,,TRUE,,,,,,HZ,FEW,17000,,,,,,,IFR,,,,,,,,,,,,METAR,580.0
KTQE 171354Z AUTO 35003KT 10SM OVC021 M04/M07 A3011 RMK AO2 SLP206 T10391067,KTQE,2019-01-17T13:54:00Z,41.77,-96.18,-3.9,-6.7,350,3,,10.0,30.109253,1020.6,,TRUE,TRUE,,,,,,,OVC,2100,,,,,,,MVFR,,,,,,,,,,,,SPECI,312.0
K12N 171354Z AUTO VRB05KT M06/M13 A3038 RMK AO1 SLP300 T10611133,K12N,2019-01-17T13:54:00Z,41.02,-74.73,-6.1,-13.3,0,5,,,30.380905,1030.0,,TRUE,TRUE,,,,,,,,,,,,,,,,,,,,,,,,,,,SPECI,177.0
KNKT 171354Z 03008KT 10SM SCT190 07/06 A3033 RMK AO2 SLP266 T00670056,KNKT,2019-01-17T13:54:00Z,34.9,-76.88,6.7,5.6,30,8,,10.0,30.33071,1026.6,,,TRUE,,,,,,,SCT,19000,,,,,,,VFR,,,,,,,,,,,,SPECI,9.0
KMTP 171354Z AUTO 36008KT M03/M17 A3040 RMK AO1 SLP293 T10331167,KMTP,2019-01-17T13:54:00Z,41.07,-71.92,-3.3,-16.7,360,8,,,30.398623,1029.3,,TRUE,TRUE,,,,,,,,,,,,,,,,,,,,,,,,,,,METAR,2.0
KAKQ 171354Z AUTO VRB03KT 10SM OVC039 03/M01 A3035 RMK AO2 SLP280 T00331006,KAKQ,2019-01-17T13:54:00Z,36.98,-77.0,3.3,-0.6,0,3,,10.0,30.351377,1028.0,,TRUE,TRUE,,,,,,,OVC,3900,,,,,,,VFR,,,,,,,,,,,,METAR,34.0
KAPC 171354Z AUTO 20013KT 9SM OVC080 13/11 A2988 RMK AO2 SLP110 T01330106,KAPC,2019-01-17T13:54:00Z,38.2,-122.28,13.3,10.6,200,13,,9.0,29.878937,1011.0,,TRUE,TRUE,,,,,,,OVC,8000,,,,,,,VFR,,,,,,,,,,,,METAR,13.0
KAPN 171354Z AUTO 36005KT 10SM CLR M19/M22 A3024 RMK AO2 SLP259 T11941217,KAPN,2019-01-17T13:54:00Z,45.07,-83.57,-19.4,-21.7,360,5,,10.0,30.239174,1025.9,,TRUE,TRUE,,,,,,,CLR,,,,,,,,VFR,,,,,,,,,,,,METAR,210.0
KAVL 171354Z 16005KT 3SM BR FEW008 M01/M02 A3021 RMK AO2 SLP240 T10061017,KAVL,2019-01-17T13:54:00Z,35.43,-82.53,-0.6,-1.7,160,5,,3.0,30.209646,1024.0,,,TRUE,,,,,,BR,FEW,800,,,,,,,MVFR,,,,,,,,,,,,SPECI,670.0
KAUW 171354Z AUTO 15003KT 10SM OVC009 M09/M12 A3007 RMK AO2 SLP209 T10891117,KAUW,2019-01-17T13:54:00Z,44.93,-89.62,-8.9,-11.7,150,3,,10.0,30.070866,1020.9,,TRUE,TRUE,,,,,,,OVC,900,,,,,,,IFR,,,,,,,,,,,,METAR,362.0
KAVP 171354Z 04005KT 10SM CLR M08/M13 A3035 RMK AO2 SLP288 T10781133,KAVP,2019-01-17T13:54:00Z,41.33,-75.72,-7.8,-13.3,40,5,,10.0,30.351377,1028.8,,,TRUE,,,,,,,CLR,,,,,,,,VFR,,,,,,,,,,,,METAR,291.0
KBWI 171354Z 06009KT 10SM BKN042 BKN160 OVC200 01/M07 A3036 RMK AO2 SLP282 T00111072 $,KBWI,2019-01-17T13:54:00Z,39.17,-76.68,1.1,-7.2,60,9,,10.0,30.360237,1028.2,,,TRUE,TRUE,,,,,,BKN,4200,BKN,16000,OVC,20000,,,VFR,,,,,,,,,,,,METAR,59.0
KBUF 171354Z 10006KT 10SM FEW029 BKN160 BKN280 M12/M14 A3033 RMK AO2 SLP287 T11221144,KBUF,2019-01-17T13:54:00Z,42.93,-78.73,-12.2,-14.4,100,6,,10.0,30.33071,1028.7,,,TRUE,,,,,,,FEW,2900,BKN,16000,BKN,28000,,,VFR,,,,,,,,,,,,METAR,211.0
KBTV 171354Z 00000KT 10SM CLR M17/M21 A3045 RMK AO2 SLP318 T11671211,KBTV,2019-01-17T13:54:00Z,44.47,-73.15,-16.7,-21.1,0,0,,10.0,30.448818,1031.8,,,TRUE,,,,,,,CLR,,,,,,,,VFR,,,,,,,,,,,,METAR,105.0
KBOS 171354Z 30011KT 10SM FEW200 FEW250 M07/M20 A3040 RMK AO2 SLP294 T10721200,KBOS,2019-01-17T13:54:00Z,42.37,-71.02,-7.2,-20.0,300,11,,10.0,30.398623,1029.4,,,TRUE,,,,,,,FEW,20000,FEW,25000,,,,,VFR,,,,,,,,,,,,SPECI,6.0
KHWD 171354Z AUTO 20008KT 10SM FEW050 FEW070 OVC085 15/09 A2991 RMK AO2 SLP139 T01500094,KHWD,2019-01-17T13:54:00Z,37.67,-122.12,15.0,9.4,200,8,,10.0,29.911417,1013.9,,TRUE,TRUE,,,,,,,FEW,5000,FEW,7000,OVC,8500,,,VFR,,,,,,,,,,,,METAR,21.0
KCAR 171354Z AUTO 25003KT 10SM CLR M21/M26 A3024 RMK AO2 SLP261 T12111261,KCAR,2019-01-17T13:54:00Z,46.87,-68.02,-21.1,-26.1,250,3,,10.0,30.239174,1026.1,,TRUE,TRUE,,,,,,,CLR,,,,,,,,VFR,,,,,,,,,,,,METAR,191.0
KIND 171354Z 14010KT 2SM -RA BR OVC004 01/00 A3006 RMK AO2 DZE25RAB25 SLP184 P0001 T00110000,KIND,2019-01-17T13:54:00Z,39.72,-86.3,1.1,0.0,140,10,,2.0,30.059055,1018.4,,,TRUE,,,,,,-RA BR,OVC,400,,,,,,,LIFR,,,,,,0.01,,,,,,METAR,241.0
KIMT 171354Z AUTO 00000KT 9SM OVC028 M18/M21 A3008 RMK AO2 SLP221 T11781206,KIMT,2019-01-17T13:54:00Z,45.82,-88.12,-17.8,-20.6,0,0,,9.0,30.079725,1022.1,,TRUE,TRUE,,,,,,,OVC,2800,,,,,,,MVFR,,,,,,,,,,,,METAR,349.0
KINT 171354Z 03004KT 10SM CLR 01/M03 A3029 RMK AO2 SLP263 T00061028,KINT,2019-01-17T13:54:00Z,36.13,-80.22,0.6,-2.8,30,4,,10.0,30.28937,1026.3,,,TRUE,,,,,,,CLR,,,,,,,,VFR,,,,,,,,,,,,METAR,291.0
KISW 171354Z AUTO 00000KT 10SM OVC013 M06/M10 A3010 RMK AO2 SLP211 T10611100 TSNO,KISW,2019-01-17T13:54:00Z,44.37,-89.83,-6.1,-10.0,0,0,,10.0,30.100393,1021.1,,TRUE,TRUE,,,TRUE,,,,OVC,1300,,,,,,,MVFR,,,,,,,,,,,,METAR,307.0
KIPT 171354Z 08004KT 10SM CLR M06/M12 A3038 RMK AO2 SLP295 T10561117,KIPT,2019-01-17T13:54:00Z,41.25,-76.92,-5.6,-11.7,80,4,,10.0,30.380905,1029.5,,,TRUE,,,,,,,CLR,,,,,,,,VFR,,,,,,,,,,,,METAR,164.0
KIZG 171354Z AUTO 27003KT 10SM CLR M13/M26 A3034 RMK AO2 SLP286 T11331256,KIZG,2019-01-17T13:54:00Z,43.98,-70.95,-13.3,-25.6,270,3,,10.0,30.339567,1028.6,,TRUE,TRUE,,,,,,,CLR,,,,,,,,VFR,,,,,,,,,,,,METAR,135.0
KJAN 171354Z 17011KT 7SM -RA OVC021 09/07 A3017 RMK AO2 RAE04B16 SLP217 P0000 T00890072 $,KJAN,2019-01-17T13:54:00Z,32.32,-90.08,8.9,7.2,170,11,,7.0,30.171259,1021.7,,,TRUE,TRUE,,,,,-RA,OVC,2100,,,,,,,MVFR,,,,,,0.005,,,,,,METAR,91.0
KJST 171354Z AUTO 00000KT 10SM OVC021 M05/M08 A3019 RMK AO2 SLP254 T10501083,KJST,2019-01-17T13:54:00Z,40.32,-78.83,-5.0,-8.3,0,0,,10.0,30.188976,1025.4,,TRUE,TRUE,,,,,,,OVC,2100,,,,,,,MVFR,,,,,,,,,,,,METAR,694.0
KMVL 171354Z AUTO 00000KT 10SM CLR M22/M24 A3040 RMK AO2 SLP317 T12221239 $,KMVL,2019-01-17T13:54:00Z,44.53,-72.62,-22.2,-23.9,0,0,,10.0,30.398623,1031.7,,TRUE,TRUE,TRUE,,,,,,CLR,,,,,,,,VFR,,,,,,,,,,,,METAR,234.0
PAKN 171354Z AUTO 00000KT 10SM CLR A2956 RMK AO2 SLPNO TSNO $,PAKN,2019-01-17T13:54:00Z,58.68,-156.65,,,0,0,,10.0,29.56004,,,TRUE,TRUE,TRUE,,TRUE,,,,CLR,,,,,,,,VFR,,,,,,,,,,,,METAR,17.0
PAHN 171354Z AUTO 29008KT 10SM FEW050 M04/M06 A2974 RMK AO2 SLP072 T10391061 TSNO,PAHN,2019-01-17T13:54:00Z,59.25,-135.52,-3.9,-6.1,290,8,,10.0,29.740158,1007.2,,TRUE,TRUE,,,TRUE,,,,FEW,5000,,,,,,,VFR,,,,,,,,,,,,SPECI,5.0
KLBT 171354Z AUTO 06005KT 10SM CLR 03/M01 A3030 RMK AO2 SLP261 T00281006,KLBT,2019-01-17T13:54:00Z,34.6,-79.07,2.8,-0.6,60,5,,10.0,30.301182,1026.1,,TRUE,TRUE,,,,,,,CLR,,,,,,,,VFR,,,,,,,,,,,,SPECI,37.0
KCRW 171354Z 04003KT 9SM OVC029 01/00 A3019 RMK AO2 SLP231 T00110000,KCRW,2019-01-17T13:54:00Z,38.38,-81.58,1.1,0.0,40,3,,9.0,30.188976,1023.1,,,TRUE,,,,,,,OVC,2900,,,,,,,MVFR,,,,,,,,,,,,METAR,309.0
KCOU 171354Z 35003KT M1/4SM FG VV002 01/01 A3004 RMK AO2 SLP180 T00060006,KCOU,2019-01-17T13:54:00Z,38.82,-92.22,0.6,0.6,350,3,,0.25,30.041338,1018.0,,,TRUE,,,,,,FG,OVX,0,,,,,,,LIFR,,,,,,,,,,,200,METAR,271.0
KCOS 171354Z 00000KT 10SM FEW140 SCT250 01/M09 A3008 RMK AO2 SLP198 T00061094,KCOS,2019-01-17T13:54:00Z,38.82,-104.68,0.6,-9.4,0,0,,10.0,30.079725,1019.8,,,TRUE,,,,,,,FEW,14000,SCT,25000,,,,,VFR,,,,,,,,,,,,METAR,1856.0
KDEC 171354Z 07003KT 5SM BR OVC003 01/00 A3003 RMK AO2 UPE16RAB1255E13 SLP177 P0000 T00060000,KDEC,2019-01-17T13:54:00Z,39.83,-88.85,0.6,0.0,70,3,,5.0,30.029528,1017.7,,,TRUE,,,,,,BR,OVC,300,,,,,,,LIFR,,,,,,0.005,,,,,,METAR,207.0
KDDH 171354Z AUTO 00000KT 10SM CLR M13/M18 A3038 RMK AO2 SLP303 T11331183,KDDH,2019-01-17T13:54:00Z,42.9,-73.25,-13.3,-18.3,0,0,,10.0,30.380905,1030.3,,TRUE,TRUE,,,,,,,CLR,,,,,,,,VFR,,,,,,,,,,,,METAR,244.0
KCEU 171354Z AUTO 09007KT 10SM CLR 02/00 A3026 RMK AO2 SLP250 T00220000,KCEU,2019-01-17T13:54:00Z,34.67,-82.88,2.2,0.0,90,7,,10.0,30.259842,1025.0,,TRUE,TRUE,,,,,,,CLR,,,,,,,,VFR,,,,,,,,,,,,METAR,268.0
KRBL 171354Z AUTO 16013KT 10SM FEW070 BKN110 11/08 A2976 RMK AO2 RAB1258E24 SLP077 P0000 T01110078 $,KRBL,2019-01-17T13:54:00Z,40.15,-122.25,11.1,7.8,160,13,,10.0,29.760826,1007.7,,TRUE,TRUE,TRUE,,,,,,FEW,7000,BKN,11000,,,,,VFR,,,,,,0.005,,,,,,METAR,104.0
KPTW 171354Z AUTO 03004KT 9SM CLR M05/M12 A3041 RMK AO2 SLP299 T10501117 TSNO,KPTW,2019-01-17T13:54:00Z,40.23,-75.55,-5.0,-11.7,30,4,,9.0,30.410433,1029.9,,TRUE,TRUE,,,TRUE,,,,CLR,,,,,,,,VFR,,,,,,,,,,,,METAR,92.0
KPSF 171354Z AUTO 23005KT 10SM CLR M13/M19 A3033 RMK AO2 SLP295 T11281194,KPSF,2019-01-17T13:54:00Z,42.43,-73.28,-12.8,-19.4,230,5,,10.0,30.33071,1029.5,,TRUE,TRUE,,,,,,,CLR,,,,,,,,VFR,,,,,,,,,,,,METAR,355.0
KPNE 171354Z 03007KT 10SM CLR M02/M13 A3042 RMK AO2 SLP303 T10221128,KPNE,2019-01-17T13:54:00Z,40.08,-75.02,-2.2,-12.8,30,7,,10.0,30.41929,1030.3,,,TRUE,,,,,,,CLR,,,,,,,,VFR,,,,,,,,,,,,METAR,28.0
KPIA 171354Z 02003KT 5SM BR OVC005 M01/M02 A3007 RMK AO2 SLP189 T10061017,KPIA,2019-01-17T13:54:00Z,40.67,-89.68,-0.6,-1.7,20,3,,5.0,30.070866,1018.9,,,TRUE,,,,,,BR,OVC,500,,,,,,,IFR,,,,,,,,,,,,METAR,205.0
KPHL 171354Z 01009KT 10SM FEW130 BKN160 BKN190 M02/M12 A3041 RMK AO2 SLP298 T10171117,KPHL,2019-01-17T13:54:00Z,39.87,-75.23,-1.7,-11.7,10,9,,10.0,30.410433,1029.8,,,TRUE,,,,,,,FEW,13000,BKN,16000,BKN,19000,,,VFR,,,,,,,,,,,,SPECI,18.0
KPHF 171354Z 08009KT 10SM OVC042 04/M02 A3036 RMK AO2 SLP280 T00441022,KPHF,2019-01-17T13:54:00Z,37.13,-76.5,4.4,-2.2,80,9,,10.0,30.360237,1028.0,,,TRUE,,,,,,,OVC,4200,,,,,,,VFR,,,,,,,,,,,,METAR,12.0
KORH 171354Z 30008KT 10SM CLR M11/M18 A3032 RMK AO2 SLP285 T11061183,KORH,2019-01-17T13:54:00Z,42.27,-71.87,-10.6,-18.3,300,8,,10.0,30.318897,1028.5,,,TRUE,,,,,,,CLR,,,,,,,,VFR,,,,,,,,,,,,METAR,304.0
KOLS 171354Z AUTO 00000KT 10SM CLR 02/00 A3020 RMK AO2 SLP210 T00170000,KOLS,2019-01-17T13:54:00Z,31.42,-110.85,1.7,0.0,0,0,,10.0,30.200787,1021.0,,TRUE,TRUE,,,,,,,CLR,,,,,,,,VFR,,,,,,,,,,,,METAR,1184.0
KOFP 171354Z AUTO 00000KT 5SM BR OVC040 02/00 A3036 RMK AO2 SLP283 T00220000,KOFP,2019-01-17T13:54:00Z,37.7,-77.43,2.2,0.0,0,0,,5.0,30.360237,1028.3,,TRUE,TRUE,,,,,,BR,OVC,4000,,,,,,,MVFR,,,,,,,,,,,,SPECI,62.0
KEWN 171354Z 04005KT 5SM BR CLR 03/02 A3034 RMK AO2 SLP272 T00330022,KEWN,2019-01-17T13:54:00Z,35.07,-77.05,3.3,2.2,40,5,,5.0,30.339567,1027.2,,,TRUE,,,,,,BR,CLR,,,,,,,,MVFR,,,,,,,,,,,,METAR,3.0
KFIG 171354Z AUTO 02004KT 10SM CLR M09/M11 A3027 RMK AO2 SLP273 T10891106,KFIG,2019-01-17T13:54:00Z,41.05,-78.42,-8.9,-10.6,20,4,,10.0,30.268702,1027.3,,TRUE,TRUE,,,,,,,CLR,,,,,,,,VFR,,,,,,,,,,,,METAR,462.0
KFFZ 171354Z 06003KT 10SM CLR 10/06 A3016 RMK AO2 SLP203 T01000061,KFFZ,2019-01-17T13:54:00Z,33.47,-111.72,10.0,6.1,60,3,,10.0,30.159449,1020.3,,,TRUE,,,,,,,CLR,,,,,,,,VFR,,,,,,,,,,,,METAR,424.0
KGCK 171354Z 29009KT 10SM CLR M03/M04 A3009 RMK AO2 SLP215 T10331039,KGCK,2019-01-17T13:54:00Z,37.92,-100.72,-3.3,-3.9,290,9,,10.0,30.088583,1021.5,,,TRUE,,,,,,,CLR,,,,,,,,VFR,,,,,,,,,,,,METAR,877.0
KFZY 171354Z AUTO 00000KT 10SM CLR M14/M21 A3041 RMK AO2 SLP307 T11441211,KFZY,2019-01-17T13:54:00Z,43.35,-76.38,-14.4,-21.1,0,0,,10.0,30.410433,1030.7,,TRUE,TRUE,,,,,,,CLR,,,,,,,,VFR,,,,,,,,,,,,METAR,138.0
KGED 171354Z AUTO 04004KT 10SM CLR 02/M04 A3038 RMK AO2 SLP289 T00221039,KGED,2019-01-17T13:54:00Z,38.68,-75.37,2.2,-3.9,40,4,,10.0,30.380905,1028.9,,TRUE,TRUE,,,,,,,CLR,,,,,,,,VFR,,,,,,,,,,,,METAR,19.0
KGCN 171354Z 06004KT 10SM CLR M07/M09 A3021 RMK AO2 SLP248 I1000 T10721089,KGCN,2019-01-17T13:54:00Z,35.95,-112.15,-7.2,-8.9,60,4,,10.0,30.209646,1024.8,,,TRUE,,,,,,,CLR,,,,,,,,VFR,,,,,,,,,,,,METAR,2016.0
KGSO 171354Z 07005KT 10SM OVC200 00/M02 A3027 RMK AO2 SLP256 T00001022,KGSO,2019-01-17T13:54:00Z,36.1,-79.95,0.0,-2.2,70,5,,10.0,30.268702,1025.6,,,TRUE,,,,,,,OVC,20000,,,,,,,VFR,,,,,,,,,,,,METAR,275.0
KRDG 171354Z 06004KT 10SM CLR M04/M11 A3039 RMK AO2 SLP300 T10391111,KRDG,2019-01-17T13:54:00Z,40.37,-75.97,-3.9,-11.1,60,4,,10.0,30.389763,1030.0,,,TRUE,,,,,,,CLR,,,,,,,,VFR,,,,,,,,,,,,METAR,109.0
KROC 171354Z 19004KT 10SM FEW030 FEW070 SCT150 BKN250 M11/M12 A3038 RMK AO2 SLP301 T11061122 $,KROC,2019-01-17T13:54:00Z,43.12,-77.68,-10.6,-12.2,190,4,,10.0,30.380905,1030.1,,,TRUE,TRUE,,,,,,FEW,3000,FEW,7000,SCT,15000,BKN,25000,VFR,,,,,,,,,,,,METAR,178.0
KRIC 171354Z 00000KT 10SM OVC041 02/M01 A3035 RMK AO2 SLP284 T00221006,KRIC,2019-01-17T13:54:00Z,37.52,-77.32,2.2,-0.6,0,0,,10.0,30.351377,1028.4,,,TRUE,,,,,,,OVC,4100,,,,,,,VFR,,,,,,,,,,,,METAR,50.0
KSBN 171354Z 11007KT 5SM BR OVC008 M03/M04 A3010 RMK AO2 SLP206 T10331044,KSBN,2019-01-17T13:54:00Z,41.7,-86.32,-3.3,-4.4,110,7,,5.0,30.100393,1020.6,,,TRUE,,,,,,BR,OVC,800,,,,,,,IFR,,,,,,,,,,,,METAR,237.0
KSBY 171354Z 00000KT 10SM CLR M01/M02 A3037 RMK AO2 SLP287 T10061017,KSBY,2019-01-17T13:54:00Z,38.33,-75.5,-0.6,-1.7,0,0,,10.0,30.369095,1028.7,,,TRUE,,,,,,,CLR,,,,,,,,VFR,,,,,,,,,,,,METAR,19.0
KSJN 171354Z AUTO 18003KT 10SM CLR M02/M07 A3022 RMK AO2 SLP224 T10221072,KSJN,2019-01-17T13:54:00Z,34.52,-109.38,-2.2,-7.2,180,3,,10.0,30.221457,1022.4,,TRUE,TRUE,,,,,,,CLR,,,,,,,,VFR,,,,,,,,,,,,METAR,1745.0
KSLC 171354Z 16019G23KT 10SM BKN090 BKN100 BKN150 07/00 A2995 RMK AO2 SLP139 T00670000,KSLC,2019-01-17T13:54:00Z,40.77,-111.97,6.7,0.0,160,19,23,10.0,29.949802,1013.9,,,TRUE,,,,,,,BKN,9000,BKN,10000,BKN,15000,,,VFR,,,,,,,,,,,,METAR,1286.0
KECG 171354Z 03004KT 10SM CLR 04/01 A3034 RMK AO2 SLP272 T00440006,KECG,2019-01-17T13:54:00Z,36.27,-76.18,4.4,0.6,30,4,,10.0,30.339567,1027.2,,,TRUE,,,,,,,CLR,,,,,,,,VFR,,,,,,,,,,,,METAR,11.0
KTAD 171354Z AUTO 25012KT 10SM CLR 03/M06 A3010 RMK AO2 SLP184 T00281061,KTAD,2019-01-17T13:54:00Z,37.27,-104.33,2.8,-6.1,250,12,,10.0,30.100393,1018.4,,TRUE,TRUE,,,,,,,CLR,,,,,,,,VFR,,,,,,,,,,,,METAR,1756.0
KSYR 171354Z 10006KT 10SM FEW030 FEW150 SCT200 M16/M20 A3042 RMK AO2 SLP306 T11561200,KSYR,2019-01-17T13:54:00Z,43.12,-76.1,-15.6,-20.0,100,6,,10.0,30.41929,1030.6,,,TRUE,,,,,,,FEW,3000,FEW,15000,SCT,20000,,,VFR,,,,,,,,,,,,SPECI,127.0
KMRY 171354Z 17008KT 10SM CLR 15/08 A2996 RMK AO2 SLP155 T01500083 $,KMRY,2019-01-17T13:54:00Z,36.58,-121.85,15.0,8.3,170,8,,10.0,29.958662,1015.5,,,TRUE,TRUE,,,,,,CLR,,,,,,,,VFR,,,,,,,,,,,,METAR,66.0
KMIV 171354Z AUTO 03009KT 10SM CLR M01/M08 A3039 RMK AO2 SLP289 T10111083 TSNO,KMIV,2019-01-17T13:54:00Z,39.37,-75.08,-1.1,-8.3,30,9,,10.0,30.389763,1028.9,,TRUE,TRUE,,,TRUE,,,,CLR,,,,,,,,VFR,,,,,,,,,,,,METAR,23.0
KMGJ 171354Z AUTO 09005KT 10SM CLR M07/M13 A3039 RMK AO2 SLP296 T10671133,KMGJ,2019-01-17T13:54:00Z,41.52,-74.27,-6.7,-13.3,90,5,,10.0,30.389763,1029.6,,TRUE,TRUE,,,,,,,CLR,,,,,,,,VFR,,,,,,,,,,,,METAR,108.0
KLYH 171354Z 13004KT 10SM OVC032 01/M01 A3031 RMK AO2 SLP269 T00111011,KLYH,2019-01-17T13:54:00Z,37.32,-79.2,1.1,-1.1,130,4,,10.0,30.31004,1026.9,,,TRUE,,,,,,,OVC,3200,,,,,,,VFR,,,,,,,,,,,,METAR,295.0
KLWM 171354Z 30007KT 10SM CLR M10/M20 A3041 RMK AO2 SLP298 T11001200,KLWM,2019-01-17T13:54:00Z,42.72,-71.13,-10.0,-20.0,300,7,,10.0,30.410433,1029.8,,,TRUE,,,,,,,CLR,,,,,,,,VFR,,,,,,,,,,,,METAR,54.0
KLNK 171354Z 00000KT 8SM OVC048 M04/M06 A3011 RMK AO2 SLP212 T10391061,KLNK,2019-01-17T13:54:00Z,40.85,-96.77,-3.9,-6.1,0,0,,8.0,30.109253,1021.2,,,TRUE,,,,,,,OVC,4800,,,,,,,VFR,,,,,,,,,,,,METAR,364.0
KLEX 171354Z 14009KT 8SM OVC035 03/01 A3012 RMK AO2 RAB32E43 SLP204 P0000 T00330011,KLEX,2019-01-17T13:54:00Z,38.03,-84.6,3.3,1.1,140,9,,8.0,30.121063,1020.4,,,TRUE,,,,,,,OVC,3500,,,,,,,VFR,,,,,,0.005,,,,,,METAR,300.0
KAKH 171354Z AUTO 03006KT 10SM CLR 03/M02 A3027 RMK AO2 SLP257 T00281022,KAKH,2019-01-17T13:54:00Z,35.2,-81.15,2.8,-2.2,30,6,,10.0,30.268702,1025.7,,TRUE,TRUE,,,,,,,CLR,,,,,,,,VFR,,,,,,,,,,,,METAR,243.0
KACY 171354Z 02008KT 10SM CLR M02/M09 A3040 RMK AO2 SLP293 T10221089,KACY,2019-01-17T13:54:00Z,39.45,-74.57,-2.2,-8.9,20,8,,10.0,30.398623,1029.3,,,TRUE,,,,,,,CLR,,,,,,,,VFR,,,,,,,,,,,,SPECI,23.0
KSUS 171354Z 00000KT 1/4SM R08R/2400V4000FT FG OVC003 01/01 A3004 RMK AO2 SLP179 T00110011,KSUS,2019-01-17T13:54:00Z,38.65,-90.65,1.1,1.1,0,0,,0.25,30.041338,1017.9,,,TRUE,,,,,,FG,OVC,300,,,,,,,LIFR,,,,,,,,,,,,METAR,141.0
KVSF 171354Z AUTO 07005KT 10SM CLR M15/M19 A3040 RMK AO2 SLP308 T11501194,KVSF,2019-01-17T13:54:00Z,43.35,-72.52,-15.0,-19.4,70,5,,10.0,30.398623,1030.8,,TRUE,TRUE,,,,,,,CLR,,,,,,,,VFR,,,,,,,,,,,,METAR,175.0
KVAY 171354Z AUTO 36007KT 10SM CLR M02/M12 A3041 RMK AO2 SLP297 T10171117,KVAY,2019-01-17T13:54:00Z,39.93,-74.83,-1.7,-11.7,360,7,,10.0,30.410433,1029.7,,TRUE,TRUE,,,,,,,CLR,,,,,,,,VFR,,,,,,,,,,,,METAR,15.0
KUZA 171354Z AUTO 04003KT 10SM CLR 02/M01 A3028 RMK AO2 SLP260 T00171011,KUZA,2019-01-17T13:54:00Z,34.98,-81.05,1.7,-1.1,40,3,,10.0,30.280512,1026.0,,TRUE,TRUE,,,,,,,CLR,,,,,,,,VFR,,,,,,,,,,,,METAR,202.0
PGSN 171354Z COR 08013KT 10SM SCT015 SCT021 25/23 A2986 RMK AO2 SLPNO 403060250 $,PGSN,2019-01-17T13:54:00Z,15.12,145.72,25.0,23.0,80,13,,10.0,29.861221,,TRUE,,TRUE,TRUE,,,,,,SCT,1500,SCT,2100,,,,,VFR,,,,30.6,25.0,,,,,,,METAR,65.0
PHOG 171354Z AUTO 22009KT 10SM CLR 24/16 A2991 RMK AO2 SLP133 T02390161 TSNO,PHOG,2019-01-17T13:54:00Z,20.9,-156.43,23.9,16.1,220,9,,10.0,29.911417,1013.3,,TRUE,TRUE,,,TRUE,,,,CLR,,,,,,,,VFR,,,,,,,,,,,,METAR,12.0
PHMK 171354Z AUTO 18010KT 10SM OVC055 23/14 A2993 RMK AO2 SLP136 T02330139 TSNO $,PHMK,2019-01-17T13:54:00Z,21.15,-157.1,23.3,13.9,180,10,,10.0,29.929134,1013.6,,TRUE,TRUE,TRUE,,TRUE,,,,OVC,5500,,,,,,,VFR,,,,,,,,,,,,METAR,141.0
KWLD 171354Z AUTO 33011KT 7SM OVC005 02/02 A3013 RMK AO2 SLP209 T00170017,KWLD,2019-01-17T13:54:00Z,37.17,-97.03,1.7,1.7,330,11,,7.0,30.129921,1020.9,,TRUE,TRUE,,,,,,,OVC,500,,,,,,,IFR,,,,,,,,,,,,METAR,350.0
KWAL 171354Z AUTO 00000KT 10SM CLR 02/M02 A3038 RMK AO2 SLP283 T00171022,KWAL,2019-01-17T13:54:00Z,37.93,-75.47,1.7,-2.2,0,0,,10.0,30.380905,1028.3,,TRUE,TRUE,,,,,,,CLR,,,,,,,,VFR,,,,,,,,,,,,METAR,14.0
KVTA 171354Z AUTO 05005KT 8SM OVC026 00/M03 A3018 RMK AO2 SLP226 T00001028,KVTA,2019-01-17T13:54:00Z,40.02,-82.47,0.0,-2.8,50,5,,8.0,30.180119,1022.6,,TRUE,TRUE,,,,,,,OVC,2600,,,,,,,MVFR,,,,,,,,,,,,METAR,268.0
KAAO 171354Z AUTO 32008KT 7SM OVC005 00/00 A3012 RMK AO2 SLP209 T00000000,KAAO,2019-01-17T13:54:00Z,37.75,-97.22,0.0,0.0,320,8,,7.0,30.121063,1020.9,,TRUE,TRUE,,,,,,,OVC,500,,,,,,,IFR,,,,,,,,,,,,METAR,434.0
KBKB 171354Z AUTO 00000KT 6SM BR OVC003 13/13 A3011 RMK AO2 RAB00E09 SLP225 P0000 T01330128,KBKB,2019-01-17T13:54:00Z,31.0,-92.92,13.3,12.8,0,0,,6.0,30.109253,1022.5,,TRUE,TRUE,,,,,,BR,OVC,300,,,,,,,LIFR,,,,,,0.005,,,,,,METAR,94.0
KRKS 171354Z AUTO 00000KT 10SM FEW120 M04/M07 A2999 RMK AO2 SLP182 T10391072,KRKS,2019-01-17T13:54:00Z,41.6,-109.07,-3.9,-7.2,0,0,,10.0,29.991142,1018.2,,TRUE,TRUE,,,,,,,FEW,12000,,,,,,,VFR,,,,,,,,,,,,SPECI,2060.0
KDYL 171354Z AUTO 02007KT 10SM CLR M04/M15 A3038 RMK AO2 SLP297 T10391150,KDYL,2019-01-17T13:54:00Z,40.33,-75.12,-3.9,-15.0,20,7,,10.0,30.380905,1029.7,,TRUE,TRUE,,,,,,,CLR,,,,,,,,VFR,,,,,,,,,,,,METAR,117.0
KDSV 171354Z AUTO 17006KT 10SM CLR M11/M14 A3036 RMK AO2 SLP301 T11061144,KDSV,2019-01-17T13:54:00Z,42.57,-77.72,-10.6,-14.4,170,6,,10.0,30.360237,1030.1,,TRUE,TRUE,,,,,,,CLR,,,,,,,,VFR,,,,,,,,,,,,METAR,198.0
KMWN 171354Z 30052KT 130SM FEW140 M24/M32 RMK,KMWN,2019-01-17T13:54:00Z,44.27,-71.3,-24.0,-32.0,300,52,,30.0,,,,,,,,,,,,FEW,14000,,,,,,,VFR,,,,,,,,,,,,METAR,1910.0
KNAK 171354Z AUTO 04005KT 10SM BKN048 03/M06 A3037 RMK AO2 SLP286 T00331056,KNAK,2019-01-17T13:54:00Z,38.98,-76.48,3.3,-5.6,40,5,,10.0,30.369095,1028.6,,TRUE,TRUE,,,,,,,BKN,4800,,,,,,,VFR,,,,,,,,,,,,SPECI,2.0
K1V4 171354Z AUTO M21/M24 A3039 RMK AO1 SLP317 T12061239,K1V4,2019-01-17T13:54:00Z,44.42,-72.02,-20.6,-23.9,,,,,30.389763,1031.7,,TRUE,TRUE,,,,,,,,,,,,,,,,,,,,,,,,,,,SPECI,210.0
KPLN 171354Z AUTO 15005KT 10SM SCT026 M11/M14 A3022 RMK AO2 SLP248 T11111139,KPLN,2019-01-17T13:54:00Z,45.57,-84.8,-11.1,-13.9,150,5,,10.0,30.221457,1024.8,,TRUE,TRUE,,,,,,,SCT,2600,,,,,,,VFR,,,,,,,,,,,,SPECI,217.0
PTKK 171354Z VRB05KT 15SM FEW014 SCT120 OVC280 28/26 A2976 RMK SLP079 T02780255,PTKK,2019-01-17T13:54:00Z,7.47,151.85,27.8,25.5,0,5,,15.0,29.760826,1007.9,,,,,,,,,,FEW,1400,SCT,12000,OVC,28000,,,VFR,,,,,,,,,,,,METAR,2.0
KLVK 171353Z AUTO 00000KT 9SM BKN039 BKN046 13/08 A2990 RMK AO2 SLP123 T01280078,KLVK,2019-01-17T13:53:00Z,37.7,-121.82,12.8,7.8,0,0,,9.0,29.899607,1012.3,,TRUE,TRUE,,,,,,,BKN,3900,BKN,4600,,,,,VFR,,,,,,,,,,,,SPECI,117.0
KSBM 171353Z AUTO 00000KT 10SM BKN038 OVC100 M07/M09 A3013 RMK AO2 SLP215 T10671089,KSBM,2019-01-17T13:53:00Z,43.78,-87.85,-6.7,-8.9,0,0,,10.0,30.129921,1021.5,,TRUE,TRUE,,,,,,,BKN,3800,OVC,10000,,,,,VFR,,,,,,,,,,,,METAR,232.0
KTPA 171353Z 36005KT 10SM FEW230 10/06 A3027 RMK AO2 SLP251 T01000056,KTPA,2019-01-17T13:53:00Z,27.97,-82.53,10.0,5.6,360,5,,10.0,30.268702,1025.1,,,TRUE,,,,,,,FEW,23000,,,,,,,VFR,,,,,,,,,,,,METAR,11.0
KSEA 171353Z 00000KT 10SM FEW070 OVC140 09/02 A2946 RMK AO2 SLP981 T00890017,KSEA,2019-01-17T13:53:00Z,47.45,-122.32,8.9,1.7,0,0,,10.0,29.459646,998.1,,,TRUE,,,,,,,FEW,7000,OVC,14000,,,,,VFR,,,,,,,,,,,,METAR,136.0
KSDL 171353Z 00000KT 10SM CLR 07/06 A3016 RMK AO2 SLP206 T00720056,KSDL,2019-01-17T13:53:00Z,33.62,-111.92,7.2,5.6,0,0,,10.0,30.159449,1020.6,,,TRUE,,,,,,,CLR,,,,,,,,VFR,,,,,,,,,,,,SPECI,447.0
KSHR 171353Z AUTO 21003KT 10SM FEW095 OVC120 M06/M08 A2991 RMK AO2 SLP175 T10611078,KSHR,2019-01-17T13:53:00Z,44.77,-106.97,-6.1,-7.8,210,3,,10.0,29.911417,1017.5,,TRUE,TRUE,,,,,,,FEW,9500,OVC,12000,,,,,VFR,,,,,,,,,,,,SPECI,1202.0
KSHN 171353Z AUTO 36006KT 10SM OVC080 07/04 A2943 RMK AO2 SLP967 T00670044,KSHN,2019-01-17T13:53:00Z,47.23,-123.13,6.7,4.4,360,6,,10.0,29.430119,996.7,,TRUE,TRUE,,,,,,,OVC,8000,,,,,,,VFR,,,,,,,,,,,,SPECI,82.0
KSGR 171353Z 24011KT 10SM OVC008 16/14 A3015 RMK AO2 SLP212 T01610139,KSGR,2019-01-17T13:53:00Z,29.62,-95.65,16.1,13.9,240,11,,10.0,30.15059,1021.2,,,TRUE,,,,,,,OVC,800,,,,,,,IFR,,,,,,,,,,,,SPECI,2.0
KSFF 171353Z 09003KT 6SM HZ BKN015 BKN024 OVC032 01/M02 A2965 RMK AO2 SLP056 T00061022,KSFF,2019-01-17T13:53:00Z,47.68,-117.32,0.6,-2.2,90,3,,6.0,29.648623,1005.6,,,TRUE,,,,,,HZ,BKN,1500,BKN,2400,OVC,3200,,,MVFR,,,,,,,,,,,,SPECI,609.0
KSFB 171353Z 34007KT 10SM CLR 12/09 A3026 RMK AO2 SLP246 T01170089,KSFB,2019-01-17T13:53:00Z,28.77,-81.22,11.7,8.9,340,7,,10.0,30.259842,1024.6,,,TRUE,,,,,,,CLR,,,,,,,,VFR,,,,,,,,,,,,METAR,17.0
KSEG 171353Z AUTO 00000KT 10SM CLR M04/M11 A3039 RMK AO2 SLP297 T10441111,KSEG,2019-01-17T13:53:00Z,40.82,-76.87,-4.4,-11.1,0,0,,10.0,30.389763,1029.7,,TRUE,TRUE,,,,,,,CLR,,,,,,,,VFR,,,,,,,,,,,,METAR,134.0
KSJC 171353Z 20011KT 9SM FEW012 SCT034 BKN100 14/09 A2993 RMK AO2 SLP133 T01440089,KSJC,2019-01-17T13:53:00Z,37.37,-121.92,14.4,8.9,200,11,,9.0,29.929134,1013.3,,,TRUE,,,,,,,FEW,1200,SCT,3400,BKN,10000,,,VFR,,,,,,,,,,,,SPECI,24.0
KUNV 171353Z 00000KT 10SM SCT100 M06/M10 A3030,KUNV,2019-01-17T13:53:00Z,40.85,-77.83,-6.0,-10.0,0,0,,10.0,30.301182,,,,,,,,,,,SCT,10000,,,,,,,VFR,,,,,,,,,,,,METAR,378.0
KTRI 171353Z 00000KT 10SM SCT030 BKN060 BKN120 00/M02 A3019 RMK AO2 SLP223 T00001017,KTRI,2019-01-17T13:53:00Z,36.48,-82.4,0.0,-1.7,0,0,,10.0,30.188976,1022.3,,,TRUE,,,,,,,SCT,3000,BKN,6000,BKN,12000,,,VFR,,,,,,,,,,,,METAR,474.0
KTUS 171353Z 13006KT 10SM CLR 06/04 A3020 RMK AO2 SLP211 T00610039 $,KTUS,2019-01-17T13:53:00Z,32.13,-110.95,6.1,3.9,130,6,,10.0,30.200787,1021.1,,,TRUE,TRUE,,,,,,CLR,,,,,,,,VFR,,,,,,,,,,,,METAR,776.0
KTUL 171353Z 35014KT 10SM OVC005 07/07 A3007 RMK AO2 SLP183 T00720067 $,KTUL,2019-01-17T13:53:00Z,36.2,-95.88,7.2,6.7,350,14,,10.0,30.070866,1018.3,,,TRUE,TRUE,,,,,,OVC,500,,,,,,,IFR,,,,,,,,,,,,METAR,207.0
KTTN 171353Z 03008KT 10SM CLR M03/M14 A3040 RMK AO2 SLP289 T10281139,KTTN,2019-01-17T13:53:00Z,40.28,-74.82,-2.8,-13.9,30,8,,10.0,30.398623,1028.9,,,TRUE,,,,,,,CLR,,,,,,,,VFR,,,,,,,,,,,,SPECI,59.0
KTTD 171353Z AUTO 09019G29KT 10SM BKN070 OVC085 05/01 A2947 RMK AO2 PK WND 09030/1343 SLP980 T00500006,KTTD,2019-01-17T13:53:00Z,45.55,-122.42,5.0,0.6,90,19,29,10.0,29.471457,998.0,,TRUE,TRUE,,,,,,,BKN,7000,OVC,8500,,,,,VFR,,,,,,,,,,,,METAR,14.0
KTRL 171353Z AUTO 22007KT 10SM CLR 12/11 A3007 RMK AO2 SLP181 T01220111 $,KTRL,2019-01-17T13:53:00Z,32.72,-96.27,12.2,11.1,220,7,,10.0,30.070866,1018.1,,TRUE,TRUE,TRUE,,,,,,CLR,,,,,,,,VFR,,,,,,,,,,,,METAR,145.0
KP68 171353Z AUTO VRB05KT 04/01 A2985 RMK AO1 SLP088 T00390011,KP68,2019-01-17T13:53:00Z,39.6,-116.0,3.9,1.1,0,5,,,29.84941,1008.8,,TRUE,TRUE,,,,,,,,,,,,,,,,,,,,,,,,,,,SPECI,1809.0
KCQC 171353Z AUTO 30013KT 10SM CLR M02/M05 A3025 RMK AO2 SLP250 T10221050,KCQC,2019-01-17T13:53:00Z,35.0,-105.67,-2.2,-5.0,300,13,,10.0,30.250984,1025.0,,TRUE,TRUE,,,,,,,CLR,,,,,,,,VFR,,,,,,,,,,,,METAR,2160.0
KSRQ 171353Z 03005KT 10SM CLR 12/07 A3024 RMK AO2 SLP239 T01170067,KSRQ,2019-01-17T13:53:00Z,27.4,-82.57,11.7,6.7,30,5,,10.0,30.239174,1023.9,,,TRUE,,,,,,,CLR,,,,,,,,VFR,,,,,,,,,,,,METAR,18.0
KSLN 171353Z 33006KT 3SM BR OVC007 00/M01 A3012 RMK AO2 CIG 004V008 SLP211 T00001006,KSLN,2019-01-17T13:53:00Z,38.78,-97.65,0.0,-0.6,330,6,,3.0,30.121063,1021.1,,,TRUE,,,,,,BR,OVC,700,,,,,,,IFR,,,,,,,,,,,,METAR,385.0
KDGW 171353Z AUTO 34004KT 10SM CLR M04/M07 A2996 RMK AO2 SLP178 T10441067 $,KDGW,2019-01-17T13:53:00Z,42.8,-105.38,-4.4,-6.7,340,4,,10.0,29.958662,1017.8,,TRUE,TRUE,TRUE,,,,,,CLR,,,,,,,,VFR,,,,,,,,,,,,SPECI,1499.0
KSPW 171353Z AUTO 31004KT 8SM SCT037 OVC048 M06/M08 A3008 RMK AO2 SLP209 T10561078,KSPW,2019-01-17T13:53:00Z,43.17,-95.22,-5.6,-7.8,310,4,,8.0,30.079725,1020.9,,TRUE,TRUE,,,,,,,SCT,3700,OVC,4800,,,,,VFR,,,,,,,,,,,,METAR,403.0
KHIB 171353Z AUTO 00000KT 10SM OVC095 M21/M22 A3007 RMK AO2 SLP228 T12061222,KHIB,2019-01-17T13:53:00Z,47.38,-92.83,-20.6,-22.2,0,0,,10.0,30.070866,1022.8,,TRUE,TRUE,,,,,,,OVC,9500,,,,,,,VFR,,,,,,,,,,,,METAR,412.0
KMFE 171353Z 00000KT 7SM BKN009 OVC022 16/14 A3021 RMK AO2 SLP229 T01610144,KMFE,2019-01-17T13:53:00Z,26.18,-98.25,16.1,14.4,0,0,,7.0,30.209646,1022.9,,,TRUE,,,,,,,BKN,900,OVC,2200,,,,,IFR,,,,,,,,,,,,METAR,38.0
KOVS 171353Z AUTO 00000KT 10SM OVC016 M03/M07 A3011 RMK AO2 SLP206 T10281067,KOVS,2019-01-17T13:53:00Z,43.15,-90.68,-2.8,-6.7,0,0,,10.0,30.109253,1020.6,,TRUE,TRUE,,,,,,,OVC,1600,,,,,,,MVFR,,,,,,,,,,,,METAR,202.0
KBYI 171353Z AUTO VRB04KT 10SM -RA OVC046 04/00 A2982 RMK AO2 RAE02B33 SLP099 P0000 T00390000,KBYI,2019-01-17T13:53:00Z,42.55,-113.77,3.9,0.0,0,4,,10.0,29.819881,1009.9,,TRUE,TRUE,,,,,,-RA,OVC,4600,,,,,,,VFR,,,,,,0.005,,,,,,SPECI,1264.0
KCGI 171353Z 23005KT 9SM OVC004 07/06 A3004 RMK AO2 RAE1257 SLP173 P0000 T00670061,KCGI,2019-01-17T13:53:00Z,37.23,-89.58,6.7,6.1,230,5,,9.0,30.041338,1017.3,,,TRUE,,,,,,,OVC,400,,,,,,,LIFR,,,,,,0.005,,,,,,METAR,102.0
MUCF 171353Z 08005KT 050V110 9999 FEW020 22/19 Q1021,MUCF,2019-01-17T13:53:00Z,22.13,-80.4,22.0,19.0,80,5,,6.21,30.147638,,,,,,,,,,,FEW,2000,,,,,,,VFR,,,,,,,,,,,,METAR,39.0
KOQT 171353Z AUTO 00000KT 8SM OVC050 03/02 A3020 RMK AO2 SLP237 T00330017,KOQT,2019-01-17T13:53:00Z,36.02,-84.23,3.3,1.7,0,0,,8.0,30.200787,1023.7,,TRUE,TRUE,,,,,,,OVC,5000,,,,,,,VFR,,,,,,,,,,,,METAR,277.0
KNIP 171353Z 32004KT 10SM CLR 09/04 A3030 RMK AO2 SLP254 T00940039 $,KNIP,2019-01-17T13:53:00Z,30.22,-81.67,9.4,3.9,320,4,,10.0,30.301182,1025.4,,,TRUE,TRUE,,,,,,CLR,,,,,,,,VFR,,,,,,,,,,,,SPECI,7.0
KP92 171353Z AUTO 12006KT A3018 RMK AO1 SLP221 $,KP92,2019-01-17T13:53:00Z,29.57,-91.53,,,120,6,,,30.180119,1022.1,,TRUE,TRUE,TRUE,,,,,,,,,,,,,,,,,,,,,,,,,,SPECI,1.0
KNUI 171353Z AUTO 00000KT 10SM CLR 01/M02 A3036 RMK AO2 SLP280 T00111017,KNUI,2019-01-17T13:53:00Z,38.15,-76.43,1.1,-1.7,0,0,,10.0,30.360237,1028.0,,TRUE,TRUE,,,,,,,CLR,,,,,,,,VFR,,,,,,,,,,,,METAR,7.0
KSDB 171353Z AUTO 21015G21KT 1/4SM RA FG VV002 10/09 A3007 RMK AO2 SLP156 P0030 T01000094,KSDB,2019-01-17T13:53:00Z,34.75,-118.72,10.0,9.4,210,15,21,0.25,30.070866,1015.6,,TRUE,TRUE,,,,,,RA FG,OVX,0,,,,,,,LIFR,,,,,,0.3,,,,,200,METAR,1377.0
KCWA 171353Z 13003KT 5SM BR OVC013 M08/M09 A3008,KCWA,2019-01-17T13:53:00Z,44.78,-89.67,-8.0,-9.0,130,3,,5.0,30.079725,,,,,,,,,,BR,OVC,1300,,,,,,,MVFR,,,,,,,,,,,,METAR,389.0
KSMF 171353Z 17013KT 10SM FEW030 BKN040 12/09 A2986 RMK AO2 SLP112 T01220094,KSMF,2019-01-17T13:53:00Z,38.7,-121.6,12.2,9.4,170,13,,10.0,29.861221,1011.2,,,TRUE,,,,,,,FEW,3000,BKN,4000,,,,,VFR,,,,,,,,,,,,SPECI,6.0
K6R6 171353Z AUTO 07003KT 04/04 A3020 RMK AO1 SLP220 T00390039 $,K6R6,2019-01-17T13:53:00Z,30.05,-102.22,3.9,3.9,70,3,,,30.200787,1022.0,,TRUE,TRUE,TRUE,,,,,,,,,,,,,,,,,,,,,,,,,,SPECI,701.0
KMWT 171353Z AUTO 00000KT 10SM OVC037 13/11 A3000 RMK AO2 SLP160 T01280111,KMWT,2019-01-17T13:53:00Z,34.55,-93.58,12.8,11.1,0,0,,10.0,30.0,1016.0,,TRUE,TRUE,,,,,,,OVC,3700,,,,,,,VFR,,,,,,,,,,,,SPECI,214.0
KNQX 171353Z 02008KT 10SM FEW030 FEW250 19/14 A3020 RMK AO2 SLP225 T01890144,KNQX,2019-01-17T13:53:00Z,24.57,-81.67,18.9,14.4,20,8,,10.0,30.200787,1022.5,,,TRUE,,,,,,,FEW,3000,FEW,25000,,,,,VFR,,,,,,,,,,,,SPECI,2.0
KTVC 171353Z 18003KT 10SM FEW130 BKN250 M12/M16 A3019 RMK AO2 SLP237 T11171156,KTVC,2019-01-17T13:53:00Z,44.73,-85.57,-11.7,-15.6,180,3,,10.0,30.188976,1023.7,,,TRUE,,,,,,,FEW,13000,BKN,25000,,,,,VFR,,,,,,,,,,,,SPECI,190.0
KTWF 171353Z VRB04KT 10SM -RA BKN050 OVC065 03/01 A2981 RMK AO2 RAB18 SLP088 P0001 T00330011,KTWF,2019-01-17T13:53:00Z,42.48,-114.48,3.3,1.1,0,4,,10.0,29.811024,1008.8,,,TRUE,,,,,,-RA,BKN,5000,OVC,6500,,,,,VFR,,,,,,0.01,,,,,,SPECI,1266.0
KTVR 171353Z AUTO 16006KT 10SM OVC020 10/07 A3015 RMK AO2 SLP218 T01000072,KTVR,2019-01-17T13:53:00Z,32.35,-91.03,10.0,7.2,160,6,,10.0,30.15059,1021.8,,TRUE,TRUE,,,,,,,OVC,2000,,,,,,,MVFR,,,,,,,,,,,,METAR,26.0
KTYR 171353Z 22010KT 10SM OVC009 15/14 A3007 RMK AO2 SLP179 T01500139,KTYR,2019-01-17T13:53:00Z,32.37,-95.4,15.0,13.9,220,10,,10.0,30.070866,1017.9,,,TRUE,,,,,,,OVC,900,,,,,,,IFR,,,,,,,,,,,,SPECI,165.0
KTYS 171353Z 03003KT 6SM BR OVC048 02/01 A3017 RMK AO2 SLP220 T00170011,KTYS,2019-01-17T13:53:00Z,35.82,-83.98,1.7,1.1,30,3,,6.0,30.171259,1022.0,,,TRUE,,,,,,BR,OVC,4800,,,,,,,VFR,,,,,,,,,,,,METAR,302.0
KUAO 171353Z AUTO 05005KT 10SM BKN060 BKN095 OVC120 04/03 A2945 RMK AO2 RAB37E49 SLP973 P0000 T00440028,KUAO,2019-01-17T13:53:00Z,45.25,-122.77,4.4,2.8,50,5,,10.0,29.450787,997.3,,TRUE,TRUE,,,,,,,BKN,6000,BKN,9500,OVC,12000,,,VFR,,,,,,0.005,,,,,,SPECI,59.0
KUIL 171353Z AUTO 08004KT 10SM OVC060 08/M01 A2934 RMK AO2 SLP936 T00781011,KUIL,2019-01-17T13:53:00Z,47.93,-124.55,7.8,-1.1,80,4,,10.0,29.338583,993.6,,TRUE,TRUE,,,,,,,OVC,6000,,,,,,,VFR,,,,,,,,,,,,METAR,54.0
KUUU 171353Z AUTO 33010KT 10SM CLR M05/M19 A3038 RMK AO2 SLP288 T10501189,KUUU,2019-01-17T13:53:00Z,41.53,-71.28,-5.0,-18.9,330,10,,10.0,30.380905,1028.8,,TRUE,TRUE,,,,,,,CLR,,,,,,,,VFR,,,,,,,,,,,,METAR,51.0
KUTS 171353Z AUTO 23009KT 10SM OVC011 15/14 A3012 RMK AO2 SLP199 T01500139,KUTS,2019-01-17T13:53:00Z,30.75,-95.58,15.0,13.9,230,9,,10.0,30.121063,1019.9,,TRUE,TRUE,,,,,,,OVC,1100,,,,,,,MVFR,,,,,,,,,,,,SPECI,104.0
KVLD 171353Z 00000KT 9SM CLR 05/04 A3028 RMK AO2 PRESFR SLP261 T00500044,KVLD,2019-01-17T13:53:00Z,30.78,-83.27,5.0,4.4,0,0,,9.0,30.280512,1026.1,,,TRUE,,,,,,,CLR,,,,,,,,VFR,,,,,,,,,,,,METAR,62.0
KVGT 171353Z 00000KT 10SM OVC050 10/08 A3006 RMK AO2 SLP195 T01000083,KVGT,2019-01-17T13:53:00Z,36.22,-115.2,10.0,8.3,0,0,,10.0,30.059055,1019.5,,,TRUE,,,,,,,OVC,5000,,,,,,,VFR,,,,,,,,,,,,SPECI,671.0
KVIH 171353Z AUTO 00000KT 1/4SM FG VV002 03/02 A3003 RMK AO2 SLP175 T00280022,KVIH,2019-01-17T13:53:00Z,38.13,-91.77,2.8,2.2,0,0,,0.25,30.029528,1017.5,,TRUE,TRUE,,,,,,FG,OVX,0,,,,,,,LIFR,,,,,,,,,,,200,METAR,333.0
KVRB 171353Z 35008KT 10SM CLR 17/13 A3022 RMK AO2 SLP231 T01720128,KVRB,2019-01-17T13:53:00Z,27.65,-80.42,17.2,12.8,350,8,,10.0,30.221457,1023.1,,,TRUE,,,,,,,CLR,,,,,,,,VFR,,,,,,,,,,,,METAR,10.0
KVPC 171353Z AUTO 19003KT 4SM BR BKN049 00/M01 A3025 RMK AO2 SLP245 I1000 T00001006,KVPC,2019-01-17T13:53:00Z,34.13,-84.85,0.0,-0.6,190,3,,4.0,30.250984,1024.5,,TRUE,TRUE,,,,,,BR,BKN,4900,,,,,,,MVFR,,,,,,,,,,,,METAR,222.0
KRIL 171353Z AUTO 10003KT 10SM CLR M04/M05 A3017 RMK AO2 SLP235 T10391050,KRIL,2019-01-17T13:53:00Z,39.53,-107.73,-3.9,-5.0,100,3,,10.0,30.171259,1023.5,,TRUE,TRUE,,,,,,,CLR,,,,,,,,VFR,,,,,,,,,,,,SPECI,1678.0
KPIE 171353Z 03006KT 10SM CLR 12/06 A3027 RMK AO2 SLP250 T01170061,KPIE,2019-01-17T13:53:00Z,27.92,-82.68,11.7,6.1,30,6,,10.0,30.268702,1025.0,,,TRUE,,,,,,,CLR,,,,,,,,VFR,,,,,,,,,,,,METAR,4.0
KYIP 171353Z 09006KT 10SM OVC039 M03/M07 A3020 RMK AO2 SLP235 T10281072,KYIP,2019-01-17T13:53:00Z,42.23,-83.53,-2.8,-7.2,90,6,,10.0,30.200787,1023.5,,,TRUE,,,,,,,OVC,3900,,,,,,,VFR,,,,,,,,,,,,SPECI,215.0
PATK 171353Z AUTO 06003KT 10SM CLR M11/M14 A2972 RMK AO2 SLP070 T11111139 TSNO,PATK,2019-01-17T13:53:00Z,62.3,-150.1,-11.1,-13.9,60,3,,10.0,29.719488,1007.0,,TRUE,TRUE,,,TRUE,,,,CLR,,,,,,,,VFR,,,,,,,,,,,,METAR,109.0
KZZV 171353Z AUTO 07003KT 10SM OVC025 M01/M03 A3022 RMK AO2 SLP241 T10061033,KZZV,2019-01-17T13:53:00Z,39.95,-81.9,-0.6,-3.3,70,3,,10.0,30.221457,1024.1,,TRUE,TRUE,,,,,,,OVC,2500,,,,,,,MVFR,,,,,,,,,,,,SPECI,268.0
KWVI 171353Z AUTO 22010KT 10SM BKN070 BKN090 13/12 A2996 RMK AO2 SLP144 T01330117,KWVI,2019-01-17T13:53:00Z,36.93,-121.78,13.3,11.7,220,10,,10.0,29.958662,1014.4,,TRUE,TRUE,,,,,,,BKN,7000,BKN,9000,,,,,VFR,,,,,,,,,,,,SPECI,43.0
KWST 171353Z AUTO 33006KT 10SM CLR M03/M18 A3040 RMK AO2 SLP293 T10331178,KWST,2019-01-17T13:53:00Z,41.35,-71.8,-3.3,-17.8,330,6,,10.0,30.398623,1029.3,,TRUE,TRUE,,,,,,,CLR,,,,,,,,VFR,,,,,,,,,,,,SPECI,21.0
KWRL 171353Z AUTO 26005KT 10SM SCT120 M09/M11 A2989 RMK AO2 SLP178 T10941106,KWRL,2019-01-17T13:53:00Z,43.97,-107.95,-9.4,-10.6,260,5,,10.0,29.890747,1017.8,,TRUE,TRUE,,,,,,,SCT,12000,,,,,,,VFR,,,,,,,,,,,,SPECI,1271.0
PATO 171353Z AUTO 00000KT 1/2SM FZFG VV002 M01/M03 A2969 RMK AO2 SLP054 I1000 T10111028 TSNO $,PATO,2019-01-17T13:53:00Z,60.78,-148.85,-1.1,-2.8,0,0,,0.5,29.68996,1005.4,,TRUE,TRUE,TRUE,,TRUE,,,FZFG,OVX,0,,,,,,,LIFR,,,,,,,,,,,200,METAR,31.0
PAVL 171353Z AUTO 07009KT 8SM CLR M08/M13 A2980 RMK AO2 SLP090 T10831133 TSNO $,PAVL,2019-01-17T13:53:00Z,67.73,-164.55,-8.3,-13.3,70,9,,8.0,29.799213,1009.0,,TRUE,TRUE,TRUE,,TRUE,,,,CLR,,,,,,,,VFR,,,,,,,,,,,,METAR,3.0
PAYA 171353Z AUTO 00000KT 10SM CLR M04/M05 A2962 RMK AO2 SLP030 I1000 T10391050 TSNO,PAYA,2019-01-17T13:53:00Z,59.52,-139.67,-3.9,-5.0,0,0,,10.0,29.619095,1003.0,,TRUE,TRUE,,,TRUE,,,,CLR,,,,,,,,VFR,,,,,,,,,,,,METAR,11.0
KBTL 171353Z 12009KT 10SM OVC024 M03/M07 A3014 RMK AO2 SLP218 T10331067,KBTL,2019-01-17T13:53:00Z,42.32,-85.23,-3.3,-6.7,120,9,,10.0,30.138779,1021.8,,,TRUE,,,,,,,OVC,2400,,,,,,,MVFR,,,,,,,,,,,,SPECI,290.0
PABI 171353Z AUTO 00000KT 10SM CLR M19/M19 A2982 RMK AO2 SLP148 T11891194 TSNO,PABI,2019-01-17T13:53:00Z,64.0,-145.72,-18.9,-19.4,0,0,,10.0,29.819881,1014.8,,TRUE,TRUE,,,TRUE,,,,CLR,,,,,,,,VFR,,,,,,,,,,,,METAR,386.0
PHJR 171353Z AUTO 23012KT 10SM FEW049 OVC065 25/15 A2991 RMK AO2 SLP135 T02500150 TSNO,PHJR,2019-01-17T13:53:00Z,21.32,-158.07,25.0,15.0,230,12,,10.0,29.911417,1013.5,,TRUE,TRUE,,,TRUE,,,,FEW,4900,OVC,6500,,,,,VFR,,,,,,,,,,,,METAR,15.0
PHNL 171353Z 21016G22KT 10SM FEW025 SCT040 BKN070 26/16 A2990 RMK AO2 SLP124 T02560161,PHNL,2019-01-17T13:53:00Z,21.33,-157.92,25.6,16.1,210,16,22,10.0,29.899607,1012.4,,,TRUE,,,,,,,FEW,2500,SCT,4000,BKN,7000,,,VFR,,,,,,,,,,,,METAR,4.0
PAAQ 171353Z AUTO 00000KT 10SM CLR M06/M08 A2969 RMK AO2 SLP058 I1001 T10611078 TSNO,PAAQ,2019-01-17T13:53:00Z,61.6,-149.08,-6.1,-7.8,0,0,,10.0,29.68996,1005.8,,TRUE,TRUE,,,TRUE,,,,CLR,,,,,,,,VFR,,,,,,,,,,,,METAR,73.0
PABE 171353Z 03005KT 10SM OVC038 M07/M08 A2963 RMK AO2 SLP037 T10671078,PABE,2019-01-17T13:53:00Z,60.78,-161.83,-6.7,-7.8,30,5,,10.0,29.630905,1003.7,,,TRUE,,,,,,,OVC,3800,,,,,,,VFR,,,,,,,,,,,,METAR,41.0
PABT 171353Z 07003KT 10SM FEW160 M31/M33 A3000 RMK AO2 SLP192 T13061333 PNO $,PABT,2019-01-17T13:53:00Z,66.92,-151.52,-30.6,-33.3,70,3,,10.0,30.0,1019.2,,,TRUE,TRUE,,,,,,FEW,16000,,,,,,,VFR,,,,,,,,,,,,METAR,195.0
PAWI 171353Z AUTO 09009KT 10SM CLR M22/M24 A2986 RMK AO2 SLP111 I1000 T12171239 TSNO $,PAWI,2019-01-17T13:53:00Z,70.62,-159.85,-21.7,-23.9,90,9,,10.0,29.861221,1011.1,,TRUE,TRUE,TRUE,,TRUE,,,,CLR,,,,,,,,VFR,,,,,,,,,,,,METAR,27.0
PADE 171353Z AUTO 06007KT 10SM CLR M14/ A2975 RMK AO2 SLP073 T1144 TSNO $,PADE,2019-01-17T13:53:00Z,66.07,-162.77,-14.4,,60,7,,10.0,29.749016,1007.3,,TRUE,TRUE,TRUE,,TRUE,,,,CLR,,,,,,,,VFR,,,,,,,,,,,,METAR,5.0
PADQ 171353Z AUTO 05009KT 4SM -RA BR OVC005 05/05 A2959 RMK AO2 SLP021 P0001 T00500050 TSNO,PADQ,2019-01-17T13:53:00Z,57.75,-152.5,5.0,5.0,50,9,,4.0,29.589567,1002.1,,TRUE,TRUE,,,TRUE,,,-RA BR,OVC,500,,,,,,,IFR,,,,,,0.01,,,,,,METAR,34.0
PAEG 171353Z AUTO 00000KT 10SM OVC011 M17/M19 A2996 RMK AO2 SLP169 T11671189 TSNO,PAEG,2019-01-17T13:53:00Z,64.78,-141.15,-16.7,-18.9,0,0,,10.0,29.958662,1016.9,,TRUE,TRUE,,,TRUE,,,,OVC,1100,,,,,,,MVFR,,,,,,,,,,,,METAR,268.0
PAFA 171353Z 00000KT 10SM SCT200 M24/M28 A2989 RMK AO2 SLP140 T12441278 PNO,PAFA,2019-01-17T13:53:00Z,64.8,-147.85,-24.4,-27.8,0,0,,10.0,29.890747,1014.0,,,TRUE,,,,,,,SCT,20000,,,,,,,VFR,,,,,,,,,,,,METAR,132.0
PAGK 171353Z AUTO 01003KT 10SM CLR M24/M26 A2982 RMK AO2 SLP167 T12391261 TSNO,PAGK,2019-01-17T13:53:00Z,62.15,-145.45,-23.9,-26.1,10,3,,10.0,29.819881,1016.7,,TRUE,TRUE,,,TRUE,,,,CLR,,,,,,,,VFR,,,,,,,,,,,,METAR,481.0
PAEN 171353Z AUTO 04006KT 10SM OVC060 M03/M07 A2970 RMK AO2 SLP061 T10331072 TSNO,PAEN,2019-01-17T13:53:00Z,60.57,-151.25,-3.3,-7.2,40,6,,10.0,29.698818,1006.1,,TRUE,TRUE,,,TRUE,,,,OVC,6000,,,,,,,VFR,,,,,,,,,,,,METAR,27.0
PAHO 171353Z 00000KT 10SM CLR 02/00 A2967 RMK AO2 SLP047 T00220000,PAHO,2019-01-17T13:53:00Z,59.63,-151.47,2.2,0.0,0,0,,10.0,29.66929,1004.7,,,TRUE,,,,,,,CLR,,,,,,,,VFR,,,,,,,,,,,,METAR,28.0
PAIL 171353Z AUTO 08006KT 10SM OVC035 06/03 A2966 RMK AO2 SLP046 T00560028 TSNO $,PAIL,2019-01-17T13:53:00Z,59.75,-154.92,5.6,2.8,80,6,,10.0,29.660433,1004.6,,TRUE,TRUE,TRUE,,TRUE,,,,OVC,3500,,,,,,,VFR,,,,,,,,,,,,METAR,49.0
PAJN 171353Z 07006KT 10SM FEW140 M02/M06 A2966 RMK AO2 SLP044 T10221056 $,PAJN,2019-01-17T13:53:00Z,58.35,-134.58,-2.2,-5.6,70,6,,10.0,29.660433,1004.4,,,TRUE,TRUE,,,,,,FEW,14000,,,,,,,VFR,,,,,,,,,,,,METAR,5.0
PAKT 171353Z AUTO 31003KT 10SM CLR 00/M01 A2952 RMK AO2 SLP998 T00001011 TSNO,PAKT,2019-01-17T13:53:00Z,55.35,-131.7,0.0,-1.1,310,3,,10.0,29.518702,999.8,,TRUE,TRUE,,,TRUE,,,,CLR,,,,,,,,VFR,,,,,,,,,,,,METAR,28.0
PAKW 171353Z AUTO 03012G19KT 10SM CLR 03/M02 A2948 RMK AO2 SLP985 T00281017 TSNO,PAKW,2019-01-17T13:53:00Z,55.58,-133.07,2.8,-1.7,30,12,19,10.0,29.480314,998.5,,TRUE,TRUE,,,TRUE,,,,CLR,,,,,,,,VFR,,,,,,,,,,,,METAR,15.0
PALH 171353Z 04004KT 10SM CLR M05/M08 A2971 RMK AO2 SLP062 T10501083,PALH,2019-01-17T13:53:00Z,61.18,-149.97,-5.0,-8.3,40,4,,10.0,29.71063,1006.2,,,TRUE,,,,,,,CLR,,,,,,,,VFR,,,,,,,,,,,,METAR,22.0
PAGY 171353Z AUTO 03021G29KT 10SM CLR 00/M09 A2977 RMK AO2 PK WND 02031/1335 SLP082 T00001094 TSNO,PAGY,2019-01-17T13:53:00Z,59.47,-135.3,0.0,-9.4,30,21,29,10.0,29.769686,1008.2,,TRUE,TRUE,,,TRUE,,,,CLR,,,,,,,,VFR,,,,,,,,,,,,METAR,5.0
PAMR 171353Z 10003KT 10SM FEW090 BKN200 M09/M12 A2970 RMK AO2 SLP060 T10941117,PAMR,2019-01-17T13:53:00Z,61.22,-149.85,-9.4,-11.7,100,3,,10.0,29.698818,1006.0,,,TRUE,,,,,,,FEW,9000,BKN,20000,,,,,VFR,,,,,,,,,,,,METAR,41.0
PANN 171353Z AUTO 00000KT 10SM CLR M22/M24 A2989 RMK AO2 SLP136 T12171239 TSNO,PANN,2019-01-17T13:53:00Z,64.55,-149.08,-21.7,-23.9,0,0,,10.0,29.890747,1013.6,,TRUE,TRUE,,,TRUE,,,,CLR,,,,,,,,VFR,,,,,,,,,,,,METAR,110.0
PANC 171353Z 08005KT 10SM CLR M03/M07 A2970 RMK AO2 SLP058 T10331072,PANC,2019-01-17T13:53:00Z,61.17,-150.0,-3.3,-7.2,80,5,,10.0,29.698818,1005.8,,,TRUE,,,,,,,CLR,,,,,,,,VFR,,,,,,,,,,,,METAR,38.0
PAMC 171353Z AUTO VRB05KT 10SM FEW100 M19/M21 A2984 RMK AO2 SLP118 T11941211 TSNO,PAMC,2019-01-17T13:53:00Z,62.97,-155.62,-19.4,-21.1,0,5,,10.0,29.840551,1011.8,,TRUE,TRUE,,,TRUE,,,,FEW,10000,,,,,,,VFR,,,,,,,,,,,,METAR,103.0
PAOT 171353Z AUTO 10014KT 10SM CLR M11/M16 A2980 RMK AO2 SLP092 T11061156 TSNO,PAOT,2019-01-17T13:53:00Z,66.87,-162.58,-10.6,-15.6,100,14,,10.0,29.799213,1009.2,,TRUE,TRUE,,,TRUE,,,,CLR,,,,,,,,VFR,,,,,,,,,,,,METAR,3.0
PAOR 171353Z 00000KT 1SM BR VV008 M17/M19 A2985 RMK AO2 SLP172 T11721189,PAOR,2019-01-17T13:53:00Z,62.97,-141.93,-17.2,-18.9,0,0,,1.0,29.84941,1017.2,,,TRUE,,,,,,BR,OVX,0,,,,,,,LIFR,,,,,,,,,,,800,METAR,523.0
PAPB 171353Z AUTO 33017G27KT 9SM FEW034 OVC049 M01/M07 A2986 RMK AO2 PK WND 32029/1302 SNB03E48 SLP098 P0000 T10111072 TSNO $,PAPB,2019-01-17T13:53:00Z,56.58,-169.67,-1.1,-7.2,330,17,27,9.0,29.861221,1009.8,,TRUE,TRUE,TRUE,,TRUE,,,,FEW,3400,OVC,4900,,,,,VFR,,,,,,0.005,,,,,,METAR,35.0
PASC 171353Z 08013KT 10SM CLR M23/M26 A2997 RMK AO2 SLP152 T12331256,PASC,2019-01-17T13:53:00Z,70.2,-148.47,-23.3,-25.6,80,13,,10.0,29.970472,1015.2,,,TRUE,,,,,,,CLR,,,,,,,,VFR,,,,,,,,,,,,SPECI,15.0
PASN 171353Z AUTO 31011KT 10SM BKN055 M02/M09 A2986 RMK AO2 SLP112 T10221089 TSNO $,PASN,2019-01-17T13:53:00Z,57.15,-170.22,-2.2,-8.9,310,11,,10.0,29.861221,1011.2,,TRUE,TRUE,TRUE,,TRUE,,,,BKN,5500,,,,,,,VFR,,,,,,,,,,,,METAR,29.0
PASI 171353Z 08004KT 10SM CLR 01/M01 A2955 RMK AO2 SLP007 T00061011 $,PASI,2019-01-17T13:53:00Z,57.07,-135.35,0.6,-1.1,80,4,,10.0,29.551182,1000.7,,,TRUE,TRUE,,,,,,CLR,,,,,,,,VFR,,,,,,,,,,,,METAR,5.0
KAAF 171353Z AUTO 09006KT 10SM CLR 08/04 A3027 RMK AO2 SLP250 T00830039,KAAF,2019-01-17T13:53:00Z,29.73,-85.03,8.3,3.9,90,6,,10.0,30.268702,1025.0,,TRUE,TRUE,,,,,,,CLR,,,,,,,,VFR,,,,,,,,,,,,METAR,5.0
KABR 171353Z AUTO 00000KT 10SM OVC019 M12/M16 A3012 RMK AO2 SLP229 T11221156,KABR,2019-01-17T13:53:00Z,45.45,-98.42,-12.2,-15.6,0,0,,10.0,30.121063,1022.9,,TRUE,TRUE,,,,,,,OVC,1900,,,,,,,MVFR,,,,,,,,,,,,METAR,397.0
KABY 171353Z 00000KT 5SM BR CLR 03/02 A3029 RMK AO2 SLP258 T00330017,KABY,2019-01-17T13:53:00Z,31.53,-84.2,3.3,1.7,0,0,,5.0,30.28937,1025.8,,,TRUE,,,,,,BR,CLR,,,,,,,,MVFR,,,,,,,,,,,,METAR,58.0
KSNA 171353Z 16012KT 3SM -RA BR FEW009 BKN019 OVC032 16/14 A3012 RMK AO2 SFC VIS 4 SLP198 P0004 T01610139,KSNA,2019-01-17T13:53:00Z,33.67,-117.87,16.1,13.9,160,12,,3.0,30.121063,1019.8,,,TRUE,,,,,,-RA BR,FEW,900,BKN,1900,OVC,3200,,,MVFR,,,,,,0.04,,,,,,SPECI,16.0
KAEX 171353Z 15007KT 9SM OVC009 12/11 A3012 RMK AO2 SLP205 T01220111,KAEX,2019-01-17T13:53:00Z,31.33,-92.57,12.2,11.1,150,7,,9.0,30.121063,1020.5,,,TRUE,,,,,,,OVC,900,,,,,,,IFR,,,,,,,,,,,,METAR,27.0
KAGC 171353Z VRB03KT 10SM OVC030 M04/M07 A3023 RMK AO2 SLP256 T10391067,KAGC,2019-01-17T13:53:00Z,40.35,-79.92,-3.9,-6.7,0,3,,10.0,30.230314,1025.6,,,TRUE,,,,,,,OVC,3000,,,,,,,MVFR,,,,,,,,,,,,METAR,389.0
KAIA 171353Z AUTO 14003KT 10SM CLR M09/M10 A2996 RMK AO2 SLP184 I1000 T10891100,KAIA,2019-01-17T13:53:00Z,42.05,-102.8,-8.9,-10.0,140,3,,10.0,29.958662,1018.4,,TRUE,TRUE,,,,,,,CLR,,,,,,,,VFR,,,,,,,,,,,,SPECI,1196.0
KAKO 171353Z AUTO 24007KT 10SM CLR M03/M07 A3001 RMK AO2 SLP193 T10281067,KAKO,2019-01-17T13:53:00Z,40.17,-103.22,-2.8,-6.7,240,7,,10.0,30.008858,1019.3,,TRUE,TRUE,,,,,,,CLR,,,,,,,,VFR,,,,,,,,,,,,SPECI,1421.0
KAMA 171353Z 32008KT 10SM CLR 02/M04 A3013 RMK AO2 SLP194 T00171039,KAMA,2019-01-17T13:53:00Z,35.22,-101.72,1.7,-3.9,320,8,,10.0,30.129921,1019.4,,,TRUE,,,,,,,CLR,,,,,,,,VFR,,,,,,,,,,,,SPECI,1093.0
KBGM 171353Z 00000KT 10SM CLR M12/M14 A3029 RMK AO2 SLP288 T11221139,KBGM,2019-01-17T13:53:00Z,42.22,-75.98,-12.2,-13.9,0,0,,10.0,30.28937,1028.8,,,TRUE,,,,,,,CLR,,,,,,,,VFR,,,,,,,,,,,,SPECI,490.0
KANB 171353Z AUTO 13004KT 8SM SCT040 BKN065 OVC090 02/00 A3023 RMK AO2 SLP246 T00170000,KANB,2019-01-17T13:53:00Z,33.58,-85.85,1.7,0.0,130,4,,8.0,30.230314,1024.6,,TRUE,TRUE,,,,,,,SCT,4000,BKN,6500,OVC,9000,,,VFR,,,,,,,,,,,,METAR,183.0
KACK 171353Z 35015G23KT 10SM CLR M03/M13 A3035 RMK AO2 SLP278 T10281128,KACK,2019-01-17T13:53:00Z,41.25,-70.07,-2.8,-12.8,350,15,23,10.0,30.351377,1027.8,,,TRUE,,,,,,,CLR,,,,,,,,VFR,,,,,,,,,,,,SPECI,16.0
KSMQ 171353Z AUTO 34006KT 10SM CLR M04/M14 A3040 RMK AO2 SLP295 T10391144,KSMQ,2019-01-17T13:53:00Z,40.62,-74.67,-3.9,-14.4,340,6,,10.0,30.398623,1029.5,,TRUE,TRUE,,,,,,,CLR,,,,,,,,VFR,,,,,,,,,,,,SPECI,30.0
KAXN 171353Z AUTO 32004KT 10SM OVC090 M17/M21 A3008 RMK AO2 SLP225 T11671211,KAXN,2019-01-17T13:53:00Z,45.87,-95.4,-16.7,-21.1,320,4,,10.0,30.079725,1022.5,,TRUE,TRUE,,,,,,,OVC,9000,,,,,,,VFR,,,,,,,,,,,,SPECI,433.0
KAWM 171353Z AUTO 19007KT 1 1/4SM -RA BR OVC004 09/09 A3007 RMK AO2 RAB1259 SLP183 P0003 T00940094 $,KAWM,2019-01-17T13:53:00Z,35.13,-90.23,9.4,9.4,190,7,,1.25,30.070866,1018.3,,TRUE,TRUE,TRUE,,,,,-RA BR,OVC,400,,,,,,,LIFR,,,,,,0.03,,,,,,METAR,65.0
KAUS 171353Z 23004KT 10SM OVC008 14/12 A3015 RMK AO2 SLP209 T01390117,KAUS,2019-01-17T13:53:00Z,30.18,-97.68,13.9,11.7,230,4,,10.0,30.15059,1020.9,,,TRUE,,,,,,,OVC,800,,,,,,,IFR,,,,,,,,,,,,SPECI,166.0
KAUG 171353Z AUTO 32009KT 10SM CLR M14/M22 A3035 RMK AO2 SLP283 T11441222,KAUG,2019-01-17T13:53:00Z,44.32,-69.8,-14.4,-22.2,320,9,,10.0,30.351377,1028.3,,TRUE,TRUE,,,,,,,CLR,,,,,,,,VFR,,,,,,,,,,,,SPECI,109.0
KATY 171353Z AUTO 30004KT 10SM SCT085 M13/M14 A3007 RMK AO2 SLP221 T11281144,KATY,2019-01-17T13:53:00Z,44.9,-97.15,-12.8,-14.4,300,4,,10.0,30.070866,1022.1,,TRUE,TRUE,,,,,,,SCT,8500,,,,,,,VFR,,,,,,,,,,,,SPECI,532.0
KASX 171353Z AUTO 22003KT 10SM OVC070 M14/M17 A3010 RMK AO2 SLP216 T11441167,KASX,2019-01-17T13:53:00Z,46.55,-90.92,-14.4,-16.7,220,3,,10.0,30.100393,1021.6,,TRUE,TRUE,,,,,,,OVC,7000,,,,,,,VFR,,,,,,,,,,,,SPECI,251.0
KASE 171353Z 24008KT 10SM FEW120 M08/M11 A3016 RMK AO2 SLP222 T10831111 $,KASE,2019-01-17T13:53:00Z,39.23,-106.87,-8.3,-11.1,240,8,,10.0,30.159449,1022.2,,,TRUE,TRUE,,,,,,FEW,12000,,,,,,,VFR,,,,,,,,,,,,SPECI,2354.0
KASD 171353Z AUTO 00000KT 6SM -RA BR BKN060 OVC075 09/08 A3023 RMK AO2 RAB48 SLP236 P0000 T00890078,KASD,2019-01-17T13:53:00Z,30.35,-89.82,8.9,7.8,0,0,,6.0,30.230314,1023.6,,TRUE,TRUE,,,,,,-RA BR,BKN,6000,OVC,7500,,,,,VFR,,,,,,0.005,,,,,,METAR,9.0
KARB 171353Z 07004KT 10SM OVC036 M04/M07 A3018 RMK AO2 SLP234 T10441072,KARB,2019-01-17T13:53:00Z,42.22,-83.73,-4.4,-7.2,70,4,,10.0,30.180119,1023.4,,,TRUE,,,,,,,OVC,3600,,,,,,,VFR,,,,,,,,,,,,SPECI,251.0
KARA 171353Z 14007KT 10SM BKN023 OVC047 13/11 A3018 RMK AO2 SLP220 T01280111,KARA,2019-01-17T13:53:00Z,30.03,-91.88,12.8,11.1,140,7,,10.0,30.180119,1022.0,,,TRUE,,,,,,,BKN,2300,OVC,4700,,,,,MVFR,,,,,,,,,,,,METAR,18.0
KAPF 171353Z 03006KT 10SM CLR 13/08 A3023 RMK AO2 SLP234 T01280078,KAPF,2019-01-17T13:53:00Z,26.15,-81.77,12.8,7.8,30,6,,10.0,30.230314,1023.4,,,TRUE,,,,,,,CLR,,,,,,,,VFR,,,,,,,,,,,,METAR,3.0
KAPA 171353Z 17010KT 10SM FEW220 M01/M09 A3002 RMK AO2 SLP184 T10111089,KAPA,2019-01-17T13:53:00Z,39.57,-104.85,-1.1,-8.9,170,10,,10.0,30.02067,1018.4,,,TRUE,,,,,,,FEW,22000,,,,,,,VFR,,,,,,,,,,,,SPECI,1775.0
KAOO 171353Z AUTO 07005KT 10SM OVC024 M04/M08 A3027 RMK AO2 SLP269 T10441083,KAOO,2019-01-17T13:53:00Z,40.3,-78.32,-4.4,-8.3,70,5,,10.0,30.268702,1026.9,,TRUE,TRUE,,,,,,,OVC,2400,,,,,,,MVFR,,,,,,,,,,,,SPECI,455.0
KBAF 171353Z 36005KT 10SM CLR M09/M19 A3041 RMK AO2 SLP306 T10891194,KBAF,2019-01-17T13:53:00Z,42.17,-72.72,-8.9,-19.4,360,5,,10.0,30.410433,1030.6,,,TRUE,,,,,,,CLR,,,,,,,,VFR,,,,,,,,,,,,METAR,83.0
KBGR 171353Z 30013G21KT 10SM CLR M14/M23 A3035 RMK AO2 SLP282 T11441228 $,KBGR,2019-01-17T13:53:00Z,44.8,-68.82,-14.4,-22.8,300,13,21,10.0,30.351377,1028.2,,,TRUE,TRUE,,,,,,CLR,,,,,,,,VFR,,,,,,,,,,,,METAR,57.0
KBDE 171353Z AUTO 33003KT 10SM FEW038 OVC100 M17/M21 A3011 RMK AO2 SLP230 T11721211,KBDE,2019-01-17T13:53:00Z,48.73,-94.62,-17.2,-21.1,330,3,,10.0,30.109253,1023.0,,TRUE,TRUE,,,,,,,FEW,3800,OVC,10000,,,,,VFR,,,,,,,,,,,,SPECI,329.0
KBFM 171353Z 00000KT 6SM BR SCT110 10/09 A3025 RMK AO2 SLP244 T01000089,KBFM,2019-01-17T13:53:00Z,30.62,-88.07,10.0,8.9,0,0,,6.0,30.250984,1024.4,,,TRUE,,,,,,BR,SCT,11000,,,,,,,VFR,,,,,,,,,,,,METAR,20.0
KBFI 171353Z COR 00000KT 10SM FEW070 OVC200 08/04 A2947 RMK AO2 SLP978 T00780044,KBFI,2019-01-17T13:53:00Z,47.55,-122.32,7.8,4.4,0,0,,10.0,29.471457,997.8,TRUE,,TRUE,,,,,,,FEW,7000,OVC,20000,,,,,VFR,,,,,,,,,,,,SPECI,4.0
KBFF 171353Z AUTO 30003KT 10SM CLR M03/M05 A2998 RMK AO2 SLP182 T10331050,KBFF,2019-01-17T13:53:00Z,41.87,-103.58,-3.3,-5.0,300,3,,10.0,29.97933,1018.2,,TRUE,TRUE,,,,,,,CLR,,,,,,,,VFR,,,,,,,,,,,,METAR,1203.0
KBFD 171353Z AUTO 00000KT 8SM BKN110 M13/M16 A3020 RMK AO2 SLP263 T11331156,KBFD,2019-01-17T13:53:00Z,41.8,-78.63,-13.3,-15.6,0,0,,8.0,30.200787,1026.3,,TRUE,TRUE,,,,,,,BKN,11000,,,,,,,VFR,,,,,,,,,,,,SPECI,647.0
KBKL 171353Z 14009KT 10SM OVC040 M04/M09 A3023 RMK AO2 SLP244 T10441094,KBKL,2019-01-17T13:53:00Z,41.53,-81.67,-4.4,-9.4,140,9,,10.0,30.230314,1024.4,,,TRUE,,,,,,,OVC,4000,,,,,,,VFR,,,,,,,,,,,,METAR,184.0
KBKE 171353Z AUTO 09013G20KT 10SM OVC024 04/02 A2962 RMK AO2 RAE02 SLP041 P0000 T00440022,KBKE,2019-01-17T13:53:00Z,44.85,-117.82,4.4,2.2,90,13,20,10.0,29.619095,1004.1,,TRUE,TRUE,,,,,,,OVC,2400,,,,,,,MVFR,,,,,,0.005,,,,,,SPECI,1024.0
KBKV 171353Z 00000KT 10SM CLR 06/05 A3028 RMK AO2 SLP253 T00610050,KBKV,2019-01-17T13:53:00Z,28.47,-82.45,6.1,5.0,0,0,,10.0,30.280512,1025.3,,,TRUE,,,,,,,CLR,,,,,,,,VFR,,,,,,,,,,,,METAR,20.0
KELM 171353Z 00000KT 10SM CLR M11/M13 A3035 RMK AO2 SLP293 T11061128,KELM,2019-01-17T13:53:00Z,42.15,-76.9,-10.6,-12.8,0,0,,10.0,30.351377,1029.3,,,TRUE,,,,,,,CLR,,,,,,,,VFR,,,,,,,,,,,,SPECI,302.0
KELY 171353Z AUTO 14021G32KT 10SM BKN026 OVC038 04/00 A2990 RMK AO2 PK WND 13039/1254 RAE04 SLP105 P0000 T00440000,KELY,2019-01-17T13:53:00Z,39.3,-114.85,4.4,0.0,140,21,32,10.0,29.899607,1010.5,,TRUE,TRUE,,,,,,,BKN,2600,OVC,3800,,,,,MVFR,,,,,,0.005,,,,,,METAR,1906.0
KFDR 171353Z AUTO 35014KT 10SM OVC012 04/03 A3014 RMK AO2 SLP204 T00440028,KFDR,2019-01-17T13:53:00Z,34.35,-98.98,4.4,2.8,350,14,,10.0,30.138779,1020.4,,TRUE,TRUE,,,,,,,OVC,1200,,,,,,,MVFR,,,,,,,,,,,,METAR,386.0
KESF 171353Z AUTO 19006KT 10SM OVC008 12/11 A3014 RMK AO2 SLP204 T01170111,KESF,2019-01-17T13:53:00Z,31.4,-92.28,11.7,11.1,190,6,,10.0,30.138779,1020.4,,TRUE,TRUE,,,,,,,OVC,800,,,,,,,IFR,,,,,,,,,,,,METAR,28.0
KEPH 171353Z AUTO 35011KT 8SM -RA OVC011 02/01 A2961 RMK AO2 SLP038 P0006 T00220011,KEPH,2019-01-17T13:53:00Z,47.3,-119.52,2.2,1.1,350,11,,8.0,29.610237,1003.8,,TRUE,TRUE,,,,,,-RA,OVC,1100,,,,,,,MVFR,,,,,,0.06,,,,,,SPECI,383.0
KEWB 171353Z 36006KT 10SM CLR M05/M17 A3038 RMK AO2 SLP287 T10501172,KEWB,2019-01-17T13:53:00Z,41.68,-70.95,-5.0,-17.2,360,6,,10.0,30.380905,1028.7,,,TRUE,,,,,,,CLR,,,,,,,,VFR,,,,,,,,,,,,SPECI,23.0
KEVW 171353Z AUTO 22007KT 10SM OVC039 M01/M06 A2997 RMK AO2 SLP150 T10061061,KEVW,2019-01-17T13:53:00Z,41.27,-111.03,-0.6,-6.1,220,7,,10.0,29.970472,1015.0,,TRUE,TRUE,,,,,,,OVC,3900,,,,,,,VFR,,,,,,,,,,,,METAR,2177.0
KEYW 171353Z 03010KT 10SM CLR 19/15 A3020 RMK AO2 SLP227 T01940150,KEYW,2019-01-17T13:53:00Z,24.55,-81.75,19.4,15.0,30,10,,10.0,30.200787,1022.7,,,TRUE,,,,,,,CLR,,,,,,,,VFR,,,,,,,,,,,,METAR,5.0
KEYE 171353Z AUTO 14007KT 2 1/2SM -RA BR OVC004 01/00 A3006 RMK AO2 RAB03 SLP185 P0001 T00060000,KEYE,2019-01-17T13:53:00Z,39.83,-86.3,0.6,0.0,140,7,,2.5,30.059055,1018.5,,TRUE,TRUE,,,,,,-RA BR,OVC,400,,,,,,,LIFR,,,,,,0.01,,,,,,SPECI,248.0
KFAY 171353Z 03004KT 10SM CLR 02/M01 A3030 RMK AO2 SLP258 T00171006,KFAY,2019-01-17T13:53:00Z,34.98,-78.88,1.7,-0.6,30,4,,10.0,30.301182,1025.8,,,TRUE,,,,,,,CLR,,,,,,,,VFR,,,,,,,,,,,,METAR,55.0
KFAR 171353Z 33004KT 10SM OVC040 M17/M19 A3016 RMK AO2 SLP240 T11671189,KFAR,2019-01-17T13:53:00Z,46.93,-96.82,-16.7,-18.9,330,4,,10.0,30.159449,1024.0,,,TRUE,,,,,,,OVC,4000,,,,,,,VFR,,,,,,,,,,,,METAR,277.0
KFCM 171353Z 29004KT 10SM FEW025 OVC037 M08/M11 A3008 RMK AO2 SLP203 T10781106,KFCM,2019-01-17T13:53:00Z,44.83,-93.47,-7.8,-10.6,290,4,,10.0,30.079725,1020.3,,,TRUE,,,,,,,FEW,2500,OVC,3700,,,,,VFR,,,,,,,,,,,,SPECI,280.0
KFFC 171353Z AUTO 13004KT 5SM BR CLR 02/00 A3021 RMK AO2 SLP238 I1001 T00170000,KFFC,2019-01-17T13:53:00Z,33.35,-84.57,1.7,0.0,130,4,,5.0,30.209646,1023.8,,TRUE,TRUE,,,,,,BR,CLR,,,,,,,,MVFR,,,,,,,,,,,,METAR,262.0
KFHR 171353Z AUTO 36004KT 10SM OVC043 07/04 A2949 RMK AO2 SLP986 T00670044,KFHR,2019-01-17T13:53:00Z,48.52,-123.03,6.7,4.4,360,4,,10.0,29.489174,998.6,,TRUE,TRUE,,,,,,,OVC,4300,,,,,,,VFR,,,,,,,,,,,,SPECI,32.0
KFLD 171353Z AUTO 09004KT 10SM OVC036 M04/M08 A3012 RMK AO2 SLP213 T10391078,KFLD,2019-01-17T13:53:00Z,43.77,-88.48,-3.9,-7.8,90,4,,10.0,30.121063,1021.3,,TRUE,TRUE,,,,,,,OVC,3600,,,,,,,VFR,,,,,,,,,,,,SPECI,240.0
KFLO 171353Z 08004KT 10SM CLR 03/01 A3028 RMK AO2 SLP253 T00280006,KFLO,2019-01-17T13:53:00Z,34.18,-79.73,2.8,0.6,80,4,,10.0,30.280512,1025.3,,,TRUE,,,,,,,CLR,,,,,,,,VFR,,,,,,,,,,,,METAR,44.0
KFLL 171353Z AUTO 00000KT 10SM CLR 16/13 A3020 RMK AO2 SLP227 T01560133,KFLL,2019-01-17T13:53:00Z,26.07,-80.15,15.6,13.3,0,0,,10.0,30.200787,1022.7,,TRUE,TRUE,,,,,,,CLR,,,,,,,,VFR,,,,,,,,,,,,METAR,3.0
KFMN 171353Z 07005KT 10SM CLR M03/M03 A3025 RMK AO2 SLP259 T10281033,KFMN,2019-01-17T13:53:00Z,36.75,-108.23,-2.8,-3.3,70,5,,10.0,30.250984,1025.9,,,TRUE,,,,,,,CLR,,,,,,,,VFR,,,,,,,,,,,,METAR,1685.0
KFNT 171353Z 14008KT 10SM FEW033 OVC110 M06/M08 A3019 RMK AO2 SLP238 T10561083,KFNT,2019-01-17T13:53:00Z,42.97,-83.75,-5.6,-8.3,140,8,,10.0,30.188976,1023.8,,,TRUE,,,,,,,FEW,3300,OVC,11000,,,,,VFR,,,,,,,,,,,,METAR,233.0
KBLI 171353Z AUTO 02009KT 10SM FEW050 BKN060 OVC100 05/02 A2948 RMK AO2 RAE45 SLP991 P0001 T00500017,KBLI,2019-01-17T13:53:00Z,48.8,-122.53,5.0,1.7,20,9,,10.0,29.480314,999.1,,TRUE,TRUE,,,,,,,FEW,5000,BKN,6000,OVC,10000,,,VFR,,,,,,0.01,,,,,,SPECI,50.0
KBNO 171353Z AUTO 17010KT 10SM SCT027 BKN055 OVC100 02/01 A2962 RMK AO2 SLP041 T00220006,KBNO,2019-01-17T13:53:00Z,43.6,-118.95,2.2,0.6,170,10,,10.0,29.619095,1004.1,,TRUE,TRUE,,,,,,,SCT,2700,BKN,5500,OVC,10000,,,VFR,,,,,,,,,,,,METAR,1264.0
KBMQ 171353Z AUTO 28013KT 10SM CLR 10/09 A3016 RMK AO2 SLP206 T01000094,KBMQ,2019-01-17T13:53:00Z,30.73,-98.23,10.0,9.4,280,13,,10.0,30.159449,1020.6,,TRUE,TRUE,,,,,,,CLR,,,,,,,,VFR,,,,,,,,,,,,METAR,389.0
KBPI 171353Z AUTO 00000KT 10SM SCT005 OVC009 M08/M10 A3000 RMK AO2 SLP203 T10781100,KBPI,2019-01-17T13:53:00Z,42.58,-110.1,-7.8,-10.0,0,0,,10.0,30.0,1020.3,,TRUE,TRUE,,,,,,,SCT,500,OVC,900,,,,,IFR,,,,,,,,,,,,SPECI,2117.0
KBMG 171353Z 12006KT 1 3/4SM -RA BR OVC003 02/02 A3005 RMK AO2 UPB45E51 SLP180 P0002 T00170017,KBMG,2019-01-17T13:53:00Z,39.15,-86.62,1.7,1.7,120,6,,1.75,30.050198,1018.0,,,TRUE,,,,,,-RA BR,OVC,300,,,,,,,LIFR,,,,,,0.02,,,,,,SPECI,257.0
KBOI 171353Z 12016G22KT 10SM SCT065 08/02 A2969 RMK AO2 PK WND 13028/1256 SLP058 T00780022,KBOI,2019-01-17T13:53:00Z,43.57,-116.23,7.8,2.2,120,16,22,10.0,29.68996,1005.8,,,TRUE,,,,,,,SCT,6500,,,,,,,VFR,,,,,,,,,,,,SPECI,875.0
KBRD 171353Z AUTO 00000KT 9SM OVC095 M19/M23 A3009 RMK AO2 SLP227 T11941233,KBRD,2019-01-17T13:53:00Z,46.4,-94.13,-19.4,-23.3,0,0,,9.0,30.088583,1022.7,,TRUE,TRUE,,,,,,,OVC,9500,,,,,,,VFR,,,,,,,,,,,,SPECI,372.0
KBPT 171353Z 21005KT 6SM BR OVC004 18/16 A3014 RMK AO2 RAE1258 CIG 004V009 SLP206 P0000 T01780161,KBPT,2019-01-17T13:53:00Z,29.95,-94.03,17.8,16.1,210,5,,6.0,30.138779,1020.6,,,TRUE,,,,,,BR,OVC,400,,,,,,,LIFR,,,,,,0.005,,,,,,SPECI,5.0
KBTM 171353Z AUTO 00000KT 10SM OVC065 M08/M11 A2977 RMK AO2 SLP133 T10831111,KBTM,2019-01-17T13:53:00Z,45.97,-112.5,-8.3,-11.1,0,0,,10.0,29.769686,1013.3,,TRUE,TRUE,,,,,,,OVC,6500,,,,,,,VFR,,,,,,,,,,,,SPECI,1688.0
KBTR 171353Z 14005KT 3SM BR BKN006 OVC026 11/10 A3019 RMK AO2 SLP224 T01060100,KBTR,2019-01-17T13:53:00Z,30.53,-91.15,10.6,10.0,140,5,,3.0,30.188976,1022.4,,,TRUE,,,,,,BR,BKN,600,OVC,2600,,,,,IFR,,,,,,,,,,,,METAR,21.0
KBVY 171353Z 33015KT 10SM CLR M08/M21 A3038 RMK AO2 SLP285 T10831206,KBVY,2019-01-17T13:53:00Z,42.58,-70.92,-8.3,-20.6,330,15,,10.0,30.380905,1028.5,,,TRUE,,,,,,,CLR,,,,,,,,VFR,,,,,,,,,,,,SPECI,28.0
KCAG 171353Z AUTO 06008KT 10SM CLR M03/M06 A3011 RMK AO2 SLP226 T10331056,KCAG,2019-01-17T13:53:00Z,40.5,-107.52,-3.3,-5.6,60,8,,10.0,30.109253,1022.6,,TRUE,TRUE,,,,,,,CLR,,,,,,,,VFR,,,,,,,,,,,,SPECI,1887.0
KBYG 171353Z AUTO 28007KT 10SM BKN110 M02/M08 A2989 RMK AO2 SLP148 T10221083,KBYG,2019-01-17T13:53:00Z,44.38,-106.72,-2.2,-8.3,280,7,,10.0,29.890747,1014.8,,TRUE,TRUE,,,,,,,BKN,11000,,,,,,,VFR,,,,,,,,,,,,METAR,1497.0
KCCR 171353Z AUTO 17008KT 9SM SCT032 BKN042 BKN090 14/09 A2989 RMK AO2 SLP107 T01440089,KCCR,2019-01-17T13:53:00Z,38.0,-122.05,14.4,8.9,170,8,,9.0,29.890747,1010.7,,TRUE,TRUE,,,,,,,SCT,3200,BKN,4200,BKN,9000,,,VFR,,,,,,,,,,,,SPECI,11.0
KBRO 171353Z 01004KT 10SM OVC012 17/16 A3020 RMK AO2 SLP224 T01670156,KBRO,2019-01-17T13:53:00Z,25.92,-97.42,16.7,15.6,10,4,,10.0,30.200787,1022.4,,,TRUE,,,,,,,OVC,1200,,,,,,,MVFR,,,,,,,,,,,,SPECI,7.0
KCDS 171353Z AUTO 00000KT 4SM BR CLR 01/00 A3017 RMK AO2 SLP217 T00060000,KCDS,2019-01-17T13:53:00Z,34.43,-100.28,0.6,0.0,0,0,,4.0,30.171259,1021.7,,TRUE,TRUE,,,,,,BR,CLR,,,,,,,,MVFR,,,,,,,,,,,,SPECI,594.0
KCDW 171353Z 01004KT 10SM CLR M05/M13 A3042 RMK AO2 SLP308 T10501128,KCDW,2019-01-17T13:53:00Z,40.88,-74.28,-5.0,-12.8,10,4,,10.0,30.41929,1030.8,,,TRUE,,,,,,,CLR,,,,,,,,VFR,,,,,,,,,,,,METAR,64.0
KCEW 171353Z AUTO 00000KT 8SM CLR 02/01 A3027 RMK AO2 SLP252 T00220006,KCEW,2019-01-17T13:53:00Z,30.78,-86.52,2.2,0.6,0,0,,8.0,30.268702,1025.2,,TRUE,TRUE,,,,,,,CLR,,,,,,,,VFR,,,,,,,,,,,,METAR,55.0
KCEZ 171353Z AUTO 06003KT 10SM CLR M05/M07 A3023 RMK AO2 SLP246 T10501067,KCEZ,2019-01-17T13:53:00Z,37.3,-108.63,-5.0,-6.7,60,3,,10.0,30.230314,1024.6,,TRUE,TRUE,,,,,,,CLR,,,,,,,,VFR,,,,,,,,,,,,METAR,1797.0
KCHA 171353Z 00000KT 7SM BKN060 BKN090 02/00 A3021 RMK AO2 SLP234 T00220000,KCHA,2019-01-17T13:53:00Z,35.03,-85.2,2.2,0.0,0,0,,7.0,30.209646,1023.4,,,TRUE,,,,,,,BKN,6000,BKN,9000,,,,,VFR,,,,,,,,,,,,METAR,210.0
KCHO 171353Z 00000KT 10SM OVC036 M01/M04 A3032 RMK AO2 SLP270 T10061039,KCHO,2019-01-17T13:53:00Z,38.13,-78.45,-0.6,-3.9,0,0,,10.0,30.318897,1027.0,,,TRUE,,,,,,,OVC,3600,,,,,,,VFR,,,,,,,,,,,,METAR,192.0
KPTK 171353Z 11006KT 10SM OVC012 M05/M08 A3018 RMK AO2 SLP235 T10501078,KPTK,2019-01-17T13:53:00Z,42.67,-83.42,-5.0,-7.8,110,6,,10.0,30.180119,1023.5,,,TRUE,,,,,,,OVC,1200,,,,,,,MVFR,,,,,,,,,,,,SPECI,299.0
KPUB 171353Z 31004KT 10SM CLR M03/M06 A3008 RMK AO2 SLP189 T10331061,KPUB,2019-01-17T13:53:00Z,38.28,-104.5,-3.3,-6.1,310,4,,10.0,30.079725,1018.9,,,TRUE,,,,,,,CLR,,,,,,,,VFR,,,,,,,,,,,,SPECI,1420.0
KPUW 171353Z AUTO 09013KT 8SM -RA FEW032 OVC041 04/02 A2959 RMK AO2 SLP035 P0003 T00390022,KPUW,2019-01-17T13:53:00Z,46.75,-117.12,3.9,2.2,90,13,,8.0,29.589567,1003.5,,TRUE,TRUE,,,,,,-RA,FEW,3200,OVC,4100,,,,,VFR,,,,,,0.03,,,,,,SPECI,773.0
KPWA 171353Z 34012KT 10SM BKN008 OVC016 04/03 A3014 RMK AO2 SLP208 T00390028,KPWA,2019-01-17T13:53:00Z,35.53,-97.65,3.9,2.8,340,12,,10.0,30.138779,1020.8,,,TRUE,,,,,,,BKN,800,OVC,1600,,,,,IFR,,,,,,,,,,,,METAR,397.0
KRAC 171353Z AUTO 00000KT 10SM OVC020 M01/M05 A3012 RMK AO2 SLP210 T10111050,KRAC,2019-01-17T13:53:00Z,42.77,-87.82,-1.1,-5.0,0,0,,10.0,30.121063,1021.0,,TRUE,TRUE,,,,,,,OVC,2000,,,,,,,MVFR,,,,,,,,,,,,METAR,203.0
KRAL 171353Z AUTO 09004KT 9SM -RA SCT031 SCT038 OVC055 13/13 A3010 RMK AO2 RAB12 SLP182 P0001 T01330128,KRAL,2019-01-17T13:53:00Z,33.95,-117.45,13.3,12.8,90,4,,9.0,30.100393,1018.2,,TRUE,TRUE,,,,,,-RA,SCT,3100,SCT,3800,OVC,5500,,,VFR,,,,,,0.01,,,,,,SPECI,252.0
KRIW 171353Z AUTO 02005KT 10SM CLR M12/M14 A2991 RMK AO2 SLP207 T11221144,KRIW,2019-01-17T13:53:00Z,43.07,-108.47,-12.2,-14.4,20,5,,10.0,29.911417,1020.7,,TRUE,TRUE,,,,,,,CLR,,,,,,,,VFR,,,,,,,,,,,,METAR,1697.0
KRHI 171353Z AUTO 00000KT 10SM OVC025 M09/M12 A3003 RMK AO2 SLP203 T10891122,KRHI,2019-01-17T13:53:00Z,45.63,-89.48,-8.9,-12.2,0,0,,10.0,30.029528,1020.3,,TRUE,TRUE,,,,,,,OVC,2500,,,,,,,MVFR,,,,,,,,,,,,SPECI,485.0
KVUO 171353Z AUTO 13007KT 10SM BKN070 OVC090 05/01 A2947 RMK AO2 RAE1258 SLP979 P0000 T00500011,KVUO,2019-01-17T13:53:00Z,45.62,-122.65,5.0,1.1,130,7,,10.0,29.471457,997.9,,TRUE,TRUE,,,,,,,BKN,7000,OVC,9000,,,,,VFR,,,,,,0.005,,,,,,SPECI,8.0
KFXE 171353Z 33004KT 10SM FEW060 16/12 A3021 RMK AO2 SLP232 T01560122,KFXE,2019-01-17T13:53:00Z,26.2,-80.18,15.6,12.2,330,4,,10.0,30.209646,1023.2,,,TRUE,,,,,,,FEW,6000,,,,,,,VFR,,,,,,,,,,,,METAR,6.0
KRBG 171353Z AUTO VRB04KT 10SM -RA SCT060 SCT080 11/04 A2951 RMK AO2 RAE1256B52 SLP994 P0000 T01060039,KRBG,2019-01-17T13:53:00Z,43.23,-123.35,10.6,3.9,0,4,,10.0,29.509842,999.4,,TRUE,TRUE,,,,,,-RA,SCT,6000,SCT,8000,,,,,VFR,,,,,,0.005,,,,,,SPECI,154.0
KCDR 171353Z AUTO 00000KT 10SM CLR M09/M11 A2996 RMK AO2 SLP197 T10891106 $,KCDR,2019-01-17T13:53:00Z,42.83,-103.1,-8.9,-10.6,0,0,,10.0,29.958662,1019.7,,TRUE,TRUE,TRUE,,,,,,CLR,,,,,,,,VFR,,,,,,,,,,,,METAR,1010.0
KMHT 171353Z 33007KT 10SM FEW250 M11/M19 A3038 RMK AO2 SLP310 T11061194,KMHT,2019-01-17T13:53:00Z,42.93,-71.43,-10.6,-19.4,330,7,,10.0,30.380905,1031.0,,,TRUE,,,,,,,FEW,25000,,,,,,,VFR,,,,,,,,,,,,METAR,81.0
KMIE 171353Z 13007KT 4SM -RA BR OVC007 01/M01 A3008 RMK AO2 UPB06E07RAB29SNE06B07E29 SLP190 P0000 T00111006,KMIE,2019-01-17T13:53:00Z,40.23,-85.4,1.1,-0.6,130,7,,4.0,30.079725,1019.0,,,TRUE,,,,,,-RA BR,OVC,700,,,,,,,IFR,,,,,,0.005,,,,,,METAR,285.0
KMLB 171353Z 33007KT 10SM CLR 16/10 A3023 RMK AO2 SLP237 T01560100,KMLB,2019-01-17T13:53:00Z,28.1,-80.65,15.6,10.0,330,7,,10.0,30.230314,1023.7,,,TRUE,,,,,,,CLR,,,,,,,,VFR,,,,,,,,,,,,METAR,11.0
KMIC 171353Z 29003KT 8SM -SN BKN032 OVC043 M09/M12 A3009 RMK AO2 SNB10 SLP206 P0000 T10891122,KMIC,2019-01-17T13:53:00Z,45.07,-93.35,-8.9,-12.2,290,3,,8.0,30.088583,1020.6,,,TRUE,,,,,,-SN,BKN,3200,OVC,4300,,,,,VFR,,,,,,0.005,,,,,,SPECI,265.0
KMIA 171353Z 34003KT 10SM FEW027 FEW250 17/13 A3021 RMK AO2 SLP231 T01670128,KMIA,2019-01-17T13:53:00Z,25.8,-80.28,16.7,12.8,340,3,,10.0,30.209646,1023.1,,,TRUE,,,,,,,FEW,2700,FEW,25000,,,,,VFR,,,,,,,,,,,,METAR,3.0
KMLT 171353Z AUTO 30008G17KT 10SM CLR M18/M26 A3033 RMK AO2 SLP285 T11831256,KMLT,2019-01-17T13:53:00Z,45.65,-68.7,-18.3,-25.6,300,8,17,10.0,30.33071,1028.5,,TRUE,TRUE,,,,,,,CLR,,,,,,,,VFR,,,,,,,,,,,,SPECI,123.0
KMLU 171353Z 18003KT 10SM OVC011 11/09 A3013 RMK AO2 SLP202 T01110094,KMLU,2019-01-17T13:53:00Z,32.52,-92.03,11.1,9.4,180,3,,10.0,30.129921,1020.2,,,TRUE,,,,,,,OVC,1100,,,,,,,MVFR,,,,,,,,,,,,METAR,29.0
KMMK 171353Z AUTO 32006KT 10SM CLR M06/M18 A3041 RMK AO2 SLP299 T10561183,KMMK,2019-01-17T13:53:00Z,41.52,-72.83,-5.6,-18.3,320,6,,10.0,30.410433,1029.9,,TRUE,TRUE,,,,,,,CLR,,,,,,,,VFR,,,,,,,,,,,,METAR,31.0
KMMV 171353Z AUTO 01004KT 10SM OVC060 04/03 A2945 RMK AO2 SLP972 T00440028,KMMV,2019-01-17T13:53:00Z,45.2,-123.13,4.4,2.8,10,4,,10.0,29.450787,997.2,,TRUE,TRUE,,,,,,,OVC,6000,,,,,,,VFR,,,,,,,,,,,,SPECI,48.0
KMOD 171353Z AUTO 15006KT 10SM CLR 14/10 A2992 RMK AO2 SLP132 T01390100,KMOD,2019-01-17T13:53:00Z,37.62,-120.95,13.9,10.0,150,6,,10.0,29.920275,1013.2,,TRUE,TRUE,,,,,,,CLR,,,,,,,,VFR,,,,,,,,,,,,SPECI,29.0
KMNN 171353Z AUTO 12010KT 5SM BR OVC038 M02/M04 A3015 RMK AO2 SLP223 T10171039,KMNN,2019-01-17T13:53:00Z,40.62,-83.07,-1.7,-3.9,120,10,,5.0,30.15059,1022.3,,TRUE,TRUE,,,,,,BR,OVC,3800,,,,,,,MVFR,,,,,,,,,,,,SPECI,301.0
KSNS 171353Z AUTO 15003KT 10SM CLR 14/09 A2995 RMK AO2 SLP152 T01440089,KSNS,2019-01-17T13:53:00Z,36.67,-121.6,14.4,8.9,150,3,,10.0,29.949802,1015.2,,TRUE,TRUE,,,,,,,CLR,,,,,,,,VFR,,,,,,,,,,,,SPECI,30.0
KMRB 171353Z 04003KT 10SM OVC042 00/M04 A3032 RMK AO2 SLP271 T00001044,KMRB,2019-01-17T13:53:00Z,39.4,-77.98,0.0,-4.4,40,3,,10.0,30.318897,1027.1,,,TRUE,,,,,,,OVC,4200,,,,,,,VFR,,,,,,,,,,,,METAR,164.0
KMSN 171353Z 00000KT 10SM OVC022 M03/M07 A3010 RMK AO2 SLP208 T10331072,KMSN,2019-01-17T13:53:00Z,43.13,-89.35,-3.3,-7.2,0,0,,10.0,30.100393,1020.8,,,TRUE,,,,,,,OVC,2200,,,,,,,MVFR,,,,,,,,,,,,METAR,261.0
KMSO 171353Z 31003KT 5SM BR FEW037 OVC070 M07/M09 A2979 RMK AO2 SNB29E50 SLP132 P0000 T10721094,KMSO,2019-01-17T13:53:00Z,46.92,-114.1,-7.2,-9.4,310,3,,5.0,29.790354,1013.2,,,TRUE,,,,,,BR,FEW,3700,OVC,7000,,,,,MVFR,,,,,,0.005,,,,,,METAR,975.0
KFMY 171353Z 02006KT 10SM CLR 12/07 A3024 RMK AO2 SLP243 T01170072,KFMY,2019-01-17T13:53:00Z,26.58,-81.87,11.7,7.2,20,6,,10.0,30.239174,1024.3,,,TRUE,,,,,,,CLR,,,,,,,,VFR,,,,,,,,,,,,METAR,4.0
KMSP 171353Z 33003KT 9SM BKN023 OVC042 M07/M09 A3009 RMK AO2 SLP205 T10721089,KMSP,2019-01-17T13:53:00Z,44.88,-93.23,-7.2,-8.9,330,3,,9.0,30.088583,1020.5,,,TRUE,,,,,,,BKN,2300,OVC,4200,,,,,MVFR,,,,,,,,,,,,SPECI,265.0
KMSS 171353Z AUTO 22006KT 10SM CLR M20/M23 A3048 RMK AO2 SLP332 T12001228,KMSS,2019-01-17T13:53:00Z,44.93,-74.85,-20.0,-22.8,220,6,,10.0,30.481298,1033.2,,TRUE,TRUE,,,,,,,CLR,,,,,,,,VFR,,,,,,,,,,,,SPECI,66.0
TIST 171353Z 11009KT 10SM CLR 27/21 A3012 RMK AO2 SLP199 T02720211,TIST,2019-01-17T13:53:00Z,18.33,-64.98,27.2,21.1,110,9,,10.0,30.121063,1019.9,,,TRUE,,,,,,,CLR,,,,,,,,VFR,,,,,,,,,,,,METAR,7.0
TISX 171353Z 10012KT 10SM CLR 28/22 A3013 RMK AO2 SLP201 T02780222 PNO,TISX,2019-01-17T13:53:00Z,17.7,-64.8,27.8,22.2,100,12,,10.0,30.129921,1020.1,,,TRUE,,,,,,,CLR,,,,,,,,VFR,,,,,,,,,,,,METAR,19.0
KFOE 171353Z 33006KT 1/2SM FG OVC002 00/M01 A3009 RMK AO2 SLP199 T00001011 RVRNO,KFOE,2019-01-17T13:53:00Z,38.93,-95.65,0.0,-1.1,330,6,,0.5,30.088583,1019.9,,,TRUE,,,,,,FG,OVC,200,,,,,,,LIFR,,,,,,,,,,,,METAR,320.0
KFOK 171353Z 34010KT 10SM CLR M03/M16 A3042 RMK AO2 SLP300 T10331156 $,KFOK,2019-01-17T13:53:00Z,40.85,-72.62,-3.3,-15.6,340,10,,10.0,30.41929,1030.0,,,TRUE,TRUE,,,,,,CLR,,,,,,,,VFR,,,,,,,,,,,,METAR,33.0
KFST 171353Z AUTO 22009KT 10SM CLR 06/02 A3023 RMK AO2 SLP214 T00610022,KFST,2019-01-17T13:53:00Z,30.92,-102.92,6.1,2.2,220,9,,10.0,30.230314,1021.4,,TRUE,TRUE,,,,,,,CLR,,,,,,,,VFR,,,,,,,,,,,,SPECI,918.0
KFPR 171353Z 34004KT 10SM FEW031 17/12 A3022 RMK AO2 SLP231 T01670117,KFPR,2019-01-17T13:53:00Z,27.5,-80.38,16.7,11.7,340,4,,10.0,30.221457,1023.1,,,TRUE,,,,,,,FEW,3100,,,,,,,VFR,,,,,,,,,,,,METAR,13.0
KFTY 171353Z 34003KT 7SM CLR 01/00 A3019 RMK AO2 SLP228 I1001 T00060000,KFTY,2019-01-17T13:53:00Z,33.78,-84.52,0.6,0.0,340,3,,7.0,30.188976,1022.8,,,TRUE,,,,,,,CLR,,,,,,,,VFR,,,,,,,,,,,,METAR,263.0
KFRG 171353Z AUTO 03008KT 10SM CLR M03/M12 A3040 RMK AO2 SLP295 T10331122,KFRG,2019-01-17T13:53:00Z,40.73,-73.42,-3.3,-12.2,30,8,,10.0,30.398623,1029.5,,TRUE,TRUE,,,,,,,CLR,,,,,,,,VFR,,,,,,,,,,,,METAR,21.0
KFYV 171353Z 33009KT 4SM -RA BR BKN007 OVC010 10/09 A3001 RMK AO2 RAB10 SLP162 P0003 T01000089,KFYV,2019-01-17T13:53:00Z,36.02,-94.17,10.0,8.9,330,9,,4.0,30.008858,1016.2,,,TRUE,,,,,,-RA BR,BKN,700,OVC,1000,,,,,IFR,,,,,,0.03,,,,,,METAR,379.0
KGIF 171353Z AUTO 01005KT 10SM CLR 12/07 A3026 RMK AO2 SLP246 T01170072,KGIF,2019-01-17T13:53:00Z,28.07,-81.75,11.7,7.2,10,5,,10.0,30.259842,1024.6,,TRUE,TRUE,,,,,,,CLR,,,,,,,,VFR,,,,,,,,,,,,METAR,43.0
KGGG 171353Z 23007KT 10SM OVC006 14/14 A3007 RMK AO2 SLP180 T01440144,KGGG,2019-01-17T13:53:00Z,32.38,-94.72,14.4,14.4,230,7,,10.0,30.070866,1018.0,,,TRUE,,,,,,,OVC,600,,,,,,,IFR,,,,,,,,,,,,SPECI,107.0
KGFL 171353Z AUTO 00000KT 10SM CLR M13/M20 A3044 RMK AO2 SLP323 T11331200,KGFL,2019-01-17T13:53:00Z,43.33,-73.62,-13.3,-20.0,0,0,,10.0,30.43996,1032.3,,TRUE,TRUE,,,,,,,CLR,,,,,,,,VFR,,,,,,,,,,,,METAR,103.0
KGFK 171353Z 00000KT 10SM OVC041 M16/M19 A3017 RMK AO2 SLP242 T11611194,KGFK,2019-01-17T13:53:00Z,47.95,-97.18,-16.1,-19.4,0,0,,10.0,30.171259,1024.2,,,TRUE,,,,,,,OVC,4100,,,,,,,VFR,,,,,,,,,,,,METAR,258.0
KGEY 171353Z AUTO 22004KT 10SM SCT120 M11/M12 A2990 RMK AO2 SLP183 T11111117,KGEY,2019-01-17T13:53:00Z,44.52,-108.08,-11.1,-11.7,220,4,,10.0,29.899607,1018.3,,TRUE,TRUE,,,,,,,SCT,12000,,,,,,,VFR,,,,,,,,,,,,SPECI,1191.0
KGCC 171353Z AUTO 00000KT 10SM CLR M08/M10 A2991 RMK AO2 SLP172 T10781100,KGCC,2019-01-17T13:53:00Z,44.33,-105.55,-7.8,-10.0,0,0,,10.0,29.911417,1017.2,,TRUE,TRUE,,,,,,,CLR,,,,,,,,VFR,,,,,,,,,,,,METAR,1320.0
KGKJ 171353Z AUTO 00000KT 10SM CLR M09/M11 A3022 RMK AO2 SLP257 T10891106 TSNO,KGKJ,2019-01-17T13:53:00Z,41.63,-80.22,-8.9,-10.6,0,0,,10.0,30.221457,1025.7,,TRUE,TRUE,,,TRUE,,,,CLR,,,,,,,,VFR,,,,,,,,,,,,METAR,428.0
KIWI 171353Z AUTO 32007KT 260V020 10SM CLR M12/M21 A3038 RMK AO2 SLP287 T11171206,KIWI,2019-01-17T13:53:00Z,43.97,-69.72,-11.7,-20.6,320,7,,10.0,30.380905,1028.7,,TRUE,TRUE,,,,,,,CLR,,,,,,,,VFR,,,,,,,,,,,,METAR,20.0
KITR 171353Z AUTO 23008KT 10SM CLR M01/M04 A3004 RMK AO2 SLP192 T10061044,KITR,2019-01-17T13:53:00Z,39.23,-102.28,-0.6,-4.4,230,8,,10.0,30.041338,1019.2,,TRUE,TRUE,,,,,,,CLR,,,,,,,,VFR,,,,,,,,,,,,SPECI,1279.0
KGMU 171353Z 05008KT 10SM CLR 03/M01 A3026 RMK AO2 SLP253 T00281006,KGMU,2019-01-17T13:53:00Z,34.85,-82.35,2.8,-0.6,50,8,,10.0,30.259842,1025.3,,,TRUE,,,,,,,CLR,,,,,,,,VFR,,,,,,,,,,,,METAR,315.0
KGLR 171353Z AUTO 00000KT 10SM CLR M17/M17 A3015 RMK AO2 SLP242 T11671172,KGLR,2019-01-17T13:53:00Z,45.02,-84.68,-16.7,-17.2,0,0,,10.0,30.15059,1024.2,,TRUE,TRUE,,,,,,,CLR,,,,,,,,VFR,,,,,,,,,,,,METAR,407.0
KGLD 171353Z AUTO 24009KT 10SM CLR M03/M06 A3004 RMK AO2 SLP200 T10281056,KGLD,2019-01-17T13:53:00Z,39.37,-101.7,-2.8,-5.6,240,9,,10.0,30.041338,1020.0,,TRUE,TRUE,,,,,,,CLR,,,,,,,,VFR,,,,,,,,,,,,METAR,1113.0
KJBR 171353Z AUTO 21012G17KT 9SM OVC005 09/09 A3003 RMK AO2 RAE13 SLP169 P0002 T00890089,KJBR,2019-01-17T13:53:00Z,35.83,-90.65,8.9,8.9,210,12,17,9.0,30.029528,1016.9,,TRUE,TRUE,,,,,,,OVC,500,,,,,,,IFR,,,,,,0.02,,,,,,METAR,79.0
KJKL 171353Z AUTO 00000KT 10SM OVC036 02/00 A3015 RMK AO2 SLP219 T00170000,KJKL,2019-01-17T13:53:00Z,37.6,-83.32,1.7,0.0,0,0,,10.0,30.15059,1021.9,,TRUE,TRUE,,,,,,,OVC,3600,,,,,,,VFR,,,,,,,,,,,,METAR,416.0
KFWN 171353Z AUTO 05003KT 10SM CLR M06/M12 A3038 RMK AO2 SLP294 T10611117,KFWN,2019-01-17T13:53:00Z,41.2,-74.63,-6.1,-11.7,50,3,,10.0,30.380905,1029.4,,TRUE,TRUE,,,,,,,CLR,,,,,,,,VFR,,,,,,,,,,,,METAR,133.0
KFVE 171353Z AUTO 30007KT 10SM CLR M23/M29 A3018 RMK AO2 SLP244 T12331289,KFVE,2019-01-17T13:53:00Z,47.28,-68.3,-23.3,-28.9,300,7,,10.0,30.180119,1024.4,,TRUE,TRUE,,,,,,,CLR,,,,,,,,VFR,,,,,,,,,,,,SPECI,301.0
KLAA 171353Z AUTO 00000KT 10SM CLR M07/M08 A3009 RMK AO2 SLP211 T10671083,KLAA,2019-01-17T13:53:00Z,38.07,-102.68,-6.7,-8.3,0,0,,10.0,30.088583,1021.1,,TRUE,TRUE,,,,,,,CLR,,,,,,,,VFR,,,,,,,,,,,,METAR,1119.0
KLAN 171353Z 13006KT 10SM OVC035 M05/M08 A3017 RMK AO2 SLP230 T10501078,KLAN,2019-01-17T13:53:00Z,42.78,-84.58,-5.0,-7.8,130,6,,10.0,30.171259,1023.0,,,TRUE,,,,,,,OVC,3500,,,,,,,VFR,,,,,,,,,,,,METAR,264.0
KLAR 171353Z AUTO VRB05KT 10SM FEW110 M01/M07 A3000 RMK AO2 SLP166 T10111067,KLAR,2019-01-17T13:53:00Z,41.32,-105.67,-1.1,-6.7,0,5,,10.0,30.0,1016.6,,TRUE,TRUE,,,,,,,FEW,11000,,,,,,,VFR,,,,,,,,,,,,SPECI,2216.0
KLAX 171353Z 18007KT 2SM -RA BR SCT004 OVC008 16/15 A3009 RMK AO2 SLP187 VIS 1 1/2V3 CIG 005V010 P0010 T01560150,KLAX,2019-01-17T13:53:00Z,33.93,-118.38,15.6,15.0,180,7,,2.0,30.088583,1018.7,,,TRUE,,,,,,-RA BR,SCT,400,OVC,800,,,,,IFR,,,,,,0.1,,,,,,METAR,46.0
KLAW 171353Z 36012KT 10SM OVC011 M17/ A3015 RMK AO2 SLP222 T1172 $,KLAW,2019-01-17T13:53:00Z,34.55,-98.42,-17.2,,360,12,,10.0,30.15059,1022.2,,,TRUE,TRUE,,,,,,OVC,1100,,,,,,,MVFR,,,,,,,,,,,,METAR,337.0
KLBB 171353Z 29008KT 10SM FEW250 02/M02 A3018 RMK AO2 SLP210 T00221022,KLBB,2019-01-17T13:53:00Z,33.67,-101.82,2.2,-2.2,290,8,,10.0,30.180119,1021.0,,,TRUE,,,,,,,FEW,25000,,,,,,,VFR,,,,,,,,,,,,METAR,993.0
KGJT 171353Z 12006KT 7SM SCT005 M02/M02 A3016 RMK AO2 SLP230 VCFG T10171017,KGJT,2019-01-17T13:53:00Z,39.12,-108.52,-1.7,-1.7,120,6,,7.0,30.159449,1023.0,,,TRUE,,,,,,,SCT,500,,,,,,,VFR,,,,,,,,,,,,SPECI,1475.0
KLEB 171353Z 00000KT 9SM CLR M19/M22 A3041 RMK AO2 SLP316 T11891222,KLEB,2019-01-17T13:53:00Z,43.63,-72.3,-18.9,-22.2,0,0,,9.0,30.410433,1031.6,,,TRUE,,,,,,,CLR,,,,,,,,VFR,,,,,,,,,,,,SPECI,171.0
KLEE 171353Z 36005KT 10SM CLR 10/06 A3028 RMK AO2 SLP253 T01000056,KLEE,2019-01-17T13:53:00Z,28.82,-81.82,10.0,5.6,360,5,,10.0,30.280512,1025.3,,,TRUE,,,,,,,CLR,,,,,,,,VFR,,,,,,,,,,,,METAR,23.0
KLFK 171353Z AUTO 20006KT 6SM BR BKN006 OVC017 14/14 A3011 RMK AO2 RAB1256E29 CIG 004V008 SLP196 P0001 T01440144,KLFK,2019-01-17T13:53:00Z,31.23,-94.75,14.4,14.4,200,6,,6.0,30.109253,1019.6,,TRUE,TRUE,,,,,,BR,BKN,600,OVC,1700,,,,,IFR,,,,,,0.01,,,,,,METAR,88.0
PAKV 171353Z AUTO 06008KT 10SM CLR M10/M15 A2987 RMK SLP122 T11001150 TSNO VIA AUTODIAL,PAKV,2019-01-17T13:53:00Z,64.33,-158.75,-10.0,-15.0,60,8,,10.0,29.870079,1012.2,,TRUE,,,,TRUE,,,,CLR,,,,,,,,VFR,,,,,,,,,,,,METAR,61.0
PAQT 171353Z AUTO 04005KT 10SM CLR M24/M26 A2998 RMK SLP153 T12441261 TSNO $ VIA AUTODIAL,PAQT,2019-01-17T13:53:00Z,70.22,-151.0,-24.4,-26.1,40,5,,10.0,29.97933,1015.3,,TRUE,,TRUE,,TRUE,,,,CLR,,,,,,,,VFR,,,,,,,,,,,,SPECI,12.0
PABR 171353Z AUTO 10010KT 10SM CLR M23/M26 A2994 RMK SLP140 T12281256 FZRANO TSNO $ VIA AUTODIAL,PABR,2019-01-17T13:53:00Z,71.28,-156.77,-22.8,-25.6,100,10,,10.0,29.940945,1014.0,,TRUE,,TRUE,,TRUE,TRUE,,,CLR,,,,,,,,VFR,,,,,,,,,,,,METAR,7.0
KLFT 171353Z 16005KT 10SM OVC045 13/12 A3017 RMK AO2 SLP217 T01330122,KLFT,2019-01-17T13:53:00Z,30.2,-92.0,13.3,12.2,160,5,,10.0,30.171259,1021.7,,,TRUE,,,,,,,OVC,4500,,,,,,,VFR,,,,,,,,,,,,METAR,11.0
KLHX 171353Z AUTO 28010KT 10SM CLR M03/M05 A3008 RMK AO2 SLP196 T10281050,KLHX,2019-01-17T13:53:00Z,38.05,-103.52,-2.8,-5.0,280,10,,10.0,30.079725,1019.6,,TRUE,TRUE,,,,,,,CLR,,,,,,,,VFR,,,,,,,,,,,,SPECI,1277.0
KLMT 171353Z AUTO 16012KT 10SM BKN060 BKN100 02/00 A2960 RMK AO2 SLP024 T00220000,KLMT,2019-01-17T13:53:00Z,42.15,-121.72,2.2,0.0,160,12,,10.0,29.601377,1002.4,,TRUE,TRUE,,,,,,,BKN,6000,BKN,10000,,,,,VFR,,,,,,,,,,,,SPECI,1246.0
KLOL 171353Z AUTO 25006KT 10SM FEW049 FEW060 03/02 A2979 RMK AO2 SLP094 T00330022,KLOL,2019-01-17T13:53:00Z,40.07,-118.57,3.3,2.2,250,6,,10.0,29.790354,1009.4,,TRUE,TRUE,,,,,,,FEW,4900,FEW,6000,,,,,VFR,,,,,,,,,,,,SPECI,1189.0
KLNS 171353Z 06008KT 10SM CLR M03/M09 A3038 RMK AO2 SLP290 T10281089,KLNS,2019-01-17T13:53:00Z,40.12,-76.3,-2.8,-8.9,60,8,,10.0,30.380905,1029.0,,,TRUE,,,,,,,CLR,,,,,,,,VFR,,,,,,,,,,,,SPECI,125.0
KLWD 171353Z AUTO 33004KT 1/2SM FZFG VV002 M03/M03 A3008 RMK AO2 SLP201 I1000 T10281033,KLWD,2019-01-17T13:53:00Z,40.63,-93.9,-2.8,-3.3,330,4,,0.5,30.079725,1020.1,,TRUE,TRUE,,,,,,FZFG,OVX,0,,,,,,,LIFR,,,,,,,,,,,200,METAR,346.0
KLVS 171353Z AUTO 36003KT 10SM CLR M01/M06 A3020 RMK AO2 SLP215 T10111061,KLVS,2019-01-17T13:53:00Z,35.65,-105.13,-1.1,-6.1,360,3,,10.0,30.200787,1021.5,,TRUE,TRUE,,,,,,,CLR,,,,,,,,VFR,,,,,,,,,,,,SPECI,2091.0
KLVM 171353Z AUTO 00000KT 10SM OVC095 M02/M05 A2981 RMK AO2 SLP127 T10171050,KLVM,2019-01-17T13:53:00Z,45.7,-110.43,-1.7,-5.0,0,0,,10.0,29.811024,1012.7,,TRUE,TRUE,,,,,,,OVC,9500,,,,,,,VFR,,,,,,,,,,,,SPECI,1418.0
KLVJ 171353Z AUTO 24009KT 4SM BR OVC006 16/16 A3017 RMK AO2 SLP215 T01610161,KLVJ,2019-01-17T13:53:00Z,29.52,-95.25,16.1,16.1,240,9,,4.0,30.171259,1021.5,,TRUE,TRUE,,,,,,BR,OVC,600,,,,,,,IFR,,,,,,,,,,,,SPECI,12.0
KLSE 171353Z 11003KT 6SM BR SCT022 BKN028 OVC037 M04/M06 A3010 RMK AO2 SNE35 SLP208 P0001 T10441061,KLSE,2019-01-17T13:53:00Z,43.88,-91.25,-4.4,-6.1,110,3,,6.0,30.100393,1020.8,,,TRUE,,,,,,BR,SCT,2200,BKN,2800,OVC,3700,,,MVFR,,,,,,0.01,,,,,,SPECI,199.0
KLPR 171353Z AUTO 14008KT 10SM OVC033 M05/M09 A3021 RMK AO2 SLP242 T10501094,KLPR,2019-01-17T13:53:00Z,41.35,-82.18,-5.0,-9.4,140,8,,10.0,30.209646,1024.2,,TRUE,TRUE,,,,,,,OVC,3300,,,,,,,VFR,,,,,,,,,,,,METAR,241.0
KLOZ 171353Z AUTO 14003KT 10SM SCT034 OVC044 03/01 A3014 RMK AO2 SLP213 T00330011,KLOZ,2019-01-17T13:53:00Z,37.08,-84.07,3.3,1.1,140,3,,10.0,30.138779,1021.3,,TRUE,TRUE,,,,,,,SCT,3400,OVC,4400,,,,,VFR,,,,,,,,,,,,METAR,362.0
KLOU 171353Z 12007KT 7SM OVC031 06/02 A3009 RMK AO2 RAB32E50 SLP192 P0000 T00560017,KLOU,2019-01-17T13:53:00Z,38.22,-85.67,5.6,1.7,120,7,,7.0,30.088583,1019.2,,,TRUE,,,,,,,OVC,3100,,,,,,,VFR,,,,,,0.005,,,,,,METAR,164.0
PAWD 171353Z AUTO 35006KT 10SM BKN046 01/01 A2969 RMK SLP052 T00060006 TSNO VIA AUTODIAL,PAWD,2019-01-17T13:53:00Z,60.12,-149.42,0.6,0.6,350,6,,10.0,29.68996,1005.2,,TRUE,,,,TRUE,,,,BKN,4600,,,,,,,VFR,,,,,,,,,,,,METAR,23.0
KLND 171353Z AUTO 00000KT 9SM FEW070 M11/M14 A2990 RMK AO2 SLP187 T11061139 $,KLND,2019-01-17T13:53:00Z,42.82,-108.73,-10.6,-13.9,0,0,,9.0,29.899607,1018.7,,TRUE,TRUE,TRUE,,,,,,FEW,7000,,,,,,,VFR,,,,,,,,,,,,METAR,1694.0
KMAE 171353Z AUTO 12004KT 10SM SCT060 14/12 A2998 RMK AO2 RAE1257 SLP150 P0000 T01440117,KMAE,2019-01-17T13:53:00Z,36.98,-120.12,14.4,11.7,120,4,,10.0,29.97933,1015.0,,TRUE,TRUE,,,,,,,SCT,6000,,,,,,,VFR,,,,,,0.005,,,,,,SPECI,77.0
KMAI 171353Z AUTO 00000KT 10SM CLR 04/03 A3026 RMK AO2 SLP245 T00390033,KMAI,2019-01-17T13:53:00Z,30.83,-85.18,3.9,3.3,0,0,,10.0,30.259842,1024.5,,TRUE,TRUE,,,,,,,CLR,,,,,,,,VFR,,,,,,,,,,,,METAR,32.0
KMAF 171353Z 27005KT 10SM CLR 04/00 A3020 RMK AO2 SLP210 T00440000,KMAF,2019-01-17T13:53:00Z,31.95,-102.2,4.4,0.0,270,5,,10.0,30.200787,1021.0,,,TRUE,,,,,,,CLR,,,,,,,,VFR,,,,,,,,,,,,SPECI,874.0
KMBS 171353Z 10007KT 10SM OVC026 M07/M10 A3022 RMK AO2 SLP245 T10721100,KMBS,2019-01-17T13:53:00Z,43.53,-84.08,-7.2,-10.0,100,7,,10.0,30.221457,1024.5,,,TRUE,,,,,,,OVC,2600,,,,,,,MVFR,,,,,,,,,,,,SPECI,202.0
KMCI 171353Z 34006KT 1/4SM R19R/2200V3000FT FZFG VV002 M01/M01 A3009 RMK AO2 TWR VIS 1/2 SLP197 I1000 T10061006,KMCI,2019-01-17T13:53:00Z,39.3,-94.73,-0.6,-0.6,340,6,,0.25,30.088583,1019.7,,,TRUE,,,,,,FZFG,OVX,0,,,,,,,LIFR,,,,,,,,,,,200,METAR,320.0
KMCB 171353Z AUTO 16005KT 6SM BR OVC023 08/07 A3020 RMK AO2 RAE36 SLP226 P0001 T00830067,KMCB,2019-01-17T13:53:00Z,31.18,-90.47,8.3,6.7,160,5,,6.0,30.200787,1022.6,,TRUE,TRUE,,,,,,BR,OVC,2300,,,,,,,MVFR,,,,,,0.01,,,,,,METAR,124.0
KDLN 171353Z AUTO 21003KT 10SM CLR M05/M07 A2978 RMK AO2 SLP124 T10501067,KDLN,2019-01-17T13:53:00Z,45.25,-112.55,-5.0,-6.7,210,3,,10.0,29.778543,1012.4,,TRUE,TRUE,,,,,,,CLR,,,,,,,,VFR,,,,,,,,,,,,METAR,1591.0
KCNY 171353Z AUTO 00000KT 1/2SM FZFG VV002 M04/M05 A3015 RMK AO2 SLP242 I1000 T10391050,KCNY,2019-01-17T13:53:00Z,38.77,-109.75,-3.9,-5.0,0,0,,0.5,30.15059,1024.2,,TRUE,TRUE,,,,,,FZFG,OVX,0,,,,,,,LIFR,,,,,,,,,,,200,METAR,1390.0
KCNM 171353Z AUTO 29003KT 10SM CLR 02/M03 A3021 RMK AO2 SLP215 T00171028,KCNM,2019-01-17T13:53:00Z,32.33,-104.25,1.7,-2.8,290,3,,10.0,30.209646,1021.5,,TRUE,TRUE,,,,,,,CLR,,,,,,,,VFR,,,,,,,,,,,,SPECI,985.0
KCMX 171353Z AUTO 19003KT 10SM BKN080 OVC090 M13/M18 A3006 RMK AO2 SLP204 T11331183,KCMX,2019-01-17T13:53:00Z,47.17,-88.48,-13.3,-18.3,190,3,,10.0,30.059055,1020.4,,TRUE,TRUE,,,,,,,BKN,8000,OVC,9000,,,,,VFR,,,,,,,,,,,,METAR,326.0
KCMI 171353Z 09007KT 4SM -RA BR OVC004 01/01 A3004 RMK AO2 SLP178 P0004 T00060006,KCMI,2019-01-17T13:53:00Z,40.03,-88.27,0.6,0.6,90,7,,4.0,30.041338,1017.8,,,TRUE,,,,,,-RA BR,OVC,400,,,,,,,LIFR,,,,,,0.04,,,,,,SPECI,228.0
KCLM 171353Z AUTO 23004KT 10SM BKN090 05/03 A2942 RMK AO2 SLP964 T00500033,KCLM,2019-01-17T13:53:00Z,48.12,-123.5,5.0,3.3,230,4,,10.0,29.421259,996.4,,TRUE,TRUE,,,,,,,BKN,9000,,,,,,,VFR,,,,,,,,,,,,SPECI,85.0
KCLL 171353Z 24008KT 7SM OVC010 14/14 A3014 RMK AO2 CIG 008V014 SLP202 T01440139,KCLL,2019-01-17T13:53:00Z,30.58,-96.37,14.4,13.9,240,8,,7.0,30.138779,1020.2,,,TRUE,,,,,,,OVC,1000,,,,,,,MVFR,,,,,,,,,,,,METAR,96.0
KCKB 171353Z 30003KT 10SM OVC028 01/M03 A3022 RMK AO2 SLP240 T00061028,KCKB,2019-01-17T13:53:00Z,39.3,-80.22,0.6,-2.8,300,3,,10.0,30.221457,1024.0,,,TRUE,,,,,,,OVC,2800,,,,,,,MVFR,,,,,,,,,,,,SPECI,360.0
KMFR 171353Z 19004KT 10SM CLR 07/03 A2957 RMK AO2 RAE1259 SLP013 P0000 T00720033,KMFR,2019-01-17T13:53:00Z,42.38,-122.87,7.2,3.3,190,4,,10.0,29.568897,1001.3,,,TRUE,,,,,,,CLR,,,,,,,,VFR,,,,,,0.005,,,,,,SPECI,396.0
KMDW 171353Z 11005KT 5SM BR OVC011 M01/M03 A3009 RMK AO2 SLP201 T10061028,KMDW,2019-01-17T13:53:00Z,41.78,-87.75,-0.6,-2.8,110,5,,5.0,30.088583,1020.1,,,TRUE,,,,,,BR,OVC,1100,,,,,,,MVFR,,,,,,,,,,,,SPECI,188.0
KMCO 171353Z 36007KT 10SM FEW040 12/08 A3025 RMK AO2 SLP244 T01220083,KMCO,2019-01-17T13:53:00Z,28.42,-81.33,12.2,8.3,360,7,,10.0,30.250984,1024.4,,,TRUE,,,,,,,FEW,4000,,,,,,,VFR,,,,,,,,,,,,METAR,29.0
KMCN 171353Z 00000KT 10SM CLR 02/01 A3026 RMK AO2 SLP247 T00170011,KMCN,2019-01-17T13:53:00Z,32.68,-83.65,1.7,1.1,0,0,,10.0,30.259842,1024.7,,,TRUE,,,,,,,CLR,,,,,,,,VFR,,,,,,,,,,,,METAR,109.0
KMCK 171353Z AUTO 27005KT 6SM BR CLR M04/M06 A3005 RMK AO2 SLP204 T10441056,KMCK,2019-01-17T13:53:00Z,40.2,-100.58,-4.4,-5.6,270,5,,6.0,30.050198,1020.4,,TRUE,TRUE,,,,,,BR,CLR,,,,,,,,VFR,,,,,,,,,,,,SPECI,782.0
KCPS 171353Z 00000KT 1/4SM FG VV003 02/01 A3004 RMK AO2 SLP176 T00170011,KCPS,2019-01-17T13:53:00Z,38.57,-90.15,1.7,1.1,0,0,,0.25,30.041338,1017.6,,,TRUE,,,,,,FG,OVX,0,,,,,,,LIFR,,,,,,,,,,,300,SPECI,126.0
KCPR 171353Z 21015KT 10SM CLR 00/M04 A2995 RMK AO2 SLP156 T00001044 $,KCPR,2019-01-17T13:53:00Z,42.9,-106.47,0.0,-4.4,210,15,,10.0,29.949802,1015.6,,,TRUE,TRUE,,,,,,CLR,,,,,,,,VFR,,,,,,,,,,,,SPECI,1621.0
KCOT 171353Z AUTO 30004KT 6SM BR OVC003 11/11 A3023 RMK AO2 SLP233 T01060106,KCOT,2019-01-17T13:53:00Z,28.45,-99.22,10.6,10.6,300,4,,6.0,30.230314,1023.3,,TRUE,TRUE,,,,,,BR,OVC,300,,,,,,,LIFR,,,,,,,,,,,,SPECI,140.0
KMGW 171353Z 05003KT 10SM OVC031 M01/M04 A3023 RMK AO2 SLP248 T10061039,KMGW,2019-01-17T13:53:00Z,39.65,-79.92,-0.6,-3.9,50,3,,10.0,30.230314,1024.8,,,TRUE,,,,,,,OVC,3100,,,,,,,VFR,,,,,,,,,,,,SPECI,378.0
KMGM 171353Z 00000KT 8SM CLR 05/03 A3023 RMK AO2 SLP237 T00500033,KMGM,2019-01-17T13:53:00Z,32.3,-86.4,5.0,3.3,0,0,,8.0,30.230314,1023.7,,,TRUE,,,,,,,CLR,,,,,,,,VFR,,,,,,,,,,,,METAR,63.0
KRWF 171353Z AUTO 32005KT 10SM OVC033 M09/M12 A3011 RMK AO2 SLP216 T10941117,KRWF,2019-01-17T13:53:00Z,44.55,-95.08,-9.4,-11.7,320,5,,10.0,30.109253,1021.6,,TRUE,TRUE,,,,,,,OVC,3300,,,,,,,VFR,,,,,,,,,,,,SPECI,311.0
KRUE 171353Z AUTO 00000KT 6SM BR OVC040 10/10 A3001 RMK AO2 SLP159 T01000100,KRUE,2019-01-17T13:53:00Z,35.25,-93.1,10.0,10.0,0,0,,6.0,30.008858,1015.9,,TRUE,TRUE,,,,,,BR,OVC,4000,,,,,,,VFR,,,,,,,,,,,,METAR,115.0
KRTN 171353Z AUTO 05007KT 10SM CLR M06/M09 A3016 RMK AO2 SLP219 T10611089,KRTN,2019-01-17T13:53:00Z,36.73,-104.5,-6.1,-8.9,50,7,,10.0,30.159449,1021.9,,TRUE,TRUE,,,,,,,CLR,,,,,,,,VFR,,,,,,,,,,,,SPECI,1936.0
KRSW 171353Z 02006KT 10SM CLR 11/07 A3024 RMK AO2 SLP237 T01110072,KRSW,2019-01-17T13:53:00Z,26.53,-81.75,11.1,7.2,20,6,,10.0,30.239174,1023.7,,,TRUE,,,,,,,CLR,,,,,,,,VFR,,,,,,,,,,,,METAR,10.0
KRQE 171353Z AUTO 00000KT 10SM CLR M07/M08 A3025 RMK AO2 SLP240 T10671078,KRQE,2019-01-17T13:53:00Z,35.65,-109.07,-6.7,-7.8,0,0,,10.0,30.250984,1024.0,,TRUE,TRUE,,,,,,,CLR,,,,,,,,VFR,,,,,,,,,,,,METAR,2055.0
KRNT 171353Z AUTO 00000KT 10SM CLR 09/04 A2946 RMK AO2 SLP980 T00940039,KRNT,2019-01-17T13:53:00Z,47.5,-122.22,9.4,3.9,0,0,,10.0,29.459646,998.0,,TRUE,TRUE,,,,,,,CLR,,,,,,,,VFR,,,,,,,,,,,,METAR,21.0
KRMG 171353Z AUTO 13004KT 4SM BR OVC046 01/M01 A3021 RMK AO2 PRESFR SLP230 T00061006,KRMG,2019-01-17T13:53:00Z,34.35,-85.17,0.6,-0.6,130,4,,4.0,30.209646,1023.0,,TRUE,TRUE,,,,,,BR,OVC,4600,,,,,,,MVFR,,,,,,,,,,,,METAR,193.0
KRME 171353Z 12005KT 10SM CLR M16/M19 A3044 RMK AO2 SLP316 T11561194,KRME,2019-01-17T13:53:00Z,43.22,-75.4,-15.6,-19.4,120,5,,10.0,30.43996,1031.6,,,TRUE,,,,,,,CLR,,,,,,,,VFR,,,,,,,,,,,,SPECI,154.0
KCRE 171353Z 04005KT 10SM CLR 04/03 A3028 RMK AO1 SLP255 T00440028,KCRE,2019-01-17T13:53:00Z,33.82,-78.72,4.4,2.8,40,5,,10.0,30.280512,1025.5,,,TRUE,,,,,,,CLR,,,,,,,,VFR,,,,,,,,,,,,METAR,10.0
KCRG 171353Z 32003KT 9SM CLR 09/07 A3029 RMK AO2 SLP255 T00940072,KCRG,2019-01-17T13:53:00Z,30.33,-81.52,9.4,7.2,320,3,,9.0,30.28937,1025.5,,,TRUE,,,,,,,CLR,,,,,,,,VFR,,,,,,,,,,,,METAR,13.0
KCRS 171353Z AUTO 22009KT 9SM FEW008 13/12 A3010 RMK AO2 SLP191 T01330122,KCRS,2019-01-17T13:53:00Z,32.03,-96.4,13.3,12.2,220,9,,9.0,30.100393,1019.1,,TRUE,TRUE,,,,,,,FEW,800,,,,,,,VFR,,,,,,,,,,,,SPECI,133.0
KCSM 171353Z AUTO 33012KT 8SM OVC007 02/01 A3016 RMK AO2 SLP219 T00170006,KCSM,2019-01-17T13:53:00Z,35.35,-99.2,1.7,0.6,330,12,,8.0,30.159449,1021.9,,TRUE,TRUE,,,,,,,OVC,700,,,,,,,IFR,,,,,,,,,,,,METAR,588.0
KPGA 171353Z AUTO 25004KT 5SM BR BKN005 OVC011 02/02 A3019 RMK AO2 SLP218 T00220017 TSNO,KPGA,2019-01-17T13:53:00Z,36.92,-111.45,2.2,1.7,250,4,,5.0,30.188976,1021.8,,TRUE,TRUE,,,TRUE,,,BR,BKN,500,OVC,1100,,,,,IFR,,,,,,,,,,,,METAR,1307.0
KPEO 171353Z AUTO 22004KT 10SM CLR M11/M12 A3035 RMK AO2 SLP297 T11061122,KPEO,2019-01-17T13:53:00Z,42.65,-77.05,-10.6,-12.2,220,4,,10.0,30.351377,1029.7,,TRUE,TRUE,,,,,,,CLR,,,,,,,,VFR,,,,,,,,,,,,SPECI,256.0
KPDX 171353Z 12013KT 10SM -RA OVC070 06/01 A2946 RMK AO2 RAB51 SLP977 P0000 T00560011,KPDX,2019-01-17T13:53:00Z,45.6,-122.62,5.6,1.1,120,13,,10.0,29.459646,997.7,,,TRUE,,,,,,-RA,OVC,7000,,,,,,,VFR,,,,,,0.005,,,,,,METAR,7.0
KPDK 171353Z 00000KT 3SM BR CLR 02/01 A3018 RMK AO2 SLP235 I1000 T00170006,KPDK,2019-01-17T13:53:00Z,33.88,-84.3,1.7,0.6,0,0,,3.0,30.180119,1023.5,,,TRUE,,,,,,BR,CLR,,,,,,,,MVFR,,,,,,,,,,,,METAR,302.0
KPBI 171353Z 30004KT 10SM SCT040 SCT070 15/12 A3022 RMK AO2 SLP231 T01500117,KPBI,2019-01-17T13:53:00Z,26.68,-80.1,15.0,11.7,300,4,,10.0,30.221457,1023.1,,,TRUE,,,,,,,SCT,4000,SCT,7000,,,,,VFR,,,,,,,,,,,,METAR,6.0
KDEN 171353Z 21017KT 10SM FEW110 FEW160 BKN220 03/M09 A3000 RMK AO2 SLP159 T00331089,KDEN,2019-01-17T13:53:00Z,39.85,-104.65,3.3,-8.9,210,17,,10.0,30.0,1015.9,,,TRUE,,,,,,,FEW,11000,FEW,16000,BKN,22000,,,VFR,,,,,,,,,,,,SPECI,1640.0
KDCU 171353Z AUTO 15009KT 9SM -RA BKN030 OVC039 06/03 A3017 RMK AO2 RAB28 SLP219 P0000 T00610028,KDCU,2019-01-17T13:53:00Z,34.65,-86.95,6.1,2.8,150,9,,9.0,30.171259,1021.9,,TRUE,TRUE,,,,,,-RA,BKN,3000,OVC,3900,,,,,MVFR,,,,,,0.005,,,,,,METAR,176.0
KDBQ 171353Z 09004KT 4SM BR OVC006 M04/M06 A3007 RMK AO2 SLP200 T10391056,KDBQ,2019-01-17T13:53:00Z,42.4,-90.7,-3.9,-5.6,90,4,,4.0,30.070866,1020.0,,,TRUE,,,,,,BR,OVC,600,,,,,,,IFR,,,,,,,,,,,,METAR,326.0
KDAN 171353Z AUTO 09004KT 10SM OVC017 00/M02 A3031 RMK AO2 SLP262 T00001017,KDAN,2019-01-17T13:53:00Z,36.57,-79.33,0.0,-1.7,90,4,,10.0,30.31004,1026.2,,TRUE,TRUE,,,,,,,OVC,1700,,,,,,,MVFR,,,,,,,,,,,,METAR,175.0
KDAB 171353Z 00000KT 10SM FEW044 FEW250 10/09 A3027 RMK AO2 SLP247 T01000089,KDAB,2019-01-17T13:53:00Z,29.18,-81.07,10.0,8.9,0,0,,10.0,30.268702,1024.7,,,TRUE,,,,,,,FEW,4400,FEW,25000,,,,,VFR,,,,,,,,,,,,METAR,9.0
KCYS 171353Z 27018G23KT 10SM CLR 03/M06 A2998 RMK AO2 PK WND 27030/1319 SLP156 T00281061,KCYS,2019-01-17T13:53:00Z,41.15,-104.8,2.8,-6.1,270,18,23,10.0,29.97933,1015.6,,,TRUE,,,,,,,CLR,,,,,,,,VFR,,,,,,,,,,,,SPECI,1868.0
KCXO 171353Z 25007KT 10SM BKN008 OVC013 16/16 A3015 RMK AO2 CIG 007V011 SLP207 T01610161,KCXO,2019-01-17T13:53:00Z,30.35,-95.42,16.1,16.1,250,7,,10.0,30.15059,1020.7,,,TRUE,,,,,,,BKN,800,OVC,1300,,,,,IFR,,,,,,,,,,,,SPECI,75.0
KCUT 171353Z AUTO 32003KT 10SM BKN070 M03/M10 A2990 RMK AO2 SLP160 T10331100,KCUT,2019-01-17T13:53:00Z,43.73,-103.62,-3.3,-10.0,320,3,,10.0,29.899607,1016.0,,TRUE,TRUE,,,,,,,BKN,7000,,,,,,,VFR,,,,,,,,,,,,METAR,1725.0
KCUB 171353Z AUTO 00000KT 8SM CLR 03/01 A3030 RMK AO2 SLP261 T00280006,KCUB,2019-01-17T13:53:00Z,33.97,-81.0,2.8,0.6,0,0,,8.0,30.301182,1026.1,,TRUE,TRUE,,,,,,,CLR,,,,,,,,VFR,,,,,,,,,,,,METAR,56.0
KCSV 171353Z AUTO 00000KT 7SM UP OVC017 03/M01 A3016 RMK AO2 UPB52 SLP222 P0000 T00281006,KCSV,2019-01-17T13:53:00Z,35.95,-85.08,2.8,-0.6,0,0,,7.0,30.159449,1022.2,,TRUE,TRUE,,,,,,UP,OVC,1700,,,,,,,MVFR,,,,,,0.005,,,,,,METAR,570.0
KPGD 171353Z 03008KT 10SM CLR 11/07 A3026 RMK AO2 SLP248 T01110072,KPGD,2019-01-17T13:53:00Z,26.92,-82.0,11.1,7.2,30,8,,10.0,30.259842,1024.8,,,TRUE,,,,,,,CLR,,,,,,,,VFR,,,,,,,,,,,,METAR,7.0
KPHD 171353Z AUTO 10003KT 10SM OVC033 M02/M06 A3024 RMK AO2 SLP250 T10221056,KPHD,2019-01-17T13:53:00Z,40.47,-81.42,-2.2,-5.6,100,3,,10.0,30.239174,1025.0,,TRUE,TRUE,,,,,,,OVC,3300,,,,,,,VFR,,,,,,,,,,,,SPECI,272.0
KPIH 171353Z 18021G29KT 10SM -RA FEW038 OVC044 04/00 A2986 RMK AO2 PK WND 16039/1303 RAB30 SLP114 P0000 T00390000,KPIH,2019-01-17T13:53:00Z,42.92,-112.57,3.9,0.0,180,21,29,10.0,29.861221,1011.4,,,TRUE,,,,,,-RA,FEW,3800,OVC,4400,,,,,VFR,,,,,,0.005,,,,,,SPECI,1359.0
KPIL 171353Z AUTO 36005KT 7SM OVC017 16/14 A3019 RMK AO2 SLP222 T01560139,KPIL,2019-01-17T13:53:00Z,26.17,-97.33,15.6,13.9,360,5,,7.0,30.188976,1022.2,,TRUE,TRUE,,,,,,,OVC,1700,,,,,,,MVFR,,,,,,,,,,,,SPECI,5.0
KPKD 171353Z AUTO 00000KT 9SM CLR M22/M25 A3007 RMK AO2 SLP227 T12221250,KPKD,2019-01-17T13:53:00Z,46.9,-95.07,-22.2,-25.0,0,0,,9.0,30.070866,1022.7,,TRUE,TRUE,,,,,,,CLR,,,,,,,,VFR,,,,,,,,,,,,METAR,442.0
KPKB 171353Z 11003KT 10SM OVC026 00/M02 A3023 RMK AO2 SLP244 T00001022,KPKB,2019-01-17T13:53:00Z,39.35,-81.42,0.0,-2.2,110,3,,10.0,30.230314,1024.4,,,TRUE,,,,,,,OVC,2600,,,,,,,MVFR,,,,,,,,,,,,SPECI,262.0
KPIR 171353Z AUTO 00000KT 7SM OVC004 M09/M09 A3007 RMK AO2 SLP214 T10891089,KPIR,2019-01-17T13:53:00Z,44.38,-100.28,-8.9,-8.9,0,0,,7.0,30.070866,1021.4,,TRUE,TRUE,,,,,,,OVC,400,,,,,,,LIFR,,,,,,,,,,,,METAR,526.0
KPNS 171353Z 06003KT 7SM OVC100 08/06 A3024 RMK AO2 SLP244 T00780056,KPNS,2019-01-17T13:53:00Z,30.48,-87.18,7.8,5.6,60,3,,7.0,30.239174,1024.4,,,TRUE,,,,,,,OVC,10000,,,,,,,VFR,,,,,,,,,,,,METAR,38.0
KPNC 171353Z AUTO 30003KT 8SM OVC009 03/03 A3013 RMK AO2 SLP205 T00330028,KPNC,2019-01-17T13:53:00Z,36.73,-97.1,3.3,2.8,300,3,,8.0,30.129921,1020.5,,TRUE,TRUE,,,,,,,OVC,900,,,,,,,IFR,,,,,,,,,,,,METAR,308.0
KPMP 171353Z 32005KT 8SM CLR 16/12 A3021 RMK AO2 SLP231 T01610117,KPMP,2019-01-17T13:53:00Z,26.25,-80.12,16.1,11.7,320,5,,8.0,30.209646,1023.1,,,TRUE,,,,,,,CLR,,,,,,,,VFR,,,,,,,,,,,,METAR,6.0
KPMD 171353Z 20007KT 10SM -RA SCT040 BKN048 OVC060 12/10 A3004 RMK AO2 SLP162 P0003 T01220100,KPMD,2019-01-17T13:53:00Z,34.63,-118.08,12.2,10.0,200,7,,10.0,30.041338,1016.2,,,TRUE,,,,,,-RA,SCT,4000,BKN,4800,OVC,6000,,,VFR,,,,,,0.03,,,,,,SPECI,780.0
KPSC 171353Z AUTO 30010KT 10SM OVC017 02/ A2963 RMK AO2 RAB01E51 SLP035 P0001 T0017 $,KPSC,2019-01-17T13:53:00Z,46.27,-119.12,1.7,,300,10,,10.0,29.630905,1003.5,,TRUE,TRUE,TRUE,,,,,,OVC,1700,,,,,,,MVFR,,,,,,0.01,,,,,,SPECI,121.0
KPRC 171353Z 17005KT 10SM CLR M01/M02 A3021 RMK AO2 SLP219 T10061017,KPRC,2019-01-17T13:53:00Z,34.65,-112.42,-0.6,-1.7,170,5,,10.0,30.209646,1021.9,,,TRUE,,,,,,,CLR,,,,,,,,VFR,,,,,,,,,,,,SPECI,1524.0
KPRB 171353Z AUTO 00000KT 10SM FEW032 SCT120 13/12 A3001 RMK AO2 SLP158 T01280117,KPRB,2019-01-17T13:53:00Z,35.67,-120.63,12.8,11.7,0,0,,10.0,30.008858,1015.8,,TRUE,TRUE,,,,,,,FEW,3200,SCT,12000,,,,,VFR,,,,,,,,,,,,SPECI,245.0
KPQL 171353Z 00000KT 10SM SCT070 09/06 A3023 RMK AO2 SLP239 T00890061,KPQL,2019-01-17T13:53:00Z,30.47,-88.53,8.9,6.1,0,0,,10.0,30.230314,1023.9,,,TRUE,,,,,,,SCT,7000,,,,,,,VFR,,,,,,,,,,,,METAR,6.0
KPOU 171353Z 02006KT 10SM CLR M07/M17 A3043 RMK AO2 SLP302 T10671167,KPOU,2019-01-17T13:53:00Z,41.63,-73.88,-6.7,-16.7,20,6,,10.0,30.431103,1030.2,,,TRUE,,,,,,,CLR,,,,,,,,VFR,,,,,,,,,,,,SPECI,46.0
KEEO 171353Z AUTO 27010KT 10SM FEW120 01/M04 A3010 RMK AO2 SLP199 T00061039,KEEO,2019-01-17T13:53:00Z,40.05,-107.88,0.6,-3.9,270,10,,10.0,30.100393,1019.9,,TRUE,TRUE,,,,,,,FEW,12000,,,,,,,VFR,,,,,,,,,,,,SPECI,1930.0
KECP 171353Z 00000KT 10SM CLR 07/05 A3026 RMK AO2 RAB39E48 SLP259 P0000 T00670050,KECP,2019-01-17T13:53:00Z,30.35,-85.8,6.7,5.0,0,0,,10.0,30.259842,1025.9,,,TRUE,,,,,,,CLR,,,,,,,,VFR,,,,,,0.005,,,,,,METAR,21.0
KDXR 171353Z VRB04KT 10SM CLR M07/M16 A3040 RMK AO2 SLP299 T10671161,KDXR,2019-01-17T13:53:00Z,41.37,-73.48,-6.7,-16.1,0,4,,10.0,30.398623,1029.9,,,TRUE,,,,,,,CLR,,,,,,,,VFR,,,,,,,,,,,,METAR,139.0
KDWH 171353Z 25009KT 10SM OVC009 15/14 A3015 RMK AO2 SLP208 T01500144,KDWH,2019-01-17T13:53:00Z,30.07,-95.55,15.0,14.4,250,9,,10.0,30.15059,1020.8,,,TRUE,,,,,,,OVC,900,,,,,,,IFR,,,,,,,,,,,,SPECI,46.0
KDVT 171353Z 00000KT 10SM CLR 07/06 A3016 RMK AO2 SLP207 T00720061,KDVT,2019-01-17T13:53:00Z,33.68,-112.07,7.2,6.1,0,0,,10.0,30.159449,1020.7,,,TRUE,,,,,,,CLR,,,,,,,,VFR,,,,,,,,,,,,SPECI,443.0
KDUJ 171353Z AUTO 10006KT 10SM CLR M11/M12 A3022 RMK AO2 SLP263 T11061122,KDUJ,2019-01-17T13:53:00Z,41.17,-78.9,-10.6,-12.2,100,6,,10.0,30.221457,1026.3,,TRUE,TRUE,,,,,,,CLR,,,,,,,,VFR,,,,,,,,,,,,SPECI,554.0
KDTW 171353Z 11004KT 8SM SCT015 OVC040 M04/M08 A3021 RMK AO2 SLP239 T10391078,KDTW,2019-01-17T13:53:00Z,42.23,-83.33,-3.9,-7.8,110,4,,8.0,30.209646,1023.9,,,TRUE,,,,,,,SCT,1500,OVC,4000,,,,,VFR,,,,,,,,,,,,METAR,195.0
KDTS 171353Z 00000KT 10SM CLR 09/07 A3027 RMK AO2 SLP248 T00890072,KDTS,2019-01-17T13:53:00Z,30.4,-86.47,8.9,7.2,0,0,,10.0,30.268702,1024.8,,,TRUE,,,,,,,CLR,,,,,,,,VFR,,,,,,,,,,,,METAR,5.0
KDTO 171353Z 32012KT 10SM OVC012 10/08 A3010 RMK AO2 SLP189 T01000078,KDTO,2019-01-17T13:53:00Z,33.2,-97.2,10.0,7.8,320,12,,10.0,30.100393,1018.9,,,TRUE,,,,,,,OVC,1200,,,,,,,MVFR,,,,,,,,,,,,SPECI,196.0
KDTN 171353Z AUTO 20011KT 9SM OVC007 15/13 A3005 RMK AO2 SLP175 T01500133,KDTN,2019-01-17T13:53:00Z,32.55,-93.75,15.0,13.3,200,11,,9.0,30.050198,1017.5,,TRUE,TRUE,,,,,,,OVC,700,,,,,,,IFR,,,,,,,,,,,,METAR,53.0
KDRT 171353Z AUTO 30004KT 2 1/2SM BR OVC004 11/11 A3022 RMK AO2 SLP228 T01060106,KDRT,2019-01-17T13:53:00Z,29.37,-100.92,10.6,10.6,300,4,,2.5,30.221457,1022.8,,TRUE,TRUE,,,,,,BR,OVC,400,,,,,,,LIFR,,,,,,,,,,,,METAR,313.0
KDRO 171353Z AUTO 00000KT 10SM CLR M09/M09 A3024 RMK AO2 SLP281 T10891089,KDRO,2019-01-17T13:53:00Z,37.15,-107.77,-8.9,-8.9,0,0,,10.0,30.239174,1028.1,,TRUE,TRUE,,,,,,,CLR,,,,,,,,VFR,,,,,,,,,,,,SPECI,2035.0
KDNL 171353Z AUTO 00000KT 10SM CLR 04/01 A3027 RMK AO2 SLP252 T00440011 TSNO,KDNL,2019-01-17T13:53:00Z,33.47,-82.03,4.4,1.1,0,0,,10.0,30.268702,1025.2,,TRUE,TRUE,,,TRUE,,,,CLR,,,,,,,,VFR,,,,,,,,,,,,METAR,130.0
KDMO 171353Z AUTO 33005KT M1/4SM FZFG VV002 M01/M01 A3007 RMK AO2 SLP192 T10061006,KDMO,2019-01-17T13:53:00Z,38.72,-93.17,-0.6,-0.6,330,5,,0.25,30.070866,1019.2,,TRUE,TRUE,,,,,,FZFG,OVX,0,,,,,,,LIFR,,,,,,,,,,,200,METAR,274.0
KDMN 171353Z AUTO 30005KT 10SM CLR M02/M04 A3027 RMK AO2 SLP238 T10221039,KDMN,2019-01-17T13:53:00Z,32.27,-107.72,-2.2,-3.9,300,5,,10.0,30.268702,1023.8,,TRUE,TRUE,,,,,,,CLR,,,,,,,,VFR,,,,,,,,,,,,METAR,1311.0
KDLS 171353Z AUTO 00000KT 3SM BR FEW011 OVC019 00/M01 A2966 RMK AO2 SLP047 T00001006,KDLS,2019-01-17T13:53:00Z,45.62,-121.17,0.0,-0.6,0,0,,3.0,29.660433,1004.7,,TRUE,TRUE,,,,,,BR,FEW,1100,OVC,1900,,,,,MVFR,,,,,,,,,,,,SPECI,71.0
KDKK 171353Z AUTO 13006KT 10SM CLR M09/M12 A3031 RMK AO2 SLP278 T10941117,KDKK,2019-01-17T13:53:00Z,42.5,-79.28,-9.4,-11.7,130,6,,10.0,30.31004,1027.8,,TRUE,TRUE,,,,,,,CLR,,,,,,,,VFR,,,,,,,,,,,,METAR,202.0
KDHT 171353Z AUTO 31007KT 10SM CLR 01/M06 A3014 RMK AO2 SLP200 T00061056,KDHT,2019-01-17T13:53:00Z,36.02,-102.55,0.6,-5.6,310,7,,10.0,30.138779,1020.0,,TRUE,TRUE,,,,,,,CLR,,,,,,,,VFR,,,,,,,,,,,,SPECI,1217.0
KDHN 171353Z 00000KT 10SM CLR 06/03 A3028 RMK AO2 SLP255 T00610028,KDHN,2019-01-17T13:53:00Z,31.32,-85.45,6.1,2.8,0,0,,10.0,30.280512,1025.5,,,TRUE,,,,,,,CLR,,,,,,,,VFR,,,,,,,,,,,,METAR,113.0
KDFI 171353Z AUTO 09007KT 9SM BKN017 OVC024 M03/M06 A3016 RMK AO2 SLP222 T10331056,KDFI,2019-01-17T13:53:00Z,41.33,-84.43,-3.3,-5.6,90,7,,9.0,30.159449,1022.2,,TRUE,TRUE,,,,,,,BKN,1700,OVC,2400,,,,,MVFR,,,,,,,,,,,,METAR,219.0
KDET 171353Z 12007KT 10SM OVC016 M03/M07 A3022 RMK AO2 SLP243 T10331072,KDET,2019-01-17T13:53:00Z,42.4,-83.02,-3.3,-7.2,120,7,,10.0,30.221457,1024.3,,,TRUE,,,,,,,OVC,1600,,,,,,,MVFR,,,,,,,,,,,,METAR,190.0
KPSX 171353Z AUTO 23005KT 10SM OVC009 16/15 A3019 RMK AO2 SLP221 T01560150,KPSX,2019-01-17T13:53:00Z,28.72,-96.25,15.6,15.0,230,5,,10.0,30.188976,1022.1,,TRUE,TRUE,,,,,,,OVC,900,,,,,,,IFR,,,,,,,,,,,,SPECI,5.0
KPSP 171353Z AUTO 00000KT 3SM BR FEW035 OVC050 13/12 A3014 RMK AO2 RAB1255E13B41E50 SLP208 P0000 T01280117,KPSP,2019-01-17T13:53:00Z,33.82,-116.5,12.8,11.7,0,0,,3.0,30.138779,1020.8,,TRUE,TRUE,,,,,,BR,FEW,3500,OVC,5000,,,,,MVFR,,,,,,0.005,,,,,,SPECI,135.0
KGPT 171353Z 31004KT 6SM BR OVC055 09/07 A3024 RMK AO2 SLP238 T00890072,KGPT,2019-01-17T13:53:00Z,30.42,-89.08,8.9,7.2,310,4,,6.0,30.239174,1023.8,,,TRUE,,,,,,BR,OVC,5500,,,,,,,VFR,,,,,,,,,,,,METAR,14.0
KGOK 171353Z AUTO 31006KT 6SM BR OVC008 04/03 A3014 RMK AO2 CIG 007V013 SLP213 T00390028,KGOK,2019-01-17T13:53:00Z,35.85,-97.4,3.9,2.8,310,6,,6.0,30.138779,1021.3,,TRUE,TRUE,,,,,,BR,OVC,800,,,,,,,IFR,,,,,,,,,,,,METAR,324.0
KGNV 171353Z 00000KT 9SM CLR 09/04 A3031 RMK AO2 SLP266 T00890044,KGNV,2019-01-17T13:53:00Z,29.7,-82.28,8.9,4.4,0,0,,9.0,30.31004,1026.6,,,TRUE,,,,,,,CLR,,,,,,,,VFR,,,,,,,,,,,,METAR,45.0
PHLI 171353Z AUTO 22010G18KT 10SM FEW039 BKN060 23/18 A2987 RMK AO2 RAB01E16 SLP113 P0000 T02280178 TSNO $,PHLI,2019-01-17T13:53:00Z,21.97,-159.33,22.8,17.8,220,10,18,10.0,29.870079,1011.3,,TRUE,TRUE,TRUE,,TRUE,,,,FEW,3900,BKN,6000,,,,,VFR,,,,,,0.005,,,,,,METAR,45.0
PHKO 171353Z AUTO 16004KT 10SM BKN055 22/13 A2993 RMK AO2 SLP135 T02220128 TSNO,PHKO,2019-01-17T13:53:00Z,19.73,-156.05,22.2,12.8,160,4,,10.0,29.929134,1013.5,,TRUE,TRUE,,,TRUE,,,,BKN,5500,,,,,,,VFR,,,,,,,,,,,,METAR,27.0
PHTO 171353Z AUTO 00000KT 10SM OVC055 20/14 A2994 RMK AO2 SLP136 T02000139 TSNO,PHTO,2019-01-17T13:53:00Z,19.72,-155.05,20.0,13.9,0,0,,10.0,29.940945,1013.6,,TRUE,TRUE,,,TRUE,,,,OVC,5500,,,,,,,VFR,,,,,,,,,,,,METAR,12.0
KEET 171353Z AUTO 00000KT 6SM -RA BR BKN033 BKN070 OVC095 04/02 A3022 RMK AO2 RAB31 SLP236 P0000 T00390022,KEET,2019-01-17T13:53:00Z,33.18,-86.78,3.9,2.2,0,0,,6.0,30.221457,1023.6,,TRUE,TRUE,,,,,,-RA BR,BKN,3300,BKN,7000,OVC,9500,,,VFR,,,,,,0.005,,,,,,METAR,173.0
KGRB 171353Z 10003KT 10SM OVC035 M06/M08 A3013 RMK AO2 SLP217 T10561083,KGRB,2019-01-17T13:53:00Z,44.48,-88.13,-5.6,-8.3,100,3,,10.0,30.129921,1021.7,,,TRUE,,,,,,,OVC,3500,,,,,,,VFR,,,,,,,,,,,,METAR,208.0
KGRR 171353Z 11006KT 10SM BKN032 OVC080 M05/M08 A3015 RMK AO2 SLP222 T10501078,KGRR,2019-01-17T13:53:00Z,42.88,-85.52,-5.0,-7.8,110,6,,10.0,30.15059,1022.2,,,TRUE,,,,,,,BKN,3200,OVC,8000,,,,,VFR,,,,,,,,,,,,METAR,237.0
KGTF 171353Z 22005KT 2 1/2SM -SN BR OVC003 M07/M08 A2997 RMK AO2 SFC VIS 4 SNB27 SLP211 P0000 T10671078 $,KGTF,2019-01-17T13:53:00Z,47.47,-111.38,-6.7,-7.8,220,5,,2.5,29.970472,1021.1,,,TRUE,TRUE,,,,,-SN BR,OVC,300,,,,,,,LIFR,,,,,,0.005,,,,,,SPECI,1119.0
KSNY 171353Z AUTO 28011KT 10SM CLR M03/M06 A3000 RMK AO2 SLP193 T10281061 $,KSNY,2019-01-17T13:53:00Z,41.1,-102.98,-2.8,-6.1,280,11,,10.0,30.0,1019.3,,TRUE,TRUE,TRUE,,,,,,CLR,,,,,,,,VFR,,,,,,,,,,,,SPECI,1307.0
KSPB 171353Z AUTO 28003KT 10SM -RA OVC060 04/03 A2947 RMK AO2 RAB1259 SLP978 P0001 T00440028,KSPB,2019-01-17T13:53:00Z,45.77,-122.87,4.4,2.8,280,3,,10.0,29.471457,997.8,,TRUE,TRUE,,,,,,-RA,OVC,6000,,,,,,,VFR,,,,,,0.01,,,,,,SPECI,14.0
KGSP 171353Z 03006KT 10SM CLR 02/M01 A3027 RMK AO2 SLP255 T00221011,KGSP,2019-01-17T13:53:00Z,34.9,-82.22,2.2,-1.1,30,6,,10.0,30.268702,1025.5,,,TRUE,,,,,,,CLR,,,,,,,,VFR,,,,,,,,,,,,METAR,287.0
KSTP 171353Z 25004KT 9SM BKN025 OVC042 M07/M11 A3010 RMK AO2 SLP205 T10671106,KSTP,2019-01-17T13:53:00Z,44.93,-93.05,-6.7,-10.6,250,4,,9.0,30.100393,1020.5,,,TRUE,,,,,,,BKN,2500,OVC,4200,,,,,MVFR,,,,,,,,,,,,SPECI,219.0
KSTC 171353Z 32005KT 10SM OVC040 M13/M17 A3009 RMK AO2 SLP222 T11331172,KSTC,2019-01-17T13:53:00Z,45.55,-94.05,-13.3,-17.2,320,5,,10.0,30.088583,1022.2,,,TRUE,,,,,,,OVC,4000,,,,,,,VFR,,,,,,,,,,,,METAR,314.0
KSSI 171353Z AUTO 29003KT 10SM CLR 09/06 A3030 RMK AO2 PRESRR SLP260 T00890061,KSSI,2019-01-17T13:53:00Z,31.15,-81.38,8.9,6.1,290,3,,10.0,30.301182,1026.0,,TRUE,TRUE,,,,,,,CLR,,,,,,,,VFR,,,,,,,,,,,,METAR,6.0
KTCC 171353Z AUTO 00000KT 10SM CLR M01/M04 A3013 RMK AO2 SLP199 T10111044,KTCC,2019-01-17T13:53:00Z,35.18,-103.6,-1.1,-4.4,0,0,,10.0,30.129921,1019.9,,TRUE,TRUE,,,,,,,CLR,,,,,,,,VFR,,,,,,,,,,,,METAR,1235.0
KGUY 171353Z AUTO 20004KT 10SM CLR 00/M03 A3011 RMK AO2 SLP204 T00001033,KGUY,2019-01-17T13:53:00Z,36.68,-101.5,0.0,-3.3,200,4,,10.0,30.109253,1020.4,,TRUE,TRUE,,,,,,,CLR,,,,,,,,VFR,,,,,,,,,,,,METAR,948.0
KGVL 171353Z AUTO 10010KT 10SM CLR 03/01 A3021 RMK AO2 SLP234 T00280011,KGVL,2019-01-17T13:53:00Z,34.27,-83.83,2.8,1.1,100,10,,10.0,30.209646,1023.4,,TRUE,TRUE,,,,,,,CLR,,,,,,,,VFR,,,,,,,,,,,,METAR,386.0
KGWO 171353Z AUTO 19010KT 10SM OVC026 10/08 A3013 RMK AO2 SLP202 T01000083,KGWO,2019-01-17T13:53:00Z,33.5,-90.08,10.0,8.3,190,10,,10.0,30.129921,1020.2,,TRUE,TRUE,,,,,,,OVC,2600,,,,,,,MVFR,,,,,,,,,,,,METAR,44.0
KGZH 171353Z AUTO 00000KT 10SM CLR 03/02 A3024 RMK AO2 SLP242 T00330022,KGZH,2019-01-17T13:53:00Z,31.42,-87.05,3.3,2.2,0,0,,10.0,30.239174,1024.2,,TRUE,TRUE,,,,,,,CLR,,,,,,,,VFR,,,,,,,,,,,,METAR,78.0
KHFD 171353Z 35005KT 10SM CLR M06/M21 A3043 RMK AO2 SLP303 T10561206,KHFD,2019-01-17T13:53:00Z,41.73,-72.65,-5.6,-20.6,350,5,,10.0,30.431103,1030.3,,,TRUE,,,,,,,CLR,,,,,,,,VFR,,,,,,,,,,,,SPECI,4.0
KHEI 171353Z AUTO 00000KT 3SM BR OVC003 M06/M07 A3001 RMK AO2 SLP204 T10561067,KHEI,2019-01-17T13:53:00Z,46.02,-102.65,-5.6,-6.7,0,0,,3.0,30.008858,1020.4,,TRUE,TRUE,,,,,,BR,OVC,300,,,,,,,LIFR,,,,,,,,,,,,SPECI,828.0
KHBG 171353Z AUTO 00000KT 10SM OVC046 08/07 A3024 RMK AO2 SLP241 T00830067,KHBG,2019-01-17T13:53:00Z,31.27,-89.25,8.3,6.7,0,0,,10.0,30.239174,1024.1,,TRUE,TRUE,,,,,,,OVC,4600,,,,,,,VFR,,,,,,,,,,,,METAR,44.0
KHGR 171353Z 03005KT 10SM OVC036 00/M08 A3032 RMK AO2 SLP285 T00001078,KHGR,2019-01-17T13:53:00Z,39.7,-77.73,0.0,-7.8,30,5,,10.0,30.318897,1028.5,,,TRUE,,,,,,,OVC,3600,,,,,,,VFR,,,,,,,,,,,,METAR,224.0
KSPG 171353Z 02007KT 10SM CLR 12/07 A3025 RMK AO2 SLP243 T01220072,KSPG,2019-01-17T13:53:00Z,27.77,-82.63,12.2,7.2,20,7,,10.0,30.250984,1024.3,,,TRUE,,,,,,,CLR,,,,,,,,VFR,,,,,,,,,,,,METAR,2.0
KHJO 171353Z AUTO 15009KT 10SM SCT015 14/13 A2999 RMK AO2 SLP158 T01390128,KHJO,2019-01-17T13:53:00Z,36.32,-119.62,13.9,12.8,150,9,,10.0,29.991142,1015.8,,TRUE,TRUE,,,,,,,SCT,1500,,,,,,,VFR,,,,,,,,,,,,SPECI,74.0
KHIO 171353Z 00000KT 10SM -RA OVC060 03/03 A2945 RMK AO2 RAE08B26 SLP975 P0000 T00330028,KHIO,2019-01-17T13:53:00Z,45.55,-122.95,3.3,2.8,0,0,,10.0,29.450787,997.5,,,TRUE,,,,,,-RA,OVC,6000,,,,,,,VFR,,,,,,0.005,,,,,,SPECI,68.0
KTIW 171353Z AUTO 00000KT 10SM SCT070 06/03 A2946 RMK AO2 SLP976 T00610033,KTIW,2019-01-17T13:53:00Z,47.27,-122.58,6.1,3.3,0,0,,10.0,29.459646,997.6,,TRUE,TRUE,,,,,,,SCT,7000,,,,,,,VFR,,,,,,,,,,,,SPECI,89.0
KTHV 171353Z AUTO 06005KT 10SM OVC045 M02/M08 A3036 RMK AO2 SLP289 T10221078,KTHV,2019-01-17T13:53:00Z,39.92,-76.88,-2.2,-7.8,60,5,,10.0,30.360237,1028.9,,TRUE,TRUE,,,,,,,OVC,4500,,,,,,,VFR,,,,,,,,,,,,SPECI,144.0
KTDZ 171353Z AUTO 10009KT 10SM OVC034 M03/M07 A3019 RMK AO2 SLP230 T10331067,KTDZ,2019-01-17T13:53:00Z,41.57,-83.48,-3.3,-6.7,100,9,,10.0,30.188976,1023.0,,TRUE,TRUE,,,,,,,OVC,3400,,,,,,,VFR,,,,,,,,,,,,SPECI,189.0
KTCS 171353Z AUTO 30007KT 10SM CLR 02/M02 A3027 RMK AO2 SLP227 T00171022 $,KTCS,2019-01-17T13:53:00Z,33.23,-107.27,1.7,-2.2,300,7,,10.0,30.268702,1022.7,,TRUE,TRUE,TRUE,,,,,,CLR,,,,,,,,VFR,,,,,,,,,,,,METAR,1469.0
KHKY 171353Z 00000KT 10SM CLR 00/M01 A3027 RMK AO2 SLP247 T00001011,KHKY,2019-01-17T13:53:00Z,35.75,-81.38,0.0,-1.1,0,0,,10.0,30.268702,1024.7,,,TRUE,,,,,,,CLR,,,,,,,,VFR,,,,,,,,,,,,METAR,354.0
KHLN 171353Z 27006KT 10SM BKN021 OVC075 M06/M09 A2990 RMK AO2 SLP185 T10561089,KHLN,2019-01-17T13:53:00Z,46.6,-111.98,-5.6,-8.9,270,6,,10.0,29.899607,1018.5,,,TRUE,,,,,,,BKN,2100,OVC,7500,,,,,MVFR,,,,,,,,,,,,METAR,1182.0
KHLG 171353Z 09006KT 9SM OVC031 M02/M05 A3022 RMK AO2 SLP251 T10221050,KHLG,2019-01-17T13:53:00Z,40.17,-80.65,-2.2,-5.0,90,6,,9.0,30.221457,1025.1,,,TRUE,,,,,,,OVC,3100,,,,,,,VFR,,,,,,,,,,,,SPECI,372.0
KTOI 171353Z AUTO 00000KT 4SM BR CLR 02/01 A3024 RMK AO2 SLP243 T00170006,KTOI,2019-01-17T13:53:00Z,31.85,-86.02,1.7,0.6,0,0,,4.0,30.239174,1024.3,,TRUE,TRUE,,,,,,BR,CLR,,,,,,,,MVFR,,,,,,,,,,,,SPECI,118.0
KTMB 171353Z 02006KT 10SM CLR 17/12 A3021 RMK AO2 SLP229 T01670122,KTMB,2019-01-17T13:53:00Z,25.65,-80.43,16.7,12.2,20,6,,10.0,30.209646,1022.9,,,TRUE,,,,,,,CLR,,,,,,,,VFR,,,,,,,,,,,,METAR,2.0
KTLH 171353Z 00000KT 10SM FEW250 03/02 A3028 RMK AO2 SLP254 T00330017,KTLH,2019-01-17T13:53:00Z,30.4,-84.35,3.3,1.7,0,0,,10.0,30.280512,1025.4,,,TRUE,,,,,,,FEW,25000,,,,,,,VFR,,,,,,,,,,,,METAR,19.0
KTKI 171353Z 29008KT 10SM CLR 11/09 A3007 RMK AO2 SLP189 T01110094,KTKI,2019-01-17T13:53:00Z,33.18,-96.58,11.1,9.4,290,8,,10.0,30.070866,1018.9,,,TRUE,,,,,,,CLR,,,,,,,,VFR,,,,,,,,,,,,SPECI,179.0
KHOU 171353Z 24014KT 4SM BR OVC006 16/15 A3015 RMK AO2 DZE13 SLP213 P0000 T01610150,KHOU,2019-01-17T13:53:00Z,29.63,-95.28,16.1,15.0,240,14,,4.0,30.15059,1021.3,,,TRUE,,,,,,BR,OVC,600,,,,,,,IFR,,,,,,0.005,,,,,,SPECI,36.0
KHQM 171353Z AUTO 05014KT 10SM OVC060 08/06 A2936 RMK AO2 RAE16 SLP947 P0000 T00830056,KHQM,2019-01-17T13:53:00Z,46.97,-123.93,8.3,5.6,50,14,,10.0,29.359253,994.7,,TRUE,TRUE,,,,,,,OVC,6000,,,,,,,VFR,,,,,,0.005,,,,,,SPECI,7.0
KHRI 171353Z AUTO 20004KT 8SM -RA OVC011 02/01 A2961 RMK AO2 RAB51 SLP032 P0000 T00170006,KHRI,2019-01-17T13:53:00Z,45.83,-119.27,1.7,0.6,200,4,,8.0,29.610237,1003.2,,TRUE,TRUE,,,,,,-RA,OVC,1100,,,,,,,MVFR,,,,,,0.005,,,,,,SPECI,195.0
KHSV 171353Z 16007KT 10SM -RA OVC029 06/03 A3017 RMK AO2 RAB42 SLP218 P0000 T00610033,KHSV,2019-01-17T13:53:00Z,34.65,-86.78,6.1,3.3,160,7,,10.0,30.171259,1021.8,,,TRUE,,,,,,-RA,OVC,2900,,,,,,,MVFR,,,,,,0.005,,,,,,METAR,191.0
KLXV 171353Z AUTO 03012G21KT 10SM CLR M03/M12 A3012 RMK AO2 SLP168 T10331117,KLXV,2019-01-17T13:53:00Z,39.23,-106.32,-3.3,-11.7,30,12,21,10.0,30.121063,1016.8,,TRUE,TRUE,,,,,,,CLR,,,,,,,,VFR,,,,,,,,,,,,METAR,3028.0
KTOP 171353Z 32004KT 5SM BR OVC003 00/M02 A3010 RMK AO2 SLP202 T00001017,KTOP,2019-01-17T13:53:00Z,39.07,-95.63,0.0,-1.7,320,4,,5.0,30.100393,1020.2,,,TRUE,,,,,,BR,OVC,300,,,,,,,LIFR,,,,,,,,,,,,METAR,268.0
KONO 171353Z AUTO 00000KT 10SM OVC045 05/03 A2969 RMK AO2 RAE02B23E48 SLP067 P0000 T00500028,KONO,2019-01-17T13:53:00Z,44.02,-117.02,5.0,2.8,0,0,,10.0,29.68996,1006.7,,TRUE,TRUE,,,,,,,OVC,4500,,,,,,,VFR,,,,,,0.005,,,,,,SPECI,667.0
KOPF 171353Z 34005KT 10SM FEW030 16/11 A3022 RMK AO2 SLP234 T01560111,KOPF,2019-01-17T13:53:00Z,25.92,-80.28,15.6,11.1,340,5,,10.0,30.221457,1023.4,,,TRUE,,,,,,,FEW,3000,,,,,,,VFR,,,,,,,,,,,,METAR,16.0
KOJC 171353Z 35006KT 3SM BR OVC002 M01/M01 A3008 RMK AO2 SLP195 T10061006,KOJC,2019-01-17T13:53:00Z,38.85,-94.73,-0.6,-0.6,350,6,,3.0,30.079725,1019.5,,,TRUE,,,,,,BR,OVC,200,,,,,,,LIFR,,,,,,,,,,,,METAR,326.0
KOGD 171353Z 18013KT 10SM OVC070 05/M01 A2994 RMK AO2 RAB23E35 SLP137 P0000 T00501011,KOGD,2019-01-17T13:53:00Z,41.2,-112.02,5.0,-1.1,180,13,,10.0,29.940945,1013.7,,,TRUE,,,,,,,OVC,7000,,,,,,,VFR,,,,,,0.005,,,,,,SPECI,1353.0
KOGB 171353Z AUTO 00000KT 10SM CLR 03/01 A3027 RMK AO2 SLP249 T00280011,KOGB,2019-01-17T13:53:00Z,33.47,-80.85,2.8,1.1,0,0,,10.0,30.268702,1024.9,,TRUE,TRUE,,,,,,,CLR,,,,,,,,VFR,,,,,,,,,,,,METAR,59.0
KODO 171353Z AUTO 28005KT 10SM CLR 04/M01 A3020 RMK AO2 SLP209 T00391011,KODO,2019-01-17T13:53:00Z,31.92,-102.4,3.9,-1.1,280,5,,10.0,30.200787,1020.9,,TRUE,TRUE,,,,,,,CLR,,,,,,,,VFR,,,,,,,,,,,,SPECI,902.0
KOAK 171353Z 18010KT 10SM FEW036 BKN050 OVC070 14/11 A2991 RMK AO2 SLP129 T01390106,KOAK,2019-01-17T13:53:00Z,37.72,-122.23,13.9,10.6,180,10,,10.0,29.911417,1012.9,,,TRUE,,,,,,,FEW,3600,BKN,5000,OVC,7000,,,VFR,,,,,,,,,,,,SPECI,26.0
KMYV 171353Z AUTO 15015G23KT 10SM FEW047 12/10 A2985 RMK AO2 SLP113 T01220100,KMYV,2019-01-17T13:53:00Z,39.1,-121.57,12.2,10.0,150,15,23,10.0,29.84941,1011.3,,TRUE,TRUE,,,,,,,FEW,4700,,,,,,,VFR,,,,,,,,,,,,SPECI,21.0
KMYF 171353Z 12006KT 10SM FEW019 BKN024 14/12 A3016 RMK AO2 SLP212 T01390117,KMYF,2019-01-17T13:53:00Z,32.82,-117.13,13.9,11.7,120,6,,10.0,30.159449,1021.2,,,TRUE,,,,,,,FEW,1900,BKN,2400,,,,,MVFR,,,,,,,,,,,,SPECI,136.0
KMVY 171353Z 34010KT 10SM CLR M04/M15 A3037 RMK AO2 SLP285 T10391150,KMVY,2019-01-17T13:53:00Z,41.4,-70.62,-3.9,-15.0,340,10,,10.0,30.369095,1028.5,,,TRUE,,,,,,,CLR,,,,,,,,VFR,,,,,,,,,,,,METAR,16.0
KMTH 171353Z AUTO 03010KT 10SM CLR 19/14 A3020 RMK AO2 SLP224 T01890139,KMTH,2019-01-17T13:53:00Z,24.73,-81.05,18.9,13.9,30,10,,10.0,30.200787,1022.4,,TRUE,TRUE,,,,,,,CLR,,,,,,,,VFR,,,,,,,,,,,,METAR,2.0
KINK 171353Z AUTO 28007KT 10SM CLR 02/M02 A3020 RMK AO2 SLP216 T00171017,KINK,2019-01-17T13:53:00Z,31.78,-103.2,1.7,-1.7,280,7,,10.0,30.200787,1021.6,,TRUE,TRUE,,,,,,,CLR,,,,,,,,VFR,,,,,,,,,,,,SPECI,855.0
KIML 171353Z AUTO 30004KT 10SM CLR M06/M08 A3002 RMK AO2 SLP202 T10561083,KIML,2019-01-17T13:53:00Z,40.52,-101.62,-5.6,-8.3,300,4,,10.0,30.02067,1020.2,,TRUE,TRUE,,,,,,,CLR,,,,,,,,VFR,,,,,,,,,,,,METAR,998.0
KIDA 171353Z 21006KT 10SM BKN028 BKN042 OVC049 02/00 A2988 RMK AO2 RAB05E47 SLP133 P0000 T00220000,KIDA,2019-01-17T13:53:00Z,43.52,-112.07,2.2,0.0,210,6,,10.0,29.878937,1013.3,,,TRUE,,,,,,,BKN,2800,BKN,4200,OVC,4900,,,MVFR,,,,,,0.005,,,,,,SPECI,1453.0
KICT 171353Z 34007KT 10SM OVC006 01/00 A3012 RMK AO2 SLP206 T00110000,KICT,2019-01-17T13:53:00Z,37.65,-97.43,1.1,0.0,340,7,,10.0,30.121063,1020.6,,,TRUE,,,,,,,OVC,600,,,,,,,IFR,,,,,,,,,,,,METAR,407.0
KICR 171353Z AUTO 00000KT 5SM BR OVC003 M07/M08 A3006 RMK AO2 SLP209 I1001 T10671083 $,KICR,2019-01-17T13:53:00Z,43.38,-99.85,-6.7,-8.3,0,0,,5.0,30.059055,1020.9,,TRUE,TRUE,TRUE,,,,,BR,OVC,300,,,,,,,LIFR,,,,,,,,,,,,METAR,621.0
KIAH 171353Z 23010G16KT 10SM OVC009 16/15 A3014 RMK AO2 SLP205 T01610150,KIAH,2019-01-17T13:53:00Z,30.0,-95.37,16.1,15.0,230,10,16,10.0,30.138779,1020.5,,,TRUE,,,,,,,OVC,900,,,,,,,IFR,,,,,,,,,,,,SPECI,36.0
KIAG 171353Z 11004KT 10SM CLR M12/M14 A3033 RMK AO2 SLP297 T11171144,KIAG,2019-01-17T13:53:00Z,43.12,-78.93,-11.7,-14.4,110,4,,10.0,30.33071,1029.7,,,TRUE,,,,,,,CLR,,,,,,,,VFR,,,,,,,,,,,,METAR,182.0
KHZY 171353Z AUTO 13006KT 10SM CLR M08/M10 A3026 RMK AO2 SLP262 T10781100,KHZY,2019-01-17T13:53:00Z,41.78,-80.7,-7.8,-10.0,130,6,,10.0,30.259842,1026.2,,TRUE,TRUE,,,,,,,CLR,,,,,,,,VFR,,,,,,,,,,,,SPECI,276.0
KHYR 171353Z AUTO 02005KT 10SM OVC022 M13/M16 A3006 RMK AO2 SLP208 T11331156,KHYR,2019-01-17T13:53:00Z,46.02,-91.45,-13.3,-15.6,20,5,,10.0,30.059055,1020.8,,TRUE,TRUE,,,,,,,OVC,2200,,,,,,,MVFR,,,,,,,,,,,,SPECI,370.0
KHWO 171353Z 10SM 14/11 A3023 RMK AO2 SLP236 T01440106 $,KHWO,2019-01-17T13:53:00Z,26.0,-80.23,14.4,10.6,,,,10.0,30.230314,1023.6,,,TRUE,TRUE,,,,,,,,,,,,,,,,,,,,,,,,,,METAR,2.0
KHVR 171353Z AUTO 02006KT 10SM OVC008 M08/M09 A3006 RMK AO2 SLP219 T10781089,KHVR,2019-01-17T13:53:00Z,48.55,-109.77,-7.8,-8.9,20,6,,10.0,30.059055,1021.9,,TRUE,TRUE,,,,,,,OVC,800,,,,,,,IFR,,,,,,,,,,,,METAR,787.0
KHVN 171353Z 35008KT 10SM CLR M04/M17 A3041 RMK AO2 SLP297 T10391167,KHVN,2019-01-17T13:53:00Z,41.27,-72.87,-3.9,-16.7,350,8,,10.0,30.410433,1029.7,,,TRUE,,,,,,,CLR,,,,,,,,VFR,,,,,,,,,,,,SPECI,4.0
KHUL 171353Z AUTO 31012G18KT 10SM CLR M20/M26 A3027 RMK AO2 SLP262 T12001256 TSNO,KHUL,2019-01-17T13:53:00Z,46.12,-67.8,-20.0,-25.6,310,12,18,10.0,30.268702,1026.2,,TRUE,TRUE,,,TRUE,,,,CLR,,,,,,,,VFR,,,,,,,,,,,,SPECI,150.0
KOWD 171353Z 32006KT 10SM CLR M06/M18 A3040 RMK AO2 SLP294 T10561178,KOWD,2019-01-17T13:53:00Z,42.18,-71.17,-5.6,-17.8,320,6,,10.0,30.398623,1029.4,,,TRUE,,,,,,,CLR,,,,,,,,VFR,,,,,,,,,,,,SPECI,19.0
KOVE 171353Z AUTO 15016G23KT 10SM BKN090 12/09 A2984 RMK AO2 SLP107 T01220094 $,KOVE,2019-01-17T13:53:00Z,39.5,-121.62,12.2,9.4,150,16,23,10.0,29.840551,1010.7,,TRUE,TRUE,TRUE,,,,,,BKN,9000,,,,,,,VFR,,,,,,,,,,,,SPECI,58.0
KOTM 171353Z AUTO 35005KT 1/4SM FZFG VV002 M02/M02 A3008 RMK AO2 SLP196 T10171017,KOTM,2019-01-17T13:53:00Z,41.1,-92.45,-1.7,-1.7,350,5,,0.25,30.079725,1019.6,,TRUE,TRUE,,,,,,FZFG,OVX,0,,,,,,,LIFR,,,,,,,,,,,200,SPECI,256.0
KOSU 171353Z 13006KT 10SM SCT029 OVC040 00/M03 A3017 RMK AO2 SLP224 T00001033,KOSU,2019-01-17T13:53:00Z,40.08,-83.08,0.0,-3.3,130,6,,10.0,30.171259,1022.4,,,TRUE,,,,,,,SCT,2900,OVC,4000,,,,,VFR,,,,,,,,,,,,SPECI,280.0
KORL 171353Z 34004KT 10SM CLR 11/07 A3025 RMK AO2 SLP250 T01110072,KORL,2019-01-17T13:53:00Z,28.55,-81.33,11.1,7.2,340,4,,10.0,30.250984,1025.0,,,TRUE,,,,,,,CLR,,,,,,,,VFR,,,,,,,,,,,,METAR,37.0
KPAH 171353Z 21005KT 8SM OVC006 07/06 A3004 RMK AO2 RAE35 SLP173 P0003 T00720061,KPAH,2019-01-17T13:53:00Z,37.07,-88.77,7.2,6.1,210,5,,8.0,30.041338,1017.3,,,TRUE,,,,,,,OVC,600,,,,,,,IFR,,,,,,0.03,,,,,,METAR,119.0
KPAE 171353Z AUTO 08010KT 10SM FEW120 08/02 A2947 RMK AO2 SLP979 T00780022,KPAE,2019-01-17T13:53:00Z,47.92,-122.28,7.8,2.2,80,10,,10.0,29.471457,997.9,,TRUE,TRUE,,,,,,,FEW,12000,,,,,,,VFR,,,,,,,,,,,,SPECI,180.0
KOXB 171353Z AUTO 36003KT 10SM CLR 01/M02 A3038 RMK AO2 SLP287 T00111022,KOXB,2019-01-17T13:53:00Z,38.32,-75.12,1.1,-2.2,360,3,,10.0,30.380905,1028.7,,TRUE,TRUE,,,,,,,CLR,,,,,,,,VFR,,,,,,,,,,,,SPECI,3.0
KRXE 171353Z AUTO 20009KT 9SM -RA FEW020 OVC027 03/M01 A2988 RMK AO2 RAB49 SLP131 P0000 T00281006,KRXE,2019-01-17T13:53:00Z,43.83,-111.8,2.8,-0.6,200,9,,9.0,29.878937,1013.1,,TRUE,TRUE,,,,,,-RA,FEW,2000,OVC,2700,,,,,MVFR,,,,,,0.005,,,,,,SPECI,1480.0
KRWL 171353Z AUTO 21007KT 10SM OVC090 00/M03 A3002 RMK AO2 SLP180 T00001033 $,KRWL,2019-01-17T13:53:00Z,41.78,-107.2,0.0,-3.3,210,7,,10.0,30.02067,1018.0,,TRUE,TRUE,TRUE,,,,,,OVC,9000,,,,,,,VFR,,,,,,,,,,,,SPECI,2077.0
KRWI 171353Z AUTO 04006KT 10SM CLR 02/M01 A3033 RMK AO2 SLP273 T00221006,KRWI,2019-01-17T13:53:00Z,35.85,-77.9,2.2,-0.6,40,6,,10.0,30.33071,1027.3,,TRUE,TRUE,,,,,,,CLR,,,,,,,,VFR,,,,,,,,,,,,METAR,47.0
KPBG 171353Z AUTO 01004KT 10SM CLR M17/M20 A3045 RMK AO2 SLP316 T11671200,KPBG,2019-01-17T13:53:00Z,44.65,-73.47,-16.7,-20.0,10,4,,10.0,30.448818,1031.6,,TRUE,TRUE,,,,,,,CLR,,,,,,,,VFR,,,,,,,,,,,,METAR,72.0
KSAC 171353Z AUTO 15006KT 10SM BKN039 OVC048 12/09 A2989 RMK AO2 SLP121 T01220094,KSAC,2019-01-17T13:53:00Z,38.5,-121.5,12.2,9.4,150,6,,10.0,29.890747,1012.1,,TRUE,TRUE,,,,,,,BKN,3900,OVC,4800,,,,,VFR,,,,,,,,,,,,SPECI,11.0
KSAF 171353Z 35006KT 10SM CLR M02/M04 A3024 RMK AO2 SLP232 T10171039,KSAF,2019-01-17T13:53:00Z,35.62,-106.1,-1.7,-3.9,350,6,,10.0,30.239174,1023.2,,,TRUE,,,,,,,CLR,,,,,,,,VFR,,,,,,,,,,,,SPECI,1930.0
KTOR 171353Z AUTO 28004KT 10SM CLR 01/M04 A2996 RMK AO2 SLP161 T00061039,KTOR,2019-01-17T13:53:00Z,42.07,-104.15,0.6,-3.9,280,4,,10.0,29.958662,1016.1,,TRUE,TRUE,,,,,,,CLR,,,,,,,,VFR,,,,,,,,,,,,SPECI,1277.0
KCDC 171353Z AUTO 19013KT 10SM CLR 03/02 A3006 RMK AO2 SLP172 T00330017,KCDC,2019-01-17T13:53:00Z,37.7,-113.1,3.3,1.7,190,13,,10.0,30.059055,1017.2,,TRUE,TRUE,,,,,,,CLR,,,,,,,,VFR,,,,,,,,,,,,SPECI,1714.0
KSAV 171353Z 00000KT 10SM FEW250 06/03 A3030 RMK AO2 SLP260 T00560033,KSAV,2019-01-17T13:53:00Z,32.12,-81.2,5.6,3.3,0,0,,10.0,30.301182,1026.0,,,TRUE,,,,,,,FEW,25000,,,,,,,VFR,,,,,,,,,,,,METAR,14.0
PTYA 171352Z VRB06KT 12SM FEW016TCU BKN130 OVC300 27/25 A2976 RMK SHRAB20E35 TCU S SLP079 T02720252,PTYA,2019-01-17T13:52:00Z,9.48,138.08,27.2,25.2,0,6,,12.0,29.760826,1007.9,,,,,,,,,,FEW,1600,BKN,13000,OVC,30000,,,VFR,,,,,,,,,,,,METAR,17.0
KSUX 171352Z 00000KT 10SM OVC033 M05/M07 A3011 RMK AO2 SLP214 T10501072,KSUX,2019-01-17T13:52:00Z,42.38,-96.38,-5.0,-7.2,0,0,,10.0,30.109253,1021.4,,,TRUE,,,,,,,OVC,3300,,,,,,,VFR,,,,,,,,,,,,METAR,338.0
PABA 171352Z AUTO 11025KT 9SM CLR M17/M19 A3004 RMK AO2 PK WND 10032/1325 SLP157 T11671189 FZRANO TSNO,PABA,2019-01-17T13:52:00Z,70.13,-143.58,-16.7,-18.9,110,25,,9.0,30.041338,1015.7,,TRUE,TRUE,,,TRUE,TRUE,,,CLR,,,,,,,,VFR,,,,,,,,,,,,SPECI,2.0
KCDJ 171352Z AUTO 35003KT M01/M01 A3010 RMK AO1 SLP206 T10061006,KCDJ,2019-01-17T13:52:00Z,39.82,-93.58,-0.6,-0.6,350,3,,,30.100393,1020.6,,TRUE,TRUE,,,,,,,,,,,,,,,,,,,,,,,,,,,METAR,234.0
KREO 171352Z AUTO 15020G27KT 04/01 A2964 RMK AO1 PK WND 15030/1338 SLP046 T00390011,KREO,2019-01-17T13:52:00Z,42.58,-117.87,3.9,1.1,150,20,27,,29.639763,1004.6,,TRUE,TRUE,,,,,,,,,,,,,,,,,,,,,,,,,,,METAR,1235.0
KCZZ 171352Z AUTO 00000KT 09/07 A3015 RMK AO1 SLP194 T00890072,KCZZ,2019-01-17T13:52:00Z,32.63,-116.47,8.9,7.2,0,0,,,30.15059,1019.4,,TRUE,TRUE,,,,,,,,,,,,,,,,,,,,,,,,,,,METAR,807.0
KNRB 171352Z 31003KT 10SM CLR 11/08 A3028 RMK AO2 SLP252 T01060078 $,KNRB,2019-01-17T13:52:00Z,30.38,-81.42,10.6,7.8,310,3,,10.0,30.280512,1025.2,,,TRUE,TRUE,,,,,,CLR,,,,,,,,VFR,,,,,,,,,,,,SPECI,5.0
KSPI 171352Z 36003KT 1 1/2SM BR OVC002 01/00 A3005 RMK AO2 SLP181 T00060000,KSPI,2019-01-17T13:52:00Z,39.85,-89.68,0.6,0.0,360,3,,1.5,30.050198,1018.1,,,TRUE,,,,,,BR,OVC,200,,,,,,,LIFR,,,,,,,,,,,,METAR,181.0
KSPS 171352Z 33010KT 10SM OVC013 07/05 A3015 RMK AO2 SLP209 T00670050,KSPS,2019-01-17T13:52:00Z,33.98,-98.5,6.7,5.0,330,10,,10.0,30.15059,1020.9,,,TRUE,,,,,,,OVC,1300,,,,,,,MVFR,,,,,,,,,,,,METAR,308.0
KTRM 171352Z AUTO 12003KT 1/4SM FG VV002 12/10 A3013 RMK AO2 SLP202 T01170100 TSNO,KTRM,2019-01-17T13:52:00Z,33.63,-116.17,11.7,10.0,120,3,,0.25,30.129921,1020.2,,TRUE,TRUE,,,TRUE,,,FG,OVX,0,,,,,,,LIFR,,,,,,,,,,,200,SPECI,-35.0
KHIE 171352Z AUTO 00000KT 10SM CLR M21/M24 A3034 RMK AO2 SLP303 T12111239,KHIE,2019-01-17T13:52:00Z,44.37,-71.55,-21.1,-23.9,0,0,,10.0,30.339567,1030.3,,TRUE,TRUE,,,,,,,CLR,,,,,,,,VFR,,,,,,,,,,,,METAR,318.0
KHUT 171352Z 32007KT 7SM OVC005 00/00 A3010 RMK AO2 SLP197 T00000000,KHUT,2019-01-17T13:52:00Z,38.07,-97.87,0.0,0.0,320,7,,7.0,30.100393,1019.7,,,TRUE,,,,,,,OVC,500,,,,,,,IFR,,,,,,,,,,,,METAR,467.0
KMEB 171352Z AUTO 07007KT 4SM HZ CLR 02/M01 A3030 RMK AO2 SLP262 T00221006,KMEB,2019-01-17T13:52:00Z,34.78,-79.37,2.2,-0.6,70,7,,4.0,30.301182,1026.2,,TRUE,TRUE,,,,,,HZ,CLR,,,,,,,,MVFR,,,,,,,,,,,,METAR,67.0
KNFW 171352Z 31014KT 10SM BKN013 11/08 A3011 RMK AO2 SLP180 T01060078 VISNO N $,KNFW,2019-01-17T13:52:00Z,32.78,-97.43,10.6,7.8,310,14,,10.0,30.109253,1018.0,,,TRUE,TRUE,,,,,,BKN,1300,,,,,,,MVFR,,,,,,,,,,,,METAR,198.0
KMBG 171352Z AUTO 15004KT 10SM OVC012 M07/M09 A3003 RMK AO2 SLP201 T10721094,KMBG,2019-01-17T13:52:00Z,45.55,-100.42,-7.2,-9.4,150,4,,10.0,30.029528,1020.1,,TRUE,TRUE,,,,,,,OVC,1200,,,,,,,MVFR,,,,,,,,,,,,METAR,510.0
KISN 171352Z AUTO 01010KT 6SM -SN OVC039 M09/M12 A3010 RMK AO2 SNB00 SLP231 P0000 T10891117,KISN,2019-01-17T13:52:00Z,48.17,-103.63,-8.9,-11.7,10,10,,6.0,30.100393,1023.1,,TRUE,TRUE,,,,,,-SN,OVC,3900,,,,,,,VFR,,,,,,0.005,,,,,,METAR,579.0
KIJD 171352Z AUTO 34008KT 10SM CLR M06/M22 A3040 RMK AO2 SLP298 T10611222,KIJD,2019-01-17T13:52:00Z,41.75,-72.18,-6.1,-22.2,340,8,,10.0,30.398623,1029.8,,TRUE,TRUE,,,,,,,CLR,,,,,,,,VFR,,,,,,,,,,,,METAR,75.0
KIEN 171352Z AUTO 08004KT 10SM CLR M11/M12 A2995 RMK AO2 SLP187 T11111122 $,KIEN,2019-01-17T13:52:00Z,43.03,-102.52,-11.1,-12.2,80,4,,10.0,29.949802,1018.7,,TRUE,TRUE,TRUE,,,,,,CLR,,,,,,,,VFR,,,,,,,,,,,,METAR,998.0
KIAD 171352Z 00000KT 10SM OVC045 00/M04 A3035 RMK AO2 SLP278 T00001039,KIAD,2019-01-17T13:52:00Z,38.93,-77.45,0.0,-3.9,0,0,,10.0,30.351377,1027.8,,,TRUE,,,,,,,OVC,4500,,,,,,,VFR,,,,,,,,,,,,METAR,93.0
KMKE 171352Z 00000KT 10SM OVC030 M01/M05 A3011 RMK AO2 SLP207 T10061050,KMKE,2019-01-17T13:52:00Z,42.95,-87.9,-0.6,-5.0,0,0,,10.0,30.109253,1020.7,,,TRUE,,,,,,,OVC,3000,,,,,,,MVFR,,,,,,,,,,,,METAR,206.0
KMLI 171352Z 09006KT 6SM BR OVC009 M02/M03 A3007 RMK AO2 SLP191 T10171033,KMLI,2019-01-17T13:52:00Z,41.45,-90.52,-1.7,-3.3,90,6,,6.0,30.070866,1019.1,,,TRUE,,,,,,BR,OVC,900,,,,,,,IFR,,,,,,,,,,,,METAR,184.0
KMWH 171352Z 35009KT 7SM -RA OVC010 02/01 A2961 RMK AO2 SLP037 P0005 T00170011,KMWH,2019-01-17T13:52:00Z,47.2,-119.32,1.7,1.1,350,9,,7.0,29.610237,1003.7,,,TRUE,,,,,,-RA,OVC,1000,,,,,,,MVFR,,,,,,0.05,,,,,,METAR,362.0
KOKB 171352Z AUTO 15004KT 10SM FEW016 BKN050 OVC110 15/13 A3014 RMK AO2 RAB1255E04 SLP207 P0000 T01500133,KOKB,2019-01-17T13:52:00Z,33.22,-117.35,15.0,13.3,150,4,,10.0,30.138779,1020.7,,TRUE,TRUE,,,,,,,FEW,1600,BKN,5000,OVC,11000,,,VFR,,,,,,0.005,,,,,,METAR,8.0
KOKC 171352Z 34013KT 10SM OVC007 03/03 A3013 RMK AO2 SLP206 T00330028,KOKC,2019-01-17T13:52:00Z,35.38,-97.6,3.3,2.8,340,13,,10.0,30.129921,1020.6,,,TRUE,,,,,,,OVC,700,,,,,,,IFR,,,,,,,,,,,,METAR,390.0
KORE 171352Z AUTO 35005KT 10SM CLR M10/M18 A3039 RMK AO2 SLP302 T11001183,KORE,2019-01-17T13:52:00Z,42.57,-72.28,-10.0,-18.3,350,5,,10.0,30.389763,1030.2,,TRUE,TRUE,,,,,,,CLR,,,,,,,,VFR,,,,,,,,,,,,METAR,164.0
KABI 171352Z 34008KT 10SM CLR 05/02 A3015 RMK AO2 SLP206 T00500017,KABI,2019-01-17T13:52:00Z,32.42,-99.68,5.0,1.7,340,8,,10.0,30.15059,1020.6,,,TRUE,,,,,,,CLR,,,,,,,,VFR,,,,,,,,,,,,METAR,548.0
KABQ 171352Z 00000KT 10SM FEW100 FEW220 00/M03 A3027 RMK AO2 SLP248 T00001028,KABQ,2019-01-17T13:52:00Z,35.05,-106.62,0.0,-2.8,0,0,,10.0,30.268702,1024.8,,,TRUE,,,,,,,FEW,10000,FEW,22000,,,,,VFR,,,,,,,,,,,,METAR,1618.0
KAFN 171352Z AUTO 00000KT 10SM CLR M12/M18 A3032 RMK AO2 SLP292 T11221178,KAFN,2019-01-17T13:52:00Z,42.8,-72.0,-12.2,-17.8,0,0,,10.0,30.318897,1029.2,,TRUE,TRUE,,,,,,,CLR,,,,,,,,VFR,,,,,,,,,,,,METAR,313.0
KARR 171352Z 05004KT 5SM HZ OVC010 M02/M04 A3008 RMK AO2 SLP195 T10171044,KARR,2019-01-17T13:52:00Z,41.77,-88.48,-1.7,-4.4,50,4,,5.0,30.079725,1019.5,,,TRUE,,,,,,HZ,OVC,1000,,,,,,,MVFR,,,,,,,,,,,,METAR,215.0
KALS 171352Z AUTO 19003KT 3/4SM BR OVC003 M19/M21 A3022 RMK AO2 SLP327 I1001 T11941206,KALS,2019-01-17T13:52:00Z,37.43,-105.87,-19.4,-20.6,190,3,,0.75,30.221457,1032.7,,TRUE,TRUE,,,,,,BR,OVC,300,,,,,,,LIFR,,,,,,,,,,,,METAR,2299.0
KATL 171352Z 13004KT 10SM FEW065 SCT120 BKN180 BKN250 03/01 A3019 RMK AO2 SLP230 VIRGA NW-NE T00330006,KATL,2019-01-17T13:52:00Z,33.63,-84.45,3.3,0.6,130,4,,10.0,30.188976,1023.0,,,TRUE,,,,,,,FEW,6500,SCT,12000,BKN,18000,BKN,25000,VFR,,,,,,,,,,,,METAR,296.0
KBDR 171352Z 01004KT 10SM CLR M04/M15 A3042 RMK AO2 SLP301 T10441150,KBDR,2019-01-17T13:52:00Z,41.17,-73.13,-4.4,-15.0,10,4,,10.0,30.41929,1030.1,,,TRUE,,,,,,,CLR,,,,,,,,VFR,,,,,,,,,,,,METAR,7.0
KBIS 171352Z 00000KT 1 3/4SM BR OVC004 M08/M09 A3008 RMK AO2 SLP220 I1000 T10781089 $,KBIS,2019-01-17T13:52:00Z,46.77,-100.75,-7.8,-8.9,0,0,,1.75,30.079725,1022.0,,,TRUE,TRUE,,,,,BR,OVC,400,,,,,,,LIFR,,,,,,,,,,,,METAR,505.0
KBLH 171352Z AUTO 36006KT 1/4SM FG VV002 09/09 A3015 RMK AO2 SLP206 T00890089,KBLH,2019-01-17T13:52:00Z,33.62,-114.72,8.9,8.9,360,6,,0.25,30.15059,1020.6,,TRUE,TRUE,,,,,,FG,OVX,0,,,,,,,LIFR,,,,,,,,,,,200,SPECI,119.0
KBLF 171352Z AUTO 09003KT 7SM OVC006 M03/M04 A3015 RMK AO2 CIG 005V010 SLP235 T10281039,KBLF,2019-01-17T13:52:00Z,37.3,-81.2,-2.8,-3.9,90,3,,7.0,30.15059,1023.5,,TRUE,TRUE,,,,,,,OVC,600,,,,,,,IFR,,,,,,,,,,,,SPECI,873.0
KBML 171352Z AUTO 00000KT 10SM CLR M17/M23 A3031 RMK AO2 SLP292 T11721233,KBML,2019-01-17T13:52:00Z,44.58,-71.18,-17.2,-23.3,0,0,,10.0,30.31004,1029.2,,TRUE,TRUE,,,,,,,CLR,,,,,,,,VFR,,,,,,,,,,,,METAR,345.0
KCFV 171352Z AUTO 33006KT 5SM BR OVC004 03/03 A3009 RMK AO2 SLP193 T00330028,KCFV,2019-01-17T13:52:00Z,37.08,-95.57,3.3,2.8,330,6,,5.0,30.088583,1019.3,,TRUE,TRUE,,,,,,BR,OVC,400,,,,,,,LIFR,,,,,,,,,,,,METAR,225.0
KCLT 171352Z 07007KT 10SM BKN220 BKN250 03/M02 A3027 RMK AO2 SLP254 T00281017,KCLT,2019-01-17T13:52:00Z,35.22,-80.95,2.8,-1.7,70,7,,10.0,30.268702,1025.4,,,TRUE,,,,,,,BKN,22000,BKN,25000,,,,,VFR,,,,,,,,,,,,METAR,220.0
KDDC 171352Z AUTO 26007KT 4SM BR FEW001 M02/M03 A3010 RMK AO2 SLP211 I1001 T10171028,KDDC,2019-01-17T13:52:00Z,37.77,-99.97,-1.7,-2.8,260,7,,4.0,30.100393,1021.1,,TRUE,TRUE,,,,,,BR,FEW,100,,,,,,,MVFR,,,,,,,,,,,,METAR,789.0
KDCA 171352Z 09008KT 10SM BKN050 OVC250 03/M04 A3037 RMK AO2 SLP282 T00281039,KDCA,2019-01-17T13:52:00Z,38.85,-77.03,2.8,-3.9,90,8,,10.0,30.369095,1028.2,,,TRUE,,,,,,,BKN,5000,OVC,25000,,,,,VFR,,,,,,,,,,,,METAR,18.0
KCVG 171352Z 12008KT 3SM -RA BR BKN006 OVC027 01/M01 A3011 RMK AO2 SLP200 VIS N21/2 P0003 T00111006,KCVG,2019-01-17T13:52:00Z,39.05,-84.67,1.1,-0.6,120,8,,3.0,30.109253,1020.0,,,TRUE,,,,,,-RA BR,BKN,600,OVC,2700,,,,,IFR,,,,,,0.03,,,,,,METAR,269.0
KEST 171352Z AUTO 35005KT 8SM FEW030 BKN038 OVC065 M07/M08 A3008 RMK AO2 SLP206 T10671083,KEST,2019-01-17T13:52:00Z,43.4,-94.75,-6.7,-8.3,350,5,,8.0,30.079725,1020.6,,TRUE,TRUE,,,,,,,FEW,3000,BKN,3800,OVC,6500,,,VFR,,,,,,,,,,,,METAR,401.0
KFIT 171352Z AUTO 32010KT 10SM CLR M09/M18 A3039 RMK AO2 SLP296 T10941183,KFIT,2019-01-17T13:52:00Z,42.55,-71.75,-9.4,-18.3,320,10,,10.0,30.389763,1029.6,,TRUE,TRUE,,,,,,,CLR,,,,,,,,VFR,,,,,,,,,,,,METAR,103.0
KTOL 171352Z 10004KT 10SM OVC031 M03/M07 A3018 RMK AO2 SLP227 T10281067,KTOL,2019-01-17T13:52:00Z,41.58,-83.8,-2.8,-6.7,100,4,,10.0,30.180119,1022.7,,,TRUE,,,,,,,OVC,3100,,,,,,,VFR,,,,,,,,,,,,METAR,210.0
KTAN 171352Z AUTO 31005KT 10SM CLR M06/M18 A3039 RMK AO2 SLP290 T10561178,KTAN,2019-01-17T13:52:00Z,41.88,-71.02,-5.6,-17.8,310,5,,10.0,30.389763,1029.0,,TRUE,TRUE,,,,,,,CLR,,,,,,,,VFR,,,,,,,,,,,,SPECI,7.0
KNZY 171352Z 12008KT 7SM SCT020 BKN028 OVC250 16/11 A3016 RMK AO2 SLP211 T01610111 PNO $,KNZY,2019-01-17T13:52:00Z,32.7,-117.22,16.1,11.1,120,8,,7.0,30.159449,1021.1,,,TRUE,TRUE,,,,,,SCT,2000,BKN,2800,OVC,25000,,,MVFR,,,,,,,,,,,,SPECI,8.0
KEKM 171352Z 10008KT 5SM BR OVC009 M03/M04 A3011 RMK AO1,KEKM,2019-01-17T13:52:00Z,41.72,-86.0,-3.0,-4.0,100,8,,5.0,30.109253,,,,TRUE,,,,,,BR,OVC,900,,,,,,,IFR,,,,,,,,,,,,SPECI,237.0
MUCU 171352Z 36007KT 320V030 9000 FEW020 BKN060 23/17 Q1019,MUCU,2019-01-17T13:52:00Z,19.97,-75.83,23.0,17.0,360,7,,5.59,30.088583,,,,,,,,,,,FEW,2000,BKN,6000,,,,,VFR,,,,,,,,,,,,METAR,76.0
KBAN 171352Z AUTO 21012G16KT 9SM -RA 09/M03 A2984 RMK AO2 RAB39 SLP070 P0001 T00941028 $,KBAN,2019-01-17T13:52:00Z,38.35,-119.52,9.4,-2.8,210,12,16,9.0,29.840551,1007.0,,TRUE,TRUE,TRUE,,,,,-RA,,,,,,,,,,,,,,,0.01,,,,,,METAR,2057.0
KGYI 171352Z 29007KT 10SM OVC016 09/09 A3008,KGYI,2019-01-17T13:52:00Z,33.72,-96.67,9.0,9.0,290,7,,10.0,30.079725,,,,,,,,,,,OVC,1600,,,,,,,MVFR,,,,,,,,,,,,METAR,228.0
KGEU 171352Z 00000KT 10SM FEW200 08/08 A3018,KGEU,2019-01-17T13:52:00Z,33.53,-112.3,8.0,8.0,0,0,,10.0,30.180119,,,,,,,,,,,FEW,20000,,,,,,,VFR,,,,,,,,,,,,METAR,325.0
PATA 171352Z AUTO 04003KT 10SM CLR M18/M22 A2997 RMK AO2 SLP157 T11781222 TSNO PNO,PATA,2019-01-17T13:52:00Z,65.17,-152.1,-17.8,-22.2,40,3,,10.0,29.970472,1015.7,,TRUE,TRUE,,,TRUE,,,,CLR,,,,,,,,VFR,,,,,,,,,,,,METAR,67.0
KN60 171352Z AUTO 04005KT M11/M12 A3008 RMK AO1 SLP226 T11061117,KN60,2019-01-17T13:52:00Z,47.65,-101.43,-10.6,-11.7,40,5,,,30.079725,1022.6,,TRUE,TRUE,,,,,,,,,,,,,,,,,,,,,,,,,,,METAR,582.0
KNHK 171352Z 00000KT 10SM FEW050 BKN260 00/M02 A3036 RMK AO2 SLP281 T00001017,KNHK,2019-01-17T13:52:00Z,38.27,-76.4,0.0,-1.7,0,0,,10.0,30.360237,1028.1,,,TRUE,,,,,,,FEW,5000,BKN,26000,,,,,VFR,,,,,,,,,,,,METAR,12.0
OIHH 171352Z 20002KT 9999 FEW035CB SCT040 00/M05 Q1005,OIHH,2019-01-17T13:52:00Z,34.87,48.55,0.0,-5.0,200,2,,6.21,29.675198,,,,,,,,,,,FEW,3500,SCT,4000,,,,,VFR,,,,,,,,,,,,METAR,1757.0
OIHM 171352Z 26010KT 9999 FEW030CB SCT035 01/M06 Q1009,OIHM,2019-01-17T13:52:00Z,34.28,48.82,1.0,-6.0,260,10,,6.21,29.793306,,,,,,,,,,,FEW,3000,SCT,3500,,,,,VFR,,,,,,,,,,,,METAR,1726.0
KP69 171352Z AUTO VRB04KT M01/M02 A2971 RMK AO1 SLP082 T10061017,KP69,2019-01-17T13:52:00Z,46.15,-115.6,-0.6,-1.7,0,4,,,29.71063,1008.2,,TRUE,TRUE,,,,,,,,,,,,,,,,,,,,,,,,,,,METAR,480.0
KPYM 171352Z AUTO 30007KT 10SM CLR M07/M17 A3039 RMK AO2 SLP291 T10671172,KPYM,2019-01-17T13:52:00Z,41.92,-70.73,-6.7,-17.2,300,7,,10.0,30.389763,1029.1,,TRUE,TRUE,,,,,,,CLR,,,,,,,,VFR,,,,,,,,,,,,METAR,43.0
KPWK 171352Z 08003KT 6SM HZ OVC012 00/M04 A3011 RMK AO2 SLP204 T00001039,KPWK,2019-01-17T13:52:00Z,42.12,-87.9,0.0,-3.9,80,3,,6.0,30.109253,1020.4,,,TRUE,,,,,,HZ,OVC,1200,,,,,,,MVFR,,,,,,,,,,,,METAR,203.0
KCQX 171352Z AUTO 34008KT 320V030 10SM CLR M04/M14 A3037 RMK AO2 SLP287 T10391139,KCQX,2019-01-17T13:52:00Z,41.68,-70.0,-3.9,-13.9,340,8,,10.0,30.369095,1028.7,,TRUE,TRUE,,,,,,,CLR,,,,,,,,VFR,,,,,,,,,,,,SPECI,19.0
MMCV 171352Z 02002KT 1SM BR OVC005 15/15 A3018 RMK 8/6//,MMCV,2019-01-17T13:52:00Z,23.72,-98.97,15.0,15.0,20,2,,1.0,30.180119,,,,,,,,,,BR,OVC,500,,,,,,,IFR,,,,,,,,,,,,METAR,238.0
MMMT 171352Z 00000KT 6SM SCT040 BKN100 23/21 A3008 RMK 8/420,MMMT,2019-01-17T13:52:00Z,18.1,-94.57,23.0,21.0,0,0,,6.0,30.079725,,,,,,,,,,,SCT,4000,BKN,10000,,,,,VFR,,,,,,,,,,,,METAR,40.0
KOCF 171351Z 36003KT 10SM CLR 06/04 A3029 RMK AO2 SLP259 T00610039 $,KOCF,2019-01-17T13:51:00Z,29.17,-82.22,6.1,3.9,360,3,,10.0,30.28937,1025.9,,,TRUE,TRUE,,,,,,CLR,,,,,,,,VFR,,,,,,,,,,,,SPECI,27.0
KOXC 171351Z 36010KT 10SM CLR M08/M16 A3037 RMK AO2 SLP306 T10781156,KOXC,2019-01-17T13:51:00Z,41.47,-73.13,-7.8,-15.6,360,10,,10.0,30.369095,1030.6,,,TRUE,,,,,,,CLR,,,,,,,,VFR,,,,,,,,,,,,METAR,222.0
KTPL 171351Z AUTO 25006KT 8SM CLR 11/11 A3013 RMK AO2 SLP220 T01060106,KTPL,2019-01-17T13:51:00Z,31.13,-97.4,10.6,10.6,250,6,,8.0,30.129921,1022.0,,TRUE,TRUE,,,,,,,CLR,,,,,,,,VFR,,,,,,,,,,,,METAR,208.0
KNYC 171351Z AUTO 10SM CLR M04/M13 A3042 RMK AO2 SLP293 T10391128 $,KNYC,2019-01-17T13:51:00Z,40.78,-73.97,-3.9,-12.8,,,,10.0,30.41929,1029.3,,TRUE,TRUE,TRUE,,,,,,CLR,,,,,,,,VFR,,,,,,,,,,,,METAR,11.0
KBVE 171351Z AUTO 12003KT 10SM OVC095 11/08 A3024 RMK AO2 SLP239 T01060083,KBVE,2019-01-17T13:51:00Z,29.32,-89.4,10.6,8.3,120,3,,10.0,30.239174,1023.9,,TRUE,TRUE,,,,,,,OVC,9500,,,,,,,VFR,,,,,,,,,,,,SPECI,1.0
KVCV 171351Z 16015KT 10SM BKN085 A3004,KVCV,2019-01-17T13:51:00Z,34.58,-117.38,,,160,15,,10.0,30.041338,,,,,,,,,,,BKN,8500,,,,,,,VFR,,,,,,,,,,,,METAR,876.0
KSNT 171351Z AUTO 15011KT 00/M02 A2975 RMK AO1 SLP071 P0006 T00001022,KSNT,2019-01-17T13:51:00Z,44.17,-114.93,0.0,-2.2,150,11,,,29.749016,1007.1,,TRUE,TRUE,,,,,,,,,,,,,,,,,,,,,0.06,,,,,,METAR,1980.0
KP58 171351Z AUTO 19003KT M10/M13 A3024 RMK AO1 SLP260 T11001128,KP58,2019-01-17T13:51:00Z,44.02,-82.8,-10.0,-12.8,190,3,,,30.239174,1026.0,,TRUE,TRUE,,,,,,,,,,,,,,,,,,,,,,,,,,,METAR,179.0
KCON 171351Z AUTO 33008KT 10SM CLR M13/M19 A3040 RMK AO2 SLP299 T11281189,KCON,2019-01-17T13:51:00Z,43.2,-71.5,-12.8,-18.9,330,8,,10.0,30.398623,1029.9,,TRUE,TRUE,,,,,,,CLR,,,,,,,,VFR,,,,,,,,,,,,METAR,103.0
KCMH 171351Z 11008KT 10SM OVC036 00/M03 A3017 RMK AO2 SNE14 SLP225 P0000 T00001033,KCMH,2019-01-17T13:51:00Z,40.0,-82.88,0.0,-3.3,110,8,,10.0,30.171259,1022.5,,,TRUE,,,,,,,OVC,3600,,,,,,,VFR,,,,,,0.005,,,,,,METAR,247.0
KCLE 171351Z 14005KT 10SM OVC037 M04/M08 A3025 RMK AO2 SLP252 T10391083,KCLE,2019-01-17T13:51:00Z,41.42,-81.85,-3.9,-8.3,140,5,,10.0,30.250984,1025.2,,,TRUE,,,,,,,OVC,3700,,,,,,,VFR,,,,,,,,,,,,METAR,233.0
KBKW 171351Z AUTO 17006KT 9SM OVC005 M02/M03 A3018 RMK AO2 SLP253 T10171028,KBKW,2019-01-17T13:51:00Z,37.8,-81.12,-1.7,-2.8,170,6,,9.0,30.180119,1025.3,,TRUE,TRUE,,,,,,,OVC,500,,,,,,,IFR,,,,,,,,,,,,SPECI,764.0
KBGD 171351Z AUTO 20006KT 10SM CLR 01/M02 A3015 RMK AO2 SLP206 T00111022,KBGD,2019-01-17T13:51:00Z,35.7,-101.4,1.1,-2.2,200,6,,10.0,30.15059,1020.6,,TRUE,TRUE,,,,,,,CLR,,,,,,,,VFR,,,,,,,,,,,,METAR,927.0
KBDL 171351Z 01007KT 10SM FEW220 BKN250 M07/M21 A3041 RMK AO2 SLP301 T10671206,KBDL,2019-01-17T13:51:00Z,41.93,-72.68,-6.7,-20.6,10,7,,10.0,30.410433,1030.1,,,TRUE,,,,,,,FEW,22000,BKN,25000,,,,,VFR,,,,,,,,,,,,SPECI,60.0
KAVX 171351Z AUTO 21011G19KT 1/4SM -RA FG VV002 13/13 A3012 RMK AO2 RAE11B14 SLP191 P0004 T01330133 $,KAVX,2019-01-17T13:51:00Z,33.4,-118.42,13.3,13.3,210,11,19,0.25,30.121063,1019.1,,TRUE,TRUE,TRUE,,,,,-RA FG,OVX,0,,,,,,,LIFR,,,,,,0.04,,,,,200,METAR,482.0
KALB 171351Z 02003KT 10SM FEW140 FEW250 M11/M19 A3045 RMK AO2 SLP316 T11061194,KALB,2019-01-17T13:51:00Z,42.75,-73.8,-10.6,-19.4,20,3,,10.0,30.448818,1031.6,,,TRUE,,,,,,,FEW,14000,FEW,25000,,,,,VFR,,,,,,,,,,,,SPECI,92.0
KAHN 171351Z 10005KT 6SM BR CLR 02/01 A3023 RMK AO2 SLP243 T00220006,KAHN,2019-01-17T13:51:00Z,33.95,-83.33,2.2,0.6,100,5,,6.0,30.230314,1024.3,,,TRUE,,,,,,BR,CLR,,,,,,,,VFR,,,,,,,,,,,,SPECI,244.0
KACT 171351Z 21004KT 10SM CLR 09/09 A3011 RMK AO2 SLP194 T00890089,KACT,2019-01-17T13:51:00Z,31.62,-97.23,8.9,8.9,210,4,,10.0,30.109253,1019.4,,,TRUE,,,,,,,CLR,,,,,,,,VFR,,,,,,,,,,,,METAR,151.0
KABE 171351Z 07003KT 10SM CLR M03/M13 A3040 RMK AO2 SLP298 T10331133,KABE,2019-01-17T13:51:00Z,40.65,-75.45,-3.3,-13.3,70,3,,10.0,30.398623,1029.8,,,TRUE,,,,,,,CLR,,,,,,,,VFR,,,,,,,,,,,,SPECI,114.0
KDAW 171351Z AUTO 30013KT 10SM CLR M12/M22 A3035 RMK AO2 SLP279 T11171217,KDAW,2019-01-17T13:51:00Z,43.28,-70.92,-11.7,-21.7,300,13,,10.0,30.351377,1027.9,,TRUE,TRUE,,,,,,,CLR,,,,,,,,VFR,,,,,,,,,,,,METAR,100.0
KCSG 171351Z 12004KT 9SM SCT090 03/01 A3024 RMK AO2 SLP239 T00280011,KCSG,2019-01-17T13:51:00Z,32.52,-84.95,2.8,1.1,120,4,,9.0,30.239174,1023.9,,,TRUE,,,,,,,SCT,9000,,,,,,,VFR,,,,,,,,,,,,SPECI,135.0
KELP 171351Z 00000KT 10SM FEW180 BKN250 04/M01 A3026 RMK AO2 SLP219 T00441006,KELP,2019-01-17T13:51:00Z,31.82,-106.38,4.4,-0.6,0,0,,10.0,30.259842,1021.9,,,TRUE,,,,,,,FEW,18000,BKN,25000,,,,,VFR,,,,,,,,,,,,SPECI,1197.0
KEKN 171351Z AUTO 00000KT 7SM CLR M02/M04 A3019 RMK AO2 SLP251 T10221044 TSNO,KEKN,2019-01-17T13:51:00Z,38.88,-79.85,-2.2,-4.4,0,0,,7.0,30.188976,1025.1,,TRUE,TRUE,,,TRUE,,,,CLR,,,,,,,,VFR,,,,,,,,,,,,METAR,603.0
KEWR 171351Z 35010KT 10SM FEW170 SCT190 BKN250 M03/M13 A3041 RMK AO2 SLP297 T10331128,KEWR,2019-01-17T13:51:00Z,40.68,-74.17,-3.3,-12.8,350,10,,10.0,30.410433,1029.7,,,TRUE,,,,,,,FEW,17000,SCT,19000,BKN,25000,,,VFR,,,,,,,,,,,,METAR,7.0
KHSE 171351Z AUTO 04007KT 10SM CLR 08/04 A3032 RMK AO2 SLP265 T00830044 TSNO,KHSE,2019-01-17T13:51:00Z,35.23,-75.62,8.3,4.4,40,7,,10.0,30.318897,1026.5,,TRUE,TRUE,,,TRUE,,,,CLR,,,,,,,,VFR,,,,,,,,,,,,METAR,3.0
KHTS 171351Z 08005KT 5SM BR FEW038 SCT049 BKN110 01/00 A3017 RMK AO2 SLP221 T00110000,KHTS,2019-01-17T13:51:00Z,38.37,-82.55,1.1,0.0,80,5,,5.0,30.171259,1022.1,,,TRUE,,,,,,BR,FEW,3800,SCT,4900,BKN,11000,,,MVFR,,,,,,,,,,,,METAR,254.0
KJCT 171351Z AUTO 27006KT 5SM BR OVC004 08/08 A3020 RMK AO2 SLP208 T00830078,KJCT,2019-01-17T13:51:00Z,30.5,-99.77,8.3,7.8,270,6,,5.0,30.200787,1020.8,,TRUE,TRUE,,,,,,BR,OVC,400,,,,,,,LIFR,,,,,,,,,,,,METAR,522.0
KILG 171351Z 04008KT 10SM CLR M01/M08 A3040 RMK AO2 SLP295 T10111083,KILG,2019-01-17T13:51:00Z,39.67,-75.6,-1.1,-8.3,40,8,,10.0,30.398623,1029.5,,,TRUE,,,,,,,CLR,,,,,,,,VFR,,,,,,,,,,,,METAR,28.0
KIGM 171351Z AUTO 18005KT 10SM OVC037 07/04 A3017 RMK AO2 SLP185 T00720044,KIGM,2019-01-17T13:51:00Z,35.25,-113.93,7.2,4.4,180,5,,10.0,30.171259,1018.5,,TRUE,TRUE,,,,,,,OVC,3700,,,,,,,VFR,,,,,,,,,,,,SPECI,1032.0
KJFK 171351Z 36008KT 10SM SCT210 BKN270 M03/M11 A3042 RMK AO2 SLP300 T10281111,KJFK,2019-01-17T13:51:00Z,40.63,-73.77,-2.8,-11.1,360,8,,10.0,30.41929,1030.0,,,TRUE,,,,,,,SCT,21000,BKN,27000,,,,,VFR,,,,,,,,,,,,METAR,9.0
KOXR 171351Z AUTO 21011KT 4SM BR OVC004 16/15 A3006 RMK AO2 RAB17E28 SLP177 P0000 T01610150,KOXR,2019-01-17T13:51:00Z,34.2,-119.2,16.1,15.0,210,11,,4.0,30.059055,1017.7,,TRUE,TRUE,,,,,,BR,OVC,400,,,,,,,LIFR,,,,,,0.005,,,,,,SPECI,20.0
KORF 171351Z 04007KT 10SM OVC042 06/00 A3035 RMK AO2 SLP277 T00560000,KORF,2019-01-17T13:51:00Z,36.9,-76.2,5.6,0.0,40,7,,10.0,30.351377,1027.7,,,TRUE,,,,,,,OVC,4200,,,,,,,VFR,,,,,,,,,,,,METAR,14.0
KPIT 171351Z 10005KT 10SM OVC031 M04/M07 A3024 RMK AO2 SLP262 T10441067,KPIT,2019-01-17T13:51:00Z,40.5,-80.27,-4.4,-6.7,100,5,,10.0,30.239174,1026.2,,,TRUE,,,,,,,OVC,3100,,,,,,,VFR,,,,,,,,,,,,METAR,357.0
KPHX 171351Z 10006KT 10SM FEW250 09/08 A3014 RMK AO2 SLP201 T00940083,KPHX,2019-01-17T13:51:00Z,33.43,-112.02,9.4,8.3,100,6,,10.0,30.138779,1020.1,,,TRUE,,,,,,,FEW,25000,,,,,,,VFR,,,,,,,,,,,,METAR,336.0
KYNG 171351Z 10007KT 10SM BKN035 BKN150 OVC200 M07/M09 A3022 RMK AO2 SLP253 T10671094 $,KYNG,2019-01-17T13:51:00Z,41.25,-80.67,-6.7,-9.4,100,7,,10.0,30.221457,1025.3,,,TRUE,TRUE,,,,,,BKN,3500,BKN,15000,OVC,20000,,,VFR,,,,,,,,,,,,METAR,360.0
KVNY 171351Z 16009KT 3SM -RA BR BKN015 OVC020 16/14 A3006 RMK AO2 SLP175 P0015 T01560139,KVNY,2019-01-17T13:51:00Z,34.22,-118.48,15.6,13.9,160,9,,3.0,30.059055,1017.5,,,TRUE,,,,,,-RA BR,BKN,1500,OVC,2000,,,,,MVFR,,,,,,0.15,,,,,,METAR,245.0
KVCT 171351Z 25007KT 7SM OVC007 14/13 A3019 RMK AO2 SLP221 T01390128,KVCT,2019-01-17T13:51:00Z,28.87,-96.93,13.9,12.8,250,7,,7.0,30.188976,1022.1,,,TRUE,,,,,,,OVC,700,,,,,,,IFR,,,,,,,,,,,,METAR,31.0
KTEB 171351Z 02009G18KT 10SM CLR M03/M12 A3041 RMK AO2 SLP297 T10331122,KTEB,2019-01-17T13:51:00Z,40.87,-74.05,-3.3,-12.2,20,9,18,10.0,30.410433,1029.7,,,TRUE,,,,,,,CLR,,,,,,,,VFR,,,,,,,,,,,,METAR,7.0
KSMX 171351Z AUTO 29005KT 6SM -RA SCT025 BKN030 OVC039 15/12 A3006 RMK AO2 SLP181 P0004 T01500122,KSMX,2019-01-17T13:51:00Z,34.9,-120.45,15.0,12.2,290,5,,6.0,30.059055,1018.1,,TRUE,TRUE,,,,,,-RA,SCT,2500,BKN,3000,OVC,3900,,,MVFR,,,,,,0.04,,,,,,SPECI,74.0
KSLK 171351Z AUTO 00000KT 10SM CLR M25/M26 A3027 RMK AO2 SLP301 T12501256,KSLK,2019-01-17T13:51:00Z,44.4,-74.2,-25.0,-25.6,0,0,,10.0,30.268702,1030.1,,TRUE,TRUE,,,,,,,CLR,,,,,,,,VFR,,,,,,,,,,,,METAR,498.0
KSJT 171351Z 25006KT 10SM CLR 03/02 A3018 RMK AO2 SLP224 T00280022,KSJT,2019-01-17T13:51:00Z,31.37,-100.5,2.8,2.2,250,6,,10.0,30.180119,1022.4,,,TRUE,,,,,,,CLR,,,,,,,,VFR,,,,,,,,,,,,METAR,576.0
KSAD 171351Z AUTO 15006KT 10SM CLR 03/02 A3022 RMK AO2 SLP227 T00280017 $,KSAD,2019-01-17T13:51:00Z,32.85,-109.63,2.8,1.7,150,6,,10.0,30.221457,1022.7,,TRUE,TRUE,TRUE,,,,,,CLR,,,,,,,,VFR,,,,,,,,,,,,SPECI,962.0
KROW 171351Z 26006KT 10SM CLR 00/M03 A3021 RMK AO2 SLP221 T00001028,KROW,2019-01-17T13:51:00Z,33.3,-104.5,0.0,-2.8,260,6,,10.0,30.209646,1022.1,,,TRUE,,,,,,,CLR,,,,,,,,VFR,,,,,,,,,,,,SPECI,1112.0
KRDU 171351Z 09008KT 10SM BKN014 BKN190 OVC250 02/M02 A3031 RMK AO2 SLP265 T00171017,KRDU,2019-01-17T13:51:00Z,35.9,-78.78,1.7,-1.7,90,8,,10.0,30.31004,1026.5,,,TRUE,,,,,,,BKN,1400,BKN,19000,OVC,25000,,,MVFR,,,,,,,,,,,,SPECI,130.0
KPWM 171351Z 33007KT 10SM FEW250 M11/M19 A3037 RMK AO2 SLP286 T11111189,KPWM,2019-01-17T13:51:00Z,43.65,-70.3,-11.1,-18.9,330,7,,10.0,30.369095,1028.6,,,TRUE,,,,,,,FEW,25000,,,,,,,VFR,,,,,,,,,,,,METAR,15.0
KPVD 171351Z 01010KT 10SM FEW150 SCT250 M06/M17 A3040 RMK AO2 SLP292 T10561167,KPVD,2019-01-17T13:51:00Z,41.72,-71.43,-5.6,-16.7,10,10,,10.0,30.398623,1029.2,,,TRUE,,,,,,,FEW,15000,SCT,25000,,,,,VFR,,,,,,,,,,,,SPECI,16.0
MUSC 171351Z VRB01KT 9000 BKN020 18/17 Q1022,MUSC,2019-01-17T13:51:00Z,22.5,-79.95,18.0,17.0,0,1,,5.59,30.177166,,,,,,,,,,,BKN,2000,,,,,,,MVFR,,,,,,,,,,,,METAR,103.0
KP59 171351Z AUTO 24004KT M09/M16 A3010 RMK AO1 SLP215 T10941161,KP59,2019-01-17T13:51:00Z,47.47,-87.88,-9.4,-16.1,240,4,,,30.100393,1021.5,,TRUE,TRUE,,,,,,,,,,,,,,,,,,,,,,,,,,,METAR,190.0
KERI 171351Z 13004KT 10SM BKN120 M08/M12 A3029 RMK AO2 SLP268 T10781117,KERI,2019-01-17T13:51:00Z,42.08,-80.18,-7.8,-11.7,130,4,,10.0,30.28937,1026.8,,,TRUE,,,,,,,BKN,12000,,,,,,,VFR,,,,,,,,,,,,METAR,222.0
KGDP 171351Z AUTO 21010KT 10SM CLR 06/M02 A3027 RMK AO2 SLP226 T00561017,KGDP,2019-01-17T13:51:00Z,31.83,-104.82,5.6,-1.7,210,10,,10.0,30.268702,1022.6,,TRUE,TRUE,,,,,,,CLR,,,,,,,,VFR,,,,,,,,,,,,SPECI,1692.0
KMPV 171351Z AUTO 00000KT 10SM CLR M19/M21 A3038 RMK AO2 SLP319 T11891211,KMPV,2019-01-17T13:51:00Z,44.2,-72.57,-18.9,-21.1,0,0,,10.0,30.380905,1031.9,,TRUE,TRUE,,,,,,,CLR,,,,,,,,VFR,,,,,,,,,,,,METAR,343.0
KLGU 171351Z AUTO 13008KT 10SM SCT060 OVC080 06/M02 A2993 RMK AO2 SLP141 T00561017,KLGU,2019-01-17T13:51:00Z,41.78,-111.85,5.6,-1.7,130,8,,10.0,29.929134,1014.1,,TRUE,TRUE,,,,,,,SCT,6000,OVC,8000,,,,,VFR,,,,,,,,,,,,METAR,1355.0
KLGA 171351Z 01008KT 10SM SCT170 BKN250 M03/M12 A3041 RMK AO2 SLP295 T10331122,KLGA,2019-01-17T13:51:00Z,40.78,-73.88,-3.3,-12.2,10,8,,10.0,30.410433,1029.5,,,TRUE,,,,,,,SCT,17000,BKN,25000,,,,,VFR,,,,,,,,,,,,METAR,11.0
KHSA 171350Z 00000KT 7SM BKN100 07/07 A3024,KHSA,2019-01-17T13:50:00Z,30.37,-89.45,7.0,7.0,0,0,,7.0,30.239174,,,,,,,,,,,BKN,10000,,,,,,,VFR,,,,,,,,,,,,METAR,7.0
OAKB 171350Z 09005KT 9000 4000S HZ FEW110 04/M04 Q1021 NOSIG RMK A3016 BLU BLU,OAKB,2019-01-17T13:50:00Z,34.55,69.22,4.0,-4.0,90,5,,5.59,30.147638,,,,,,TRUE,,,,HZ,FEW,11000,,,,,,,VFR,,,,,,,,,,,,METAR,1791.0
TJBQ 171350Z 09009KT 10SM CLR 25/21 A3014,TJBQ,2019-01-17T13:50:00Z,18.5,-67.13,25.0,21.0,90,9,,10.0,30.138779,,,,,,,,,,,CLR,,,,,,,,VFR,,,,,,,,,,,,METAR,72.0
KLAL 171350Z 04004KT 10SM SKC 08/06 A3026,KLAL,2019-01-17T13:50:00Z,27.97,-82.02,8.0,6.0,40,4,,10.0,30.259842,,,,,,,,,,,SKC,,,,,,,,VFR,,,,,,,,,,,,METAR,43.0
KHXD 171350Z 00000KT 10SM CLR 06/05 A3028,KHXD,2019-01-17T13:50:00Z,32.22,-80.7,6.0,5.0,0,0,,10.0,30.280512,,,,,,,,,,,CLR,,,,,,,,VFR,,,,,,,,,,,,METAR,6.0
KVQQ 171350Z 00000KT 10SM CLR 05/03 A3030,KVQQ,2019-01-17T13:50:00Z,30.22,-81.88,5.0,3.0,0,0,,10.0,30.301182,,,,,,,,,,,CLR,,,,,,,,VFR,,,,,,,,,,,,METAR,25.0
KNQA 171350Z 19007KT 1 1/2SM -RA BR OVC004 09/08 A3007,KNQA,2019-01-17T13:50:00Z,35.35,-89.87,9.0,8.0,190,7,,1.5,30.070866,,,,,,,,,,-RA BR,OVC,400,,,,,,,LIFR,,,,,,,,,,,,METAR,86.0
KESN 171350Z 06006KT 10SM BKN120 01/M05 A3040,KESN,2019-01-17T13:50:00Z,38.8,-76.07,1.0,-5.0,60,6,,10.0,30.398623,,,,,,,,,,,BKN,12000,,,,,,,VFR,,,,,,,,,,,,METAR,22.0
PKMR 171350Z 08009KT 15SM SCT015 SCT050 BKN300 28/22 A2976 RMK SLP078 T02780223,PKMR,2019-01-17T13:50:00Z,7.08,171.38,27.8,22.3,80,9,,15.0,29.760826,1007.8,,,,,,,,,,SCT,1500,SCT,5000,BKN,30000,,,VFR,,,,,,,,,,,,METAR,4.0
KTZR 171350Z 12005KT 10SM OVC030 M01/M03 A3017,KTZR,2019-01-17T13:50:00Z,39.9,-83.13,-1.0,-3.0,120,5,,10.0,30.171259,,,,,,,,,,,OVC,3000,,,,,,,MVFR,,,,,,,,,,,,METAR,276.0
KOMN 171350Z 00000KT 10SM CLR 08/08 A3026,KOMN,2019-01-17T13:50:00Z,29.3,-81.12,8.0,8.0,0,0,,10.0,30.259842,,,,,,,,,,,CLR,,,,,,,,VFR,,,,,,,,,,,,METAR,9.0
KHOB 171350Z 30009KT 10SM CLR 07/M00 A3019,KHOB,2019-01-17T13:50:00Z,32.67,-103.22,7.0,0.0,300,9,,10.0,30.188976,,,,,,,,,,,CLR,,,,,,,,VFR,,,,,,,,,,,,METAR,1115.0
PTRO 171350Z 02007KT 14SM BKN016CB BKN120 OVC300 26/24 A2978 RMK CB ALQDS,PTRO,2019-01-17T13:50:00Z,7.37,134.55,26.0,24.0,20,7,,14.0,29.778543,,,,,,,,,,,BKN,1600,BKN,12000,OVC,30000,,,MVFR,,,,,,,,,,,,METAR,54.0
KHQZ 171350Z 00000KT 10SM CLR 11/11 A3008,KHQZ,2019-01-17T13:50:00Z,32.75,-96.53,11.0,11.0,0,0,,10.0,30.079725,,,,,,,,,,,CLR,,,,,,,,VFR,,,,,,,,,,,,METAR,136.0
ENSB 171350Z 12017KT 9999 FEW025 M14/M20 Q1001 NOSIG RMK WIND 1400FT 10019KT,ENSB,2019-01-17T13:50:00Z,78.25,15.47,-14.0,-20.0,120,17,,6.21,29.557087,,,,,,TRUE,,,,,FEW,2500,,,,,,,VFR,,1.9,,,,,,,,,,METAR,29.0
KAEG 171350Z 22004KT 10SM FEW080 M03/M04 A3028,KAEG,2019-01-17T13:50:00Z,35.13,-106.8,-3.0,-4.0,220,4,,10.0,30.280512,,,,,,,,,,,FEW,8000,,,,,,,VFR,,,,,,,,,,,,METAR,1779.0
KLBE 171350Z VRB04KT 10SM OVC032 M03/M06 A3026,KLBE,2019-01-17T13:50:00Z,40.27,-79.4,-3.0,-6.0,0,4,,10.0,30.259842,,,,,,,,,,,OVC,3200,,,,,,,VFR,,,,,,,,,,,,METAR,361.0
MMLT 171350Z 00000KT 10SM FEW050 BKN240 19/12 A3000 RMK 8/502 RTS,MMLT,2019-01-17T13:50:00Z,26.02,-111.33,19.0,12.0,0,0,,10.0,30.0,,,,,,,,,,,FEW,5000,BKN,24000,,,,,VFR,,,,,,,,,,,,METAR,15.0
KDAG 171350Z AUTO 24004KT 7SM BKN100 08/08 A3006 RMK AO2 SLP172 T00830083,KDAG,2019-01-17T13:50:00Z,34.85,-116.78,8.3,8.3,240,4,,7.0,30.059055,1017.2,,TRUE,TRUE,,,,,,,BKN,10000,,,,,,,VFR,,,,,,,,,,,,METAR,587.0
KFIN 171350Z 00000KT 7SM CLR 09/08 A3027,KFIN,2019-01-17T13:50:00Z,29.47,-81.2,9.0,8.0,0,0,,7.0,30.268702,,,,,,,,,,,CLR,,,,,,,,VFR,,,,,,,,,,,,METAR,10.0
KEVB 171350Z 00000KT 10SM SCT044 10/09 A3027,KEVB,2019-01-17T13:50:00Z,29.05,-80.95,10.0,9.0,0,0,,10.0,30.268702,,,,,,,,,,,SCT,4400,,,,,,,VFR,,,,,,,,,,,,METAR,3.0
TJIG 171350Z 17006KT 10SM SCT030 BKN070 24/19 A3015,TJIG,2019-01-17T13:50:00Z,18.45,-66.1,24.0,19.0,170,6,,10.0,30.15059,,,,,,,,,,,SCT,3000,BKN,7000,,,,,VFR,,,,,,,,,,,,METAR,3.0
EVVA 171350Z AUTO 29010KT 9999 FEW012 SCT017 OVC032 01/M00 Q0987,EVVA,2019-01-17T13:50:00Z,57.35,21.55,1.0,0.0,290,10,,6.21,29.143702,,,TRUE,,,,,,,,FEW,1200,SCT,1700,OVC,3200,,,VFR,,,,,,,,,,,,METAR,6.0
KBYH 171350Z 21009KT 6SM -RABR BKN004 OVC011 08/08 A3004,KBYH,2019-01-17T13:50:00Z,35.97,-89.95,8.0,8.0,210,9,,6.0,30.041338,,,,,,,,,,-RA BR,BKN,400,OVC,1100,,,,,LIFR,,,,,,,,,,,,METAR,78.0
LLOV 171350Z 30010KT 9999 BKN050 13/02 Q1021,LLOV,2019-01-17T13:50:00Z,29.93,34.93,13.0,2.0,300,10,,6.21,30.147638,,,,,,,,,,,BKN,5000,,,,,,,VFR,,,,,,,,,,,,METAR,432.0
LLIB 171350Z 32011KT 9999 BKN040 12/03 Q1018,LLIB,2019-01-17T13:50:00Z,32.98,35.57,12.0,3.0,320,11,,6.21,30.059055,,,,,,,,,,,BKN,4000,,,,,,,VFR,,,,,,,,,,,,METAR,282.0
LLHA 171350Z 30010KT 9999 BKN048 15/04 Q1019,LLHA,2019-01-17T13:50:00Z,32.78,35.02,15.0,4.0,300,10,,6.21,30.088583,,,,,,,,,,,BKN,4800,,,,,,,VFR,,,,,,,,,,,,METAR,8.0
LLET 171350Z 31008KT 270V350 CAVOK 17/01 Q1021 RMK FEW120,LLET,2019-01-17T13:50:00Z,29.55,34.95,17.0,1.0,310,8,,6.21,30.147638,,,,,,,,,,,CAVOK,,,,,,,,VFR,,,,,,,,,,,,METAR,13.0
LLSD 171350Z 27013KT 9999 BKN034 15/09 Q1019,LLSD,2019-01-17T13:50:00Z,32.12,34.78,15.0,9.0,270,13,,6.21,30.088583,,,,,,,,,,,BKN,3400,,,,,,,VFR,,,,,,,,,,,,METAR,14.0
EKVJ 171350Z 03002KT 9999 SCT020 BKN070 02/00 Q0993,EKVJ,2019-01-17T13:50:00Z,55.97,8.33,2.0,0.0,30,2,,6.21,29.320866,,,,,,,,,,,SCT,2000,BKN,7000,,,,,VFR,,,,,,,,,,,,METAR,5.0
LCRA 171350Z 21005KT 9999 FEW040 14/03 Q1019 NOSIG,LCRA,2019-01-17T13:50:00Z,34.57,32.97,14.0,3.0,210,5,,6.21,30.088583,,,,,,TRUE,,,,,FEW,4000,,,,,,,VFR,,,,,,,,,,,,METAR,23.0
EDHK 171350Z 27011KT 9999 BKN016 OVC026 04/02 Q0993 RESHRA,EDHK,2019-01-17T13:50:00Z,54.38,10.15,4.0,2.0,270,11,,6.21,29.320866,,,,,,,,,,,BKN,1600,OVC,2600,,,,,MVFR,,,,,,,,,,,,METAR,31.0
ETNG 171350Z 29012KT 9999 FEW012 SCT020TCU BKN042 03/01 Q1004 TEMPO 3500 SHRAGS BKN012,ETNG,2019-01-17T13:50:00Z,50.97,6.03,3.0,1.0,290,12,,6.21,29.64567,,,,,,,,,,,FEW,1200,SCT,2000,BKN,4200,,,VFR,,,,,,,,,,,,METAR,98.0
MSSS 171350Z 35009KT CAVOK 20/15 Q1019 A3010,MSSS,2019-01-17T13:50:00Z,13.7,-89.12,20.0,15.0,350,9,,6.21,30.088583,,,,,,,,,,,CAVOK,,,,,,,,VFR,,,,,,,,,,,,METAR,616.0
BGSF 171350Z AUTO VRB01KT 9999NDV NCD M19/M22 Q1010,BGSF,2019-01-17T13:50:00Z,67.0,-50.72,-19.0,-22.0,0,1,,,29.822834,,,TRUE,,,,,,,,CLR,,,,,,,,,,,,,,,,,,,,METAR,53.0
BGKK 171350Z 13017KT 9999 DRSN SCT050 M07/M15 Q1013,BGKK,2019-01-17T13:50:00Z,65.57,-37.13,-7.0,-15.0,130,17,,6.21,29.911417,,,,,,,,,,DRSN,SCT,5000,,,,,,,VFR,,,,,,,,,,,,METAR,34.0
BGGH 171350Z 07012KT 9999 FEW007 BKN070 M08/M12 Q1006,BGGH,2019-01-17T13:50:00Z,64.2,-51.68,-8.0,-12.0,70,12,,6.21,29.704725,,,,,,,,,,,FEW,700,BKN,7000,,,,,VFR,,,,,,,,,,,,METAR,70.0
MUCC 171350Z 05009KT 9000 FEW020 24/15 Q1021,MUCC,2019-01-17T13:50:00Z,22.47,-78.33,24.0,15.0,50,9,,5.59,30.147638,,,,,,,,,,,FEW,2000,,,,,,,VFR,,,,,,,,,,,,METAR,4.0
EGQS 171350Z 28012KT 9999 FEW035 04/01 Q1014 BLU NOSIG,EGQS,2019-01-17T13:50:00Z,57.72,-3.32,4.0,1.0,280,12,,6.21,29.940945,,,,,,TRUE,,,,,FEW,3500,,,,,,,VFR,,,,,,,,,,,,METAR,13.0
KOQU 171350Z 02005KT 15SM SCT250 M05/M19 A3039,KOQU,2019-01-17T13:50:00Z,41.6,-71.42,-5.0,-19.0,20,5,,15.0,30.389763,,,,,,,,,,,SCT,25000,,,,,,,VFR,,,,,,,,,,,,METAR,6.0
EGTE 171350Z 33010KT 9999 FEW040 06/M03 Q1016,EGTE,2019-01-17T13:50:00Z,50.72,-3.42,6.0,-3.0,330,10,,6.21,30.0,,,,,,,,,,,FEW,4000,,,,,,,VFR,,,,,,,,,,,,METAR,30.0
MUVR 171350Z 18004KT 120V190 9000 FEW025 18/17 Q1022,MUVR,2019-01-17T13:50:00Z,23.03,-81.43,18.0,17.0,180,4,,5.59,30.177166,,,,,,,,,,,FEW,2500,,,,,,,VFR,,,,,,,,,,,,METAR,65.0
MUHG 171350Z VRB03KT 9000 FEW025 BKN090 23/19 Q1020,MUHG,2019-01-17T13:50:00Z,20.77,-76.32,23.0,19.0,0,3,,5.59,30.11811,,,,,,,,,,,FEW,2500,BKN,9000,,,,,VFR,,,,,,,,,,,,METAR,106.0
MUCM 171350Z 02010KT 9000 FEW020 23/18 Q1021,MUCM,2019-01-17T13:50:00Z,21.42,-77.85,23.0,18.0,20,10,,5.59,30.147638,,,,,,,,,,,FEW,2000,,,,,,,VFR,,,,,,,,,,,,METAR,122.0
MUCL 171350Z 05009KT 9000 FEW020 23/20 Q1021,MUCL,2019-01-17T13:50:00Z,21.63,-81.55,23.0,20.0,50,9,,5.59,30.147638,,,,,,,,,,,FEW,2000,,,,,,,VFR,,,,,,,,,,,,METAR,5.0
EGYP 171350Z 27016KT 9999 BKN038 BKN045 11/02 Q1011 BLU TEMPO SCT024 WHT,EGYP,2019-01-17T13:50:00Z,-51.82,-58.45,11.0,2.0,270,16,,6.21,29.852362,,,,,,,,,,,BKN,3800,BKN,4500,,,,,VFR,,,,,,,,,,,,METAR,74.0
EGOV 171350Z 31004KT 9999 SCT032CB BKN041 04/02 Q1016 BLU TEMPO 5000 SHGS WHT,EGOV,2019-01-17T13:50:00Z,53.25,-4.53,4.0,2.0,310,4,,6.21,30.0,,,,,,,,,,,SCT,3200,BKN,4100,,,,,VFR,,,,,,,,,,,,METAR,11.0
MSLU 171350Z 12002KT CAVOK 28/18 Q1014 A2997,MSLU,2019-01-17T13:50:00Z,13.33,-87.88,28.0,18.0,120,2,,6.21,29.940945,,,,,,,,,,,CAVOK,,,,,,,,VFR,,,,,,,,,,,,METAR,5.0
MSSM 171350Z 00000KT CAVOK 22/17 Q//// A////,MSSM,2019-01-17T13:50:00Z,13.43,-88.12,22.0,17.0,0,0,,6.21,,,,,,,,,,,,CAVOK,,,,,,,,VFR,,,,,,,,,,,,METAR,80.0
MSSA 171350Z 00000KT CAVOK 24/16 Q1022 A3019,MSSA,2019-01-17T13:50:00Z,13.97,-89.57,24.0,16.0,0,0,,6.21,30.177166,,,,,,,,,,,CAVOK,,,,,,,,VFR,,,,,,,,,,,,METAR,725.0
MSAC 171350Z 08002KT CAVOK 24/16 Q1010 A2983,MSAC,2019-01-17T13:50:00Z,13.57,-89.83,24.0,16.0,80,2,,6.21,29.822834,,,,,,,,,,,CAVOK,,,,,,,,VFR,,,,,,,,,,,,METAR,15.0
BGBW 171350Z 00000KT 9999 FEW060 BKN080 BKN100 M03/M12 Q1008,BGBW,2019-01-17T13:50:00Z,61.17,-45.42,-3.0,-12.0,0,0,,6.21,29.763779,,,,,,,,,,,FEW,6000,BKN,8000,BKN,10000,,,VFR,,,,,,,,,,,,METAR,26.0
BGJN 171350Z 14003KT 9999 -SN BKN019 M13/M17 Q1012,BGJN,2019-01-17T13:50:00Z,69.25,-51.07,-13.0,-17.0,140,3,,6.21,29.88189,,,,,,,,,,-SN,BKN,1900,,,,,,,MVFR,,,,,,,,,,,,METAR,25.0
OAMS 171350Z 08018KT 9999 FEW100 SCT180 SCT230 14/03 Q1011 BLU+BLU+,OAMS,2019-01-17T13:50:00Z,36.7,67.2,14.0,3.0,80,18,,6.21,29.852362,,,,,,,,,,,FEW,10000,SCT,18000,SCT,23000,,,VFR,,,,,,,,,,,,METAR,378.0
LIBD 171350Z 10006KT 080V140 CAVOK 12/00 Q1018,LIBD,2019-01-17T13:50:00Z,41.12,16.77,12.0,0.0,100,6,,6.21,30.059055,,,,,,,,,,,CAVOK,,,,,,,,VFR,,,,,,,,,,,,METAR,44.0
LIPB 171350Z VRB01KT 9999 FEW050 BKN060 BKN080 06/M01 Q1012 RMK MON W CLD CIME,LIPB,2019-01-17T13:50:00Z,46.47,11.32,6.0,-1.0,0,1,,6.21,29.88189,,,,,,,,,,,FEW,5000,BKN,6000,BKN,8000,,,VFR,,,,,,,,,,,,METAR,241.0
LIPK 171350Z VRB02KT 9999 FEW020 SCT045 13/04 Q1012,LIPK,2019-01-17T13:50:00Z,44.2,12.07,13.0,4.0,0,2,,6.21,29.88189,,,,,,,,,,,FEW,2000,SCT,4500,,,,,VFR,,,,,,,,,,,,METAR,32.0
LIPX 171350Z 29004KT 6000 -RA FEW030 BKN050 06/05 Q1012,LIPX,2019-01-17T13:50:00Z,45.38,10.87,6.0,5.0,290,4,,3.73,29.88189,,,,,,,,,,-RA,FEW,3000,BKN,5000,,,,,MVFR,,,,,,,,,,,,METAR,68.0
OODQ 171350Z AUTO 14012KT CAVOK 24/18 Q1014 NOSIG,OODQ,2019-01-17T13:50:00Z,19.52,57.65,24.0,18.0,140,12,,6.21,29.940945,,,TRUE,,,TRUE,,,,,CAVOK,,,,,,,,VFR,,,,,,,,,,,,METAR,0.0
OOSA 171350Z 19007KT 160V220 CAVOK 26/17 Q1013 NOSIG,OOSA,2019-01-17T13:50:00Z,17.02,54.07,26.0,17.0,190,7,,6.21,29.911417,,,,,,TRUE,,,,,CAVOK,,,,,,,,VFR,,,,,,,,,,,,METAR,20.0
OOMS 171350Z 05009KT CAVOK 24/21 Q1013 NOSIG,OOMS,2019-01-17T13:50:00Z,23.57,58.27,24.0,21.0,50,9,,6.21,29.911417,,,,,,TRUE,,,,,CAVOK,,,,,,,,VFR,,,,,,,,,,,,METAR,8.0
PALP 171350Z 08012KT 15SM SKC M24/M27 A2998,PALP,2019-01-17T13:50:00Z,70.33,-150.93,-24.0,-27.0,80,12,,15.0,29.97933,,,,,,,,,,,SKC,,,,,,,,VFR,,,,,,,,,,,,METAR,5.0
KSUA 171350Z 00000KT 7SM FEW015 15/12 A3023,KSUA,2019-01-17T13:50:00Z,27.18,-80.22,15.0,12.0,0,0,,7.0,30.230314,,,,,,,,,,,FEW,1500,,,,,,,VFR,,,,,,,,,,,,METAR,6.0
EEEI 171350Z 32006KT 290V360 9999 -SN OVC006 M01/M02 Q0980 R24/290095 NOSIG,EEEI,2019-01-17T13:50:00Z,59.27,24.2,-1.0,-2.0,320,6,,6.21,28.937008,,,,,,TRUE,,,,-SN,OVC,600,,,,,,,IFR,,,,,,,,,,,,METAR,20.0
ENEV 171350Z 14006KT 6000 -SN VV015 M07/M09 Q0989 RMK WIND 1400FT 16006KT,ENEV,2019-01-17T13:50:00Z,68.52,16.67,-7.0,-9.0,140,6,,3.73,29.202755,,,,,,,,,,-SN,OVX,0,,,,,,,LIFR,,,,,,,,,,,1500,METAR,26.0
ENOA 171350Z 03015KT 9999 FEW009CB SCT025 02/01 Q1005 W///S6,ENOA,2019-01-17T13:50:00Z,60.5,2.83,2.0,1.0,30,15,,6.21,29.675198,,,,,,,,,,,FEW,900,SCT,2500,,,,,VFR,,,,,,,,,,,,METAR,5.0
ENLE 171350Z 34036KT 9999 VCSH SCT015CB 05/M02 Q1002 W07/S5,ENLE,2019-01-17T13:50:00Z,56.53,3.22,5.0,-2.0,340,36,,6.21,29.586615,,,,,,,,,,VCSH,SCT,1500,,,,,,,VFR,,,,,,,,,,,,METAR,3.0
ENNO 171350Z VRB02KT CAVOK M09/M10 Q0998,ENNO,2019-01-17T13:50:00Z,59.57,9.22,-9.0,-10.0,0,2,,6.21,29.468504,,,,,,,,,,,CAVOK,,,,,,,,VFR,,,,,,,,,,,,METAR,19.0
ENMH 171350Z 16008KT 9999 SCT040 M10/M12 Q0990,ENMH,2019-01-17T13:50:00Z,71.02,27.82,-10.0,-12.0,160,8,,6.21,29.232283,,,,,,,,,,,SCT,4000,,,,,,,VFR,,,,,,,,,,,,METAR,13.0
ENHV 171350Z 23003KT 9999 SCT027 BKN033 M04/M06 Q0990,ENHV,2019-01-17T13:50:00Z,71.02,25.97,-4.0,-6.0,230,3,,6.21,29.232283,,,,,,,,,,,SCT,2700,BKN,3300,,,,,VFR,,,,,,,,,,,,METAR,14.0
LGZA 171350Z 15004KT 9999 SCT025 14/08 Q1021,LGZA,2019-01-17T13:50:00Z,37.75,20.87,14.0,8.0,150,4,,6.21,30.147638,,,,,,,,,,,SCT,2500,,,,,,,VFR,,,,,,,,,,,,METAR,3.0
EEPU 171350Z 25010KT 3600 -RASN BR BKN009 OVC027 01/01 Q0982,EEPU,2019-01-17T13:50:00Z,58.42,24.47,1.0,1.0,250,10,,2.24,28.996063,,,,,,,,,,-RA -SN BR,BKN,900,OVC,2700,,,,,IFR,,,,,,,,,,,,METAR,14.0
EETU 171350Z 24015KT 9999 -SN BKN006 OVC016 01/01 Q0980,EETU,2019-01-17T13:50:00Z,58.32,26.68,1.0,1.0,240,15,,6.21,28.937008,,,,,,,,,,-SN,BKN,600,OVC,1600,,,,,IFR,,,,,,,,,,,,METAR,67.0
EEKE 171350Z 30009G19KT 270V350 9999 FEW007 BKN013 OVC015 00/M02 Q0984 R17/290295,EEKE,2019-01-17T13:50:00Z,58.23,22.52,0.0,-2.0,300,9,19,6.21,29.055119,,,,,,,,,,,FEW,700,BKN,1300,OVC,1500,,,MVFR,,,,,,,,,,,,METAR,4.0
EEKA 171350Z 29010KT 9999 -SN OVC011 M01/M02 Q0983,EEKA,2019-01-17T13:50:00Z,58.98,22.83,-1.0,-2.0,290,10,,6.21,29.02559,,,,,,,,,,-SN,OVC,1100,,,,,,,MVFR,,,,,,,,,,,,METAR,4.0
LGKO 171350Z VRB03KT 9999 FEW025 13/05 Q1020,LGKO,2019-01-17T13:50:00Z,36.8,27.08,13.0,5.0,0,3,,6.21,30.11811,,,,,,,,,,,FEW,2500,,,,,,,VFR,,,,,,,,,,,,METAR,125.0
LGKF 171350Z 00000KT 9999 SCT018 14/05 Q1021,LGKF,2019-01-17T13:50:00Z,38.12,20.5,14.0,5.0,0,0,,6.21,30.147638,,,,,,,,,,,SCT,1800,,,,,,,VFR,,,,,,,,,,,,METAR,18.0
LGKC 171350Z /////KT 9999 FEW030 13/07 Q1020,LGKC,2019-01-17T13:50:00Z,36.28,23.02,13.0,7.0,,,,6.21,30.11811,,,,,,,,,,,FEW,3000,,,,,,,VFR,,,,,,,,,,,,METAR,319.0
LGHI 171350Z 18005KT 9999 SCT025 13/05 Q1020,LGHI,2019-01-17T13:50:00Z,38.32,26.12,13.0,5.0,180,5,,6.21,30.11811,,,,,,,,,,,SCT,2500,,,,,,,VFR,,,,,,,,,,,,METAR,4.0
ENSS 171350Z 10022KT 9999 VCSH FEW010 BKN025 00/M04 Q0990 RMK WIND 500FT 09022KT,ENSS,2019-01-17T13:50:00Z,70.33,31.05,0.0,-4.0,100,22,,6.21,29.232283,,,,,,,,,,VCSH,FEW,1000,BKN,2500,,,,,MVFR,,,,,,,,,,,,METAR,12.0
ENSR 171350Z 16008KT 9999 VCSH NSC M08/M14 Q0990 RMK WIND 1119FT 13012KT,ENSR,2019-01-17T13:50:00Z,69.77,20.97,-8.0,-14.0,160,8,,6.21,29.232283,,,,,,,,,,VCSH,CLR,,,,,,,,VFR,,,,,,,,,,,,METAR,6.0
ENSG 171350Z 25008KT 9999 FEW/// FEW005 M05/M07 Q0998 RMK WIND 3806FT 28015KT,ENSG,2019-01-17T13:50:00Z,61.13,7.12,-5.0,-7.0,250,8,,6.21,29.468504,,,,,,,,,,,FEW,500,,,,,,,VFR,,,,,,,,,,,,METAR,497.0
ENGK 171350Z 34005KT 310V010 CAVOK M01/M07 Q0997,ENGK,2019-01-17T13:50:00Z,58.52,8.7,-1.0,-7.0,340,5,,6.21,29.438976,,,,,,,,,,,CAVOK,,,,,,,,VFR,,,,,,,,,,,,METAR,119.0
ENVR 171350Z 33019G31KT 8000 VCSH SCT018 BKN025 00/M04 Q0990,ENVR,2019-01-17T13:50:00Z,67.65,12.72,0.0,-4.0,330,19,31,4.97,29.232283,,,,,,,,,,VCSH,SCT,1800,BKN,2500,,,,,MVFR,,,,,,,,,,,,METAR,4.0
ENBV 171350Z 22005KT 9999 SCT045 M07/M09 Q0990,ENBV,2019-01-17T13:50:00Z,70.87,29.02,-7.0,-9.0,220,5,,6.21,29.232283,,,,,,,,,,,SCT,4500,,,,,,,VFR,,,,,,,,,,,,METAR,13.0
OOSH 171350Z AUTO 10009KT //// 25/18 Q1012,OOSH,2019-01-17T13:50:00Z,24.55,56.62,25.0,18.0,100,9,,,29.88189,,,TRUE,,,,,,,,,,,,,,,,,,,,,,,,,,,,METAR,35.0
EGVN 171350Z 33012KT 9999 FEW030 05/M04 Q1014 NOSIG,EGVN,2019-01-17T13:50:00Z,51.77,-1.58,5.0,-4.0,330,12,,6.21,29.940945,,,,,,TRUE,,,,,FEW,3000,,,,,,,VFR,,,,,,,,,,,,METAR,88.0
EGYH 171350Z 33019KT 9999 FEW025 04/M01 Q1011 BLU,EGYH,2019-01-17T13:50:00Z,52.87,0.15,4.0,-1.0,330,19,,6.21,29.852362,,,,,,,,,,,FEW,2500,,,,,,,VFR,,,,,,,,,,,,METAR,3.0
EGYM 171350Z 32015KT 9999 VCSH FEW015 FEW025CB SCT028 04/M00 Q1011 BLU NOSIG,EGYM,2019-01-17T13:50:00Z,52.63,0.57,4.0,0.0,320,15,,6.21,29.852362,,,,,,TRUE,,,,VCSH,FEW,1500,FEW,2500,SCT,2800,,,VFR,,,,,,,,,,,,METAR,23.0
OICJ 171350Z 19019KT 9999 FEW035CB SCT040 BKN090 03/M06 Q1008,OICJ,2019-01-17T13:50:00Z,33.9,48.75,3.0,-6.0,190,19,,6.21,29.763779,,,,,,,,,,,FEW,3500,SCT,4000,BKN,9000,,,VFR,,,,,,,,,,,,METAR,1600.0
OIGK 171350Z 05004KT 5000 HZ SCT020 OVC070 M01/M06 Q1002,OIGK,2019-01-17T13:50:00Z,34.28,47.12,-1.0,-6.0,50,4,,3.11,29.586615,,,,,,,,,,HZ,SCT,2000,OVC,7000,,,,,MVFR,,,,,,,,,,,,METAR,1322.0
OIKO 171350Z 21004KT 6000 FEW045 24/17 Q1012,OIKO,2019-01-17T13:50:00Z,27.13,57.1,24.0,17.0,210,4,,3.73,29.88189,,,,,,,,,,,FEW,4500,,,,,,,MVFR,,,,,,,,,,,,METAR,27.0
AZUH 171350Z 08012KT 9999 SCT035CB SCT040 BKN100 04/M01 Q1003,AZUH,2019-01-17T13:50:00Z,39.18,45.45,4.0,-1.0,80,12,,6.21,29.616142,,,,,,,,,,,SCT,3500,SCT,4000,BKN,10000,,,VFR,,,,,,,,,,,,METAR,855.0
OITU 171350Z 36019KT 9999 BKN040 01/M07 Q1004,OITU,2019-01-17T13:50:00Z,39.33,44.43,1.0,-7.0,360,19,,6.21,29.64567,,,,,,,,,,,BKN,4000,,,,,,,VFR,,,,,,,,,,,,METAR,1364.0
KHME 171350Z 00000KT 9999 FEW030CB SCT035 OVC100 17/02 Q1002 RESHRA,KHME,2019-01-17T13:50:00Z,,,17.0,2.0,0,0,,6.21,29.586615,,,,,,,,,,,FEW,3000,SCT,3500,OVC,10000,,,VFR,,,,,,,,,,,,METAR,
PTTP 171350Z 10007KT 15SM BKN017TCU OVC120 27/25 A2978 RMK SHRAE15 TCU ALQDS SLP085 T02720250,PTTP,2019-01-17T13:50:00Z,6.97,158.22,27.2,25.0,100,7,,15.0,29.778543,1008.5,,,,,,,,,,BKN,1700,OVC,12000,,,,,MVFR,,,,,,,,,,,,METAR,2.0
EGWU 171350Z 33015KT 9999 FEW032 04/M04 Q1013 NOSIG,EGWU,2019-01-17T13:50:00Z,51.55,-0.42,4.0,-4.0,330,15,,6.21,29.911417,,,,,,TRUE,,,,,FEW,3200,,,,,,,VFR,,,,,,,,,,,,METAR,40.0
EGOM 171350Z 34012KT CAVOK 02/M04 Q1012 BLU,EGOM,2019-01-17T13:50:00Z,55.05,-2.55,2.0,-4.0,340,12,,6.21,29.88189,,,,,,,,,,,CAVOK,,,,,,,,VFR,,,,,,,,,,,,METAR,325.0
LXGB 171350Z 27011KT 9999 FEW040 SCT060 17/08 Q1016 NOSIG,LXGB,2019-01-17T13:50:00Z,36.13,-5.33,17.0,8.0,270,11,,6.21,30.0,,,,,,TRUE,,,,,FEW,4000,SCT,6000,,,,,VFR,,,,,,,,,,,,METAR,5.0
EGXZ 171350Z AUTO 32017G27KT 9999 NCD 04/M02 Q1013,EGXZ,2019-01-17T13:50:00Z,54.2,-1.38,4.0,-2.0,320,17,27,6.21,29.911417,,,TRUE,,,,,,,,CLR,,,,,,,,VFR,,,,,,,,,,,,METAR,28.0
EGQK 171350Z AUTO 27011KT 9999 FEW048/// 04/00 Q1014,EGQK,2019-01-17T13:50:00Z,57.65,-3.57,4.0,0.0,270,11,,6.21,29.940945,,,TRUE,,,,,,,,FEW,4800,,,,,,,VFR,,,,,,,,,,,,METAR,7.0
LIMZ 171350Z 05004KT 020V100 CAVOK 08/02 Q1011,LIMZ,2019-01-17T13:50:00Z,44.53,7.62,8.0,2.0,50,4,,6.21,29.852362,,,,,,,,,,,CAVOK,,,,,,,,VFR,,,,,,,,,,,,METAR,380.0
LIMP 171350Z 32006KT 2000 -RA BR BKN040 05/04 Q1013,LIMP,2019-01-17T13:50:00Z,44.82,10.3,5.0,4.0,320,6,,1.24,29.911417,,,,,,,,,,-RA BR,BKN,4000,,,,,,,IFR,,,,,,,,,,,,METAR,50.0
LIMG 171350Z 14005KT CAVOK 13/07 Q1011,LIMG,2019-01-17T13:50:00Z,44.03,8.12,13.0,7.0,140,5,,6.21,29.852362,,,,,,,,,,,CAVOK,,,,,,,,VFR,,,,,,,,,,,,METAR,49.0
LIMA 171350Z 00000KT 9000 FEW035 11/02 Q1011,LIMA,2019-01-17T13:50:00Z,45.08,7.6,11.0,2.0,0,0,,5.59,29.852362,,,,,,,,,,,FEW,3500,,,,,,,VFR,,,,,,,,,,,,METAR,287.0
LIPY 171350Z VRB02KT 9999 BKN070 13/04 Q1014,LIPY,2019-01-17T13:50:00Z,43.62,13.37,13.0,4.0,0,2,,6.21,29.940945,,,,,,,,,,,BKN,7000,,,,,,,VFR,,,,,,,,,,,,METAR,10.0
LIPO 171350Z 06003KT 3000 BR BKN050 07/06 Q1012,LIPO,2019-01-17T13:50:00Z,45.42,10.33,7.0,6.0,60,3,,1.86,29.88189,,,,,,,,,,BR,BKN,5000,,,,,,,IFR,,,,,,,,,,,,METAR,109.0
LICA 171350Z 27008KT CAVOK 14/02 Q1019,LICA,2019-01-17T13:50:00Z,38.88,16.25,14.0,2.0,270,8,,6.21,30.088583,,,,,,,,,,,CAVOK,,,,,,,,VFR,,,,,,,,,,,,METAR,15.0
LICR 171350Z 17007KT 140V200 9999 SCT060 14/09 Q1019,LICR,2019-01-17T13:50:00Z,38.07,15.65,14.0,9.0,170,7,,6.21,30.088583,,,,,,,,,,,SCT,6000,,,,,,,VFR,,,,,,,,,,,,METAR,21.0
LICD 171350Z 18008KT 9999 FEW025 16/10 Q1018,LICD,2019-01-17T13:50:00Z,35.5,12.62,16.0,10.0,180,8,,6.21,30.059055,,,,,,,,,,,FEW,2500,,,,,,,VFR,,,,,,,,,,,,METAR,20.0
LICB 171350Z VRB01KT 9999 SCT015 SCT050 13/10 Q1019,LICB,2019-01-17T13:50:00Z,37.0,14.62,13.0,10.0,0,1,,6.21,30.088583,,,,,,,,,,,SCT,1500,SCT,5000,,,,,VFR,,,,,,,,,,,,METAR,220.0
LIQN 171350Z 14009KT 9999 FEW040 11/04 Q1014,LIQN,2019-01-17T13:50:00Z,42.42,12.83,11.0,4.0,140,9,,6.21,29.940945,,,,,,,,,,,FEW,4000,,,,,,,VFR,,,,,,,,,,,,METAR,389.0
LIRZ 171350Z 18008KT 9999 SCT040 BKN050 12/05 Q1014,LIRZ,2019-01-17T13:50:00Z,43.1,12.5,12.0,5.0,180,8,,6.21,29.940945,,,,,,,,,,,SCT,4000,BKN,5000,,,,,VFR,,,,,,,,,,,,METAR,205.0
LIRI 171350Z 26004KT CAVOK 13/05 Q1018,LIRI,2019-01-17T13:50:00Z,40.62,14.92,13.0,5.0,260,4,,6.21,30.059055,,,,,,,,,,,CAVOK,,,,,,,,VFR,,,,,,,,,,,,METAR,40.0
LIBP 171350Z 22010KT 200V260 CAVOK 17/02 Q1014,LIBP,2019-01-17T13:50:00Z,42.42,14.18,17.0,2.0,220,10,,6.21,29.940945,,,,,,,,,,,CAVOK,,,,,,,,VFR,,,,,,,,,,,,METAR,11.0
LIBG 171350Z 22003KT 130V270 CAVOK 14/05 Q1018,LIBG,2019-01-17T13:50:00Z,40.52,17.38,14.0,5.0,220,3,,6.21,30.059055,,,,,,,,,,,CAVOK,,,,,,,,VFR,,,,,,,,,,,,METAR,69.0
LIBF 171350Z 23009KT CAVOK 14/03 Q1017,LIBF,2019-01-17T13:50:00Z,41.42,15.52,14.0,3.0,230,9,,6.21,30.029528,,,,,,,,,,,CAVOK,,,,,,,,VFR,,,,,,,,,,,,METAR,80.0
LIBC 171350Z 20009KT CAVOK 13/03 Q1019,LIBC,2019-01-17T13:50:00Z,39.0,17.07,13.0,3.0,200,9,,6.21,30.088583,,,,,,,,,,,CAVOK,,,,,,,,VFR,,,,,,,,,,,,METAR,161.0
EGDX 171350Z 33007KT 9999 FEW030 06/M03 Q1016 BLU,EGDX,2019-01-17T13:50:00Z,51.4,-3.43,6.0,-3.0,330,7,,6.21,30.0,,,,,,,,,,,FEW,3000,,,,,,,VFR,,,,,,,,,,,,METAR,50.0
EGUB 171350Z 31010KT 9999 FEW030 05/M03 Q1014 BLU NOSIG,EGUB,2019-01-17T13:50:00Z,51.62,-1.07,5.0,-3.0,310,10,,6.21,29.940945,,,,,,TRUE,,,,,FEW,3000,,,,,,,VFR,,,,,,,,,,,,METAR,63.0
EGOW 171350Z 35012KT 9999 FEW035 05/M04 Q1013 BLU,EGOW,2019-01-17T13:50:00Z,53.58,-3.05,5.0,-4.0,350,12,,6.21,29.911417,,,,,,,,,,,FEW,3500,,,,,,,VFR,,,,,,,,,,,,METAR,12.0
EGDY 171350Z 31011KT 9999 FEW030 06/M03 Q1016 BLU NOSIG,EGDY,2019-01-17T13:50:00Z,51.0,-2.62,6.0,-3.0,310,11,,6.21,30.0,,,,,,TRUE,,,,,FEW,3000,,,,,,,VFR,,,,,,,,,,,,METAR,23.0
EGUW 171350Z 32017KT 9999 SCT030 03/M02 Q1010 BLU NOSIG,EGUW,2019-01-17T13:50:00Z,52.12,0.97,3.0,-2.0,320,17,,6.21,29.822834,,,,,,TRUE,,,,,SCT,3000,,,,,,,VFR,,,,,,,,,,,,METAR,87.0
EGVP 171350Z 32014KT 9999 FEW030 05/M02 Q1015 BLU NOSIG,EGVP,2019-01-17T13:50:00Z,51.13,-1.57,5.0,-2.0,320,14,,6.21,29.970472,,,,,,TRUE,,,,,FEW,3000,,,,,,,VFR,,,,,,,,,,,,METAR,91.0
EGVO 171350Z 32012KT 9999 FEW030 04/M04 Q1014 BLU NOSIG,EGVO,2019-01-17T13:50:00Z,51.23,-0.95,4.0,-4.0,320,12,,6.21,29.940945,,,,,,TRUE,,,,,FEW,3000,,,,,,,VFR,,,,,,,,,,,,METAR,123.0
EGXP 171350Z 32015KT 9999 FEW030 04/M01 Q1012 BLU,EGXP,2019-01-17T13:50:00Z,53.3,-0.55,4.0,-1.0,320,15,,6.21,29.88189,,,,,,,,,,,FEW,3000,,,,,,,VFR,,,,,,,,,,,,METAR,61.0
EGXE 171350Z 32015KT 9999 FEW030 04/M03 Q1013 BLU TEMPO 35017G27KT BLU,EGXE,2019-01-17T13:50:00Z,54.28,-1.52,4.0,-3.0,320,15,,6.21,29.911417,,,,,,,,,,,FEW,3000,,,,,,,VFR,,,,,,,,,,,,METAR,40.0
EGXC 171350Z 32016KT 9999 FEW030 04/M02 Q1011 BLU NOSIG,EGXC,2019-01-17T13:50:00Z,53.1,-0.17,4.0,-2.0,320,16,,6.21,29.852362,,,,,,TRUE,,,,,FEW,3000,,,,,,,VFR,,,,,,,,,,,,METAR,7.0
EGYD 171350Z 32019KT 9999 FEW025CB 04/M02 Q1012 BLU NOSIG,EGYD,2019-01-17T13:50:00Z,53.03,-0.5,4.0,-2.0,320,19,,6.21,29.88189,,,,,,TRUE,,,,,FEW,2500,,,,,,,VFR,,,,,,,,,,,,METAR,67.0
EGXW 171350Z 32016KT 9999 FEW030 04/M01 Q1012 BLU NOSIG,EGXW,2019-01-17T13:50:00Z,53.18,-0.52,4.0,-1.0,320,16,,6.21,29.88189,,,,,,TRUE,,,,,FEW,3000,,,,,,,VFR,,,,,,,,,,,,METAR,70.0
EGXV 171350Z AUTO 32014G24KT 9999 NCD 03/M00 Q1011,EGXV,2019-01-17T13:50:00Z,53.87,-0.45,3.0,0.0,320,14,24,6.21,29.852362,,,TRUE,,,,,,,,CLR,,,,,,,,VFR,,,,,,,,,,,,METAR,6.0
EGXU 171350Z 32014KT 9999 FEW026CB 04/M02 Q1013 BLU TEMPO 32015G25KT BLU,EGXU,2019-01-17T13:50:00Z,54.05,-1.25,4.0,-2.0,320,14,,6.21,29.911417,,,,,,,,,,,FEW,2600,,,,,,,VFR,,,,,,,,,,,,METAR,16.0
EGXT 171350Z 32014KT 9999 FEW028 04/M03 Q1011 BLU,EGXT,2019-01-17T13:50:00Z,52.62,-0.47,4.0,-3.0,320,14,,6.21,29.852362,,,,,,,,,,,FEW,2800,,,,,,,VFR,,,,,,,,,,,,METAR,84.0
MMAS 171350Z 34008KT 4SM SCT090 BKN100 OVC270 12/07 A3035 RMK 8/077 HZY BC BR VC,MMAS,2019-01-17T13:50:00Z,21.7,-102.32,12.0,7.0,340,8,,4.0,30.351377,,,,,,,,,,,SCT,9000,BKN,10000,OVC,27000,,,MVFR,,,,,,,,,,,,METAR,1863.0
EGQM 171350Z AUTO 29012KT 9999 FEW043/// 04/M01 Q1012,EGQM,2019-01-17T13:50:00Z,55.42,-1.6,4.0,-1.0,290,12,,6.21,29.88189,,,TRUE,,,,,,,,FEW,4300,,,,,,,VFR,,,,,,,,,,,,METAR,23.0
EGQL 171350Z 32005KT CAVOK 05/M02 Q1014 BLU,EGQL,2019-01-17T13:50:00Z,56.38,-2.87,5.0,-2.0,320,5,,6.21,29.940945,,,,,,,,,,,CAVOK,,,,,,,,VFR,,,,,,,,,,,,METAR,12.0
EGOS 171350Z 33012KT 9999 FEW032 05/M03 Q1015 BLU NOSIG,EGOS,2019-01-17T13:50:00Z,52.8,-2.67,5.0,-3.0,330,12,,6.21,29.970472,,,,,,TRUE,,,,,FEW,3200,,,,,,,VFR,,,,,,,,,,,,METAR,76.0
EGXS 171350Z AUTO 31026KT 9999 // NCD 04/01 Q1010,EGXS,2019-01-17T13:50:00Z,53.48,0.15,4.0,1.0,310,26,,6.21,29.822834,,,TRUE,,,,,,,,CLR,,,,,,,,VFR,,,,,,,,,,,,METAR,3.0
LTAS 171350Z 15003KT 100V180 9999 FEW035 08/02 Q1021,LTAS,2019-01-17T13:50:00Z,41.52,32.08,8.0,2.0,150,3,,6.21,30.147638,,,,,,,,,,,FEW,3500,,,,,,,VFR,,,,,,,,,,,,METAR,136.0
LTAL 171350Z 23006KT 9999 BKN030 M01/M02 Q1016,LTAL,2019-01-17T13:50:00Z,41.32,33.8,-1.0,-2.0,230,6,,6.21,30.0,,,,,,,,,,,BKN,3000,,,,,,,MVFR,,,,,,,,,,,,METAR,1066.0
LTBD 171350Z 10008KT CAVOK 12/02 Q1021,LTBD,2019-01-17T13:50:00Z,37.82,27.88,12.0,2.0,100,8,,6.21,30.147638,,,,,,,,,,,CAVOK,,,,,,,,VFR,,,,,,,,,,,,METAR,57.0
LTBH 171350Z 24007KT 9999 FEW035 12/07 Q1019,LTBH,2019-01-17T13:50:00Z,40.13,26.42,12.0,7.0,240,7,,6.21,30.088583,,,,,,,,,,,FEW,3500,,,,,,,VFR,,,,,,,,,,,,METAR,3.0
LTBQ 171350Z 27004KT 230V290 CAVOK 10/00 Q1021 NOSIG,LTBQ,2019-01-17T13:50:00Z,40.72,30.07,10.0,0.0,270,4,,6.21,30.147638,,,,,,TRUE,,,,,CAVOK,,,,,,,,VFR,,,,,,,,,,,,METAR,50.0
LTBF 171350Z 00000KT CAVOK 12/02 Q1021 NOSIG,LTBF,2019-01-17T13:50:00Z,39.62,27.92,12.0,2.0,0,0,,6.21,30.147638,,,,,,TRUE,,,,,CAVOK,,,,,,,,VFR,,,,,,,,,,,,METAR,102.0
LTAN 171350Z 05004KT 010V070 9999 SCT040 02/M03 Q1019 NOSIG,LTAN,2019-01-17T13:50:00Z,37.97,32.53,2.0,-3.0,50,4,,6.21,30.088583,,,,,,TRUE,,,,,SCT,4000,,,,,,,VFR,,,,,,,,,,,,METAR,1006.0
LTFH 171350Z 24006KT 9999 SCT036 BKN080 06/M01 Q1020 NOSIG,LTFH,2019-01-17T13:50:00Z,41.27,36.55,6.0,-1.0,240,6,,6.21,30.11811,,,,,,TRUE,,,,,SCT,3600,BKN,8000,,,,,VFR,,,,,,,,,,,,METAR,5.0
LTBO 171350Z VRB02KT CAVOK 03/M05 Q1020,LTBO,2019-01-17T13:50:00Z,38.67,29.47,3.0,-5.0,0,2,,6.21,30.11811,,,,,,,,,,,CAVOK,,,,,,,,VFR,,,,,,,,,,,,METAR,919.0
LTCN 171350Z 31011KT 9999 FEW040 06/M08 Q1015 NOSIG,LTCN,2019-01-17T13:50:00Z,37.53,36.95,6.0,-8.0,310,11,,6.21,29.970472,,,,,,TRUE,,,,,FEW,4000,,,,,,,VFR,,,,,,,,,,,,METAR,526.0
LTCB 171350Z 24009KT 200V270 9999 FEW015 BKN030 BKN090 06/M01 Q1020,LTCB,2019-01-17T13:50:00Z,40.97,38.07,6.0,-1.0,240,9,,6.21,30.11811,,,,,,,,,,,FEW,1500,BKN,3000,BKN,9000,,,MVFR,,,,,,,,,,,,METAR,5.0
LTCO 171350Z 31013KT 9999 SCT025 BKN070 M04/M08 Q1006,LTCO,2019-01-17T13:50:00Z,39.65,43.03,-4.0,-8.0,310,13,,6.21,29.704725,,,,,,,,,,,SCT,2500,BKN,7000,,,,,VFR,,,,,,,,,,,,METAR,1665.0
LTCR 171350Z 35017G34KT 310V030 9999 SCT040 BKN100 04/M02 Q1005,LTCR,2019-01-17T13:50:00Z,37.22,40.63,4.0,-2.0,350,17,34,6.21,29.675198,,,,,,,,,,,SCT,4000,BKN,10000,,,,,VFR,,,,,,,,,,,,METAR,527.0
LTCF 171350Z 35020KT 9999 SCT030 BKN070 M06/M11 Q1007,LTCF,2019-01-17T13:50:00Z,40.57,43.12,-6.0,-11.0,350,20,,6.21,29.734253,,,,,,,,,,,SCT,3000,BKN,7000,,,,,VFR,,,,,,,,,,,,METAR,1795.0
LTCI 171350Z 02007KT 7000 SCT030 BKN070 M00/M05 Q1004 TEMPO 3500 BR,LTCI,2019-01-17T13:50:00Z,38.45,43.32,0.0,-5.0,20,7,,4.35,29.64567,,,,,,,,,,,SCT,3000,BKN,7000,,,,,MVFR,,,,,,,,,,,,METAR,1661.0
LTDA 171350Z 31015KT 280V340 CAVOK 10/M05 Q1017 NOSIG,LTDA,2019-01-17T13:50:00Z,36.37,36.28,10.0,-5.0,310,15,,6.21,30.029528,,,,,,TRUE,,,,,CAVOK,,,,,,,,VFR,,,,,,,,,,,,METAR,82.0
LTCD 171350Z 25014KT 9999 BKN040 BKN090 M02/M08 Q1013 NOSIG,LTCD,2019-01-17T13:50:00Z,39.72,39.5,-2.0,-8.0,250,14,,6.21,29.911417,,,,,,TRUE,,,,,BKN,4000,BKN,9000,,,,,VFR,,,,,,,,,,,,METAR,1215.0
LTCA 171350Z 30015KT 9999 BKN035 BKN100 02/M06 Q1010 NOSIG,LTCA,2019-01-17T13:50:00Z,38.6,39.27,2.0,-6.0,300,15,,6.21,29.822834,,,,,,TRUE,,,,,BKN,3500,BKN,10000,,,,,VFR,,,,,,,,,,,,METAR,882.0
LTBY 171350Z 00000KT 9999 FEW040 01/M02 Q1020,LTBY,2019-01-17T13:50:00Z,39.82,30.52,1.0,-2.0,0,0,,6.21,30.11811,,,,,,,,,,,FEW,4000,,,,,,,VFR,,,,,,,,,,,,METAR,789.0
LTAY 171350Z 00000KT 9999 FEW035 04/M03 Q1020,LTAY,2019-01-17T13:50:00Z,37.77,29.68,4.0,-3.0,0,0,,6.21,30.11811,,,,,,,,,,,FEW,3500,,,,,,,VFR,,,,,,,,,,,,METAR,849.0
LTAR 171350Z 32011KT 6000 -SN SCT007 SCT015 OVC060 M07/M08 Q1014,LTAR,2019-01-17T13:50:00Z,39.8,36.9,-7.0,-8.0,320,11,,3.73,29.940945,,,,,,,,,,-SN,SCT,700,SCT,1500,OVC,6000,,,MVFR,,,,,,,,,,,,METAR,1271.0
ENAT 171350Z 21005KT 7000 -SN VV020 M10/M12 Q0990 RMK WIND 700FT 17004KT,ENAT,2019-01-17T13:50:00Z,69.97,23.37,-10.0,-12.0,210,5,,4.35,29.232283,,,,,,,,,,-SN,OVX,0,,,,,,,LIFR,,,,,,,,,,,2000,METAR,3.0
LTFG 171350Z 27006KT CAVOK 13/01 Q1018,LTFG,2019-01-17T13:50:00Z,36.3,32.3,13.0,1.0,270,6,,6.21,30.059055,,,,,,,,,,,CAVOK,,,,,,,,VFR,,,,,,,,,,,,METAR,95.0
LTFD 171350Z 28004KT 240V320 CAVOK 11/03 Q1021,LTFD,2019-01-17T13:50:00Z,39.55,27.02,11.0,3.0,280,4,,6.21,30.147638,,,,,,,,,,,CAVOK,,,,,,,,VFR,,,,,,,,,,,,METAR,16.0
LTCV 171350Z 13010KT 1800 -RA BR SCT007 BKN030 04/04 Q1006,LTCV,2019-01-17T13:50:00Z,37.37,42.07,4.0,4.0,130,10,,1.12,29.704725,,,,,,,,,,-RA BR,SCT,700,BKN,3000,,,,,IFR,,,,,,,,,,,,METAR,621.0
LTCT 171350Z 30016KT 9999 BKN035 OVC070 01/M07 Q1008,LTCT,2019-01-17T13:50:00Z,39.98,43.87,1.0,-7.0,300,16,,6.21,29.763779,,,,,,,,,,,BKN,3500,OVC,7000,,,,,VFR,,,,,,,,,,,,METAR,946.0
EGDM 171350Z 32016KT 9999 FEW025 05/M03 Q1015 BLU NOSIG,EGDM,2019-01-17T13:50:00Z,51.17,-1.75,5.0,-3.0,320,16,,6.21,29.970472,,,,,,TRUE,,,,,FEW,2500,,,,,,,VFR,,,,,,,,,,,,METAR,124.0
EGYE 171350Z 32016KT 9999 FEW020 ///// Q1011 BLU,EGYE,2019-01-17T13:50:00Z,52.97,-0.57,,,320,16,,6.21,29.852362,,,,,,,,,,,FEW,2000,,,,,,,VFR,,,,,,,,,,,,METAR,112.0
MMCE 171349Z 10009KT 7SM SCT030 BKN250 22/18 A3015 RMK 8/508,MMCE,2019-01-17T13:49:00Z,18.65,-91.8,22.0,18.0,100,9,,7.0,30.15059,,,,,,,,,,,SCT,3000,BKN,25000,,,,,VFR,,,,,,,,,,,,METAR,2.0
MMTG 171349Z 00000KT 7SM SCT012 SCT070 19/16 A3015 RMK 8/630,MMTG,2019-01-17T13:49:00Z,16.57,-93.03,19.0,16.0,0,0,,7.0,30.15059,,,,,,,,,,,SCT,1200,SCT,7000,,,,,VFR,,,,,,,,,,,,METAR,528.0
KASG 171348Z 34006KT 2 1/2SM BR OVC004 08/08 A3003,KASG,2019-01-17T13:48:00Z,36.17,-94.12,8.0,8.0,340,6,,2.5,30.029528,,,,,,,,,,BR,OVC,400,,,,,,,LIFR,,,,,,,,,,,,METAR,412.0
KSCH 171348Z 00000KT 15SM FEW150 FEW250 M12/M20 A3044,KSCH,2019-01-17T13:48:00Z,42.85,-73.92,-12.0,-20.0,0,0,,15.0,30.43996,,,,,,,,,,,FEW,15000,FEW,25000,,,,,VFR,,,,,,,,,,,,METAR,115.0
KRYY 171348Z 35003KT 6SM BR BKN120 01/M01 A3020 RMK AO2 SLP951 T00061006,KRYY,2019-01-17T13:48:00Z,34.02,-84.6,0.6,-0.6,350,3,,6.0,30.200787,995.1,,,TRUE,,,,,,BR,BKN,12000,,,,,,,VFR,,,,,,,,,,,,SPECI,317.0
KJDN 171348Z AUTO 01006KT M06/M07 A3004 RMK AO1 SLP213 T10611072,KJDN,2019-01-17T13:48:00Z,47.33,-106.95,-6.1,-7.2,10,6,,,30.041338,1021.3,,TRUE,TRUE,,,,,,,,,,,,,,,,,,,,,,,,,,,SPECI,801.0
MMRX 171348Z 00000KT 3/4SM BR VV002 14/12 A3020 RMK 8//// VARB COND,MMRX,2019-01-17T13:48:00Z,26.02,-98.22,14.0,12.0,0,0,,0.75,30.200787,,,,,,,,,,BR,OVX,0,,,,,,,LIFR,,,,,,,,,,,200,METAR,39.0
MMCU 171348Z 20004KT 10SM BKN200 02/02 A3031 RMK 8/008,MMCU,2019-01-17T13:48:00Z,28.7,-105.97,2.0,2.0,200,4,,10.0,30.31004,,,,,,,,,,,BKN,20000,,,,,,,VFR,,,,,,,,,,,,METAR,1372.0
KSAW 171347Z 00000KT 10SM BKN018 M18/M20 A3010,KSAW,2019-01-17T13:47:00Z,46.35,-87.4,-18.0,-20.0,0,0,,10.0,30.100393,,,,,,,,,,,BKN,1800,,,,,,,MVFR,,,,,,,,,,,,METAR,372.0
KALN 171347Z VRB03KT 3/4SM BR OVC004 01/01 A3004,KALN,2019-01-17T13:47:00Z,38.88,-90.03,1.0,1.0,0,3,,0.75,30.041338,,,,,,,,,,BR,OVC,400,,,,,,,LIFR,,,,,,,,,,,,METAR,166.0
KCHD 171347Z 00000KT 10SM CLR 07/07 A3016,KCHD,2019-01-17T13:47:00Z,33.27,-111.82,7.0,7.0,0,0,,10.0,30.159449,,,,,,,,,,,CLR,,,,,,,,VFR,,,,,,,,,,,,METAR,379.0
KGYR 171347Z 04004KT 10SM SKC 09/08 A3016,KGYR,2019-01-17T13:47:00Z,33.42,-112.37,9.0,8.0,40,4,,10.0,30.159449,,,,,,,,,,,SKC,,,,,,,,VFR,,,,,,,,,,,,METAR,295.0
KTIX 171347Z 00000KT 7SM SCT050 12/11 A3025,KTIX,2019-01-17T13:47:00Z,28.5,-80.8,12.0,11.0,0,0,,7.0,30.250984,,,,,,,,,,,SCT,5000,,,,,,,VFR,,,,,,,,,,,,METAR,11.0
KHUM 171347Z 00000KT 7SM BKN030 OVC047 12/10 A3022,KHUM,2019-01-17T13:47:00Z,29.57,-90.67,12.0,10.0,0,0,,7.0,30.221457,,,,,,,,,,,BKN,3000,OVC,4700,,,,,MVFR,,,,,,,,,,,,METAR,3.0
KIWA 171347Z 09007KT 20SM SCT200 07/06 A3016,KIWA,2019-01-17T13:47:00Z,33.3,-111.65,7.0,6.0,90,7,,20.0,30.159449,,,,,,,,,,,SCT,20000,,,,,,,VFR,,,,,,,,,,,,METAR,412.0
KGYH 171347Z 03008KT 10SM CLR 02/00 A3026,KGYH,2019-01-17T13:47:00Z,34.75,-82.38,2.0,0.0,30,8,,10.0,30.259842,,,,,,,,,,,CLR,,,,,,,,VFR,,,,,,,,,,,,METAR,292.0
KSUN 171347Z 00000KT 3/4SM SN OVC004 00/00 A2985,KSUN,2019-01-17T13:47:00Z,43.5,-114.28,0.0,0.0,0,0,,0.75,29.84941,,,,,,,,,,SN,OVC,400,,,,,,,LIFR,,,,,,,,,,,,METAR,1620.0
KFDK 171347Z 01004KT 10SM BKN041 01/M04 A3039,KFDK,2019-01-17T13:47:00Z,39.42,-77.37,1.0,-4.0,10,4,,10.0,30.389763,,,,,,,,,,,BKN,4100,,,,,,,VFR,,,,,,,,,,,,METAR,92.0
KFWS 171346Z 30014G18KT 10SM CLR 11/08 A3011,KFWS,2019-01-17T13:46:00Z,32.57,-97.3,11.0,8.0,300,14,18,10.0,30.109253,,,,,,,,,,,CLR,,,,,,,,VFR,,,,,,,,,,,,METAR,208.0
MMMD 171346Z 11005KT 7SM SCT300 20/16 A3019 RMK 8/008 HZY AC CU,MMMD,2019-01-17T13:46:00Z,20.95,-89.65,20.0,16.0,110,5,,7.0,30.188976,,,,,,,,,,,SCT,30000,,,,,,,VFR,,,,,,,,,,,,METAR,10.0
MMZC 171346Z 00000KT 8SM BKN050 OVC200 10/07 A3033 RMK 8/410 HZY,MMZC,2019-01-17T13:46:00Z,22.9,-102.68,10.0,7.0,0,0,,8.0,30.33071,,,,,,,,,,,BKN,5000,OVC,20000,,,,,VFR,,,,,,,,,,,,METAR,2177.0
MMMX 171346Z 10004KT 6SM FEW080 BKN230 10/06 A3041 NOSIG RMK 8/032 HZY,MMMX,2019-01-17T13:46:00Z,19.42,-99.08,10.0,6.0,100,4,,6.0,30.410433,,,,,,TRUE,,,,,FEW,8000,BKN,23000,,,,,VFR,,,,,,,,,,,,METAR,2238.0
MMQT 171346Z 10004KT 7SM SCT090 OVC250 09/07 A3039 RMK 8/078 SC/SE BINOVC,MMQT,2019-01-17T13:46:00Z,20.62,-100.18,9.0,7.0,100,4,,7.0,30.389763,,,,,,,,,,,SCT,9000,OVC,25000,,,,,VFR,,,,,,,,,,,,METAR,1919.0
KSWF 171345Z 09008KT 20SM BKN120 M08/M14 A3040,KSWF,2019-01-17T13:45:00Z,41.5,-74.08,-8.0,-14.0,90,8,,20.0,30.398623,,,,,,,,,,,BKN,12000,,,,,,,VFR,,,,,,,,,,,,METAR,150.0
KOUN 171345Z 31006KT 10SM OVC007 04/03 A3009,KOUN,2019-01-17T13:45:00Z,35.25,-97.47,4.0,3.0,310,6,,10.0,30.088583,,,,,,,,,,,OVC,700,,,,,,,IFR,,,,,,,,,,,,METAR,357.0
KMMU 171345Z 01006KT 10SM SCT150 BKN250 M04/M11 A3042,KMMU,2019-01-17T13:45:00Z,40.78,-74.42,-4.0,-11.0,10,6,,10.0,30.41929,,,,,,,,,,,SCT,15000,BKN,25000,,,,,VFR,,,,,,,,,,,,METAR,57.0
KBOW 171345Z VRB03KT 7SM SKC 10/08 A3025,KBOW,2019-01-17T13:45:00Z,27.93,-81.77,10.0,8.0,0,3,,7.0,30.250984,,,,,,,,,,,SKC,,,,,,,,VFR,,,,,,,,,,,,METAR,39.0
KBBG 171345Z 00000KT 1/8SM -RA FG OVC002 05/05 A3001,KBBG,2019-01-17T13:45:00Z,36.53,-93.2,5.0,5.0,0,0,,0.13,30.008858,,,,,,,,,,-RA FG,OVC,200,,,,,,,LIFR,,,,,,,,,,,,METAR,397.0
PAKU 171345Z 09010KT 10SM R06/P6000FT SKC M24/M30 A2998,PAKU,2019-01-17T13:45:00Z,70.32,-149.58,-24.0,-30.0,90,10,,10.0,29.97933,,,,,,,,,,,SKC,,,,,,,,VFR,,,,,,,,,,,,METAR,2.0
KMHR 171345Z 14010KT 10SM FEW035 BKN055 12/10 A2989,KMHR,2019-01-17T13:45:00Z,38.53,-121.28,12.0,10.0,140,10,,10.0,29.890747,,,,,,,,,,,FEW,3500,BKN,5500,,,,,VFR,,,,,,,,,,,,METAR,29.0
KMWA 171345Z 21007KT 2SM BR OVC003 06/06 A3004,KMWA,2019-01-17T13:45:00Z,37.77,-89.02,6.0,6.0,210,7,,2.0,30.041338,,,,,,,,,,BR,OVC,300,,,,,,,LIFR,,,,,,,,,,,,METAR,144.0
KCWF 171345Z 11005KT 5SM BR BKN012 BKN020 14/14 A3015,KCWF,2019-01-17T13:45:00Z,30.22,-93.15,14.0,14.0,110,5,,5.0,30.15059,,,,,,,,,,BR,BKN,1200,BKN,2000,,,,,MVFR,,,,,,,,,,,,METAR,4.0
KRYN 171345Z 00000KT 10SM CLR 04/03 A3020,KRYN,2019-01-17T13:45:00Z,32.15,-111.17,4.0,3.0,0,0,,10.0,30.200787,,,,,,,,,,,CLR,,,,,,,,VFR,,,,,,,,,,,,METAR,737.0
KJVL 171345Z 00000KT 10SM OVC020 M02/M06 A3010,KJVL,2019-01-17T13:45:00Z,42.62,-89.05,-2.0,-6.0,0,0,,10.0,30.100393,,,,,,,,,,,OVC,2000,,,,,,,MVFR,,,,,,,,,,,,METAR,246.0
KBAK 171345Z 13005KT 3SM -RA BR SCT005 SCT021 OVC031 00/M01 A3009,KBAK,2019-01-17T13:45:00Z,39.27,-85.9,0.0,-1.0,130,5,,3.0,30.088583,,,,,,,,,,-RA BR,SCT,500,SCT,2100,OVC,3100,,,MVFR,,,,,,,,,,,,METAR,200.0
KCGF 171345Z 13007KT 10SM OVC038 M07/M09 A3023,KCGF,2019-01-17T13:45:00Z,41.57,-81.47,-7.0,-9.0,130,7,,10.0,30.230314,,,,,,,,,,,OVC,3800,,,,,,,VFR,,,,,,,,,,,,METAR,268.0
KWDG 171345Z 31015KT 7SM OVC020 03/03 A3013,KWDG,2019-01-17T13:45:00Z,36.37,-97.77,3.0,3.0,310,15,,7.0,30.129921,,,,,,,,,,,OVC,2000,,,,,,,MVFR,,,,,,,,,,,,METAR,356.0
KATW 171345Z 00000KT 10SM OVC030 M06/M11 A3011,KATW,2019-01-17T13:45:00Z,44.27,-88.52,-6.0,-11.0,0,0,,10.0,30.109253,,,,,,,,,,,OVC,3000,,,,,,,MVFR,,,,,,,,,,,,METAR,280.0
KMTN 171345Z 00000KT 10SM BKN047 01/M06 A3039,KMTN,2019-01-17T13:45:00Z,39.32,-76.42,1.0,-6.0,0,0,,10.0,30.389763,,,,,,,,,,,BKN,4700,,,,,,,VFR,,,,,,,,,,,,METAR,7.0
KGYY 171345Z 11007KT 5SM BR BKN008 OVC019 00/M02 A3010,KGYY,2019-01-17T13:45:00Z,41.62,-87.42,0.0,-2.0,110,7,,5.0,30.100393,,,,,,,,,,BR,BKN,800,OVC,1900,,,,,IFR,,,,,,,,,,,,METAR,180.0
KUES 171345Z COR 00000KT 10SM OVC036 M05/M07 A3012,KUES,2019-01-17T13:45:00Z,43.05,-88.25,-5.0,-7.0,0,0,,10.0,30.121063,,TRUE,,,,,,,,,OVC,3600,,,,,,,VFR,,,,,,,,,,,,SPECI,278.0
LHUD 171345Z 21016KT CAVOK 11/04 Q1012,LHUD,2019-01-17T13:45:00Z,46.25,20.1,11.0,4.0,210,16,,6.21,29.88189,,,,,,,,,,,CAVOK,,,,,,,,VFR,,,,,,,,,,,,METAR,84.0
MMCL 171345Z 00000KT 10SM SCT250 14/14 A3002 RMK 8/004 LWR ST 3QUAD ISOL AC,MMCL,2019-01-17T13:45:00Z,24.77,-107.47,14.0,14.0,0,0,,10.0,30.02067,,,,,,,,,,,SCT,25000,,,,,,,VFR,,,,,,,,,,,,METAR,39.0
MMHO 171345Z 00000KT 10SM FEW100 BKN200 13/11 A3011 RMK 8/038 HZY,MMHO,2019-01-17T13:45:00Z,29.08,-111.05,13.0,11.0,0,0,,10.0,30.109253,,,,,,,,,,,FEW,10000,BKN,20000,,,,,VFR,,,,,,,,,,,,METAR,184.0
MMTC 171344Z 00000KT 8SM SKC 10/09 A3025 RMK ISOL CI HZ,MMTC,2019-01-17T13:44:00Z,25.57,-103.4,10.0,9.0,0,0,,8.0,30.250984,,,,,,,,,,,SKC,,,,,,,,VFR,,,,,,,,,,,,METAR,1124.0
MMBT 171344Z 00000KT 7SM BKN220 23/18 A3003 RMK 8/006 CU S,MMBT,2019-01-17T13:44:00Z,15.77,-96.27,23.0,18.0,0,0,,7.0,30.029528,,,,,,,,,,,BKN,22000,,,,,,,VFR,,,,,,,,,,,,METAR,143.0
MMPA 171344Z 00000KT 1SM BR HZ BKN008 OVC012 19/19 A3018 RMK 8/6// VRB COND OCNL DROP,MMPA,2019-01-17T13:44:00Z,20.5,-97.47,19.0,19.0,0,0,,1.0,30.180119,,,,,,,,,,BR HZ,BKN,800,OVC,1200,,,,,IFR,,,,,,,,,,,,SPECI,142.0
MMPB 171344Z 34005KT 9SM BKN090 05/03 A3041 RMK 8/070 HZY,MMPB,2019-01-17T13:44:00Z,19.17,-98.37,5.0,3.0,340,5,,9.0,30.410433,,,,,,,,,,,BKN,9000,,,,,,,VFR,,,,,,,,,,,,METAR,2244.0
MMGL 171343Z 00000KT 6SM SCT090 BKN300 12/10 A3027 RMK 8/038 HZY,MMGL,2019-01-17T13:43:00Z,20.52,-103.32,12.0,10.0,0,0,,6.0,30.268702,,,,,,,,,,,SCT,9000,BKN,30000,,,,,VFR,,,,,,,,,,,,METAR,1528.0
MMPR 171343Z 00000KT 15SM BKN080 OVC250 21/21 A3000 RMK 8/077 SC,MMPR,2019-01-17T13:43:00Z,20.67,-105.25,21.0,21.0,0,0,,15.0,30.0,,,,,,,,,,,BKN,8000,OVC,25000,,,,,VFR,,,,,,,,,,,,METAR,6.0
MMEP 171343Z 00000KT 8SM SCT070 BKN250 13/13 A3013 RMK 8/038 HZY,MMEP,2019-01-17T13:43:00Z,21.42,-104.85,13.0,13.0,0,0,,8.0,30.129921,,,,,,,,,,,SCT,7000,BKN,25000,,,,,VFR,,,,,,,,,,,,METAR,922.0
MMVR 171343Z 00000KT 5SM SCT010 BKN030 BKN070 22/21 A3016 RMK 8/870 HZY ISOL CI,MMVR,2019-01-17T13:43:00Z,19.15,-96.18,22.0,21.0,0,0,,5.0,30.159449,,,,,,,,,,,SCT,1000,BKN,3000,BKN,7000,,,MVFR,,,,,,,,,,,,METAR,16.0
MMCP 171342Z 09008KT 7SM SCT220 19/16 A3017 RMK 8/009,MMCP,2019-01-17T13:42:00Z,19.82,-90.5,19.0,16.0,90,8,,7.0,30.171259,,,,,,,,,,,SCT,22000,,,,,,,VFR,,,,,,,,,,,,METAR,5.0
MMUN 171342Z 00000KT 7SM BKN030 20/19 A3018 RMK 8/500,MMUN,2019-01-17T13:42:00Z,21.02,-86.85,20.0,19.0,0,0,,7.0,30.180119,,,,,,,,,,,BKN,3000,,,,,,,MVFR,,,,,,,,,,,,METAR,10.0
MMTP 171342Z 08002KT 10SM SKC 24/21 A2997 RMK HZY,MMTP,2019-01-17T13:42:00Z,14.77,-92.37,24.0,21.0,80,2,,10.0,29.970472,,,,,,,,,,,SKC,,,,,,,,VFR,,,,,,,,,,,,METAR,29.0
MMPN 171342Z 00000KT 6SM FEW050 OVC080 15/11 A3025 RMK 8/57/ HZY BINOVC CI,MMPN,2019-01-17T13:42:00Z,19.38,-102.02,15.0,11.0,0,0,,6.0,30.250984,,,,,,,,,,,FEW,5000,OVC,8000,,,,,VFR,,,,,,,,,,,,METAR,1593.0
MMMM 171342Z 00000KT 6SM SCT090 OVC120 10/10 A3032 RMK 8/03/ HZY,MMMM,2019-01-17T13:42:00Z,19.85,-101.02,10.0,10.0,0,0,,6.0,30.318897,,,,,,,,,,,SCT,9000,OVC,12000,,,,,VFR,,,,,,,,,,,,METAR,1833.0
MMCB 171342Z 00000KT 10SM FEW100 BKN200 15/08 A3024 RMK 8/052,MMCB,2019-01-17T13:42:00Z,18.83,-99.27,15.0,8.0,0,0,,10.0,30.239174,,,,,,,,,,,FEW,10000,BKN,20000,,,,,VFR,,,,,,,,,,,,METAR,1560.0
KW99 171341Z AUTO 00000KT 7SM CLR M03/M04 A3027 RMK AO2,KW99,2019-01-17T13:41:00Z,39.0,-79.15,-3.0,-4.0,0,0,,7.0,30.268702,,,TRUE,TRUE,,,,,,,CLR,,,,,,,,VFR,,,,,,,,,,,,SPECI,293.0
KSBD 171341Z AUTO 12009KT 10SM RA OVC026 15/12 A3012 RMK AO2 T01500123,KSBD,2019-01-17T13:41:00Z,34.08,-117.25,15.0,12.3,120,9,,10.0,30.121063,,,TRUE,TRUE,,,,,,RA,OVC,2600,,,,,,,MVFR,,,,,,,,,,,,SPECI,353.0
MMLP 171341Z 18003KT 10SM SKC 12/12 A3011 RMK ISOL AC,MMLP,2019-01-17T13:41:00Z,24.07,-110.37,12.0,12.0,180,3,,10.0,30.109253,,,,,,,,,,,SKC,,,,,,,,VFR,,,,,,,,,,,,METAR,21.0
MMDO 171341Z 00000KT 8SM SCT200 02/M01 A3036 RMK 8/002,MMDO,2019-01-17T13:41:00Z,24.12,-104.52,2.0,-1.0,0,0,,8.0,30.360237,,,,,,,,,,,SCT,20000,,,,,,,VFR,,,,,,,,,,,,METAR,1857.0
MMMZ 171341Z 00000KT 12SM SCT080 BKN230 14/14 A3001 RMK 8/078,MMMZ,2019-01-17T13:41:00Z,23.17,-106.27,14.0,14.0,0,0,,12.0,30.008858,,,,,,,,,,,SCT,8000,BKN,23000,,,,,VFR,,,,,,,,,,,,METAR,10.0
MMAA 171341Z 35005KT 7SM BKN080 BKN300 24/19 A2999 RMK 8/032 HZY,MMAA,2019-01-17T13:41:00Z,16.75,-99.75,24.0,19.0,350,5,,7.0,29.991142,,,,,,,,,,,BKN,8000,BKN,30000,,,,,VFR,,,,,,,,,,,,METAR,5.0
MMTJ 171341Z 15003KT 6SM BKN020 13/11 A3020 RMK 8/500 HZY,MMTJ,2019-01-17T13:41:00Z,32.53,-116.97,13.0,11.0,150,3,,6.0,30.200787,,,,,,,,,,,BKN,2000,,,,,,,MVFR,,,,,,,,,,,,METAR,152.0
MMSD 171341Z 24007KT 10SM SCT120 SCT250 15/09 A3009 RMK 8/038,MMSD,2019-01-17T13:41:00Z,23.13,-109.7,15.0,9.0,240,7,,10.0,30.088583,,,,,,,,,,,SCT,12000,SCT,25000,,,,,VFR,,,,,,,,,,,,METAR,109.0
MMPS 171341Z 06010KT 9SM SKC 22/17 A3009 RMK HZY,MMPS,2019-01-17T13:41:00Z,15.87,-97.07,22.0,17.0,60,10,,9.0,30.088583,,,,,,,,,,,SKC,,,,,,,,VFR,,,,,,,,,,,,METAR,88.0
MMZH 171341Z 00000KT 7SM SCT250 22/19 A3000 RMK 8/002 HZY,MMZH,2019-01-17T13:41:00Z,17.6,-101.47,22.0,19.0,0,0,,7.0,30.0,,,,,,,,,,,SCT,25000,,,,,,,VFR,,,,,,,,,,,,METAR,6.0
MMIO 171340Z 00000KT 10SM SCT200 10/03 A3030 RMK 8/008,MMIO,2019-01-17T13:40:00Z,25.55,-100.93,10.0,3.0,0,0,,10.0,30.301182,,,,,,,,,,,SCT,20000,,,,,,,VFR,,,,,,,,,,,,METAR,1790.0
MMPG 171340Z 00000KT 1SM BR OVC003 09/09 A3024 RMK 8/5// HZY,MMPG,2019-01-17T13:40:00Z,28.65,-100.52,9.0,9.0,0,0,,1.0,30.239174,,,,,,,,,,BR,OVC,300,,,,,,,LIFR,,,,,,,,,,,,METAR,250.0
MMMY 171340Z 34004KT 1/2SM FG VV003 12/// A3019 RMK 8//// TOPS 2800,MMMY,2019-01-17T13:40:00Z,25.77,-100.08,,,340,4,,0.5,30.188976,,,,,,,,,,FG,OVX,0,,,,,,,LIFR,,,,,,,,,,,300,METAR,387.0
MMMV 171340Z 03006KT 1/4SM FG VV001 09/09 A3020 RMK 8////,MMMV,2019-01-17T13:40:00Z,26.95,-101.47,9.0,9.0,30,6,,0.25,30.200787,,,,,,,,,,FG,OVX,0,,,,,,,LIFR,,,,,,,,,,,100,METAR,615.0
MMMA 171340Z 02005KT 5SM OVC013 16/15 A3018 RMK 8/5// HZ,MMMA,2019-01-17T13:40:00Z,25.77,-97.52,16.0,15.0,20,5,,5.0,30.180119,,,,,,,,,,,OVC,1300,,,,,,,MVFR,,,,,,,,,,,,METAR,8.0
MMCS 171340Z 00000KT 10SM SCT250 05/01 A3028 RMK 8/005,MMCS,2019-01-17T13:40:00Z,31.62,-106.42,5.0,1.0,0,0,,10.0,30.280512,,,,,,,,,,,SCT,25000,,,,,,,VFR,,,,,,,,,,,,METAR,1171.0
MMAN 171340Z 00000KT 1/2SM FG VV003 12/11 A3023 RMK 8////,MMAN,2019-01-17T13:40:00Z,25.87,-100.23,12.0,11.0,0,0,,0.5,30.230314,,,,,,,,,,FG,OVX,0,,,,,,,LIFR,,,,,,,,,,,300,METAR,448.0
MMCZ 171340Z 08004KT 8SM BKN015TCU 23/17 A3015 RMK 8/200 SC AC,MMCZ,2019-01-17T13:40:00Z,20.52,-86.92,23.0,17.0,80,4,,8.0,30.15059,,,,,,,,,,,BKN,1500,,,,,,,MVFR,,,,,,,,,,,,METAR,5.0
MMVA 171340Z 06007KT 6SM FEW005 BKN200 20/19 A3014 RMK 8/701 HZY,MMVA,2019-01-17T13:40:00Z,18.0,-92.82,20.0,19.0,60,7,,6.0,30.138779,,,,,,,,,,,FEW,500,BKN,20000,,,,,VFR,,,,,,,,,,,,METAR,13.0
MMCN 171340Z 06004KT 6SM VCFG SCT100 BKN200 12/12 A3002 RMK 8/038 HZY,MMCN,2019-01-17T13:40:00Z,27.4,-109.83,12.0,12.0,60,4,,6.0,30.02067,,,,,,,,,,VCFG,SCT,10000,BKN,20000,,,,,VFR,,,,,,,,,,,,METAR,43.0
MMLO 171340Z 00000KT 8SM SCT070 BKN220 11/07 A3037 RMK 8/038 SC,MMLO,2019-01-17T13:40:00Z,21.0,-101.47,11.0,7.0,0,0,,8.0,30.369095,,,,,,,,,,,SCT,7000,BKN,22000,,,,,VFR,,,,,,,,,,,,METAR,1819.0
MMIA 171340Z 00000KT 8SM OVC065 22/17 A3012 RMK 6//// 8/03/ BINOVC,MMIA,2019-01-17T13:40:00Z,19.27,-103.57,22.0,17.0,0,0,,8.0,30.121063,,,,,,,,,,,OVC,6500,,,,,,,VFR,,,,,,,,,,,,METAR,723.0
MMSP 171340Z 02004KT 1SM BR VV004 11/09 A3034 RMK 8////,MMSP,2019-01-17T13:40:00Z,22.25,-100.93,11.0,9.0,20,4,,1.0,30.339567,,,,,,,,,,BR,OVX,0,,,,,,,LIFR,,,,,,,,,,,400,METAR,1903.0
MMZO 171340Z 00000KT 6SM BKN100 OVC180 24/20 A2999 RMK 8/037,MMZO,2019-01-17T13:40:00Z,19.13,-104.57,24.0,20.0,0,0,,6.0,29.991142,,,,,,,,,,,BKN,10000,OVC,18000,,,,,VFR,,,,,,,,,,,,METAR,8.0
MMOX 171340Z 35003KT 10SM FEW025 OVC120 09/08 A3036 RMK 8/52/,MMOX,2019-01-17T13:40:00Z,17.0,-96.72,9.0,8.0,350,3,,10.0,30.360237,,,,,,,,,,,FEW,2500,OVC,12000,,,,,VFR,,,,,,,,,,,,METAR,1528.0
SAOU 171335Z 11012G25KT 090V150 9999 BKN040 BKN045 14/13 Q1022,SAOU,2019-01-17T13:35:00Z,-33.27,-66.33,14.0,13.0,110,12,25,6.21,30.177166,,,,,,,,,,,BKN,4000,BKN,4500,,,,,VFR,,,,,,,,,,,,SPECI,702.0
SAMR 171335Z 16012KT 1000 +RA SCT015 SCT030 OVC050 16/11 Q1027,SAMR,2019-01-17T13:35:00Z,-34.57,-68.4,16.0,11.0,160,12,,0.62,30.324802,,,,,,,,,,+RA,SCT,1500,SCT,3000,OVC,5000,,,LIFR,,,,,,,,,,,,SPECI,748.0
KTRK 171335Z AUTO 22017G28KT 4SM -SN SCT009 BKN021 OVC049 01/M01 A2982 RMK AO2 LTG DSNT SE P0001,KTRK,2019-01-17T13:35:00Z,39.32,-120.12,1.0,-1.0,220,17,28,4.0,29.819881,,,TRUE,TRUE,,,,,,-SN,SCT,900,BKN,2100,OVC,4900,,,MVFR,,,,,,0.01,,,,,,SPECI,1798.0
VOGO 171330Z 33006KT 5000 HZ NSC 28/20 Q1010 NOSIG,VOGO,2019-01-17T13:30:00Z,15.38,73.83,28.0,20.0,330,6,,3.11,29.822834,,,,,,TRUE,,,,HZ,CLR,,,,,,,,MVFR,,,,,,,,,,,,METAR,52.0
VOGO 171330Z 33006KT 5000 HZ NSC 28/20 Q1010 NOSIG,VOGO,2019-01-17T13:30:00Z,15.38,73.83,28.0,20.0,330,6,,3.11,29.822834,,,,,,TRUE,,,,HZ,CLR,,,,,,,,MVFR,,,,,,,,,,,,METAR,52.0
VOMD 171330Z 07004KT 5000 HZ FEW020 29/14 Q1012 NOSIG,VOMD,2019-01-17T13:30:00Z,9.82,78.07,29.0,14.0,70,4,,3.11,29.88189,,,,,,TRUE,,,,HZ,FEW,2000,,,,,,,MVFR,,,,,,,,,,,,METAR,131.0
VYMD 171330Z 00000KT 6000 HZ NSC 17/14 Q1013,VYMD,2019-01-17T13:30:00Z,21.7,95.98,17.0,14.0,0,0,,3.73,29.911417,,,,,,,,,,HZ,CLR,,,,,,,,MVFR,,,,,,,,,,,,METAR,91.0
