No errors
No warnings
419 ms
data source=metars
4718 results
raw_text,station_id,observation_time,latitude,longitude,temp_c,dewpoint_c,wind_dir_degrees,wind_speed_kt,wind_gust_kt,visibility_statute_mi,altim_in_hg,sea_level_pressure_mb,corrected,auto,auto_station,maintenance_indicator_on,no_signal,lightning_sensor_off,freezing_rain_sensor_off,present_weather_sensor_off,wx_string,sky_cover,cloud_base_ft_agl,sky_cover,cloud_base_ft_agl,sky_cover,cloud_base_ft_agl,sky_cover,cloud_base_ft_agl,flight_category,three_hr_pressure_tendency_mb,maxT_c,minT_c,maxT24hr_c,minT24hr_c,precip_in,pcp3hr_in,pcp6hr_in,pcp24hr_in,snow_in,vert_vis_ft,metar_type,elevation_m
KHFY 150140Z AUTO 00000KT 10SM CLR A3031 RMK AO2,KHFY,2019-01-15T01:40:00Z,39.63,-86.08,,,0,0,,10.0,30.31004,,,TRUE,TRUE,,,,,,,CLR,,,,,,,,VFR,,,,,,,,,,,,SPECI,251.0
KGRY 150140Z AUTO 35012G20KT 340V050 10SM OVC019 12/08 A3030 RMK A01,KGRY,2019-01-15T01:40:00Z,27.63,-90.45,12.0,8.0,350,12,20,10.0,30.301182,,,TRUE,TRUE,,,,,,,OVC,1900,,,,,,,MVFR,,,,,,,,,,,,METAR,58.0
KGOO 150140Z AUTO 00000KT 10SM CLR 07/00 A2990 RMK AO1,KGOO,2019-01-15T01:40:00Z,39.22,-121.0,7.0,0.0,0,0,,10.0,29.899607,,,TRUE,TRUE,,,,,,,CLR,,,,,,,,VFR,,,,,,,,,,,,METAR,962.0
KGHB 150140Z AUTO 05015G20KT 10SM BKN018 12/08 A3034 RMK A01,KGHB,2019-01-15T01:40:00Z,27.83,-91.98,12.0,8.0,50,15,20,10.0,30.339567,,,TRUE,TRUE,,,,,,,BKN,1800,,,,,,,MVFR,,,,,,,,,,,,METAR,30.0
KFYM 150140Z AUTO 34004KT 10SM BKN019 OVC033 02/00 A3030 RMK A01,KFYM,2019-01-15T01:40:00Z,35.07,-86.57,2.0,0.0,340,4,,10.0,30.301182,,,TRUE,TRUE,,,,,,,BKN,1900,OVC,3300,,,,,MVFR,,,,,,,,,,,,METAR,300.0
KHQI 150140Z AUTO 10SM BKN020 OVC065 13/08 A3033 RMK A01,KHQI,2019-01-15T01:40:00Z,27.93,-93.67,13.0,8.0,,,,10.0,30.33071,,,TRUE,TRUE,,,,,,,BKN,2000,OVC,6500,,,,,MVFR,,,,,,,,,,,,METAR,26.0
KHSD 150140Z AUTO 17004KT 10SM CLR 04/00 A3032 RMK A01,KHSD,2019-01-15T01:40:00Z,35.6,-97.72,4.0,0.0,170,4,,10.0,30.318897,,,TRUE,TRUE,,,,,,,CLR,,,,,,,,VFR,,,,,,,,,,,,METAR,364.0
KWBF 150140Z AUTO VRB04G16KT 10SM OVC022 14/09 A3029 RMK A01,KWBF,2019-01-15T01:40:00Z,,,14.0,9.0,0,4,16,10.0,30.28937,,,TRUE,TRUE,,,,,,,OVC,2200,,,,,,,MVFR,,,,,,,,,,,,METAR,
KEMK 150140Z AUTO 10010KT 10SM BKN023 BKN060 OVC070 15/09 A3036 RMK A01,KEMK,2019-01-15T01:40:00Z,27.82,-94.32,15.0,9.0,100,10,,10.0,30.360237,,,TRUE,TRUE,,,,,,,BKN,2300,BKN,6000,OVC,7000,,,MVFR,,,,,,,,,,,,SPECI,26.0
KEDU 150140Z AUTO 00000KT 10SM OVC050 10/08 A2990 RMK AO1,KEDU,2019-01-15T01:40:00Z,38.53,-121.78,10.0,8.0,0,0,,10.0,29.899607,,,TRUE,TRUE,,,,,,,OVC,5000,,,,,,,VFR,,,,,,,,,,,,METAR,21.0
CYQD 150139Z AUTO 13012KT 1 3/4SM -SN BKN021 OVC025 M12/M14 A2980 RMK PRESFR SLP119,CYQD,2019-01-15T01:39:00Z,53.97,-101.08,-12.0,-14.0,130,12,,1.75,29.799213,1011.9,,TRUE,,,,,,,-SN,BKN,2100,OVC,2500,,,,,IFR,,,,,,,,,,,,SPECI,271.0
CYZH 150139Z AUTO 30012G17KT 9SM SCT020 M01/M02 A3007 RMK SLP218,CYZH,2019-01-15T01:39:00Z,55.28,-114.77,-1.0,-2.0,300,12,17,9.0,30.070866,1021.8,,TRUE,,,,,,,,SCT,2000,,,,,,,VFR,,,,,,,,,,,,SPECI,581.0
CYMM 150138Z AUTO 34012G22KT 9SM -SN BKN017 OVC024 M17/M20 A3016 RMK PRESRR SLP252,CYMM,2019-01-15T01:38:00Z,56.65,-111.22,-17.0,-20.0,340,12,22,9.0,30.159449,1025.2,,TRUE,,,,,,,-SN,BKN,1700,OVC,2400,,,,,MVFR,,,,,,,,,,,,SPECI,369.0
CYPY 150138Z AUTO 33003KT 320V030 8SM -SN CLR M20/M23 A3028 RMK SLP284,CYPY,2019-01-15T01:38:00Z,58.77,-111.12,-20.0,-23.0,330,3,,8.0,30.280512,1028.4,,TRUE,,,,,,,-SN,CLR,,,,,,,,VFR,,,,,,,,,,,,SPECI,232.0
CYUX 150138Z AUTO 33014KT 6SM HZ CLR M37/M41 A2982 RMK SLP101,CYUX,2019-01-15T01:38:00Z,68.77,-81.25,-37.0,-41.0,330,14,,6.0,29.819881,1010.1,,TRUE,,,,,,,HZ,CLR,,,,,,,,VFR,,,,,,,,,,,,SPECI,8.0
YMLT 150137Z AUTO 34010KT 4200 -SHRA SCT053 SCT073 26/16 Q1009,YMLT,2019-01-15T01:37:00Z,-41.52,147.18,26.0,16.0,340,10,,2.61,29.793306,,,TRUE,,,,,,,-SHRA,SCT,5300,SCT,7300,,,,,IFR,,,,,,,,,,,,SPECI,178.0
CYXR 150137Z AUTO 33002KT 6SM -SN SCT016 OVC025 M07/M07 A3005 RMK ICG SLP197,CYXR,2019-01-15T01:37:00Z,47.7,-79.83,-7.0,-7.0,330,2,,6.0,30.050198,1019.7,,TRUE,,,,,,,-SN,SCT,1600,OVC,2500,,,,,MVFR,,,,,,,,,,,,SPECI,243.0
KXVG 150137Z AUTO 00000KT 10SM CLR M11/M11 A3020 RMK AO2,KXVG,2019-01-15T01:37:00Z,46.98,-94.2,-11.0,-11.0,0,0,,10.0,30.200787,,,TRUE,TRUE,,,,,,,CLR,,,,,,,,VFR,,,,,,,,,,,,METAR,407.0
KSGH 150137Z AUTO 00000KT 1/2SM FZFG VV006 M11/M12 A3028 RMK AO2 VIS M1/4V5 TSNO,KSGH,2019-01-15T01:37:00Z,39.83,-83.83,-11.0,-12.0,0,0,,0.5,30.280512,,,TRUE,TRUE,,,TRUE,,,FZFG,OVX,0,,,,,,,LIFR,,,,,,,,,,,600,SPECI,321.0
KAVX 150137Z AUTO 18006KT 10SM SCT005 SCT013 BKN029 10/10 A2996 RMK AO2 T01000100 $,KAVX,2019-01-15T01:37:00Z,33.4,-118.42,10.0,10.0,180,6,,10.0,29.958662,,,TRUE,TRUE,TRUE,,,,,,SCT,500,SCT,1300,BKN,2900,,,MVFR,,,,,,,,,,,,SPECI,482.0
KBUF 150137Z 24011KT 10SM BKN015 BKN210 BKN280 M03/M07 A3019 RMK AO2 T10331067,KBUF,2019-01-15T01:37:00Z,42.93,-78.73,-3.3,-6.7,240,11,,10.0,30.188976,,,,TRUE,,,,,,,BKN,1500,BKN,21000,BKN,28000,,,MVFR,,,,,,,,,,,,SPECI,211.0
KLHQ 150137Z AUTO 26007KT 9SM OVC011 M04/M06 A3029 RMK AO2 T10391056,KLHQ,2019-01-15T01:37:00Z,39.75,-82.67,-3.9,-5.6,260,7,,9.0,30.28937,,,TRUE,TRUE,,,,,,,OVC,1100,,,,,,,MVFR,,,,,,,,,,,,SPECI,260.0
KFKL 150136Z AUTO 28006KT 10SM OVC011 M06/M07 A3019 RMK AO2 FZRANO,KFKL,2019-01-15T01:36:00Z,41.37,-79.87,-6.0,-7.0,280,6,,10.0,30.188976,,,TRUE,TRUE,,,,TRUE,,,OVC,1100,,,,,,,MVFR,,,,,,,,,,,,SPECI,469.0
KSDB 150136Z AUTO 09010KT 6SM -RA BR OVC015 02/01 A2995 RMK AO2 P0004 T00220006 ,KSDB,2019-01-15T01:36:00Z,34.75,-118.72,2.2,0.6,90,10,,6.0,29.949802,,,TRUE,TRUE,,,,,,-RA BR,OVC,1500,,,,,,,MVFR,,,,,,0.04,,,,,,SPECI,1377.0
KVLL 150136Z AUTO 00000KT 10SM CLR M02/M09 A3024 RMK AO2 T10211086,KVLL,2019-01-15T01:36:00Z,42.55,-83.18,-2.1,-8.6,0,0,,10.0,30.239174,,,TRUE,TRUE,,,,,,,CLR,,,,,,,,VFR,,,,,,,,,,,,METAR,222.0
KULM 150136Z AUTO 01004KT 10SM OVC008 M02/M03 A3023 RMK AO2,KULM,2019-01-15T01:36:00Z,44.32,-94.5,-2.0,-3.0,10,4,,10.0,30.230314,,,TRUE,TRUE,,,,,,,OVC,800,,,,,,,IFR,,,,,,,,,,,,METAR,308.0
KTWM 150136Z AUTO 00000KT 10SM CLR M07/M10 A3018 RMK AO2,KTWM,2019-01-15T01:36:00Z,47.03,-91.75,-7.0,-10.0,0,0,,10.0,30.180119,,,TRUE,TRUE,,,,,,,CLR,,,,,,,,VFR,,,,,,,,,,,,METAR,328.0
KTTF 150136Z AUTO 24006KT 10SM CLR M05/M06 A3024 RMK AO2 T10521063,KTTF,2019-01-15T01:36:00Z,41.93,-83.42,-5.2,-6.3,240,6,,10.0,30.239174,,,TRUE,TRUE,,,,,,,CLR,,,,,,,,VFR,,,,,,,,,,,,METAR,188.0
KTOB 150136Z AUTO 00000KT 10SM OVC008 M02/M04 A3021 RMK AO2,KTOB,2019-01-15T01:36:00Z,44.02,-92.82,-2.0,-4.0,0,0,,10.0,30.209646,,,TRUE,TRUE,,,,,,,OVC,800,,,,,,,IFR,,,,,,,,,,,,METAR,398.0
KTEW 150136Z AUTO 26005KT 10SM OVC019 M01/M05 A3022 RMK AO2 T10151055,KTEW,2019-01-15T01:36:00Z,42.57,-84.42,-1.5,-5.5,260,5,,10.0,30.221457,,,TRUE,TRUE,,,,,,,OVC,1900,,,,,,,MVFR,,,,,,,,,,,,METAR,280.0
KSLH 150136Z AUTO 26004KT 10SM BKN014 OVC033 M01/M03 A3012 RMK AO2 T10061027,KSLH,2019-01-15T01:36:00Z,45.65,-84.52,-0.6,-2.7,260,4,,10.0,30.121063,,,TRUE,TRUE,,,,,,,BKN,1400,OVC,3300,,,,,MVFR,,,,,,,,,,,,METAR,195.0
KSGS 150136Z AUTO 00000KT 10SM OVC014 M01/M03 A3023 RMK AO2 T10101035,KSGS,2019-01-15T01:36:00Z,44.87,-93.03,-1.0,-3.5,0,0,,10.0,30.230314,,,TRUE,TRUE,,,,,,,OVC,1400,,,,,,,MVFR,,,,,,,,,,,,METAR,250.0
KPZQ 150136Z AUTO 23005KT 5SM BR OVC014 M01/M02 A3014 RMK AO2 T10101018,KPZQ,2019-01-15T01:36:00Z,45.4,-83.82,-1.0,-1.8,230,5,,5.0,30.138779,,,TRUE,TRUE,,,,,,BR,OVC,1400,,,,,,,MVFR,,,,,,,,,,,,METAR,204.0
KOZW 150136Z AUTO 25005KT 10SM OVC022 M02/M07 A3021 RMK AO2 T10201067,KOZW,2019-01-15T01:36:00Z,42.62,-83.97,-2.0,-6.7,250,5,,10.0,30.209646,,,TRUE,TRUE,,,,,,,OVC,2200,,,,,,,MVFR,,,,,,,,,,,,METAR,293.0
KONZ 150136Z AUTO 27006KT 10SM CLR M04/M07 A3023 RMK AO2 T10391071,KONZ,2019-01-15T01:36:00Z,42.1,-83.15,-3.9,-7.1,270,6,,10.0,30.230314,,,TRUE,TRUE,,,,,,,CLR,,,,,,,,VFR,,,,,,,,,,,,METAR,180.0
KOEB 150136Z AUTO 27007KT 10SM OVC017 M02/M05 A3024 RMK AO2 T10221055,KOEB,2019-01-15T01:36:00Z,41.92,-85.03,-2.2,-5.5,270,7,,10.0,30.239174,,,TRUE,TRUE,,,,,,,OVC,1700,,,,,,,MVFR,,,,,,,,,,,,METAR,292.0
KMVE 150136Z AUTO 00000KT 10SM OVC009 M03/M05 A3024 RMK AO2,KMVE,2019-01-15T01:36:00Z,44.97,-95.72,-3.0,-5.0,0,0,,10.0,30.239174,,,TRUE,TRUE,,,,,,,OVC,900,,,,,,,IFR,,,,,,,,,,,,METAR,315.0
KMCD 150136Z AUTO 27007KT 2 1/2SM -SN OVC004 M01/M01 A3011 RMK AO2 T10111011,KMCD,2019-01-15T01:36:00Z,45.85,-84.63,-1.1,-1.1,270,7,,2.5,30.109253,,,TRUE,TRUE,,,,,,-SN,OVC,400,,,,,,,LIFR,,,,,,,,,,,,METAR,226.0
KLDM 150136Z AUTO 28007KT 10SM OVC020 01/M04 A3017 RMK AO2 T00051036,KLDM,2019-01-15T01:36:00Z,43.97,-86.4,0.5,-3.6,280,7,,10.0,30.171259,,,TRUE,TRUE,,,,,,,OVC,2000,,,,,,,MVFR,,,,,,,,,,,,METAR,197.0
KIKW 150136Z AUTO 22004KT 10SM OVC019 M01/M04 A3020 RMK AO2 T10101040,KIKW,2019-01-15T01:36:00Z,43.67,-84.27,-1.0,-4.0,220,4,,10.0,30.200787,,,TRUE,TRUE,,,,,,,OVC,1900,,,,,,,MVFR,,,,,,,,,,,,METAR,194.0
KHZX 150136Z AUTO 00000KT 10SM CLR M08/M09 A3020 RMK AO2,KHZX,2019-01-15T01:36:00Z,46.62,-93.32,-8.0,-9.0,0,0,,10.0,30.200787,,,TRUE,TRUE,,,,,,,CLR,,,,,,,,VFR,,,,,,,,,,,,METAR,374.0
KHAI 150136Z AUTO 26003KT 10SM OVC016 M03/M06 A3026 RMK AO2 T10291060,KHAI,2019-01-15T01:36:00Z,41.97,-85.6,-2.9,-6.0,260,3,,10.0,30.259842,,,TRUE,TRUE,,,,,,,OVC,1600,,,,,,,MVFR,,,,,,,,,,,,METAR,251.0
KGHW 150136Z AUTO 33004KT 10SM CLR M07/M07 A3023 RMK AO2,KGHW,2019-01-15T01:36:00Z,45.63,-95.32,-7.0,-7.0,330,4,,10.0,30.230314,,,TRUE,TRUE,,,,,,,CLR,,,,,,,,VFR,,,,,,,,,,,,METAR,425.0
KFKS 150136Z AUTO 29006KT 10SM OVC018 00/M04 A3017 RMK AO2 T00001036,KFKS,2019-01-15T01:36:00Z,44.63,-86.2,0.0,-3.6,290,6,,10.0,30.171259,,,TRUE,TRUE,,,,,,,OVC,1800,,,,,,,MVFR,,,,,,,,,,,,METAR,193.0
KEVM 150136Z AUTO 00000KT 10SM CLR M11/M11 A3018 RMK AO2 T11071114,KEVM,2019-01-15T01:36:00Z,47.42,-92.5,-10.7,-11.4,0,0,,10.0,30.180119,,,TRUE,TRUE,,,,,,,CLR,,,,,,,,VFR,,,,,,,,,,,,METAR,421.0
KERY 150136Z AUTO 26006KT 5SM BR BKN019 OVC024 M02/M03 A3011 RMK AO2 T10231035,KERY,2019-01-15T01:36:00Z,46.3,-85.45,-2.3,-3.5,260,6,,5.0,30.109253,,,TRUE,TRUE,,,,,,BR,BKN,1900,OVC,2400,,,,,MVFR,,,,,,,,,,,,METAR,265.0
KELO 150136Z AUTO 00000KT 10SM SCT018 M13/M14 A3018 RMK AO2 TSNO,KELO,2019-01-15T01:36:00Z,47.82,-91.82,-13.0,-14.0,0,0,,10.0,30.180119,,,TRUE,TRUE,,,TRUE,,,,SCT,1800,,,,,,,VFR,,,,,,,,,,,,METAR,443.0
KDLZ 150136Z AUTO 00000KT 3/4SM BR VV005 M13/M14 A3028 RMK AO2,KDLZ,2019-01-15T01:36:00Z,40.28,-83.12,-13.0,-14.0,0,0,,0.75,30.280512,,,TRUE,TRUE,,,,,,BR,OVX,0,,,,,,,LIFR,,,,,,,,,,,500,METAR,289.0
KCVX 150136Z AUTO 26010KT 5SM BR BKN014 OVC020 00/M01 A3017 RMK AO2 T00031014,KCVX,2019-01-15T01:36:00Z,45.3,-85.27,0.3,-1.4,260,10,,5.0,30.171259,,,TRUE,TRUE,,,,,,BR,BKN,1400,OVC,2000,,,,,MVFR,,,,,,,,,,,,METAR,204.0
KCOQ 150136Z AUTO 00000KT 10SM CLR M07/M08 A3019 RMK AO2,KCOQ,2019-01-15T01:36:00Z,46.7,-92.5,-7.0,-8.0,0,0,,10.0,30.188976,,,TRUE,TRUE,,,,,,,CLR,,,,,,,,VFR,,,,,,,,,,,,METAR,390.0
KCFS 150136Z AUTO 21005KT 10SM OVC018 M02/M05 A3020 RMK AO2 T10251046,KCFS,2019-01-15T01:36:00Z,43.47,-83.45,-2.5,-4.6,210,5,,10.0,30.200787,,,TRUE,TRUE,,,,,,,OVC,1800,,,,,,,MVFR,,,,,,,,,,,,METAR,214.0
KCAD 150136Z AUTO 25006KT 10SM OVC009 M02/M03 A3012 RMK AO2 T10201037,KCAD,2019-01-15T01:36:00Z,44.27,-85.42,-2.0,-3.7,250,6,,10.0,30.121063,,,TRUE,TRUE,,,,,,,OVC,900,,,,,,,IFR,,,,,,,,,,,,METAR,398.0
KAXV 150136Z AUTO 00000KT 3SM BR CLR M10/M11 A3028 RMK AO2,KAXV,2019-01-15T01:36:00Z,40.5,-84.3,-10.0,-11.0,0,0,,3.0,30.280512,,,TRUE,TRUE,,,,,,BR,CLR,,,,,,,,MVFR,,,,,,,,,,,,METAR,279.0
KADC 150136Z AUTO 27003KT 3SM BR CLR M09/M10 A3020 RMK AO2,KADC,2019-01-15T01:36:00Z,46.45,-95.22,-9.0,-10.0,270,3,,3.0,30.200787,,,TRUE,TRUE,,,,,,BR,CLR,,,,,,,,MVFR,,,,,,,,,,,,METAR,418.0
PAGS 150136Z AUTO 15003KT 2SM BR SCT010 BKN031 OVC044 01/01 A3008 RMK AO2 VIS 1 1/2V5 FZRANO,PAGS,2019-01-15T01:36:00Z,58.42,-135.73,1.0,1.0,150,3,,2.0,30.079725,,,TRUE,TRUE,,,,TRUE,,BR,SCT,1000,BKN,3100,OVC,4400,,,IFR,,,,,,,,,,,,SPECI,9.0
PAGM 150136Z AUTO 05020G26KT 3SM -SN BR BKN008 OVC020 M04/M05 A2937 RMK AO2 PK WND 05026/0135 P0000 FZRANO,PAGM,2019-01-15T01:36:00Z,63.77,-171.73,-4.0,-5.0,50,20,26,3.0,29.371063,,,TRUE,TRUE,,,,TRUE,,-SN BR,BKN,800,OVC,2000,,,,,IFR,,,,,,0.005,,,,,,SPECI,8.0
PAHP 150136Z AUTO 09022G28KT 1SM -SN BR OVC008 01/00 A2931 RMK AO2 PK WND 09030/0101 CIG 005V013 P0000 FZRANO,PAHP,2019-01-15T01:36:00Z,61.52,-166.15,1.0,0.0,90,22,28,1.0,29.309055,,,TRUE,TRUE,,,,TRUE,,-SN BR,OVC,800,,,,,,,IFR,,,,,,0.005,,,,,,SPECI,5.0
KFGN 150136Z AUTO 15003KT M14/M15 A3016 RMK AO2 PWINO,KFGN,2019-01-15T01:36:00Z,49.32,-94.9,-14.0,-15.0,150,3,,,30.159449,,,TRUE,TRUE,,,,,TRUE,,,,,,,,,,,,,,,,,,,,,,METAR,328.0
PHJR 150136Z 14009KT 10SM FEW002 26/17 A3000 RMK AO2 T02610167,PHJR,2019-01-15T01:36:00Z,21.32,-158.07,26.1,16.7,140,9,,10.0,30.0,,,,TRUE,,,,,,,FEW,200,,,,,,,VFR,,,,,,,,,,,,SPECI,15.0
KAIT 150136Z AUTO 00000KT 10SM CLR M12/M14 A3019 RMK AO2,KAIT,2019-01-15T01:36:00Z,46.53,-93.67,-12.0,-14.0,0,0,,10.0,30.188976,,,TRUE,TRUE,,,,,,,CLR,,,,,,,,VFR,,,,,,,,,,,,METAR,367.0
KDTL 150136Z AUTO 29003KT 5SM BR OVC005 M06/M06 A3022 RMK AO2,KDTL,2019-01-15T01:36:00Z,46.82,-95.87,-6.0,-6.0,290,3,,5.0,30.221457,,,TRUE,TRUE,,,,,,BR,OVC,500,,,,,,,IFR,,,,,,,,,,,,METAR,426.0
KCQM 150136Z AUTO 00000KT 10SM CLR M12/M13 A3019 RMK AO2,KCQM,2019-01-15T01:36:00Z,47.82,-92.68,-12.0,-13.0,0,0,,10.0,30.188976,,,TRUE,TRUE,,,,,,,CLR,,,,,,,,VFR,,,,,,,,,,,,METAR,404.0
KCNK 150136Z AUTO 24008KT 2SM BR OVC002 00/00 A3025 RMK AO2 T00000000 $,KCNK,2019-01-15T01:36:00Z,39.55,-97.65,0.0,0.0,240,8,,2.0,30.250984,,,TRUE,TRUE,TRUE,,,,,BR,OVC,200,,,,,,,LIFR,,,,,,,,,,,,SPECI,447.0
KCNB 150136Z AUTO 00000KT 5SM BR OVC004 M02/M03 A3025 RMK AO2 T10251028,KCNB,2019-01-15T01:36:00Z,44.73,-96.27,-2.5,-2.8,0,0,,5.0,30.250984,,,TRUE,TRUE,,,,,,BR,OVC,400,,,,,,,LIFR,,,,,,,,,,,,METAR,364.0
KBKL 150136Z 22008KT 10SM SCT018 M05/M08 A3026 RMK AO2 T10501083,KBKL,2019-01-15T01:36:00Z,41.53,-81.67,-5.0,-8.3,220,8,,10.0,30.259842,,,,TRUE,,,,,,,SCT,1800,,,,,,,VFR,,,,,,,,,,,,SPECI,184.0
KRQB 150136Z AUTO 25007KT 10SM OVC013 M01/M03 A3017 RMK AO2 T10081031,KRQB,2019-01-15T01:36:00Z,43.72,-85.5,-0.8,-3.1,250,7,,10.0,30.171259,,,TRUE,TRUE,,,,,,,OVC,1300,,,,,,,MVFR,,,,,,,,,,,,METAR,302.0
KPMH 150136Z AUTO 31005KT 10SM OVC012 M02/M03 A3032 RMK AO2 T10181035,KPMH,2019-01-15T01:36:00Z,38.83,-82.85,-1.8,-3.5,310,5,,10.0,30.318897,,,TRUE,TRUE,,,,,,,OVC,1200,,,,,,,MVFR,,,,,,,,,,,,METAR,202.0
KOWX 150136Z AUTO 22006KT 7SM CLR M10/M11 A3028 RMK AO1,KOWX,2019-01-15T01:36:00Z,41.03,-83.98,-10.0,-11.0,220,6,,7.0,30.280512,,,TRUE,TRUE,,,,,,,CLR,,,,,,,,VFR,,,,,,,,,,,,METAR,233.0
KBJI 150136Z AUTO 29004KT 1/4SM FZFG OVC002 M09/M10 A3019 RMK AO2 T10941102,KBJI,2019-01-15T01:36:00Z,47.5,-94.92,-9.4,-10.2,290,4,,0.25,30.188976,,,TRUE,TRUE,,,,,,FZFG,OVC,200,,,,,,,LIFR,,,,,,,,,,,,METAR,420.0
KAUW 150136Z AUTO 30003KT 4SM BR OVC006 M03/M03 A3015 RMK AO2 CIG 005V010 I1000 T10281033,KAUW,2019-01-15T01:36:00Z,44.93,-89.62,-2.8,-3.3,300,3,,4.0,30.15059,,,TRUE,TRUE,,,,,,BR,OVC,600,,,,,,,IFR,,,,,,,,,,,,SPECI,362.0
KISQ 150136Z AUTO 29005KT 7SM BKN034 OVC045 M02/M05 A3013 RMK AO2 T10181048,KISQ,2019-01-15T01:36:00Z,45.97,-86.17,-1.8,-4.8,290,5,,7.0,30.129921,,,TRUE,TRUE,,,,,,,BKN,3400,OVC,4500,,,,,VFR,,,,,,,,,,,,SPECI,209.0
KIMS 150136Z AUTO 00000KT 10SM CLR M03/M03 A3032 RMK AO1,KIMS,2019-01-15T01:36:00Z,38.75,-85.47,-3.0,-3.0,0,0,,10.0,30.318897,,,TRUE,TRUE,,,,,,,CLR,,,,,,,,VFR,,,,,,,,,,,,SPECI,250.0
KY31 150136Z AUTO 12004KT 10SM OVC017 M02/M04 A3015 RMK AO2 T10221044,KY31,2019-01-15T01:36:00Z,44.25,-84.18,-2.2,-4.4,120,4,,10.0,30.15059,,,TRUE,TRUE,,,,,,,OVC,1700,,,,,,,MVFR,,,,,,,,,,,,METAR,269.0
KLJF 150136Z AUTO 00000KT 10SM BKN015 M03/M05 A3022 RMK AO2,KLJF,2019-01-15T01:36:00Z,45.1,-94.52,-3.0,-5.0,0,0,,10.0,30.221457,,,TRUE,TRUE,,,,,,,BKN,1500,,,,,,,MVFR,,,,,,,,,,,,SPECI,348.0
KLXL 150136Z AUTO 00000KT 5SM BR CLR M09/M10 A3023 RMK AO2,KLXL,2019-01-15T01:36:00Z,45.95,-94.33,-9.0,-10.0,0,0,,5.0,30.230314,,,TRUE,TRUE,,,,,,BR,CLR,,,,,,,,MVFR,,,,,,,,,,,,SPECI,342.0
K04W 150136Z AUTO 00000KT 7SM CLR M08/M08 A3021 RMK AO2,K04W,2019-01-15T01:36:00Z,46.02,-92.9,-8.0,-8.0,0,0,,7.0,30.209646,,,TRUE,TRUE,,,,,,,CLR,,,,,,,,VFR,,,,,,,,,,,,METAR,311.0
KCDI 150136Z AUTO 23003KT 10SM OVC018 M02/M05 A3028 RMK AO2 T10231046,KCDI,2019-01-15T01:36:00Z,39.97,-81.58,-2.3,-4.6,230,3,,10.0,30.280512,,,TRUE,TRUE,,,,,,,OVC,1800,,,,,,,MVFR,,,,,,,,,,,,METAR,244.0
KCFE 150136Z AUTO 01003KT 10SM OVC013 M02/M05 A3024 RMK AO2 T10251051,KCFE,2019-01-15T01:36:00Z,45.17,-93.85,-2.5,-5.1,10,3,,10.0,30.239174,,,TRUE,TRUE,,,,,,,OVC,1300,,,,,,,MVFR,,,,,,,,,,,,METAR,295.0
KGDB 150136Z AUTO 34004KT 10SM OVC008 M02/M03 A3025 RMK AO2 T10181030,KGDB,2019-01-15T01:36:00Z,44.75,-95.55,-1.8,-3.0,340,4,,10.0,30.250984,,,TRUE,TRUE,,,,,,,OVC,800,,,,,,,IFR,,,,,,,,,,,,METAR,319.0
KI19 150136Z AUTO 00000KT 10SM CLR M04/M06 A3030 RMK AO2 T10411061,KI19,2019-01-15T01:36:00Z,39.7,-83.98,-4.1,-6.1,0,0,,10.0,30.301182,,,TRUE,TRUE,,,,,,,CLR,,,,,,,,VFR,,,,,,,,,,,,METAR,289.0
KPOV 150136Z AUTO 27003KT 10SM OVC014 M04/M07 A3022 RMK AO2 T10401069 PWINO,KPOV,2019-01-15T01:36:00Z,41.22,-81.25,-4.0,-6.9,270,3,,10.0,30.221457,,,TRUE,TRUE,,,,,TRUE,,OVC,1400,,,,,,,MVFR,,,,,,,,,,,,METAR,365.0
KPNM 150136Z AUTO 00000KT 5SM BR CLR M07/M08 A3022 RMK AO2,KPNM,2019-01-15T01:36:00Z,45.57,-93.6,-7.0,-8.0,0,0,,5.0,30.221457,,,TRUE,TRUE,,,,,,BR,CLR,,,,,,,,MVFR,,,,,,,,,,,,METAR,298.0
KPHN 150136Z AUTO 00000KT 10SM CLR M06/M08 A3022 RMK AO2,KPHN,2019-01-15T01:36:00Z,42.92,-82.52,-6.0,-8.0,0,0,,10.0,30.221457,,,TRUE,TRUE,,,,,,,CLR,,,,,,,,VFR,,,,,,,,,,,,METAR,198.0
KMQJ 150136Z AUTO 00000KT 1/4SM VV002 M14/M14 A3030 RMK AO1,KMQJ,2019-01-15T01:36:00Z,39.85,-85.9,-14.0,-14.0,0,0,,0.25,30.301182,,,TRUE,TRUE,,,,,,,OVX,0,,,,,,,LIFR,,,,,,,,,,,200,METAR,263.0
KACQ 150136Z AUTO 32003KT 10SM OVC010 M01/M03 A3023 RMK AO2,KACQ,2019-01-15T01:36:00Z,44.07,-93.55,-1.0,-3.0,320,3,,10.0,30.230314,,,TRUE,TRUE,,,,,,,OVC,1000,,,,,,,MVFR,,,,,,,,,,,,METAR,343.0
KACB 150136Z AUTO 24003KT 10SM OVC016 00/M03 A3017 RMK AO2 T00001035,KACB,2019-01-15T01:36:00Z,44.98,-85.2,0.0,-3.5,240,3,,10.0,30.171259,,,TRUE,TRUE,,,,,,,OVC,1600,,,,,,,MVFR,,,,,,,,,,,,METAR,190.0
K04V 150136Z AUTO 00000KT 10SM CLR M13/M15 A3029 RMK AO2,K04V,2019-01-15T01:36:00Z,38.1,-106.17,-13.0,-15.0,0,0,,10.0,30.28937,,,TRUE,TRUE,,,,,,,CLR,,,,,,,,VFR,,,,,,,,,,,,METAR,2385.0
KD95 150136Z AUTO 30003KT 10SM OVC022 M02/M07 A3021 RMK AO2 T10241066,KD95,2019-01-15T01:36:00Z,43.07,-83.27,-2.4,-6.6,300,3,,10.0,30.209646,,,TRUE,TRUE,,,,,,,OVC,2200,,,,,,,MVFR,,,,,,,,,,,,SPECI,255.0
KDUH 150136Z AUTO 24005KT 10SM OVC024 M03/M07 A3025 RMK AO2 T10321068,KDUH,2019-01-15T01:36:00Z,41.73,-83.65,-3.2,-6.8,240,5,,10.0,30.250984,,,TRUE,TRUE,,,,,,,OVC,2400,,,,,,,MVFR,,,,,,,,,,,,METAR,204.0
KFPK 150136Z AUTO 26006KT 10SM OVC015 M02/M05 A3021 RMK AO2 T10161046,KFPK,2019-01-15T01:36:00Z,42.57,-84.82,-1.6,-4.6,260,6,,10.0,30.209646,,,TRUE,TRUE,,,,,,,OVC,1500,,,,,,,MVFR,,,,,,,,,,,,SPECI,272.0
KFFX 150136Z AUTO 24006KT 10SM OVC011 00/M03 A3019 RMK AO2 T10051029,KFFX,2019-01-15T01:36:00Z,43.43,-86.0,-0.5,-2.9,240,6,,10.0,30.188976,,,TRUE,TRUE,,,,,,,OVC,1100,,,,,,,MVFR,,,,,,,,,,,,METAR,236.0
KFFM 150136Z AUTO 00000KT 7SM OVC007 M05/M06 A3024 RMK AO2,KFFM,2019-01-15T01:36:00Z,46.28,-96.15,-5.0,-6.0,0,0,,7.0,30.239174,,,TRUE,TRUE,,,,,,,OVC,700,,,,,,,IFR,,,,,,,,,,,,METAR,361.0
KEIK 150136Z AUTO 19003KT 10SM CLR M03/M10 A3022 RMK AO2 T10301105,KEIK,2019-01-15T01:36:00Z,40.02,-105.05,-3.0,-10.5,190,3,,10.0,30.221457,,,TRUE,TRUE,,,,,,,CLR,,,,,,,,VFR,,,,,,,,,,,,METAR,1564.0
KPEX 150136Z AUTO 00000KT 10SM CLR M07/M07 A3023 RMK AO2 T10721072,KPEX,2019-01-15T01:36:00Z,45.37,-94.73,-7.2,-7.2,0,0,,10.0,30.230314,,,TRUE,TRUE,,,,,,,CLR,,,,,,,,VFR,,,,,,,,,,,,METAR,360.0
KMGG 150136Z AUTO 00000KT 10SM SCT019 M04/M05 A3023 RMK AO2 T10361051,KMGG,2019-01-15T01:36:00Z,45.23,-93.98,-3.6,-5.1,0,0,,10.0,30.230314,,,TRUE,TRUE,,,,,,,SCT,1900,,,,,,,VFR,,,,,,,,,,,,METAR,313.0
KSYN 150136Z AUTO 30004KT 10SM OVC013 M01/M04 A3022 RMK AO2 T10151039,KSYN,2019-01-15T01:36:00Z,44.47,-93.02,-1.5,-3.9,300,4,,10.0,30.221457,,,TRUE,TRUE,,,,,,,OVC,1300,,,,,,,MVFR,,,,,,,,,,,,METAR,280.0
KSJX 150136Z AUTO 28006KT 4SM BR OVC006 M01/M02 A3014 RMK AO2 T10071017,KSJX,2019-01-15T01:36:00Z,45.7,-85.57,-0.7,-1.7,280,6,,4.0,30.138779,,,TRUE,TRUE,,,,,,BR,OVC,600,,,,,,,IFR,,,,,,,,,,,,METAR,204.0
KROS 150136Z AUTO 00000KT 10SM CLR M05/M06 A3023 RMK AO2 T10471060,KROS,2019-01-15T01:36:00Z,45.7,-92.95,-4.7,-6.0,0,0,,10.0,30.230314,,,TRUE,TRUE,,,,,,,CLR,,,,,,,,VFR,,,,,,,,,,,,METAR,281.0
KRNP 150136Z AUTO 27004KT 10SM OVC019 M01/M05 A3022 RMK AO2 T10101053,KRNP,2019-01-15T01:36:00Z,43.0,-84.13,-1.0,-5.3,270,4,,10.0,30.221457,,,TRUE,TRUE,,,,,,,OVC,1900,,,,,,,MVFR,,,,,,,,,,,,METAR,224.0
KLYV 150136Z AUTO 03003KT 10SM OVC007 M02/M03 A3022 RMK AO2,KLYV,2019-01-15T01:36:00Z,43.62,-96.22,-2.0,-3.0,30,3,,10.0,30.221457,,,TRUE,TRUE,,,,,,,OVC,700,,,,,,,IFR,,,,,,,,,,,,METAR,436.0
KI69 150136Z AUTO 24003KT 7SM CLR M04/M06 A3031 RMK AO2 T10451057,KI69,2019-01-15T01:36:00Z,39.08,-84.22,-4.5,-5.7,240,3,,7.0,30.31004,,,TRUE,TRUE,,,,,,,CLR,,,,,,,,VFR,,,,,,,,,,,,METAR,255.0
KHZL 150136Z AUTO 32003KT 10SM CLR M05/M12 A3012 RMK AO2,KHZL,2019-01-15T01:36:00Z,40.98,-76.0,-5.0,-12.0,320,3,,10.0,30.121063,,,TRUE,TRUE,,,,,,,CLR,,,,,,,,VFR,,,,,,,,,,,,METAR,489.0
CWFD 150136Z AUTO 01022G31KT ////SM //// SCT002 BKN007 BKN050 M29/M32 A2930,CWFD,2019-01-15T01:36:00Z,66.57,-61.58,-29.0,-32.0,10,22,31,,29.300198,,,TRUE,,,,,,,,SCT,200,BKN,700,BKN,5000,,,,,,,,,,,,,,,SPECI,393.0
KRZT 150136Z AUTO 00000KT 10SM OVC020 M03/M06 A3030 RMK AO2,KRZT,2019-01-15T01:36:00Z,39.43,-83.02,-3.0,-6.0,0,0,,10.0,30.301182,,,TRUE,TRUE,,,,,,,OVC,2000,,,,,,,MVFR,,,,,,,,,,,,METAR,221.0
KJMR 150136Z AUTO 00000KT 10SM CLR M07/M08 A3023 RMK AO2,KJMR,2019-01-15T01:36:00Z,45.88,-93.27,-7.0,-8.0,0,0,,10.0,30.230314,,,TRUE,TRUE,,,,,,,CLR,,,,,,,,VFR,,,,,,,,,,,,METAR,309.0
KJKJ 150136Z AUTO 00000KT 5SM BR OVC005 M07/M08 A3025 RMK AO2,KJKJ,2019-01-15T01:36:00Z,46.83,-96.67,-7.0,-8.0,0,0,,5.0,30.250984,,,TRUE,TRUE,,,,,,BR,OVC,500,,,,,,,IFR,,,,,,,,,,,,METAR,280.0
KIRS 150136Z AUTO 27004KT 10SM OVC016 M02/M05 A3024 RMK AO2 T10221055,KIRS,2019-01-15T01:36:00Z,41.8,-85.43,-2.2,-5.5,270,4,,10.0,30.239174,,,TRUE,TRUE,,,,,,,OVC,1600,,,,,,,MVFR,,,,,,,,,,,,METAR,282.0
KAUM 150136Z AUTO 32004KT 7SM OVC008 M01/M04 A3021 RMK AO2,KAUM,2019-01-15T01:36:00Z,43.67,-92.92,-1.0,-4.0,320,4,,7.0,30.209646,,,TRUE,TRUE,,,,,,,OVC,800,,,,,,,IFR,,,,,,,,,,,,SPECI,375.0
KBAX 150136Z AUTO 22005KT 10SM OVC019 M02/M04 A3019 RMK AO2 T10251045,KBAX,2019-01-15T01:36:00Z,43.78,-82.98,-2.5,-4.5,220,5,,10.0,30.188976,,,TRUE,TRUE,,,,,,,OVC,1900,,,,,,,MVFR,,,,,,,,,,,,METAR,234.0
KCCU 150136Z AUTO 27006KT 10SM CLR M07/M15 A3025 RMK AO2,KCCU,2019-01-15T01:36:00Z,39.48,-106.15,-7.0,-15.0,270,6,,10.0,30.250984,,,TRUE,TRUE,,,,,,,CLR,,,,,,,,VFR,,,,,,,,,,,,SPECI,3680.0
KRRL 150135Z AUTO 28003KT 5SM BR SCT012 BKN024 OVC029 M02/M02 A3017 RMK AO2 T10221022 TSNO,KRRL,2019-01-15T01:35:00Z,45.2,-89.72,-2.2,-2.2,280,3,,5.0,30.171259,,,TRUE,TRUE,,,TRUE,,,BR,SCT,1200,BKN,2400,OVC,2900,,,MVFR,,,,,,,,,,,,SPECI,401.0
KGAO 150135Z AUTO 01007KT 10SM OVC018 06/02 A3035 RMK AO2 T00630020,KGAO,2019-01-15T01:35:00Z,29.45,-90.27,6.3,2.0,10,7,,10.0,30.351377,,,TRUE,TRUE,,,,,,,OVC,1800,,,,,,,MVFR,,,,,,,,,,,,SPECI,1.0
KFWZ 150135Z AUTO 24008KT 10SM CLR M05/M17 RMK AO2,KFWZ,2019-01-15T01:35:00Z,42.52,-108.78,-5.0,-17.0,240,8,,10.0,,,,TRUE,TRUE,,,,,,,CLR,,,,,,,,VFR,,,,,,,,,,,,METAR,2588.0
KBQK 150135Z AUTO 00000KT 10SM OVC013 08/06 A3023 RMK AO2,KBQK,2019-01-15T01:35:00Z,31.25,-81.47,8.0,6.0,0,0,,10.0,30.230314,,,TRUE,TRUE,,,,,,,OVC,1300,,,,,,,MVFR,,,,,,,,,,,,SPECI,8.0
KBPG 150135Z AUTO 15004KT 10SM OVC020 07/03 A3034 RMK AO2 T00660031,KBPG,2019-01-15T01:35:00Z,32.22,-101.52,6.6,3.1,150,4,,10.0,30.339567,,,TRUE,TRUE,,,,,,,OVC,2000,,,,,,,MVFR,,,,,,,,,,,,METAR,784.0
KY23 150135Z AUTO 00000KT 10SM OVC016 M01/M02 A3020 RMK AO2 T10151025,KY23,2019-01-15T01:35:00Z,45.3,-91.63,-1.5,-2.5,0,0,,10.0,30.200787,,,TRUE,TRUE,,,,,,,OVC,1600,,,,,,,MVFR,,,,,,,,,,,,METAR,322.0
KXSA 150135Z AUTO 00000KT 10SM CLR M02/M03 A3021 RMK AO2 T10211030,KXSA,2019-01-15T01:35:00Z,37.87,-76.9,-2.1,-3.0,0,0,,10.0,30.209646,,,TRUE,TRUE,,,,,,,CLR,,,,,,,,VFR,,,,,,,,,,,,SPECI,42.0
KXBP 150135Z AUTO 10SM CLR 03/00 A3039 RMK AO2 T00330000,KXBP,2019-01-15T01:35:00Z,33.18,-97.83,3.3,0.0,,,,10.0,30.389763,,,TRUE,TRUE,,,,,,,CLR,,,,,,,,VFR,,,,,,,,,,,,METAR,260.0
KWWR 150135Z AUTO 27004KT 10SM CLR 02/M01 A3028 RMK AO2,KWWR,2019-01-15T01:35:00Z,36.45,-99.52,2.0,-1.0,270,4,,10.0,30.280512,,,TRUE,TRUE,,,,,,,CLR,,,,,,,,VFR,,,,,,,,,,,,SPECI,667.0
KW99 150135Z AUTO 00000KT 5SM BR OVC029 M02/M03 A3019 RMK AO2 T10171031,KW99,2019-01-15T01:35:00Z,39.0,-79.15,-1.7,-3.1,0,0,,5.0,30.188976,,,TRUE,TRUE,,,,,,BR,OVC,2900,,,,,,,MVFR,,,,,,,,,,,,SPECI,293.0
KW96 150135Z AUTO 00000KT 10SM OVC080 M02/M02 A3021 RMK AO1 T10171017,KW96,2019-01-15T01:35:00Z,37.5,-77.12,-1.7,-1.7,0,0,,10.0,30.209646,,,TRUE,TRUE,,,,,,,OVC,8000,,,,,,,VFR,,,,,,,,,,,,SPECI,37.0
KW75 150135Z AUTO 34006KT 10SM BKN070 00/M03 A3020 RMK AO1 T10021032,KW75,2019-01-15T01:35:00Z,37.6,-76.45,-0.2,-3.2,340,6,,10.0,30.200787,,,TRUE,TRUE,,,,,,,BKN,7000,,,,,,,VFR,,,,,,,,,,,,SPECI,9.0
KW63 150135Z AUTO 00000KT 10SM OVC085 01/00 A3020 RMK AO1,KW63,2019-01-15T01:35:00Z,36.6,-78.55,1.0,0.0,0,0,,10.0,30.200787,,,TRUE,TRUE,,,,,,,OVC,8500,,,,,,,VFR,,,,,,,,,,,,SPECI,129.0
KW31 150135Z AUTO 00000KT 10SM OVC085 00/00 A3019 RMK AO1 T10031003,KW31,2019-01-15T01:35:00Z,36.95,-78.18,-0.3,-0.3,0,0,,10.0,30.188976,,,TRUE,TRUE,,,,,,,OVC,8500,,,,,,,VFR,,,,,,,,,,,,SPECI,162.0
KW13 150135Z AUTO 00000KT 10SM BKN018 OVC075 M02/M04 A3016 RMK AO1 T10171045,KW13,2019-01-15T01:35:00Z,38.08,-78.95,-1.7,-4.5,0,0,,10.0,30.159449,,,TRUE,TRUE,,,,,,,BKN,1800,OVC,7500,,,,,MVFR,,,,,,,,,,,,SPECI,443.0
KVJI 150135Z AUTO 35004KT 10SM SCT017 OVC028 00/M01 A3018 RMK AO2 T00001006,KVJI,2019-01-15T01:35:00Z,36.67,-82.02,0.0,-0.6,350,4,,10.0,30.180119,,,TRUE,TRUE,,,,,,,SCT,1700,OVC,2800,,,,,MVFR,,,,,,,,,,,,SPECI,631.0
KVDF 150135Z AUTO 00000KT 10SM CLR 11/08 A3019 RMK AO2,KVDF,2019-01-15T01:35:00Z,28.02,-82.33,11.0,8.0,0,0,,10.0,30.188976,,,TRUE,TRUE,,,,,,,CLR,,,,,,,,VFR,,,,,,,,,,,,SPECI,7.0
KVBW 150135Z AUTO 00000KT 10SM BKN032 BKN038 OVC070 M01/M03 A3017 RMK AO1 T10151031,KVBW,2019-01-15T01:35:00Z,38.37,-78.97,-1.5,-3.1,0,0,,10.0,30.171259,,,TRUE,TRUE,,,,,,,BKN,3200,BKN,3800,OVC,7000,,,VFR,,,,,,,,,,,,SPECI,355.0
KUVA 150135Z AUTO 10003KT 10SM OVC044 09/04 A3037 RMK AO2 T00850036,KUVA,2019-01-15T01:35:00Z,29.22,-99.75,8.5,3.6,100,3,,10.0,30.369095,,,TRUE,TRUE,,,,,,,OVC,4400,,,,,,,VFR,,,,,,,,,,,,METAR,287.0
KUNI 150135Z AUTO 29003KT 10SM OVC015 M02/M04 A3029 RMK AO2 T10181039,KUNI,2019-01-15T01:35:00Z,39.22,-82.23,-1.8,-3.9,290,3,,10.0,30.28937,,,TRUE,TRUE,,,,,,,OVC,1500,,,,,,,MVFR,,,,,,,,,,,,SPECI,193.0
KULS 150135Z AUTO 21004KT 5SM BR CLR M01/M01 A3021 RMK AO2,KULS,2019-01-15T01:35:00Z,37.6,-101.37,-1.0,-1.0,210,4,,5.0,30.209646,,,TRUE,TRUE,,,,,,BR,CLR,,,,,,,,MVFR,,,,,,,,,,,,SPECI,936.0
KUBE 150135Z AUTO 34006KT 10SM OVC012 M02/M05 A3020 RMK AO2,KUBE,2019-01-15T01:35:00Z,45.5,-91.98,-2.0,-5.0,340,6,,10.0,30.200787,,,TRUE,TRUE,,,,,,,OVC,1200,,,,,,,MVFR,,,,,,,,,,,,SPECI,379.0
KU68 150135Z AUTO 00000KT 10SM CLR M04/M10 A3012 RMK AO2,KU68,2019-01-15T01:35:00Z,44.92,-108.45,-4.0,-10.0,0,0,,10.0,30.121063,,,TRUE,TRUE,,,,,,,CLR,,,,,,,,VFR,,,,,,,,,,,,METAR,1247.0
KTYQ 150135Z AUTO 00000KT 1/4SM FZFG VV002 M13/M13 A3030 RMK AO2 T11271134,KTYQ,2019-01-15T01:35:00Z,40.03,-86.25,-12.7,-13.4,0,0,,0.25,30.301182,,,TRUE,TRUE,,,,,,FZFG,OVX,0,,,,,,,LIFR,,,,,,,,,,,200,SPECI,281.0
KTQH 150135Z AUTO 00000KT 10SM OVC008 00/M01 A3038 RMK AO2,KTQH,2019-01-15T01:35:00Z,35.93,-95.0,0.0,-1.0,0,0,,10.0,30.380905,,,TRUE,TRUE,,,,,,,OVC,800,,,,,,,IFR,,,,,,,,,,,,SPECI,266.0
KTNB 150135Z AUTO 00000KT 4SM -SN BKN010 BKN018 OVC023 00/M01 A3012 RMK AO2 T00001015,KTNB,2019-01-15T01:35:00Z,36.2,-81.65,0.0,-1.5,0,0,,4.0,30.121063,,,TRUE,TRUE,,,,,,-SN,BKN,1000,BKN,1800,OVC,2300,,,MVFR,,,,,,,,,,,,SPECI,911.0
KTMA 150135Z AUTO 34006KT 10SM OVC018 08/04 A3023 RMK AO2 T00750040,KTMA,2019-01-15T01:35:00Z,31.43,-83.48,7.5,4.0,340,6,,10.0,30.230314,,,TRUE,TRUE,,,,,,,OVC,1800,,,,,,,MVFR,,,,,,,,,,,,METAR,109.0
KTKV 150135Z AUTO 00000KT 5SM BR OVC008 M03/M03 A3015 RMK AO2 T10261033,KTKV,2019-01-15T01:35:00Z,45.47,-89.82,-2.6,-3.3,0,0,,5.0,30.15059,,,TRUE,TRUE,,,,,,BR,OVC,800,,,,,,,IFR,,,,,,,,,,,,METAR,453.0
KSYF 150135Z AUTO 23007KT 10SM CLR M01/M12 A3017 RMK AO2 T10061116,KSYF,2019-01-15T01:35:00Z,39.77,-101.8,-0.6,-11.6,230,7,,10.0,30.171259,,,TRUE,TRUE,,,,,,,CLR,,,,,,,,VFR,,,,,,,,,,,,SPECI,1025.0
KSLR 150135Z AUTO 10004KT 10SM SCT014 02/00 A3043 RMK AO2 T00200000,KSLR,2019-01-15T01:35:00Z,33.17,-95.62,2.0,0.0,100,4,,10.0,30.431103,,,TRUE,TRUE,,,,,,,SCT,1400,,,,,,,VFR,,,,,,,,,,,,METAR,149.0
KSLO 150135Z AUTO 24003KT 4SM BR OVC020 00/M02 A3035 RMK AO2 T10051018,KSLO,2019-01-15T01:35:00Z,38.65,-88.97,-0.5,-1.8,240,3,,4.0,30.351377,,,TRUE,TRUE,,,,,,BR,OVC,2000,,,,,,,MVFR,,,,,,,,,,,,SPECI,175.0
KSIK 150135Z AUTO 00000KT 10SM BKN024 02/00 A3037 RMK AO2,KSIK,2019-01-15T01:35:00Z,36.9,-89.57,2.0,0.0,0,0,,10.0,30.369095,,,TRUE,TRUE,,,,,,,BKN,2400,,,,,,,MVFR,,,,,,,,,,,,SPECI,96.0
KSEZ 150135Z AUTO 09003KT 10SM SCT041 SCT048 BKN080 08/02 A3015 RMK AO2,KSEZ,2019-01-15T01:35:00Z,34.85,-111.78,8.0,2.0,90,3,,10.0,30.15059,,,TRUE,TRUE,,,,,,,SCT,4100,SCT,4800,BKN,8000,,,VFR,,,,,,,,,,,,METAR,1473.0
KSEP 150135Z AUTO 00000KT 10SM BKN048 05/01 A3038 RMK AO2 T00500011,KSEP,2019-01-15T01:35:00Z,32.22,-98.17,5.0,1.1,0,0,,10.0,30.380905,,,TRUE,TRUE,,,,,,,BKN,4800,,,,,,,VFR,,,,,,,,,,,,METAR,402.0
KSCD 150135Z AUTO 35003KT 10SM OVC016 04/02 A3031 RMK AO2 T00430020,KSCD,2019-01-15T01:35:00Z,33.17,-86.3,4.3,2.0,350,3,,10.0,30.31004,,,TRUE,TRUE,,,,,,,OVC,1600,,,,,,,MVFR,,,,,,,,,,,,SPECI,173.0
KSAR 150135Z AUTO 00000KT 10SM OVC017 00/M01 A3036 RMK AO2 T10011008,KSAR,2019-01-15T01:35:00Z,38.15,-89.7,-0.1,-0.8,0,0,,10.0,30.360237,,,TRUE,TRUE,,,,,,,OVC,1700,,,,,,,MVFR,,,,,,,,,,,,SPECI,164.0
KFSW 150135Z AUTO 27005KT 7SM OVC006 M03/M03 A3031 RMK AO2,KFSW,2019-01-15T01:35:00Z,40.67,-91.32,-3.0,-3.0,270,5,,7.0,30.31004,,,TRUE,TRUE,,,,,,,OVC,600,,,,,,,IFR,,,,,,,,,,,,METAR,221.0
KFSO 150135Z AUTO 00000KT 10SM CLR M15/M16 A3018 RMK AO2 T11501160,KFSO,2019-01-15T01:35:00Z,44.93,-73.1,-15.0,-16.0,0,0,,10.0,30.180119,,,TRUE,TRUE,,,,,,,CLR,,,,,,,,VFR,,,,,,,,,,,,METAR,70.0
KFRH 150135Z AUTO 27003KT 10SM OVC022 00/M07 A3032 RMK AO1,KFRH,2019-01-15T01:35:00Z,38.5,-86.63,0.0,-7.0,270,3,,10.0,30.318897,,,TRUE,TRUE,,,,,,,OVC,2200,,,,,,,MVFR,,,,,,,,,,,,METAR,241.0
KFLY 150135Z AUTO 29009KT 10SM CLR M05/M14 A3020 RMK AO2 T10531145,KFLY,2019-01-15T01:35:00Z,38.95,-104.57,-5.3,-14.5,290,9,,10.0,30.200787,,,TRUE,TRUE,,,,,,,CLR,,,,,,,,VFR,,,,,,,,,,,,METAR,2096.0
KFKR 150135Z AUTO 27003KT 1/4SM FZFG OVC002 M11/M13 A3031 RMK AO2 T11061129 TSNO,KFKR,2019-01-15T01:35:00Z,40.27,-86.57,-10.6,-12.9,270,3,,0.25,30.31004,,,TRUE,TRUE,,,TRUE,,,FZFG,OVC,200,,,,,,,LIFR,,,,,,,,,,,,SPECI,262.0
KFIN 150135Z AUTO 01006KT 10SM SCT017 OVC034 12/08 A3019 RMK AO2 T01150082,KFIN,2019-01-15T01:35:00Z,29.47,-81.2,11.5,8.2,10,6,,10.0,30.188976,,,TRUE,TRUE,,,,,,,SCT,1700,OVC,3400,,,,,VFR,,,,,,,,,,,,METAR,10.0
KFGX 150135Z AUTO 29005KT 10SM OVC011 M02/M03 A3031 RMK AO2 T10201032,KFGX,2019-01-15T01:35:00Z,38.55,-83.75,-2.0,-3.2,290,5,,10.0,30.31004,,,TRUE,TRUE,,,,,,,OVC,1100,,,,,,,MVFR,,,,,,,,,,,,METAR,278.0
KFBR 150135Z AUTO 21007KT 10SM CLR M22/M25 A3027 RMK AO2 T12241252,KFBR,2019-01-15T01:35:00Z,41.4,-110.4,-22.4,-25.2,210,7,,10.0,30.268702,,,TRUE,TRUE,,,,,,,CLR,,,,,,,,VFR,,,,,,,,,,,,METAR,2144.0
KF46 150135Z AUTO 10003KT 10SM CLR 05/02 A3039 RMK AO2 T00500021,KF46,2019-01-15T01:35:00Z,32.93,-96.43,5.0,2.1,100,3,,10.0,30.389763,,,TRUE,TRUE,,,,,,,CLR,,,,,,,,VFR,,,,,,,,,,,,METAR,176.0
KF17 150135Z AUTO 00000KT 10SM OVC019 04/01 A3042 RMK AO2 T00410010,KF17,2019-01-15T01:35:00Z,31.83,-94.15,4.1,1.0,0,0,,10.0,30.41929,,,TRUE,TRUE,,,,,,,OVC,1900,,,,,,,MVFR,,,,,,,,,,,,METAR,97.0
KF05 150135Z AUTO 13004KT 10SM CLR 05/02 A3033 RMK AO1 T00490019,KF05,2019-01-15T01:35:00Z,34.23,-99.28,4.9,1.9,130,4,,10.0,30.33071,,,TRUE,TRUE,,,,,,,CLR,,,,,,,,VFR,,,,,,,,,,,,METAR,386.0
KERV 150135Z AUTO 00000KT 7SM OVC036 07/03 A3036 RMK AO2 T00710031,KERV,2019-01-15T01:35:00Z,29.98,-99.08,7.1,3.1,0,0,,7.0,30.360237,,,TRUE,TRUE,,,,,,,OVC,3600,,,,,,,VFR,,,,,,,,,,,,METAR,510.0
KEDN 150135Z AUTO 00000KT 10SM OVC026 06/04 A3027 RMK AO2 T00550038,KEDN,2019-01-15T01:35:00Z,31.3,-85.9,5.5,3.8,0,0,,10.0,30.268702,,,TRUE,TRUE,,,,,,,OVC,2600,,,,,,,MVFR,,,,,,,,,,,,METAR,110.0
KEDC 150135Z AUTO 00000KT 10SM OVC060 08/04 A3039 RMK AO2,KEDC,2019-01-15T01:35:00Z,30.4,-97.57,8.0,4.0,0,0,,10.0,30.389763,,,TRUE,TRUE,,,,,,,OVC,6000,,,,,,,VFR,,,,,,,,,,,,METAR,189.0
KECU 150135Z AUTO 17004KT 10SM OVC025 08/04 A3038 RMK AO2,KECU,2019-01-15T01:35:00Z,29.95,-100.17,8.0,4.0,170,4,,10.0,30.380905,,,TRUE,TRUE,,,,,,,OVC,2500,,,,,,,MVFR,,,,,,,,,,,,METAR,725.0
KDZB 150135Z AUTO 00000KT 10SM OVC049 07/03 A3038 RMK AO2 T00680029,KDZB,2019-01-15T01:35:00Z,30.53,-98.37,6.8,2.9,0,0,,10.0,30.380905,,,TRUE,TRUE,,,,,,,OVC,4900,,,,,,,VFR,,,,,,,,,,,,METAR,334.0
KDUX 150135Z AUTO 01004KT 10SM CLR 04/M01 A3021 RMK AO2 T00421009,KDUX,2019-01-15T01:35:00Z,35.85,-102.02,4.2,-0.9,10,4,,10.0,30.209646,,,TRUE,TRUE,,,,,,,CLR,,,,,,,,VFR,,,,,,,,,,,,METAR,1129.0
KDRI 150135Z AUTO 03003KT 10SM CLR 04/02 A3041 RMK AO2 T00410020,KDRI,2019-01-15T01:35:00Z,30.83,-93.33,4.1,2.0,30,3,,10.0,30.410433,,,TRUE,TRUE,,,,,,,CLR,,,,,,,,VFR,,,,,,,,,,,,METAR,63.0
KDLO 150135Z AUTO 16006KT 10SM CLR 12/02 A2992 RMK AO2 T01170019,KDLO,2019-01-15T01:35:00Z,35.75,-119.23,11.7,1.9,160,6,,10.0,29.920275,,,TRUE,TRUE,,,,,,,CLR,,,,,,,,VFR,,,,,,,,,,,,METAR,96.0
KD25 150135Z AUTO 33004KT 10SM OVC008 M03/M03 A3015 RMK AO2 T10351035,KD25,2019-01-15T01:35:00Z,46.12,-89.88,-3.5,-3.5,330,4,,10.0,30.15059,,,TRUE,TRUE,,,,,,,OVC,800,,,,,,,IFR,,,,,,,,,,,,METAR,491.0
KCZL 150135Z AUTO 34006KT 10SM OVC023 05/00 A3029 RMK AO2,KCZL,2019-01-15T01:35:00Z,34.47,-84.93,5.0,0.0,340,6,,10.0,30.28937,,,TRUE,TRUE,,,,,,,OVC,2300,,,,,,,MVFR,,,,,,,,,,,,METAR,195.0
KCXU 150135Z AUTO 00000KT 10SM SCT021 OVC029 08/04 A3025 RMK AO1 T00800039,KCXU,2019-01-15T01:35:00Z,31.22,-84.23,8.0,3.9,0,0,,10.0,30.250984,,,TRUE,TRUE,,,,,,,SCT,2100,OVC,2900,,,,,MVFR,,,,,,,,,,,,METAR,53.0
KCWC 150135Z AUTO 16003KT 10SM CLR 03/01 A3037 RMK AO2 T00280005,KCWC,2019-01-15T01:35:00Z,33.85,-98.48,2.8,0.5,160,3,,10.0,30.369095,,,TRUE,TRUE,,,,,,,CLR,,,,,,,,VFR,,,,,,,,,,,,METAR,305.0
KCPK 150135Z AUTO 00000KT 10SM CLR M02/M03 A3021 RMK AO2 T10201030,KCPK,2019-01-15T01:35:00Z,36.67,-76.32,-2.0,-3.0,0,0,,10.0,30.209646,,,TRUE,TRUE,,,,,,,CLR,,,,,,,,VFR,,,,,,,,,,,,METAR,6.0
KCMD 150135Z AUTO 00000KT 10SM OVC021 03/00 A3032 RMK AO2 T00251005,KCMD,2019-01-15T01:35:00Z,34.27,-86.85,2.5,-0.5,0,0,,10.0,30.318897,,,TRUE,TRUE,,,,,,,OVC,2100,,,,,,,MVFR,,,,,,,,,,,,METAR,294.0
KCLS 150135Z AUTO 00000KT 9SM CLR 02/02 A2995 RMK AO2,KCLS,2019-01-15T01:35:00Z,46.68,-122.98,2.0,2.0,0,0,,9.0,29.949802,,,TRUE,TRUE,,,,,,,CLR,,,,,,,,VFR,,,,,,,,,,,,METAR,54.0
KCKP 150135Z AUTO 00000KT 10SM OVC011 00/M01 A3023 RMK AO2 T00001009,KCKP,2019-01-15T01:35:00Z,42.73,-95.55,0.0,-0.9,0,0,,10.0,30.230314,,,TRUE,TRUE,,,,,,,OVC,1100,,,,,,,MVFR,,,,,,,,,,,,METAR,374.0
KCGC 150135Z AUTO 33005KT 10SM CLR 10/07 A3021 RMK AO2,KCGC,2019-01-15T01:35:00Z,28.87,-82.57,10.0,7.0,330,5,,10.0,30.209646,,,TRUE,TRUE,,,,,,,CLR,,,,,,,,VFR,,,,,,,,,,,,METAR,3.0
KCDH 150135Z AUTO 00000KT 9SM OVC022 05/00 A3042 RMK AO2,KCDH,2019-01-15T01:35:00Z,33.62,-92.77,5.0,0.0,0,0,,9.0,30.41929,,,TRUE,TRUE,,,,,,,OVC,2200,,,,,,,MVFR,,,,,,,,,,,,METAR,35.0
KCDA 150135Z AUTO 00000KT 10SM CLR M12/M14 A3010 RMK AO2 T11191136,KCDA,2019-01-15T01:35:00Z,44.57,-72.02,-11.9,-13.6,0,0,,10.0,30.100393,,,TRUE,TRUE,,,,,,,CLR,,,,,,,,VFR,,,,,,,,,,,,SPECI,363.0
KCBK 150135Z AUTO 23006KT 10SM CLR M01/M01 A3018 RMK AO2,KCBK,2019-01-15T01:35:00Z,39.43,-101.05,-1.0,-1.0,230,6,,10.0,30.180119,,,TRUE,TRUE,,,,,,,CLR,,,,,,,,VFR,,,,,,,,,,,,METAR,971.0
KBYY 150135Z AUTO 00000KT 10SM OVC060 10/05 A3039 RMK AO2 T01030054,KBYY,2019-01-15T01:35:00Z,28.97,-95.87,10.3,5.4,0,0,,10.0,30.389763,,,TRUE,TRUE,,,,,,,OVC,6000,,,,,,,VFR,,,,,,,,,,,,METAR,14.0
KBYL 150135Z AUTO 00000KT 5SM OVC009 00/00 A3027 RMK AO1,KBYL,2019-01-15T01:35:00Z,36.8,-84.2,0.0,0.0,0,0,,5.0,30.268702,,,TRUE,TRUE,,,,,,,OVC,900,,,,,,,IFR,,,,,,,,,,,,SPECI,359.0
KBXK 150135Z AUTO 07005KT 10SM FEW065 BKN120 16/10 A3005 RMK AO1,KBXK,2019-01-15T01:35:00Z,33.42,-112.68,16.0,10.0,70,5,,10.0,30.050198,,,TRUE,TRUE,,,,,,,FEW,6500,BKN,12000,,,,,VFR,,,,,,,,,,,,METAR,315.0
KBXA 150135Z AUTO 03008KT 10SM OVC023 07/03 A3035 RMK AO2 P0001 T00690026,KBXA,2019-01-15T01:35:00Z,30.82,-89.87,6.9,2.6,30,8,,10.0,30.351377,,,TRUE,TRUE,,,,,,,OVC,2300,,,,,,,MVFR,,,,,,0.01,,,,,,SPECI,36.0
KBTA 150135Z AUTO 19004KT 3SM BR OVC003 00/M01 A3023 RMK AO2 T00001006,KBTA,2019-01-15T01:35:00Z,41.42,-96.12,0.0,-0.6,190,4,,3.0,30.230314,,,TRUE,TRUE,,,,,,BR,OVC,300,,,,,,,LIFR,,,,,,,,,,,,SPECI,396.0
KRYW 150135Z AUTO 00000KT 10SM OVC050 07/03 A3037 RMK AO2 T00690034,KRYW,2019-01-15T01:35:00Z,30.5,-97.97,6.9,3.4,0,0,,10.0,30.369095,,,TRUE,TRUE,,,,,,,OVC,5000,,,,,,,VFR,,,,,,,,,,,,METAR,376.0
KRSV 150135Z AUTO 00000KT 10SM CLR M05/M06 A3036 RMK AO2 T10501061,KRSV,2019-01-15T01:35:00Z,39.02,-87.65,-5.0,-6.1,0,0,,10.0,30.360237,,,TRUE,TRUE,,,,,,,CLR,,,,,,,,VFR,,,,,,,,,,,,SPECI,141.0
KRSN 150135Z AUTO 00000KT 10SM OVC017 04/00 A3045 RMK AO2 T00410001,KRSN,2019-01-15T01:35:00Z,32.52,-92.58,4.1,0.1,0,0,,10.0,30.448818,,,TRUE,TRUE,,,,,,,OVC,1700,,,,,,,MVFR,,,,,,,,,,,,SPECI,95.0
KRMN 150135Z AUTO 00000KT 10SM CLR M04/M04 A3025 RMK AO2 LTG DSNT SE T10361036,KRMN,2019-01-15T01:35:00Z,38.4,-77.45,-3.6,-3.6,0,0,,10.0,30.250984,,,TRUE,TRUE,,,,,,,CLR,,,,,,,,VFR,,,,,,,,,,,,SPECI,65.0
KRKR 150135Z AUTO 19003KT 10SM OVC019 02/M01 A3041 RMK AO2,KRKR,2019-01-15T01:35:00Z,35.02,-94.62,2.0,-1.0,190,3,,10.0,30.410433,,,TRUE,TRUE,,,,,,,OVC,1900,,,,,,,MVFR,,,,,,,,,,,,SPECI,138.0
KRGA 150135Z AUTO 00000KT 10SM OVC014 M02/M03 A3029 RMK AO2,KRGA,2019-01-15T01:35:00Z,37.63,-84.33,-2.0,-3.0,0,0,,10.0,30.28937,,,TRUE,TRUE,,,,,,,OVC,1400,,,,,,,MVFR,,,,,,,,,,,,METAR,305.0
KRAW 150135Z AUTO 23005KT 4SM BR OVC005 A3034 RMK AO2,KRAW,2019-01-15T01:35:00Z,38.35,-93.35,,,230,5,,4.0,30.339567,,,TRUE,TRUE,,,,,,BR,OVC,500,,,,,,,IFR,,,,,,,,,,,,SPECI,285.0
KPVJ 150135Z AUTO 00000KT 10SM CLR 03/00 A3035 RMK AO2 T00310001,KPVJ,2019-01-15T01:35:00Z,34.72,-97.22,3.1,0.1,0,0,,10.0,30.351377,,,TRUE,TRUE,,,,,,,CLR,,,,,,,,VFR,,,,,,,,,,,,SPECI,295.0
KPUJ 150135Z AUTO 33009KT 10SM BKN010 OVC016 03/02 A3023 RMK AO2,KPUJ,2019-01-15T01:35:00Z,33.92,-84.93,3.0,2.0,330,9,,10.0,30.230314,,,TRUE,TRUE,,,,,,,BKN,1000,OVC,1600,,,,,MVFR,,,,,,,,,,,,SPECI,393.0
KPTB 150135Z AUTO 00000KT 10SM OVC085 00/M02 A3022 RMK AO2 T00001020,KPTB,2019-01-15T01:35:00Z,37.17,-77.52,0.0,-2.0,0,0,,10.0,30.221457,,,TRUE,TRUE,,,,,,,OVC,8500,,,,,,,VFR,,,,,,,,,,,,SPECI,59.0
KPRS 150135Z AUTO 05011G15KT 10SM CLR 11/04 A3022 RMK AO2 T01120040,KPRS,2019-01-15T01:35:00Z,29.63,-104.35,11.2,4.0,50,11,15,10.0,30.221457,,,TRUE,TRUE,,,,,,,CLR,,,,,,,,VFR,,,,,,,,,,,,METAR,896.0
KPKV 150135Z AUTO 36005KT 10SM BKN050 OVC070 11/06 A3039 RMK AO2 T01050057,KPKV,2019-01-15T01:35:00Z,28.65,-96.68,10.5,5.7,360,5,,10.0,30.389763,,,TRUE,TRUE,,,,,,,BKN,5000,OVC,7000,,,,,VFR,,,,,,,,,,,,METAR,9.0
KPIM 150135Z AUTO 30005KT 10SM OVC027 06/03 A3024 RMK AO2 T00570027 PWINO,KPIM,2019-01-15T01:35:00Z,32.83,-84.88,5.7,2.7,300,5,,10.0,30.239174,,,TRUE,TRUE,,,,,TRUE,,OVC,2700,,,,,,,MVFR,,,,,,,,,,,,SPECI,275.0
KPCD 150135Z AUTO 10SM OVC019 00/M01 A3035 RMK AO2 T00001015,KPCD,2019-01-15T01:35:00Z,37.87,-89.87,0.0,-1.5,,,,10.0,30.351377,,,TRUE,TRUE,,,,,,,OVC,1900,,,,,,,MVFR,,,,,,,,,,,,SPECI,113.0
KOWP 150135Z AUTO 14004KT 7SM CLR 01/M01 A3036 RMK AO2 T00101008,KOWP,2019-01-15T01:35:00Z,36.18,-96.15,1.0,-0.8,140,4,,7.0,30.360237,,,TRUE,TRUE,,,,,,,CLR,,,,,,,,VFR,,,,,,,,,,,,SPECI,272.0
KOOA 150135Z AUTO 27007KT 4SM BR OVC006 M03/M03 A3029 RMK AO2 T10261031,KOOA,2019-01-15T01:35:00Z,41.23,-92.5,-2.6,-3.1,270,7,,4.0,30.28937,,,TRUE,TRUE,,,,,,BR,OVC,600,,,,,,,IFR,,,,,,,,,,,,SPECI,256.0
KONP 150135Z AUTO 08015KT 10SM CLR 08/00 A2986 RMK AO2,KONP,2019-01-15T01:35:00Z,44.57,-124.03,8.0,0.0,80,15,,10.0,29.861221,,,TRUE,TRUE,,,,,,,CLR,,,,,,,,VFR,,,,,,,,,,,,METAR,48.0
KOMH 150135Z AUTO 00000KT 10SM OVC085 M02/M03 A3020 RMK AO2,KOMH,2019-01-15T01:35:00Z,38.25,-78.05,-2.0,-3.0,0,0,,10.0,30.200787,,,TRUE,TRUE,,,,,,,OVC,8500,,,,,,,VFR,,,,,,,,,,,,SPECI,142.0
KOLE 150135Z AUTO 30003KT 10SM CLR M07/M10 A3010 RMK AO2,KOLE,2019-01-15T01:35:00Z,42.23,-78.37,-7.0,-10.0,300,3,,10.0,30.100393,,,TRUE,TRUE,,,,,,,CLR,,,,,,,,VFR,,,,,,,,,,,,SPECI,651.0
KOJA 150135Z AUTO 18003KT 10SM CLR 02/01 A3030 RMK AO2,KOJA,2019-01-15T01:35:00Z,35.55,-98.67,2.0,1.0,180,3,,10.0,30.301182,,,TRUE,TRUE,,,,,,,CLR,,,,,,,,VFR,,,,,,,,,,,,SPECI,490.0
KOEO 150135Z AUTO 32003KT 10SM OVC015 M01/M03 A3026 RMK AO2 T10131026 PWINO,KOEO,2019-01-15T01:35:00Z,45.32,-92.7,-1.3,-2.6,320,3,,10.0,30.259842,,,TRUE,TRUE,,,,,TRUE,,OVC,1500,,,,,,,MVFR,,,,,,,,,,,,SPECI,275.0
KOBE 150135Z AUTO 03005KT 10SM CLR 12/10 A3015 RMK AO2,KOBE,2019-01-15T01:35:00Z,27.27,-80.85,12.0,10.0,30,5,,10.0,30.15059,,,TRUE,TRUE,,,,,,,CLR,,,,,,,,VFR,,,,,,,,,,,,SPECI,11.0
KMQB 150135Z AUTO 26006KT 5SM BR OVC006 M03/M03 A3033 RMK AO2 T10281035,KMQB,2019-01-15T01:35:00Z,40.52,-90.65,-2.8,-3.5,260,6,,5.0,30.33071,,,TRUE,TRUE,,,,,,BR,OVC,600,,,,,,,IFR,,,,,,,,,,,,SPECI,215.0
KMNE 150135Z AUTO 00000KT 10SM OVC017 04/01 A3042 RMK AO2 T00430012,KMNE,2019-01-15T01:35:00Z,32.65,-93.3,4.3,1.2,0,0,,10.0,30.41929,,,TRUE,TRUE,,,,,,,OVC,1700,,,,,,,MVFR,,,,,,,,,,,,SPECI,85.0
KMMH 150135Z AUTO 12004KT 10SM SCT019 OVC049 M03/M03 A2993 RMK AO2 T10281030,KMMH,2019-01-15T01:35:00Z,37.62,-118.82,-2.8,-3.0,120,4,,10.0,29.929134,,,TRUE,TRUE,,,,,,,SCT,1900,OVC,4900,,,,,VFR,,,,,,,,,,,,METAR,2173.0
KMLJ 150135Z AUTO 32004KT 10SM OVC037 08/03 A3022 RMK AO2,KMLJ,2019-01-15T01:35:00Z,33.15,-83.23,8.0,3.0,320,4,,10.0,30.221457,,,TRUE,TRUE,,,,,,,OVC,3700,,,,,,,VFR,,,,,,,,,,,,SPECI,117.0
KMKS 150135Z AUTO 00000KT 7SM BKN020 OVC048 05/04 A3023 RMK AO2,KMKS,2019-01-15T01:35:00Z,33.18,-80.03,5.0,4.0,0,0,,7.0,30.230314,,,TRUE,TRUE,,,,,,,BKN,2000,OVC,4800,,,,,MVFR,,,,,,,,,,,,SPECI,23.0
KMKN 150135Z AUTO 00000KT 10SM OVC044 07/03 A3036 RMK AO2 T00650025,KMKN,2019-01-15T01:35:00Z,31.92,-98.6,6.5,2.5,0,0,,10.0,30.360237,,,TRUE,TRUE,,,,,,,OVC,4400,,,,,,,VFR,,,,,,,,,,,,METAR,423.0
KMGW 150135Z 00000KT 3SM BR OVC005 M02/M02 A3023 RMK AO2 CIG 003V010 I1000 T10171022,KMGW,2019-01-15T01:35:00Z,39.65,-79.92,-1.7,-2.2,0,0,,3.0,30.230314,,,,TRUE,,,,,,BR,OVC,500,,,,,,,IFR,,,,,,,,,,,,SPECI,378.0
KMDZ 150135Z AUTO 27003KT 7SM BKN007 BKN026 OVC036 M03/M03 A3015 RMK AO2 T10301035 TSNO,KMDZ,2019-01-15T01:35:00Z,45.1,-90.3,-3.0,-3.5,270,3,,7.0,30.15059,,,TRUE,TRUE,,,TRUE,,,,BKN,700,BKN,2600,OVC,3600,,,IFR,,,,,,,,,,,,SPECI,448.0
KMCX 150135Z AUTO 00000KT 7SM OVC010 M07/M08 A3030 RMK AO2 T10751085,KMCX,2019-01-15T01:35:00Z,40.72,-86.77,-7.5,-8.5,0,0,,7.0,30.301182,,,TRUE,TRUE,,,,,,,OVC,1000,,,,,,,MVFR,,,,,,,,,,,,SPECI,206.0
KLXY 150135Z AUTO 09004KT 10SM CLR 04/01 A3039 RMK AO2 T00410006,KLXY,2019-01-15T01:35:00Z,31.63,-96.52,4.1,0.6,90,4,,10.0,30.389763,,,TRUE,TRUE,,,,,,,CLR,,,,,,,,VFR,,,,,,,,,,,,METAR,166.0
KLUD 150135Z AUTO 00000KT 7SM CLR 04/00 A3036 RMK AO2 T00401002,KLUD,2019-01-15T01:35:00Z,33.25,-97.58,4.0,-0.2,0,0,,7.0,30.360237,,,TRUE,TRUE,,,,,,,CLR,,,,,,,,VFR,,,,,,,,,,,,METAR,319.0
KLNP 150135Z AUTO 34004KT 3SM BR OVC003 M01/M01 A3018 RMK AO2,KLNP,2019-01-15T01:35:00Z,36.97,-82.52,-1.0,-1.0,340,4,,3.0,30.180119,,,TRUE,TRUE,,,,,,BR,OVC,300,,,,,,,LIFR,,,,,,,,,,,,SPECI,817.0
KLNC 150135Z AUTO 00000KT 10SM CLR 04/01 A3040 RMK AO2 T00400012,KLNC,2019-01-15T01:35:00Z,32.58,-96.72,4.0,1.2,0,0,,10.0,30.398623,,,TRUE,TRUE,,,,,,,CLR,,,,,,,,VFR,,,,,,,,,,,,METAR,153.0
KLNA 150135Z AUTO 34005KT 10SM CLR 16/13 A3013 RMK AO2 T01610128,KLNA,2019-01-15T01:35:00Z,26.6,-80.02,16.1,12.8,340,5,,10.0,30.129921,,,TRUE,TRUE,,,,,,,CLR,,,,,,,,VFR,,,,,,,,,,,,METAR,11.0
KLMO 150135Z AUTO 25005KT 10SM CLR 00/M10 A3019 RMK AO2 T00001096,KLMO,2019-01-15T01:35:00Z,40.17,-105.17,0.0,-9.6,250,5,,10.0,30.188976,,,TRUE,TRUE,,,,,,,CLR,,,,,,,,VFR,,,,,,,,,,,,METAR,1541.0
KLHM 150135Z AUTO 00000KT 10SM OVC065 09/07 A2991 RMK AO1,KLHM,2019-01-15T01:35:00Z,38.92,-121.35,9.0,7.0,0,0,,10.0,29.911417,,,TRUE,TRUE,,,,,,,OVC,6500,,,,,,,VFR,,,,,,,,,,,,METAR,37.0
KLHB 150135Z AUTO 32003KT 10SM CLR 04/02 A3042 RMK AO2 T00390023,KLHB,2019-01-15T01:35:00Z,30.87,-96.62,3.9,2.3,320,3,,10.0,30.41929,,,TRUE,TRUE,,,,,,,CLR,,,,,,,,VFR,,,,,,,,,,,,METAR,87.0
KLDJ 150135Z AUTO 00000KT 10SM CLR M02/M11 A3016 RMK AO2 T10201109,KLDJ,2019-01-15T01:35:00Z,40.62,-74.25,-2.0,-10.9,0,0,,10.0,30.159449,,,TRUE,TRUE,,,,,,,CLR,,,,,,,,VFR,,,,,,,,,,,,SPECI,7.0
KL18 150135Z AUTO 00000KT 4SM DZ OVC012 10/10 A2999 RMK AO2 P0002,KL18,2019-01-15T01:35:00Z,33.35,-117.25,10.0,10.0,0,0,,4.0,29.991142,,,TRUE,TRUE,,,,,,DZ,OVC,1200,,,,,,,MVFR,,,,,,0.02,,,,,,METAR,216.0
KK88 150135Z AUTO 21009KT 5SM OVC004 M01/M01 A3035 RMK AO1 T10111011,KK88,2019-01-15T01:35:00Z,37.87,-95.38,-1.1,-1.1,210,9,,5.0,30.351377,,,TRUE,TRUE,,,,,,,OVC,400,,,,,,,LIFR,,,,,,,,,,,,SPECI,309.0
KJYL 150135Z AUTO 00000KT 3SM BR OVC006 07/07 A3023 RMK AO2 T00700066,KJYL,2019-01-15T01:35:00Z,32.65,-81.6,7.0,6.6,0,0,,3.0,30.230314,,,TRUE,TRUE,,,,,,BR,OVC,600,,,,,,,IFR,,,,,,,,,,,,SPECI,57.0
KJXI 150135Z AUTO 10SM OVC014 03/00 A3042 RMK AO2 T00250000,KJXI,2019-01-15T01:35:00Z,32.7,-94.95,2.5,0.0,,,,10.0,30.41929,,,TRUE,TRUE,,,,,,,OVC,1400,,,,,,,MVFR,,,,,,,,,,,,METAR,127.0
KJWY 150135Z AUTO 00000KT 10SM CLR 04/01 A3040 RMK AO2 T00400013,KJWY,2019-01-15T01:35:00Z,32.45,-96.92,4.0,1.3,0,0,,10.0,30.398623,,,TRUE,TRUE,,,,,,,CLR,,,,,,,,VFR,,,,,,,,,,,,METAR,217.0
KJSV 150135Z AUTO 00000KT 10SM OVC016 02/M01 A3040 RMK AO2,KJSV,2019-01-15T01:35:00Z,35.43,-94.8,2.0,-1.0,0,0,,10.0,30.398623,,,TRUE,TRUE,,,,,,,OVC,1600,,,,,,,MVFR,,,,,,,,,,,,SPECI,161.0
KIZA 150135Z AUTO 26012G17KT 5SM +RA SCT005 BKN024 OVC041 10/08 A2992 RMK AO2 P0009,KIZA,2019-01-15T01:35:00Z,34.6,-120.07,10.0,8.0,260,12,17,5.0,29.920275,,,TRUE,TRUE,,,,,,+RA,SCT,500,BKN,2400,OVC,4100,,,MVFR,,,,,,0.09,,,,,,METAR,205.0
KINJ 150135Z AUTO 00000KT 10SM CLR A3039 RMK AO2,KINJ,2019-01-15T01:35:00Z,32.08,-97.1,,,0,0,,10.0,30.389763,,,TRUE,TRUE,,,,,,,CLR,,,,,,,,VFR,,,,,,,,,,,,METAR,209.0
KIKG 150135Z AUTO 00000KT 10SM OVC027 10/06 A3039 RMK AO2 T01020061,KIKG,2019-01-15T01:35:00Z,27.55,-98.03,10.2,6.1,0,0,,10.0,30.389763,,,TRUE,TRUE,,,,,,,OVC,2700,,,,,,,MVFR,,,,,,,,,,,,METAR,40.0
KIER 150135Z AUTO 36004KT 10SM OVC017 05/02 A3042 RMK AO2 T00460015,KIER,2019-01-15T01:35:00Z,31.73,-93.1,4.6,1.5,360,4,,10.0,30.41929,,,TRUE,TRUE,,,,,,,OVC,1700,,,,,,,MVFR,,,,,,,,,,,,SPECI,37.0
KI75 150135Z AUTO 23006KT 3SM BR OVC003 M02/M02 A3026 RMK AO2 T10181021,KI75,2019-01-15T01:35:00Z,41.05,-93.68,-1.8,-2.1,230,6,,3.0,30.259842,,,TRUE,TRUE,,,,,,BR,OVC,300,,,,,,,LIFR,,,,,,,,,,,,SPECI,339.0
KI68 150135Z AUTO 00000KT 7SM CLR M07/M07 A3029 RMK AO1 T10701070,KI68,2019-01-15T01:35:00Z,39.47,-84.25,-7.0,-7.0,0,0,,7.0,30.28937,,,TRUE,TRUE,,,,,,,CLR,,,,,,,,VFR,,,,,,,,,,,,SPECI,274.0
KI67 150135Z AUTO 00000KT 2 1/2SM CLR M07/M08 A3031 RMK AO1,KI67,2019-01-15T01:35:00Z,39.25,-84.78,-7.0,-8.0,0,0,,2.5,30.31004,,,TRUE,TRUE,,,,,,,CLR,,,,,,,,IFR,,,,,,,,,,,,SPECI,178.0
KI35 150135Z AUTO 00000KT 10SM OVC015 00/M03 A3024 RMK AO2 T10021027,KI35,2019-01-15T01:35:00Z,36.87,-83.37,-0.2,-2.7,0,0,,10.0,30.239174,,,TRUE,TRUE,,,,,,,OVC,1500,,,,,,,MVFR,,,,,,,,,,,,SPECI,473.0
KHVS 150135Z AUTO 00000KT 10SM OVC039 03/03 A3020 RMK AO2,KHVS,2019-01-15T01:35:00Z,34.4,-80.12,3.0,3.0,0,0,,10.0,30.200787,,,TRUE,TRUE,,,,,,,OVC,3900,,,,,,,VFR,,,,,,,,,,,,SPECI,111.0
KHVE 150135Z AUTO 10SM OVC065 00/M05 A3031 RMK AO2,KHVE,2019-01-15T01:35:00Z,38.42,-110.7,0.0,-5.0,,,,10.0,30.31004,,,TRUE,TRUE,,,,,,,OVC,6500,,,,,,,VFR,,,,,,,,,,,,METAR,1350.0
KHRX 150135Z AUTO 20005KT 7SM CLR 06/01 A3023 RMK AO2 T00640011,KHRX,2019-01-15T01:35:00Z,34.87,-102.33,6.4,1.1,200,5,,7.0,30.230314,,,TRUE,TRUE,,,,,,,CLR,,,,,,,,VFR,,,,,,,,,,,,METAR,1154.0
KHPT 150135Z AUTO 25003KT 4SM BR OVC007 M01/M01 A3022 RMK AO2,KHPT,2019-01-15T01:35:00Z,42.58,-93.23,-1.0,-1.0,250,3,,4.0,30.221457,,,TRUE,TRUE,,,,,,BR,OVC,700,,,,,,,IFR,,,,,,,,,,,,SPECI,358.0
KHMZ 150135Z AUTO 00000KT 10SM CLR M06/M07 A3017 RMK AO2 T10571074,KHMZ,2019-01-15T01:35:00Z,40.08,-78.52,-5.7,-7.4,0,0,,10.0,30.171259,,,TRUE,TRUE,,,,,,,CLR,,,,,,,,VFR,,,,,,,,,,,,SPECI,354.0
KHHF 150135Z AUTO 18010KT 10SM CLR 07/02 A3022 RMK AO2 T00740017,KHHF,2019-01-15T01:35:00Z,35.9,-100.4,7.4,1.7,180,10,,10.0,30.221457,,,TRUE,TRUE,,,,,,,CLR,,,,,,,,VFR,,,,,,,,,,,,METAR,712.0
KHFJ 150135Z AUTO 22007KT 10SM OVC006 00/M01 A3033 RMK AO2,KHFJ,2019-01-15T01:35:00Z,36.9,-94.02,0.0,-1.0,220,7,,10.0,30.33071,,,TRUE,TRUE,,,,,,,OVC,600,,,,,,,IFR,,,,,,,,,,,,SPECI,401.0
KHCR 150135Z AUTO 00000KT 10SM CLR M08/M13 A3019 RMK AO2,KHCR,2019-01-15T01:35:00Z,40.48,-111.43,-8.0,-13.0,0,0,,10.0,30.188976,,,TRUE,TRUE,,,,,,,CLR,,,,,,,,VFR,,,,,,,,,,,,METAR,1706.0
KGZL 150135Z AUTO 00000KT 10SM OVC017 02/M02 A3039 RMK AO2,KGZL,2019-01-15T01:35:00Z,35.28,-95.1,2.0,-2.0,0,0,,10.0,30.389763,,,TRUE,TRUE,,,,,,,OVC,1700,,,,,,,MVFR,,,,,,,,,,,,SPECI,183.0
KGYI 150135Z AUTO 17004KT 7SM CLR 01/00 A3039 RMK AO2 T00121002 TSNO,KGYI,2019-01-15T01:35:00Z,33.72,-96.67,1.2,-0.2,170,4,,7.0,30.389763,,,TRUE,TRUE,,,TRUE,,,,CLR,,,,,,,,VFR,,,,,,,,,,,,METAR,228.0
KGYB 150135Z AUTO 00000KT 10SM OVC060 08/02 A3039 RMK AO2 T00820023,KGYB,2019-01-15T01:35:00Z,30.17,-96.98,8.2,2.3,0,0,,10.0,30.389763,,,TRUE,TRUE,,,,,,,OVC,6000,,,,,,,VFR,,,,,,,,,,,,METAR,148.0
KGWB 150135Z AUTO 22003KT 10SM CLR M05/M07 A3026 RMK AO2,KGWB,2019-01-15T01:35:00Z,41.3,-85.07,-5.0,-7.0,220,3,,10.0,30.259842,,,TRUE,TRUE,,,,,,,CLR,,,,,,,,VFR,,,,,,,,,,,,SPECI,269.0
KGPM 150135Z AUTO 00000KT 10SM SCT060 05/01 A3040 RMK AO2 T00520005,KGPM,2019-01-15T01:35:00Z,32.7,-97.05,5.2,0.5,0,0,,10.0,30.398623,,,TRUE,TRUE,,,,,,,SCT,6000,,,,,,,VFR,,,,,,,,,,,,METAR,180.0
KGMJ 150135Z AUTO 00000KT 7SM OVC009 00/M01 A3037 RMK AO2,KGMJ,2019-01-15T01:35:00Z,36.6,-94.73,0.0,-1.0,0,0,,7.0,30.369095,,,TRUE,TRUE,,,,,,,OVC,900,,,,,,,IFR,,,,,,,,,,,,SPECI,254.0
KGLW 150135Z AUTO 25004KT 5SM BR OVC029 00/M01 A3032 RMK AO2 T00021006,KGLW,2019-01-15T01:35:00Z,37.03,-85.95,0.2,-0.6,250,4,,5.0,30.318897,,,TRUE,TRUE,,,,,,BR,OVC,2900,,,,,,,MVFR,,,,,,,,,,,,SPECI,218.0
KGCD 150135Z AUTO 08007KT 10SM CLR 02/M08 A3005 RMK AO2 T00211077,KGCD,2019-01-15T01:35:00Z,44.38,-118.97,2.1,-7.7,80,7,,10.0,30.050198,,,TRUE,TRUE,,,,,,,CLR,,,,,,,,VFR,,,,,,,,,,,,METAR,1127.0
KVWU 150135Z AUTO 00000KT 7SM SCT001 M13/M14 A3021 RMK AO2,KVWU,2019-01-15T01:35:00Z,48.15,-94.52,-13.0,-14.0,0,0,,7.0,30.209646,,,TRUE,TRUE,,,,,,,SCT,100,,,,,,,VFR,,,,,,,,,,,,METAR,360.0
KPWC 150135Z AUTO 00000KT 7SM CLR M11/M12 A3022 RMK AO2,KPWC,2019-01-15T01:35:00Z,46.72,-94.37,-11.0,-12.0,0,0,,7.0,30.221457,,,TRUE,TRUE,,,,,,,CLR,,,,,,,,VFR,,,,,,,,,,,,METAR,395.0
KOVL 150135Z AUTO 00000KT 10SM OVC012 M02/M04 A3023 RMK AO2,KOVL,2019-01-15T01:35:00Z,44.78,-95.03,-2.0,-4.0,0,0,,10.0,30.230314,,,TRUE,TRUE,,,,,,,OVC,1200,,,,,,,MVFR,,,,,,,,,,,,METAR,328.0
KOSC 150135Z AUTO 21007KT 10SM OVC025 M02/M05 A3016 RMK AO2 T10251050,KOSC,2019-01-15T01:35:00Z,44.45,-83.4,-2.5,-5.0,210,7,,10.0,30.159449,,,TRUE,TRUE,,,,,,,OVC,2500,,,,,,,MVFR,,,,,,,,,,,,METAR,193.0
KMZH 150135Z AUTO 00000KT 10SM CLR M07/M09 A3019 RMK AO2,KMZH,2019-01-15T01:35:00Z,46.42,-92.8,-7.0,-9.0,0,0,,10.0,30.188976,,,TRUE,TRUE,,,,,,,CLR,,,,,,,,VFR,,,,,,,,,,,,METAR,328.0
KMRT 150135Z AUTO 21003KT 1/2SM VV005 M13/M14 A3027 RMK AO2 T11291138,KMRT,2019-01-15T01:35:00Z,40.22,-83.35,-12.9,-13.8,210,3,,0.5,30.268702,,,TRUE,TRUE,,,,,,,OVX,0,,,,,,,LIFR,,,,,,,,,,,500,SPECI,312.0
KMOP 150135Z AUTO 22004KT 10SM OVC018 M01/M05 A3018 RMK AO2 T10061046,KMOP,2019-01-15T01:35:00Z,43.62,-84.73,-0.6,-4.6,220,4,,10.0,30.180119,,,TRUE,TRUE,,,,,,,OVC,1800,,,,,,,MVFR,,,,,,,,,,,,METAR,230.0
KMJQ 150135Z AUTO 00000KT 7SM OVC007 M01/M02 A3021 RMK AO2,KMJQ,2019-01-15T01:35:00Z,43.63,-94.97,-1.0,-2.0,0,0,,7.0,30.209646,,,TRUE,TRUE,,,,,,,OVC,700,,,,,,,IFR,,,,,,,,,,,,METAR,441.0
KHYX 150135Z AUTO 22008KT 10SM OVC021 M01/M05 A3021 RMK AO2,KHYX,2019-01-15T01:35:00Z,43.43,-83.87,-1.0,-5.0,220,8,,10.0,30.209646,,,TRUE,TRUE,,,,,,,OVC,2100,,,,,,,MVFR,,,,,,,,,,,,METAR,183.0
KEDJ 150135Z AUTO 20003KT 5SM CLR M09/M09 A3026 RMK AO1,KEDJ,2019-01-15T01:35:00Z,40.37,-83.82,-9.0,-9.0,200,3,,5.0,30.259842,,,TRUE,TRUE,,,,,,,CLR,,,,,,,,MVFR,,,,,,,,,,,,METAR,342.0
KDXX 150135Z AUTO 00000KT 7SM OVC005 M03/M04 A3025 RMK AO2,KDXX,2019-01-15T01:35:00Z,44.98,-96.18,-3.0,-4.0,0,0,,7.0,30.250984,,,TRUE,TRUE,,,,,,,OVC,500,,,,,,,IFR,,,,,,,,,,,,METAR,330.0
KCKN 150135Z AUTO 00000KT 1/4SM -SN OVC002 M10/M11 A3025 RMK AO2,KCKN,2019-01-15T01:35:00Z,47.85,-96.62,-10.0,-11.0,0,0,,0.25,30.250984,,,TRUE,TRUE,,,,,,-SN,OVC,200,,,,,,,LIFR,,,,,,,,,,,,METAR,273.0
KCKC 150135Z AUTO 33003KT 10SM SCT018 M09/M13 A3014 RMK AO2,KCKC,2019-01-15T01:35:00Z,47.83,-90.37,-9.0,-13.0,330,3,,10.0,30.138779,,,TRUE,TRUE,,,,,,,SCT,1800,,,,,,,VFR,,,,,,,,,,,,METAR,548.0
PATC 150135Z AUTO 04017KT 10SM -SHSN OVC029 M10/M11 A2960 RMK AO2 SLP032,PATC,2019-01-15T01:35:00Z,65.57,-167.92,-10.0,-11.0,40,17,,10.0,29.601377,1003.2,,TRUE,TRUE,,,,,,-SHSN,OVC,2900,,,,,,,MVFR,,,,,,,,,,,,METAR,83.0
KSUU 150135Z AUTO 10009KT 10SM FEW040 OVC055 09/07 A2989 RMK AO2 RAE02DZB02E03RAB03E24DZB24E35 SLP129 $,KSUU,2019-01-15T01:35:00Z,38.27,-121.92,9.0,7.0,100,9,,10.0,29.890747,1012.9,,TRUE,TRUE,TRUE,,,,,,FEW,4000,OVC,5500,,,,,VFR,,,,,,,,,,,,METAR,19.0
PAUT 150135Z AUTO 20021G27KT 10SM SCT023 03/M01 A2904 RMK AO2 T00311006,PAUT,2019-01-15T01:35:00Z,54.15,-165.6,3.1,-0.6,200,21,27,10.0,29.040354,,,TRUE,TRUE,,,,,,,SCT,2300,,,,,,,VFR,,,,,,,,,,,,METAR,25.0
KLKR 150135Z AUTO 00000KT 10SM SCT036 OVC060 03/03 A3020 RMK AO2,KLKR,2019-01-15T01:35:00Z,34.72,-80.85,3.0,3.0,0,0,,10.0,30.200787,,,TRUE,TRUE,,,,,,,SCT,3600,OVC,6000,,,,,VFR,,,,,,,,,,,,METAR,149.0
KCLI 150135Z AUTO 26005KT 3SM BR OVC005 M02/M04 A3019 RMK AO2 T10251036,KCLI,2019-01-15T01:35:00Z,44.62,-88.73,-2.5,-3.6,260,5,,3.0,30.188976,,,TRUE,TRUE,,,,,,BR,OVC,500,,,,,,,IFR,,,,,,,,,,,,SPECI,250.0
KSDA 150135Z AUTO 23010KT 5SM BR OVC004 00/M00 A3027 RMK AO2,KSDA,2019-01-15T01:35:00Z,40.75,-95.42,0.0,0.0,230,10,,5.0,30.268702,,,TRUE,TRUE,,,,,,BR,OVC,400,,,,,,,LIFR,,,,,,,,,,,,METAR,296.0
KLUL 150135Z AUTO 35005KT OVC027 06/01 A3034 RMK AO2 T00620011,KLUL,2019-01-15T01:35:00Z,31.67,-89.17,6.2,1.1,350,5,,,30.339567,,,TRUE,TRUE,,,,,,,OVC,2700,,,,,,,,,,,,,,,,,,,METAR,73.0
KPBH 150135Z AUTO 00000KT 10SM SCT008 OVC014 M02/M02 A3015 RMK AO2 T10251025,KPBH,2019-01-15T01:35:00Z,45.7,-90.4,-2.5,-2.5,0,0,,10.0,30.15059,,,TRUE,TRUE,,,,,,,SCT,800,OVC,1400,,,,,MVFR,,,,,,,,,,,,SPECI,449.0
KPGV 150135Z AUTO 00000KT 10SM CLR 01/00 A3021 RMK AO2,KPGV,2019-01-15T01:35:00Z,35.62,-77.4,1.0,0.0,0,0,,10.0,30.209646,,,TRUE,TRUE,,,,,,,CLR,,,,,,,,VFR,,,,,,,,,,,,METAR,8.0
KCTY 150135Z AUTO 34005KT 10SM OVC025 10/05 A3022 RMK AO2 T00980055,KCTY,2019-01-15T01:35:00Z,29.63,-83.1,9.8,5.5,340,5,,10.0,30.221457,,,TRUE,TRUE,,,,,,,OVC,2500,,,,,,,MVFR,,,,,,,,,,,,METAR,13.0
KHCD 150135Z AUTO 00000KT 10SM OVC016 M02/M05 A3024 RMK AO2 T10231049,KHCD,2019-01-15T01:35:00Z,44.87,-94.38,-2.3,-4.9,0,0,,10.0,30.239174,,,TRUE,TRUE,,,,,,,OVC,1600,,,,,,,MVFR,,,,,,,,,,,,METAR,323.0
KHAE 150135Z AUTO 25006KT 4SM BR OVC004 M01/M02 A3032 RMK AO2,KHAE,2019-01-15T01:35:00Z,39.73,-91.45,-1.0,-2.0,250,6,,4.0,30.318897,,,TRUE,TRUE,,,,,,BR,OVC,400,,,,,,,LIFR,,,,,,,,,,,,METAR,234.0
KGZS 150135Z AUTO 33004KT 10SM SCT022 OVC035 03/00 A3032 RMK A01,KGZS,2019-01-15T01:35:00Z,35.15,-87.05,3.0,0.0,330,4,,10.0,30.318897,,,TRUE,TRUE,,,,,,,SCT,2200,OVC,3500,,,,,VFR,,,,,,,,,,,,METAR,209.0
KGUL 150135Z AUTO 02007G13KT 10SM BKN023 OVC075 14/09 A3034 RMK A01,KGUL,2019-01-15T01:35:00Z,27.3,-93.53,14.0,9.0,20,7,13,10.0,30.339567,,,TRUE,TRUE,,,,,,,BKN,2300,OVC,7500,,,,,MVFR,,,,,,,,,,,,METAR,30.0
KGKT 150135Z AUTO 00000KT 10SM BKN020 OVC025 02/00 A3026 RMK A01,KGKT,2019-01-15T01:35:00Z,35.85,-83.53,2.0,0.0,0,0,,10.0,30.259842,,,TRUE,TRUE,,,,,,,BKN,2000,OVC,2500,,,,,MVFR,,,,,,,,,,,,METAR,309.0
KGIC 150135Z AUTO 14003KT 7SM CLR M03/M05 A3010 RMK AO1,KGIC,2019-01-15T01:35:00Z,45.95,-116.12,-3.0,-5.0,140,3,,7.0,30.100393,,,TRUE,TRUE,,,,,,,CLR,,,,,,,,VFR,,,,,,,,,,,,METAR,1009.0
KGDJ 150135Z AUTO 17005KT 10SM OVC060 07/02 A3039 RMK AO2 T00650020,KGDJ,2019-01-15T01:35:00Z,32.45,-97.82,6.5,2.0,170,5,,10.0,30.389763,,,TRUE,TRUE,,,,,,,OVC,6000,,,,,,,VFR,,,,,,,,,,,,METAR,237.0
KGCY 150135Z AUTO 30005KT 8SM OVC008 01/00 A3021 RMK A01,KGCY,2019-01-15T01:35:00Z,36.2,-82.82,1.0,0.0,300,5,,8.0,30.209646,,,TRUE,TRUE,,,,,,,OVC,800,,,,,,,IFR,,,,,,,,,,,,METAR,490.0
KGCM 150135Z AUTO 18003KT 10SM OVC014 01/M01 A3038 RMK AO2 TSNO,KGCM,2019-01-15T01:35:00Z,36.3,-95.48,1.0,-1.0,180,3,,10.0,30.380905,,,TRUE,TRUE,,,TRUE,,,,OVC,1400,,,,,,,MVFR,,,,,,,,,,,,METAR,221.0
KGBK 150135Z AUTO VRB04G11KT 10SM BKN023 OVC045 14/09 A3031 RMK A01,KGBK,2019-01-15T01:35:00Z,27.2,-92.2,14.0,9.0,0,4,11,10.0,30.31004,,,TRUE,TRUE,,,,,,,BKN,2300,OVC,4500,,,,,MVFR,,,,,,,,,,,,METAR,59.0
KFYE 150135Z AUTO 00000KT 10SM OVC034 02/00 A3036 RMK A01,KFYE,2019-01-15T01:35:00Z,35.2,-89.38,2.0,0.0,0,0,,10.0,30.360237,,,TRUE,TRUE,,,,,,,OVC,3400,,,,,,,VFR,,,,,,,,,,,,METAR,133.0
KFXY 150135Z AUTO 32004KT 7SM OVC005 M01/M01 A3022 RMK AO2,KFXY,2019-01-15T01:35:00Z,43.23,-93.62,-1.0,-1.0,320,4,,7.0,30.221457,,,TRUE,TRUE,,,,,,,OVC,500,,,,,,,IFR,,,,,,,,,,,,METAR,375.0
KFWB 150135Z AUTO 26005KT 8SM OVC009 00/00 A3034 RMK AO2,KFWB,2019-01-15T01:35:00Z,36.7,-93.4,0.0,0.0,260,5,,8.0,30.339567,,,TRUE,TRUE,,,,,,,OVC,900,,,,,,,IFR,,,,,,,,,,,,METAR,406.0
KFTN 150135Z AUTO 08005KT 10SM OVC029 09/03 A3037 RMK A01,KFTN,2019-01-15T01:35:00Z,28.22,-100.02,9.0,3.0,80,5,,10.0,30.369095,,,TRUE,TRUE,,,,,,,OVC,2900,,,,,,,MVFR,,,,,,,,,,,,METAR,236.0
KFOT 150135Z AUTO 14005KT 10SM FEW065 OVC090 10/10 A2978 RMK AO1,KFOT,2019-01-15T01:35:00Z,40.55,-124.13,10.0,10.0,140,5,,10.0,29.778543,,,TRUE,TRUE,,,,,,,FEW,6500,OVC,9000,,,,,VFR,,,,,,,,,,,,METAR,120.0
KFOA 150135Z AUTO 29005KT 10SM OVC026 00/M03 A3035 RMK AO2 T10011034,KFOA,2019-01-15T01:35:00Z,38.67,-88.45,-0.1,-3.4,290,5,,10.0,30.351377,,,TRUE,TRUE,,,,,,,OVC,2600,,,,,,,MVFR,,,,,,,,,,,,METAR,144.0
KFKA 150135Z AUTO 34005KT 5SM BR OVC010 M02/M03 A3021 RMK AO2 T10251033,KFKA,2019-01-15T01:35:00Z,43.68,-92.17,-2.5,-3.3,340,5,,5.0,30.209646,,,TRUE,TRUE,,,,,,BR,OVC,1000,,,,,,,MVFR,,,,,,,,,,,,METAR,389.0
KFHB 150135Z AUTO 32007KT 10SM OVC012 09/06 A3022 RMK AO2 T00850060,KFHB,2019-01-15T01:35:00Z,30.62,-81.47,8.5,6.0,320,7,,10.0,30.221457,,,TRUE,TRUE,,,,,,,OVC,1200,,,,,,,MVFR,,,,,,,,,,,,METAR,5.0
KFET 150135Z AUTO 00000KT 5SM BR OVC005 01/01 A3024 RMK AO2 T00130010,KFET,2019-01-15T01:35:00Z,41.45,-96.52,1.3,1.0,0,0,,5.0,30.239174,,,TRUE,TRUE,,,,,,BR,OVC,500,,,,,,,IFR,,,,,,,,,,,,METAR,367.0
KFEP 150135Z AUTO 31010KT 5SM BR OVC007 M05/M06 A3029 RMK AO2 T10481056,KFEP,2019-01-15T01:35:00Z,42.25,-89.58,-4.8,-5.6,310,10,,5.0,30.28937,,,TRUE,TRUE,,,,,,BR,OVC,700,,,,,,,IFR,,,,,,,,,,,,METAR,262.0
KFCH 150135Z AUTO 07005KT 10SM BKN065 BKN080 OVC090 10/10 A2992 RMK A01,KFCH,2019-01-15T01:35:00Z,36.72,-119.82,10.0,10.0,70,5,,10.0,29.920275,,,TRUE,TRUE,,,,,,,BKN,6500,BKN,8000,OVC,9000,,,VFR,,,,,,,,,,,,METAR,85.0
KF44 150135Z AUTO 03003KT 10SM CLR 03/00 A3039 RMK AO2,KF44,2019-01-15T01:35:00Z,32.17,-95.83,3.0,0.0,30,3,,10.0,30.389763,,,TRUE,TRUE,,,,,,,CLR,,,,,,,,VFR,,,,,,,,,,,,METAR,135.0
KF00 150135Z AUTO 11004KT 10SM CLR 01/M01 A3040 RMK AO2 T00081005,KF00,2019-01-15T01:35:00Z,33.62,-96.18,0.8,-0.5,110,4,,10.0,30.398623,,,TRUE,TRUE,,,,,,,CLR,,,,,,,,VFR,,,,,,,,,,,,METAR,188.0
KEVU 150135Z AUTO 24010G14KT 1SM BR OVC002 00/00 A3027 RMK AO2,KEVU,2019-01-15T01:35:00Z,40.35,-94.92,0.0,0.0,240,10,14,1.0,30.268702,,,TRUE,TRUE,,,,,,BR,OVC,200,,,,,,,LIFR,,,,,,,,,,,,METAR,349.0
KHDC 150135Z AUTO 33003KT 10SM OVC019 05/02 A3037 RMK AO2,KHDC,2019-01-15T01:35:00Z,30.52,-90.42,5.0,2.0,330,3,,10.0,30.369095,,,TRUE,TRUE,,,,,,,OVC,1900,,,,,,,MVFR,,,,,,,,,,,,METAR,13.0
KHLB 150135Z AUTO 00000KT 4SM BR CLR M08/M08 A3029 RMK A01,KHLB,2019-01-15T01:35:00Z,,,-8.0,-8.0,0,0,,4.0,30.28937,,,TRUE,TRUE,,,,,,BR,CLR,,,,,,,,MVFR,,,,,,,,,,,,METAR,
KHHV 150135Z AUTO 05017KT 10SM FEW026 BKN060 OVC070 18/10 A3033 RMK A01,KHHV,2019-01-15T01:35:00Z,26.93,-94.68,18.0,10.0,50,17,,10.0,30.33071,,,TRUE,TRUE,,,,,,,FEW,2600,BKN,6000,OVC,7000,,,VFR,,,,,,,,,,,,METAR,25.0
KHQU 150135Z AUTO 00000KT 10SM SCT019 OVC037 06/06 A3025 RMK AO2 T00650058,KHQU,2019-01-15T01:35:00Z,33.53,-82.52,6.5,5.8,0,0,,10.0,30.250984,,,TRUE,TRUE,,,,,,,SCT,1900,OVC,3700,,,,,VFR,,,,,,,,,,,,METAR,152.0
K13K 150135Z AUTO 20007KT 5SM BR OVC004 00/M01 A3032 RMK AO2 T10041009,K13K,2019-01-15T01:35:00Z,37.85,-96.3,-0.4,-0.9,200,7,,5.0,30.318897,,,TRUE,TRUE,,,,,,BR,OVC,400,,,,,,,LIFR,,,,,,,,,,,,METAR,369.0
K0A9 150135Z AUTO 26003KT 10SM 02/01 A3020 RMK AO2,K0A9,2019-01-15T01:35:00Z,36.37,-82.17,2.0,1.0,260,3,,10.0,30.200787,,,TRUE,TRUE,,,,,,,,,,,,,,,,,,,,,,,,,,,METAR,486.0
K05U 150135Z AUTO 17007KT 10SM BKN090 01/M05 A3004 RMK A01,K05U,2019-01-15T01:35:00Z,39.6,-116.0,1.0,-5.0,170,7,,10.0,30.041338,,,TRUE,TRUE,,,,,,,BKN,9000,,,,,,,VFR,,,,,,,,,,,,METAR,1816.0
KHSP 150135Z AUTO 00000KT OVC002 A3005 RMK AO2 PWINO,KHSP,2019-01-15T01:35:00Z,37.95,-79.82,,,0,0,,,30.050198,,,TRUE,TRUE,,,,,TRUE,,OVC,200,,,,,,,,,,,,,,,,,,,METAR,1156.0
K18H 150135Z AUTO 02013KT 6SM HZ BKN027 17/10 A3028 RMK A01,K18H,2019-01-15T01:35:00Z,26.13,-92.03,17.0,10.0,20,13,,6.0,30.280512,,,TRUE,TRUE,,,,,,HZ,BKN,2700,,,,,,,MVFR,,,,,,,,,,,,METAR,10.0
K1U7 150135Z AUTO 03003KT 10SM CLR M17/M20 A3025 RMK A01,K1U7,2019-01-15T01:35:00Z,,,-17.0,-20.0,30,3,,10.0,30.250984,,,TRUE,TRUE,,,,,,,CLR,,,,,,,,VFR,,,,,,,,,,,,METAR,
K28J 150135Z AUTO 36007KT 10SM OVC017 11/08 A3021 RMK AO2,K28J,2019-01-15T01:35:00Z,29.65,-81.58,11.0,8.0,360,7,,10.0,30.209646,,,TRUE,TRUE,,,,,,,OVC,1700,,,,,,,MVFR,,,,,,,,,,,,METAR,15.0
K2A0 150135Z AUTO 00000KT 10SM BKN020 OVC025 03/00 A3028 RMK A01,K2A0,2019-01-15T01:35:00Z,35.48,-84.93,3.0,0.0,0,0,,10.0,30.280512,,,TRUE,TRUE,,,,,,,BKN,2000,OVC,2500,,,,,MVFR,,,,,,,,,,,,METAR,219.0
K3L4 150135Z AUTO 05009KT 10SM SCT023 A3038 RMK A01,K3L4,2019-01-15T01:35:00Z,29.8,-92.8,,,50,9,,10.0,30.380905,,,TRUE,TRUE,,,,,,,SCT,2300,,,,,,,VFR,,,,,,,,,,,,METAR,2.0
K3D2 150135Z AUTO 27004KT 7SM BKN009 OVC028 M02/M04 A3015 RMK AO2 T10211037,K3D2,2019-01-15T01:35:00Z,45.13,-87.18,-2.1,-3.7,270,4,,7.0,30.15059,,,TRUE,TRUE,,,,,,,BKN,900,OVC,2800,,,,,IFR,,,,,,,,,,,,METAR,234.0
K33N 150135Z AUTO 28003KT 10SM CLR M06/M10 A3017 RMK A01,K33N,2019-01-15T01:35:00Z,39.22,-75.6,-6.0,-10.0,280,3,,10.0,30.171259,,,TRUE,TRUE,,,,,,,CLR,,,,,,,,VFR,,,,,,,,,,,,METAR,17.0
K2M2 150135Z AUTO 31004KT 10SM OVC012 02/M00 A3031 RMK A01,K2M2,2019-01-15T01:35:00Z,35.23,-87.25,2.0,0.0,310,4,,10.0,30.31004,,,TRUE,TRUE,,,,,,,OVC,1200,,,,,,,MVFR,,,,,,,,,,,,METAR,286.0
K2LS 150135Z AUTO VRB04KT 10SM OVC017 07/03 A3037 RMK AO2,K2LS,2019-01-15T01:35:00Z,29.42,-90.3,7.0,3.0,0,4,,10.0,30.369095,,,TRUE,TRUE,,,,,,,OVC,1700,,,,,,,MVFR,,,,,,,,,,,,METAR,-2.0
K2G9 150135Z AUTO 26005KT 10SM SCT009 OVC018 M03/M05 A3013 RMK AO2,K2G9,2019-01-15T01:35:00Z,40.03,-79.02,-3.0,-5.0,260,5,,10.0,30.129921,,,TRUE,TRUE,,,,,,,SCT,900,OVC,1800,,,,,MVFR,,,,,,,,,,,,METAR,693.0
K3T5 150135Z AUTO 00000KT 10SM OVC060 10/05 A3037 RMK AO2 T01000050,K3T5,2019-01-15T01:35:00Z,29.9,-96.95,10.0,5.0,0,0,,10.0,30.369095,,,TRUE,TRUE,,,,,,,OVC,6000,,,,,,,VFR,,,,,,,,,,,,METAR,99.0
K3S8 150135Z AUTO 00000KT 10SM BKN090 OVC120 06/03 A2988 RMK AO2,K3S8,2019-01-15T01:35:00Z,42.5,-123.4,6.0,3.0,0,0,,10.0,29.878937,,,TRUE,TRUE,,,,,,,BKN,9000,OVC,12000,,,,,VFR,,,,,,,,,,,,METAR,343.0
K46U 150135Z AUTO 00000KT 10SM CLR M13/M15 A3024 RMK A01,K46U,2019-01-15T01:35:00Z,43.18,-111.05,-13.0,-15.0,0,0,,10.0,30.239174,,,TRUE,TRUE,,,,,,,CLR,,,,,,,,VFR,,,,,,,,,,,,METAR,1717.0
K4O4 150135Z AUTO 00000KT 10SM OVC016 02/M01 A3040 RMK AO2,K4O4,2019-01-15T01:35:00Z,33.92,-94.87,2.0,-1.0,0,0,,10.0,30.398623,,,TRUE,TRUE,,,,,,,OVC,1600,,,,,,,MVFR,,,,,,,,,,,,METAR,144.0
K54A 150135Z AUTO VRB05KT 10SM 13/10 A3017 RMK AO2,K54A,2019-01-15T01:35:00Z,26.85,-82.25,13.0,10.0,0,5,,10.0,30.171259,,,TRUE,TRUE,,,,,,,,,,,,,,,,,,,,,,,,,,,METAR,14.0
K5T9 150135Z AUTO 00000KT 10SM OVC038 05/M01 A3036 RMK A01,K5T9,2019-01-15T01:35:00Z,28.85,-100.52,5.0,-1.0,0,0,,10.0,30.360237,,,TRUE,TRUE,,,,,,,OVC,3800,,,,,,,VFR,,,,,,,,,,,,METAR,270.0
K6S0 150135Z AUTO 26009KT 10SM CLR 02/M13 A3006 RMK A01,K6S0,2019-01-15T01:35:00Z,45.8,-109.97,2.0,-13.0,260,9,,10.0,30.059055,,,TRUE,TRUE,,,,,,,CLR,,,,,,,,VFR,,,,,,,,,,,,METAR,1363.0
KA39 150135Z AUTO 07005KT 10SM SCT100 16/10 A3009 RMK AO2,KA39,2019-01-15T01:35:00Z,32.98,-111.92,16.0,10.0,70,5,,10.0,30.088583,,,TRUE,TRUE,,,,,,,SCT,10000,,,,,,,VFR,,,,,,,,,,,,METAR,396.0
KAFK 150135Z AUTO 23010KT 2 1/2SM BR OVC003 00/00 A3026 RMK AO2 T00001002,KAFK,2019-01-15T01:35:00Z,40.6,-95.85,0.0,-0.2,230,10,,2.5,30.259842,,,TRUE,TRUE,,,,,,BR,OVC,300,,,,,,,LIFR,,,,,,,,,,,,METAR,354.0
K8A3 150135Z AUTO 00000KT 9SM OVC014 M00/M01 A3027 RMK A01,K8A3,2019-01-15T01:35:00Z,36.42,-85.32,0.0,-1.0,0,0,,9.0,30.268702,,,TRUE,TRUE,,,,,,,OVC,1400,,,,,,,MVFR,,,,,,,,,,,,METAR,419.0
KARW 150135Z AUTO 01005KT 7SM OVC015 07/04 A3023 RMK AO2,KARW,2019-01-15T01:35:00Z,32.42,-80.63,7.0,4.0,10,5,,7.0,30.230314,,,TRUE,TRUE,,,,,,,OVC,1500,,,,,,,MVFR,,,,,,,,,,,,METAR,4.0
KAPY 150135Z AUTO 05003KT 7SM OVC014 10/07 A3038 RMK AO2 T01000077,KAPY,2019-01-15T01:35:00Z,26.97,-99.25,10.0,7.7,50,3,,7.0,30.380905,,,TRUE,TRUE,,,,,,,OVC,1400,,,,,,,MVFR,,,,,,,,,,,,METAR,129.0
KXIH 150135Z AUTO 00000KT 10SM OVC065 A3037 RMK A01,KXIH,2019-01-15T01:35:00Z,29.18,-94.52,,,0,0,,10.0,30.369095,,,TRUE,TRUE,,,,,,,OVC,6500,,,,,,,VFR,,,,,,,,,,,,METAR,75.0
KXER 150135Z AUTO 01010KT 10SM OVC018 11/07 A3032 RMK A01,KXER,2019-01-15T01:35:00Z,,,11.0,7.0,10,10,,10.0,30.318897,,,TRUE,TRUE,,,,,,,OVC,1800,,,,,,,MVFR,,,,,,,,,,,,METAR,
KVQT 150135Z AUTO 03014KT 9SM OVC019 10/07 A3035 RMK A01,KVQT,2019-01-15T01:35:00Z,28.27,-92.27,10.0,7.0,30,14,,9.0,30.351377,,,TRUE,TRUE,,,,,,,OVC,1900,,,,,,,MVFR,,,,,,,,,,,,METAR,25.0
KVOA 150135Z AUTO 36008KT 10SM OVC019 10/06 A3028 RMK A01,KVOA,2019-01-15T01:35:00Z,29.23,-87.78,10.0,6.0,360,8,,10.0,30.280512,,,TRUE,TRUE,,,,,,,OVC,1900,,,,,,,MVFR,,,,,,,,,,,,METAR,53.0
KVKY 150135Z AUTO 03014G20KT 10SM OVC019 09/05 A3033 RMK A01,KVKY,2019-01-15T01:35:00Z,29.25,-88.43,9.0,5.0,30,14,20,10.0,30.33071,,,TRUE,TRUE,,,,,,,OVC,1900,,,,,,,MVFR,,,,,,,,,,,,METAR,32.0
KVKS 150135Z AUTO 35005KT 10SM OVC016 05/02 A3040 RMK A01,KVKS,2019-01-15T01:35:00Z,32.23,-90.93,5.0,2.0,350,5,,10.0,30.398623,,,TRUE,TRUE,,,,,,,OVC,1600,,,,,,,MVFR,,,,,,,,,,,,METAR,32.0
KVBS 150135Z AUTO 08012KT 10SM OVC023 10/04 A3036 RMK A01,KVBS,2019-01-15T01:35:00Z,29.48,-93.63,10.0,4.0,80,12,,10.0,30.360237,,,TRUE,TRUE,,,,,,,OVC,2300,,,,,,,MVFR,,,,,,,,,,,,METAR,31.0
KVAF 150135Z AUTO 03008G15KT 9SM BKN025 BKN060 OVC070 14/09 A3033 RMK A01,KVAF,2019-01-15T01:35:00Z,27.35,-94.63,14.0,9.0,30,8,15,9.0,30.33071,,,TRUE,TRUE,,,,,,,BKN,2500,BKN,6000,OVC,7000,,,MVFR,,,,,,,,,,,,METAR,46.0
KUYF 150135Z AUTO 22005KT 1/4SM FZFG BKN003 M16/M17 A3027 RMK AO2,KUYF,2019-01-15T01:35:00Z,39.93,-83.47,-16.0,-17.0,220,5,,0.25,30.268702,,,TRUE,TRUE,,,,,,FZFG,BKN,300,,,,,,,LIFR,,,,,,,,,,,,METAR,330.0
KUCY 150135Z AUTO 00000KT 10SM OVC033 01/M01 A3037 RMK A01,KUCY,2019-01-15T01:35:00Z,36.38,-88.98,1.0,-1.0,0,0,,10.0,30.369095,,,TRUE,TRUE,,,,,,,OVC,3300,,,,,,,VFR,,,,,,,,,,,,METAR,104.0
KU42 150135Z AUTO 32003KT 5SM CLR M05/M06 A3026 RMK AO1 T10521059,KU42,2019-01-15T01:35:00Z,40.62,-111.98,-5.2,-5.9,320,3,,5.0,30.259842,,,TRUE,TRUE,,,,,,,CLR,,,,,,,,MVFR,,,,,,,,,,,,METAR,1402.0
KTZR 150135Z AUTO 24003KT 1/2SM FZFG VV005 M09/M10 A3029 RMK AO2 VIS 1/4V2 1/2 T10911101,KTZR,2019-01-15T01:35:00Z,39.9,-83.13,-9.1,-10.1,240,3,,0.5,30.28937,,,TRUE,TRUE,,,,,,FZFG,OVX,0,,,,,,,LIFR,,,,,,,,,,,500,METAR,276.0
KTVI 150135Z AUTO 35009KT 10SM OVC017 07/04 A3025 RMK AO2,KTVI,2019-01-15T01:35:00Z,30.9,-83.88,7.0,4.0,350,9,,10.0,30.250984,,,TRUE,TRUE,,,,,,,OVC,1700,,,,,,,MVFR,,,,,,,,,,,,METAR,80.0
KTMT 150135Z AUTO 13004KT 10SM SCT120 01/M05 A2998 RMK AO2 T00131054,KTMT,2019-01-15T01:35:00Z,39.47,-117.2,1.3,-5.4,130,4,,10.0,29.97933,,,TRUE,TRUE,,,,,,,SCT,12000,,,,,,,VFR,,,,,,,,,,,,METAR,1748.0
KTHA 150135Z AUTO 32005KT 10SM OVC014 01/M01 A3029 RMK A01,KTHA,2019-01-15T01:35:00Z,35.38,-86.25,1.0,-1.0,320,5,,10.0,30.28937,,,TRUE,TRUE,,,,,,,OVC,1400,,,,,,,MVFR,,,,,,,,,,,,METAR,331.0
KTCY 150135Z AUTO 12010KT 10SM FEW027 FEW050 OVC060 11/09 A2989 RMK A01,KTCY,2019-01-15T01:35:00Z,37.68,-121.43,11.0,9.0,120,10,,10.0,29.890747,,,TRUE,TRUE,,,,,,,FEW,2700,FEW,5000,OVC,6000,,,VFR,,,,,,,,,,,,METAR,59.0
KSZY 150135Z AUTO 00000KT 10SM OVC013 02/00 A3034 RMK A01,KSZY,2019-01-15T01:35:00Z,,,2.0,0.0,0,0,,10.0,30.339567,,,TRUE,TRUE,,,,,,,OVC,1300,,,,,,,MVFR,,,,,,,,,,,,METAR,
KSZT 150135Z AUTO 04008KT 10SM CLR M03/M07 A3021 RMK AO2,KSZT,2019-01-15T01:35:00Z,48.3,-116.57,-3.0,-7.0,40,8,,10.0,30.209646,,,TRUE,TRUE,,,,,,,CLR,,,,,,,,VFR,,,,,,,,,,,,METAR,648.0
KSYI 150135Z AUTO 00000KT 10SM BKN017 OVC028 02/00 A3031 RMK A01,KSYI,2019-01-15T01:35:00Z,35.57,-86.45,2.0,0.0,0,0,,10.0,30.31004,,,TRUE,TRUE,,,,,,,BKN,1700,OVC,2800,,,,,MVFR,,,,,,,,,,,,METAR,245.0
KSXU 150135Z AUTO 14007KT 10SM CLR 04/01 A3022 RMK AO2 T00370009,KSXU,2019-01-15T01:35:00Z,34.93,-104.65,3.7,0.9,140,7,,10.0,30.221457,,,TRUE,TRUE,,,,,,,CLR,,,,,,,,VFR,,,,,,,,,,,,METAR,1460.0
KSRE 150135Z AUTO 13004KT 10SM CLR 01/M01 A3035 RMK AO2,KSRE,2019-01-15T01:35:00Z,35.27,-96.68,1.0,-1.0,130,4,,10.0,30.351377,,,TRUE,TRUE,,,,,,,CLR,,,,,,,,VFR,,,,,,,,,,,,METAR,312.0
KSRB 150135Z AUTO 33004KT 8SM OVC015 01/M01 A3029 RMK A01,KSRB,2019-01-15T01:35:00Z,36.05,-85.53,1.0,-1.0,330,4,,8.0,30.28937,,,TRUE,TRUE,,,,,,,OVC,1500,,,,,,,MVFR,,,,,,,,,,,,METAR,313.0
KSNH 150135Z AUTO 33005KT 10SM OVC012 03/01 A3035 RMK A01,KSNH,2019-01-15T01:35:00Z,35.17,-88.22,3.0,1.0,330,5,,10.0,30.351377,,,TRUE,TRUE,,,,,,,OVC,1200,,,,,,,MVFR,,,,,,,,,,,,METAR,144.0
KSCX 150135Z AUTO 00000KT 10SM OVC018 M00/M02 A3025 RMK A01,KSCX,2019-01-15T01:35:00Z,36.45,-84.58,0.0,-2.0,0,0,,10.0,30.250984,,,TRUE,TRUE,,,,,,,OVC,1800,,,,,,,MVFR,,,,,,,,,,,,METAR,471.0
KSCF 150135Z AUTO 04013KT 10SM BKN022 09/04 A3029 RMK A01,KSCF,2019-01-15T01:35:00Z,29.12,-91.87,9.0,4.0,40,13,,10.0,30.28937,,,TRUE,TRUE,,,,,,,BKN,2200,,,,,,,MVFR,,,,,,,,,,,,METAR,8.0
KS52 150135Z AUTO 00000KT 4SM BR OVC003 M08/M09 A3024 RMK AO2 T10761086,KS52,2019-01-15T01:35:00Z,48.38,-120.15,-7.6,-8.6,0,0,,4.0,30.239174,,,TRUE,TRUE,,,,,,BR,OVC,300,,,,,,,LIFR,,,,,,,,,,,,METAR,520.0
KS39 150135Z AUTO 28004KT 10SM CLR M02/M05 A3003 RMK AO2,KS39,2019-01-15T01:35:00Z,44.28,-120.9,-2.0,-5.0,280,4,,10.0,30.029528,,,TRUE,TRUE,,,,,,,CLR,,,,,,,,VFR,,,,,,,,,,,,METAR,991.0
KRZR 150135Z AUTO 32004KT 10SM OVC022 03/01 A3026 RMK A01,KRZR,2019-01-15T01:35:00Z,35.22,-84.8,3.0,1.0,320,4,,10.0,30.259842,,,TRUE,TRUE,,,,,,,OVC,2200,,,,,,,MVFR,,,,,,,,,,,,METAR,263.0
KRZL 150135Z AUTO 26006KT 10SM OVC007 M05/M06 A3032 RMK AO2,KRZL,2019-01-15T01:35:00Z,40.95,-87.18,-5.0,-6.0,260,6,,10.0,30.318897,,,TRUE,TRUE,,,,,,,OVC,700,,,,,,,IFR,,,,,,,,,,,,METAR,213.0
KRTS 150135Z AUTO 12003KT 10SM FEW041 SCT047 BKN055 01/M05 A2993 RMK AO2,KRTS,2019-01-15T01:35:00Z,39.67,-119.88,1.0,-5.0,120,3,,10.0,29.929134,,,TRUE,TRUE,,,,,,,FEW,4100,SCT,4700,BKN,5500,,,VFR,,,,,,,,,,,,METAR,1540.0
KETN 150135Z AUTO 00000KT 10SM OVC042 07/02 A3034 RMK AO2 T00660016,KETN,2019-01-15T01:35:00Z,32.42,-98.82,6.6,1.6,0,0,,10.0,30.339567,,,TRUE,TRUE,,,,,,,OVC,4200,,,,,,,VFR,,,,,,,,,,,,SPECI,446.0
KETB 150135Z AUTO 27007KT 240V300 10SM OVC013 M02/M04 A3020 RMK AO2,KETB,2019-01-15T01:35:00Z,43.42,-88.13,-2.0,-4.0,270,7,,10.0,30.200787,,,TRUE,TRUE,,,,,,,OVC,1300,,,,,,,MVFR,,,,,,,,,,,,SPECI,270.0
KEKS 150135Z AUTO 16010KT 10SM CLR M01/M10 A3015 RMK AO2,KEKS,2019-01-15T01:35:00Z,45.27,-111.65,-1.0,-10.0,160,10,,10.0,30.15059,,,TRUE,TRUE,,,,,,,CLR,,,,,,,,VFR,,,,,,,,,,,,SPECI,1641.0
KEIR 150135Z AUTO 04014KT 10SM OVC020 09/05 A3034 RMK A01,KEIR,2019-01-15T01:35:00Z,28.63,-91.48,9.0,5.0,40,14,,10.0,30.339567,,,TRUE,TRUE,,,,,,,OVC,2000,,,,,,,MVFR,,,,,,,,,,,,METAR,28.0
KEBA 150135Z AUTO 00000KT 10SM OVC034 07/06 A3022 RMK AO2 T00720060,KEBA,2019-01-15T01:35:00Z,34.1,-82.82,7.2,6.0,0,0,,10.0,30.221457,,,TRUE,TRUE,,,,,,,OVC,3400,,,,,,,VFR,,,,,,,,,,,,METAR,184.0
KDZJ 150135Z AUTO 00000KT 10SM OVC011 02/00 A3020 RMK AO2 T00161004,KDZJ,2019-01-15T01:35:00Z,34.85,-84.0,1.6,-0.4,0,0,,10.0,30.200787,,,TRUE,TRUE,,,,,,,OVC,1100,,,,,,,MVFR,,,,,,,,,,,,METAR,582.0
KDUA 150135Z AUTO 00000KT 10SM CLR 00/M01 A3040 RMK AO2,KDUA,2019-01-15T01:35:00Z,33.95,-96.4,0.0,-1.0,0,0,,10.0,30.398623,,,TRUE,TRUE,,,,,,,CLR,,,,,,,,VFR,,,,,,,,,,,,METAR,213.0
KDSF 150135Z AUTO 10SM OVC021 15/08 A3028 RMK A01,KDSF,2019-01-15T01:35:00Z,28.35,-88.27,15.0,8.0,,,,10.0,30.280512,,,TRUE,TRUE,,,,,,,OVC,2100,,,,,,,MVFR,,,,,,,,,,,,METAR,130.0
KDNV 150135Z AUTO 23005KT 10SM OVC007 M06/M07 A3029 RMK AO2 T10601072,KDNV,2019-01-15T01:35:00Z,40.2,-87.6,-6.0,-7.2,230,5,,10.0,30.28937,,,TRUE,TRUE,,,,,,,OVC,700,,,,,,,IFR,,,,,,,,,,,,METAR,212.0
KDNN 150135Z AUTO 33007KT 10SM OVC026 03/00 A3028 RMK AO2,KDNN,2019-01-15T01:35:00Z,34.72,-84.87,3.0,0.0,330,7,,10.0,30.280512,,,TRUE,TRUE,,,,,,,OVC,2600,,,,,,,MVFR,,,,,,,,,,,,METAR,216.0
KDKX 150135Z AUTO 00000KT 10SM OVC021 02/00 A3028 RMK A01,KDKX,2019-01-15T01:35:00Z,35.97,-83.87,2.0,0.0,0,0,,10.0,30.280512,,,TRUE,TRUE,,,,,,,OVC,2100,,,,,,,MVFR,,,,,,,,,,,,METAR,254.0
KCXW 150135Z AUTO 00000KT 10SM OVC024 05/01 A3038 RMK A01,KCXW,2019-01-15T01:35:00Z,35.02,-92.55,5.0,1.0,0,0,,10.0,30.380905,,,TRUE,TRUE,,,,,,,OVC,2400,,,,,,,MVFR,,,,,,,,,,,,METAR,84.0
KCVW 150135Z AUTO 05006KT 10SM FEW026 07/04 A3036 RMK A01,KCVW,2019-01-15T01:35:00Z,29.78,-93.3,7.0,4.0,50,6,,10.0,30.360237,,,TRUE,TRUE,,,,,,,FEW,2600,,,,,,,VFR,,,,,,,,,,,,METAR,1.0
KCVB 150135Z AUTO 12003KT 10SM OVC047 09/02 A3040 RMK AO2 T00870018,KCVB,2019-01-15T01:35:00Z,29.35,-98.85,8.7,1.8,120,3,,10.0,30.398623,,,TRUE,TRUE,,,,,,,OVC,4700,,,,,,,VFR,,,,,,,,,,,,METAR,235.0
KCRX 150135Z AUTO 31003KT 10SM OVC016 03/00 A3036 RMK AO2,KCRX,2019-01-15T01:35:00Z,34.92,-88.6,3.0,0.0,310,3,,10.0,30.360237,,,TRUE,TRUE,,,,,,,OVC,1600,,,,,,,MVFR,,,,,,,,,,,,METAR,130.0
KCQF 150135Z AUTO 34003KT 10SM OVC020 05/02 A3032 RMK AO2,KCQF,2019-01-15T01:35:00Z,30.47,-87.88,5.0,2.0,340,3,,10.0,30.318897,,,TRUE,TRUE,,,,,,,OVC,2000,,,,,,,MVFR,,,,,,,,,,,,METAR,28.0
KCOM 150135Z AUTO 20004KT 10SM OVC037 07/02 A3035 RMK AO2 T00710021,KCOM,2019-01-15T01:35:00Z,31.83,-99.4,7.1,2.1,200,4,,10.0,30.351377,,,TRUE,TRUE,,,,,,,OVC,3700,,,,,,,VFR,,,,,,,,,,,,METAR,517.0
KCNI 150135Z AUTO 31009G14KT 270V340 10SM OVC023 04/00 A3022 RMK AO2,KCNI,2019-01-15T01:35:00Z,34.32,-84.42,4.0,0.0,310,9,14,10.0,30.221457,,,TRUE,TRUE,,,,,,,OVC,2300,,,,,,,MVFR,,,,,,,,,,,,METAR,372.0
KCMY 150135Z AUTO 00000KT 4SM BR OVC006 M04/M04 A3023 RMK AO2 T10401042,KCMY,2019-01-15T01:35:00Z,43.97,-90.73,-4.0,-4.2,0,0,,4.0,30.230314,,,TRUE,TRUE,,,,,,BR,OVC,600,,,,,,,IFR,,,,,,,,,,,,METAR,256.0
KCIR 150135Z AUTO 00000KT 10SM OVC021 01/M01 A3037 RMK AO2 T00081012,KCIR,2019-01-15T01:35:00Z,37.07,-89.22,0.8,-1.2,0,0,,10.0,30.369095,,,TRUE,TRUE,,,,,,,OVC,2100,,,,,,,MVFR,,,,,,,,,,,,METAR,98.0
KCCB 150135Z AUTO 07009KT 9SM OVC028 09/08 A2998 RMK AO2,KCCB,2019-01-15T01:35:00Z,34.12,-117.68,9.0,8.0,70,9,,9.0,29.97933,,,TRUE,TRUE,,,,,,,OVC,2800,,,,,,,MVFR,,,,,,,,,,,,METAR,440.0
KC83 150135Z AUTO 00000KT 10SM FEW035 OVC060 10/09 A2988 RMK AO2,KC83,2019-01-15T01:35:00Z,37.83,-121.62,10.0,9.0,0,0,,10.0,29.878937,,,TRUE,TRUE,,,,,,,FEW,3500,OVC,6000,,,,,VFR,,,,,,,,,,,,METAR,24.0
KC29 150135Z AUTO 25006KT 5SM OVC007 M04/M05 A3024 RMK AO1 T10401051,KC29,2019-01-15T01:35:00Z,43.12,-89.53,-4.0,-5.1,250,6,,5.0,30.239174,,,TRUE,TRUE,,,,,,,OVC,700,,,,,,,IFR,,,,,,,,,,,,METAR,283.0
KBWD 150135Z AUTO 00000KT 10SM OVC042 08/03 A3035 RMK AO1,KBWD,2019-01-15T01:35:00Z,31.8,-98.95,8.0,3.0,0,0,,10.0,30.351377,,,TRUE,TRUE,,,,,,,OVC,4200,,,,,,,VFR,,,,,,,,,,,,METAR,423.0
KBVN 150135Z AUTO 31005KT 10SM CLR 00/M03 A3020 RMK AO2 T10051027,KBVN,2019-01-15T01:35:00Z,41.73,-98.05,-0.5,-2.7,310,5,,10.0,30.200787,,,TRUE,TRUE,,,,,,,CLR,,,,,,,,VFR,,,,,,,,,,,,METAR,551.0
KBQX 150135Z AUTO 02007KT 10SM BKN060 OVC065 11/06 A3039 RMK A01,KBQX,2019-01-15T01:35:00Z,28.5,-95.72,11.0,6.0,20,7,,10.0,30.389763,,,TRUE,TRUE,,,,,,,BKN,6000,OVC,6500,,,,,VFR,,,,,,,,,,,,METAR,34.0
KBKT 150135Z AUTO 00000KT 10SM BKN042 OVC080 00/00 A3020 RMK AO1 T10011001,KBKT,2019-01-15T01:35:00Z,37.07,-77.95,-0.1,-0.1,0,0,,10.0,30.200787,,,TRUE,TRUE,,,,,,,BKN,4200,OVC,8000,,,,,VFR,,,,,,,,,,,,METAR,134.0
KRPH 150135Z AUTO 00000KT 10SM CLR 04/02 A3034 RMK AO2 T00410015,KRPH,2019-01-15T01:35:00Z,33.12,-98.55,4.1,1.5,0,0,,10.0,30.339567,,,TRUE,TRUE,,,,,,,CLR,,,,,,,,VFR,,,,,,,,,,,,METAR,342.0
KRNC 150135Z AUTO 35004KT 10SM OVC019 01/M01 A3030 RMK A01,KRNC,2019-01-15T01:35:00Z,35.7,-85.85,1.0,-1.0,350,4,,10.0,30.301182,,,TRUE,TRUE,,,,,,,OVC,1900,,,,,,,MVFR,,,,,,,,,,,,METAR,315.0
KRLD 150135Z AUTO 33003KT 10SM OVC019 01/M01 A3027 RMK AO2 T00061009,KRLD,2019-01-15T01:35:00Z,46.3,-119.3,0.6,-0.9,330,3,,10.0,30.268702,,,TRUE,TRUE,,,,,,,OVC,1900,,,,,,,MVFR,,,,,,,,,,,,METAR,120.0
KRKW 150135Z AUTO 34004KT 10SM FEW012 OVC020 M00/M01 A3024 RMK A01,KRKW,2019-01-15T01:35:00Z,35.92,-84.68,0.0,-1.0,340,4,,10.0,30.239174,,,TRUE,TRUE,,,,,,,FEW,1200,OVC,2000,,,,,MVFR,,,,,,,,,,,,METAR,508.0
KRCV 150135Z AUTO 26006KT 10SM CLR M15/M17 A3030 RMK AO2 T11511172,KRCV,2019-01-15T01:35:00Z,37.72,-106.35,-15.1,-17.2,260,6,,10.0,30.301182,,,TRUE,TRUE,,,,,,,CLR,,,,,,,,VFR,,,,,,,,,,,,METAR,2424.0
KRAS 150135Z AUTO 03009KT 10SM BKN041 OVC060 10/05 A3040 RMK AO2 T01000049,KRAS,2019-01-15T01:35:00Z,27.82,-97.08,10.0,4.9,30,9,,10.0,30.398623,,,TRUE,TRUE,,,,,,,BKN,4100,OVC,6000,,,,,VFR,,,,,,,,,,,,METAR,2.0
KPYX 150135Z AUTO 05006KT 10SM CLR 03/01 A3021 RMK AO2 T00250006,KPYX,2019-01-15T01:35:00Z,36.42,-100.75,2.5,0.6,50,6,,10.0,30.209646,,,TRUE,TRUE,,,,,,,CLR,,,,,,,,VFR,,,,,,,,,,,,METAR,889.0
KPVE 150135Z AUTO 32003KT 9SM OVC011 02/00 A3035 RMK A01,KPVE,2019-01-15T01:35:00Z,35.65,-88.2,2.0,0.0,320,3,,9.0,30.351377,,,TRUE,TRUE,,,,,,,OVC,1100,,,,,,,MVFR,,,,,,,,,,,,METAR,149.0
KPVB 150135Z AUTO 19003KT 2 1/2SM OVC008 M04/M04 A3026 RMK AO1 T10451045,KPVB,2019-01-15T01:35:00Z,42.68,-90.43,-4.5,-4.5,190,3,,2.5,30.259842,,,TRUE,TRUE,,,,,,,OVC,800,,,,,,,IFR,,,,,,,,,,,,METAR,313.0
KPTD 150135Z AUTO 19004KT 10SM SCT033 SCT039 SCT050 M14/M15 A3018 RMK AO2,KPTD,2019-01-15T01:35:00Z,44.68,-74.95,-14.0,-15.0,190,4,,10.0,30.180119,,,TRUE,TRUE,,,,,,,SCT,3300,SCT,3900,SCT,5000,,,VFR,,,,,,,,,,,,METAR,144.0
KPSN 150135Z AUTO 00000KT 10SM CLR 04/01 A3041 RMK AO2 T00420017,KPSN,2019-01-15T01:35:00Z,31.78,-95.7,4.2,1.7,0,0,,10.0,30.410433,,,TRUE,TRUE,,,,,,,CLR,,,,,,,,VFR,,,,,,,,,,,,METAR,129.0
KPRO 150135Z AUTO 26005KT 3SM BR OVC004 M01/M01 A3026 RMK AO2 T10121012,KPRO,2019-01-15T01:35:00Z,41.83,-94.17,-1.2,-1.2,260,5,,3.0,30.259842,,,TRUE,TRUE,,,,,,BR,OVC,400,,,,,,,LIFR,,,,,,,,,,,,METAR,308.0
KPPQ 150135Z AUTO 26007KT 7SM OVC006 M02/M02 A3033 RMK AO2 T10161023,KPPQ,2019-01-15T01:35:00Z,39.63,-90.78,-1.6,-2.3,260,7,,7.0,30.33071,,,TRUE,TRUE,,,,,,,OVC,600,,,,,,,IFR,,,,,,,,,,,,METAR,216.0
KPOY 150135Z AUTO 13013KT 10SM CLR M03/M10 A3008 RMK AO2,KPOY,2019-01-15T01:35:00Z,44.87,-108.8,-3.0,-10.0,130,13,,10.0,30.079725,,,TRUE,TRUE,,,,,,,CLR,,,,,,,,VFR,,,,,,,,,,,,METAR,1552.0
KPHT 150135Z AUTO 00000KT 7SM FEW015 OVC032 01/M01 A3036 RMK A01,KPHT,2019-01-15T01:35:00Z,36.33,-88.38,1.0,-1.0,0,0,,7.0,30.360237,,,TRUE,TRUE,,,,,,,FEW,1500,OVC,3200,,,,,VFR,,,,,,,,,,,,METAR,177.0
KPEQ 150135Z AUTO 00000KT 10SM OVC015 04/02 A3032 RMK AO2 T00440015,KPEQ,2019-01-15T01:35:00Z,31.38,-103.52,4.4,1.5,0,0,,10.0,30.318897,,,TRUE,TRUE,,,,,,,OVC,1500,,,,,,,MVFR,,,,,,,,,,,,METAR,797.0
KPCW 150135Z AUTO 23008KT 10SM FEW025 FEW031 FEW039 M06/M08 A3025 RMK AO2,KPCW,2019-01-15T01:35:00Z,41.52,-82.87,-6.0,-8.0,230,8,,10.0,30.250984,,,TRUE,TRUE,,,,,,,FEW,2500,FEW,3100,FEW,3900,,,VFR,,,,,,,,,,,,METAR,178.0
KP08 150135Z AUTO 06005KT 10SM CLR 17/09 A3008 RMK AO2,KP08,2019-01-15T01:35:00Z,32.93,-111.43,17.0,9.0,60,5,,10.0,30.079725,,,TRUE,TRUE,,,,,,,CLR,,,,,,,,VFR,,,,,,,,,,,,METAR,481.0
KOWI 150135Z AUTO 22007KT 5SM BR OVC004 M01/M01 A3032 RMK AO2,KOWI,2019-01-15T01:35:00Z,38.53,-95.25,-1.0,-1.0,220,7,,5.0,30.318897,,,TRUE,TRUE,,,,,,BR,OVC,400,,,,,,,LIFR,,,,,,,,,,,,SPECI,292.0
KOKM 150135Z AUTO 11007KT 100V160 10SM CLR 00/00 A3037 RMK AO2 T00001003,KOKM,2019-01-15T01:35:00Z,35.67,-95.95,0.0,-0.3,110,7,,10.0,30.369095,,,TRUE,TRUE,,,,,,,CLR,,,,,,,,VFR,,,,,,,,,,,,SPECI,220.0
KO69 150135Z AUTO VRB05G11KT 10SM BKN025 OVC035 10/08 A2986 RMK A01,KO69,2019-01-15T01:35:00Z,38.25,-122.6,10.0,8.0,0,5,11,10.0,29.861221,,,TRUE,TRUE,,,,,,,BKN,2500,OVC,3500,,,,,MVFR,,,,,,,,,,,,SPECI,28.0
KN38 150135Z AUTO 29004KT 10SM CLR M03/M14 A3010 RMK AO2,KN38,2019-01-15T01:35:00Z,41.73,-77.4,-3.0,-14.0,290,4,,10.0,30.100393,,,TRUE,TRUE,,,,,,,CLR,,,,,,,,VFR,,,,,,,,,,,,SPECI,577.0
KN03 150135Z AUTO 00000KT 10SM CLR M12/M13 A3014 RMK AO2,KN03,2019-01-15T01:35:00Z,42.6,-76.22,-12.0,-13.0,0,0,,10.0,30.138779,,,TRUE,TRUE,,,,,,,CLR,,,,,,,,VFR,,,,,,,,,,,,SPECI,366.0
KMZG 150135Z AUTO 12013KT 10SM BKN047 OVC060 12/07 A3036 RMK A01,KMZG,2019-01-15T01:35:00Z,27.73,-96.18,12.0,7.0,120,13,,10.0,30.360237,,,TRUE,TRUE,,,,,,,BKN,4700,OVC,6000,,,,,VFR,,,,,,,,,,,,SPECI,29.0
KMVH 150135Z AUTO 32006KT 10SM CLR M02/M13 A3004 RMK AO2,KMVH,2019-01-15T01:35:00Z,46.83,-108.93,-2.0,-13.0,320,6,,10.0,30.041338,,,TRUE,TRUE,,,,,,,CLR,,,,,,,,VFR,,,,,,,,,,,,SPECI,1355.0
KMTK 150135Z AUTO 01009KT 340V080 10SM OVC015 08/05 A3032 RMK A01,KMTK,2019-01-15T01:35:00Z,,,8.0,5.0,10,9,,10.0,30.318897,,,TRUE,TRUE,,,,,,,OVC,1500,,,,,,,MVFR,,,,,,,,,,,,METAR,
KMRC 150135Z AUTO 00000KT 10SM BKN022 OVC033 02/02 A3032 RMK A01,KMRC,2019-01-15T01:35:00Z,35.55,-87.18,2.0,2.0,0,0,,10.0,30.318897,,,TRUE,TRUE,,,,,,,BKN,2200,OVC,3300,,,,,MVFR,,,,,,,,,,,,SPECI,208.0
KMOR 150135Z AUTO 35006KT 10SM OVC015 01/M01 A3023 RMK A01,KMOR,2019-01-15T01:35:00Z,36.18,-83.37,1.0,-1.0,350,6,,10.0,30.230314,,,TRUE,TRUE,,,,,,,OVC,1500,,,,,,,MVFR,,,,,,,,,,,,SPECI,400.0
KMNV 150135Z AUTO VRB04KT 10SM OVC022 02/M00 A3027 RMK A01,KMNV,2019-01-15T01:35:00Z,35.55,-84.38,2.0,0.0,0,4,,10.0,30.268702,,,TRUE,TRUE,,,,,,,OVC,2200,,,,,,,MVFR,,,,,,,,,,,,SPECI,314.0
KMMI 150135Z AUTO 00000KT 10SM OVC022 03/M00 A3029 RMK A01,KMMI,2019-01-15T01:35:00Z,35.4,-84.57,3.0,0.0,0,0,,10.0,30.28937,,,TRUE,TRUE,,,,,,,OVC,2200,,,,,,,MVFR,,,,,,,,,,,,SPECI,266.0
KMIS 150135Z AUTO 02016KT 10SM OVC018 09/05 A3032 RMK A01,KMIS,2019-01-15T01:35:00Z,29.3,-88.85,9.0,5.0,20,16,,10.0,30.318897,,,TRUE,TRUE,,,,,,,OVC,1800,,,,,,,MVFR,,,,,,,,,,,,SPECI,32.0
KBIJ 150135Z AUTO 00000KT 10SM OVC033 06/03 A3026 RMK AO2,KBIJ,2019-01-15T01:35:00Z,31.4,-84.9,6.0,3.0,0,0,,10.0,30.259842,,,TRUE,TRUE,,,,,,,OVC,3300,,,,,,,VFR,,,,,,,,,,,,METAR,65.0
KBGF 150135Z AUTO 33004KT 10SM BKN013 BKN020 OVC026 02/M00 A3029 RMK A01,KBGF,2019-01-15T01:35:00Z,35.18,-86.07,2.0,0.0,330,4,,10.0,30.28937,,,TRUE,TRUE,,,,,,,BKN,1300,BKN,2000,OVC,2600,,,MVFR,,,,,,,,,,,,METAR,299.0
KBFW 150135Z AUTO 00000KT 10SM CLR M08/M09 A3018 RMK AO2,KBFW,2019-01-15T01:35:00Z,47.25,-91.4,-8.0,-9.0,0,0,,10.0,30.180119,,,TRUE,TRUE,,,,,,,CLR,,,,,,,,VFR,,,,,,,,,,,,METAR,331.0
KBBP 150135Z AUTO 13003KT 10SM OVC040 05/02 A3021 RMK AO2,KBBP,2019-01-15T01:35:00Z,34.62,-79.73,5.0,2.0,130,3,,10.0,30.209646,,,TRUE,TRUE,,,,,,,OVC,4000,,,,,,,VFR,,,,,,,,,,,,METAR,45.0
KBBF 150135Z AUTO 05013KT 10SM OVC060 12/06 A3035 RMK A01,KBBF,2019-01-15T01:35:00Z,27.83,-96.02,12.0,6.0,50,13,,10.0,30.351377,,,TRUE,TRUE,,,,,,,OVC,6000,,,,,,,VFR,,,,,,,,,,,,METAR,36.0
KBBD 150135Z AUTO 00000KT 10SM OVC038 06/02 A3036 RMK AO2,KBBD,2019-01-15T01:35:00Z,31.18,-99.32,6.0,2.0,0,0,,10.0,30.360237,,,TRUE,TRUE,,,,,,,OVC,3800,,,,,,,VFR,,,,,,,,,,,,METAR,557.0
KAYS 150135Z AUTO 35003KT 10SM OVC022 09/07 A3023 RMK AO2 T00900065,KAYS,2019-01-15T01:35:00Z,31.25,-82.4,9.0,6.5,350,3,,10.0,30.230314,,,TRUE,TRUE,,,,,,,OVC,2200,,,,,,,MVFR,,,,,,,,,,,,METAR,46.0
KAVK 150135Z AUTO 16008KT 9SM BKN041 03/02 A3027 RMK AO2,KAVK,2019-01-15T01:35:00Z,36.77,-98.67,3.0,2.0,160,8,,9.0,30.268702,,,TRUE,TRUE,,,,,,,BKN,4100,,,,,,,VFR,,,,,,,,,,,,METAR,449.0
KASN 150135Z AUTO 01008KT 10SM OVC017 04/01 A3031 RMK AO2 T00380006,KASN,2019-01-15T01:35:00Z,33.57,-86.05,3.8,0.6,10,8,,10.0,30.31004,,,TRUE,TRUE,,,,,,,OVC,1700,,,,,,,MVFR,,,,,,,,,,,,METAR,162.0
KIMM 150135Z AUTO 28004KT 10SM CLR 14/12 A3014 RMK A01,KIMM,2019-01-15T01:35:00Z,26.43,-81.4,14.0,12.0,280,4,,10.0,30.138779,,,TRUE,TRUE,,,,,,,CLR,,,,,,,,VFR,,,,,,,,,,,,SPECI,12.0
KIKT 150135Z AUTO 36007G13KT 270V040 10SM OVC020 12/07 A3030 RMK A01,KIKT,2019-01-15T01:35:00Z,28.52,-88.28,12.0,7.0,360,7,13,10.0,30.301182,,,TRUE,TRUE,,,,,,,OVC,2000,,,,,,,MVFR,,,,,,,,,,,,SPECI,25.0
KIGQ 150135Z AUTO 24008KT 7SM OVC009 M05/M06 A3029 RMK AO2 T10471058,KIGQ,2019-01-15T01:35:00Z,41.53,-87.53,-4.7,-5.8,240,8,,7.0,30.28937,,,TRUE,TRUE,,,,,,,OVC,900,,,,,,,IFR,,,,,,,,,,,,SPECI,188.0
KIFP 150135Z 02014KT 10SM FEW009 SCT034 OVC090 13/05 A3003 RMK AO2,KIFP,2019-01-15T01:35:00Z,35.15,-114.57,13.0,5.0,20,14,,10.0,30.029528,,,,TRUE,,,,,,,FEW,900,SCT,3400,OVC,9000,,,VFR,,,,,,,,,,,,SPECI,212.0
KIBM 150135Z AUTO 00000KT 10SM CLR M03/M11 A3016 RMK AO2 T10291114,KIBM,2019-01-15T01:35:00Z,41.18,-103.68,-2.9,-11.4,0,0,,10.0,30.159449,,,TRUE,TRUE,,,,,,,CLR,,,,,,,,VFR,,,,,,,,,,,,SPECI,1501.0
KI23 150135Z AUTO 00000KT 1SM OVC019 M11/M13 A3028 RMK AO1,KI23,2019-01-15T01:35:00Z,39.57,-83.42,-11.0,-13.0,0,0,,1.0,30.280512,,,TRUE,TRUE,,,,,,,OVC,1900,,,,,,,IFR,,,,,,,,,,,,SPECI,299.0
KHZD 150135Z AUTO 28003KT 6SM BR OVC014 02/00 A3036 RMK A01,KHZD,2019-01-15T01:35:00Z,36.08,-88.47,2.0,0.0,280,3,,6.0,30.360237,,,TRUE,TRUE,,,,,,BR,OVC,1400,,,,,,,MVFR,,,,,,,,,,,,SPECI,151.0
KHTH 150135Z AUTO 17010KT 10SM OVC046 05/M03 A2995 RMK A01,KHTH,2019-01-15T01:35:00Z,,,5.0,-3.0,170,10,,10.0,29.949802,,,TRUE,TRUE,,,,,,,OVC,4600,,,,,,,VFR,,,,,,,,,,,,METAR,
KXPY 150135Z AUTO 36009KT 10SM OVC016 07/03 A3035 RMK A01,KXPY,2019-01-15T01:35:00Z,29.12,-90.2,7.0,3.0,360,9,,10.0,30.351377,,,TRUE,TRUE,,,,,,,OVC,1600,,,,,,,MVFR,,,,,,,,,,,,METAR,2.0
KXNX 150135Z AUTO 35004KT 10SM FEW016 OVC023 02/M00 A3036 RMK A01,KXNX,2019-01-15T01:35:00Z,36.38,-86.42,2.0,0.0,350,4,,10.0,30.360237,,,TRUE,TRUE,,,,,,,FEW,1600,OVC,2300,,,,,MVFR,,,,,,,,,,,,METAR,178.0
KJAQ 150135Z AUTO 10004KT 10SM BKN065 OVC075 08/06 A2990 RMK AO1 T00760064,KJAQ,2019-01-15T01:35:00Z,38.37,-120.8,7.6,6.4,100,4,,10.0,29.899607,,,TRUE,TRUE,,,,,,,BKN,6500,OVC,7500,,,,,VFR,,,,,,,,,,,,SPECI,512.0
KJAU 150135Z AUTO 00000KT 10SM OVC016 01/M02 A3030 RMK A01,KJAU,2019-01-15T01:35:00Z,36.33,-84.17,1.0,-2.0,0,0,,10.0,30.301182,,,TRUE,TRUE,,,,,,,OVC,1600,,,,,,,MVFR,,,,,,,,,,,,SPECI,360.0
KLNN 150135Z AUTO 23008KT 10SM OVC020 A3025 RMK AO1,KLNN,2019-01-15T01:35:00Z,41.67,-81.37,,,230,8,,10.0,30.250984,,,TRUE,TRUE,,,,,,,OVC,2000,,,,,,,MVFR,,,,,,,,,,,,SPECI,191.0
KLOT 150135Z AUTO 26010KT 10SM OVC010 M05/M06 A3029 RMK AO2 T10481063,KLOT,2019-01-15T01:35:00Z,41.6,-88.1,-4.8,-6.3,260,10,,10.0,30.28937,,,TRUE,TRUE,,,,,,,OVC,1000,,,,,,,MVFR,,,,,,,,,,,,SPECI,205.0
KJWN 150135Z AUTO 31004KT 10SM FEW020 OVC031 02/M00 A3032 RMK A01,KJWN,2019-01-15T01:35:00Z,36.18,-86.88,2.0,0.0,310,4,,10.0,30.318897,,,TRUE,TRUE,,,,,,,FEW,2000,OVC,3100,,,,,VFR,,,,,,,,,,,,SPECI,151.0
KJTC 150135Z AUTO 26004KT 10SM CLR 03/00 A3023 RMK AO2,KJTC,2019-01-15T01:35:00Z,34.13,-109.32,3.0,0.0,260,4,,10.0,30.230314,,,TRUE,TRUE,,,,,,,CLR,,,,,,,,VFR,,,,,,,,,,,,SPECI,2150.0
KJFZ 150135Z AUTO 34005KT 1/4SM FZFG OVC002 M03/M03 A3017 RMK AO2 T10271030,KJFZ,2019-01-15T01:35:00Z,37.07,-81.8,-2.7,-3.0,340,5,,0.25,30.171259,,,TRUE,TRUE,,,,,,FZFG,OVC,200,,,,,,,LIFR,,,,,,,,,,,,SPECI,809.0
KLRU 150135Z AUTO 00000KT 10SM CLR 09/02 A3023 RMK AO2 T00870024,KLRU,2019-01-15T01:35:00Z,32.27,-106.92,8.7,2.4,0,0,,10.0,30.230314,,,TRUE,TRUE,,,,,,,CLR,,,,,,,,VFR,,,,,,,,,,,,SPECI,1358.0
KLUA 150135Z AUTO 22003KT 10SM OVC027 00/M03 A3018 RMK AO2,KLUA,2019-01-15T01:35:00Z,38.67,-78.5,0.0,-3.0,220,3,,10.0,30.180119,,,TRUE,TRUE,,,,,,,OVC,2700,,,,,,,MVFR,,,,,,,,,,,,SPECI,275.0
KLUG 150135Z AUTO 00000KT 10SM BKN021 OVC033 02/00 A3032 RMK A01,KLUG,2019-01-15T01:35:00Z,35.52,-86.8,2.0,0.0,0,0,,10.0,30.318897,,,TRUE,TRUE,,,,,,,BKN,2100,OVC,3300,,,,,MVFR,,,,,,,,,,,,SPECI,219.0
KLUV 150135Z AUTO 20006KT 10SM OVC018 06/03 A3031 RMK AO2,KLUV,2019-01-15T01:35:00Z,32.75,-101.92,6.0,3.0,200,6,,10.0,30.31004,,,TRUE,TRUE,,,,,,,OVC,1800,,,,,,,MVFR,,,,,,,,,,,,SPECI,912.0
KLXN 150135Z AUTO 17004KT 10SM CLR M01/M03 A3017 RMK AO2 T10151030,KLXN,2019-01-15T01:35:00Z,40.78,-99.77,-1.5,-3.0,170,4,,10.0,30.171259,,,TRUE,TRUE,,,,,,,CLR,,,,,,,,VFR,,,,,,,,,,,,SPECI,734.0
KLYO 150135Z AUTO 00000KT 2 1/2SM BR OVC004 00/00 A3026 RMK AO2 VIS 2V3 T00021001,KLYO,2019-01-15T01:35:00Z,38.35,-98.23,0.2,-0.1,0,0,,2.5,30.259842,,,TRUE,TRUE,,,,,,BR,OVC,400,,,,,,,LIFR,,,,,,,,,,,,SPECI,515.0
KLZZ 150135Z AUTO 00000KT 10SM OVC050 06/03 A3036 RMK AO2 T00630026,KLZZ,2019-01-15T01:35:00Z,31.1,-98.2,6.3,2.6,0,0,,10.0,30.360237,,,TRUE,TRUE,,,,,,,OVC,5000,,,,,,,VFR,,,,,,,,,,,,METAR,371.0
KM02 150135Z AUTO 32003KT 8SM BKN009 BKN014 OVC029 01/M00 A3031 RMK A01,KM02,2019-01-15T01:35:00Z,36.13,-87.43,1.0,0.0,320,3,,8.0,30.31004,,,TRUE,TRUE,,,,,,,BKN,900,BKN,1400,OVC,2900,,,IFR,,,,,,,,,,,,SPECI,272.0
KM54 150135Z AUTO 02004KT 10SM OVC022 02/M00 A3032 RMK A01,KM54,2019-01-15T01:35:00Z,36.18,-86.32,2.0,0.0,20,4,,10.0,30.318897,,,TRUE,TRUE,,,,,,,OVC,2200,,,,,,,MVFR,,,,,,,,,,,,SPECI,180.0
KM08 150135Z AUTO 00000KT 10SM OVC013 02/00 A3036 RMK A01,KM08,2019-01-15T01:35:00Z,35.22,-89.05,2.0,0.0,0,0,,10.0,30.360237,,,TRUE,TRUE,,,,,,,OVC,1300,,,,,,,MVFR,,,,,,,,,,,,SPECI,152.0
KM04 150135Z AUTO 35003KT 10SM OVC035 02/00 A3038 RMK A01,KM04,2019-01-15T01:35:00Z,35.58,-89.58,2.0,0.0,350,3,,10.0,30.380905,,,TRUE,TRUE,,,,,,,OVC,3500,,,,,,,VFR,,,,,,,,,,,,SPECI,85.0
KM75 150135Z AUTO 00000KT 10SM CLR M07/M09 A3003 RMK A01,KM75,2019-01-15T01:35:00Z,48.37,-107.92,-7.0,-9.0,0,0,,10.0,30.029528,,,TRUE,TRUE,,,,,,,CLR,,,,,,,,VFR,,,,,,,,,,,,SPECI,687.0
KM91 150135Z AUTO 31005KT 10SM OVC016 01/M00 A3032 RMK A01,KM91,2019-01-15T01:35:00Z,36.53,-86.92,1.0,0.0,310,5,,10.0,30.318897,,,TRUE,TRUE,,,,,,,OVC,1600,,,,,,,MVFR,,,,,,,,,,,,SPECI,215.0
KMBT 150135Z AUTO 34004KT 10SM OVC016 02/M00 A3031 RMK A01,KMBT,2019-01-15T01:35:00Z,35.88,-86.38,2.0,0.0,340,4,,10.0,30.31004,,,TRUE,TRUE,,,,,,,OVC,1600,,,,,,,MVFR,,,,,,,,,,,,SPECI,188.0
KMCC 150135Z AUTO 14009KT 8SM SCT034 BKN041 OVC060 11/08 A2993 RMK AO2,KMCC,2019-01-15T01:35:00Z,38.67,-121.4,11.0,8.0,140,9,,8.0,29.929134,,,TRUE,TRUE,,,,,,,SCT,3400,BKN,4100,OVC,6000,,,VFR,,,,,,,,,,,,METAR,23.0
KMDJ 150135Z AUTO 02014KT 10SM OVC017 08/05 A3034 RMK A01,KMDJ,2019-01-15T01:35:00Z,28.65,-89.8,8.0,5.0,20,14,,10.0,30.339567,,,TRUE,TRUE,,,,,,,OVC,1700,,,,,,,MVFR,,,,,,,,,,,,SPECI,31.0
KMDS 150135Z AUTO 04003KT 10SM M04/M04 A3020 RMK AO2,KMDS,2019-01-15T01:35:00Z,44.02,-97.08,-4.0,-4.0,40,3,,10.0,30.200787,,,TRUE,TRUE,,,,,,,,,,,,,,,,,,,,,,,,,,,SPECI,524.0
RKTU 150135Z 26007KT 4800 HZ BKN030 03/M03 Q1023 RMK CIG030,RKTU,2019-01-15T01:35:00Z,36.7,127.5,3.0,-3.0,260,7,,2.98,30.206694,,,,,,,,,,HZ,BKN,3000,,,,,,,IFR,,,,,,,,,,,,SPECI,66.0
K19S 150135Z AUTO 32004KT 1/4SM FZFG OVC002 00/M01 A3023 RMK AO2 T10051006,K19S,2019-01-15T01:35:00Z,37.48,-100.83,-0.5,-0.6,320,4,,0.25,30.230314,,,TRUE,TRUE,,,,,,FZFG,OVC,200,,,,,,,LIFR,,,,,,,,,,,,METAR,886.0
K1A6 150135Z AUTO 00000KT 10SM OVC016 01/M01 A3027 RMK AO2 T00061014,K1A6,2019-01-15T01:35:00Z,36.62,-83.73,0.6,-1.4,0,0,,10.0,30.268702,,,TRUE,TRUE,,,,,,,OVC,1600,,,,,,,MVFR,,,,,,,,,,,,METAR,352.0
K2I0 150135Z AUTO 28003KT 10SM OVC032 00/M01 A3036 RMK AO2 T00001013,K2I0,2019-01-15T01:35:00Z,37.35,-87.4,0.0,-1.3,280,3,,10.0,30.360237,,,TRUE,TRUE,,,,,,,OVC,3200,,,,,,,VFR,,,,,,,,,,,,METAR,134.0
K2J3 150135Z AUTO 00000KT 10SM OVC034 07/06 A3021 RMK AO2 T00710065,K2J3,2019-01-15T01:35:00Z,32.98,-82.38,7.1,6.5,0,0,,10.0,30.209646,,,TRUE,TRUE,,,,,,,OVC,3400,,,,,,,VFR,,,,,,,,,,,,METAR,100.0
K2J5 150135Z AUTO 00000KT 10SM BKN003 OVC036 06/06 A3021 RMK AO2 PWINO T00640060,K2J5,2019-01-15T01:35:00Z,32.9,-81.97,6.4,6.0,0,0,,10.0,30.209646,,,TRUE,TRUE,,,,,TRUE,,BKN,300,OVC,3600,,,,,LIFR,,,,,,,,,,,,METAR,72.0
K3F3 150135Z AUTO 00000KT 10SM OVC019 05/01 A3045 RMK AO2 T00460010,K3F3,2019-01-15T01:35:00Z,32.07,-93.77,4.6,1.0,0,0,,10.0,30.448818,,,TRUE,TRUE,,,,,,,OVC,1900,,,,,,,MVFR,,,,,,,,,,,,METAR,96.0
K3N8 150135Z AUTO 22004KT 3SM BR OVC003 M07/M08 A3022 RMK AO2 T10751082,K3N8,2019-01-15T01:35:00Z,47.25,-95.88,-7.5,-8.2,220,4,,3.0,30.221457,,,TRUE,TRUE,,,,,,BR,OVC,300,,,,,,,LIFR,,,,,,,,,,,,METAR,383.0
K40J 150135Z AUTO 36004KT 10SM OVC022 10/05 A3024 RMK AO2 T01000050,K40J,2019-01-15T01:35:00Z,30.07,-83.57,10.0,5.0,360,4,,10.0,30.239174,,,TRUE,TRUE,,,,,,,OVC,2200,,,,,,,MVFR,,,,,,,,,,,,METAR,13.0
KAHQ 150135Z AUTO 21006KT 4SM BR OVC003 00/00 A3024 RMK AO2 T00010001,KAHQ,2019-01-15T01:35:00Z,41.23,-96.6,0.1,0.1,210,6,,4.0,30.239174,,,TRUE,TRUE,,,,,,BR,OVC,300,,,,,,,LIFR,,,,,,,,,,,,METAR,374.0
KADH 150135Z AUTO 14005KT 10SM CLR 01/00 A3037 RMK AO2,KADH,2019-01-15T01:35:00Z,34.8,-96.67,1.0,0.0,140,5,,10.0,30.369095,,,TRUE,TRUE,,,,,,,CLR,,,,,,,,VFR,,,,,,,,,,,,METAR,308.0
K9V9 150135Z AUTO 00000KT 3/4SM BR OVC003 M03/M03 A3022 RMK AO2 T10331033,K9V9,2019-01-15T01:35:00Z,43.77,-99.32,-3.3,-3.3,0,0,,0.75,30.221457,,,TRUE,TRUE,,,,,,BR,OVC,300,,,,,,,LIFR,,,,,,,,,,,,METAR,519.0
K8A0 150135Z AUTO 35011KT 10SM OVC017 02/00 A3028 RMK AO2,K8A0,2019-01-15T01:35:00Z,34.23,-86.25,2.0,0.0,350,11,,10.0,30.280512,,,TRUE,TRUE,,,,,,,OVC,1700,,,,,,,MVFR,,,,,,,,,,,,METAR,315.0
K6R3 150135Z AUTO 00000KT 7SM CLR 05/04 A3040 RMK AO2 T00510043,K6R3,2019-01-15T01:35:00Z,30.35,-95.0,5.1,4.3,0,0,,7.0,30.398623,,,TRUE,TRUE,,,,,,,CLR,,,,,,,,VFR,,,,,,,,,,,,METAR,46.0
K4V0 150135Z AUTO 36003KT 10SM OVC015 M06/M09 A3036 RMK AO2 T10651090,K4V0,2019-01-15T01:35:00Z,40.1,-108.77,-6.5,-9.0,360,3,,10.0,30.360237,,,TRUE,TRUE,,,,,,,OVC,1500,,,,,,,MVFR,,,,,,,,,,,,METAR,1608.0
K4A9 150135Z AUTO 35009KT 10SM OVC018 03/00 A3028 RMK AO2 T00291003,K4A9,2019-01-15T01:35:00Z,34.47,-85.72,2.9,-0.3,350,9,,10.0,30.280512,,,TRUE,TRUE,,,,,,,OVC,1800,,,,,,,MVFR,,,,,,,,,,,,METAR,267.0
K48A 150135Z AUTO 30005KT 10SM OVC030 08/05 A3022 RMK AO2 T00800045,K48A,2019-01-15T01:35:00Z,,,8.0,4.5,300,5,,10.0,30.221457,,,TRUE,TRUE,,,,,,,OVC,3000,,,,,,,MVFR,,,,,,,,,,,,METAR,
KALX 150135Z AUTO 10SM OVC019 06/02 A3028 RMK AO2 T00550018,KALX,2019-01-15T01:35:00Z,32.92,-85.97,5.5,1.8,,,,10.0,30.280512,,,TRUE,TRUE,,,,,,,OVC,1900,,,,,,,MVFR,,,,,,,,,,,,METAR,209.0
KANW 150135Z AUTO 00000KT 10SM CLR M03/M03 A3017 RMK AO2 T10311033,KANW,2019-01-15T01:35:00Z,42.57,-100.0,-3.1,-3.3,0,0,,10.0,30.171259,,,TRUE,TRUE,,,,,,,CLR,,,,,,,,VFR,,,,,,,,,,,,METAR,789.0
KAQR 150135Z AUTO 00000KT 5SM BR CLR 00/00 A3040 RMK AO2,KAQR,2019-01-15T01:35:00Z,34.4,-96.15,0.0,0.0,0,0,,5.0,30.398623,,,TRUE,TRUE,,,,,,BR,CLR,,,,,,,,MVFR,,,,,,,,,,,,METAR,189.0
KASL 150135Z AUTO 00000KT 10SM OVC015 03/00 A3043 RMK AO1 T00300000,KASL,2019-01-15T01:35:00Z,32.52,-94.3,3.0,0.0,0,0,,10.0,30.431103,,,TRUE,TRUE,,,,,,,OVC,1500,,,,,,,MVFR,,,,,,,,,,,,METAR,109.0
KAUH 150135Z AUTO 23006KT 1/4SM FZFG OVC003 00/00 A3020 RMK AO2 T10051005,KAUH,2019-01-15T01:35:00Z,40.88,-98.0,-0.5,-0.5,230,6,,0.25,30.200787,,,TRUE,TRUE,,,,,,FZFG,OVC,300,,,,,,,LIFR,,,,,,,,,,,,METAR,550.0
KMEV 150135Z AUTO 19005KT 10SM OVC050 00/M04 A2994 RMK AO2,KMEV,2019-01-15T01:35:00Z,38.98,-119.75,0.0,-4.0,190,5,,10.0,29.940945,,,TRUE,TRUE,,,,,,,OVC,5000,,,,,,,VFR,,,,,,,,,,,,SPECI,1439.0
KAUN 150135Z AUTO 00000KT 9SM FEW028 BKN038 OVC047 10/04 A2991 RMK A01,KAUN,2019-01-15T01:35:00Z,38.95,-121.08,10.0,4.0,0,0,,9.0,29.911417,,,TRUE,TRUE,,,,,,,FEW,2800,BKN,3800,OVC,4700,,,VFR,,,,,,,,,,,,METAR,467.0
KBCB 150135Z AUTO 27009G14KT 10SM OVC011 00/M01 A3016 RMK AO2 T00001010,KBCB,2019-01-15T01:35:00Z,37.22,-80.42,0.0,-1.0,270,9,14,10.0,30.159449,,,TRUE,TRUE,,,,,,,OVC,1100,,,,,,,MVFR,,,,,,,,,,,,METAR,650.0
KBQP 150135Z AUTO 00000KT 10SM OVC018 05/01 A3042 RMK AO2 T00460005,KBQP,2019-01-15T01:35:00Z,32.75,-91.88,4.6,0.5,0,0,,10.0,30.41929,,,TRUE,TRUE,,,,,,,OVC,1800,,,,,,,MVFR,,,,,,,,,,,,METAR,51.0
KBMT 150135Z AUTO 04004KT 10SM CLR 08/03 A3040 RMK AO2 T00760030,KBMT,2019-01-15T01:35:00Z,30.07,-94.22,7.6,3.0,40,4,,10.0,30.398623,,,TRUE,TRUE,,,,,,,CLR,,,,,,,,VFR,,,,,,,,,,,,METAR,10.0
KBIE 150135Z AUTO 23008KT 2SM OVC003 01/01 A3025 RMK AO2 T00100008 PWINO,KBIE,2019-01-15T01:35:00Z,40.28,-96.75,1.0,0.8,230,8,,2.0,30.250984,,,TRUE,TRUE,,,,,TRUE,,OVC,300,,,,,,,LIFR,,,,,,,,,,,,METAR,403.0
KBGE 150135Z 10SM 08/02 A3026 RMK AO2 PWINO,KBGE,2019-01-15T01:35:00Z,30.97,-84.63,8.0,2.0,,,,10.0,30.259842,,,,TRUE,,,,,TRUE,,,,,,,,,,,,,,,,,,,,,,METAR,43.0
KC65 150135Z AUTO 24006KT 8SM OVC006 M05/M05 A3028 RMK A01,KC65,2019-01-15T01:35:00Z,41.37,-86.3,-5.0,-5.0,240,6,,8.0,30.280512,,,TRUE,TRUE,,,,,,,OVC,600,,,,,,,IFR,,,,,,,,,,,,METAR,244.0
KC09 150135Z AUTO 28006KT 7SM OVC010 M04/M06 A3029 RMK AO2 T10421058,KC09,2019-01-15T01:35:00Z,41.43,-88.42,-4.2,-5.8,280,6,,7.0,30.28937,,,TRUE,TRUE,,,,,,,OVC,1000,,,,,,,MVFR,,,,,,,,,,,,METAR,178.0
KBVS 150135Z AUTO 30006KT 10SM CLR 03/02 A2996 RMK A01,KBVS,2019-01-15T01:35:00Z,48.47,-122.42,3.0,2.0,300,6,,10.0,29.958662,,,TRUE,TRUE,,,,,,,CLR,,,,,,,,VFR,,,,,,,,,,,,METAR,43.0
KCFD 150135Z AUTO 29003KT 10SM CLR 06/02 A3041 RMK AO2 T00550021,KCFD,2019-01-15T01:35:00Z,30.72,-96.33,5.5,2.1,290,3,,10.0,30.410433,,,TRUE,TRUE,,,,,,,CLR,,,,,,,,VFR,,,,,,,,,,,,METAR,112.0
KF70 150135Z AUTO 00000KT 3SM OVC019 09/09 A2999 RMK AO1 P0006,KF70,2019-01-15T01:35:00Z,33.57,-117.13,9.0,9.0,0,0,,3.0,29.991142,,,TRUE,TRUE,,,,,,,OVC,1900,,,,,,,MVFR,,,,,,0.06,,,,,,METAR,412.0
KEZZ 150135Z AUTO 24009KT 2 1/2SM BR OVC003 M03/M03 A3032 RMK AO2 T10311035,KEZZ,2019-01-15T01:35:00Z,39.72,-94.28,-3.1,-3.5,240,9,,2.5,30.318897,,,TRUE,TRUE,,,,,,BR,OVC,300,,,,,,,LIFR,,,,,,,,,,,,METAR,317.0
KEZF 150135Z AUTO 00000KT 10SM CLR M03/M04 A3021 RMK AO2 T10351037,KEZF,2019-01-15T01:35:00Z,38.27,-77.45,-3.5,-3.7,0,0,,10.0,30.209646,,,TRUE,TRUE,,,,,,,CLR,,,,,,,,VFR,,,,,,,,,,,,METAR,26.0
KENL 150135Z AUTO 24003KT 4SM BR OVC021 M01/M01 A3035 RMK AO2 T10071012,KENL,2019-01-15T01:35:00Z,38.52,-89.1,-0.7,-1.2,240,3,,4.0,30.351377,,,TRUE,TRUE,,,,,,BR,OVC,2100,,,,,,,MVFR,,,,,,,,,,,,METAR,163.0
KELK 150135Z AUTO 19011KT 10SM CLR 04/01 A3026 RMK AO2 T00350006,KELK,2019-01-15T01:35:00Z,35.43,-99.4,3.5,0.6,190,11,,10.0,30.259842,,,TRUE,TRUE,,,,,,,CLR,,,,,,,,VFR,,,,,,,,,,,,METAR,610.0
KELA 150135Z AUTO 00000KT 10SM OVC060 10/05 A3039 RMK AO2 T00980048,KELA,2019-01-15T01:35:00Z,29.6,-96.32,9.8,4.8,0,0,,10.0,30.389763,,,TRUE,TRUE,,,,,,,OVC,6000,,,,,,,VFR,,,,,,,,,,,,METAR,56.0
KEFK 150135Z AUTO 00000KT 10SM CLR M16/M17 A3011 RMK AO2 T11581170,KEFK,2019-01-15T01:35:00Z,44.88,-72.23,-15.8,-17.0,0,0,,10.0,30.109253,,,TRUE,TRUE,,,,,,,CLR,,,,,,,,VFR,,,,,,,,,,,,METAR,284.0
KEBG 150135Z AUTO 01008KT 5SM BR OVC006 10/09 A3037 RMK AO2 T00980085,KEBG,2019-01-15T01:35:00Z,26.45,-98.13,9.8,8.5,10,8,,5.0,30.369095,,,TRUE,TRUE,,,,,,BR,OVC,600,,,,,,,IFR,,,,,,,,,,,,METAR,24.0
KE11 150135Z AUTO 20005KT 10SM OVC014 05/02 A3031 RMK AO2 T00500022,KE11,2019-01-15T01:35:00Z,32.33,-102.53,5.0,2.2,200,5,,10.0,30.31004,,,TRUE,TRUE,,,,,,,OVC,1400,,,,,,,MVFR,,,,,,,,,,,,METAR,967.0
KDVO 150135Z AUTO 12004KT 9SM OVC023 10/08 A2987 RMK AO2,KDVO,2019-01-15T01:35:00Z,38.15,-122.55,10.0,8.0,120,4,,9.0,29.870079,,,TRUE,TRUE,,,,,,,OVC,2300,,,,,,,MVFR,,,,,,,,,,,,METAR,1.0
KDUC 150135Z AUTO 18003KT 10SM CLR 03/00 A3036 RMK AO2 T00271001,KDUC,2019-01-15T01:35:00Z,34.47,-97.97,2.7,-0.1,180,3,,10.0,30.360237,,,TRUE,TRUE,,,,,,,CLR,,,,,,,,VFR,,,,,,,,,,,,METAR,339.0
KDKR 150135Z AUTO 00000KT 10SM 03/02 A3042 RMK AO2,KDKR,2019-01-15T01:35:00Z,31.3,-95.4,3.0,2.0,0,0,,10.0,30.41929,,,TRUE,TRUE,,,,,,,,,,,,,,,,,,,,,,,,,,,METAR,106.0
KDKB 150135Z AUTO 26009KT 5SM BR OVC007 M04/M05 A3027 RMK AO2 T10451055,KDKB,2019-01-15T01:35:00Z,41.93,-88.7,-4.5,-5.5,260,9,,5.0,30.268702,,,TRUE,TRUE,,,,,,BR,OVC,700,,,,,,,IFR,,,,,,,,,,,,METAR,279.0
KDED 150135Z AUTO 02008KT 10SM OVC030 11/09 A3018 RMK AO2,KDED,2019-01-15T01:35:00Z,29.07,-81.28,11.0,9.0,20,8,,10.0,30.180119,,,TRUE,TRUE,,,,,,,OVC,3000,,,,,,,MVFR,,,,,,,,,,,,METAR,24.0
KD39 150135Z AUTO 00000KT 10SM CLR M10/M11 A3023 RMK AO2 T11001108,KD39,2019-01-15T01:35:00Z,45.7,-94.93,-10.0,-10.8,0,0,,10.0,30.230314,,,TRUE,TRUE,,,,,,,CLR,,,,,,,,VFR,,,,,,,,,,,,METAR,380.0
KCXE 150135Z AUTO 00000KT 10SM BKN043 OVC085 00/00 A3021 RMK AO1 T00000000,KCXE,2019-01-15T01:35:00Z,36.78,-78.5,0.0,0.0,0,0,,10.0,30.209646,,,TRUE,TRUE,,,,,,,BKN,4300,OVC,8500,,,,,VFR,,,,,,,,,,,,METAR,153.0
KCUH 150135Z AUTO 00000KT 10SM CLR 00/M01 A3034 RMK AO2 T00001014,KCUH,2019-01-15T01:35:00Z,35.95,-96.77,0.0,-1.4,0,0,,10.0,30.339567,,,TRUE,TRUE,,,,,,,CLR,,,,,,,,VFR,,,,,,,,,,,,METAR,279.0
KCTJ 150135Z AUTO 34007KT 10SM OVC013 03/01 A3028 RMK AO2 T00310005,KCTJ,2019-01-15T01:35:00Z,33.63,-85.15,3.1,0.5,340,7,,10.0,30.280512,,,TRUE,TRUE,,,,,,,OVC,1300,,,,,,,MVFR,,,,,,,,,,,,METAR,354.0
KCHK 150135Z AUTO 21005KT 10SM CLR 03/00 A3030 RMK AO2 T00290003,KCHK,2019-01-15T01:35:00Z,35.1,-97.97,2.9,0.3,210,5,,10.0,30.301182,,,TRUE,TRUE,,,,,,,CLR,,,,,,,,VFR,,,,,,,,,,,,METAR,351.0
KFWC 150135Z AUTO 00000KT 10SM OVC026 00/M03 A3035 RMK AO1 T10011029,KFWC,2019-01-15T01:35:00Z,38.38,-88.42,-0.1,-2.9,0,0,,10.0,30.351377,,,TRUE,TRUE,,,,,,,OVC,2600,,,,,,,MVFR,,,,,,,,,,,,METAR,133.0
KFKN 150135Z AUTO 35003KT 10SM CLR M01/M02 A3022 RMK AO2 T10151018,KFKN,2019-01-15T01:35:00Z,36.7,-76.9,-1.5,-1.8,350,3,,10.0,30.221457,,,TRUE,TRUE,,,,,,,CLR,,,,,,,,VFR,,,,,,,,,,,,METAR,12.0
KFZG 150135Z AUTO 00000KT 10SM OVC028 08/05 A3025 RMK AO2 T00820053 PWINO,KFZG,2019-01-15T01:35:00Z,31.68,-83.27,8.2,5.3,0,0,,10.0,30.250984,,,TRUE,TRUE,,,,,TRUE,,OVC,2800,,,,,,,MVFR,,,,,,,,,,,,METAR,111.0
KGHG 150135Z AUTO 27003KT 10SM CLR M06/M08 A3009 RMK AO2,KGHG,2019-01-15T01:35:00Z,42.1,-70.67,-6.0,-8.0,270,3,,10.0,30.088583,,,TRUE,TRUE,,,,,,,CLR,,,,,,,,VFR,,,,,,,,,,,,METAR,4.0
KGLE 150135Z AUTO 00000KT 7SM CLR 01/00 A3039 RMK AO2 T00111005,KGLE,2019-01-15T01:35:00Z,33.65,-97.2,1.1,-0.5,0,0,,7.0,30.389763,,,TRUE,TRUE,,,,,,,CLR,,,,,,,,VFR,,,,,,,,,,,,METAR,256.0
KGOP 150135Z AUTO 00000KT 10SM OVC049 07/02 A3040 RMK AO2,KGOP,2019-01-15T01:35:00Z,31.42,-97.8,7.0,2.0,0,0,,10.0,30.398623,,,TRUE,TRUE,,,,,,,OVC,4900,,,,,,,VFR,,,,,,,,,,,,METAR,276.0
KGRN 150135Z AUTO 00000KT 10SM CLR M04/M07 A3014 RMK AO2 T10381074,KGRN,2019-01-15T01:35:00Z,42.8,-102.17,-3.8,-7.4,0,0,,10.0,30.138779,,,TRUE,TRUE,,,,,,,CLR,,,,,,,,VFR,,,,,,,,,,,,METAR,1086.0
KHDE 150135Z AUTO 22005KT 1/4SM FZFG OVC002 M02/M02 A3018 RMK AO2 T10201020,KHDE,2019-01-15T01:35:00Z,40.45,-99.32,-2.0,-2.0,220,5,,0.25,30.180119,,,TRUE,TRUE,,,,,,FZFG,OVC,200,,,,,,,LIFR,,,,,,,,,,,,METAR,705.0
KHLX 150135Z AUTO 31007KT 10SM OVC005 00/M01 A3010 RMK AO2 T10021007,KHLX,2019-01-15T01:35:00Z,36.77,-80.82,-0.2,-0.7,310,7,,10.0,30.100393,,,TRUE,TRUE,,,,,,,OVC,500,,,,,,,IFR,,,,,,,,,,,,METAR,834.0
KHJH 150135Z AUTO 24005KT 4SM BR OVC004 01/01 A3025 RMK AO2 T00100005,KHJH,2019-01-15T01:35:00Z,40.15,-97.58,1.0,0.5,240,5,,4.0,30.250984,,,TRUE,TRUE,,,,,,BR,OVC,400,,,,,,,LIFR,,,,,,,,,,,,METAR,447.0
KHSB 150135Z AUTO 26003KT 10SM OVC028 00/M01 A3037 RMK AO2 T10011013,KHSB,2019-01-15T01:35:00Z,37.82,-88.55,-0.1,-1.3,260,3,,10.0,30.369095,,,TRUE,TRUE,,,,,,,OVC,2800,,,,,,,MVFR,,,,,,,,,,,,METAR,121.0
KHYW 150135Z AUTO 00000KT 7SM CLR 00/00 A3023 RMK AO2,KHYW,2019-01-15T01:35:00Z,33.83,-79.12,0.0,0.0,0,0,,7.0,30.230314,,,TRUE,TRUE,,,,,,,CLR,,,,,,,,VFR,,,,,,,,,,,,METAR,11.0
KHWY 150135Z AUTO 00000KT 3/4SM BR VV005 M07/M09 A3020 RMK AO2 T10721095,KHWY,2019-01-15T01:35:00Z,38.58,-77.72,-7.2,-9.5,0,0,,0.75,30.200787,,,TRUE,TRUE,,,,,,BR,OVX,0,,,,,,,LIFR,,,,,,,,,,,500,METAR,103.0
PAAD 150135Z AUTO 10026KT OVC007 M25/M28 A3025 RMK AO2 T12531280 PWINO,PAAD,2019-01-15T01:35:00Z,70.13,-146.28,-25.3,-28.0,100,26,,,30.250984,,,TRUE,TRUE,,,,,TRUE,,OVC,700,,,,,,,,,,,,,,,,,,,METAR,8.0
KIKK 150135Z AUTO 27010KT 10SM OVC007 M05/M07 A3032 RMK AO2 T10501068,KIKK,2019-01-15T01:35:00Z,41.07,-87.85,-5.0,-6.8,270,10,,10.0,30.318897,,,TRUE,TRUE,,,,,,,OVC,700,,,,,,,IFR,,,,,,,,,,,,METAR,192.0
KIOB 150135Z AUTO 31003KT 10SM OVC013 M01/M02 A3030 RMK AO2,KIOB,2019-01-15T01:35:00Z,38.05,-83.98,-1.0,-2.0,310,3,,10.0,30.301182,,,TRUE,TRUE,,,,,,,OVC,1300,,,,,,,MVFR,,,,,,,,,,,,METAR,311.0
KRCE 150135Z AUTO 19005KT 10SM CLR 02/00 A3031 RMK AO2,KRCE,2019-01-15T01:35:00Z,35.48,-97.82,2.0,0.0,190,5,,10.0,30.31004,,,TRUE,TRUE,,,,,,,CLR,,,,,,,,VFR,,,,,,,,,,,,METAR,413.0
KRBW 150135Z AUTO 00000KT 10SM OVC011 05/03 A3024 RMK AO2,KRBW,2019-01-15T01:35:00Z,32.92,-80.63,5.0,3.0,0,0,,10.0,30.239174,,,TRUE,TRUE,,,,,,,OVC,1100,,,,,,,MVFR,,,,,,,,,,,,METAR,31.0
KPQN 150135Z AUTO 00000KT 1 1/4SM BR OVC001 M05/M05 A3021 RMK AO2 VIS 3/4V2 1/2,KPQN,2019-01-15T01:35:00Z,43.97,-96.32,-5.0,-5.0,0,0,,1.25,30.209646,,,TRUE,TRUE,,,,,,BR,OVC,100,,,,,,,LIFR,,,,,,,,,,,,METAR,529.0
KPLR 150135Z AUTO 00000KT 10SM OVC016 04/02 A3032 RMK A01,KPLR,2019-01-15T01:35:00Z,33.57,-86.25,4.0,2.0,0,0,,10.0,30.318897,,,TRUE,TRUE,,,,,,,OVC,1600,,,,,,,MVFR,,,,,,,,,,,,METAR,148.0
KPDC 150135Z AUTO 00000KT 3SM BR OVC007 M03/M04 A3026 RMK AO2 T10311040,KPDC,2019-01-15T01:35:00Z,43.02,-91.12,-3.1,-4.0,0,0,,3.0,30.259842,,,TRUE,TRUE,,,,,,BR,OVC,700,,,,,,,IFR,,,,,,,,,,,,METAR,201.0
KPCM 150135Z AUTO 33004KT 10SM CLR 13/09 A3020 RMK AO2,KPCM,2019-01-15T01:35:00Z,28.0,-82.17,13.0,9.0,330,4,,10.0,30.200787,,,TRUE,TRUE,,,,,,,CLR,,,,,,,,VFR,,,,,,,,,,,,METAR,47.0
KPAN 150135Z AUTO 09003KT 10SM OVC090 07/04 A3016 RMK AO2,KPAN,2019-01-15T01:35:00Z,34.25,-111.33,7.0,4.0,90,3,,10.0,30.159449,,,TRUE,TRUE,,,,,,,OVC,9000,,,,,,,VFR,,,,,,,,,,,,METAR,1572.0
KOXV 150135Z AUTO 27009KT 7SM OVC004 M03/M03 A3028 RMK AO2,KOXV,2019-01-15T01:35:00Z,41.28,-93.12,-3.0,-3.0,270,9,,7.0,30.280512,,,TRUE,TRUE,,,,,,,OVC,400,,,,,,,LIFR,,,,,,,,,,,,METAR,283.0
KORS 150135Z AUTO 34007KT 1/4SM FG OVC002 04/04 A2997 RMK AO2,KORS,2019-01-15T01:35:00Z,48.7,-122.92,4.0,4.0,340,7,,0.25,29.970472,,,TRUE,TRUE,,,,,,FG,OVC,200,,,,,,,LIFR,,,,,,,,,,,,METAR,9.0
KORC 150135Z AUTO 00000KT 7SM OVC006 M01/M01 A3022 RMK AO2,KORC,2019-01-15T01:35:00Z,42.97,-96.07,-1.0,-1.0,0,0,,7.0,30.221457,,,TRUE,TRUE,,,,,,,OVC,600,,,,,,,IFR,,,,,,,,,,,,METAR,431.0
KONA 150135Z AUTO 00000KT 5SM BR SCT013 OVC023 M01/M01 A3023 RMK AO2,KONA,2019-01-15T01:35:00Z,44.07,-91.7,-1.0,-1.0,0,0,,5.0,30.230314,,,TRUE,TRUE,,,,,,BR,SCT,1300,OVC,2300,,,,,MVFR,,,,,,,,,,,,METAR,200.0
KOLG 150135Z AUTO 00000KT 10SM CLR M08/M08 A3019 RMK AO1,KOLG,2019-01-15T01:35:00Z,46.3,-91.82,-8.0,-8.0,0,0,,10.0,30.188976,,,TRUE,TRUE,,,,,,,CLR,,,,,,,,VFR,,,,,,,,,,,,METAR,336.0
KO22 150135Z AUTO 00000KT 9SM BKN031 OVC038 07/07 A2993 RMK A01,KO22,2019-01-15T01:35:00Z,38.03,-120.42,7.0,7.0,0,0,,9.0,29.929134,,,TRUE,TRUE,,,,,,,BKN,3100,OVC,3800,,,,,VFR,,,,,,,,,,,,METAR,646.0
KMWM 150135Z AUTO 32006KT 5SM BR BKN005 OVC075 M03/M04 A3021 RMK AO2,KMWM,2019-01-15T01:35:00Z,43.9,-95.1,-3.0,-4.0,320,6,,5.0,30.209646,,,TRUE,TRUE,,,,,,BR,BKN,500,OVC,7500,,,,,IFR,,,,,,,,,,,,METAR,430.0
KMUT 150135Z AUTO 27006KT 8SM OVC009 M02/M04 A3031 RMK AO2,KMUT,2019-01-15T01:35:00Z,41.37,-91.15,-2.0,-4.0,270,6,,8.0,30.31004,,,TRUE,TRUE,,,,,,,OVC,900,,,,,,,IFR,,,,,,,,,,,,METAR,167.0
KMPZ 150135Z AUTO 25005KT 5SM BR OVC008 M01/M01 A3030 RMK AO2,KMPZ,2019-01-15T01:35:00Z,40.95,-91.52,-1.0,-1.0,250,5,,5.0,30.301182,,,TRUE,TRUE,,,,,,BR,OVC,800,,,,,,,IFR,,,,,,,,,,,,METAR,224.0
KMHL 150135Z AUTO 23006KT 5SM BR OVC005 M02/M02 A3035 RMK AO2,KMHL,2019-01-15T01:35:00Z,39.1,-93.2,-2.0,-2.0,230,6,,5.0,30.351377,,,TRUE,TRUE,,,,,,BR,OVC,500,,,,,,,IFR,,,,,,,,,,,,METAR,237.0
KMGC 150135Z AUTO 23008KT 10SM OVC012 M04/M07 A3029 RMK AO2,KMGC,2019-01-15T01:35:00Z,41.7,-86.82,-4.0,-7.0,230,8,,10.0,30.28937,,,TRUE,TRUE,,,,,,,OVC,1200,,,,,,,MVFR,,,,,,,,,,,,METAR,200.0
KMBO 150135Z AUTO 02003KT 10SM OVC018 03/01 A3037 RMK AO2 PWINO,KMBO,2019-01-15T01:35:00Z,32.43,-90.1,3.0,1.0,20,3,,10.0,30.369095,,,TRUE,TRUE,,,,,TRUE,,OVC,1800,,,,,,,MVFR,,,,,,,,,,,,METAR,99.0
KMAN 150135Z AUTO 00000KT 10SM CLR M01/M01 A3019 RMK A01,KMAN,2019-01-15T01:35:00Z,43.58,-116.52,-1.0,-1.0,0,0,,10.0,30.188976,,,TRUE,TRUE,,,,,,,CLR,,,,,,,,VFR,,,,,,,,,,,,METAR,774.0
KAJZ 150135Z AUTO 00000KT 10SM CLR M02/M07 A3029 RMK AO2 T10191070,KAJZ,2019-01-15T01:35:00Z,38.78,-108.07,-1.9,-7.0,0,0,,10.0,30.28937,,,TRUE,TRUE,,,,,,,CLR,,,,,,,,VFR,,,,,,,,,,,,METAR,1583.0
KAIO 150135Z AUTO 25005KT 4SM BR OVC003 M01/M01 A3026 RMK AO2,KAIO,2019-01-15T01:35:00Z,41.38,-95.03,-1.0,-1.0,250,5,,4.0,30.259842,,,TRUE,TRUE,,,,,,BR,OVC,300,,,,,,,LIFR,,,,,,,,,,,,METAR,360.0
KAIB 150135Z AUTO 11007KT 10SM CLR 00/M05 A3028 RMK AO2,KAIB,2019-01-15T01:35:00Z,38.23,-108.57,0.0,-5.0,110,7,,10.0,30.280512,,,TRUE,TRUE,,,,,,,CLR,,,,,,,,VFR,,,,,,,,,,,,METAR,1811.0
KAEJ 150135Z AUTO 27005KT 10SM CLR M16/M19 A3025 RMK AO2 T11601187,KAEJ,2019-01-15T01:35:00Z,38.82,-106.12,-16.0,-18.7,270,5,,10.0,30.250984,,,TRUE,TRUE,,,,,,,CLR,,,,,,,,VFR,,,,,,,,,,,,METAR,2422.0
KADU 150135Z AUTO 00000KT 4SM BR OVC004 M02/M03 A3025 RMK AO2,KADU,2019-01-15T01:35:00Z,41.7,-94.92,-2.0,-3.0,0,0,,4.0,30.250984,,,TRUE,TRUE,,,,,,BR,OVC,400,,,,,,,LIFR,,,,,,,,,,,,METAR,392.0
K9D7 150135Z AUTO 17006KT 9SM OVC002 M13/M13 A3016 RMK AO2,K9D7,2019-01-15T01:35:00Z,48.48,-99.23,-13.0,-13.0,170,6,,9.0,30.159449,,,TRUE,TRUE,,,,,,,OVC,200,,,,,,,LIFR,,,,,,,,,,,,METAR,452.0
K82C 150135Z AUTO 25005KT 5SM BR OVC026 M03/M05 A3021 RMK AO2 T10331047,K82C,2019-01-15T01:35:00Z,43.83,-90.13,-3.3,-4.7,250,5,,5.0,30.209646,,,TRUE,TRUE,,,,,,BR,OVC,2600,,,,,,,MVFR,,,,,,,,,,,,METAR,276.0
K7L2 150135Z AUTO 17005KT 1/2SM BR M05/M05 A3020 RMK AO2,K7L2,2019-01-15T01:35:00Z,46.22,-100.25,-5.0,-5.0,170,5,,0.5,30.200787,,,TRUE,TRUE,,,,,,BR,,,,,,,,,,,,,,,,,,,,,METAR,543.0
K6S2 150135Z AUTO 08005KT 10SM CLR 08/M01 A2983 RMK AO2,K6S2,2019-01-15T01:35:00Z,43.98,-124.12,8.0,-1.0,80,5,,10.0,29.828741,,,TRUE,TRUE,,,,,,,CLR,,,,,,,,VFR,,,,,,,,,,,,METAR,16.0
K6L4 150135Z AUTO VRB03KT 1/2SM BR OVC003 M02/M02 A3022 RMK AO2,K6L4,2019-01-15T01:35:00Z,37.85,-81.92,-2.0,-2.0,0,3,,0.5,30.221457,,,TRUE,TRUE,,,,,,BR,OVC,300,,,,,,,LIFR,,,,,,,,,,,,METAR,508.0
K6B9 150135Z AUTO 00000KT 10SM CLR M14/M16 A3016 RMK AO2,K6B9,2019-01-15T01:35:00Z,42.92,-76.43,-14.0,-16.0,0,0,,10.0,30.159449,,,TRUE,TRUE,,,,,,,CLR,,,,,,,,VFR,,,,,,,,,,,,METAR,316.0
K5H4 150135Z AUTO 15006KT 5SM BR CLR M11/M11 A3017 RMK AO2,K5H4,2019-01-15T01:35:00Z,47.78,-99.93,-11.0,-11.0,150,6,,5.0,30.171259,,,TRUE,TRUE,,,,,,BR,CLR,,,,,,,,MVFR,,,,,,,,,,,,METAR,490.0
K57C 150135Z AUTO 26009KT 5SM BR OVC008 M04/M05 A3022 RMK AO2 T10361050,K57C,2019-01-15T01:35:00Z,42.8,-88.37,-3.6,-5.0,260,9,,5.0,30.221457,,,TRUE,TRUE,,,,,,BR,OVC,800,,,,,,,IFR,,,,,,,,,,,,METAR,262.0
K54J 150135Z AUTO 35006KT 10SM OVC016 06/03 A3029 RMK AO2 T00560026,K54J,2019-01-15T01:35:00Z,30.73,-86.15,5.6,2.6,350,6,,10.0,30.28937,,,TRUE,TRUE,,,,,,,OVC,1600,,,,,,,MVFR,,,,,,,,,,,,METAR,88.0
K4R5 150135Z AUTO 35005KT 10SM OVC028 M01/M05 A3021 RMK AO2 T10151052,K4R5,2019-01-15T01:35:00Z,46.78,-90.77,-1.5,-5.2,350,5,,10.0,30.209646,,,TRUE,TRUE,,,,,,,OVC,2800,,,,,,,MVFR,,,,,,,,,,,,METAR,198.0
K4M9 150135Z AUTO 24004KT 10SM OVC029 04/02 A3037 RMK AO2 PWINO,K4M9,2019-01-15T01:35:00Z,36.4,-90.65,4.0,2.0,240,4,,10.0,30.369095,,,TRUE,TRUE,,,,,TRUE,,OVC,2900,,,,,,,MVFR,,,,,,,,,,,,METAR,90.0
K4A6 150135Z AUTO 03007KT 10SM OVC025 04/00 A3031 RMK AO2,K4A6,2019-01-15T01:35:00Z,34.68,-86.0,4.0,0.0,30,7,,10.0,30.31004,,,TRUE,TRUE,,,,,,,OVC,2500,,,,,,,MVFR,,,,,,,,,,,,METAR,198.0
K46D 150135Z AUTO 15005KT 3SM BR CLR M12/M13 A3020 RMK AO2,K46D,2019-01-15T01:35:00Z,47.45,-99.15,-12.0,-13.0,150,5,,3.0,30.200787,,,TRUE,TRUE,,,,,,BR,CLR,,,,,,,,MVFR,,,,,,,,,,,,METAR,490.0
K42J 150135Z AUTO 01003KT 10SM OVC031 08/06 A3020 RMK A01 TSNO,K42J,2019-01-15T01:35:00Z,29.85,-82.05,8.0,6.0,10,3,,10.0,30.200787,,,TRUE,TRUE,,,TRUE,,,,OVC,3100,,,,,,,VFR,,,,,,,,,,,,METAR,60.0
K33V 150135Z AUTO 15007KT 10SM CLR M17/M20 A3026 RMK AO1,K33V,2019-01-15T01:35:00Z,40.75,-106.28,-17.0,-20.0,150,7,,10.0,30.259842,,,TRUE,TRUE,,,,,,,CLR,,,,,,,,VFR,,,,,,,,,,,,METAR,2484.0
K2P2 150135Z AUTO 25006KT 7SM OVC017 M01/M03 A3016 RMK AO2 T10131032,K2P2,2019-01-15T01:35:00Z,45.38,-86.92,-1.3,-3.2,250,6,,7.0,30.159449,,,TRUE,TRUE,,,,,,,OVC,1700,,,,,,,MVFR,,,,,,,,,,,,METAR,199.0
K2D5 150135Z AUTO 00000KT 2 1/2SM BR OVC004 M07/M07 A3023 RMK AO2 PWINO,K2D5,2019-01-15T01:35:00Z,46.17,-98.08,-7.0,-7.0,0,0,,2.5,30.230314,,,TRUE,TRUE,,,,,TRUE,BR,OVC,400,,,,,,,LIFR,,,,,,,,,,,,METAR,407.0
K2C8 150135Z AUTO 19010KT 7SM OVC004 M10/M10 A3018 RMK AO2,K2C8,2019-01-15T01:35:00Z,48.78,-97.63,-10.0,-10.0,190,10,,7.0,30.180119,,,TRUE,TRUE,,,,,,,OVC,400,,,,,,,LIFR,,,,,,,,,,,,METAR,272.0
K24J 150135Z AUTO 00000KT 10SM OVC022 09/05 A3023 RMK A01,K24J,2019-01-15T01:35:00Z,30.3,-83.03,9.0,5.0,0,0,,10.0,30.230314,,,TRUE,TRUE,,,,,,,OVC,2200,,,,,,,MVFR,,,,,,,,,,,,METAR,32.0
K20U 150135Z AUTO 21007KT 10SM CLR M05/M06 A3007 RMK AO2,K20U,2019-01-15T01:35:00Z,46.93,-103.98,-5.0,-6.0,210,7,,10.0,30.070866,,,TRUE,TRUE,,,,,,,CLR,,,,,,,,VFR,,,,,,,,,,,,METAR,840.0
K1P1 150135Z AUTO 30009KT 10SM CLR M06/M12 A3008 RMK AO2 T10571120,K1P1,2019-01-15T01:35:00Z,43.78,-71.75,-5.7,-12.0,300,9,,10.0,30.079725,,,TRUE,TRUE,,,,,,,CLR,,,,,,,,VFR,,,,,,,,,,,,METAR,154.0
K0S9 150135Z AUTO 00000KT 3/4SM BR VV005 01/01 A2996 RMK AO2,K0S9,2019-01-15T01:35:00Z,48.05,-122.82,1.0,1.0,0,0,,0.75,29.958662,,,TRUE,TRUE,,,,,,BR,OVX,0,,,,,,,LIFR,,,,,,,,,,,500,METAR,33.0
K08D 150135Z AUTO 19008KT 10SM CLR M07/M07 A3005 RMK AO2,K08D,2019-01-15T01:35:00Z,48.3,-102.4,-7.0,-7.0,190,8,,10.0,30.050198,,,TRUE,TRUE,,,,,,,CLR,,,,,,,,VFR,,,,,,,,,,,,METAR,684.0
K06D 150135Z AUTO 21009KT 10SM CLR M10/M10 A3009 RMK AO2,K06D,2019-01-15T01:35:00Z,48.88,-99.62,-10.0,-10.0,210,9,,10.0,30.088583,,,TRUE,TRUE,,,,,,,CLR,,,,,,,,VFR,,,,,,,,,,,,METAR,556.0
KWYS 150135Z AUTO 00000KT 10SM CLR M13/M14 A3017 RMK AO2,KWYS,2019-01-15T01:35:00Z,44.67,-111.12,-13.0,-14.0,0,0,,10.0,30.171259,,,TRUE,TRUE,,,,,,,CLR,,,,,,,,VFR,,,,,,,,,,,,METAR,2025.0
KVVV 150135Z AUTO 31004KT 1 3/4SM BR OVC004 M06/M07 A3026 RMK AO2,KVVV,2019-01-15T01:35:00Z,45.3,-96.42,-6.0,-7.0,310,4,,1.75,30.259842,,,TRUE,TRUE,,,,,,BR,OVC,400,,,,,,,LIFR,,,,,,,,,,,,METAR,335.0
KRDK 150135Z AUTO 23006KT 4SM BR OVC004 M00/M00 A3027 RMK AO2,KRDK,2019-01-15T01:35:00Z,41.02,-95.27,0.0,0.0,230,6,,4.0,30.268702,,,TRUE,TRUE,,,,,,BR,OVC,400,,,,,,,LIFR,,,,,,,,,,,,METAR,318.0
KJAS 150135Z AUTO 00000KT 10SM CLR 05/03 A3042 RMK AO2 T00530032,KJAS,2019-01-15T01:35:00Z,30.88,-94.03,5.3,3.2,0,0,,10.0,30.41929,,,TRUE,TRUE,,,,,,,CLR,,,,,,,,VFR,,,,,,,,,,,,METAR,65.0
KVNC 150135Z AUTO 36007KT 10SM BKN030 14/11 A3018 RMK AO2,KVNC,2019-01-15T01:35:00Z,27.07,-82.43,14.0,11.0,360,7,,10.0,30.180119,,,TRUE,TRUE,,,,,,,BKN,3000,,,,,,,MVFR,,,,,,,,,,,,METAR,6.0
KSPA 150135Z AUTO 00000KT 10SM DZ OVC023 06/03 A3018 RMK AO2,KSPA,2019-01-15T01:35:00Z,34.92,-81.93,6.0,3.0,0,0,,10.0,30.180119,,,TRUE,TRUE,,,,,,DZ,OVC,2300,,,,,,,MVFR,,,,,,,,,,,,METAR,303.0
KPLD 150135Z AUTO 00000KT 10SM CLR M08/M10 A3028 RMK AO2,KPLD,2019-01-15T01:35:00Z,40.45,-84.98,-8.0,-10.0,0,0,,10.0,30.280512,,,TRUE,TRUE,,,,,,,CLR,,,,,,,,VFR,,,,,,,,,,,,SPECI,282.0
KOIN 150135Z AUTO 21004KT 10SM CLR M01/M02 A3021 RMK AO1 T10091017,KOIN,2019-01-15T01:35:00Z,39.83,-100.53,-0.9,-1.7,210,4,,10.0,30.209646,,,TRUE,TRUE,,,,,,,CLR,,,,,,,,VFR,,,,,,,,,,,,METAR,824.0
KLUX 150135Z AUTO 00000KT 10SM OVC024 06/05 A3019 RMK AO2,KLUX,2019-01-15T01:35:00Z,34.5,-81.95,6.0,5.0,0,0,,10.0,30.188976,,,TRUE,TRUE,,,,,,,OVC,2400,,,,,,,MVFR,,,,,,,,,,,,METAR,213.0
KLQK 150135Z AUTO 00000KT 5SM -RA SCT014 SCT020 OVC027 05/05 A3017 RMK AO2 T00530053,KLQK,2019-01-15T01:35:00Z,34.82,-82.7,5.3,5.3,0,0,,5.0,30.171259,,,TRUE,TRUE,,,,,,-RA,SCT,1400,SCT,2000,OVC,2700,,,MVFR,,,,,,,,,,,,METAR,309.0
KDCM 150135Z AUTO 00000KT 7SM OVC048 05/03 A3019 RMK AO2,KDCM,2019-01-15T01:35:00Z,34.78,-81.2,5.0,3.0,0,0,,7.0,30.188976,,,TRUE,TRUE,,,,,,,OVC,4800,,,,,,,VFR,,,,,,,,,,,,METAR,200.0
KAID 150135Z AUTO 00000KT 7SM CLR M09/M10 A3030 RMK AO2 T10921102,KAID,2019-01-15T01:35:00Z,40.12,-85.62,-9.2,-10.2,0,0,,7.0,30.301182,,,TRUE,TRUE,,,,,,,CLR,,,,,,,,VFR,,,,,,,,,,,,SPECI,280.0
KGEV 150135Z AUTO 32004KT 10SM OVC015 00/M02 A3011 RMK AO2 T00001025,KGEV,2019-01-15T01:35:00Z,36.43,-81.42,0.0,-2.5,320,4,,10.0,30.109253,,,TRUE,TRUE,,,,,,,OVC,1500,,,,,,,MVFR,,,,,,,,,,,,METAR,969.0
KCNC 150135Z AUTO 25005G12KT 4SM BR OVC003 M03/M03 A3027 RMK AO2,KCNC,2019-01-15T01:35:00Z,41.02,-93.37,-3.0,-3.0,250,5,12,4.0,30.268702,,,TRUE,TRUE,,,,,,BR,OVC,300,,,,,,,LIFR,,,,,,,,,,,,SPECI,320.0
KCMR 150135Z AUTO 13011KT 10SM BKN070 OVC080 03/M00 A3013 RMK AO2,KCMR,2019-01-15T01:35:00Z,35.3,-112.2,3.0,0.0,130,11,,10.0,30.129921,,,TRUE,TRUE,,,,,,,BKN,7000,OVC,8000,,,,,VFR,,,,,,,,,,,,METAR,2036.0
KRGK 150135Z AUTO 28003KT 4SM BR OVC023 M01/M02 A3022 RMK AO2,KRGK,2019-01-15T01:35:00Z,44.58,-92.48,-1.0,-2.0,280,3,,4.0,30.221457,,,TRUE,TRUE,,,,,,BR,OVC,2300,,,,,,,MVFR,,,,,,,,,,,,METAR,239.0
KRFI 150135Z AUTO 10SM CLR 02/00 A3042 RMK AO2 T00210001,KRFI,2019-01-15T01:35:00Z,32.15,-94.85,2.1,0.1,,,,10.0,30.41929,,,TRUE,TRUE,,,,,,,CLR,,,,,,,,VFR,,,,,,,,,,,,METAR,135.0
KCSQ 150135Z AUTO 25009KT 1/2SM FZFG OVC002 M01/M01 A3026 RMK AO2,KCSQ,2019-01-15T01:35:00Z,41.02,-94.37,-1.0,-1.0,250,9,,0.5,30.259842,,,TRUE,TRUE,,,,,,FZFG,OVC,200,,,,,,,LIFR,,,,,,,,,,,,METAR,394.0
KCQW 150135Z AUTO 00000KT 10SM SCT039 OVC047 05/04 A3020 RMK AO2,KCQW,2019-01-15T01:35:00Z,34.72,-79.95,5.0,4.0,0,0,,10.0,30.200787,,,TRUE,TRUE,,,,,,,SCT,3900,OVC,4700,,,,,VFR,,,,,,,,,,,,METAR,73.0
KCPT 150135Z AUTO 00000KT 10SM BKN055 05/01 A3039 RMK AO2,KCPT,2019-01-15T01:35:00Z,32.35,-97.43,5.0,1.0,0,0,,10.0,30.389763,,,TRUE,TRUE,,,,,,,BKN,5500,,,,,,,VFR,,,,,,,,,,,,METAR,260.0
KD55 150135Z AUTO 20010KT 1 1/2SM BR OVC001 M12/M11 A3012 RMK AO2,KD55,2019-01-15T01:35:00Z,48.75,-98.4,-12.0,-11.0,200,10,,1.5,30.121063,,,TRUE,TRUE,,,,,,BR,OVC,100,,,,,,,LIFR,,,,,,,,,,,,METAR,491.0
KD50 150135Z AUTO 21012KT 8SM CLR M05/M05 A3002 RMK AO2,KD50,2019-01-15T01:35:00Z,48.93,-103.3,-5.0,-5.0,210,12,,8.0,30.02067,,,TRUE,TRUE,,,,,,,CLR,,,,,,,,VFR,,,,,,,,,,,,SPECI,595.0
KCXP 150135Z AUTO 00000KT 10SM OVC055 02/M06 A2994 RMK AO2,KCXP,2019-01-15T01:35:00Z,39.18,-119.73,2.0,-6.0,0,0,,10.0,29.940945,,,TRUE,TRUE,,,,,,,OVC,5500,,,,,,,VFR,,,,,,,,,,,,METAR,1435.0
KCVH 150135Z AUTO 15009KT 10SM BKN055 BKN075 13/08 A2986 RMK A01,KCVH,2019-01-15T01:35:00Z,36.9,-121.42,13.0,8.0,150,9,,10.0,29.861221,,,TRUE,TRUE,,,,,,,BKN,5500,BKN,7500,,,,,VFR,,,,,,,,,,,,METAR,70.0
KDEH 150135Z AUTO VRB04KT 3SM BR OVC003 M03/M03 A3021 RMK AO2,KDEH,2019-01-15T01:35:00Z,43.27,-91.72,-3.0,-3.0,0,4,,3.0,30.209646,,,TRUE,TRUE,,,,,,BR,OVC,300,,,,,,,LIFR,,,,,,,,,,,,METAR,353.0
KD60 150135Z AUTO 19007KT 6SM BR CLR M07/M07 A3005 RMK AO2,KD60,2019-01-15T01:35:00Z,48.38,-102.9,-7.0,-7.0,190,7,,6.0,30.050198,,,TRUE,TRUE,,,,,,BR,CLR,,,,,,,,VFR,,,,,,,,,,,,METAR,693.0
KDLL 150135Z AUTO 24006KT 3SM BR OVC006 M04/M05 A3022 RMK AO2 T10451054,KDLL,2019-01-15T01:35:00Z,43.52,-89.77,-4.5,-5.4,240,6,,3.0,30.221457,,,TRUE,TRUE,,,,,,BR,OVC,600,,,,,,,IFR,,,,,,,,,,,,METAR,299.0
KDRM 150135Z AUTO 00000KT 10SM SCT009 OVC027 00/M02 A3010 RMK AO2 T10031020,KDRM,2019-01-15T01:35:00Z,46.0,-83.75,-0.3,-2.0,0,0,,10.0,30.100393,,,TRUE,TRUE,,,,,,,SCT,900,OVC,2700,,,,,MVFR,,,,,,,,,,,,METAR,204.0
KDNS 150135Z AUTO 20004KT 3SM BR OVC003 M01/M01 A3025 RMK AO2,KDNS,2019-01-15T01:35:00Z,41.97,-95.37,-1.0,-1.0,200,4,,3.0,30.250984,,,TRUE,TRUE,,,,,,BR,OVC,300,,,,,,,LIFR,,,,,,,,,,,,SPECI,388.0
KDNA 150135Z AUTO 34003KT 10SM CLR 09/02 A3021 RMK AO2,KDNA,2019-01-15T01:35:00Z,31.88,-106.7,9.0,2.0,340,3,,10.0,30.209646,,,TRUE,TRUE,,,,,,,CLR,,,,,,,,VFR,,,,,,,,,,,,METAR,1253.0
KJCA 150135Z AUTO 30008KT 10SM OVC034 06/02 A3020 RMK AO2 PWINO T00570017,KJCA,2019-01-15T01:35:00Z,34.18,-83.57,5.7,1.7,300,8,,10.0,30.200787,,,TRUE,TRUE,,,,,TRUE,,OVC,3400,,,,,,,VFR,,,,,,,,,,,,METAR,290.0
KJGG 150135Z AUTO 00000KT 10SM CLR M01/M02 A3021 RMK AO1,KJGG,2019-01-15T01:35:00Z,37.23,-76.72,-1.0,-2.0,0,0,,10.0,30.209646,,,TRUE,TRUE,,,,,,,CLR,,,,,,,,VFR,,,,,,,,,,,,METAR,15.0
KEFT 150135Z AUTO 4SM BR OVC004 M05/M06 A3024 RMK AO2 T10531060,KEFT,2019-01-15T01:35:00Z,42.62,-89.6,-5.3,-6.0,,,,4.0,30.239174,,,TRUE,TRUE,,,,,,BR,OVC,400,,,,,,,LIFR,,,,,,,,,,,,METAR,331.0
KJKA 150135Z AUTO 34006G17KT 10SM OVC018 06/02 A3032 RMK AO2 T00560019,KJKA,2019-01-15T01:35:00Z,30.28,-87.67,5.6,1.9,340,6,17,10.0,30.318897,,,TRUE,TRUE,,,,,,,OVC,1800,,,,,,,MVFR,,,,,,,,,,,,METAR,5.0
KJOT 150135Z AUTO 25005KT 10SM OVC011 M04/M06 A3030 RMK AO2 T10381057,KJOT,2019-01-15T01:35:00Z,41.52,-88.18,-3.8,-5.7,250,5,,10.0,30.301182,,,TRUE,TRUE,,,,,,,OVC,1100,,,,,,,MVFR,,,,,,,,,,,,METAR,177.0
KFSE 150135Z AUTO 00000KT 1/2SM FZFG OVC002 M09/M09 A3022 RMK AO2,KFSE,2019-01-15T01:35:00Z,47.58,-95.77,-9.0,-9.0,0,0,,0.5,30.221457,,,TRUE,TRUE,,,,,,FZFG,OVC,200,,,,,,,LIFR,,,,,,,,,,,,METAR,389.0
KFMM 150135Z AUTO 27004KT 10SM 03/M15 A3017 RMK AO2 T00321150,KFMM,2019-01-15T01:35:00Z,40.33,-103.8,3.2,-15.0,270,4,,10.0,30.171259,,,TRUE,TRUE,,,,,,,,,,,,,,,,,,,,,,,,,,,METAR,1393.0
KFMH 150135Z AUTO 30005KT 10SM CLR M05/M08 A3008 RMK AO2,KFMH,2019-01-15T01:35:00Z,41.63,-70.52,-5.0,-8.0,300,5,,10.0,30.079725,,,TRUE,TRUE,,,,,,,CLR,,,,,,,,VFR,,,,,,,,,,,,METAR,40.0
KFFL 150135Z AUTO 25004KT 3SM BR OVC005 M02/M03 A3029 RMK AO2 PWINO,KFFL,2019-01-15T01:35:00Z,41.03,-91.97,-2.0,-3.0,250,4,,3.0,30.28937,,,TRUE,TRUE,,,,,TRUE,BR,OVC,500,,,,,,,IFR,,,,,,,,,,,,SPECI,244.0
KY19 150135Z AUTO 16007KT 5SM BR CLR M09/M09 A3016 RMK AO2,KY19,2019-01-15T01:35:00Z,46.77,-100.9,-9.0,-9.0,160,7,,5.0,30.159449,,,TRUE,TRUE,,,,,,BR,CLR,,,,,,,,MVFR,,,,,,,,,,,,METAR,593.0
KX07 150135Z AUTO 35004KT 10SM OVC034 13/10 A3018 RMK A01,KX07,2019-01-15T01:35:00Z,27.9,-81.62,13.0,10.0,350,4,,10.0,30.180119,,,TRUE,TRUE,,,,,,,OVC,3400,,,,,,,VFR,,,,,,,,,,,,METAR,39.0
K0E0 150135Z AUTO 36003KT 10SM CLR 01/01 A3028 RMK AO2 T00080005,K0E0,2019-01-15T01:35:00Z,34.98,-106.0,0.8,0.5,360,3,,10.0,30.280512,,,TRUE,TRUE,,,,,,,CLR,,,,,,,,VFR,,,,,,,,,,,,METAR,1890.0
CYBL 150135Z 00000KT 1SM R12/P6000FT/N BR SKC 01/01 A2997 RMK VIS N-NE 15 SLP155,CYBL,2019-01-15T01:35:00Z,49.95,-125.27,1.0,1.0,0,0,,1.0,29.970472,1015.5,,,,,,,,,BR,SKC,,,,,,,,IFR,,,,,,,,,,,,SPECI,106.0
KPLU 150135Z AUTO 00000KT 10SM CLR 03/02 A2996 RMK AO2,KPLU,2019-01-15T01:35:00Z,47.1,-122.28,3.0,2.0,0,0,,10.0,29.958662,,,TRUE,TRUE,,,,,,,CLR,,,,,,,,VFR,,,,,,,,,,,,METAR,164.0
KPEZ 150135Z AUTO 06003KT 10SM OVC050 08/03 A3040 RMK AO2 T00770025,KPEZ,2019-01-15T01:35:00Z,28.95,-98.52,7.7,2.5,60,3,,10.0,30.398623,,,TRUE,TRUE,,,,,,,OVC,5000,,,,,,,VFR,,,,,,,,,,,,METAR,132.0
KPBX 150135Z AUTO 00000KT 10SM OVC005 M01/M01 A3024 RMK AO2 T10131013,KPBX,2019-01-15T01:35:00Z,37.57,-82.57,-1.3,-1.3,0,0,,10.0,30.239174,,,TRUE,TRUE,,,,,,,OVC,500,,,,,,,IFR,,,,,,,,,,,,METAR,449.0
KOZS 150135Z AUTO 22004KT 7SM OVC005 M01/M01 A3034 RMK AO2,KOZS,2019-01-15T01:35:00Z,37.97,-92.68,-1.0,-1.0,220,4,,7.0,30.339567,,,TRUE,TRUE,,,,,,,OVC,500,,,,,,,IFR,,,,,,,,,,,,METAR,324.0
KOXD 150135Z AUTO 27003KT 10SM CLR M07/M07 A3028 RMK AO2 T10671074,KOXD,2019-01-15T01:35:00Z,39.5,-84.78,-6.7,-7.4,270,3,,10.0,30.280512,,,TRUE,TRUE,,,,,,,CLR,,,,,,,,VFR,,,,,,,,,,,,METAR,317.0
KOSA 150135Z AUTO 00000KT 10SM OVC015 03/M01 A3043 RMK AO1 T00251007,KOSA,2019-01-15T01:35:00Z,33.1,-94.97,2.5,-0.7,0,0,,10.0,30.431103,,,TRUE,TRUE,,,,,,,OVC,1500,,,,,,,MVFR,,,,,,,,,,,,METAR,111.0
KORG 150135Z AUTO 00000KT 10SM CLR 06/05 A3041 RMK AO2 T00620045,KORG,2019-01-15T01:35:00Z,30.07,-93.8,6.2,4.5,0,0,,10.0,30.410433,,,TRUE,TRUE,,,,,,,CLR,,,,,,,,VFR,,,,,,,,,,,,METAR,4.0
KONM 150135Z AUTO 34004KT 10SM CLR 05/01 A3026 RMK AO2 T00530013,KONM,2019-01-15T01:35:00Z,34.02,-106.9,5.3,1.3,340,4,,10.0,30.259842,,,TRUE,TRUE,,,,,,,CLR,,,,,,,,VFR,,,,,,,,,,,,METAR,1410.0
KONL 150135Z AUTO 03005KT 3/4SM BR OVC002 M03/M03 A3022 RMK AO2 T10301033,KONL,2019-01-15T01:35:00Z,42.47,-98.67,-3.0,-3.3,30,5,,0.75,30.221457,,,TRUE,TRUE,,,,,,BR,OVC,200,,,,,,,LIFR,,,,,,,,,,,,METAR,619.0
KOKV 150135Z AUTO 00000KT 10SM CLR M04/M05 A3020 RMK AO2,KOKV,2019-01-15T01:35:00Z,39.13,-78.15,-4.0,-5.0,0,0,,10.0,30.200787,,,TRUE,TRUE,,,,,,,CLR,,,,,,,,VFR,,,,,,,,,,,,METAR,222.0
KOGA 150135Z AUTO 28004KT 10SM CLR M02/M11 A3014 RMK AO2 T10171106,KOGA,2019-01-15T01:35:00Z,41.12,-101.77,-1.7,-10.6,280,4,,10.0,30.138779,,,TRUE,TRUE,,,,,,,CLR,,,,,,,,VFR,,,,,,,,,,,,METAR,999.0
KOCQ 150135Z AUTO 26006KT 10SM OVC017 M02/M04 A3018 RMK AO1 T10201040,KOCQ,2019-01-15T01:35:00Z,44.87,-87.92,-2.0,-4.0,260,6,,10.0,30.180119,,,TRUE,TRUE,,,,,,,OVC,1700,,,,,,,MVFR,,,,,,,,,,,,METAR,183.0
KMWO 150135Z AUTO 00000KT 1/4SM FZFG VV002 M09/M11 A3032 RMK AO2 T10951106,KMWO,2019-01-15T01:35:00Z,39.53,-84.4,-9.5,-10.6,0,0,,0.25,30.318897,,,TRUE,TRUE,,,,,,FZFG,OVX,0,,,,,,,LIFR,,,,,,,,,,,200,METAR,198.0
KMWA 150135Z AUTO 00000KT 7SM OVC025 00/M02 A3037 RMK AO2 T10031017,KMWA,2019-01-15T01:35:00Z,37.77,-89.02,-0.3,-1.7,0,0,,7.0,30.369095,,,TRUE,TRUE,,,,,,,OVC,2500,,,,,,,MVFR,,,,,,,,,,,,METAR,144.0
KMTV 150135Z AUTO 00000KT 1 3/4SM BR OVC030 01/01 A3021 RMK AO2 T00110011,KMTV,2019-01-15T01:35:00Z,36.63,-80.02,1.1,1.1,0,0,,1.75,30.209646,,,TRUE,TRUE,,,,,,BR,OVC,3000,,,,,,,IFR,,,,,,,,,,,,METAR,287.0
KMQS 150135Z AUTO 31007KT 10SM CLR M03/M10 A3015 RMK AO2,KMQS,2019-01-15T01:35:00Z,39.98,-75.87,-3.0,-10.0,310,7,,10.0,30.15059,,,TRUE,TRUE,,,,,,,CLR,,,,,,,,VFR,,,,,,,,,,,,METAR,201.0
KMLE 150135Z AUTO 23003KT 7SM OVC004 01/00 A3025 RMK AO2 T00100000,KMLE,2019-01-15T01:35:00Z,41.2,-96.12,1.0,0.0,230,3,,7.0,30.250984,,,TRUE,TRUE,,,,,,,OVC,400,,,,,,,LIFR,,,,,,,,,,,,METAR,320.0
KMKJ 150135Z AUTO 30004KT 10SM OVC010 00/00 A3017 RMK AO2 T00030000,KMKJ,2019-01-15T01:35:00Z,36.88,-81.33,0.3,0.0,300,4,,10.0,30.171259,,,TRUE,TRUE,,,,,,,OVC,1000,,,,,,,MVFR,,,,,,,,,,,,METAR,780.0
KMGR 150135Z AUTO 00000KT 10SM OVC018 07/04 A3025 RMK AO2,KMGR,2019-01-15T01:35:00Z,31.08,-83.8,7.0,4.0,0,0,,10.0,30.250984,,,TRUE,TRUE,,,,,,,OVC,1800,,,,,,,MVFR,,,,,,,,,,,,METAR,90.0
KMEZ 150135Z AUTO 00000KT 10SM OVC016 02/02 A3037 RMK AO2,KMEZ,2019-01-15T01:35:00Z,34.55,-94.2,2.0,2.0,0,0,,10.0,30.369095,,,TRUE,TRUE,,,,,,,OVC,1600,,,,,,,MVFR,,,,,,,,,,,,METAR,329.0
KMDQ 150135Z AUTO 35007KT 10SM OVC020 03/00 A3031 RMK A02 T00261005,KMDQ,2019-01-15T01:35:00Z,34.87,-86.55,2.6,-0.5,350,7,,10.0,30.31004,,,TRUE,TRUE,,,,,,,OVC,2000,,,,,,,MVFR,,,,,,,,,,,,METAR,230.0
KM30 150135Z AUTO 00000KT 10SM OVC027 01/M02 A3038 RMK AO2 T00051020,KM30,2019-01-15T01:35:00Z,37.18,-88.75,0.5,-2.0,0,0,,10.0,30.380905,,,TRUE,TRUE,,,,,,,OVC,2700,,,,,,,MVFR,,,,,,,,,,,,METAR,117.0
KLVL 150135Z AUTO 10SM OVC085 00/M02 A3020 RMK AO1 T00021016,KLVL,2019-01-15T01:35:00Z,36.78,-77.8,0.2,-1.6,,,,10.0,30.200787,,,TRUE,TRUE,,,,,,,OVC,8500,,,,,,,VFR,,,,,,,,,,,,METAR,100.0
KLOM 150135Z AUTO 00000KT 10SM CLR M03/M10 A3017 RMK AO1,KLOM,2019-01-15T01:35:00Z,40.13,-75.27,-3.0,-10.0,0,0,,10.0,30.171259,,,TRUE,TRUE,,,,,,,CLR,,,,,,,,VFR,,,,,,,,,,,,METAR,92.0
KLNQ 150135Z AUTO 36011KT 10SM OVC015 07/03 A3034 RMK AO2 T00700030,KLNQ,2019-01-15T01:35:00Z,29.35,-89.43,7.0,3.0,360,11,,10.0,30.339567,,,TRUE,TRUE,,,,,,,OVC,1500,,,,,,,MVFR,,,,,,,,,,,,METAR,1.0
KLKU 150135Z AUTO 00000KT 10SM OVC085 M02/M03 A3024 RMK AO2 T10191030,KLKU,2019-01-15T01:35:00Z,38.02,-77.97,-1.9,-3.0,0,0,,10.0,30.239174,,,TRUE,TRUE,,,,,,,OVC,8500,,,,,,,VFR,,,,,,,,,,,,METAR,150.0
KLCQ 150135Z AUTO 01003KT 10SM OVC023 09/05 A3022 RMK AO2,KLCQ,2019-01-15T01:35:00Z,30.18,-82.58,9.0,5.0,10,3,,10.0,30.221457,,,TRUE,TRUE,,,,,,,OVC,2300,,,,,,,MVFR,,,,,,,,,,,,METAR,61.0
KLCG 150135Z AUTO 35005KT 2 1/2SM BR OVC003 M02/M04 A3023 RMK AO2 T10201042,KLCG,2019-01-15T01:35:00Z,42.25,-96.98,-2.0,-4.2,350,5,,2.5,30.230314,,,TRUE,TRUE,,,,,,BR,OVC,300,,,,,,,LIFR,,,,,,,,,,,,METAR,436.0
KLAM 150135Z AUTO 04003KT 10SM OVC040 M01/M03 A3027 RMK AO2 T10081033,KLAM,2019-01-15T01:35:00Z,35.87,-106.27,-0.8,-3.3,40,3,,10.0,30.268702,,,TRUE,TRUE,,,,,,,OVC,4000,,,,,,,VFR,,,,,,,,,,,,METAR,2179.0
KL35 150135Z AUTO 22005KT 7SM -SN SCT012 SCT027 BKN050 00/00 A2995 RMK AO2,KL35,2019-01-15T01:35:00Z,34.27,-116.85,0.0,0.0,220,5,,7.0,29.949802,,,TRUE,TRUE,,,,,,-SN,SCT,1200,SCT,2700,BKN,5000,,,VFR,,,,,,,,,,,,METAR,2059.0
KJZP 150135Z AUTO 35008KT 10SM BKN013 OVC019 02/00 A3024 RMK AO2 T00200002 PNO,KJZP,2019-01-15T01:35:00Z,34.45,-84.47,2.0,0.2,350,8,,10.0,30.239174,,,TRUE,TRUE,,,,,,,BKN,1300,OVC,1900,,,,,MVFR,,,,,,,,,,,,METAR,468.0
KJYO 150135Z AUTO 00000KT 10SM CLR M04/M04 A3020 RMK AO2,KJYO,2019-01-15T01:35:00Z,39.07,-77.57,-4.0,-4.0,0,0,,10.0,30.200787,,,TRUE,TRUE,,,,,,,CLR,,,,,,,,VFR,,,,,,,,,,,,METAR,119.0
KJWG 150135Z AUTO 18004KT 10SM CLR 04/02 A3030 RMK AO2 T00350019,KJWG,2019-01-15T01:35:00Z,35.87,-98.42,3.5,1.9,180,4,,10.0,30.301182,,,TRUE,TRUE,,,,,,,CLR,,,,,,,,VFR,,,,,,,,,,,,METAR,472.0
KTBR 150135Z AUTO 00000KT 10SM SCT019 SCT027 OVC035 07/06 A3021 RMK AO2 T00680062,KTBR,2019-01-15T01:35:00Z,32.48,-81.73,6.8,6.2,0,0,,10.0,30.209646,,,TRUE,TRUE,,,,,,,SCT,1900,SCT,2700,OVC,3500,,,VFR,,,,,,,,,,,,METAR,57.0
KTAZ 150135Z AUTO 25007KT 10SM OVC011 M02/M03 A3033 RMK AO2 T10171032,KTAZ,2019-01-15T01:35:00Z,39.53,-89.33,-1.7,-3.2,250,7,,10.0,30.33071,,,TRUE,TRUE,,,,,,,OVC,1100,,,,,,,MVFR,,,,,,,,,,,,METAR,190.0
KT20 150135Z AUTO 00000KT 10SM OVC060 09/04 A3038 RMK AO2 T00870040,KT20,2019-01-15T01:35:00Z,29.52,-97.47,8.7,4.0,0,0,,10.0,30.380905,,,TRUE,TRUE,,,,,,,OVC,6000,,,,,,,VFR,,,,,,,,,,,,METAR,108.0
KSWW 150135Z AUTO 00000KT 10SM BKN025 07/03 A3035 RMK AO2 T00650030,KSWW,2019-01-15T01:35:00Z,32.47,-100.47,6.5,3.0,0,0,,10.0,30.351377,,,TRUE,TRUE,,,,,,,BKN,2500,,,,,,,MVFR,,,,,,,,,,,,METAR,727.0
KSVE 150135Z AUTO 11005KT 10SM BKN075 03/M03 A2995 RMK AO2,KSVE,2019-01-15T01:35:00Z,40.37,-120.57,3.0,-3.0,110,5,,10.0,29.949802,,,TRUE,TRUE,,,,,,,BKN,7500,,,,,,,VFR,,,,,,,,,,,,METAR,1263.0
KSTE 150135Z AUTO 26006KT 2 1/2SM BR OVC004 M04/M04 A3019 RMK AO2 T10401040,KSTE,2019-01-15T01:35:00Z,44.55,-89.53,-4.0,-4.0,260,6,,2.5,30.188976,,,TRUE,TRUE,,,,,,BR,OVC,400,,,,,,,LIFR,,,,,,,,,,,,METAR,338.0
KSRR 150135Z AUTO 33003KT 10SM SCT120 03/00 A3028 RMK AO2,KSRR,2019-01-15T01:35:00Z,33.47,-105.52,3.0,0.0,330,3,,10.0,30.280512,,,TRUE,TRUE,,,,,,,SCT,12000,,,,,,,VFR,,,,,,,,,,,,METAR,2076.0
KSOA 150135Z AUTO 00000KT 10SM OVC026 08/04 A3038 RMK AO2,KSOA,2019-01-15T01:35:00Z,30.58,-100.65,8.0,4.0,0,0,,10.0,30.380905,,,TRUE,TRUE,,,,,,,OVC,2600,,,,,,,MVFR,,,,,,,,,,,,METAR,652.0
KSNL 150135Z AUTO 14005KT 10SM CLR 02/M01 A3033 RMK AO2 T00201007,KSNL,2019-01-15T01:35:00Z,35.35,-96.95,2.0,-0.7,140,5,,10.0,30.33071,,,TRUE,TRUE,,,,,,,CLR,,,,,,,,VFR,,,,,,,,,,,,METAR,327.0
KSNK 150135Z AUTO 19005KT 10SM OVC024 05/02 A3032 RMK AO2 T00540023,KSNK,2019-01-15T01:35:00Z,32.7,-100.95,5.4,2.3,190,5,,10.0,30.318897,,,TRUE,TRUE,,,,,,,OVC,2400,,,,,,,MVFR,,,,,,,,,,,,METAR,741.0
KSJS 150135Z AUTO 00000KT 10SM OVC008 M01/M01 A3026 RMK AO2 T10071007,KSJS,2019-01-15T01:35:00Z,37.75,-82.63,-0.7,-0.7,0,0,,10.0,30.259842,,,TRUE,TRUE,,,,,,,OVC,800,,,,,,,IFR,,,,,,,,,,,,METAR,372.0
KSBS 150135Z AUTO 00000KT 10SM CLR M13/M17 A3029 RMK AO1 T11271168,KSBS,2019-01-15T01:35:00Z,40.52,-106.87,-12.7,-16.8,0,0,,10.0,30.28937,,,TRUE,TRUE,,,,,,,CLR,,,,,,,,VFR,,,,,,,,,,,,METAR,2096.0
KRWV 150135Z AUTO 35005KT 10SM CLR 05/02 A3040 RMK AO2 T00530019,KRWV,2019-01-15T01:35:00Z,30.52,-96.7,5.3,1.9,350,5,,10.0,30.398623,,,TRUE,TRUE,,,,,,,CLR,,,,,,,,VFR,,,,,,,,,,,,METAR,119.0
KRPJ 150135Z AUTO 27008KT 4SM BR OVC009 M04/M05 A3028 RMK AO2 T10431053,KRPJ,2019-01-15T01:35:00Z,41.88,-89.08,-4.3,-5.3,270,8,,4.0,30.280512,,,TRUE,TRUE,,,,,,BR,OVC,900,,,,,,,IFR,,,,,,,,,,,,METAR,238.0
KRNV 150135Z AUTO 36003KT 10SM OVC022 05/01 A3040 RMK AO2 T00460011,KRNV,2019-01-15T01:35:00Z,33.77,-90.75,4.6,1.1,360,3,,10.0,30.398623,,,TRUE,TRUE,,,,,,,OVC,2200,,,,,,,MVFR,,,,,,,,,,,,METAR,41.0
KPVW 150135Z AUTO 21009KT 10SM CLR 04/00 A3024 RMK AO2 T00360000,KPVW,2019-01-15T01:35:00Z,34.17,-101.72,3.6,0.0,210,9,,10.0,30.239174,,,TRUE,TRUE,,,,,,,CLR,,,,,,,,VFR,,,,,,,,,,,,METAR,1028.0
KPRG 150135Z AUTO 00000KT 7SM OVC015 M08/M09 A3034 RMK AO2 T10791092,KPRG,2019-01-15T01:35:00Z,39.7,-87.67,-7.9,-9.2,0,0,,7.0,30.339567,,,TRUE,TRUE,,,,,,,OVC,1500,,,,,,,MVFR,,,,,,,,,,,,METAR,199.0
KPPA 150135Z AUTO 17009KT 10SM CLR 06/01 A3023 RMK AO2 T00560010,KPPA,2019-01-15T01:35:00Z,35.62,-101.0,5.6,1.0,170,9,,10.0,30.230314,,,TRUE,TRUE,,,,,,,CLR,,,,,,,,VFR,,,,,,,,,,,,METAR,989.0
KPNA 150135Z AUTO 00000KT 10SM CLR M19/M21 A3024 RMK AO2 TSNO,KPNA,2019-01-15T01:35:00Z,42.8,-109.8,-19.0,-21.0,0,0,,10.0,30.239174,,,TRUE,TRUE,,,TRUE,,,,CLR,,,,,,,,VFR,,,,,,,,,,,,METAR,2160.0
KPMV 150135Z AUTO 22010KT 2SM BR OVC002 00/00 A3024 RMK AO2 T00001001,KPMV,2019-01-15T01:35:00Z,40.95,-95.92,0.0,-0.1,220,10,,2.0,30.239174,,,TRUE,TRUE,,,,,,BR,OVC,200,,,,,,,LIFR,,,,,,,,,,,,METAR,367.0
KPMU 150135Z AUTO 31004KT 10SM FEW017 OVC033 04/01 A3038 RMK AO2,KPMU,2019-01-15T01:35:00Z,34.37,-89.9,4.0,1.0,310,4,,10.0,30.380905,,,TRUE,TRUE,,,,,,,FEW,1700,OVC,3300,,,,,VFR,,,,,,,,,,,,METAR,67.0
KTEX 150135Z AUTO 28003KT 10SM CLR M03/M07 A3027 RMK AO2,KTEX,2019-01-15T01:35:00Z,37.95,-107.9,-3.0,-7.0,280,3,,10.0,30.268702,,,TRUE,TRUE,,,,,,,CLR,,,,,,,,VFR,,,,,,,,,,,,METAR,2769.0
KTMK 150135Z AUTO 06018G25KT 10SM CLR 10/M04 A2987 RMK AO2,KTMK,2019-01-15T01:35:00Z,45.42,-123.82,10.0,-4.0,60,18,25,10.0,29.870079,,,TRUE,TRUE,,,,,,,CLR,,,,,,,,VFR,,,,,,,,,,,,METAR,11.0
KTIF 150135Z AUTO 00000KT 10SM CLR 00/M04 A3017 RMK AO2 T00001041,KTIF,2019-01-15T01:35:00Z,41.97,-100.57,0.0,-4.1,0,0,,10.0,30.171259,,,TRUE,TRUE,,,,,,,CLR,,,,,,,,VFR,,,,,,,,,,,,METAR,892.0
KUTA 150135Z AUTO 00000KT 10SM 02/01 A3040 RMK AO2 TSNO,KUTA,2019-01-15T01:35:00Z,34.68,-90.35,2.0,1.0,0,0,,10.0,30.398623,,,TRUE,TRUE,,,TRUE,,,,,,,,,,,,,,,,,,,,,,,,METAR,59.0
KVDI 150135Z AUTO 00000KT 10SM OVC032 08/05 A3022 RMK AO2,KVDI,2019-01-15T01:35:00Z,32.2,-82.37,8.0,5.0,0,0,,10.0,30.221457,,,TRUE,TRUE,,,,,,,OVC,3200,,,,,,,VFR,,,,,,,,,,,,METAR,84.0
KTXW 150135Z AUTO 03007KT 5SM BR OVC006 09/08 A3035 RMK AO2 T00930082,KTXW,2019-01-15T01:35:00Z,26.18,-97.97,9.3,8.2,30,7,,5.0,30.351377,,,TRUE,TRUE,,,,,,BR,OVC,600,,,,,,,IFR,,,,,,,,,,,,METAR,21.0
KW22 150135Z AUTO 00000KT 3SM BR OVC005 M03/M02 A3021 RMK AO2,KW22,2019-01-15T01:35:00Z,39.0,-80.27,-3.0,-2.0,0,0,,3.0,30.209646,,,TRUE,TRUE,,,,,,BR,OVC,500,,,,,,,IFR,,,,,,,,,,,,METAR,499.0
KWDR 150135Z AUTO 32008KT 10SM OVC035 06/02 A3022 RMK AO2,KWDR,2019-01-15T01:35:00Z,33.98,-83.67,6.0,2.0,320,8,,10.0,30.221457,,,TRUE,TRUE,,,,,,,OVC,3500,,,,,,,VFR,,,,,,,,,,,,METAR,287.0
NZSP 150135Z 04007KT 6000 IC BR SCT008 SCT040 M23/ A2901 RMK CLN AIR 04008KT ALL WNDS GRID SDG/HDG,NZSP,2019-01-15T01:35:00Z,-89.98,179.98,-23.0,,40,7,,3.73,29.010826,,,,,,,,,,IC BR,SCT,800,SCT,4000,,,,,MVFR,,,,,,,,,,,,SPECI,2830.0
K8W2 150135Z AUTO 00000KT 10SM OVC031 M01/M03 A3018 RMK AO1 T10151031,K8W2,2019-01-15T01:35:00Z,38.65,-78.7,-1.5,-3.1,0,0,,10.0,30.180119,,,TRUE,TRUE,,,,,,,OVC,3100,,,,,,,VFR,,,,,,,,,,,,SPECI,297.0
K82V 150135Z AUTO 26003KT 10SM CLR M03/M13 A3016 RMK AO2,K82V,2019-01-15T01:35:00Z,41.15,-104.13,-3.0,-13.0,260,3,,10.0,30.159449,,,TRUE,TRUE,,,,,,,CLR,,,,,,,,VFR,,,,,,,,,,,,METAR,1570.0
K7W4 150135Z AUTO 00000KT 10SM OVC085 M01/M03 A3020 RMK AO1 T10151031,K7W4,2019-01-15T01:35:00Z,37.97,-77.75,-1.5,-3.1,0,0,,10.0,30.200787,,,TRUE,TRUE,,,,,,,OVC,8500,,,,,,,VFR,,,,,,,,,,,,SPECI,106.0
K6A2 150135Z AUTO 01003KT 10SM OVC027 05/01 A3022 RMK AO2,K6A2,2019-01-15T01:35:00Z,33.23,-84.27,5.0,1.0,10,3,,10.0,30.221457,,,TRUE,TRUE,,,,,,,OVC,2700,,,,,,,MVFR,,,,,,,,,,,,SPECI,292.0
K5R8 150135Z AUTO 00000KT 10SM CLR 03/02 A3039 RMK AO2 T00320019,K5R8,2019-01-15T01:35:00Z,30.43,-93.47,3.2,1.9,0,0,,10.0,30.389763,,,TRUE,TRUE,,,,,,,CLR,,,,,,,,VFR,,,,,,,,,,,,SPECI,24.0
K4S1 150135Z AUTO 00000KT 3SM HZ OVC001 10/07 A2981 RMK AO1,K4S1,2019-01-15T01:35:00Z,42.42,-124.42,10.0,7.0,0,0,,3.0,29.811024,,,TRUE,TRUE,,,,,,HZ,OVC,100,,,,,,,LIFR,,,,,,,,,,,,METAR,5.0
K3R7 150135Z AUTO 03005KT 10SM CLR 05/02 A3040 RMK AO2 T00500017,K3R7,2019-01-15T01:35:00Z,30.25,-92.67,5.0,1.7,30,5,,10.0,30.398623,,,TRUE,TRUE,,,,,,,CLR,,,,,,,,VFR,,,,,,,,,,,,SPECI,7.0
K3LF 150135Z AUTO 25005KT 7SM OVC013 M01/M03 A3034 RMK AO2 T10121030,K3LF,2019-01-15T01:35:00Z,39.17,-89.67,-1.2,-3.0,250,5,,7.0,30.339567,,,TRUE,TRUE,,,,,,,OVC,1300,,,,,,,MVFR,,,,,,,,,,,,SPECI,210.0
K1K1 150135Z AUTO 17004KT 5SM BR SCT007 00/M01 A3030 RMK AO2 T10011008,K1K1,2019-01-15T01:35:00Z,37.77,-97.12,-0.1,-0.8,170,4,,5.0,30.301182,,,TRUE,TRUE,,,,,,BR,SCT,700,,,,,,,MVFR,,,,,,,,,,,,SPECI,416.0
K1A9 150135Z AUTO 32006KT 10SM OVC018 05/02 A3030 RMK AO2 T00530020,K1A9,2019-01-15T01:35:00Z,32.43,-86.52,5.3,2.0,320,6,,10.0,30.301182,,,TRUE,TRUE,,,,,,,OVC,1800,,,,,,,MVFR,,,,,,,,,,,,SPECI,69.0
K0V4 150135Z AUTO 3SM BKN050 OVC080 01/01 A3019 RMK AO1 T00090008,K0V4,2019-01-15T01:35:00Z,37.15,-79.02,0.9,0.8,,,,3.0,30.188976,,,TRUE,TRUE,,,,,,,BKN,5000,OVC,8000,,,,,MVFR,,,,,,,,,,,,SPECI,182.0
K0F2 150135Z AUTO 00000KT 10SM CLR 03/00 A3035 RMK AO2 T00270000,K0F2,2019-01-15T01:35:00Z,33.6,-97.78,2.7,0.0,0,0,,10.0,30.351377,,,TRUE,TRUE,,,,,,,CLR,,,,,,,,VFR,,,,,,,,,,,,METAR,336.0
KBKS 150135Z AUTO 04007KT 10SM BKN021 OVC027 10/05 A3038 RMK AO1 T00950054,KBKS,2019-01-15T01:35:00Z,27.2,-98.12,9.5,5.4,40,7,,10.0,30.380905,,,TRUE,TRUE,,,,,,,BKN,2100,OVC,2700,,,,,MVFR,,,,,,,,,,,,METAR,34.0
KBEC 150135Z AUTO 16004KT 5SM BR CLR M01/M02 A3030 RMK AO2 T10111018,KBEC,2019-01-15T01:35:00Z,37.7,-97.22,-1.1,-1.8,160,4,,5.0,30.301182,,,TRUE,TRUE,,,,,,BR,CLR,,,,,,,,MVFR,,,,,,,,,,,,SPECI,429.0
KBEA 150135Z AUTO 05004KT 10SM OVC039 11/03 A3039 RMK AO2 T01070025,KBEA,2019-01-15T01:35:00Z,28.37,-97.78,10.7,2.5,50,4,,10.0,30.389763,,,TRUE,TRUE,,,,,,,OVC,3900,,,,,,,VFR,,,,,,,,,,,,METAR,82.0
KBCK 150135Z AUTO 00000KT 2 1/2SM BR OVC004 M02/M02 A3021 RMK AO2 T10251025,KBCK,2019-01-15T01:35:00Z,44.25,-90.85,-2.5,-2.5,0,0,,2.5,30.209646,,,TRUE,TRUE,,,,,,BR,OVC,400,,,,,,,LIFR,,,,,,,,,,,,SPECI,255.0
KBAM 150135Z AUTO 05007KT 10SM BKN095 OVC120 02/M05 A3004 RMK AO1,KBAM,2019-01-15T01:35:00Z,,,2.0,-5.0,50,7,,10.0,30.041338,,,TRUE,TRUE,,,,,,,BKN,9500,OVC,12000,,,,,VFR,,,,,,,,,,,,METAR,
KAZE 150135Z AUTO 00000KT 10SM OVC028 09/06 A3021 RMK AO2 T00900061,KAZE,2019-01-15T01:35:00Z,31.88,-82.65,9.0,6.1,0,0,,10.0,30.209646,,,TRUE,TRUE,,,,,,,OVC,2800,,,,,,,MVFR,,,,,,,,,,,,SPECI,78.0
KAZC 150135Z AUTO 07015G22KT 10SM CLR 06/M01 A3015 RMK AO2,KAZC,2019-01-15T01:35:00Z,36.97,-113.02,6.0,-1.0,70,15,22,10.0,30.15059,,,TRUE,TRUE,,,,,,,CLR,,,,,,,,VFR,,,,,,,,,,,,METAR,1486.0
KAXX 150135Z AUTO 24004KT 7SM M04/M07 A3026 RMK AO2 T10421074,KAXX,2019-01-15T01:35:00Z,36.42,-105.28,-4.2,-7.4,240,4,,7.0,30.259842,,,TRUE,TRUE,,,,,,,,,,,,,,,,,,,,,,,,,,,METAR,2548.0
KAXS 150135Z AUTO 14009KT 10SM CLR 05/02 A3033 RMK AO2 T00460015,KAXS,2019-01-15T01:35:00Z,34.7,-99.33,4.6,1.5,140,9,,10.0,30.33071,,,TRUE,TRUE,,,,,,,CLR,,,,,,,,VFR,,,,,,,,,,,,SPECI,437.0
KAXH 150135Z AUTO 31003KT 10SM OVC060 10/04 A3039 RMK AO2 T01020040,KAXH,2019-01-15T01:35:00Z,29.52,-95.48,10.2,4.0,310,3,,10.0,30.389763,,,TRUE,TRUE,,,,,,,OVC,6000,,,,,,,VFR,,,,,,,,,,,,METAR,21.0
KAVQ 150135Z AUTO 01003KT 10SM BKN070 17/05 RMK AO2 T01650046,KAVQ,2019-01-15T01:35:00Z,32.4,-111.22,16.5,4.6,10,3,,10.0,,,,TRUE,TRUE,,,,,,,BKN,7000,,,,,,,VFR,,,,,,,,,,,,METAR,619.0
KAVC 150135Z AUTO 00000KT 10SM OVC085 00/00 A3026 RMK AO2 T00011005,KAVC,2019-01-15T01:35:00Z,36.68,-78.03,0.1,-0.5,0,0,,10.0,30.259842,,,TRUE,TRUE,,,,,,,OVC,8500,,,,,,,VFR,,,,,,,,,,,,SPECI,135.0
KASW 150135Z AUTO 25007KT 7SM OVC010 M05/M07 A3027 RMK AO2,KASW,2019-01-15T01:35:00Z,41.27,-85.83,-5.0,-7.0,250,7,,7.0,30.268702,,,TRUE,TRUE,,,,,,,OVC,1000,,,,,,,MVFR,,,,,,,,,,,,SPECI,259.0
KARV 150135Z AUTO 34008KT 10SM OVC010 M01/M02 A3013 RMK AO2 T10151025,KARV,2019-01-15T01:35:00Z,45.92,-89.72,-1.5,-2.5,340,8,,10.0,30.129921,,,TRUE,TRUE,,,,,,,OVC,1000,,,,,,,MVFR,,,,,,,,,,,,SPECI,496.0
KARM 150135Z AUTO 33003KT 10SM OVC070 09/03 A3040 RMK AO2 T00870026,KARM,2019-01-15T01:35:00Z,29.25,-96.15,8.7,2.6,330,3,,10.0,30.398623,,,TRUE,TRUE,,,,,,,OVC,7000,,,,,,,VFR,,,,,,,,,,,,METAR,31.0
KALM 150135Z AUTO 02005KT 10SM CLR 09/01 A3023 RMK AO2,KALM,2019-01-15T01:35:00Z,32.82,-105.97,9.0,1.0,20,5,,10.0,30.230314,,,TRUE,TRUE,,,,,,,CLR,,,,,,,,VFR,,,,,,,,,,,,METAR,1279.0
KAJR 150135Z AUTO 34005KT 10SM SCT039 03/01 A3017 RMK AO2 T00330008,KAJR,2019-01-15T01:35:00Z,34.5,-83.55,3.3,0.8,340,5,,10.0,30.171259,,,TRUE,TRUE,,,,,,,SCT,3900,,,,,,,VFR,,,,,,,,,,,,SPECI,441.0
KAJG 150135Z AUTO 00000KT 10SM SCT029 M02/M03 A3035 RMK AO2 T10161033,KAJG,2019-01-15T01:35:00Z,38.62,-87.73,-1.6,-3.3,0,0,,10.0,30.351377,,,TRUE,TRUE,,,,,,,SCT,2900,,,,,,,VFR,,,,,,,,,,,,SPECI,131.0
KAIG 150135Z AUTO 28005KT 2 1/2SM BR OVC003 M03/M03 A3014 RMK AO2 T10301030,KAIG,2019-01-15T01:35:00Z,45.15,-89.12,-3.0,-3.0,280,5,,2.5,30.138779,,,TRUE,TRUE,,,,,,BR,OVC,300,,,,,,,LIFR,,,,,,,,,,,,SPECI,464.0
KAAS 150135Z AUTO 00000KT 10SM SCT015 OVC025 00/M01 A3035 RMK AO1,KAAS,2019-01-15T01:35:00Z,37.35,-85.32,0.0,-1.0,0,0,,10.0,30.351377,,,TRUE,TRUE,,,,,,,SCT,1500,OVC,2500,,,,,MVFR,,,,,,,,,,,,SPECI,281.0
KSLB 150135Z AUTO 00000KT 4SM BR OVC008 M01/M01 A3021 RMK AO2,KSLB,2019-01-15T01:35:00Z,42.6,-95.22,-1.0,-1.0,0,0,,4.0,30.209646,,,TRUE,TRUE,,,,,,BR,OVC,800,,,,,,,IFR,,,,,,,,,,,,METAR,454.0
KSHL 150135Z AUTO 00000KT 6SM BR OVC004 M02/M02 A3020 RMK AO2,KSHL,2019-01-15T01:35:00Z,43.22,-95.82,-2.0,-2.0,0,0,,6.0,30.200787,,,TRUE,TRUE,,,,,,BR,OVC,400,,,,,,,LIFR,,,,,,,,,,,,METAR,432.0
KJSO 150135Z AUTO 03004KT 10SM CLR 03/01 A3040 RMK AO2 T00320010,KJSO,2019-01-15T01:35:00Z,31.87,-95.22,3.2,1.0,30,4,,10.0,30.398623,,,TRUE,TRUE,,,,,,,CLR,,,,,,,,VFR,,,,,,,,,,,,METAR,206.0
KINF 150135Z AUTO 00000KT 7SM CLR 08/08 A3020 RMK AO2,KINF,2019-01-15T01:35:00Z,28.8,-82.32,8.0,8.0,0,0,,7.0,30.200787,,,TRUE,TRUE,,,,,,,CLR,,,,,,,,VFR,,,,,,,,,,,,METAR,15.0
KEOK 150135Z AUTO 26007G12KT 5SM BR OVC006 M02/M03 A3030 RMK AO2,KEOK,2019-01-15T01:35:00Z,40.47,-91.42,-2.0,-3.0,260,7,12,5.0,30.301182,,,TRUE,TRUE,,,,,,BR,OVC,600,,,,,,,IFR,,,,,,,,,,,,SPECI,205.0
KCKI 150135Z AUTO 00000KT 10SM CLR 00/00 A3022 RMK AO2,KCKI,2019-01-15T01:35:00Z,33.72,-79.85,0.0,0.0,0,0,,10.0,30.221457,,,TRUE,TRUE,,,,,,,CLR,,,,,,,,VFR,,,,,,,,,,,,METAR,21.0
K2J9 150135Z AUTO VRB04G10KT 10SM OVC015 08/04 A3026 RMK AO2,K2J9,2019-01-15T01:35:00Z,30.6,-84.55,8.0,4.0,0,4,10,10.0,30.259842,,,TRUE,TRUE,,,,,,,OVC,1500,,,,,,,MVFR,,,,,,,,,,,,METAR,69.0
KLBO 150135Z AUTO 25007KT 10SM OVC006 00/M01 A3033 RMK AO2,KLBO,2019-01-15T01:35:00Z,37.65,-92.65,0.0,-1.0,250,7,,10.0,30.33071,,,TRUE,TRUE,,,,,,,OVC,600,,,,,,,IFR,,,,,,,,,,,,METAR,403.0
KLNL 150135Z AUTO 32005KT 4SM BR OVC006 M03/M03 A3015 RMK AO2 T10261035,KLNL,2019-01-15T01:35:00Z,46.15,-89.22,-2.6,-3.5,320,5,,4.0,30.15059,,,TRUE,TRUE,,,,,,BR,OVC,600,,,,,,,IFR,,,,,,,,,,,,SPECI,520.0
KSIF 150135Z AUTO 10SM OVC027 02/01 A3020 RMK AO2 T00220011,KSIF,2019-01-15T01:35:00Z,36.43,-79.85,2.2,1.1,,,,10.0,30.200787,,,TRUE,TRUE,,,,,,,OVC,2700,,,,,,,MVFR,,,,,,,,,,,,METAR,211.0
KTVY 150135Z AUTO 00000KT 7SM OVC015 M03/M05 A3027 RMK AO2,KTVY,2019-01-15T01:35:00Z,40.62,-112.35,-3.0,-5.0,0,0,,7.0,30.268702,,,TRUE,TRUE,,,,,,,OVC,1500,,,,,,,MVFR,,,,,,,,,,,,METAR,1317.0
KRUG 150135Z AUTO 16010KT 8SM CLR M12/M12 A3012 RMK AO2,KRUG,2019-01-15T01:35:00Z,48.38,-100.02,-12.0,-12.0,160,10,,8.0,30.121063,,,TRUE,TRUE,,,,,,,CLR,,,,,,,,VFR,,,,,,,,,,,,SPECI,472.0
KMAW 150135Z AUTO 17003KT 10SM OVC026 03/00 A3039 RMK AO2,KMAW,2019-01-15T01:35:00Z,36.6,-90.0,3.0,0.0,170,3,,10.0,30.389763,,,TRUE,TRUE,,,,,,,OVC,2600,,,,,,,MVFR,,,,,,,,,,,,METAR,90.0
KM25 150135Z AUTO 00000KT 10SM OVC029 00/M01 A3037 RMK AO2,KM25,2019-01-15T01:35:00Z,36.77,-88.58,0.0,-1.0,0,0,,10.0,30.369095,,,TRUE,TRUE,,,,,,,OVC,2900,,,,,,,MVFR,,,,,,,,,,,,METAR,160.0
KLUM 150135Z AUTO 26003KT 10SM OVC022 M03/M03 A3021 RMK AO2 T10271033,KLUM,2019-01-15T01:35:00Z,44.9,-91.87,-2.7,-3.3,260,3,,10.0,30.209646,,,TRUE,TRUE,,,,,,,OVC,2200,,,,,,,MVFR,,,,,,,,,,,,SPECI,273.0
KRRT 150135Z AUTO 21004KT 7SM CLR M12/M14 A3018 RMK AO2,KRRT,2019-01-15T01:35:00Z,48.93,-95.33,-12.0,-14.0,210,4,,7.0,30.180119,,,TRUE,TRUE,,,,,,,CLR,,,,,,,,VFR,,,,,,,,,,,,METAR,327.0
KRNH 150135Z AUTO 34005KT 10SM SCT006 OVC016 M02/M02 A3022 RMK AO2 T10171025,KRNH,2019-01-15T01:35:00Z,45.15,-92.53,-1.7,-2.5,340,5,,10.0,30.221457,,,TRUE,TRUE,,,,,,,SCT,600,OVC,1600,,,,,MVFR,,,,,,,,,,,,METAR,304.0
KM40 150135Z AUTO 36005KT 10SM OVC022 04/02 A3038 RMK AO2,KM40,2019-01-15T01:35:00Z,33.87,-88.48,4.0,2.0,360,5,,10.0,30.380905,,,TRUE,TRUE,,,,,,,OVC,2200,,,,,,,MVFR,,,,,,,,,,,,METAR,69.0
KM21 150135Z AUTO 00000KT 10SM OVC028 00/M02 A3035 RMK AO2 T00001018,KM21,2019-01-15T01:35:00Z,37.22,-87.15,0.0,-1.8,0,0,,10.0,30.351377,,,TRUE,TRUE,,,,,,,OVC,2800,,,,,,,MVFR,,,,,,,,,,,,METAR,129.0
KLRO 150135Z AUTO 00000KT 10SM OVC019 06/03 A3022 RMK AO2,KLRO,2019-01-15T01:35:00Z,32.9,-79.78,6.0,3.0,0,0,,10.0,30.221457,,,TRUE,TRUE,,,,,,,OVC,1900,,,,,,,MVFR,,,,,,,,,,,,METAR,4.0
KLRJ 150135Z AUTO 36004KT 10SM OVC015 00/M01 A3023 RMK AO2,KLRJ,2019-01-15T01:35:00Z,42.77,-96.2,0.0,-1.0,360,4,,10.0,30.230314,,,TRUE,TRUE,,,,,,,OVC,1500,,,,,,,MVFR,,,,,,,,,,,,METAR,365.0
KTSP 150135Z AUTO 14008KT 7SM -RA OVC014 01/00 A2996 RMK AO2 P0001,KTSP,2019-01-15T01:35:00Z,35.13,-118.43,1.0,0.0,140,8,,7.0,29.958662,,,TRUE,TRUE,,,,,,-RA,OVC,1400,,,,,,,MVFR,,,,,,0.01,,,,,,METAR,1220.0
KTPF 150135Z AUTO 35003KT 10SM BKN100 OVC110 13/10 A3019 RMK AO2,KTPF,2019-01-15T01:35:00Z,27.92,-82.45,13.0,10.0,350,3,,10.0,30.188976,,,TRUE,TRUE,,,,,,,BKN,10000,OVC,11000,,,,,VFR,,,,,,,,,,,,METAR,3.0
KTNU 150135Z AUTO 22004KT 5SM BR OVC006 M03/M03 A3027 RMK AO2,KTNU,2019-01-15T01:35:00Z,41.67,-93.02,-3.0,-3.0,220,4,,5.0,30.268702,,,TRUE,TRUE,,,,,,BR,OVC,600,,,,,,,IFR,,,,,,,,,,,,METAR,290.0
KTME 150135Z AUTO 00000KT 10SM OVC060 10/04 A3041 RMK AO2,KTME,2019-01-15T01:35:00Z,29.8,-95.9,10.0,4.0,0,0,,10.0,30.410433,,,TRUE,TRUE,,,,,,,OVC,6000,,,,,,,VFR,,,,,,,,,,,,METAR,51.0
KTKX 150135Z AUTO 16003KT 10SM OVC027 03/01 A3037 RMK AO2,KTKX,2019-01-15T01:35:00Z,36.22,-90.02,3.0,1.0,160,3,,10.0,30.369095,,,TRUE,TRUE,,,,,,,OVC,2700,,,,,,,MVFR,,,,,,,,,,,,METAR,80.0
KSYM 150135Z AUTO 00000KT 7SM OVC008 M01/M02 A3030 RMK AO2,KSYM,2019-01-15T01:35:00Z,38.22,-83.58,-1.0,-2.0,0,0,,7.0,30.301182,,,TRUE,TRUE,,,,,,,OVC,800,,,,,,,IFR,,,,,,,,,,,,METAR,313.0
KSUZ 150135Z AUTO 00000KT 10SM OVC023 05/01 A3039 RMK A01,KSUZ,2019-01-15T01:35:00Z,34.58,-92.48,5.0,1.0,0,0,,10.0,30.389763,,,TRUE,TRUE,,,,,,,OVC,2300,,,,,,,MVFR,,,,,,,,,,,,METAR,119.0
KSTF 150135Z AUTO 36005KT 10SM OVC020 03/01 A3038 RMK AO2 PWINO,KSTF,2019-01-15T01:35:00Z,33.43,-88.85,3.0,1.0,360,5,,10.0,30.380905,,,TRUE,TRUE,,,,,TRUE,,OVC,2000,,,,,,,MVFR,,,,,,,,,,,,METAR,102.0
KSOW 150135Z AUTO 18004KT 10SM CLR 02/M00 A3021 RMK AO2,KSOW,2019-01-15T01:35:00Z,34.27,-110.0,2.0,0.0,180,4,,10.0,30.209646,,,TRUE,TRUE,,,,,,,CLR,,,,,,,,VFR,,,,,,,,,,,,METAR,1954.0
KSNC 150135Z AUTO 30003KT 10SM CLR M04/M11 A3009 RMK AO2,KSNC,2019-01-15T01:35:00Z,41.38,-72.5,-4.0,-11.0,300,3,,10.0,30.088583,,,TRUE,TRUE,,,,,,,CLR,,,,,,,,VFR,,,,,,,,,,,,METAR,127.0
KQFR 150135Z AUTO 30004KT 10SM CLR M05/M11 A2992 RMK AO1,KQFR,2019-01-15T01:35:00Z,,,-5.0,-11.0,300,4,,10.0,29.920275,,,TRUE,TRUE,,,,,,,CLR,,,,,,,,VFR,,,,,,,,,,,,METAR,
CWPX 150135Z AUTO 32019KT ////SM //// FEW009 BKN024 OVC029 M34/M39 A3041,CWPX,2019-01-15T01:35:00Z,69.02,-107.82,-34.0,-39.0,320,19,,,30.410433,,,TRUE,,,,,,,,FEW,900,BKN,2400,OVC,2900,,,,,,,,,,,,,,,SPECI,165.0
CYFC 150135Z AUTO 24002KT 4SM -SN CLR M16/M17 A3006 RMK SLP182,CYFC,2019-01-15T01:35:00Z,45.87,-66.52,-16.0,-17.0,240,2,,4.0,30.059055,1018.2,,TRUE,,,,,,,-SN,CLR,,,,,,,,MVFR,,,,,,,,,,,,SPECI,20.0
KY70 150135Z AUTO 22008KT 10SM OVC015 M01/M05 A3020 RMK AO2 T10121046,KY70,2019-01-15T01:35:00Z,42.93,-85.07,-1.2,-4.6,220,8,,10.0,30.200787,,,TRUE,TRUE,,,,,,,OVC,1500,,,,,,,MVFR,,,,,,,,,,,,METAR,250.0
KY63 150135Z AUTO 00000KT 10SM OVC006 M05/M05 A3023 RMK AO2 T10461052,KY63,2019-01-15T01:35:00Z,45.98,-96.0,-4.6,-5.2,0,0,,10.0,30.230314,,,TRUE,TRUE,,,,,,,OVC,600,,,,,,,IFR,,,,,,,,,,,,METAR,367.0
KY51 150135Z AUTO 20004KT 2SM OVC003 M04/M04 A3020 RMK AO1 T10381038,KY51,2019-01-15T01:35:00Z,43.58,-90.9,-3.8,-3.8,200,4,,2.0,30.200787,,,TRUE,TRUE,,,,,,,OVC,300,,,,,,,LIFR,,,,,,,,,,,,METAR,394.0
KTKC 150135Z AUTO 34003KT 7SM OVC005 M03/M03 A3023 RMK AO2 T10301033,KTKC,2019-01-15T01:35:00Z,44.25,-95.62,-3.0,-3.3,340,3,,7.0,30.230314,,,TRUE,TRUE,,,,,,,OVC,500,,,,,,,IFR,,,,,,,,,,,,METAR,408.0
KSVC 150135Z AUTO 12005KT 10SM CLR 07/01 A3023 RMK AO2 T00650005,KSVC,2019-01-15T01:35:00Z,32.63,-108.15,6.5,0.5,120,5,,10.0,30.230314,,,TRUE,TRUE,,,,,,,CLR,,,,,,,,VFR,,,,,,,,,,,,METAR,1659.0
KRMY 150135Z AUTO 26007KT 10SM OVC013 M02/M04 A3023 RMK AO2 T10251041,KRMY,2019-01-15T01:35:00Z,42.23,-84.95,-2.5,-4.1,260,7,,10.0,30.230314,,,TRUE,TRUE,,,,,,,OVC,1300,,,,,,,MVFR,,,,,,,,,,,,SPECI,287.0
KRID 150135Z AUTO 7SM CLR M09/M09 A3028 RMK AO2,KRID,2019-01-15T01:35:00Z,39.75,-84.85,-9.0,-9.0,,,,7.0,30.280512,,,TRUE,TRUE,,,,,,,CLR,,,,,,,,VFR,,,,,,,,,,,,METAR,348.0
KPTS 150135Z AUTO 23005KT 7SM OVC007 00/M01 A3035 RMK AO2 T10011011,KPTS,2019-01-15T01:35:00Z,37.45,-94.73,-0.1,-1.1,230,5,,7.0,30.351377,,,TRUE,TRUE,,,,,,,OVC,700,,,,,,,IFR,,,,,,,,,,,,METAR,290.0
KPSO 150135Z AUTO 00000KT 10SM CLR M05/M05 A3027 RMK AO2 T10461046,KPSO,2019-01-15T01:35:00Z,37.28,-107.05,-4.6,-4.6,0,0,,10.0,30.268702,,,TRUE,TRUE,,,,,,,CLR,,,,,,,,VFR,,,,,,,,,,,,METAR,2334.0
KPEA 150135Z AUTO 26004KT 7SM OVC006 M02/M04 A3030 RMK AO2 T10251036,KPEA,2019-01-15T01:35:00Z,41.4,-92.95,-2.5,-3.6,260,4,,7.0,30.301182,,,TRUE,TRUE,,,,,,,OVC,600,,,,,,,IFR,,,,,,,,,,,,SPECI,270.0
KOQN 150135Z AUTO 26003KT 10SM CLR M03/M09 A3015 RMK AO2,KOQN,2019-01-15T01:35:00Z,39.98,-75.58,-3.0,-9.0,260,3,,10.0,30.15059,,,TRUE,TRUE,,,,,,,CLR,,,,,,,,VFR,,,,,,,,,,,,METAR,142.0
KLWA 150135Z AUTO 26009KT 10SM OVC012 M01/M03 A3025 RMK AO2 T10061034,KLWA,2019-01-15T01:35:00Z,42.35,-86.25,-0.6,-3.4,260,9,,10.0,30.250984,,,TRUE,TRUE,,,,,,,OVC,1200,,,,,,,MVFR,,,,,,,,,,,,METAR,203.0
KLRY 150135Z AUTO 24005KT 5SM BR OVC005 00/M01 A3036 RMK AO2,KLRY,2019-01-15T01:35:00Z,38.62,-94.35,0.0,-1.0,240,5,,5.0,30.360237,,,TRUE,TRUE,,,,,,BR,OVC,500,,,,,,,IFR,,,,,,,,,,,,METAR,279.0
KJYM 150135Z AUTO 26006KT 10SM OVC013 M03/M06 A3021 RMK AO2 T10261061,KJYM,2019-01-15T01:35:00Z,41.92,-84.58,-2.6,-6.1,260,6,,10.0,30.209646,,,TRUE,TRUE,,,,,,,OVC,1300,,,,,,,MVFR,,,,,,,,,,,,SPECI,360.0
KIDI 150135Z AUTO 00000KT 10SM BKN028 M06/M07 A3021 RMK A01,KIDI,2019-01-15T01:35:00Z,40.62,-79.08,-6.0,-7.0,0,0,,10.0,30.209646,,,TRUE,TRUE,,,,,,,BKN,2800,,,,,,,MVFR,,,,,,,,,,,,METAR,429.0
KGYL 150135Z AUTO 33003KT 10SM OVC013 M02/M04 A3024 RMK AO2 T10201041,KGYL,2019-01-15T01:35:00Z,44.77,-94.08,-2.0,-4.1,330,3,,10.0,30.239174,,,TRUE,TRUE,,,,,,,OVC,1300,,,,,,,MVFR,,,,,,,,,,,,METAR,302.0
KEKX 150135Z AUTO 00000KT 10SM CLR M02/M03 A3031 RMK AO2 T10161030,KEKX,2019-01-15T01:35:00Z,,,-1.6,-3.0,0,0,,10.0,30.31004,,,TRUE,TRUE,,,,,,,CLR,,,,,,,,VFR,,,,,,,,,,,,METAR,
KDYT 150135Z AUTO 10SM CLR M02/M05 A3023 RMK AO2,KDYT,2019-01-15T01:35:00Z,46.72,-92.03,-2.0,-5.0,,,,10.0,30.230314,,,TRUE,TRUE,,,,,,,CLR,,,,,,,,VFR,,,,,,,,,,,,METAR,186.0
KDYB 150135Z AUTO 00000KT 10SM BKN017 OVC050 05/03 A3024 RMK AO1,KDYB,2019-01-15T01:35:00Z,33.07,-80.28,5.0,3.0,0,0,,10.0,30.239174,,,TRUE,TRUE,,,,,,,BKN,1700,OVC,5000,,,,,MVFR,,,,,,,,,,,,METAR,18.0
KCCY 150135Z AUTO 23003KT 2SM BR OVC004 M01/M02 A3023 RMK AO2,KCCY,2019-01-15T01:35:00Z,43.07,-92.62,-1.0,-2.0,230,3,,2.0,30.230314,,,TRUE,TRUE,,,,,,BR,OVC,400,,,,,,,LIFR,,,,,,,,,,,,METAR,343.0
KC35 150135Z AUTO 23005KT 5SM BR OVC007 M05/M05 A3023 RMK AO2 T10461046,KC35,2019-01-15T01:35:00Z,43.53,-89.98,-4.6,-4.6,230,5,,5.0,30.230314,,,TRUE,TRUE,,,,,,BR,OVC,700,,,,,,,IFR,,,,,,,,,,,,SPECI,276.0
KAIK 150135Z AUTO 09003KT 10SM OVC015 06/05 A3023 RMK AO2,KAIK,2019-01-15T01:35:00Z,33.65,-81.68,6.0,5.0,90,3,,10.0,30.230314,,,TRUE,TRUE,,,,,,,OVC,1500,,,,,,,MVFR,,,,,,,,,,,,METAR,161.0
K9MN 150135Z AUTO 31003KT 10SM OVC009 M02/M03 A3022 RMK AO1 T10201033,K9MN,2019-01-15T01:35:00Z,44.02,-92.48,-2.0,-3.3,310,3,,10.0,30.221457,,,TRUE,TRUE,,,,,,,OVC,900,,,,,,,IFR,,,,,,,,,,,,METAR,355.0
K4I3 150135Z AUTO 25003KT 10SM BKN014 M06/M07 A3027 RMK AO2,K4I3,2019-01-15T01:35:00Z,40.33,-82.53,-6.0,-7.0,250,3,,10.0,30.268702,,,TRUE,TRUE,,,,,,,BKN,1400,,,,,,,MVFR,,,,,,,,,,,,METAR,363.0
K2V5 150135Z AUTO 26004KT 10SM CLR 00/M13 A3016 RMK AO2,K2V5,2019-01-15T01:35:00Z,40.1,-102.25,0.0,-13.0,260,4,,10.0,30.159449,,,TRUE,TRUE,,,,,,,CLR,,,,,,,,VFR,,,,,,,,,,,,METAR,1118.0
K22N 150135Z AUTO 00000KT 10SM CLR M05/M10 A3016 RMK AO2,K22N,2019-01-15T01:35:00Z,40.8,-75.77,-5.0,-10.0,0,0,,10.0,30.159449,,,TRUE,TRUE,,,,,,,CLR,,,,,,,,VFR,,,,,,,,,,,,SPECI,163.0
K14Y 150135Z AUTO 00000KT M09/M10 A3023 RMK AO2 PWINO,K14Y,2019-01-15T01:35:00Z,45.9,-94.87,-9.0,-10.0,0,0,,,30.230314,,,TRUE,TRUE,,,,,TRUE,,,,,,,,,,,,,,,,,,,,,,METAR,406.0
KUKT 150135Z AUTO 30005KT 10SM CLR M05/M10 A3014 RMK A01,KUKT,2019-01-15T01:35:00Z,40.43,-75.38,-5.0,-10.0,300,5,,10.0,30.138779,,,TRUE,TRUE,,,,,,,CLR,,,,,,,,VFR,,,,,,,,,,,,METAR,160.0
CYPX 150135Z AUTO 26018KT 2 1/4SM -SN BKN029 M19/M21 A2947 RMK SLP983,CYPX,2019-01-15T01:35:00Z,60.03,-77.27,-19.0,-21.0,260,18,,2.25,29.471457,998.3,,TRUE,,,,,,,-SN,BKN,2900,,,,,,,IFR,,,,,,,,,,,,SPECI,23.0
KIFA 150135Z AUTO 25004KT 4SM BR BKN006 OVC010 M01/M01 A3024 RMK AO2 T10071010,KIFA,2019-01-15T01:35:00Z,42.47,-93.27,-0.7,-1.0,250,4,,4.0,30.239174,,,TRUE,TRUE,,,,,,BR,BKN,600,OVC,1000,,,,,IFR,,,,,,,,,,,,METAR,347.0
KICL 150135Z AUTO 24008KT 5SM BR OVC004 M01/M01 A3030 RMK AO2,KICL,2019-01-15T01:35:00Z,40.72,-95.02,-1.0,-1.0,240,8,,5.0,30.301182,,,TRUE,TRUE,,,,,,BR,OVC,400,,,,,,,LIFR,,,,,,,,,,,,METAR,303.0
KHZE 150135Z AUTO 00000KT 7SM CLR M10/M11 A3015 RMK AO2 TSNO,KHZE,2019-01-15T01:35:00Z,47.28,-101.58,-10.0,-11.0,0,0,,7.0,30.15059,,,TRUE,TRUE,,,TRUE,,,,CLR,,,,,,,,VFR,,,,,,,,,,,,METAR,553.0
KHOB 150135Z AUTO 18006KT 10SM OVC011 04/02 A3030 RMK AO2,KHOB,2019-01-15T01:35:00Z,32.67,-103.22,4.0,2.0,180,6,,10.0,30.301182,,,TRUE,TRUE,,,,,,,OVC,1100,,,,,,,MVFR,,,,,,,,,,,,METAR,1115.0
KHNR 150135Z AUTO 24006KT 3SM BR OVC004 M02/M02 A3025 RMK AO2,KHNR,2019-01-15T01:35:00Z,41.58,-95.33,-2.0,-2.0,240,6,,3.0,30.250984,,,TRUE,TRUE,,,,,,BR,OVC,400,,,,,,,LIFR,,,,,,,,,,,,METAR,375.0
KHEG 150135Z AUTO 36006KT 10SM OVC025 09/06 A3023 RMK AO2,KHEG,2019-01-15T01:35:00Z,30.28,-81.8,9.0,6.0,360,6,,10.0,30.230314,,,TRUE,TRUE,,,,,,,OVC,2500,,,,,,,MVFR,,,,,,,,,,,,METAR,27.0
KHCO 150135Z AUTO 18007KT 5SM BR OVC004 M09/M11 A3021 RMK AO2,KHCO,2019-01-15T01:35:00Z,48.75,-96.93,-9.0,-11.0,180,7,,5.0,30.209646,,,TRUE,TRUE,,,,,,BR,OVC,400,,,,,,,LIFR,,,,,,,,,,,,METAR,250.0
KGWR 150135Z AUTO 00000KT 1SM BR M07/M07 A3024 RMK A01,KGWR,2019-01-15T01:35:00Z,46.22,-97.65,-7.0,-7.0,0,0,,1.0,30.239174,,,TRUE,TRUE,,,,,,BR,,,,,,,,,,,,,,,,,,,,,METAR,386.0
KGPC 150135Z AUTO 00000KT 10SM CLR M04/M08 A3031 RMK AO2,KGPC,2019-01-15T01:35:00Z,39.63,-86.82,-4.0,-8.0,0,0,,10.0,30.31004,,,TRUE,TRUE,,,,,,,CLR,,,,,,,,VFR,,,,,,,,,,,,METAR,257.0
KGNT 150135Z AUTO 18003KT 10SM OVC009 01/00 A3028 RMK AO2 T00100000,KGNT,2019-01-15T01:35:00Z,35.17,-107.9,1.0,0.0,180,3,,10.0,30.280512,,,TRUE,TRUE,,,,,,,OVC,900,,,,,,,IFR,,,,,,,,,,,,METAR,1987.0
PASA 150135Z AUTO 08016KT 1SM -SN BR OVC007 M03/M03 A2939 RMK AO2 CIG 005V010 P0000 FZRANO $,PASA,2019-01-15T01:35:00Z,63.68,-170.5,-3.0,-3.0,80,16,,1.0,29.388779,,,TRUE,TRUE,TRUE,,,TRUE,,-SN BR,OVC,700,,,,,,,IFR,,,,,,0.005,,,,,,SPECI,16.0
KCLW 150135Z AUTO 36003KT 10SM CLR 11/07 A3019 RMK AO2,KCLW,2019-01-15T01:35:00Z,27.98,-82.75,11.0,7.0,360,3,,10.0,30.188976,,,TRUE,TRUE,,,,,,,CLR,,,,,,,,VFR,,,,,,,,,,,,METAR,22.0
KCKZ 150135Z AUTO 00000KT 10SM CLR M05/M10 A3014 RMK AO2,KCKZ,2019-01-15T01:35:00Z,40.38,-75.28,-5.0,-10.0,0,0,,10.0,30.138779,,,TRUE,TRUE,,,,,,,CLR,,,,,,,,VFR,,,,,,,,,,,,SPECI,173.0
KCIU 150135Z AUTO 26005KT 2 1/2SM -SN BR BKN005 OVC015 M02/M03 A3010 RMK AO2 P0000 FZRANO,KCIU,2019-01-15T01:35:00Z,46.25,-84.47,-2.0,-3.0,260,5,,2.5,30.100393,,,TRUE,TRUE,,,,TRUE,,-SN BR,BKN,500,OVC,1500,,,,,IFR,,,,,,0.005,,,,,,SPECI,244.0
KCIN 150135Z AUTO 25004KT 5SM BR OVC006 M01/M01 A3024 RMK AO2,KCIN,2019-01-15T01:35:00Z,42.03,-94.77,-1.0,-1.0,250,4,,5.0,30.239174,,,TRUE,TRUE,,,,,,BR,OVC,600,,,,,,,IFR,,,,,,,,,,,,SPECI,375.0
KSMS 150135Z AUTO 00000KT 10SM BKN042 02/02 A3022 RMK AO2,KSMS,2019-01-15T01:35:00Z,34.0,-80.37,2.0,2.0,0,0,,10.0,30.221457,,,TRUE,TRUE,,,,,,,BKN,4200,,,,,,,VFR,,,,,,,,,,,,METAR,56.0
KSAZ 150135Z AUTO 00000KT 10SM CLR M09/M09 A3020 RMK AO2,KSAZ,2019-01-15T01:35:00Z,46.37,-94.8,-9.0,-9.0,0,0,,10.0,30.200787,,,TRUE,TRUE,,,,,,,CLR,,,,,,,,VFR,,,,,,,,,,,,METAR,392.0
KRVL 150135Z AUTO 00000KT 10SM -SN CLR M06/M09 A3015 RMK AO2,KRVL,2019-01-15T01:35:00Z,40.68,-77.63,-6.0,-9.0,0,0,,10.0,30.15059,,,TRUE,TRUE,,,,,,-SN,CLR,,,,,,,,VFR,,,,,,,,,,,,METAR,250.0
KS25 150135Z AUTO 22005KT 4SM BR CLR M05/M05 A3006 RMK AO2,KS25,2019-01-15T01:35:00Z,47.8,-103.25,-5.0,-5.0,220,5,,4.0,30.059055,,,TRUE,TRUE,,,,,,BR,CLR,,,,,,,,MVFR,,,,,,,,,,,,METAR,644.0
KRYV 150135Z AUTO 26006KT 10SM OVC011 M04/M05 A3022 RMK AO2 T10451053,KRYV,2019-01-15T01:35:00Z,43.17,-88.72,-4.5,-5.3,260,6,,10.0,30.221457,,,TRUE,TRUE,,,,,,,OVC,1100,,,,,,,MVFR,,,,,,,,,,,,METAR,254.0
KUOX 150135Z AUTO 00000KT 10SM OVC015 03/00 A3038 RMK AO2,KUOX,2019-01-15T01:35:00Z,34.38,-89.53,3.0,0.0,0,0,,10.0,30.380905,,,TRUE,TRUE,,,,,,,OVC,1500,,,,,,,MVFR,,,,,,,,,,,,METAR,137.0
KBPC 150135Z AUTO 00000KT 10SM CLR 05/M01 A3022 RMK AO2,KBPC,2019-01-15T01:35:00Z,35.88,-101.03,5.0,-1.0,0,0,,10.0,30.221457,,,TRUE,TRUE,,,,,,,CLR,,,,,,,,VFR,,,,,,,,,,,,METAR,845.0
KGPH 150135Z AUTO 27005KT 7SM OVC005 M01/M02 A3033 RMK AO2,KGPH,2019-01-15T01:35:00Z,39.33,-94.32,-1.0,-2.0,270,5,,7.0,30.33071,,,TRUE,TRUE,,,,,,,OVC,500,,,,,,,IFR,,,,,,,,,,,,SPECI,235.0
KEGV 150135Z AUTO 35007KT 10SM OVC007 M03/M03 A3013 RMK AO2 T10261032,KEGV,2019-01-15T01:35:00Z,45.93,-89.27,-2.6,-3.2,350,7,,10.0,30.129921,,,TRUE,TRUE,,,,,,,OVC,700,,,,,,,IFR,,,,,,,,,,,,SPECI,500.0
K1S5 150135Z AUTO 33004KT 10SM OVC016 00/M02 A3025 RMK AO2 T10021021,K1S5,2019-01-15T01:35:00Z,46.33,-119.97,-0.2,-2.1,330,4,,10.0,30.250984,,,TRUE,TRUE,,,,,,,OVC,1600,,,,,,,MVFR,,,,,,,,,,,,METAR,234.0
KRPD 150135Z AUTO 31004KT 10SM OVC016 M01/M03 A3020 RMK AO2 T10111033,KRPD,2019-01-15T01:35:00Z,45.42,-91.77,-1.1,-3.3,310,4,,10.0,30.200787,,,TRUE,TRUE,,,,,,,OVC,1600,,,,,,,MVFR,,,,,,,,,,,,SPECI,338.0
KIIB 150135Z AUTO 21003KT 2 1/2SM BR BKN003 OVC009 M02/M02 A3025 RMK AO2 T10201020,KIIB,2019-01-15T01:35:00Z,42.45,-91.95,-2.0,-2.0,210,3,,2.5,30.250984,,,TRUE,TRUE,,,,,,BR,BKN,300,OVC,900,,,,,LIFR,,,,,,,,,,,,METAR,298.0
KIKV 150135Z AUTO 2SM BR OVC005 M01/M02 A3028 RMK AO2,KIKV,2019-01-15T01:35:00Z,41.68,-93.57,-1.0,-2.0,,,,2.0,30.280512,,,TRUE,TRUE,,,,,,BR,OVC,500,,,,,,,IFR,,,,,,,,,,,,METAR,275.0
KJFX 150135Z AUTO 00000KT 10SM 05/01 A3033 RMK AO2 PWINO,KJFX,2019-01-15T01:35:00Z,33.9,-87.32,5.0,1.0,0,0,,10.0,30.33071,,,TRUE,TRUE,,,,,TRUE,,,,,,,,,,,,,,,,,,,,,,METAR,148.0
KBNL 150135Z AUTO 00000KT 10SM OVC018 06/05 A3022 RMK AO2,KBNL,2019-01-15T01:35:00Z,33.25,-81.38,6.0,5.0,0,0,,10.0,30.221457,,,TRUE,TRUE,,,,,,,OVC,1800,,,,,,,MVFR,,,,,,,,,,,,SPECI,75.0
KD57 150135Z AUTO 16005KT 7SM CLR M06/M08 A3012 RMK AO2 PWINO,KD57,2019-01-15T01:35:00Z,46.82,-101.87,-6.0,-8.0,160,5,,7.0,30.121063,,,TRUE,TRUE,,,,,TRUE,,CLR,,,,,,,,VFR,,,,,,,,,,,,SPECI,637.0
KGAF 150135Z AUTO 19006KT 6SM BR OVC005 M08/M08 A3023 RMK AO2 PWINO,KGAF,2019-01-15T01:35:00Z,48.4,-97.37,-8.0,-8.0,190,6,,6.0,30.230314,,,TRUE,TRUE,,,,,TRUE,BR,OVC,500,,,,,,,IFR,,,,,,,,,,,,SPECI,252.0
KRCM 150135Z AUTO 21006KT 7SM OVC005 M01/M02 A3034 RMK AO2,KRCM,2019-01-15T01:35:00Z,38.78,-93.8,-1.0,-2.0,210,6,,7.0,30.339567,,,TRUE,TRUE,,,,,,,OVC,500,,,,,,,IFR,,,,,,,,,,,,SPECI,244.0
KRCX 150135Z AUTO 28004KT 10SM OVC017 M01/M02 A3020 RMK AO2 T10121016,KRCX,2019-01-15T01:35:00Z,45.5,-91.0,-1.2,-1.6,280,4,,10.0,30.200787,,,TRUE,TRUE,,,,,,,OVC,1700,,,,,,,MVFR,,,,,,,,,,,,SPECI,377.0
KSDC 150135Z AUTO 00000KT 10SM CLR M09/M11 A3021 RMK AO2,KSDC,2019-01-15T01:35:00Z,43.23,-77.12,-9.0,-11.0,0,0,,10.0,30.209646,,,TRUE,TRUE,,,,,,,CLR,,,,,,,,VFR,,,,,,,,,,,,SPECI,129.0
KEOE 150135Z AUTO 00000KT 10SM OVC036 06/04 A3023 RMK AO2,KEOE,2019-01-15T01:35:00Z,34.32,-81.63,6.0,4.0,0,0,,10.0,30.230314,,,TRUE,TRUE,,,,,,,OVC,3600,,,,,,,VFR,,,,,,,,,,,,SPECI,174.0
KDYA 150135Z AUTO 32004KT 10SM OVC016 05/01 A3034 RMK AO2 T00480013,KDYA,2019-01-15T01:35:00Z,32.47,-87.95,4.8,1.3,320,4,,10.0,30.339567,,,TRUE,TRUE,,,,,,,OVC,1600,,,,,,,MVFR,,,,,,,,,,,,SPECI,34.0
KMNI 150135Z AUTO 00000KT 10SM OVC041 05/02 A3022 RMK AO2,KMNI,2019-01-15T01:35:00Z,33.58,-80.22,5.0,2.0,0,0,,10.0,30.221457,,,TRUE,TRUE,,,,,,,OVC,4100,,,,,,,VFR,,,,,,,,,,,,SPECI,32.0
KSPF 150135Z AUTO 20009KT 10SM CLR M02/M07 A3010 RMK AO2 PWINO,KSPF,2019-01-15T01:35:00Z,44.47,-103.77,-2.0,-7.0,200,9,,10.0,30.100393,,,TRUE,TRUE,,,,,TRUE,,CLR,,,,,,,,VFR,,,,,,,,,,,,SPECI,1188.0
KJVY 150135Z AUTO 00000KT 10SM CLR M02/M04 A3033 RMK AO2 T10201040,KJVY,2019-01-15T01:35:00Z,,,-2.0,-4.0,0,0,,10.0,30.33071,,,TRUE,TRUE,,,,,,,CLR,,,,,,,,VFR,,,,,,,,,,,,METAR,
KJVW 150135Z AUTO VRB05KT 10SM 05/02 A3038 RMK AO2,KJVW,2019-01-15T01:35:00Z,32.3,-90.42,5.0,2.0,0,5,,10.0,30.380905,,,TRUE,TRUE,,,,,,,,,,,,,,,,,,,,,,,,,,,METAR,76.0
KCCA 150135Z AUTO 00000KT 10SM OVC028 04/01 A3037 RMK AO2,KCCA,2019-01-15T01:35:00Z,35.6,-92.45,4.0,1.0,0,0,,10.0,30.369095,,,TRUE,TRUE,,,,,,,OVC,2800,,,,,,,MVFR,,,,,,,,,,,,SPECI,157.0
K74V 150135Z AUTO 00000KT 10SM OVC055 M06/M10 A3039 RMK AO2,K74V,2019-01-15T01:35:00Z,40.28,-110.05,-6.0,-10.0,0,0,,10.0,30.389763,,,TRUE,TRUE,,,,,,,OVC,5500,,,,,,,VFR,,,,,,,,,,,,METAR,1576.0
K96D 150135Z AUTO 18009KT 10SM M10/M10 A3017 RMK AO2,K96D,2019-01-15T01:35:00Z,48.93,-97.9,-10.0,-10.0,180,9,,10.0,30.171259,,,TRUE,TRUE,,,,,,,,,,,,,,,,,,,,,,,,,,,SPECI,290.0
KTYL 150135Z AUTO 23005KT 9SM CLR 00/00 A3022 RMK AO2,KTYL,2019-01-15T01:35:00Z,,,0.0,0.0,230,5,,9.0,30.221457,,,TRUE,TRUE,,,,,,,CLR,,,,,,,,VFR,,,,,,,,,,,,METAR,
KGGE 150135Z AUTO 00000KT 10SM SCT019 03/01 A3023 RMK AO2,KGGE,2019-01-15T01:35:00Z,33.32,-79.32,3.0,1.0,0,0,,10.0,30.230314,,,TRUE,TRUE,,,,,,,SCT,1900,,,,,,,VFR,,,,,,,,,,,,SPECI,12.0
KMCJ 150135Z AUTO 34005KT 10SM OVC060 11/01 A3037 RMK A01,KMCJ,2019-01-15T01:35:00Z,29.72,-95.4,11.0,1.0,340,5,,10.0,30.369095,,,TRUE,TRUE,,,,,,,OVC,6000,,,,,,,VFR,,,,,,,,,,,,METAR,69.0
KSEM 150135Z AUTO 35010KT 10SM 06/02 A3031 RMK AO2,KSEM,2019-01-15T01:35:00Z,32.35,-86.98,6.0,2.0,350,10,,10.0,30.31004,,,TRUE,TRUE,,,,,,,,,,,,,,,,,,,,,,,,,,,SPECI,51.0
KS32 150135Z AUTO 18005KT M1/4SM FZFG OVC001 M09/M09 A3020 RMK AO2,KS32,2019-01-15T01:35:00Z,47.42,-98.1,-9.0,-9.0,180,5,,0.25,30.200787,,,TRUE,TRUE,,,,,,FZFG,OVC,100,,,,,,,LIFR,,,,,,,,,,,,SPECI,684.0
KPCZ 150135Z AUTO 26007KT 5SM BR OVC009 M01/M03 A3021 RMK AO2 T10131035,KPCZ,2019-01-15T01:35:00Z,44.33,-89.02,-1.3,-3.5,260,7,,5.0,30.209646,,,TRUE,TRUE,,,,,,BR,OVC,900,,,,,,,IFR,,,,,,,,,,,,SPECI,252.0
KVTI 150135Z AUTO 21004KT 3SM BR OVC007 M03/M03 A3027 RMK AO2 T10271027,KVTI,2019-01-15T01:35:00Z,42.22,-92.02,-2.7,-2.7,210,4,,3.0,30.268702,,,TRUE,TRUE,,,,,,BR,OVC,700,,,,,,,IFR,,,,,,,,,,,,METAR,255.0
K0R4 150135Z AUTO 00000KT 10SM OVC016 05/02 A3041 RMK AO2 T00460015,K0R4,2019-01-15T01:35:00Z,31.57,-91.5,4.6,1.5,0,0,,10.0,30.410433,,,TRUE,TRUE,,,,,,,OVC,1600,,,,,,,MVFR,,,,,,,,,,,,METAR,17.0
KL08 150135Z AUTO 00000KT 4SM -RA SCT005 BKN038 OVC065 10/10 A3005 RMK AO2,KL08,2019-01-15T01:35:00Z,33.27,-116.32,10.0,10.0,0,0,,4.0,30.050198,,,TRUE,TRUE,,,,,,-RA,SCT,500,BKN,3800,OVC,6500,,,MVFR,,,,,,,,,,,,METAR,159.0
KKY8 150135Z AUTO 27003KT 10SM OVC021 01/M02 A3034 RMK A01,KKY8,2019-01-15T01:35:00Z,37.95,-86.87,1.0,-2.0,270,3,,10.0,30.339567,,,TRUE,TRUE,,,,,,,OVC,2100,,,,,,,MVFR,,,,,,,,,,,,METAR,126.0
KJZI 150135Z AUTO 30003KT 7SM OVC017 06/03 A3023 RMK AO2 PWINO,KJZI,2019-01-15T01:35:00Z,32.7,-80.0,6.0,3.0,300,3,,7.0,30.230314,,,TRUE,TRUE,,,,,TRUE,,OVC,1700,,,,,,,MVFR,,,,,,,,,,,,METAR,6.0
KJYG 150135Z AUTO 32005KT 10SM SCT008 OVC013 M02/M02 A3024 RMK AO2,KJYG,2019-01-15T01:35:00Z,43.98,-94.55,-2.0,-2.0,320,5,,10.0,30.239174,,,TRUE,TRUE,,,,,,,SCT,800,OVC,1300,,,,,MVFR,,,,,,,,,,,,METAR,325.0
KL52 150135Z AUTO 12005KT 10SM SCT036 BKN045 OVC050 12/10 A2992 RMK A01,KL52,2019-01-15T01:35:00Z,35.1,-120.62,12.0,10.0,120,5,,10.0,29.920275,,,TRUE,TRUE,,,,,,,SCT,3600,BKN,4500,OVC,5000,,,VFR,,,,,,,,,,,,METAR,4.0
KS33 150135Z AUTO 34006KT 10SM OVC012 M02/M04 A3012 RMK AO2,KS33,2019-01-15T01:35:00Z,44.67,-121.15,-2.0,-4.0,340,6,,10.0,30.121063,,,TRUE,TRUE,,,,,,,OVC,1200,,,,,,,MVFR,,,,,,,,,,,,METAR,743.0
KANK 150135Z AUTO 00000KT 10SM CLR M08/M10 A3032 RMK AO1 T10811105,KANK,2019-01-15T01:35:00Z,38.53,-106.05,-8.1,-10.5,0,0,,10.0,30.318897,,,TRUE,TRUE,,,,,,,CLR,,,,,,,,VFR,,,,,,,,,,,,SPECI,2293.0
KANQ 150135Z AUTO 27004KT 10SM OVC017 M03/M06 A3024 RMK AO2,KANQ,2019-01-15T01:35:00Z,41.63,-85.08,-3.0,-6.0,270,4,,10.0,30.239174,,,TRUE,TRUE,,,,,,,OVC,1700,,,,,,,MVFR,,,,,,,,,,,,SPECI,303.0
KAQX 150135Z AUTO 00000KT 10SM OVC011 06/05 A3021 RMK AO2 TSNO,KAQX,2019-01-15T01:35:00Z,32.98,-81.27,6.0,5.0,0,0,,10.0,30.209646,,,TRUE,TRUE,,,TRUE,,,,OVC,1100,,,,,,,MVFR,,,,,,,,,,,,SPECI,49.0
KATS 150135Z AUTO 14007KT 10SM OVC010 03/03 A3029 RMK AO2,KATS,2019-01-15T01:35:00Z,32.85,-104.47,3.0,3.0,140,7,,10.0,30.28937,,,TRUE,TRUE,,,,,,,OVC,1000,,,,,,,MVFR,,,,,,,,,,,,SPECI,1081.0
KAWG 150135Z AUTO 27005KT 4SM BR OVC006 M02/M02 A3030 RMK AO2,KAWG,2019-01-15T01:35:00Z,41.27,-91.67,-2.0,-2.0,270,5,,4.0,30.301182,,,TRUE,TRUE,,,,,,BR,OVC,600,,,,,,,IFR,,,,,,,,,,,,SPECI,230.0
KAXA 150135Z AUTO 33003KT 8SM OVC006 M01/M01 A3021 RMK AO2 PWINO,KAXA,2019-01-15T01:35:00Z,43.07,-94.27,-1.0,-1.0,330,3,,8.0,30.209646,,,TRUE,TRUE,,,,,TRUE,,OVC,600,,,,,,,IFR,,,,,,,,,,,,METAR,372.0
KBAC 150135Z AUTO 16004KT 4SM BR OVC009 M10/M10 A3022 RMK AO2,KBAC,2019-01-15T01:35:00Z,46.93,-98.02,-10.0,-10.0,160,4,,4.0,30.221457,,,TRUE,TRUE,,,,,,BR,OVC,900,,,,,,,IFR,,,,,,,,,,,,SPECI,427.0
KBDH 150135Z AUTO 36003KT 10SM OVC012 M03/M05 A3025 RMK AO2,KBDH,2019-01-15T01:35:00Z,45.12,-95.13,-3.0,-5.0,360,3,,10.0,30.250984,,,TRUE,TRUE,,,,,,,OVC,1200,,,,,,,MVFR,,,,,,,,,,,,METAR,247.0
KBDN 150135Z AUTO 01005KT 10SM CLR M03/M05 A3003 RMK AO2,KBDN,2019-01-15T01:35:00Z,44.1,-121.2,-3.0,-5.0,10,5,,10.0,30.029528,,,TRUE,TRUE,,,,,,,CLR,,,,,,,,VFR,,,,,,,,,,,,SPECI,1055.0
KBRG 150135Z AUTO 33006KT 10SM SCT110 03/01 A3026 RMK AO2 T00290011,KBRG,2019-01-15T01:35:00Z,34.65,-106.83,2.9,1.1,330,6,,10.0,30.259842,,,TRUE,TRUE,,,,,,,SCT,11000,,,,,,,VFR,,,,,,,,,,,,SPECI,1585.0
KBOW 150135Z AUTO 36007KT 10SM CLR 14/09 A3016 RMK AO2,KBOW,2019-01-15T01:35:00Z,27.93,-81.77,14.0,9.0,360,7,,10.0,30.159449,,,TRUE,TRUE,,,,,,,CLR,,,,,,,,VFR,,,,,,,,,,,,SPECI,39.0
KBNW 150135Z AUTO 25003KT 2SM BR OVC003 M01/M01 A3024 RMK AO2,KBNW,2019-01-15T01:35:00Z,42.03,-93.83,-1.0,-1.0,250,3,,2.0,30.239174,,,TRUE,TRUE,,,,,,BR,OVC,300,,,,,,,LIFR,,,,,,,,,,,,METAR,354.0
KBKX 150135Z AUTO 36004KT 3SM BR OVC003 M06/M06 A3022 RMK AO2 FZRANO,KBKX,2019-01-15T01:35:00Z,44.28,-96.82,-6.0,-6.0,360,4,,3.0,30.221457,,,TRUE,TRUE,,,,TRUE,,BR,OVC,300,,,,,,,LIFR,,,,,,,,,,,,SPECI,502.0
KBKN 150135Z AUTO 13006KT 8SM CLR 01/01 A3035 RMK AO2,KBKN,2019-01-15T01:35:00Z,36.75,-97.35,1.0,1.0,130,6,,8.0,30.351377,,,TRUE,TRUE,,,,,,,CLR,,,,,,,,VFR,,,,,,,,,,,,SPECI,314.0
KCKM 150135Z AUTO 31003KT 10SM SCT017 OVC030 05/03 A3040 RMK A01,KCKM,2019-01-15T01:35:00Z,34.3,-90.52,5.0,3.0,310,3,,10.0,30.398623,,,TRUE,TRUE,,,,,,,SCT,1700,OVC,3000,,,,,MVFR,,,,,,,,,,,,METAR,53.0
KC62 150135Z AUTO 25007KT 10SM OVC018 M03/M07 A3025 RMK AO2 T10351079,KC62,2019-01-15T01:35:00Z,41.47,-85.25,-3.5,-7.9,250,7,,10.0,30.250984,,,TRUE,TRUE,,,,,,,OVC,1800,,,,,,,MVFR,,,,,,,,,,,,SPECI,306.0
KBRY 150135Z AUTO 00000KT 7SM SCT021 M03/M04 A3031 RMK AO1,KBRY,2019-01-15T01:35:00Z,37.82,-85.5,-3.0,-4.0,0,0,,7.0,30.31004,,,TRUE,TRUE,,,,,,,SCT,2100,,,,,,,VFR,,,,,,,,,,,,SPECI,204.0
KBUU 150135Z AUTO 24007KT 7SM OVC009 M04/M06 A3023 RMK AO2 T10431060,KBUU,2019-01-15T01:35:00Z,42.68,-88.3,-4.3,-6.0,240,7,,7.0,30.230314,,,TRUE,TRUE,,,,,,,OVC,900,,,,,,,IFR,,,,,,,,,,,,SPECI,237.0
KBVU 150135Z AUTO 00000KT 10SM -RA FEW037 OVC046 09/05 A3007 RMK AO2,KBVU,2019-01-15T01:35:00Z,35.95,-114.87,9.0,5.0,0,0,,10.0,30.070866,,,TRUE,TRUE,,,,,,-RA,FEW,3700,OVC,4600,,,,,VFR,,,,,,,,,,,,SPECI,671.0
KBWW 150135Z AUTO 18011KT 10SM CLR M04/M05 A2996 RMK AO2,KBWW,2019-01-15T01:35:00Z,46.17,-103.3,-4.0,-5.0,180,11,,10.0,29.958662,,,TRUE,TRUE,,,,,,,CLR,,,,,,,,VFR,,,,,,,,,,,,METAR,910.0
KCAV 150135Z AUTO 29004KT 6SM BR OVC008 M01/M01 A3022 RMK AO2 PWINO,KCAV,2019-01-15T01:35:00Z,42.75,-93.77,-1.0,-1.0,290,4,,6.0,30.221457,,,TRUE,TRUE,,,,,TRUE,BR,OVC,800,,,,,,,IFR,,,,,,,,,,,,METAR,354.0
KCBF 150135Z AUTO 26004KT 3SM BR OVC003 M01/M01 A3025 RMK AO2,KCBF,2019-01-15T01:35:00Z,41.27,-95.77,-1.0,-1.0,260,4,,3.0,30.250984,,,TRUE,TRUE,,,,,,BR,OVC,300,,,,,,,LIFR,,,,,,,,,,,,SPECI,382.0
KCBG 150135Z AUTO 00000KT 10SM SCT018 M03/M08 A3023 RMK AO2,KCBG,2019-01-15T01:35:00Z,45.57,-93.27,-3.0,-8.0,0,0,,10.0,30.230314,,,TRUE,TRUE,,,,,,,SCT,1800,,,,,,,VFR,,,,,,,,,,,,SPECI,287.0
KCDN 150135Z AUTO 00000KT 9SM SCT031 SCT036 03/02 A3021 RMK AO2,KCDN,2019-01-15T01:35:00Z,34.28,-80.57,3.0,2.0,0,0,,9.0,30.209646,,,TRUE,TRUE,,,,,,,SCT,3100,SCT,3600,,,,,VFR,,,,,,,,,,,,SPECI,92.0
KCEY 150135Z AUTO 29004KT 10SM OVC031 00/M01 A3036 RMK AO1,KCEY,2019-01-15T01:35:00Z,36.67,-88.37,0.0,-1.0,290,4,,10.0,30.360237,,,TRUE,TRUE,,,,,,,OVC,3100,,,,,,,VFR,,,,,,,,,,,,SPECI,176.0
KMBY 150135Z AUTO 25009KT 4SM BR OVC004 M02/M03 A3033 RMK AO2,KMBY,2019-01-15T01:35:00Z,39.47,-92.43,-2.0,-3.0,250,9,,4.0,30.33071,,,TRUE,TRUE,,,,,,BR,OVC,400,,,,,,,LIFR,,,,,,,,,,,,SPECI,264.0
KSUW 150135Z AUTO 00000KT 10SM CLR M06/M07 A3022 RMK AO2 T10651074,KSUW,2019-01-15T01:35:00Z,46.68,-92.1,-6.5,-7.4,0,0,,10.0,30.221457,,,TRUE,TRUE,,,,,,,CLR,,,,,,,,VFR,,,,,,,,,,,,SPECI,206.0
KEZS 150135Z AUTO 25004KT 2SM BR OVC005 M01/M02 A3018 RMK AO2 T10111025,KEZS,2019-01-15T01:35:00Z,44.78,-88.57,-1.1,-2.5,250,4,,2.0,30.180119,,,TRUE,TRUE,,,,,,BR,OVC,500,,,,,,,IFR,,,,,,,,,,,,SPECI,248.0
KGGI 150135Z AUTO 25005KT 10SM OVC007 M03/M03 A3028 RMK AO2 T10301032,KGGI,2019-01-15T01:35:00Z,41.72,-92.73,-3.0,-3.2,250,5,,10.0,30.280512,,,TRUE,TRUE,,,,,,,OVC,700,,,,,,,IFR,,,,,,,,,,,,SPECI,307.0
KCFJ 150135Z AUTO 24004KT 7SM CLR M11/M11 A3031 RMK AO2 T11151115,KCFJ,2019-01-15T01:35:00Z,39.98,-86.92,-11.5,-11.5,240,4,,7.0,30.31004,,,TRUE,TRUE,,,,,,,CLR,,,,,,,,VFR,,,,,,,,,,,,SPECI,244.0
KMAO 150135Z AUTO 00000KT 10SM OVC031 01/00 A3023 RMK AO2,KMAO,2019-01-15T01:35:00Z,34.18,-79.33,1.0,0.0,0,0,,10.0,30.230314,,,TRUE,TRUE,,,,,,,OVC,3100,,,,,,,VFR,,,,,,,,,,,,SPECI,28.0
KUNU 150135Z AUTO 22008KT 10SM OVC010 M04/M06 A3022 RMK AO2 T10411060 TSNO,KUNU,2019-01-15T01:35:00Z,43.42,-88.7,-4.1,-6.0,220,8,,10.0,30.221457,,,TRUE,TRUE,,,TRUE,,,,OVC,1000,,,,,,,MVFR,,,,,,,,,,,,SPECI,285.0
KORB 150134Z AUTO 00000KT 10SM CLR M11/M13 A3016 RMK AO2,KORB,2019-01-15T01:34:00Z,48.02,-92.87,-11.0,-13.0,0,0,,10.0,30.159449,,,TRUE,TRUE,,,,,,,CLR,,,,,,,,VFR,,,,,,,,,,,,METAR,397.0
KMVY 150134Z AUTO 35004KT 10SM SCT025 M04/M07 A3009 RMK AO2 T10391072,KMVY,2019-01-15T01:34:00Z,41.4,-70.62,-3.9,-7.2,350,4,,10.0,30.088583,,,TRUE,TRUE,,,,,,,SCT,2500,,,,,,,VFR,,,,,,,,,,,,SPECI,16.0
KMLF 150134Z AUTO 36010KT 10SM OVC011 M02/M05 A3019 RMK AO2 WSHFT 0120 T10221050,KMLF,2019-01-15T01:34:00Z,38.42,-113.02,-2.2,-5.0,360,10,,10.0,30.188976,,,TRUE,TRUE,,,,,,,OVC,1100,,,,,,,MVFR,,,,,,,,,,,,METAR,1534.0
K2V6 150134Z AUTO 25007KT 10SM CLR M06/M15 A3015 RMK AO2,K2V6,2019-01-15T01:34:00Z,40.1,-102.72,-6.0,-15.0,250,7,,10.0,30.15059,,,TRUE,TRUE,,,,,,,CLR,,,,,,,,VFR,,,,,,,,,,,,METAR,1261.0
PAGL 150134Z AUTO 09030G36KT 1 3/4SM -SN FEW049 BKN060 00/M06 A2964 RMK AO2 PK WND 09036/0127 RAE32SNB32 P0000 FZRANO,PAGL,2019-01-15T01:34:00Z,64.55,-163.03,0.0,-6.0,90,30,36,1.75,29.639763,,,TRUE,TRUE,,,,TRUE,,-SN,FEW,4900,BKN,6000,,,,,IFR,,,,,,0.005,,,,,,METAR,8.0
KDVL 150134Z AUTO 18005KT 3/4SM BR OVC003 M12/M13 A3017 RMK AO2 FZRANO,KDVL,2019-01-15T01:34:00Z,48.12,-98.92,-12.0,-13.0,180,5,,0.75,30.171259,,,TRUE,TRUE,,,,TRUE,,BR,OVC,300,,,,,,,LIFR,,,,,,,,,,,,SPECI,443.0
CYAH 150134Z AUTO 26013G20KT 2 1/4SM -SN FEW019 OVC070 M19/M21 A2985 RMK VIS VRB 1 1/2-3 SLP142,CYAH,2019-01-15T01:34:00Z,53.75,-73.67,-19.0,-21.0,260,13,20,2.25,29.84941,1014.2,,TRUE,,,,,,,-SN,FEW,1900,OVC,7000,,,,,IFR,,,,,,,,,,,,SPECI,306.0
KGLR 150134Z AUTO 26009KT 6SM BR OVC010 M03/M03 A3011 RMK AO2 T10281033,KGLR,2019-01-15T01:34:00Z,45.02,-84.68,-2.8,-3.3,260,9,,6.0,30.109253,,,TRUE,TRUE,,,,,,BR,OVC,1000,,,,,,,MVFR,,,,,,,,,,,,SPECI,407.0
KANB 150134Z AUTO 35007KT 10SM OVC015 04/00 A3030 RMK AO2 T00390000,KANB,2019-01-15T01:34:00Z,33.58,-85.85,3.9,0.0,350,7,,10.0,30.301182,,,TRUE,TRUE,,,,,,,OVC,1500,,,,,,,MVFR,,,,,,,,,,,,SPECI,183.0
KALO 150134Z 21004KT 2 1/2SM BR OVC005 M02/M02 A3025 RMK AO2 I1001 T10171022,KALO,2019-01-15T01:34:00Z,42.55,-92.4,-1.7,-2.2,210,4,,2.5,30.250984,,,,TRUE,,,,,,BR,OVC,500,,,,,,,IFR,,,,,,,,,,,,SPECI,264.0
EBLB 150133Z AUTO VRB02KT 1200 -SN OVC004/// 00/00 Q1020 AMB,EBLB,2019-01-15T01:33:00Z,50.47,6.17,0.0,0.0,0,2,,0.75,30.11811,,,TRUE,,,,,,,-SN,OVC,400,,,,,,,LIFR,,,,,,,,,,,,METAR,570.0
EBCV 150133Z AUTO 22005KT 4500 BKN052/// 01/01 Q1022 GRN,EBCV,2019-01-15T01:33:00Z,50.57,3.82,1.0,1.0,220,5,,2.8,30.177166,,,TRUE,,,,,,,,BKN,5200,,,,,,,IFR,,,,,,,,,,,,SPECI,63.0
KMYP 150133Z AUTO 26022KT 10SM CLR M10/M17 A3034 RMK AO2,KMYP,2019-01-15T01:33:00Z,38.48,-106.32,-10.0,-17.0,260,22,,10.0,30.339567,,,TRUE,TRUE,,,,,,,CLR,,,,,,,,VFR,,,,,,,,,,,,METAR,3667.0
CWHN 150133Z AUTO 32013G30KT 280V340 9SM OVC013 M01/M05 A2989,CWHN,2019-01-15T01:33:00Z,54.88,-109.97,-1.0,-5.0,320,13,30,9.0,29.890747,,,TRUE,,,,,,,,OVC,1300,,,,,,,MVFR,,,,,,,,,,,,SPECI,636.0
KETH 150133Z AUTO 33003KT 4SM BR OVC004 M05/M06 A3027 RMK AO2,KETH,2019-01-15T01:33:00Z,45.78,-96.55,-5.0,-6.0,330,3,,4.0,30.268702,,,TRUE,TRUE,,,,,,BR,OVC,400,,,,,,,LIFR,,,,,,,,,,,,SPECI,313.0
KYKN 150133Z AUTO 31003KT 2 1/2SM BR OVC003 M02/M02 A3023 RMK AO2 FZRANO,KYKN,2019-01-15T01:33:00Z,42.92,-97.37,-2.0,-2.0,310,3,,2.5,30.230314,,,TRUE,TRUE,,,,TRUE,,BR,OVC,300,,,,,,,LIFR,,,,,,,,,,,,METAR,398.0
KOKK 150133Z AUTO 28007KT 1/2SM -SN FZFG BKN002 M12/M14 A3030 RMK AO2 SNB30 P0000 FZRANO,KOKK,2019-01-15T01:33:00Z,40.53,-86.07,-12.0,-14.0,280,7,,0.5,30.301182,,,TRUE,TRUE,,,,TRUE,,-SN FZFG,BKN,200,,,,,,,LIFR,,,,,,0.005,,,,,,METAR,253.0
KHYR 150133Z AUTO VRB03KT 10SM OVC015 M02/M05 A3019 RMK AO2 T10171050,KHYR,2019-01-15T01:33:00Z,46.02,-91.45,-1.7,-5.0,0,3,,10.0,30.188976,,,TRUE,TRUE,,,,,,,OVC,1500,,,,,,,MVFR,,,,,,,,,,,,SPECI,370.0
KFOZ 150133Z AUTO 00000KT 10SM SCT001 M13/M14 A3019 RMK AO2,KFOZ,2019-01-15T01:33:00Z,47.77,-93.65,-13.0,-14.0,0,0,,10.0,30.188976,,,TRUE,TRUE,,,,,,,SCT,100,,,,,,,VFR,,,,,,,,,,,,SPECI,411.0
CYOD 150133Z 32013KT 12SM -SN SCT015 OVC021 01/M01 A2994 RMK SC3SC5 SLP168,CYOD,2019-01-15T01:33:00Z,54.4,-110.28,1.0,-1.0,320,13,,12.0,29.940945,1016.8,,,,,,,,,-SN,SCT,1500,OVC,2100,,,,,MVFR,,,,,,,,,,,,SPECI,544.0
CYTE 150133Z AUTO 01013G18KT 5SM BR CLR M21/M23 A2947 RMK SLP987,CYTE,2019-01-15T01:33:00Z,64.22,-76.52,-21.0,-23.0,10,13,18,5.0,29.471457,998.7,,TRUE,,,,,,,BR,CLR,,,,,,,,MVFR,,,,,,,,,,,,SPECI,47.0
CYVM 150133Z AUTO 00000KT 8SM -SN OVC035 M30/M33 A2983 RMK SLP102,CYVM,2019-01-15T01:33:00Z,67.53,-64.02,-30.0,-33.0,0,0,,8.0,29.828741,1010.2,,TRUE,,,,,,,-SN,OVC,3500,,,,,,,VFR,,,,,,,,,,,,SPECI,6.0
KEMP 150132Z AUTO 21008KT 3SM BR OVC004 M01/M01 A3031 RMK AO2 T10061006,KEMP,2019-01-15T01:32:00Z,38.33,-96.2,-0.6,-0.6,210,8,,3.0,30.31004,,,TRUE,TRUE,,,,,,BR,OVC,400,,,,,,,LIFR,,,,,,,,,,,,METAR,367.0
KLWC 150132Z AUTO 24006KT 4SM BR OVC004 M01/M02 A3033 RMK AO2 T10061022,KLWC,2019-01-15T01:32:00Z,39.02,-95.22,-0.6,-2.2,240,6,,4.0,30.33071,,,TRUE,TRUE,,,,,,BR,OVC,400,,,,,,,LIFR,,,,,,,,,,,,METAR,253.0
YCBP 150132Z AUTO 35017G34KT 9999 // NCD 44/// Q1009,YCBP,2019-01-15T01:32:00Z,-29.03,134.72,,,350,17,34,6.21,29.793306,,,TRUE,,,,,,,,CLR,,,,,,,,VFR,,,,,,,,,,,,SPECI,226.0
KTCM 150132Z AUTO 20003KT 1/8SM R34/1000V1400FT FG SCT000 02/02 A2996 RMK AO2 SLP152 $,KTCM,2019-01-15T01:32:00Z,47.12,-122.47,2.0,2.0,200,3,,0.13,29.958662,1015.2,,TRUE,TRUE,TRUE,,,,,FG,SCT,0,,,,,,,LIFR,,,,,,,,,,,,METAR,98.0
RJAW 150131Z 04012KT 9999 SCT030 BKN050 21/14 Q1017 RMK 4CU030 5SC050 A3006,RJAW,2019-01-15T01:31:00Z,24.77,141.32,21.0,14.0,40,12,,6.21,30.029528,,,,,,,,,,,SCT,3000,BKN,5000,,,,,VFR,,,,,,,,,,,,METAR,116.0
KSZL 150131Z 25007KT 3SM BR OVC005 M02/M02 A3029 RMK AO2A SLPNO $,KSZL,2019-01-15T01:31:00Z,38.72,-93.53,-2.0,-2.0,250,7,,3.0,30.28937,,,,TRUE,TRUE,,,,,BR,OVC,500,,,,,,,IFR,,,,,,,,,,,,METAR,265.0
KAXN 150131Z AUTO 32003KT 10SM SCT011 M05/M08 A3022 RMK AO2 I1000 T10501078,KAXN,2019-01-15T01:31:00Z,45.87,-95.4,-5.0,-7.8,320,3,,10.0,30.221457,,,TRUE,TRUE,,,,,,,SCT,1100,,,,,,,VFR,,,,,,,,,,,,SPECI,433.0
KFDY 150131Z AUTO 21003KT 2 1/2SM BR CLR M09/M11 A3026 RMK AO2 I1000 T10941111,KFDY,2019-01-15T01:31:00Z,41.02,-83.67,-9.4,-11.1,210,3,,2.5,30.259842,,,TRUE,TRUE,,,,,,BR,CLR,,,,,,,,IFR,,,,,,,,,,,,SPECI,247.0
KDBQ 150131Z 24005KT 3SM BR OVC004 M05/M06 A3026 RMK AO2 T10501061,KDBQ,2019-01-15T01:31:00Z,42.4,-90.7,-5.0,-6.1,240,5,,3.0,30.259842,,,,TRUE,,,,,,BR,OVC,400,,,,,,,LIFR,,,,,,,,,,,,SPECI,326.0
KBIH 150131Z AUTO 17008KT 10SM -RA BKN004 OVC036 02/00 A2998 RMK AO2 P0000 T00170000,KBIH,2019-01-15T01:31:00Z,37.37,-118.35,1.7,0.0,170,8,,10.0,29.97933,,,TRUE,TRUE,,,,,,-RA,BKN,400,OVC,3600,,,,,LIFR,,,,,,0.005,,,,,,SPECI,1253.0
LFKB 150130Z AUTO 32007KT 260V350 CAVOK 13/M01 Q1013 NOSIG,LFKB,2019-01-15T01:30:00Z,42.53,9.47,13.0,-1.0,320,7,,6.21,29.911417,,,TRUE,,,TRUE,,,,,CAVOK,,,,,,,,VFR,,,,,,,,,,,,METAR,12.0
UACP 150130Z 31006MPS 9999 -SHSN DRSN SCT011 OVC023CB M07/M09 Q1011 NOSIG RMK QFE746/0995,UACP,2019-01-15T01:30:00Z,54.78,69.18,-7.0,-9.0,310,12,,6.21,29.852362,,,,,,TRUE,,,,-SHSN DRSN,SCT,1100,OVC,2300,,,,,MVFR,,,,,,,,,,,,METAR,142.0
WBKK 150130Z 09004KT 050V150 9999 FEW014 SCT140 BKN270 28/25 Q1010 NOSIG,WBKK,2019-01-15T01:30:00Z,5.92,116.03,28.0,25.0,90,4,,6.21,29.822834,,,,,,TRUE,,,,,FEW,1400,SCT,14000,BKN,27000,,,VFR,,,,,,,,,,,,METAR,3.0
WBGG 150130Z VRB03KT 9999 FEW014 FEW015CB BKN300 28/25 Q1010 NOSIG,WBGG,2019-01-15T01:30:00Z,1.47,110.35,28.0,25.0,0,3,,6.21,29.822834,,,,,,TRUE,,,,,FEW,1400,FEW,1500,BKN,30000,,,VFR,,,,,,,,,,,,METAR,27.0
WADD 150130Z 31011KT 9999 FEW017 30/25 Q1007 NOSIG,WADD,2019-01-15T01:30:00Z,-8.73,115.17,30.0,25.0,310,11,,6.21,29.734253,,,,,,TRUE,,,,,FEW,1700,,,,,,,VFR,,,,,,,,,,,,METAR,216.0
WARR 150130Z 27006KT 240V300 7000 FEW020 29/25 Q1008 NOSIG,WARR,2019-01-15T01:30:00Z,-7.37,112.78,29.0,25.0,270,6,,4.35,29.763779,,,,,,TRUE,,,,,FEW,2000,,,,,,,MVFR,,,,,,,,,,,,METAR,2.0
WIDD 150130Z 31005KT 9999 FEW014 28/23 Q1013 NOSIG,WIDD,2019-01-15T01:30:00Z,1.12,104.12,28.0,23.0,310,5,,6.21,29.911417,,,,,,TRUE,,,,,FEW,1400,,,,,,,VFR,,,,,,,,,,,,METAR,38.0
NZCH 150130Z AUTO 20008KT 170V230 9999 SCT031/// OVC039/// 17/10 Q1016 NOSIG,NZCH,2019-01-15T01:30:00Z,-43.47,172.55,17.0,10.0,200,8,,6.21,30.0,,,TRUE,,,TRUE,,,,,SCT,3100,OVC,3900,,,,,VFR,,,,,,,,,,,,METAR,34.0
NZWN 150130Z AUTO 18025KT 9999 VCSH FEW017/// SCT030/// BKN037/// 17/12 Q1013 NOSIG,NZWN,2019-01-15T01:30:00Z,-41.32,174.8,17.0,12.0,180,25,,6.21,29.911417,,,TRUE,,,TRUE,,,,VCSH,FEW,1700,SCT,3000,BKN,3700,,,VFR,,,,,,,,,,,,METAR,7.0
NZAA 150130Z AUTO 21010KT 9999 FEW026/// BKN048/// 20/15 Q1007 TEMPO FM0200 4000 SHRA,NZAA,2019-01-15T01:30:00Z,-37.02,174.8,20.0,15.0,210,10,,6.21,29.734253,,,TRUE,,,,,,,,FEW,2600,BKN,4800,,,,,VFR,,,,,,,,,,,,METAR,6.0
UHPP 150130Z 35003MPS 9999 FEW040 M09/M13 Q1010 R34L/720350 NOSIG RMK MT OBSC QFE754/1005,UHPP,2019-01-15T01:30:00Z,53.17,158.45,-9.0,-13.0,350,6,,6.21,29.822834,,,,,,TRUE,,,,,FEW,4000,,,,,,,VFR,,,,,,,,,,,,METAR,40.0
UHHH 150130Z 26005MPS 4600 -SHSN SCT033CB M12/M15 Q1014 R23L/490350 NOSIG RMK QFE754/1005,UHHH,2019-01-15T01:30:00Z,48.52,135.18,-12.0,-15.0,260,10,,2.86,29.940945,,,,,,TRUE,,,,-SHSN,SCT,3300,,,,,,,IFR,,,,,,,,,,,,METAR,72.0
UHBB 150130Z 31002MPS CAVOK M19/M28 Q1020 R36/090060 NOSIG RMK QFE748/0997,UHBB,2019-01-15T01:30:00Z,50.43,127.42,-19.0,-28.0,310,4,,6.21,30.11811,,,,,,TRUE,,,,,CAVOK,,,,,,,,VFR,,,,,,,,,,,,METAR,195.0
VOMD 150130Z 01002KT 3000 BR NSC 21/18 Q1015 NOSIG,VOMD,2019-01-15T01:30:00Z,9.82,78.07,21.0,18.0,10,2,,1.86,29.970472,,,,,,TRUE,,,,BR,CLR,,,,,,,,IFR,,,,,,,,,,,,METAR,131.0
VIDP 150130Z 26005KT 1400 R28/P2000 R29/P2000 BR NSC 06/04 Q1018 NOSIG,VIDP,2019-01-15T01:30:00Z,28.57,77.12,6.0,4.0,260,5,,0.87,30.059055,,,,,,TRUE,,,,BR,CLR,,,,,,,,LIFR,,,,,,,,,,,,METAR,233.0
VEBS 150130Z 33002KT 1000 MIFG FEW020 SCT100 16/16 Q1016 BECMG 1500 BR,VEBS,2019-01-15T01:30:00Z,20.25,85.82,16.0,16.0,330,2,,0.62,30.0,,,,,,,,,,MIFG,FEW,2000,SCT,10000,,,,,LIFR,,,,,,,,,,,,METAR,46.0
WMKP 150130Z 02008KT 340V050 8000 FEW020 BKN280 28/21 Q1011 NOSIG,WMKP,2019-01-15T01:30:00Z,5.28,100.27,28.0,21.0,20,8,,4.97,29.852362,,,,,,TRUE,,,,,FEW,2000,BKN,28000,,,,,MVFR,,,,,,,,,,,,METAR,4.0
WMKK 150130Z 18003KT 130V260 9999 FEW018 SCT140 BKN280 28/25 Q1011 NOSIG,WMKK,2019-01-15T01:30:00Z,2.75,101.72,28.0,25.0,180,3,,6.21,29.852362,,,,,,TRUE,,,,,FEW,1800,SCT,14000,BKN,28000,,,VFR,,,,,,,,,,,,METAR,22.0
WBSB 150130Z 22001KT 9999 FEW016 FEW017CB BKN140 29/24 Q1010 NOSIG,WBSB,2019-01-15T01:30:00Z,4.92,114.92,29.0,24.0,220,1,,6.21,29.822834,,,,,,TRUE,,,,,FEW,1600,FEW,1700,BKN,14000,,,VFR,,,,,,,,,,,,METAR,15.0
WATT 150130Z 08001KT 9999 BKN016 30/24 Q1008 NOSIG,WATT,2019-01-15T01:30:00Z,-10.17,123.67,30.0,24.0,80,1,,6.21,29.763779,,,,,,TRUE,,,,,BKN,1600,,,,,,,MVFR,,,,,,,,,,,,METAR,102.0
LFSX 150130Z AUTO 02003KT CAVOK 02/02 Q1024,LFSX,2019-01-15T01:30:00Z,47.77,6.33,2.0,2.0,20,3,,6.21,30.236221,,,TRUE,,,,,,,,CAVOK,,,,,,,,VFR,,,,,,,,,,,,METAR,273.0
LFYR 150130Z AUTO 19002KT 9999 OVC047 05/04 Q1025,LFYR,2019-01-15T01:30:00Z,47.32,1.67,5.0,4.0,190,2,,6.21,30.265747,,,TRUE,,,,,,,,OVC,4700,,,,,,,VFR,,,,,,,,,,,,METAR,86.0
UUBW 150130Z 12007MPS 5000 -SN OVC011 M02/M04 Q0989 R12/890535 TEMPO 2000 SN,UUBW,2019-01-15T01:30:00Z,55.55,38.15,-2.0,-4.0,120,14,,3.11,29.202755,,,,,,,,,,-SN,OVC,1100,,,,,,,MVFR,,,,,,,,,,,,METAR,115.0
LESO 150130Z AUTO 18002KT 9999 BKN032/// OVC038/// 09/09 Q1025,LESO,2019-01-15T01:30:00Z,43.35,-1.8,9.0,9.0,180,2,,6.21,30.265747,,,TRUE,,,,,,,,BKN,3200,OVC,3800,,,,,VFR,,,,,,,,,,,,METAR,8.0
LEBL 150130Z 32009KT CAVOK 08/04 Q1020 NOSIG,LEBL,2019-01-15T01:30:00Z,41.27,2.07,8.0,4.0,320,9,,6.21,30.11811,,,,,,TRUE,,,,,CAVOK,,,,,,,,VFR,,,,,,,,,,,,METAR,6.0
LEMD 150130Z 35004KT 8000 NSC M02/M02 Q1021 NOSIG,LEMD,2019-01-15T01:30:00Z,40.48,-3.57,-2.0,-2.0,350,4,,4.97,30.147638,,,,,,TRUE,,,,,CLR,,,,,,,,MVFR,,,,,,,,,,,,METAR,582.0
LEIB 150130Z AUTO 31001KT CAVOK 08/07 Q1020,LEIB,2019-01-15T01:30:00Z,38.87,1.37,8.0,7.0,310,1,,6.21,30.11811,,,TRUE,,,,,,,,CAVOK,,,,,,,,VFR,,,,,,,,,,,,METAR,12.0
LEMG 150130Z 28012KT CAVOK 15/00 Q1019 NOSIG,LEMG,2019-01-15T01:30:00Z,36.67,-4.5,15.0,0.0,280,12,,6.21,30.088583,,,,,,TRUE,,,,,CAVOK,,,,,,,,VFR,,,,,,,,,,,,METAR,7.0
LEZL 150130Z AUTO 00000KT 9000 NCD 05/04 Q1021,LEZL,2019-01-15T01:30:00Z,37.42,-5.9,5.0,4.0,0,0,,5.59,30.147638,,,TRUE,,,,,,,,CLR,,,,,,,,VFR,,,,,,,,,,,,METAR,31.0
LEVC 150130Z 29005KT CAVOK 04/02 Q1021 NOSIG,LEVC,2019-01-15T01:30:00Z,39.5,-0.47,4.0,2.0,290,5,,6.21,30.147638,,,,,,TRUE,,,,,CAVOK,,,,,,,,VFR,,,,,,,,,,,,METAR,62.0
LPPR 150130Z 00000KT 5000 BR NSC 04/04 Q1021,LPPR,2019-01-15T01:30:00Z,41.22,-8.67,4.0,4.0,0,0,,3.11,30.147638,,,,,,,,,,BR,CLR,,,,,,,,MVFR,,,,,,,,,,,,METAR,73.0
LPMA 150130Z 36006KT 9999 SCT015 16/12 Q1023,LPMA,2019-01-15T01:30:00Z,32.7,-16.77,16.0,12.0,360,6,,6.21,30.206694,,,,,,,,,,,SCT,1500,,,,,,,VFR,,,,,,,,,,,,METAR,55.0
LPFR 150130Z 02006KT CAVOK 07/03 Q1020,LPFR,2019-01-15T01:30:00Z,37.02,-7.97,7.0,3.0,20,6,,6.21,30.11811,,,,,,,,,,,CAVOK,,,,,,,,VFR,,,,,,,,,,,,METAR,4.0
LETL 150130Z AUTO 31004KT 9999 NCD M02/M03 Q1022,LETL,2019-01-15T01:30:00Z,40.42,-1.22,-2.0,-3.0,310,4,,6.21,30.177166,,,TRUE,,,,,,,,CLR,,,,,,,,VFR,,,,,,,,,,,,METAR,1013.0
LECH 150130Z AUTO VRB02KT 9999 NCD 06/02 Q1020,LECH,2019-01-15T01:30:00Z,40.2,0.07,6.0,2.0,0,2,,6.21,30.11811,,,TRUE,,,,,,,,CLR,,,,,,,,VFR,,,,,,,,,,,,METAR,337.0
LEBG 150130Z AUTO 05007KT 020V100 9999 OVC007/// 05/04 Q1023,LEBG,2019-01-15T01:30:00Z,42.37,-3.62,5.0,4.0,50,7,,6.21,30.206694,,,TRUE,,,,,,,,OVC,700,,,,,,,IFR,,,,,,,,,,,,METAR,891.0
LEAG 150130Z AUTO VRB08KT CAVOK 14/05 Q1020,LEAG,2019-01-15T01:30:00Z,,,14.0,5.0,0,8,,6.21,30.11811,,,TRUE,,,,,,,,CAVOK,,,,,,,,VFR,,,,,,,,,,,,METAR,
LPPS 150130Z 02004KT 350V050 9999 FEW015 14/10 Q1023,LPPS,2019-01-15T01:30:00Z,33.07,-16.35,14.0,10.0,20,4,,6.21,30.206694,,,,,,,,,,,FEW,1500,,,,,,,VFR,,,,,,,,,,,,METAR,82.0
UHMD 150130Z 02009G14MPS 0500 +SN BLSN VV002 M09/M09 Q0998 RMK QBB080 MT OBSC QFE748/0997,UHMD,2019-01-15T01:30:00Z,64.38,-173.22,-9.0,-9.0,20,17,27,0.31,29.468504,,,,,,,,,,+SN BLSN,OVX,0,,,,,,,LIFR,,,,,,,,,,,200,METAR,3.0
UHMA 150130Z 34008MPS 0800 R01/1000 +SN DRSN BKN023 OVC036 M24/M27 Q1005 R88/750542 NOSIG RMK END R01/34008MPS QFE750/1000,UHMA,2019-01-15T01:30:00Z,64.73,177.73,-24.0,-27.0,340,16,,0.5,29.675198,,,,,,TRUE,,,,DRSN +SN,BKN,2300,OVC,3600,,,,,LIFR,,,,,,,,,,,,METAR,62.0
UHWW 150130Z 32004MPS 4800 HZ NSC M07/M11 Q1015 R25L/0///70 NOSIG RMK QFE760,UHWW,2019-01-15T01:30:00Z,43.4,132.15,-7.0,-11.0,320,8,,2.98,29.970472,,,,,,TRUE,,,,HZ,CLR,,,,,,,,IFR,,,,,,,,,,,,METAR,14.0
LFSO 150130Z AUTO 21006KT CAVOK 02/01 Q1023,LFSO,2019-01-15T01:30:00Z,48.57,5.97,2.0,1.0,210,6,,6.21,30.206694,,,TRUE,,,,,,,,CAVOK,,,,,,,,VFR,,,,,,,,,,,,METAR,350.0
LFSI 150130Z AUTO 00000KT 6000 FEW025 BKN030 OVC037 03/02 Q1024,LFSI,2019-01-15T01:30:00Z,48.62,4.9,3.0,2.0,0,0,,3.73,30.236221,,,TRUE,,,,,,,,FEW,2500,BKN,3000,OVC,3700,,,MVFR,,,,,,,,,,,,METAR,140.0
LFSL 150130Z AUTO VRB01KT 8000 FEW037 M01/M01 Q1024,LFSL,2019-01-15T01:30:00Z,45.03,1.48,-1.0,-1.0,0,1,,4.97,30.236221,,,TRUE,,,,,,,,FEW,3700,,,,,,,MVFR,,,,,,,,,,,,METAR,310.0
LFMV 150130Z AUTO 35015KT CAVOK 08/01 Q1019,LFMV,2019-01-15T01:30:00Z,43.9,4.9,8.0,1.0,350,15,,6.21,30.088583,,,TRUE,,,,,,,,CAVOK,,,,,,,,VFR,,,,,,,,,,,,METAR,38.0
LPPT 150130Z 31007KT CAVOK 10/08 Q1021,LPPT,2019-01-15T01:30:00Z,38.77,-9.12,10.0,8.0,310,7,,6.21,30.147638,,,,,,,,,,,CAVOK,,,,,,,,VFR,,,,,,,,,,,,METAR,123.0
WAPP 150130Z 32007KT 280V360 9999 FEW018CB BKN019 31/24 Q1008NOSIG RMK CB TO S,WAPP,2019-01-15T01:30:00Z,-3.7,128.07,31.0,24.0,320,7,,6.21,,,,,,,TRUE,,,,,FEW,1800,BKN,1900,,,,,MVFR,,,,,,,,,,,,METAR,12.0
WIPP 150130Z 30010KT 9999 BKN010 24/24 Q1012,WIPP,2019-01-15T01:30:00Z,-2.88,104.7,24.0,24.0,300,10,,6.21,29.88189,,,,,,,,,,,BKN,1000,,,,,,,MVFR,,,,,,,,,,,,METAR,10.0
WIOO 150130Z 00000KT 8000 BKN010 25/24 Q1010,WIOO,2019-01-15T01:30:00Z,-0.15,109.4,25.0,24.0,0,0,,4.97,29.822834,,,,,,,,,,,BKN,1000,,,,,,,MVFR,,,,,,,,,,,,METAR,3.0
LJCE 150130Z AUTO 11004KT 060V160 9999 NCD M00/M05 Q1014,LJCE,2019-01-15T01:30:00Z,45.9,15.52,0.0,-5.0,110,4,,6.21,29.940945,,,TRUE,,,,,,,,CLR,,,,,,,,VFR,,,,,,,,,,,,METAR,155.0
UIAA 150130Z 21006MPS 9999 NSC M16/M25 Q1019 R29/420150 NOSIG RMK QFE706/0941,UIAA,2019-01-15T01:30:00Z,52.02,113.32,-16.0,-25.0,210,12,,6.21,30.088583,,,,,,TRUE,,,,,CLR,,,,,,,,VFR,,,,,,,,,,,,METAR,685.0
UIBB 150130Z 25002MPS 220V290 9999 NSC M16/M19 Q1023 R30/490137 NOSIG RMK QFE724/0965,UIBB,2019-01-15T01:30:00Z,56.37,101.7,-16.0,-19.0,250,4,,6.21,30.206694,,,,,,TRUE,,,,,CLR,,,,,,,,VFR,,,,,,,,,,,,METAR,490.0
UIII 150130Z 00000MPS CAVOK M19/M23 Q1028 R12/810550 NOSIG RMK QFE728/0971,UIII,2019-01-15T01:30:00Z,52.27,104.4,-19.0,-23.0,0,0,,6.21,30.35433,,,,,,TRUE,,,,,CAVOK,,,,,,,,VFR,,,,,,,,,,,,METAR,513.0
LRBC 150130Z 33007KT 3600 -SN BR OVC014 00/M01 Q1001 R16/910295,LRBC,2019-01-15T01:30:00Z,46.52,26.92,0.0,-1.0,330,7,,2.24,29.557087,,,,,,,,,,-SN BR,OVC,1400,,,,,,,IFR,,,,,,,,,,,,METAR,185.0
UMGG 150130Z 23007G11MPS 9999 BKN017CB M01/M02 Q0988 R28/590530 TEMPO 1200 SHSN,UMGG,2019-01-15T01:30:00Z,52.53,31.02,-1.0,-2.0,230,14,21,6.21,29.17323,,,,,,,,,,,BKN,1700,,,,,,,MVFR,,,,,,,,,,,,METAR,144.0
UIUU 150130Z 27002MPS 9000 NSC M24/M28 Q1031 R26/810550 NOSIG RMK QFE729/0972,UIUU,2019-01-15T01:30:00Z,51.8,107.45,-24.0,-28.0,270,4,,5.59,30.442913,,,,,,TRUE,,,,,CLR,,,,,,,,VFR,,,,,,,,,,,,METAR,515.0
ULLI 150130Z 28005MPS 1600 1400NE R28R/P2000D SHSN BKN009 BKN018CB OVC033 M01/M01 Q0978 R28R/520547 NOSIG,ULLI,2019-01-15T01:30:00Z,59.8,30.27,-1.0,-1.0,280,10,,0.99,28.877953,,,,,,TRUE,,,,SHSN,BKN,900,BKN,1800,OVC,3300,,,LIFR,,,,,,,,,,,,METAR,4.0
UUDD 150130Z 16006MPS 3500 -SHSN BKN008 BKN026CB M02/M04 Q0988 R14R/590292 TEMPO 2000 SHSN,UUDD,2019-01-15T01:30:00Z,55.4,37.9,-2.0,-4.0,160,12,,2.17,29.17323,,,,,,,,,,-SHSN,BKN,800,BKN,2600,,,,,IFR,,,,,,,,,,,,METAR,168.0
UUDL 150130Z 18004MPS 9999 OVC013 M02/M05 Q0991 R23/492034 NOSIG RMK QFE735,UUDL,2019-01-15T01:30:00Z,57.57,40.17,-2.0,-5.0,180,8,,6.21,29.26181,,,,,,TRUE,,,,,OVC,1300,,,,,,,MVFR,,,,,,,,,,,,METAR,88.0
UUEE 150130Z 14004G09MPS 100V170 5000 -SN OVC011 M02/M03 Q0987 R06R/450340 NOSIG,UUEE,2019-01-15T01:30:00Z,55.97,37.42,-2.0,-3.0,140,8,17,3.11,29.143702,,,,,,TRUE,,,,-SN,OVC,1100,,,,,,,MVFR,,,,,,,,,,,,METAR,190.0
ZGGG 150130Z 03003MPS 350V060 6000 SCT033 19/12 Q1021 NOSIG,ZGGG,2019-01-15T01:30:00Z,23.4,113.3,19.0,12.0,30,6,,3.73,30.147638,,,,,,TRUE,,,,,SCT,3300,,,,,,,MVFR,,,,,,,,,,,,METAR,15.0
URMM 150130Z 10004MPS 4700 BR OVC003 M02/M03 Q1005 R12/090070 NOSIG RMK QBB090 MT OBSC QFE726/0968,URMM,2019-01-15T01:30:00Z,44.22,43.1,-2.0,-3.0,100,8,,2.92,29.675198,,,,,,TRUE,,,,BR,OVC,300,,,,,,,LIFR,,,,,,,,,,,,METAR,314.0
LFKC 150130Z AUTO 19004KT 140V250 CAVOK 05/M01 Q1013,LFKC,2019-01-15T01:30:00Z,42.52,8.8,5.0,-1.0,190,4,,6.21,29.911417,,,TRUE,,,,,,,,CAVOK,,,,,,,,VFR,,,,,,,,,,,,METAR,58.0
LFCR 150130Z AUTO 30006KT CAVOK 01/M01 Q1023 TEMPO 0250 VV///,LFCR,2019-01-15T01:30:00Z,44.38,2.47,1.0,-1.0,300,6,,6.21,30.206694,,,TRUE,,,,,,,,CAVOK,,,,,,,,VFR,,,,,,,,,,,,METAR,580.0
LFML 150130Z AUTO 33029KT CAVOK 08/02 Q1016 BECMG 34010G22KT,LFML,2019-01-15T01:30:00Z,43.45,5.22,8.0,2.0,330,29,,6.21,30.0,,,TRUE,,,,,,,,CAVOK,,,,,,,,VFR,,,,,,,,,,,,METAR,36.0
LFLB 150130Z AUTO VRB03KT CAVOK 01/00 Q1024,LFLB,2019-01-15T01:30:00Z,45.63,5.87,1.0,0.0,0,3,,6.21,30.236221,,,TRUE,,,,,,,,CAVOK,,,,,,,,VFR,,,,,,,,,,,,METAR,239.0
LFBA 150130Z AUTO 00000KT 9999 OVC040 06/05 Q1025,LFBA,2019-01-15T01:30:00Z,44.17,0.6,6.0,5.0,0,0,,6.21,30.265747,,,TRUE,,,,,,,,OVC,4000,,,,,,,VFR,,,,,,,,,,,,METAR,60.0
URRP 150130Z 18004MPS 6000 SCT003 02/01 Q1001 R23/290053 TEMPO 0200 +SHRASN FZRA OVC001 OVC015 BKN020CB RMK QBB090 OBST OBSC QFE743/0991,URRP,2019-01-15T01:30:00Z,47.5,39.92,2.0,1.0,180,8,,3.73,29.557087,,,,,,,,,,,SCT,300,,,,,,,MVFR,,,,,,,,,,,,METAR,65.0
URMT 150130Z 21001MPS CAVOK M02/M03 Q1003 R07/150060 NOSIG RMK QFE713,URMT,2019-01-15T01:30:00Z,45.12,42.12,-2.0,-3.0,210,2,,6.21,29.616142,,,,,,TRUE,,,,,CAVOK,,,,,,,,VFR,,,,,,,,,,,,METAR,453.0
URSS 150130Z 13004MPS 9000 -SHRA OVC036CB 10/03 Q1007 WS ALL RWY R02/090070 R06/090070 NOSIG RMK R06/13006G09MPS MT OBSC QFE754,URSS,2019-01-15T01:30:00Z,43.45,39.95,10.0,3.0,130,8,,5.59,29.734253,,,,,,TRUE,,,,-SHRA,OVC,3600,,,,,,,VFR,,,,,,,,,,,,METAR,16.0
URWA 150130Z 11006MPS 5000 BR OVC004 M00/M01 Q1011 R09/010060 TEMPO 1000 BR OVC002 RMK OBST OBSC QFE760/1014,URWA,2019-01-15T01:30:00Z,46.28,48.02,0.0,-1.0,110,12,,3.11,29.852362,,,,,,,,,,BR,OVC,400,,,,,,,LIFR,,,,,,,,,,,,METAR,-20.0
URWW 150130Z 17010MPS 4500 -SN BLSN OVC004 M01/M02 Q1004 R06/820240 TEMPO 0500 +SHSNRA OVC002 BKN020CB RMK OBST OBSC,URWW,2019-01-15T01:30:00Z,48.78,44.33,-1.0,-2.0,170,19,,2.8,29.64567,,,,,,,,,,-SN BLSN,OVC,400,,,,,,,LIFR,,,,,,,,,,,,METAR,147.0
URWI 150130Z AUTO 14005MPS 0200 // ///002/// M01/M01 Q1007 RMK QBB060,URWI,2019-01-15T01:30:00Z,46.37,44.33,-1.0,-1.0,140,10,,0.12,29.734253,,,TRUE,,,,,,,,,,,,,,,,,,,,,,,,,,,,METAR,150.0
USCM 150130Z 31001MPS 0200 R18/0600N FZFG VV002 M13/M15 Q1011 R18/390150 NOSIG RMK QBB070 QFE720,USCM,2019-01-15T01:30:00Z,53.4,58.75,-13.0,-15.0,310,2,,0.12,29.852362,,,,,,TRUE,,,,FZFG,OVX,0,,,,,,,LIFR,,,,,,,,,,,200,METAR,435.0
K65S 150130Z AUTO 06006KT 10SM CLR M04/M08 A3022 RMK AO2,K65S,2019-01-15T01:30:00Z,48.73,-116.3,-4.0,-8.0,60,6,,10.0,30.221457,,,TRUE,TRUE,,,,,,,CLR,,,,,,,,VFR,,,,,,,,,,,,METAR,713.0
K6I2 150130Z AUTO 00000KT 6SM BR CLR M03/M03 A3031 RMK AO2,K6I2,2019-01-15T01:30:00Z,37.63,-85.25,-3.0,-3.0,0,0,,6.0,30.31004,,,TRUE,TRUE,,,,,,BR,CLR,,,,,,,,VFR,,,,,,,,,,,,METAR,264.0
KE16 150130Z AUTO 13007KT 10SM BKN046 OVC060 12/08 A2988 RMK AO2,KE16,2019-01-15T01:30:00Z,37.08,-121.6,12.0,8.0,130,7,,10.0,29.878937,,,TRUE,TRUE,,,,,,,BKN,4600,OVC,6000,,,,,VFR,,,,,,,,,,,,METAR,86.0
KO86 150130Z AUTO 00000KT 10SM OVC080 05/03 A2988 RMK AO1,KO86,2019-01-15T01:30:00Z,40.98,-122.7,5.0,3.0,0,0,,10.0,29.878937,,,TRUE,TRUE,,,,,,,OVC,8000,,,,,,,VFR,,,,,,,,,,,,METAR,729.0
GLRB 150130Z 00000KT 7000 FEW010 23/22 Q1012 BRVC,GLRB,2019-01-15T01:30:00Z,6.25,-10.33,23.0,22.0,0,0,,4.35,29.88189,,,,,,,,,,BR,FEW,1000,,,,,,,MVFR,,,,,,,,,,,,METAR,18.0
VILK 150130Z 25003KT 1600 R27/P2000 HZ NSC 07/03 Q1017 BECMG 1500 HZ BR,VILK,2019-01-15T01:30:00Z,26.75,80.87,7.0,3.0,250,3,,0.99,30.029528,,,,,,,,,,HZ,CLR,,,,,,,,LIFR,,,,,,,,,,,,METAR,128.0
LZTT 150130Z 27023G33KT 1500 -SN BLSN FEW011 BKN036 OVC050 M05/M10 Q1002,LZTT,2019-01-15T01:30:00Z,49.07,20.25,-5.0,-10.0,270,23,33,0.93,29.586615,,,,,,,,,,-SN BLSN,FEW,1100,BKN,3600,OVC,5000,,,LIFR,,,,,,,,,,,,METAR,707.0
K7BM 150130Z AUTO 29004KT 10SM CLR M05/M11 A3024 RMK AO2,K7BM,2019-01-15T01:30:00Z,38.78,-106.22,-5.0,-11.0,290,4,,10.0,30.239174,,,TRUE,TRUE,,,,,,,CLR,,,,,,,,VFR,,,,,,,,,,,,METAR,2995.0
K5SM 150130Z AUTO 20007KT 10SM CLR M10/M13 A3029 RMK AO2,K5SM,2019-01-15T01:30:00Z,39.43,-107.38,-10.0,-13.0,200,7,,10.0,30.28937,,,TRUE,TRUE,,,,,,,CLR,,,,,,,,VFR,,,,,,,,,,,,METAR,3232.0
K4BM 150130Z AUTO 08005KT 10SM SCT100 M05/M21 A3026 RMK AO2 LTG DSNT NW,K4BM,2019-01-15T01:30:00Z,39.05,-105.52,-5.0,-21.0,80,5,,10.0,30.259842,,,TRUE,TRUE,,,,,,,SCT,10000,,,,,,,VFR,,,,,,,,,,,,METAR,3438.0
K20V 150130Z AUTO 00000KT 10SM CLR M17/M20 A3033 RMK AO2,K20V,2019-01-15T01:30:00Z,40.05,-106.37,-17.0,-20.0,0,0,,10.0,30.33071,,,TRUE,TRUE,,,,,,,CLR,,,,,,,,VFR,,,,,,,,,,,,METAR,2259.0
K1V6 150130Z AUTO 27006KT 10SM CLR 01/M06 A3019 RMK AO2,K1V6,2019-01-15T01:30:00Z,38.43,-105.1,1.0,-6.0,270,6,,10.0,30.188976,,,TRUE,TRUE,,,,,,,CLR,,,,,,,,VFR,,,,,,,,,,,,METAR,1658.0
HSSS 150130Z 34010KT CAVOK 19/M06 Q1014 NOSIG,HSSS,2019-01-15T01:30:00Z,15.58,32.53,19.0,-6.0,340,10,,6.21,29.940945,,,,,,TRUE,,,,,CAVOK,,,,,,,,VFR,,,,,,,,,,,,METAR,380.0
VVDN 150130Z 22003KT 5000 BR SCT013 BKN050 23/21 Q1017 NOSIG,VVDN,2019-01-15T01:30:00Z,16.02,108.2,23.0,21.0,220,3,,3.11,30.029528,,,,,,TRUE,,,,BR,SCT,1300,BKN,5000,,,,,MVFR,,,,,,,,,,,,METAR,7.0
VVTS 150130Z 36006KT 6000 FEW017 SCT050 26/23 Q1012 NOSIG,VVTS,2019-01-15T01:30:00Z,10.82,106.67,26.0,23.0,360,6,,3.73,29.88189,,,,,,TRUE,,,,,FEW,1700,SCT,5000,,,,,MVFR,,,,,,,,,,,,METAR,19.0
VVPQ 150130Z VRB02KT CAVOK 27/24 Q1011 NOSIG,VVPQ,2019-01-15T01:30:00Z,10.23,103.97,27.0,24.0,0,2,,6.21,29.852362,,,,,,TRUE,,,,,CAVOK,,,,,,,,VFR,,,,,,,,,,,,METAR,4.0
VVPB 150130Z 25004KT 7000 FEW015 SCT050 23/21 Q1017 NOSIG,VVPB,2019-01-15T01:30:00Z,16.38,107.7,23.0,21.0,250,4,,4.35,30.029528,,,,,,TRUE,,,,,FEW,1500,SCT,5000,,,,,MVFR,,,,,,,,,,,,METAR,17.0
VVNB 150130Z 08005KT 3400 BR SCT012 BKN032 20/20 Q1018 NOSIG,VVNB,2019-01-15T01:30:00Z,21.22,105.8,20.0,20.0,80,5,,2.11,30.059055,,,,,,TRUE,,,,BR,SCT,1200,BKN,3200,,,,,IFR,,,,,,,,,,,,METAR,12.0
VVCT 150130Z 00000KT 7000 FEW015 27/23 Q1012 NOSIG,VVCT,2019-01-15T01:30:00Z,10.08,105.72,27.0,23.0,0,0,,4.35,29.88189,,,,,,TRUE,,,,,FEW,1500,,,,,,,MVFR,,,,,,,,,,,,METAR,3.0
VVCR 150130Z VRB02KT 9999 FEW015 BKN050 27/20 Q1015 NOSIG,VVCR,2019-01-15T01:30:00Z,12.0,109.22,27.0,20.0,0,2,,6.21,29.970472,,,,,,TRUE,,,,,FEW,1500,BKN,5000,,,,,VFR,,,,,,,,,,,,METAR,12.0
VVCI 150130Z 08010KT 9000 NSC 21/19 Q1019 NOSIG,VVCI,2019-01-15T01:30:00Z,20.82,106.73,21.0,19.0,80,10,,5.59,30.088583,,,,,,TRUE,,,,,CLR,,,,,,,,VFR,,,,,,,,,,,,METAR,3.0
BKPR 150130Z 00000KT 1200 R17/P1500 BR SCT012 SCT080 M11/M14 Q1008 NOSIG RMK 17290095,BKPR,2019-01-15T01:30:00Z,42.58,21.03,-11.0,-14.0,0,0,,0.75,29.763779,,,,,,TRUE,,,,BR,SCT,1200,SCT,8000,,,,,LIFR,,,,,,,,,,,,SPECI,576.0
OPPS 150130Z 23004KT 4000 HZ SCT210 04/M02 Q1019,OPPS,2019-01-15T01:30:00Z,34.02,71.52,4.0,-2.0,230,4,,2.49,30.088583,,,,,,,,,,HZ,SCT,21000,,,,,,,IFR,,,,,,,,,,,,METAR,360.0
SPZO 150130Z /////KT 9999 SCT046 BKN080 13/06 Q1031 NOSIG RMK BIRD HAZARD RWY 28,SPZO,2019-01-15T01:30:00Z,-13.55,-71.97,13.0,6.0,,,,6.21,30.442913,,,,,,TRUE,,,,,SCT,4600,BKN,8000,,,,,VFR,,,,,,,,,,,,METAR,3249.0
KJNX 150130Z AUTO 00000KT 10SM CLR 00/00 A3021 RMK AO2,KJNX,2019-01-15T01:30:00Z,35.53,-78.38,0.0,0.0,0,0,,10.0,30.209646,,,TRUE,TRUE,,,,,,,CLR,,,,,,,,VFR,,,,,,,,,,,,METAR,50.0
KIXA 150130Z AUTO 34004KT 10SM OVC085 00/00 A3021 RMK AO2,KIXA,2019-01-15T01:30:00Z,36.33,-77.63,0.0,0.0,340,4,,10.0,30.209646,,,TRUE,TRUE,,,,,,,OVC,8500,,,,,,,VFR,,,,,,,,,,,,METAR,44.0
KIPJ 150130Z AUTO 00000KT 10SM SCT027 OVC034 05/03 A3018 RMK AO2 T00460031,KIPJ,2019-01-15T01:30:00Z,35.48,-81.17,4.6,3.1,0,0,,10.0,30.180119,,,TRUE,TRUE,,,,,,,SCT,2700,OVC,3400,,,,,VFR,,,,,,,,,,,,METAR,267.0
K2G4 150130Z AUTO 28003KT 1/4SM OVC001 A3009 RMK AO1,K2G4,2019-01-15T01:30:00Z,39.58,-79.33,,,280,3,,0.25,30.088583,,,TRUE,TRUE,,,,,,,OVC,100,,,,,,,LIFR,,,,,,,,,,,,SPECI,894.0
VDPP 150130Z 02005KT 340V070 CAVOK 26/19 Q1011,VDPP,2019-01-15T01:30:00Z,11.55,104.83,26.0,19.0,20,5,,6.21,29.852362,,,,,,,,,,,CAVOK,,,,,,,,VFR,,,,,,,,,,,,METAR,10.0
FMEP 150130Z AUTO 02007KT CAVOK 25/18 Q1015,FMEP,2019-01-15T01:30:00Z,-21.32,55.42,25.0,18.0,20,7,,6.21,29.970472,,,TRUE,,,,,,,,CAVOK,,,,,,,,VFR,,,,,,,,,,,,METAR,18.0
FMEE 150130Z AUTO 12010KT 9999 ///TCU 26/19 Q1015 TEMPO SHRA BECMG FEW020 SCT060,FMEE,2019-01-15T01:30:00Z,-20.87,55.52,26.0,19.0,120,10,,6.21,29.970472,,,TRUE,,,,,,,,,,,,,,,,,,,,,,,,,,,,METAR,25.0
VYYY 150130Z 35002KT 7000 NSC 22/20 Q1014,VYYY,2019-01-15T01:30:00Z,16.9,96.13,22.0,20.0,350,2,,4.35,29.940945,,,,,,,,,,,CLR,,,,,,,,MVFR,,,,,,,,,,,,METAR,33.0
VYMD 150130Z 00000KT 5000 BR BKN020 SCT120 15/13 Q1014,VYMD,2019-01-15T01:30:00Z,21.7,95.98,15.0,13.0,0,0,,3.11,29.940945,,,,,,,,,,BR,BKN,2000,SCT,12000,,,,,MVFR,,,,,,,,,,,,METAR,91.0
VLVT 150130Z 12004KT 5000 BR SCT020 BKN040 23/19 Q1015 NOSIG,VLVT,2019-01-15T01:30:00Z,17.98,102.57,23.0,19.0,120,4,,3.11,29.970472,,,,,,TRUE,,,,BR,SCT,2000,BKN,4000,,,,,MVFR,,,,,,,,,,,,METAR,171.0
VDSV 150130Z VRB02KT 9999 FEW015 26/25 Q1012,VDSV,2019-01-15T01:30:00Z,10.58,103.63,26.0,25.0,0,2,,6.21,29.88189,,,,,,,,,,,FEW,1500,,,,,,,VFR,,,,,,,,,,,,METAR,10.0
VDSR 150130Z 08004KT 9999 FEW020 25/19 Q1012,VDSR,2019-01-15T01:30:00Z,13.42,103.83,25.0,19.0,80,4,,6.21,29.88189,,,,,,,,,,,FEW,2000,,,,,,,VFR,,,,,,,,,,,,METAR,15.0
LRCV 150130Z 27010KT CAVOK M01/M05 Q1002,LRCV,2019-01-15T01:30:00Z,44.32,23.88,-1.0,-5.0,270,10,,6.21,29.586615,,,,,,,,,,,CAVOK,,,,,,,,VFR,,,,,,,,,,,,METAR,191.0
UEEE 150130Z 32001MPS 0350 0200NE R23L/0225N FG NSC M45/M50 Q1025 R23L/490150 NOSIG RMK QFE760,UEEE,2019-01-15T01:30:00Z,62.08,129.77,-45.0,-50.0,320,2,,0.22,30.265747,,,,,,TRUE,,,,FG,CLR,,,,,,,,LIFR,,,,,,,,,,,,METAR,103.0
WAHS 150130Z 28006KT 6000 FEW013CB FEW014 30/24 Q1009 CB TO N,WAHS,2019-01-15T01:30:00Z,-6.98,110.38,30.0,24.0,280,6,,3.73,29.793306,,,,,,,,,,,FEW,1300,FEW,1400,,,,,MVFR,,,,,,,,,,,,METAR,5.0
LFRZ 150130Z AUTO VRB02KT 9999 OVC036 08/02 Q1026 NOSIG,LFRZ,2019-01-15T01:30:00Z,47.32,-2.17,8.0,2.0,0,2,,6.21,30.295275,,,TRUE,,,TRUE,,,,,OVC,3600,,,,,,,VFR,,,,,,,,,,,,METAR,4.0
VAAH 150130Z 05005KT 3000 HZ NSC 12/05 Q1018 TEMPO 2000,VAAH,2019-01-15T01:30:00Z,23.07,72.62,12.0,5.0,50,5,,1.86,30.059055,,,,,,,,,,HZ,CLR,,,,,,,,IFR,,,,,,,,,,,,SPECI,55.0
VOMM 150130Z VRB02KT 1000 R25/1600 R07/1800 MIFG SCT018 20/19 Q1015 NOSIG,VOMM,2019-01-15T01:30:00Z,13.0,80.17,20.0,19.0,0,2,,0.62,29.970472,,,,,,TRUE,,,,MIFG,SCT,1800,,,,,,,LIFR,,,,,,,,,,,,METAR,16.0
VOCL 150130Z 06004KT 3000 BR FEW080 21/19 Q1012 NOSIG,VOCL,2019-01-15T01:30:00Z,11.13,75.95,21.0,19.0,60,4,,1.86,29.88189,,,,,,TRUE,,,,BR,FEW,8000,,,,,,,IFR,,,,,,,,,,,,METAR,104.0
VABP 150130Z 05004KT 3000 HZ NSC 08/06 Q1020 TEMPO 2000 HZ,VABP,2019-01-15T01:30:00Z,23.27,77.33,8.0,6.0,50,4,,1.86,30.11811,,,,,,,,,,HZ,CLR,,,,,,,,IFR,,,,,,,,,,,,METAR,523.0
VOTP 150130Z 28003KT 1200 BR SCT020 17/15 Q1015,VOTP,2019-01-15T01:30:00Z,13.63,79.55,17.0,15.0,280,3,,0.75,29.970472,,,,,,,,,,BR,SCT,2000,,,,,,,LIFR,,,,,,,,,,,,METAR,107.0
LRTR 150130Z 31009KT CAVOK M02/M04 Q1008 R11/19//95,LRTR,2019-01-15T01:30:00Z,45.82,21.33,-2.0,-4.0,310,9,,6.21,29.763779,,,,,,,,,,,CAVOK,,,,,,,,VFR,,,,,,,,,,,,SPECI,88.0
LRSB 150130Z 32006KT 1500 SN BR FEW007 OVC022 M02/M03 Q1003 R27/690194,LRSB,2019-01-15T01:30:00Z,45.78,24.08,-2.0,-3.0,320,6,,0.93,29.616142,,,,,,,,,,SN BR,FEW,700,OVC,2200,,,,,LIFR,,,,,,,,,,,,METAR,444.0
LROP 150130Z 26006KT CAVOK M03/M04 Q0999 R26L/19//95 R26R/19//95 NOSIG,LROP,2019-01-15T01:30:00Z,44.57,26.1,-3.0,-4.0,260,6,,6.21,29.498032,,,,,,TRUE,,,,,CAVOK,,,,,,,,VFR,,,,,,,,,,,,SPECI,95.0
LRCK 150130Z 26012KT CAVOK 01/00 Q0999 NOSIG,LRCK,2019-01-15T01:30:00Z,44.37,28.48,1.0,0.0,260,12,,6.21,29.498032,,,,,,TRUE,,,,,CAVOK,,,,,,,,VFR,,,,,,,,,,,,METAR,108.0
LRBS 150130Z 28004KT 250V310 CAVOK M02/M02 Q1000 R07/19//95 NOSIG,LRBS,2019-01-15T01:30:00Z,44.5,26.08,-2.0,-2.0,280,4,,6.21,29.52756,,,,,,TRUE,,,,,CAVOK,,,,,,,,VFR,,,,,,,,,,,,SPECI,91.0
LRTM 150130Z AUTO 30012KT 9999 OVC065/// M01/M07 Q1003,LRTM,2019-01-15T01:30:00Z,46.47,24.42,-1.0,-7.0,300,12,,6.21,29.616142,,,TRUE,,,,,,,,OVC,6500,,,,,,,VFR,,,,,,,,,,,,METAR,309.0
LRSM 150130Z AUTO 32009KT 9000 -SN NCD M03/M07 Q1006,LRSM,2019-01-15T01:30:00Z,47.7,22.88,-3.0,-7.0,320,9,,5.59,29.704725,,,TRUE,,,,,,,-SN,CLR,,,,,,,,VFR,,,,,,,,,,,,METAR,124.0
LROD 150130Z AUTO 04008KT 010V070 9999 -SHSN SCT033/// BKN039/// M01/M04 Q1008,LROD,2019-01-15T01:30:00Z,47.03,21.92,-1.0,-4.0,40,8,,6.21,29.763779,,,TRUE,,,,,,,-SHSN,SCT,3300,BKN,3900,,,,,VFR,,,,,,,,,,,,METAR,140.0
LRCL 150130Z 27012KT CAVOK M02/M06 Q1004 R07/29//95,LRCL,2019-01-15T01:30:00Z,46.78,23.68,-2.0,-6.0,270,12,,6.21,29.64567,,,,,,,,,,,CAVOK,,,,,,,,VFR,,,,,,,,,,,,METAR,413.0
LRBM 150130Z AUTO 28005KT 9999 FEW120/// SCT230/// M03/M06 Q1005,LRBM,2019-01-15T01:30:00Z,47.67,23.47,-3.0,-6.0,280,5,,6.21,29.675198,,,TRUE,,,,,,,,FEW,12000,SCT,23000,,,,,VFR,,,,,,,,,,,,METAR,185.0
LRAR 150130Z AUTO 32013KT 9999 NCD M02/M04 Q1008,LRAR,2019-01-15T01:30:00Z,46.18,21.27,-2.0,-4.0,320,13,,6.21,29.763779,,,TRUE,,,,,,,,CLR,,,,,,,,VFR,,,,,,,,,,,,METAR,118.0
LRTC 150130Z AUTO 32011KT 9999 BKN060/// 02/M01 Q0999,LRTC,2019-01-15T01:30:00Z,45.07,28.72,2.0,-1.0,320,11,,6.21,29.498032,,,TRUE,,,,,,,,BKN,6000,,,,,,,VFR,,,,,,,,,,,,METAR,6.0
LRSV 150130Z 33016KT CAVOK M02/M07 Q0999 R16/590194,LRSV,2019-01-15T01:30:00Z,47.68,26.35,-2.0,-7.0,330,16,,6.21,29.498032,,,,,,,,,,,CAVOK,,,,,,,,VFR,,,,,,,,,,,,METAR,351.0
LRIA 150130Z 33009KT CAVOK 00/M06 Q1001 R14/29//95,LRIA,2019-01-15T01:30:00Z,47.17,27.62,0.0,-6.0,330,9,,6.21,29.557087,,,,,,,,,,,CAVOK,,,,,,,,VFR,,,,,,,,,,,,METAR,104.0
URML 150130Z 20003MPS 9999 NSC M00/M02 Q1008 R14/010070 NOSIG RMK QFE756/1008,URML,2019-01-15T01:30:00Z,42.82,47.65,0.0,-2.0,200,6,,6.21,29.763779,,,,,,TRUE,,,,,CLR,,,,,,,,VFR,,,,,,,,,,,,METAR,4.0
URMG 150130Z 28002MPS 1100 R26/P2000N BR OVC002 M01/M01 Q1006 R26/190060 NOSIG RMK QBB060 MT OBSC OBST OBSC QFE740/0987,URMG,2019-01-15T01:30:00Z,43.37,45.7,-1.0,-1.0,280,4,,0.68,29.704725,,,,,,TRUE,,,,BR,OVC,200,,,,,,,LIFR,,,,,,,,,,,,METAR,263.0
URKK 150130Z 23002MPS 180V260 9000 -RA OVC034 05/04 Q1003 R23L/290257 TEMPO 1000 -SHRA BR SCT004 BKN020CB RMK QFE749,URKK,2019-01-15T01:30:00Z,45.03,39.15,5.0,4.0,230,4,,5.59,29.616142,,,,,,,,,,-RA,OVC,3400,,,,,,,VFR,,,,,,,,,,,,METAR,34.0
URKA 150130Z AUTO 21007MPS 9999 // NCD 07/04 Q1002 RMK QFE748/0997,URKA,2019-01-15T01:30:00Z,45.0,37.35,7.0,4.0,210,14,,6.21,29.586615,,,TRUE,,,,,,,,CLR,,,,,,,,VFR,,,,,,,,,,,,METAR,53.0
USHH 150130Z 27005MPS CAVOK M15/M17 Q1004 R24/420345 NOSIG RMK QFE749,USHH,2019-01-15T01:30:00Z,61.03,69.08,-15.0,-17.0,270,10,,6.21,29.64567,,,,,,TRUE,,,,,CAVOK,,,,,,,,VFR,,,,,,,,,,,,METAR,23.0
USTR 150130Z 24004MPS CAVOK M17/M19 Q1011 R30/390047 NOSIG RMK QFE748/0998,USTR,2019-01-15T01:30:00Z,57.17,65.32,-17.0,-19.0,240,8,,6.21,29.852362,,,,,,TRUE,,,,,CAVOK,,,,,,,,VFR,,,,,,,,,,,,METAR,115.0
UNTT 150130Z 17004MPS CAVOK M10/M15 Q1016 R21/390140 NOSIG RMK QFE747,UNTT,2019-01-15T01:30:00Z,56.38,85.22,-10.0,-15.0,170,8,,6.21,30.0,,,,,,TRUE,,,,,CAVOK,,,,,,,,VFR,,,,,,,,,,,,METAR,182.0
UNOO 150130Z 00000MPS 6000 -SHSN BKN014 BKN033CB M08/M09 Q1009 R25/390135 NOSIG RMK QFE748,UNOO,2019-01-15T01:30:00Z,54.97,73.32,-8.0,-9.0,0,0,,3.73,29.793306,,,,,,TRUE,,,,-SHSN,BKN,1400,BKN,3300,,,,,MVFR,,,,,,,,,,,,METAR,95.0
UNNT 150130Z 17005MPS CAVOK M13/M16 Q1017 R25/390140 R34/390137 NOSIG RMK QFE753/1004,UNNT,2019-01-15T01:30:00Z,55.02,82.63,-13.0,-16.0,170,10,,6.21,30.029528,,,,,,TRUE,,,,,CAVOK,,,,,,,,VFR,,,,,,,,,,,,METAR,111.0
UNKL 150130Z 28001MPS CAVOK M18/M20 Q1023 R29/390135 NOSIG RMK QFE742,UNKL,2019-01-15T01:30:00Z,56.17,92.48,-18.0,-20.0,280,2,,6.21,30.206694,,,,,,TRUE,,,,,CAVOK,,,,,,,,VFR,,,,,,,,,,,,METAR,276.0
UNEE 150130Z 15004MPS CAVOK M15/M17 Q1018 R23/851034 NOSIG RMK QFE741,UNEE,2019-01-15T01:30:00Z,55.27,86.08,-15.0,-17.0,150,8,,6.21,30.059055,,,,,,TRUE,,,,,CAVOK,,,,,,,,VFR,,,,,,,,,,,,METAR,260.0
UNBB 150130Z 16005MPS CAVOK M13/M15 Q1018 R24/390135 NOSIG RMK QFE741,UNBB,2019-01-15T01:30:00Z,53.37,83.53,-13.0,-15.0,160,10,,6.21,30.059055,,,,,,TRUE,,,,,CAVOK,,,,,,,,VFR,,,,,,,,,,,,METAR,255.0
UNAA 150130Z 20001MPS 1100 1000W R20/1400N BR FU FEW003 M27/M30 Q1028 R20/810257 TEMPO 0500 FZFG RMK QFE748,UNAA,2019-01-15T01:30:00Z,53.75,91.4,-27.0,-30.0,200,2,,0.68,30.35433,,,,,,,,,,FU BR,FEW,300,,,,,,,LIFR,,,,,,,,,,,,METAR,245.0
UWWW 150130Z 18004MPS 130V220 3300 BR OVC005 M08/M09 Q1009 R15/410240 NOSIG RMK QFE745/0994,UWWW,2019-01-15T01:30:00Z,53.5,50.17,-8.0,-9.0,180,8,,2.05,29.793306,,,,,,TRUE,,,,BR,OVC,500,,,,,,,IFR,,,,,,,,,,,,METAR,146.0
UWOO 150130Z 25002MPS 220V280 5000 BR OVC005 M09/M10 Q1015 R26/820550 NOSIG RMK QBB150 QFE751/1001,UWOO,2019-01-15T01:30:00Z,51.8,55.47,-9.0,-10.0,250,4,,3.11,29.970472,,,,,,TRUE,,,,BR,OVC,500,,,,,,,IFR,,,,,,,,,,,,METAR,109.0
UWKS 150130Z 20007MPS 9999 DRSN SCT010 M06/M08 Q1002 R24/820345 NOSIG RMK QFE737,UWKS,2019-01-15T01:30:00Z,56.08,47.35,-6.0,-8.0,200,14,,6.21,29.586615,,,,,,TRUE,,,,DRSN,SCT,1000,,,,,,,VFR,,,,,,,,,,,,METAR,170.0
UWKE 150130Z 21009MPS 9999 DRSN FEW026 M10/M12 Q1007 R21/410340 NOSIG RMK QFE738/0984,UWKE,2019-01-15T01:30:00Z,55.57,52.08,-10.0,-12.0,210,17,,6.21,29.734253,,,,,,TRUE,,,,DRSN,FEW,2600,,,,,,,VFR,,,,,,,,,,,,METAR,196.0
UWKD 150130Z 17005G10MPS 9999 DRSN BKN009 M08/M10 Q1005 R11/810045 NOSIG RMK QFE744/0992,UWKD,2019-01-15T01:30:00Z,55.62,49.28,-8.0,-10.0,170,10,19,6.21,29.675198,,,,,,TRUE,,,,DRSN,BKN,900,,,,,,,IFR,,,,,,,,,,,,METAR,126.0
USPP 150130Z 20004MPS CAVOK M08/M11 Q1008 R21/420155 NOSIG RMK QFE745,USPP,2019-01-15T01:30:00Z,57.92,56.02,-8.0,-11.0,200,8,,6.21,29.763779,,,,,,TRUE,,,,,CAVOK,,,,,,,,VFR,,,,,,,,,,,,METAR,123.0
USSS 150130Z 15002MPS 8000 -SN SCT033 M15/M16 Q1011 R26R/820350 NOSIG RMK QFE737/0983,USSS,2019-01-15T01:30:00Z,56.75,60.82,-15.0,-16.0,150,4,,4.97,29.852362,,,,,,TRUE,,,,-SN,SCT,3300,,,,,,,MVFR,,,,,,,,,,,,METAR,233.0
USRR 150130Z 23004MPS 4500 -SHSN SCT017CB SCT031 M08/M09 Q1001 R25/452034 TEMPO 1000 SHSN BKN005 BKN015CB RMK OBST OBSC QFE745,USRR,2019-01-15T01:30:00Z,61.33,73.42,-8.0,-9.0,230,8,,2.8,29.557087,,,,,,,,,,-SHSN,SCT,1700,SCT,3100,,,,,IFR,,,,,,,,,,,,METAR,44.0
USNN 150130Z 21006MPS 9000 DRSN BKN026 M07/M10 Q1002 R21/420232 NOSIG RMK QFE747,USNN,2019-01-15T01:30:00Z,60.95,76.48,-7.0,-10.0,210,12,,5.59,29.586615,,,,,,TRUE,,,,DRSN,BKN,2600,,,,,,,MVFR,,,,,,,,,,,,METAR,54.0
USCC 150130Z 00000MPS 3900 BR FU NSC M17/M19 Q1012 R27/350040 TEMPO 0300 FZFG RMK QFE739,USCC,2019-01-15T01:30:00Z,55.3,61.5,-17.0,-19.0,0,0,,2.42,29.88189,,,,,,,,,,BR FU,CLR,,,,,,,,IFR,,,,,,,,,,,,METAR,234.0
UWUU 150130Z 19004MPS 4500 BR BKN020 M14/M15 Q1013 R14R/0///60 TEMPO 1000 BR RMK QFE750/1000,UWUU,2019-01-15T01:30:00Z,54.57,55.87,-14.0,-15.0,190,8,,2.8,29.911417,,,,,,,,,,BR,BKN,2000,,,,,,,IFR,,,,,,,,,,,,METAR,137.0
UWGG 150130Z 18006MPS 9999 -SN OVC012 M03/M08 Q0997 R18L/490332 NOSIG,UWGG,2019-01-15T01:30:00Z,56.23,43.78,-3.0,-8.0,180,12,,6.21,29.438976,,,,,,TRUE,,,,-SN,OVC,1200,,,,,,,MVFR,,,,,,,,,,,,METAR,73.0
UUOB 150130Z 18006MPS 7000 -SN OVC005 00/00 Q0992 R11/590531 NOSIG,UUOB,2019-01-15T01:30:00Z,50.65,36.58,0.0,0.0,180,12,,4.35,29.291338,,,,,,TRUE,,,,-SN,OVC,500,,,,,,,IFR,,,,,,,,,,,,METAR,224.0
UUOL 150130Z 17005MPS 9000 DRSN OVC008 M02/M02 Q0994 R15/850342 TEMPO 1000 FZDZ BR OVC004,UUOL,2019-01-15T01:30:00Z,52.7,39.53,-2.0,-2.0,170,10,,5.59,29.350393,,,,,,,,,,DRSN,OVC,800,,,,,,,IFR,,,,,,,,,,,,METAR,176.0
UUWW 150130Z 14005MPS 4300 -SN OVC006 M02/M04 Q0987 R06/550340 NOSIG,UUWW,2019-01-15T01:30:00Z,55.6,37.27,-2.0,-4.0,140,10,,2.67,29.143702,,,,,,TRUE,,,,-SN,OVC,600,,,,,,,IFR,,,,,,,,,,,,METAR,203.0
VOGO 150130Z 07006KT 6000 NSC 21/18 Q1013 NOSIG,VOGO,2019-01-15T01:30:00Z,15.38,73.83,21.0,18.0,70,6,,3.73,29.911417,,,,,,TRUE,,,,,CLR,,,,,,,,MVFR,,,,,,,,,,,,METAR,52.0
VOGO 150130Z 07006KT 6000 NSC 21/18 Q1013 NOSIG,VOGO,2019-01-15T01:30:00Z,15.38,73.83,21.0,18.0,70,6,,3.73,29.911417,,,,,,TRUE,,,,,CLR,,,,,,,,MVFR,,,,,,,,,,,,METAR,52.0
VEPT 150130Z 00000KT 3000 HZ NSC 08/05 Q1017 NOSIG,VEPT,2019-01-15T01:30:00Z,25.6,85.08,8.0,5.0,0,0,,1.86,30.029528,,,,,,TRUE,,,,HZ,CLR,,,,,,,,IFR,,,,,,,,,,,,METAR,60.0
VOVZ 150130Z VRB02KT 1200 BR NSC 15/14 Q1015 NOSIG,VOVZ,2019-01-15T01:30:00Z,17.75,83.22,15.0,14.0,0,2,,0.75,29.970472,,,,,,TRUE,,,,BR,CLR,,,,,,,,LIFR,,,,,,,,,,,,METAR,5.0
WAAA 150130Z 10005KT 9999 -RA FEW018CB SCT019 28/26 Q1009 NOSIG,WAAA,2019-01-15T01:30:00Z,-5.07,119.53,28.0,26.0,100,5,,6.21,29.793306,,,,,,TRUE,,,,-RA,FEW,1800,SCT,1900,,,,,VFR,,,,,,,,,,,,METAR,14.0
LEAL 150130Z 32002KT CAVOK 07/01 Q1020 NOSIG,LEAL,2019-01-15T01:30:00Z,38.27,-0.55,7.0,1.0,320,2,,6.21,30.11811,,,,,,TRUE,,,,,CAVOK,,,,,,,,VFR,,,,,,,,,,,,METAR,31.0
FOOL 150130Z 22004KT 190V250 9000 SCT014 SCT022 28/25 Q1011 NOSIG,FOOL,2019-01-15T01:30:00Z,0.45,9.42,28.0,25.0,220,4,,5.59,29.852362,,,,,,TRUE,,,,,SCT,1400,SCT,2200,,,,,VFR,,,,,,,,,,,,METAR,15.0
VGHS 150130Z 25006KT 1500 BR NSC 16/13 Q1017 TEMPO S/VIS 1200M,VGHS,2019-01-15T01:30:00Z,23.85,90.4,16.0,13.0,250,6,,0.93,30.029528,,,,,,,,,,BR,CLR,,,,,,,,LIFR,,,,,,,,,,,,METAR,10.0
UKDR 150130Z 26004MPS 9999 OVC030 01/M01 Q0996 R18/890532 NOSIG,UKDR,2019-01-15T01:30:00Z,48.05,33.22,1.0,-1.0,260,8,,6.21,29.409449,,,,,,TRUE,,,,,OVC,3000,,,,,,,MVFR,,,,,,,,,,,,SPECI,124.0
UKLL 150130Z 28006MPS 9999 SCT029CB BKN029 M04/M07 Q1000 R31/491028 NOSIG,UKLL,2019-01-15T01:30:00Z,49.82,23.93,-4.0,-7.0,280,12,,6.21,29.52756,,,,,,TRUE,,,,,SCT,2900,BKN,2900,,,,,MVFR,,,,,,,,,,,,METAR,325.0
UKDD 150130Z 23006MPS 8000 -SHSN BKN006 BKN015CB 01/M00 Q0995 R08/811056 NOSIG,UKDD,2019-01-15T01:30:00Z,48.37,35.1,1.0,0.0,230,12,,4.97,29.379921,,,,,,TRUE,,,,-SHSN,BKN,600,BKN,1500,,,,,IFR,,,,,,,,,,,,SPECI,149.0
UKOO 150130Z 29004MPS CAVOK 01/M01 Q0998 R34/190056 NOSIG,UKOO,2019-01-15T01:30:00Z,46.42,30.68,1.0,-1.0,290,8,,6.21,29.468504,,,,,,TRUE,,,,,CAVOK,,,,,,,,VFR,,,,,,,,,,,,METAR,35.0
UKHH 150130Z 20006MPS 9000 -RASN BKN007 OVC017 01/M00 Q0993 R07/550245 NOSIG,UKHH,2019-01-15T01:30:00Z,49.92,36.28,1.0,0.0,200,12,,5.59,29.320866,,,,,,TRUE,,,,-RA -SN,BKN,700,OVC,1700,,,,,IFR,,,,,,,,,,,,SPECI,155.0
UKBB 150130Z 26005MPS CAVOK M03/M07 Q0994 R88/451035 NOSIG,UKBB,2019-01-15T01:30:00Z,50.33,30.9,-3.0,-7.0,260,10,,6.21,29.350393,,,,,,TRUE,,,,,CAVOK,,,,,,,,VFR,,,,,,,,,,,,METAR,119.0
DAUH 150130Z 20007KT CAVOK 03/M06 Q1018,DAUH,2019-01-15T01:30:00Z,31.67,6.15,3.0,-6.0,200,7,,6.21,30.059055,,,,,,,,,,,CAVOK,,,,,,,,VFR,,,,,,,,,,,,METAR,142.0
DAOO 150130Z 00000KT CAVOK 04/M02 Q1019,DAOO,2019-01-15T01:30:00Z,35.62,-0.6,4.0,-2.0,0,0,,6.21,30.088583,,,,,,,,,,,CAVOK,,,,,,,,VFR,,,,,,,,,,,,METAR,90.0
DAON 150130Z 00000KT CAVOK 03/M04 Q1020,DAON,2019-01-15T01:30:00Z,35.02,-1.47,3.0,-4.0,0,0,,6.21,30.11811,,,,,,,,,,,CAVOK,,,,,,,,VFR,,,,,,,,,,,,METAR,247.0
DABC 150130Z 27006KT 9999 FEW020 BKN026 07/03 Q1019,DABC,2019-01-15T01:30:00Z,36.27,6.62,7.0,3.0,270,6,,6.21,30.088583,,,,,,,,,,,FEW,2000,BKN,2600,,,,,MVFR,,,,,,,,,,,,METAR,694.0
DABB 150130Z 32014KT 280V350 9999 FEW020 BKN033 14/08 Q1017,DABB,2019-01-15T01:30:00Z,36.82,7.82,14.0,8.0,320,14,,6.21,30.029528,,,,,,,,,,,FEW,2000,BKN,3300,,,,,VFR,,,,,,,,,,,,METAR,4.0
DAAG 150130Z 20003KT 9999 FEW020 03/03 Q1021,DAAG,2019-01-15T01:30:00Z,36.72,3.22,3.0,3.0,200,3,,6.21,30.147638,,,,,,,,,,,FEW,2000,,,,,,,VFR,,,,,,,,,,,,METAR,25.0
VOHS 150130Z VRB02KT 3000 BR NSC 16/15 Q1019 TEMPO 1500,VOHS,2019-01-15T01:30:00Z,17.23,78.43,16.0,15.0,0,2,,1.86,30.088583,,,,,,,,,,BR,CLR,,,,,,,,IFR,,,,,,,,,,,,METAR,1.0
VANP 150130Z 00000KT 2500 HZ NSC 14/07 Q1019 NOSIG,VANP,2019-01-15T01:30:00Z,21.08,79.05,14.0,7.0,0,0,,1.55,30.088583,,,,,,TRUE,,,,HZ,CLR,,,,,,,,IFR,,,,,,,,,,,,METAR,310.0
ZYTX 150130Z 33004MPS 300V020 CAVOK M12/M24 Q1033 NOSIG,ZYTX,2019-01-15T01:30:00Z,41.63,123.48,-12.0,-24.0,330,8,,6.21,30.501968,,,,,,TRUE,,,,,CAVOK,,,,,,,,VFR,,,,,,,,,,,,METAR,35.0
ZYTL 150130Z 35008G15MPS 290V030 9999 SCT040 M07/M17 Q1034 WS RWY28 NOSIG,ZYTL,2019-01-15T01:30:00Z,38.97,121.53,-7.0,-17.0,350,16,29,6.21,30.531496,,,,,,TRUE,,,,,SCT,4000,,,,,,,VFR,,,,,,,,,,,,SPECI,97.0
ZWWW 150130Z 29002MPS 1200 R25/P2000N -SN BR BKN011 M19/M21 Q1028 NOSIG,ZWWW,2019-01-15T01:30:00Z,43.88,87.47,-19.0,-21.0,290,4,,0.75,30.35433,,,,,,TRUE,,,,-SN BR,BKN,1100,,,,,,,LIFR,,,,,,,,,,,,METAR,654.0
ZSSS 150130Z 36006MPS 3000 -RA BR BKN013 07/05 Q1028 BECMG TL0230 BKN015,ZSSS,2019-01-15T01:30:00Z,31.2,121.33,7.0,5.0,360,12,,1.86,30.35433,,,,,,,,,,-RA BR,BKN,1300,,,,,,,IFR,,,,,,,,,,,,SPECI,7.0
ZSPD 150130Z 34007MPS 3000 BR SCT010 07/05 Q1028 NOSIG,ZSPD,2019-01-15T01:30:00Z,31.15,121.8,7.0,5.0,340,14,,1.86,30.35433,,,,,,TRUE,,,,BR,SCT,1000,,,,,,,IFR,,,,,,,,,,,,METAR,4.0
ZSHC 150130Z 03004MPS 1600 -RA BR SCT003 BKN005 BKN017 07/07 Q1028 NOSIG,ZSHC,2019-01-15T01:30:00Z,30.22,120.43,7.0,7.0,30,8,,0.99,30.35433,,,,,,TRUE,,,,-RA BR,SCT,300,BKN,500,BKN,1700,,,LIFR,,,,,,,,,,,,METAR,43.0
ZBYN 150130Z 34008MPS CAVOK M09/M29 Q1036 NOSIG,ZBYN,2019-01-15T01:30:00Z,37.77,112.63,-9.0,-29.0,340,16,,6.21,30.590551,,,,,,TRUE,,,,,CAVOK,,,,,,,,VFR,,,,,,,,,,,,METAR,779.0
ZBTJ 150130Z 35011MPS CAVOK M06/M25 Q1040 NOSIG,ZBTJ,2019-01-15T01:30:00Z,39.12,117.35,-6.0,-25.0,350,21,,6.21,30.708662,,,,,,TRUE,,,,,CAVOK,,,,,,,,VFR,,,,,,,,,,,,METAR,3.0
ZBAA 150130Z 33010MPS CAVOK M06/M27 Q1042 NOSIG,ZBAA,2019-01-15T01:30:00Z,40.07,116.58,-6.0,-27.0,330,19,,6.21,30.767717,,,,,,TRUE,,,,,CAVOK,,,,,,,,VFR,,,,,,,,,,,,METAR,30.0
LEPA 150130Z 06003KT CAVOK 05/05 Q1020 NOSIG,LEPA,2019-01-15T01:30:00Z,39.53,2.72,5.0,5.0,60,3,,6.21,30.11811,,,,,,TRUE,,,,,CAVOK,,,,,,,,VFR,,,,,,,,,,,,METAR,8.0
LESB 150130Z AUTO 35005KT 9999 FEW024/// 06/05 Q1021,LESB,2019-01-15T01:30:00Z,39.6,2.7,6.0,5.0,350,5,,6.21,30.147638,,,TRUE,,,,,,,,FEW,2400,,,,,,,VFR,,,,,,,,,,,,METAR,48.0
UHMM 150130Z 11002MPS 9999 NSC M31/M34 Q1018 R10/82//45 NOSIG RMK QFE749,UHMM,2019-01-15T01:30:00Z,59.92,150.72,-31.0,-34.0,110,4,,6.21,30.059055,,,,,,TRUE,,,,,CLR,,,,,,,,VFR,,,,,,,,,,,,METAR,175.0
UDSG 150130Z 20001KT 4000 BR BKN033 M09/M10 Q1011 R02/420160 NOSIG,UDSG,2019-01-15T01:30:00Z,40.75,43.87,-9.0,-10.0,200,1,,2.49,29.852362,,,,,,TRUE,,,,BR,BKN,3300,,,,,,,IFR,,,,,,,,,,,,METAR,1524.0
UDYZ 150130Z 25002KT 1800 R09/P2000N BR BKN013 M02/M03 Q1015 R09/010070 NOSIG,UDYZ,2019-01-15T01:30:00Z,40.15,44.4,-2.0,-3.0,250,2,,1.12,29.970472,,,,,,TRUE,,,,BR,BKN,1300,,,,,,,IFR,,,,,,,,,,,,METAR,865.0
VQPR 150130Z 35003KT 9999 NSC M05/M07 Q1023,VQPR,2019-01-15T01:30:00Z,27.4,89.43,-5.0,-7.0,350,3,,6.21,30.206694,,,,,,,,,,,CLR,,,,,,,,VFR,,,,,,,,,,,,SPECI,2235.0
KHEQ 150130Z AUTO 32003KT 10SM CLR 00/M11 A3016 RMK AO2,KHEQ,2019-01-15T01:30:00Z,40.57,-102.28,0.0,-11.0,320,3,,10.0,30.159449,,,TRUE,TRUE,,,,,,,CLR,,,,,,,,VFR,,,,,,,,,,,,METAR,1137.0
KGNB 150130Z AUTO 00000KT 10SM CLR M16/M19 A3029 RMK AO2 T11561187,KGNB,2019-01-15T01:30:00Z,40.08,-105.92,-15.6,-18.7,0,0,,10.0,30.28937,,,TRUE,TRUE,,,,,,,CLR,,,,,,,,VFR,,,,,,,,,,,,METAR,2500.0
WALL 150130Z 02003KT 9999 SCT020 28/26 Q1010,WALL,2019-01-15T01:30:00Z,-1.27,116.9,28.0,26.0,20,3,,6.21,29.822834,,,,,,,,,,,SCT,2000,,,,,,,VFR,,,,,,,,,,,,METAR,3.0
UHSS 150130Z 18004MPS 4400 -SHSN BKN004 OVC016CB M01/M02 Q1013 R01/450350 NOSIG RMK QBB120 MT OBSC QFE758/1011,UHSS,2019-01-15T01:30:00Z,46.88,142.72,-1.0,-2.0,180,8,,2.73,29.911417,,,,,,TRUE,,,,-SHSN,BKN,400,OVC,1600,,,,,LIFR,,,,,,,,,,,,METAR,31.0
VTBU 150130Z 36004KT 1500 BR FEW020CB 26/23 Q1012 NOSIG,VTBU,2019-01-15T01:30:00Z,12.68,101.0,26.0,23.0,360,4,,0.93,29.88189,,,,,,TRUE,,,,BR,FEW,2000,,,,,,,LIFR,,,,,,,,,,,,METAR,5.0
UBBN 150130Z 10002KT 2000 BR BKN016 M01/M02 Q1014 R14R/CLRD// NOSIG RMK MT OBSC QFE685,UBBN,2019-01-15T01:30:00Z,39.18,45.45,-1.0,-2.0,100,2,,1.24,29.940945,,,,,,TRUE,,,,BR,BKN,1600,,,,,,,IFR,,,,,,,,,,,,METAR,873.0
UBBB 150130Z 18015KT 9999 SCT012 08/06 Q1008 R88/D NOSIG,UBBB,2019-01-15T01:30:00Z,40.45,50.07,8.0,6.0,180,15,,6.21,29.763779,,,,,,TRUE,,,,,SCT,1200,,,,,,,VFR,,,,,,,,,,,,METAR,-6.0
RJAA 150130Z VRB02KT 9999 FEW030 OVC/// 06/M01 Q1022 BECMG TL0300 16005KT RMK 1CU030 A3019,RJAA,2019-01-15T01:30:00Z,35.77,140.37,6.0,-1.0,0,2,,6.21,30.177166,,,,,,,,,,,FEW,3000,,,,,,,VFR,,,,,,,,,,,,METAR,44.0
ZMUB 150130Z VRB01MPS 4000NW FU NSC M30/M34 Q1031 NOSIG RMK QFE664.5 66 NW MO,ZMUB,2019-01-15T01:30:00Z,47.83,106.78,-30.0,-34.0,0,2,,2.49,30.442913,,,,,,TRUE,,,,FU,CLR,,,,,,,,IFR,,,,,,,,,,,,SPECI,1330.0
DTTJ 150130Z 26015KT CAVOK 13/03 Q1015 NOSIG,DTTJ,2019-01-15T01:30:00Z,33.87,10.77,13.0,3.0,260,15,,6.21,29.970472,,,,,,TRUE,,,,,CAVOK,,,,,,,,VFR,,,,,,,,,,,,METAR,4.0
DTNH 150130Z 32021G31KT CAVOK 14/05 Q1013,DTNH,2019-01-15T01:30:00Z,36.07,10.43,14.0,5.0,320,21,31,6.21,29.911417,,,,,,,,,,,CAVOK,,,,,,,,VFR,,,,,,,,,,,,METAR,2.0
DTMB 150130Z 30013KT 8000 NSC 14/07 Q1014,DTMB,2019-01-15T01:30:00Z,35.77,10.75,14.0,7.0,300,13,,4.97,29.940945,,,,,,,,,,,CLR,,,,,,,,MVFR,,,,,,,,,,,,METAR,2.0
DTTA 150130Z 29012KT 260V320 9999 FEW026 13/08 Q1014 NOSIG,DTTA,2019-01-15T01:30:00Z,36.85,10.22,13.0,8.0,290,12,,6.21,29.940945,,,,,,TRUE,,,,,FEW,2600,,,,,,,VFR,,,,,,,,,,,,METAR,4.0
UAAA 150130Z 22003MPS 2100 BR FU SCT100 BKN200 M05/M09 Q1011 R05L/91//60 R05R/91//50 NOSIG,UAAA,2019-01-15T01:30:00Z,43.35,77.03,-5.0,-9.0,220,6,,1.3,29.852362,,,,,,TRUE,,,,BR FU,SCT,10000,BKN,20000,,,,,IFR,,,,,,,,,,,,METAR,681.0
LJPZ 150130Z AUTO 14007KT 110V180 9999 NCD 01/M04 Q1013,LJPZ,2019-01-15T01:30:00Z,45.47,13.62,1.0,-4.0,140,7,,6.21,29.911417,,,TRUE,,,,,,,,CLR,,,,,,,,VFR,,,,,,,,,,,,METAR,2.0
LJMB 150130Z AUTO VRB01KT 9999 NCD M01/M05 Q1013,LJMB,2019-01-15T01:30:00Z,46.47,15.67,-1.0,-5.0,0,1,,6.21,29.911417,,,TRUE,,,,,,,,CLR,,,,,,,,VFR,,,,,,,,,,,,METAR,265.0
LJLJ 150130Z 34004KT 9999 FEW050 SCT060 00/M07 Q1012 NOSIG,LJLJ,2019-01-15T01:30:00Z,46.22,14.47,0.0,-7.0,340,4,,6.21,29.88189,,,,,,TRUE,,,,,FEW,5000,SCT,6000,,,,,VFR,,,,,,,,,,,,METAR,385.0
UAKD 150130Z 07004MPS 9999 SCT020 OVC100 M10/M11 Q1007 R04/820050 NOSIG RMK QFE722/0962,UAKD,2019-01-15T01:30:00Z,47.7,67.73,-10.0,-11.0,70,8,,6.21,29.734253,,,,,,TRUE,,,,,SCT,2000,OVC,10000,,,,,VFR,,,,,,,,,,,,METAR,381.0
UAUU 150130Z 03003MPS 0900 R33/1400D FZFG OVC002 M09/M10 Q1012 R33/850152 TEMPO 0400 FZFG VV002 RMK QBB060 QFE744/0992,UAUU,2019-01-15T01:30:00Z,53.2,63.55,-9.0,-10.0,30,6,,0.56,29.88189,,,,,,,,,,FZFG,OVC,200,,,,,,,LIFR,,,,,,,,,,,,METAR,182.0
UATT 150130Z 29003MPS 7000 OVC007 M09/M11 Q1014 R31/820240 NOSIG RMK QFE741/0988,UATT,2019-01-15T01:30:00Z,50.25,57.2,-9.0,-11.0,290,6,,4.35,29.940945,,,,,,TRUE,,,,,OVC,700,,,,,,,IFR,,,,,,,,,,,,METAR,227.0
UATG 150130Z 17003MPS 0250 R14/0700 FZFG VV001 M02/M02 Q1015 R14/19//65 NOSIG RMK QBB050 QFE763/1018,UATG,2019-01-15T01:30:00Z,47.12,51.83,-2.0,-2.0,170,6,,0.16,29.970472,,,,,,TRUE,,,,FZFG,OVX,0,,,,,,,LIFR,,,,,,,,,,,100,METAR,-22.0
UATE 150130Z 11007MPS 8000 OVC003 M01/M01 Q1013 R12/0///70 NOSIG RMK QBB110 QFE758/1010,UATE,2019-01-15T01:30:00Z,43.87,51.1,-1.0,-1.0,110,14,,4.97,29.911417,,,,,,TRUE,,,,,OVC,300,,,,,,,LIFR,,,,,,,,,,,,METAR,22.0
UARR 150130Z 14004MPS 0550 R22/1300U FZFG VV002 M10/M11 Q1012 R22/990235 TEMPO 0400 FZFG VV002 RMK QBB070 QFE756/1008,UARR,2019-01-15T01:30:00Z,51.15,51.53,-10.0,-11.0,140,8,,0.34,29.88189,,,,,,,,,,FZFG,OVX,0,,,,,,,LIFR,,,,,,,,,,,200,METAR,38.0
UASS 150130Z 13006G12MPS 100V170 CAVOK M05/M13 Q1018 R26/82//60 NOSIG RMK QFE745/0994,UASS,2019-01-15T01:30:00Z,50.35,80.23,-5.0,-13.0,130,12,23,6.21,30.059055,,,,,,TRUE,,,,,CAVOK,,,,,,,,VFR,,,,,,,,,,,,METAR,232.0
UASP 150130Z 17006MPS CAVOK M08/M10 Q1012 R21/390145 NOSIG RMK QFE748/0997,UASP,2019-01-15T01:30:00Z,52.2,77.07,-8.0,-10.0,170,12,,6.21,29.88189,,,,,,TRUE,,,,,CAVOK,,,,,,,,VFR,,,,,,,,,,,,METAR,125.0
UASK 150130Z 15006MPS 9999 SCT230 M03/M13 Q1018 R12/820250 NOSIG RMK QFE738/0984,UASK,2019-01-15T01:30:00Z,50.03,82.5,-3.0,-13.0,150,12,,6.21,30.059055,,,,,,TRUE,,,,,SCT,23000,,,,,,,VFR,,,,,,,,,,,,METAR,286.0
UAOO 150130Z 20002MPS 9000 -RA BKN033 01/M00 Q1007 NOSIG RMK QFE744/0992,UAOO,2019-01-15T01:30:00Z,44.7,65.6,1.0,0.0,200,4,,5.59,29.734253,,,,,,TRUE,,,,-RA,BKN,3300,,,,,,,VFR,,,,,,,,,,,,METAR,129.0
UAKK 150130Z 17009MPS CAVOK M04/M09 Q1008 R23/920555 NOSIG RMK QFE709/0946,UAKK,2019-01-15T01:30:00Z,49.67,73.33,-4.0,-9.0,170,17,,6.21,29.763779,,,,,,TRUE,,,,,CAVOK,,,,,,,,VFR,,,,,,,,,,,,METAR,538.0
UAII 150130Z 15003MPS 9999 BKN046CB OVC100 06/05 Q1009 R10/2///55 NOSIG RMK QFE722/0963,UAII,2019-01-15T01:30:00Z,42.37,69.48,6.0,5.0,150,6,,6.21,29.793306,,,,,,TRUE,,,,,BKN,4600,OVC,10000,,,,,VFR,,,,,,,,,,,,METAR,422.0
UACC 150130Z 19003MPS 7000 OVC004 M07/M08 Q1009 R22/35//60 NOSIG RMK QBB130 QFE726/0968,UACC,2019-01-15T01:30:00Z,51.02,71.47,-7.0,-8.0,190,6,,4.35,29.793306,,,,,,TRUE,,,,,OVC,400,,,,,,,LIFR,,,,,,,,,,,,METAR,355.0
UADD 150130Z 04003MPS 9999 SCT050CB OVC100 07/M01 Q1009 R13/0///65 NOSIG RMK QFE700/0933,UADD,2019-01-15T01:30:00Z,42.85,71.3,7.0,-1.0,40,6,,6.21,29.793306,,,,,,TRUE,,,,,SCT,5000,OVC,10000,,,,,VFR,,,,,,,,,,,,METAR,665.0
VTBS 150130Z 09006KT 060V160 3000 BR FEW013 SCT035 29/24 Q1012 BECMG TL0215 5000 BR,VTBS,2019-01-15T01:30:00Z,13.68,100.75,29.0,24.0,90,6,,1.86,29.88189,,,,,,,,,,BR,FEW,1300,SCT,3500,,,,,IFR,,,,,,,,,,,,SPECI,2.0
VTBD 150130Z 10006KT 3000 BR FEW020 SCT035 27/25 Q1013 BECMG TL0300 5000 BR,VTBD,2019-01-15T01:30:00Z,13.92,100.6,27.0,25.0,100,6,,1.86,29.911417,,,,,,,,,,BR,FEW,2000,SCT,3500,,,,,IFR,,,,,,,,,,,,METAR,3.0
LUKK 150130Z 31009KT 9999 BKN049 01/M03 Q0999 R08/590195 NOSIG,LUKK,2019-01-15T01:30:00Z,46.93,28.93,1.0,-3.0,310,9,,6.21,29.498032,,,,,,TRUE,,,,,BKN,4900,,,,,,,VFR,,,,,,,,,,,,METAR,122.0
CYZY 150130Z AUTO 00000KT 5SM HZ CLR RMK T MISG TD MISG DENSITY ALT MISG,CYZY,2019-01-15T01:30:00Z,55.28,-123.12,,,0,0,,5.0,,,,TRUE,,,,,,,HZ,CLR,,,,,,,,MVFR,,,,,,,,,,,,SPECI,690.0
WIBB 150130Z 00000KT 8000 FEW013 26/24 Q1010,WIBB,2019-01-15T01:30:00Z,0.47,101.45,26.0,24.0,0,0,,4.97,29.822834,,,,,,,,,,,FEW,1300,,,,,,,MVFR,,,,,,,,,,,,METAR,31.0
FMMI 150130Z 11008KT 9999 FEW008 BKN020 18/17 Q1021 NOSIG,FMMI,2019-01-15T01:30:00Z,-18.8,47.47,18.0,17.0,110,8,,6.21,30.147638,,,,,,TRUE,,,,,FEW,800,BKN,2000,,,,,MVFR,,,,,,,,,,,,METAR,1276.0
OPRN 150130Z 00000KT 4000 BR NSC 03/01 Q1019 TEMPO 2500 BR RMK A30010,OPRN,2019-01-15T01:30:00Z,33.62,73.08,3.0,1.0,0,0,,2.49,30.088583,,,,,,,,,,BR,CLR,,,,,,,,IFR,,,,,,,,,,,,SPECI,508.0
CYYL 150130Z AUTO 06008KT 1 1/4SM -SN OVC013 M23/M25 A2996 RMK SLP196,CYYL,2019-01-15T01:30:00Z,56.87,-101.07,-23.0,-25.0,60,8,,1.25,29.958662,1019.6,,TRUE,,,,,,,-SN,OVC,1300,,,,,,,IFR,,,,,,,,,,,,SPECI,357.0
YCDU 150130Z AUTO 20015G29KT 9999 // NCD 31/13 Q1008,YCDU,2019-01-15T01:30:00Z,-32.12,133.7,31.0,13.0,200,15,29,6.21,29.763779,,,TRUE,,,,,,,,CLR,,,,,,,,VFR,,,,,,,,,,,,SPECI,15.0
CYPH 150130Z AUTO 29015KT 1SM -SN OVC017 M20/M23 A2965 RMK SLP045,CYPH,2019-01-15T01:30:00Z,58.45,-78.08,-20.0,-23.0,290,15,,1.0,29.648623,1004.5,,TRUE,,,,,,,-SN,OVC,1700,,,,,,,IFR,,,,,,,,,,,,SPECI,3.0
VOCB 150130Z 00000KT 1500 BR NSC 19/17 Q1017 NOSIG,VOCB,2019-01-15T01:30:00Z,11.02,77.03,19.0,17.0,0,0,,0.93,30.029528,,,,,,TRUE,,,,BR,CLR,,,,,,,,LIFR,,,,,,,,,,,,METAR,399.0
UBBG 150130Z 27004KT 220V310 0200 R30/0500 FG VV002 02/02 Q1011 R30/CLRD// NOSIG,UBBG,2019-01-15T01:30:00Z,40.73,46.32,2.0,2.0,270,4,,0.12,29.852362,,,,,,TRUE,,,,FG,OVX,0,,,,,,,LIFR,,,,,,,,,,,200,SPECI,330.0
LZIB 150130Z 28024KT CAVOK 00/M07 Q1011 R13/32//95 R04/0///95,LZIB,2019-01-15T01:30:00Z,48.17,17.22,0.0,-7.0,280,24,,6.21,29.852362,,,,,,,,,,,CAVOK,,,,,,,,VFR,,,,,,,,,,,,SPECI,134.0
KEST 150130Z AUTO 01005KT 10SM OVC005 M02/M03 A3021 RMK AO2 T10221033,KEST,2019-01-15T01:30:00Z,43.4,-94.75,-2.2,-3.3,10,5,,10.0,30.209646,,,TRUE,TRUE,,,,,,,OVC,500,,,,,,,IFR,,,,,,,,,,,,SPECI,401.0
SOCA 150130Z AUTO 08004KT 9999 FEW017 BKN054 BKN070 26/24 Q1014 TEMPO 3000 SHRA FEW012TCU,SOCA,2019-01-15T01:30:00Z,4.82,-52.37,26.0,24.0,80,4,,6.21,29.940945,,,TRUE,,,,,,,,FEW,1700,BKN,5400,BKN,7000,,,VFR,,,,,,,,,,,,METAR,9.0
LHBP 150130Z 28013KT CAVOK M02/M06 Q1011 NOSIG,LHBP,2019-01-15T01:30:00Z,47.42,19.27,-2.0,-6.0,280,13,,6.21,29.852362,,,,,,TRUE,,,,,CAVOK,,,,,,,,VFR,,,,,,,,,,,,METAR,185.0
TFFR 150130Z AUTO 03004KT 310V090 9999 BKN026 BKN041 BKN052 23/20 Q1017 TEMPO 4000 SHRA BKN015TCU,TFFR,2019-01-15T01:30:00Z,16.27,-61.53,23.0,20.0,30,4,,6.21,30.029528,,,TRUE,,,,,,,,BKN,2600,BKN,4100,BKN,5200,,,MVFR,,,,,,,,,,,,METAR,11.0
VOML 150130Z 12003KT 5000 BR NSC 21/19 Q1013 NOSIG,VOML,2019-01-15T01:30:00Z,12.97,74.88,21.0,19.0,120,3,,3.11,29.911417,,,,,,TRUE,,,,BR,CLR,,,,,,,,MVFR,,,,,,,,,,,,METAR,103.0
NWWW 150130Z AUTO 13017KT 100V160 9999 FEW041 32/20 Q1008 NOSIG,NWWW,2019-01-15T01:30:00Z,-22.02,166.22,32.0,20.0,130,17,,6.21,29.763779,,,TRUE,,,TRUE,,,,,FEW,4100,,,,,,,VFR,,,,,,,,,,,,METAR,16.0
LBGO 150130Z AUTO 27010KT 9999 NCD 02/M05 Q1003,LBGO,2019-01-15T01:30:00Z,43.15,25.72,2.0,-5.0,270,10,,6.21,29.616142,,,TRUE,,,,,,,,CLR,,,,,,,,VFR,,,,,,,,,,,,METAR,86.0
LBPD 150130Z AUTO 27016G26KT 9999 FEW066 04/M07 Q1003,LBPD,2019-01-15T01:30:00Z,42.13,24.8,4.0,-7.0,270,16,26,6.21,29.616142,,,TRUE,,,,,,,,FEW,6600,,,,,,,VFR,,,,,,,,,,,,METAR,185.0
LBBG 150130Z 25004KT CAVOK 01/M02 Q1001 NOSIG,LBBG,2019-01-15T01:30:00Z,42.57,27.52,1.0,-2.0,250,4,,6.21,29.557087,,,,,,TRUE,,,,,CAVOK,,,,,,,,VFR,,,,,,,,,,,,METAR,28.0
LBWN 150130Z 28012KT CAVOK 03/M02 Q1001 NOSIG,LBWN,2019-01-15T01:30:00Z,43.22,27.82,3.0,-2.0,280,12,,6.21,29.557087,,,,,,TRUE,,,,,CAVOK,,,,,,,,VFR,,,,,,,,,,,,METAR,43.0
LBSF 150130Z 28014KT CAVOK M01/M08 Q1004 NOSIG,LBSF,2019-01-15T01:30:00Z,42.7,23.42,-1.0,-8.0,280,14,,6.21,29.64567,,,,,,TRUE,,,,,CAVOK,,,,,,,,VFR,,,,,,,,,,,,METAR,530.0
LZKZ 150130Z 28009KT CAVOK M04/M11 Q1006,LZKZ,2019-01-15T01:30:00Z,48.67,21.23,-4.0,-11.0,280,9,,6.21,29.704725,,,,,,,,,,,CAVOK,,,,,,,,VFR,,,,,,,,,,,,METAR,232.0
YBCS 150130Z AUTO 14009KT 9999 // SCT018 BKN029 BKN059 29/24 Q1010 INTER 0130/0430 14015G25KT 4000 SHRA FEW008 BKN018,YBCS,2019-01-15T01:30:00Z,-16.87,145.75,29.0,24.0,140,9,,6.21,29.822834,,,TRUE,,,,,,,,SCT,1800,BKN,2900,BKN,5900,,,MVFR,,,,,,,,,,,,SPECI,7.0
DIAP 150130Z 21008KT 9000 FEW011 28/25 Q1011 NOSIG,DIAP,2019-01-15T01:30:00Z,5.25,-3.92,28.0,25.0,210,8,,5.59,29.852362,,,,,,TRUE,,,,,FEW,1100,,,,,,,VFR,,,,,,,,,,,,SPECI,8.0
CYFB 150130Z 08007KT 6SM R34/0400FT/N -SN SCT032 BKN043 BKN051 OVC072 M18/M23 A2945 RMK SN1SC2SC2SC2AC1 SLP978,CYFB,2019-01-15T01:30:00Z,63.75,-68.55,-18.0,-23.0,80,7,,6.0,29.450787,997.8,,,,,,,,,-SN,SCT,3200,BKN,4300,BKN,5100,OVC,7200,VFR,,,,,,,,,,,,SPECI,34.0
KQEL 150130Z AUTO 15001KT 3200 HZ SCT036 M01/M06 A3027 RMK A02 TSNO,KQEL,2019-01-15T01:30:00Z,,,-1.0,-6.0,150,1,,1.99,30.268702,,,TRUE,TRUE,,,TRUE,,,HZ,SCT,3600,,,,,,,IFR,,,,,,,,,,,,METAR,
KQEN 150130Z AUTO 23012G18KT 4800 HZ BKN021 M04/M09 A2997 RMK A02 TSNO,KQEN,2019-01-15T01:30:00Z,,,-4.0,-9.0,230,12,18,2.98,29.970472,,,TRUE,TRUE,,,TRUE,,,HZ,BKN,2100,,,,,,,IFR,,,,,,,,,,,,METAR,
WSSS 150130Z 34003KT 290V060 9999 FEW020 BKN300 28/23 Q1011 NOSIG,WSSS,2019-01-15T01:30:00Z,1.37,103.97,28.0,23.0,340,3,,6.21,29.852362,,,,,,TRUE,,,,,FEW,2000,BKN,30000,,,,,VFR,,,,,,,,,,,,METAR,16.0
HECA 150130Z 18013KT 6000 NSC 10/M00 Q1016 NOSIG,HECA,2019-01-15T01:30:00Z,30.12,31.38,10.0,0.0,180,13,,3.73,30.0,,,,,,TRUE,,,,,CLR,,,,,,,,MVFR,,,,,,,,,,,,METAR,74.0
KQFX 150130Z AUTO 29002KT 1600 HZ OVC042 01/M04 A3020 RMK A02 TSNO,KQFX,2019-01-15T01:30:00Z,,,1.0,-4.0,290,2,,0.99,30.200787,,,TRUE,TRUE,,,TRUE,,,HZ,OVC,4200,,,,,,,LIFR,,,,,,,,,,,,METAR,
KQFW 150130Z AUTO 24003KT 3200 HZ OVC031 00/M06 A3019 RMK A02 TSNO,KQFW,2019-01-15T01:30:00Z,,,0.0,-6.0,240,3,,1.99,30.188976,,,TRUE,TRUE,,,TRUE,,,HZ,OVC,3100,,,,,,,IFR,,,,,,,,,,,,METAR,
KQFV 150130Z AUTO 22004KT 2400 HZ BKN026 M02/M07 A3017 RMK A02 TSNO,KQFV,2019-01-15T01:30:00Z,,,-2.0,-7.0,220,4,,1.49,30.171259,,,TRUE,TRUE,,,TRUE,,,HZ,BKN,2600,,,,,,,IFR,,,,,,,,,,,,METAR,
KQFT 150130Z AUTO 14001KT 2800 HZ OVC026 01/M05 A3020 RMK A02 TSNO,KQFT,2019-01-15T01:30:00Z,,,1.0,-5.0,140,1,,1.74,30.200787,,,TRUE,TRUE,,,TRUE,,,HZ,OVC,2600,,,,,,,IFR,,,,,,,,,,,,METAR,
KQFB 150130Z AUTO 19001KT 3200 HZ OVC031 04/M04 A3023 RMK A02 TSNO,KQFB,2019-01-15T01:30:00Z,,,4.0,-4.0,190,1,,1.99,30.230314,,,TRUE,TRUE,,,TRUE,,,HZ,OVC,3100,,,,,,,IFR,,,,,,,,,,,,METAR,
KQEY 150130Z AUTO 29009G13KT 3200 HZ CLR 02/M06 A2992 RMK A02 TSNO,KQEY,2019-01-15T01:30:00Z,,,2.0,-6.0,290,9,13,1.99,29.920275,,,TRUE,TRUE,,,TRUE,,,HZ,CLR,,,,,,,,IFR,,,,,,,,,,,,METAR,
KQEW 150130Z AUTO 23003G10KT 4800 HZ SCT033 03/M06 A3018 RMK A02 TSNO,KQEW,2019-01-15T01:30:00Z,,,3.0,-6.0,230,3,10,2.98,30.180119,,,TRUE,TRUE,,,TRUE,,,HZ,SCT,3300,,,,,,,IFR,,,,,,,,,,,,METAR,
KQEV 150130Z AUTO 26007G11KT 2400 HZ BKN026 03/M02 A3019 RMK A02 TSNO,KQEV,2019-01-15T01:30:00Z,,,3.0,-2.0,260,7,11,1.49,30.188976,,,TRUE,TRUE,,,TRUE,,,HZ,BKN,2600,,,,,,,IFR,,,,,,,,,,,,METAR,
KQES 150130Z AUTO 33009G16KT 4000 HZ OVC020 03/M00 A3027 RMK A02 TSNO,KQES,2019-01-15T01:30:00Z,,,3.0,0.0,330,9,16,2.49,30.268702,,,TRUE,TRUE,,,TRUE,,,HZ,OVC,2000,,,,,,,IFR,,,,,,,,,,,,METAR,
KQER 150130Z AUTO 27002KT 3200 HZ OVC021 M02/M07 A3012 RMK A02 TSNO,KQER,2019-01-15T01:30:00Z,,,-2.0,-7.0,270,2,,1.99,30.121063,,,TRUE,TRUE,,,TRUE,,,HZ,OVC,2100,,,,,,,IFR,,,,,,,,,,,,METAR,
GOBD 150130Z 36015KT 8000 NSC 20/18 Q1013 NOSIG,GOBD,2019-01-15T01:30:00Z,14.67,-17.07,20.0,18.0,360,15,,4.97,29.911417,,,,,,TRUE,,,,,CLR,,,,,,,,MVFR,,,,,,,,,,,,METAR,88.0
CWPF 150130Z AUTO 02008KT 07/04 RMK AO1 T00680035,CWPF,2019-01-15T01:30:00Z,48.43,-123.43,6.8,3.5,20,8,,,,,,TRUE,TRUE,,,,,,,,,,,,,,,,,,,,,,,,,,,METAR,12.0
WIII 150130Z 28006KT 7000 FEW020 28/24 Q1010 NOSIG,WIII,2019-01-15T01:30:00Z,-6.13,106.67,28.0,24.0,280,6,,4.35,29.822834,,,,,,TRUE,,,,,FEW,2000,,,,,,,MVFR,,,,,,,,,,,,METAR,8.0
VOBL 150130Z VRB00KT 4000 BR FEW008 10/10 Q1019 NOSIG,VOBL,2019-01-15T01:30:00Z,13.2,77.7,10.0,10.0,0,0,,2.49,30.088583,,,,,,TRUE,,,,BR,FEW,800,,,,,,,IFR,,,,,,,,,,,,METAR,915.0
EPBY 150130Z 27015KT CAVOK M01/M04 Q1001,EPBY,2019-01-15T01:30:00Z,53.1,18.0,-1.0,-4.0,270,15,,6.21,29.557087,,,,,,,,,,,CAVOK,,,,,,,,VFR,,,,,,,,,,,,METAR,71.0
EPKT 150130Z 27016KT 9999 -SN SCT021 BKN025 M02/M06 Q1005,EPKT,2019-01-15T01:30:00Z,50.47,19.08,-2.0,-6.0,270,16,,6.21,29.675198,,,,,,,,,,-SN,SCT,2100,BKN,2500,,,,,MVFR,,,,,,,,,,,,METAR,284.0
EPLB 150130Z 27019KT 9999 DRSN FEW025 BKN034 M02/M04 Q0998,EPLB,2019-01-15T01:30:00Z,51.23,22.72,-2.0,-4.0,270,19,,6.21,29.468504,,,,,,,,,,DRSN,FEW,2500,BKN,3400,,,,,VFR,,,,,,,,,,,,METAR,206.0
EPGD 150130Z 29024KT 9999 BKN035 01/M05 Q0995 R11/290095,EPGD,2019-01-15T01:30:00Z,54.37,18.47,1.0,-5.0,290,24,,6.21,29.379921,,,,,,,,,,,BKN,3500,,,,,,,VFR,,,,,,,,,,,,SPECI,138.0
GMTT 150130Z 09003KT 8000 NSC 05/04 Q1021 NOSIG,GMTT,2019-01-15T01:30:00Z,35.72,-5.9,5.0,4.0,90,3,,4.97,30.147638,,,,,,TRUE,,,,,CLR,,,,,,,,MVFR,,,,,,,,,,,,METAR,21.0
GMMX 150130Z 22002KT CAVOK 07/01 Q1021 NOSIG,GMMX,2019-01-15T01:30:00Z,31.62,-8.02,7.0,1.0,220,2,,6.21,30.147638,,,,,,TRUE,,,,,CAVOK,,,,,,,,VFR,,,,,,,,,,,,METAR,466.0
GMMN 150130Z 18004KT 5000 BR SCT010 03/03 Q1022 NOSIG,GMMN,2019-01-15T01:30:00Z,33.37,-7.57,3.0,3.0,180,4,,3.11,30.177166,,,,,,TRUE,,,,BR,SCT,1000,,,,,,,MVFR,,,,,,,,,,,,METAR,206.0
GMME 150130Z VRB02KT 2000 R21/1300VP2000U SCT010 05/04 Q1021 NOSIG,GMME,2019-01-15T01:30:00Z,34.03,-6.77,5.0,4.0,0,2,,1.24,30.147638,,,,,,TRUE,,,,,SCT,1000,,,,,,,IFR,,,,,,,,,,,,SPECI,75.0
GMFF 150130Z 18008KT CAVOK 04/M00 Q1022 NOSIG,GMFF,2019-01-15T01:30:00Z,33.92,-4.97,4.0,0.0,180,8,,6.21,30.177166,,,,,,TRUE,,,,,CAVOK,,,,,,,,VFR,,,,,,,,,,,,METAR,579.0
GMAD 150130Z 07005KT CAVOK 08/07 Q1021 NOSIG,GMAD,2019-01-15T01:30:00Z,30.32,-9.42,8.0,7.0,70,5,,6.21,30.147638,,,,,,TRUE,,,,,CAVOK,,,,,,,,VFR,,,,,,,,,,,,METAR,74.0
EPZG 150130Z 26011KT 230V290 9999 BKN032 OVC043 01/M03 Q1007,EPZG,2019-01-15T01:30:00Z,52.13,15.8,1.0,-3.0,260,11,,6.21,29.734253,,,,,,,,,,,BKN,3200,OVC,4300,,,,,VFR,,,,,,,,,,,,METAR,59.0
EPWR 150130Z 29018KT 9999 BKN033 00/M05 Q1008 R11/71//93,EPWR,2019-01-15T01:30:00Z,51.1,16.87,0.0,-5.0,290,18,,6.21,29.763779,,,,,,,,,,,BKN,3300,,,,,,,VFR,,,,,,,,,,,,METAR,121.0
EPSY 150130Z 24006KT 9999 SCT025 M02/M03 Q0994 R01/590393,EPSY,2019-01-15T01:30:00Z,53.47,20.93,-2.0,-3.0,240,6,,6.21,29.350393,,,,,,,,,,,SCT,2500,,,,,,,VFR,,,,,,,,,,,,METAR,141.0
EPSC 150130Z 29016KT CAVOK 00/M04 Q1005,EPSC,2019-01-15T01:30:00Z,53.58,14.9,0.0,-4.0,290,16,,6.21,29.675198,,,,,,,,,,,CAVOK,,,,,,,,VFR,,,,,,,,,,,,METAR,47.0
EPMO 150130Z 27017KT CAVOK M01/M04 Q0998 R08/290194,EPMO,2019-01-15T01:30:00Z,52.45,20.65,-1.0,-4.0,270,17,,6.21,29.468504,,,,,,,,,,,CAVOK,,,,,,,,VFR,,,,,,,,,,,,SPECI,104.0
EPPO 150130Z 29015KT 9999 BKN031 M01/M04 Q1004 R10/290094,EPPO,2019-01-15T01:30:00Z,52.42,16.82,-1.0,-4.0,290,15,,6.21,29.64567,,,,,,,,,,,BKN,3100,,,,,,,VFR,,,,,,,,,,,,SPECI,92.0
EPLL 150130Z 26018KT 9999 BKN019 M01/M05 Q1002 R25/29//95,EPLL,2019-01-15T01:30:00Z,51.72,19.4,-1.0,-5.0,260,18,,6.21,29.586615,,,,,,,,,,,BKN,1900,,,,,,,MVFR,,,,,,,,,,,,METAR,184.0
EPKK 150130Z 27018KT 9999 FEW026 BKN040 M01/M06 Q1005 R25/55//93,EPKK,2019-01-15T01:30:00Z,50.07,19.8,-1.0,-6.0,270,18,,6.21,29.675198,,,,,,,,,,,FEW,2600,BKN,4000,,,,,VFR,,,,,,,,,,,,SPECI,237.0
EPRZ 150130Z 26019KT 9999 BKN025 M02/M06 Q1002,EPRZ,2019-01-15T01:30:00Z,50.1,22.05,-2.0,-6.0,260,19,,6.21,29.586615,,,,,,,,,,,BKN,2500,,,,,,,MVFR,,,,,,,,,,,,METAR,202.0
EPWA 150130Z 27009KT 240V300 9999 FEW023 M02/M04 Q0998 R33/2///95 NOSIG,EPWA,2019-01-15T01:30:00Z,52.17,20.97,-2.0,-4.0,270,9,,6.21,29.468504,,,,,,TRUE,,,,,FEW,2300,,,,,,,VFR,,,,,,,,,,,,SPECI,107.0
NTAA 150130Z 05012KT 9999 VCSH FEW020 SCT130 BKN280 30/24 Q1008 NOSIG,NTAA,2019-01-15T01:30:00Z,-17.55,-149.62,30.0,24.0,50,12,,6.21,29.763779,,,,,,TRUE,,,,VCSH,FEW,2000,SCT,13000,BKN,28000,,,VFR,,,,,,,,,,,,METAR,2.0
WAJJ 150130Z 29012KT 9999 SCT013 31/23 Q1006 NOSIG,WAJJ,2019-01-15T01:30:00Z,-2.58,140.52,31.0,23.0,290,12,,6.21,29.704725,,,,,,TRUE,,,,,SCT,1300,,,,,,,VFR,,,,,,,,,,,,METAR,88.0
FMCZ 150130Z AUTO 05004KT CAVOK 27/25 Q1011 TEMPO VRB15G35KT 1500 TSRA BKN010 SCT012CB,FMCZ,2019-01-15T01:30:00Z,-12.8,45.27,27.0,25.0,50,4,,6.21,29.852362,,,TRUE,,,,,,,,CAVOK,,,,,,,,VFR,,,,,,,,,,,,METAR,7.0
VOBG 150130Z 00000KT 4000 BR NSC 12/07 Q1018,VOBG,2019-01-15T01:30:00Z,12.95,77.63,12.0,7.0,0,0,,2.49,30.059055,,,,,,,,,,BR,CLR,,,,,,,,IFR,,,,,,,,,,,,METAR,897.0
VOCI 150130Z 11002KT 3000 BR FEW010 SCT090 21/20 Q1012 BECMG 3500 BR,VOCI,2019-01-15T01:30:00Z,10.15,76.4,21.0,20.0,110,2,,1.86,29.88189,,,,,,,,,,BR,FEW,1000,SCT,9000,,,,,IFR,,,,,,,,,,,,METAR,8.0
VABO 150130Z 02006KT 5000 HZ NSC 12/10 Q1016 TEMPO 4000 HZ,VABO,2019-01-15T01:30:00Z,22.33,73.22,12.0,10.0,20,6,,3.11,30.0,,,,,,,,,,HZ,CLR,,,,,,,,MVFR,,,,,,,,,,,,METAR,39.0
VTSM 150130Z 15008KT 9000 FEW020 28/25 Q1013 NOSIG,VTSM,2019-01-15T01:30:00Z,9.55,100.07,28.0,25.0,150,8,,5.59,29.911417,,,,,,TRUE,,,,,FEW,2000,,,,,,,VFR,,,,,,,,,,,,METAR,17.0
UGTB 150130Z 36003KT 320V060 CAVOK 00/M04 Q1013 NOSIG,UGTB,2019-01-15T01:30:00Z,41.67,44.95,0.0,-4.0,360,3,,6.21,29.911417,,,,,,TRUE,,,,,CAVOK,,,,,,,,VFR,,,,,,,,,,,,METAR,495.0
UGKO 150130Z 09013KT CAVOK 08/M03 Q1007 NOSIG,UGKO,2019-01-15T01:30:00Z,42.18,42.48,8.0,-3.0,90,13,,6.21,29.734253,,,,,,TRUE,,,,,CAVOK,,,,,,,,VFR,,,,,,,,,,,,METAR,68.0
LDRI 150130Z VRB09G28KT CAVOK 08/M07 Q1012,LDRI,2019-01-15T01:30:00Z,45.22,14.57,8.0,-7.0,0,9,28,6.21,29.88189,,,,,,,,,,,CAVOK,,,,,,,,VFR,,,,,,,,,,,,METAR,85.0
LDPL 150130Z 05010KT CAVOK 04/M06 Q1012,LDPL,2019-01-15T01:30:00Z,44.88,13.92,4.0,-6.0,50,10,,6.21,29.88189,,,,,,,,,,,CAVOK,,,,,,,,VFR,,,,,,,,,,,,METAR,63.0
LDOS 150130Z 34014KT CAVOK 00/M05 Q1013,LDOS,2019-01-15T01:30:00Z,45.47,18.82,0.0,-5.0,340,14,,6.21,29.911417,,,,,,,,,,,CAVOK,,,,,,,,VFR,,,,,,,,,,,,METAR,89.0
LDDU 150130Z 34010KT 300V050 CAVOK 05/M05 Q1008,LDDU,2019-01-15T01:30:00Z,42.57,18.27,5.0,-5.0,340,10,,6.21,29.763779,,,,,,,,,,,CAVOK,,,,,,,,VFR,,,,,,,,,,,,METAR,165.0
YGEL 150130Z 19019KT 9999 BKN017 23/17 Q1011,YGEL,2019-01-15T01:30:00Z,-28.8,114.7,23.0,17.0,190,19,,6.21,29.852362,,,,,,,,,,,BKN,1700,,,,,,,MVFR,,,,,,,,,,,,SPECI,37.0
VHHH 150130Z 05003KT 8000 FEW008 SCT020 19/17 Q1020 TEMPO 2500 BR -RA,VHHH,2019-01-15T01:30:00Z,22.32,113.92,19.0,17.0,50,3,,4.97,30.11811,,,,,,,,,,,FEW,800,SCT,2000,,,,,MVFR,,,,,,,,,,,,METAR,9.0
LEXJ 150130Z AUTO 00000KT 6000 SCT006/// BKN010/// OVC034/// 09/09 Q1025,LEXJ,2019-01-15T01:30:00Z,43.42,-3.82,9.0,9.0,0,0,,3.73,30.265747,,,TRUE,,,,,,,,SCT,600,BKN,1000,OVC,3400,,,MVFR,,,,,,,,,,,,METAR,6.0
LEPP 150130Z AUTO 31006KT 270V340 8000 OVC023/// 07/05 Q1023,LEPP,2019-01-15T01:30:00Z,42.77,-1.65,7.0,5.0,310,6,,4.97,30.206694,,,TRUE,,,,,,,,OVC,2300,,,,,,,MVFR,,,,,,,,,,,,METAR,459.0
LEZG 150130Z 28009KT CAVOK 07/04 Q1022,LEZG,2019-01-15T01:30:00Z,41.67,-1.02,7.0,4.0,280,9,,6.21,30.177166,,,,,,,,,,,CAVOK,,,,,,,,VFR,,,,,,,,,,,,METAR,258.0
LEMH 150130Z AUTO 34008KT 300V020 9999 FEW024/// 10/07 Q1020,LEMH,2019-01-15T01:30:00Z,39.87,4.22,10.0,7.0,340,8,,6.21,30.11811,,,TRUE,,,,,,,,FEW,2400,,,,,,,VFR,,,,,,,,,,,,METAR,82.0
LEGR 150130Z AUTO 00000KT CAVOK M01/M02 Q1021,LEGR,2019-01-15T01:30:00Z,37.17,-3.77,-1.0,-2.0,0,0,,6.21,30.147638,,,TRUE,,,,,,,,CAVOK,,,,,,,,VFR,,,,,,,,,,,,METAR,559.0
LEGE 150130Z 32005KT 9000 NSC 05/05 Q1020,LEGE,2019-01-15T01:30:00Z,41.88,2.77,5.0,5.0,320,5,,5.59,30.11811,,,,,,,,,,,CLR,,,,,,,,VFR,,,,,,,,,,,,METAR,129.0
LECO 150130Z AUTO 17004KT 2600 0200SW R03/0500D BR BCFG FEW006/// 03/03 Q1023,LECO,2019-01-15T01:30:00Z,43.28,-8.37,3.0,3.0,170,4,,1.62,30.206694,,,TRUE,,,,,,,BCFG BR,FEW,600,,,,,,,IFR,,,,,,,,,,,,SPECI,103.0
LEBB 150130Z AUTO 00000KT 6000 2000 BKN002/// BKN006/// 10/10 Q1025,LEBB,2019-01-15T01:30:00Z,43.28,-2.92,10.0,10.0,0,0,,3.73,30.265747,,,TRUE,,,,,,,,BKN,200,BKN,600,,,,,LIFR,,,,,,,,,,,,SPECI,34.0
LEAS 150130Z AUTO 12003KT 070V160 9999 OVC020/// 09/07 Q1024,LEAS,2019-01-15T01:30:00Z,43.53,-6.02,9.0,7.0,120,3,,6.21,30.236221,,,TRUE,,,,,,,,OVC,2000,,,,,,,MVFR,,,,,,,,,,,,METAR,134.0
LEAM 150130Z AUTO 35003KT 240V050 9999 NCD 11/02 Q1019,LEAM,2019-01-15T01:30:00Z,36.85,-2.37,11.0,2.0,350,3,,6.21,30.088583,,,TRUE,,,,,,,,CLR,,,,,,,,VFR,,,,,,,,,,,,METAR,21.0
LPPD 150130Z 02004KT 9999 FEW018 14/11 Q1026,LPPD,2019-01-15T01:30:00Z,37.72,-25.68,14.0,11.0,20,4,,6.21,30.295275,,,,,,,,,,,FEW,1800,,,,,,,VFR,,,,,,,,,,,,METAR,72.0
LPAZ 150130Z 07004KT 9999 FEW022 13/11 Q1025,LPAZ,2019-01-15T01:30:00Z,36.97,-25.17,13.0,11.0,70,4,,6.21,30.265747,,,,,,,,,,,FEW,2200,,,,,,,VFR,,,,,,,,,,,,METAR,100.0
GCHI 150130Z AUTO 19007KT 160V220 CAVOK 18/12 Q1019,GCHI,2019-01-15T01:30:00Z,27.82,-17.87,18.0,12.0,190,7,,6.21,30.088583,,,TRUE,,,,,,,,CAVOK,,,,,,,,VFR,,,,,,,,,,,,METAR,30.0
GCGM 150130Z AUTO 33005KT 9999 NCD 15/09 Q1020 RMK R09/01006KT ARP/36006KT,GCGM,2019-01-15T01:30:00Z,28.03,-17.22,15.0,9.0,330,5,,6.21,30.11811,,,TRUE,,,,,,,,CLR,,,,,,,,VFR,,,,,,,,,,,,METAR,219.0
GCXO 150130Z AUTO 16005KT 9999 NCD 10/06 Q1021,GCXO,2019-01-15T01:30:00Z,28.48,-16.35,10.0,6.0,160,5,,6.21,30.147638,,,TRUE,,,,,,,,CLR,,,,,,,,VFR,,,,,,,,,,,,METAR,632.0
GCTS 150130Z 05012KT CAVOK 17/M05 Q1020 NOSIG,GCTS,2019-01-15T01:30:00Z,28.05,-16.57,17.0,-5.0,50,12,,6.21,30.11811,,,,,,TRUE,,,,,CAVOK,,,,,,,,VFR,,,,,,,,,,,,METAR,72.0
GCRR 150130Z AUTO 02007KT 9999 NCD 14/06 Q1021,GCRR,2019-01-15T01:30:00Z,28.93,-13.58,14.0,6.0,20,7,,6.21,30.147638,,,TRUE,,,,,,,,CLR,,,,,,,,VFR,,,,,,,,,,,,METAR,40.0
GCLP 150130Z 31007KT CAVOK 16/05 Q1020 NOSIG,GCLP,2019-01-15T01:30:00Z,27.92,-15.37,16.0,5.0,310,7,,6.21,30.11811,,,,,,TRUE,,,,,CAVOK,,,,,,,,VFR,,,,,,,,,,,,METAR,25.0
GCLA 150130Z AUTO 31008KT 9999 NCD 17/10 Q1020,GCLA,2019-01-15T01:30:00Z,28.62,-17.75,17.0,10.0,310,8,,6.21,30.11811,,,TRUE,,,,,,,,CLR,,,,,,,,VFR,,,,,,,,,,,,METAR,31.0
GCFV 150130Z AUTO 06011KT 9999 NCD 18/09 Q1021,GCFV,2019-01-15T01:30:00Z,28.43,-13.87,18.0,9.0,60,11,,6.21,30.147638,,,TRUE,,,,,,,,CLR,,,,,,,,VFR,,,,,,,,,,,,METAR,23.0
GEML 150130Z AUTO VRB02KT 9999 NCD 15/05 Q1020,GEML,2019-01-15T01:30:00Z,35.27,-2.95,15.0,5.0,0,2,,6.21,30.11811,,,TRUE,,,,,,,,CLR,,,,,,,,VFR,,,,,,,,,,,,METAR,55.0
LELN 150130Z AUTO VRB01KT 9999 NCD M02/M03 Q1023,LELN,2019-01-15T01:30:00Z,42.57,-5.65,-2.0,-3.0,0,1,,6.21,30.206694,,,TRUE,,,,,,,,CLR,,,,,,,,VFR,,,,,,,,,,,,METAR,914.0
LELC 150130Z AUTO 25004KT 9000 NCD 06/06 Q1020,LELC,2019-01-15T01:30:00Z,37.77,-0.8,6.0,6.0,250,4,,5.59,30.11811,,,TRUE,,,,,,,,CLR,,,,,,,,VFR,,,,,,,,,,,,METAR,3.0
VTSS 150130Z 00000KT 9999 FEW020 26/23 Q1012 NOSIG,VTSS,2019-01-15T01:30:00Z,6.92,100.38,26.0,23.0,0,0,,6.21,29.88189,,,,,,TRUE,,,,,FEW,2000,,,,,,,VFR,,,,,,,,,,,,METAR,35.0
VTSP 150130Z VRB02KT 9999 FEW020 27/23 Q1012 NOSIG,VTSP,2019-01-15T01:30:00Z,8.12,98.32,27.0,23.0,0,2,,6.21,29.88189,,,,,,TRUE,,,,,FEW,2000,,,,,,,VFR,,,,,,,,,,,,METAR,10.0
VTCC 150130Z VRB02KT 9999 FEW035 20/17 Q1017 NOSIG,VTCC,2019-01-15T01:30:00Z,18.77,98.97,20.0,17.0,0,2,,6.21,30.029528,,,,,,TRUE,,,,,FEW,3500,,,,,,,VFR,,,,,,,,,,,,METAR,314.0
VIAR 150130Z 00000KT 1500 BR FEW100 04/04 Q1018 NOSIG,VIAR,2019-01-15T01:30:00Z,31.7,74.8,4.0,4.0,0,0,,0.93,30.059055,,,,,,TRUE,,,,BR,FEW,10000,,,,,,,LIFR,,,,,,,,,,,,METAR,234.0
UCFO 150130Z 13003MPS 9000 FEW050 BKN120 02/M04 Q1012 R12/CLRD95 NOSIG,UCFO,2019-01-15T01:30:00Z,40.6,72.8,2.0,-4.0,130,6,,5.59,29.88189,,,,,,TRUE,,,,,FEW,5000,BKN,12000,,,,,VFR,,,,,,,,,,,,METAR,884.0
UCFM 150130Z 04002MPS 360V090 CAVOK 04/M05 Q1009 R08/09//95 NOSIG,UCFM,2019-01-15T01:30:00Z,43.07,74.48,4.0,-5.0,40,4,,6.21,29.793306,,,,,,TRUE,,,,,CAVOK,,,,,,,,VFR,,,,,,,,,,,,METAR,633.0
UTDD 150130Z 10004MPS 9999 -SHRA SCT055CB SCT055 05/03 Q1020 R09/29//50 NOSIG RMK QFE696/0929,UTDD,2019-01-15T01:30:00Z,38.53,68.82,5.0,3.0,100,8,,6.21,30.11811,,,,,,TRUE,,,,-SHRA,SCT,5500,SCT,5500,,,,,VFR,,,,,,,,,,,,METAR,803.0
LDSP 150130Z AUTO 36008KT CAVOK 06/M01 Q1010,LDSP,2019-01-15T01:30:00Z,43.52,16.3,6.0,-1.0,360,8,,6.21,29.822834,,,TRUE,,,,,,,,CAVOK,,,,,,,,VFR,,,,,,,,,,,,METAR,21.0
LDZA 150130Z 00000KT CAVOK M02/M05 Q1014 NOSIG,LDZA,2019-01-15T01:30:00Z,45.72,16.07,-2.0,-5.0,0,0,,6.21,29.940945,,,,,,TRUE,,,,,CAVOK,,,,,,,,VFR,,,,,,,,,,,,METAR,107.0
LDZD 150130Z VRB01KT 9999 FEW050 02/M00 Q1011,LDZD,2019-01-15T01:30:00Z,44.1,15.37,2.0,0.0,0,1,,6.21,29.852362,,,,,,,,,,,FEW,5000,,,,,,,VFR,,,,,,,,,,,,METAR,84.0
PAMY 150130Z AUTO 11022KT 1SM -SN BR BKN014 OVC026 00/00 A2918 RMK AO2 PK WND 11029/0057 P0000 FZRANO $,PAMY,2019-01-15T01:30:00Z,60.37,-166.27,0.0,0.0,110,22,,1.0,29.179134,,,TRUE,TRUE,TRUE,,,TRUE,,-SN BR,BKN,1400,OVC,2600,,,,,IFR,,,,,,0.005,,,,,,SPECI,13.0
CYBC 150130Z AUTO 23004KT 6SM -SN BKN034 OVC070 M10/M13 A3000 RMK SLP163,CYBC,2019-01-15T01:30:00Z,49.12,-68.2,-10.0,-13.0,230,4,,6.0,30.0,1016.3,,TRUE,,,,,,,-SN,BKN,3400,OVC,7000,,,,,VFR,,,,,,,,,,,,SPECI,22.0
KBIS 150130Z 16007KT 1/2SM BR VV002 M08/M08 A3018 RMK AO2 SFC VIS 3/4 T10781083,KBIS,2019-01-15T01:30:00Z,46.77,-100.75,-7.8,-8.3,160,7,,0.5,30.180119,,,,TRUE,,,,,,BR,OVX,0,,,,,,,LIFR,,,,,,,,,,,200,SPECI,505.0
KELN 150130Z AUTO 14003KT 10SM OVC007 M02/M04 A3019 RMK AO2 T10171044,KELN,2019-01-15T01:30:00Z,47.03,-120.53,-1.7,-4.4,140,3,,10.0,30.188976,,,TRUE,TRUE,,,,,,,OVC,700,,,,,,,IFR,,,,,,,,,,,,SPECI,519.0
KGUP 150130Z AUTO 03004KT 10SM SCT004 M01/M01 A3025 RMK AO2 T10061011,KGUP,2019-01-15T01:30:00Z,35.52,-108.8,-0.6,-1.1,30,4,,10.0,30.250984,,,TRUE,TRUE,,,,,,,SCT,400,,,,,,,VFR,,,,,,,,,,,,SPECI,1971.0
KLOZ 150130Z AUTO 34005KT 4SM UP BR OVC005 M01/M01 A3027 RMK AO2 UPB03E12B30SNB12E30 CIG 004V008 P0001 T10061006,KLOZ,2019-01-15T01:30:00Z,37.08,-84.07,-0.6,-0.6,340,5,,4.0,30.268702,,,TRUE,TRUE,,,,,,BR UP,OVC,500,,,,,,,IFR,,,,,,0.01,,,,,,SPECI,362.0
VOTR 150130Z 01008KT 2000 BR FEW016 20/17 Q1013 NOSIG,VOTR,2019-01-15T01:30:00Z,10.77,78.72,20.0,17.0,10,8,,1.24,29.911417,,,,,,TRUE,,,,BR,FEW,1600,,,,,,,IFR,,,,,,,,,,,,METAR,88.0
VECC 150130Z 35005KT 1500 BR FEW020 SCT100 14/12 Q1016 NOSIG,VECC,2019-01-15T01:30:00Z,22.65,88.43,14.0,12.0,350,5,,0.93,30.0,,,,,,TRUE,,,,BR,FEW,2000,SCT,10000,,,,,LIFR,,,,,,,,,,,,METAR,6.0
VOBZ 150130Z 00000KT 1000 BR NSC 19/17 Q1015 NOSIG,VOBZ,2019-01-15T01:30:00Z,16.52,80.78,19.0,17.0,0,0,,0.62,29.970472,,,,,,TRUE,,,,BR,CLR,,,,,,,,LIFR,,,,,,,,,,,,METAR,24.0
VEGT 150130Z 00000KT 1800 BR FEW018 SCT100 13/12 Q1017 NOSIG,VEGT,2019-01-15T01:30:00Z,26.1,91.58,13.0,12.0,0,0,,1.12,30.029528,,,,,,TRUE,,,,BR,FEW,1800,SCT,10000,,,,,IFR,,,,,,,,,,,,METAR,54.0
LFMI 150130Z AUTO 31018G31KT CAVOK 08/01 Q1019 NOSIG,LFMI,2019-01-15T01:30:00Z,43.52,4.92,8.0,1.0,310,18,31,6.21,30.088583,,,TRUE,,,TRUE,,,,,CAVOK,,,,,,,,VFR,,,,,,,,,,,,METAR,24.0
VORY 150130Z 36005KT 1000 BR FEW020 19/18 Q1016 NOSIG,VORY,2019-01-15T01:30:00Z,17.1,81.82,19.0,18.0,360,5,,0.62,30.0,,,,,,TRUE,,,,BR,FEW,2000,,,,,,,LIFR,,,,,,,,,,,,METAR,46.0
VEMN 150130Z 04003KT 1500 BR NSC 12/10 Q1017 NOSIG,VEMN,2019-01-15T01:30:00Z,27.47,95.02,12.0,10.0,40,3,,0.93,30.029528,,,,,,TRUE,,,,BR,CLR,,,,,,,,LIFR,,,,,,,,,,,,METAR,111.0
VERC 150130Z 00000KT 2000 HZ NSC 10/06 Q1019 NOSIG,VERC,2019-01-15T01:30:00Z,23.32,85.32,10.0,6.0,0,0,,1.24,30.088583,,,,,,TRUE,,,,HZ,CLR,,,,,,,,IFR,,,,,,,,,,,,METAR,652.0
VOTV 150130Z 16003KT 2500 BR FEW015 25/23 Q1012 TEMPO 2000 BR,VOTV,2019-01-15T01:30:00Z,8.47,76.95,25.0,23.0,160,3,,1.55,29.88189,,,,,,,,,,BR,FEW,1500,,,,,,,IFR,,,,,,,,,,,,METAR,8.0
VABB 150130Z 05005KT 2500 FU NSC 25/11 Q1014 NOSIG,VABB,2019-01-15T01:30:00Z,19.1,72.87,25.0,11.0,50,5,,1.55,29.940945,,,,,,TRUE,,,,FU,CLR,,,,,,,,IFR,,,,,,,,,,,,METAR,8.0
VIJP 150130Z 00000KT 2000 HZ FEW100 08/M04 Q1020 NOSIG,VIJP,2019-01-15T01:30:00Z,26.82,75.78,8.0,-4.0,0,0,,1.24,30.11811,,,,,,TRUE,,,,HZ,FEW,10000,,,,,,,IFR,,,,,,,,,,,,METAR,390.0
LCLK 150130Z 25017G29KT 8000 -RA FEW012 SCT036 BKN040 14/12 Q1008 RERA NOSIG,LCLK,2019-01-15T01:30:00Z,34.87,33.62,14.0,12.0,250,17,29,4.97,29.763779,,,,,,TRUE,,,,-RA,FEW,1200,SCT,3600,BKN,4000,,,MVFR,,,,,,,,,,,,METAR,2.0
VASU 150130Z 02003KT 4000 HZ NSC 15/08 Q1015,VASU,2019-01-15T01:30:00Z,21.12,72.73,15.0,8.0,20,3,,2.49,29.970472,,,,,,,,,,HZ,CLR,,,,,,,,IFR,,,,,,,,,,,,METAR,5.0
LCPH 150130Z 25012KT 5000 -RA BR FEW017 FEW025CB BKN030 14/13 Q1008 RERA,LCPH,2019-01-15T01:30:00Z,34.72,32.47,14.0,13.0,250,12,,3.11,29.763779,,,,,,,,,,-RA BR,FEW,1700,FEW,2500,BKN,3000,,,MVFR,,,,,,,,,,,,METAR,8.0
LERS 150130Z AUTO 31004KT 280V360 9999 NCD 04/03 Q1020,LERS,2019-01-15T01:30:00Z,41.13,1.17,4.0,3.0,310,4,,6.21,30.11811,,,TRUE,,,,,,,,CLR,,,,,,,,VFR,,,,,,,,,,,,METAR,76.0
UTDK 150130Z VRB02MPS 9999 -RA SCT059 OVC073 08/02 Q1019 R01/19//60 RMK QFE706/0942,UTDK,2019-01-15T01:30:00Z,37.98,69.8,8.0,2.0,0,4,,6.21,30.088583,,,,,,,,,,-RA,SCT,5900,OVC,7300,,,,,VFR,,,,,,,,,,,,METAR,699.0
UTDT 150130Z 36006MPS 9999 BKN053CB OVC093 07/02 Q1018 R35/CLRD70 RMK QFE724/0965,UTDT,2019-01-15T01:30:00Z,37.87,68.87,7.0,2.0,360,12,,6.21,30.059055,,,,,,,,,,,BKN,5300,OVC,9300,,,,,VFR,,,,,,,,,,,,METAR,449.0
UTDL 150130Z 07009MPS 7000 FEW066CB OVC086 04/M03 Q1013 R08/CLRD70 NOSIG RMK QFE720/0961,UTDL,2019-01-15T01:30:00Z,40.22,69.7,4.0,-3.0,70,17,,4.35,29.911417,,,,,,TRUE,,,,,FEW,6600,OVC,8600,,,,,MVFR,,,,,,,,,,,,METAR,442.0
RCTP 150130Z 03006KT 6000 FEW012 SCT050 BKN070 20/19 Q1020 NOSIG RMK A3012,RCTP,2019-01-15T01:30:00Z,25.07,121.22,20.0,19.0,30,6,,3.73,30.11811,,,,,,TRUE,,,,,FEW,1200,SCT,5000,BKN,7000,,,MVFR,,,,,,,,,,,,METAR,33.0
RCKH 150130Z VRB01KT 4000 HZ FEW014 SCT070 23/18 Q1019 NOSIG RMK A3010,RCKH,2019-01-15T01:30:00Z,22.57,120.33,23.0,18.0,0,1,,2.49,30.088583,,,,,,TRUE,,,,HZ,FEW,1400,SCT,7000,,,,,IFR,,,,,,,,,,,,METAR,9.0
RCSS 150130Z VRB02KT 9999 FEW012 SCT050 BKN070 21/19 Q1020 NOSIG RMK A3012,RCSS,2019-01-15T01:30:00Z,25.07,121.53,21.0,19.0,0,2,,6.21,30.11811,,,,,,TRUE,,,,,FEW,1200,SCT,5000,BKN,7000,,,VFR,,,,,,,,,,,,METAR,6.0
RCMQ 150130Z 01006KT 2400 BR BKN002 BKN030 20/16 Q1019 BECMG 3000 BR RMK A3010,RCMQ,2019-01-15T01:30:00Z,24.27,120.62,20.0,16.0,10,6,,1.49,30.088583,,,,,,,,,,BR,BKN,200,BKN,3000,,,,,LIFR,,,,,,,,,,,,METAR,5.0
RCNN 150130Z 02001KT 4000 BR FEW012 BKN060 21/16 Q1019 NOSIG RMK A3010,RCNN,2019-01-15T01:30:00Z,22.93,120.2,21.0,16.0,20,1,,2.49,30.088583,,,,,,TRUE,,,,BR,FEW,1200,BKN,6000,,,,,IFR,,,,,,,,,,,,METAR,19.0
RCFN 150130Z VRB02KT 7000 -RA SCT016 BKN035 BKN080 22/18 Q1021 NOSIG RMK A3015,RCFN,2019-01-15T01:30:00Z,22.77,121.07,22.0,18.0,0,2,,4.35,30.147638,,,,,,TRUE,,,,-RA,SCT,1600,BKN,3500,BKN,8000,,,MVFR,,,,,,,,,,,,METAR,42.0
VMMC 150130Z 03006KT 350V060 3000 -RA BR FEW004 SCT015 BKN040 18/18 Q1020 NOSIG,VMMC,2019-01-15T01:30:00Z,22.15,113.58,18.0,18.0,30,6,,1.86,30.11811,,,,,,TRUE,,,,-RA BR,FEW,400,SCT,1500,BKN,4000,,,IFR,,,,,,,,,,,,METAR,6.0
UKKK 150130Z 27006MPS 9999 SCT030 M03/M07 Q0994 R26/810340 NOSIG,UKKK,2019-01-15T01:30:00Z,50.4,30.45,-3.0,-7.0,270,12,,6.21,29.350393,,,,,,TRUE,,,,,SCT,3000,,,,,,,VFR,,,,,,,,,,,,METAR,179.0
LZPP 150130Z AUTO VRB02KT 9999 OVC039/// M02/M07 Q1011,LZPP,2019-01-15T01:30:00Z,48.62,17.83,-2.0,-7.0,0,2,,6.21,29.852362,,,TRUE,,,,,,,,OVC,3900,,,,,,,VFR,,,,,,,,,,,,METAR,161.0
LKTB 150130Z 31013KT 9999 SCT040 M01/M07 Q1010 R27/450195 NOSIG,LKTB,2019-01-15T01:30:00Z,49.13,16.68,-1.0,-7.0,310,13,,6.21,29.822834,,,,,,TRUE,,,,,SCT,4000,,,,,,,VFR,,,,,,,,,,,,SPECI,246.0
LYBE 150130Z 29014KT CAVOK 01/M04 Q1010 R12/1///95 NOSIG,LYBE,2019-01-15T01:30:00Z,44.82,20.28,1.0,-4.0,290,14,,6.21,29.822834,,,,,,TRUE,,,,,CAVOK,,,,,,,,VFR,,,,,,,,,,,,SPECI,99.0
LYBT 150130Z 28013KT CAVOK 01/M04 Q1010 NOSIG,LYBT,2019-01-15T01:30:00Z,44.93,20.25,1.0,-4.0,280,13,,6.21,29.822834,,,,,,TRUE,,,,,CAVOK,,,,,,,,VFR,,,,,,,,,,,,METAR,80.0
LYKV 150130Z 30003KT 9999 SCT040 00/M05 Q1010 R14/////// NOSIG,LYKV,2019-01-15T01:30:00Z,43.82,20.58,0.0,-5.0,300,3,,6.21,29.822834,,,,,,TRUE,,,,,SCT,4000,,,,,,,VFR,,,,,,,,,,,,METAR,209.0
LYNI 150130Z 07003KT CAVOK M03/M05 Q1009 R11/2///95 NOSIG,LYNI,2019-01-15T01:30:00Z,43.32,21.88,-3.0,-5.0,70,3,,6.21,29.793306,,,,,,TRUE,,,,,CAVOK,,,,,,,,VFR,,,,,,,,,,,,SPECI,202.0
LYPG 150130Z 36010KT CAVOK 06/M07 Q1007 R18/29//94 NOSIG,LYPG,2019-01-15T01:30:00Z,42.37,19.25,6.0,-7.0,360,10,,6.21,29.734253,,,,,,TRUE,,,,,CAVOK,,,,,,,,VFR,,,,,,,,,,,,SPECI,43.0
LKPR 150130Z 28013KT 9999 -SN FEW020 BKN026 M00/M04 Q1012 R24/29//95 R30/29//95 NOSIG,LKPR,2019-01-15T01:30:00Z,50.1,14.27,0.0,-4.0,280,13,,6.21,29.88189,,,,,,TRUE,,,,-SN,FEW,2000,BKN,2600,,,,,MVFR,,,,,,,,,,,,SPECI,365.0
LKMT 150130Z 22008KT CAVOK M03/M08 Q1008 R04/490294 NOSIG,LKMT,2019-01-15T01:30:00Z,49.67,18.12,-3.0,-8.0,220,8,,6.21,29.763779,,,,,,TRUE,,,,,CAVOK,,,,,,,,VFR,,,,,,,,,,,,SPECI,256.0
BIKF 150130Z 24020KT 9999 VCSH FEW018CB SCT028 03/M01 Q0989,BIKF,2019-01-15T01:30:00Z,63.98,-22.6,3.0,-1.0,240,20,,6.21,29.202755,,,,,,,,,,VCSH,FEW,1800,SCT,2800,,,,,VFR,,,,,,,,,,,,METAR,54.0
LZZI 150130Z VRB02KT 9999 SCT032 M07/M11 Q1009,LZZI,2019-01-15T01:30:00Z,49.23,18.62,-7.0,-11.0,0,2,,6.21,29.793306,,,,,,,,,,,SCT,3200,,,,,,,VFR,,,,,,,,,,,,METAR,311.0
LZSL 150130Z 30006KT CAVOK M04/M10 Q1009,LZSL,2019-01-15T01:30:00Z,48.63,19.13,-4.0,-10.0,300,6,,6.21,29.793306,,,,,,,,,,,CAVOK,,,,,,,,VFR,,,,,,,,,,,,METAR,313.0
UKKM 150130Z AUTO 26006MPS 9999 // ///031/// M03/M07 Q0994,UKKM,2019-01-15T01:30:00Z,50.6,30.2,-3.0,-7.0,260,12,,6.21,29.350393,,,TRUE,,,,,,,,,,,,,,,,,,,,,,,,,,,,METAR,157.0
LYTV 150130Z 35015G32KT CAVOK 08/M07 Q1007,LYTV,2019-01-15T01:30:00Z,42.38,18.72,8.0,-7.0,350,15,32,6.21,29.734253,,,,,,,,,,,CAVOK,,,,,,,,VFR,,,,,,,,,,,,METAR,5.0
LFMH 150130Z AUTO 35003KT 9999 BKN019 BKN025 OVC056 02/01 Q1024,LFMH,2019-01-15T01:30:00Z,45.52,4.28,2.0,1.0,350,3,,6.21,30.236221,,,TRUE,,,,,,,,BKN,1900,BKN,2500,OVC,5600,,,MVFR,,,,,,,,,,,,METAR,402.0
UGSB 150130Z AUTO 13016KT 9999 OVC110 12/M03 Q1006 NOSIG,UGSB,2019-01-15T01:30:00Z,41.62,41.6,12.0,-3.0,130,16,,6.21,29.704725,,,TRUE,,,TRUE,,,,,OVC,11000,,,,,,,VFR,,,,,,,,,,,,METAR,32.0
LYUZ 150130Z AUTO 00000KT 9999 -SHSN FEW003/// OVC006/// M04/M05 Q1008,LYUZ,2019-01-15T01:30:00Z,43.9,19.7,-4.0,-5.0,0,0,,6.21,29.763779,,,TRUE,,,,,,,-SHSN,FEW,300,OVC,600,,,,,IFR,,,,,,,,,,,,METAR,904.0
LFGA 150130Z AUTO 21003KT 9999 FEW050 OVC072 03/M00 Q1024,LFGA,2019-01-15T01:30:00Z,48.1,7.35,3.0,0.0,210,3,,6.21,30.236221,,,TRUE,,,,,,,,FEW,5000,OVC,7200,,,,,VFR,,,,,,,,,,,,METAR,191.0
LFBU 150130Z AUTO 00000KT 9999 OVC042 03/M00 Q1026,LFBU,2019-01-15T01:30:00Z,45.72,0.22,3.0,0.0,0,0,,6.21,30.295275,,,TRUE,,,,,,,,OVC,4200,,,,,,,VFR,,,,,,,,,,,,METAR,133.0
LFAT 150130Z AUTO 30006KT CAVOK 08/04 Q1023,LFAT,2019-01-15T01:30:00Z,50.52,1.62,8.0,4.0,300,6,,6.21,30.206694,,,TRUE,,,,,,,,CAVOK,,,,,,,,VFR,,,,,,,,,,,,METAR,14.0
LFAQ 150130Z AUTO 26004KT CAVOK 05/04 Q1023,LFAQ,2019-01-15T01:30:00Z,49.97,2.7,5.0,4.0,260,4,,6.21,30.206694,,,TRUE,,,,,,,,CAVOK,,,,,,,,VFR,,,,,,,,,,,,METAR,111.0
LFTW 150130Z AUTO 34016KT CAVOK 08/M02 Q1019,LFTW,2019-01-15T01:30:00Z,43.75,4.42,8.0,-2.0,340,16,,6.21,30.088583,,,TRUE,,,,,,,,CAVOK,,,,,,,,VFR,,,,,,,,,,,,METAR,96.0
LFTH 150130Z AUTO 35011KT CAVOK 10/M03 Q1014 NOSIG,LFTH,2019-01-15T01:30:00Z,43.1,6.15,10.0,-3.0,350,11,,6.21,29.940945,,,TRUE,,,TRUE,,,,,CAVOK,,,,,,,,VFR,,,,,,,,,,,,METAR,4.0
LFST 150130Z AUTO 25004KT CAVOK 02/M01 Q1023 TEMPO 0500 FG VV///,LFST,2019-01-15T01:30:00Z,48.53,7.62,2.0,-1.0,250,4,,6.21,30.206694,,,TRUE,,,,,,,,CAVOK,,,,,,,,VFR,,,,,,,,,,,,METAR,154.0
LFRG 150130Z AUTO 25006KT 9999 OVC038 07/03 Q1025,LFRG,2019-01-15T01:30:00Z,49.37,0.15,7.0,3.0,250,6,,6.21,30.265747,,,TRUE,,,,,,,,OVC,3800,,,,,,,VFR,,,,,,,,,,,,METAR,146.0
LFOT 150130Z AUTO 28001KT 9999 OVC043 06/03 Q1026 NOSIG,LFOT,2019-01-15T01:30:00Z,47.43,0.72,6.0,3.0,280,1,,6.21,30.295275,,,TRUE,,,TRUE,,,,,OVC,4300,,,,,,,VFR,,,,,,,,,,,,METAR,108.0
LELL 150130Z AUTO 29003KT 280V060 9999 NCD 04/03 Q1020,LELL,2019-01-15T01:30:00Z,41.52,2.1,4.0,3.0,290,3,,6.21,30.11811,,,TRUE,,,,,,,,CLR,,,,,,,,VFR,,,,,,,,,,,,METAR,250.0
LETU 150130Z AUTO 27008KT 9999 FEW031 08/03 Q1023,LETU,2019-01-15T01:30:00Z,,,8.0,3.0,270,8,,6.21,30.206694,,,TRUE,,,,,,,,FEW,3100,,,,,,,VFR,,,,,,,,,,,,METAR,
LEBR 150130Z AUTO 30014KT 9999 NCD 08/04 Q1022,LEBR,2019-01-15T01:30:00Z,42.2,-1.43,8.0,4.0,300,14,,6.21,30.177166,,,TRUE,,,,,,,,CLR,,,,,,,,VFR,,,,,,,,,,,,METAR,295.0
LELO 150130Z AUTO 25008KT 9999 BKN030/// 07/04 Q1024,LELO,2019-01-15T01:30:00Z,42.45,-2.32,7.0,4.0,250,8,,6.21,30.236221,,,TRUE,,,,,,,,BKN,3000,,,,,,,MVFR,,,,,,,,,,,,METAR,363.0
LEBT 150130Z AUTO 30003KT 270V330 9999 NCD 03/02 Q1021,LEBT,2019-01-15T01:30:00Z,39.58,-0.45,3.0,2.0,300,3,,6.21,30.147638,,,TRUE,,,,,,,,CLR,,,,,,,,VFR,,,,,,,,,,,,METAR,50.0
LEHC 150130Z AUTO 00000KT 9999 NCD M00/M01 Q1020,LEHC,2019-01-15T01:30:00Z,42.08,-0.32,0.0,-1.0,0,0,,6.21,30.11811,,,TRUE,,,,,,,,CLR,,,,,,,,VFR,,,,,,,,,,,,METAR,539.0
LEBA 150130Z AUTO 00000KT CAVOK 02/00 Q1021,LEBA,2019-01-15T01:30:00Z,37.85,-4.82,2.0,0.0,0,0,,6.21,30.147638,,,TRUE,,,,,,,,CAVOK,,,,,,,,VFR,,,,,,,,,,,,METAR,92.0
RKSI 150130Z 34010KT 2800 HZ BKN030 00/M05 Q1024 NOSIG,RKSI,2019-01-15T01:30:00Z,37.47,126.45,0.0,-5.0,340,10,,1.74,30.236221,,,,,,TRUE,,,,HZ,BKN,3000,,,,,,,IFR,,,,,,,,,,,,METAR,7.0
UMMS 150130Z 27004G09MPS 230V300 9999 BKN021 M03/M05 Q0987 R31/590532 NOSIG,UMMS,2019-01-15T01:30:00Z,53.88,28.03,-3.0,-5.0,270,8,17,6.21,29.143702,,,,,,TRUE,,,,,BKN,2100,,,,,,,MVFR,,,,,,,,,,,,METAR,205.0
LEJR 150130Z AUTO 05002KT 9999 NCD 03/01 Q1021,LEJR,2019-01-15T01:30:00Z,36.75,-6.07,3.0,1.0,50,2,,6.21,30.147638,,,TRUE,,,,,,,,CLR,,,,,,,,VFR,,,,,,,,,,,,METAR,30.0
LEST 150130Z 10006KT 9000 NSC 05/04 Q1022 NOSIG,LEST,2019-01-15T01:30:00Z,42.88,-8.42,5.0,4.0,100,6,,5.59,30.177166,,,,,,TRUE,,,,,CLR,,,,,,,,VFR,,,,,,,,,,,,METAR,367.0
LEDA 150130Z AUTO 17003KT 9999 NCD 02/02 Q1021,LEDA,2019-01-15T01:30:00Z,41.73,0.53,2.0,2.0,170,3,,6.21,30.147638,,,TRUE,,,,,,,,CLR,,,,,,,,VFR,,,,,,,,,,,,METAR,350.0
LESA 150130Z AUTO 00000KT 1800 BR NSC M03/M04 Q1022,LESA,2019-01-15T01:30:00Z,40.95,-5.5,-3.0,-4.0,0,0,,1.12,30.177166,,,TRUE,,,,,,,BR,CLR,,,,,,,,IFR,,,,,,,,,,,,METAR,795.0
LFSD 150130Z AUTO 04002KT 8000 FEW022 OVC064 01/M00 Q1025,LFSD,2019-01-15T01:30:00Z,47.27,5.07,1.0,0.0,40,2,,4.97,30.265747,,,TRUE,,,,,,,,FEW,2200,OVC,6400,,,,,MVFR,,,,,,,,,,,,METAR,227.0
LFRQ 150130Z AUTO 27003KT 9999 OVC031 07/04 Q1026,LFRQ,2019-01-15T01:30:00Z,47.97,-4.17,7.0,4.0,270,3,,6.21,30.295275,,,TRUE,,,,,,,,OVC,3100,,,,,,,VFR,,,,,,,,,,,,METAR,94.0
LFRH 150130Z AUTO VRB01KT 9999 OVC034 07/02 Q1026 NOSIG,LFRH,2019-01-15T01:30:00Z,47.77,-3.45,7.0,2.0,0,1,,6.21,30.295275,,,TRUE,,,TRUE,,,,,OVC,3400,,,,,,,VFR,,,,,,,,,,,,METAR,44.0
LFPT 150130Z AUTO 25002KT 9999 OVC048 04/03 Q1024,LFPT,2019-01-15T01:30:00Z,49.1,2.03,4.0,3.0,250,2,,6.21,30.236221,,,TRUE,,,,,,,,OVC,4800,,,,,,,VFR,,,,,,,,,,,,METAR,99.0
LFPM 150130Z AUTO 24004KT CAVOK 06/04 Q1024,LFPM,2019-01-15T01:30:00Z,48.62,2.67,6.0,4.0,240,4,,6.21,30.236221,,,TRUE,,,,,,,,CAVOK,,,,,,,,VFR,,,,,,,,,,,,METAR,92.0
LFLN 150130Z AUTO 15002KT CAVOK 03/02 Q1025,LFLN,2019-01-15T01:30:00Z,46.42,4.02,3.0,2.0,150,2,,6.21,30.265747,,,TRUE,,,,,,,,CAVOK,,,,,,,,VFR,,,,,,,,,,,,METAR,244.0
LQBK 150130Z 29005KT CAVOK M01/M02 Q1015 NOSIG,LQBK,2019-01-15T01:30:00Z,44.93,17.3,-1.0,-2.0,290,5,,6.21,29.970472,,,,,,TRUE,,,,,CAVOK,,,,,,,,VFR,,,,,,,,,,,,METAR,122.0
RJCC 150130Z 14010KT 9999 FEW015 BKN045 00/M06 Q1017 RMK 1ST015 6CU045 A3006 P/FR,RJCC,2019-01-15T01:30:00Z,42.77,141.67,0.0,-6.0,140,10,,6.21,30.029528,,,,,,,,,,,FEW,1500,BKN,4500,,,,,VFR,,,,,,,,,,,,METAR,30.0
RJTT 150130Z 03004KT 350V050 9999 FEW030 BKN/// 06/M00 Q1022 BECMG 08005KT RMK 1CU030 A3020,RJTT,2019-01-15T01:30:00Z,35.53,139.77,6.0,0.0,30,4,,6.21,30.177166,,,,,,,,,,,FEW,3000,,,,,,,VFR,,,,,,,,,,,,METAR,8.0
ROAH 150130Z 10005KT 060V150 CAVOK 21/12 Q1020 RMK A3014,ROAH,2019-01-15T01:30:00Z,26.17,127.65,21.0,12.0,100,5,,6.21,30.11811,,,,,,,,,,,CAVOK,,,,,,,,VFR,,,,,,,,,,,,METAR,8.0
EICK 150130Z 24007KT 9999 SCT002 BKN016 06/06 Q1023 TEMPO 3000 BKN002,EICK,2019-01-15T01:30:00Z,51.85,-8.47,6.0,6.0,240,7,,6.21,30.206694,,,,,,,,,,,SCT,200,BKN,1600,,,,,MVFR,,,,,,,,,,,,SPECI,162.0
EINN 150130Z 23009KT 9999 BKN007 BKN045 09/08 Q1022 TEMPO 4000,EINN,2019-01-15T01:30:00Z,52.7,-8.92,9.0,8.0,230,9,,6.21,30.177166,,,,,,,,,,,BKN,700,BKN,4500,,,,,IFR,,,,,,,,,,,,SPECI,20.0
EIDW 150130Z 24006KT 190V280 9999 FEW006 BKN040 08/06 Q1020 NOSIG,EIDW,2019-01-15T01:30:00Z,53.42,-6.25,8.0,6.0,240,6,,6.21,30.11811,,,,,,TRUE,,,,,FEW,600,BKN,4000,,,,,VFR,,,,,,,,,,,,METAR,85.0
RJFF 150130Z 29009KT 260V330 8000 FEW020 SCT025 BKN030 10/04 Q1022 NOSIG RMK 1CU020 3CU025 6CU030 A3018,RJFF,2019-01-15T01:30:00Z,33.57,130.43,10.0,4.0,290,9,,4.97,30.177166,,,,,,TRUE,,,,,FEW,2000,SCT,2500,BKN,3000,,,MVFR,,,,,,,,,,,,METAR,12.0
LFRI 150130Z AUTO VRB02KT 9999 OVC037 07/01 Q1026,LFRI,2019-01-15T01:30:00Z,46.7,-1.37,7.0,1.0,0,2,,6.21,30.295275,,,TRUE,,,,,,,,OVC,3700,,,,,,,VFR,,,,,,,,,,,,METAR,91.0
OTBD 150130Z AUTO 10006KT CAVOK 20/17 Q1017 NOSIG,OTBD,2019-01-15T01:30:00Z,25.25,51.57,20.0,17.0,100,6,,6.21,30.029528,,,TRUE,,,TRUE,,,,,CAVOK,,,,,,,,VFR,,,,,,,,,,,,METAR,10.0
TFFF 150130Z AUTO 09006KT 9999 -RA SCT025/// SCT030/// BKN068/// ///TCU 23/21 Q1017 TEMPO 4000 SHRA SCT030,TFFF,2019-01-15T01:30:00Z,14.6,-61.0,23.0,21.0,90,6,,6.21,30.029528,,,TRUE,,,,,,,-RA,SCT,2500,SCT,3000,BKN,6800,,,VFR,,,,,,,,,,,,METAR,5.0
OICC 150130Z 28004KT 9999 SCT045 SCT100 03/01 Q1017 A3006,OICC,2019-01-15T01:30:00Z,34.35,47.17,3.0,1.0,280,4,,6.21,30.029528,,,,,,,,,,,SCT,4500,SCT,10000,,,,,VFR,,,,,,,,,,,,METAR,1322.0
OITR 150130Z 31004KT 9999 FEW040 M03/M04 Q1013,OITR,2019-01-15T01:30:00Z,37.67,45.07,-3.0,-4.0,310,4,,6.21,29.911417,,,,,,,,,,,FEW,4000,,,,,,,VFR,,,,,,,,,,,,METAR,1312.0
KBDU 150130Z AUTO 22005KT 10SM CLR 02/M11 A3016 RMK AO2,KBDU,2019-01-15T01:30:00Z,40.03,-105.23,2.0,-11.0,220,5,,10.0,30.159449,,,TRUE,TRUE,,,,,,,CLR,,,,,,,,VFR,,,,,,,,,,,,SPECI,1612.0
LEVT 150130Z 00000KT 9000 SCT010 SCT020 06/06 Q1024,LEVT,2019-01-15T01:30:00Z,42.87,-2.72,6.0,6.0,0,0,,5.59,30.236221,,,,,,,,,,,SCT,1000,SCT,2000,,,,,VFR,,,,,,,,,,,,METAR,509.0
LFOV 150130Z AUTO 30003KT 9999 OVC033 07/02 Q1026,LFOV,2019-01-15T01:30:00Z,48.03,-0.75,7.0,2.0,300,3,,6.21,30.295275,,,TRUE,,,,,,,,OVC,3300,,,,,,,VFR,,,,,,,,,,,,METAR,101.0
LWSK 150130Z 05003KT 6000 NSC M08/M09 Q1009 NOSIG,LWSK,2019-01-15T01:30:00Z,41.97,21.63,-8.0,-9.0,50,3,,3.73,29.793306,,,,,,TRUE,,,,,CLR,,,,,,,,MVFR,,,,,,,,,,,,METAR,239.0
LFPG 150130Z 21003KT CAVOK 06/03 Q1024 NOSIG,LFPG,2019-01-15T01:30:00Z,49.02,2.52,6.0,3.0,210,3,,6.21,30.236221,,,,,,TRUE,,,,,CAVOK,,,,,,,,VFR,,,,,,,,,,,,METAR,109.0
LFMN 150130Z 34010KT CAVOK 08/M01 Q1014 NOSIG,LFMN,2019-01-15T01:30:00Z,43.63,7.2,8.0,-1.0,340,10,,6.21,29.940945,,,,,,TRUE,,,,,CAVOK,,,,,,,,VFR,,,,,,,,,,,,METAR,10.0
LFLL 150130Z 36006KT CAVOK 02/02 Q1024 NOSIG,LFLL,2019-01-15T01:30:00Z,45.72,5.07,2.0,2.0,360,6,,6.21,30.236221,,,,,,TRUE,,,,,CAVOK,,,,,,,,VFR,,,,,,,,,,,,METAR,240.0
LFBH 150130Z AUTO 08002KT 9999 OVC040 08/02 Q1026 NOSIG,LFBH,2019-01-15T01:30:00Z,46.18,-1.2,8.0,2.0,80,2,,6.21,30.295275,,,TRUE,,,TRUE,,,,,OVC,4000,,,,,,,VFR,,,,,,,,,,,,METAR,10.0
LFBD 150130Z AUTO VRB02KT 9999 OVC039 07/04 Q1026 NOSIG,LFBD,2019-01-15T01:30:00Z,44.82,-0.7,7.0,4.0,0,2,,6.21,30.295275,,,TRUE,,,TRUE,,,,,OVC,3900,,,,,,,VFR,,,,,,,,,,,,METAR,61.0
LFPV 150130Z AUTO 25003KT 9999 OVC046 05/03 Q1024 NOSIG,LFPV,2019-01-15T01:30:00Z,48.77,2.2,5.0,3.0,250,3,,6.21,30.236221,,,TRUE,,,TRUE,,,,,OVC,4600,,,,,,,VFR,,,,,,,,,,,,METAR,179.0
LFOA 150130Z AUTO 31003KT 9999 OVC047 05/03 Q1025,LFOA,2019-01-15T01:30:00Z,47.03,2.63,5.0,3.0,310,3,,6.21,30.265747,,,TRUE,,,,,,,,OVC,4700,,,,,,,VFR,,,,,,,,,,,,METAR,179.0
LFMY 150130Z AUTO 32018KT 270V350 CAVOK 08/01 Q1018,LFMY,2019-01-15T01:30:00Z,43.6,5.08,8.0,1.0,320,18,,6.21,30.059055,,,TRUE,,,,,,,,CAVOK,,,,,,,,VFR,,,,,,,,,,,,METAR,60.0
LFMO 150130Z AUTO 34023G35KT CAVOK 08/01 Q1019 TEMPO 35030G45KT,LFMO,2019-01-15T01:30:00Z,44.12,4.87,8.0,1.0,340,23,35,6.21,30.088583,,,TRUE,,,,,,,,CAVOK,,,,,,,,VFR,,,,,,,,,,,,METAR,55.0
LFMC 150130Z AUTO 21005KT 160V260 9999 ////// 07/M02 Q1015,LFMC,2019-01-15T01:30:00Z,43.37,6.37,7.0,-2.0,210,5,,6.21,29.970472,,,TRUE,,,,,,,,,,,,,,,,,,,,,,,,,,,,METAR,78.0
LFKS 150130Z AUTO VRB03KT CAVOK 08/M02 Q1013,LFKS,2019-01-15T01:30:00Z,41.92,9.4,8.0,-2.0,0,3,,6.21,29.911417,,,TRUE,,,,,,,,CAVOK,,,,,,,,VFR,,,,,,,,,,,,METAR,22.0
LFBY 150130Z AUTO VRB03KT 9000 // OVC040 08/07 Q1025,LFBY,2019-01-15T01:30:00Z,43.67,-1.07,8.0,7.0,0,3,,5.59,30.265747,,,TRUE,,,,,,,,OVC,4000,,,,,,,VFR,,,,,,,,,,,,METAR,32.0
LFBM 150130Z AUTO 00000KT 9999 OVC037 07/06 Q1026 NOSIG,LFBM,2019-01-15T01:30:00Z,43.92,-0.5,7.0,6.0,0,0,,6.21,30.295275,,,TRUE,,,TRUE,,,,,OVC,3700,,,,,,,VFR,,,,,,,,,,,,METAR,63.0
LFBG 150130Z AUTO 00000KT 9999 OVC043 04/02 Q1026,LFBG,2019-01-15T01:30:00Z,45.67,-0.32,4.0,2.0,0,0,,6.21,30.295275,,,TRUE,,,,,,,,OVC,4300,,,,,,,VFR,,,,,,,,,,,,METAR,31.0
LFBC 150130Z AUTO 36001KT 9999 OVC037 08/04 Q1026,LFBC,2019-01-15T01:30:00Z,44.52,-1.12,8.0,4.0,360,1,,6.21,30.295275,,,TRUE,,,,,,,,OVC,3700,,,,,,,VFR,,,,,,,,,,,,METAR,33.0
OITT 150130Z 31006KT 9999 FEW035 M01/M04 Q1015 A2997,OITT,2019-01-15T01:30:00Z,38.13,46.23,-1.0,-4.0,310,6,,6.21,29.970472,,,,,,,,,,,FEW,3500,,,,,,,VFR,,,,,,,,,,,,METAR,1361.0
OISS 150130Z 00000KT 9999 FEW040 BKN180 08/M01 Q1021 A3017,OISS,2019-01-15T01:30:00Z,29.52,52.57,8.0,-1.0,0,0,,6.21,30.147638,,,,,,,,,,,FEW,4000,BKN,18000,,,,,VFR,,,,,,,,,,,,METAR,1491.0
OIMM 150130Z 23004KT 9999 SCT030 SCT200 09/03 Q1013 A2991,OIMM,2019-01-15T01:30:00Z,36.23,59.62,9.0,3.0,230,4,,6.21,29.911417,,,,,,,,,,,SCT,3000,SCT,20000,,,,,VFR,,,,,,,,,,,,METAR,980.0
OIII 150130Z 30010KT 9999 FEW035 SCT200 08/M02 Q1014 A2995,OIII,2019-01-15T01:30:00Z,35.68,51.3,8.0,-2.0,300,10,,6.21,29.940945,,,,,,,,,,,FEW,3500,SCT,20000,,,,,VFR,,,,,,,,,,,,METAR,1191.0
OIFM 150130Z 10004KT CAVOK 01/00 Q1017 A3003,OIFM,2019-01-15T01:30:00Z,32.75,51.87,1.0,0.0,100,4,,6.21,30.029528,,,,,,,,,,,CAVOK,,,,,,,,VFR,,,,,,,,,,,,METAR,1542.0
CMGB 150130Z AUTO 22003KT M12/M15 RMK AO1 SOG 16 8010 SLP222 T11211149,CMGB,2019-01-15T01:30:00Z,45.37,-72.77,-12.1,-14.9,220,3,,,,1022.2,,TRUE,TRUE,,,,,,,,,,,,,,,,,,,,,,,,,,,SPECI,86.0
LFRK 150130Z AUTO 26005KT 9999 OVC036 07/03 Q1025,LFRK,2019-01-15T01:30:00Z,49.17,-0.45,7.0,3.0,260,5,,6.21,30.265747,,,TRUE,,,,,,,,OVC,3600,,,,,,,VFR,,,,,,,,,,,,METAR,67.0
LFRC 150130Z AUTO 28008KT 9999 OVC032 07/01 Q1024,LFRC,2019-01-15T01:30:00Z,49.63,-1.47,7.0,1.0,280,8,,6.21,30.236221,,,TRUE,,,,,,,,OVC,3200,,,,,,,VFR,,,,,,,,,,,,METAR,138.0
LFPN 150130Z AUTO 24004KT 9999 OVC045 06/03 Q1024,LFPN,2019-01-15T01:30:00Z,48.75,2.12,6.0,3.0,240,4,,6.21,30.236221,,,TRUE,,,,,,,,OVC,4500,,,,,,,VFR,,,,,,,,,,,,METAR,164.0
LFJR 150130Z AUTO 00000KT 9999 OVC041 05/03 Q1026,LFJR,2019-01-15T01:30:00Z,47.57,-0.3,5.0,3.0,0,0,,6.21,30.295275,,,TRUE,,,,,,,,OVC,4100,,,,,,,VFR,,,,,,,,,,,,METAR,60.0
KC07 150130Z AUTO 25007KT 10SM CLR M08/M18 A3024 RMK AO2,KC07,2019-01-15T01:30:00Z,40.35,-106.7,-8.0,-18.0,250,7,,10.0,30.239174,,,TRUE,TRUE,,,,,,,CLR,,,,,,,,VFR,,,,,,,,,,,,SPECI,3224.0
LFBL 150130Z AUTO 01004KT 340V060 9999 OVC035 05/M01 Q1025 TEMPO 4000 BR,LFBL,2019-01-15T01:30:00Z,45.87,1.17,5.0,-1.0,10,4,,6.21,30.265747,,,TRUE,,,,,,,,OVC,3500,,,,,,,VFR,,,,,,,,,,,,SPECI,402.0
LFBI 150130Z AUTO 30004KT 9999 OVC042 06/03 Q1026 TEMPO 3000 BR,LFBI,2019-01-15T01:30:00Z,46.57,0.32,6.0,3.0,300,4,,6.21,30.295275,,,TRUE,,,,,,,,OVC,4200,,,,,,,VFR,,,,,,,,,,,,METAR,120.0
LFSB 150130Z AUTO 24007KT 9999 SCT045 OVC070 03/02 Q1024 NOSIG,LFSB,2019-01-15T01:30:00Z,47.6,7.52,3.0,2.0,240,7,,6.21,30.236221,,,TRUE,,,TRUE,,,,,SCT,4500,OVC,7000,,,,,VFR,,,,,,,,,,,,METAR,271.0
LFRN 150130Z AUTO 00000KT 9999 OVC034 07/03 Q1026 NOSIG,LFRN,2019-01-15T01:30:00Z,48.07,-1.72,7.0,3.0,0,0,,6.21,30.295275,,,TRUE,,,TRUE,,,,,OVC,3400,,,,,,,VFR,,,,,,,,,,,,METAR,37.0
LFRD 150130Z AUTO 25004KT 9999 OVC033 07/04 Q1026 NOSIG,LFRD,2019-01-15T01:30:00Z,48.58,-2.07,7.0,4.0,250,4,,6.21,30.295275,,,TRUE,,,TRUE,,,,,OVC,3300,,,,,,,VFR,,,,,,,,,,,,METAR,59.0
LFPB 150130Z AUTO 00000KT CAVOK 05/03 Q1024 NOSIG,LFPB,2019-01-15T01:30:00Z,48.97,2.45,5.0,3.0,0,0,,6.21,30.236221,,,TRUE,,,TRUE,,,,,CAVOK,,,,,,,,VFR,,,,,,,,,,,,METAR,65.0
LFOK 150130Z AUTO 24006KT CAVOK 02/02 Q1024 TEMPO 2000 BR,LFOK,2019-01-15T01:30:00Z,48.78,4.18,2.0,2.0,240,6,,6.21,30.236221,,,TRUE,,,,,,,,CAVOK,,,,,,,,VFR,,,,,,,,,,,,SPECI,162.0
LFOB 150130Z AUTO 00000KT 9999 OVC047 04/03 Q1024 NOSIG,LFOB,2019-01-15T01:30:00Z,49.47,2.12,4.0,3.0,0,0,,6.21,30.236221,,,TRUE,,,TRUE,,,,,OVC,4700,,,,,,,VFR,,,,,,,,,,,,METAR,111.0
LFMU 150130Z AUTO 34010KT CAVOK 08/01 Q1022,LFMU,2019-01-15T01:30:00Z,43.32,3.35,8.0,1.0,340,10,,6.21,30.177166,,,TRUE,,,,,,,,CAVOK,,,,,,,,VFR,,,,,,,,,,,,METAR,17.0
LFMT 150130Z AUTO 28007KT CAVOK 05/M02 Q1021 NOSIG,LFMT,2019-01-15T01:30:00Z,43.57,3.97,5.0,-2.0,280,7,,6.21,30.147638,,,TRUE,,,TRUE,,,,,CAVOK,,,,,,,,VFR,,,,,,,,,,,,METAR,6.0
LFMK 150130Z AUTO 27012KT 9999 BKN041 08/06 Q1024,LFMK,2019-01-15T01:30:00Z,43.22,2.32,8.0,6.0,270,12,,6.21,30.236221,,,TRUE,,,,,,,,BKN,4100,,,,,,,VFR,,,,,,,,,,,,METAR,130.0
LFLY 150130Z AUTO 34005KT CAVOK 04/02 Q1024 TEMPO BKN014,LFLY,2019-01-15T01:30:00Z,45.72,4.95,4.0,2.0,340,5,,6.21,30.236221,,,TRUE,,,,,,,,CAVOK,,,,,,,,VFR,,,,,,,,,,,,SPECI,201.0
LFRS 150130Z AUTO 32002KT 9999 OVC038 08/02 Q1026 NOSIG,LFRS,2019-01-15T01:30:00Z,47.17,-1.6,8.0,2.0,320,2,,6.21,30.295275,,,TRUE,,,TRUE,,,,,OVC,3800,,,,,,,VFR,,,,,,,,,,,,METAR,27.0
LFRB 150130Z AUTO 25002KT 9999 OVC026 08/04 Q1026 NOSIG,LFRB,2019-01-15T01:30:00Z,48.45,-4.42,8.0,4.0,250,2,,6.21,30.295275,,,TRUE,,,TRUE,,,,,OVC,2600,,,,,,,MVFR,,,,,,,,,,,,METAR,103.0
LFQQ 150130Z AUTO 20001KT 8000 NSC 03/03 Q1022 NOSIG,LFQQ,2019-01-15T01:30:00Z,50.57,3.1,3.0,3.0,200,1,,4.97,30.177166,,,TRUE,,,TRUE,,,,,CLR,,,,,,,,MVFR,,,,,,,,,,,,METAR,52.0
LFPO 150130Z 24004KT CAVOK 06/04 Q1024 NOSIG,LFPO,2019-01-15T01:30:00Z,48.72,2.38,6.0,4.0,240,4,,6.21,30.236221,,,,,,TRUE,,,,,CAVOK,,,,,,,,VFR,,,,,,,,,,,,METAR,96.0
LFMP 150130Z AUTO 32007G18KT 260V020 9999 FEW036 10/04 Q1021,LFMP,2019-01-15T01:30:00Z,42.72,2.87,10.0,4.0,320,7,18,6.21,30.147638,,,TRUE,,,,,,,,FEW,3600,,,,,,,VFR,,,,,,,,,,,,METAR,48.0
LFLS 150130Z AUTO 01007KT CAVOK 03/00 Q1023,LFLS,2019-01-15T01:30:00Z,45.37,5.32,3.0,0.0,10,7,,6.21,30.206694,,,TRUE,,,,,,,,CAVOK,,,,,,,,VFR,,,,,,,,,,,,METAR,386.0
LFLC 150130Z AUTO 09002KT 9999 OVC046 04/01 Q1024 TEMPO 0800 BCFG OVC005,LFLC,2019-01-15T01:30:00Z,45.77,3.17,4.0,1.0,90,2,,6.21,30.236221,,,TRUE,,,,,,,,OVC,4600,,,,,,,VFR,,,,,,,,,,,,SPECI,330.0
LFKJ 150130Z AUTO 05003KT 020V080 CAVOK 05/02 Q1013 NOSIG,LFKJ,2019-01-15T01:30:00Z,41.92,8.8,5.0,2.0,50,3,,6.21,29.911417,,,TRUE,,,TRUE,,,,,CAVOK,,,,,,,,VFR,,,,,,,,,,,,METAR,9.0
LFKF 150130Z AUTO VRB02KT CAVOK M00/M01 Q1013,LFKF,2019-01-15T01:30:00Z,41.5,9.08,0.0,-1.0,0,2,,6.21,29.911417,,,TRUE,,,,,,,,CAVOK,,,,,,,,VFR,,,,,,,,,,,,METAR,23.0
LFRV 150130Z AUTO 26002KT 9999 OVC032 06/03 Q1026,LFRV,2019-01-15T01:30:00Z,47.72,-2.72,6.0,3.0,260,2,,6.21,30.295275,,,TRUE,,,,,,,,OVC,3200,,,,,,,VFR,,,,,,,,,,,,METAR,133.0
LFRO 150130Z AUTO 26003KT 9999 OVC028 07/04 Q1026,LFRO,2019-01-15T01:30:00Z,48.75,-3.47,7.0,4.0,260,3,,6.21,30.295275,,,TRUE,,,,,,,,OVC,2800,,,,,,,MVFR,,,,,,,,,,,,METAR,89.0
LFRM 150130Z AUTO 00000KT 9999 FEW030 OVC040 07/03 Q1026,LFRM,2019-01-15T01:30:00Z,47.95,0.2,7.0,3.0,0,0,,6.21,30.295275,,,TRUE,,,,,,,,FEW,3000,OVC,4000,,,,,VFR,,,,,,,,,,,,METAR,52.0
LFBP 150130Z AUTO 03002KT 5000 BR SCT006 BKN015 OVC020 08/08 Q1025 TEMPO 0800 BCFG BKN004,LFBP,2019-01-15T01:30:00Z,43.37,-0.42,8.0,8.0,30,2,,3.11,30.265747,,,TRUE,,,,,,,BR,SCT,600,BKN,1500,OVC,2000,,,MVFR,,,,,,,,,,,,SPECI,185.0
LFBO 150130Z AUTO 30004KT 9999 OVC036 07/05 Q1025 NOSIG,LFBO,2019-01-15T01:30:00Z,43.62,1.37,7.0,5.0,300,4,,6.21,30.265747,,,TRUE,,,TRUE,,,,,OVC,3600,,,,,,,VFR,,,,,,,,,,,,METAR,153.0
LFLP 150130Z AUTO 04003KT 9999 BKN007 M01/M01 Q1023,LFLP,2019-01-15T01:30:00Z,45.92,6.08,-1.0,-1.0,40,3,,6.21,30.206694,,,TRUE,,,,,,,,BKN,700,,,,,,,IFR,,,,,,,,,,,,METAR,463.0
LFCK 150130Z AUTO 31005KT 9999 BKN043 05/04 Q1025,LFCK,2019-01-15T01:30:00Z,43.55,2.28,5.0,4.0,310,5,,6.21,30.265747,,,TRUE,,,,,,,,BKN,4300,,,,,,,VFR,,,,,,,,,,,,METAR,240.0
LFSG 150130Z AUTO 24004KT //// R26///// // BKN045 OVC058 02/01 Q1023,LFSG,2019-01-15T01:30:00Z,48.33,6.07,2.0,1.0,240,4,,,30.206694,,,TRUE,,,,,,,,BKN,4500,OVC,5800,,,,,,,,,,,,,,,,,METAR,330.0
LFLX 150130Z AUTO 33003KT 9999 OVC044 05/03 Q1025 NOSIG,LFLX,2019-01-15T01:30:00Z,46.85,1.72,5.0,3.0,330,3,,6.21,30.265747,,,TRUE,,,TRUE,,,,,OVC,4400,,,,,,,VFR,,,,,,,,,,,,METAR,157.0
WAMM 150130Z 00000KT 3000 -RA FEW015CB SCT016 24/24 Q1011 TEMPO -RA CB IN CLIMB,WAMM,2019-01-15T01:30:00Z,1.55,124.92,24.0,24.0,0,0,,1.86,29.852362,,,,,,,,,,-RA,FEW,1500,SCT,1600,,,,,IFR,,,,,,,,,,,,METAR,80.0
WADL 150130Z 32008KT 290V350 8000 FEW016 29/26 Q1008 NOSIG,WADL,2019-01-15T01:30:00Z,-8.75,116.28,29.0,26.0,320,8,,4.97,29.763779,,,,,,TRUE,,,,,FEW,1600,,,,,,,MVFR,,,,,,,,,,,,METAR,97.0
OBBI 150130Z 12008KT CAVOK 20/16 Q1017 NOSIG,OBBI,2019-01-15T01:30:00Z,26.27,50.63,20.0,16.0,120,8,,6.21,30.029528,,,,,,TRUE,,,,,CAVOK,,,,,,,,VFR,,,,,,,,,,,,METAR,2.0
LFBZ 150130Z AUTO 12003KT 9999 OVC036 09/08 Q1025 NOSIG,LFBZ,2019-01-15T01:30:00Z,43.47,-1.52,9.0,8.0,120,3,,6.21,30.265747,,,TRUE,,,TRUE,,,,,OVC,3600,,,,,,,VFR,,,,,,,,,,,,METAR,71.0
LFBT 150130Z AUTO 11002KT 9999 OVC015 07/06 Q1025 TEMPO 0600 FG VV///,LFBT,2019-01-15T01:30:00Z,43.17,0.0,7.0,6.0,110,2,,6.21,30.265747,,,TRUE,,,,,,,,OVC,1500,,,,,,,MVFR,,,,,,,,,,,,SPECI,363.0
LFJL 150130Z AUTO 21009KT 9999 FEW048 OVC058 02/02 Q1023 TEMPO 0300 FG VV///,LFJL,2019-01-15T01:30:00Z,48.97,6.25,2.0,2.0,210,9,,6.21,30.206694,,,TRUE,,,,,,,,FEW,4800,OVC,5800,,,,,VFR,,,,,,,,,,,,METAR,264.0
LFBE 150130Z AUTO 00000KT 9999 BKN044 04/03 Q1026,LFBE,2019-01-15T01:30:00Z,44.82,0.52,4.0,3.0,0,0,,6.21,30.295275,,,TRUE,,,,,,,,BKN,4400,,,,,,,VFR,,,,,,,,,,,,METAR,52.0
LFMD 150130Z AUTO VRB04KT CAVOK 04/01 Q1014,LFMD,2019-01-15T01:30:00Z,43.53,6.95,4.0,1.0,0,4,,6.21,29.940945,,,TRUE,,,,,,,,CAVOK,,,,,,,,VFR,,,,,,,,,,,,METAR,9.0
LFRL 150130Z AUTO 24002KT 9999 OVC027 08/03 Q1026,LFRL,2019-01-15T01:30:00Z,48.27,-4.42,8.0,3.0,240,2,,6.21,30.295275,,,TRUE,,,,,,,,OVC,2700,,,,,,,MVFR,,,,,,,,,,,,METAR,82.0
LFRJ 150130Z AUTO 23004KT 9999 OVC026 07/04 Q1026,LFRJ,2019-01-15T01:30:00Z,48.52,-4.15,7.0,4.0,230,4,,6.21,30.295275,,,TRUE,,,,,,,,OVC,2600,,,,,,,MVFR,,,,,,,,,,,,METAR,115.0
LFOJ 150130Z AUTO 26006KT 9999 OVC045 06/03 Q1025 TEMPO 0400 FG VV///,LFOJ,2019-01-15T01:30:00Z,47.97,1.75,6.0,3.0,260,6,,6.21,30.265747,,,TRUE,,,,,,,,OVC,4500,,,,,,,VFR,,,,,,,,,,,,SPECI,125.0
LFOE 150130Z AUTO 25005KT 9999 OVC042 06/03 Q1024 TEMPO 3000 BR,LFOE,2019-01-15T01:30:00Z,49.02,1.22,6.0,3.0,250,5,,6.21,30.236221,,,TRUE,,,,,,,,OVC,4200,,,,,,,VFR,,,,,,,,,,,,SPECI,146.0
LFOC 150130Z AUTO 27004KT 9999 OVC040 06/02 Q1025,LFOC,2019-01-15T01:30:00Z,48.03,1.37,6.0,2.0,270,4,,6.21,30.265747,,,TRUE,,,,,,,,OVC,4000,,,,,,,VFR,,,,,,,,,,,,METAR,127.0
LFSN 150130Z AUTO VRB02KT 9999 FEW045 OVC066 04/01 Q1023,LFSN,2019-01-15T01:30:00Z,48.67,6.22,4.0,1.0,0,2,,6.21,30.206694,,,TRUE,,,,,,,,FEW,4500,OVC,6600,,,,,VFR,,,,,,,,,,,,METAR,217.0
LFQB 150130Z AUTO 26007KT 9999 ////// 06/04 Q1024,LFQB,2019-01-15T01:30:00Z,48.32,4.02,6.0,4.0,260,7,,6.21,30.236221,,,TRUE,,,,,,,,,,,,,,,,,,,,,,,,,,,,METAR,118.0
LFQA 150130Z AUTO 00000KT CAVOK 03/02 Q1023,LFQA,2019-01-15T01:30:00Z,49.2,4.15,3.0,2.0,0,0,,6.21,30.206694,,,TRUE,,,,,,,,CAVOK,,,,,,,,VFR,,,,,,,,,,,,METAR,95.0
LFOP 150130Z AUTO 26005KT 9999 OVC041 06/03 Q1024,LFOP,2019-01-15T01:30:00Z,49.37,1.17,6.0,3.0,260,5,,6.21,30.236221,,,TRUE,,,,,,,,OVC,4100,,,,,,,VFR,,,,,,,,,,,,METAR,157.0
LFOH 150130Z AUTO 28007KT 9999 OVC037 08/01 Q1024,LFOH,2019-01-15T01:30:00Z,49.52,0.07,8.0,1.0,280,7,,6.21,30.236221,,,TRUE,,,,,,,,OVC,3700,,,,,,,VFR,,,,,,,,,,,,METAR,103.0
LFGJ 150130Z AUTO 00000KT 6000 NSC 03/02 Q1025,LFGJ,2019-01-15T01:30:00Z,47.05,5.43,3.0,2.0,0,0,,3.73,30.265747,,,TRUE,,,,,,,,CLR,,,,,,,,MVFR,,,,,,,,,,,,METAR,196.0
KCPW 150129Z AUTO 00000KT 10SM SCT120 M10/M10 A3032 RMK AO2,KCPW,2019-01-15T01:29:00Z,37.45,-106.8,-10.0,-10.0,0,0,,10.0,30.318897,,,TRUE,TRUE,,,,,,,SCT,12000,,,,,,,VFR,,,,,,,,,,,,METAR,3584.0
CYMT 150129Z AUTO 26005KT 5SM -SN BKN021 OVC035 M11/M13 A2994 RMK SLP175,CYMT,2019-01-15T01:29:00Z,49.77,-74.52,-11.0,-13.0,260,5,,5.0,29.940945,1017.5,,TRUE,,,,,,,-SN,BKN,2100,OVC,3500,,,,,MVFR,,,,,,,,,,,,SPECI,387.0
KMYR 150129Z 02004KT 10SM FEW014 03/01 A3024 RMK AO2,KMYR,2019-01-15T01:29:00Z,33.67,-78.92,3.0,1.0,20,4,,10.0,30.239174,,,,TRUE,,,,,,,FEW,1400,,,,,,,VFR,,,,,,,,,,,,SPECI,8.0
PABA 150129Z AUTO 09028G32KT 2 1/2SM HZ CLR M25/M28 A3032 RMK AO2 PK WND 09032/0127 VIS 2 1/2V3 FZRANO TSNO,PABA,2019-01-15T01:29:00Z,70.13,-143.58,-25.0,-28.0,90,28,32,2.5,30.318897,,,TRUE,TRUE,,,TRUE,TRUE,,HZ,CLR,,,,,,,,IFR,,,,,,,,,,,,SPECI,2.0
KMIW 150129Z AUTO 21004KT 2 1/2SM BR OVC004 M02/M02 A3025 RMK AO2 I1001 T10221022,KMIW,2019-01-15T01:29:00Z,42.12,-92.92,-2.2,-2.2,210,4,,2.5,30.250984,,,TRUE,TRUE,,,,,,BR,OVC,400,,,,,,,LIFR,,,,,,,,,,,,SPECI,296.0
EHWO 150129Z AUTO 22005KT 9999 BKN019 BKN029 BKN046 04/03 Q1021 WHT,EHWO,2019-01-15T01:29:00Z,51.45,4.32,4.0,3.0,220,5,,6.21,30.147638,,,TRUE,,,,,,,,BKN,1900,BKN,2900,BKN,4600,,,MVFR,,,,,,,,,,,,SPECI,17.0
KRDR 150129Z AUTO 17003KT 8SM OVC003 M08/M08 A3023 RMK AO2 SNE09SNB11E12SNB14E29 SLP260 $,KRDR,2019-01-15T01:29:00Z,47.97,-97.4,-8.0,-8.0,170,3,,8.0,30.230314,1026.0,,TRUE,TRUE,TRUE,,,,,,OVC,300,,,,,,,LIFR,,,,,,,,,,,,SPECI,278.0
KFRM 150128Z AUTO 27003KT 10SM OVC010 M02/M03 A3023 RMK AO2 FZRANO,KFRM,2019-01-15T01:28:00Z,43.63,-94.42,-2.0,-3.0,270,3,,10.0,30.230314,,,TRUE,TRUE,,,,TRUE,,,OVC,1000,,,,,,,MVFR,,,,,,,,,,,,METAR,354.0
PAPH 150128Z AUTO 12037G45KT 10SM -RA FEW025 BKN034 OVC040 05/03 A2915 RMK AO2 PK WND 12045/0128 PRESFR P0002 $,PAPH,2019-01-15T01:28:00Z,56.95,-158.62,5.0,3.0,120,37,45,10.0,29.149607,,,TRUE,TRUE,TRUE,,,,,-RA,FEW,2500,BKN,3400,OVC,4000,,,VFR,,,,,,0.02,,,,,,METAR,29.0
PAPM 150128Z AUTO 10034G43KT 1 3/4SM UP BR BKN015 OVC022 02/00 A2922 RMK AO2 PK WND 09044/0100 VIS 1 1/4V2 RAB0057E08 P0003 FZRANO,PAPM,2019-01-15T01:28:00Z,59.02,-161.82,2.0,0.0,100,34,43,1.75,29.220472,,,TRUE,TRUE,,,,TRUE,,BR UP,BKN,1500,OVC,2200,,,,,IFR,,,,,,0.03,,,,,,METAR,5.0
CYQR 150128Z 16009KT 1 1/2SM BR SKC M06/M07 A2996 RMK FG4 SLP185,CYQR,2019-01-15T01:28:00Z,50.43,-104.67,-6.0,-7.0,160,9,,1.5,29.958662,1018.5,,,,,,,,,BR,SKC,,,,,,,,IFR,,,,,,,,,,,,SPECI,577.0
K9L2 150128Z AUTO 32015KT 3/4SM -RA BR BKN013 OVC036 04/04 A2998 RMK AO2 RAE10DZB10E14RAB14 SLP156 RVRNO,K9L2,2019-01-15T01:28:00Z,34.97,-117.87,4.0,4.0,320,15,,0.75,29.97933,1015.6,,TRUE,TRUE,,,,,,-RA BR,BKN,1300,OVC,3600,,,,,LIFR,,,,,,,,,,,,SPECI,701.0
KCAK 150128Z 28009KT 7SM OVC010 M03/M06 A3022 RMK AO2 T10281061,KCAK,2019-01-15T01:28:00Z,40.92,-81.45,-2.8,-6.1,280,9,,7.0,30.221457,,,,TRUE,,,,,,,OVC,1000,,,,,,,MVFR,,,,,,,,,,,,SPECI,377.0
CYQQ 150128Z 20004KT 1/8SM R12/0800FT/D FG SKC 01/01 A2998 RMK FG6 SLP154,CYQQ,2019-01-15T01:28:00Z,49.72,-124.9,1.0,1.0,200,4,,0.13,29.97933,1015.4,,,,,,,,,FG,SKC,,,,,,,,LIFR,,,,,,,,,,,,SPECI,24.0
EHLW 150128Z AUTO 24010KT 9999 SCT031/// OVC088/// 04/01 Q1016 BLU,EHLW,2019-01-15T01:28:00Z,53.22,5.75,4.0,1.0,240,10,,6.21,30.0,,,TRUE,,,,,,,,SCT,3100,OVC,8800,,,,,VFR,,,,,,,,,,,,SPECI,2.0
EGVA 150128Z AUTO 25010KT 1400 R27/0700VP1500 BR CLR 02/01 A3018 RMK AO2 VIS 1200V2000 SLP227 $,EGVA,2019-01-15T01:28:00Z,51.67,-1.77,2.0,1.0,250,10,,0.87,30.180119,1022.7,,TRUE,TRUE,TRUE,,,,,BR,CLR,,,,,,,,LIFR,,,,,,,,,,,,SPECI,87.0
OKAS 150128Z 34009KT 6000 BR VCTS OVC080 12/09 A3005 RMK AO2A LTG DSNT S-SW SLP175 WND DATA ESTMD PA +353,OKAS,2019-01-15T01:28:00Z,,,12.0,9.0,340,9,,3.73,30.050198,1017.5,,,TRUE,,,,,,BR VCTS,OVC,8000,,,,,,,MVFR,,,,,,,,,,,,SPECI,
KEPH 150127Z AUTO 01007KT 10SM OVC009 M02/M03 A3023 RMK AO2 T10171033,KEPH,2019-01-15T01:27:00Z,47.3,-119.52,-1.7,-3.3,10,7,,10.0,30.230314,,,TRUE,TRUE,,,,,,,OVC,900,,,,,,,IFR,,,,,,,,,,,,METAR,383.0
KCAG 150127Z AUTO 00000KT 10SM BKN004 M16/M18 A3033 RMK AO2 T11561178,KCAG,2019-01-15T01:27:00Z,40.5,-107.52,-15.6,-17.8,0,0,,10.0,30.33071,,,TRUE,TRUE,,,,,,,BKN,400,,,,,,,LIFR,,,,,,,,,,,,METAR,1887.0
KHEF 150127Z 00000KT 1/2SM FZFG CLR M09/M12 A3021 RMK AO2 VIS 1/4V3 PNO $,KHEF,2019-01-15T01:27:00Z,38.72,-77.52,-9.0,-12.0,0,0,,0.5,30.209646,,,,TRUE,TRUE,,,,,FZFG,CLR,,,,,,,,LIFR,,,,,,,,,,,,METAR,59.0
CYIO 150127Z AUTO 20004KT 8SM CLR M40/M45 A2987 RMK SLP130,CYIO,2019-01-15T01:27:00Z,72.67,-77.97,-40.0,-45.0,200,4,,8.0,29.870079,1013.0,,TRUE,,,,,,,,CLR,,,,,,,,VFR,,,,,,,,,,,,SPECI,57.0
PAEG 150127Z AUTO 12010G18KT 080V140 10SM FEW020 SCT025 M12/M17 A3012 RMK AO2 T11221172 TSNO,PAEG,2019-01-15T01:27:00Z,64.78,-141.15,-12.2,-17.2,120,10,18,10.0,30.121063,,,TRUE,TRUE,,,TRUE,,,,FEW,2000,SCT,2500,,,,,VFR,,,,,,,,,,,,METAR,268.0
KQND 150127Z AUTO 00000KT 4400 HZ CLR 18/M01 A3000 RMK AO2 SLP151 WND DATA ESTMD,KQND,2019-01-15T01:27:00Z,,,18.0,-1.0,0,0,,2.73,30.0,1015.1,,TRUE,TRUE,,,,,,HZ,CLR,,,,,,,,IFR,,,,,,,,,,,,SPECI,
PAWI 150127Z AUTO 10026G36KT 1/4SM UP VV005 M22/M25 A3006 RMK AO2 PK WND 10037/0106 SNB08E13 P0000 T12171250 TSNO,PAWI,2019-01-15T01:27:00Z,70.62,-159.85,-21.7,-25.0,100,26,36,0.25,30.059055,,,TRUE,TRUE,,,TRUE,,,UP,OVX,0,,,,,,,LIFR,,,,,,0.005,,,,,500,SPECI,27.0
ETAD 150127Z AUTO 24006KT 9999 FEW012 SCT020 SCT028 OVC049 01/00 A3015 RMK AO2 RAE22DZB22E27 SLP217 $,ETAD,2019-01-15T01:27:00Z,49.98,6.7,1.0,0.0,240,6,,6.21,30.15059,1021.7,,TRUE,TRUE,TRUE,,,,,,FEW,1200,SCT,2000,SCT,2800,OVC,4900,VFR,,,,,,,,,,,,SPECI,365.0
KNXP 150126Z 00000KT 5SM RA SCT023 BKN029 OVC033 08/07 A3009 RMK AO2 P0002 T00830072,KNXP,2019-01-15T01:26:00Z,34.28,-116.17,8.3,7.2,0,0,,5.0,30.088583,,,,TRUE,,,,,,RA,SCT,2300,BKN,2900,OVC,3300,,,MVFR,,,,,,0.02,,,,,,SPECI,626.0
EYPA 150126Z AUTO 32008G25KT 250V050 1800 -UP FEW015/// BKN018/// M01/M02 Q0989,EYPA,2019-01-15T01:26:00Z,55.97,21.08,-1.0,-2.0,320,8,25,1.12,29.202755,,,TRUE,,,,,,,UP,FEW,1500,BKN,1800,,,,,IFR,,,,,,,,,,,,SPECI,10.0
PACD 150126Z 16019G24KT 6SM RA BR FEW013 BKN028 OVC035 03/02 A2909 RMK AO2 RAB0058E10B22 P0000 T00330022 $,PACD,2019-01-15T01:26:00Z,55.2,-162.72,3.3,2.2,160,19,24,6.0,29.090551,,,,TRUE,TRUE,,,,,RA BR,FEW,1300,BKN,2800,OVC,3500,,,MVFR,,,,,,0.005,,,,,,METAR,30.0
KOSH 150126Z 27005KT 6SM HZ SCT014 OVC019 M02/M05 A3019 RMK AO2 T10221050,KOSH,2019-01-15T01:26:00Z,43.97,-88.55,-2.2,-5.0,270,5,,6.0,30.188976,,,,TRUE,,,,,,HZ,SCT,1400,OVC,1900,,,,,MVFR,,,,,,,,,,,,METAR,248.0
KMGN 150126Z AUTO 29006KT 5SM BR BKN014 OVC018 00/M01 A3014 RMK AO2,KMGN,2019-01-15T01:26:00Z,45.43,-84.92,0.0,-1.0,290,6,,5.0,30.138779,,,TRUE,TRUE,,,,,,BR,BKN,1400,OVC,1800,,,,,MVFR,,,,,,,,,,,,SPECI,209.0
KCMH 150126Z 26005KT 9SM BKN016 M03/M07 A3028 RMK AO2 T10331072,KCMH,2019-01-15T01:26:00Z,40.0,-82.88,-3.3,-7.2,260,5,,9.0,30.280512,,,,TRUE,,,,,,,BKN,1600,,,,,,,MVFR,,,,,,,,,,,,METAR,247.0
PAMD 150126Z AUTO 08014KT 6SM -RA BR SCT008 BKN016 OVC023 05/04 A2996 RMK AO2 P0000,PAMD,2019-01-15T01:26:00Z,59.43,-146.3,5.0,4.0,80,14,,6.0,29.958662,,,TRUE,TRUE,,,,,,-RA BR,SCT,800,BKN,1600,OVC,2300,,,MVFR,,,,,,0.005,,,,,,METAR,14.0
CYQZ 150126Z AUTO 00000KT 1/2SM FZFG CLR M07/M08 A3012 RMK SLP242,CYQZ,2019-01-15T01:26:00Z,53.02,-122.52,-7.0,-8.0,0,0,,0.5,30.121063,1024.2,,TRUE,,,,,,,FZFG,CLR,,,,,,,,LIFR,,,,,,,,,,,,SPECI,545.0
ETOU 150126Z AUTO 28008KT 9999 SCT028 SCT037 OVC048 03/M02 A3015 RMK AO2 SLP217 $,ETOU,2019-01-15T01:26:00Z,50.03,8.32,3.0,-2.0,280,8,,6.21,30.15059,1021.7,,TRUE,TRUE,TRUE,,,,,,SCT,2800,SCT,3700,OVC,4800,,,VFR,,,,,,,,,,,,SPECI,141.0
CYDN 150125Z AUTO 23013KT 9SM FEW100 BKN160 M01/M04 A2992 RMK PRESFR SLP154,CYDN,2019-01-15T01:25:00Z,51.1,-100.03,-1.0,-4.0,230,13,,9.0,29.920275,1015.4,,TRUE,,,,,,,,FEW,10000,BKN,16000,,,,,VFR,,,,,,,,,,,,SPECI,305.0
EBFN 150125Z AUTO 25005KT 7000 /// 05/04 Q1022 WHT,EBFN,2019-01-15T01:25:00Z,51.07,2.63,5.0,4.0,250,5,,4.35,30.177166,,,TRUE,,,,,,,,,,,,,,,,,,,,,,,,,,,,METAR,9.0
CYSF 150125Z AUTO 06007KT 6SM -SN OVC026 M24/M28 A3021 RMK SLP269,CYSF,2019-01-15T01:25:00Z,59.25,-105.82,-24.0,-28.0,60,7,,6.0,30.209646,1026.9,,TRUE,,,,,,,-SN,OVC,2600,,,,,,,MVFR,,,,,,,,,,,,SPECI,250.0
KEHO 150125Z AUTO 00000KT 10SM -RA BKN031 OVC038 05/03 A3019 RMK AO2 P0001 T00530031,KEHO,2019-01-15T01:25:00Z,35.25,-81.6,5.3,3.1,0,0,,10.0,30.188976,,,TRUE,TRUE,,,,,,-RA,BKN,3100,OVC,3800,,,,,VFR,,,,,,0.01,,,,,,METAR,258.0
KMWK 150125Z AUTO 00000KT 7SM OVC028 02/01 A3019 RMK AO2 T00240011,KMWK,2019-01-15T01:25:00Z,36.47,-80.55,2.4,1.1,0,0,,7.0,30.188976,,,TRUE,TRUE,,,,,,,OVC,2800,,,,,,,MVFR,,,,,,,,,,,,METAR,380.0
PPNU 150125Z AUTO 09024G31KT 1/4SM OVC004 M23/M25 A3025 RMK AO1,PPNU,2019-01-15T01:25:00Z,70.42,-150.03,-23.0,-25.0,90,24,31,0.25,30.250984,,,TRUE,TRUE,,,,,,,OVC,400,,,,,,,LIFR,,,,,,,,,,,,METAR,27.0
EHSC 150125Z AUTO 26015KT 9999 ///////// 07/04 Q1019 W07/H15,EHSC,2019-01-15T01:25:00Z,51.93,3.67,7.0,4.0,260,15,,6.21,30.088583,,,TRUE,,,,,,,,,,,,,,,,,,,,,,,,,,,,METAR,50.0
EHSA 150125Z AUTO 25016KT 9999 ///////// 08/05 Q1020 W06/H17,EHSA,2019-01-15T01:25:00Z,52.0,3.28,8.0,5.0,250,16,,6.21,30.11811,,,TRUE,,,,,,,,,,,,,,,,,,,,,,,,,,,,METAR,50.0
EHQE 150125Z AUTO 21021KT 9999 FEW013 SCT016 BKN030 07/04 Q1017 W///H///,EHQE,2019-01-15T01:25:00Z,52.92,4.15,7.0,4.0,210,21,,6.21,30.029528,,,TRUE,,,,,,,,FEW,1300,SCT,1600,BKN,3000,,,MVFR,,,,,,,,,,,,METAR,50.0
EHPG 150125Z AUTO 26021KT 210V340 8000 -RA FEW011 SCT015 07/05 Q1019 W///H///,EHPG,2019-01-15T01:25:00Z,52.37,3.35,7.0,5.0,260,21,,4.97,30.088583,,,TRUE,,,,,,,-RA,FEW,1100,SCT,1500,,,,,MVFR,,,,,,,,,,,,METAR,50.0
EHMG 150125Z AUTO 25026KT 9999 FEW012 SCT015 BKN019 07/04 Q1016 W///H///,EHMG,2019-01-15T01:25:00Z,53.62,4.97,7.0,4.0,250,26,,6.21,30.0,,,TRUE,,,,,,,,FEW,1200,SCT,1500,BKN,1900,,,MVFR,,,,,,,,,,,,METAR,50.0
EHMA 150125Z AUTO 26017KT 9999 FEW032 06/01 Q1016 W///H///,EHMA,2019-01-15T01:25:00Z,53.5,5.95,6.0,1.0,260,17,,6.21,30.0,,,TRUE,,,,,,,,FEW,3200,,,,,,,VFR,,,,,,,,,,,,METAR,50.0
EHKV 150125Z AUTO 26026KT 9999 FEW010 SCT013 07/05 Q1018 W///H///,EHKV,2019-01-15T01:25:00Z,53.27,3.63,7.0,5.0,260,26,,6.21,30.059055,,,TRUE,,,,,,,,FEW,1000,SCT,1300,,,,,VFR,,,,,,,,,,,,METAR,50.0
EHJR 150125Z AUTO 27021KT //// // ///////// 07/05 Q1017 RE// W///H27,EHJR,2019-01-15T01:25:00Z,53.22,3.22,7.0,5.0,270,21,,,30.029528,,,TRUE,,,,,,,,,,,,,,,,,,,,,,,,,,,,METAR,50.0
EHJA 150125Z AUTO 26025KT 9999 FEW013/// 08/05 Q1015 W///H///,EHJA,2019-01-15T01:25:00Z,53.82,2.95,8.0,5.0,260,25,,6.21,29.970472,,,TRUE,,,,,,,,FEW,1300,,,,,,,VFR,,,,,,,,,,,,METAR,50.0
EHHW 150125Z AUTO 28024KT //// // SCT020/// BKN024/// BKN027/// 07/02 Q1014 RE// W///H///,EHHW,2019-01-15T01:25:00Z,54.03,6.03,7.0,2.0,280,24,,,29.940945,,,TRUE,,,,,,,,SCT,2000,BKN,2400,BKN,2700,,,,,,,,,,,,,,,METAR,0.0
EHFZ 150125Z AUTO 26021KT 9999 FEW013 BKN015 BKN020 08/05 Q1014 W///H///,EHFZ,2019-01-15T01:25:00Z,54.12,4.02,8.0,5.0,260,21,,6.21,29.940945,,,TRUE,,,,,,,,FEW,1300,BKN,1500,BKN,2000,,,MVFR,,,,,,,,,,,,METAR,50.0
EHFD 150125Z AUTO 27030KT //// // FEW012/// SCT014/// BKN017/// 08/05 Q1011 RE// W///H///,EHFD,2019-01-15T01:25:00Z,54.85,4.7,8.0,5.0,270,30,,,29.852362,,,TRUE,,,,,,,,FEW,1200,SCT,1400,BKN,1700,,,,,,,,,,,,,,,METAR,50.0
EHDV 150125Z AUTO 27026KT 220V320 9999 NSC 08/05 Q1014 W///H///,EHDV,2019-01-15T01:25:00Z,54.32,2.93,8.0,5.0,270,26,,6.21,29.940945,,,TRUE,,,,,,,,CLR,,,,,,,,VFR,,,,,,,,,,,,METAR,50.0
EHAK 150125Z AUTO 27025KT 9999 FEW010/// SCT013/// OVC017/// 07/05 Q1011 W///H///,EHAK,2019-01-15T01:25:00Z,55.42,3.82,7.0,5.0,270,25,,6.21,29.852362,,,TRUE,,,,,,,,FEW,1000,SCT,1300,OVC,1700,,,MVFR,,,,,,,,,,,,METAR,50.0
EHKD 150125Z AUTO 25014KT 9999 FEW017 BKN022 BKN025 06/03 Q1017 WHT,EHKD,2019-01-15T01:25:00Z,52.92,4.77,6.0,3.0,250,14,,6.21,30.029528,,,TRUE,,,,,,,,FEW,1700,BKN,2200,BKN,2500,,,MVFR,,,,,,,,,,,,SPECI,14.0
EHEH 150125Z AUTO 23005KT 9999 BKN034 BKN140 02/01 Q1021 BLU,EHEH,2019-01-15T01:25:00Z,51.45,5.38,2.0,1.0,230,5,,6.21,30.147638,,,TRUE,,,,,,,,BKN,3400,BKN,14000,,,,,VFR,,,,,,,,,,,,SPECI,22.0
KHNZ 150125Z AUTO 00000KT 10SM SCT085 00/M02 A3020 RMK AO2 T00001023,KHNZ,2019-01-15T01:25:00Z,36.37,-78.53,0.0,-2.3,0,0,,10.0,30.200787,,,TRUE,TRUE,,,,,,,SCT,8500,,,,,,,VFR,,,,,,,,,,,,METAR,161.0
EHVL 150125Z AUTO 26020KT 9000 HZ SCT016 BKN020 BKN027 06/04 Q1016 WHT,EHVL,2019-01-15T01:25:00Z,53.23,4.92,6.0,4.0,260,20,,5.59,30.0,,,TRUE,,,,,,,HZ,SCT,1600,BKN,2000,BKN,2700,,,MVFR,,,,,,,,,,,,METAR,5.0
EHVK 150125Z AUTO 23007KT 9999 FEW035 OVC130 00/00 Q1020 BLU,EHVK,2019-01-15T01:25:00Z,51.63,5.7,0.0,0.0,230,7,,6.21,30.11811,,,TRUE,,,,,,,,FEW,3500,OVC,13000,,,,,VFR,,,,,,,,,,,,METAR,21.0
EHGR 150125Z AUTO 23005KT 200V260 9999 FEW025 SCT034 03/02 Q1020 BLU,EHGR,2019-01-15T01:25:00Z,51.57,4.92,3.0,2.0,230,5,,6.21,30.11811,,,TRUE,,,,,,,,FEW,2500,SCT,3400,,,,,VFR,,,,,,,,,,,,METAR,13.0
EHRD 150125Z AUTO 21007KT 9999 BKN021 BKN038 03/01 Q1020 NOSIG,EHRD,2019-01-15T01:25:00Z,51.95,4.45,3.0,1.0,210,7,,6.21,30.11811,,,TRUE,,,TRUE,,,,,BKN,2100,BKN,3800,,,,,MVFR,,,,,,,,,,,,METAR,-5.0
EHGG 150125Z AUTO 25008KT 220V280 9999 NSC 03/01 Q1016,EHGG,2019-01-15T01:25:00Z,53.12,6.57,3.0,1.0,250,8,,6.21,30.0,,,TRUE,,,,,,,,CLR,,,,,,,,VFR,,,,,,,,,,,,METAR,4.0
EHBK 150125Z AUTO 23006KT 9999 FEW007 SCT018 BKN023 03/02 Q1021,EHBK,2019-01-15T01:25:00Z,50.92,5.77,3.0,2.0,230,6,,6.21,30.147638,,,TRUE,,,,,,,,FEW,700,SCT,1800,BKN,2300,,,MVFR,,,,,,,,,,,,METAR,116.0
EHAM 150125Z 22007KT 9999 FEW022 SCT045 02/00 Q1019 NOSIG,EHAM,2019-01-15T01:25:00Z,52.32,4.78,2.0,0.0,220,7,,6.21,30.088583,,,,,,TRUE,,,,,FEW,2200,SCT,4500,,,,,VFR,,,,,,,,,,,,METAR,9.0
KAWM 150125Z AUTO 00000KT 8SM SCT017 OVC032 04/02 A3038 RMK AO2 T00440022 $,KAWM,2019-01-15T01:25:00Z,35.13,-90.23,4.4,2.2,0,0,,8.0,30.380905,,,TRUE,TRUE,TRUE,,,,,,SCT,1700,OVC,3200,,,,,VFR,,,,,,,,,,,,METAR,65.0
EHDL 150125Z AUTO 24004KT 200V270 9999 OVC130 01/01 Q1019 BLU,EHDL,2019-01-15T01:25:00Z,52.07,5.87,1.0,1.0,240,4,,6.21,30.088583,,,TRUE,,,,,,,,OVC,13000,,,,,,,VFR,,,,,,,,,,,,METAR,52.0
KTTA 150125Z AUTO 00000KT 10SM OVC043 02/01 A3022 RMK AO2 T00170005,KTTA,2019-01-15T01:25:00Z,35.58,-79.1,1.7,0.5,0,0,,10.0,30.221457,,,TRUE,TRUE,,,,,,,OVC,4300,,,,,,,VFR,,,,,,,,,,,,METAR,75.0
OPLA 150125Z 29003KT 4000 FU SCT100 05/03 Q1018 RMK QFE992 RMK A30.03,OPLA,2019-01-15T01:25:00Z,31.52,74.4,5.0,3.0,290,3,,2.49,30.059055,,,,,,,,,,FU,SCT,10000,,,,,,,IFR,,,,,,,,,,,,SPECI,217.0
EHFS 150125Z AUTO 23009KT 9999 OVC047/// 04/04 Q1021 W///H///,EHFS,2019-01-15T01:25:00Z,51.45,3.6,4.0,4.0,230,9,,6.21,30.147638,,,TRUE,,,,,,,,OVC,4700,,,,,,,VFR,,,,,,,,,,,,METAR,32.0
EBDT 150125Z AUTO 23005KT 9000 BKN033/// 03/02 Q1022 BLU,EBDT,2019-01-15T01:25:00Z,51.02,5.07,3.0,2.0,230,5,,5.59,30.177166,,,TRUE,,,,,,,,BKN,3300,,,,,,,VFR,,,,,,,,,,,,METAR,54.0
EBBL 150125Z AUTO 23007KT 9999 BKN032/// 02/02 Q1021 BLU,EBBL,2019-01-15T01:25:00Z,51.17,5.47,2.0,2.0,230,7,,6.21,30.147638,,,TRUE,,,,,,,,BKN,3200,,,,,,,VFR,,,,,,,,,,,,METAR,64.0
EBBE 150125Z AUTO 24005KT 9000 FEW025/// BKN033/// BKN039/// 03/02 Q1022 BLU,EBBE,2019-01-15T01:25:00Z,50.75,4.77,3.0,2.0,240,5,,5.59,30.177166,,,TRUE,,,,,,,,FEW,2500,BKN,3300,BKN,3900,,,VFR,,,,,,,,,,,,METAR,127.0
OPKC 150125Z 04004KT 4000 HZ NSC 12/01 Q1020 NOSIG,OPKC,2019-01-15T01:25:00Z,24.88,67.17,12.0,1.0,40,4,,2.49,30.11811,,,,,,TRUE,,,,HZ,CLR,,,,,,,,IFR,,,,,,,,,,,,METAR,22.0
OPIS 150125Z 29010KT 6000 FEW040 04/M03 Q1018 RH63,OPIS,2019-01-15T01:25:00Z,33.55,72.83,4.0,-3.0,290,10,,3.73,30.059055,,,,,,,,,,,FEW,4000,,,,,,,MVFR,,,,,,,,,,,,METAR,537.0
EBFS 150125Z AUTO 27005KT 9999 FEW012/// SCT017/// BKN020/// 03/02 Q1022 WHT,EBFS,2019-01-15T01:25:00Z,50.22,4.65,3.0,2.0,270,5,,6.21,30.177166,,,TRUE,,,,,,,,FEW,1200,SCT,1700,BKN,2000,,,MVFR,,,,,,,,,,,,METAR,299.0
KPHD 150124Z AUTO 27004KT 10SM OVC016 M02/M06 A3026 RMK AO2 T10171056,KPHD,2019-01-15T01:24:00Z,40.47,-81.42,-1.7,-5.6,270,4,,10.0,30.259842,,,TRUE,TRUE,,,,,,,OVC,1600,,,,,,,MVFR,,,,,,,,,,,,METAR,272.0
KPLN 150124Z AUTO 28004KT 6SM BR BKN014 OVC022 M01/M03 A3014 RMK AO2 T10061028,KPLN,2019-01-15T01:24:00Z,45.57,-84.8,-0.6,-2.8,280,4,,6.0,30.138779,,,TRUE,TRUE,,,,,,BR,BKN,1400,OVC,2200,,,,,MVFR,,,,,,,,,,,,METAR,217.0
KLWD 150124Z AUTO 23007KT 1 3/4SM BR OVC002 M02/M03 A3027 RMK AO2 I1000 T10221033,KLWD,2019-01-15T01:24:00Z,40.63,-93.9,-2.2,-3.3,230,7,,1.75,30.268702,,,TRUE,TRUE,,,,,,BR,OVC,200,,,,,,,LIFR,,,,,,,,,,,,METAR,346.0
KMNH 150124Z AUTO 22007KT 10SM CLR M11/M21 A3020 RMK AO2,KMNH,2019-01-15T01:24:00Z,39.22,-104.65,-11.0,-21.0,220,7,,10.0,30.200787,,,TRUE,TRUE,,,,,,,CLR,,,,,,,,VFR,,,,,,,,,,,,METAR,2152.0
PABR 150124Z 10026G35KT 1/4SM +SN BLSN VV018 M20/M23 A3022 RMK PK WND 110036/0057,PABR,2019-01-15T01:24:00Z,71.28,-156.77,-20.0,-23.0,100,26,35,0.25,30.221457,,,,,,,,,,+SN BLSN,OVX,0,,,,,,,LIFR,,,,,,,,,,,1800,METAR,7.0
KEHR 150124Z AUTO 28006KT 10SM BKN015 M01/M02 A3035 RMK AO2 FZRANO,KEHR,2019-01-15T01:24:00Z,37.82,-87.67,-1.0,-2.0,280,6,,10.0,30.351377,,,TRUE,TRUE,,,,TRUE,,,BKN,1500,,,,,,,MVFR,,,,,,,,,,,,SPECI,117.0
KRIV 150124Z 11010KT 4SM -RA BR BKN021 OVC029 09/09 A2998 RMK AO2A SLP152,KRIV,2019-01-15T01:24:00Z,33.87,-117.27,9.0,9.0,110,10,,4.0,29.97933,1015.2,,,TRUE,,,,,,-RA BR,BKN,2100,OVC,2900,,,,,MVFR,,,,,,,,,,,,SPECI,469.0
UTO8 M M M 168/-28/-31/2613+18/M/ PK WND 2524 0035Z SOG 10 6024 53MM,UTO8,2019-01-15T01:24:00Z,,,,,,,,3.74,,,,,,,,,,,,,,,,,,,,,,,,,,,,,,,,SPECI,
KSLI 150124Z AUTO 09006KT 10SM FEW008 SCT017 BKN026 OVC032 12/12 A2997 RMK AO2 RAB01E24 CIG 017V026 BKN V OVC SLP152,KSLI,2019-01-15T01:24:00Z,33.77,-118.03,12.0,12.0,90,6,,10.0,29.970472,1015.2,,TRUE,TRUE,,,,,,,FEW,800,SCT,1700,BKN,2600,OVC,3200,MVFR,,,,,,,,,,,,SPECI,11.0
KC99 150124Z AUTO 14003KT 10SM CLR M05/M20 A3022 RMK AO2,KC99,2019-01-15T01:24:00Z,29.87,-105.55,-5.0,-20.0,140,3,,10.0,30.221457,,,TRUE,TRUE,,,,,,,CLR,,,,,,,,VFR,,,,,,,,,,,,SPECI,3320.0
EKKA 150124Z AUTO 25009KT 9999NDV -SHRA BKN014/// BKN043/// BKN078/// 03/01 Q1006 R27L/120095,EKKA,2019-01-15T01:24:00Z,56.3,9.12,3.0,1.0,250,9,,0.06,29.704725,,,TRUE,,,,,,,-SHRA,BKN,1400,BKN,4300,BKN,7800,,,LIFR,,,,,,,,,,,,SPECI,52.0
KCGS 150123Z AUTO 00000KT 10SM CLR M06/M07 A3020 RMK AO1 T10601069,KCGS,2019-01-15T01:23:00Z,38.98,-76.92,-6.0,-6.9,0,0,,10.0,30.200787,,,TRUE,TRUE,,,,,,,CLR,,,,,,,,VFR,,,,,,,,,,,,SPECI,15.0
K2W6 150123Z AUTO 00000KT 10SM CLR M05/M05 A3021 RMK AO1,K2W6,2019-01-15T01:23:00Z,38.32,-76.55,-5.0,-5.0,0,0,,10.0,30.209646,,,TRUE,TRUE,,,,,,,CLR,,,,,,,,VFR,,,,,,,,,,,,SPECI,44.0
PAAK 150123Z AUTO 28027G38KT 1/4SM SN FZFG OVC009 M01/M01 A2909 RMK AO2 PK WND 27038/0114 CIG 006V010 FZRANO PNO $,PAAK,2019-01-15T01:23:00Z,52.22,-174.2,-1.0,-1.0,280,27,38,0.25,29.090551,,,TRUE,TRUE,TRUE,,,TRUE,,SN FZFG,OVC,900,,,,,,,LIFR,,,,,,,,,,,,SPECI,17.0
PAHY 150123Z AUTO 00000KT 7SM FEW035 BKN080 07/07 A2997 RMK AO2 $,PAHY,2019-01-15T01:23:00Z,55.2,-132.83,7.0,7.0,0,0,,7.0,29.970472,,,TRUE,TRUE,TRUE,,,,,,FEW,3500,BKN,8000,,,,,VFR,,,,,,,,,,,,SPECI,1.0
KLPC 150123Z AUTO 09006KT 10SM FEW018 BKN033 12/09 A2992 RMK AO2,KLPC,2019-01-15T01:23:00Z,34.67,-120.47,12.0,9.0,90,6,,10.0,29.920275,,,TRUE,TRUE,,,,,,,FEW,1800,BKN,3300,,,,,VFR,,,,,,,,,,,,SPECI,27.0
KMVN 150123Z AUTO 27003KT 6SM BR SCT011 OVC025 M01/M02 A3036 RMK AO2 FZRANO,KMVN,2019-01-15T01:23:00Z,38.32,-88.87,-1.0,-2.0,270,3,,6.0,30.360237,,,TRUE,TRUE,,,,TRUE,,BR,SCT,1100,OVC,2500,,,,,MVFR,,,,,,,,,,,,SPECI,146.0
CWEU 150122Z 36028KT 1SM BLSN SCT082 M28/M32 A3016 RMK BLSN2AC1 SLP217,CWEU,2019-01-15T01:22:00Z,80.0,-85.92,-28.0,-32.0,360,28,,1.0,30.159449,1021.7,,,,,,,,,BLSN,SCT,8200,,,,,,,IFR,,,,,,,,,,,,SPECI,10.0
PASY 150122Z 34023G29KT 5SM HZ BKN032 OVC040 M02/M09 A2963 RMK SHSNB0028E22 SLP038 FZRANO $,PASY,2019-01-15T01:22:00Z,52.72,174.12,-2.0,-9.0,340,23,29,5.0,29.630905,1003.8,,,,TRUE,,,TRUE,,HZ,BKN,3200,OVC,4000,,,,,MVFR,,,,,,,,,,,,SPECI,31.0
KMGE 150122Z 33008G15KT 10SM BKN017 OVC023 04/00 A3023 RMK AO2A $,KMGE,2019-01-15T01:22:00Z,33.92,-84.52,4.0,0.0,330,8,15,10.0,30.230314,,,,TRUE,TRUE,,,,,,BKN,1700,OVC,2300,,,,,MVFR,,,,,,,,,,,,SPECI,326.0
KGRF 150122Z AUTO 00000KT 1/4SM FG SCT000 02/02 A2996 RMK AO2 SLP152 RVRNO $,KGRF,2019-01-15T01:22:00Z,47.07,-122.57,2.0,2.0,0,0,,0.25,29.958662,1015.2,,TRUE,TRUE,TRUE,,,,,FG,SCT,0,,,,,,,LIFR,,,,,,,,,,,,SPECI,92.0
CYPW 150122Z 00000KT 20SM FEW250 02/01 A2997 RMK CI1 SHLW BR ON RWY FG BNK GASTR SLP156,CYPW,2019-01-15T01:22:00Z,49.82,-124.5,2.0,1.0,0,0,,20.0,29.970472,1015.6,,,,,,,,,,FEW,25000,,,,,,,VFR,,,,,,,,,,,,SPECI,130.0
KCVG 150122Z 24003KT 7SM OVC018 M06/M07 A3029 RMK AO2 I1000 T10561072,KCVG,2019-01-15T01:22:00Z,39.05,-84.67,-5.6,-7.2,240,3,,7.0,30.28937,,,,TRUE,,,,,,,OVC,1800,,,,,,,MVFR,,,,,,,,,,,,SPECI,269.0
KHKY 150122Z 00000KT 10SM BKN025 BKN041 OVC050 05/03 A3017 RMK AO2 T00500028,KHKY,2019-01-15T01:22:00Z,35.75,-81.38,5.0,2.8,0,0,,10.0,30.171259,,,,TRUE,,,,,,,BKN,2500,BKN,4100,OVC,5000,,,MVFR,,,,,,,,,,,,SPECI,354.0
KVPZ 150121Z AUTO 26011KT 9SM OVC008 M04/M08 A3029 RMK AO2 CIG 007V010 T10441078 TSNO,KVPZ,2019-01-15T01:21:00Z,41.45,-87.0,-4.4,-7.8,260,11,,9.0,30.28937,,,TRUE,TRUE,,,TRUE,,,,OVC,800,,,,,,,IFR,,,,,,,,,,,,SPECI,231.0
KLYH 150121Z 00000KT 4SM BR BKN007 OVC011 00/M01 A3018 RMK AO2 T00001006,KLYH,2019-01-15T01:21:00Z,37.32,-79.2,0.0,-0.6,0,0,,4.0,30.180119,,,,TRUE,,,,,,BR,BKN,700,OVC,1100,,,,,IFR,,,,,,,,,,,,SPECI,295.0
PAKF 150121Z AUTO 20013G20KT 7SM -RA SCT008 BKN015 OVC030 03/01 A2908 RMK AO2 P0001,PAKF,2019-01-15T01:21:00Z,54.85,-163.42,3.0,1.0,200,13,20,7.0,29.078741,,,TRUE,TRUE,,,,,,-RA,SCT,800,BKN,1500,OVC,3000,,,MVFR,,,,,,0.01,,,,,,SPECI,6.0
CYKJ 150121Z AUTO 04009KT 3SM -SN OVC026 M21/M23 A2987 RMK VIS VRB 1 3/4-3 PRESRR SLP175,CYKJ,2019-01-15T01:21:00Z,57.25,-105.62,-21.0,-23.0,40,9,,3.0,29.870079,1017.5,,TRUE,,,,,,,-SN,OVC,2600,,,,,,,MVFR,,,,,,,,,,,,SPECI,509.0
EDAC 150120Z AUTO 28013KT 9999 // BKN035/// BKN040/// OVC063/// 02/M02 Q1014,EDAC,2019-01-15T01:20:00Z,50.98,12.5,2.0,-2.0,280,13,,6.21,29.940945,,,TRUE,,,,,,,,BKN,3500,BKN,4000,OVC,6300,,,VFR,,,,,,,,,,,,METAR,195.0
EDNY 150120Z AUTO 22005KT 9999 // BKN063/// 00/M01 Q1022,EDNY,2019-01-15T01:20:00Z,47.67,9.52,0.0,-1.0,220,5,,6.21,30.177166,,,TRUE,,,,,,,,BKN,6300,,,,,,,VFR,,,,,,,,,,,,METAR,424.0
EDMA 150120Z AUTO 24012KT 9999 // OVC054/// 00/M02 Q1019,EDMA,2019-01-15T01:20:00Z,48.42,10.92,0.0,-2.0,240,12,,6.21,30.088583,,,TRUE,,,,,,,,OVC,5400,,,,,,,VFR,,,,,,,,,,,,METAR,463.0
EDLW 150120Z AUTO 24008KT 9999 // FEW042/// SCT150/// 01/00 Q1019,EDLW,2019-01-15T01:20:00Z,51.52,7.62,1.0,0.0,240,8,,6.21,30.088583,,,TRUE,,,,,,,,FEW,4200,SCT,15000,,,,,VFR,,,,,,,,,,,,METAR,127.0
EDLP 150120Z 25009KT 220V300 9999 FEW011 01/M00 Q1017,EDLP,2019-01-15T01:20:00Z,51.62,8.62,1.0,0.0,250,9,,6.21,30.029528,,,,,,,,,,,FEW,1100,,,,,,,VFR,,,,,,,,,,,,METAR,213.0
EDSB 150120Z AUTO 20005KT 9999 // OVC059/// 01/00 Q1023,EDSB,2019-01-15T01:20:00Z,48.78,8.08,1.0,0.0,200,5,,6.21,30.206694,,,TRUE,,,,,,,,OVC,5900,,,,,,,VFR,,,,,,,,,,,,METAR,124.0
EDFH 150120Z 27008KT 9999 FEW015 BKN040 00/M01 Q1020,EDFH,2019-01-15T01:20:00Z,49.95,7.27,0.0,-1.0,270,8,,6.21,30.11811,,,,,,,,,,,FEW,1500,BKN,4000,,,,,VFR,,,,,,,,,,,,METAR,498.0
EDHI 150120Z AUTO 26012KT 3900 // FEW087/// BKN100/// OVC140/// 03/M00 Q1012,EDHI,2019-01-15T01:20:00Z,53.53,9.83,3.0,0.0,260,12,,2.42,29.88189,,,TRUE,,,,,,,,FEW,8700,BKN,10000,OVC,14000,,,IFR,,,,,,,,,,,,METAR,13.0
LGAV 150120Z 02014KT 6000 -RA SCT030 BKN070 06/04 Q0999 TEMPO 5000,LGAV,2019-01-15T01:20:00Z,37.93,23.95,6.0,4.0,20,14,,3.73,29.498032,,,,,,,,,,-RA,SCT,3000,BKN,7000,,,,,MVFR,,,,,,,,,,,,SPECI,94.0
ENHD 150120Z AUTO 12007KT 9999 FEW036/// M00/M02 Q1004,ENHD,2019-01-15T01:20:00Z,59.35,5.22,0.0,-2.0,120,7,,6.21,29.64567,,,TRUE,,,,,,,,FEW,3600,,,,,,,VFR,,,,,,,,,,,,METAR,24.0
LTBA 150120Z VRB04KT 8000 -SHRA FEW018 BKN027 06/05 Q1003 NOSIG RMK RWY17L 02004KT 350V060 RWY05 00000KT RWY23 05005KT,LTBA,2019-01-15T01:20:00Z,40.97,28.82,6.0,5.0,0,4,,4.97,29.616142,,,,,,TRUE,,,,-SHRA,FEW,1800,BKN,2700,,,,,MVFR,,,,,,,,,,,,SPECI,37.0
LTCJ 150120Z 00000KT 3500 BR SCT037 BKN090 04/04 Q1015 RMK RWY20 02005KT,LTCJ,2019-01-15T01:20:00Z,37.93,41.12,4.0,4.0,0,0,,2.17,29.970472,,,,,,,,,,BR,SCT,3700,BKN,9000,,,,,IFR,,,,,,,,,,,,SPECI,540.0
LSZA 150120Z AUTO 01013KT CAVOK 08/M05 Q1015,LSZA,2019-01-15T01:20:00Z,46.0,8.92,8.0,-5.0,10,13,,6.21,29.970472,,,TRUE,,,,,,,,CAVOK,,,,,,,,VFR,,,,,,,,,,,,METAR,276.0
K24A 150120Z AUTO 33008KT 300V360 10SM SCT018 OVC028 01/M01 A3015 RMK AO2 T00091007,K24A,2019-01-15T01:20:00Z,35.32,-83.2,0.9,-0.7,330,8,,10.0,30.15059,,,TRUE,TRUE,,,,,,,SCT,1800,OVC,2800,,,,,MVFR,,,,,,,,,,,,METAR,871.0
KASJ 150120Z AUTO 00000KT 10SM OVC085 00/M02 A3021 RMK AO2 T00001017,KASJ,2019-01-15T01:20:00Z,36.28,-77.17,0.0,-1.7,0,0,,10.0,30.209646,,,TRUE,TRUE,,,,,,,OVC,8500,,,,,,,VFR,,,,,,,,,,,,METAR,21.0
KEDE 150120Z AUTO 00000KT 10SM CLR 00/00 A3021 RMK AO2 T00001003,KEDE,2019-01-15T01:20:00Z,36.02,-76.57,0.0,-0.3,0,0,,10.0,30.209646,,,TRUE,TRUE,,,,,,,CLR,,,,,,,,VFR,,,,,,,,,,,,METAR,6.0
KETC 150120Z AUTO 29003KT 10SM BKN085 M01/M02 A3021 RMK AO2 T10091017,KETC,2019-01-15T01:20:00Z,35.93,-77.55,-0.9,-1.7,290,3,,10.0,30.209646,,,TRUE,TRUE,,,,,,,BKN,8500,,,,,,,VFR,,,,,,,,,,,,METAR,17.0
KGWW 150120Z AUTO 00000KT 10SM CLR 00/00 A3021 RMK AO2 T00000000,KGWW,2019-01-15T01:20:00Z,35.47,-77.97,0.0,0.0,0,0,,10.0,30.209646,,,TRUE,TRUE,,,,,,,CLR,,,,,,,,VFR,,,,,,,,,,,,METAR,41.0
KLHZ 150120Z AUTO 10SM OVC080 01/00 A3023 RMK AO2,KLHZ,2019-01-15T01:20:00Z,36.02,-78.33,1.0,0.0,,,,10.0,30.230314,,,TRUE,TRUE,,,,,,,OVC,8000,,,,,,,VFR,,,,,,,,,,,,METAR,113.0
ENRY 150120Z AUTO 29006KT 9999NDV NCD M01/M11 Q1001,ENRY,2019-01-15T01:20:00Z,59.37,10.77,-1.0,-11.0,290,6,,,29.557087,,,TRUE,,,,,,,,CLR,,,,,,,,,,,,,,,,,,,,SPECI,53.0
LSZL 150120Z AUTO 13015KT 070V160 9999NDV NCD 08/M02 Q1016 RMK,LSZL,2019-01-15T01:20:00Z,46.17,8.88,8.0,-2.0,130,15,,,30.0,,,TRUE,,,,,,,,CLR,,,,,,,,,,,,,,,,,,,,METAR,600.0
K1A5 150120Z AUTO 26003KT 10SM BKN032 02/00 A3021 RMK AO2 T00200004,K1A5,2019-01-15T01:20:00Z,35.22,-83.42,2.0,0.4,260,3,,10.0,30.209646,,,TRUE,TRUE,,,,,,,BKN,3200,,,,,,,VFR,,,,,,,,,,,,METAR,616.0
KOCW 150120Z AUTO 00000KT 10SM CLR 01/M01 A3021 RMK AO2 T00061008,KOCW,2019-01-15T01:20:00Z,35.57,-77.05,0.6,-0.8,0,0,,10.0,30.209646,,,TRUE,TRUE,,,,,,,CLR,,,,,,,,VFR,,,,,,,,,,,,METAR,12.0
KGZN 150120Z AUTO 15003KT 10SM OVC039 06/02 A3034 RMK AO2,KGZN,2019-01-15T01:20:00Z,32.37,-99.02,6.0,2.0,150,3,,10.0,30.339567,,,TRUE,TRUE,,,,,,,OVC,3900,,,,,,,VFR,,,,,,,,,,,,METAR,522.0
KRHP 150120Z AUTO 00000KT 10SM OVC029 03/00 A3020 RMK AO2 T00281001,KRHP,2019-01-15T01:20:00Z,35.18,-83.85,2.8,-0.1,0,0,,10.0,30.200787,,,TRUE,TRUE,,,,,,,OVC,2900,,,,,,,MVFR,,,,,,,,,,,,METAR,518.0
KRCZ 150120Z AUTO 00000KT 10SM SCT026 OVC033 05/05 A3021 RMK AO2 T00520045,KRCZ,2019-01-15T01:20:00Z,34.88,-79.77,5.2,4.5,0,0,,10.0,30.209646,,,TRUE,TRUE,,,,,,,SCT,2600,OVC,3300,,,,,VFR,,,,,,,,,,,,METAR,109.0
KMHV 150120Z AUTO 02013G18KT 9SM OVC016 05/03 A2997 RMK A01,KMHV,2019-01-15T01:20:00Z,35.07,-118.15,5.0,3.0,20,13,18,9.0,29.970472,,,TRUE,TRUE,,,,,,,OVC,1600,,,,,,,MVFR,,,,,,,,,,,,SPECI,849.0
KJSL 150120Z AUTO 02008G15KT 340V090 10SM BKN025 17/10 A3028 RMK A01,KJSL,2019-01-15T01:20:00Z,26.23,-95.25,17.0,10.0,20,8,15,10.0,30.280512,,,TRUE,TRUE,,,,,,,BKN,2500,,,,,,,MVFR,,,,,,,,,,,,METAR,10.0
KUKF 150120Z AUTO 00000KT 10SM BKN042 OVC050 01/01 A3022 RMK AO2,KUKF,2019-01-15T01:20:00Z,36.22,-81.1,1.0,1.0,0,0,,10.0,30.221457,,,TRUE,TRUE,,,,,,,BKN,4200,OVC,5000,,,,,VFR,,,,,,,,,,,,METAR,396.0
EYSA 150120Z AUTO 26010KT 9999NDV FEW025 M05/M05 Q0986 R32R/29//95,EYSA,2019-01-15T01:20:00Z,55.9,23.4,-5.0,-5.0,260,10,,,29.114174,,,TRUE,,,,,,,,FEW,2500,,,,,,,,,,,,,,,,,,,METAR,135.0
LSMP 150120Z AUTO 21003KT 9999NDV FEW047 BKN072 00/M01 Q1024 RMK,LSMP,2019-01-15T01:20:00Z,46.82,6.92,0.0,-1.0,210,3,,,30.236221,,,TRUE,,,,,,,,FEW,4700,BKN,7200,,,,,,,,,,,,,,,,,METAR,491.0
LSMM 150120Z AUTO 28007KT 230V320 9999NDV -DZ SCT016 BKN046 OVC063 03/M01 Q1023 RMK,LSMM,2019-01-15T01:20:00Z,46.75,8.12,3.0,-1.0,280,7,,,30.206694,,,TRUE,,,,,,,-DZ,SCT,1600,BKN,4600,OVC,6300,,,,,,,,,,,,,,,METAR,577.0
LSME 150120Z AUTO 00000KT 9999NDV -RA BKN036 OVC067 01/00 Q1023 RMK,LSME,2019-01-15T01:20:00Z,47.1,8.3,1.0,0.0,0,0,,,30.206694,,,TRUE,,,,,,,-RA,BKN,3600,OVC,6700,,,,,,,,,,,,,,,,,METAR,427.0
LSMD 150120Z AUTO VRB02KT 6000NDV FEW051 BKN063 M01/M01 Q1023 RMK,LSMD,2019-01-15T01:20:00Z,47.4,8.65,-1.0,-1.0,0,2,,,30.206694,,,TRUE,,,,,,,,FEW,5100,BKN,6300,,,,,,,,,,,,,,,,,METAR,448.0
LSMA 150120Z AUTO 23003KT 170V290 9999NDV SCT056 BKN070 02/01 Q1023 RMK,LSMA,2019-01-15T01:20:00Z,46.95,8.28,2.0,1.0,230,3,,,30.206694,,,TRUE,,,,,,,,SCT,5600,BKN,7000,,,,,,,,,,,,,,,,,METAR,444.0
KW29 150120Z AUTO 10SM CLR M05/M07 A3020 RMK AO2,KW29,2019-01-15T01:20:00Z,38.98,-76.33,-5.0,-7.0,,,,10.0,30.200787,,,TRUE,TRUE,,,,,,,CLR,,,,,,,,VFR,,,,,,,,,,,,SPECI,15.0
KSUT 150120Z AUTO 36006KT 10SM OVC017 04/00 A3022 RMK AO2 T00400000,KSUT,2019-01-15T01:20:00Z,33.93,-78.08,4.0,0.0,360,6,,10.0,30.221457,,,TRUE,TRUE,,,,,,,OVC,1700,,,,,,,MVFR,,,,,,,,,,,,METAR,8.0
KONX 150120Z AUTO 10SM CLR M01/M01 A3020 RMK AO2 T10061009,KONX,2019-01-15T01:20:00Z,36.4,-76.02,-0.6,-0.9,,,,10.0,30.200787,,,TRUE,TRUE,,,,,,,CLR,,,,,,,,VFR,,,,,,,,,,,,METAR,5.0
KMRN 150120Z AUTO 00000KT 10SM BKN042 OVC049 04/03 A3021 RMK AO2 T00400031,KMRN,2019-01-15T01:20:00Z,35.82,-81.62,4.0,3.1,0,0,,10.0,30.209646,,,TRUE,TRUE,,,,,,,BKN,4200,OVC,4900,,,,,VFR,,,,,,,,,,,,METAR,387.0
KMQI 150120Z AUTO 36007G14KT 10SM OVC023 02/M01 A3019 RMK AO2 T00181015 PWINO,KMQI,2019-01-15T01:20:00Z,35.92,-75.7,1.8,-1.5,360,7,14,10.0,30.188976,,,TRUE,TRUE,,,,,TRUE,,OVC,2300,,,,,,,MVFR,,,,,,,,,,,,METAR,4.0
KHRJ 150120Z AUTO 00000KT 10SM OVC043 02/02 A3022 RMK AO2 T00240021,KHRJ,2019-01-15T01:20:00Z,35.38,-78.73,2.4,2.1,0,0,,10.0,30.221457,,,TRUE,TRUE,,,,,,,OVC,4300,,,,,,,VFR,,,,,,,,,,,,METAR,60.0
KHBI 150120Z AUTO 00000KT 10SM OVC039 04/01 A3022 RMK AO2 T00390008,KHBI,2019-01-15T01:20:00Z,35.65,-79.9,3.9,0.8,0,0,,10.0,30.221457,,,TRUE,TRUE,,,,,,,OVC,3900,,,,,,,VFR,,,,,,,,,,,,METAR,205.0
KFFA 150120Z AUTO 00000KT 10SM OVC022 02/M01 A3017 RMK AO2 T00171014,KFFA,2019-01-15T01:20:00Z,36.02,-75.67,1.7,-1.4,0,0,,10.0,30.171259,,,TRUE,TRUE,,,,,,,OVC,2200,,,,,,,MVFR,,,,,,,,,,,,METAR,4.0
KEYF 150120Z AUTO 00000KT 10SM BKN028 01/00 A3022 RMK AO2 PWINO T00120002,KEYF,2019-01-15T01:20:00Z,34.6,-78.58,1.2,0.2,0,0,,10.0,30.221457,,,TRUE,TRUE,,,,,TRUE,,BKN,2800,,,,,,,MVFR,,,,,,,,,,,,METAR,41.0
KEXX 150120Z AUTO 00000KT 10SM OVC037 05/02 A3019 RMK AO2 T00450024,KEXX,2019-01-15T01:20:00Z,35.78,-80.3,4.5,2.4,0,0,,10.0,30.188976,,,TRUE,TRUE,,,,,,,OVC,3700,,,,,,,VFR,,,,,,,,,,,,METAR,223.0
KDPL 150120Z AUTO 00000KT 7SM OVC023 02/01 A3022 RMK AO2,KDPL,2019-01-15T01:20:00Z,35.0,-77.97,2.0,1.0,0,0,,7.0,30.221457,,,TRUE,TRUE,,,,,,,OVC,2300,,,,,,,MVFR,,,,,,,,,,,,METAR,42.0
KDMW 150120Z AUTO 00000KT 10SM CLR M04/M12 A3016 RMK AO2,KDMW,2019-01-15T01:20:00Z,39.6,-77.0,-4.0,-12.0,0,0,,10.0,30.159449,,,TRUE,TRUE,,,,,,,CLR,,,,,,,,VFR,,,,,,,,,,,,SPECI,241.0
KCTZ 150120Z AUTO 00000KT 10SM CLR 02/00 A3023 RMK AO2 T00210002,KCTZ,2019-01-15T01:20:00Z,34.98,-78.37,2.1,0.2,0,0,,10.0,30.230314,,,TRUE,TRUE,,,,,,,CLR,,,,,,,,VFR,,,,,,,,,,,,METAR,45.0
KCPC 150120Z AUTO 00000KT 10SM CLR 02/01 A3021 RMK AO2 T00200007,KCPC,2019-01-15T01:20:00Z,34.28,-78.72,2.0,0.7,0,0,,10.0,30.209646,,,TRUE,TRUE,,,,,,,CLR,,,,,,,,VFR,,,,,,,,,,,,METAR,29.0
KCGE 150120Z AUTO 00000KT 10SM CLR M06/M06 A3020 RMK A01,KCGE,2019-01-15T01:20:00Z,38.53,-76.03,-6.0,-6.0,0,0,,10.0,30.200787,,,TRUE,TRUE,,,,,,,CLR,,,,,,,,VFR,,,,,,,,,,,,SPECI,6.0
KCBE 150120Z AUTO 29009KT 10SM OVC025 01/M03 A3024 RMK AO2 T00071031,KCBE,2019-01-15T01:20:00Z,39.62,-78.77,0.7,-3.1,290,9,,10.0,30.239174,,,TRUE,TRUE,,,,,,,OVC,2500,,,,,,,MVFR,,,,,,,,,,,,SPECI,236.0
KAFP 150120Z AUTO 00000KT 10SM OVC038 05/03 A3021 RMK AO2 T00490025,KAFP,2019-01-15T01:20:00Z,35.02,-80.08,4.9,2.5,0,0,,10.0,30.209646,,,TRUE,TRUE,,,,,,,OVC,3800,,,,,,,VFR,,,,,,,,,,,,METAR,92.0
K7W6 150120Z AUTO 29004KT 10SM CLR 00/M01 A3019 RMK AO2 T10011011,K7W6,2019-01-15T01:20:00Z,35.55,-75.95,-0.1,-1.1,290,4,,10.0,30.188976,,,TRUE,TRUE,,,,,,,CLR,,,,,,,,VFR,,,,,,,,,,,,METAR,2.0
ETSN 150120Z 28012KT 8000 -SN FEW020 BKN040 01/M02 Q1019 BLU,ETSN,2019-01-15T01:20:00Z,48.72,11.22,1.0,-2.0,280,12,,4.97,30.088583,,,,,,,,,,-SN,FEW,2000,BKN,4000,,,,,MVFR,,,,,,,,,,,,METAR,387.0
ETSL 150120Z 24009KT 9999 -SN SCT020 BKN050 M00/M03 Q1019 BLACKBLU,ETSL,2019-01-15T01:20:00Z,48.17,10.87,0.0,-3.0,240,9,,6.21,30.088583,,,,,,,,,,-SN,SCT,2000,BKN,5000,,,,,VFR,,,,,,,,,,,,METAR,562.0
ETSI 150120Z AUTO 29008KT 3800 // ////// 01/M02 Q1018 ///,ETSI,2019-01-15T01:20:00Z,48.72,11.52,1.0,-2.0,290,8,,2.36,30.059055,,,TRUE,,,,,,,,,,,,,,,,,,,,,,,,,,,,METAR,370.0
ETSB 150120Z AUTO 24006KT 7000 // ////// 00/M01 Q1020 ///,ETSB,2019-01-15T01:20:00Z,50.17,7.07,0.0,-1.0,240,6,,4.35,30.11811,,,TRUE,,,,,,,,,,,,,,,,,,,,,,,,,,,,METAR,486.0
ETNN 150120Z 26006KT 9999 BKN038 02/01 Q1021 BLU,ETNN,2019-01-15T01:20:00Z,50.82,6.67,2.0,1.0,260,6,,6.21,30.147638,,,,,,,,,,,BKN,3800,,,,,,,VFR,,,,,,,,,,,,METAR,135.0
ETHN 150120Z 28011KT 9999 BKN045 00/M02 Q1019 BLU,ETHN,2019-01-15T01:20:00Z,49.38,9.97,0.0,-2.0,280,11,,6.21,30.088583,,,,,,,,,,,BKN,4500,,,,,,,VFR,,,,,,,,,,,,METAR,473.0
ETHL 150120Z 26007KT 9999 BKN050 00/M02 Q1020 BLU,ETHL,2019-01-15T01:20:00Z,48.22,9.92,0.0,-2.0,260,7,,6.21,30.11811,,,,,,,,,,,BKN,5000,,,,,,,VFR,,,,,,,,,,,,METAR,549.0
ETHA 150120Z AUTO 28013KT //// // ////// M02/M03 Q1019 ///,ETHA,2019-01-15T01:20:00Z,47.82,10.87,-2.0,-3.0,280,13,,,30.088583,,,TRUE,,,,,,,,,,,,,,,,,,,,,,,,,,,,METAR,760.0
ETWM 150120Z AUTO 24006KT 9999 // ////// 03/00 Q1017 ///,ETWM,2019-01-15T01:20:00Z,52.72,7.33,3.0,0.0,240,6,,6.21,30.029528,,,TRUE,,,,,,,,,,,,,,,,,,,,,,,,,,,,METAR,21.0
ETSH 150120Z 29012KT 9999 BKN025 02/M02 Q1011 BLU,ETSH,2019-01-15T01:20:00Z,51.77,13.17,2.0,-2.0,290,12,,6.21,29.852362,,,,,,,,,,,BKN,2500,,,,,,,MVFR,,,,,,,,,,,,METAR,79.0
ETNW 150120Z 27012KT 9999 BKN080 BKN140 02/M01 Q1016 BLU,ETNW,2019-01-15T01:20:00Z,52.45,9.42,2.0,-1.0,270,12,,6.21,30.0,,,,,,,,,,,BKN,8000,BKN,14000,,,,,VFR,,,,,,,,,,,,METAR,70.0
ETNT 150120Z AUTO 26011KT 9000 // ////// 05/01 Q1014 ///,ETNT,2019-01-15T01:20:00Z,53.53,7.67,5.0,1.0,260,11,,5.59,29.940945,,,TRUE,,,,,,,,,,,,,,,,,,,,,,,,,,,,METAR,12.0
ETNS 150120Z AUTO 27012KT 9999 // ////// 03/01 Q1010 ///,ETNS,2019-01-15T01:20:00Z,54.47,9.52,3.0,1.0,270,12,,6.21,29.822834,,,TRUE,,,,,,,,,,,,,,,,,,,,,,,,,,,,METAR,25.0
ETNL 150120Z 30016KT 9999 BKN029 BKN190 03/M01 Q1008 BLU,ETNL,2019-01-15T01:20:00Z,53.92,12.27,3.0,-1.0,300,16,,6.21,29.763779,,,,,,,,,,,BKN,2900,BKN,19000,,,,,MVFR,,,,,,,,,,,,METAR,40.0
ETNH 150120Z AUTO 27012KT 8000 // ////// 03/00 Q1011 ///,ETNH,2019-01-15T01:20:00Z,54.32,9.55,3.0,0.0,270,12,,4.97,29.852362,,,TRUE,,,,,,,,,,,,,,,,,,,,,,,,,,,,METAR,17.0
ETMN 150120Z 27012KT 9999 BKN090 04/01 Q1013 BLU,ETMN,2019-01-15T01:20:00Z,53.77,8.67,4.0,1.0,270,12,,6.21,29.911417,,,,,,,,,,,BKN,9000,,,,,,,VFR,,,,,,,,,,,,METAR,31.0
ETHS 150120Z 29010KT 9999 BKN080 02/M01 Q1014 BLU,ETHS,2019-01-15T01:20:00Z,52.92,10.18,2.0,-1.0,290,10,,6.21,29.940945,,,,,,,,,,,BKN,8000,,,,,,,VFR,,,,,,,,,,,,METAR,88.0
ETHF 150120Z VRB02KT 9999 SCT025 BKN300 02/M03 Q1018 BLU+,ETHF,2019-01-15T01:20:00Z,51.12,9.27,2.0,-3.0,0,2,,6.21,30.059055,,,,,,,,,,,SCT,2500,BKN,30000,,,,,VFR,,,,,,,,,,,,METAR,181.0
ETHC 150120Z 26010KT 9999 BKN040 02/M01 Q1014 BLU,ETHC,2019-01-15T01:20:00Z,52.6,10.02,2.0,-1.0,260,10,,6.21,29.940945,,,,,,,,,,,BKN,4000,,,,,,,VFR,,,,,,,,,,,,METAR,52.0
ETHB 150120Z 27010KT 9999 BKN080 03/M01 Q1016 BLU,ETHB,2019-01-15T01:20:00Z,52.27,9.07,3.0,-1.0,270,10,,6.21,30.0,,,,,,,,,,,BKN,8000,,,,,,,VFR,,,,,,,,,,,,METAR,78.0
ETGG 150120Z 27017KT 9999 BKN026 04/01 Q1009 BLU,ETGG,2019-01-15T01:20:00Z,54.83,9.5,4.0,1.0,270,17,,6.21,29.793306,,,,,,,,,,,BKN,2600,,,,,,,MVFR,,,,,,,,,,,,METAR,33.0
KVUJ 150120Z AUTO 00000KT 10SM OVC039 05/02 A3024 RMK AO2 T00500022,KVUJ,2019-01-15T01:20:00Z,35.42,-80.15,5.0,2.2,0,0,,10.0,30.239174,,,TRUE,TRUE,,,,,,,OVC,3900,,,,,,,VFR,,,,,,,,,,,,METAR,186.0
LICC 150120Z 26015KT CAVOK 09/07 Q1006,LICC,2019-01-15T01:20:00Z,37.47,15.05,9.0,7.0,260,15,,6.21,29.704725,,,,,,,,,,,CAVOK,,,,,,,,VFR,,,,,,,,,,,,METAR,17.0
LIBR 150120Z 02020KT 9999 FEW030 10/03 Q1005,LIBR,2019-01-15T01:20:00Z,40.65,17.95,10.0,3.0,20,20,,6.21,29.675198,,,,,,,,,,,FEW,3000,,,,,,,VFR,,,,,,,,,,,,METAR,10.0
LIBD 150120Z 30012KT 6000 TSRA SCT025CB 07/04 Q1008,LIBD,2019-01-15T01:20:00Z,41.12,16.77,7.0,4.0,300,12,,3.73,29.763779,,,,,,,,,,TSRA,SCT,2500,,,,,,,MVFR,,,,,,,,,,,,METAR,44.0
LIRQ 150120Z 31007KT 270V350 CAVOK 10/M06 Q1013,LIRQ,2019-01-15T01:20:00Z,43.78,11.18,10.0,-6.0,310,7,,6.21,29.911417,,,,,,,,,,,CAVOK,,,,,,,,VFR,,,,,,,,,,,,METAR,38.0
LIRN 150120Z 32006KT CAVOK 05/02 Q1009 NOSIG,LIRN,2019-01-15T01:20:00Z,40.88,14.3,5.0,2.0,320,6,,6.21,29.793306,,,,,,TRUE,,,,,CAVOK,,,,,,,,VFR,,,,,,,,,,,,METAR,72.0
LIRF 150120Z 01006KT CAVOK 05/M02 Q1011 NOSIG,LIRF,2019-01-15T01:20:00Z,41.78,12.22,5.0,-2.0,10,6,,6.21,29.852362,,,,,,TRUE,,,,,CAVOK,,,,,,,,VFR,,,,,,,,,,,,METAR,3.0
LIRA 150120Z 04007KT CAVOK 07/01 Q1010,LIRA,2019-01-15T01:20:00Z,41.8,12.58,7.0,1.0,40,7,,6.21,29.822834,,,,,,,,,,,CAVOK,,,,,,,,VFR,,,,,,,,,,,,METAR,101.0
LIML 150120Z VRB02KT CAVOK 03/M06 Q1014 NOSIG,LIML,2019-01-15T01:20:00Z,45.47,9.27,3.0,-6.0,0,2,,6.21,29.940945,,,,,,TRUE,,,,,CAVOK,,,,,,,,VFR,,,,,,,,,,,,METAR,103.0
LIMJ 150120Z 01015G31KT 330V040 CAVOK 13/M09 Q1013,LIMJ,2019-01-15T01:20:00Z,44.42,8.83,13.0,-9.0,10,15,31,6.21,29.911417,,,,,,,,,,,CAVOK,,,,,,,,VFR,,,,,,,,,,,,METAR,3.0
LIMF 150120Z 24005KT CAVOK 06/M06 Q1014,LIMF,2019-01-15T01:20:00Z,45.22,7.65,6.0,-6.0,240,5,,6.21,29.940945,,,,,,,,,,,CAVOK,,,,,,,,VFR,,,,,,,,,,,,METAR,287.0
LIME 150120Z 35005KT 320V020 CAVOK 04/M05 Q1013 NOSIG,LIME,2019-01-15T01:20:00Z,45.67,9.68,4.0,-5.0,350,5,,6.21,29.911417,,,,,,TRUE,,,,,CAVOK,,,,,,,,VFR,,,,,,,,,,,,METAR,237.0
LIMC 150120Z 34003KT 290V030 CAVOK 07/M06 Q1014 NOSIG,LIMC,2019-01-15T01:20:00Z,45.62,8.72,7.0,-6.0,340,3,,6.21,29.940945,,,,,,TRUE,,,,,CAVOK,,,,,,,,VFR,,,,,,,,,,,,METAR,211.0
LIEO 150120Z 22011KT CAVOK 10/08 Q1013,LIEO,2019-01-15T01:20:00Z,40.88,9.52,10.0,8.0,220,11,,6.21,29.911417,,,,,,,,,,,CAVOK,,,,,,,,VFR,,,,,,,,,,,,METAR,13.0
LIEE 150120Z 01009KT 9999 FEW020 09/06 Q1014,LIEE,2019-01-15T01:20:00Z,39.25,9.07,9.0,6.0,10,9,,6.21,29.940945,,,,,,,,,,,FEW,2000,,,,,,,VFR,,,,,,,,,,,,METAR,4.0
LIEA 150120Z VRB01KT CAVOK 06/04 Q1014,LIEA,2019-01-15T01:20:00Z,40.62,8.27,6.0,4.0,0,1,,6.21,29.940945,,,,,,,,,,,CAVOK,,,,,,,,VFR,,,,,,,,,,,,METAR,23.0
ENUN 150120Z AUTO 31022KT 9999NDV -SHSN FEW026/// BKN031/// M03/M08 Q0993 W06/S/,ENUN,2019-01-15T01:20:00Z,,,-3.0,-8.0,310,22,,,29.320866,,,TRUE,,,,,,,-SHSN,FEW,2600,BKN,3100,,,,,,,,,,,,,,,,,METAR,
ENSF 150120Z AUTO /////KT //// OVC006/// 03/00 Q0999 W///S6,ENSF,2019-01-15T01:20:00Z,61.25,1.85,3.0,0.0,,,,,29.498032,,,TRUE,,,,,,,,OVC,600,,,,,,,,,,,,,,,,,,,METAR,10.0
ENFB 150120Z AUTO 19021KT 4400NDV -RASN BKN007/// OVC028/// 01/00 Q1000 RERASN W///S6,ENFB,2019-01-15T01:20:00Z,61.2,1.83,1.0,0.0,190,21,,,29.52756,,,TRUE,,,,,,,SN -RA,BKN,700,OVC,2800,,,,,,,,,,,,,,,,,SPECI,10.0
ENSL 150120Z AUTO 25028KT 8000NDV -RA BKN013/// 07/04 Q1004 W05/S6,ENSL,2019-01-15T01:20:00Z,58.37,1.9,7.0,4.0,250,28,,,29.64567,,,TRUE,,,,,,,-RA,BKN,1300,,,,,,,,,,,,,,,,,,,METAR,50.0
ENLE 150120Z 25027KT 9999 FEW020 SCT180 07/04 Q1009 W08/S6,ENLE,2019-01-15T01:20:00Z,56.53,3.22,7.0,4.0,250,27,,6.21,29.793306,,,,,,,,,,,FEW,2000,SCT,18000,,,,,VFR,,,,,,,,,,,,METAR,3.0
ENNA 150120Z 00000KT 9999 BKN006 M13/M15 Q0990 RMK WIND 1800FT 25004KT,ENNA,2019-01-15T01:20:00Z,70.07,24.97,-13.0,-15.0,0,0,,6.21,29.232283,,,,,,,,,,,BKN,600,,,,,,,IFR,,,,,,,,,,,,SPECI,8.0
EBCI 150120Z 25006KT 8000 SCT024 03/02 Q1022 NOSIG,EBCI,2019-01-15T01:20:00Z,50.47,4.45,3.0,2.0,250,6,,4.97,30.177166,,,,,,TRUE,,,,,SCT,2400,,,,,,,MVFR,,,,,,,,,,,,METAR,192.0
EBBR 150120Z 24006KT 9999 FEW014 BKN035 04/03 Q1022 NOSIG,EBBR,2019-01-15T01:20:00Z,50.9,4.5,4.0,3.0,240,6,,6.21,30.177166,,,,,,TRUE,,,,,FEW,1400,BKN,3500,,,,,VFR,,,,,,,,,,,,METAR,58.0
EBAW 150120Z AUTO 22005KT 9999 // SCT030/// OVC035/// 04/03 Q1021,EBAW,2019-01-15T01:20:00Z,51.2,4.47,4.0,3.0,220,5,,6.21,30.147638,,,TRUE,,,,,,,,SCT,3000,OVC,3500,,,,,VFR,,,,,,,,,,,,METAR,14.0
LIPZ 150120Z 33009KT CAVOK 07/M08 Q1013 NOSIG,LIPZ,2019-01-15T01:20:00Z,45.5,12.35,7.0,-8.0,330,9,,6.21,29.911417,,,,,,TRUE,,,,,CAVOK,,,,,,,,VFR,,,,,,,,,,,,METAR,6.0
LIPX 150120Z 25004KT CAVOK 06/M05 Q1013,LIPX,2019-01-15T01:20:00Z,45.38,10.87,6.0,-5.0,250,4,,6.21,29.911417,,,,,,,,,,,CAVOK,,,,,,,,VFR,,,,,,,,,,,,METAR,68.0
LIPR 150120Z AUTO 27004KT 9999 NCD 04/M05 Q1014,LIPR,2019-01-15T01:20:00Z,44.02,12.62,4.0,-5.0,270,4,,6.21,29.940945,,,TRUE,,,,,,,,CLR,,,,,,,,VFR,,,,,,,,,,,,METAR,13.0
LIPQ 150120Z AUTO 02006KT 9999 NCD 03/M05 Q1013,LIPQ,2019-01-15T01:20:00Z,45.82,13.47,3.0,-5.0,20,6,,6.21,29.911417,,,TRUE,,,,,,,,CLR,,,,,,,,VFR,,,,,,,,,,,,METAR,12.0
LIPH 150120Z AUTO 31009KT 280V340 9999 NCD 10/M11 Q1013,LIPH,2019-01-15T01:20:00Z,45.63,12.17,10.0,-11.0,310,9,,6.21,29.911417,,,TRUE,,,,,,,,CLR,,,,,,,,VFR,,,,,,,,,,,,METAR,23.0
LIPE 150120Z 24003KT CAVOK 03/M06 Q1014,LIPE,2019-01-15T01:20:00Z,44.52,11.3,3.0,-6.0,240,3,,6.21,29.940945,,,,,,,,,,,CAVOK,,,,,,,,VFR,,,,,,,,,,,,METAR,42.0
LICJ 150120Z 33012KT 9999 SCT030 14/09 Q1010,LICJ,2019-01-15T01:20:00Z,38.17,13.08,14.0,9.0,330,12,,6.21,29.822834,,,,,,,,,,,SCT,3000,,,,,,,VFR,,,,,,,,,,,,METAR,34.0
EBLG 150120Z 23008KT 9000 SCT012 BKN030 03/02 Q1021 NOSIG,EBLG,2019-01-15T01:20:00Z,50.63,5.45,3.0,2.0,230,8,,5.59,30.147638,,,,,,TRUE,,,,,SCT,1200,BKN,3000,,,,,MVFR,,,,,,,,,,,,METAR,178.0
KSVH 150120Z AUTO 00000KT 10SM OVC050 04/02 A3018 RMK AO2 T00430019,KSVH,2019-01-15T01:20:00Z,35.75,-80.95,4.3,1.9,0,0,,10.0,30.180119,,,TRUE,TRUE,,,,,,,OVC,5000,,,,,,,VFR,,,,,,,,,,,,METAR,294.0
KSCR 150120Z AUTO 00000KT 10SM OVC035 03/01 A3021 RMK AO2 T00310006,KSCR,2019-01-15T01:20:00Z,35.7,-79.5,3.1,0.6,0,0,,10.0,30.209646,,,TRUE,TRUE,,,,,,,OVC,3500,,,,,,,VFR,,,,,,,,,,,,METAR,188.0
EBOS 150120Z 23006KT 9999 FEW020 BKN048 04/02 Q1022 NOSIG,EBOS,2019-01-15T01:20:00Z,51.2,2.87,4.0,2.0,230,6,,6.21,30.177166,,,,,,TRUE,,,,,FEW,2000,BKN,4800,,,,,VFR,,,,,,,,,,,,METAR,5.0
LATI 150120Z 15003KT 100V220 0100 R17/P2000N R35/0600 FZFG NSC M01/M01 Q1006 NOSIG,LATI,2019-01-15T01:20:00Z,41.42,19.72,-1.0,-1.0,150,3,,0.06,29.704725,,,,,,TRUE,,,,FZFG,CLR,,,,,,,,LIFR,,,,,,,,,,,,METAR,90.0
LTFE 150120Z 10006KT 8000 -SHRA SCT030 BKN090 09/08 Q1001 BECMG TL0300 14020KT,LTFE,2019-01-15T01:20:00Z,37.25,27.67,9.0,8.0,100,6,,4.97,29.557087,,,,,,,,,,-SHRA,SCT,3000,BKN,9000,,,,,MVFR,,,,,,,,,,,,SPECI,6.0
LTFC 150120Z 08006KT 9999 BKN030 BKN090 04/02 Q1002 RMK RWY23 07006KT,LTFC,2019-01-15T01:20:00Z,37.87,30.38,4.0,2.0,80,6,,6.21,29.586615,,,,,,,,,,,BKN,3000,BKN,9000,,,,,MVFR,,,,,,,,,,,,METAR,864.0
LTCG 150120Z 26006KT 9999 BKN100 13/M00 Q1006 NOSIG RMK RWY29 25007KT,LTCG,2019-01-15T01:20:00Z,41.0,39.8,13.0,0.0,260,6,,6.21,29.704725,,,,,,TRUE,,,,,BKN,10000,,,,,,,VFR,,,,,,,,,,,,SPECI,30.0
LTBS 150120Z 04007KT 360V110 9999 -SHRA SCT025 BKN080 09/07 Q1003 BECMG 16020KT,LTBS,2019-01-15T01:20:00Z,36.7,28.77,9.0,7.0,40,7,,6.21,29.616142,,,,,,,,,,-SHRA,SCT,2500,BKN,8000,,,,,VFR,,,,,,,,,,,,SPECI,2.0
LTBR 150120Z 00000KT 4500 BR SCT040 BKN100 03/03 Q1001 BECMG TL0220 6000,LTBR,2019-01-15T01:20:00Z,40.25,29.57,3.0,3.0,0,0,,2.8,29.557087,,,,,,,,,,BR,SCT,4000,BKN,10000,,,,,IFR,,,,,,,,,,,,METAR,232.0
LTBJ 150120Z VRB02KT 9999 SCT025 BKN090 06/05 Q1000 R342///95 BECMG 4000 BR,LTBJ,2019-01-15T01:20:00Z,38.28,27.15,6.0,5.0,0,2,,6.21,29.52756,,,,,,,,,,,SCT,2500,BKN,9000,,,,,VFR,,,,,,,,,,,,SPECI,120.0
LTAJ 150120Z 17004KT 130V200 4000 -RA BR BKN002 BKN020 OVC070 04/03 Q1012 TEMPO 0700 FG,LTAJ,2019-01-15T01:20:00Z,36.95,37.48,4.0,3.0,170,4,,2.49,29.88189,,,,,,,,,,-RA BR,BKN,200,BKN,2000,OVC,7000,,,LIFR,,,,,,,,,,,,SPECI,855.0
LTAI 150120Z VRB01KT 9999 FEW020CB BKN030 08/07 Q1005 NOSIG RMK RWY18C 00000KT RWY36R VRB01KT RWY18L 00000KT,LTAI,2019-01-15T01:20:00Z,36.9,30.8,8.0,7.0,0,1,,6.21,29.675198,,,,,,TRUE,,,,,FEW,2000,BKN,3000,,,,,MVFR,,,,,,,,,,,,SPECI,54.0
LTFJ 150120Z VRB01KT 9999 -SHRA SCT033 BKN090 06/05 Q1002 NOSIG RMK RWY24 VRB01KT,LTFJ,2019-01-15T01:20:00Z,40.9,29.3,6.0,5.0,0,1,,6.21,29.586615,,,,,,TRUE,,,,-SHRA,SCT,3300,BKN,9000,,,,,VFR,,,,,,,,,,,,METAR,98.0
LTAF 150120Z 02016KT 4500 -SHRA BR SCT035 BKN100 08/07 Q1008 NOSIG RMK RWY23 05014KT,LTAF,2019-01-15T01:20:00Z,36.97,35.28,8.0,7.0,20,16,,2.8,29.763779,,,,,,TRUE,,,,-SHRA BR,SCT,3500,BKN,10000,,,,,IFR,,,,,,,,,,,,SPECI,20.0
LTAC 150120Z VRB02KT 4100 BR SCT025 BKN100 M00/M01 Q1002 BECMG 9999 NSW,LTAC,2019-01-15T01:20:00Z,40.12,32.97,0.0,-1.0,0,2,,2.55,29.586615,,,,,,,,,,BR,SCT,2500,BKN,10000,,,,,IFR,,,,,,,,,,,,METAR,949.0
ENKB 150120Z AUTO 28009KT 9999 -FZRA FEW007/// SCT017/// BKN036/// M02/M04 Q0999 RMK WIND 745FT 29013KT,ENKB,2019-01-15T01:20:00Z,63.12,7.82,-2.0,-4.0,280,9,,6.21,29.498032,,,TRUE,,,,,,,-FZRA,FEW,700,SCT,1700,BKN,3600,,,VFR,,,,,,,,,,,,SPECI,62.0
LTCE 150120Z 21007KT 180V240 7000 SCT030 BKN070 M01/M05 Q1011 NOSIG RMK RWY08R 17009KT RWY26R 21011KT RWY08L 19008KT,LTCE,2019-01-15T01:20:00Z,39.95,41.17,-1.0,-5.0,210,7,,4.35,29.852362,,,,,,TRUE,,,,,SCT,3000,BKN,7000,,,,,MVFR,,,-1.1,,,,,,,,,SPECI,1758.0
LTCC 150120Z 10006KT 1200 R34/0800N R16/1000N -RA BCFG SCT002 BKN035 03/03 Q1014 NOSIG,LTCC,2019-01-15T01:20:00Z,37.87,40.2,3.0,3.0,100,6,,0.75,29.940945,,,,,,TRUE,,,,BCFG -RA,SCT,200,BKN,3500,,,,,LIFR,,,,,,,,,,,,SPECI,677.0
LTBU 150120Z 27003KT 250V330 9999 SCT040 BKN100 03/00 Q1001 RMK RWY22 33006KT,LTBU,2019-01-15T01:20:00Z,41.12,27.92,3.0,0.0,270,3,,6.21,29.557087,,,,,,,,,,,SCT,4000,BKN,10000,,,,,VFR,,,,,,,,,,,,METAR,173.0
ENWV 150120Z AUTO 27026KT 9999NDV FEW150/// SCT180/// BKN210/// 07/04 Q1009 W///S6,ENWV,2019-01-15T01:20:00Z,,,7.0,4.0,270,26,,,29.793306,,,TRUE,,,,,,,,FEW,15000,SCT,18000,BKN,21000,,,,,,,,,,,,,,,METAR,
ENUG 150120Z AUTO 09025G36KT 9999NDV // OVC009/// 00/M01 Q0988 W06/S4,ENUG,2019-01-15T01:20:00Z,,,0.0,-1.0,90,25,36,,29.17323,,,TRUE,,,,,,,,OVC,900,,,,,,,,,,,,,,,,,,,METAR,
ENLA 150120Z AUTO 26025KT //// BKN120/// 07/04 Q//// W///S6,ENLA,2019-01-15T01:20:00Z,57.1,2.83,7.0,4.0,260,25,,,,,,TRUE,,,,,,,,BKN,12000,,,,,,,,,,,,,,,,,,,METAR,4.0
ENHM 150120Z AUTO 18016KT 130V190 9999NDV -RA FEW013/// SCT021/// BKN033/// 02/01 Q1002 W07/S6,ENHM,2019-01-15T01:20:00Z,59.57,2.23,2.0,1.0,180,16,,,29.586615,,,TRUE,,,,,,,-RA,FEW,1300,SCT,2100,BKN,3300,,,,,,,,,,,,,,,METAR,10.0
ENQA 150120Z AUTO 17013KT 2800NDV -RASN FEW009/// OVC015/// 01/M01 Q1001 W03/S6,ENQA,2019-01-15T01:20:00Z,60.65,3.72,1.0,-1.0,170,13,,,29.557087,,,TRUE,,,,,,,SN -RA,FEW,900,OVC,1500,,,,,,,,,,,,,,,,,METAR,20.0
ELLX 150120Z AUTO 25006KT 9999 BKN011/// BKN013/// BKN016/// 01/01 Q1022 NOSIG,ELLX,2019-01-15T01:20:00Z,49.63,6.2,1.0,1.0,250,6,,6.21,30.177166,,,TRUE,,,TRUE,,,,,BKN,1100,BKN,1300,BKN,1600,,,MVFR,,,,,,,,,,,,METAR,379.0
LGSO 150120Z AUTO 35004KT 320V030 //// -RA ////// 09/07 Q0998 RE//,LGSO,2019-01-15T01:20:00Z,37.42,24.95,9.0,7.0,350,4,,,29.468504,,,TRUE,,,,,,,-RA,,,,,,,,,,,,,,,,,,,,,SPECI,72.0
LGPA 150120Z AUTO 02005KT //// RA ////// 09/08 Q0997 RE//,LGPA,2019-01-15T01:20:00Z,37.0,25.13,9.0,8.0,20,5,,,29.438976,,,TRUE,,,,,,,RA,,,,,,,,,,,,,,,,,,,,,SPECI,36.0
LGKP 150120Z AUTO 18014KT //// -RA ////// 14/10 Q1000 RE//,LGKP,2019-01-15T01:20:00Z,35.42,27.15,14.0,10.0,180,14,,,29.52756,,,TRUE,,,,,,,-RA,,,,,,,,,,,,,,,,,,,,,SPECI,20.0
LCEN 150120Z 07005KT 9999 FEW025 SCT030 BKN080 10/09 Q1007 RESHRA NOSIG RMK RWY11 07004KT,LCEN,2019-01-15T01:20:00Z,35.13,33.5,10.0,9.0,70,5,,6.21,29.734253,,,,,,TRUE,,,,,FEW,2500,SCT,3000,BKN,8000,,,VFR,,,,,,,,,,,,SPECI,91.0
ENHE 150120Z 32020KT 9999 SCT030 M01/M10 Q0996 W///S7,ENHE,2019-01-15T01:20:00Z,65.33,2.33,-1.0,-10.0,320,20,,6.21,29.409449,,,,,,,,,,,SCT,3000,,,,,,,VFR,,,,,,,,,,,,METAR,1.0
ENBN 150120Z AUTO 25011G22KT 220V280 1600NDV -SHSN FEW005/// SCT014/// OVC021/// M01/M03 Q0992,ENBN,2019-01-15T01:20:00Z,65.47,12.22,-1.0,-3.0,250,11,22,,29.291338,,,TRUE,,,,,,,-SHSN,FEW,500,SCT,1400,OVC,2100,,,,,,,,,,,,,,,SPECI,9.0
LTCS 150120Z 13013KT 0300 R04/0350U R22/0400U -RA FG VV002 03/03 Q1014,LTCS,2019-01-15T01:20:00Z,37.45,38.9,3.0,3.0,130,13,,0.19,29.940945,,,,,,,,,,-RA FG,OVX,0,,,,,,,LIFR,,,,,,,,,,,200,METAR,825.0
ENHF 150120Z AUTO VRB01KT 9999 NCD M07/M10 Q0989 RMK WIND 1254FT 20005KT,ENHF,2019-01-15T01:20:00Z,70.67,23.67,-7.0,-10.0,0,1,,6.21,29.202755,,,TRUE,,,,,,,,CLR,,,,,,,,VFR,,,0.5,,,,,,,,,SPECI,81.0
ENEV 150120Z AUTO 00000KT 9999 NCD M09/M10 Q0991 RMK WIND 1400FT 22008KT,ENEV,2019-01-15T01:20:00Z,68.52,16.67,-9.0,-10.0,0,0,,6.21,29.26181,,,TRUE,,,,,,,,CLR,,,,,,,,VFR,,,,,,,,,,,,SPECI,26.0
ENFL 150120Z AUTO 10012KT 9999NDV OVC039/// M01/M03 Q1001,ENFL,2019-01-15T01:20:00Z,61.57,5.02,-1.0,-3.0,100,12,,,29.557087,,,TRUE,,,,,,,,OVC,3900,,,,,,,,,,,,,,,,,,,SPECI,9.0
ENML 150120Z AUTO 24014KT 9999NDV FEW017/// SCT025/// BKN076/// M01/M04 Q1000,ENML,2019-01-15T01:20:00Z,62.75,7.27,-1.0,-4.0,240,14,,,29.52756,,,TRUE,,,,,,,,FEW,1700,SCT,2500,BKN,7600,,,,,,,,,,,,,,,SPECI,3.0
ENKR 150120Z AUTO 17006KT 0700 R06/P2000N R24/P2000N -SN OVC001/// M12/M14 Q0990 RMK WIND 731FT 25004KT,ENKR,2019-01-15T01:20:00Z,69.72,29.88,-12.0,-14.0,170,6,,0.43,29.232283,,,TRUE,,,,,,,-SN,OVC,100,,,,,,,LIFR,,,,,,,,,,,,SPECI,91.0
LTAZ 150120Z 11012KT 9999 BKN030 BKN080 02/00 Q1004 RMK RWY29 11005KT,LTAZ,2019-01-15T01:20:00Z,38.77,34.55,2.0,0.0,110,12,,6.21,29.64567,,,,,,,,,,,BKN,3000,BKN,8000,,,,,MVFR,,-0.5,,,,,,,,,,METAR,945.0
ENQC 150120Z AUTO 14013KT 2100NDV -RASN OVC011/// 01/M01 Q1000 W///S6,ENQC,2019-01-15T01:20:00Z,60.88,3.62,1.0,-1.0,140,13,,,29.52756,,,TRUE,,,,,,,SN -RA,OVC,1100,,,,,,,,,,,,,,,,,,,METAR,20.0
ENSE 150120Z AUTO 16015KT 1500NDV -SN FEW003/// SCT007/// BKN010/// 01/M01 Q1000 RESN W///S6,ENSE,2019-01-15T01:20:00Z,61.45,2.15,1.0,-1.0,160,15,,,29.52756,,,TRUE,,,,,,,-SN,FEW,300,SCT,700,BKN,1000,,,,,,,,,,,,,,,METAR,10.0
ENQR 150120Z AUTO 15019KT 1300NDV OVC005/// 01/M01 Q0999 W///S6,ENQR,2019-01-15T01:20:00Z,61.35,2.22,1.0,-1.0,150,19,,,29.498032,,,TRUE,,,,,,,,OVC,500,,,,,,,,,,,,,,,,,,,METAR,10.0
ENNE 150120Z AUTO 30024KT 9999NDV BKN036/// M01/M08 Q0994 W///S6,ENNE,2019-01-15T01:20:00Z,66.03,8.08,-1.0,-8.0,300,24,,,29.350393,,,TRUE,,,,,,,,BKN,3600,,,,,,,,,,,,,,,,,,,METAR,10.0
LGSR 150120Z AUTO 36014KT //// -RA ////// 14/08 Q0995 RE//,LGSR,2019-01-15T01:20:00Z,36.4,25.48,14.0,8.0,360,14,,,29.379921,,,TRUE,,,,,,,-RA,,,,,,,,,,,,,,,,,,,,,SPECI,40.0
LGEL 150120Z VRB03KT 8000 -RA BKN025 OVC070 07/04 Q1001,LGEL,2019-01-15T01:20:00Z,38.07,23.55,7.0,4.0,0,3,,4.97,29.557087,,,,,,,,,,-RA,BKN,2500,OVC,7000,,,,,MVFR,,,,,,,,,,,,METAR,31.0
LGTS 150120Z 36013KT 9999 FEW020 05/M02 Q1004 NOSIG,LGTS,2019-01-15T01:20:00Z,40.52,22.97,5.0,-2.0,360,13,,6.21,29.64567,,,,,,TRUE,,,,,FEW,2000,,,,,,,VFR,,,,,,,,,,,,METAR,7.0
LGLM 150120Z AUTO 03004KT //// // ////// 09/03 Q1001 RE//,LGLM,2019-01-15T01:20:00Z,39.92,25.23,9.0,3.0,30,4,,,29.557087,,,TRUE,,,,,,,,,,,,,,,,,,,,,,,,,,,,SPECI,5.0
LGKL 150120Z AUTO 32006KT 310V020 //// -RA ////// 07/05 Q0996 RE//,LGKL,2019-01-15T01:20:00Z,37.07,22.02,7.0,5.0,320,6,,,29.409449,,,TRUE,,,,,,,-RA,,,,,,,,,,,,,,,,,,,,,SPECI,8.0
LOWK 150120Z AUTO 28004KT 230V360 9999 FEW060 BKN070 M03/M04 Q1013,LOWK,2019-01-15T01:20:00Z,46.65,14.32,-3.0,-4.0,280,4,,6.21,29.911417,,,TRUE,,,,,,,,FEW,6000,BKN,7000,,,,,VFR,,,,,,,,,,,,METAR,441.0
LOWG 150120Z AUTO VRB02KT 9999 NSC M03/M04 Q1013,LOWG,2019-01-15T01:20:00Z,47.0,15.42,-3.0,-4.0,0,2,,6.21,29.911417,,,TRUE,,,,,,,,CLR,,,,,,,,VFR,,,,,,,,,,,,METAR,347.0
LOWI 150120Z AUTO 03004KT 280V060 9999 -SN FEW016 BKN026 M00/M02 Q1019,LOWI,2019-01-15T01:20:00Z,47.27,11.33,0.0,-2.0,30,4,,6.21,30.088583,,,TRUE,,,,,,,-SN,FEW,1600,BKN,2600,,,,,MVFR,,,,,,,,,,,,METAR,581.0
LOWS 150120Z AUTO 30012KT 9999 FEW024 OVC060 01/M03 Q1018,LOWS,2019-01-15T01:20:00Z,47.78,13.02,1.0,-3.0,300,12,,6.21,30.059055,,,TRUE,,,,,,,,FEW,2400,OVC,6000,,,,,VFR,,,,,,,,,,,,METAR,430.0
LOWL 150120Z AUTO 28018KT 9999 FEW019 SCT070 01/M03 Q1016,LOWL,2019-01-15T01:20:00Z,48.22,14.18,1.0,-3.0,280,18,,6.21,30.0,,,TRUE,,,,,,,,FEW,1900,SCT,7000,,,,,VFR,,,,,,,,,,,,METAR,313.0
LOWW 150120Z 30017KT 9999 FEW045 01/M07 Q1012 R88/19//95 NOSIG,LOWW,2019-01-15T01:20:00Z,48.12,16.57,1.0,-7.0,300,17,,6.21,29.88189,,,,,,TRUE,,,,,FEW,4500,,,,,,,VFR,,,,,,,,,,,,SPECI,190.0
KFQD 150120Z AUTO 03004KT 7SM -RA OVC020 05/04 A3019 RMK AO2 P0001,KFQD,2019-01-15T01:20:00Z,35.42,-81.93,5.0,4.0,30,4,,7.0,30.188976,,,TRUE,TRUE,,,,,,-RA,OVC,2000,,,,,,,MVFR,,,,,,0.01,,,,,,METAR,329.0
EGPI 150120Z AUTO 25019KT 200V270 8000 BKN009/// 10/09 Q1014,EGPI,2019-01-15T01:20:00Z,55.68,-6.25,10.0,9.0,250,19,,4.97,29.940945,,,TRUE,,,,,,,,BKN,900,,,,,,,IFR,,,,,,,,,,,,METAR,18.0
LGRP 150120Z 11004KT 060V150 9999 FEW018TCU BKN025 11/09 Q1001 NOSIG,LGRP,2019-01-15T01:20:00Z,36.4,28.08,11.0,9.0,110,4,,6.21,29.557087,,,,,,TRUE,,,,,FEW,1800,BKN,2500,,,,,MVFR,,,,,,,,,,,,METAR,5.0
LGKR 150120Z 27006KT 9999 FEW015 SCT025 06/05 Q1000 NOSIG,LGKR,2019-01-15T01:20:00Z,39.62,19.92,6.0,5.0,270,6,,6.21,29.52756,,,,,,TRUE,,,,,FEW,1500,SCT,2500,,,,,VFR,,,,,,,,,,,,METAR,2.0
LGIR 150120Z 17010KT 9999 FEW018TCU BKN025 BKN080 12/10 Q0994 NOSIG,LGIR,2019-01-15T01:20:00Z,35.32,25.17,12.0,10.0,170,10,,6.21,29.350393,,,,,,TRUE,,,,,FEW,1800,BKN,2500,BKN,8000,,,MVFR,,,,,,,,,,,,METAR,39.0
EGPU 150120Z AUTO 25022KT 220V280 4100 -RADZ OVC004/// 10/10 Q1011,EGPU,2019-01-15T01:20:00Z,56.5,-6.87,10.0,10.0,250,22,,2.55,29.852362,,,TRUE,,,,,,,-RA -DZ,OVC,400,,,,,,,LIFR,,,,,,,,,,,,METAR,12.0
EETN 150120Z 23003KT 9999 SCT026 SCT032 M05/M06 Q0980 R08/920295,EETN,2019-01-15T01:20:00Z,59.4,24.82,-5.0,-6.0,230,3,,6.21,28.937008,,,,,,,,,,,SCT,2600,SCT,3200,,,,,VFR,,,,,,,,,,,,METAR,40.0
EYKA 150120Z AUTO 27009KT 9999 -UP FEW014/// SCT047/// BKN071/// M03/M05 Q0988,EYKA,2019-01-15T01:20:00Z,54.97,24.08,-3.0,-5.0,270,9,,6.21,29.17323,,,TRUE,,,,,,,UP,FEW,1400,SCT,4700,BKN,7100,,,VFR,,,,,,,,,,,,METAR,77.0
EVRA 150120Z 26004KT 220V300 CAVOK M04/M05 Q0984 R36/590295 NOSIG,EVRA,2019-01-15T01:20:00Z,56.92,23.97,-4.0,-5.0,260,4,,6.21,29.055119,,,,,,TRUE,,,,,CAVOK,,,,,,,,VFR,,,,,,,,,,,,METAR,10.0
EKVG 150120Z AUTO 28024KT 9999NDV -SHRA BKN023/// BKN046/// 05/02 Q0995 RMK BKN024/// BKN048/// WIND SKEID 29037G50KT,EKVG,2019-01-15T01:20:00Z,62.07,-7.3,5.0,2.0,280,24,,,29.379921,,,TRUE,,,,,,,-SHRA,BKN,2300,BKN,4600,,,,,,,,,,,,,,,,,METAR,85.0
VNKT 150120Z VRB02KT 1500 BR FEW015 03/02 Q1019 NOSIG,VNKT,2019-01-15T01:20:00Z,27.68,85.37,3.0,2.0,0,2,,0.93,30.088583,,,,,,TRUE,,,,BR,FEW,1500,,,,,,,LIFR,,,,,,,,,,,,METAR,1337.0
ENAL 150120Z AUTO 19008KT 9999 FZUP VV015 M00/M04 Q1000 REFZUP,ENAL,2019-01-15T01:20:00Z,62.57,6.12,0.0,-4.0,190,8,,6.21,29.52756,,,TRUE,,,,,,,UP,OVX,0,,,,,,,LIFR,,,,,,,,,,,1500,SPECI,22.0
ENCN 150120Z AUTO 00000KT 9999 NCD M01/M04 Q1004,ENCN,2019-01-15T01:20:00Z,58.2,8.07,-1.0,-4.0,0,0,,6.21,29.64567,,,TRUE,,,,,,,,CLR,,,,,,,,VFR,,,,,,,,,,,,METAR,17.0
ENRO 150120Z AUTO 28008KT 240V310 9999NDV FEW015/// M07/M10 Q0994,ENRO,2019-01-15T01:20:00Z,62.57,11.33,-7.0,-10.0,280,8,,,29.350393,,,TRUE,,,,,,,,FEW,1500,,,,,,,,,,,,,,,,,,,SPECI,626.0
ENTC 150120Z 19014KT 9000 -SN FEW008 SCT036 BKN051 M04/M06 Q0989 RMK WIND 2600FT /////KT,ENTC,2019-01-15T01:20:00Z,69.68,18.92,-4.0,-6.0,190,14,,5.59,29.202755,,,,,,,,,,-SN,FEW,800,SCT,3600,BKN,5100,,,VFR,,,,,,,,,,,,SPECI,10.0
ENAN 150120Z AUTO 28018KT 9999 FEW040/// M00/M07 Q0989,ENAN,2019-01-15T01:20:00Z,69.28,16.13,0.0,-7.0,280,18,,6.21,29.202755,,,TRUE,,,,,,,,FEW,4000,,,,,,,VFR,,,,,,,,,,,,METAR,14.0
ENTO 150120Z AUTO 23006KT 200V260 9999 NCD M02/M12 Q1001,ENTO,2019-01-15T01:20:00Z,59.2,10.27,-2.0,-12.0,230,6,,6.21,29.557087,,,TRUE,,,,,,,,CLR,,,,,,,,VFR,,,,,,,,,,,,METAR,88.0
ENDU 150120Z AUTO VRB02KT 9999 BKN035/// OVC045/// M12/M13 Q0990 RMK WIND 1100FT 19009KT WIND 2200FT 20014KT,ENDU,2019-01-15T01:20:00Z,69.03,18.55,-12.0,-13.0,0,2,,6.21,29.232283,,,TRUE,,,,,,,,BKN,3500,OVC,4500,,,,,VFR,,,1.4,,,,,,,,,SPECI,79.0
ENZV 150120Z 00000KT 9999 FEW010 BKN030 01/M00 Q1004,ENZV,2019-01-15T01:20:00Z,58.87,5.62,1.0,0.0,0,0,,6.21,29.64567,,,,,,,,,,,FEW,1000,BKN,3000,,,,,MVFR,,,,,,,,,,,,METAR,9.0
ENGM 150120Z 32006KT 240V020 CAVOK M03/M12 Q0998,ENGM,2019-01-15T01:20:00Z,60.2,11.1,-3.0,-12.0,320,6,,6.21,29.468504,,,,,,,,,,,CAVOK,,,,,,,,VFR,,,,,,,,,,,,METAR,204.0
EYVI 150120Z 27007KT 9999 -SN OVC008 M03/M05 Q0987 R19/5/0294 NOSIG,EYVI,2019-01-15T01:20:00Z,54.63,25.28,-3.0,-5.0,270,7,,6.21,29.143702,,,,,,TRUE,,,,-SN,OVC,800,,,,,,,IFR,,,,,,,,,,,,METAR,197.0
LLBG 150120Z 16007KT CAVOK 11/05 Q1016 NOSIG RMK OBS 1000FT-WIND 230/26KT,LLBG,2019-01-15T01:20:00Z,32.0,34.88,11.0,5.0,160,7,,6.21,30.0,,,,,,TRUE,,,,,CAVOK,,,,,,,,VFR,,,,,,,,,,,,METAR,49.0
LTAU 150120Z VRB02KT 9999 SCT040 BKN080 04/M02 Q1005 NOSIG RMK RWY07 /////KT,LTAU,2019-01-15T01:20:00Z,38.77,35.47,4.0,-2.0,0,2,,6.21,29.675198,,,,,,TRUE,,,,,SCT,4000,BKN,8000,,,,,VFR,,,,,,,,,,,,SPECI,1054.0
LTAT 150120Z 30004KT 6000 -SN FEW018 BKN028 OVC090 01/M00 Q1013 TEMPO 2500,LTAT,2019-01-15T01:20:00Z,38.42,38.07,1.0,0.0,300,4,,3.73,29.911417,,,,,,,,,,-SN,FEW,1800,BKN,2800,OVC,9000,,,MVFR,,,,,,,,,,,,SPECI,849.0
LTAP 150120Z VRB02KT 9999 SCT040 BKN100 05/01 Q1003 NOSIG RMK RWY23 VRB01KT,LTAP,2019-01-15T01:20:00Z,40.83,35.52,5.0,1.0,0,2,,6.21,29.616142,,,,,,TRUE,,,,,SCT,4000,BKN,10000,,,,,VFR,,,,,,,,,,,,SPECI,535.0
LTAG 150120Z 01015KT 9999 -SHRA BKN030 BKN070 08/07 Q1008 NOSIG,LTAG,2019-01-15T01:20:00Z,37.0,35.42,8.0,7.0,10,15,,6.21,29.763779,,,,,,TRUE,,,,-SHRA,BKN,3000,BKN,7000,,,,,MVFR,,,,,,,,,,,,METAR,66.0
LTFM 150120Z 23003KT 9999 FEW035 BKN080 05/01 Q1002 RMK RWY17L 25002KT RWY34L VRB01KT RWY16R VRB02KT,LTFM,2019-01-15T01:20:00Z,41.27,28.75,5.0,1.0,230,3,,6.21,29.586615,,,,,,,,,,,FEW,3500,BKN,8000,,,,,VFR,,,,,,,,,,,,METAR,99.0
EGPH 150120Z 24015G25KT 9999 BKN018 09/07 Q1012,EGPH,2019-01-15T01:20:00Z,55.95,-3.35,9.0,7.0,240,15,25,6.21,29.88189,,,,,,,,,,,BKN,1800,,,,,,,MVFR,,,,,,,,,,,,METAR,41.0
EGPF 150120Z AUTO 22016KT 9999 BKN016 09/07 Q1013,EGPF,2019-01-15T01:20:00Z,55.87,-4.42,9.0,7.0,220,16,,6.21,29.911417,,,TRUE,,,,,,,,BKN,1600,,,,,,,MVFR,,,,,,,,,,,,METAR,8.0
EGKK 150120Z 23005KT CAVOK 03/01 Q1023,EGKK,2019-01-15T01:20:00Z,51.13,-0.17,3.0,1.0,230,5,,6.21,30.206694,,,,,,,,,,,CAVOK,,,,,,,,VFR,,,,,,,,,,,,METAR,62.0
EGBB 150120Z 25007KT CAVOK 04/02 Q1021,EGBB,2019-01-15T01:20:00Z,52.47,-1.75,4.0,2.0,250,7,,6.21,30.147638,,,,,,,,,,,CAVOK,,,,,,,,VFR,,,,,,,,,,,,METAR,99.0
EGPE 150120Z AUTO 23018KT 9999 DZ BKN036/// 09/07 Q1006,EGPE,2019-01-15T01:20:00Z,57.52,-4.03,9.0,7.0,230,18,,6.21,29.704725,,,TRUE,,,,,,,DZ,BKN,3600,,,,,,,VFR,,,,,,,,,,,,METAR,9.0
EGNJ 150120Z AUTO 23015KT 9999 FEW015/// 05/03 Q1018,EGNJ,2019-01-15T01:20:00Z,53.57,-0.35,5.0,3.0,230,15,,6.21,30.059055,,,TRUE,,,,,,,,FEW,1500,,,,,,,VFR,,,,,,,,,,,,METAR,31.0
EDDW 150120Z 25013KT 9999 FEW042 02/M00 Q1015,EDDW,2019-01-15T01:20:00Z,53.03,8.8,2.0,0.0,250,13,,6.21,29.970472,,,,,,,,,,,FEW,4200,,,,,,,VFR,,,,,,,,,,,,METAR,5.0
EDDR 150120Z 27006KT CAVOK 01/M00 Q1022,EDDR,2019-01-15T01:20:00Z,49.22,7.1,1.0,0.0,270,6,,6.21,30.177166,,,,,,,,,,,CAVOK,,,,,,,,VFR,,,,,,,,,,,,METAR,320.0
EDDP 150120Z 28016KT CAVOK 02/M02 Q1013 R26R/7902// R26L/210195 TEMPO 28015G25KT,EDDP,2019-01-15T01:20:00Z,51.43,12.23,2.0,-2.0,280,16,,6.21,29.911417,,,,,,,,,,,CAVOK,,,,,,,,VFR,,,,,,,,,,,,METAR,149.0
EDDG 150120Z 25006KT 9999 FEW028 SCT040 02/M00 Q1018 NOSIG,EDDG,2019-01-15T01:20:00Z,52.13,7.7,2.0,0.0,250,6,,6.21,30.059055,,,,,,TRUE,,,,,FEW,2800,SCT,4000,,,,,VFR,,,,,,,,,,,,METAR,52.0
EDDE 150120Z 27013KT 9999 SCT030 01/M02 Q1015 R88/450394,EDDE,2019-01-15T01:20:00Z,50.98,10.97,1.0,-2.0,270,13,,6.21,29.970472,,,,,,,,,,,SCT,3000,,,,,,,VFR,,,,,,,,,,,,METAR,323.0
EDDC 150120Z 29015KT 260V330 8000 -SN FEW011 SCT023 BKN037 00/M01 Q1011,EDDC,2019-01-15T01:20:00Z,51.13,13.75,0.0,-1.0,290,15,,4.97,29.852362,,,,,,,,,,-SN,FEW,1100,SCT,2300,BKN,3700,,,MVFR,,,,,,,,,,,,METAR,226.0
EDDB 150120Z 29016KT 9999 FEW025 02/M02 Q1009 NOSIG,EDDB,2019-01-15T01:20:00Z,52.38,13.53,2.0,-2.0,290,16,,6.21,29.793306,,,,,,TRUE,,,,,FEW,2500,,,,,,,VFR,,,,,,,,,,,,METAR,48.0
EFKT 150120Z AUTO VRB02KT 9999 -SN OVC003 M14/M16 Q0989,EFKT,2019-01-15T01:20:00Z,67.7,24.85,-14.0,-16.0,0,2,,6.21,29.202755,,,TRUE,,,,,,,-SN,OVC,300,,,,,,,LIFR,,,,,,,,,,,,METAR,643.0
EFKS 150120Z AUTO 06005KT 030V110 9999 -SN OVC007 M09/M10 Q0986,EFKS,2019-01-15T01:20:00Z,66.0,29.23,-9.0,-10.0,60,5,,6.21,29.114174,,,TRUE,,,,,,,-SN,OVC,700,,,,,,,IFR,,,,,,,,,,,,METAR,263.0
EFKI 150120Z AUTO 06009KT 9999 -SN OVC037 M08/M10 Q0982,EFKI,2019-01-15T01:20:00Z,64.27,27.67,-8.0,-10.0,60,9,,6.21,28.996063,,,TRUE,,,,,,,-SN,OVC,3700,,,,,,,VFR,,,,,,,,,,,,METAR,136.0
EFKE 150120Z AUTO 02009KT 9999 BKN025 BKN095 M10/M12 Q0988,EFKE,2019-01-15T01:20:00Z,65.77,24.57,-10.0,-12.0,20,9,,6.21,29.17323,,,TRUE,,,,,,,,BKN,2500,BKN,9500,,,,,MVFR,,,,,,,,,,,,METAR,15.0
EFET 150120Z AUTO 07001KT CAVOK M14/M16 Q0988,EFET,2019-01-15T01:20:00Z,68.37,23.43,-14.0,-16.0,70,1,,6.21,29.17323,,,TRUE,,,,,,,,CAVOK,,,,,,,,VFR,,,,,,,,,,,,METAR,306.0
EFUT 150120Z AUTO 28005KT 260V320 9999 -SN OVC009 M05/M06 Q0978,EFUT,2019-01-15T01:20:00Z,60.88,26.92,-5.0,-6.0,280,5,,6.21,28.877953,,,TRUE,,,,,,,-SN,OVC,900,,,,,,,IFR,,,,,,,,,,,,METAR,100.0
EFSA 150120Z AUTO 06005KT 020V100 1700 SN BKN005 OVC013 M01/M02 Q0978,EFSA,2019-01-15T01:20:00Z,61.95,28.93,-1.0,-2.0,60,5,,1.06,28.877953,,,TRUE,,,,,,,SN,BKN,500,OVC,1300,,,,,IFR,,,,,,,,,,,,METAR,95.0
EFMI 150120Z AUTO 01001KT 9999 -SN OVC009 M02/M02 Q0978,EFMI,2019-01-15T01:20:00Z,61.68,27.2,-2.0,-2.0,10,1,,6.21,28.877953,,,TRUE,,,,,,,-SN,OVC,900,,,,,,,IFR,,,,,,,,,,,,METAR,138.0
EFLP 150120Z AUTO 09001KT 0250 R06/0900N R24/1100U FZFG VV002 M01/M01 Q0977,EFLP,2019-01-15T01:20:00Z,61.07,28.13,-1.0,-1.0,90,1,,0.16,28.848425,,,TRUE,,,,,,,FZFG,OVX,0,,,,,,,LIFR,,,,,,,,,,,200,METAR,106.0
EFJO 150120Z AUTO 07009KT 2200 -SN FEW025 OVC031 M03/M04 Q0979,EFJO,2019-01-15T01:20:00Z,62.67,29.62,-3.0,-4.0,70,9,,1.37,28.90748,,,TRUE,,,,,,,-SN,FEW,2500,OVC,3100,,,,,IFR,,,,,,,,,,,,METAR,117.0
EFPO 150120Z AUTO 34007KT 9999 -SN BKN065/// BKN086/// M05/M07 Q0982,EFPO,2019-01-15T01:20:00Z,61.47,21.8,-5.0,-7.0,340,7,,6.21,28.996063,,,TRUE,,,,,,,-SN,BKN,6500,BKN,8600,,,,,VFR,,,,,,,,,,,,METAR,17.0
EFKK 150120Z AUTO 36009KT 9999 -SN SCT039 OVC061 M07/M08 Q0984,EFKK,2019-01-15T01:20:00Z,63.72,23.13,-7.0,-8.0,360,9,,6.21,29.055119,,,TRUE,,,,,,,-SN,SCT,3900,OVC,6100,,,,,VFR,,,,,,,,,,,,METAR,25.0
EFHA 150120Z AUTO 31008KT 9999 -SHSN BKN051 BKN102 M07/M08 Q0979,EFHA,2019-01-15T01:20:00Z,61.85,24.8,-7.0,-8.0,310,8,,6.21,28.90748,,,TRUE,,,,,,,-SHSN,BKN,5100,BKN,10200,,,,,VFR,,,,,,,,,,,,METAR,145.0
EFKU 150120Z AUTO VRB03KT 8000 -SN OVC011 M04/M05 Q0980,EFKU,2019-01-15T01:20:00Z,63.02,27.8,-4.0,-5.0,0,3,,4.97,28.937008,,,TRUE,,,,,,,-SN,OVC,1100,,,,,,,MVFR,,,,,,,,,,,,METAR,102.0
EFJY 150120Z AUTO 34008KT 9999 -FZRA OVC039 M06/M07 Q0979,EFJY,2019-01-15T01:20:00Z,62.4,25.68,-6.0,-7.0,340,8,,6.21,28.90748,,,TRUE,,,,,,,-FZRA,OVC,3900,,,,,,,VFR,,,,,,,,,,,,METAR,145.0
EDDV 150120Z 27013KT CAVOK 02/M01 Q1015,EDDV,2019-01-15T01:20:00Z,52.47,9.68,2.0,-1.0,270,13,,6.21,29.970472,,,,,,,,,,,CAVOK,,,,,,,,VFR,,,,,,,,,,,,METAR,54.0
EDDT 150120Z 28013KT 250V310 9999 FEW039 02/M02 Q1009,EDDT,2019-01-15T01:20:00Z,52.57,13.32,2.0,-2.0,280,13,,6.21,29.793306,,,,,,,,,,,FEW,3900,,,,,,,VFR,,,,,,,,,,,,METAR,37.0
EDDS 150120Z 26010KT 230V290 9999 FEW030 02/M02 Q1021,EDDS,2019-01-15T01:20:00Z,48.67,9.22,2.0,-2.0,260,10,,6.21,30.147638,,,,,,,,,,,FEW,3000,,,,,,,VFR,,,,,,,,,,,,METAR,419.0
EDDN 150120Z 27013KT 9999 -SN FEW033 01/M02 Q1018,EDDN,2019-01-15T01:20:00Z,49.5,11.08,1.0,-2.0,270,13,,6.21,30.059055,,,,,,,,,,-SN,FEW,3300,,,,,,,VFR,,,,,,,,,,,,METAR,312.0
EDDM 150120Z 26011KT 9999 -SHSN FEW020TCU BKN048 00/M02 Q1018 TEMPO 4500 -SHSN,EDDM,2019-01-15T01:20:00Z,48.35,11.82,0.0,-2.0,260,11,,6.21,30.059055,,,,,,,,,,-SHSN,FEW,2000,BKN,4800,,,,,VFR,,,,,,,,,,,,METAR,447.0
EDDL 150120Z 24006KT CAVOK 01/M00 Q1020 NOSIG,EDDL,2019-01-15T01:20:00Z,51.3,6.77,1.0,0.0,240,6,,6.21,30.11811,,,,,,TRUE,,,,,CAVOK,,,,,,,,VFR,,,,,,,,,,,,METAR,44.0
EDDK 150120Z 17003KT 150V210 9999 FEW015 BKN042 01/M00 Q1021 NOSIG,EDDK,2019-01-15T01:20:00Z,50.87,7.15,1.0,0.0,170,3,,6.21,30.147638,,,,,,TRUE,,,,,FEW,1500,BKN,4200,,,,,VFR,,,,,,,,,,,,METAR,99.0
EDDH 150120Z 27011KT CAVOK 04/M00 Q1012 NOSIG,EDDH,2019-01-15T01:20:00Z,53.63,10.0,4.0,0.0,270,11,,6.21,29.88189,,,,,,TRUE,,,,,CAVOK,,,,,,,,VFR,,,,,,,,,,,,METAR,16.0
EDDF 150120Z 23006KT 9999 BKN028 03/M00 Q1021 NOSIG,EDDF,2019-01-15T01:20:00Z,50.05,8.6,3.0,0.0,230,6,,6.21,30.147638,,,,,,TRUE,,,,,BKN,2800,,,,,,,MVFR,,,,,,,,,,,,METAR,113.0
ESTL 150120Z AUTO 28012KT 9999 BKN038/// 02/M03 Q1002,ESTL,2019-01-15T01:20:00Z,56.07,13.2,2.0,-3.0,280,12,,6.21,29.586615,,,TRUE,,,,,,,,BKN,3800,,,,,,,VFR,,,,,,,,,,,,METAR,43.0
ESTA 150120Z AUTO 30020KT 9999 NCD 02/M03 Q1002,ESTA,2019-01-15T01:20:00Z,56.28,12.83,2.0,-3.0,300,20,,6.21,29.586615,,,TRUE,,,,,,,,CLR,,,,,,,,VFR,,,,,,,,,,,,METAR,47.0
ESMX 150120Z AUTO 29011KT 9999 NCD M01/M09 Q0998,ESMX,2019-01-15T01:20:00Z,56.92,14.72,-1.0,-9.0,290,11,,6.21,29.468504,,,TRUE,,,,,,,,CLR,,,,,,,,VFR,,,,,,,,,,,,METAR,186.0
ESMT 150120Z AUTO 32009KT 9999 SCT041/// 01/M05 Q1002,ESMT,2019-01-15T01:20:00Z,56.67,12.82,1.0,-5.0,320,9,,6.21,29.586615,,,TRUE,,,,,,,,SCT,4100,,,,,,,VFR,,,,,,,,,,,,METAR,30.0
ESMS 150120Z 29013KT CAVOK 01/M03 Q1003 R17/19//95,ESMS,2019-01-15T01:20:00Z,55.53,13.37,1.0,-3.0,290,13,,6.21,29.616142,,,,,,,,,,,CAVOK,,,,,,,,VFR,,,,,,,,,,,,SPECI,106.0
ESMQ 150120Z AUTO 28016KT 9999 NCD M00/M07 Q0996,ESMQ,2019-01-15T01:20:00Z,56.68,16.3,0.0,-7.0,280,16,,6.21,29.409449,,,TRUE,,,,,,,,CLR,,,,,,,,VFR,,,,,,,,,,,,METAR,16.0
ESMK 150120Z AUTO 29011KT 9999 NCD 01/// Q1001,ESMK,2019-01-15T01:20:00Z,55.92,14.07,,,290,11,,6.21,29.557087,,,TRUE,,,,,,,,CLR,,,,,,,,VFR,,,,,,,,,,,,METAR,23.0
ESGT 150120Z AUTO 27009KT 240V300 9999 NCD M01/M10 Q1001,ESGT,2019-01-15T01:20:00Z,58.32,12.33,-1.0,-10.0,270,9,,6.21,29.557087,,,TRUE,,,,,,,,CLR,,,,,,,,VFR,,,,,,,,,,,,METAR,41.0
ESGJ 150120Z AUTO 28011KT 9999 NCD M03/M09 Q0998,ESGJ,2019-01-15T01:20:00Z,57.77,14.07,-3.0,-9.0,280,11,,6.21,29.468504,,,TRUE,,,,,,,,CLR,,,,,,,,VFR,,,,,,,,,,,,METAR,232.0
ESGG 150120Z 28005KT CAVOK M01/M09 Q1001 R03/19//95,ESGG,2019-01-15T01:20:00Z,57.67,12.3,-1.0,-9.0,280,5,,6.21,29.557087,,,,,,,,,,,CAVOK,,,,,,,,VFR,,,,,,,,,,,,SPECI,169.0
EKSB 150120Z AUTO 25008KT 210V270 9999NDV -SHRA FEW024/// BKN030/// BKN063/// 03/01 Q1009,EKSB,2019-01-15T01:20:00Z,54.97,9.8,3.0,1.0,250,8,,,29.793306,,,TRUE,,,,,,,-SHRA,FEW,2400,BKN,3000,BKN,6300,,,,,,,,,,,,,,,SPECI,23.0
EKVD 150120Z AUTO 26010KT //// ///////// 03/02 Q1008,EKVD,2019-01-15T01:20:00Z,55.42,9.32,3.0,2.0,260,10,,,29.763779,,,TRUE,,,,,,,,,,,,,,,,,,,,,,,,,,,,SPECI,45.0
EKBI 150120Z AUTO 26009KT 9999 OVC010/// 02/02 Q1007,EKBI,2019-01-15T01:20:00Z,55.72,9.15,2.0,2.0,260,9,,6.21,29.734253,,,TRUE,,,,,,,,OVC,1000,,,,,,,MVFR,,,,,,,,,,,,METAR,66.0
EKRK 150120Z AUTO 30013KT 9999NDV NCD 02/M02 Q1005 R99/410194 R99/710194,EKRK,2019-01-15T01:20:00Z,55.57,12.12,2.0,-2.0,300,13,,0.12,29.675198,,,TRUE,,,,,,,,CLR,,,,,,,,LIFR,,,,,,,,,,,,SPECI,44.0
EKAH 150120Z AUTO 28013KT 9999NDV BKN018/// BKN039/// 03/00 Q1005 R10R/010095,EKAH,2019-01-15T01:20:00Z,56.28,10.62,3.0,0.0,280,13,,0.06,29.675198,,,TRUE,,,,,,,,BKN,1800,BKN,3900,,,,,LIFR,,,,,,,,,,,,SPECI,25.0
EKYT 150120Z AUTO 29009KT 9999 SCT031/// BKN036/// OVC048/// 03/M01 Q1005 R26L/710195,EKYT,2019-01-15T01:20:00Z,57.1,9.87,3.0,-1.0,290,9,,6.21,29.675198,,,TRUE,,,,,,,,SCT,3100,BKN,3600,OVC,4800,,,VFR,,,,,,,,,,,,SPECI,3.0
EKEB 150120Z AUTO 26015KT 9999 -SHRA OVC020/// 04/03 Q1008,EKEB,2019-01-15T01:20:00Z,55.52,8.55,4.0,3.0,260,15,,6.21,29.763779,,,TRUE,,,,,,,-SHRA,OVC,2000,,,,,,,MVFR,,,,,,,,,,,,METAR,29.0
EKCH 150120Z 30014KT CAVOK 02/M03 Q1004 R04L/710157 R04R/710165 R12/710165 TEMPO 29015G25KT FM0200 3000 SN,EKCH,2019-01-15T01:20:00Z,55.62,12.67,2.0,-3.0,300,14,,6.21,29.64567,,,,,,,,,,,CAVOK,,,,,,,,VFR,,,,,,,,,,,,SPECI,5.0
EKRN 150120Z AUTO 31019G29KT 9999 NCD 03/M03 Q1002,EKRN,2019-01-15T01:20:00Z,55.07,14.75,3.0,-3.0,310,19,29,6.21,29.586615,,,TRUE,,,,,,,,CLR,,,,,,,,VFR,,,,,,,,,,,,METAR,16.0
LSMS 150120Z AUTO 00000KT CAVOK 01/M01 Q1023,LSMS,2019-01-15T01:20:00Z,46.22,7.32,1.0,-1.0,0,0,,6.21,30.206694,,,TRUE,,,,,,,,CAVOK,,,,,,,,VFR,,,,,,,,,,,,METAR,481.0
EVLA 150120Z AUTO 32008KT 270V010 9999 -RASN SCT019/// BKN044/// BKN051/// 00/M06 Q0987,EVLA,2019-01-15T01:20:00Z,56.52,21.1,0.0,-6.0,320,8,,6.21,29.143702,,,TRUE,,,,,,,-RA -SN,SCT,1900,BKN,4400,BKN,5100,,,VFR,,,,,,,,,,,,METAR,4.0
EVVA 150120Z AUTO 32015KT 9999 -SN SCT017 SCT024 BKN031 M01/M06 Q0985 RESN,EVVA,2019-01-15T01:20:00Z,57.35,21.55,-1.0,-6.0,320,15,,6.21,29.084646,,,TRUE,,,,,,,-SN,SCT,1700,SCT,2400,BKN,3100,,,VFR,,,,,,,,,,,,METAR,6.0
KBLI 150120Z 00000KT 1/4SM R16/1400V1600FT FG VV001 03/02 A2997 RMK AO2 T00280022,KBLI,2019-01-15T01:20:00Z,48.8,-122.53,2.8,2.2,0,0,,0.25,29.970472,,,,TRUE,,,,,,FG,OVX,0,,,,,,,LIFR,,,,,,,,,,,100,SPECI,50.0
LSZC 150120Z AUTO VRB03KT 9999 FEW048 OVC070 02/01 Q1023,LSZC,2019-01-15T01:20:00Z,46.97,8.38,2.0,1.0,0,3,,6.21,30.206694,,,TRUE,,,,,,,,FEW,4800,OVC,7000,,,,,VFR,,,,,,,,,,,,METAR,450.0
LSZS 150120Z AUTO 33015G28KT 290V070 9999 -SN BKN/// M05/M14 Q1014,LSZS,2019-01-15T01:20:00Z,46.53,9.88,-5.0,-14.0,330,15,28,6.21,29.940945,,,TRUE,,,,,,,-SN,,,,,,,,,,,,,,,,,,,,,SPECI,1706.0
LSZR 150120Z AUTO VRB01KT 9999 FEW027 OVC060 01/01 Q1022,LSZR,2019-01-15T01:20:00Z,47.48,9.57,1.0,1.0,0,1,,6.21,30.177166,,,TRUE,,,,,,,,FEW,2700,OVC,6000,,,,,VFR,,,,,,,,,,,,METAR,398.0
LSZG 150120Z AUTO 21006KT 9999 SCT037 BKN045 03/02 Q1023,LSZG,2019-01-15T01:20:00Z,47.17,7.42,3.0,2.0,210,6,,6.21,30.206694,,,TRUE,,,,,,,,SCT,3700,BKN,4500,,,,,VFR,,,,,,,,,,,,METAR,430.0
LSGS 150120Z AUTO 00000KT CAVOK 01/M01 Q1023,LSGS,2019-01-15T01:20:00Z,46.22,7.32,1.0,-1.0,0,0,,6.21,30.206694,,,TRUE,,,,,,,,CAVOK,,,,,,,,VFR,,,,,,,,,,,,METAR,481.0
LSGC 150120Z AUTO 22003KT 0750 SN VV004 M01/M01 Q1021 REFZDZ,LSGC,2019-01-15T01:20:00Z,47.08,6.8,-1.0,-1.0,220,3,,0.47,30.147638,,,TRUE,,,,,,,SN,OVX,0,,,,,,,LIFR,,,,,,,,,,,400,METAR,1027.0
PKWA 150120Z AUTO 08010KT 10SM CLR 30/21 A2978 RMK AO2 T03030211,PKWA,2019-01-15T01:20:00Z,8.72,167.72,30.3,21.1,80,10,,10.0,29.778543,,,TRUE,TRUE,,,,,,,CLR,,,,,,,,VFR,,,,,,,,,,,,METAR,8.0
LSZB 150120Z AUTO VRB01KT 9999 OVC070 02/00 Q1023,LSZB,2019-01-15T01:20:00Z,46.92,7.5,2.0,0.0,0,1,,6.21,30.206694,,,TRUE,,,,,,,,OVC,7000,,,,,,,VFR,,,,,,,,,,,,METAR,505.0
LSGG 150120Z AUTO VRB01KT 0900 R04/P2000N R22/0900U BCFG NCD M01/M01 Q1024 REFZDZ NOSIG,LSGG,2019-01-15T01:20:00Z,46.25,6.12,-1.0,-1.0,0,1,,0.56,30.236221,,,TRUE,,,TRUE,,,,BCFG,CLR,,,,,,,,LIFR,,,,,,,,,,,,SPECI,416.0
LSZH 150120Z VRB03KT 9999 BKN064 01/M01 Q1023 NOSIG,LSZH,2019-01-15T01:20:00Z,47.48,8.53,1.0,-1.0,0,3,,6.21,30.206694,,,,,,TRUE,,,,,BKN,6400,,,,,,,VFR,,,,,,,,,,,,METAR,432.0
EKSP 150120Z 26014KT 7000 FEW016 BKN025 03/01 Q1008 R28R/09//95,EKSP,2019-01-15T01:20:00Z,55.22,9.27,3.0,1.0,260,14,,4.35,29.763779,,,,,,,,,,,FEW,1600,BKN,2500,,,,,MVFR,,,,,,,,,,,,SPECI,40.0
ESNX 150120Z AUTO 29007KT 9999 NCD M12/M15 Q0988,ESNX,2019-01-15T01:20:00Z,65.58,19.28,-12.0,-15.0,290,7,,6.21,29.17323,,,TRUE,,,,,,,,CLR,,,,,,,,VFR,,,,,,,,,,,,METAR,379.0
ESUT 150120Z AUTO 13001KT 9999 ///////// M17/M19 Q0990,ESUT,2019-01-15T01:20:00Z,65.8,15.08,-17.0,-19.0,130,1,,6.21,29.232283,,,TRUE,,,,,,,,,,,,,,,,,,,,,,,,,,,,METAR,463.0
ESNL 150120Z AUTO 30006KT 9999 NCD M09/M13 Q0989,ESNL,2019-01-15T01:20:00Z,64.55,18.72,-9.0,-13.0,300,6,,6.21,29.202755,,,TRUE,,,,,,,,CLR,,,,,,,,VFR,,,,,,,,,,,,METAR,214.0
EFIV 150120Z AUTO 25004KT 1000 R22/1900D -FZDZSN VV002 M12/M13 Q0989,EFIV,2019-01-15T01:20:00Z,68.62,27.42,-12.0,-13.0,250,4,,0.62,29.202755,,,TRUE,,,,,,,-FZDZ SN,OVX,0,,,,,,,LIFR,,,,,,,,,,,200,METAR,148.0
EFMA 150120Z AUTO 33009KT 310V010 9999 -SHSN BKN022 BKN065 M02/M04 Q0984,EFMA,2019-01-15T01:20:00Z,60.12,19.88,-2.0,-4.0,330,9,,6.21,29.055119,,,TRUE,,,,,,,-SHSN,BKN,2200,BKN,6500,,,,,MVFR,,,,,,,,,,,,METAR,6.0
EFRO 150120Z AUTO 03009KT 9999 FEW012 BKN015 BKN018 M12/M13 Q0987,EFRO,2019-01-15T01:20:00Z,66.57,25.82,-12.0,-13.0,30,9,,6.21,29.143702,,,TRUE,,,,,,,,FEW,1200,BKN,1500,BKN,1800,,,MVFR,,,,,,,,,,,,METAR,201.0
EFOU 150120Z AUTO 04006KT 9999 OVC067/// M09/M11 Q0986,EFOU,2019-01-15T01:20:00Z,64.92,25.37,-9.0,-11.0,40,6,,6.21,29.114174,,,TRUE,,,,,,,,OVC,6700,,,,,,,VFR,,,,,,,,,,,,METAR,15.0
EFVA 150120Z AUTO 02008KT 9999 -FZRA OVC011/// M03/M05 Q0984,EFVA,2019-01-15T01:20:00Z,63.03,21.77,-3.0,-5.0,20,8,,6.21,29.055119,,,TRUE,,,,,,,-FZRA,OVC,1100,,,,,,,MVFR,,,,,,,,,,,,METAR,4.0
EFTU 150120Z AUTO 35003KT 320V050 9999 FEW001/// OVC037/// M10/M10 Q0981,EFTU,2019-01-15T01:20:00Z,60.52,22.27,-10.0,-10.0,350,3,,6.21,28.966536,,,TRUE,,,,,,,,FEW,100,OVC,3700,,,,,VFR,,,,,,,,,,,,METAR,59.0
EFTP 150120Z AUTO 30004KT 9999 BKN006 BKN008 M07/M08 Q0981,EFTP,2019-01-15T01:20:00Z,61.42,23.62,-7.0,-8.0,300,4,,6.21,28.966536,,,TRUE,,,,,,,,BKN,600,BKN,800,,,,,IFR,,,,,,,,,,,,METAR,112.0
EFHK 150120Z 27006KT 9999 FEW009 M09/M10 Q0980 NOSIG,EFHK,2019-01-15T01:20:00Z,60.32,24.97,-9.0,-10.0,270,6,,6.21,28.937008,,,,,,TRUE,,,,,FEW,900,,,,,,,VFR,,,,,,,,,,,,METAR,56.0
ESCM 150120Z AUTO 32016KT 9999 VV046 M02/M08 Q0989,ESCM,2019-01-15T01:20:00Z,59.87,17.6,-2.0,-8.0,320,16,,6.21,29.202755,,,TRUE,,,,,,,,OVX,0,,,,,,,LIFR,,,,,,,,,,,4600,METAR,41.0
ESIA 150120Z AUTO 31009KT 280V350 9999 NCD M00/M07 Q0996,ESIA,2019-01-15T01:20:00Z,58.52,14.5,0.0,-7.0,310,9,,6.21,29.409449,,,TRUE,,,,,,,,CLR,,,,,,,,VFR,,,,,,,,,,,,METAR,94.0
ESSL 150120Z AUTO 30019KT 9999 NCD M01/M06 Q0994,ESSL,2019-01-15T01:20:00Z,58.38,15.67,-1.0,-6.0,300,19,,6.21,29.350393,,,TRUE,,,,,,,,CLR,,,,,,,,VFR,,,,,,,,,,,,METAR,52.0
ESPE 150120Z AUTO 32006KT 9999 NCD M12/M14 Q0989,ESPE,2019-01-15T01:20:00Z,65.88,20.15,-12.0,-14.0,320,6,,6.21,29.202755,,,TRUE,,,,,,,,CLR,,,,,,,,VFR,,,,,,,,,,,,METAR,182.0
ESPA 150120Z AUTO 35006KT 9999 NCD M08/M10 Q0989,ESPA,2019-01-15T01:20:00Z,65.53,22.12,-8.0,-10.0,350,6,,6.21,29.202755,,,TRUE,,,,,,,,CLR,,,,,,,,VFR,,,,,,,,,,,,METAR,34.0
ESIB 150120Z AUTO 28009KT 9999 NCD M02/M07 Q1000,ESIB,2019-01-15T01:20:00Z,58.42,12.68,-2.0,-7.0,280,9,,6.21,29.52756,,,TRUE,,,,,,,,CLR,,,,,,,,VFR,,,,,,,,,,,,METAR,74.0
ESDF 150120Z AUTO 30010KT 9999 NCD 00/M06 Q0999,ESDF,2019-01-15T01:20:00Z,56.27,15.27,0.0,-6.0,300,10,,6.21,29.498032,,,TRUE,,,,,,,,CLR,,,,,,,,VFR,,,,,,,,,,,,METAR,74.0
ESCF 150120Z AUTO 30014KT 9999 NCD M01/M06 Q0995,ESCF,2019-01-15T01:20:00Z,58.38,15.52,-1.0,-6.0,300,14,,6.21,29.379921,,,TRUE,,,,,,,,CLR,,,,,,,,VFR,,,,,,,,,,,,METAR,117.0
EGPO 150120Z AUTO 26017KT 9999 SCT007/// OVC010/// 10/09 Q1005,EGPO,2019-01-15T01:20:00Z,58.22,-6.32,10.0,9.0,260,17,,6.21,29.675198,,,TRUE,,,,,,,,SCT,700,OVC,1000,,,,,MVFR,,,,,,,,,,,,METAR,13.0
EGPM 150120Z AUTO 18022KT 5000 -DZ FEW004/// BKN008/// OVC021/// 06/05 Q0996,EGPM,2019-01-15T01:20:00Z,60.42,-1.3,6.0,5.0,180,22,,3.11,29.409449,,,TRUE,,,,,,,-DZ,FEW,400,BKN,800,OVC,2100,,,IFR,,,,,,,,,,,,METAR,22.0
EGPL 150120Z AUTO 25019KT 9999 OVC006/// 10/09 Q1008,EGPL,2019-01-15T01:20:00Z,57.47,-7.37,10.0,9.0,250,19,,6.21,29.763779,,,TRUE,,,,,,,,OVC,600,,,,,,,IFR,,,,,,,,,,,,METAR,6.0
EGPC 150120Z AUTO 25014KT 9999 FEW037/// 09/07 Q1003,EGPC,2019-01-15T01:20:00Z,58.45,-3.07,9.0,7.0,250,14,,6.21,29.616142,,,TRUE,,,,,,,,FEW,3700,,,,,,,VFR,,,,,,,,,,,,METAR,39.0
EGPA 150120Z AUTO 25024KT 9999 BKN010/// OVC017/// ///// Q1002,EGPA,2019-01-15T01:20:00Z,58.95,-2.88,,,250,24,,6.21,29.586615,,,TRUE,,,,,,,,BKN,1000,OVC,1700,,,,,MVFR,,,,,,,,,,,,SPECI,21.0
EGMD 150120Z AUTO 27006KT 9999 NCD 03/00 Q1023,EGMD,2019-01-15T01:20:00Z,50.95,0.92,3.0,0.0,270,6,,6.21,30.206694,,,TRUE,,,,,,,,CLR,,,,,,,,VFR,,,,,,,,,,,,METAR,3.0
ESSV 150120Z AUTO 33028G39KT 9999 BKN048/// 01/M07 Q0989,ESSV,2019-01-15T01:20:00Z,57.67,18.35,1.0,-7.0,330,28,39,6.21,29.202755,,,TRUE,,,,,,,,BKN,4800,,,,,,,VFR,,,,,,,,,,,,METAR,47.0
ESSP 150120Z AUTO 30017KT 9999 NCD M01/M07 Q0993,ESSP,2019-01-15T01:20:00Z,58.57,16.25,-1.0,-7.0,300,17,,6.21,29.320866,,,TRUE,,,,,,,,CLR,,,,,,,,VFR,,,,,,,,,,,,METAR,8.0
ESSD 150120Z AUTO 30018KT 9999 NCD M03/M08 Q0992,ESSD,2019-01-15T01:20:00Z,60.42,15.5,-3.0,-8.0,300,18,,6.21,29.291338,,,TRUE,,,,,,,,CLR,,,,,,,,VFR,,,,,,,,,,,,METAR,161.0
ESSB 150120Z AUTO 31015KT 9999 SG OVC043/// M02/M08 Q0989,ESSB,2019-01-15T01:20:00Z,59.35,17.93,-2.0,-8.0,310,15,,6.21,29.202755,,,TRUE,,,,,,,SG,OVC,4300,,,,,,,VFR,,,,,,,,,,,,METAR,11.0
ESSA 150120Z 32014KT 5000 -SN VV030 M03/M06 Q0989 R01L/520154 R08/N R01R/SNOCLO TEMPO 4800 -SN,ESSA,2019-01-15T01:20:00Z,59.63,17.93,-3.0,-6.0,320,14,,3.11,29.202755,,,,,,,,,,-SN SN,OVX,0,,,,,,,LIFR,,,,,,,,,,,3000,METAR,61.0
ESOW 150120Z AUTO 31014KT 280V340 9999 NCD M02/M10 Q0992,ESOW,2019-01-15T01:20:00Z,59.57,16.62,-2.0,-10.0,310,14,,6.21,29.291338,,,TRUE,,,,,,,,CLR,,,,,,,,VFR,,,,,,,,,,,,METAR,31.0
ESOK 150120Z AUTO 30010KT 9999 NCD M03/M08 Q0997,ESOK,2019-01-15T01:20:00Z,59.45,13.33,-3.0,-8.0,300,10,,6.21,29.438976,,,TRUE,,,,,,,,CLR,,,,,,,,VFR,,,,,,,,,,,,METAR,107.0
ESOE 150120Z AUTO 30013KT 9999 NCD M01/M07 Q0995,ESOE,2019-01-15T01:20:00Z,59.22,15.05,-1.0,-7.0,300,13,,6.21,29.379921,,,TRUE,,,,,,,,CLR,,,,,,,,VFR,,,,,,,,,,,,METAR,57.0
ESKN 150120Z 31016G28KT CAVOK M01/M09 Q0991 R26/09//95,ESKN,2019-01-15T01:20:00Z,58.78,16.9,-1.0,-9.0,310,16,28,6.21,29.26181,,,,,,,,,,,CAVOK,,,,,,,,VFR,,,,,,,,,,,,SPECI,43.0
EGTE 150120Z 23005KT 9999 FEW025 SCT030 07/04 Q1024,EGTE,2019-01-15T01:20:00Z,50.72,-3.42,7.0,4.0,230,5,,6.21,30.236221,,,,,,,,,,,FEW,2500,SCT,3000,,,,,VFR,,,,,,,,,,,,METAR,30.0
EGJJ 150120Z AUTO 30006KT 9999 OVC031/// 08/02 Q1025,EGJJ,2019-01-15T01:20:00Z,49.22,-2.2,8.0,2.0,300,6,,6.21,30.265747,,,TRUE,,,,,,,,OVC,3100,,,,,,,VFR,,,,,,,,,,,,METAR,84.0
EGPB 150120Z AUTO 24027KT 2800 -RA BKN004/// OVC011/// 08/08 Q0998 RERA,EGPB,2019-01-15T01:20:00Z,59.87,-1.3,8.0,8.0,240,27,,1.74,29.468504,,,TRUE,,,,,,,-RA,BKN,400,OVC,1100,,,,,LIFR,,,,,,,,,,,,METAR,5.0
EGNT 150120Z 26015KT 9999 BKN014 08/06 Q1014,EGNT,2019-01-15T01:20:00Z,55.02,-1.7,8.0,6.0,260,15,,6.21,29.940945,,,,,,,,,,,BKN,1400,,,,,,,MVFR,,,,,,,,,,,,METAR,81.0
EGGP 150120Z 25008KT 9999 BKN034 08/05 Q1020,EGGP,2019-01-15T01:20:00Z,53.32,-2.85,8.0,5.0,250,8,,6.21,30.11811,,,,,,,,,,,BKN,3400,,,,,,,VFR,,,,,,,,,,,,METAR,26.0
EGGD 150120Z AUTO 25009KT 9999 OVC021 06/05 Q1023,EGGD,2019-01-15T01:20:00Z,51.37,-2.72,6.0,5.0,250,9,,6.21,30.206694,,,TRUE,,,,,,,,OVC,2100,,,,,,,MVFR,,,,,,,,,,,,METAR,189.0
EGPD 150120Z AUTO 20007KT 9999 NCD 07/04 Q1007,EGPD,2019-01-15T01:20:00Z,57.2,-2.22,7.0,4.0,200,7,,6.21,29.734253,,,TRUE,,,,,,,,CLR,,,,,,,,VFR,,,,,,,,,,,,METAR,65.0
EGNX 150120Z 23011KT 9999 BKN036 04/02 Q1020,EGNX,2019-01-15T01:20:00Z,52.82,-1.32,4.0,2.0,230,11,,6.21,30.11811,,,,,,,,,,,BKN,3600,,,,,,,VFR,,,,,,,,,,,,METAR,94.0
EGNM 150120Z 25019KT 9999 BKN008 07/06 Q1016,EGNM,2019-01-15T01:20:00Z,53.87,-1.63,7.0,6.0,250,19,,6.21,30.0,,,,,,,,,,,BKN,800,,,,,,,IFR,,,,,,,,,,,,METAR,208.0
EGLC 150120Z AUTO 22005KT 9999 NCD 05/02 Q1023,EGLC,2019-01-15T01:20:00Z,51.5,0.05,5.0,2.0,220,5,,6.21,30.206694,,,TRUE,,,,,,,,CLR,,,,,,,,VFR,,,,,,,,,,,,METAR,5.0
EGGW 150120Z AUTO 26009KT 9999 NCD 03/01 Q1021,EGGW,2019-01-15T01:20:00Z,51.87,-0.37,3.0,1.0,260,9,,6.21,30.147638,,,TRUE,,,,,,,,CLR,,,,,,,,VFR,,,,,,,,,,,,METAR,160.0
EGFF 150120Z AUTO 28009KT 9999 BKN019 OVC023 08/06 Q1023,EGFF,2019-01-15T01:20:00Z,51.38,-3.35,8.0,6.0,280,9,,6.21,30.206694,,,TRUE,,,,,,,,BKN,1900,OVC,2300,,,,,MVFR,,,,,,,,,,,,METAR,67.0
EGAC 150120Z AUTO 23012KT 9999 NCD 08/07 Q1017,EGAC,2019-01-15T01:20:00Z,54.62,-5.87,8.0,7.0,230,12,,6.21,30.029528,,,TRUE,,,,,,,,CLR,,,,,,,,VFR,,,,,,,,,,,,METAR,5.0
EGAA 150120Z 21011KT 9999 FEW020 07/06 Q1017,EGAA,2019-01-15T01:20:00Z,54.63,-6.22,7.0,6.0,210,11,,6.21,30.029528,,,,,,,,,,,FEW,2000,,,,,,,VFR,,,,,,,,,,,,METAR,81.0
EGSH 150120Z AUTO 24009KT 9999 FEW046/// 03/03 Q1019,EGSH,2019-01-15T01:20:00Z,52.68,1.28,3.0,3.0,240,9,,6.21,30.088583,,,TRUE,,,,,,,,FEW,4600,,,,,,,VFR,,,,,,,,,,,,METAR,36.0
EGCN 150120Z 23010KT 9999 SCT032 06/04 Q1019,EGCN,2019-01-15T01:20:00Z,53.48,-1.0,6.0,4.0,230,10,,6.21,30.088583,,,,,,,,,,,SCT,3200,,,,,,,VFR,,,,,,,,,,,,METAR,17.0
EGCK 150120Z AUTO 23014KT 9999 OVC024/// 09/07 Q1021,EGCK,2019-01-15T01:20:00Z,53.1,4.33,9.0,7.0,230,14,,6.21,30.147638,,,TRUE,,,,,,,,OVC,2400,,,,,,,MVFR,,,,,,,,,,,,METAR,0.0
EGLL 150120Z AUTO 27008KT 9999 NCD 03/01 Q1023 NOSIG,EGLL,2019-01-15T01:20:00Z,51.48,-0.45,3.0,1.0,270,8,,6.21,30.206694,,,TRUE,,,TRUE,,,,,CLR,,,,,,,,VFR,,,,,,,,,,,,METAR,24.0
EGCC 150120Z AUTO 20006KT 160V230 5000 -DZ SCT012 BKN016 BKN021 06/03 Q1020 NOSIG,EGCC,2019-01-15T01:20:00Z,53.35,-2.27,6.0,3.0,200,6,,3.11,30.11811,,,TRUE,,,TRUE,,,,-DZ,SCT,1200,BKN,1600,BKN,2100,,,MVFR,,,,,,,,,,,,METAR,78.0
EGSS 150120Z AUTO 23005KT 9999 NCD 01/M00 Q1021,EGSS,2019-01-15T01:20:00Z,51.88,0.22,1.0,0.0,230,5,,6.21,30.147638,,,TRUE,,,,,,,,CLR,,,,,,,,VFR,,,,,,,,,,,,METAR,106.0
ESNO 150120Z AUTO 33012KT 9999 NCD M06/M10 Q0988,ESNO,2019-01-15T01:20:00Z,63.38,18.97,-6.0,-10.0,330,12,,6.21,29.17323,,,TRUE,,,,,,,,CLR,,,,,,,,VFR,,,,,,,,,,,,METAR,103.0
ESNN 150120Z AUTO 32013KT 9999 NCD M03/M11 Q0990,ESNN,2019-01-15T01:20:00Z,62.52,17.43,-3.0,-11.0,320,13,,6.21,29.232283,,,TRUE,,,,,,,,CLR,,,,,,,,VFR,,,,,,,,,,,,METAR,10.0
ESNK 150120Z AUTO 33013KT 9999 FEW082/// M05/M11 Q0990,ESNK,2019-01-15T01:20:00Z,63.03,17.77,-5.0,-11.0,330,13,,6.21,29.232283,,,TRUE,,,,,,,,FEW,8200,,,,,,,VFR,,,,,,,,,,,,METAR,19.0
ESNG 150120Z AUTO 32008KT 9999 FEW013/// M13/M15 Q0988,ESNG,2019-01-15T01:20:00Z,67.13,20.82,-13.0,-15.0,320,8,,6.21,29.17323,,,TRUE,,,,,,,,FEW,1300,,,,,,,VFR,,,,,,,,,,,,METAR,310.0
ESND 150120Z AUTO 26005KT 9999 NCD M12/M13 Q0993,ESND,2019-01-15T01:20:00Z,62.05,14.42,-12.0,-13.0,260,5,,6.21,29.320866,,,TRUE,,,,,,,,CLR,,,,,,,,VFR,,,,,,,,,,,,METAR,359.0
ESUP 150120Z AUTO 20002KT 9999 FEW009/// SCT034/// BKN040/// M20/M22 Q0989,ESUP,2019-01-15T01:20:00Z,67.25,23.07,-20.0,-22.0,200,2,,6.21,29.202755,,,TRUE,,,,,,,,FEW,900,SCT,3400,BKN,4000,,,VFR,,,,,,,,,,,,METAR,165.0
ESST 150120Z AUTO 29008KT 9999 NCD M05/M09 Q0997,ESST,2019-01-15T01:20:00Z,60.15,12.98,-5.0,-9.0,290,8,,6.21,29.438976,,,TRUE,,,,,,,,CLR,,,,,,,,VFR,,,,,,,,,,,,METAR,120.0
ESNV 150120Z AUTO 28005KT 9999 OVC031/// M11/M13 Q0990,ESNV,2019-01-15T01:20:00Z,64.58,16.83,-11.0,-13.0,280,5,,6.21,29.232283,,,TRUE,,,,,,,,OVC,3100,,,,,,,VFR,,,,,,,,,,,,METAR,348.0
ESKM 150120Z AUTO 31010KT 9999 NCD M03/M08 Q0994,ESKM,2019-01-15T01:20:00Z,60.97,14.52,-3.0,-8.0,310,10,,6.21,29.350393,,,TRUE,,,,,,,,CLR,,,,,,,,VFR,,,,,,,,,,,,METAR,193.0
ESGR 150120Z AUTO 30009KT 9999 NCD M00/M08 Q0998,ESGR,2019-01-15T01:20:00Z,58.45,13.97,0.0,-8.0,300,9,,6.21,29.468504,,,TRUE,,,,,,,,CLR,,,,,,,,VFR,,,,,,,,,,,,METAR,105.0
ESNZ 150120Z AUTO 32009KT 9999 R12/P1500N R30///// FEW049/// SCT059/// M05/M07 Q0992,ESNZ,2019-01-15T01:20:00Z,63.17,14.5,-5.0,-7.0,320,9,,6.21,29.291338,,,TRUE,,,,,,,,FEW,4900,SCT,5900,,,,,VFR,,,,,,,,,,,,METAR,370.0
ESNU 150120Z 33011KT 9999 SG BKN045 M05/M07 Q0988 R14/75//30,ESNU,2019-01-15T01:20:00Z,63.78,20.27,-5.0,-7.0,330,11,,6.21,29.17323,,,,,,,,,,SG,BKN,4500,,,,,,,VFR,,,,,,,,,,,,SPECI,14.0
ESNS 150120Z AUTO 33007KT 9999 -SN BKN014/// OVC062/// M07/M09 Q0988,ESNS,2019-01-15T01:20:00Z,64.62,21.07,-7.0,-9.0,330,7,,6.21,29.17323,,,TRUE,,,,,,,-SN,BKN,1400,OVC,6200,,,,,MVFR,,,,,,,,,,,,METAR,49.0
ESNQ 150120Z AUTO 24003KT 9999 -SN FEW017/// BKN025/// OVC061/// M16/M18 Q0987,ESNQ,2019-01-15T01:20:00Z,67.82,20.32,-16.0,-18.0,240,3,,6.21,29.143702,,,TRUE,,,,,,,-SN,FEW,1700,BKN,2500,OVC,6100,,,MVFR,,,,,,,,,,,,METAR,452.0
KGCK 150119Z 20007KT 3SM BR OVC002 00/00 A3022 RMK AO2 T00000000,KGCK,2019-01-15T01:19:00Z,37.92,-100.72,0.0,0.0,200,7,,3.0,30.221457,,,,TRUE,,,,,,BR,OVC,200,,,,,,,LIFR,,,,,,,,,,,,METAR,877.0
KAMN 150118Z AUTO 21005KT 10SM OVC019 M01/M04 A3021 RMK AO2,KAMN,2019-01-15T01:18:00Z,43.32,-84.68,-1.0,-4.0,210,5,,10.0,30.209646,,,TRUE,TRUE,,,,,,,OVC,1900,,,,,,,MVFR,,,,,,,,,,,,SPECI,230.0
CYQV 150118Z AUTO 23008KT 9SM SCT010 BKN130 OVC180 M04/M06 A2993 RMK SLP174,CYQV,2019-01-15T01:18:00Z,51.27,-102.47,-4.0,-6.0,230,8,,9.0,29.929134,1017.4,,TRUE,,,,,,,,SCT,1000,BKN,13000,OVC,18000,,,VFR,,,,,,,,,,,,SPECI,498.0
KSDM 150118Z 13007KT 10SM -RA FEW016 BKN039 OVC050 13/12 A2996 RMK AO2 P0001 T01280117,KSDM,2019-01-15T01:18:00Z,32.58,-117.0,12.8,11.7,130,7,,10.0,29.958662,,,,TRUE,,,,,,-RA,FEW,1600,BKN,3900,OVC,5000,,,VFR,,,,,,0.01,,,,,,METAR,159.0
KARB 150118Z AUTO 22004KT 10SM BKN025 M06/M07 A3023 RMK AO2 T10561072,KARB,2019-01-15T01:18:00Z,42.22,-83.73,-5.6,-7.2,220,4,,10.0,30.230314,,,TRUE,TRUE,,,,,,,BKN,2500,,,,,,,MVFR,,,,,,,,,,,,METAR,251.0
KABR 150118Z AUTO 00000KT 1 3/4SM BR OVC003 M06/M07 A3024 RMK AO2 VIS 1V3 T10611067,KABR,2019-01-15T01:18:00Z,45.45,-98.42,-6.1,-6.7,0,0,,1.75,30.239174,,,TRUE,TRUE,,,,,,BR,OVC,300,,,,,,,LIFR,,,,,,,,,,,,METAR,397.0
KDHN 150118Z 27005KT 10SM BKN030 06/02 A3028 RMK AO2 T00610022,KDHN,2019-01-15T01:18:00Z,31.32,-85.45,6.1,2.2,270,5,,10.0,30.280512,,,,TRUE,,,,,,,BKN,3000,,,,,,,MVFR,,,,,,,,,,,,METAR,113.0
PTKK 150118Z VRB04KT 4SM +SHRA BKN010CB OVC110 26/24 A2972 RMK CB ALQDS,PTKK,2019-01-15T01:18:00Z,7.47,151.85,26.0,24.0,0,4,,4.0,29.719488,,,,,,,,,,+SHRA,BKN,1000,OVC,11000,,,,,MVFR,,,,,,,,,,,,SPECI,2.0
KLOR 150118Z AUTO 00000KT 10SM OVC030 06/04 A3027 RMK AO2 SLP235,KLOR,2019-01-15T01:18:00Z,31.35,-85.75,6.0,4.0,0,0,,10.0,30.268702,1023.5,,TRUE,TRUE,,,,,,,OVC,3000,,,,,,,MVFR,,,,,,,,,,,,SPECI,74.0
KFME 150118Z AUTO 00000KT 10SM CLR M06/M08 A3022 RMK AO1,KFME,2019-01-15T01:18:00Z,39.08,-76.77,-6.0,-8.0,0,0,,10.0,30.221457,,,TRUE,TRUE,,,,,,,CLR,,,,,,,,VFR,,,,,,,,,,,,SPECI,46.0
CYNE 150117Z AUTO 13006KT 1 1/2SM -SN OVC021 M16/M17 A2998 RMK PRESFR SLP179,CYNE,2019-01-15T01:17:00Z,53.97,-97.82,-16.0,-17.0,130,6,,1.5,29.97933,1017.9,,TRUE,,,,,,,-SN,OVC,2100,,,,,,,IFR,,,,,,,,,,,,SPECI,223.0
KINS 150117Z AUTO 13017G24KT 10SM -RA BKN032 BKN080 08/03 A3000 RMK AO2 RAB02 SLP154 $,KINS,2019-01-15T01:17:00Z,36.58,-115.67,8.0,3.0,130,17,24,10.0,30.0,1015.4,,TRUE,TRUE,TRUE,,,,,-RA,BKN,3200,BKN,8000,,,,,VFR,,,,,,,,,,,,SPECI,955.0
KMSN 150117Z VRB03KT 6SM BR SCT009 OVC020 M04/M07 A3023 RMK AO2 T10441067,KMSN,2019-01-15T01:17:00Z,43.13,-89.35,-4.4,-6.7,0,3,,6.0,30.230314,,,,TRUE,,,,,,BR,SCT,900,OVC,2000,,,,,MVFR,,,,,,,,,,,,SPECI,261.0
KPSP 150117Z 00000KT 6SM -RA BR FEW008 FEW033 OVC065 11/09 A3006 RMK AO2 P0002 T01110094,KPSP,2019-01-15T01:17:00Z,33.82,-116.5,11.1,9.4,0,0,,6.0,30.059055,,,,TRUE,,,,,,-RA BR,FEW,800,FEW,3300,OVC,6500,,,VFR,,,,,,0.02,,,,,,SPECI,135.0
KCSV 150117Z AUTO 34007KT 10SM OVC004 M01/M03 A3024 RMK AO2 CIG 003V007 T10111028,KCSV,2019-01-15T01:17:00Z,35.95,-85.08,-1.1,-2.8,340,7,,10.0,30.239174,,,TRUE,TRUE,,,,,,,OVC,400,,,,,,,LIFR,,,,,,,,,,,,SPECI,570.0
PADQ 150117Z 10016KT 3SM -RA BR SCT006 BKN011 OVC017 05/04 A2975 RMK AO2 P0004 T00500044,PADQ,2019-01-15T01:17:00Z,57.75,-152.5,5.0,4.4,100,16,,3.0,29.749016,,,,TRUE,,,,,,-RA BR,SCT,600,BKN,1100,OVC,1700,,,MVFR,,,,,,0.04,,,,,,SPECI,34.0
KJES 150117Z AUTO 34003KT 10SM OVC015 10/06 A3023 RMK AO2,KJES,2019-01-15T01:17:00Z,31.55,-81.88,10.0,6.0,340,3,,10.0,30.230314,,,TRUE,TRUE,,,,,,,OVC,1500,,,,,,,MVFR,,,,,,,,,,,,METAR,33.0
KGUS 150117Z 27005KT 1/2SM R23/P6000FT FZFG OVC001 M07/M07 A3029 RMK AO2A TWR VIS 0 SLP277 $,KGUS,2019-01-15T01:17:00Z,40.63,-86.15,-7.0,-7.0,270,5,,0.5,30.28937,1027.7,,,TRUE,TRUE,,,,,FZFG,OVC,100,,,,,,,LIFR,,,,,,,,,,,,METAR,247.0
K40B 150116Z AUTO VRB02KT M12/M14 A3001 RMK AO1 SLP201 T11161143 58012 P0003,K40B,2019-01-15T01:16:00Z,46.62,-69.52,-11.6,-14.3,0,2,,,30.008858,1020.1,,TRUE,TRUE,,,,,,,,,,,,,,,,-1.2,,,,,0.03,,,,,,SPECI,314.0
KLVN 150116Z AUTO 28004KT 10SM M02/M03 A3023 RMK AO2,KLVN,2019-01-15T01:16:00Z,44.63,-93.23,-2.0,-3.0,280,4,,10.0,30.230314,,,TRUE,TRUE,,,,,,,,,,,,,,,,,,,,,,,,,,,SPECI,293.0
PAPO 150116Z AUTO 10011KT 10SM SCT026 M06/M07 A2987 RMK AO2 FZRANO,PAPO,2019-01-15T01:16:00Z,68.35,-166.8,-6.0,-7.0,100,11,,10.0,29.870079,,,TRUE,TRUE,,,,TRUE,,,SCT,2600,,,,,,,VFR,,,,,,,,,,,,SPECI,6.0
KFLG 150116Z 05004KT 1/2SM FZFG VV002 M01/M01 A3018 RMK AO2 T10061011,KFLG,2019-01-15T01:16:00Z,35.13,-111.67,-0.6,-1.1,50,4,,0.5,30.180119,,,,TRUE,,,,,,FZFG,OVX,0,,,,,,,LIFR,,,,,,,,,,,200,SPECI,2134.0
PHHI 150116Z AUTO 35007KT 10SM BKN032 OVC038 23/18 A2999 RMK AO2 SLP150 $,PHHI,2019-01-15T01:16:00Z,21.48,-158.05,23.0,18.0,350,7,,10.0,29.991142,1015.0,,TRUE,TRUE,TRUE,,,,,,BKN,3200,OVC,3800,,,,,VFR,,,,,,,,,,,,SPECI,255.0
KXNO 150116Z AUTO 12003KT 10SM OVC015 06/06 A3022 RMK AO2 SLP238 $,KXNO,2019-01-15T01:16:00Z,33.62,-81.07,6.0,6.0,120,3,,10.0,30.221457,1023.8,,TRUE,TRUE,TRUE,,,,,,OVC,1500,,,,,,,MVFR,,,,,,,,,,,,SPECI,98.0
KELY 150116Z AUTO 36006KT 10SM BKN005 M06/M07 A3012 RMK AO2 T10611072,KELY,2019-01-15T01:16:00Z,39.3,-114.85,-6.1,-7.2,360,6,,10.0,30.121063,,,TRUE,TRUE,,,,,,,BKN,500,,,,,,,IFR,,,,,,,,,,,,SPECI,1906.0
KSFY 150116Z AUTO 28004KT 7SM OVC010 M03/M05 A3030 RMK AO2,KSFY,2019-01-15T01:16:00Z,42.05,-90.12,-3.0,-5.0,280,4,,7.0,30.301182,,,TRUE,TRUE,,,,,,,OVC,1000,,,,,,,MVFR,,,,,,,,,,,,SPECI,188.0
KCUL 150116Z AUTO 26004KT 10SM OVC029 M01/M02 A3035 RMK AO2,KCUL,2019-01-15T01:16:00Z,38.08,-88.12,-1.0,-2.0,260,4,,10.0,30.351377,,,TRUE,TRUE,,,,,,,OVC,2900,,,,,,,MVFR,,,,,,,,,,,,SPECI,118.0
KHZR 150116Z AUTO 01010KT 10SM OVC019 05/01 A3040 RMK AO2,KHZR,2019-01-15T01:16:00Z,30.72,-91.48,5.0,1.0,10,10,,10.0,30.398623,,,TRUE,TRUE,,,,,,,OVC,1900,,,,,,,MVFR,,,,,,,,,,,,METAR,12.0
K21D 150116Z AUTO 00000KT 10SM M01/M01 A3023 RMK AO2,K21D,2019-01-15T01:16:00Z,45.0,-92.85,-1.0,-1.0,0,0,,10.0,30.230314,,,TRUE,TRUE,,,,,,,,,,,,,,,,,,,,,,,,,,,SPECI,285.0
KTDF 150115Z AUTO 00000KT 10SM OVC080 01/00 A3022 RMK AO2,KTDF,2019-01-15T01:15:00Z,36.28,-78.98,1.0,0.0,0,0,,10.0,30.221457,,,TRUE,TRUE,,,,,,,OVC,8000,,,,,,,VFR,,,,,,,,,,,,METAR,186.0
KECS 150115Z AUTO 00000KT 10SM CLR M02/M08 A3013 RMK AO2,KECS,2019-01-15T01:15:00Z,43.88,-104.32,-2.0,-8.0,0,0,,10.0,30.129921,,,TRUE,TRUE,,,,,,,CLR,,,,,,,,VFR,,,,,,,,,,,,METAR,1273.0
KJKL 150115Z AUTO 30003KT 7SM SCT003 BKN016 OVC022 M01/M02 A3026 RMK AO2 T10111017,KJKL,2019-01-15T01:15:00Z,37.6,-83.32,-1.1,-1.7,300,3,,7.0,30.259842,,,TRUE,TRUE,,,,,,,SCT,300,BKN,1600,OVC,2200,,,MVFR,,,,,,,,,,,,SPECI,416.0
LHPR 150115Z AUTO 28010KT CAVOK M02/M06 Q1013 RMK BLU,LHPR,2019-01-15T01:15:00Z,47.63,17.82,-2.0,-6.0,280,10,,6.21,29.911417,,,TRUE,,,,,,,,CAVOK,,,,,,,,VFR,,,,,,,,,,,,METAR,129.0
LHPA 150115Z 32010KT CAVOK M01/M07 Q1013 NOSIG RMK BLU,LHPA,2019-01-15T01:15:00Z,47.35,17.5,-1.0,-7.0,320,10,,6.21,29.911417,,,,,,TRUE,,,,,CAVOK,,,,,,,,VFR,,,,,,,,,,,,METAR,148.0
K4S2 150115Z AUTO 07003KT 10SM OVC018 00/M02 A3022 RMK AO2,K4S2,2019-01-15T01:15:00Z,45.68,-121.55,0.0,-2.0,70,3,,10.0,30.221457,,,TRUE,TRUE,,,,,,,OVC,1800,,,,,,,MVFR,,,,,,,,,,,,METAR,192.0
KMNZ 150115Z AUTO 11003KT 10SM OVC048 07/02 A3037 RMK AO2 T00680023,KMNZ,2019-01-15T01:15:00Z,31.67,-98.15,6.8,2.3,110,3,,10.0,30.369095,,,TRUE,TRUE,,,,,,,OVC,4800,,,,,,,VFR,,,,,,,,,,,,METAR,396.0
OAHR 150115Z VRB02KT CAVOK 08/00 Q1017 RMK A3004 BLU,OAHR,2019-01-15T01:15:00Z,34.22,62.22,8.0,0.0,0,2,,6.21,30.029528,,,,,,,,,,,CAVOK,,,,,,,,VFR,,,,,,,,,,,,SPECI,964.0
KFVX 150115Z AUTO 00000KT 7SM SCT043 OVC080 00/00 A3020 RMK AO2 T00001001,KFVX,2019-01-15T01:15:00Z,37.35,-78.42,0.0,-0.1,0,0,,7.0,30.200787,,,TRUE,TRUE,,,,,,,SCT,4300,OVC,8000,,,,,VFR,,,,,,,,,,,,SPECI,125.0
KT82 150115Z AUTO 00000KT 10SM OVC038 07/02 A3035 RMK AO2 T00680018,KT82,2019-01-15T01:15:00Z,30.25,-98.92,6.8,1.8,0,0,,10.0,30.351377,,,TRUE,TRUE,,,,,,,OVC,3800,,,,,,,VFR,,,,,,,,,,,,SPECI,517.0
KT35 150115Z AUTO 03003KT 10SM CLR 05/02 A3040 RMK AO2 T00480018,KT35,2019-01-15T01:15:00Z,30.88,-96.97,4.8,1.8,30,3,,10.0,30.398623,,,TRUE,TRUE,,,,,,,CLR,,,,,,,,VFR,,,,,,,,,,,,SPECI,123.0
KSME 150115Z AUTO 33003KT 10SM OVC016 00/00 A3031 RMK AO2,KSME,2019-01-15T01:15:00Z,37.05,-84.62,0.0,0.0,330,3,,10.0,30.31004,,,TRUE,TRUE,,,,,,,OVC,1600,,,,,,,MVFR,,,,,,,,,,,,METAR,283.0
KSHD 150115Z AUTO 00000KT 10SM OVC026 M01/M04 A3019 RMK AO2 T10151045,KSHD,2019-01-15T01:15:00Z,38.27,-78.9,-1.5,-4.5,0,0,,10.0,30.188976,,,TRUE,TRUE,,,,,,,OVC,2600,,,,,,,MVFR,,,,,,,,,,,,METAR,366.0
KSBO 150115Z AUTO 00000KT 10SM OVC036 08/07 A3022 RMK AO2,KSBO,2019-01-15T01:15:00Z,32.62,-82.37,8.0,7.0,0,0,,10.0,30.221457,,,TRUE,TRUE,,,,,,,OVC,3600,,,,,,,VFR,,,,,,,,,,,,METAR,100.0
KSAA 150115Z AUTO 00000KT 10SM CLR M16/M18 A3024 RMK AO2,KSAA,2019-01-15T01:15:00Z,41.45,-106.83,-16.0,-18.0,0,0,,10.0,30.239174,,,TRUE,TRUE,,,,,,,CLR,,,,,,,,VFR,,,,,,,,,,,,SPECI,2138.0
KRZN 150115Z AUTO 32003KT 10SM CLR M04/M05 A3022 RMK AO2 T10421052,KRZN,2019-01-15T01:15:00Z,45.82,-92.37,-4.2,-5.2,320,3,,10.0,30.221457,,,TRUE,TRUE,,,,,,,CLR,,,,,,,,VFR,,,,,,,,,,,,SPECI,301.0
KREG 150115Z AUTO 03004KT 10SM OVC019 06/02 A3036 RMK AO2 T00600020,KREG,2019-01-15T01:15:00Z,30.17,-90.93,6.0,2.0,30,4,,10.0,30.360237,,,TRUE,TRUE,,,,,,,OVC,1900,,,,,,,MVFR,,,,,,,,,,,,METAR,4.0
KRCR 150115Z AUTO 25007KT 7SM OVC006 M04/M06 A3030 RMK AO2,KRCR,2019-01-15T01:15:00Z,41.07,-86.18,-4.0,-6.0,250,7,,7.0,30.301182,,,TRUE,TRUE,,,,,,,OVC,600,,,,,,,IFR,,,,,,,,,,,,SPECI,241.0
KPXE 150115Z AUTO 34009G16KT 10SM OVC029 08/03 A3022 RMK AO2 T00810026,KPXE,2019-01-15T01:15:00Z,32.52,-83.77,8.1,2.6,340,9,16,10.0,30.221457,,,TRUE,TRUE,,,,,,,OVC,2900,,,,,,,MVFR,,,,,,,,,,,,METAR,127.0
KPVF 150115Z AUTO 00000KT 10SM SCT029 BKN036 OVC048 08/00 A2992 RMK AO1,KPVF,2019-01-15T01:15:00Z,38.72,-120.75,8.0,0.0,0,0,,10.0,29.920275,,,TRUE,TRUE,,,,,,,SCT,2900,BKN,3600,OVC,4800,,,VFR,,,,,,,,,,,,SPECI,789.0
KDCY 150115Z AUTO 00000KT 10SM SCT026 M01/M05 A3034 RMK AO2 T10131048,KDCY,2019-01-15T01:15:00Z,38.7,-87.13,-1.3,-4.8,0,0,,10.0,30.339567,,,TRUE,TRUE,,,,,,,SCT,2600,,,,,,,VFR,,,,,,,,,,,,SPECI,144.0
KDBN 150115Z AUTO 00000KT 10SM SCT028 OVC032 07/06 A3023 RMK AO2,KDBN,2019-01-15T01:15:00Z,32.57,-82.98,7.0,6.0,0,0,,10.0,30.230314,,,TRUE,TRUE,,,,,,,SCT,2800,OVC,3200,,,,,VFR,,,,,,,,,,,,METAR,94.0
KD73 150115Z AUTO 31006KT 10SM OVC033 06/02 A3021 RMK AO2 T00590022,KD73,2019-01-15T01:15:00Z,33.78,-83.7,5.9,2.2,310,6,,10.0,30.209646,,,TRUE,TRUE,,,,,,,OVC,3300,,,,,,,VFR,,,,,,,,,,,,METAR,267.0
KCWV 150115Z AUTO 00000KT 10SM SCT017 OVC034 09/07 A3022 RMK AO2 T00910068,KCWV,2019-01-15T01:15:00Z,32.2,-81.87,9.1,6.8,0,0,,10.0,30.221457,,,TRUE,TRUE,,,,,,,SCT,1700,OVC,3400,,,,,VFR,,,,,,,,,,,,METAR,33.0
KCVC 150115Z AUTO 31006KT 10SM OVC034 07/02 A3020 RMK AO2 PNO,KCVC,2019-01-15T01:15:00Z,33.63,-83.85,7.0,2.0,310,6,,10.0,30.200787,,,TRUE,TRUE,,,,,,,OVC,3400,,,,,,,VFR,,,,,,,,,,,,METAR,247.0
KCQB 150115Z AUTO 13005KT 7SM CLR 01/M01 A3035 RMK AO2 T00141007,KCQB,2019-01-15T01:15:00Z,35.72,-96.82,1.4,-0.7,130,5,,7.0,30.351377,,,TRUE,TRUE,,,,,,,CLR,,,,,,,,VFR,,,,,,,,,,,,METAR,300.0
KCKF 150115Z AUTO 27004KT 10SM OVC032 08/04 A3025 RMK AO2 T00750041,KCKF,2019-01-15T01:15:00Z,31.98,-83.77,7.5,4.1,270,4,,10.0,30.250984,,,TRUE,TRUE,,,,,,,OVC,3200,,,,,,,VFR,,,,,,,,,,,,METAR,91.0
KCCO 150115Z AUTO 34006KT OVC020 07/02 A3023 RMK AO2 T00650016 PWINO,KCCO,2019-01-15T01:15:00Z,33.32,-84.77,6.5,1.6,340,6,,,30.230314,,,TRUE,TRUE,,,,,TRUE,,OVC,2000,,,,,,,,,,,,,,,,,,,METAR,296.0
KC75 150115Z AUTO 26006KT 7SM OVC010 M03/M04 A3031 RMK AO2 T10271045,KC75,2019-01-15T01:15:00Z,41.02,-89.38,-2.7,-4.5,260,6,,7.0,30.31004,,,TRUE,TRUE,,,,,,,OVC,1000,,,,,,,MVFR,,,,,,,,,,,,SPECI,173.0
KBKD 150115Z AUTO 00000KT 10SM OVC044 07/02 A3035 RMK AO2 T00720020,KBKD,2019-01-15T01:15:00Z,32.72,-98.88,7.2,2.0,0,0,,10.0,30.351377,,,TRUE,TRUE,,,,,,,OVC,4400,,,,,,,VFR,,,,,,,,,,,,SPECI,392.0
KBHC 150115Z AUTO 00000KT 10SM OVC020 07/07 A3022 RMK AO2,KBHC,2019-01-15T01:15:00Z,31.72,-82.4,7.0,7.0,0,0,,10.0,30.221457,,,TRUE,TRUE,,,,,,,OVC,2000,,,,,,,MVFR,,,,,,,,,,,,METAR,61.0
KBDG 150115Z AUTO 00000KT 10SM 01/M01 A3032 RMK AO1 T00071012,KBDG,2019-01-15T01:15:00Z,37.58,-109.47,0.7,-1.2,0,0,,10.0,30.318897,,,TRUE,TRUE,,,,,,,,,,,,,,,,,,,,,,,,,,,SPECI,1788.0
KAPS 150115Z AUTO 04005KT 10SM OVC019 07/03 A3036 RMK AO2 T00700025,KAPS,2019-01-15T01:15:00Z,30.08,-90.58,7.0,2.5,40,5,,10.0,30.360237,,,TRUE,TRUE,,,,,,,OVC,1900,,,,,,,MVFR,,,,,,,,,,,,METAR,2.0
KAFO 150115Z AUTO 00000KT 10SM CLR M18/M20 A3021 RMK AO2,KAFO,2019-01-15T01:15:00Z,42.72,-110.95,-18.0,-20.0,0,0,,10.0,30.209646,,,TRUE,TRUE,,,,,,,CLR,,,,,,,,VFR,,,,,,,,,,,,SPECI,1897.0
KACP 150115Z AUTO 02005KT 10SM OVC019 06/01 A3041 RMK AO2 T00570013,KACP,2019-01-15T01:15:00Z,30.75,-92.68,5.7,1.3,20,5,,10.0,30.410433,,,TRUE,TRUE,,,,,,,OVC,1900,,,,,,,MVFR,,,,,,,,,,,,METAR,33.0
KAAA 150115Z AUTO 00000KT 7SM OVC010 M03/M04 A3032 RMK AO2 T10291037,KAAA,2019-01-15T01:15:00Z,40.17,-89.33,-2.9,-3.7,0,0,,7.0,30.318897,,,TRUE,TRUE,,,,,,,OVC,1000,,,,,,,MVFR,,,,,,,,,,,,SPECI,182.0
KA08 150115Z AUTO 34008KT 10SM OVC015 05/02 A3032 RMK AO2 T00450022,KA08,2019-01-15T01:15:00Z,32.52,-87.38,4.5,2.2,340,8,,10.0,30.318897,,,TRUE,TRUE,,,,,,,OVC,1500,,,,,,,MVFR,,,,,,,,,,,,METAR,69.0
K9A5 150115Z AUTO 00000KT 10SM OVC024 03/M01 A3029 RMK AO2 T00321007,K9A5,2019-01-15T01:15:00Z,34.68,-85.28,3.2,-0.7,0,0,,10.0,30.28937,,,TRUE,TRUE,,,,,,,OVC,2400,,,,,,,MVFR,,,,,,,,,,,,METAR,237.0
K6P9 150115Z AUTO 19003KT 10SM OVC044 07/02 A3034 RMK AO2 T00650018,K6P9,2019-01-15T01:15:00Z,32.43,-98.6,6.5,1.8,190,3,,10.0,30.339567,,,TRUE,TRUE,,,,,,,OVC,4400,,,,,,,VFR,,,,,,,,,,,,SPECI,449.0
K6B0 150115Z AUTO 00000KT 10SM CLR M12/M14 A3015 RMK AO2 T11221136,K6B0,2019-01-15T01:15:00Z,43.98,-73.1,-12.2,-13.6,0,0,,10.0,30.15059,,,TRUE,TRUE,,,,,,,CLR,,,,,,,,VFR,,,,,,,,,,,,SPECI,149.0
K66R 150115Z AUTO 00000KT 10SM OVC065 09/03 A3040 RMK AO2 T00910026,K66R,2019-01-15T01:15:00Z,29.65,-96.52,9.1,2.6,0,0,,10.0,30.398623,,,TRUE,TRUE,,,,,,,OVC,6500,,,,,,,VFR,,,,,,,,,,,,SPECI,74.0
K5C1 150115Z AUTO 00000KT 10SM BKN034 OVC040 06/02 A3037 RMK AO1,K5C1,2019-01-15T01:15:00Z,29.72,-98.7,6.0,2.0,0,0,,10.0,30.369095,,,TRUE,TRUE,,,,,,,BKN,3400,OVC,4000,,,,,VFR,,,,,,,,,,,,SPECI,423.0
K5A6 150115Z AUTO 00000KT 10SM OVC016 04/01 A3037 RMK AO2 T00370008,K5A6,2019-01-15T01:15:00Z,33.47,-89.73,3.7,0.8,0,0,,10.0,30.369095,,,TRUE,TRUE,,,,,,,OVC,1600,,,,,,,MVFR,,,,,,,,,,,,METAR,111.0
K49A 150115Z AUTO 32003KT 10SM OVC016 03/01 A3025 RMK AO2 T00300005,K49A,2019-01-15T01:15:00Z,34.63,-84.53,3.0,0.5,320,3,,10.0,30.250984,,,TRUE,TRUE,,,,,,,OVC,1600,,,,,,,MVFR,,,,,,,,,,,,METAR,453.0
K3K3 150115Z AUTO 17004KT 10SM CLR M01/M01 A3021 RMK AO2,K3K3,2019-01-15T01:15:00Z,38.0,-101.75,-1.0,-1.0,170,4,,10.0,30.209646,,,TRUE,TRUE,,,,,,,CLR,,,,,,,,VFR,,,,,,,,,,,,METAR,1013.0
K3AU 150115Z AUTO 17005KT 5SM BR OVC008 00/00 A3031 RMK AO2,K3AU,2019-01-15T01:15:00Z,37.67,-97.08,0.0,0.0,170,5,,5.0,30.31004,,,TRUE,TRUE,,,,,,BR,OVC,800,,,,,,,IFR,,,,,,,,,,,,METAR,405.0
K1H2 150115Z AUTO 00000KT 10SM OVC021 M02/M04 A3036 RMK AO2 T10201045,K1H2,2019-01-15T01:15:00Z,39.07,-88.53,-2.0,-4.5,0,0,,10.0,30.360237,,,TRUE,TRUE,,,,,,,OVC,2100,,,,,,,MVFR,,,,,,,,,,,,SPECI,179.0
K11R 150115Z AUTO 01003KT 10SM CLR 07/03 A3040 RMK AO2 T00700032,K11R,2019-01-15T01:15:00Z,30.22,-96.37,7.0,3.2,10,3,,10.0,30.398623,,,TRUE,TRUE,,,,,,,CLR,,,,,,,,VFR,,,,,,,,,,,,SPECI,94.0
K06C 150115Z AUTO 27006KT 10SM OVC010 M05/M07 A3027 RMK AO2 T10501067,K06C,2019-01-15T01:15:00Z,41.98,-88.1,-5.0,-6.7,270,6,,10.0,30.268702,,,TRUE,TRUE,,,,,,,OVC,1000,,,,,,,MVFR,,,,,,,,,,,,SPECI,244.0
KTIP 150115Z AUTO 27009KT 5SM BR OVC005 M04/M04 A3031 RMK AO2 T10421045,KTIP,2019-01-15T01:15:00Z,40.28,-88.15,-4.2,-4.5,270,9,,5.0,30.31004,,,TRUE,TRUE,,,,,,BR,OVC,500,,,,,,,IFR,,,,,,,,,,,,SPECI,225.0
KTFP 150115Z AUTO 07006KT 10SM SCT034 BKN041 OVC048 11/05 A3038 RMK AO2 T01060049 PNO,KTFP,2019-01-15T01:15:00Z,27.92,-97.22,10.6,4.9,70,6,,10.0,30.380905,,,TRUE,TRUE,,,,,,,SCT,3400,BKN,4100,OVC,4800,,,VFR,,,,,,,,,,,,SPECI,6.0
KUXL 150115Z AUTO 35003KT 10SM CLR 06/03 A3039 RMK AO2 T00640028,KUXL,2019-01-15T01:15:00Z,30.13,-93.38,6.4,2.8,350,3,,10.0,30.389763,,,TRUE,TRUE,,,,,,,CLR,,,,,,,,VFR,,,,,,,,,,,,METAR,4.0
KTOC 150115Z AUTO 00000KT 10SM SCT016 BKN033 OVC042 07/05 A3018 RMK AO2 T00650050,KTOC,2019-01-15T01:15:00Z,34.6,-83.3,6.5,5.0,0,0,,10.0,30.180119,,,TRUE,TRUE,,,,,,,SCT,1600,BKN,3300,OVC,4200,,,VFR,,,,,,,,,,,,METAR,304.0
KVYS 150115Z AUTO 27006KT 7SM OVC008 M04/M06 A3030 RMK AO2 T10401056,KVYS,2019-01-15T01:15:00Z,41.35,-89.15,-4.0,-5.6,270,6,,7.0,30.301182,,,TRUE,TRUE,,,,,,,OVC,800,,,,,,,IFR,,,,,,,,,,,,SPECI,199.0
KW43 150115Z AUTO 20009KT 10SM CLR M01/M08 A3010 RMK AO2,KW43,2019-01-15T01:15:00Z,44.67,-104.57,-1.0,-8.0,200,9,,10.0,30.100393,,,TRUE,TRUE,,,,,,,CLR,,,,,,,,VFR,,,,,,,,,,,,SPECI,1300.0
KDQH 150115Z AUTO 30004KT 10SM OVC020 09/05 A3024 RMK AO2 T00860050,KDQH,2019-01-15T01:15:00Z,31.48,-82.87,8.6,5.0,300,4,,10.0,30.239174,,,TRUE,TRUE,,,,,,,OVC,2000,,,,,,,MVFR,,,,,,,,,,,,METAR,78.0
KY49 150115Z AUTO 00000KT 7SM CLR M08/M09 A3019 RMK AO2 T10811095,KY49,2019-01-15T01:15:00Z,47.13,-94.65,-8.1,-9.5,0,0,,7.0,30.188976,,,TRUE,TRUE,,,,,,,CLR,,,,,,,,VFR,,,,,,,,,,,,SPECI,416.0
KXLL 150115Z AUTO 00000KT 10SM CLR M01/M08 A3016 RMK AO2,KXLL,2019-01-15T01:15:00Z,40.57,-75.48,-1.0,-8.0,0,0,,10.0,30.159449,,,TRUE,TRUE,,,,,,,CLR,,,,,,,,VFR,,,,,,,,,,,,SPECI,122.0
KW78 150115Z AUTO 00000KT 10SM SCT043 OVC085 01/00 A3022 RMK AO1 T00050000,KW78,2019-01-15T01:15:00Z,36.68,-78.85,0.5,0.0,0,0,,10.0,30.221457,,,TRUE,TRUE,,,,,,,SCT,4300,OVC,8500,,,,,VFR,,,,,,,,,,,,METAR,129.0
KE38 150115Z AUTO 03003KT 7SM CLR 02/01 A3032 RMK AO2 T00230012,KE38,2019-01-15T01:15:00Z,30.38,-103.68,2.3,1.2,30,3,,7.0,30.318897,,,TRUE,TRUE,,,,,,,CLR,,,,,,,,VFR,,,,,,,,,,,,SPECI,1376.0
KDVK 150115Z AUTO 00000KT 10SM CLR M03/M03 A3032 RMK AO2,KDVK,2019-01-15T01:15:00Z,37.58,-84.77,-3.0,-3.0,0,0,,10.0,30.318897,,,TRUE,TRUE,,,,,,,CLR,,,,,,,,VFR,,,,,,,,,,,,METAR,312.0
KDUB 150115Z AUTO 00000KT 10SM CLR M06/M13 A3013 RMK AO2,KDUB,2019-01-15T01:15:00Z,43.55,-109.68,-6.0,-13.0,0,0,,10.0,30.129921,,,TRUE,TRUE,,,,,,,CLR,,,,,,,,VFR,,,,,,,,,,,,SPECI,2224.0
KDTA 150115Z AUTO 00000KT 7SM SCT013 M03/M05 A3023 RMK AO1,KDTA,2019-01-15T01:15:00Z,39.38,-112.5,-3.0,-5.0,0,0,,7.0,30.230314,,,TRUE,TRUE,,,,,,,SCT,1300,,,,,,,VFR,,,,,,,,,,,,SPECI,1402.0
KEQA 150115Z AUTO 19006KT 5SM BR OVC004 01/00 A3030 RMK AO2,KEQA,2019-01-15T01:15:00Z,37.78,-96.82,1.0,0.0,190,6,,5.0,30.301182,,,TRUE,TRUE,,,,,,BR,OVC,400,,,,,,,LIFR,,,,,,,,,,,,METAR,420.0
KEHA 150115Z AUTO 13003KT 10SM CLR 03/02 A3022 RMK AO2 T00290020,KEHA,2019-01-15T01:15:00Z,37.0,-101.9,2.9,2.0,130,3,,10.0,30.221457,,,TRUE,TRUE,,,,,,,CLR,,,,,,,,VFR,,,,,,,,,,,,METAR,1099.0
KFRR 150115Z AUTO 11004KT 10SM CLR M02/M04 A3018 RMK AO1,KFRR,2019-01-15T01:15:00Z,38.92,-78.25,-2.0,-4.0,110,4,,10.0,30.180119,,,TRUE,TRUE,,,,,,,CLR,,,,,,,,VFR,,,,,,,,,,,,METAR,216.0
KEZM 150115Z AUTO 00000KT 10SM BKN031 OVC037 08/05 A3025 RMK AO2 T00750050,KEZM,2019-01-15T01:15:00Z,32.22,-83.13,7.5,5.0,0,0,,10.0,30.250984,,,TRUE,TRUE,,,,,,,BKN,3100,OVC,3700,,,,,VFR,,,,,,,,,,,,METAR,93.0
KGGP 150115Z AUTO 28005KT 7SM OVC007 M06/M07 A3031 RMK AO2,KGGP,2019-01-15T01:15:00Z,40.72,-86.37,-6.0,-7.0,280,5,,7.0,30.31004,,,TRUE,TRUE,,,,,,,OVC,700,,,,,,,IFR,,,,,,,,,,,,SPECI,225.0
KGBG 150115Z AUTO 28008KT 7SM OVC006 M03/M03 A3031 RMK AO2 T10301035,KGBG,2019-01-15T01:15:00Z,40.93,-90.43,-3.0,-3.5,280,8,,7.0,30.31004,,,TRUE,TRUE,,,,,,,OVC,600,,,,,,,IFR,,,,,,,,,,,,SPECI,233.0
KFYG 150115Z AUTO 27004KT 10SM OVC014 00/M02 A3034 RMK AO2,KFYG,2019-01-15T01:15:00Z,38.58,-91.0,0.0,-2.0,270,4,,10.0,30.339567,,,TRUE,TRUE,,,,,,,OVC,1400,,,,,,,MVFR,,,,,,,,,,,,METAR,149.0
KPTT 150115Z AUTO 25006KT 10SM CLR 02/01 A3027 RMK AO2 T00170006,KPTT,2019-01-15T01:15:00Z,37.7,-98.75,1.7,0.6,250,6,,10.0,30.268702,,,TRUE,TRUE,,,,,,,CLR,,,,,,,,VFR,,,,,,,,,,,,METAR,595.0
KPSK 150115Z AUTO 29008KT 10SM OVC016 01/M01 A3017 RMK AO2 T00051007,KPSK,2019-01-15T01:15:00Z,37.12,-80.67,0.5,-0.7,290,8,,10.0,30.171259,,,TRUE,TRUE,,,,,,,OVC,1600,,,,,,,MVFR,,,,,,,,,,,,METAR,642.0
KPPO 150115Z AUTO 24008KT 10SM SCT007 M05/M06 A3028 RMK AO2 T10481065,KPPO,2019-01-15T01:15:00Z,41.57,-86.73,-4.8,-6.5,240,8,,10.0,30.280512,,,TRUE,TRUE,,,,,,,SCT,700,,,,,,,VFR,,,,,,,,,,,,SPECI,248.0
KPNT 150115Z AUTO 28009KT 7SM OVC009 M04/M04 A3032 RMK AO2 T10401041,KPNT,2019-01-15T01:15:00Z,40.92,-88.62,-4.0,-4.1,280,9,,7.0,30.318897,,,TRUE,TRUE,,,,,,,OVC,900,,,,,,,IFR,,,,,,,,,,,,SPECI,201.0
KOZA 150115Z AUTO 10SM OVC023 07/03 A3035 RMK AO2,KOZA,2019-01-15T01:15:00Z,30.73,-101.2,7.0,3.0,,,,10.0,30.351377,,,TRUE,TRUE,,,,,,,OVC,2300,,,,,,,MVFR,,,,,,,,,,,,SPECI,726.0
KOXI 150115Z AUTO 25005KT 7SM OVC008 M05/M07 A3030 RMK AO1,KOXI,2019-01-15T01:15:00Z,41.33,-86.67,-5.0,-7.0,250,5,,7.0,30.301182,,,TRUE,TRUE,,,,,,,OVC,800,,,,,,,IFR,,,,,,,,,,,,SPECI,209.0
KOPN 150115Z AUTO 33006KT 10SM OVC030 07/00 A3023 RMK AO2,KOPN,2019-01-15T01:15:00Z,32.95,-84.27,7.0,0.0,330,6,,10.0,30.230314,,,TRUE,TRUE,,,,,,,OVC,3000,,,,,,,MVFR,,,,,,,,,,,,METAR,243.0
KOPL 150115Z AUTO 02007KT 10SM OVC019 05/01 A3040 RMK AO2 T00510013,KOPL,2019-01-15T01:15:00Z,30.55,-92.1,5.1,1.3,20,7,,10.0,30.398623,,,TRUE,TRUE,,,,,,,OVC,1900,,,,,,,MVFR,,,,,,,,,,,,METAR,23.0
KOLY 150115Z AUTO 29003KT 10SM OVC026 M01/M03 A3035 RMK AO2 T10081027,KOLY,2019-01-15T01:15:00Z,38.72,-88.18,-0.8,-2.7,290,3,,10.0,30.351377,,,TRUE,TRUE,,,,,,,OVC,2600,,,,,,,MVFR,,,,,,,,,,,,SPECI,147.0
KMZZ 150115Z AUTO 00000KT 4SM HZ CLR A3030 RMK AO2,KMZZ,2019-01-15T01:15:00Z,40.48,-85.68,,,0,0,,4.0,30.301182,,,TRUE,TRUE,,,,,,HZ,CLR,,,,,,,,MVFR,,,,,,,,,,,,SPECI,262.0
KMYZ 150115Z AUTO 22007KT 7SM OVC003 00/00 A3027 RMK AO2,KMYZ,2019-01-15T01:15:00Z,39.85,-96.63,0.0,0.0,220,7,,7.0,30.268702,,,TRUE,TRUE,,,,,,,OVC,300,,,,,,,LIFR,,,,,,,,,,,,METAR,319.0
KMFV 150115Z AUTO 00000KT 10SM CLR M02/M03 A3020 RMK AO2 T10211030,KMFV,2019-01-15T01:15:00Z,37.63,-75.77,-2.1,-3.0,0,0,,10.0,30.200787,,,TRUE,TRUE,,,,,,,CLR,,,,,,,,VFR,,,,,,,,,,,,METAR,15.0
KMDD 150115Z AUTO 18005KT 10SM 08/04 A3032 RMK AO2 T00760040,KMDD,2019-01-15T01:15:00Z,32.03,-102.1,7.6,4.0,180,5,,10.0,30.318897,,,TRUE,TRUE,,,,,,,,,,,,,,,,,,,,,,,,,,,SPECI,854.0
KLWB 150115Z AUTO 26005KT 7SM BKN009 OVC015 M02/M03 A3017 RMK AO2 T10181032,KLWB,2019-01-15T01:15:00Z,37.87,-80.4,-1.8,-3.2,260,5,,7.0,30.171259,,,TRUE,TRUE,,,,,,,BKN,900,OVC,1500,,,,,IFR,,,,,,,,,,,,SPECI,702.0
KLGC 150115Z AUTO 32007KT 10SM OVC026 07/03 A3025 RMK AO2 T00700031,KLGC,2019-01-15T01:15:00Z,33.0,-85.07,7.0,3.1,320,7,,10.0,30.250984,,,TRUE,TRUE,,,,,,,OVC,2600,,,,,,,MVFR,,,,,,,,,,,,METAR,211.0
KLCK 150115Z AUTO 23004KT 10SM BKN018 M05/M07 A3030 RMK AO2 T10501074,KLCK,2019-01-15T01:15:00Z,39.82,-82.92,-5.0,-7.4,230,4,,10.0,30.301182,,,TRUE,TRUE,,,,,,,BKN,1800,,,,,,,MVFR,,,,,,,,,,,,SPECI,227.0
KIJX 150115Z AUTO 26005KT 10SM OVC008 M02/M03 A3033 RMK AO2 T10161030,KIJX,2019-01-15T01:15:00Z,39.77,-90.25,-1.6,-3.0,260,5,,10.0,30.33071,,,TRUE,TRUE,,,,,,,OVC,800,,,,,,,IFR,,,,,,,,,,,,SPECI,190.0
KI63 150115Z AUTO 26007KT 7SM OVC006 M03/M03 A3032 RMK AO2 T10271033,KI63,2019-01-15T01:15:00Z,39.98,-90.8,-2.7,-3.3,260,7,,7.0,30.318897,,,TRUE,TRUE,,,,,,,OVC,600,,,,,,,IFR,,,,,,,,,,,,SPECI,223.0
KHTO 150115Z AUTO 00000KT 10SM CLR M07/M09 A3011 RMK AO2 T10671089,KHTO,2019-01-15T01:15:00Z,40.95,-72.25,-6.7,-8.9,0,0,,10.0,30.109253,,,TRUE,TRUE,,,,,,,CLR,,,,,,,,VFR,,,,,,,,,,,,SPECI,17.0
KHSG 150115Z AUTO 21007KT 10SM CLR M05/M12 A3011 RMK AO2 T10481122,KHSG,2019-01-15T01:15:00Z,43.72,-108.38,-4.8,-12.2,210,7,,10.0,30.109253,,,TRUE,TRUE,,,,,,,CLR,,,,,,,,VFR,,,,,,,,,,,,SPECI,1494.0
KHHW 150115Z AUTO 00000KT 10SM SCT015 03/M01 A3039 RMK AO2 T00251010,KHHW,2019-01-15T01:15:00Z,34.03,-95.55,2.5,-1.0,0,0,,10.0,30.389763,,,TRUE,TRUE,,,,,,,SCT,1500,,,,,,,VFR,,,,,,,,,,,,METAR,144.0
KHHG 150115Z AUTO 25005KT 10SM SCT014 M07/M10 A3028 RMK AO2 T10701099,KHHG,2019-01-15T01:15:00Z,40.85,-85.45,-7.0,-9.9,250,5,,10.0,30.280512,,,TRUE,TRUE,,,,,,,SCT,1400,,,,,,,VFR,,,,,,,,,,,,SPECI,246.0
KGNC 150115Z AUTO 19005KT 10SM OVC015 06/02 A3034 RMK AO2 T00550022,KGNC,2019-01-15T01:15:00Z,32.68,-102.65,5.5,2.2,190,5,,10.0,30.339567,,,TRUE,TRUE,,,,,,,OVC,1500,,,,,,,MVFR,,,,,,,,,,,,SPECI,1010.0
K5M9 150115Z AUTO 00000KT 10SM OVC028 00/M03 A3035 RMK AO2 T10021029,K5M9,2019-01-15T01:15:00Z,37.33,-88.12,-0.2,-2.9,0,0,,10.0,30.351377,,,TRUE,TRUE,,,,,,,OVC,2800,,,,,,,MVFR,,,,,,,,,,,,METAR,199.0
LMML 150115Z 32018KT 9999 FEW023 13/10 Q1008 NOSIG,LMML,2019-01-15T01:15:00Z,35.85,14.47,13.0,10.0,320,18,,6.21,29.763779,,,,,,TRUE,,,,,FEW,2300,,,,,,,VFR,,,,,,,,,,,,METAR,91.0
KTVK 150115Z AUTO 23009KT 2 1/2SM BR OVC002 M03/M03 A3029 RMK AO2,KTVK,2019-01-15T01:15:00Z,40.68,-92.9,-3.0,-3.0,230,9,,2.5,30.28937,,,TRUE,TRUE,,,,,,BR,OVC,200,,,,,,,LIFR,,,,,,,,,,,,SPECI,314.0
KTRK 150115Z AUTO 34004KT 10SM SCT065 BKN075 OVC090 00/M06 A2991 RMK AO2,KTRK,2019-01-15T01:15:00Z,39.32,-120.12,0.0,-6.0,340,4,,10.0,29.911417,,,TRUE,TRUE,,,,,,,SCT,6500,BKN,7500,OVC,9000,,,VFR,,,,,,,,,,,,METAR,1798.0
KSFQ 150115Z AUTO 00000KT 10SM CLR 00/M02 A3022 RMK AO2 T00001022,KSFQ,2019-01-15T01:15:00Z,36.68,-76.6,0.0,-2.2,0,0,,10.0,30.221457,,,TRUE,TRUE,,,,,,,CLR,,,,,,,,VFR,,,,,,,,,,,,SPECI,22.0
KSEF 150115Z AUTO 07004KT 10SM SCT041 14/10 A3016 RMK AO2 T01440097,KSEF,2019-01-15T01:15:00Z,27.45,-81.35,14.4,9.7,70,4,,10.0,30.159449,,,TRUE,TRUE,,,,,,,SCT,4100,,,,,,,VFR,,,,,,,,,,,,SPECI,19.0
KOYM 150115Z AUTO 27004KT 10SM CLR M03/M11 A3015 RMK AO2,KOYM,2019-01-15T01:15:00Z,41.42,-78.5,-3.0,-11.0,270,4,,10.0,30.15059,,,TRUE,TRUE,,,,,,,CLR,,,,,,,,VFR,,,,,,,,,,,,SPECI,590.0
KMRJ 150115Z AUTO 24006KT 3SM BR OVC003 M03/M03 A3023 RMK AO2,KMRJ,2019-01-15T01:15:00Z,42.88,-90.23,-3.0,-3.0,240,6,,3.0,30.230314,,,TRUE,TRUE,,,,,,BR,OVC,300,,,,,,,LIFR,,,,,,,,,,,,SPECI,359.0
KIDP 150115Z AUTO 21006KT 10SM OVC011 00/M01 A3036 RMK AO2 T00051011,KIDP,2019-01-15T01:15:00Z,37.17,-95.78,0.5,-1.1,210,6,,10.0,30.360237,,,TRUE,TRUE,,,,,,,OVC,1100,,,,,,,MVFR,,,,,,,,,,,,SPECI,251.0
KHII 150115Z AUTO 01005KT 10SM FEW032 SCT060 OVC090 14/02 A3002 RMK AO2,KHII,2019-01-15T01:15:00Z,34.57,-114.37,14.0,2.0,10,5,,10.0,30.02067,,,TRUE,TRUE,,,,,,,FEW,3200,SCT,6000,OVC,9000,,,VFR,,,,,,,,,,,,METAR,238.0
KGVT 150115Z AUTO 00000KT 10SM CLR 02/00 A3040 RMK AO2,KGVT,2019-01-15T01:15:00Z,33.07,-96.07,2.0,0.0,0,0,,10.0,30.398623,,,TRUE,TRUE,,,,,,,CLR,,,,,,,,VFR,,,,,,,,,,,,METAR,163.0
KFYJ 150115Z AUTO 00000KT 10SM BKN070 00/M03 A3023 RMK AO1 T00001030,KFYJ,2019-01-15T01:15:00Z,37.52,-76.77,0.0,-3.0,0,0,,10.0,30.230314,,,TRUE,TRUE,,,,,,,BKN,7000,,,,,,,VFR,,,,,,,,,,,,SPECI,7.0
KEHY 150115Z AUTO 10SM CLR M08/M15 A3017 RMK AO2 PWINO,KEHY,2019-01-15T01:15:00Z,41.73,-106.47,-8.0,-15.0,,,,10.0,30.171259,,,TRUE,TRUE,,,,,TRUE,,CLR,,,,,,,,VFR,,,,,,,,,,,,METAR,2225.0
KEAN 150115Z AUTO 18015KT 10SM CLR M01/M13 A3015 RMK AO2 T10101126,KEAN,2019-01-15T01:15:00Z,42.05,-104.93,-1.0,-12.6,180,15,,10.0,30.15059,,,TRUE,TRUE,,,,,,,CLR,,,,,,,,VFR,,,,,,,,,,,,METAR,1456.0
KDWX 150115Z AUTO 08010KT 10SM CLR M17/M21 A3033 RMK AO2 T11751206,KDWX,2019-01-15T01:15:00Z,41.03,-107.5,-17.5,-20.6,80,10,,10.0,30.33071,,,TRUE,TRUE,,,,,,,CLR,,,,,,,,VFR,,,,,,,,,,,,METAR,1996.0
KBMC 150115Z AUTO 00000KT 10SM CLR M10/M13 A3029 RMK AO1 T10961126,KBMC,2019-01-15T01:15:00Z,41.55,-112.07,-9.6,-12.6,0,0,,10.0,30.28937,,,TRUE,TRUE,,,,,,,CLR,,,,,,,,VFR,,,,,,,,,,,,METAR,1288.0
K3J7 150115Z AUTO 00000KT 10SM SCT027 OVC034 07/06 A3017 RMK AO2,K3J7,2019-01-15T01:15:00Z,33.6,-83.13,7.0,6.0,0,0,,10.0,30.171259,,,TRUE,TRUE,,,,,,,SCT,2700,OVC,3400,,,,,VFR,,,,,,,,,,,,SPECI,206.0
K17J 150115Z AUTO 02006KT 10SM OVC018 07/04 A3026 RMK AO2 T00730038,K17J,2019-01-15T01:15:00Z,31.07,-84.92,7.3,3.8,20,6,,10.0,30.259842,,,TRUE,TRUE,,,,,,,OVC,1800,,,,,,,MVFR,,,,,,,,,,,,SPECI,45.0
LHSN 150115Z 32012KT 290V350 CAVOK M01/M09 Q1009 NOSIG RMK BLU,LHSN,2019-01-15T01:15:00Z,47.12,20.23,-1.0,-9.0,320,12,,6.21,29.793306,,,,,,TRUE,,,,,CAVOK,,,,,,,,VFR,,,,,,,,,,,,METAR,98.0
LHKE 150115Z 31014KT CAVOK M02/M08 Q1010 NOSIG RMK BLU,LHKE,2019-01-15T01:15:00Z,46.92,19.75,-2.0,-8.0,310,14,,6.21,29.822834,,,,,,TRUE,,,,,CAVOK,,,,,,,,VFR,,,,,,,,,,,,METAR,115.0
KVER 150115Z AUTO 22005KT 5SM HZ OVC005 M01/ A3034 RMK AO2 T1015,KVER,2019-01-15T01:15:00Z,38.95,-92.68,-1.5,,220,5,,5.0,30.339567,,,TRUE,TRUE,,,,,,HZ,OVC,500,,,,,,,IFR,,,,,,,,,,,,METAR,218.0
KO54 150115Z AUTO 00000KT 10SM BKN080 08/M02 A2985 RMK AO1,KO54,2019-01-15T01:15:00Z,40.75,-122.92,8.0,-2.0,0,0,,10.0,29.84941,,,TRUE,TRUE,,,,,,,BKN,8000,,,,,,,VFR,,,,,,,,,,,,SPECI,717.0
KJHN 150115Z AUTO 26003KT 10SM CLR 00/M01 A3021 RMK AO2 T00021014,KJHN,2019-01-15T01:15:00Z,37.58,-101.73,0.2,-1.4,260,3,,10.0,30.209646,,,TRUE,TRUE,,,,,,,CLR,,,,,,,,VFR,,,,,,,,,,,,METAR,1013.0
KEBS 150115Z AUTO 24004KT 2 1/2SM BR BKN004 OVC007 M01/M01 A3022 RMK AO2,KEBS,2019-01-15T01:15:00Z,42.42,-93.87,-1.0,-1.0,240,4,,2.5,30.221457,,,TRUE,TRUE,,,,,,BR,BKN,400,OVC,700,,,,,LIFR,,,,,,,,,,,,SPECI,342.0
KCKB 150114Z 27003KT 5SM HZ OVC009 M01/M03 A3023 RMK AO2 CIG 008V013 T10061033,KCKB,2019-01-15T01:14:00Z,39.3,-80.22,-0.6,-3.3,270,3,,5.0,30.230314,,,,TRUE,,,,,,HZ,OVC,900,,,,,,,IFR,,,,,,,,,,,,SPECI,360.0
KAGS 150114Z 00000KT 10SM FEW020 SCT028 OVC041 08/06 A3021 RMK AO2 T00780056,KAGS,2019-01-15T01:14:00Z,33.37,-81.97,7.8,5.6,0,0,,10.0,30.209646,,,,TRUE,,,,,,,FEW,2000,SCT,2800,OVC,4100,,,VFR,,,,,,,,,,,,SPECI,44.0
KPUW 150114Z AUTO 30004KT 8SM BKN007 M03/M03 A3015 RMK AO2 CIG 005V009 T10281033,KPUW,2019-01-15T01:14:00Z,46.75,-117.12,-2.8,-3.3,300,4,,8.0,30.15059,,,TRUE,TRUE,,,,,,,BKN,700,,,,,,,IFR,,,,,,,,,,,,SPECI,773.0
PASN 150114Z AUTO 14012KT 5SM -RA BR FEW007 SCT010 OVC031 01/00 A2884 RMK AO2 RAB00SNE00 P0000 T00110000 FZRANO TSNO $,PASN,2019-01-15T01:14:00Z,57.15,-170.22,1.1,0.0,140,12,,5.0,28.839567,,,TRUE,TRUE,TRUE,,TRUE,TRUE,,-RA BR,FEW,700,SCT,1000,OVC,3100,,,MVFR,,,,,,0.005,,,,,,SPECI,29.0
KCQT 150114Z AUTO 10006KT 4SM -RA SCT008 BKN014 OVC019 16/11 A2996 RMK AO2 P0002 T01610106,KCQT,2019-01-15T01:14:00Z,34.02,-118.28,16.1,10.6,100,6,,4.0,29.958662,,,TRUE,TRUE,,,,,,-RA,SCT,800,BKN,1400,OVC,1900,,,MVFR,,,,,,0.02,,,,,,SPECI,56.0
KUCP 150113Z AUTO 26004KT 10SM OVC009 M03/M05 A3024 RMK AO2,KUCP,2019-01-15T01:13:00Z,41.03,-80.42,-3.0,-5.0,260,4,,10.0,30.239174,,,TRUE,TRUE,,,,,,,OVC,900,,,,,,,IFR,,,,,,,,,,,,SPECI,327.0
KNID 150113Z 32007KT 8SM -RA OVC021 04/04 A3002 RMK AO2 P0002 T00440039 $,KNID,2019-01-15T01:13:00Z,35.67,-117.67,4.4,3.9,320,7,,8.0,30.02067,,,,TRUE,TRUE,,,,,-RA,OVC,2100,,,,,,,MVFR,,,,,,0.02,,,,,,SPECI,696.0
CYDL 150113Z AUTO 05003KT 9SM -SN BKN038 BKN080 OVC110 M06/M07 A3007 RMK SLP226,CYDL,2019-01-15T01:13:00Z,58.42,-130.02,-6.0,-7.0,50,3,,9.0,30.070866,1022.6,,TRUE,,,,,,,-SN,BKN,3800,BKN,8000,OVC,11000,,,VFR,,,,,,,,,,,,SPECI,816.0
KLNR 150113Z AUTO 00000KT 4SM BR OVC006 M04/M05 A3026 RMK AO2 CIG 004V008 T10441050,KLNR,2019-01-15T01:13:00Z,43.22,-90.18,-4.4,-5.0,0,0,,4.0,30.259842,,,TRUE,TRUE,,,,,,BR,OVC,600,,,,,,,IFR,,,,,,,,,,,,SPECI,217.0
KBAB 150113Z AUTO 04005KT 10SM -DZ BKN065 OVC075 10/06 A2990 RMK AO2 DZB13 SLP129 $,KBAB,2019-01-15T01:13:00Z,39.12,-121.42,10.0,6.0,40,5,,10.0,29.899607,1012.9,,TRUE,TRUE,TRUE,,,,,-DZ,BKN,6500,OVC,7500,,,,,VFR,,,,,,,,,,,,SPECI,34.0
PALU 150113Z AUTO 10006KT 10SM SCT024 BKN048 M07/M07 A2991 RMK AO2 SLP129,PALU,2019-01-15T01:13:00Z,68.88,-166.1,-7.0,-7.0,100,6,,10.0,29.911417,1012.9,,TRUE,TRUE,,,,,,,SCT,2400,BKN,4800,,,,,VFR,,,,,,,,,,,,SPECI,3.0
KPOE 150113Z AUTO 02003KT 10SM FEW021 04/01 A3039 RMK AO2 SLP295,KPOE,2019-01-15T01:13:00Z,31.05,-93.2,4.0,1.0,20,3,,10.0,30.389763,1029.5,,TRUE,TRUE,,,,,,,FEW,2100,,,,,,,VFR,,,,,,,,,,,,SPECI,101.0
RJCW 150112Z 18016KT 1600 R08/0900VP2000U -SHSN FEW006 SCT009 BKN015 M00/M01 Q1013 RMK 2ST006 3ST009 6ST015 A2994,RJCW,2019-01-15T01:12:00Z,45.38,141.8,0.0,-1.0,180,16,,0.99,29.911417,,,,,,,,,,-SHSN,FEW,600,SCT,900,BKN,1500,,,LIFR,,,,,,,,,,,,SPECI,11.0
LIBP 150112Z AUTO VRB03KT 7000 -RA BKN036/// 03/02 Q1011,LIBP,2019-01-15T01:12:00Z,42.42,14.18,3.0,2.0,0,3,,4.35,29.852362,,,TRUE,,,,,,,-RA,BKN,3600,,,,,,,MVFR,,,,,,,,,,,,SPECI,11.0
KCRE 150112Z 36005KT 10SM OVC016 04/01 A3022 RMK AO1 T00390006,KCRE,2019-01-15T01:12:00Z,33.82,-78.72,3.9,0.6,360,5,,10.0,30.221457,,,,TRUE,,,,,,,OVC,1600,,,,,,,MVFR,,,,,,,,,,,,SPECI,10.0
KBUR 150112Z 00000KT 2 1/2SM RA BR BKN009 OVC014 09/09 A2996 RMK AO2 P0005 T00940089 $,KBUR,2019-01-15T01:12:00Z,34.2,-118.37,9.4,8.9,0,0,,2.5,29.958662,,,,TRUE,TRUE,,,,,RA BR,BKN,900,OVC,1400,,,,,IFR,,,,,,0.05,,,,,,SPECI,217.0
KBKW 150112Z AUTO 32006KT 1 1/2SM BR OVC002 M03/M03 A3017 RMK AO2 VIS 3/4 RWY19 T10281028,KBKW,2019-01-15T01:12:00Z,37.8,-81.12,-2.8,-2.8,320,6,,1.5,30.171259,,,TRUE,TRUE,,,,,,BR,OVC,200,,,,,,,LIFR,,,,,,,,,,,,SPECI,764.0
KART 150112Z AUTO 00000KT 7SM BKN015 M12/M12 A3020 RMK AO2 T11171122,KART,2019-01-15T01:12:00Z,43.98,-76.03,-11.7,-12.2,0,0,,7.0,30.200787,,,TRUE,TRUE,,,,,,,BKN,1500,,,,,,,MVFR,,,,,,,,,,,,SPECI,100.0
KOKB 150112Z AUTO 05004KT 4SM BR SCT009 OVC013 13/12 A2997 RMK AO2 T01280122,KOKB,2019-01-15T01:12:00Z,33.22,-117.35,12.8,12.2,50,4,,4.0,29.970472,,,TRUE,TRUE,,,,,,BR,SCT,900,OVC,1300,,,,,MVFR,,,,,,,,,,,,SPECI,8.0
KGBD 150112Z AUTO 24009KT 2SM BR OVC002 01/M01 A3025 RMK AO2 FZRANO,KGBD,2019-01-15T01:12:00Z,38.35,-98.87,1.0,-1.0,240,9,,2.0,30.250984,,,TRUE,TRUE,,,,TRUE,,BR,OVC,200,,,,,,,LIFR,,,,,,,,,,,,SPECI,575.0
KEDW 150112Z 35015G20KT 15SM -RA SCT014 BKN021 OVC033 05/05 A2994 RMK SLP143,KEDW,2019-01-15T01:12:00Z,34.88,-117.87,5.0,5.0,350,15,20,15.0,29.940945,1014.3,,,,,,,,,-RA,SCT,1400,BKN,2100,OVC,3300,,,MVFR,,,,,,,,,,,,SPECI,702.0
KEGI 150112Z AUTO 02006KT 10SM OVC015 06/03 A3028 RMK AO2 SLP256 $,KEGI,2019-01-15T01:12:00Z,30.63,-86.52,6.0,3.0,20,6,,10.0,30.280512,1025.6,,TRUE,TRUE,TRUE,,,,,,OVC,1500,,,,,,,MVFR,,,,,,,,,,,,SPECI,59.0
KTGI 150112Z AUTO 34007KT 10SM CLR 00/M03 A3020 RMK AO1,KTGI,2019-01-15T01:12:00Z,37.82,-75.98,0.0,-3.0,340,7,,10.0,30.200787,,,TRUE,TRUE,,,,,,,CLR,,,,,,,,VFR,,,,,,,,,,,,SPECI,2.0
PAJC 150111Z AUTO 15016G26KT 3SM -RA BR FEW010 BKN016 OVC031 06/04 A2923 RMK AO2 PK WND 12029/0101 P0000,PAJC,2019-01-15T01:11:00Z,56.32,-158.37,6.0,4.0,150,16,26,3.0,29.22933,,,TRUE,TRUE,,,,,,-RA BR,FEW,1000,BKN,1600,OVC,3100,,,MVFR,,,,,,0.005,,,,,,SPECI,15.0
KBAN 150111Z AUTO VRB05KT 10SM FEW025 BKN033 OVC065 02/M06 A2987 RMK AO2 T00171056 $,KBAN,2019-01-15T01:11:00Z,38.35,-119.52,1.7,-5.6,0,5,,10.0,29.870079,,,TRUE,TRUE,TRUE,,,,,,FEW,2500,BKN,3300,OVC,6500,,,VFR,,,,,,,,,,,,SPECI,2057.0
KFTK 150111Z AUTO 27003KT 10SM BKN027 00/M03 A3032 RMK AO2 SLP278,KFTK,2019-01-15T01:11:00Z,37.88,-85.97,0.0,-3.0,270,3,,10.0,30.318897,1027.8,,TRUE,TRUE,,,,,,,BKN,2700,,,,,,,MVFR,,,,,,,,,,,,SPECI,230.0
KLGB 150111Z 00000KT 3SM R30/5000VP6000FT RA BR BKN008 OVC013 12/11 A2997 RMK AO2 P0008 T01220111,KLGB,2019-01-15T01:11:00Z,33.82,-118.15,12.2,11.1,0,0,,3.0,29.970472,,,,TRUE,,,,,,RA BR,BKN,800,OVC,1300,,,,,IFR,,,,,,0.08,,,,,,SPECI,10.0
KCLE 150111Z 23006KT 10SM SCT016 M05/M08 A3027 RMK AO2 T10501083,KCLE,2019-01-15T01:11:00Z,41.42,-81.85,-5.0,-8.3,230,6,,10.0,30.268702,,,,TRUE,,,,,,,SCT,1600,,,,,,,VFR,,,,,,,,,,,,SPECI,233.0
CWUW 150111Z AUTO 09017KT ////SM SCT002 SCT027 OVC120 M31/M34 A2944,CWUW,2019-01-15T01:11:00Z,68.65,-71.17,-31.0,-34.0,90,17,,,29.438976,,,TRUE,,,,,,,,SCT,200,SCT,2700,OVC,12000,,,,,,,,,,,,,,,SPECI,527.0
KNZY 150110Z 15007KT 6SM FEW007 BKN014 OVC018 15/12 A2997 RMK AO2 T01500117 PNO $,KNZY,2019-01-15T01:10:00Z,32.7,-117.22,15.0,11.7,150,7,,6.0,29.970472,,,,TRUE,TRUE,,,,,,FEW,700,BKN,1400,OVC,1800,,,MVFR,,,,,,,,,,,,SPECI,8.0
KCDD 150110Z AUTO 00000KT 10SM CLR M13/M14 A3023 RMK AO2,KCDD,2019-01-15T01:10:00Z,48.27,-92.48,-13.0,-14.0,0,0,,10.0,30.230314,,,TRUE,TRUE,,,,,,,CLR,,,,,,,,VFR,,,,,,,,,,,,SPECI,341.0
KGRR 150110Z 22009KT 10SM OVC014 M01/M04 A3022 RMK AO2 T10111044,KGRR,2019-01-15T01:10:00Z,42.88,-85.52,-1.1,-4.4,220,9,,10.0,30.221457,,,,TRUE,,,,,,,OVC,1400,,,,,,,MVFR,,,,,,,,,,,,SPECI,237.0
KMNN 150110Z AUTO 20004KT 3SM BR CLR M12/M14 A3027 RMK AO2 T11221139,KMNN,2019-01-15T01:10:00Z,40.62,-83.07,-12.2,-13.9,200,4,,3.0,30.268702,,,TRUE,TRUE,,,,,,BR,CLR,,,,,,,,MVFR,,,,,,,,,,,,SPECI,301.0
KMEM 150110Z 00000KT 10SM BKN017 OVC034 03/00 A3037 RMK AO2 T00330000,KMEM,2019-01-15T01:10:00Z,35.07,-89.98,3.3,0.0,0,0,,10.0,30.369095,,,,TRUE,,,,,,,BKN,1700,OVC,3400,,,,,MVFR,,,,,,,,,,,,SPECI,86.0
KNKX 150110Z 07005KT 3SM -RA BR BKN005 BKN010 OVC016 14/11 A2997 RMK AO2 P0001 T01390106,KNKX,2019-01-15T01:10:00Z,32.87,-117.13,13.9,10.6,70,5,,3.0,29.970472,,,,TRUE,,,,,,-RA BR,BKN,500,BKN,1000,OVC,1600,,,IFR,,,,,,0.01,,,,,,SPECI,146.0
VCRI 150110Z 34004KT 9999 FEW018 23/23 Q1012 NOSIG,VCRI,2019-01-15T01:10:00Z,6.28,81.13,23.0,23.0,340,4,,6.21,29.88189,,,,,,TRUE,,,,,FEW,1800,,,,,,,VFR,,,,,,,,,,,,METAR,7.0
VCBI 150110Z 03007KT 7000 SCT030 24/21 Q1012 NOSIG,VCBI,2019-01-15T01:10:00Z,7.17,79.87,24.0,21.0,30,7,,4.35,29.88189,,,,,,TRUE,,,,,SCT,3000,,,,,,,MVFR,,,,,,,,,,,,METAR,8.0
KVES 150110Z AUTO 25004KT 4SM BR CLR M10/M10 A3028 RMK AO2,KVES,2019-01-15T01:10:00Z,40.2,-84.53,-10.0,-10.0,250,4,,4.0,30.280512,,,TRUE,TRUE,,,,,,BR,CLR,,,,,,,,MVFR,,,,,,,,,,,,SPECI,307.0
KRQO 150110Z AUTO 17008KT 02/01 A3032 RMK AO2 PWINO T00240008,KRQO,2019-01-15T01:10:00Z,35.47,-98.0,2.4,0.8,170,8,,,30.318897,,,TRUE,TRUE,,,,,TRUE,,,,,,,,,,,,,,,,,,,,,,SPECI,432.0
KNOW 150110Z AUTO 20003KT 10SM CLR 06/04 A2997 RMK AO2 T00580042,KNOW,2019-01-15T01:10:00Z,48.13,-123.4,5.8,4.2,200,3,,10.0,29.970472,,,TRUE,TRUE,,,,,,,CLR,,,,,,,,VFR,,,,,,,,,,,,METAR,4.0
KIYA 150110Z AUTO 34008KT 10SM OVC020 06/03 A3039 RMK AO2 T00550026,KIYA,2019-01-15T01:10:00Z,29.98,-92.08,5.5,2.6,340,8,,10.0,30.389763,,,TRUE,TRUE,,,,,,,OVC,2000,,,,,,,MVFR,,,,,,,,,,,,SPECI,5.0
KI16 150110Z AUTO 5SM BR OVC006 00/M01 A3026 RMK AO2 T10051013,KI16,2019-01-15T01:10:00Z,37.6,-81.57,-0.5,-1.3,,,,5.0,30.259842,,,TRUE,TRUE,,,,,,BR,OVC,600,,,,,,,IFR,,,,,,,,,,,,SPECI,544.0
KHBV 150110Z AUTO 00000KT 10SM OVC017 09/04 A3037 RMK AO2 T00910037,KHBV,2019-01-15T01:10:00Z,27.35,-98.73,9.1,3.7,0,0,,10.0,30.369095,,,TRUE,TRUE,,,,,,,OVC,1700,,,,,,,MVFR,,,,,,,,,,,,METAR,202.0
KGVE 150110Z AUTO 00000KT 10SM OVC085 M01/M01 A3020 RMK AO1 T10081014,KGVE,2019-01-15T01:10:00Z,38.15,-78.17,-0.8,-1.4,0,0,,10.0,30.200787,,,TRUE,TRUE,,,,,,,OVC,8500,,,,,,,VFR,,,,,,,,,,,,SPECI,138.0
KEMM 150110Z AUTO 01003KT 10SM CLR M17/M20 A3022 RMK AO2,KEMM,2019-01-15T01:10:00Z,41.82,-110.55,-17.0,-20.0,10,3,,10.0,30.221457,,,TRUE,TRUE,,,,,,,CLR,,,,,,,,VFR,,,,,,,,,,,,METAR,2220.0
KCPU 150110Z AUTO 14009KT 10SM SCT050 OVC055 07/06 A2992 RMK AO2 T00740055,KCPU,2019-01-15T01:10:00Z,38.15,-120.65,7.4,5.5,140,9,,10.0,29.920275,,,TRUE,TRUE,,,,,,,SCT,5000,OVC,5500,,,,,VFR,,,,,,,,,,,,METAR,404.0
KCJR 150110Z AUTO 00000KT 7SM CLR M03/M04 A3021 RMK AO2 T10351045,KCJR,2019-01-15T01:10:00Z,38.53,-77.87,-3.5,-4.5,0,0,,7.0,30.209646,,,TRUE,TRUE,,,,,,,CLR,,,,,,,,VFR,,,,,,,,,,,,SPECI,97.0
KBWP 150110Z AUTO 29003KT 2 1/2SM OVC006 M05/M06 A3026 RMK AO1,KBWP,2019-01-15T01:10:00Z,46.25,-96.62,-5.0,-6.0,290,3,,2.5,30.259842,,,TRUE,TRUE,,,,,,,OVC,600,,,,,,,IFR,,,,,,,,,,,,SPECI,295.0
KAQO 150110Z AUTO 00000KT 10SM OVC048 07/03 A3041 RMK AO2,KAQO,2019-01-15T01:10:00Z,30.78,-98.67,7.0,3.0,0,0,,10.0,30.410433,,,TRUE,TRUE,,,,,,,OVC,4800,,,,,,,VFR,,,,,,,,,,,,METAR,336.0
KACJ 150110Z AUTO 26003KT 10SM OVC030 09/05 A3025 RMK AO2,KACJ,2019-01-15T01:10:00Z,32.12,-84.18,9.0,5.0,260,3,,10.0,30.250984,,,TRUE,TRUE,,,,,,,OVC,3000,,,,,,,MVFR,,,,,,,,,,,,SPECI,143.0
KTDZ 150109Z AUTO 23008KT 5SM HZ BKN028 M07/M10 A3027 RMK AO2 T10721100,KTDZ,2019-01-15T01:09:00Z,41.57,-83.48,-7.2,-10.0,230,8,,5.0,30.268702,,,TRUE,TRUE,,,,,,HZ,BKN,2800,,,,,,,MVFR,,,,,,,,,,,,SPECI,189.0
KHHR 150109Z 10010KT 4SM -RA BR FEW007 OVC012 12/11 A2996 RMK AO2 P0001 T01170111,KHHR,2019-01-15T01:09:00Z,33.92,-118.33,11.7,11.1,100,10,,4.0,29.958662,,,,TRUE,,,,,,-RA BR,FEW,700,OVC,1200,,,,,MVFR,,,,,,0.01,,,,,,SPECI,18.0
PAOH 150109Z AUTO 08003KT 7SM OVC010 03/03 A3006 RMK AO2,PAOH,2019-01-15T01:09:00Z,58.1,-135.45,3.0,3.0,80,3,,7.0,30.059055,,,TRUE,TRUE,,,,,,,OVC,1000,,,,,,,MVFR,,,,,,,,,,,,SPECI,9.0
CYEK 150108Z AUTO 34022G27KT 3/4SM -SN BLSN BKN006 M34/M38 A3021 RMK SLP233,CYEK,2019-01-15T01:08:00Z,61.1,-94.07,-34.0,-38.0,340,22,27,0.75,30.209646,1023.3,,TRUE,,,,,,,-SN BLSN,BKN,600,,,,,,,LIFR,,,,,,,,,,,,SPECI,10.0
CYRJ 150108Z 24008KT 5SM -SN OVC036 M10/M12 A3001 RMK SC8 SLP181,CYRJ,2019-01-15T01:08:00Z,48.52,-72.27,-10.0,-12.0,240,8,,5.0,30.008858,1018.1,,,,,,,,,-SN,OVC,3600,,,,,,,MVFR,,,,,,,,,,,,SPECI,179.0
KOAJ 150108Z 00000KT 10SM FEW023 02/01 A3022 RMK AO2,KOAJ,2019-01-15T01:08:00Z,34.82,-77.62,2.0,1.0,0,0,,10.0,30.221457,,,,TRUE,,,,,,,FEW,2300,,,,,,,VFR,,,,,,,,,,,,SPECI,29.0
KPMD 150108Z 33010KT 9SM -RA OVC007 06/04 A2997 RMK AO2 RAB01 CIG 003V011 P0001 T00560039,KPMD,2019-01-15T01:08:00Z,34.63,-118.08,5.6,3.9,330,10,,9.0,29.970472,,,,TRUE,,,,,,-RA,OVC,700,,,,,,,IFR,,,,,,0.01,,,,,,SPECI,780.0
KCSG 150108Z 34007KT 10SM OVC028 08/02 A3025 RMK AO2 T00780022,KCSG,2019-01-15T01:08:00Z,32.52,-84.95,7.8,2.2,340,7,,10.0,30.250984,,,,TRUE,,,,,,,OVC,2800,,,,,,,MVFR,,,,,,,,,,,,SPECI,135.0
KNJM 150108Z AUTO 35003KT 10SM SCT024 03/M01 A3021 RMK AO2 T00331006 $,KNJM,2019-01-15T01:08:00Z,34.67,-77.02,3.3,-0.6,350,3,,10.0,30.209646,,,TRUE,TRUE,TRUE,,,,,,SCT,2400,,,,,,,VFR,,,,,,,,,,,,SPECI,7.0
KEMV 150108Z AUTO 32005KT OVC085 01/M02 A3023 RMK AO2,KEMV,2019-01-15T01:08:00Z,36.68,-77.48,1.0,-2.0,320,5,,,30.230314,,,TRUE,TRUE,,,,,,,OVC,8500,,,,,,,,,,,,,,,,,,,SPECI,39.0
RJOF 150108Z VRB02KT 9999 FEW030 BKN040 10/05 Q1020 RMK 1CU030 5CU040 A3015,RJOF,2019-01-15T01:08:00Z,34.02,131.55,10.0,5.0,0,2,,6.21,30.11811,,,,,,,,,,,FEW,3000,BKN,4000,,,,,VFR,,,,,,,,,,,,SPECI,5.0
KATY 150107Z AUTO 03003KT 1/2SM FZFG VV002 M06/M07 A3020 RMK AO2 T10611067,KATY,2019-01-15T01:07:00Z,44.9,-97.15,-6.1,-6.7,30,3,,0.5,30.200787,,,TRUE,TRUE,,,,,,FZFG,OVX,0,,,,,,,LIFR,,,,,,,,,,,200,SPECI,532.0
KBVO 150107Z AUTO 00000KT 8SM SCT014 M01/M02 A3037 RMK AO2 T10061022,KBVO,2019-01-15T01:07:00Z,36.77,-96.02,-0.6,-2.2,0,0,,8.0,30.369095,,,TRUE,TRUE,,,,,,,SCT,1400,,,,,,,VFR,,,,,,,,,,,,SPECI,210.0
KLAX 150107Z 10006KT 4SM -RA BR OVC006 12/11 A2996 RMK AO2 P0002 T01170111,KLAX,2019-01-15T01:07:00Z,33.93,-118.38,11.7,11.1,100,6,,4.0,29.958662,,,,TRUE,,,,,,-RA BR,OVC,600,,,,,,,IFR,,,,,,0.02,,,,,,SPECI,46.0
KECP 150107Z 32008KT 10SM OVC014 07/03 A3027 RMK AO2 T00720033,KECP,2019-01-15T01:07:00Z,30.35,-85.8,7.2,3.3,320,8,,10.0,30.268702,,,,TRUE,,,,,,,OVC,1400,,,,,,,MVFR,,,,,,,,,,,,SPECI,21.0
KMYF 150107Z 10003KT 3SM -RA BR FEW007 BKN013 OVC019 12/11 A2998 RMK AO2 P0000 T01220111,KMYF,2019-01-15T01:07:00Z,32.82,-117.13,12.2,11.1,100,3,,3.0,29.97933,,,,TRUE,,,,,,-RA BR,FEW,700,BKN,1300,OVC,1900,,,MVFR,,,,,,0.005,,,,,,SPECI,136.0
CYUY 150107Z 00000KT 15SM -SN OVC009 M08/M09 A3004 RMK SF8 SLP201,CYUY,2019-01-15T01:07:00Z,48.2,-78.82,-8.0,-9.0,0,0,,15.0,30.041338,1020.1,,,,,,,,,-SN,OVC,900,,,,,,,IFR,,,,,,,,,,,,SPECI,301.0
KONT 150106Z 06004KT 2SM RA BR OVC018 11/08 A2998 RMK AO2 P0003 T01060083,KONT,2019-01-15T01:06:00Z,34.05,-117.58,10.6,8.3,60,4,,2.0,29.97933,,,,TRUE,,,,,,RA BR,OVC,1800,,,,,,,IFR,,,,,,0.03,,,,,,SPECI,274.0
K1YT 150106Z AUTO 07004KT 10SM OVC009 M02/M04 A3020 RMK AO2 SLPNO $,K1YT,2019-01-15T01:06:00Z,46.67,-120.45,-2.0,-4.0,70,4,,10.0,30.200787,,,TRUE,TRUE,TRUE,,,,,,OVC,900,,,,,,,IFR,,,,,,,,,,,,SPECI,438.0
RKJK 150106Z 00000KT 2SM BR CLR 03/03 A3025 RMK AO2A TWR VIS 1 3/8 SLP249 PNO $,RKJK,2019-01-15T01:06:00Z,35.9,126.62,3.0,3.0,0,0,,2.0,30.250984,1024.9,,,TRUE,TRUE,,,,,BR,CLR,,,,,,,,IFR,,,,,,,,,,,,SPECI,9.0
KFFO 150106Z COR 00000KT 10SM MIFG CLR M08/M10 A3029 RMK AO2A SLP273 COR 0110,KFFO,2019-01-15T01:06:00Z,39.82,-84.03,-8.0,-10.0,0,0,,10.0,30.28937,1027.3,TRUE,,TRUE,,,,,,MIFG,CLR,,,,,,,,VFR,,,,,,,,,,,,SPECI,251.0
KLSF 150106Z AUTO 33006KT 10SM OVC028 09/04 A3025 RMK AO2 SLP250,KLSF,2019-01-15T01:06:00Z,32.32,-84.97,9.0,4.0,330,6,,10.0,30.250984,1025.0,,TRUE,TRUE,,,,,,,OVC,2800,,,,,,,MVFR,,,,,,,,,,,,SPECI,71.0
PAVA 150106Z AUTO 09024KT 1 1/2SM -SN BR OVC007 01/00 A2930 RMK AO2 PK WND 09029/0103 VIS 1V2 1/2 CIG 004V009 FZRANO PNO $,PAVA,2019-01-15T01:06:00Z,61.53,-165.6,1.0,0.0,90,24,,1.5,29.300198,,,TRUE,TRUE,TRUE,,,TRUE,,-SN BR,OVC,700,,,,,,,IFR,,,,,,,,,,,,SPECI,23.0
PASD 150106Z 16013KT 10SM FEW018 SCT028 BKN036 05/03 A2920 RMK AO2 PNO $,PASD,2019-01-15T01:06:00Z,55.33,-160.5,5.0,3.0,160,13,,10.0,29.199802,,,,TRUE,TRUE,,,,,,FEW,1800,SCT,2800,BKN,3600,,,VFR,,,,,,,,,,,,METAR,7.0
CYAY 150106Z AUTO 22005KT 9SM OVC015 M05/M07 A2996 RMK ICG SLP149,CYAY,2019-01-15T01:06:00Z,51.38,-56.07,-5.0,-7.0,220,5,,9.0,29.958662,1014.9,,TRUE,,,,,,,,OVC,1500,,,,,,,MVFR,,,,,,,,,,,,SPECI,28.0
CYKL 150106Z AUTO 28011G19KT 6SM -SN OVC075 M16/M20 A2958 RMK SLP067,CYKL,2019-01-15T01:06:00Z,54.78,-66.82,-16.0,-20.0,280,11,19,6.0,29.58071,1006.7,,TRUE,,,,,,,-SN,OVC,7500,,,,,,,VFR,,,,,,,,,,,,SPECI,521.0
KNQX 150105Z 35012KT 10SM SCT019 20/16 A3014 RMK T02000156,KNQX,2019-01-15T01:05:00Z,24.57,-81.67,20.0,15.6,350,12,,10.0,30.138779,,,,,,,,,,,SCT,1900,,,,,,,VFR,,,,,,,,,,,,SPECI,2.0
MUCL 150105Z AUTO 03012KT 350V050 25/19 Q1018,MUCL,2019-01-15T01:05:00Z,21.63,-81.55,25.0,19.0,30,12,,,30.059055,,,TRUE,,,,,,,,,,,,,,,,,,,,,,,,,,,,SPECI,5.0
KRSL 150105Z AUTO 24009KT 1 1/2SM BR OVC002 00/00 A3024 RMK AO2 T00000000,KRSL,2019-01-15T01:05:00Z,38.87,-98.82,0.0,0.0,240,9,,1.5,30.239174,,,TRUE,TRUE,,,,,,BR,OVC,200,,,,,,,LIFR,,,,,,,,,,,,METAR,567.0
CYIN 150104Z AUTO 10003KT 5/8SM BR VV003 M06/M07 A3007 RMK SLP244,CYIN,2019-01-15T01:04:00Z,51.27,-121.68,-6.0,-7.0,100,3,,0.63,30.070866,1024.4,,TRUE,,,,,,,BR,OVX,0,,,,,,,LIFR,,,,,,,,,,,300,SPECI,1128.0
KTVF 150104Z AUTO 28006KT 1/2SM FZFG OVC002 M09/M10 A3024 RMK AO2 FZRANO,KTVF,2019-01-15T01:04:00Z,48.07,-96.17,-9.0,-10.0,280,6,,0.5,30.239174,,,TRUE,TRUE,,,,TRUE,,FZFG,OVC,200,,,,,,,LIFR,,,,,,,,,,,,METAR,340.0
KSPS 150104Z 09004KT 10SM CLR 02/01 A3035 RMK AO2 T00220006,KSPS,2019-01-15T01:04:00Z,33.98,-98.5,2.2,0.6,90,4,,10.0,30.351377,,,,TRUE,,,,,,,CLR,,,,,,,,VFR,,,,,,,,,,,,METAR,308.0
KNCA 150103Z 34004KT 10SM OVC022 04/M01 A3021 RMK AO2 T00391006,KNCA,2019-01-15T01:03:00Z,34.72,-77.45,3.9,-0.6,340,4,,10.0,30.209646,,,,TRUE,,,,,,,OVC,2200,,,,,,,MVFR,,,,,,,,,,,,SPECI,8.0
KEAU 150103Z 00000KT 4SM BR OVC023 M02/M02 A3020 RMK AO2 T10171022,KEAU,2019-01-15T01:03:00Z,44.87,-91.47,-1.7,-2.2,0,0,,4.0,30.200787,,,,TRUE,,,,,,BR,OVC,2300,,,,,,,MVFR,,,,,,,,,,,,METAR,276.0
KMSP 150103Z 31005KT 10SM OVC016 M02/M04 A3023 RMK AO2 T10171039,KMSP,2019-01-15T01:03:00Z,44.88,-93.23,-1.7,-3.9,310,5,,10.0,30.230314,,,,TRUE,,,,,,,OVC,1600,,,,,,,MVFR,,,,,,,,,,,,METAR,265.0
MMZC 150103Z 00000KT 4SM +RA BKN030 12/08 A3030 RMK 8/700 LTGIC,MMZC,2019-01-15T01:03:00Z,22.9,-102.68,12.0,8.0,0,0,,4.0,30.301182,,,,,,,,,,+RA,BKN,3000,,,,,,,MVFR,,,,,,,,,,,,METAR,2177.0
PADM 150102Z AUTO 10037G44KT 10SM OVC080 03/M01 A2946 RMK AO2 PK WND 10044/0100 SLP984 T00331011,PADM,2019-01-15T01:02:00Z,61.87,-162.03,3.3,-1.1,100,37,44,10.0,29.459646,998.4,,TRUE,TRUE,,,,,,,OVC,8000,,,,,,,VFR,,,,,,,,,,,,METAR,31.0
PAMO 150102Z AUTO 08026KT 7SM -SN SCT037 OVC050 M03/M04 A2940 RMK AO2 PK WND 08032/0006 SLP964 P0000 T10331039 FZRANO,PAMO,2019-01-15T01:02:00Z,62.1,-163.68,-3.3,-3.9,80,26,,7.0,29.40059,996.4,,TRUE,TRUE,,,,TRUE,,-SN,SCT,3700,OVC,5000,,,,,VFR,,,,,,0.005,,,,,,METAR,103.0
KFAY 150102Z 00000KT 10SM SCT029 OVC039 03/01 A3021 RMK AO2 T00280011,KFAY,2019-01-15T01:02:00Z,34.98,-78.88,2.8,1.1,0,0,,10.0,30.209646,,,,TRUE,,,,,,,SCT,2900,OVC,3900,,,,,VFR,,,,,,,,,,,,METAR,55.0
KFST 150102Z AUTO 12006KT 10SM OVC014 06/03 A3030 RMK AO2 T00560028,KFST,2019-01-15T01:02:00Z,30.92,-102.92,5.6,2.8,120,6,,10.0,30.301182,,,TRUE,TRUE,,,,,,,OVC,1400,,,,,,,MVFR,,,,,,,,,,,,METAR,918.0
PASM 150102Z AUTO 09023G29KT 9SM -SN BKN047 OVC055 M02/M04 A2942 RMK AO2 PK WND 10030/2355 SNB00230052 SLP980 P0000 T10221044 FZRANO,PASM,2019-01-15T01:02:00Z,62.07,-163.3,-2.2,-4.4,90,23,29,9.0,29.421259,998.0,,TRUE,TRUE,,,,TRUE,,-SN,BKN,4700,OVC,5500,,,,,VFR,,,,,,0.005,,,,,,METAR,92.0
ETIH 150102Z AUTO 28010KT 9999 FEW022 FEW029 BKN035 OVC050 00/00 A3001 RMK AO2 RAE02 SLP186 $,ETIH,2019-01-15T01:02:00Z,49.22,11.82,0.0,0.0,280,10,,6.21,30.008858,1018.6,,TRUE,TRUE,TRUE,,,,,,FEW,2200,FEW,2900,BKN,3500,OVC,5000,VFR,,,,,,,,,,,,SPECI,442.0
KNFG 150102Z 03004KT 3SM BR SCT008 OVC014 12/12 A2998 RMK AO2 T01170117 $,KNFG,2019-01-15T01:02:00Z,33.28,-117.33,11.7,11.7,30,4,,3.0,29.97933,,,,TRUE,TRUE,,,,,BR,SCT,800,OVC,1400,,,,,MVFR,,,,,,,,,,,,SPECI,24.0
KRBG 150101Z AUTO 23003KT 3/4SM BR OVC002 01/01 A2989 RMK AO2 T00110011,KRBG,2019-01-15T01:01:00Z,43.23,-123.35,1.1,1.1,230,3,,0.75,29.890747,,,TRUE,TRUE,,,,,,BR,OVC,200,,,,,,,LIFR,,,,,,,,,,,,METAR,154.0
SBSP 150101Z 18008KT 6000 BKN007 24/21 Q1019,SBSP,2019-01-15T01:01:00Z,-23.62,-46.63,24.0,21.0,180,8,,3.73,30.088583,,,,,,,,,,,BKN,700,,,,,,,IFR,,,,,,,,,,,,SPECI,803.0
PAFS 150101Z AUTO 04007KT 10SM CLR M13/M16 A2985 RMK AO2 SLP131 T11281161 FZRANO,PAFS,2019-01-15T01:01:00Z,63.02,-154.35,-12.8,-16.1,40,7,,10.0,29.84941,1013.1,,TRUE,TRUE,,,,TRUE,,,CLR,,,,,,,,VFR,,,,,,,,,,,,METAR,126.0
K2DP 150101Z AUTO 01004KT 10SM SCT023 00/M02 A3019 RMK AO2 SLPNO,K2DP,2019-01-15T01:01:00Z,35.68,-75.9,0.0,-2.0,10,4,,10.0,30.188976,,,TRUE,TRUE,,,,,,,SCT,2300,,,,,,,VFR,,,,,,,,,,,,METAR,3.0
ETIC 150101Z AUTO 27009KT 9999 BKN055 00/M02 A2998 RMK AO2 SNE0057UPB0057E01 SLP175 $,ETIC,2019-01-15T01:01:00Z,49.7,11.93,0.0,-2.0,270,9,,6.21,29.97933,1017.5,,TRUE,TRUE,TRUE,,,,,,BKN,5500,,,,,,,VFR,,,,,,,,,,,,SPECI,415.0
KRQE 150101Z AUTO 10005KT 10SM SCT012 SCT070 02/M01 A3024 RMK AO2 T00171006,KRQE,2019-01-15T01:01:00Z,35.65,-109.07,1.7,-0.6,100,5,,10.0,30.239174,,,TRUE,TRUE,,,,,,,SCT,1200,SCT,7000,,,,,VFR,,,,,,,,,,,,METAR,2055.0
CWSA 150100Z AUTO 06020G25KT 9SM FEW014 SCT055 OVC130 00/M02 A2993 RMK PRESFR SLP138,CWSA,2019-01-15T01:00:00Z,43.93,-60.0,0.0,-2.0,60,20,25,9.0,29.929134,1013.8,,TRUE,,,,,,,,FEW,1400,SCT,5500,OVC,13000,,,VFR,,,,,,,,,,,,METAR,4.0
RJCO 150100Z 13013KT 9999 FEW010 SCT035 BKN200 M02/M05 Q1019,RJCO,2019-01-15T01:00:00Z,43.12,141.37,-2.0,-5.0,130,13,,6.21,30.088583,,,,,,,,,,,FEW,1000,SCT,3500,BKN,20000,,,VFR,,,,,,,,,,,,METAR,11.0
RJCN 150100Z 25010KT CAVOK M03/M09 Q1020,RJCN,2019-01-15T01:00:00Z,43.57,144.97,-3.0,-9.0,250,10,,6.21,30.11811,,,,,,,,,,,CAVOK,,,,,,,,VFR,,,,,,,,,,,,METAR,70.0
RJBT 150100Z 17009KT 140V210 9999 FEW050 SCT060 BKN130 06/06 Q1018,RJBT,2019-01-15T01:00:00Z,35.5,134.8,6.0,6.0,170,9,,6.21,30.059055,,,,,,,,,,,FEW,5000,SCT,6000,BKN,13000,,,VFR,,,,,,,,,,,,METAR,210.0
RJBE 150100Z 06009KT 9999 FEW030 BKN060 BKN/// 07/M00 Q1020,RJBE,2019-01-15T01:00:00Z,34.63,135.23,7.0,0.0,60,9,,6.21,30.11811,,,,,,,,,,,FEW,3000,BKN,6000,,,,,VFR,,,,,,,,,,,,METAR,5.0
RJBD 150100Z 10007KT 9999 FEW030 BKN070 BKN/// 11/03 Q1021,RJBD,2019-01-15T01:00:00Z,33.67,135.37,11.0,3.0,100,7,,6.21,30.147638,,,,,,,,,,,FEW,3000,BKN,7000,,,,,VFR,,,,,,,,,,,,SPECI,108.0
RJAF 150100Z 14013G23KT 110V170 9999 VCSH FEW020 SCT050 BKN160 02/M04 Q1019,RJAF,2019-01-15T01:00:00Z,36.17,137.92,2.0,-4.0,140,13,23,6.21,30.088583,,,,,,,,,,VCSH,FEW,2000,SCT,5000,BKN,16000,,,VFR,,,,,,,,,,,,METAR,660.0
FAOB 150100Z AUTO 01004KT //// // ////// 16/13 Q1014,FAOB,2019-01-15T01:00:00Z,-34.6,20.27,16.0,13.0,10,4,,,29.940945,,,TRUE,,,,,,,,,,,,,,,,,,,,,,,,,,,,METAR,75.0
FABL 150100Z AUTO 22006KT 9999 ///////// 22/03 Q1015,FABL,2019-01-15T01:00:00Z,-29.1,26.3,22.0,3.0,220,6,,6.21,29.970472,,,TRUE,,,,,,,,,,,,,,,,,,,,,,,,,,,,METAR,1348.0
RJDC 150100Z VRB02KT 9999 FEW030 BKN060 10/08 Q1020,RJDC,2019-01-15T01:00:00Z,33.92,131.27,10.0,8.0,0,2,,6.21,30.11811,,,,,,,,,,,FEW,3000,BKN,6000,,,,,VFR,,,,,,,,,,,,METAR,8.0
RJFE 150100Z 34013KT 8000 FEW035 SCT100 BKN120 10/05 Q1022,RJFE,2019-01-15T01:00:00Z,32.67,128.82,10.0,5.0,340,13,,4.97,30.177166,,,,,,,,,,,FEW,3500,SCT,10000,BKN,12000,,,MVFR,,,,,,,,,,,,METAR,80.0
RJEB 150100Z 12003KT 070V160 CAVOK M03/M08 Q1016,RJEB,2019-01-15T01:00:00Z,44.3,143.4,-3.0,-8.0,120,3,,6.21,30.0,,,,,,,,,,,CAVOK,,,,,,,,VFR,,,,,,,,,,,,METAR,25.0
RJDT 150100Z 31009KT 270V340 CAVOK 08/M01 Q1021,RJDT,2019-01-15T01:00:00Z,34.27,129.32,8.0,-1.0,310,9,,6.21,30.147638,,,,,,,,,,,CAVOK,,,,,,,,VFR,,,,,,,,,,,,METAR,66.0
SBAR 150100Z 11010KT 9999 SCT017 27/21 Q1015,SBAR,2019-01-15T01:00:00Z,-10.97,-37.07,27.0,21.0,110,10,,6.21,29.970472,,,,,,,,,,,SCT,1700,,,,,,,VFR,,,,,,,,,,,,METAR,9.0
MGPB 150100Z 00000KT 8000 -RA SCT016 OVC080 22/21 Q1018 A3006,MGPB,2019-01-15T01:00:00Z,15.72,-88.58,22.0,21.0,0,0,,4.97,30.059055,,,,,,,,,,-RA,SCT,1600,OVC,8000,,,,,MVFR,,,,,,,,,,,,METAR,10.0
MGHT 150100Z 07006KT 9999 BKN028 15/09,MGHT,2019-01-15T01:00:00Z,15.32,-91.5,15.0,9.0,70,6,,6.21,,,,,,,,,,,,BKN,2800,,,,,,,MVFR,,,,,,,,,,,,METAR,1901.0
MGMM 150100Z 17006KT 9999 BKN045 23/21 Q1020 A3012,MGMM,2019-01-15T01:00:00Z,16.97,-89.87,23.0,21.0,170,6,,6.21,30.11811,,,,,,,,,,,BKN,4500,,,,,,,VFR,,,,,,,,,,,,METAR,123.0
CWFF 150100Z AUTO 24015KT M05/M07 RMK AO1 SOG 14 8031 PK WND 24020/0048 SLP138 T10461066,CWFF,2019-01-15T01:00:00Z,52.82,-104.58,-4.6,-6.6,240,15,,,,1013.8,,TRUE,TRUE,,,,,,,,,,,,,,,,,,,,,,,,,,,METAR,490.0
CWEW 150100Z AUTO 23006KT M10/M14 RMK AO1 SOG 14 8011 SLP225 T10991143,CWEW,2019-01-15T01:00:00Z,45.82,-73.43,-9.9,-14.3,230,6,,,,1022.5,,TRUE,TRUE,,,,,,,,,,,,,,,,,,,,,,,,,,,METAR,21.0
CWEL 150100Z AUTO 33007KT 04/04 RMK AO1 SLP153 T00430040 56013,CWEL,2019-01-15T01:00:00Z,49.22,-123.78,4.3,4.0,330,7,,,,1015.3,,TRUE,TRUE,,,,,,,,,,,,,,,,-1.3,,,,,,,,,,,METAR,5.0
CWEB 150100Z AUTO 11004KT 07/06 RMK AO1 SLP136 T00670056 58010,CWEB,2019-01-15T01:00:00Z,49.38,-126.55,6.7,5.6,110,4,,,,1013.6,,TRUE,TRUE,,,,,,,,,,,,,,,,-1.0,,,,,,,,,,,METAR,7.0
CWDK 150100Z AUTO 36005KT M00/M09 RMK AO1 SLP236 T10021088 52012,CWDK,2019-01-15T01:00:00Z,50.02,-113.62,-0.2,-8.8,360,5,,,,1023.6,,TRUE,TRUE,,,,,,,,,,,,,,,,1.2,,,,,,,,,,,METAR,1012.0
CWDJ 150100Z AUTO 17008KT M05/M06 RMK AO1 SLP183 T10491064 56025,CWDJ,2019-01-15T01:00:00Z,50.4,-104.58,-4.9,-6.4,170,8,,,,1018.3,,TRUE,TRUE,,,,,,,,,,,,,,,,-2.5,,,,,,,,,,,METAR,573.0
CWCO 150100Z AUTO 23004KT M02/M06 RMK AO1 SLP229 T10201057 58004,CWCO,2019-01-15T01:00:00Z,44.45,-80.17,-2.0,-5.7,230,4,,,,1022.9,,TRUE,TRUE,,,,,,,,,,,,,,,,-0.4,,,,,,,,,,,METAR,221.0
CWCJ 150100Z AUTO 03003KT M08/M11 RMK AO1 SOG 23 1017 SLP227 T10821111,CWCJ,2019-01-15T01:00:00Z,48.6,-86.28,-8.2,-11.1,30,3,,,,1022.7,,TRUE,TRUE,,,,,,,,,,,,,,,,,,,,,,,,,,,METAR,206.0
YBDV 150100Z AUTO 01013KT //// // ////// 41/11 Q1009,YBDV,2019-01-15T01:00:00Z,-25.9,139.35,41.0,11.0,10,13,,,29.793306,,,TRUE,,,,,,,,,,,,,,,,,,,,,,,,,,,,METAR,47.0
YBCV 150100Z AUTO 05005KT 9999 // NCD 34/12 Q1015,YBCV,2019-01-15T01:00:00Z,-26.38,146.27,34.0,12.0,50,5,,6.21,29.970472,,,TRUE,,,,,,,,CLR,,,,,,,,VFR,,,,,,,,,,,,METAR,304.0
KNEL 150100Z 00000KT 10SM CLR M04/M08 A3014 RMK AO2 SLP205 T10441083 PNO $,KNEL,2019-01-15T01:00:00Z,40.02,-74.33,-4.4,-8.3,0,0,,10.0,30.138779,1020.5,,,TRUE,TRUE,,,,,,CLR,,,,,,,,VFR,,,,,,,,,,,,METAR,31.0
SASA 150100Z 23005KT 4000 DZ OVC008 19/18 Q1015,SASA,2019-01-15T01:00:00Z,-24.85,-65.47,19.0,18.0,230,5,,2.49,29.970472,,,,,,,,,,DZ,OVC,800,,,,,,,IFR,,,,,,,,,,,,METAR,1216.0
TUPJ 150100Z 12004KT 10SM SCT020 25/20 A3007 RMK Q1018,TUPJ,2019-01-15T01:00:00Z,18.43,-64.52,25.0,20.0,120,4,,10.0,30.070866,,,,,,,,,,,SCT,2000,,,,,,,VFR,,,,,,,,,,,,METAR,4.0
SBBV 150100Z 10009KT CAVOK 28/19 Q1012,SBBV,2019-01-15T01:00:00Z,2.85,-60.7,28.0,19.0,100,9,,6.21,29.88189,,,,,,,,,,,CAVOK,,,,,,,,VFR,,,,,,,,,,,,METAR,140.0
SBRF 150100Z 15010KT 9999 SCT024 27/22 Q1015,SBRF,2019-01-15T01:00:00Z,-8.13,-34.92,27.0,22.0,150,10,,6.21,29.970472,,,,,,,,,,,SCT,2400,,,,,,,VFR,,,,,,,,,,,,METAR,19.0
SBMO 150100Z 04002KT 9999 SCT018 BKN070 24/22 Q1016,SBMO,2019-01-15T01:00:00Z,-9.52,-35.77,24.0,22.0,40,2,,6.21,30.0,,,,,,,,,,,SCT,1800,BKN,7000,,,,,VFR,,,,,,,,,,,,METAR,115.0
SBPS 150100Z 09005KT 070V130 9999 FEW013 26/23 Q1016,SBPS,2019-01-15T01:00:00Z,-16.43,-39.07,26.0,23.0,90,5,,6.21,30.0,,,,,,,,,,,FEW,1300,,,,,,,VFR,,,,,,,,,,,,METAR,51.0
OTHH 150100Z AUTO 10009KT CAVOK 21/16 Q1016 NOSIG,OTHH,2019-01-15T01:00:00Z,25.25,51.6,21.0,16.0,100,9,,6.21,30.0,,,TRUE,,,TRUE,,,,,CAVOK,,,,,,,,VFR,,,,,,,,,,,,METAR,0.0
OKBK 150100Z 36011KT 7000 -TSRA FEW025CB SCT040 BKN080 14/10 Q1017 NOSIG,OKBK,2019-01-15T01:00:00Z,29.22,47.97,14.0,10.0,360,11,,4.35,30.029528,,,,,,TRUE,,,,-TSRA,FEW,2500,SCT,4000,BKN,8000,,,MVFR,,,,,,,,,,,,METAR,55.0
CYPA 150100Z 24007KT 5SM BR FEW007 OVC150 M06/M07 A2985 RMK ST2AC6 SLP142,CYPA,2019-01-15T01:00:00Z,53.22,-105.67,-6.0,-7.0,240,7,,5.0,29.84941,1014.2,,,,,,,,,BR,FEW,700,OVC,15000,,,,,MVFR,,,,,,,,,,,,METAR,428.0
MHRO 150100Z 01006KT 9999 FEW020 23/21 Q1017 A3003 NOSIG,MHRO,2019-01-15T01:00:00Z,16.32,-86.53,23.0,21.0,10,6,,6.21,30.029528,,,,,,TRUE,,,,,FEW,2000,,,,,,,VFR,,,,,,,,,,,,METAR,5.0
MHLC 150100Z 12004KT 9999 SCT020TCU SCT200 23/22 Q1017 A3003 NOSIG,MHLC,2019-01-15T01:00:00Z,15.75,-86.85,23.0,22.0,120,4,,6.21,30.029528,,,,,,TRUE,,,,,SCT,2000,SCT,20000,,,,,VFR,,,,,,,,,,,,METAR,15.0
MHLM 150100Z 04005KT 9999 FEW025 BKN080 24/21 Q1017 A3003 NOSIG,MHLM,2019-01-15T01:00:00Z,15.45,-87.93,24.0,21.0,40,5,,6.21,30.029528,,,,,,TRUE,,,,,FEW,2500,BKN,8000,,,,,VFR,,,,,,,,,,,,METAR,26.0
MHTG 150100Z 06006KT 9999 FEW030 21/12 Q1020 A3012 NOSIG,MHTG,2019-01-15T01:00:00Z,14.07,-87.22,21.0,12.0,60,6,,6.21,30.11811,,,,,,TRUE,,,,,FEW,3000,,,,,,,VFR,,,,,,,,,,,,METAR,1004.0
OSLK 150100Z 17012KT 8000 -RA FEW026 CB SCT030 BKN100 13/10 Q1011,OSLK,2019-01-15T01:00:00Z,35.4,35.95,13.0,10.0,170,12,,4.97,29.852362,,,,,,,,,,-RA,FEW,2600,SCT,3000,BKN,10000,,,MVFR,,,,,,,,,,,,METAR,48.0
OSDI 150100Z 18010KT 8000 FEW030 07/05 Q1015,OSDI,2019-01-15T01:00:00Z,33.42,36.52,7.0,5.0,180,10,,4.97,29.970472,,,,,,,,,,,FEW,3000,,,,,,,MVFR,,,,,,,,,,,,METAR,605.0
OEDF 150100Z 16005KT 6000 NSC 15/13 Q1016 NOSIG,OEDF,2019-01-15T01:00:00Z,26.47,49.8,15.0,13.0,160,5,,3.73,30.0,,,,,,TRUE,,,,,CLR,,,,,,,,MVFR,,,,,,,,,,,,METAR,22.0
OEJN 150100Z 02006KT 9999 FEW040 23/15 Q1014 NOSIG,OEJN,2019-01-15T01:00:00Z,21.68,39.15,23.0,15.0,20,6,,6.21,29.940945,,,,,,TRUE,,,,,FEW,4000,,,,,,,VFR,,,,,,,,,,,,METAR,15.0
OEDR 150100Z 14004KT CAVOK 18/14 Q1015 NOSIG,OEDR,2019-01-15T01:00:00Z,26.27,50.17,18.0,14.0,140,4,,6.21,29.970472,,,,,,TRUE,,,,,CAVOK,,,,,,,,VFR,,,,,,,,,,,,METAR,17.0
OEMA 150100Z 26004KT CAVOK 21/12 Q1014 NOSIG,OEMA,2019-01-15T01:00:00Z,24.55,39.7,21.0,12.0,260,4,,6.21,29.940945,,,,,,TRUE,,,,,CAVOK,,,,,,,,VFR,,,,,,,,,,,,METAR,631.0
OERK 150100Z 00000KT CAVOK 13/05 Q1017 NOSIG,OERK,2019-01-15T01:00:00Z,24.95,46.72,13.0,5.0,0,0,,6.21,30.029528,,,,,,TRUE,,,,,CAVOK,,,,,,,,VFR,,,,,,,,,,,,METAR,612.0
CWDT 150100Z AUTO 27001KT M13/M15 RMK AO1 SLP174 T11331153 58006,CWDT,2019-01-15T01:00:00Z,49.88,-71.25,-13.3,-15.3,270,1,,,,1017.4,,TRUE,TRUE,,,,,,,,,,,,,,,,-0.6,,,,,,,,,,,METAR,399.0
CXEG 150100Z AUTO M01/M05 RMK AO1 T10091046,CXEG,2019-01-15T01:00:00Z,53.3,-113.6,-0.9,-4.6,,,,,,,,TRUE,TRUE,,,,,,,,,,,,,,,,,,,,,,,,,,,METAR,715.0
CWIX 150100Z AUTO 22006KT M10/M12 RMK AO1 SLP179 T10971115 58004,CWIX,2019-01-15T01:00:00Z,48.6,-71.72,-9.7,-11.5,220,6,,,,1017.9,,TRUE,TRUE,,,,,,,,,,,,,,,,-0.4,,,,,,,,,,,METAR,113.0
SBPA 150100Z 04004KT 020V080 9999 FEW035 FEW045TCU 26/22 Q1012 RETS,SBPA,2019-01-15T01:00:00Z,-30.0,-51.17,26.0,22.0,40,4,,6.21,29.88189,,,,,,,,,,,FEW,3500,FEW,4500,,,,,VFR,,,,,,,,,,,,METAR,3.0
SBMN 150100Z 09003KT 9999 VCTS FEW020CB 25/23 Q1012,SBMN,2019-01-15T01:00:00Z,-3.13,-59.97,25.0,23.0,90,3,,6.21,29.88189,,,,,,,,,,VCTS,FEW,2000,,,,,,,VFR,,,,,,,,,,,,METAR,84.0
TNCA 150100Z 09014KT 9999 FEW017 26/21 Q1014 NOSIG,TNCA,2019-01-15T01:00:00Z,12.5,-70.0,26.0,21.0,90,14,,6.21,29.940945,,,,,,TRUE,,,,,FEW,1700,,,,,,,VFR,,,,,,,,,,,,METAR,18.0
SPRU 150100Z 15009KT 9999 OVC050 23/20 Q1013 RMK PP000,SPRU,2019-01-15T01:00:00Z,-8.08,-79.12,23.0,20.0,150,9,,6.21,29.911417,,,,,,,,,,,OVC,5000,,,,,,,VFR,,,,,,,,,,,,METAR,30.0
SPQU 150100Z VRB02KT 9999 SCT060 BKN100 14/10 Q1026 NOSIG RMK PP000,SPQU,2019-01-15T01:00:00Z,-16.33,-71.57,14.0,10.0,0,2,,6.21,30.295275,,,,,,TRUE,,,,,SCT,6000,BKN,10000,,,,,VFR,,,,,,,,,,,,METAR,2554.0
SPQT 150100Z VRB01KT 9999 FEW020 SCT100 26/23 Q1010 NOSIG RMK BIRD HAZARD RWY 06/24 PP000,SPQT,2019-01-15T01:00:00Z,-3.78,-73.32,26.0,23.0,0,1,,6.21,29.822834,,,,,,TRUE,,,,,FEW,2000,SCT,10000,,,,,VFR,,,,,,,,,,,,METAR,126.0
SPHI 150100Z 12007KT 9999 OVC045 24/19 Q1012 RMK BIRD HAZARD RWY 19/01 PP000,SPHI,2019-01-15T01:00:00Z,-6.77,-79.82,24.0,19.0,120,7,,6.21,29.88189,,,,,,,,,,,OVC,4500,,,,,,,VFR,,,,,,,,,,,,METAR,34.0
SPTN 150100Z 22006KT 9999 BKN120 19/14 Q1016 RMK PP000,SPTN,2019-01-15T01:00:00Z,-18.07,-70.28,19.0,14.0,220,6,,6.21,30.0,,,,,,,,,,,BKN,12000,,,,,,,VFR,,,,,,,,,,,,METAR,458.0
SPSO 150100Z 22013KT CAVOK 22/20 Q1012 RMK PP000,SPSO,2019-01-15T01:00:00Z,-13.73,-76.22,22.0,20.0,220,13,,6.21,29.88189,,,,,,,,,,,CAVOK,,,,,,,,VFR,,,,,,,,,,,,METAR,10.0
LKKV 150100Z 26012KT 230V290 9999 -SN SCT008 BKN020 M02/M04 Q1011 R29///////,LKKV,2019-01-15T01:00:00Z,50.2,12.92,-2.0,-4.0,260,12,,6.21,29.852362,,,,,,,,,,-SN,SCT,800,BKN,2000,,,,,MVFR,,,,,,,,,,,,METAR,604.0
MKJP 150100Z 08005KT 9999 FEW024 27/19 Q1016,MKJP,2019-01-15T01:00:00Z,17.92,-76.78,27.0,19.0,80,5,,6.21,30.0,,,,,,,,,,,FEW,2400,,,,,,,VFR,,,,,,,,,,,,METAR,3.0
SBBR 150100Z 16005KT CAVOK 24/15 Q1020,SBBR,2019-01-15T01:00:00Z,-15.87,-47.92,24.0,15.0,160,5,,6.21,30.11811,,,,,,,,,,,CAVOK,,,,,,,,VFR,,,,,,,,,,,,METAR,1061.0
SPME 150100Z 16004KT 9999 SCT013 BKN020 24/22 Q1011 RMK BIRD HAZARD RWY 32/14 PP000,SPME,2019-01-15T01:00:00Z,-3.53,-80.4,24.0,22.0,160,4,,6.21,29.852362,,,,,,,,,,,SCT,1300,BKN,2000,,,,,MVFR,,,,,,,,,,,,METAR,27.0
SPST 150100Z 28002KT 9999 FEW025 23/22 Q1010 RMK BIRD HAZARD RWY 17/35 PP000,SPST,2019-01-15T01:00:00Z,-6.52,-76.37,23.0,22.0,280,2,,6.21,29.822834,,,,,,,,,,,FEW,2500,,,,,,,VFR,,,,,,,,,,,,METAR,282.0
MWCR 150100Z 03009KT 9999 FEW020 26/23 Q1017,MWCR,2019-01-15T01:00:00Z,19.3,-81.37,26.0,23.0,30,9,,6.21,30.029528,,,,,,,,,,,FEW,2000,,,,,,,VFR,,,,,,,,,,,,METAR,3.0
GVSV 150100Z 06017KT 9999 FEW022 21/16 Q1017 NOSIG,GVSV,2019-01-15T01:00:00Z,16.83,-25.07,21.0,16.0,60,17,,6.21,30.029528,,,,,,TRUE,,,,,FEW,2200,,,,,,,VFR,,,,,,,,,,,,METAR,20.0
CYUL 150100Z 24007KT 15SM FEW120 BKN170 BKN220 M11/M15 A3018 RMK AC1AC4CI2 SLP223,CYUL,2019-01-15T01:00:00Z,45.47,-73.73,-11.0,-15.0,240,7,,15.0,30.180119,1022.3,,,,,,,,,,FEW,12000,BKN,17000,BKN,22000,,,VFR,,,,,,,,,,,,METAR,36.0
SPJL 150100Z 14003KT 9999 BKN010 OVC100 12/07 Q1033 RERA RMK RWY WET PP003,SPJL,2019-01-15T01:00:00Z,-15.47,-70.15,12.0,7.0,140,3,,6.21,30.501968,,,,,,,,,,,BKN,1000,OVC,10000,,,,,MVFR,,,,,,,,,,,,METAR,3827.0
SPCL 150100Z 04005KT 9999 SCT018 BKN080 26/23 Q1011 RMK PP000,SPCL,2019-01-15T01:00:00Z,-8.38,-74.58,26.0,23.0,40,5,,6.21,29.852362,,,,,,,,,,,SCT,1800,BKN,8000,,,,,VFR,,,,,,,,,,,,METAR,149.0
SCPQ 150100Z AUTO 08004KT //// R35///// NCD 13/10 Q1015,SCPQ,2019-01-15T01:00:00Z,-42.33,-73.72,13.0,10.0,80,4,,,29.970472,,,TRUE,,,,,,,,CLR,,,,,,,,,,,,,,,,,,,,METAR,5.0
SCIP 150100Z 06006KT 330V110 9999 SCT020 SCT040 BKN250 24/19 Q1020 NOSIG,SCIP,2019-01-15T01:00:00Z,-27.17,-109.43,24.0,19.0,60,6,,6.21,30.11811,,,,,,TRUE,,,,,SCT,2000,SCT,4000,BKN,25000,,,VFR,,,,,,,,,,,,METAR,69.0
SCTN 150100Z AUTO 19007KT 160V230 //// R/////// // NCD 12/10 Q1015,SCTN,2019-01-15T01:00:00Z,-42.92,-72.7,12.0,10.0,190,7,,,29.970472,,,TRUE,,,,,,,,CLR,,,,,,,,,,,,,,,,,,,,METAR,4.0
SCCH 150100Z AUTO 27003KT 240V310 9999 ///////// 18/12 Q1015,SCCH,2019-01-15T01:00:00Z,-36.57,-72.02,18.0,12.0,270,3,,6.21,29.970472,,,TRUE,,,,,,,,,,,,,,,,,,,,,,,,,,,,METAR,148.0
SCIC 150100Z AUTO 25008KT 220V280 9999 NCD 20/11 Q1014,SCIC,2019-01-15T01:00:00Z,-34.97,-71.22,20.0,11.0,250,8,,6.21,29.940945,,,TRUE,,,,,,,,CLR,,,,,,,,VFR,,,,,,,,,,,,METAR,242.0
SCCY 150100Z AUTO VRB02KT CAVOK 16/M02 Q1010,SCCY,2019-01-15T01:00:00Z,-45.57,-72.1,16.0,-2.0,0,2,,6.21,29.822834,,,TRUE,,,,,,,,CAVOK,,,,,,,,VFR,,,,,,,,,,,,METAR,311.0
SEMT 150100Z 24007KT 9999 BKN026 27/23 Q1011 RMK A2987,SEMT,2019-01-15T01:00:00Z,-0.95,-80.67,27.0,23.0,240,7,,6.21,29.852362,,,,,,,,,,,BKN,2600,,,,,,,MVFR,,,,,,,,,,,,METAR,14.0
SEQM 150100Z 01005KT 9999 FEW010 BKN080 14/13 Q1025 NOSIG RMK A3028,SEQM,2019-01-15T01:00:00Z,-0.12,-78.35,14.0,13.0,10,5,,6.21,30.265747,,,,,,TRUE,,,,,FEW,1000,BKN,8000,,,,,VFR,,,,,,,,,,,,METAR,2400.0
SELT 150100Z 20007KT 9999 BKN030 12/10 Q1028,SELT,2019-01-15T01:00:00Z,-0.92,-78.62,12.0,10.0,200,7,,6.21,30.35433,,,,,,,,,,,BKN,3000,,,,,,,MVFR,,,,,,,,,,,,METAR,2785.0
SEGU 150100Z METAR 21007KT 9999 -RA FEW010 BKN023 OVC090 25/24 Q1010 NOSIG RMK A2984,SEGU,2019-01-15T01:00:00Z,-2.13,-79.87,25.0,24.0,210,7,,6.21,29.822834,,,,,,TRUE,,,,-RA,FEW,1000,BKN,2300,OVC,9000,,,MVFR,,,,,,,,,,,,METAR,9.0
SERO 150100Z 14001KT 9999 -RADZ BKN016 OVC070 24/23 Q1011,SERO,2019-01-15T01:00:00Z,-3.43,-79.98,24.0,23.0,140,1,,6.21,29.852362,,,,,,,,,,-RA -DZ,BKN,1600,OVC,7000,,,,,MVFR,,,,,,,,,,,,METAR,51.0
SECU 150100Z 12001KT 9999 OVC040 16/13 Q1024,SECU,2019-01-15T01:00:00Z,-2.87,-78.97,16.0,13.0,120,1,,6.21,30.236221,,,,,,,,,,,OVC,4000,,,,,,,VFR,,,,,,,,,,,,METAR,2531.0
SBVT 150100Z 03012KT 9999 FEW040 27/24 Q1016,SBVT,2019-01-15T01:00:00Z,-20.27,-40.27,27.0,24.0,30,12,,6.21,30.0,,,,,,,,,,,FEW,4000,,,,,,,VFR,,,,,,,,,,,,METAR,4.0
SCDA 150100Z 18011KT 9999 SCT037 21/14 Q1014,SCDA,2019-01-15T01:00:00Z,-20.52,-70.17,21.0,14.0,180,11,,6.21,29.940945,,,,,,,,,,,SCT,3700,,,,,,,VFR,,,,,,,,,,,,METAR,52.0
SCQP 150100Z 27006KT 240V300 CAVOK 13/11 Q1017,SCQP,2019-01-15T01:00:00Z,-38.92,-72.65,13.0,11.0,270,6,,6.21,30.029528,,,,,,,,,,,CAVOK,,,,,,,,VFR,,,,,,,,,,,,METAR,97.0
SCSE 150100Z 31006KT CAVOK 17/13 Q1013,SCSE,2019-01-15T01:00:00Z,-29.92,-71.2,17.0,13.0,310,6,,6.21,29.911417,,,,,,,,,,,CAVOK,,,,,,,,VFR,,,,,,,,,,,,METAR,146.0
SCTE 150100Z 23005KT CAVOK 14/09 Q1016 NOSIG,SCTE,2019-01-15T01:00:00Z,-41.42,-73.07,14.0,9.0,230,5,,6.21,30.0,,,,,,TRUE,,,,,CAVOK,,,,,,,,VFR,,,,,,,,,,,,METAR,86.0
SCCI 150100Z 27011KT 9999 SCT040 BKN100 14/06 Q1000 NOSIG,SCCI,2019-01-15T01:00:00Z,-53.0,-70.83,14.0,6.0,270,11,,6.21,29.52756,,,,,,TRUE,,,,,SCT,4000,BKN,10000,,,,,VFR,,,,,,,,,,,,METAR,37.0
CYPE 150100Z 03008KT 6SM BR BKN007 OVC070 M10/M12 A3015 RMK ST7AC1 SLP255,CYPE,2019-01-15T01:00:00Z,56.22,-117.45,-10.0,-12.0,30,8,,6.0,30.15059,1025.5,,,,,,,,,BR,BKN,700,OVC,7000,,,,,IFR,,,,,,,,,,,,METAR,571.0
MBPV 150100Z 05000KT 9999 SCT015 24/21 Q1017,MBPV,2019-01-15T01:00:00Z,21.77,-72.27,24.0,21.0,50,0,,6.21,30.029528,,,,,,,,,,,SCT,1500,,,,,,,VFR,,,,,,,,,,,,METAR,5.0
SBEG 150100Z 07004KT 9999 FEW025TCU SCT100 26/22 Q1012,SBEG,2019-01-15T01:00:00Z,-3.02,-60.03,26.0,22.0,70,4,,6.21,29.88189,,,,,,,,,,,FEW,2500,SCT,10000,,,,,VFR,,,,,,,,,,,,METAR,2.0
SBFZ 150100Z 09003KT 9999 SCT017 27/25 Q1013,SBFZ,2019-01-15T01:00:00Z,-3.77,-38.52,27.0,25.0,90,3,,6.21,29.911417,,,,,,,,,,,SCT,1700,,,,,,,VFR,,,,,,,,,,,,METAR,25.0
SBSJ 150100Z 05002KT 9999 FEW040 FEW045TCU 24/20 Q1018,SBSJ,2019-01-15T01:00:00Z,-23.22,-45.87,24.0,20.0,50,2,,6.21,30.059055,,,,,,,,,,,FEW,4000,FEW,4500,,,,,VFR,,,,,,,,,,,,METAR,646.0
SAWH 150100Z 23006KT 9999 SCT040 BKN080 12/07 Q0997,SAWH,2019-01-15T01:00:00Z,-54.85,-68.3,12.0,7.0,230,6,,6.21,29.438976,,,,,,,,,,,SCT,4000,BKN,8000,,,,,VFR,,,,,,,,,,,,METAR,14.0
WAHQ 150100Z 00000KT 6000 FEW015 28/25 Q1009 NOSIG,WAHQ,2019-01-15T01:00:00Z,-7.52,110.75,28.0,25.0,0,0,,3.73,29.793306,,,,,,TRUE,,,,,FEW,1500,,,,,,,MVFR,,,,,,,,,,,,METAR,126.0
SBLO 150100Z 20006KT 9999 FEW045 FEW050CB 25/19 Q1017,SBLO,2019-01-15T01:00:00Z,-23.32,-51.12,25.0,19.0,200,6,,6.21,30.029528,,,,,,,,,,,FEW,4500,FEW,5000,,,,,VFR,,,,,,,,,,,,METAR,570.0
FIMR 150100Z 12005KT 9999 FEW018 25/23 Q1015,FIMR,2019-01-15T01:00:00Z,-19.75,63.37,25.0,23.0,120,5,,6.21,29.970472,,,,,,,,,,,FEW,1800,,,,,,,VFR,,,,,,,,,,,,METAR,31.0
SBTE 150100Z 03004KT 9999 -RA SCT015 OVC070 23/21 Q1015,SBTE,2019-01-15T01:00:00Z,-5.03,-42.82,23.0,21.0,30,4,,6.21,29.970472,,,,,,,,,,-RA,SCT,1500,OVC,7000,,,,,VFR,,,,,,,,,,,,METAR,69.0
SCAT 150100Z AUTO 23007KT 190V260 9999 // ///011 17/14 Q1015,SCAT,2019-01-15T01:00:00Z,-27.27,-70.77,17.0,14.0,230,7,,6.21,29.970472,,,TRUE,,,,,,,,,,,,,,,,,,,,,,,,,,,,METAR,204.0
SCIE 150100Z 02004KT 9999 FEW011 15/13 Q1016,SCIE,2019-01-15T01:00:00Z,-36.77,-73.07,15.0,13.0,20,4,,6.21,30.0,,,,,,,,,,,FEW,1100,,,,,,,VFR,,,,,,,,,,,,METAR,16.0
SCCF 150100Z 28017KT CAVOK 17/02 Q1025,SCCF,2019-01-15T01:00:00Z,-22.5,-68.9,17.0,2.0,280,17,,6.21,30.265747,,,,,,,,,,,CAVOK,,,,,,,,VFR,,,,,,,,,,,,METAR,2312.0
SCBA 150100Z AUTO 31017KT CAVOK 16/M01 Q1010,SCBA,2019-01-15T01:00:00Z,-45.92,-71.67,16.0,-1.0,310,17,,6.21,29.822834,,,TRUE,,,,,,,,CAVOK,,,,,,,,VFR,,,,,,,,,,,,METAR,524.0
SCAR 150100Z 27004KT CAVOK 21/15 Q1014,SCAR,2019-01-15T01:00:00Z,-18.35,-70.32,21.0,15.0,270,4,,6.21,29.940945,,,,,,,,,,,CAVOK,,,,,,,,VFR,,,,,,,,,,,,METAR,59.0
SCFA 150100Z 18008KT 9999 FEW018 18/13 Q1014 NOSIG,SCFA,2019-01-15T01:00:00Z,-23.42,-70.42,18.0,13.0,180,8,,6.21,29.940945,,,,,,TRUE,,,,,FEW,1800,,,,,,,VFR,,,,,,,,,,,,METAR,120.0
SBRJ 150100Z 15003KT CAVOK 27/23 Q1013,SBRJ,2019-01-15T01:00:00Z,-22.88,-43.17,27.0,23.0,150,3,,6.21,29.911417,,,,,,,,,,,CAVOK,,,,,,,,VFR,,,,,,,,,,,,METAR,3.0
SBNF 150100Z 27007KT 9999 TS SCT015 FEW025CB 24/21 Q1014,SBNF,2019-01-15T01:00:00Z,-26.88,-48.65,24.0,21.0,270,7,,6.21,29.940945,,,,,,,,,,TS,SCT,1500,FEW,2500,,,,,VFR,,,,,,,,,,,,METAR,5.0
ORBI 150100Z 09003KT CAVOK 07/03 Q1018 NOSIG,ORBI,2019-01-15T01:00:00Z,33.27,44.23,7.0,3.0,90,3,,6.21,30.059055,,,,,,TRUE,,,,,CAVOK,,,,,,,,VFR,,,,,,,,,,,,METAR,35.0
TBPB 150100Z 07011KT 9999 FEW018 25/20 Q1016 NOSIG,TBPB,2019-01-15T01:00:00Z,13.07,-59.48,25.0,20.0,70,11,,6.21,30.0,,,,,,TRUE,,,,,FEW,1800,,,,,,,VFR,,,,,,,,,,,,METAR,52.0
YBUD 150100Z AUTO 10006KT 070V140 9999 // NCD 30/19 Q1015,YBUD,2019-01-15T01:00:00Z,-24.9,152.32,30.0,19.0,100,6,,6.21,29.970472,,,TRUE,,,,,,,,CLR,,,,,,,,VFR,,,,,,,,,,,,METAR,82.0
YBWP 150100Z AUTO 12006KT 9999 // SCT026 31/21 Q1008,YBWP,2019-01-15T01:00:00Z,-12.68,141.92,31.0,21.0,120,6,,6.21,29.763779,,,TRUE,,,,,,,,SCT,2600,,,,,,,VFR,,,,,,,,,,,,METAR,12.0
YBWX 150100Z AUTO 18011KT //// // ////// 30/22 Q1006,YBWX,2019-01-15T01:00:00Z,-20.88,115.4,30.0,22.0,180,11,,,29.704725,,,TRUE,,,,,,,,,,,,,,,,,,,,,,,,,,,,METAR,6.0
YCAR 150100Z AUTO 18020KT 9999 // OVC020 24/18 Q1010,YCAR,2019-01-15T01:00:00Z,-24.88,113.67,24.0,18.0,180,20,,6.21,29.822834,,,TRUE,,,,,,,,OVC,2000,,,,,,,MVFR,,,,,,,,,,,,METAR,8.0
YCBA 150100Z AUTO 32013KT 9999 // NCD 40/07 Q1013,YCBA,2019-01-15T01:00:00Z,-31.53,145.8,40.0,7.0,320,13,,6.21,29.911417,,,TRUE,,,,,,,,CLR,,,,,,,,VFR,,,,,,,,,,,,METAR,221.0
YCAS 150100Z AUTO 03004KT 360V110 //// // ////// 31/16 Q1015,YCAS,2019-01-15T01:00:00Z,-28.88,153.07,31.0,16.0,30,4,,,29.970472,,,TRUE,,,,,,,,,,,,,,,,,,,,,,,,,,,,METAR,26.0
YCBB 150100Z AUTO 32010KT 9999 // NCD 34/09 Q1017,YCBB,2019-01-15T01:00:00Z,-31.33,149.27,34.0,9.0,320,10,,6.21,30.029528,,,TRUE,,,,,,,,CLR,,,,,,,,VFR,,,,,,,,,,,,METAR,645.0
YCCY 150100Z AUTO 35011KT 310V030 9999 // SCT058 36/17 Q1011,YCCY,2019-01-15T01:00:00Z,-20.67,140.5,36.0,17.0,350,11,,6.21,29.852362,,,TRUE,,,,,,,,SCT,5800,,,,,,,VFR,,,,,,,,,,,,METAR,570.0
LBPL 150100Z 25016KT 9999 FEW100 02/M02 Q1003,LBPL,2019-01-15T01:00:00Z,43.45,24.5,2.0,-2.0,250,16,,6.21,29.616142,,,,,,,,,,,FEW,10000,,,,,,,VFR,,,,,,,,,,,,METAR,101.0
SKBO 150100Z 05005KT 9999 SCT020 SCT070 14/09 A3032,SKBO,2019-01-15T01:00:00Z,4.7,-74.12,14.0,9.0,50,5,,6.21,30.318897,,,,,,,,,,,SCT,2000,SCT,7000,,,,,VFR,,,,,,,,,,,,METAR,2548.0
OMAL 150100Z 11005KT CAVOK 19/14 Q1019 NOSIG,OMAL,2019-01-15T01:00:00Z,24.25,55.6,19.0,14.0,110,5,,6.21,30.088583,,,,,,TRUE,,,,,CAVOK,,,,,,,,VFR,,,,,,,,,,,,METAR,262.0
OMDB 150100Z 09006KT 070V130 CAVOK 21/16 Q1018 NOSIG,OMDB,2019-01-15T01:00:00Z,25.25,55.37,21.0,16.0,90,6,,6.21,30.059055,,,,,,TRUE,,,,,CAVOK,,,,,,,,VFR,,,,,,,,,,,,METAR,5.0
OMDW 150100Z 07006KT CAVOK 16/14 Q1019 NOSIG,OMDW,2019-01-15T01:00:00Z,24.9,55.17,16.0,14.0,70,6,,6.21,30.088583,,,,,,TRUE,,,,,CAVOK,,,,,,,,VFR,,,,,,,,,,,,METAR,25.0
OMFJ 150100Z 31005KT 7000 NSC 21/16 Q1019 RMK A3010,OMFJ,2019-01-15T01:00:00Z,25.1,56.32,21.0,16.0,310,5,,4.35,30.088583,,,,,,,,,,,CLR,,,,,,,,MVFR,,,,,,,,,,,,SPECI,28.0
OMSJ 150100Z 11003KT CAVOK 17/14 Q1019,OMSJ,2019-01-15T01:00:00Z,25.32,55.52,17.0,14.0,110,3,,6.21,30.088583,,,,,,,,,,,CAVOK,,,,,,,,VFR,,,,,,,,,,,,METAR,33.0
OMRK 150100Z VRB02KT CAVOK 16/14 Q1019 A3009,OMRK,2019-01-15T01:00:00Z,25.62,55.92,16.0,14.0,0,2,,6.21,30.088583,,,,,,,,,,,CAVOK,,,,,,,,VFR,,,,,,,,,,,,METAR,31.0
AGGH 150100Z 05006KT 9999 FEW020 SCT300 31/24 Q1005,AGGH,2019-01-15T01:00:00Z,-9.42,160.05,31.0,24.0,50,6,,6.21,29.675198,,,,,,,,,,,FEW,2000,SCT,30000,,,,,VFR,,,,,,,,,,,,METAR,9.0
FSIA 150100Z VRB02KT 9999 FEW018 26/23 Q1010 NOSIG,FSIA,2019-01-15T01:00:00Z,-4.67,55.52,26.0,23.0,0,2,,6.21,29.822834,,,,,,TRUE,,,,,FEW,1800,,,,,,,VFR,,,,,,,,,,,,METAR,3.0
CWRX 150100Z AUTO 36006KT ////SM //// NCD M32/M35 A2979,CWRX,2019-01-15T01:00:00Z,69.07,-79.02,-32.0,-35.0,360,6,,,29.790354,,,TRUE,,,,,,,,CLR,,,,,,,,,,,,,,,,,,,,METAR,41.0
CWLY 150100Z AUTO 01009G24KT 9SM CLR 00/M04 A3018 RMK SLP232,CWLY,2019-01-15T01:00:00Z,50.22,-121.58,0.0,-4.0,10,9,24,9.0,30.180119,1023.2,,TRUE,,,,,,,,CLR,,,,,,,,VFR,,,,,,,,,,,,METAR,229.0
CWLI 150100Z AUTO 08018KT ////SM //// FEW043 BKN065 OVC075 M23/M25 A////,CWLI,2019-01-15T01:00:00Z,69.58,-130.9,-23.0,-25.0,80,18,,,,,,TRUE,,,,,,,,FEW,4300,BKN,6500,OVC,7500,,,,,,,,,,,,,,,METAR,102.0
CYOY 150100Z 25003KT 230V290 15SM OVC110 M14/M16 A3010 RMK AC8 DA-3108FT MOON DIMLY VISBL LAST STFD OBS/NEXT 151200 UTC SLP214,CYOY,2019-01-15T01:00:00Z,46.88,-71.5,-14.0,-16.0,250,3,,15.0,30.100393,1021.4,,,,,,,,,,OVC,11000,,,,,,,VFR,,,,,,,,,,,,METAR,168.0
TVSA 150100Z 06010KT 030V100 9999 BKN018 25/21 Q1016 ,TVSA,2019-01-15T01:00:00Z,13.15,-61.15,25.0,21.0,60,10,,6.21,30.0,,,,,,,,,,,BKN,1800,,,,,,,MVFR,,,,,,,,,,,,METAR,17.0
OMAD 150100Z VRB01KT CAVOK 19/15 Q1018 NOSIG,OMAD,2019-01-15T01:00:00Z,24.42,54.47,19.0,15.0,0,1,,6.21,30.059055,,,,,,TRUE,,,,,CAVOK,,,,,,,,VFR,,,,,,,,,,,,METAR,3.0
OMAA 150100Z 10004KT CAVOK 18/14 Q1017 NOSIG,OMAA,2019-01-15T01:00:00Z,24.42,54.63,18.0,14.0,100,4,,6.21,30.029528,,,,,,TRUE,,,,,CAVOK,,,,,,,,VFR,,,,,,,,,,,,METAR,27.0
NFTV 150100Z 10008KT 9999 SCT017 BKN110 30/25 Q1007,NFTV,2019-01-15T01:00:00Z,-18.58,-173.97,30.0,25.0,100,8,,6.21,29.734253,,,,,,,,,,,SCT,1700,BKN,11000,,,,,VFR,,,,,,,,,,,,METAR,71.0
SBPL 150100Z 18003KT CAVOK 27/19 Q1014,SBPL,2019-01-15T01:00:00Z,-9.37,-40.57,27.0,19.0,180,3,,6.21,29.940945,,,,,,,,,,,CAVOK,,,,,,,,VFR,,,,,,,,,,,,METAR,375.0
LQSA 150100Z 04006KT 5000 -SN SCT025 BKN050 M01/M01 Q1011,LQSA,2019-01-15T01:00:00Z,43.82,18.32,-1.0,-1.0,40,6,,3.11,29.852362,,,,,,,,,,-SN,SCT,2500,BKN,5000,,,,,MVFR,,,,,,,,,,,,METAR,511.0
LQMO 150100Z VRB03KT 8000 2700SE NSC M02/M02 Q1008,LQMO,2019-01-15T01:00:00Z,43.28,17.83,-2.0,-2.0,0,3,,4.97,29.763779,,,,,,,,,,,CLR,,,,,,,,MVFR,,,,,,,,,,,,METAR,48.0
NFTL 150100Z 09005KT 9999 FEW018 29/25 Q1007,NFTL,2019-01-15T01:00:00Z,-19.78,-174.33,29.0,25.0,90,5,,6.21,29.734253,,,,,,,,,,,FEW,1800,,,,,,,VFR,,,,,,,,,,,,METAR,3.0
NFTF 150100Z 08006KT 9999 FEW016 SCT100 31/25 Q1008,NFTF,2019-01-15T01:00:00Z,-21.23,-175.15,31.0,25.0,80,6,,6.21,29.763779,,,,,,,,,,,FEW,1600,SCT,10000,,,,,VFR,,,,,,,,,,,,METAR,38.0
CYTH 150100Z 08003KT 060V120 1 1/4SM -SN OVC012 M21/M24 A3005 RMK SC8 VIS VRB 3/4 - 1 3/4 SLP208,CYTH,2019-01-15T01:00:00Z,55.78,-97.87,-21.0,-24.0,80,3,,1.25,30.050198,1020.8,,,,,,,,,-SN,OVC,1200,,,,,,,IFR,,,,,,,,,,,,METAR,218.0
CYSM 150100Z 35006KT 15SM SKC M24/M27 A3033 RMK FROIN SLP301,CYSM,2019-01-15T01:00:00Z,60.03,-111.97,-24.0,-27.0,350,6,,15.0,30.33071,1030.1,,,,,,,,,,SKC,,,,,,,,VFR,,,,,,,,,,,,METAR,203.0
SBRP 150100Z 00000KT CAVOK 27/20 Q1015,SBRP,2019-01-15T01:00:00Z,-21.12,-47.77,27.0,20.0,0,0,,6.21,29.970472,,,,,,,,,,,CAVOK,,,,,,,,VFR,,,,,,,,,,,,METAR,549.0
TAPA 150100Z 08008KT 9999 FEW020 24/19 Q1017 NOSIG,TAPA,2019-01-15T01:00:00Z,17.12,-61.78,24.0,19.0,80,8,,6.21,30.029528,,,,,,TRUE,,,,,FEW,2000,,,,,,,VFR,,,,,,,,,,,,METAR,14.0
SKCG 150100Z 03011KT CAVOK 26/23 A2983,SKCG,2019-01-15T01:00:00Z,10.43,-75.52,26.0,23.0,30,11,,6.21,29.828741,,,,,,,,,,,CAVOK,,,,,,,,VFR,,,,,,,,,,,,METAR,1.0
UWOR 150100Z 28004MPS 3800 -SN OVC023 M11/M13 Q1013 R25/490145 NOSIG RMK QFE736/0981,UWOR,2019-01-15T01:00:00Z,51.07,58.6,-11.0,-13.0,280,8,,2.36,29.911417,,,,,,TRUE,,,,-SN,OVC,2300,,,,,,,IFR,,,,,,,,,,,,METAR,277.0
UWSS 150100Z 18004G09MPS 1300 R12/1800 SN BLSN OVC003 M04/M05 Q1005 R12/490140 NOSIG RMK QFE742,UWSS,2019-01-15T01:00:00Z,51.57,46.07,-4.0,-5.0,180,8,17,0.81,29.675198,,,,,,TRUE,,,,BLSN SN,OVC,300,,,,,,,LIFR,,,,,,,,,,,,METAR,166.0
UWLW 150100Z 17008MPS 5000 -SN BKN010 OVC030 M07/M09 Q1006 R20/820550 NOSIG RMK QFE749,UWLW,2019-01-15T01:00:00Z,54.4,48.8,-7.0,-9.0,170,16,,3.11,29.704725,,,,,,TRUE,,,,-SN,BKN,1000,OVC,3000,,,,,MVFR,,,,,,,,,,,,METAR,66.0
SMJP 150100Z 09004KT 9999 SCT035 25/23 Q1014 NOSIG,SMJP,2019-01-15T01:00:00Z,5.45,-55.17,25.0,23.0,90,4,,6.21,29.940945,,,,,,TRUE,,,,,SCT,3500,,,,,,,VFR,,,,,,,,,,,,METAR,16.0
NGTA 150100Z 15011KT 9999 FEW017CB SCT018TCU BKN300 29/25 Q1007 RMK CB TOP AT SE,NGTA,2019-01-15T01:00:00Z,1.37,173.13,29.0,25.0,150,11,,6.21,29.734253,,,,,,,,,,,FEW,1700,SCT,1800,BKN,30000,,,VFR,,,,,,,,,,,,METAR,2.0
MKJS 150100Z 11005KT 9999 SCT022 26/22 Q1016,MKJS,2019-01-15T01:00:00Z,18.5,-77.92,26.0,22.0,110,5,,6.21,30.0,,,,,,,,,,,SCT,2200,,,,,,,VFR,,,,,,,,,,,,METAR,1.0
RPLL 150100Z 09006KT 9999 FEW025 28/20 Q1014 NOSIG RMK A2994,RPLL,2019-01-15T01:00:00Z,14.52,121.0,28.0,20.0,90,6,,6.21,29.940945,,,,,,TRUE,,,,,FEW,2500,,,,,,,VFR,,,,,,,,,,,,METAR,21.0
RPLB 150100Z 06011KT 9999 FEW020 BKN300 28/18 Q1015 NOSIG RMK A2997,RPLB,2019-01-15T01:00:00Z,14.8,120.27,28.0,18.0,60,11,,6.21,29.970472,,,,,,TRUE,,,,,FEW,2000,BKN,30000,,,,,VFR,,,,,,,,,,,,METAR,17.0
RPLI 150100Z 11004KT 9999 FEW018 26/20 Q1014 NOSIG RMK A2994,RPLI,2019-01-15T01:00:00Z,18.17,120.52,26.0,20.0,110,4,,6.21,29.940945,,,,,,TRUE,,,,,FEW,1800,,,,,,,VFR,,,,,,,,,,,,METAR,5.0
RPMD 150100Z 34010KT 9999 FEW016 SCT290 26/23 Q1012 RMK A2988,RPMD,2019-01-15T01:00:00Z,7.12,125.65,26.0,23.0,340,10,,6.21,29.88189,,,,,,,,,,,FEW,1600,SCT,29000,,,,,VFR,,,,,,,,,,,,METAR,18.0
RPMZ 150100Z 06006KT 9999 FEW017 29/21 Q1011 RMK A2985,RPMZ,2019-01-15T01:00:00Z,6.92,122.07,29.0,21.0,60,6,,6.21,29.852362,,,,,,,,,,,FEW,1700,,,,,,,VFR,,,,,,,,,,,,METAR,6.0
VEGY 150100Z 16007KT 1400 MIFG NSC 08/04 Q1017,VEGY,2019-01-15T01:00:00Z,24.75,84.95,8.0,4.0,160,7,,0.87,30.029528,,,,,,,,,,MIFG,CLR,,,,,,,,LIFR,,,,,,,,,,,,METAR,116.0
VOBM 150100Z 00000KT 6000 NSC 15/07 Q1018,VOBM,2019-01-15T01:00:00Z,15.85,74.62,15.0,7.0,0,0,,3.73,30.059055,,,,,,,,,,,CLR,,,,,,,,MVFR,,,,,,,,,,,,METAR,758.0
VEJS 150100Z 00000KT 1000 BR FEW020 13/10 Q1017,VEJS,2019-01-15T01:00:00Z,22.82,86.17,13.0,10.0,0,0,,0.62,30.029528,,,,,,,,,,BR,FEW,2000,,,,,,,LIFR,,,,,,,,,,,,METAR,142.0
CYBR 150100Z 22008KT 12SM BKN091 M07/M09 A3007 RMK AC7 SLP216,CYBR,2019-01-15T01:00:00Z,49.92,-99.95,-7.0,-9.0,220,8,,12.0,30.070866,1021.6,,,,,,,,,,BKN,9100,,,,,,,VFR,,,,,,,,,,,,METAR,409.0
VEAT 150100Z 00000KT 1000 MIFG NSC 10/10 Q1016 BECMG 0800 FG,VEAT,2019-01-15T01:00:00Z,23.87,91.25,10.0,10.0,0,0,,0.62,30.0,,,,,,,,,,MIFG,CLR,,,,,,,,LIFR,,,,,,,,,,,,METAR,16.0
LYVR 150100Z 32007KT CAVOK 01/M04 Q1008 R01/////// NOSIG,LYVR,2019-01-15T01:00:00Z,45.13,21.32,1.0,-4.0,320,7,,6.21,29.763779,,,,,,TRUE,,,,,CAVOK,,,,,,,,VFR,,,,,,,,,,,,METAR,85.0
CYBG 150100Z 00000KT 25SM -SN OVC034 M11/M14 A3005 RMK SC8 SLP192,CYBG,2019-01-15T01:00:00Z,48.33,-70.98,-11.0,-14.0,0,0,,25.0,30.050198,1019.2,,,,,,,,,-SN,OVC,3400,,,,,,,VFR,,,,,,,,,,,,METAR,159.0
CYEG 150100Z 29009KT 20SM SCT260 M01/M05 A3003 RMK CI3 SLP216,CYEG,2019-01-15T01:00:00Z,53.28,-113.57,-1.0,-5.0,290,9,,20.0,30.029528,1021.6,,,,,,,,,,SCT,26000,,,,,,,VFR,,,,,,,,,,,,METAR,723.0
RKSS 150100Z 33007KT 2000 BR SCT020 M00/M05 Q1024 NOSIG,RKSS,2019-01-15T01:00:00Z,37.53,126.78,0.0,-5.0,330,7,,1.24,30.236221,,,,,,TRUE,,,,BR,SCT,2000,,,,,,,IFR,,,,,,,,,,,,METAR,19.0
RKPC 150100Z 32008KT 280V350 5000 HZ SCT035 BKN100 08/01 Q1024 NOSIG,RKPC,2019-01-15T01:00:00Z,33.5,126.48,8.0,1.0,320,8,,3.11,30.236221,,,,,,TRUE,,,,HZ,SCT,3500,BKN,10000,,,,,MVFR,,,,,,,,,,,,METAR,27.0
RKPK 150100Z 32003KT 6000 NSC 05/M04 Q1022,RKPK,2019-01-15T01:00:00Z,35.17,128.92,5.0,-4.0,320,3,,3.73,30.177166,,,,,,,,,,,CLR,,,,,,,,MVFR,,,,,,,,,,,,METAR,15.0
ORER 150100Z 14006KT 7000 BKN035 10/04 Q1020 NOSIG,ORER,2019-01-15T01:00:00Z,36.23,43.97,10.0,4.0,140,6,,4.35,30.11811,,,,,,TRUE,,,,,BKN,3500,,,,,,,MVFR,,,,,,,,,,,,METAR,409.0
ORNI 150100Z 00000KT 7000 NSC 08/03 Q1018 NOSIG,ORNI,2019-01-15T01:00:00Z,31.98,44.4,8.0,3.0,0,0,,4.35,30.059055,,,,,,TRUE,,,,,CLR,,,,,,,,MVFR,,,,,,,,,,,,METAR,53.0
SBFI 150100Z 12009KT 9999 TS SCT030 FEW040CB BKN100 24/22 Q1013,SBFI,2019-01-15T01:00:00Z,-25.6,-54.48,24.0,22.0,120,9,,6.21,29.911417,,,,,,,,,,TS,SCT,3000,FEW,4000,BKN,10000,,,VFR,,,,,,,,,,,,METAR,243.0
UKDE 150100Z 17005MPS 130V210 9000 OVC005 01/01 Q0997 R20L/620550 NOSIG,UKDE,2019-01-15T01:00:00Z,47.87,35.32,1.0,1.0,170,10,,5.59,29.438976,,,,,,TRUE,,,,,OVC,500,,,,,,,IFR,,,,,,,,,,,,METAR,113.0
MPTO 150100Z 33007KT 9999 SCT020 27/21 Q1012 NOSIG,MPTO,2019-01-15T01:00:00Z,9.05,-79.37,27.0,21.0,330,7,,6.21,29.88189,,,,,,TRUE,,,,,SCT,2000,,,,,,,VFR,,,,,,,,,,,,METAR,45.0
GMMB 150100Z AUTO 06002KT //// R32/P2000N ////// 07/07 Q1022 NOSIG,GMMB,2019-01-15T01:00:00Z,33.65,-7.22,7.0,7.0,60,2,,1.24,30.177166,,,TRUE,,,TRUE,,,,,,,,,,,,,,,,,,,,,,,,,METAR,191.0
LKPD 150100Z 28015KT 9999 OVC040 M00/M06 Q1010 RMK BLU,LKPD,2019-01-15T01:00:00Z,50.02,15.73,0.0,-6.0,280,15,,6.21,29.822834,,,,,,,,,,,OVC,4000,,,,,,,VFR,,,,,,,,,,,,METAR,226.0
LKNA 150100Z 30021KT 9999 SCT031 M02/M07 Q1009 RMK BLU,LKNA,2019-01-15T01:00:00Z,49.17,16.12,-2.0,-7.0,300,21,,6.21,29.793306,,,,,,,,,,,SCT,3100,,,,,,,VFR,,,,,,,,,,,,METAR,472.0
LKLN 150100Z AUTO 24005KT 210V290 9999 BKN029 BKN039 M00/M04 Q1014,LKLN,2019-01-15T01:00:00Z,49.68,13.27,0.0,-4.0,240,5,,6.21,29.940945,,,TRUE,,,,,,,,BKN,2900,BKN,3900,,,,,MVFR,,,,,,,,,,,,METAR,362.0
LKKB 150100Z 25012KT 9999 BKN049 00/M06 Q1011,LKKB,2019-01-15T01:00:00Z,50.12,14.53,0.0,-6.0,250,12,,6.21,29.852362,,,,,,,,,,,BKN,4900,,,,,,,VFR,,,,,,,,,,,,METAR,286.0
LKCV 150100Z 28018KT 9999 BKN044 M00/M05 Q1011 NOSIG RMK BLU BLU,LKCV,2019-01-15T01:00:00Z,49.93,15.38,0.0,-5.0,280,18,,6.21,29.852362,,,,,,TRUE,,,,,BKN,4400,,,,,,,VFR,,,,,,,,,,,,METAR,242.0
RPMR 150100Z 04010KT 9999 FEW015 BKN080 29/21 Q1012 NOSIG RMK A2988,RPMR,2019-01-15T01:00:00Z,6.05,125.1,29.0,21.0,40,10,,6.21,29.88189,,,,,,TRUE,,,,,FEW,1500,BKN,8000,,,,,VFR,,,,,,,,,,,,METAR,154.0
RPVD 150100Z 04012KT 9999 FEW015CB SCT080 29/22 Q1012 RMK A2988 CB SW/W,RPVD,2019-01-15T01:00:00Z,9.33,123.3,29.0,22.0,40,12,,6.21,29.88189,,,,,,,,,,,FEW,1500,SCT,8000,,,,,VFR,,,,,,,,,,,,METAR,8.0
RPVP 150100Z 09016KT 9999 FEW019 BKN250 28/23 Q1012 RMK A2988,RPVP,2019-01-15T01:00:00Z,9.75,118.72,28.0,23.0,90,16,,6.21,29.88189,,,,,,,,,,,FEW,1900,BKN,25000,,,,,VFR,,,,,,,,,,,,METAR,16.0
RPLC 150100Z 35004KT 9999 FEW020 BKN100 26/19 Q1016 NOSIG RMK A3000,RPLC,2019-01-15T01:00:00Z,15.17,120.58,26.0,19.0,350,4,,6.21,30.0,,,,,,TRUE,,,,,FEW,2000,BKN,10000,,,,,VFR,,,,,,,,,,,,METAR,196.0
OIMT 150100Z AUTO 07004KT //// // ////// 11/M03 Q1013,OIMT,2019-01-15T01:00:00Z,33.67,56.92,11.0,-3.0,70,4,,,29.911417,,,TRUE,,,,,,,,,,,,,,,,,,,,,,,,,,,,METAR,711.0
OIMN 150100Z 24004KT 7000 BKN040 BKN070 05/03 Q1013,OIMN,2019-01-15T01:00:00Z,37.48,57.3,5.0,3.0,240,4,,4.35,29.911417,,,,,,,,,,,BKN,4000,BKN,7000,,,,,MVFR,,,,,,,,,,,,METAR,1074.0
OIFS 150100Z 23016KT 9000 SHRA FEW030CB SCT035 BKN080 05/02 Q1019,OIFS,2019-01-15T01:00:00Z,32.32,50.85,5.0,2.0,230,16,,5.59,30.088583,,,,,,,,,,SHRA,FEW,3000,SCT,3500,BKN,8000,,,VFR,,,,,,,,,,,,METAR,2078.0
RKNY 150100Z 26019KT 4500 HZ FEW035 03/M09 Q1018 NOSIG,RKNY,2019-01-15T01:00:00Z,38.07,128.67,3.0,-9.0,260,19,,2.8,30.059055,,,,,,TRUE,,,,HZ,FEW,3500,,,,,,,IFR,,,,,,,,,,,,METAR,74.0
RKJB 150100Z 32005KT 4000 BR FEW030 05/01 Q1024 BECMG 6000 NSW,RKJB,2019-01-15T01:00:00Z,34.98,126.38,5.0,1.0,320,5,,2.49,30.236221,,,,,,,,,,BR,FEW,3000,,,,,,,IFR,,,,,,,,,,,,METAR,2.0
RKTN 150100Z 32012KT 6000 NSC 05/M04 Q1022,RKTN,2019-01-15T01:00:00Z,35.88,128.65,5.0,-4.0,320,12,,3.73,30.177166,,,,,,,,,,,CLR,,,,,,,,MVFR,,,,,,,,,,,,METAR,35.0
OLBA 150100Z 19017KT 8000 BKN026 14/07 Q1015 NOSIG,OLBA,2019-01-15T01:00:00Z,33.82,35.47,14.0,7.0,190,17,,4.97,29.970472,,,,,,TRUE,,,,,BKN,2600,,,,,,,MVFR,,,,,,,,,,,,METAR,19.0
SBSV 150100Z 10009KT 9999 SCT020 28/24 Q1015,SBSV,2019-01-15T01:00:00Z,-12.9,-38.32,28.0,24.0,100,9,,6.21,29.970472,,,,,,,,,,,SCT,2000,,,,,,,VFR,,,,,,,,,,,,METAR,6.0
SVMI 150100Z 00000KT 9999 FEW016 25/23 Q1010,SVMI,2019-01-15T01:00:00Z,10.58,-67.0,25.0,23.0,0,0,,6.21,29.822834,,,,,,,,,,,FEW,1600,,,,,,,VFR,,,,,,,,,,,,METAR,48.0
MHCA 150100Z 08004KT 9999 SCT028 22/19 Q1018,MHCA,2019-01-15T01:00:00Z,14.9,-85.78,22.0,19.0,80,4,,6.21,30.059055,,,,,,,,,,,SCT,2800,,,,,,,VFR,,,,,,,,,,,,METAR,442.0
MGGT 150100Z 01018KT 9999 SCT015 16/13 Q1026 A3030 FEW080,MGGT,2019-01-15T01:00:00Z,14.57,-90.53,16.0,13.0,10,18,,6.21,30.295275,,,,,,,,,,,SCT,1500,FEW,8000,,,,,VFR,,,,,,,,,,,,METAR,1509.0
CYBN 150100Z AUTO 27007KT 250V310 9SM OVC022 OVC055 M03/M07 A3017 RMK SLP234,CYBN,2019-01-15T01:00:00Z,44.27,-79.92,-3.0,-7.0,270,7,,9.0,30.171259,1023.4,,TRUE,,,,,,,,OVC,2200,OVC,5500,,,,,MVFR,,,,,,,,,,,,METAR,223.0
OEAH 150100Z 00000KT CAVOK 12/04 Q1016 NOSIG,OEAH,2019-01-15T01:00:00Z,25.27,49.47,12.0,4.0,0,0,,6.21,30.0,,,,,,TRUE,,,,,CAVOK,,,,,,,,VFR,,,,,,,,,,,,METAR,172.0
SBRB 150100Z 16002KT 9000 TS VCSH SCT020 FEW025CB SCT100 25/21 Q1011,SBRB,2019-01-15T01:00:00Z,-10.0,-67.78,25.0,21.0,160,2,,5.59,29.852362,,,,,,,,,,TS VCSH,SCT,2000,FEW,2500,SCT,10000,,,VFR,,,,,,,,,,,,METAR,143.0
GVAC 150100Z 04009KT 9999 FEW014 21/15 Q1017 NOSIG,GVAC,2019-01-15T01:00:00Z,16.72,-22.93,21.0,15.0,40,9,,6.21,30.029528,,,,,,TRUE,,,,,FEW,1400,,,,,,,VFR,,,,,,,,,,,,METAR,55.0
SBPV 150100Z 12004KT 9999 FEW020 SCT100 26/23 Q1011,SBPV,2019-01-15T01:00:00Z,-8.72,-63.9,26.0,23.0,120,4,,6.21,29.852362,,,,,,,,,,,FEW,2000,SCT,10000,,,,,VFR,,,,,,,,,,,,METAR,88.0
UUBC 150100Z AUTO 15006MPS 6000 // ///008/// M01/M02 Q0986 RMK QFE722/0963,UUBC,2019-01-15T01:00:00Z,54.55,36.37,-1.0,-2.0,150,12,,3.73,29.114174,,,TRUE,,,,,,,,,,,,,,,,,,,,,,,,,,,,METAR,199.0
URMN 150100Z 00000MPS 0500 R24/0650 FZFG VV001 M02/M02 Q1003 R24/////// NOSIG RMK QBB050 MT OBSC OBST OBSC QFE716,URMN,2019-01-15T01:00:00Z,43.52,43.63,-2.0,-2.0,0,0,,0.31,29.616142,,,,,,TRUE,,,,FZFG,OVX,0,,,,,,,LIFR,,,,,,,,,,,100,METAR,445.0
LEAB 150100Z 14005KT CAVOK M00/M02 Q1021 NOSIG,LEAB,2019-01-15T01:00:00Z,38.95,-1.85,0.0,-2.0,140,5,,6.21,30.147638,,,,,,TRUE,,,,,CAVOK,,,,,,,,VFR,,,,,,,,,,,,METAR,704.0
BIRK 150100Z 24025KT 8000 BKN015 BKN025 OVC038 01/M00 Q0990,BIRK,2019-01-15T01:00:00Z,64.13,-21.93,1.0,0.0,240,25,,4.97,29.232283,,,,,,,,,,,BKN,1500,BKN,2500,OVC,3800,,,MVFR,,,,,,,,,,,,METAR,61.0
BIEG 150100Z 04007KT 9999 SCT027 BKN055 OVC070 M01/M04 Q0993 R04/750195,BIEG,2019-01-15T01:00:00Z,65.27,-14.4,-1.0,-4.0,40,7,,6.21,29.320866,,,,,,,,,,,SCT,2700,BKN,5500,OVC,7000,,,VFR,,,,,,,,,,,,METAR,38.0
BIAR 150100Z 20003KT 180V240 9999 -SG FEW057 M05/M05 Q0991,BIAR,2019-01-15T01:00:00Z,65.67,-18.07,-5.0,-5.0,200,3,,6.21,29.26181,,,,,,,,,,-SG,FEW,5700,,,,,,,VFR,,,,,,,,,,,,METAR,27.0
FAPP 150100Z AUTO 02002KT //// // ////// 21/19 Q1016,FAPP,2019-01-15T01:00:00Z,-23.83,29.45,21.0,19.0,20,2,,,30.0,,,TRUE,,,,,,,,,,,,,,,,,,,,,,,,,,,,METAR,1242.0
LEMI 150100Z AUTO 36004KT 9999 NCD 09/01 Q1020,LEMI,2019-01-15T01:00:00Z,,,9.0,1.0,360,4,,6.21,30.11811,,,TRUE,,,,,,,,CLR,,,,,,,,VFR,,,,,,,,,,,,METAR,
FQQL 150100Z 06005KT 9999 BKN020 BKN100 25/24 Q1010,FQQL,2019-01-15T01:00:00Z,-17.87,36.87,25.0,24.0,60,5,,6.21,29.822834,,,,,,,,,,,BKN,2000,BKN,10000,,,,,MVFR,,,,,,,,,,,,METAR,16.0
FAUT 150100Z AUTO 12006KT //// // ////// 20/19 Q1015,FAUT,2019-01-15T01:00:00Z,-31.52,28.67,20.0,19.0,120,6,,,29.970472,,,TRUE,,,,,,,,,,,,,,,,,,,,,,,,,,,,METAR,732.0
FQTT 150100Z 06004KT 040V100 9999 SCT020 FEW025CB SCT100 25/24 Q1010 RMK CB TO NE/S,FQTT,2019-01-15T01:00:00Z,-16.1,33.62,25.0,24.0,60,4,,6.21,29.822834,,,,,,,,,,,SCT,2000,FEW,2500,SCT,10000,,,VFR,,,,,,,,,,,,METAR,160.0
FAPE 150100Z 25007KT 9999 FEW025 18/16 Q1014 NOSIG,FAPE,2019-01-15T01:00:00Z,-33.97,25.6,18.0,16.0,250,7,,6.21,29.940945,,,,,,TRUE,,,,,FEW,2500,,,,,,,VFR,,,,,,,,,,,,METAR,60.0
FAPN 150100Z AUTO 26014G25KT //// // ////// ///// Q1011,FAPN,2019-01-15T01:00:00Z,-25.33,27.17,,,260,14,25,,29.852362,,,TRUE,,,,,,,,,,,,,,,,,,,,,,,,,,,,METAR,1039.0
FAMM 150100Z AUTO 03009KT //// // ////// 23/15 Q1017,FAMM,2019-01-15T01:00:00Z,-25.8,25.52,23.0,15.0,30,9,,,30.029528,,,TRUE,,,,,,,,,,,,,,,,,,,,,,,,,,,,METAR,1277.0
LETO 150100Z 36002KT CAVOK M01/M03 Q1022 NOSIG,LETO,2019-01-15T01:00:00Z,40.47,-3.47,-1.0,-3.0,360,2,,6.21,30.177166,,,,,,TRUE,,,,,CAVOK,,,,,,,,VFR,,,,,,,,,,,,METAR,608.0
LERT 150100Z 09004KT CAVOK 05/04 Q1021 NOSIG,LERT,2019-01-15T01:00:00Z,36.63,-6.33,5.0,4.0,90,4,,6.21,30.147638,,,,,,TRUE,,,,,CAVOK,,,,,,,,VFR,,,,,,,,,,,,METAR,26.0
SCEL 150100Z 18010KT 9999 SCT170 20/09 Q1015 NOSIG,SCEL,2019-01-15T01:00:00Z,-33.37,-70.77,20.0,9.0,180,10,,6.21,29.970472,,,,,,TRUE,,,,,SCT,17000,,,,,,,VFR,,,,,,,,,,,,METAR,476.0
OPNH 150100Z 31504KT 1500M BR NSC 09/06 Q1021TEMPO 1500 BR- METAR ,OPNH,2019-01-15T01:00:00Z,26.22,68.37,9.0,6.0,315,4,,0.93,,,,,,,,,,,BR BR,CLR,,,,,,,,LIFR,,,,,,,,,,,,METAR,38.0
SBFL 150100Z 01009KT 9999 TS FEW012 BKN030 FEW035CB 28/24 Q1014,SBFL,2019-01-15T01:00:00Z,-27.67,-48.53,28.0,24.0,10,9,,6.21,29.940945,,,,,,,,,,TS,FEW,1200,BKN,3000,FEW,3500,,,MVFR,,,,,,,,,,,,METAR,5.0
SBCY 150100Z 32005KT 9999 FEW030 BKN100 23/22 Q1013,SBCY,2019-01-15T01:00:00Z,-15.65,-56.12,23.0,22.0,320,5,,6.21,29.911417,,,,,,,,,,,FEW,3000,BKN,10000,,,,,VFR,,,,,,,,,,,,METAR,182.0
FIMP 150100Z 10005KT 9999 SCT017 26/23 Q1015,FIMP,2019-01-15T01:00:00Z,-20.42,57.67,26.0,23.0,100,5,,6.21,29.970472,,,,,,,,,,,SCT,1700,,,,,,,VFR,,,,,,,,,,,,METAR,57.0
OPSK 150100Z 00000KT 0800 BR NSC 09/06 Q1020 TEMPO 0500 BR,OPSK,2019-01-15T01:00:00Z,27.72,68.8,9.0,6.0,0,0,,0.5,30.11811,,,,,,,,,,BR,CLR,,,,,,,,LIFR,,,,,,,,,,,,METAR,58.0
LEMO 150100Z 16004KT CAVOK 03/02 Q1021 NOSIG,LEMO,2019-01-15T01:00:00Z,37.17,-5.62,3.0,2.0,160,4,,6.21,30.147638,,,,,,TRUE,,,,,CAVOK,,,,,,,,VFR,,,,,,,,,,,,METAR,88.0
FAUP 150100Z 00000KT CAVOK 23/05 Q1015 NOSIG,FAUP,2019-01-15T01:00:00Z,-28.38,21.27,23.0,5.0,0,0,,6.21,29.970472,,,,,,TRUE,,,,,CAVOK,,,,,,,,VFR,,,,,,,,,,,,METAR,836.0
ZBSJ 150100Z 34005MPS CAVOK M05/M26 Q1041 NOSIG,ZBSJ,2019-01-15T01:00:00Z,38.28,114.7,-5.0,-26.0,340,10,,6.21,30.73819,,,,,,TRUE,,,,,CAVOK,,,,,,,,VFR,,,,,,,,,,,,METAR,71.0
SKSP 150100Z 05011KT 9999 FEW016 27/23 A2995,SKSP,2019-01-15T01:00:00Z,12.57,-81.72,27.0,23.0,50,11,,6.21,29.949802,,,,,,,,,,,FEW,1600,,,,,,,VFR,,,,,,,,,,,,METAR,-2.0
GVNP 150100Z 02017KT 9999 FEW018 21/17 Q1016 NOSIG,GVNP,2019-01-15T01:00:00Z,14.95,-23.48,21.0,17.0,20,17,,6.21,30.0,,,,,,TRUE,,,,,FEW,1800,,,,,,,VFR,,,,,,,,,,,,METAR,70.0
SBCT 150100Z 02005KT 9999 BKN004 BKN080 21/20 Q1021,SBCT,2019-01-15T01:00:00Z,-25.52,-49.17,21.0,20.0,20,5,,6.21,30.147638,,,,,,,,,,,BKN,400,BKN,8000,,,,,LIFR,,,,,,,,,,,,METAR,908.0
GBYD 150100Z 30007KT CAVOK 21/15 Q1012,GBYD,2019-01-15T01:00:00Z,13.33,-16.65,21.0,15.0,300,7,,6.21,29.88189,,,,,,,,,,,CAVOK,,,,,,,,VFR,,,,,,,,,,,,METAR,36.0
CYUB 150100Z 10010KT 15SM FEW027 BKN078 M23/M26 A3050 RMK SC1AC6 SLP331,CYUB,2019-01-15T01:00:00Z,69.45,-133.02,-23.0,-26.0,100,10,,15.0,30.499016,1033.1,,,,,,,,,,FEW,2700,BKN,7800,,,,,VFR,,,,,,,,,,,,METAR,5.0
CWZZ 150100Z AUTO ///// ////SM NCD M20/M22 A2931,CWZZ,2019-01-15T01:00:00Z,58.32,-62.57,-20.0,-22.0,,,,,29.309055,,,TRUE,,,,,,,,CLR,,,,,,,,,,,,,,,,,,,,METAR,483.0
OICM 150100Z AUTO 11002KT //// // ////// 08/06 Q1018,OICM,2019-01-15T01:00:00Z,,,8.0,6.0,110,2,,,30.059055,,,TRUE,,,,,,,,,,,,,,,,,,,,,,,,,,,,METAR,
ZWSH 150100Z 33002MPS 6000 FEW040 M07/M12 Q1024 NOSIG,ZWSH,2019-01-15T01:00:00Z,39.55,76.02,-7.0,-12.0,330,4,,3.73,30.236221,,,,,,TRUE,,,,,FEW,4000,,,,,,,MVFR,,,,,,,,,,,,METAR,1380.0
CYWG 150100Z 19012KT 15SM IC BKN005 OVC093 M11/M13 A3017 RMK SF5AC3 SLP237,CYWG,2019-01-15T01:00:00Z,49.88,-97.22,-11.0,-13.0,190,12,,15.0,30.171259,1023.7,,,,,,,,,IC,BKN,500,OVC,9300,,,,,IFR,,,,,,,,,,,,METAR,239.0
CYVR 150100Z 30004KT 1/4SM R08R/2400FT/N R08L/2000FT/N FG VV002 03/03 A2998 RMK FG8 SLP155,CYVR,2019-01-15T01:00:00Z,49.17,-123.17,3.0,3.0,300,4,,0.25,29.97933,1015.5,,,,,,,,,FG,OVX,0,,,,,,,LIFR,,,,,,,,,,,200,METAR,2.0
VTUL 150100Z VRB02KT 9000 FEW035 SCT080 21/21 Q1015 NOSIG,VTUL,2019-01-15T01:00:00Z,17.43,101.72,21.0,21.0,0,2,,5.59,29.970472,,,,,,TRUE,,,,,FEW,3500,SCT,8000,,,,,VFR,,,,,,,,,,,,METAR,254.0
YMIA 150100Z AUTO 31015KT 9999 // NCD 43/03 Q1007,YMIA,2019-01-15T01:00:00Z,-34.23,142.08,43.0,3.0,310,15,,6.21,29.734253,,,TRUE,,,,,,,,CLR,,,,,,,,VFR,,,,,,,,,,,,METAR,51.0
RJFG 150100Z 31006KT 9999 -RA FEW015 SCT050 BKN060 12/11 Q1021,RJFG,2019-01-15T01:00:00Z,30.62,130.98,12.0,11.0,310,6,,6.21,30.147638,,,,,,,,,,-RA,FEW,1500,SCT,5000,BKN,6000,,,VFR,,,,,,,,,,,,METAR,237.0
FAHS 150100Z AUTO 18002KT //// // ////// 24/22 Q1012,FAHS,2019-01-15T01:00:00Z,-24.37,31.02,24.0,22.0,180,2,,,29.88189,,,TRUE,,,,,,,,,,,,,,,,,,,,,,,,,,,,METAR,500.0
CYTR 150100Z 00000KT 15SM FEW020 BKN120 BKN250 M06/M08 A3020 RMK SC2AC3CI2 SLP235,CYTR,2019-01-15T01:00:00Z,44.12,-77.52,-6.0,-8.0,0,0,,15.0,30.200787,1023.5,,,,,,,,,,FEW,2000,BKN,12000,BKN,25000,,,VFR,,,,,,,,,,,,METAR,86.0
FAKN 150100Z AUTO 09003KT //// // ////// 21/21 Q1016,FAKN,2019-01-15T01:00:00Z,-25.38,31.1,21.0,21.0,90,3,,,30.0,,,TRUE,,,,,,,,,,,,,,,,,,,,,,,,,,,,METAR,862.0
FAKM 150100Z AUTO 24005KT //// // ////// 23/M01 Q1014,FAKM,2019-01-15T01:00:00Z,-28.8,24.77,23.0,-1.0,240,5,,,29.940945,,,TRUE,,,,,,,,,,,,,,,,,,,,,,,,,,,,METAR,1192.0
UBBY 150100Z 09006KT 9999 SCT100 01/M00 Q1014 R33/////// NOSIG RMK MT OP,UBBY,2019-01-15T01:00:00Z,41.57,46.67,1.0,0.0,90,6,,6.21,29.940945,,,,,,TRUE,,,,,SCT,10000,,,,,,,VFR,,,,,,,,,,,,METAR,390.0
FALE 150100Z 18006KT 3500 -DZ SCT002 OVC006 23/23 Q1010 NOSIG,FALE,2019-01-15T01:00:00Z,-29.62,31.12,23.0,23.0,180,6,,2.17,29.822834,,,,,,TRUE,,,,-DZ,SCT,200,OVC,600,,,,,IFR,,,,,,,,,,,,METAR,109.0
FAOR 150100Z 36010KT CAVOK 20/16 Q1020 NOSIG,FAOR,2019-01-15T01:00:00Z,-26.12,28.22,20.0,16.0,360,10,,6.21,30.11811,,,,,,TRUE,,,,,CAVOK,,,,,,,,VFR,,,,,,,,,,,,METAR,1700.0
SBCG 150100Z 07004KT 9999 FEW040 SCT100 24/21 Q1015,SBCG,2019-01-15T01:00:00Z,-20.47,-54.67,24.0,21.0,70,4,,6.21,29.970472,,,,,,,,,,,FEW,4000,SCT,10000,,,,,VFR,,,,,,,,,,,,METAR,567.0
FVRG 150100Z 02005KT CAVOK 19/18 Q1018,FVRG,2019-01-15T01:00:00Z,-17.93,31.1,19.0,18.0,20,5,,6.21,30.059055,,,,,,,,,,,CAVOK,,,,,,,,VFR,,,,,,,,,,,,METAR,1490.0
SBNT 150100Z 15008KT 9999 SCT019 SCT070 27/23 Q1014,SBNT,2019-01-15T01:00:00Z,-5.92,-35.25,27.0,23.0,150,8,,6.21,29.940945,,,,,,,,,,,SCT,1900,SCT,7000,,,,,VFR,,,,,,,,,,,,METAR,49.0
SBCF 150100Z 11007KT CAVOK 24/16 Q1019,SBCF,2019-01-15T01:00:00Z,-19.63,-43.97,24.0,16.0,110,7,,6.21,30.088583,,,,,,,,,,,CAVOK,,,,,,,,VFR,,,,,,,,,,,,METAR,828.0
ZGNN 150100Z 02003MPS 2000 -RA BR FEW002 SCT004 OVC020 12/12 Q1022 NOSIG,ZGNN,2019-01-15T01:00:00Z,22.62,108.17,12.0,12.0,20,6,,1.24,30.177166,,,,,,TRUE,,,,-RA BR,FEW,200,SCT,400,OVC,2000,,,IFR,,,,,,,,,,,,METAR,73.0
ZGKL 150100Z 04002MPS 8000 -RA SCT023 OVC040 07/05 Q1026 NOSIG,ZGKL,2019-01-15T01:00:00Z,25.22,110.03,7.0,5.0,40,4,,4.97,30.295275,,,,,,TRUE,,,,-RA,SCT,2300,OVC,4000,,,,,MVFR,,,,,,,,,,,,METAR,166.0
ZGOW 150100Z 00000MPS 2800 BR FEW006 BKN030 17/17 Q1021 NOSIG,ZGOW,2019-01-15T01:00:00Z,23.55,116.5,17.0,17.0,0,0,,1.74,30.147638,,,,,,TRUE,,,,BR,FEW,600,BKN,3000,,,,,IFR,,,,,,,,,,,,METAR,3.0
ZGSZ 150100Z 00000MPS 1600 -SHRA BR SCT010 BKN023 18/18 Q1020 NOSIG,ZGSZ,2019-01-15T01:00:00Z,22.63,113.8,18.0,18.0,0,0,,0.99,30.11811,,,,,,TRUE,,,,-SHRA BR,SCT,1000,BKN,2300,,,,,LIFR,,,,,,,,,,,,METAR,18.0
ZLXY 150100Z 09005MPS 060V140 CAVOK 01/M15 Q1037 NOSIG,ZLXY,2019-01-15T01:00:00Z,34.43,108.75,1.0,-15.0,90,10,,6.21,30.620079,,,,,,TRUE,,,,,CAVOK,,,,,,,,VFR,,,,,,,,,,,,METAR,479.0
TKPK 150100Z 04008KT 9999 FEW020 24/21 Q1018,TKPK,2019-01-15T01:00:00Z,17.3,-62.72,24.0,21.0,40,8,,6.21,30.059055,,,,,,,,,,,FEW,2000,,,,,,,VFR,,,,,,,,,,,,METAR,48.0
SBMQ 150100Z 28005KT 9999 SCT027 BKN100 27/27 Q1013,SBMQ,2019-01-15T01:00:00Z,0.05,-51.07,27.0,27.0,280,5,,6.21,29.911417,,,,,,,,,,,SCT,2700,BKN,10000,,,,,VFR,,,,,,,,,,,,METAR,15.0
SBSL 150100Z 06004KT 9999 SCT006 BKN017 24/23 Q1014 RETSRA,SBSL,2019-01-15T01:00:00Z,-2.6,-44.22,24.0,23.0,60,4,,6.21,29.940945,,,,,,,,,,,SCT,600,BKN,1700,,,,,MVFR,,,,,,,,,,,,METAR,53.0
ORSU 150100Z 30003KT 3000 BR NSC 03/03 Q1020,ORSU,2019-01-15T01:00:00Z,35.57,45.32,3.0,3.0,300,3,,1.86,30.11811,,,,,,,,,,BR,CLR,,,,,,,,IFR,,,,,,,,,,,,METAR,761.0
MPBO 150100Z VRB02KT 9999 FEW020 Q1016,MPBO,2019-01-15T01:00:00Z,9.35,-82.25,,,0,2,,6.21,30.0,,,,,,,,,,,FEW,2000,,,,,,,VFR,,,,,,,,,,,,METAR,3.0
MPSM 150100Z 33006KT(E) 9999 FEW020 26/20 Q1011,MPSM,2019-01-15T01:00:00Z,8.35,-80.13,26.0,20.0,,,,6.21,29.852362,,,,,,,,,,,FEW,2000,,,,,,,VFR,,,,,,,,,,,,METAR,0.0
CYXX 150100Z 35002KT 30SM SCT220 08/01 A2997 RMK CI3 TR FU S SLP152,CYXX,2019-01-15T01:00:00Z,49.03,-122.38,8.0,1.0,350,2,,30.0,29.970472,1015.2,,,,,,,,,,SCT,22000,,,,,,,VFR,,,,,,,,,,,,METAR,58.0
CYZX 150100Z 00000KT 15SM FEW050 SCT250 M12/M16 A3005 RMK SC2CI2 SLP180,CYZX,2019-01-15T01:00:00Z,44.98,-64.92,-12.0,-16.0,0,0,,15.0,30.050198,1018.0,,,,,,,,,,FEW,5000,SCT,25000,,,,,VFR,,,,,,,,,,,,METAR,28.0
CYZV 150100Z 32004KT 15SM FEW050 SCT110 BKN140 M12/M17 A2998 RMK SC1AC2AC2 SLP160,CYZV,2019-01-15T01:00:00Z,50.22,-66.27,-12.0,-17.0,320,4,,15.0,29.97933,1016.0,,,,,,,,,,FEW,5000,SCT,11000,BKN,14000,,,VFR,,,,,,,,,,,,METAR,55.0
CYZF 150100Z 03005KT 15SM SCT140 M29/M33 A3047 RMK AC3 SLP353,CYZF,2019-01-15T01:00:00Z,62.47,-114.45,-29.0,-33.0,30,5,,15.0,30.469488,1035.3,,,,,,,,,,SCT,14000,,,,,,,VFR,,,,,,,,,,,,METAR,206.0
CYYZ 150100Z 28007KT 15SM FEW120 SCT150 M04/M09 A3019 RMK AC1AC2 SLP234,CYYZ,2019-01-15T01:00:00Z,43.67,-79.62,-4.0,-9.0,280,7,,15.0,30.188976,1023.4,,,,,,,,,,FEW,12000,SCT,15000,,,,,VFR,,,,,,,,,,,,METAR,173.0
CYYT 150100Z 25008KT 15SM OVC017 M05/M07 A3015 RMK SC8 SLP222,CYYT,2019-01-15T01:00:00Z,47.62,-52.72,-5.0,-7.0,250,8,,15.0,30.15059,1022.2,,,,,,,,,,OVC,1700,,,,,,,MVFR,,,,,,,,,,,,METAR,140.0
CYYR 150100Z 26011KT 15SM BKN067 M11/M14 A2983 RMK AC7 SLP107,CYYR,2019-01-15T01:00:00Z,53.32,-60.42,-11.0,-14.0,260,11,,15.0,29.828741,1010.7,,,,,,,,,,BKN,6700,,,,,,,VFR,,,,,,,,,,,,METAR,49.0
CYYQ 150100Z 33010G16KT 15SM IC DRSN SCT220 M27/M30 A3022 RMK CI3 SLP241,CYYQ,2019-01-15T01:00:00Z,58.75,-94.07,-27.0,-30.0,330,10,16,15.0,30.221457,1024.1,,,,,,,,,IC DRSN,SCT,22000,,,,,,,VFR,,,,,,,,,,,,METAR,29.0
CYYJ 150100Z VRB02KT 30SM FEW005 FEW220 04/03 A2997 RMK ST1CI1 ST TR CI TR SLP151,CYYJ,2019-01-15T01:00:00Z,48.63,-123.42,4.0,3.0,0,2,,30.0,29.970472,1015.1,,,,,,,,,,FEW,500,FEW,22000,,,,,VFR,,,,,,,,,,,,METAR,19.0
CYYC 150100Z 33003KT 15SM FEW350 01/M07 A3005 RMK CI1 CI TR SLP231,CYYC,2019-01-15T01:00:00Z,51.12,-114.02,1.0,-7.0,330,3,,15.0,30.050198,1023.1,,,,,,,,,,FEW,35000,,,,,,,VFR,,,,,,,,,,,,METAR,1084.0
MZBZ 150100Z 00000KT 9999 FEW021 BKN048 24/21 A3006 Q1018 NOSIG,MZBZ,2019-01-15T01:00:00Z,17.52,-88.3,24.0,21.0,0,0,,6.21,30.059055,,,,,,TRUE,,,,,FEW,2100,BKN,4800,,,,,VFR,,,,,,,,,,,,METAR,5.0
ZUUU 150100Z 00000MPS 5000 BR NSC 07/03 Q1028 NOSIG,ZUUU,2019-01-15T01:00:00Z,30.58,103.95,7.0,3.0,0,0,,3.11,30.35433,,,,,,TRUE,,,,BR,CLR,,,,,,,,MVFR,,,,,,,,,,,,METAR,508.0
ZUGY 150100Z 01003MPS 5000 BR FEW009 BKN016 OVC023 04/02 Q1025 NOSIG,ZUGY,2019-01-15T01:00:00Z,26.53,106.8,4.0,2.0,10,6,,3.11,30.265747,,,,,,TRUE,,,,BR,FEW,900,BKN,1600,OVC,2300,,,MVFR,,,,,,,,,,,,METAR,1074.0
ZSQD 150100Z 01010MPS CAVOK M01/M06 Q1032 NOSIG,ZSQD,2019-01-15T01:00:00Z,36.27,120.38,-1.0,-6.0,10,19,,6.21,30.47244,,,,,,TRUE,,,,,CAVOK,,,,,,,,VFR,,,,,,,,,,,,METAR,77.0
ZSNB 150100Z 01003MPS 330V040 2000 -RA BR SCT005 BKN016 OVC040 08/08 Q1027 NOSIG,ZSNB,2019-01-15T01:00:00Z,29.83,121.47,8.0,8.0,10,6,,1.24,30.324802,,,,,,TRUE,,,,-RA BR,SCT,500,BKN,1600,OVC,4000,,,IFR,,,,,,,,,,,,METAR,4.0
ZSFZ 150100Z VRB01MPS 6000 OVC023 15/12 Q1022 NOSIG,ZSFZ,2019-01-15T01:00:00Z,25.93,119.67,15.0,12.0,0,2,,3.73,30.177166,,,,,,TRUE,,,,,OVC,2300,,,,,,,MVFR,,,,,,,,,,,,METAR,85.0
ZSAM 150100Z 31002MPS 270V360 5000 -RA BR SCT023 BKN040 17/16 Q1021 NOSIG,ZSAM,2019-01-15T01:00:00Z,24.53,118.13,17.0,16.0,310,4,,3.11,30.147638,,,,,,TRUE,,,,-RA BR,SCT,2300,BKN,4000,,,,,MVFR,,,,,,,,,,,,METAR,18.0
ZPPP 150100Z 06002MPS 020V090 9999 SCT020 BKN040 07/05 Q1022 NOSIG,ZPPP,2019-01-15T01:00:00Z,25.0,102.75,7.0,5.0,60,4,,6.21,30.177166,,,,,,TRUE,,,,,SCT,2000,BKN,4000,,,,,VFR,,,,,,,,,,,,METAR,1892.0
CYMX 150100Z 25005KT 25SM SCT020 BKN160 M12/M15 A3016 RMK SC3AC4 SLP223,CYMX,2019-01-15T01:00:00Z,45.67,-74.02,-12.0,-15.0,250,5,,25.0,30.159449,1022.3,,,,,,,,,,SCT,2000,BKN,16000,,,,,VFR,,,,,,,,,,,,METAR,82.0
CYJT 150100Z 19013KT 15SM OVC024 M05/M09 A3010 RMK SC8 SLP197,CYJT,2019-01-15T01:00:00Z,48.55,-58.57,-5.0,-9.0,190,13,,15.0,30.100393,1019.7,,,,,,,,,,OVC,2400,,,,,,,MVFR,,,,,,,,,,,,METAR,26.0
CYHZ 150100Z 04005KT 15SM FEW300 M11/M13 A3000 RMK CI2 SLP172,CYHZ,2019-01-15T01:00:00Z,44.87,-63.5,-11.0,-13.0,40,5,,15.0,30.0,1017.2,,,,,,,,,,FEW,30000,,,,,,,VFR,,,,,,,,,,,,METAR,145.0
CYGL 150100Z 26009KT 7SM -SN OVC020 M20/M23 A2998 RMK SC8 SLP177,CYGL,2019-01-15T01:00:00Z,53.62,-77.7,-20.0,-23.0,260,9,,7.0,29.97933,1017.7,,,,,,,,,-SN,OVC,2000,,,,,,,MVFR,,,,,,,,,,,,METAR,195.0
SBGO 150100Z 33004KT CAVOK 24/20 Q1018,SBGO,2019-01-15T01:00:00Z,-16.62,-49.22,24.0,20.0,330,4,,6.21,30.059055,,,,,,,,,,,CAVOK,,,,,,,,VFR,,,,,,,,,,,,METAR,747.0
OPMT 150100Z 00000KT 3000 BR SCT120 08/06 Q1018 NOSIG,OPMT,2019-01-15T01:00:00Z,30.18,71.42,8.0,6.0,0,0,,1.86,30.059055,,,,,,TRUE,,,,BR,SCT,12000,,,,,,,IFR,,,,,,,,,,,,METAR,123.0
FAGG 150100Z AUTO 02002KT 9999 OVC027/// 19/16 Q1014,FAGG,2019-01-15T01:00:00Z,-34.0,22.37,19.0,16.0,20,2,,6.21,29.940945,,,TRUE,,,,,,,,OVC,2700,,,,,,,MVFR,,,,,,,,,,,,METAR,193.0
RJKA 150100Z 26004KT 220V310 9999 FEW035 20/11 Q1020,RJKA,2019-01-15T01:00:00Z,28.42,129.72,20.0,11.0,260,4,,6.21,30.11811,,,,,,,,,,,FEW,3500,,,,,,,VFR,,,,,,,,,,,,METAR,7.0
SAAR 150100Z 14002KT 9999 SCT042 OVC100 25/19 Q1011,SAAR,2019-01-15T01:00:00Z,-32.92,-60.77,25.0,19.0,140,2,,6.21,29.852362,,,,,,,,,,,SCT,4200,OVC,10000,,,,,VFR,,,,,,,,,,,,METAR,25.0
MTPP 150100Z 27007KT 8000 FEW020 27/22 Q1015 A2999,MTPP,2019-01-15T01:00:00Z,18.57,-72.28,27.0,22.0,270,7,,4.97,29.970472,,,,,,,,,,,FEW,2000,,,,,,,MVFR,,,,,,,,,,,,METAR,37.0
CYVT 150100Z 32024G29KT 12SM -SN DRSN SCT008 OVC014 M08/M11 A2990 RMK SF3SC5 FRQ BLSN SLP160,CYVT,2019-01-15T01:00:00Z,55.82,-108.42,-8.0,-11.0,320,24,29,12.0,29.899607,1016.0,,,,,,,,,-SN DRSN,SCT,800,OVC,1400,,,,,MVFR,,,,,,,,,,,,METAR,434.0
CWSF 150100Z AUTO 18005KT M08/M12 RMK AO1 SLP161 T10801115 58008,CWSF,2019-01-15T01:00:00Z,49.25,-65.32,-8.0,-11.5,180,5,,,,1016.1,,TRUE,TRUE,,,,,,,,,,,,,,,,-0.8,,,,,,,,,,,METAR,29.0
CYYD 150100Z 00000KT 20SM BCFG FEW002 FEW015 SCT065 BKN110 00/00 A3009 RMK SF1SC1SC2AC2 FG NW VIS 1/2 SLP211,CYYD,2019-01-15T01:00:00Z,54.82,-127.18,0.0,0.0,0,0,,20.0,30.088583,1021.1,,,,,,,,,BCFG,FEW,200,FEW,1500,SCT,6500,BKN,11000,VFR,,,,,,,,,,,,METAR,523.0
NCMK 150100Z AUTO 12006KT //// ////// 29/24 Q1006,NCMK,2019-01-15T01:00:00Z,-20.15,-157.38,29.0,24.0,120,6,,,29.704725,,,TRUE,,,,,,,,,,,,,,,,,,,,,,,,,,,,METAR,9.0
TNCM 150100Z 08005KT 040V120 9999 FEW018 25/20 Q1018 A3006 NOSIG ,TNCM,2019-01-15T01:00:00Z,18.05,-63.12,25.0,20.0,80,5,,6.21,30.059055,,,,,,TRUE,,,,,FEW,1800,,,,,,,VFR,,,,,,,,,,,,METAR,4.0
NFFN 150100Z 26010KT 9999 SCT026TCU SCT110 31/25 Q1005 TEMPO 3000 TSRA FEW018CB,NFFN,2019-01-15T01:00:00Z,-17.75,177.45,31.0,25.0,260,10,,6.21,29.675198,,,,,,,,,,,SCT,2600,SCT,11000,,,,,VFR,,,,,,,,,,,,METAR,18.0
SKBQ 150100Z 01012KT CAVOK 26/22 A2984,SKBQ,2019-01-15T01:00:00Z,10.9,-74.77,26.0,22.0,10,12,,6.21,29.840551,,,,,,,,,,,CAVOK,,,,,,,,VFR,,,,,,,,,,,,METAR,10.0
NFNA 150100Z 08008KT 9999 SCT020TCU 32/25 Q1006,NFNA,2019-01-15T01:00:00Z,-18.05,178.57,32.0,25.0,80,8,,6.21,29.704725,,,,,,,,,,,SCT,2000,,,,,,,VFR,,,,,,,,,,,,METAR,5.0
FNLU 150100Z VRB02KT 9999 FEW019 25/22 Q1012 NOSIG,FNLU,2019-01-15T01:00:00Z,-8.83,13.22,25.0,22.0,0,2,,6.21,29.88189,,,,,,TRUE,,,,,FEW,1900,,,,,,,VFR,,,,,,,,,,,,METAR,70.0
UTAA 150100Z VRB02KT 9999 -SHRA FEW034CB OVC034 09/07 Q1013 R12L/290055 R12R/290050 NOSIG,UTAA,2019-01-15T01:00:00Z,37.98,58.37,9.0,7.0,0,2,,6.21,29.911417,,,,,,TRUE,,,,-SHRA,FEW,3400,OVC,3400,,,,,VFR,,,,,,,,,,,,METAR,210.0
UTAK 150100Z 14008KT 9999 OVC029 06/04 Q1012 R16R/CLRD70 NOSIG,UTAK,2019-01-15T01:00:00Z,40.05,53.0,6.0,4.0,140,8,,6.21,29.88189,,,,,,TRUE,,,,,OVC,2900,,,,,,,MVFR,,,,,,,,,,,,METAR,85.0
SADF 150100Z 11007KT 9999 FEW010 SCT100 BKN200 24/20 Q1013,SADF,2019-01-15T01:00:00Z,-34.45,-58.58,24.0,20.0,110,7,,6.21,29.911417,,,,,,,,,,,FEW,1000,SCT,10000,BKN,20000,,,VFR,,,,,,,,,,,,METAR,4.0
SACO 150100Z 17005KT 9999 FEW015 BKN028 21/18 Q1014 BCMG 2500 -RA SCT010 BKN020,SACO,2019-01-15T01:00:00Z,-31.32,-64.22,21.0,18.0,170,5,,6.21,29.940945,,,,,,,,,,-RA,FEW,1500,BKN,2800,SCT,1000,BKN,2000,MVFR,,,,,,,,,,,,SPECI,474.0
SABE 150100Z 12012KT 9999 FEW018 BKN090 24/20 Q1013 NOSIG,SABE,2019-01-15T01:00:00Z,-34.57,-58.42,24.0,20.0,120,12,,6.21,29.911417,,,,,,TRUE,,,,,FEW,1800,BKN,9000,,,,,VFR,,,,,,,,,,,,METAR,6.0
UTAV 150100Z 24004KT 1300 R13/P2000 N HZ OVC020 10/M02 Q1011 NOSIG,UTAV,2019-01-15T01:00:00Z,39.08,63.62,10.0,-2.0,240,4,,0.81,29.852362,,,,,,TRUE,,,,HZ,OVC,2000,,,,,,,LIFR,,,,,,,,,,,,METAR,192.0
MNMG 150100Z 07010KT 9999 FEW027 28/19 Q1012 A2989 NOSIG,MNMG,2019-01-15T01:00:00Z,12.15,-86.17,28.0,19.0,70,10,,6.21,29.88189,,,,,,TRUE,,,,,FEW,2700,,,,,,,VFR,,,,,,,,,,,,METAR,59.0
UTAT 150100Z 33010KT 4900 BR OVC003 01/01 Q1011 R08/19//60 NOSIG RMK QBB360,UTAT,2019-01-15T01:00:00Z,41.77,59.83,1.0,1.0,330,10,,3.04,29.852362,,,,,,TRUE,,,,BR,OVC,300,,,,,,,LIFR,,,,,,,,,,,,METAR,83.0
DTTB 150100Z 30017G27KT 9999 SCT016 SCT030 14/08 Q1014,DTTB,2019-01-15T01:00:00Z,37.25,9.8,14.0,8.0,300,17,27,6.21,29.940945,,,,,,,,,,,SCT,1600,SCT,3000,,,,,VFR,,,,,,,,,,,,METAR,3.0
DTTD 150100Z AUTO 27005KT 230V330 NCD 07/M05 Q1017,DTTD,2019-01-15T01:00:00Z,32.32,10.4,7.0,-5.0,270,5,,,30.029528,,,TRUE,,,,,,,,CLR,,,,,,,,,,,,,,,,,,,,METAR,301.0
DTTK 150100Z VRB07KT 9999 FEW023 14/04 Q1014,DTTK,2019-01-15T01:00:00Z,35.67,10.08,14.0,4.0,0,7,,6.21,29.940945,,,,,,,,,,,FEW,2300,,,,,,,VFR,,,,,,,,,,,,METAR,68.0
DTTG 150100Z 22010KT CAVOK 09/M03 Q1016 NOSIG,DTTG,2019-01-15T01:00:00Z,33.73,9.92,9.0,-3.0,220,10,,6.21,30.0,,,,,,TRUE,,,,,CAVOK,,,,,,,,VFR,,,,,,,,,,,,METAR,5.0
DTTL 150100Z AUTO 30010G26KT 240V010 NCD 14/08 Q1012,DTTL,2019-01-15T01:00:00Z,36.85,11.07,14.0,8.0,300,10,26,,29.88189,,,TRUE,,,,,,,,CLR,,,,,,,,,,,,,,,,,,,,METAR,30.0
DTKA 150100Z AUTO 28018G28KT /// 14/07 Q1017,DTKA,2019-01-15T01:00:00Z,36.98,8.88,14.0,7.0,280,18,28,,30.029528,,,TRUE,,,,,,,,,,,,,,,,,,,,,,,,,,,,METAR,21.0
DTTF 150100Z 23003KT 180V270 CAVOK 10/03 Q1017 NOSIG,DTTF,2019-01-15T01:00:00Z,34.42,8.82,10.0,3.0,230,3,,6.21,30.029528,,,,,,TRUE,,,,,CAVOK,,,,,,,,VFR,,,,,,,,,,,,METAR,314.0
DTTZ 150100Z 23003KT CAVOK 10/M01 Q1017 NOSIG,DTTZ,2019-01-15T01:00:00Z,33.92,8.08,10.0,-1.0,230,3,,6.21,30.029528,,,,,,TRUE,,,,,CAVOK,,,,,,,,VFR,,,,,,,,,,,,METAR,93.0
SAME 150100Z 00000KT 9999 FEW040 SCT04520/17 Q1016,SAME,2019-01-15T01:00:00Z,-32.82,-68.77,20.0,17.0,0,0,,6.21,30.0,,,,,,,,,,,FEW,4000,,,,,,,VFR,,,,,,,,,,,,SPECI,704.0
SAEZ 150100Z 12007KT 8000 -SHRA FEW023 BKN050 23/20 Q1013NOSIG,SAEZ,2019-01-15T01:00:00Z,-34.82,-58.52,23.0,20.0,120,7,,4.97,,,,,,,TRUE,,,,-SHRA,FEW,2300,BKN,5000,,,,,MVFR,,,,,,,,,,,,SPECI,20.0
FQNP 150100Z /////KT 9999 BKN020 22/22 Q1013,FQNP,2019-01-15T01:00:00Z,-15.08,39.27,22.0,22.0,,,,6.21,29.911417,,,,,,,,,,,BKN,2000,,,,,,,MVFR,,,,,,,,,,,,METAR,441.0
WMKN 150100Z VRB02KT 9999 SCT018 SCT150 BKN300 26/24 Q1011,WMKN,2019-01-15T01:00:00Z,5.37,103.08,26.0,24.0,0,2,,6.21,29.852362,,,,,,,,,,,SCT,1800,SCT,15000,BKN,30000,,,VFR,,,,,,,,,,,,METAR,6.0
WMKM 150100Z 04003KT 340V090 9999 FEW020 SCT140 BKN270 25/24 Q1011,WMKM,2019-01-15T01:00:00Z,2.27,102.25,25.0,24.0,40,3,,6.21,29.852362,,,,,,,,,,,FEW,2000,SCT,14000,BKN,27000,,,VFR,,,,,,,,,,,,METAR,9.0
WMKL 150100Z 06003KT 010V110 9999 FEW022 BKN280 28/22 Q1011,WMKL,2019-01-15T01:00:00Z,6.32,99.72,28.0,22.0,60,3,,6.21,29.852362,,,,,,,,,,,FEW,2200,BKN,28000,,,,,VFR,,,,,,,,,,,,METAR,7.0
WMKI 150100Z 03008KT 360V060 9999 FEW006 BKN290 25/21 Q1011,WMKI,2019-01-15T01:00:00Z,4.57,101.08,25.0,21.0,30,8,,6.21,29.852362,,,,,,,,,,,FEW,600,BKN,29000,,,,,VFR,,,,,,,,,,,,METAR,39.0
WMKE 150100Z 29004KT 250V340 9999 FEW014 BKN270 26/24 Q1011,WMKE,2019-01-15T01:00:00Z,4.53,103.43,26.0,24.0,290,4,,6.21,29.852362,,,,,,,,,,,FEW,1400,BKN,27000,,,,,VFR,,,,,,,,,,,,METAR,5.0
WMKD 150100Z 33005KT 280V030 9999 FEW020 BKN280 25/23 Q1011 NOSIG,WMKD,2019-01-15T01:00:00Z,3.77,103.22,25.0,23.0,330,5,,6.21,29.852362,,,,,,TRUE,,,,,FEW,2000,BKN,28000,,,,,VFR,,,,,,,,,,,,METAR,16.0
WMKC 150100Z 21004KT 160V280 8000 FEW018 SCT140 BKN280 25/23 Q1011,WMKC,2019-01-15T01:00:00Z,6.17,102.27,25.0,23.0,210,4,,4.97,29.852362,,,,,,,,,,,FEW,1800,SCT,14000,BKN,28000,,,MVFR,,,,,,,,,,,,METAR,5.0
WMKB 150100Z VRB01KT 9000 FEW020 BKN280 26/23 Q1010 NOSIG,WMKB,2019-01-15T01:00:00Z,5.47,100.37,26.0,23.0,0,1,,5.59,29.822834,,,,,,TRUE,,,,,FEW,2000,BKN,28000,,,,,VFR,,,,,,,,,,,,METAR,4.0
WMKA 150100Z VRB03KT 9999 FEW020 BKN300 25/23 Q1011,WMKA,2019-01-15T01:00:00Z,6.2,100.4,25.0,23.0,0,3,,6.21,29.852362,,,,,,,,,,,FEW,2000,BKN,30000,,,,,VFR,,,,,,,,,,,,METAR,5.0
WMBA 150100Z VRB01KT 9000 FEW016CB SCT150 BKN270 26/23 Q1011,WMBA,2019-01-15T01:00:00Z,4.22,100.7,26.0,23.0,0,1,,5.59,29.852362,,,,,,,,,,,FEW,1600,SCT,15000,BKN,27000,,,VFR,,,,,,,,,,,,METAR,8.0
WMAU 150100Z 29006KT 230V330 9999 FEW020 BKN280 26/24 Q//// QFF1010,WMAU,2019-01-15T01:00:00Z,2.38,103.88,26.0,24.0,290,6,,6.21,,,,,,,,,,,,FEW,2000,BKN,28000,,,,,VFR,,,,,,,,,,,,METAR,45.0
RJTO 150100Z 07006KT 030V100 9999 FEW030 BKN080 BKN/// 11/04 Q1022,RJTO,2019-01-15T01:00:00Z,34.77,139.37,11.0,4.0,70,6,,6.21,30.177166,,,,,,,,,,,FEW,3000,BKN,8000,,,,,VFR,,,,,,,,,,,,SPECI,41.0
RJTI 150100Z 31004KT 200V010 9999 FEW030 BKN170 BKN/// 05/M02 Q1023,RJTI,2019-01-15T01:00:00Z,35.63,139.83,5.0,-2.0,310,4,,6.21,30.206694,,,,,,,,,,,FEW,3000,BKN,17000,,,,,VFR,,,,,,,,,,,,SPECI,8.0
RJTF 150100Z 01004KT 330V060 9999 FEW030 SCT060 BKN170 04/M03 Q1023,RJTF,2019-01-15T01:00:00Z,35.67,139.52,4.0,-3.0,10,4,,6.21,30.206694,,,,,,,,,,,FEW,3000,SCT,6000,BKN,17000,,,VFR,,,,,,,,,,,,METAR,44.0
RJSY 150100Z 11008KT 9999 FEW050 BKN150 BKN/// 01/M02 Q1019,RJSY,2019-01-15T01:00:00Z,38.82,139.77,1.0,-2.0,110,8,,6.21,30.088583,,,,,,,,,,,FEW,5000,BKN,15000,,,,,VFR,,,,,,,,,,,,METAR,22.0
RJSR 150100Z VRB01KT 9999 FEW010 BKN/// M06/M06 Q1019,RJSR,2019-01-15T01:00:00Z,40.18,140.37,-6.0,-6.0,0,1,,6.21,30.088583,,,,,,,,,,,FEW,1000,,,,,,,VFR,,,,,,,,,,,,METAR,87.0
RJSM 150100Z 18008KT 9999 FEW030 BKN200 01/M09 Q1020,RJSM,2019-01-15T01:00:00Z,40.7,141.37,1.0,-9.0,180,8,,6.21,30.11811,,,,,,,,,,,FEW,3000,BKN,20000,,,,,VFR,,,,,,,,,,,,METAR,36.0
RJSI 150100Z VRB02KT 9999 FEW030 BKN/// M03/M06 Q1022,RJSI,2019-01-15T01:00:00Z,39.42,141.12,-3.0,-6.0,0,2,,6.21,30.177166,,,,,,,,,,,FEW,3000,,,,,,,VFR,,,,,,,,,,,,SPECI,93.0
RJSC 150100Z 21004KT 9999 FEW040 BKN/// M02/M03 Q1021,RJSC,2019-01-15T01:00:00Z,38.42,140.37,-2.0,-3.0,210,4,,6.21,30.147638,,,,,,,,,,,FEW,4000,,,,,,,VFR,,,,,,,,,,,,SPECI,108.0
RJOY 150100Z VRB02KT 9999 FEW025 SCT070 BKN/// 07/M00 Q1021,RJOY,2019-01-15T01:00:00Z,34.6,135.58,7.0,0.0,0,2,,6.21,30.147638,,,,,,,,,,,FEW,2500,SCT,7000,,,,,VFR,,,,,,,,,,,,SPECI,13.0
RJOW 150100Z 21011KT 170V230 9999 -SHRA FEW030 SCT040 BKN070 11/04 Q1019,RJOW,2019-01-15T01:00:00Z,34.67,131.8,11.0,4.0,210,11,,6.21,30.088583,,,,,,,,,,-SHRA,FEW,3000,SCT,4000,BKN,7000,,,VFR,,,,,,,,,,,,METAR,54.0
RJOS 150100Z 28005KT 9999 FEW030 BKN070 06/01 Q1020,RJOS,2019-01-15T01:00:00Z,34.12,134.62,6.0,1.0,280,5,,6.21,30.11811,,,,,,,,,,,FEW,3000,BKN,7000,,,,,VFR,,,,,,,,,,,,METAR,11.0
RJOR 150100Z 17015KT 9999 FEW040 SCT130 BKN/// 10/02 Q1017,RJOR,2019-01-15T01:00:00Z,35.52,134.17,10.0,2.0,170,15,,6.21,30.029528,,,,,,,,,,,FEW,4000,SCT,13000,,,,,VFR,,,,,,,,,,,,SPECI,18.0
ROYN 150100Z AUTO 13008KT 9999 BKN046 //////TCU 23/17 Q1019,ROYN,2019-01-15T01:00:00Z,24.47,122.97,23.0,17.0,130,8,,6.21,30.088583,,,TRUE,,,,,,,,BKN,4600,,,,,,,VFR,,,,,,,,,,,,METAR,17.0
RORY 150100Z AUTO VRB01KT 9999 NSC 20/11 Q1021,RORY,2019-01-15T01:00:00Z,27.05,128.4,20.0,11.0,0,1,,6.21,30.147638,,,TRUE,,,,,,,,CLR,,,,,,,,VFR,,,,,,,,,,,,METAR,16.0
RORS 150100Z 12005KT 9999 FEW035 BKN120 22/15 Q1020,RORS,2019-01-15T01:00:00Z,24.82,125.15,22.0,15.0,120,5,,6.21,30.11811,,,,,,,,,,,FEW,3500,BKN,12000,,,,,VFR,,,,,,,,,,,,METAR,16.0
ROMY 150100Z 11007KT 9999 FEW030 SCT090 BKN120 22/15 Q1020,ROMY,2019-01-15T01:00:00Z,24.77,125.27,22.0,15.0,110,7,,6.21,30.11811,,,,,,,,,,,FEW,3000,SCT,9000,BKN,12000,,,VFR,,,,,,,,,,,,METAR,41.0
RJNW 150100Z 20003KT 170V250 9999 FEW040 SCT150 BKN180 05/M04 Q1017,RJNW,2019-01-15T01:00:00Z,37.3,136.97,5.0,-4.0,200,3,,6.21,30.029528,,,,,,,,,,,FEW,4000,SCT,15000,BKN,18000,,,VFR,,,,,,,,,,,,METAR,219.0
OJAM 150100Z 24006KT 4000 HZ SCT020 SCT025 08/03 Q1016 NOSIG,OJAM,2019-01-15T01:00:00Z,31.97,35.97,8.0,3.0,240,6,,2.49,30.0,,,,,,TRUE,,,,HZ,SCT,2000,SCT,2500,,,,,IFR,,,,,,,,,,,,SPECI,773.0
WBKW 150100Z 34003KT 290V050 9999 FEW010 BKN140 27/24 Q1010,WBKW,2019-01-15T01:00:00Z,4.32,118.12,27.0,24.0,340,3,,6.21,29.822834,,,,,,,,,,,FEW,1000,BKN,14000,,,,,VFR,,,,,,,,,,,,METAR,20.0
OEJB 150100Z AUTO 16010KT 6000 NCD 17/15 Q1016 NOSIG,OEJB,2019-01-15T01:00:00Z,27.05,49.38,17.0,15.0,160,10,,3.73,30.0,,,TRUE,,,TRUE,,,,,CLR,,,,,,,,MVFR,,,,,,,,,,,,METAR,8.0
OEHL 150100Z 00000KT CAVOK 08/00 Q1018 NOSIG,OEHL,2019-01-15T01:00:00Z,27.42,41.67,8.0,0.0,0,0,,6.21,30.059055,,,,,,TRUE,,,,,CAVOK,,,,,,,,VFR,,,,,,,,,,,,METAR,1013.0
OEGT 150100Z 13004KT 6000 SCT040 04/M01 Q1016 NOSIG,OEGT,2019-01-15T01:00:00Z,31.42,37.27,4.0,-1.0,130,4,,3.73,30.0,,,,,,TRUE,,,,,SCT,4000,,,,,,,MVFR,,,,,,,,,,,,METAR,499.0
OEGS 150100Z 07010KT 9999 BKN040 13/01 Q1016,OEGS,2019-01-15T01:00:00Z,26.3,43.77,13.0,1.0,70,10,,6.21,30.0,,,,,,,,,,,BKN,4000,,,,,,,VFR,,,,,,,,,,,,METAR,650.0
OEGN 150100Z 00000KT 8000 NSC 24/21 Q1013 NOSIG,OEGN,2019-01-15T01:00:00Z,16.88,42.57,24.0,21.0,0,0,,4.97,29.911417,,,,,,TRUE,,,,,CLR,,,,,,,,MVFR,,,,,,,,,,,,METAR,3.0
OEBH 150100Z 18004KT CAVOK 13/00 Q1018 NOSIG,OEBH,2019-01-15T01:00:00Z,19.97,42.62,13.0,0.0,180,4,,6.21,30.059055,,,,,,TRUE,,,,,CAVOK,,,,,,,,VFR,,,,,,,,,,,,METAR,1157.0
OEBA 150100Z 16003KT CAVOK 15/03 Q1020 NOSIG,OEBA,2019-01-15T01:00:00Z,20.3,41.62,15.0,3.0,160,3,,6.21,30.11811,,,,,,TRUE,,,,,CAVOK,,,,,,,,VFR,,,,,,,,,,,,METAR,1656.0
OEAR 150100Z 00000KT 7000 SKC 21/17 Q1014,OEAR,2019-01-15T01:00:00Z,,,21.0,17.0,0,0,,4.35,29.940945,,,,,,,,,,,SKC,,,,,,,,MVFR,,,,,,,,,,,,METAR,
OEAO 150100Z 15002KT 9999 FEW040 10/M06 Q1017,OEAO,2019-01-15T01:00:00Z,26.48,38.12,10.0,-6.0,150,2,,6.21,30.029528,,,,,,,,,,,FEW,4000,,,,,,,VFR,,,,,,,,,,,,METAR,624.0
OEAB 150100Z 00000KT CAVOK 11/M13 Q1025 NOSIG,OEAB,2019-01-15T01:00:00Z,18.22,42.63,11.0,-13.0,0,0,,6.21,30.265747,,,,,,TRUE,,,,,CAVOK,,,,,,,,VFR,,,,,,,,,,,,METAR,2084.0
FCBB 150100Z 22004KT 9000 NSC 24/23 Q1013 NOSIG,FCBB,2019-01-15T01:00:00Z,-4.25,15.25,24.0,23.0,220,4,,5.59,29.911417,,,,,,TRUE,,,,,CLR,,,,,,,,VFR,,,,,,,,,,,,METAR,316.0
UTTT 150100Z 05006KT 020V080 9999 SCT066CB 08/04 Q1010 R08R/29//50 NOSIG,UTTT,2019-01-15T01:00:00Z,41.27,69.27,8.0,4.0,50,6,,6.21,29.822834,,,,,,TRUE,,,,,SCT,6600,,,,,,,VFR,,,,,,,,,,,,METAR,489.0
UTFF 150100Z 34004KT 6000 NSC 01/M03 Q1015 R99/CLRD70,UTFF,2019-01-15T01:00:00Z,40.37,71.77,1.0,-3.0,340,4,,3.73,29.970472,,,,,,,,,,,CLR,,,,,,,,MVFR,,,,,,,,,,,,METAR,577.0
UTST 150100Z 08008KT 050V110 9999 BKN060CB 10/M01 Q1016 R88/290165 NOSIG,UTST,2019-01-15T01:00:00Z,37.28,67.32,10.0,-1.0,80,8,,6.21,30.0,,,,,,TRUE,,,,,BKN,6000,,,,,,,VFR,,,,,,,,,,,,METAR,302.0
UTSS 150100Z 21016G26KT 6000 BKN060CB 14/03 Q1010 R27/29//55 NOSIG,UTSS,2019-01-15T01:00:00Z,39.7,66.98,14.0,3.0,210,16,26,3.73,29.822834,,,,,,TRUE,,,,,BKN,6000,,,,,,,MVFR,,,,,,,,,,,,METAR,724.0
UTSK 150100Z 21006KT 9999 -SHRA SCT050CB 10/04 Q1011 R16/CLRD70,UTSK,2019-01-15T01:00:00Z,38.83,65.77,10.0,4.0,210,6,,6.21,29.852362,,,,,,,,,,-SHRA,SCT,5000,,,,,,,VFR,,,,,,,,,,,,METAR,1365.0
UTSB 150100Z 19006KT 2100 -SHRA HZ BKN020CB 08/02 Q1009 R01/290055 NOSIG,UTSB,2019-01-15T01:00:00Z,39.77,64.48,8.0,2.0,190,6,,1.3,29.793306,,,,,,TRUE,,,,-SHRA HZ,BKN,2000,,,,,,,IFR,,,,,,,,,,,,METAR,226.0
UTSA 150100Z 21014KT 2500 FU BKN032 09/01 Q1010 R25/CLRD70 NOSIG,UTSA,2019-01-15T01:00:00Z,40.12,65.17,9.0,1.0,210,14,,1.55,29.822834,,,,,,TRUE,,,,FU,BKN,3200,,,,,,,IFR,,,,,,,,,,,,METAR,346.0
UTNN 150100Z 29008KT 8000 OVC004 01/M00 Q1012 R33/CLRD60 NOSIG RMK BASE400,UTNN,2019-01-15T01:00:00Z,42.48,59.63,1.0,0.0,290,8,,4.97,29.88189,,,,,,TRUE,,,,,OVC,400,,,,,,,LIFR,,,,,,,,,,,,METAR,67.0
LFLW 150100Z AUTO 09003KT CAVOK M02/M03 Q1023,LFLW,2019-01-15T01:00:00Z,44.88,2.42,-2.0,-3.0,90,3,,6.21,30.206694,,,TRUE,,,,,,,,CAVOK,,,,,,,,VFR,,,,,,,,,,,,METAR,639.0
TTCP 150100Z 07003KT 9999 FEW016 25/20 Q1015,TTCP,2019-01-15T01:00:00Z,11.15,-60.85,25.0,20.0,70,3,,6.21,29.970472,,,,,,,,,,,FEW,1600,,,,,,,VFR,,,,,,,,,,,,METAR,8.0
TTPP 150100Z 00000KT 9999 FEW016 25/21 Q1015 NOSIG,TTPP,2019-01-15T01:00:00Z,10.58,-61.35,25.0,21.0,0,0,,6.21,29.970472,,,,,,TRUE,,,,,FEW,1600,,,,,,,VFR,,,,,,,,,,,,METAR,15.0
DFFD 150100Z 02004KT CAVOK 22/M04 Q1014 NOSIG,DFFD,2019-01-15T01:00:00Z,12.33,-1.52,22.0,-4.0,20,4,,6.21,29.940945,,,,,,TRUE,,,,,CAVOK,,,,,,,,VFR,,,,,,,,,,,,METAR,306.0
DFOO 150100Z 02006KT CAVOK 24/04 Q1014,DFOO,2019-01-15T01:00:00Z,11.17,-4.32,24.0,4.0,20,6,,6.21,29.940945,,,,,,,,,,,CAVOK,,,,,,,,VFR,,,,,,,,,,,,METAR,460.0
FTTA 150100Z 36008KT 4000 DU NSC 23/M00 Q1013,FTTA,2019-01-15T01:00:00Z,9.15,18.37,23.0,0.0,360,8,,2.49,29.911417,,,,,,,,,,DU,CLR,,,,,,,,IFR,,,,,,,,,,,,METAR,365.0
FTTJ 150100Z 35005KT 6000 NSC 16/01 Q1014 NOSIG,FTTJ,2019-01-15T01:00:00Z,12.12,15.02,16.0,1.0,350,5,,3.73,29.940945,,,,,,TRUE,,,,,CLR,,,,,,,,MVFR,,,,,,,,,,,,METAR,295.0
DBBB 150100Z 22009KT 8000 SCT011 28/26 Q1011 NOSIG,DBBB,2019-01-15T01:00:00Z,6.33,2.37,28.0,26.0,220,9,,4.97,29.852362,,,,,,TRUE,,,,,SCT,1100,,,,,,,MVFR,,,,,,,,,,,,METAR,9.0
AYMH 150100Z VRB04KT 9999 SCT035 Q1017 RMK: TEMP AND DP NOT AVBL,AYMH,2019-01-15T01:00:00Z,-5.83,144.3,,,0,4,,6.21,30.029528,,,,,,,,,,,SCT,3500,,,,,,,VFR,,,,,,,,,,,,METAR,1642.0
YSCB 150100Z AUTO 32011KT 270V330 9999 // NCD 36/12 Q1014 NOSIG,YSCB,2019-01-15T01:00:00Z,-35.28,149.17,36.0,12.0,320,11,,6.21,29.940945,,,TRUE,,,TRUE,,,,,CLR,,,,,,,,VFR,,,,,,,,,,,,SPECI,577.0
YLHI 150100Z 09009KT 9999 FEW042 26/15 Q1018,YLHI,2019-01-15T01:00:00Z,-31.53,159.07,26.0,15.0,90,9,,6.21,30.059055,,,,,,,,,,,FEW,4200,,,,,,,VFR,,,,,,,,,,,,METAR,2.0
YCFS 150100Z AUTO 04016KT 9999 // NCD 29/20 Q1015,YCFS,2019-01-15T01:00:00Z,-30.32,153.12,29.0,20.0,40,16,,6.21,29.970472,,,TRUE,,,,,,,,CLR,,,,,,,,VFR,,,,,,,,,,,,METAR,5.0
YBRK 150100Z 13011KT 070V130 9999 FEW035 30/20 Q1014 RF00.0/000.2,YBRK,2019-01-15T01:00:00Z,-23.37,150.47,30.0,20.0,130,11,,6.21,29.940945,,,,,,,,,,,FEW,3500,,,,,,,VFR,,,,,,,,,,,,METAR,14.0
YPPD 150100Z AUTO 33005KT //// // NCD 36/23 Q1006,YPPD,2019-01-15T01:00:00Z,-20.37,118.62,36.0,23.0,330,5,,,29.704725,,,TRUE,,,,,,,,CLR,,,,,,,,,,,,,,,,,,,,METAR,6.0
YSNF 150100Z 14013KT 9999 FEW045 25/13 Q1014,YSNF,2019-01-15T01:00:00Z,-29.02,167.92,25.0,13.0,140,13,,6.21,29.940945,,,,,,,,,,,FEW,4500,,,,,,,VFR,,,,,,,,,,,,METAR,109.0
YMHB 150100Z 15011KT CAVOK 26/15 Q1008,YMHB,2019-01-15T01:00:00Z,-42.82,147.52,26.0,15.0,150,11,,6.21,29.763779,,,,,,,,,,,CAVOK,,,,,,,,VFR,,,,,,,,,,,,METAR,27.0
YPCC 150100Z 14017KT 9999 FEW028 SCT043 BKN350 28/21 Q1012 RF00.0/000.0,YPCC,2019-01-15T01:00:00Z,-12.17,96.82,28.0,21.0,140,17,,6.21,29.88189,,,,,,,,,,,FEW,2800,SCT,4300,BKN,35000,,,VFR,,,,,,,,,,,,METAR,3.0
YBRM 150100Z 15005KT 110V190 9999 FEW020 33/26 Q1007 RF00.0/000.0,YBRM,2019-01-15T01:00:00Z,-17.93,122.22,33.0,26.0,150,5,,6.21,29.734253,,,,,,,,,,,FEW,2000,,,,,,,VFR,,,,,,,,,,,,METAR,9.0
YPTN 150100Z 09007KT 9999 FEW020 BKN150 29/24 Q1008 NOSIG,YPTN,2019-01-15T01:00:00Z,-14.52,132.38,29.0,24.0,90,7,,6.21,29.763779,,,,,,TRUE,,,,,FEW,2000,BKN,15000,,,,,VFR,,,,,,,,,,,,METAR,109.0
YPLM 150100Z AUTO 19015KT 9999 // NCD 27/17 Q1008,YPLM,2019-01-15T01:00:00Z,-22.22,114.07,27.0,17.0,190,15,,6.21,29.763779,,,TRUE,,,,,,,,CLR,,,,,,,,VFR,,,,,,,,,,,,SPECI,6.0
YPKG 150100Z AUTO 13014KT 9999 // NCD ///// Q1012,YPKG,2019-01-15T01:00:00Z,-30.77,121.45,,,130,14,,6.21,29.88189,,,TRUE,,,,,,,,CLR,,,,,,,,VFR,,,,,,,,,,,,SPECI,360.0
YSSY 150100Z 04012KT CAVOK 29/20 Q1012 NOSIG,YSSY,2019-01-15T01:00:00Z,-33.95,151.17,29.0,20.0,40,12,,6.21,29.88189,,,,,,TRUE,,,,,CAVOK,,,,,,,,VFR,,,,,,,,,,,,METAR,3.0
YPPH 150100Z 12007KT 070V130 CAVOK 23/10 Q1013 NOSIG,YPPH,2019-01-15T01:00:00Z,-31.93,115.98,23.0,10.0,120,7,,6.21,29.911417,,,,,,TRUE,,,,,CAVOK,,,,,,,,VFR,,,,,,,,,,,,METAR,13.0
YMML 150100Z 16003KT CAVOK 35/15 Q1008 NOSIG,YMML,2019-01-15T01:00:00Z,-37.67,144.82,35.0,15.0,160,3,,6.21,29.763779,,,,,,TRUE,,,,,CAVOK,,,,,,,,VFR,,,,,,,,,,,,METAR,141.0
YPDN 150100Z 05004KT 010V070 9999 FEW025 31/24 Q1008 TEMPO 0230/0400 VRB20G35KT 1000 TSRA BKN010 SCT020CB,YPDN,2019-01-15T01:00:00Z,-12.42,130.9,31.0,24.0,50,4,,6.21,29.763779,,,,,,,,,,,FEW,2500,,,,,,,VFR,,,,,,,,,,,,METAR,30.0
YPAD 150100Z 22011KT CAVOK 28/15 Q1008 NOSIG,YPAD,2019-01-15T01:00:00Z,-34.95,138.52,28.0,15.0,220,11,,6.21,29.763779,,,,,,TRUE,,,,,CAVOK,,,,,,,,VFR,,,,,,,,,,,,METAR,4.0
YPGV 150100Z 03007KT 9999 VCSH SCT018 BKN058 29/25 Q1009 RETS,YPGV,2019-01-15T01:00:00Z,-12.27,136.82,29.0,25.0,30,7,,6.21,29.793306,,,,,,,,,,VCSH,SCT,1800,BKN,5800,,,,,VFR,,,,,,,,,,,,METAR,55.0
YPKU 150100Z AUTO 12004KT 9999 // SCT024 31/24 Q1008,YPKU,2019-01-15T01:00:00Z,-15.77,128.68,31.0,24.0,120,4,,6.21,29.763779,,,TRUE,,,,,,,,SCT,2400,,,,,,,VFR,,,,,,,,,,,,SPECI,45.0
YFRT 150100Z AUTO 16014KT 9999 // NCD 25/17 Q1011,YFRT,2019-01-15T01:00:00Z,-30.83,128.12,25.0,17.0,160,14,,6.21,29.852362,,,TRUE,,,,,,,,CLR,,,,,,,,VFR,,,,,,,,,,,,SPECI,156.0
YCIN 150100Z AUTO 33005KT 290V360 9999 // SCT018 OVC024 31/27 Q1007,YCIN,2019-01-15T01:00:00Z,-17.58,123.83,31.0,27.0,330,5,,6.21,29.734253,,,TRUE,,,,,,,,SCT,1800,OVC,2400,,,,,MVFR,,,,,,,,,,,,METAR,91.0
YBMA 150100Z AUTO 36009KT 350V070 9999 // SCT057 35/17 Q1012,YBMA,2019-01-15T01:00:00Z,-20.67,139.47,35.0,17.0,360,9,,6.21,29.88189,,,TRUE,,,,,,,,SCT,5700,,,,,,,VFR,,,,,,,,,,,,METAR,344.0
YBHM 150100Z AUTO 11022KT 9999 // SCT030 28/22 Q1013,YBHM,2019-01-15T01:00:00Z,-20.35,148.95,28.0,22.0,110,22,,6.21,29.911417,,,TRUE,,,,,,,,SCT,3000,,,,,,,VFR,,,,,,,,,,,,SPECI,5.0
FYWW 150100Z AUTO 35002KT //// // ////// 19/12 Q1020,FYWW,2019-01-15T01:00:00Z,-22.57,17.1,19.0,12.0,350,2,,,30.11811,,,TRUE,,,,,,,,,,,,,,,,,,,,,,,,,,,,METAR,1725.0
FYWH 150100Z AUTO 28005KT //// // ////// 20/M00 Q1020,FYWH,2019-01-15T01:00:00Z,-22.47,17.47,20.0,0.0,280,5,,,30.11811,,,TRUE,,,,,,,,,,,,,,,,,,,,,,,,,,,,METAR,1700.0
FYWB 150100Z AUTO 07004KT //// // ////// 19/16 Q1014,FYWB,2019-01-15T01:00:00Z,-22.98,14.65,19.0,16.0,70,4,,,29.940945,,,TRUE,,,,,,,,,,,,,,,,,,,,,,,,,,,,METAR,46.0
FYOW 150100Z AUTO 29001KT //// // ////// 19/14 Q1015,FYOW,2019-01-15T01:00:00Z,-20.43,16.67,19.0,14.0,290,1,,,29.970472,,,TRUE,,,,,,,,,,,,,,,,,,,,,,,,,,,,METAR,1481.0
FYOO 150100Z AUTO 21003KT //// // ////// 24/11 Q1014,FYOO,2019-01-15T01:00:00Z,-19.15,15.92,24.0,11.0,210,3,,,29.940945,,,TRUE,,,,,,,,,,,,,,,,,,,,,,,,,,,,METAR,1192.0
FYOA 150100Z AUTO 12001KT //// // ////// 25/13 Q1012,FYOA,2019-01-15T01:00:00Z,-17.88,15.97,25.0,13.0,120,1,,,29.88189,,,TRUE,,,,,,,,,,,,,,,,,,,,,,,,,,,,METAR,1095.0
FYKT 150100Z AUTO 22008KT //// // ////// 23/04 Q1015,FYKT,2019-01-15T01:00:00Z,-26.52,18.12,23.0,4.0,220,8,,,29.970472,,,TRUE,,,,,,,,,,,,,,,,,,,,,,,,,,,,METAR,1061.0
FYGB 150100Z AUTO 31003KT //// // ////// 22/18 Q1022,FYGB,2019-01-15T01:00:00Z,-22.5,18.97,22.0,18.0,310,3,,,30.177166,,,TRUE,,,,,,,,,,,,,,,,,,,,,,,,,,,,METAR,1442.0
YGLA 150100Z AUTO 13012KT 9999 // SCT035 29/18 Q1015,YGLA,2019-01-15T01:00:00Z,-23.87,151.22,29.0,18.0,130,12,,6.21,29.970472,,,TRUE,,,,,,,,SCT,3500,,,,,,,VFR,,,,,,,,,,,,METAR,52.0
YHID 150100Z AUTO 03007KT 9999 // SCT025 SCT029 30/23 Q1008,YHID,2019-01-15T01:00:00Z,-10.58,142.3,30.0,23.0,30,7,,6.21,29.763779,,,TRUE,,,,,,,,SCT,2500,SCT,2900,,,,,VFR,,,,,,,,,,,,METAR,13.0
YPJT 150100Z AUTO 12011KT 9999 // NCD 22/12 Q1013 RF00.0/000.0,YPJT,2019-01-15T01:00:00Z,-32.1,115.88,22.0,12.0,120,11,,6.21,29.911417,,,TRUE,,,,,,,,CLR,,,,,,,,VFR,,,,,,,,,,,,METAR,30.0
YRMD 150100Z AUTO 06006KT 020V100 9999 // SCT063 35/16 Q1011,YRMD,2019-01-15T01:00:00Z,-20.7,143.12,35.0,16.0,60,6,,6.21,29.852362,,,TRUE,,,,,,,,SCT,6300,,,,,,,VFR,,,,,,,,,,,,METAR,207.0
YSRI 150100Z AUTO 09005KT 020V120 9999 // NCD 32/23 Q1012,YSRI,2019-01-15T01:00:00Z,-33.6,150.77,32.0,23.0,90,5,,6.21,29.88189,,,TRUE,,,,,,,,CLR,,,,,,,,VFR,,,,,,,,,,,,SPECI,21.0
YPEA 150100Z AUTO 12008KT 9999 // NCD 23/11 Q1012,YPEA,2019-01-15T01:00:00Z,-31.67,116.02,23.0,11.0,120,8,,6.21,29.88189,,,TRUE,,,,,,,,CLR,,,,,,,,VFR,,,,,,,,,,,,METAR,49.0
YPWR 150100Z AUTO 34015KT 9999 // NCD 43/02 Q1009,YPWR,2019-01-15T01:00:00Z,-31.12,136.82,43.0,2.0,340,15,,6.21,29.793306,,,TRUE,,,,,,,,CLR,,,,,,,,VFR,,,,,,,,,,,,METAR,167.0
YSDU 150100Z AUTO 31013KT 9999 // NCD 38/07 Q1014,YSDU,2019-01-15T01:00:00Z,-32.22,148.57,38.0,7.0,310,13,,6.21,29.940945,,,TRUE,,,,,,,,CLR,,,,,,,,VFR,,,,,,,,,,,,SPECI,275.0
DXXX 150100Z 23009KT 9999 FEW012 29/26 Q1012 NOSIG,DXXX,2019-01-15T01:00:00Z,6.17,1.25,29.0,26.0,230,9,,6.21,29.88189,,,,,,TRUE,,,,,FEW,1200,,,,,,,VFR,,,,,,,,,,,,METAR,25.0
GABS 150100Z 06005KT CAVOK 22/M02 Q1015 NOSIG,GABS,2019-01-15T01:00:00Z,12.52,-7.95,22.0,-2.0,60,5,,6.21,29.970472,,,,,,TRUE,,,,,CAVOK,,,,,,,,VFR,,,,,,,,,,,,METAR,381.0
DRRN 150100Z 05004KT 6000 NSC 20/M08 Q1014 NOSIG,DRRN,2019-01-15T01:00:00Z,13.47,2.17,20.0,-8.0,50,4,,3.73,29.940945,,,,,,TRUE,,,,,CLR,,,,,,,,MVFR,,,,,,,,,,,,METAR,227.0
GUCY 150100Z 00000KT 3000 BR SCT015 25/24 Q1012 NOSIG,GUCY,2019-01-15T01:00:00Z,9.57,-13.62,25.0,24.0,0,0,,1.86,29.88189,,,,,,TRUE,,,,BR,SCT,1500,,,,,,,IFR,,,,,,,,,,,,METAR,26.0
GQNO 150100Z 35006KT CAVOK 18/10 Q1014 NOSIG,GQNO,2019-01-15T01:00:00Z,18.3,-15.97,18.0,10.0,350,6,,6.21,29.940945,,,,,,TRUE,,,,,CAVOK,,,,,,,,VFR,,,,,,,,,,,,METAR,4.0
UMKK 150100Z 29012G18MPS 9999 -SHSNRA BKN023CB 02/M04 Q0991 R24/590350 NOSIG RMK QFE742/0989,UMKK,2019-01-15T01:00:00Z,54.88,20.6,2.0,-4.0,290,23,35,6.21,29.26181,,,,,,TRUE,,,,-SHSN -SHRA,BKN,2300,,,,,,,MVFR,,,,,,,,,,,,METAR,21.0
ULOO 150100Z AUTO 29005MPS 8000 // ///085/// M03/M05 Q0981 RMK QFE731,ULOO,2019-01-15T01:00:00Z,57.78,28.4,-3.0,-5.0,290,10,,4.97,28.966536,,,TRUE,,,,,,,,,,,,,,,,,,,,,,,,,,,,METAR,47.0
OEYN 150100Z 27004KT 9999 FEW040 18/41 Q1012 NOSIG,OEYN,2019-01-15T01:00:00Z,24.13,38.07,18.0,41.0,270,4,,6.21,29.88189,,,,,,TRUE,,,,,FEW,4000,,,,,,,VFR,,,,,,,,,,,,METAR,8.0
OEWJ 150100Z 02004KT 9000 NSC 13/08 Q1015 NOSIG,OEWJ,2019-01-15T01:00:00Z,26.18,36.47,13.0,8.0,20,4,,5.59,29.970472,,,,,,TRUE,,,,,CLR,,,,,,,,VFR,,,,,,,,,,,,METAR,16.0
OEWD 150100Z 10006KT CAVOK 15/04 Q1015 NOSIG,OEWD,2019-01-15T01:00:00Z,20.5,45.2,15.0,4.0,100,6,,6.21,29.970472,,,,,,TRUE,,,,,CAVOK,,,,,,,,VFR,,,,,,,,,,,,METAR,617.0
OETR 150100Z 13002KT CAVOK 01/01 Q1016,OETR,2019-01-15T01:00:00Z,31.7,38.73,1.0,1.0,130,2,,6.21,30.0,,,,,,,,,,,CAVOK,,,,,,,,VFR,,,,,,,,,,,,METAR,855.0
OETF 150100Z 29004KT 7000 NSC 12/09 Q1020 NOSIG,OETF,2019-01-15T01:00:00Z,21.47,40.53,12.0,9.0,290,4,,4.35,30.11811,,,,,,TRUE,,,,,CLR,,,,,,,,MVFR,,,,,,,,,,,,METAR,1449.0
OETB 150100Z 00000KT CAVOK 05/M03 Q1016 NOSIG,OETB,2019-01-15T01:00:00Z,28.37,36.62,5.0,-3.0,0,0,,6.21,30.0,,,,,,TRUE,,,,,CAVOK,,,,,,,,VFR,,,,,,,,,,,,METAR,770.0
OEKM 150100Z 00000KT CAVOK 11/M04 Q1025 NOSIG,OEKM,2019-01-15T01:00:00Z,18.3,42.78,11.0,-4.0,0,0,,6.21,30.265747,,,,,,TRUE,,,,,CAVOK,,,,,,,,VFR,,,,,,,,,,,,METAR,2054.0
UUYY 150100Z 17004MPS 9000 -SHSN SCT012 BKN020CB OVC046 M08/M09 Q0998 R18/420250 NOSIG RMK QFE740/0987,UUYY,2019-01-15T01:00:00Z,61.65,50.82,-8.0,-9.0,170,8,,5.59,29.468504,,,,,,TRUE,,,,-SHSN,SCT,1200,BKN,2000,OVC,4600,,,MVFR,,,,,,,,,,,,METAR,119.0
UUOO 150100Z 13004MPS 3100 -SN BR OVC005 M02/M02 Q0995 R12/820242 TEMPO OVC004 RMK QFE732,UUOO,2019-01-15T01:00:00Z,51.82,39.23,-2.0,-2.0,130,8,,1.93,29.379921,,,,,,,,,,-SN BR,OVC,500,,,,,,,IFR,,,,,,,,,,,,METAR,157.0
OESH 150100Z 26004KT CAVOK 14/01 Q1016 NOSIG,OESH,2019-01-15T01:00:00Z,17.47,47.12,14.0,1.0,260,4,,6.21,30.0,,,,,,TRUE,,,,,CAVOK,,,,,,,,VFR,,,,,,,,,,,,METAR,722.0
OERR 150100Z 26006KT CAVOK 04/04 Q1017 NOSIG,OERR,2019-01-15T01:00:00Z,30.88,41.12,4.0,4.0,260,6,,6.21,30.029528,,,,,,TRUE,,,,,CAVOK,,,,,,,,VFR,,,,,,,,,,,,METAR,552.0
OERF 150100Z 15002KT CAVOK 11/M01 Q1018,OERF,2019-01-15T01:00:00Z,29.62,43.47,11.0,-1.0,150,2,,6.21,30.059055,,,,,,,,,,,CAVOK,,,,,,,,VFR,,,,,,,,,,,,METAR,447.0
OEPA 150100Z 01008KT 9999 BKN035 12/08 Q1018 RERA NOSIG,OEPA,2019-01-15T01:00:00Z,28.32,46.12,12.0,8.0,10,8,,6.21,30.059055,,,,,,TRUE,,,,,BKN,3500,,,,,,,VFR,,,,,,,,,,,,METAR,355.0
OENG 150100Z 00000KT CAVOK 15/M01 Q1018 NOSIG,OENG,2019-01-15T01:00:00Z,17.62,44.42,15.0,-1.0,0,0,,6.21,30.059055,,,,,,TRUE,,,,,CAVOK,,,,,,,,VFR,,,,,,,,,,,,METAR,1203.0
ULMM 150100Z 15001MPS 9000 BKN005 M24/M28 Q0991 R31/420145 TEMPO 0300 FZFG BKN002 RMK OBST OBSC QFE736,ULMM,2019-01-15T01:00:00Z,68.78,32.75,-24.0,-28.0,150,2,,5.59,29.26181,,,,,,,,,,,BKN,500,,,,,,,IFR,,,,,,,,,,,,METAR,51.0
ULAA 150100Z 13003MPS 3200 -SN OVC005 M06/M06 Q0989 R08/590534 TEMPO 0700 +SN BKN003 RMK QBB150 QFE741/0988,ULAA,2019-01-15T01:00:00Z,64.6,40.72,-6.0,-6.0,130,6,,1.99,29.202755,,,,,,,,,,-SN,OVC,500,,,,,,,IFR,,,,,,,,,,,,METAR,19.0
FCPP 150100Z 14002KT 7000 SCT011 25/25 Q1011 NOSIG,FCPP,2019-01-15T01:00:00Z,-4.82,11.9,25.0,25.0,140,2,,4.35,29.852362,,,,,,TRUE,,,,,SCT,1100,,,,,,,MVFR,,,,,,,,,,,,METAR,17.0
FKKD 150100Z 14002KT 9999 BKN013 FEW016CB 26/26 Q1011 NOSIG,FKKD,2019-01-15T01:00:00Z,4.0,9.72,26.0,26.0,140,2,,6.21,29.852362,,,,,,TRUE,,,,,BKN,1300,FEW,1600,,,,,MVFR,,,,,,,,,,,,METAR,9.0
FKYS 150100Z /////KT 9000 SCT006 22/21 Q1017 TEMPO BKN006,FKYS,2019-01-15T01:00:00Z,3.82,11.52,22.0,21.0,,,,5.59,30.029528,,,,,,,,,,,SCT,600,,,,,,,VFR,,,,,,,,,,,,METAR,760.0
FEFF 150100Z 18003KT CAVOK 25/24 Q1011 NOSIG,FEFF,2019-01-15T01:00:00Z,4.4,18.52,25.0,24.0,180,3,,6.21,29.852362,,,,,,TRUE,,,,,CAVOK,,,,,,,,VFR,,,,,,,,,,,,METAR,366.0
HEMA 150100Z 26010KT CAVOK 12/M00 Q1016 NOSIG,HEMA,2019-01-15T01:00:00Z,25.55,34.58,12.0,0.0,260,10,,6.21,30.0,,,,,,TRUE,,,,,CAVOK,,,,,,,,VFR,,,,,,,,,,,,SPECI,77.0
CPBT 150100Z AUTO 30009KT M03/M09 RMK AO1 T10291087,CPBT,2019-01-15T01:00:00Z,49.57,-113.05,-2.9,-8.7,300,9,,,,,,TRUE,TRUE,,,,,,,,,,,,,,,,,,,,,,,,,,,METAR,980.0
FMSD 150100Z 10006KT 9999 SCT016 27/25 Q1015,FMSD,2019-01-15T01:00:00Z,-25.02,46.95,27.0,25.0,100,6,,6.21,29.970472,,,,,,,,,,,SCT,1600,,,,,,,VFR,,,,,,,,,,,,METAR,9.0
FMMT 150100Z 24004KT 9999 VCSH FEW007 SCT017TCU BKN033 25/24 Q1014,FMMT,2019-01-15T01:00:00Z,-18.12,49.38,25.0,24.0,240,4,,6.21,29.940945,,,,,,,,,,VCSH,FEW,700,SCT,1700,BKN,3300,,,VFR,,,,,,,,,,,,METAR,6.0
FMNM 150100Z 16002KT 9999 FEW020CB 26/23 Q1011,FMNM,2019-01-15T01:00:00Z,-15.67,46.35,26.0,23.0,160,2,,6.21,29.852362,,,,,,,,,,,FEW,2000,,,,,,,VFR,,,,,,,,,,,,METAR,18.0
WMSA 150100Z VRB01KT 7000 FEW010 FEW017CB SCT150 BKN270 27/25 Q1011,WMSA,2019-01-15T01:00:00Z,3.13,101.55,27.0,25.0,0,1,,4.35,29.852362,,,,,,,,,,,FEW,1000,FEW,1700,SCT,15000,BKN,27000,MVFR,,,,,,,,,,,,METAR,27.0
WMKJ 150100Z VRB03KT 9999 FEW018 BKN280 26/24 Q1011,WMKJ,2019-01-15T01:00:00Z,1.62,103.67,26.0,24.0,0,3,,6.21,29.852362,,,,,,,,,,,FEW,1800,BKN,28000,,,,,VFR,,,,,,,,,,,,METAR,40.0
CXTH 150100Z AUTO 28015KT M03/M04 RMK AO1 PK WND 28018/0057 T10291035,CXTH,2019-01-15T01:00:00Z,53.63,-111.68,-2.9,-3.5,280,15,,,,,,TRUE,TRUE,,,,,,,,,,,,,,,,,,,,,,,,,,,METAR,678.0
CXSP 150100Z AUTO 26008KT M03/M05 RMK AO1 T10251048,CXSP,2019-01-15T01:00:00Z,54.02,-111.27,-2.5,-4.8,260,8,,,,,,TRUE,TRUE,,,,,,,,,,,,,,,,,,,,,,,,,,,METAR,649.0
CXSL 150100Z AUTO 32006KT M02/M04 RMK AO1 T10241040,CXSL,2019-01-15T01:00:00Z,54.28,-112.5,-2.4,-4.0,320,6,,,,,,TRUE,TRUE,,,,,,,,,,,,,,,,,,,,,,,,,,,METAR,680.0
CXSC 150100Z AUTO 27011KT M01/M07 RMK AO1 T10111071,CXSC,2019-01-15T01:00:00Z,50.3,-110.08,-1.1,-7.1,270,11,,,,,,TRUE,TRUE,,,,,,,,,,,,,,,,,,,,,,,,,,,METAR,800.0
CXPL 150100Z AUTO 20001KT M06/M07 RMK AO1 T10571067,CXPL,2019-01-15T01:00:00Z,51.13,-111.7,-5.7,-6.7,200,1,,,,,,TRUE,TRUE,,,,,,,,,,,,,,,,,,,,,,,,,,,METAR,750.0
CXMG 150100Z AUTO 03007KT M13/M15 RMK AO1 T11341149,CXMG,2019-01-15T01:00:00Z,56.97,-117.45,-13.4,-14.9,30,7,,,,,,TRUE,TRUE,,,,,,,,,,,,,,,,,,,,,,,,,,,METAR,457.0
CXHP 150100Z AUTO 30006KT M00/M02 RMK AO1 T10031016,CXHP,2019-01-15T01:00:00Z,55.4,-116.48,-0.3,-1.6,300,6,,,,,,TRUE,TRUE,,,,,,,,,,,,,,,,,,,,,,,,,,,METAR,602.0
CXHD 150100Z AUTO 27010KT M01/M06 RMK AO1 T10071055,CXHD,2019-01-15T01:00:00Z,53.18,-112.25,-0.7,-5.5,270,10,,,,,,TRUE,TRUE,,,,,,,,,,,,,,,,,,,,,,,,,,,METAR,688.0
CXFM 150100Z AUTO 26004KT M03/M08 RMK AO1 T10341083,CXFM,2019-01-15T01:00:00Z,49.48,-111.48,-3.4,-8.3,260,4,,,,,,TRUE,TRUE,,,,,,,,,,,,,,,,,,,,,,,,,,,METAR,881.0
CPXL 150100Z AUTO 34006KT M01/M07 RMK AO1 T10061073,CPXL,2019-01-15T01:00:00Z,49.87,-111.38,-0.6,-7.3,340,6,,,,,,TRUE,TRUE,,,,,,,,,,,,,,,,,,,,,,,,,,,METAR,799.0
CPSV 150100Z AUTO 33009KT M01/M07 RMK AO1 T10121068,CPSV,2019-01-15T01:00:00Z,49.92,-110.92,-1.2,-6.8,330,9,,,,,,TRUE,TRUE,,,,,,,,,,,,,,,,,,,,,,,,,,,METAR,766.0
CPST 150100Z AUTO 36007KT 00/M05 RMK AO1 T00001052,CPST,2019-01-15T01:00:00Z,51.03,-113.28,0.0,-5.2,360,7,,,,,,TRUE,TRUE,,,,,,,,,,,,,,,,,,,,,,,,,,,METAR,967.0
CPRY 150100Z AUTO 27007KT M04/M09 RMK AO1 T10361091,CPRY,2019-01-15T01:00:00Z,49.48,-112.68,-3.6,-9.1,270,7,,,,,,TRUE,TRUE,,,,,,,,,,,,,,,,,,,,,,,,,,,METAR,937.0
CPRO 150100Z AUTO 27006KT M05/M07 RMK AO1 T10511073,CPRO,2019-01-15T01:00:00Z,50.83,-112.05,-5.1,-7.3,270,6,,,,,,TRUE,TRUE,,,,,,,,,,,,,,,,,,,,,,,,,,,METAR,714.0
CPIR 150100Z AUTO 34009KT M02/M09 RMK AO1 T10231090,CPIR,2019-01-15T01:00:00Z,49.9,-112.73,-2.3,-9.0,340,9,,,,,,TRUE,TRUE,,,,,,,,,,,,,,,,,,,,,,,,,,,METAR,858.0
CPFI 150100Z AUTO 33006KT M04/M08 RMK AO1 T10371078,CPFI,2019-01-15T01:00:00Z,49.8,-112.03,-3.7,-7.8,330,6,,,,,,TRUE,TRUE,,,,,,,,,,,,,,,,,,,,,,,,,,,METAR,833.0
CPEH 150100Z AUTO 34011KT M01/M07 RMK AO1 T10141072,CPEH,2019-01-15T01:00:00Z,50.18,-112.43,-1.4,-7.2,340,11,,,,,,TRUE,TRUE,,,,,,,,,,,,,,,,,,,,,,,,,,,METAR,801.0
CXMI 150100Z AUTO 01006KT M07/ RMK AO1 SLP163 T1073 58029,CXMI,2019-01-15T01:00:00Z,44.6,-63.53,-7.3,,10,6,,,,1016.3,,TRUE,TRUE,,,,,,,,,,,,,,,,-2.9,,,,,,,,,,,METAR,15.0
CXMD 150100Z AUTO 18007KT M10/M11 RMK AO1 SOG 16 8027 SLP241 T10991112,CXMD,2019-01-15T01:00:00Z,49.22,-98.08,-9.9,-11.2,180,7,,,,1024.1,,TRUE,TRUE,,,,,,,,,,,,,,,,,,,,,,,,,,,METAR,301.0
CXIB 150100Z AUTO 23003KT M11/M13 RMK AO1 SOG 34 8017 SLP191 T11111131,CXIB,2019-01-15T01:00:00Z,46.67,-60.38,-11.1,-13.1,230,3,,,,1019.1,,TRUE,TRUE,,,,,,,,,,,,,,,,,,,,,,,,,,,METAR,8.0
CXHA 150100Z AUTO 23007KT M03/M06 RMK AO1 SOG 02 8003 SLP248 T10341059,CXHA,2019-01-15T01:00:00Z,42.03,-82.9,-3.4,-5.9,230,7,,,,1024.8,,TRUE,TRUE,,,,,,,,,,,,,,,,,,,,,,,,,,,METAR,191.0
CXGH 150100Z AUTO 19008KT M10/M12 RMK AO1 SLP213 T11011119 56038,CXGH,2019-01-15T01:00:00Z,50.63,-97.0,-10.1,-11.9,190,8,,,,1021.3,,TRUE,TRUE,,,,,,,,,,,,,,,,-3.8,,,,,,,,,,,METAR,217.0
CXET 150100Z AUTO 27005KT M05/M08 RMK AO1 SOG 05 0000 SLP226 T10481079,CXET,2019-01-15T01:00:00Z,44.23,-79.78,-4.8,-7.9,270,5,,,,1022.6,,TRUE,TRUE,,,,,,,,,,,,,,,,,,,,,,,,,,,METAR,251.0
CXEC 150100Z AUTO 28005KT 01/M03 RMK AO1 SOG 25 3008 SLP202 T00111032,CXEC,2019-01-15T01:00:00Z,53.57,-113.52,1.1,-3.2,280,5,,,,1020.2,,TRUE,TRUE,,,,,,,,,,,,,,,,,,,,,,,,,,,METAR,671.0
CXEA 150100Z AUTO 15001KT M13/M14 RMK AO1 SOG 32 8021 SLP242 T11331143,CXEA,2019-01-15T01:00:00Z,50.63,-93.22,-13.3,-14.3,150,1,,,,1024.2,,TRUE,TRUE,,,,,,,,,,,,,,,,,,,,,,,,,,,METAR,355.0
CXDW 150100Z AUTO 15006KT M09/M10 RMK AO1 SOG 04 8034 SLP234 T10921103,CXDW,2019-01-15T01:00:00Z,49.4,-98.32,-9.2,-10.3,150,6,,,,1023.4,,TRUE,TRUE,,,,,,,,,,,,,,,,,,,,,,,,,,,METAR,341.0
CXDI 150100Z AUTO 18001KT M08/M09 RMK AO1 SLP238 T10811092 58001,CXDI,2019-01-15T01:00:00Z,42.87,-80.55,-8.1,-9.2,180,1,,,,1023.8,,TRUE,TRUE,,,,,,,,,,,,,,,,-0.1,,,,,,,,,,,METAR,232.0
CXDE 150100Z AUTO 11010KT M25/M29 RMK AO1 SOG 19 0002 PK WND 10018/0046 SLP326 T12541287,CXDE,2019-01-15T01:00:00Z,65.22,-123.43,-25.4,-28.7,110,10,,,,1032.6,,TRUE,TRUE,,,,,,,,,,,,,,,,,,,,,,,,,,,METAR,213.0
CXCK 150100Z AUTO 00000KT M19/M21 RMK AO1 SOG 12 8001 SLP279 T11891210,CXCK,2019-01-15T01:00:00Z,62.12,-136.2,-18.9,-21.0,0,0,,,,1027.9,,TRUE,TRUE,,,,,,,,,,,,,,,,,,,,,,,,,,,METAR,540.0
CXCA 150100Z AUTO 00000KT M11/M13 RMK AO1 SOG 19 1009 SLP254 T11121131,CXCA,2019-01-15T01:00:00Z,49.15,-88.35,-11.2,-13.1,0,0,,,,1025.4,,TRUE,TRUE,,,,,,,,,,,,,,,,,,,,,,,,,,,METAR,228.0
CXBO 150100Z AUTO 27005KT RMK AO1,CXBO,2019-01-15T01:00:00Z,46.83,-71.2,,,270,5,,,,,,TRUE,TRUE,,,,,,,,,,,,,,,,,,,,,,,,,,,METAR,100.0
CXKT 150100Z AUTO 20004KT M13/M14 RMK AO1 SOG 08 8022 SLP173 T11301142,CXKT,2019-01-15T01:00:00Z,45.07,-64.48,-13.0,-14.2,200,4,,,,1017.3,,TRUE,TRUE,,,,,,,,,,,,,,,,,,,,,,,,,,,METAR,49.0
CXBK 150100Z AUTO 16007KT M06/M07 RMK AO1 SOG 02 6029 SLP171 T10601067,CXBK,2019-01-15T01:00:00Z,50.2,-104.7,-6.0,-6.7,160,7,,,,1017.1,,TRUE,TRUE,,,,,,,,,,,,,,,,,,,,,,,,,,,METAR,580.0
CXVW 150100Z AUTO 26004KT M02/M03 RMK AO1 T10171034,CXVW,2019-01-15T01:00:00Z,55.1,-117.2,-1.7,-3.4,260,4,,,,,,TRUE,TRUE,,,,,,,,,,,,,,,,,,,,,,,,,,,METAR,698.0
GGOV 150100Z 22003KT CAVOK 22/19 Q1012 NOSIG,GGOV,2019-01-15T01:00:00Z,11.87,-15.65,22.0,19.0,220,3,,6.21,29.88189,,,,,,TRUE,,,,,CAVOK,,,,,,,,VFR,,,,,,,,,,,,SPECI,36.0
HEAX 150100Z 20009KT CAVOK 08/04 Q1013 NOSIG,HEAX,2019-01-15T01:00:00Z,31.18,29.93,8.0,4.0,200,9,,6.21,29.911417,,,,,,TRUE,,,,,CAVOK,,,,,,,,VFR,,,,,,,,,,,,METAR,7.0
SAZN 150100Z 11003KT 9999 SCT045 22/13 Q1011,SAZN,2019-01-15T01:00:00Z,-38.95,-68.15,22.0,13.0,110,3,,6.21,29.852362,,,,,,,,,,,SCT,4500,,,,,,,VFR,,,,,,,,,,,,METAR,271.0
FGBT 150100Z 00000KT 9999 SCT010 26/26 Q1011,FGBT,2019-01-15T01:00:00Z,1.88,9.8,26.0,26.0,0,0,,6.21,29.852362,,,,,,,,,,,SCT,1000,,,,,,,VFR,,,,,,,,,,,,METAR,8.0
FGSL 150100Z 21003KT 9999 FEW010 23/21 Q1012 NOSIG,FGSL,2019-01-15T01:00:00Z,3.75,8.72,23.0,21.0,210,3,,6.21,29.88189,,,,,,TRUE,,,,,FEW,1000,,,,,,,VFR,,,,,,,,,,,,METAR,56.0
CYFS 150100Z 00000KT 15SM FEW210 M29/M33 A3047 RMK CI1 CI TR SLP347,CYFS,2019-01-15T01:00:00Z,61.75,-121.22,-29.0,-33.0,0,0,,15.0,30.469488,1034.7,,,,,,,,,,FEW,21000,,,,,,,VFR,,,,,,,,,,,,METAR,169.0
HESG 150100Z 23004KT CAVOK 06/02 Q1016 NOSIG,HESG,2019-01-15T01:00:00Z,26.33,31.75,6.0,2.0,230,4,,6.21,30.0,,,,,,TRUE,,,,,CAVOK,,,,,,,,VFR,,,,,,,,,,,,METAR,70.0
PAYA 150100Z AUTO 06004KT 6SM BR OVC013 03/02 A3002 RMK AO2 T00330022 TSNO,PAYA,2019-01-15T01:00:00Z,59.52,-139.67,3.3,2.2,60,4,,6.0,30.02067,,,TRUE,TRUE,,,TRUE,,,BR,OVC,1300,,,,,,,MVFR,,,,,,,,,,,,METAR,11.0
AGGM 150100Z 18005KT 9999 HZ FEW018 BKN100 31/25 Q1005,AGGM,2019-01-15T01:00:00Z,-8.32,157.27,31.0,25.0,180,5,,6.21,29.675198,,,,,,,,,,HZ,FEW,1800,BKN,10000,,,,,VFR,,,,,,,,,,,,METAR,6.0
GMTN 150100Z AUTO 26015KT 9999NDV /// 14/01 Q1019,GMTN,2019-01-15T01:00:00Z,35.57,-5.32,14.0,1.0,260,15,,,30.088583,,,TRUE,,,,,,,,,,,,,,,,,,,,,,,,,,,,METAR,10.0
GMTA 150100Z 18004KT CAVOK 07/01 Q1020 NOSIG,GMTA,2019-01-15T01:00:00Z,35.17,-3.85,7.0,1.0,180,4,,6.21,30.11811,,,,,,TRUE,,,,,CAVOK,,,,,,,,VFR,,,,,,,,,,,,METAR,14.0
GMMZ 150100Z VRB02KT CAVOK 03/M10 Q1022 NOSIG,GMMZ,2019-01-15T01:00:00Z,30.92,-6.9,3.0,-10.0,0,2,,6.21,30.177166,,,,,,TRUE,,,,,CAVOK,,,,,,,,VFR,,,,,,,,,,,,METAR,1140.0
GMMW 150100Z 27003KT CAVOK 05/M02 Q1019 NOSIG,GMMW,2019-01-15T01:00:00Z,34.98,-3.02,5.0,-2.0,270,3,,6.21,30.088583,,,,,,TRUE,,,,,CAVOK,,,,,,,,VFR,,,,,,,,,,,,METAR,175.0
GMML 150100Z 08014KT CAVOK 12/M02 Q1019 NOSIG,GMML,2019-01-15T01:00:00Z,27.13,-13.23,12.0,-2.0,80,14,,6.21,30.088583,,,,,,TRUE,,,,,CAVOK,,,,,,,,VFR,,,,,,,,,,,,METAR,6.0
GMFO 150100Z 17005KT CAVOK 04/M07 Q1020 NOSIG,GMFO,2019-01-15T01:00:00Z,34.77,-1.92,4.0,-7.0,170,5,,6.21,30.11811,,,,,,TRUE,,,,,CAVOK,,,,,,,,VFR,,,,,,,,,,,,METAR,470.0
GMFM 150100Z 16004KT CAVOK 05/01 Q1021 NOSIG,GMFM,2019-01-15T01:00:00Z,33.87,-5.52,5.0,1.0,160,4,,6.21,30.147638,,,,,,TRUE,,,,,CAVOK,,,,,,,,VFR,,,,,,,,,,,,METAR,549.0
GMFK 150100Z 00000KT CAVOK 05/M06 Q1023 NOSIG,GMFK,2019-01-15T01:00:00Z,31.95,-4.4,5.0,-6.0,0,0,,6.21,30.206694,,,,,,TRUE,,,,,CAVOK,,,,,,,,VFR,,,,,,,,,,,,METAR,1045.0
SAOC 150100Z 32006KT 8000 -RA OVC045 19/17 Q1015 RETS,SAOC,2019-01-15T01:00:00Z,-33.12,-64.27,19.0,17.0,320,6,,4.97,29.970472,,,,,,,,,,-RA,OVC,4500,,,,,,,MVFR,,,,,,,,,,,,METAR,421.0
SANT 150100Z 23008KT 3500 -DZ BR BKN002 OVC035 20/20 Q1013,SANT,2019-01-15T01:00:00Z,-26.85,-65.08,20.0,20.0,230,8,,2.17,29.911417,,,,,,,,,,-DZ BR,BKN,200,OVC,3500,,,,,LIFR,,,,,,,,,,,,METAR,450.0
SARF 150100Z 14004KT 9999 FEW025 BKN100 OVC200 28/26 Q1010,SARF,2019-01-15T01:00:00Z,-26.22,-58.22,28.0,26.0,140,4,,6.21,29.822834,,,,,,,,,,,FEW,2500,BKN,10000,OVC,20000,,,VFR,,,,,,,,,,,,METAR,60.0
SARE 150100Z 10005KT CAVOK 25/24 Q1010,SARE,2019-01-15T01:00:00Z,-27.43,-59.03,25.0,24.0,100,5,,6.21,29.822834,,,,,,,,,,,CAVOK,,,,,,,,VFR,,,,,,,,,,,,METAR,52.0
SARC 150100Z 11007KT CAVOK 25/24 Q1010,SARC,2019-01-15T01:00:00Z,-27.43,-58.77,25.0,24.0,110,7,,6.21,29.822834,,,,,,,,,,,CAVOK,,,,,,,,VFR,,,,,,,,,,,,METAR,62.0
SUMU 150100Z 13009KT 9999 BKN017 22/19 Q1013 NOSIG,SUMU,2019-01-15T01:00:00Z,-34.82,-56.0,22.0,19.0,130,9,,6.21,29.911417,,,,,,TRUE,,,,,BKN,1700,,,,,,,MVFR,,,,,,,,,,,,METAR,32.0
HUEN 150100Z 36004KT 9999 TS SCT019 FEW021CB BKN110 22/21 Q1016,HUEN,2019-01-15T01:00:00Z,0.03,32.45,22.0,21.0,360,4,,6.21,30.0,,,,,,,,,,TS,SCT,1900,FEW,2100,BKN,11000,,,VFR,,,,,,,,,,,,METAR,1155.0
HRYR 150100Z 01003KT 9999 SCT026 SCT100 18/13 Q1020 NOSIG,HRYR,2019-01-15T01:00:00Z,-1.97,30.12,18.0,13.0,10,3,,6.21,30.11811,,,,,,TRUE,,,,,SCT,2600,SCT,10000,,,,,VFR,,,,,,,,,,,,METAR,1497.0
HKML 150100Z 00000KT 9999 FEW020 27/24 Q1010,HKML,2019-01-15T01:00:00Z,-3.22,40.1,27.0,24.0,0,0,,6.21,29.822834,,,,,,,,,,,FEW,2000,,,,,,,VFR,,,,,,,,,,,,METAR,23.0
HKJK 150100Z 02005KT 9999 BKN022 19/15 Q1021 NOSIG,HKJK,2019-01-15T01:00:00Z,-1.32,36.92,19.0,15.0,20,5,,6.21,30.147638,,,,,,TRUE,,,,,BKN,2200,,,,,,,MVFR,,,,,,,,,,,,METAR,1624.0
VAUD 150100Z 00000KT 2500 BR NSC 07/04 Q1020 NOSIG,VAUD,2019-01-15T01:00:00Z,24.6,73.9,7.0,4.0,0,0,,1.55,30.11811,,,,,,TRUE,,,,BR,CLR,,,,,,,,IFR,,,,,,,,,,,,METAR,514.0
FDPP 150100Z AUTO 06006KT //// // ////// 19/18 Q1019,FDPP,2019-01-15T01:00:00Z,-25.97,31.25,19.0,18.0,60,6,,,30.088583,,,TRUE,,,,,,,,,,,,,,,,,,,,,,,,,,,,METAR,1099.0
FDST 150100Z AUTO 00000KT //// // ////// 21/21 Q1013,FDST,2019-01-15T01:00:00Z,-26.43,31.95,21.0,21.0,0,0,,,29.911417,,,TRUE,,,,,,,,,,,,,,,,,,,,,,,,,,,,METAR,667.0
OESK 150100Z 12004KT CAVOK 06/M01 Q1020,OESK,2019-01-15T01:00:00Z,29.77,40.1,6.0,-1.0,120,4,,6.21,30.11811,,,,,,,,,,,CAVOK,,,,,,,,VFR,,,,,,,,,,,,METAR,684.0
CXDB 150100Z AUTO 32012KT 01/M10 RMK AO1 T00111102,CXDB,2019-01-15T01:00:00Z,49.05,-112.82,1.1,-10.2,320,12,,,,,,TRUE,TRUE,,,,,,,,,,,,,,,,,,,,,,,,,,,METAR,1310.0
CXAK 150100Z AUTO 24011KT M03/M06 RMK AO1 T10281055,CXAK,2019-01-15T01:00:00Z,52.35,-112.6,-2.8,-5.5,240,11,,,,,,TRUE,TRUE,,,,,,,,,,,,,,,,,,,,,,,,,,,METAR,795.0
OJAQ 150100Z 04004KT 7000 NSC 11/01 Q1016 NOSIG,OJAQ,2019-01-15T01:00:00Z,29.62,35.02,11.0,1.0,40,4,,4.35,30.0,,,,,,TRUE,,,,,CLR,,,,,,,,MVFR,,,,,,,,,,,,METAR,51.0
TNCC 150100Z AUTO 10011KT 9999 NSC 26/21 Q1015 NOSIG ,TNCC,2019-01-15T01:00:00Z,12.2,-68.97,26.0,21.0,100,11,,6.21,29.970472,,,TRUE,,,TRUE,,,,,CLR,,,,,,,,VFR,,,,,,,,,,,,METAR,9.0
EIME 150100Z 22012KT 9999 FEW015 BKN042 07/07 Q1020,EIME,2019-01-15T01:00:00Z,53.3,-6.45,7.0,7.0,220,12,,6.21,30.11811,,,,,,,,,,,FEW,1500,BKN,4200,,,,,VFR,,,,,,,,,,,,METAR,93.0
NVVA 150100Z 18008KT 8000 SCT020 FEWCB025 BKN110 29/25 Q1007 RMK NIL,NVVA,2019-01-15T01:00:00Z,-20.25,169.77,29.0,25.0,180,8,,4.97,29.734253,,,,,,,,,,,SCT,2000,BKN,11000,,,,,MVFR,,,,,,,,,,,,METAR,3.0
NVVW 150100Z 16010KT 9999 FEW025 29/25 Q1006 RMK NIL,NVVW,2019-01-15T01:00:00Z,-19.45,169.22,29.0,25.0,160,10,,6.21,29.704725,,,,,,,,,,,FEW,2500,,,,,,,VFR,,,,,,,,,,,,METAR,6.0
NVVV 150100Z 18008KT 9999 BKN025 31/24 Q1006 RMK NIL,NVVV,2019-01-15T01:00:00Z,-17.68,168.3,31.0,24.0,180,8,,6.21,29.704725,,,,,,,,,,,BKN,2500,,,,,,,MVFR,,,,,,,,,,,,METAR,21.0
NVSS 150100Z 11011KT 9999 SCT025 31/25 Q1006 RMK NIL,NVSS,2019-01-15T01:00:00Z,-15.52,167.22,31.0,25.0,110,11,,6.21,29.704725,,,,,,,,,,,SCT,2500,,,,,,,VFR,,,,,,,,,,,,METAR,44.0
FAVV 150100Z AUTO 06003KT //// // ////// 22/17 Q1016,FAVV,2019-01-15T01:00:00Z,-26.57,27.97,22.0,17.0,60,3,,,30.0,,,TRUE,,,,,,,,,,,,,,,,,,,,,,,,,,,,METAR,1483.0
FAJB 150100Z AUTO 05002KT //// // ////// 20/17 Q1018,FAJB,2019-01-15T01:00:00Z,-26.15,28.0,20.0,17.0,50,2,,,30.059055,,,TRUE,,,,,,,,,,,,,,,,,,,,,,,,,,,,METAR,1626.0
DAUU 150100Z 00000KT CAVOK 07/M09 Q1017,DAUU,2019-01-15T01:00:00Z,31.92,5.4,7.0,-9.0,0,0,,6.21,30.029528,,,,,,,,,,,CAVOK,,,,,,,,VFR,,,,,,,,,,,,METAR,141.0
DAUT 150100Z 00000KT CAVOK 04/M05 Q1021,DAUT,2019-01-15T01:00:00Z,29.25,0.27,4.0,-5.0,0,0,,6.21,30.147638,,,,,,,,,,,CAVOK,,,,,,,,VFR,,,,,,,,,,,,METAR,312.0
DAUK 150100Z 20003KT CAVOK 06/M05 Q1017,DAUK,2019-01-15T01:00:00Z,33.08,6.12,6.0,-5.0,200,3,,6.21,30.029528,,,,,,,,,,,CAVOK,,,,,,,,VFR,,,,,,,,,,,,METAR,85.0
DAUI 150100Z 00000KT CAVOK 01/M12 Q1020,DAUI,2019-01-15T01:00:00Z,27.25,2.52,1.0,-12.0,0,0,,6.21,30.11811,,,,,,,,,,,CAVOK,,,,,,,,VFR,,,,,,,,,,,,METAR,269.0
DAUE 150100Z 00000KT CAVOK 05/M03 Q1020,DAUE,2019-01-15T01:00:00Z,30.57,2.87,5.0,-3.0,0,0,,6.21,30.11811,,,,,,,,,,,CAVOK,,,,,,,,VFR,,,,,,,,,,,,METAR,397.0
DAOV 150100Z 00000KT CAVOK 01/M05 Q1020,DAOV,2019-01-15T01:00:00Z,35.2,0.15,1.0,-5.0,0,0,,6.21,30.11811,,,,,,,,,,,CAVOK,,,,,,,,VFR,,,,,,,,,,,,METAR,514.0
DAOR 150100Z 08002KT CAVOK 04/M08 Q1022,DAOR,2019-01-15T01:00:00Z,31.65,-2.27,4.0,-8.0,80,2,,6.21,30.177166,,,,,,,,,,,CAVOK,,,,,,,,VFR,,,,,,,,,,,,METAR,773.0
DAOF 150100Z 05004KT CAVOK 07/M09 Q1021,DAOF,2019-01-15T01:00:00Z,27.7,-8.17,7.0,-9.0,50,4,,6.21,30.147638,,,,,,,,,,,CAVOK,,,,,,,,VFR,,,,,,,,,,,,METAR,431.0
DAAY 150100Z 23006KT CAVOK 02/M04 Q1023,DAAY,2019-01-15T01:00:00Z,33.53,-0.25,2.0,-4.0,230,6,,6.21,30.206694,,,,,,,,,,,CAVOK,,,,,,,,VFR,,,,,,,,,,,,METAR,1149.0
DAAP 150100Z 00000KT CAVOK 03/M07 Q1021,DAAP,2019-01-15T01:00:00Z,26.72,8.62,3.0,-7.0,0,0,,6.21,30.147638,,,,,,,,,,,CAVOK,,,,,,,,VFR,,,,,,,,,,,,METAR,558.0
SLVR 150100Z 36004KT 9999 SCT017 FEW027CB 25/24 Q1012,SLVR,2019-01-15T01:00:00Z,-17.63,-63.12,25.0,24.0,360,4,,6.21,29.88189,,,,,,,,,,,SCT,1700,FEW,2700,,,,,VFR,,,,,,,,,,,,METAR,373.0
SLTJ 150100Z 00000KT 9999 BKN025 FEW030CB BKN200 22/18 Q1017,SLTJ,2019-01-15T01:00:00Z,-21.55,-64.72,22.0,18.0,0,0,,6.21,30.029528,,,,,,,,,,,BKN,2500,FEW,3000,BKN,20000,,,MVFR,,,,,,,,,,,,METAR,1858.0
SLLP 150100Z 08006KT 030V110 9999 FEW015 FEW017CBBKN200 08/04 Q1036,SLLP,2019-01-15T01:00:00Z,-16.52,-68.17,8.0,4.0,80,6,,6.21,30.590551,,,,,,,,,,,FEW,1500,BKN,20000,,,,,VFR,,,,,,,,,,,,SPECI,4014.0
SLCB 150100Z 18003KT 9999 FEW030 SCT070 20/09 Q1022,SLCB,2019-01-15T01:00:00Z,-17.42,-66.18,20.0,9.0,180,3,,6.21,30.177166,,,,,,,,,,,FEW,3000,SCT,7000,,,,,VFR,,,,,,,,,,,,METAR,2548.0
SGES 150100Z 16003KT 9999 TS OVC027 FEW040CB 24/22 Q1013,SGES,2019-01-15T01:00:00Z,-25.45,-54.85,24.0,22.0,160,3,,6.21,29.911417,,,,,,,,,,TS,OVC,2700,FEW,4000,,,,,MVFR,,,,,,,,,,,,METAR,849.0
SGAS 150100Z 08005KT 8000 NSC 29/24 Q1010,SGAS,2019-01-15T01:00:00Z,-25.25,-57.52,29.0,24.0,80,5,,4.97,29.822834,,,,,,,,,,,CLR,,,,,,,,MVFR,,,,,,,,,,,,METAR,101.0
SYCJ 150100Z 01004KT 9999 SCT017 25/21 Q1014 NOSIG,SYCJ,2019-01-15T01:00:00Z,6.5,-58.25,25.0,21.0,10,4,,6.21,29.940945,,,,,,TRUE,,,,,SCT,1700,,,,,,,VFR,,,,,,,,,,,,METAR,30.0
SBSG 150100Z 19004KT 9999 SCT015 SCT020 26/24 Q1014,SBSG,2019-01-15T01:00:00Z,-5.77,-35.37,26.0,24.0,190,4,,6.21,29.940945,,,,,,,,,,,SCT,1500,SCT,2000,,,,,VFR,,,,,,,,,,,,METAR,83.0
SBBE 150100Z 13005KT 9999 FEW025 BKN070 25/24 Q1013,SBBE,2019-01-15T01:00:00Z,-1.37,-48.47,25.0,24.0,130,5,,6.21,29.911417,,,,,,,,,,,FEW,2500,BKN,7000,,,,,VFR,,,,,,,,,,,,METAR,16.0
SARP 150100Z 11006KT 9999 FEW050CB BKN080 28/24 Q1013 RMK CB OBS TO SW,SARP,2019-01-15T01:00:00Z,-27.38,-55.97,28.0,24.0,110,6,,6.21,29.911417,,,,,,,,,,,FEW,5000,BKN,8000,,,,,VFR,,,,,,,,,,,,SPECI,125.0
SARI 150100Z 09007KT 9999 SCT030 OVC100 23/22 Q1013,SARI,2019-01-15T01:00:00Z,-25.72,-54.47,23.0,22.0,90,7,,6.21,29.911417,,,,,,,,,,,SCT,3000,OVC,10000,,,,,VFR,,,,,,,,,,,,METAR,270.0
YBTL 150100Z 10013KT 070V150 8000 -DZ VCSH FEW018 SCT025 BKN058 26/23 Q1012,YBTL,2019-01-15T01:00:00Z,-19.25,146.75,26.0,23.0,100,13,,4.97,29.88189,,,,,,,,,,-DZ VCSH,FEW,1800,SCT,2500,BKN,5800,,,MVFR,,,,,,,,,,,,SPECI,6.0
DAAT 150100Z 07002KT CAVOK 01/M17 Q1021,DAAT,2019-01-15T01:00:00Z,22.82,5.47,1.0,-17.0,70,2,,6.21,30.147638,,,,,,,,,,,CAVOK,,,,,,,,VFR,,,,,,,,,,,,METAR,1377.0
DAUZ 150100Z 23004KT CAVOK 02/M11 Q1020,DAUZ,2019-01-15T01:00:00Z,28.05,9.62,2.0,-11.0,230,4,,6.21,30.11811,,,,,,,,,,,CAVOK,,,,,,,,VFR,,,,,,,,,,,,METAR,562.0
DABT 150100Z 15004KT CAVOK M02/M05 Q1020,DABT,2019-01-15T01:00:00Z,35.75,6.32,-2.0,-5.0,150,4,,6.21,30.11811,,,,,,,,,,,CAVOK,,,,,,,,VFR,,,,,,,,,,,,METAR,823.0
DAAV 150100Z 18003KT 9999 SCT020 BKN030 12/10 Q1020,DAAV,2019-01-15T01:00:00Z,36.8,5.88,12.0,10.0,180,3,,6.21,30.11811,,,,,,,,,,,SCT,2000,BKN,3000,,,,,MVFR,,,,,,,,,,,,METAR,11.0
DAAJ 150100Z 03003KT CAVOK M00/M12 Q1020,DAAJ,2019-01-15T01:00:00Z,24.28,9.47,0.0,-12.0,30,3,,6.21,30.11811,,,,,,,,,,,CAVOK,,,,,,,,VFR,,,,,,,,,,,,METAR,968.0
DAAE 150100Z 24008KT 9999 FEW020 05/04 Q1020,DAAE,2019-01-15T01:00:00Z,36.72,5.07,5.0,4.0,240,8,,6.21,30.11811,,,,,,,,,,,FEW,2000,,,,,,,VFR,,,,,,,,,,,,METAR,2.0
DAOI 150100Z 05007KT CAVOK 06/00 Q1020,DAOI,2019-01-15T01:00:00Z,36.22,1.32,6.0,0.0,50,7,,6.21,30.11811,,,,,,,,,,,CAVOK,,,,,,,,VFR,,,,,,,,,,,,METAR,143.0
DAUG 150100Z 00000KT CAVOK 09/M11 Q1019,DAUG,2019-01-15T01:00:00Z,32.37,3.82,9.0,-11.0,0,0,,6.21,30.088583,,,,,,,,,,,CAVOK,,,,,,,,VFR,,,,,,,,,,,,METAR,450.0
DAUB 150100Z 35006KT CAVOK 12/00 Q1017,DAUB,2019-01-15T01:00:00Z,34.78,5.72,12.0,0.0,350,6,,6.21,30.029528,,,,,,,,,,,CAVOK,,,,,,,,VFR,,,,,,,,,,,,METAR,87.0
DAUA 150100Z 06005KT CAVOK 06/M07 Q1020,DAUA,2019-01-15T01:00:00Z,27.83,-0.18,6.0,-7.0,60,5,,6.21,30.11811,,,,,,,,,,,CAVOK,,,,,,,,VFR,,,,,,,,,,,,METAR,263.0
DAOB 150100Z 18003KT CAVOK M01/M05 Q1020,DAOB,2019-01-15T01:00:00Z,35.33,1.47,-1.0,-5.0,180,3,,6.21,30.11811,,,,,,,,,,,CAVOK,,,,,,,,VFR,,,,,,,,,,,,METAR,989.0
DABS 150100Z 27010KT 9999 SCT033 08/03 Q1017,DABS,2019-01-15T01:00:00Z,35.43,8.12,8.0,3.0,270,10,,6.21,30.029528,,,,,,,,,,,SCT,3300,,,,,,,VFR,,,,,,,,,,,,METAR,813.0
DAAS 150100Z 02003KT CAVOK 01/M02 Q1020,DAAS,2019-01-15T01:00:00Z,36.18,5.33,1.0,-2.0,20,3,,6.21,30.11811,,,,,,,,,,,CAVOK,,,,,,,,VFR,,,,,,,,,,,,METAR,1038.0
MYNN 150100Z 35005KT 9999 SCT025 23/19 A3010,MYNN,2019-01-15T01:00:00Z,25.03,-77.47,23.0,19.0,350,5,,6.21,30.100393,,,,,,,,,,,SCT,2500,,,,,,,VFR,,,,,,,,,,,,METAR,3.0
CXLB 150100Z AUTO 36004KT M06/M11 RMK AO1 SLP155 T10581113 58026,CXLB,2019-01-15T01:00:00Z,44.37,-64.3,-5.8,-11.3,360,4,,,,1015.5,,TRUE,TRUE,,,,,,,,,,,,,,,,-2.6,,,,,,,,,,,METAR,4.0
CXRB 150100Z AUTO 34010KT M29/M32 RMK AO1 SOG 03 6018 PK WND 35022/0002 SLP173 T12901318,CXRB,2019-01-15T01:00:00Z,74.72,-94.98,-29.0,-31.8,340,10,,,,1017.3,,TRUE,TRUE,,,,,,,,,,,,,,,,,,,,,,,,,,,METAR,68.0
CXPA 150100Z AUTO 31008KT 01/M01 RMK AO1 T00141010,CXPA,2019-01-15T01:00:00Z,55.62,-118.3,1.4,-1.0,310,8,,,,,,TRUE,TRUE,,,,,,,,,,,,,,,,,,,,,,,,,,,METAR,621.0
CXTO 150100Z AUTO M03/M08 RMK AO1 SOG 01 8004 SLP228 T10281076,CXTO,2019-01-15T01:00:00Z,43.67,-79.4,-2.8,-7.6,,,,,,1022.8,,TRUE,TRUE,,,,,,,,,,,,,,,,,,,,,,,,,,,METAR,113.0
CXVN 150100Z AUTO 22006KT M04/M07 RMK AO1 SOG 01 0000 SLP232 T10351068,CXVN,2019-01-15T01:00:00Z,43.18,-79.4,-3.5,-6.8,220,6,,,,1023.2,,TRUE,TRUE,,,,,,,,,,,,,,,,,,,,,,,,,,,METAR,79.0
CXZV 150100Z AUTO 30002KT M12/M16 RMK AO1 SOG 68 8010 SLP157 T11181156,CXZV,2019-01-15T01:00:00Z,50.22,-66.25,-11.8,-15.6,300,2,,,,1015.7,,TRUE,TRUE,,,,,,,,,,,,,,,,,,,,,,,,,,,METAR,52.0
UTAM 150100Z 31010KT 6000 NSC 08/03 Q1014 NOSIG,UTAM,2019-01-15T01:00:00Z,37.62,61.9,8.0,3.0,310,10,,3.73,29.940945,,,,,,TRUE,,,,,CLR,,,,,,,,MVFR,,,,,,,,,,,,METAR,222.0
SARL 150100Z 14005KT 9999 FEW018 FEW045CB BKN100 OVC200 25/24 Q1012,SARL,2019-01-15T01:00:00Z,-29.67,-57.13,25.0,24.0,140,5,,6.21,29.88189,,,,,,,,,,,FEW,1800,FEW,4500,BKN,10000,OVC,20000,VFR,,,,,,,,,,,,METAR,70.0
SKCL 150100Z 01006KT 9999 SCT030 BKN100 24/17 A2995,SKCL,2019-01-15T01:00:00Z,3.53,-76.37,24.0,17.0,10,6,,6.21,29.949802,,,,,,,,,,,SCT,3000,BKN,10000,,,,,VFR,,,,,,,,,,,,METAR,969.0
SKCC 150100Z VRB02KT 9999 SCT018 SCT080 25/21 A2999 REDZ,SKCC,2019-01-15T01:00:00Z,7.92,-72.52,25.0,21.0,0,2,,6.21,29.991142,,,,,,,,,,,SCT,1800,SCT,8000,,,,,VFR,,,,,,,,,,,,METAR,317.0
SKLT 150100Z 00000KT 9999 FEW017 24/24 A2983,SKLT,2019-01-15T01:00:00Z,-4.2,-69.93,24.0,24.0,0,0,,6.21,29.828741,,,,,,,,,,,FEW,1700,,,,,,,VFR,,,,,,,,,,,,METAR,84.0
SKRG 150100Z 34003KT 9999 SCT010 BKN080 15/14 A3028,SKRG,2019-01-15T01:00:00Z,6.17,-75.42,15.0,14.0,340,3,,6.21,30.280512,,,,,,,,,,,SCT,1000,BKN,8000,,,,,VFR,,,,,,,,,,,,METAR,2137.0
SKBG 150100Z 02004KT 9999 SCT015 SCT080 20/19 A3001,SKBG,2019-01-15T01:00:00Z,7.13,-73.18,20.0,19.0,20,4,,6.21,30.008858,,,,,,,,,,,SCT,1500,SCT,8000,,,,,VFR,,,,,,,,,,,,METAR,1189.0
KRUQ 150100Z AUTO 00000KT 10SM BKN038 03/01 A3019 RMK AO2 T00300009,KRUQ,2019-01-15T01:00:00Z,35.65,-80.52,3.0,0.9,0,0,,10.0,30.188976,,,TRUE,TRUE,,,,,,,BKN,3800,,,,,,,VFR,,,,,,,,,,,,METAR,236.0
CYXH 150100Z 31003KT 15SM FEW270 00/M08 A3002 RMK CI1 SLP202,CYXH,2019-01-15T01:00:00Z,50.02,-110.72,0.0,-8.0,310,3,,15.0,30.02067,1020.2,,,,,,,,,,FEW,27000,,,,,,,VFR,,,,,,,,,,,,METAR,716.0
CYZU 150100Z 29008KT 15SM SCT150 SCT210 M00/M02 A3007 RMK AC3CI1 SLP227,CYZU,2019-01-15T01:00:00Z,54.15,-115.78,0.0,-2.0,290,8,,15.0,30.070866,1022.7,,,,,,,,,,SCT,15000,SCT,21000,,,,,VFR,,,,,,,,,,,,METAR,785.0
FACT 150100Z 12002KT CAVOK 16/12 Q1015 NOSIG,FACT,2019-01-15T01:00:00Z,-33.97,18.6,16.0,12.0,120,2,,6.21,29.970472,,,,,,TRUE,,,,,CAVOK,,,,,,,,VFR,,,,,,,,,,,,METAR,42.0
FAWK 150100Z AUTO 02002KT //// // ////// ///// Q1019,FAWK,2019-01-15T01:00:00Z,-25.82,28.22,,,20,2,,,30.088583,,,TRUE,,,,,,,,,,,,,,,,,,,,,,,,,,,,SPECI,1500.0
YMOR 150100Z AUTO 01011KT 9999 // NCD 33/15 Q1015,YMOR,2019-01-15T01:00:00Z,-29.5,149.85,33.0,15.0,10,11,,6.21,29.970472,,,TRUE,,,,,,,,CLR,,,,,,,,VFR,,,,,,,,,,,,METAR,214.0
YMER 150100Z AUTO 04010KT 9999 // NCD 26/21 Q1010,YMER,2019-01-15T01:00:00Z,-36.92,149.9,26.0,21.0,40,10,,6.21,29.822834,,,TRUE,,,,,,,,CLR,,,,,,,,VFR,,,,,,,,,,,,METAR,2.0
YMEN 150100Z AUTO 16004KT 9999 // NCD 33/19 Q1008,YMEN,2019-01-15T01:00:00Z,-37.72,144.9,33.0,19.0,160,4,,6.21,29.763779,,,TRUE,,,,,,,,CLR,,,,,,,,VFR,,,,,,,,,,,,METAR,86.0
YMEK 150100Z AUTO 09010KT 9999 // NCD 39/07 Q1008,YMEK,2019-01-15T01:00:00Z,-26.62,118.55,39.0,7.0,90,10,,6.21,29.763779,,,TRUE,,,,,,,,CLR,,,,,,,,VFR,,,,,,,,,,,,METAR,522.0
YMDG 150100Z AUTO 29011KT 270V340 9999 // NCD 35/13 Q1015,YMDG,2019-01-15T01:00:00Z,-32.57,149.62,35.0,13.0,290,11,,6.21,29.970472,,,TRUE,,,,,,,,CLR,,,,,,,,VFR,,,,,,,,,,,,METAR,471.0
YMAY 150100Z AUTO 26005KT 210V300 9999 // NCD 38/15 Q1010,YMAY,2019-01-15T01:00:00Z,-36.07,146.93,38.0,15.0,260,5,,6.21,29.822834,,,TRUE,,,,,,,,CLR,,,,,,,,VFR,,,,,,,,,,,,METAR,171.0
YLRE 150100Z AUTO 06014KT //// // NCD 34/17 Q1013,YLRE,2019-01-15T01:00:00Z,-23.43,144.28,34.0,17.0,60,14,,,29.911417,,,TRUE,,,,,,,,CLR,,,,,,,,,,,,,,,,,,,,METAR,193.0
YPBO 150100Z AUTO 27005KT 220V320 9999 // NCD 35/16 Q1009,YPBO,2019-01-15T01:00:00Z,-23.2,117.75,35.0,16.0,270,5,,6.21,29.793306,,,TRUE,,,,,,,,CLR,,,,,,,,VFR,,,,,,,,,,,,METAR,1292.0
YOLD 150100Z AUTO 33015KT 9999 // NCD 43/04 Q1008,YOLD,2019-01-15T01:00:00Z,-30.48,136.88,43.0,4.0,330,15,,6.21,29.763779,,,TRUE,,,,,,,,CLR,,,,,,,,VFR,,,,,,,,,,,,METAR,105.0
YNWN 150100Z AUTO 21006KT 170V240 9999 // NCD 38/13 Q1009,YNWN,2019-01-15T01:00:00Z,-23.42,119.8,38.0,13.0,210,6,,6.21,29.793306,,,TRUE,,,,,,,,CLR,,,,,,,,VFR,,,,,,,,,,,,METAR,525.0
YNTN 150100Z AUTO 12007KT 070V150 9999 // SCT032 31/22 Q1010,YNTN,2019-01-15T01:00:00Z,-17.68,141.07,31.0,22.0,120,7,,6.21,29.822834,,,TRUE,,,,,,,,SCT,3200,,,,,,,VFR,,,,,,,,,,,,METAR,22.0
YNBR 150100Z AUTO 30013KT 290V350 9999 // NCD 35/13 Q1015,YNBR,2019-01-15T01:00:00Z,-30.32,149.83,35.0,13.0,300,13,,6.21,29.970472,,,TRUE,,,,,,,,CLR,,,,,,,,VFR,,,,,,,,,,,,METAR,240.0
YNAR 150100Z AUTO 31013KT //// // ////// 42/08 Q1010,YNAR,2019-01-15T01:00:00Z,-34.7,146.52,42.0,8.0,310,13,,,29.822834,,,TRUE,,,,,,,,,,,,,,,,,,,,,,,,,,,,METAR,145.0
YMTG 150100Z AUTO 28004KT 9999 // NCD 33/04 Q1010,YMTG,2019-01-15T01:00:00Z,-37.75,140.78,33.0,4.0,280,4,,6.21,29.822834,,,TRUE,,,,,,,,CLR,,,,,,,,VFR,,,,,,,,,,,,METAR,65.0
YSNW 150100Z 11009KT CAVOK 30/23 Q1010 NOSIG,YSNW,2019-01-15T01:00:00Z,-34.95,150.52,30.0,23.0,110,9,,6.21,29.822834,,,,,,TRUE,,,,,CAVOK,,,,,,,,VFR,,,,,,,,,,,,METAR,110.0
YLIS 150100Z AUTO 04005KT 350V080 9999 // NCD 30/16 Q1015,YLIS,2019-01-15T01:00:00Z,-28.83,153.27,30.0,16.0,40,5,,6.21,29.970472,,,TRUE,,,,,,,,CLR,,,,,,,,VFR,,,,,,,,,,,,METAR,11.0
YLEC 150100Z AUTO 34018KT //// // ////// 42/04 Q1011,YLEC,2019-01-15T01:00:00Z,-30.6,138.43,42.0,4.0,340,18,,,29.852362,,,TRUE,,,,,,,,,,,,,,,,,,,,,,,,,,,,METAR,262.0
YKRY 150100Z AUTO 04006KT 360V090 9999 // NCD 29/15 Q1017,YKRY,2019-01-15T01:00:00Z,-26.57,151.83,29.0,15.0,40,6,,6.21,30.029528,,,TRUE,,,,,,,,CLR,,,,,,,,VFR,,,,,,,,,,,,METAR,434.0
YHUG 150100Z AUTO 09011KT 9999 // NCD 33/14 Q1012,YHUG,2019-01-15T01:00:00Z,-20.82,144.23,33.0,14.0,90,11,,6.21,29.88189,,,TRUE,,,,,,,,CLR,,,,,,,,VFR,,,,,,,,,,,,METAR,318.0
YGTH 150100Z AUTO 30017KT 9999 // NCD 43/07 Q1010,YGTH,2019-01-15T01:00:00Z,-34.25,146.07,43.0,7.0,300,17,,6.21,29.822834,,,TRUE,,,,,,,,CLR,,,,,,,,VFR,,,,,,,,,,,,METAR,134.0
YGTE 150100Z AUTO 05009KT 9999 // NCD 32/21 Q1008,YGTE,2019-01-15T01:00:00Z,-13.97,136.45,32.0,21.0,50,9,,6.21,29.763779,,,TRUE,,,,,,,,CLR,,,,,,,,VFR,,,,,,,,,,,,METAR,14.0
YGFN 150100Z AUTO 01007KT 340V040 9999 // NCD 29/16 Q1015,YGFN,2019-01-15T01:00:00Z,-29.77,153.03,29.0,16.0,10,7,,6.21,29.970472,,,TRUE,,,,,,,,CLR,,,,,,,,VFR,,,,,,,,,,,,METAR,34.0
YESP 150100Z AUTO 13011KT 070V130 9999 // SCT027 19/11 Q1016,YESP,2019-01-15T01:00:00Z,-33.68,121.82,19.0,11.0,130,11,,6.21,30.0,,,TRUE,,,,,,,,SCT,2700,,,,,,,VFR,,,,,,,,,,,,METAR,143.0
YEML 150100Z AUTO 09009KT 9999 // SCT053 33/16 Q1015,YEML,2019-01-15T01:00:00Z,-23.57,148.18,33.0,16.0,90,9,,6.21,29.970472,,,TRUE,,,,,,,,SCT,5300,,,,,,,VFR,,,,,,,,,,,,METAR,190.0
YDBY 150100Z AUTO 25005KT 220V280 //// // SCT019 BKN024 OVC029 31/26 Q1007,YDBY,2019-01-15T01:00:00Z,-17.37,123.67,31.0,26.0,250,5,,,29.734253,,,TRUE,,,,,,,,SCT,1900,BKN,2400,OVC,2900,,,,,,,,,,,,,,,METAR,7.0
YCOM 150100Z AUTO 28009KT 9999 // NCD 34/05 Q1015,YCOM,2019-01-15T01:00:00Z,-36.3,148.97,34.0,5.0,280,9,,6.21,29.970472,,,TRUE,,,,,,,,CLR,,,,,,,,VFR,,,,,,,,,,,,METAR,941.0
YCNM 150100Z AUTO 33010KT //// // ////// 38/12 Q1013,YCNM,2019-01-15T01:00:00Z,-30.98,148.38,38.0,12.0,330,10,,,29.911417,,,TRUE,,,,,,,,,,,,,,,,,,,,,,,,,,,,METAR,184.0
YBPN 150100Z AUTO 10016KT 9999 // SCT027 28/21 Q1013,YBPN,2019-01-15T01:00:00Z,-20.5,148.55,28.0,21.0,100,16,,6.21,29.911417,,,TRUE,,,,,,,,SCT,2700,,,,,,,VFR,,,,,,,,,,,,METAR,25.0
YBOK 150100Z 03006KT 360V080 CAVOK 30/14 Q1017 NOSIG,YBOK,2019-01-15T01:00:00Z,-27.42,151.72,30.0,14.0,30,6,,6.21,30.029528,,,,,,TRUE,,,,,CAVOK,,,,,,,,VFR,,,,,,,,,,,,METAR,407.0
YBNA 150100Z AUTO 06011KT 9999 // SCT030 29/23 Q1015,YBNA,2019-01-15T01:00:00Z,-28.83,153.57,29.0,23.0,60,11,,6.21,29.970472,,,TRUE,,,,,,,,SCT,3000,,,,,,,VFR,,,,,,,,,,,,METAR,2.0
YBMK 150100Z AUTO 14018KT 9999 // ////// 30/22 Q1013,YBMK,2019-01-15T01:00:00Z,-21.17,149.17,30.0,22.0,140,18,,6.21,29.911417,,,TRUE,,,,,,,,,,,,,,,,,,,,,,,,,,,,METAR,31.0
YBHI 150100Z AUTO 34018KT 9999 // NCD 41/04 Q1011,YBHI,2019-01-15T01:00:00Z,-32.0,141.47,41.0,4.0,340,18,,6.21,29.852362,,,TRUE,,,,,,,,CLR,,,,,,,,VFR,,,,,,,,,,,,METAR,292.0
HETR 150100Z 01006KT CAVOK 10/02 Q1017,HETR,2019-01-15T01:00:00Z,28.22,33.65,10.0,2.0,10,6,,6.21,30.029528,,,,,,,,,,,CAVOK,,,,,,,,VFR,,,,,,,,,,,,METAR,35.0
CWIS 150100Z AUTO 25001KT M09/M14 RMK AO1 SOG 130 8009 SLP169 T10941138,CWIS,2019-01-15T01:00:00Z,47.28,-70.63,-9.4,-13.8,250,1,,,,1016.9,,TRUE,TRUE,,,,,,,,,,,,,,,,,,,,,,,,,,,METAR,719.0
CWIP 150100Z AUTO 27004KT M10/ RMK AO1 T1097,CWIP,2019-01-15T01:00:00Z,50.17,-66.43,-9.7,,270,4,,,,,,TRUE,TRUE,,,,,,,,,,,,,,,,,,,,,,,,,,,METAR,25.0
CWIJ 150100Z AUTO 27002KT M39/M43 RMK AO1 SOG 60 1005 SLP385 T13891426,CWIJ,2019-01-15T01:00:00Z,65.77,-111.23,-38.9,-42.6,270,2,,,,1038.5,,TRUE,TRUE,,,,,,,,,,,,,,,,,,,,,,,,,,,METAR,500.0
CWHL 150100Z AUTO 00000KT 07/05 RMK AO1 T00720048 57013,CWHL,2019-01-15T01:00:00Z,54.17,-130.35,7.2,4.8,0,0,,,,,,TRUE,TRUE,,,,,,,,,,,,,,,,-1.3,,,,,,,,,,,METAR,5.0
CWXL 150100Z AUTO 32005KT M01/M07 RMK AO1 T10101073,CWXL,2019-01-15T01:00:00Z,49.73,-111.45,-1.0,-7.3,320,5,,,,,,TRUE,TRUE,,,,,,,,,,,,,,,,,,,,,,,,,,,METAR,817.0
CXHF 150100Z AUTO M10/M14 RMK AO1 T10971144,CXHF,2019-01-15T01:00:00Z,45.83,-75.65,-9.7,-14.4,,,,,,,,TRUE,TRUE,,,,,,,,,,,,,,,,,,,,,,,,,,,METAR,190.0
CWER 150100Z AUTO 23016KT RMK AO1 PK WND 24024/0001,CWER,2019-01-15T01:00:00Z,47.0,-70.82,,,230,16,,,,,,TRUE,TRUE,,,,,,,,,,,,,,,,,,,,,,,,,,,METAR,5.0
CWDO 150100Z AUTO 23013G19KT M07/M10 RMK AO1 SOG 02 6003 PK WND 23019/0059 SLP191 T10711099,CWDO,2019-01-15T01:00:00Z,49.67,-54.78,-7.1,-9.9,230,13,19,,,1019.1,,TRUE,TRUE,,,,,,,,,,,,,,,,,,,,,,,,,,,METAR,92.0
CWBY 150100Z AUTO 28006KT M06/M08 RMK AO1 SOG 22 8012 PK WND 24019/0002 SLP149 T10641076,CWBY,2019-01-15T01:00:00Z,49.82,-64.28,-6.4,-7.6,280,6,,,,1014.9,,TRUE,TRUE,,,,,,,,,,,,,,,,,,,,,,,,,,,METAR,53.0
CWRA 150100Z AUTO 26008KT RMK AO1 55000,CWRA,2019-01-15T01:00:00Z,46.63,-53.07,,,260,8,,,,,,TRUE,TRUE,,,,,,,,,,,,,,,,0.0,,,,,,,,,,,METAR,28.0
CWDM 150100Z AUTO 23012G17KT M05/M07 RMK AO1 SOG 22 6012 PK WND 24018/0001 SLP154 T10481074,CWDM,2019-01-15T01:00:00Z,50.47,-59.62,-4.8,-7.4,230,12,17,,,1015.4,,TRUE,TRUE,,,,,,,,,,,,,,,,,,,,,,,,,,,METAR,6.0
CWVU 150100Z AUTO 35012G17KT M04/M07 RMK AO1 SOG 01 8024 PK WND 35017/0052 SLP182 T10351072,CWVU,2019-01-15T01:00:00Z,44.28,-66.33,-3.5,-7.2,350,12,17,,,1018.2,,TRUE,TRUE,,,,,,,,,,,,,,,,,,,,,,,,,,,METAR,16.0
SKPE 150100Z 19004KT 9999 FEW014TCU SCT080 22/18 A3003 RMK TCU S/SW,SKPE,2019-01-15T01:00:00Z,4.82,-75.73,22.0,18.0,190,4,,6.21,30.029528,,,,,,,,,,,FEW,1400,SCT,8000,,,,,VFR,,,,,,,,,,,,METAR,1346.0
NSFA 150100Z 32004KT 9999 VCSH FEW020CB SCT160 31/26 Q1006,NSFA,2019-01-15T01:00:00Z,-13.83,-172.0,31.0,26.0,320,4,,6.21,29.704725,,,,,,,,,,VCSH,FEW,2000,SCT,16000,,,,,VFR,,,,,,,,,,,,METAR,5.0
SBSM 150100Z 02006KT 9999 VCTS FEW025 FEW035CB SCT080 25/23 Q1012 RETS,SBSM,2019-01-15T01:00:00Z,-29.72,-53.7,25.0,23.0,20,6,,6.21,29.88189,,,,,,,,,,VCTS,FEW,2500,FEW,3500,SCT,8000,,,VFR,,,,,,,,,,,,METAR,85.0
SBMG 150100Z 14017KT 9999 VCTS SCT025 FEW035CB 23/20 Q1015,SBMG,2019-01-15T01:00:00Z,-23.48,-52.02,23.0,20.0,140,17,,6.21,29.970472,,,,,,,,,,VCTS,SCT,2500,FEW,3500,,,,,VFR,,,,,,,,,,,,METAR,542.0
SBJV 150100Z 18001KT 9999 SCT020 23/22 Q1014,SBJV,2019-01-15T01:00:00Z,-26.22,-48.8,23.0,22.0,180,1,,6.21,29.940945,,,,,,,,,,,SCT,2000,,,,,,,VFR,,,,,,,,,,,,METAR,4.0
SBCH 150100Z 00000KT 9999 FEW003 SCT025 FEW040TCU 21/21 Q1019,SBCH,2019-01-15T01:00:00Z,-27.13,-52.67,21.0,21.0,0,0,,6.21,30.088583,,,,,,,,,,,FEW,300,SCT,2500,FEW,4000,,,VFR,,,,,,,,,,,,METAR,650.0
SBCA 150100Z 13007KT 9999 SCT030 FEW050TCU 22/20 Q1018,SBCA,2019-01-15T01:00:00Z,-25.0,-53.5,22.0,20.0,130,7,,6.21,30.059055,,,,,,,,,,,SCT,3000,FEW,5000,,,,,VFR,,,,,,,,,,,,METAR,754.0
SBPJ 150100Z 05002KT 9999 FEW020 23/23 Q1014,SBPJ,2019-01-15T01:00:00Z,-10.28,-48.37,23.0,23.0,50,2,,6.21,29.940945,,,,,,,,,,,FEW,2000,,,,,,,VFR,,,,,,,,,,,,METAR,236.0
SBAN 150100Z 32002KT 9999 VCTS FEW040 FEW045CB 20/17 Q1020,SBAN,2019-01-15T01:00:00Z,-16.22,-48.97,20.0,17.0,320,2,,6.21,30.11811,,,,,,,,,,VCTS,FEW,4000,FEW,4500,,,,,VFR,,,,,,,,,,,,METAR,1137.0
FALA 150100Z AUTO 06008KT //// // ////// 20/17 Q1018,FALA,2019-01-15T01:00:00Z,-25.92,27.92,20.0,17.0,60,8,,,30.059055,,,TRUE,,,,,,,,,,,,,,,,,,,,,,,,,,,,METAR,1377.0
SBSY 150100Z AUTO 20016KT 9999 -RA NSC 22/18 Q1017 RERA,SBSY,2019-01-15T01:00:00Z,-11.57,-50.67,22.0,18.0,200,16,,6.21,30.029528,,,TRUE,,,,,,,-RA,CLR,,,,,,,,VFR,,,,,,,,,,,,METAR,197.0
SBCO 150100Z 00000KT 9999 FEW040 SCT080 24/23 Q1012 RETS,SBCO,2019-01-15T01:00:00Z,-29.95,-51.15,24.0,23.0,0,0,,6.21,29.88189,,,,,,,,,,,FEW,4000,SCT,8000,,,,,VFR,,,,,,,,,,,,METAR,47.0
DAUO 150100Z 00000KT CAVOK 06/01 Q1017,DAUO,2019-01-15T01:00:00Z,33.5,6.78,6.0,1.0,0,0,,6.21,30.029528,,,,,,,,,,,CAVOK,,,,,,,,VFR,,,,,,,,,,,,SPECI,63.0
HTKJ 150100Z 09010KT 9999 FEW024 22/19 Q1014 NOSIG,HTKJ,2019-01-15T01:00:00Z,-3.42,37.07,22.0,19.0,90,10,,6.21,29.940945,,,,,,TRUE,,,,,FEW,2400,,,,,,,VFR,,,,,,,,,,,,METAR,896.0
VLLB 150100Z 02006KT 4000 BR OVC006 19/18 Q1015 NOSIG,VLLB,2019-01-15T01:00:00Z,19.9,102.17,19.0,18.0,20,6,,2.49,29.970472,,,,,,TRUE,,,,BR,OVC,600,,,,,,,IFR,,,,,,,,,,,,METAR,291.0
VLLN 150100Z 18002KT 0300 FG VV/// 16/16 Q1016 NOSIG,VLLN,2019-01-15T01:00:00Z,20.97,101.4,16.0,16.0,180,2,,0.19,30.0,,,,,,TRUE,,,,FG,OVX,0,,,,,,,LIFR,,,,,,,,,,,,METAR,600.0
VLPS 150100Z 09006KT 9999 FEW030 SCT200 24/18 Q1013 NOSIG,VLPS,2019-01-15T01:00:00Z,15.13,105.78,24.0,18.0,90,6,,6.21,29.911417,,,,,,TRUE,,,,,FEW,3000,SCT,20000,,,,,VFR,,,,,,,,,,,,METAR,107.0
NGFU 150100Z 33006KT 9999 FEW021 BKN300 31/26 Q1006,NGFU,2019-01-15T01:00:00Z,-8.52,179.22,31.0,26.0,330,6,,6.21,29.704725,,,,,,,,,,,FEW,2100,BKN,30000,,,,,VFR,,,,,,,,,,,,METAR,1.0
CYVC 150100Z 25005KT 4SM -SN SCT009 OVC021 M04/M05 A2974 RMK SC4SC4 SLP102,CYVC,2019-01-15T01:00:00Z,55.15,-105.27,-4.0,-5.0,250,5,,4.0,29.740158,1010.2,,,,,,,,,-SN,SCT,900,OVC,2100,,,,,MVFR,,,,,,,,,,,,METAR,379.0
CYQW 150100Z AUTO 26004KT 9SM CLR M07/M10 A2993 RMK SLP174,CYQW,2019-01-15T01:00:00Z,52.77,-108.25,-7.0,-10.0,260,4,,9.0,29.929134,1017.4,,TRUE,,,,,,,,CLR,,,,,,,,VFR,,,,,,,,,,,,METAR,548.0
CYQL 150100Z 28007KT 60SM BKN300 M01/M08 A3005 RMK CI5 SLP220,CYQL,2019-01-15T01:00:00Z,49.63,-112.8,-1.0,-8.0,280,7,,60.0,30.050198,1022.0,,,,,,,,,,BKN,30000,,,,,,,VFR,,,,,,,,,,,,METAR,929.0
CYQF 150100Z 20005KT 15SM FEW250 M07/M10 A3004 RMK CI1 SLP236,CYQF,2019-01-15T01:00:00Z,52.17,-113.9,-7.0,-10.0,200,5,,15.0,30.041338,1023.6,,,,,,,,,,FEW,25000,,,,,,,VFR,,,,,,,,,,,,METAR,905.0
CYOJ 150100Z 33008KT 10SM -SN OVC028 M20/M23 A3032 RMK SC8 SLP310,CYOJ,2019-01-15T01:00:00Z,58.62,-117.17,-20.0,-23.0,330,8,,10.0,30.318897,1031.0,,,,,,,,,-SN,OVC,2800,,,,,,,MVFR,,,,,,,,,,,,METAR,338.0
CYGX 150100Z 34002KT 15SM BKN120 M24/M28 A3015 RMK AS7 SLP233,CYGX,2019-01-15T01:00:00Z,56.35,-94.7,-24.0,-28.0,340,2,,15.0,30.15059,1023.3,,,,,,,,,,BKN,12000,,,,,,,VFR,,,,,,,,,,,,METAR,145.0
CYET 150100Z AUTO 25003KT 9SM SCT250 M01/M02 A3007 RMK SLP235,CYET,2019-01-15T01:00:00Z,53.57,-116.47,-1.0,-2.0,250,3,,9.0,30.070866,1023.5,,TRUE,,,,,,,,SCT,25000,,,,,,,VFR,,,,,,,,,,,,METAR,925.0
CYEN 150100Z AUTO 19008KT 8SM CLR M06/M07 A3002 RMK SLP206,CYEN,2019-01-15T01:00:00Z,49.22,-102.97,-6.0,-7.0,190,8,,8.0,30.02067,1020.6,,TRUE,,,,,,,,CLR,,,,,,,,VFR,,,,,,,,,,,,METAR,581.0
CYBU 150100Z AUTO 22014KT 7SM BKN140 OVC160 M04/M04 A2981 RMK SLP122,CYBU,2019-01-15T01:00:00Z,53.32,-104.0,-4.0,-4.0,220,14,,7.0,29.811024,1012.2,,TRUE,,,,,,,,BKN,14000,OVC,16000,,,,,VFR,,,,,,,,,,,,METAR,374.0
CYBQ 150100Z AUTO 36005KT 9SM BKN120 M31/M34 A3016 RMK SLP262,CYBQ,2019-01-15T01:00:00Z,58.7,-98.5,-31.0,-34.0,360,5,,9.0,30.159449,1026.2,,TRUE,,,,,,,,BKN,12000,,,,,,,VFR,,,,,,,,,,,,METAR,262.0
CYBK 150100Z 31020G27KT 4SM IC BLSN FEW009 M37/M41 A3028 RMK BLSN1ST1 SLP258,CYBK,2019-01-15T01:00:00Z,64.28,-96.07,-37.0,-41.0,310,20,27,4.0,30.280512,1025.8,,,,,,,,,IC BLSN,FEW,900,,,,,,,MVFR,,,,,,,,,,,,METAR,18.0
CWIL 150100Z AUTO 32019KT ////SM OVC029 ///// A////,CWIL,2019-01-15T01:00:00Z,68.32,-100.07,,,320,19,,,,,,TRUE,,,,,,,,OVC,2900,,,,,,,,,,,,,,,,,,,METAR,36.0
CWAE 150100Z 32002KT 15SM SKC M01/M02 A3004 RMK LAST OBS/NEXT 151500UTC WND ESTD SLP198,CWAE,2019-01-15T01:00:00Z,50.13,-122.95,-1.0,-2.0,320,2,,15.0,30.041338,1019.8,,,,,,,,,,SKC,,,,,,,,VFR,,,,,,,,,,,,METAR,658.0
CYQI 150100Z CCA 02008KT 15SM SCT220 M09/M11 A3002 RMK CS3 HALO SLP170,CYQI,2019-01-15T01:00:00Z,43.83,-66.08,-9.0,-11.0,20,8,,15.0,30.02067,1017.0,,,,,,,,,,SCT,22000,,,,,,,VFR,,,,,,,,,,,,METAR,43.0
NIUE 150100Z 12013KT 080V150 9999 SCT018 31/24 Q1006,NIUE,2019-01-15T01:00:00Z,-19.07,-169.92,31.0,24.0,120,13,,6.21,29.704725,,,,,,,,,,,SCT,1800,,,,,,,VFR,,,,,,,,,,,,METAR,20.0
SBCZ 150100Z 00000KT 9999 BKN020 BKN100 24/23 Q1011 RETS,SBCZ,2019-01-15T01:00:00Z,-7.62,-72.77,24.0,23.0,0,0,,6.21,29.852362,,,,,,,,,,,BKN,2000,BKN,10000,,,,,MVFR,,,,,,,,,,,,METAR,170.0
SBGR 150100Z 13002KT CAVOK 23/21 Q1019,SBGR,2019-01-15T01:00:00Z,-23.42,-46.47,23.0,21.0,130,2,,6.21,30.088583,,,,,,,,,,,CAVOK,,,,,,,,VFR,,,,,,,,,,,,METAR,750.0
VLSK 150100Z 04002KT 5000 BR SCT040 21/18 Q1015 NOSIG,VLSK,2019-01-15T01:00:00Z,16.55,104.75,21.0,18.0,40,2,,3.11,29.970472,,,,,,TRUE,,,,BR,SCT,4000,,,,,,,MVFR,,,,,,,,,,,,METAR,155.0
CYYN 150100Z AUTO 25009KT 9SM CLR M03/M06 A2996 RMK SLP188,CYYN,2019-01-15T01:00:00Z,50.27,-107.67,-3.0,-6.0,250,9,,9.0,29.958662,1018.8,,TRUE,,,,,,,,CLR,,,,,,,,VFR,,,,,,,,,,,,METAR,818.0
MROC 150100Z 08015KT CAVOK 22/13 A3001 NOSIG,MROC,2019-01-15T01:00:00Z,10.0,-84.22,22.0,13.0,80,15,,6.21,30.008858,,,,,,TRUE,,,,,CAVOK,,,,,,,,VFR,,,,,,,,,,,,METAR,920.0
CZVL 150100Z AUTO 29012G17KT 9SM CLR 02/M02 A3002 RMK SLP207,CZVL,2019-01-15T01:00:00Z,53.67,-113.85,2.0,-2.0,290,12,17,9.0,30.02067,1020.7,,TRUE,,,,,,,,CLR,,,,,,,,VFR,,,,,,,,,,,,METAR,686.0
PLCH 150100Z 10010KT 9999 VCSH SCT018TCU BKN042 28/26 Q1007,PLCH,2019-01-15T01:00:00Z,1.98,-157.35,28.0,26.0,100,10,,6.21,29.734253,,,,,,,,,,VCSH,SCT,1800,BKN,4200,,,,,VFR,,,,,,,,,,,,METAR,3.0
UCFL 150100Z 34004MPS 9999 SCT150 M04/M08 Q1016 R07/CLRD95,UCFL,2019-01-15T01:00:00Z,42.58,76.7,-4.0,-8.0,340,8,,6.21,30.0,,,,,,,,,,,SCT,15000,,,,,,,VFR,,,,,,,,,,,,METAR,1648.0
ZYHB 150100Z 33006MPS CAVOK M15/M19 Q1026 NOSIG,ZYHB,2019-01-15T01:00:00Z,45.62,126.25,-15.0,-19.0,330,12,,6.21,30.295275,,,,,,TRUE,,,,,CAVOK,,,,,,,,VFR,,,,,,,,,,,,METAR,140.0
ZYCC 150100Z 31004MPS 270V340 3000 -SN BR SCT010 BKN023 M14/M18 Q1027 NOSIG,ZYCC,2019-01-15T01:00:00Z,43.98,125.68,-14.0,-18.0,310,8,,1.86,30.324802,,,,,,TRUE,,,,-SN BR,SCT,1000,BKN,2300,,,,,IFR,,,,,,,,,,,,METAR,238.0
ZUCK 150100Z VRB01MPS 1700 BR FEW014 07/06 Q1027 NOSIG,ZUCK,2019-01-15T01:00:00Z,29.72,106.63,7.0,6.0,0,2,,1.06,30.324802,,,,,,TRUE,,,,BR,FEW,1400,,,,,,,IFR,,,,,,,,,,,,METAR,416.0
ZSOF 150100Z 01004MPS 1100 R33/1300D BR BKN007 03/02 Q1030 NOSIG,ZSOF,2019-01-15T01:00:00Z,31.98,116.97,3.0,2.0,10,8,,0.68,30.413385,,,,,,TRUE,,,,BR,BKN,700,,,,,,,LIFR,,,,,,,,,,,,METAR,63.0
ZSNJ 150100Z 03003MPS 330V060 1200 R06/1400U R07/1300N -RA BR BKN006 OVC016 05/04 Q1030 BECMG TL0250 1500 BKN011 OVC020,ZSNJ,2019-01-15T01:00:00Z,31.75,118.87,5.0,4.0,30,6,,0.75,30.413385,,,,,,,,,,-RA BR,BKN,600,OVC,1600,,,,,LIFR,,,,,,,,,,,,METAR,33.0
ZLLL 150100Z 35002MPS 9999 FEW046 M13/M15 Q1028 NOSIG,ZLLL,2019-01-15T01:00:00Z,36.52,103.62,-13.0,-15.0,350,4,,6.21,30.35433,,,,,,TRUE,,,,,FEW,4600,,,,,,,VFR,,,,,,,,,,,,METAR,1947.0
ZJSY 150100Z 06005MPS 9999 BKN066 25/17 Q1017 NOSIG,ZJSY,2019-01-15T01:00:00Z,18.3,109.42,25.0,17.0,60,10,,6.21,30.029528,,,,,,TRUE,,,,,BKN,6600,,,,,,,VFR,,,,,,,,,,,,METAR,27.0
ZJHK 150100Z 04005MPS 9999 SCT010 BKN026 22/20 Q1019 NOSIG,ZJHK,2019-01-15T01:00:00Z,19.93,110.47,22.0,20.0,40,10,,6.21,30.088583,,,,,,TRUE,,,,,SCT,1000,BKN,2600,,,,,MVFR,,,,,,,,,,,,METAR,23.0
ZHHH 150100Z VRB01MPS 1500 BR FEW006 04/03 Q1030 NOSIG,ZHHH,2019-01-15T01:00:00Z,30.78,114.22,4.0,3.0,0,2,,0.93,30.413385,,,,,,TRUE,,,,BR,FEW,600,,,,,,,LIFR,,,,,,,,,,,,METAR,33.0
ZHCC 150100Z 03007MPS 360V060 3000 HZ NSC M02/M11 Q1037 NOSIG,ZHCC,2019-01-15T01:00:00Z,34.52,113.83,-2.0,-11.0,30,14,,1.86,30.620079,,,,,,TRUE,,,,HZ,CLR,,,,,,,,IFR,,,,,,,,,,,,METAR,151.0
ZGHA 150100Z 35005MPS 1600 -RA BR BKN007 OVC050 05/05 Q1029 BECMG TL0200 1400,ZGHA,2019-01-15T01:00:00Z,28.18,113.22,5.0,5.0,350,10,,0.99,30.383858,,,,,,,,,,-RA BR,BKN,700,OVC,5000,,,,,LIFR,,,,,,,,,,,,METAR,66.0
ZBHH 150100Z 10002MPS 360V150 CAVOK M19/M28 Q1037 BECMG TL0230 34005MPS,ZBHH,2019-01-15T01:00:00Z,40.85,111.82,-19.0,-28.0,100,4,,6.21,30.620079,,,,,,,,,,,CAVOK,,,,,,,,VFR,,,,,,,,,,,,METAR,1065.0
VOKN 150100Z 07008KT 3000 BR FEW015 22/17 Q1012 NOSIG,VOKN,2019-01-15T01:00:00Z,11.92,75.55,22.0,17.0,70,8,,1.86,29.88189,,,,,,TRUE,,,,BR,FEW,1500,,,,,,,IFR,,,,,,,,,,,,METAR,105.0
CYCK 150100Z AUTO 24007KT 9SM CLR M05/M07 A3023 RMK SLP248,CYCK,2019-01-15T01:00:00Z,42.3,-82.08,-5.0,-7.0,240,7,,9.0,30.230314,1024.8,,TRUE,,,,,,,,CLR,,,,,,,,VFR,,,,,,,,,,,,METAR,198.0
RJBB 150100Z 05005KT 9999 FEW020 BKN070 07/02 Q1021 NOSIG,RJBB,2019-01-15T01:00:00Z,34.42,135.25,7.0,2.0,50,5,,6.21,30.147638,,,,,,TRUE,,,,,FEW,2000,BKN,7000,,,,,VFR,,,,,,,,,,,,METAR,8.0
CYER 150100Z AUTO 28008KT 9SM CLR M25/M28 A3017 RMK SLP221,CYER,2019-01-15T01:00:00Z,56.02,-87.68,-25.0,-28.0,280,8,,9.0,30.171259,1022.1,,TRUE,,,,,,,,CLR,,,,,,,,VFR,,,,,,,,,,,,METAR,16.0
CYGK 150100Z 28004KT 15SM SCT150 M07/M10 A3020 RMK AC4 SLP235,CYGK,2019-01-15T01:00:00Z,44.22,-76.58,-7.0,-10.0,280,4,,15.0,30.200787,1023.5,,,,,,,,,,SCT,15000,,,,,,,VFR,,,,,,,,,,,,METAR,93.0
FBSK 150100Z 11004KT 190V170 9999 FEW035CB BKN070 25/18 Q1015 NOSIG,FBSK,2019-01-15T01:00:00Z,-24.55,25.92,25.0,18.0,110,4,,6.21,29.970472,,,,,,TRUE,,,,,FEW,3500,BKN,7000,,,,,VFR,,,,,,,,,,,,METAR,1005.0
CYBW 150100Z AUTO 27003KT 9SM CLR M02/M09 A3005 RMK SLP241,CYBW,2019-01-15T01:00:00Z,51.1,-114.37,-2.0,-9.0,270,3,,9.0,30.050198,1024.1,,TRUE,,,,,,,,CLR,,,,,,,,VFR,,,,,,,,,,,,METAR,1200.0
CWRF 150100Z AUTO 33017KT M37/ A2982 RMK SLP166,CWRF,2019-01-15T01:00:00Z,69.42,-89.72,-37.0,,330,17,,,29.819881,1016.6,,TRUE,,,,,,,,,,,,,,,,,,,,,,,,,,,,METAR,325.0
CYCY 150100Z AUTO 25006KT 9SM BKN055 OVC073 M33/M37 A2986 RMK SLP119,CYCY,2019-01-15T01:00:00Z,70.47,-68.52,-33.0,-37.0,250,6,,9.0,29.861221,1011.9,,TRUE,,,,,,,,BKN,5500,OVC,7300,,,,,VFR,,,,,,,,,,,,METAR,26.0
CYWK 150100Z 21006KT 8SM -SHSN BKN025 OVC050 M17/M20 A2968 RMK SC6SC2 SLP107,CYWK,2019-01-15T01:00:00Z,52.92,-66.87,-17.0,-20.0,210,6,,8.0,29.681103,1010.7,,,,,,,,,-SHSN,BKN,2500,OVC,5000,,,,,MVFR,,,,,,,,,,,,METAR,551.0
CZST 150100Z 06003KT 15SM OVC075 01/00 A3010 RMK AC8 LAST STFD OBS/NEXT 151500Z/ SLP194,CZST,2019-01-15T01:00:00Z,55.93,-129.98,1.0,0.0,60,3,,15.0,30.100393,1019.4,,,,,,,,,,OVC,7500,,,,,,,VFR,,,,,,,,,,,,METAR,7.0
CZCP 150100Z AUTO 07021KT ////SM //// NCD M29/M33 A3060,CZCP,2019-01-15T01:00:00Z,70.17,-124.72,-29.0,-33.0,70,21,,,30.59941,,,TRUE,,,,,,,,CLR,,,,,,,,,,,,,,,,,,,,METAR,93.0
CZBF 150100Z AUTO 00000KT 9SM CLR M19/M22 A3006 RMK SLP187,CZBF,2019-01-15T01:00:00Z,47.62,-65.75,-19.0,-22.0,0,0,,9.0,30.059055,1018.7,,TRUE,,,,,,,,CLR,,,,,,,,VFR,,,,,,,,,,,,METAR,59.0
CYCA 150100Z AUTO VRB02KT 9SM BKN065 M12/M15 A2983 RMK SLP106,CYCA,2019-01-15T01:00:00Z,53.68,-57.03,-12.0,-15.0,0,2,,9.0,29.828741,1010.6,,TRUE,,,,,,,,BKN,6500,,,,,,,VFR,,,,,,,,,,,,METAR,12.0
CYAT 150100Z AUTO 30010G18KT 9SM OVC016 M21/M25 A3020 RMK SLP230,CYAT,2019-01-15T01:00:00Z,52.93,-82.43,-21.0,-25.0,300,10,18,9.0,30.200787,1023.0,,TRUE,,,,,,,,OVC,1600,,,,,,,MVFR,,,,,,,,,,,,METAR,9.0
CYGT 150100Z 01011KT 15SM SKC M36/M40 A2981 RMK CALL OUT SLP106,CYGT,2019-01-15T01:00:00Z,69.37,-81.82,-36.0,-40.0,10,11,,15.0,29.811024,1010.6,,,,,,,,,,SKC,,,,,,,,VFR,,,,,,,,,,,,METAR,51.0
CYCO 150100Z 22014KT 8SM IC DRSN FEW180 M38/M42 A3068 RMK AC1 AC TR FROIN SLP395,CYCO,2019-01-15T01:00:00Z,67.82,-115.15,-38.0,-42.0,220,14,,8.0,30.679134,1039.5,,,,,,,,,IC DRSN,FEW,18000,,,,,,,VFR,,,,,,,,,,,,METAR,22.0
CYCB 150100Z 31014KT 5SM -SN BR FEW007 BKN030 M31/M35 A3045 RMK FG1SF1SC6 SF TR SLP319,CYCB,2019-01-15T01:00:00Z,69.08,-105.12,-31.0,-35.0,310,14,,5.0,30.448818,1031.9,,,,,,,,,-SN BR,FEW,700,BKN,3000,,,,,MVFR,,,,,,,,,,,,METAR,27.0
VYNT 150100Z 35006KT 6000 HZ FEW018 SCT110 16/14 Q1014,VYNT,2019-01-15T01:00:00Z,19.62,96.2,16.0,14.0,350,6,,3.73,29.940945,,,,,,,,,,HZ,FEW,1800,SCT,11000,,,,,MVFR,,,,,,,,,,,,METAR,610.0
CYED 150100Z AUTO 29009KT 9SM CLR 02/M02 A3001 RMK SLP199,CYED,2019-01-15T01:00:00Z,53.67,-113.47,2.0,-2.0,290,9,,9.0,30.008858,1019.9,,TRUE,,,,,,,,CLR,,,,,,,,VFR,,,,,,,,,,,,METAR,688.0
CYHY 150100Z CCA 34003KT 15SM IC FEW230 M27/M31 A3048 RMK CI1 SLP347,CYHY,2019-01-15T01:00:00Z,60.82,-115.77,-27.0,-31.0,340,3,,15.0,30.481298,1034.7,,,,,,,,,IC,FEW,23000,,,,,,,VFR,,,,,,,,,,,,METAR,166.0
CYHK 150100Z 33023KT 5/8SM BLSN SKC M34/M38 A3015 RMK LST STFD OBS/NXT 151300Z PRESFR SLP221,CYHK,2019-01-15T01:00:00Z,68.62,-95.83,-34.0,-38.0,330,23,,0.63,30.15059,1022.1,,,,,,,,,BLSN,SKC,,,,,,,,LIFR,,,,,,,,,,,,METAR,46.0
CYHI 150100Z 03007KT 15SM SKC M30/M34 A3065 RMK TR/TR/15.5/SNW CVR/HARD PACK/LAST SFTD OBS/NXT151500 SLP387,CYHI,2019-01-15T01:00:00Z,70.77,-117.78,-30.0,-34.0,30,7,,15.0,30.649607,1038.7,,,,,,,,,,SKC,,,,,,,,VFR,,,,,,,,,,,,METAR,36.0
RJGG 150100Z 32003KT 290V360 9999 FEW030 BKN/// 07/M01 Q1023 NOSIG,RJGG,2019-01-15T01:00:00Z,34.87,136.8,7.0,-1.0,320,3,,6.21,30.206694,,,,,,TRUE,,,,,FEW,3000,,,,,,,VFR,,,,,,,,,,,,METAR,5.0
RJCH 150100Z 15011KT 9999 FEW020 BKN030 04/M02 Q1017,RJCH,2019-01-15T01:00:00Z,41.77,140.82,4.0,-2.0,150,11,,6.21,30.029528,,,,,,,,,,,FEW,2000,BKN,3000,,,,,MVFR,,,,,,,,,,,,METAR,36.0
CYLK 150100Z 07005KT 25SM BKN070 M31/M36 A3048 RMK AC7 WND AND CLD HGT EST LAST STAFFED OBS NEXT 1515Z PRESRR VIA CYWG SLP355,CYLK,2019-01-15T01:00:00Z,62.42,-110.67,-31.0,-36.0,70,5,,25.0,30.481298,1035.5,,,,,,,,,,BKN,7000,,,,,,,VFR,,,,,,,,,,,,METAR,179.0
CYAZ 150100Z 05002KT 15SM SKC 05/04 A2993 RMK LAST STFD OBS/NEXT 151500UTC SLP139,CYAZ,2019-01-15T01:00:00Z,49.08,-125.77,5.0,4.0,50,2,,15.0,29.929134,1013.9,,,,,,,,,,SKC,,,,,,,,VFR,,,,,,,,,,,,METAR,24.0
CYWE 150100Z AUTO 06007KT 9SM FEW110 SCT140 SCT240 M34/M38 A3043 RMK ICG SLP375,CYWE,2019-01-15T01:00:00Z,64.18,-114.08,-34.0,-38.0,60,7,,9.0,30.431103,1037.5,,TRUE,,,,,,,,FEW,11000,SCT,14000,SCT,24000,,,VFR,,,,,,,,,,,,METAR,371.0
DIBK 150100Z 22004KT CAVOK 26/16 Q1013 NOSIG,DIBK,2019-01-15T01:00:00Z,7.72,-5.07,26.0,16.0,220,4,,6.21,29.911417,,,,,,TRUE,,,,,CAVOK,,,,,,,,VFR,,,,,,,,,,,,SPECI,376.0
CYDB 150100Z AUTO VRB02KT 9SM CLR M24/M27 A3001 RMK SLP261,CYDB,2019-01-15T01:00:00Z,61.37,-139.05,-24.0,-27.0,0,2,,9.0,30.008858,1026.1,,TRUE,,,,,,,,CLR,,,,,,,,VFR,,,,,,,,,,,,METAR,801.0
CYOW 150100Z 19006KT 15SM BKN022 OVC025 M08/M13 A3016 RMK SC6SC2 SLP224,CYOW,2019-01-15T01:00:00Z,45.32,-75.67,-8.0,-13.0,190,6,,15.0,30.159449,1022.4,,,,,,,,,,BKN,2200,OVC,2500,,,,,MVFR,,,,,,,,,,,,METAR,114.0
VTUD 150100Z 00000KT CAVOK 22/19 Q1015 NOSIG,VTUD,2019-01-15T01:00:00Z,17.37,102.78,22.0,19.0,0,0,,6.21,29.970472,,,,,,TRUE,,,,,CAVOK,,,,,,,,VFR,,,,,,,,,,,,METAR,182.0
SASJ 150100Z 00000KT 8000 -DZ SCT004 SCT015 OVC050 21/20 Q1013,SASJ,2019-01-15T01:00:00Z,-24.37,-65.1,21.0,20.0,0,0,,4.97,29.911417,,,,,,,,,,-DZ,SCT,400,SCT,1500,OVC,5000,,,MVFR,,,,,,,,,,,,METAR,1167.0
CYDQ 150100Z AUTO 00000KT 9SM CLR M04/M05 A3010 RMK SLP227,CYDQ,2019-01-15T01:00:00Z,55.75,-120.17,-4.0,-5.0,0,0,,9.0,30.100393,1022.7,,TRUE,,,,,,,,CLR,,,,,,,,VFR,,,,,,,,,,,,METAR,655.0
CYEV 150100Z 06005KT 15SM FEW100 FEW230 M28/M32 A3045 RMK AC1CI1 AC TR SLP324,CYEV,2019-01-15T01:00:00Z,68.32,-133.5,-28.0,-32.0,60,5,,15.0,30.448818,1032.4,,,,,,,,,,FEW,10000,FEW,23000,,,,,VFR,,,,,,,,,,,,METAR,68.0
VTUI 150100Z 14004KT 100V190 9999 FEW030 22/18 Q1015 NOSIG,VTUI,2019-01-15T01:00:00Z,17.2,104.12,22.0,18.0,140,4,,6.21,29.970472,,,,,,TRUE,,,,,FEW,3000,,,,,,,VFR,,,,,,,,,,,,METAR,172.0
VTUK 150100Z 06004KT 020V100 8000 SCT035 BKN100 23/17 Q1015 NOSIG,VTUK,2019-01-15T01:00:00Z,16.47,102.78,23.0,17.0,60,4,,4.97,29.970472,,,,,,TRUE,,,,,SCT,3500,BKN,10000,,,,,MVFR,,,,,,,,,,,,METAR,204.0
CYHM 150100Z 23006KT 15SM FEW140 SCT250 M07/M08 A3019 RMK AC2CI2 SLP240,CYHM,2019-01-15T01:00:00Z,43.17,-79.93,-7.0,-8.0,230,6,,15.0,30.188976,1024.0,,,,,,,,,,FEW,14000,SCT,25000,,,,,VFR,,,,,,,,,,,,METAR,238.0
CYGQ 150100Z 00000KT 15SM FEW025 M16/M18 A3017 RMK SC1 SLP247,CYGQ,2019-01-15T01:00:00Z,49.77,-86.92,-16.0,-18.0,0,0,,15.0,30.171259,1024.7,,,,,,,,,,FEW,2500,,,,,,,VFR,,,,,,,,,,,,METAR,351.0
CZDB 150100Z AUTO 03003KT M13/M15 RMK AO1 SOG 09 6023 SLP182 T11301152,CZDB,2019-01-15T01:00:00Z,45.42,-63.47,-13.0,-15.2,30,3,,,,1018.2,,TRUE,TRUE,,,,,,,,,,,,,,,,,,,,,,,,,,,METAR,38.0
CZCR 150100Z AUTO 24005KT M10/M15 RMK AO1 SOG 35 8012 SLP179 T10951146,CZCR,2019-01-15T01:00:00Z,47.97,-66.32,-9.5,-14.6,240,5,,,,1017.9,,TRUE,TRUE,,,,,,,,,,,,,,,,,,,,,,,,,,,METAR,38.0
CXNP 150100Z AUTO 03002KT M14/M16 RMK AO1 SOG 09 8021 SLP181 T11431161,CXNP,2019-01-15T01:00:00Z,45.75,-64.23,-14.3,-16.1,30,2,,,,1018.1,,TRUE,TRUE,,,,,,,,,,,,,,,,,,,,,,,,,,,METAR,20.0
CXOX 150100Z AUTO 25003KT M04/M04 RMK AO1 SOG 46 6028 SLP095 T10381035,CXOX,2019-01-15T01:00:00Z,55.15,-105.27,-3.8,-3.5,250,3,,,,1009.5,,TRUE,TRUE,,,,,,,,,,,,,,,,,,,,,,,,,,,METAR,379.0
CXMY 150100Z AUTO M10/M12 RMK AO1 T11021117,CXMY,2019-01-15T01:00:00Z,44.98,-62.48,-10.2,-11.7,,,,,,,,TRUE,TRUE,,,,,,,,,,,,,,,,,,,,,,,,,,,METAR,40.0
CWPO 150100Z AUTO 19009KT M10/M11 RMK AO1 SLP241 T10961109 58034,CWPO,2019-01-15T01:00:00Z,49.2,-98.9,-9.6,-10.9,190,9,,,,1024.1,,TRUE,TRUE,,,,,,,,,,,,,,,,-3.4,,,,,,,,,,,METAR,470.0
CXWN 150100Z AUTO 20005KT M11/M13 RMK AO1 SLP235 T11091128 56040,CXWN,2019-01-15T01:00:00Z,49.88,-97.13,-10.9,-12.8,200,5,,,,1023.5,,TRUE,TRUE,,,,,,,,,,,,,,,,-4.0,,,,,,,,,,,METAR,230.0
CXMM 150100Z AUTO 35014G20KT M16/M19 RMK AO1 SOG 29 1053 PK WND 34020/0052 SLP232 T11591188,CXMM,2019-01-15T01:00:00Z,56.65,-111.22,-15.9,-18.8,350,14,20,,,1023.2,,TRUE,TRUE,,,,,,,,,,,,,,,,,,,,,,,,,,,METAR,369.0
CYDC 150100Z 29002KT 7SM FEW005 BKN008 M07/M08 A3017 RMK SF1ST6 LAST STFD OB/NEXT 15 1500UTC SLP255,CYDC,2019-01-15T01:00:00Z,49.47,-120.52,-7.0,-8.0,290,2,,7.0,30.171259,1025.5,,,,,,,,,,FEW,500,BKN,800,,,,,IFR,,,,,,,,,,,,METAR,700.0
CXTP 150100Z AUTO 22004KT M11/M12 RMK AO1 SOG 35 1001 SLP203 T11091115,CXTP,2019-01-15T01:00:00Z,48.55,-53.97,-10.9,-11.5,220,4,,,,1020.3,,TRUE,TRUE,,,,,,,,,,,,,,,,,,,,,,,,,,,METAR,107.0
CYQB 150100Z 27006KT 15SM FEW012 FEW025 BKN130 BKN200 M12/M15 A3014 RMK SF1SC2AC4CI1 SF TR SLP216,CYQB,2019-01-15T01:00:00Z,46.78,-71.37,-12.0,-15.0,270,6,,15.0,30.138779,1021.6,,,,,,,,,,FEW,1200,FEW,2500,BKN,13000,BKN,20000,VFR,,,,,,,,,,,,METAR,73.0
CYHE 150100Z AUTO 12016G24KT 9SM CLR 05/M01 A3008 RMK SLP188,CYHE,2019-01-15T01:00:00Z,49.37,-121.5,5.0,-1.0,120,16,24,9.0,30.079725,1018.8,,TRUE,,,,,,,,CLR,,,,,,,,VFR,,,,,,,,,,,,METAR,39.0
CYIV 150100Z 14006KT 15SM BKN080 OVC240 M19/M22 A3010 RMK AS6CI2 SLP224,CYIV,2019-01-15T01:00:00Z,53.85,-94.65,-19.0,-22.0,140,6,,15.0,30.100393,1022.4,,,,,,,,,,BKN,8000,OVC,24000,,,,,VFR,,,,,,,,,,,,METAR,237.0
VTUO 150100Z 08009KT 050V120 8000 NSC 22/19 Q1015 NOSIG,VTUO,2019-01-15T01:00:00Z,15.23,103.25,22.0,19.0,80,9,,4.97,29.970472,,,,,,TRUE,,,,,CLR,,,,,,,,MVFR,,,,,,,,,,,,METAR,183.0
VTUQ 150100Z VRB02KT 6000 NSC 24/19 Q1015 NOSIG,VTUQ,2019-01-15T01:00:00Z,14.95,102.32,24.0,19.0,0,2,,3.73,29.970472,,,,,,TRUE,,,,,CLR,,,,,,,,MVFR,,,,,,,,,,,,METAR,234.0
CXBA 150100Z AUTO 27009KT M02/M06 RMK AO1 T10231061,CXBA,2019-01-15T01:00:00Z,52.12,-110.1,-2.3,-6.1,270,9,,,,,,TRUE,TRUE,,,,,,,,,,,,,,,,,,,,,,,,,,,METAR,687.0
CYPR 150100Z AUTO 34002KT 9SM BKN110 BKN130 07/06 A2997 RMK SLP150,CYPR,2019-01-15T01:00:00Z,54.28,-130.42,7.0,6.0,340,2,,9.0,29.970472,1015.0,,TRUE,,,,,,,,BKN,11000,BKN,13000,,,,,VFR,,,,,,,,,,,,METAR,34.0
VTUU 150100Z 04005KT 9000 NSC 22/19 Q1014 NOSIG,VTUU,2019-01-15T01:00:00Z,15.25,104.87,22.0,19.0,40,5,,5.59,29.940945,,,,,,TRUE,,,,,CLR,,,,,,,,VFR,,,,,,,,,,,,METAR,127.0
CYKY 150100Z 25010KT 15SM SKC M09/M10 A2996 RMK SLP200,CYKY,2019-01-15T01:00:00Z,51.52,-109.17,-9.0,-10.0,250,10,,15.0,29.958662,1020.0,,,,,,,,,,SKC,,,,,,,,VFR,,,,,,,,,,,,METAR,694.0
CYQM 150100Z 19002KT 15SM SKC M13/M15 A3005 RMK SLP183,CYQM,2019-01-15T01:00:00Z,46.12,-64.67,-13.0,-15.0,190,2,,15.0,30.050198,1018.3,,,,,,,,,,SKC,,,,,,,,VFR,,,,,,,,,,,,METAR,71.0
CYQG 150100Z AUTO 22006KT 9SM BKN220 M05/M07 A3023 RMK SLP250,CYQG,2019-01-15T01:00:00Z,42.27,-82.97,-5.0,-7.0,220,6,,9.0,30.230314,1025.0,,TRUE,,,,,,,,BKN,22000,,,,,,,VFR,,,,,,,,,,,,METAR,190.0
CYQY 150100Z 08003KT 040V100 15SM OVC014 M07/M09 A3009 RMK SC8 SLP194,CYQY,2019-01-15T01:00:00Z,46.17,-60.03,-7.0,-9.0,80,3,,15.0,30.088583,1019.4,,,,,,,,,,OVC,1400,,,,,,,MVFR,,,,,,,,,,,,METAR,62.0
CYQX 150100Z 22010KT 20SM FEW250 M09/M12 A3008 RMK CI1 SLP200,CYQX,2019-01-15T01:00:00Z,48.95,-54.58,-9.0,-12.0,220,10,,20.0,30.079725,1020.0,,,,,,,,,,FEW,25000,,,,,,,VFR,,,,,,,,,,,,METAR,151.0
VTBO 150100Z 04001KT 0800 FG FEW020 25/24 Q1012,VTBO,2019-01-15T01:00:00Z,12.28,102.32,25.0,24.0,40,1,,0.5,29.88189,,,,,,,,,,FG,FEW,2000,,,,,,,LIFR,,,,,,,,,,,,METAR,32.0
VTUW 150100Z 09005KT 9000 NSC 24/17 Q1015 NOSIG,VTUW,2019-01-15T01:00:00Z,17.38,104.63,24.0,17.0,90,5,,5.59,29.970472,,,,,,TRUE,,,,,CLR,,,,,,,,VFR,,,,,,,,,,,,METAR,184.0
VTUV 150100Z 06006KT 7000 NSC 22/17 Q1015 NOSIG,VTUV,2019-01-15T01:00:00Z,16.12,103.78,22.0,17.0,60,6,,4.35,29.970472,,,,,,TRUE,,,,,CLR,,,,,,,,MVFR,,,,,,,,,,,,METAR,138.0
VTCN 150100Z VRB02KT 9999 SCT030 19/19 Q1014 NOSIG,VTCN,2019-01-15T01:00:00Z,18.82,100.77,19.0,19.0,0,2,,6.21,29.940945,,,,,,TRUE,,,,,SCT,3000,,,,,,,VFR,,,,,,,,,,,,METAR,201.0
VTCH 150100Z 32004KT 2000 BR SCT010 BKN025 18/17 Q1015,VTCH,2019-01-15T01:00:00Z,19.3,97.98,18.0,17.0,320,4,,1.24,29.970472,,,,,,,,,,BR,SCT,1000,BKN,2500,,,,,IFR,,,,,,,,,,,,METAR,269.0
VTCP 150100Z VRB01KT 5000 BR FEW022TCU SCT025 21/21 Q1013 NOSIG,VTCP,2019-01-15T01:00:00Z,18.13,100.17,21.0,21.0,0,1,,3.11,29.911417,,,,,,TRUE,,,,BR,FEW,2200,SCT,2500,,,,,MVFR,,,,,,,,,,,,METAR,162.0
RJOO 150100Z 08006KT 030V100 9999 FEW025 BKN070 BKN150 08/M01 Q1021 RMK 1CU025 5AC070 6AC150 A3015,RJOO,2019-01-15T01:00:00Z,34.77,135.43,8.0,-1.0,80,6,,6.21,30.147638,,,,,,,,,,,FEW,2500,BKN,7000,BKN,15000,,,VFR,,,,,,,,,,,,METAR,15.0
CYXC 150100Z 00000KT 15SM FEW004 OVC008 M06/M08 A3027 RMK SF1SC8 SF TR SLP301,CYXC,2019-01-15T01:00:00Z,49.6,-115.77,-6.0,-8.0,0,0,,15.0,30.268702,1030.1,,,,,,,,,,FEW,400,OVC,800,,,,,IFR,,,,,,,,,,,,METAR,939.0
CYVL 150100Z AUTO 10006KT 9SM -SN SCT018 OVC032 M25/M28 A3036 RMK SLP327,CYVL,2019-01-15T01:00:00Z,67.02,-126.13,-25.0,-28.0,100,6,,9.0,30.360237,1032.7,,TRUE,,,,,,,-SN,SCT,1800,OVC,3200,,,,,VFR,,,,,,,,,,,,METAR,259.0
CYRV 150100Z AUTO 32003KT 200V340 9SM OVC018 M02/M04 A3029 RMK SLP283,CYRV,2019-01-15T01:00:00Z,50.97,-118.17,-2.0,-4.0,320,3,,9.0,30.28937,1028.3,,TRUE,,,,,,,,OVC,1800,,,,,,,MVFR,,,,,,,,,,,,METAR,443.0
SAZM 150100Z 07008KT CAVOK 20/18 Q1015,SAZM,2019-01-15T01:00:00Z,-37.92,-57.57,20.0,18.0,70,8,,6.21,29.970472,,,,,,,,,,,CAVOK,,,,,,,,VFR,,,,,,,,,,,,METAR,21.0
SAWG 150100Z 34007KT CAVOK 16/M02 Q1001,SAWG,2019-01-15T01:00:00Z,-51.62,-69.32,16.0,-2.0,340,7,,6.21,29.557087,,,,,,,,,,,CAVOK,,,,,,,,VFR,,,,,,,,,,,,METAR,19.0
SAVC 150100Z 27008KT CAVOK 27/M02 Q1005,SAVC,2019-01-15T01:00:00Z,-45.77,-67.47,27.0,-2.0,270,8,,6.21,29.675198,,,,,,,,,,,CAVOK,,,,,,,,VFR,,,,,,,,,,,,METAR,46.0
VTSK 150100Z 12005KT 9999 FEW025 SCT300 25/21 Q1011,VTSK,2019-01-15T01:00:00Z,6.77,101.15,25.0,21.0,120,5,,6.21,29.852362,,,,,,,,,,,FEW,2500,SCT,30000,,,,,VFR,,,,,,,,,,,,METAR,9.0
VTSH 150100Z 00000KT 8000 FEW020 26/24 Q1010 NOSIG,VTSH,2019-01-15T01:00:00Z,7.2,100.58,26.0,24.0,0,0,,4.97,29.822834,,,,,,TRUE,,,,,FEW,2000,,,,,,,MVFR,,,,,,,,,,,,METAR,5.0
VTSF 150100Z 00000KT 9999 FEW018 25/24 Q1012 NOSIG,VTSF,2019-01-15T01:00:00Z,8.53,99.95,25.0,24.0,0,0,,6.21,29.88189,,,,,,TRUE,,,,,FEW,1800,,,,,,,VFR,,,,,,,,,,,,METAR,4.0
VTSE 150100Z VRB02KT 8000 SCT020 25/25 Q1011 NOSIG,VTSE,2019-01-15T01:00:00Z,10.72,99.37,25.0,25.0,0,2,,4.97,29.852362,,,,,,TRUE,,,,,SCT,2000,,,,,,,MVFR,,,,,,,,,,,,METAR,5.0
VTSC 150100Z 19004KT 9999 FEW018 24/23 Q1012 NOSIG,VTSC,2019-01-15T01:00:00Z,6.52,101.75,24.0,23.0,190,4,,6.21,29.88189,,,,,,TRUE,,,,,FEW,1800,,,,,,,VFR,,,,,,,,,,,,METAR,6.0
VTSB 150100Z VRB02KT 8000 FEW020 25/24 Q1012,VTSB,2019-01-15T01:00:00Z,9.12,99.13,25.0,24.0,0,2,,4.97,29.88189,,,,,,,,,,,FEW,2000,,,,,,,MVFR,,,,,,,,,,,,METAR,11.0
VTPP 150100Z 00000KT 8000 SCT030 24/22 Q1012 NOSIG,VTPP,2019-01-15T01:00:00Z,16.78,100.28,24.0,22.0,0,0,,4.97,29.88189,,,,,,TRUE,,,,,SCT,3000,,,,,,,MVFR,,,,,,,,,,,,METAR,44.0
VTPO 150100Z 30004KT 4000 1500W +TSRA BR FEW015 FEW020CB SCT025 BKN100 23/21 Q1012 TEMPO 1500 +TSRA,VTPO,2019-01-15T01:00:00Z,17.23,99.82,23.0,21.0,300,4,,2.49,29.88189,,,,,,,,,,+TSRA BR,FEW,1500,FEW,2000,SCT,2500,BKN,10000,IFR,,,,,,,,,,,,METAR,54.0
VTPM 150100Z 22002KT 3000 BR SCT080 20/20 Q1014 NOSIG,VTPM,2019-01-15T01:00:00Z,16.67,98.53,20.0,20.0,220,2,,1.86,29.940945,,,,,,TRUE,,,,BR,SCT,8000,,,,,,,IFR,,,,,,,,,,,,METAR,197.0
VTPH 150100Z 00000KT 7000 FEW032 25/22 Q1012 NOSIG,VTPH,2019-01-15T01:00:00Z,12.63,99.95,25.0,22.0,0,0,,4.35,29.88189,,,,,,TRUE,,,,,FEW,3200,,,,,,,MVFR,,,,,,,,,,,,METAR,6.0
VTPB 150100Z 32004KT 8000 FEW030 25/21 Q1013 NOSIG,VTPB,2019-01-15T01:00:00Z,16.67,101.2,25.0,21.0,320,4,,4.97,29.911417,,,,,,TRUE,,,,,FEW,3000,,,,,,,MVFR,,,,,,,,,,,,METAR,137.0
RJOC 150100Z 20012KT 9999 FEW030 SCT040 BKN045 11/02 Q1017,RJOC,2019-01-15T01:00:00Z,35.42,132.87,11.0,2.0,200,12,,6.21,30.029528,,,,,,,,,,,FEW,3000,SCT,4000,BKN,4500,,,VFR,,,,,,,,,,,,METAR,5.0
RJCB 150100Z VRB01KT 9999 FEW040 BKN/// M11/M14 Q1020,RJCB,2019-01-15T01:00:00Z,42.72,143.22,-11.0,-14.0,0,1,,6.21,30.11811,,,,,,,,,,,FEW,4000,,,,,,,VFR,,,,,,,,,,,,METAR,152.0
RJCM 150100Z 22006KT CAVOK M05/M13 Q1019,RJCM,2019-01-15T01:00:00Z,43.88,144.17,-5.0,-13.0,220,6,,6.21,30.088583,,,,,,,,,,,CAVOK,,,,,,,,VFR,,,,,,,,,,,,METAR,36.0
RJCK 150100Z VRB03KT 9999 FEW015 BKN/// M04/M08 Q1021,RJCK,2019-01-15T01:00:00Z,43.02,144.18,-4.0,-8.0,0,3,,6.21,30.147638,,,,,,,,,,,FEW,1500,,,,,,,VFR,,,,,,,,,,,,METAR,98.0
VTST 150100Z VRB02KT 9999 FEW020 26/23 Q1010 NOSIG,VTST,2019-01-15T01:00:00Z,7.52,99.62,26.0,23.0,0,2,,6.21,29.822834,,,,,,TRUE,,,,,FEW,2000,,,,,,,VFR,,,,,,,,,,,,METAR,16.0
VTSR 150100Z VRB02KT 9999 FEW025 25/24 Q1011 NOSIG,VTSR,2019-01-15T01:00:00Z,9.78,98.58,25.0,24.0,0,2,,6.21,29.852362,,,,,,TRUE,,,,,FEW,2500,,,,,,,VFR,,,,,,,,,,,,METAR,8.0
RJFS 150100Z VRB02KT 9999 FEW030 SCT040 BKN050 08/06 Q1021,RJFS,2019-01-15T01:00:00Z,33.15,130.3,8.0,6.0,0,2,,6.21,30.147638,,,,,,,,,,,FEW,3000,SCT,4000,BKN,5000,,,VFR,,,,,,,,,,,,METAR,5.0
ROIG 150100Z 11007KT 9999 FEW032 24/17 Q1019,ROIG,2019-01-15T01:00:00Z,24.32,124.17,24.0,17.0,110,7,,6.21,30.088583,,,,,,,,,,,FEW,3200,,,,,,,VFR,,,,,,,,,,,,METAR,7.0
RJOH 150100Z 18010KT 9999 FEW050 SCT080 BKN130 11/M00 Q1017,RJOH,2019-01-15T01:00:00Z,35.47,133.25,11.0,0.0,180,10,,6.21,30.029528,,,,,,,,,,,FEW,5000,SCT,8000,BKN,13000,,,VFR,,,,,,,,,,,,METAR,9.0
RJSA 150100Z 18009KT 9999 FEW030 SCT170 BKN/// 03/M04 Q1017,RJSA,2019-01-15T01:00:00Z,40.72,140.68,3.0,-4.0,180,9,,6.21,30.029528,,,,,,,,,,,FEW,3000,SCT,17000,,,,,VFR,,,,,,,,,,,,METAR,201.0
RJNS 150100Z 29007KT 9999 FEW025 BKN040 BKN/// 07/M01 Q1022,RJNS,2019-01-15T01:00:00Z,34.8,138.18,7.0,-1.0,290,7,,6.21,30.177166,,,,,,,,,,,FEW,2500,BKN,4000,,,,,VFR,,,,,,,,,,,,METAR,135.0
RJOM 150100Z 13007KT 9999 FEW020 SCT070 BKN140 09/06 Q1020,RJOM,2019-01-15T01:00:00Z,33.82,132.68,9.0,6.0,130,7,,6.21,30.11811,,,,,,,,,,,FEW,2000,SCT,7000,BKN,14000,,,VFR,,,,,,,,,,,,METAR,7.0
RJOK 150100Z 33009KT 9999 -RA FEW015 SCT035 BKN045 07/05 Q1021,RJOK,2019-01-15T01:00:00Z,33.52,133.67,7.0,5.0,330,9,,6.21,30.147638,,,,,,,,,,-RA,FEW,1500,SCT,3500,BKN,4500,,,VFR,,,,,,,,,,,,METAR,10.0
RJFM 150100Z 30004KT 280V340 9999 FEW030 SCT110 13/07 Q1020,RJFM,2019-01-15T01:00:00Z,31.87,131.43,13.0,7.0,300,4,,6.21,30.11811,,,,,,,,,,,FEW,3000,SCT,11000,,,,,VFR,,,,,,,,,,,,METAR,9.0
RJFR 150100Z VRB05KT 9999 FEW025 SCT030 BKN050 11/04 Q1020,RJFR,2019-01-15T01:00:00Z,33.82,131.03,11.0,4.0,0,5,,6.21,30.11811,,,,,,,,,,,FEW,2500,SCT,3000,BKN,5000,,,VFR,,,,,,,,,,,,METAR,6.0
RJSF 150100Z 18005KT 9999 FEW020 SCT160 BKN/// 03/M02 Q1021,RJSF,2019-01-15T01:00:00Z,37.22,140.42,3.0,-2.0,180,5,,6.21,30.147638,,,,,,,,,,,FEW,2000,SCT,16000,,,,,VFR,,,,,,,,,,,,METAR,375.0
RJSK 150100Z 15005KT 120V180 9999 FEW040 SCT170 BKN/// M02/M06 Q1019,RJSK,2019-01-15T01:00:00Z,39.62,140.22,-2.0,-6.0,150,5,,6.21,30.088583,,,,,,,,,,,FEW,4000,SCT,17000,,,,,VFR,,,,,,,,,,,,METAR,96.0
RJAH 150100Z VRB01KT 9999 FEW025 BKN180 BKN230 04/M02 Q1022,RJAH,2019-01-15T01:00:00Z,36.17,140.42,4.0,-2.0,0,1,,6.21,30.177166,,,,,,,,,,,FEW,2500,BKN,18000,BKN,23000,,,VFR,,,,,,,,,,,,METAR,35.0
RJSN 150100Z 18011KT 9999 FEW040 SCT150 BKN/// 04/M02 Q1019,RJSN,2019-01-15T01:00:00Z,37.95,139.12,4.0,-2.0,180,11,,6.21,30.088583,,,,,,,,,,,FEW,4000,SCT,15000,,,,,VFR,,,,,,,,,,,,METAR,4.0
RJEC 150100Z 16008KT 9999 FEW030 BKN/// M05/M08 Q1017,RJEC,2019-01-15T01:00:00Z,43.67,142.43,-5.0,-8.0,160,8,,6.21,30.029528,,,,,,,,,,,FEW,3000,,,,,,,VFR,,,,,,,,,,,,METAR,211.0
NCMH 150100Z AUTO 02002KT //// ////// 32/25 Q1006,NCMH,2019-01-15T01:00:00Z,-10.38,-161.0,32.0,25.0,20,2,,,29.704725,,,TRUE,,,,,,,,,,,,,,,,,,,,,,,,,,,,METAR,0.0
CWOD 150100Z AUTO 00000KT M10/M12 RMK AO1 SOG 31 8005 SLP166 T11031120,CWOD,2019-01-15T01:00:00Z,48.85,-72.55,-10.3,-12.0,0,0,,,,1016.6,,TRUE,TRUE,,,,,,,,,,,,,,,,,,,,,,,,,,,METAR,137.0
CWNE 150100Z AUTO 20006KT M13/M16 RMK AO1 SLP182 T11301156 58016,CWNE,2019-01-15T01:00:00Z,47.07,-64.0,-13.0,-15.6,200,6,,,,1018.2,,TRUE,TRUE,,,,,,,,,,,,,,,,-1.6,,,,,,,,,,,METAR,15.0
OISL 150100Z 24004KT CAVOK 08/05 Q1020,OISL,2019-01-15T01:00:00Z,27.67,54.37,8.0,5.0,240,4,,6.21,30.11811,,,,,,,,,,,CAVOK,,,,,,,,VFR,,,,,,,,,,,,METAR,805.0
OINR 150100Z 00000KT 9999 FEW025 08/06 Q1010,OINR,2019-01-15T01:00:00Z,36.88,50.67,8.0,6.0,0,0,,6.21,29.822834,,,,,,,,,,,FEW,2500,,,,,,,VFR,,,,,,,,,,,,METAR,-20.0
OISY 150100Z 06006KT 3000 RA FEW035CB SCT035 OVC080 04/03 Q1023,OISY,2019-01-15T01:00:00Z,30.7,51.55,4.0,3.0,60,6,,1.86,30.206694,,,,,,,,,,RA,FEW,3500,SCT,3500,OVC,8000,,,IFR,,,,,,,,,,,,METAR,1811.0
RJFK 150100Z 01002KT 9999 FEW005 BKN060 BKN120 11/05 Q1021 RMK 1ST005 6SC060 7AC120 A3015 VOLCANIC ASH CLOUD S,RJFK,2019-01-15T01:00:00Z,31.8,130.72,11.0,5.0,10,2,,6.21,30.147638,,,,,,,,,,,FEW,500,BKN,6000,BKN,12000,,,VFR,,,,,,,,,,,,METAR,275.0
RJFU 150100Z VRB01KT 9999 FEW020 SCT025 BKN030 10/07 Q1021,RJFU,2019-01-15T01:00:00Z,32.92,129.92,10.0,7.0,0,1,,6.21,30.147638,,,,,,,,,,,FEW,2000,SCT,2500,BKN,3000,,,MVFR,,,,,,,,,,,,METAR,5.0
RJFT 150100Z 28003KT 9999 SCT040 BKN050 09/06 Q1021,RJFT,2019-01-15T01:00:00Z,32.82,130.83,9.0,6.0,280,3,,6.21,30.147638,,,,,,,,,,,SCT,4000,BKN,5000,,,,,VFR,,,,,,,,,,,,METAR,196.0
RJNK 150100Z 19013KT 9999 FEW030 SCT150 BKN180 10/M02 Q1018,RJNK,2019-01-15T01:00:00Z,36.37,136.42,10.0,-2.0,190,13,,6.21,30.059055,,,,,,,,,,,FEW,3000,SCT,15000,BKN,18000,,,VFR,,,,,,,,,,,,METAR,9.0
LPLA 150100Z /////KT 9999 FEW018 SCT040 14/14 Q1026,LPLA,2019-01-15T01:00:00Z,38.77,-27.1,14.0,14.0,,,,6.21,30.295275,,,,,,,,,,,FEW,1800,SCT,4000,,,,,VFR,,,,,,,,,,,,METAR,55.0
LPBJ 150100Z 27005KT CAVOK 05/04 Q1021,LPBJ,2019-01-15T01:00:00Z,38.08,-7.93,5.0,4.0,270,5,,6.21,30.147638,,,,,,,,,,,CAVOK,,,,,,,,VFR,,,,,,,,,,,,METAR,194.0
SAZS 150100Z 29016KT 9999 FEW050 20/02 Q1014,SAZS,2019-01-15T01:00:00Z,-41.13,-71.17,20.0,2.0,290,16,,6.21,29.940945,,,,,,,,,,,FEW,5000,,,,,,,VFR,,,,,,,,,,,,METAR,840.0
CYSC 150100Z AUTO VRB02KT 9SM CLR M16/M18 A3011 RMK SLP223,CYSC,2019-01-15T01:00:00Z,45.43,-71.68,-16.0,-18.0,0,2,,9.0,30.109253,1022.3,,TRUE,,,,,,,,CLR,,,,,,,,VFR,,,,,,,,,,,,METAR,241.0
CYSB 150100Z 24006KT 3SM -SN BKN005 OVC027 M04/M05 A3005 RMK ST7SC1 SLP202,CYSB,2019-01-15T01:00:00Z,46.63,-80.8,-4.0,-5.0,240,6,,3.0,30.050198,1020.2,,,,,,,,,-SN,BKN,500,OVC,2700,,,,,IFR,,,,,,,,,,,,METAR,348.0
CYRQ 150100Z AUTO 20005KT 9SM OVC065 M14/M15 A3014 RMK SLP213,CYRQ,2019-01-15T01:00:00Z,46.35,-72.68,-14.0,-15.0,200,5,,9.0,30.138779,1021.3,,TRUE,,,,,,,,OVC,6500,,,,,,,VFR,,,,,,,,,,,,METAR,61.0
CYRB 150100Z 33022KT 1SM R35/5000VP6000FT/D IC BLSN FEW050 M29/M32 A3003 RMK SC2 VIS VRB 3/4-2 SLP185,CYRB,2019-01-15T01:00:00Z,74.72,-94.97,-29.0,-32.0,330,22,,1.0,30.029528,1018.5,,,,,,,,,BLSN IC,FEW,5000,,,,,,,IFR,,,,,,,,,,,,METAR,67.0
CYQK 150100Z 21005KT 20SM FEW180 BKN230 M10/M13 A3015 RMK CI2CI4 SLP244,CYQK,2019-01-15T01:00:00Z,49.77,-94.37,-10.0,-13.0,210,5,,20.0,30.15059,1024.4,,,,,,,,,,FEW,18000,BKN,23000,,,,,VFR,,,,,,,,,,,,METAR,411.0
CYQA 150100Z AUTO 24005KT 200V260 9SM OVC020 M03/M06 A3011 RMK ICG INTMT SLP219,CYQA,2019-01-15T01:00:00Z,44.97,-79.28,-3.0,-6.0,240,5,,9.0,30.109253,1021.9,,TRUE,,,,,,,,OVC,2000,,,,,,,MVFR,,,,,,,,,,,,METAR,282.0
CYPO 150100Z AUTO 25005KT 9SM CLR M26/M30 A3015 RMK SLP222,CYPO,2019-01-15T01:00:00Z,54.98,-85.43,-26.0,-30.0,250,5,,9.0,30.15059,1022.2,,TRUE,,,,,,,,CLR,,,,,,,,VFR,,,,,,,,,,,,METAR,53.0
CYPL 150100Z 00000KT 15SM FEW140 BKN220 BKN240 M15/M19 A3014 RMK AC2CS3CI2 HALO CONTRAILS SLP243,CYPL,2019-01-15T01:00:00Z,51.47,-90.2,-15.0,-19.0,0,0,,15.0,30.138779,1024.3,,,,,,,,,,FEW,14000,BKN,22000,BKN,24000,,,VFR,,,,,,,,,,,,METAR,373.0
CYOO 150100Z AUTO 32002KT 9SM BKN160 BKN180 BKN210 M04/M06 A3018 RMK SLP230,CYOO,2019-01-15T01:00:00Z,43.92,-78.9,-4.0,-6.0,320,2,,9.0,30.180119,1023.0,,TRUE,,,,,,,,BKN,16000,BKN,18000,BKN,21000,,,VFR,,,,,,,,,,,,METAR,139.0
CYLH 150100Z AUTO 26003KT 9SM CLR M23/M25 A3018 RMK SLP252,CYLH,2019-01-15T01:00:00Z,52.2,-87.93,-23.0,-25.0,260,3,,9.0,30.180119,1025.2,,TRUE,,,,,,,,CLR,,,,,,,,VFR,,,,,,,,,,,,METAR,254.0
CYLD 150100Z 03008KT 10SM -SN OVC004 M07/M07 A3005 RMK SC8 SLP213,CYLD,2019-01-15T01:00:00Z,47.82,-83.33,-7.0,-7.0,30,8,,10.0,30.050198,1021.3,,,,,,,,,-SN,OVC,400,,,,,,,LIFR,,,,,,,,,,,,METAR,447.0
CYKP 150100Z AUTO 28005KT 9SM FEW220 OVC240 M18/M21 A3020 RMK ICG SLP250,CYKP,2019-01-15T01:00:00Z,51.67,-85.9,-18.0,-21.0,280,5,,9.0,30.200787,1025.0,,TRUE,,,,,,,,FEW,22000,OVC,24000,,,,,VFR,,,,,,,,,,,,METAR,179.0
CYKF 150100Z AUTO 27006KT 9SM BKN150 BKN170 M06/M08 A3016 RMK SLP235,CYKF,2019-01-15T01:00:00Z,43.47,-80.38,-6.0,-8.0,270,6,,9.0,30.159449,1023.5,,TRUE,,,,,,,,BKN,15000,BKN,17000,,,,,VFR,,,,,,,,,,,,METAR,317.0
HTTB 150100Z 00000KT 9999 SCT016 FEW017CB BKN070 19/19 Q1019 NOSIG,HTTB,2019-01-15T01:00:00Z,-5.07,32.82,19.0,19.0,0,0,,6.21,30.088583,,,,,,TRUE,,,,,SCT,1600,FEW,1700,BKN,7000,,,VFR,,,,,,,,,,,,METAR,1190.0
HTSO 150100Z 00000KT 9999 -RA FEW016 FEW018CB BKN070 19/19 Q1019,HTSO,2019-01-15T01:00:00Z,-10.67,35.57,19.0,19.0,0,0,,6.21,30.088583,,,,,,,,,,-RA,FEW,1600,FEW,1800,BKN,7000,,,VFR,,,,,,,,,,,,METAR,1067.0
HTMW 150100Z 12008KT 9999 FEW019 FEW020CB SCT090 21/19 Q1014 NOSIG,HTMW,2019-01-15T01:00:00Z,-2.47,32.92,21.0,19.0,120,8,,6.21,29.940945,,,,,,TRUE,,,,,FEW,1900,FEW,2000,SCT,9000,,,VFR,,,,,,,,,,,,METAR,1140.0
HTMU 150100Z 00000KT 9999 FEW018CB BKN090 22/19 Q1017,HTMU,2019-01-15T01:00:00Z,-1.5,33.78,22.0,19.0,0,0,,6.21,30.029528,,,,,,,,,,,FEW,1800,BKN,9000,,,,,VFR,,,,,,,,,,,,METAR,1147.0
HTMG 150100Z 00000KT 9999 SCT023 24/21 Q1014,HTMG,2019-01-15T01:00:00Z,-6.82,37.63,24.0,21.0,0,0,,6.21,29.940945,,,,,,,,,,,SCT,2300,,,,,,,VFR,,,,,,,,,,,,METAR,526.0
HTBU 150100Z 00000KT 9999 FEW017 FEW019CB SCT090 22/19 Q1015,HTBU,2019-01-15T01:00:00Z,-1.32,31.82,22.0,19.0,0,0,,6.21,29.970472,,,,,,,,,,,FEW,1700,FEW,1900,SCT,9000,,,VFR,,,,,,,,,,,,METAR,1137.0
HTAR 150100Z 00000KT 9999 FEW020 17/15 Q1017 NOSIG,HTAR,2019-01-15T01:00:00Z,-3.37,36.63,17.0,15.0,0,0,,6.21,30.029528,,,,,,TRUE,,,,,FEW,2000,,,,,,,VFR,,,,,,,,,,,,METAR,1387.0
RJOA 150100Z 11003KT 9999 FEW020 SCT060 BKN130 06/01 Q1019,RJOA,2019-01-15T01:00:00Z,34.42,132.92,6.0,1.0,110,3,,6.21,30.088583,,,,,,,,,,,FEW,2000,SCT,6000,BKN,13000,,,VFR,,,,,,,,,,,,METAR,6.0
RJNT 150100Z 18012KT 150V210 9999 FEW030 SCT150 BKN/// 10/M02 Q1018,RJNT,2019-01-15T01:00:00Z,36.63,137.17,10.0,-2.0,180,12,,6.21,30.059055,,,,,,,,,,,FEW,3000,SCT,15000,,,,,VFR,,,,,,,,,,,,SPECI,27.0
RJFO 150100Z 26003KT 210V290 9999 FEW030 SCT060 BKN160 10/06 Q1020,RJFO,2019-01-15T01:00:00Z,33.47,131.72,10.0,6.0,260,3,,6.21,30.11811,,,,,,,,,,,FEW,3000,SCT,6000,BKN,16000,,,VFR,,,,,,,,,,,,METAR,8.0
RJOT 150100Z VRB02KT 9999 -RA FEW025 SCT050 BKN070 07/02 Q1020,RJOT,2019-01-15T01:00:00Z,34.22,134.02,7.0,2.0,0,2,,6.21,30.11811,,,,,,,,,,-RA,FEW,2500,SCT,5000,BKN,7000,,,VFR,,,,,,,,,,,,METAR,188.0
RJOB 150100Z 07003KT 9999 FEW020 BKN035 BKN050 04/03 Q1019,RJOB,2019-01-15T01:00:00Z,34.75,133.83,4.0,3.0,70,3,,6.21,30.088583,,,,,,,,,,,FEW,2000,BKN,3500,BKN,5000,,,VFR,,,,,,,,,,,,METAR,242.0
SBYS 150100Z 20016KT 9999 TS VCSH SCT040 FEW045CB BKN080 22/18 Q1017,SBYS,2019-01-15T01:00:00Z,-21.97,-47.32,22.0,18.0,200,16,,6.21,30.029528,,,,,,,,,,TS VCSH,SCT,4000,FEW,4500,BKN,8000,,,VFR,,,,,,,,,,,,METAR,598.0
SBUR 150100Z 25009KT 9999 TS BKN040 FEW045CB 22/18 Q1019,SBUR,2019-01-15T01:00:00Z,-19.77,-47.97,22.0,18.0,250,9,,6.21,30.088583,,,,,,,,,,TS,BKN,4000,FEW,4500,,,,,VFR,,,,,,,,,,,,METAR,807.0
SBUL 150100Z 33002KT CAVOK 26/16 Q1019,SBUL,2019-01-15T01:00:00Z,-18.87,-48.22,26.0,16.0,330,2,,6.21,30.088583,,,,,,,,,,,CAVOK,,,,,,,,VFR,,,,,,,,,,,,METAR,922.0
SBTA 150100Z VRB01KT 9999 SCT025 BKN100 21/18 Q1017 RETS,SBTA,2019-01-15T01:00:00Z,-23.03,-45.5,21.0,18.0,0,1,,6.21,30.029528,,,,,,,,,,,SCT,2500,BKN,10000,,,,,VFR,,,,,,,,,,,,METAR,586.0
SBSR 150100Z 00000KT CAVOK 27/18 Q1016,SBSR,2019-01-15T01:00:00Z,-20.8,-49.4,27.0,18.0,0,0,,6.21,30.0,,,,,,,,,,,CAVOK,,,,,,,,VFR,,,,,,,,,,,,METAR,543.0
SBSC 150100Z 24005KT CAVOK 26/23 Q1013,SBSC,2019-01-15T01:00:00Z,-22.92,-43.72,26.0,23.0,240,5,,6.21,29.911417,,,,,,,,,,,CAVOK,,,,,,,,VFR,,,,,,,,,,,,METAR,3.0
SBMT 150100Z 09006KT 8000 FEW019 SCT094 25/21 Q1019,SBMT,2019-01-15T01:00:00Z,-23.52,-46.62,25.0,21.0,90,6,,4.97,30.088583,,,,,,,,,,,FEW,1900,SCT,9400,,,,,MVFR,,,,,,,,,,,,METAR,722.0
SBMK 150100Z 00000KT CAVOK 24/16 Q1017,SBMK,2019-01-15T01:00:00Z,-16.7,-43.82,24.0,16.0,0,0,,6.21,30.029528,,,,,,,,,,,CAVOK,,,,,,,,VFR,,,,,,,,,,,,METAR,646.0
SBME 150100Z 03006KT CAVOK 26/23 Q1016,SBME,2019-01-15T01:00:00Z,-22.35,-41.77,26.0,23.0,30,6,,6.21,30.0,,,,,,,,,,,CAVOK,,,,,,,,VFR,,,,,,,,,,,,METAR,2.0
SBDN 150100Z 06007KT 9999 VCTS SCT035 FEW045CB 27/20 Q1015,SBDN,2019-01-15T01:00:00Z,-22.18,-51.43,27.0,20.0,60,7,,6.21,29.970472,,,,,,,,,,VCTS,SCT,3500,FEW,4500,,,,,VFR,,,,,,,,,,,,METAR,435.0
SBBU 150100Z 28004KT CAVOK 27/22 Q1017,SBBU,2019-01-15T01:00:00Z,-22.32,-49.07,27.0,22.0,280,4,,6.21,30.029528,,,,,,,,,,,CAVOK,,,,,,,,VFR,,,,,,,,,,,,METAR,590.0
SBBH 150100Z 10006KT CAVOK 25/16 Q1019,SBBH,2019-01-15T01:00:00Z,-19.85,-43.95,25.0,16.0,100,6,,6.21,30.088583,,,,,,,,,,,CAVOK,,,,,,,,VFR,,,,,,,,,,,,METAR,785.0
SBQV 150100Z 12010KT 9999 FEW020 21/18 Q1020,SBQV,2019-01-15T01:00:00Z,-14.87,-40.87,21.0,18.0,120,10,,6.21,30.11811,,,,,,,,,,,FEW,2000,,,,,,,VFR,,,,,,,,,,,,METAR,893.0
SBKG 150100Z 11007KT 9999 SCT015 23/18 Q1017,SBKG,2019-01-15T01:00:00Z,-7.27,-35.87,23.0,18.0,110,7,,6.21,30.029528,,,,,,,,,,,SCT,1500,,,,,,,VFR,,,,,,,,,,,,METAR,560.0
SBJU 150100Z 00000KT 9999 SCT020 26/22 Q1017,SBJU,2019-01-15T01:00:00Z,-7.22,-39.27,26.0,22.0,0,0,,6.21,30.029528,,,,,,,,,,,SCT,2000,,,,,,,VFR,,,,,,,,,,,,METAR,409.0
SBIL 150100Z 10006KT 9999 FEW025 27/24 Q1016,SBIL,2019-01-15T01:00:00Z,-14.8,-39.02,27.0,24.0,100,6,,6.21,30.0,,,,,,,,,,,FEW,2500,,,,,,,VFR,,,,,,,,,,,,METAR,5.0
CWWF 150100Z AUTO 16007KT M08/M10 RMK AO1 SOG 05 7027 SLP198 T10821099,CWWF,2019-01-15T01:00:00Z,49.7,-103.8,-8.2,-9.9,160,7,,,,1019.8,,TRUE,TRUE,,,,,,,,,,,,,,,,,,,,,,,,,,,METAR,589.0
CWWA 150100Z AUTO 00000KT 05/03 RMK AO1 SLP148 T00470030 56014,CWWA,2019-01-15T01:00:00Z,49.35,-123.17,4.7,3.0,0,0,,,,1014.8,,TRUE,TRUE,,,,,,,,,,,,,,,,-1.4,,,,,,,,,,,METAR,178.0
CWVQ 150100Z AUTO 31001KT M12/M16 RMK AO1 SOG 14 8011 SLP224 T11201155,CWVQ,2019-01-15T01:00:00Z,45.42,-73.92,-12.0,-15.5,310,1,,,,1022.4,,TRUE,TRUE,,,,,,,,,,,,,,,,,,,,,,,,,,,METAR,39.0
CWVP 150100Z AUTO 29003KT M00/M10 RMK AO1 SOG 12 6006 SLP181 T10011100,CWVP,2019-01-15T01:00:00Z,49.63,-109.52,-0.1,-10.0,290,3,,,,1018.1,,TRUE,TRUE,,,,,,,,,,,,,,,,,,,,,,,,,,,METAR,1271.0
CWVN 150100Z AUTO 01001KT M08/M10 RMK AO1 SLP213 T10801098 56012,CWVN,2019-01-15T01:00:00Z,49.07,-107.57,-8.0,-9.8,10,1,,,,1021.3,,TRUE,TRUE,,,,,,,,,,,,,,,,-1.2,,,,,,,,,,,METAR,785.0
CWVI 150100Z AUTO 28011KT M01/M04 RMK AO1 SOG 21 2008 SLP194 T10061043,CWVI,2019-01-15T01:00:00Z,53.52,-112.1,-0.6,-4.3,280,11,,,,1019.4,,TRUE,TRUE,,,,,,,,,,,,,,,,,,,,,,,,,,,METAR,639.0
CWVF 150100Z AUTO 31006KT 04/ RMK AO1 T0041,CWVF,2019-01-15T01:00:00Z,49.1,-123.3,4.1,,310,6,,,,,,TRUE,TRUE,,,,,,,,,,,,,,,,,,,,,,,,,,,METAR,1.0
CWUS 150100Z AUTO 33001KT M02/M04 RMK AO1 SLP259 T10181042 58010,CWUS,2019-01-15T01:00:00Z,49.57,-119.65,-1.8,-4.2,330,1,,,,1025.9,,TRUE,TRUE,,,,,,,,,,,,,,,,-1.0,,,,,,,,,,,METAR,454.0
CWTY 150100Z AUTO 22010KT M11/M13 RMK AO1 SLP212 T11081130 58013,CWTY,2019-01-15T01:00:00Z,46.35,-72.52,-10.8,-13.0,220,10,,,,1021.2,,TRUE,TRUE,,,,,,,,,,,,,,,,-1.3,,,,,,,,,,,METAR,6.0
CWTT 150100Z AUTO 29003KT M12/M14 RMK AO1 T11231135,CWTT,2019-01-15T01:00:00Z,45.27,-72.17,-12.3,-13.5,290,3,,,,,,TRUE,TRUE,,,,,,,,,,,,,,,,,,,,,,,,,,,METAR,209.0
CWTN 150100Z AUTO 27003KT M11/M16 RMK AO1 SLP199 T11121160 58011,CWTN,2019-01-15T01:00:00Z,47.07,-70.78,-11.2,-16.0,270,3,,,,1019.9,,TRUE,TRUE,,,,,,,,,,,,,,,,-1.1,,,,,,,,,,,METAR,6.0
CWTG 150100Z AUTO 26013KT M07/M12 RMK AO1 PK WND 26019/0012 SLP164 T10681117 56009,CWTG,2019-01-15T01:00:00Z,49.32,-67.37,-6.8,-11.7,260,13,,,,1016.4,,TRUE,TRUE,,,,,,,,,,,,,,,,-0.9,,,,,,,,,,,METAR,5.0
CWTA 150100Z AUTO 19003KT M09/M14 RMK AO1 SOG 30 8010 SLP219 T10851142,CWTA,2019-01-15T01:00:00Z,45.5,-73.58,-8.5,-14.2,190,3,,,,1021.9,,TRUE,TRUE,,,,,,,,,,,,,,,,,,,,,,,,,,,METAR,63.0
CZFS 150100Z AUTO 09001KT M30/M33 RMK AO1 SOG 36 1007 SLP348 T12971327,CZFS,2019-01-15T01:00:00Z,61.77,-121.23,-29.7,-32.7,90,1,,,,1034.8,,TRUE,TRUE,,,,,,,,,,,,,,,,,,,,,,,,,,,METAR,168.0
CWMT 150100Z AUTO 06002KT M31/M34 RMK AO1 SOG 35 2014 SLP355 T13111344,CWMT,2019-01-15T01:00:00Z,63.13,-117.25,-31.1,-34.4,60,2,,,,1035.5,,TRUE,TRUE,,,,,,,,,,,,,,,,,,,,,,,,,,,METAR,271.0
CWNZ 150100Z AUTO 36005KT M14/M17 RMK AO1 SOG 45 1014 SLP239 T11361168,CWNZ,2019-01-15T01:00:00Z,49.75,-84.17,-13.6,-16.8,360,5,,,,1023.9,,TRUE,TRUE,,,,,,,,,,,,,,,,,,,,,,,,,,,METAR,256.0
CWNC 150100Z AUTO 36004KT M05/M07 RMK AO1 SOG 02 8007 SLP224 T10541073,CWNC,2019-01-15T01:00:00Z,43.95,-78.17,-5.4,-7.3,360,4,,,,1022.4,,TRUE,TRUE,,,,,,,,,,,,,,,,,,,,,,,,,,,METAR,78.0
CWPC 150100Z AUTO 26016KT M03/M06 RMK AO1 PK WND 25018/0050 SLP241 T10301055 58001,CWPC,2019-01-15T01:00:00Z,42.87,-79.25,-3.0,-5.5,260,16,,,,1024.1,,TRUE,TRUE,,,,,,,,,,,,,,,,-0.1,,,,,,,,,,,METAR,184.0
CWLS 150100Z AUTO 25003KT M05/M07 RMK AO1 SOG 10 8003 SLP231 T10511069,CWLS,2019-01-15T01:00:00Z,43.97,-80.75,-5.1,-6.9,250,3,,,,1023.1,,TRUE,TRUE,,,,,,,,,,,,,,,,,,,,,,,,,,,METAR,415.0
CWBE 150100Z AUTO 28004KT M02/M03 RMK AO1 SLP217 T10191030 58005,CWBE,2019-01-15T01:00:00Z,45.98,-81.48,-1.9,-3.0,280,4,,,,1021.7,,TRUE,TRUE,,,,,,,,,,,,,,,,-0.5,,,,,,,,,,,METAR,196.0
CTCK 150100Z AUTO 17001KT M10/M12 RMK AO1 SOG 06 8012 SLP229 T10991122,CTCK,2019-01-15T01:00:00Z,45.25,-74.97,-9.9,-12.2,170,1,,,,1022.9,,TRUE,TRUE,,,,,,,,,,,,,,,,,,,,,,,,,,,METAR,85.0
CWWZ 150100Z AUTO 23006KT M03/M06 RMK AO1 SOG 02 8002 SLP237 T10321055,CWWZ,2019-01-15T01:00:00Z,43.25,-79.22,-3.2,-5.5,230,6,,,,1023.7,,TRUE,TRUE,,,,,,,,,,,,,,,,,,,,,,,,,,,METAR,79.0
CXSH 150100Z AUTO 10002KT M15/M17 RMK AO1 SLP208 T11501170 58013,CXSH,2019-01-15T01:00:00Z,46.58,-72.73,-15.0,-17.0,100,2,,,,1020.8,,TRUE,TRUE,,,,,,,,,,,,,,,,-1.3,,,,,,,,,,,METAR,110.0
CXRH 150100Z AUTO 22007KT RMK AO1 17 0028Z,CXRH,2019-01-15T01:00:00Z,49.57,-57.88,,,220,7,,,,,,TRUE,TRUE,,,,,,,,,,,,,,,,,,,,,,,,,,,METAR,68.0
CXNM 150100Z AUTO 14002KT M13/M14 RMK AO1 T11301139,CXNM,2019-01-15T01:00:00Z,46.82,-60.67,-13.0,-13.9,140,2,,,,,,TRUE,TRUE,,,,,,,,,,,,,,,,,,,,,,,,,,,METAR,439.0
CYTL 150100Z AUTO 26002KT 9SM CLR M23/M26 A3017 RMK SLP247,CYTL,2019-01-15T01:00:00Z,53.82,-89.88,-23.0,-26.0,260,2,,9.0,30.171259,1024.7,,TRUE,,,,,,,,CLR,,,,,,,,VFR,,,,,,,,,,,,METAR,224.0
CYRL 150100Z 17004KT 15SM FEW085 SCT200 M11/M14 A3012 RMK AC2CS1 FROIN SLP233,CYRL,2019-01-15T01:00:00Z,51.07,-93.78,-11.0,-14.0,170,4,,15.0,30.121063,1023.3,,,,,,,,,,FEW,8500,SCT,20000,,,,,VFR,,,,,,,,,,,,METAR,383.0
CYQT 150100Z VRB02KT 15SM OVC027 M06/M10 A3022 RMK SC8 SLP249,CYQT,2019-01-15T01:00:00Z,48.37,-89.32,-6.0,-10.0,0,2,,15.0,30.221457,1024.9,,,,,,,,,,OVC,2700,,,,,,,MVFR,,,,,,,,,,,,METAR,199.0
SPJC 150100Z 16011KT 9999 FEW010 BKN050 23/20 Q1013 NOSIG RMK PP000,SPJC,2019-01-15T01:00:00Z,-12.02,-77.12,23.0,20.0,160,11,,6.21,29.911417,,,,,,TRUE,,,,,FEW,1000,BKN,5000,,,,,VFR,,,,,,,,,,,,METAR,13.0
OIAW 150100Z 30002KT 6000 OVC020 15/12 Q1016,OIAW,2019-01-15T01:00:00Z,31.32,48.77,15.0,12.0,300,2,,3.73,30.0,,,,,,,,,,,OVC,2000,,,,,,,MVFR,,,,,,,,,,,,METAR,22.0
CWGW 150100Z AUTO 33002KT M07/M09 RMK AO1 SOG 12 8004 SLP302 T10741090,CWGW,2019-01-15T01:00:00Z,49.75,-114.9,-7.4,-9.0,330,2,,,,1030.2,,TRUE,TRUE,,,,,,,,,,,,,,,,,,,,,,,,,,,METAR,1137.0
CWGT 150100Z AUTO 34001KT 03/03 RMK AO1 SLP153 T00250034 58014,CWGT,2019-01-15T01:00:00Z,49.48,-124.43,2.5,3.4,340,1,,,,1015.3,,TRUE,TRUE,,,,,,,,,,,,,,,,-1.4,,,,,,,,,,,METAR,5.0
CWGR 150100Z AUTO 21003KT M08/M11 RMK AO1 SLP186 T10821107 58017,CWGR,2019-01-15T01:00:00Z,47.42,-61.8,-8.2,-10.7,210,3,,,,1018.6,,TRUE,TRUE,,,,,,,,,,,,,,,,-1.7,,,,,,,,,,,METAR,60.0
CMFM 150100Z AUTO 13002KT M11/M14 RMK AO1 SOG 62 8009 SLP183 T11071141,CMFM,2019-01-15T01:00:00Z,47.32,-71.15,-10.7,-14.1,130,2,,,,1018.3,,TRUE,TRUE,,,,,,,,,,,,,,,,,,,,,,,,,,,METAR,672.0
CWXA 150100Z AUTO 25007G15KT M00/M10 RMK AO1 PK WND 25019/0002 SLP218 T10041104 55001,CWXA,2019-01-15T01:00:00Z,51.07,-115.07,-0.4,-10.4,250,7,15,,,1021.8,,TRUE,TRUE,,,,,,,,,,,,,,,,-0.1,,,,,,,,,,,METAR,1298.0
CWWK 150100Z AUTO 00000KT 04/03 RMK AO1 SLP154 T00390030 58014,CWWK,2019-01-15T01:00:00Z,49.02,-122.78,3.9,3.0,0,0,,,,1015.4,,TRUE,TRUE,,,,,,,,,,,,,,,,-1.4,,,,,,,,,,,METAR,15.0
OPST 150100Z 23004KT 4000 FU FEW040 SCT100 04/01 Q1018 NOSIG RH83,OPST,2019-01-15T01:00:00Z,32.53,74.37,4.0,1.0,230,4,,2.49,30.059055,,,,,,TRUE,,,,FU,FEW,4000,SCT,10000,,,,,IFR,,,,,,,,,,,,METAR,247.0
HTSU 150100Z 00000KT 9999 SCT017 FEW018CB OVC230 17/16 Q1020,HTSU,2019-01-15T01:00:00Z,-7.95,31.67,17.0,16.0,0,0,,6.21,30.11811,,,,,,,,,,,SCT,1700,FEW,1800,OVC,23000,,,VFR,,,,,,,,,,,,SPECI,1804.0
HTMT 150100Z 00000KT 6000 -RA BKN018 FEW019CB BKN080 24/24 Q1013,HTMT,2019-01-15T01:00:00Z,-10.27,40.17,24.0,24.0,0,0,,3.73,29.911417,,,,,,,,,,-RA,BKN,1800,FEW,1900,BKN,8000,,,MVFR,,,,,,,,,,,,SPECI,113.0
HTKA 150100Z 00000KT 9999 FEW019 FEW020CB BKN080 20/18 Q1018,HTKA,2019-01-15T01:00:00Z,-4.87,29.67,20.0,18.0,0,0,,6.21,30.059055,,,,,,,,,,,FEW,1900,FEW,2000,BKN,8000,,,VFR,,,,,,,,,,,,METAR,885.0
RJSS 150100Z 00000KT 9999 FEW040 BKN/// 03/M02 Q1022,RJSS,2019-01-15T01:00:00Z,38.12,140.92,3.0,-2.0,0,0,,6.21,30.177166,,,,,,,,,,,FEW,4000,,,,,,,VFR,,,,,,,,,,,,SPECI,5.0
CYSN 150100Z 23009KT 15SM SCT180 M04/M06 A3021 RMK AC3 SLP239,CYSN,2019-01-15T01:00:00Z,43.2,-79.17,-4.0,-6.0,230,9,,15.0,30.209646,1023.9,,,,,,,,,,SCT,18000,,,,,,,VFR,,,,,,,,,,,,METAR,98.0
CYXE 150100Z 22010KT 8SM BKN250 M08/M10 A2992 RMK CI5 SLP169,CYXE,2019-01-15T01:00:00Z,52.17,-106.7,-8.0,-10.0,220,10,,8.0,29.920275,1016.9,,,,,,,,,,BKN,25000,,,,,,,VFR,,,,,,,,,,,,METAR,504.0
AZUH 150100Z 00000KT CAVOK M02/M03 Q1013 A2992,AZUH,2019-01-15T01:00:00Z,39.18,45.45,-2.0,-3.0,0,0,,6.21,29.911417,,,,,,,,,,,CAVOK,,,,,,,,VFR,,,,,,,,,,,,METAR,855.0
OINK 150100Z AUTO VRB03KT //// // ////// 09/07 Q1011,OINK,2019-01-15T01:00:00Z,37.25,55.1,9.0,7.0,0,3,,,29.852362,,,TRUE,,,,,,,,,,,,,,,,,,,,,,,,,,,,METAR,33.0
OINB 150100Z 09004KT CAVOK 10/08 Q1010,OINB,2019-01-15T01:00:00Z,36.72,52.65,10.0,8.0,90,4,,6.21,29.822834,,,,,,,,,,,CAVOK,,,,,,,,VFR,,,,,,,,,,,,METAR,-15.0
SVBM 150100Z 09002KT 9999 SCT016 22/16 Q1017,SVBM,2019-01-15T01:00:00Z,10.05,-69.37,22.0,16.0,90,2,,6.21,30.029528,,,,,,,,,,,SCT,1600,,,,,,,VFR,,,,,,,,,,,,METAR,614.0
CYLL 150100Z 28014KT 15SM FEW075 FEW220 M03/M06 A2992 RMK AC1CI1 SLP179,CYLL,2019-01-15T01:00:00Z,53.32,-110.07,-3.0,-6.0,280,14,,15.0,29.920275,1017.9,,,,,,,,,,FEW,7500,FEW,22000,,,,,VFR,,,,,,,,,,,,SPECI,669.0
FLKK 150100Z VRB02KT 9000 RA OVC090 19/19 Q1018,FLKK,2019-01-15T01:00:00Z,-15.32,28.45,19.0,19.0,0,2,,5.59,30.059055,,,,,,,,,,RA,OVC,9000,,,,,,,VFR,,,,,,,,,,,,METAR,1154.0
CWFQ 150100Z AUTO 23002KT M12/M15 RMK AO1 SOG 22 8009 SLP217 T11231147,CWFQ,2019-01-15T01:00:00Z,45.03,-72.82,-12.3,-14.7,230,2,,,,1021.7,,TRUE,TRUE,,,,,,,,,,,,,,,,,,,,,,,,,,,METAR,152.0
CWXC 150100Z AUTO 17003KT M11/M13 RMK AO1 2PAST HR 7007 SLP167 P0001 T11141126 50002,CWXC,2019-01-15T01:00:00Z,48.88,-71.03,-11.4,-12.6,170,3,,,,1016.7,,TRUE,TRUE,,,,,,,,,,,,,,,,0.2,,,,,0.01,,,,,,METAR,300.0
OIAA 150100Z 33008KT 7000 FEW035CB FEW040 OVC100 14/11 Q1017,OIAA,2019-01-15T01:00:00Z,30.37,48.25,14.0,11.0,330,8,,4.35,30.029528,,,,,,,,,,,FEW,3500,FEW,4000,OVC,10000,,,MVFR,,,,,,,,,,,,METAR,11.0
OIAI 150100Z 14006KT 5000 BR SCT040 OVC070 15/13 Q1015,OIAI,2019-01-15T01:00:00Z,32.0,49.27,15.0,13.0,140,6,,3.11,29.970472,,,,,,,,,,BR,SCT,4000,OVC,7000,,,,,MVFR,,,,,,,,,,,,METAR,372.0
OIKK 150100Z 11006KT CAVOK 06/M16 Q1022 A3019,OIKK,2019-01-15T01:00:00Z,30.25,56.97,6.0,-16.0,110,6,,6.21,30.177166,,,,,,,,,,,CAVOK,,,,,,,,VFR,,,,,,,,,,,,METAR,1754.0
CYVQ 150100Z 10005KT 30SM FEW120 M24/M28 A3041 RMK AC2 SLP310,CYVQ,2019-01-15T01:00:00Z,65.27,-126.78,-24.0,-28.0,100,5,,30.0,30.410433,1031.0,,,,,,,,,,FEW,12000,,,,,,,VFR,,,,,,,,,,,,METAR,74.0
CYVO 150100Z VRB02KT 7SM -SN OVC024 M08/M09 A3002 RMK SN1SC7 SLP199,CYVO,2019-01-15T01:00:00Z,48.07,-77.77,-8.0,-9.0,0,2,,7.0,30.02067,1019.9,,,,,,,,,-SN,OVC,2400,,,,,,,MVFR,,,,,,,,,,,,METAR,337.0
OIFK 150100Z 00000KT CAVOK 01/M01 Q1016,OIFK,2019-01-15T01:00:00Z,33.9,51.58,1.0,-1.0,0,0,,6.21,30.0,,,,,,,,,,,CAVOK,,,,,,,,VFR,,,,,,,,,,,,METAR,982.0
MPDA 150100Z 35010KT CAVOK 28/19 Q1009,MPDA,2019-01-15T01:00:00Z,8.4,-82.43,28.0,19.0,350,10,,6.21,29.793306,,,,,,,,,,,CAVOK,,,,,,,,VFR,,,,,,,,,,,,METAR,27.0
MPMG 150100Z 35008KT 9999 FEW018 27/22 Q1012 NOSIG,MPMG,2019-01-15T01:00:00Z,8.98,-79.57,27.0,22.0,350,8,,6.21,29.88189,,,,,,TRUE,,,,,FEW,1800,,,,,,,VFR,,,,,,,,,,,,METAR,13.0
VAID 150100Z 09002KT 2000 HZ NSC 12/06 Q1019 NOSIG,VAID,2019-01-15T01:00:00Z,22.72,75.78,12.0,6.0,90,2,,1.24,30.088583,,,,,,TRUE,,,,HZ,CLR,,,,,,,,IFR,,,,,,,,,,,,METAR,567.0
KEYW 150100Z 34009KT 10SM SCT020 21/16 A3015 RMK AO2 T02060161,KEYW,2019-01-15T01:00:00Z,24.55,-81.75,20.6,16.1,340,9,,10.0,30.15059,,,,TRUE,,,,,,,SCT,2000,,,,,,,VFR,,,,,,,,,,,,METAR,5.0
TLPL 150100Z 08012KT 9999 FEW026 25/21 Q1016 NOSIG,TLPL,2019-01-15T01:00:00Z,13.75,-60.95,25.0,21.0,80,12,,6.21,30.0,,,,,,TRUE,,,,,FEW,2600,,,,,,,VFR,,,,,,,,,,,,METAR,3.0
SULS 150100Z 10006KT 9999 -DZ FEW005 SCT008 BKN010 21/20 Q1012,SULS,2019-01-15T01:00:00Z,-34.87,-55.1,21.0,20.0,100,6,,6.21,29.88189,,,,,,,,,,-DZ,FEW,500,SCT,800,BKN,1000,,,MVFR,,,,,,,,,,,,METAR,30.0
SBGL 150100Z 11005KT CAVOK 28/22 Q1014,SBGL,2019-01-15T01:00:00Z,-22.82,-43.25,28.0,22.0,110,5,,6.21,29.940945,,,,,,,,,,,CAVOK,,,,,,,,VFR,,,,,,,,,,,,METAR,6.0
MDPP 150100Z 0000KT 9999 FEW018 24/22 Q1017,MDPP,2019-01-15T01:00:00Z,19.75,-70.57,24.0,22.0,,,,6.21,30.029528,,,,,,,,,,,FEW,1800,,,,,,,VFR,,,,,,,,,,,,METAR,5.0
MDLR 150100Z 00000KT 9999 SCT018 22/21 Q1018,MDLR,2019-01-15T01:00:00Z,18.45,-68.92,22.0,21.0,0,0,,6.21,30.059055,,,,,,,,,,,SCT,1800,,,,,,,VFR,,,,,,,,,,,,METAR,8.0
MDSD 150100Z 11004KT 9999 SCT016 25/21 Q1017,MDSD,2019-01-15T01:00:00Z,18.42,-69.67,25.0,21.0,110,4,,6.21,30.029528,,,,,,,,,,,SCT,1600,,,,,,,VFR,,,,,,,,,,,,METAR,18.0
MDPC 150100Z 07004KT 9999 FEW020 24/21 Q1018 NOSIG,MDPC,2019-01-15T01:00:00Z,18.57,-68.37,24.0,21.0,70,4,,6.21,30.059055,,,,,,TRUE,,,,,FEW,2000,,,,,,,VFR,,,,,,,,,,,,METAR,12.0
MDST 150100Z 16005KT 9999 FEW018 24/22 Q1017,MDST,2019-01-15T01:00:00Z,19.4,-70.6,24.0,22.0,160,5,,6.21,30.029528,,,,,,,,,,,FEW,1800,,,,,,,VFR,,,,,,,,,,,,METAR,184.0
SBSN 150100Z 12003KT 9999 FEW017 22/22 Q1013,SBSN,2019-01-15T01:00:00Z,-2.42,-54.78,22.0,22.0,120,3,,6.21,29.911417,,,,,,,,,,,FEW,1700,,,,,,,VFR,,,,,,,,,,,,METAR,72.0
SBKP 150100Z 14007KT 9999 FEW048 26/20 Q1017,SBKP,2019-01-15T01:00:00Z,-23.0,-47.12,26.0,20.0,140,7,,6.21,30.029528,,,,,,,,,,,FEW,4800,,,,,,,VFR,,,,,,,,,,,,METAR,661.0
CYYU 150100Z 35010KT 5SM -SN FEW010 BKN025 M10/M12 A3015 RMK SC2SC5 SLP228,CYYU,2019-01-15T01:00:00Z,49.42,-82.47,-10.0,-12.0,350,10,,5.0,30.15059,1022.8,,,,,,,,,-SN,FEW,1000,BKN,2500,,,,,MVFR,,,,,,,,,,,,METAR,227.0
CYYH 150100Z 18004KT 15SM IC SKC M38/M43 A3008 RMK FROIN SLP193,CYYH,2019-01-15T01:00:00Z,69.53,-93.57,-38.0,-43.0,180,4,,15.0,30.079725,1019.3,,,,,,,,,IC,SKC,,,,,,,,VFR,,,,,,,,,,,,METAR,28.0
CYYB 150100Z VRB08KT 15SM -SN OVC005 M06/M06 A3005 RMK ST8 SLP205,CYYB,2019-01-15T01:00:00Z,46.35,-79.42,-6.0,-6.0,0,8,,15.0,30.050198,1020.5,,,,,,,,,-SN,OVC,500,,,,,,,IFR,,,,,,,,,,,,METAR,371.0
CYXU 150100Z 10003KT 8SM BKN170 M09/M10 A3019 RMK AC5 FROIN SLP244,CYXU,2019-01-15T01:00:00Z,43.02,-81.15,-9.0,-10.0,100,3,,8.0,30.188976,1024.4,,,,,,,,,,BKN,17000,,,,,,,VFR,,,,,,,,,,,,METAR,278.0
CYXL 150100Z 00000KT 15SM FEW016 BKN220 M15/M16 A3017 RMK SC1CS5 SLP250,CYXL,2019-01-15T01:00:00Z,50.12,-91.9,-15.0,-16.0,0,0,,15.0,30.171259,1025.0,,,,,,,,,,FEW,1600,BKN,22000,,,,,VFR,,,,,,,,,,,,METAR,390.0
CWRJ 150100Z AUTO 24006KT M09/M10 RMK AO1 SOG 07 7016 SLP183 T10941104,CWRJ,2019-01-15T01:00:00Z,51.57,-107.92,-9.4,-10.4,240,6,,,,1018.3,,TRUE,TRUE,,,,,,,,,,,,,,,,,,,,,,,,,,,METAR,586.0
CWQV 150100Z AUTO 36006KT M11/M15 RMK AO1 T11091152,CWQV,2019-01-15T01:00:00Z,48.27,-70.12,-10.9,-15.2,360,6,,,,,,TRUE,TRUE,,,,,,,,,,,,,,,,,,,,,,,,,,,METAR,1.0
CWQR 150100Z AUTO 29012KT M07/M10 RMK AO1 T10651095,CWQR,2019-01-15T01:00:00Z,50.22,-64.22,-6.5,-9.5,290,12,,,,,,TRUE,TRUE,,,,,,,,,,,,,,,,,,,,,,,,,,,METAR,9.0
CWQP 150100Z AUTO 25008KT M04/M07 RMK AO1 SOG 01 8007 SLP231 T10351074,CWQP,2019-01-15T01:00:00Z,43.83,-77.15,-3.5,-7.4,250,8,,,,1023.1,,TRUE,TRUE,,,,,,,,,,,,,,,,,,,,,,,,,,,METAR,79.0
CWQO 150100Z AUTO 23022G27KT M08/M10 RMK AO1 PK WND 21028/0017 T10771099,CWQO,2019-01-15T01:00:00Z,48.42,-68.9,-7.7,-9.9,230,22,27,,,,,TRUE,TRUE,,,,,,,,,,,,,,,,,,,,,,,,,,,METAR,1.0
CWQK 150100Z AUTO 08013KT 08/04 RMK AO1 SLP144 T00780042 58012,CWQK,2019-01-15T01:00:00Z,48.3,-123.53,7.8,4.2,80,13,,,,1014.4,,TRUE,TRUE,,,,,,,,,,,,,,,,-1.2,,,,,,,,,,,METAR,5.0
CWQH 150100Z AUTO 15001KT M15/M17 RMK AO1 SOG 14 T11531169,CWQH,2019-01-15T01:00:00Z,45.37,-71.82,-15.3,-16.9,150,1,,,,,,TRUE,TRUE,,,,,,,,,,,,,,,,,,,,,,,,,,,METAR,181.0
CWGL 150100Z AUTO 24012KT M03/M06 RMK AO1 SLP217 T10281062 58004,CWGL,2019-01-15T01:00:00Z,44.52,-79.22,-2.8,-6.2,240,12,,,,1021.7,,TRUE,TRUE,,,,,,,,,,,,,,,,-0.4,,,,,,,,,,,METAR,221.0
CWGD 150100Z AUTO 29008KT M02/M05 RMK AO1 SOG 02 7003 SLP235 T10191047,CWGD,2019-01-15T01:00:00Z,43.77,-81.72,-1.9,-4.7,290,8,,,,1023.5,,TRUE,TRUE,,,,,,,,,,,,,,,,,,,,,,,,,,,METAR,214.0
CWGB 150100Z AUTO 29006KT 04/04 RMK AO1 SLP151 T00370035 56014,CWGB,2019-01-15T01:00:00Z,49.35,-124.17,3.7,3.5,290,6,,,,1015.1,,TRUE,TRUE,,,,,,,,,,,,,,,,-1.4,,,,,,,,,,,METAR,5.0
CWGY 150100Z AUTO M04/M08 RMK AO1 SLP208 T10411076 56003,CWGY,2019-01-15T01:00:00Z,51.67,-110.2,-4.1,-7.6,,,,,,1020.8,,TRUE,TRUE,,,,,,,,,,,,,,,,-0.3,,,,,,,,,,,METAR,707.0
CWGX 150100Z AUTO 34001KT M23/M27 RMK AO1 SOG 16 8028 SLP232 T12341274,CWGX,2019-01-15T01:00:00Z,56.35,-94.7,-23.4,-27.4,340,1,,,,1023.2,,TRUE,TRUE,,,,,,,,,,,,,,,,,,,,,,,,,,,METAR,145.0
CWRT 150100Z AUTO 29001KT M07/M10 RMK AO1 T10701099,CWRT,2019-01-15T01:00:00Z,49.62,-114.47,-7.0,-9.9,290,1,,,,,,TRUE,TRUE,,,,,,,,,,,,,,,,,,,,,,,,,,,METAR,1303.0
CWRK 150100Z AUTO 20003KT M07/M10 RMK AO1 SOG 19 8006 SLP222 T10701099,CWRK,2019-01-15T01:00:00Z,45.07,-77.87,-7.0,-9.9,200,3,,,,1022.2,,TRUE,TRUE,,,,,,,,,,,,,,,,,,,,,,,,,,,METAR,331.0
CWRZ 150100Z AUTO 25008KT M10/M13 RMK AO1 SLP163 T11031129 58014,CWRZ,2019-01-15T01:00:00Z,48.42,-64.32,-10.3,-12.9,250,8,,,,1016.3,,TRUE,TRUE,,,,,,,,,,,,,,,,-1.4,,,,,,,,,,,METAR,16.0
CWRY 150100Z AUTO 34004KT M03/M12 RMK AO1 SOG 02 3004 SLP213 T10301117,CWRY,2019-01-15T01:00:00Z,49.12,-112.03,-3.0,-11.7,340,4,,,,1021.3,,TRUE,TRUE,,,,,,,,,,,,,,,,,,,,,,,,,,,METAR,1050.0
CWEH 150100Z AUTO 28008KT M03/M08 RMK AO1 SLP197 T10281078 56008,CWEH,2019-01-15T01:00:00Z,49.42,-108.97,-2.8,-7.8,280,8,,,,1019.7,,TRUE,TRUE,,,,,,,,,,,,,,,,-0.8,,,,,,,,,,,METAR,1078.0
CWLB 150100Z AUTO 32007KT 01/M01 RMK AO1 SOG 22 3014 SLP177 T00111012,CWLB,2019-01-15T01:00:00Z,54.77,-112.02,1.1,-1.2,320,7,,,,1017.7,,TRUE,TRUE,,,,,,,,,,,,,,,,,,,,,,,,,,,METAR,567.0
CWCT 150100Z AUTO 28010KT M04/M07 RMK AO1 SOG 02 8001 SLP207 T10401072,CWCT,2019-01-15T01:00:00Z,52.07,-111.47,-4.0,-7.2,280,10,,,,1020.7,,TRUE,TRUE,,,,,,,,,,,,,,,,,,,,,,,,,,,METAR,791.0
CWPZ 150100Z AUTO 17002KT M02/M02 RMK AO1 SOG 38 6007 SLP218 T10201022,CWPZ,2019-01-15T01:00:00Z,54.38,-125.97,-2.0,-2.2,170,2,,,,1021.8,,TRUE,TRUE,,,,,,,,,,,,,,,,,,,,,,,,,,,METAR,713.0
CWPR 150100Z AUTO 29001KT M08/M09 RMK AO1 SOG 03 7011 SLP250 T10801089,CWPR,2019-01-15T01:00:00Z,49.47,-120.52,-8.0,-8.9,290,1,,,,1025.0,,TRUE,TRUE,,,,,,,,,,,,,,,,,,,,,,,,,,,METAR,700.0
CWPE 150100Z AUTO 35006KT M10/M14 RMK AO1 SOG 02 8021 SLP178 T11021137,CWPE,2019-01-15T01:00:00Z,45.07,-66.47,-10.2,-13.7,350,6,,,,1017.8,,TRUE,TRUE,,,,,,,,,,,,,,,,,,,,,,,,,,,METAR,1.0
CWPD 150100Z AUTO 20008KT M11/M15 RMK AO1 SLP199 T11131148 58012,CWPD,2019-01-15T01:00:00Z,47.57,-71.22,-11.3,-14.8,200,8,,,,1019.9,,TRUE,TRUE,,,,,,,,,,,,,,,,-1.2,,,,,,,,,,,METAR,803.0
CWOC 150100Z AUTO 30004KT M11/M14 RMK AO1 SLP176 T11131141 57015,CWOC,2019-01-15T01:00:00Z,48.02,-65.32,-11.3,-14.1,300,4,,,,1017.6,,TRUE,TRUE,,,,,,,,,,,,,,,,-1.5,,,,,,,,,,,METAR,47.0
CWNQ 150100Z AUTO 16003KT M13/M17 RMK AO1 SLP209 T11301171 58015,CWNQ,2019-01-15T01:00:00Z,46.22,-72.65,-13.0,-17.1,160,3,,,,1020.9,,TRUE,TRUE,,,,,,,,,,,,,,,,-1.5,,,,,,,,,,,METAR,10.0
CWNP 150100Z AUTO 01002KT M02/M04 RMK AO1 SOG 23 6004 SLP274 T10181044,CWNP,2019-01-15T01:00:00Z,50.27,-117.82,-1.8,-4.4,10,2,,,,1027.4,,TRUE,TRUE,,,,,,,,,,,,,,,,,,,,,,,,,,,METAR,524.0
CWNM 150100Z AUTO 06004KT 00/M03 RMK AO1 SOG 03 7007 SLP265 T00001032,CWNM,2019-01-15T01:00:00Z,49.5,-117.28,0.0,-3.2,60,4,,,,1026.5,,TRUE,TRUE,,,,,,,,,,,,,,,,,,,,,,,,,,,METAR,535.0
CWNK 150100Z AUTO 17011KT M09/M10 RMK AO1 T10931103,CWNK,2019-01-15T01:00:00Z,49.5,-98.03,-9.3,-10.3,170,11,,,,,,TRUE,TRUE,,,,,,,,,,,,,,,,,,,,,,,,,,,METAR,268.0
CWJH 150100Z AUTO 06004KT M18/M20 RMK AO1 6PAST HR SOG 51 6023 SLP152 P0002 T11811201 50006,CWJH,2019-01-15T01:00:00Z,56.32,-103.27,-18.1,-20.1,60,4,,,,1015.2,,TRUE,TRUE,,,,,,,,,,,,,,,,0.6,,,,,0.02,,,,,,METAR,344.0
CWJC 150100Z AUTO 36011KT M37/M41 RMK AO1 SLP302 T13731409 51002,CWJC,2019-01-15T01:00:00Z,61.13,-100.9,-37.3,-40.9,360,11,,,,1030.2,,TRUE,TRUE,,,,,,,,,,,,,,,,0.2,,,,,,,,,,,METAR,357.0
CWJB 150100Z AUTO 21004KT M12/M16 RMK AO1 SOG 52 T11231155,CWJB,2019-01-15T01:00:00Z,46.78,-71.27,-12.3,-15.5,210,4,,,,,,TRUE,TRUE,,,,,,,,,,,,,,,,,,,,,,,,,,,METAR,91.0
CWIZ 150100Z AUTO 19004KT M15/M17 RMK AO1 SOG 10 T11461172,CWIZ,2019-01-15T01:00:00Z,45.28,-73.33,-14.6,-17.2,190,4,,,,,,TRUE,TRUE,,,,,,,,,,,,,,,,,,,,,,,,,,,METAR,45.0
CWIW 150100Z AUTO 21005KT M10/M12 RMK AO1 SOG 05 7025 SLP173 T10951117,CWIW,2019-01-15T01:00:00Z,51.67,-105.4,-9.5,-11.7,210,5,,,,1017.3,,TRUE,TRUE,,,,,,,,,,,,,,,,,,,,,,,,,,,METAR,526.0
CWIT 150100Z AUTO 00000KT M15/M16 RMK AO1 SOG 11 8009 SLP218 T11471163,CWIT,2019-01-15T01:00:00Z,45.17,-73.67,-14.7,-16.3,0,0,,,,1021.8,,TRUE,TRUE,,,,,,,,,,,,,,,,,,,,,,,,,,,METAR,52.0
CWII 150100Z AUTO 19004KT M10/M11 RMK AO1 SLP222 T10981114 56036,CWII,2019-01-15T01:00:00Z,50.7,-96.57,-9.8,-11.4,190,4,,,,1022.2,,TRUE,TRUE,,,,,,,,,,,,,,,,-3.6,,,,,,,,,,,METAR,220.0
CWIG 150100Z AUTO 21017G22KT RMK AO1 PK WND 20027/0000,CWIG,2019-01-15T01:00:00Z,47.07,-70.53,,,210,17,22,,,,,TRUE,TRUE,,,,,,,,,,,,,,,,,,,,,,,,,,,METAR,18.0
CWID 150100Z AUTO 34001KT M29/M32 RMK AO1 SLP352 T12901324 51014,CWID,2019-01-15T01:00:00Z,61.32,-117.6,-29.0,-32.4,340,1,,,,1035.2,,TRUE,TRUE,,,,,,,,,,,,,,,,1.4,,,,,,,,,,,METAR,161.0
CWHV 150100Z AUTO 30002KT M13/M16 RMK AO1 SLP202 T11291158 58007,CWHV,2019-01-15T01:00:00Z,46.2,-70.77,-12.9,-15.8,300,2,,,,1020.2,,TRUE,TRUE,,,,,,,,,,,,,,,,-0.7,,,,,,,,,,,METAR,229.0
CWHT 150100Z AUTO 29001KT M16/M18 RMK AO1 SOG 07 8002 SLP261 T11611180,CWHT,2019-01-15T01:00:00Z,60.77,-137.58,-16.1,-18.0,290,1,,,,1026.1,,TRUE,TRUE,,,,,,,,,,,,,,,,,,,,,,,,,,,METAR,599.0
CWHQ 150100Z AUTO 00000KT M15/ RMK AO1 T1147,CWHQ,2019-01-15T01:00:00Z,46.68,-71.97,-14.7,,0,0,,,,,,TRUE,TRUE,,,,,,,,,,,,,,,,,,,,,,,,,,,METAR,55.0
CWHI 150100Z AUTO 27006KT M06/M08 RMK AO1 T10601084,CWHI,2019-01-15T01:00:00Z,51.7,-113.22,-6.0,-8.4,270,6,,,,,,TRUE,TRUE,,,,,,,,,,,,,,,,,,,,,,,,,,,METAR,907.0
LPMR 150100Z 18003KT 4000 BR NSC 05/05 Q1021,LPMR,2019-01-15T01:00:00Z,39.82,-8.87,5.0,5.0,180,3,,2.49,30.147638,,,,,,,,,,BR,CLR,,,,,,,,IFR,,,,,,,,,,,,METAR,54.0
LPOV 150100Z VRB01KT 8000 NSC 03/03 Q1021,LPOV,2019-01-15T01:00:00Z,40.92,-8.65,3.0,3.0,0,1,,4.97,30.147638,,,,,,,,,,,CLR,,,,,,,,MVFR,,,,,,,,,,,,METAR,17.0
WSAP 150100Z 34006KT 9999 FEW018 BKN300 28/23 Q1011,WSAP,2019-01-15T01:00:00Z,1.37,103.92,28.0,23.0,340,6,,6.21,29.852362,,,,,,,,,,,FEW,1800,BKN,30000,,,,,VFR,,,,,,,,,,,,METAR,32.0
WSSL 150100Z 33005KT 290V020 9999 FEW020 BKN300 28/23 Q1011,WSSL,2019-01-15T01:00:00Z,1.42,103.87,28.0,23.0,330,5,,6.21,29.852362,,,,,,,,,,,FEW,2000,BKN,30000,,,,,VFR,,,,,,,,,,,,METAR,14.0
TGPY 150100Z 08007KT 9999 FEW020 25/22 Q1015 NOSIG,TGPY,2019-01-15T01:00:00Z,12.0,-61.78,25.0,22.0,80,7,,6.21,29.970472,,,,,,TRUE,,,,,FEW,2000,,,,,,,VFR,,,,,,,,,,,,METAR,7.0
UTFN 150100Z 28006KT 230V340 4700 BR NSC 01/M03 Q1015 R28/CLRD70 NOSIG,UTFN,2019-01-15T01:00:00Z,40.98,71.57,1.0,-3.0,280,6,,2.92,29.970472,,,,,,TRUE,,,,BR,CLR,,,,,,,,IFR,,,,,,,,,,,,METAR,490.0
SBJP 150100Z 13004KT 9999 FEW025 24/22 Q1015,SBJP,2019-01-15T01:00:00Z,-7.15,-34.95,24.0,22.0,130,4,,6.21,29.970472,,,,,,,,,,,FEW,2500,,,,,,,VFR,,,,,,,,,,,,METAR,66.0
LPMT 150100Z 12003KT 8000 BCFG NSC 06/06 Q1021,LPMT,2019-01-15T01:00:00Z,38.7,-9.05,6.0,6.0,120,3,,4.97,30.147638,,,,,,,,,,BCFG,CLR,,,,,,,,MVFR,,,,,,,,,,,,METAR,11.0
OIZH 150100Z 22016KT 8000 NSC 15/M03 Q1018 A3008,OIZH,2019-01-15T01:00:00Z,29.47,60.92,15.0,-3.0,220,16,,4.97,30.059055,,,,,,,,,,,CLR,,,,,,,,MVFR,,,,,,,,,,,,METAR,1370.0
OIBB 150100Z 15016KT CAVOK 20/13 Q1015 A2998,OIBB,2019-01-15T01:00:00Z,28.97,50.82,20.0,13.0,150,16,,6.21,29.970472,,,,,,,,,,,CAVOK,,,,,,,,VFR,,,,,,,,,,,,METAR,19.0
OIMB 150100Z 35004KT CAVOK 05/M08 Q1017,OIMB,2019-01-15T01:00:00Z,32.9,59.28,5.0,-8.0,350,4,,6.21,30.029528,,,,,,,,,,,CAVOK,,,,,,,,VFR,,,,,,,,,,,,METAR,1491.0
OIAG 150100Z 12012KT 9999 FEW035CB SCT040 OVC080 19/12 Q1016,OIAG,2019-01-15T01:00:00Z,30.77,49.67,19.0,12.0,120,12,,6.21,30.0,,,,,,,,,,,FEW,3500,SCT,4000,OVC,8000,,,VFR,,,,,,,,,,,,METAR,29.0
OIAM 150100Z 13008KT 4000 RA FEW035CB SCT040 OVC100 18/17 Q1016,OIAM,2019-01-15T01:00:00Z,30.55,49.15,18.0,17.0,130,8,,2.49,30.0,,,,,,,,,,RA,FEW,3500,SCT,4000,OVC,10000,,,IFR,,,,,,,,,,,,METAR,4.0
OICI 150100Z 09004KT 9999 SCT035 01/01 Q1019 A3009,OICI,2019-01-15T01:00:00Z,33.58,46.4,1.0,1.0,90,4,,6.21,30.088583,,,,,,,,,,,SCT,3500,,,,,,,VFR,,,,,,,,,,,,METAR,1343.0
CWRO 150100Z AUTO 08011KT 07/07 RMK AO1 SLP145 T00700066 58015,CWRO,2019-01-15T01:00:00Z,54.17,-131.67,7.0,6.6,80,11,,,,1014.5,,TRUE,TRUE,,,,,,,,,,,,,,,,-1.5,,,,,,,,,,,METAR,7.0
CWLP 150100Z AUTO 13007KT 08/05 RMK AO1 SLP138 T00770047 56013,CWLP,2019-01-15T01:00:00Z,50.93,-127.63,7.7,4.7,130,7,,,,1013.8,,TRUE,TRUE,,,,,,,,,,,,,,,,-1.3,,,,,,,,,,,METAR,17.0
CWJD 150100Z AUTO 16003KT M13/M14 RMK AO1 4PAST HR SOG 33 6060 SLP165 P0005 T11281144 50014,CWJD,2019-01-15T01:00:00Z,53.17,-99.27,-12.8,-14.4,160,3,,,,1016.5,,TRUE,TRUE,,,,,,,,,,,,,,,,1.4,,,,,0.05,,,,,,METAR,223.0
CWEQ 150100Z AUTO 24003KT M08/M09 RMK AO1 SOG 13 6047 SLP153 T10771090,CWEQ,2019-01-15T01:00:00Z,52.12,-101.22,-7.7,-9.0,240,3,,,,1015.3,,TRUE,TRUE,,,,,,,,,,,,,,,,,,,,,,,,,,,METAR,335.0
CWOY 150100Z AUTO 24013G19KT M03/M06 RMK AO1 SOG 02 8022 PK WND 26023/0041 SLP158 T10341061,CWOY,2019-01-15T01:00:00Z,51.77,-104.2,-3.4,-6.1,240,13,19,,,1015.8,,TRUE,TRUE,,,,,,,,,,,,,,,,,,,,,,,,,,,METAR,560.0
CWKO 150100Z AUTO 23013KT M05/M07 RMK AO1 SOG 15 7019 SLP193 T10531073,CWKO,2019-01-15T01:00:00Z,49.17,-105.97,-5.3,-7.3,230,13,,,,1019.3,,TRUE,TRUE,,,,,,,,,,,,,,,,,,,,,,,,,,,METAR,917.0
AYPY 150100Z 32010KT 9999 SCT030 SCT040 32/24 Q1008,AYPY,2019-01-15T01:00:00Z,-9.42,147.22,32.0,24.0,320,10,,6.21,29.763779,,,,,,,,,,,SCT,3000,SCT,4000,,,,,VFR,,,,,,,,,,,,METAR,47.0
HTDO 150100Z 00000KT 9999 BKN020 FEW021CB 22/20 Q1017 NOSIG,HTDO,2019-01-15T01:00:00Z,-6.17,35.77,22.0,20.0,0,0,,6.21,30.029528,,,,,,TRUE,,,,,BKN,2000,FEW,2100,,,,,MVFR,,,,,,,,,,,,METAR,1120.0
HTZA 150100Z 00000KT 9999 FEW008 26/25 Q1011 NOSIG,HTZA,2019-01-15T01:00:00Z,-6.22,39.22,26.0,25.0,0,0,,6.21,29.852362,,,,,,TRUE,,,,,FEW,800,,,,,,,VFR,,,,,,,,,,,,METAR,15.0
UTNU 150100Z 26006KT 7000 FEW066CB OVC100 04/03 Q1010 R31/290350 NOSIG,UTNU,2019-01-15T01:00:00Z,41.58,60.63,4.0,3.0,260,6,,4.35,29.822834,,,,,,TRUE,,,,,FEW,6600,OVC,10000,,,,,MVFR,,,,,,,,,,,,METAR,98.0
OINN 150100Z 00000KT 9999 FEW025 08/06 Q1010,OINN,2019-01-15T01:00:00Z,36.67,51.47,8.0,6.0,0,0,,6.21,29.822834,,,,,,,,,,,FEW,2500,,,,,,,VFR,,,,,,,,,,,,METAR,-19.0
OIKQ 150100Z 00000KT 5000 BR NSC 17/14 Q1018,OIKQ,2019-01-15T01:00:00Z,26.75,55.9,17.0,14.0,0,0,,3.11,30.059055,,,,,,,,,,BR,CLR,,,,,,,,MVFR,,,,,,,,,,,,METAR,12.0
SBMA 150100Z 27002KT CAVOK 24/24 Q1014,SBMA,2019-01-15T01:00:00Z,-5.37,-49.13,24.0,24.0,270,2,,6.21,29.940945,,,,,,,,,,,CAVOK,,,,,,,,VFR,,,,,,,,,,,,METAR,102.0
MRLB 150100Z 10021G35KT CAVOK 27/18 A2981 NOSIG,MRLB,2019-01-15T01:00:00Z,10.6,-85.55,27.0,18.0,100,21,35,6.21,29.811024,,,,,,TRUE,,,,,CAVOK,,,,,,,,VFR,,,,,,,,,,,,METAR,82.0
CXAT 150100Z AUTO 00000KT M35/M39 RMK AO1 SOG 02 6015 SLP136 T13471387,CXAT,2019-01-15T01:00:00Z,73.0,-85.03,-34.7,-38.7,0,0,,,,1013.6,,TRUE,TRUE,,,,,,,,,,,,,,,,,,,,,,,,,,,METAR,19.0
YAMB 150100Z 09006KT 9999 FEW040 30/18 Q1015 NOSIG,YAMB,2019-01-15T01:00:00Z,-27.63,152.72,30.0,18.0,90,6,,6.21,29.970472,,,,,,TRUE,,,,,FEW,4000,,,,,,,VFR,,,,,,,,,,,,METAR,28.0
YABA 150100Z AUTO 09007KT 9999 // OVC031 19/10 Q1016,YABA,2019-01-15T01:00:00Z,-34.93,117.8,19.0,10.0,90,7,,6.21,30.0,,,TRUE,,,,,,,,OVC,3100,,,,,,,VFR,,,,,,,,,,,,METAR,69.0
YBCG 150100Z AUTO 06011KT 9999 // NCD 28/20 Q1016,YBCG,2019-01-15T01:00:00Z,-28.17,153.5,28.0,20.0,60,11,,6.21,30.0,,,TRUE,,,,,,,,CLR,,,,,,,,VFR,,,,,,,,,,,,METAR,6.0
YBBN 150100Z 03010KT 9999 FEW028 SCT040 29/19 Q1016,YBBN,2019-01-15T01:00:00Z,-27.38,153.13,29.0,19.0,30,10,,6.21,30.0,,,,,,,,,,,FEW,2800,SCT,4000,,,,,VFR,,,,,,,,,,,,METAR,5.0
YBAS 150100Z AUTO 33005KT 270V030 9999 // NCD 39/06 Q1011,YBAS,2019-01-15T01:00:00Z,-23.8,133.9,39.0,6.0,330,5,,6.21,29.852362,,,TRUE,,,,,,,,CLR,,,,,,,,VFR,,,,,,,,,,,,METAR,541.0
YAYE 150100Z AUTO 32005KT 220V360 9999 // NCD 41/06 Q1010,YAYE,2019-01-15T01:00:00Z,-25.18,130.98,41.0,6.0,320,5,,6.21,29.822834,,,TRUE,,,,,,,,CLR,,,,,,,,VFR,,,,,,,,,,,,METAR,496.0
YARG 150100Z AUTO 08003KT 9999 // NCD 32/20 Q1009,YARG,2019-01-15T01:00:00Z,-16.63,128.45,32.0,20.0,80,3,,6.21,29.793306,,,TRUE,,,,,,,,CLR,,,,,,,,VFR,,,,,,,,,,,,METAR,165.0
CWWS 150100Z AUTO 15011G16KT M11/M13 RMK AO1 4PAST HR PRESFR SOG 36 8061 PK WND 16019/0041 SLP178 P0002 T11121130 50004,CWWS,2019-01-15T01:00:00Z,52.82,-97.62,-11.2,-13.0,150,11,16,,,1017.8,,TRUE,TRUE,,,,,,,,,,,,,,,,0.4,,,,,0.02,,,,,,METAR,223.0
CWEK 150100Z AUTO 05029G35KT 07/05 RMK AO1 PK WND 06035/0058 SLP147 T00740050 58015,CWEK,2019-01-15T01:00:00Z,54.58,-130.7,7.4,5.0,50,29,35,,,1014.7,,TRUE,TRUE,,,,,,,,,,,,,,,,-1.5,,,,,,,,,,,METAR,8.0
CXTN 150100Z AUTO 08002KT M29/M32 RMK AO1 SOG 66 0005 SLP363 T12861318,CXTN,2019-01-15T01:00:00Z,69.2,-122.35,-28.6,-31.8,80,2,,,,1036.3,,TRUE,TRUE,,,,,,,,,,,,,,,,,,,,,,,,,,,METAR,552.0
CXLL 150100Z AUTO M29/M32 RMK AO1 SOG 44 7004 SLP332 T12861318,CXLL,2019-01-15T01:00:00Z,61.12,-122.85,-28.6,-31.8,,,,,,1033.2,,TRUE,TRUE,,,,,,,,,,,,,,,,,,,,,,,,,,,METAR,183.0
CAHR 150100Z AUTO 16001KT M15/M16 RMK AO1 SOG 36 8018 SLP185 T11481164,CAHR,2019-01-15T01:00:00Z,46.35,-63.17,-14.8,-16.4,160,1,,,,1018.5,,TRUE,TRUE,,,,,,,,,,,,,,,,,,,,,,,,,,,METAR,53.0
CXYH 150100Z AUTO 00000KT M28/M32 RMK AO1 SLP308 T12841318 57008,CXYH,2019-01-15T01:00:00Z,61.25,-123.75,-28.4,-31.8,0,0,,,,1030.8,,TRUE,TRUE,,,,,,,,,,,,,,,,-0.8,,,,,,,,,,,METAR,204.0
CXSE 150100Z AUTO 30011KT M24/M27 RMK AO1 SOG 43 7002 SLP294 T12431268,CXSE,2019-01-15T01:00:00Z,73.77,-105.28,-24.3,-26.8,300,11,,,,1029.4,,TRUE,TRUE,,,,,,,,,,,,,,,,,,,,,,,,,,,METAR,11.0
CXDK 150100Z AUTO 00000KT M31/M35 RMK AO1 SOG 33 8005 SLP304 T13131348,CXDK,2019-01-15T01:00:00Z,61.27,-124.47,-31.3,-34.8,0,0,,,,1030.4,,TRUE,TRUE,,,,,,,,,,,,,,,,,,,,,,,,,,,METAR,283.0
CWGM 150100Z AUTO 12001KT M00/M16 RMK AO1 PK WND 20020/0005 T10041159,CWGM,2019-01-15T01:00:00Z,49.13,-113.78,-0.4,-15.9,120,1,,,,,,TRUE,TRUE,,,,,,,,,,,,,,,,,,,,,,,,,,,METAR,1296.0
CWDZ 150100Z AUTO 00000KT M07/M09 RMK AO1 T10681094,CWDZ,2019-01-15T01:00:00Z,51.42,-112.67,-6.8,-9.4,0,0,,,,,,TRUE,TRUE,,,,,,,,,,,,,,,,,,,,,,,,,,,METAR,678.0
RKSM 150100Z 35008KT 3200 HZ FEW000 FEW025 BKN030 01/M05 A3023,RKSM,2019-01-15T01:00:00Z,37.42,127.12,1.0,-5.0,350,8,,1.99,30.230314,,,,,,,,,,HZ,FEW,0,FEW,2500,BKN,3000,,,IFR,,,,,,,,,,,,METAR,20.0
FALW 150100Z AUTO 19003KT //// // ////// 14/11 Q1014,FALW,2019-01-15T01:00:00Z,-32.97,18.17,14.0,11.0,190,3,,,29.940945,,,TRUE,,,,,,,,,,,,,,,,,,,,,,,,,,,,SPECI,0.0
CWAQ 150100Z AUTO 16002KT M07/M08 RMK AO1 SLP198 T10691079 56016,CWAQ,2019-01-15T01:00:00Z,49.05,-105.48,-6.9,-7.9,160,2,,,,1019.8,,TRUE,TRUE,,,,,,,,,,,,,,,,-1.6,,,,,,,,,,,METAR,756.0
OIIS 150100Z 00000KT 9999 FEW035 SCT100 01/M00 Q1015,OIIS,2019-01-15T01:00:00Z,35.38,53.67,1.0,0.0,0,0,,6.21,29.970472,,,,,,,,,,,FEW,3500,SCT,10000,,,,,VFR,,,,,,,,,,,,METAR,1115.0
WBKS 150100Z 05007KT 020V100 7000 -RA SCT008 SCT035 BKN280 27/25 Q1010 RERA,WBKS,2019-01-15T01:00:00Z,5.9,118.07,27.0,25.0,50,7,,4.35,29.822834,,,,,,,,,,-RA,SCT,800,SCT,3500,BKN,28000,,,MVFR,,,,,,,,,,,,METAR,13.0
WBKL 150100Z VRB01KT 9999 FEW013 BKN130 BKN290 28/26 Q1010,WBKL,2019-01-15T01:00:00Z,5.28,115.25,28.0,26.0,0,1,,6.21,29.822834,,,,,,,,,,,FEW,1300,BKN,13000,BKN,29000,,,VFR,,,,,,,,,,,,METAR,30.0
WBGY 150100Z 14003KT 050V200 9999 SCT014 SCT150 BKN300 26/25 Q1010,WBGY,2019-01-15T01:00:00Z,1.22,111.43,26.0,25.0,140,3,,6.21,29.822834,,,,,,,,,,,SCT,1400,SCT,15000,BKN,30000,,,VFR,,,,,,,,,,,,METAR,34.0
WBGS 150100Z VRB02KT 9999 FEW018 BKN300 28/25 Q1010,WBGS,2019-01-15T01:00:00Z,2.27,111.98,28.0,25.0,0,2,,6.21,29.822834,,,,,,,,,,,FEW,1800,BKN,30000,,,,,VFR,,,,,,,,,,,,METAR,8.0
WBGR 150100Z VRB03KT 9999 FEW014 SCT150 BKN300 29/25 Q1009,WBGR,2019-01-15T01:00:00Z,4.32,113.97,29.0,25.0,0,3,,6.21,29.793306,,,,,,,,,,,FEW,1400,SCT,15000,BKN,30000,,,VFR,,,,,,,,,,,,METAR,18.0
WBGB 150100Z 14003KT 090V200 9999 FEW012 SCT150 BKN300 26/25 Q1009,WBGB,2019-01-15T01:00:00Z,3.12,113.02,26.0,25.0,140,3,,6.21,29.793306,,,,,,,,,,,FEW,1200,SCT,15000,BKN,30000,,,VFR,,,,,,,,,,,,METAR,5.0
LBPG 150100Z 27020KT 9999 BKN100 03/M05 Q1002,LBPG,2019-01-15T01:00:00Z,42.28,24.72,3.0,-5.0,270,20,,6.21,29.586615,,,,,,,,,,,BKN,10000,,,,,,,VFR,,,,,,,,,,,,METAR,58.0
CWAF 150100Z AUTO 24016KT M06/M09 RMK AO1 PK WND 21024/0032 T10621087,CWAF,2019-01-15T01:00:00Z,48.07,-69.53,-6.2,-8.7,240,16,,,,,,TRUE,TRUE,,,,,,,,,,,,,,,,,,,,,,,,,,,METAR,5.0
CWZW 150100Z AUTO 00000KT M06/M07 RMK AO1 SOG 27 8002 SLP242 T10571068,CWZW,2019-01-15T01:00:00Z,60.17,-132.73,-5.7,-6.8,0,0,,,,1024.2,,TRUE,TRUE,,,,,,,,,,,,,,,,,,,,,,,,,,,METAR,705.0
CWVT 150100Z AUTO 32017G24KT M08/M10 RMK AO1 SOG 33 3037 PK WND 33025/0034 SLP172 T10811103,CWVT,2019-01-15T01:00:00Z,55.82,-108.42,-8.1,-10.3,320,17,24,,,1017.2,,TRUE,TRUE,,,,,,,,,,,,,,,,,,,,,,,,,,,METAR,434.0
CWZG 150100Z AUTO 25004KT M05/M09 RMK AO1 SOG 20 6002 SLP257 T10521086,CWZG,2019-01-15T01:00:00Z,51.2,-115.53,-5.2,-8.6,250,4,,,,1025.7,,TRUE,TRUE,,,,,,,,,,,,,,,,,,,,,,,,,,,METAR,1397.0
CWBS 150100Z AUTO 19009KT M11/M13 RMK AO1 T11051130,CWBS,2019-01-15T01:00:00Z,46.18,-72.92,-10.5,-13.0,190,9,,,,,,TRUE,TRUE,,,,,,,,,,,,,,,,,,,,,,,,,,,METAR,16.0
CWBO 150100Z AUTO 35005KT M05/M08 RMK AO1 SLP218 T10471075 52006,CWBO,2019-01-15T01:00:00Z,50.53,-111.83,-4.7,-7.5,350,5,,,,1021.8,,TRUE,TRUE,,,,,,,,,,,,,,,,0.6,,,,,,,,,,,METAR,747.0
CWBA 150100Z AUTO 18001KT M04/M05 RMK AO1 SOG 51 T10371053,CWBA,2019-01-15T01:00:00Z,46.72,-79.1,-3.7,-5.3,180,1,,,,,,TRUE,TRUE,,,,,,,,,,,,,,,,,,,,,,,,,,,METAR,181.0
CWAV 150100Z AUTO 09001KT M04/M10 RMK AO1 SLP235 T10421098 50000,CWAV,2019-01-15T01:00:00Z,51.77,-114.67,-4.2,-9.8,90,1,,,,1023.5,,TRUE,TRUE,,,,,,,,,,,,,,,,0.0,,,,,,,,,,,METAR,1114.0
CWSG 150100Z AUTO 20006KT M07/M12 RMK AO1 SLP166 T10731115 58012,CWSG,2019-01-15T01:00:00Z,49.12,-66.65,-7.3,-11.5,200,6,,,,1016.6,,TRUE,TRUE,,,,,,,,,,,,,,,,-1.2,,,,,,,,,,,METAR,5.0
CWSD 150100Z AUTO 18002KT M14/M16 RMK AO1 SOG 17 8018 SLP180 T11421158,CWSD,2019-01-15T01:00:00Z,46.42,-63.85,-14.2,-15.8,180,2,,,,1018.0,,TRUE,TRUE,,,,,,,,,,,,,,,,,,,,,,,,,,,METAR,24.0
OIKB 150100Z 34004KT 5000 BR FEW030 18/16 Q1018 A3009,OIKB,2019-01-15T01:00:00Z,27.22,56.37,18.0,16.0,340,4,,3.11,30.059055,,,,,,,,,,BR,FEW,3000,,,,,,,MVFR,,,,,,,,,,,,METAR,10.0
LBIA 150100Z 00000KT 9999 BKN100 M00/M01 Q1002,LBIA,2019-01-15T01:00:00Z,42.45,26.35,0.0,-1.0,0,0,,6.21,29.586615,,,,,,,,,,,BKN,10000,,,,,,,VFR,,,,,,,,,,,,METAR,155.0
SKNV 150100Z 19004KT 9999 FEW035 BKN110 26/20 A2988,SKNV,2019-01-15T01:00:00Z,2.97,-75.28,26.0,20.0,190,4,,6.21,29.878937,,,,,,,,,,,FEW,3500,BKN,11000,,,,,VFR,,,,,,,,,,,,METAR,443.0
SKIB 150100Z 31004KT 9999 SCT020 SCT100 22/22 A3007,SKIB,2019-01-15T01:00:00Z,4.42,-75.15,22.0,22.0,310,4,,6.21,30.070866,,,,,,,,,,,SCT,2000,SCT,10000,,,,,VFR,,,,,,,,,,,,METAR,928.0
SKAR 150100Z 05003KT 010V100 9000 -RA BKN015 21/18 A2999 REDZ,SKAR,2019-01-15T01:00:00Z,4.45,-75.77,21.0,18.0,50,3,,5.59,29.991142,,,,,,,,,,-RA,BKN,1500,,,,,,,MVFR,,,,,,,,,,,,METAR,1219.0
SKUI 150100Z 00000KT 9999 FEW025 25/24 A2981,SKUI,2019-01-15T01:00:00Z,5.72,-76.62,25.0,24.0,0,0,,6.21,29.811024,,,,,,,,,,,FEW,2500,,,,,,,VFR,,,,,,,,,,,,METAR,33.0
SKUC 150100Z 00000KT 9999 NSC 26/19 A2988,SKUC,2019-01-15T01:00:00Z,7.07,-70.72,26.0,19.0,0,0,,6.21,29.878937,,,,,,,,,,,CLR,,,,,,,,VFR,,,,,,,,,,,,METAR,128.0
SKMR 150100Z 00000KT CAVOK 26/23 A2983,SKMR,2019-01-15T01:00:00Z,8.82,-75.83,26.0,23.0,0,0,,6.21,29.828741,,,,,,,,,,,CAVOK,,,,,,,,VFR,,,,,,,,,,,,METAR,26.0
SKVP 150100Z 07015KT 9999 FEW015 28/17 A2990,SKVP,2019-01-15T01:00:00Z,10.42,-73.25,28.0,17.0,70,15,,6.21,29.899607,,,,,,,,,,,FEW,1500,,,,,,,VFR,,,,,,,,,,,,METAR,138.0
SKSM 150100Z 03012KT 9999 FEW020 28/20 A2983,SKSM,2019-01-15T01:00:00Z,11.12,-74.22,28.0,20.0,30,12,,6.21,29.828741,,,,,,,,,,,FEW,2000,,,,,,,VFR,,,,,,,,,,,,METAR,4.0
NCAT 150100Z AUTO 15003KT //// ////// Q1001,NCAT,2019-01-15T01:00:00Z,-19.97,-158.12,,,150,3,,,29.557087,,,TRUE,,,,,,,,,,,,,,,,,,,,,,,,,,,,METAR,11.0
NCRG 150100Z 14008KT 9999 BKN024 30/23 Q1009,NCRG,2019-01-15T01:00:00Z,-21.2,-159.82,30.0,23.0,140,8,,6.21,29.793306,,,,,,,,,,,BKN,2400,,,,,,,MVFR,,,,,,,,,,,,METAR,7.0
CYZP 150100Z AUTO 13009KT OVC009 08/07 A2995 RMK WX MISG VIS MISG PCPN MISG SLP143,CYZP,2019-01-15T01:00:00Z,53.25,-131.82,8.0,7.0,130,9,,,29.949802,1014.3,,TRUE,,,,,,,,OVC,900,,,,,,,,,,,,,,,,,,,METAR,6.0
CYXS 150100Z AUTO 35004KT 9SM CLR M02/M03 A3011 RMK SLP241,CYXS,2019-01-15T01:00:00Z,53.9,-122.68,-2.0,-3.0,350,4,,9.0,30.109253,1024.1,,TRUE,,,,,,,,CLR,,,,,,,,VFR,,,,,,,,,,,,METAR,691.0
CYRT 150100Z 33029KT 1/4SM +BLSN BKN250 M38/M42 A3004 RMK BLSN4CI1 PRESFR SLP180,CYRT,2019-01-15T01:00:00Z,62.82,-92.12,-38.0,-42.0,330,29,,0.25,30.041338,1018.0,,,,,,,,,+BLSN,BKN,25000,,,,,,,LIFR,,,,,,,,,,,,METAR,32.0
CYRA 150100Z CCA VRB02KT 15SM SCT100 M35/M39 A3051 RMK AC3 -34.5/-37.4/0/35.0 SNW CVR/HARD PACK LAST STFD OBS/NEXT 151500 UTC SLP375,CYRA,2019-01-15T01:00:00Z,64.12,-117.32,-35.0,-39.0,0,2,,15.0,30.510826,1037.5,,,,,,,,,,SCT,10000,,,,,,,VFR,,,,,,,,,,,,METAR,213.0
CXOY 150100Z AUTO 31008KT M04/M07 RMK AO1 T10361071,CXOY,2019-01-15T01:00:00Z,51.38,-110.35,-3.6,-7.1,310,8,,,,,,TRUE,TRUE,,,,,,,,,,,,,,,,,,,,,,,,,,,METAR,767.0
CXKM 150100Z AUTO 29012KT M01/M05 RMK AO1 T10111052,CXKM,2019-01-15T01:00:00Z,52.82,-111.85,-1.1,-5.2,290,12,,,,,,TRUE,TRUE,,,,,,,,,,,,,,,,,,,,,,,,,,,METAR,675.0
CXKI 150100Z AUTO M06/M07 RMK AO1 SOG 45 0007 SLP195 T10611067,CXKI,2019-01-15T01:00:00Z,48.22,-80.0,-6.1,-6.7,,,,,,1019.5,,TRUE,TRUE,,,,,,,,,,,,,,,,,,,,,,,,,,,METAR,324.0
CXHR 150100Z AUTO 33014KT M00/M05 RMK AO1 PK WND 33017/0036 T10021050,CXHR,2019-01-15T01:00:00Z,51.18,-112.5,-0.2,-5.0,330,14,,,,,,TRUE,TRUE,,,,,,,,,,,,,,,,,,,,,,,,,,,METAR,971.0
CXFR 150100Z AUTO 36003KT M03/M04 RMK AO1 T10341036,CXFR,2019-01-15T01:00:00Z,56.08,-118.43,-3.4,-3.6,360,3,,,,,,TRUE,TRUE,,,,,,,,,,,,,,,,,,,,,,,,,,,METAR,655.0
CXCS 150100Z AUTO 29013KT M03/M07 RMK AO1 T10291069,CXCS,2019-01-15T01:00:00Z,51.93,-110.72,-2.9,-6.9,290,13,,,,,,TRUE,TRUE,,,,,,,,,,,,,,,,,,,,,,,,,,,METAR,772.0
CXCP 150100Z AUTO 30009KT M04/M08 RMK AO1 T10421080,CXCP,2019-01-15T01:00:00Z,50.28,-113.35,-4.2,-8.0,300,9,,,,,,TRUE,TRUE,,,,,,,,,,,,,,,,,,,,,,,,,,,METAR,1006.0
CXCD 150100Z AUTO 32004KT M02/M02 RMK AO1 T10191019,CXCD,2019-01-15T01:00:00Z,56.32,-119.75,-1.9,-1.9,320,4,,,,,,TRUE,TRUE,,,,,,,,,,,,,,,,,,,,,,,,,,,METAR,630.0
CXBR 150100Z AUTO 06002KT 03/M10 RMK AO1 T00311095,CXBR,2019-01-15T01:00:00Z,49.62,-113.82,3.1,-9.5,60,2,,,,,,TRUE,TRUE,,,,,,,,,,,,,,,,,,,,,,,,,,,METAR,1073.0
CXZC 150100Z AUTO 27003KT M20/M23 RMK AO1 SOG 47 1016 SLP231 T11951228,CXZC,2019-01-15T01:00:00Z,51.3,-80.62,-19.5,-22.8,270,3,,,,1023.1,,TRUE,TRUE,,,,,,,,,,,,,,,,,,,,,,,,,,,METAR,9.0
CXBI 150100Z AUTO 27006KT M04/M07 RMK AO1 SLP226 T10381072 58003,CXBI,2019-01-15T01:00:00Z,44.48,-79.55,-3.8,-7.2,270,6,,,,1022.6,,TRUE,TRUE,,,,,,,,,,,,,,,,-0.3,,,,,,,,,,,METAR,289.0
CWKK 150100Z AUTO 33007KT M10/M13 RMK AO1 SOG 37 1003 SLP241 T11031131,CWKK,2019-01-15T01:00:00Z,49.72,-88.33,-10.3,-13.1,330,7,,,,1024.1,,TRUE,TRUE,,,,,,,,,,,,,,,,,,,,,,,,,,,METAR,260.0
CTRA 150100Z AUTO 22002KT M12/M13 RMK AO1 SOG 34 8013 T11151128,CTRA,2019-01-15T01:00:00Z,49.67,-93.73,-11.5,-12.8,220,2,,,,,,TRUE,TRUE,,,,,,,,,,,,,,,,,,,,,,,,,,,METAR,435.0
CTNK 150100Z AUTO 00000KT M08/M09 RMK AO1 SOG 44 8004 SLP219 T10761093,CTNK,2019-01-15T01:00:00Z,45.53,-78.27,-7.6,-9.3,0,0,,,,1021.9,,TRUE,TRUE,,,,,,,,,,,,,,,,,,,,,,,,,,,METAR,410.0
CZSP 150100Z AUTO 16003KT M14/M15 RMK AO1 SOG 28 8017 SLP194 T11361148,CZSP,2019-01-15T01:00:00Z,46.45,-62.58,-13.6,-14.8,160,3,,,,1019.4,,TRUE,TRUE,,,,,,,,,,,,,,,,,,,,,,,,,,,METAR,30.0
CWXI 150100Z AUTO 25020G28KT M04/M08 RMK AO1 PK WND 25029/0001 SLP137 T10431078 55000,CWXI,2019-01-15T01:00:00Z,51.02,-57.1,-4.3,-7.8,250,20,28,,,1013.7,,TRUE,TRUE,,,,,,,,,,,,,,,,0.0,,,,,,,,,,,METAR,6.0
CWBK 150100Z AUTO 08006KT M08/M10 RMK AO1 SOG 73 8024 SLP178 T10771101,CWBK,2019-01-15T01:00:00Z,45.77,-62.67,-7.7,-10.1,80,6,,,,1017.8,,TRUE,TRUE,,,,,,,,,,,,,,,,,,,,,,,,,,,METAR,2.0
CERM 150100Z AUTO 00000KT M15/M18 RMK AO1 SOG 46 8011 SLP183 T11531175,CERM,2019-01-15T01:00:00Z,47.42,-68.32,-15.3,-17.5,0,0,,,,1018.3,,TRUE,TRUE,,,,,,,,,,,,,,,,,,,,,,,,,,,METAR,154.0
CWIK 150100Z AUTO 20008KT M04/M07 RMK AO1 SOG 06 6032 SLP189 T10431072,CWIK,2019-01-15T01:00:00Z,50.37,-102.58,-4.3,-7.2,200,8,,,,1018.9,,TRUE,TRUE,,,,,,,,,,,,,,,,,,,,,,,,,,,METAR,602.0
CWBU 150100Z AUTO 24013KT M04/M05 RMK AO1 SOG 24 6046 PK WND 23018/0042 SLP120 T10401049,CWBU,2019-01-15T01:00:00Z,53.33,-104.02,-4.0,-4.9,240,13,,,,1012.0,,TRUE,TRUE,,,,,,,,,,,,,,,,,,,,,,,,,,,METAR,373.0
CWST 150100Z AUTO 23011KT M10/M13 RMK AO1 SOG 21 8012 PK WND 23017/0006 SLP185 T10971134,CWST,2019-01-15T01:00:00Z,47.35,-70.02,-9.7,-13.4,230,11,,,,1018.5,,TRUE,TRUE,,,,,,,,,,,,,,,,,,,,,,,,,,,METAR,31.0
CWSR 150100Z AUTO 28015KT M05/M08 RMK AO1 SOG 17 6015 PK WND 27023/0029 SLP132 T10481075,CWSR,2019-01-15T01:00:00Z,53.37,-107.53,-4.8,-7.5,280,15,,,,1013.2,,TRUE,TRUE,,,,,,,,,,,,,,,,,,,,,,,,,,,METAR,584.0
CWSP 150100Z AUTO 12013KT 08/05 RMK AO1 PK WND 13018/0035 SLP144 T00800053 58007,CWSP,2019-01-15T01:00:00Z,48.38,-123.92,8.0,5.3,120,13,,,,1014.4,,TRUE,TRUE,,,,,,,,,,,,,,,,-0.7,,,,,,,,,,,METAR,21.0
CWSL 150100Z AUTO 09001KT M01/M03 RMK AO1 SOG 12 6007 SLP262 T10101031,CWSL,2019-01-15T01:00:00Z,50.7,-119.27,-1.0,-3.1,90,1,,,,1026.2,,TRUE,TRUE,,,,,,,,,,,,,,,,,,,,,,,,,,,METAR,351.0
CWSK 150100Z AUTO 01003KT 04/01 RMK AO1 SLP158 T00400008 56005,CWSK,2019-01-15T01:00:00Z,49.78,-123.17,4.0,0.8,10,3,,,,1015.8,,TRUE,TRUE,,,,,,,,,,,,,,,,-0.5,,,,,,,,,,,METAR,60.0
CXRL 150100Z AUTO 31011KT 01/M00 RMK AO1 PK WND 31018/0019 T00061003,CXRL,2019-01-15T01:00:00Z,54.5,-111.7,0.6,-0.3,310,11,,,,,,TRUE,TRUE,,,,,,,,,,,,,,,,,,,,,,,,,,,METAR,585.0
CXPC 150100Z AUTO M02/M03 RMK AO1 SOG 08 8007 SLP202 T10171029,CXPC,2019-01-15T01:00:00Z,45.35,-80.05,-1.7,-2.9,,,,,,1020.2,,TRUE,TRUE,,,,,,,,,,,,,,,,,,,,,,,,,,,METAR,176.0
YSTW 150100Z AUTO 29004KT 250V320 9999 // NCD 35/10 Q1015 RF00.0/000.0,YSTW,2019-01-15T01:00:00Z,-31.07,150.85,35.0,10.0,290,4,,6.21,29.970472,,,TRUE,,,,,,,,CLR,,,,,,,,VFR,,,,,,,,,,,,METAR,410.0
CYZT 150100Z 26003KT 20SM SKC 03/03 A2994 RMK SLP142,CYZT,2019-01-15T01:00:00Z,50.67,-127.37,3.0,3.0,260,3,,20.0,29.940945,1014.2,,,,,,,,,,SKC,,,,,,,,VFR,,,,,,,,,,,,METAR,22.0
CZKD 150100Z AUTO 07004KT M22/M25 RMK AO1 SOG 33 8034 SLP210 T12221246,CZKD,2019-01-15T01:00:00Z,56.03,-96.52,-22.2,-24.6,70,4,,,,1021.0,,TRUE,TRUE,,,,,,,,,,,,,,,,,,,,,,,,,,,METAR,183.0
CXTD 150100Z AUTO 12006KT M10/M11 RMK AO1 SOG 03 8026 SLP186 T10981114,CXTD,2019-01-15T01:00:00Z,45.62,-61.68,-9.8,-11.4,120,6,,,,1018.6,,TRUE,TRUE,,,,,,,,,,,,,,,,,,,,,,,,,,,METAR,68.0
CWZA 150100Z AUTO 02009G16KT 09/M02 RMK AO1 PK WND 00024/0005 SLP150 T00871020 56007,CWZA,2019-01-15T01:00:00Z,49.25,-121.77,8.7,-2.0,20,9,16,,,1015.0,,TRUE,TRUE,,,,,,,,,,,,,,,,-0.7,,,,,,,,,,,METAR,15.0
CWYY 150100Z AUTO 21002KT M01/M04 RMK AO1 SLP267 T10141039 57011,CWYY,2019-01-15T01:00:00Z,49.03,-119.43,-1.4,-3.9,210,2,,,,1026.7,,TRUE,TRUE,,,,,,,,,,,,,,,,-1.1,,,,,,,,,,,METAR,283.0
CWYJ 150100Z AUTO 36004KT 06/05 RMK AO1 SLP148 T00580046 58011,CWYJ,2019-01-15T01:00:00Z,48.45,-123.3,5.8,4.6,360,4,,,,1014.8,,TRUE,TRUE,,,,,,,,,,,,,,,,-1.1,,,,,,,,,,,METAR,39.0
CZMJ 150100Z AUTO 32005KT M02/M06 RMK AO1 SLP190 T10181061 56018,CZMJ,2019-01-15T01:00:00Z,50.33,-105.57,-1.8,-6.1,320,5,,,,1019.0,,TRUE,TRUE,,,,,,,,,,,,,,,,-1.8,,,,,,,,,,,METAR,577.0
CWZS 150100Z AUTO 18001KT M10/M13 RMK AO1 SLP165 T10991129 58014,CWZS,2019-01-15T01:00:00Z,48.47,-67.43,-9.9,-12.9,180,1,,,,1016.5,,TRUE,TRUE,,,,,,,,,,,,,,,,-1.4,,,,,,,,,,,METAR,166.0
CWZO 150100Z AUTO 07008KT RMK AO1,CWZO,2019-01-15T01:00:00Z,48.55,-123.23,,,70,8,,,,,,TRUE,TRUE,,,,,,,,,,,,,,,,,,,,,,,,,,,METAR,1.0
CXHM 150100Z AUTO 26002KT M05/M07 RMK AO1 SLP236 T10501073 50000,CXHM,2019-01-15T01:00:00Z,43.28,-79.9,-5.0,-7.3,260,2,,,,1023.6,,TRUE,TRUE,,,,,,,,,,,,,,,,0.0,,,,,,,,,,,METAR,107.0
CWJI 150100Z AUTO 23008KT M05/M08 RMK AO1 SLP191 T10481076 56022,CWJI,2019-01-15T01:00:00Z,49.72,-105.92,-4.8,-7.6,230,8,,,,1019.1,,TRUE,TRUE,,,,,,,,,,,,,,,,-2.2,,,,,,,,,,,METAR,724.0
CXKE 150100Z AUTO 21005KT M09/M13 RMK AO1 SOG 08 8008 SLP226 T10931131,CXKE,2019-01-15T01:00:00Z,45.0,-75.63,-9.3,-13.1,210,5,,,,1022.6,,TRUE,TRUE,,,,,,,,,,,,,,,,,,,,,,,,,,,METAR,99.0
CXKA 150100Z AUTO 36005KT M10/M12 RMK AO1 SOG 37 1013 SLP223 T10971116,CXKA,2019-01-15T01:00:00Z,49.4,-82.45,-9.7,-11.6,360,5,,,,1022.3,,TRUE,TRUE,,,,,,,,,,,,,,,,,,,,,,,,,,,METAR,218.0
CWJR 150100Z AUTO 32003KT M03/M06 RMK AO1 SOG 05 6006 SLP281 T10331064,CWJR,2019-01-15T01:00:00Z,49.07,-116.5,-3.3,-6.4,320,3,,,,1028.1,,TRUE,TRUE,,,,,,,,,,,,,,,,,,,,,,,,,,,METAR,646.0
NCMG 150100Z AUTO 14009KT //// ////// 29/23 Q1003,NCMG,2019-01-15T01:00:00Z,-21.92,-157.95,29.0,23.0,140,9,,,29.616142,,,TRUE,,,,,,,,,,,,,,,,,,,,,,,,,,,,METAR,41.0
CYYW 150100Z AUTO 00000KT 9SM CLR M17/M19 A3019 RMK SLP261,CYYW,2019-01-15T01:00:00Z,50.3,-88.9,-17.0,-19.0,0,0,,9.0,30.188976,1026.1,,TRUE,,,,,,,,CLR,,,,,,,,VFR,,,,,,,,,,,,METAR,351.0
YSWG 150100Z 28010KT CAVOK 39/08 Q1010,YSWG,2019-01-15T01:00:00Z,-35.13,147.47,39.0,8.0,280,10,,6.21,29.822834,,,,,,,,,,,CAVOK,,,,,,,,VFR,,,,,,,,,,,,METAR,213.0
CWJX 150100Z AUTO 25004KT M04/M08 RMK AO1 SOG 03 8005 SLP202 T10441083,CWJX,2019-01-15T01:00:00Z,50.88,-109.5,-4.4,-8.3,250,4,,,,1020.2,,TRUE,TRUE,,,,,,,,,,,,,,,,,,,,,,,,,,,METAR,672.0
CWJW 150100Z AUTO 20003KT M09/M10 RMK AO1 SOG 17 5000 SLP276 T10931101,CWJW,2019-01-15T01:00:00Z,52.93,-118.03,-9.3,-10.1,200,3,,,,1027.6,,TRUE,TRUE,,,,,,,,,,,,,,,,,,,,,,,,,,,METAR,1020.0
CWJV 150100Z AUTO 10004KT M03/M04 RMK AO1 SLP261 T10281040 57007,CWJV,2019-01-15T01:00:00Z,50.22,-119.18,-2.8,-4.0,100,4,,,,1026.1,,TRUE,TRUE,,,,,,,,,,,,,,,,-0.7,,,,,,,,,,,METAR,556.0
CWJT 150100Z AUTO 20001KT M11/M14 RMK AO1 SLP235 T11071135 58006,CWJT,2019-01-15T01:00:00Z,46.07,-74.57,-10.7,-13.5,200,1,,,,1023.5,,TRUE,TRUE,,,,,,,,,,,,,,,,-0.6,,,,,,,,,,,METAR,239.0
OIGG 150100Z 34004KT 0800 R27/0900D FG FEW025 03/03 Q1011,OIGG,2019-01-15T01:00:00Z,37.33,49.6,3.0,3.0,340,4,,0.5,29.852362,,,,,,,,,,FG,FEW,2500,,,,,,,LIFR,,,,,,,,,,,,METAR,-13.0
OIBK 150100Z 08010KT 6000 NSC 21/14 Q1018,OIBK,2019-01-15T01:00:00Z,26.53,53.98,21.0,14.0,80,10,,3.73,30.059055,,,,,,,,,,,CLR,,,,,,,,MVFR,,,,,,,,,,,,METAR,30.0
CWKG 150100Z AUTO 06002KT M10/M12 RMK AO1 SOG 06 8017 SLP171 T10951120,CWKG,2019-01-15T01:00:00Z,44.43,-65.2,-9.5,-12.0,60,2,,,,1017.1,,TRUE,TRUE,,,,,,,,,,,,,,,,,,,,,,,,,,,METAR,165.0
VTSG 150100Z 02003KT 350V060 8000 NSC 25/24 Q1012 NOSIG,VTSG,2019-01-15T01:00:00Z,8.1,98.98,25.0,24.0,20,3,,4.97,29.88189,,,,,,TRUE,,,,,CLR,,,,,,,,MVFR,,,,,,,,,,,,METAR,25.0
VTCT 150100Z VRB01KT 6000 FEW010 17/17 Q1015 NOSIG,VTCT,2019-01-15T01:00:00Z,19.95,99.88,17.0,17.0,0,1,,3.73,29.970472,,,,,,TRUE,,,,,FEW,1000,,,,,,,MVFR,,,,,,,,,,,,METAR,390.0
CWDV 150100Z AUTO 36003KT M10/M12 RMK AO1 SOG 40 1004 SLP246 T11001115,CWDV,2019-01-15T01:00:00Z,49.02,-90.47,-10.0,-11.5,360,3,,,,1024.6,,TRUE,TRUE,,,,,,,,,,,,,,,,,,,,,,,,,,,METAR,489.0
CWMQ 150100Z AUTO 24001KT M07/M10 RMK AO1 SLP218 T10701097 53004,CWMQ,2019-01-15T01:00:00Z,49.9,-109.47,-7.0,-9.7,240,1,,,,1021.8,,TRUE,TRUE,,,,,,,,,,,,,,,,0.4,,,,,,,,,,,METAR,767.0
CWMM 150100Z AUTO 29002KT 04/03 RMK AO1 SLP152 T00420027 56012,CWMM,2019-01-15T01:00:00Z,49.22,-122.68,4.2,2.7,290,2,,,,1015.2,,TRUE,TRUE,,,,,,,,,,,,,,,,-1.2,,,,,,,,,,,METAR,5.0
CWMJ 150100Z AUTO 19002KT M09/M12 RMK AO1 SOG 32 8007 SLP215 T10881124,CWMJ,2019-01-15T01:00:00Z,46.27,-76.0,-8.8,-12.4,190,2,,,,1021.5,,TRUE,TRUE,,,,,,,,,,,,,,,,,,,,,,,,,,,METAR,200.0
CWLM 150100Z AUTO 03008KT 05/03 RMK AO1 SLP147 T00450033 58011,CWLM,2019-01-15T01:00:00Z,48.42,-123.32,4.5,3.3,30,8,,,,1014.7,,TRUE,TRUE,,,,,,,,,,,,,,,,-1.1,,,,,,,,,,,METAR,70.0
CWLE 150100Z AUTO 24009KT M05/M07 RMK AO1 SOG 14 8014 SLP184 T10531070,CWLE,2019-01-15T01:00:00Z,50.95,-107.15,-5.3,-7.0,240,9,,,,1018.4,,TRUE,TRUE,,,,,,,,,,,,,,,,,,,,,,,,,,,METAR,665.0
CWLC 150100Z AUTO 29002KT 07/07 RMK AO1 T00730066,CWLC,2019-01-15T01:00:00Z,54.3,-130.62,7.3,6.6,290,2,,,,,,TRUE,TRUE,,,,,,,,,,,,,,,,,,,,,,,,,,,METAR,27.0
CWKX 150100Z AUTO 04002KT M06/M07 RMK AO1 SOG 37 8003 SLP241 T10581072,CWKX,2019-01-15T01:00:00Z,58.43,-130.02,-5.8,-7.2,40,2,,,,1024.1,,TRUE,TRUE,,,,,,,,,,,,,,,,,,,,,,,,,,,METAR,793.0
CWKH 150100Z AUTO 05/01 RMK AO1 SLP138 T00510006 58011,CWKH,2019-01-15T01:00:00Z,48.57,-123.55,5.1,0.6,,,,,,1013.8,,TRUE,TRUE,,,,,,,,,,,,,,,,-1.1,,,,,,,,,,,METAR,366.0
CYCG 150100Z 35007KT 15SM OVC020 M01/M05 A3026 RMK SC8 LAST STFD OBS/NEXT 151400Z SLP270,CYCG,2019-01-15T01:00:00Z,49.28,-117.62,-1.0,-5.0,350,7,,15.0,30.259842,1027.0,,,,,,,,,,OVC,2000,,,,,,,MVFR,,,,,,,,,,,,METAR,495.0
CYCD 150100Z 04002KT 1/8SM FG VV001 03/03 A2998 RMK FG8 SLP156,CYCD,2019-01-15T01:00:00Z,49.05,-123.87,3.0,3.0,40,2,,0.13,29.97933,1015.6,,,,,,,,,FG,OVX,0,,,,,,,LIFR,,,,,,,,,,,100,METAR,30.0
CYBD 150100Z 00000KT 15SM FEW260 M00/M00 A3005 RMK CI1 CI TR MIFG ON RWY CONTRAIL LAST STFD OBS/NEXT 151500UTC SLP178,CYBD,2019-01-15T01:00:00Z,52.37,-126.57,0.0,0.0,0,0,,15.0,30.050198,1017.8,,,,,,,,,,FEW,26000,,,,,,,VFR,,,,,,,,,,,,METAR,35.0
CBBC 150100Z AUTO 00000KT 9SM CLR 03/02 A2995 RMK SLP146,CBBC,2019-01-15T01:00:00Z,52.18,-128.15,3.0,2.0,0,0,,9.0,29.949802,1014.6,,TRUE,,,,,,,,CLR,,,,,,,,VFR,,,,,,,,,,,,METAR,43.0
CYWH 150100Z 04005KT 15SM FEW005 FEW250 07/05 A2997 RMK SF1CI2 SF TR SLP149,CYWH,2019-01-15T01:00:00Z,48.42,-123.38,7.0,5.0,40,5,,15.0,29.970472,1014.9,,,,,,,,,,FEW,500,FEW,25000,,,,,VFR,,,,,,,,,,,,METAR,10.0
YWLM 150100Z 01007KT CAVOK 33/20 Q1012,YWLM,2019-01-15T01:00:00Z,-32.8,151.83,33.0,20.0,10,7,,6.21,29.88189,,,,,,,,,,,CAVOK,,,,,,,,VFR,,,,,,,,,,,,METAR,9.0
YWHA 150100Z AUTO 11005KT 9999 // NCD 35/13 Q1008,YWHA,2019-01-15T01:00:00Z,-33.07,137.52,35.0,13.0,110,5,,6.21,29.763779,,,TRUE,,,,,,,,CLR,,,,,,,,VFR,,,,,,,,,,,,METAR,13.0
YWGT 150100Z AUTO 01007KT 9999 // NCD 38/09 Q1009,YWGT,2019-01-15T01:00:00Z,-36.42,146.3,38.0,9.0,10,7,,6.21,29.793306,,,TRUE,,,,,,,,CLR,,,,,,,,VFR,,,,,,,,,,,,METAR,153.0
YTRE 150100Z AUTO 06009KT 9999 // NCD 31/18 Q1013,YTRE,2019-01-15T01:00:00Z,-31.88,152.52,31.0,18.0,60,9,,6.21,29.911417,,,TRUE,,,,,,,,CLR,,,,,,,,VFR,,,,,,,,,,,,METAR,12.0
YTNK 150100Z AUTO 01005KT 9999 // NCD 35/16 Q1011,YTNK,2019-01-15T01:00:00Z,-19.63,134.18,35.0,16.0,10,5,,6.21,29.852362,,,TRUE,,,,,,,,CLR,,,,,,,,VFR,,,,,,,,,,,,METAR,377.0
CWWB 150100Z AUTO 25004KT M04/M08 RMK AO1 SLP235 T10351076 50000,CWWB,2019-01-15T01:00:00Z,43.3,-79.78,-3.5,-7.6,250,4,,,,1023.5,,TRUE,TRUE,,,,,,,,,,,,,,,,0.0,,,,,,,,,,,METAR,76.0
CWPK 150100Z AUTO 25001KT M12/M14 RMK AO1 3PAST HR SOG 40 0000 SLP196 P0001 T11151135 50003,CWPK,2019-01-15T01:00:00Z,47.92,-74.62,-11.5,-13.5,250,1,,,,1019.6,,TRUE,TRUE,,,,,,,,,,,,,,,,0.3,,,,,0.01,,,,,,METAR,442.0
CWWE 150100Z AUTO 36008KT M06/M10 RMK AO1 SLP154 T10611097 58031,CWWE,2019-01-15T01:00:00Z,43.97,-64.67,-6.1,-9.7,360,8,,,,1015.4,,TRUE,TRUE,,,,,,,,,,,,,,,,-3.1,,,,,,,,,,,METAR,9.0
CYPQ 150100Z AUTO 17003KT 9SM OVC170 M06/M07 A3016 RMK SLP229,CYPQ,2019-01-15T01:00:00Z,44.22,-78.37,-6.0,-7.0,170,3,,9.0,30.159449,1022.9,,TRUE,,,,,,,,OVC,17000,,,,,,,VFR,,,,,,,,,,,,METAR,191.0
CYND 150100Z 02002KT 15SM OVC026 M09/M14 A3017 RMK SC8 SLP226,CYND,2019-01-15T01:00:00Z,45.52,-75.57,-9.0,-14.0,20,2,,15.0,30.171259,1022.6,,,,,,,,,,OVC,2600,,,,,,,MVFR,,,,,,,,,,,,METAR,64.0
CYNA 150100Z AUTO 24012G18KT 9SM -SN OVC018 M05/M09 A2997 RMK SLP152,CYNA,2019-01-15T01:00:00Z,50.17,-61.82,-5.0,-9.0,240,12,18,9.0,29.970472,1015.2,,TRUE,,,,,,,-SN,OVC,1800,,,,,,,MVFR,,,,,,,,,,,,METAR,11.0
CYMO 150100Z AUTO 29004KT 9SM CLR M20/M24 A3021 RMK SLP232,CYMO,2019-01-15T01:00:00Z,51.28,-80.62,-20.0,-24.0,290,4,,9.0,30.209646,1023.2,,TRUE,,,,,,,,CLR,,,,,,,,VFR,,,,,,,,,,,,METAR,10.0
CYKA 150100Z 15004KT 20SM OVC016 M01/M04 A3024 RMK SC8 SLP262,CYKA,2019-01-15T01:00:00Z,50.7,-120.45,-1.0,-4.0,150,4,,20.0,30.239174,1026.2,,,,,,,,,,OVC,1600,,,,,,,MVFR,,,,,,,,,,,,METAR,346.0
YTEF 150100Z AUTO 23006KT 9999 // NCD 37/19 Q1007,YTEF,2019-01-15T01:00:00Z,-21.72,122.23,37.0,19.0,230,6,,6.21,29.734253,,,TRUE,,,,,,,,CLR,,,,,,,,VFR,,,,,,,,,,,,METAR,296.0
SCVM 150100Z 30003KT CAVOK 16/13 Q1016,SCVM,2019-01-15T01:00:00Z,-32.95,-71.48,16.0,13.0,300,3,,6.21,30.0,,,,,,,,,,,CAVOK,,,,,,,,VFR,,,,,,,,,,,,METAR,141.0
CWBV 150100Z AUTO 04016KT M05/M07 RMK AO1 PK WND 04019/0044 SLP159 T10541069 58029,CWBV,2019-01-15T01:00:00Z,44.82,-62.32,-5.4,-6.9,40,16,,,,1015.9,,TRUE,TRUE,,,,,,,,,,,,,,,,-2.9,,,,,,,,,,,METAR,10.0
CWEP 150100Z AUTO 24002KT M09/M11 RMK AO1 SOG 40 8022 SLP188 T10881109,CWEP,2019-01-15T01:00:00Z,46.45,-61.97,-8.8,-10.9,240,2,,,,1018.8,,TRUE,TRUE,,,,,,,,,,,,,,,,,,,,,,,,,,,METAR,11.0
CWNH 150100Z AUTO 20009G16KT M11/M14 RMK AO1 SOG 15 8015 PK WND 21019/0002 SLP182 T11051141,CWNH,2019-01-15T01:00:00Z,47.78,-69.53,-10.5,-14.1,200,9,16,,,1018.2,,TRUE,TRUE,,,,,,,,,,,,,,,,,,,,,,,,,,,METAR,148.0
CWSS 150100Z AUTO 28001KT M15/M16 RMK AO1 SOG 09 8018 SLP187 T11451161,CWSS,2019-01-15T01:00:00Z,45.2,-67.25,-14.5,-16.1,280,1,,,,1018.7,,TRUE,TRUE,,,,,,,,,,,,,,,,,,,,,,,,,,,METAR,26.0
CWRN 150100Z AUTO 08008KT M04/M07 RMK AO1 SLP174 T10411073 58026,CWRN,2019-01-15T01:00:00Z,45.35,-60.98,-4.1,-7.3,80,8,,,,1017.4,,TRUE,TRUE,,,,,,,,,,,,,,,,-2.6,,,,,,,,,,,METAR,8.0
OIIE 150100Z 24006KT 9999 FEW040 SCT100 05/02 Q1015,OIIE,2019-01-15T01:00:00Z,35.42,51.15,5.0,2.0,240,6,,6.21,29.970472,,,,,,,,,,,FEW,4000,SCT,10000,,,,,VFR,,,,,,,,,,,,METAR,1008.0
CYLW 150100Z AUTO 00000KT 9SM OVC013 M01/M03 A3023 RMK SLP260,CYLW,2019-01-15T01:00:00Z,49.95,-119.37,-1.0,-3.0,0,0,,9.0,30.230314,1026.0,,TRUE,,,,,,,,OVC,1300,,,,,,,MVFR,,,,,,,,,,,,METAR,430.0
CYQU 150100Z 05003KT 330V070 25SM BKN180 BKN240 M05/M06 A3010 RMK AC5CI2 SLP241,CYQU,2019-01-15T01:00:00Z,55.18,-118.88,-5.0,-6.0,50,3,,25.0,30.100393,1024.1,,,,,,,,,,BKN,18000,BKN,24000,,,,,VFR,,,,,,,,,,,,METAR,669.0
CYQH 150100Z 00000KT 15SM BKN013 OVC032 M11/M14 A3015 RMK SC5SC3 SLP267,CYQH,2019-01-15T01:00:00Z,60.12,-128.82,-11.0,-14.0,0,0,,15.0,30.15059,1026.7,,,,,,,,,,BKN,1300,OVC,3200,,,,,MVFR,,,,,,,,,,,,METAR,690.0
CYOC 150100Z 00000KT 35SM FEW040 FEW200 M32/M35 A3025 RMK SC1CI1 SLP289,CYOC,2019-01-15T01:00:00Z,67.57,-139.82,-32.0,-35.0,0,0,,35.0,30.250984,1028.9,,,,,,,,,,FEW,4000,FEW,20000,,,,,VFR,,,,,,,,,,,,METAR,251.0
CYWL 150100Z 21003KT 15SM SCT220 M03/M06 A3007 RMK CI3 SLP234,CYWL,2019-01-15T01:00:00Z,52.18,-122.07,-3.0,-6.0,210,3,,15.0,30.070866,1023.4,,,,,,,,,,SCT,22000,,,,,,,VFR,,,,,,,,,,,,METAR,940.0
CYXJ 150100Z 01014KT 15SM FEW160 BKN240 M03/M05 A3011 RMK AC2CI3 SLP234,CYXJ,2019-01-15T01:00:00Z,56.25,-120.73,-3.0,-5.0,10,14,,15.0,30.109253,1023.4,,,,,,,,,,FEW,16000,BKN,24000,,,,,VFR,,,,,,,,,,,,METAR,695.0
CYXT 150100Z 35017G23KT 20SM FEW004 FEW040 BKN110 OVC220 03/02 A3005 RMK SF1CF1AC3CI3 SLP186,CYXT,2019-01-15T01:00:00Z,54.47,-128.57,3.0,2.0,350,17,23,20.0,30.050198,1018.6,,,,,,,,,,FEW,400,FEW,4000,BKN,11000,OVC,22000,VFR,,,,,,,,,,,,METAR,217.0
CYMA 150100Z 00000KT 20SM FEW016 FEW030 M28/M31 A3021 RMK SC1SC1 SC TR SC TR SLP309,CYMA,2019-01-15T01:00:00Z,63.62,-135.87,-28.0,-31.0,0,0,,20.0,30.209646,1030.9,,,,,,,,,,FEW,1600,FEW,3000,,,,,VFR,,,,,,,,,,,,METAR,504.0
CYXY 150100Z 35003KT 3SM BR OVC008 M12/M14 A3005 RMK ST8 OVC TPG HILLS ALQDS SLP242,CYXY,2019-01-15T01:00:00Z,60.72,-135.07,-12.0,-14.0,350,3,,3.0,30.050198,1024.2,,,,,,,,,BR,OVC,800,,,,,,,IFR,,,,,,,,,,,,METAR,703.0
OING 150100Z 00000KT 6000 FEW030 SCT090 08/07 Q1014,OING,2019-01-15T01:00:00Z,36.9,54.4,8.0,7.0,0,0,,3.73,29.940945,,,,,,,,,,,FEW,3000,SCT,9000,,,,,MVFR,,,,,,,,,,,,METAR,155.0
OIAH 150100Z 00000KT 7000 -RA FEW030CB SCT035 OVC090 12/10 Q1020,OIAH,2019-01-15T01:00:00Z,30.33,50.83,12.0,10.0,0,0,,4.35,30.11811,,,,,,,,,,-RA,FEW,3000,SCT,3500,OVC,9000,,,MVFR,,,,,,,,,,,,METAR,738.0
CYYF 150100Z VRB02KT 15SM OVC014 M01/M04 A3025 RMK SC8 SLP261,CYYF,2019-01-15T01:00:00Z,49.47,-119.58,-1.0,-4.0,0,2,,15.0,30.250984,1026.1,,,,,,,,,,OVC,1400,,,,,,,MVFR,,,,,,,,,,,,METAR,344.0
CYYE 150100Z 34002KT 15SM FEW015 SCT056 M20/M22 RMK SC1SC4 SC TR DENSITY ALT MISG,CYYE,2019-01-15T01:00:00Z,58.82,-122.57,-20.0,-22.0,340,2,,15.0,,,,,,,,,,,,FEW,1500,SCT,5600,,,,,VFR,,,,,,,,,,,,METAR,382.0
SAWE 150100Z 27008KT 9999 -RA BKN030 13/09 Q0999,SAWE,2019-01-15T01:00:00Z,-53.78,-67.75,13.0,9.0,270,8,,6.21,29.498032,,,,,,,,,,-RA,BKN,3000,,,,,,,MVFR,,,,,,,,,,,,METAR,22.0
OIYY 150100Z 29004KT 9999 FEW040 BKN090 17/M03 Q1016,OIYY,2019-01-15T01:00:00Z,31.9,54.28,17.0,-3.0,290,4,,6.21,30.0,,,,,,,,,,,FEW,4000,BKN,9000,,,,,VFR,,,,,,,,,,,,METAR,1236.0
CYTS 150100Z 34005KT 12SM -SN FEW008 SCT018 OVC035 M08/M09 A3008 RMK SF2SC2SC4 SLP211,CYTS,2019-01-15T01:00:00Z,48.57,-81.37,-8.0,-9.0,340,5,,12.0,30.079725,1021.1,,,,,,,,,-SN,FEW,800,SCT,1800,OVC,3500,,,VFR,,,,,,,,,,,,METAR,295.0
CYVV 150100Z 24006KT 4SM -FZRA OVC008 M02/M03 A3013 RMK SF8 SLP218,CYVV,2019-01-15T01:00:00Z,44.75,-81.08,-2.0,-3.0,240,6,,4.0,30.129921,1021.8,,,,,,,,,-FZRA,OVC,800,,,,,,,IFR,,,,,,,,,,,,METAR,222.0
CYVP 150100Z 22008KT 12SM -SN BKN035 M20/M23 A2958 RMK SC6 SLP023,CYVP,2019-01-15T01:00:00Z,58.12,-68.42,-20.0,-23.0,220,8,,12.0,29.58071,1002.3,,,,,,,,,-SN,BKN,3500,,,,,,,VFR,,,,,,,,,,,,METAR,60.0
CYTZ 150100Z AUTO 28010KT 9SM BKN180 M03/M07 A3020 RMK SLP233,CYTZ,2019-01-15T01:00:00Z,43.63,-79.4,-3.0,-7.0,280,10,,9.0,30.200787,1023.3,,TRUE,,,,,,,,BKN,18000,,,,,,,VFR,,,,,,,,,,,,METAR,77.0
CYHU 150100Z AUTO 21006KT 9SM SCT150 SCT180 BKN200 M10/M14 A3018 RMK SLP222,CYHU,2019-01-15T01:00:00Z,45.52,-73.42,-10.0,-14.0,210,6,,9.0,30.180119,1022.2,,TRUE,,,,,,,,SCT,15000,SCT,18000,BKN,20000,,,VFR,,,,,,,,,,,,METAR,27.0
CYHD 150100Z AUTO 15003KT 110V180 9SM CLR M12/M13 A3016 RMK SLP247,CYHD,2019-01-15T01:00:00Z,49.82,-92.75,-12.0,-13.0,150,3,,9.0,30.159449,1024.7,,TRUE,,,,,,,,CLR,,,,,,,,VFR,,,,,,,,,,,,METAR,413.0
CYGR 150100Z 23004KT 15SM FEW013 M08/M11 A3008 RMK SC2 SLP188,CYGR,2019-01-15T01:00:00Z,47.42,-61.77,-8.0,-11.0,230,4,,15.0,30.079725,1018.8,,,,,,,,,,FEW,1300,,,,,,,VFR,,,,,,,,,,,,METAR,10.0
CYGP 150100Z VRB02KT 15SM BKN140 M13/M15 A3000 RMK AC7 SLP166,CYGP,2019-01-15T01:00:00Z,48.77,-64.47,-13.0,-15.0,0,2,,15.0,30.0,1016.6,,,,,,,,,,BKN,14000,,,,,,,VFR,,,,,,,,,,,,METAR,33.0
CYAM 150100Z 26013KT 2 1/2SM -SHSN DRSN OVC008 M01/M02 A3010 RMK SN1SC7 CIG VRB 6 - 10 CVCTV CLD EMBD SLP206,CYAM,2019-01-15T01:00:00Z,46.47,-84.52,-1.0,-2.0,260,13,,2.5,30.100393,1020.6,,,,,,,,,-SHSN DRSN,OVC,800,,,,,,,IFR,,,,,,,,,,,,METAR,192.0
CZSJ 150100Z AUTO 12003KT 100V160 7SM CLR M19/M21 A3012 RMK SLP233,CZSJ,2019-01-15T01:00:00Z,53.07,-93.35,-19.0,-21.0,120,3,,7.0,30.121063,1023.3,,TRUE,,,,,,,,CLR,,,,,,,,VFR,,,,,,,,,,,,METAR,290.0
WBKT 150100Z 07009KT 350V160 9999 FEW009 SCT032 BKN260 28/24 Q1011,WBKT,2019-01-15T01:00:00Z,6.92,116.82,28.0,24.0,70,9,,6.21,29.852362,,,,,,,,,,,FEW,900,SCT,3200,BKN,26000,,,VFR,,,,,,,,,,,,METAR,5.0
NCPK 150100Z AUTO NIL,NCPK,2019-01-15T01:00:00Z,-10.88,-165.82,,,,,,,,,,TRUE,,,,,,,,,,,,,,,,,,,,,,,,,,,,METAR,3.0
NCPY 150100Z AUTO 03005KT //// ////// 31/24 Q1007,NCPY,2019-01-15T01:00:00Z,-9.02,-158.07,31.0,24.0,30,5,,,29.734253,,,TRUE,,,,,,,,,,,,,,,,,,,,,,,,,,,,METAR,2.0
NCRK 150100Z AUTO 06003KT //// ////// 32/25 Q1007,NCRK,2019-01-15T01:00:00Z,-10.05,-161.08,32.0,25.0,60,3,,,29.734253,,,TRUE,,,,,,,,,,,,,,,,,,,,,,,,,,,,METAR,5.0
NCMR 150100Z AUTO 12004KT //// ////// Q1007,NCMR,2019-01-15T01:00:00Z,-19.85,-157.7,,,120,4,,,29.734253,,,TRUE,,,,,,,,,,,,,,,,,,,,,,,,,,,,METAR,8.0
CYZW 150100Z 00000KT 15SM OVC011 M06/M07 A3008 RMK ST8 CLIMAT -5.6/-8.1/TR CM/TR MM MWE/44028/LAST STFD OBS/NXT 151700 UTC SLP242,CYZW,2019-01-15T01:00:00Z,60.17,-132.75,-6.0,-7.0,0,0,,15.0,30.079725,1024.2,,,,,,,,,,OVC,1100,,,,,,,MVFR,,,,,,,,,,,,METAR,705.0
OINE 150100Z AUTO 35002KT //// // ////// 09/07 Q1012,OINE,2019-01-15T01:00:00Z,37.38,55.45,9.0,7.0,350,2,,,29.88189,,,TRUE,,,,,,,,,,,,,,,,,,,,,,,,,,,,METAR,130.0
OIMQ 150100Z AUTO 05002KT //// // ////// 07/M01 Q1014,OIMQ,2019-01-15T01:00:00Z,35.23,58.47,7.0,-1.0,50,2,,,29.940945,,,TRUE,,,,,,,,,,,,,,,,,,,,,,,,,,,,METAR,1140.0
OIMD 150100Z AUTO 27010KT //// // ////// 06/00 Q1013,OIMD,2019-01-15T01:00:00Z,34.38,58.63,6.0,0.0,270,10,,,29.911417,,,TRUE,,,,,,,,,,,,,,,,,,,,,,,,,,,,METAR,1100.0
OIMC 150100Z AUTO 29004KT //// // ////// 07/02 Q1014,OIMC,2019-01-15T01:00:00Z,36.5,61.07,7.0,2.0,290,4,,,29.940945,,,TRUE,,,,,,,,,,,,,,,,,,,,,,,,,,,,METAR,288.0
OIIK 150100Z 01002KT 8000 NSC M00/M00 Q1015,OIIK,2019-01-15T01:00:00Z,36.25,50.05,0.0,0.0,10,2,,4.97,29.970472,,,,,,,,,,,CLR,,,,,,,,MVFR,,,,,,,,,,,,METAR,1278.0
OITP 150100Z 31006KT CAVOK M01/M02 Q1011,OITP,2019-01-15T01:00:00Z,39.6,47.88,-1.0,-2.0,310,6,,6.21,29.852362,,,,,,,,,,,CAVOK,,,,,,,,VFR,,,,,,,,,,,,METAR,77.0
CZMD 150100Z AUTO 24002KT 9SM M23/M24 A3016 RMK CLD MISG SLP249,CZMD,2019-01-15T01:00:00Z,53.43,-91.77,-23.0,-24.0,240,2,,9.0,30.159449,1024.9,,TRUE,,,,,,,,,,,,,,,,,,,,,,,,,,,,METAR,278.0
CZMT 150100Z 00000KT 15SM FEW020 SCT040 OVC100 08/07 A2996 RMK CU1SC2AC5 SLP148,CZMT,2019-01-15T01:00:00Z,54.03,-132.13,8.0,7.0,0,0,,15.0,29.958662,1014.8,,,,,,,,,,FEW,2000,SCT,4000,OVC,10000,,,VFR,,,,,,,,,,,,METAR,8.0
OISF 150100Z 34004KT CAVOK 04/M01 Q1021,OISF,2019-01-15T01:00:00Z,28.9,53.72,4.0,-1.0,340,4,,6.21,30.147638,,,,,,,,,,,CAVOK,,,,,,,,VFR,,,,,,,,,,,,METAR,1383.0
HKEL 150100Z 12004KT CAVOK 13/07 Q1024,HKEL,2019-01-15T01:00:00Z,0.4,35.23,13.0,7.0,120,4,,6.21,30.236221,,,,,,,,,,,CAVOK,,,,,,,,VFR,,,,,,,,,,,,METAR,2133.0
AYNZ 150100Z 23010KT 9999 FEW030 SCT080 31/23 Q1006 RMK: BUILD UPS IN AREA,AYNZ,2019-01-15T01:00:00Z,-6.57,146.72,31.0,23.0,230,10,,6.21,29.704725,,,,,,,,,,,FEW,3000,SCT,8000,,,,,VFR,,,,,,,,,,,,METAR,70.0
CZPS 150100Z AUTO 28007KT M00/M07 RMK AO1 T10041066,CZPS,2019-01-15T01:00:00Z,52.43,-113.6,-0.4,-6.6,280,7,,,,,,TRUE,TRUE,,,,,,,,,,,,,,,,,,,,,,,,,,,METAR,965.0
CZOL 150100Z AUTO 30003KT M00/M03 RMK AO1 T10031031,CZOL,2019-01-15T01:00:00Z,53.65,-113.35,-0.3,-3.1,300,3,,,,,,TRUE,TRUE,,,,,,,,,,,,,,,,,,,,,,,,,,,METAR,665.0
CXOL 150100Z AUTO 26004KT 01/M06 RMK AO1 T00071060,CXOL,2019-01-15T01:00:00Z,51.77,-114.08,0.7,-6.0,260,4,,,,,,TRUE,TRUE,,,,,,,,,,,,,,,,,,,,,,,,,,,METAR,1046.0
CXMO 150100Z AUTO 22005KT M05/M08 RMK AO1 T10461077,CXMO,2019-01-15T01:00:00Z,51.67,-112.68,-4.6,-7.7,220,5,,,,,,TRUE,TRUE,,,,,,,,,,,,,,,,,,,,,,,,,,,METAR,836.0
CXWM 150100Z AUTO 31008KT M02/M09 RMK AO1 T10231089,CXWM,2019-01-15T01:00:00Z,49.5,-112.12,-2.3,-8.9,310,8,,,,,,TRUE,TRUE,,,,,,,,,,,,,,,,,,,,,,,,,,,METAR,944.0
CXAJ 150100Z AUTO 30011KT M00/M02 RMK AO1 SOG 41 PK WND 30018/0003 T10041020,CXAJ,2019-01-15T01:00:00Z,54.77,-112.82,-0.4,-2.0,300,11,,,,,,TRUE,TRUE,,,,,,,,,,,,,,,,,,,,,,,,,,,METAR,574.0
CXAG 150100Z AUTO 25006KT M04/M06 RMK AO1 T10411063,CXAG,2019-01-15T01:00:00Z,53.92,-112.28,-4.1,-6.3,250,6,,,,,,TRUE,TRUE,,,,,,,,,,,,,,,,,,,,,,,,,,,METAR,625.0
OJAI 150100Z 21008KT 4000 BR SCT030 BKN040 07/05 Q1017 NOSIG,OJAI,2019-01-15T01:00:00Z,31.72,36.0,7.0,5.0,210,8,,2.49,30.029528,,,,,,TRUE,,,,BR,SCT,3000,BKN,4000,,,,,IFR,,,,,,,,,,,,METAR,730.0
HESH 150100Z 29003KT CAVOK 13/05 Q1016 NOSIG,HESH,2019-01-15T01:00:00Z,27.97,34.38,13.0,5.0,290,3,,6.21,30.0,,,,,,TRUE,,,,,CAVOK,,,,,,,,VFR,,,,,,,,,,,,METAR,50.0
HEAT 150100Z 32012KT CAVOK 07/02 Q1020 NOSIG,HEAT,2019-01-15T01:00:00Z,27.05,31.02,7.0,2.0,320,12,,6.21,30.11811,,,,,,TRUE,,,,,CAVOK,,,,,,,,VFR,,,,,,,,,,,,METAR,70.0
HEAR 150100Z 15003KT CAVOK 06/04 Q1016 NOSIG,HEAR,2019-01-15T01:00:00Z,31.07,33.82,6.0,4.0,150,3,,6.21,30.0,,,,,,TRUE,,,,,CAVOK,,,,,,,,VFR,,,,,,,,,,,,METAR,32.0
HESC 150100Z 00000KT CAVOK 01/M02 Q1019 NOSIG,HESC,2019-01-15T01:00:00Z,28.68,34.07,1.0,-2.0,0,0,,6.21,30.088583,,,,,,TRUE,,,,,CAVOK,,,,,,,,VFR,,,,,,,,,,,,METAR,1332.0
HEPS 150100Z 21008KT CAVOK 11/07 Q1015 NOSIG,HEPS,2019-01-15T01:00:00Z,31.28,32.25,11.0,7.0,210,8,,6.21,29.970472,,,,,,TRUE,,,,,CAVOK,,,,,,,,VFR,,,,,,,,,,,,METAR,6.0
HEMM 150100Z 23014KT 9999 SCT020 11/M01 Q1011 NOSIG,HEMM,2019-01-15T01:00:00Z,31.32,27.22,11.0,-1.0,230,14,,6.21,29.852362,,,,,,TRUE,,,,,SCT,2000,,,,,,,VFR,,,,,,,,,,,,METAR,30.0
HELX 150100Z 14002KT CAVOK 07/01 Q1018 NOSIG,HELX,2019-01-15T01:00:00Z,25.67,32.7,7.0,1.0,140,2,,6.21,30.059055,,,,,,TRUE,,,,,CAVOK,,,,,,,,VFR,,,,,,,,,,,,METAR,88.0
HEGN 150100Z 31010KT CAVOK 09/01 Q1017 NOSIG,HEGN,2019-01-15T01:00:00Z,27.18,33.8,9.0,1.0,310,10,,6.21,30.029528,,,,,,TRUE,,,,,CAVOK,,,,,,,,VFR,,,,,,,,,,,,METAR,14.0
HEBL 150100Z 35010KT CAVOK 12/M01 Q1017 NOSIG,HEBL,2019-01-15T01:00:00Z,22.38,31.62,12.0,-1.0,350,10,,6.21,30.029528,,,,,,TRUE,,,,,CAVOK,,,,,,,,VFR,,,,,,,,,,,,METAR,188.0
HEBA 150100Z 17008KT CAVOK 10/05 Q1013 NOSIG,HEBA,2019-01-15T01:00:00Z,30.92,29.7,10.0,5.0,170,8,,6.21,29.911417,,,,,,TRUE,,,,,CAVOK,,,,,,,,VFR,,,,,,,,,,,,METAR,54.0
CWFJ 150100Z AUTO 28003KT M00/M08 RMK AO1 T10021081,CWFJ,2019-01-15T01:00:00Z,49.2,-113.27,-0.2,-8.1,280,3,,,,,,TRUE,TRUE,,,,,,,,,,,,,,,,,,,,,,,,,,,METAR,1136.0
CWEZ 150100Z AUTO 30005KT RMK AO1 58011,CWEZ,2019-01-15T01:00:00Z,48.78,-123.05,,,300,5,,,,,,TRUE,TRUE,,,,,,,,,,,,,,,,-1.1,,,,,,,,,,,METAR,7.0
CWDQ 150100Z AUTO 18003KT M12/M15 RMK AO1 SOG 47 8005 SLP206 T11211146,CWDQ,2019-01-15T01:00:00Z,47.42,-72.78,-12.1,-14.6,180,3,,,,1020.6,,TRUE,TRUE,,,,,,,,,,,,,,,,,,,,,,,,,,,METAR,169.0
CWDC 150100Z AUTO 05009KT M23/M27 RMK AO1 SOG 35 1039 SLP273 T12251273,CWDC,2019-01-15T01:00:00Z,59.57,-108.47,-22.5,-27.3,50,9,,,,1027.3,,TRUE,TRUE,,,,,,,,,,,,,,,,,,,,,,,,,,,METAR,318.0
CZSM 150100Z AUTO 34003KT M24/M27 RMK AO1 SOG 52 1033 SLP296 T12371266,CZSM,2019-01-15T01:00:00Z,60.03,-111.93,-23.7,-26.6,340,3,,,,1029.6,,TRUE,TRUE,,,,,,,,,,,,,,,,,,,,,,,,,,,SPECI,203.0
CZHY 150100Z AUTO 34003KT M27/M31 RMK AO1 SOG 29 1017 SLP340 T12731306,CZHY,2019-01-15T01:00:00Z,60.83,-115.78,-27.3,-30.6,340,3,,,,1034.0,,TRUE,TRUE,,,,,,,,,,,,,,,,,,,,,,,,,,,SPECI,164.0
CZEV 150100Z AUTO 10005KT M29/M32 RMK AO1 SOG 49 3008 SLP323 T12881319,CZEV,2019-01-15T01:00:00Z,68.32,-133.52,-28.8,-31.9,100,5,,,,1032.3,,TRUE,TRUE,,,,,,,,,,,,,,,,,,,,,,,,,,,SPECI,103.0
CZZJ 150100Z AUTO 26002KT M03/M04 RMK AO1 SOG 25 1007 SLP239 T10311042,CZZJ,2019-01-15T01:00:00Z,53.58,-116.47,-3.1,-4.2,260,2,,,,1023.9,,TRUE,TRUE,,,,,,,,,,,,,,,,,,,,,,,,,,,METAR,927.0
CZTB 150100Z AUTO 01001KT M06/M10 RMK AO1 SOG 40 1012 SLP247 T10611100,CZTB,2019-01-15T01:00:00Z,48.37,-89.32,-6.1,-10.0,10,1,,,,1024.7,,TRUE,TRUE,,,,,,,,,,,,,,,,,,,,,,,,,,,METAR,199.0
CWCF 150100Z AUTO 15006KT M10/M13 RMK AO1 SOG 17 8053 SLP191 T11001129,CWCF,2019-01-15T01:00:00Z,52.35,-97.03,-10.0,-12.9,150,6,,,,1019.1,,TRUE,TRUE,,,,,,,,,,,,,,,,,,,,,,,,,,,METAR,222.0
CWBZ 150100Z AUTO 22002KT M12/M14 RMK AO1 SLP226 T11241144 58008,CWBZ,2019-01-15T01:00:00Z,45.12,-74.27,-12.4,-14.4,220,2,,,,1022.6,,TRUE,TRUE,,,,,,,,,,,,,,,,-0.8,,,,,,,,,,,METAR,49.0
CWBT 150100Z AUTO 29003KT M10/M10 RMK AO1 SLP155 T10951101 57008,CWBT,2019-01-15T01:00:00Z,50.27,-64.23,-9.5,-10.1,290,3,,,,1015.5,,TRUE,TRUE,,,,,,,,,,,,,,,,-0.8,,,,,,,,,,,METAR,11.0
CYNM 150100Z AUTO 34009KT 9SM -SN OVC028 M11/M13 A3004 RMK SLP198,CYNM,2019-01-15T01:00:00Z,49.77,-77.82,-11.0,-13.0,340,9,,9.0,30.041338,1019.8,,TRUE,,,,,,,-SN,OVC,2800,,,,,,,MVFR,,,,,,,,,,,,METAR,281.0
CYMH 150100Z AUTO 24015G22KT 9SM OVC130 M09/M13 A2990 RMK SLP128,CYMH,2019-01-15T01:00:00Z,52.28,-55.85,-9.0,-13.0,240,15,22,9.0,29.899607,1012.8,,TRUE,,,,,,,,OVC,13000,,,,,,,VFR,,,,,,,,,,,,METAR,11.0
CYGV 150100Z AUTO 28007KT 9SM OVC019 M09/M12 A2996 RMK SLP151,CYGV,2019-01-15T01:00:00Z,50.27,-63.62,-9.0,-12.0,280,7,,9.0,29.958662,1015.1,,TRUE,,,,,,,,OVC,1900,,,,,,,MVFR,,,,,,,,,,,,METAR,33.0
CYBX 150100Z 25023KT 15SM -SN DRSN OVC014 M06/M08 A2996 RMK SC8 SLP150,CYBX,2019-01-15T01:00:00Z,51.45,-57.17,-6.0,-8.0,250,23,,15.0,29.958662,1015.0,,,,,,,,,-SN DRSN,OVC,1400,,,,,,,MVFR,,,,,,,,,,,,METAR,35.0
CYYG 150100Z 00000KT 15SM FEW240 M16/M17 A3006 RMK CI1 SLP187,CYYG,2019-01-15T01:00:00Z,46.27,-63.12,-16.0,-17.0,0,0,,15.0,30.059055,1018.7,,,,,,,,,,FEW,24000,,,,,,,VFR,,,,,,,,,,,,METAR,54.0
CYSJ 150100Z 02006KT 15SM SKC M13/M15 A3003 RMK SLP182,CYSJ,2019-01-15T01:00:00Z,45.32,-65.87,-13.0,-15.0,20,6,,15.0,30.029528,1018.2,,,,,,,,,,SKC,,,,,,,,VFR,,,,,,,,,,,,METAR,109.0
CYGW 150100Z AUTO 26018G24KT 3/4SM -SN OVC020 M17/M19 A2992 RMK SLP135,CYGW,2019-01-15T01:00:00Z,55.27,-77.77,-17.0,-19.0,260,18,24,0.75,29.920275,1013.5,,TRUE,,,,,,,-SN,OVC,2000,,,,,,,LIFR,,,,,,,,,,,,METAR,12.0
CYDF 150100Z 24008KT 15SM -SHSN OVC022 M06/M10 A3009 RMK SC8 CVCTV CLD EMBD SLP192,CYDF,2019-01-15T01:00:00Z,49.22,-57.4,-6.0,-10.0,240,8,,15.0,30.088583,1019.2,,,,,,,,,-SHSN,OVC,2200,,,,,,,MVFR,,,,,,,,,,,,METAR,22.0
CYCX 150100Z AUTO 26004KT 9SM FEW078 M13/M16 A3007 RMK SLP188,CYCX,2019-01-15T01:00:00Z,45.82,-66.42,-13.0,-16.0,260,4,,9.0,30.070866,1018.8,,TRUE,,,,,,,,FEW,7800,,,,,,,VFR,,,,,,,,,,,,METAR,51.0
CYZR 150100Z AUTO 23003KT 9SM FEW190 BKN210 M04/M08 A3021 RMK SLP244,CYZR,2019-01-15T01:00:00Z,43.0,-82.3,-4.0,-8.0,230,3,,9.0,30.209646,1024.4,,TRUE,,,,,,,,FEW,19000,BKN,21000,,,,,VFR,,,,,,,,,,,,METAR,181.0
CYZE 150100Z AUTO 26004KT 9SM BKN013 OVC022 M01/M02 A3010 RMK SLP206,CYZE,2019-01-15T01:00:00Z,45.87,-82.57,-1.0,-2.0,260,4,,9.0,30.100393,1020.6,,TRUE,,,,,,,,BKN,1300,OVC,2200,,,,,MVFR,,,,,,,,,,,,METAR,193.0
CYYY 150100Z 24010KT 15SM OVC030 M08/M13 A3002 RMK SC8 SLP172,CYYY,2019-01-15T01:00:00Z,48.6,-68.22,-8.0,-13.0,240,10,,15.0,30.02067,1017.2,,,,,,,,,,OVC,3000,,,,,,,MVFR,,,,,,,,,,,,METAR,52.0
CYWA 150100Z AUTO 00000KT 9SM OVC019 M09/M13 A3013 RMK SLP218,CYWA,2019-01-15T01:00:00Z,45.95,-77.32,-9.0,-13.0,0,0,,9.0,30.129921,1021.8,,TRUE,,,,,,,,OVC,1900,,,,,,,MVFR,,,,,,,,,,,,METAR,130.0
CZUM 150100Z AUTO 24004KT 200V290 9SM FEW055 M16/M19 A2969 RMK SLP098,CZUM,2019-01-15T01:00:00Z,53.53,-64.08,-16.0,-19.0,240,4,,9.0,29.68996,1009.8,,TRUE,,,,,,,,FEW,5500,,,,,,,VFR,,,,,,,,,,,,METAR,440.0
CZPC 150100Z AUTO VRB02KT 9SM CLR 02/M13 A3006 RMK SLP229,CZPC,2019-01-15T01:00:00Z,49.52,-114.0,2.0,-13.0,0,2,,9.0,30.059055,1022.9,,TRUE,,,,,,,,CLR,,,,,,,,VFR,,,,,,,,,,,,METAR,1190.0
CYPD 150100Z AUTO 04005KT 9SM BKN010 M10/M12 A3004 RMK PRESFR SLP183,CYPD,2019-01-15T01:00:00Z,45.67,-61.37,-10.0,-12.0,40,5,,9.0,30.041338,1018.3,,TRUE,,,,,,,,BKN,1000,,,,,,,MVFR,,,,,,,,,,,,METAR,114.0
CXTV 150100Z AUTO 00000KT M28/M31 RMK AO1 SOG 34 3012 SLP321 T12811311,CXTV,2019-01-15T01:00:00Z,68.75,-133.5,-28.1,-31.1,0,0,,,,1032.1,,TRUE,TRUE,,,,,,,,,,,,,,,,,,,,,,,,,,,METAR,85.0
CWJO 150100Z AUTO 09001KT M11/M14 RMK AO1 SLP197 T11121140 58002,CWJO,2019-01-15T01:00:00Z,48.43,-71.15,-11.2,-14.0,90,1,,,,1019.7,,TRUE,TRUE,,,,,,,,,,,,,,,,-0.2,,,,,,,,,,,METAR,133.0
CWHP 150100Z AUTO 23017KT M05/M08 RMK AO1 PK WND 23023/0033 SLP168 T10451075 58011,CWHP,2019-01-15T01:00:00Z,49.07,-61.7,-4.5,-7.5,230,17,,,,1016.8,,TRUE,TRUE,,,,,,,,,,,,,,,,-1.1,,,,,,,,,,,METAR,4.0
CWWX 150100Z AUTO 30012G17KT M00/M01 RMK AO1 PK WND 30017/0054 SLP202 T10021010 58004,CWWX,2019-01-15T01:00:00Z,45.32,-81.73,-0.2,-1.0,300,12,17,,,1020.2,,TRUE,TRUE,,,,,,,,,,,,,,,,-0.4,,,,,,,,,,,METAR,181.0
CXDP 150100Z AUTO 29004KT M08/M09 RMK AO1 T10771094,CXDP,2019-01-15T01:00:00Z,54.32,-113.95,-7.7,-9.4,290,4,,,,,,TRUE,TRUE,,,,,,,,,,,,,,,,,,,,,,,,,,,METAR,614.0
CXAF 150100Z AUTO 30007KT M02/M04 RMK AO1 T10211041,CXAF,2019-01-15T01:00:00Z,54.28,-112.97,-2.1,-4.1,300,7,,,,,,TRUE,TRUE,,,,,,,,,,,,,,,,,,,,,,,,,,,METAR,664.0
CWZV 150100Z AUTO 09010KT 07/07 RMK AO1 SLP134 T00650065 56012,CWZV,2019-01-15T01:00:00Z,51.93,-131.02,6.5,6.5,90,10,,,,1013.4,,TRUE,TRUE,,,,,,,,,,,,,,,,-1.2,,,,,,,,,,,METAR,92.0
CWZL 150100Z AUTO 15007KT 08/08 RMK AO1 SLP147 T00750075 56013,CWZL,2019-01-15T01:00:00Z,53.03,-131.6,7.5,7.5,150,7,,,,1014.7,,TRUE,TRUE,,,,,,,,,,,,,,,,-1.3,,,,,,,,,,,METAR,17.0
CWND 150100Z AUTO 00011KT M27/M30 RMK AO1 SLP292 T12741302 51014,CWND,2019-01-15T01:00:00Z,69.63,-135.43,-27.4,-30.2,0,11,,,,1029.2,,TRUE,TRUE,,,,,,,,,,,,,,,,1.4,,,,,,,,,,,METAR,12.0
CWRU 150100Z AUTO 01012KT 08/06 RMK AO1 SLP124 T00790059 58016,CWRU,2019-01-15T01:00:00Z,50.12,-127.93,7.9,5.9,10,12,,,,1012.4,,TRUE,TRUE,,,,,,,,,,,,,,,,-1.6,,,,,,,,,,,METAR,98.0
CWQS 150100Z AUTO 15008KT 10/07 RMK AO1 PK WND 13017/0025 SLP128 T00970069 55010,CWQS,2019-01-15T01:00:00Z,53.32,-132.77,9.7,6.9,150,8,,,,1012.8,,TRUE,TRUE,,,,,,,,,,,,,,,,-1.0,,,,,,,,,,,METAR,14.0
CWWL 150100Z AUTO 03002KT 08/06 RMK AO1 SLP145 T00750063 56015,CWWL,2019-01-15T01:00:00Z,53.5,-130.63,7.5,6.3,30,2,,,,1014.5,,TRUE,TRUE,,,,,,,,,,,,,,,,-1.5,,,,,,,,,,,METAR,17.0
CWME 150100Z AUTO 05022KT 06/03 RMK AO1 PK WND 05028/0031 T00580031,CWME,2019-01-15T01:00:00Z,52.18,-127.47,5.8,3.1,50,22,,,,,,TRUE,TRUE,,,,,,,,,,,,,,,,,,,,,,,,,,,METAR,32.0
VRMM 150100Z 07013KT 9000 FEW018 BKN270 27/24 Q1011 TEMPO 5000 -SHRA,VRMM,2019-01-15T01:00:00Z,4.2,73.52,27.0,24.0,70,13,,5.59,29.852362,,,,,,,,,,,FEW,1800,BKN,27000,,,,,VFR,,,,,,,,,,,,METAR,2.0
CYSK 150100Z 28028G36KT 1 1/2SM -SN BLSN OVC012 M20/M23 A2983 RMK SC8 CALL OUT SLP108,CYSK,2019-01-15T01:00:00Z,56.53,-79.25,-20.0,-23.0,280,28,36,1.5,29.828741,1010.8,,,,,,,,,-SN BLSN,OVC,1200,,,,,,,IFR,,,,,,,,,,,,METAR,26.0
KNGU 150059Z 35008KT 10SM FEW025 SCT085 01/M04 A3021 RMK AO2 SLP231 T00111039,KNGU,2019-01-15T00:59:00Z,36.92,-76.27,1.1,-3.9,350,8,,10.0,30.209646,1023.1,,,TRUE,,,,,,,FEW,2500,SCT,8500,,,,,VFR,,,,,,,,,,,,METAR,5.0
KNOZ 150059Z AUTO 23004KT 10SM OVC055 17/09 A3002 RMK AO2 SLP115 T01670094 $,KNOZ,2019-01-15T00:59:00Z,32.5,-114.45,16.7,9.4,230,4,,10.0,30.02067,1011.5,,TRUE,TRUE,TRUE,,,,,,OVC,5500,,,,,,,VFR,,,,,,,,,,,,METAR,103.0
KDVP 150059Z AUTO 00000KT 4SM HZ OVC003 A3022 RMK AO2,KDVP,2019-01-15T00:59:00Z,43.98,-95.78,,,0,0,,4.0,30.221457,,,TRUE,TRUE,,,,,,HZ,OVC,300,,,,,,,LIFR,,,,,,,,,,,,METAR,495.0
KMEI 150058Z 02007KT 10SM OVC018 06/02 A3034 RMK AO2 SLP274 I1000 T00610017,KMEI,2019-01-15T00:58:00Z,32.33,-88.75,6.1,1.7,20,7,,10.0,30.339567,1027.4,,,TRUE,,,,,,,OVC,1800,,,,,,,MVFR,,,,,,,,,,,,METAR,89.0
KMRH 150058Z AUTO 36005KT 10SM FEW024 02/M02 A3021 RMK AO2 SLP230 T00171017,KMRH,2019-01-15T00:58:00Z,34.73,-76.65,1.7,-1.7,360,5,,10.0,30.209646,1023.0,,TRUE,TRUE,,,,,,,FEW,2400,,,,,,,VFR,,,,,,,,,,,,METAR,3.0
KMWN 150058Z 32032KT 110SM FEW050 FEW100 BKN120 BKN150 BKN200 M10/M20 RMK HALO ARND MOON,KMWN,2019-01-15T00:58:00Z,44.27,-71.3,-10.0,-20.0,320,32,,10.0,,,,,,,,,,,,FEW,5000,FEW,10000,BKN,12000,BKN,15000,VFR,,,,,,,,,,,,METAR,1910.0
RKSO 150058Z 00000KT 1 1/4SM BR BKN038 00/M02 A3022 RMK AO2A SLP237 T00041020,RKSO,2019-01-15T00:58:00Z,37.07,127.02,0.4,-2.0,0,0,,1.25,30.221457,1023.7,,,TRUE,,,,,,BR,BKN,3800,,,,,,,IFR,,,,,,,,,,,,METAR,12.0
KGRK 150058Z AUTO 23003KT 10SM OVC049 06/02 A3036 RMK AO2 SLP287 T00630020,KGRK,2019-01-15T00:58:00Z,31.07,-97.83,6.3,2.0,230,3,,10.0,30.360237,1028.7,,TRUE,TRUE,,,,,,,OVC,4900,,,,,,,VFR,,,,,,,,,,,,METAR,309.0
OAKN 150058Z 05006KT 9999 SCT220 06/M15 A3010 RMK AO2A SLP173 WND DATA ESTMD Q1019 PA3139 DA2778 T00551149,OAKN,2019-01-15T00:58:00Z,31.5,65.83,5.5,-14.9,50,6,,6.21,30.100393,1017.3,,,TRUE,,,,,,,SCT,22000,,,,,,,VFR,,,,,,,,,,,,METAR,1010.0
KHLR 150058Z AUTO 00000KT 10SM OVC050 07/02 A3033 RMK AO2 SLP274 T00740015,KHLR,2019-01-15T00:58:00Z,31.13,-97.72,7.4,1.5,0,0,,10.0,30.33071,1027.4,,TRUE,TRUE,,,,,,,OVC,5000,,,,,,,VFR,,,,,,,,,,,,METAR,283.0
KHEY 150058Z AUTO 00000KT 10SM SCT020 OVC026 06/05 A3026 RMK AO2 CIG 020V026 SLP251 T00610045,KHEY,2019-01-15T00:58:00Z,31.35,-85.65,6.1,4.5,0,0,,10.0,30.259842,1025.1,,TRUE,TRUE,,,,,,,SCT,2000,OVC,2600,,,,,MVFR,,,,,,,,,,,,METAR,97.0
KHUA 150058Z AUTO 01005KT 10SM OVC023 03/00 A3031 RMK AO2 SLP270 T00310000,KHUA,2019-01-15T00:58:00Z,34.68,-86.68,3.1,0.0,10,5,,10.0,30.31004,1027.0,,TRUE,TRUE,,,,,,,OVC,2300,,,,,,,MVFR,,,,,,,,,,,,METAR,209.0
KSXS 150058Z AUTO 32004KT 10SM OVC023 06/04 A3027 RMK AO2 SLP254 T00590036,KSXS,2019-01-15T00:58:00Z,31.37,-85.85,5.9,3.6,320,4,,10.0,30.268702,1025.4,,TRUE,TRUE,,,,,,,OVC,2300,,,,,,,MVFR,,,,,,,,,,,,METAR,122.0
KGOV 150058Z AUTO 26006KT 8SM OVC011 M02/M04 A3013 RMK AO2 SLPNO T10191036 $,KGOV,2019-01-15T00:58:00Z,44.68,-84.73,-1.9,-3.6,260,6,,8.0,30.129921,,,TRUE,TRUE,TRUE,,,,,,OVC,1100,,,,,,,MVFR,,,,,,,,,,,,METAR,353.0
PAFR 150058Z AUTO 05003KT 8SM CLR M04/M05 A2990 RMK AO2 SLP136 T10441055,PAFR,2019-01-15T00:58:00Z,61.27,-149.65,-4.4,-5.5,50,3,,8.0,29.899607,1013.6,,TRUE,TRUE,,,,,,,CLR,,,,,,,,VFR,,,,,,,,,,,,METAR,115.0
KEUF 150058Z AUTO 28005KT 10SM OVC031 08/04 A3025 RMK AO2 SLP243 T00780044 $,KEUF,2019-01-15T00:58:00Z,31.95,-85.13,7.8,4.4,280,5,,10.0,30.250984,1024.3,,TRUE,TRUE,TRUE,,,,,,OVC,3100,,,,,,,VFR,,,,,,,,,,,,METAR,87.0
K0J4 150058Z AUTO 00000KT 10SM OVC019 06/02 A3031 RMK AO2 SLP263 T00610022,K0J4,2019-01-15T00:58:00Z,31.05,-86.32,6.1,2.2,0,0,,10.0,30.31004,1026.3,,TRUE,TRUE,,,,,,,OVC,1900,,,,,,,MVFR,,,,,,,,,,,,METAR,96.0
KBKF 150058Z 18007KT 10SM FEW220 M01/M14 A3017 RMK AO2A SLP249 T10111143,KBKF,2019-01-15T00:58:00Z,39.72,-104.75,-1.1,-14.3,180,7,,10.0,30.171259,1024.9,,,TRUE,,,,,,,FEW,22000,,,,,,,VFR,,,,,,,,,,,,METAR,1726.0
OAIX 150058Z 00000KT 6000 BR OVC100 00/M04 A3020 RMK AO2A SLP208 T10021040 $,OAIX,2019-01-15T00:58:00Z,34.95,69.27,-0.2,-4.0,0,0,,3.73,30.200787,1020.8,,,TRUE,TRUE,,,,,BR,OVC,10000,,,,,,,MVFR,,,,,,,,,,,,METAR,1492.0
PAFB 150058Z AUTO 00000KT 9SM CLR M20/M21 A3004 RMK AO2 SLP190 T11971215 $,PAFB,2019-01-15T00:58:00Z,64.83,-147.62,-19.7,-21.5,0,0,,9.0,30.041338,1019.0,,TRUE,TRUE,TRUE,,,,,,CLR,,,,,,,,VFR,,,,,,,,,,,,METAR,137.0
KT70 150058Z AUTO 14005KT 10SM SCT025 OVC039 09/04 A3030 RMK AO2 SLP261 T00910040 $,KT70,2019-01-15T00:58:00Z,29.12,-100.48,9.1,4.0,140,5,,10.0,30.301182,1026.1,,TRUE,TRUE,TRUE,,,,,,SCT,2500,OVC,3900,,,,,VFR,,,,,,,,,,,,METAR,298.0
KROG 150058Z 22003KT 10SM OVC007 00/M02 A3035 RMK AO2 SLP288 T00001017,KROG,2019-01-15T00:58:00Z,36.37,-94.08,0.0,-1.7,220,3,,10.0,30.351377,1028.8,,,TRUE,,,,,,,OVC,700,,,,,,,IFR,,,,,,,,,,,,METAR,415.0
KFHU 150058Z AUTO 17008KT 10SM CLR 11/M04 A3016 RMK AO2 SLP191 T01141038,KFHU,2019-01-15T00:58:00Z,31.58,-110.35,11.4,-3.8,170,8,,10.0,30.159449,1019.1,,TRUE,TRUE,,,,,,,CLR,,,,,,,,VFR,,,,,,,,,,,,METAR,1438.0
EQYG 150057Z AUTO 26005KT 10SM SCT055 BKN070 OVC085 11/ A2937 RMK AO2 RAE56 SLP941 P0005 T0111 $ ,EQYG,2019-01-15T00:57:00Z,,,11.1,,260,5,,10.0,29.371063,994.1,,TRUE,TRUE,TRUE,,,,,,SCT,5500,BKN,7000,OVC,8500,,,VFR,,,,,,0.05,,,,,,METAR,
KSPI 150057Z 25008KT 10SM OVC011 M02/M03 A3033 RMK AO2 T10171033,KSPI,2019-01-15T00:57:00Z,39.85,-89.68,-1.7,-3.3,250,8,,10.0,30.33071,,,,TRUE,,,,,,,OVC,1100,,,,,,,MVFR,,,,,,,,,,,,METAR,181.0
KEAR 150057Z AUTO 22007KT 1/4SM -SN FZFG OVC003 M01/M02 A3019 RMK AO2 SLP245 P0000 T10111017 FZRANO,KEAR,2019-01-15T00:57:00Z,40.72,-99.0,-1.1,-1.7,220,7,,0.25,30.188976,1024.5,,TRUE,TRUE,,,,TRUE,,-SN FZFG,OVC,300,,,,,,,LIFR,,,,,,0.005,,,,,,SPECI,649.0
PHNG 150057Z AUTO 11007KT 070V130 7SM CLR 27/20 A2997 RMK AO2 SLP142 T02670200 $,PHNG,2019-01-15T00:57:00Z,21.43,-157.77,26.7,20.0,110,7,,7.0,29.970472,1014.2,,TRUE,TRUE,TRUE,,,,,,CLR,,,,,,,,VFR,,,,,,,,,,,,SPECI,3.0
KNYL 150057Z AUTO 23004KT 10SM OVC070 17/10 A3001 RMK AO2 RAE10 SLP160 P0000 T01670100 $,KNYL,2019-01-15T00:57:00Z,32.63,-114.62,16.7,10.0,230,4,,10.0,30.008858,1016.0,,TRUE,TRUE,TRUE,,,,,,OVC,7000,,,,,,,VFR,,,,,,0.005,,,,,,METAR,65.0
KNSI 150057Z AUTO 21005KT 10SM FEW014 14/ A2993 RMK AO2 SLP131 T0139 PNO $,KNSI,2019-01-15T00:57:00Z,33.22,-119.45,13.9,,210,5,,10.0,29.929134,1013.1,,TRUE,TRUE,TRUE,,,,,,FEW,1400,,,,,,,VFR,,,,,,,,,,,,METAR,154.0
KSMO 150057Z 03005KT 1 1/2SM RA BR BKN011 BKN019 OVC035 13/11 A2996 RMK AO2 P0001 T01280106,KSMO,2019-01-15T00:57:00Z,34.02,-118.45,12.8,10.6,30,5,,1.5,29.958662,,,,TRUE,,,,,,RA BR,BKN,1100,BKN,1900,OVC,3500,,,IFR,,,,,,0.01,,,,,,METAR,57.0
KNTD 150057Z 04009KT 10SM SCT019 SCT028 BKN050 BKN200 11/08 A2995 RMK AO2 SLP144 T01060078 $,KNTD,2019-01-15T00:57:00Z,34.12,-119.12,10.6,7.8,40,9,,10.0,29.949802,1014.4,,,TRUE,TRUE,,,,,,SCT,1900,SCT,2800,BKN,5000,BKN,20000,VFR,,,,,,,,,,,,METAR,4.0
KHPN 150056Z 34008KT 10SM CLR M04/M12 A3011,KHPN,2019-01-15T00:56:00Z,41.07,-73.7,-4.0,-12.0,340,8,,10.0,30.109253,,,,,,,,,,,CLR,,,,,,,,VFR,,,,,,,,,,,,METAR,121.0
KSMP 150056Z AUTO VRB05KT 1 1/4SM BR OVC002 M07/M08 A3001 RMK AO2 VIS 3/4V2 SLP206 I1001 T10671083 $,KSMP,2019-01-15T00:56:00Z,47.28,-121.33,-6.7,-8.3,0,5,,1.25,30.008858,1020.6,,TRUE,TRUE,TRUE,,,,,BR,OVC,200,,,,,,,LIFR,,,,,,,,,,,,METAR,1208.0
KNDZ 150056Z 36007KT 10SM OVC018 06/03 A3031 RMK AO2 SLP251 T00560028 $,KNDZ,2019-01-15T00:56:00Z,30.7,-87.02,5.6,2.8,360,7,,10.0,30.31004,1025.1,,,TRUE,TRUE,,,,,,OVC,1800,,,,,,,MVFR,,,,,,,,,,,,METAR,54.0
KNBT 150056Z AUTO 34009KT 10SM OVC080 03/00 A3020 RMK AO2 SLP230 T00330000 PNO $,KNBT,2019-01-15T00:56:00Z,35.02,-76.47,3.3,0.0,340,9,,10.0,30.200787,1023.0,,TRUE,TRUE,TRUE,,,,,,OVC,8000,,,,,,,VFR,,,,,,,,,,,,METAR,5.0
KNSE 150056Z 02010KT 10SM OVC017 06/03 A3030 RMK AO2 SLP251 T00560028 $,KNSE,2019-01-15T00:56:00Z,30.73,-87.02,5.6,2.8,20,10,,10.0,30.301182,1025.1,,,TRUE,TRUE,,,,,,OVC,1700,,,,,,,MVFR,,,,,,,,,,,,SPECI,61.0
KNLC 150056Z 11005KT 10SM BKN060 OVC075 10/08 A2991 RMK AO2 RAE05 SLP129 RH/93 P0000 T01000083,KNLC,2019-01-15T00:56:00Z,36.32,-119.95,10.0,8.3,110,5,,10.0,29.911417,1012.9,,,TRUE,,,,,,,BKN,6000,OVC,7500,,,,,VFR,,,,,,0.005,,,,,,SPECI,72.0
KDRA 150056Z AUTO 10015KT 10SM BKN080 OVC100 09/M01 A2998 RMK AO2 SLP141 T00941006,KDRA,2019-01-15T00:56:00Z,36.62,-116.03,9.4,-0.6,100,15,,10.0,29.97933,1014.1,,TRUE,TRUE,,,,,,,BKN,8000,OVC,10000,,,,,VFR,,,,,,,,,,,,METAR,1006.0
RJTY 150056Z AUTO 00000KT 10SM CLR 03/M03 A3024 RMK AO2 SLP252 T00281031 FZRANO $,RJTY,2019-01-15T00:56:00Z,35.75,139.33,2.8,-3.1,0,0,,10.0,30.239174,1025.2,,TRUE,TRUE,TRUE,,,TRUE,,,CLR,,,,,,,,VFR,,,,,,,,,,,,METAR,139.0
MUGM 150056Z 34007KT 9999 FEW030 SCT070 24/20 A3006 RMK SLP179 T02370203,MUGM,2019-01-15T00:56:00Z,19.9,-75.2,23.7,20.3,340,7,,6.21,30.059055,1017.9,,,,,,,,,,FEW,3000,SCT,7000,,,,,VFR,,,,,,,,,,,,METAR,17.0
KSKF 150056Z AUTO 05003KT 10SM OVC048 09/03 A3036 RMK AO2 SLP284 T00880030,KSKF,2019-01-15T00:56:00Z,29.37,-98.57,8.8,3.0,50,3,,10.0,30.360237,1028.4,,TRUE,TRUE,,,,,,,OVC,4800,,,,,,,VFR,,,,,,,,,,,,METAR,210.0
KPOB 150056Z AUTO 00000KT 10SM OVC038 03/01 A3022 RMK AO2 SLP238 T00320012 $,KPOB,2019-01-15T00:56:00Z,35.17,-79.02,3.2,1.2,0,0,,10.0,30.221457,1023.8,,TRUE,TRUE,TRUE,,,,,,OVC,3800,,,,,,,VFR,,,,,,,,,,,,METAR,66.0
KPAM 150056Z AUTO 34010KT 10SM OVC015 07/04 A3027 RMK AO2 SLPNO T00700036 $,KPAM,2019-01-15T00:56:00Z,30.07,-85.57,7.0,3.6,340,10,,10.0,30.268702,,,TRUE,TRUE,TRUE,,,,,,OVC,1500,,,,,,,MVFR,,,,,,,,,,,,METAR,5.0
KOZR 150056Z AUTO 32003KT 10SM OVC020 06/04 A3027 RMK AO2 SLP254 T00630035 $,KOZR,2019-01-15T00:56:00Z,31.28,-85.72,6.3,3.5,320,3,,10.0,30.268702,1025.4,,TRUE,TRUE,TRUE,,,,,,OVC,2000,,,,,,,MVFR,,,,,,,,,,,,METAR,93.0
KTBN 150056Z AUTO 24005KT 10SM OVC008 M01/M02 A3032 RMK AO2 SLP282 T10081019,KTBN,2019-01-15T00:56:00Z,37.72,-92.12,-0.8,-1.9,240,5,,10.0,30.318897,1028.2,,TRUE,TRUE,,,,,,,OVC,800,,,,,,,IFR,,,,,,,,,,,,METAR,353.0
KSSC 150056Z AUTO 00000KT 10SM SCT032 BKN060 03/02 A3021 RMK AO2 SLP233 T00340018 TSNO $,KSSC,2019-01-15T00:56:00Z,33.97,-80.47,3.4,1.8,0,0,,10.0,30.209646,1023.3,,TRUE,TRUE,TRUE,,TRUE,,,,SCT,3200,BKN,6000,,,,,VFR,,,,,,,,,,,,METAR,74.0
KTIK 150056Z AUTO 17006KT 10SM CLR 04/00 A3032 RMK AO2 SLPNO T00351002,KTIK,2019-01-15T00:56:00Z,35.42,-97.37,3.5,-0.2,170,6,,10.0,30.318897,,,TRUE,TRUE,,,,,,,CLR,,,,,,,,VFR,,,,,,,,,,,,METAR,394.0
KTTS 150056Z AUTO 36004KT 10SM CLR 12/08 A3017 RMK AO2 SLP221 T01150084 $,KTTS,2019-01-15T00:56:00Z,28.62,-80.72,11.5,8.4,360,4,,10.0,30.171259,1022.1,,TRUE,TRUE,TRUE,,,,,,CLR,,,,,,,,VFR,,,,,,,,,,,,METAR,3.0
KWRB 150056Z 32010KT 10SM OVC037 09/03 A3021 RMK AO2A SLP234 T00860032,KWRB,2019-01-15T00:56:00Z,32.62,-83.58,8.6,3.2,320,10,,10.0,30.209646,1023.4,,,TRUE,,,,,,,OVC,3700,,,,,,,VFR,,,,,,,,,,,,METAR,90.0
KVPS 150056Z AUTO 36006KT 10SM OVC015 06/03 A3029 RMK AO2 SLP264 T00640028 VISNO RWY12 $,KVPS,2019-01-15T00:56:00Z,30.47,-86.52,6.4,2.8,360,6,,10.0,30.28937,1026.4,,TRUE,TRUE,TRUE,,,,,,OVC,1500,,,,,,,MVFR,,,,,,,,,,,,METAR,26.0
KBAD 150056Z 36004KT 10SM OVC018 04/00 A3042 RMK AO2A SLP305 T00420003 $,KBAD,2019-01-15T00:56:00Z,32.5,-93.67,4.2,0.3,360,4,,10.0,30.41929,1030.5,,,TRUE,TRUE,,,,,,OVC,1800,,,,,,,MVFR,,,,,,,,,,,,METAR,51.0
KBIX 150056Z AUTO 34006KT 10SM OVC023 07/03 A3033 RMK AO2 SLP274 T00660027,KBIX,2019-01-15T00:56:00Z,30.42,-88.92,6.6,2.7,340,6,,10.0,30.33071,1027.4,,TRUE,TRUE,,,,,,,OVC,2300,,,,,,,MVFR,,,,,,,,,,,,METAR,10.0
KCBM 150056Z AUTO 36007KT 10SM OVC017 04/00 A3036 RMK AO2 SLP285 T00440004 $,KCBM,2019-01-15T00:56:00Z,33.63,-88.45,4.4,0.4,360,7,,10.0,30.360237,1028.5,,TRUE,TRUE,TRUE,,,,,,OVC,1700,,,,,,,MVFR,,,,,,,,,,,,METAR,67.0
KLTS 150056Z AUTO 12007KT 10SM CLR 04/01 A3031 RMK AO2 SLP273 T00360006 $,KLTS,2019-01-15T00:56:00Z,34.67,-99.27,3.6,0.6,120,7,,10.0,30.31004,1027.3,,TRUE,TRUE,TRUE,,,,,,CLR,,,,,,,,VFR,,,,,,,,,,,,METAR,420.0
KFBG 150056Z AUTO 02003KT 10SM FEW029 OVC039 03/02 A3021 RMK AO2 SLP235 T00300017,KFBG,2019-01-15T00:56:00Z,35.12,-78.92,3.0,1.7,20,3,,10.0,30.209646,1023.5,,TRUE,TRUE,,,,,,,FEW,2900,OVC,3900,,,,,VFR,,,,,,,,,,,,METAR,74.0
KHRT 150056Z 36012KT 10SM OVC016 06/03 A3028 RMK AO2A SLP256 T00620025 $,KHRT,2019-01-15T00:56:00Z,30.42,-86.67,6.2,2.5,360,12,,10.0,30.280512,1025.6,,,TRUE,TRUE,,,,,,OVC,1600,,,,,,,MVFR,,,,,,,,,,,,METAR,12.0
KLRF 150056Z AUTO 00000KT 10SM OVC025 05/00 A3038 RMK AO2 SLP293 T00510003 $,KLRF,2019-01-15T00:56:00Z,34.92,-92.15,5.1,0.3,0,0,,10.0,30.380905,1029.3,,TRUE,TRUE,TRUE,,,,,,OVC,2500,,,,,,,MVFR,,,,,,,,,,,,METAR,95.0
KLUF 150056Z AUTO 10003KT 10SM CLR 19/09 A3002 RMK AO2 SLP162 T01860091 $,KLUF,2019-01-15T00:56:00Z,33.52,-112.37,18.6,9.1,100,3,,10.0,30.02067,1016.2,,TRUE,TRUE,TRUE,,,,,,CLR,,,,,,,,VFR,,,,,,,,,,,,METAR,332.0
KRND 150056Z AUTO 01003KT 10SM OVC046 08/03 A3037 RMK AO2 SLP288 T00810030,KRND,2019-01-15T00:56:00Z,29.52,-98.27,8.1,3.0,10,3,,10.0,30.369095,1028.8,,TRUE,TRUE,,,,,,,OVC,4600,,,,,,,VFR,,,,,,,,,,,,METAR,232.0
KVAD 150056Z AUTO 32007KT 10SM OVC019 09/05 A3022 RMK AO2 SLP237 T00870053 $,KVAD,2019-01-15T00:56:00Z,30.97,-83.2,8.7,5.3,320,7,,10.0,30.221457,1023.7,,TRUE,TRUE,TRUE,,,,,,OVC,1900,,,,,,,MVFR,,,,,,,,,,,,METAR,71.0
KXMR 150056Z AUTO 35007KT 10SM CLR 13/09 A3016 RMK AO2 SLP216 T01270086 $,KXMR,2019-01-15T00:56:00Z,28.47,-80.57,12.7,8.6,350,7,,10.0,30.159449,1021.6,,TRUE,TRUE,TRUE,,,,,,CLR,,,,,,,,VFR,,,,,,,,,,,,METAR,3.0
KHST 150056Z AUTO 27007KT 10SM CLR 19/16 A3010 RMK AO2 DZB11E21 SLP196 P0000 T01900157 FZRANO $,KHST,2019-01-15T00:56:00Z,25.47,-80.37,19.0,15.7,270,7,,10.0,30.100393,1019.6,,TRUE,TRUE,TRUE,,,TRUE,,,CLR,,,,,,,,VFR,,,,,,0.005,,,,,,METAR,2.0
KBYS 150056Z AUTO VRB04KT 6SM RA SCT031 BKN036 07/04 A3001 RMK AO2 SHRAE16RAB16 SLPNO WND DATA ESTMD P0010 T00680043,KBYS,2019-01-15T00:56:00Z,35.28,-116.62,6.8,4.3,0,4,,6.0,30.008858,,,TRUE,TRUE,,,,,,RA,SCT,3100,BKN,3600,,,,,VFR,,,,,,0.1,,,,,,METAR,716.0
ROTM 150056Z 09004KT 9999 SCT090 21/14 A3016 RMK SLP201 STNPR29860 T02060144,ROTM,2019-01-15T00:56:00Z,26.27,127.75,20.6,14.4,90,4,,6.21,30.159449,1020.1,,,,,,,,,,SCT,9000,,,,,,,VFR,,,,,,,,,,,,METAR,75.0
KSKA 150056Z 35005KT 10SM CLR M03/M03 A3015 RMK AO2A SLP244 T10341034,KSKA,2019-01-15T00:56:00Z,47.62,-117.65,-3.4,-3.4,350,5,,10.0,30.15059,1024.4,,,TRUE,,,,,,,CLR,,,,,,,,VFR,,,,,,,,,,,,METAR,750.0
OTBH 150056Z 04004KT 9000 BR FEW250 19/16 A3004 RMK AO2A SLP174 T01850157 $,OTBH,2019-01-15T00:56:00Z,25.12,51.32,18.5,15.7,40,4,,5.59,30.041338,1017.4,,,TRUE,TRUE,,,,,BR,FEW,25000,,,,,,,VFR,,,,,,,,,,,,METAR,40.0
KNRS 150056Z 00000KT 9SM -RA FEW006 BKN012 OVC029 14/12 A2997 RMK AO2 SLP150 P0005 T01390122 $,KNRS,2019-01-15T00:56:00Z,32.57,-117.12,13.9,12.2,0,0,,9.0,29.970472,1015.0,,,TRUE,TRUE,,,,,-RA,FEW,600,BKN,1200,OVC,2900,,,MVFR,,,,,,0.05,,,,,,METAR,7.0
KEND 150056Z 15006KT 10SM SCT250 02/02 A3029 RMK AO2A SLP270 T00220015,KEND,2019-01-15T00:56:00Z,36.32,-97.92,2.2,1.5,150,6,,10.0,30.28937,1027.0,,,TRUE,,,,,,,SCT,25000,,,,,,,VFR,,,,,,,,,,,,METAR,398.0
KFSI 150056Z AUTO 18003KT 10SM CLR 03/02 A3032 RMK AO2 SLPNO T00260020 $,KFSI,2019-01-15T00:56:00Z,34.65,-98.4,2.6,2.0,180,3,,10.0,30.318897,,,TRUE,TRUE,TRUE,,,,,,CLR,,,,,,,,VFR,,,,,,,,,,,,METAR,362.0
KMCF 150056Z AUTO 36007G15KT 10SM CLR 13/08 A3018 RMK AO2 SLP223 T01270078 FZRANO $,KMCF,2019-01-15T00:56:00Z,27.85,-82.52,12.7,7.8,360,7,15,10.0,30.180119,1022.3,,TRUE,TRUE,TRUE,,,TRUE,,,CLR,,,,,,,,VFR,,,,,,,,,,,,METAR,4.0
KIAB 150056Z AUTO 18004KT 10SM CLR 00/M01 A3029 RMK AO2 SLP274 T10011010 $,KIAB,2019-01-15T00:56:00Z,37.62,-97.27,-0.1,-1.0,180,4,,10.0,30.28937,1027.4,,TRUE,TRUE,TRUE,,,,,,CLR,,,,,,,,VFR,,,,,,,,,,,,METAR,418.0
KNFL 150056Z 13013KT 10SM FEW050 SCT070 BKN090 BKN150 BKN220 07/M02 A2995 RMK AO2 SLP113 T00721022,KNFL,2019-01-15T00:56:00Z,39.42,-118.7,7.2,-2.2,130,13,,10.0,29.949802,1011.3,,,TRUE,,,,,,,FEW,5000,SCT,7000,BKN,9000,BKN,15000,VFR,,,,,,,,,,,,METAR,1199.0
PFYU 150056Z 00000KT 10SM BKN120 M28/M32 A3026 RMK AO2 SLP281 T12831317 $,PFYU,2019-01-15T00:56:00Z,66.57,-145.27,-28.3,-31.7,0,0,,10.0,30.259842,1028.1,,,TRUE,TRUE,,,,,,BKN,12000,,,,,,,VFR,,,,,,,,,,,,METAR,131.0
KNJK 150056Z 34005KT 10SM -RA BKN075 OVC095 12/10 A3003 RMK AO2 RAB11 SLP185 P0002 T01220100 $,KNJK,2019-01-15T00:56:00Z,32.82,-115.67,12.2,10.0,340,5,,10.0,30.029528,1018.5,,,TRUE,TRUE,,,,,-RA,BKN,7500,OVC,9500,,,,,VFR,,,,,,0.02,,,,,,METAR,-13.0
KCOD 150056Z AUTO 08003KT 10SM CLR M03/M08 A3011 RMK AO2 SLP255 T10331078 FZRANO,KCOD,2019-01-15T00:56:00Z,44.52,-109.02,-3.3,-7.8,80,3,,10.0,30.109253,1025.5,,TRUE,TRUE,,,,TRUE,,,CLR,,,,,,,,VFR,,,,,,,,,,,,METAR,1553.0
KCOE 150056Z AUTO 02010KT 10SM CLR M02/M06 A3017 RMK AO2 SLP265 T10221061 FZRANO,KCOE,2019-01-15T00:56:00Z,47.77,-116.82,-2.2,-6.1,20,10,,10.0,30.171259,1026.5,,TRUE,TRUE,,,,TRUE,,,CLR,,,,,,,,VFR,,,,,,,,,,,,METAR,707.0
KCTB 150056Z AUTO 28011KT 10SM CLR 01/M16 A3002 RMK AO2 SLP205 T00061156,KCTB,2019-01-15T00:56:00Z,48.6,-112.37,0.6,-15.6,280,11,,10.0,30.02067,1020.5,,TRUE,TRUE,,,,,,,CLR,,,,,,,,VFR,,,,,,,,,,,,METAR,1175.0
KCWI 150056Z AUTO 29009KT 5SM BR OVC006 M04/M04 A3030 RMK AO2 SLP290 T10391044 FZRANO,KCWI,2019-01-15T00:56:00Z,41.82,-90.32,-3.9,-4.4,290,9,,5.0,30.301182,1029.0,,TRUE,TRUE,,,,TRUE,,BR,OVC,600,,,,,,,IFR,,,,,,,,,,,,METAR,216.0
KCVO 150056Z AUTO 00000KT 10SM CLR 07/01 A2990 RMK AO2 SLP129 T00720011,KCVO,2019-01-15T00:56:00Z,44.5,-123.27,7.2,1.1,0,0,,10.0,29.899607,1012.9,,TRUE,TRUE,,,,,,,CLR,,,,,,,,VFR,,,,,,,,,,,,METAR,75.0
KCVN 150056Z AUTO 21009KT 10SM CLR 03/M01 A3024 RMK AO2 SLP256 T00331006,KCVN,2019-01-15T00:56:00Z,34.42,-103.07,3.3,-0.6,210,9,,10.0,30.239174,1025.6,,TRUE,TRUE,,,,,,,CLR,,,,,,,,VFR,,,,,,,,,,,,METAR,1284.0
KDIJ 150056Z AUTO 17003KT 9SM CLR M09/M12 A3022 RMK AO2 SLP325 T10891122,KDIJ,2019-01-15T00:56:00Z,43.75,-111.1,-8.9,-12.2,170,3,,9.0,30.221457,1032.5,,TRUE,TRUE,,,,,,,CLR,,,,,,,,VFR,,,,,,,,,,,,METAR,1899.0
KDYR 150056Z AUTO 00000KT 10SM OVC036 02/M01 A3039 RMK AO2 SLP307 T00171011 FZRANO,KDYR,2019-01-15T00:56:00Z,36.0,-89.4,1.7,-1.1,0,0,,10.0,30.389763,1030.7,,TRUE,TRUE,,,,TRUE,,,OVC,3600,,,,,,,VFR,,,,,,,,,,,,METAR,103.0
KDWU 150056Z AUTO 32004KT 10SM OVC012 M01/M03 A3031 RMK AO2 SLP271 T10111028 FZRANO PNO $,KDWU,2019-01-15T00:56:00Z,38.55,-82.73,-1.1,-2.8,320,4,,10.0,30.31004,1027.1,,TRUE,TRUE,TRUE,,,TRUE,,,OVC,1200,,,,,,,MVFR,,,,,,,,,,,,METAR,166.0
KEEN 150056Z AUTO 00000KT 10SM CLR M09/M11 A3011 RMK AO2 SLP217 T10891111 FZRANO $,KEEN,2019-01-15T00:56:00Z,42.88,-72.27,-8.9,-11.1,0,0,,10.0,30.109253,1021.7,,TRUE,TRUE,TRUE,,,TRUE,,,CLR,,,,,,,,VFR,,,,,,,,,,,,METAR,149.0
KEGE 150056Z 10007KT 10SM CLR M08/M12 A3032 RMK AO2 SLP380 T10781122,KEGE,2019-01-15T00:56:00Z,39.63,-106.92,-7.8,-12.2,100,7,,10.0,30.318897,1038.0,,,TRUE,,,,,,,CLR,,,,,,,,VFR,,,,,,,,,,,,METAR,1993.0
KEKY 150056Z AUTO 34009KT 10SM OVC011 03/01 A3032 RMK AO2 SLP292 T00330011,KEKY,2019-01-15T00:56:00Z,33.32,-86.93,3.3,1.1,340,9,,10.0,30.318897,1029.2,,TRUE,TRUE,,,,,,,OVC,1100,,,,,,,MVFR,,,,,,,,,,,,METAR,213.0
KEKQ 150056Z AUTO 35006KT 10SM SCT021 OVC026 01/M01 A3031 RMK AO2 SLP295 T00061011 PNO $,KEKQ,2019-01-15T00:56:00Z,36.85,-84.85,0.6,-1.1,350,6,,10.0,30.31004,1029.5,,TRUE,TRUE,TRUE,,,,,,SCT,2100,OVC,2600,,,,,MVFR,,,,,,,,,,,,METAR,294.0
KESC 150056Z AUTO 28003KT 10SM BKN025 OVC031 M02/M04 A3016 RMK AO2 UPB26E50SNE26 SLP237 P0000 T10171039 FZRANO,KESC,2019-01-15T00:56:00Z,45.75,-87.08,-1.7,-3.9,280,3,,10.0,30.159449,1023.7,,TRUE,TRUE,,,,TRUE,,,BKN,2500,OVC,3100,,,,,MVFR,,,,,,0.005,,,,,,METAR,187.0
KENV 150056Z AUTO 00000KT 10SM OVC015 M03/M06 A3027 RMK AO2 SLP290 T10331061 FZRANO,KENV,2019-01-15T00:56:00Z,40.72,-114.02,-3.3,-6.1,0,0,,10.0,30.268702,1029.0,,TRUE,TRUE,,,,TRUE,,,OVC,1500,,,,,,,MVFR,,,,,,,,,,,,METAR,1292.0
KFCI 150056Z AUTO 00000KT 10SM OVC085 M01/M02 A3021 RMK AO2 SLP251 T10111022 FZRANO,KFCI,2019-01-15T00:56:00Z,37.4,-77.52,-1.1,-2.2,0,0,,10.0,30.209646,1025.1,,TRUE,TRUE,,,,TRUE,,,OVC,8500,,,,,,,VFR,,,,,,,,,,,,METAR,72.0
KFAM 150056Z AUTO 00000KT 10SM OVC013 00/M02 A3034 RMK AO2 SLP283 T00001022 FZRANO,KFAM,2019-01-15T00:56:00Z,37.77,-90.42,0.0,-2.2,0,0,,10.0,30.339567,1028.3,,TRUE,TRUE,,,,TRUE,,,OVC,1300,,,,,,,MVFR,,,,,,,,,,,,METAR,288.0
KEWK 150056Z AUTO 15006KT 5SM BR CLR M01/M02 A3029 RMK AO2 SLP272 T10111022 FZRANO,KEWK,2019-01-15T00:56:00Z,38.03,-97.27,-1.1,-2.2,150,6,,5.0,30.28937,1027.2,,TRUE,TRUE,,,,TRUE,,BR,CLR,,,,,,,,MVFR,,,,,,,,,,,,METAR,467.0
KEUL 150056Z AUTO 36004KT 1 1/4SM HZ CLR M01/M05 A3021 RMK AO2 SLP257 T10061050 FZRANO $,KEUL,2019-01-15T00:56:00Z,43.62,-116.62,-0.6,-5.0,360,4,,1.25,30.209646,1025.7,,TRUE,TRUE,TRUE,,,TRUE,,HZ,CLR,,,,,,,,IFR,,,,,,,,,,,,METAR,740.0
KFLP 150056Z AUTO 25005KT 10SM OVC021 03/M01 A3037 RMK AO2 SLP288 T00281006,KFLP,2019-01-15T00:56:00Z,36.28,-92.58,2.8,-0.6,250,5,,10.0,30.369095,1028.8,,TRUE,TRUE,,,,,,,OVC,2100,,,,,,,MVFR,,,,,,,,,,,,METAR,219.0
KFNL 150056Z AUTO 20004KT 10SM CLR 04/M11 A3016 RMK AO2 SLP237 T00441111 PNO $,KFNL,2019-01-15T00:56:00Z,40.45,-105.02,4.4,-11.1,200,4,,10.0,30.159449,1023.7,,TRUE,TRUE,TRUE,,,,,,CLR,,,,,,,,VFR,,,,,,,,,,,,METAR,1529.0
KFOD 150056Z AUTO 00000KT 6SM BR OVC006 M01/M02 A3024 RMK AO2 SLP283 T10111017 FZRANO,KFOD,2019-01-15T00:56:00Z,42.53,-94.17,-1.1,-1.7,0,0,,6.0,30.239174,1028.3,,TRUE,TRUE,,,,TRUE,,BR,OVC,600,,,,,,,IFR,,,,,,,,,,,,METAR,355.0
KGAD 150056Z AUTO 32005KT 10SM OVC018 03/02 A3032 RMK AO2 SLP273 T00330017,KGAD,2019-01-15T00:56:00Z,33.97,-86.07,3.3,1.7,320,5,,10.0,30.318897,1027.3,,TRUE,TRUE,,,,,,,OVC,1800,,,,,,,MVFR,,,,,,,,,,,,METAR,173.0
KLEW 150056Z AUTO 00000KT 10SM CLR M12/M16 A3009 RMK AO2 SLP206 T11221161 FZRANO,KLEW,2019-01-15T00:56:00Z,44.03,-70.27,-12.2,-16.1,0,0,,10.0,30.088583,1020.6,,TRUE,TRUE,,,,TRUE,,,CLR,,,,,,,,VFR,,,,,,,,,,,,METAR,88.0
KLGD 150056Z AUTO 17014KT 10SM CLR 01/M06 A3013 RMK AO2 PK WND 19027/0022 SLP337 T00111056 FZRANO,KLGD,2019-01-15T00:56:00Z,45.27,-118.0,1.1,-5.6,170,14,,10.0,30.129921,1033.7,,TRUE,TRUE,,,,TRUE,,,CLR,,,,,,,,VFR,,,,,,,,,,,,METAR,827.0
KLRD 150056Z 06006KT 10SM OVC025 10/03 A3036 RMK AO2 SLP301 T01000033,KLRD,2019-01-15T00:56:00Z,27.55,-99.47,10.0,3.3,60,6,,10.0,30.360237,1030.1,,,TRUE,,,,,,,OVC,2500,,,,,,,MVFR,,,,,,,,,,,,METAR,155.0
KLZU 150056Z VRB05KT 10SM OVC034 05/02 A3021 RMK AO2 SLP247 T00500022,KLZU,2019-01-15T00:56:00Z,33.98,-83.97,5.0,2.2,0,5,,10.0,30.209646,1024.7,,,TRUE,,,,,,,OVC,3400,,,,,,,VFR,,,,,,,,,,,,METAR,323.0
KM19 150056Z AUTO 00000KT 10SM OVC026 04/01 A3039 RMK AO2 SLP296 T00390011,KM19,2019-01-15T00:56:00Z,35.65,-91.17,3.9,1.1,0,0,,10.0,30.389763,1029.6,,TRUE,TRUE,,,,,,,OVC,2600,,,,,,,MVFR,,,,,,,,,,,,METAR,73.0
KMBL 150056Z AUTO 27011KT 10SM OVC021 00/M03 A3018 RMK AO2 SLP242 T00001033 FZRANO,KMBL,2019-01-15T00:56:00Z,44.27,-86.25,0.0,-3.3,270,11,,10.0,30.180119,1024.2,,TRUE,TRUE,,,,TRUE,,,OVC,2100,,,,,,,MVFR,,,,,,,,,,,,METAR,189.0
KMJX 150056Z AUTO 00000KT 10SM CLR M09/M11 A3016 RMK AO2 SLP220 T10891111 FZRANO,KMJX,2019-01-15T00:56:00Z,39.93,-74.3,-8.9,-11.1,0,0,,10.0,30.159449,1022.0,,TRUE,TRUE,,,,TRUE,,,CLR,,,,,,,,VFR,,,,,,,,,,,,METAR,25.0
KMKT 150056Z AUTO 32004KT 10SM OVC009 M01/M03 A3023 RMK AO2 SLP252 T10111028 FZRANO,KMKT,2019-01-15T00:56:00Z,44.22,-93.92,-1.1,-2.8,320,4,,10.0,30.230314,1025.2,,TRUE,TRUE,,,,TRUE,,,OVC,900,,,,,,,IFR,,,,,,,,,,,,METAR,311.0
KMKY 150056Z AUTO 31007KT 10SM CLR 16/14 A3015 RMK AO2 SLP210 T01610139,KMKY,2019-01-15T00:56:00Z,26.0,-81.67,16.1,13.9,310,7,,10.0,30.15059,1021.0,,TRUE,TRUE,,,,,,,CLR,,,,,,,,VFR,,,,,,,,,,,,METAR,2.0
KMML 150056Z AUTO 35006KT 10SM OVC004 M04/M04 A3025 RMK AO2 SLP262 T10391044 FZRANO,KMML,2019-01-15T00:56:00Z,44.45,-95.82,-3.9,-4.4,350,6,,10.0,30.250984,1026.2,,TRUE,TRUE,,,,TRUE,,,OVC,400,,,,,,,LIFR,,,,,,,,,,,,METAR,359.0
KMNM 150056Z AUTO VRB04KT 5SM BR OVC027 M02/M04 A3018 RMK AO2 SLP244 T10171039 FZRANO $,KMNM,2019-01-15T00:56:00Z,45.12,-87.62,-1.7,-3.9,0,4,,5.0,30.180119,1024.4,,TRUE,TRUE,TRUE,,,TRUE,,BR,OVC,2700,,,,,,,MVFR,,,,,,,,,,,,METAR,191.0
KMQY 150056Z 31004KT 10SM OVC024 02/00 A3034 RMK AO2 SLP286 T00220000,KMQY,2019-01-15T00:56:00Z,36.02,-86.52,2.2,0.0,310,4,,10.0,30.339567,1028.6,,,TRUE,,,,,,,OVC,2400,,,,,,,MVFR,,,,,,,,,,,,METAR,166.0
KMRF 150056Z AUTO 17005KT 10SM CLR 07/03 A3026 RMK AO2 SLP250 T00720028,KMRF,2019-01-15T00:56:00Z,30.37,-104.02,7.2,2.8,170,5,,10.0,30.259842,1025.0,,TRUE,TRUE,,,,,,,CLR,,,,,,,,VFR,,,,,,,,,,,,METAR,1481.0
KMSV 150056Z AUTO 30005KT 10SM CLR M04/M14 A3009 RMK AO2 SLP216 T10441144 FZRANO,KMSV,2019-01-15T00:56:00Z,41.7,-74.78,-4.4,-14.4,300,5,,10.0,30.088583,1021.6,,TRUE,TRUE,,,,TRUE,,,CLR,,,,,,,,VFR,,,,,,,,,,,,METAR,428.0
KMTW 150056Z AUTO 28008KT 10SM OVC019 M02/M04 A3021 RMK AO2 SLP252 T10171044 FZRANO,KMTW,2019-01-15T00:56:00Z,44.12,-87.67,-1.7,-4.4,280,8,,10.0,30.209646,1025.2,,TRUE,TRUE,,,,TRUE,,,OVC,1900,,,,,,,MVFR,,,,,,,,,,,,METAR,198.0
KOCH 150056Z AUTO 06004KT 10SM CLR 04/01 A3041 RMK AO2 SLP303 T00440011,KOCH,2019-01-15T00:56:00Z,31.57,-94.72,4.4,1.1,60,4,,10.0,30.410433,1030.3,,TRUE,TRUE,,,,,,,CLR,,,,,,,,VFR,,,,,,,,,,,,METAR,108.0
KOLU 150056Z AUTO 22004KT 10SM CLR 01/M01 A3021 RMK AO2 SLP248 T00111006 FZRANO,KOLU,2019-01-15T00:56:00Z,41.45,-97.32,1.1,-0.6,220,4,,10.0,30.209646,1024.8,,TRUE,TRUE,,,,TRUE,,,CLR,,,,,,,,VFR,,,,,,,,,,,,METAR,440.0
KOTG 150056Z AUTO 36006KT 8SM OVC005 M03/M03 A3021 RMK AO2 CIG 004V008 SLP256 T10281033 FZRANO,KOTG,2019-01-15T00:56:00Z,43.63,-95.57,-2.8,-3.3,360,6,,8.0,30.209646,1025.6,,TRUE,TRUE,,,,TRUE,,,OVC,500,,,,,,,IFR,,,,,,,,,,,,METAR,480.0
KOTH 150056Z 00000KT 10SM CLR 11/04 A2983 RMK AO2 SLP100 T01060044,KOTH,2019-01-15T00:56:00Z,43.42,-124.25,10.6,4.4,0,0,,10.0,29.828741,1010.0,,,TRUE,,,,,,,CLR,,,,,,,,VFR,,,,,,,,,,,,METAR,4.0
KOWB 150056Z 00000KT 10SM OVC028 01/M02 A3035 RMK AO2 SLP290 T00061022,KOWB,2019-01-15T00:56:00Z,37.72,-87.17,0.6,-2.2,0,0,,10.0,30.351377,1029.0,,,TRUE,,,,,,,OVC,2800,,,,,,,MVFR,,,,,,,,,,,,METAR,124.0
KPQI 150056Z AUTO 00000KT 10SM CLR M20/M22 A3005 RMK AO2 SLP225 T12001222 FZRANO,KPQI,2019-01-15T00:56:00Z,46.67,-68.03,-20.0,-22.2,0,0,,10.0,30.050198,1022.5,,TRUE,TRUE,,,,TRUE,,,CLR,,,,,,,,VFR,,,,,,,,,,,,METAR,146.0
KPIB 150056Z AUTO 35003KT 10SM OVC024 06/03 A3035 RMK AO2 SLP278 T00610028,KPIB,2019-01-15T00:56:00Z,31.47,-89.32,6.1,2.8,350,3,,10.0,30.351377,1027.8,,TRUE,TRUE,,,,,,,OVC,2400,,,,,,,MVFR,,,,,,,,,,,,METAR,91.0
KPRX 150056Z AUTO 00000KT 10SM OVC017 03/M01 A3040 RMK AO2 SLP314 T00281006,KPRX,2019-01-15T00:56:00Z,33.62,-95.45,2.8,-0.6,0,0,,10.0,30.398623,1031.4,,TRUE,TRUE,,,,,,,OVC,1700,,,,,,,MVFR,,,,,,,,,,,,METAR,167.0
KPTN 150056Z AUTO 04007KT 10SM OVC024 06/03 A3036 RMK AO2 SLP282 T00560033,KPTN,2019-01-15T00:56:00Z,29.72,-91.32,5.6,3.3,40,7,,10.0,30.360237,1028.2,,TRUE,TRUE,,,,,,,OVC,2400,,,,,,,MVFR,,,,,,,,,,,,METAR,3.0
KPTV 150056Z AUTO 35005KT 10SM SCT070 BKN110 11/08 A2992 RMK AO2 SLP146 T01060083,KPTV,2019-01-15T00:56:00Z,36.02,-119.07,10.6,8.3,350,5,,10.0,29.920275,1014.6,,TRUE,TRUE,,,,,,,SCT,7000,BKN,11000,,,,,VFR,,,,,,,,,,,,METAR,135.0
KPVC 150056Z AUTO 01010KT 10SM FEW026 M01/M06 A3009 RMK AO2 SLP189 T10111061 FZRANO,KPVC,2019-01-15T00:56:00Z,42.07,-70.22,-1.1,-6.1,10,10,,10.0,30.088583,1018.9,,TRUE,TRUE,,,,TRUE,,,FEW,2600,,,,,,,VFR,,,,,,,,,,,,METAR,2.0
KPVG 150056Z AUTO 30003KT 10SM CLR M03/M04 A3022 RMK AO2 SLP233 T10281039 FZRANO PNO $,KPVG,2019-01-15T00:56:00Z,36.78,-76.45,-2.8,-3.9,300,3,,10.0,30.221457,1023.3,,TRUE,TRUE,TRUE,,,TRUE,,,CLR,,,,,,,,VFR,,,,,,,,,,,,METAR,7.0
KPVU 150056Z 00000KT 8SM CLR M03/M07 A3024 RMK AO2 SLP282 T10331067,KPVU,2019-01-15T00:56:00Z,40.22,-111.72,-3.3,-6.7,0,0,,8.0,30.239174,1028.2,,,TRUE,,,,,,,CLR,,,,,,,,VFR,,,,,,,,,,,,METAR,1369.0
KPWG 150056Z AUTO 08003KT 10SM CLR 04/02 A3040 RMK AO2 SLP312 T00440017,KPWG,2019-01-15T00:56:00Z,31.47,-97.32,4.4,1.7,80,3,,10.0,30.398623,1031.2,,TRUE,TRUE,,,,,,,CLR,,,,,,,,VFR,,,,,,,,,,,,SPECI,180.0
KPWT 150056Z AUTO 00000KT 10SM CLR 03/02 A2996 RMK AO2 SLP164 T00330022,KPWT,2019-01-15T00:56:00Z,47.5,-122.75,3.3,2.2,0,0,,10.0,29.958662,1016.4,,TRUE,TRUE,,,,,,,CLR,,,,,,,,VFR,,,,,,,,,,,,METAR,147.0
KRKD 150056Z AUTO 28003KT 10SM CLR M11/M13 A3009 RMK AO2 SLP191 T11061128 FZRANO,KRKD,2019-01-15T00:56:00Z,44.07,-69.08,-10.6,-12.8,280,3,,10.0,30.088583,1019.1,,TRUE,TRUE,,,,TRUE,,,CLR,,,,,,,,VFR,,,,,,,,,,,,METAR,17.0
KRUT 150056Z AUTO 00000KT 10SM CLR M11/M13 A3013 RMK AO2 SLP229 T11061128 FZRANO $,KRUT,2019-01-15T00:56:00Z,43.52,-72.95,-10.6,-12.8,0,0,,10.0,30.129921,1022.9,,TRUE,TRUE,TRUE,,,TRUE,,,CLR,,,,,,,,VFR,,,,,,,,,,,,SPECI,240.0
KSDY 150056Z AUTO 21005KT 10SM CLR M02/M05 A3007 RMK AO2 SLP219 T10221050 FZRANO,KSDY,2019-01-15T00:56:00Z,47.7,-104.2,-2.2,-5.0,210,5,,10.0,30.070866,1021.9,,TRUE,TRUE,,,,TRUE,,,CLR,,,,,,,,VFR,,,,,,,,,,,,METAR,605.0
KSFM 150056Z AUTO 00000KT 10SM CLR M11/M13 A3009 RMK AO2 SLP198 T11061133 FZRANO PNO $,KSFM,2019-01-15T00:56:00Z,43.38,-70.72,-10.6,-13.3,0,0,,10.0,30.088583,1019.8,,TRUE,TRUE,TRUE,,,TRUE,,,CLR,,,,,,,,VFR,,,,,,,,,,,,METAR,74.0
KSFZ 150056Z AUTO 00000KT 10SM CLR M06/M10 A3008 RMK AO2 SLP136 T10611100 FZRANO,KSFZ,2019-01-15T00:56:00Z,41.92,-71.5,-6.1,-10.0,0,0,,10.0,30.079725,1013.6,,TRUE,TRUE,,,,TRUE,,,CLR,,,,,,,,VFR,,,,,,,,,,,,METAR,134.0
KSGJ 150056Z 35007KT 10SM BKN019 OVC025 11/07 A3022 RMK AO2 SLP233 T01060072,KSGJ,2019-01-15T00:56:00Z,29.97,-81.32,10.6,7.2,350,7,,10.0,30.221457,1023.3,,,TRUE,,,,,,,BKN,1900,OVC,2500,,,,,MVFR,,,,,,,,,,,,METAR,3.0
KSGT 150056Z AUTO 26005KT 10SM OVC027 05/02 A3040 RMK AO2 SLP297 T00500017,KSGT,2019-01-15T00:56:00Z,34.6,-91.57,5.0,1.7,260,5,,10.0,30.398623,1029.7,,TRUE,TRUE,,,,,,,OVC,2700,,,,,,,MVFR,,,,,,,,,,,,METAR,68.0
KSGU 150056Z AUTO VRB03KT 10SM FEW120 10/M02 A3010 RMK AO2 SLP196 T01001022,KSGU,2019-01-15T00:56:00Z,37.07,-113.52,10.0,-2.2,0,3,,10.0,30.100393,1019.6,,TRUE,TRUE,,,,,,,FEW,12000,,,,,,,VFR,,,,,,,,,,,,METAR,896.0
KSKX 150056Z AUTO 35008KT 10SM OVC060 M04/M07 A3031 RMK AO2 SLP311 T10441067 FZRANO $,KSKX,2019-01-15T00:56:00Z,36.45,-105.67,-4.4,-6.7,350,8,,10.0,30.31004,1031.1,,TRUE,TRUE,TRUE,,,TRUE,,,OVC,6000,,,,,,,VFR,,,,,,,,,,,,METAR,2161.0
KSLG 150056Z AUTO 22006KT 10SM OVC010 01/M01 A3036 RMK AO2 SLP291 T00061011 FZRANO,KSLG,2019-01-15T00:56:00Z,36.2,-94.47,0.6,-1.1,220,6,,10.0,30.360237,1029.1,,TRUE,TRUE,,,,TRUE,,,OVC,1000,,,,,,,MVFR,,,,,,,,,,,,METAR,300.0
KSMN 150056Z AUTO 11003KT 10SM CLR M12/M14 A3030 RMK AO2 SLP333 T11171139 FZRANO,KSMN,2019-01-15T00:56:00Z,45.12,-113.87,-11.7,-13.9,110,3,,10.0,30.301182,1033.3,,TRUE,TRUE,,,,TRUE,,,CLR,,,,,,,,VFR,,,,,,,,,,,,METAR,1233.0
KSOP 150056Z AUTO 00000KT 10SM OVC037 04/01 A3022 RMK AO2 SLP252 T00390011,KSOP,2019-01-15T00:56:00Z,35.22,-79.4,3.9,1.1,0,0,,10.0,30.221457,1025.2,,TRUE,TRUE,,,,,,,OVC,3700,,,,,,,VFR,,,,,,,,,,,,METAR,141.0
K1M4 150056Z AUTO 35005KT 10SM OVC018 03/01 A3034 RMK AO2 SLP297 T00280006,K1M4,2019-01-15T00:56:00Z,34.28,-87.6,2.8,0.6,350,5,,10.0,30.339567,1029.7,,TRUE,TRUE,,,,,,,OVC,1800,,,,,,,MVFR,,,,,,,,,,,,METAR,284.0
K7N0 150056Z AUTO VRB05KT 10SM OVC018 07/02 A3036 RMK AO2 SLP282 T00670022,K7N0,2019-01-15T00:56:00Z,29.95,-90.07,6.7,2.2,0,5,,10.0,30.360237,1028.2,,TRUE,TRUE,,,,,,,OVC,1800,,,,,,,MVFR,,,,,,,,,,,,METAR,0.0
KADF 150056Z AUTO 22003KT 10SM OVC023 05/02 A3042 RMK AO2 SLP306 T00500017,KADF,2019-01-15T00:56:00Z,34.1,-93.07,5.0,1.7,220,3,,10.0,30.41929,1030.6,,TRUE,TRUE,,,,,,,OVC,2300,,,,,,,MVFR,,,,,,,,,,,,METAR,56.0
KAFJ 150056Z AUTO 26006KT 10SM OVC029 M01/M06 A3025 RMK AO2 SLP259 T10111056 FZRANO,KAFJ,2019-01-15T00:56:00Z,40.12,-80.27,-1.1,-5.6,260,6,,10.0,30.250984,1025.9,,TRUE,TRUE,,,,TRUE,,,OVC,2900,,,,,,,MVFR,,,,,,,,,,,,METAR,361.0
KAIZ 150056Z AUTO 22006KT 9SM OVC007 M01/M02 A3035 RMK AO2 SLP287 T10111017 FZRANO,KAIZ,2019-01-15T00:56:00Z,38.1,-92.53,-1.1,-1.7,220,6,,9.0,30.351377,1028.7,,TRUE,TRUE,,,,TRUE,,,OVC,700,,,,,,,IFR,,,,,,,,,,,,METAR,265.0
KAJO 150056Z AUTO 4SM UP RMK AO2 UPE06B27RAB26E27 SLPNO FZRANO $,KAJO,2019-01-15T00:56:00Z,33.9,-117.6,,,,,,4.0,,,,TRUE,TRUE,TRUE,,,TRUE,,UP,,,,,,,,,,,,,,,,,,,,,METAR,163.0
KARG 150056Z AUTO 26004KT 10SM OVC028 04/00 A3038 RMK AO2 SLP291 T00390000,KARG,2019-01-15T00:56:00Z,36.12,-90.92,3.9,0.0,260,4,,10.0,30.380905,1029.1,,TRUE,TRUE,,,,,,,OVC,2800,,,,,,,MVFR,,,,,,,,,,,,METAR,83.0
KASH 150056Z 29003KT 10SM CLR M06/M10 A3010 RMK AO2 SLP204 T10561100 $,KASH,2019-01-15T00:56:00Z,42.78,-71.52,-5.6,-10.0,290,3,,10.0,30.100393,1020.4,,,TRUE,TRUE,,,,,,CLR,,,,,,,,VFR,,,,,,,,,,,,METAR,61.0
KAUO 150056Z AUTO 34010KT OVC017 06/03 A3027 RMK AO2 SLP274 T00560033 PWINO $,KAUO,2019-01-15T00:56:00Z,32.62,-85.42,5.6,3.3,340,10,,,30.268702,1027.4,,TRUE,TRUE,TRUE,,,,TRUE,,OVC,1700,,,,,,,,,,,,,,,,,,,METAR,236.0
KAWO 150056Z AUTO 00000KT 10SM CLR 06/02 A2997 RMK AO2 SLP153 T00560022,KAWO,2019-01-15T00:56:00Z,48.17,-122.17,5.6,2.2,0,0,,10.0,29.970472,1015.3,,TRUE,TRUE,,,,,,,CLR,,,,,,,,VFR,,,,,,,,,,,,METAR,42.0
KBHB 150056Z AUTO 00000KT 10SM CLR M11/M15 A3009 RMK AO2 SLP195 T11061150 FZRANO $,KBHB,2019-01-15T00:56:00Z,44.45,-68.37,-10.6,-15.0,0,0,,10.0,30.088583,1019.5,,TRUE,TRUE,TRUE,,,TRUE,,,CLR,,,,,,,,VFR,,,,,,,,,,,,METAR,26.0
KBID 150056Z AUTO 01003KT 10SM CLR M03/M06 A3011 RMK AO2 SLP200 T10281061 FZRANO,KBID,2019-01-15T00:56:00Z,41.17,-71.58,-2.8,-6.1,10,3,,10.0,30.109253,1020.0,,TRUE,TRUE,,,,TRUE,,,CLR,,,,,,,,VFR,,,,,,,,,,,,METAR,33.0
KBLM 150056Z AUTO 26004KT 10SM CLR M04/M11 A3015 RMK AO2 SLP216 T10441106 FZRANO,KBLM,2019-01-15T00:56:00Z,40.17,-74.12,-4.4,-10.6,260,4,,10.0,30.15059,1021.6,,TRUE,TRUE,,,,TRUE,,,CLR,,,,,,,,VFR,,,,,,,,,,,,METAR,48.0
KBMI 150056Z 24006KT 6SM BR OVC005 M04/M05 A3030 RMK AO2 SLP274 T10391050,KBMI,2019-01-15T00:56:00Z,40.47,-88.92,-3.9,-5.0,240,6,,6.0,30.301182,1027.4,,,TRUE,,,,,,BR,OVC,500,,,,,,,IFR,,,,,,,,,,,,METAR,267.0
KBOK 150056Z AUTO 00000KT 10SM SCT110 14/02 A2982 RMK AO2 SLP113 T01390022,KBOK,2019-01-15T00:56:00Z,42.07,-124.28,13.9,2.2,0,0,,10.0,29.819881,1011.3,,TRUE,TRUE,,,,,,,SCT,11000,,,,,,,VFR,,,,,,,,,,,,METAR,140.0
KBVX 150056Z AUTO 00000KT 10SM OVC027 03/M01 A3037 RMK AO2 SLP290 T00281006,KBVX,2019-01-15T00:56:00Z,35.73,-91.65,2.8,-0.6,0,0,,10.0,30.369095,1029.0,,TRUE,TRUE,,,,,,,OVC,2700,,,,,,,MVFR,,,,,,,,,,,,METAR,141.0
KBTP 150056Z AUTO 30003KT 10SM BKN032 M04/M06 A3021 RMK AO2 SLP258 T10391061 FZRANO,KBTP,2019-01-15T00:56:00Z,40.77,-79.95,-3.9,-6.1,300,3,,10.0,30.209646,1025.8,,TRUE,TRUE,,,,TRUE,,,BKN,3200,,,,,,,VFR,,,,,,,,,,,,METAR,380.0
KBZN 150056Z 10004KT 10SM CLR M06/M11 A3014 RMK AO2 SLP277 T10611106,KBZN,2019-01-15T00:56:00Z,45.78,-111.17,-6.1,-10.6,100,4,,10.0,30.138779,1027.7,,,TRUE,,,,,,,CLR,,,,,,,,VFR,,,,,,,,,,,,SPECI,1361.0
KCGZ 150056Z AUTO 06004KT 10SM CLR 17/09 A3006 RMK AO2 SLP176 T01720094 $,KCGZ,2019-01-15T00:56:00Z,32.95,-111.77,17.2,9.4,60,4,,10.0,30.059055,1017.6,,TRUE,TRUE,TRUE,,,,,,CLR,,,,,,,,VFR,,,,,,,,,,,,METAR,446.0
KSQI 150056Z AUTO 26007KT 5SM BR OVC008 M04/M05 A3030 RMK AO2 SNE45 SLP284 P0000 T10391050 FZRANO,KSQI,2019-01-15T00:56:00Z,41.75,-89.67,-3.9,-5.0,260,7,,5.0,30.301182,1028.4,,TRUE,TRUE,,,,TRUE,,BR,OVC,800,,,,,,,IFR,,,,,,0.005,,,,,,SPECI,197.0
KSRC 150056Z AUTO 21003KT 10SM OVC029 05/02 A3039 RMK AO2 SLP302 T00500022,KSRC,2019-01-15T00:56:00Z,35.22,-91.73,5.0,2.2,210,3,,10.0,30.389763,1030.2,,TRUE,TRUE,,,,,,,OVC,2900,,,,,,,MVFR,,,,,,,,,,,,METAR,80.0
KSUE 150056Z AUTO 25005KT 7SM OVC022 M02/M04 A3018 RMK AO2 SLP244 T10221039 FZRANO,KSUE,2019-01-15T00:56:00Z,44.85,-87.42,-2.2,-3.9,250,5,,7.0,30.180119,1024.4,,TRUE,TRUE,,,,TRUE,,,OVC,2200,,,,,,,MVFR,,,,,,,,,,,,SPECI,221.0
KUDG 150056Z AUTO 00000KT 10SM OVC038 05/03 A3022 RMK AO2 SLP240 T00500033,KUDG,2019-01-15T00:56:00Z,34.45,-79.88,5.0,3.3,0,0,,10.0,30.221457,1024.0,,TRUE,TRUE,,,,,,,OVC,3800,,,,,,,VFR,,,,,,,,,,,,METAR,59.0
KVBT 150056Z AUTO 24006KT 10SM OVC009 01/M01 A3036 RMK AO2 SLP297 T00061011 FZRANO,KVBT,2019-01-15T00:56:00Z,36.35,-94.22,0.6,-1.1,240,6,,10.0,30.360237,1029.7,,TRUE,TRUE,,,,TRUE,,,OVC,900,,,,,,,IFR,,,,,,,,,,,,METAR,395.0
KVIS 150056Z AUTO 33005KT 10SM OVC075 10/09 A2992 RMK AO2 RAE2359 SLP141 T01000089 PNO $,KVIS,2019-01-15T00:56:00Z,36.32,-119.4,10.0,8.9,330,5,,10.0,29.920275,1014.1,,TRUE,TRUE,TRUE,,,,,,OVC,7500,,,,,,,VFR,,,,,,,,,,,,SPECI,89.0
KWVL 150056Z AUTO 10SM CLR M13/M17 A3005 RMK AO2 SLP215 T11331167 FZRANO $,KWVL,2019-01-15T00:56:00Z,44.52,-69.67,-13.3,-16.7,,,,10.0,30.050198,1021.5,,TRUE,TRUE,TRUE,,,TRUE,,,CLR,,,,,,,,VFR,,,,,,,,,,,,SPECI,101.0
KY50 150056Z AUTO 23005KT 7SM OVC010 M03/M05 A3021 RMK AO2 SLP261 T10331050 FZRANO $,KY50,2019-01-15T00:56:00Z,44.03,-89.3,-3.3,-5.0,230,5,,7.0,30.209646,1026.1,,TRUE,TRUE,TRUE,,,TRUE,,,OVC,1000,,,,,,,MVFR,,,,,,,,,,,,METAR,262.0
KNOG 150056Z AUTO 06005KT 10SM BKN047 OVC055 10/04 A3038 RMK AO2 SLP268 T01000039 PWINO $,KNOG,2019-01-15T00:56:00Z,27.9,-98.05,10.0,3.9,60,5,,10.0,30.380905,1026.8,,TRUE,TRUE,TRUE,,,,TRUE,,BKN,4700,OVC,5500,,,,,VFR,,,,,,,,,,,,SPECI,78.0
PABV 150056Z AUTO 00000KT 6SM BR CLR M07/M08 A2996 RMK AO2 SLP155 T10671078 FZRANO,PABV,2019-01-15T00:56:00Z,61.42,-149.52,-6.7,-7.8,0,0,,6.0,29.958662,1015.5,,TRUE,TRUE,,,,TRUE,,BR,CLR,,,,,,,,VFR,,,,,,,,,,,,METAR,29.0
PADK 150056Z AUTO 31015G28KT 10SM UP BKN037 OVC047 00/M06 A2922 RMK AO2 PK WND 29028/0050 UPE03B28SNB03E28 SLP896 P0000 T00001056 FZRANO,PADK,2019-01-15T00:56:00Z,51.88,-176.65,0.0,-5.6,310,15,28,10.0,29.220472,989.6,,TRUE,TRUE,,,,TRUE,,UP,BKN,3700,OVC,4700,,,,,VFR,,,,,,0.005,,,,,,METAR,4.0
PAFM 150056Z AUTO 00000KT 10SM CLR M09/M12 A3002 RMK AO2 SLP181 P0001 T10941117 FZRANO,PAFM,2019-01-15T00:56:00Z,67.1,-157.85,-9.4,-11.7,0,0,,10.0,30.02067,1018.1,,TRUE,TRUE,,,,TRUE,,,CLR,,,,,,,,VFR,,,,,,0.01,,,,,,METAR,88.0
PAFE 150056Z AUTO 05006KT 10SM OVC030 06/04 A3005 RMK AO2 SLP187 T00560044,PAFE,2019-01-15T00:56:00Z,56.97,-133.92,5.6,4.4,50,6,,10.0,30.050198,1018.7,,TRUE,TRUE,,,,,,,OVC,3000,,,,,,,MVFR,,,,,,,,,,,,METAR,9.0
PAGN 150056Z AUTO 00000KT 9SM SCT005 BKN021 OVC055 03/03 A3007 RMK AO2 SLP172 T00330033,PAGN,2019-01-15T00:56:00Z,57.5,-134.58,3.3,3.3,0,0,,9.0,30.070866,1017.2,,TRUE,TRUE,,,,,,,SCT,500,BKN,2100,OVC,5500,,,MVFR,,,,,,,,,,,,METAR,2.0
PAHX 150056Z AUTO 02012KT 10SM OVC100 M08/M10 A2968 RMK AO2 SLP054 T10781100 FZRANO,PAHX,2019-01-15T00:56:00Z,62.7,-159.57,-7.8,-10.0,20,12,,10.0,29.681103,1005.4,,TRUE,TRUE,,,,TRUE,,,OVC,10000,,,,,,,VFR,,,,,,,,,,,,METAR,24.0
PAII 150056Z AUTO 12025G35KT 10SM CLR 05/00 A2942 RMK AO2 PK WND 11042/0003 SLP965 T00500000,PAII,2019-01-15T00:56:00Z,58.18,-157.38,5.0,0.0,120,25,35,10.0,29.421259,996.5,,TRUE,TRUE,,,,,,,CLR,,,,,,,,VFR,,,,,,,,,,,,METAR,30.0
PANA 150056Z AUTO 09013G21KT 10SM OVC090 03/M01 A2935 RMK AO2 SLP937 T00331006,PANA,2019-01-15T00:56:00Z,60.68,-161.98,3.3,-0.6,90,13,21,10.0,29.350393,993.7,,TRUE,TRUE,,,,,,,OVC,9000,,,,,,,VFR,,,,,,,,,,,,METAR,5.0
PANI 150056Z AUTO 11023G30KT 10SM CLR 05/M02 A2952 RMK AO2 PK WND 12030/0050 SLP964 T00501017,PANI,2019-01-15T00:56:00Z,61.58,-159.53,5.0,-1.7,110,23,30,10.0,29.518702,996.4,,TRUE,TRUE,,,,,,,CLR,,,,,,,,VFR,,,,,,,,,,,,METAR,26.0
PASL 150056Z AUTO 18004KT 10SM OVC090 M09/M12 A2975 RMK AO2 SLP071 T10941117 FZRANO,PASL,2019-01-15T00:56:00Z,61.72,-157.15,-9.4,-11.7,180,4,,10.0,29.749016,1007.1,,TRUE,TRUE,,,,TRUE,,,OVC,9000,,,,,,,VFR,,,,,,,,,,,,METAR,55.0
PAZK 150056Z AUTO 00000KT 10SM CLR M12/M13 A2990 RMK AO2 SLP210 T11171128 FZRANO,PAZK,2019-01-15T00:56:00Z,61.93,-147.17,-11.7,-12.8,0,0,,10.0,29.899607,1021.0,,TRUE,TRUE,,,,TRUE,,,CLR,,,,,,,,VFR,,,,,,,,,,,,METAR,1003.0
PFCL 150056Z AUTO 10023G31KT 10SM FEW075 04/M01 RMK AO2 PK WND 10031/0053 SLPNO T00391006 TSNO $,PFCL,2019-01-15T00:56:00Z,58.83,-158.53,3.9,-0.6,100,23,31,10.0,,,,TRUE,TRUE,TRUE,,TRUE,,,,FEW,7500,,,,,,,VFR,,,,,,,,,,,,METAR,24.0
PFEL 150056Z AUTO 02013G20KT 9SM -SN BKN075 OVC100 M01/M07 A2972 RMK AO2 SNB42 SLP067 P0000 T10111072 FZRANO,PFEL,2019-01-15T00:56:00Z,64.62,-162.27,-1.1,-7.2,20,13,20,9.0,29.719488,1006.7,,TRUE,TRUE,,,,TRUE,,-SN,BKN,7500,OVC,10000,,,,,VFR,,,,,,0.005,,,,,,METAR,49.0
PFKW 150056Z AUTO 10014KT 10SM FEW085 OVC110 04/M01 A2938 RMK AO2 SLP948 T00441011,PFKW,2019-01-15T00:56:00Z,60.8,-161.43,4.4,-1.1,100,14,,10.0,29.379921,994.8,,TRUE,TRUE,,,,,,,FEW,8500,OVC,11000,,,,,VFR,,,,,,,,,,,,METAR,8.0
PFNO 150056Z AUTO 05018KT 10SM CLR M07/M10 A2990 RMK AO2 PK WND 07026/0009 SLP127 T10721100 FZRANO,PFNO,2019-01-15T00:56:00Z,66.82,-161.02,-7.2,-10.0,50,18,,10.0,29.899607,1012.7,,TRUE,TRUE,,,,TRUE,,,CLR,,,,,,,,VFR,,,,,,,,,,,,METAR,17.0
PFWS 150056Z AUTO 10019KT 10SM CLR 06/M01 A2947 RMK AO2 SLP987 T00561006,PFWS,2019-01-15T00:56:00Z,58.7,-157.0,5.6,-0.6,100,19,,10.0,29.471457,998.7,,TRUE,TRUE,,,,,,,CLR,,,,,,,,VFR,,,,,,,,,,,,METAR,49.0
PPIT 150056Z AUTO 09019KT 10SM SCT070 OVC090 03/00 A2934 RMK AO2 SLP935 T00280000 TSNO,PPIT,2019-01-15T00:56:00Z,60.9,-162.43,2.8,0.0,90,19,,10.0,29.338583,993.5,,TRUE,TRUE,,,TRUE,,,,SCT,7000,OVC,9000,,,,,VFR,,,,,,,,,,,,METAR,4.0
KGAI 150056Z AUTO 00000KT 10SM CLR M06/M08 A3019 RMK AO2 SLP255 T10611078 FZRANO,KGAI,2019-01-15T00:56:00Z,39.17,-77.17,-6.1,-7.8,0,0,,10.0,30.188976,1025.5,,TRUE,TRUE,,,,TRUE,,,CLR,,,,,,,,VFR,,,,,,,,,,,,METAR,165.0
KGDV 150056Z AUTO 24006KT 10SM CLR M02/M06 A3007 RMK AO2 SLP220 T10221061 FZRANO,KGDV,2019-01-15T00:56:00Z,47.12,-104.78,-2.2,-6.1,240,6,,10.0,30.070866,1022.0,,TRUE,TRUE,,,,TRUE,,,CLR,,,,,,,,VFR,,,,,,,,,,,,METAR,749.0
KGPZ 150056Z AUTO 00000KT 10SM CLR M10/M11 A3021 RMK AO2 SLP257 T11001111 FZRANO,KGPZ,2019-01-15T00:56:00Z,47.22,-93.52,-10.0,-11.1,0,0,,10.0,30.209646,1025.7,,TRUE,TRUE,,,,TRUE,,,CLR,,,,,,,,VFR,,,,,,,,,,,,SPECI,413.0
KGTR 150056Z 35006KT 10SM OVC017 04/01 A3037 RMK AO2 SLP286 T00390011,KGTR,2019-01-15T00:56:00Z,33.45,-88.57,3.9,1.1,350,6,,10.0,30.369095,1028.6,,,TRUE,,,,,,,OVC,1700,,,,,,,MVFR,,,,,,,,,,,,METAR,80.0
KGUC 150056Z AUTO 02004KT 10SM CLR M12/M16 A3033 RMK AO2 SLP416 T11221156 FZRANO,KGUC,2019-01-15T00:56:00Z,38.52,-106.92,-12.2,-15.6,20,4,,10.0,30.33071,1041.6,,TRUE,TRUE,,,,TRUE,,,CLR,,,,,,,,VFR,,,,,,,,,,,,METAR,2339.0
KGVQ 150056Z AUTO 25005KT 10SM CLR M07/M12 A3018 RMK AO2 SLP252 T10671117 FZRANO,KGVQ,2019-01-15T00:56:00Z,43.03,-78.17,-6.7,-11.7,250,5,,10.0,30.180119,1025.2,,TRUE,TRUE,,,,TRUE,,,CLR,,,,,,,,VFR,,,,,,,,,,,,METAR,278.0
KGXY 150056Z AUTO 11003KT 10SM CLR 02/M10 A3017 RMK AO2 SLP269 T00221100 FZRANO,KGXY,2019-01-15T00:56:00Z,40.42,-104.62,2.2,-10.0,110,3,,10.0,30.171259,1026.9,,TRUE,TRUE,,,,TRUE,,,CLR,,,,,,,,VFR,,,,,,,,,,,,METAR,1420.0
KHDN 150056Z AUTO 18004KT 10SM CLR M18/M22 A3032 RMK AO2 SLP405 T11831217 FZRANO,KHDN,2019-01-15T00:56:00Z,40.47,-107.22,-18.3,-21.7,180,4,,10.0,30.318897,1040.5,,TRUE,TRUE,,,,TRUE,,,CLR,,,,,,,,VFR,,,,,,,,,,,,SPECI,2012.0
KHEZ 150056Z AUTO 36008KT 10SM OVC015 04/01 A3039 RMK AO2 SLP297 T00390011,KHEZ,2019-01-15T00:56:00Z,31.62,-91.3,3.9,1.1,360,8,,10.0,30.389763,1029.7,,TRUE,TRUE,,,,,,,OVC,1500,,,,,,,MVFR,,,,,,,,,,,,METAR,83.0
KHNB 150056Z AUTO 26005KT 10SM OVC021 01/M02 A3034 RMK AO2 SLP280 T00061022 FZRANO,KHNB,2019-01-15T00:56:00Z,38.25,-86.95,0.6,-2.2,260,5,,10.0,30.339567,1028.0,,TRUE,TRUE,,,,TRUE,,,OVC,2100,,,,,,,MVFR,,,,,,,,,,,,METAR,161.0
KHND 150056Z 00000KT 9SM RA OVC044 09/04 A3008 RMK AO2 RAE06B31 SLP193 P0001 T00890039 $,KHND,2019-01-15T00:56:00Z,35.98,-115.13,8.9,3.9,0,0,,9.0,30.079725,1019.3,,,TRUE,TRUE,,,,,RA,OVC,4400,,,,,,,VFR,,,,,,0.01,,,,,,METAR,749.0
KHYI 150056Z AUTO 10003KT 10SM OVC050 08/04 A3038 RMK AO2 SLP290 T00830039,KHYI,2019-01-15T00:56:00Z,29.88,-97.87,8.3,3.9,100,3,,10.0,30.380905,1029.0,,TRUE,TRUE,,,,,,,OVC,5000,,,,,,,VFR,,,,,,,,,,,,SPECI,182.0
KHYS 150056Z AUTO 24008KT 3SM BR OVC003 00/M01 A3024 RMK AO2 SLP260 T00001006 FZRANO,KHYS,2019-01-15T00:56:00Z,38.85,-99.27,0.0,-0.6,240,8,,3.0,30.239174,1026.0,,TRUE,TRUE,,,,TRUE,,BR,OVC,300,,,,,,,LIFR,,,,,,,,,,,,METAR,609.0
KILE 150056Z AUTO 00000KT 10SM OVC050 07/02 A3038 RMK AO2 SLP310 T00720022,KILE,2019-01-15T00:56:00Z,31.07,-97.67,7.2,2.2,0,0,,10.0,30.380905,1031.0,,TRUE,TRUE,,,,,,,OVC,5000,,,,,,,VFR,,,,,,,,,,,,METAR,258.0
KISM 150056Z 02010KT 10SM CLR 14/09 A3018 RMK AO2 SLP224 T01390089 PNO $,KISM,2019-01-15T00:56:00Z,28.28,-81.43,13.9,8.9,20,10,,10.0,30.180119,1022.4,,,TRUE,TRUE,,,,,,CLR,,,,,,,,VFR,,,,,,,,,,,,METAR,25.0
KITH 150056Z 00000KT 10SM CLR M12/M16 A3016 RMK AO2 SLP237 T11221161,KITH,2019-01-15T00:56:00Z,42.47,-76.45,-12.2,-16.1,0,0,,10.0,30.159449,1023.7,,,TRUE,,,,,,,CLR,,,,,,,,VFR,,,,,,,,,,,,METAR,335.0
KIWD 150056Z AUTO 29004KT 10SM OVC018 M03/M04 A3018 RMK AO2 SLP239 T10281044 FZRANO PNO $,KIWD,2019-01-15T00:56:00Z,46.52,-90.12,-2.8,-4.4,290,4,,10.0,30.180119,1023.9,,TRUE,TRUE,TRUE,,,TRUE,,,OVC,1800,,,,,,,MVFR,,,,,,,,,,,,METAR,375.0
KJAC 150056Z 00000KT 10SM CLR M14/M18 A3023 RMK AO2 SLP381 T11441183,KJAC,2019-01-15T00:56:00Z,43.62,-110.73,-14.4,-18.3,0,0,,10.0,30.230314,1038.1,,,TRUE,,,,,,,CLR,,,,,,,,VFR,,,,,,,,,,,,SPECI,1961.0
KJHW 150056Z AUTO 30005KT 10SM OVC005 M07/M08 A3016 RMK AO2 SLP253 T10671078 FZRANO,KJHW,2019-01-15T00:56:00Z,42.13,-79.27,-6.7,-7.8,300,5,,10.0,30.159449,1025.3,,TRUE,TRUE,,,,TRUE,,,OVC,500,,,,,,,IFR,,,,,,,,,,,,METAR,525.0
KJRB 150056Z AUTO 03004KT 10SM CLR 00/M10 A3016 RMK AO2 SLP213 T00001100 FZRANO,KJRB,2019-01-15T00:56:00Z,40.7,-74.02,0.0,-10.0,30,4,,10.0,30.159449,1021.3,,TRUE,TRUE,,,,TRUE,,,CLR,,,,,,,,VFR,,,,,,,,,,,,METAR,7.0
KKLS 150056Z AUTO 15005KT 10SM CLR 08/M03 A2997 RMK AO2 SLP152 T00781028,KKLS,2019-01-15T00:56:00Z,46.12,-122.9,7.8,-2.8,150,5,,10.0,29.970472,1015.2,,TRUE,TRUE,,,,,,,CLR,,,,,,,,VFR,,,,,,,,,,,,METAR,5.0
KLBL 150056Z AUTO 02005KT 10SM CLR M01/M02 A3024 RMK AO2 SLP264 T10111022 FZRANO,KLBL,2019-01-15T00:56:00Z,37.03,-100.97,-1.1,-2.2,20,5,,10.0,30.239174,1026.4,,TRUE,TRUE,,,,TRUE,,,CLR,,,,,,,,VFR,,,,,,,,,,,,METAR,879.0
KLCI 150056Z AUTO 23003KT 10SM CLR M11/M13 A3008 RMK AO2 SLP205 T11061128 FZRANO $,KLCI,2019-01-15T00:56:00Z,43.57,-71.42,-10.6,-12.8,230,3,,10.0,30.079725,1020.5,,TRUE,TRUE,TRUE,,,TRUE,,,CLR,,,,,,,,VFR,,,,,,,,,,,,METAR,166.0
KCEF 150056Z 36004KT 10SM SCT240 M07/M10 A3009 RMK AO2A SLP200 T10701105,KCEF,2019-01-15T00:56:00Z,42.2,-72.52,-7.0,-10.5,360,4,,10.0,30.088583,1020.0,,,TRUE,,,,,,,SCT,24000,,,,,,,VFR,,,,,,,,,,,,METAR,75.0
KSVN 150056Z AUTO 02005KT 10SM OVC013 08/05 A3020 RMK AO2 SLP230 T00810047 FZRANO $,KSVN,2019-01-15T00:56:00Z,32.02,-81.15,8.1,4.7,20,5,,10.0,30.200787,1023.0,,TRUE,TRUE,TRUE,,,TRUE,,,OVC,1300,,,,,,,MVFR,,,,,,,,,,,,METAR,13.0
KMXF 150056Z AUTO 31007KT 10SM OVC018 06/02 A3029 RMK AO2 SLP261 T00640023 $,KMXF,2019-01-15T00:56:00Z,32.37,-86.37,6.4,2.3,310,7,,10.0,30.28937,1026.1,,TRUE,TRUE,TRUE,,,,,,OVC,1800,,,,,,,MVFR,,,,,,,,,,,,METAR,51.0
KMMT 150056Z AUTO 00000KT 10SM FEW024 OVC039 06/03 A3022 RMK AO2 SLP238 T00550030 $,KMMT,2019-01-15T00:56:00Z,33.92,-80.78,5.5,3.0,0,0,,10.0,30.221457,1023.8,,TRUE,TRUE,TRUE,,,,,,FEW,2400,OVC,3900,,,,,VFR,,,,,,,,,,,,METAR,77.0
KCWN 150056Z AUTO 29005KT 10SM CLR M01/M11 A3013 RMK AO2 SLP146 T10061113 $,KCWN,2019-01-15T00:56:00Z,38.75,-104.85,-0.6,-11.3,290,5,,10.0,30.129921,1014.6,,TRUE,TRUE,TRUE,,,,,,CLR,,,,,,,,VFR,,,,,,,,,,,,METAR,2040.0
KFCS 150056Z AUTO 28006KT 10SM CLR 03/M12 A3017 RMK AO2 SLP276 T00291118 $,KFCS,2019-01-15T00:56:00Z,38.67,-104.77,2.9,-11.8,280,6,,10.0,30.171259,1027.6,,TRUE,TRUE,TRUE,,,,,,CLR,,,,,,,,VFR,,,,,,,,,,,,METAR,1789.0
KMUO 150056Z AUTO 33007KT 10SM CLR M02/M02 A3018 RMK AO2 SLP255 T10191019 $,KMUO,2019-01-15T00:56:00Z,43.03,-115.87,-1.9,-1.9,330,7,,10.0,30.180119,1025.5,,TRUE,TRUE,TRUE,,,,,,CLR,,,,,,,,VFR,,,,,,,,,,,,METAR,913.0
K1EM 150056Z AUTO 13006KT 10SM M 01/M12 A3001 RMK AO2 SLP202 T00131124 $,K1EM,2019-01-15T00:56:00Z,47.45,-109.42,1.3,-12.4,130,6,,10.0,30.008858,1020.2,,TRUE,TRUE,TRUE,,,,,,,,,,,,,,,,,,,,,,,,,,METAR,1116.0
K1JM 150056Z AUTO 26009KT 10SM CLR M03/M15 A3002 RMK AO2 SLP238 T10261153 $,K1JM,2019-01-15T00:56:00Z,47.75,-111.55,-2.6,-15.3,260,9,,10.0,30.02067,1023.8,,TRUE,TRUE,TRUE,,,,,,CLR,,,,,,,,VFR,,,,,,,,,,,,METAR,1152.0
K4MR 150056Z AUTO 22010KT 10SM CLR 05/01 A3023 RMK AO2 SLP237 T00470007 TSNO $,K4MR,2019-01-15T00:56:00Z,34.3,-103.8,4.7,0.7,220,10,,10.0,30.230314,1023.7,,TRUE,TRUE,TRUE,,TRUE,,,,CLR,,,,,,,,VFR,,,,,,,,,,,,METAR,1326.0
KFEW 150056Z AUTO 27005KT 10SM CLR M05/M12 A3017 RMK AO2 SLP277 T10491124 $,KFEW,2019-01-15T00:56:00Z,41.13,-104.87,-4.9,-12.4,270,5,,10.0,30.171259,1027.7,,TRUE,TRUE,TRUE,,,,,,CLR,,,,,,,,VFR,,,,,,,,,,,,METAR,1878.0
KLFI 150056Z AUTO 32004KT 10SM SCT065 M01/M03 A3019 RMK AO2 SLP230 T10101035 $,KLFI,2019-01-15T00:56:00Z,37.07,-76.37,-1.0,-3.5,320,4,,10.0,30.188976,1023.0,,TRUE,TRUE,TRUE,,,,,,SCT,6500,,,,,,,VFR,,,,,,,,,,,,METAR,3.0
KAFF 150056Z AUTO 35007KT 10SM CLR M06/M15 A3018 RMK AO2 SLP296 T10591149,KAFF,2019-01-15T00:56:00Z,38.97,-104.82,-5.9,-14.9,350,7,,10.0,30.180119,1029.6,,TRUE,TRUE,,,,,,,CLR,,,,,,,,VFR,,,,,,,,,,,,METAR,2003.0
PARY 150056Z AUTO 07012KT 10SM CLR M16/M20 A2993 RMK AO2 SLP166 T11611200 FZRANO,PARY,2019-01-15T00:56:00Z,64.73,-155.47,-16.1,-20.0,70,12,,10.0,29.929134,1016.6,,TRUE,TRUE,,,,TRUE,,,CLR,,,,,,,,VFR,,,,,,,,,,,,METAR,199.0
PARS 150056Z AUTO 07009G16KT 10SM BKN110 M01/M04 A2950 RMK AO2 SLP993 T10111039 FZRANO $,PARS,2019-01-15T00:56:00Z,61.77,-161.32,-1.1,-3.9,70,9,16,10.0,29.500984,999.3,,TRUE,TRUE,TRUE,,,TRUE,,,BKN,11000,,,,,,,VFR,,,,,,,,,,,,METAR,16.0
PARC 150056Z AUTO 5SM HZ CLR A3000 RMK AO2 SLPNO FZRANO $,PARC,2019-01-15T00:56:00Z,68.12,-145.58,,,,,,5.0,30.0,,,TRUE,TRUE,TRUE,,,TRUE,,HZ,CLR,,,,,,,,MVFR,,,,,,,,,,,,METAR,636.0
PAPG 150056Z 00000KT 10SM FEW005 SCT042 BKN065 03/03 A3005 RMK AO2 SLP178 T00330033,PAPG,2019-01-15T00:56:00Z,56.82,-132.97,3.3,3.3,0,0,,10.0,30.050198,1017.8,,,TRUE,,,,,,,FEW,500,SCT,4200,BKN,6500,,,VFR,,,,,,,,,,,,METAR,15.0
PAOU 150056Z AUTO 14012KT 10SM OVC025 03/01 A2915 RMK AO2 SLP870 T00280011,PAOU,2019-01-15T00:56:00Z,56.0,-161.17,2.8,1.1,140,12,,10.0,29.149607,987.0,,TRUE,TRUE,,,,,,,OVC,2500,,,,,,,MVFR,,,,,,,,,,,,METAR,4.0
PANW 150056Z AUTO 10022G39KT 10SM CLR 03/01 A2952 RMK AO2 PK WND 11039/0053 SLP014 T00330006,PANW,2019-01-15T00:56:00Z,59.45,-157.37,3.3,0.6,100,22,39,10.0,29.518702,1001.4,,TRUE,TRUE,,,,,,,CLR,,,,,,,,VFR,,,,,,,,,,,,METAR,92.0
PAMM 150056Z AUTO 11005KT 10SM SCT055 BKN095 09/04 A3000 RMK AO2 SLP150 T00940044,PAMM,2019-01-15T00:56:00Z,55.13,-131.58,9.4,4.4,110,5,,10.0,30.0,1015.0,,TRUE,TRUE,,,,,,,SCT,5500,BKN,9500,,,,,VFR,,,,,,,,,,,,METAR,1.0
PAMK 150056Z AUTO 09025KT 10SM BKN110 M01/M06 A2960 RMK AO2 PK WND 09031/0039 SLP027 T10111061 FZRANO,PAMK,2019-01-15T00:56:00Z,63.48,-162.12,-1.1,-6.1,90,25,,10.0,29.601377,1002.7,,TRUE,TRUE,,,,TRUE,,,BKN,11000,,,,,,,VFR,,,,,,,,,,,,METAR,28.0
KRCA 150056Z AUTO 00000KT 10SM CLR 00/M04 A3011 RMK AO2 SLP239 T10021039 $,KRCA,2019-01-15T00:56:00Z,44.13,-103.08,-0.2,-3.9,0,0,,10.0,30.109253,1023.9,,TRUE,TRUE,TRUE,,,,,,CLR,,,,,,,,VFR,,,,,,,,,,,,METAR,999.0
KHMN 150056Z AUTO 30004KT 10SM FEW170 09/02 A3024 RMK AO2 SLP231 T00860015 $,KHMN,2019-01-15T00:56:00Z,32.85,-106.08,8.6,1.5,300,4,,10.0,30.239174,1023.1,,TRUE,TRUE,TRUE,,,,,,FEW,17000,,,,,,,VFR,,,,,,,,,,,,SPECI,1248.0
KGFA 150056Z AUTO 24006KT 10SM CLR 00/M13 A3003 RMK AO2 SLP225 T10011130 $,KGFA,2019-01-15T00:56:00Z,47.5,-111.17,-0.1,-13.0,240,6,,10.0,30.029528,1022.5,,TRUE,TRUE,TRUE,,,,,,CLR,,,,,,,,VFR,,,,,,,,,,,,METAR,1075.0
KDOV 150056Z AUTO 28005KT 10SM CLR M04/M10 A3018 RMK AO2 SLP224 T10361100 $,KDOV,2019-01-15T00:56:00Z,39.12,-75.47,-3.6,-10.0,280,5,,10.0,30.180119,1022.4,,TRUE,TRUE,TRUE,,,,,,CLR,,,,,,,,VFR,,,,,,,,,,,,METAR,9.0
KDMA 150056Z AUTO 07004KT 10SM FEW085 17/06 A3007 RMK AO2 SLP167 T01660055 $,KDMA,2019-01-15T00:56:00Z,32.17,-110.87,16.6,5.5,70,4,,10.0,30.070866,1016.7,,TRUE,TRUE,TRUE,,,,,,FEW,8500,,,,,,,VFR,,,,,,,,,,,,METAR,824.0
KDLF 150056Z 16008KT 10SM OVC036 09/04 A3035 RMK AO2A SLP280 T00940040,KDLF,2019-01-15T00:56:00Z,29.37,-100.77,9.4,4.0,160,8,,10.0,30.351377,1028.0,,,TRUE,,,,,,,OVC,3600,,,,,,,VFR,,,,,,,,,,,,METAR,330.0
KDAA 150056Z AUTO 00000KT 10SM CLR M05/M06 A3021 RMK AO2 SLPNO T10481062 $,KDAA,2019-01-15T00:56:00Z,38.72,-77.17,-4.8,-6.2,0,0,,10.0,30.209646,,,TRUE,TRUE,TRUE,,,,,,CLR,,,,,,,,VFR,,,,,,,,,,,,METAR,21.0
PASH 150056Z AUTO 09019KT 7SM BKN120 M07/M08 A2970 RMK AO2 SLP058 T10721078 FZRANO,PASH,2019-01-15T00:56:00Z,66.27,-166.08,-7.2,-7.8,90,19,,7.0,29.698818,1005.8,,TRUE,TRUE,,,,TRUE,,,BKN,12000,,,,,,,VFR,,,,,,,,,,,,METAR,2.0
PASK 150056Z AUTO 06016KT 10SM CLR M10/M12 RMK AO2 SLPNO T11001117 FZRANO $,PASK,2019-01-15T00:56:00Z,66.6,-160.0,-10.0,-11.7,60,16,,10.0,,,,TRUE,TRUE,TRUE,,,TRUE,,,CLR,,,,,,,,VFR,,,,,,,,,,,,METAR,8.0
PASX 150056Z AUTO 09003KT 10SM CLR M03/M04 A2991 RMK AO2 SLP140 T10331039 FZRANO,PASX,2019-01-15T00:56:00Z,60.48,-151.03,-3.3,-3.9,90,3,,10.0,29.911417,1014.0,,TRUE,TRUE,,,,TRUE,,,CLR,,,,,,,,VFR,,,,,,,,,,,,METAR,32.0
PATG 150056Z AUTO 11033G41KT 10SM FEW025 SCT030 OVC047 04/M01 A2932 RMK AO2 PK WND 10041/0049 PRESRR SLP022 T00391011,PATG,2019-01-15T00:56:00Z,59.05,-160.38,3.9,-1.1,110,33,41,10.0,29.320866,1002.2,,TRUE,TRUE,,,,,,,FEW,2500,SCT,3000,OVC,4700,,,VFR,,,,,,,,,,,,METAR,4.0
PAUN 150056Z AUTO 07020KT 10SM SCT070 M04/M09 A2973 RMK AO2 PK WND 08029/0035 SLP072 T10441089 FZRANO,PAUN,2019-01-15T00:56:00Z,63.88,-160.8,-4.4,-8.9,70,20,,10.0,29.731298,1007.2,,TRUE,TRUE,,,,TRUE,,,SCT,7000,,,,,,,VFR,,,,,,,,,,,,METAR,6.0
PAVC 150056Z AUTO 12012KT 4SM -RA BR OVC018 04/02 A2913 RMK AO2 SLP871 P0001 T00390022,PAVC,2019-01-15T00:56:00Z,55.12,-162.27,3.9,2.2,120,12,,4.0,29.128937,987.1,,TRUE,TRUE,,,,,,-RA BR,OVC,1800,,,,,,,MVFR,,,,,,0.01,,,,,,METAR,47.0
PAVD 150056Z 00000KT 10SM SCT090 BKN150 M04/M06 A3004 RMK AO2 SLP198 T10441061,PAVD,2019-01-15T00:56:00Z,61.13,-146.25,-4.4,-6.1,0,0,,10.0,30.041338,1019.8,,,TRUE,,,,,,,SCT,9000,BKN,15000,,,,,VFR,,,,,,,,,,,,METAR,37.0
PAWM 150056Z AUTO 09018G25KT 10SM BKN090 OVC100 01/M06 A2965 RMK AO2 PK WND 10028/0035 SLP046 T00111061 FZRANO,PAWM,2019-01-15T00:56:00Z,64.68,-163.42,1.1,-6.1,90,18,25,10.0,29.648623,1004.6,,TRUE,TRUE,,,,TRUE,,,BKN,9000,OVC,10000,,,,,VFR,,,,,,,,,,,,METAR,82.0
PAWN 150056Z AUTO 03005KT 10SM CLR M09/M11 A2991 RMK AO2 SLP142 T10891106 FZRANO,PAWN,2019-01-15T00:56:00Z,67.57,-162.98,-8.9,-10.6,30,5,,10.0,29.911417,1014.2,,TRUE,TRUE,,,,TRUE,,,CLR,,,,,,,,VFR,,,,,,,,,,,,METAR,30.0
PAWS 150056Z AUTO 07011KT 10SM CLR 02/M08 A2995 RMK AO2 SLP158 T00171083 FZRANO,PAWS,2019-01-15T00:56:00Z,61.57,-149.53,1.7,-8.3,70,11,,10.0,29.949802,1015.8,,TRUE,TRUE,,,,TRUE,,,CLR,,,,,,,,VFR,,,,,,,,,,,,METAR,107.0
PFKT 150056Z AUTO 09023KT 10SM OVC060 01/M04 A2963 RMK AO2 PK WND 08031/0019 UPE33 SLP035 P0000 T00061039 FZRANO,PFKT,2019-01-15T00:56:00Z,65.33,-166.47,0.6,-3.9,90,23,,10.0,29.630905,1003.5,,TRUE,TRUE,,,,TRUE,,,OVC,6000,,,,,,,VFR,,,,,,0.005,,,,,,METAR,9.0
PPIZ 150056Z AUTO 07016KT 6SM BR CLR M21/M23 A2996 RMK AO2 SLP149 T12061228 FZRANO,PPIZ,2019-01-15T00:56:00Z,69.73,-163.0,-20.6,-22.8,70,16,,6.0,29.958662,1014.9,,TRUE,TRUE,,,,TRUE,,BR,CLR,,,,,,,,VFR,,,,,,,,,,,,METAR,8.0
PHNY 150056Z AUTO 21005KT 10SM OVC035 23/14 A3005 RMK AO2 SLP159 T02280144,PHNY,2019-01-15T00:56:00Z,20.77,-156.93,22.8,14.4,210,5,,10.0,30.050198,1015.9,,TRUE,TRUE,,,,,,,OVC,3500,,,,,,,VFR,,,,,,,,,,,,METAR,399.0
PMDY 150056Z AUTO 23018KT BKN075 25/22 A2988 RMK AO2 SLP117 T02500217 PWINO $,PMDY,2019-01-15T00:56:00Z,28.22,-177.37,25.0,21.7,230,18,,,29.878937,1011.7,,TRUE,TRUE,TRUE,,,,TRUE,,BKN,7500,,,,,,,,,,,,,,,,,,,METAR,4.0
PABL 150056Z AUTO 17007KT 10SM FEW090 SCT110 M08/M11 A2989 RMK AO2 SLP124 T10781106 FZRANO,PABL,2019-01-15T00:56:00Z,65.98,-161.15,-7.8,-10.6,170,7,,10.0,29.890747,1012.4,,TRUE,TRUE,,,,TRUE,,,FEW,9000,SCT,11000,,,,,VFR,,,,,,,,,,,,METAR,7.0
PADU 150056Z 21010KT 10SM SCT039 BKN046 03/M03 A2902 RMK AO2 SLP833 T00331028,PADU,2019-01-15T00:56:00Z,53.9,-166.53,3.3,-2.8,210,10,,10.0,29.019686,983.3,,,TRUE,,,,,,,SCT,3900,BKN,4600,,,,,VFR,,,,,,,,,,,,METAR,4.0
PAEM 150056Z AUTO 12024G29KT 8SM BKN060 00/M03 A2944 RMK AO2 PK WND 12029/0055 SLP028 T00001028 FZRANO,PAEM,2019-01-15T00:56:00Z,62.78,-164.48,0.0,-2.8,120,24,29,8.0,29.438976,1002.8,,TRUE,TRUE,,,,TRUE,,,BKN,6000,,,,,,,VFR,,,,,,,,,,,,METAR,3.0
PAGA 150056Z AUTO 01006KT 10SM CLR M16/M18 A2994 RMK AO2 SLP142 T11611178 FZRANO,PAGA,2019-01-15T00:56:00Z,64.73,-156.93,-16.1,-17.8,10,6,,10.0,29.940945,1014.2,,TRUE,TRUE,,,,TRUE,,,CLR,,,,,,,,VFR,,,,,,,,,,,,METAR,46.0
PAHL 150056Z AUTO 08010KT 10SM CLR M10/M14 A2996 RMK AO2 SLP155 T11001139 FZRANO,PAHL,2019-01-15T00:56:00Z,65.7,-156.35,-10.0,-13.9,80,10,,10.0,29.958662,1015.5,,TRUE,TRUE,,,,TRUE,,,CLR,,,,,,,,VFR,,,,,,,,,,,,METAR,65.0
PAIG 150056Z AUTO 06022G31KT 10SM CLR 05/02 A2960 RMK AO2 PK WND 07032/0024 SLP033 T00500017 $,PAIG,2019-01-15T00:56:00Z,59.32,-155.9,5.0,1.7,60,22,31,10.0,29.601377,1003.3,,TRUE,TRUE,TRUE,,,,,,CLR,,,,,,,,VFR,,,,,,,,,,,,METAR,28.0
PAIK 150056Z AUTO 10013G17KT 10SM CLR M06/M10 A2994 RMK AO2 SLP146 T10561100 FZRANO,PAIK,2019-01-15T00:56:00Z,66.98,-160.43,-5.6,-10.0,100,13,17,10.0,29.940945,1014.6,,TRUE,TRUE,,,,TRUE,,,CLR,,,,,,,,VFR,,,,,,,,,,,,METAR,51.0
PAIN 150056Z AUTO 00000KT 10SM CLR M03/M09 A2992 RMK AO2 SLP165 T10331089 FZRANO,PAIN,2019-01-15T00:56:00Z,63.73,-148.92,-3.3,-8.9,0,0,,10.0,29.920275,1016.5,,TRUE,TRUE,,,,TRUE,,,CLR,,,,,,,,VFR,,,,,,,,,,,,METAR,524.0
PAKH 150056Z AUTO 11023G29KT 10SM OVC016 06/02 A2962 RMK AO2 PK WND 11034/0029 SLP032 T00560022 $,PAKH,2019-01-15T00:56:00Z,56.93,-154.18,5.6,2.2,110,23,29,10.0,29.619095,1003.2,,TRUE,TRUE,TRUE,,,,,,OVC,1600,,,,,,,MVFR,,,,,,,,,,,,METAR,14.0
PALG 150056Z AUTO 09013G25KT 10SM CLR 04/M01 A2948 RMK AO2 SLP989 T00441011,PALG,2019-01-15T00:56:00Z,61.53,-160.33,4.4,-1.1,90,13,25,10.0,29.480314,998.9,,TRUE,TRUE,,,,,,,CLR,,,,,,,,VFR,,,,,,,,,,,,METAR,17.0
PAMB 150056Z AUTO 08020KT 10SM SCT070 OVC100 03/M01 A2940 RMK AO2 PK WND 09030/0029 SLP963 T00331011 $,PAMB,2019-01-15T00:56:00Z,58.98,-159.05,3.3,-1.1,80,20,,10.0,29.40059,996.3,,TRUE,TRUE,TRUE,,,,,,SCT,7000,OVC,10000,,,,,VFR,,,,,,,,,,,,METAR,16.0
PAMH 150056Z AUTO 00000KT 10SM CLR M21/M22 A2997 RMK AO2 SLP902 T12061222 FZRANO,PAMH,2019-01-15T00:56:00Z,63.9,-152.32,-20.6,-22.2,0,0,,10.0,29.970472,990.2,,TRUE,TRUE,,,,TRUE,,,CLR,,,,,,,,VFR,,,,,,,,,,,,METAR,214.0
K1AM 150056Z AUTO 00000KT 10SM CLR 01/M14 A3003 RMK AO2 SLP171 T00051142 $,K1AM,2019-01-15T00:56:00Z,47.28,-110.8,0.5,-14.2,0,0,,10.0,30.029528,1017.1,,TRUE,TRUE,TRUE,,,,,,CLR,,,,,,,,VFR,,,,,,,,,,,,METAR,1219.0
K1FM 150056Z AUTO 00000KT 10SM CLR M04/M14 A3003 RMK AO2 SLP228 T10411145 $,K1FM,2019-01-15T00:56:00Z,47.6,-112.32,-4.1,-14.5,0,0,,10.0,30.029528,1022.8,,TRUE,TRUE,TRUE,,,,,,CLR,,,,,,,,VFR,,,,,,,,,,,,METAR,1116.0
K1HM 150056Z AUTO 25003KT 10SM CLR 00/M15 A3002 RMK AO2 SLP205 T10031146 $,K1HM,2019-01-15T00:56:00Z,,,-0.3,-14.6,250,3,,10.0,30.02067,1020.5,,TRUE,TRUE,TRUE,,,,,,CLR,,,,,,,,VFR,,,,,,,,,,,,METAR,
K1LM 150056Z AUTO 12011KT 10SM CLR 00/M14 A3002 RMK AO2 SLP221 T00041143 $,K1LM,2019-01-15T00:56:00Z,46.7,-109.73,0.4,-14.3,120,11,,10.0,30.02067,1022.1,,TRUE,TRUE,TRUE,,,,,,CLR,,,,,,,,VFR,,,,,,,,,,,,METAR,1414.0
K1OM 150056Z AUTO 27004KT 10SM CLR 02/M11 A3001 RMK AO2 SLP192 T00151108 $,K1OM,2019-01-15T00:56:00Z,47.33,-108.93,1.5,-10.8,270,4,,10.0,30.008858,1019.2,,TRUE,TRUE,TRUE,,,,,,CLR,,,,,,,,VFR,,,,,,,,,,,,METAR,1086.0
KNYG 150056Z AUTO 30006KT 10SM CLR M02/M04 A3023 RMK AO2 SLP237 T10221039,KNYG,2019-01-15T00:56:00Z,38.5,-77.28,-2.2,-3.9,300,6,,10.0,30.230314,1023.7,,TRUE,TRUE,,,,,,,CLR,,,,,,,,VFR,,,,,,,,,,,,METAR,4.0
KRYM 150056Z AUTO 00000KT 10SM CLR M10/M11 A3022 RMK AO2 SLP258 T10991109 $,KRYM,2019-01-15T00:56:00Z,46.08,-94.37,-9.9,-10.9,0,0,,10.0,30.221457,1025.8,,TRUE,TRUE,TRUE,,,,,,CLR,,,,,,,,VFR,,,,,,,,,,,,METAR,351.0
KGSB 150056Z AUTO 00000KT 10SM SCT025 02/00 A3020 RMK AO2 SLP231 T00211005 $,KGSB,2019-01-15T00:56:00Z,35.32,-77.97,2.1,-0.5,0,0,,10.0,30.200787,1023.1,,TRUE,TRUE,TRUE,,,,,,SCT,2500,,,,,,,VFR,,,,,,,,,,,,SPECI,33.0
KFRI 150056Z AUTO 25009KT 10SM OVC006 01/M01 A3031 RMK AO2 SLP274 T00081010,KFRI,2019-01-15T00:56:00Z,39.03,-96.77,0.8,-1.0,250,9,,10.0,30.31004,1027.4,,TRUE,TRUE,,,,,,,OVC,600,,,,,,,IFR,,,,,,,,,,,,SPECI,325.0
KDYS 150056Z AUTO 17004KT 10SM OVC033 07/02 A3032 RMK AO2 SLPNO T00670016,KDYS,2019-01-15T00:56:00Z,32.42,-99.83,6.7,1.6,170,4,,10.0,30.318897,,,TRUE,TRUE,,,,,,,OVC,3300,,,,,,,VFR,,,,,,,,,,,,SPECI,545.0
KCVS 150056Z AUTO 22008KT 10SM CLR 03/M01 A3024 RMK AO2 SLP248 T00331015 $,KCVS,2019-01-15T00:56:00Z,34.37,-103.32,3.3,-1.5,220,8,,10.0,30.239174,1024.8,,TRUE,TRUE,TRUE,,,,,,CLR,,,,,,,,VFR,,,,,,,,,,,,SPECI,1309.0
KHFF 150056Z AUTO 00000KT 10SM OVC038 05/01 A3021 RMK AO2 SLP249 T00470013,KHFF,2019-01-15T00:56:00Z,35.02,-79.5,4.7,1.3,0,0,,10.0,30.209646,1024.9,,TRUE,TRUE,,,,,,,OVC,3800,,,,,,,VFR,,,,,,,,,,,,METAR,115.0
EGUN 150056Z 25007KT 9999 CLR 03/03 A3013 RMK AO2A SLP207 T00280028 WND DATA ESTMD .,EGUN,2019-01-15T00:56:00Z,52.37,0.47,2.8,2.8,250,7,,6.21,30.129921,1020.7,,,TRUE,,,,,,,CLR,,,,,,,,VFR,,,,,,,,,,,,METAR,10.0
EGUL 150056Z AUTO 25011KT 9999 FEW055 03/01 A3013 RMK AO2 SLP207 T00340011 $,EGUL,2019-01-15T00:56:00Z,52.42,0.57,3.4,1.1,250,11,,6.21,30.129921,1020.7,,TRUE,TRUE,TRUE,,,,,,FEW,5500,,,,,,,VFR,,,,,,,,,,,,METAR,10.0
KISO 150056Z 00000KT 10SM SCT024 02/00 A3022,KISO,2019-01-15T00:56:00Z,35.32,-77.62,2.0,0.0,0,0,,10.0,30.221457,,,,,,,,,,,SCT,2400,,,,,,,VFR,,,,,,,,,,,,METAR,29.0
K1BW 150056Z AUTO 29009KT 10SM CLR M03/M11 A3017 RMK AO2 SLP272 T10321114 $,K1BW,2019-01-15T00:56:00Z,41.52,-104.0,-3.2,-11.4,290,9,,10.0,30.171259,1027.2,,TRUE,TRUE,TRUE,,,,,,CLR,,,,,,,,VFR,,,,,,,,,,,,METAR,1607.0
KABH 150056Z AUTO 00000KT A3017 RMK AO2 SLPNO $,KABH,2019-01-15T00:56:00Z,38.75,-104.3,,,0,0,,,30.171259,,,TRUE,TRUE,TRUE,,,,,,,,,,,,,,,,,,,,,,,,,,METAR,1840.0
KGNA 150056Z AUTO 03003KT M03/M09 A3022 RMK AO1 SLP247 T10331089,KGNA,2019-01-15T00:56:00Z,47.75,-90.35,-3.3,-8.9,30,3,,,30.221457,1024.7,,TRUE,TRUE,,,,,,,,,,,,,,,,,,,,,,,,,,,SPECI,185.0
KALK 150056Z AUTO 19007KT 10SM CLR 11/M03 A3017 RMK AO2 SLP168 T01111033,KALK,2019-01-15T00:56:00Z,31.6,-110.43,11.1,-3.3,190,7,,10.0,30.171259,1016.8,,TRUE,TRUE,,,,,,,CLR,,,,,,,,VFR,,,,,,,,,,,,SPECI,1453.0
K8D3 150056Z AUTO 36003KT M07/M07 A3025 RMK AO1 SLP274 T10721072,K8D3,2019-01-15T00:56:00Z,45.67,-96.98,-7.2,-7.2,360,3,,,30.250984,1027.4,,TRUE,TRUE,,,,,,,,,,,,,,,,,,,,,,,,,,,SPECI,354.0
KP28 150056Z AUTO 13007KT 03/01 A3027 RMK AO1 SLP262 T00330011,KP28,2019-01-15T00:56:00Z,37.28,-98.55,3.3,1.1,130,7,,,30.268702,1026.2,,TRUE,TRUE,,,,,,,,,,,,,,,,,,,,,,,,,,,METAR,469.0
KMHS 150056Z AUTO 00000KT 10SM OVC080 08/M07 A2986 RMK AO2 SLP129 T00781067,KMHS,2019-01-15T00:56:00Z,41.32,-122.32,7.8,-6.7,0,0,,10.0,29.861221,1012.9,,TRUE,TRUE,,,,,,,OVC,8000,,,,,,,VFR,,,,,,,,,,,,SPECI,1078.0
KNUC 150056Z 18007KT 10SM SCT012 BKN250 14/11 A2996 RMK AO2 SLP143 T01390106 PNO $,KNUC,2019-01-15T00:56:00Z,33.02,-118.57,13.9,10.6,180,7,,10.0,29.958662,1014.3,,,TRUE,TRUE,,,,,,SCT,1200,BKN,25000,,,,,VFR,,,,,,,,,,,,METAR,55.0
KNTU 150056Z 33003KT 10SM SCT070 M01/M03 A3019 RMK AO2 SLP226 T10061033,KNTU,2019-01-15T00:56:00Z,36.82,-76.02,-0.6,-3.3,330,3,,10.0,30.188976,1022.6,,,TRUE,,,,,,,SCT,7000,,,,,,,VFR,,,,,,,,,,,,METAR,7.0
KQHY 150056Z AUTO 33005KT 10SM OVC016 06/03 A3031 RMK AO2 SLP271 T00630029 $,KQHY,2019-01-15T00:56:00Z,,,6.3,2.9,330,5,,10.0,30.31004,1027.1,,TRUE,TRUE,TRUE,,,,,,OVC,1600,,,,,,,MVFR,,,,,,,,,,,,METAR,
KQDG 150056Z AUTO 20007KT M M BKN180 01/M05 A3015 RMK AO2 SLP212 T00101050 PWINO FZRANO $,KQDG,2019-01-15T00:56:00Z,,,1.0,-5.0,200,7,,,30.15059,1021.2,,TRUE,TRUE,TRUE,,,TRUE,TRUE,,BKN,18000,,,,,,,,,,,,,,,,,,,METAR,
KQD3 150056Z AUTO 00000KT 9999 SCT042 24/20 A2996 RMK AO2 SLPNO WND DATA ESTMD T02360195,KQD3,2019-01-15T00:56:00Z,,,23.6,19.5,0,0,,6.21,29.958662,,,TRUE,TRUE,,,,,,,SCT,4200,,,,,,,VFR,,,,,,,,,,,,METAR,
KQBF 150056Z AUTO 02003KT 9999 CLR 24/M05 A2994 RMK AO2 SLP095 WND DATA ESTMD T02421051,KQBF,2019-01-15T00:56:00Z,,,24.2,-5.1,20,3,,6.21,29.940945,1009.5,,TRUE,TRUE,,,,,,,CLR,,,,,,,,VFR,,,,,,,,,,,,METAR,
KGNR 150056Z AUTO 02006KT M10/M16 A2997 RMK AO1 SLP183 T11001161,KGNR,2019-01-15T00:56:00Z,45.47,-69.55,-10.0,-16.1,20,6,,,29.970472,1018.3,,TRUE,TRUE,,,,,,,,,,,,,,,,,,,,,,,,,,,METAR,427.0
KD07 150056Z AUTO 19009KT M04/M04 A3014 RMK AO1 SLP249 T10391039,KD07,2019-01-15T00:56:00Z,45.03,-102.02,-3.9,-3.9,190,9,,,30.138779,1024.9,,TRUE,TRUE,,,,,,,,,,,,,,,,,,,,,,,,,,,METAR,784.0
K2WX 150056Z AUTO 17008KT M01/M04 A3006 RMK AO1 SLP216 T10111044,K2WX,2019-01-15T00:56:00Z,45.6,-103.55,-1.1,-4.4,170,8,,,30.059055,1021.6,,TRUE,TRUE,,,,,,,,,,,,,,,,,,,,,,,,,,,METAR,915.0
PHBK 150056Z AUTO 35012KT 10SM OVC060 28/16 A2998 RMK AO2 SLP154 T02830161,PHBK,2019-01-15T00:56:00Z,22.03,-159.78,28.3,16.1,350,12,,10.0,29.97933,1015.4,,TRUE,TRUE,,,,,,,OVC,6000,,,,,,,VFR,,,,,,,,,,,,METAR,8.0
KNMM 150056Z 02010KT 10SM OVC018 06/02 A3034 RMK AO2 SLP288 T00610017,KNMM,2019-01-15T00:56:00Z,32.53,-88.57,6.1,1.7,20,10,,10.0,30.339567,1028.8,,,TRUE,,,,,,,OVC,1800,,,,,,,MVFR,,,,,,,,,,,,METAR,97.0
KMQE 150056Z AUTO 32005KT M06/M09 A3005 RMK AO1 SLP196 T10561094,KMQE,2019-01-15T00:56:00Z,42.22,-71.12,-5.6,-9.4,320,5,,,30.050198,1019.6,,TRUE,TRUE,,,,,,,,,,,,,,,,,,,,,,,,,,,METAR,199.0
KNQI 150056Z 02007KT 10SM FEW022 BKN028 OVC035 10/04 A3038 RMK AO2 SLP284 T01000044,KNQI,2019-01-15T00:56:00Z,27.5,-97.82,10.0,4.4,20,7,,10.0,30.380905,1028.4,,,TRUE,,,,,,,FEW,2200,BKN,2800,OVC,3500,,,MVFR,,,,,,,,,,,,METAR,15.0
KSPD 150056Z AUTO 26003KT M01/M03 A3020 RMK AO1 SLP246 T10061033,KSPD,2019-01-15T00:56:00Z,37.28,-102.62,-0.6,-3.3,260,3,,,30.200787,1024.6,,TRUE,TRUE,,,,,,,,,,,,,,,,,,,,,,,,,,,METAR,1335.0
KAQV 150056Z AUTO 02004KT 10SM OVC018 05/01 A3038 RMK AO2 SLP291 T00500006,KAQV,2019-01-15T00:56:00Z,31.4,-93.3,5.0,0.6,20,4,,10.0,30.380905,1029.1,,TRUE,TRUE,,,,,,,OVC,1800,,,,,,,MVFR,,,,,,,,,,,,SPECI,111.0
K79J 150056Z AUTO 31005KT 10SM OVC020 08/03 A3028 RMK AO2 SLP254 T00780028,K79J,2019-01-15T00:56:00Z,31.32,-86.4,7.8,2.8,310,5,,10.0,30.280512,1025.4,,TRUE,TRUE,,,,,,,OVC,2000,,,,,,,MVFR,,,,,,,,,,,,METAR,94.0
KPRN 150056Z AUTO 33005KT 10SM FEW013 OVC020 07/02 A3028 RMK AO2 SLP253 T00670022,KPRN,2019-01-15T00:56:00Z,31.85,-86.62,6.7,2.2,330,5,,10.0,30.280512,1025.3,,TRUE,TRUE,,,,,,,FEW,1300,OVC,2000,,,,,MVFR,,,,,,,,,,,,SPECI,138.0
KMEH 150056Z AUTO 00000KT 10SM CLR 02/M10 A3005 RMK AO2 SLP205 T00171100,KMEH,2019-01-15T00:56:00Z,45.52,-118.42,1.7,-10.0,0,0,,10.0,30.050198,1020.5,,TRUE,TRUE,,,,,,,CLR,,,,,,,,VFR,,,,,,,,,,,,METAR,1136.0
KNPA 150056Z 34011G17KT 10SM OVC016 06/03 A3031 RMK AO2 SLP264 T00610028,KNPA,2019-01-15T00:56:00Z,30.35,-87.32,6.1,2.8,340,11,17,10.0,30.31004,1026.4,,,TRUE,,,,,,,OVC,1600,,,,,,,MVFR,,,,,,,,,,,,METAR,9.0
KP53 150056Z AUTO 35009KT 00/M03 A3013 RMK AO1 SLP213 P0001 T00001028,KP53,2019-01-15T00:56:00Z,46.42,-86.65,0.0,-2.8,350,9,,,30.129921,1021.3,,TRUE,TRUE,,,,,,,,,,,,,,,,,,,,,0.01,,,,,,SPECI,187.0
KNBC 150056Z 02008KT 10SM OVC014 07/05 A3023 RMK AO2 SLP238 T00720050,KNBC,2019-01-15T00:56:00Z,32.47,-80.72,7.2,5.0,20,8,,10.0,30.230314,1023.8,,,TRUE,,,,,,,OVC,1400,,,,,,,MVFR,,,,,,,,,,,,METAR,12.0
KNFE 150056Z AUTO 00000KT 10SM CLR 00/M03 A3020 RMK AO2 SLP229 T00001033,KNFE,2019-01-15T00:56:00Z,36.7,-76.13,0.0,-3.3,0,0,,10.0,30.200787,1022.9,,TRUE,TRUE,,,,,,,CLR,,,,,,,,VFR,,,,,,,,,,,,METAR,5.0
MHSC 150056Z 01019G24KT 9999 BKN070 BKN085 22/19 A3006 RMK AO2A PK WND 36028/16 SLP149 T02200190 $,MHSC,2019-01-15T00:56:00Z,14.37,-87.62,22.0,19.0,10,19,24,6.21,30.059055,1014.9,,,TRUE,TRUE,,,,,,BKN,7000,BKN,8500,,,,,VFR,,,,,,,,,,,,SPECI,626.0
KHIF 150056Z 34006KT 10SM SCT180 BKN230 M07/M10 A3024 RMK AO2A SLP286 T10701105,KHIF,2019-01-15T00:56:00Z,41.12,-111.97,-7.0,-10.5,340,6,,10.0,30.239174,1028.6,,,TRUE,,,,,,,SCT,18000,BKN,23000,,,,,VFR,,,,,,,,,,,,METAR,1459.0
KFAF 150056Z AUTO 32008KT 10SM OVC070 01/M03 A3019 RMK AO2 SLP227 T00061026 $,KFAF,2019-01-15T00:56:00Z,37.12,-76.62,0.6,-2.6,320,8,,10.0,30.188976,1022.7,,TRUE,TRUE,TRUE,,,,,,OVC,7000,,,,,,,VFR,,,,,,,,,,,,METAR,4.0
KADW 150056Z AUTO 00000KT 10SM CLR M05/M09 A3018 RMK AO2 SLP231 T10501086 $,KADW,2019-01-15T00:56:00Z,38.82,-76.87,-5.0,-8.6,0,0,,10.0,30.180119,1023.1,,TRUE,TRUE,TRUE,,,,,,CLR,,,,,,,,VFR,,,,,,,,,,,,METAR,86.0
KQRH 150056Z AUTO VRB05KT 9999 CLR 25/20 A3000 RMK AO2 SLPNO WND DATA ESTMD T02470195,KQRH,2019-01-15T00:56:00Z,,,24.7,19.5,0,5,,6.21,30.0,,,TRUE,TRUE,,,,,,,CLR,,,,,,,,VFR,,,,,,,,,,,,METAR,
KQN3 150056Z AUTO 00000KT 9000 HZ CLR 21/M06 A2994 RMK AO2 SLP133 WND DATA ESTMD T02101065,KQN3,2019-01-15T00:56:00Z,,,21.0,-6.5,0,0,,5.59,29.940945,1013.3,,TRUE,TRUE,,,,,,HZ,CLR,,,,,,,,VFR,,,,,,,,,,,,METAR,
KNUW 150056Z 11003KT 10SM FEW250 07/01 A3000 RMK AO2 SLP159 T00720011 $,KNUW,2019-01-15T00:56:00Z,48.35,-122.65,7.2,1.1,110,3,,10.0,30.0,1015.9,,,TRUE,TRUE,,,,,,FEW,25000,,,,,,,VFR,,,,,,,,,,,,METAR,14.0
KBJJ 150056Z AUTO 29007KT 8SM OVC007 M04/M05 A3025 RMK AO2 SLP263 T10391050 $,KBJJ,2019-01-15T00:56:00Z,40.87,-81.88,-3.9,-5.0,290,7,,8.0,30.250984,1026.3,,TRUE,TRUE,TRUE,,,,,,OVC,700,,,,,,,IFR,,,,,,,,,,,,METAR,343.0
KBED 150056Z 00000KT 10SM CLR M07/M12 A3009 RMK AO2 SLP206 T10671117 $,KBED,2019-01-15T00:56:00Z,42.47,-71.3,-6.7,-11.7,0,0,,10.0,30.088583,1020.6,,,TRUE,TRUE,,,,,,CLR,,,,,,,,VFR,,,,,,,,,,,,METAR,50.0
KCAE 150056Z 15005KT 10SM SCT030 OVC038 06/04 A3021 RMK AO2 SLP232 T00610039,KCAE,2019-01-15T00:56:00Z,33.93,-81.12,6.1,3.9,150,5,,10.0,30.209646,1023.2,,,TRUE,,,,,,,SCT,3000,OVC,3800,,,,,VFR,,,,,,,,,,,,SPECI,70.0
KCEC 150056Z AUTO 00000KT 8SM CLR 12/06 A2981 RMK AO2 SLP094 T01220056,KCEC,2019-01-15T00:56:00Z,41.77,-124.22,12.2,5.6,0,0,,8.0,29.811024,1009.4,,TRUE,TRUE,,,,,,,CLR,,,,,,,,VFR,,,,,,,,,,,,METAR,17.0
KCHS 150056Z 30006KT 10SM BKN020 06/02 A3023 RMK AO2 SLP235 T00560022,KCHS,2019-01-15T00:56:00Z,32.9,-80.03,5.6,2.2,300,6,,10.0,30.230314,1023.5,,,TRUE,,,,,,,BKN,2000,,,,,,,MVFR,,,,,,,,,,,,METAR,13.0
KRDM 150056Z 32007KT 10SM CLR M02/M06 A3005 RMK AO2 SLP200 T10221056,KRDM,2019-01-15T00:56:00Z,44.25,-121.15,-2.2,-5.6,320,7,,10.0,30.050198,1020.0,,,TRUE,,,,,,,CLR,,,,,,,,VFR,,,,,,,,,,,,METAR,938.0
KAND 150056Z AUTO 00000KT 10SM OVC025 07/04 A3019 RMK AO2 SLP224 T00670039,KAND,2019-01-15T00:56:00Z,34.5,-82.72,6.7,3.9,0,0,,10.0,30.188976,1022.4,,TRUE,TRUE,,,,,,,OVC,2500,,,,,,,MVFR,,,,,,,,,,,,SPECI,239.0
KSLE 150056Z 36011KT 10SM CLR 06/M03 A2989 RMK AO2 SLP125 T00611028,KSLE,2019-01-15T00:56:00Z,44.9,-123.0,6.1,-2.8,360,11,,10.0,29.890747,1012.5,,,TRUE,,,,,,,CLR,,,,,,,,VFR,,,,,,,,,,,,METAR,59.0
KSHV 150056Z 32003KT 10SM OVC018 04/01 A3041 RMK AO2 SLP299 T00440006,KSHV,2019-01-15T00:56:00Z,32.45,-93.83,4.4,0.6,320,3,,10.0,30.410433,1029.9,,,TRUE,,,,,,,OVC,1800,,,,,,,MVFR,,,,,,,,,,,,SPECI,83.0
KSFO 150056Z 16012KT 10SM FEW035 BKN043 BKN100 13/06 A2983 RMK AO2 SLP101 T01280061,KSFO,2019-01-15T00:56:00Z,37.62,-122.37,12.8,6.1,160,12,,10.0,29.828741,1010.1,,,TRUE,,,,,,,FEW,3500,BKN,4300,BKN,10000,,,VFR,,,,,,,,,,,,SPECI,3.0
KSDF 150056Z 11004KT 9SM CLR M01/M05 A3032 RMK AO2 SLP273 T10111050,KSDF,2019-01-15T00:56:00Z,38.18,-85.73,-1.1,-5.0,110,4,,9.0,30.318897,1027.3,,,TRUE,,,,,,,CLR,,,,,,,,VFR,,,,,,,,,,,,METAR,146.0
KSBP 150056Z 14003KT 10SM BKN040 BKN048 OVC060 11/09 A2990 RMK AO2 RAE29 SLP124 P0000 T01110094,KSBP,2019-01-15T00:56:00Z,35.23,-120.63,11.1,9.4,140,3,,10.0,29.899607,1012.4,,,TRUE,,,,,,,BKN,4000,BKN,4800,OVC,6000,,,VFR,,,,,,0.005,,,,,,METAR,59.0
TJSJ 150056Z 11003KT 10SM FEW027 SCT045 24/20 A3007 RMK AO2 SLP180 T02440200,TJSJ,2019-01-15T00:56:00Z,18.43,-66.02,24.4,20.0,110,3,,10.0,30.070866,1018.0,,,TRUE,,,,,,,FEW,2700,SCT,4500,,,,,VFR,,,,,,,,,,,,METAR,21.0
KWMC 150056Z AUTO 03013KT 10SM BKN095 03/M06 A3000 RMK AO2 SLP174 T00331061,KWMC,2019-01-15T00:56:00Z,40.9,-117.8,3.3,-6.1,30,13,,10.0,30.0,1017.4,,TRUE,TRUE,,,,,,,BKN,9500,,,,,,,VFR,,,,,,,,,,,,SPECI,1310.0
KWJF 150056Z 01011KT 5SM -RA BR BKN015 OVC020 05/04 A2997 RMK AO2 RAE13B21 SLP161 P0002 T00500044,KWJF,2019-01-15T00:56:00Z,34.72,-118.22,5.0,4.4,10,11,,5.0,29.970472,1016.1,,,TRUE,,,,,,-RA BR,BKN,1500,OVC,2000,,,,,MVFR,,,,,,0.02,,,,,,METAR,715.0
KGON 150056Z 00000KT 10SM CLR M04/M09 A3011 RMK AO2 SLP195 T10391089,KGON,2019-01-15T00:56:00Z,41.33,-72.05,-3.9,-8.9,0,0,,10.0,30.109253,1019.5,,,TRUE,,,,,,,CLR,,,,,,,,VFR,,,,,,,,,,,,METAR,3.0
KFSD 150056Z 06005KT 8SM OVC006 M01/M03 A3021 RMK AO2 SLP248 T10111028,KFSD,2019-01-15T00:56:00Z,43.58,-96.75,-1.1,-2.8,60,5,,8.0,30.209646,1024.8,,,TRUE,,,,,,,OVC,600,,,,,,,IFR,,,,,,,,,,,,SPECI,436.0
KLSV 150056Z 06007KT 10SM -RA BKN050 BKN070 BKN100 13/00 A3004 RMK AO2A RAB047 SLP174 ALSTG/SLP ESTMD P0000 T01250001 $,KLSV,2019-01-15T00:56:00Z,36.22,-115.02,12.5,0.1,60,7,,10.0,30.041338,1017.4,,,TRUE,TRUE,,,,,-RA,BKN,5000,BKN,7000,BKN,10000,,,VFR,,,,,,0.005,,,,,,METAR,570.0
KUKI 150056Z AUTO 12009G22KT 10SM OVC045 10/03 A2984 RMK AO2 SLP102 T01000028,KUKI,2019-01-15T00:56:00Z,39.12,-123.2,10.0,2.8,120,9,22,10.0,29.840551,1010.2,,TRUE,TRUE,,,,,,,OVC,4500,,,,,,,VFR,,,,,,,,,,,,METAR,187.0
KTPH 150056Z AUTO 13013KT 10SM BKN050 OVC070 04/M05 A2999 RMK AO2 PK WND 13026/2357 SLP167 T00441050,KTPH,2019-01-15T00:56:00Z,38.05,-117.08,4.4,-5.0,130,13,,10.0,29.991142,1016.7,,TRUE,TRUE,,,,,,,BKN,5000,OVC,7000,,,,,VFR,,,,,,,,,,,,METAR,1652.0
KNUQ 150056Z 17006KT 10SM BKN050 BKN100 13/08 A2985 RMK AO2 SLP112 T01330078,KNUQ,2019-01-15T00:56:00Z,37.4,-122.05,13.3,7.8,170,6,,10.0,29.84941,1011.2,,,TRUE,,,,,,,BKN,5000,BKN,10000,,,,,VFR,,,,,,,,,,,,METAR,12.0
KMOB 150056Z 34009KT 7SM OVC022 07/02 A3033 RMK AO2 SLP270 T00670022 $,KMOB,2019-01-15T00:56:00Z,30.68,-88.25,6.7,2.2,340,9,,7.0,30.33071,1027.0,,,TRUE,TRUE,,,,,,OVC,2200,,,,,,,MVFR,,,,,,,,,,,,SPECI,63.0
KMDT 150056Z 00000KT 10SM CLR M06/M11 A3018 RMK AO2 SLP224 T10611106,KMDT,2019-01-15T00:56:00Z,40.2,-76.77,-6.1,-10.6,0,0,,10.0,30.180119,1022.4,,,TRUE,,,,,,,CLR,,,,,,,,VFR,,,,,,,,,,,,METAR,95.0
KOFK 150056Z AUTO 34005KT 10SM CLR M01/M03 A3019 RMK AO2 SLP240 T10111028,KOFK,2019-01-15T00:56:00Z,41.98,-97.43,-1.1,-2.8,340,5,,10.0,30.188976,1024.0,,TRUE,TRUE,,,,,,,CLR,,,,,,,,VFR,,,,,,,,,,,,SPECI,470.0
KJAX 150056Z 36007KT 10SM OVC017 09/06 A3022 RMK AO2 SLP232 T00890056,KJAX,2019-01-15T00:56:00Z,30.5,-81.68,8.9,5.6,360,7,,10.0,30.221457,1023.2,,,TRUE,,,,,,,OVC,1700,,,,,,,MVFR,,,,,,,,,,,,SPECI,10.0
KJMS 150056Z AUTO 05003KT 8SM CLR M10/M11 A3020 RMK AO2 SLP256 T11001111,KJMS,2019-01-15T00:56:00Z,46.93,-98.67,-10.0,-11.1,50,3,,8.0,30.200787,1025.6,,TRUE,TRUE,,,,,,,CLR,,,,,,,,VFR,,,,,,,,,,,,METAR,455.0
K1GM 150056Z AUTO 18016KT 10SM CLR M02/M13 A3003 RMK AO2 SLP221 T10221135 $,K1GM,2019-01-15T00:56:00Z,47.33,-112.1,-2.2,-13.5,180,16,,10.0,30.029528,1022.1,,TRUE,TRUE,TRUE,,,,,,CLR,,,,,,,,VFR,,,,,,,,,,,,METAR,1311.0
K1CM 150056Z AUTO 25003KT 10SM CLR 01/M14 A3002 RMK AO2 SLP203 T00071143 $,K1CM,2019-01-15T00:56:00Z,47.1,-110.17,0.7,-14.3,250,3,,10.0,30.02067,1020.3,,TRUE,TRUE,TRUE,,,,,,CLR,,,,,,,,VFR,,,,,,,,,,,,METAR,1337.0
KISP 150056Z 00000KT 10SM FEW250 M04/M09 A3012 RMK AO2 SLP201 T10441089,KISP,2019-01-15T00:56:00Z,40.8,-73.1,-4.4,-8.9,0,0,,10.0,30.121063,1020.1,,,TRUE,,,,,,,FEW,25000,,,,,,,VFR,,,,,,,,,,,,METAR,43.0
KINW 150056Z AUTO 23005KT 10SM BKN013 03/01 A3020 RMK AO2 SLP231 T00330011,KINW,2019-01-15T00:56:00Z,35.03,-110.72,3.3,1.1,230,5,,10.0,30.200787,1023.1,,TRUE,TRUE,,,,,,,BKN,1300,,,,,,,MVFR,,,,,,,,,,,,METAR,1490.0
KHYA 150056Z 36010G18KT 10SM OVC024 M01/M07 A3006 RMK AO2 SLP182 T10061067,KHYA,2019-01-15T00:56:00Z,41.67,-70.27,-0.6,-6.7,360,10,18,10.0,30.059055,1018.2,,,TRUE,,,,,,,OVC,2400,,,,,,,MVFR,,,,,,,,,,,,METAR,22.0
KHWV 150056Z AUTO 00000KT 10SM CLR M06/M09 A3013 RMK AO2 SLP204 T10561094,KHWV,2019-01-15T00:56:00Z,40.82,-72.87,-5.6,-9.4,0,0,,10.0,30.129921,1020.4,,TRUE,TRUE,,,,,,,CLR,,,,,,,,VFR,,,,,,,,,,,,METAR,21.0
KGRD 150056Z AUTO 00000KT 10SM OVC040 06/05 A3021 RMK AO2 SLP231 T00610050,KGRD,2019-01-15T00:56:00Z,34.25,-82.15,6.1,5.0,0,0,,10.0,30.209646,1023.1,,TRUE,TRUE,,,,,,,OVC,4000,,,,,,,VFR,,,,,,,,,,,,METAR,185.0
PAWG 150056Z 28003KT 10SM FEW003 BKN050 OVC070 04/03 A3005,PAWG,2019-01-15T00:56:00Z,56.48,-132.37,4.0,3.0,280,3,,10.0,30.050198,,,,,,,,,,,FEW,300,BKN,5000,OVC,7000,,,VFR,,,,,,,,,,,,METAR,11.0
KELZ 150056Z AUTO 31005KT 10SM CLR M05/M14 A3012 RMK AO2 SLP240 T10501144,KELZ,2019-01-15T00:56:00Z,42.1,-77.98,-5.0,-14.4,310,5,,10.0,30.121063,1024.0,,TRUE,TRUE,,,,,,,CLR,,,,,,,,VFR,,,,,,,,,,,,METAR,646.0
KEKO 150056Z AUTO 09007KT 10SM CLR M02/M08 A3009 RMK AO2 SLP241 T10221078,KEKO,2019-01-15T00:56:00Z,40.82,-115.78,-2.2,-7.8,90,7,,10.0,30.088583,1024.1,,TRUE,TRUE,,,,,,,CLR,,,,,,,,VFR,,,,,,,,,,,,METAR,1547.0
KEED 150056Z AUTO 00000KT 10SM SCT060 OVC095 14/03 A3003 RMK AO2 RAE04 SLP158 P0000 T01390028,KEED,2019-01-15T00:56:00Z,34.77,-114.62,13.9,2.8,0,0,,10.0,30.029528,1015.8,,TRUE,TRUE,,,,,,,SCT,6000,OVC,9500,,,,,VFR,,,,,,0.005,,,,,,METAR,302.0
KDUG 150056Z AUTO 10007KT 10SM CLR 11/01 A3015 RMK AO2 SLP191 T01110011,KDUG,2019-01-15T00:56:00Z,31.47,-109.58,11.1,1.1,100,7,,10.0,30.15059,1019.1,,TRUE,TRUE,,,,,,,CLR,,,,,,,,VFR,,,,,,,,,,,,METAR,1265.0
KDIK 150056Z AUTO 16010KT 8SM CLR M04/M06 A3006 RMK AO2 SLP215 T10391061,KDIK,2019-01-15T00:56:00Z,46.8,-102.8,-3.9,-6.1,160,10,,8.0,30.059055,1021.5,,TRUE,TRUE,,,,,,,CLR,,,,,,,,VFR,,,,,,,,,,,,METAR,788.0
KDAY 150056Z 25004KT 6SM BR FEW250 M07/M09 A3029 RMK AO2 SLP272 T10721094,KDAY,2019-01-15T00:56:00Z,39.9,-84.22,-7.2,-9.4,250,4,,6.0,30.28937,1027.2,,,TRUE,,,,,,BR,FEW,25000,,,,,,,VFR,,,,,,,,,,,,METAR,305.0
KCXY 150056Z 26005KT 10SM CLR M03/M10 A3018 RMK AO2 SLP227 T10281100,KCXY,2019-01-15T00:56:00Z,40.22,-76.85,-2.8,-10.0,260,5,,10.0,30.180119,1022.7,,,TRUE,,,,,,,CLR,,,,,,,,VFR,,,,,,,,,,,,METAR,106.0
KLWS 150056Z 28003KT 10SM CLR M03/M06 A3020 RMK AO2 SLP245 T10281056,KLWS,2019-01-15T00:56:00Z,46.37,-117.02,-2.8,-5.6,280,3,,10.0,30.200787,1024.5,,,TRUE,,,,,,,CLR,,,,,,,,VFR,,,,,,,,,,,,METAR,438.0
KLAS 150056Z 22005KT 7SM -RA BKN045 BKN055 OVC110 11/02 A3004 RMK AO2 RAB47 SLP171 P0000 T01060022,KLAS,2019-01-15T00:56:00Z,36.07,-115.17,10.6,2.2,220,5,,7.0,30.041338,1017.1,,,TRUE,,,,,,-RA,BKN,4500,BKN,5500,OVC,11000,,,VFR,,,,,,0.005,,,,,,METAR,636.0
KJXN 150056Z 25007KT 10SM OVC020 M03/M07 A3023 RMK AO2 SLP255 T10281067,KJXN,2019-01-15T00:56:00Z,42.27,-84.47,-2.8,-6.7,250,7,,10.0,30.230314,1025.5,,,TRUE,,,,,,,OVC,2000,,,,,,,MVFR,,,,,,,,,,,,METAR,305.0
KPSM 150056Z 00000KT 10SM SCT250 M06/M11 A3008 RMK AO2A SLP190 T10561110,KPSM,2019-01-15T00:56:00Z,43.07,-70.82,-5.6,-11.0,0,0,,10.0,30.079725,1019.0,,,TRUE,,,,,,,SCT,25000,,,,,,,VFR,,,,,,,,,,,,METAR,31.0
KOFF 150056Z 21004KT 10SM OVC004 00/00 A3024 RMK AO2A TWR VIS 3 SLP257 T10041004 $,KOFF,2019-01-15T00:56:00Z,41.12,-95.92,-0.4,-0.4,210,4,,10.0,30.239174,1025.7,,,TRUE,TRUE,,,,,,OVC,400,,,,,,,LIFR,,,,,,,,,,,,METAR,319.0
KGTB 150056Z AUTO 21005KT 10SM CLR M12/M15 A3016 RMK AO2 SLP231 T11241146 VISNO RWY03 $,KGTB,2019-01-15T00:56:00Z,44.07,-75.72,-12.4,-14.6,210,5,,10.0,30.159449,1023.1,,TRUE,TRUE,TRUE,,,,,,CLR,,,,,,,,VFR,,,,,,,,,,,,METAR,207.0
KNGP 150056Z 03009KT 10SM FEW041 OVC060 12/06 A3037 RMK AO2 SLP284 T01170061,KNGP,2019-01-15T00:56:00Z,27.68,-97.27,11.7,6.1,30,9,,10.0,30.369095,1028.4,,,TRUE,,,,,,,FEW,4100,OVC,6000,,,,,VFR,,,,,,,,,,,,METAR,6.0
ETIK 150056Z AUTO 27009KT 9999 OVC050 01/00 A3010 RMK AO2 SLP210 T00100003 $,ETIK,2019-01-15T00:56:00Z,49.47,10.37,1.0,0.3,270,9,,6.21,30.100393,1021.0,,TRUE,TRUE,TRUE,,,,,,OVC,5000,,,,,,,VFR,,,,,,,,,,,,METAR,325.0
ETEB 150056Z AUTO 28010KT 9999 OVC049 00/M01 A3006 RMK AO2 RAE11 SLP216 P0000 T00021014 $,ETEB,2019-01-15T00:56:00Z,49.32,10.62,0.2,-1.4,280,10,,6.21,30.059055,1021.6,,TRUE,TRUE,TRUE,,,,,,OVC,4900,,,,,,,VFR,,,,,,0.005,,,,,,METAR,467.0
KQAZ 150056Z AUTO 00000KT 9999 CLR 11/M13 A3004 RMK AO2 SLP197 WND DATA ESTMD T01121126,KQAZ,2019-01-15T00:56:00Z,,,11.2,-12.6,0,0,,6.21,30.041338,1019.7,,TRUE,TRUE,,,,,,,CLR,,,,,,,,VFR,,,,,,,,,,,,METAR,
K1KM 150056Z AUTO 28007KT 10SM CLR 02/M15 A3003 RMK AO2 SLP211 T00161147 $,K1KM,2019-01-15T00:56:00Z,46.45,-109.8,1.6,-14.7,280,7,,10.0,30.029528,1021.1,,TRUE,TRUE,TRUE,,,,,,CLR,,,,,,,,VFR,,,,,,,,,,,,METAR,1330.0
KWRI 150056Z AUTO 00000KT 10SM CLR M06/M10 A3012 RMK AO2 SLP201 T10611103 $,KWRI,2019-01-15T00:56:00Z,40.02,-74.58,-6.1,-10.3,0,0,,10.0,30.121063,1020.1,,TRUE,TRUE,TRUE,,,,,,CLR,,,,,,,,VFR,,,,,,,,,,,,METAR,41.0
ETAR 150056Z 28007KT 9999 OVC050 02/M01 A3017 RMK AO2A SLP232 T0016 $,ETAR,2019-01-15T00:56:00Z,49.42,7.58,1.6,-1.0,280,7,,6.21,30.171259,1023.2,,,TRUE,TRUE,,,,,,OVC,5000,,,,,,,VFR,,,,,,,,,,,,METAR,238.0
KHOP 150056Z AUTO 33005KT 10SM OVC011 01/00 A3034 RMK AO2 SLP281 T00101005 $,KHOP,2019-01-15T00:56:00Z,36.67,-87.5,1.0,-0.5,330,5,,10.0,30.339567,1028.1,,TRUE,TRUE,TRUE,,,,,,OVC,1100,,,,,,,MVFR,,,,,,,,,,,,METAR,174.0
RKSG 150056Z 25004KT 2SM BR CLR 01/01 A3022 RMK AO2A SLP238 T00120012 $,RKSG,2019-01-15T00:56:00Z,36.97,127.02,1.2,1.2,250,4,,2.0,30.221457,1023.8,,,TRUE,TRUE,,,,,BR,CLR,,,,,,,,IFR,,,,,,,,,,,,METAR,16.0
PGUA 150056Z 06017G26KT 10SM BKN017 OVC028 26/23 A2989 RMK AO2A PK WND 05030/19 RAE00 CIG 016 RWY24L SLP112 P0001 T02590230 $,PGUA,2019-01-15T00:56:00Z,13.57,144.92,25.9,23.0,60,17,26,10.0,29.890747,1011.2,,,TRUE,TRUE,,,,,,BKN,1700,OVC,2800,,,,,MVFR,,,,,,0.01,,,,,,METAR,187.0
PAEI 150056Z 00000KT 10SM FEW120 SCT200 M19/M22 A3003 RMK AO2A SLP188 T11911223 $,PAEI,2019-01-15T00:56:00Z,64.67,-147.1,-19.1,-22.3,0,0,,10.0,30.029528,1018.8,,,TRUE,TRUE,,,,,,FEW,12000,SCT,20000,,,,,VFR,,,,,,,,,,,,METAR,167.0
KMUI 150056Z AUTO 00000KT 10SM CLR M04/M09 A3016 RMK AO2 SLP224 T10411095 $,KMUI,2019-01-15T00:56:00Z,40.42,-76.57,-4.1,-9.5,0,0,,10.0,30.159449,1022.4,,TRUE,TRUE,TRUE,,,,,,CLR,,,,,,,,VFR,,,,,,,,,,,,METAR,149.0
KLHW 150056Z AUTO 34003KT 10SM OVC014 08/06 A3021 RMK AO2 SLP233 T00810061 $,KLHW,2019-01-15T00:56:00Z,31.87,-81.57,8.1,6.1,340,3,,10.0,30.209646,1023.3,,TRUE,TRUE,TRUE,,,,,,OVC,1400,,,,,,,MVFR,,,,,,,,,,,,METAR,14.0
KBLV 150056Z AUTO 00000KT 10SM OVC016 00/M03 A3034 RMK AO2 SLPNO T10011028 $,KBLV,2019-01-15T00:56:00Z,38.53,-89.83,-0.1,-2.8,0,0,,10.0,30.339567,,,TRUE,TRUE,TRUE,,,,,,OVC,1600,,,,,,,MVFR,,,,,,,,,,,,METAR,138.0
PAED 150056Z 06005KT 7SM CLR M04/M05 A2993 RMK AO2A SLP133 T10451048,PAED,2019-01-15T00:56:00Z,61.25,-149.8,-4.5,-4.8,60,5,,7.0,29.929134,1013.3,,,TRUE,,,,,,,CLR,,,,,,,,VFR,,,,,,,,,,,,METAR,59.0
KVOK 150056Z 24005KT 5SM BR BKN008 OVC025 M03/M04 A3021 RMK AO2A SLP248,KVOK,2019-01-15T00:56:00Z,43.92,-90.27,-3.0,-4.0,240,5,,5.0,30.209646,1024.8,,,TRUE,,,,,,BR,BKN,800,OVC,2500,,,,,IFR,,,,,,,,,,,,METAR,277.0
KMIB 150056Z AUTO 17010KT 10SM FEW170 M10/M12 A3008 RMK AO2 SLP228 T10981117,KMIB,2019-01-15T00:56:00Z,48.42,-101.33,-9.8,-11.7,170,10,,10.0,30.079725,1022.8,,TRUE,TRUE,,,,,,,FEW,17000,,,,,,,VFR,,,,,,,,,,,,METAR,508.0
BGTL 150056Z AUTO 09010KT 9999 CLR M33/M38 A2964 RMK AO2 SLP033 T13281379 TSNO CHINO RWY26 $,BGTL,2019-01-15T00:56:00Z,76.53,-68.7,-32.8,-37.9,90,10,,6.21,29.639763,1003.3,,TRUE,TRUE,TRUE,,TRUE,,,,CLR,,,,,,,,VFR,,,,,,,,,,,,METAR,77.0
KP60 150056Z AUTO 00000KT M14/M16 A3020 RMK AO1 SLP353 T11391156,KP60,2019-01-15T00:56:00Z,44.55,-110.42,-13.9,-15.6,0,0,,,30.200787,1035.3,,TRUE,TRUE,,,,,,,,,,,,,,,,,,,,,,,,,,,METAR,2388.0
PHSF 150056Z AUTO 26004KT 10SM CLR 20/10 A3028 RMK AO2 SLP148 WND DATA ESTMD T02030104 $,PHSF,2019-01-15T00:56:00Z,19.77,-155.55,20.3,10.4,260,4,,10.0,30.280512,1014.8,,TRUE,TRUE,TRUE,,,,,,CLR,,,,,,,,VFR,,,,,,,,,,,,METAR,1887.0
RODN 150056Z AUTO 10005KT 10SM CLR 20/15 A3015 RMK AO2 SLP217 T02040145 $,RODN,2019-01-15T00:56:00Z,26.35,127.77,20.4,14.5,100,5,,10.0,30.15059,1021.7,,TRUE,TRUE,TRUE,,,,,,CLR,,,,,,,,VFR,,,,,,,,,,,,METAR,45.0
KSXT 150056Z AUTO 12009KT 10SM CLR 05/M06 A2984 RMK AO2 SLP111 T00501061,KSXT,2019-01-15T00:56:00Z,42.6,-123.37,5.0,-6.1,120,9,,10.0,29.840551,1011.1,,TRUE,TRUE,,,,,,,CLR,,,,,,,,VFR,,,,,,,,,,,,SPECI,1170.0
KCOF 150056Z 36010KT 10SM CLR 14/11 A3015 RMK AO2A SLP210 ALSTG ESTMD SLP ESTMD T01430107 $,KCOF,2019-01-15T00:56:00Z,28.23,-80.6,14.3,10.7,360,10,,10.0,30.15059,1021.0,,,TRUE,TRUE,,,,,,CLR,,,,,,,,VFR,,,,,,,,,,,,SPECI,3.0
HLLM 150055Z 23010KT 7000 SKC 11/M00 Q1015,HLLM,2019-01-15T00:55:00Z,32.9,13.28,11.0,0.0,230,10,,4.35,29.970472,,,,,,,,,,,SKC,,,,,,,,MVFR,,,,,,,,,,,,METAR,11.0
KCNW 150055Z 00000KT 7SM SKC 04/01 A3040,KCNW,2019-01-15T00:55:00Z,31.63,-97.07,4.0,1.0,0,0,,7.0,30.398623,,,,,,,,,,,SKC,,,,,,,,VFR,,,,,,,,,,,,METAR,156.0
FJDG 150055Z 00000KT 9999 FEW022 27/26 A2983 RMK SLP098 T02690255,FJDG,2019-01-15T00:55:00Z,-7.32,72.42,26.9,25.5,0,0,,6.21,29.828741,1009.8,,,,,,,,,,FEW,2200,,,,,,,VFR,,,,,,,,,,,,METAR,3.0
PTYA 150055Z 04010G19KT 12SM FEW016 SCT130 BKN300 30/23 A2983 RMK SLP101 T02960232,PTYA,2019-01-15T00:55:00Z,9.48,138.08,29.6,23.2,40,10,19,12.0,29.828741,1010.1,,,,,,,,,,FEW,1600,SCT,13000,BKN,30000,,,VFR,,,,,,,,,,,,METAR,17.0
RJOI 150055Z 32004KT 9999 BKN030 BKN045 OVC100 08/04 A3014 RMK SLP206 T00830039,RJOI,2019-01-15T00:55:00Z,34.13,132.22,8.3,3.9,320,4,,6.21,30.138779,1020.6,,,,,,,,,,BKN,3000,BKN,4500,OVC,10000,,,MVFR,,,,,,,,,,,,METAR,2.0
KQBL 150055Z AUTO 06003G11KT 10SM OVC016 06/03 A3032 RMK AO2 SLP267 WND DATA ESTMD T00640030,KQBL,2019-01-15T00:55:00Z,,,6.4,3.0,60,3,11,10.0,30.318897,1026.7,,TRUE,TRUE,,,,,,,OVC,1600,,,,,,,MVFR,,,,,,,,,,,,METAR,
MUHA 150055Z 03006KT 9000 BKN025 21/18 Q1020,MUHA,2019-01-15T00:55:00Z,22.97,-82.42,21.0,18.0,30,6,,5.59,30.11811,,,,,,,,,,,BKN,2500,,,,,,,MVFR,,,,,,,,,,,,METAR,64.0
PASV 150055Z AUTO 13014G23KT 10SM OVC095 05/M05 A2968 RMK AO2 PK WND 12033/0020 SLP063 T00501051,PASV,2019-01-15T00:55:00Z,61.1,-155.57,5.0,-5.1,130,14,23,10.0,29.681103,1006.3,,TRUE,TRUE,,,,,,,OVC,9500,,,,,,,VFR,,,,,,,,,,,,METAR,484.0
LICT 150055Z 32014KT 9999 SCT020 14/11 Q1009 RMK SCT VIS MIN 9999 WIND THR13 31016KT BLU,LICT,2019-01-15T00:55:00Z,37.92,12.5,14.0,11.0,320,14,,6.21,29.793306,,,,,,,,,,,SCT,2000,,,,,,,VFR,,,,,,,,,,,,SPECI,7.0
LIRS 150055Z 04005KT CAVOK 03/M00 Q1010 RMK SKC VIS MIN 9999 WIND THR03 05005KT WIND THR21 04005KT BLU,LIRS,2019-01-15T00:55:00Z,42.75,11.07,3.0,0.0,40,5,,6.21,29.822834,,,,,,,,,,,CAVOK,,,,,,,,VFR,,,,,,,,,,,,SPECI,7.0
LIRM 150055Z 05003KT 9999 FEW070 03/00 Q1008 RMK FEW VIS MIN 9999 WIND THR06 03003KT BLU,LIRM,2019-01-15T00:55:00Z,41.03,14.07,3.0,0.0,50,3,,6.21,29.763779,,,,,,,,,,,FEW,7000,,,,,,,VFR,,,,,,,,,,,,METAR,10.0
LIPC 150055Z 26008KT CAVOK 04/M02 Q1013 RMK SKC VIS MIN 9999 WIND THR11/////KT WIND THR29 27004KT BLU,LIPC,2019-01-15T00:55:00Z,44.22,12.3,4.0,-2.0,260,8,,6.21,29.911417,,,,,,,,,,,CAVOK,,,,,,,,VFR,,,,,,,,,,,,SPECI,10.0
NZWD 150055Z 05005KT 9999 FEW020 FEW090 FEW180 M04/M07 A2960 RMK SLP024 GRID22005KT SDG/HDG,NZWD,2019-01-15T00:55:00Z,-77.87,167.07,-4.0,-7.0,50,5,,6.21,29.601377,1002.4,,,,,,,,,,FEW,2000,FEW,9000,FEW,18000,,,VFR,,,,,,,,,,,,METAR,22.0
MMRX 150055Z 00000KT 2 1/2SM -DZ BR OVC015 10/08 A3035 RMK 8/7//,MMRX,2019-01-15T00:55:00Z,26.02,-98.22,10.0,8.0,0,0,,2.5,30.351377,,,,,,,,,,-DZ BR,OVC,1500,,,,,,,IFR,,,,,,,,,,,,METAR,39.0
KGPI 150055Z 00000KT 10SM OVC015 M06/M09 A3026 RMK AO2 SLP289 T10561094,KGPI,2019-01-15T00:55:00Z,48.32,-114.25,-5.6,-9.4,0,0,,10.0,30.259842,1028.9,,,TRUE,,,,,,,OVC,1500,,,,,,,MVFR,,,,,,,,,,,,METAR,908.0
KIWA 150055Z 00000KT 20SM FEW070 SCT120 BKN200 19/07 A3006,KIWA,2019-01-15T00:55:00Z,33.3,-111.65,19.0,7.0,0,0,,20.0,30.059055,,,,,,,,,,,FEW,7000,SCT,12000,BKN,20000,,,VFR,,,,,,,,,,,,METAR,412.0
KWWD 150055Z AUTO 33003KT 10SM CLR M02/M08 A3018 RMK AO2 SLP223 T10221078 FZRANO,KWWD,2019-01-15T00:55:00Z,39.02,-74.92,-2.2,-7.8,330,3,,10.0,30.180119,1022.3,,TRUE,TRUE,,,,TRUE,,,CLR,,,,,,,,VFR,,,,,,,,,,,,METAR,7.0
KDLH 150055Z 00000KT 10SM CLR M07/M09 A3017 RMK AO2 SLP242 T10671094,KDLH,2019-01-15T00:55:00Z,46.85,-92.2,-6.7,-9.4,0,0,,10.0,30.171259,1024.2,,,TRUE,,,,,,,CLR,,,,,,,,VFR,,,,,,,,,,,,SPECI,435.0
KEAT 150055Z AUTO 00000KT 10SM OVC007 M03/M04 A3024 RMK AO2 SLP257 T10281044,KEAT,2019-01-15T00:55:00Z,47.4,-120.2,-2.8,-4.4,0,0,,10.0,30.239174,1025.7,,TRUE,TRUE,,,,,,,OVC,700,,,,,,,IFR,,,,,,,,,,,,METAR,377.0
KLIC 150055Z AUTO 32004KT 10SM CLR M06/M10 A3018 RMK AO2 SLP269 T10611100,KLIC,2019-01-15T00:55:00Z,39.27,-103.67,-6.1,-10.0,320,4,,10.0,30.180119,1026.9,,TRUE,TRUE,,,,,,,CLR,,,,,,,,VFR,,,,,,,,,,,,SPECI,1630.0
KLLJ 150055Z AUTO 00000KT 10SM CLR M14/M17 A3022 RMK AO2 SLP317 T11391172,KLLJ,2019-01-15T00:55:00Z,44.52,-114.22,-13.9,-17.2,0,0,,10.0,30.221457,1031.7,,TRUE,TRUE,,,,,,,CLR,,,,,,,,VFR,,,,,,,,,,,,METAR,1536.0
KMKG 150055Z 24010KT 10SM OVC013 00/M04 A3023 RMK AO2 SLP243 T00001039 $,KMKG,2019-01-15T00:55:00Z,43.17,-86.23,0.0,-3.9,240,10,,10.0,30.230314,1024.3,,,TRUE,TRUE,,,,,,OVC,1300,,,,,,,MVFR,,,,,,,,,,,,SPECI,191.0
KPHP 150055Z AUTO 10004KT 9SM CLR M03/M04 A3017 RMK AO2 SLP244 T10331044,KPHP,2019-01-15T00:55:00Z,44.05,-101.6,-3.3,-4.4,100,4,,9.0,30.171259,1024.4,,TRUE,TRUE,,,,,,,CLR,,,,,,,,VFR,,,,,,,,,,,,SPECI,672.0
KRNO 150055Z 18005KT 10SM FEW055 BKN075 BKN120 OVC180 05/M06 A2994 RMK AO2 SLP145 ACSL DSNT E CLDS TPG MTNS DSNT SW T00501061,KRNO,2019-01-15T00:55:00Z,39.5,-119.77,5.0,-6.1,180,5,,10.0,29.940945,1014.5,,,TRUE,,,,,,,FEW,5500,BKN,7500,BKN,12000,OVC,18000,VFR,,,,,,,,,,,,SPECI,1342.0
KSCK 150055Z 12012KT 10SM OVC060 13/07 A2988 RMK AO2 RAB19E36 SLP118 P0000 T01280067,KSCK,2019-01-15T00:55:00Z,37.88,-121.22,12.8,6.7,120,12,,10.0,29.878937,1011.8,,,TRUE,,,,,,,OVC,6000,,,,,,,VFR,,,,,,0.005,,,,,,SPECI,10.0
KAAT 150055Z AUTO 19010KT 10SM BKN100 03/M05 A2992 RMK AO2 SLP155 T00331050,KAAT,2019-01-15T00:55:00Z,41.48,-120.57,3.3,-5.0,190,10,,10.0,29.920275,1015.5,,TRUE,TRUE,,,,,,,BKN,10000,,,,,,,VFR,,,,,,,,,,,,SPECI,1331.0
KANJ 150055Z AUTO 24005KT 5SM -SN BR OVC005 M01/M02 A3009 RMK AO2 SLP201 P0001 T10111022,KANJ,2019-01-15T00:55:00Z,46.47,-84.37,-1.1,-2.2,240,5,,5.0,30.088583,1020.1,,TRUE,TRUE,,,,,,-SN BR,OVC,500,,,,,,,IFR,,,,,,0.01,,,,,,SPECI,218.0
KAST 150055Z AUTO 08008KT 10SM CLR 08/M02 A2989 RMK AO2 SLP122 T00831017,KAST,2019-01-15T00:55:00Z,46.15,-123.88,8.3,-1.7,80,8,,10.0,29.890747,1012.2,,TRUE,TRUE,,,,,,,CLR,,,,,,,,VFR,,,,,,,,,,,,SPECI,3.0
KCAO 150055Z AUTO 09008KT 10SM CLR 03/M05 A3019 RMK AO2 SLP235 T00281050,KCAO,2019-01-15T00:55:00Z,36.45,-103.15,2.8,-5.0,90,8,,10.0,30.188976,1023.5,,TRUE,TRUE,,,,,,,CLR,,,,,,,,VFR,,,,,,,,,,,,SPECI,1514.0
KCMA 150055Z 07010KT 10SM FEW055 12/07 A2995 RMK AO2 SLP152 T01170067,KCMA,2019-01-15T00:55:00Z,34.22,-119.1,11.7,6.7,70,10,,10.0,29.949802,1015.2,,,TRUE,,,,,,,FEW,5500,,,,,,,VFR,,,,,,,,,,,,METAR,23.0
KUGN 150055Z 24007KT 6SM HZ OVC010 M04/M07 A3025 RMK AO2 SLP260 T10391072,KUGN,2019-01-15T00:55:00Z,42.42,-87.87,-3.9,-7.2,240,7,,6.0,30.250984,1026.0,,,TRUE,,,,,,HZ,OVC,1000,,,,,,,MVFR,,,,,,,,,,,,SPECI,222.0
KHON 150055Z AUTO VRB03KT 8SM OVC007 M03/M05 A3023 RMK AO2 SLP257 T10331050,KHON,2019-01-15T00:55:00Z,44.38,-98.23,-3.3,-5.0,0,3,,8.0,30.230314,1025.7,,TRUE,TRUE,,,,,,,OVC,700,,,,,,,IFR,,,,,,,,,,,,SPECI,390.0
KINL 150055Z AUTO 00000KT 10SM CLR M13/M14 A3021 RMK AO2 SLP258 T11331144,KINL,2019-01-15T00:55:00Z,48.57,-93.4,-13.3,-14.4,0,0,,10.0,30.209646,1025.8,,TRUE,TRUE,,,,,,,CLR,,,,,,,,VFR,,,,,,,,,,,,SPECI,360.0
KIRK 150055Z AUTO 23009KT 1 3/4SM BR OVC002 M03/M03 A3030 RMK AO2 SLP278 I1000 T10281028,KIRK,2019-01-15T00:55:00Z,40.1,-92.55,-2.8,-2.8,230,9,,1.75,30.301182,1027.8,,TRUE,TRUE,,,,,,BR,OVC,200,,,,,,,LIFR,,,,,,,,,,,,METAR,293.0
KNBG 150055Z 02008KT 10SM OVC021 07/03 A3035 RMK AO2 SLP275 T00670033 $,KNBG,2019-01-15T00:55:00Z,29.82,-90.02,6.7,3.3,20,8,,10.0,30.351377,1027.5,,,TRUE,TRUE,,,,,,OVC,2100,,,,,,,MVFR,,,,,,,,,,,,METAR,1.0
PAIM 150055Z AUTO 00000KT 10SM CLR M17/M19 A2997 RMK AO2 SLP193 T11691189,PAIM,2019-01-15T00:55:00Z,66.0,-153.7,-16.9,-18.9,0,0,,10.0,29.970472,1019.3,,TRUE,TRUE,,,,,,,CLR,,,,,,,,VFR,,,,,,,,,,,,METAR,389.0
PATL 150055Z AUTO 08005KT 10SM BKN160 M09/M11 A2982 RMK AO2 SLP128 T10911108,PATL,2019-01-15T00:55:00Z,62.9,-155.97,-9.1,-10.8,80,5,,10.0,29.819881,1012.8,,TRUE,TRUE,,,,,,,BKN,16000,,,,,,,VFR,,,,,,,,,,,,METAR,294.0
LIRE 150055Z 02007KT CAVOK 07/04 Q1008 RMK SKC VIS MIN 9999 WIND THR13 03007KT WIND THR31 /////KT BLU,LIRE,2019-01-15T00:55:00Z,41.63,12.42,7.0,4.0,20,7,,6.21,29.763779,,,,,,,,,,,CAVOK,,,,,,,,VFR,,,,,,,,,,,,SPECI,12.0
LIQC 150055Z 27002KT CAVOK 09/02 Q1007 RMK SKC QUK / QUL / VIS MAR 10 KM VIS MIN 9999,LIQC,2019-01-15T00:55:00Z,40.55,14.2,9.0,2.0,270,2,,6.21,29.734253,,,,,,,,,,,CAVOK,,,,,,,,VFR,,,,,,,,,,,,SPECI,269.0
LIPS 150055Z 32012KT CAVOK 08/M06 Q1013 RMK SKC VIS MIN 9999 WIND THR26 26014KT WIND THR08 32015KT BLU,LIPS,2019-01-15T00:55:00Z,45.67,12.08,8.0,-6.0,320,12,,6.21,29.911417,,,,,,,,,,,CAVOK,,,,,,,,VFR,,,,,,,,,,,,SPECI,41.0
LIPL 150055Z 36006KT CAVOK 04/M03 Q1013 RMK SKC VIS MIN 9999 WIND THR31 01006KT WIND THR13 33005KT BLU,LIPL,2019-01-15T00:55:00Z,45.42,10.27,4.0,-3.0,360,6,,6.21,29.911417,,,,,,,,,,,CAVOK,,,,,,,,VFR,,,,,,,,,,,,SPECI,92.0
LIMU 150055Z 03008KT CAVOK 11/M04 Q1012 RMK SKC QUK / QUL / VIS MAR 30 KM VIS MIN 9999,LIMU,2019-01-15T00:55:00Z,43.95,8.17,11.0,-4.0,30,8,,6.21,29.88189,,,,,,,,,,,CAVOK,,,,,,,,VFR,,,,,,,,,,,,SPECI,221.0
LIMK 150055Z 17003KT CAVOK 04/M10 Q1012 RMK SKC VAL NIL VIS MIN 9999,LIMK,2019-01-15T00:55:00Z,45.02,7.72,4.0,-10.0,170,3,,6.21,29.88189,,,,,,,,,,,CAVOK,,,,,,,,VFR,,,,,,,,,,,,SPECI,710.0
LIMH 150055Z /////KT CAVOK M16/M16 Q1010 RMK SKC MON LIB VAL NIL VIS MIN 9999,LIMH,2019-01-15T00:55:00Z,45.93,7.7,-16.0,-16.0,,,,6.21,29.822834,,,,,,,,,,,CAVOK,,,,,,,,VFR,,,,,,,,,,,,SPECI,3488.0
LIED 150055Z 05005KT 9999 FEW025 09/08 Q1013 RMK SCT SCT200 VIS MIN 9999 WIND THR35 /////KT WIND THR17 /////KT BLU,LIED,2019-01-15T00:55:00Z,39.35,8.97,9.0,8.0,50,5,,6.21,29.911417,,,,,,,,,,,FEW,2500,,,,,,,VFR,,,,,,,,,,,,SPECI,28.0
LICZ 150055Z 25011KT 9999 FEW090 09/09 Q1006 RMK FEW VIS MIN 9999 WIND THR28 /////KT WIND THR10 26010KT A2973 BLU,LICZ,2019-01-15T00:55:00Z,37.38,14.92,9.0,9.0,250,11,,6.21,29.704725,,,,,,,,,,,FEW,9000,,,,,,,VFR,,,,,,,,,,,,METAR,22.0
LIBY 150055Z 36012KT 9999 -RA BKN013 08/05 Q1002 RMK OVC OVC070 QUK / QUL / VIS MAR 10 KM VIS MIN 9999,LIBY,2019-01-15T00:55:00Z,39.82,18.35,8.0,5.0,360,12,,6.21,29.586615,,,,,,,,,,-RA,BKN,1300,,,,,,,MVFR,,,,,,,,,,,,SPECI,112.0
LIBQ 150055Z 05014KT 0000 -SN FZFG VV/// M03/M03 Q1001 RMK MON INVIS VAL INVIS VIS MIN 0000,LIBQ,2019-01-15T00:55:00Z,39.32,16.38,-3.0,-3.0,50,14,,0.0,29.557087,,,,,,,,,,-SN FZFG,OVX,0,,,,,,,LIFR,,,,,,,,,,,,SPECI,1720.0
LIVF 150055Z 24007KT CAVOK 05/M09 Q1010 RMK SKC MON LIB VAL NIL VIS MIN 9999,LIVF,2019-01-15T00:55:00Z,43.52,12.72,5.0,-9.0,240,7,,6.21,29.822834,,,,,,,,,,,CAVOK,,,,,,,,VFR,,,,,,,,,,,,SPECI,574.0
LIVE 150055Z 04007KT 5000 -SN BR SCT012 BKN018 M05/M08 Q1013 RMK OVC VIS MIN 5000,LIVE,2019-01-15T00:55:00Z,46.85,10.5,-5.0,-8.0,40,7,,3.11,29.911417,,,,,,,,,,-SN BR,SCT,1200,BKN,1800,,,,,MVFR,,,,,,,,,,,,SPECI,1800.0
LIVC 150055Z 34014G26KT CAVOK M07/M14 Q1009 RMK SKC MON LIB VAL NIL VIS MIN 9999,LIVC,2019-01-15T00:55:00Z,44.2,10.68,-7.0,-14.0,340,14,26,6.21,29.793306,,,,,,,,,,,CAVOK,,,,,,,,VFR,,,,,,,,,,,,SPECI,2173.0
LIRT 150055Z 04005KT CAVOK M00/M03 Q1005 RMK SKC MON INVIS VAL INVIS VIS MIN 9999,LIRT,2019-01-15T00:55:00Z,41.03,15.22,0.0,-3.0,40,5,,6.21,29.675198,,,,,,,,,,,CAVOK,,,,,,,,VFR,,,,,,,,,,,,SPECI,1093.0
LIRK 150055Z AUTO 06012G23KT //// M03/M11 Q1007,LIRK,2019-01-15T00:55:00Z,42.47,12.97,-3.0,-11.0,60,12,23,,29.734253,,,TRUE,,,,,,,,,,,,,,,,,,,,,,,,,,,,SPECI,1875.0
LIVP 150055Z 32006KT CAVOK M08/M15 Q1007 RMK SKC MON LIB VAL NIL VIS MIN 9999,LIVP,2019-01-15T00:55:00Z,46.15,11.03,-8.0,-15.0,320,6,,6.21,29.734253,,,,,,,,,,,CAVOK,,,,,,,,VFR,,,,,,,,,,,,SPECI,2129.0
OAJL 150055Z 26002KT 9000 HZ BKN130 05/M05 A3015 RMK AO2A SLP217 T00531058,OAJL,2019-01-15T00:55:00Z,34.42,70.47,5.3,-5.8,260,2,,5.59,30.15059,1021.7,,,TRUE,,,,,,HZ,BKN,13000,,,,,,,VFR,,,,,,,,,,,,METAR,580.0
KQVF 150055Z AUTO 00000KT 7SM SCT120 OVC160 26/ A2981 RMK AO2 SLP095 WND DATA ESTMD T0258,KQVF,2019-01-15T00:55:00Z,,,25.8,,0,0,,7.0,29.811024,1009.5,,TRUE,TRUE,,,,,,,SCT,12000,OVC,16000,,,,,VFR,,,,,,,,,,,,METAR,
ORBD 150055Z 13003KT 4000 BRDU OVC042 06/05 A3008 RMK WND DATA ALSTG ESTMD FIRST,ORBD,2019-01-15T00:55:00Z,33.93,44.37,6.0,5.0,130,3,,2.49,30.079725,,,,,,,,,,DU BR,OVC,4200,,,,,,,IFR,,,,,,,,,,,,METAR,49.0
LIBN 150055Z 32006KT 9999 SCT025 04/03 Q1005 RMK OVC BKN090 VIS MIN 9999 WIND TRH14 31008KT WIND TRH32 32006KT,LIBN,2019-01-15T00:55:00Z,40.22,18.13,4.0,3.0,320,6,,6.21,29.675198,,,,,,,,,,,SCT,2500,,,,,,,VFR,,,,,,,,,,,,SPECI,61.0
KVBG 150055Z 14009KT 10SM FEW004 SCT019 BKN025 BKN035 BKN055 11/10 A2991 RMK RAB0014RAE0040 SLP132P0000 T01140100,KVBG,2019-01-15T00:55:00Z,34.73,-120.58,11.4,10.0,140,9,,10.0,29.911417,1013.2,,,,,,,,,,FEW,400,SCT,1900,BKN,2500,BKN,3500,MVFR,,,,,,,,,,,,METAR,112.0
KADM 150055Z 00000KT 10SM CLR 04/01 A3036,KADM,2019-01-15T00:55:00Z,34.28,-97.02,4.0,1.0,0,0,,10.0,30.360237,,,,,,,,,,,CLR,,,,,,,,VFR,,,,,,,,,,,,METAR,232.0
TXKF 150055Z 27021KT 9999 VCSH SCT028 BKN036 OVC060 19/16 Q1011 ,TXKF,2019-01-15T00:55:00Z,32.37,-64.68,19.0,16.0,270,21,,6.21,29.852362,,,,,,,,,,VCSH,SCT,2800,BKN,3600,OVC,6000,,,VFR,,,,,,,,,,,,METAR,6.0
TNCE 150055Z AUTO 06011KT 030V100 //// // ///////// 24/20 Q1018 RE//,TNCE,2019-01-15T00:55:00Z,17.47,-62.97,24.0,20.0,60,11,,,30.059055,,,TRUE,,,,,,,,,,,,,,,,,,,,,,,,,,,,METAR,39.0
TNCB 150055Z AUTO 09013KT 9999 FEW023/// 26/21 Q1015,TNCB,2019-01-15T00:55:00Z,12.13,-68.28,26.0,21.0,90,13,,6.21,29.970472,,,TRUE,,,,,,,,FEW,2300,,,,,,,VFR,,,,,,,,,,,,METAR,6.0
KMTC 150055Z 21004KT 12SM SCT210 M04/M06 A3021 RMK AO2A SLP246 WND DATA ESTMD T10371059 $,KMTC,2019-01-15T00:55:00Z,42.62,-82.82,-3.7,-5.9,210,4,,12.0,30.209646,1024.6,,,TRUE,TRUE,,,,,,SCT,21000,,,,,,,VFR,,,,,,,,,,,,METAR,177.0
KQZF 150055Z AUTO 01003KT 5SM HZ CLR 15/M07 A3006 RMK AO2 SLP171 WND DATA ESTMD T01481074 $,KQZF,2019-01-15T00:55:00Z,,,14.8,-7.4,10,3,,5.0,30.059055,1017.1,,TRUE,TRUE,TRUE,,,,,HZ,CLR,,,,,,,,MVFR,,,,,,,,,,,,METAR,
KGXF 150055Z 08003KT 10SM BKN060 BKN100 BKN200 19/10 A3000 RMK AO2A CONTRAILS SLPNO WND DATA ESTMD ALSTG ESTMD $,KGXF,2019-01-15T00:55:00Z,32.87,-112.72,19.0,10.0,80,3,,10.0,30.0,,,,TRUE,TRUE,,,,,,BKN,6000,BKN,10000,BKN,20000,,,VFR,,,,,,,,,,,,METAR,262.0
KMTP 150054Z AUTO 35004KT M01/M08 A3011 RMK AO1 SLP197 T10061078,KMTP,2019-01-15T00:54:00Z,41.07,-71.92,-0.6,-7.8,350,4,,,30.109253,1019.7,,TRUE,TRUE,,,,,,,,,,,,,,,,,,,,,,,,,,,SPECI,2.0
PKMR 150054Z 09008KT 15SM SCT015 BKN050 BKN120 OVC300 28/25 A2976 RMK SLP080 T02820246,PKMR,2019-01-15T00:54:00Z,7.08,171.38,28.2,24.6,90,8,,15.0,29.760826,1008.0,,,,,,,,,,SCT,1500,BKN,5000,BKN,12000,OVC,30000,VFR,,,,,,,,,,,,METAR,4.0
KNAK 150054Z AUTO 00000KT 10SM CLR M02/M07 A3020 RMK AO2 SLP228 T10171067,KNAK,2019-01-15T00:54:00Z,38.98,-76.48,-1.7,-6.7,0,0,,10.0,30.200787,1022.8,,TRUE,TRUE,,,,,,,CLR,,,,,,,,VFR,,,,,,,,,,,,SPECI,2.0
KNKT 150054Z 35006KT 10SM FEW018 OVC075 04/01 A3022 RMK AO2 SLP229 T00440011 PNO $,KNKT,2019-01-15T00:54:00Z,34.9,-76.88,4.4,1.1,350,6,,10.0,30.221457,1022.9,,,TRUE,TRUE,,,,,,FEW,1800,OVC,7500,,,,,VFR,,,,,,,,,,,,METAR,9.0
K12N 150054Z AUTO 00000KT M07/M11 A3013 RMK AO1 SLP221 T10671106,K12N,2019-01-15T00:54:00Z,41.02,-74.73,-6.7,-10.6,0,0,,,30.129921,1022.1,,TRUE,TRUE,,,,,,,,,,,,,,,,,,,,,,,,,,,SPECI,177.0
PGUM 150054Z 06011KT 5SM -RA BR BKN030 OVC038 27/26 A2989 RMK AO2 PK WND 04026/0006 RAE00B34 SLP112 P0001 T02670261,PGUM,2019-01-15T00:54:00Z,13.48,144.8,26.7,26.1,60,11,,5.0,29.890747,1011.2,,,TRUE,,,,,,-RA BR,BKN,3000,OVC,3800,,,,,MVFR,,,,,,0.01,,,,,,METAR,91.0
KBKB 150054Z AUTO 00000KT 10SM OVC017 05/02 A3037 RMK AO2 SLP316 T00500017 $,KBKB,2019-01-15T00:54:00Z,31.0,-92.92,5.0,1.7,0,0,,10.0,30.369095,1031.6,,TRUE,TRUE,TRUE,,,,,,OVC,1700,,,,,,,MVFR,,,,,,,,,,,,METAR,94.0
KBTV 150054Z 09003KT 10SM BKN200 M11/M14 A3016 RMK AO2 SLP223 T11111139,KBTV,2019-01-15T00:54:00Z,44.47,-73.15,-11.1,-13.9,90,3,,10.0,30.159449,1022.3,,,TRUE,,,,,,,BKN,20000,,,,,,,VFR,,,,,,,,,,,,METAR,105.0
KBUY 150054Z AUTO 00000KT 10SM OVC039 04/01 A3020 RMK AO2 SLP230 T00390006,KBUY,2019-01-15T00:54:00Z,36.05,-79.47,3.9,0.6,0,0,,10.0,30.200787,1023.0,,TRUE,TRUE,,,,,,,OVC,3900,,,,,,,VFR,,,,,,,,,,,,METAR,180.0
KBWI 150054Z 25003KT 10SM CLR M04/M08 A3019 RMK AO2 SLP223 T10441083,KBWI,2019-01-15T00:54:00Z,39.17,-76.68,-4.4,-8.3,250,3,,10.0,30.188976,1022.3,,,TRUE,,,,,,,CLR,,,,,,,,VFR,,,,,,,,,,,,METAR,59.0
KCEU 150054Z AUTO 00000KT 10SM OVC018 06/04 A3019 RMK AO2 SLP227 T00610044,KCEU,2019-01-15T00:54:00Z,34.67,-82.88,6.1,4.4,0,0,,10.0,30.188976,1022.7,,TRUE,TRUE,,,,,,,OVC,1800,,,,,,,MVFR,,,,,,,,,,,,METAR,268.0
KCAR 150054Z AUTO 00000KT 10SM CLR M14/M19 A3002 RMK AO2 SLP186 T11441189,KCAR,2019-01-15T00:54:00Z,46.87,-68.02,-14.4,-18.9,0,0,,10.0,30.02067,1018.6,,TRUE,TRUE,,,,,,,CLR,,,,,,,,VFR,,,,,,,,,,,,METAR,191.0
KCOS 150054Z 00000KT 10SM FEW240 02/M12 A3019 RMK AO2 SLP260 T00221117,KCOS,2019-01-15T00:54:00Z,38.82,-104.68,2.2,-11.7,0,0,,10.0,30.188976,1026.0,,,TRUE,,,,,,,FEW,24000,,,,,,,VFR,,,,,,,,,,,,METAR,1856.0
KROC 150054Z 28003KT 10SM FEW140 BKN200 M08/M10 A3020 RMK AO2 SLP242 T10781100,KROC,2019-01-15T00:54:00Z,43.12,-77.68,-7.8,-10.0,280,3,,10.0,30.200787,1024.2,,,TRUE,,,,,,,FEW,14000,BKN,20000,,,,,VFR,,,,,,,,,,,,METAR,178.0
KRST 150054Z 32009KT 10SM OVC008 M02/M03 A3021 RMK AO2 CIG 007V011 SLP249 T10221033,KRST,2019-01-15T00:54:00Z,43.9,-92.5,-2.2,-3.3,320,9,,10.0,30.209646,1024.9,,,TRUE,,,,,,,OVC,800,,,,,,,IFR,,,,,,,,,,,,METAR,403.0
KSBN 150054Z 24008KT 7SM OVC009 M04/M07 A3029 RMK AO2 SLP271 T10441067,KSBN,2019-01-15T00:54:00Z,41.7,-86.32,-4.4,-6.7,240,8,,7.0,30.28937,1027.1,,,TRUE,,,,,,,OVC,900,,,,,,,IFR,,,,,,,,,,,,METAR,237.0
KSET 150054Z AUTO 25006KT 10SM OVC016 01/M02 A3034 RMK AO2 SLP278 T00061022,KSET,2019-01-15T00:54:00Z,38.93,-90.43,0.6,-2.2,250,6,,10.0,30.339567,1027.8,,TRUE,TRUE,,,,,,,OVC,1600,,,,,,,MVFR,,,,,,,,,,,,METAR,134.0
KSBY 150054Z 33003KT 10SM CLR M04/M07 A3019 RMK AO2 SLP225 T10391072,KSBY,2019-01-15T00:54:00Z,38.33,-75.5,-3.9,-7.2,330,3,,10.0,30.188976,1022.5,,,TRUE,,,,,,,CLR,,,,,,,,VFR,,,,,,,,,,,,METAR,19.0
KSJN 150054Z AUTO 29005KT 10SM FEW055 05/03 A3017 RMK AO2 SLP205 T00500028,KSJN,2019-01-15T00:54:00Z,34.52,-109.38,5.0,2.8,290,5,,10.0,30.171259,1020.5,,TRUE,TRUE,,,,,,,FEW,5500,,,,,,,VFR,,,,,,,,,,,,METAR,1745.0
KSLC 150054Z 35006KT 10SM FEW120 FEW180 SCT230 M04/M07 A3026 RMK AO2 SLP276 T10391072,KSLC,2019-01-15T00:54:00Z,40.77,-111.97,-3.9,-7.2,350,6,,10.0,30.259842,1027.6,,,TRUE,,,,,,,FEW,12000,FEW,18000,SCT,23000,,,VFR,,,,,,,,,,,,METAR,1286.0
KSUS 150054Z 26004KT 5SM HZ OVC016 01/M02 A3034 RMK AO2 SLP283 T00061022,KSUS,2019-01-15T00:54:00Z,38.65,-90.65,0.6,-2.2,260,4,,5.0,30.339567,1028.3,,,TRUE,,,,,,HZ,OVC,1600,,,,,,,MVFR,,,,,,,,,,,,METAR,141.0
KTAD 150054Z AUTO 00000KT 10SM CLR 03/M02 A3019 RMK AO2 SLP240 T00281022,KTAD,2019-01-15T00:54:00Z,37.27,-104.33,2.8,-2.2,0,0,,10.0,30.188976,1024.0,,TRUE,TRUE,,,,,,,CLR,,,,,,,,VFR,,,,,,,,,,,,METAR,1756.0
KSYR 150054Z 00000KT 9SM BKN200 M11/M12 A3021 RMK AO2 SLP235 T11061117,KSYR,2019-01-15T00:54:00Z,43.12,-76.1,-10.6,-11.7,0,0,,9.0,30.209646,1023.5,,,TRUE,,,,,,,BKN,20000,,,,,,,VFR,,,,,,,,,,,,METAR,127.0
KMFI 150054Z AUTO 26006KT 2SM BR OVC003 M03/M04 A3017 RMK AO2 SLP237 I1001 T10331039,KMFI,2019-01-15T00:54:00Z,44.63,-90.18,-3.3,-3.9,260,6,,2.0,30.171259,1023.7,,TRUE,TRUE,,,,,,BR,OVC,300,,,,,,,LIFR,,,,,,,,,,,,METAR,389.0
KMGJ 150054Z AUTO 00000KT 10SM CLR M07/M10 A3013 RMK AO2 SLP210 T10721100,KMGJ,2019-01-15T00:54:00Z,41.52,-74.27,-7.2,-10.0,0,0,,10.0,30.129921,1021.0,,TRUE,TRUE,,,,,,,CLR,,,,,,,,VFR,,,,,,,,,,,,METAR,108.0
KMIV 150054Z AUTO 25004KT 10SM CLR A3017 RMK AO2 SLPNO TSNO $,KMIV,2019-01-15T00:54:00Z,39.37,-75.08,,,250,4,,10.0,30.171259,,,TRUE,TRUE,TRUE,,TRUE,,,,CLR,,,,,,,,VFR,,,,,,,,,,,,METAR,23.0
KMKC 150054Z 23008KT 9SM OVC005 M01/M03 A3033 RMK AO2 SLP279 T10111033,KMKC,2019-01-15T00:54:00Z,39.12,-94.6,-1.1,-3.3,230,8,,9.0,30.33071,1027.9,,,TRUE,,,,,,,OVC,500,,,,,,,IFR,,,,,,,,,,,,METAR,227.0
KMOT 150054Z 17008KT 10SM CLR M06/M09 A3010 RMK AO2 SLP227 T10561089,KMOT,2019-01-15T00:54:00Z,48.25,-101.27,-5.6,-8.9,170,8,,10.0,30.100393,1022.7,,,TRUE,,,,,,,CLR,,,,,,,,VFR,,,,,,,,,,,,METAR,519.0
KMVL 150054Z AUTO 00000KT 10SM CLR M16/M17 A3014 RMK AO2 SLP229 T11561172,KMVL,2019-01-15T00:54:00Z,44.53,-72.62,-15.6,-17.2,0,0,,10.0,30.138779,1022.9,,TRUE,TRUE,,,,,,,CLR,,,,,,,,VFR,,,,,,,,,,,,METAR,234.0
KMRY 150054Z 12003KT 9SM -RA BKN050 OVC055 12/08 A2986 RMK AO2 RAB08 SLP123 P0003 T01220083,KMRY,2019-01-15T00:54:00Z,36.58,-121.85,12.2,8.3,120,3,,9.0,29.861221,1012.3,,,TRUE,,,,,,-RA,BKN,5000,OVC,5500,,,,,VFR,,,,,,0.03,,,,,,METAR,66.0
KOFP 150054Z AUTO 00000KT 9SM OVC085 00/M02 A3023 RMK AO2 SLP236 T00001022,KOFP,2019-01-15T00:54:00Z,37.7,-77.43,0.0,-2.2,0,0,,9.0,30.230314,1023.6,,TRUE,TRUE,,,,,,,OVC,8500,,,,,,,VFR,,,,,,,,,,,,METAR,62.0
KOLM 150054Z 00000KT M1/4SM FG VV001 02/02 A2997 RMK AO2 SLP150 T00220022,KOLM,2019-01-15T00:54:00Z,46.97,-122.9,2.2,2.2,0,0,,0.25,29.970472,1015.0,,,TRUE,,,,,,FG,OVX,0,,,,,,,LIFR,,,,,,,,,,,100,METAR,58.0
KOLS 150054Z AUTO 12004KT 10SM CLR 14/M03 A3012 RMK AO2 SLP173 T01391033,KOLS,2019-01-15T00:54:00Z,31.42,-110.85,13.9,-3.3,120,4,,10.0,30.121063,1017.3,,TRUE,TRUE,,,,,,,CLR,,,,,,,,VFR,,,,,,,,,,,,METAR,1184.0
KAAO 150054Z AUTO 17004KT 5SM BR CLR M01/M01 A3030 RMK AO2 SLP276 T10061006,KAAO,2019-01-15T00:54:00Z,37.75,-97.22,-0.6,-0.6,170,4,,5.0,30.301182,1027.6,,TRUE,TRUE,,,,,,BR,CLR,,,,,,,,MVFR,,,,,,,,,,,,METAR,434.0
KACY 150054Z 26004KT 10SM CLR M04/M07 A3016 RMK AO2 SLP215 T10391072,KACY,2019-01-15T00:54:00Z,39.45,-74.57,-3.9,-7.2,260,4,,10.0,30.159449,1021.5,,,TRUE,,,,,,,CLR,,,,,,,,VFR,,,,,,,,,,,,METAR,23.0
PAHN 150054Z AUTO 29007KT 10SM SCT017 OVC023 00/M01 A3010 RMK AO2 SLP196 T00001006 TSNO,PAHN,2019-01-15T00:54:00Z,59.25,-135.52,0.0,-0.6,290,7,,10.0,30.100393,1019.6,,TRUE,TRUE,,,TRUE,,,,SCT,1700,OVC,2300,,,,,MVFR,,,,,,,,,,,,METAR,5.0
PAKN 150054Z 11021G34KT 10SM CLR A2945 RMK AO2 PK WND 11034/0043 SLPNO $,PAKN,2019-01-15T00:54:00Z,58.68,-156.65,,,110,21,34,10.0,29.450787,,,,TRUE,TRUE,,,,,,CLR,,,,,,,,VFR,,,,,,,,,,,,METAR,17.0
KFWA 150054Z 22008KT 9SM FEW023 M08/M11 A3028 RMK AO2 SLP271 T10781106,KFWA,2019-01-15T00:54:00Z,40.98,-85.18,-7.8,-10.6,220,8,,9.0,30.280512,1027.1,,,TRUE,,,,,,,FEW,2300,,,,,,,VFR,,,,,,,,,,,,METAR,248.0
KFZY 150054Z AUTO 00000KT 8SM CLR M11/M14 A3021 RMK AO2 SLP239 I1001 T11111139,KFZY,2019-01-15T00:54:00Z,43.35,-76.38,-11.1,-13.9,0,0,,8.0,30.209646,1023.9,,TRUE,TRUE,,,,,,,CLR,,,,,,,,VFR,,,,,,,,,,,,METAR,138.0
KGCN 150054Z 09007KT 10SM BKN090 00/M02 A3017 RMK AO2 SLP221 T00001022,KGCN,2019-01-15T00:54:00Z,35.95,-112.15,0.0,-2.2,90,7,,10.0,30.171259,1022.1,,,TRUE,,,,,,,BKN,9000,,,,,,,VFR,,,,,,,,,,,,METAR,2016.0
KGED 150054Z AUTO 00000KT 10SM CLR M02/M08 A3019 RMK AO2 SLP222 T10221083,KGED,2019-01-15T00:54:00Z,38.68,-75.37,-2.2,-8.3,0,0,,10.0,30.188976,1022.2,,TRUE,TRUE,,,,,,,CLR,,,,,,,,VFR,,,,,,,,,,,,METAR,19.0
KGSO 150054Z 09003KT 8SM SCT021 BKN028 OVC043 03/02 A3018 RMK AO2 SLP227 T00280017,KGSO,2019-01-15T00:54:00Z,36.1,-79.95,2.8,1.7,90,3,,8.0,30.180119,1022.7,,,TRUE,,,,,,,SCT,2100,BKN,2800,OVC,4300,,,MVFR,,,,,,,,,,,,METAR,275.0
KHWD 150054Z 14011KT 10SM BKN060 14/08 A2984 RMK AO2 RAB12E35 SLP115 P0000 T01390078,KHWD,2019-01-15T00:54:00Z,37.67,-122.12,13.9,7.8,140,11,,10.0,29.840551,1011.5,,,TRUE,,,,,,,BKN,6000,,,,,,,VFR,,,,,,0.005,,,,,,METAR,21.0
KORH 150054Z 33005KT 10SM CLR M04/M16 A3004 RMK AO2 SLP191 T10441156,KORH,2019-01-15T00:54:00Z,42.27,-71.87,-4.4,-15.6,330,5,,10.0,30.041338,1019.1,,,TRUE,,,,,,,CLR,,,,,,,,VFR,,,,,,,,,,,,METAR,304.0
KPHF 150054Z 33004KT 10SM BKN065 M01/M04 A3021 RMK AO2 SLP229 T10061039,KPHF,2019-01-15T00:54:00Z,37.13,-76.5,-0.6,-3.9,330,4,,10.0,30.209646,1022.9,,,TRUE,,,,,,,BKN,6500,,,,,,,VFR,,,,,,,,,,,,METAR,12.0
KPHL 150054Z 29008KT 10SM CLR M01/M11 A3018 RMK AO2 SLP218 T10111106,KPHL,2019-01-15T00:54:00Z,39.87,-75.23,-1.1,-10.6,290,8,,10.0,30.180119,1021.8,,,TRUE,,,,,,,CLR,,,,,,,,VFR,,,,,,,,,,,,METAR,18.0
KPIA 150054Z 26005KT 7SM OVC009 M02/M04 A3031 RMK AO2 SLP276 T10221044,KPIA,2019-01-15T00:54:00Z,40.67,-89.68,-2.2,-4.4,260,5,,7.0,30.31004,1027.6,,,TRUE,,,,,,,OVC,900,,,,,,,IFR,,,,,,,,,,,,METAR,205.0
KPNE 150054Z 00000KT 10SM CLR M02/M11 A3017 RMK AO2 SLP219 T10171111,KPNE,2019-01-15T00:54:00Z,40.08,-75.02,-1.7,-11.1,0,0,,10.0,30.171259,1021.9,,,TRUE,,,,,,,CLR,,,,,,,,VFR,,,,,,,,,,,,METAR,28.0
KRDG 150054Z 00000KT 10SM CLR M03/M08 A3016 RMK AO2 SLP222 T10331083,KRDG,2019-01-15T00:54:00Z,40.37,-75.97,-3.3,-8.3,0,0,,10.0,30.159449,1022.2,,,TRUE,,,,,,,CLR,,,,,,,,VFR,,,,,,,,,,,,METAR,109.0
KRFD 150054Z 24006KT 3SM BR OVC007 M04/M06 A3029 RMK AO2 SLP268 T10391061,KRFD,2019-01-15T00:54:00Z,42.2,-89.1,-3.9,-6.1,240,6,,3.0,30.28937,1026.8,,,TRUE,,,,,,BR,OVC,700,,,,,,,IFR,,,,,,,,,,,,METAR,221.0
KRIC 150054Z 29004KT 10SM BKN085 M01/M03 A3021 RMK AO2 SLP237 T10061028,KRIC,2019-01-15T00:54:00Z,37.52,-77.32,-0.6,-2.8,290,4,,10.0,30.209646,1023.7,,,TRUE,,,,,,,BKN,8500,,,,,,,VFR,,,,,,,,,,,,METAR,50.0
KDDH 150054Z AUTO 19003KT 10SM CLR M08/M13 A3012 RMK AO2 SLP216 T10831128,KDDH,2019-01-15T00:54:00Z,42.9,-73.25,-8.3,-12.8,190,3,,10.0,30.121063,1021.6,,TRUE,TRUE,,,,,,,CLR,,,,,,,,VFR,,,,,,,,,,,,METAR,244.0
KDEC 150054Z 21004KT 9SM OVC009 M04/M07 A3033 RMK AO2 SLP284 T10391067,KDEC,2019-01-15T00:54:00Z,39.83,-88.85,-3.9,-6.7,210,4,,9.0,30.33071,1028.4,,,TRUE,,,,,,,OVC,900,,,,,,,IFR,,,,,,,,,,,,METAR,207.0
KDSM 150054Z 26007KT 5SM -FZDZ BR OVC004 M02/M03 A3027 RMK AO2 SNE02 SLP262 P0000 I1000 T10221028,KDSM,2019-01-15T00:54:00Z,41.53,-93.67,-2.2,-2.8,260,7,,5.0,30.268702,1026.2,,,TRUE,,,,,,-FZDZ BR,OVC,400,,,,,,,LIFR,,,,,,0.005,,,,,,METAR,295.0
KDSV 150054Z AUTO 00000KT 10SM CLR M05/M11 A3019 RMK AO2 SLP245 T10501106,KDSV,2019-01-15T00:54:00Z,42.57,-77.72,-5.0,-10.6,0,0,,10.0,30.188976,1024.5,,TRUE,TRUE,,,,,,,CLR,,,,,,,,VFR,,,,,,,,,,,,METAR,198.0
KDYL 150054Z AUTO 00000KT 10SM CLR M04/M12 A3013 RMK AO2 SLP215 T10391117,KDYL,2019-01-15T00:54:00Z,40.33,-75.12,-3.9,-11.7,0,0,,10.0,30.129921,1021.5,,TRUE,TRUE,,,,,,,CLR,,,,,,,,VFR,,,,,,,,,,,,METAR,117.0
KECG 150054Z 36006KT 10SM CLR 01/M03 A3020 RMK AO2 SLP226 T00111028,KECG,2019-01-15T00:54:00Z,36.27,-76.18,1.1,-2.8,360,6,,10.0,30.200787,1022.6,,,TRUE,,,,,,,CLR,,,,,,,,VFR,,,,,,,,,,,,METAR,11.0
KEUG 150054Z 00000KT 10SM FEW100 04/01 A2990 RMK AO2 SLP127 T00440006,KEUG,2019-01-15T00:54:00Z,44.13,-123.22,4.4,0.6,0,0,,10.0,29.899607,1012.7,,,TRUE,,,,,,,FEW,10000,,,,,,,VFR,,,,,,,,,,,,METAR,114.0
KEVV 150054Z 29003KT 10SM CLR M01/M03 A3035 RMK AO2 SLP282 T10111033,KEVV,2019-01-15T00:54:00Z,38.05,-87.52,-1.1,-3.3,290,3,,10.0,30.351377,1028.2,,,TRUE,,,,,,,CLR,,,,,,,,VFR,,,,,,,,,,,,METAR,117.0
KEWN 150054Z 33003KT 10SM OVC080 03/M01 A3022 RMK AO2 SLP231 T00281006,KEWN,2019-01-15T00:54:00Z,35.07,-77.05,2.8,-0.6,330,3,,10.0,30.221457,1023.1,,,TRUE,,,,,,,OVC,8000,,,,,,,VFR,,,,,,,,,,,,METAR,3.0
KFFZ 150054Z 08004KT 10SM BKN100 18/07 A3005 RMK AO2 SLP162 T01830067,KFFZ,2019-01-15T00:54:00Z,33.47,-111.72,18.3,6.7,80,4,,10.0,30.050198,1016.2,,,TRUE,,,,,,,BKN,10000,,,,,,,VFR,,,,,,,,,,,,METAR,424.0
KFIG 150054Z AUTO 22004KT 10SM CLR M03/M09 A3014 RMK AO2 SLP235 T10281094,KFIG,2019-01-15T00:54:00Z,41.05,-78.42,-2.8,-9.4,220,4,,10.0,30.138779,1023.5,,TRUE,TRUE,,,,,,,CLR,,,,,,,,VFR,,,,,,,,,,,,METAR,462.0
KILN 150054Z AUTO 22004KT 5SM BR CLR M08/M09 A3028 RMK AO2 SLP289 T10781089,KILN,2019-01-15T00:54:00Z,39.43,-83.8,-7.8,-8.9,220,4,,5.0,30.280512,1028.9,,TRUE,TRUE,,,,,,BR,CLR,,,,,,,,MVFR,,,,,,,,,,,,METAR,322.0
KIND 150054Z 32004KT 10SM CLR M05/M08 A3031 RMK AO2 SLP275 T10501078,KIND,2019-01-15T00:54:00Z,39.72,-86.3,-5.0,-7.8,320,4,,10.0,30.31004,1027.5,,,TRUE,,,,,,,CLR,,,,,,,,VFR,,,,,,,,,,,,METAR,241.0
KIMT 150054Z AUTO 30003KT 10SM SCT022 OVC028 M02/M03 A3013 RMK AO2 SLP221 T10171033,KIMT,2019-01-15T00:54:00Z,45.82,-88.12,-1.7,-3.3,300,3,,10.0,30.129921,1022.1,,TRUE,TRUE,,,,,,,SCT,2200,OVC,2800,,,,,MVFR,,,,,,,,,,,,METAR,349.0
KINT 150054Z 00000KT 9SM BKN032 OVC055 03/02 A3020 RMK AO2 SLP230 T00280017,KINT,2019-01-15T00:54:00Z,36.13,-80.22,2.8,1.7,0,0,,9.0,30.200787,1023.0,,,TRUE,,,,,,,BKN,3200,OVC,5500,,,,,VFR,,,,,,,,,,,,METAR,291.0
KIPT 150054Z 00000KT 10SM CLR M04/M10 A3017 RMK AO2 SLP224 T10441100,KIPT,2019-01-15T00:54:00Z,41.25,-76.92,-4.4,-10.0,0,0,,10.0,30.171259,1022.4,,,TRUE,,,,,,,CLR,,,,,,,,VFR,,,,,,,,,,,,METAR,164.0
KISW 150054Z AUTO 26006KT 6SM BR OVC007 M03/M06 A3021 RMK AO2 SLP246 T10331056 TSNO,KISW,2019-01-15T00:54:00Z,44.37,-89.83,-3.3,-5.6,260,6,,6.0,30.209646,1024.6,,TRUE,TRUE,,,TRUE,,,BR,OVC,700,,,,,,,IFR,,,,,,,,,,,,METAR,307.0
KJAN 150054Z 33005KT 10SM OVC019 05/01 A3036 RMK AO2 SLP282 T00500006 $,KJAN,2019-01-15T00:54:00Z,32.32,-90.08,5.0,0.6,330,5,,10.0,30.360237,1028.2,,,TRUE,TRUE,,,,,,OVC,1900,,,,,,,MVFR,,,,,,,,,,,,METAR,91.0
KJST 150054Z AUTO 27007KT 10SM CLR M04/M07 A3011 RMK AO2 SLP229 T10391067,KJST,2019-01-15T00:54:00Z,40.32,-78.83,-3.9,-6.7,270,7,,10.0,30.109253,1022.9,,TRUE,TRUE,,,,,,,CLR,,,,,,,,VFR,,,,,,,,,,,,METAR,694.0
KLAF 150054Z 00000KT 6SM BR CLR M10/M11 A3032 RMK AO2 SLP279 I1000 T11001111,KLAF,2019-01-15T00:54:00Z,40.42,-86.93,-10.0,-11.1,0,0,,6.0,30.318897,1027.9,,,TRUE,,,,,,BR,CLR,,,,,,,,VFR,,,,,,,,,,,,METAR,182.0
KLBT 150054Z AUTO 00000KT 10SM CLR 02/00 A3021 RMK AO2 SLP231 T00170000,KLBT,2019-01-15T00:54:00Z,34.6,-79.07,1.7,0.0,0,0,,10.0,30.209646,1023.1,,TRUE,TRUE,,,,,,,CLR,,,,,,,,VFR,,,,,,,,,,,,METAR,37.0
KLEX 150054Z 34004KT 10SM OVC008 M01/M04 A3030 RMK AO2 SLP269 T10111039,KLEX,2019-01-15T00:54:00Z,38.03,-84.6,-1.1,-3.9,340,4,,10.0,30.301182,1026.9,,,TRUE,,,,,,,OVC,800,,,,,,,IFR,,,,,,,,,,,,METAR,300.0
KLNK 150054Z 22006KT 6SM BR OVC003 01/00 A3025 RMK AO2 SLP256 T00060000,KLNK,2019-01-15T00:54:00Z,40.85,-96.77,0.6,0.0,220,6,,6.0,30.250984,1025.6,,,TRUE,,,,,,BR,OVC,300,,,,,,,LIFR,,,,,,,,,,,,METAR,364.0
KLWT 150054Z AUTO 17006KT 10SM CLR M02/M13 A3002 RMK AO2 SLP205 T10171128,KLWT,2019-01-15T00:54:00Z,47.03,-109.47,-1.7,-12.8,170,6,,10.0,30.02067,1020.5,,TRUE,TRUE,,,,,,,CLR,,,,,,,,VFR,,,,,,,,,,,,METAR,1270.0
KLWM 150054Z 00000KT 10SM CLR M05/M11 A3011 RMK AO2 SLP199 T10501111,KLWM,2019-01-15T00:54:00Z,42.72,-71.13,-5.0,-11.1,0,0,,10.0,30.109253,1019.9,,,TRUE,,,,,,,CLR,,,,,,,,VFR,,,,,,,,,,,,METAR,54.0
KAKH 150054Z AUTO 00000KT 10SM BKN035 OVC045 07/02 A3018 RMK AO2 SLP225 T00670022,KAKH,2019-01-15T00:54:00Z,35.2,-81.15,6.7,2.2,0,0,,10.0,30.180119,1022.5,,TRUE,TRUE,,,,,,,BKN,3500,OVC,4500,,,,,VFR,,,,,,,,,,,,METAR,243.0
KAKQ 150054Z AUTO VRB03KT 10SM CLR M01/M03 A3021 RMK AO2 SLP234 T10061033,KAKQ,2019-01-15T00:54:00Z,36.98,-77.0,-0.6,-3.3,0,3,,10.0,30.209646,1023.4,,TRUE,TRUE,,,,,,,CLR,,,,,,,,VFR,,,,,,,,,,,,METAR,34.0
KAKR 150054Z AUTO 27008KT 10SM OVC012 M02/M06 A3023 RMK AO2 SLP254 T10221061 $,KAKR,2019-01-15T00:54:00Z,41.03,-81.47,-2.2,-6.1,270,8,,10.0,30.230314,1025.4,,TRUE,TRUE,TRUE,,,,,,OVC,1200,,,,,,,MVFR,,,,,,,,,,,,METAR,363.0
KAPC 150054Z 08014G22KT 10SM BKN050 OVC060 11/06 A2984 RMK AO2 PK WND 09026/0012 SLP097 T01110056,KAPC,2019-01-15T00:54:00Z,38.2,-122.28,11.1,5.6,80,14,22,10.0,29.840551,1009.7,,,TRUE,,,,,,,BKN,5000,OVC,6000,,,,,VFR,,,,,,,,,,,,METAR,13.0
KAPN 150054Z AUTO 22004KT 10SM OVC015 M01/M04 A3014 RMK AO2 SLP219 T10111039,KAPN,2019-01-15T00:54:00Z,45.07,-83.57,-1.1,-3.9,220,4,,10.0,30.138779,1021.9,,TRUE,TRUE,,,,,,,OVC,1500,,,,,,,MVFR,,,,,,,,,,,,METAR,210.0
KAVL 150054Z 36006KT 10SM OVC027 03/M01 A3017 RMK AO2 SLP222 T00281011,KAVL,2019-01-15T00:54:00Z,35.43,-82.53,2.8,-1.1,360,6,,10.0,30.171259,1022.2,,,TRUE,,,,,,,OVC,2700,,,,,,,MVFR,,,,,,,,,,,,METAR,670.0
KAVP 150054Z 00000KT 10SM CLR M05/M12 A3014 RMK AO2 SLP221 T10501117,KAVP,2019-01-15T00:54:00Z,41.33,-75.72,-5.0,-11.7,0,0,,10.0,30.138779,1022.1,,,TRUE,,,,,,,CLR,,,,,,,,VFR,,,,,,,,,,,,METAR,291.0
KBFL 150054Z 12019KT 10SM CLR 13/02 A2990 RMK AO2 PK WND 13028/0002 SLP120 T01330022,KBFL,2019-01-15T00:54:00Z,35.43,-119.05,13.3,2.2,120,19,,10.0,29.899607,1012.0,,,TRUE,,,,,,,CLR,,,,,,,,VFR,,,,,,,,,,,,METAR,151.0
KBOS 150054Z 36003KT 10SM FEW250 M02/M10 A3010 RMK AO2 SLP192 T10171100,KBOS,2019-01-15T00:54:00Z,42.37,-71.02,-1.7,-10.0,360,3,,10.0,30.100393,1019.2,,,TRUE,,,,,,,FEW,25000,,,,,,,VFR,,,,,,,,,,,,METAR,6.0
KTQE 150054Z AUTO 16006KT 10SM OVC008 00/M01 A3024 RMK AO2 SLP247 T00001006,KTQE,2019-01-15T00:54:00Z,41.77,-96.18,0.0,-0.6,160,6,,10.0,30.239174,1024.7,,TRUE,TRUE,,,,,,,OVC,800,,,,,,,IFR,,,,,,,,,,,,METAR,312.0
KUIN 150054Z AUTO 26007KT 5SM BR OVC005 M02/M04 A3032 RMK AO2 SLP275 T10221039,KUIN,2019-01-15T00:54:00Z,39.95,-91.2,-2.2,-3.9,260,7,,5.0,30.318897,1027.5,,TRUE,TRUE,,,,,,BR,OVC,500,,,,,,,IFR,,,,,,,,,,,,METAR,234.0
KVAY 150054Z AUTO 00000KT 10SM CLR M06/M10 A3016 RMK AO2 SLP215 T10561100,KVAY,2019-01-15T00:54:00Z,39.93,-74.83,-5.6,-10.0,0,0,,10.0,30.159449,1021.5,,TRUE,TRUE,,,,,,,CLR,,,,,,,,VFR,,,,,,,,,,,,METAR,15.0
KUZA 150054Z AUTO 00000KT 10SM FEW050 OVC060 06/04 A3019 RMK AO2 SLP229 T00610039,KUZA,2019-01-15T00:54:00Z,34.98,-81.05,6.1,3.9,0,0,,10.0,30.188976,1022.9,,TRUE,TRUE,,,,,,,FEW,5000,OVC,6000,,,,,VFR,,,,,,,,,,,,METAR,202.0
KVSF 150054Z AUTO 00000KT 10SM CLR M09/M11 A3012 RMK AO2 SLP215 T10891111,KVSF,2019-01-15T00:54:00Z,43.35,-72.52,-8.9,-11.1,0,0,,10.0,30.121063,1021.5,,TRUE,TRUE,,,,,,,CLR,,,,,,,,VFR,,,,,,,,,,,,METAR,175.0
KVTA 150054Z AUTO 29006KT 6SM BR OVC009 M02/M04 A3027 RMK AO2 SLP263 T10221044,KVTA,2019-01-15T00:54:00Z,40.02,-82.47,-2.2,-4.4,290,6,,6.0,30.268702,1026.3,,TRUE,TRUE,,,,,,BR,OVC,900,,,,,,,IFR,,,,,,,,,,,,METAR,268.0
KWAL 150054Z AUTO 32005KT 10SM CLR M02/M05 A3020 RMK AO2 SLP224 T10171050,KWAL,2019-01-15T00:54:00Z,37.93,-75.47,-1.7,-5.0,320,5,,10.0,30.200787,1022.4,,TRUE,TRUE,,,,,,,CLR,,,,,,,,VFR,,,,,,,,,,,,METAR,14.0
PHMK 150054Z VRB06KT 10SM BKN048 26/14 A3001 RMK AO2 SLP164 T02610144,PHMK,2019-01-15T00:54:00Z,21.15,-157.1,26.1,14.4,0,6,,10.0,30.008858,1016.4,,,TRUE,,,,,,,BKN,4800,,,,,,,VFR,,,,,,,,,,,,METAR,141.0
PHOG 150054Z 03010KT 10SM FEW040 SCT060 27/18 A2999 RMK AO2 SLP159 T02720183,PHOG,2019-01-15T00:54:00Z,20.9,-156.43,27.2,18.3,30,10,,10.0,29.991142,1015.9,,,TRUE,,,,,,,FEW,4000,SCT,6000,,,,,VFR,,,,,,,,,,,,METAR,12.0
PGSN 150054Z 05018G26KT 10SM CLR 29/20 A2989 RMK AO2 PK WND 05026/0047 SLP144 T02890200 PNO $,PGSN,2019-01-15T00:54:00Z,15.12,145.72,28.9,20.0,50,18,26,10.0,29.890747,1014.4,,,TRUE,TRUE,,,,,,CLR,,,,,,,,VFR,,,,,,,,,,,,METAR,65.0
KRBL 150054Z AUTO 16011KT 10SM OVC090 12/04 A2988 RMK AO2 SLP119 T01220044,KRBL,2019-01-15T00:54:00Z,40.15,-122.25,12.2,4.4,160,11,,10.0,29.878937,1011.9,,TRUE,TRUE,,,,,,,OVC,9000,,,,,,,VFR,,,,,,,,,,,,METAR,104.0
KPTW 150054Z AUTO 32003KT 10SM CLR M06/M11 A3017 RMK AO2 SLP217 T10561106 TSNO $,KPTW,2019-01-15T00:54:00Z,40.23,-75.55,-5.6,-10.6,320,3,,10.0,30.171259,1021.7,,TRUE,TRUE,TRUE,,TRUE,,,,CLR,,,,,,,,VFR,,,,,,,,,,,,METAR,92.0
KPSF 150054Z AUTO 28007KT 10SM CLR M07/M13 A3007 RMK AO2 SLP212 T10671128,KPSF,2019-01-15T00:54:00Z,42.43,-73.28,-6.7,-12.8,280,7,,10.0,30.070866,1021.2,,TRUE,TRUE,,,,,,,CLR,,,,,,,,VFR,,,,,,,,,,,,METAR,355.0
KRKS 150054Z AUTO 00000KT 9SM CLR M17/M20 A3026 RMK AO2 SLP378 T11721200,KRKS,2019-01-15T00:54:00Z,41.6,-109.07,-17.2,-20.0,0,0,,9.0,30.259842,1037.8,,TRUE,TRUE,,,,,,,CLR,,,,,,,,VFR,,,,,,,,,,,,METAR,2060.0
KROA 150054Z 00000KT 10SM OVC075 02/00 A3019 RMK AO2 SLP232 T00170000,KROA,2019-01-15T00:54:00Z,37.32,-79.97,1.7,0.0,0,0,,10.0,30.188976,1023.2,,,TRUE,,,,,,,OVC,7500,,,,,,,VFR,,,,,,,,,,,,METAR,362.0
KCRW 150054Z 28003KT 8SM BKN012 OVC019 M01/M03 A3027 RMK AO2 SLP258 CIG 010V014 T10111028,KCRW,2019-01-15T00:54:00Z,38.38,-81.58,-1.1,-2.8,280,3,,8.0,30.268702,1025.8,,,TRUE,,,,,,,BKN,1200,OVC,1900,,,,,MVFR,,,,,,,,,,,,METAR,309.0
KCOU 150054Z 24009KT 6SM BR OVC004 M02/M02 A3033 RMK AO2 SLP281 T10171022,KCOU,2019-01-15T00:54:00Z,38.82,-92.22,-1.7,-2.2,240,9,,6.0,30.33071,1028.1,,,TRUE,,,,,,BR,OVC,400,,,,,,,LIFR,,,,,,,,,,,,METAR,271.0
KIZG 150054Z AUTO 00000KT 10SM CLR M13/M14 A3007 RMK AO2 SLP198 T11281144,KIZG,2019-01-15T00:54:00Z,43.98,-70.95,-12.8,-14.4,0,0,,10.0,30.070866,1019.8,,TRUE,TRUE,,,,,,,CLR,,,,,,,,VFR,,,,,,,,,,,,METAR,135.0
K1V4 150054Z AUTO M11/M13 A3011 RMK AO1 SLP226 T11111133,K1V4,2019-01-15T00:54:00Z,44.42,-72.02,-11.1,-13.3,,,,,30.109253,1022.6,,TRUE,TRUE,,,,,,,,,,,,,,,,,,,,,,,,,,,SPECI,210.0
KWLD 150054Z AUTO 13004KT 8SM CLR 01/00 A3032 RMK AO2 SLP278 T00060000,KWLD,2019-01-15T00:54:00Z,37.17,-97.03,0.6,0.0,130,4,,8.0,30.318897,1027.8,,TRUE,TRUE,,,,,,,CLR,,,,,,,,VFR,,,,,,,,,,,,METAR,350.0
KRAL 150053Z 11009KT 8SM -RA OVC027 10/08 A2998 RMK AO2 RAE26B48 SLP143 P0000 T01000083,KRAL,2019-01-15T00:53:00Z,33.95,-117.45,10.0,8.3,110,9,,8.0,29.97933,1014.3,,,TRUE,,,,,,-RA,OVC,2700,,,,,,,MVFR,,,,,,0.005,,,,,,SPECI,252.0
KCRS 150053Z AUTO 11003KT 10SM CLR 05/01 A3040 RMK AO2 SLP297 T00500011,KCRS,2019-01-15T00:53:00Z,32.03,-96.4,5.0,1.1,110,3,,10.0,30.398623,1029.7,,TRUE,TRUE,,,,,,,CLR,,,,,,,,VFR,,,,,,,,,,,,METAR,133.0
KCRQ 150053Z 10004KT 3SM BR SCT012 SCT017 OVC025 13/12 A2996 RMK AO2 RAE36 SLP145 P0001 T01330117,KCRQ,2019-01-15T00:53:00Z,33.13,-117.28,13.3,11.7,100,4,,3.0,29.958662,1014.5,,,TRUE,,,,,,BR,SCT,1200,SCT,1700,OVC,2500,,,MVFR,,,,,,0.01,,,,,,METAR,99.0
KCSM 150053Z 17011KT 10SM CLR 03/01 A3028 RMK AO2 SLP264 T00330006,KCSM,2019-01-15T00:53:00Z,35.35,-99.2,3.3,0.6,170,11,,10.0,30.280512,1026.4,,,TRUE,,,,,,,CLR,,,,,,,,VFR,,,,,,,,,,,,METAR,588.0
KCUT 150053Z AUTO 25004KT 10SM CLR 00/M14 A3009 RMK AO2 SLP222 T00001144 $,KCUT,2019-01-15T00:53:00Z,43.73,-103.62,0.0,-14.4,250,4,,10.0,30.088583,1022.2,,TRUE,TRUE,TRUE,,,,,,CLR,,,,,,,,VFR,,,,,,,,,,,,METAR,1725.0
KCUB 150053Z AUTO 00000KT 10SM OVC039 06/02 A3023 RMK AO2 SLP237 T00610022,KCUB,2019-01-15T00:53:00Z,33.97,-81.0,6.1,2.2,0,0,,10.0,30.230314,1023.7,,TRUE,TRUE,,,,,,,OVC,3900,,,,,,,VFR,,,,,,,,,,,,METAR,56.0
KCXO 150053Z 00000KT 10SM CLR 06/04 A3039 RMK AO2 SLP290 T00610044,KCXO,2019-01-15T00:53:00Z,30.35,-95.42,6.1,4.4,0,0,,10.0,30.389763,1029.0,,,TRUE,,,,,,,CLR,,,,,,,,VFR,,,,,,,,,,,,METAR,75.0
KCYS 150053Z 29007KT 10SM CLR M02/M13 A3015 RMK AO2 SLP252 T10171128,KCYS,2019-01-15T00:53:00Z,41.15,-104.8,-1.7,-12.8,290,7,,10.0,30.15059,1025.2,,,TRUE,,,,,,,CLR,,,,,,,,VFR,,,,,,,,,,,,METAR,1868.0
KDAB 150053Z 01008KT 10SM FEW020 SCT031 12/10 A3019 RMK AO2 SLP222 T01220100,KDAB,2019-01-15T00:53:00Z,29.18,-81.07,12.2,10.0,10,8,,10.0,30.188976,1022.2,,,TRUE,,,,,,,FEW,2000,SCT,3100,,,,,VFR,,,,,,,,,,,,METAR,9.0
KDAL 150053Z 00000KT 9SM FEW250 06/00 A3039 RMK AO2 SLP290 T00610000,KDAL,2019-01-15T00:53:00Z,32.85,-96.85,6.1,0.0,0,0,,9.0,30.389763,1029.0,,,TRUE,,,,,,,FEW,25000,,,,,,,VFR,,,,,,,,,,,,METAR,158.0
KDAN 150053Z AUTO 00000KT 10SM OVC012 01/00 A3021 RMK AO2 SLP230 T00110000,KDAN,2019-01-15T00:53:00Z,36.57,-79.33,1.1,0.0,0,0,,10.0,30.209646,1023.0,,TRUE,TRUE,,,,,,,OVC,1200,,,,,,,MVFR,,,,,,,,,,,,METAR,175.0
KDEN 150053Z 21008KT 10SM FEW250 00/M13 A3016 RMK AO2 SLP238 T00001128,KDEN,2019-01-15T00:53:00Z,39.85,-104.65,0.0,-12.8,210,8,,10.0,30.159449,1023.8,,,TRUE,,,,,,,FEW,25000,,,,,,,VFR,,,,,,,,,,,,METAR,1640.0
KUNV 150053Z 00000KT 10SM SKC M02/M11 A3014,KUNV,2019-01-15T00:53:00Z,40.85,-77.83,-2.0,-11.0,0,0,,10.0,30.138779,,,,,,,,,,,SKC,,,,,,,,VFR,,,,,,,,,,,,METAR,378.0
KEWB 150053Z 00000KT 10SM CLR M08/M08 A3009 RMK AO2 SLP191 T10781083,KEWB,2019-01-15T00:53:00Z,41.68,-70.95,-7.8,-8.3,0,0,,10.0,30.088583,1019.1,,,TRUE,,,,,,,CLR,,,,,,,,VFR,,,,,,,,,,,,METAR,23.0
KEVW 150053Z AUTO 09012KT 10SM CLR M13/M20 A3019 RMK AO2 SLP317 T11281200,KEVW,2019-01-15T00:53:00Z,41.27,-111.03,-12.8,-20.0,90,12,,10.0,30.188976,1031.7,,TRUE,TRUE,,,,,,,CLR,,,,,,,,VFR,,,,,,,,,,,,METAR,2177.0
KESF 150053Z AUTO 02005KT 10SM OVC019 05/02 A3040 RMK AO2 SLP293 T00500017,KESF,2019-01-15T00:53:00Z,31.4,-92.28,5.0,1.7,20,5,,10.0,30.398623,1029.3,,TRUE,TRUE,,,,,,,OVC,1900,,,,,,,MVFR,,,,,,,,,,,,METAR,28.0
KEQY 150053Z AUTO 00000KT 10SM OVC031 05/02 A3019 RMK AO2 SLP242 T00500017,KEQY,2019-01-15T00:53:00Z,35.02,-80.62,5.0,1.7,0,0,,10.0,30.188976,1024.2,,TRUE,TRUE,,,,,,,OVC,3100,,,,,,,VFR,,,,,,,,,,,,METAR,212.0
KENW 150053Z 26010KT 4SM BR OVC009 M03/M05 A3025 RMK AO2 SLP254 T10331050,KENW,2019-01-15T00:53:00Z,42.6,-87.93,-3.3,-5.0,260,10,,4.0,30.250984,1025.4,,,TRUE,,,,,,BR,OVC,900,,,,,,,IFR,,,,,,,,,,,,METAR,219.0
KELM 150053Z 00000KT 10SM CLR M07/M11 A3016 RMK AO2 SLP232 T10721106,KELM,2019-01-15T00:53:00Z,42.15,-76.9,-7.2,-10.6,0,0,,10.0,30.159449,1023.2,,,TRUE,,,,,,,CLR,,,,,,,,VFR,,,,,,,,,,,,METAR,302.0
KELD 150053Z AUTO 00000KT 10SM OVC018 04/02 A3043 RMK AO2 SLP303 T00440017,KELD,2019-01-15T00:53:00Z,33.22,-92.82,4.4,1.7,0,0,,10.0,30.431103,1030.3,,TRUE,TRUE,,,,,,,OVC,1800,,,,,,,MVFR,,,,,,,,,,,,METAR,81.0
KEET 150053Z AUTO 34007KT 10SM OVC013 04/01 A3031 RMK AO2 SLP267 T00390011,KEET,2019-01-15T00:53:00Z,33.18,-86.78,3.9,1.1,340,7,,10.0,30.31004,1026.7,,TRUE,TRUE,,,,,,,OVC,1300,,,,,,,MVFR,,,,,,,,,,,,METAR,173.0
KEEO 150053Z AUTO 00000KT 10SM CLR M11/M16 A3030 RMK AO2 SLP342 T11111156,KEEO,2019-01-15T00:53:00Z,40.05,-107.88,-11.1,-15.6,0,0,,10.0,30.301182,1034.2,,TRUE,TRUE,,,,,,,CLR,,,,,,,,VFR,,,,,,,,,,,,METAR,1930.0
KCDR 150053Z AUTO 16003KT 10SM CLR M02/M06 A3014 RMK AO2 SLP256 I1000 T10171061 $,KCDR,2019-01-15T00:53:00Z,42.83,-103.1,-1.7,-6.1,160,3,,10.0,30.138779,1025.6,,TRUE,TRUE,TRUE,,,,,,CLR,,,,,,,,VFR,,,,,,,,,,,,METAR,1010.0
KCDC 150053Z AUTO 00000KT 10SM FEW060 BKN110 M02/M04 A3013 RMK AO2 SLP224 T10171039,KCDC,2019-01-15T00:53:00Z,37.7,-113.1,-1.7,-3.9,0,0,,10.0,30.129921,1022.4,,TRUE,TRUE,,,,,,,FEW,6000,BKN,11000,,,,,VFR,,,,,,,,,,,,METAR,1714.0
KCCR 150053Z 11004KT 10SM BKN047 OVC055 13/07 A2986 RMK AO2 RAB38E53 SLP096 P0000 T01280067,KCCR,2019-01-15T00:53:00Z,38.0,-122.05,12.8,6.7,110,4,,10.0,29.861221,1009.6,,,TRUE,,,,,,,BKN,4700,OVC,5500,,,,,VFR,,,,,,0.005,,,,,,METAR,11.0
KBYI 150053Z AUTO 05009KT 10SM CLR M04/M08 A3017 RMK AO2 SLP258 T10391083,KBYI,2019-01-15T00:53:00Z,42.55,-113.77,-3.9,-8.3,50,9,,10.0,30.171259,1025.8,,TRUE,TRUE,,,,,,,CLR,,,,,,,,VFR,,,,,,,,,,,,METAR,1264.0
KBYG 150053Z AUTO 24005KT 10SM CLR M01/M09 A3007 RMK AO2 SLP206 T10111089,KBYG,2019-01-15T00:53:00Z,44.38,-106.72,-1.1,-8.9,240,5,,10.0,30.070866,1020.6,,TRUE,TRUE,,,,,,,CLR,,,,,,,,VFR,,,,,,,,,,,,METAR,1497.0
KBWG 150053Z AUTO 28005KT 10SM OVC029 02/M02 A3034 RMK AO2 SLP278 T00171022,KBWG,2019-01-15T00:53:00Z,36.97,-86.42,1.7,-2.2,280,5,,10.0,30.339567,1027.8,,TRUE,TRUE,,,,,,,OVC,2900,,,,,,,MVFR,,,,,,,,,,,,METAR,168.0
KBVY 150053Z 00000KT 10SM CLR M07/M11 A3009 RMK AO2 SLP188 T10671106,KBVY,2019-01-15T00:53:00Z,42.58,-70.92,-6.7,-10.6,0,0,,10.0,30.088583,1018.8,,,TRUE,,,,,,,CLR,,,,,,,,VFR,,,,,,,,,,,,METAR,28.0
KDTO 150053Z 11004KT 10SM CLR 04/M01 A3037 RMK AO2 SLP287 T00391011,KDTO,2019-01-15T00:53:00Z,33.2,-97.2,3.9,-1.1,110,4,,10.0,30.369095,1028.7,,,TRUE,,,,,,,CLR,,,,,,,,VFR,,,,,,,,,,,,METAR,196.0
KDTN 150053Z 34004KT 10SM OVC018 05/01 A3043 RMK AO2 SLP303 T00500006,KDTN,2019-01-15T00:53:00Z,32.55,-93.75,5.0,0.6,340,4,,10.0,30.431103,1030.3,,,TRUE,,,,,,,OVC,1800,,,,,,,MVFR,,,,,,,,,,,,METAR,53.0
KDRT 150053Z AUTO 14007KT 10SM OVC039 09/05 A3035 RMK AO2 SLP273 T00940050,KDRT,2019-01-15T00:53:00Z,29.37,-100.92,9.4,5.0,140,7,,10.0,30.351377,1027.3,,TRUE,TRUE,,,,,,,OVC,3900,,,,,,,VFR,,,,,,,,,,,,METAR,313.0
KDRO 150053Z AUTO 00000KT 10SM CLR M02/M04 A3025 RMK AO2 SLP304 T10221039,KDRO,2019-01-15T00:53:00Z,37.15,-107.77,-2.2,-3.9,0,0,,10.0,30.250984,1030.4,,TRUE,TRUE,,,,,,,CLR,,,,,,,,VFR,,,,,,,,,,,,METAR,2035.0
KDNL 150053Z AUTO 00000KT 10SM FEW013 SCT025 OVC037 08/04 A3021 RMK AO2 SLP230 T00830044 TSNO,KDNL,2019-01-15T00:53:00Z,33.47,-82.03,8.3,4.4,0,0,,10.0,30.209646,1023.0,,TRUE,TRUE,,,TRUE,,,,FEW,1300,SCT,2500,OVC,3700,,,VFR,,,,,,,,,,,,METAR,130.0
KDMO 150053Z AUTO 4SM BR OVC002 M03/M03 A3035 RMK AO2 SLP289 T10331033,KDMO,2019-01-15T00:53:00Z,38.72,-93.17,-3.3,-3.3,,,,4.0,30.351377,1028.9,,TRUE,TRUE,,,,,,BR,OVC,200,,,,,,,LIFR,,,,,,,,,,,,METAR,274.0
KDMN 150053Z AUTO 06004KT 10SM CLR 10/01 A3020 RMK AO2 SLP211 T01000011,KDMN,2019-01-15T00:53:00Z,32.27,-107.72,10.0,1.1,60,4,,10.0,30.200787,1021.1,,TRUE,TRUE,,,,,,,CLR,,,,,,,,VFR,,,,,,,,,,,,METAR,1311.0
KEYE 150053Z AUTO 33003KT 8SM CLR M06/M08 A3030 RMK AO2 SLP274 T10561078,KEYE,2019-01-15T00:53:00Z,39.83,-86.3,-5.6,-7.8,330,3,,8.0,30.301182,1027.4,,TRUE,TRUE,,,,,,,CLR,,,,,,,,VFR,,,,,,,,,,,,METAR,248.0
KFAR 150053Z 33004KT 3SM BR OVC004 M07/M07 A3027 RMK AO2 SLP266 T10671072,KFAR,2019-01-15T00:53:00Z,46.93,-96.82,-6.7,-7.2,330,4,,3.0,30.268702,1026.6,,,TRUE,,,,,,BR,OVC,400,,,,,,,LIFR,,,,,,,,,,,,METAR,277.0
KTKI 150053Z 00000KT 10SM CLR 04/00 A3039 RMK AO2 SLP304 T00390000,KTKI,2019-01-15T00:53:00Z,33.18,-96.58,3.9,0.0,0,0,,10.0,30.389763,1030.4,,,TRUE,,,,,,,CLR,,,,,,,,VFR,,,,,,,,,,,,METAR,179.0
KFAT 150053Z 03007KT 10SM -RA BKN060 OVC090 11/09 A2992 RMK AO2 SLP131 P0003 T01060089,KFAT,2019-01-15T00:53:00Z,36.78,-119.72,10.6,8.9,30,7,,10.0,29.920275,1013.1,,,TRUE,,,,,,-RA,BKN,6000,OVC,9000,,,,,VFR,,,,,,0.03,,,,,,METAR,104.0
KFFC 150053Z AUTO 31007KT 10SM OVC023 07/03 A3024 RMK AO2 SLP245 T00720028,KFFC,2019-01-15T00:53:00Z,33.35,-84.57,7.2,2.8,310,7,,10.0,30.239174,1024.5,,TRUE,TRUE,,,,,,,OVC,2300,,,,,,,MVFR,,,,,,,,,,,,METAR,262.0
KFDR 150053Z AUTO 11007KT 10SM CLR 03/02 A3030 RMK AO2 SLP266 T00330017,KFDR,2019-01-15T00:53:00Z,34.35,-98.98,3.3,1.7,110,7,,10.0,30.301182,1026.6,,TRUE,TRUE,,,,,,,CLR,,,,,,,,VFR,,,,,,,,,,,,METAR,386.0
KFCM 150053Z 31004KT 9SM OVC016 M02/M06 A3022 RMK AO2 SLP247 T10221056,KFCM,2019-01-15T00:53:00Z,44.83,-93.47,-2.2,-5.6,310,4,,9.0,30.221457,1024.7,,,TRUE,,,,,,,OVC,1600,,,,,,,MVFR,,,,,,,,,,,,METAR,280.0
KJLN 150053Z 23007KT 5SM BR OVC006 M01/M02 A3036 RMK AO2 SLP290 T10061017,KJLN,2019-01-15T00:53:00Z,37.15,-94.5,-0.6,-1.7,230,7,,5.0,30.360237,1029.0,,,TRUE,,,,,,BR,OVC,600,,,,,,,IFR,,,,,,,,,,,,METAR,299.0
KFLL 150053Z AUTO 02003KT 10SM CLR 19/14 A3011 RMK AO2 SLP195 T01890139,KFLL,2019-01-15T00:53:00Z,26.07,-80.15,18.9,13.9,20,3,,10.0,30.109253,1019.5,,TRUE,TRUE,,,,,,,CLR,,,,,,,,VFR,,,,,,,,,,,,METAR,3.0
KFHR 150053Z AUTO 33004KT 10SM CLR 04/03 A2998 RMK AO2 SLP152 T00440028,KFHR,2019-01-15T00:53:00Z,48.52,-123.03,4.4,2.8,330,4,,10.0,29.97933,1015.2,,TRUE,TRUE,,,,,,,CLR,,,,,,,,VFR,,,,,,,,,,,,SPECI,32.0
KFFT 150053Z AUTO 00000KT 10SM CLR M02/M05 A3030 RMK AO2 SLP268 T10171050,KFFT,2019-01-15T00:53:00Z,38.18,-84.9,-1.7,-5.0,0,0,,10.0,30.301182,1026.8,,TRUE,TRUE,,,,,,,CLR,,,,,,,,VFR,,,,,,,,,,,,METAR,236.0
KLFT 150053Z 01009KT 10SM OVC019 07/02 A3037 RMK AO2 SLP285 T00670022,KLFT,2019-01-15T00:53:00Z,30.2,-92.0,6.7,2.2,10,9,,10.0,30.369095,1028.5,,,TRUE,,,,,,,OVC,1900,,,,,,,MVFR,,,,,,,,,,,,METAR,11.0
KLFK 150053Z AUTO 00000KT 10SM CLR 04/02 A3039 RMK AO2 SLP292 T00390017,KLFK,2019-01-15T00:53:00Z,31.23,-94.75,3.9,1.7,0,0,,10.0,30.389763,1029.2,,TRUE,TRUE,,,,,,,CLR,,,,,,,,VFR,,,,,,,,,,,,METAR,88.0
KLEE 150053Z AUTO 03004KT 10SM CLR 11/07 A3019 RMK AO2 SLP223 T01060072,KLEE,2019-01-15T00:53:00Z,28.82,-81.82,10.6,7.2,30,4,,10.0,30.188976,1022.3,,TRUE,TRUE,,,,,,,CLR,,,,,,,,VFR,,,,,,,,,,,,METAR,23.0
KLEB 150053Z 00000KT 10SM CLR M11/M14 A3012 RMK AO2 SLP224 T11111144,KLEB,2019-01-15T00:53:00Z,43.63,-72.3,-11.1,-14.4,0,0,,10.0,30.121063,1022.4,,,TRUE,,,,,,,CLR,,,,,,,,VFR,,,,,,,,,,,,METAR,171.0
KLCH 150053Z 01004KT 10SM CLR 07/03 A3039 RMK AO2 SLP297 T00670033,KLCH,2019-01-15T00:53:00Z,30.13,-93.22,6.7,3.3,10,4,,10.0,30.389763,1029.7,,,TRUE,,,,,,,CLR,,,,,,,,VFR,,,,,,,,,,,,METAR,4.0
KLBX 150053Z AUTO 31004KT 10SM OVC065 11/04 A3038 RMK AO2 SLP285 T01060044,KLBX,2019-01-15T00:53:00Z,29.12,-95.47,10.6,4.4,310,4,,10.0,30.380905,1028.5,,TRUE,TRUE,,,,,,,OVC,6500,,,,,,,VFR,,,,,,,,,,,,METAR,6.0
KLBF 150053Z AUTO 00000KT 10SM CLR M02/M07 A3014 RMK AO2 SLP237 T10171072,KLBF,2019-01-15T00:53:00Z,41.12,-100.67,-1.7,-7.2,0,0,,10.0,30.138779,1023.7,,TRUE,TRUE,,,,,,,CLR,,,,,,,,VFR,,,,,,,,,,,,METAR,847.0
KLBB 150053Z 22010KT 10SM SCT250 06/02 A3026 RMK AO2 SLP248 T00610017,KLBB,2019-01-15T00:53:00Z,33.67,-101.82,6.1,1.7,220,10,,10.0,30.259842,1024.8,,,TRUE,,,,,,,SCT,25000,,,,,,,VFR,,,,,,,,,,,,METAR,993.0
KLAW 150053Z AUTO 16004KT 10SM CLR 03/01 A3034 RMK AO2 SLP282 T00330011,KLAW,2019-01-15T00:53:00Z,34.55,-98.42,3.3,1.1,160,4,,10.0,30.339567,1028.2,,TRUE,TRUE,,,,,,,CLR,,,,,,,,VFR,,,,,,,,,,,,METAR,337.0
KLAR 150053Z AUTO 01006KT 10SM CLR M13/M18 A3019 RMK AO2 SLP349 T11331178,KLAR,2019-01-15T00:53:00Z,41.32,-105.67,-13.3,-17.8,10,6,,10.0,30.188976,1034.9,,TRUE,TRUE,,,,,,,CLR,,,,,,,,VFR,,,,,,,,,,,,METAR,2216.0
KLAN 150053Z 25007KT 10SM OVC019 M02/M06 A3023 RMK AO2 SLP253 T10171056,KLAN,2019-01-15T00:53:00Z,42.78,-84.58,-1.7,-5.6,250,7,,10.0,30.230314,1025.3,,,TRUE,,,,,,,OVC,1900,,,,,,,MVFR,,,,,,,,,,,,METAR,264.0
KLAA 150053Z AUTO 20007KT 10SM CLR M01/M03 A3017 RMK AO2 SLP233 T10061033,KLAA,2019-01-15T00:53:00Z,38.07,-102.68,-0.6,-3.3,200,7,,10.0,30.171259,1023.3,,TRUE,TRUE,,,,,,,CLR,,,,,,,,VFR,,,,,,,,,,,,METAR,1119.0
KLND 150053Z AUTO 00000KT 10SM CLR M10/M14 A3018 RMK AO2 SLP307 T11001139,KLND,2019-01-15T00:53:00Z,42.82,-108.73,-10.0,-13.9,0,0,,10.0,30.180119,1030.7,,TRUE,TRUE,,,,,,,CLR,,,,,,,,VFR,,,,,,,,,,,,METAR,1694.0
KLMT 150053Z 32006KT 10SM SCT100 01/M05 A2989 RMK AO2 SLP143 T00111050,KLMT,2019-01-15T00:53:00Z,42.15,-121.72,1.1,-5.0,320,6,,10.0,29.890747,1014.3,,,TRUE,,,,,,,SCT,10000,,,,,,,VFR,,,,,,,,,,,,METAR,1246.0
KLLQ 150053Z AUTO 00000KT 10SM OVC020 05/01 A3040 RMK AO2 SLP296 T00500006,KLLQ,2019-01-15T00:53:00Z,33.63,-91.75,5.0,0.6,0,0,,10.0,30.398623,1029.6,,TRUE,TRUE,,,,,,,OVC,2000,,,,,,,MVFR,,,,,,,,,,,,METAR,83.0
KLIT 150053Z 00000KT 10SM OVC026 05/M01 A3040 RMK AO2 SLP298 T00501011,KLIT,2019-01-15T00:53:00Z,34.73,-92.23,5.0,-1.1,0,0,,10.0,30.398623,1029.8,,,TRUE,,,,,,,OVC,2600,,,,,,,MVFR,,,,,,,,,,,,METAR,79.0
KLHX 150053Z AUTO 17003KT 10SM CLR 06/M06 A3018 RMK AO2 SLP223 T00611056,KLHX,2019-01-15T00:53:00Z,38.05,-103.52,6.1,-5.6,170,3,,10.0,30.180119,1022.3,,TRUE,TRUE,,,,,,,CLR,,,,,,,,VFR,,,,,,,,,,,,METAR,1277.0
KLOU 150053Z 09003KT 9SM CLR M02/M06 A3032 RMK AO2 SLP273 T10171056,KLOU,2019-01-15T00:53:00Z,38.22,-85.67,-1.7,-5.6,90,3,,9.0,30.318897,1027.3,,,TRUE,,,,,,,CLR,,,,,,,,VFR,,,,,,,,,,,,METAR,164.0
KLOL 150053Z AUTO 03007KT 10SM OVC075 03/M04 A2998 RMK AO2 SLP169 T00331044,KLOL,2019-01-15T00:53:00Z,40.07,-118.57,3.3,-4.4,30,7,,10.0,29.97933,1016.9,,TRUE,TRUE,,,,,,,OVC,7500,,,,,,,VFR,,,,,,,,,,,,METAR,1189.0
KLPR 150053Z AUTO 25006KT 10SM CLR M07/M11 A3026 RMK AO2 SLP260 T10721111,KLPR,2019-01-15T00:53:00Z,41.35,-82.18,-7.2,-11.1,250,6,,10.0,30.259842,1026.0,,TRUE,TRUE,,,,,,,CLR,,,,,,,,VFR,,,,,,,,,,,,METAR,241.0
KDLS 150053Z AUTO 11009KT 10SM OVC023 02/M03 A3025 RMK AO2 SLP246 T00171033,KDLS,2019-01-15T00:53:00Z,45.62,-121.17,1.7,-3.3,110,9,,10.0,30.250984,1024.6,,TRUE,TRUE,,,,,,,OVC,2300,,,,,,,MVFR,,,,,,,,,,,,METAR,71.0
KDLN 150053Z AUTO 15006KT 10SM CLR M07/M13 A3011 RMK AO2 SLP270 T10721128,KDLN,2019-01-15T00:53:00Z,45.25,-112.55,-7.2,-12.8,150,6,,10.0,30.109253,1027.0,,TRUE,TRUE,,,,,,,CLR,,,,,,,,VFR,,,,,,,,,,,,METAR,1591.0
KDKK 150053Z AUTO 25009KT 10SM OVC015 M04/M07 A3023 RMK AO2 SLP249 T10391072,KDKK,2019-01-15T00:53:00Z,42.5,-79.28,-3.9,-7.2,250,9,,10.0,30.230314,1024.9,,TRUE,TRUE,,,,,,,OVC,1500,,,,,,,MVFR,,,,,,,,,,,,METAR,202.0
KDHT 150053Z AUTO 10005KT 10SM CLR 05/M01 A3020 RMK AO2 SLP234 T00501006,KDHT,2019-01-15T00:53:00Z,36.02,-102.55,5.0,-0.6,100,5,,10.0,30.200787,1023.4,,TRUE,TRUE,,,,,,,CLR,,,,,,,,VFR,,,,,,,,,,,,METAR,1217.0
KDGW 150053Z AUTO 29006KT 10SM CLR M03/M12 A3014 RMK AO2 SLP262 T10281122,KDGW,2019-01-15T00:53:00Z,42.8,-105.38,-2.8,-12.2,290,6,,10.0,30.138779,1026.2,,TRUE,TRUE,,,,,,,CLR,,,,,,,,VFR,,,,,,,,,,,,METAR,1499.0
KDFW 150053Z 06003KT 10SM FEW150 FEW300 04/M01 A3036 RMK AO2 SLP284 T00441006,KDFW,2019-01-15T00:53:00Z,32.9,-97.02,4.4,-0.6,60,3,,10.0,30.360237,1028.4,,,TRUE,,,,,,,FEW,15000,FEW,30000,,,,,VFR,,,,,,,,,,,,METAR,174.0
KDFI 150053Z AUTO 21004KT 8SM OVC023 M05/M08 A3028 RMK AO2 SLP266 T10501083,KDFI,2019-01-15T00:53:00Z,41.33,-84.43,-5.0,-8.3,210,4,,8.0,30.280512,1026.6,,TRUE,TRUE,,,,,,,OVC,2300,,,,,,,MVFR,,,,,,,,,,,,METAR,219.0
KDEW 150053Z AUTO 34004KT 10SM CLR M04/M06 A3018 RMK AO2 SLP254 T10441061,KDEW,2019-01-15T00:53:00Z,47.97,-117.43,-4.4,-6.1,340,4,,10.0,30.180119,1025.4,,TRUE,TRUE,,,,,,,CLR,,,,,,,,VFR,,,,,,,,,,,,METAR,674.0
KDET 150053Z 22005KT 10SM CLR M04/M08 A3023 RMK AO2 SLP499 T10391078,KDET,2019-01-15T00:53:00Z,42.4,-83.02,-3.9,-7.8,220,5,,10.0,30.230314,1049.9,,,TRUE,,,,,,,CLR,,,,,,,,VFR,,,,,,,,,,,,METAR,190.0
KDEQ 150053Z AUTO 22005KT 10SM OVC019 04/01 A3040 RMK AO2 SLP293 T00390011,KDEQ,2019-01-15T00:53:00Z,34.05,-94.4,3.9,1.1,220,5,,10.0,30.398623,1029.3,,TRUE,TRUE,,,,,,,OVC,1900,,,,,,,MVFR,,,,,,,,,,,,METAR,106.0
KLUK 150053Z 00000KT 5SM BR SCT035 M05/M07 A3034 RMK AO2 SLP279 T10501067,KLUK,2019-01-15T00:53:00Z,39.1,-84.42,-5.0,-6.7,0,0,,5.0,30.339567,1027.9,,,TRUE,,,,,,BR,SCT,3500,,,,,,,MVFR,,,,,,,,,,,,METAR,155.0
KLVJ 150053Z AUTO 11004KT 10SM OVC065 12/05 A3039 RMK AO2 SLP289 T01170050,KLVJ,2019-01-15T00:53:00Z,29.52,-95.25,11.7,5.0,110,4,,10.0,30.389763,1028.9,,TRUE,TRUE,,,,,,,OVC,6500,,,,,,,VFR,,,,,,,,,,,,METAR,12.0
KLVK 150053Z 07009KT 9SM OVC045 11/07 A2985 RMK AO2 SLP107 T01110072,KLVK,2019-01-15T00:53:00Z,37.7,-121.82,11.1,7.2,70,9,,9.0,29.84941,1010.7,,,TRUE,,,,,,,OVC,4500,,,,,,,VFR,,,,,,,,,,,,METAR,117.0
KLVS 150053Z AUTO 26004KT 10SM CLR 02/M01 A3021 RMK AO2 SLP221 T00221011,KLVS,2019-01-15T00:53:00Z,35.65,-105.13,2.2,-1.1,260,4,,10.0,30.209646,1022.1,,TRUE,TRUE,,,,,,,CLR,,,,,,,,VFR,,,,,,,,,,,,METAR,2091.0
KGRI 150053Z 22010KT 3/4SM R35/3500V4000FT BR VV003 M01/M01 A3019 RMK AO2 SLP247 T10061011,KGRI,2019-01-15T00:53:00Z,40.97,-98.32,-0.6,-1.1,220,10,,0.75,30.188976,1024.7,,,TRUE,,,,,,BR,OVX,0,,,,,,,LIFR,,,,,,,,,,,300,METAR,561.0
KGRB 150053Z 27008KT 10SM OVC011 M02/M04 A3019 RMK AO2 SLP235 T10171044,KGRB,2019-01-15T00:53:00Z,44.48,-88.13,-1.7,-4.4,270,8,,10.0,30.188976,1023.5,,,TRUE,,,,,,,OVC,1100,,,,,,,MVFR,,,,,,,,,,,,METAR,208.0
KGPT 150053Z 34005KT 10SM OVC024 07/03 A3034 RMK AO2 SLP272 T00670028,KGPT,2019-01-15T00:53:00Z,30.42,-89.08,6.7,2.8,340,5,,10.0,30.339567,1027.2,,,TRUE,,,,,,,OVC,2400,,,,,,,MVFR,,,,,,,,,,,,METAR,14.0
KGOK 150053Z AUTO 14004KT 10SM CLR 02/M01 A3032 RMK AO2 SLP277 T00171006,KGOK,2019-01-15T00:53:00Z,35.85,-97.4,1.7,-0.6,140,4,,10.0,30.318897,1027.7,,TRUE,TRUE,,,,,,,CLR,,,,,,,,VFR,,,,,,,,,,,,METAR,324.0
KGNV 150053Z 33006KT 10SM OVC032 09/06 A3023 RMK AO2 SLP238 T00940056,KGNV,2019-01-15T00:53:00Z,29.7,-82.28,9.4,5.6,330,6,,10.0,30.230314,1023.8,,,TRUE,,,,,,,OVC,3200,,,,,,,VFR,,,,,,,,,,,,METAR,45.0
KGMU 150053Z 28004KT 10SM -RA SCT045 OVC055 07/04 A3019 RMK AO2 RAE01B21 SLP227 P0000 T00670044,KGMU,2019-01-15T00:53:00Z,34.85,-82.35,6.7,4.4,280,4,,10.0,30.188976,1022.7,,,TRUE,,,,,,-RA,SCT,4500,OVC,5500,,,,,VFR,,,,,,0.005,,,,,,METAR,315.0
KGSH 150053Z AUTO 26010KT 5SM BR OVC009 M04/M06 A3028 RMK AO2 CIG 008V013 SLP268 T10441061,KGSH,2019-01-15T00:53:00Z,41.53,-85.78,-4.4,-6.1,260,10,,5.0,30.280512,1026.8,,TRUE,TRUE,,,,,,BR,OVC,900,,,,,,,IFR,,,,,,,,,,,,METAR,252.0
KGTF 150053Z 22013KT 10SM CLR 03/M15 A3001 RMK AO2 SLP208 T00281150,KGTF,2019-01-15T00:53:00Z,47.47,-111.38,2.8,-15.0,220,13,,10.0,30.008858,1020.8,,,TRUE,,,,,,,CLR,,,,,,,,VFR,,,,,,,,,,,,METAR,1119.0
KGSP 150053Z 26004KT 10SM OVC035 06/04 A3019 RMK AO2 SLP224 T00610044,KGSP,2019-01-15T00:53:00Z,34.9,-82.22,6.1,4.4,260,4,,10.0,30.188976,1022.4,,,TRUE,,,,,,,OVC,3500,,,,,,,VFR,,,,,,,,,,,,METAR,287.0
KCWA 150053Z 25005KT 1 3/4 SM BR OVC004 M03/M03 A3018,KCWA,2019-01-15T00:53:00Z,44.78,-89.67,-3.0,-3.0,250,5,,,30.180119,,,,,,,,,,BR,OVC,400,,,,,,,,,,,,,,,,,,,METAR,389.0
KOJC 150053Z 25008KT 4SM BR OVC002 M02/M02 A3032 RMK AO2 SLP278 T10221022,KOJC,2019-01-15T00:53:00Z,38.85,-94.73,-2.2,-2.2,250,8,,4.0,30.318897,1027.8,,,TRUE,,,,,,BR,OVC,200,,,,,,,LIFR,,,,,,,,,,,,SPECI,326.0
KOGD 150053Z 32005KT 10SM CLR M07/M10 A3025 RMK AO2 SLP289 T10721100,KOGD,2019-01-15T00:53:00Z,41.2,-112.02,-7.2,-10.0,320,5,,10.0,30.250984,1028.9,,,TRUE,,,,,,,CLR,,,,,,,,VFR,,,,,,,,,,,,METAR,1353.0
KOGB 150053Z AUTO 08003KT 10SM OVC017 06/02 A3023 RMK AO2 SLP236 T00560022,KOGB,2019-01-15T00:53:00Z,33.47,-80.85,5.6,2.2,80,3,,10.0,30.230314,1023.6,,TRUE,TRUE,,,,,,,OVC,1700,,,,,,,MVFR,,,,,,,,,,,,SPECI,59.0
KODX 150053Z AUTO 34004KT 10SM CLR 01/M03 A3017 RMK AO2 SLP240 T00061028,KODX,2019-01-15T00:53:00Z,41.62,-98.95,0.6,-2.8,340,4,,10.0,30.171259,1024.0,,TRUE,TRUE,,,,,,,CLR,,,,,,,,VFR,,,,,,,,,,,,METAR,631.0
KODO 150053Z AUTO 19008KT 9SM OVC015 06/02 A3030 RMK AO2 SLP259 T00610022,KODO,2019-01-15T00:53:00Z,31.92,-102.4,6.1,2.2,190,8,,9.0,30.301182,1025.9,,TRUE,TRUE,,,,,,,OVC,1500,,,,,,,MVFR,,,,,,,,,,,,METAR,902.0
KOAK 150053Z 14012KT 10SM -RA FEW014 SCT044 BKN060 OVC140 13/09 A2985 RMK AO2 RAB29 SLP108 P0000 T01280089,KOAK,2019-01-15T00:53:00Z,37.72,-122.23,12.8,8.9,140,12,,10.0,29.84941,1010.8,,,TRUE,,,,,,-RA,FEW,1400,SCT,4400,BKN,6000,OVC,14000,VFR,,,,,,0.005,,,,,,METAR,26.0
KMWL 150053Z AUTO 14006KT 9SM OVC050 06/00 A3034 RMK AO2 SLP278 T00560000,KMWL,2019-01-15T00:53:00Z,32.78,-98.07,5.6,0.0,140,6,,9.0,30.339567,1027.8,,TRUE,TRUE,,,,,,,OVC,5000,,,,,,,VFR,,,,,,,,,,,,METAR,284.0
KMTO 150053Z AUTO 00000KT 10SM OVC018 M04/M06 A3033 RMK AO2 SLP282 T10441061,KMTO,2019-01-15T00:53:00Z,39.47,-88.27,-4.4,-6.1,0,0,,10.0,30.33071,1028.2,,TRUE,TRUE,,,,,,,OVC,1800,,,,,,,MVFR,,,,,,,,,,,,METAR,214.0
KMTJ 150053Z AUTO 09003KT 9SM FEW100 M05/M09 A3028 RMK AO2 SLP297 T10501089,KMTJ,2019-01-15T00:53:00Z,38.5,-107.9,-5.0,-8.9,90,3,,9.0,30.280512,1029.7,,TRUE,TRUE,,,,,,,FEW,10000,,,,,,,VFR,,,,,,,,,,,,METAR,1750.0
KMTH 150053Z AUTO 31011G16KT 10SM CLR 21/16 A3013 RMK AO2 SLP203 T02060156,KMTH,2019-01-15T00:53:00Z,24.73,-81.05,20.6,15.6,310,11,16,10.0,30.129921,1020.3,,TRUE,TRUE,,,,,,,CLR,,,,,,,,VFR,,,,,,,,,,,,SPECI,2.0
KMSY 150053Z 35008KT 10SM OVC018 07/03 A3036 RMK AO2 SLP282 T00720033,KMSY,2019-01-15T00:53:00Z,30.0,-90.25,7.2,3.3,350,8,,10.0,30.360237,1028.2,,,TRUE,,,,,,,OVC,1800,,,,,,,MVFR,,,,,,,,,,,,SPECI,5.0
KMSO 150053Z 00000KT 8SM OVC011 M11/M13 A3025 RMK AO2 SLP299 T11111133,KMSO,2019-01-15T00:53:00Z,46.92,-114.1,-11.1,-13.3,0,0,,8.0,30.250984,1029.9,,,TRUE,,,,,,,OVC,1100,,,,,,,MVFR,,,,,,,,,,,,METAR,975.0
KMSL 150053Z AUTO 34005KT 10SM BKN022 OVC038 04/00 A3035 RMK AO2 SLP280 T00390000,KMSL,2019-01-15T00:53:00Z,34.75,-87.6,3.9,0.0,340,5,,10.0,30.351377,1028.0,,TRUE,TRUE,,,,,,,BKN,2200,OVC,3800,,,,,MVFR,,,,,,,,,,,,SPECI,164.0
KMRB 150053Z 22003KT 4SM CLR M07/M07 A3018 RMK AO2 SLP228 I1001 T10721072 $,KMRB,2019-01-15T00:53:00Z,39.4,-77.98,-7.2,-7.2,220,3,,4.0,30.180119,1022.8,,,TRUE,TRUE,,,,,,CLR,,,,,,,,MVFR,,,,,,,,,,,,METAR,164.0
KMPO 150053Z AUTO 30007KT 10SM CLR M06/M13 A3006 RMK AO2 SLP214 T10561128,KMPO,2019-01-15T00:53:00Z,41.13,-75.38,-5.6,-12.8,300,7,,10.0,30.059055,1021.4,,TRUE,TRUE,,,,,,,CLR,,,,,,,,VFR,,,,,,,,,,,,METAR,577.0
KMOD 150053Z 13010KT 10SM BKN065 12/07 A2989 RMK AO2 RAE19 SLP122 P0000 T01170067,KMOD,2019-01-15T00:53:00Z,37.62,-120.95,11.7,6.7,130,10,,10.0,29.890747,1012.2,,,TRUE,,,,,,,BKN,6500,,,,,,,VFR,,,,,,0.005,,,,,,METAR,29.0
KMMV 150053Z AUTO 35010KT 10SM CLR 06/M02 A2993 RMK AO2 SLP135 T00561022,KMMV,2019-01-15T00:53:00Z,45.2,-123.13,5.6,-2.2,350,10,,10.0,29.929134,1013.5,,TRUE,TRUE,,,,,,,CLR,,,,,,,,VFR,,,,,,,,,,,,METAR,48.0
KMMK 150053Z AUTO 15004KT 10SM CLR M06/M09 A3012 RMK AO2 SLP201 T10611094,KMMK,2019-01-15T00:53:00Z,41.52,-72.83,-6.1,-9.4,150,4,,10.0,30.121063,1020.1,,TRUE,TRUE,,,,,,,CLR,,,,,,,,VFR,,,,,,,,,,,,METAR,31.0
KMLU 150053Z 04005KT 10SM HZ OVC020 06/01 A3042 RMK AO2 SLPNO T00560011,KMLU,2019-01-15T00:53:00Z,32.52,-92.03,5.6,1.1,40,5,,10.0,30.41929,,,,TRUE,,,,,,HZ,OVC,2000,,,,,,,MVFR,,,,,,,,,,,,METAR,29.0
KHOT 150053Z AUTO 25003KT 10SM OVC021 05/01 A3039 RMK AO2 SLP293 T00500011,KHOT,2019-01-15T00:53:00Z,34.48,-93.1,5.0,1.1,250,3,,10.0,30.389763,1029.3,,TRUE,TRUE,,,,,,,OVC,2100,,,,,,,MVFR,,,,,,,,,,,,METAR,162.0
KHLN 150053Z 25005KT 9SM CLR M06/M11 A3015 RMK AO2 SLP287 T10611111,KHLN,2019-01-15T00:53:00Z,46.6,-111.98,-6.1,-11.1,250,5,,9.0,30.15059,1028.7,,,TRUE,,,,,,,CLR,,,,,,,,VFR,,,,,,,,,,,,METAR,1182.0
KHLG 150053Z 27004KT 10SM OVC027 M02/M07 A3022 RMK AO2 SLP253 T10171072,KHLG,2019-01-15T00:53:00Z,40.17,-80.65,-1.7,-7.2,270,4,,10.0,30.221457,1025.3,,,TRUE,,,,,,,OVC,2700,,,,,,,MVFR,,,,,,,,,,,,METAR,372.0
KHLC 150053Z AUTO 22007KT 1/4SM FZFG VV002 M01/M01 A3021 RMK AO2 SLP251 I1000 T10111011,KHLC,2019-01-15T00:53:00Z,39.37,-99.83,-1.1,-1.1,220,7,,0.25,30.209646,1025.1,,TRUE,TRUE,,,,,,FZFG,OVX,0,,,,,,,LIFR,,,,,,,,,,,200,METAR,669.0
KHKS 150053Z 35004KT 10SM OVC017 05/02 A3037 RMK AO2 SLP279 T00500017,KHKS,2019-01-15T00:53:00Z,32.33,-90.22,5.0,1.7,350,4,,10.0,30.369095,1027.9,,,TRUE,,,,,,,OVC,1700,,,,,,,MVFR,,,,,,,,,,,,METAR,108.0
KHKA 150053Z AUTO 06003KT 9SM OVC035 02/M02 A3039 RMK AO2 SLP292 T00221017 $,KHKA,2019-01-15T00:53:00Z,35.93,-89.83,2.2,-1.7,60,3,,9.0,30.389763,1029.2,,TRUE,TRUE,TRUE,,,,,,OVC,3500,,,,,,,VFR,,,,,,,,,,,,METAR,78.0
KHJO 150053Z AUTO 02003KT 10SM BKN070 11/09 A2992 RMK AO2 SLP134 T01060089,KHJO,2019-01-15T00:53:00Z,36.32,-119.62,10.6,8.9,20,3,,10.0,29.920275,1013.4,,TRUE,TRUE,,,,,,,BKN,7000,,,,,,,VFR,,,,,,,,,,,,METAR,74.0
KHIO 150053Z 08012G20KT 10SM CLR 04/M04 A2997 RMK AO2 SLP151 T00441039,KHIO,2019-01-15T00:53:00Z,45.55,-122.95,4.4,-3.9,80,12,20,10.0,29.970472,1015.1,,,TRUE,,,,,,,CLR,,,,,,,,VFR,,,,,,,,,,,,METAR,68.0
KHIB 150053Z AUTO 36003KT 7SM CLR M11/M12 A3018 RMK AO2 SLP251 T11061117,KHIB,2019-01-15T00:53:00Z,47.38,-92.83,-10.6,-11.7,360,3,,7.0,30.180119,1025.1,,TRUE,TRUE,,,,,,,CLR,,,,,,,,VFR,,,,,,,,,,,,METAR,412.0
KHGR 150053Z 00000KT 10SM CLR M02/M08 A3018 RMK AO2 SLP237 T10171078 $,KHGR,2019-01-15T00:53:00Z,39.7,-77.73,-1.7,-7.8,0,0,,10.0,30.180119,1023.7,,,TRUE,TRUE,,,,,,CLR,,,,,,,,VFR,,,,,,,,,,,,METAR,224.0
KHFD 150053Z 00000KT 10SM CLR M04/M09 A3012 RMK AO2 SLP200 T10391094,KHFD,2019-01-15T00:53:00Z,41.73,-72.65,-3.9,-9.4,0,0,,10.0,30.121063,1020.0,,,TRUE,,,,,,,CLR,,,,,,,,VFR,,,,,,,,,,,,METAR,4.0
KHEI 150053Z AUTO 15006KT 10SM CLR M03/M06 A3012 RMK AO2 SLP237 T10331056,KHEI,2019-01-15T00:53:00Z,46.02,-102.65,-3.3,-5.6,150,6,,10.0,30.121063,1023.7,,TRUE,TRUE,,,,,,,CLR,,,,,,,,VFR,,,,,,,,,,,,METAR,828.0
KHBR 150053Z AUTO 17008KT 8SM CLR 04/01 A3031 RMK AO2 SLP272 T00390011,KHBR,2019-01-15T00:53:00Z,34.98,-99.05,3.9,1.1,170,8,,8.0,30.31004,1027.2,,TRUE,TRUE,,,,,,,CLR,,,,,,,,VFR,,,,,,,,,,,,METAR,473.0
KHBG 150053Z AUTO 35003KT 10SM OVC026 07/02 A3035 RMK AO2 SLP277 T00670017,KHBG,2019-01-15T00:53:00Z,31.27,-89.25,6.7,1.7,350,3,,10.0,30.351377,1027.7,,TRUE,TRUE,,,,,,,OVC,2600,,,,,,,MVFR,,,,,,,,,,,,METAR,44.0
KHAO 150053Z AUTO 00000KT 5SM HZ CLR M09/M12 A3033 RMK AO2 SLP279 I1000 T10941122,KHAO,2019-01-15T00:53:00Z,39.37,-84.52,-9.4,-12.2,0,0,,5.0,30.33071,1027.9,,TRUE,TRUE,,,,,,HZ,CLR,,,,,,,,MVFR,,,,,,,,,,,,METAR,188.0
KGZH 150053Z AUTO VRB03KT 10SM FEW020 OVC028 07/03 A3030 RMK AO2 SLP262 T00670028,KGZH,2019-01-15T00:53:00Z,31.42,-87.05,6.7,2.8,0,3,,10.0,30.301182,1026.2,,TRUE,TRUE,,,,,,,FEW,2000,OVC,2800,,,,,MVFR,,,,,,,,,,,,METAR,78.0
KGWO 150053Z AUTO 02006KT 10SM OVC018 05/01 A3039 RMK AO2 SLP290 T00500006,KGWO,2019-01-15T00:53:00Z,33.5,-90.08,5.0,0.6,20,6,,10.0,30.389763,1029.0,,TRUE,TRUE,,,,,,,OVC,1800,,,,,,,MVFR,,,,,,,,,,,,METAR,44.0
KGVL 150053Z AUTO 31011KT 10SM OVC032 04/02 A3020 RMK AO2 SLP232 T00440017,KGVL,2019-01-15T00:53:00Z,34.27,-83.83,4.4,1.7,310,11,,10.0,30.200787,1023.2,,TRUE,TRUE,,,,,,,OVC,3200,,,,,,,VFR,,,,,,,,,,,,METAR,386.0
KGUY 150053Z AUTO 05005KT 10SM CLR 04/01 A3022 RMK AO2 SLP237 T00440006,KGUY,2019-01-15T00:53:00Z,36.68,-101.5,4.4,0.6,50,5,,10.0,30.221457,1023.7,,TRUE,TRUE,,,,,,,CLR,,,,,,,,VFR,,,,,,,,,,,,METAR,948.0
KOLF 150053Z AUTO 31003KT 8SM CLR M07/M08 A3006 RMK AO2 SLP214 T10671083 TSNO,KOLF,2019-01-15T00:53:00Z,48.1,-105.58,-6.7,-8.3,310,3,,8.0,30.059055,1021.4,,TRUE,TRUE,,,TRUE,,,,CLR,,,,,,,,VFR,,,,,,,,,,,,METAR,604.0
KRDD 150053Z VRB03KT 10SM OVC095 15/M01 A2984,KRDD,2019-01-15T00:53:00Z,40.52,-122.3,15.0,-1.0,0,3,,10.0,29.840551,,,,,,,,,,,OVC,9500,,,,,,,VFR,,,,,,,,,,,,METAR,155.0
KLVM 150053Z AUTO 28015KT 10SM CLR 01/M10 A3006 RMK AO2 SLP226 T00111100 $,KLVM,2019-01-15T00:53:00Z,45.7,-110.43,1.1,-10.0,280,15,,10.0,30.059055,1022.6,,TRUE,TRUE,TRUE,,,,,,CLR,,,,,,,,VFR,,,,,,,,,,,,METAR,1418.0
KONO 150053Z AUTO 04003KT 10SM CLR 01/M05 A3023 RMK AO2 SLP260 T00061050,KONO,2019-01-15T00:53:00Z,44.02,-117.02,0.6,-5.0,40,3,,10.0,30.230314,1026.0,,TRUE,TRUE,,,,,,,CLR,,,,,,,,VFR,,,,,,,,,,,,METAR,667.0
KOMK 150053Z AUTO 35004KT 10SM OVC005 M04/M04 A3026 RMK AO2 SLP267 T10391044,KOMK,2019-01-15T00:53:00Z,48.47,-119.52,-3.9,-4.4,350,4,,10.0,30.259842,1026.7,,TRUE,TRUE,,,,,,,OVC,500,,,,,,,IFR,,,,,,,,,,,,METAR,395.0
KRNM 150053Z 04006KT 1 3/4SM -RA BR BKN013 OVC021 10/09 A2997 RMK AO2 SLP145 VSBLY N 2 P0010 T01000089,KRNM,2019-01-15T00:53:00Z,33.03,-116.92,10.0,8.9,40,6,,1.75,29.970472,1014.5,,,TRUE,,,,,,-RA BR,BKN,1300,OVC,2100,,,,,IFR,,,,,,0.1,,,,,,METAR,427.0
KRMG 150053Z AUTO 34006KT 10SM OVC021 05/00 A3028 RMK AO2 SLP251 T00500000,KRMG,2019-01-15T00:53:00Z,34.35,-85.17,5.0,0.0,340,6,,10.0,30.280512,1025.1,,TRUE,TRUE,,,,,,,OVC,2100,,,,,,,MVFR,,,,,,,,,,,,METAR,193.0
KRME 150053Z 00000KT 10SM CLR M09/M11 A3021 RMK AO2 SLP240 T10941111,KRME,2019-01-15T00:53:00Z,43.22,-75.4,-9.4,-11.1,0,0,,10.0,30.209646,1024.0,,,TRUE,,,,,,,CLR,,,,,,,,VFR,,,,,,,,,,,,METAR,154.0
KRKP 150053Z AUTO 02007KT 9SM OVC044 10/04 A3038 RMK AO2 SLP289 T01000039,KRKP,2019-01-15T00:53:00Z,28.08,-97.05,10.0,3.9,20,7,,9.0,30.380905,1028.9,,TRUE,TRUE,,,,,,,OVC,4400,,,,,,,VFR,,,,,,,,,,,,SPECI,6.0
KRIW 150053Z AUTO 29003KT 10SM CLR M13/M17 A3019 RMK AO2 SLP324 T11331167,KRIW,2019-01-15T00:53:00Z,43.07,-108.47,-13.3,-16.7,290,3,,10.0,30.188976,1032.4,,TRUE,TRUE,,,,,,,CLR,,,,,,,,VFR,,,,,,,,,,,,METAR,1697.0
KRAC 150053Z AUTO 26008KT 6SM HZ OVC011 M03/M06 A3026 RMK AO2 SLP256 T10281061,KRAC,2019-01-15T00:53:00Z,42.77,-87.82,-2.8,-6.1,260,8,,6.0,30.259842,1025.6,,TRUE,TRUE,,,,,,HZ,OVC,1100,,,,,,,MVFR,,,,,,,,,,,,METAR,203.0
KPWA 150053Z 19004KT 10SM CLR 02/M01 A3032 RMK AO2 SLP276 T00221011,KPWA,2019-01-15T00:53:00Z,35.53,-97.65,2.2,-1.1,190,4,,10.0,30.318897,1027.6,,,TRUE,,,,,,,CLR,,,,,,,,VFR,,,,,,,,,,,,METAR,397.0
KPUB 150053Z 20004KT 10SM CLR 04/M06 A3017 RMK AO2 SLP235 T00441061,KPUB,2019-01-15T00:53:00Z,38.28,-104.5,4.4,-6.1,200,4,,10.0,30.171259,1023.5,,,TRUE,,,,,,,CLR,,,,,,,,VFR,,,,,,,,,,,,METAR,1420.0
KPTK 150053Z 32004KT 10SM BKN029 BKN230 M03/M07 A3020 RMK AO2 SLP243 T10281067,KPTK,2019-01-15T00:53:00Z,42.67,-83.42,-2.8,-6.7,320,4,,10.0,30.200787,1024.3,,,TRUE,,,,,,,BKN,2900,BKN,23000,,,,,MVFR,,,,,,,,,,,,METAR,299.0
KPSX 150053Z AUTO 35005KT 10SM OVC060 11/06 A3039 RMK AO2 SLP289 T01060056,KPSX,2019-01-15T00:53:00Z,28.72,-96.25,10.6,5.6,350,5,,10.0,30.389763,1028.9,,TRUE,TRUE,,,,,,,OVC,6000,,,,,,,VFR,,,,,,,,,,,,METAR,5.0
KPRB 150053Z AUTO 16009KT 10SM -RA FEW032 BKN049 OVC070 10/08 A2989 RMK AO2 RAB00 SLP120 P0006 T01000083,KPRB,2019-01-15T00:53:00Z,35.67,-120.63,10.0,8.3,160,9,,10.0,29.890747,1012.0,,TRUE,TRUE,,,,,,-RA,FEW,3200,BKN,4900,OVC,7000,,,VFR,,,,,,0.06,,,,,,METAR,245.0
KPQL 150053Z 01005KT 10SM OVC024 07/02 A3033 RMK AO2 SLP273 T00720022,KPQL,2019-01-15T00:53:00Z,30.47,-88.53,7.2,2.2,10,5,,10.0,30.33071,1027.3,,,TRUE,,,,,,,OVC,2400,,,,,,,MVFR,,,,,,,,,,,,SPECI,6.0
KPOU 150053Z 00000KT 10SM CLR M07/M11 A3015 RMK AO2 SLP209 T10671111,KPOU,2019-01-15T00:53:00Z,41.63,-73.88,-6.7,-11.1,0,0,,10.0,30.15059,1020.9,,,TRUE,,,,,,,CLR,,,,,,,,VFR,,,,,,,,,,,,METAR,46.0
KOPF 150053Z 36004KT 10SM FU CLR 20/13 A3012 RMK AO2 SLP202 T02000128,KOPF,2019-01-15T00:53:00Z,25.92,-80.28,20.0,12.8,360,4,,10.0,30.121063,1020.2,,,TRUE,,,,,,FU,CLR,,,,,,,,VFR,,,,,,,,,,,,SPECI,16.0
PAQT 150053Z AUTO 08027G34KT 1/2SM -SN FZFG OVC009 M23/M26 A3024 RMK PK WND 09038/0039 UPE33SNB33 SLP242 P0000 T12331256 TSNO VIA AUTODIAL,PAQT,2019-01-15T00:53:00Z,70.22,-151.0,-23.3,-25.6,80,27,34,0.5,30.239174,1024.2,,TRUE,,,,TRUE,,,-SN FZFG,OVC,900,,,,,,,LIFR,,,,,,0.005,,,,,,METAR,12.0
PAWD 150053Z AUTO 34005KT 10SM OVC050 02/02 A2995 RMK SLP143 T00220017 TSNO PNO $ VIA AUTODIAL,PAWD,2019-01-15T00:53:00Z,60.12,-149.42,2.2,1.7,340,5,,10.0,29.949802,1014.3,,TRUE,,TRUE,,TRUE,,,,OVC,5000,,,,,,,VFR,,,,,,,,,,,,METAR,23.0
PANT 150053Z AUTO 32004KT 10SM BKN120 07/06 A2999 RMK SLP155 T00720061 TSNO $ VIA AUTODIAL,PANT,2019-01-15T00:53:00Z,55.03,-131.57,7.2,6.1,320,4,,10.0,29.991142,1015.5,,TRUE,,TRUE,,TRUE,,,,BKN,12000,,,,,,,VFR,,,,,,,,,,,,METAR,36.0
KRTN 150053Z AUTO 04008KT 10SM FEW120 02/M07 A3018 RMK AO2 SLP230 T00171067,KRTN,2019-01-15T00:53:00Z,36.73,-104.5,1.7,-6.7,40,8,,10.0,30.180119,1023.0,,TRUE,TRUE,,,,,,,FEW,12000,,,,,,,VFR,,,,,,,,,,,,METAR,1936.0
KRSW 150053Z 32006KT 10SM CLR 16/12 A3015 RMK AO2 SLP207 T01560122,KRSW,2019-01-15T00:53:00Z,26.53,-81.75,15.6,12.2,320,6,,10.0,30.15059,1020.7,,,TRUE,,,,,,,CLR,,,,,,,,VFR,,,,,,,,,,,,METAR,10.0
KRNT 150053Z 17003KT 10SM CLR 07/03 A2997 RMK AO2 SLP152 T00720028,KRNT,2019-01-15T00:53:00Z,47.5,-122.22,7.2,2.8,170,3,,10.0,29.970472,1015.2,,,TRUE,,,,,,,CLR,,,,,,,,VFR,,,,,,,,,,,,METAR,21.0
KRUE 150053Z AUTO 25003KT 10SM OVC019 04/00 A3039 RMK AO2 SLP288 T00390000,KRUE,2019-01-15T00:53:00Z,35.25,-93.1,3.9,0.0,250,3,,10.0,30.389763,1028.8,,TRUE,TRUE,,,,,,,OVC,1900,,,,,,,MVFR,,,,,,,,,,,,METAR,115.0
KRWF 150053Z AUTO 31003KT 10SM OVC009 M03/M04 A3023 RMK AO2 SLP252 T10281039,KRWF,2019-01-15T00:53:00Z,44.55,-95.08,-2.8,-3.9,310,3,,10.0,30.230314,1025.2,,TRUE,TRUE,,,,,,,OVC,900,,,,,,,IFR,,,,,,,,,,,,METAR,311.0
KSTP 150053Z 33004KT 10SM OVC018 M01/M04 A3024 RMK AO2 SLP249 T10111044,KSTP,2019-01-15T00:53:00Z,44.93,-93.05,-1.1,-4.4,330,4,,10.0,30.239174,1024.9,,,TRUE,,,,,,,OVC,1800,,,,,,,MVFR,,,,,,,,,,,,METAR,219.0
KSTJ 150053Z AUTO 20006KT 4SM BR OVC004 M01/M01 A3032 RMK AO2 SLP277 T10111011,KSTJ,2019-01-15T00:53:00Z,39.77,-94.92,-1.1,-1.1,200,6,,4.0,30.318897,1027.7,,TRUE,TRUE,,,,,,BR,OVC,400,,,,,,,LIFR,,,,,,,,,,,,METAR,247.0
KSTS 150053Z 12009KT 10SM BKN040 12/06 A2982 RMK AO2 SLP094 T01220056,KSTS,2019-01-15T00:53:00Z,38.5,-122.82,12.2,5.6,120,9,,10.0,29.819881,1009.4,,,TRUE,,,,,,,BKN,4000,,,,,,,VFR,,,,,,,,,,,,METAR,39.0
KSUN 150053Z 00000KT 10SM SCT130 M03/M09 A3019,KSUN,2019-01-15T00:53:00Z,43.5,-114.28,-3.0,-9.0,0,0,,10.0,30.188976,,,,,,,,,,,SCT,13000,,,,,,,VFR,,,,,,,,,,,,METAR,1620.0
KSWO 150053Z 12005KT 10SM CLR 03/M01 A3033 RMK AO2 SLP275 T00281011,KSWO,2019-01-15T00:53:00Z,36.17,-97.08,2.8,-1.1,120,5,,10.0,30.33071,1027.5,,,TRUE,,,,,,,CLR,,,,,,,,VFR,,,,,,,,,,,,METAR,290.0
KTCC 150053Z AUTO 21005KT 10SM CLR 06/01 A3017 RMK AO2 SLP219 T00610006,KTCC,2019-01-15T00:53:00Z,35.18,-103.6,6.1,0.6,210,5,,10.0,30.171259,1021.9,,TRUE,TRUE,,,,,,,CLR,,,,,,,,VFR,,,,,,,,,,,,METAR,1235.0
KTCL 150053Z 34008KT 10SM OVC015 05/01 A3036 RMK AO2 SLP279 T00500011,KTCL,2019-01-15T00:53:00Z,33.22,-87.62,5.0,1.1,340,8,,10.0,30.360237,1027.9,,,TRUE,,,,,,,OVC,1500,,,,,,,MVFR,,,,,,,,,,,,METAR,49.0
KTCS 150053Z AUTO 01003KT 10SM CLR 10/02 A3021 RMK AO2 SLP208 T01000017,KTCS,2019-01-15T00:53:00Z,33.23,-107.27,10.0,1.7,10,3,,10.0,30.209646,1020.8,,TRUE,TRUE,,,,,,,CLR,,,,,,,,VFR,,,,,,,,,,,,METAR,1469.0
PABT 150053Z 35008KT 10SM FEW048 FEW250 M17/M20 A3009 RMK AO2 SLP214 T11671200 PNO,PABT,2019-01-15T00:53:00Z,66.92,-151.52,-16.7,-20.0,350,8,,10.0,30.088583,1021.4,,,TRUE,,,,,,,FEW,4800,FEW,25000,,,,,VFR,,,,,,,,,,,,METAR,195.0
KBRL 150053Z AUTO 27005KT 7SM OVC006 M02/M04 A3030 RMK AO2 SLP271 T10221044,KBRL,2019-01-15T00:53:00Z,40.77,-91.13,-2.2,-4.4,270,5,,7.0,30.301182,1027.1,,TRUE,TRUE,,,,,,,OVC,600,,,,,,,IFR,,,,,,,,,,,,METAR,211.0
KPIR 150053Z AUTO 16005KT 9SM OVC003 M05/M05 A3020 RMK AO2 SLP253 I1000 T10501050,KPIR,2019-01-15T00:53:00Z,44.38,-100.28,-5.0,-5.0,160,5,,9.0,30.200787,1025.3,,TRUE,TRUE,,,,,,,OVC,300,,,,,,,LIFR,,,,,,,,,,,,METAR,526.0
KMSS 150053Z AUTO 00000KT 10SM CLR M11/M13 A3021 RMK AO2 SLP242 T11061133,KMSS,2019-01-15T00:53:00Z,44.93,-74.85,-10.6,-13.3,0,0,,10.0,30.209646,1024.2,,TRUE,TRUE,,,,,,,CLR,,,,,,,,VFR,,,,,,,,,,,,METAR,66.0
KMLT 150053Z AUTO 00000KT 10SM CLR M17/M19 A3007 RMK AO2 SLP200 I1000 T11671194,KMLT,2019-01-15T00:53:00Z,45.65,-68.7,-16.7,-19.4,0,0,,10.0,30.070866,1020.0,,TRUE,TRUE,,,,,,,CLR,,,,,,,,VFR,,,,,,,,,,,,METAR,123.0
KLXT 150053Z AUTO 24006KT 5SM BR OVC003 M02/M02 A3032 RMK AO2 SLP280 T10171017,KLXT,2019-01-15T00:53:00Z,38.97,-94.37,-1.7,-1.7,240,6,,5.0,30.318897,1028.0,,TRUE,TRUE,,,,,,BR,OVC,300,,,,,,,LIFR,,,,,,,,,,,,METAR,306.0
KLSE 150053Z 18006KT 3SM BR BKN005 OVC015 M02/M03 A3023 RMK AO2 SLP254 I1001 T10221028,KLSE,2019-01-15T00:53:00Z,43.88,-91.25,-2.2,-2.8,180,6,,3.0,30.230314,1025.4,,,TRUE,,,,,,BR,BKN,500,OVC,1500,,,,,IFR,,,,,,,,,,,,METAR,199.0
KLKV 150053Z AUTO 11012G19KT 10SM CLR 02/M07 A2994 RMK AO2 SLP177 T00171072 FZRANO,KLKV,2019-01-15T00:53:00Z,42.17,-120.4,1.7,-7.2,110,12,19,10.0,29.940945,1017.7,,TRUE,TRUE,,,,TRUE,,,CLR,,,,,,,,VFR,,,,,,,,,,,,METAR,1441.0
KGFL 150053Z AUTO 00000KT 10SM CLR M09/M12 A3017 RMK AO2 SLP229 T10891117,KGFL,2019-01-15T00:53:00Z,43.33,-73.62,-8.9,-11.7,0,0,,10.0,30.171259,1022.9,,TRUE,TRUE,,,,,,,CLR,,,,,,,,VFR,,,,,,,,,,,,METAR,103.0
KFLD 150053Z AUTO 27006KT 10SM OVC021 M02/M06 A3021 RMK AO2 SLP241 T10221056,KFLD,2019-01-15T00:53:00Z,43.77,-88.48,-2.2,-5.6,270,6,,10.0,30.209646,1024.1,,TRUE,TRUE,,,,,,,OVC,2100,,,,,,,MVFR,,,,,,,,,,,,METAR,240.0
KCMX 150053Z AUTO 36003KT 10SM SCT015 OVC022 M02/M06 A3015 RMK AO2 SLP224 T10221061,KCMX,2019-01-15T00:53:00Z,47.17,-88.48,-2.2,-6.1,360,3,,10.0,30.15059,1022.4,,TRUE,TRUE,,,,,,,SCT,1500,OVC,2200,,,,,MVFR,,,,,,,,,,,,METAR,326.0
KRVS 150053Z 00000KT 10SM CLR M01/M02 A3037 RMK AO2 SLP293 T10061022,KRVS,2019-01-15T00:53:00Z,36.05,-95.98,-0.6,-2.2,0,0,,10.0,30.369095,1029.3,,,TRUE,,,,,,,CLR,,,,,,,,VFR,,,,,,,,,,,,METAR,200.0
KOQT 150053Z AUTO 00000KT 10SM OVC020 03/M01 A3028 RMK AO2 SLP267 T00281006,KOQT,2019-01-15T00:53:00Z,36.02,-84.23,2.8,-0.6,0,0,,10.0,30.280512,1026.7,,TRUE,TRUE,,,,,,,OVC,2000,,,,,,,MVFR,,,,,,,,,,,,METAR,277.0
KP92 150053Z AUTO 00000KT A3035 RMK AO1 SLP279 $,KP92,2019-01-15T00:53:00Z,29.57,-91.53,,,0,0,,,30.351377,1027.9,,TRUE,TRUE,TRUE,,,,,,,,,,,,,,,,,,,,,,,,,,METAR,1.0
TJNR 150053Z AUTO 06007KT 10SM FEW028 SCT033 BKN045 24/19 A3008 RMK AO2 SLP184 T02440194,TJNR,2019-01-15T00:53:00Z,18.25,-65.63,24.4,19.4,60,7,,10.0,30.079725,1018.4,,TRUE,TRUE,,,,,,,FEW,2800,SCT,3300,BKN,4500,,,VFR,,,,,,,,,,,,METAR,12.0
KNIP 150053Z 34009KT 10SM OVC018 11/06 A3022 RMK AO2 SLP229 T01060061,KNIP,2019-01-15T00:53:00Z,30.22,-81.67,10.6,6.1,340,9,,10.0,30.221457,1022.9,,,TRUE,,,,,,,OVC,1800,,,,,,,MVFR,,,,,,,,,,,,METAR,7.0
KNUI 150053Z AUTO 00000KT 7SM CLR M03/M05 A3020 RMK AO2 SLP226 T10281050,KNUI,2019-01-15T00:53:00Z,38.15,-76.43,-2.8,-5.0,0,0,,7.0,30.200787,1022.6,,TRUE,TRUE,,,,,,,CLR,,,,,,,,VFR,,,,,,,,,,,,SPECI,7.0
KTWF 150053Z 07003KT 10SM CLR M02/M04 A3016 RMK AO2 SLP240 T10221039,KTWF,2019-01-15T00:53:00Z,42.48,-114.48,-2.2,-3.9,70,3,,10.0,30.159449,1024.0,,,TRUE,,,,,,,CLR,,,,,,,,VFR,,,,,,,,,,,,METAR,1266.0
PACV 150053Z 00000KT 10SM OVC055 01/M01 A3000 RMK AO2 SLP161 T00061006,PACV,2019-01-15T00:53:00Z,60.5,-145.47,0.6,-0.6,0,0,,10.0,30.0,1016.1,,,TRUE,,,,,,,OVC,5500,,,,,,,VFR,,,,,,,,,,,,METAR,12.0
PADE 150053Z AUTO 06009KT 10SM BKN100 A2978 RMK AO2 SLP086 TSNO $,PADE,2019-01-15T00:53:00Z,66.07,-162.77,,,60,9,,10.0,29.778543,1008.6,,TRUE,TRUE,TRUE,,TRUE,,,,BKN,10000,,,,,,,VFR,,,,,,,,,,,,METAR,5.0
PAEN 150053Z 03006KT 10SM FEW090 M01/M03 A2990 RMK AO2 SLP127 T10061028,PAEN,2019-01-15T00:53:00Z,60.57,-151.25,-0.6,-2.8,30,6,,10.0,29.899607,1012.7,,,TRUE,,,,,,,FEW,9000,,,,,,,VFR,,,,,,,,,,,,METAR,27.0
PAFA 150053Z 00000KT 10SM FEW120 BKN200 M19/M22 A3003 RMK AO2 SLP184 T11941222 PNO,PAFA,2019-01-15T00:53:00Z,64.8,-147.85,-19.4,-22.2,0,0,,10.0,30.029528,1018.4,,,TRUE,,,,,,,FEW,12000,BKN,20000,,,,,VFR,,,,,,,,,,,,METAR,132.0
PAGY 150053Z AUTO 00000KT 10SM FEW014 OVC030 02/01 A3012 RMK AO2 SLP198 T00220011 TSNO,PAGY,2019-01-15T00:53:00Z,59.47,-135.3,2.2,1.1,0,0,,10.0,30.121063,1019.8,,TRUE,TRUE,,,TRUE,,,,FEW,1400,OVC,3000,,,,,MVFR,,,,,,,,,,,,METAR,5.0
KLNS 150053Z 28005KT 10SM CLR M03/M11 A3017 RMK AO2 SLP221 T10331106,KLNS,2019-01-15T00:53:00Z,40.12,-76.3,-3.3,-10.6,280,5,,10.0,30.171259,1022.1,,,TRUE,,,,,,,CLR,,,,,,,,VFR,,,,,,,,,,,,METAR,125.0
PAKV 150053Z AUTO 05011KT 10SM CLR M07/M12 A2989 RMK AO2 SLP127 T10721117 TSNO,PAKV,2019-01-15T00:53:00Z,64.33,-158.75,-7.2,-11.7,50,11,,10.0,29.890747,1012.7,,TRUE,TRUE,,,TRUE,,,,CLR,,,,,,,,VFR,,,,,,,,,,,,METAR,61.0
PAKT 150053Z 00000KT 10SM FEW003 BKN070 06/06 A3001 RMK AO2 SLP163 HARBOR WIND 12004KT T00610056,PAKT,2019-01-15T00:53:00Z,55.35,-131.7,6.1,5.6,0,0,,10.0,30.008858,1016.3,,,TRUE,,,,,,,FEW,300,BKN,7000,,,,,VFR,,,,,,,,,,,,METAR,28.0
PAJN 150053Z 00000KT 1/2SM R08/P6000FT BR BKN002 OVC007 02/02 A3008 RMK AO2 SFC VIS 3/4 SLP186 T00170017,PAJN,2019-01-15T00:53:00Z,58.35,-134.58,1.7,1.7,0,0,,0.5,30.079725,1018.6,,,TRUE,,,,,,BR,BKN,200,OVC,700,,,,,LIFR,,,,,,,,,,,,METAR,5.0
PAIL 150053Z 09020G29KT 10SM BKN035 BKN043 BKN100 04/02 A2970 RMK AO2 PK WND 09031/0037 RAE31 SLP058 P0000 T00390017 $,PAIL,2019-01-15T00:53:00Z,59.75,-154.92,3.9,1.7,90,20,29,10.0,29.698818,1005.8,,,TRUE,TRUE,,,,,,BKN,3500,BKN,4300,BKN,10000,,,VFR,,,,,,0.005,,,,,,METAR,49.0
PAHO 150053Z 08007KT 10SM CLR 06/00 A2985 RMK AO2 SLP108 T00560000,PAHO,2019-01-15T00:53:00Z,59.63,-151.47,5.6,0.0,80,7,,10.0,29.84941,1010.8,,,TRUE,,,,,,,CLR,,,,,,,,VFR,,,,,,,,,,,,METAR,28.0
PAMR 150053Z 36006KT 10SM FEW090 M03/M07 A2994 RMK AO2 SLP140 T10281067,PAMR,2019-01-15T00:53:00Z,61.22,-149.85,-2.8,-6.7,360,6,,10.0,29.940945,1014.0,,,TRUE,,,,,,,FEW,9000,,,,,,,VFR,,,,,,,,,,,,METAR,41.0
PAMC 150053Z AUTO VRB06KT 10SM CLR M20/M22 A2985 RMK AO2 SLP120 T12001217 TSNO $,PAMC,2019-01-15T00:53:00Z,62.97,-155.62,-20.0,-21.7,0,6,,10.0,29.84941,1012.0,,TRUE,TRUE,TRUE,,TRUE,,,,CLR,,,,,,,,VFR,,,,,,,,,,,,METAR,103.0
PASI 150053Z 34004KT 10SM SCT050 BKN065 OVC250 07/06 A2998 RMK AO2 SLP152 T00670056 $,PASI,2019-01-15T00:53:00Z,57.07,-135.35,6.7,5.6,340,4,,10.0,29.97933,1015.2,,,TRUE,TRUE,,,,,,SCT,5000,BKN,6500,OVC,25000,,,VFR,,,,,,,,,,,,METAR,5.0
PASO 150053Z AUTO 00000KT 10SM FEW049 02/01 A2983 RMK AO2 SLP103 T00220011 TSNO,PASO,2019-01-15T00:53:00Z,59.45,-151.7,2.2,1.1,0,0,,10.0,29.828741,1010.3,,TRUE,TRUE,,,TRUE,,,,FEW,4900,,,,,,,VFR,,,,,,,,,,,,METAR,9.0
PATK 150053Z 01005KT 10SM CLR M01/M08 A2997 RMK AO2 SLP157 T10111083,PATK,2019-01-15T00:53:00Z,62.3,-150.1,-1.1,-8.3,10,5,,10.0,29.970472,1015.7,,,TRUE,,,,,,,CLR,,,,,,,,VFR,,,,,,,,,,,,METAR,109.0
PATO 150053Z AUTO 14008KT 10SM SCT037 OVC055 04/00 A2999 RMK AO2 SLP155 T00390000 TSNO,PATO,2019-01-15T00:53:00Z,60.78,-148.85,3.9,0.0,140,8,,10.0,29.991142,1015.5,,TRUE,TRUE,,,TRUE,,,,SCT,3700,OVC,5500,,,,,VFR,,,,,,,,,,,,METAR,31.0
PAVL 150053Z AUTO 07012KT 7SM CLR M06/M08 A2985 RMK AO2 SLP107 T10561083 TSNO $,PAVL,2019-01-15T00:53:00Z,67.73,-164.55,-5.6,-8.3,70,12,,7.0,29.84941,1010.7,,TRUE,TRUE,TRUE,,TRUE,,,,CLR,,,,,,,,VFR,,,,,,,,,,,,METAR,3.0
PASC 150053Z 09030KT 1/2SM R06/3000V4500FT BLSN FZFG VV003 M23/M26 A3025 RMK AO2 PK WND 08038/0024 SLP246 T12281261,PASC,2019-01-15T00:53:00Z,70.2,-148.47,-22.8,-26.1,90,30,,0.5,30.250984,1024.6,,,TRUE,,,,,,BLSN FZFG,OVX,0,,,,,,,LIFR,,,,,,,,,,,300,METAR,15.0
PAOT 150053Z 11023KT 10SM CLR M07/M09 A2986 RMK AO2 PK WND 10029/0022 SLP110 T10671094 VISNO E,PAOT,2019-01-15T00:53:00Z,66.87,-162.58,-6.7,-9.4,110,23,,10.0,29.861221,1011.0,,,TRUE,,,,,,,CLR,,,,,,,,VFR,,,,,,,,,,,,METAR,3.0
PAOR 150053Z 00000KT 10SM FEW170 SCT200 SCT230 M28/M31 A3014 RMK AO2 SLP293 T12781311,PAOR,2019-01-15T00:53:00Z,62.97,-141.93,-27.8,-31.1,0,0,,10.0,30.138779,1029.3,,,TRUE,,,,,,,FEW,17000,SCT,20000,SCT,23000,,,VFR,,,,,,,,,,,,METAR,523.0
PAOM 150053Z 09014KT 10SM FEW028 OVC039 M01/M04 A2959 RMK AO2 PK WND 10032/0010 SNB30E41 SLP019 P0000 T10111039 $,PAOM,2019-01-15T00:53:00Z,64.5,-165.43,-1.1,-3.9,90,14,,10.0,29.589567,1001.9,,,TRUE,TRUE,,,,,,FEW,2800,OVC,3900,,,,,VFR,,,,,,0.005,,,,,,METAR,11.0
TISX 150053Z 03005KT 10SM CLR 23/21 A3006 RMK AO2 SLP179 T02280206 PNO,TISX,2019-01-15T00:53:00Z,17.7,-64.8,22.8,20.6,30,5,,10.0,30.059055,1017.9,,,TRUE,,,,,,,CLR,,,,,,,,VFR,,,,,,,,,,,,METAR,19.0
TIST 150053Z 08005KT 10SM CLR 24/20 A3006 RMK AO2 SLP179 T02390200,TIST,2019-01-15T00:53:00Z,18.33,-64.98,23.9,20.0,80,5,,10.0,30.059055,1017.9,,,TRUE,,,,,,,CLR,,,,,,,,VFR,,,,,,,,,,,,METAR,7.0
PALH 150053Z 02004KT 10SM CLR M03/M08 A2995 RMK AO2 SLP144 T10331078,PALH,2019-01-15T00:53:00Z,61.18,-149.97,-3.3,-7.8,20,4,,10.0,29.949802,1014.4,,,TRUE,,,,,,,CLR,,,,,,,,VFR,,,,,,,,,,,,METAR,22.0
MMAS 150053Z 06009KT 9SM SCT100 16/05 A3027 RMK 8/030 HZY,MMAS,2019-01-15T00:53:00Z,21.7,-102.32,16.0,5.0,60,9,,9.0,30.268702,,,,,,,,,,,SCT,10000,,,,,,,VFR,,,,,,,,,,,,METAR,1863.0
PANN 150053Z AUTO 07011KT 10SM UP CLR M08/M14 A2997 RMK AO2 UPE26B50 SLP164 P0000 T10831144 TSNO,PANN,2019-01-15T00:53:00Z,64.55,-149.08,-8.3,-14.4,70,11,,10.0,29.970472,1016.4,,TRUE,TRUE,,,TRUE,,,UP,CLR,,,,,,,,VFR,,,,,,0.005,,,,,,METAR,110.0
PANC 150053Z 00000KT 10SM FEW090 BKN220 M02/M07 A2994 RMK AO2 SLP140 T10221067,PANC,2019-01-15T00:53:00Z,61.17,-150.0,-2.2,-6.7,0,0,,10.0,29.940945,1014.0,,,TRUE,,,,,,,FEW,9000,BKN,22000,,,,,VFR,,,,,,,,,,,,METAR,38.0
KPBG 150053Z AUTO 00000KT 10SM CLR M12/M13 A3017 RMK AO2 SLP223 I1000 T11221133,KPBG,2019-01-15T00:53:00Z,44.65,-73.47,-12.2,-13.3,0,0,,10.0,30.171259,1022.3,,TRUE,TRUE,,,,,,,CLR,,,,,,,,VFR,,,,,,,,,,,,METAR,72.0
KPBI 150053Z 33006KT 10SM FEW250 17/13 A3013 RMK AO2 SLP203 T01670128 $,KPBI,2019-01-15T00:53:00Z,26.68,-80.1,16.7,12.8,330,6,,10.0,30.129921,1020.3,,,TRUE,TRUE,,,,,,FEW,25000,,,,,,,VFR,,,,,,,,,,,,METAR,6.0
KPDK 150053Z 33012KT 9SM SCT020 OVC026 04/01 A3023 RMK AO2 SLP248 T00440006,KPDK,2019-01-15T00:53:00Z,33.88,-84.3,4.4,0.6,330,12,,9.0,30.230314,1024.8,,,TRUE,,,,,,,SCT,2000,OVC,2600,,,,,MVFR,,,,,,,,,,,,METAR,302.0
KPKD 150053Z AUTO 00000KT 9SM CLR M10/M12 A3019 RMK AO2 SLP252 T11001122,KPKD,2019-01-15T00:53:00Z,46.9,-95.07,-10.0,-12.2,0,0,,9.0,30.188976,1025.2,,TRUE,TRUE,,,,,,,CLR,,,,,,,,VFR,,,,,,,,,,,,METAR,442.0
KDXR 150053Z AUTO 28003KT 10SM CLR M04/M12 A3012 RMK AO2 SLP206 T10441122,KDXR,2019-01-15T00:53:00Z,41.37,-73.48,-4.4,-12.2,280,3,,10.0,30.121063,1020.6,,TRUE,TRUE,,,,,,,CLR,,,,,,,,VFR,,,,,,,,,,,,METAR,139.0
KDWH 150053Z 36003KT 10SM CLR 09/03 A3038 RMK AO2 SLP287 T00890028,KDWH,2019-01-15T00:53:00Z,30.07,-95.55,8.9,2.8,360,3,,10.0,30.380905,1028.7,,,TRUE,,,,,,,CLR,,,,,,,,VFR,,,,,,,,,,,,SPECI,46.0
KDVT 150053Z 08005KT 10SM BKN100 18/07 A3005 RMK AO2 SLP165 T01780067,KDVT,2019-01-15T00:53:00Z,33.68,-112.07,17.8,6.7,80,5,,10.0,30.050198,1016.5,,,TRUE,,,,,,,BKN,10000,,,,,,,VFR,,,,,,,,,,,,METAR,443.0
KDUJ 150053Z AUTO 25007KT 10SM CLR M04/M10 A3013 RMK AO2 SLP234 T10391100,KDUJ,2019-01-15T00:53:00Z,41.17,-78.9,-3.9,-10.0,250,7,,10.0,30.129921,1023.4,,TRUE,TRUE,,,,,,,CLR,,,,,,,,VFR,,,,,,,,,,,,METAR,554.0
KDTW 150053Z 23007KT 9SM FEW250 M04/M08 A3024 RMK AO2 SLP250 T10391083,KDTW,2019-01-15T00:53:00Z,42.23,-83.33,-3.9,-8.3,230,7,,9.0,30.239174,1025.0,,,TRUE,,,,,,,FEW,25000,,,,,,,VFR,,,,,,,,,,,,METAR,195.0
KDTS 150053Z 36010KT 10SM OVC16 07/03 A3029,KDTS,2019-01-15T00:53:00Z,30.4,-86.47,7.0,3.0,360,10,,10.0,30.28937,,,,,,,,,,,,,,,,,,,,,,,,,,,,,,,METAR,5.0
KCQC 150053Z AUTO 28007KT 10SM CLR M02/M04 A3026 RMK AO2 SLP266 T10221039,KCQC,2019-01-15T00:53:00Z,35.0,-105.67,-2.2,-3.9,280,7,,10.0,30.259842,1026.6,,TRUE,TRUE,,,,,,,CLR,,,,,,,,VFR,,,,,,,,,,,,SPECI,2160.0
KBTR 150053Z 01004KT 10SM OVC019 06/02 A3037 RMK AO2 SLP283 T00610022,KBTR,2019-01-15T00:53:00Z,30.53,-91.15,6.1,2.2,10,4,,10.0,30.369095,1028.3,,,TRUE,,,,,,,OVC,1900,,,,,,,MVFR,,,,,,,,,,,,METAR,21.0
KBTM 150053Z AUTO 15003KT 10SM CLR M13/M19 A3011 RMK AO2 SLP312 T11331189,KBTM,2019-01-15T00:53:00Z,45.97,-112.5,-13.3,-18.9,150,3,,10.0,30.109253,1031.2,,TRUE,TRUE,,,,,,,CLR,,,,,,,,VFR,,,,,,,,,,,,METAR,1688.0
KBTL 150053Z 25006KT 10SM OVC012 M03/M06 A3025 RMK AO2 SLP258 T10281056,KBTL,2019-01-15T00:53:00Z,42.32,-85.23,-2.8,-5.6,250,6,,10.0,30.250984,1025.8,,,TRUE,,,,,,,OVC,1200,,,,,,,MVFR,,,,,,,,,,,,METAR,290.0
KBRO 150053Z 35007KT 10SM BKN005 BKN021 OVC027 14/13 A3031 RMK AO2 SLP263 T01390133,KBRO,2019-01-15T00:53:00Z,25.92,-97.42,13.9,13.3,350,7,,10.0,30.31004,1026.3,,,TRUE,,,,,,,BKN,500,BKN,2100,OVC,2700,,,IFR,,,,,,,,,,,,METAR,7.0
KBRD 150053Z AUTO 00000KT 7SM CLR M07/M11 A3021 RMK AO2 SLP253 T10721106,KBRD,2019-01-15T00:53:00Z,46.4,-94.13,-7.2,-10.6,0,0,,7.0,30.209646,1025.3,,TRUE,TRUE,,,,,,,CLR,,,,,,,,VFR,,,,,,,,,,,,METAR,372.0
KBPT 150053Z 05005KT 10SM CLR 09/03 A3037 RMK AO2 SLP284 T00890033 $,KBPT,2019-01-15T00:53:00Z,29.95,-94.03,8.9,3.3,50,5,,10.0,30.369095,1028.4,,,TRUE,TRUE,,,,,,CLR,,,,,,,,VFR,,,,,,,,,,,,METAR,5.0
KBPK 150053Z AUTO 00000KT 10SM OVC017 02/M02 A3035 RMK AO2 SLP282 T00171017,KBPK,2019-01-15T00:53:00Z,36.37,-92.47,1.7,-1.7,0,0,,10.0,30.351377,1028.2,,TRUE,TRUE,,,,,,,OVC,1700,,,,,,,MVFR,,,,,,,,,,,,METAR,280.0
KBPI 150053Z AUTO 00000KT 10SM CLR M14/M18 A3024 RMK AO2 SLP358 T11441183,KBPI,2019-01-15T00:53:00Z,42.58,-110.1,-14.4,-18.3,0,0,,10.0,30.239174,1035.8,,TRUE,TRUE,,,,,,,CLR,,,,,,,,VFR,,,,,,,,,,,,METAR,2117.0
KBOI 150053Z 31003KT 10SM CLR 00/M06 A3018 RMK AO2 SLP246 T00001056,KBOI,2019-01-15T00:53:00Z,43.57,-116.23,0.0,-5.6,310,3,,10.0,30.180119,1024.6,,,TRUE,,,,,,,CLR,,,,,,,,VFR,,,,,,,,,,,,METAR,875.0
KBNO 150053Z AUTO 05009KT 10SM CLR M02/M08 A3006 RMK AO2 SLP216 T10171083,KBNO,2019-01-15T00:53:00Z,43.6,-118.95,-1.7,-8.3,50,9,,10.0,30.059055,1021.6,,TRUE,TRUE,,,,,,,CLR,,,,,,,,VFR,,,,,,,,,,,,METAR,1264.0
KBNA 150053Z 32007KT 9SM BKN020 OVC027 03/M02 A3033 RMK AO2 SLP276 T00281017,KBNA,2019-01-15T00:53:00Z,36.12,-86.68,2.8,-1.7,320,7,,9.0,30.33071,1027.6,,,TRUE,,,,,,,BKN,2000,OVC,2700,,,,,MVFR,,,,,,,,,,,,METAR,210.0
KBMQ 150053Z AUTO 00000KT 10SM OVC050 07/02 A3038 RMK AO2 SLP289 T00670022,KBMQ,2019-01-15T00:53:00Z,30.73,-98.23,6.7,2.2,0,0,,10.0,30.380905,1028.9,,TRUE,TRUE,,,,,,,OVC,5000,,,,,,,VFR,,,,,,,,,,,,METAR,389.0
KBMG 150053Z 00000KT 10SM CLR M05/M07 A3031 RMK AO2 SLP275 T10501072,KBMG,2019-01-15T00:53:00Z,39.15,-86.62,-5.0,-7.2,0,0,,10.0,30.31004,1027.5,,,TRUE,,,,,,,CLR,,,,,,,,VFR,,,,,,,,,,,,METAR,257.0
KBKV 150053Z 00000KT 10SM CLR 11/08 A3020 RMK AO2 SLP225 T01060078,KBKV,2019-01-15T00:53:00Z,28.47,-82.45,10.6,7.8,0,0,,10.0,30.200787,1022.5,,,TRUE,,,,,,,CLR,,,,,,,,VFR,,,,,,,,,,,,METAR,20.0
KBKE 150053Z AUTO 14008KT 10SM CLR M01/M06 A3014 RMK AO2 SLP237 T10061056,KBKE,2019-01-15T00:53:00Z,44.85,-117.82,-0.6,-5.6,140,8,,10.0,30.138779,1023.7,,TRUE,TRUE,,,,,,,CLR,,,,,,,,VFR,,,,,,,,,,,,METAR,1024.0
KBIV 150053Z AUTO 25009KT 9SM OVC013 M01/M04 A3024 RMK AO2 SLP251 T10061039,KBIV,2019-01-15T00:53:00Z,42.75,-86.1,-0.6,-3.9,250,9,,9.0,30.239174,1025.1,,TRUE,TRUE,,,,,,,OVC,1300,,,,,,,MVFR,,,,,,,,,,,,METAR,208.0
KBIL 150053Z 23020KT 10SM CLR 03/M10 A3004 RMK AO2 SLP202 T00331100,KBIL,2019-01-15T00:53:00Z,45.8,-108.55,3.3,-10.0,230,20,,10.0,30.041338,1020.2,,,TRUE,,,,,,,CLR,,,,,,,,VFR,,,,,,,,,,,,METAR,1091.0
KBHM 150053Z 34007KT 10SM OVC015 03/00 A3034 RMK AO2 SLP277 T00330000,KBHM,2019-01-15T00:53:00Z,33.57,-86.75,3.3,0.0,340,7,,10.0,30.339567,1027.7,,,TRUE,,,,,,,OVC,1500,,,,,,,MVFR,,,,,,,,,,,,METAR,197.0
KBGR 150053Z 00000KT 10SM FEW250 M12/M14 A3009 RMK AO2 SLP197 T11221144,KBGR,2019-01-15T00:53:00Z,44.8,-68.82,-12.2,-14.4,0,0,,10.0,30.088583,1019.7,,,TRUE,,,,,,,FEW,25000,,,,,,,VFR,,,,,,,,,,,,METAR,57.0
KBGM 150053Z 32004KT 10SM CLR M06/M16 A3010 RMK AO2 SLP223 T10611156,KBGM,2019-01-15T00:53:00Z,42.22,-75.98,-6.1,-15.6,320,4,,10.0,30.100393,1022.3,,,TRUE,,,,,,,CLR,,,,,,,,VFR,,,,,,,,,,,,METAR,490.0
KBFM 150053Z 34009KT 10SM OVC023 07/03 A3034 RMK AO2 SLP273 T00720028,KBFM,2019-01-15T00:53:00Z,30.62,-88.07,7.2,2.8,340,9,,10.0,30.339567,1027.3,,,TRUE,,,,,,,OVC,2300,,,,,,,MVFR,,,,,,,,,,,,METAR,20.0
KBFI 150053Z 00000KT 10SM SCT200 08/02 A2997 RMK AO2 SLP147 T00830017,KBFI,2019-01-15T00:53:00Z,47.55,-122.32,8.3,1.7,0,0,,10.0,29.970472,1014.7,,,TRUE,,,,,,,SCT,20000,,,,,,,VFR,,,,,,,,,,,,METAR,4.0
KBFF 150053Z AUTO 30008KT 10SM CLR 01/M11 A3015 RMK AO2 SLP254 T00111111,KBFF,2019-01-15T00:53:00Z,41.87,-103.58,1.1,-11.1,300,8,,10.0,30.15059,1025.4,,TRUE,TRUE,,,,,,,CLR,,,,,,,,VFR,,,,,,,,,,,,METAR,1203.0
KBFD 150053Z AUTO 30006KT 10SM CLR M04/M13 A3011 RMK AO2 SLP235 T10441128,KBFD,2019-01-15T00:53:00Z,41.8,-78.63,-4.4,-12.8,300,6,,10.0,30.109253,1023.5,,TRUE,TRUE,,,,,,,CLR,,,,,,,,VFR,,,,,,,,,,,,METAR,647.0
KBEH 150053Z AUTO 22007KT 7SM OVC011 M02/M05 A3026 RMK AO2 SLP258 T10171050,KBEH,2019-01-15T00:53:00Z,42.13,-86.42,-1.7,-5.0,220,7,,7.0,30.259842,1025.8,,TRUE,TRUE,,,,,,,OVC,1100,,,,,,,MVFR,,,,,,,,,,,,METAR,191.0
KBDE 150053Z AUTO 00000KT 7SM CLR M13/M15 A3020 RMK AO2 SLP253 I1001 T11331150,KBDE,2019-01-15T00:53:00Z,48.73,-94.62,-13.3,-15.0,0,0,,7.0,30.200787,1025.3,,TRUE,TRUE,,,,,,,CLR,,,,,,,,VFR,,,,,,,,,,,,METAR,329.0
KBCE 150053Z AUTO 18007KT 10SM OVC023 M02/M05 A3019 RMK AO2 SLP212 T10171050,KBCE,2019-01-15T00:53:00Z,37.7,-112.15,-1.7,-5.0,180,7,,10.0,30.188976,1021.2,,TRUE,TRUE,,,,,,,OVC,2300,,,,,,,MVFR,,,,,,,,,,,,METAR,2312.0
KBBW 150053Z AUTO 34003KT 10SM CLR M02/M04 A3015 RMK AO2 SLP237 T10171039,KBBW,2019-01-15T00:53:00Z,41.43,-99.63,-1.7,-3.9,340,3,,10.0,30.15059,1023.7,,TRUE,TRUE,,,,,,,CLR,,,,,,,,VFR,,,,,,,,,,,,METAR,776.0
KBAF 150053Z 00000KT 10SM CLR M06/M12 A3010 RMK AO2 SLP204 T10611117,KBAF,2019-01-15T00:53:00Z,42.17,-72.72,-6.1,-11.7,0,0,,10.0,30.100393,1020.4,,,TRUE,,,,,,,CLR,,,,,,,,VFR,,,,,,,,,,,,METAR,83.0
KAZO 150053Z 23006KT 10SM OVC013 M03/M06 A3025 RMK AO2 SLP259 T10281056,KAZO,2019-01-15T00:53:00Z,42.23,-85.55,-2.8,-5.6,230,6,,10.0,30.250984,1025.9,,,TRUE,,,,,,,OVC,1300,,,,,,,MVFR,,,,,,,,,,,,METAR,272.0
KAUS 150053Z 00000KT 10SM OVC055 10/03 A3038 RMK AO2 SLP292 T01000028,KAUS,2019-01-15T00:53:00Z,30.18,-97.68,10.0,2.8,0,0,,10.0,30.380905,1029.2,,,TRUE,,,,,,,OVC,5500,,,,,,,VFR,,,,,,,,,,,,METAR,166.0
KAUG 150053Z AUTO 00000KT 10SM CLR M10/M14 A3008 RMK AO2 SLP196 T11001144,KAUG,2019-01-15T00:53:00Z,44.32,-69.8,-10.0,-14.4,0,0,,10.0,30.079725,1019.6,,TRUE,TRUE,,,,,,,CLR,,,,,,,,VFR,,,,,,,,,,,,METAR,109.0
KASX 150053Z AUTO 23005KT 9SM OVC024 M05/M06 A3022 RMK AO2 SLP246 T10501061,KASX,2019-01-15T00:53:00Z,46.55,-90.92,-5.0,-6.1,230,5,,9.0,30.221457,1024.6,,TRUE,TRUE,,,,,,,OVC,2400,,,,,,,MVFR,,,,,,,,,,,,METAR,251.0
KASE 150053Z 20008KT 10SM CLR M07/M13 A3025 RMK AO2 SLP298 T10671128,KASE,2019-01-15T00:53:00Z,39.23,-106.87,-6.7,-12.8,200,8,,10.0,30.250984,1029.8,,,TRUE,,,,,,,CLR,,,,,,,,VFR,,,,,,,,,,,,METAR,2354.0
KASD 150053Z AUTO 34003KT 10SM OVC021 06/02 A3035 RMK AO2 SLP277 T00610022,KASD,2019-01-15T00:53:00Z,30.35,-89.82,6.1,2.2,340,3,,10.0,30.351377,1027.7,,TRUE,TRUE,,,,,,,OVC,2100,,,,,,,MVFR,,,,,,,,,,,,METAR,9.0
KARA 150053Z 01009KT 10SM OVC020 06/01 A3037 RMK AO2 SLP282 T00610011,KARA,2019-01-15T00:53:00Z,30.03,-91.88,6.1,1.1,10,9,,10.0,30.369095,1028.2,,,TRUE,,,,,,,OVC,2000,,,,,,,MVFR,,,,,,,,,,,,METAR,18.0
KAPF 150053Z 31006KT 10SM CLR 17/13 A3014 RMK AO2 SLP206 T01720133,KAPF,2019-01-15T00:53:00Z,26.15,-81.77,17.2,13.3,310,6,,10.0,30.138779,1020.6,,,TRUE,,,,,,,CLR,,,,,,,,VFR,,,,,,,,,,,,METAR,3.0
KAPA 150053Z 19004KT 10SM FEW220 M01/M14 A3017 RMK AO2 SLP272 T10111139,KAPA,2019-01-15T00:53:00Z,39.57,-104.85,-1.1,-13.9,190,4,,10.0,30.171259,1027.2,,,TRUE,,,,,,,FEW,22000,,,,,,,VFR,,,,,,,,,,,,METAR,1775.0
KAOO 150053Z AUTO 00000KT 10SM CLR M06/M10 A3015 RMK AO2 SLP233 T10561100,KAOO,2019-01-15T00:53:00Z,40.3,-78.32,-5.6,-10.0,0,0,,10.0,30.15059,1023.3,,TRUE,TRUE,,,,,,,CLR,,,,,,,,VFR,,,,,,,,,,,,METAR,455.0
KAOH 150053Z AUTO 21004KT 5SM BR CLR M07/M09 A3027 RMK AO2 SLP264 T10721094,KAOH,2019-01-15T00:53:00Z,40.7,-84.02,-7.2,-9.4,210,4,,5.0,30.268702,1026.4,,TRUE,TRUE,,,,,,BR,CLR,,,,,,,,MVFR,,,,,,,,,,,,METAR,296.0
KAMW 150053Z AUTO 25007KT 5SM BR OVC005 M01/M02 A3026 RMK AO2 SLP255 T10111022,KAMW,2019-01-15T00:53:00Z,41.98,-93.62,-1.1,-2.2,250,7,,5.0,30.259842,1025.5,,TRUE,TRUE,,,,,,BR,OVC,500,,,,,,,IFR,,,,,,,,,,,,METAR,279.0
KAMG 150053Z AUTO 31003KT 10SM OVC021 09/05 A3022 RMK AO2 SLP235 T00940050,KAMG,2019-01-15T00:53:00Z,31.53,-82.5,9.4,5.0,310,3,,10.0,30.221457,1023.5,,TRUE,TRUE,,,,,,,OVC,2100,,,,,,,MVFR,,,,,,,,,,,,METAR,59.0
KAMA 150053Z 15007KT 10SM CLR 07/01 A3019 RMK AO2 SLP230 T00720006,KAMA,2019-01-15T00:53:00Z,35.22,-101.72,7.2,0.6,150,7,,10.0,30.188976,1023.0,,,TRUE,,,,,,,CLR,,,,,,,,VFR,,,,,,,,,,,,METAR,1093.0
KALW 150053Z 00000KT 10SM OVC011 M01/M04 A3022 RMK AO2 SLP246 T10111044,KALW,2019-01-15T00:53:00Z,46.1,-118.28,-1.1,-4.4,0,0,,10.0,30.221457,1024.6,,,TRUE,,,,,,,OVC,1100,,,,,,,MVFR,,,,,,,,,,,,METAR,363.0
KALI 150053Z AUTO 07005KT 10SM BKN038 OVC045 10/03 A3037 RMK AO2 SLP284 T01000033,KALI,2019-01-15T00:53:00Z,27.73,-98.02,10.0,3.3,70,5,,10.0,30.369095,1028.4,,TRUE,TRUE,,,,,,,BKN,3800,OVC,4500,,,,,VFR,,,,,,,,,,,,METAR,53.0
KAKO 150053Z AUTO 27008KT 10SM CLR M01/M10 A3015 RMK AO2 SLP250 T10111100,KAKO,2019-01-15T00:53:00Z,40.17,-103.22,-1.1,-10.0,270,8,,10.0,30.15059,1025.0,,TRUE,TRUE,,,,,,,CLR,,,,,,,,VFR,,,,,,,,,,,,METAR,1421.0
KAIA 150053Z AUTO 00000KT 10SM CLR M03/M12 A3013 RMK AO2 SLP257 T10281117,KAIA,2019-01-15T00:53:00Z,42.05,-102.8,-2.8,-11.7,0,0,,10.0,30.129921,1025.7,,TRUE,TRUE,,,,,,,CLR,,,,,,,,VFR,,,,,,,,,,,,METAR,1196.0
KAGC 150053Z 28006KT 10SM OVC030 M01/M06 A3020 RMK AO2 SLP247 T10111061,KAGC,2019-01-15T00:53:00Z,40.35,-79.92,-1.1,-6.1,280,6,,10.0,30.200787,1024.7,,,TRUE,,,,,,,OVC,3000,,,,,,,MVFR,,,,,,,,,,,,METAR,389.0
KAFW 150053Z 09004KT 10SM FEW300 06/M01 A3037 RMK AO2 SLP291 T00561006,KAFW,2019-01-15T00:53:00Z,32.97,-97.32,5.6,-0.6,90,4,,10.0,30.369095,1029.1,,,TRUE,,,,,,,FEW,30000,,,,,,,VFR,,,,,,,,,,,,METAR,233.0
KAEX 150053Z 35006KT 10SM OVC017 05/01 A3039 RMK AO2 SLP296 T00500011,KAEX,2019-01-15T00:53:00Z,31.33,-92.57,5.0,1.1,350,6,,10.0,30.389763,1029.6,,,TRUE,,,,,,,OVC,1700,,,,,,,MVFR,,,,,,,,,,,,METAR,27.0
KADG 150053Z AUTO 28006KT 10SM OVC024 M02/M07 A3026 RMK AO2 SLP262 T10221072 TSNO,KADG,2019-01-15T00:53:00Z,41.87,-84.08,-2.2,-7.2,280,6,,10.0,30.259842,1026.2,,TRUE,TRUE,,,TRUE,,,,OVC,2400,,,,,,,MVFR,,,,,,,,,,,,METAR,241.0
KACV 150053Z AUTO 07004KT 10SM OVC100 14/02 A2978 RMK AO2 SLP089 T01390022,KACV,2019-01-15T00:53:00Z,40.98,-124.1,13.9,2.2,70,4,,10.0,29.778543,1008.9,,TRUE,TRUE,,,,,,,OVC,10000,,,,,,,VFR,,,,,,,,,,,,METAR,67.0
KACK 150053Z 36012KT 10SM OVC023 M01/M06 A3006 RMK AO2 SLP178 T10061056,KACK,2019-01-15T00:53:00Z,41.25,-70.07,-0.6,-5.6,360,12,,10.0,30.059055,1017.8,,,TRUE,,,,,,,OVC,2300,,,,,,,MVFR,,,,,,,,,,,,METAR,16.0
KABY 150053Z AUTO 00000KT 10SM OVC032 08/04 A3027 RMK AO2 SLP250 T00780039,KABY,2019-01-15T00:53:00Z,31.53,-84.2,7.8,3.9,0,0,,10.0,30.268702,1025.0,,TRUE,TRUE,,,,,,,OVC,3200,,,,,,,VFR,,,,,,,,,,,,METAR,58.0
KAAF 150053Z AUTO 35006KT 10SM OVC023 08/03 A3025 RMK AO2 SLP243 T00830033,KAAF,2019-01-15T00:53:00Z,29.73,-85.03,8.3,3.3,350,6,,10.0,30.250984,1024.3,,TRUE,TRUE,,,,,,,OVC,2300,,,,,,,MVFR,,,,,,,,,,,,METAR,5.0
KCRG 150053Z 02005KT 10SM OVC015 09/06 A3022 RMK AO2 SLP233 T00890061,KCRG,2019-01-15T00:53:00Z,30.33,-81.52,8.9,6.1,20,5,,10.0,30.221457,1023.3,,,TRUE,,,,,,,OVC,1500,,,,,,,MVFR,,,,,,,,,,,,METAR,13.0
KCPS 150053Z 24003KT 10SM OVC018 01/M03 A3035 RMK AO2 SLP282 T00061028,KCPS,2019-01-15T00:53:00Z,38.57,-90.15,0.6,-2.8,240,3,,10.0,30.351377,1028.2,,,TRUE,,,,,,,OVC,1800,,,,,,,MVFR,,,,,,,,,,,,METAR,126.0
KCPR 150053Z 22013KT 10SM CLR M03/M11 A3017 RMK AO2 SLP263 T10281111,KCPR,2019-01-15T00:53:00Z,42.9,-106.47,-2.8,-11.1,220,13,,10.0,30.171259,1026.3,,,TRUE,,,,,,,CLR,,,,,,,,VFR,,,,,,,,,,,,METAR,1621.0
KCOT 150053Z AUTO 11004KT 10SM SCT037 OVC046 09/03 A3038 RMK AO2 SLP286 T00890033,KCOT,2019-01-15T00:53:00Z,28.45,-99.22,8.9,3.3,110,4,,10.0,30.380905,1028.6,,TRUE,TRUE,,,,,,,SCT,3700,OVC,4600,,,,,VFR,,,,,,,,,,,,METAR,140.0
KCNY 150053Z AUTO 30004KT 10SM CLR M04/M07 A3027 RMK AO2 SLP293 T10441072,KCNY,2019-01-15T00:53:00Z,38.77,-109.75,-4.4,-7.2,300,4,,10.0,30.268702,1029.3,,TRUE,TRUE,,,,,,,CLR,,,,,,,,VFR,,,,,,,,,,,,METAR,1390.0
KCNO 150053Z 08006KT 1 1/2SM RA BR OVC018 12/10 A2999 RMK AO2 RAB20 SLP154 P0001 T01170100,KCNO,2019-01-15T00:53:00Z,33.98,-117.62,11.7,10.0,80,6,,1.5,29.991142,1015.4,,,TRUE,,,,,,RA BR,OVC,1800,,,,,,,IFR,,,,,,0.01,,,,,,METAR,207.0
KCNM 150053Z AUTO 11006KT 10SM OVC014 03/01 A3028 RMK AO2 SLP254 T00280006,KCNM,2019-01-15T00:53:00Z,32.33,-104.25,2.8,0.6,110,6,,10.0,30.280512,1025.4,,TRUE,TRUE,,,,,,,OVC,1400,,,,,,,MVFR,,,,,,,,,,,,METAR,985.0
KCMI 150053Z 22004KT 5SM BR OVC008 M06/M07 A3032 RMK AO2 SLP284 T10611072,KCMI,2019-01-15T00:53:00Z,40.03,-88.27,-6.1,-7.2,220,4,,5.0,30.318897,1028.4,,,TRUE,,,,,,BR,OVC,800,,,,,,,IFR,,,,,,,,,,,,METAR,228.0
KCLM 150053Z AUTO 00000KT 8SM CLR 03/02 A2997 RMK AO2 SLP151 T00280022,KCLM,2019-01-15T00:53:00Z,48.12,-123.5,2.8,2.2,0,0,,8.0,29.970472,1015.1,,TRUE,TRUE,,,,,,,CLR,,,,,,,,VFR,,,,,,,,,,,,METAR,85.0
KCLL 150053Z 32005KT 10SM CLR 07/03 A3039 RMK AO2 SLP290 T00720028,KCLL,2019-01-15T00:53:00Z,30.58,-96.37,7.2,2.8,320,5,,10.0,30.389763,1029.0,,,TRUE,,,,,,,CLR,,,,,,,,VFR,,,,,,,,,,,,METAR,96.0
KCHO 150053Z 22003KT 10SM OVC085 01/M04 A3019 RMK AO2 SLP225 T00111044,KCHO,2019-01-15T00:53:00Z,38.13,-78.45,1.1,-4.4,220,3,,10.0,30.188976,1022.5,,,TRUE,,,,,,,OVC,8500,,,,,,,VFR,,,,,,,,,,,,METAR,192.0
KCHA 150053Z 33008KT 10SM OVC022 04/M01 A3029 RMK AO2 SLP258 T00441006,KCHA,2019-01-15T00:53:00Z,35.03,-85.2,4.4,-0.6,330,8,,10.0,30.28937,1025.8,,,TRUE,,,,,,,OVC,2200,,,,,,,MVFR,,,,,,,,,,,,METAR,210.0
KCGI 150053Z AUTO 00000KT 9SM OVC023 02/M02 A3037 RMK AO2 SLP285 T00171017,KCGI,2019-01-15T00:53:00Z,37.23,-89.58,1.7,-1.7,0,0,,9.0,30.369095,1028.5,,TRUE,TRUE,,,,,,,OVC,2300,,,,,,,MVFR,,,,,,,,,,,,METAR,102.0
KCEZ 150053Z AUTO 07005KT 10SM OVC060 01/M03 A3024 RMK AO2 SLP253 T00061028,KCEZ,2019-01-15T00:53:00Z,37.3,-108.63,0.6,-2.8,70,5,,10.0,30.239174,1025.3,,TRUE,TRUE,,,,,,,OVC,6000,,,,,,,VFR,,,,,,,,,,,,METAR,1797.0
KCEW 150053Z AUTO 01004KT 10SM OVC016 06/03 A3031 RMK AO2 SLP262 T00610028,KCEW,2019-01-15T00:53:00Z,30.78,-86.52,6.1,2.8,10,4,,10.0,30.31004,1026.2,,TRUE,TRUE,,,,,,,OVC,1600,,,,,,,MVFR,,,,,,,,,,,,METAR,55.0
KCDW 150053Z 00000KT 10SM CLR M04/M11 A3015 RMK AO2 SLP219 T10441106,KCDW,2019-01-15T00:53:00Z,40.88,-74.28,-4.4,-10.6,0,0,,10.0,30.15059,1021.9,,,TRUE,,,,,,,CLR,,,,,,,,VFR,,,,,,,,,,,,METAR,64.0
KCDS 150053Z AUTO 16009KT 10SM CLR 08/02 A3028 RMK AO2 SLP259 T00780022,KCDS,2019-01-15T00:53:00Z,34.43,-100.28,7.8,2.2,160,9,,10.0,30.280512,1025.9,,TRUE,TRUE,,,,,,,CLR,,,,,,,,VFR,,,,,,,,,,,,METAR,594.0
KP68 150053Z AUTO VRB04KT 01/M05 A3004 RMK AO1 SLP196 T00111050,KP68,2019-01-15T00:53:00Z,39.6,-116.0,1.1,-5.0,0,4,,,30.041338,1019.6,,TRUE,TRUE,,,,,,,,,,,,,,,,,,,,,,,,,,,SPECI,1809.0
KMWT 150053Z AUTO 00000KT 10SM OVC018 04/M01 A3036 RMK AO2 SLP289 T00391006,KMWT,2019-01-15T00:53:00Z,34.55,-93.58,3.9,-0.6,0,0,,10.0,30.360237,1028.9,,TRUE,TRUE,,,,,,,OVC,1800,,,,,,,MVFR,,,,,,,,,,,,SPECI,214.0
MMMT 150053Z 36010KT 7SM SCT130 25/19 A3007 RMK 8/030,MMMT,2019-01-15T00:53:00Z,18.1,-94.57,25.0,19.0,360,10,,7.0,30.070866,,,,,,,,,,,SCT,13000,,,,,,,VFR,,,,,,,,,,,,METAR,40.0
KDCU 150053Z AUTO 35005KT 10SM OVC027 03/00 A3033 RMK AO2 SLP274 T00330000,KDCU,2019-01-15T00:53:00Z,34.65,-86.95,3.3,0.0,350,5,,10.0,30.33071,1027.4,,TRUE,TRUE,,,,,,,OVC,2700,,,,,,,MVFR,,,,,,,,,,,,METAR,176.0
KIXD 150053Z 22009KT 5SM BR OVC003 M02/M02 A3032 RMK AO2 SLP279 T10171017,KIXD,2019-01-15T00:53:00Z,38.82,-94.88,-1.7,-1.7,220,9,,5.0,30.318897,1027.9,,,TRUE,,,,,,BR,OVC,300,,,,,,,LIFR,,,,,,,,,,,,METAR,342.0
KORL 150053Z 01005KT 10SM CLR 13/08 A3018 RMK AO2 SLP225 T01280078,KORL,2019-01-15T00:53:00Z,28.55,-81.33,12.8,7.8,10,5,,10.0,30.180119,1022.5,,,TRUE,,,,,,,CLR,,,,,,,,VFR,,,,,,,,,,,,METAR,37.0
KJER 150053Z AUTO 06018G21KT 10SM CLR M02/M07 A3016 RMK AO2 SLP251 T10171067,KJER,2019-01-15T00:53:00Z,42.72,-114.45,-1.7,-6.7,60,18,21,10.0,30.159449,1025.1,,TRUE,TRUE,,,,,,,CLR,,,,,,,,VFR,,,,,,,,,,,,METAR,1222.0
KJEF 150053Z 23008KT 10SM OVC009 M01/M03 A3036 RMK AO2 SLP276 T10061028,KJEF,2019-01-15T00:53:00Z,38.6,-92.15,-0.6,-2.8,230,8,,10.0,30.360237,1027.6,,,TRUE,,,,,,,OVC,900,,,,,,,IFR,,,,,,,,,,,,METAR,168.0
KJBR 150053Z AUTO 00000KT 10SM OVC026 04/01 A3038 RMK AO2 SLP287 T00390006,KJBR,2019-01-15T00:53:00Z,35.83,-90.65,3.9,0.6,0,0,,10.0,30.380905,1028.7,,TRUE,TRUE,,,,,,,OVC,2600,,,,,,,MVFR,,,,,,,,,,,,METAR,79.0
KMYV 150053Z AUTO 00000KT 10SM OVC070 11/07 A2991 RMK AO2 RAE42 SLP131 P0000 T01060072,KMYV,2019-01-15T00:53:00Z,39.1,-121.57,10.6,7.2,0,0,,10.0,29.911417,1013.1,,TRUE,TRUE,,,,,,,OVC,7000,,,,,,,VFR,,,,,,0.005,,,,,,METAR,21.0
KNEW 150053Z 36011KT 9SM OVC018 07/02 A3036 RMK AO2 SLP274 T00670022,KNEW,2019-01-15T00:53:00Z,30.05,-90.03,6.7,2.2,360,11,,9.0,30.360237,1027.4,,,TRUE,,,,,,,OVC,1800,,,,,,,MVFR,,,,,,,,,,,,SPECI,3.0
KPSC 150053Z 32007KT 10SM OVC018 01/M02 A3028 RMK AO2 SLP256 T00061017,KPSC,2019-01-15T00:53:00Z,46.27,-119.12,0.6,-1.7,320,7,,10.0,30.280512,1025.6,,,TRUE,,,,,,,OVC,1800,,,,,,,MVFR,,,,,,,,,,,,METAR,121.0
KPRC 150053Z 15010KT 10SM SCT050 BKN085 08/03 A3012 RMK AO2 SLP182 T00780028,KPRC,2019-01-15T00:53:00Z,34.65,-112.42,7.8,2.8,150,10,,10.0,30.121063,1018.2,,,TRUE,,,,,,,SCT,5000,BKN,8500,,,,,VFR,,,,,,,,,,,,METAR,1524.0
PAGK 150053Z AUTO 00000KT 10SM CLR M21/M23 A3008 RMK AO2 SLP258 T12061228 TSNO,PAGK,2019-01-15T00:53:00Z,62.15,-145.45,-20.6,-22.8,0,0,,10.0,30.079725,1025.8,,TRUE,TRUE,,,TRUE,,,,CLR,,,,,,,,VFR,,,,,,,,,,,,METAR,481.0
K6R6 150053Z AUTO 09003KT 07/04 A3030 RMK AO1 SLP256 T00720039,K6R6,2019-01-15T00:53:00Z,30.05,-102.22,7.2,3.9,90,3,,,30.301182,1025.6,,TRUE,TRUE,,,,,,,,,,,,,,,,,,,,,,,,,,,SPECI,701.0
KRIL 150053Z AUTO 13003KT 10SM CLR M04/M10 A3028 RMK AO2 SLP314 T10391100,KRIL,2019-01-15T00:53:00Z,39.53,-107.73,-3.9,-10.0,130,3,,10.0,30.280512,1031.4,,TRUE,TRUE,,,,,,,CLR,,,,,,,,VFR,,,,,,,,,,,,METAR,1678.0
KRHI 150053Z AUTO 28004KT 5SM BR BKN007 OVC012 M02/M04 A3013 RMK AO2 CIG 006V010 SLP226 I1000 T10171039,KRHI,2019-01-15T00:53:00Z,45.63,-89.48,-1.7,-3.9,280,4,,5.0,30.129921,1022.6,,TRUE,TRUE,,,,,,BR,BKN,700,OVC,1200,,,,,IFR,,,,,,,,,,,,METAR,485.0
KRBD 150053Z 01003KT 10SM CLR 04/00 A3037 RMK AO2 SLP288 T00440000 $,KRBD,2019-01-15T00:53:00Z,32.68,-96.87,4.4,0.0,10,3,,10.0,30.369095,1028.8,,,TRUE,TRUE,,,,,,CLR,,,,,,,,VFR,,,,,,,,,,,,METAR,203.0
KTVC 150053Z 25005KT 9SM OVC018 00/M04 A3016 RMK AO2 SLP222 T00001039,KTVC,2019-01-15T00:53:00Z,44.73,-85.57,0.0,-3.9,250,5,,9.0,30.159449,1022.2,,,TRUE,,,,,,,OVC,1800,,,,,,,MVFR,,,,,,,,,,,,METAR,190.0
KTUS 150053Z 07004KT 10SM FEW080 18/06 A3009 RMK AO2 SLP168 T01780056,KTUS,2019-01-15T00:53:00Z,32.13,-110.95,17.8,5.6,70,4,,10.0,30.088583,1016.8,,,TRUE,,,,,,,FEW,8000,,,,,,,VFR,,,,,,,,,,,,METAR,776.0
KTUP 150053Z 35005KT 10SM OVC020 04/01 A3036 RMK AO2 SLP281 T00440011 $,KTUP,2019-01-15T00:53:00Z,34.27,-88.77,4.4,1.1,350,5,,10.0,30.360237,1028.1,,,TRUE,TRUE,,,,,,OVC,2000,,,,,,,MVFR,,,,,,,,,,,,METAR,105.0
KTUL 150053Z 14004KT 10SM FEW017 02/M02 A3035 RMK AO2 SLP283 T00171017,KTUL,2019-01-15T00:53:00Z,36.2,-95.88,1.7,-1.7,140,4,,10.0,30.351377,1028.3,,,TRUE,,,,,,,FEW,1700,,,,,,,VFR,,,,,,,,,,,,METAR,207.0
KTTN 150053Z 30003KT 10SM CLR M02/M12 A3014 RMK AO2 SLP205 T10221117,KTTN,2019-01-15T00:53:00Z,40.28,-74.82,-2.2,-11.7,300,3,,10.0,30.138779,1020.5,,,TRUE,,,,,,,CLR,,,,,,,,VFR,,,,,,,,,,,,METAR,59.0
KTTD 150053Z 09021G33KT 10SM CLR 03/M03 A3001 RMK AO2 PK WND 09033/0051 SLP163 T00331028,KTTD,2019-01-15T00:53:00Z,45.55,-122.42,3.3,-2.8,90,21,33,10.0,30.008858,1016.3,,,TRUE,,,,,,,CLR,,,,,,,,VFR,,,,,,,,,,,,METAR,14.0
KTRL 150053Z AUTO 09003KT 10SM CLR 04/00 A3040 RMK AO2 SLP296 T00390000,KTRL,2019-01-15T00:53:00Z,32.72,-96.27,3.9,0.0,90,3,,10.0,30.398623,1029.6,,TRUE,TRUE,,,,,,,CLR,,,,,,,,VFR,,,,,,,,,,,,METAR,145.0
KTRI 150053Z 33003KT 10SM -DZ OVC014 02/01 A3022 RMK AO2 DZB30SNE30 SLP230 P0000 T00220011,KTRI,2019-01-15T00:53:00Z,36.48,-82.4,2.2,1.1,330,3,,10.0,30.221457,1023.0,,,TRUE,,,,,,-DZ,OVC,1400,,,,,,,MVFR,,,,,,0.005,,,,,,METAR,474.0
KTPA 150053Z 32005KT 10SM CLR 12/08 A3019 RMK AO2 SLP223 T01220078,KTPA,2019-01-15T00:53:00Z,27.97,-82.53,12.2,7.8,320,5,,10.0,30.188976,1022.3,,,TRUE,,,,,,,CLR,,,,,,,,VFR,,,,,,,,,,,,METAR,11.0
KTOR 150053Z AUTO 27007KT 10SM CLR 01/M12 A3014 RMK AO2 SLP249 T00061122,KTOR,2019-01-15T00:53:00Z,42.07,-104.15,0.6,-12.2,270,7,,10.0,30.138779,1024.9,,TRUE,TRUE,,,,,,,CLR,,,,,,,,VFR,,,,,,,,,,,,SPECI,1277.0
KTOP 150053Z 22007KT 8SM OVC005 00/M02 A3032 RMK AO2 SLP276 T00001017,KTOP,2019-01-15T00:53:00Z,39.07,-95.63,0.0,-1.7,220,7,,8.0,30.318897,1027.6,,,TRUE,,,,,,,OVC,500,,,,,,,IFR,,,,,,,,,,,,METAR,268.0
KTOI 150053Z AUTO 29003KT 10SM FEW021 OVC027 06/03 A3028 RMK AO2 SLP254 T00610033,KTOI,2019-01-15T00:53:00Z,31.85,-86.02,6.1,3.3,290,3,,10.0,30.280512,1025.4,,TRUE,TRUE,,,,,,,FEW,2100,OVC,2700,,,,,MVFR,,,,,,,,,,,,METAR,118.0
KTMB 150053Z 36005KT 10SM FEW026 19/14 A3011 RMK AO2 SLP197 T01940139,KTMB,2019-01-15T00:53:00Z,25.65,-80.43,19.4,13.9,360,5,,10.0,30.109253,1019.7,,,TRUE,,,,,,,FEW,2600,,,,,,,VFR,,,,,,,,,,,,METAR,2.0
KTLH 150053Z 35008KT 10SM OVC020 09/04 A3025 RMK AO2 SLP242 T00890044,KTLH,2019-01-15T00:53:00Z,30.4,-84.35,8.9,4.4,350,8,,10.0,30.250984,1024.2,,,TRUE,,,,,,,OVC,2000,,,,,,,MVFR,,,,,,,,,,,,METAR,19.0
KTIW 150053Z 00000KT M1/4SM FG VV002 03/03 A2997 RMK AO2 SLP152 T00330033,KTIW,2019-01-15T00:53:00Z,47.27,-122.58,3.3,3.3,0,0,,0.25,29.970472,1015.2,,,TRUE,,,,,,FG,OVX,0,,,,,,,LIFR,,,,,,,,,,,200,METAR,89.0
KTHV 150053Z AUTO 00000KT 10SM CLR M12/M13 A3018 RMK AO2 SLP231 T11171133,KTHV,2019-01-15T00:53:00Z,39.92,-76.88,-11.7,-13.3,0,0,,10.0,30.180119,1023.1,,TRUE,TRUE,,,,,,,CLR,,,,,,,,VFR,,,,,,,,,,,,METAR,144.0
PAPB 150053Z AUTO 14017G22KT 10SM FEW016 SCT023 BKN100 02/02 A2882 RMK AO2 SLP748 T00220017 TSNO,PAPB,2019-01-15T00:53:00Z,56.58,-169.67,2.2,1.7,140,17,22,10.0,28.818897,974.8,,TRUE,TRUE,,,TRUE,,,,FEW,1600,SCT,2300,BKN,10000,,,VFR,,,,,,,,,,,,METAR,35.0
PAKW 150053Z AUTO 04007KT 10SM OVC080 07/07 A2997 RMK AO2 SLP149 T00720067 TSNO,PAKW,2019-01-15T00:53:00Z,55.58,-133.07,7.2,6.7,40,7,,10.0,29.970472,1014.9,,TRUE,TRUE,,,TRUE,,,,OVC,8000,,,,,,,VFR,,,,,,,,,,,,METAR,15.0
PABI 150053Z 11020G26KT 10SM BKN200 M13/M17 A3001 RMK AO2 PK WND 12027/0014 SLP206 CIG THN T11281167,PABI,2019-01-15T00:53:00Z,64.0,-145.72,-12.8,-16.7,110,20,26,10.0,30.008858,1020.6,,,TRUE,,,,,,,BKN,20000,,,,,,,VFR,,,,,,,,,,,,METAR,386.0
PABE 150053Z 10017G23KT 10SM OVC095 04/M01 A2937 RMK AO2 PK WND 09027/0010 SLP946 T00391011,PABE,2019-01-15T00:53:00Z,60.78,-161.83,3.9,-1.1,100,17,23,10.0,29.371063,994.6,,,TRUE,,,,,,,OVC,9500,,,,,,,VFR,,,,,,,,,,,,METAR,41.0
PAAQ 150053Z 34013KT 10SM FEW095 SCT200 M01/M08 A2994 RMK AO2 SLP143 T10111078,PAAQ,2019-01-15T00:53:00Z,61.6,-149.08,-1.1,-7.8,340,13,,10.0,29.940945,1014.3,,,TRUE,,,,,,,FEW,9500,SCT,20000,,,,,VFR,,,,,,,,,,,,METAR,73.0
KZZV 150053Z AUTO 27006KT 9SM OVC016 M03/M06 A3027 RMK AO2 SLP262 T10281061,KZZV,2019-01-15T00:53:00Z,39.95,-81.9,-2.8,-6.1,270,6,,9.0,30.268702,1026.2,,TRUE,TRUE,,,,,,,OVC,1600,,,,,,,MVFR,,,,,,,,,,,,METAR,268.0
KYKM 150053Z 02008KT 10SM OVC016 M01/M04 A3024 RMK AO2 SLP252 T10061044,KYKM,2019-01-15T00:53:00Z,46.57,-120.53,-0.6,-4.4,20,8,,10.0,30.239174,1025.2,,,TRUE,,,,,,,OVC,1600,,,,,,,MVFR,,,,,,,,,,,,METAR,324.0
KYIP 150053Z 23007KT 10SM CLR M04/M07 A3024 RMK AO2 SLP248 T10391072,KYIP,2019-01-15T00:53:00Z,42.23,-83.53,-3.9,-7.2,230,7,,10.0,30.239174,1024.8,,,TRUE,,,,,,,CLR,,,,,,,,VFR,,,,,,,,,,,,METAR,215.0
KXNA 150053Z 21005KT 10SM OVC008 01/M02 A3035 RMK AO2 SLP287 T00111022,KXNA,2019-01-15T00:53:00Z,36.28,-94.3,1.1,-2.2,210,5,,10.0,30.351377,1028.7,,,TRUE,,,,,,,OVC,800,,,,,,,IFR,,,,,,,,,,,,METAR,392.0
KWVI 150053Z AUTO 03003KT 10SM FEW046 OVC060 12/11 A2986 RMK AO2 RAE19 SLP113 P0001 T01170106,KWVI,2019-01-15T00:53:00Z,36.93,-121.78,11.7,10.6,30,3,,10.0,29.861221,1011.3,,TRUE,TRUE,,,,,,,FEW,4600,OVC,6000,,,,,VFR,,,,,,0.01,,,,,,METAR,43.0
KWST 150053Z AUTO 00000KT 10SM CLR M04/M08 A3011 RMK AO2 SLP197 T10441078,KWST,2019-01-15T00:53:00Z,41.35,-71.8,-4.4,-7.8,0,0,,10.0,30.109253,1019.7,,TRUE,TRUE,,,,,,,CLR,,,,,,,,VFR,,,,,,,,,,,,SPECI,21.0
KWRL 150053Z AUTO 18011KT 10SM CLR M03/M09 A3012 RMK AO2 SLP257 T10281094,KWRL,2019-01-15T00:53:00Z,43.97,-107.95,-2.8,-9.4,180,11,,10.0,30.121063,1025.7,,TRUE,TRUE,,,,,,,CLR,,,,,,,,VFR,,,,,,,,,,,,METAR,1271.0
KVUO 150053Z AUTO VRB05G15KT 10SM CLR 05/M04 A2999 RMK AO2 SLP156 T00501044,KVUO,2019-01-15T00:53:00Z,45.62,-122.65,5.0,-4.4,0,5,15,10.0,29.991142,1015.6,,TRUE,TRUE,,,,,,,CLR,,,,,,,,VFR,,,,,,,,,,,,METAR,8.0
KVRB 150053Z 01005KT 10SM CLR 14/11 A3015 RMK AO2 SLP207 T01440111,KVRB,2019-01-15T00:53:00Z,27.65,-80.42,14.4,11.1,10,5,,10.0,30.15059,1020.7,,,TRUE,,,,,,,CLR,,,,,,,,VFR,,,,,,,,,,,,METAR,10.0
KVPC 150053Z AUTO VRB06KT 10SM OVC022 04/01 A3028 RMK AO2 SLP251 T00440006,KVPC,2019-01-15T00:53:00Z,34.13,-84.85,4.4,0.6,0,6,,10.0,30.280512,1025.1,,TRUE,TRUE,,,,,,,OVC,2200,,,,,,,MVFR,,,,,,,,,,,,METAR,222.0
KVLD 150053Z 00000KT 10SM OVC020 08/05 A3024 RMK AO2 SLP248 T00830050,KVLD,2019-01-15T00:53:00Z,30.78,-83.27,8.3,5.0,0,0,,10.0,30.239174,1024.8,,,TRUE,,,,,,,OVC,2000,,,,,,,MVFR,,,,,,,,,,,,METAR,62.0
KVIH 150053Z AUTO 24006KT 10SM OVC007 M01/M03 A3032 RMK AO2 SLP281 T10111033,KVIH,2019-01-15T00:53:00Z,38.13,-91.77,-1.1,-3.3,240,6,,10.0,30.318897,1028.1,,TRUE,TRUE,,,,,,,OVC,700,,,,,,,IFR,,,,,,,,,,,,METAR,333.0
KVGT 150053Z 24007KT 10SM -RA BKN049 BKN060 OVC075 11/02 A3003 RMK AO2 RAE2354B53 SLP190 P0000 T01110017,KVGT,2019-01-15T00:53:00Z,36.22,-115.2,11.1,1.7,240,7,,10.0,30.029528,1019.0,,,TRUE,,,,,,-RA,BKN,4900,BKN,6000,OVC,7500,,,VFR,,,,,,0.005,,,,,,METAR,671.0
KVEL 150053Z AUTO 00000KT 10SM CLR M09/M13 A3037 RMK AO2 SLP345 T10941133,KVEL,2019-01-15T00:53:00Z,40.45,-109.52,-9.4,-13.3,0,0,,10.0,30.369095,1034.5,,TRUE,TRUE,,,,,,,CLR,,,,,,,,VFR,,,,,,,,,,,,METAR,1604.0
KVCB 150053Z AUTO 34006KT 6SM -RA BR OVC050 09/08 A2991 RMK AO2 SLP127 P0002 T00890078,KVCB,2019-01-15T00:53:00Z,38.38,-121.95,8.9,7.8,340,6,,6.0,29.911417,1012.7,,TRUE,TRUE,,,,,,-RA BR,OVC,5000,,,,,,,VFR,,,,,,0.02,,,,,,METAR,33.0
KUUU 150053Z AUTO 00000KT 10SM CLR M06/M08 A3009 RMK AO2 SLP192 T10561078,KUUU,2019-01-15T00:53:00Z,41.53,-71.28,-5.6,-7.8,0,0,,10.0,30.088583,1019.2,,TRUE,TRUE,,,,,,,CLR,,,,,,,,VFR,,,,,,,,,,,,METAR,51.0
KUTS 150053Z AUTO 00000KT 10SM CLR 04/02 A3038 RMK AO2 SLP290 T00440017,KUTS,2019-01-15T00:53:00Z,30.75,-95.58,4.4,1.7,0,0,,10.0,30.380905,1029.0,,TRUE,TRUE,,,,,,,CLR,,,,,,,,VFR,,,,,,,,,,,,METAR,104.0
KUNO 150053Z AUTO 25005KT 10SM OVC012 01/M02 A3034 RMK AO2 SLP282 T00061022,KUNO,2019-01-15T00:53:00Z,36.88,-91.9,0.6,-2.2,250,5,,10.0,30.339567,1028.2,,TRUE,TRUE,,,,,,,OVC,1200,,,,,,,MVFR,,,,,,,,,,,,METAR,372.0
KUIL 150053Z AUTO 06003KT 10SM CLR 07/03 A2991 RMK AO2 SLP128 T00720033,KUIL,2019-01-15T00:53:00Z,47.93,-124.55,7.2,3.3,60,3,,10.0,29.911417,1012.8,,TRUE,TRUE,,,,,,,CLR,,,,,,,,VFR,,,,,,,,,,,,METAR,54.0
KPOF 150053Z AUTO 00000KT 9SM OVC027 03/01 A3036 RMK AO2 SLP288 T00280006,KPOF,2019-01-15T00:53:00Z,36.77,-90.32,2.8,0.6,0,0,,9.0,30.360237,1028.8,,TRUE,TRUE,,,,,,,OVC,2700,,,,,,,MVFR,,,,,,,,,,,,METAR,99.0
KPNS 150053Z 36008KT 10SM OVC015 07/02 A3030 RMK AO2 SLP265 T00670022,KPNS,2019-01-15T00:53:00Z,30.48,-87.18,6.7,2.2,360,8,,10.0,30.301182,1026.5,,,TRUE,,,,,,,OVC,1500,,,,,,,MVFR,,,,,,,,,,,,METAR,38.0
KPNC 150053Z AUTO 13007KT 9SM CLR 02/M02 A3032 RMK AO2 SLP273 T00171017,KPNC,2019-01-15T00:53:00Z,36.73,-97.1,1.7,-1.7,130,7,,9.0,30.318897,1027.3,,TRUE,TRUE,,,,,,,CLR,,,,,,,,VFR,,,,,,,,,,,,METAR,308.0
KPMP 150053Z 01005KT 9SM CLR 19/12 A3011 RMK AO2 SLP198 T01890117,KPMP,2019-01-15T00:53:00Z,26.25,-80.12,18.9,11.7,10,5,,9.0,30.109253,1019.8,,,TRUE,,,,,,,CLR,,,,,,,,VFR,,,,,,,,,,,,METAR,6.0
KPKB 150053Z 33003KT 10SM OVC017 M01/M05 A3028 RMK AO2 SLP264 T10111050,KPKB,2019-01-15T00:53:00Z,39.35,-81.42,-1.1,-5.0,330,3,,10.0,30.280512,1026.4,,,TRUE,,,,,,,OVC,1700,,,,,,,MVFR,,,,,,,,,,,,METAR,262.0
KPIL 150053Z AUTO 02011KT 7SM OVC020 15/13 A3030 RMK AO2 SLP261 T01500133,KPIL,2019-01-15T00:53:00Z,26.17,-97.33,15.0,13.3,20,11,,7.0,30.301182,1026.1,,TRUE,TRUE,,,,,,,OVC,2000,,,,,,,MVFR,,,,,,,,,,,,METAR,5.0
KPIH 150053Z 08006KT 10SM CLR M07/M12 A3023 RMK AO2 SLP296 T10721117 $,KPIH,2019-01-15T00:53:00Z,42.92,-112.57,-7.2,-11.7,80,6,,10.0,30.230314,1029.6,,,TRUE,TRUE,,,,,,CLR,,,,,,,,VFR,,,,,,,,,,,,METAR,1359.0
KPIE 150053Z 34009KT 10SM CLR 12/09 A3019 RMK AO2 SLP222 T01220089 $,KPIE,2019-01-15T00:53:00Z,27.92,-82.68,12.2,8.9,340,9,,10.0,30.188976,1022.2,,,TRUE,TRUE,,,,,,CLR,,,,,,,,VFR,,,,,,,,,,,,METAR,4.0
KPGD 150053Z 33011KT 10SM CLR 15/11 A3017 RMK AO2 SLP217 T01500106,KPGD,2019-01-15T00:53:00Z,26.92,-82.0,15.0,10.6,330,11,,10.0,30.171259,1021.7,,,TRUE,,,,,,,CLR,,,,,,,,VFR,,,,,,,,,,,,METAR,7.0
KPGA 150053Z AUTO 00000KT 10SM OVC040 06/M01 A3022 RMK AO2 SLP233 T00561011 TSNO,KPGA,2019-01-15T00:53:00Z,36.92,-111.45,5.6,-1.1,0,0,,10.0,30.221457,1023.3,,TRUE,TRUE,,,TRUE,,,,OVC,4000,,,,,,,VFR,,,,,,,,,,,,METAR,1307.0
KPEO 150053Z AUTO 00000KT 10SM CLR M11/M12 A3017 RMK AO2 SLP238 T11061122,KPEO,2019-01-15T00:53:00Z,42.65,-77.05,-10.6,-12.2,0,0,,10.0,30.171259,1023.8,,TRUE,TRUE,,,,,,,CLR,,,,,,,,VFR,,,,,,,,,,,,METAR,256.0
KPDX 150053Z 10027G34KT 10SM FEW040 05/M04 A2998 RMK AO2 PK WND 10034/0053 SLP151 T00501039,KPDX,2019-01-15T00:53:00Z,45.6,-122.62,5.0,-3.9,100,27,34,10.0,29.97933,1015.1,,,TRUE,,,,,,,FEW,4000,,,,,,,VFR,,,,,,,,,,,,METAR,7.0
KPDT 150053Z AUTO 04008KT 10SM OVC015 M01/M04 A3019 RMK AO2 SLP231 T10111039,KPDT,2019-01-15T00:53:00Z,45.7,-118.83,-1.1,-3.9,40,8,,10.0,30.188976,1023.1,,TRUE,TRUE,,,,,,,OVC,1500,,,,,,,MVFR,,,,,,,,,,,,METAR,462.0
KPBF 150053Z AUTO 00000KT 10SM OVC025 05/M01 A3040 RMK AO2 SLP296 T00501006,KPBF,2019-01-15T00:53:00Z,34.18,-91.93,5.0,-0.6,0,0,,10.0,30.398623,1029.6,,TRUE,TRUE,,,,,,,OVC,2500,,,,,,,MVFR,,,,,,,,,,,,METAR,62.0
KPAH 150053Z 29003KT 10SM OVC029 01/M03 A3036 RMK AO2 SLP284 T00111033,KPAH,2019-01-15T00:53:00Z,37.07,-88.77,1.1,-3.3,290,3,,10.0,30.360237,1028.4,,,TRUE,,,,,,,OVC,2900,,,,,,,MVFR,,,,,,,,,,,,METAR,119.0
KPAE 150053Z 00000KT 10SM CLR 06/M01 A2996 RMK AO2 SLP150 T00561011,KPAE,2019-01-15T00:53:00Z,47.92,-122.28,5.6,-1.1,0,0,,10.0,29.958662,1015.0,,,TRUE,,,,,,,CLR,,,,,,,,VFR,,,,,,,,,,,,METAR,180.0
KOXB 150053Z AUTO 32004KT 10SM CLR M03/M06 A3019 RMK AO2 SLP223 T10281061,KOXB,2019-01-15T00:53:00Z,38.32,-75.12,-2.8,-6.1,320,4,,10.0,30.188976,1022.3,,TRUE,TRUE,,,,,,,CLR,,,,,,,,VFR,,,,,,,,,,,,METAR,3.0
KOWD 150053Z 00000KT 10SM CLR M08/M11 A3010 RMK AO2 SLP194 I1001 T10831106,KOWD,2019-01-15T00:53:00Z,42.18,-71.17,-8.3,-10.6,0,0,,10.0,30.100393,1019.4,,,TRUE,,,,,,,CLR,,,,,,,,VFR,,,,,,,,,,,,METAR,19.0
KOVS 150053Z AUTO 00000KT 3SM BR OVC006 M03/M04 A3026 RMK AO2 SLP260 I1000 T10331044,KOVS,2019-01-15T00:53:00Z,43.15,-90.68,-3.3,-4.4,0,0,,3.0,30.259842,1026.0,,TRUE,TRUE,,,,,,BR,OVC,600,,,,,,,IFR,,,,,,,,,,,,METAR,202.0
KOVE 150053Z AUTO 12003KT 10SM -RA OVC065 11/05 A2993 RMK AO2 SLP138 P0000 T01060050,KOVE,2019-01-15T00:53:00Z,39.5,-121.62,10.6,5.0,120,3,,10.0,29.929134,1013.8,,TRUE,TRUE,,,,,,-RA,OVC,6500,,,,,,,VFR,,,,,,0.005,,,,,,METAR,58.0
KOTM 150053Z AUTO 25007KT 5SM BR OVC006 M02/M03 A3028 RMK AO2 SLP265 T10221033,KOTM,2019-01-15T00:53:00Z,41.1,-92.45,-2.2,-3.3,250,7,,5.0,30.280512,1026.5,,TRUE,TRUE,,,,,,BR,OVC,600,,,,,,,IFR,,,,,,,,,,,,METAR,256.0
KOSU 150053Z 26003KT 8SM CLR M06/M08 A3028 RMK AO2 SLP267 T10611078,KOSU,2019-01-15T00:53:00Z,40.08,-83.08,-6.1,-7.8,260,3,,8.0,30.280512,1026.7,,,TRUE,,,,,,,CLR,,,,,,,,VFR,,,,,,,,,,,,METAR,280.0
KIWI 150053Z AUTO 00000KT 10SM CLR M11/M13 A3011 RMK AO2 SLP198 T11061128,KIWI,2019-01-15T00:53:00Z,43.97,-69.72,-10.6,-12.8,0,0,,10.0,30.109253,1019.8,,TRUE,TRUE,,,,,,,CLR,,,,,,,,VFR,,,,,,,,,,,,METAR,20.0
KITR 150053Z AUTO 28006KT 10SM CLR M01/M11 A3017 RMK AO2 SLP245 T10061106,KITR,2019-01-15T00:53:00Z,39.23,-102.28,-0.6,-10.6,280,6,,10.0,30.171259,1024.5,,TRUE,TRUE,,,,,,,CLR,,,,,,,,VFR,,,,,,,,,,,,METAR,1279.0
KIPL 150053Z AUTO 32006KT 10SM -RA BKN080 OVC090 11/11 A3001 RMK AO2 RAB14 SLP161 P0000 T01060106,KIPL,2019-01-15T00:53:00Z,32.83,-115.58,10.6,10.6,320,6,,10.0,30.008858,1016.1,,TRUE,TRUE,,,,,,-RA,BKN,8000,OVC,9000,,,,,VFR,,,,,,0.005,,,,,,METAR,-17.0
KINK 150053Z AUTO 17004KT 10SM OVC013 05/02 A3029 RMK AO2 SLP259 T00500017,KINK,2019-01-15T00:53:00Z,31.78,-103.2,5.0,1.7,170,4,,10.0,30.28937,1025.9,,TRUE,TRUE,,,,,,,OVC,1300,,,,,,,MVFR,,,,,,,,,,,,SPECI,855.0
KIML 150053Z AUTO 00000KT 10SM CLR M01/M13 A3015 RMK AO2 SLP249 T10061128,KIML,2019-01-15T00:53:00Z,40.52,-101.62,-0.6,-12.8,0,0,,10.0,30.15059,1024.9,,TRUE,TRUE,,,,,,,CLR,,,,,,,,VFR,,,,,,,,,,,,METAR,998.0
KILM 150053Z 35004KT 10SM OVC023 03/M01 A3022 RMK AO2 SLP233 T00331006,KILM,2019-01-15T00:53:00Z,34.27,-77.9,3.3,-0.6,350,4,,10.0,30.221457,1023.3,,,TRUE,,,,,,,OVC,2300,,,,,,,MVFR,,,,,,,,,,,,METAR,9.0
KIDA 150053Z 33004KT 10SM CLR M13/M16 A3024 RMK AO2 SLP330 T11331156,KIDA,2019-01-15T00:53:00Z,43.52,-112.07,-13.3,-15.6,330,4,,10.0,30.239174,1033.0,,,TRUE,,,,,,,CLR,,,,,,,,VFR,,,,,,,,,,,,METAR,1453.0
KICT 150053Z 16004KT 7SM CLR 00/M01 A3029 RMK AO2 SLP271 T00001006 $,KICT,2019-01-15T00:53:00Z,37.65,-97.43,0.0,-0.6,160,4,,7.0,30.28937,1027.1,,,TRUE,TRUE,,,,,,CLR,,,,,,,,VFR,,,,,,,,,,,,METAR,407.0
KICR 150053Z AUTO 03003KT 1/2SM FZFG VV002 M03/M05 A3021 RMK AO2 SLP257 I1000 T10331050,KICR,2019-01-15T00:53:00Z,43.38,-99.85,-3.3,-5.0,30,3,,0.5,30.209646,1025.7,,TRUE,TRUE,,,,,,FZFG,OVX,0,,,,,,,LIFR,,,,,,,,,,,200,METAR,621.0
KIAH 150053Z 35006KT 10SM FEW070 10/04 A3038 RMK AO2 SLP289 T01000039,KIAH,2019-01-15T00:53:00Z,30.0,-95.37,10.0,3.9,350,6,,10.0,30.380905,1028.9,,,TRUE,,,,,,,FEW,7000,,,,,,,VFR,,,,,,,,,,,,METAR,36.0
KIAG 150053Z 24009KT 10SM CLR M04/M07 A3020 RMK AO2 SLP249 T10441072 $,KIAG,2019-01-15T00:53:00Z,43.12,-78.93,-4.4,-7.2,240,9,,10.0,30.200787,1024.9,,,TRUE,TRUE,,,,,,CLR,,,,,,,,VFR,,,,,,,,,,,,METAR,182.0
KHZY 150053Z AUTO 00000KT 10SM OVC018 M07/M08 A3024 RMK AO2 SLP258 T10721083,KHZY,2019-01-15T00:53:00Z,41.78,-80.7,-7.2,-8.3,0,0,,10.0,30.239174,1025.8,,TRUE,TRUE,,,,,,,OVC,1800,,,,,,,MVFR,,,,,,,,,,,,METAR,276.0
KHWO 150053Z 36003KT 10SM CLR 19/13 A3013 RMK AO2 SLP203 T01890128,KHWO,2019-01-15T00:53:00Z,26.0,-80.23,18.9,12.8,360,3,,10.0,30.129921,1020.3,,,TRUE,,,,,,,CLR,,,,,,,,VFR,,,,,,,,,,,,METAR,2.0
KHVR 150053Z AUTO 13003KT 10SM CLR M05/M13 A3002 RMK AO2 SLP207 T10501133,KHVR,2019-01-15T00:53:00Z,48.55,-109.77,-5.0,-13.3,130,3,,10.0,30.02067,1020.7,,TRUE,TRUE,,,,,,,CLR,,,,,,,,VFR,,,,,,,,,,,,METAR,787.0
KHVN 150053Z 31004KT 10SM CLR M01/M12 A3012 RMK AO2 SLP198 T10061122,KHVN,2019-01-15T00:53:00Z,41.27,-72.87,-0.6,-12.2,310,4,,10.0,30.121063,1019.8,,,TRUE,,,,,,,CLR,,,,,,,,VFR,,,,,,,,,,,,METAR,4.0
KHUL 150053Z AUTO 00000KT 10SM CLR M19/M21 A3004 RMK AO2 SLP190 T11891206 TSNO,KHUL,2019-01-15T00:53:00Z,46.12,-67.8,-18.9,-20.6,0,0,,10.0,30.041338,1019.0,,TRUE,TRUE,,,TRUE,,,,CLR,,,,,,,,VFR,,,,,,,,,,,,METAR,150.0
KHUF 150053Z 32004KT 10SM CLR M05/M07 A3034 RMK AO2 SLP283 T10501072,KHUF,2019-01-15T00:53:00Z,39.45,-87.3,-5.0,-7.2,320,4,,10.0,30.339567,1028.3,,,TRUE,,,,,,,CLR,,,,,,,,VFR,,,,,,,,,,,,METAR,179.0
KHTL 150053Z AUTO 25005KT 9SM OVC014 M02/M04 A3015 RMK AO2 SLP227 T10171044,KHTL,2019-01-15T00:53:00Z,44.35,-84.67,-1.7,-4.4,250,5,,9.0,30.15059,1022.7,,TRUE,TRUE,,,,,,,OVC,1400,,,,,,,MVFR,,,,,,,,,,,,METAR,351.0
KHSV 150053Z 33004KT 10SM OVC026 04/01 A3032 RMK AO2 SLP270 T00390006,KHSV,2019-01-15T00:53:00Z,34.65,-86.78,3.9,0.6,330,4,,10.0,30.318897,1027.0,,,TRUE,,,,,,,OVC,2600,,,,,,,MVFR,,,,,,,,,,,,METAR,191.0
KHSI 150053Z AUTO 24005KT 1/4SM FZFG VV002 M01/M01 A3020 RMK AO2 SLP248 T10061011,KHSI,2019-01-15T00:53:00Z,40.6,-98.43,-0.6,-1.1,240,5,,0.25,30.200787,1024.8,,TRUE,TRUE,,,,,,FZFG,OVX,0,,,,,,,LIFR,,,,,,,,,,,200,METAR,591.0
KHRO 150053Z AUTO 25003KT 10SM OVC010 01/M02 A3034 RMK AO2 SLP284 T00111017,KHRO,2019-01-15T00:53:00Z,36.27,-93.15,1.1,-1.7,250,3,,10.0,30.339567,1028.4,,TRUE,TRUE,,,,,,,OVC,1000,,,,,,,MVFR,,,,,,,,,,,,METAR,417.0
KHRI 150053Z AUTO 01005KT 10SM OVC024 01/M02 A3024 RMK AO2 SLP244 T00111022,KHRI,2019-01-15T00:53:00Z,45.83,-119.27,1.1,-2.2,10,5,,10.0,30.239174,1024.4,,TRUE,TRUE,,,,,,,OVC,2400,,,,,,,MVFR,,,,,,,,,,,,METAR,195.0
KHQM 150053Z AUTO 07008KT 9SM CLR 08/03 A2991 RMK AO2 SLP130 T00830028,KHQM,2019-01-15T00:53:00Z,46.97,-123.93,8.3,2.8,70,8,,9.0,29.911417,1013.0,,TRUE,TRUE,,,,,,,CLR,,,,,,,,VFR,,,,,,,,,,,,METAR,7.0
KHOU 150053Z 33004KT 10SM BKN060 12/02 A3037 RMK AO2 SLP289 T01220022,KHOU,2019-01-15T00:53:00Z,29.63,-95.28,12.2,2.2,330,4,,10.0,30.369095,1028.9,,,TRUE,,,,,,,BKN,6000,,,,,,,VFR,,,,,,,,,,,,METAR,36.0
KMLS 150053Z AUTO 16004KT 10SM CLR 01/M05 A3006 RMK AO2 SLP211 T00111050,KMLS,2019-01-15T00:53:00Z,46.43,-105.88,1.1,-5.0,160,4,,10.0,30.059055,1021.1,,TRUE,TRUE,,,,,,,CLR,,,,,,,,VFR,,,,,,,,,,,,METAR,801.0
KMLP 150053Z AUTO 00000KT 10SM CLR 06/M33 A3007 RMK AO2 SLP133 T00561333,KMLP,2019-01-15T00:53:00Z,47.45,-115.67,5.6,-33.3,0,0,,10.0,30.070866,1013.3,,TRUE,TRUE,,,,,,,CLR,,,,,,,,VFR,,,,,,,,,,,,METAR,1837.0
KMLC 150053Z AUTO 00000KT 9SM FEW075 M01/M02 A3039 RMK AO2 SLPNO T10111022,KMLC,2019-01-15T00:53:00Z,34.88,-95.78,-1.1,-2.2,0,0,,9.0,30.389763,,,TRUE,TRUE,,,,,,,FEW,7500,,,,,,,VFR,,,,,,,,,,,,METAR,232.0
KMLB 150053Z 01012KT 10SM CLR 14/09 A3015 RMK AO2 SLP210 T01440094,KMLB,2019-01-15T00:53:00Z,28.1,-80.65,14.4,9.4,10,12,,10.0,30.15059,1021.0,,,TRUE,,,,,,,CLR,,,,,,,,VFR,,,,,,,,,,,,METAR,11.0
KMKO 150053Z AUTO 19004KT 10SM OVC016 02/M01 A3040 RMK AO2 SLP297 T00221006,KMKO,2019-01-15T00:53:00Z,35.65,-95.37,2.2,-0.6,190,4,,10.0,30.398623,1029.7,,TRUE,TRUE,,,,,,,OVC,1600,,,,,,,MVFR,,,,,,,,,,,,METAR,185.0
KMKL 150053Z 33003KT 8SM OVC014 02/M01 A3037 RMK AO2 SLP287 T00171006,KMKL,2019-01-15T00:53:00Z,35.6,-88.92,1.7,-0.6,330,3,,8.0,30.369095,1028.7,,,TRUE,,,,,,,OVC,1400,,,,,,,MVFR,,,,,,,,,,,,METAR,128.0
KMIE 150053Z 25003KT 10SM CLR M06/M09 A3029 RMK AO2 SLP269 T10561094,KMIE,2019-01-15T00:53:00Z,40.23,-85.4,-5.6,-9.4,250,3,,10.0,30.28937,1026.9,,,TRUE,,,,,,,CLR,,,,,,,,VFR,,,,,,,,,,,,METAR,285.0
KMIC 150053Z 33003KT 10SM OVC013 M02/M03 A3022 RMK AO2 SLP245 T10171033,KMIC,2019-01-15T00:53:00Z,45.07,-93.35,-1.7,-3.3,330,3,,10.0,30.221457,1024.5,,,TRUE,,,,,,,OVC,1300,,,,,,,MVFR,,,,,,,,,,,,METAR,265.0
KMIA 150053Z 04004KT 10SM SCT044 BKN250 21/14 A3012 RMK AO2 SLP200 T02060139,KMIA,2019-01-15T00:53:00Z,25.8,-80.28,20.6,13.9,40,4,,10.0,30.121063,1020.0,,,TRUE,,,,,,,SCT,4400,BKN,25000,,,,,VFR,,,,,,,,,,,,METAR,3.0
KMHT 150053Z 33004KT 10SM SCT250 M03/M13 A3008 RMK AO2 SLP208 T10331128,KMHT,2019-01-15T00:53:00Z,42.93,-71.43,-3.3,-12.8,330,4,,10.0,30.079725,1020.8,,,TRUE,,,,,,,SCT,25000,,,,,,,VFR,,,,,,,,,,,,METAR,81.0
KMHE 150053Z AUTO 31006KT 8SM OVC005 M02/M03 A3024 RMK AO2 SLP259 T10221033,KMHE,2019-01-15T00:53:00Z,43.77,-98.02,-2.2,-3.3,310,6,,8.0,30.239174,1025.9,,TRUE,TRUE,,,,,,,OVC,500,,,,,,,IFR,,,,,,,,,,,,METAR,397.0
KMGY 150053Z AUTO 00000KT 8SM CLR M06/M09 A3028 RMK AO2 SLP266 T10561094,KMGY,2019-01-15T00:53:00Z,39.6,-84.23,-5.6,-9.4,0,0,,8.0,30.280512,1026.6,,TRUE,TRUE,,,,,,,CLR,,,,,,,,VFR,,,,,,,,,,,,METAR,289.0
KMGM 150053Z 33010KT 10SM OVC019 07/02 A3031 RMK AO2 SLP263 T00670022,KMGM,2019-01-15T00:53:00Z,32.3,-86.4,6.7,2.2,330,10,,10.0,30.31004,1026.3,,,TRUE,,,,,,,OVC,1900,,,,,,,MVFR,,,,,,,,,,,,METAR,63.0
KMFR 150053Z 12005KT 10SM OVC110 12/M06 A2985 RMK AO2 SLP111 T01171056,KMFR,2019-01-15T00:53:00Z,42.38,-122.87,11.7,-5.6,120,5,,10.0,29.84941,1011.1,,,TRUE,,,,,,,OVC,11000,,,,,,,VFR,,,,,,,,,,,,METAR,396.0
KMFE 150053Z 01007KT 7SM OVC009 11/09 A3036 RMK AO2 SLP279 T01110089,KMFE,2019-01-15T00:53:00Z,26.18,-98.25,11.1,8.9,10,7,,7.0,30.360237,1027.9,,,TRUE,,,,,,,OVC,900,,,,,,,IFR,,,,,,,,,,,,METAR,38.0
KMDW 150053Z 23010KT 8SM OVC014 M03/M06 A3029 RMK AO2 SLP270 T10331061,KMDW,2019-01-15T00:53:00Z,41.78,-87.75,-3.3,-6.1,230,10,,8.0,30.28937,1027.0,,,TRUE,,,,,,,OVC,1400,,,,,,,MVFR,,,,,,,,,,,,METAR,188.0
KMCW 150053Z AUTO 30006KT 9SM OVC006 M02/M02 A3023 RMK AO2 SLP249 I1000 T10171022,KMCW,2019-01-15T00:53:00Z,43.15,-93.33,-1.7,-2.2,300,6,,9.0,30.230314,1024.9,,TRUE,TRUE,,,,,,,OVC,600,,,,,,,IFR,,,,,,,,,,,,METAR,369.0
KMCO 150053Z 35010KT 10SM FEW030 13/08 A3018 RMK AO2 SLP218 T01280078,KMCO,2019-01-15T00:53:00Z,28.42,-81.33,12.8,7.8,350,10,,10.0,30.180119,1021.8,,,TRUE,,,,,,,FEW,3000,,,,,,,VFR,,,,,,,,,,,,METAR,29.0
KMCN 150053Z AUTO 33006KT 10SM OVC034 08/03 A3023 RMK AO2 SLP235 T00830028,KMCN,2019-01-15T00:53:00Z,32.68,-83.65,8.3,2.8,330,6,,10.0,30.230314,1023.5,,TRUE,TRUE,,,,,,,OVC,3400,,,,,,,VFR,,,,,,,,,,,,METAR,109.0
KMCK 150053Z AUTO 21005KT 10SM CLR 01/M01 A3017 RMK AO2 SLP239 T00061011,KMCK,2019-01-15T00:53:00Z,40.2,-100.58,0.6,-1.1,210,5,,10.0,30.171259,1023.9,,TRUE,TRUE,,,,,,,CLR,,,,,,,,VFR,,,,,,,,,,,,METAR,782.0
KMCI 150053Z 23009KT 1/2SM R19R/P6000FT BR OVC002 M02/M03 A3031 RMK AO2 SFC VIS 3 SLP275 T10221033,KMCI,2019-01-15T00:53:00Z,39.3,-94.73,-2.2,-3.3,230,9,,0.5,30.31004,1027.5,,,TRUE,,,,,,BR,OVC,200,,,,,,,LIFR,,,,,,,,,,,,METAR,320.0
KMCE 150053Z AUTO 12011KT 8SM FEW055 BKN070 OVC100 11/09 A2991 RMK AO2 RAB2354E05 SLP128 P0001 T01060089,KMCE,2019-01-15T00:53:00Z,37.28,-120.5,10.6,8.9,120,11,,8.0,29.911417,1012.8,,TRUE,TRUE,,,,,,,FEW,5500,BKN,7000,OVC,10000,,,VFR,,,,,,0.01,,,,,,METAR,47.0
KMCB 150053Z AUTO 02004KT 10SM OVC018 06/01 A3035 RMK AO2 SLP277 T00560006,KMCB,2019-01-15T00:53:00Z,31.18,-90.47,5.6,0.6,20,4,,10.0,30.351377,1027.7,,TRUE,TRUE,,,,,,,OVC,1800,,,,,,,MVFR,,,,,,,,,,,,METAR,124.0
KMBS 150053Z 21007KT 10SM OVC020 M02/M04 A3022 RMK AO2 SLP243 T10171044,KMBS,2019-01-15T00:53:00Z,43.53,-84.08,-1.7,-4.4,210,7,,10.0,30.221457,1024.3,,,TRUE,,,,,,,OVC,2000,,,,,,,MVFR,,,,,,,,,,,,METAR,202.0
KMAI 150053Z AUTO 36010KT 10SM OVC017 07/04 A3027 RMK AO2 SLP248 T00720039,KMAI,2019-01-15T00:53:00Z,30.83,-85.18,7.2,3.9,360,10,,10.0,30.268702,1024.8,,TRUE,TRUE,,,,,,,OVC,1700,,,,,,,MVFR,,,,,,,,,,,,METAR,32.0
KMAF 150053Z 17008KT 10SM OVC016 07/03 A3031 RMK AO2 SLP260 T00670028,KMAF,2019-01-15T00:53:00Z,31.95,-102.2,6.7,2.8,170,8,,10.0,30.31004,1026.0,,,TRUE,,,,,,,OVC,1600,,,,,,,MVFR,,,,,,,,,,,,METAR,874.0
KMAE 150053Z AUTO 10006KT 7SM -RA OVC050 12/08 A2993 RMK AO2 SLP134 P0002 T01220083,KMAE,2019-01-15T00:53:00Z,36.98,-120.12,12.2,8.3,100,6,,7.0,29.929134,1013.4,,TRUE,TRUE,,,,,,-RA,OVC,5000,,,,,,,VFR,,,,,,0.02,,,,,,METAR,77.0
KLXV 150053Z AUTO 04004KT 10SM CLR M08/M16 A3022 RMK AO2 SLP273 T10781161,KLXV,2019-01-15T00:53:00Z,39.23,-106.32,-7.8,-16.1,40,4,,10.0,30.221457,1027.3,,TRUE,TRUE,,,,,,,CLR,,,,,,,,VFR,,,,,,,,,,,,METAR,3028.0
KLWV 150053Z AUTO 30004KT 10SM CLR M02/M06 A3035 RMK AO2 SLP283 T10221061,KLWV,2019-01-15T00:53:00Z,38.77,-87.6,-2.2,-6.1,300,4,,10.0,30.351377,1028.3,,TRUE,TRUE,,,,,,,CLR,,,,,,,,VFR,,,,,,,,,,,,METAR,131.0
KGLH 150053Z AUTO 01005KT 10SM OVC020 04/01 A3039 RMK AO2 SLP300 T00440011,KGLH,2019-01-15T00:53:00Z,33.5,-90.98,4.4,1.1,10,5,,10.0,30.389763,1030.0,,TRUE,TRUE,,,,,,,OVC,2000,,,,,,,MVFR,,,,,,,,,,,,METAR,45.0
KGLD 150053Z AUTO 22005KT 10SM CLR M01/M06 A3015 RMK AO2 SLP238 T10061061,KGLD,2019-01-15T00:53:00Z,39.37,-101.7,-0.6,-6.1,220,5,,10.0,30.15059,1023.8,,TRUE,TRUE,,,,,,,CLR,,,,,,,,VFR,,,,,,,,,,,,METAR,1113.0
KGKY 150053Z 00000KT 10SM FEW060 05/01 A3038 RMK AO2 SLP289 T00500011,KGKY,2019-01-15T00:53:00Z,32.67,-97.1,5.0,1.1,0,0,,10.0,30.380905,1028.9,,,TRUE,,,,,,,FEW,6000,,,,,,,VFR,,,,,,,,,,,,METAR,192.0
KGKJ 150053Z AUTO 32003KT 10SM OVC013 M06/M07 A3020 RMK AO2 SLP250 T10611072 TSNO,KGKJ,2019-01-15T00:53:00Z,41.63,-80.22,-6.1,-7.2,320,3,,10.0,30.200787,1025.0,,TRUE,TRUE,,,TRUE,,,,OVC,1300,,,,,,,MVFR,,,,,,,,,,,,METAR,428.0
KGJT 150053Z 00000KT 10SM CLR M03/M07 A3028 RMK AO2 SLP294 T10331067,KGJT,2019-01-15T00:53:00Z,39.12,-108.52,-3.3,-6.7,0,0,,10.0,30.280512,1029.4,,,TRUE,,,,,,,CLR,,,,,,,,VFR,,,,,,,,,,,,SPECI,1475.0
KGIF 150053Z AUTO 02006KT 10SM CLR 15/10 A3018 RMK AO2 SLPNO T01500100,KGIF,2019-01-15T00:53:00Z,28.07,-81.75,15.0,10.0,20,6,,10.0,30.180119,,,TRUE,TRUE,,,,,,,CLR,,,,,,,,VFR,,,,,,,,,,,,METAR,43.0
KGGW 150053Z AUTO 12005KT 10SM CLR M04/M07 A3003 RMK AO2 SLP209 T10441067,KGGW,2019-01-15T00:53:00Z,48.22,-106.62,-4.4,-6.7,120,5,,10.0,30.029528,1020.9,,TRUE,TRUE,,,,,,,CLR,,,,,,,,VFR,,,,,,,,,,,,METAR,694.0
KGGG 150053Z 02003KT 10SM OVC017 04/01 A3040 RMK AO2 SLP299 T00390011,KGGG,2019-01-15T00:53:00Z,32.38,-94.72,3.9,1.1,20,3,,10.0,30.398623,1029.9,,,TRUE,,,,,,,OVC,1700,,,,,,,MVFR,,,,,,,,,,,,METAR,107.0
KGFK 150053Z 00000KT 7SM OVC005 M08/M09 A3025 RMK AO2 SLP262 T10831094,KGFK,2019-01-15T00:53:00Z,47.95,-97.18,-8.3,-9.4,0,0,,7.0,30.250984,1026.2,,,TRUE,,,,,,,OVC,500,,,,,,,IFR,,,,,,,,,,,,METAR,258.0
KGEZ 150053Z AUTO 21003KT 8SM CLR M08/M11 A3030 RMK AO2 SLP272 T10831111,KGEZ,2019-01-15T00:53:00Z,39.58,-85.8,-8.3,-11.1,210,3,,8.0,30.301182,1027.2,,TRUE,TRUE,,,,,,,CLR,,,,,,,,VFR,,,,,,,,,,,,METAR,245.0
KGEY 150053Z AUTO 00000KT 10SM CLR M04/M08 A3012 RMK AO2 SLP259 T10391078,KGEY,2019-01-15T00:53:00Z,44.52,-108.08,-3.9,-7.8,0,0,,10.0,30.121063,1025.9,,TRUE,TRUE,,,,,,,CLR,,,,,,,,VFR,,,,,,,,,,,,METAR,1191.0
KGEG 150053Z 01006KT 10SM FEW010 FEW250 M02/M05 A3016 RMK AO2 SLP240 T10171050,KGEG,2019-01-15T00:53:00Z,47.62,-117.53,-1.7,-5.0,10,6,,10.0,30.159449,1024.0,,,TRUE,,,,,,,FEW,1000,FEW,25000,,,,,VFR,,,,,,,,,,,,METAR,735.0
KGCC 150053Z AUTO 20010KT 10SM CLR 01/M07 A3008 RMK AO2 SLP218 T00111072,KGCC,2019-01-15T00:53:00Z,44.33,-105.55,1.1,-7.2,200,10,,10.0,30.079725,1021.8,,TRUE,TRUE,,,,,,,CLR,,,,,,,,VFR,,,,,,,,,,,,METAR,1320.0
KGAG 150053Z AUTO 17009KT 9SM CLR 06/00 A3022 RMK AO2 SLP245 T00560000 TSNO,KGAG,2019-01-15T00:53:00Z,36.3,-99.77,5.6,0.0,170,9,,9.0,30.221457,1024.5,,TRUE,TRUE,,,TRUE,,,,CLR,,,,,,,,VFR,,,,,,,,,,,,METAR,668.0
KFYV 150053Z 22003KT 10SM OVC011 01/M02 A3035 RMK AO2 SLP286 T00111017,KFYV,2019-01-15T00:53:00Z,36.02,-94.17,1.1,-1.7,220,3,,10.0,30.351377,1028.6,,,TRUE,,,,,,,OVC,1100,,,,,,,MVFR,,,,,,,,,,,,METAR,379.0
KFXE 150053Z 00000KT 10SM FU CLR 19/13 A3011 RMK AO2 SLP199 T01890128,KFXE,2019-01-15T00:53:00Z,26.2,-80.18,18.9,12.8,0,0,,10.0,30.109253,1019.9,,,TRUE,,,,,,FU,CLR,,,,,,,,VFR,,,,,,,,,,,,METAR,6.0
KFWN 150053Z AUTO 00000KT 10SM CLR M08/M11 A3013 RMK AO2 SLP211 T10781106,KFWN,2019-01-15T00:53:00Z,41.2,-74.63,-7.8,-10.6,0,0,,10.0,30.129921,1021.1,,TRUE,TRUE,,,,,,,CLR,,,,,,,,VFR,,,,,,,,,,,,METAR,133.0
KFVE 150053Z AUTO 10003KT 10SM CLR M12/M17 A2998 RMK AO2 SLP173 T11171167,KFVE,2019-01-15T00:53:00Z,47.28,-68.3,-11.7,-16.7,100,3,,10.0,29.97933,1017.3,,TRUE,TRUE,,,,,,,CLR,,,,,,,,VFR,,,,,,,,,,,,METAR,301.0
KFUL 150053Z 08006KT 10SM OVC022 13/11 A2996 RMK AO2 SLP146 T01280106,KFUL,2019-01-15T00:53:00Z,33.87,-117.98,12.8,10.6,80,6,,10.0,29.958662,1014.6,,,TRUE,,,,,,,OVC,2200,,,,,,,MVFR,,,,,,,,,,,,SPECI,35.0
KFTY 150053Z 34010KT 10SM OVC022 06/02 A3024 RMK AO2 SLP243 T00560017,KFTY,2019-01-15T00:53:00Z,33.78,-84.52,5.6,1.7,340,10,,10.0,30.239174,1024.3,,,TRUE,,,,,,,OVC,2200,,,,,,,MVFR,,,,,,,,,,,,METAR,263.0
KFTW 150053Z 10004KT 10SM CLR 06/M01 A3037 RMK AO2 SLP287 T00561006,KFTW,2019-01-15T00:53:00Z,32.83,-97.37,5.6,-0.6,100,4,,10.0,30.369095,1028.7,,,TRUE,,,,,,,CLR,,,,,,,,VFR,,,,,,,,,,,,SPECI,214.0
KFSM 150053Z 26005KT 10SM OVC017 03/M02 A3040 RMK AO2 SLP296 T00281017,KFSM,2019-01-15T00:53:00Z,35.33,-94.37,2.8,-1.7,260,5,,10.0,30.398623,1029.6,,,TRUE,,,,,,,OVC,1700,,,,,,,MVFR,,,,,,,,,,,,METAR,140.0
KFRG 150053Z AUTO VRB03KT 10SM CLR M03/M11 A3014 RMK AO2 SLP206 T10331111,KFRG,2019-01-15T00:53:00Z,40.73,-73.42,-3.3,-11.1,0,3,,10.0,30.138779,1020.6,,TRUE,TRUE,,,,,,,CLR,,,,,,,,VFR,,,,,,,,,,,,METAR,21.0
KFPR 150053Z 02004KT 10SM CLR 15/11 A3014 RMK AO2 SLP207 T01500106,KFPR,2019-01-15T00:53:00Z,27.5,-80.38,15.0,10.6,20,4,,10.0,30.138779,1020.7,,,TRUE,,,,,,,CLR,,,,,,,,VFR,,,,,,,,,,,,METAR,13.0
KFOK 150053Z 00000KT 10SM CLR M09/M13 A3013 RMK AO2 SLP204 T10941133,KFOK,2019-01-15T00:53:00Z,40.85,-72.62,-9.4,-13.3,0,0,,10.0,30.129921,1020.4,,,TRUE,,,,,,,CLR,,,,,,,,VFR,,,,,,,,,,,,METAR,33.0
KFOE 150053Z 21007KT 5SM BR OVC003 M01/M02 A3030 RMK AO2 SLP273 T10061017,KFOE,2019-01-15T00:53:00Z,38.93,-95.65,-0.6,-1.7,210,7,,5.0,30.301182,1027.3,,,TRUE,,,,,,BR,OVC,300,,,,,,,LIFR,,,,,,,,,,,,METAR,320.0
KFNT 150053Z 27007KT 10SM OVC023 M02/M07 A3023 RMK AO2 SLP251 T10221067,KFNT,2019-01-15T00:53:00Z,42.97,-83.75,-2.2,-6.7,270,7,,10.0,30.230314,1025.1,,,TRUE,,,,,,,OVC,2300,,,,,,,MVFR,,,,,,,,,,,,METAR,233.0
KFNB 150053Z AUTO 23008KT 5SM BR OVC003 00/M01 A3028 RMK AO2 SLP266 T00001011,KFNB,2019-01-15T00:53:00Z,40.07,-95.58,0.0,-1.1,230,8,,5.0,30.280512,1026.6,,TRUE,TRUE,,,,,,BR,OVC,300,,,,,,,LIFR,,,,,,,,,,,,METAR,300.0
KFMY 150053Z 32011KT 10SM CLR 16/12 A3015 RMK AO2 SLP210 T01560122,KFMY,2019-01-15T00:53:00Z,26.58,-81.87,15.6,12.2,320,11,,10.0,30.15059,1021.0,,,TRUE,,,,,,,CLR,,,,,,,,VFR,,,,,,,,,,,,METAR,4.0
KFMN 150053Z 27003KT 10SM BKN070 BKN120 03/M01 A3024 RMK AO2 SLP253 T00331006,KFMN,2019-01-15T00:53:00Z,36.75,-108.23,3.3,-0.6,270,3,,10.0,30.239174,1025.3,,,TRUE,,,,,,,BKN,7000,BKN,12000,,,,,VFR,,,,,,,,,,,,METAR,1685.0
KFLO 150053Z 00000KT 10SM CLR 03/01 A3022 RMK AO2 SLP233 T00280011,KFLO,2019-01-15T00:53:00Z,34.18,-79.73,2.8,1.1,0,0,,10.0,30.221457,1023.3,,,TRUE,,,,,,,CLR,,,,,,,,VFR,,,,,,,,,,,,METAR,44.0
KSTC 150053Z 00000KT 10SM CLR M07/M08 A3023 RMK AO2 SLP260 T10671083,KSTC,2019-01-15T00:53:00Z,45.55,-94.05,-6.7,-8.3,0,0,,10.0,30.230314,1026.0,,,TRUE,,,,,,,CLR,,,,,,,,VFR,,,,,,,,,,,,METAR,314.0
KSSI 150053Z AUTO 00000KT 10SM OVC014 09/06 A3022 RMK AO2 SLP234 T00940056,KSSI,2019-01-15T00:53:00Z,31.15,-81.38,9.4,5.6,0,0,,10.0,30.221457,1023.4,,TRUE,TRUE,,,,,,,OVC,1400,,,,,,,MVFR,,,,,,,,,,,,METAR,6.0
KSSF 150053Z 11006KT 10SM OVC050 09/02 A3036 RMK AO2 SLP285 T00890017,KSSF,2019-01-15T00:53:00Z,29.33,-98.47,8.9,1.7,110,6,,10.0,30.360237,1028.5,,,TRUE,,,,,,,OVC,5000,,,,,,,VFR,,,,,,,,,,,,METAR,176.0
KSRQ 150053Z 35006KT 10SM CLR 13/09 A3016 RMK AO2 SLP211 T01330094,KSRQ,2019-01-15T00:53:00Z,27.4,-82.57,13.3,9.4,350,6,,10.0,30.159449,1021.1,,,TRUE,,,,,,,CLR,,,,,,,,VFR,,,,,,,,,,,,METAR,18.0
KSPW 150053Z AUTO 34003KT 8SM OVC005 M01/M02 A3022 RMK AO2 SLP250 T10111022,KSPW,2019-01-15T00:53:00Z,43.17,-95.22,-1.1,-2.2,340,3,,8.0,30.221457,1025.0,,TRUE,TRUE,,,,,,,OVC,500,,,,,,,IFR,,,,,,,,,,,,METAR,403.0
KSPG 150053Z 35009KT 10SM CLR 13/09 A3016 RMK AO2 SLP214 T01330089,KSPG,2019-01-15T00:53:00Z,27.77,-82.63,13.3,8.9,350,9,,10.0,30.159449,1021.4,,,TRUE,,,,,,,CLR,,,,,,,,VFR,,,,,,,,,,,,METAR,2.0
KSPB 150053Z AUTO 21005KT 10SM CLR 07/M04 A2999 RMK AO2 SLP154 T00671039,KSPB,2019-01-15T00:53:00Z,45.77,-122.87,6.7,-3.9,210,5,,10.0,29.991142,1015.4,,TRUE,TRUE,,,,,,,CLR,,,,,,,,VFR,,,,,,,,,,,,METAR,14.0
KSNY 150053Z AUTO 00000KT 10SM CLR M06/M15 A3015 RMK AO2 SLP266 T10611150,KSNY,2019-01-15T00:53:00Z,41.1,-102.98,-6.1,-15.0,0,0,,10.0,30.15059,1026.6,,TRUE,TRUE,,,,,,,CLR,,,,,,,,VFR,,,,,,,,,,,,METAR,1307.0
KSNS 150053Z 14012KT 10SM OVC060 12/09 A2985 RMK AO2 SLP118 T01220089,KSNS,2019-01-15T00:53:00Z,36.67,-121.6,12.2,8.9,140,12,,10.0,29.84941,1011.8,,,TRUE,,,,,,,OVC,6000,,,,,,,VFR,,,,,,,,,,,,METAR,30.0
KSNA 150053Z 10006KT 10SM BKN016 OVC025 13/11 A2996 RMK AO2 RAB2358E20 SLP145 P0000 T01330106,KSNA,2019-01-15T00:53:00Z,33.67,-117.87,13.3,10.6,100,6,,10.0,29.958662,1014.5,,,TRUE,,,,,,,BKN,1600,OVC,2500,,,,,MVFR,,,,,,0.005,,,,,,METAR,16.0
KSMQ 150053Z AUTO 00000KT 10SM CLR M06/M10 A3014 RMK AO2 SLP209 T10561100,KSMQ,2019-01-15T00:53:00Z,40.62,-74.67,-5.6,-10.0,0,0,,10.0,30.138779,1020.9,,TRUE,TRUE,,,,,,,CLR,,,,,,,,VFR,,,,,,,,,,,,METAR,30.0
KSMF 150053Z 16005KT 10SM -RA BKN060 OVC080 12/07 A2989 RMK AO2 RAB13E22B50 SLP120 P0000 T01220067,KSMF,2019-01-15T00:53:00Z,38.7,-121.6,12.2,6.7,160,5,,10.0,29.890747,1012.0,,,TRUE,,,,,,-RA,BKN,6000,OVC,8000,,,,,VFR,,,,,,0.005,,,,,,METAR,6.0
KSLN 150053Z 19003KT 7SM OVC007 01/01 A3029 RMK AO2 SLP268 T00060006,KSLN,2019-01-15T00:53:00Z,38.78,-97.65,0.6,0.6,190,3,,7.0,30.28937,1026.8,,,TRUE,,,,,,,OVC,700,,,,,,,IFR,,,,,,,,,,,,METAR,385.0
KSJC 150053Z 14009KT 10SM FEW023 BKN050 BKN100 12/09 A2985 RMK AO2 RAE41 SLP106 P0001 T01220089,KSJC,2019-01-15T00:53:00Z,37.37,-121.92,12.2,8.9,140,9,,10.0,29.84941,1010.6,,,TRUE,,,,,,,FEW,2300,BKN,5000,BKN,10000,,,VFR,,,,,,0.01,,,,,,METAR,24.0
KSIY 150053Z AUTO 00000KT 10SM BKN100 06/M05 A2988 RMK AO2 SLP145 T00561050,KSIY,2019-01-15T00:53:00Z,41.77,-122.47,5.6,-5.0,0,0,,10.0,29.878937,1014.5,,TRUE,TRUE,,,,,,,BKN,10000,,,,,,,VFR,,,,,,,,,,,,METAR,807.0
KSHR 150053Z AUTO 29003KT 10SM CLR M03/M08 A3006 RMK AO2 SLP230 T10331078,KSHR,2019-01-15T00:53:00Z,44.77,-106.97,-3.3,-7.8,290,3,,10.0,30.059055,1023.0,,TRUE,TRUE,,,,,,,CLR,,,,,,,,VFR,,,,,,,,,,,,METAR,1202.0
KSHN 150053Z AUTO 00000KT M1/4SM FG VV001 02/01 A2994 RMK AO2 SLP145 T00170006,KSHN,2019-01-15T00:53:00Z,47.23,-123.13,1.7,0.6,0,0,,0.25,29.940945,1014.5,,TRUE,TRUE,,,,,,FG,OVX,0,,,,,,,LIFR,,,,,,,,,,,100,METAR,82.0
KSGR 150053Z 30005KT 10SM OVC060 11/04 A3038 RMK AO2 SLP290 T01110039,KSGR,2019-01-15T00:53:00Z,29.62,-95.65,11.1,3.9,300,5,,10.0,30.380905,1029.0,,,TRUE,,,,,,,OVC,6000,,,,,,,VFR,,,,,,,,,,,,METAR,2.0
KSFF 150053Z 07004KT 10SM CLR M01/M04 A3019 RMK AO2 SLP244 T10061039,KSFF,2019-01-15T00:53:00Z,47.68,-117.32,-0.6,-3.9,70,4,,10.0,30.188976,1024.4,,,TRUE,,,,,,,CLR,,,,,,,,VFR,,,,,,,,,,,,METAR,609.0
KSFB 150053Z 02005KT 10SM CLR 12/09 A3018 RMK AO2 SLP221 T01170089,KSFB,2019-01-15T00:53:00Z,28.77,-81.22,11.7,8.9,20,5,,10.0,30.180119,1022.1,,,TRUE,,,,,,,CLR,,,,,,,,VFR,,,,,,,,,,,,METAR,17.0
KSEG 150053Z AUTO 00000KT 10SM CLR M06/M09 A3018 RMK AO2 SLP227 T10611089,KSEG,2019-01-15T00:53:00Z,40.82,-76.87,-6.1,-8.9,0,0,,10.0,30.180119,1022.7,,TRUE,TRUE,,,,,,,CLR,,,,,,,,VFR,,,,,,,,,,,,SPECI,134.0
KSEA 150053Z 18004KT 8SM FEW250 06/04 A2996 RMK AO2 SLP154 T00560039,KSEA,2019-01-15T00:53:00Z,47.45,-122.32,5.6,3.9,180,4,,8.0,29.958662,1015.4,,,TRUE,,,,,,,FEW,25000,,,,,,,VFR,,,,,,,,,,,,METAR,136.0
KSDL 150053Z 10003KT 10SM SCT110 18/06 A3006 RMK AO2 SLP168 T01830061,KSDL,2019-01-15T00:53:00Z,33.62,-111.92,18.3,6.1,100,3,,10.0,30.059055,1016.8,,,TRUE,,,,,,,SCT,11000,,,,,,,VFR,,,,,,,,,,,,METAR,447.0
KSBM 150053Z AUTO 28009KT 10SM OVC020 M01/M05 A3020 RMK AO2 SLP238 T10111050,KSBM,2019-01-15T00:53:00Z,43.78,-87.85,-1.1,-5.0,280,9,,10.0,30.200787,1023.8,,TRUE,TRUE,,,,,,,OVC,2000,,,,,,,MVFR,,,,,,,,,,,,METAR,232.0
KSBA 150053Z 11012KT 10SM SCT060 BKN120 14/08 A2992 RMK AO2 RAB44E53 SLP131 P0000 T01390083,KSBA,2019-01-15T00:53:00Z,34.43,-119.85,13.9,8.3,110,12,,10.0,29.920275,1013.1,,,TRUE,,,,,,,SCT,6000,BKN,12000,,,,,VFR,,,,,,0.005,,,,,,METAR,3.0
KSAV 150053Z 35005KT 10SM OVC014 08/06 A3023 RMK AO2 SLP238 T00780056,KSAV,2019-01-15T00:53:00Z,32.12,-81.2,7.8,5.6,350,5,,10.0,30.230314,1023.8,,,TRUE,,,,,,,OVC,1400,,,,,,,MVFR,,,,,,,,,,,,METAR,14.0
KSAF 150053Z 36008KT 10SM BKN095 M01/M03 A3025 RMK AO2 SLP251 T10061033,KSAF,2019-01-15T00:53:00Z,35.62,-106.1,-0.6,-3.3,360,8,,10.0,30.250984,1025.1,,,TRUE,,,,,,,BKN,9500,,,,,,,VFR,,,,,,,,,,,,METAR,1930.0
KSAC 150053Z 16005KT 10SM OVC070 12/07 A2989 RMK AO2 RAE15 SLP121 P0000 T01220067 $,KSAC,2019-01-15T00:53:00Z,38.5,-121.5,12.2,6.7,160,5,,10.0,29.890747,1012.1,,,TRUE,TRUE,,,,,,OVC,7000,,,,,,,VFR,,,,,,0.005,,,,,,METAR,11.0
KRXE 150053Z AUTO 05003KT 10SM CLR M10/M14 A3023 RMK AO2 SLP321 T11001144,KRXE,2019-01-15T00:53:00Z,43.83,-111.8,-10.0,-14.4,50,3,,10.0,30.230314,1032.1,,TRUE,TRUE,,,,,,,CLR,,,,,,,,VFR,,,,,,,,,,,,METAR,1480.0
KRWL 150053Z AUTO 36006KT 10SM CLR M13/M16 A3025 RMK AO2 SLP360 T11331156,KRWL,2019-01-15T00:53:00Z,41.78,-107.2,-13.3,-15.6,360,6,,10.0,30.250984,1036.0,,TRUE,TRUE,,,,,,,CLR,,,,,,,,VFR,,,,,,,,,,,,METAR,2077.0
KRWI 150053Z AUTO 00000KT 10SM CLR M01/M01 A3022 RMK AO2 SLP233 T10061011,KRWI,2019-01-15T00:53:00Z,35.85,-77.9,-0.6,-1.1,0,0,,10.0,30.221457,1023.3,,TRUE,TRUE,,,,,,,CLR,,,,,,,,VFR,,,,,,,,,,,,METAR,47.0
PGWT 150053Z 07016KT 7SM SCT016 SCT150 M/M A2988,PGWT,2019-01-15T00:53:00Z,14.98,145.62,,,70,16,,7.0,29.878937,,,,,,,,,,,SCT,1600,SCT,15000,,,,,VFR,,,,,,,,,,,,METAR,82.0
PHLI 150053Z 05012KT 10SM CLR 26/18 A3000 RMK AO2 SLP157 T02610183,PHLI,2019-01-15T00:53:00Z,21.97,-159.33,26.1,18.3,50,12,,10.0,30.0,1015.7,,,TRUE,,,,,,,CLR,,,,,,,,VFR,,,,,,,,,,,,METAR,45.0
PHKO 150053Z 30010KT 10SM SCT050 27/18 A2998 RMK AO2 SLP151 T02670178,PHKO,2019-01-15T00:53:00Z,19.73,-156.05,26.7,17.8,300,10,,10.0,29.97933,1015.1,,,TRUE,,,,,,,SCT,5000,,,,,,,VFR,,,,,,,,,,,,SPECI,27.0
PHTO 150053Z 12010KT 10SM FEW032 OVC055 26/18 A3000 RMK AO2 SLP157 T02560178,PHTO,2019-01-15T00:53:00Z,19.72,-155.05,25.6,17.8,120,10,,10.0,30.0,1015.7,,,TRUE,,,,,,,FEW,3200,OVC,5500,,,,,VFR,,,,,,,,,,,,SPECI,12.0
PHNL 150053Z 15011KT 10SM FEW039 SCT055 27/16 A2999 RMK AO2 SLP155 T02720161,PHNL,2019-01-15T00:53:00Z,21.33,-157.92,27.2,16.1,150,11,,10.0,29.991142,1015.5,,,TRUE,,,,,,,FEW,3900,SCT,5500,,,,,VFR,,,,,,,,,,,,SPECI,4.0
KUAO 150053Z 03012KT 10SM CLR 07/M03 A2992 RMK AO2 SLP133 T00671033,KUAO,2019-01-15T00:53:00Z,45.25,-122.77,6.7,-3.3,30,12,,10.0,29.920275,1013.3,,,TRUE,,,,,,,CLR,,,,,,,,VFR,,,,,,,,,,,,METAR,59.0
KTYS 150053Z 00000KT 10SM -RA OVC023 02/01 A3026 RMK AO2 SLP251 P0001 I1000 T00170011,KTYS,2019-01-15T00:53:00Z,35.82,-83.98,1.7,1.1,0,0,,10.0,30.259842,1025.1,,,TRUE,,,,,,-RA,OVC,2300,,,,,,,MVFR,,,,,,0.01,,,,,,METAR,302.0
KTYR 150053Z 04004KT 10SM CLR 03/00 A3039 RMK AO2 SLP293 T00280000,KTYR,2019-01-15T00:53:00Z,32.37,-95.4,2.8,0.0,40,4,,10.0,30.389763,1029.3,,,TRUE,,,,,,,CLR,,,,,,,,VFR,,,,,,,,,,,,METAR,165.0
KTXK 150053Z 33004KT 10SM OVC018 04/01 A3042 RMK AO2 SLP301 T00390006,KTXK,2019-01-15T00:53:00Z,33.45,-93.98,3.9,0.6,330,4,,10.0,30.41929,1030.1,,,TRUE,,,,,,,OVC,1800,,,,,,,MVFR,,,,,,,,,,,,METAR,111.0
KTVR 150053Z AUTO VRB04KT 10SM OVC019 04/01 A3039 RMK AO2 SLP300 T00440006,KTVR,2019-01-15T00:53:00Z,32.35,-91.03,4.4,0.6,0,4,,10.0,30.389763,1030.0,,TRUE,TRUE,,,,,,,OVC,1900,,,,,,,MVFR,,,,,,,,,,,,METAR,26.0
KTVL 150053Z AUTO 09003KT 10SM BKN120 01/M06 A2989 RMK AO2 SLP135 T00061056,KTVL,2019-01-15T00:53:00Z,38.9,-120.0,0.6,-5.6,90,3,,10.0,29.890747,1013.5,,TRUE,TRUE,,,,,,,BKN,12000,,,,,,,VFR,,,,,,,,,,,,SPECI,1924.0
KPUC 150053Z AUTO 00000KT 10SM OVC046 M02/M06 A3025 RMK AO2 SLP302 T10171056,KPUC,2019-01-15T00:53:00Z,39.62,-110.75,-1.7,-5.6,0,0,,10.0,30.250984,1030.2,,TRUE,TRUE,,,,,,,OVC,4600,,,,,,,VFR,,,,,,,,,,,,METAR,2091.0
KFWS 150052Z 00000KT 10SM OVC060 06/02 A3039,KFWS,2019-01-15T00:52:00Z,32.57,-97.3,6.0,2.0,0,0,,10.0,30.389763,,,,,,,,,,,OVC,6000,,,,,,,VFR,,,,,,,,,,,,METAR,208.0
KCDJ 150052Z AUTO 23004KT M02/M03 A3034 RMK AO1 SLP290 T10221028,KCDJ,2019-01-15T00:52:00Z,39.82,-93.58,-2.2,-2.8,230,4,,,30.339567,1029.0,,TRUE,TRUE,,,,,,,,,,,,,,,,,,,,,,,,,,,SPECI,234.0
KREO 150052Z AUTO 09005KT M03/M08 A3008 RMK AO1 SLP218 T10331078,KREO,2019-01-15T00:52:00Z,42.58,-117.87,-3.3,-7.8,90,5,,,30.079725,1021.8,,TRUE,TRUE,,,,,,,,,,,,,,,,,,,,,,,,,,,METAR,1235.0
KNHK 150052Z AUTO 26004KT 10SM CLR M04/M05 A3020 RMK AO2 SLP228 T10391050 $,KNHK,2019-01-15T00:52:00Z,38.27,-76.4,-3.9,-5.0,260,4,,10.0,30.200787,1022.8,,TRUE,TRUE,TRUE,,,,,,CLR,,,,,,,,VFR,,,,,,,,,,,,SPECI,12.0
KTOA 150052Z 08005KT 2SM -RA SC006 OVC012 12/11 A2996,KTOA,2019-01-15T00:52:00Z,33.78,-118.32,12.0,11.0,80,5,,2.0,29.958662,,,,,,,,,,-RA,OVC,1200,,,,,,,IFR,,,,,,,,,,,,METAR,31.0
PTTP 150052Z 12004KT 15SM FEW018 BKN130 OVC300 29/24 A2977 RMK SLP080 T02890241,PTTP,2019-01-15T00:52:00Z,6.97,158.22,28.9,24.1,120,4,,15.0,29.769686,1008.0,,,,,,,,,,FEW,1800,BKN,13000,OVC,30000,,,VFR,,,,,,,,,,,,METAR,2.0
KTAN 150052Z AUTO 00000KT 7SM CLR M09/M11 A3010 RMK AO2 SLP192 I1001 T10891111,KTAN,2019-01-15T00:52:00Z,41.88,-71.02,-8.9,-11.1,0,0,,7.0,30.100393,1019.2,,TRUE,TRUE,,,,,,,CLR,,,,,,,,VFR,,,,,,,,,,,,METAR,7.0
KVTN 150052Z AUTO 08003KT 10SM CLR 00/M03 A3017 RMK AO2 SLP249 T00001028 $,KVTN,2019-01-15T00:52:00Z,42.87,-100.55,0.0,-2.8,80,3,,10.0,30.171259,1024.9,,TRUE,TRUE,TRUE,,,,,,CLR,,,,,,,,VFR,,,,,,,,,,,,SPECI,788.0
KABQ 150052Z 02007KT 10SM FEW040 SCT110 BKN200 06/01 A3025 RMK AO2 SLP242 MTN TOPS OBSC NE T00560006,KABQ,2019-01-15T00:52:00Z,35.05,-106.62,5.6,0.6,20,7,,10.0,30.250984,1024.2,,,TRUE,,,,,,,FEW,4000,SCT,11000,BKN,20000,,,VFR,,,,,,,,,,,,METAR,1618.0
KABI 150052Z 18003KT 10SM OVC036 07/03 A3033 RMK AO2 SLP274 T00670033,KABI,2019-01-15T00:52:00Z,32.42,-99.68,6.7,3.3,180,3,,10.0,30.33071,1027.4,,,TRUE,,,,,,,OVC,3600,,,,,,,VFR,,,,,,,,,,,,METAR,548.0
KCID 150052Z 27006KT 6SM BR OVC005 M04/M04 A3027 RMK AO2 SLP264 T10391039,KCID,2019-01-15T00:52:00Z,41.88,-91.72,-3.9,-3.9,270,6,,6.0,30.268702,1026.4,,,TRUE,,,,,,BR,OVC,500,,,,,,,IFR,,,,,,,,,,,,METAR,264.0
KCFV 150052Z AUTO 19005KT 9SM OVC013 01/M01 A3036 RMK AO2 SLP287 T00111011,KCFV,2019-01-15T00:52:00Z,37.08,-95.57,1.1,-1.1,190,5,,9.0,30.360237,1028.7,,TRUE,TRUE,,,,,,,OVC,1300,,,,,,,MVFR,,,,,,,,,,,,METAR,225.0
KBML 150052Z AUTO 00000KT 10SM CLR M12/M14 A3006 RMK AO2 SLP214 T11221144,KBML,2019-01-15T00:52:00Z,44.58,-71.18,-12.2,-14.4,0,0,,10.0,30.059055,1021.4,,TRUE,TRUE,,,,,,,CLR,,,,,,,,VFR,,,,,,,,,,,,METAR,345.0
KBLU 150052Z AUTO 26003KT 10SM OVC050 03/M04 A2990 RMK AO2 SLP120 T00281044,KBLU,2019-01-15T00:52:00Z,39.28,-120.7,2.8,-4.4,260,3,,10.0,29.899607,1012.0,,TRUE,TRUE,,,,,,,OVC,5000,,,,,,,VFR,,,,,,,,,,,,METAR,1609.0
KBLH 150052Z AUTO 08005KT 10SM -RA FEW050 SCT065 OVC085 14/11 A3001 RMK AO2 RAB09 SLP159 P0001 T01440111,KBLH,2019-01-15T00:52:00Z,33.62,-114.72,14.4,11.1,80,5,,10.0,30.008858,1015.9,,TRUE,TRUE,,,,,,-RA,FEW,5000,SCT,6500,OVC,8500,,,VFR,,,,,,0.01,,,,,,METAR,119.0
KBLF 150052Z AUTO 29007KT 1/2SM FZFG VV002 M03/M03 A3016 RMK AO2 SLP235 I1001 T10331033,KBLF,2019-01-15T00:52:00Z,37.3,-81.2,-3.3,-3.3,290,7,,0.5,30.159449,1023.5,,TRUE,TRUE,,,,,,FZFG,OVX,0,,,,,,,LIFR,,,,,,,,,,,200,METAR,873.0
KBDR 150052Z 32004KT 10SM CLR M02/M14 A3013 RMK AO2 SLP202 T10221139,KBDR,2019-01-15T00:52:00Z,41.17,-73.13,-2.2,-13.9,320,4,,10.0,30.129921,1020.2,,,TRUE,,,,,,,CLR,,,,,,,,VFR,,,,,,,,,,,,METAR,7.0
KATL 150052Z 35013G20KT 10SM BKN024 OVC030 06/01 A3023 RMK AO2 SLP242 T00610006,KATL,2019-01-15T00:52:00Z,33.63,-84.45,6.1,0.6,350,13,20,10.0,30.230314,1024.2,,,TRUE,,,,,,,BKN,2400,OVC,3000,,,,,MVFR,,,,,,,,,,,,METAR,296.0
KARR 150052Z 24010KT 5SM BR OVC009 M05/M07 A3029 RMK AO2 SLP268 T10501072,KARR,2019-01-15T00:52:00Z,41.77,-88.48,-5.0,-7.2,240,10,,5.0,30.28937,1026.8,,,TRUE,,,,,,BR,OVC,900,,,,,,,IFR,,,,,,,,,,,,METAR,215.0
KAQW 150052Z AUTO 26005KT 10SM CLR M07/M12 A3013 RMK AO2 SLP219 T10721117,KAQW,2019-01-15T00:52:00Z,42.7,-73.17,-7.2,-11.7,260,5,,10.0,30.129921,1021.9,,TRUE,TRUE,,,,,,,CLR,,,,,,,,VFR,,,,,,,,,,,,METAR,199.0
KALS 150052Z AUTO 35005KT 10SM CLR M09/M11 A3028 RMK AO2 SLP328 T10891106,KALS,2019-01-15T00:52:00Z,37.43,-105.87,-8.9,-10.6,350,5,,10.0,30.280512,1032.8,,TRUE,TRUE,,,,,,,CLR,,,,,,,,VFR,,,,,,,,,,,,METAR,2299.0
KAFN 150052Z AUTO 02004KT 10SM CLR M05/M13 A3005 RMK AO2 SLP202 T10501133,KAFN,2019-01-15T00:52:00Z,42.8,-72.0,-5.0,-13.3,20,4,,10.0,30.050198,1020.2,,TRUE,TRUE,,,,,,,CLR,,,,,,,,VFR,,,,,,,,,,,,METAR,313.0
KOMA 150052Z 19004KT 5SM BR OVC007 00/M02 A3025 RMK AO2 SLP253 T00001022,KOMA,2019-01-15T00:52:00Z,41.32,-95.9,0.0,-2.2,190,4,,5.0,30.250984,1025.3,,,TRUE,,,,,,BR,OVC,700,,,,,,,IFR,,,,,,,,,,,,METAR,312.0
KOKC 150052Z 19007KT 10SM FEW250 03/00 A3032 RMK AO2 SLP275 T00330000 $,KOKC,2019-01-15T00:52:00Z,35.38,-97.6,3.3,0.0,190,7,,10.0,30.318897,1027.5,,,TRUE,TRUE,,,,,,FEW,25000,,,,,,,VFR,,,,,,,,,,,,METAR,390.0
KMWH 150052Z 36004KT 10SM OVC015 M01/M04 A3024 RMK AO2 SLP255 T10061039,KMWH,2019-01-15T00:52:00Z,47.2,-119.32,-0.6,-3.9,360,4,,10.0,30.239174,1025.5,,,TRUE,,,,,,,OVC,1500,,,,,,,MVFR,,,,,,,,,,,,METAR,362.0
KMLI 150052Z 26006KT 5SM BR OVC009 M02/M04 A3030 RMK AO2 SLP269 T10221044,KMLI,2019-01-15T00:52:00Z,41.45,-90.52,-2.2,-4.4,260,6,,5.0,30.301182,1026.9,,,TRUE,,,,,,BR,OVC,900,,,,,,,IFR,,,,,,,,,,,,METAR,184.0
KMKE 150052Z 23009KT 6SM HZ OVC013 M02/M06 A3023 RMK AO2 SLP248 T10221061,KMKE,2019-01-15T00:52:00Z,42.95,-87.9,-2.2,-6.1,230,9,,6.0,30.230314,1024.8,,,TRUE,,,,,,HZ,OVC,1300,,,,,,,MVFR,,,,,,,,,,,,METAR,206.0
KMHK 150052Z 24007KT 9SM OVC006 02/01 A3030 RMK AO2 SLP272 T00170006,KMHK,2019-01-15T00:52:00Z,39.13,-96.68,1.7,0.6,240,7,,9.0,30.301182,1027.2,,,TRUE,,,,,,,OVC,600,,,,,,,IFR,,,,,,,,,,,,SPECI,317.0
KMFD 150052Z 24003KT 9SM CLR M08/M09 A3024 RMK AO2 SLP261 T10781094,KMFD,2019-01-15T00:52:00Z,40.82,-82.52,-7.8,-9.4,240,3,,9.0,30.239174,1026.1,,,TRUE,,,,,,,CLR,,,,,,,,VFR,,,,,,,,,,,,METAR,395.0
KMEB 150052Z AUTO 00000KT 10SM OVC037 06/02 A3022 RMK AO2 SLP234 T00560022,KMEB,2019-01-15T00:52:00Z,34.78,-79.37,5.6,2.2,0,0,,10.0,30.221457,1023.4,,TRUE,TRUE,,,,,,,OVC,3700,,,,,,,VFR,,,,,,,,,,,,METAR,67.0
KMDH 150052Z 22003KT 8SM OVC025 00/M02 A3036 RMK AO2 SLP286 T00001022,KMDH,2019-01-15T00:52:00Z,37.78,-89.25,0.0,-2.2,220,3,,8.0,30.360237,1028.6,,,TRUE,,,,,,,OVC,2500,,,,,,,MVFR,,,,,,,,,,,,METAR,130.0
KMBG 150052Z AUTO 18006KT 4SM BR OVC003 M04/M06 A3017 RMK AO2 SLP243 T10391056,KMBG,2019-01-15T00:52:00Z,45.55,-100.42,-3.9,-5.6,180,6,,4.0,30.171259,1024.3,,TRUE,TRUE,,,,,,BR,OVC,300,,,,,,,LIFR,,,,,,,,,,,,METAR,510.0
KISN 150052Z AUTO 18006KT 10SM CLR M02/M05 A3006 RMK AO2 SLP212 T10171050,KISN,2019-01-15T00:52:00Z,48.17,-103.63,-1.7,-5.0,180,6,,10.0,30.059055,1021.2,,TRUE,TRUE,,,,,,,CLR,,,,,,,,VFR,,,,,,,,,,,,METAR,579.0
KIOW 150052Z AUTO 27007KT 9SM OVC007 M03/M04 A3031 RMK AO2 SLP272 T10281044,KIOW,2019-01-15T00:52:00Z,41.63,-91.55,-2.8,-4.4,270,7,,9.0,30.31004,1027.2,,TRUE,TRUE,,,,,,,OVC,700,,,,,,,IFR,,,,,,,,,,,,METAR,198.0
KIJD 150052Z AUTO 00000KT 10SM CLR M07/M09 A3011 RMK AO2 SLP199 T10671094,KIJD,2019-01-15T00:52:00Z,41.75,-72.18,-6.7,-9.4,0,0,,10.0,30.109253,1019.9,,TRUE,TRUE,,,,,,,CLR,,,,,,,,VFR,,,,,,,,,,,,METAR,75.0
KIEN 150052Z AUTO 07006KT 10SM CLR M02/M07 A3014 RMK AO2 SLP246 T10221072,KIEN,2019-01-15T00:52:00Z,43.03,-102.52,-2.2,-7.2,70,6,,10.0,30.138779,1024.6,,TRUE,TRUE,,,,,,,CLR,,,,,,,,VFR,,,,,,,,,,,,METAR,998.0
KIAD 150052Z 00000KT 10SM FEW200 M06/M07 A3020 RMK AO2 SLP230 I1000 T10561067,KIAD,2019-01-15T00:52:00Z,38.93,-77.45,-5.6,-6.7,0,0,,10.0,30.200787,1023.0,,,TRUE,,,,,,,FEW,20000,,,,,,,VFR,,,,,,,,,,,,METAR,93.0
KHUT 150052Z 00000KT 9SM CLR 02/01 A3027 RMK AO2 SLP256 T00170006,KHUT,2019-01-15T00:52:00Z,38.07,-97.87,1.7,0.6,0,0,,9.0,30.268702,1025.6,,,TRUE,,,,,,,CLR,,,,,,,,VFR,,,,,,,,,,,,METAR,467.0
KHRL 150052Z 36011KT 4SM BR OVC005 11/09 A3033 RMK AO2 SLP271 T01060094,KHRL,2019-01-15T00:52:00Z,26.23,-97.65,10.6,9.4,360,11,,4.0,30.33071,1027.1,,,TRUE,,,,,,BR,OVC,500,,,,,,,IFR,,,,,,,,,,,,METAR,10.0
KHIE 150052Z AUTO 00000KT 10SM CLR M12/M14 A3009 RMK AO2 SLP220 T11221144,KHIE,2019-01-15T00:52:00Z,44.37,-71.55,-12.2,-14.4,0,0,,10.0,30.088583,1022.0,,TRUE,TRUE,,,,,,,CLR,,,,,,,,VFR,,,,,,,,,,,,METAR,318.0
KGLS 150052Z AUTO 01005KT 10SM OVC070 11/05 A3038 RMK AO2 SLP289 T01110050,KGLS,2019-01-15T00:52:00Z,29.27,-94.87,11.1,5.0,10,5,,10.0,30.380905,1028.9,,TRUE,TRUE,,,,,,,OVC,7000,,,,,,,VFR,,,,,,,,,,,,METAR,6.0
KFIT 150052Z AUTO 01003KT 10SM CLR M04/M12 A3009 RMK AO2 SLP197 T10441117,KFIT,2019-01-15T00:52:00Z,42.55,-71.75,-4.4,-11.7,10,3,,10.0,30.088583,1019.7,,TRUE,TRUE,,,,,,,CLR,,,,,,,,VFR,,,,,,,,,,,,METAR,103.0
PATA 150052Z 00000KT 10SM FEW080 FEW120 M19/M23 A3008 RMK AO2 SLP195 T11941233 PNO,PATA,2019-01-15T00:52:00Z,65.17,-152.1,-19.4,-23.3,0,0,,10.0,30.079725,1019.5,,,TRUE,,,,,,,FEW,8000,FEW,12000,,,,,VFR,,,,,,,,,,,,METAR,67.0
KDVN 150052Z AUTO 28007KT 6SM BR OVC006 M03/M05 A3031 RMK AO2 SLP273 T10331050,KDVN,2019-01-15T00:52:00Z,41.62,-90.58,-3.3,-5.0,280,7,,6.0,30.31004,1027.3,,TRUE,TRUE,,,,,,BR,OVC,600,,,,,,,IFR,,,,,,,,,,,,METAR,230.0
KDPA 150052Z 24008KT 5SM BR OVC009 M04/M07 A3027 RMK AO2 SLP263 T10441067,KDPA,2019-01-15T00:52:00Z,41.92,-88.25,-4.4,-6.7,240,8,,5.0,30.268702,1026.3,,,TRUE,,,,,,BR,OVC,900,,,,,,,IFR,,,,,,,,,,,,METAR,231.0
KDDC 150052Z AUTO 27008KT 6SM BR OVC004 01/M01 A3023 RMK AO2 SLP255 T00061011,KDDC,2019-01-15T00:52:00Z,37.77,-99.97,0.6,-1.1,270,8,,6.0,30.230314,1025.5,,TRUE,TRUE,,,,,,BR,OVC,400,,,,,,,LIFR,,,,,,,,,,,,METAR,789.0
KDCA 150052Z 26003KT 10SM CLR 01/M08 A3021 RMK AO2 SLP230 T00111078,KDCA,2019-01-15T00:52:00Z,38.85,-77.03,1.1,-7.8,260,3,,10.0,30.209646,1023.0,,,TRUE,,,,,,,CLR,,,,,,,,VFR,,,,,,,,,,,,METAR,18.0
KCQX 150052Z AUTO VRB06KT 10SM OVC025 M01/M07 A3008 RMK AO2 SLP186 T10061067,KCQX,2019-01-15T00:52:00Z,41.68,-70.0,-0.6,-6.7,0,6,,10.0,30.079725,1018.6,,TRUE,TRUE,,,,,,,OVC,2500,,,,,,,MVFR,,,,,,,,,,,,METAR,19.0
KCNU 150052Z AUTO 21008KT 7SM OVC005 M01/M01 A3035 RMK AO2 SLP286 T10061011,KCNU,2019-01-15T00:52:00Z,37.67,-95.48,-0.6,-1.1,210,8,,7.0,30.351377,1028.6,,TRUE,TRUE,,,,,,,OVC,500,,,,,,,IFR,,,,,,,,,,,,METAR,297.0
KCLT 150052Z 10004KT 10SM FEW036 BKN048 06/02 A3019 RMK AO2 SLP228 T00560022,KCLT,2019-01-15T00:52:00Z,35.22,-80.95,5.6,2.2,100,4,,10.0,30.188976,1022.8,,,TRUE,,,,,,,FEW,3600,BKN,4800,,,,,VFR,,,,,,,,,,,,METAR,220.0
KCKV 150052Z AUTO 34006KT 7SM OVC013 01/M02 A3034 RMK AO2 SLP280 T00111017,KCKV,2019-01-15T00:52:00Z,36.62,-87.42,1.1,-1.7,340,6,,7.0,30.339567,1028.0,,TRUE,TRUE,,,,,,,OVC,1300,,,,,,,MVFR,,,,,,,,,,,,METAR,165.0
KPPF 150052Z AUTO 23004KT 8SM OVC009 01/M01 A3036 RMK AO2 SLP289 T00061011,KPPF,2019-01-15T00:52:00Z,37.33,-95.5,0.6,-1.1,230,4,,8.0,30.360237,1028.9,,TRUE,TRUE,,,,,,,OVC,900,,,,,,,IFR,,,,,,,,,,,,METAR,274.0
KSGF 150052Z 26005KT 8SM OVC007 M01/M03 A3033 RMK AO2 SLP281 T10061028,KSGF,2019-01-15T00:52:00Z,37.23,-93.38,-0.6,-2.8,260,5,,8.0,30.33071,1028.1,,,TRUE,,,,,,,OVC,700,,,,,,,IFR,,,,,,,,,,,,METAR,390.0
KRAP 150052Z 00000KT 10SM CLR M03/M07 A3012 RMK AO2 SLP245 T10331072,KRAP,2019-01-15T00:52:00Z,44.05,-103.05,-3.3,-7.2,0,0,,10.0,30.121063,1024.5,,,TRUE,,,,,,,CLR,,,,,,,,VFR,,,,,,,,,,,,METAR,965.0
KTRM 150052Z AUTO 33004KT 9SM -RA OVC045 12/10 A3004 RMK AO2 SLP171 P0006 T01220100 TSNO,KTRM,2019-01-15T00:52:00Z,33.63,-116.17,12.2,10.0,330,4,,9.0,30.041338,1017.1,,TRUE,TRUE,,,TRUE,,,-RA,OVC,4500,,,,,,,VFR,,,,,,0.06,,,,,,METAR,-35.0
KTOL 150052Z 23006KT 9SM OVC024 M04/M09 A3026 RMK AO2 SLP259 T10391089,KTOL,2019-01-15T00:52:00Z,41.58,-83.8,-3.9,-8.9,230,6,,9.0,30.259842,1025.9,,,TRUE,,,,,,,OVC,2400,,,,,,,MVFR,,,,,,,,,,,,METAR,210.0
KSUX 150052Z 07004KT 10SM OVC022 M01/M02 A3023 RMK AO2 SLP248 T10061022,KSUX,2019-01-15T00:52:00Z,42.38,-96.38,-0.6,-2.2,70,4,,10.0,30.230314,1024.8,,,TRUE,,,,,,,OVC,2200,,,,,,,MVFR,,,,,,,,,,,,METAR,338.0
MMLM 150052Z 02006KT 6SM -RA BKN030 OVC080 16/14 A3009 RMK 60125 8/77/,MMLM,2019-01-15T00:52:00Z,25.67,-109.07,16.0,14.0,20,6,,6.0,30.088583,,,,,,,,,,-RA,BKN,3000,OVC,8000,,,,,MVFR,,,,,,,,,,,,METAR,4.0
NSTU 150052Z 21007KT 12SM FEW018TCU FEW110 31/26 A2969 RMK TCU S SLP054 T03060260,NSTU,2019-01-15T00:52:00Z,-14.33,-170.72,30.6,26.0,210,7,,12.0,29.68996,1005.4,,,,,,,,,,FEW,1800,FEW,11000,,,,,VFR,,,,,,,,,,,,METAR,3.0
MMCZ 150052Z 02006KT 6SM BKN015 OVC070 23/21 A3009 RMK 60015 8/47/ RA INTMNT,MMCZ,2019-01-15T00:52:00Z,20.52,-86.92,23.0,21.0,20,6,,6.0,30.088583,,,,,,,,,,,BKN,1500,OVC,7000,,,,,MVFR,,,,,,,,,,,,METAR,5.0
KORE 150052Z AUTO 02003KT 10SM CLR M06/M12 A3010 RMK AO2 SLP205 T10611122,KORE,2019-01-15T00:52:00Z,42.57,-72.28,-6.1,-12.2,20,3,,10.0,30.100393,1020.5,,TRUE,TRUE,,,,,,,CLR,,,,,,,,VFR,,,,,,,,,,,,METAR,164.0
KNFW 150052Z 11003KT 10SM SCT060 06/M01 A3037 RMK AO2 SLP267 T00611006 VISNO N $,KNFW,2019-01-15T00:52:00Z,32.78,-97.43,6.1,-0.6,110,3,,10.0,30.369095,1026.7,,,TRUE,TRUE,,,,,,SCT,6000,,,,,,,VFR,,,,,,,,,,,,SPECI,198.0
KAQP 150052Z AUTO 34003KT 10SM OVC007 M03/M05 A3024 RMK AO2,KAQP,2019-01-15T00:52:00Z,45.22,-96.0,-3.0,-5.0,340,3,,10.0,30.239174,,,TRUE,TRUE,,,,,,,OVC,700,,,,,,,IFR,,,,,,,,,,,,METAR,311.0
KN60 150052Z AUTO 15004KT M10/M11 A3013 RMK AO1 SLP241 T11001111,KN60,2019-01-15T00:52:00Z,47.65,-101.43,-10.0,-11.1,150,4,,,30.129921,1024.1,,TRUE,TRUE,,,,,,,,,,,,,,,,,,,,,,,,,,,METAR,582.0
KP69 150052Z AUTO 35003KT M02/M04 A3020 RMK AO1 SLP260 T10221039 TSNO,KP69,2019-01-15T00:52:00Z,46.15,-115.6,-2.2,-3.9,350,3,,,30.200787,1026.0,,TRUE,TRUE,,,TRUE,,,,,,,,,,,,,,,,,,,,,,,,SPECI,480.0
KCZZ 150052Z AUTO 07010KT 09/07 A2993 RMK AO1 SLP124 P0009 T00890067,KCZZ,2019-01-15T00:52:00Z,32.63,-116.47,8.9,6.7,70,10,,,29.929134,1012.4,,TRUE,TRUE,,,,,,,,,,,,,,,,,,,,,0.09,,,,,,METAR,807.0
KNRB 150052Z 33006KT 10SM OVC012 09/07 A3022 RMK AO2 SLP233 T00940067 $,KNRB,2019-01-15T00:52:00Z,30.38,-81.42,9.4,6.7,330,6,,10.0,30.221457,1023.3,,,TRUE,TRUE,,,,,,OVC,1200,,,,,,,MVFR,,,,,,,,,,,,METAR,5.0
KPYM 150052Z AUTO 00000KT 10SM CLR M07/M09 A3009 RMK AO2 SLP191 T10671094,KPYM,2019-01-15T00:52:00Z,41.92,-70.73,-6.7,-9.4,0,0,,10.0,30.088583,1019.1,,TRUE,TRUE,,,,,,,CLR,,,,,,,,VFR,,,,,,,,,,,,METAR,43.0
KPWK 150052Z 24008KT 8SM OVC012 M03/M07 A3029 RMK AO2 SLP265 T10331072,KPWK,2019-01-15T00:52:00Z,42.12,-87.9,-3.3,-7.2,240,8,,8.0,30.28937,1026.5,,,TRUE,,,,,,,OVC,1200,,,,,,,MVFR,,,,,,,,,,,,METAR,203.0
KLGU 150051Z AUTO 33004KT 9SM CLR M13/M14 A3028 RMK AO2 SLP316 T11281144,KLGU,2019-01-15T00:51:00Z,41.78,-111.85,-12.8,-14.4,330,4,,9.0,30.280512,1031.6,,TRUE,TRUE,,,,,,,CLR,,,,,,,,VFR,,,,,,,,,,,,METAR,1355.0
KOXC 150051Z 32005KT 10SM CLR M04/M12 A3009 RMK AO2 SLP213 T10441122,KOXC,2019-01-15T00:51:00Z,41.47,-73.13,-4.4,-12.2,320,5,,10.0,30.088583,1021.3,,,TRUE,,,,,,,CLR,,,,,,,,VFR,,,,,,,,,,,,METAR,222.0
KOCF 150051Z AUTO 36005KT 10SM CLR 09/07 A3020 RMK AO2 SLP231 T00940067 $,KOCF,2019-01-15T00:51:00Z,29.17,-82.22,9.4,6.7,360,5,,10.0,30.200787,1023.1,,TRUE,TRUE,TRUE,,,,,,CLR,,,,,,,,VFR,,,,,,,,,,,,SPECI,27.0
KMPV 150051Z AUTO 00000KT 10SM CLR M12/M14 A3013 RMK AO2 SLP236 T11221139,KMPV,2019-01-15T00:51:00Z,44.2,-72.57,-12.2,-13.9,0,0,,10.0,30.129921,1023.6,,TRUE,TRUE,,,,,,,CLR,,,,,,,,VFR,,,,,,,,,,,,METAR,343.0
KTPL 150051Z AUTO 09003KT 10SM OVC050 07/03 A3039 RMK AO2 SLP309 T00670028,KTPL,2019-01-15T00:51:00Z,31.13,-97.4,6.7,2.8,90,3,,10.0,30.389763,1030.9,,TRUE,TRUE,,,,,,,OVC,5000,,,,,,,VFR,,,,,,,,,,,,METAR,208.0
MUSC 150051Z VRB01KT 9000 SCT020 20/17 Q1019,MUSC,2019-01-15T00:51:00Z,22.5,-79.95,20.0,17.0,0,1,,5.59,30.088583,,,,,,,,,,,SCT,2000,,,,,,,VFR,,,,,,,,,,,,METAR,103.0
KATT 150051Z AUTO 00000KT 10SM OVC055 08/02 A3039 RMK AO2 SLP296 T00830022,KATT,2019-01-15T00:51:00Z,30.32,-97.77,8.3,2.2,0,0,,10.0,30.389763,1029.6,,TRUE,TRUE,,,,,,,OVC,5500,,,,,,,VFR,,,,,,,,,,,,METAR,201.0
KBVE 150051Z AUTO 36007KT 320V030 10SM OVC017 07/03 A3035 RMK AO2 SLP275 T00670028,KBVE,2019-01-15T00:51:00Z,29.32,-89.4,6.7,2.8,360,7,,10.0,30.351377,1027.5,,TRUE,TRUE,,,,,,,OVC,1700,,,,,,,MVFR,,,,,,,,,,,,SPECI,1.0
KSLK 150051Z AUTO 00000KT 10SM CLR M15/M17 A3006 RMK AO2 SLPNO I1000 T11501167,KSLK,2019-01-15T00:51:00Z,44.4,-74.2,-15.0,-16.7,0,0,,10.0,30.059055,,,TRUE,TRUE,,,,,,,CLR,,,,,,,,VFR,,,,,,,,,,,,METAR,498.0
KSJT 150051Z 00000KT 10SM OVC032 07/03 A3033 RMK AO2 SLP280 T00720028,KSJT,2019-01-15T00:51:00Z,31.37,-100.5,7.2,2.8,0,0,,10.0,30.33071,1028.0,,,TRUE,,,,,,,OVC,3200,,,,,,,VFR,,,,,,,,,,,,METAR,576.0
KSAT 150051Z 04005KT 10SM BKN040 OVC048 08/03 A3037 RMK AO2 SLP277 T00830028,KSAT,2019-01-15T00:51:00Z,29.53,-98.47,8.3,2.8,40,5,,10.0,30.369095,1027.7,,,TRUE,,,,,,,BKN,4000,OVC,4800,,,,,VFR,,,,,,,,,,,,SPECI,243.0
KSAN 150051Z 12006KT 6SM FEW008 FEW013 OVC017 14/12 A2999 RMK AO2 RAE50 SLP154 VCSH P0002 T01390117,KSAN,2019-01-15T00:51:00Z,32.73,-117.18,13.9,11.7,120,6,,6.0,29.991142,1015.4,,,TRUE,,,,,,,FEW,800,FEW,1300,OVC,1700,,,MVFR,,,,,,0.02,,,,,,METAR,12.0
KSAD 150051Z AUTO 00000KT 10SM FEW120 14/03 A3012 RMK AO2 SLP183 T01440028,KSAD,2019-01-15T00:51:00Z,32.85,-109.63,14.4,2.8,0,0,,10.0,30.121063,1018.3,,TRUE,TRUE,,,,,,,FEW,12000,,,,,,,VFR,,,,,,,,,,,,METAR,962.0
KROW 150051Z 16010KT 10SM CLR 04/01 A3026 RMK AO2 SLP236 T00440011,KROW,2019-01-15T00:51:00Z,33.3,-104.5,4.4,1.1,160,10,,10.0,30.259842,1023.6,,,TRUE,,,,,,,CLR,,,,,,,,VFR,,,,,,,,,,,,SPECI,1112.0
KRDU 150051Z 00000KT 10SM FEW045 SCT085 01/M01 A3021 RMK AO2 SLP234 T00061006,KRDU,2019-01-15T00:51:00Z,35.9,-78.78,0.6,-0.6,0,0,,10.0,30.209646,1023.4,,,TRUE,,,,,,,FEW,4500,SCT,8500,,,,,VFR,,,,,,,,,,,,SPECI,130.0
KPWM 150051Z VRB03KT 10SM CLR M07/M11 A3010 RMK AO2 SLP194 T10721111,KPWM,2019-01-15T00:51:00Z,43.65,-70.3,-7.2,-11.1,0,3,,10.0,30.100393,1019.4,,,TRUE,,,,,,,CLR,,,,,,,,VFR,,,,,,,,,,,,METAR,15.0
KPVD 150051Z 00000KT 10SM CLR M05/M08 A3011 RMK AO2 SLP195 T10501078,KPVD,2019-01-15T00:51:00Z,41.72,-71.43,-5.0,-7.8,0,0,,10.0,30.109253,1019.5,,,TRUE,,,,,,,CLR,,,,,,,,VFR,,,,,,,,,,,,SPECI,16.0
KPIT 150051Z 29006KT 10SM OVC033 M02/M06 A3021 RMK AO2 SLP256 T10171056,KPIT,2019-01-15T00:51:00Z,40.5,-80.27,-1.7,-5.6,290,6,,10.0,30.209646,1025.6,,,TRUE,,,,,,,OVC,3300,,,,,,,VFR,,,,,,,,,,,,METAR,357.0
KPHX 150051Z 08004KT 10SM FEW055 FEW070 SCT120 SCT170 BKN220 19/08 A3002 RMK AO2 SLP159 T01890083,KPHX,2019-01-15T00:51:00Z,33.43,-112.02,18.9,8.3,80,4,,10.0,30.02067,1015.9,,,TRUE,,,,,,,FEW,5500,FEW,7000,SCT,12000,SCT,17000,VFR,,,,,,,,,,,,METAR,336.0
KOXR 150051Z 07009KT 10SM FEW110 12/07 A2995 RMK AO2 SLP140 T01170072,KOXR,2019-01-15T00:51:00Z,34.2,-119.2,11.7,7.2,70,9,,10.0,29.949802,1014.0,,,TRUE,,,,,,,FEW,11000,,,,,,,VFR,,,,,,,,,,,,SPECI,20.0
KORF 150051Z 33004KT 10SM CLR 01/M03 A3020 RMK AO2 SLP225 T00111028,KORF,2019-01-15T00:51:00Z,36.9,-76.2,1.1,-2.8,330,4,,10.0,30.200787,1022.5,,,TRUE,,,,,,,CLR,,,,,,,,VFR,,,,,,,,,,,,SPECI,14.0
KORD 150051Z 25009KT 7SM OVC011 M04/M07 A3027 RMK AO2 SLP261 T10441067,KORD,2019-01-15T00:51:00Z,41.98,-87.93,-4.4,-6.7,250,9,,7.0,30.268702,1026.1,,,TRUE,,,,,,,OVC,1100,,,,,,,MVFR,,,,,,,,,,,,METAR,200.0
KMYL 150051Z AUTO 00000KT 10SM CLR M06/M10 A3009 RMK AO2 SLP259 T10611100,KMYL,2019-01-15T00:51:00Z,44.9,-116.1,-6.1,-10.0,0,0,,10.0,30.088583,1025.9,,TRUE,TRUE,,,,,,,CLR,,,,,,,,VFR,,,,,,,,,,,,SPECI,1533.0
KLGA 150051Z VRB04KT 10SM FEW250 00/M12 A3015 RMK AO2 SLP208 T00001117,KLGA,2019-01-15T00:51:00Z,40.78,-73.88,0.0,-11.7,0,4,,10.0,30.15059,1020.8,,,TRUE,,,,,,,FEW,25000,,,,,,,VFR,,,,,,,,,,,,METAR,11.0
KJFK 150051Z 32007KT 10SM FEW250 M02/M12 A3016 RMK AO2 SLP212 T10171117,KJFK,2019-01-15T00:51:00Z,40.63,-73.77,-1.7,-11.7,320,7,,10.0,30.159449,1021.2,,,TRUE,,,,,,,FEW,25000,,,,,,,VFR,,,,,,,,,,,,METAR,9.0
KJCT 150051Z AUTO 00000KT 10SM OVC041 07/03 A3034 RMK AO2 SLP264 T00720028,KJCT,2019-01-15T00:51:00Z,30.5,-99.77,7.2,2.8,0,0,,10.0,30.339567,1026.4,,TRUE,TRUE,,,,,,,OVC,4100,,,,,,,VFR,,,,,,,,,,,,METAR,522.0
KILG 150051Z 27005KT 10SM CLR M03/M11 A3018 RMK AO2 SLP222 T10331106,KILG,2019-01-15T00:51:00Z,39.67,-75.6,-3.3,-10.6,270,5,,10.0,30.180119,1022.2,,,TRUE,,,,,,,CLR,,,,,,,,VFR,,,,,,,,,,,,METAR,28.0
KIGM 150051Z AUTO 30005KT 10SM BKN055 OVC090 11/02 A3005 RMK AO2 SLP147 T01110022,KIGM,2019-01-15T00:51:00Z,35.25,-113.93,11.1,2.2,300,5,,10.0,30.050198,1014.7,,TRUE,TRUE,,,,,,,BKN,5500,OVC,9000,,,,,VFR,,,,,,,,,,,,METAR,1032.0
KHTS 150051Z 31003KT 7SM OVC009 M01/M04 A3028 RMK AO2 SLP262 T10111039,KHTS,2019-01-15T00:51:00Z,38.37,-82.55,-1.1,-3.9,310,3,,7.0,30.280512,1026.2,,,TRUE,,,,,,,OVC,900,,,,,,,IFR,,,,,,,,,,,,SPECI,254.0
KHSE 150051Z AUTO VRB06KT 10SM OVC023 04/M01 A3018 RMK AO2 SLP219 T00391006 TSNO,KHSE,2019-01-15T00:51:00Z,35.23,-75.62,3.9,-0.6,0,6,,10.0,30.180119,1021.9,,TRUE,TRUE,,,TRUE,,,,OVC,2300,,,,,,,MVFR,,,,,,,,,,,,SPECI,3.0
KHDO 150051Z AUTO 15005KT 10SM OVC045 10/04 A3037 RMK AO2 SLP279 T01000039,KHDO,2019-01-15T00:51:00Z,29.37,-99.17,10.0,3.9,150,5,,10.0,30.369095,1027.9,,TRUE,TRUE,,,,,,,OVC,4500,,,,,,,VFR,,,,,,,,,,,,METAR,282.0
KEWR 150051Z 02004KT 10SM FEW250 M02/M12 A3015 RMK AO2 SLP210 T10171117,KEWR,2019-01-15T00:51:00Z,40.68,-74.17,-1.7,-11.7,20,4,,10.0,30.15059,1021.0,,,TRUE,,,,,,,FEW,25000,,,,,,,VFR,,,,,,,,,,,,METAR,7.0
KERI 150051Z 19005KT 10SM OVC016 M03/M07 A3024 RMK AO2 SLP252 T10331072,KERI,2019-01-15T00:51:00Z,42.08,-80.18,-3.3,-7.2,190,5,,10.0,30.239174,1025.2,,,TRUE,,,,,,,OVC,1600,,,,,,,MVFR,,,,,,,,,,,,METAR,222.0
KELP 150051Z 36005KT 10SM BKN200 OVC250 12/02 A3018 RMK AO2 SLP199 T01220022,KELP,2019-01-15T00:51:00Z,31.82,-106.38,12.2,2.2,360,5,,10.0,30.180119,1019.9,,,TRUE,,,,,,,BKN,20000,OVC,25000,,,,,VFR,,,,,,,,,,,,SPECI,1197.0
KEKN 150051Z AUTO 30003KT 5SM BR OVC007 M02/M04 A3019 RMK AO2 SLP249 T10221039 TSNO,KEKN,2019-01-15T00:51:00Z,38.88,-79.85,-2.2,-3.9,300,3,,5.0,30.188976,1024.9,,TRUE,TRUE,,,TRUE,,,BR,OVC,700,,,,,,,IFR,,,,,,,,,,,,SPECI,603.0
KDAW 150051Z AUTO 32003KT 10SM CLR M06/M11 A3008 RMK AO2 SLP188 T10611111,KDAW,2019-01-15T00:51:00Z,43.28,-70.92,-6.1,-11.1,320,3,,10.0,30.079725,1018.8,,TRUE,TRUE,,,,,,,CLR,,,,,,,,VFR,,,,,,,,,,,,METAR,100.0
KCRP 150051Z 05007KT 10SM FEW034 BKN050 OVC060 11/04 A3038 RMK AO2 SLP286 T01060039,KCRP,2019-01-15T00:51:00Z,27.77,-97.5,10.6,3.9,50,7,,10.0,30.380905,1028.6,,,TRUE,,,,,,,FEW,3400,BKN,5000,OVC,6000,,,VFR,,,,,,,,,,,,SPECI,14.0
KCON 150051Z AUTO 00000KT 10SM CLR M06/M12 A3009 RMK AO2 SLP196 T10561122,KCON,2019-01-15T00:51:00Z,43.2,-71.5,-5.6,-12.2,0,0,,10.0,30.088583,1019.6,,TRUE,TRUE,,,,,,,CLR,,,,,,,,VFR,,,,,,,,,,,,SPECI,103.0
KBHK 150051Z AUTO 22006KT 10SM CLR M02/M06 A3007 RMK AO2 SLP217 T10171061,KBHK,2019-01-15T00:51:00Z,46.35,-104.25,-1.7,-6.1,220,6,,10.0,30.070866,1021.7,,TRUE,TRUE,,,,,,,CLR,,,,,,,,VFR,,,,,,,,,,,,METAR,902.0
KBGD 150051Z AUTO 00000KT 10SM CLR 11/00 A3021 RMK AO2 SLP230 T01110000,KBGD,2019-01-15T00:51:00Z,35.7,-101.4,11.1,0.0,0,0,,10.0,30.209646,1023.0,,TRUE,TRUE,,,,,,,CLR,,,,,,,,VFR,,,,,,,,,,,,METAR,927.0
KBDL 150051Z 30004KT 10SM FEW200 SCT250 M07/M11 A3011 RMK AO2 SLP198 T10671106,KBDL,2019-01-15T00:51:00Z,41.93,-72.68,-6.7,-10.6,300,4,,10.0,30.109253,1019.8,,,TRUE,,,,,,,FEW,20000,SCT,25000,,,,,VFR,,,,,,,,,,,,SPECI,60.0
KBAZ 150051Z AUTO 09003KT 10SM OVC050 08/03 A3037 RMK AO2 SLP284 T00830028,KBAZ,2019-01-15T00:51:00Z,29.72,-98.05,8.3,2.8,90,3,,10.0,30.369095,1028.4,,TRUE,TRUE,,,,,,,OVC,5000,,,,,,,VFR,,,,,,,,,,,,METAR,195.0
KALB 150051Z 36003KT 10SM SCT180 BKN220 OVC250 M06/M12 A3017 RMK AO2 SLP223 T10611122,KALB,2019-01-15T00:51:00Z,42.75,-73.8,-6.1,-12.2,360,3,,10.0,30.171259,1022.3,,,TRUE,,,,,,,SCT,18000,BKN,22000,OVC,25000,,,VFR,,,,,,,,,,,,SPECI,92.0
KAHN 150051Z AUTO 28003KT 10SM OVC034 07/03 A3020 RMK AO2 SLP231 T00670028,KAHN,2019-01-15T00:51:00Z,33.95,-83.33,6.7,2.8,280,3,,10.0,30.200787,1023.1,,TRUE,TRUE,,,,,,,OVC,3400,,,,,,,VFR,,,,,,,,,,,,SPECI,244.0
KACT 150051Z 06004KT 9SM CLR 04/00 A3039 RMK AO2 SLP293 T00390000,KACT,2019-01-15T00:51:00Z,31.62,-97.23,3.9,0.0,60,4,,9.0,30.389763,1029.3,,,TRUE,,,,,,,CLR,,,,,,,,VFR,,,,,,,,,,,,METAR,151.0
KABE 150051Z 26004KT 10SM CLR M03/M09 A3015 RMK AO2 SLP214 T10331094,KABE,2019-01-15T00:51:00Z,40.65,-75.45,-3.3,-9.4,260,4,,10.0,30.15059,1021.4,,,TRUE,,,,,,,CLR,,,,,,,,VFR,,,,,,,,,,,,SPECI,114.0
KNYC 150051Z AUTO 10SM CLR M01/M13 A3016 RMK AO2 SLP207 T10111128 $,KNYC,2019-01-15T00:51:00Z,40.78,-73.97,-1.1,-12.8,,,,10.0,30.159449,1020.7,,TRUE,TRUE,TRUE,,,,,,CLR,,,,,,,,VFR,,,,,,,,,,,,METAR,11.0
KSNT 150051Z AUTO 18003KT M13/M17 A3013 RMK AO1 SLP288 T11331167,KSNT,2019-01-15T00:51:00Z,44.17,-114.93,-13.3,-16.7,180,3,,,30.129921,1028.8,,TRUE,TRUE,,,,,,,,,,,,,,,,,,,,,,,,,,,METAR,1980.0
KP58 150051Z AUTO 20005KT M03/M06 A3018 RMK AO1 SLP234 T10281056,KP58,2019-01-15T00:51:00Z,44.02,-82.8,-2.8,-5.6,200,5,,,30.180119,1023.4,,TRUE,TRUE,,,,,,,,,,,,,,,,,,,,,,,,,,,METAR,179.0
KSMX 150051Z 19007KT 4SM R12/5500VP6000FT RA BR FEW023 BKN048 OVC055 12/11 A2991 RMK AO2 SLP130 P0009 T01220106 $,KSMX,2019-01-15T00:51:00Z,34.9,-120.45,12.2,10.6,190,7,,4.0,29.911417,1013.0,,,TRUE,TRUE,,,,,RA BR,FEW,2300,BKN,4800,OVC,5500,,,MVFR,,,,,,0.09,,,,,,SPECI,74.0
KVCT 150051Z 03004KT 10SM OVC060 09/04 A3039 RMK AO2 SLP289 T00940039,KVCT,2019-01-15T00:51:00Z,28.87,-96.93,9.4,3.9,30,4,,10.0,30.389763,1028.9,,,TRUE,,,,,,,OVC,6000,,,,,,,VFR,,,,,,,,,,,,SPECI,31.0
KTEB 150051Z VRB05KT 10SM CLR M02/M12 A3015 RMK AO2 SLP209 T10221117,KTEB,2019-01-15T00:51:00Z,40.87,-74.05,-2.2,-11.7,0,5,,10.0,30.15059,1020.9,,,TRUE,,,,,,,CLR,,,,,,,,VFR,,,,,,,,,,,,SPECI,7.0
KSTL 150051Z 25007KT 8SM OVC016 01/M03 A3034 RMK AO2 SLP287 T00061028,KSTL,2019-01-15T00:51:00Z,38.75,-90.37,0.6,-2.8,250,7,,8.0,30.339567,1028.7,,,TRUE,,,,,,,OVC,1600,,,,,,,MVFR,,,,,,,,,,,,SPECI,171.0
PADG 150051Z 08014KT 15SM FEW030 SCT080 M03/M07 A2986,PADG,2019-01-15T00:51:00Z,68.03,-162.9,-3.0,-7.0,80,14,,15.0,29.861221,,,,,,,,,,,FEW,3000,SCT,8000,,,,,VFR,,,,,,,,,,,,SPECI,297.0
KYNG 150051Z 25005KT 10SM OVC018 M04/M07 A3022 RMK AO2 SLP253 T10441067,KYNG,2019-01-15T00:51:00Z,41.25,-80.67,-4.4,-6.7,250,5,,10.0,30.221457,1025.3,,,TRUE,,,,,,,OVC,1800,,,,,,,MVFR,,,,,,,,,,,,SPECI,360.0
KVNY 150051Z 36006KT 1 1/2SM -RA BR BKN012 OVC021 10/08 A2996 RMK AO2 SLP141 P0006 T01000078,KVNY,2019-01-15T00:51:00Z,34.22,-118.48,10.0,7.8,360,6,,1.5,29.958662,1014.1,,,TRUE,,,,,,-RA BR,BKN,1200,OVC,2100,,,,,IFR,,,,,,0.06,,,,,,METAR,245.0
MMTC 150051Z 06006KT 10SM SCT110 BKN250 21/07 A3014 RMK 8/072,MMTC,2019-01-15T00:51:00Z,25.57,-103.4,21.0,7.0,60,6,,10.0,30.138779,,,,,,,,,,,SCT,11000,BKN,25000,,,,,VFR,,,,,,,,,,,,METAR,1124.0
MMMM 150051Z 33004KT 7SM SCT030 SCT100 BKN230 16/08 A3023 RMK 8/538 HZY,MMMM,2019-01-15T00:51:00Z,19.85,-101.02,16.0,8.0,330,4,,7.0,30.230314,,,,,,,,,,,SCT,3000,SCT,10000,BKN,23000,,,VFR,,,,,,,,,,,,METAR,1833.0
OICS 150051Z 00000KT 9999 FEW040 M01/M02 Q1017,OICS,2019-01-15T00:51:00Z,35.25,47.02,-1.0,-2.0,0,0,,6.21,30.029528,,,,,,,,,,,FEW,4000,,,,,,,VFR,,,,,,,,,,,,METAR,1373.0
OIHH 150051Z 23010G14KT 9999 FEW040 04/M04 Q1015,OIHH,2019-01-15T00:51:00Z,34.87,48.55,4.0,-4.0,230,10,14,6.21,29.970472,,,,,,,,,,,FEW,4000,,,,,,,VFR,,,,,,,,,,,,METAR,1757.0
KP59 150051Z AUTO 03013G23KT M02/M06 A3017 RMK AO1 SLP230 T10171061 $,KP59,2019-01-15T00:51:00Z,47.47,-87.88,-1.7,-6.1,30,13,23,,30.171259,1023.0,,TRUE,TRUE,TRUE,,,,,,,,,,,,,,,,,,,,,,,,,,SPECI,190.0
EGXS 150050Z AUTO 22010KT 9999 // NCD 05/03 Q1018,EGXS,2019-01-15T00:50:00Z,53.48,0.15,5.0,3.0,220,10,,6.21,30.059055,,,TRUE,,,,,,,,CLR,,,,,,,,VFR,,,,,,,,,,,,METAR,3.0
PTRO 150050Z 05010G22KT 15SM SCT017 SCT120 BKN300 29/22 A2983 ,PTRO,2019-01-15T00:50:00Z,7.37,134.55,29.0,22.0,50,10,22,15.0,29.828741,,,,,,,,,,,SCT,1700,SCT,12000,BKN,30000,,,VFR,,,,,,,,,,,,METAR,54.0
BGSF 150050Z AUTO 05005KT 010V070 9999NDV -SN NCD M32/M36 Q1000,BGSF,2019-01-15T00:50:00Z,67.0,-50.72,-32.0,-36.0,50,5,,,29.52756,,,TRUE,,,,,,,-SN,CLR,,,,,,,,,,,,,,,,,,,,METAR,53.0
KHXD 150050Z 35006KT 10SM OVC015 08/05 A3024,KHXD,2019-01-15T00:50:00Z,32.22,-80.7,8.0,5.0,350,6,,10.0,30.239174,,,,,,,,,,,OVC,1500,,,,,,,MVFR,,,,,,,,,,,,METAR,6.0
KEVB 150050Z 01006KT 10SM FEW019 SCT034 12/09 A3020,KEVB,2019-01-15T00:50:00Z,29.05,-80.95,12.0,9.0,10,6,,10.0,30.200787,,,,,,,,,,,FEW,1900,SCT,3400,,,,,VFR,,,,,,,,,,,,METAR,3.0
KVQQ 150050Z 01007KT 10SM OVC030 10/07 A3022,KVQQ,2019-01-15T00:50:00Z,30.22,-81.88,10.0,7.0,10,7,,10.0,30.221457,,,,,,,,,,,OVC,3000,,,,,,,MVFR,,,,,,,,,,,,METAR,25.0
MSSS 150050Z 36011KT 340V040 CAVOK 24/16 Q1016 A3002,MSSS,2019-01-15T00:50:00Z,13.7,-89.12,24.0,16.0,360,11,,6.21,30.0,,,,,,,,,,,CAVOK,,,,,,,,VFR,,,,,,,,,,,,METAR,616.0
MSLP 150050Z 29006KT 9999 FEW079 28/21 Q1011 A2987 NOSIG,MSLP,2019-01-15T00:50:00Z,13.43,-89.05,28.0,21.0,290,6,,6.21,29.852362,,,,,,TRUE,,,,,FEW,7900,,,,,,,VFR,,,,,,,,,,,,METAR,25.0
OAKB 150050Z 31004KT 2000 1000S FU SCT110 M03/M08 Q1022 NOSIG RMK A3020 YLO YLO,OAKB,2019-01-15T00:50:00Z,34.55,69.22,-3.0,-8.0,310,4,,1.24,30.177166,,,,,,TRUE,,,,FU,SCT,11000,,,,,,,IFR,,,,,,,,,,,,METAR,1791.0
LTBF 150050Z 00000KT 9999 SCT035 BKN100 05/05 Q1002 NOSIG,LTBF,2019-01-15T00:50:00Z,39.62,27.92,5.0,5.0,0,0,,6.21,29.586615,,,,,,TRUE,,,,,SCT,3500,BKN,10000,,,,,VFR,,,,,,,,,,,,METAR,102.0
OAMS 150050Z 09016KT 9999 FEW060 BKN080 BKN120 13/M05 Q1014 BLU BLU,OAMS,2019-01-15T00:50:00Z,36.7,67.2,13.0,-5.0,90,16,,6.21,29.940945,,,,,,,,,,,FEW,6000,BKN,8000,BKN,12000,,,VFR,,,,,,,,,,,,METAR,378.0
LTAN 150050Z 11004KT 9000 FEW018 SCT100 00/M00 Q1004 BECMG 4000 BR,LTAN,2019-01-15T00:50:00Z,37.97,32.53,0.0,0.0,110,4,,5.59,29.64567,,,,,,,,,,,FEW,1800,SCT,10000,,,,,VFR,,,,,,,,,,,,METAR,1006.0
LTBQ 150050Z 00000KT 6000 SCT040 BKN100 02/02 Q1002 TEMPO 4000 BR,LTBQ,2019-01-15T00:50:00Z,40.72,30.07,2.0,2.0,0,0,,3.73,29.586615,,,,,,,,,,,SCT,4000,BKN,10000,,,,,MVFR,,,,,,,,,,,,METAR,50.0
LTFG 150050Z VRB02KT 9999 BKN030 10/09 Q1006 RESHRA,LTFG,2019-01-15T00:50:00Z,36.3,32.3,10.0,9.0,0,2,,6.21,29.704725,,,,,,,,,,,BKN,3000,,,,,,,MVFR,,,,,,,,,,,,METAR,95.0
ENBR 150050Z 11004KT 9999 FEW015 BKN038 BKN051 M01/M03 Q1004 RESN RMK WIND 1200FT 13007KT,ENBR,2019-01-15T00:50:00Z,60.28,5.22,-1.0,-3.0,110,4,,6.21,29.64567,,,,,,,,,,,FEW,1500,BKN,3800,BKN,5100,,,VFR,,,,,,,,,,,,METAR,50.0
ENBO 150050Z 08010KT 9999 4000NE -SHSN FEW008 FEW012CB BKN050 M05/M06 Q0992,ENBO,2019-01-15T00:50:00Z,67.27,14.37,-5.0,-6.0,80,10,,6.21,29.291338,,,,,,,,,,-SHSN,FEW,800,FEW,1200,BKN,5000,,,VFR,,,,,,,,,,,,METAR,13.0
LTFD 150050Z 07007KT 9999 SCT030 BKN100 06/04 Q1002,LTFD,2019-01-15T00:50:00Z,39.55,27.02,6.0,4.0,70,7,,6.21,29.586615,,,,,,,,,,,SCT,3000,BKN,10000,,,,,VFR,,,,,,,,,,,,METAR,16.0
LTCN 150050Z 11006KT 070V160 9999 -SHRA SCT030 BKN080 04/02 Q1013 NOSIG,LTCN,2019-01-15T00:50:00Z,37.53,36.95,4.0,2.0,110,6,,6.21,29.911417,,,,,,TRUE,,,,-SHRA,SCT,3000,BKN,8000,,,,,VFR,,,,,,,,,,,,METAR,526.0
LTCB 150050Z VRB01KT 9999 FEW035 BKN090 10/01 Q1005,LTCB,2019-01-15T00:50:00Z,40.97,38.07,10.0,1.0,0,1,,6.21,29.675198,,,,,,,,,,,FEW,3500,BKN,9000,,,,,VFR,,,,,,,,,,,,METAR,5.0
ENVA 150050Z 29017KT 9999 FEW008 SCT032 BKN050 M01/M04 Q0998 RMK WIND 670FT 30022KT,ENVA,2019-01-15T00:50:00Z,63.47,10.92,-1.0,-4.0,290,17,,6.21,29.468504,,,,,,,,,,,FEW,800,SCT,3200,BKN,5000,,,VFR,,,,,,,,,,,,METAR,17.0
ETNG 150050Z 23004KT 9999 FEW028 BKN040 03/02 Q1021,ETNG,2019-01-15T00:50:00Z,50.97,6.03,3.0,2.0,230,4,,6.21,30.147638,,,,,,,,,,,FEW,2800,BKN,4000,,,,,VFR,,,,,,,,,,,,METAR,98.0
KEKM 150050Z 22006KT 7SM OVC012 M04/M06 A3029 RMK AO2,KEKM,2019-01-15T00:50:00Z,41.72,-86.0,-4.0,-6.0,220,6,,7.0,30.28937,,,,TRUE,,,,,,,OVC,1200,,,,,,,MVFR,,,,,,,,,,,,METAR,237.0
KESN 150050Z 00000KT 10SM SKC M04/M07 A3023,KESN,2019-01-15T00:50:00Z,38.8,-76.07,-4.0,-7.0,0,0,,10.0,30.230314,,,,,,,,,,,SKC,,,,,,,,VFR,,,,,,,,,,,,METAR,22.0
KFTG 150050Z 20006KT 10SM FEW220 M06/M13 A3017,KFTG,2019-01-15T00:50:00Z,39.78,-104.55,-6.0,-13.0,200,6,,10.0,30.171259,,,,,,,,,,,FEW,22000,,,,,,,VFR,,,,,,,,,,,,METAR,1675.0
KJQF 150050Z 00000KT 10SM OVC038 04/02 A3022,KJQF,2019-01-15T00:50:00Z,35.38,-80.72,4.0,2.0,0,0,,10.0,30.221457,,,,,,,,,,,OVC,3800,,,,,,,VFR,,,,,,,,,,,,METAR,210.0
KHQZ 150050Z 00000KT 10SM CLR 04/01 A3039,KHQZ,2019-01-15T00:50:00Z,32.75,-96.53,4.0,1.0,0,0,,10.0,30.389763,,,,,,,,,,,CLR,,,,,,,,VFR,,,,,,,,,,,,METAR,136.0
TJBQ 150050Z 08009KT 10SM SCT026 SCT036 OVC050 23/19 A3008,TJBQ,2019-01-15T00:50:00Z,18.5,-67.13,23.0,19.0,80,9,,10.0,30.079725,,,,,,,,,,,SCT,2600,SCT,3600,OVC,5000,,,VFR,,,,,,,,,,,,METAR,72.0
LTAR 150050Z 16021KT 3000 -SN BR BKN005 BKN020 OVC060 M03/M03 Q1006,LTAR,2019-01-15T00:50:00Z,39.8,36.9,-3.0,-3.0,160,21,,1.86,29.704725,,,,,,,,,,-SN BR,BKN,500,BKN,2000,OVC,6000,,,IFR,,,,,,,,,,,,METAR,1271.0
LTDA 150050Z 04011KT 7000 -SHRA BKN025 BKN080 07/06 Q1013 TEMPO -TSRA,LTDA,2019-01-15T00:50:00Z,36.37,36.28,7.0,6.0,40,11,,4.35,29.911417,,,,,,,,,,-SHRA,BKN,2500,BKN,8000,,,,,MVFR,,,,,,,,,,,,METAR,82.0
LTBZ 150050Z 14006KT 9999 BKN020 01/01 Q1001,LTBZ,2019-01-15T00:50:00Z,38.63,27.35,1.0,1.0,140,6,,6.21,29.557087,,,,,,,,,,,BKN,2000,,,,,,,MVFR,,,,,,,,,,,,METAR,73.0
LTBY 150050Z 11007KT 9999 BKN035 BKN100 02/00 Q1002,LTBY,2019-01-15T00:50:00Z,39.82,30.52,2.0,0.0,110,7,,6.21,29.586615,,,,,,,,,,,BKN,3500,BKN,10000,,,,,VFR,,,,,,,,,,,,METAR,789.0
LTAY 150050Z 00000KT 9999 SCT035 BKN100 05/02 Q1002,LTAY,2019-01-15T00:50:00Z,37.77,29.68,5.0,2.0,0,0,,6.21,29.586615,,,,,,,,,,,SCT,3500,BKN,10000,,,,,VFR,,,,,,,,,,,,METAR,849.0
LTCA 150050Z 10009KT 070V160 6000 OVC010 04/01 Q1013 NOSIG,LTCA,2019-01-15T00:50:00Z,38.6,39.27,4.0,1.0,100,9,,3.73,29.911417,,,,,,TRUE,,,,,OVC,1000,,,,,,,MVFR,,,,,,,,,,,,METAR,882.0
LTCD 150050Z 25003KT 210V280 4000 BR SCT040 BKN090 M07/M09 Q1011 NOSIG,LTCD,2019-01-15T00:50:00Z,39.72,39.5,-7.0,-9.0,250,3,,2.49,29.852362,,,,,,TRUE,,,,BR,SCT,4000,BKN,9000,,,,,IFR,,,,,,,,,,,,METAR,1215.0
LTCF 150050Z 27010KT 230V310 7000 BKN030 BKN070 M06/M08 Q1011,LTCF,2019-01-15T00:50:00Z,40.57,43.12,-6.0,-8.0,270,10,,4.35,29.852362,,,,,,,,,,,BKN,3000,BKN,7000,,,,,MVFR,,,,,,,,,,,,METAR,1795.0
LTCI 150050Z VRB02KT 9999 SCT035 BKN080 M02/M06 Q1013 NOSIG,LTCI,2019-01-15T00:50:00Z,38.45,43.32,-2.0,-6.0,0,2,,6.21,29.911417,,,,,,TRUE,,,,,SCT,3500,BKN,8000,,,,,VFR,,,,,,,,,,,,METAR,1661.0
LTFH 150050Z 21008KT 9999 FEW036 BKN100 11/02 Q1004 NOSIG,LTFH,2019-01-15T00:50:00Z,41.27,36.55,11.0,2.0,210,8,,6.21,29.64567,,,,,,TRUE,,,,,FEW,3600,BKN,10000,,,,,VFR,,,,,,,,,,,,METAR,5.0
KOLV 150050Z 35003KT 10SM BKN016 OVC035 01/02 A3037,KOLV,2019-01-15T00:50:00Z,34.98,-89.78,1.0,2.0,350,3,,10.0,30.369095,,,,,,,,,,,BKN,1600,OVC,3500,,,,,MVFR,,,,,,,,,,,,METAR,122.0
KCWF 150050Z 04003KT 10SM SKC 06/03 A3039,KCWF,2019-01-15T00:50:00Z,30.22,-93.15,6.0,3.0,40,3,,10.0,30.389763,,,,,,,,,,,SKC,,,,,,,,VFR,,,,,,,,,,,,METAR,4.0
PGRO 150050Z 05017KT 7SM FEW013 SCT120 27/22 A2988 RMK WIND DATA ESTIMATED,PGRO,2019-01-15T00:50:00Z,14.18,145.25,27.0,22.0,50,17,,7.0,29.878937,,,,,,,,,,,FEW,1300,SCT,12000,,,,,VFR,,,,,,,,,,,,METAR,185.0
KNQA 150050Z 00000KT 10SM OVC018 03/00 A3037,KNQA,2019-01-15T00:50:00Z,35.35,-89.87,3.0,0.0,0,0,,10.0,30.369095,,,,,,,,,,,OVC,1800,,,,,,,MVFR,,,,,,,,,,,,METAR,86.0
EGQL 150050Z 26018KT CAVOK 08/06 Q1010 BLU,EGQL,2019-01-15T00:50:00Z,56.38,-2.87,8.0,6.0,260,18,,6.21,29.822834,,,,,,,,,,,CAVOK,,,,,,,,VFR,,,,,,,,,,,,SPECI,12.0
MUCF 150050Z 22003KT 9999 FEW020 22/19 Q1019,MUCF,2019-01-15T00:50:00Z,22.13,-80.4,22.0,19.0,220,3,,6.21,30.088583,,,,,,,,,,,FEW,2000,,,,,,,VFR,,,,,,,,,,,,METAR,39.0
MUCU 150050Z 04004KT 010V100 9000 FEW020 SCT060 24/18 Q1017,MUCU,2019-01-15T00:50:00Z,19.97,-75.83,24.0,18.0,40,4,,5.59,30.029528,,,,,,,,,,,FEW,2000,SCT,6000,,,,,VFR,,,,,,,,,,,,METAR,76.0
MUHG 150050Z 09008KT 9999 FEW030 23/20 Q1018,MUHG,2019-01-15T00:50:00Z,20.77,-76.32,23.0,20.0,90,8,,6.21,30.059055,,,,,,,,,,,FEW,3000,,,,,,,VFR,,,,,,,,,,,,METAR,106.0
MUCM 150050Z 02007KT 9000 NSC 23/20 Q1018,MUCM,2019-01-15T00:50:00Z,21.42,-77.85,23.0,20.0,20,7,,5.59,30.059055,,,,,,,,,,,CLR,,,,,,,,VFR,,,,,,,,,,,,METAR,122.0
MUCC 150050Z 03005KT 9000 FEW020 23/20 Q1018,MUCC,2019-01-15T00:50:00Z,22.47,-78.33,23.0,20.0,30,5,,5.59,30.059055,,,,,,,,,,,FEW,2000,,,,,,,VFR,,,,,,,,,,,,METAR,4.0
OOMS 150050Z 24003KT CAVOK 20/17 Q1018 NOSIG,OOMS,2019-01-15T00:50:00Z,23.57,58.27,20.0,17.0,240,3,,6.21,30.059055,,,,,,TRUE,,,,,CAVOK,,,,,,,,VFR,,,,,,,,,,,,METAR,8.0
OODQ 150050Z AUTO 10006KT 9999 SCT023 OVC033 22/19 Q1017 NOSIG,OODQ,2019-01-15T00:50:00Z,19.52,57.65,22.0,19.0,100,6,,6.21,30.029528,,,TRUE,,,TRUE,,,,,SCT,2300,OVC,3300,,,,,VFR,,,,,,,,,,,,METAR,0.0
KEFD 150050Z 00000KT 10SM BKN070 11/02 A3039,KEFD,2019-01-15T00:50:00Z,29.6,-95.17,11.0,2.0,0,0,,10.0,30.389763,,,,,,,,,,,BKN,7000,,,,,,,VFR,,,,,,,,,,,,METAR,10.0
KDAG 150050Z AUTO 08009KT 10SM OVC070 09/06 A2997 RMK AO2 RAE26 SLP146 P0000 T00940061,KDAG,2019-01-15T00:50:00Z,34.85,-116.78,9.4,6.1,80,9,,10.0,29.970472,1014.6,,TRUE,TRUE,,,,,,,OVC,7000,,,,,,,VFR,,,,,,0.005,,,,,,METAR,587.0
KGEU 150050Z 06004KT 10SM SCT080 BKN120 19/09 A3005,KGEU,2019-01-15T00:50:00Z,33.53,-112.3,19.0,9.0,60,4,,10.0,30.050198,,,,,,,,,,,SCT,8000,BKN,12000,,,,,VFR,,,,,,,,,,,,METAR,325.0
MUVR 150050Z 02006KT 9000 FEW020 21/18 Q1020,MUVR,2019-01-15T00:50:00Z,23.03,-81.43,21.0,18.0,20,6,,5.59,30.11811,,,,,,,,,,,FEW,2000,,,,,,,VFR,,,,,,,,,,,,METAR,65.0
LICA 150050Z 07004KT 030V110 9999 FEW020 BKN060 12/02 Q1006,LICA,2019-01-15T00:50:00Z,38.88,16.25,12.0,2.0,70,4,,6.21,29.704725,,,,,,,,,,,FEW,2000,BKN,6000,,,,,VFR,,,,,,,,,,,,METAR,15.0
LIPO 150050Z 21003KT CAVOK 05/M06 Q1013,LIPO,2019-01-15T00:50:00Z,45.42,10.33,5.0,-6.0,210,3,,6.21,29.911417,,,,,,,,,,,CAVOK,,,,,,,,VFR,,,,,,,,,,,,METAR,109.0
LGBL 150050Z 28007KT 9999 -RA SCT030 BKN080 05/M00 Q1003,LGBL,2019-01-15T00:50:00Z,39.22,22.8,5.0,0.0,280,7,,6.21,29.616142,,,,,,,,,,-RA,SCT,3000,BKN,8000,,,,,VFR,,,,,,,,,,,,METAR,26.0
EEKE 150050Z AUTO 30009KT 260V350 2300NDV -SN SCT008 BKN017 BKN035 M03/M03 Q0983,EEKE,2019-01-15T00:50:00Z,58.23,22.52,-3.0,-3.0,300,9,,,29.02559,,,TRUE,,,,,,,-SN,SCT,800,BKN,1700,BKN,3500,,,,,,,,,,,,,,,METAR,4.0
LGRX 150050Z 02014KT 9999 FEW018 BKN025 OVC080 09/06 Q0999,LGRX,2019-01-15T00:50:00Z,38.17,21.42,9.0,6.0,20,14,,6.21,29.498032,,,,,,,,,,,FEW,1800,BKN,2500,OVC,8000,,,MVFR,,,,,,,,,,,,METAR,15.0
LGPZ 150050Z 05008KT 9999 FEW016 SCT025 OVC070 07/05 Q1001,LGPZ,2019-01-15T00:50:00Z,38.92,20.77,7.0,5.0,50,8,,6.21,29.557087,,,,,,,,,,,FEW,1600,SCT,2500,OVC,7000,,,VFR,,,,,,,,,,,,METAR,4.0
EETU 150050Z 25008KT 9999 SCT040 M04/M06 Q0981,EETU,2019-01-15T00:50:00Z,58.32,26.68,-4.0,-6.0,250,8,,6.21,28.966536,,,,,,,,,,,SCT,4000,,,,,,,VFR,,,,,,,,,,,,METAR,67.0
EGMC 150050Z 26006KT CAVOK 04/01 Q1022,EGMC,2019-01-15T00:50:00Z,51.57,0.7,4.0,1.0,260,6,,6.21,30.177166,,,,,,,,,,,CAVOK,,,,,,,,VFR,,,,,,,,,,,,METAR,15.0
KSBD 150050Z 12004KT 4SM -RA FEW005 OVC038 11/09 A2998,KSBD,2019-01-15T00:50:00Z,34.08,-117.25,11.0,9.0,120,4,,4.0,29.97933,,,,,,,,,,-RA,FEW,500,OVC,3800,,,,,MVFR,,,,,,,,,,,,METAR,353.0
KLAL 150050Z 33007KT 10SM SKC 13/09 A3018,KLAL,2019-01-15T00:50:00Z,27.97,-82.02,13.0,9.0,330,7,,10.0,30.180119,,,,,,,,,,,SKC,,,,,,,,VFR,,,,,,,,,,,,METAR,43.0
EGPK 150050Z 22010KT 9999 FEW007 SCT017 BKN020 09/07 Q1015,EGPK,2019-01-15T00:50:00Z,55.5,-4.57,9.0,7.0,220,10,,6.21,29.970472,,,,,,,,,,,FEW,700,SCT,1700,BKN,2000,,,MVFR,,,,,,,,,,,,METAR,20.0
EGJB 150050Z 30004KT 280V360 9999 BKN030 08/02 Q1025,EGJB,2019-01-15T00:50:00Z,49.42,-2.6,8.0,2.0,300,4,,6.21,30.265747,,,,,,,,,,,BKN,3000,,,,,,,MVFR,,,,,,,,,,,,METAR,102.0
PALP 150050Z 09016G26KT 1 1/2SM BLSN BKN004 BKN060 OVC110 M23/M26 A3026,PALP,2019-01-15T00:50:00Z,70.33,-150.93,-23.0,-26.0,90,16,26,1.5,30.259842,,,,,,,,,,BLSN,BKN,400,BKN,6000,OVC,11000,,,LIFR,,,,,,,,,,,,METAR,5.0
PTPN 150050Z 06004KT 15SM BKN018 OVC300 29/26 A2973 ,PTPN,2019-01-15T00:50:00Z,6.97,158.22,29.0,26.0,60,4,,15.0,29.731298,,,,,,,,,,,BKN,1800,OVC,30000,,,,,MVFR,,,,,,,,,,,,METAR,2.0
LIRZ 150050Z AUTO VRB01KT 9999 NCD M01/M04 Q1011,LIRZ,2019-01-15T00:50:00Z,43.1,12.5,-1.0,-4.0,0,1,,6.21,29.852362,,,TRUE,,,,,,,,CLR,,,,,,,,VFR,,,,,,,,,,,,METAR,205.0
EGQM 150050Z AUTO 22011KT 9999 BKN021/// SCT100/// BKN130/// 08/06 Q1013,EGQM,2019-01-15T00:50:00Z,55.42,-1.6,8.0,6.0,220,11,,6.21,29.911417,,,TRUE,,,,,,,,BKN,2100,SCT,10000,BKN,13000,,,MVFR,,,,,,,,,,,,SPECI,23.0
EGDY 150050Z 24004KT 9999 BKN028 07/03 Q1024 BLU,EGDY,2019-01-15T00:50:00Z,51.0,-2.62,7.0,3.0,240,4,,6.21,30.236221,,,,,,,,,,,BKN,2800,,,,,,,MVFR,,,,,,,,,,,,METAR,23.0
MMGM 150050Z 27009KT 10SM OVC140 20/17 A2999 RMK 8/01/,MMGM,2019-01-15T00:50:00Z,27.95,-110.92,20.0,17.0,270,9,,10.0,29.991142,,,,,,,,,,,OVC,14000,,,,,,,VFR,,,,,,,,,,,,METAR,20.0
MMLP 150050Z 10005KT 7SM FEW020 BKN100 OVC200 18/18 A3004 RMK 8/537,MMLP,2019-01-15T00:50:00Z,24.07,-110.37,18.0,18.0,100,5,,7.0,30.041338,,,,,,,,,,,FEW,2000,BKN,10000,OVC,20000,,,VFR,,,,,,,,,,,,METAR,21.0
LCRA 150050Z 23021G33KT 9999 SCT030 OVC050 16/11 Q1007 RESHRA TEMPO 7000 SHRA BKN024CB,LCRA,2019-01-15T00:50:00Z,34.57,32.97,16.0,11.0,230,21,33,6.21,29.734253,,,,,,,,,,,SCT,3000,OVC,5000,,,,,VFR,,,,,,,,,,,,METAR,23.0
EGYP 150050Z 29009KT 9999 FEW020 BKN200 10/05 Q1005 BLU,EGYP,2019-01-15T00:50:00Z,-51.82,-58.45,10.0,5.0,290,9,,6.21,29.675198,,,,,,,,,,,FEW,2000,BKN,20000,,,,,VFR,,,,,,,,,,,,METAR,74.0
KRHV 150050Z 17010KT 10SM BKN040 12/10 A2984,KRHV,2019-01-15T00:50:00Z,37.32,-121.82,12.0,10.0,170,10,,10.0,29.840551,,,,,,,,,,,BKN,4000,,,,,,,VFR,,,,,,,,,,,,METAR,41.0
EGQS 150050Z 24013KT CAVOK 08/06 Q1006 BLU,EGQS,2019-01-15T00:50:00Z,57.72,-3.32,8.0,6.0,240,13,,6.21,29.704725,,,,,,,,,,,CAVOK,,,,,,,,VFR,,,,,,,,,,,,METAR,13.0
EGVN 150050Z 24002KT 9999 FEW045 01/M00 Q1022 NOSIG,EGVN,2019-01-15T00:50:00Z,51.77,-1.58,1.0,0.0,240,2,,6.21,30.177166,,,,,,TRUE,,,,,FEW,4500,,,,,,,VFR,,,,,,,,,,,,METAR,88.0
LXGB 150050Z AUTO 27015KT 9999 // NCD 13/09 Q1019,LXGB,2019-01-15T00:50:00Z,36.13,-5.33,13.0,9.0,270,15,,6.21,30.088583,,,TRUE,,,,,,,,CLR,,,,,,,,VFR,,,,,,,,,,,,METAR,5.0
OOSH 150050Z AUTO 00000KT //// 19/16 Q1018,OOSH,2019-01-15T00:50:00Z,24.55,56.62,19.0,16.0,0,0,,,30.059055,,,TRUE,,,,,,,,,,,,,,,,,,,,,,,,,,,,METAR,35.0
ENOL 150050Z 31013KT 9999 VCSH FEW012CB SCT025 BKN040 M00/M05 Q0997 RESHSN,ENOL,2019-01-15T00:50:00Z,63.7,9.58,0.0,-5.0,310,13,,6.21,29.438976,,,,,,,,,,VCSH,FEW,1200,SCT,2500,BKN,4000,,,VFR,,,,,,,,,,,,METAR,7.0
ENSB 150050Z 12010KT 9999 FEW025 M15/M21 Q1002 RMK WIND 1400FT 08005KT,ENSB,2019-01-15T00:50:00Z,78.25,15.47,-15.0,-21.0,120,10,,6.21,29.586615,,,,,,,,,,,FEW,2500,,,,,,,VFR,,,,,,,,,,,,METAR,29.0
EGYD 150050Z AUTO 25015KT 9999 // NCD 04/02 Q1019,EGYD,2019-01-15T00:50:00Z,53.03,-0.5,4.0,2.0,250,15,,6.21,30.088583,,,TRUE,,,,,,,,CLR,,,,,,,,VFR,,,,,,,,,,,,METAR,67.0
EGXW 150050Z AUTO 25009KT 9999 NCD 05/02 Q1019,EGXW,2019-01-15T00:50:00Z,53.18,-0.52,5.0,2.0,250,9,,6.21,30.088583,,,TRUE,,,,,,,,CLR,,,,,,,,VFR,,,,,,,,,,,,METAR,70.0
EGXU 150050Z AUTO 23008KT 9999 // BKN013/// 08/06 Q1017,EGXU,2019-01-15T00:50:00Z,54.05,-1.25,8.0,6.0,230,8,,6.21,30.029528,,,TRUE,,,,,,,,BKN,1300,,,,,,,MVFR,,,,,,,,,,,,METAR,16.0
EGXE 150050Z AUTO 25011KT 9999 BKN021/// 08/06 Q1016,EGXE,2019-01-15T00:50:00Z,54.28,-1.52,8.0,6.0,250,11,,6.21,30.0,,,TRUE,,,,,,,,BKN,2100,,,,,,,MVFR,,,,,,,,,,,,METAR,40.0
EGVP 150050Z AUTO 15002KT 9999 // NCD 02/01 Q1023,EGVP,2019-01-15T00:50:00Z,51.13,-1.57,2.0,1.0,150,2,,6.21,30.206694,,,TRUE,,,,,,,,CLR,,,,,,,,VFR,,,,,,,,,,,,METAR,91.0
EGOP 150050Z AUTO 26010KT 9999 // BKN031/// 09/07 Q1023,EGOP,2019-01-15T00:50:00Z,51.72,-4.32,9.0,7.0,260,10,,6.21,30.206694,,,TRUE,,,,,,,,BKN,3100,,,,,,,VFR,,,,,,,,,,,,METAR,6.0
EGOM 150050Z AUTO 25022KT 5000 BR OVC001/// 06/06 Q1013 RERA,EGOM,2019-01-15T00:50:00Z,55.05,-2.55,6.0,6.0,250,22,,3.11,29.911417,,,TRUE,,,,,,,BR,OVC,100,,,,,,,LIFR,,,,,,,,,,,,METAR,325.0
EGOV 150050Z AUTO 24019KT 9999 FEW019/// BKN023/// BKN031/// 09/07 Q1021,EGOV,2019-01-15T00:50:00Z,53.25,-4.53,9.0,7.0,240,19,,6.21,30.147638,,,TRUE,,,,,,,,FEW,1900,BKN,2300,BKN,3100,,,MVFR,,,,,,,,,,,,METAR,11.0
PTSA 150050Z 05015KT 10SM BKN017 BKN130 OVC300 28/25 A2973 ,PTSA,2019-01-15T00:50:00Z,5.35,162.95,28.0,25.0,50,15,,10.0,29.731298,,,,,,,,,,,BKN,1700,BKN,13000,OVC,30000,,,MVFR,,,,,,,,,,,,METAR,3.0
EGDX 150050Z AUTO 27009KT 9999 OVC023/// 08/05 Q1023,EGDX,2019-01-15T00:50:00Z,51.4,-3.43,8.0,5.0,270,9,,6.21,30.206694,,,TRUE,,,,,,,,OVC,2300,,,,,,,MVFR,,,,,,,,,,,,METAR,50.0
EGYM 150050Z 24009KT CAVOK 03/02 Q1020 BLU,EGYM,2019-01-15T00:50:00Z,52.63,0.57,3.0,2.0,240,9,,6.21,30.11811,,,,,,,,,,,CAVOK,,,,,,,,VFR,,,,,,,,,,,,METAR,23.0
EGXV 150050Z AUTO 25011KT 9999 BKN014/// 06/04 Q1017,EGXV,2019-01-15T00:50:00Z,53.87,-0.45,6.0,4.0,250,11,,6.21,30.029528,,,TRUE,,,,,,,,BKN,1400,,,,,,,MVFR,,,,,,,,,,,,METAR,6.0
EGXC 150050Z 25010KT 9999 FEW025 SCT250 04/02 Q1019 BLU,EGXC,2019-01-15T00:50:00Z,53.1,-0.17,4.0,2.0,250,10,,6.21,30.088583,,,,,,,,,,,FEW,2500,SCT,25000,,,,,VFR,,,,,,,,,,,,METAR,7.0
EGDR 150050Z 26006KT 9999 FEW016 SCT022 OVC023 09/05 Q1025 WHT,EGDR,2019-01-15T00:50:00Z,50.08,-5.25,9.0,5.0,260,6,,6.21,30.265747,,,,,,,,,,,FEW,1600,SCT,2200,OVC,2300,,,MVFR,,,,,,,,,,,,METAR,82.0
OITU 150050Z 23004KT 9999 BKN040 M03/M05 Q1012,OITU,2019-01-15T00:50:00Z,39.33,44.43,-3.0,-5.0,230,4,,6.21,29.88189,,,,,,,,,,,BKN,4000,,,,,,,VFR,,,,,,,,,,,,METAR,1364.0
OITL 150050Z 20019G31KT 9999 FEW100 01/M04 Q1010,OITL,2019-01-15T00:50:00Z,38.33,48.42,1.0,-4.0,200,19,31,6.21,29.822834,,,,,,,,,,,FEW,10000,,,,,,,VFR,,,,,,,,,,,,METAR,1316.0
EGWU 150050Z AUTO 26007KT 9999 // NCD 03/01 Q1022,EGWU,2019-01-15T00:50:00Z,51.55,-0.42,3.0,1.0,260,7,,6.21,30.177166,,,TRUE,,,,,,,,CLR,,,,,,,,VFR,,,,,,,,,,,,METAR,40.0
OICK 150050Z 25010KT 9999 FEW040 SCT090 08/05 Q1017,OICK,2019-01-15T00:50:00Z,33.43,48.28,8.0,5.0,250,10,,6.21,30.029528,,,,,,,,,,,FEW,4000,SCT,9000,,,,,VFR,,,,,,,,,,,,METAR,1155.0
OIGK 150050Z AUTO 26004KT //// // ////// M03/M07 Q1014,OIGK,2019-01-15T00:50:00Z,34.28,47.12,-3.0,-7.0,260,4,,,29.940945,,,TRUE,,,,,,,,,,,,,,,,,,,,,,,,,,,,METAR,1322.0
OIHM 150050Z 36006KT 9999 FEW035 04/M03 Q1017,OIHM,2019-01-15T00:50:00Z,34.28,48.82,4.0,-3.0,360,6,,6.21,30.029528,,,,,,,,,,,FEW,3500,,,,,,,VFR,,,,,,,,,,,,METAR,1726.0
EGXZ 150050Z AUTO 20008KT 9999 BKN013/// BKN027/// 07/06 Q1017,EGXZ,2019-01-15T00:50:00Z,54.2,-1.38,7.0,6.0,200,8,,6.21,30.029528,,,TRUE,,,,,,,,BKN,1300,BKN,2700,,,,,MVFR,,,,,,,,,,,,METAR,28.0
EGXT 150050Z AUTO 24010KT 9999 NCD 03/01 Q1020,EGXT,2019-01-15T00:50:00Z,52.62,-0.47,3.0,1.0,240,10,,6.21,30.11811,,,TRUE,,,,,,,,CLR,,,,,,,,VFR,,,,,,,,,,,,METAR,84.0
EGVO 150050Z AUTO 26008KT 9999 NCD 04/02 Q1023,EGVO,2019-01-15T00:50:00Z,51.23,-0.95,4.0,2.0,260,8,,6.21,30.206694,,,TRUE,,,,,,,,CLR,,,,,,,,VFR,,,,,,,,,,,,METAR,123.0
EGUW 150050Z AUTO 26008KT 9999 NCD 02/01 Q1021,EGUW,2019-01-15T00:50:00Z,52.12,0.97,2.0,1.0,260,8,,6.21,30.147638,,,TRUE,,,,,,,,CLR,,,,,,,,VFR,,,,,,,,,,,,METAR,87.0
EGUB 150050Z AUTO 13002KT 9999 // FEW035/// M02/M03 Q1023,EGUB,2019-01-15T00:50:00Z,51.62,-1.07,-2.0,-3.0,130,2,,6.21,30.206694,,,TRUE,,,,,,,,FEW,3500,,,,,,,VFR,,,,,,,,,,,,METAR,63.0
EGQK 150050Z AUTO 23014KT 9999 FEW050/// SCT070/// 09/06 Q1006,EGQK,2019-01-15T00:50:00Z,57.65,-3.57,9.0,6.0,230,14,,6.21,29.704725,,,TRUE,,,,,,,,FEW,5000,SCT,7000,,,,,VFR,,,,,,,,,,,,METAR,7.0
EGOS 150050Z AUTO 22007KT 9999 BKN031/// 05/04 Q1021,EGOS,2019-01-15T00:50:00Z,52.8,-2.67,5.0,4.0,220,7,,6.21,30.147638,,,TRUE,,,,,,,,BKN,3100,,,,,,,VFR,,,,,,,,,,,,METAR,76.0
EGDM 150050Z AUTO 24006KT 9999 NCD 03/02 Q1023,EGDM,2019-01-15T00:50:00Z,51.17,-1.75,3.0,2.0,240,6,,6.21,30.206694,,,TRUE,,,,,,,,CLR,,,,,,,,VFR,,,,,,,,,,,,METAR,124.0
BGBW 150050Z AUTO VRB02KT 9999NDV OVC065/// M03/M08 Q0999,BGBW,2019-01-15T00:50:00Z,61.17,-45.42,-3.0,-8.0,0,2,,,29.498032,,,TRUE,,,,,,,,OVC,6500,,,,,,,,,,,,,,,,,,,METAR,26.0
BGGH 150050Z AUTO 09006KT 9999NDV -SHSN BKN019/// M10/M13 Q0996,BGGH,2019-01-15T00:50:00Z,64.2,-51.68,-10.0,-13.0,90,6,,,29.409449,,,TRUE,,,,,,,-SHSN,BKN,1900,,,,,,,,,,,,,,,,,,,METAR,70.0
BGJN 150050Z AUTO 14007KT 9999NDV NCD M23/M30 Q0999,BGJN,2019-01-15T00:50:00Z,69.25,-51.07,-23.0,-30.0,140,7,,,29.498032,,,TRUE,,,,,,,,CLR,,,,,,,,,,,,,,,,,,,,METAR,25.0
BGKK 150050Z AUTO 11012KT 9999NDV NCD M11/M17 Q1006,BGKK,2019-01-15T00:50:00Z,65.57,-37.13,-11.0,-17.0,110,12,,,29.704725,,,TRUE,,,,,,,,CLR,,,,,,,,,,,,,,,,,,,,METAR,34.0
EGNS 150050Z 25015KT 9999 BKN009 BKN048 09/07 Q1018 NOSIG,EGNS,2019-01-15T00:50:00Z,54.08,-4.63,9.0,7.0,250,15,,6.21,30.059055,,,,,,TRUE,,,,,BKN,900,BKN,4800,,,,,IFR,,,,,,,,,,,,METAR,17.0
LGSA 150050Z 28006KT 8000 -RA SCT020 SCT025 OVC080 09/08 Q0993,LGSA,2019-01-15T00:50:00Z,35.53,24.13,9.0,8.0,280,6,,4.97,29.320866,,,,,,,,,,-RA,SCT,2000,SCT,2500,OVC,8000,,,MVFR,,,,,,,,,,,,METAR,135.0
LGKO 150050Z 12004KT 9999 -RA FEW016TCU BKN025 09/08 Q1000,LGKO,2019-01-15T00:50:00Z,36.8,27.08,9.0,8.0,120,4,,6.21,29.52756,,,,,,,,,,-RA,FEW,1600,BKN,2500,,,,,MVFR,,,,,,,,,,,,METAR,125.0
ENAT 150050Z AUTO 16003KT 9999 BKN023/// OVC044/// M06/M08 Q0990 RMK WIND 700FT 14005KT,ENAT,2019-01-15T00:50:00Z,69.97,23.37,-6.0,-8.0,160,3,,6.21,29.232283,,,TRUE,,,,,,,,BKN,2300,OVC,4400,,,,,MVFR,,,,,,,,,,,,SPECI,3.0
ENOA 150050Z 16015KT 9999 -SHRA BKN012 02/M01 Q1002 W///S6,ENOA,2019-01-15T00:50:00Z,60.5,2.83,2.0,-1.0,160,15,,6.21,29.586615,,,,,,,,,,-SHRA,BKN,1200,,,,,,,MVFR,,,,,,,,,,,,METAR,5.0
ENGC 150050Z 18014KT 2500 SHSN BKN006 00/M02 Q1000 W04/S6,ENGC,2019-01-15T00:50:00Z,61.02,2.02,0.0,-2.0,180,14,,1.55,29.52756,,,,,,,,,,SHSN,BKN,600,,,,,,,IFR,,,,,,,,,,,,SPECI,10.0
KHME 150050Z 00000KT 9999 FEW035 06/05 Q1013,KHME,2019-01-15T00:50:00Z,,,6.0,5.0,0,0,,6.21,29.911417,,,,,,,,,,,FEW,3500,,,,,,,VFR,,,,,,,,,,,,METAR,
EGXP 150050Z AUTO 24013KT 9999 // NCD 04/02 Q1018,EGXP,2019-01-15T00:50:00Z,53.3,-0.55,4.0,2.0,240,13,,6.21,30.059055,,,TRUE,,,,,,,,CLR,,,,,,,,VFR,,,,,,,,,,,,METAR,61.0
KVCV 150049Z 12004KT 10SM RA- OVC070 A2994,KVCV,2019-01-15T00:49:00Z,34.58,-117.38,,,120,4,,10.0,29.940945,,,,,,,,,,RA,OVC,7000,,,,,,,VFR,,,,,,,,,,,,METAR,876.0
MMML 150049Z 31006KT 10SM OVC050 14/10 A3002 RMK 8/5//,MMML,2019-01-15T00:49:00Z,32.62,-115.23,14.0,10.0,310,6,,10.0,30.02067,,,,,,,,,,,OVC,5000,,,,,,,VFR,,,,,,,,,,,,METAR,22.0
MMGL 150049Z 14005KT 8SM FEW030CB BKN100 BKN300 21/09 A3018 RMK 8/363,MMGL,2019-01-15T00:49:00Z,20.52,-103.32,21.0,9.0,140,5,,8.0,30.180119,,,,,,,,,,,FEW,3000,BKN,10000,BKN,30000,,,VFR,,,,,,,,,,,,METAR,1528.0
MMPR 150049Z 12005KT 15SM BKN120 OVC150 25/21 A3000 RMK 8/07/,MMPR,2019-01-15T00:49:00Z,20.67,-105.25,25.0,21.0,120,5,,15.0,30.0,,,,,,,,,,,BKN,12000,OVC,15000,,,,,VFR,,,,,,,,,,,,METAR,6.0
MMAA 150049Z 27007KT 7SM FEW100 28/23 A2989 RMK 8/030 HZY,MMAA,2019-01-15T00:49:00Z,16.75,-99.75,28.0,23.0,270,7,,7.0,29.890747,,,,,,,,,,,FEW,10000,,,,,,,VFR,,,,,,,,,,,,METAR,5.0
MMMD 150049Z 01006KT 7SM SCT020 23/19 A3014 RMK 8/400,MMMD,2019-01-15T00:49:00Z,20.95,-89.65,23.0,19.0,10,6,,7.0,30.138779,,,,,,,,,,,SCT,2000,,,,,,,VFR,,,,,,,,,,,,METAR,10.0
KSUA 150048Z 01006KT 7SM SKC 17/12 A3015,KSUA,2019-01-15T00:48:00Z,27.18,-80.22,17.0,12.0,10,6,,7.0,30.15059,,,,,,,,,,,SKC,,,,,,,,VFR,,,,,,,,,,,,METAR,6.0
KHSA 150048Z 32008KT 7SM OVC018 06/03 A3035,KHSA,2019-01-15T00:48:00Z,30.37,-89.45,6.0,3.0,320,8,,7.0,30.351377,,,,,,,,,,,OVC,1800,,,,,,,MVFR,,,,,,,,,,,,METAR,7.0
KALN 150048Z 26007KT 10SM OVC015 00/M02 A3035,KALN,2019-01-15T00:48:00Z,38.88,-90.03,0.0,-2.0,260,7,,10.0,30.351377,,,,,,,,,,,OVC,1500,,,,,,,MVFR,,,,,,,,,,,,METAR,166.0
KRYY 150048Z 34007KT 10SM OVC018 04/01 A3026 RMK AO2 SLP967 T00440011,KRYY,2019-01-15T00:48:00Z,34.02,-84.6,4.4,1.1,340,7,,10.0,30.259842,996.7,,,TRUE,,,,,,,OVC,1800,,,,,,,MVFR,,,,,,,,,,,,METAR,317.0
KASG 150048Z 20005KT 10SM OVC008 00/00 A3036,KASG,2019-01-15T00:48:00Z,36.17,-94.12,0.0,0.0,200,5,,10.0,30.360237,,,,,,,,,,,OVC,800,,,,,,,IFR,,,,,,,,,,,,METAR,412.0
KSCH 150048Z 02003KT 10SM CLR M07/M12 A3017,KSCH,2019-01-15T00:48:00Z,42.85,-73.92,-7.0,-12.0,20,3,,10.0,30.171259,,,,,,,,,,,CLR,,,,,,,,VFR,,,,,,,,,,,,METAR,115.0
KJDN 150048Z AUTO 00000KT M04/M09 A3004 RMK AO1 SLP219 T10441094,KJDN,2019-01-15T00:48:00Z,47.33,-106.95,-4.4,-9.4,0,0,,,30.041338,1021.9,,TRUE,TRUE,,,,,,,,,,,,,,,,,,,,,,,,,,,SPECI,801.0
MMQT 150048Z 06010KT 10SM SKC 14/06 A3034 RMK CI,MMQT,2019-01-15T00:48:00Z,20.62,-100.18,14.0,6.0,60,10,,10.0,30.339567,,,,,,,,,,,SKC,,,,,,,,VFR,,,,,,,,,,,,METAR,1919.0
MMTG 150048Z 31017KT 10SM BKN080 23/16 A3006 RMK 8/030 ISOLD SC,MMTG,2019-01-15T00:48:00Z,16.57,-93.03,23.0,16.0,310,17,,10.0,30.059055,,,,,,,,,,,BKN,8000,,,,,,,VFR,,,,,,,,,,,,METAR,528.0
MMPQ 150048Z 00000KT 5SM FEW020 24/21 A3000 RMK 8/100 HZY,MMPQ,2019-01-15T00:48:00Z,17.53,-91.98,24.0,21.0,0,0,,5.0,30.0,,,,,,,,,,,FEW,2000,,,,,,,MVFR,,,,,,,,,,,,METAR,61.0
KPAO 150047Z 15009KT 10SM VCSH SCT030 BKN065 BKN100 14/ A2986,KPAO,2019-01-15T00:47:00Z,37.47,-122.12,14.0,,150,9,,10.0,29.861221,,,,,,,,,,VCSH,SCT,3000,BKN,6500,BKN,10000,,,VFR,,,,,,,,,,,,METAR,2.0
KTIX 150047Z 34005KT 7SM CLR 13/09 A3018,KTIX,2019-01-15T00:47:00Z,28.5,-80.8,13.0,9.0,340,5,,7.0,30.180119,,,,,,,,,,,CLR,,,,,,,,VFR,,,,,,,,,,,,METAR,11.0
KSQL 150047Z 14008KT 10SM BKN040 BKN047 OVC060 13/08 A2985,KSQL,2019-01-15T00:47:00Z,37.52,-122.25,13.0,8.0,140,8,,10.0,29.84941,,,,,,,,,,,BKN,4000,BKN,4700,OVC,6000,,,VFR,,,,,,,,,,,,METAR,1.0
KFDK 150047Z 00000KT 10SM SKC M08/M08 A3023,KFDK,2019-01-15T00:47:00Z,39.42,-77.37,-8.0,-8.0,0,0,,10.0,30.230314,,,,,,,,,,,SKC,,,,,,,,VFR,,,,,,,,,,,,METAR,92.0
KGYR 150047Z 07004KT 10SM SCT120 BKN200 18/10 A3004,KGYR,2019-01-15T00:47:00Z,33.42,-112.37,18.0,10.0,70,4,,10.0,30.041338,,,,,,,,,,,SCT,12000,BKN,20000,,,,,VFR,,,,,,,,,,,,METAR,295.0
KGYH 150047Z 00000KT 10SM -DZ OVC032 06/04 A3018,KGYH,2019-01-15T00:47:00Z,34.75,-82.38,6.0,4.0,0,0,,10.0,30.180119,,,,,,,,,,-DZ,OVC,3200,,,,,,,VFR,,,,,,,,,,,,METAR,292.0
KHUM 150047Z 02008KT 7SM OVC019 06/03 A3036,KHUM,2019-01-15T00:47:00Z,29.57,-90.67,6.0,3.0,20,8,,7.0,30.360237,,,,,,,,,,,OVC,1900,,,,,,,MVFR,,,,,,,,,,,,METAR,3.0
KCIC 150047Z 17008KT 10SM -RA BKN030 BKN045 OVC090 10/05 A2992,KCIC,2019-01-15T00:47:00Z,39.78,-121.83,10.0,5.0,170,8,,10.0,29.920275,,,,,,,,,,-RA,BKN,3000,BKN,4500,OVC,9000,,,MVFR,,,,,,,,,,,,METAR,73.0
KSAW 150047Z 31004KT 10SM OVC013 M02/M03 A3012,KSAW,2019-01-15T00:47:00Z,46.35,-87.4,-2.0,-3.0,310,4,,10.0,30.121063,,,,,,,,,,,OVC,1300,,,,,,,MVFR,,,,,,,,,,,,METAR,372.0
KCHD 150047Z 09003KT 10SM FEW070 BKN200 19/08 A3004,KCHD,2019-01-15T00:47:00Z,33.27,-111.82,19.0,8.0,90,3,,10.0,30.041338,,,,,,,,,,,FEW,7000,BKN,20000,,,,,VFR,,,,,,,,,,,,METAR,379.0
KAEG 150047Z VRB04KT 10SM FEW050 SCT090 BKN110 02/01 A3026,KAEG,2019-01-15T00:47:00Z,35.13,-106.8,2.0,1.0,0,4,,10.0,30.259842,,,,,,,,,,,FEW,5000,SCT,9000,BKN,11000,,,VFR,,,,,,,,,,,,METAR,1779.0
KBCT 150047Z 03005KT 10SM SCT039 18/14 A3012,KBCT,2019-01-15T00:47:00Z,26.38,-80.1,18.0,14.0,30,5,,10.0,30.121063,,,,,,,,,,,SCT,3900,,,,,,,VFR,,,,,,,,,,,,METAR,4.0
KADS 150047Z 03003KT 10SM SKC 05/00 A3039,KADS,2019-01-15T00:47:00Z,32.97,-96.82,5.0,0.0,30,3,,10.0,30.389763,,,,,,,,,,,SKC,,,,,,,,VFR,,,,,,,,,,,,METAR,196.0
MMMX 150047Z 33007KT 7SM SCT020 17/05 A3032 NOSIG RMK 8/400 HZY ISOL AC,MMMX,2019-01-15T00:47:00Z,19.42,-99.08,17.0,5.0,330,7,,7.0,30.318897,,,,,,TRUE,,,,,SCT,2000,,,,,,,VFR,,,,,,,,,,,,METAR,2238.0
KPOC 150047Z 08007KT 1 1/4SM RA SCT009 OVC017 10/09 A2997,KPOC,2019-01-15T00:47:00Z,34.1,-117.77,10.0,9.0,80,7,,1.25,29.970472,,,,,,,,,,RA,SCT,900,OVC,1700,,,,,IFR,,,,,,,,,,,,METAR,308.0
KAPG 150046Z 00000KT 10SM CLR M08/M11 A3020 RMK SLP231,KAPG,2019-01-15T00:46:00Z,39.47,-76.17,-8.0,-11.0,0,0,,10.0,30.200787,1023.1,,,,,,,,,,CLR,,,,,,,,VFR,,,,,,,,,,,,SPECI,18.0
MMCV 150046Z 29006KT 1SM -DZ BR OVC005 12/12 A3032 RMK 60025 8/6// VRB COND,MMCV,2019-01-15T00:46:00Z,23.72,-98.97,12.0,12.0,290,6,,1.0,30.318897,,,,,,,,,,-DZ BR,OVC,500,,,,,,,IFR,,,,,,,,,,,,METAR,238.0
MMLT 150046Z 00000KT 10SM FEW030 SCT130 OVC200 19/18 A3003 RMK 8/537,MMLT,2019-01-15T00:46:00Z,26.02,-111.33,19.0,18.0,0,0,,10.0,30.029528,,,,,,,,,,,FEW,3000,SCT,13000,OVC,20000,,,VFR,,,,,,,,,,,,METAR,15.0
MMTJ 150046Z 07006KT 4SM -RA OVC010 12/11 A2999 RMK 60055 8/7//,MMTJ,2019-01-15T00:46:00Z,32.53,-116.97,12.0,11.0,70,6,,4.0,29.991142,,,,,,,,,,-RA,OVC,1000,,,,,,,MVFR,,,,,,,,,,,,METAR,152.0
MMTO 150046Z 16011KT 4SM SCT020 SCT200 12/06 A3036 RMK 8/402 HZY,MMTO,2019-01-15T00:46:00Z,19.35,-99.57,12.0,6.0,160,11,,4.0,30.360237,,,,,,,,,,,SCT,2000,SCT,20000,,,,,MVFR,,,,,,,,,,,,METAR,2576.0
KMHR 150045Z 14011KT 10SM OVC060 11/07 A2989,KMHR,2019-01-15T00:45:00Z,38.53,-121.28,11.0,7.0,140,11,,10.0,29.890747,,,,,,,,,,,OVC,6000,,,,,,,VFR,,,,,,,,,,,,METAR,29.0
PAKU 150045Z 09024G29KT 3/4SM R06/5500FT BLSN BR VV006 M24/M26 A3025,PAKU,2019-01-15T00:45:00Z,70.32,-149.58,-24.0,-26.0,90,24,29,0.75,30.250984,,,,,,,,,,BLSN BR,OVX,0,,,,,,,LIFR,,,,,,,,,,,600,METAR,2.0
KRYN 150045Z 06004KT 10SM CLR 18/06 A3008,KRYN,2019-01-15T00:45:00Z,32.15,-111.17,18.0,6.0,60,4,,10.0,30.079725,,,,,,,,,,,CLR,,,,,,,,VFR,,,,,,,,,,,,METAR,737.0
KMOX 150045Z AUTO 00000KT 10SM OVC007 M04/M05 A3024 RMK AO1,KMOX,2019-01-15T00:45:00Z,45.57,-95.97,-4.0,-5.0,0,0,,10.0,30.239174,,,TRUE,TRUE,,,,,,,OVC,700,,,,,,,IFR,,,,,,,,,,,,METAR,344.0
KOUN 150045Z 14006KT 10SM CLR 04/00 A3031,KOUN,2019-01-15T00:45:00Z,35.25,-97.47,4.0,0.0,140,6,,10.0,30.31004,,,,,,,,,,,CLR,,,,,,,,VFR,,,,,,,,,,,,METAR,357.0
KANE 150045Z 34004KT 10SM SCT006 OVC013 M01/M01 A3023,KANE,2019-01-15T00:45:00Z,45.15,-93.22,-1.0,-1.0,340,4,,10.0,30.230314,,,,,,,,,,,SCT,600,OVC,1300,,,,,MVFR,,,,,,,,,,,,METAR,278.0
KWDG 150045Z 14007KT 7SM FEW200 02/01 A3030,KWDG,2019-01-15T00:45:00Z,36.37,-97.77,2.0,1.0,140,7,,7.0,30.301182,,,,,,,,,,,FEW,20000,,,,,,,VFR,,,,,,,,,,,,METAR,356.0
KATW 150045Z 27006KT 10SM OVC012 M02/M06 A3017,KATW,2019-01-15T00:45:00Z,44.27,-88.52,-2.0,-6.0,270,6,,10.0,30.171259,,,,,,,,,,,OVC,1200,,,,,,,MVFR,,,,,,,,,,,,METAR,280.0
KMWC 150045Z 24008KT 10SM OVC015 M02/M06 A3023,KMWC,2019-01-15T00:45:00Z,43.12,-88.03,-2.0,-6.0,240,8,,10.0,30.230314,,,,,,,,,,,OVC,1500,,,,,,,MVFR,,,,,,,,,,,,METAR,227.0
KUES 150045Z 23006KT 7SM OVC012 M04/M06 A3023,KUES,2019-01-15T00:45:00Z,43.05,-88.25,-4.0,-6.0,230,6,,7.0,30.230314,,,,,,,,,,,OVC,1200,,,,,,,MVFR,,,,,,,,,,,,METAR,278.0
KLBE 150045Z 23006KT 10SM OVC030 M01/M03 A3020,KLBE,2019-01-15T00:45:00Z,40.27,-79.4,-1.0,-3.0,230,6,,10.0,30.200787,,,,,,,,,,,OVC,3000,,,,,,,MVFR,,,,,,,,,,,,METAR,361.0
KBJC 150045Z 25007KT 70SM FEW250 00/M15 A3017,KBJC,2019-01-15T00:45:00Z,39.9,-105.1,0.0,-15.0,250,7,,70.0,30.171259,,,,,,,,,,,FEW,25000,,,,,,,VFR,,,,,,,,,,,,METAR,1724.0
KEMT 150045Z 08007KT 1 1/4SM -RA OVC021 12/11 A2999,KEMT,2019-01-15T00:45:00Z,34.07,-118.02,12.0,11.0,80,7,,1.25,29.991142,,,,,,,,,,-RA,OVC,2100,,,,,,,IFR,,,,,,,,,,,,METAR,90.0
KMER 150045Z 13012KT 5SM -RA SCT040 OVC060 11/11 A2991,KMER,2019-01-15T00:45:00Z,37.38,-120.57,11.0,11.0,130,12,,5.0,29.911417,,,,,,,,,,-RA,SCT,4000,OVC,6000,,,,,MVFR,,,,,,,,,,,,METAR,57.0
KBAK 150045Z 00000KT 10SM SKC M09/M11 A3032,KBAK,2019-01-15T00:45:00Z,39.27,-85.9,-9.0,-11.0,0,0,,10.0,30.318897,,,,,,,,,,,SKC,,,,,,,,VFR,,,,,,,,,,,,METAR,200.0
KCGF 150045Z 24007KT 10SM BKN020 M05/M08 A3024,KCGF,2019-01-15T00:45:00Z,41.57,-81.47,-5.0,-8.0,240,7,,10.0,30.239174,,,,,,,,,,,BKN,2000,,,,,,,MVFR,,,,,,,,,,,,METAR,268.0
KGYY 150045Z 23007KT 7SM OVC013 M03/M06 A3030,KGYY,2019-01-15T00:45:00Z,41.62,-87.42,-3.0,-6.0,230,7,,7.0,30.301182,,,,,,,,,,,OVC,1300,,,,,,,MVFR,,,,,,,,,,,,METAR,180.0
KBBG 150045Z 00000KT 7SM OVC010 00/M01 A3034,KBBG,2019-01-15T00:45:00Z,36.53,-93.2,0.0,-1.0,0,0,,7.0,30.339567,,,,,,,,,,,OVC,1000,,,,,,,MVFR,,,,,,,,,,,,METAR,397.0
KJVL 150045Z 28008KT 3SM BR BKN006 OVC012 M03/M03 A3026,KJVL,2019-01-15T00:45:00Z,42.62,-89.05,-3.0,-3.0,280,8,,3.0,30.259842,,,,,,,,,,BR,BKN,600,OVC,1200,,,,,IFR,,,,,,,,,,,,METAR,246.0
KBBB 150045Z AUTO 00000KT 10SM OVC011 M03/M04 A3024 RMK AO1,KBBB,2019-01-15T00:45:00Z,45.32,-95.65,-3.0,-4.0,0,0,,10.0,30.239174,,,TRUE,TRUE,,,,,,,OVC,1100,,,,,,,MVFR,,,,,,,,,,,,METAR,317.0
PHJH 150045Z 04008KT 15SM SCT045 29/15 A3000,PHJH,2019-01-15T00:45:00Z,20.97,-156.67,29.0,15.0,40,8,,15.0,30.0,,,,,,,,,,,SCT,4500,,,,,,,VFR,,,,,,,,,,,,METAR,78.0
KMTN 150045Z 00000KT 10SM SKC M04/M06 A3021,KMTN,2019-01-15T00:45:00Z,39.32,-76.42,-4.0,-6.0,0,0,,10.0,30.209646,,,,,,,,,,,SKC,,,,,,,,VFR,,,,,,,,,,,,METAR,7.0
KMMU 150045Z 00000KT 10SM SKC M07/M08 A3015,KMMU,2019-01-15T00:45:00Z,40.78,-74.42,-7.0,-8.0,0,0,,10.0,30.15059,,,,,,,,,,,SKC,,,,,,,,VFR,,,,,,,,,,,,METAR,57.0
MMSD 150045Z 33007KT 8SM DZ FEW050 BKN140 OVC200 20/15 A3009 RMK 60025 8/527 DZB32,MMSD,2019-01-15T00:45:00Z,23.13,-109.7,20.0,15.0,330,7,,8.0,30.088583,,,,,,,,,,DZ,FEW,5000,BKN,14000,OVC,20000,,,VFR,,,,,,,,,,,,METAR,109.0
MMEP 150045Z 12003KT 10SM SCT030 BKN100 OVC250 21/17 A3012 RMK 8/557,MMEP,2019-01-15T00:45:00Z,21.42,-104.85,21.0,17.0,120,3,,10.0,30.121063,,,,,,,,,,,SCT,3000,BKN,10000,OVC,25000,,,VFR,,,,,,,,,,,,METAR,922.0
MMIA 150045Z 20005KT 8SM SCT020 BKN200 22/18 A3008 RMK 8/201,MMIA,2019-01-15T00:45:00Z,19.27,-103.57,22.0,18.0,200,5,,8.0,30.079725,,,,,,,,,,,SCT,2000,BKN,20000,,,,,VFR,,,,,,,,,,,,METAR,723.0
MMBT 150045Z 00000KT 7SM BKN220 27/21 A2991 RMK 8/001 HZY,MMBT,2019-01-15T00:45:00Z,15.77,-96.27,27.0,21.0,0,0,,7.0,29.911417,,,,,,,,,,,BKN,22000,,,,,,,VFR,,,,,,,,,,,,METAR,143.0
LHUD 150045Z 31017G29KT CAVOK 01/M04 Q1009,LHUD,2019-01-15T00:45:00Z,46.25,20.1,1.0,-4.0,310,17,29,6.21,29.793306,,,,,,,,,,,CAVOK,,,,,,,,VFR,,,,,,,,,,,,METAR,84.0
MMCE 150045Z 02013KT 7SM SCT010 24/21 A3010 RMK 8/500,MMCE,2019-01-15T00:45:00Z,18.65,-91.8,24.0,21.0,20,13,,7.0,30.100393,,,,,,,,,,,SCT,1000,,,,,,,VFR,,,,,,,,,,,,METAR,2.0
OIKO 150045Z AUTO 11002KT //// // ////// 17/15 Q1018,OIKO,2019-01-15T00:45:00Z,27.13,57.1,17.0,15.0,110,2,,,30.059055,,,TRUE,,,,,,,,,,,,,,,,,,,,,,,,,,,,METAR,27.0
LIRP 150045Z 34005KT CAVOK 10/M04 Q1011 NOSIG,LIRP,2019-01-15T00:45:00Z,43.67,10.37,10.0,-4.0,340,5,,6.21,29.852362,,,,,,TRUE,,,,,CAVOK,,,,,,,,VFR,,,,,,,,,,,,METAR,2.0
CYMJ 150044Z 25008KT 15SM FEW300 M00/M04 A2998 RMK CI2 LAST OBS / NXT 151000 UTC SLP188,CYMJ,2019-01-15T00:44:00Z,50.32,-105.53,0.0,-4.0,250,8,,15.0,29.97933,1018.8,,,,,,,,,,FEW,30000,,,,,,,VFR,,,,,,,,,,,,SPECI,577.0
MMDO 150044Z 17008KT 10SM BKN025 OVC200 18/01 A3022 RMK 8/507 ISOL AC,MMDO,2019-01-15T00:44:00Z,24.12,-104.52,18.0,1.0,170,8,,10.0,30.221457,,,,,,,,,,,BKN,2500,OVC,20000,,,,,MVFR,,,,,,,,,,,,METAR,1857.0
MMSP 150044Z 09008KT 10SM FEW018 BKN080 13/07 A3034 RMK 8/530,MMSP,2019-01-15T00:44:00Z,22.25,-100.93,13.0,7.0,90,8,,10.0,30.339567,,,,,,,,,,,FEW,1800,BKN,8000,,,,,VFR,,,,,,,,,,,,METAR,1903.0
MMCP 150044Z 01012KT 7SM SCT080 24/20 A3010 RMK 8/030,MMCP,2019-01-15T00:44:00Z,19.82,-90.5,24.0,20.0,10,12,,7.0,30.100393,,,,,,,,,,,SCT,8000,,,,,,,VFR,,,,,,,,,,,,METAR,5.0
MMMZ 150043Z 35008KT 10SM SCT050 BKN090 OVC120 24/20 A2998 RMK 8/47/,MMMZ,2019-01-15T00:43:00Z,23.17,-106.27,24.0,20.0,350,8,,10.0,29.97933,,,,,,,,,,,SCT,5000,BKN,9000,OVC,12000,,,VFR,,,,,,,,,,,,METAR,10.0
MMSL 150043Z 30008KT 8SM -RA SCT040 BKN065 BKN100 OVC220 18/15 A3011 RMK 8/577 INTMNT RA,MMSL,2019-01-15T00:43:00Z,22.95,-109.93,18.0,15.0,300,8,,8.0,30.109253,,,,,,,,,,-RA,SCT,4000,BKN,6500,BKN,10000,OVC,22000,VFR,,,,,,,,,,,,METAR,140.0
MMLO 150043Z 01008KT 8SM FEW220 16/07 A3031 RMK 8/002,MMLO,2019-01-15T00:43:00Z,21.0,-101.47,16.0,7.0,10,8,,8.0,30.31004,,,,,,,,,,,FEW,22000,,,,,,,VFR,,,,,,,,,,,,METAR,1819.0
MMZH 150043Z 27003KT 7SM FEW100 SCT250 28/23 A2993 RMK 8/032 HZY,MMZH,2019-01-15T00:43:00Z,17.6,-101.47,28.0,23.0,270,3,,7.0,29.929134,,,,,,,,,,,FEW,10000,SCT,25000,,,,,VFR,,,,,,,,,,,,METAR,6.0
MMVA 150043Z 00000KT 7SM SCT016TCU 22/20 A3012 RMK 8/200,MMVA,2019-01-15T00:43:00Z,18.0,-92.82,22.0,20.0,0,0,,7.0,30.121063,,,,,,,,,,,SCT,1600,,,,,,,VFR,,,,,,,,,,,,METAR,13.0
MMZO 150042Z 27008KT 8SM FEW020TCU BKN210 27/21 A2996 RMK 8/204 HZY,MMZO,2019-01-15T00:42:00Z,19.13,-104.57,27.0,21.0,270,8,,8.0,29.958662,,,,,,,,,,,FEW,2000,BKN,21000,,,,,VFR,,,,,,,,,,,,METAR,8.0
MMCB 150042Z 00000KT 8SM SCT030 SCT080 22/09 A3013 RMK 8/530 HZY,MMCB,2019-01-15T00:42:00Z,18.83,-99.27,22.0,9.0,0,0,,8.0,30.129921,,,,,,,,,,,SCT,3000,SCT,8000,,,,,VFR,,,,,,,,,,,,METAR,1560.0
MMOX 150042Z 31003KT 12SM SCT040 SCT210 17/06 A3030 RMK 8/406,MMOX,2019-01-15T00:42:00Z,17.0,-96.72,17.0,6.0,310,3,,12.0,30.301182,,,,,,,,,,,SCT,4000,SCT,21000,,,,,VFR,,,,,,,,,,,,METAR,1528.0
MMPA 150042Z 01008KT 5SM SCT025 19/18 A3020 RMK 8/500 HZY,MMPA,2019-01-15T00:42:00Z,20.5,-97.47,19.0,18.0,10,8,,5.0,30.200787,,,,,,,,,,,SCT,2500,,,,,,,MVFR,,,,,,,,,,,,METAR,142.0
MMVR 150042Z 02008KT 7SM FEW008 SCT250 22/20 A3017 RMK 8/101 HZY,MMVR,2019-01-15T00:42:00Z,19.15,-96.18,22.0,20.0,20,8,,7.0,30.171259,,,,,,,,,,,FEW,800,SCT,25000,,,,,VFR,,,,,,,,,,,,METAR,16.0
MMUN 150042Z 36008KT 6SM BKN015 OVC080 21/21 A3012 RMK 8/77/ HZY INTMT RA,MMUN,2019-01-15T00:42:00Z,21.02,-86.85,21.0,21.0,360,8,,6.0,30.121063,,,,,,,,,,,BKN,1500,OVC,8000,,,,,MVFR,,,,,,,,,,,,METAR,10.0
MMMY 150041Z 11006KT 2SM BR BKN005 OVC008 10/// A3032 RMK 8/6//,MMMY,2019-01-15T00:41:00Z,25.77,-100.08,,,110,6,,2.0,30.318897,,,,,,,,,,BR,BKN,500,OVC,800,,,,,IFR,,,,,,,,,,,,METAR,387.0
MMPB 150041Z 14008KT 10SM SCT220 12/04 A3034 RMK 8/002 HZY,MMPB,2019-01-15T00:41:00Z,19.17,-98.37,12.0,4.0,140,8,,10.0,30.339567,,,,,,,,,,,SCT,22000,,,,,,,VFR,,,,,,,,,,,,METAR,2244.0
MMCM 150041Z 00000KT 7SM BKN015CB 22/22 A3008 RMK 8/300,MMCM,2019-01-15T00:41:00Z,18.5,-88.33,22.0,22.0,0,0,,7.0,30.079725,,,,,,,,,,,BKN,1500,,,,,,,MVFR,,,,,,,,,,,,METAR,12.0
MMTM 150040Z 35012KT 1SM -RA BR BKN004 OVC010 17/17 A3024 RMK 8/6// -DZE-RAB35 VRB CONDS,MMTM,2019-01-15T00:40:00Z,22.27,-97.87,17.0,17.0,350,12,,1.0,30.239174,,,,,,,,,,-RA BR,BKN,400,OVC,1000,,,,,LIFR,,,,,,,,,,,,METAR,24.0
MMMA 150040Z 36009KT 6SM BKN015 OVC070 13/12 A3031 RMK 8/15/ HZ,MMMA,2019-01-15T00:40:00Z,25.77,-97.52,13.0,12.0,360,9,,6.0,30.31004,,,,,,,,,,,BKN,1500,OVC,7000,,,,,MVFR,,,,,,,,,,,,SPECI,8.0
MMCU 150040Z 00000KT 10SM SCT200 14/02 A3016 RMK 8/001 ISOL AC,MMCU,2019-01-15T00:40:00Z,28.7,-105.97,14.0,2.0,0,0,,10.0,30.159449,,,,,,,,,,,SCT,20000,,,,,,,VFR,,,,,,,,,,,,METAR,1372.0
MMCS 150040Z 00000KT 10SM FEW140 BKN230 13/02 A3021 RMK 8/018,MMCS,2019-01-15T00:40:00Z,31.62,-106.42,13.0,2.0,0,0,,10.0,30.209646,,,,,,,,,,,FEW,14000,BKN,23000,,,,,VFR,,,,,,,,,,,,SPECI,1171.0
MMAN 150040Z 11004KT 3SM BR BKN005 OVC008 10/09 A3035 RMK 8/7//,MMAN,2019-01-15T00:40:00Z,25.87,-100.23,10.0,9.0,110,4,,3.0,30.351377,,,,,,,,,,BR,BKN,500,OVC,800,,,,,IFR,,,,,,,,,,,,METAR,448.0
MMNL 150040Z 00000KT 10SM OVC030 10/04 A3036 RMK 8/5//,MMNL,2019-01-15T00:40:00Z,27.42,-99.57,10.0,4.0,0,0,,10.0,30.360237,,,,,,,,,,,OVC,3000,,,,,,,MVFR,,,,,,,,,,,,METAR,148.0
MMMV 150040Z 04008KT 6SM BR HZ BKN020 OVC030 09/05 A3030 RMK8/5//,MMMV,2019-01-15T00:40:00Z,26.95,-101.47,9.0,5.0,40,8,,6.0,30.301182,,,,,,,,,,BR HZ,BKN,2000,OVC,3000,,,,,MVFR,,,,,,,,,,,,METAR,615.0
MMCN 150040Z 26004KT 10SM BKN080 OVC200 19/11 A3002 RMK 8/037 HZY,MMCN,2019-01-15T00:40:00Z,27.4,-109.83,19.0,11.0,260,4,,10.0,30.02067,,,,,,,,,,,BKN,8000,OVC,20000,,,,,VFR,,,,,,,,,,,,METAR,43.0
MMCL 150040Z 35005KT 10SM SCT040 BKN070 BKN250 22/14 A3003 RMK 8/538,MMCL,2019-01-15T00:40:00Z,24.77,-107.47,22.0,14.0,350,5,,10.0,30.029528,,,,,,,,,,,SCT,4000,BKN,7000,BKN,25000,,,VFR,,,,,,,,,,,,METAR,39.0
MMIO 150040Z 00000KT 1/4SM FG OVC001 06/05 A3034 RMK 8/7//,MMIO,2019-01-15T00:40:00Z,25.55,-100.93,6.0,5.0,0,0,,0.25,30.339567,,,,,,,,,,FG,OVC,100,,,,,,,LIFR,,,,,,,,,,,,METAR,1790.0
MMHO 150040Z 07004KT 10SM BKN090 21/09 A3004 RMK 8/020,MMHO,2019-01-15T00:40:00Z,29.08,-111.05,21.0,9.0,70,4,,10.0,30.041338,,,,,,,,,,,BKN,9000,,,,,,,VFR,,,,,,,,,,,,METAR,184.0
MMPN 150040Z 00000KT 6SM FEW040CB SCT090 BKN120 OVC270 19/14 A3017 RMK 8/363 HZY ISOL DSNT CBS ARND,MMPN,2019-01-15T00:40:00Z,19.38,-102.02,19.0,14.0,0,0,,6.0,30.171259,,,,,,,,,,,FEW,4000,SCT,9000,BKN,12000,OVC,27000,VFR,,,,,,,,,,,,METAR,1593.0
MMPS 150040Z 00000KT 7SM FEW015 SCT250 27/22 A2999 RMK 8/101 HZY,MMPS,2019-01-15T00:40:00Z,15.87,-97.07,27.0,22.0,0,0,,7.0,29.991142,,,,,,,,,,,FEW,1500,SCT,25000,,,,,VFR,,,,,,,,,,,,METAR,88.0
MMTP 150040Z 00000KT 10SM SCT030 SCT100 25/23 A2989 RMK 8/460 HZY,MMTP,2019-01-15T00:40:00Z,14.77,-92.37,25.0,23.0,0,0,,10.0,29.890747,,,,,,,,,,,SCT,3000,SCT,10000,,,,,VFR,,,,,,,,,,,,METAR,29.0
VEBN 150030Z 24005KT 1800 BR NSC 10/07 Q1017 BECMG 1500 BR,VEBN,2019-01-15T00:30:00Z,25.45,82.85,10.0,7.0,240,5,,1.12,30.029528,,,,,,,,,,BR,CLR,,,,,,,,IFR,,,,,,,,,,,,METAR,83.0
LEVX 150030Z 23006KT 200V260 CAVOK 05/04 Q1021 NOSIG,LEVX,2019-01-15T00:30:00Z,42.22,-8.62,5.0,4.0,230,6,,6.21,30.147638,,,,,,TRUE,,,,,CAVOK,,,,,,,,VFR,,,,,,,,,,,,METAR,256.0
YMAV 150030Z AUTO 18007KT 150V210 //// // NCD 30/19 Q1008 RF00.0/000.0 PRESENT WEATHER SENSOR US,YMAV,2019-01-15T00:30:00Z,-38.03,144.48,30.0,19.0,180,7,,,29.763779,,,TRUE,,,,,,,,CLR,,,,,,,,,,,,,,,,,,,,METAR,8.0
RJNY 150027Z 33002KT 9999 -SHRA FEW025 BKN050 BKN220 08/M00 Q1022 RMK 1CU025 5SC050 A3021,RJNY,2019-01-15T00:27:00Z,34.82,138.3,8.0,0.0,330,2,,6.21,30.177166,,,,,,,,,,-SHRA,FEW,2500,BKN,5000,BKN,22000,,,VFR,,,,,,,,,,,,METAR,10.0
KROX 150026Z AUTO 19004KT 7SM CLR M12/M14 A3023 RMK AO2,KROX,2019-01-15T00:26:00Z,48.85,-95.7,-12.0,-14.0,190,4,,7.0,30.230314,,,TRUE,TRUE,,,,,,,CLR,,,,,,,,VFR,,,,,,,,,,,,SPECI,323.0
