No errors
No warnings
589 ms
data source=metars
4601 results
raw_text,station_id,observation_time,latitude,longitude,temp_c,dewpoint_c,wind_dir_degrees,wind_speed_kt,wind_gust_kt,visibility_statute_mi,altim_in_hg,sea_level_pressure_mb,corrected,auto,auto_station,maintenance_indicator_on,no_signal,lightning_sensor_off,freezing_rain_sensor_off,present_weather_sensor_off,wx_string,sky_cover,cloud_base_ft_agl,sky_cover,cloud_base_ft_agl,sky_cover,cloud_base_ft_agl,sky_cover,cloud_base_ft_agl,flight_category,three_hr_pressure_tendency_mb,maxT_c,minT_c,maxT24hr_c,minT24hr_c,precip_in,pcp3hr_in,pcp6hr_in,pcp24hr_in,snow_in,vert_vis_ft,metar_type,elevation_m
KESN 140317Z AUTO 36009KT 10SM SCT027 OVC037 M01/M07 A3027 RMK AO2 T10071070,KESN,2019-01-14T03:17:00Z,38.8,-76.07,-0.7,-7.0,360,9,,10.0,30.268702,,,TRUE,TRUE,,,,,,,SCT,2700,OVC,3700,,,,,VFR,,,,,,,,,,,,SPECI,22.0
KBAX 140316Z AUTO 00000KT 10SM CLR M09/M10 A3036 RMK AO2 T10891103,KBAX,2019-01-14T03:16:00Z,43.78,-82.98,-8.9,-10.3,0,0,,10.0,30.360237,,,TRUE,TRUE,,,,,,,CLR,,,,,,,,VFR,,,,,,,,,,,,METAR,234.0
KANE 140316Z AUTO 22007KT 10SM OVC026 02/M03 A3028 RMK AO2,KANE,2019-01-14T03:16:00Z,45.15,-93.22,2.0,-3.0,220,7,,10.0,30.280512,,,TRUE,TRUE,,,,,,,OVC,2600,,,,,,,MVFR,,,,,,,,,,,,METAR,278.0
KY63 140316Z AUTO 23008KT 10SM OVC009 M02/M03 A3023 RMK AO2 T10211027,KY63,2019-01-14T03:16:00Z,45.98,-96.0,-2.1,-2.7,230,8,,10.0,30.230314,,,TRUE,TRUE,,,,,,,OVC,900,,,,,,,IFR,,,,,,,,,,,,METAR,367.0
KRZT 140316Z AUTO 36003KT 10SM OVC028 M01/M03 A3026 RMK AO2,KRZT,2019-01-14T03:16:00Z,39.43,-83.02,-1.0,-3.0,360,3,,10.0,30.259842,,,TRUE,TRUE,,,,,,,OVC,2800,,,,,,,MVFR,,,,,,,,,,,,METAR,221.0
KROS 140316Z AUTO 22008KT 10SM OVC015 00/M03 A3028 RMK AO2 T00001029,KROS,2019-01-14T03:16:00Z,45.7,-92.95,0.0,-2.9,220,8,,10.0,30.280512,,,TRUE,TRUE,,,,,,,OVC,1500,,,,,,,MVFR,,,,,,,,,,,,METAR,281.0
KRNP 140316Z AUTO 00000KT 10SM CLR M08/M09 A3037 RMK AO2 T10791095,KRNP,2019-01-14T03:16:00Z,43.0,-84.13,-7.9,-9.5,0,0,,10.0,30.369095,,,TRUE,TRUE,,,,,,,CLR,,,,,,,,VFR,,,,,,,,,,,,METAR,224.0
KRMY 140316Z AUTO 00000KT 10SM CLR M06/M09 A3034 RMK AO2 T10591088,KRMY,2019-01-14T03:16:00Z,42.23,-84.95,-5.9,-8.8,0,0,,10.0,30.339567,,,TRUE,TRUE,,,,,,,CLR,,,,,,,,VFR,,,,,,,,,,,,METAR,287.0
KPOV 140316Z AUTO 02005KT 10SM CLR M06/M08 A3026 RMK AO2 T10581085 PWINO,KPOV,2019-01-14T03:16:00Z,41.22,-81.25,-5.8,-8.5,20,5,,10.0,30.259842,,,TRUE,TRUE,,,,,TRUE,,CLR,,,,,,,,VFR,,,,,,,,,,,,METAR,365.0
KPNM 140316Z AUTO 20005KT 10SM OVC016 01/M02 A3027 RMK AO2,KPNM,2019-01-14T03:16:00Z,45.57,-93.6,1.0,-2.0,200,5,,10.0,30.268702,,,TRUE,TRUE,,,,,,,OVC,1600,,,,,,,MVFR,,,,,,,,,,,,METAR,298.0
KPHN 140316Z AUTO 00000KT 10SM CLR M08/M09 A3037 RMK AO2,KPHN,2019-01-14T03:16:00Z,42.92,-82.52,-8.0,-9.0,0,0,,10.0,30.369095,,,TRUE,TRUE,,,,,,,CLR,,,,,,,,VFR,,,,,,,,,,,,METAR,198.0
KLWA 140316Z AUTO 00000KT 10SM CLR M09/M11 A3037 RMK AO2 T10871115,KLWA,2019-01-14T03:16:00Z,42.35,-86.25,-8.7,-11.5,0,0,,10.0,30.369095,,,TRUE,TRUE,,,,,,,CLR,,,,,,,,VFR,,,,,,,,,,,,METAR,203.0
KDYT 140316Z AUTO 10SM OVC021 01/M02 A3024 RMK AO2,KDYT,2019-01-14T03:16:00Z,46.72,-92.03,1.0,-2.0,,,,10.0,30.239174,,,TRUE,TRUE,,,,,,,OVC,2100,,,,,,,MVFR,,,,,,,,,,,,METAR,186.0
KDUH 140316Z AUTO 03004KT 10SM CLR M06/M09 A3035 RMK AO2 T10631087,KDUH,2019-01-14T03:16:00Z,41.73,-83.65,-6.3,-8.7,30,4,,10.0,30.351377,,,TRUE,TRUE,,,,,,,CLR,,,,,,,,VFR,,,,,,,,,,,,METAR,204.0
KACQ 140316Z AUTO 19008KT 7SM CLR M02/M04 A3033 RMK AO2,KACQ,2019-01-14T03:16:00Z,44.07,-93.55,-2.0,-4.0,190,8,,7.0,30.33071,,,TRUE,TRUE,,,,,,,CLR,,,,,,,,VFR,,,,,,,,,,,,METAR,343.0
KACB 140316Z AUTO 00000KT 10SM CLR M14/M15 A3037 RMK AO2 T11371155,KACB,2019-01-14T03:16:00Z,44.98,-85.2,-13.7,-15.5,0,0,,10.0,30.369095,,,TRUE,TRUE,,,,,,,CLR,,,,,,,,VFR,,,,,,,,,,,,METAR,190.0
K9MN 140316Z AUTO 19006KT 10SM CLR M02/M05 A3033 RMK AO1 T10251055,K9MN,2019-01-14T03:16:00Z,44.02,-92.48,-2.5,-5.5,190,6,,10.0,30.33071,,,TRUE,TRUE,,,,,,,CLR,,,,,,,,VFR,,,,,,,,,,,,METAR,355.0
K4I3 140316Z AUTO 35006KT 10SM CLR M04/M05 A3026 RMK AO2,K4I3,2019-01-14T03:16:00Z,40.33,-82.53,-4.0,-5.0,350,6,,10.0,30.259842,,,TRUE,TRUE,,,,,,,CLR,,,,,,,,VFR,,,,,,,,,,,,METAR,363.0
KJYM 140316Z AUTO 00000KT 10SM CLR M09/M12 A3031 RMK AO2 T10891122,KJYM,2019-01-14T03:16:00Z,41.92,-84.58,-8.9,-12.2,0,0,,10.0,30.31004,,,TRUE,TRUE,,,,,,,CLR,,,,,,,,VFR,,,,,,,,,,,,METAR,360.0
KFPK 140316Z AUTO 00000KT 10SM CLR M07/M09 A3034 RMK AO2 T10701093,KFPK,2019-01-14T03:16:00Z,42.57,-84.82,-7.0,-9.3,0,0,,10.0,30.339567,,,TRUE,TRUE,,,,,,,CLR,,,,,,,,VFR,,,,,,,,,,,,METAR,272.0
K40B 140316Z AUTO 00000KT M25/M27 A3032 RMK AO1 SLP314 T12481270 56005 60013 ,K40B,2019-01-14T03:16:00Z,46.62,-69.52,-24.8,-27.0,0,0,,,30.318897,1031.4,,TRUE,TRUE,,,,,,,,,,,,,,,,-0.5,,,,,,0.13,,,,,METAR,314.0
KORC 140315Z AUTO 23014G17KT 10SM OVC012 M01/M03 A3031 RMK AO2,KORC,2019-01-14T03:15:00Z,42.97,-96.07,-1.0,-3.0,230,14,17,10.0,30.31004,,,TRUE,TRUE,,,,,,,OVC,1200,,,,,,,MVFR,,,,,,,,,,,,METAR,431.0
K1S5 140315Z AUTO 22004KT 5SM BR OVC005 00/00 A3038 RMK AO2 T00000000,K1S5,2019-01-14T03:15:00Z,46.33,-119.97,0.0,0.0,220,4,,5.0,30.380905,,,TRUE,TRUE,,,,,,BR,OVC,500,,,,,,,IFR,,,,,,,,,,,,SPECI,234.0
KCLI 140315Z AUTO 26004KT 10SM OVC014 M04/M07 A3037 RMK AO2 T10411075,KCLI,2019-01-14T03:15:00Z,44.62,-88.73,-4.1,-7.5,260,4,,10.0,30.369095,,,TRUE,TRUE,,,,,,,OVC,1400,,,,,,,MVFR,,,,,,,,,,,,SPECI,250.0
KEGV 140315Z AUTO 23003KT 10SM CLR M10/M11 A3024 RMK AO2 T11051110,KEGV,2019-01-14T03:15:00Z,45.93,-89.27,-10.5,-11.0,230,3,,10.0,30.239174,,,TRUE,TRUE,,,,,,,CLR,,,,,,,,VFR,,,,,,,,,,,,SPECI,500.0
KIFA 140315Z AUTO 19007KT 7SM CLR M05/M06 A3038 RMK AO2 T10551063,KIFA,2019-01-14T03:15:00Z,42.47,-93.27,-5.5,-6.3,190,7,,7.0,30.380905,,,TRUE,TRUE,,,,,,,CLR,,,,,,,,VFR,,,,,,,,,,,,SPECI,347.0
KRPD 140315Z AUTO 17006KT 10SM OVC022 M02/M04 A3030 RMK AO2 T10171040,KRPD,2019-01-14T03:15:00Z,45.42,-91.77,-1.7,-4.0,170,6,,10.0,30.301182,,,TRUE,TRUE,,,,,,,OVC,2200,,,,,,,MVFR,,,,,,,,,,,,SPECI,338.0
KRRL 140315Z AUTO 00000KT 10SM CLR M06/M08 A3031 RMK AO2 T10631079 TSNO,KRRL,2019-01-14T03:15:00Z,45.2,-89.72,-6.3,-7.9,0,0,,10.0,30.31004,,,TRUE,TRUE,,,TRUE,,,,CLR,,,,,,,,VFR,,,,,,,,,,,,SPECI,401.0
KUNU 140315Z AUTO 00000KT 10SM OVC014 M04/M07 A3039 RMK AO2 T10451070 TSNO,KUNU,2019-01-14T03:15:00Z,43.42,-88.7,-4.5,-7.0,0,0,,10.0,30.389763,,,TRUE,TRUE,,,TRUE,,,,OVC,1400,,,,,,,MVFR,,,,,,,,,,,,SPECI,285.0
KMAO 140315Z AUTO 33007KT 10SM OVC008 03/02 A3020 RMK AO2,KMAO,2019-01-14T03:15:00Z,34.18,-79.33,3.0,2.0,330,7,,10.0,30.200787,,,TRUE,TRUE,,,,,,,OVC,800,,,,,,,IFR,,,,,,,,,,,,SPECI,28.0
KGPH 140315Z AUTO 00000KT 10SM OVC013 M01/M03 A3046 RMK AO2,KGPH,2019-01-14T03:15:00Z,39.33,-94.32,-1.0,-3.0,0,0,,10.0,30.46063,,,TRUE,TRUE,,,,,,,OVC,1300,,,,,,,MVFR,,,,,,,,,,,,SPECI,235.0
KAID 140315Z AUTO 00000KT 10SM CLR M07/M08 A3033 RMK AO2 T10691082,KAID,2019-01-14T03:15:00Z,40.12,-85.62,-6.9,-8.2,0,0,,10.0,30.33071,,,TRUE,TRUE,,,,,,,CLR,,,,,,,,VFR,,,,,,,,,,,,SPECI,280.0
KDCM 140315Z AUTO 01003KT 10SM OVC006 02/02 A3020 RMK AO2,KDCM,2019-01-14T03:15:00Z,34.78,-81.2,2.0,2.0,10,3,,10.0,30.200787,,,TRUE,TRUE,,,,,,,OVC,600,,,,,,,IFR,,,,,,,,,,,,SPECI,200.0
KSPA 140315Z AUTO 00000KT 10SM OVC007 03/01 A3018 RMK AO2,KSPA,2019-01-14T03:15:00Z,34.92,-81.93,3.0,1.0,0,0,,10.0,30.180119,,,TRUE,TRUE,,,,,,,OVC,700,,,,,,,IFR,,,,,,,,,,,,SPECI,303.0
KPLD 140315Z AUTO 00000KT 7SM CLR M07/M07 A3033 RMK AO2,KPLD,2019-01-14T03:15:00Z,40.45,-84.98,-7.0,-7.0,0,0,,7.0,30.33071,,,TRUE,TRUE,,,,,,,CLR,,,,,,,,VFR,,,,,,,,,,,,SPECI,282.0
KPGV 140315Z AUTO 34008KT 10SM OVC009 02/01 A3016 RMK AO2,KPGV,2019-01-14T03:15:00Z,35.62,-77.4,2.0,1.0,340,8,,10.0,30.159449,,,TRUE,TRUE,,,,,,,OVC,900,,,,,,,IFR,,,,,,,,,,,,SPECI,8.0
KPBH 140315Z AUTO 22006KT 10SM OVC016 M05/M06 A3026 RMK AO2 T10461065,KPBH,2019-01-14T03:15:00Z,45.7,-90.4,-4.6,-6.5,220,6,,10.0,30.259842,,,TRUE,TRUE,,,,,,,OVC,1600,,,,,,,MVFR,,,,,,,,,,,,SPECI,449.0
KLUL 140315Z AUTO 33007KT OVC018 05/01 A3035 RMK AO2 T00500013,KLUL,2019-01-14T03:15:00Z,31.67,-89.17,5.0,1.3,330,7,,,30.351377,,,TRUE,TRUE,,,,,,,OVC,1800,,,,,,,,,,,,,,,,,,,SPECI,73.0
KLQK 140315Z AUTO 00000KT 5SM BR OVC003 04/04 A3016 RMK AO2 T00420042,KLQK,2019-01-14T03:15:00Z,34.82,-82.7,4.2,4.2,0,0,,5.0,30.159449,,,TRUE,TRUE,,,,,,BR,OVC,300,,,,,,,LIFR,,,,,,,,,,,,SPECI,309.0
KCKM 140315Z AUTO 32006KT 10SM 06/03 A3039 RMK A01,KCKM,2019-01-14T03:15:00Z,34.3,-90.52,6.0,3.0,320,6,,10.0,30.389763,,,TRUE,TRUE,,,,,,,,,,,,,,,,,,,,,,,,,,,METAR,53.0
KC62 140315Z AUTO 00000KT 10SM CLR M06/M11 A3033 RMK AO2 T10651110,KC62,2019-01-14T03:15:00Z,41.47,-85.25,-6.5,-11.0,0,0,,10.0,30.33071,,,TRUE,TRUE,,,,,,,CLR,,,,,,,,VFR,,,,,,,,,,,,METAR,306.0
KSUW 140315Z AUTO 24010KT 10SM OVC019 00/M03 A3024 RMK AO2 T00011030,KSUW,2019-01-14T03:15:00Z,46.68,-92.1,0.1,-3.0,240,10,,10.0,30.239174,,,TRUE,TRUE,,,,,,,OVC,1900,,,,,,,MVFR,,,,,,,,,,,,SPECI,206.0
KMBY 140315Z AUTO 00000KT 10SM OVC013 M01/M03 A3043 RMK AO2,KMBY,2019-01-14T03:15:00Z,39.47,-92.43,-1.0,-3.0,0,0,,10.0,30.431103,,,TRUE,TRUE,,,,,,,OVC,1300,,,,,,,MVFR,,,,,,,,,,,,METAR,264.0
KGGI 140315Z AUTO 21005KT 2 1/2SM BR CLR M08/M08 A3041 RMK AO2 T10761080,KGGI,2019-01-14T03:15:00Z,41.72,-92.73,-7.6,-8.0,210,5,,2.5,30.410433,,,TRUE,TRUE,,,,,,BR,CLR,,,,,,,,IFR,,,,,,,,,,,,SPECI,307.0
KEZS 140315Z AUTO 23004KT 10SM OVC016 M03/M07 A3036 RMK AO2 T10351066,KEZS,2019-01-14T03:15:00Z,44.78,-88.57,-3.5,-6.6,230,4,,10.0,30.360237,,,TRUE,TRUE,,,,,,,OVC,1600,,,,,,,MVFR,,,,,,,,,,,,SPECI,248.0
KSPF 140315Z AUTO 25004KT 10SM CLR 02/M12 A3015 RMK AO2 PWINO,KSPF,2019-01-14T03:15:00Z,44.47,-103.77,2.0,-12.0,250,4,,10.0,30.15059,,,TRUE,TRUE,,,,,TRUE,,CLR,,,,,,,,VFR,,,,,,,,,,,,SPECI,1188.0
KPRO 140315Z AUTO 00000KT 1 3/4SM BR VV007 M11/M11 A3040 RMK AO2 T11061112,KPRO,2019-01-14T03:15:00Z,41.83,-94.17,-10.6,-11.2,0,0,,1.75,30.398623,,,TRUE,TRUE,,,,,,BR,OVX,0,,,,,,,LIFR,,,,,,,,,,,700,SPECI,308.0
KEOE 140315Z AUTO 36003KT 10SM OVC004 03/03 A3023 RMK AO2,KEOE,2019-01-14T03:15:00Z,34.32,-81.63,3.0,3.0,360,3,,10.0,30.230314,,,TRUE,TRUE,,,,,,,OVC,400,,,,,,,LIFR,,,,,,,,,,,,SPECI,174.0
KDYA 140315Z AUTO 30005KT 10SM OVC022 06/02 A3033 RMK AO2 T00630023,KDYA,2019-01-14T03:15:00Z,32.47,-87.95,6.3,2.3,300,5,,10.0,30.33071,,,TRUE,TRUE,,,,,,,OVC,2200,,,,,,,MVFR,,,,,,,,,,,,SPECI,34.0
KSDC 140315Z AUTO 07005KT 10SM OVC012 M06/M10 A3042 RMK AO2,KSDC,2019-01-14T03:15:00Z,43.23,-77.12,-6.0,-10.0,70,5,,10.0,30.41929,,,TRUE,TRUE,,,,,,,OVC,1200,,,,,,,MVFR,,,,,,,,,,,,SPECI,129.0
KRCX 140315Z AUTO 19005KT 10SM OVC020 M03/M05 A3031 RMK AO2 T10291054,KRCX,2019-01-14T03:15:00Z,45.5,-91.0,-2.9,-5.4,190,5,,10.0,30.31004,,,TRUE,TRUE,,,,,,,OVC,2000,,,,,,,MVFR,,,,,,,,,,,,SPECI,377.0
KRCM 140315Z AUTO 00000KT 10SM OVC013 M01/M03 A3045 RMK AO2,KRCM,2019-01-14T03:15:00Z,38.78,-93.8,-1.0,-3.0,0,0,,10.0,30.448818,,,TRUE,TRUE,,,,,,,OVC,1300,,,,,,,MVFR,,,,,,,,,,,,SPECI,244.0
KGAF 140315Z AUTO 29004KT 5SM BR OVC009 M05/M05 A3023 RMK AO2 PWINO,KGAF,2019-01-14T03:15:00Z,48.4,-97.37,-5.0,-5.0,290,4,,5.0,30.230314,,,TRUE,TRUE,,,,,TRUE,BR,OVC,900,,,,,,,IFR,,,,,,,,,,,,SPECI,252.0
KD57 140315Z AUTO 00000KT 10SM CLR M09/M11 A3015 RMK AO2 PWINO,KD57,2019-01-14T03:15:00Z,46.82,-101.87,-9.0,-11.0,0,0,,10.0,30.15059,,,TRUE,TRUE,,,,,TRUE,,CLR,,,,,,,,VFR,,,,,,,,,,,,SPECI,637.0
KBNL 140315Z AUTO 29005KT 10SM OVC011 07/05 A3020 RMK AO2,KBNL,2019-01-14T03:15:00Z,33.25,-81.38,7.0,5.0,290,5,,10.0,30.200787,,,TRUE,TRUE,,,,,,,OVC,1100,,,,,,,MVFR,,,,,,,,,,,,SPECI,75.0
KVNC 140315Z AUTO 00000KT 10SM FEW006 BKN024 BKN050 20/20 A3017 RMK AO2,KVNC,2019-01-14T03:15:00Z,27.07,-82.43,20.0,20.0,0,0,,10.0,30.171259,,,TRUE,TRUE,,,,,,,FEW,600,BKN,2400,BKN,5000,,,MVFR,,,,,,,,,,,,METAR,6.0
KOIN 140315Z AUTO 22008KT 1SM BR OVC003 M01/M01 A3037 RMK AO1 T10121013,KOIN,2019-01-14T03:15:00Z,39.83,-100.53,-1.2,-1.3,220,8,,1.0,30.369095,,,TRUE,TRUE,,,,,,BR,OVC,300,,,,,,,LIFR,,,,,,,,,,,,METAR,824.0
KLUX 140315Z AUTO 00000KT 3SM BR OVC003 03/03 A3019 RMK AO2,KLUX,2019-01-14T03:15:00Z,34.5,-81.95,3.0,3.0,0,0,,3.0,30.188976,,,TRUE,TRUE,,,,,,BR,OVC,300,,,,,,,LIFR,,,,,,,,,,,,METAR,213.0
KGEV 140315Z AUTO 00000KT 1/4SM FZFG OVC003 00/00 A3009 RMK AO2 T10041004,KGEV,2019-01-14T03:15:00Z,36.43,-81.42,-0.4,-0.4,0,0,,0.25,30.088583,,,TRUE,TRUE,,,,,,FZFG,OVC,300,,,,,,,LIFR,,,,,,,,,,,,METAR,969.0
KSIF 140315Z AUTO 10SM BKN010 OVC014 01/00 A3021 RMK AO2 T00050000,KSIF,2019-01-14T03:15:00Z,36.43,-79.85,0.5,0.0,,,,10.0,30.209646,,,TRUE,TRUE,,,,,,,BKN,1000,OVC,1400,,,,,MVFR,,,,,,,,,,,,SPECI,211.0
CYXT 140315Z 08002KT 1 1/2SM -RA BR SCT003 OVC050 01/01 A3016 RMK SF3SC5 SLP226,CYXT,2019-01-14T03:15:00Z,54.47,-128.57,1.0,1.0,80,2,,1.5,30.159449,1022.6,,,,,,,,,-RA BR,SCT,300,OVC,5000,,,,,IFR,,,,,,,,,,,,SPECI,217.0
KCIN 140315Z AUTO 22009KT 6SM BR CLR M06/M06 A3037 RMK AO2,KCIN,2019-01-14T03:15:00Z,42.03,-94.77,-6.0,-6.0,220,9,,6.0,30.369095,,,TRUE,TRUE,,,,,,BR,CLR,,,,,,,,VFR,,,,,,,,,,,,METAR,375.0
KCGC 140315Z AUTO 28004KT 10SM BKN006 16/15 A3018 RMK AO2,KCGC,2019-01-14T03:15:00Z,28.87,-82.57,16.0,15.0,280,4,,10.0,30.180119,,,TRUE,TRUE,,,,,,,BKN,600,,,,,,,IFR,,,,,,,,,,,,METAR,3.0
KCFS 140315Z AUTO 00000KT 10SM CLR M10/M10 A3037 RMK AO2 T10961104,KCFS,2019-01-14T03:15:00Z,43.47,-83.45,-9.6,-10.4,0,0,,10.0,30.369095,,,TRUE,TRUE,,,,,,,CLR,,,,,,,,VFR,,,,,,,,,,,,METAR,214.0
KCEY 140315Z AUTO 32006KT 10SM OVC008 00/00 A3033 RMK AO1,KCEY,2019-01-14T03:15:00Z,36.67,-88.37,0.0,0.0,320,6,,10.0,30.33071,,,TRUE,TRUE,,,,,,,OVC,800,,,,,,,IFR,,,,,,,,,,,,METAR,176.0
KCDN 140315Z AUTO 36004KT 10SM OVC010 04/03 A3020 RMK AO2,KCDN,2019-01-14T03:15:00Z,34.28,-80.57,4.0,3.0,360,4,,10.0,30.200787,,,TRUE,TRUE,,,,,,,OVC,1000,,,,,,,MVFR,,,,,,,,,,,,METAR,92.0
KCBK 140315Z AUTO 22010KT 1/2SM FZFG OVC003 M02/M02 A3032 RMK AO2,KCBK,2019-01-14T03:15:00Z,39.43,-101.05,-2.0,-2.0,220,10,,0.5,30.318897,,,TRUE,TRUE,,,,,,FZFG,OVC,300,,,,,,,LIFR,,,,,,,,,,,,METAR,971.0
KCBG 140315Z AUTO 21006KT 10SM OVC017 01/M04 A3028 RMK AO2,KCBG,2019-01-14T03:15:00Z,45.57,-93.27,1.0,-4.0,210,6,,10.0,30.280512,,,TRUE,TRUE,,,,,,,OVC,1700,,,,,,,MVFR,,,,,,,,,,,,METAR,287.0
KCBF 140315Z AUTO 20004KT 1 1/4SM BR SCT002 M05/M05 A3039 RMK AO2,KCBF,2019-01-14T03:15:00Z,41.27,-95.77,-5.0,-5.0,200,4,,1.25,30.389763,,,TRUE,TRUE,,,,,,BR,SCT,200,,,,,,,IFR,,,,,,,,,,,,METAR,382.0
KCAV 140315Z AUTO 20007KT 7SM CLR M05/M06 A3036 RMK AO2 PWINO,KCAV,2019-01-14T03:15:00Z,42.75,-93.77,-5.0,-6.0,200,7,,7.0,30.360237,,,TRUE,TRUE,,,,,TRUE,,CLR,,,,,,,,VFR,,,,,,,,,,,,METAR,354.0
KCAD 140315Z AUTO 00000KT 10SM CLR M13/M16 A3032 RMK AO2 T11401158,KCAD,2019-01-14T03:15:00Z,44.27,-85.42,-14.0,-15.8,0,0,,10.0,30.318897,,,TRUE,TRUE,,,,,,,CLR,,,,,,,,VFR,,,,,,,,,,,,METAR,398.0
KC35 140315Z AUTO 19004KT 10SM OVC018 M03/M06 A3038 RMK AO2 T10351062,KC35,2019-01-14T03:15:00Z,43.53,-89.98,-3.5,-6.2,190,4,,10.0,30.380905,,,TRUE,TRUE,,,,,,,OVC,1800,,,,,,,MVFR,,,,,,,,,,,,METAR,276.0
KBXK 140315Z AUTO 01004KT 10SM FEW120 10/08 A3012 RMK AO1,KBXK,2019-01-14T03:15:00Z,33.42,-112.68,10.0,8.0,10,4,,10.0,30.121063,,,TRUE,TRUE,,,,,,,FEW,12000,,,,,,,VFR,,,,,,,,,,,,METAR,315.0
KBWW 140315Z AUTO 29006KT 10SM CLR M01/M04 A3002 RMK AO2,KBWW,2019-01-14T03:15:00Z,46.17,-103.3,-1.0,-4.0,290,6,,10.0,30.02067,,,TRUE,TRUE,,,,,,,CLR,,,,,,,,VFR,,,,,,,,,,,,METAR,910.0
KBVU 140315Z AUTO 00000KT 10SM BKN075 09/M03 A3014 RMK AO2,KBVU,2019-01-14T03:15:00Z,35.95,-114.87,9.0,-3.0,0,0,,10.0,30.138779,,,TRUE,TRUE,,,,,,,BKN,7500,,,,,,,VFR,,,,,,,,,,,,METAR,671.0
KBUU 140315Z AUTO 00000KT 10SM OVC019 M04/M08 A3038 RMK AO2 T10361076,KBUU,2019-01-14T03:15:00Z,42.68,-88.3,-3.6,-7.6,0,0,,10.0,30.380905,,,TRUE,TRUE,,,,,,,OVC,1900,,,,,,,MVFR,,,,,,,,,,,,METAR,237.0
KBRY 140315Z AUTO 36006KT 10SM OVC015 00/M01 A3028 RMK AO1,KBRY,2019-01-14T03:15:00Z,37.82,-85.5,0.0,-1.0,360,6,,10.0,30.280512,,,TRUE,TRUE,,,,,,,OVC,1500,,,,,,,MVFR,,,,,,,,,,,,METAR,204.0
KBRG 140315Z AUTO 00000KT 10SM DZ OVC019 02/02 A3025 RMK AO2 T00210021,KBRG,2019-01-14T03:15:00Z,34.65,-106.83,2.1,2.1,0,0,,10.0,30.250984,,,TRUE,TRUE,,,,,,DZ,OVC,1900,,,,,,,MVFR,,,,,,,,,,,,METAR,1585.0
KBNW 140315Z AUTO 23005KT 5SM BR CLR M06/M06 A3037 RMK AO2,KBNW,2019-01-14T03:15:00Z,42.03,-93.83,-6.0,-6.0,230,5,,5.0,30.369095,,,TRUE,TRUE,,,,,,BR,CLR,,,,,,,,MVFR,,,,,,,,,,,,METAR,354.0
KBKN 140315Z AUTO 01003KT 10SM OVC009 M01/M01 A3051 RMK AO2,KBKN,2019-01-14T03:15:00Z,36.75,-97.35,-1.0,-1.0,10,3,,10.0,30.510826,,,TRUE,TRUE,,,,,,,OVC,900,,,,,,,IFR,,,,,,,,,,,,METAR,314.0
KBDN 140315Z AUTO 36003KT 7SM OVC003 M03/M03 A3022 RMK AO2,KBDN,2019-01-14T03:15:00Z,44.1,-121.2,-3.0,-3.0,360,3,,7.0,30.221457,,,TRUE,TRUE,,,,,,,OVC,300,,,,,,,LIFR,,,,,,,,,,,,METAR,1055.0
KBDH 140315Z AUTO 22009G14KT 10SM OVC013 M01/M03 A3028 RMK AO2,KBDH,2019-01-14T03:15:00Z,45.12,-95.13,-1.0,-3.0,220,9,14,10.0,30.280512,,,TRUE,TRUE,,,,,,,OVC,1300,,,,,,,MVFR,,,,,,,,,,,,METAR,247.0
KBCK 140315Z AUTO 00000KT 10SM CLR M10/M11 A3036 RMK AO2 T11041108,KBCK,2019-01-14T03:15:00Z,44.25,-90.85,-10.4,-10.8,0,0,,10.0,30.360237,,,TRUE,TRUE,,,,,,,CLR,,,,,,,,VFR,,,,,,,,,,,,METAR,255.0
KBBG 140315Z AUTO 31007KT 4SM BR OVC006 00/M01 A3041 RMK AO2,KBBG,2019-01-14T03:15:00Z,36.53,-93.2,0.0,-1.0,310,7,,4.0,30.410433,,,TRUE,TRUE,,,,,,BR,OVC,600,,,,,,,IFR,,,,,,,,,,,,METAR,397.0
KBAC 140315Z AUTO 28008KT 5SM BR OVC004 M05/M05 A3020 RMK AO2,KBAC,2019-01-14T03:15:00Z,46.93,-98.02,-5.0,-5.0,280,8,,5.0,30.200787,,,TRUE,TRUE,,,,,,BR,OVC,400,,,,,,,LIFR,,,,,,,,,,,,METAR,427.0
KAXV 140315Z AUTO 03006KT 10SM OVC014 M02/M06 A3032 RMK AO2,KAXV,2019-01-14T03:15:00Z,40.5,-84.3,-2.0,-6.0,30,6,,10.0,30.318897,,,TRUE,TRUE,,,,,,,OVC,1400,,,,,,,MVFR,,,,,,,,,,,,METAR,279.0
KAXA 140315Z AUTO 20010KT 6SM BR CLR M03/M03 A3033 RMK AO2 PWINO,KAXA,2019-01-14T03:15:00Z,43.07,-94.27,-3.0,-3.0,200,10,,6.0,30.33071,,,TRUE,TRUE,,,,,TRUE,BR,CLR,,,,,,,,VFR,,,,,,,,,,,,METAR,372.0
KAWG 140315Z AUTO 22004KT 10SM OVC022 M03/M03 A3044 RMK AO2,KAWG,2019-01-14T03:15:00Z,41.27,-91.67,-3.0,-3.0,220,4,,10.0,30.43996,,,TRUE,TRUE,,,,,,,OVC,2200,,,,,,,MVFR,,,,,,,,,,,,METAR,230.0
KAUM 140315Z AUTO 21006KT 10SM CLR M02/M07 A3033 RMK AO2,KAUM,2019-01-14T03:15:00Z,43.67,-92.92,-2.0,-7.0,210,6,,10.0,30.33071,,,TRUE,TRUE,,,,,,,CLR,,,,,,,,VFR,,,,,,,,,,,,METAR,375.0
KATS 140315Z AUTO 00000KT 10SM OVC035 04/00 A3031 RMK AO2,KATS,2019-01-14T03:15:00Z,32.85,-104.47,4.0,0.0,0,0,,10.0,30.31004,,,TRUE,TRUE,,,,,,,OVC,3500,,,,,,,VFR,,,,,,,,,,,,METAR,1081.0
KARV 140315Z AUTO 22006KT 10SM OVC012 M05/M07 A3024 RMK AO2 T10501066,KARV,2019-01-14T03:15:00Z,45.92,-89.72,-5.0,-6.6,220,6,,10.0,30.239174,,,TRUE,TRUE,,,,,,,OVC,1200,,,,,,,MVFR,,,,,,,,,,,,METAR,496.0
KAQX 140315Z AUTO 00000KT 10SM OVC009 07/06 A3019 RMK AO2 TSNO,KAQX,2019-01-14T03:15:00Z,32.98,-81.27,7.0,6.0,0,0,,10.0,30.188976,,,TRUE,TRUE,,,TRUE,,,,OVC,900,,,,,,,IFR,,,,,,,,,,,,METAR,49.0
KANQ 140315Z AUTO 00000KT 10SM CLR M07/M09 A3034 RMK AO2,KANQ,2019-01-14T03:15:00Z,41.63,-85.08,-7.0,-9.0,0,0,,10.0,30.339567,,,TRUE,TRUE,,,,,,,CLR,,,,,,,,VFR,,,,,,,,,,,,METAR,303.0
KANK 140315Z AUTO 27007KT 10SM CLR M07/M10 A3031 RMK AO1 T10751103,KANK,2019-01-14T03:15:00Z,38.53,-106.05,-7.5,-10.3,270,7,,10.0,30.31004,,,TRUE,TRUE,,,,,,,CLR,,,,,,,,VFR,,,,,,,,,,,,METAR,2293.0
KAJZ 140315Z AUTO 05006KT 10SM CLR M04/M06 A3026 RMK AO2 T10381058,KAJZ,2019-01-14T03:15:00Z,38.78,-108.07,-3.8,-5.8,50,6,,10.0,30.259842,,,TRUE,TRUE,,,,,,,CLR,,,,,,,,VFR,,,,,,,,,,,,METAR,1583.0
PASM 140315Z AUTO 10020G25KT 2SM -SN BR SCT035 BKN047 OVC055 M09/M11 A2922 RMK AO2 PK WND 10026/0303 P0000 FZRANO,PASM,2019-01-14T03:15:00Z,62.07,-163.3,-9.0,-11.0,100,20,25,2.0,29.220472,,,TRUE,TRUE,,,,TRUE,,-SN BR,SCT,3500,BKN,4700,OVC,5500,,,IFR,,,,,,0.005,,,,,,SPECI,92.0
KY23 140315Z AUTO 19005KT 10SM OVC022 M02/M05 A3031 RMK AO2 T10201047,KY23,2019-01-14T03:15:00Z,45.3,-91.63,-2.0,-4.7,190,5,,10.0,30.31004,,,TRUE,TRUE,,,,,,,OVC,2200,,,,,,,MVFR,,,,,,,,,,,,METAR,322.0
KY19 140315Z AUTO 34007KT 10SM CLR M06/M06 A3016 RMK AO2,KY19,2019-01-14T03:15:00Z,46.77,-100.9,-6.0,-6.0,340,7,,10.0,30.159449,,,TRUE,TRUE,,,,,,,CLR,,,,,,,,VFR,,,,,,,,,,,,METAR,593.0
KX07 140315Z AUTO 00000KT 10SM CLR 18/18 A3017 RMK A01,KX07,2019-01-14T03:15:00Z,27.9,-81.62,18.0,18.0,0,0,,10.0,30.171259,,,TRUE,TRUE,,,,,,,CLR,,,,,,,,VFR,,,,,,,,,,,,METAR,39.0
KWYS 140315Z AUTO 00000KT 10SM CLR M17/M18 A3023 RMK AO2,KWYS,2019-01-14T03:15:00Z,44.67,-111.12,-17.0,-18.0,0,0,,10.0,30.230314,,,TRUE,TRUE,,,,,,,CLR,,,,,,,,VFR,,,,,,,,,,,,METAR,2025.0
KVVV 140315Z AUTO 22009KT 10SM OVC014 M01/M03 A3022 RMK AO2,KVVV,2019-01-14T03:15:00Z,45.3,-96.42,-1.0,-3.0,220,9,,10.0,30.221457,,,TRUE,TRUE,,,,,,,OVC,1400,,,,,,,MVFR,,,,,,,,,,,,METAR,335.0
KVLL 140315Z AUTO 03003KT 10SM CLR M06/M11 A3038 RMK AO2 T10581108,KVLL,2019-01-14T03:15:00Z,42.55,-83.18,-5.8,-10.8,30,3,,10.0,30.380905,,,TRUE,TRUE,,,,,,,CLR,,,,,,,,VFR,,,,,,,,,,,,METAR,222.0
KUOX 140315Z AUTO 32007KT 10SM FEW015 OVC026 03/01 A3037 RMK AO2,KUOX,2019-01-14T03:15:00Z,34.38,-89.53,3.0,1.0,320,7,,10.0,30.369095,,,TRUE,TRUE,,,,,,,FEW,1500,OVC,2600,,,,,MVFR,,,,,,,,,,,,METAR,137.0
KULM 140315Z AUTO 20005KT 10SM SCT027 M02/M04 A3030 RMK AO2,KULM,2019-01-14T03:15:00Z,44.32,-94.5,-2.0,-4.0,200,5,,10.0,30.301182,,,TRUE,TRUE,,,,,,,SCT,2700,,,,,,,VFR,,,,,,,,,,,,METAR,308.0
KUKT 140315Z AUTO 03006KT 10SM OVC095 M04/M12 A3028 RMK A01,KUKT,2019-01-14T03:15:00Z,40.43,-75.38,-4.0,-12.0,30,6,,10.0,30.280512,,,TRUE,TRUE,,,,,,,OVC,9500,,,,,,,VFR,,,,,,,,,,,,METAR,160.0
KTWM 140315Z AUTO 23008KT 10SM OVC014 M01/M04 A3017 RMK AO2,KTWM,2019-01-14T03:15:00Z,47.03,-91.75,-1.0,-4.0,230,8,,10.0,30.171259,,,TRUE,TRUE,,,,,,,OVC,1400,,,,,,,MVFR,,,,,,,,,,,,METAR,328.0
KTTF 140315Z AUTO 02004KT 10SM CLR M05/M07 A3035 RMK AO2 T10551066,KTTF,2019-01-14T03:15:00Z,41.93,-83.42,-5.5,-6.6,20,4,,10.0,30.351377,,,TRUE,TRUE,,,,,,,CLR,,,,,,,,VFR,,,,,,,,,,,,METAR,188.0
KTSP 140315Z AUTO 11016G23KT 10SM BKN050 BKN060 OVC075 06/M02 A3004 RMK AO2,KTSP,2019-01-14T03:15:00Z,35.13,-118.43,6.0,-2.0,110,16,23,10.0,30.041338,,,TRUE,TRUE,,,,,,,BKN,5000,BKN,6000,OVC,7500,,,VFR,,,,,,,,,,,,METAR,1220.0
KTPF 140315Z AUTO 33004KT 10SM SCT005 OVC110 A3018 RMK AO2,KTPF,2019-01-14T03:15:00Z,27.92,-82.45,,,330,4,,10.0,30.180119,,,TRUE,TRUE,,,,,,,SCT,500,OVC,11000,,,,,VFR,,,,,,,,,,,,METAR,3.0
KTNU 140315Z AUTO 20004KT 1/4SM FZFG VV002 M07/M07 A3041 RMK AO2 VIS M1/4V1 1/2,KTNU,2019-01-14T03:15:00Z,41.67,-93.02,-7.0,-7.0,200,4,,0.25,30.410433,,,TRUE,TRUE,,,,,,FZFG,OVX,0,,,,,,,LIFR,,,,,,,,,,,200,METAR,290.0
KTME 140315Z AUTO 04008KT 10SM CLR 07/04 A3039 RMK AO2,KTME,2019-01-14T03:15:00Z,29.8,-95.9,7.0,4.0,40,8,,10.0,30.389763,,,TRUE,TRUE,,,,,,,CLR,,,,,,,,VFR,,,,,,,,,,,,METAR,51.0
KTKX 140315Z AUTO 33006KT 10SM SCT010 OVC016 02/01 A3038 RMK AO2,KTKX,2019-01-14T03:15:00Z,36.22,-90.02,2.0,1.0,330,6,,10.0,30.380905,,,TRUE,TRUE,,,,,,,SCT,1000,OVC,1600,,,,,MVFR,,,,,,,,,,,,METAR,80.0
KTEW 140315Z AUTO 00000KT 10SM CLR M06/M09 A3035 RMK AO2 T10651086,KTEW,2019-01-14T03:15:00Z,42.57,-84.42,-6.5,-8.6,0,0,,10.0,30.351377,,,TRUE,TRUE,,,,,,,CLR,,,,,,,,VFR,,,,,,,,,,,,METAR,280.0
KSYM 140315Z AUTO 35006KT 1 1/2SM BR OVC003 M00/M01 A3025 RMK AO2,KSYM,2019-01-14T03:15:00Z,38.22,-83.58,0.0,-1.0,350,6,,1.5,30.250984,,,TRUE,TRUE,,,,,,BR,OVC,300,,,,,,,LIFR,,,,,,,,,,,,METAR,313.0
KSUZ 140315Z AUTO 02006KT 10SM 04/00 A3040 RMK A01,KSUZ,2019-01-14T03:15:00Z,34.58,-92.48,4.0,0.0,20,6,,10.0,30.398623,,,TRUE,TRUE,,,,,,,,,,,,,,,,,,,,,,,,,,,METAR,119.0
KSUA 140315Z AUTO 28005KT 10SM CLR 20/15 A3015 RMK AO2,KSUA,2019-01-14T03:15:00Z,27.18,-80.22,20.0,15.0,280,5,,10.0,30.15059,,,TRUE,TRUE,,,,,,,CLR,,,,,,,,VFR,,,,,,,,,,,,METAR,6.0
KSTF 140315Z AUTO 31006KT 10SM OVC018 04/01 A3036 RMK AO2 PWINO,KSTF,2019-01-14T03:15:00Z,33.43,-88.85,4.0,1.0,310,6,,10.0,30.360237,,,TRUE,TRUE,,,,,TRUE,,OVC,1800,,,,,,,MVFR,,,,,,,,,,,,METAR,102.0
KSOW 140315Z AUTO 32003KT 5SM BR OVC001 M00/M00 A3020 RMK AO2,KSOW,2019-01-14T03:15:00Z,34.27,-110.0,0.0,0.0,320,3,,5.0,30.200787,,,TRUE,TRUE,,,,,,BR,OVC,100,,,,,,,LIFR,,,,,,,,,,,,METAR,1954.0
KSNC 140315Z AUTO 05005KT 10SM OVC015 M05/M10 A3031 RMK AO2,KSNC,2019-01-14T03:15:00Z,41.38,-72.5,-5.0,-10.0,50,5,,10.0,30.31004,,,TRUE,TRUE,,,,,,,OVC,1500,,,,,,,MVFR,,,,,,,,,,,,METAR,127.0
KSMS 140315Z AUTO 23004KT 10SM FEW008 OVC021 05/04 A3020 RMK AO2,KSMS,2019-01-14T03:15:00Z,34.0,-80.37,5.0,4.0,230,4,,10.0,30.200787,,,TRUE,TRUE,,,,,,,FEW,800,OVC,2100,,,,,MVFR,,,,,,,,,,,,METAR,56.0
KSLH 140315Z AUTO 00000KT 10SM CLR M16/M17 A3034 RMK AO2 T11561174,KSLH,2019-01-14T03:15:00Z,45.65,-84.52,-15.6,-17.4,0,0,,10.0,30.339567,,,TRUE,TRUE,,,,,,,CLR,,,,,,,,VFR,,,,,,,,,,,,METAR,195.0
KSLB 140315Z AUTO 21010KT 3SM BR CLR M05/M05 A3033 RMK AO2,KSLB,2019-01-14T03:15:00Z,42.6,-95.22,-5.0,-5.0,210,10,,3.0,30.33071,,,TRUE,TRUE,,,,,,BR,CLR,,,,,,,,MVFR,,,,,,,,,,,,METAR,454.0
KSJX 140315Z AUTO 00000KT 10SM BKN018 M10/M11 A3034 RMK AO2 T10971115,KSJX,2019-01-14T03:15:00Z,45.7,-85.57,-9.7,-11.5,0,0,,10.0,30.339567,,,TRUE,TRUE,,,,,,,BKN,1800,,,,,,,MVFR,,,,,,,,,,,,METAR,204.0
KSHL 140315Z AUTO 23010G18KT 10SM OVC011 M01/M01 A3030 RMK AO2,KSHL,2019-01-14T03:15:00Z,43.22,-95.82,-1.0,-1.0,230,10,18,10.0,30.301182,,,TRUE,TRUE,,,,,,,OVC,1100,,,,,,,MVFR,,,,,,,,,,,,METAR,432.0
KSGS 140315Z AUTO 18005KT 10SM OVC027 00/M03 A3030 RMK AO2 T00021035,KSGS,2019-01-14T03:15:00Z,44.87,-93.03,0.2,-3.5,180,5,,10.0,30.301182,,,TRUE,TRUE,,,,,,,OVC,2700,,,,,,,MVFR,,,,,,,,,,,,METAR,250.0
KSDA 140315Z AUTO 00000KT M1/4SM FZFG OVC002 M12/M13 A3044 RMK AO2,KSDA,2019-01-14T03:15:00Z,40.75,-95.42,-12.0,-13.0,0,0,,0.25,30.43996,,,TRUE,TRUE,,,,,,FZFG,OVC,200,,,,,,,LIFR,,,,,,,,,,,,METAR,296.0
KSAZ 140315Z AUTO 22005KT 10SM OVC012 M02/M03 A3021 RMK AO2,KSAZ,2019-01-14T03:15:00Z,46.37,-94.8,-2.0,-3.0,220,5,,10.0,30.209646,,,TRUE,TRUE,,,,,,,OVC,1200,,,,,,,MVFR,,,,,,,,,,,,METAR,392.0
KS33 140315Z AUTO 35004KT 10SM OVC010 M01/M02 A3029 RMK AO2,KS33,2019-01-14T03:15:00Z,44.67,-121.15,-1.0,-2.0,350,4,,10.0,30.28937,,,TRUE,TRUE,,,,,,,OVC,1000,,,,,,,MVFR,,,,,,,,,,,,METAR,743.0
KS25 140315Z AUTO 00000KT 9SM CLR M08/M08 A3017 RMK AO2,KS25,2019-01-14T03:15:00Z,47.8,-103.25,-8.0,-8.0,0,0,,9.0,30.171259,,,TRUE,TRUE,,,,,,,CLR,,,,,,,,VFR,,,,,,,,,,,,METAR,644.0
KRYV 140315Z AUTO 30003KT 10SM OVC015 M04/M06 A3038 RMK AO2 T10361058,KRYV,2019-01-14T03:15:00Z,43.17,-88.72,-3.6,-5.8,300,3,,10.0,30.380905,,,TRUE,TRUE,,,,,,,OVC,1500,,,,,,,MVFR,,,,,,,,,,,,METAR,254.0
KRVL 140315Z AUTO 00000KT 10SM -UP OVC090 M02/M04 A3027 RMK AO2,KRVL,2019-01-14T03:15:00Z,40.68,-77.63,-2.0,-4.0,0,0,,10.0,30.268702,,,TRUE,TRUE,,,,,,UP,OVC,9000,,,,,,,VFR,,,,,,,,,,,,METAR,250.0
KRRT 140315Z AUTO 00000KT 3SM -SN BKN010 OVC016 M06/M08 A3019 RMK AO2,KRRT,2019-01-14T03:15:00Z,48.93,-95.33,-6.0,-8.0,0,0,,3.0,30.188976,,,TRUE,TRUE,,,,,,-SN,BKN,1000,OVC,1600,,,,,MVFR,,,,,,,,,,,,METAR,327.0
KRNH 140315Z AUTO 19005KT 10SM OVC023 M01/M05 A3029 RMK AO2 T10061046,KRNH,2019-01-14T03:15:00Z,45.15,-92.53,-0.6,-4.6,190,5,,10.0,30.28937,,,TRUE,TRUE,,,,,,,OVC,2300,,,,,,,MVFR,,,,,,,,,,,,METAR,304.0
KRID 140315Z AUTO 7SM OVC006 M03/M03 A3029 RMK AO2,KRID,2019-01-14T03:15:00Z,39.75,-84.85,-3.0,-3.0,,,,7.0,30.28937,,,TRUE,TRUE,,,,,,,OVC,600,,,,,,,IFR,,,,,,,,,,,,METAR,348.0
KRGK 140315Z AUTO 00000KT 10SM OVC029 M02/M05 A3033 RMK AO2,KRGK,2019-01-14T03:15:00Z,44.58,-92.48,-2.0,-5.0,0,0,,10.0,30.33071,,,TRUE,TRUE,,,,,,,OVC,2900,,,,,,,MVFR,,,,,,,,,,,,METAR,239.0
KRFI 140315Z AUTO 10SM OVC023 05/00 A3043 RMK AO2 T00460000,KRFI,2019-01-14T03:15:00Z,32.15,-94.85,4.6,0.0,,,,10.0,30.431103,,,TRUE,TRUE,,,,,,,OVC,2300,,,,,,,MVFR,,,,,,,,,,,,METAR,135.0
KRDK 140315Z AUTO 00000KT M1/4SM FZFG OVC001 M12/M13 A3043 RMK AO2,KRDK,2019-01-14T03:15:00Z,41.02,-95.27,-12.0,-13.0,0,0,,0.25,30.431103,,,TRUE,TRUE,,,,,,FZFG,OVC,100,,,,,,,LIFR,,,,,,,,,,,,METAR,318.0
KRBW 140315Z AUTO 00000KT 10SM SCT008 OVC012 07/06 A3019 RMK AO2,KRBW,2019-01-14T03:15:00Z,32.92,-80.63,7.0,6.0,0,0,,10.0,30.188976,,,TRUE,TRUE,,,,,,,SCT,800,OVC,1200,,,,,MVFR,,,,,,,,,,,,METAR,31.0
KRAW 140315Z AUTO 00000KT 4SM BR SCT006 OVC010 A3045 RMK AO2,KRAW,2019-01-14T03:15:00Z,38.35,-93.35,,,0,0,,4.0,30.448818,,,TRUE,TRUE,,,,,,BR,SCT,600,OVC,1000,,,,,MVFR,,,,,,,,,,,,METAR,285.0
KPZQ 140315Z AUTO 17004KT 10SM OVC015 M07/M09 A3037 RMK AO2 T10701095,KPZQ,2019-01-14T03:15:00Z,45.4,-83.82,-7.0,-9.5,170,4,,10.0,30.369095,,,TRUE,TRUE,,,,,,,OVC,1500,,,,,,,MVFR,,,,,,,,,,,,METAR,204.0
KPSO 140315Z AUTO 00000KT 10SM OVC016 M03/M03 A3023 RMK AO2 T10291029,KPSO,2019-01-14T03:15:00Z,37.28,-107.05,-2.9,-2.9,0,0,,10.0,30.230314,,,TRUE,TRUE,,,,,,,OVC,1600,,,,,,,MVFR,,,,,,,,,,,,METAR,2334.0
KPQN 140315Z AUTO 22011KT 10SM OVC010 M02/M03 A3024 RMK AO2,KPQN,2019-01-14T03:15:00Z,43.97,-96.32,-2.0,-3.0,220,11,,10.0,30.239174,,,TRUE,TRUE,,,,,,,OVC,1000,,,,,,,MVFR,,,,,,,,,,,,METAR,529.0
KPLR 140315Z AUTO 00000KT 10SM OVC015 07/05 A3028 RMK A01,KPLR,2019-01-14T03:15:00Z,33.57,-86.25,7.0,5.0,0,0,,10.0,30.280512,,,TRUE,TRUE,,,,,,,OVC,1500,,,,,,,MVFR,,,,,,,,,,,,METAR,148.0
KPDC 140315Z AUTO 00000KT 10SM CLR M06/M07 A3040 RMK AO2 T10561074,KPDC,2019-01-14T03:15:00Z,43.02,-91.12,-5.6,-7.4,0,0,,10.0,30.398623,,,TRUE,TRUE,,,,,,,CLR,,,,,,,,VFR,,,,,,,,,,,,METAR,201.0
KPCM 140315Z AUTO 31003KT 5SM BR CLR 19/18 A3018 RMK AO2,KPCM,2019-01-14T03:15:00Z,28.0,-82.17,19.0,18.0,310,3,,5.0,30.180119,,,TRUE,TRUE,,,,,,BR,CLR,,,,,,,,MVFR,,,,,,,,,,,,METAR,47.0
KPAN 140315Z AUTO 00000KT 10SM FEW120 03/M00 A3015 RMK AO2,KPAN,2019-01-14T03:15:00Z,34.25,-111.33,3.0,0.0,0,0,,10.0,30.15059,,,TRUE,TRUE,,,,,,,FEW,12000,,,,,,,VFR,,,,,,,,,,,,METAR,1572.0
KOZW 140315Z AUTO 00000KT 10SM CLR M07/M11 A3035 RMK AO2 T10681106,KOZW,2019-01-14T03:15:00Z,42.62,-83.97,-6.8,-10.6,0,0,,10.0,30.351377,,,TRUE,TRUE,,,,,,,CLR,,,,,,,,VFR,,,,,,,,,,,,METAR,293.0
KOXV 140315Z AUTO 22004KT 2SM BR CLR M06/M06 A3041 RMK AO2,KOXV,2019-01-14T03:15:00Z,41.28,-93.12,-6.0,-6.0,220,4,,2.0,30.410433,,,TRUE,TRUE,,,,,,BR,CLR,,,,,,,,IFR,,,,,,,,,,,,METAR,283.0
KORS 140315Z AUTO 00000KT 1/2SM FG VV005 03/04 A3015 RMK AO2,KORS,2019-01-14T03:15:00Z,48.7,-122.92,3.0,4.0,0,0,,0.5,30.15059,,,TRUE,TRUE,,,,,,FG,OVX,0,,,,,,,LIFR,,,,,,,,,,,500,METAR,9.0
KOQN 140315Z AUTO 02008KT 008V068 10SM OVC095 M01/M10 A3026 RMK AO2,KOQN,2019-01-14T03:15:00Z,39.98,-75.58,-1.0,-10.0,20,8,,10.0,30.259842,,,TRUE,TRUE,,,,,,,OVC,9500,,,,,,,VFR,,,,,,,,,,,,METAR,142.0
KOOA 140315Z AUTO 22003KT M1/4SM FZFG VV000 M11/M12 A3043 RMK AO2 T11151124,KOOA,2019-01-14T03:15:00Z,41.23,-92.5,-11.5,-12.4,220,3,,0.25,30.431103,,,TRUE,TRUE,,,,,,FZFG,OVX,0,,,,,,,LIFR,,,,,,,,,,,0,METAR,256.0
KONZ 140315Z AUTO 03005KT 10SM CLR M05/M08 A3035 RMK AO2 T10531077,KONZ,2019-01-14T03:15:00Z,42.1,-83.15,-5.3,-7.7,30,5,,10.0,30.351377,,,TRUE,TRUE,,,,,,,CLR,,,,,,,,VFR,,,,,,,,,,,,METAR,180.0
KONA 140315Z AUTO 00000KT 10SM CLR M05/M06 A3037 RMK AO2,KONA,2019-01-14T03:15:00Z,44.07,-91.7,-5.0,-6.0,0,0,,10.0,30.369095,,,TRUE,TRUE,,,,,,,CLR,,,,,,,,VFR,,,,,,,,,,,,METAR,200.0
KOLV 140315Z AUTO 35006KT 4SM BR OVC011 02/02 A3036 RMK A01,KOLV,2019-01-14T03:15:00Z,34.98,-89.78,2.0,2.0,350,6,,4.0,30.360237,,,TRUE,TRUE,,,,,,BR,OVC,1100,,,,,,,MVFR,,,,,,,,,,,,METAR,122.0
KOLG 140315Z AUTO 21006KT 10SM OVC018 M01/M04 A3024 RMK AO1,KOLG,2019-01-14T03:15:00Z,46.3,-91.82,-1.0,-4.0,210,6,,10.0,30.239174,,,TRUE,TRUE,,,,,,,OVC,1800,,,,,,,MVFR,,,,,,,,,,,,METAR,336.0
KOGS 140315Z AUTO 00000KT 10SM CLR M19/M21 A3042 RMK AO2 T11911207,KOGS,2019-01-14T03:15:00Z,44.67,-75.47,-19.1,-20.7,0,0,,10.0,30.41929,,,TRUE,TRUE,,,,,,,CLR,,,,,,,,VFR,,,,,,,,,,,,METAR,91.0
KOEO 140315Z AUTO 21005KT 10SM OVC023 00/M03 A3032 RMK AO2 T00021031,KOEO,2019-01-14T03:15:00Z,45.32,-92.7,0.2,-3.1,210,5,,10.0,30.318897,,,TRUE,TRUE,,,,,,,OVC,2300,,,,,,,MVFR,,,,,,,,,,,,METAR,275.0
KOEB 140315Z AUTO 00000KT 10SM CLR M07/M10 A3034 RMK AO2 T10751100,KOEB,2019-01-14T03:15:00Z,41.92,-85.03,-7.5,-10.0,0,0,,10.0,30.339567,,,TRUE,TRUE,,,,,,,CLR,,,,,,,,VFR,,,,,,,,,,,,METAR,292.0
KO22 140315Z AUTO 00000KT 10SM CLR 05/03 A3001 RMK A01,KO22,2019-01-14T03:15:00Z,38.03,-120.42,5.0,3.0,0,0,,10.0,30.008858,,,TRUE,TRUE,,,,,,,CLR,,,,,,,,VFR,,,,,,,,,,,,METAR,646.0
KMWM 140315Z AUTO 20008KT 10SM SCT020 M03/M04 A3027 RMK AO2,KMWM,2019-01-14T03:15:00Z,43.9,-95.1,-3.0,-4.0,200,8,,10.0,30.268702,,,TRUE,TRUE,,,,,,,SCT,2000,,,,,,,VFR,,,,,,,,,,,,METAR,430.0
KMWC 140315Z AUTO 00000KT 10SM BKN021 M06/M08 A3040 RMK AO2,KMWC,2019-01-14T03:15:00Z,43.12,-88.03,-6.0,-8.0,0,0,,10.0,30.398623,,,TRUE,TRUE,,,,,,,BKN,2100,,,,,,,MVFR,,,,,,,,,,,,METAR,227.0
KMVE 140315Z AUTO 25009G14KT 10SM OVC014 M01/M04 A3026 RMK AO2,KMVE,2019-01-14T03:15:00Z,44.97,-95.72,-1.0,-4.0,250,9,14,10.0,30.259842,,,TRUE,TRUE,,,,,,,OVC,1400,,,,,,,MVFR,,,,,,,,,,,,METAR,315.0
KMUT 140315Z AUTO 00000KT 8SM OVC023 M08/M09 A3044 RMK AO2,KMUT,2019-01-14T03:15:00Z,41.37,-91.15,-8.0,-9.0,0,0,,8.0,30.43996,,,TRUE,TRUE,,,,,,,OVC,2300,,,,,,,MVFR,,,,,,,,,,,,METAR,167.0
KMPZ 140315Z AUTO 00000KT 10SM OVC023 M02/M04 A3043 RMK AO2,KMPZ,2019-01-14T03:15:00Z,40.95,-91.52,-2.0,-4.0,0,0,,10.0,30.431103,,,TRUE,TRUE,,,,,,,OVC,2300,,,,,,,MVFR,,,,,,,,,,,,METAR,224.0
KMKS 140315Z AUTO 00000KT 7SM OVC009 07/06 A3018 RMK AO2,KMKS,2019-01-14T03:15:00Z,33.18,-80.03,7.0,6.0,0,0,,7.0,30.180119,,,TRUE,TRUE,,,,,,,OVC,900,,,,,,,IFR,,,,,,,,,,,,METAR,23.0
KMHL 140315Z AUTO 00000KT 5SM BR OVC015 M01/M02 A3045 RMK AO2,KMHL,2019-01-14T03:15:00Z,39.1,-93.2,-1.0,-2.0,0,0,,5.0,30.448818,,,TRUE,TRUE,,,,,,BR,OVC,1500,,,,,,,MVFR,,,,,,,,,,,,METAR,237.0
KMGN 140315Z AUTO 00000KT 10SM CLR M12/M13 A3034 RMK AO2 T11221136,KMGN,2019-01-14T03:15:00Z,45.43,-84.92,-12.2,-13.6,0,0,,10.0,30.339567,,,TRUE,TRUE,,,,,,,CLR,,,,,,,,VFR,,,,,,,,,,,,METAR,209.0
KMGC 140315Z AUTO 00000KT 10SM CLR M08/M10 A3039 RMK AO2,KMGC,2019-01-14T03:15:00Z,41.7,-86.82,-8.0,-10.0,0,0,,10.0,30.389763,,,TRUE,TRUE,,,,,,,CLR,,,,,,,,VFR,,,,,,,,,,,,METAR,200.0
KMDZ 140315Z AUTO 20004KT 10SM CLR M07/M08 A3029 RMK AO2 T10671084 TSNO,KMDZ,2019-01-14T03:15:00Z,45.1,-90.3,-6.7,-8.4,200,4,,10.0,30.28937,,,TRUE,TRUE,,,TRUE,,,,CLR,,,,,,,,VFR,,,,,,,,,,,,METAR,448.0
KMCX 140315Z AUTO 00000KT 7SM CLR M12/M13 A3037 RMK AO2 T11201132,KMCX,2019-01-14T03:15:00Z,40.72,-86.77,-12.0,-13.2,0,0,,7.0,30.369095,,,TRUE,TRUE,,,,,,,CLR,,,,,,,,VFR,,,,,,,,,,,,METAR,206.0
KMCD 140315Z AUTO 18009KT 10SM CLR M07/M09 A3034 RMK AO2 T10701095,KMCD,2019-01-14T03:15:00Z,45.85,-84.63,-7.0,-9.5,180,9,,10.0,30.339567,,,TRUE,TRUE,,,,,,,CLR,,,,,,,,VFR,,,,,,,,,,,,METAR,226.0
KMBO 140315Z AUTO 33007KT 10SM OVC018 03/02 A3036 RMK AO2 PWINO,KMBO,2019-01-14T03:15:00Z,32.43,-90.1,3.0,2.0,330,7,,10.0,30.360237,,,TRUE,TRUE,,,,,TRUE,,OVC,1800,,,,,,,MVFR,,,,,,,,,,,,METAR,99.0
KMAN 140315Z AUTO 00000KT 7SM CLR M04/M04 A3032 RMK A01,KMAN,2019-01-14T03:15:00Z,43.58,-116.52,-4.0,-4.0,0,0,,7.0,30.318897,,,TRUE,TRUE,,,,,,,CLR,,,,,,,,VFR,,,,,,,,,,,,METAR,774.0
KM40 140315Z AUTO 32005KT 10SM OVC018 05/04 A3036 RMK AO2,KM40,2019-01-14T03:15:00Z,33.87,-88.48,5.0,4.0,320,5,,10.0,30.360237,,,TRUE,TRUE,,,,,,,OVC,1800,,,,,,,MVFR,,,,,,,,,,,,METAR,69.0
KM21 140315Z AUTO 36003KT 7SM OVC009 01/01 A3031 RMK AO2 T00100008,KM21,2019-01-14T03:15:00Z,37.22,-87.15,1.0,0.8,360,3,,7.0,30.31004,,,TRUE,TRUE,,,,,,,OVC,900,,,,,,,IFR,,,,,,,,,,,,METAR,129.0
KLYV 140315Z AUTO 22010KT 10SM OVC013 M01/M03 A3029 RMK AO2,KLYV,2019-01-14T03:15:00Z,43.62,-96.22,-1.0,-3.0,220,10,,10.0,30.28937,,,TRUE,TRUE,,,,,,,OVC,1300,,,,,,,MVFR,,,,,,,,,,,,METAR,436.0
KLRO 140315Z AUTO 32006KT 10SM OVC009 08/06 A3018 RMK AO2,KLRO,2019-01-14T03:15:00Z,32.9,-79.78,8.0,6.0,320,6,,10.0,30.180119,,,TRUE,TRUE,,,,,,,OVC,900,,,,,,,IFR,,,,,,,,,,,,METAR,4.0
KLRJ 140315Z AUTO 22008KT 10SM OVC013 M01/M03 A3033 RMK AO2,KLRJ,2019-01-14T03:15:00Z,42.77,-96.2,-1.0,-3.0,220,8,,10.0,30.33071,,,TRUE,TRUE,,,,,,,OVC,1300,,,,,,,MVFR,,,,,,,,,,,,METAR,365.0
KLMO 140315Z AUTO 27005KT 10SM CLR M01/M05 A3024 RMK AO2 T10121052,KLMO,2019-01-14T03:15:00Z,40.17,-105.17,-1.2,-5.2,270,5,,10.0,30.239174,,,TRUE,TRUE,,,,,,,CLR,,,,,,,,VFR,,,,,,,,,,,,METAR,1541.0
KLDM 140315Z AUTO 00000KT 10SM CLR M08/M10 A3037 RMK AO2 T10841098,KLDM,2019-01-14T03:15:00Z,43.97,-86.4,-8.4,-9.8,0,0,,10.0,30.369095,,,TRUE,TRUE,,,,,,,CLR,,,,,,,,VFR,,,,,,,,,,,,METAR,197.0
KLBE 140315Z AUTO 34003KT 10SM OVC039 M03/M05 A3023 RMK AO2,KLBE,2019-01-14T03:15:00Z,40.27,-79.4,-3.0,-5.0,340,3,,10.0,30.230314,,,TRUE,TRUE,,,,,,,OVC,3900,,,,,,,VFR,,,,,,,,,,,,METAR,361.0
KL52 140315Z AUTO 00000KT 6SM BR FEW002 BKN100 BKN120 11/09 A2996 RMK A01,KL52,2019-01-14T03:15:00Z,35.1,-120.62,11.0,9.0,0,0,,6.0,29.958662,,,TRUE,TRUE,,,,,,BR,FEW,200,BKN,10000,BKN,12000,,,VFR,,,,,,,,,,,,METAR,4.0
KL08 140315Z AUTO 23003KT 10SM FEW050 FEW120 11/09 A3008 RMK AO2,KL08,2019-01-14T03:15:00Z,33.27,-116.32,11.0,9.0,230,3,,10.0,30.079725,,,TRUE,TRUE,,,,,,,FEW,5000,FEW,12000,,,,,VFR,,,,,,,,,,,,METAR,159.0
KKY8 140315Z AUTO 01006KT 9SM OVC011 01/00 A3033 RMK A01,KKY8,2019-01-14T03:15:00Z,37.95,-86.87,1.0,0.0,10,6,,9.0,30.33071,,,TRUE,TRUE,,,,,,,OVC,1100,,,,,,,MVFR,,,,,,,,,,,,METAR,126.0
KFMM 140315Z AUTO 26005KT 10SM M03/M05 A3024 RMK AO2 T10321049,KFMM,2019-01-14T03:15:00Z,40.33,-103.8,-3.2,-4.9,260,5,,10.0,30.239174,,,TRUE,TRUE,,,,,,,,,,,,,,,,,,,,,,,,,,,METAR,1393.0
KFMH 140315Z 05014KT 10SM OVC023 M01/M06 A3031 RMK AO2,KFMH,2019-01-14T03:15:00Z,41.63,-70.52,-1.0,-6.0,50,14,,10.0,30.31004,,,,TRUE,,,,,,,OVC,2300,,,,,,,MVFR,,,,,,,,,,,,METAR,40.0
KFLY 140315Z AUTO 22005KT 1SM BR OVC003 M02/M02 A3022 RMK AO2 T10221025,KFLY,2019-01-14T03:15:00Z,38.95,-104.57,-2.2,-2.5,220,5,,1.0,30.221457,,,TRUE,TRUE,,,,,,BR,OVC,300,,,,,,,LIFR,,,,,,,,,,,,METAR,2096.0
KFKS 140315Z AUTO 00000KT 10SM CLR M10/M12 A3036 RMK AO2 T11051125,KFKS,2019-01-14T03:15:00Z,44.63,-86.2,-10.5,-12.5,0,0,,10.0,30.360237,,,TRUE,TRUE,,,,,,,CLR,,,,,,,,VFR,,,,,,,,,,,,METAR,193.0
KFGX 140315Z AUTO 36006KT 7SM SCT012 OVC020 M01/M02 A3027 RMK AO2 T10141020,KFGX,2019-01-14T03:15:00Z,38.55,-83.75,-1.4,-2.0,360,6,,7.0,30.268702,,,TRUE,TRUE,,,,,,,SCT,1200,OVC,2000,,,,,MVFR,,,,,,,,,,,,METAR,278.0
KFFM 140315Z AUTO 27005KT 7SM OVC008 M03/M04 A3023 RMK AO2,KFFM,2019-01-14T03:15:00Z,46.28,-96.15,-3.0,-4.0,270,5,,7.0,30.230314,,,TRUE,TRUE,,,,,,,OVC,800,,,,,,,IFR,,,,,,,,,,,,METAR,361.0
KFFL 140315Z AUTO 00000KT 10SM OVC021 M03/M05 A3042 RMK AO2 PWINO,KFFL,2019-01-14T03:15:00Z,41.03,-91.97,-3.0,-5.0,0,0,,10.0,30.41929,,,TRUE,TRUE,,,,,TRUE,,OVC,2100,,,,,,,MVFR,,,,,,,,,,,,METAR,244.0
KFCI 140315Z AUTO 36007KT 4SM -SN BR OVC010 M01/M02 A3022 RMK AO2 CIG 007V014 P0000 FZRANO,KFCI,2019-01-14T03:15:00Z,37.4,-77.52,-1.0,-2.0,360,7,,4.0,30.221457,,,TRUE,TRUE,,,,TRUE,,-SN BR,OVC,1000,,,,,,,MVFR,,,,,,0.005,,,,,,SPECI,72.0
KERY 140315Z AUTO 19004KT 10SM OVC015 M07/M08 A3031 RMK AO2 T10701081,KERY,2019-01-14T03:15:00Z,46.3,-85.45,-7.0,-8.1,190,4,,10.0,30.31004,,,TRUE,TRUE,,,,,,,OVC,1500,,,,,,,MVFR,,,,,,,,,,,,METAR,265.0
KEKX 140315Z AUTO 36005KT 7SM OVC007 00/00 A3029 RMK AO2 T00001003,KEKX,2019-01-14T03:15:00Z,,,0.0,-0.3,360,5,,7.0,30.28937,,,TRUE,TRUE,,,,,,,OVC,700,,,,,,,IFR,,,,,,,,,,,,METAR,
KEFT 140315Z AUTO 10SM OVC014 M03/M06 A3038 RMK AO2 T10311061,KEFT,2019-01-14T03:15:00Z,42.62,-89.6,-3.1,-6.1,,,,10.0,30.380905,,,TRUE,TRUE,,,,,,,OVC,1400,,,,,,,MVFR,,,,,,,,,,,,METAR,331.0
KEDC 140315Z AUTO 02007KT 10SM OVC022 05/02 A3042 RMK AO2,KEDC,2019-01-14T03:15:00Z,30.4,-97.57,5.0,2.0,20,7,,10.0,30.41929,,,TRUE,TRUE,,,,,,,OVC,2200,,,,,,,MVFR,,,,,,,,,,,,METAR,189.0
KDRM 140315Z AUTO 00000KT 10SM OVC015 M10/M12 A3034 RMK AO2 T11011120,KDRM,2019-01-14T03:15:00Z,46.0,-83.75,-10.1,-12.0,0,0,,10.0,30.339567,,,TRUE,TRUE,,,,,,,OVC,1500,,,,,,,MVFR,,,,,,,,,,,,METAR,204.0
KDNS 140315Z AUTO 21004KT 5SM BR SCT008 BKN013 M04/M04 A3038 RMK AO2,KDNS,2019-01-14T03:15:00Z,41.97,-95.37,-4.0,-4.0,210,4,,5.0,30.380905,,,TRUE,TRUE,,,,,,BR,SCT,800,BKN,1300,,,,,MVFR,,,,,,,,,,,,METAR,388.0
KDNA 140315Z AUTO 13012KT 10SM CLR 09/00 A3019 RMK AO2,KDNA,2019-01-14T03:15:00Z,31.88,-106.7,9.0,0.0,130,12,,10.0,30.188976,,,TRUE,TRUE,,,,,,,CLR,,,,,,,,VFR,,,,,,,,,,,,METAR,1253.0
KDLZ 140315Z AUTO 36007KT 10SM OVC011 M02/M03 A3028 RMK AO2,KDLZ,2019-01-14T03:15:00Z,40.28,-83.12,-2.0,-3.0,360,7,,10.0,30.280512,,,TRUE,TRUE,,,,,,,OVC,1100,,,,,,,MVFR,,,,,,,,,,,,METAR,289.0
KDLL 140315Z AUTO 22003KT 10SM OVC016 M03/M06 A3038 RMK AO2 T10351062,KDLL,2019-01-14T03:15:00Z,43.52,-89.77,-3.5,-6.2,220,3,,10.0,30.380905,,,TRUE,TRUE,,,,,,,OVC,1600,,,,,,,MVFR,,,,,,,,,,,,METAR,299.0
KDEH 140315Z AUTO 19003KT 10SM FEW022 FEW028 FEW034 M04/M04 A3035 RMK AO2,KDEH,2019-01-14T03:15:00Z,43.27,-91.72,-4.0,-4.0,190,3,,10.0,30.351377,,,TRUE,TRUE,,,,,,,FEW,2200,FEW,2800,FEW,3400,,,VFR,,,,,,,,,,,,METAR,353.0
KD60 140315Z AUTO 00000KT 8SM CLR M08/M08 A3018 RMK AO2,KD60,2019-01-14T03:15:00Z,48.38,-102.9,-8.0,-8.0,0,0,,8.0,30.180119,,,TRUE,TRUE,,,,,,,CLR,,,,,,,,VFR,,,,,,,,,,,,METAR,693.0
KD55 140315Z AUTO 33004KT 5SM BR FEW005 FEW042 OVC060 M07/M06 A3016 RMK AO2,KD55,2019-01-14T03:15:00Z,48.75,-98.4,-7.0,-6.0,330,4,,5.0,30.159449,,,TRUE,TRUE,,,,,,BR,FEW,500,FEW,4200,OVC,6000,,,MVFR,,,,,,,,,,,,METAR,491.0
KD50 140315Z AUTO 31004KT 8SM CLR M08/M08 A3020 RMK AO2,KD50,2019-01-14T03:15:00Z,48.93,-103.3,-8.0,-8.0,310,4,,8.0,30.200787,,,TRUE,TRUE,,,,,,,CLR,,,,,,,,VFR,,,,,,,,,,,,METAR,595.0
KCXP 140315Z AUTO 00000G11KT 10SM CLR 02/M06 A3009 RMK AO2,KCXP,2019-01-14T03:15:00Z,39.18,-119.73,2.0,-6.0,0,0,11,10.0,30.088583,,,TRUE,TRUE,,,,,,,CLR,,,,,,,,VFR,,,,,,,,,,,,METAR,1435.0
KCVX 140315Z AUTO 13005KT 10SM CLR M09/M11 A3038 RMK AO2 T10921113,KCVX,2019-01-14T03:15:00Z,45.3,-85.27,-9.2,-11.3,130,5,,10.0,30.380905,,,TRUE,TRUE,,,,,,,CLR,,,,,,,,VFR,,,,,,,,,,,,METAR,204.0
KCVH 140315Z AUTO 00000KT 10SM CLR 11/08 A2997 RMK A01,KCVH,2019-01-14T03:15:00Z,36.9,-121.42,11.0,8.0,0,0,,10.0,29.970472,,,TRUE,TRUE,,,,,,,CLR,,,,,,,,VFR,,,,,,,,,,,,METAR,70.0
KCSQ 140315Z AUTO 24004KT M1/4SM FZFG VV000 M10/M10 A3041 RMK AO2,KCSQ,2019-01-14T03:15:00Z,41.02,-94.37,-10.0,-10.0,240,4,,0.25,30.410433,,,TRUE,TRUE,,,,,,FZFG,OVX,0,,,,,,,LIFR,,,,,,,,,,,0,METAR,394.0
KCQW 140315Z AUTO 36004KT 10SM OVC009 03/01 A3020 RMK AO2,KCQW,2019-01-14T03:15:00Z,34.72,-79.95,3.0,1.0,360,4,,10.0,30.200787,,,TRUE,TRUE,,,,,,,OVC,900,,,,,,,IFR,,,,,,,,,,,,METAR,73.0
KCPT 140315Z AUTO 36011KT 10SM OVC015 02/M01 A3046 RMK AO2,KCPT,2019-01-14T03:15:00Z,32.35,-97.43,2.0,-1.0,360,11,,10.0,30.46063,,,TRUE,TRUE,,,,,,,OVC,1500,,,,,,,MVFR,,,,,,,,,,,,METAR,260.0
KCNC 140315Z AUTO 21004KT M1/4SM FZFG VV000 M09/M09 A3041 RMK AO2,KCNC,2019-01-14T03:15:00Z,41.02,-93.37,-9.0,-9.0,210,4,,0.25,30.410433,,,TRUE,TRUE,,,,,,FZFG,OVX,0,,,,,,,LIFR,,,,,,,,,,,0,METAR,320.0
KCMR 140315Z AUTO 14007KT 10SM CLR M02/M03 A3013 RMK AO2,KCMR,2019-01-14T03:15:00Z,35.3,-112.2,-2.0,-3.0,140,7,,10.0,30.129921,,,TRUE,TRUE,,,,,,,CLR,,,,,,,,VFR,,,,,,,,,,,,METAR,2036.0
KCLW 140315Z AUTO 32004KT 10SM BKN003 16/16 A3018 RMK AO2,KCLW,2019-01-14T03:15:00Z,27.98,-82.75,16.0,16.0,320,4,,10.0,30.180119,,,TRUE,TRUE,,,,,,,BKN,300,,,,,,,LIFR,,,,,,,,,,,,METAR,22.0
KCLS 140315Z AUTO 00000KT 2 1/2SM BR CLR 01/01 A3011 RMK AO2,KCLS,2019-01-14T03:15:00Z,46.68,-122.98,1.0,1.0,0,0,,2.5,30.109253,,,TRUE,TRUE,,,,,,BR,CLR,,,,,,,,IFR,,,,,,,,,,,,METAR,54.0
KCKZ 140315Z AUTO 04007KT 10SM OVC090 M03/M12 A3028 RMK AO2,KCKZ,2019-01-14T03:15:00Z,40.38,-75.28,-3.0,-12.0,40,7,,10.0,30.280512,,,TRUE,TRUE,,,,,,,OVC,9000,,,,,,,VFR,,,,,,,,,,,,METAR,173.0
KAIO 140315Z AUTO 00000KT M1/4SM FZFG VV000 M11/M11 A3040 RMK AO2,KAIO,2019-01-14T03:15:00Z,41.38,-95.03,-11.0,-11.0,0,0,,0.25,30.398623,,,TRUE,TRUE,,,,,,FZFG,OVX,0,,,,,,,LIFR,,,,,,,,,,,0,METAR,360.0
KAEJ 140315Z AUTO 00000KT 10SM SCT027 M13/M15 A3023 RMK AO2 T11331154,KAEJ,2019-01-14T03:15:00Z,38.82,-106.12,-13.3,-15.4,0,0,,10.0,30.230314,,,TRUE,TRUE,,,,,,,SCT,2700,,,,,,,VFR,,,,,,,,,,,,METAR,2422.0
KADU 140315Z AUTO 00000KT 4SM BR CLR M09/M11 A3039 RMK AO2,KADU,2019-01-14T03:15:00Z,41.7,-94.92,-9.0,-11.0,0,0,,4.0,30.389763,,,TRUE,TRUE,,,,,,BR,CLR,,,,,,,,MVFR,,,,,,,,,,,,METAR,392.0
K9D7 140315Z AUTO 34004KT 5SM BR OVC004 M08/M08 A3020 RMK AO2,K9D7,2019-01-14T03:15:00Z,48.48,-99.23,-8.0,-8.0,340,4,,5.0,30.200787,,,TRUE,TRUE,,,,,,BR,OVC,400,,,,,,,LIFR,,,,,,,,,,,,METAR,452.0
K82C 140315Z AUTO 00000KT 7SM BKN025 M07/M08 A3037 RMK AO2 T10701077,K82C,2019-01-14T03:15:00Z,43.83,-90.13,-7.0,-7.7,0,0,,7.0,30.369095,,,TRUE,TRUE,,,,,,,BKN,2500,,,,,,,MVFR,,,,,,,,,,,,METAR,276.0
K7L2 140315Z AUTO 00000KT M1/4SM FZFG M05/M05 A3018 RMK AO2,K7L2,2019-01-14T03:15:00Z,46.22,-100.25,-5.0,-5.0,0,0,,0.25,30.180119,,,TRUE,TRUE,,,,,,FZFG,,,,,,,,,,,,,,,,,,,,,METAR,543.0
K6S2 140315Z AUTO 08004KT 10SM CLR 08/01 A3001 RMK AO2,K6S2,2019-01-14T03:15:00Z,43.98,-124.12,8.0,1.0,80,4,,10.0,30.008858,,,TRUE,TRUE,,,,,,,CLR,,,,,,,,VFR,,,,,,,,,,,,METAR,16.0
K6L4 140315Z AUTO 30003KT M1/4SM FZFG OVC002 M00/00 A3016 RMK AO2,K6L4,2019-01-14T03:15:00Z,37.85,-81.92,0.0,0.0,300,3,,0.25,30.159449,,,TRUE,TRUE,,,,,,FZFG,OVC,200,,,,,,,LIFR,,,,,,,,,,,,METAR,508.0
K6B9 140315Z AUTO 00000KT 10SM CLR M17/M18 A3035 RMK AO2,K6B9,2019-01-14T03:15:00Z,42.92,-76.43,-17.0,-18.0,0,0,,10.0,30.351377,,,TRUE,TRUE,,,,,,,CLR,,,,,,,,VFR,,,,,,,,,,,,METAR,316.0
K5H4 140315Z AUTO 31004KT 5SM BR CLR M11/M11 A3020 RMK AO2,K5H4,2019-01-14T03:15:00Z,47.78,-99.93,-11.0,-11.0,310,4,,5.0,30.200787,,,TRUE,TRUE,,,,,,BR,CLR,,,,,,,,MVFR,,,,,,,,,,,,METAR,490.0
K57C 140315Z AUTO 00000KT 10SM OVC018 M04/M07 A3038 RMK AO2 T10361067,K57C,2019-01-14T03:15:00Z,42.8,-88.37,-3.6,-6.7,0,0,,10.0,30.380905,,,TRUE,TRUE,,,,,,,OVC,1800,,,,,,,MVFR,,,,,,,,,,,,METAR,262.0
K54J 140315Z AUTO 36009KT 10SM OVC025 09/04 A3027 RMK AO2 T00900040,K54J,2019-01-14T03:15:00Z,30.73,-86.15,9.0,4.0,360,9,,10.0,30.268702,,,TRUE,TRUE,,,,,,,OVC,2500,,,,,,,MVFR,,,,,,,,,,,,METAR,88.0
K4R5 140315Z AUTO 22005KT 10SM OVC023 00/M04 A3023 RMK AO2 T00001042,K4R5,2019-01-14T03:15:00Z,46.78,-90.77,0.0,-4.2,220,5,,10.0,30.230314,,,TRUE,TRUE,,,,,,,OVC,2300,,,,,,,MVFR,,,,,,,,,,,,METAR,198.0
K4M9 140315Z AUTO 35009KT 10SM SCT017 BKN026 OVC031 02/00 A3040 RMK AO2 PWINO,K4M9,2019-01-14T03:15:00Z,36.4,-90.65,2.0,0.0,350,9,,10.0,30.398623,,,TRUE,TRUE,,,,,TRUE,,SCT,1700,BKN,2600,OVC,3100,,,MVFR,,,,,,,,,,,,METAR,90.0
K46D 140315Z AUTO 27008KT 1/4SM FZFG OVC001 M08/M08 A3019 RMK AO2,K46D,2019-01-14T03:15:00Z,47.45,-99.15,-8.0,-8.0,270,8,,0.25,30.188976,,,TRUE,TRUE,,,,,,FZFG,OVC,100,,,,,,,LIFR,,,,,,,,,,,,METAR,490.0
K42J 140315Z AUTO 29007KT 10SM FEW037 FEW045 13/11 A3015 RMK A01 TSNO,K42J,2019-01-14T03:15:00Z,29.85,-82.05,13.0,11.0,290,7,,10.0,30.15059,,,TRUE,TRUE,,,TRUE,,,,FEW,3700,FEW,4500,,,,,VFR,,,,,,,,,,,,METAR,60.0
K33V 140315Z AUTO 13005KT 10SM CLR M18/M21 A3023 RMK AO1,K33V,2019-01-14T03:15:00Z,40.75,-106.28,-18.0,-21.0,130,5,,10.0,30.230314,,,TRUE,TRUE,,,,,,,CLR,,,,,,,,VFR,,,,,,,,,,,,METAR,2484.0
K2V5 140315Z AUTO 27003KT 10SM CLR M03/M05 A3026 RMK AO2,K2V5,2019-01-14T03:15:00Z,40.1,-102.25,-3.0,-5.0,270,3,,10.0,30.259842,,,TRUE,TRUE,,,,,,,CLR,,,,,,,,VFR,,,,,,,,,,,,METAR,1118.0
K2P2 140315Z AUTO 20005KT 10SM CLR M06/M08 A3033 RMK AO2 T10601085,K2P2,2019-01-14T03:15:00Z,45.38,-86.92,-6.0,-8.5,200,5,,10.0,30.33071,,,TRUE,TRUE,,,,,,,CLR,,,,,,,,VFR,,,,,,,,,,,,METAR,199.0
K2D5 140315Z AUTO 23008KT 3SM BR OVC004 M04/M04 A3021 RMK AO2 PWINO,K2D5,2019-01-14T03:15:00Z,46.17,-98.08,-4.0,-4.0,230,8,,3.0,30.209646,,,TRUE,TRUE,,,,,TRUE,BR,OVC,400,,,,,,,LIFR,,,,,,,,,,,,METAR,407.0
K2C8 140315Z AUTO 32004KT 5SM BR SCT013 BKN075 M06/M08 A3020 RMK AO2,K2C8,2019-01-14T03:15:00Z,48.78,-97.63,-6.0,-8.0,320,4,,5.0,30.200787,,,TRUE,TRUE,,,,,,BR,SCT,1300,BKN,7500,,,,,MVFR,,,,,,,,,,,,METAR,272.0
K24J 140315Z AUTO 34006KT 10SM CLR 13/12 A3018 RMK A01,K24J,2019-01-14T03:15:00Z,30.3,-83.03,13.0,12.0,340,6,,10.0,30.180119,,,TRUE,TRUE,,,,,,,CLR,,,,,,,,VFR,,,,,,,,,,,,METAR,32.0
K20U 140315Z AUTO 00000KT 10SM CLR M06/M06 A3015 RMK AO2,K20U,2019-01-14T03:15:00Z,46.93,-103.98,-6.0,-6.0,0,0,,10.0,30.15059,,,TRUE,TRUE,,,,,,,CLR,,,,,,,,VFR,,,,,,,,,,,,METAR,840.0
K1P1 140315Z AUTO 00000KT 10SM CLR M17/M19 A3039 RMK AO2 T11741189,K1P1,2019-01-14T03:15:00Z,43.78,-71.75,-17.4,-18.9,0,0,,10.0,30.389763,,,TRUE,TRUE,,,,,,,CLR,,,,,,,,VFR,,,,,,,,,,,,METAR,154.0
K0S9 140315Z AUTO 00000KT 4SM BR CLR M00/M00 A3015 RMK AO2,K0S9,2019-01-14T03:15:00Z,48.05,-122.82,0.0,0.0,0,0,,4.0,30.15059,,,TRUE,TRUE,,,,,,BR,CLR,,,,,,,,MVFR,,,,,,,,,,,,METAR,33.0
K08D 140315Z AUTO 00000KT 10SM CLR M08/M08 A3016 RMK AO2,K08D,2019-01-14T03:15:00Z,48.3,-102.4,-8.0,-8.0,0,0,,10.0,30.159449,,,TRUE,TRUE,,,,,,,CLR,,,,,,,,VFR,,,,,,,,,,,,METAR,684.0
K06D 140315Z AUTO 33008KT 10SM CLR M12/M11 A3017 RMK AO2,K06D,2019-01-14T03:15:00Z,48.88,-99.62,-12.0,-11.0,330,8,,10.0,30.171259,,,TRUE,TRUE,,,,,,,CLR,,,,,,,,VFR,,,,,,,,,,,,METAR,556.0
KJZI 140315Z AUTO 00000KT 6SM BR OVC007 08/07 A3018 RMK AO2 PWINO,KJZI,2019-01-14T03:15:00Z,32.7,-80.0,8.0,7.0,0,0,,6.0,30.180119,,,TRUE,TRUE,,,,,TRUE,BR,OVC,700,,,,,,,IFR,,,,,,,,,,,,METAR,6.0
KJYG 140315Z AUTO 18006KT 10SM SCT029 M02/M04 A3032 RMK AO2,KJYG,2019-01-14T03:15:00Z,43.98,-94.55,-2.0,-4.0,180,6,,10.0,30.318897,,,TRUE,TRUE,,,,,,,SCT,2900,,,,,,,VFR,,,,,,,,,,,,METAR,325.0
KJVY 140315Z AUTO 33006KT 10SM OVC014 00/M02 A3032 RMK AO2 T00011016,KJVY,2019-01-14T03:15:00Z,,,0.1,-1.6,330,6,,10.0,30.318897,,,TRUE,TRUE,,,,,,,OVC,1400,,,,,,,MVFR,,,,,,,,,,,,METAR,
KJVW 140315Z AUTO 01006KT 10SM 05/02 A3037 RMK AO2,KJVW,2019-01-14T03:15:00Z,32.3,-90.42,5.0,2.0,10,6,,10.0,30.369095,,,TRUE,TRUE,,,,,,,,,,,,,,,,,,,,,,,,,,,METAR,76.0
KJVL 140315Z AUTO 00000KT 10SM OVC016 M01/M05 A3039 RMK AO2,KJVL,2019-01-14T03:15:00Z,42.62,-89.05,-1.0,-5.0,0,0,,10.0,30.389763,,,TRUE,TRUE,,,,,,,OVC,1600,,,,,,,MVFR,,,,,,,,,,,,METAR,246.0
KJKJ 140315Z AUTO 24007KT 10SM OVC007 M04/M06 A3024 RMK AO2,KJKJ,2019-01-14T03:15:00Z,46.83,-96.67,-4.0,-6.0,240,7,,10.0,30.239174,,,TRUE,TRUE,,,,,,,OVC,700,,,,,,,IFR,,,,,,,,,,,,METAR,280.0
KJFX 140315Z AUTO 29005KT 10SM 05/04 A3030 RMK AO2 PWINO,KJFX,2019-01-14T03:15:00Z,33.9,-87.32,5.0,4.0,290,5,,10.0,30.301182,,,TRUE,TRUE,,,,,TRUE,,,,,,,,,,,,,,,,,,,,,,METAR,148.0
KIKW 140315Z AUTO 00000KT 10SM CLR M08/M09 A3039 RMK AO2 T10841095,KIKW,2019-01-14T03:15:00Z,43.67,-84.27,-8.4,-9.5,0,0,,10.0,30.389763,,,TRUE,TRUE,,,,,,,CLR,,,,,,,,VFR,,,,,,,,,,,,METAR,194.0
KIKV 140315Z AUTO M1/4SM FZFG VV000 M10/M10 A3042 RMK AO2,KIKV,2019-01-14T03:15:00Z,41.68,-93.57,-10.0,-10.0,,,,0.25,30.41929,,,TRUE,TRUE,,,,,,FZFG,OVX,0,,,,,,,LIFR,,,,,,,,,,,0,METAR,275.0
KIIB 140315Z AUTO 23003KT 5SM BR CLR M07/M07 A3039 RMK AO2 T10671072,KIIB,2019-01-14T03:15:00Z,42.45,-91.95,-6.7,-7.2,230,3,,5.0,30.389763,,,TRUE,TRUE,,,,,,BR,CLR,,,,,,,,MVFR,,,,,,,,,,,,METAR,298.0
KIDI 140315Z AUTO VRB04KT 10SM FEW033 FEW050 OVC080 M04/M05 A3027 RMK A01,KIDI,2019-01-14T03:15:00Z,40.62,-79.08,-4.0,-5.0,0,4,,10.0,30.268702,,,TRUE,TRUE,,,,,,,FEW,3300,FEW,5000,OVC,8000,,,VFR,,,,,,,,,,,,METAR,429.0
KICL 140315Z AUTO 22003KT M1/4SM FZFG OVC001 M13/M15 A3046 RMK AO2,KICL,2019-01-14T03:15:00Z,40.72,-95.02,-13.0,-15.0,220,3,,0.25,30.46063,,,TRUE,TRUE,,,,,,FZFG,OVC,100,,,,,,,LIFR,,,,,,,,,,,,METAR,303.0
KI75 140315Z AUTO 19004KT 1/4SM FZFG VV002 M07/M07 A3041 RMK AO2 T10661072,KI75,2019-01-14T03:15:00Z,41.05,-93.68,-6.6,-7.2,190,4,,0.25,30.410433,,,TRUE,TRUE,,,,,,FZFG,OVX,0,,,,,,,LIFR,,,,,,,,,,,200,METAR,339.0
KI69 140315Z AUTO 02004KT 10SM SCT015 OVC022 00/M02 A3028 RMK AO2 T10051024,KI69,2019-01-14T03:15:00Z,39.08,-84.22,-0.5,-2.4,20,4,,10.0,30.280512,,,TRUE,TRUE,,,,,,,SCT,1500,OVC,2200,,,,,MVFR,,,,,,,,,,,,METAR,255.0
KI68 140315Z AUTO 03008KT 10SM OVC012 M01/M01 A3028 RMK AO1 T10101013,KI68,2019-01-14T03:15:00Z,39.47,-84.25,-1.0,-1.3,30,8,,10.0,30.280512,,,TRUE,TRUE,,,,,,,OVC,1200,,,,,,,MVFR,,,,,,,,,,,,METAR,274.0
KI67 140315Z AUTO 02007KT 10SM OVC012 M01/M03 A3030 RMK AO1,KI67,2019-01-14T03:15:00Z,39.25,-84.78,-1.0,-3.0,20,7,,10.0,30.301182,,,TRUE,TRUE,,,,,,,OVC,1200,,,,,,,MVFR,,,,,,,,,,,,METAR,178.0
KHZE 140315Z AUTO 00000KT 9SM CLR M11/M11 A3020 RMK AO2 TSNO,KHZE,2019-01-14T03:15:00Z,47.28,-101.58,-11.0,-11.0,0,0,,9.0,30.200787,,,TRUE,TRUE,,,TRUE,,,,CLR,,,,,,,,VFR,,,,,,,,,,,,METAR,553.0
KHVS 140315Z AUTO 35003KT 10SM OVC007 02/02 A3019 RMK AO2,KHVS,2019-01-14T03:15:00Z,34.4,-80.12,2.0,2.0,350,3,,10.0,30.188976,,,TRUE,TRUE,,,,,,,OVC,700,,,,,,,IFR,,,,,,,,,,,,METAR,111.0
KHPT 140315Z AUTO 22006KT 10SM CLR M05/M06 A3036 RMK AO2,KHPT,2019-01-14T03:15:00Z,42.58,-93.23,-5.0,-6.0,220,6,,10.0,30.360237,,,TRUE,TRUE,,,,,,,CLR,,,,,,,,VFR,,,,,,,,,,,,METAR,358.0
KHOB 140315Z AUTO 09011KT 10SM OVC030 03/M01 A3033 RMK AO2,KHOB,2019-01-14T03:15:00Z,32.67,-103.22,3.0,-1.0,90,11,,10.0,30.33071,,,TRUE,TRUE,,,,,,,OVC,3000,,,,,,,MVFR,,,,,,,,,,,,METAR,1115.0
KHNR 140315Z AUTO 20003KT 1 1/4SM BR CLR M09/M08 A3039 RMK AO2,KHNR,2019-01-14T03:15:00Z,41.58,-95.33,-9.0,-8.0,200,3,,1.25,30.389763,,,TRUE,TRUE,,,,,,BR,CLR,,,,,,,,IFR,,,,,,,,,,,,METAR,375.0
KHEG 140315Z AUTO 02004KT 9SM FEW047 15/13 A3017 RMK AO2,KHEG,2019-01-14T03:15:00Z,30.28,-81.8,15.0,13.0,20,4,,9.0,30.171259,,,TRUE,TRUE,,,,,,,FEW,4700,,,,,,,VFR,,,,,,,,,,,,METAR,27.0
KHCO 140315Z AUTO 00000KT 10SM OVC010 M05/M06 A3019 RMK AO2,KHCO,2019-01-14T03:15:00Z,48.75,-96.93,-5.0,-6.0,0,0,,10.0,30.188976,,,TRUE,TRUE,,,,,,,OVC,1000,,,,,,,MVFR,,,,,,,,,,,,METAR,250.0
KHAI 140315Z AUTO 00000KT 10SM CLR M11/M12 A3036 RMK AO2 T11061122,KHAI,2019-01-14T03:15:00Z,41.97,-85.6,-10.6,-12.2,0,0,,10.0,30.360237,,,TRUE,TRUE,,,,,,,CLR,,,,,,,,VFR,,,,,,,,,,,,METAR,251.0
KGYL 140315Z AUTO 19006KT 10SM OVC023 01/M01 A3028 RMK AO2 T00051015,KGYL,2019-01-14T03:15:00Z,44.77,-94.08,0.5,-1.5,190,6,,10.0,30.280512,,,TRUE,TRUE,,,,,,,OVC,2300,,,,,,,MVFR,,,,,,,,,,,,METAR,302.0
KGWR 140315Z AUTO 25010KT 7SM M03/M03 A3021 RMK A01,KGWR,2019-01-14T03:15:00Z,46.22,-97.65,-3.0,-3.0,250,10,,7.0,30.209646,,,TRUE,TRUE,,,,,,,,,,,,,,,,,,,,,,,,,,,METAR,386.0
KGPC 140315Z AUTO 00000KT 10SM OVC035 M02/M06 A3034 RMK AO2,KGPC,2019-01-14T03:15:00Z,39.63,-86.82,-2.0,-6.0,0,0,,10.0,30.339567,,,TRUE,TRUE,,,,,,,OVC,3500,,,,,,,VFR,,,,,,,,,,,,METAR,257.0
KGNT 140315Z AUTO 17008KT 10SM BKN005 BKN017 OVC048 00/M01 A3024 RMK AO2 T10031007,KGNT,2019-01-14T03:15:00Z,35.17,-107.9,-0.3,-0.7,170,8,,10.0,30.239174,,,TRUE,TRUE,,,,,,,BKN,500,BKN,1700,OVC,4800,,,IFR,,,,,,,,,,,,METAR,1987.0
KFSW 140315Z AUTO 00000KT 10SM M02/M05 A3044 RMK AO2,KFSW,2019-01-14T03:15:00Z,40.67,-91.32,-2.0,-5.0,0,0,,10.0,30.43996,,,TRUE,TRUE,,,,,,,,,,,,,,,,,,,,,,,,,,,METAR,221.0
KFSE 140315Z AUTO 23008KT 5SM BR OVC005 M07/M08 A3021 RMK AO2,KFSE,2019-01-14T03:15:00Z,47.58,-95.77,-7.0,-8.0,230,8,,5.0,30.209646,,,TRUE,TRUE,,,,,,BR,OVC,500,,,,,,,IFR,,,,,,,,,,,,METAR,389.0
KFRH 140315Z AUTO 03003KT 10SM OVC012 M01/M06 A3032 RMK AO1,KFRH,2019-01-14T03:15:00Z,38.5,-86.63,-1.0,-6.0,30,3,,10.0,30.318897,,,TRUE,TRUE,,,,,,,OVC,1200,,,,,,,MVFR,,,,,,,,,,,,METAR,241.0
KQFR 140315Z AUTO 35006KT 10SM CLR M05/M12 A2977 RMK AO1,KQFR,2019-01-14T03:15:00Z,,,-5.0,-12.0,350,6,,10.0,29.769686,,,TRUE,TRUE,,,,,,,CLR,,,,,,,,VFR,,,,,,,,,,,,METAR,
CYOW 140315Z 24003KT 15SM BKN015 M16/M18 A3045 RMK SC6 SLP323,CYOW,2019-01-14T03:15:00Z,45.32,-75.67,-16.0,-18.0,240,3,,15.0,30.448818,1032.3,,,,,,,,,,BKN,1500,,,,,,,MVFR,,,,,,,,,,,,SPECI,114.0
CYDQ 140315Z AUTO 26003KT 3SM BR SCT001 SCT110 M06/M07 A3009 RMK ICG PAST HR SLP230,CYDQ,2019-01-14T03:15:00Z,55.75,-120.17,-6.0,-7.0,260,3,,3.0,30.088583,1023.0,,TRUE,,,,,,,BR,SCT,100,SCT,11000,,,,,MVFR,,,,,,,,,,,,SPECI,655.0
KY70 140315Z AUTO 04003KT 10SM CLR M07/M11 A3036 RMK AO2 T10711106,KY70,2019-01-14T03:15:00Z,42.93,-85.07,-7.1,-10.6,40,3,,10.0,30.360237,,,TRUE,TRUE,,,,,,,CLR,,,,,,,,VFR,,,,,,,,,,,,SPECI,250.0
KY51 140315Z AUTO 18004KT 10SM CLR M05/M05 A3034 RMK AO1 T10471051,KY51,2019-01-14T03:15:00Z,43.58,-90.9,-4.7,-5.1,180,4,,10.0,30.339567,,,TRUE,TRUE,,,,,,,CLR,,,,,,,,VFR,,,,,,,,,,,,SPECI,394.0
KTKC 140315Z AUTO 23017G24KT 10SM OVC014 00/M02 A3025 RMK AO2 T10011025,KTKC,2019-01-14T03:15:00Z,44.25,-95.62,-0.1,-2.5,230,17,24,10.0,30.250984,,,TRUE,TRUE,,,,,,,OVC,1400,,,,,,,MVFR,,,,,,,,,,,,SPECI,408.0
KSVC 140315Z AUTO 03006KT 10SM BKN065 04/01 A3019 RMK AO2 T00430010,KSVC,2019-01-14T03:15:00Z,32.63,-108.15,4.3,1.0,30,6,,10.0,30.188976,,,TRUE,TRUE,,,,,,,BKN,6500,,,,,,,VFR,,,,,,,,,,,,SPECI,1659.0
KPTS 140315Z AUTO 33003KT 10SM SCT009 BKN015 OVC020 M01/M02 A3044 RMK AO2 T10101022,KPTS,2019-01-14T03:15:00Z,37.45,-94.73,-1.0,-2.2,330,3,,10.0,30.43996,,,TRUE,TRUE,,,,,,,SCT,900,BKN,1500,OVC,2000,,,MVFR,,,,,,,,,,,,SPECI,290.0
KPEA 140315Z AUTO 00000KT M1/4SM FZFG VV000 M08/M09 A3043 RMK AO2 T10801087,KPEA,2019-01-14T03:15:00Z,41.4,-92.95,-8.0,-8.7,0,0,,0.25,30.431103,,,TRUE,TRUE,,,,,,FZFG,OVX,0,,,,,,,LIFR,,,,,,,,,,,0,SPECI,270.0
KMQJ 140315Z AUTO 35006KT 10SM SCT013 SCT044 M07/M07 A3034 RMK AO1,KMQJ,2019-01-14T03:15:00Z,39.85,-85.9,-7.0,-7.0,350,6,,10.0,30.339567,,,TRUE,TRUE,,,,,,,SCT,1300,SCT,4400,,,,,VFR,,,,,,,,,,,,SPECI,263.0
KLRY 140315Z AUTO 00000KT 7SM OVC009 00/M02 A3048 RMK AO2,KLRY,2019-01-14T03:15:00Z,38.62,-94.35,0.0,-2.0,0,0,,7.0,30.481298,,,TRUE,TRUE,,,,,,,OVC,900,,,,,,,IFR,,,,,,,,,,,,SPECI,279.0
KLKR 140315Z AUTO 00000KT 10SM OVC006 03/03 A3020 RMK AO2,KLKR,2019-01-14T03:15:00Z,34.72,-80.85,3.0,3.0,0,0,,10.0,30.200787,,,TRUE,TRUE,,,,,,,OVC,600,,,,,,,IFR,,,,,,,,,,,,SPECI,149.0
KLBO 140315Z AUTO 34004KT 5SM BR OVC004 M01/M01 A3041 RMK AO2,KLBO,2019-01-14T03:15:00Z,37.65,-92.65,-1.0,-1.0,340,4,,5.0,30.410433,,,TRUE,TRUE,,,,,,BR,OVC,400,,,,,,,LIFR,,,,,,,,,,,,SPECI,403.0
KJMR 140315Z AUTO 23006KT 10SM OVC015 00/M02 A3027 RMK AO2,KJMR,2019-01-14T03:15:00Z,45.88,-93.27,0.0,-2.0,230,6,,10.0,30.268702,,,TRUE,TRUE,,,,,,,OVC,1500,,,,,,,MVFR,,,,,,,,,,,,SPECI,309.0
KIRS 140315Z AUTO 00000KT 10SM CLR M07/M10 A3034 RMK AO2 T10671098,KIRS,2019-01-14T03:15:00Z,41.8,-85.43,-6.7,-9.8,0,0,,10.0,30.339567,,,TRUE,TRUE,,,,,,,CLR,,,,,,,,VFR,,,,,,,,,,,,SPECI,282.0
KHZL 140315Z AUTO 36004KT 10SM CLR M04/M13 A3025 RMK AO2,KHZL,2019-01-14T03:15:00Z,40.98,-76.0,-4.0,-13.0,360,4,,10.0,30.250984,,,TRUE,TRUE,,,,,,,CLR,,,,,,,,VFR,,,,,,,,,,,,SPECI,489.0
KHXD 140315Z AUTO VRB06G11KT 10SM OVC014 09/07 A3020 RMK AO2,KHXD,2019-01-14T03:15:00Z,32.22,-80.7,9.0,7.0,0,6,11,10.0,30.200787,,,TRUE,TRUE,,,,,,,OVC,1400,,,,,,,MVFR,,,,,,,,,,,,SPECI,6.0
KFFX 140315Z AUTO 00000KT 10SM CLR M06/M09 A3037 RMK AO2 T10591087,KFFX,2019-01-14T03:15:00Z,43.43,-86.0,-5.9,-8.7,0,0,,10.0,30.369095,,,TRUE,TRUE,,,,,,,CLR,,,,,,,,VFR,,,,,,,,,,,,SPECI,236.0
KEOK 140315Z AUTO 00000KT 10SM OVC018 M02/M04 A3043 RMK AO2,KEOK,2019-01-14T03:15:00Z,40.47,-91.42,-2.0,-4.0,0,0,,10.0,30.431103,,,TRUE,TRUE,,,,,,,OVC,1800,,,,,,,MVFR,,,,,,,,,,,,SPECI,205.0
KDYB 140315Z AUTO 00000KT 10SM OVC010 07/06 A3019 RMK AO1,KDYB,2019-01-14T03:15:00Z,33.07,-80.28,7.0,6.0,0,0,,10.0,30.188976,,,TRUE,TRUE,,,,,,,OVC,1000,,,,,,,MVFR,,,,,,,,,,,,SPECI,18.0
KD95 140315Z AUTO 00000KT 10SM CLR M09/M11 A3036 RMK AO2 T10901112,KD95,2019-01-14T03:15:00Z,43.07,-83.27,-9.0,-11.2,0,0,,10.0,30.360237,,,TRUE,TRUE,,,,,,,CLR,,,,,,,,VFR,,,,,,,,,,,,SPECI,255.0
KCCY 140315Z AUTO 21006KT 10SM CLR M04/M05 A3037 RMK AO2,KCCY,2019-01-14T03:15:00Z,43.07,-92.62,-4.0,-5.0,210,6,,10.0,30.369095,,,TRUE,TRUE,,,,,,,CLR,,,,,,,,VFR,,,,,,,,,,,,SPECI,343.0
KAIK 140315Z AUTO 00000KT 7SM OVC005 05/05 A3022 RMK AO2,KAIK,2019-01-14T03:15:00Z,33.65,-81.68,5.0,5.0,0,0,,7.0,30.221457,,,TRUE,TRUE,,,,,,,OVC,500,,,,,,,IFR,,,,,,,,,,,,SPECI,161.0
K22N 140315Z AUTO 00000KT 10SM CLR M02/M12 A3030 RMK AO2,K22N,2019-01-14T03:15:00Z,40.8,-75.77,-2.0,-12.0,0,0,,10.0,30.301182,,,TRUE,TRUE,,,,,,,CLR,,,,,,,,VFR,,,,,,,,,,,,SPECI,163.0
KTVY 140315Z AUTO 00000KT 10SM OVC017 M03/M06 A3032 RMK AO2,KTVY,2019-01-14T03:15:00Z,40.62,-112.35,-3.0,-6.0,0,0,,10.0,30.318897,,,TRUE,TRUE,,,,,,,OVC,1700,,,,,,,MVFR,,,,,,,,,,,,SPECI,1317.0
KRUG 140315Z AUTO 00000KT M1/4SM FZFG OVC002 M12/M12 A3019 RMK AO2,KRUG,2019-01-14T03:15:00Z,48.38,-100.02,-12.0,-12.0,0,0,,0.25,30.188976,,,TRUE,TRUE,,,,,,FZFG,OVC,200,,,,,,,LIFR,,,,,,,,,,,,SPECI,472.0
KPCZ 140315Z AUTO 19004KT 10SM OVC017 M03/M06 A3038 RMK AO2 T10301062,KPCZ,2019-01-14T03:15:00Z,44.33,-89.02,-3.0,-6.2,190,4,,10.0,30.380905,,,TRUE,TRUE,,,,,,,OVC,1700,,,,,,,MVFR,,,,,,,,,,,,SPECI,252.0
KMAW 140315Z AUTO 33006KT 10SM OVC011 02/00 A3040 RMK AO2,KMAW,2019-01-14T03:15:00Z,36.6,-90.0,2.0,0.0,330,6,,10.0,30.398623,,,TRUE,TRUE,,,,,,,OVC,1100,,,,,,,MVFR,,,,,,,,,,,,SPECI,90.0
KM25 140315Z AUTO 33003KT 10SM OVC008 01/00 A3036 RMK AO2,KM25,2019-01-14T03:15:00Z,36.77,-88.58,1.0,0.0,330,3,,10.0,30.360237,,,TRUE,TRUE,,,,,,,OVC,800,,,,,,,IFR,,,,,,,,,,,,SPECI,160.0
KLUM 140315Z AUTO 18004KT 10SM OVC024 M04/M07 A3033 RMK AO2 T10401067,KLUM,2019-01-14T03:15:00Z,44.9,-91.87,-4.0,-6.7,180,4,,10.0,30.33071,,,TRUE,TRUE,,,,,,,OVC,2400,,,,,,,MVFR,,,,,,,,,,,,SPECI,273.0
KLNL 140315Z AUTO 21004KT 10SM BKN013 M08/M09 A3024 RMK AO2 T10801090,KLNL,2019-01-14T03:15:00Z,46.15,-89.22,-8.0,-9.0,210,4,,10.0,30.239174,,,TRUE,TRUE,,,,,,,BKN,1300,,,,,,,MVFR,,,,,,,,,,,,SPECI,520.0
KINF 140315Z AUTO 00000KT 2 1/2SM BR BKN003 OVC007 16/16 A3018 RMK AO2,KINF,2019-01-14T03:15:00Z,28.8,-82.32,16.0,16.0,0,0,,2.5,30.180119,,,TRUE,TRUE,,,,,,BR,BKN,300,OVC,700,,,,,LIFR,,,,,,,,,,,,SPECI,15.0
KCKI 140315Z AUTO 00000KT 10SM OVC018 05/05 A3019 RMK AO2,KCKI,2019-01-14T03:15:00Z,33.72,-79.85,5.0,5.0,0,0,,10.0,30.188976,,,TRUE,TRUE,,,,,,,OVC,1800,,,,,,,MVFR,,,,,,,,,,,,SPECI,21.0
K2J9 140315Z AUTO 34005KT 10SM OVC034 09/06 A3023 RMK AO2,K2J9,2019-01-14T03:15:00Z,30.6,-84.55,9.0,6.0,340,5,,10.0,30.230314,,,TRUE,TRUE,,,,,,,OVC,3400,,,,,,,VFR,,,,,,,,,,,,SPECI,69.0
KVTI 140315Z AUTO 00000KT 3SM BR CLR M07/M08 A3041 RMK AO2 T10751078,KVTI,2019-01-14T03:15:00Z,42.22,-92.02,-7.5,-7.8,0,0,,3.0,30.410433,,,TRUE,TRUE,,,,,,BR,CLR,,,,,,,,MVFR,,,,,,,,,,,,SPECI,255.0
KSEM 140315Z AUTO 32009G14KT 10SM 07/03 A3030 RMK AO2,KSEM,2019-01-14T03:15:00Z,32.35,-86.98,7.0,3.0,320,9,14,10.0,30.301182,,,TRUE,TRUE,,,,,,,,,,,,,,,,,,,,,,,,,,,SPECI,51.0
KS32 140315Z AUTO 30007KT 4SM BR OVC003 M04/M04 A3018 RMK AO2,KS32,2019-01-14T03:15:00Z,47.42,-98.1,-4.0,-4.0,300,7,,4.0,30.180119,,,TRUE,TRUE,,,,,,BR,OVC,300,,,,,,,LIFR,,,,,,,,,,,,SPECI,684.0
KMNI 140315Z AUTO 35004KT 10SM OVC007 06/05 A3018 RMK AO2,KMNI,2019-01-14T03:15:00Z,33.58,-80.22,6.0,5.0,350,4,,10.0,30.180119,,,TRUE,TRUE,,,,,,,OVC,700,,,,,,,IFR,,,,,,,,,,,,SPECI,32.0
KMCJ 140315Z AUTO 36009KT 10SM CLR 10/02 A3037 RMK A01,KMCJ,2019-01-14T03:15:00Z,29.72,-95.4,10.0,2.0,360,9,,10.0,30.369095,,,TRUE,TRUE,,,,,,,CLR,,,,,,,,VFR,,,,,,,,,,,,SPECI,69.0
KGGE 140315Z AUTO 33007KT 10SM BKN012 OVC017 06/04 A3018 RMK AO2,KGGE,2019-01-14T03:15:00Z,33.32,-79.32,6.0,4.0,330,7,,10.0,30.180119,,,TRUE,TRUE,,,,,,,BKN,1200,OVC,1700,,,,,MVFR,,,,,,,,,,,,SPECI,12.0
KCCA 140315Z AUTO VRB03G12KT 10SM SCT017 OVC033 02/M01 A3041 RMK AO2,KCCA,2019-01-14T03:15:00Z,35.6,-92.45,2.0,-1.0,0,3,12,10.0,30.410433,,,TRUE,TRUE,,,,,,,SCT,1700,OVC,3300,,,,,VFR,,,,,,,,,,,,SPECI,157.0
K96D 140315Z AUTO 32005KT 7SM M06/M06 A3020 RMK AO2,K96D,2019-01-14T03:15:00Z,48.93,-97.9,-6.0,-6.0,320,5,,7.0,30.200787,,,TRUE,TRUE,,,,,,,,,,,,,,,,,,,,,,,,,,,SPECI,290.0
K74V 140315Z AUTO 00000KT 10SM OVC015 M04/M07 A3038 RMK AO2,K74V,2019-01-14T03:15:00Z,40.28,-110.05,-4.0,-7.0,0,0,,10.0,30.380905,,,TRUE,TRUE,,,,,,,OVC,1500,,,,,,,MVFR,,,,,,,,,,,,SPECI,1576.0
KODO 140314Z AUTO 07010KT 5SM HZ SCT005 00/ A3036 RMK AO2 T0000 $,KODO,2019-01-14T03:14:00Z,31.92,-102.4,0.0,,70,10,,5.0,30.360237,,,TRUE,TRUE,TRUE,,,,,HZ,SCT,500,,,,,,,MVFR,,,,,,,,,,,,SPECI,902.0
KELN 140314Z AUTO 13003KT 1 1/4SM BR OVC002 M01/M02 A3032 RMK AO2 T10061022,KELN,2019-01-14T03:14:00Z,47.03,-120.53,-0.6,-2.2,130,3,,1.25,30.318897,,,TRUE,TRUE,,,,,,BR,OVC,200,,,,,,,LIFR,,,,,,,,,,,,SPECI,519.0
K2V6 140314Z AUTO 25006KT 10SM CLR M06/M07 A3024 RMK AO2,K2V6,2019-01-14T03:14:00Z,40.1,-102.72,-6.0,-7.0,250,6,,10.0,30.239174,,,TRUE,TRUE,,,,,,,CLR,,,,,,,,VFR,,,,,,,,,,,,METAR,1261.0
KIAD 140314Z 02005KT 4SM -SN BR SCT008 BKN010 OVC038 M02/M03 A3029 RMK AO2 P0000 T10221028 $,KIAD,2019-01-14T03:14:00Z,38.93,-77.45,-2.2,-2.8,20,5,,4.0,30.28937,,,,TRUE,TRUE,,,,,-SN BR,SCT,800,BKN,1000,OVC,3800,,,MVFR,,,,,,0.005,,,,,,SPECI,93.0
KFOZ 140314Z AUTO 24004KT 7SM OVC007 M03/M05 A3019 RMK AO2,KFOZ,2019-01-14T03:14:00Z,47.77,-93.65,-3.0,-5.0,240,4,,7.0,30.188976,,,TRUE,TRUE,,,,,,,OVC,700,,,,,,,IFR,,,,,,,,,,,,METAR,411.0
PAWM 140314Z AUTO 12020G28KT 8SM -SN BKN028 OVC039 M04/M07 A2936 RMK AO2 PK WND 11028/0311 SNB0258 P0000 FZRANO,PAWM,2019-01-14T03:14:00Z,64.68,-163.42,-4.0,-7.0,120,20,28,8.0,29.359253,,,TRUE,TRUE,,,,TRUE,,-SN,BKN,2800,OVC,3900,,,,,MVFR,,,,,,0.005,,,,,,SPECI,82.0
PARY 140314Z AUTO 08025G31KT 2SM -SN OVC085 M18/M21 A2968 RMK AO2 PK WND 08031/0314 VIS 1 3/4V3 P0000 FZRANO,PARY,2019-01-14T03:14:00Z,64.73,-155.47,-18.0,-21.0,80,25,31,2.0,29.681103,,,TRUE,TRUE,,,,TRUE,,-SN,OVC,8500,,,,,,,IFR,,,,,,0.005,,,,,,SPECI,199.0
PAGL 140314Z AUTO 11030G38KT 1SM -SN BR FEW031 BKN043 OVC065 M04/M06 A2936 RMK AO2 PK WND 11038/0305 VIS 3/4V1 1/2 P0000 FZRANO,PAGL,2019-01-14T03:14:00Z,64.55,-163.03,-4.0,-6.0,110,30,38,1.0,29.359253,,,TRUE,TRUE,,,,TRUE,,-SN BR,FEW,3100,BKN,4300,OVC,6500,,,IFR,,,,,,0.005,,,,,,SPECI,8.0
KCQC 140313Z AUTO 10008KT 1/2SM -SN FZFG VV002 M03/M04 A3026 RMK AO2 P0000 T10281039,KCQC,2019-01-14T03:13:00Z,35.0,-105.67,-2.8,-3.9,100,8,,0.5,30.259842,,,TRUE,TRUE,,,,,,-SN FZFG,OVX,0,,,,,,,LIFR,,,,,,0.005,,,,,200,SPECI,2160.0
KJKL 140313Z AUTO VRB03KT 4SM BR OVC002 00/M01 A3021 RMK AO2 T00001006,KJKL,2019-01-14T03:13:00Z,37.6,-83.32,0.0,-0.6,0,3,,4.0,30.209646,,,TRUE,TRUE,,,,,,BR,OVC,200,,,,,,,LIFR,,,,,,,,,,,,SPECI,416.0
KFTY 140313Z 31005KT 10SM SCT012 OVC020 07/06 A3021 RMK AO2 T00720061,KFTY,2019-01-14T03:13:00Z,33.78,-84.52,7.2,6.1,310,5,,10.0,30.209646,,,,TRUE,,,,,,,SCT,1200,OVC,2000,,,,,MVFR,,,,,,,,,,,,SPECI,263.0
KCRE 140313Z AUTO 33007KT 10SM OVC010 05/03 A3016 RMK AO1 T00500033,KCRE,2019-01-14T03:13:00Z,33.82,-78.72,5.0,3.3,330,7,,10.0,30.159449,,,TRUE,TRUE,,,,,,,OVC,1000,,,,,,,MVFR,,,,,,,,,,,,SPECI,10.0
KNBC 140313Z 32008KT 10SM SCT010 BKN016 OVC021 08/07 A3019 RMK AO2 T00830072,KNBC,2019-01-14T03:13:00Z,32.47,-80.72,8.3,7.2,320,8,,10.0,30.188976,,,,TRUE,,,,,,,SCT,1000,BKN,1600,OVC,2100,,,MVFR,,,,,,,,,,,,SPECI,12.0
CYPH 140313Z AUTO 28017G22KT 4SM -SN OVC031 M20/M23 A2956 RMK SLP015,CYPH,2019-01-14T03:13:00Z,58.45,-78.08,-20.0,-23.0,280,17,22,4.0,29.56004,1001.5,,TRUE,,,,,,,-SN,OVC,3100,,,,,,,MVFR,,,,,,,,,,,,SPECI,3.0
CYHU 140313Z AUTO 15002KT 6SM BR CLR M16/M18 A3047 RMK SLP324,CYHU,2019-01-14T03:13:00Z,45.52,-73.42,-16.0,-18.0,150,2,,6.0,30.469488,1032.4,,TRUE,,,,,,,BR,CLR,,,,,,,,VFR,,,,,,,,,,,,SPECI,27.0
KXVG 140313Z AUTO 24007KT 10SM OVC009 M02/M03 A3019 RMK AO2,KXVG,2019-01-14T03:13:00Z,46.98,-94.2,-2.0,-3.0,240,7,,10.0,30.188976,,,TRUE,TRUE,,,,,,,OVC,900,,,,,,,IFR,,,,,,,,,,,,SPECI,407.0
KCCU 140312Z AUTO 00000KT 10SM CLR M08/M12 A3017 RMK AO2,KCCU,2019-01-14T03:12:00Z,39.48,-106.15,-8.0,-12.0,0,0,,10.0,30.171259,,,TRUE,TRUE,,,,,,,CLR,,,,,,,,VFR,,,,,,,,,,,,METAR,3680.0
KBDU 140312Z AUTO 23004KT 10SM CLR 00/M08 A3022 RMK AO2,KBDU,2019-01-14T03:12:00Z,40.03,-105.23,0.0,-8.0,230,4,,10.0,30.221457,,,TRUE,TRUE,,,,,,,CLR,,,,,,,,VFR,,,,,,,,,,,,METAR,1612.0
KEIK 140312Z AUTO 00000KT 10SM CLR M05/M08 A3028 RMK AO2 T10461077,KEIK,2019-01-14T03:12:00Z,40.02,-105.05,-4.6,-7.7,0,0,,10.0,30.280512,,,TRUE,TRUE,,,,,,,CLR,,,,,,,,VFR,,,,,,,,,,,,METAR,1564.0
K5SM 140312Z AUTO 00000KT 10SM CLR M11/M15 A3022 RMK AO2,K5SM,2019-01-14T03:12:00Z,39.43,-107.38,-11.0,-15.0,0,0,,10.0,30.221457,,,TRUE,TRUE,,,,,,,CLR,,,,,,,,VFR,,,,,,,,,,,,METAR,3232.0
K4BM 140312Z AUTO 00000KT 10SM SCT100 M10/M13 A3021 RMK AO2 LTG DSNT NW,K4BM,2019-01-14T03:12:00Z,39.05,-105.52,-10.0,-13.0,0,0,,10.0,30.209646,,,TRUE,TRUE,,,,,,,SCT,10000,,,,,,,VFR,,,,,,,,,,,,METAR,3438.0
K20V 140312Z AUTO 00000KT 10SM CLR M17/M19 A3028 RMK AO2,K20V,2019-01-14T03:12:00Z,40.05,-106.37,-17.0,-19.0,0,0,,10.0,30.280512,,,TRUE,TRUE,,,,,,,CLR,,,,,,,,VFR,,,,,,,,,,,,METAR,2259.0
KFTG 140312Z AUTO 20006KT 10SM CLR M08/M10 A3022 RMK AO2 T10781101,KFTG,2019-01-14T03:12:00Z,39.78,-104.55,-7.8,-10.1,200,6,,10.0,30.221457,,,TRUE,TRUE,,,,,,,CLR,,,,,,,,VFR,,,,,,,,,,,,METAR,1675.0
PAPB 140312Z AUTO 13028G38KT 9SM -SN SCT021 BKN028 BKN032 03/01 A2854 RMK AO2 PK WND 13042/0257 P0000 T00280006 TSNO $,PAPB,2019-01-14T03:12:00Z,56.58,-169.67,2.8,0.6,130,28,38,9.0,28.541338,,,TRUE,TRUE,TRUE,,TRUE,,,-SN,SCT,2100,BKN,2800,BKN,3200,,,MVFR,,,,,,0.005,,,,,,SPECI,35.0
KWAL 140312Z AUTO 33011G18KT 2SM -SN BR OVC007 01/M01 A3015 RMK AO2 P0001 T00111006,KWAL,2019-01-14T03:12:00Z,37.93,-75.47,1.1,-0.6,330,11,18,2.0,30.15059,,,TRUE,TRUE,,,,,,-SN BR,OVC,700,,,,,,,IFR,,,,,,0.01,,,,,,SPECI,14.0
KFMN 140312Z 12006KT 10SM BKN022 01/00 A3021 RMK AO2 T00110000,KFMN,2019-01-14T03:12:00Z,36.75,-108.23,1.1,0.0,120,6,,10.0,30.209646,,,,TRUE,,,,,,,BKN,2200,,,,,,,MVFR,,,,,,,,,,,,SPECI,1685.0
KABQ 140312Z 34005KT 10SM VCFG FEW003 BKN026 OVC041 01/01 A3025 RMK AO2 VIS W 2 FG VC W MTNS OBSC NE-SE T00110006 $,KABQ,2019-01-14T03:12:00Z,35.05,-106.62,1.1,0.6,340,5,,10.0,30.250984,,,,TRUE,TRUE,,,,,VCFG,FEW,300,BKN,2600,OVC,4100,,,MVFR,,,,,,,,,,,,SPECI,1618.0
KMQY 140312Z AUTO 32008KT 10SM OVC011 04/02 A3030 RMK AO2,KMQY,2019-01-14T03:12:00Z,36.02,-86.52,4.0,2.0,320,8,,10.0,30.301182,,,TRUE,TRUE,,,,,,,OVC,1100,,,,,,,MVFR,,,,,,,,,,,,SPECI,166.0
PASA 140312Z AUTO 05012KT 2SM -SN BR SCT008 OVC017 M18/M21 A2935 RMK AO2 P0000 FZRANO $,PASA,2019-01-14T03:12:00Z,63.68,-170.5,-18.0,-21.0,50,12,,2.0,29.350393,,,TRUE,TRUE,TRUE,,,TRUE,,-SN BR,SCT,800,OVC,1700,,,,,IFR,,,,,,0.005,,,,,,SPECI,16.0
PAGS 140312Z AUTO 32003KT 1 3/4SM -RA BR OVC010 01/00 A3003 RMK AO2 P0000 FZRANO,PAGS,2019-01-14T03:12:00Z,58.42,-135.73,1.0,0.0,320,3,,1.75,30.029528,,,TRUE,TRUE,,,,TRUE,,-RA BR,OVC,1000,,,,,,,IFR,,,,,,0.005,,,,,,SPECI,9.0
PAWI 140311Z AUTO 07021KT 1/2SM UP VV005 M28/M31 A3009 RMK AO2 PK WND 06028/0301 UPB05 P0000 T12831311 TSNO $,PAWI,2019-01-14T03:11:00Z,70.62,-159.85,-28.3,-31.1,70,21,,0.5,30.088583,,,TRUE,TRUE,TRUE,,TRUE,,,UP,OVX,0,,,,,,,LIFR,,,,,,0.005,,,,,500,SPECI,27.0
KLWD 140311Z AUTO 26004KT 3SM BR OVC014 M06/M08 A3041 RMK AO2 T10611078,KLWD,2019-01-14T03:11:00Z,40.63,-93.9,-6.1,-7.8,260,4,,3.0,30.410433,,,TRUE,TRUE,,,,,,BR,OVC,1400,,,,,,,MVFR,,,,,,,,,,,,SPECI,346.0
KDRO 140311Z AUTO 00000KT 10SM BKN010 BKN035 OVC046 M02/M02 A3022 RMK AO2 T10171017 $,KDRO,2019-01-14T03:11:00Z,37.15,-107.77,-1.7,-1.7,0,0,,10.0,30.221457,,,TRUE,TRUE,TRUE,,,,,,BKN,1000,BKN,3500,OVC,4600,,,MVFR,,,,,,,,,,,,SPECI,2035.0
KBCE 140311Z AUTO 15006KT 4SM -SN BKN029 OVC055 M03/M06 A3019 RMK AO2 P0000 T10331061,KBCE,2019-01-14T03:11:00Z,37.7,-112.15,-3.3,-6.1,150,6,,4.0,30.188976,,,TRUE,TRUE,,,,,,-SN,BKN,2900,OVC,5500,,,,,MVFR,,,,,,0.005,,,,,,SPECI,2312.0
KAKH 140311Z AUTO 36003KT 10SM OVC007 03/01 A3019 RMK AO2 T00330006,KAKH,2019-01-14T03:11:00Z,35.2,-81.15,3.3,0.6,360,3,,10.0,30.188976,,,TRUE,TRUE,,,,,,,OVC,700,,,,,,,IFR,,,,,,,,,,,,SPECI,243.0
KVOK 140311Z AUTO 12003KT 10SM BKN024 M09/M09 A3037 RMK AO2 SLPNO $,KVOK,2019-01-14T03:11:00Z,43.92,-90.27,-9.0,-9.0,120,3,,10.0,30.369095,,,TRUE,TRUE,TRUE,,,,,,BKN,2400,,,,,,,MVFR,,,,,,,,,,,,SPECI,277.0
PFKT 140311Z AUTO 13011KT 8SM BKN016 BKN038 OVC075 M13/M16 A2940 RMK AO2 SNE00 P0000 FZRANO,PFKT,2019-01-14T03:11:00Z,65.33,-166.47,-13.0,-16.0,130,11,,8.0,29.40059,,,TRUE,TRUE,,,,TRUE,,,BKN,1600,BKN,3800,OVC,7500,,,MVFR,,,,,,0.005,,,,,,SPECI,9.0
PASK 140311Z AUTO 06021KT 3/4SM -SN BR SCT022 OVC034 M14/M16 A2972 RMK AO2 PK WND 07026/0309 P0000 FZRANO $,PASK,2019-01-14T03:11:00Z,66.6,-160.0,-14.0,-16.0,60,21,,0.75,29.719488,,,TRUE,TRUE,TRUE,,,TRUE,,-SN BR,SCT,2200,OVC,3400,,,,,LIFR,,,,,,0.005,,,,,,SPECI,8.0
PAAK 140311Z AUTO 30018G24KT 2SM -SN BR SCT015 BKN022 OVC027 01/M01 A2863 RMK AO2 FZRANO PNO $,PAAK,2019-01-14T03:11:00Z,52.22,-174.2,1.0,-1.0,300,18,24,2.0,28.629921,,,TRUE,TRUE,TRUE,,,TRUE,,-SN BR,SCT,1500,BKN,2200,OVC,2700,,,IFR,,,,,,,,,,,,SPECI,17.0
KOKK 140311Z AUTO 00000KT 5SM HZ CLR M11/M14 A3036 RMK AO2 SNE05 P0000 FZRANO,KOKK,2019-01-14T03:11:00Z,40.53,-86.07,-11.0,-14.0,0,0,,5.0,30.360237,,,TRUE,TRUE,,,,TRUE,,HZ,CLR,,,,,,,,MVFR,,,,,,0.005,,,,,,SPECI,253.0
KAQP 140311Z AUTO 21006KT 10SM OVC014 00/M02 A3024 RMK AO2,KAQP,2019-01-14T03:11:00Z,45.22,-96.0,0.0,-2.0,210,6,,10.0,30.239174,,,TRUE,TRUE,,,,,,,OVC,1400,,,,,,,MVFR,,,,,,,,,,,,SPECI,311.0
CYCY 140311Z AUTO 28006KT 9SM FEW032 M35/M38 A3016 RMK SLP222,CYCY,2019-01-14T03:11:00Z,70.47,-68.52,-35.0,-38.0,280,6,,9.0,30.159449,1022.2,,TRUE,,,,,,,,FEW,3200,,,,,,,VFR,,,,,,,,,,,,SPECI,26.0
KIXA 140310Z AUTO 36010KT 10SM OVC007 00/00 A3017 RMK AO2,KIXA,2019-01-14T03:10:00Z,36.33,-77.63,0.0,0.0,360,10,,10.0,30.171259,,,TRUE,TRUE,,,,,,,OVC,700,,,,,,,IFR,,,,,,,,,,,,SPECI,44.0
KIPJ 140310Z AUTO 00000KT 10SM OVC006 02/01 A3018 RMK AO2 T00160010,KIPJ,2019-01-14T03:10:00Z,35.48,-81.17,1.6,1.0,0,0,,10.0,30.180119,,,TRUE,TRUE,,,,,,,OVC,600,,,,,,,IFR,,,,,,,,,,,,SPECI,267.0
KJNX 140310Z AUTO 00000KT 4SM BR OVC006 01/01 A3018 RMK AO2,KJNX,2019-01-14T03:10:00Z,35.53,-78.38,1.0,1.0,0,0,,4.0,30.180119,,,TRUE,TRUE,,,,,,BR,OVC,600,,,,,,,IFR,,,,,,,,,,,,SPECI,50.0
PAMD 140310Z AUTO 13016KT 10SM BKN012 BKN017 OVC022 05/04 A2989 RMK AO2 RAE0258 P0000,PAMD,2019-01-14T03:10:00Z,59.43,-146.3,5.0,4.0,130,16,,10.0,29.890747,,,TRUE,TRUE,,,,,,,BKN,1200,BKN,1700,OVC,2200,,,MVFR,,,,,,0.005,,,,,,SPECI,14.0
KVBT 140310Z AUTO 34006KT 2SM -SN BR M01/M02 A3043 RMK AO2 SNB0258 FZRANO,KVBT,2019-01-14T03:10:00Z,36.35,-94.22,-1.0,-2.0,340,6,,2.0,30.431103,,,TRUE,TRUE,,,,TRUE,,-SN BR,,,,,,,,,,,,,,,,,,,,,SPECI,395.0
LZIB 140310Z 28018G31KT CAVOK 06/02 Q0993 R88/D,LZIB,2019-01-14T03:10:00Z,48.17,17.22,6.0,2.0,280,18,31,6.21,29.320866,,,,,,,,,,,CAVOK,,,,,,,,VFR,,,,,,,,,,,,SPECI,134.0
UMMS 140310Z 17005MPS 140V210 7000 -SN OVC005 00/M00 Q0980 R13/590531 TEMPO 1200 SN,UMMS,2019-01-14T03:10:00Z,53.88,28.03,0.0,0.0,170,10,,4.35,28.937008,,,,,,,,,,-SN,OVC,500,,,,,,,IFR,,,,,,,,,,,,SPECI,205.0
K2G4 140310Z AUTO 12005KT 3SM BKN004 BKN010 OVC028 M07/M07 A3010 RMK AO1,K2G4,2019-01-14T03:10:00Z,39.58,-79.33,-7.0,-7.0,120,5,,3.0,30.100393,,,TRUE,TRUE,,,,,,,BKN,400,BKN,1000,OVC,2800,,,LIFR,,,,,,,,,,,,SPECI,894.0
KHEQ 140310Z AUTO 28003KT 10SM CLR M04/M06 A3025 RMK AO2,KHEQ,2019-01-14T03:10:00Z,40.57,-102.28,-4.0,-6.0,280,3,,10.0,30.250984,,,TRUE,TRUE,,,,,,,CLR,,,,,,,,VFR,,,,,,,,,,,,METAR,1137.0
OAIX 140310Z 00000KT 8000 HZ BKN220 M04/M10 A3034 RMK AO2A SLP269 $,OAIX,2019-01-14T03:10:00Z,34.95,69.27,-4.0,-10.0,0,0,,4.97,30.339567,1026.9,,,TRUE,TRUE,,,,,HZ,BKN,22000,,,,,,,MVFR,,,,,,,,,,,,SPECI,1492.0
KMOB 140310Z 34009KT 10SM SCT023 07/03 A3031 RMK AO2 T00720028 $,KMOB,2019-01-14T03:10:00Z,30.68,-88.25,7.2,2.8,340,9,,10.0,30.31004,,,,TRUE,TRUE,,,,,,SCT,2300,,,,,,,VFR,,,,,,,,,,,,SPECI,63.0
KMKC 140310Z 00000KT 10SM OVC014 M01/M04 A3046 RMK AO2 T10061044,KMKC,2019-01-14T03:10:00Z,39.12,-94.6,-0.6,-4.4,0,0,,10.0,30.46063,,,,TRUE,,,,,,,OVC,1400,,,,,,,MVFR,,,,,,,,,,,,SPECI,227.0
KFRG 140310Z 06015KT 10SM SCT024 M03/M08 A3030 RMK AO2 T10281078,KFRG,2019-01-14T03:10:00Z,40.73,-73.42,-2.8,-7.8,60,15,,10.0,30.301182,,,,TRUE,,,,,,,SCT,2400,,,,,,,VFR,,,,,,,,,,,,SPECI,21.0
KCDD 140310Z AUTO 00000KT 5SM BR OVC011 M04/M06 A3021 RMK AO2,KCDD,2019-01-14T03:10:00Z,48.27,-92.48,-4.0,-6.0,0,0,,5.0,30.209646,,,TRUE,TRUE,,,,,,BR,OVC,1100,,,,,,,MVFR,,,,,,,,,,,,SPECI,341.0
KQFX 140310Z AUTO 08001KT 1600 HZ OVC027 02/M04 A3032 RMK A02 TSNO,KQFX,2019-01-14T03:10:00Z,,,2.0,-4.0,80,1,,0.99,30.318897,,,TRUE,TRUE,,,TRUE,,,HZ,OVC,2700,,,,,,,LIFR,,,,,,,,,,,,METAR,
KQFW 140310Z AUTO 20001KT 3200 HZ BKN027 01/M07 A3032 RMK A02 TSNO,KQFW,2019-01-14T03:10:00Z,,,1.0,-7.0,200,1,,1.99,30.318897,,,TRUE,TRUE,,,TRUE,,,HZ,BKN,2700,,,,,,,IFR,,,,,,,,,,,,METAR,
KQFV 140310Z AUTO 08001KT 2000 HZ FEW200 03/M05 A3030 RMK A02 TSNO,KQFV,2019-01-14T03:10:00Z,,,3.0,-5.0,80,1,,1.24,30.301182,,,TRUE,TRUE,,,TRUE,,,HZ,FEW,20000,,,,,,,IFR,,,,,,,,,,,,METAR,
KQFT 140310Z AUTO 26003KT 2800 HZ OVC023 M00/M06 A3033 RMK A02 TSNO,KQFT,2019-01-14T03:10:00Z,,,0.0,-6.0,260,3,,1.74,30.33071,,,TRUE,TRUE,,,TRUE,,,HZ,OVC,2300,,,,,,,IFR,,,,,,,,,,,,METAR,
KQFB 140310Z AUTO 30002KT 4000 HZ CLR 06/M03 A3031 RMK A02 TSNO,KQFB,2019-01-14T03:10:00Z,,,6.0,-3.0,300,2,,2.49,30.31004,,,TRUE,TRUE,,,TRUE,,,HZ,CLR,,,,,,,,IFR,,,,,,,,,,,,METAR,
KQEY 140310Z AUTO 16002KT 2000 HZ CLR 01/M03 A3000 RMK A02 TSNO,KQEY,2019-01-14T03:10:00Z,,,1.0,-3.0,160,2,,1.24,30.0,,,TRUE,TRUE,,,TRUE,,,HZ,CLR,,,,,,,,IFR,,,,,,,,,,,,METAR,
KQEW 140310Z AUTO 05002KT 1200 // OVC004 M02/M02 A3031 RMK A02 TSNO,KQEW,2019-01-14T03:10:00Z,,,-2.0,-2.0,50,2,,0.75,30.31004,,,TRUE,TRUE,,,TRUE,,,,OVC,400,,,,,,,LIFR,,,,,,,,,,,,METAR,
KQEV 140310Z AUTO 07001KT 2400 HZ OVC025 04/M02 A3029 RMK A02 TSNO,KQEV,2019-01-14T03:10:00Z,,,4.0,-2.0,70,1,,1.49,30.28937,,,TRUE,TRUE,,,TRUE,,,HZ,OVC,2500,,,,,,,IFR,,,,,,,,,,,,METAR,
KQES 140310Z AUTO 08002KT 2400 HZ BKN020 03/00 A3035 RMK A02 TSNO,KQES,2019-01-14T03:10:00Z,,,3.0,0.0,80,2,,1.49,30.351377,,,TRUE,TRUE,,,TRUE,,,HZ,BKN,2000,,,,,,,IFR,,,,,,,,,,,,METAR,
KQER 140310Z AUTO 23003KT 2000 HZ OVC019 00/M05 A3026 RMK A02 TSNO,KQER,2019-01-14T03:10:00Z,,,0.0,-5.0,230,3,,1.24,30.259842,,,TRUE,TRUE,,,TRUE,,,HZ,OVC,1900,,,,,,,IFR,,,,,,,,,,,,METAR,
KQEN 140310Z AUTO 26007G13KT 9999 CLR 02/M12 A3015 RMK A02 TSNO,KQEN,2019-01-14T03:10:00Z,,,2.0,-12.0,260,7,13,6.21,30.15059,,,TRUE,TRUE,,,TRUE,,,,CLR,,,,,,,,VFR,,,,,,,,,,,,METAR,
KQEL 140310Z AUTO 24003KT 4800 HZ CLR 01/M07 A3040 RMK A02 TSNO,KQEL,2019-01-14T03:10:00Z,,,1.0,-7.0,240,3,,2.98,30.398623,,,TRUE,TRUE,,,TRUE,,,HZ,CLR,,,,,,,,IFR,,,,,,,,,,,,METAR,
EHGR 140309Z AUTO 30014KT 270V330 9999 FEW020 SCT025 OVC040 08/05 Q1009 BLU,EHGR,2019-01-14T03:09:00Z,51.57,4.92,8.0,5.0,300,14,,6.21,29.793306,,,TRUE,,,,,,,,FEW,2000,SCT,2500,OVC,4000,,,VFR,,,,,,,,,,,,SPECI,13.0
KTIW 140309Z 34003KT 1 3/4SM BR CLR 03/02 A3011 RMK AO2 T00280022,KTIW,2019-01-14T03:09:00Z,47.27,-122.58,2.8,2.2,340,3,,1.75,30.109253,,,,TRUE,,,,,,BR,CLR,,,,,,,,IFR,,,,,,,,,,,,SPECI,89.0
KHKY 140309Z AUTO 05003KT 10SM SCT009 BKN015 OVC020 02/01 A3017 RMK AO2 T00170011,KHKY,2019-01-14T03:09:00Z,35.75,-81.38,1.7,1.1,50,3,,10.0,30.171259,,,TRUE,TRUE,,,,,,,SCT,900,BKN,1500,OVC,2000,,,MVFR,,,,,,,,,,,,SPECI,354.0
KGUY 140309Z AUTO 16005KT 9SM BKN008 01/M02 A3034 RMK AO2 CIG 004V008 T00061017,KGUY,2019-01-14T03:09:00Z,36.68,-101.5,0.6,-1.7,160,5,,9.0,30.339567,,,TRUE,TRUE,,,,,,,BKN,800,,,,,,,IFR,,,,,,,,,,,,SPECI,948.0
KCEU 140309Z AUTO 00000KT 2 1/2SM BR OVC003 04/04 A3018 RMK AO2 T00440044,KCEU,2019-01-14T03:09:00Z,34.67,-82.88,4.4,4.4,0,0,,2.5,30.180119,,,TRUE,TRUE,,,,,,BR,OVC,300,,,,,,,LIFR,,,,,,,,,,,,SPECI,268.0
KROG 140309Z AUTO 35003KT 1 3/4SM -SN BR OVC005 M01/M02 A3042 RMK AO2 P0000,KROG,2019-01-14T03:09:00Z,36.37,-94.08,-1.0,-2.0,350,3,,1.75,30.41929,,,TRUE,TRUE,,,,,,-SN BR,OVC,500,,,,,,,IFR,,,,,,0.005,,,,,,SPECI,415.0
KLGU 140309Z AUTO 00000KT 3/4SM BR OVC009 M11/M12 A3032 RMK AO2 T11111122,KLGU,2019-01-14T03:09:00Z,41.78,-111.85,-11.1,-12.2,0,0,,0.75,30.318897,,,TRUE,TRUE,,,,,,BR,OVC,900,,,,,,,LIFR,,,,,,,,,,,,SPECI,1355.0
KEVM 140309Z AUTO 25007KT 7SM OVC008 M02/M03 A3019 RMK AO2,KEVM,2019-01-14T03:09:00Z,47.42,-92.5,-2.0,-3.0,250,7,,7.0,30.188976,,,TRUE,TRUE,,,,,,,OVC,800,,,,,,,IFR,,,,,,,,,,,,SPECI,421.0
PANI 140309Z AUTO 12024G31KT 10SM SCT028 SCT100 02/M01 A2929 RMK AO2 PK WND 12031/0308 RAE01 PRESRR P0000 FZRANO,PANI,2019-01-14T03:09:00Z,61.58,-159.53,2.0,-1.0,120,24,31,10.0,29.291338,,,TRUE,TRUE,,,,TRUE,,,SCT,2800,SCT,10000,,,,,VFR,,,,,,0.005,,,,,,SPECI,26.0
YBAS 140309Z AUTO 08018KT 9999 // NCD 41/04 Q1010 RF00/0/000/0,YBAS,2019-01-14T03:09:00Z,-23.8,133.9,41.0,4.0,80,18,,6.21,29.822834,,,TRUE,,,,,,,,CLR,,,,,,,,VFR,,,,,,,,,,,,SPECI,541.0
CZVL 140309Z AUTO 20003KT 1/8SM R26/2800VP6000FT FZFG BKN005 M12/M13 A3019 RMK SLP280,CZVL,2019-01-14T03:09:00Z,53.67,-113.85,-12.0,-13.0,200,3,,0.13,30.188976,1028.0,,TRUE,,,,,,,FZFG,BKN,500,,,,,,,LIFR,,,,,,,,,,,,SPECI,686.0
UTO8 M M M 098/-17/-19/1322+29/M/M PK WND 1229 0241Z SOG 08 6036 68MM,UTO8,2019-01-14T03:08:09Z,,,,,,,,3.75,,,,,,,,,,,,,,,,,,,,,,,,,,,,,,,,METAR,
PASY 140308Z AUTO 36029G33KT 7SM FEW025 SCT044 SCT065 M03/M09 A2934 RMK AO2 SLP940,PASY,2019-01-14T03:08:00Z,52.72,174.12,-3.0,-9.0,360,29,33,7.0,29.338583,994.0,,TRUE,TRUE,,,,,,,FEW,2500,SCT,4400,SCT,6500,,,VFR,,,,,,,,,,,,SPECI,31.0
KHEY 140308Z AUTO 32004KT 10SM OVC029 09/06 A3023 RMK AO2 SLP239,KHEY,2019-01-14T03:08:00Z,31.35,-85.65,9.0,6.0,320,4,,10.0,30.230314,1023.9,,TRUE,TRUE,,,,,,,OVC,2900,,,,,,,MVFR,,,,,,,,,,,,SPECI,97.0
KLHX 140308Z AUTO 36005KT 3SM BR OVC002 00/M01 A3027 RMK AO2 T00001006,KLHX,2019-01-14T03:08:00Z,38.05,-103.52,0.0,-0.6,360,5,,3.0,30.268702,,,TRUE,TRUE,,,,,,BR,OVC,200,,,,,,,LIFR,,,,,,,,,,,,SPECI,1277.0
KINT 140308Z AUTO 03005KT 5SM BR OVC004 01/00 A3020 RMK AO2 T00060000,KINT,2019-01-14T03:08:00Z,36.13,-80.22,0.6,0.0,30,5,,5.0,30.200787,,,TRUE,TRUE,,,,,,BR,OVC,400,,,,,,,LIFR,,,,,,,,,,,,SPECI,291.0
KROX 140308Z AUTO 21004KT 5SM BR OVC007 M05/M07 A3019 RMK AO2,KROX,2019-01-14T03:08:00Z,48.85,-95.7,-5.0,-7.0,210,4,,5.0,30.188976,,,TRUE,TRUE,,,,,,BR,OVC,700,,,,,,,IFR,,,,,,,,,,,,SPECI,323.0
CYGW 140308Z AUTO 24012G17KT 1 1/2SM -SN OVC016 M11/M13 A2981 RMK SLP097,CYGW,2019-01-14T03:08:00Z,55.27,-77.77,-11.0,-13.0,240,12,17,1.5,29.811024,1009.7,,TRUE,,,,,,,-SN,OVC,1600,,,,,,,IFR,,,,,,,,,,,,SPECI,12.0
PASH 140308Z AUTO 07017KT 1/2SM SN FZFG OVC014 M15/M17 A2951 RMK AO2 P0000 FZRANO,PASH,2019-01-14T03:08:00Z,66.27,-166.08,-15.0,-17.0,70,17,,0.5,29.509842,,,TRUE,TRUE,,,,TRUE,,SN FZFG,OVC,1400,,,,,,,LIFR,,,,,,0.005,,,,,,METAR,2.0
CYHK 140308Z AUTO 34014KT 2 1/2SM HZ CLR M36/M40 A3024 RMK SLP251,CYHK,2019-01-14T03:08:00Z,68.62,-95.83,-36.0,-40.0,340,14,,2.5,30.239174,1025.1,,TRUE,,,,,,,HZ,CLR,,,,,,,,IFR,,,,,,,,,,,,SPECI,46.0
CWRX 140308Z AUTO 04016KT ////SM //// SCT003 BKN050 OVC075 M31/M34 A2998,CWRX,2019-01-14T03:08:00Z,69.07,-79.02,-31.0,-34.0,40,16,,,29.97933,,,TRUE,,,,,,,,SCT,300,BKN,5000,OVC,7500,,,,,,,,,,,,,,,SPECI,41.0
UBBN 140308Z 05002KT 1500 BR SCT030 BKN076 M04/M05 Q1008 R14R/CLRD// NOSIG RMK MT OBSC QFE682,UBBN,2019-01-14T03:08:00Z,39.18,45.45,-4.0,-5.0,50,2,,0.93,29.763779,,,,,,TRUE,,,,BR,SCT,3000,BKN,7600,,,,,LIFR,,,,,,,,,,,,SPECI,873.0
CYAT 140307Z AUTO 31008KT 6SM -SN FEW010 SCT021 BKN029 OVC034 M05/M06 A2995 RMK SLP143,CYAT,2019-01-14T03:07:00Z,52.93,-82.43,-5.0,-6.0,310,8,,6.0,29.949802,1014.3,,TRUE,,,,,,,-SN,FEW,1000,SCT,2100,BKN,2900,OVC,3400,MVFR,,,,,,,,,,,,SPECI,9.0
CYIO 140307Z AUTO 00000KT 3/4SM HZ BKN002 M40/M45 A3015 RMK SLP225,CYIO,2019-01-14T03:07:00Z,72.67,-77.97,-40.0,-45.0,0,0,,0.75,30.15059,1022.5,,TRUE,,,,,,,HZ,BKN,200,,,,,,,LIFR,,,,,,,,,,,,SPECI,57.0
ETIH 140307Z AUTO 28013G18KT 9999 BKN022 OVC030 04/04 A2954 RMK AO2 CIG 022V030 SLP021 $,ETIH,2019-01-14T03:07:00Z,49.22,11.82,4.0,4.0,280,13,18,6.21,29.53937,1002.1,,TRUE,TRUE,TRUE,,,,,,BKN,2200,OVC,3000,,,,,MVFR,,,,,,,,,,,,SPECI,442.0
EHKD 140307Z AUTO 33009KT 290V010 9999 FEW015CB BKN020 OVC024 06/05 Q1007 WHT,EHKD,2019-01-14T03:07:00Z,52.92,4.77,6.0,5.0,330,9,,6.21,29.734253,,,TRUE,,,,,,,,FEW,1500,BKN,2000,OVC,2400,,,MVFR,,,,,,,,,,,,SPECI,14.0
KMRB 140307Z AUTO 03009KT 2SM -SN SCT007 OVC033 M03/M04 A3028 RMK AO2 P0000 T10331044 $,KMRB,2019-01-14T03:07:00Z,39.4,-77.98,-3.3,-4.4,30,9,,2.0,30.280512,,,TRUE,TRUE,TRUE,,,,,-SN,SCT,700,OVC,3300,,,,,IFR,,,,,,0.005,,,,,,METAR,164.0
KGEG 140307Z 32004KT 10SM R03/1600FT BCFG FEW005 FEW250 M03/M04 A3028 RMK AO2 VIS W-NW 1 T10331044,KGEG,2019-01-14T03:07:00Z,47.62,-117.53,-3.3,-4.4,320,4,,10.0,30.280512,,,,TRUE,,,,,,BCFG,FEW,500,FEW,25000,,,,,VFR,,,,,,,,,,,,METAR,735.0
PARS 140307Z AUTO 06007KT 1 3/4SM -SN BR OVC012 M09/M11 A2930 RMK AO2 P0000 FZRANO $,PARS,2019-01-14T03:07:00Z,61.77,-161.32,-9.0,-11.0,60,7,,1.75,29.300198,,,TRUE,TRUE,TRUE,,,TRUE,,-SN BR,OVC,1200,,,,,,,IFR,,,,,,0.005,,,,,,METAR,16.0
PAOU 140307Z AUTO 15016KT 9SM -RA BKN014 BKN022 OVC027 02/01 A2910 RMK AO2 UPE0258RAB0258 P0000 FZRANO,PAOU,2019-01-14T03:07:00Z,56.0,-161.17,2.0,1.0,150,16,,9.0,29.09941,,,TRUE,TRUE,,,,TRUE,,-RA,BKN,1400,BKN,2200,OVC,2700,,,MVFR,,,,,,0.005,,,,,,METAR,4.0
KMYP 140307Z AUTO 19004KT M11/M12 A3027 RMK AO2 PWINO,KMYP,2019-01-14T03:07:00Z,38.48,-106.32,-11.0,-12.0,190,4,,,30.268702,,,TRUE,TRUE,,,,,TRUE,,,,,,,,,,,,,,,,,,,,,,METAR,3667.0
EHVL 140307Z AUTO 35010KT 5000 BR FEW001 SCT005 BKN023 06/05 Q1007 YLO,EHVL,2019-01-14T03:07:00Z,53.23,4.92,6.0,5.0,350,10,,3.11,29.734253,,,TRUE,,,,,,,BR,FEW,100,SCT,500,BKN,2300,,,MVFR,,,,,,,,,,,,SPECI,5.0
EKYT 140306Z AUTO 32017G28KT 9999 NCD 01/M09 Q0993 R26L/750175,EKYT,2019-01-14T03:06:00Z,57.1,9.87,1.0,-9.0,320,17,28,6.21,29.320866,,,TRUE,,,,,,,,CLR,,,,,,,,VFR,,,,,,,,,,,,SPECI,3.0
YLEC 140306Z AUTO 36015G25KT //// // ////// 45/05 Q1009,YLEC,2019-01-14T03:06:00Z,-30.6,138.43,45.0,5.0,360,15,25,,29.793306,,,TRUE,,,,,,,,,,,,,,,,,,,,,,,,,,,,SPECI,262.0
CYYQ 140306Z 32020G31KT 1SM R33/P6000FT/U IC BLSN SKC M24/M27 A3013 RMK BLSN7 SLP210,CYYQ,2019-01-14T03:06:00Z,58.75,-94.07,-24.0,-27.0,320,20,31,1.0,30.129921,1021.0,,,,,,,,,BLSN IC,SKC,,,,,,,,IFR,,,,,,,,,,,,SPECI,29.0
TJNR 140306Z AUTO 05007KT 10SM SCT023 24/21 A3012 RMK AO2 T02440206,TJNR,2019-01-14T03:06:00Z,18.25,-65.63,24.4,20.6,50,7,,10.0,30.121063,,,TRUE,TRUE,,,,,,,SCT,2300,,,,,,,VFR,,,,,,,,,,,,SPECI,12.0
KMMT 140306Z AUTO 33005KT 10SM OVC009 05/05 A3019 RMK AO2 SLP228 $,KMMT,2019-01-14T03:06:00Z,33.92,-80.78,5.0,5.0,330,5,,10.0,30.188976,1022.8,,TRUE,TRUE,TRUE,,,,,,OVC,900,,,,,,,IFR,,,,,,,,,,,,SPECI,77.0
KMCF 140306Z AUTO 34006KT 10SM FEW006 17/16 A3017 RMK AO2 VIS 2 1/2 RWY22 SLP220 FZRANO $,KMCF,2019-01-14T03:06:00Z,27.85,-82.52,17.0,16.0,340,6,,10.0,30.171259,1022.0,,TRUE,TRUE,TRUE,,,TRUE,,,FEW,600,,,,,,,VFR,,,,,,,,,,,,SPECI,4.0
KCVS 140306Z AUTO 11008KT 10SM FEW033 OVC049 01/M02 A3033 RMK AO2 SLP286 $,KCVS,2019-01-14T03:06:00Z,34.37,-103.32,1.0,-2.0,110,8,,10.0,30.33071,1028.6,,TRUE,TRUE,TRUE,,,,,,FEW,3300,OVC,4900,,,,,VFR,,,,,,,,,,,,SPECI,1309.0
KPOB 140306Z AUTO 36008KT 10SM OVC007 02/00 A3019 RMK AO2 SLP228 $,KPOB,2019-01-14T03:06:00Z,35.17,-79.02,2.0,0.0,360,8,,10.0,30.188976,1022.8,,TRUE,TRUE,TRUE,,,,,,OVC,700,,,,,,,IFR,,,,,,,,,,,,SPECI,66.0
LKCV 140306Z 28022G37KT 9999 -RA BKN020 OVC038 05/02 Q0991 RMK WHT,LKCV,2019-01-14T03:06:00Z,49.93,15.38,5.0,2.0,280,22,37,6.21,29.26181,,,,,,,,,,-RA,BKN,2000,OVC,3800,,,,,MVFR,,,,,,,,,,,,SPECI,242.0
KVLD 140306Z AUTO 36015KT 10SM BKN016 OVC021 12/09 A3020 RMK AO2 T01220094,KVLD,2019-01-14T03:06:00Z,30.78,-83.27,12.2,9.4,360,15,,10.0,30.200787,,,TRUE,TRUE,,,,,,,BKN,1600,OVC,2100,,,,,MVFR,,,,,,,,,,,,METAR,62.0
KPOF 140306Z AUTO 34006KT 3SM -SN BR OVC027 01/M01 A3039 RMK AO2 P0000 T00061006,KPOF,2019-01-14T03:06:00Z,36.77,-90.32,0.6,-0.6,340,6,,3.0,30.389763,,,TRUE,TRUE,,,,,,-SN BR,OVC,2700,,,,,,,MVFR,,,,,,0.005,,,,,,METAR,99.0
KMTO 140306Z AUTO 36009KT 8SM BKN015 OVC032 M04/M04 A3036 RMK AO2 T10391044,KMTO,2019-01-14T03:06:00Z,39.47,-88.27,-3.9,-4.4,360,9,,8.0,30.360237,,,TRUE,TRUE,,,,,,,BKN,1500,OVC,3200,,,,,MVFR,,,,,,,,,,,,METAR,214.0
KLVS 140306Z AUTO 20004KT 1SM BR VV003 M03/M03 A3026 RMK AO2 T10331033,KLVS,2019-01-14T03:06:00Z,35.65,-105.13,-3.3,-3.3,200,4,,1.0,30.259842,,,TRUE,TRUE,,,,,,BR,OVX,0,,,,,,,LIFR,,,,,,,,,,,300,METAR,2091.0
KBLF 140306Z AUTO 00000KT 1 3/4SM BR OVC003 M01/M02 A3011 RMK AO2 T10111017,KBLF,2019-01-14T03:06:00Z,37.3,-81.2,-1.1,-1.7,0,0,,1.75,30.109253,,,TRUE,TRUE,,,,,,BR,OVC,300,,,,,,,LIFR,,,,,,,,,,,,METAR,873.0
KALS 140306Z AUTO 00000KT 6SM BR OVC015 M09/M10 A3024 RMK AO2 SNE04 P0000 T10941100,KALS,2019-01-14T03:06:00Z,37.43,-105.87,-9.4,-10.0,0,0,,6.0,30.239174,,,TRUE,TRUE,,,,,,BR,OVC,1500,,,,,,,MVFR,,,,,,0.005,,,,,,METAR,2299.0
EGVA 140306Z AUTO 29007KT 6000 HZ OVC042 07/02 A3005 RMK AO2 SLP181 $,EGVA,2019-01-14T03:06:00Z,51.67,-1.77,7.0,2.0,290,7,,3.73,30.050198,1018.1,,TRUE,TRUE,TRUE,,,,,HZ,OVC,4200,,,,,,,MVFR,,,,,,,,,,,,SPECI,87.0
KC07 140306Z AUTO 12004KT 10SM CLR M08/M22 A3017 RMK AO2,KC07,2019-01-14T03:06:00Z,40.35,-106.7,-8.0,-22.0,120,4,,10.0,30.171259,,,TRUE,TRUE,,,,,,,CLR,,,,,,,,VFR,,,,,,,,,,,,METAR,3224.0
KMNH 140306Z AUTO 21009KT 10SM CLR M05/M06 A3021 RMK AO2,KMNH,2019-01-14T03:06:00Z,39.22,-104.65,-5.0,-6.0,210,9,,10.0,30.209646,,,TRUE,TRUE,,,,,,,CLR,,,,,,,,VFR,,,,,,,,,,,,METAR,2152.0
KCPW 140306Z AUTO 21008KT 1/4SM SN OVC001 M10/M11 A3023 RMK AO2,KCPW,2019-01-14T03:06:00Z,37.45,-106.8,-10.0,-11.0,210,8,,0.25,30.230314,,,TRUE,TRUE,,,,,,SN,OVC,100,,,,,,,LIFR,,,,,,,,,,,,METAR,3584.0
K7BM 140306Z AUTO 27006KT 10SM CLR M07/M13 A3019 RMK AO2,K7BM,2019-01-14T03:06:00Z,38.78,-106.22,-7.0,-13.0,270,6,,10.0,30.188976,,,TRUE,TRUE,,,,,,,CLR,,,,,,,,VFR,,,,,,,,,,,,METAR,2995.0
CYZH 140305Z AUTO 12004KT 4SM BR SCT002 M04/M04 A3018 RMK SLP257,CYZH,2019-01-14T03:05:00Z,55.28,-114.77,-4.0,-4.0,120,4,,4.0,30.180119,1025.7,,TRUE,,,,,,,BR,SCT,200,,,,,,,MVFR,,,,,,,,,,,,SPECI,581.0
CYTE 140305Z AUTO 12018G23KT 1 1/2SM -SN SCT021 OVC027 M14/M16 A2942 RMK SLP970,CYTE,2019-01-14T03:05:00Z,64.22,-76.52,-14.0,-16.0,120,18,23,1.5,29.421259,997.0,,TRUE,,,,,,,-SN,SCT,2100,OVC,2700,,,,,IFR,,,,,,,,,,,,SPECI,47.0
KLZU 140305Z AUTO VRB04KT 9SM OVC006 06/06 A3018 RMK AO2,KLZU,2019-01-14T03:05:00Z,33.98,-83.97,6.0,6.0,0,4,,9.0,30.180119,,,TRUE,TRUE,,,,,,,OVC,600,,,,,,,IFR,,,,,,,,,,,,SPECI,323.0
CYFS 140305Z 13005KT 080V160 3SM -SN SCT012 BKN019 OVC034 M25/M28 A3034 RMK SC4SC2SC2 MOON DMLY VSBL SLP303,CYFS,2019-01-14T03:05:00Z,61.75,-121.22,-25.0,-28.0,130,5,,3.0,30.339567,1030.3,,,,,,,,,-SN,SCT,1200,BKN,1900,OVC,3400,,,MVFR,,,,,,,,,,,,SPECI,169.0
KBVY 140305Z AUTO 34003KT 10SM BKN022 M09/M13 A3037 RMK AO2 T10941128,KBVY,2019-01-14T03:05:00Z,42.58,-70.92,-9.4,-12.8,340,3,,10.0,30.369095,,,TRUE,TRUE,,,,,,,BKN,2200,,,,,,,MVFR,,,,,,,,,,,,SPECI,28.0
KBHM 140305Z 32007KT 10SM OVC014 06/03 A3030 RMK AO2 T00610033,KBHM,2019-01-14T03:05:00Z,33.57,-86.75,6.1,3.3,320,7,,10.0,30.301182,,,,TRUE,,,,,,,OVC,1400,,,,,,,MVFR,,,,,,,,,,,,SPECI,197.0
KHNZ 140305Z AUTO 00000KT 5SM BR OVC005 M02/M02 A3018 RMK AO2 T10161021,KHNZ,2019-01-14T03:05:00Z,36.37,-78.53,-1.6,-2.1,0,0,,5.0,30.180119,,,TRUE,TRUE,,,,,,BR,OVC,500,,,,,,,IFR,,,,,,,,,,,,SPECI,161.0
KEET 140305Z AUTO 32009KT 10SM OVC015 06/03 A3028 RMK AO2 T00610028,KEET,2019-01-14T03:05:00Z,33.18,-86.78,6.1,2.8,320,9,,10.0,30.280512,,,TRUE,TRUE,,,,,,,OVC,1500,,,,,,,MVFR,,,,,,,,,,,,SPECI,173.0
KTTA 140305Z AUTO 36005KT 10SM OVC008 01/00 A3020 RMK AO2 T00080000,KTTA,2019-01-14T03:05:00Z,35.58,-79.1,0.8,0.0,360,5,,10.0,30.200787,,,TRUE,TRUE,,,,,,,OVC,800,,,,,,,IFR,,,,,,,,,,,,SPECI,75.0
KMWK 140305Z AUTO 08005KT 10SM BKN023 OVC027 02/00 A3019 RMK AO2 T00170001,KMWK,2019-01-14T03:05:00Z,36.47,-80.55,1.7,0.1,80,5,,10.0,30.188976,,,TRUE,TRUE,,,,,,,BKN,2300,OVC,2700,,,,,MVFR,,,,,,,,,,,,SPECI,380.0
KMCI 140305Z 00000KT 7SM OVC009 M02/M04 A3044 RMK AO2 T10171044 $,KMCI,2019-01-14T03:05:00Z,39.3,-94.73,-1.7,-4.4,0,0,,7.0,30.43996,,,,TRUE,TRUE,,,,,,OVC,900,,,,,,,IFR,,,,,,,,,,,,SPECI,320.0
MHLC 140305Z 08004KT 7000 -RA SCT026 SCT090 23/21 Q1018 A3006 NOSIG,MHLC,2019-01-14T03:05:00Z,15.75,-86.85,23.0,21.0,80,4,,4.35,30.059055,,,,,,TRUE,,,,-RA,SCT,2600,SCT,9000,,,,,MVFR,,,,,,,,,,,,SPECI,15.0
KEHO 140305Z AUTO 00000KT 7SM OVC007 02/02 A3019 RMK AO2 T00180016,KEHO,2019-01-14T03:05:00Z,35.25,-81.6,1.8,1.6,0,0,,7.0,30.188976,,,TRUE,TRUE,,,,,,,OVC,700,,,,,,,IFR,,,,,,,,,,,,SPECI,258.0
KGNB 140305Z AUTO 00000KT 5SM BR CLR M16/M17 A3024 RMK AO2 T11611175,KGNB,2019-01-14T03:05:00Z,40.08,-105.92,-16.1,-17.5,0,0,,5.0,30.239174,,,TRUE,TRUE,,,,,,BR,CLR,,,,,,,,MVFR,,,,,,,,,,,,METAR,2500.0
KNUI 140304Z AUTO 01008G15KT 1SM -SN BR BKN009 OVC014 00/M02 A3022 RMK AO2 P0001 T00001022,KNUI,2019-01-14T03:04:00Z,38.15,-76.43,0.0,-2.2,10,8,15,1.0,30.221457,,,TRUE,TRUE,,,,,,-SN BR,BKN,900,OVC,1400,,,,,IFR,,,,,,0.01,,,,,,SPECI,7.0
KGSP 140304Z 00000KT 3SM BR OVC003 04/03 A3018 RMK AO2 T00390033,KGSP,2019-01-14T03:04:00Z,34.9,-82.22,3.9,3.3,0,0,,3.0,30.180119,,,,TRUE,,,,,,BR,OVC,300,,,,,,,LIFR,,,,,,,,,,,,SPECI,287.0
KTPA 140304Z 31007KT 10SM BKN006 18/17 A3018 RMK AO2 CIG 004V009 BKN V SCT T01780167 $,KTPA,2019-01-14T03:04:00Z,27.97,-82.53,17.8,16.7,310,7,,10.0,30.180119,,,,TRUE,TRUE,,,,,,BKN,600,,,,,,,IFR,,,,,,,,,,,,SPECI,11.0
KTWF 140304Z AUTO 17004KT 3SM BR BKN002 M06/M07 A3025 RMK AO2 T10561067,KTWF,2019-01-14T03:04:00Z,42.48,-114.48,-5.6,-6.7,170,4,,3.0,30.250984,,,TRUE,TRUE,,,,,,BR,BKN,200,,,,,,,LIFR,,,,,,,,,,,,SPECI,1266.0
PAHY 140304Z AUTO 11018KT 3SM -RA BR BKN015 OVC021 08/07 A3000 RMK AO2 P0001 $,PAHY,2019-01-14T03:04:00Z,55.2,-132.83,8.0,7.0,110,18,,3.0,30.0,,,TRUE,TRUE,TRUE,,,,,-RA BR,BKN,1500,OVC,2100,,,,,MVFR,,,,,,0.01,,,,,,SPECI,1.0
KOFF 140304Z AUTO 00000KT 3/4SM R30/1800VP6000FT BR FEW000 M10/M10 A3040 RMK AO2 SLP316 $,KOFF,2019-01-14T03:04:00Z,41.12,-95.92,-10.0,-10.0,0,0,,0.75,30.398623,1031.6,,TRUE,TRUE,TRUE,,,,,BR,FEW,0,,,,,,,LIFR,,,,,,,,,,,,SPECI,319.0
CYKL 140304Z AUTO 25009G15KT 190V280 7SM -SN BKN015 OVC075 M18/M21 A2988 RMK SLP174,CYKL,2019-01-14T03:04:00Z,54.78,-66.82,-18.0,-21.0,250,9,15,7.0,29.878937,1017.4,,TRUE,,,,,,,-SN,BKN,1500,OVC,7500,,,,,MVFR,,,,,,,,,,,,METAR,521.0
KRIC 140303Z 36011KT 2SM -SN BR OVC011 M01/M03 A3022 RMK AO2 CIG 007V013 P0001 T10061028 $,KRIC,2019-01-14T03:03:00Z,37.52,-77.32,-0.6,-2.8,360,11,,2.0,30.221457,,,,TRUE,TRUE,,,,,-SN BR,OVC,1100,,,,,,,IFR,,,,,,0.01,,,,,,SPECI,50.0
KMCK 140303Z AUTO 19009KT 1 1/4SM BR OVC002 M01/M02 A3032 RMK AO2 T10111017,KMCK,2019-01-14T03:03:00Z,40.2,-100.58,-1.1,-1.7,190,9,,1.25,30.318897,,,TRUE,TRUE,,,,,,BR,OVC,200,,,,,,,LIFR,,,,,,,,,,,,SPECI,782.0
KLYH 140303Z 03008KT 10SM FEW007 OVC018 M01/M02 A3020 RMK AO2 T10061017,KLYH,2019-01-14T03:03:00Z,37.32,-79.2,-0.6,-1.7,30,8,,10.0,30.200787,,,,TRUE,,,,,,,FEW,700,OVC,1800,,,,,MVFR,,,,,,,,,,,,SPECI,295.0
KFDR 140303Z AUTO 05007KT 10SM OVC014 01/M02 A3043 RMK AO2 T00111017,KFDR,2019-01-14T03:03:00Z,34.35,-98.98,1.1,-1.7,50,7,,10.0,30.431103,,,TRUE,TRUE,,,,,,,OVC,1400,,,,,,,MVFR,,,,,,,,,,,,SPECI,386.0
KCSM 140303Z AUTO 05006KT 10SM SCT011 BKN100 M01/M03 A3044 RMK AO2 T10111033,KCSM,2019-01-14T03:03:00Z,35.35,-99.2,-1.1,-3.3,50,6,,10.0,30.43996,,,TRUE,TRUE,,,,,,,SCT,1100,BKN,10000,,,,,VFR,,,,,,,,,,,,SPECI,588.0
KCHO 140303Z 02006KT 3SM -SN BR OVC033 M01/M03 A3024 RMK AO2 P0000 T10061028,KCHO,2019-01-14T03:03:00Z,38.13,-78.45,-0.6,-2.8,20,6,,3.0,30.239174,,,,TRUE,,,,,,-SN BR,OVC,3300,,,,,,,MVFR,,,,,,0.005,,,,,,SPECI,192.0
PASN 140303Z AUTO 13027G35KT 5SM BR FEW019 SCT024 OVC039 02/01 A2854 RMK AO2 PK WND 13035/0301 SNE03 P0000 T00220006 FZRANO TSNO $,PASN,2019-01-14T03:03:00Z,57.15,-170.22,2.2,0.6,130,27,35,5.0,28.541338,,,TRUE,TRUE,TRUE,,TRUE,TRUE,,BR,FEW,1900,SCT,2400,OVC,3900,,,MVFR,,,,,,0.005,,,,,,SPECI,29.0
CYEG 140303Z 14002KT 1/4SM R30/6000FT/D R02/P6000FT/N FZFG SKC M10/M11 A3019 RMK FG3 SLP283,CYEG,2019-01-14T03:03:00Z,53.28,-113.57,-10.0,-11.0,140,2,,0.25,30.188976,1028.3,,,,,,,,,FZFG,SKC,,,,,,,,LIFR,,,,,,,,,,,,SPECI,723.0
CYAY 140303Z AUTO 24015G23KT 9SM BKN060 OVC071 M09/M11 A2992 RMK ICG SLP135,CYAY,2019-01-14T03:03:00Z,51.38,-56.07,-9.0,-11.0,240,15,23,9.0,29.920275,1013.5,,TRUE,,,,,,,,BKN,6000,OVC,7100,,,,,VFR,,,,,,,,,,,,SPECI,28.0
CYHD 140303Z AUTO 27010KT 1 3/4SM BR OVC003 M05/M06 A3014 RMK SLP236,CYHD,2019-01-14T03:03:00Z,49.82,-92.75,-5.0,-6.0,270,10,,1.75,30.138779,1023.6,,TRUE,,,,,,,BR,OVC,300,,,,,,,LIFR,,,,,,,,,,,,SPECI,413.0
KSKA 140303Z 35004KT 3/8SM R05/2200V2400FT FZFG VV001 M04/M04 A3027 RMK AO2A SLP283,KSKA,2019-01-14T03:03:00Z,47.62,-117.65,-4.0,-4.0,350,4,,0.38,30.268702,1028.3,,,TRUE,,,,,,FZFG,OVX,0,,,,,,,LIFR,,,,,,,,,,,100,SPECI,750.0
KMTN 140303Z AUTO 31003KT 10SM SCT050 OVC060 00/M03 A3030 RMK AO2,KMTN,2019-01-14T03:03:00Z,39.32,-76.42,0.0,-3.0,310,3,,10.0,30.301182,,,TRUE,TRUE,,,,,,,SCT,5000,OVC,6000,,,,,VFR,,,,,,,,,,,,SPECI,7.0
KCGS 140303Z AUTO 00000KT 2 1/2SM OVC005 M03/M04 A3029 RMK AO1 T10291045,KCGS,2019-01-14T03:03:00Z,38.98,-76.92,-2.9,-4.5,0,0,,2.5,30.28937,,,TRUE,TRUE,,,,,,,OVC,500,,,,,,,IFR,,,,,,,,,,,,SPECI,15.0
K2W6 140303Z AUTO 00000KT 1 1/2SM OVC006 M02/M02 A3025 RMK AO1,K2W6,2019-01-14T03:03:00Z,38.32,-76.55,-2.0,-2.0,0,0,,1.5,30.250984,,,TRUE,TRUE,,,,,,,OVC,600,,,,,,,IFR,,,,,,,,,,,,SPECI,44.0
KFAF 140303Z AUTO 35010G17KT 10SM -UP OVC009 01/M01 A3014 RMK AO2 UPB03 SLP210 $,KFAF,2019-01-14T03:03:00Z,37.12,-76.62,1.0,-1.0,350,10,17,10.0,30.138779,1021.0,,TRUE,TRUE,TRUE,,,,,UP,OVC,900,,,,,,,IFR,,,,,,,,,,,,METAR,4.0
KSGJ 140303Z AUTO 02008KT 10SM SCT005 BKN009 OVC013 17/16 A3015 RMK AO2,KSGJ,2019-01-14T03:03:00Z,29.97,-81.32,17.0,16.0,20,8,,10.0,30.15059,,,TRUE,TRUE,,,,,,,SCT,500,BKN,900,OVC,1300,,,IFR,,,,,,,,,,,,SPECI,3.0
PAGM 140303Z AUTO 03042G47KT 1/2SM SN FZFG FEW004 OVC011 M18/M21 A2927 RMK AO2 PK WND 04047/0302 P0000 FZRANO $,PAGM,2019-01-14T03:03:00Z,63.77,-171.73,-18.0,-21.0,30,42,47,0.5,29.27067,,,TRUE,TRUE,TRUE,,,TRUE,,SN FZFG,FEW,400,OVC,1100,,,,,LIFR,,,,,,0.005,,,,,,SPECI,8.0
PADU 140303Z 19015G22KT 9SM -SN FEW018 BKN044 OVC090 04/M01 A2868 RMK AO2 PRESRR P0000,PADU,2019-01-14T03:03:00Z,53.9,-166.53,4.0,-1.0,190,15,22,9.0,28.680119,,,,TRUE,,,,,,-SN,FEW,1800,BKN,4400,OVC,9000,,,VFR,,,,,,0.005,,,,,,SPECI,4.0
KGSB 140302Z AUTO 34008KT 10SM OVC007 02/01 A3015 RMK AO2 SLP214 $,KGSB,2019-01-14T03:02:00Z,35.32,-77.97,2.0,1.0,340,8,,10.0,30.15059,1021.4,,TRUE,TRUE,TRUE,,,,,,OVC,700,,,,,,,IFR,,,,,,,,,,,,SPECI,33.0
CYER 140302Z AUTO 30014G26KT 9SM CLR M18/M22 A2998 RMK SLP155,CYER,2019-01-14T03:02:00Z,56.02,-87.68,-18.0,-22.0,300,14,26,9.0,29.97933,1015.5,,TRUE,,,,,,,,CLR,,,,,,,,VFR,,,,,,,,,,,,SPECI,16.0
KVIH 140302Z AUTO 36004KT 5SM BR OVC004 M02/M03 A3041 RMK AO2 T10171033,KVIH,2019-01-14T03:02:00Z,38.13,-91.77,-1.7,-3.3,360,4,,5.0,30.410433,,,TRUE,TRUE,,,,,,BR,OVC,400,,,,,,,LIFR,,,,,,,,,,,,SPECI,333.0
KOCF 140302Z AUTO 25007KT 6SM BR BKN003 14/14 A3017 RMK AO2 $,KOCF,2019-01-14T03:02:00Z,29.17,-82.22,14.0,14.0,250,7,,6.0,30.171259,,,TRUE,TRUE,TRUE,,,,,BR,BKN,300,,,,,,,LIFR,,,,,,,,,,,,SPECI,27.0
KLBF 140302Z AUTO 23006KT 2SM BR OVC002 M02/M02 A3029 RMK AO2 T10171022,KLBF,2019-01-14T03:02:00Z,41.12,-100.67,-1.7,-2.2,230,6,,2.0,30.28937,,,TRUE,TRUE,,,,,,BR,OVC,200,,,,,,,LIFR,,,,,,,,,,,,SPECI,847.0
KJLN 140302Z AUTO 33005KT 1 3/4SM -SN BR BKN006 OVC010 M01/M01 A3045 RMK AO2 CIG 004V009 P0000 T10061011,KJLN,2019-01-14T03:02:00Z,37.15,-94.5,-0.6,-1.1,330,5,,1.75,30.448818,,,TRUE,TRUE,,,,,,-SN BR,BKN,600,OVC,1000,,,,,IFR,,,,,,0.005,,,,,,SPECI,299.0
PAMO 140302Z AUTO 08019G25KT 9SM -SN BKN011 BKN016 OVC025 M08/M09 A2922 RMK AO2 PK WND 09033/2307 SNB0201020002010249E0218B0241 SLP904 P0000 60000 T10781089 51017 FZRANO,PAMO,2019-01-14T03:02:00Z,62.1,-163.68,-7.8,-8.9,80,19,25,9.0,29.220472,990.4,,TRUE,TRUE,,,,TRUE,,-SN,BKN,1100,BKN,1600,OVC,2500,,,MVFR,1.7,,,,,0.005,0.005,,,,,METAR,103.0
PADM 140302Z AUTO 09024G29KT 1 3/4SM -SN BR OVC023 M02/M03 A2927 RMK AO2 PK WND 09032/0228 SLP919 P0000 60000 T10221033 53010 FZRANO,PADM,2019-01-14T03:02:00Z,61.87,-162.03,-2.2,-3.3,90,24,29,1.75,29.27067,991.9,,TRUE,TRUE,,,,TRUE,,-SN BR,OVC,2300,,,,,,,IFR,1.0,,,,,0.005,0.005,,,,,METAR,31.0
CZUM 140302Z AUTO 26005KT 9SM SCT016 M18/M21 A2997 RMK SLP200,CZUM,2019-01-14T03:02:00Z,53.53,-64.08,-18.0,-21.0,260,5,,9.0,29.970472,1020.0,,TRUE,,,,,,,,SCT,1600,,,,,,,VFR,,,,,,,,,,,,SPECI,440.0
CZSJ 140302Z AUTO 31007KT 9SM OVC012 M08/M10 A3014 RMK SLP233,CZSJ,2019-01-14T03:02:00Z,53.07,-93.35,-8.0,-10.0,310,7,,9.0,30.138779,1023.3,,TRUE,,,,,,,,OVC,1200,,,,,,,MVFR,,,,,,,,,,,,SPECI,290.0
KLFI 140301Z 36019G23KT 9SM OVC009 01/01 A3012 RMK AO2A RAE0256UPB0256E01 SLP207 $,KLFI,2019-01-14T03:01:00Z,37.07,-76.37,1.0,1.0,360,19,23,9.0,30.121063,1020.7,,,TRUE,TRUE,,,,,,OVC,900,,,,,,,IFR,,,,,,,,,,,,METAR,3.0
K2DP 140301Z AUTO 32015G24KT 3SM -RA BR OVC006 06/05 A3002 RMK AO2 SLPNO,K2DP,2019-01-14T03:01:00Z,35.68,-75.9,6.0,5.0,320,15,24,3.0,30.02067,,,TRUE,TRUE,,,,,,-RA BR,OVC,600,,,,,,,IFR,,,,,,,,,,,,SPECI,3.0
KEMV 140301Z AUTO 32009G19KT 10SM OVC008 00/M01 A3019 RMK AO2,KEMV,2019-01-14T03:01:00Z,36.68,-77.48,0.0,-1.0,320,9,19,10.0,30.188976,,,TRUE,TRUE,,,,,,,OVC,800,,,,,,,IFR,,,,,,,,,,,,SPECI,39.0
KDCU 140301Z AUTO 32007KT 10SM OVC009 04/03 A3030 RMK AO2 T00390028,KDCU,2019-01-14T03:01:00Z,34.65,-86.95,3.9,2.8,320,7,,10.0,30.301182,,,TRUE,TRUE,,,,,,,OVC,900,,,,,,,IFR,,,,,,,,,,,,SPECI,176.0
KACT 140301Z 01006KT 8SM BKN019 02/M01 A3044 RMK AO2 T00221006,KACT,2019-01-14T03:01:00Z,31.62,-97.23,2.2,-0.6,10,6,,8.0,30.43996,,,,TRUE,,,,,,,BKN,1900,,,,,,,MVFR,,,,,,,,,,,,SPECI,151.0
PAFS 140301Z AUTO 05011KT 10SM CLR M16/M19 A2966 RMK AO2 SLP064 T11611194 53010 FZRANO,PAFS,2019-01-14T03:01:00Z,63.02,-154.35,-16.1,-19.4,50,11,,10.0,29.660433,1006.4,,TRUE,TRUE,,,,TRUE,,,CLR,,,,,,,,VFR,1.0,,,,,,,,,,,METAR,126.0
YGTH 140301Z AUTO 31015G25KT 9999 // NCD 43/08 Q1009,YGTH,2019-01-14T03:01:00Z,-34.25,146.07,43.0,8.0,310,15,25,6.21,29.793306,,,TRUE,,,,,,,,CLR,,,,,,,,VFR,,,,,,,,,,,,METAR,134.0
OKBK 140300Z 17022KT CAVOK 16/11 Q1012 NOSIG,OKBK,2019-01-14T03:00:00Z,29.22,47.97,16.0,11.0,170,22,,6.21,29.88189,,,,,,TRUE,,,,,CAVOK,,,,,,,,VFR,,,,,,,,,,,,METAR,55.0
RKSS 140300Z 12001KT 1800 BR SCT020 03/M03 Q1027 NOSIG,RKSS,2019-01-14T03:00:00Z,37.53,126.78,3.0,-3.0,120,1,,1.12,30.324802,,,,,,TRUE,,,,BR,SCT,2000,,,,,,,IFR,,,,,,,,,,,,METAR,19.0
SABE 140300Z 15006KT 9999 FEW022 23/20 Q1013 NOSIG,SABE,2019-01-14T03:00:00Z,-34.57,-58.42,23.0,20.0,150,6,,6.21,29.911417,,,,,,TRUE,,,,,FEW,2200,,,,,,,VFR,,,,,,,,,,,,METAR,6.0
SAAR 140300Z 20002KT CAVOK 23/21 Q1013,SAAR,2019-01-14T03:00:00Z,-32.92,-60.77,23.0,21.0,200,2,,6.21,29.911417,,,,,,,,,,,CAVOK,,,,,,,,VFR,,,,,,,,,,,,METAR,25.0
UADD 140300Z 17003MPS 9999 NSC M01/M08 Q1015 R13/0///65 NOSIG RMK QFE704/0939,UADD,2019-01-14T03:00:00Z,42.85,71.3,-1.0,-8.0,170,6,,6.21,29.970472,,,,,,TRUE,,,,,CLR,,,,,,,,VFR,,,,,,,,,,,,METAR,665.0
UAAT 140300Z 02002MPS 9999 NSC M18/M20 Q1022 NOSIG RMK QFE715/0953,UAAT,2019-01-14T03:00:00Z,45.12,78.45,-18.0,-20.0,20,4,,6.21,30.177166,,,,,,TRUE,,,,,CLR,,,,,,,,VFR,,,,,,,,,,,,METAR,591.0
UAAH 140300Z 08007MPS CAVOK M15/M16 Q1024 NOSIG RMK QFE730/0974,UAAH,2019-01-14T03:00:00Z,46.9,75.0,-15.0,-16.0,80,14,,6.21,30.236221,,,,,,TRUE,,,,,CAVOK,,,,,,,,VFR,,,,,,,,,,,,METAR,441.0
UACK 140300Z 17010MPS 9999 DRSN NSC M07/M09 Q1013 NOSIG RMK QFE736/0981,UACK,2019-01-14T03:00:00Z,53.32,69.58,-7.0,-9.0,170,19,,6.21,29.911417,,,,,,TRUE,,,,DRSN,CLR,,,,,,,,VFR,,,,,,,,,,,,METAR,2547.0
UACP 140300Z 13006MPS CAVOK M07/M09 Q1012 R23/3/0436 NOSIG RMK QFE746/0995,UACP,2019-01-14T03:00:00Z,54.78,69.18,-7.0,-9.0,130,12,,6.21,29.88189,,,,,,TRUE,,,,,CAVOK,,,,,,,,VFR,,,,,,,,,,,,METAR,142.0
UAII 140300Z VRB01MPS CAVOK M05/M06 Q1015 R10/0///70 NOSIG RMK QFE726/0968,UAII,2019-01-14T03:00:00Z,42.37,69.48,-5.0,-6.0,0,2,,6.21,29.970472,,,,,,TRUE,,,,,CAVOK,,,,,,,,VFR,,,,,,,,,,,,METAR,422.0
UAKK 140300Z 18016MPS 9999 DRSN NSC M07/M11 Q1018 R23/3///45 NOSIG RMK QFE717/0956,UAKK,2019-01-14T03:00:00Z,49.67,73.33,-7.0,-11.0,180,31,,6.21,30.059055,,,,,,TRUE,,,,DRSN,CLR,,,,,,,,VFR,,,,,,,,,,,,METAR,538.0
UAOO 140300Z 17005MPS 9999 BKN023 01/M02 Q1012 R23/CLRD70 NOSIG RMK QFE747/0996,UAOO,2019-01-14T03:00:00Z,44.7,65.6,1.0,-2.0,170,10,,6.21,29.88189,,,,,,TRUE,,,,,BKN,2300,,,,,,,MVFR,,,,,,,,,,,,METAR,129.0
UASK 140300Z 00000MPS 0050 R12/0050 FZFG VV001 M27/M30 Q1034 R12/850245 NOSIG RMK QBB040 QFE749/0999,UASK,2019-01-14T03:00:00Z,50.03,82.5,-27.0,-30.0,0,0,,0.03,30.531496,,,,,,TRUE,,,,FZFG,OVX,0,,,,,,,LIFR,,,,,,,,,,,100,METAR,286.0
UAAA 140300Z 00000MPS 0050 R23R/0100N R23L/0100N FZFG VV001 M12/M13 Q1020 R88/3///50 NOSIG RMK QBB030,UAAA,2019-01-14T03:00:00Z,43.35,77.03,-12.0,-13.0,0,0,,0.03,30.11811,,,,,,TRUE,,,,FZFG,OVX,0,,,,,,,LIFR,,,,,,,,,,,100,METAR,681.0
UASP 140300Z 15004MPS CAVOK M17/M19 Q1027 R21/410160 NOSIG RMK QFE759/1012,UASP,2019-01-14T03:00:00Z,52.2,77.07,-17.0,-19.0,150,8,,6.21,30.324802,,,,,,TRUE,,,,,CAVOK,,,,,,,,VFR,,,,,,,,,,,,METAR,125.0
UASS 140300Z 11008MPS CAVOK M15/M17 Q1032 R08/82//60 NOSIG RMK QFE753/1004,UASS,2019-01-14T03:00:00Z,50.35,80.23,-15.0,-17.0,110,16,,6.21,30.47244,,,,,,TRUE,,,,,CAVOK,,,,,,,,VFR,,,,,,,,,,,,METAR,232.0
UACC 140300Z 17011MPS 9999 -SN DRSN NSC M08/M09 Q1017 R22/35//60 TEMPO 16010G15MPS RMK QFE732/0976,UACC,2019-01-14T03:00:00Z,51.02,71.47,-8.0,-9.0,170,21,,6.21,30.029528,,,,,,,,,,-SN DRSN,CLR,,,,,,,,VFR,,,,,,,,,,,,METAR,355.0
UARR 140300Z 28002MPS 7000 SCT160 M10/M11 Q1008 R22/990235 TEMPO 2000 BR SCT005 RMK QFE752/1003,UARR,2019-01-14T03:00:00Z,51.15,51.53,-10.0,-11.0,280,4,,4.35,29.763779,,,,,,,,,,,SCT,16000,,,,,,,MVFR,,,,,,,,,,,,METAR,38.0
MHCA 140300Z 00000KT 9999 SCT026 BKN080 22/18 Q1020,MHCA,2019-01-14T03:00:00Z,14.9,-85.78,22.0,18.0,0,0,,6.21,30.11811,,,,,,,,,,,SCT,2600,BKN,8000,,,,,VFR,,,,,,,,,,,,METAR,442.0
MWCR 140300Z 06003KT 9999 FEW018 24/24 Q1019,MWCR,2019-01-14T03:00:00Z,19.3,-81.37,24.0,24.0,60,3,,6.21,30.088583,,,,,,,,,,,FEW,1800,,,,,,,VFR,,,,,,,,,,,,METAR,3.0
K1A5 140300Z AUTO 00000KT 10SM OVC025 07/06 A3017 RMK AO2 T00680059,K1A5,2019-01-14T03:00:00Z,35.22,-83.42,6.8,5.9,0,0,,10.0,30.171259,,,TRUE,TRUE,,,,,,,OVC,2500,,,,,,,MVFR,,,,,,,,,,,,SPECI,616.0
KNEL 140300Z AUTO 05007KT OVC025 A3025 RMK AO2 SLPNO 6//// 55000 PNO $,KNEL,2019-01-14T03:00:00Z,40.02,-74.33,,,50,7,,,30.250984,,,TRUE,TRUE,TRUE,,,,,,OVC,2500,,,,,,,,0.0,,,,,,,,,,,METAR,31.0
SBTE 140300Z 35004KT CAVOK 23/22 Q1012,SBTE,2019-01-14T03:00:00Z,-5.03,-42.82,23.0,22.0,350,4,,6.21,29.88189,,,,,,,,,,,CAVOK,,,,,,,,VFR,,,,,,,,,,,,METAR,69.0
SANT 140300Z 18010KT 9999 OVC007 22/21 Q1015,SANT,2019-01-14T03:00:00Z,-26.85,-65.08,22.0,21.0,180,10,,6.21,29.970472,,,,,,,,,,,OVC,700,,,,,,,IFR,,,,,,,,,,,,METAR,450.0
SAEZ 140300Z 13006KT CAVOK 21/20 Q1014 NOSIG,SAEZ,2019-01-14T03:00:00Z,-34.82,-58.52,21.0,20.0,130,6,,6.21,29.940945,,,,,,TRUE,,,,,CAVOK,,,,,,,,VFR,,,,,,,,,,,,METAR,20.0
SACO 140300Z 28005KT 9000 -RA SCT035 BKN050 18/17 Q1017 NOSIG,SACO,2019-01-14T03:00:00Z,-31.32,-64.22,18.0,17.0,280,5,,5.59,30.029528,,,,,,TRUE,,,,-RA,SCT,3500,BKN,5000,,,,,VFR,,,,,,,,,,,,METAR,474.0
UATE 140300Z 03007MPS 2600 BR OVC002 00/00 Q1008 R12/0///70 NOSIG RMK QBB070 QFE754/1005,UATE,2019-01-14T03:00:00Z,43.87,51.1,0.0,0.0,30,14,,1.62,29.763779,,,,,,TRUE,,,,BR,OVC,200,,,,,,,LIFR,,,,,,,,,,,,METAR,22.0
WADL 140300Z 31009KT 270V340 7000 SCT016 31/25 Q1008 NOSIG,WADL,2019-01-14T03:00:00Z,-8.75,116.28,31.0,25.0,310,9,,4.35,29.763779,,,,,,TRUE,,,,,SCT,1600,,,,,,,MVFR,,,,,,,,,,,,METAR,97.0
GVAC 140300Z 02007KT 9999 FEW014 SCT100 20/17 Q1016 NOSIG,GVAC,2019-01-14T03:00:00Z,16.72,-22.93,20.0,17.0,20,7,,6.21,30.0,,,,,,TRUE,,,,,FEW,1400,SCT,10000,,,,,VFR,,,,,,,,,,,,METAR,55.0
UAUU 140300Z 16005MPS 6000 -SN DRSN BKN005 OVC023 M07/M08 Q1005 R15/850157 NOSIG RMK QBB170 QFE737/0983,UAUU,2019-01-14T03:00:00Z,53.2,63.55,-7.0,-8.0,160,10,,3.73,29.675198,,,,,,TRUE,,,,-SN DRSN,BKN,500,OVC,2300,,,,,IFR,,,,,,,,,,,,METAR,182.0
UATT 140300Z 32003MPS 9999 -SN OVC011 M02/M03 Q1005 R31/390235 NOSIG RMK QFE734/0978,UATT,2019-01-14T03:00:00Z,50.25,57.2,-2.0,-3.0,320,6,,6.21,29.675198,,,,,,TRUE,,,,-SN,OVC,1100,,,,,,,MVFR,,,,,,,,,,,,METAR,227.0
UATG 140300Z 36003MPS 4100 BR SCT009 BKN033 M03/M03 Q1009 R32/19//65 NOSIG RMK QFE759/1012,UATG,2019-01-14T03:00:00Z,47.12,51.83,-3.0,-3.0,360,6,,2.55,29.793306,,,,,,TRUE,,,,BR,SCT,900,BKN,3300,,,,,IFR,,,,,,,,,,,,METAR,-22.0
DAOB 140300Z 23007KT CAVOK M01/M07 Q1023,DAOB,2019-01-14T03:00:00Z,35.33,1.47,-1.0,-7.0,230,7,,6.21,30.206694,,,,,,,,,,,CAVOK,,,,,,,,VFR,,,,,,,,,,,,METAR,989.0
DAAS 140300Z 26003KT CAVOK M01/M03 Q1021,DAAS,2019-01-14T03:00:00Z,36.18,5.33,-1.0,-3.0,260,3,,6.21,30.147638,,,,,,,,,,,CAVOK,,,,,,,,VFR,,,,,,,,,,,,METAR,1038.0
VOCI 140300Z 05005KT 3500 BR NSC 22/19 Q1013 BECMG 5000 HZ,VOCI,2019-01-14T03:00:00Z,10.15,76.4,22.0,19.0,50,5,,2.17,29.911417,,,,,,,,,,BR,CLR,,,,,,,,IFR,,,,,,,,,,,,METAR,8.0
FMSD 140300Z 06008KT 9999 FEW020 SCT033 26/24 Q1014,FMSD,2019-01-14T03:00:00Z,-25.02,46.95,26.0,24.0,60,8,,6.21,29.940945,,,,,,,,,,,FEW,2000,SCT,3300,,,,,VFR,,,,,,,,,,,,METAR,9.0
FMNM 140300Z 14004KT 9999 FEW010 SCT020 24/23 Q1012 NOSIG,FMNM,2019-01-14T03:00:00Z,-15.67,46.35,24.0,23.0,140,4,,6.21,29.88189,,,,,,TRUE,,,,,FEW,1000,SCT,2000,,,,,VFR,,,,,,,,,,,,METAR,18.0
FMMT 140300Z 22009KT 8000 -RA FEW007 SCT017TCU BKN040 24/24 Q1016 TEMPO 3500 RA,FMMT,2019-01-14T03:00:00Z,-18.12,49.38,24.0,24.0,220,9,,4.97,30.0,,,,,,,,,,-RA,FEW,700,SCT,1700,BKN,4000,,,MVFR,,,,,,,,,,,,METAR,6.0
FMCH 140300Z 14005KT 090V170 9999 FEW009 FEW020CB OVC060 26/24 Q1013 TEMPO SHRA,FMCH,2019-01-14T03:00:00Z,-11.52,43.27,26.0,24.0,140,5,,6.21,29.911417,,,,,,,,,,,FEW,900,FEW,2000,OVC,6000,,,VFR,,,,,,,,,,,,SPECI,29.0
UTAM 140300Z 17006KT 2000 HZ FEW060CB SCT060 SCT100 OVC230 11/M05 Q1009 TEMPO 19020G30KT 1000 DS,UTAM,2019-01-14T03:00:00Z,37.62,61.9,11.0,-5.0,170,6,,1.24,29.793306,,,,,,,,,,HZ,FEW,6000,SCT,6000,SCT,10000,OVC,23000,IFR,,,,,,,,,,,,SPECI,222.0
DAUA 140300Z 04006KT CAVOK 03/M07 Q1024,DAUA,2019-01-14T03:00:00Z,27.83,-0.18,3.0,-7.0,40,6,,6.21,30.236221,,,,,,,,,,,CAVOK,,,,,,,,VFR,,,,,,,,,,,,METAR,263.0
DAUB 140300Z 31018KT CAVOK 11/M00 Q1021,DAUB,2019-01-14T03:00:00Z,34.78,5.72,11.0,0.0,310,18,,6.21,30.147638,,,,,,,,,,,CAVOK,,,,,,,,VFR,,,,,,,,,,,,METAR,87.0
DAUG 140300Z 29009KT CAVOK 06/M07 Q1023,DAUG,2019-01-14T03:00:00Z,32.37,3.82,6.0,-7.0,290,9,,6.21,30.206694,,,,,,,,,,,CAVOK,,,,,,,,VFR,,,,,,,,,,,,METAR,450.0
UTDD 140300Z 07005MPS 9999 NSC 02/M12 Q1022 R09/D NOSIG RMK QFE698/0931,UTDD,2019-01-14T03:00:00Z,38.53,68.82,2.0,-12.0,70,10,,6.21,30.177166,,,,,,TRUE,,,,,CLR,,,,,,,,VFR,,,,,,,,,,,,METAR,803.0
DAOI 140300Z 00000KT CAVOK 04/02 Q1023,DAOI,2019-01-14T03:00:00Z,36.22,1.32,4.0,2.0,0,0,,6.21,30.206694,,,,,,,,,,,CAVOK,,,,,,,,VFR,,,,,,,,,,,,METAR,143.0
UTDK 140300Z 03003MPS 9999 NSC M00/M07 Q1023 R01/09//70 RMK QFE709/0946,UTDK,2019-01-14T03:00:00Z,37.98,69.8,0.0,-7.0,30,6,,6.21,30.206694,,,,,,,,,,,CLR,,,,,,,,VFR,,,,,,,,,,,,METAR,699.0
UTDT 140300Z 01003MPS 9000 BKN233 M01/M04 Q1021 R35/////// RMK QFE726/0968,UTDT,2019-01-14T03:00:00Z,37.87,68.87,-1.0,-4.0,10,6,,5.59,30.147638,,,,,,,,,,,BKN,23300,,,,,,,VFR,,,,,,,,,,,,METAR,449.0
UTDL 140300Z 08009G14MPS 9999 NSC 01/M05 Q1020 R08/CLRD70 NOSIG RMK QFE725/0967,UTDL,2019-01-14T03:00:00Z,40.22,69.7,1.0,-5.0,80,17,27,6.21,30.11811,,,,,,TRUE,,,,,CLR,,,,,,,,VFR,,,,,,,,,,,,SPECI,442.0
UCFO 140300Z 16002MPS 1900 FU NSC M05/M09 Q1020 R12/CLRD95 NOSIG,UCFO,2019-01-14T03:00:00Z,40.6,72.8,-5.0,-9.0,160,4,,1.18,30.11811,,,,,,TRUE,,,,FU,CLR,,,,,,,,IFR,,,,,,,,,,,,METAR,884.0
UCFM 140300Z 09006MPS CAVOK 00/M11 Q1015 R08/09//95 NOSIG,UCFM,2019-01-14T03:00:00Z,43.07,74.48,0.0,-11.0,90,12,,6.21,29.970472,,,,,,TRUE,,,,,CAVOK,,,,,,,,VFR,,,,,,,,,,,,METAR,633.0
UCFL 140300Z 35004MPS 9999 NSC M08/M19 Q1023 R07/CLRD95,UCFL,2019-01-14T03:00:00Z,42.58,76.7,-8.0,-19.0,350,8,,6.21,30.206694,,,,,,,,,,,CLR,,,,,,,,VFR,,,,,,,,,,,,METAR,1648.0
FIMP 140300Z 09014KT 8000 VCSH SCT016 SCT050 27/22 Q1017,FIMP,2019-01-14T03:00:00Z,-20.42,57.67,27.0,22.0,90,14,,4.97,30.029528,,,,,,,,,,VCSH,SCT,1600,SCT,5000,,,,,MVFR,,,,,,,,,,,,METAR,57.0
DTKA 140300Z AUTO 26021KT /// 12/09 Q1016,DTKA,2019-01-14T03:00:00Z,36.98,8.88,12.0,9.0,260,21,,,30.0,,,TRUE,,,,,,,,,,,,,,,,,,,,,,,,,,,,METAR,21.0
DTMB 140300Z 27017KT 8000 SCT026 SCT040 14/07 Q1015,DTMB,2019-01-14T03:00:00Z,35.77,10.75,14.0,7.0,270,17,,4.97,29.970472,,,,,,,,,,,SCT,2600,SCT,4000,,,,,MVFR,,,,,,,,,,,,METAR,2.0
DTNH 140300Z 28015KT 9999 SCT023 BKN033 14/06 Q1014,DTNH,2019-01-14T03:00:00Z,36.07,10.43,14.0,6.0,280,15,,6.21,29.940945,,,,,,,,,,,SCT,2300,BKN,3300,,,,,VFR,,,,,,,,,,,,METAR,2.0
DTTF 140300Z AUTO VRB02KT NCD 06/M00 Q1020,DTTF,2019-01-14T03:00:00Z,34.42,8.82,6.0,0.0,0,2,,,30.11811,,,TRUE,,,,,,,,CLR,,,,,,,,,,,,,,,,,,,,METAR,314.0
DTTG 140300Z 23014KT CAVOK 08/01 Q1019 NOSIG,DTTG,2019-01-14T03:00:00Z,33.73,9.92,8.0,1.0,230,14,,6.21,30.088583,,,,,,TRUE,,,,,CAVOK,,,,,,,,VFR,,,,,,,,,,,,METAR,5.0
DTTJ 140300Z 26022KT 8000 NSC 12/03 Q1017 NOSIG,DTTJ,2019-01-14T03:00:00Z,33.87,10.77,12.0,3.0,260,22,,4.97,30.029528,,,,,,TRUE,,,,,CLR,,,,,,,,MVFR,,,,,,,,,,,,METAR,4.0
DTTX 140300Z 25011KT 9999 FEW020 SCT030 13/01 Q1016 NOSIG,DTTX,2019-01-14T03:00:00Z,34.72,10.67,13.0,1.0,250,11,,6.21,30.0,,,,,,TRUE,,,,,FEW,2000,SCT,3000,,,,,VFR,,,,,,,,,,,,METAR,23.0
DTTZ 140300Z 29006KT 9999 SCT033 04/M02 Q1020 NOSIG,DTTZ,2019-01-14T03:00:00Z,33.92,8.08,4.0,-2.0,290,6,,6.21,30.11811,,,,,,TRUE,,,,,SCT,3300,,,,,,,VFR,,,,,,,,,,,,METAR,93.0
DAAG 140300Z 23006KT CAVOK 02/01 Q1023,DAAG,2019-01-14T03:00:00Z,36.72,3.22,2.0,1.0,230,6,,6.21,30.206694,,,,,,,,,,,CAVOK,,,,,,,,VFR,,,,,,,,,,,,METAR,25.0
DAAT 140300Z 04003KT CAVOK 01/M16 Q1021,DAAT,2019-01-14T03:00:00Z,22.82,5.47,1.0,-16.0,40,3,,6.21,30.147638,,,,,,,,,,,CAVOK,,,,,,,,VFR,,,,,,,,,,,,METAR,1377.0
DABB 140300Z 25012KT 9999 FEW020 SCT030 10/06 Q1018,DABB,2019-01-14T03:00:00Z,36.82,7.82,10.0,6.0,250,12,,6.21,30.059055,,,,,,,,,,,FEW,2000,SCT,3000,,,,,VFR,,,,,,,,,,,,METAR,4.0
DAON 140300Z 20002KT CAVOK 04/M05 Q1024,DAON,2019-01-14T03:00:00Z,35.02,-1.47,4.0,-5.0,200,2,,6.21,30.236221,,,,,,,,,,,CAVOK,,,,,,,,VFR,,,,,,,,,,,,METAR,247.0
DABC 140300Z 00000KT 9999 FEW030 01/M01 Q1021,DABC,2019-01-14T03:00:00Z,36.27,6.62,1.0,-1.0,0,0,,6.21,30.147638,,,,,,,,,,,FEW,3000,,,,,,,VFR,,,,,,,,,,,,METAR,694.0
DAOO 140300Z 00000KT CAVOK 01/M01 Q1023,DAOO,2019-01-14T03:00:00Z,35.62,-0.6,1.0,-1.0,0,0,,6.21,30.206694,,,,,,,,,,,CAVOK,,,,,,,,VFR,,,,,,,,,,,,METAR,90.0
DAUH 140300Z 21005KT CAVOK 01/M03 Q1024,DAUH,2019-01-14T03:00:00Z,31.67,6.15,1.0,-3.0,210,5,,6.21,30.236221,,,,,,,,,,,CAVOK,,,,,,,,VFR,,,,,,,,,,,,METAR,142.0
DAAJ 140300Z 32004KT CAVOK M00/M10 Q1021,DAAJ,2019-01-14T03:00:00Z,24.28,9.47,0.0,-10.0,320,4,,6.21,30.147638,,,,,,,,,,,CAVOK,,,,,,,,VFR,,,,,,,,,,,,METAR,968.0
DAAV 140300Z 19004KT 9999 FEW020 05/03 Q1021,DAAV,2019-01-14T03:00:00Z,36.8,5.88,5.0,3.0,190,4,,6.21,30.147638,,,,,,,,,,,FEW,2000,,,,,,,VFR,,,,,,,,,,,,METAR,11.0
DABT 140300Z 00000KT CAVOK M04/M05 Q1020,DABT,2019-01-14T03:00:00Z,35.75,6.32,-4.0,-5.0,0,0,,6.21,30.11811,,,,,,,,,,,CAVOK,,,,,,,,VFR,,,,,,,,,,,,METAR,823.0
DAUZ 140300Z 00000KT CAVOK M01/M13 Q1023,DAUZ,2019-01-14T03:00:00Z,28.05,9.62,-1.0,-13.0,0,0,,6.21,30.206694,,,,,,,,,,,CAVOK,,,,,,,,VFR,,,,,,,,,,,,METAR,562.0
VEGY 140300Z 21008KT 1200 MIFG NSC 13/10 Q1018,VEGY,2019-01-14T03:00:00Z,24.75,84.95,13.0,10.0,210,8,,0.75,30.059055,,,,,,,,,,MIFG,CLR,,,,,,,,LIFR,,,,,,,,,,,,METAR,116.0
SASJ 140300Z 20005KT 9999 OVC030 22/20 Q1016,SASJ,2019-01-14T03:00:00Z,-24.37,-65.1,22.0,20.0,200,5,,6.21,30.0,,,,,,,,,,,OVC,3000,,,,,,,MVFR,,,,,,,,,,,,METAR,1167.0
DIAP 140300Z 22010KT 9000 FEW017 29/26 Q1011 NOSIG,DIAP,2019-01-14T03:00:00Z,5.25,-3.92,29.0,26.0,220,10,,5.59,29.852362,,,,,,TRUE,,,,,FEW,1700,,,,,,,VFR,,,,,,,,,,,,METAR,8.0
FOOL 140300Z 18007KT 140V220 8000 TS SCT012 FEW018CB BKN024 26/24 Q1012 BECMG 3000 TSRA,FOOL,2019-01-14T03:00:00Z,0.45,9.42,26.0,24.0,180,7,,4.97,29.88189,,,,,,,,,,TS,SCT,1200,FEW,1800,BKN,2400,,,MVFR,,,,,,,,,,,,METAR,15.0
YAMB 140300Z 07012KT CAVOK 32/16 Q1015,YAMB,2019-01-14T03:00:00Z,-27.63,152.72,32.0,16.0,70,12,,6.21,29.970472,,,,,,,,,,,CAVOK,,,,,,,,VFR,,,,,,,,,,,,METAR,28.0
YBCG 140300Z AUTO 12014KT 9999 // NCD 29/19 Q1016 RF00.0/000.0,YBCG,2019-01-14T03:00:00Z,-28.17,153.5,29.0,19.0,120,14,,6.21,30.0,,,TRUE,,,,,,,,CLR,,,,,,,,VFR,,,,,,,,,,,,METAR,6.0
YBMA 140300Z AUTO 07013KT 050V150 9999 // ////// 39/12 Q1009,YBMA,2019-01-14T03:00:00Z,-20.67,139.47,39.0,12.0,70,13,,6.21,29.793306,,,TRUE,,,,,,,,,,,,,,,,,,,,,,,,,,,,METAR,344.0
YBHM 140300Z AUTO 11022KT 9999 // ////// 28/23 Q1011,YBHM,2019-01-14T03:00:00Z,-20.35,148.95,28.0,23.0,110,22,,6.21,29.852362,,,TRUE,,,,,,,,,,,,,,,,,,,,,,,,,,,,SPECI,5.0
YBRK 140300Z AUTO 10010KT 9999 // BKN052 30/19 Q1012,YBRK,2019-01-14T03:00:00Z,-23.37,150.47,30.0,19.0,100,10,,6.21,29.88189,,,TRUE,,,,,,,,BKN,5200,,,,,,,VFR,,,,,,,,,,,,SPECI,14.0
YBRM 140300Z 11011KT CAVOK 31/25 Q1005,YBRM,2019-01-14T03:00:00Z,-17.93,122.22,31.0,25.0,110,11,,6.21,29.675198,,,,,,,,,,,CAVOK,,,,,,,,VFR,,,,,,,,,,,,METAR,9.0
YCIN 140300Z AUTO 31002KT 9999 // NCD 32/25 Q1005,YCIN,2019-01-14T03:00:00Z,-17.58,123.83,32.0,25.0,310,2,,6.21,29.675198,,,TRUE,,,,,,,,CLR,,,,,,,,VFR,,,,,,,,,,,,SPECI,91.0
YFRT 140300Z AUTO 12013KT 9999 // NCD 41/06 Q1009,YFRT,2019-01-14T03:00:00Z,-30.83,128.12,41.0,6.0,120,13,,6.21,29.793306,,,TRUE,,,,,,,,CLR,,,,,,,,VFR,,,,,,,,,,,,SPECI,156.0
YMHB 140300Z 14014KT CAVOK 26/06 Q1014,YMHB,2019-01-14T03:00:00Z,-42.82,147.52,26.0,6.0,140,14,,6.21,29.940945,,,,,,,,,,,CAVOK,,,,,,,,VFR,,,,,,,,,,,,METAR,27.0
YMLT 140300Z AUTO 35006KT 310V010 9999 // SCT046 26/11 Q1015,YMLT,2019-01-14T03:00:00Z,-41.52,147.18,26.0,11.0,350,6,,6.21,29.970472,,,TRUE,,,,,,,,SCT,4600,,,,,,,VFR,,,,,,,,,,,,METAR,178.0
YPEA 140300Z AUTO 23005KT 200V270 9999 // NCD 28/13 Q1012,YPEA,2019-01-14T03:00:00Z,-31.67,116.02,28.0,13.0,230,5,,6.21,29.88189,,,TRUE,,,,,,,,CLR,,,,,,,,VFR,,,,,,,,,,,,METAR,49.0
YPGV 140300Z 10009KT 9999 VCSH SCT021 FEW024TCU 30/25 Q1007,YPGV,2019-01-14T03:00:00Z,-12.27,136.82,30.0,25.0,100,9,,6.21,29.734253,,,,,,,,,,VCSH,SCT,2100,FEW,2400,,,,,VFR,,,,,,,,,,,,METAR,55.0
YPPD 140300Z AUTO 02016KT //// // NCD 36/25 Q1004,YPPD,2019-01-14T03:00:00Z,-20.37,118.62,36.0,25.0,20,16,,,29.64567,,,TRUE,,,,,,,,CLR,,,,,,,,,,,,,,,,,,,,METAR,6.0
YPKG 140300Z AUTO 14011KT 9999 // NCD ///// Q1012,YPKG,2019-01-14T03:00:00Z,-30.77,121.45,,,140,11,,6.21,29.88189,,,TRUE,,,,,,,,CLR,,,,,,,,VFR,,,,,,,,,,,,SPECI,360.0
YSCB 140300Z AUTO 35014KT 9999 // NCD 32/15 Q1016 NOSIG,YSCB,2019-01-14T03:00:00Z,-35.28,149.17,32.0,15.0,350,14,,6.21,30.0,,,TRUE,,,TRUE,,,,,CLR,,,,,,,,VFR,,,,,,,,,,,,SPECI,577.0
YSDU 140300Z AUTO 35012KT 300V360 9999 // NCD 37/05 Q1015,YSDU,2019-01-14T03:00:00Z,-32.22,148.57,37.0,5.0,350,12,,6.21,29.970472,,,TRUE,,,,,,,,CLR,,,,,,,,VFR,,,,,,,,,,,,SPECI,275.0
YSRI 140300Z AUTO 05007KT 9999 // NCD 31/20 Q1015,YSRI,2019-01-14T03:00:00Z,-33.6,150.77,31.0,20.0,50,7,,6.21,29.970472,,,TRUE,,,,,,,,CLR,,,,,,,,VFR,,,,,,,,,,,,SPECI,21.0
YSNF 140300Z 16013KT 9999 FEW017 24/18 Q1013,YSNF,2019-01-14T03:00:00Z,-29.02,167.92,24.0,18.0,160,13,,6.21,29.911417,,,,,,,,,,,FEW,1700,,,,,,,VFR,,,,,,,,,,,,METAR,109.0
SBSG 140300Z 20004KT 9999 FEW017 26/24 Q1013,SBSG,2019-01-14T03:00:00Z,-5.77,-35.37,26.0,24.0,200,4,,6.21,29.911417,,,,,,,,,,,FEW,1700,,,,,,,VFR,,,,,,,,,,,,METAR,83.0
SGAS 140300Z 00000KT 9999 FEW033 BKN083 26/24 Q1012,SGAS,2019-01-14T03:00:00Z,-25.25,-57.52,26.0,24.0,0,0,,6.21,29.88189,,,,,,,,,,,FEW,3300,BKN,8300,,,,,VFR,,,,,,,,,,,,SPECI,101.0
SGES 140300Z 14003KT 9999 FEW033 BKN080 23/21 Q1014,SGES,2019-01-14T03:00:00Z,-25.45,-54.85,23.0,21.0,140,3,,6.21,29.940945,,,,,,,,,,,FEW,3300,BKN,8000,,,,,VFR,,,,,,,,,,,,SPECI,849.0
SLCB 140300Z 26004KT 9999 FEW027 SCT080 BKN200 17/11 Q1024,SLCB,2019-01-14T03:00:00Z,-17.42,-66.18,17.0,11.0,260,4,,6.21,30.236221,,,,,,,,,,,FEW,2700,SCT,8000,BKN,20000,,,VFR,,,,,,,,,,,,SPECI,2548.0
SLLP 140300Z 08004KT 4000E VCFG FEW003 FEW017CB SCT070 BKN20008/06 Q1038,SLLP,2019-01-14T03:00:00Z,-16.52,-68.17,8.0,6.0,80,4,,2.49,30.649607,,,,,,,,,,VCFG,FEW,300,FEW,1700,SCT,7000,,,IFR,,,,,,,,,,,,METAR,4014.0
SLVR 140300Z 34007KT 9999 FEW006 SCT020 BKN200 23/22 Q1013,SLVR,2019-01-14T03:00:00Z,-17.63,-63.12,23.0,22.0,340,7,,6.21,29.911417,,,,,,,,,,,FEW,600,SCT,2000,BKN,20000,,,VFR,,,,,,,,,,,,SPECI,373.0
SYCJ 140300Z 00000KT CAVOK 23/21 Q1015 NOSIG,SYCJ,2019-01-14T03:00:00Z,6.5,-58.25,23.0,21.0,0,0,,6.21,29.970472,,,,,,TRUE,,,,,CAVOK,,,,,,,,VFR,,,,,,,,,,,,SPECI,30.0
DAAP 140300Z 35008KT CAVOK 04/M05 Q1023,DAAP,2019-01-14T03:00:00Z,26.72,8.62,4.0,-5.0,350,8,,6.21,30.206694,,,,,,,,,,,CAVOK,,,,,,,,VFR,,,,,,,,,,,,SPECI,558.0
DAAY 140300Z 23007KT CAVOK M01/M07 Q1028,DAAY,2019-01-14T03:00:00Z,33.53,-0.25,-1.0,-7.0,230,7,,6.21,30.35433,,,,,,,,,,,CAVOK,,,,,,,,VFR,,,,,,,,,,,,SPECI,1149.0
DAOF 140300Z 03004KT CAVOK 06/M06 Q1025,DAOF,2019-01-14T03:00:00Z,27.7,-8.17,6.0,-6.0,30,4,,6.21,30.265747,,,,,,,,,,,CAVOK,,,,,,,,VFR,,,,,,,,,,,,SPECI,431.0
DAOL 140300Z 12004KT CAVOK M02/M03 Q1024,DAOL,2019-01-14T03:00:00Z,35.53,-0.52,-2.0,-3.0,120,4,,6.21,30.236221,,,,,,,,,,,CAVOK,,,,,,,,VFR,,,,,,,,,,,,SPECI,112.0
DAOV 140300Z 00000KT CAVOK M01/M02 Q1024,DAOV,2019-01-14T03:00:00Z,35.2,0.15,-1.0,-2.0,0,0,,6.21,30.236221,,,,,,,,,,,CAVOK,,,,,,,,VFR,,,,,,,,,,,,SPECI,514.0
DAOR 140300Z 04004KT CAVOK 00/M06 Q1026,DAOR,2019-01-14T03:00:00Z,31.65,-2.27,0.0,-6.0,40,4,,6.21,30.295275,,,,,,,,,,,CAVOK,,,,,,,,VFR,,,,,,,,,,,,SPECI,773.0
DAUE 140300Z 34006KT CAVOK M02/M08 Q1024,DAUE,2019-01-14T03:00:00Z,30.57,2.87,-2.0,-8.0,340,6,,6.21,30.236221,,,,,,,,,,,CAVOK,,,,,,,,VFR,,,,,,,,,,,,SPECI,397.0
DAUI 140300Z 00000KT CAVOK 04/M10 Q1024,DAUI,2019-01-14T03:00:00Z,27.25,2.52,4.0,-10.0,0,0,,6.21,30.236221,,,,,,,,,,,CAVOK,,,,,,,,VFR,,,,,,,,,,,,SPECI,269.0
DAUL 140300Z 00000KT CAVOK M01/M03 Q1023,DAUL,2019-01-14T03:00:00Z,33.77,2.92,-1.0,-3.0,0,0,,6.21,30.206694,,,,,,,,,,,CAVOK,,,,,,,,VFR,,,,,,,,,,,,SPECI,765.0
DAUK 140300Z 18009KT CAVOK 02/M02 Q1022,DAUK,2019-01-14T03:00:00Z,33.08,6.12,2.0,-2.0,180,9,,6.21,30.177166,,,,,,,,,,,CAVOK,,,,,,,,VFR,,,,,,,,,,,,SPECI,85.0
DAUO 140300Z 21007KT CAVOK 05/M01 Q1021,DAUO,2019-01-14T03:00:00Z,33.5,6.78,5.0,-1.0,210,7,,6.21,30.147638,,,,,,,,,,,CAVOK,,,,,,,,VFR,,,,,,,,,,,,SPECI,63.0
DAUT 140300Z 02006KT CAVOK 03/M05 Q1025,DAUT,2019-01-14T03:00:00Z,29.25,0.27,3.0,-5.0,20,6,,6.21,30.265747,,,,,,,,,,,CAVOK,,,,,,,,VFR,,,,,,,,,,,,SPECI,312.0
DAUU 140300Z 19006KT CAVOK 03/M06 Q1023,DAUU,2019-01-14T03:00:00Z,31.92,5.4,3.0,-6.0,190,6,,6.21,30.206694,,,,,,,,,,,CAVOK,,,,,,,,VFR,,,,,,,,,,,,SPECI,141.0
FAJB 140300Z AUTO 00000KT //// // ////// 20/16 Q1019,FAJB,2019-01-14T03:00:00Z,-26.15,28.0,20.0,16.0,0,0,,,30.088583,,,TRUE,,,,,,,,,,,,,,,,,,,,,,,,,,,,SPECI,1626.0
FAVV 140300Z AUTO 33001KT //// // ////// 19/15 Q1017,FAVV,2019-01-14T03:00:00Z,-26.57,27.97,19.0,15.0,330,1,,,30.029528,,,TRUE,,,,,,,,,,,,,,,,,,,,,,,,,,,,SPECI,1483.0
VEAT 140300Z 00000KT 1200 BR NSC 16/13 Q1016 BECMG 1500 BR,VEAT,2019-01-14T03:00:00Z,23.87,91.25,16.0,13.0,0,0,,0.75,30.0,,,,,,,,,,BR,CLR,,,,,,,,LIFR,,,,,,,,,,,,METAR,16.0
VOKN 140300Z 08005KT 4000 BR FEW015 22/19 Q1014 BECMG 5000 HZ,VOKN,2019-01-14T03:00:00Z,11.92,75.55,22.0,19.0,80,5,,2.49,29.940945,,,,,,,,,,BR,FEW,1500,,,,,,,IFR,,,,,,,,,,,,METAR,105.0
VIDP 140300Z 24006KT 0800 R28/1300 R29/1300 MIFG NSC 08/07 Q1021 NOSIG,VIDP,2019-01-14T03:00:00Z,28.57,77.12,8.0,7.0,240,6,,0.5,30.147638,,,,,,TRUE,,,,MIFG,CLR,,,,,,,,LIFR,,,,,,,,,,,,METAR,233.0
EIME 140300Z 25012KT 9999 -RA FEW015 BKN040 07/04 Q1021,EIME,2019-01-14T03:00:00Z,53.3,-6.45,7.0,4.0,250,12,,6.21,30.147638,,,,,,,,,,-RA,FEW,1500,BKN,4000,,,,,VFR,,,,,,,,,,,,METAR,93.0
VOVZ 140300Z 32005KT 0450 FG/FU NSC 20/18 Q1017 BECMG 0600 FG,VOVZ,2019-01-14T03:00:00Z,17.75,83.22,20.0,18.0,320,5,,0.28,30.029528,,,,,,,,,,FU FG,CLR,,,,,,,,LIFR,,,,,,,,,,,,METAR,5.0
VIAR 140300Z 00000KT 3500 BR NSC 05/04 Q1021 NOSIG,VIAR,2019-01-14T03:00:00Z,31.7,74.8,5.0,4.0,0,0,,2.17,30.147638,,,,,,TRUE,,,,BR,CLR,,,,,,,,IFR,,,,,,,,,,,,METAR,234.0
VABO 140300Z 02008KT 3000 HZ NSC 15/09 Q1018 NOSIG,VABO,2019-01-14T03:00:00Z,22.33,73.22,15.0,9.0,20,8,,1.86,30.059055,,,,,,TRUE,,,,HZ,CLR,,,,,,,,IFR,,,,,,,,,,,,METAR,39.0
TTPP 140300Z 00000KT 9999 FEW016 22/20 Q1016 NOSIG,TTPP,2019-01-14T03:00:00Z,10.58,-61.35,22.0,20.0,0,0,,6.21,30.0,,,,,,TRUE,,,,,FEW,1600,,,,,,,VFR,,,,,,,,,,,,SPECI,15.0
TTCP 140300Z 00000KT 9999 FEW020 22/18 Q1015 NOSIG,TTCP,2019-01-14T03:00:00Z,11.15,-60.85,22.0,18.0,0,0,,6.21,29.970472,,,,,,TRUE,,,,,FEW,2000,,,,,,,VFR,,,,,,,,,,,,SPECI,8.0
VLLB 140300Z 04004KT 4000 BR OVC006 21/19 Q1016 NOSIG,VLLB,2019-01-14T03:00:00Z,19.9,102.17,21.0,19.0,40,4,,2.49,30.0,,,,,,TRUE,,,,BR,OVC,600,,,,,,,IFR,,,,,,,,,,,,METAR,291.0
VLLN 140300Z 36002KT 1000 BR SCT010 OVC090 18/17 Q1018 NOSIG,VLLN,2019-01-14T03:00:00Z,20.97,101.4,18.0,17.0,360,2,,0.62,30.059055,,,,,,TRUE,,,,BR,SCT,1000,OVC,9000,,,,,LIFR,,,,,,,,,,,,METAR,600.0
VLPS 140300Z 36006KT 9999 FEW027 SCT200 27/19 Q1014 NOSIG,VLPS,2019-01-14T03:00:00Z,15.13,105.78,27.0,19.0,360,6,,6.21,29.940945,,,,,,TRUE,,,,,FEW,2700,SCT,20000,,,,,VFR,,,,,,,,,,,,METAR,107.0
VLSK 140300Z 06002KT 9000 SCT020 27/18 Q1017 NOSIG,VLSK,2019-01-14T03:00:00Z,16.55,104.75,27.0,18.0,60,2,,5.59,30.029528,,,,,,TRUE,,,,,SCT,2000,,,,,,,VFR,,,,,,,,,,,,METAR,155.0
UAKD 140300Z 13009MPS 9999 DRSN OVC100 M07/M09 Q1013 R22/820055 NOSIG RMK QFE726/0969,UAKD,2019-01-14T03:00:00Z,47.7,67.73,-7.0,-9.0,130,17,,6.21,29.911417,,,,,,TRUE,,,,DRSN,OVC,10000,,,,,,,VFR,,,,,,,,,,,,SPECI,381.0
RJNS 140300Z VRB03KT 9999 FEW030 SCT035 10/M01 Q1019,RJNS,2019-01-14T03:00:00Z,34.8,138.18,10.0,-1.0,0,3,,6.21,30.088583,,,,,,,,,,,FEW,3000,SCT,3500,,,,,VFR,,,,,,,,,,,,METAR,135.0
RJSA 140300Z 07004KT 050V120 9999 FEW025 SCT035 M01/M08 Q1022,RJSA,2019-01-14T03:00:00Z,40.72,140.68,-1.0,-8.0,70,4,,6.21,30.177166,,,,,,,,,,,FEW,2500,SCT,3500,,,,,VFR,,,,,,,,,,,,METAR,201.0
RJSF 140300Z VRB04KT 9999 FEW025 SCT035 05/M05 Q1020,RJSF,2019-01-14T03:00:00Z,37.22,140.42,5.0,-5.0,0,4,,6.21,30.11811,,,,,,,,,,,FEW,2500,SCT,3500,,,,,VFR,,,,,,,,,,,,METAR,375.0
RJOM 140300Z 28004KT 220V350 9999 FEW020 11/03 Q1023,RJOM,2019-01-14T03:00:00Z,33.82,132.68,11.0,3.0,280,4,,6.21,30.206694,,,,,,,,,,,FEW,2000,,,,,,,VFR,,,,,,,,,,,,METAR,7.0
RJOK 140300Z 14005KT 110V210 9999 FEW030 13/00 Q1021,RJOK,2019-01-14T03:00:00Z,33.52,133.67,13.0,0.0,140,5,,6.21,30.147638,,,,,,,,,,,FEW,3000,,,,,,,VFR,,,,,,,,,,,,METAR,10.0
RJFM 140300Z 03008KT 360V060 9999 FEW030 14/04 Q1022,RJFM,2019-01-14T03:00:00Z,31.87,131.43,14.0,4.0,30,8,,6.21,30.177166,,,,,,,,,,,FEW,3000,,,,,,,VFR,,,,,,,,,,,,METAR,9.0
RJEC 140300Z 00000KT 9999 FEW030 M14/M16 Q1023,RJEC,2019-01-14T03:00:00Z,43.67,142.43,-14.0,-16.0,0,0,,6.21,30.206694,,,,,,,,,,,FEW,3000,,,,,,,VFR,,,,,,,,,,,,METAR,211.0
RJFR 140300Z 05002KT 9999 FEW020 10/06 Q1023,RJFR,2019-01-14T03:00:00Z,33.82,131.03,10.0,6.0,50,2,,6.21,30.206694,,,,,,,,,,,FEW,2000,,,,,,,VFR,,,,,,,,,,,,METAR,6.0
RJSK 140300Z 12004KT 080V150 9999 FEW040 02/M08 Q1023,RJSK,2019-01-14T03:00:00Z,39.62,140.22,2.0,-8.0,120,4,,6.21,30.206694,,,,,,,,,,,FEW,4000,,,,,,,VFR,,,,,,,,,,,,METAR,96.0
RJAH 140300Z 02006KT 310V060 9999 FEW025 10/M06 Q1021,RJAH,2019-01-14T03:00:00Z,36.17,140.42,10.0,-6.0,20,6,,6.21,30.147638,,,,,,,,,,,FEW,2500,,,,,,,VFR,,,,,,,,,,,,METAR,35.0
RJCK 140300Z 14006KT 090V170 9999 FEW030 M04/M11 Q1022,RJCK,2019-01-14T03:00:00Z,43.02,144.18,-4.0,-11.0,140,6,,6.21,30.177166,,,,,,,,,,,FEW,3000,,,,,,,VFR,,,,,,,,,,,,METAR,98.0
RJCM 140300Z 16003KT 9999 FEW020 M07/M13 Q1023,RJCM,2019-01-14T03:00:00Z,43.88,144.17,-7.0,-13.0,160,3,,6.21,30.206694,,,,,,,,,,,FEW,2000,,,,,,,VFR,,,,,,,,,,,,METAR,36.0
RJCB 140300Z 33002KT 9999 FEW030 M08/M13 Q1022,RJCB,2019-01-14T03:00:00Z,42.72,143.22,-8.0,-13.0,330,2,,6.21,30.177166,,,,,,,,,,,FEW,3000,,,,,,,VFR,,,,,,,,,,,,METAR,152.0
RJOC 140300Z 06008KT 9999 FEW025 10/03 Q1023,RJOC,2019-01-14T03:00:00Z,35.42,132.87,10.0,3.0,60,8,,6.21,30.206694,,,,,,,,,,,FEW,2500,,,,,,,VFR,,,,,,,,,,,,METAR,5.0
ROIG 140300Z 06011KT 9999 FEW036 BKN100 22/14 Q1020,ROIG,2019-01-14T03:00:00Z,24.32,124.17,22.0,14.0,60,11,,6.21,30.11811,,,,,,,,,,,FEW,3600,BKN,10000,,,,,VFR,,,,,,,,,,,,METAR,7.0
RJOH 140300Z 07007KT 9999 FEW050 11/M01 Q1023,RJOH,2019-01-14T03:00:00Z,35.47,133.25,11.0,-1.0,70,7,,6.21,30.206694,,,,,,,,,,,FEW,5000,,,,,,,VFR,,,,,,,,,,,,METAR,9.0
RJFS 140300Z 20004KT 110V240 9999 FEW035 11/07 Q1022,RJFS,2019-01-14T03:00:00Z,33.15,130.3,11.0,7.0,200,4,,6.21,30.177166,,,,,,,,,,,FEW,3500,,,,,,,VFR,,,,,,,,,,,,METAR,5.0
PLCH 140300Z 10008KT 9999 FEW019 SCT100 29/25 Q1004,PLCH,2019-01-14T03:00:00Z,1.98,-157.35,29.0,25.0,100,8,,6.21,29.64567,,,,,,,,,,,FEW,1900,SCT,10000,,,,,VFR,,,,,,,,,,,,METAR,3.0
RCTP 140300Z 08017KT 050V110 9999 FEW015 SCT100 22/15 Q1019 WS R05R NOSIG RMK A3010,RCTP,2019-01-14T03:00:00Z,25.07,121.22,22.0,15.0,80,17,,6.21,30.088583,,,,,,TRUE,,,,,FEW,1500,SCT,10000,,,,,VFR,,,,,,,,,,,,METAR,33.0
RCKH 140300Z VRB03KT 4500 HZ FEW010 BKN080 26/19 Q1017 NOSIG RMK A3005,RCKH,2019-01-14T03:00:00Z,22.57,120.33,26.0,19.0,0,3,,2.8,30.029528,,,,,,TRUE,,,,HZ,FEW,1000,BKN,8000,,,,,IFR,,,,,,,,,,,,METAR,9.0
RCSS 140300Z 09015KT 9999 FEW020 SCT150 21/16 Q1020 NOSIG RMK A3013,RCSS,2019-01-14T03:00:00Z,25.07,121.53,21.0,16.0,90,15,,6.21,30.11811,,,,,,TRUE,,,,,FEW,2000,SCT,15000,,,,,VFR,,,,,,,,,,,,SPECI,6.0
RCMQ 140300Z 35007KT 9999 FEW010 BKN050 21/12 Q1018 NOSIG RMK A3007,RCMQ,2019-01-14T03:00:00Z,24.27,120.62,21.0,12.0,350,7,,6.21,30.059055,,,,,,TRUE,,,,,FEW,1000,BKN,5000,,,,,VFR,,,,,,,,,,,,SPECI,5.0
RCNN 140300Z 34004KT 9999 FEW020 25/15 Q1017 NOSIG RMK A3005,RCNN,2019-01-14T03:00:00Z,22.93,120.2,25.0,15.0,340,4,,6.21,30.029528,,,,,,TRUE,,,,,FEW,2000,,,,,,,VFR,,,,,,,,,,,,SPECI,19.0
RCFN 140300Z 03007KT 340V070 9999 FEW022 SCT030 BKN060 23/16 Q1021 NOSIG RMK A3015,RCFN,2019-01-14T03:00:00Z,22.77,121.07,23.0,16.0,30,7,,6.21,30.147638,,,,,,TRUE,,,,,FEW,2200,SCT,3000,BKN,6000,,,VFR,,,,,,,,,,,,SPECI,42.0
VMMC 140300Z 08007KT 060V120 8000 FEW012 SCT035 20/17 Q1020 NOSIG,VMMC,2019-01-14T03:00:00Z,22.15,113.58,20.0,17.0,80,7,,4.97,30.11811,,,,,,TRUE,,,,,FEW,1200,SCT,3500,,,,,MVFR,,,,,,,,,,,,METAR,6.0
UKLI 140300Z 00000MPS CAVOK 01/M04 Q0986 R28/410245 NOSIG,UKLI,2019-01-14T03:00:00Z,48.88,24.68,1.0,-4.0,0,0,,6.21,29.114174,,,,,,TRUE,,,,,CAVOK,,,,,,,,VFR,,,,,,,,,,,,METAR,280.0
UKLU 140300Z 13002MPS 080V200 1300 SN BR OVC003 00/00 Q0990 NOSIG,UKLU,2019-01-14T03:00:00Z,48.63,22.27,0.0,0.0,130,4,,0.81,29.232283,,,,,,TRUE,,,,SN BR,OVC,300,,,,,,,LIFR,,,,,,,,,,,,METAR,117.0
UKKK 140300Z 19004MPS 170V230 CAVOK M03/M06 Q0991 R26/810340 NOSIG,UKKK,2019-01-14T03:00:00Z,50.4,30.45,-3.0,-6.0,190,8,,6.21,29.26181,,,,,,TRUE,,,,,CAVOK,,,,,,,,VFR,,,,,,,,,,,,METAR,179.0
UKKM 140300Z AUTO 19005MPS 9999 // NSC M02/M05 Q0990,UKKM,2019-01-14T03:00:00Z,50.6,30.2,-2.0,-5.0,190,10,,6.21,29.232283,,,TRUE,,,,,,,,CLR,,,,,,,,VFR,,,,,,,,,,,,METAR,157.0
UKLN 140300Z 08003MPS CAVOK M06/M07 Q0989 R33/710150 NOSIG,UKLN,2019-01-14T03:00:00Z,48.27,25.98,-6.0,-7.0,80,6,,6.21,29.202755,,,,,,TRUE,,,,,CAVOK,,,,,,,,VFR,,,,,,,,,,,,METAR,252.0
UKOH 140300Z 17003MPS 9999 OVC017 01/M02 Q0999 NOSIG,UKOH,2019-01-14T03:00:00Z,46.67,32.5,1.0,-2.0,170,6,,6.21,29.498032,,,,,,TRUE,,,,,OVC,1700,,,,,,,MVFR,,,,,,,,,,,,METAR,45.0
UKWW 140300Z 16006MPS 9999 DRSN NSC M06/M09 Q0990 NOSIG,UKWW,2019-01-14T03:00:00Z,49.25,28.6,-6.0,-9.0,160,12,,6.21,29.232283,,,,,,TRUE,,,,DRSN,CLR,,,,,,,,VFR,,,,,,,,,,,,METAR,293.0
YBTL 140300Z 09017KT 9999 FEW032 BKN270 32/22 Q1009 NOSIG,YBTL,2019-01-14T03:00:00Z,-19.25,146.75,32.0,22.0,90,17,,6.21,29.793306,,,,,,TRUE,,,,,FEW,3200,BKN,27000,,,,,VFR,,,,,,,,,,,,METAR,6.0
YBUD 140300Z AUTO 12020KT 9999 // BKN069 31/20 Q1013,YBUD,2019-01-14T03:00:00Z,-24.9,152.32,31.0,20.0,120,20,,6.21,29.911417,,,TRUE,,,,,,,,BKN,6900,,,,,,,VFR,,,,,,,,,,,,METAR,82.0
YBWP 140300Z AUTO 05007KT 010V070 9999 // SCT045 33/21 Q1006,YBWP,2019-01-14T03:00:00Z,-12.68,141.92,33.0,21.0,50,7,,6.21,29.704725,,,TRUE,,,,,,,,SCT,4500,,,,,,,VFR,,,,,,,,,,,,METAR,12.0
YBWX 140300Z AUTO 21008KT //// // ////// 31/21 Q1006,YBWX,2019-01-14T03:00:00Z,-20.88,115.4,31.0,21.0,210,8,,,29.704725,,,TRUE,,,,,,,,,,,,,,,,,,,,,,,,,,,,METAR,6.0
YCAS 140300Z AUTO 09011KT //// // ////// 31/15 Q1016,YCAS,2019-01-14T03:00:00Z,-28.88,153.07,31.0,15.0,90,11,,,30.0,,,TRUE,,,,,,,,,,,,,,,,,,,,,,,,,,,,METAR,26.0
YCAR 140300Z AUTO 19021KT 9999 // NCD 27/19 Q1009,YCAR,2019-01-14T03:00:00Z,-24.88,113.67,27.0,19.0,190,21,,6.21,29.793306,,,TRUE,,,,,,,,CLR,,,,,,,,VFR,,,,,,,,,,,,METAR,8.0
YCBA 140300Z AUTO 01009KT 9999 // NCD 39/08 Q1012,YCBA,2019-01-14T03:00:00Z,-31.53,145.8,39.0,8.0,10,9,,6.21,29.88189,,,TRUE,,,,,,,,CLR,,,,,,,,VFR,,,,,,,,,,,,METAR,221.0
YCBB 140300Z AUTO 31007KT 280V340 9999 // NCD 35/08 Q1017,YCBB,2019-01-14T03:00:00Z,-31.33,149.27,35.0,8.0,310,7,,6.21,30.029528,,,TRUE,,,,,,,,CLR,,,,,,,,VFR,,,,,,,,,,,,METAR,645.0
YCBP 140300Z AUTO 36004KT 300V080 9999 // NCD 43/M24 Q1008,YCBP,2019-01-14T03:00:00Z,-29.03,134.72,43.0,-24.0,360,4,,6.21,29.763779,,,TRUE,,,,,,,,CLR,,,,,,,,VFR,,,,,,,,,,,,METAR,226.0
LRCV 140300Z 05003KT 0800 R09/1800 FZFG NSC M11/M12 Q0998,LRCV,2019-01-14T03:00:00Z,44.32,23.88,-11.0,-12.0,50,3,,0.5,29.468504,,,,,,,,,,FZFG,CLR,,,,,,,,LIFR,,,,,,,,,,,,METAR,191.0
LRTC 140300Z AUTO 22013KT 7000 FEW120/// M02/M03 Q0998,LRTC,2019-01-14T03:00:00Z,45.07,28.72,-2.0,-3.0,220,13,,4.35,29.468504,,,TRUE,,,,,,,,FEW,12000,,,,,,,MVFR,,,,,,,,,,,,METAR,6.0
LRSV 140300Z 20011KT CAVOK M03/M06 Q0989 R16/09//95,LRSV,2019-01-14T03:00:00Z,47.68,26.35,-3.0,-6.0,200,11,,6.21,29.202755,,,,,,,,,,,CAVOK,,,,,,,,VFR,,,,,,,,,,,,METAR,351.0
LRIA 140300Z 10010KT 6000 NSC M09/M11 Q0994 R14/19//95,LRIA,2019-01-14T03:00:00Z,47.17,27.62,-9.0,-11.0,100,10,,3.73,29.350393,,,,,,,,,,,CLR,,,,,,,,MVFR,,,,,,,,,,,,METAR,104.0
LRBC 140300Z 17014KT 4100 BR NSC M08/M10 Q0994 R16/910295,LRBC,2019-01-14T03:00:00Z,46.52,26.92,-8.0,-10.0,170,14,,2.55,29.350393,,,,,,,,,,BR,CLR,,,,,,,,IFR,,,,,,,,,,,,METAR,185.0
VOCP 140300Z 00000KT 1000 BR NSC 22/18 Q1016,VOCP,2019-01-14T03:00:00Z,14.47,78.82,22.0,18.0,0,0,,0.62,30.0,,,,,,,,,,BR,CLR,,,,,,,,LIFR,,,,,,,,,,,,METAR,130.0
LFSN 140300Z AUTO 29005KT 250V360 9999 SCT021 BKN027 BKN036 06/04 Q1010,LFSN,2019-01-14T03:00:00Z,48.67,6.22,6.0,4.0,290,5,,6.21,29.822834,,,TRUE,,,,,,,,SCT,2100,BKN,2700,BKN,3600,,,MVFR,,,,,,,,,,,,METAR,217.0
LFQB 140300Z AUTO 33013KT 9999 -RA ////// 07/05 Q1014,LFQB,2019-01-14T03:00:00Z,48.32,4.02,7.0,5.0,330,13,,6.21,29.940945,,,TRUE,,,,,,,-RA,,,,,,,,,,,,,,,,,,,,,METAR,118.0
LFQA 140300Z AUTO 32011KT 9999 FEW020 SCT025 BKN038 07/04 Q1013,LFQA,2019-01-14T03:00:00Z,49.2,4.15,7.0,4.0,320,11,,6.21,29.911417,,,TRUE,,,,,,,,FEW,2000,SCT,2500,BKN,3800,,,VFR,,,,,,,,,,,,METAR,95.0
LFOP 140300Z AUTO 30011KT 270V330 CAVOK 08/04 Q1016,LFOP,2019-01-14T03:00:00Z,49.37,1.17,8.0,4.0,300,11,,6.21,30.0,,,TRUE,,,,,,,,CAVOK,,,,,,,,VFR,,,,,,,,,,,,METAR,157.0
LFOH 140300Z AUTO 32015KT 9999 FEW038 09/03 Q1018,LFOH,2019-01-14T03:00:00Z,49.52,0.07,9.0,3.0,320,15,,6.21,30.059055,,,TRUE,,,,,,,,FEW,3800,,,,,,,VFR,,,,,,,,,,,,METAR,103.0
LFLX 140300Z AUTO 27011KT 9999 -RA FEW008 BKN014 BKN020 08/07 Q1019 TEMPO 28016G26KT 2500 -DZRA BKN004,LFLX,2019-01-14T03:00:00Z,46.85,1.72,8.0,7.0,270,11,,6.21,30.088583,,,TRUE,,,,,,,-RA,FEW,800,BKN,1400,BKN,2000,,,MVFR,,,,,,,,,,,,METAR,157.0
LFLP 140300Z AUTO VRB01KT 7000 -RA OVC009 05/04 Q1014 TEMPO 3000 -RADZ,LFLP,2019-01-14T03:00:00Z,45.92,6.08,5.0,4.0,0,1,,4.35,29.940945,,,TRUE,,,,,,,-RA,OVC,900,,,,,,,IFR,,,,,,,,,,,,METAR,463.0
LFCK 140300Z AUTO 29020KT 4300 -RA BR OVC006 09/08 Q1022,LFCK,2019-01-14T03:00:00Z,43.55,2.28,9.0,8.0,290,20,,2.67,30.177166,,,TRUE,,,,,,,-RA BR,OVC,600,,,,,,,IFR,,,,,,,,,,,,METAR,240.0
LFTW 140300Z AUTO 30011KT 260V340 CAVOK 12/03 Q1014 TEMPO 30020G30KT,LFTW,2019-01-14T03:00:00Z,43.75,4.42,12.0,3.0,300,11,,6.21,29.940945,,,TRUE,,,,,,,,CAVOK,,,,,,,,VFR,,,,,,,,,,,,SPECI,96.0
LFTH 140300Z AUTO 29015KT CAVOK 14/04 Q1007 TEMPO 28020G36KT,LFTH,2019-01-14T03:00:00Z,43.1,6.15,14.0,4.0,290,15,,6.21,29.734253,,,TRUE,,,,,,,,CAVOK,,,,,,,,VFR,,,,,,,,,,,,METAR,4.0
LFST 140300Z AUTO 29010KT 250V320 9999 FEW031 BKN042 BKN054 07/04 Q1009 BECMG 30015G25KT,LFST,2019-01-14T03:00:00Z,48.53,7.62,7.0,4.0,290,10,,6.21,29.793306,,,TRUE,,,,,,,,FEW,3100,BKN,4200,BKN,5400,,,VFR,,,,,,,,,,,,METAR,154.0
LFRG 140300Z AUTO 31011KT 280V350 CAVOK 08/02 Q1018,LFRG,2019-01-14T03:00:00Z,49.37,0.15,8.0,2.0,310,11,,6.21,30.059055,,,TRUE,,,,,,,,CAVOK,,,,,,,,VFR,,,,,,,,,,,,METAR,146.0
LFOT 140300Z AUTO 28008KT 9999 BKN011 OVC021 09/08 Q1019 TEMPO 28016G26KT 2500 -DZRA BKN006,LFOT,2019-01-14T03:00:00Z,47.43,0.72,9.0,8.0,280,8,,6.21,30.088583,,,TRUE,,,,,,,,BKN,1100,OVC,2100,,,,,MVFR,,,,,,,,,,,,SPECI,108.0
LFMH 140300Z AUTO 32006KT 9999 OVC032 08/04 Q1016 TEMPO 4000 -RADZ BKN014 OVC025,LFMH,2019-01-14T03:00:00Z,45.52,4.28,8.0,4.0,320,6,,6.21,30.0,,,TRUE,,,,,,,,OVC,3200,,,,,,,VFR,,,,,,,,,,,,SPECI,402.0
LFMD 140300Z AUTO VRB05KT CAVOK 04/03 Q1003 TEMPO 26020G35KT,LFMD,2019-01-14T03:00:00Z,43.53,6.95,4.0,3.0,0,5,,6.21,29.616142,,,TRUE,,,,,,,,CAVOK,,,,,,,,VFR,,,,,,,,,,,,METAR,9.0
LFGJ 140300Z AUTO 24009KT 9999 SCT023/// BKN028/// BKN036/// ///TCU 08/06 Q1014,LFGJ,2019-01-14T03:00:00Z,47.05,5.43,8.0,6.0,240,9,,6.21,29.940945,,,TRUE,,,,,,,,SCT,2300,BKN,2800,BKN,3600,,,MVFR,,,,,,,,,,,,METAR,196.0
LFBE 140300Z AUTO 27010KT 9999 BKN012 BKN020 OVC029 09/08 Q1023,LFBE,2019-01-14T03:00:00Z,44.82,0.52,9.0,8.0,270,10,,6.21,30.206694,,,TRUE,,,,,,,,BKN,1200,BKN,2000,OVC,2900,,,MVFR,,,,,,,,,,,,METAR,52.0
LFML 140300Z AUTO 31017KT CAVOK 09/05 Q1012 NOSIG,LFML,2019-01-14T03:00:00Z,43.45,5.22,9.0,5.0,310,17,,6.21,29.88189,,,TRUE,,,TRUE,,,,,CAVOK,,,,,,,,VFR,,,,,,,,,,,,METAR,36.0
LFLB 140300Z AUTO 34004KT 280V030 5000 -RA BR SCT009 BKN013 OVC034 06/06 Q1015,LFLB,2019-01-14T03:00:00Z,45.63,5.87,6.0,6.0,340,4,,3.11,29.970472,,,TRUE,,,,,,,-RA BR,SCT,900,BKN,1300,OVC,3400,,,MVFR,,,,,,,,,,,,METAR,239.0
LFKB 140300Z AUTO 22006KT 190V250 CAVOK 05/03 Q1004 NOSIG,LFKB,2019-01-14T03:00:00Z,42.53,9.47,5.0,3.0,220,6,,6.21,29.64567,,,TRUE,,,TRUE,,,,,CAVOK,,,,,,,,VFR,,,,,,,,,,,,METAR,12.0
LFBZ 140300Z AUTO 27009KT 240V300 9999 FEW007 BKN011 BKN020 10/10 Q1026 TEMPO 2000 RADZ BR BKN004,LFBZ,2019-01-14T03:00:00Z,43.47,-1.52,10.0,10.0,270,9,,6.21,30.295275,,,TRUE,,,,,,,,FEW,700,BKN,1100,BKN,2000,,,MVFR,,,,,,,,,,,,SPECI,71.0
LFBT 140300Z AUTO 25010KT 9999 SCT009 SCT013 BKN041 08/07 Q1025 TEMPO 2000 -DZRA BKN005,LFBT,2019-01-14T03:00:00Z,43.17,0.0,8.0,7.0,250,10,,6.21,30.265747,,,TRUE,,,,,,,,SCT,900,SCT,1300,BKN,4100,,,VFR,,,,,,,,,,,,SPECI,363.0
LFBP 140300Z AUTO 25007KT 9999 -DZ BKN006 OVC014 09/08 Q1026 TEMPO 2000 -RADZ OVC004,LFBP,2019-01-14T03:00:00Z,43.37,-0.42,9.0,8.0,250,7,,6.21,30.295275,,,TRUE,,,,,,,-DZ,BKN,600,OVC,1400,,,,,IFR,,,,,,,,,,,,SPECI,185.0
LFBO 140300Z AUTO 29017KT 9999 OVC012 09/07 Q1023 TEMPO 27015G25KT 3000 -DZ OVC007,LFBO,2019-01-14T03:00:00Z,43.62,1.37,9.0,7.0,290,17,,6.21,30.206694,,,TRUE,,,,,,,,OVC,1200,,,,,,,MVFR,,,,,,,,,,,,SPECI,153.0
LFBL 140300Z AUTO 29008KT 270V330 4100 -DZ BR OVC003 06/06 Q1020 BECMG 8000 NSW OVC006,LFBL,2019-01-14T03:00:00Z,45.87,1.17,6.0,6.0,290,8,,2.55,30.11811,,,TRUE,,,,,,,-DZ BR,OVC,300,,,,,,,LIFR,,,,,,,,,,,,SPECI,402.0
LFBI 140300Z AUTO 28006KT 250V310 9000 BKN016 BKN023 OVC031 09/07 Q1021 TEMPO 3000 -DZ BKN010,LFBI,2019-01-14T03:00:00Z,46.57,0.32,9.0,7.0,280,6,,5.59,30.147638,,,TRUE,,,,,,,,BKN,1600,BKN,2300,OVC,3100,,,MVFR,,,,,,,,,,,,SPECI,120.0
LFSL 140300Z AUTO 28009KT 5000 BR OVC005 08/07 Q1021 TEMPO RADZ,LFSL,2019-01-14T03:00:00Z,45.03,1.48,8.0,7.0,280,9,,3.11,30.147638,,,TRUE,,,,,,,BR,OVC,500,,,,,,,IFR,,,,,,,,,,,,SPECI,310.0
LFMV 140300Z AUTO 31008KT CAVOK 09/05 Q1013 NOSIG,LFMV,2019-01-14T03:00:00Z,43.9,4.9,9.0,5.0,310,8,,6.21,29.911417,,,TRUE,,,TRUE,,,,,CAVOK,,,,,,,,VFR,,,,,,,,,,,,METAR,38.0
LFMP 140300Z AUTO 31015G31KT 280V350 9999 BKN039/// BKN047/// BKN056/// 13/06 Q1019 TEMPO 31025G45KT,LFMP,2019-01-14T03:00:00Z,42.72,2.87,13.0,6.0,310,15,31,6.21,30.088583,,,TRUE,,,,,,,,BKN,3900,BKN,4700,BKN,5600,,,VFR,,,,,,,,,,,,SPECI,48.0
LFLS 140300Z AUTO 17004KT 140V220 9999 -RADZ OVC014 07/06 Q1015 TEMPO 3000 -RADZ BKN008 BECMG 30010KT,LFLS,2019-01-14T03:00:00Z,45.37,5.32,7.0,6.0,170,4,,6.21,29.970472,,,TRUE,,,,,,,-RA -DZ,OVC,1400,,,,,,,MVFR,,,,,,,,,,,,SPECI,386.0
LFLC 140300Z AUTO 29011KT 260V320 9999 FEW033 BKN040 OVC050 09/04 Q1017 TEMPO 36015G25KT 4500 -RA BKN013 OVC040,LFLC,2019-01-14T03:00:00Z,45.77,3.17,9.0,4.0,290,11,,6.21,30.029528,,,TRUE,,,,,,,,FEW,3300,BKN,4000,OVC,5000,,,VFR,,,,,,,,,,,,SPECI,330.0
LFKJ 140300Z AUTO 04007KT 9999 BKN031 OVC048 07/03 Q1007 NOSIG,LFKJ,2019-01-14T03:00:00Z,41.92,8.8,7.0,3.0,40,7,,6.21,29.734253,,,TRUE,,,TRUE,,,,,BKN,3100,OVC,4800,,,,,VFR,,,,,,,,,,,,METAR,9.0
LFKF 140300Z AUTO 25017G29KT 210V290 9999 FEW029 OVC038 13/07 Q1004 TEMPO 30030G50KT,LFKF,2019-01-14T03:00:00Z,41.5,9.08,13.0,7.0,250,17,29,6.21,29.64567,,,TRUE,,,,,,,,FEW,2900,OVC,3800,,,,,VFR,,,,,,,,,,,,SPECI,23.0
LFKC 140300Z AUTO 20014KT 9999 FEW035 SCT042 13/07 Q1005 BECMG 21015G30KT,LFKC,2019-01-14T03:00:00Z,42.52,8.8,13.0,7.0,200,14,,6.21,29.675198,,,TRUE,,,,,,,,FEW,3500,SCT,4200,,,,,VFR,,,-1.5,,,,,,,,,SPECI,58.0
LFJL 140300Z AUTO 30014KT 9999 SCT027 05/03 Q1010 TEMPO 4500 -SHRA BKN009 FEW020TCU BECMG 30015G25KT,LFJL,2019-01-14T03:00:00Z,48.97,6.25,5.0,3.0,300,14,,6.21,29.822834,,,TRUE,,,,,,,,SCT,2700,,,,,,,VFR,,,,,,,,,,,,SPECI,264.0
LFCR 140300Z AUTO 28019KT 9999 -DZ OVC005 06/06 Q1020 TEMPO 29016G26KT 1200 RADZ BR VV///,LFCR,2019-01-14T03:00:00Z,44.38,2.47,6.0,6.0,280,19,,6.21,30.11811,,,TRUE,,,,,,,-DZ,OVC,500,,,,,,,IFR,,,,,,,,,,,,SPECI,580.0
LFYR 140300Z AUTO 27006KT 230V330 9999 SCT010 SCT016 OVC050 09/08 Q1018,LFYR,2019-01-14T03:00:00Z,47.32,1.67,9.0,8.0,270,6,,6.21,30.059055,,,TRUE,,,,,,,,SCT,1000,SCT,1600,OVC,5000,,,VFR,,,,,,,,,,,,METAR,86.0
LFSX 140300Z AUTO 29006KT 9999 FEW017/// BKN043/// OVC050/// ///CB 05/04 Q1011,LFSX,2019-01-14T03:00:00Z,47.77,6.33,5.0,4.0,290,6,,6.21,29.852362,,,TRUE,,,,,,,,FEW,1700,BKN,4300,OVC,5000,,,VFR,,,,,,,,,,,,SPECI,273.0
LFSO 140300Z AUTO 29009KT 9999 BKN017 BKN027 OVC066 06/04 Q1010,LFSO,2019-01-14T03:00:00Z,48.57,5.97,6.0,4.0,290,9,,6.21,29.822834,,,TRUE,,,,,,,,BKN,1700,BKN,2700,OVC,6600,,,MVFR,,,,,,,,,,,,METAR,350.0
LFSI 140300Z AUTO 29008KT 9999 FEW027 SCT034 BKN058 06/04 Q1013,LFSI,2019-01-14T03:00:00Z,48.62,4.9,6.0,4.0,290,8,,6.21,29.911417,,,TRUE,,,,,,,,FEW,2700,SCT,3400,BKN,5800,,,VFR,,,,,,,,,,,,METAR,140.0
LFPV 140300Z AUTO 34009KT 9999 FEW046 OVC062 08/05 Q1015 NOSIG,LFPV,2019-01-14T03:00:00Z,48.77,2.2,8.0,5.0,340,9,,6.21,29.970472,,,TRUE,,,TRUE,,,,,FEW,4600,OVC,6200,,,,,VFR,,,,,,,,,,,,METAR,179.0
LFOA 140300Z AUTO 28012KT 9999 OVC007 08/08 Q1017,LFOA,2019-01-14T03:00:00Z,47.03,2.63,8.0,8.0,280,12,,6.21,30.029528,,,TRUE,,,,,,,,OVC,700,,,,,,,IFR,,,,,,,,,,,,METAR,179.0
VEMN 140300Z 08004KT 5000 HZ NSC 16/11 Q1017 NOSIGZ,VEMN,2019-01-14T03:00:00Z,27.47,95.02,16.0,11.0,80,4,,3.11,30.029528,,,,,,,,,,HZ,CLR,,,,,,,,MVFR,,,,,,,,,,,,METAR,111.0
VOBG 140300Z 09006KT 0400 FG BKN005 15/14 Q1019,VOBG,2019-01-14T03:00:00Z,12.95,77.63,15.0,14.0,90,6,,0.25,30.088583,,,,,,,,,,FG,BKN,500,,,,,,,LIFR,,,,,,,,,,,,METAR,897.0
VOTV 140300Z 08003KT 3000 HZ FEW015 28/22 Q1012 NOSIG,VOTV,2019-01-14T03:00:00Z,8.47,76.95,28.0,22.0,80,3,,1.86,29.88189,,,,,,TRUE,,,,HZ,FEW,1500,,,,,,,IFR,,,,,,,,,,,,METAR,8.0
VOMM 140300Z 00000KT 0700 R07/1200 R25/1200 FU NSC 24/20 Q1016 BECMG 1000 FU,VOMM,2019-01-14T03:00:00Z,13.0,80.17,24.0,20.0,0,0,,0.43,30.0,,,,,,,,,,FU,CLR,,,,,,,,LIFR,,,,,,,,,,,,METAR,16.0
VABB 140300Z 10005KT 2200 FU NSC 23/10 Q1015 NOSIG,VABB,2019-01-14T03:00:00Z,19.1,72.87,23.0,10.0,100,5,,1.37,29.970472,,,,,,TRUE,,,,FU,CLR,,,,,,,,IFR,,,,,,,,,,,,METAR,8.0
VOHB 140300Z 03003KT 6000 NSC 19/10 Q1019,VOHB,2019-01-14T03:00:00Z,15.37,75.08,19.0,10.0,30,3,,3.73,30.088583,,,,,,,,,,,CLR,,,,,,,,MVFR,,,,,,,,,,,,METAR,661.0
VANP 140300Z 02003KT 1200 BR NSC 19/13 Q1019 TEMPO VIS 0800,VANP,2019-01-14T03:00:00Z,21.08,79.05,19.0,13.0,20,3,,0.75,30.088583,,,,,,,,,,BR,CLR,,,,,,,,LIFR,,,,,,,,,,,,METAR,310.0
VIJP 140300Z 00000KT 2000 HZ NSC 14/02 Q1021 NOSIG,VIJP,2019-01-14T03:00:00Z,26.82,75.78,14.0,2.0,0,0,,1.24,30.147638,,,,,,TRUE,,,,HZ,CLR,,,,,,,,IFR,,,,,,,,,,,,METAR,390.0
VOHS 140300Z 12003KT 3000 BR NSC 18/14 Q1019 NOSIG,VOHS,2019-01-14T03:00:00Z,17.23,78.43,18.0,14.0,120,3,,1.86,30.088583,,,,,,TRUE,,,,BR,CLR,,,,,,,,IFR,,,,,,,,,,,,METAR,1.0
VOTR 140300Z 02010KT 2500 HZ NSC 23/18 Q1015 NOSIG,VOTR,2019-01-14T03:00:00Z,10.77,78.72,23.0,18.0,20,10,,1.55,29.970472,,,,,,TRUE,,,,HZ,CLR,,,,,,,,IFR,,,,,,,,,,,,METAR,88.0
VOTP 140300Z 00000KT 0200 FU FEW020 20/17 Q1016,VOTP,2019-01-14T03:00:00Z,13.63,79.55,20.0,17.0,0,0,,0.12,30.0,,,,,,,,,,FU,FEW,2000,,,,,,,LIFR,,,,,,,,,,,,METAR,107.0
VERP 140300Z 05003KT 2000 HZ NSC 19/15 Q1018 NOSIG,VERP,2019-01-14T03:00:00Z,21.18,81.73,19.0,15.0,50,3,,1.24,30.059055,,,,,,TRUE,,,,HZ,CLR,,,,,,,,IFR,,,,,,,,,,,,METAR,316.0
VAPR 140300Z 36006KT 4000 FU NSC 19/09 Q1018,VAPR,2019-01-14T03:00:00Z,21.63,69.67,19.0,9.0,360,6,,2.49,30.059055,,,,,,,,,,FU,CLR,,,,,,,,IFR,,,,,,,,,,,,METAR,7.0
VAUD 140300Z 36002KT 3000 HZ NSC 2/05 Q1022 NOSIG,VAUD,2019-01-14T03:00:00Z,24.6,73.9,,,360,2,,1.86,30.177166,,,,,,TRUE,,,,HZ,CLR,,,,,,,,IFR,,,,,,,,,,,,METAR,514.0
VORY 140300Z 03005KT 1000 BR NSC 20/18 Q1017 NOSIG,VORY,2019-01-14T03:00:00Z,17.1,81.82,20.0,18.0,30,5,,0.62,30.029528,,,,,,TRUE,,,,BR,CLR,,,,,,,,LIFR,,,,,,,,,,,,METAR,46.0
VOCL 140300Z 08003KT 5000 BR NSC 23/18 Q1014 NOSIG,VOCL,2019-01-14T03:00:00Z,11.13,75.95,23.0,18.0,80,3,,3.11,29.940945,,,,,,TRUE,,,,BR,CLR,,,,,,,,MVFR,,,,,,,,,,,,METAR,104.0
VEDG 140300Z 31003KT 1200 R16/1700 FU NSC 18/10 Q1017 BECMG 1500 FU,VEDG,2019-01-14T03:00:00Z,23.62,87.25,18.0,10.0,310,3,,0.75,30.029528,,,,,,,,,,FU,CLR,,,,,,,,LIFR,,,,,,,,,,,,METAR,91.0
SAZS 140300Z 17005KT CAVOK 12/01 Q1019,SAZS,2019-01-14T03:00:00Z,-41.13,-71.17,12.0,1.0,170,5,,6.21,30.088583,,,,,,,,,,,CAVOK,,,,,,,,VFR,,,,,,,,,,,,METAR,840.0
SAZN 140300Z 18002KT CAVOK 18/12 Q1016,SAZN,2019-01-14T03:00:00Z,-38.95,-68.15,18.0,12.0,180,2,,6.21,30.0,,,,,,,,,,,CAVOK,,,,,,,,VFR,,,,,,,,,,,,METAR,271.0
SAZM 140300Z 11005KT 5000 BR OVC004 20/20 Q1016,SAZM,2019-01-14T03:00:00Z,-37.92,-57.57,20.0,20.0,110,5,,3.11,30.0,,,,,,,,,,BR,OVC,400,,,,,,,LIFR,,,,,,,,,,,,METAR,21.0
SAWG 140300Z 26015KT CAVOK 08/M01 Q1009,SAWG,2019-01-14T03:00:00Z,-51.62,-69.32,8.0,-1.0,260,15,,6.21,29.793306,,,,,,,,,,,CAVOK,,,,,,,,VFR,,,,,,,,,,,,METAR,19.0
SASA 140300Z 36006KT 9999 SCT010 SCT025 21/19 Q1018,SASA,2019-01-14T03:00:00Z,-24.85,-65.47,21.0,19.0,360,6,,6.21,30.059055,,,,,,,,,,,SCT,1000,SCT,2500,,,,,VFR,,,,,,,,,,,,METAR,1216.0
SARP 140300Z 18013KT 9999 TS SCT015 FEW040CB OVC059 23/22 Q1014,SARP,2019-01-14T03:00:00Z,-27.38,-55.97,23.0,22.0,180,13,,6.21,29.940945,,,,,,,,,,TS,SCT,1500,FEW,4000,OVC,5900,,,VFR,,,,,,,,,,,,METAR,125.0
SARI 140300Z 05003KT 9999 FEW040TCU BKN100 24/23 Q1014,SARI,2019-01-14T03:00:00Z,-25.72,-54.47,24.0,23.0,50,3,,6.21,29.940945,,,,,,,,,,,FEW,4000,BKN,10000,,,,,VFR,,,,,,,,,,,,METAR,270.0
SARF 140300Z 05003KT 9999 BKN025 OVC100 27/24 Q1011,SARF,2019-01-14T03:00:00Z,-26.22,-58.22,27.0,24.0,50,3,,6.21,29.852362,,,,,,,,,,,BKN,2500,OVC,10000,,,,,MVFR,,,,,,,,,,,,METAR,60.0
SARE 140300Z 11003KT 8000 TSRA SCT030 FEW045 FEW056CB BKN200 25/24 Q1011,SARE,2019-01-14T03:00:00Z,-27.43,-59.03,25.0,24.0,110,3,,4.97,29.852362,,,,,,,,,,TSRA,SCT,3000,FEW,4500,FEW,5600,BKN,20000,MVFR,,,,,,,,,,,,METAR,52.0
SARC 140300Z 09003KT 8000 -TSRA FEW030 OVC045 FEW050CB 26/24 Q1011 RMK CB OBS TO E,SARC,2019-01-14T03:00:00Z,-27.43,-58.77,26.0,24.0,90,3,,4.97,29.852362,,,,,,,,,,-TSRA,FEW,3000,OVC,4500,FEW,5000,,,MVFR,,,,,,,,,,,,METAR,62.0
UTAT 140300Z 12006KT 2700 BR OVC100 01/M02 Q1006 R08/CLRD70 NOSIG,UTAT,2019-01-14T03:00:00Z,41.77,59.83,1.0,-2.0,120,6,,1.68,29.704725,,,,,,TRUE,,,,BR,OVC,10000,,,,,,,IFR,,,,,,,,,,,,SPECI,83.0
UTAV 140300Z 15020KT 2300 DRDU NSC 08/M07 Q1010 NOSIG,UTAV,2019-01-14T03:00:00Z,39.08,63.62,8.0,-7.0,150,20,,1.43,29.822834,,,,,,TRUE,,,,DRDU,CLR,,,,,,,,IFR,,,,,,,,,,,,METAR,192.0
UTAK 140300Z 31008KT 6000 BKN033 06/05 Q1006 R16R/29//50 NOSIG,UTAK,2019-01-14T03:00:00Z,40.05,53.0,6.0,5.0,310,8,,3.73,29.704725,,,,,,TRUE,,,,,BKN,3300,,,,,,,MVFR,,,,,,,,,,,,SPECI,85.0
UTAA 140300Z 19006KT 9000 FEW050CB SCT050 OVC100 13/M03 Q1006 R88/70D NOSIG,UTAA,2019-01-14T03:00:00Z,37.98,58.37,13.0,-3.0,190,6,,5.59,29.704725,,,,,,TRUE,,,,,FEW,5000,SCT,5000,OVC,10000,,,VFR,,,,,,,,,,,,METAR,210.0
UDSG 140300Z 00000KT 5000 BR OVC026 M08/M09 Q1006 R02/490350 NOSIG,UDSG,2019-01-14T03:00:00Z,40.75,43.87,-8.0,-9.0,0,0,,3.11,29.704725,,,,,,TRUE,,,,BR,OVC,2600,,,,,,,MVFR,,,,,,,,,,,,METAR,1524.0
UDYZ 140300Z 00000KT 0500 0450W R09/1200N -SN FZFG OVC020 M04/M04 Q1009 R09/690327 NOSIG,UDYZ,2019-01-14T03:00:00Z,40.15,44.4,-4.0,-4.0,0,0,,0.31,29.793306,,,,,,TRUE,,,,FZFG -SN,OVC,2000,,,,,,,LIFR,,,,,,,,,,,,SPECI,865.0
ZUUU 140300Z VRB01MPS 2500 BR SCT050 08/04 Q1024 BECMG TL0400 3000,ZUUU,2019-01-14T03:00:00Z,30.58,103.95,8.0,4.0,0,2,,1.55,30.236221,,,,,,,,,,BR,SCT,5000,,,,,,,IFR,,,,,,,,,,,,SPECI,508.0
ZUGY 140300Z 01002MPS 9999 FEW009 BKN016 OVC030 05/04 Q1021 NOSIG,ZUGY,2019-01-14T03:00:00Z,26.53,106.8,5.0,4.0,10,4,,6.21,30.147638,,,,,,TRUE,,,,,FEW,900,BKN,1600,OVC,3000,,,MVFR,,,,,,,,,,,,METAR,1074.0
ZSQD 140300Z VRB01MPS 1400 R17/1200N BR BKN008 M01/M03 Q1029 BECMG TL0430 1600 SCT008 BKN030,ZSQD,2019-01-14T03:00:00Z,36.27,120.38,-1.0,-3.0,0,2,,0.87,30.383858,,,,,,,,,,BR,BKN,800,,,,,,,LIFR,,,,,,,,,,,,SPECI,77.0
ZSNB 140300Z VRB01MPS 3500 BR OVC050 08/04 Q1026 NOSIG,ZSNB,2019-01-14T03:00:00Z,29.83,121.47,8.0,4.0,0,2,,2.17,30.295275,,,,,,TRUE,,,,BR,OVC,5000,,,,,,,IFR,,,,,,,,,,,,METAR,4.0
ZSFZ 140300Z 36003MPS 320V040 7000 OVC019 14/09 Q1023 NOSIG,ZSFZ,2019-01-14T03:00:00Z,25.93,119.67,14.0,9.0,360,6,,4.35,30.206694,,,,,,TRUE,,,,,OVC,1900,,,,,,,MVFR,,,,,,,,,,,,METAR,85.0
ZSAM 140300Z 02003MPS 9999 FEW050 18/12 Q1021 NOSIG,ZSAM,2019-01-14T03:00:00Z,24.53,118.13,18.0,12.0,20,6,,6.21,30.147638,,,,,,TRUE,,,,,FEW,5000,,,,,,,VFR,,,,,,,,,,,,METAR,18.0
ZPPP 140300Z 21008MPS CAVOK 11/06 Q1022 NOSIG,ZPPP,2019-01-14T03:00:00Z,25.0,102.75,11.0,6.0,210,16,,6.21,30.177166,,,,,,TRUE,,,,,CAVOK,,,,,,,,VFR,,,,,,,,,,,,METAR,1892.0
ZLXY 140300Z 21002MPS 1000 R23R/1200N R23L/1200N HZ NSC 02/M03 Q1028 NOSIG,ZLXY,2019-01-14T03:00:00Z,34.43,108.75,2.0,-3.0,210,4,,0.62,30.35433,,,,,,TRUE,,,,HZ,CLR,,,,,,,,LIFR,,,,,,,,,,,,SPECI,479.0
ZGSZ 140300Z 28003MPS 6000 FEW021TCU SCT021 20/17 Q1020 NOSIG,ZGSZ,2019-01-14T03:00:00Z,22.63,113.8,20.0,17.0,280,6,,3.73,30.11811,,,,,,TRUE,,,,,FEW,2100,SCT,2100,,,,,MVFR,,,,,,,,,,,,METAR,18.0
ZGOW 140300Z 04002MPS 360V100 5000 HZ SCT017 20/14 Q1021 NOSIG,ZGOW,2019-01-14T03:00:00Z,23.55,116.5,20.0,14.0,40,4,,3.11,30.147638,,,,,,TRUE,,,,HZ,SCT,1700,,,,,,,MVFR,,,,,,,,,,,,METAR,3.0
ZGNN 140300Z 06002MPS 2000 BR FEW003 SCT005 OVC020 13/13 Q1020 NOSIG,ZGNN,2019-01-14T03:00:00Z,22.62,108.17,13.0,13.0,60,4,,1.24,30.11811,,,,,,TRUE,,,,BR,FEW,300,SCT,500,OVC,2000,,,IFR,,,,,,,,,,,,METAR,73.0
ZGKL 140300Z 04002MPS 010V110 9999 -RA SCT023 OVC043 09/06 Q1022 NOSIG,ZGKL,2019-01-14T03:00:00Z,25.22,110.03,9.0,6.0,40,4,,6.21,30.177166,,,,,,TRUE,,,,-RA,SCT,2300,OVC,4300,,,,,VFR,,,,,,,,,,,,METAR,166.0
CYQB 140300Z 27006KT 15SM FEW025 M18/M21 A3044 RMK SC2 SLP316,CYQB,2019-01-14T03:00:00Z,46.78,-71.37,-18.0,-21.0,270,6,,15.0,30.43996,1031.6,,,,,,,,,,FEW,2500,,,,,,,VFR,,,,,,,,,,,,SPECI,73.0
CYMX 140300Z 00000KT 25SM BKN020 M15/M17 A3046 RMK SC6 SLP325,CYMX,2019-01-14T03:00:00Z,45.67,-74.02,-15.0,-17.0,0,0,,25.0,30.46063,1032.5,,,,,,,,,,BKN,2000,,,,,,,MVFR,,,,,,,,,,,,SPECI,82.0
CYJT 140300Z 29008KT 15SM OVC017 M05/M09 A3014 RMK SC8 SLP209,CYJT,2019-01-14T03:00:00Z,48.55,-58.57,-5.0,-9.0,290,8,,15.0,30.138779,1020.9,,,,,,,,,,OVC,1700,,,,,,,MVFR,,,,,,,,,,,,SPECI,26.0
CYHZ 140300Z 34003KT 15SM SKC M13/M16 A3031 RMK SLP278,CYHZ,2019-01-14T03:00:00Z,44.87,-63.5,-13.0,-16.0,340,3,,15.0,30.31004,1027.8,,,,,,,,,,SKC,,,,,,,,VFR,,,,,,,,,,,,SPECI,145.0
CYGL 140300Z 20013G20KT 2SM IC -SN DRSN OVC020 M12/M14 A2985 RMK SC8 FROIN SLP132,CYGL,2019-01-14T03:00:00Z,53.62,-77.7,-12.0,-14.0,200,13,20,2.0,29.84941,1013.2,,,,,,,,,IC -SN DRSN,OVC,2000,,,,,,,IFR,,,,,,,,,,,,SPECI,195.0
CYFC 140300Z AUTO 24005KT 9SM CLR M18/M19 A3038 RMK SLP290,CYFC,2019-01-14T03:00:00Z,45.87,-66.52,-18.0,-19.0,240,5,,9.0,30.380905,1029.0,,TRUE,,,,,,,,CLR,,,,,,,,VFR,,,,,,,,,,,,SPECI,20.0
CYFB 140300Z 14021G27KT 1 1/2SM -SN BLSN VV027 M17/M19 A2975 RMK SN8 SLP079,CYFB,2019-01-14T03:00:00Z,63.75,-68.55,-17.0,-19.0,140,21,27,1.5,29.749016,1007.9,,,,,,,,,-SN BLSN,OVX,0,,,,,,,LIFR,,,,,,,,,,,2700,SPECI,34.0
CYBG 140300Z 00000KT 25SM -SN OVC022 M16/M18 A3040 RMK SC8 PCPN VRY LGT WND ESTD SLP313,CYBG,2019-01-14T03:00:00Z,48.33,-70.98,-16.0,-18.0,0,0,,25.0,30.398623,1031.3,,,,,,,,,-SN,OVC,2200,,,,,,,MVFR,,,,,,,,,,,,SPECI,159.0
CYWH 140300Z 03003KT 340V050 15SM SKC 07/05 A3015 RMK SLP211,CYWH,2019-01-14T03:00:00Z,48.42,-123.38,7.0,5.0,30,3,,15.0,30.15059,1021.1,,,,,,,,,,SKC,,,,,,,,VFR,,,,,,,,,,,,METAR,10.0
YCCY 140300Z AUTO 01008KT 9999 // ////// 38/13 Q1008,YCCY,2019-01-14T03:00:00Z,-20.67,140.5,38.0,13.0,10,8,,6.21,29.763779,,,TRUE,,,,,,,,,,,,,,,,,,,,,,,,,,,,METAR,570.0
CYQM 140300Z 22008KT 15SM SKC M16/M18 A3033 RMK SLP278,CYQM,2019-01-14T03:00:00Z,46.12,-64.67,-16.0,-18.0,220,8,,15.0,30.33071,1027.8,,,,,,,,,,SKC,,,,,,,,VFR,,,,,,,,,,,,SPECI,71.0
CYQG 140300Z AUTO 07006KT 9SM CLR M06/M09 A3037 RMK SLP296,CYQG,2019-01-14T03:00:00Z,42.27,-82.97,-6.0,-9.0,70,6,,9.0,30.369095,1029.6,,TRUE,,,,,,,,CLR,,,,,,,,VFR,,,,,,,,,,,,SPECI,190.0
CYQX 140300Z 25014G23KT 15SM FEW016 M08/M12 A2998 RMK SC2 SLP165,CYQX,2019-01-14T03:00:00Z,48.95,-54.58,-8.0,-12.0,250,14,23,15.0,29.97933,1016.5,,,,,,,,,,FEW,1600,,,,,,,VFR,,,,,,,,,,,,SPECI,151.0
CYQQ 140300Z 00000KT 20SM SKC 05/05 A3016 RMK SLP213,CYQQ,2019-01-14T03:00:00Z,49.72,-124.9,5.0,5.0,0,0,,20.0,30.159449,1021.3,,,,,,,,,,SKC,,,,,,,,VFR,,,,,,,,,,,,SPECI,24.0
SBNT 140300Z 15004KT 9999 FEW020 26/23 Q1013,SBNT,2019-01-14T03:00:00Z,-5.92,-35.25,26.0,23.0,150,4,,6.21,29.911417,,,,,,,,,,,FEW,2000,,,,,,,VFR,,,,,,,,,,,,METAR,49.0
SBPV 140300Z 35001KT 9999 FEW015 SCT100 23/22 Q1014,SBPV,2019-01-14T03:00:00Z,-8.72,-63.9,23.0,22.0,350,1,,6.21,29.940945,,,,,,,,,,,FEW,1500,SCT,10000,,,,,VFR,,,,,,,,,,,,METAR,88.0
NFNA 140300Z 06008KT 9999 SCT022 SCT050 32/25 Q1004,NFNA,2019-01-14T03:00:00Z,-18.05,178.57,32.0,25.0,60,8,,6.21,29.64567,,,,,,,,,,,SCT,2200,SCT,5000,,,,,VFR,,,,,,,,,,,,METAR,5.0
HAAB 140300Z 35003KT C A V O K 10/M03 Q1027,HAAB,2019-01-14T03:00:00Z,8.97,38.78,10.0,-3.0,350,3,,6.21,30.324802,,,,,,,,,,,CAVOK,,,,,,,,VFR,,,,,,,,,,,,METAR,2355.0
SBMA 140300Z 31002KT 9999 SCT020 25/23 Q1013,SBMA,2019-01-14T03:00:00Z,-5.37,-49.13,25.0,23.0,310,2,,6.21,29.911417,,,,,,,,,,,SCT,2000,,,,,,,VFR,,,,,,,,,,,,METAR,102.0
SBCF 140300Z 08006KT CAVOK 23/15 Q1020,SBCF,2019-01-14T03:00:00Z,-19.63,-43.97,23.0,15.0,80,6,,6.21,30.11811,,,,,,,,,,,CAVOK,,,,,,,,VFR,,,,,,,,,,,,METAR,828.0
LWSK 140300Z 00000KT 3600 BR FEW100 M12/M13 Q1005 NOSIG,LWSK,2019-01-14T03:00:00Z,41.97,21.63,-12.0,-13.0,0,0,,2.24,29.675198,,,,,,TRUE,,,,BR,FEW,10000,,,,,,,IFR,,,,,,,,,,,,METAR,239.0
MRLB 140300Z 07018KT CAVOK 26/18 A2991 NOSIG,MRLB,2019-01-14T03:00:00Z,10.6,-85.55,26.0,18.0,70,18,,6.21,29.911417,,,,,,TRUE,,,,,CAVOK,,,,,,,,VFR,,,,,,,,,,,,METAR,82.0
SBMO 140300Z 20006KT 5000 -RA BR SCT006 BKN015 25/23 Q1014 RERA,SBMO,2019-01-14T03:00:00Z,-9.52,-35.77,25.0,23.0,200,6,,3.11,29.940945,,,,,,,,,,-RA BR,SCT,600,BKN,1500,,,,,MVFR,,,,,,,,,,,,METAR,115.0
MHTG 140300Z 03008KT 9999 FEW020 BKN026 20/15 Q1022 A3018 NOSIG,MHTG,2019-01-14T03:00:00Z,14.07,-87.22,20.0,15.0,30,8,,6.21,30.177166,,,,,,TRUE,,,,,FEW,2000,BKN,2600,,,,,MVFR,,,,,,,,,,,,METAR,1004.0
MHLM 140300Z 06006KT 3000 -RA FEW024 BKN080 23/22 Q1019 A3009 BECMG 8000 VCSH,MHLM,2019-01-14T03:00:00Z,15.45,-87.93,23.0,22.0,60,6,,1.86,30.088583,,,,,,,,,,-RA,FEW,2400,BKN,8000,,,,,IFR,,,,,,,,,,,,METAR,26.0
MHRO 140300Z 02005KT 9999 FEW020 SCT080 24/22 Q1019 A3009 NOSIG,MHRO,2019-01-14T03:00:00Z,16.32,-86.53,24.0,22.0,20,5,,6.21,30.088583,,,,,,TRUE,,,,,FEW,2000,SCT,8000,,,,,VFR,,,,,,,,,,,,METAR,5.0
ORSU 140300Z 23015KT 4000 RA BKN040 BKN070 10/09 Q1009,ORSU,2019-01-14T03:00:00Z,35.57,45.32,10.0,9.0,230,15,,2.49,29.793306,,,,,,,,,,RA,BKN,4000,BKN,7000,,,,,IFR,,,,,,,,,,,,METAR,761.0
MDLR 140300Z 00000KT 9999 FEW016 22/22 Q1019 NOSIG,MDLR,2019-01-14T03:00:00Z,18.45,-68.92,22.0,22.0,0,0,,6.21,30.088583,,,,,,TRUE,,,,,FEW,1600,,,,,,,VFR,,,,,,,,,,,,METAR,8.0
MDSD 140300Z 07004KT 9999 FEW018 23/21 Q1018,MDSD,2019-01-14T03:00:00Z,18.42,-69.67,23.0,21.0,70,4,,6.21,30.059055,,,,,,,,,,,FEW,1800,,,,,,,VFR,,,,,,,,,,,,METAR,18.0
MDPC 140300Z 10008KT 9999 FEW020 25/20 Q1019 NOSIG,MDPC,2019-01-14T03:00:00Z,18.57,-68.37,25.0,20.0,100,8,,6.21,30.088583,,,,,,TRUE,,,,,FEW,2000,,,,,,,VFR,,,,,,,,,,,,METAR,12.0
MDST 140300Z 17004KT 9999 FEW015 22/22 Q1019,MDST,2019-01-14T03:00:00Z,19.4,-70.6,22.0,22.0,170,4,,6.21,30.088583,,,,,,,,,,,FEW,1500,,,,,,,VFR,,,,,,,,,,,,METAR,184.0
MDPP 140300Z 00000KT 9999 FEW016 21/21 Q1019,MDPP,2019-01-14T03:00:00Z,19.75,-70.57,21.0,21.0,0,0,,6.21,30.088583,,,,,,,,,,,FEW,1600,,,,,,,VFR,,,,,,,,,,,,METAR,5.0
SBEG 140300Z 32004KT 7000 -RA SCT008 BKN080 22/22 Q1015,SBEG,2019-01-14T03:00:00Z,-3.02,-60.03,22.0,22.0,320,4,,4.35,29.970472,,,,,,,,,,-RA,SCT,800,BKN,8000,,,,,MVFR,,,,,,,,,,,,METAR,2.0
SBBR 140300Z VRB01KT CAVOK 22/17 Q1019,SBBR,2019-01-14T03:00:00Z,-15.87,-47.92,22.0,17.0,0,1,,6.21,30.088583,,,,,,,,,,,CAVOK,,,,,,,,VFR,,,,,,,,,,,,METAR,1061.0
BKPR 140300Z VRB01KT 3000 BR FEW010 BKN040 M09/M12 Q1002 NOSIG RMK 17010095,BKPR,2019-01-14T03:00:00Z,42.58,21.03,-9.0,-12.0,0,1,,1.86,29.586615,,,,,,TRUE,,,,BR,FEW,1000,BKN,4000,,,,,IFR,,,,,,,,,,,,SPECI,576.0
MYNN 140300Z VRB02KT 9999 BKN040 20/19 A3017,MYNN,2019-01-14T03:00:00Z,25.03,-77.47,20.0,19.0,0,2,,6.21,30.171259,,,,,,,,,,,BKN,4000,,,,,,,VFR,,,,,,,,,,,,METAR,3.0
SBRF 140300Z 13007KT 9999 SCT018 27/24 Q1013,SBRF,2019-01-14T03:00:00Z,-8.13,-34.92,27.0,24.0,130,7,,6.21,29.911417,,,,,,,,,,,SCT,1800,,,,,,,VFR,,,,,,,,,,,,METAR,19.0
SBSV 140300Z 12007KT 070V150 9999 BKN020 BKN060 27/25 Q1015,SBSV,2019-01-14T03:00:00Z,-12.9,-38.32,27.0,25.0,120,7,,6.21,29.970472,,,,,,,,,,,BKN,2000,BKN,6000,,,,,MVFR,,,,,,,,,,,,METAR,6.0
SVMG 140300Z /////KT 9999 SCT010 27/24 Q1013 NOSIG,SVMG,2019-01-14T03:00:00Z,10.92,-63.97,27.0,24.0,,,,6.21,29.911417,,,,,,TRUE,,,,,SCT,1000,,,,,,,VFR,,,,,,,,,,,,SPECI,23.0
MGHT 140300Z 13006KT CAVOK 14/0080 METAR ,MGHT,2019-01-14T03:00:00Z,15.32,-91.5,,,130,6,,6.21,,,,,,,,,,,,CAVOK,,,,,,,,VFR,,,,,,,,,,,,SPECI,1901.0
MGMM 140300Z 14004KT CAVOK 22/18 Q1021 A3015 BKN090,MGMM,2019-01-14T03:00:00Z,16.97,-89.87,22.0,18.0,140,4,,6.21,30.147638,,,,,,,,,,,BKN,9000,,,,,,,VFR,,,,,,,,,,,,METAR,123.0
MGGT 140300Z 02014KT 9999 FEW015 16/12 Q1029 A3039 FEW070,MGGT,2019-01-14T03:00:00Z,14.57,-90.53,16.0,12.0,20,14,,6.21,30.383858,,,,,,,,,,,FEW,1500,FEW,7000,,,,,VFR,,,,,,,,,,,,METAR,1509.0
SBFZ 140300Z 09003KT 9999 FEW018 26/25 Q1012,SBFZ,2019-01-14T03:00:00Z,-3.77,-38.52,26.0,25.0,90,3,,6.21,29.88189,,,,,,,,,,,FEW,1800,,,,,,,VFR,,,,,,,,,,,,METAR,25.0
SBBV 140300Z 10011KT CAVOK 28/16 Q1013,SBBV,2019-01-14T03:00:00Z,2.85,-60.7,28.0,16.0,100,11,,6.21,29.911417,,,,,,,,,,,CAVOK,,,,,,,,VFR,,,,,,,,,,,,METAR,140.0
SBPS 140300Z 10007KT 9999 SCT020 27/22 Q1016,SBPS,2019-01-14T03:00:00Z,-16.43,-39.07,27.0,22.0,100,7,,6.21,30.0,,,,,,,,,,,SCT,2000,,,,,,,VFR,,,,,,,,,,,,METAR,51.0
FBSK 140300Z 06007KT 9999 FEW035CB 24/20 Q1014 NOSIG,FBSK,2019-01-14T03:00:00Z,-24.55,25.92,24.0,20.0,60,7,,6.21,29.940945,,,,,,TRUE,,,,,FEW,3500,,,,,,,VFR,,,,,,,,,,,,METAR,1005.0
FAUP 140300Z 22003KT CAVOK 20/09 Q1014 NOSIG,FAUP,2019-01-14T03:00:00Z,-28.38,21.27,20.0,9.0,220,3,,6.21,29.940945,,,,,,TRUE,,,,,CAVOK,,,,,,,,VFR,,,,,,,,,,,,METAR,836.0
FAPE 140300Z 22003KT 9000 NSC 17/15 Q1013 NOSIG,FAPE,2019-01-14T03:00:00Z,-33.97,25.6,17.0,15.0,220,3,,5.59,29.911417,,,,,,TRUE,,,,,CLR,,,,,,,,VFR,,,,,,,,,,,,METAR,60.0
UKDR 140300Z 18007MPS 9999 OVC030 M02/M04 Q0998 R18/4950// NOSIG,UKDR,2019-01-14T03:00:00Z,48.05,33.22,-2.0,-4.0,180,14,,6.21,29.468504,,,,,,TRUE,,,,,OVC,3000,,,,,,,MVFR,,,,,,,,,,,,SPECI,124.0
UKLL 140300Z 23006MPS 8000 -SHSNRA SCT015CB BKN015 02/M01 Q0984 R13/550530 NOSIG,UKLL,2019-01-14T03:00:00Z,49.82,23.93,2.0,-1.0,230,12,,4.97,29.055119,,,,,,TRUE,,,,-SHSN -SHRA,SCT,1500,BKN,1500,,,,,MVFR,,,,,,,,,,,,METAR,325.0
UKDD 140300Z 19006MPS 150V230 9999 BKN046 M03/M06 Q1000 R26/820356 NOSIG,UKDD,2019-01-14T03:00:00Z,48.37,35.1,-3.0,-6.0,190,12,,6.21,29.52756,,,,,,TRUE,,,,,BKN,4600,,,,,,,VFR,,,,,,,,,,,,SPECI,149.0
UKOO 140300Z 20006MPS 9999 SCT043 M00/M01 Q0997 R16/190050 NOSIG,UKOO,2019-01-14T03:00:00Z,46.42,30.68,0.0,-1.0,200,12,,6.21,29.438976,,,,,,TRUE,,,,,SCT,4300,,,,,,,VFR,,,,,,,,,,,,METAR,35.0
UKHH 140300Z 20005MPS 9999 OVC032 M03/M06 Q0999 R25/72//50 NOSIG,UKHH,2019-01-14T03:00:00Z,49.92,36.28,-3.0,-6.0,200,10,,6.21,29.498032,,,,,,TRUE,,,,,OVC,3200,,,,,,,VFR,,,,,,,,,,,,SPECI,155.0
UKBB 140300Z 19006MPS 9999 SCT042 M03/M06 Q0992 R18L/491026 R18R/491030 NOSIG,UKBB,2019-01-14T03:00:00Z,50.33,30.9,-3.0,-6.0,190,12,,6.21,29.291338,,,,,,TRUE,,,,,SCT,4200,,,,,,,VFR,,,,,,,,,,,,METAR,119.0
FYWE 140300Z 17005KT CAVOK 21/02 Q1019,FYWE,2019-01-14T03:00:00Z,-22.62,17.08,21.0,2.0,170,5,,6.21,30.088583,,,,,,,,,,,CAVOK,,,,,,,,VFR,,,,,,,,,,,,METAR,1700.0
LKNA 140300Z 28018KT 9999 BKN016 02/00 Q0991 NOSIG RMK WHT WHT,LKNA,2019-01-14T03:00:00Z,49.17,16.12,2.0,0.0,280,18,,6.21,29.26181,,,,,,TRUE,,,,,BKN,1600,,,,,,,MVFR,,,,,,,,,,,,SPECI,472.0
LKPD 140300Z 26015KT 9999 SCT020 BKN050 04/02 Q0991 RMK BLU,LKPD,2019-01-14T03:00:00Z,50.02,15.73,4.0,2.0,260,15,,6.21,29.26181,,,,,,,,,,,SCT,2000,BKN,5000,,,,,VFR,,,,,,,,,,,,SPECI,226.0
LKLN 140300Z AUTO 26009KT 220V290 9999 FEW029 BKN230 04/01 Q0996,LKLN,2019-01-14T03:00:00Z,49.68,13.27,4.0,1.0,260,9,,6.21,29.409449,,,TRUE,,,,,,,,FEW,2900,BKN,23000,,,,,VFR,,,,,,,,,,,,METAR,362.0
LKKB 140300Z 28021G31KT 9999 -SHRA FEW017 BKN033 BKN100 04/M01 Q0993,LKKB,2019-01-14T03:00:00Z,50.12,14.53,4.0,-1.0,280,21,31,6.21,29.320866,,,,,,,,,,-SHRA,FEW,1700,BKN,3300,BKN,10000,,,VFR,,,,,,,,,,,,METAR,286.0
FAOR 140300Z 35010KT CAVOK 21/16 Q1020 NOSIG,FAOR,2019-01-14T03:00:00Z,-26.12,28.22,21.0,16.0,350,10,,6.21,30.11811,,,,,,TRUE,,,,,CAVOK,,,,,,,,VFR,,,,,,,,,,,,METAR,1700.0
FALE 140300Z 19005KT 9999 FEW025 SCT044 23/18 Q1014 NOSIG,FALE,2019-01-14T03:00:00Z,-29.62,31.12,23.0,18.0,190,5,,6.21,29.940945,,,,,,TRUE,,,,,FEW,2500,SCT,4400,,,,,VFR,,,,,,,,,,,,METAR,109.0
FAKN 140300Z AUTO 19003KT //// // ////// 23/22 Q1016,FAKN,2019-01-14T03:00:00Z,-25.38,31.1,23.0,22.0,190,3,,,30.0,,,TRUE,,,,,,,,,,,,,,,,,,,,,,,,,,,,METAR,862.0
FAKM 140300Z 00000KT CAVOK 20/02 Q1014,FAKM,2019-01-14T03:00:00Z,-28.8,24.77,20.0,2.0,0,0,,6.21,29.940945,,,,,,,,,,,CAVOK,,,,,,,,VFR,,,,,,,,,,,,METAR,1192.0
FAHS 140300Z AUTO 17005KT //// // ////// 26/24 Q1012,FAHS,2019-01-14T03:00:00Z,-24.37,31.02,26.0,24.0,170,5,,,29.88189,,,TRUE,,,,,,,,,,,,,,,,,,,,,,,,,,,,METAR,500.0
FAGG 140300Z 02002KT 9999 BKN030 16/15 Q1013,FAGG,2019-01-14T03:00:00Z,-34.0,22.37,16.0,15.0,20,2,,6.21,29.911417,,,,,,,,,,,BKN,3000,,,,,,,MVFR,,,,,,,,,,,,METAR,193.0
FAEL 140300Z 26004KT CAVOK 19/13 Q1014,FAEL,2019-01-14T03:00:00Z,-33.02,27.82,19.0,13.0,260,4,,6.21,29.940945,,,,,,,,,,,CAVOK,,,,,,,,VFR,,,,,,,,,,,,METAR,125.0
FACT 140300Z VRB03KT CAVOK 14/13 Q1013 NOSIG,FACT,2019-01-14T03:00:00Z,-33.97,18.6,14.0,13.0,0,3,,6.21,29.911417,,,,,,TRUE,,,,,CAVOK,,,,,,,,VFR,,,,,,,,,,,,METAR,42.0
FAUT 140300Z 12004KT 9999 BKN020 18/13 Q1016,FAUT,2019-01-14T03:00:00Z,-31.52,28.67,18.0,13.0,120,4,,6.21,30.0,,,,,,,,,,,BKN,2000,,,,,,,MVFR,,,,,,,,,,,,METAR,732.0
FAMM 140300Z 03006KT CAVOK 20/14 Q1015 NOSIG,FAMM,2019-01-14T03:00:00Z,-25.8,25.52,20.0,14.0,30,6,,6.21,29.970472,,,,,,TRUE,,,,,CAVOK,,,,,,,,VFR,,,,,,,,,,,,METAR,1277.0
ZYTX 140300Z 19002MPS 2500 FU NSC M04/M10 Q1025 BECMG TL0430 3000,ZYTX,2019-01-14T03:00:00Z,41.63,123.48,-4.0,-10.0,190,4,,1.55,30.265747,,,,,,,,,,FU,CLR,,,,,,,,IFR,,,,,,,,,,,,SPECI,35.0
ZYTL 140300Z VRB01MPS CAVOK 01/M12 Q1027 NOSIG,ZYTL,2019-01-14T03:00:00Z,38.97,121.53,1.0,-12.0,0,2,,6.21,30.324802,,,,,,TRUE,,,,,CAVOK,,,,,,,,VFR,,,,,,,,,,,,METAR,97.0
ZWWW 140300Z 29001MPS 0800 R25/1200U -SN FZFG BKN007 M17/M20 Q1035 BECMG TL0450 NSW,ZWWW,2019-01-14T03:00:00Z,43.88,87.47,-17.0,-20.0,290,2,,0.5,30.561024,,,,,,,,,,FZFG -SN,BKN,700,,,,,,,LIFR,,,,,,,,,,,,SPECI,654.0
ZWSH 140300Z 31004MPS 5000 FU NSC M10/M14 Q1031 NOSIG,ZWSH,2019-01-14T03:00:00Z,39.55,76.02,-10.0,-14.0,310,8,,3.11,30.442913,,,,,,TRUE,,,,FU,CLR,,,,,,,,MVFR,,,,,,,,,,,,METAR,1380.0
ZSSS 140300Z 06003MPS 020V100 6000 NSC 10/04 Q1026 NOSIG,ZSSS,2019-01-14T03:00:00Z,31.2,121.33,10.0,4.0,60,6,,3.73,30.295275,,,,,,TRUE,,,,,CLR,,,,,,,,MVFR,,,,,,,,,,,,METAR,7.0
ZSPD 140300Z 03005MPS 360V060 7000 NSC 10/05 Q1026 NOSIG,ZSPD,2019-01-14T03:00:00Z,31.15,121.8,10.0,5.0,30,10,,4.35,30.295275,,,,,,TRUE,,,,,CLR,,,,,,,,MVFR,,,,,,,,,,,,METAR,4.0
ZSHC 140300Z 08002MPS 050V110 3000 BR SCT011 BKN026 08/04 Q1026 NOSIG,ZSHC,2019-01-14T03:00:00Z,30.22,120.43,8.0,4.0,80,4,,1.86,30.295275,,,,,,TRUE,,,,BR,SCT,1100,BKN,2600,,,,,IFR,,,,,,,,,,,,METAR,43.0
ZGGG 140300Z 02003MPS 8000 BKN036 19/13 Q1020 NOSIG,ZGGG,2019-01-14T03:00:00Z,23.4,113.3,19.0,13.0,20,6,,4.97,30.11811,,,,,,TRUE,,,,,BKN,3600,,,,,,,MVFR,,,,,,,,,,,,METAR,15.0
ZBYN 140300Z VRB01MPS 8000 NSC M00/M14 Q1026 NOSIG,ZBYN,2019-01-14T03:00:00Z,37.77,112.63,0.0,-14.0,0,2,,4.97,30.295275,,,,,,TRUE,,,,,CLR,,,,,,,,MVFR,,,,,,,,,,,,METAR,779.0
ZBTJ 140300Z 21002MPS 1800 HZ NSC 03/M06 Q1028 BECMG TL0430 3000,ZBTJ,2019-01-14T03:00:00Z,39.12,117.35,3.0,-6.0,210,4,,1.12,30.35433,,,,,,,,,,HZ,CLR,,,,,,,,IFR,,,,,,,,,,,,SPECI,3.0
ZBSJ 140300Z 17002MPS 130V200 0800 R15/1000N FZFG NSC M00/M03 Q1028 NOSIG,ZBSJ,2019-01-14T03:00:00Z,38.28,114.7,0.0,-3.0,170,4,,0.5,30.35433,,,,,,TRUE,,,,FZFG,CLR,,,,,,,,LIFR,,,,,,,,,,,,METAR,71.0
ZBAA 140300Z VRB01MPS 7000 NSC M01/M11 Q1028 NOSIG,ZBAA,2019-01-14T03:00:00Z,40.07,116.58,-1.0,-11.0,0,2,,4.35,30.35433,,,,,,TRUE,,,,,CLR,,,,,,,,MVFR,,,,,,,,,,,,METAR,30.0
VAAH 140300Z 05006KT 2500 FU NSC 15/06 Q1019 NOSIG,VAAH,2019-01-14T03:00:00Z,23.07,72.62,15.0,6.0,50,6,,1.55,30.088583,,,,,,TRUE,,,,FU,CLR,,,,,,,,IFR,,,,,,,,,,,,METAR,55.0
OERK 140300Z 17005KT CAVOK 14/M03 Q1016 NOSIG,OERK,2019-01-14T03:00:00Z,24.95,46.72,14.0,-3.0,170,5,,6.21,30.0,,,,,,TRUE,,,,,CAVOK,,,,,,,,VFR,,,,,,,,,,,,METAR,612.0
OEDR 140300Z 14006KT 6000 NSC 17/15 Q1015 NOSIG,OEDR,2019-01-14T03:00:00Z,26.27,50.17,17.0,15.0,140,6,,3.73,29.970472,,,,,,TRUE,,,,,CLR,,,,,,,,MVFR,,,,,,,,,,,,METAR,17.0
LEAB 140300Z 25003KT CAVOK 01/M02 Q1024 NOSIG,LEAB,2019-01-14T03:00:00Z,38.95,-1.85,1.0,-2.0,250,3,,6.21,30.236221,,,,,,TRUE,,,,,CAVOK,,,,,,,,VFR,,,,,,,,,,,,METAR,704.0
LETO 140300Z 35004KT CAVOK M01/M02 Q1025 NOSIG,LETO,2019-01-14T03:00:00Z,40.47,-3.47,-1.0,-2.0,350,4,,6.21,30.265747,,,,,,TRUE,,,,,CAVOK,,,,,,,,VFR,,,,,,,,,,,,METAR,608.0
LERT 140300Z 03005KT CAVOK 05/02 Q1025 NOSIG,LERT,2019-01-14T03:00:00Z,36.63,-6.33,5.0,2.0,30,5,,6.21,30.265747,,,,,,TRUE,,,,,CAVOK,,,,,,,,VFR,,,,,,,,,,,,METAR,26.0
LESB 140300Z AUTO 28009KT 240V310 CAVOK 13/07 Q1019,LESB,2019-01-14T03:00:00Z,39.6,2.7,13.0,7.0,280,9,,6.21,30.088583,,,TRUE,,,,,,,,CAVOK,,,,,,,,VFR,,,,,,,,,,,,METAR,48.0
LELL 140300Z AUTO 28009KT CAVOK 11/05 Q1017,LELL,2019-01-14T03:00:00Z,41.52,2.1,11.0,5.0,280,9,,6.21,30.029528,,,TRUE,,,,,,,,CAVOK,,,,,,,,VFR,,,,,,,,,,,,METAR,250.0
LETU 140300Z AUTO 29011KT 9999 NCD 07/03 Q1026,LETU,2019-01-14T03:00:00Z,,,7.0,3.0,290,11,,6.21,30.295275,,,TRUE,,,,,,,,CLR,,,,,,,,VFR,,,,,,,,,,,,METAR,
LEBR 140300Z AUTO 29011KT 280V030 9999 NCD 07/03 Q1025,LEBR,2019-01-14T03:00:00Z,42.2,-1.43,7.0,3.0,290,11,,6.21,30.265747,,,TRUE,,,,,,,,CLR,,,,,,,,VFR,,,,,,,,,,,,METAR,295.0
LELO 140300Z AUTO 28011KT 9999 VV002 06/03 Q1027,LELO,2019-01-14T03:00:00Z,42.45,-2.32,6.0,3.0,280,11,,6.21,30.324802,,,TRUE,,,,,,,,OVX,0,,,,,,,LIFR,,,,,,,,,,,200,METAR,363.0
LEBT 140300Z AUTO VRB02KT 9999 NCD 04/01 Q1020,LEBT,2019-01-14T03:00:00Z,39.58,-0.45,4.0,1.0,0,2,,6.21,30.11811,,,TRUE,,,,,,,,CLR,,,,,,,,VFR,,,,,,,,,,,,METAR,50.0
LEHC 140300Z AUTO 24010KT 210V270 9999 NCD 07/03 Q1020,LEHC,2019-01-14T03:00:00Z,42.08,-0.32,7.0,3.0,240,10,,6.21,30.11811,,,TRUE,,,,,,,,CLR,,,,,,,,VFR,,,,,,,,,,,,METAR,539.0
LEBA 140300Z AUTO 24001KT 9999 NCD M02/M03 Q1026,LEBA,2019-01-14T03:00:00Z,37.85,-4.82,-2.0,-3.0,240,1,,6.21,30.295275,,,TRUE,,,,,,,,CLR,,,,,,,,VFR,,,,,,,,,,,,METAR,92.0
OIMB 140300Z 09014KT CAVOK 07/M12 Q1018,OIMB,2019-01-14T03:00:00Z,32.9,59.28,7.0,-12.0,90,14,,6.21,30.059055,,,,,,,,,,,CAVOK,,,,,,,,VFR,,,,,,,,,,,,METAR,1491.0
RKNY 140300Z 08005KT 040V100 8000 NSC 08/M07 Q1023 NOSIG,RKNY,2019-01-14T03:00:00Z,38.07,128.67,8.0,-7.0,80,5,,4.97,30.206694,,,,,,TRUE,,,,,CLR,,,,,,,,MVFR,,,,,,,,,,,,METAR,74.0
RKJB 140300Z 34006KT 310V020 3200 HZ NSC 06/00 Q1027 NOSIG,RKJB,2019-01-14T03:00:00Z,34.98,126.38,6.0,0.0,340,6,,1.99,30.324802,,,,,,TRUE,,,,HZ,CLR,,,,,,,,IFR,,,,,,,,,,,,METAR,2.0
RKTN 140300Z 31004KT 4800 HZ NSC 05/M04 Q1026,RKTN,2019-01-14T03:00:00Z,35.88,128.65,5.0,-4.0,310,4,,2.98,30.295275,,,,,,,,,,HZ,CLR,,,,,,,,IFR,,,,,,,,,,,,METAR,35.0
RKTU 140300Z 30001KT 2800 BR FEW000 FEW015 SCT200 02/M02 Q1028,RKTU,2019-01-14T03:00:00Z,36.7,127.5,2.0,-2.0,300,1,,1.74,30.35433,,,,,,,,,,BR,FEW,0,FEW,1500,SCT,20000,,,IFR,,,,,,,,,,,,METAR,66.0
RKPK 140300Z 34006KT 8000 NSC 08/M05 Q1025,RKPK,2019-01-14T03:00:00Z,35.17,128.92,8.0,-5.0,340,6,,4.97,30.265747,,,,,,,,,,,CLR,,,,,,,,MVFR,,,,,,,,,,,,METAR,15.0
RKPC 140300Z 36005KT 280V040 6000 FEW025 08/01 Q1026 NOSIG,RKPC,2019-01-14T03:00:00Z,33.5,126.48,8.0,1.0,360,5,,3.73,30.295275,,,,,,TRUE,,,,,FEW,2500,,,,,,,MVFR,,,,,,,,,,,,METAR,27.0
CYCD 140300Z VRB02KT 10SM MIFG SKC 03/03 A3015 RMK LCL FU SLP214,CYCD,2019-01-14T03:00:00Z,49.05,-123.87,3.0,3.0,0,2,,10.0,30.15059,1021.4,,,,,,,,,MIFG,SKC,,,,,,,,VFR,,,,,,,,,,,,METAR,30.0
CBBC 140300Z AUTO 20003KT 120V210 9SM OVC065 07/06 A3012 RMK SLP204,CBBC,2019-01-14T03:00:00Z,52.18,-128.15,7.0,6.0,200,3,,9.0,30.121063,1020.4,,TRUE,,,,,,,,OVC,6500,,,,,,,VFR,,,,,,,,,,,,METAR,43.0
CYZT 140300Z 27004KT 20SM SKC 05/04 A3011 RMK SLP200,CYZT,2019-01-14T03:00:00Z,50.67,-127.37,5.0,4.0,270,4,,20.0,30.109253,1020.0,,,,,,,,,,SKC,,,,,,,,VFR,,,,,,,,,,,,METAR,22.0
CYZP 140300Z AUTO 15014KT FEW065 OVC086 08/07 A3002 RMK WX MISG VIS MISG PCPN MISG SLP168,CYZP,2019-01-14T03:00:00Z,53.25,-131.82,8.0,7.0,150,14,,,30.02067,1016.8,,TRUE,,,,,,,,FEW,6500,OVC,8600,,,,,,,,,,,,,,,,,METAR,6.0
CYXS 140300Z AUTO VRB02KT 9SM CLR M02/M03 A3018 RMK SLP254,CYXS,2019-01-14T03:00:00Z,53.9,-122.68,-2.0,-3.0,0,2,,9.0,30.180119,1025.4,,TRUE,,,,,,,,CLR,,,,,,,,VFR,,,,,,,,,,,,METAR,691.0
CYXE 140300Z 06004KT 15SM -FZRA OVC041 M05/M07 A3024 RMK SC8 SLP283,CYXE,2019-01-14T03:00:00Z,52.17,-106.7,-5.0,-7.0,60,4,,15.0,30.239174,1028.3,,,,,,,,,-FZRA,OVC,4100,,,,,,,VFR,,,,,,,,,,,,METAR,504.0
CYXC 140300Z 34003KT 330V050 15SM FEW010 OVC015 M03/M06 A3038 RMK SF1SC7 SLP333,CYXC,2019-01-14T03:00:00Z,49.6,-115.77,-3.0,-6.0,340,3,,15.0,30.380905,1033.3,,,,,,,,,,FEW,1000,OVC,1500,,,,,MVFR,,,,,,,,,,,,METAR,939.0
CYVL 140300Z AUTO 09004KT 9SM CLR M31/M34 A3032 RMK SLP323,CYVL,2019-01-14T03:00:00Z,67.02,-126.13,-31.0,-34.0,90,4,,9.0,30.318897,1032.3,,TRUE,,,,,,,,CLR,,,,,,,,VFR,,,,,,,,,,,,METAR,259.0
CYRV 140300Z AUTO 32002KT 9SM OVC024 M02/M04 A3041 RMK SLP324,CYRV,2019-01-14T03:00:00Z,50.97,-118.17,-2.0,-4.0,320,2,,9.0,30.410433,1032.4,,TRUE,,,,,,,,OVC,2400,,,,,,,MVFR,,,,,,,,,,,,METAR,443.0
CYQZ 140300Z AUTO 00000KT 9SM CLR M04/M04 A3021 RMK SLP264,CYQZ,2019-01-14T03:00:00Z,53.02,-122.52,-4.0,-4.0,0,0,,9.0,30.209646,1026.4,,TRUE,,,,,,,,CLR,,,,,,,,VFR,,,,,,,,,,,,METAR,545.0
CYQD 140300Z AUTO 33007KT 9SM OVC010 M08/M10 A3031 RMK SLP289,CYQD,2019-01-14T03:00:00Z,53.97,-101.08,-8.0,-10.0,330,7,,9.0,30.31004,1028.9,,TRUE,,,,,,,,OVC,1000,,,,,,,MVFR,,,,,,,,,,,,METAR,271.0
CYPR 140300Z AUTO 14005KT 9SM OVC130 08/04 A3008 RMK SLP187,CYPR,2019-01-14T03:00:00Z,54.28,-130.42,8.0,4.0,140,5,,9.0,30.079725,1018.7,,TRUE,,,,,,,,OVC,13000,,,,,,,VFR,,,,,,,,,,,,METAR,34.0
CYKY 140300Z VRB06KT 15SM SKC M07/M08 A3016 RMK SLP266,CYKY,2019-01-14T03:00:00Z,51.52,-109.17,-7.0,-8.0,0,6,,15.0,30.159449,1026.6,,,,,,,,,,SKC,,,,,,,,VFR,,,,,,,,,,,,METAR,694.0
CYIV 140300Z 30012KT 10SM -SN DRSN OVC012 M08/M11 A3018 RMK SC8 SLP240,CYIV,2019-01-14T03:00:00Z,53.85,-94.65,-8.0,-11.0,300,12,,10.0,30.180119,1024.0,,,,,,,,,-SN DRSN,OVC,1200,,,,,,,MVFR,,,,,,,,,,,,METAR,237.0
CYHE 140300Z AUTO 09009G18KT 9SM CLR 05/01 A3024 RMK SLP242,CYHE,2019-01-14T03:00:00Z,49.37,-121.5,5.0,1.0,90,9,18,9.0,30.239174,1024.2,,TRUE,,,,,,,,CLR,,,,,,,,VFR,,,,,,,,,,,,METAR,39.0
CYEV 140300Z 08010KT 15SM FEW110 M30/M34 A3032 RMK AC1 SLP281,CYEV,2019-01-14T03:00:00Z,68.32,-133.5,-30.0,-34.0,80,10,,15.0,30.318897,1028.1,,,,,,,,,,FEW,11000,,,,,,,VFR,,,,,,,,,,,,METAR,68.0
CYDB 140300Z AUTO 00000KT 9SM BKN180 BKN200 M24/M27 A2992 RMK SLP230,CYDB,2019-01-14T03:00:00Z,61.37,-139.05,-24.0,-27.0,0,0,,9.0,29.920275,1023.0,,TRUE,,,,,,,,BKN,18000,BKN,20000,,,,,VFR,,,,,,,,,,,,METAR,801.0
CYBL 140300Z 27002KT 15SM SCT270 03/02 A3015 RMK CI3 SLP214,CYBL,2019-01-14T03:00:00Z,49.95,-125.27,3.0,2.0,270,2,,15.0,30.15059,1021.4,,,,,,,,,,SCT,27000,,,,,,,VFR,,,,,,,,,,,,METAR,106.0
CYZX 140300Z 25004KT 15SM BKN026 M09/M12 A3037 RMK SC5 SLP288,CYZX,2019-01-14T03:00:00Z,44.98,-64.92,-9.0,-12.0,250,4,,15.0,30.369095,1028.8,,,,,,,,,,BKN,2600,,,,,,,MVFR,,,,,,,,,,,,SPECI,28.0
CYZV 140300Z 29005KT 15SM SKC M19/M22 A3026 RMK SLP254,CYZV,2019-01-14T03:00:00Z,50.22,-66.27,-19.0,-22.0,290,5,,15.0,30.259842,1025.4,,,,,,,,,,SKC,,,,,,,,VFR,,,,,,,,,,,,SPECI,55.0
CYZF 140300Z 04005KT 15SM SKC M34/M37 A3048 RMK SLP361,CYZF,2019-01-14T03:00:00Z,62.47,-114.45,-34.0,-37.0,40,5,,15.0,30.481298,1036.1,,,,,,,,,,SKC,,,,,,,,VFR,,,,,,,,,,,,SPECI,206.0
CYYZ 140300Z 03006KT 15SM BKN020 M08/M13 A3039 RMK SC6 SLP306,CYYZ,2019-01-14T03:00:00Z,43.67,-79.62,-8.0,-13.0,30,6,,15.0,30.389763,1030.6,,,,,,,,,,BKN,2000,,,,,,,MVFR,,,,,,,,,,,,SPECI,173.0
CYYT 140300Z 27014KT 15SM OVC024 M04/M08 A3004 RMK SC8 SLP182,CYYT,2019-01-14T03:00:00Z,47.62,-52.72,-4.0,-8.0,270,14,,15.0,30.041338,1018.2,,,,,,,,,,OVC,2400,,,,,,,MVFR,,,,,,,,,,,,SPECI,140.0
CYYR 140300Z 24008KT 15SM SKC M19/M23 A3006 RMK AURBO SLP185,CYYR,2019-01-14T03:00:00Z,53.32,-60.42,-19.0,-23.0,240,8,,15.0,30.059055,1018.5,,,,,,,,,,SKC,,,,,,,,VFR,,,,,,,,,,,,SPECI,49.0
CYYJ 140300Z 27004KT 30SM FEW250 03/02 A3015 RMK CI2 SLP211,CYYJ,2019-01-14T03:00:00Z,48.63,-123.42,3.0,2.0,270,4,,30.0,30.15059,1021.1,,,,,,,,,,FEW,25000,,,,,,,VFR,,,,,,,,,,,,SPECI,19.0
CYYC 140300Z 00000KT 15SM FEW190 SCT210 01/M11 A3018 RMK AS1CI2 SLP274,CYYC,2019-01-14T03:00:00Z,51.12,-114.02,1.0,-11.0,0,0,,15.0,30.180119,1027.4,,,,,,,,,,FEW,19000,SCT,21000,,,,,VFR,,,,,,,,,,,,SPECI,1084.0
CYXX 140300Z 30002KT 15SM SKC 03/01 A3014 RMK SLP210,CYXX,2019-01-14T03:00:00Z,49.03,-122.38,3.0,1.0,300,2,,15.0,30.138779,1021.0,,,,,,,,,,SKC,,,,,,,,VFR,,,,,,,,,,,,SPECI,58.0
CYWG 140300Z 32007KT 11SM BKN100 M07/M09 A3022 RMK AC7 INTMT -SM SLP251,CYWG,2019-01-14T03:00:00Z,49.88,-97.22,-7.0,-9.0,320,7,,11.0,30.221457,1025.1,,,,,,,,,,BKN,10000,,,,,,,VFR,,,,,,,,,,,,SPECI,239.0
CYVR 140300Z 32002KT 20SM MIFG SKC 05/05 A3014 RMK SLP209,CYVR,2019-01-14T03:00:00Z,49.17,-123.17,5.0,5.0,320,2,,20.0,30.138779,1020.9,,,,,,,,,MIFG,SKC,,,,,,,,VFR,,,,,,,,,,,,SPECI,2.0
CYUL 140300Z VRB03KT 15SM FEW024 FEW060 M13/M16 A3047 RMK SC1SC1 SC TR SC TR SLP324,CYUL,2019-01-14T03:00:00Z,45.47,-73.73,-13.0,-16.0,0,3,,15.0,30.469488,1032.4,,,,,,,,,,FEW,2400,FEW,6000,,,,,VFR,,,,,,,,,,,,SPECI,36.0
CYTR 140300Z 04005KT 15SM SKC M13/M17 A3045 RMK SLP321,CYTR,2019-01-14T03:00:00Z,44.12,-77.52,-13.0,-17.0,40,5,,15.0,30.448818,1032.1,,,,,,,,,,SKC,,,,,,,,VFR,,,,,,,,,,,,SPECI,86.0
CYQY 140300Z 25008KT 15SM -SN OVC024 M09/M11 A3025 RMK SC8 SLP251,CYQY,2019-01-14T03:00:00Z,46.17,-60.03,-9.0,-11.0,250,8,,15.0,30.250984,1025.1,,,,,,,,,-SN,OVC,2400,,,,,,,MVFR,,,,,,,,,,,,SPECI,62.0
SCEL 140300Z 15008KT 110V170 9999 SCT180 SCT250 17/11 Q1016NOSIG,SCEL,2019-01-14T03:00:00Z,-33.37,-70.77,17.0,11.0,150,8,,6.21,,,,,,,TRUE,,,,,SCT,18000,SCT,25000,,,,,VFR,,,,,,,,,,,,METAR,476.0
CYBW 140300Z AUTO 33006KT 9SM CLR M05/M11 A3019 RMK SLP287,CYBW,2019-01-14T03:00:00Z,51.1,-114.37,-5.0,-11.0,330,6,,9.0,30.188976,1028.7,,TRUE,,,,,,,,CLR,,,,,,,,VFR,,,,,,,,,,,,METAR,1200.0
CWRF 140300Z AUTO 02014KT M37/ A2994 RMK SLP203,CWRF,2019-01-14T03:00:00Z,69.42,-89.72,-37.0,,20,14,,,29.940945,1020.3,,TRUE,,,,,,,,,,,,,,,,,,,,,,,,,,,,METAR,325.0
CYYN 140300Z AUTO 15005KT 9SM OVC190 M03/M06 A3014 RMK SLP247,CYYN,2019-01-14T03:00:00Z,50.27,-107.67,-3.0,-6.0,150,5,,9.0,30.138779,1024.7,,TRUE,,,,,,,,OVC,19000,,,,,,,VFR,,,,,,,,,,,,METAR,818.0
CYYL 140300Z AUTO 32007KT 9SM CLR M23/M25 A3031 RMK SLP307,CYYL,2019-01-14T03:00:00Z,56.87,-101.07,-23.0,-25.0,320,7,,9.0,30.31004,1030.7,,TRUE,,,,,,,,CLR,,,,,,,,VFR,,,,,,,,,,,,METAR,357.0
CYVC 140300Z 04011KT 15SM OVC009 M11/M12 A3033 RMK SC8 SLP307,CYVC,2019-01-14T03:00:00Z,55.15,-105.27,-11.0,-12.0,40,11,,15.0,30.33071,1030.7,,,,,,,,,,OVC,900,,,,,,,IFR,,,,,,,,,,,,METAR,379.0
CYQW 140300Z AUTO 14007KT 8SM SCT080 BKN094 M06/M09 A3022 RMK SLP279,CYQW,2019-01-14T03:00:00Z,52.77,-108.25,-6.0,-9.0,140,7,,8.0,30.221457,1027.9,,TRUE,,,,,,,,SCT,8000,BKN,9400,,,,,VFR,,,,,,,,,,,,METAR,548.0
CYQR 140300Z 04003KT 12SM OVC067 M05/M08 A3020 RMK AC8 SLP273,CYQR,2019-01-14T03:00:00Z,50.43,-104.67,-5.0,-8.0,40,3,,12.0,30.200787,1027.3,,,,,,,,,,OVC,6700,,,,,,,VFR,,,,,,,,,,,,METAR,577.0
CYQL 140300Z 29006KT 25SM SKC M03/M10 A3019 RMK SLP271,CYQL,2019-01-14T03:00:00Z,49.63,-112.8,-3.0,-10.0,290,6,,25.0,30.188976,1027.1,,,,,,,,,,SKC,,,,,,,,VFR,,,,,,,,,,,,METAR,929.0
CYQF 140300Z 27004KT 15SM SKC M07/M11 A3018 RMK SLP283,CYQF,2019-01-14T03:00:00Z,52.17,-113.9,-7.0,-11.0,270,4,,15.0,30.180119,1028.3,,,,,,,,,,SKC,,,,,,,,VFR,,,,,,,,,,,,METAR,905.0
CYPY 140300Z AUTO 07005KT 9SM OVC110 M23/M26 A3042 RMK SLP334,CYPY,2019-01-14T03:00:00Z,58.77,-111.12,-23.0,-26.0,70,5,,9.0,30.41929,1033.4,,TRUE,,,,,,,,OVC,11000,,,,,,,VFR,,,,,,,,,,,,METAR,232.0
CYPA 140300Z 07003KT 12SM -SN OVC052 M05/M06 A3027 RMK SC8 SLP286,CYPA,2019-01-14T03:00:00Z,53.22,-105.67,-5.0,-6.0,70,3,,12.0,30.268702,1028.6,,,,,,,,,-SN,OVC,5200,,,,,,,VFR,,,,,,,,,,,,METAR,428.0
CYOJ 140300Z 14008KT 10SM -SN BKN025 OVC036 M17/M20 A3026 RMK SC6SC2 SLP289,CYOJ,2019-01-14T03:00:00Z,58.62,-117.17,-17.0,-20.0,140,8,,10.0,30.259842,1028.9,,,,,,,,,-SN,BKN,2500,OVC,3600,,,,,MVFR,,,,,,,,,,,,METAR,338.0
CYNE 140300Z AUTO 32007KT 9SM CLR M10/M12 A3026 RMK SLP268,CYNE,2019-01-14T03:00:00Z,53.97,-97.82,-10.0,-12.0,320,7,,9.0,30.259842,1026.8,,TRUE,,,,,,,,CLR,,,,,,,,VFR,,,,,,,,,,,,METAR,223.0
CYMM 140300Z AUTO 33003KT 9SM OVC013 M15/M18 A3032 RMK SLP306,CYMM,2019-01-14T03:00:00Z,56.65,-111.22,-15.0,-18.0,330,3,,9.0,30.318897,1030.6,,TRUE,,,,,,,,OVC,1300,,,,,,,MVFR,,,,,,,,,,,,METAR,369.0
CYLL 140300Z 36006KT 15SM FEW250 M08/M08 A3019 RMK CI2 SLP274,CYLL,2019-01-14T03:00:00Z,53.32,-110.07,-8.0,-8.0,360,6,,15.0,30.188976,1027.4,,,,,,,,,,FEW,25000,,,,,,,VFR,,,,,,,,,,,,METAR,669.0
CYKJ 140300Z AUTO 30003KT 9SM BKN140 M22/M25 A3031 RMK SLP322,CYKJ,2019-01-14T03:00:00Z,57.25,-105.62,-22.0,-25.0,300,3,,9.0,30.31004,1032.2,,TRUE,,,,,,,,BKN,14000,,,,,,,VFR,,,,,,,,,,,,METAR,509.0
CYGX 140300Z 32014G21KT 15SM SKC M19/M24 A3020 RMK SLP245,CYGX,2019-01-14T03:00:00Z,56.35,-94.7,-19.0,-24.0,320,14,21,15.0,30.200787,1024.5,,,,,,,,,,SKC,,,,,,,,VFR,,,,,,,,,,,,METAR,145.0
CYET 140300Z AUTO 28005KT 9SM BKN190 BKN210 M06/M06 A3016 RMK SLP275,CYET,2019-01-14T03:00:00Z,53.57,-116.47,-6.0,-6.0,280,5,,9.0,30.159449,1027.5,,TRUE,,,,,,,,BKN,19000,BKN,21000,,,,,VFR,,,,,,,,,,,,METAR,925.0
CYEN 140300Z AUTO 34003KT 7SM FEW200 M11/M13 A3019 RMK SLP270,CYEN,2019-01-14T03:00:00Z,49.22,-102.97,-11.0,-13.0,340,3,,7.0,30.188976,1027.0,,TRUE,,,,,,,,FEW,20000,,,,,,,VFR,,,,,,,,,,,,METAR,581.0
CYDN 140300Z AUTO VRB02KT 9SM OVC090 M07/M08 A3025 RMK SLP269,CYDN,2019-01-14T03:00:00Z,51.1,-100.03,-7.0,-8.0,0,2,,9.0,30.250984,1026.9,,TRUE,,,,,,,,OVC,9000,,,,,,,VFR,,,,,,,,,,,,METAR,305.0
CYBU 140300Z AUTO 01006KT 9SM OVC070 M08/M09 A3030 RMK SLP294,CYBU,2019-01-14T03:00:00Z,53.32,-104.0,-8.0,-9.0,10,6,,9.0,30.301182,1029.4,,TRUE,,,,,,,,OVC,7000,,,,,,,VFR,,,,,,,,,,,,METAR,374.0
CYBQ 140300Z AUTO 31013G19KT 9SM CLR M27/M31 A3024 RMK SLP280,CYBQ,2019-01-14T03:00:00Z,58.7,-98.5,-27.0,-31.0,310,13,19,9.0,30.239174,1028.0,,TRUE,,,,,,,,CLR,,,,,,,,VFR,,,,,,,,,,,,METAR,262.0
CYBK 140300Z 33034G40KT 1/4SM IC +BLSN SKC M30/M33 A3016 RMK BLSN7 SLP218,CYBK,2019-01-14T03:00:00Z,64.28,-96.07,-30.0,-33.0,330,34,40,0.25,30.159449,1021.8,,,,,,,,,IC +BLSN,SKC,,,,,,,,LIFR,,,,,,,,,,,,METAR,18.0
CWHN 140300Z AUTO 06003KT 030V100 9SM OVC009 OVC020 M06/M09 A3022 RMK SLP276,CWHN,2019-01-14T03:00:00Z,54.88,-109.97,-6.0,-9.0,60,3,,9.0,30.221457,1027.6,,TRUE,,,,,,,,OVC,900,OVC,2000,,,,,IFR,,,,,,,,,,,,METAR,636.0
CYZY 140300Z AUTO 15005KT 9SM FEW180 M00/M01 A3017 RMK SLP254,CYZY,2019-01-14T03:00:00Z,55.28,-123.12,0.0,-1.0,150,5,,9.0,30.171259,1025.4,,TRUE,,,,,,,,FEW,18000,,,,,,,VFR,,,,,,,,,,,,SPECI,690.0
CYYF 140300Z 18002KT 15SM OVC011 01/M01 A3037 RMK SC8 SLP301,CYYF,2019-01-14T03:00:00Z,49.47,-119.58,1.0,-1.0,180,2,,15.0,30.369095,1030.1,,,,,,,,,,OVC,1100,,,,,,,MVFR,,,,,,,,,,,,METAR,344.0
CYYE 140300Z 32002KT 15SM BKN009 BKN120 M22/M25 A3022 RMK SC5AS2 SLP281,CYYE,2019-01-14T03:00:00Z,58.82,-122.57,-22.0,-25.0,320,2,,15.0,30.221457,1028.1,,,,,,,,,,BKN,900,BKN,12000,,,,,IFR,,,,,,,,,,,,METAR,382.0
CYYD 140300Z 14003KT 3SM BR SCT003 OVC007 01/01 A3016 RMK SF4SF4 SLP236,CYYD,2019-01-14T03:00:00Z,54.82,-127.18,1.0,1.0,140,3,,3.0,30.159449,1023.6,,,,,,,,,BR,SCT,300,OVC,700,,,,,IFR,,,,,,,,,,,,METAR,523.0
CYXY 140300Z VRB02KT 15SM FEW013 M20/M23 A2999 RMK ST1 SLP231,CYXY,2019-01-14T03:00:00Z,60.72,-135.07,-20.0,-23.0,0,2,,15.0,29.991142,1023.1,,,,,,,,,,FEW,1300,,,,,,,VFR,,,,,,,,,,,,SPECI,703.0
CYXJ 140300Z 12005KT 3/4SM R30/3000FT/N BR FEW120 BKN220 M03/M04 A3008 RMK AC1CI5 SLP225,CYXJ,2019-01-14T03:00:00Z,56.25,-120.73,-3.0,-4.0,120,5,,0.75,30.079725,1022.5,,,,,,,,,BR,FEW,12000,BKN,22000,,,,,LIFR,,,,,,,,,,,,METAR,695.0
CYWL 140300Z VRB02KT 15SM BKN250 00/M04 A3019 RMK CI6 SLP263,CYWL,2019-01-14T03:00:00Z,52.18,-122.07,0.0,-4.0,0,2,,15.0,30.188976,1026.3,,,,,,,,,,BKN,25000,,,,,,,VFR,,,,,,,,,,,,METAR,940.0
CYQH 140300Z 31003KT 8SM -SN SCT018 OVC051 M14/M16 A3005 RMK SC3SC5 SLP241,CYQH,2019-01-14T03:00:00Z,60.12,-128.82,-14.0,-16.0,310,3,,8.0,30.050198,1024.1,,,,,,,,,-SN,SCT,1800,OVC,5100,,,,,VFR,,,,,,,,,,,,METAR,690.0
CYPW 140300Z 06003KT 10SM FEW240 03/03 A3015 RMK CI1 SHLW BR ON RWY LAST STFD OBS NEXT OBS 141500 UTC SLP216,CYPW,2019-01-14T03:00:00Z,49.82,-124.5,3.0,3.0,60,3,,10.0,30.15059,1021.6,,,,,,,,,,FEW,24000,,,,,,,VFR,,,,,,,,,,,,METAR,130.0
CYMA 140300Z 00000KT 20SM SKC M26/M29 A3010 RMK SLP265,CYMA,2019-01-14T03:00:00Z,63.62,-135.87,-26.0,-29.0,0,0,,20.0,30.100393,1026.5,,,,,,,,,,SKC,,,,,,,,VFR,,,,,,,,,,,,METAR,504.0
CYLW 140300Z AUTO VRB02KT 9SM OVC009 M00/M01 A3035 RMK SLP300,CYLW,2019-01-14T03:00:00Z,49.95,-119.37,0.0,-1.0,0,2,,9.0,30.351377,1030.0,,TRUE,,,,,,,,OVC,900,,,,,,,IFR,,,,,,,,,,,,METAR,430.0
CYKA 140300Z 08007KT 20SM OVC012 00/M02 A3034 RMK SC8 SLP294,CYKA,2019-01-14T03:00:00Z,50.7,-120.45,0.0,-2.0,80,7,,20.0,30.339567,1029.4,,,,,,,,,,OVC,1200,,,,,,,MVFR,,,,,,,,,,,,METAR,346.0
CYIN 140300Z AUTO 14003KT 9SM CLR M06/M06 A3017 RMK SLP263,CYIN,2019-01-14T03:00:00Z,51.27,-121.68,-6.0,-6.0,140,3,,9.0,30.171259,1026.3,,TRUE,,,,,,,,CLR,,,,,,,,VFR,,,,,,,,,,,,METAR,1128.0
CYDL 140300Z AUTO 05003KT 9SM OVC070 M09/M11 A3002 RMK SLP212,CYDL,2019-01-14T03:00:00Z,58.42,-130.02,-9.0,-11.0,50,3,,9.0,30.02067,1021.2,,TRUE,,,,,,,,OVC,7000,,,,,,,VFR,,,,,,,,,,,,METAR,816.0
CYED 140300Z AUTO 25004KT 3SM CLR M09/M09 A3019 RMK ICG SLP274,CYED,2019-01-14T03:00:00Z,53.67,-113.47,-9.0,-9.0,250,4,,3.0,30.188976,1027.4,,TRUE,,,,,,,,CLR,,,,,,,,MVFR,,,,,,,,,,,,METAR,688.0
SKPE 140300Z 11006KT 9000 MIFG FEW012 SCT080 20/19 A3009,SKPE,2019-01-14T03:00:00Z,4.82,-75.73,20.0,19.0,110,6,,5.59,30.088583,,,,,,,,,,MIFG,FEW,1200,SCT,8000,,,,,VFR,,,,,,,,,,,,METAR,1346.0
SKBG 140300Z 07003KT 9999 FEW012 20/20 A3004,SKBG,2019-01-14T03:00:00Z,7.13,-73.18,20.0,20.0,70,3,,6.21,30.041338,,,,,,,,,,,FEW,1200,,,,,,,VFR,,,,,,,,,,,,METAR,1189.0
SKSP 140300Z 05010KT 9999 FEW017 26/23 A3000,SKSP,2019-01-14T03:00:00Z,12.57,-81.72,26.0,23.0,50,10,,6.21,30.0,,,,,,,,,,,FEW,1700,,,,,,,VFR,,,,,,,,,,,,METAR,-2.0
SKRG 140300Z 03003KT 8000 -DZ BKN012 SCT080 15/14 A3033,SKRG,2019-01-14T03:00:00Z,6.17,-75.42,15.0,14.0,30,3,,4.97,30.33071,,,,,,,,,,-DZ,BKN,1200,SCT,8000,,,,,MVFR,,,,,,,,,,,,METAR,2137.0
SKLT 140300Z 00000KT 9999 FEW012 BKN100 23/23 A2992,SKLT,2019-01-14T03:00:00Z,-4.2,-69.93,23.0,23.0,0,0,,6.21,29.920275,,,,,,,,,,,FEW,1200,BKN,10000,,,,,VFR,,,,,,,,,,,,METAR,84.0
SKCC 140300Z VRB02KT 6000 VCFG SCT012 BKN070 23/22 A3004,SKCC,2019-01-14T03:00:00Z,7.92,-72.52,23.0,22.0,0,2,,3.73,30.041338,,,,,,,,,,VCFG,SCT,1200,BKN,7000,,,,,MVFR,,,,,,,,,,,,METAR,317.0
SKCL 140300Z 06004KT 9999 SCT040 BKN080 23/18 A3002,SKCL,2019-01-14T03:00:00Z,3.53,-76.37,23.0,18.0,60,4,,6.21,30.02067,,,,,,,,,,,SCT,4000,BKN,8000,,,,,VFR,,,,,,,,,,,,METAR,969.0
SKBO 140300Z VRB02KT 8000 VCFG BKN017 12/11 A3036,SKBO,2019-01-14T03:00:00Z,4.7,-74.12,12.0,11.0,0,2,,4.97,30.360237,,,,,,,,,,VCFG,BKN,1700,,,,,,,MVFR,,,,,,,,,,,,METAR,2548.0
SPJC 140300Z 15011KT 9999 FEW012 23/20 Q1014 NOSIG RMK PP000,SPJC,2019-01-14T03:00:00Z,-12.02,-77.12,23.0,20.0,150,11,,6.21,29.940945,,,,,,TRUE,,,,,FEW,1200,,,,,,,VFR,,,,,,,,,,,,SPECI,13.0
SBSN 140300Z 02002KT 9999 TS FEW015 FEW025CB SCT100 25/24 Q1012,SBSN,2019-01-14T03:00:00Z,-2.42,-54.78,25.0,24.0,20,2,,6.21,29.88189,,,,,,,,,,TS,FEW,1500,FEW,2500,SCT,10000,,,VFR,,,,,,,,,,,,METAR,72.0
SBLO 140300Z 00000KT CAVOK 23/21 Q1018,SBLO,2019-01-14T03:00:00Z,-23.32,-51.12,23.0,21.0,0,0,,6.21,30.059055,,,,,,,,,,,CAVOK,,,,,,,,VFR,,,,,,,,,,,,METAR,570.0
KHSD 140300Z AUTO 01004KT 10SM OVC017 01/M02 A3046 RMK A01,KHSD,2019-01-14T03:00:00Z,35.6,-97.72,1.0,-2.0,10,4,,10.0,30.46063,,,TRUE,TRUE,,,,,,,OVC,1700,,,,,,,MVFR,,,,,,,,,,,,METAR,364.0
KHQI 140300Z AUTO 10SM BKN024 14/09 A3032 RMK A01,KHQI,2019-01-14T03:00:00Z,27.93,-93.67,14.0,9.0,,,,10.0,30.318897,,,TRUE,TRUE,,,,,,,BKN,2400,,,,,,,MVFR,,,,,,,,,,,,METAR,26.0
KGRY 140300Z AUTO 02008G18KT 340V040 10SM OVC023 13/08 A3030 RMK A01,KGRY,2019-01-14T03:00:00Z,27.63,-90.45,13.0,8.0,20,8,18,10.0,30.301182,,,TRUE,TRUE,,,,,,,OVC,2300,,,,,,,MVFR,,,,,,,,,,,,METAR,58.0
KGHB 140300Z AUTO 06014KT 10SM BKN022 14/09 A3033 RMK A01,KGHB,2019-01-14T03:00:00Z,27.83,-91.98,14.0,9.0,60,14,,10.0,30.33071,,,TRUE,TRUE,,,,,,,BKN,2200,,,,,,,MVFR,,,,,,,,,,,,METAR,30.0
KFYM 140300Z AUTO VRB03KT 10SM OVC004 04/04 A3026 RMK A01,KFYM,2019-01-14T03:00:00Z,35.07,-86.57,4.0,4.0,0,3,,10.0,30.259842,,,TRUE,TRUE,,,,,,,OVC,400,,,,,,,LIFR,,,,,,,,,,,,METAR,300.0
TNCM 140300Z 08008KT 9999 FEW017 25/20 Q1018 RMK A3008,TNCM,2019-01-14T03:00:00Z,18.05,-63.12,25.0,20.0,80,8,,6.21,30.059055,,,,,,,,,,,FEW,1700,,,,,,,VFR,,,,,,,,,,,,METAR,4.0
GVSV 140300Z 07011KT 9999 FEW023 SCT100 21/16 Q1017 NOSIG,GVSV,2019-01-14T03:00:00Z,16.83,-25.07,21.0,16.0,70,11,,6.21,30.029528,,,,,,TRUE,,,,,FEW,2300,SCT,10000,,,,,VFR,,,,,,,,,,,,METAR,20.0
NFFN 140300Z 25011KT 9999 SCT026TCU SCT048 BKN300 31/26 Q1003 TEMPO 5000 TSRA FEW018CB,NFFN,2019-01-14T03:00:00Z,-17.75,177.45,31.0,26.0,250,11,,6.21,29.616142,,,,,,,,,,,SCT,2600,SCT,4800,BKN,30000,,,VFR,,,,,,,,,,,,METAR,18.0
SKBQ 140300Z 36012G22KT 9999 FEW015 26/22 A2987,SKBQ,2019-01-14T03:00:00Z,10.9,-74.77,26.0,22.0,360,12,22,6.21,29.870079,,,,,,,,,,,FEW,1500,,,,,,,VFR,,,,,,,,,,,,METAR,10.0
OPPS 140300Z 18004KT 3000 BR SCT200 03/00 Q1024,OPPS,2019-01-14T03:00:00Z,34.02,71.52,3.0,0.0,180,4,,1.86,30.236221,,,,,,,,,,BR,SCT,20000,,,,,,,IFR,,,,,,,,,,,,METAR,360.0
SBFL 140300Z 33004KT 9999 BKN015 26/23 Q1015,SBFL,2019-01-14T03:00:00Z,-27.67,-48.53,26.0,23.0,330,4,,6.21,29.970472,,,,,,,,,,,BKN,1500,,,,,,,MVFR,,,,,,,,,,,,METAR,5.0
OJAI 140300Z 24020KT 6000 SCT040 08/01 Q1010 NOSIG,OJAI,2019-01-14T03:00:00Z,31.72,36.0,8.0,1.0,240,20,,3.73,29.822834,,,,,,TRUE,,,,,SCT,4000,,,,,,,MVFR,,,,,,,,,,,,METAR,730.0
WAMM 140300Z 16003KT 110V190 4000 -TSRA FEW016CB SCT017 25/24 Q1010 TEMPO -TSRA CB IN CLIMB,WAMM,2019-01-14T03:00:00Z,1.55,124.92,25.0,24.0,160,3,,2.49,29.822834,,,,,,,,,,-TSRA,FEW,1600,SCT,1700,,,,,IFR,,,,,,,,,,,,METAR,80.0
KEDU 140300Z AUTO 00000KT 10SM CLR 09/08 A2999 RMK AO1,KEDU,2019-01-14T03:00:00Z,38.53,-121.78,9.0,8.0,0,0,,10.0,29.991142,,,TRUE,TRUE,,,,,,,CLR,,,,,,,,VFR,,,,,,,,,,,,METAR,21.0
KEMK 140300Z AUTO 11016KT 10SM OVC023 15/09 A3033 RMK A01,KEMK,2019-01-14T03:00:00Z,27.82,-94.32,15.0,9.0,110,16,,10.0,30.33071,,,TRUE,TRUE,,,,,,,OVC,2300,,,,,,,MVFR,,,,,,,,,,,,METAR,26.0
LKMT 140300Z 22014KT 9999 BKN049 04/01 Q0989 R04/29//95 NOSIG,LKMT,2019-01-14T03:00:00Z,49.67,18.12,4.0,1.0,220,14,,6.21,29.202755,,,,,,TRUE,,,,,BKN,4900,,,,,,,VFR,,,,,,,,,,,,SPECI,256.0
LKKV 140300Z 28018KT 9999 SCT008 BKN020 01/00 Q0995 R29///////,LKKV,2019-01-14T03:00:00Z,50.2,12.92,1.0,0.0,280,18,,6.21,29.379921,,,,,,,,,,,SCT,800,BKN,2000,,,,,MVFR,,,,,,,,,,,,SPECI,604.0
KUKF 140300Z AUTO 00000KT 10SM OVC006 00/00 A3023 RMK AO2,KUKF,2019-01-14T03:00:00Z,36.22,-81.1,0.0,0.0,0,0,,10.0,30.230314,,,TRUE,TRUE,,,,,,,OVC,600,,,,,,,IFR,,,,,,,,,,,,METAR,396.0
K24A 140300Z AUTO 29004KT 10SM BKN024 OVC028 04/04 A3013 RMK AO2 T00410037,K24A,2019-01-14T03:00:00Z,35.32,-83.2,4.1,3.7,290,4,,10.0,30.129921,,,TRUE,TRUE,,,,,,,BKN,2400,OVC,2800,,,,,MVFR,,,,,,,,,,,,METAR,871.0
VOBL 140300Z 13006KT 0550 R09/0800 R27/1000 FG BKN002 14/14 Q1020 NOSIG,VOBL,2019-01-14T03:00:00Z,13.2,77.7,14.0,14.0,130,6,,0.34,30.11811,,,,,,TRUE,,,,FG,BKN,200,,,,,,,LIFR,,,,,,,,,,,,METAR,915.0
LKTB 140300Z 28009KT 9999 BKN021 04/02 Q0992 R27/29//95 NOSIG,LKTB,2019-01-14T03:00:00Z,49.13,16.68,4.0,2.0,280,9,,6.21,29.291338,,,,,,TRUE,,,,,BKN,2100,,,,,,,MVFR,,,,,,,,,,,,SPECI,246.0
LKPR 140300Z 29020G30KT 9999 FEW020 SCT040 03/01 Q0994 NOSIG,LKPR,2019-01-14T03:00:00Z,50.1,14.27,3.0,1.0,290,20,30,6.21,29.350393,,,,,,TRUE,,,,,FEW,2000,SCT,4000,,,,,VFR,,,,,,,,,,,,METAR,365.0
CYBR 140300Z 36003KT 15SM SCT018 BKN087 M13/M16 A3022 RMK SC3AC4 SLP271,CYBR,2019-01-14T03:00:00Z,49.92,-99.95,-13.0,-16.0,360,3,,15.0,30.221457,1027.1,,,,,,,,,,SCT,1800,BKN,8700,,,,,VFR,,,,,,,,,,,,METAR,409.0
CYEK 140300Z AUTO 33029G36KT 1/4SM +SN BLSN VV004 M24/M27 A3004 RMK SLP175,CYEK,2019-01-14T03:00:00Z,61.1,-94.07,-24.0,-27.0,330,29,36,0.25,30.041338,1017.5,,TRUE,,,,,,,+SN BLSN,OVX,0,,,,,,,LIFR,,,,,,,,,,,400,METAR,10.0
UMMG 140300Z 20004G07MPS 3200 -RA BR OVC003 01/00 Q0977 NOSIG RMK QBB100,UMMG,2019-01-14T03:00:00Z,53.6,24.05,1.0,0.0,200,8,14,1.99,28.848425,,,,,,TRUE,,,,-RA BR,OVC,300,,,,,,,LIFR,,,,,,,,,,,,SPECI,135.0
UMGG 140300Z 19007G10MPS 9999 OVC006CB M00/M01 Q0988 R10/550340 NOSIG RMK QBB190,UMGG,2019-01-14T03:00:00Z,52.53,31.02,0.0,-1.0,190,14,19,6.21,29.17323,,,,,,TRUE,,,,,OVC,600,,,,,,,IFR,,,,,,,,,,,,METAR,144.0
UMBB 140300Z 21004G07MPS 5000 -SHSNRA BR OVC007CB 01/00 Q0980 NOSIG,UMBB,2019-01-14T03:00:00Z,52.12,23.9,1.0,0.0,210,8,14,3.11,28.937008,,,,,,TRUE,,,,-SHSN -SHRA BR,OVC,700,,,,,,,IFR,,,,,,,,,,,,METAR,143.0
LRTM 140300Z AUTO 07003KT 6000 FEW081/// SCT100/// M03/M04 Q0994,LRTM,2019-01-14T03:00:00Z,46.47,24.42,-3.0,-4.0,70,3,,3.73,29.350393,,,TRUE,,,,,,,,FEW,8100,SCT,10000,,,,,MVFR,,,,,,,,,,,,METAR,309.0
LRSM 140300Z AUTO 19010KT 2800 -SN SCT003/// BKN009/// OVC013/// 00/00 Q0991,LRSM,2019-01-14T03:00:00Z,47.7,22.88,0.0,0.0,190,10,,1.74,29.26181,,,TRUE,,,,,,,-SN,SCT,300,BKN,900,OVC,1300,,,IFR,,,,,,,,,,,,METAR,124.0
LROD 140300Z AUTO 19019KT 4900 -SN FEW006/// SCT009/// BKN021/// 01/01 Q0993,LROD,2019-01-14T03:00:00Z,47.03,21.92,1.0,1.0,190,19,,3.04,29.320866,,,TRUE,,,,,,,-SN,FEW,600,SCT,900,BKN,2100,,,MVFR,,,,,,,,,,,,METAR,140.0
LRCL 140300Z VRB01KT 2000 BR FEW003 OVC068 M05/M06 Q0993 R07/19//95,LRCL,2019-01-14T03:00:00Z,46.78,23.68,-5.0,-6.0,0,1,,1.24,29.320866,,,,,,,,,,BR,FEW,300,OVC,6800,,,,,IFR,,,,,,,,,,,,METAR,413.0
LRBM 140300Z 08007KT 2500 -SN BR OVC006 M00/M01 Q0993 R09/590494,LRBM,2019-01-14T03:00:00Z,47.67,23.47,0.0,-1.0,80,7,,1.55,29.320866,,,,,,,,,,-SN BR,OVC,600,,,,,,,IFR,,,,,,,,,,,,METAR,185.0
LRAR 140300Z AUTO 20011KT 9000 -SN FEW010/// SCT013/// BKN018/// 01/M01 Q0995,LRAR,2019-01-14T03:00:00Z,46.18,21.27,1.0,-1.0,200,11,,5.59,29.379921,,,TRUE,,,,,,,-SN,FEW,1000,SCT,1300,BKN,1800,,,MVFR,,,,,,,,,,,,METAR,118.0
VELP 140300Z 00000KT 5000 HZ SCT200 17/11 Q1017 NOSIG,VELP,2019-01-14T03:00:00Z,23.83,92.62,17.0,11.0,0,0,,3.11,30.029528,,,,,,TRUE,,,,HZ,SCT,20000,,,,,,,MVFR,,,,,,,,,,,,METAR,291.0
VECC 140300Z 12003KT 1400 R01R/1500 BR NSC 16/13 Q1016 BECMG 1500 BR,VECC,2019-01-14T03:00:00Z,22.65,88.43,16.0,13.0,120,3,,0.87,30.0,,,,,,,,,,BR,CLR,,,,,,,,LIFR,,,,,,,,,,,,METAR,6.0
LJPZ 140300Z AUTO 23001KT 7000 FEW022/// BKN032/// BKN210/// 04/03 Q0999,LJPZ,2019-01-14T03:00:00Z,45.47,13.62,4.0,3.0,230,1,,4.35,29.498032,,,TRUE,,,,,,,,FEW,2200,BKN,3200,BKN,21000,,,MVFR,,,,,,,,,,,,METAR,2.0
LJMB 140300Z AUTO 21010KT 9999 NSC 05/M01 Q0995,LJMB,2019-01-14T03:00:00Z,46.47,15.67,5.0,-1.0,210,10,,6.21,29.379921,,,TRUE,,,,,,,,CLR,,,,,,,,VFR,,,,,,,,,,,,METAR,265.0
LJLJ 140300Z 30008KT 9999 FEW028 SCT075 M03/M04 Q0998 NOSIG,LJLJ,2019-01-14T03:00:00Z,46.22,14.47,-3.0,-4.0,300,8,,6.21,29.468504,,,,,,TRUE,,,,,FEW,2800,SCT,7500,,,,,VFR,,,,,,,,,,,,METAR,385.0
LJCE 140300Z AUTO 23009KT 9999 NSC 04/M00 Q0998,LJCE,2019-01-14T03:00:00Z,45.9,15.52,4.0,0.0,230,9,,6.21,29.468504,,,TRUE,,,,,,,,CLR,,,,,,,,VFR,,,,,,,,,,,,METAR,155.0
LRTR 140300Z 19012KT 9999 -RASN OVC033 01/00 Q0995 R11/390094,LRTR,2019-01-14T03:00:00Z,45.82,21.33,1.0,0.0,190,12,,6.21,29.379921,,,,,,,,,,-RA -SN,OVC,3300,,,,,,,VFR,,,,,,,,,,,,SPECI,88.0
LRSB 140300Z 09005KT 3000 BR BKN086 M06/M07 Q0995 R27/75//93 NOSIG,LRSB,2019-01-14T03:00:00Z,45.78,24.08,-6.0,-7.0,90,5,,1.86,29.379921,,,,,,TRUE,,,,BR,BKN,8600,,,,,,,IFR,,,,,,,,,,,,METAR,444.0
LROP 140300Z 23009KT 0300 R08R/0700N R26L/0550D R08L/0400N R26R/0550U FZFG VV001 M07/M08 Q0998 TEMPO 0150 FZFG,LROP,2019-01-14T03:00:00Z,44.57,26.1,-7.0,-8.0,230,9,,0.19,29.468504,,,,,,,,,,FZFG,OVX,0,,,,,,,LIFR,,,,,,,,,,,100,SPECI,95.0
LRCK 140300Z 23007KT 8000 NSC M04/M04 Q0999 NOSIG,LRCK,2019-01-14T03:00:00Z,44.37,28.48,-4.0,-4.0,230,7,,4.97,29.498032,,,,,,TRUE,,,,,CLR,,,,,,,,MVFR,,,,,,,,,,,,METAR,108.0
LRBS 140300Z 26009KT 0400 R07/0600N R25/0600N FZFG VV001 M06/M06 Q0999 R07/19//95 TEMPO 0150 FZFG,LRBS,2019-01-14T03:00:00Z,44.5,26.08,-6.0,-6.0,260,9,,0.25,29.498032,,,,,,,,,,FZFG,OVX,0,,,,,,,LIFR,,,,,,,,,,,100,SPECI,91.0
RKSI 140300Z 13004KT 1400 R33R/1200U R33L/1200N R34/1200N BR SCT002 BKN025 01/M01 Q1027 NOSIG,RKSI,2019-01-14T03:00:00Z,37.47,126.45,1.0,-1.0,130,4,,0.87,30.324802,,,,,,TRUE,,,,BR,SCT,200,BKN,2500,,,,,LIFR,,,,,,,,,,,,SPECI,7.0
GBYD 140300Z 30005KT CAVOK 20/13 Q1012,GBYD,2019-01-14T03:00:00Z,13.33,-16.65,20.0,13.0,300,5,,6.21,29.88189,,,,,,,,,,,CAVOK,,,,,,,,VFR,,,,,,,,,,,,METAR,36.0
CYOD 140300Z 02005KT 10SM BKN005 OVC013 M04/M04 A3025 RMK SF6SC2 SLP281,CYOD,2019-01-14T03:00:00Z,54.4,-110.28,-4.0,-4.0,20,5,,10.0,30.250984,1028.1,,,,,,,,,,BKN,500,OVC,1300,,,,,IFR,,,,,,,,,,,,METAR,544.0
CYPE 140300Z 06004KT 8SM OVC004 M08/M09 A3015 RMK ST8 SLP250,CYPE,2019-01-14T03:00:00Z,56.22,-117.45,-8.0,-9.0,60,4,,8.0,30.15059,1025.0,,,,,,,,,,OVC,400,,,,,,,LIFR,,,,,,,,,,,,METAR,571.0
CYQV 140300Z AUTO 29005KT 7SM BKN080 BKN140 BKN200 M10/M11 A3022 RMK SLP276,CYQV,2019-01-14T03:00:00Z,51.27,-102.47,-10.0,-11.0,290,5,,7.0,30.221457,1027.6,,TRUE,,,,,,,,BKN,8000,BKN,14000,BKN,20000,,,VFR,,,,,,,,,,,,METAR,498.0
CYSF 140300Z AUTO 00000KT 9SM FEW190 M31/M34 A3044 RMK SLP347,CYSF,2019-01-14T03:00:00Z,59.25,-105.82,-31.0,-34.0,0,0,,9.0,30.43996,1034.7,,TRUE,,,,,,,,FEW,19000,,,,,,,VFR,,,,,,,,,,,,METAR,250.0
CYSM 140300Z 00000KT 15SM FEW160 BKN240 M30/M34 A3046 RMK AC1CI4 SLP349,CYSM,2019-01-14T03:00:00Z,60.03,-111.97,-30.0,-34.0,0,0,,15.0,30.46063,1034.9,,,,,,,,,,FEW,16000,BKN,24000,,,,,VFR,,,,,,,,,,,,METAR,203.0
CYTH 140300Z 32007KT 15SM SKC M17/M20 A3027 RMK SLP275,CYTH,2019-01-14T03:00:00Z,55.78,-97.87,-17.0,-20.0,320,7,,15.0,30.268702,1027.5,,,,,,,,,,SKC,,,,,,,,VFR,,,,,,,,,,,,METAR,218.0
CYUB 140300Z 10018KT 3SM BLSN SCT110 M30/M33 A3040 RMK AS3 SLP296,CYUB,2019-01-14T03:00:00Z,69.45,-133.02,-30.0,-33.0,100,18,,3.0,30.398623,1029.6,,,,,,,,,BLSN,SCT,11000,,,,,,,MVFR,,,,,,,,,,,,METAR,5.0
CYUX 140300Z AUTO 35017KT 1SM -SN OVC036 M32/M35 A3000 RMK SLP163,CYUX,2019-01-14T03:00:00Z,68.77,-81.25,-32.0,-35.0,350,17,,1.0,30.0,1016.3,,TRUE,,,,,,,-SN,OVC,3600,,,,,,,IFR,,,,,,,,,,,,METAR,8.0
CYSJ 140300Z 34008KT 15SM SKC M13/M16 A3034 RMK SLP286,CYSJ,2019-01-14T03:00:00Z,45.32,-65.87,-13.0,-16.0,340,8,,15.0,30.339567,1028.6,,,,,,,,,,SKC,,,,,,,,VFR,,,,,,,,,,,,SPECI,109.0
CYDF 140300Z 24011G16KT 15SM OVC015 M06/M09 A3008 RMK SC8 SLP188,CYDF,2019-01-14T03:00:00Z,49.22,-57.4,-6.0,-9.0,240,11,16,15.0,30.079725,1018.8,,,,,,,,,,OVC,1500,,,,,,,MVFR,,,,,,,,,,,,METAR,22.0
CYCX 140300Z AUTO 21003KT 150V230 9SM CLR M16/M19 A3037 RMK SLP291,CYCX,2019-01-14T03:00:00Z,45.82,-66.42,-16.0,-19.0,210,3,,9.0,30.369095,1029.1,,TRUE,,,,,,,,CLR,,,,,,,,VFR,,,,,,,,,,,,METAR,51.0
CYZU 140300Z 24004KT 15SM SCT210 M03/M05 A3017 RMK CI3 SLP264,CYZU,2019-01-14T03:00:00Z,54.15,-115.78,-3.0,-5.0,240,4,,15.0,30.171259,1026.4,,,,,,,,,,SCT,21000,,,,,,,VFR,,,,,,,,,,,,METAR,785.0
CYXH 140300Z 27003KT 15SM SKC M08/M10 A3016 RMK LAST STFD OBS/NEXT 141300 UTC SLP260,CYXH,2019-01-14T03:00:00Z,50.02,-110.72,-8.0,-10.0,270,3,,15.0,30.159449,1026.0,,,,,,,,,,SKC,,,,,,,,VFR,,,,,,,,,,,,METAR,716.0
CYVT 140300Z 05003KT 15SM FEW100 BKN220 M14/M16 A3030 RMK AC1CI4 SLP300,CYVT,2019-01-14T03:00:00Z,55.82,-108.42,-14.0,-16.0,50,3,,15.0,30.301182,1030.0,,,,,,,,,,FEW,10000,BKN,22000,,,,,VFR,,,,,,,,,,,,METAR,434.0
GOBD 140300Z 36011KT 8000 NSC 20/18 Q1014 NOSIG,GOBD,2019-01-14T03:00:00Z,14.67,-17.07,20.0,18.0,360,11,,4.97,29.940945,,,,,,TRUE,,,,,CLR,,,,,,,,MVFR,,,,,,,,,,,,METAR,88.0
KWBF 140300Z AUTO VRB05G11KT 10SM OVC024 15/09 A3028 RMK A01,KWBF,2019-01-14T03:00:00Z,,,15.0,9.0,0,5,11,10.0,30.280512,,,TRUE,TRUE,,,,,,,OVC,2400,,,,,,,MVFR,,,,,,,,,,,,METAR,
FMEE 140300Z AUTO 12012KT CAVOK 27/20 Q1017 NOSIG,FMEE,2019-01-14T03:00:00Z,-20.87,55.52,27.0,20.0,120,12,,6.21,30.029528,,,TRUE,,,TRUE,,,,,CAVOK,,,,,,,,VFR,,,,,,,,,,,,METAR,25.0
CYYG 140300Z 26005KT 15SM BKN020 M13/M16 A3030 RMK SC5 SLP268,CYYG,2019-01-14T03:00:00Z,46.27,-63.12,-13.0,-16.0,260,5,,15.0,30.301182,1026.8,,,,,,,,,,BKN,2000,,,,,,,MVFR,,,,,,,,,,,,METAR,54.0
DTTA 140300Z 27016G27KT 8000 SCT039 14/08 Q1013,DTTA,2019-01-14T03:00:00Z,36.85,10.22,14.0,8.0,270,16,27,4.97,29.911417,,,,,,,,,,,SCT,3900,,,,,,,MVFR,,,,,,,,,,,,METAR,4.0
RJOT 140300Z 36004KT 290V070 9999 FEW020 10/00 Q1022,RJOT,2019-01-14T03:00:00Z,34.22,134.02,10.0,0.0,360,4,,6.21,30.177166,,,,,,,,,,,FEW,2000,,,,,,,VFR,,,,,,,,,,,,METAR,188.0
RJOB 140300Z VRB04KT 9999 FEW025 10/00 Q1022,RJOB,2019-01-14T03:00:00Z,34.75,133.83,10.0,0.0,0,4,,6.21,30.177166,,,,,,,,,,,FEW,2500,,,,,,,VFR,,,,,,,,,,,,METAR,242.0
RJOA 140300Z 11006KT 060V210 9999 FEW030 08/M03 Q1022,RJOA,2019-01-14T03:00:00Z,34.42,132.92,8.0,-3.0,110,6,,6.21,30.177166,,,,,,,,,,,FEW,3000,,,,,,,VFR,,,,,,,,,,,,METAR,6.0
RJNK 140300Z 04004KT 010V090 9999 FEW030 09/M02 Q1024,RJNK,2019-01-14T03:00:00Z,36.37,136.42,9.0,-2.0,40,4,,6.21,30.236221,,,,,,,,,,,FEW,3000,,,,,,,VFR,,,,,,,,,,,,METAR,9.0
RJFU 140300Z 17003KT 150V210 9999 FEW035 11/05 Q1022,RJFU,2019-01-14T03:00:00Z,32.92,129.92,11.0,5.0,170,3,,6.21,30.177166,,,,,,,,,,,FEW,3500,,,,,,,VFR,,,,,,,,,,,,METAR,5.0
RJFT 140300Z 28003KT 230V330 9999 FEW040 12/04 Q1022,RJFT,2019-01-14T03:00:00Z,32.82,130.83,12.0,4.0,280,3,,6.21,30.177166,,,,,,,,,,,FEW,4000,,,,,,,VFR,,,,,,,,,,,,METAR,196.0
RJSN 140300Z 32006KT 9999 -SHRA FEW015 SCT020 BKN030 05/01 Q1023,RJSN,2019-01-14T03:00:00Z,37.95,139.12,5.0,1.0,320,6,,6.21,30.206694,,,,,,,,,,-SHRA,FEW,1500,SCT,2000,BKN,3000,,,MVFR,,,,,,,,,,,,METAR,4.0
RJFK 140300Z VRB03KT 9999 FEW030 12/02 Q1021 RMK 1CU030 A3016 VOLCANIC ASH CLOUD S,RJFK,2019-01-14T03:00:00Z,31.8,130.72,12.0,2.0,0,3,,6.21,30.147638,,,,,,,,,,,FEW,3000,,,,,,,VFR,,,,,,,,,,,,SPECI,275.0
RJCC 140300Z 34006KT 9999 FEW030 M05/M12 Q1024 RMK 1CU030 A3025,RJCC,2019-01-14T03:00:00Z,42.77,141.67,-5.0,-12.0,340,6,,6.21,30.236221,,,,,,,,,,,FEW,3000,,,,,,,VFR,,,,,,,,,,,,SPECI,30.0
RJFF 140300Z VRB02KT 9999 FEW030 13/04 Q1022 BECMG TL0330 31006KT RMK 1CU030 A3020,RJFF,2019-01-14T03:00:00Z,33.57,130.43,13.0,4.0,0,2,,6.21,30.177166,,,,,,,,,,,FEW,3000,,,,,,,VFR,,,,,,,,,,,,METAR,12.0
RJSS 140300Z 03005KT 010V070 9999 FEW030 BKN060 04/M06 Q1022,RJSS,2019-01-14T03:00:00Z,38.12,140.92,4.0,-6.0,30,5,,6.21,30.177166,,,,,,,,,,,FEW,3000,BKN,6000,,,,,VFR,,,,,,,,,,,,METAR,5.0
RJCH 140300Z 27004KT 230V320 9999 FEW020 SCT030 00/M06 Q1023,RJCH,2019-01-14T03:00:00Z,41.77,140.82,0.0,-6.0,270,4,,6.21,30.206694,,,,,,,,,,,FEW,2000,SCT,3000,,,,,VFR,,,,,,,,,,,,METAR,36.0
RJGG 140300Z 32008KT 9999 FEW025 10/00 Q1021 NOSIG,RJGG,2019-01-14T03:00:00Z,34.87,136.8,10.0,0.0,320,8,,6.21,30.147638,,,,,,TRUE,,,,,FEW,2500,,,,,,,VFR,,,,,,,,,,,,METAR,5.0
ROAH 140300Z 04007KT 340V090 9999 FEW035 22/09 Q1020 RMK 1CU035 A3013,ROAH,2019-01-14T03:00:00Z,26.17,127.65,22.0,9.0,40,7,,6.21,30.11811,,,,,,,,,,,FEW,3500,,,,,,,VFR,,,,,,,,,,,,METAR,8.0
RJOO 140300Z 34005KT 290V050 9999 FEW025 11/M01 Q1022 RMK 1CU025 A3020,RJOO,2019-01-14T03:00:00Z,34.77,135.43,11.0,-1.0,340,5,,6.21,30.177166,,,,,,,,,,,FEW,2500,,,,,,,VFR,,,,,,,,,,,,SPECI,15.0
RJTT 140300Z 02009KT 9999 FEW030 08/M02 Q1021 NOSIG RMK 1CU030 A3017,RJTT,2019-01-14T03:00:00Z,35.53,139.77,8.0,-2.0,20,9,,6.21,30.147638,,,,,,TRUE,,,,,FEW,3000,,,,,,,VFR,,,,,,,,,,,,SPECI,8.0
RJBB 140300Z 01003KT 330V040 9999 FEW030 09/00 Q1023 NOSIG,RJBB,2019-01-14T03:00:00Z,34.42,135.25,9.0,0.0,10,3,,6.21,30.206694,,,,,,TRUE,,,,,FEW,3000,,,,,,,VFR,,,,,,,,,,,,METAR,8.0
RJAA 140300Z 02012KT 9999 FEW030 09/M03 Q1021 NOSIG RMK 1CU030 A3016,RJAA,2019-01-14T03:00:00Z,35.77,140.37,9.0,-3.0,20,12,,6.21,30.147638,,,,,,TRUE,,,,,FEW,3000,,,,,,,VFR,,,,,,,,,,,,SPECI,44.0
RJNT 140300Z 02005KT 330V060 9999 FEW030 08/M02 Q1023,RJNT,2019-01-14T03:00:00Z,36.63,137.17,8.0,-2.0,20,5,,6.21,30.206694,,,,,,,,,,,FEW,3000,,,,,,,VFR,,,,,,,,,,,,METAR,27.0
RJFO 140300Z 07005KT 9999 FEW025 SCT050 11/06 Q1022,RJFO,2019-01-14T03:00:00Z,33.47,131.72,11.0,6.0,70,5,,6.21,30.177166,,,,,,,,,,,FEW,2500,SCT,5000,,,,,VFR,,,,,,,,,,,,METAR,8.0
VTST 140300Z VRB02KT 9999 FEW023 31/23 Q1010 NOSIG,VTST,2019-01-14T03:00:00Z,7.52,99.62,31.0,23.0,0,2,,6.21,29.822834,,,,,,TRUE,,,,,FEW,2300,,,,,,,VFR,,,,,,,,,,,,METAR,16.0
VTSR 140300Z 00000KT 9999 SCT025 29/24 Q1012 NOSIG,VTSR,2019-01-14T03:00:00Z,9.78,98.58,29.0,24.0,0,0,,6.21,29.88189,,,,,,TRUE,,,,,SCT,2500,,,,,,,VFR,,,,,,,,,,,,METAR,8.0
VTSM 140300Z 16007KT 120V180 9999 FEW020 29/26 Q1013 NOSIG,VTSM,2019-01-14T03:00:00Z,9.55,100.07,29.0,26.0,160,7,,6.21,29.911417,,,,,,TRUE,,,,,FEW,2000,,,,,,,VFR,,,,,,,,,,,,METAR,17.0
VTSK 140300Z 12005KT 9999 SCT025 BKN300 29/23 Q1011,VTSK,2019-01-14T03:00:00Z,6.77,101.15,29.0,23.0,120,5,,6.21,29.852362,,,,,,,,,,,SCT,2500,BKN,30000,,,,,VFR,,,,,,,,,,,,METAR,9.0
VTSH 140300Z 09008KT 9999 FEW020 29/24 Q1010 NOSIG,VTSH,2019-01-14T03:00:00Z,7.2,100.58,29.0,24.0,90,8,,6.21,29.822834,,,,,,TRUE,,,,,FEW,2000,,,,,,,VFR,,,,,,,,,,,,METAR,5.0
VTSF 140300Z 14003KT 100V180 9999 FEW016TCU SCT018 BKN022 29/25 Q1012 NOSIG,VTSF,2019-01-14T03:00:00Z,8.53,99.95,29.0,25.0,140,3,,6.21,29.88189,,,,,,TRUE,,,,,FEW,1600,SCT,1800,BKN,2200,,,MVFR,,,,,,,,,,,,METAR,4.0
VTSE 140300Z 00000KT 8000 BKN020 29/26 Q1012 NOSIG,VTSE,2019-01-14T03:00:00Z,10.72,99.37,29.0,26.0,0,0,,4.97,29.88189,,,,,,TRUE,,,,,BKN,2000,,,,,,,MVFR,,,,,,,,,,,,METAR,5.0
VTSC 140300Z 12008KT 090V170 9999 FEW020 28/24 Q1012 NOSIG,VTSC,2019-01-14T03:00:00Z,6.52,101.75,28.0,24.0,120,8,,6.21,29.88189,,,,,,TRUE,,,,,FEW,2000,,,,,,,VFR,,,,,,,,,,,,METAR,6.0
VTSB 140300Z VRB02KT 9999 FEW020 31/25 Q1012,VTSB,2019-01-14T03:00:00Z,9.12,99.13,31.0,25.0,0,2,,6.21,29.88189,,,,,,,,,,,FEW,2000,,,,,,,VFR,,,,,,,,,,,,METAR,11.0
FMEP 140300Z AUTO 02005KT 350V060 CAVOK 27/18 Q1016 BECMG 14018G30KT,FMEP,2019-01-14T03:00:00Z,-21.32,55.42,27.0,18.0,20,5,,6.21,30.0,,,TRUE,,,,,,,,CAVOK,,,,,,,,VFR,,,,,,,,,,,,METAR,18.0
VTPP 140300Z VRB01KT 6000 SCT025 27/23 Q1013 NOSIG,VTPP,2019-01-14T03:00:00Z,16.78,100.28,27.0,23.0,0,1,,3.73,29.911417,,,,,,TRUE,,,,,SCT,2500,,,,,,,MVFR,,,,,,,,,,,,METAR,44.0
VTPO 140300Z 03004KT 5000 BR FEW025 26/22 Q1013 BECMG 7000 NSW,VTPO,2019-01-14T03:00:00Z,17.23,99.82,26.0,22.0,30,4,,3.11,29.911417,,,,,,,,,,BR,FEW,2500,,,,,,,MVFR,,,,,,,,,,,,METAR,54.0
VTPM 140300Z VRB02KT 5000 BR SCT080 24/20 Q1015 NOSIG,VTPM,2019-01-14T03:00:00Z,16.67,98.53,24.0,20.0,0,2,,3.11,29.970472,,,,,,TRUE,,,,BR,SCT,8000,,,,,,,MVFR,,,,,,,,,,,,METAR,197.0
VTPH 140300Z 08003KT 360V120 7000 FEW032 29/22 Q1012 NOSIG,VTPH,2019-01-14T03:00:00Z,12.63,99.95,29.0,22.0,80,3,,4.35,29.88189,,,,,,TRUE,,,,,FEW,3200,,,,,,,MVFR,,,,,,,,,,,,METAR,6.0
VTPB 140300Z 01003KT 320V050 7000 SCT035 28/19 Q1014 NOSIG,VTPB,2019-01-14T03:00:00Z,16.67,101.2,28.0,19.0,10,3,,4.35,29.940945,,,,,,TRUE,,,,,SCT,3500,,,,,,,MVFR,,,,,,,,,,,,METAR,137.0
VTCP 140300Z 00000KT 6000 FEW025 26/22 Q1015 NOSIG,VTCP,2019-01-14T03:00:00Z,18.13,100.17,26.0,22.0,0,0,,3.73,29.970472,,,,,,TRUE,,,,,FEW,2500,,,,,,,MVFR,,,,,,,,,,,,METAR,162.0
VTCN 140300Z 01003KT 320V060 CAVOK 23/20 Q1015 NOSIG,VTCN,2019-01-14T03:00:00Z,18.82,100.77,23.0,20.0,10,3,,6.21,29.970472,,,,,,TRUE,,,,,CAVOK,,,,,,,,VFR,,,,,,,,,,,,METAR,201.0
VTCL 140300Z 35004KT 310V040 8000 NSC 25/20 Q1016 NOSIG,VTCL,2019-01-14T03:00:00Z,18.27,99.52,25.0,20.0,350,4,,4.97,30.0,,,,,,TRUE,,,,,CLR,,,,,,,,MVFR,,,,,,,,,,,,METAR,242.0
VTCH 140300Z VRB02KT 8000 FEW018 BKN025 22/18 Q1017,VTCH,2019-01-14T03:00:00Z,19.3,97.98,22.0,18.0,0,2,,4.97,30.029528,,,,,,,,,,,FEW,1800,BKN,2500,,,,,MVFR,,,,,,,,,,,,METAR,269.0
VTBO 140300Z 05002KT 3000 BR FEW020 29/26 Q1012,VTBO,2019-01-14T03:00:00Z,12.28,102.32,29.0,26.0,50,2,,1.86,29.88189,,,,,,,,,,BR,FEW,2000,,,,,,,IFR,,,,,,,,,,,,METAR,32.0
VTUW 140300Z 07009KT 040V110 9999 FEW030 BKN060 27/16 Q1015 NOSIG,VTUW,2019-01-14T03:00:00Z,17.38,104.63,27.0,16.0,70,9,,6.21,29.970472,,,,,,TRUE,,,,,FEW,3000,BKN,6000,,,,,VFR,,,,,,,,,,,,METAR,184.0
VTUV 140300Z 07008KT 030V100 9000 NSC 28/17 Q1014 NOSIG,VTUV,2019-01-14T03:00:00Z,16.12,103.78,28.0,17.0,70,8,,5.59,29.940945,,,,,,TRUE,,,,,CLR,,,,,,,,VFR,,,,,,,,,,,,METAR,138.0
VTUU 140300Z 12005KT 060V190 9000 NSC 27/19 Q1014 NOSIG,VTUU,2019-01-14T03:00:00Z,15.25,104.87,27.0,19.0,120,5,,5.59,29.940945,,,,,,TRUE,,,,,CLR,,,,,,,,VFR,,,,,,,,,,,,METAR,127.0
VTUQ 140300Z VRB02KT 9000 SCT035 30/20 Q1015 NOSIG,VTUQ,2019-01-14T03:00:00Z,14.95,102.32,30.0,20.0,0,2,,5.59,29.970472,,,,,,TRUE,,,,,SCT,3500,,,,,,,VFR,,,,,,,,,,,,METAR,234.0
VTUO 140300Z 06005KT 350V110 8000 NSC 26/20 Q1015,VTUO,2019-01-14T03:00:00Z,15.23,103.25,26.0,20.0,60,5,,4.97,29.970472,,,,,,,,,,,CLR,,,,,,,,MVFR,,,,,,,,,,,,METAR,183.0
VTUL 140300Z VRB04KT 9999 FEW030 SCT080 26/19 Q1016 NOSIG,VTUL,2019-01-14T03:00:00Z,17.43,101.72,26.0,19.0,0,4,,6.21,30.0,,,,,,TRUE,,,,,FEW,3000,SCT,8000,,,,,VFR,,,,,,,,,,,,METAR,254.0
VTUK 140300Z 05005KT 010V100 8000 NSC 27/18 Q1015 NOSIG,VTUK,2019-01-14T03:00:00Z,16.47,102.78,27.0,18.0,50,5,,4.97,29.970472,,,,,,TRUE,,,,,CLR,,,,,,,,MVFR,,,,,,,,,,,,METAR,204.0
VTUI 140300Z 11006KT 060V170 9999 FEW030 26/18 Q1015 NOSIG,VTUI,2019-01-14T03:00:00Z,17.2,104.12,26.0,18.0,110,6,,6.21,29.970472,,,,,,TRUE,,,,,FEW,3000,,,,,,,VFR,,,,,,,,,,,,METAR,172.0
VTUD 140300Z VRB05KT CAVOK 28/17 Q1015 NOSIG,VTUD,2019-01-14T03:00:00Z,17.37,102.78,28.0,17.0,0,5,,6.21,29.970472,,,,,,TRUE,,,,,CAVOK,,,,,,,,VFR,,,,,,,,,,,,METAR,182.0
CYXP 140300Z 11006KT 030V150 15SM OVC085 M23/M29 A2992 RMK AS8 CALL OUT SLP138,CYXP,2019-01-14T03:00:00Z,66.15,-65.72,-23.0,-29.0,110,6,,15.0,29.920275,1013.8,,,,,,,,,,OVC,8500,,,,,,,VFR,,,,,,,,,,,,METAR,23.0
CYWE 140300Z AUTO 08002KT 9SM CLR M40/M44 A3042 RMK ICG SLP378,CYWE,2019-01-14T03:00:00Z,64.18,-114.08,-40.0,-44.0,80,2,,9.0,30.41929,1037.8,,TRUE,,,,,,,,CLR,,,,,,,,VFR,,,,,,,,,,,,METAR,371.0
CYVM 140300Z AUTO 00000KT 9SM OVC085 M31/M34 A3011 RMK SLP200,CYVM,2019-01-14T03:00:00Z,67.53,-64.02,-31.0,-34.0,0,0,,9.0,30.109253,1020.0,,TRUE,,,,,,,,OVC,8500,,,,,,,VFR,,,,,,,,,,,,METAR,6.0
CYRT 140300Z 34030G35KT 1/4SM +BLSN BKN250 M25/M28 A2987 RMK BLSN5CI1 SLP123,CYRT,2019-01-14T03:00:00Z,62.82,-92.12,-25.0,-28.0,340,30,35,0.25,29.870079,1012.3,,,,,,,,,+BLSN,BKN,25000,,,,,,,LIFR,,,,,,,,,,,,METAR,32.0
CYHY 140300Z 09007KT 15SM BKN060 M25/M29 A3044 RMK SC6 SLP335,CYHY,2019-01-14T03:00:00Z,60.82,-115.77,-25.0,-29.0,90,7,,15.0,30.43996,1033.5,,,,,,,,,,BKN,6000,,,,,,,VFR,,,,,,,,,,,,METAR,166.0
CYCO 140300Z 23007KT 12SM IC SCT120 M36/M40 A3066 RMK AS4 SLP389,CYCO,2019-01-14T03:00:00Z,67.82,-115.15,-36.0,-40.0,230,7,,12.0,30.661417,1038.9,,,,,,,,,IC,SCT,12000,,,,,,,VFR,,,,,,,,,,,,METAR,22.0
CYCB 140300Z 29010KT 10SM IC FEW230 M39/M44 A3055 RMK CI1 CI TR FROIN SLP353,CYCB,2019-01-14T03:00:00Z,69.08,-105.12,-39.0,-44.0,290,10,,10.0,30.549213,1035.3,,,,,,,,,IC,FEW,23000,,,,,,,VFR,,,,,,,,,,,,METAR,27.0
CZPC 140300Z AUTO 28005KT 9SM CLR M02/M13 A3020 RMK SLP275,CZPC,2019-01-14T03:00:00Z,49.52,-114.0,-2.0,-13.0,280,5,,9.0,30.200787,1027.5,,TRUE,,,,,,,,CLR,,,,,,,,VFR,,,,,,,,,,,,METAR,1190.0
CYPD 140300Z AUTO 31005KT 9SM -SN OVC010 M10/M12 A3027 RMK SLP262,CYPD,2019-01-14T03:00:00Z,45.67,-61.37,-10.0,-12.0,310,5,,9.0,30.268702,1026.2,,TRUE,,,,,,,-SN,OVC,1000,,,,,,,MVFR,,,,,,,,,,,,METAR,114.0
CWSA 140300Z AUTO 32008KT 9SM BKN031 M03/M09 A3030 RMK SLP263,CWSA,2019-01-14T03:00:00Z,43.93,-60.0,-3.0,-9.0,320,8,,9.0,30.301182,1026.3,,TRUE,,,,,,,,BKN,3100,,,,,,,VFR,,,,,,,,,,,,METAR,4.0
CWFD 140300Z AUTO 01007KT ////SM //// BKN065 OVC075 M31/// A2962,CWFD,2019-01-14T03:00:00Z,66.57,-61.58,,,10,7,,,29.619095,,,TRUE,,,,,,,,BKN,6500,OVC,7500,,,,,,,,,,,,,,,,,METAR,393.0
CWEU 140300Z 13005KT 12SM IC FEW120 M41/M46 A3039 RMK AC1 AC TR LAST OBS/NEXT 14/0600 Z SLP294,CWEU,2019-01-14T03:00:00Z,80.0,-85.92,-41.0,-46.0,130,5,,12.0,30.389763,1029.4,,,,,,,,,IC,FEW,12000,,,,,,,VFR,,,,,,,,,,,,METAR,10.0
UKDE 140300Z 14004MPS 100V190 CAVOK M03/M05 Q1002 R20L/290562 NOSIG,UKDE,2019-01-14T03:00:00Z,47.87,35.32,-3.0,-5.0,140,8,,6.21,29.586615,,,,,,TRUE,,,,,CAVOK,,,,,,,,VFR,,,,,,,,,,,,METAR,113.0
ZYHB 140300Z 17003MPS 2000 R23/1400N BR NSC M12/M13 Q1024 BECMG TL0430 3000,ZYHB,2019-01-14T03:00:00Z,45.62,126.25,-12.0,-13.0,170,6,,1.24,30.236221,,,,,,,,,,BR,CLR,,,,,,,,IFR,,,,,,,,,,,,SPECI,140.0
ZYCC 140300Z 17003MPS 150V220 3000 BR NSC M08/M12 Q1024 NOSIG,ZYCC,2019-01-14T03:00:00Z,43.98,125.68,-8.0,-12.0,170,6,,1.86,30.236221,,,,,,TRUE,,,,BR,CLR,,,,,,,,IFR,,,,,,,,,,,,METAR,238.0
ZUCK 140300Z VRB01MPS 3000 BR FEW014 SCT023 09/06 Q1023 NOSIG,ZUCK,2019-01-14T03:00:00Z,29.72,106.63,9.0,6.0,0,2,,1.86,30.206694,,,,,,TRUE,,,,BR,FEW,1400,SCT,2300,,,,,IFR,,,,,,,,,,,,METAR,416.0
ZSOF 140300Z 09003MPS 060V130 1000 R15/1300U BR BKN005 OVC040 03/02 Q1026 NOSIG,ZSOF,2019-01-14T03:00:00Z,31.98,116.97,3.0,2.0,90,6,,0.62,30.295275,,,,,,TRUE,,,,BR,BKN,500,OVC,4000,,,,,LIFR,,,,,,,,,,,,SPECI,63.0
ZSNJ 140300Z 07004MPS 1400 R06/1500N R07/1400N BR SCT010 05/03 Q1027 BECMG TL0430 1600,ZSNJ,2019-01-14T03:00:00Z,31.75,118.87,5.0,3.0,70,8,,0.87,30.324802,,,,,,,,,,BR,SCT,1000,,,,,,,LIFR,,,,,,,,,,,,METAR,33.0
ZLLL 140300Z 15003MPS 130V190 CAVOK M05/M16 Q1027 BECMG TL0440 06006MPS,ZLLL,2019-01-14T03:00:00Z,36.52,103.62,-5.0,-16.0,150,6,,6.21,30.324802,,,,,,,,,,,CAVOK,,,,,,,,VFR,,,,,,,,,,,,SPECI,1947.0
ZJSY 140300Z 11005MPS 080V140 CAVOK 29/18 Q1016 NOSIG,ZJSY,2019-01-14T03:00:00Z,18.3,109.42,29.0,18.0,110,10,,6.21,30.0,,,,,,TRUE,,,,,CAVOK,,,,,,,,VFR,,,,,,,,,,,,METAR,27.0
ZJHK 140300Z 09007MPS 9999 BKN013 BKN026 24/20 Q1018 BECMG TL0330 BKN015 BKN026,ZJHK,2019-01-14T03:00:00Z,19.93,110.47,24.0,20.0,90,14,,6.21,30.059055,,,,,,,,,,,BKN,1300,BKN,2600,,,,,MVFR,,,,,,,,,,,,METAR,23.0
ZHHH 140300Z 04003MPS 2200 -RA BR NSC 05/03 Q1025 NOSIG,ZHHH,2019-01-14T03:00:00Z,30.78,114.22,5.0,3.0,40,6,,1.37,30.265747,,,,,,TRUE,,,,-RA BR,CLR,,,,,,,,IFR,,,,,,,,,,,,METAR,33.0
ZHCC 140300Z VRB01MPS 1000 R12R/1600U R12L/1200V1300N BR NSC 02/M00 Q1028 BECMG TL0440 1500,ZHCC,2019-01-14T03:00:00Z,34.52,113.83,2.0,0.0,0,2,,0.62,30.35433,,,,,,,,,,BR,CLR,,,,,,,,LIFR,,,,,,,,,,,,METAR,151.0
ZGHA 140300Z 34003MPS 0700 R36L/0900V1000N R36R/1000V1200U -RA FG BKN003 OVC040 06/06 Q1025 BECMG TL0400 0800,ZGHA,2019-01-14T03:00:00Z,28.18,113.22,6.0,6.0,340,6,,0.43,30.265747,,,,,,,,,,-RA FG,BKN,300,OVC,4000,,,,,LIFR,,,,,,,,,,,,METAR,66.0
ZBHH 140300Z 34005MPS CAVOK M06/M16 Q1026 NOSIG,ZBHH,2019-01-14T03:00:00Z,40.85,111.82,-6.0,-16.0,340,10,,6.21,30.295275,,,,,,TRUE,,,,,CAVOK,,,,,,,,VFR,,,,,,,,,,,,METAR,1065.0
CYWK 140300Z AUTO 21007KT 9SM FEW014 SCT220 SCT240 M20/M23 A2999 RMK SLP217,CYWK,2019-01-14T03:00:00Z,52.92,-66.87,-20.0,-23.0,210,7,,9.0,29.991142,1021.7,,TRUE,,,,,,,,FEW,1400,SCT,22000,SCT,24000,,,VFR,,,,,,,,,,,,SPECI,551.0
CYUY 140300Z 20006KT 15SM BKN110 M17/M19 A3028 RMK AC7 SLP290,CYUY,2019-01-14T03:00:00Z,48.2,-78.82,-17.0,-19.0,200,6,,15.0,30.280512,1029.0,,,,,,,,,,BKN,11000,,,,,,,VFR,,,,,,,,,,,,SPECI,301.0
CYQI 140300Z 02007KT 15SM FEW250 M10/M12 A3037 RMK CI2 SLP289,CYQI,2019-01-14T03:00:00Z,43.83,-66.08,-10.0,-12.0,20,7,,15.0,30.369095,1028.9,,,,,,,,,,FEW,25000,,,,,,,VFR,,,,,,,,,,,,METAR,43.0
CYPX 140300Z AUTO 22013KT 3SM -SN BKN018 M20/M22 A2946 RMK SLP982,CYPX,2019-01-14T03:00:00Z,60.03,-77.27,-20.0,-22.0,220,13,,3.0,29.459646,998.2,,TRUE,,,,,,,-SN,BKN,1800,,,,,,,MVFR,,,,,,,,,,,,METAR,23.0
CYOY 140300Z AUTO 28002KT 9SM M18/M22 A3039 RMK SLP311,CYOY,2019-01-14T03:00:00Z,46.88,-71.5,-18.0,-22.0,280,2,,9.0,30.389763,1031.1,,TRUE,,,,,,,,,,,,,,,,,,,,,,,,,,,,METAR,168.0
CYNM 140300Z AUTO 20011KT 9SM OVC120 M14/M16 A3017 RMK SLP248,CYNM,2019-01-14T03:00:00Z,49.77,-77.82,-14.0,-16.0,200,11,,9.0,30.171259,1024.8,,TRUE,,,,,,,,OVC,12000,,,,,,,VFR,,,,,,,,,,,,METAR,281.0
CYMT 140300Z AUTO 18008KT 9SM FEW100 OVC140 M19/M22 A3020 RMK SLP270,CYMT,2019-01-14T03:00:00Z,49.77,-74.52,-19.0,-22.0,180,8,,9.0,30.200787,1027.0,,TRUE,,,,,,,,FEW,10000,OVC,14000,,,,,VFR,,,,,,,,,,,,METAR,387.0
CYMH 140300Z AUTO 28014G21KT 9SM OVC090 M09/M13 A2983 RMK SLP104,CYMH,2019-01-14T03:00:00Z,52.28,-55.85,-9.0,-13.0,280,14,21,9.0,29.828741,1010.4,,TRUE,,,,,,,,OVC,9000,,,,,,,VFR,,,,,,,,,,,,SPECI,11.0
CYGV 140300Z AUTO 29007KT 9SM FEW240 M17/M20 A3020 RMK SLP233,CYGV,2019-01-14T03:00:00Z,50.27,-63.62,-17.0,-20.0,290,7,,9.0,30.200787,1023.3,,TRUE,,,,,,,,FEW,24000,,,,,,,VFR,,,,,,,,,,,,METAR,33.0
CYBX 140300Z 26008G16KT 15SM BKN070 M09/M13 A2995 RMK AC7 SLP148,CYBX,2019-01-14T03:00:00Z,51.45,-57.17,-9.0,-13.0,260,8,16,15.0,29.949802,1014.8,,,,,,,,,,BKN,7000,,,,,,,VFR,,,,,,,,,,,,METAR,35.0
CZMD 140300Z AUTO 28007G19KT 9SM -SN OVC017 M09/M10 A3011 RMK SLP220,CZMD,2019-01-14T03:00:00Z,53.43,-91.77,-9.0,-10.0,280,7,19,9.0,30.109253,1022.0,,TRUE,,,,,,,-SN,OVC,1700,,,,,,,MVFR,,,,,,,,,,,,METAR,278.0
CYYW 140300Z AUTO 27008KT 5SM BR OVC011 M04/M05 A3008 RMK SLP216,CYYW,2019-01-14T03:00:00Z,50.3,-88.9,-4.0,-5.0,270,8,,5.0,30.079725,1021.6,,TRUE,,,,,,,BR,OVC,1100,,,,,,,MVFR,,,,,,,,,,,,METAR,351.0
CYYU 140300Z 23008KT 15SM SCT014 OVC046 M06/M08 A3014 RMK SC3SC5 SLP231,CYYU,2019-01-14T03:00:00Z,49.42,-82.47,-6.0,-8.0,230,8,,15.0,30.138779,1023.1,,,,,,,,,,SCT,1400,OVC,4600,,,,,VFR,,,,,,,,,,,,METAR,227.0
CYYH 140300Z 11004KT 15SM IC FEW080 M35/M39 A3023 RMK AC1 AC TR FROIN AURBO SLP242,CYYH,2019-01-14T03:00:00Z,69.53,-93.57,-35.0,-39.0,110,4,,15.0,30.230314,1024.2,,,,,,,,,IC,FEW,8000,,,,,,,VFR,,,,,,,,,,,,METAR,28.0
CYYB 140300Z 15006KT 080V220 15SM SCT200 M18/M19 A3032 RMK CI4 LAST STFD OBS/NEXT 141200 UTC SLP307,CYYB,2019-01-14T03:00:00Z,46.35,-79.42,-18.0,-19.0,150,6,,15.0,30.318897,1030.7,,,,,,,,,,SCT,20000,,,,,,,VFR,,,,,,,,,,,,METAR,371.0
CYXU 140300Z 08010KT 15SM BKN009 M09/M11 A3033 RMK SF6 SLP291,CYXU,2019-01-14T03:00:00Z,43.02,-81.15,-9.0,-11.0,80,10,,15.0,30.33071,1029.1,,,,,,,,,,BKN,900,,,,,,,IFR,,,,,,,,,,,,SPECI,278.0
CYXL 140300Z 28005KT 260V330 3SM -FZDZ BR OVC004 M05/M05 A3013 RMK ST8 SLP231,CYXL,2019-01-14T03:00:00Z,50.12,-91.9,-5.0,-5.0,280,5,,3.0,30.129921,1023.1,,,,,,,,,-FZDZ BR,OVC,400,,,,,,,LIFR,,,,,,,,,,,,METAR,390.0
CYVQ 140300Z 11008KT 20SM SCT029 BKN140 M24/M29 A3032 RMK SC3AC4 SLP281,CYVQ,2019-01-14T03:00:00Z,65.27,-126.78,-24.0,-29.0,110,8,,20.0,30.318897,1028.1,,,,,,,,,,SCT,2900,BKN,14000,,,,,VFR,,,,,,,,,,,,METAR,74.0
CYVO 140300Z 19008KT 15SM SCT180 M17/M18 A3028 RMK AC3 LAST STFD OBS/NEXT 141100UTC SLP293,CYVO,2019-01-14T03:00:00Z,48.07,-77.77,-17.0,-18.0,190,8,,15.0,30.280512,1029.3,,,,,,,,,,SCT,18000,,,,,,,VFR,,,,,,,,,,,,METAR,337.0
CYSC 140300Z AUTO 09002KT 9SM CLR M21/M23 A3041 RMK SLP326,CYSC,2019-01-14T03:00:00Z,45.43,-71.68,-21.0,-23.0,90,2,,9.0,30.410433,1032.6,,TRUE,,,,,,,,CLR,,,,,,,,VFR,,,,,,,,,,,,METAR,241.0
CYSB 140300Z 20005KT 15SM SCT190 M18/M23 A3030 RMK CI4 SLP303,CYSB,2019-01-14T03:00:00Z,46.63,-80.8,-18.0,-23.0,200,5,,15.0,30.301182,1030.3,,,,,,,,,,SCT,19000,,,,,,,VFR,,,,,,,,,,,,METAR,348.0
CYRQ 140300Z AUTO 00000KT 9SM CLR M19/M21 A3046 RMK SLP323,CYRQ,2019-01-14T03:00:00Z,46.35,-72.68,-19.0,-21.0,0,0,,9.0,30.46063,1032.3,,TRUE,,,,,,,,CLR,,,,,,,,VFR,,,,,,,,,,,,METAR,61.0
CYRB 140300Z VRB03KT 15SM IC SKC M37/M42 A3028 RMK SLP272,CYRB,2019-01-14T03:00:00Z,74.72,-94.97,-37.0,-42.0,0,3,,15.0,30.280512,1027.2,,,,,,,,,IC,SKC,,,,,,,,VFR,,,,,,,,,,,,SPECI,67.0
CYQK 140300Z 30003KT 250V320 2SM -SN BR OVC003 M05/M06 A3016 RMK FG2ST6 SLP242,CYQK,2019-01-14T03:00:00Z,49.77,-94.37,-5.0,-6.0,300,3,,2.0,30.159449,1024.2,,,,,,,,,-SN BR,OVC,300,,,,,,,LIFR,,,,,,,,,,,,METAR,411.0
CYQA 140300Z AUTO 00000KT 9SM CLR M17/M19 A3036 RMK ICG INTMT SLP310,CYQA,2019-01-14T03:00:00Z,44.97,-79.28,-17.0,-19.0,0,0,,9.0,30.360237,1031.0,,TRUE,,,,,,,,CLR,,,,,,,,VFR,,,,,,,,,,,,METAR,282.0
CYPO 140300Z AUTO 29012G19KT 9SM -SN OVC044 M12/M16 A2991 RMK SLP137,CYPO,2019-01-14T03:00:00Z,54.98,-85.43,-12.0,-16.0,290,12,19,9.0,29.911417,1013.7,,TRUE,,,,,,,-SN,OVC,4400,,,,,,,VFR,,,,,,,,,,,,METAR,53.0
CYOO 140300Z AUTO 08006KT 9SM CLR M10/M14 A3042 RMK SLP312,CYOO,2019-01-14T03:00:00Z,43.92,-78.9,-10.0,-14.0,80,6,,9.0,30.41929,1031.2,,TRUE,,,,,,,,CLR,,,,,,,,VFR,,,,,,,,,,,,METAR,139.0
CYLH 140300Z AUTO 30007G17KT 260V340 9SM -SN OVC015 M05/M07 A3003 RMK SLP190,CYLH,2019-01-14T03:00:00Z,52.2,-87.93,-5.0,-7.0,300,7,17,9.0,30.029528,1019.0,,TRUE,,,,,,,-SN,OVC,1500,,,,,,,MVFR,,,,,,,,,,,,METAR,254.0
CYKP 140300Z AUTO 26008KT 8SM BKN011 OVC019 M03/M04 A3000 RMK ICG SLP178,CYKP,2019-01-14T03:00:00Z,51.67,-85.9,-3.0,-4.0,260,8,,8.0,30.0,1017.8,,TRUE,,,,,,,,BKN,1100,OVC,1900,,,,,MVFR,,,,,,,,,,,,METAR,179.0
CYKF 140300Z AUTO 05003KT 9SM CLR M12/M15 A3035 RMK SLP301,CYKF,2019-01-14T03:00:00Z,43.47,-80.38,-12.0,-15.0,50,3,,9.0,30.351377,1030.1,,TRUE,,,,,,,,CLR,,,,,,,,VFR,,,,,,,,,,,,METAR,317.0
CYHM 140300Z 07009G17KT 15SM -SN BKN014 M06/M08 A3035 RMK SC7 SLP294,CYHM,2019-01-14T03:00:00Z,43.17,-79.93,-6.0,-8.0,70,9,17,15.0,30.351377,1029.4,,,,,,,,,-SN,BKN,1400,,,,,,,MVFR,,,,,,,,,,,,METAR,238.0
CYGQ 140300Z 25010G16KT 230V290 8SM -FZDZ -SN OVC011 M02/M05 A3008 RMK ST8 ICING ON INDICATOR SLP213,CYGQ,2019-01-14T03:00:00Z,49.77,-86.92,-2.0,-5.0,250,10,16,8.0,30.079725,1021.3,,,,,,,,,-FZDZ -SN,OVC,1100,,,,,,,MVFR,,,,,,,,,,,,METAR,351.0
CYGK 140300Z 04005KT 15SM FEW020 M13/M16 A3044 RMK SC1 SC TR SLP319,CYGK,2019-01-14T03:00:00Z,44.22,-76.58,-13.0,-16.0,40,5,,15.0,30.43996,1031.9,,,,,,,,,,FEW,2000,,,,,,,VFR,,,,,,,,,,,,METAR,93.0
CYCK 140300Z AUTO 03007KT 9SM M07/M09 A3035 RMK CLD MISG SLP289,CYCK,2019-01-14T03:00:00Z,42.3,-82.08,-7.0,-9.0,30,7,,9.0,30.351377,1028.9,,TRUE,,,,,,,,,,,,,,,,,,,,,,,,,,,,METAR,198.0
CYBN 140300Z AUTO 26002KT 9SM CLR M19/M21 A3038 RMK SLP310,CYBN,2019-01-14T03:00:00Z,44.27,-79.92,-19.0,-21.0,260,2,,9.0,30.380905,1031.0,,TRUE,,,,,,,,CLR,,,,,,,,VFR,,,,,,,,,,,,METAR,223.0
CYBC 140300Z AUTO 27007KT 9SM CLR M18/M21 A3036 RMK SLP285,CYBC,2019-01-14T03:00:00Z,49.12,-68.2,-18.0,-21.0,270,7,,9.0,30.360237,1028.5,,TRUE,,,,,,,,CLR,,,,,,,,VFR,,,,,,,,,,,,METAR,22.0
CYZR 140300Z AUTO 10003KT 9SM CLR M09/M11 A3037 RMK SLP298,CYZR,2019-01-14T03:00:00Z,43.0,-82.3,-9.0,-11.0,100,3,,9.0,30.369095,1029.8,,TRUE,,,,,,,,CLR,,,,,,,,VFR,,,,,,,,,,,,METAR,181.0
CYZE 140300Z AUTO 11004KT 9SM CLR M15/M18 A3038 RMK SLP307,CYZE,2019-01-14T03:00:00Z,45.87,-82.57,-15.0,-18.0,110,4,,9.0,30.380905,1030.7,,TRUE,,,,,,,,CLR,,,,,,,,VFR,,,,,,,,,,,,METAR,193.0
CYYY 140300Z 28008KT 15SM BKN022 M13/M18 A3037 RMK SC5 SLP293,CYYY,2019-01-14T03:00:00Z,48.6,-68.22,-13.0,-18.0,280,8,,15.0,30.369095,1029.3,,,,,,,,,,BKN,2200,,,,,,,MVFR,,,,,,,,,,,,METAR,52.0
CYXR 140300Z AUTO 15004KT 9SM CLR M22/M23 A3032 RMK ICG INTMT SLP301,CYXR,2019-01-14T03:00:00Z,47.7,-79.83,-22.0,-23.0,150,4,,9.0,30.318897,1030.1,,TRUE,,,,,,,,CLR,,,,,,,,VFR,,,,,,,,,,,,METAR,243.0
CYWA 140300Z AUTO 00000KT 9SM CLR M22/M26 A3044 RMK SLP324,CYWA,2019-01-14T03:00:00Z,45.95,-77.32,-22.0,-26.0,0,0,,9.0,30.43996,1032.4,,TRUE,,,,,,,,CLR,,,,,,,,VFR,,,,,,,,,,,,METAR,130.0
CYVV 140300Z 14005KT 15SM SKC M14/M16 A3037 RMK WND ESTD SLP303,CYVV,2019-01-14T03:00:00Z,44.75,-81.08,-14.0,-16.0,140,5,,15.0,30.369095,1030.3,,,,,,,,,,SKC,,,,,,,,VFR,,,,,,,,,,,,METAR,222.0
CYVP 140300Z 20013KT 2SM -SN OVC035 M15/M18 A2979 RMK SN4SC4 SLP095,CYVP,2019-01-14T03:00:00Z,58.12,-68.42,-15.0,-18.0,200,13,,2.0,29.790354,1009.5,,,,,,,,,-SN,OVC,3500,,,,,,,IFR,,,,,,,,,,,,SPECI,60.0
CYTZ 140300Z AUTO 04009G15KT 9SM BKN024 M06/M12 A3042 RMK RVR MISG SLP307,CYTZ,2019-01-14T03:00:00Z,43.63,-79.4,-6.0,-12.0,40,9,15,9.0,30.41929,1030.7,,TRUE,,,,,,,,BKN,2400,,,,,,,MVFR,,,,,,,,,,,,METAR,77.0
CYTS 140300Z 19006KT 15SM BKN038 OVC110 M12/M15 A3020 RMK SC5AC3 SLP259,CYTS,2019-01-14T03:00:00Z,48.57,-81.37,-12.0,-15.0,190,6,,15.0,30.200787,1025.9,,,,,,,,,,BKN,3800,OVC,11000,,,,,VFR,,,,,,,,,,,,METAR,295.0
CYTL 140300Z AUTO 29012G17KT 9SM -SN OVC032 M08/M11 A3003 RMK SLP191,CYTL,2019-01-14T03:00:00Z,53.82,-89.88,-8.0,-11.0,290,12,17,9.0,30.029528,1019.1,,TRUE,,,,,,,-SN,OVC,3200,,,,,,,VFR,,,,,,,,,,,,SPECI,224.0
CYRL 140300Z 31005KT 6SM BR OVC006 M06/M07 A3014 RMK FG1ST7 LAST STFD OBS/NEXT 141000UTC SLP236,CYRL,2019-01-14T03:00:00Z,51.07,-93.78,-6.0,-7.0,310,5,,6.0,30.138779,1023.6,,,,,,,,,BR,OVC,600,,,,,,,IFR,,,,,,,,,,,,METAR,383.0
CYQT 140300Z 23007KT 15SM OVC016 M01/M03 A3016 RMK SC8 SLP228,CYQT,2019-01-14T03:00:00Z,48.37,-89.32,-1.0,-3.0,230,7,,15.0,30.159449,1022.8,,,,,,,,,,OVC,1600,,,,,,,MVFR,,,,,,,,,,,,METAR,199.0
CYPQ 140300Z AUTO 00000KT 9SM CLR M13/M14 A3041 RMK SLP315,CYPQ,2019-01-14T03:00:00Z,44.22,-78.37,-13.0,-14.0,0,0,,9.0,30.410433,1031.5,,TRUE,,,,,,,,CLR,,,,,,,,VFR,,,,,,,,,,,,METAR,191.0
CYNA 140300Z AUTO 30010KT 9SM CLR M16/M20 A3018 RMK SLP222,CYNA,2019-01-14T03:00:00Z,50.17,-61.82,-16.0,-20.0,300,10,,9.0,30.180119,1022.2,,TRUE,,,,,,,,CLR,,,,,,,,VFR,,,,,,,,,,,,METAR,11.0
CYMO 140300Z AUTO 22014G19KT 9SM -SN OVC018 M05/M08 A3004 RMK SLP176,CYMO,2019-01-14T03:00:00Z,51.28,-80.62,-5.0,-8.0,220,14,19,9.0,30.041338,1017.6,,TRUE,,,,,,,-SN,OVC,1800,,,,,,,MVFR,,,,,,,,,,,,METAR,10.0
CYGR 140300Z 26011KT 2SM -SHSN DRSN OVC017 M07/M10 A3025 RMK SN3SC5 CVCTV CLD EMBD LAST STFD OBS/NEXT 141000 UTC SLP247,CYGR,2019-01-14T03:00:00Z,47.42,-61.77,-7.0,-10.0,260,11,,2.0,30.250984,1024.7,,,,,,,,,-SHSN DRSN,OVC,1700,,,,,,,IFR,,,,,,,,,,,,METAR,10.0
CYGP 140300Z 31008KT 15SM SCT025 M15/M18 A3027 RMK SC3 SLP253,CYGP,2019-01-14T03:00:00Z,48.77,-64.47,-15.0,-18.0,310,8,,15.0,30.268702,1025.3,,,,,,,,,,SCT,2500,,,,,,,VFR,,,,,,,,,,,,METAR,33.0
CYAM 140300Z 10002KT 20SM SCT013 BKN160 BKN200 M12/M14 A3035 RMK SC3AC2CI2 SLP297,CYAM,2019-01-14T03:00:00Z,46.47,-84.52,-12.0,-14.0,100,2,,20.0,30.351377,1029.7,,,,,,,,,,SCT,1300,BKN,16000,BKN,20000,,,VFR,,,,,,,,,,,,METAR,192.0
CZCP 140300Z AUTO 08013KT ////SM //// BKN170 M30/M34 A3057,CZCP,2019-01-14T03:00:00Z,70.17,-124.72,-30.0,-34.0,80,13,,,30.569881,,,TRUE,,,,,,,,BKN,17000,,,,,,,,,,,,,,,,,,,METAR,93.0
CZBF 140300Z AUTO 29004KT 9SM CLR M14/M18 A3033 RMK SLP276,CZBF,2019-01-14T03:00:00Z,47.62,-65.75,-14.0,-18.0,290,4,,9.0,30.33071,1027.6,,TRUE,,,,,,,,CLR,,,,,,,,VFR,,,,,,,,,,,,SPECI,59.0
CYCA 140300Z AUTO 27010G21KT 9SM -SN OVC044 M10/M15 A2984 RMK SLP106,CYCA,2019-01-14T03:00:00Z,53.68,-57.03,-10.0,-15.0,270,10,21,9.0,29.840551,1010.6,,TRUE,,,,,,,-SN,OVC,4400,,,,,,,VFR,,,,,,,,,,,,METAR,12.0
CWZZ 140300Z AUTO ///// ////SM NCD M21/M23 A2968,CWZZ,2019-01-14T03:00:00Z,58.32,-62.57,-21.0,-23.0,,,,,29.681103,,,TRUE,,,,,,,,CLR,,,,,,,,,,,,,,,,,,,,METAR,483.0
CWUW 140300Z AUTO 08016KT ////SM SCT021 BKN042 OVC049 M30/M33 A2970,CWUW,2019-01-14T03:00:00Z,68.65,-71.17,-30.0,-33.0,80,16,,,29.698818,,,TRUE,,,,,,,,SCT,2100,BKN,4200,OVC,4900,,,,,,,,,,,,,,,METAR,527.0
CWPX 140300Z AUTO 34020KT ////SM //// OVC028 M39/M44 A3047,CWPX,2019-01-14T03:00:00Z,69.02,-107.82,-39.0,-44.0,340,20,,,30.469488,,,TRUE,,,,,,,,OVC,2800,,,,,,,,,,,,,,,,,,,METAR,165.0
CWLY 140300Z AUTO 00000KT 9SM CLR M00/M02 A3031 RMK SLP275,CWLY,2019-01-14T03:00:00Z,50.22,-121.58,0.0,-2.0,0,0,,9.0,30.31004,1027.5,,TRUE,,,,,,,,CLR,,,,,,,,VFR,,,,,,,,,,,,METAR,229.0
CWLI 140300Z AUTO 08014KT ////SM //// FEW075 OVC090 M31/M33 A////,CWLI,2019-01-14T03:00:00Z,69.58,-130.9,-31.0,-33.0,80,14,,,,,,TRUE,,,,,,,,FEW,7500,OVC,9000,,,,,,,,,,,,,,,,,METAR,102.0
CWIL 140300Z AUTO 32020KT ////SM OVC003 ///// A////,CWIL,2019-01-14T03:00:00Z,68.32,-100.07,,,320,20,,,,,,TRUE,,,,,,,,OVC,300,,,,,,,,,,,,,,,,,,,METAR,36.0
NZAA 140300Z AUTO 24017KT 9999 FEW035/// SCT095/// 20/13 Q1006 TEMPO 5000 SHRA FEW030TCU,NZAA,2019-01-14T03:00:00Z,-37.02,174.8,20.0,13.0,240,17,,6.21,29.704725,,,TRUE,,,,,,,,FEW,3500,SCT,9500,,,,,VFR,,,,,,,,,,,,METAR,6.0
NZCH 140300Z AUTO 20022KT 170V240 9999 SCT032/// OVC043/// 15/10 Q1012 NOSIG,NZCH,2019-01-14T03:00:00Z,-43.47,172.55,15.0,10.0,200,22,,6.21,29.88189,,,TRUE,,,TRUE,,,,,SCT,3200,OVC,4300,,,,,VFR,,,,,,,,,,,,METAR,34.0
NZWN 140300Z AUTO 18020KT 9999 SCT020/// BKN043/// 18/12 Q1008 NOSIG,NZWN,2019-01-14T03:00:00Z,-41.32,174.8,18.0,12.0,180,20,,6.21,29.763779,,,TRUE,,,TRUE,,,,,SCT,2000,BKN,4300,,,,,VFR,,,,,,,,,,,,METAR,7.0
K7W6 140300Z AUTO 31014G24KT 3SM BR OVC005 05/05 A3003 RMK AO2 T00510051,K7W6,2019-01-14T03:00:00Z,35.55,-75.95,5.1,5.1,310,14,24,3.0,30.029528,,,TRUE,TRUE,,,,,,BR,OVC,500,,,,,,,IFR,,,,,,,,,,,,SPECI,2.0
KEDE 140300Z AUTO 34014G20KT 10SM OVC006 03/03 A3011 RMK AO2 T00330026,KEDE,2019-01-14T03:00:00Z,36.02,-76.57,3.3,2.6,340,14,20,10.0,30.109253,,,TRUE,TRUE,,,,,,,OVC,600,,,,,,,IFR,,,,,,,,,,,,SPECI,6.0
KISO 140300Z AUTO 33007KT 5SM BR OVC006 02/02 A3016 RMK AO2 T00220020,KISO,2019-01-14T03:00:00Z,35.32,-77.62,2.2,2.0,330,7,,5.0,30.159449,,,TRUE,TRUE,,,,,,BR,OVC,600,,,,,,,IFR,,,,,,,,,,,,SPECI,29.0
KHRJ 140300Z AUTO 34005KT 4SM BR OVC008 02/02 A3019 RMK AO2 T00200020,KHRJ,2019-01-14T03:00:00Z,35.38,-78.73,2.0,2.0,340,5,,4.0,30.188976,,,TRUE,TRUE,,,,,,BR,OVC,800,,,,,,,IFR,,,,,,,,,,,,SPECI,60.0
SAVC 140300Z 29004KT CAVOK 16/04 Q1014,SAVC,2019-01-14T03:00:00Z,-45.77,-67.47,16.0,4.0,290,4,,6.21,29.940945,,,,,,,,,,,CAVOK,,,,,,,,VFR,,,,,,,,,,,,METAR,46.0
SARL 140300Z 09003KT CAVOK 23/22 Q1012,SARL,2019-01-14T03:00:00Z,-29.67,-57.13,23.0,22.0,90,3,,6.21,29.88189,,,,,,,,,,,CAVOK,,,,,,,,VFR,,,,,,,,,,,,METAR,70.0
SBSP 140300Z AUTO 11003KT CAVOK 23/18 Q1019,SBSP,2019-01-14T03:00:00Z,-23.62,-46.63,23.0,18.0,110,3,,6.21,30.088583,,,TRUE,,,,,,,,CAVOK,,,,,,,,VFR,,,,,,,,,,,,METAR,803.0
RJAW 140300Z 34017KT 9999 SCT030 22/11 Q1014 RMK 3CU030 A2995,RJAW,2019-01-14T03:00:00Z,24.77,141.32,22.0,11.0,340,17,,6.21,29.940945,,,,,,,,,,,SCT,3000,,,,,,,VFR,,,,,,,,,,,,METAR,116.0
VOCB 140300Z 04005KT 2000 BR FEW008 21/19 Q1018 NOSIG,VOCB,2019-01-14T03:00:00Z,11.02,77.03,21.0,19.0,40,5,,1.24,30.059055,,,,,,TRUE,,,,BR,FEW,800,,,,,,,IFR,,,,,,,,,,,,METAR,399.0
VGHS 140300Z 00000KT 1800 BR NSC 19/16 Q1016 BECMG S/VIS 2500M,VGHS,2019-01-14T03:00:00Z,23.85,90.4,19.0,16.0,0,0,,1.12,30.0,,,,,,,,,,BR,CLR,,,,,,,,IFR,,,,,,,,,,,,METAR,10.0
VVDN 140300Z VRB01KT 9999 FEW015 28/21 Q1017 NOSIG,VVDN,2019-01-14T03:00:00Z,16.02,108.2,28.0,21.0,0,1,,6.21,30.029528,,,,,,TRUE,,,,,FEW,1500,,,,,,,VFR,,,,,,,,,,,,METAR,7.0
VVTS 140300Z VRB03KT CAVOK 31/18 Q1011 NOSIG,VVTS,2019-01-14T03:00:00Z,10.82,106.67,31.0,18.0,0,3,,6.21,29.852362,,,,,,TRUE,,,,,CAVOK,,,,,,,,VFR,,,,,,,,,,,,METAR,19.0
VVPQ 140300Z 11007KT CAVOK 29/21 Q1012 NOSIG,VVPQ,2019-01-14T03:00:00Z,10.23,103.97,29.0,21.0,110,7,,6.21,29.88189,,,,,,TRUE,,,,,CAVOK,,,,,,,,VFR,,,,,,,,,,,,METAR,4.0
VVPB 140300Z 03004KT 9999 FEW020 28/20 Q1017 NOSIG,VVPB,2019-01-14T03:00:00Z,16.38,107.7,28.0,20.0,30,4,,6.21,30.029528,,,,,,TRUE,,,,,FEW,2000,,,,,,,VFR,,,,,,,,,,,,METAR,17.0
VVCT 140300Z 04006KT 340V080 CAVOK 29/21 Q1012 NOSIG,VVCT,2019-01-14T03:00:00Z,10.08,105.72,29.0,21.0,40,6,,6.21,29.88189,,,,,,TRUE,,,,,CAVOK,,,,,,,,VFR,,,,,,,,,,,,METAR,3.0
VVCR 140300Z 05012KT 9999 FEW013 29/20 Q1014 NOSIG,VVCR,2019-01-14T03:00:00Z,12.0,109.22,29.0,20.0,50,12,,6.21,29.940945,,,,,,TRUE,,,,,FEW,1300,,,,,,,VFR,,,,,,,,,,,,METAR,12.0
VTSS 140300Z 09007KT 9999 SCT020 29/23 Q1011 NOSIG,VTSS,2019-01-14T03:00:00Z,6.92,100.38,29.0,23.0,90,7,,6.21,29.852362,,,,,,TRUE,,,,,SCT,2000,,,,,,,VFR,,,,,,,,,,,,METAR,35.0
VTSP 140300Z 10009KT 080V140 9999 FEW020 29/22 Q1012 NOSIG,VTSP,2019-01-14T03:00:00Z,8.12,98.32,29.0,22.0,100,9,,6.21,29.88189,,,,,,TRUE,,,,,FEW,2000,,,,,,,VFR,,,,,,,,,,,,METAR,10.0
VTSG 140300Z 06006KT 010V110 9999 SCT020 30/24 Q1012 NOSIG,VTSG,2019-01-14T03:00:00Z,8.1,98.98,30.0,24.0,60,6,,6.21,29.88189,,,,,,TRUE,,,,,SCT,2000,,,,,,,VFR,,,,,,,,,,,,METAR,25.0
VTCT 140300Z VRB02KT 9999 FEW018 21/19 Q1017 NOSIG,VTCT,2019-01-14T03:00:00Z,19.95,99.88,21.0,19.0,0,2,,6.21,30.029528,,,,,,TRUE,,,,,FEW,1800,,,,,,,VFR,,,,,,,,,,,,METAR,390.0
VTCC 140300Z 03004KT 9999 FEW035 23/16 Q1018 NOSIG,VTCC,2019-01-14T03:00:00Z,18.77,98.97,23.0,16.0,30,4,,6.21,30.059055,,,,,,TRUE,,,,,FEW,3500,,,,,,,VFR,,,,,,,,,,,,METAR,314.0
VTBU 140300Z 32004KT 3000 HZ FEW020CB 30/22 Q1012 NOSIG,VTBU,2019-01-14T03:00:00Z,12.68,101.0,30.0,22.0,320,4,,1.86,29.88189,,,,,,TRUE,,,,HZ,FEW,2000,,,,,,,IFR,,,,,,,,,,,,METAR,5.0
VTBS 140300Z 18005KT 120V240 5000 BR FEW015 30/24 Q1012 NOSIG,VTBS,2019-01-14T03:00:00Z,13.68,100.75,30.0,24.0,180,5,,3.11,29.88189,,,,,,TRUE,,,,BR,FEW,1500,,,,,,,MVFR,,,,,,,,,,,,METAR,2.0
VTBD 140300Z 12004KT 3000 BR NSC 30/25 Q1013 BECMG TL0400 5000 BR,VTBD,2019-01-14T03:00:00Z,13.92,100.6,30.0,25.0,120,4,,1.86,29.911417,,,,,,,,,,BR,CLR,,,,,,,,IFR,,,,,,,,,,,,METAR,3.0
VYNT 140300Z 35006KT 6000 FEW020 SCT120 23/16 Q1015,VYNT,2019-01-14T03:00:00Z,19.62,96.2,23.0,16.0,350,6,,3.73,29.970472,,,,,,,,,,,FEW,2000,SCT,12000,,,,,MVFR,,,,,,,,,,,,METAR,610.0
VYYY 140300Z 06005KT 8000 NSC 25/20 Q1014,VYYY,2019-01-14T03:00:00Z,16.9,96.13,25.0,20.0,60,5,,4.97,29.940945,,,,,,,,,,,CLR,,,,,,,,MVFR,,,,,,,,,,,,METAR,33.0
VLVT 140300Z 09004KT 6000 FEW020 BKN200 26/19 Q1016 NOSIG,VLVT,2019-01-14T03:00:00Z,17.98,102.57,26.0,19.0,90,4,,3.73,30.0,,,,,,TRUE,,,,,FEW,2000,BKN,20000,,,,,MVFR,,,,,,,,,,,,METAR,171.0
VDSV 140300Z 14006KT 100V190 9999 FEW015 29/26 Q1012,VDSV,2019-01-14T03:00:00Z,10.58,103.63,29.0,26.0,140,6,,6.21,29.88189,,,,,,,,,,,FEW,1500,,,,,,,VFR,,,,,,,,,,,,METAR,10.0
VDSR 140300Z 08010KT 9999 FEW017 28/15 Q1012,VDSR,2019-01-14T03:00:00Z,13.42,103.83,28.0,15.0,80,10,,6.21,29.88189,,,,,,,,,,,FEW,1700,,,,,,,VFR,,,,,,,,,,,,METAR,15.0
VDPP 140300Z VRB03KT 9999 FEW017 28/21 Q1011,VDPP,2019-01-14T03:00:00Z,11.55,104.83,28.0,21.0,0,3,,6.21,29.852362,,,,,,,,,,,FEW,1700,,,,,,,VFR,,,,,,,,,,,,METAR,10.0
KRCZ 140300Z AUTO 01006KT 10SM OVC010 01/01 A3019 RMK AO2 T00140014,KRCZ,2019-01-14T03:00:00Z,34.88,-79.77,1.4,1.4,10,6,,10.0,30.188976,,,TRUE,TRUE,,,,,,,OVC,1000,,,,,,,MVFR,,,,,,,,,,,,SPECI,109.0
KMRN 140300Z AUTO 00000KT 10SM OVC006 03/01 A3021 RMK AO2 T00250014,KMRN,2019-01-14T03:00:00Z,35.82,-81.62,2.5,1.4,0,0,,10.0,30.209646,,,TRUE,TRUE,,,,,,,OVC,600,,,,,,,IFR,,,,,,,,,,,,SPECI,387.0
SBCY 140300Z 32002KT 9999 FEW020 BKN100 25/23 Q1014,SBCY,2019-01-14T03:00:00Z,-15.65,-56.12,25.0,23.0,320,2,,6.21,29.940945,,,,,,,,,,,FEW,2000,BKN,10000,,,,,VFR,,,,,,,,,,,,METAR,182.0
SBGL 140300Z 10006KT CAVOK 26/22 Q1014,SBGL,2019-01-14T03:00:00Z,-22.82,-43.25,26.0,22.0,100,6,,6.21,29.940945,,,,,,,,,,,CAVOK,,,,,,,,VFR,,,,,,,,,,,,METAR,6.0
MROC 140300Z 11014KT CAVOK 21/12 A3006 NOSIG,MROC,2019-01-14T03:00:00Z,10.0,-84.22,21.0,12.0,110,14,,6.21,30.059055,,,,,,TRUE,,,,,CAVOK,,,,,,,,VFR,,,,,,,,,,,,METAR,920.0
SMJP 140300Z 19002KT 9999 FEW010 SCT030 23/23 Q1014 NOSIG,SMJP,2019-01-14T03:00:00Z,5.45,-55.17,23.0,23.0,190,2,,6.21,29.940945,,,,,,TRUE,,,,,FEW,1000,SCT,3000,,,,,VFR,,,,,,,,,,,,METAR,16.0
NGFU 140300Z 35006KT 9999 SCT015 FEW017 BKN110 30/25 Q1004,NGFU,2019-01-14T03:00:00Z,-8.52,179.22,30.0,25.0,350,6,,6.21,29.64567,,,,,,,,,,,SCT,1500,FEW,1700,BKN,11000,,,VFR,,,,,,,,,,,,METAR,1.0
CWEB 140300Z AUTO 06007KT 07/06 RMK AO1 SLP201 T00660062 58001,CWEB,2019-01-14T03:00:00Z,49.38,-126.55,6.6,6.2,60,7,,,,1020.1,,TRUE,TRUE,,,,,,,,,,,,,,,,-0.1,,,,,,,,,,,METAR,7.0
CMGB 140300Z AUTO 00000KT M21/M23 RMK AO1 SOG 16 7008 SLP323 T12131234,CMGB,2019-01-14T03:00:00Z,45.37,-72.77,-21.3,-23.4,0,0,,,,1032.3,,TRUE,TRUE,,,,,,,,,,,,,,,,,,,,,,,,,,,METAR,86.0
CMFM 140300Z AUTO 22001KT M25/M27 RMK AO1 SOG 63 8011 SLP282 T12451272,CMFM,2019-01-14T03:00:00Z,47.32,-71.15,-24.5,-27.2,220,1,,,,1028.2,,TRUE,TRUE,,,,,,,,,,,,,,,,,,,,,,,,,,,METAR,672.0
CWWB 140300Z AUTO 05014KT M04/M08 RMK AO1 PK WND 04018/0205 SLP296 T10401081 58002,CWWB,2019-01-14T03:00:00Z,43.3,-79.78,-4.0,-8.1,50,14,,,,1029.6,,TRUE,TRUE,,,,,,,,,,,,,,,,-0.2,,,,,,,,,,,METAR,76.0
CWDV 140300Z AUTO 28007KT M04/M06 RMK AO1 SOG 41 0002 SLP228 T10441056,CWDV,2019-01-14T03:00:00Z,49.02,-90.47,-4.4,-5.6,280,7,,,,1022.8,,TRUE,TRUE,,,,,,,,,,,,,,,,,,,,,,,,,,,METAR,489.0
CWPC 140300Z AUTO 08008KT M08/M10 RMK AO1 SLP298 T10821095 51001,CWPC,2019-01-14T03:00:00Z,42.87,-79.25,-8.2,-9.5,80,8,,,,1029.8,,TRUE,TRUE,,,,,,,,,,,,,,,,0.1,,,,,,,,,,,METAR,184.0
CWLS 140300Z AUTO 09002KT M13/M16 RMK AO1 SOG 10 8010 SLP296 T11271155,CWLS,2019-01-14T03:00:00Z,43.97,-80.75,-12.7,-15.5,90,2,,,,1029.6,,TRUE,TRUE,,,,,,,,,,,,,,,,,,,,,,,,,,,METAR,415.0
CWBE 140300Z AUTO 06003KT M13/M19 RMK AO1 SLP318 T11301194 56016,CWBE,2019-01-14T03:00:00Z,45.98,-81.48,-13.0,-19.4,60,3,,,,1031.8,,TRUE,TRUE,,,,,,,,,,,,,,,,-1.6,,,,,,,,,,,METAR,196.0
CTCK 140300Z AUTO 16002KT M19/M20 RMK AO1 SOG 06 6011 SLP328 T11881203,CTCK,2019-01-14T03:00:00Z,45.25,-74.97,-18.8,-20.3,160,2,,,,1032.8,,TRUE,TRUE,,,,,,,,,,,,,,,,,,,,,,,,,,,METAR,85.0
CWWZ 140300Z AUTO 12010KT M05/M09 RMK AO1 SOG 03 5000 SLP303 T10451086,CWWZ,2019-01-14T03:00:00Z,43.25,-79.22,-4.5,-8.6,120,10,,,,1030.3,,TRUE,TRUE,,,,,,,,,,,,,,,,,,,,,,,,,,,METAR,79.0
CWPO 140300Z AUTO 30007KT M08/M10 RMK AO1 SLP267 T10831101 53004,CWPO,2019-01-14T03:00:00Z,49.2,-98.9,-8.3,-10.1,300,7,,,,1026.7,,TRUE,TRUE,,,,,,,,,,,,,,,,0.4,,,,,,,,,,,METAR,470.0
CWNZ 140300Z AUTO 22008KT M03/M05 RMK AO1 SOG 46 7018 SLP211 T10251052 50001,CWNZ,2019-01-14T03:00:00Z,49.75,-84.17,-2.5,-5.2,220,8,,,,1021.1,,TRUE,TRUE,,,,,,,,,,,,,,,,0.1,,,,,,,,,,,METAR,256.0
CWNC 140300Z AUTO 05005KT M11/M15 RMK AO1 SOG 01 6002 SLP309 T11071153,CWNC,2019-01-14T03:00:00Z,43.95,-78.17,-10.7,-15.3,50,5,,,,1030.9,,TRUE,TRUE,,,,,,,,,,,,,,,,,,,,,,,,,,,METAR,78.0
CWIK 140300Z AUTO 32001KT M10/M11 RMK AO1 SOG 06 1008 SLP270 T10961114,CWIK,2019-01-14T03:00:00Z,50.37,-102.58,-9.6,-11.4,320,1,,,,1027.0,,TRUE,TRUE,,,,,,,,,,,,,,,,,,,,,,,,,,,METAR,602.0
CWBU 140300Z AUTO 05006KT M08/M10 RMK AO1 SOG 24 2012 SLP291 T10801102,CWBU,2019-01-14T03:00:00Z,53.33,-104.02,-8.0,-10.2,50,6,,,,1029.1,,TRUE,TRUE,,,,,,,,,,,,,,,,,,,,,,,,,,,METAR,373.0
CWMQ 140300Z AUTO 26001KT M09/M11 RMK AO1 SLP268 T10921114 53012,CWMQ,2019-01-14T03:00:00Z,49.9,-109.47,-9.2,-11.4,260,1,,,,1026.8,,TRUE,TRUE,,,,,,,,,,,,,,,,1.2,,,,,,,,,,,METAR,767.0
CWMM 140300Z AUTO 00000KT 03/02 RMK AO1 SLP210 T00340017 56001,CWMM,2019-01-14T03:00:00Z,49.22,-122.68,3.4,1.7,0,0,,,,1021.0,,TRUE,TRUE,,,,,,,,,,,,,,,,-0.1,,,,,,,,,,,METAR,5.0
CWMJ 140300Z AUTO 00000KT M22/M24 RMK AO1 SOG 32 6010 SLP321 T12191240,CWMJ,2019-01-14T03:00:00Z,46.27,-76.0,-21.9,-24.0,0,0,,,,1032.1,,TRUE,TRUE,,,,,,,,,,,,,,,,,,,,,,,,,,,METAR,200.0
CWLM 140300Z AUTO 02005KT 06/04 RMK AO1 SLP208 T00610043 53001,CWLM,2019-01-14T03:00:00Z,48.42,-123.32,6.1,4.3,20,5,,,,1020.8,,TRUE,TRUE,,,,,,,,,,,,,,,,0.1,,,,,,,,,,,METAR,70.0
CWLE 140300Z AUTO 07004KT M06/M08 RMK AO1 SOG 14 1008 SLP264 T10551075,CWLE,2019-01-14T03:00:00Z,50.95,-107.15,-5.5,-7.5,70,4,,,,1026.4,,TRUE,TRUE,,,,,,,,,,,,,,,,,,,,,,,,,,,METAR,665.0
CWKX 140300Z AUTO 06002KT M09/M11 RMK AO1 SOG 38 1004 SLP228 T10911109,CWKX,2019-01-14T03:00:00Z,58.43,-130.02,-9.1,-10.9,60,2,,,,1022.8,,TRUE,TRUE,,,,,,,,,,,,,,,,,,,,,,,,,,,METAR,793.0
CWKH 140300Z AUTO 07/01 RMK AO1 SLP197 T00650012 55001,CWKH,2019-01-14T03:00:00Z,48.57,-123.55,6.5,1.2,,,,,,1019.7,,TRUE,TRUE,,,,,,,,,,,,,,,,-0.1,,,,,,,,,,,METAR,366.0
CWKG 140300Z AUTO 27002KT M12/M14 RMK AO1 SOG 06 1007 SLP282 T11241137,CWKG,2019-01-14T03:00:00Z,44.43,-65.2,-12.4,-13.7,270,2,,,,1028.2,,TRUE,TRUE,,,,,,,,,,,,,,,,,,,,,,,,,,,METAR,165.0
CWJX 140300Z AUTO 22005KT M11/M13 RMK AO1 SOG 03 1004 SLP260 T11101128,CWJX,2019-01-14T03:00:00Z,50.88,-109.5,-11.0,-12.8,220,5,,,,1026.0,,TRUE,TRUE,,,,,,,,,,,,,,,,,,,,,,,,,,,METAR,672.0
CWJW 140300Z AUTO 20003KT M11/M12 RMK AO1 SOG 17 3003 SLP319 T11091117,CWJW,2019-01-14T03:00:00Z,52.93,-118.03,-10.9,-11.7,200,3,,,,1031.9,,TRUE,TRUE,,,,,,,,,,,,,,,,,,,,,,,,,,,METAR,1020.0
CWJV 140300Z AUTO 11002KT M01/M02 RMK AO1 SLP299 T10101018 51004,CWJV,2019-01-14T03:00:00Z,50.22,-119.18,-1.0,-1.8,110,2,,,,1029.9,,TRUE,TRUE,,,,,,,,,,,,,,,,0.4,,,,,,,,,,,METAR,556.0
CWJT 140300Z AUTO 06001KT M19/M21 RMK AO1 SLP334 T11881208 55006,CWJT,2019-01-14T03:00:00Z,46.07,-74.57,-18.8,-20.8,60,1,,,,1033.4,,TRUE,TRUE,,,,,,,,,,,,,,,,-0.6,,,,,,,,,,,METAR,239.0
CWJR 140300Z AUTO 05002KT M02/M04 RMK AO1 SOG 04 1005 SLP322 T10241035,CWJR,2019-01-14T03:00:00Z,49.07,-116.5,-2.4,-3.5,50,2,,,,1032.2,,TRUE,TRUE,,,,,,,,,,,,,,,,,,,,,,,,,,,METAR,646.0
CWJI 140300Z AUTO 11004KT M04/M07 RMK AO1 SLP260 T10401070 52004,CWJI,2019-01-14T03:00:00Z,49.72,-105.92,-4.0,-7.0,110,4,,,,1026.0,,TRUE,TRUE,,,,,,,,,,,,,,,,0.4,,,,,,,,,,,METAR,724.0
CXKE 140300Z AUTO 06001KT M14/M16 RMK AO1 SOG 08 6010 SLP319 T11431162,CXKE,2019-01-14T03:00:00Z,45.0,-75.63,-14.3,-16.2,60,1,,,,1031.9,,TRUE,TRUE,,,,,,,,,,,,,,,,,,,,,,,,,,,METAR,99.0
CXKA 140300Z AUTO 23010KT M06/M08 RMK AO1 SOG 38 6019 SLP229 T10611083,CXKA,2019-01-14T03:00:00Z,49.4,-82.45,-6.1,-8.3,230,10,,,,1022.9,,TRUE,TRUE,,,,,,,,,,,,,,,,,,,,,,,,,,,METAR,218.0
CXHM 140300Z AUTO 06005KT M05/M07 RMK AO1 SLP295 T10461073 57003,CXHM,2019-01-14T03:00:00Z,43.28,-79.9,-4.6,-7.3,60,5,,,,1029.5,,TRUE,TRUE,,,,,,,,,,,,,,,,-0.3,,,,,,,,,,,METAR,107.0
CWZS 140300Z AUTO 30005KT M14/M17 RMK AO1 SLP275 T11361168 55002,CWZS,2019-01-14T03:00:00Z,48.47,-67.43,-13.6,-16.8,300,5,,,,1027.5,,TRUE,TRUE,,,,,,,,,,,,,,,,-0.2,,,,,,,,,,,METAR,166.0
CWZQ 140300Z AUTO 28018KT M05/M05 RMK AO1 PK WND 27023/0249 SLP245 T10501050 53002,CWZQ,2019-01-14T03:00:00Z,46.53,-61.05,-5.0,-5.0,280,18,,,,1024.5,,TRUE,TRUE,,,,,,,,,,,,,,,,0.2,,,,,,,,,,,METAR,17.0
CWZO 140300Z AUTO 07005KT RMK AO1,CWZO,2019-01-14T03:00:00Z,48.55,-123.23,,,70,5,,,,,,TRUE,TRUE,,,,,,,,,,,,,,,,,,,,,,,,,,,METAR,1.0
CWZA 140300Z AUTO 01007G18KT 08/01 RMK AO1 PK WND 00019/0243 SLP209 T00830010 50002,CWZA,2019-01-14T03:00:00Z,49.25,-121.77,8.3,1.0,10,7,18,,,1020.9,,TRUE,TRUE,,,,,,,,,,,,,,,,0.2,,,,,,,,,,,METAR,15.0
CWYY 140300Z AUTO 16002KT M01/M02 RMK AO1 SLP307 T10131023 50002,CWYY,2019-01-14T03:00:00Z,49.03,-119.43,-1.3,-2.3,160,2,,,,1030.7,,TRUE,TRUE,,,,,,,,,,,,,,,,0.2,,,,,,,,,,,METAR,283.0
CWYJ 140300Z AUTO 35003KT 07/05 RMK AO1 SLP208 T00650049 51001,CWYJ,2019-01-14T03:00:00Z,48.45,-123.3,6.5,4.9,350,3,,,,1020.8,,TRUE,TRUE,,,,,,,,,,,,,,,,0.1,,,,,,,,,,,METAR,39.0
CWDK 140300Z AUTO 32004KT M03/M12 RMK AO1 SLP281 T10251118 51012,CWDK,2019-01-14T03:00:00Z,50.02,-113.62,-2.5,-11.8,320,4,,,,1028.1,,TRUE,TRUE,,,,,,,,,,,,,,,,1.2,,,,,,,,,,,METAR,1012.0
CWDJ 140300Z AUTO 05003KT M05/M09 RMK AO1 SLP270 T10521086 51005,CWDJ,2019-01-14T03:00:00Z,50.4,-104.58,-5.2,-8.6,50,3,,,,1027.0,,TRUE,TRUE,,,,,,,,,,,,,,,,0.5,,,,,,,,,,,METAR,573.0
CWCO 140300Z AUTO 17003KT M12/M16 RMK AO1 SLP308 T11231156 58012,CWCO,2019-01-14T03:00:00Z,44.45,-80.17,-12.3,-15.6,170,3,,,,1030.8,,TRUE,TRUE,,,,,,,,,,,,,,,,-1.2,,,,,,,,,,,METAR,221.0
CWCJ 140300Z AUTO 23008G20KT M00/M03 RMK AO1 SOG 24 6016 PK WND 23020/0252 SLP228 T10011030,CWCJ,2019-01-14T03:00:00Z,48.6,-86.28,-0.1,-3.0,230,8,20,,,1022.8,,TRUE,TRUE,,,,,,,,,,,,,,,,,,,,,,,,,,,METAR,206.0
CWBZ 140300Z AUTO 12002KT M13/M16 RMK AO1 SLP320 T11251159 57012,CWBZ,2019-01-14T03:00:00Z,45.12,-74.27,-12.5,-15.9,120,2,,,,1032.0,,TRUE,TRUE,,,,,,,,,,,,,,,,-1.2,,,,,,,,,,,METAR,49.0
CWBT 140300Z AUTO 33002KT M20/M22 RMK AO1 SLP241 T12041223 50000,CWBT,2019-01-14T03:00:00Z,50.27,-64.23,-20.4,-22.3,330,2,,,,1024.1,,TRUE,TRUE,,,,,,,,,,,,,,,,0.0,,,,,,,,,,,METAR,11.0
CWBS 140300Z AUTO 20006KT M13/M14 RMK AO1 T11301144,CWBS,2019-01-14T03:00:00Z,46.18,-72.92,-13.0,-14.4,200,6,,,,,,TRUE,TRUE,,,,,,,,,,,,,,,,,,,,,,,,,,,METAR,16.0
CWBO 140300Z AUTO 00000KT M08/M09 RMK AO1 SLP266 T10771091 51015,CWBO,2019-01-14T03:00:00Z,50.53,-111.83,-7.7,-9.1,0,0,,,,1026.6,,TRUE,TRUE,,,,,,,,,,,,,,,,1.5,,,,,,,,,,,METAR,747.0
CWBA 140300Z AUTO 18004KT M17/M19 RMK AO1 SOG 51 T11741186,CWBA,2019-01-14T03:00:00Z,46.72,-79.1,-17.4,-18.6,180,4,,,,,,TRUE,TRUE,,,,,,,,,,,,,,,,,,,,,,,,,,,METAR,181.0
CWAV 140300Z AUTO 27003KT M05/M10 RMK AO1 SLP279 T10471102 51008,CWAV,2019-01-14T03:00:00Z,51.77,-114.67,-4.7,-10.2,270,3,,,,1027.9,,TRUE,TRUE,,,,,,,,,,,,,,,,0.8,,,,,,,,,,,METAR,1114.0
CWAQ 140300Z AUTO 33001KT M06/M08 RMK AO1 SLP252 T10631075 51007,CWAQ,2019-01-14T03:00:00Z,49.05,-105.48,-6.3,-7.5,330,1,,,,1025.2,,TRUE,TRUE,,,,,,,,,,,,,,,,0.7,,,,,,,,,,,METAR,756.0
CWAF 140300Z AUTO 30022KT M12/M15 RMK AO1 PK WND 31029/0207 T11221154,CWAF,2019-01-14T03:00:00Z,48.07,-69.53,-12.2,-15.4,300,22,,,,,,TRUE,TRUE,,,,,,,,,,,,,,,,,,,,,,,,,,,METAR,5.0
CZSP 140300Z AUTO 24005KT M12/M14 RMK AO1 SOG 28 8001 SLP268 T11181139,CZSP,2019-01-14T03:00:00Z,46.45,-62.58,-11.8,-13.9,240,5,,,,1026.8,,TRUE,TRUE,,,,,,,,,,,,,,,,,,,,,,,,,,,METAR,30.0
CZCR 140300Z AUTO 25005KT M12/M16 RMK AO1 SOG 35 6003 SLP276 T11241159,CZCR,2019-01-14T03:00:00Z,47.97,-66.32,-12.4,-15.9,250,5,,,,1027.6,,TRUE,TRUE,,,,,,,,,,,,,,,,,,,,,,,,,,,METAR,38.0
CWXI 140300Z AUTO 28015KT M08/M12 RMK AO1 PK WND 28021/0207 SLP143 T10751123 52011,CWXI,2019-01-14T03:00:00Z,51.02,-57.1,-7.5,-12.3,280,15,,,,1014.3,,TRUE,TRUE,,,,,,,,,,,,,,,,1.1,,,,,,,,,,,METAR,6.0
CWBK 140300Z AUTO 27007KT M13/M16 RMK AO1 SOG 74 3003 SLP269 T11321158,CWBK,2019-01-14T03:00:00Z,45.77,-62.67,-13.2,-15.8,270,7,,,,1026.9,,TRUE,TRUE,,,,,,,,,,,,,,,,,,,,,,,,,,,METAR,2.0
CERM 140300Z AUTO 31001KT M16/M18 RMK AO1 SOG 47 8002 SLP292 T11621184 50012,CERM,2019-01-14T03:00:00Z,47.42,-68.32,-16.2,-18.4,310,1,,,,1029.2,,TRUE,TRUE,,,,,,,,,,,,,,,,1.2,,,,,,,,,,,METAR,154.0
CZSM 140300Z AUTO 04001KT M30/M34 RMK AO1 SOG 39 8006 SLP344 T13041338,CZSM,2019-01-14T03:00:00Z,60.03,-111.93,-30.4,-33.8,40,1,,,,1034.4,,TRUE,TRUE,,,,,,,,,,,,,,,,,,,,,,,,,,,METAR,203.0
CZHY 140300Z AUTO 09005KT M25/M28 RMK AO1 SOG 22 7022 SLP327 T12491282,CZHY,2019-01-14T03:00:00Z,60.83,-115.78,-24.9,-28.2,90,5,,,,1032.7,,TRUE,TRUE,,,,,,,,,,,,,,,,,,,,,,,,,,,METAR,164.0
CZFS 140300Z AUTO 11006KT M25/M28 RMK AO1 SOG 34 6031 SLP303 T12511278,CZFS,2019-01-14T03:00:00Z,61.77,-121.23,-25.1,-27.8,110,6,,,,1030.3,,TRUE,TRUE,,,,,,,,,,,,,,,,,,,,,,,,,,,METAR,168.0
CZEV 140300Z AUTO 10007KT M31/M34 RMK AO1 SOG 49 6011 SLP280 T13061339,CZEV,2019-01-14T03:00:00Z,68.32,-133.52,-30.6,-33.9,100,7,,,,1028.0,,TRUE,TRUE,,,,,,,,,,,,,,,,,,,,,,,,,,,METAR,103.0
CWMT 140300Z AUTO 08006KT M35/M38 RMK AO1 SOG 32 8017 SLP343 T13491383,CWMT,2019-01-14T03:00:00Z,63.13,-117.25,-34.9,-38.3,80,6,,,,1034.3,,TRUE,TRUE,,,,,,,,,,,,,,,,,,,,,,,,,,,METAR,271.0
CWZW 140300Z AUTO 05003KT M09/M11 RMK AO1 SOG 26 3005 SLP221 T10851110,CWZW,2019-01-14T03:00:00Z,60.17,-132.73,-8.5,-11.0,50,3,,,,1022.1,,TRUE,TRUE,,,,,,,,,,,,,,,,,,,,,,,,,,,METAR,705.0
CWVT 140300Z AUTO 04004KT M13/M15 RMK AO1 SOG 32 1003 SLP314 T11341151,CWVT,2019-01-14T03:00:00Z,55.82,-108.42,-13.4,-15.1,40,4,,,,1031.4,,TRUE,TRUE,,,,,,,,,,,,,,,,,,,,,,,,,,,METAR,434.0
CWRM 140300Z AUTO 23002KT M05/M09 RMK AO1 SOG 09 1004 SLP273 T10491090,CWRM,2019-01-14T03:00:00Z,52.42,-114.92,-4.9,-9.0,230,2,,,,1027.3,,TRUE,TRUE,,,,,,,,,,,,,,,,,,,,,,,,,,,METAR,988.0
CWZG 140300Z AUTO 23005KT M07/M09 RMK AO1 SOG 21 1009 SLP319 T10731093,CWZG,2019-01-14T03:00:00Z,51.2,-115.53,-7.3,-9.3,230,5,,,,1031.9,,TRUE,TRUE,,,,,,,,,,,,,,,,,,,,,,,,,,,METAR,1397.0
CWRO 140300Z AUTO 14020KT 08/07 RMK AO1 1PAST HR 8002 PK WND 14023/0241 SLP167 P0000 T00780074 50002,CWRO,2019-01-14T03:00:00Z,54.17,-131.67,7.8,7.4,140,20,,,,1016.7,,TRUE,TRUE,,,,,,,,,,,,,,,,0.2,,,,,0.005,,,,,,METAR,7.0
CWLP 140300Z AUTO 16009KT 09/06 RMK AO1 SLP195 T00890055 57007,CWLP,2019-01-14T03:00:00Z,50.93,-127.63,8.9,5.5,160,9,,,,1019.5,,TRUE,TRUE,,,,,,,,,,,,,,,,-0.7,,,,,,,,,,,METAR,17.0
CWJD 140300Z AUTO 32002KT M09/M10 RMK AO1 SOG 27 1014 SLP284 T10871100,CWJD,2019-01-14T03:00:00Z,53.17,-99.27,-8.7,-10.0,320,2,,,,1028.4,,TRUE,TRUE,,,,,,,,,,,,,,,,,,,,,,,,,,,METAR,223.0
CWEQ 140300Z AUTO 06003KT M07/M10 RMK AO1 SOG 13 3011 SLP277 T10731096,CWEQ,2019-01-14T03:00:00Z,52.12,-101.22,-7.3,-9.6,60,3,,,,1027.7,,TRUE,TRUE,,,,,,,,,,,,,,,,,,,,,,,,,,,METAR,335.0
CWLB 140300Z AUTO 00000KT M02/M02 RMK AO1 SOG 22 2004 SLP268 T10171020,CWLB,2019-01-14T03:00:00Z,54.77,-112.02,-1.7,-2.0,0,0,,,,1026.8,,TRUE,TRUE,,,,,,,,,,,,,,,,,,,,,,,,,,,METAR,567.0
CWCT 140300Z AUTO 33006KT M09/M10 RMK AO1 SOG 02 1009 SLP270 T10871099,CWCT,2019-01-14T03:00:00Z,52.07,-111.47,-8.7,-9.9,330,6,,,,1027.0,,TRUE,TRUE,,,,,,,,,,,,,,,,,,,,,,,,,,,METAR,791.0
CWOY 140300Z AUTO 03001KT M07/M08 RMK AO1 SOG 02 2009 SLP277 T10721075,CWOY,2019-01-14T03:00:00Z,51.77,-104.2,-7.2,-7.5,30,1,,,,1027.7,,TRUE,TRUE,,,,,,,,,,,,,,,,,,,,,,,,,,,METAR,560.0
CWKO 140300Z AUTO 12006KT 01/M05 RMK AO1 SOG 15 0002 SLP242 T00051046,CWKO,2019-01-14T03:00:00Z,49.17,-105.97,0.5,-4.6,120,6,,,,1024.2,,TRUE,TRUE,,,,,,,,,,,,,,,,,,,,,,,,,,,METAR,917.0
CWEH 140300Z AUTO 04004KT M03/M07 RMK AO1 SLP232 T10281068 51005,CWEH,2019-01-14T03:00:00Z,49.42,-108.97,-2.8,-6.8,40,4,,,,1023.2,,TRUE,TRUE,,,,,,,,,,,,,,,,0.5,,,,,,,,,,,METAR,1078.0
CWJH 140300Z AUTO 33002KT M19/M21 RMK AO1 2PAST HR SOG 45 1009 SLP317 P0001 T11941213 50002,CWJH,2019-01-14T03:00:00Z,56.32,-103.27,-19.4,-21.3,330,2,,,,1031.7,,TRUE,TRUE,,,,,,,,,,,,,,,,0.2,,,,,0.01,,,,,,METAR,344.0
CWJC 140300Z AUTO 33016KT M32/M36 RMK AO1 PK WND 33020/0250 SLP310 T13241358 53014,CWJC,2019-01-14T03:00:00Z,61.13,-100.9,-32.4,-35.8,330,16,,,,1031.0,,TRUE,TRUE,,,,,,,,,,,,,,,,1.4,,,,,,,,,,,METAR,357.0
CWJB 140300Z AUTO 21003KT M15/M20 RMK AO1 SOG 52 T11511196,CWJB,2019-01-14T03:00:00Z,46.78,-71.27,-15.1,-19.6,210,3,,,,,,TRUE,TRUE,,,,,,,,,,,,,,,,,,,,,,,,,,,METAR,91.0
CWIZ 140300Z AUTO 17002KT M18/M20 RMK AO1 SOG 10 T11751204,CWIZ,2019-01-14T03:00:00Z,45.28,-73.33,-17.5,-20.4,170,2,,,,,,TRUE,TRUE,,,,,,,,,,,,,,,,,,,,,,,,,,,METAR,45.0
CWIW 140300Z AUTO 01004KT M06/M08 RMK AO1 SOG 04 2009 SLP276 T10611082,CWIW,2019-01-14T03:00:00Z,51.67,-105.4,-6.1,-8.2,10,4,,,,1027.6,,TRUE,TRUE,,,,,,,,,,,,,,,,,,,,,,,,,,,METAR,526.0
CWIT 140300Z AUTO 15001KT M17/M19 RMK AO1 3PAST HR SOG 11 8011 SLP314 P0001 T11681191 50017,CWIT,2019-01-14T03:00:00Z,45.17,-73.67,-16.8,-19.1,150,1,,,,1031.4,,TRUE,TRUE,,,,,,,,,,,,,,,,1.7,,,,,0.01,,,,,,METAR,52.0
CWIS 140300Z AUTO 12001KT M25/M27 RMK AO1 SOG 131 7009 SLP273 T12481272,CWIS,2019-01-14T03:00:00Z,47.28,-70.63,-24.8,-27.2,120,1,,,,1027.3,,TRUE,TRUE,,,,,,,,,,,,,,,,,,,,,,,,,,,METAR,719.0
CWIP 140300Z AUTO 26007KT M14/ RMK AO1 T1140,CWIP,2019-01-14T03:00:00Z,50.17,-66.43,-14.0,,260,7,,,,,,TRUE,TRUE,,,,,,,,,,,,,,,,,,,,,,,,,,,METAR,25.0
CWIJ 140300Z AUTO 27001KT M36/M39 RMK AO1 SOG 60 8001 SLP366 T13591394,CWIJ,2019-01-14T03:00:00Z,65.77,-111.23,-35.9,-39.4,270,1,,,,1036.6,,TRUE,TRUE,,,,,,,,,,,,,,,,,,,,,,,,,,,METAR,500.0
CWII 140300Z AUTO 34005KT M07/M08 RMK AO1 SLP246 T10661075 53002,CWII,2019-01-14T03:00:00Z,50.7,-96.57,-6.6,-7.5,340,5,,,,1024.6,,TRUE,TRUE,,,,,,,,,,,,,,,,0.2,,,,,,,,,,,METAR,220.0
CWIG 140300Z AUTO 21016KT RMK AO1 PK WND 21020/0223,CWIG,2019-01-14T03:00:00Z,47.07,-70.53,,,210,16,,,,,,TRUE,TRUE,,,,,,,,,,,,,,,,,,,,,,,,,,,METAR,18.0
CWID 140300Z AUTO 11003KT M26/M29 RMK AO1 SLP330 T12561290 56021,CWID,2019-01-14T03:00:00Z,61.32,-117.6,-25.6,-29.0,110,3,,,,1033.0,,TRUE,TRUE,,,,,,,,,,,,,,,,-2.1,,,,,,,,,,,METAR,161.0
CWHV 140300Z AUTO 22002KT M17/M19 RMK AO1 SLP307 T11681190 57005,CWHV,2019-01-14T03:00:00Z,46.2,-70.77,-16.8,-19.0,220,2,,,,1030.7,,TRUE,TRUE,,,,,,,,,,,,,,,,-0.5,,,,,,,,,,,METAR,229.0
CWHT 140300Z AUTO 04001KT M25/M28 RMK AO1 SOG 07 3006 SLP248 T12531278,CWHT,2019-01-14T03:00:00Z,60.77,-137.58,-25.3,-27.8,40,1,,,,1024.8,,TRUE,TRUE,,,,,,,,,,,,,,,,,,,,,,,,,,,METAR,599.0
CWHQ 140300Z AUTO 32002KT M21/ RMK AO1 T1207,CWHQ,2019-01-14T03:00:00Z,46.68,-71.97,-20.7,,320,2,,,,,,TRUE,TRUE,,,,,,,,,,,,,,,,,,,,,,,,,,,METAR,55.0
CWHI 140300Z AUTO 26005KT M08/M10 RMK AO1 T10791103,CWHI,2019-01-14T03:00:00Z,51.7,-113.22,-7.9,-10.3,260,5,,,,,,TRUE,TRUE,,,,,,,,,,,,,,,,,,,,,,,,,,,METAR,907.0
CWGY 140300Z AUTO M11/M13 RMK AO1 SLP278 T11101126 53012,CWGY,2019-01-14T03:00:00Z,51.67,-110.2,-11.0,-12.6,,,,,,1027.8,,TRUE,TRUE,,,,,,,,,,,,,,,,1.2,,,,,,,,,,,METAR,707.0
CWGX 140300Z AUTO 31014G19KT M19/M24 RMK AO1 SOG 16 2019 PK WND 32020/0247 SLP243 T11881241,CWGX,2019-01-14T03:00:00Z,56.35,-94.7,-18.8,-24.1,310,14,19,,,1024.3,,TRUE,TRUE,,,,,,,,,,,,,,,,,,,,,,,,,,,METAR,145.0
CWGW 140300Z AUTO 02006KT M08/M09 RMK AO1 SOG 12 1004 SLP338 T10751088,CWGW,2019-01-14T03:00:00Z,49.75,-114.9,-7.5,-8.8,20,6,,,,1033.8,,TRUE,TRUE,,,,,,,,,,,,,,,,,,,,,,,,,,,METAR,1137.0
CWGT 140300Z AUTO 16002KT 07/06 RMK AO1 SLP210 T00730062 58002,CWGT,2019-01-14T03:00:00Z,49.48,-124.43,7.3,6.2,160,2,,,,1021.0,,TRUE,TRUE,,,,,,,,,,,,,,,,-0.2,,,,,,,,,,,METAR,5.0
CWGR 140300Z AUTO 25011KT M07/M09 RMK AO1 SLP245 T10741091 52003,CWGR,2019-01-14T03:00:00Z,47.42,-61.8,-7.4,-9.1,250,11,,,,1024.5,,TRUE,TRUE,,,,,,,,,,,,,,,,0.3,,,,,,,,,,,METAR,60.0
CXWN 140300Z AUTO 32003KT M06/M09 RMK AO1 SLP249 T10641091 53003,CXWN,2019-01-14T03:00:00Z,49.88,-97.13,-6.4,-9.1,320,3,,,,1024.9,,TRUE,TRUE,,,,,,,,,,,,,,,,0.3,,,,,,,,,,,METAR,230.0
CXTP 140300Z AUTO 24006KT M09/M12 RMK AO1 SOG 35 1010 SLP166 T10911118,CXTP,2019-01-14T03:00:00Z,48.55,-53.97,-9.1,-11.8,240,6,,,,1016.6,,TRUE,TRUE,,,,,,,,,,,,,,,,,,,,,,,,,,,METAR,107.0
CXSH 140300Z AUTO 33001KT M18/M21 RMK AO1 SLP315 T11821206 58007,CXSH,2019-01-14T03:00:00Z,46.58,-72.73,-18.2,-20.6,330,1,,,,1031.5,,TRUE,TRUE,,,,,,,,,,,,,,,,-0.7,,,,,,,,,,,METAR,110.0
CXRH 140300Z AUTO 25009G16KT RMK AO1,CXRH,2019-01-14T03:00:00Z,49.57,-57.88,,,250,9,16,,,,,TRUE,TRUE,,,,,,,,,,,,,,,,,,,,,,,,,,,METAR,68.0
CXOX 140300Z AUTO 05008KT M11/M12 RMK AO1 SOG 46 3010 SLP300 T11051124,CXOX,2019-01-14T03:00:00Z,55.15,-105.27,-10.5,-12.4,50,8,,,,1030.0,,TRUE,TRUE,,,,,,,,,,,,,,,,,,,,,,,,,,,METAR,379.0
CXNM 140300Z AUTO 29010G15KT M10/M10 RMK AO1 SOG 217 PK WND 31017/0203 T10971103,CXNM,2019-01-14T03:00:00Z,46.82,-60.67,-9.7,-10.3,290,10,15,,,,,TRUE,TRUE,,,,,,,,,,,,,,,,,,,,,,,,,,,METAR,439.0
CXMY 140300Z AUTO M17/M18 RMK AO1 T11671175,CXMY,2019-01-14T03:00:00Z,44.98,-62.48,-16.7,-17.5,,,,,,,,TRUE,TRUE,,,,,,,,,,,,,,,,,,,,,,,,,,,METAR,40.0
CXMM 140300Z AUTO 33003KT M15/M18 RMK AO1 SOG 27 8002 SLP296 T11541179,CXMM,2019-01-14T03:00:00Z,56.65,-111.22,-15.4,-17.9,330,3,,,,1029.6,,TRUE,TRUE,,,,,,,,,,,,,,,,,,,,,,,,,,,METAR,369.0
CXMI 140300Z AUTO 03003KT M11/ RMK AO1 SLP280 T1107 52013,CXMI,2019-01-14T03:00:00Z,44.6,-63.53,-10.7,,30,3,,,,1028.0,,TRUE,TRUE,,,,,,,,,,,,,,,,1.3,,,,,,,,,,,METAR,15.0
CXMD 140300Z AUTO 32003KT M06/M09 RMK AO1 SOG 15 8002 SLP248 T10581086,CXMD,2019-01-14T03:00:00Z,49.22,-98.08,-5.8,-8.6,320,3,,,,1024.8,,TRUE,TRUE,,,,,,,,,,,,,,,,,,,,,,,,,,,METAR,301.0
CXIB 140300Z AUTO 31002KT M05/M10 RMK AO1 SOG 36 1006 SLP242 T10541095 50002,CXIB,2019-01-14T03:00:00Z,46.67,-60.38,-5.4,-9.5,310,2,,,,1024.2,,TRUE,TRUE,,,,,,,,,,,,,,,,0.2,,,,,,,,,,,METAR,8.0
CXHF 140300Z AUTO M18/M21 RMK AO1 T11751206,CXHF,2019-01-14T03:00:00Z,45.83,-75.65,-17.5,-20.6,,,,,,,,TRUE,TRUE,,,,,,,,,,,,,,,,,,,,,,,,,,,METAR,190.0
CXHA 140300Z AUTO 04003KT M07/M09 RMK AO1 SOG 02 1006 SLP290 T10701090,CXHA,2019-01-14T03:00:00Z,42.03,-82.9,-7.0,-9.0,40,3,,,,1029.0,,TRUE,TRUE,,,,,,,,,,,,,,,,,,,,,,,,,,,METAR,191.0
CXGH 140300Z AUTO 34004KT M06/M10 RMK AO1 SLP240 T10611096 53003,CXGH,2019-01-14T03:00:00Z,50.63,-97.0,-6.1,-9.6,340,4,,,,1024.0,,TRUE,TRUE,,,,,,,,,,,,,,,,0.3,,,,,,,,,,,METAR,217.0
CXET 140300Z AUTO 17002KT M15/M17 RMK AO1 SOG 05 6009 SLP303 T11491170 50002,CXET,2019-01-14T03:00:00Z,44.23,-79.78,-14.9,-17.0,170,2,,,,1030.3,,TRUE,TRUE,,,,,,,,,,,,,,,,0.2,,,,,,,,,,,METAR,251.0
CXEG 140300Z AUTO M11/M12 RMK AO1 T11051124,CXEG,2019-01-14T03:00:00Z,53.3,-113.6,-10.5,-12.4,,,,,,,,TRUE,TRUE,,,,,,,,,,,,,,,,,,,,,,,,,,,METAR,715.0
CXEC 140300Z AUTO 23002KT M09/M10 RMK AO1 SOG 24 1003 SLP272 T10861097,CXEC,2019-01-14T03:00:00Z,53.57,-113.52,-8.6,-9.7,230,2,,,,1027.2,,TRUE,TRUE,,,,,,,,,,,,,,,,,,,,,,,,,,,METAR,671.0
CXEA 140300Z AUTO 29005KT M05/M06 RMK AO1 SOG 32 8001 SLP232 T10501055,CXEA,2019-01-14T03:00:00Z,50.63,-93.22,-5.0,-5.5,290,5,,,,1023.2,,TRUE,TRUE,,,,,,,,,,,,,,,,,,,,,,,,,,,METAR,355.0
CXDW 140300Z AUTO 33007KT M07/M09 RMK AO1 SOG 04 3003 SLP255 T10651087,CXDW,2019-01-14T03:00:00Z,49.4,-98.32,-6.5,-8.7,330,7,,,,1025.5,,TRUE,TRUE,,,,,,,,,,,,,,,,,,,,,,,,,,,METAR,341.0
CXDI 140300Z AUTO 08002KT M06/M08 RMK AO1 SLP282 T10611084 50000,CXDI,2019-01-14T03:00:00Z,42.87,-80.55,-6.1,-8.4,80,2,,,,1028.2,,TRUE,TRUE,,,,,,,,,,,,,,,,0.0,,,,,,,,,,,METAR,232.0
CXDE 140300Z AUTO 10013G19KT M30/M33 RMK AO1 SOG 19 6018 PK WND 10021/0233 SLP304 T12951331,CXDE,2019-01-14T03:00:00Z,65.22,-123.43,-29.5,-33.1,100,13,19,,,1030.4,,TRUE,TRUE,,,,,,,,,,,,,,,,,,,,,,,,,,,METAR,213.0
CXCK 140300Z AUTO 30003KT M21/M24 RMK AO1 SOG 12 3009 SLP257 T12121236,CXCK,2019-01-14T03:00:00Z,62.12,-136.2,-21.2,-23.6,300,3,,,,1025.7,,TRUE,TRUE,,,,,,,,,,,,,,,,,,,,,,,,,,,METAR,540.0
CXCA 140300Z AUTO 24002KT M02/M04 RMK AO1 SOG 20 8006 SLP228 T10191038,CXCA,2019-01-14T03:00:00Z,49.15,-88.35,-1.9,-3.8,240,2,,,,1022.8,,TRUE,TRUE,,,,,,,,,,,,,,,,,,,,,,,,,,,METAR,228.0
CXBO 140300Z AUTO 26010KT RMK AO1,CXBO,2019-01-14T03:00:00Z,46.83,-71.2,,,260,10,,,,,,TRUE,TRUE,,,,,,,,,,,,,,,,,,,,,,,,,,,METAR,100.0
CXKT 140300Z AUTO 02001KT M10/M12 RMK AO1 SOG 08 3004 SLP279 T10971120,CXKT,2019-01-14T03:00:00Z,45.07,-64.48,-9.7,-12.0,20,1,,,,1027.9,,TRUE,TRUE,,,,,,,,,,,,,,,,,,,,,,,,,,,METAR,49.0
CXBK 140300Z AUTO 05004KT M10/M11 RMK AO1 SOG 02 1008 SLP257 T10951109,CXBK,2019-01-14T03:00:00Z,50.2,-104.7,-9.5,-10.9,50,4,,,,1025.7,,TRUE,TRUE,,,,,,,,,,,,,,,,,,,,,,,,,,,METAR,580.0
CWST 140300Z AUTO 23011KT M13/M16 RMK AO1 SOG 21 6003 SLP297 T11301164,CWST,2019-01-14T03:00:00Z,47.35,-70.02,-13.0,-16.4,230,11,,,,1029.7,,TRUE,TRUE,,,,,,,,,,,,,,,,,,,,,,,,,,,METAR,31.0
CWSR 140300Z AUTO 14001KT M03/M04 RMK AO1 2PAST HR SOG 18 0002 SLP261 P0001 T10261038 50009,CWSR,2019-01-14T03:00:00Z,53.37,-107.53,-2.6,-3.8,140,1,,,,1026.1,,TRUE,TRUE,,,,,,,,,,,,,,,,0.9,,,,,0.01,,,,,,METAR,584.0
CWSP 140300Z AUTO 08007KT 08/05 RMK AO1 SLP206 T00780053 51005,CWSP,2019-01-14T03:00:00Z,48.38,-123.92,7.8,5.3,80,7,,,,1020.6,,TRUE,TRUE,,,,,,,,,,,,,,,,0.5,,,,,,,,,,,METAR,21.0
CWSL 140300Z AUTO 17002KT M00/M01 RMK AO1 SOG 11 3003 SLP299 T10031010,CWSL,2019-01-14T03:00:00Z,50.7,-119.27,-0.3,-1.0,170,2,,,,1029.9,,TRUE,TRUE,,,,,,,,,,,,,,,,,,,,,,,,,,,METAR,351.0
CWSK 140300Z AUTO 01003KT 05/03 RMK AO1 SLP219 T00490034 51005,CWSK,2019-01-14T03:00:00Z,49.78,-123.17,4.9,3.4,10,3,,,,1021.9,,TRUE,TRUE,,,,,,,,,,,,,,,,0.5,,,,,,,,,,,METAR,60.0
CWSG 140300Z AUTO 24013G18KT M10/M13 RMK AO1 PK WND 26018/0214 SLP270 T11021134 56004,CWSG,2019-01-14T03:00:00Z,49.12,-66.65,-10.2,-13.4,240,13,18,,,1027.0,,TRUE,TRUE,,,,,,,,,,,,,,,,-0.4,,,,,,,,,,,METAR,5.0
CWSD 140300Z AUTO 28004KT M12/M15 RMK AO1 SOG 17 5000 SLP265 T11221149,CWSD,2019-01-14T03:00:00Z,46.42,-63.85,-12.2,-14.9,280,4,,,,1026.5,,TRUE,TRUE,,,,,,,,,,,,,,,,,,,,,,,,,,,METAR,24.0
CWRZ 140300Z AUTO 31010KT M13/M16 RMK AO1 SLP252 T11261162 53005,CWRZ,2019-01-14T03:00:00Z,48.42,-64.32,-12.6,-16.2,310,10,,,,1025.2,,TRUE,TRUE,,,,,,,,,,,,,,,,0.5,,,,,,,,,,,METAR,16.0
CWRY 140300Z AUTO 32007KT M02/M10 RMK AO1 SOG 02 1013 SLP258 T10171101,CWRY,2019-01-14T03:00:00Z,49.12,-112.03,-1.7,-10.1,320,7,,,,1025.8,,TRUE,TRUE,,,,,,,,,,,,,,,,,,,,,,,,,,,METAR,1050.0
CWRT 140300Z AUTO 29002KT M06/M08 RMK AO1 T10631081,CWRT,2019-01-14T03:00:00Z,49.62,-114.47,-6.3,-8.1,290,2,,,,,,TRUE,TRUE,,,,,,,,,,,,,,,,,,,,,,,,,,,METAR,1303.0
CWRK 140300Z AUTO 00000KT M21/M24 RMK AO1 SOG 19 5007 SLP316 T12121238,CWRK,2019-01-14T03:00:00Z,45.07,-77.87,-21.2,-23.8,0,0,,,,1031.6,,TRUE,TRUE,,,,,,,,,,,,,,,,,,,,,,,,,,,METAR,331.0
CWRJ 140300Z AUTO 05005KT M07/M09 RMK AO1 SOG 07 1011 SLP270 T10741093,CWRJ,2019-01-14T03:00:00Z,51.57,-107.92,-7.4,-9.3,50,5,,,,1027.0,,TRUE,TRUE,,,,,,,,,,,,,,,,,,,,,,,,,,,METAR,586.0
CWQV 140300Z AUTO 34014KT M15/M19 RMK AO1 PK WND 27018/0234 T11501194,CWQV,2019-01-14T03:00:00Z,48.27,-70.12,-15.0,-19.4,340,14,,,,,,TRUE,TRUE,,,,,,,,,,,,,,,,,,,,,,,,,,,METAR,1.0
CWQR 140300Z AUTO 33013KT M11/M15 RMK AO1 T11101153,CWQR,2019-01-14T03:00:00Z,50.22,-64.22,-11.0,-15.3,330,13,,,,,,TRUE,TRUE,,,,,,,,,,,,,,,,,,,,,,,,,,,METAR,9.0
CWQP 140300Z AUTO 02009KT M12/M15 RMK AO1 SOG 01 6006 SLP311 T11221147,CWQP,2019-01-14T03:00:00Z,43.83,-77.15,-12.2,-14.7,20,9,,,,1031.1,,TRUE,TRUE,,,,,,,,,,,,,,,,,,,,,,,,,,,METAR,79.0
CWQO 140300Z AUTO 29008KT M12/M17 RMK AO1 T11151169,CWQO,2019-01-14T03:00:00Z,48.42,-68.9,-11.5,-16.9,290,8,,,,,,TRUE,TRUE,,,,,,,,,,,,,,,,,,,,,,,,,,,METAR,1.0
CWQK 140300Z AUTO 12008KT 08/05 RMK AO1 SLP209 T00790051 53003,CWQK,2019-01-14T03:00:00Z,48.3,-123.53,7.9,5.1,120,8,,,,1020.9,,TRUE,TRUE,,,,,,,,,,,,,,,,0.3,,,,,,,,,,,METAR,5.0
CWQH 140300Z AUTO 05004KT M21/M24 RMK AO1 SOG 14 T12051238,CWQH,2019-01-14T03:00:00Z,45.37,-71.82,-20.5,-23.8,50,4,,,,,,TRUE,TRUE,,,,,,,,,,,,,,,,,,,,,,,,,,,METAR,181.0
CWPZ 140300Z AUTO 12003KT M00/M01 RMK AO1 SOG 38 8001 SLP240 T10041006,CWPZ,2019-01-14T03:00:00Z,54.38,-125.97,-0.4,-0.6,120,3,,,,1024.0,,TRUE,TRUE,,,,,,,,,,,,,,,,,,,,,,,,,,,METAR,713.0
CWPR 140300Z AUTO 01001KT M06/M07 RMK AO1 SOG 02 1006 SLP291 T10601068,CWPR,2019-01-14T03:00:00Z,49.47,-120.52,-6.0,-6.8,10,1,,,,1029.1,,TRUE,TRUE,,,,,,,,,,,,,,,,,,,,,,,,,,,METAR,700.0
CWPF 140300Z AUTO 01005KT 07/04 RMK AO1 SLP204 T00710035 51001,CWPF,2019-01-14T03:00:00Z,48.43,-123.43,7.1,3.5,10,5,,,,1020.4,,TRUE,TRUE,,,,,,,,,,,,,,,,0.1,,,,,,,,,,,METAR,12.0
CWPE 140300Z AUTO 36002KT M12/M15 RMK AO1 SOG 01 1003 SLP291 T11231150,CWPE,2019-01-14T03:00:00Z,45.07,-66.47,-12.3,-15.0,360,2,,,,1029.1,,TRUE,TRUE,,,,,,,,,,,,,,,,,,,,,,,,,,,METAR,1.0
CWPD 140300Z AUTO 20001KT M26/M29 RMK AO1 SLP311 T12631288 58009,CWPD,2019-01-14T03:00:00Z,47.57,-71.22,-26.3,-28.8,200,1,,,,1031.1,,TRUE,TRUE,,,,,,,,,,,,,,,,-0.9,,,,,,,,,,,METAR,803.0
CWOE 140300Z AUTO 31011KT M03/M09 RMK AO1 SLP241 T10291087 52007,CWOE,2019-01-14T03:00:00Z,49.12,-110.47,-2.9,-8.7,310,11,,,,1024.1,,TRUE,TRUE,,,,,,,,,,,,,,,,0.7,,,,,,,,,,,METAR,935.0
CWOD 140300Z AUTO 13001KT M23/M25 RMK AO1 SOG 31 6016 SLP291 T12261247,CWOD,2019-01-14T03:00:00Z,48.85,-72.55,-22.6,-24.7,130,1,,,,1029.1,,TRUE,TRUE,,,,,,,,,,,,,,,,,,,,,,,,,,,METAR,137.0
CWOC 140300Z AUTO 32006KT M15/M18 RMK AO1 SLP262 T11451177 51004,CWOC,2019-01-14T03:00:00Z,48.02,-65.32,-14.5,-17.7,320,6,,,,1026.2,,TRUE,TRUE,,,,,,,,,,,,,,,,0.4,,,,,,,,,,,METAR,47.0
CWNQ 140300Z AUTO 09001KT M19/M22 RMK AO1 SLP318 T11901219 56008,CWNQ,2019-01-14T03:00:00Z,46.22,-72.65,-19.0,-21.9,90,1,,,,1031.8,,TRUE,TRUE,,,,,,,,,,,,,,,,-0.8,,,,,,,,,,,METAR,10.0
CWNP 140300Z AUTO 09001KT M01/M02 RMK AO1 SOG 23 1004 SLP315 T10081015,CWNP,2019-01-14T03:00:00Z,50.27,-117.82,-0.8,-1.5,90,1,,,,1031.5,,TRUE,TRUE,,,,,,,,,,,,,,,,,,,,,,,,,,,METAR,524.0
CWNM 140300Z AUTO 08003KT 01/M03 RMK AO1 SOG 03 2004 SLP308 T00111027,CWNM,2019-01-14T03:00:00Z,49.5,-117.28,1.1,-2.7,80,3,,,,1030.8,,TRUE,TRUE,,,,,,,,,,,,,,,,,,,,,,,,,,,METAR,535.0
CWNK 140300Z AUTO 32003KT M06/M08 RMK AO1 T10621083,CWNK,2019-01-14T03:00:00Z,49.5,-98.03,-6.2,-8.3,320,3,,,,,,TRUE,TRUE,,,,,,,,,,,,,,,,,,,,,,,,,,,METAR,268.0
CWNE 140300Z AUTO 28009KT M11/M14 RMK AO1 SLP264 T11141141 53001,CWNE,2019-01-14T03:00:00Z,47.07,-64.0,-11.4,-14.1,280,9,,,,1026.4,,TRUE,TRUE,,,,,,,,,,,,,,,,0.1,,,,,,,,,,,METAR,15.0
CXZC 140300Z AUTO 21004KT M05/M08 RMK AO1 SOG 47 6023 SLP176 T10541078,CXZC,2019-01-14T03:00:00Z,51.3,-80.62,-5.4,-7.8,210,4,,,,1017.6,,TRUE,TRUE,,,,,,,,,,,,,,,,,,,,,,,,,,,METAR,9.0
CXBI 140300Z AUTO 31001KT M15/M17 RMK AO1 SLP309 T11481166 56010,CXBI,2019-01-14T03:00:00Z,44.48,-79.55,-14.8,-16.6,310,1,,,,1030.9,,TRUE,TRUE,,,,,,,,,,,,,,,,-1.0,,,,,,,,,,,METAR,289.0
CWKK 140300Z AUTO 28011KT M02/M04 RMK AO1 SOG 38 7007 PK WND 27017/0219 SLP210 T10231042,CWKK,2019-01-14T03:00:00Z,49.72,-88.33,-2.3,-4.2,280,11,,,,1021.0,,TRUE,TRUE,,,,,,,,,,,,,,,,,,,,,,,,,,,METAR,260.0
CTNK 140300Z AUTO 00000KT M23/M26 RMK AO1 SOG 44 6011 SLP317 T12341260,CTNK,2019-01-14T03:00:00Z,45.53,-78.27,-23.4,-26.0,0,0,,,,1031.7,,TRUE,TRUE,,,,,,,,,,,,,,,,,,,,,,,,,,,METAR,410.0
CWBY 140300Z AUTO 30004KT M15/M16 RMK AO1 SOG 22 2003 SLP236 T11501155,CWBY,2019-01-14T03:00:00Z,49.82,-64.28,-15.0,-15.5,300,4,,,,1023.6,,TRUE,TRUE,,,,,,,,,,,,,,,,,,,,,,,,,,,METAR,53.0
CWNH 140300Z AUTO 13001KT M15/M18 RMK AO1 SOG 16 6007 SLP299 T11531178,CWNH,2019-01-14T03:00:00Z,47.78,-69.53,-15.3,-17.8,130,1,,,,1029.9,,TRUE,TRUE,,,,,,,,,,,,,,,,,,,,,,,,,,,METAR,148.0
CWER 140300Z AUTO 26007KT RMK AO1,CWER,2019-01-14T03:00:00Z,47.0,-70.82,,,260,7,,,,,,TRUE,TRUE,,,,,,,,,,,,,,,,,,,,,,,,,,,METAR,5.0
CWEP 140300Z AUTO 27011KT M07/M09 RMK AO1 SOG 41 1003 SLP260 T10711093,CWEP,2019-01-14T03:00:00Z,46.45,-61.97,-7.1,-9.3,270,11,,,,1026.0,,TRUE,TRUE,,,,,,,,,,,,,,,,,,,,,,,,,,,METAR,11.0
CWWE 140300Z AUTO 34004KT M09/M12 RMK AO1 SLP281 T10881115 52006,CWWE,2019-01-14T03:00:00Z,43.97,-64.67,-8.8,-11.5,340,4,,,,1028.1,,TRUE,TRUE,,,,,,,,,,,,,,,,0.6,,,,,,,,,,,METAR,9.0
CWPK 140300Z AUTO 15002KT M22/M24 RMK AO1 SOG 38 8023 SLP296 T12201244,CWPK,2019-01-14T03:00:00Z,47.92,-74.62,-22.0,-24.4,150,2,,,,1029.6,,TRUE,TRUE,,,,,,,,,,,,,,,,,,,,,,,,,,,METAR,442.0
CWRN 140300Z AUTO 30009KT M08/M10 RMK AO1 SLP264 T10811104 53005,CWRN,2019-01-14T03:00:00Z,45.35,-60.98,-8.1,-10.4,300,9,,,,1026.4,,TRUE,TRUE,,,,,,,,,,,,,,,,0.5,,,,,,,,,,,METAR,8.0
CWBV 140300Z AUTO 33010KT M10/M14 RMK AO1 SLP273 T11021143 53011,CWBV,2019-01-14T03:00:00Z,44.82,-62.32,-10.2,-14.3,330,10,,,,1027.3,,TRUE,TRUE,,,,,,,,,,,,,,,,1.1,,,,,,,,,,,METAR,10.0
CWSF 140300Z AUTO 25015G21KT M10/M14 RMK AO1 PK WND 25025/0235 SLP246 T10981141 56006,CWSF,2019-01-14T03:00:00Z,49.25,-65.32,-9.8,-14.1,250,15,21,,,1024.6,,TRUE,TRUE,,,,,,,,,,,,,,,,-0.6,,,,,,,,,,,METAR,29.0
CWSS 140300Z AUTO 29002KT M17/M19 RMK AO1 SOG 09 5000 SLP296 T11741191,CWSS,2019-01-14T03:00:00Z,45.2,-67.25,-17.4,-19.1,290,2,,,,1029.6,,TRUE,TRUE,,,,,,,,,,,,,,,,,,,,,,,,,,,METAR,26.0
CXSP 140300Z AUTO 05002KT M03/M04 RMK AO1 T10291040,CXSP,2019-01-14T03:00:00Z,54.02,-111.27,-2.9,-4.0,50,2,,,,,,TRUE,TRUE,,,,,,,,,,,,,,,,,,,,,,,,,,,METAR,649.0
CXSL 140300Z AUTO 11003KT M01/M04 RMK AO1 T10111035,CXSL,2019-01-14T03:00:00Z,54.28,-112.5,-1.1,-3.5,110,3,,,,,,TRUE,TRUE,,,,,,,,,,,,,,,,,,,,,,,,,,,METAR,680.0
CXSC 140300Z AUTO 32002KT M08/M09 RMK AO1 T10831094,CXSC,2019-01-14T03:00:00Z,50.3,-110.08,-8.3,-9.4,320,2,,,,,,TRUE,TRUE,,,,,,,,,,,,,,,,,,,,,,,,,,,METAR,800.0
CXPL 140300Z AUTO 34007KT M12/M13 RMK AO1 T11241127,CXPL,2019-01-14T03:00:00Z,51.13,-111.7,-12.4,-12.7,340,7,,,,,,TRUE,TRUE,,,,,,,,,,,,,,,,,,,,,,,,,,,METAR,750.0
CXMG 140300Z AUTO 00000KT M13/M15 RMK AO1 T11311146,CXMG,2019-01-14T03:00:00Z,56.97,-117.45,-13.1,-14.6,0,0,,,,,,TRUE,TRUE,,,,,,,,,,,,,,,,,,,,,,,,,,,METAR,457.0
CXHP 140300Z AUTO 07002KT M08/M08 RMK AO1 T10761081,CXHP,2019-01-14T03:00:00Z,55.4,-116.48,-7.6,-8.1,70,2,,,,,,TRUE,TRUE,,,,,,,,,,,,,,,,,,,,,,,,,,,METAR,602.0
CXHD 140300Z AUTO 31004KT M13/M14 RMK AO1 T11301143,CXHD,2019-01-14T03:00:00Z,53.18,-112.25,-13.0,-14.3,310,4,,,,,,TRUE,TRUE,,,,,,,,,,,,,,,,,,,,,,,,,,,METAR,688.0
CXFM 140300Z AUTO 28006KT M04/M09 RMK AO1 T10361090,CXFM,2019-01-14T03:00:00Z,49.48,-111.48,-3.6,-9.0,280,6,,,,,,TRUE,TRUE,,,,,,,,,,,,,,,,,,,,,,,,,,,METAR,881.0
CPXL 140300Z AUTO 33001KT M07/M10 RMK AO1 T10721098,CPXL,2019-01-14T03:00:00Z,49.87,-111.38,-7.2,-9.8,330,1,,,,,,TRUE,TRUE,,,,,,,,,,,,,,,,,,,,,,,,,,,METAR,799.0
CPSV 140300Z AUTO 31011KT M04/M07 RMK AO1 T10351066,CPSV,2019-01-14T03:00:00Z,49.92,-110.92,-3.5,-6.6,310,11,,,,,,TRUE,TRUE,,,,,,,,,,,,,,,,,,,,,,,,,,,METAR,766.0
CPST 140300Z AUTO 36012KT M01/M07 RMK AO1 T10091072 50005,CPST,2019-01-14T03:00:00Z,51.03,-113.28,-0.9,-7.2,360,12,,,,,,TRUE,TRUE,,,,,,,,,,,,,,,,0.5,,,,,,,,,,,METAR,967.0
CPRY 140300Z AUTO 27006KT M05/M10 RMK AO1 T10481099,CPRY,2019-01-14T03:00:00Z,49.48,-112.68,-4.8,-9.9,270,6,,,,,,TRUE,TRUE,,,,,,,,,,,,,,,,,,,,,,,,,,,METAR,937.0
CPRO 140300Z AUTO 34002KT M07/M09 RMK AO1 T10741094,CPRO,2019-01-14T03:00:00Z,50.83,-112.05,-7.4,-9.4,340,2,,,,,,TRUE,TRUE,,,,,,,,,,,,,,,,,,,,,,,,,,,METAR,714.0
CPIR 140300Z AUTO 31007KT M03/M11 RMK AO1 T10311113,CPIR,2019-01-14T03:00:00Z,49.9,-112.73,-3.1,-11.3,310,7,,,,,,TRUE,TRUE,,,,,,,,,,,,,,,,,,,,,,,,,,,METAR,858.0
CPFI 140300Z AUTO 28004KT M06/M09 RMK AO1 T10641088,CPFI,2019-01-14T03:00:00Z,49.8,-112.03,-6.4,-8.8,280,4,,,,,,TRUE,TRUE,,,,,,,,,,,,,,,,,,,,,,,,,,,METAR,833.0
CPEH 140300Z AUTO 28003KT M05/M10 RMK AO1 T10511098,CPEH,2019-01-14T03:00:00Z,50.18,-112.43,-5.1,-9.8,280,3,,,,,,TRUE,TRUE,,,,,,,,,,,,,,,,,,,,,,,,,,,METAR,801.0
CPBT 140300Z AUTO 30006KT M04/M10 RMK AO1 T10401101,CPBT,2019-01-14T03:00:00Z,49.57,-113.05,-4.0,-10.1,300,6,,,,,,TRUE,TRUE,,,,,,,,,,,,,,,,,,,,,,,,,,,METAR,980.0
CXVW 140300Z AUTO 15009KT M04/M05 RMK AO1 T10431048,CXVW,2019-01-14T03:00:00Z,55.1,-117.2,-4.3,-4.8,150,9,,,,,,TRUE,TRUE,,,,,,,,,,,,,,,,,,,,,,,,,,,METAR,698.0
CXTH 140300Z AUTO 36003KT M08/M08 RMK AO1 T10771077,CXTH,2019-01-14T03:00:00Z,53.63,-111.68,-7.7,-7.7,360,3,,,,,,TRUE,TRUE,,,,,,,,,,,,,,,,,,,,,,,,,,,METAR,678.0
CWWK 140300Z AUTO 00000KT 05/04 RMK AO1 SLP213 T00450036 55000,CWWK,2019-01-14T03:00:00Z,49.02,-122.78,4.5,3.6,0,0,,,,1021.3,,TRUE,TRUE,,,,,,,,,,,,,,,,0.0,,,,,,,,,,,METAR,15.0
CWWF 140300Z AUTO 33004KT M11/M13 RMK AO1 SOG 05 1005 SLP269 T11121133,CWWF,2019-01-14T03:00:00Z,49.7,-103.8,-11.2,-13.3,330,4,,,,1026.9,,TRUE,TRUE,,,,,,,,,,,,,,,,,,,,,,,,,,,METAR,589.0
CWWA 140300Z AUTO 04001KT 07/03 RMK AO1 SLP206 T00660033 57004,CWWA,2019-01-14T03:00:00Z,49.35,-123.17,6.6,3.3,40,1,,,,1020.6,,TRUE,TRUE,,,,,,,,,,,,,,,,-0.4,,,,,,,,,,,METAR,178.0
CWVU 140300Z AUTO 33012KT M05/M08 RMK AO1 SOG 01 5000 PK WND 33019/0228 SLP303 T10481084,CWVU,2019-01-14T03:00:00Z,44.28,-66.33,-4.8,-8.4,330,12,,,,1030.3,,TRUE,TRUE,,,,,,,,,,,,,,,,,,,,,,,,,,,METAR,16.0
CWVQ 140300Z AUTO 00000KT M15/M17 RMK AO1 SOG 14 7011 SLP323 T11451169,CWVQ,2019-01-14T03:00:00Z,45.42,-73.92,-14.5,-16.9,0,0,,,,1032.3,,TRUE,TRUE,,,,,,,,,,,,,,,,,,,,,,,,,,,METAR,39.0
CWVP 140300Z AUTO 33005KT M00/M11 RMK AO1 SOG 12 1005 SLP212 T10041107,CWVP,2019-01-14T03:00:00Z,49.63,-109.52,-0.4,-10.7,330,5,,,,1021.2,,TRUE,TRUE,,,,,,,,,,,,,,,,,,,,,,,,,,,METAR,1271.0
CWVN 140300Z AUTO 07004KT M08/M09 RMK AO1 SLP253 T10761092 50002,CWVN,2019-01-14T03:00:00Z,49.07,-107.57,-7.6,-9.2,70,4,,,,1025.3,,TRUE,TRUE,,,,,,,,,,,,,,,,0.2,,,,,,,,,,,METAR,785.0
CWVI 140300Z AUTO 28002KT M15/M16 RMK AO1 SOG 21 3005 SLP288 T11481163,CWVI,2019-01-14T03:00:00Z,53.52,-112.1,-14.8,-16.3,280,2,,,,1028.8,,TRUE,TRUE,,,,,,,,,,,,,,,,,,,,,,,,,,,METAR,639.0
CWVF 140300Z AUTO 35003KT 07/07 RMK AO1 T00720072,CWVF,2019-01-14T03:00:00Z,49.1,-123.3,7.2,7.2,350,3,,,,,,TRUE,TRUE,,,,,,,,,,,,,,,,,,,,,,,,,,,METAR,1.0
CWUX 140300Z AUTO 25003KT M16/M19 RMK AO1 SLP308 T11621192 56015,CWUX,2019-01-14T03:00:00Z,48.3,-70.93,-16.2,-19.2,250,3,,,,1030.8,,TRUE,TRUE,,,,,,,,,,,,,,,,-1.5,,,,,,,,,,,METAR,135.0
CWUS 140300Z AUTO 27002KT M00/M02 RMK AO1 SLP297 T10031019 50001,CWUS,2019-01-14T03:00:00Z,49.57,-119.65,-0.3,-1.9,270,2,,,,1029.7,,TRUE,TRUE,,,,,,,,,,,,,,,,0.1,,,,,,,,,,,METAR,454.0
CWTY 140300Z AUTO 19006KT M13/M14 RMK AO1 SLP320 T11301142 58009,CWTY,2019-01-14T03:00:00Z,46.35,-72.52,-13.0,-14.2,190,6,,,,1032.0,,TRUE,TRUE,,,,,,,,,,,,,,,,-0.9,,,,,,,,,,,METAR,6.0
CWTN 140300Z AUTO 27003KT M17/M21 RMK AO1 SLP303 T11731212 56003,CWTN,2019-01-14T03:00:00Z,47.07,-70.78,-17.3,-21.2,270,3,,,,1030.3,,TRUE,TRUE,,,,,,,,,,,,,,,,-0.3,,,,,,,,,,,METAR,6.0
CWTG 140300Z AUTO 27011KT M14/M17 RMK AO1 SLP274 T11391171 56007,CWTG,2019-01-14T03:00:00Z,49.32,-67.37,-13.9,-17.1,270,11,,,,1027.4,,TRUE,TRUE,,,,,,,,,,,,,,,,-0.7,,,,,,,,,,,METAR,5.0
CWTA 140300Z AUTO 33003KT M12/M15 RMK AO1 SOG 31 8010 SLP320 T11161151,CWTA,2019-01-14T03:00:00Z,45.5,-73.58,-11.6,-15.1,330,3,,,,1032.0,,TRUE,TRUE,,,,,,,,,,,,,,,,,,,,,,,,,,,METAR,63.0
WBSB 140300Z 33006KT 9999 SCT015 BKN300 29/25 Q1010 TEMPO 5000 -SHRA,WBSB,2019-01-14T03:00:00Z,4.92,114.92,29.0,25.0,330,6,,6.21,29.822834,,,,,,,,,,,SCT,1500,BKN,30000,,,,,VFR,,,,,,,,,,,,METAR,15.0
WMSA 140300Z VRB03KT 9999 FEW019 SCT140 BKN270 31/25 Q1011,WMSA,2019-01-14T03:00:00Z,3.13,101.55,31.0,25.0,0,3,,6.21,29.852362,,,,,,,,,,,FEW,1900,SCT,14000,BKN,27000,,,VFR,,,,,,,,,,,,METAR,27.0
WMKP 140300Z 05005KT 010V100 8000 FEW020 BKN280 31/23 Q1010 NOSIG,WMKP,2019-01-14T03:00:00Z,5.28,100.27,31.0,23.0,50,5,,4.97,29.822834,,,,,,TRUE,,,,,FEW,2000,BKN,28000,,,,,MVFR,,,,,,,,,,,,METAR,4.0
WMKK 140300Z VRB03KT 9999 FEW018 BKN280 31/23 Q1010 NOSIG,WMKK,2019-01-14T03:00:00Z,2.75,101.72,31.0,23.0,0,3,,6.21,29.822834,,,,,,TRUE,,,,,FEW,1800,BKN,28000,,,,,VFR,,,,,,,,,,,,METAR,22.0
WMKJ 140300Z 02007KT 260V070 9999 FEW017CB BKN280 30/26 Q1010,WMKJ,2019-01-14T03:00:00Z,1.62,103.67,30.0,26.0,20,7,,6.21,29.822834,,,,,,,,,,,FEW,1700,BKN,28000,,,,,VFR,,,,,,,,,,,,METAR,40.0
WBKK 140300Z VRB03KT 9999 FEW015 SCT140 BKN270 31/25 Q1009 NOSIG,WBKK,2019-01-14T03:00:00Z,5.92,116.03,31.0,25.0,0,3,,6.21,29.793306,,,,,,TRUE,,,,,FEW,1500,SCT,14000,BKN,27000,,,VFR,,,,,,,,,,,,METAR,3.0
WBGG 140300Z VRB02KT 9999 FEW015CB BKN016 BKN300 29/25 Q1010 NOSIG,WBGG,2019-01-14T03:00:00Z,1.47,110.35,29.0,25.0,0,2,,6.21,29.822834,,,,,,TRUE,,,,,FEW,1500,BKN,1600,BKN,30000,,,MVFR,,,,,,,,,,,,METAR,27.0
WBKW 140300Z VRB02KT 9999 FEW016CB SCT140 BKN220 28/24 Q1009,WBKW,2019-01-14T03:00:00Z,4.32,118.12,28.0,24.0,0,2,,6.21,29.793306,,,,,,,,,,,FEW,1600,SCT,14000,BKN,22000,,,VFR,,,,,,,,,,,,METAR,20.0
WBKS 140300Z 04009KT 010V080 9999 SCT015 BKN280 30/25 Q1009,WBKS,2019-01-14T03:00:00Z,5.9,118.07,30.0,25.0,40,9,,6.21,29.793306,,,,,,,,,,,SCT,1500,BKN,28000,,,,,VFR,,,,,,,,,,,,METAR,13.0
WBKL 140300Z VRB02KT 9999 FEW013 BKN300 31/24 Q1009,WBKL,2019-01-14T03:00:00Z,5.28,115.25,31.0,24.0,0,2,,6.21,29.793306,,,,,,,,,,,FEW,1300,BKN,30000,,,,,VFR,,,,,,,,,,,,METAR,30.0
WBGY 140300Z VRB02KT 9999 SCT020 BKN150 BKN300 29/25 Q1009,WBGY,2019-01-14T03:00:00Z,1.22,111.43,29.0,25.0,0,2,,6.21,29.793306,,,,,,,,,,,SCT,2000,BKN,15000,BKN,30000,,,VFR,,,,,,,,,,,,METAR,34.0
WBGS 140300Z 07004KT 020V120 9999 SCT016 SCT150 29/25 Q1009,WBGS,2019-01-14T03:00:00Z,2.27,111.98,29.0,25.0,70,4,,6.21,29.793306,,,,,,,,,,,SCT,1600,SCT,15000,,,,,VFR,,,,,,,,,,,,METAR,8.0
WBGR 140300Z 31004KT 240V040 9999 SCT016 SCT150 BKN300 30/25 Q1009,WBGR,2019-01-14T03:00:00Z,4.32,113.97,30.0,25.0,310,4,,6.21,29.793306,,,,,,,,,,,SCT,1600,SCT,15000,BKN,30000,,,VFR,,,,,,,,,,,,METAR,18.0
WBGB 140300Z 07004KT 020V170 9999 SCT016 SCT150 BKN300 29/25 Q1009,WBGB,2019-01-14T03:00:00Z,3.12,113.02,29.0,25.0,70,4,,6.21,29.793306,,,,,,,,,,,SCT,1600,SCT,15000,BKN,30000,,,VFR,,,,,,,,,,,,METAR,5.0
OPSK 140300Z 00000KT 1500 BR NSC 09/07 Q1022 TEMPO 1500 BR,OPSK,2019-01-14T03:00:00Z,27.72,68.8,9.0,7.0,0,0,,0.93,30.177166,,,,,,,,,,BR,CLR,,,,,,,,LIFR,,,,,,,,,,,,METAR,58.0
ZMUB 140300Z VRB01MPS 9999 BKN250 M22/M27 Q1033 NOSIG RMK QFE665.9 62 MOP,ZMUB,2019-01-14T03:00:00Z,47.83,106.78,-22.0,-27.0,0,2,,6.21,30.501968,,,,,,TRUE,,,,,BKN,25000,,,,,,,VFR,,,,,,,,,,,,SPECI,1330.0
OPST 140300Z 31004KT 4000 FU FEW100 05/02 Q1021 NOSIG RH84,OPST,2019-01-14T03:00:00Z,32.53,74.37,5.0,2.0,310,4,,2.49,30.147638,,,,,,TRUE,,,,FU,FEW,10000,,,,,,,IFR,,,,,,,,,,,,METAR,247.0
LUKK 140300Z 22005KT 4900 BR NSC M07/M08 Q0995 R08/190095 TEMPO 3000 BR BKN008,LUKK,2019-01-14T03:00:00Z,46.93,28.93,-7.0,-8.0,220,5,,3.04,29.379921,,,,,,,,,,BR,CLR,,,,,,,,MVFR,,,,,,,,,,,,METAR,122.0
OBBI 140300Z 14005KT 8000 NSC 18/16 Q1017 NOSIG,OBBI,2019-01-14T03:00:00Z,26.27,50.63,18.0,16.0,140,5,,4.97,30.029528,,,,,,TRUE,,,,,CLR,,,,,,,,MVFR,,,,,,,,,,,,METAR,2.0
SCCI 140300Z 26007KT 220V300 9999 FEW034 SCT045 10/04 Q1007 NOSIG,SCCI,2019-01-14T03:00:00Z,-53.0,-70.83,10.0,4.0,260,7,,6.21,29.734253,,,,,,TRUE,,,,,FEW,3400,SCT,4500,,,,,VFR,,,,,,,,,,,,METAR,37.0
SCVD 140300Z AUTO VRB02KT CAVOK 13/12 Q1017,SCVD,2019-01-14T03:00:00Z,-39.65,-73.07,13.0,12.0,0,2,,6.21,30.029528,,,TRUE,,,,,,,,CAVOK,,,,,,,,VFR,,,,,,,,,,,,METAR,14.0
SCTE 140300Z 24004KT CAVOK 10/08 Q1018 NOSIG,SCTE,2019-01-14T03:00:00Z,-41.42,-73.07,10.0,8.0,240,4,,6.21,30.059055,,,,,,TRUE,,,,,CAVOK,,,,,,,,VFR,,,,,,,,,,,,METAR,86.0
SCQP 140300Z 25002KT CAVOK 13/11 Q1016,SCQP,2019-01-14T03:00:00Z,-38.92,-72.65,13.0,11.0,250,2,,6.21,30.0,,,,,,,,,,,CAVOK,,,,,,,,VFR,,,,,,,,,,,,METAR,97.0
SCSE 140300Z 30004KT CAVOK 16/13 Q1015,SCSE,2019-01-14T03:00:00Z,-29.92,-71.2,16.0,13.0,300,4,,6.21,29.970472,,,,,,,,,,,CAVOK,,,,,,,,VFR,,,,,,,,,,,,METAR,146.0
SCDA 140300Z 18011KT CAVOK 20/14 Q1015,SCDA,2019-01-14T03:00:00Z,-20.52,-70.17,20.0,14.0,180,11,,6.21,29.970472,,,,,,,,,,,CAVOK,,,,,,,,VFR,,,,,,,,,,,,METAR,52.0
SCAT 140300Z AUTO 23006KT 9999 // ///017 18/13 Q1017,SCAT,2019-01-14T03:00:00Z,-27.27,-70.77,18.0,13.0,230,6,,6.21,30.029528,,,TRUE,,,,,,,,,,,,,,,,,,,,,,,,,,,,METAR,204.0
SCIE 140300Z 23007KT 200V260 CAVOK 15/13 Q1015,SCIE,2019-01-14T03:00:00Z,-36.77,-73.07,15.0,13.0,230,7,,6.21,29.970472,,,,,,,,,,,CAVOK,,,,,,,,VFR,,,,,,,,,,,,METAR,16.0
SCCF 140300Z 26006KT CAVOK 13/01 Q1028,SCCF,2019-01-14T03:00:00Z,-22.5,-68.9,13.0,1.0,260,6,,6.21,30.35433,,,,,,,,,,,CAVOK,,,,,,,,VFR,,,,,,,,,,,,METAR,2312.0
SCBA 140300Z AUTO 25006KT CAVOK 11/05 Q1017,SCBA,2019-01-14T03:00:00Z,-45.92,-71.67,11.0,5.0,250,6,,6.21,30.029528,,,TRUE,,,,,,,,CAVOK,,,,,,,,VFR,,,,,,,,,,,,METAR,524.0
SCAR 140300Z 29005KT CAVOK 21/16 Q1015,SCAR,2019-01-14T03:00:00Z,-18.35,-70.32,21.0,16.0,290,5,,6.21,29.970472,,,,,,,,,,,CAVOK,,,,,,,,VFR,,,,,,,,,,,,METAR,59.0
SCFA 140300Z 20008KT 9999 FEW009 SCT025 18/14 Q1016 NOSIG,SCFA,2019-01-14T03:00:00Z,-23.42,-70.42,18.0,14.0,200,8,,6.21,30.0,,,,,,TRUE,,,,,FEW,900,SCT,2500,,,,,VFR,,,,,,,,,,,,METAR,120.0
SPME 140300Z 25003KT 9999 SCT015 BKN020 25/21 Q1012 RMK BIRD HAZARD RWY 32/14 PP000,SPME,2019-01-14T03:00:00Z,-3.53,-80.4,25.0,21.0,250,3,,6.21,29.88189,,,,,,,,,,,SCT,1500,BKN,2000,,,,,MVFR,,,,,,,,,,,,METAR,27.0
SPCL 140300Z 00000KT 9999 SCT015 27/24 Q1013 RMK PP000,SPCL,2019-01-14T03:00:00Z,-8.38,-74.58,27.0,24.0,0,0,,6.21,29.911417,,,,,,,,,,,SCT,1500,,,,,,,VFR,,,,,,,,,,,,METAR,149.0
SCCY 140300Z AUTO 01004KT 340V040 CAVOK 13/05 Q1017,SCCY,2019-01-14T03:00:00Z,-45.57,-72.1,13.0,5.0,10,4,,6.21,30.029528,,,TRUE,,,,,,,,CAVOK,,,,,,,,VFR,,,,,,,,,,,,METAR,311.0
SCIC 140300Z AUTO 26003KT 190V330 9999 NCD 20/07 Q1015,SCIC,2019-01-14T03:00:00Z,-34.97,-71.22,20.0,7.0,260,3,,6.21,29.970472,,,TRUE,,,,,,,,CLR,,,,,,,,VFR,,,,,,,,,,,,METAR,242.0
SCRM 140300Z 25014KT 9999 BKN006 OVC012 00/M00 Q0988,SCRM,2019-01-14T03:00:00Z,-62.18,-58.98,0.0,0.0,250,14,,6.21,29.17323,,,,,,,,,,,BKN,600,OVC,1200,,,,,IFR,,,,,,,,,,,,METAR,45.0
SCCH 140300Z AUTO 00000KT 9999 ///////// 16/09 Q1015,SCCH,2019-01-14T03:00:00Z,-36.57,-72.02,16.0,9.0,0,0,,6.21,29.970472,,,TRUE,,,,,,,,,,,,,,,,,,,,,,,,,,,,SPECI,148.0
SCTN 140300Z AUTO 16005KT //// R/////// // NCD 12/11 Q1018,SCTN,2019-01-14T03:00:00Z,-42.92,-72.7,12.0,11.0,160,5,,,30.059055,,,TRUE,,,,,,,,CLR,,,,,,,,,,,,,,,,,,,,METAR,4.0
SCPQ 140300Z AUTO 20005KT //// R35///// NCD 08/07 Q1018,SCPQ,2019-01-14T03:00:00Z,-42.33,-73.72,8.0,7.0,200,5,,,30.059055,,,TRUE,,,,,,,,CLR,,,,,,,,,,,,,,,,,,,,METAR,5.0
SCIP 140300Z 10004KT 9999 SCT020 SCT040 21/20 Q1020 NOSIG,SCIP,2019-01-14T03:00:00Z,-27.17,-109.43,21.0,20.0,100,4,,6.21,30.11811,,,,,,TRUE,,,,,SCT,2000,SCT,4000,,,,,VFR,,,,,,,,,,,,METAR,69.0
SPZO 140300Z /////KT 9999 SCT050 BKN100 11/08 Q1032 NOSIG RMK BIRD HAZARD RWY 28 PP000,SPZO,2019-01-14T03:00:00Z,-13.55,-71.97,11.0,8.0,,,,6.21,30.47244,,,,,,TRUE,,,,,SCT,5000,BKN,10000,,,,,VFR,,,,,,,,,,,,SPECI,3249.0
SPTN 140300Z 25004KT 9999 FEW130 BKN160 19/14 Q1017 RMK PP000,SPTN,2019-01-14T03:00:00Z,-18.07,-70.28,19.0,14.0,250,4,,6.21,30.029528,,,,,,,,,,,FEW,13000,BKN,16000,,,,,VFR,,,,,,,,,,,,SPECI,458.0
SPSO 140300Z 21012KT CAVOK 21/19 Q1013 RMK PP000,SPSO,2019-01-14T03:00:00Z,-13.73,-76.22,21.0,19.0,210,12,,6.21,29.911417,,,,,,,,,,,CAVOK,,,,,,,,VFR,,,,,,,,,,,,SPECI,10.0
SPRU 140300Z 14010KT 9999 SCT030 22/20 Q1013 RMK PP000,SPRU,2019-01-14T03:00:00Z,-8.08,-79.12,22.0,20.0,140,10,,6.21,29.911417,,,,,,,,,,,SCT,3000,,,,,,,VFR,,,,,,,,,,,,METAR,30.0
SPQU 140300Z 09003KT 9999 FEW100 SCT230 14/11 Q1027 RMK PP000,SPQU,2019-01-14T03:00:00Z,-16.33,-71.57,14.0,11.0,90,3,,6.21,30.324802,,,,,,,,,,,FEW,10000,SCT,23000,,,,,VFR,,,,,,,,,,,,SPECI,2554.0
SPQT 140300Z 00000KT CAVOK 24/23 Q1013 NOSIG RMK PP000,SPQT,2019-01-14T03:00:00Z,-3.78,-73.32,24.0,23.0,0,0,,6.21,29.911417,,,,,,TRUE,,,,,CAVOK,,,,,,,,VFR,,,,,,,,,,,,SPECI,126.0
SPHI 140300Z 18014KT 9999 SCT050 22/20 Q1012 RMK BIRD HAZARD RWY 19/01 PP000,SPHI,2019-01-14T03:00:00Z,-6.77,-79.82,22.0,20.0,180,14,,6.21,29.88189,,,,,,,,,,,SCT,5000,,,,,,,VFR,,,,,,,,,,,,METAR,34.0
VEGT 140300Z 00000KT 2000 BR FEW020 17/16 Q1017 BECMG 3000 BR,VEGT,2019-01-14T03:00:00Z,26.1,91.58,17.0,16.0,0,0,,1.24,30.029528,,,,,,,,,,BR,FEW,2000,,,,,,,IFR,,,,,,,,,,,,METAR,54.0
SECU 140300Z AUTO VRB02KT ////NDV NCD 14/13 Q1027,SECU,2019-01-14T03:00:00Z,-2.87,-78.97,14.0,13.0,0,2,,,30.324802,,,TRUE,,,,,,,,CLR,,,,,,,,,,,,,,,,,,,,METAR,2531.0
SEGU 140300Z 19003KT 150V210 9999 FEW026 SCT100 26/23 Q1011 NOSIG RMK A2988,SEGU,2019-01-14T03:00:00Z,-2.13,-79.87,26.0,23.0,190,3,,6.21,29.852362,,,,,,TRUE,,,,,FEW,2600,SCT,10000,,,,,VFR,,,,,,,,,,,,SPECI,9.0
SELT 140300Z 16005KT 9999 BKN030 SCT100 12/10 Q1031,SELT,2019-01-14T03:00:00Z,-0.92,-78.62,12.0,10.0,160,5,,6.21,30.442913,,,,,,,,,,,BKN,3000,SCT,10000,,,,,MVFR,,,,,,,,,,,,METAR,2785.0
SEMT 140300Z 22005KT 9999 SCT020 25/21 Q1013,SEMT,2019-01-14T03:00:00Z,-0.95,-80.67,25.0,21.0,220,5,,6.21,29.911417,,,,,,,,,,,SCT,2000,,,,,,,VFR,,,,,,,,,,,,METAR,14.0
SEQM 140300Z 03004KT 9999 SCT005 BKN020 13/13 Q1027 NOSIG RMK A3034,SEQM,2019-01-14T03:00:00Z,-0.12,-78.35,13.0,13.0,30,4,,6.21,30.324802,,,,,,TRUE,,,,,SCT,500,BKN,2000,,,,,MVFR,,,,,,,,,,,,SPECI,2400.0
OEMA 140300Z 00000KT CAVOK 19/12 Q1012 NOSIG,OEMA,2019-01-14T03:00:00Z,24.55,39.7,19.0,12.0,0,0,,6.21,29.88189,,,,,,TRUE,,,,,CAVOK,,,,,,,,VFR,,,,,,,,,,,,METAR,631.0
OEJN 140300Z 16002KT 9999 SCT035 25/21 Q1012 NOSIG,OEJN,2019-01-14T03:00:00Z,21.68,39.15,25.0,21.0,160,2,,6.21,29.88189,,,,,,TRUE,,,,,SCT,3500,,,,,,,VFR,,,,,,,,,,,,METAR,15.0
OEDF 140300Z 16007KT 7000 NSC 13/11 Q1016 NOSIG,OEDF,2019-01-14T03:00:00Z,26.47,49.8,13.0,11.0,160,7,,4.35,30.0,,,,,,TRUE,,,,,CLR,,,,,,,,MVFR,,,,,,,,,,,,METAR,22.0
SBVT 140300Z 32002KT 9999 SCT022 25/23 Q1016,SBVT,2019-01-14T03:00:00Z,-20.27,-40.27,25.0,23.0,320,2,,6.21,30.0,,,,,,,,,,,SCT,2200,,,,,,,VFR,,,,,,,,,,,,METAR,4.0
SBRP 140300Z 10004KT CAVOK 24/19 Q1016,SBRP,2019-01-14T03:00:00Z,-21.12,-47.77,24.0,19.0,100,4,,6.21,30.0,,,,,,,,,,,CAVOK,,,,,,,,VFR,,,,,,,,,,,,METAR,549.0
SVMI 140300Z 00000KT 9999 FEW016 26/21 Q1010,SVMI,2019-01-14T03:00:00Z,10.58,-67.0,26.0,21.0,0,0,,6.21,29.822834,,,,,,,,,,,FEW,1600,,,,,,,VFR,,,,,,,,,,,,METAR,48.0
UBBB 140300Z 33011KT 9999 SCT021 05/04 Q1008 R34/190068 R35/290060 NOSIG,UBBB,2019-01-14T03:00:00Z,40.45,50.07,5.0,4.0,330,11,,6.21,29.763779,,,,,,TRUE,,,,,SCT,2100,,,,,,,VFR,,,,,,,,,,,,SPECI,-6.0
SKCG 140300Z 04009KT CAVOK 26/24 A2987,SKCG,2019-01-14T03:00:00Z,10.43,-75.52,26.0,24.0,40,9,,6.21,29.870079,,,,,,,,,,,CAVOK,,,,,,,,VFR,,,,,,,,,,,,METAR,1.0
SBCT 140300Z 15002KT 9999 FEW013 19/19 Q1020,SBCT,2019-01-14T03:00:00Z,-25.52,-49.17,19.0,19.0,150,2,,6.21,30.11811,,,,,,,,,,,FEW,1300,,,,,,,VFR,,,,,,,,,,,,METAR,908.0
SBKP 140300Z 13007KT CAVOK 23/19 Q1017,SBKP,2019-01-14T03:00:00Z,-23.0,-47.12,23.0,19.0,130,7,,6.21,30.029528,,,,,,,,,,,CAVOK,,,,,,,,VFR,,,,,,,,,,,,METAR,661.0
WAJJ 140300Z 27009KT 9999 SCT013 32/23 Q1005 NOSIG,WAJJ,2019-01-14T03:00:00Z,-2.58,140.52,32.0,23.0,270,9,,6.21,29.675198,,,,,,TRUE,,,,,SCT,1300,,,,,,,VFR,,,,,,,,,,,,METAR,88.0
SBFI 140300Z 15004KT CAVOK 24/22 Q1014,SBFI,2019-01-14T03:00:00Z,-25.6,-54.48,24.0,22.0,150,4,,6.21,29.940945,,,,,,,,,,,CAVOK,,,,,,,,VFR,,,,,,,,,,,,METAR,243.0
SBCG 140300Z 07003KT CAVOK 24/19 Q1016,SBCG,2019-01-14T03:00:00Z,-20.47,-54.67,24.0,19.0,70,3,,6.21,30.0,,,,,,,,,,,CAVOK,,,,,,,,VFR,,,,,,,,,,,,METAR,567.0
SBMQ 140300Z 26002KT 9999 FEW030 BKN100 24/24 Q1013,SBMQ,2019-01-14T03:00:00Z,0.05,-51.07,24.0,24.0,260,2,,6.21,29.911417,,,,,,,,,,,FEW,3000,BKN,10000,,,,,VFR,,,,,,,,,,,,METAR,15.0
FIMR 140300Z 10014KT 9999 FEW020 27/21 Q1016,FIMR,2019-01-14T03:00:00Z,-19.75,63.37,27.0,21.0,100,14,,6.21,30.0,,,,,,,,,,,FEW,2000,,,,,,,VFR,,,,,,,,,,,,METAR,31.0
HSSS 140300Z 36012KT CAVOK 18/M09 Q1013 NOSIG,HSSS,2019-01-14T03:00:00Z,15.58,32.53,18.0,-9.0,360,12,,6.21,29.911417,,,,,,TRUE,,,,,CAVOK,,,,,,,,VFR,,,,,,,,,,,,METAR,380.0
UBBY 140300Z 13006KT 9999 SCT100 02/M03 Q1009 R33/////// NOSIG RMK MT OP,UBBY,2019-01-14T03:00:00Z,41.57,46.67,2.0,-3.0,130,6,,6.21,29.793306,,,,,,TRUE,,,,,SCT,10000,,,,,,,VFR,,,,,,,,,,,,METAR,390.0
OPMT 140300Z 00000KT 1200 BR SCT120 05/04 Q1023 TEMPO 1000,OPMT,2019-01-14T03:00:00Z,30.18,71.42,5.0,4.0,0,0,,0.75,30.206694,,,,,,,,,,BR,SCT,12000,,,,,,,LIFR,,,,,,,,,,,,METAR,123.0
SBGO 140300Z 35002KT 9999 FEW045 21/18 Q1017,SBGO,2019-01-14T03:00:00Z,-16.62,-49.22,21.0,18.0,350,2,,6.21,30.029528,,,,,,,,,,,FEW,4500,,,,,,,VFR,,,,,,,,,,,,METAR,747.0
LDZD 140300Z 11006KT 080V140 9999 FEW025 BKN045 06/03 Q1001 NOSIG,LDZD,2019-01-14T03:00:00Z,44.1,15.37,6.0,3.0,110,6,,6.21,29.557087,,,,,,TRUE,,,,,FEW,2500,BKN,4500,,,,,VFR,,,,,,,,,,,,METAR,84.0
LDZA 140300Z 26004KT 230V300 CAVOK 05/M00 Q0997 NOSIG,LDZA,2019-01-14T03:00:00Z,45.72,16.07,5.0,0.0,260,4,,6.21,29.438976,,,,,,TRUE,,,,,CAVOK,,,,,,,,VFR,,,,,,,,,,,,METAR,107.0
LDSP 140300Z AUTO 36005KT 320V030 9999 -SHRA OVC015/// 07/04 Q1002 NOSIG,LDSP,2019-01-14T03:00:00Z,43.52,16.3,7.0,4.0,360,5,,6.21,29.586615,,,TRUE,,,TRUE,,,,-SHRA,OVC,1500,,,,,,,MVFR,,,,,,,,,,,,METAR,21.0
LDRI 140300Z 14008KT 9999 BKN037 09/05 Q0999,LDRI,2019-01-14T03:00:00Z,45.22,14.57,9.0,5.0,140,8,,6.21,29.498032,,,,,,,,,,,BKN,3700,,,,,,,VFR,,,,,,,,,,,,METAR,85.0
LDPL 140300Z VRB02KT 9999 FEW016 07/05 Q0998 NOSIG,LDPL,2019-01-14T03:00:00Z,44.88,13.92,7.0,5.0,0,2,,6.21,29.468504,,,,,,TRUE,,,,,FEW,1600,,,,,,,VFR,,,,,,,,,,,,METAR,63.0
LDOS 140300Z 25015KT 9999 -RA BKN027 04/02 Q0995,LDOS,2019-01-14T03:00:00Z,45.47,18.82,4.0,2.0,250,15,,6.21,29.379921,,,,,,,,,,-RA,BKN,2700,,,,,,,MVFR,,,,,,,,,,,,METAR,89.0
LDDU 140300Z 08009KT 9999 SCT040 05/01 Q1004 NOSIG,LDDU,2019-01-14T03:00:00Z,42.57,18.27,5.0,1.0,80,9,,6.21,29.64567,,,,,,TRUE,,,,,SCT,4000,,,,,,,VFR,,,,,,,,,,,,METAR,165.0
SBGR 140300Z 15002KT 8000 NSC 20/20 Q1019,SBGR,2019-01-14T03:00:00Z,-23.42,-46.47,20.0,20.0,150,2,,4.97,30.088583,,,,,,,,,,,CLR,,,,,,,,MVFR,,,,,,,,,,,,METAR,750.0
TFFR 140300Z AUTO VRB02KT 9999 FEW027 SCT032 BKN056 22/21 Q1018 TEMPO 4000 SHRA SCT015TCU,TFFR,2019-01-14T03:00:00Z,16.27,-61.53,22.0,21.0,0,2,,6.21,30.059055,,,TRUE,,,,,,,,FEW,2700,SCT,3200,BKN,5600,,,VFR,,,,,,,,,,,,METAR,11.0
UBBQ 140300Z 16002KT 9999 BKN080 00/M02 Q1007 R16/CLRD// NOSIG RMK MT OBSC,UBBQ,2019-01-14T03:00:00Z,40.82,47.72,0.0,-2.0,160,2,,6.21,29.734253,,,,,,TRUE,,,,,BKN,8000,,,,,,,VFR,,,,,,,,,,,,METAR,338.0
VOML 140300Z 11005KT 3500 BR NSC 23/19 Q1013 BECMG 5000 HZ,VOML,2019-01-14T03:00:00Z,12.97,74.88,23.0,19.0,110,5,,2.17,29.911417,,,,,,,,,,BR,CLR,,,,,,,,IFR,,,,,,,,,,,,METAR,103.0
TNCA 140300Z 09015KT 9999 FEW018 26/21 Q1015 NOSIG,TNCA,2019-01-14T03:00:00Z,12.5,-70.0,26.0,21.0,90,15,,6.21,29.970472,,,,,,TRUE,,,,,FEW,1800,,,,,,,VFR,,,,,,,,,,,,METAR,18.0
SBRJ 140300Z 07006KT CAVOK 26/22 Q1014,SBRJ,2019-01-14T03:00:00Z,-22.88,-43.17,26.0,22.0,70,6,,6.21,29.940945,,,,,,,,,,,CAVOK,,,,,,,,VFR,,,,,,,,,,,,METAR,3.0
LBPL 140300Z 23004KT 9999 SCT050 M02/M03 Q1002,LBPL,2019-01-14T03:00:00Z,43.45,24.5,-2.0,-3.0,230,4,,6.21,29.586615,,,,,,,,,,,SCT,5000,,,,,,,VFR,,,,,,,,,,,,METAR,101.0
LBIA 140300Z 00000KT 0300 FG FEW050 M05/M05 Q1003,LBIA,2019-01-14T03:00:00Z,42.45,26.35,-5.0,-5.0,0,0,,0.19,29.616142,,,,,,,,,,FG,FEW,5000,,,,,,,LIFR,,,,,,,,,,,,METAR,155.0
LBPG 140300Z 33004KT 9999 SCT100 M07/M08 Q1002,LBPG,2019-01-14T03:00:00Z,42.28,24.72,-7.0,-8.0,330,4,,6.21,29.586615,,,,,,,,,,,SCT,10000,,,,,,,VFR,,,,,,,,,,,,METAR,58.0
LBGO 140300Z AUTO 12003KT 4900 BR NCD M05/M05 Q1000,LBGO,2019-01-14T03:00:00Z,43.15,25.72,-5.0,-5.0,120,3,,3.04,29.52756,,,TRUE,,,,,,,BR,CLR,,,,,,,,MVFR,,,,,,,,,,,,METAR,86.0
LBPD 140300Z AUTO 28004KT 8000 NCD M06/M06 Q1002,LBPD,2019-01-14T03:00:00Z,42.13,24.8,-6.0,-6.0,280,4,,4.97,29.586615,,,TRUE,,,,,,,,CLR,,,,,,,,MVFR,,,,,,,,,,,,METAR,185.0
LBBG 140300Z 25005KT CAVOK M02/M04 Q1002 NOSIG,LBBG,2019-01-14T03:00:00Z,42.57,27.52,-2.0,-4.0,250,5,,6.21,29.586615,,,,,,TRUE,,,,,CAVOK,,,,,,,,VFR,,,,,,,,,,,,METAR,28.0
LBWN 140300Z 32004KT 9999 OVC038 01/M03 Q1001 NOSIG,LBWN,2019-01-14T03:00:00Z,43.22,27.82,1.0,-3.0,320,4,,6.21,29.557087,,,,,,TRUE,,,,,OVC,3800,,,,,,,VFR,,,,,,,,,,,,METAR,43.0
LBSF 140300Z 13006KT 5000 BR NSC M08/M09 Q1001 TEMPO 3000 BR,LBSF,2019-01-14T03:00:00Z,42.7,23.42,-8.0,-9.0,130,6,,3.11,29.557087,,,,,,,,,,BR,CLR,,,,,,,,MVFR,,,,,,,,,,,,SPECI,530.0
LZTT 140300Z 26024KT 9999 -SN FEW011 BKN050 00/M01 Q0985,LZTT,2019-01-14T03:00:00Z,49.07,20.25,0.0,-1.0,260,24,,6.21,29.084646,,,,,,,,,,-SN,FEW,1100,BKN,5000,,,,,VFR,,,,,,,,,,,,METAR,707.0
LZKZ 140300Z 19011KT 7000 OVC005 01/M00 Q0988,LZKZ,2019-01-14T03:00:00Z,48.67,21.23,1.0,0.0,190,11,,4.35,29.17323,,,,,,,,,,,OVC,500,,,,,,,IFR,,,,,,,,,,,,METAR,232.0
SVBM 140300Z 09002KT 9999 FEW016 21/17 Q1018,SVBM,2019-01-14T03:00:00Z,10.05,-69.37,21.0,17.0,90,2,,6.21,30.059055,,,,,,,,,,,FEW,1600,,,,,,,VFR,,,,,,,,,,,,METAR,614.0
FMMI 140300Z 13005KT 9999 FEW017 SCT020 19/17 Q1022 NOSIG,FMMI,2019-01-14T03:00:00Z,-18.8,47.47,19.0,17.0,130,5,,6.21,30.177166,,,,,,TRUE,,,,,FEW,1700,SCT,2000,,,,,VFR,,,,,,,,,,,,METAR,1276.0
UBBG 140300Z 18004KT 9999 BKN066 03/M01 Q1006 R30/CLRD// NOSIG,UBBG,2019-01-14T03:00:00Z,40.73,46.32,3.0,-1.0,180,4,,6.21,29.704725,,,,,,TRUE,,,,,BKN,6600,,,,,,,VFR,,,,,,,,,,,,SPECI,330.0
SBPL 140300Z 13012KT CAVOK 29/16 Q1014,SBPL,2019-01-14T03:00:00Z,-9.37,-40.57,29.0,16.0,130,12,,6.21,29.940945,,,,,,,,,,,CAVOK,,,,,,,,VFR,,,,,,,,,,,,METAR,375.0
NGTA 140300Z 35004KT 9999 FEW019 SCT100 BKN300 30/24 Q1004,NGTA,2019-01-14T03:00:00Z,1.37,173.13,30.0,24.0,350,4,,6.21,29.64567,,,,,,,,,,,FEW,1900,SCT,10000,BKN,30000,,,VFR,,,,,,,,,,,,METAR,2.0
SBJP 140300Z 15004KT CAVOK 25/24 Q1014,SBJP,2019-01-14T03:00:00Z,-7.15,-34.95,25.0,24.0,150,4,,6.21,29.940945,,,,,,,,,,,CAVOK,,,,,,,,VFR,,,,,,,,,,,,METAR,66.0
SBCZ 140300Z 00000KT CAVOK 24/23 Q1013,SBCZ,2019-01-14T03:00:00Z,-7.62,-72.77,24.0,23.0,0,0,,6.21,29.911417,,,,,,,,,,,CAVOK,,,,,,,,VFR,,,,,,,,,,,,METAR,170.0
TBPB 140300Z 07010KT 9999 FEW018 BKN036 25/20 Q1016 NOSIG,TBPB,2019-01-14T03:00:00Z,13.07,-59.48,25.0,20.0,70,10,,6.21,30.0,,,,,,TRUE,,,,,FEW,1800,BKN,3600,,,,,VFR,,,,,,,,,,,,METAR,52.0
ORBI 140300Z 13006KT 9000 FEW027 12/11 Q1008 NOSIG,ORBI,2019-01-14T03:00:00Z,33.27,44.23,12.0,11.0,130,6,,5.59,29.763779,,,,,,TRUE,,,,,FEW,2700,,,,,,,VFR,,,,,,,,,,,,METAR,35.0
WIII 140300Z 02004KT 4000 -RA BKN019 25/23 Q1010 BECMG TL0445 -RA,WIII,2019-01-14T03:00:00Z,-6.13,106.67,25.0,23.0,20,4,,2.49,29.822834,,,,,,,,,,-RA,BKN,1900,,,,,,,IFR,,,,,,,,,,,,METAR,8.0
TFFF 140300Z AUTO 05003KT 010V080 9999 FEW025 23/20 Q1017 TEMPO 4000 SHRA SCT015TCU,TFFF,2019-01-14T03:00:00Z,14.6,-61.0,23.0,20.0,50,3,,6.21,30.029528,,,TRUE,,,,,,,,FEW,2500,,,,,,,VFR,,,,,,,,,,,,METAR,5.0
NCRK 140300Z AUTO 32005KT //// ////// 31/25 Q1008,NCRK,2019-01-14T03:00:00Z,-10.05,-161.08,31.0,25.0,320,5,,,29.763779,,,TRUE,,,,,,,,,,,,,,,,,,,,,,,,,,,,METAR,5.0
NCPK 140300Z AUTO NIL,NCPK,2019-01-14T03:00:00Z,-10.88,-165.82,,,,,,,,,,TRUE,,,,,,,,,,,,,,,,,,,,,,,,,,,,METAR,3.0
NCPY 140300Z AUTO NIL,NCPY,2019-01-14T03:00:00Z,-9.02,-158.07,,,,,,,,,,TRUE,,,,,,,,,,,,,,,,,,,,,,,,,,,,METAR,2.0
NCMH 140300Z AUTO 33003KT //// ////// 31/25 Q1008,NCMH,2019-01-14T03:00:00Z,-10.38,-161.0,31.0,25.0,330,3,,,29.763779,,,TRUE,,,,,,,,,,,,,,,,,,,,,,,,,,,,METAR,0.0
NCMR 140300Z AUTO 09005KT //// ////// ////// Q1007,NCMR,2019-01-14T03:00:00Z,-19.85,-157.7,,,90,5,,,29.734253,,,TRUE,,,,,,,,,,,,,,,,,,,,,,,,,,,,METAR,8.0
NCMK 140300Z AUTO 16006KT //// ////// 29/23 Q1006,NCMK,2019-01-14T03:00:00Z,-20.15,-157.38,29.0,23.0,160,6,,,29.704725,,,TRUE,,,,,,,,,,,,,,,,,,,,,,,,,,,,METAR,9.0
NCMG 140300Z AUTO 14009KT //// ////// 28/24 Q1004,NCMG,2019-01-14T03:00:00Z,-21.92,-157.95,28.0,24.0,140,9,,,29.64567,,,TRUE,,,,,,,,,,,,,,,,,,,,,,,,,,,,METAR,41.0
NCAT 140300Z AUTO 10003KT //// ////// ////// Q1003,NCAT,2019-01-14T03:00:00Z,-19.97,-158.12,,,100,3,,,29.616142,,,TRUE,,,,,,,,,,,,,,,,,,,,,,,,,,,,METAR,11.0
NCRG 140300Z 11006KT 9999 SCT018 SCT290 29/24 Q1006,NCRG,2019-01-14T03:00:00Z,-21.2,-159.82,29.0,24.0,110,6,,6.21,29.704725,,,,,,,,,,,SCT,1800,SCT,29000,,,,,VFR,,,,,,,,,,,,METAR,7.0
SBPA 140300Z 27007KT CAVOK 25/22 Q1015,SBPA,2019-01-14T03:00:00Z,-30.0,-51.17,25.0,22.0,270,7,,6.21,29.970472,,,,,,,,,,,CAVOK,,,,,,,,VFR,,,,,,,,,,,,METAR,3.0
UGSB 140300Z 14007KT CAVOK 05/00 Q1006 NOSIG,UGSB,2019-01-14T03:00:00Z,41.62,41.6,5.0,0.0,140,7,,6.21,29.704725,,,,,,TRUE,,,,,CAVOK,,,,,,,,VFR,,,,,,,,,,,,METAR,32.0
UGKO 140300Z 09004KT 9999 BKN046 04/M01 Q1007 NOSIG,UGKO,2019-01-14T03:00:00Z,42.18,42.48,4.0,-1.0,90,4,,6.21,29.734253,,,,,,TRUE,,,,,BKN,4600,,,,,,,VFR,,,,,,,,,,,,METAR,68.0
UGTB 140300Z 30012KT CAVOK 02/M04 Q1009 NOSIG,UGTB,2019-01-14T03:00:00Z,41.67,44.95,2.0,-4.0,300,12,,6.21,29.793306,,,,,,TRUE,,,,,CAVOK,,,,,,,,VFR,,,,,,,,,,,,METAR,495.0
LPMT 140300Z 07003KT CAVOK 01/01 Q1026,LPMT,2019-01-14T03:00:00Z,38.7,-9.05,1.0,1.0,70,3,,6.21,30.295275,,,,,,,,,,,CAVOK,,,,,,,,VFR,,,,,,,,,,,,METAR,11.0
LPMR 140300Z 16003KT 5000 BR NSC 01/01 Q1026,LPMR,2019-01-14T03:00:00Z,39.82,-8.87,1.0,1.0,160,3,,3.11,30.295275,,,,,,,,,,BR,CLR,,,,,,,,MVFR,,,,,,,,,,,,METAR,54.0
LPOV 140300Z VRB01KT CAVOK 01/01 Q1026,LPOV,2019-01-14T03:00:00Z,40.92,-8.65,1.0,1.0,0,1,,6.21,30.295275,,,,,,,,,,,CAVOK,,,,,,,,VFR,,,,,,,,,,,,METAR,17.0
UBEE 140300Z 15005KT CAVOK 01/N00 Q1008 R30/////// NOSIG,UBEE,2019-01-14T03:00:00Z,40.63,47.15,,,150,5,,6.21,29.763779,,,,,,TRUE,,,,,CAVOK,,,,,,,,VFR,,,,,,,,,,,,METAR,15.0
FMCZ 140300Z AUTO 00000KT 9999 ///CB 25/25 Q1012 TEMPO 2000 TSRA,FMCZ,2019-01-14T03:00:00Z,-12.8,45.27,25.0,25.0,0,0,,6.21,29.88189,,,TRUE,,,,,,,,,,,,,,,,,,,,,,,,,,,,SPECI,7.0
LCPH 140300Z 02008KT CAVOK 07/06 Q1007,LCPH,2019-01-14T03:00:00Z,34.72,32.47,7.0,6.0,20,8,,6.21,29.734253,,,,,,,,,,,CAVOK,,,,,,,,VFR,,,,,,,,,,,,METAR,8.0
LCLK 140300Z 32006KT 9999 FEW020TCU 07/06 Q1007 NOSIG,LCLK,2019-01-14T03:00:00Z,34.87,33.62,7.0,6.0,320,6,,6.21,29.734253,,,,,,TRUE,,,,,FEW,2000,,,,,,,VFR,,,,,,,,,,,,METAR,2.0
YMOR 140300Z AUTO 01011KT 340V070 9999 // NCD 34/08 Q1015,YMOR,2019-01-14T03:00:00Z,-29.5,149.85,34.0,8.0,10,11,,6.21,29.970472,,,TRUE,,,,,,,,CLR,,,,,,,,VFR,,,,,,,,,,,,METAR,214.0
YMML 140300Z 17011KT CAVOK 35/15 Q1009,YMML,2019-01-14T03:00:00Z,-37.67,144.82,35.0,15.0,170,11,,6.21,29.793306,,,,,,,,,,,CAVOK,,,,,,,,VFR,,,,,,,,,,,,METAR,141.0
YMIA 140300Z AUTO 31007KT 250V350 9999 // NCD 40/M00 Q1009,YMIA,2019-01-14T03:00:00Z,-34.23,142.08,40.0,0.0,310,7,,6.21,29.793306,,,TRUE,,,,,,,,CLR,,,,,,,,VFR,,,,,,,,,,,,METAR,51.0
YMER 140300Z AUTO 04014KT 9999 // NCD 25/20 Q1013,YMER,2019-01-14T03:00:00Z,-36.92,149.9,25.0,20.0,40,14,,6.21,29.911417,,,TRUE,,,,,,,,CLR,,,,,,,,VFR,,,,,,,,,,,,METAR,2.0
YMEN 140300Z AUTO 17010KT 9999 // NCD 34/17 Q1009,YMEN,2019-01-14T03:00:00Z,-37.72,144.9,34.0,17.0,170,10,,6.21,29.793306,,,TRUE,,,,,,,,CLR,,,,,,,,VFR,,,,,,,,,,,,METAR,86.0
YMEK 140300Z AUTO 36011KT 9999 // NCD 42/07 Q1008,YMEK,2019-01-14T03:00:00Z,-26.62,118.55,42.0,7.0,360,11,,6.21,29.763779,,,TRUE,,,,,,,,CLR,,,,,,,,VFR,,,,,,,,,,,,METAR,522.0
YMDG 140300Z AUTO 02004KT 9999 // NCD 32/16 Q1017,YMDG,2019-01-14T03:00:00Z,-32.57,149.62,32.0,16.0,20,4,,6.21,30.029528,,,TRUE,,,,,,,,CLR,,,,,,,,VFR,,,,,,,,,,,,METAR,471.0
YMAY 140300Z AUTO 21004KT 9999 // NCD 38/14 Q1011,YMAY,2019-01-14T03:00:00Z,-36.07,146.93,38.0,14.0,210,4,,6.21,29.852362,,,TRUE,,,,,,,,CLR,,,,,,,,VFR,,,,,,,,,,,,METAR,171.0
YMAV 140300Z AUTO 12009KT //// // NCD 32/17 Q1009 RF00.0/000.0 PRESENT WEATHER SENSOR US,YMAV,2019-01-14T03:00:00Z,-38.03,144.48,32.0,17.0,120,9,,,29.793306,,,TRUE,,,,,,,,CLR,,,,,,,,,,,,,,,,,,,,METAR,8.0
YLRE 140300Z AUTO 09011KT //// // NCD 36/16 Q1010,YLRE,2019-01-14T03:00:00Z,-23.43,144.28,36.0,16.0,90,11,,,29.822834,,,TRUE,,,,,,,,CLR,,,,,,,,,,,,,,,,,,,,METAR,193.0
SADF 140300Z 00000KT CAVOK 22/20 Q1013,SADF,2019-01-14T03:00:00Z,-34.45,-58.58,22.0,20.0,0,0,,6.21,29.911417,,,,,,,,,,,CAVOK,,,,,,,,VFR,,,,,,,,,,,,METAR,4.0
NSFA 140300Z 35010KT 210V360 9999 FEW022 BKN280 31/26 Q1004,NSFA,2019-01-14T03:00:00Z,-13.83,-172.0,31.0,26.0,350,10,,6.21,29.64567,,,,,,,,,,,FEW,2200,BKN,28000,,,,,VFR,,,,,,,,,,,,METAR,5.0
YWLM 140300Z 10015KT 9999 FEW040 30/19 Q1015,YWLM,2019-01-14T03:00:00Z,-32.8,151.83,30.0,19.0,100,15,,6.21,29.970472,,,,,,,,,,,FEW,4000,,,,,,,VFR,,,,,,,,,,,,METAR,9.0
YWHA 140300Z AUTO 12009KT 9999 // NCD 34/14 Q1008,YWHA,2019-01-14T03:00:00Z,-33.07,137.52,34.0,14.0,120,9,,6.21,29.763779,,,TRUE,,,,,,,,CLR,,,,,,,,VFR,,,,,,,,,,,,SPECI,13.0
YWGT 140300Z AUTO 32006KT 270V350 9999 // NCD 38/10 Q1011,YWGT,2019-01-14T03:00:00Z,-36.42,146.3,38.0,10.0,320,6,,6.21,29.852362,,,TRUE,,,,,,,,CLR,,,,,,,,VFR,,,,,,,,,,,,SPECI,153.0
YTRE 140300Z AUTO 08013KT 9999 // NCD 29/18 Q1016,YTRE,2019-01-14T03:00:00Z,-31.88,152.52,29.0,18.0,80,13,,6.21,30.0,,,TRUE,,,,,,,,CLR,,,,,,,,VFR,,,,,,,,,,,,SPECI,12.0
YTNK 140300Z AUTO 04013KT 9999 // NCD 37/12 Q1009,YTNK,2019-01-14T03:00:00Z,-19.63,134.18,37.0,12.0,40,13,,6.21,29.793306,,,TRUE,,,,,,,,CLR,,,,,,,,VFR,,,,,,,,,,,,SPECI,377.0
YTEF 140300Z AUTO 36009KT 9999 // NCD 38/19 Q1008,YTEF,2019-01-14T03:00:00Z,-21.72,122.23,38.0,19.0,360,9,,6.21,29.763779,,,TRUE,,,,,,,,CLR,,,,,,,,VFR,,,,,,,,,,,,SPECI,296.0
YSWG 140300Z AUTO 35007KT 280V040 9999 // NCD 39/11 Q1011,YSWG,2019-01-14T03:00:00Z,-35.13,147.47,39.0,11.0,350,7,,6.21,29.852362,,,TRUE,,,,,,,,CLR,,,,,,,,VFR,,,,,,,,,,,,SPECI,213.0
YSTW 140300Z AUTO 11006KT 080V150 9999 // NCD 33/05 Q1016 RF00.0/000.0,YSTW,2019-01-14T03:00:00Z,-31.07,150.85,33.0,5.0,110,6,,6.21,30.0,,,TRUE,,,,,,,,CLR,,,,,,,,VFR,,,,,,,,,,,,SPECI,410.0
WSAP 140300Z 05014KT 9999 FEW018 BKN300 29/24 Q1011,WSAP,2019-01-14T03:00:00Z,1.37,103.92,29.0,24.0,50,14,,6.21,29.852362,,,,,,,,,,,FEW,1800,BKN,30000,,,,,VFR,,,,,,,,,,,,METAR,32.0
WSSL 140300Z 01007KT 330V040 9999 FEW016 FEW020TCU BKN300 29/23 Q1011,WSSL,2019-01-14T03:00:00Z,1.42,103.87,29.0,23.0,10,7,,6.21,29.852362,,,,,,,,,,,FEW,1600,FEW,2000,BKN,30000,,,VFR,,,,,,,,,,,,METAR,14.0
SAWH 140300Z 23010KT 9999 FEW025 BKN040 08/05 Q1002,SAWH,2019-01-14T03:00:00Z,-54.85,-68.3,8.0,5.0,230,10,,6.21,29.586615,,,,,,,,,,,FEW,2500,BKN,4000,,,,,VFR,,,,,,,,,,,,METAR,14.0
MPMG 140300Z 33005KT CAVOK 25/21 Q1013 NOSIG,MPMG,2019-01-14T03:00:00Z,8.98,-79.57,25.0,21.0,330,5,,6.21,29.911417,,,,,,TRUE,,,,,CAVOK,,,,,,,,VFR,,,,,,,,,,,,METAR,13.0
MPDA 140300Z 040123KT CAVOK 27/16 Q1012,MPDA,2019-01-14T03:00:00Z,8.4,-82.43,27.0,16.0,40,123,,6.21,29.88189,,,,,,,,,,,CAVOK,,,,,,,,VFR,,,,,,,,,,,,METAR,27.0
MPTO 140300Z 33004KT 9999 FEW020 25/21 Q1013 NOSIG,MPTO,2019-01-14T03:00:00Z,9.05,-79.37,25.0,21.0,330,4,,6.21,29.911417,,,,,,TRUE,,,,,FEW,2000,,,,,,,VFR,,,,,,,,,,,,METAR,45.0
VERC 140300Z 03003KT 1300 BR SCT020 SCT100 16/11 Q1019 BECMG 1500 BR,VERC,2019-01-14T03:00:00Z,23.32,85.32,16.0,11.0,30,3,,0.81,30.088583,,,,,,,,,,BR,SCT,2000,SCT,10000,,,,,LIFR,,,,,,,,,,,,METAR,652.0
VEIM 140300Z 12003KT 0500 FG FEW010 SCT018 10/09 Q1018 BECMG 0800 FG,VEIM,2019-01-14T03:00:00Z,24.77,93.9,10.0,9.0,120,3,,0.31,30.059055,,,,,,,,,,FG,FEW,1000,SCT,1800,,,,,LIFR,,,,,,,,,,,,METAR,781.0
KMLI 140300Z 00000KT 10SM MIFG CLR M12/M13 A3042 RMK AO2 T11221133,KMLI,2019-01-14T03:00:00Z,41.45,-90.52,-12.2,-13.3,0,0,,10.0,30.41929,,,,TRUE,,,,,,MIFG,CLR,,,,,,,,VFR,,,,,,,,,,,,SPECI,184.0
KEDJ 140300Z AUTO 05008KT 10SM BKN006 M04/M04 A3029 RMK AO1,KEDJ,2019-01-14T03:00:00Z,40.37,-83.82,-4.0,-4.0,50,8,,10.0,30.28937,,,TRUE,TRUE,,,,,,,BKN,600,,,,,,,IFR,,,,,,,,,,,,SPECI,342.0
KDCA 140300Z 02011KT 3SM -SN SCT022 BKN029 OVC050 M01/M04 A3030 RMK AO2 P0000 T10111044,KDCA,2019-01-14T03:00:00Z,38.85,-77.03,-1.1,-4.4,20,11,,3.0,30.301182,,,,TRUE,,,,,,-SN,SCT,2200,BKN,2900,OVC,5000,,,MVFR,,,,,,0.005,,,,,,SPECI,18.0
KCRG 140300Z AUTO 05006KT 10SM BKN006 14/14 A3015 RMK AO2 T01440144,KCRG,2019-01-14T03:00:00Z,30.33,-81.52,14.4,14.4,50,6,,10.0,30.15059,,,TRUE,TRUE,,,,,,,BKN,600,,,,,,,IFR,,,,,,,,,,,,SPECI,13.0
KCDC 140300Z AUTO 35005KT 10SM OVC015 M03/M04 A3021 RMK AO2 T10331044,KCDC,2019-01-14T03:00:00Z,37.7,-113.1,-3.3,-4.4,350,5,,10.0,30.209646,,,TRUE,TRUE,,,,,,,OVC,1500,,,,,,,MVFR,,,,,,,,,,,,SPECI,1714.0
KAGS 140300Z 31003KT 10SM OVC016 08/06 A3020 RMK AO2 T00780056,KAGS,2019-01-14T03:00:00Z,33.37,-81.97,7.8,5.6,310,3,,10.0,30.200787,,,,TRUE,,,,,,,OVC,1600,,,,,,,MVFR,,,,,,,,,,,,SPECI,44.0
PADE 140300Z AUTO 07024G34KT 1/4SM +SN VV012 A2950 RMK AO2 PK WND 06034/0255 P0000 TSNO $,PADE,2019-01-14T03:00:00Z,66.07,-162.77,,,70,24,34,0.25,29.500984,,,TRUE,TRUE,TRUE,,TRUE,,,+SN,OVX,0,,,,,,,LIFR,,,,,,0.005,,,,,1200,SPECI,5.0
FQLC 140300Z 02007KT 0200 DZ BKN001 BKN014 FEW020CB 18/18 Q1019 RMK CB ISO ALL/D FG,FQLC,2019-01-14T03:00:00Z,-13.27,35.25,18.0,18.0,20,7,,0.12,30.088583,,,,,,,,,,DZ,BKN,100,BKN,1400,FEW,2000,,,LIFR,,,,,,,,,,,,SPECI,1365.0
OPRN 140300Z 00000KT 4000 BR NSC 03/01 Q1023 TEMPO 2100 RMK A3021,OPRN,2019-01-14T03:00:00Z,33.62,73.08,3.0,1.0,0,0,,2.49,30.206694,,,,,,,,,,BR,CLR,,,,,,,,IFR,,,,,,,,,,,,SPECI,508.0
OPNH 140300Z 31504KT 1000M BR NSC 11/07 Q1023 BECMG 1500 BR,OPNH,2019-01-14T03:00:00Z,26.22,68.37,11.0,7.0,315,4,,0.62,30.206694,,,,,,,,,,BR,CLR,,,,,,,,LIFR,,,,,,,,,,,,SPECI,38.0
VEPT 140300Z 25003KT 1000 R25/1300 FG NSC 13/10 Q1017 NOSIG,VEPT,2019-01-14T03:00:00Z,25.6,85.08,13.0,10.0,250,3,,0.62,30.029528,,,,,,TRUE,,,,FG,CLR,,,,,,,,LIFR,,,,,,,,,,,,METAR,60.0
EPWA 140300Z 26009KT 230V300 9999 -RA BKN007 BKN015 04/03 Q0979 NOSIG,EPWA,2019-01-14T03:00:00Z,52.17,20.97,4.0,3.0,260,9,,6.21,28.90748,,,,,,TRUE,,,,-RA,BKN,700,BKN,1500,,,,,IFR,,,,,,,,,,,,METAR,107.0
EPRZ 140300Z 21015KT 3000 SN BR BKN003 01/00 Q0984 R27/12//95,EPRZ,2019-01-14T03:00:00Z,50.1,22.05,1.0,0.0,210,15,,1.86,29.055119,,,,,,,,,,SN BR,BKN,300,,,,,,,LIFR,,,,,,,,,,,,SPECI,202.0
EPPO 140300Z 29020KT 9999 -SHRA SCT015CB BKN017 04/02 Q0985 R10/290294,EPPO,2019-01-14T03:00:00Z,52.42,16.82,4.0,2.0,290,20,,6.21,29.084646,,,,,,,,,,-SHRA,SCT,1500,BKN,1700,,,,,MVFR,,,,,,,,,,,,SPECI,92.0
EPLL 140300Z 26016KT 5000 -RA BR BKN007 03/03 Q0982,EPLL,2019-01-14T03:00:00Z,51.72,19.4,3.0,3.0,260,16,,3.11,28.996063,,,,,,,,,,-RA BR,BKN,700,,,,,,,IFR,,,,,,,,,,,,METAR,184.0
EPKK 140300Z 25017KT 9999 FEW011 BKN017 03/01 Q0986 R25/29//95,EPKK,2019-01-14T03:00:00Z,50.07,19.8,3.0,1.0,250,17,,6.21,29.114174,,,,,,,,,,,FEW,1100,BKN,1700,,,,,MVFR,,,,,,,,,,,,SPECI,237.0
EPGD 140300Z 31016KT 8000 -SHRA BKN003 BKN012TCU 03/02 Q0977,EPGD,2019-01-14T03:00:00Z,54.37,18.47,3.0,2.0,310,16,,4.97,28.848425,,,,,,,,,,-SHRA,BKN,300,BKN,1200,,,,,LIFR,,,,,,,,,,,,METAR,138.0
EPZG 140300Z 27017G27KT 240V310 8000 -SHRA SCT019 BKN028TCU 04/02 Q0988,EPZG,2019-01-14T03:00:00Z,52.13,15.8,4.0,2.0,270,17,27,4.97,29.17323,,,,,,,,,,-SHRA,SCT,1900,BKN,2800,,,,,MVFR,,,,,,,,,,,,METAR,59.0
EPWR 140300Z 30024KT 9999 FEW017 BKN045 04/01 Q0988,EPWR,2019-01-14T03:00:00Z,51.1,16.87,4.0,1.0,300,24,,6.21,29.17323,,,,,,,,,,,FEW,1700,BKN,4500,,,,,VFR,,,,,,,,,,,,METAR,121.0
EPSC 140300Z 31020G30KT 9999 SCT017 BKN019 03/00 Q0987,EPSC,2019-01-14T03:00:00Z,53.58,14.9,3.0,0.0,310,20,30,6.21,29.143702,,,,,,,,,,,SCT,1700,BKN,1900,,,,,MVFR,,,,,,,,,,,,METAR,47.0
EPMO 140300Z 25012KT 9999 BKN009 BKN015 03/03 Q0979,EPMO,2019-01-14T03:00:00Z,52.45,20.65,3.0,3.0,250,12,,6.21,28.90748,,,,,,,,,,,BKN,900,BKN,1500,,,,,IFR,,,,,,,,,,,,METAR,104.0
EPLB 140300Z 22014KT 9999 -SN BKN009 OVC015 01/01 Q0981,EPLB,2019-01-14T03:00:00Z,51.23,22.72,1.0,1.0,220,14,,6.21,28.966536,,,,,,,,,,-SN,BKN,900,OVC,1500,,,,,IFR,,,,,,,,,,,,METAR,206.0
EPKT 140300Z 26014KT 7000 -SHRA SCT003 BKN004 BKN006CB 02/01 Q0985,EPKT,2019-01-14T03:00:00Z,50.47,19.08,2.0,1.0,260,14,,4.35,29.084646,,,,,,,,,,-SHRA,SCT,300,BKN,400,BKN,600,,,LIFR,,,,,,,,,,,,METAR,284.0
EPBY 140300Z 29016KT 9999 FEW009 BKN014 05/03 Q0981,EPBY,2019-01-14T03:00:00Z,53.1,18.0,5.0,3.0,290,16,,6.21,28.966536,,,,,,,,,,,FEW,900,BKN,1400,,,,,MVFR,,,,,,,,,,,,METAR,71.0
NTAA 140300Z 08010KT 9999 VCSH FEW013TCU SCT060 OVC130 28/23 Q1008 TEMPO 04015G25KT 2000 SHRA FEW010 SCT016 BKN040,NTAA,2019-01-14T03:00:00Z,-17.55,-149.62,28.0,23.0,80,10,,6.21,29.763779,,,,,,,,,,VCSH,FEW,1300,SCT,6000,OVC,13000,,,VFR,,,,,,,,,,,,METAR,2.0
GMTN 140300Z AUTO 19005KT 8000NDV /// 07/03 Q1023,GMTN,2019-01-14T03:00:00Z,35.57,-5.32,7.0,3.0,190,5,,,30.206694,,,TRUE,,,,,,,,,,,,,,,,,,,,,,,,,,,,METAR,10.0
GMTA 140300Z 18004KT CAVOK 07/M05 Q1024 NOSIG,GMTA,2019-01-14T03:00:00Z,35.17,-3.85,7.0,-5.0,180,4,,6.21,30.236221,,,,,,TRUE,,,,,CAVOK,,,,,,,,VFR,,,,,,,,,,,,METAR,14.0
GMMZ 140300Z VRB02KT CAVOK 02/M11 Q1026 NOSIG,GMMZ,2019-01-14T03:00:00Z,30.92,-6.9,2.0,-11.0,0,2,,6.21,30.295275,,,,,,TRUE,,,,,CAVOK,,,,,,,,VFR,,,,,,,,,,,,METAR,1140.0
GMMW 140300Z 22004KT CAVOK 00/M05 Q1023 NOSIG,GMMW,2019-01-14T03:00:00Z,34.98,-3.02,0.0,-5.0,220,4,,6.21,30.206694,,,,,,TRUE,,,,,CAVOK,,,,,,,,VFR,,,,,,,,,,,,METAR,175.0
GMML 140300Z 11010KT CAVOK 14/M12 Q1021 NOSIG,GMML,2019-01-14T03:00:00Z,27.13,-13.23,14.0,-12.0,110,10,,6.21,30.147638,,,,,,TRUE,,,,,CAVOK,,,,,,,,VFR,,,,,,,,,,,,METAR,6.0
GMMB 140300Z AUTO 13004KT //// R32/P2000N ////// 05/05 Q1025 NOSIG,GMMB,2019-01-14T03:00:00Z,33.65,-7.22,5.0,5.0,130,4,,1.24,30.265747,,,TRUE,,,TRUE,,,,,,,,,,,,,,,,,,,,,,,,,METAR,191.0
GMFO 140300Z 17009KT CAVOK 05/M07 Q1024 NOSIG,GMFO,2019-01-14T03:00:00Z,34.77,-1.92,5.0,-7.0,170,9,,6.21,30.236221,,,,,,TRUE,,,,,CAVOK,,,,,,,,VFR,,,,,,,,,,,,METAR,470.0
GMFM 140300Z 16004KT CAVOK 09/M01 Q1024 NOSIG,GMFM,2019-01-14T03:00:00Z,33.87,-5.52,9.0,-1.0,160,4,,6.21,30.236221,,,,,,TRUE,,,,,CAVOK,,,,,,,,VFR,,,,,,,,,,,,METAR,549.0
GMFK 140300Z 05002KT CAVOK 01/M07 Q1027 NOSIG,GMFK,2019-01-14T03:00:00Z,31.95,-4.4,1.0,-7.0,50,2,,6.21,30.324802,,,,,,TRUE,,,,,CAVOK,,,,,,,,VFR,,,,,,,,,,,,METAR,1045.0
GMTT 140300Z 08003KT 050V120 8000 NSC 05/03 Q1025 NOSIG,GMTT,2019-01-14T03:00:00Z,35.72,-5.9,5.0,3.0,80,3,,4.97,30.265747,,,,,,TRUE,,,,,CLR,,,,,,,,MVFR,,,,,,,,,,,,METAR,21.0
GMMX 140300Z AUTO 07002KT 9999NDV /// 05/M03 Q1024,GMMX,2019-01-14T03:00:00Z,31.62,-8.02,5.0,-3.0,70,2,,,30.236221,,,TRUE,,,,,,,,,,,,,,,,,,,,,,,,,,,,METAR,466.0
GMMN 140300Z 13004KT 6000 NSC 03/03 Q1024 NOSIG,GMMN,2019-01-14T03:00:00Z,33.37,-7.57,3.0,3.0,130,4,,3.73,30.236221,,,,,,TRUE,,,,,CLR,,,,,,,,MVFR,,,,,,,,,,,,METAR,206.0
GMME 140300Z 13004KT 090V190 8000 NSC 07/05 Q1024 NOSIG,GMME,2019-01-14T03:00:00Z,34.03,-6.77,7.0,5.0,130,4,,4.97,30.236221,,,,,,TRUE,,,,,CLR,,,,,,,,MVFR,,,,,,,,,,,,METAR,75.0
GMFF 140300Z 19008KT CAVOK 05/M01 Q1025 NOSIG,GMFF,2019-01-14T03:00:00Z,33.92,-4.97,5.0,-1.0,190,8,,6.21,30.265747,,,,,,TRUE,,,,,CAVOK,,,,,,,,VFR,,,,,,,,,,,,METAR,579.0
GMAD 140300Z 06006KT CAVOK 06/01 Q1024 NOSIG,GMAD,2019-01-14T03:00:00Z,30.32,-9.42,6.0,1.0,60,6,,6.21,30.236221,,,,,,TRUE,,,,,CAVOK,,,,,,,,VFR,,,,,,,,,,,,METAR,74.0
PKWA 140300Z AUTO 10019G22KT 10SM SCT028 SCT037 30/23 A2970 RMK AO2 T03000226,PKWA,2019-01-14T03:00:00Z,8.72,167.72,30.0,22.6,100,19,22,10.0,29.698818,,,TRUE,TRUE,,,,,,,SCT,2800,SCT,3700,,,,,VFR,,,,,,,,,,,,SPECI,8.0
MMLO 140300Z 17009KT 6SM -RA SCT030CB BKN080 BKN220 14/10 A3039 RMK 8/963 LTG/SE,MMLO,2019-01-14T03:00:00Z,21.0,-101.47,14.0,10.0,170,9,,6.0,30.389763,,,,,,,,,,-RA,SCT,3000,BKN,8000,BKN,22000,,,VFR,,,,,,,,,,,,SPECI,1819.0
HECA 140300Z 20017KT 2000 SA NSC 11/03 Q1013 NOSIG,HECA,2019-01-14T03:00:00Z,30.12,31.38,11.0,3.0,200,17,,1.24,29.911417,,,,,,TRUE,,,,SA,CLR,,,,,,,,IFR,,,,,,,,,,,,METAR,74.0
VGEG 140300Z 00000KT 2000 HZ SCT100 17/14 Q1016 NOSIG,VGEG,2019-01-14T03:00:00Z,22.27,91.82,17.0,14.0,0,0,,1.24,30.0,,,,,,TRUE,,,,HZ,SCT,10000,,,,,,,IFR,,,,,,,,,,,,METAR,6.0
MKJS 140300Z 17003KT 9999 FEW022 SCT034 25/21 Q1018,MKJS,2019-01-14T03:00:00Z,18.5,-77.92,25.0,21.0,170,3,,6.21,30.059055,,,,,,,,,,,FEW,2200,SCT,3400,,,,,VFR,,,,,,,,,,,,METAR,1.0
SULS 140300Z 08007KT 5000 -DZ OVC005 21/20 Q1014,SULS,2019-01-14T03:00:00Z,-34.87,-55.1,21.0,20.0,80,7,,3.11,29.940945,,,,,,,,,,-DZ,OVC,500,,,,,,,IFR,,,,,,,,,,,,METAR,30.0
RPVD 140300Z 04008KT 9999 VCSH SCT015 BKN080 27/24 Q1011 RMK A2985 VCSH NE,RPVD,2019-01-14T03:00:00Z,9.33,123.3,27.0,24.0,40,8,,6.21,29.852362,,,,,,,,,,VCSH,SCT,1500,BKN,8000,,,,,VFR,,,,,,,,,,,,METAR,8.0
RPMR 140300Z 02012G16KT 9999 FEW015 SCT250 32/21 Q1010 NOSIG RMK A2983,RPMR,2019-01-14T03:00:00Z,6.05,125.1,32.0,21.0,20,12,16,6.21,29.822834,,,,,,TRUE,,,,,FEW,1500,SCT,25000,,,,,VFR,,,,,,,,,,,,METAR,154.0
RPVP 140300Z 09020KT 9999 FEW019 30/24 Q1011 RMK A2985,RPVP,2019-01-14T03:00:00Z,9.75,118.72,30.0,24.0,90,20,,6.21,29.852362,,,,,,,,,,,FEW,1900,,,,,,,VFR,,,,,,,,,,,,METAR,16.0
RPLC 140300Z 04010KT 9999 SCT020 BKN100 28/19 Q1014 NOSIG RMK A2994,RPLC,2019-01-14T03:00:00Z,15.17,120.58,28.0,19.0,40,10,,6.21,29.940945,,,,,,TRUE,,,,,SCT,2000,BKN,10000,,,,,VFR,,,,,,,,,,,,SPECI,196.0
WSSS 140300Z 01006KT 320V060 9999 FEW020TCU BKN300 28/24 Q1011 NOSIG,WSSS,2019-01-14T03:00:00Z,1.37,103.97,28.0,24.0,10,6,,6.21,29.852362,,,,,,TRUE,,,,,FEW,2000,BKN,30000,,,,,VFR,,,,,,,,,,,,METAR,16.0
TAPA 140300Z 07006KT 9999 FEW020 24/19 Q1018 NOSIG,TAPA,2019-01-14T03:00:00Z,17.12,-61.78,24.0,19.0,70,6,,6.21,30.059055,,,,,,TRUE,,,,,FEW,2000,,,,,,,VFR,,,,,,,,,,,,METAR,14.0
MKJP 140300Z 31004KT 9999 FEW022 25/20 Q1018,MKJP,2019-01-14T03:00:00Z,17.92,-76.78,25.0,20.0,310,4,,6.21,30.059055,,,,,,,,,,,FEW,2200,,,,,,,VFR,,,,,,,,,,,,METAR,3.0
RPMZ 140300Z 11007KT 080V160 9999 FEW016CB 30/24 Q1009 RMK A2980 CB NW,RPMZ,2019-01-14T03:00:00Z,6.92,122.07,30.0,24.0,110,7,,6.21,29.793306,,,,,,,,,,,FEW,1600,,,,,,,VFR,,,,,,,,,,,,METAR,6.0
RPLI 140300Z 33005KT 300V010 9999 FEW018 29/19 Q1013 NOSIG RMK A2991,RPLI,2019-01-14T03:00:00Z,18.17,120.52,29.0,19.0,330,5,,6.21,29.911417,,,,,,TRUE,,,,,FEW,1800,,,,,,,VFR,,,,,,,,,,,,METAR,5.0
RPMD 140300Z 01008KT 9999 SCT016 SCT290 30/23 Q1009 RMK A2980,RPMD,2019-01-14T03:00:00Z,7.12,125.65,30.0,23.0,10,8,,6.21,29.793306,,,,,,,,,,,SCT,1600,SCT,29000,,,,,VFR,,,,,,,,,,,,METAR,18.0
RPLB 140300Z 07015KT 030V090 9999 FEW020 30/19 Q1013 NOSIG RMK A2991,RPLB,2019-01-14T03:00:00Z,14.8,120.27,30.0,19.0,70,15,,6.21,29.911417,,,,,,TRUE,,,,,FEW,2000,,,,,,,VFR,,,,,,,,,,,,METAR,17.0
RPVM 140300Z 04014KT 9999 FEW020 29/23 Q1012 RMK A2988,RPVM,2019-01-14T03:00:00Z,10.32,123.98,29.0,23.0,40,14,,6.21,29.88189,,,,,,,,,,,FEW,2000,,,,,,,VFR,,,,,,,,,,,,METAR,10.0
RPLL 140300Z 11010KT 9999 FEW025 30/20 Q1013 NOSIG RMK A2991,RPLL,2019-01-14T03:00:00Z,14.52,121.0,30.0,20.0,110,10,,6.21,29.911417,,,,,,TRUE,,,,,FEW,2500,,,,,,,VFR,,,,,,,,,,,,METAR,21.0
OLBA 140300Z 17007KT 8000 -RA FEW020CB BKN025 12/09 Q1008 NOSIG,OLBA,2019-01-14T03:00:00Z,33.82,35.47,12.0,9.0,170,7,,4.97,29.763779,,,,,,TRUE,,,,-RA,FEW,2000,BKN,2500,,,,,MVFR,,,,,,,,,,,,METAR,19.0
OJAQ 140300Z 22006KT 5000 HZ NSC 12/M02 Q1013 NOSIG,OJAQ,2019-01-14T03:00:00Z,29.62,35.02,12.0,-2.0,220,6,,3.11,29.911417,,,,,,TRUE,,,,HZ,CLR,,,,,,,,MVFR,,,,,,,,,,,,METAR,51.0
SOCA 140300Z AUTO 00000KT 9999 SCT048 24/22 Q1013 TEMPO SHRA FEW012TCU,SOCA,2019-01-14T03:00:00Z,4.82,-52.37,24.0,22.0,0,0,,6.21,29.911417,,,TRUE,,,,,,,,SCT,4800,,,,,,,VFR,,,,,,,,,,,,METAR,9.0
RKSM 140300Z 05002KT 2800 HZ FEW000 FEW025 03/M03 A3034,RKSM,2019-01-14T03:00:00Z,37.42,127.12,3.0,-3.0,50,2,,1.74,30.339567,,,,,,,,,,HZ,FEW,0,FEW,2500,,,,,IFR,,,,,,,,,,,,METAR,20.0
NWWW 140300Z AUTO 12021KT CAVOK 29/21 Q1007 NOSIG,NWWW,2019-01-14T03:00:00Z,-22.02,166.22,29.0,21.0,120,21,,6.21,29.734253,,,TRUE,,,TRUE,,,,,CAVOK,,,,,,,,VFR,,,,,,,,,,,,METAR,16.0
VHHH 140300Z 06006KT 040V100 7000 FEW012 SCT035 20/16 Q1020 NOSIG,VHHH,2019-01-14T03:00:00Z,22.32,113.92,20.0,16.0,60,6,,4.35,30.11811,,,,,,TRUE,,,,,FEW,1200,SCT,3500,,,,,MVFR,,,,,,,,,,,,METAR,9.0
FSIA 140300Z 23004KT 210V300 9999 FEW024 27/24 Q1011 NOSIG,FSIA,2019-01-14T03:00:00Z,-4.67,55.52,27.0,24.0,230,4,,6.21,29.852362,,,,,,TRUE,,,,,FEW,2400,,,,,,,VFR,,,,,,,,,,,,METAR,3.0
OMSJ 140300Z 13005KT CAVOK 16/13 Q1019,OMSJ,2019-01-14T03:00:00Z,25.32,55.52,16.0,13.0,130,5,,6.21,30.088583,,,,,,,,,,,CAVOK,,,,,,,,VFR,,,,,,,,,,,,METAR,33.0
OMRK 140300Z 10008KT CAVOK 15/10 Q1019 A3009,OMRK,2019-01-14T03:00:00Z,25.62,55.92,15.0,10.0,100,8,,6.21,30.088583,,,,,,,,,,,CAVOK,,,,,,,,VFR,,,,,,,,,,,,METAR,31.0
OMFJ 140300Z 30005KT 6000 SCT025 20/14 Q1019 A3010,OMFJ,2019-01-14T03:00:00Z,25.1,56.32,20.0,14.0,300,5,,3.73,30.088583,,,,,,,,,,,SCT,2500,,,,,,,MVFR,,,,,,,,,,,,METAR,28.0
OMDW 140300Z 10004KT CAVOK 12/08 Q1019 NOSIG,OMDW,2019-01-14T03:00:00Z,24.9,55.17,12.0,8.0,100,4,,6.21,30.088583,,,,,,TRUE,,,,,CAVOK,,,,,,,,VFR,,,,,,,,,,,,METAR,25.0
OMDB 140300Z VRB02KT CAVOK 18/13 Q1018 NOSIG,OMDB,2019-01-14T03:00:00Z,25.25,55.37,18.0,13.0,0,2,,6.21,30.059055,,,,,,TRUE,,,,,CAVOK,,,,,,,,VFR,,,,,,,,,,,,METAR,5.0
OMAL 140300Z 12005KT CAVOK 17/08 Q1020 NOSIG,OMAL,2019-01-14T03:00:00Z,24.25,55.6,17.0,8.0,120,5,,6.21,30.11811,,,,,,TRUE,,,,,CAVOK,,,,,,,,VFR,,,,,,,,,,,,METAR,262.0
OMAD 140300Z 13005KT 8000 NSC 16/14 Q1018 NOSIG,OMAD,2019-01-14T03:00:00Z,24.42,54.47,16.0,14.0,130,5,,4.97,30.059055,,,,,,TRUE,,,,,CLR,,,,,,,,MVFR,,,,,,,,,,,,METAR,3.0
OMAA 140300Z 11004KT 8000 NSC 15/12 Q1017 NOSIG,OMAA,2019-01-14T03:00:00Z,24.42,54.63,15.0,12.0,110,4,,4.97,30.029528,,,,,,TRUE,,,,,CLR,,,,,,,,MVFR,,,,,,,,,,,,METAR,27.0
LHBP 140300Z 23007KT 7000 -RA FEW012 BKN026 OVC047 02/02 Q0992 NOSIG,LHBP,2019-01-14T03:00:00Z,47.42,19.27,2.0,2.0,230,7,,4.35,29.291338,,,,,,TRUE,,,,-RA,FEW,1200,BKN,2600,OVC,4700,,,MVFR,,,,,,,,,,,,METAR,185.0
UTNU 140300Z 11008KT 2700 BR NSC 02/M02 Q1007 R13/CLRD70 NOSIG,UTNU,2019-01-14T03:00:00Z,41.58,60.63,2.0,-2.0,110,8,,1.68,29.734253,,,,,,TRUE,,,,BR,CLR,,,,,,,,IFR,,,,,,,,,,,,SPECI,98.0
UTNN 140300Z 13010KT 8000 NSC 03/M02 Q1006 R33/CLRD60 NOSIG,UTNN,2019-01-14T03:00:00Z,42.48,59.63,3.0,-2.0,130,10,,4.97,29.704725,,,,,,TRUE,,,,,CLR,,,,,,,,MVFR,,,,,,,,,,,,SPECI,67.0
UTFN 140300Z 01002KT 9999 NSC M02/M09 Q1022 R28/CLRD70 NOSIG,UTFN,2019-01-14T03:00:00Z,40.98,71.57,-2.0,-9.0,10,2,,6.21,30.177166,,,,,,TRUE,,,,,CLR,,,,,,,,VFR,,,,,,,,,,,,METAR,490.0
FNLU 140300Z 25004KT 9999 FEW020 BKN022 25/23 Q1011 NOSIG,FNLU,2019-01-14T03:00:00Z,-8.83,13.22,25.0,23.0,250,4,,6.21,29.852362,,,,,,TRUE,,,,,FEW,2000,BKN,2200,,,,,MVFR,,,,,,,,,,,,METAR,70.0
YBDV 140300Z AUTO 02007KT //// // ////// 43/06 Q1006,YBDV,2019-01-14T03:00:00Z,-25.9,139.35,43.0,6.0,20,7,,,29.704725,,,TRUE,,,,,,,,,,,,,,,,,,,,,,,,,,,,METAR,47.0
YBCV 140300Z AUTO 10011KT 9999 // NCD 36/03 Q1012,YBCV,2019-01-14T03:00:00Z,-26.38,146.27,36.0,3.0,100,11,,6.21,29.88189,,,TRUE,,,,,,,,CLR,,,,,,,,VFR,,,,,,,,,,,,METAR,304.0
YBCS 140300Z AUTO 18009KT 9999 // SCT029 BKN082 27/24 Q1009 RERA INTER 0300/0600 4000 SHRA BKN018,YBCS,2019-01-14T03:00:00Z,-16.87,145.75,27.0,24.0,180,9,,6.21,29.793306,,,TRUE,,,,,,,,SCT,2900,BKN,8200,,,,,VFR,,,,,,,,,,,,METAR,7.0
YAYE 140300Z AUTO 07006KT 020V140 9999 // NCD 42/03 Q1008,YAYE,2019-01-14T03:00:00Z,-25.18,130.98,42.0,3.0,70,6,,6.21,29.763779,,,TRUE,,,,,,,,CLR,,,,,,,,VFR,,,,,,,,,,,,SPECI,496.0
YARG 140300Z AUTO 12006KT 9999 // NCD 33/20 Q1007,YARG,2019-01-14T03:00:00Z,-16.63,128.45,33.0,20.0,120,6,,6.21,29.734253,,,TRUE,,,,,,,,CLR,,,,,,,,VFR,,,,,,,,,,,,METAR,165.0
YABA 140300Z AUTO 14008KT 9999 // BKN040 21/10 Q1016,YABA,2019-01-14T03:00:00Z,-34.93,117.8,21.0,10.0,140,8,,6.21,30.0,,,TRUE,,,,,,,,BKN,4000,,,,,,,VFR,,,,,,,,,,,,METAR,69.0
YSSY 140300Z 05019KT CAVOK 30/18 Q1015 NOSIG,YSSY,2019-01-14T03:00:00Z,-33.95,151.17,30.0,18.0,50,19,,6.21,29.970472,,,,,,TRUE,,,,,CAVOK,,,,,,,,VFR,,,,,,,,,,,,METAR,3.0
YPPH 140300Z 30005KT 230V030 CAVOK 29/13 Q1012 FM0500 22017KT CAVOK,YPPH,2019-01-14T03:00:00Z,-31.93,115.98,29.0,13.0,300,5,,6.21,29.88189,,,,,,,,,,,CAVOK,,,,,,,,VFR,,,,,,,,,,,,METAR,13.0
YPDN 140300Z 01010KT 9999 FEW036 BKN160 32/23 Q1006 INTER 0330/0430 VRB15G30KT 2000 SHRA BKN015,YPDN,2019-01-14T03:00:00Z,-12.42,130.9,32.0,23.0,10,10,,6.21,29.704725,,,,,,,,,,,FEW,3600,BKN,16000,,,,,VFR,,,,,,,,,,,,METAR,30.0
YBBN 140300Z 11011KT 9999 FEW040 29/18 Q1016 NOSIG,YBBN,2019-01-14T03:00:00Z,-27.38,153.13,29.0,18.0,110,11,,6.21,30.0,,,,,,TRUE,,,,,FEW,4000,,,,,,,VFR,,,,,,,,,,,,METAR,5.0
YPAD 140300Z 22009KT CAVOK 30/09 Q1009 NOSIG,YPAD,2019-01-14T03:00:00Z,-34.95,138.52,30.0,9.0,220,9,,6.21,29.793306,,,,,,TRUE,,,,,CAVOK,,,,,,,,VFR,,,,,,,,,,,,METAR,4.0
YGLA 140300Z AUTO 10016KT 9999 // BKN059 30/20 Q1013,YGLA,2019-01-14T03:00:00Z,-23.87,151.22,30.0,20.0,100,16,,6.21,29.911417,,,TRUE,,,,,,,,BKN,5900,,,,,,,VFR,,,,,,,,,,,,METAR,52.0
YGEL 140300Z 19017KT 9999 FEW025 26/18 Q1011,YGEL,2019-01-14T03:00:00Z,-28.8,114.7,26.0,18.0,190,17,,6.21,29.852362,,,,,,,,,,,FEW,2500,,,,,,,VFR,,,,,,,,,,,,METAR,37.0
YHID 140300Z AUTO 02006KT 9999 // BKN018 BKN026 28/25 Q1007,YHID,2019-01-14T03:00:00Z,-10.58,142.3,28.0,25.0,20,6,,6.21,29.734253,,,TRUE,,,,,,,,BKN,1800,BKN,2600,,,,,MVFR,,,,,,,,,,,,METAR,13.0
YPJT 140300Z AUTO 20005KT 9999 // NCD 27/15 Q1013 RF00.0/000.0,YPJT,2019-01-14T03:00:00Z,-32.1,115.88,27.0,15.0,200,5,,6.21,29.911417,,,TRUE,,,,,,,,CLR,,,,,,,,VFR,,,,,,,,,,,,METAR,30.0
YMTG 140300Z AUTO 22011KT 9999 // NCD 30/16 Q1011,YMTG,2019-01-14T03:00:00Z,-37.75,140.78,30.0,16.0,220,11,,6.21,29.852362,,,TRUE,,,,,,,,CLR,,,,,,,,VFR,,,,,,,,,,,,METAR,65.0
YPWR 140300Z AUTO 03008KT 310V050 9999 // NCD 42/M01 Q1008,YPWR,2019-01-14T03:00:00Z,-31.12,136.82,42.0,-1.0,30,8,,6.21,29.763779,,,TRUE,,,,,,,,CLR,,,,,,,,VFR,,,,,,,,,,,,METAR,167.0
YBMK 140300Z AUTO 14019KT 9999 // ////// 29/22 Q1011,YBMK,2019-01-14T03:00:00Z,-21.17,149.17,29.0,22.0,140,19,,6.21,29.852362,,,TRUE,,,,,,,,,,,,,,,,,,,,,,,,,,,,METAR,31.0
WALL 140300Z 35004KT 9999 FEW018CB SCT018 26/25Q1009 RMK CB TO S AND W,WALL,2019-01-14T03:00:00Z,-1.27,116.9,,,350,4,,6.21,29.793306,,,,,,,,,,,FEW,1800,SCT,1800,,,,,VFR,,,,,,,,,,,,METAR,3.0
WIPP 140300Z 29007KT 9999 BKN010 27/24 Q1011,WIPP,2019-01-14T03:00:00Z,-2.88,104.7,27.0,24.0,290,7,,6.21,29.852362,,,,,,,,,,,BKN,1000,,,,,,,MVFR,,,,,,,,,,,,METAR,10.0
WIOO 140300Z 04003KT 9999 SCT010 28/24 Q1010,WIOO,2019-01-14T03:00:00Z,-0.15,109.4,28.0,24.0,40,3,,6.21,29.822834,,,,,,,,,,,SCT,1000,,,,,,,VFR,,,,,,,,,,,,METAR,3.0
WIBB 140300Z 00000KT 8000 SCT013 27/24 Q1010,WIBB,2019-01-14T03:00:00Z,0.47,101.45,27.0,24.0,0,0,,4.97,29.822834,,,,,,,,,,,SCT,1300,,,,,,,MVFR,,,,,,,,,,,,METAR,31.0
WAHS 140300Z 32008KT 6000 FEW013CB FEW014 30/24 Q1009 CB TO N,WAHS,2019-01-14T03:00:00Z,-6.98,110.38,30.0,24.0,320,8,,3.73,29.793306,,,,,,,,,,,FEW,1300,FEW,1400,,,,,MVFR,,,,,,,,,,,,METAR,5.0
WAPP 140300Z 34007KT 310V020 9999 SCT019 33/24 Q1006 NOSIG,WAPP,2019-01-14T03:00:00Z,-3.7,128.07,33.0,24.0,340,7,,6.21,29.704725,,,,,,TRUE,,,,,SCT,1900,,,,,,,VFR,,,,,,,,,,,,METAR,12.0
WATT 140300Z 33005KT 9999 FEW017 BKN090 32/25 Q1007 NOSIG,WATT,2019-01-14T03:00:00Z,-10.17,123.67,32.0,25.0,330,5,,6.21,29.734253,,,,,,TRUE,,,,,FEW,1700,BKN,9000,,,,,VFR,,,,,,,,,,,,METAR,102.0
DFFD 140300Z 01003KT CAVOK 20/M03 Q1013 NOSIG,DFFD,2019-01-14T03:00:00Z,12.33,-1.52,20.0,-3.0,10,3,,6.21,29.911417,,,,,,TRUE,,,,,CAVOK,,,,,,,,VFR,,,,,,,,,,,,METAR,306.0
DFOO 140300Z 04004KT CAVOK 23/02 Q1014,DFOO,2019-01-14T03:00:00Z,11.17,-4.32,23.0,2.0,40,4,,6.21,29.940945,,,,,,,,,,,CAVOK,,,,,,,,VFR,,,,,,,,,,,,METAR,460.0
FTTA 140300Z 34006KT CAVOK 24/M04 Q1011,FTTA,2019-01-14T03:00:00Z,9.15,18.37,24.0,-4.0,340,6,,6.21,29.852362,,,,,,,,,,,CAVOK,,,,,,,,VFR,,,,,,,,,,,,METAR,365.0
FTTJ 140300Z 35007KT 2500 DU NSC 19/M06 Q1012 NOSIG,FTTJ,2019-01-14T03:00:00Z,12.12,15.02,19.0,-6.0,350,7,,1.55,29.88189,,,,,,TRUE,,,,DU,CLR,,,,,,,,IFR,,,,,,,,,,,,METAR,295.0
DBBB 140300Z 24009KT 7000 FEW012 28/25 Q1010 NOSIG,DBBB,2019-01-14T03:00:00Z,6.33,2.37,28.0,25.0,240,9,,4.35,29.822834,,,,,,TRUE,,,,,FEW,1200,,,,,,,MVFR,,,,,,,,,,,,METAR,9.0
LFLW 140300Z AUTO 31013KT 9999 OVC008 05/05 Q1019,LFLW,2019-01-14T03:00:00Z,44.88,2.42,5.0,5.0,310,13,,6.21,30.088583,,,TRUE,,,,,,,,OVC,800,,,,,,,IFR,,,,,,,,,,,,METAR,639.0
YSNW 140300Z 06010KT 9999 FEW025 29/21 Q1014 NOSIG,YSNW,2019-01-14T03:00:00Z,-34.95,150.52,29.0,21.0,60,10,,6.21,29.940945,,,,,,TRUE,,,,,FEW,2500,,,,,,,VFR,,,,,,,,,,,,METAR,110.0
YLHI 140300Z 19007KT 9999 FEW026 SCT034 BKN070 26/19 Q1017,YLHI,2019-01-14T03:00:00Z,-31.53,159.07,26.0,19.0,190,7,,6.21,30.029528,,,,,,,,,,,FEW,2600,SCT,3400,BKN,7000,,,VFR,,,,,,,,,,,,METAR,2.0
YCFS 140300Z AUTO 09010KT 9999 // NCD 27/19 Q1017 RF00.0/000.0,YCFS,2019-01-14T03:00:00Z,-30.32,153.12,27.0,19.0,90,10,,6.21,30.029528,,,TRUE,,,,,,,,CLR,,,,,,,,VFR,,,,,,,,,,,,METAR,5.0
YPCC 140300Z 14015KT 9999 FEW025 SCT350 30/21 Q1012 RF00.0/000.0,YPCC,2019-01-14T03:00:00Z,-12.17,96.82,30.0,21.0,140,15,,6.21,29.88189,,,,,,,,,,,FEW,2500,SCT,35000,,,,,VFR,,,,,,,,,,,,METAR,3.0
YPTN 140300Z AUTO 01007KT 330V080 9999 // SCT043 33/22 Q1006,YPTN,2019-01-14T03:00:00Z,-14.52,132.38,33.0,22.0,10,7,,6.21,29.704725,,,TRUE,,,,,,,,SCT,4300,,,,,,,VFR,,,,,,,,,,,,METAR,109.0
YPLM 140300Z AUTO 21016KT 9999 // NCD 34/15 Q1006,YPLM,2019-01-14T03:00:00Z,-22.22,114.07,34.0,15.0,210,16,,6.21,29.704725,,,TRUE,,,,,,,,CLR,,,,,,,,VFR,,,,,,,,,,,,SPECI,6.0
YPKU 140300Z AUTO 09005KT 030V190 9999 // BKN034 32/24 Q1006,YPKU,2019-01-14T03:00:00Z,-15.77,128.68,32.0,24.0,90,5,,6.21,29.704725,,,TRUE,,,,,,,,BKN,3400,,,,,,,VFR,,,,,,,,,,,,METAR,45.0
AYMH 140300Z 34006KT 9999 BKN030 SCT050 Q1015 RMK: TEMP AND DP NOT AVBL,AYMH,2019-01-14T03:00:00Z,-5.83,144.3,,,340,6,,6.21,29.970472,,,,,,,,,,,BKN,3000,SCT,5000,,,,,MVFR,,,,,,,,,,,,METAR,1642.0
AYNZ 140300Z 18005KT 9999 SCT032 SCT090 32/24 Q1004,AYNZ,2019-01-14T03:00:00Z,-6.57,146.72,32.0,24.0,180,5,,6.21,29.64567,,,,,,,,,,,SCT,3200,SCT,9000,,,,,VFR,,,,,,,,,,,,METAR,70.0
DXSK 140300Z 28004KT CAVOK 22/07 Q////,DXSK,2019-01-14T03:00:00Z,9.0,1.15,22.0,7.0,280,4,,6.21,,,,,,,,,,,,CAVOK,,,,,,,,VFR,,,,,,,,,,,,METAR,387.0
DXNG 140300Z 04008KT CAVOK 25/03 Q1014,DXNG,2019-01-14T03:00:00Z,9.77,1.1,25.0,3.0,40,8,,6.21,29.940945,,,,,,,,,,,CAVOK,,,,,,,,VFR,,,,,,,,,,,,METAR,343.0
DXXX 140300Z 23010KT 9999 SCT013 29/26 Q1011 NOSIG,DXXX,2019-01-14T03:00:00Z,6.17,1.25,29.0,26.0,230,10,,6.21,29.852362,,,,,,TRUE,,,,,SCT,1300,,,,,,,VFR,,,,,,,,,,,,METAR,25.0
DRRN 140300Z 03005KT CAVOK 18/M07 Q1013 NOSIG,DRRN,2019-01-14T03:00:00Z,13.47,2.17,18.0,-7.0,30,5,,6.21,29.911417,,,,,,TRUE,,,,,CAVOK,,,,,,,,VFR,,,,,,,,,,,,METAR,227.0
VOBZ 140300Z 02003KT 0600 FG NSC 20/18 Q1016 NOSIG,VOBZ,2019-01-14T03:00:00Z,16.52,80.78,20.0,18.0,20,3,,0.37,30.0,,,,,,TRUE,,,,FG,CLR,,,,,,,,LIFR,,,,,,,,,,,,METAR,24.0
VEBS 140300Z 28002KT 1500 R14/2000 BR NSC 17/17 Q1016 NOSIG,VEBS,2019-01-14T03:00:00Z,20.25,85.82,17.0,17.0,280,2,,0.93,30.0,,,,,,TRUE,,,,BR,CLR,,,,,,,,LIFR,,,,,,,,,,,,METAR,46.0
DNKN 140300Z 04003KT CAVOK 15/M01 Q1017 NOSIG,DNKN,2019-01-14T03:00:00Z,12.05,8.52,15.0,-1.0,40,3,,6.21,30.029528,,,,,,TRUE,,,,,CAVOK,,,,,,,,VFR,,,,,,,,,,,,METAR,481.0
DNMM 140300Z 00000KT 6000 FEW011 27/26 Q1012 NOSIG,DNMM,2019-01-14T03:00:00Z,6.57,3.32,27.0,26.0,0,0,,3.73,29.88189,,,,,,TRUE,,,,,FEW,1100,,,,,,,MVFR,,,,,,,,,,,,METAR,38.0
UMKK 140300Z 30005MPS 9999 BKN006 BKN016CB 04/04 Q0975 R24/29//60 NOSIG RMK QBB180 OBST OBSC QFE730/0973,UMKK,2019-01-14T03:00:00Z,54.88,20.6,4.0,4.0,300,10,,6.21,28.78937,,,,,,TRUE,,,,,BKN,600,BKN,1600,,,,,IFR,,,,,,,,,,,,METAR,21.0
ULOO 140300Z AUTO 14006MPS 4500 // ///007/// 01/00 Q0975 RMK QFE727,ULOO,2019-01-14T03:00:00Z,57.78,28.4,1.0,0.0,140,12,,2.8,28.78937,,,TRUE,,,,,,,,,,,,,,,,,,,,,,,,,,,,METAR,47.0
UUYY 140300Z 19004MPS 9000 SCT016CB OVC040 M10/M12 Q0991 R18/450340 NOSIG RMK QFE735/0980,UUYY,2019-01-14T03:00:00Z,61.65,50.82,-10.0,-12.0,190,8,,5.59,29.26181,,,,,,TRUE,,,,,SCT,1600,OVC,4000,,,,,VFR,,,,,,,,,,,,METAR,119.0
UUOO 140300Z 19005MPS 5000 BR OVC029 M03/M05 Q0999 R30/820240 NOSIG RMK QFE736,UUOO,2019-01-14T03:00:00Z,51.82,39.23,-3.0,-5.0,190,10,,3.11,29.498032,,,,,,TRUE,,,,BR,OVC,2900,,,,,,,MVFR,,,,,,,,,,,,METAR,157.0
ULMM 140300Z 00000MPS 9999 BKN036 M11/M13 Q0978 R31/690140 NOSIG RMK QFE726,ULMM,2019-01-14T03:00:00Z,68.78,32.75,-11.0,-13.0,0,0,,6.21,28.877953,,,,,,TRUE,,,,,BKN,3600,,,,,,,VFR,,,,,,,,,,,,METAR,51.0
ULAA 140300Z 24002MPS 200V270 4900 -SN OVC007 M07/M08 Q0984 R26/590339 NOSIG RMK QFE736/0982,ULAA,2019-01-14T03:00:00Z,64.6,40.72,-7.0,-8.0,240,4,,3.04,29.055119,,,,,,TRUE,,,,-SN,OVC,700,,,,,,,IFR,,,,,,,,,,,,METAR,19.0
TNCC 140300Z AUTO 10011KT 9999 NSC 25/21 Q1016 NOSIG,TNCC,2019-01-14T03:00:00Z,12.2,-68.97,25.0,21.0,100,11,,6.21,30.0,,,TRUE,,,TRUE,,,,,CLR,,,,,,,,VFR,,,,,,,,,,,,METAR,9.0
OEYN 140300Z 28008KT 9999 FEW040 21/17 Q1010 NOSIG,OEYN,2019-01-14T03:00:00Z,24.13,38.07,21.0,17.0,280,8,,6.21,29.822834,,,,,,TRUE,,,,,FEW,4000,,,,,,,VFR,,,,,,,,,,,,METAR,8.0
OEWJ 140300Z 34006KT 8000 FEW040 SCT100 18/09 Q1014 NOSIG,OEWJ,2019-01-14T03:00:00Z,26.18,36.47,18.0,9.0,340,6,,4.97,29.940945,,,,,,TRUE,,,,,FEW,4000,SCT,10000,,,,,MVFR,,,,,,,,,,,,METAR,16.0
OEWD 140300Z 12010KT CAVOK 12/03 Q1015 NOSIG,OEWD,2019-01-14T03:00:00Z,20.5,45.2,12.0,3.0,120,10,,6.21,29.970472,,,,,,TRUE,,,,,CAVOK,,,,,,,,VFR,,,,,,,,,,,,METAR,617.0
OETR 140300Z 23010KT 7000 NSC 04/01 Q1010,OETR,2019-01-14T03:00:00Z,31.7,38.73,4.0,1.0,230,10,,4.35,29.822834,,,,,,,,,,,CLR,,,,,,,,MVFR,,,,,,,,,,,,METAR,855.0
OETF 140300Z 20011KT CAVOK 17/01 Q1019 NOSIG,OETF,2019-01-14T03:00:00Z,21.47,40.53,17.0,1.0,200,11,,6.21,30.088583,,,,,,TRUE,,,,,CAVOK,,,,,,,,VFR,,,,,,,,,,,,METAR,1449.0
OETB 140300Z 23003KT 9999 FEW040 07/00 Q1013 NOSIG,OETB,2019-01-14T03:00:00Z,28.37,36.62,7.0,0.0,230,3,,6.21,29.911417,,,,,,TRUE,,,,,FEW,4000,,,,,,,VFR,,,,,,,,,,,,METAR,770.0
OESH 140300Z 00000KT CAVOK 13/04 Q1016 NOSIG,OESH,2019-01-14T03:00:00Z,17.47,47.12,13.0,4.0,0,0,,6.21,30.0,,,,,,TRUE,,,,,CAVOK,,,,,,,,VFR,,,,,,,,,,,,METAR,722.0
OERR 140300Z 28009KT CAVOK 07/06 Q1011 NOSIG,OERR,2019-01-14T03:00:00Z,30.88,41.12,7.0,6.0,280,9,,6.21,29.852362,,,,,,TRUE,,,,,CAVOK,,,,,,,,VFR,,,,,,,,,,,,METAR,552.0
OERF 140300Z 31012KT 9999 BKN040 BKN100 18/10 Q1009,OERF,2019-01-14T03:00:00Z,29.62,43.47,18.0,10.0,310,12,,6.21,29.793306,,,,,,,,,,,BKN,4000,BKN,10000,,,,,VFR,,,,,,,,,,,,METAR,447.0
OEPA 140300Z 20012KT CAVOK 11/03 Q1010 NOSIG,OEPA,2019-01-14T03:00:00Z,28.32,46.12,11.0,3.0,200,12,,6.21,29.822834,,,,,,TRUE,,,,,CAVOK,,,,,,,,VFR,,,,,,,,,,,,METAR,355.0
OENG 140300Z 00000KT CAVOK 11/00 Q1018 NOSIG,OENG,2019-01-14T03:00:00Z,17.62,44.42,11.0,0.0,0,0,,6.21,30.059055,,,,,,TRUE,,,,,CAVOK,,,,,,,,VFR,,,,,,,,,,,,METAR,1203.0
OEKM 140300Z 17007KT CAVOK 11/05 Q1023 NOSIG,OEKM,2019-01-14T03:00:00Z,18.3,42.78,11.0,5.0,170,7,,6.21,30.206694,,,,,,TRUE,,,,,CAVOK,,,,,,,,VFR,,,,,,,,,,,,METAR,2054.0
VQPR 140300Z VRB01KT 9999 SKC M01/M06 Q1024,VQPR,2019-01-14T03:00:00Z,27.4,89.43,-1.0,-6.0,0,1,,6.21,30.236221,,,,,,,,,,,SKC,,,,,,,,VFR,,,,,,,,,,,,METAR,2235.0
GGOV 140300Z 02006KT CAVOK 22/18 Q1012 NOSIG,GGOV,2019-01-14T03:00:00Z,11.87,-15.65,22.0,18.0,20,6,,6.21,29.88189,,,,,,TRUE,,,,,CAVOK,,,,,,,,VFR,,,,,,,,,,,,METAR,36.0
SAWE 140300Z 29015KT CAVOK 09/04 Q1004,SAWE,2019-01-14T03:00:00Z,-53.78,-67.75,9.0,4.0,290,15,,6.21,29.64567,,,,,,,,,,,CAVOK,,,,,,,,VFR,,,,,,,,,,,,METAR,22.0
SAOC 140300Z 23005KT CAVOK 19/16 Q1018,SAOC,2019-01-14T03:00:00Z,-33.12,-64.27,19.0,16.0,230,5,,6.21,30.059055,,,,,,,,,,,CAVOK,,,,,,,,VFR,,,,,,,,,,,,METAR,421.0
OEKJ 140300Z 17015KT CAVOK 15/05 Q1018,OEKJ,2019-01-14T03:00:00Z,24.07,47.58,15.0,5.0,170,15,,6.21,30.059055,,,,,,,,,,,CAVOK,,,,,,,,VFR,,,,,,,,,,,,METAR,503.0
OEHL 140300Z 22010KT 9999 SCT040 SCT100 16/11 Q1012,OEHL,2019-01-14T03:00:00Z,27.42,41.67,16.0,11.0,220,10,,6.21,29.88189,,,,,,,,,,,SCT,4000,SCT,10000,,,,,VFR,,,,,,,,,,,,METAR,1013.0
OEGT 140300Z 24010KT 6000 SCT040 03/02 Q1011 NOSIG,OEGT,2019-01-14T03:00:00Z,31.42,37.27,3.0,2.0,240,10,,3.73,29.852362,,,,,,TRUE,,,,,SCT,4000,,,,,,,MVFR,,,,,,,,,,,,METAR,499.0
OEGS 140300Z 21003KT 9999 SCT040 15/11 Q1013,OEGS,2019-01-14T03:00:00Z,26.3,43.77,15.0,11.0,210,3,,6.21,29.911417,,,,,,,,,,,SCT,4000,,,,,,,VFR,,,,,,,,,,,,METAR,650.0
OEGN 140300Z 12007KT 7000 NSC 23/19 Q1012 NOSIG,OEGN,2019-01-14T03:00:00Z,16.88,42.57,23.0,19.0,120,7,,4.35,29.88189,,,,,,TRUE,,,,,CLR,,,,,,,,MVFR,,,,,,,,,,,,METAR,3.0
OEBH 140300Z 00000KT CAVOK 10/01 Q1017 NOSIG,OEBH,2019-01-14T03:00:00Z,19.97,42.62,10.0,1.0,0,0,,6.21,30.029528,,,,,,TRUE,,,,,CAVOK,,,,,,,,VFR,,,,,,,,,,,,METAR,1157.0
OEBA 140300Z 14003KT CAVOK 16/02 Q1019 NOSIG,OEBA,2019-01-14T03:00:00Z,20.3,41.62,16.0,2.0,140,3,,6.21,30.088583,,,,,,TRUE,,,,,CAVOK,,,,,,,,VFR,,,,,,,,,,,,METAR,1656.0
OEAR 140300Z 00000KT CAVOK 21/17 Q1013,OEAR,2019-01-14T03:00:00Z,,,21.0,17.0,0,0,,6.21,29.911417,,,,,,,,,,,CAVOK,,,,,,,,VFR,,,,,,,,,,,,METAR,
OEAO 140300Z 25008KT 9999 SCT040 17/M06 Q1014,OEAO,2019-01-14T03:00:00Z,26.48,38.12,17.0,-6.0,250,8,,6.21,29.940945,,,,,,,,,,,SCT,4000,,,,,,,VFR,,,,,,,,,,,,METAR,624.0
OEAH 140300Z 17004KT CAVOK 11/01 Q1016 NOSIG,OEAH,2019-01-14T03:00:00Z,25.27,49.47,11.0,1.0,170,4,,6.21,30.0,,,,,,TRUE,,,,,CAVOK,,,,,,,,VFR,,,,,,,,,,,,METAR,172.0
OEAB 140300Z 15004KT CAVOK 13/01 Q1024 NOSIG,OEAB,2019-01-14T03:00:00Z,18.22,42.63,13.0,1.0,150,4,,6.21,30.236221,,,,,,TRUE,,,,,CAVOK,,,,,,,,VFR,,,,,,,,,,,,METAR,2084.0
FLKK 140300Z 04005KT 9999 FEW010 20/19 Q1016,FLKK,2019-01-14T03:00:00Z,-15.32,28.45,20.0,19.0,40,5,,6.21,30.0,,,,,,,,,,,FEW,1000,,,,,,,VFR,,,,,,,,,,,,METAR,1154.0
DABS 140300Z 32004KT 9999 BKN040 03/M01 Q1019,DABS,2019-01-14T03:00:00Z,35.43,8.12,3.0,-1.0,320,4,,6.21,30.088583,,,,,,,,,,,BKN,4000,,,,,,,VFR,,,,,,,,,,,,METAR,813.0
WADD 140300Z 28009KT 9999 FEW017 30/26 Q1008 NOSIG,WADD,2019-01-14T03:00:00Z,-8.73,115.17,30.0,26.0,280,9,,6.21,29.763779,,,,,,TRUE,,,,,FEW,1700,,,,,,,VFR,,,,,,,,,,,,METAR,216.0
WARR 140300Z 28006KT 240V340 9999 SCT020 32/24 Q1008 NOSIG,WARR,2019-01-14T03:00:00Z,-7.37,112.78,32.0,24.0,280,6,,6.21,29.763779,,,,,,TRUE,,,,,SCT,2000,,,,,,,VFR,,,,,,,,,,,,METAR,2.0
WAAA 140300Z 34007KT 310V020 9999 FEW018CB SCT019 30/26 Q1008 NOSIG,WAAA,2019-01-14T03:00:00Z,-5.07,119.53,30.0,26.0,340,7,,6.21,29.763779,,,,,,TRUE,,,,,FEW,1800,SCT,1900,,,,,VFR,,,,,,,,,,,,METAR,14.0
UEEE 140300Z 00000MPS 1900 R23L/1900N BR NSC M37/M41 Q1027 R23L/490150 NOSIG RMK QFE761,UEEE,2019-01-14T03:00:00Z,62.08,129.77,-37.0,-41.0,0,0,,1.18,30.324802,,,,,,TRUE,,,,BR,CLR,,,,,,,,IFR,,,,,,,,,,,,METAR,103.0
NIUE 140300Z AUTO 09009KT 050V130 //// // ///////// 29/23 Q1005,NIUE,2019-01-14T03:00:00Z,-19.07,-169.92,29.0,23.0,90,9,,,29.675198,,,TRUE,,,,,,,,,,,,,,,,,,,,,,,,,,,,METAR,20.0
WMKA 140300Z 05005KT 350V150 9999 FEW022 BKN300 30/24 Q1011,WMKA,2019-01-14T03:00:00Z,6.2,100.4,30.0,24.0,50,5,,6.21,29.852362,,,,,,,,,,,FEW,2200,BKN,30000,,,,,VFR,,,,,,,,,,,,METAR,5.0
WMKN 140300Z 05006KT 010V120 9999 SCT018 BKN300 30/25 Q1012,WMKN,2019-01-14T03:00:00Z,5.37,103.08,30.0,25.0,50,6,,6.21,29.88189,,,,,,,,,,,SCT,1800,BKN,30000,,,,,VFR,,,,,,,,,,,,METAR,6.0
WMKM 140300Z 05012KT 340V080 9999 FEW020 BKN280 30/24 Q1011,WMKM,2019-01-14T03:00:00Z,2.27,102.25,30.0,24.0,50,12,,6.21,29.852362,,,,,,,,,,,FEW,2000,BKN,28000,,,,,VFR,,,,,,,,,,,,METAR,9.0
WMKL 140300Z 09011KT 060V120 9999 FEW022 BKN280 31/22 Q1011,WMKL,2019-01-14T03:00:00Z,6.32,99.72,31.0,22.0,90,11,,6.21,29.852362,,,,,,,,,,,FEW,2200,BKN,28000,,,,,VFR,,,,,,,,,,,,METAR,7.0
WMKI 140300Z 04004KT 350V100 9999 FEW020 BKN300 29/23 Q1011,WMKI,2019-01-14T03:00:00Z,4.57,101.08,29.0,23.0,40,4,,6.21,29.852362,,,,,,,,,,,FEW,2000,BKN,30000,,,,,VFR,,,,,,,,,,,,METAR,39.0
WMKE 140300Z VRB03KT 9999 SCT013 SCT140 BKN270 27/25 Q1011,WMKE,2019-01-14T03:00:00Z,4.53,103.43,27.0,25.0,0,3,,6.21,29.852362,,,,,,,,,,,SCT,1300,SCT,14000,BKN,27000,,,VFR,,,,,,,,,,,,METAR,5.0
WMKD 140300Z VRB04KT 9999 FEW019 BKN290 29/25 Q1011 NOSIG,WMKD,2019-01-14T03:00:00Z,3.77,103.22,29.0,25.0,0,4,,6.21,29.852362,,,,,,TRUE,,,,,FEW,1900,BKN,29000,,,,,VFR,,,,,,,,,,,,METAR,16.0
WMKC 140300Z 08005KT 050V160 9999 SCT018 BKN280 29/25 Q1012,WMKC,2019-01-14T03:00:00Z,6.17,102.27,29.0,25.0,80,5,,6.21,29.88189,,,,,,,,,,,SCT,1800,BKN,28000,,,,,VFR,,,,,,,,,,,,METAR,5.0
WMKB 140300Z 07006KT 020V100 9999 FEW020 BKN280 30/23 Q1010 NOSIG,WMKB,2019-01-14T03:00:00Z,5.47,100.37,30.0,23.0,70,6,,6.21,29.822834,,,,,,TRUE,,,,,FEW,2000,BKN,28000,,,,,VFR,,,,,,,,,,,,METAR,4.0
WMBA 140300Z VRB03KT 9999 FEW017CB BKN280 30/24 Q1010,WMBA,2019-01-14T03:00:00Z,4.22,100.7,30.0,24.0,0,3,,6.21,29.822834,,,,,,,,,,,FEW,1700,BKN,28000,,,,,VFR,,,,,,,,,,,,METAR,8.0
WMAU 140300Z 33009KT 290V060 9999 FEW020 BKN140 BKN270 28/25 Q//// QFF1011,WMAU,2019-01-14T03:00:00Z,2.38,103.88,28.0,25.0,330,9,,6.21,,,,,,,,,,,,FEW,2000,BKN,14000,BKN,27000,,,VFR,,,,,,,,,,,,METAR,45.0
GOOK 140300Z 32004KT CAVOK 24/16 Q1013,GOOK,2019-01-14T03:00:00Z,14.15,-16.07,24.0,16.0,320,4,,6.21,29.911417,,,,,,,,,,,CAVOK,,,,,,,,VFR,,,,,,,,,,,,METAR,7.0
GQNO 140300Z 08005KT 8000 NSC 18/M13 Q1014 NOSIG,GQNO,2019-01-14T03:00:00Z,18.3,-15.97,18.0,-13.0,80,5,,4.97,29.940945,,,,,,TRUE,,,,,CLR,,,,,,,,MVFR,,,,,,,,,,,,METAR,4.0
FYWW 140300Z AUTO 11006KT //// // ////// 21/04 Q1019,FYWW,2019-01-14T03:00:00Z,-22.57,17.1,21.0,4.0,110,6,,,30.088583,,,TRUE,,,,,,,,,,,,,,,,,,,,,,,,,,,,METAR,1725.0
FYWH 140300Z 00000KT CAVOK 16/03 Q1020 NOSIG,FYWH,2019-01-14T03:00:00Z,-22.47,17.47,16.0,3.0,0,0,,6.21,30.11811,,,,,,TRUE,,,,,CAVOK,,,,,,,,VFR,,,,,,,,,,,,METAR,1700.0
FYWB 140300Z AUTO 04004KT //// // ////// 18/16 Q1012,FYWB,2019-01-14T03:00:00Z,-22.98,14.65,18.0,16.0,40,4,,,29.88189,,,TRUE,,,,,,,,,,,,,,,,,,,,,,,,,,,,METAR,46.0
FYRN 140300Z 09003KT CAVOK 24/17 Q1013,FYRN,2019-01-14T03:00:00Z,-20.02,13.85,24.0,17.0,90,3,,6.21,29.911417,,,,,,,,,,,CAVOK,,,,,,,,VFR,,,,,,,,,,,,METAR,756.0
FYOW 140300Z AUTO 00000KT //// // ////// 21/09 Q1015,FYOW,2019-01-14T03:00:00Z,-20.43,16.67,21.0,9.0,0,0,,,29.970472,,,TRUE,,,,,,,,,,,,,,,,,,,,,,,,,,,,METAR,1481.0
FYOO 140300Z AUTO 17002KT //// // ////// 20/07 Q1014,FYOO,2019-01-14T03:00:00Z,-19.15,15.92,20.0,7.0,170,2,,,29.940945,,,TRUE,,,,,,,,,,,,,,,,,,,,,,,,,,,,METAR,1192.0
FYOA 140300Z AUTO 19007KT //// // ////// 25/01 Q1012,FYOA,2019-01-14T03:00:00Z,-17.88,15.97,25.0,1.0,190,7,,,29.88189,,,TRUE,,,,,,,,,,,,,,,,,,,,,,,,,,,,METAR,1095.0
FYKT 140300Z AUTO 22007KT //// // ////// 20/13 Q1015,FYKT,2019-01-14T03:00:00Z,-26.52,18.12,20.0,13.0,220,7,,,29.970472,,,TRUE,,,,,,,,,,,,,,,,,,,,,,,,,,,,METAR,1061.0
FYGB 140300Z AUTO 28001KT //// // ////// 20/14 Q1020,FYGB,2019-01-14T03:00:00Z,-22.5,18.97,20.0,14.0,280,1,,,30.11811,,,TRUE,,,,,,,,,,,,,,,,,,,,,,,,,,,,METAR,1442.0
GOGG 140300Z VRB02KT CAVOK 21/17 Q1013,GOGG,2019-01-14T03:00:00Z,12.55,-16.27,21.0,17.0,0,2,,6.21,29.911417,,,,,,,,,,,CAVOK,,,,,,,,VFR,,,,,,,,,,,,METAR,23.0
GOTT 140300Z 04004KT CAVOK 23/05 Q1012,GOTT,2019-01-14T03:00:00Z,13.73,-13.65,23.0,5.0,40,4,,6.21,29.88189,,,,,,,,,,,CAVOK,,,,,,,,VFR,,,,,,,,,,,,METAR,50.0
GOTK 140300Z 00000KT CAVOK 22/14 Q1012,GOTK,2019-01-14T03:00:00Z,12.57,-12.22,22.0,14.0,0,0,,6.21,29.88189,,,,,,,,,,,CAVOK,,,,,,,,VFR,,,,,,,,,,,,METAR,167.0
GOSS 140300Z 36004KT CAVOK 20/14 Q1013,GOSS,2019-01-14T03:00:00Z,16.05,-16.43,20.0,14.0,360,4,,6.21,29.911417,,,,,,,,,,,CAVOK,,,,,,,,VFR,,,,,,,,,,,,METAR,4.0
GOOY 140300Z 36004KT 8000 NSC 21/19 Q1014,GOOY,2019-01-14T03:00:00Z,14.72,-17.5,21.0,19.0,360,4,,4.97,29.940945,,,,,,,,,,,CLR,,,,,,,,MVFR,,,,,,,,,,,,METAR,24.0
GABS 140300Z 04005KT 360V060 CAVOK 20/M04 Q1015 NOSIG,GABS,2019-01-14T03:00:00Z,12.52,-7.95,20.0,-4.0,40,5,,6.21,29.970472,,,,,,TRUE,,,,,CAVOK,,,,,,,,VFR,,,,,,,,,,,,METAR,381.0
MNMG 140300Z 10014KT 9999 FEW021 25/17 Q1015 A2998 NOSIG,MNMG,2019-01-14T03:00:00Z,12.15,-86.17,25.0,17.0,100,14,,6.21,29.970472,,,,,,TRUE,,,,,FEW,2100,,,,,,,VFR,,,,,,,,,,,,METAR,59.0
URWW 140300Z 22001MPS 8000 BKN018 M05/M06 Q1007 R24/410160 TEMPO 0300 FZFG OVC002,URWW,2019-01-14T03:00:00Z,48.78,44.33,-5.0,-6.0,220,2,,4.97,29.734253,,,,,,,,,,,BKN,1800,,,,,,,MVFR,,,,,,,,,,,,METAR,147.0
URWI 140300Z AUTO 20002MPS 3700 // ///041/// M01/M01 Q1008,URWI,2019-01-14T03:00:00Z,46.37,44.33,-1.0,-1.0,200,4,,2.3,29.763779,,,TRUE,,,,,,,,,,,,,,,,,,,,,,,,,,,,METAR,150.0
URWA 140300Z 15001MPS 5000 BR OVC005 M00/M01 Q1009 R27/010060 NOSIG RMK OBST OBSC QFE759/1012,URWA,2019-01-14T03:00:00Z,46.28,48.02,0.0,-1.0,150,2,,3.11,29.793306,,,,,,TRUE,,,,BR,OVC,500,,,,,,,IFR,,,,,,,,,,,,METAR,-20.0
URSS 140300Z 04004MPS 9999 -SHRA OVC037CB 05/03 Q1006 R02/220255 R06/220255 NOSIG RMK R06/06003MPS MT OBSC QFE753,URSS,2019-01-14T03:00:00Z,43.45,39.95,5.0,3.0,40,8,,6.21,29.704725,,,,,,TRUE,,,,-SHRA,OVC,3700,,,,,,,VFR,,,,,,,,,,,,METAR,16.0
URRP 140300Z 33002MPS 280V030 9999 BKN024 M09/M10 Q1006 R05/CLRD70 TEMPO 2000 BR BKN005 RMK QFE750/1000,URRP,2019-01-14T03:00:00Z,47.5,39.92,-9.0,-10.0,330,4,,6.21,29.704725,,,,,,,,,,,BKN,2400,,,,,,,MVFR,,,,,,,,,,,,METAR,65.0
URMT 140300Z 14002MPS 0100 R07/0350N -SN FZFG VV001 M01/M01 Q1006 R07/590150 NOSIG RMK QBB030 OBST OBSC QFE714,URMT,2019-01-14T03:00:00Z,45.12,42.12,-1.0,-1.0,140,4,,0.06,29.704725,,,,,,TRUE,,,,-SN FZFG,OVX,0,,,,,,,LIFR,,,,,,,,,,,100,METAR,453.0
URMN 140300Z 07002MPS 9999 OVC018 00/M01 Q1006 R24/////// NOSIG RMK MT OBSC QFE718,URMN,2019-01-14T03:00:00Z,43.52,43.63,0.0,-1.0,70,4,,6.21,29.704725,,,,,,TRUE,,,,,OVC,1800,,,,,,,MVFR,,,,,,,,,,,,METAR,445.0
URMM 140300Z 08003MPS 4600 0800SE -DZ FG VV002 00/M00 Q1007 R12/290050 NOSIG RMK QBB080 MT OBSC QFE727/0970,URMM,2019-01-14T03:00:00Z,44.22,43.1,0.0,0.0,80,6,,2.86,29.734253,,,,,,TRUE,,,,-DZ FG,OVX,0,,,,,,,LIFR,,,,,,,,,,,200,METAR,314.0
URML 140300Z 31002MPS 9999 SCT011 BKN038 01/M00 Q1010 R32/010070 NOSIG RMK MT OBSC QFE757/1009,URML,2019-01-14T03:00:00Z,42.82,47.65,1.0,0.0,310,4,,6.21,29.822834,,,,,,TRUE,,,,,SCT,1100,BKN,3800,,,,,VFR,,,,,,,,,,,,METAR,4.0
URMG 140300Z 35001MPS 0100 R26/0400N FZFG VV001 M02/M02 Q1009 R26/190060 NOSIG RMK QBB050 MT OBSC OBST OBSC QFE742/0989,URMG,2019-01-14T03:00:00Z,43.37,45.7,-2.0,-2.0,350,2,,0.06,29.793306,,,,,,TRUE,,,,FZFG,OVX,0,,,,,,,LIFR,,,,,,,,,,,100,METAR,263.0
URKK 140300Z 11004MPS 8000 NSC 01/M00 Q1006 R23L/19//65 TEMPO 2000 BR OVC005 RMK QFE751,URKK,2019-01-14T03:00:00Z,45.03,39.15,1.0,0.0,110,8,,4.97,29.704725,,,,,,,,,,,CLR,,,,,,,,MVFR,,,,,,,,,,,,METAR,34.0
URKA 140300Z AUTO 15004MPS 9999 // NCD 03/01 Q1004 RMK QFE749/0999,URKA,2019-01-14T03:00:00Z,45.0,37.35,3.0,1.0,150,8,,6.21,29.64567,,,TRUE,,,,,,,,CLR,,,,,,,,VFR,,,,,,,,,,,,METAR,53.0
UUOL 140300Z 18008MPS 8000 SCT010 OVC049 M04/M05 Q0997 R15/850342 NOSIG,UUOL,2019-01-14T03:00:00Z,52.7,39.53,-4.0,-5.0,180,16,,4.97,29.438976,,,,,,TRUE,,,,,SCT,1000,OVC,4900,,,,,MVFR,,,,,,,,,,,,METAR,176.0
UUWW 140300Z 15003MPS 4800 -SN BKN009 BKN026 M03/M05 Q0990 R24/550340 NOSIG,UUWW,2019-01-14T03:00:00Z,55.6,37.27,-3.0,-5.0,150,6,,2.98,29.232283,,,,,,TRUE,,,,-SN,BKN,900,BKN,2600,,,,,IFR,,,,,,,,,,,,METAR,203.0
UUEE 140300Z 16005G10MPS 5000 -SN OVC010 M03/M04 Q0989 R24L/450345 R24C/450336 NOSIG,UUEE,2019-01-14T03:00:00Z,55.97,37.42,-3.0,-4.0,160,10,19,3.11,29.202755,,,,,,TRUE,,,,-SN,OVC,1000,,,,,,,MVFR,,,,,,,,,,,,METAR,190.0
UUDL 140300Z 18003MPS 7000 -SN OVC012 M04/M06 Q0991 R23/491136 NOSIG RMK QFE735,UUDL,2019-01-14T03:00:00Z,57.57,40.17,-4.0,-6.0,180,6,,4.35,29.26181,,,,,,TRUE,,,,-SN,OVC,1200,,,,,,,MVFR,,,,,,,,,,,,METAR,88.0
UUDD 140300Z 17005MPS 5000 -SN BKN013 M03/M06 Q0990 R14R/450293 NOSIG,UUDD,2019-01-14T03:00:00Z,55.4,37.9,-3.0,-6.0,170,10,,3.11,29.232283,,,,,,TRUE,,,,-SN,BKN,1300,,,,,,,MVFR,,,,,,,,,,,,METAR,168.0
UUBW 140300Z 13003MPS 9999 BKN016 M05/M06 Q0991 R30/410245 NOSIG,UUBW,2019-01-14T03:00:00Z,55.55,38.15,-5.0,-6.0,130,6,,6.21,29.26181,,,,,,TRUE,,,,,BKN,1600,,,,,,,MVFR,,,,,,,,,,,,METAR,115.0
ULLI 140300Z 13005MPS 4800 -SN SCT009 BKN046 M02/M03 Q0976 R10L/491035 NOSIG,ULLI,2019-01-14T03:00:00Z,59.8,30.27,-2.0,-3.0,130,10,,2.98,28.818897,,,,,,TRUE,,,,-SN,SCT,900,BKN,4600,,,,,IFR,,,,,,,,,,,,METAR,4.0
USCM 140300Z 20002MPS 4000 -SN OVC010 M04/M05 Q1001 R18/990130 TEMPO 1100 SN VV004 RMK QFE714,USCM,2019-01-14T03:00:00Z,53.4,58.75,-4.0,-5.0,200,4,,2.49,29.557087,,,,,,,,,,-SN,OVC,1000,,,,,,,IFR,,,,,,,,,,,,METAR,435.0
USSS 140300Z 24002MPS CAVOK M08/M11 Q1003 R26R/420140 NOSIG RMK QFE732/0976,USSS,2019-01-14T03:00:00Z,56.75,60.82,-8.0,-11.0,240,4,,6.21,29.616142,,,,,,TRUE,,,,,CAVOK,,,,,,,,VFR,,,,,,,,,,,,METAR,233.0
USRR 140300Z 20006MPS 170V230 9999 -SN OVC011 M04/M05 Q1008 R25/39//34 NOSIG RMK QFE751,USRR,2019-01-14T03:00:00Z,61.33,73.42,-4.0,-5.0,200,12,,6.21,29.763779,,,,,,TRUE,,,,-SN,OVC,1100,,,,,,,MVFR,,,,,,,,,,,,METAR,44.0
USNN 140300Z 21007MPS 9999 DRSN OVC007 M05/M06 Q1012 R21/39//32 NOSIG RMK QFE754,USNN,2019-01-14T03:00:00Z,60.95,76.48,-5.0,-6.0,210,14,,6.21,29.88189,,,,,,TRUE,,,,DRSN,OVC,700,,,,,,,IFR,,,,,,,,,,,,METAR,54.0
USCC 140300Z 36002MPS 1000 R27/P2000D SHSN VV001 M03/M03 Q1003 R27/390035 NOSIG RMK QBB050 QFE732,USCC,2019-01-14T03:00:00Z,55.3,61.5,-3.0,-3.0,360,4,,0.62,29.616142,,,,,,TRUE,,,,SHSN,OVX,0,,,,,,,LIFR,,,,,,,,,,,100,METAR,234.0
UWUU 140300Z 22003MPS 9999 -SN OVC017 M07/M09 Q1004 R14R/490548 NOSIG RMK QFE743/0991,UWUU,2019-01-14T03:00:00Z,54.57,55.87,-7.0,-9.0,220,6,,6.21,29.64567,,,,,,TRUE,,,,-SN,OVC,1700,,,,,,,MVFR,,,,,,,,,,,,METAR,137.0
UWWW 140300Z 21002MPS 9000 OVC006 M12/M14 Q1004 R15/410240 NOSIG RMK QFE742/0989,UWWW,2019-01-14T03:00:00Z,53.5,50.17,-12.0,-14.0,210,4,,5.59,29.64567,,,,,,TRUE,,,,,OVC,600,,,,,,,IFR,,,,,,,,,,,,METAR,146.0
UWSS 140300Z 20005MPS 3500 -SN BR OVC006 M06/M07 Q1005 R30/450240 TEMPO 2100 -SN BR OVC005 RMK QFE740,UWSS,2019-01-14T03:00:00Z,51.57,46.07,-6.0,-7.0,200,10,,2.17,29.675198,,,,,,,,,,-SN BR,OVC,600,,,,,,,IFR,,,,,,,,,,,,METAR,166.0
UWOO 140300Z 00000MPS 9000 OVC016 M06/M07 Q1006 R26/450237 NOSIG RMK QFE744/0992,UWOO,2019-01-14T03:00:00Z,51.8,55.47,-6.0,-7.0,0,0,,5.59,29.704725,,,,,,TRUE,,,,,OVC,1600,,,,,,,MVFR,,,,,,,,,,,,METAR,109.0
UWOR 140300Z 26004MPS 9999 OVC009 M02/M03 Q1004 R25/390135 NOSIG RMK QFE729/0973,UWOR,2019-01-14T03:00:00Z,51.07,58.6,-2.0,-3.0,260,8,,6.21,29.64567,,,,,,TRUE,,,,,OVC,900,,,,,,,IFR,,,,,,,,,,,,METAR,277.0
UWLW 140300Z 19002MPS 8000 OVC043 M14/M16 Q1004 R20/820550 NOSIG RMK QFE748,UWLW,2019-01-14T03:00:00Z,54.4,48.8,-14.0,-16.0,190,4,,4.97,29.64567,,,,,,TRUE,,,,,OVC,4300,,,,,,,MVFR,,,,,,,,,,,,METAR,66.0
UWKS 140300Z 20007MPS 4900 -SN BLSN SCT040 M10/M12 Q0999 R24/820345 TEMPO 2000 SN BLSN RMK QFE736,UWKS,2019-01-14T03:00:00Z,56.08,47.35,-10.0,-12.0,200,14,,3.04,29.498032,,,,,,,,,,-SN BLSN,SCT,4000,,,,,,,MVFR,,,,,,,,,,,,METAR,170.0
UWKE 140300Z 20006MPS 9999 -SN BKN013 M11/M13 Q1002 R21/410545 NOSIG RMK QFE735/0980,UWKE,2019-01-14T03:00:00Z,55.57,52.08,-11.0,-13.0,200,12,,6.21,29.586615,,,,,,TRUE,,,,-SN,BKN,1300,,,,,,,MVFR,,,,,,,,,,,,METAR,196.0
UWKD 140300Z 19004MPS 9000 -SN OVC044 M11/M14 Q1002 R29/820042 NOSIG RMK QFE740/0987,UWKD,2019-01-14T03:00:00Z,55.62,49.28,-11.0,-14.0,190,8,,5.59,29.586615,,,,,,TRUE,,,,-SN,OVC,4400,,,,,,,VFR,,,,,,,,,,,,METAR,126.0
USPP 140300Z 21003MPS 9999 -SN NSC M10/M12 Q1001 R21/490150 NOSIG RMK QFE740,USPP,2019-01-14T03:00:00Z,57.92,56.02,-10.0,-12.0,210,6,,6.21,29.557087,,,,,,TRUE,,,,-SN,CLR,,,,,,,,VFR,,,,,,,,,,,,METAR,123.0
USHH 140300Z 20007MPS 9999 -SHSN DRSN BKN009CB M04/M05 Q1004 R24/390037 TEMPO 0900 +SHSN OVC003CB RMK QFE749,USHH,2019-01-14T03:00:00Z,61.03,69.08,-4.0,-5.0,200,14,,6.21,29.64567,,,,,,,,,,-SHSN DRSN,BKN,900,,,,,,,IFR,,,,,,,,,,,,METAR,23.0
USTR 140300Z 18004MPS 8000 -SHSN BKN009 OVC018CB M02/M03 Q1005 R21/390047 TEMPO 19014MPS 0500 +SHSN BLSN VV003 RMK QFE744/0992,USTR,2019-01-14T03:00:00Z,57.17,65.32,-2.0,-3.0,180,8,,4.97,29.675198,,,,,,,,,,-SHSN,BKN,900,OVC,1800,,,,,IFR,,,,,,,,,,,,METAR,115.0
UNTT 140300Z 19007MPS CAVOK M11/M14 Q1031 R21/490140 NOSIG RMK QFE758,UNTT,2019-01-14T03:00:00Z,56.38,85.22,-11.0,-14.0,190,14,,6.21,30.442913,,,,,,TRUE,,,,,CAVOK,,,,,,,,VFR,,,,,,,,,,,,METAR,182.0
UNOO 140300Z 17006MPS CAVOK M12/M14 Q1019 R25/390140 NOSIG RMK QFE756,UNOO,2019-01-14T03:00:00Z,54.97,73.32,-12.0,-14.0,170,12,,6.21,30.088583,,,,,,TRUE,,,,,CAVOK,,,,,,,,VFR,,,,,,,,,,,,METAR,95.0
UNNT 140300Z 17006MPS 9000 NSC M13/M16 Q1032 R25/390142 R34/390136 NOSIG RMK QFE764/1019,UNNT,2019-01-14T03:00:00Z,55.02,82.63,-13.0,-16.0,170,12,,5.59,30.47244,,,,,,TRUE,,,,,CLR,,,,,,,,VFR,,,,,,,,,,,,METAR,111.0
UNKL 140300Z 29003MPS 9000 NSC M23/M26 Q1036 R29/CLRD65 NOSIG RMK QFE751,UNKL,2019-01-14T03:00:00Z,56.17,92.48,-23.0,-26.0,290,6,,5.59,30.590551,,,,,,TRUE,,,,,CLR,,,,,,,,VFR,,,,,,,,,,,,METAR,276.0
UNEE 140300Z 13002MPS 8000 NSC M16/M18 Q1033 R23/891037 NOSIG RMK QFE752,UNEE,2019-01-14T03:00:00Z,55.27,86.08,-16.0,-18.0,130,4,,4.97,30.501968,,,,,,TRUE,,,,,CLR,,,,,,,,MVFR,,,,,,,,,,,,METAR,260.0
UNBB 140300Z 16003MPS 9000 NSC M15/M17 Q1033 R24/390144 NOSIG RMK QFE752,UNBB,2019-01-14T03:00:00Z,53.37,83.53,-15.0,-17.0,160,6,,5.59,30.501968,,,,,,TRUE,,,,,CLR,,,,,,,,VFR,,,,,,,,,,,,METAR,255.0
UNAA 140300Z 00000MPS 4400 BR FU FEW002 M28/M31 Q1042 R02/810257 NOSIG RMK QBB080 QFE758,UNAA,2019-01-14T03:00:00Z,53.75,91.4,-28.0,-31.0,0,0,,2.73,30.767717,,,,,,TRUE,,,,BR FU,FEW,200,,,,,,,IFR,,,,,,,,,,,,METAR,245.0
UWGG 140300Z 19006MPS 9999 BKN010 M06/M08 Q0997 R18L/490240 TEMPO BKN007,UWGG,2019-01-14T03:00:00Z,56.23,43.78,-6.0,-8.0,190,12,,6.21,29.438976,,,,,,,,,,,BKN,1000,,,,,,,MVFR,,,,,,,,,,,,METAR,73.0
UUOK 140300Z 20007MPS 6000 -SN BKN025 OVC033 M03/M04 Q0995 R12/893028 NOSIG RMK QFE729/0972,UUOK,2019-01-14T03:00:00Z,51.75,36.28,-3.0,-4.0,200,14,,3.73,29.379921,,,,,,TRUE,,,,-SN,BKN,2500,OVC,3300,,,,,MVFR,,,,,,,,,,,,METAR,209.0
UUOB 140300Z 18006MPS 9999 BKN015 M03/M05 Q0998 R11/820345 NOSIG,UUOB,2019-01-14T03:00:00Z,50.65,36.58,-3.0,-5.0,180,12,,6.21,29.468504,,,,,,TRUE,,,,,BKN,1500,,,,,,,MVFR,,,,,,,,,,,,METAR,224.0
UUBP 140300Z 17004MPS 4000 -SN BR BKN009 M02/M04 Q0990 R16/450332 NOSIG RMK QFE724/0966,UUBP,2019-01-14T03:00:00Z,53.22,34.18,-2.0,-4.0,170,8,,2.49,29.232283,,,,,,TRUE,,,,-SN BR,BKN,900,,,,,,,IFR,,,,,,,,,,,,METAR,202.0
UUBC 140300Z AUTO 18006MPS 3700 // ///009/// M03/M04 Q0990 RMK QFE725/0966,UUBC,2019-01-14T03:00:00Z,54.55,36.37,-3.0,-4.0,180,12,,2.3,29.232283,,,TRUE,,,,,,,,,,,,,,,,,,,,,,,,,,,,METAR,199.0
ULWC 140300Z 16003MPS 9999 -SN BKN007 OVC016 M05/M06 Q0986 R21/590532 TEMPO 2100 -SN BKN005 RMK QFE730/0973,ULWC,2019-01-14T03:00:00Z,59.28,38.02,-5.0,-6.0,160,6,,6.21,29.114174,,,,,,,,,,-SN,BKN,700,OVC,1600,,,,,IFR,,,,,,,,,,,,METAR,115.0
UIUU 140300Z VRB01MPS 9999 FEW033 M20/M27 Q1042 R26/810550 NOSIG RMK QFE736/0982,UIUU,2019-01-14T03:00:00Z,51.8,107.45,-20.0,-27.0,0,2,,6.21,30.767717,,,,,,TRUE,,,,,FEW,3300,,,,,,,VFR,,,,,,,,,,,,METAR,515.0
UIII 140300Z 00000MPS CAVOK M30/M33 Q1044 R12/820550 NOSIG RMK QFE740/0987,UIII,2019-01-14T03:00:00Z,52.27,104.4,-30.0,-33.0,0,0,,6.21,30.82677,,,,,,TRUE,,,,,CAVOK,,,,,,,,VFR,,,,,,,,,,,,METAR,513.0
UIBB 140300Z 15003MPS 9999 NSC M27/M30 Q1039 R30/420245 NOSIG RMK QFE735/0980,UIBB,2019-01-14T03:00:00Z,56.37,101.7,-27.0,-30.0,150,6,,6.21,30.679134,,,,,,TRUE,,,,,CLR,,,,,,,,VFR,,,,,,,,,,,,METAR,490.0
UIAA 140300Z 29007MPS 9999 NSC M20/M29 Q1030 R29/420150 NOSIG RMK QFE713/0951,UIAA,2019-01-14T03:00:00Z,52.02,113.32,-20.0,-29.0,290,14,,6.21,30.413385,,,,,,TRUE,,,,,CLR,,,,,,,,VFR,,,,,,,,,,,,METAR,685.0
OTHH 140300Z 15006KT CAVOK 19/15 Q1017 NOSIG,OTHH,2019-01-14T03:00:00Z,25.25,51.6,19.0,15.0,150,6,,6.21,30.029528,,,,,,TRUE,,,,,CAVOK,,,,,,,,VFR,,,,,,,,,,,,METAR,0.0
OTBD 140300Z 13003KT CAVOK 18/16 Q1017 NOSIG,OTBD,2019-01-14T03:00:00Z,25.25,51.57,18.0,16.0,130,3,,6.21,30.029528,,,,,,TRUE,,,,,CAVOK,,,,,,,,VFR,,,,,,,,,,,,METAR,10.0
UHSS 140300Z 31001MPS 9999 FEW040 M08/M15 Q1023 R01/810365 NOSIG RMK QFE766/1021,UHSS,2019-01-14T03:00:00Z,46.88,142.72,-8.0,-15.0,310,2,,6.21,30.206694,,,,,,TRUE,,,,,FEW,4000,,,,,,,VFR,,,,,,,,,,,,METAR,31.0
UHMM 140300Z 31004MPS 9999 SCT049 M16/M23 Q1014 R10/82//45 NOSIG RMK QFE746,UHMM,2019-01-14T03:00:00Z,59.92,150.72,-16.0,-23.0,310,8,,6.21,29.940945,,,,,,TRUE,,,,,SCT,4900,,,,,,,VFR,,,,,,,,,,,,METAR,175.0
UHMD 140300Z 03012G17MPS 4000 BLSN OVC010 M15/M18 Q0995 RMK QBB300 MT OBSC QFE745/0994,UHMD,2019-01-14T03:00:00Z,64.38,-173.22,-15.0,-18.0,30,23,33,2.49,29.379921,,,,,,,,,,BLSN,OVC,1000,,,,,,,IFR,,,,,,,,,,,,METAR,3.0
UHMA 140300Z 34006MPS 9999 FEW012 M31/M35 Q1009 R88/750542 NOSIG RMK END R01/36007MPS QFE753/1004,UHMA,2019-01-14T03:00:00Z,64.73,177.73,-31.0,-35.0,340,12,,6.21,29.793306,,,,,,TRUE,,,,,FEW,1200,,,,,,,VFR,,,,,,,,,,,,METAR,62.0
UHWW 140300Z 22002MPS 8000 FEW030 M02/M10 Q1024 R25L/0///70 NOSIG RMK QFE767,UHWW,2019-01-14T03:00:00Z,43.4,132.15,-2.0,-10.0,220,4,,4.97,30.236221,,,,,,TRUE,,,,,FEW,3000,,,,,,,MVFR,,,,,,,,,,,,METAR,14.0
UHPP 140300Z 01001MPS 9999 BKN040 M09/M15 Q1009 R34L/720355 NOSIG RMK MT OBSC QFE753/1004,UHPP,2019-01-14T03:00:00Z,53.17,158.45,-9.0,-15.0,10,2,,6.21,29.793306,,,,,,TRUE,,,,,BKN,4000,,,,,,,VFR,,,,,,,,,,,,METAR,40.0
UHHH 140300Z 13002MPS 080V170 8000 NSC M13/M17 Q1022 R23L/090060 NOSIG RMK QFE760/1013,UHHH,2019-01-14T03:00:00Z,48.52,135.18,-13.0,-17.0,130,4,,4.97,30.177166,,,,,,TRUE,,,,,CLR,,,,,,,,MVFR,,,,,,,,,,,,METAR,72.0
UHBB 140300Z 25001MPS 9999 FEW033 M17/M20 Q1019 R36/090060 NOSIG RMK QFE747/0996,UHBB,2019-01-14T03:00:00Z,50.43,127.42,-17.0,-20.0,250,2,,6.21,30.088583,,,,,,TRUE,,,,,FEW,3300,,,,,,,VFR,,,,,,,,,,,,METAR,195.0
VOHY 140300Z VRB03KT 3000 BR NSC 21/18 Q1020 NOSIG,VOHY,2019-01-14T03:00:00Z,17.45,78.45,21.0,18.0,0,3,,1.86,30.11811,,,,,,TRUE,,,,BR,CLR,,,,,,,,IFR,,,,,,,,,,,,METAR,545.0
VABV 140300Z 34005KT 2500 FU NSC 17/13 Q1018,VABV,2019-01-14T03:00:00Z,21.75,72.2,17.0,13.0,340,5,,1.55,30.059055,,,,,,,,,,FU,CLR,,,,,,,,IFR,,,,,,,,,,,,METAR,11.0
VOMD 140300Z 03006KT 3000 BR FEW020 24/20 Q1016 NOSIG,VOMD,2019-01-14T03:00:00Z,9.82,78.07,24.0,20.0,30,6,,1.86,30.0,,,,,,TRUE,,,,BR,FEW,2000,,,,,,,IFR,,,,,,,,,,,,METAR,131.0
RJFE 140300Z 04006KT 360V100 9999 FEW030 BKN040 13/05 Q1022,RJFE,2019-01-14T03:00:00Z,32.67,128.82,13.0,5.0,40,6,,6.21,30.177166,,,,,,,,,,,FEW,3000,BKN,4000,,,,,VFR,,,,,,,,,,,,METAR,80.0
RJEB 140300Z 26005KT 230V300 9999 FEW030 M03/M13 Q1023,RJEB,2019-01-14T03:00:00Z,44.3,143.4,-3.0,-13.0,260,5,,6.21,30.206694,,,,,,,,,,,FEW,3000,,,,,,,VFR,,,,,,,,,,,,METAR,25.0
RJDT 140300Z 34005KT 270V030 9999 FEW030 11/03 Q1023,RJDT,2019-01-14T03:00:00Z,34.27,129.32,11.0,3.0,340,5,,6.21,30.206694,,,,,,,,,,,FEW,3000,,,,,,,VFR,,,,,,,,,,,,METAR,66.0
RJDC 140300Z 12004KT 9999 FEW025 SCT050 10/07 Q1023,RJDC,2019-01-14T03:00:00Z,33.92,131.27,10.0,7.0,120,4,,6.21,30.206694,,,,,,,,,,,FEW,2500,SCT,5000,,,,,VFR,,,,,,,,,,,,METAR,8.0
RJCW 140300Z 17003KT 9999 FEW020 SCT030 M03/M09 Q1023,RJCW,2019-01-14T03:00:00Z,45.38,141.8,-3.0,-9.0,170,3,,6.21,30.206694,,,,,,,,,,,FEW,2000,SCT,3000,,,,,VFR,,,,,,,,,,,,METAR,11.0
RJCO 140300Z 09004KT 9999 FEW040 M07/M12 Q1025,RJCO,2019-01-14T03:00:00Z,43.12,141.37,-7.0,-12.0,90,4,,6.21,30.265747,,,,,,,,,,,FEW,4000,,,,,,,VFR,,,,,,,,,,,,METAR,11.0
RJCN 140300Z 25002KT 9999 FEW025 M05/M12 Q1022,RJCN,2019-01-14T03:00:00Z,43.57,144.97,-5.0,-12.0,250,2,,6.21,30.177166,,,,,,,,,,,FEW,2500,,,,,,,VFR,,,,,,,,,,,,METAR,70.0
RJBT 140300Z 04003KT 350V100 9999 FEW035 SCT040 09/M00 Q1022,RJBT,2019-01-14T03:00:00Z,35.5,134.8,9.0,0.0,40,3,,6.21,30.177166,,,,,,,,,,,FEW,3500,SCT,4000,,,,,VFR,,,,,,,,,,,,METAR,210.0
RJBE 140300Z 16006KT 9999 FEW030 09/03 Q1023,RJBE,2019-01-14T03:00:00Z,34.63,135.23,9.0,3.0,160,6,,6.21,30.206694,,,,,,,,,,,FEW,3000,,,,,,,VFR,,,,,,,,,,,,METAR,5.0
RJBD 140300Z 31008KT 280V350 9999 FEW030 12/M01 Q1021,RJBD,2019-01-14T03:00:00Z,33.67,135.37,12.0,-1.0,310,8,,6.21,30.147638,,,,,,,,,,,FEW,3000,,,,,,,VFR,,,,,,,,,,,,METAR,108.0
RJAF 140300Z VRB02KT 9999 FEW040 03/M07 Q1019,RJAF,2019-01-14T03:00:00Z,36.17,137.92,3.0,-7.0,0,2,,6.21,30.088583,,,,,,,,,,,FEW,4000,,,,,,,VFR,,,,,,,,,,,,METAR,660.0
ROYN 140300Z AUTO 07012KT 9999 FEW029 SCT034 23/15 Q1020,ROYN,2019-01-14T03:00:00Z,24.47,122.97,23.0,15.0,70,12,,6.21,30.11811,,,TRUE,,,,,,,,FEW,2900,SCT,3400,,,,,VFR,,,,,,,,,,,,METAR,17.0
RORY 140300Z AUTO 03009KT 9999 FEW042 SCT060 20/10 Q1020,RORY,2019-01-14T03:00:00Z,27.05,128.4,20.0,10.0,30,9,,6.21,30.11811,,,TRUE,,,,,,,,FEW,4200,SCT,6000,,,,,VFR,,,,,,,,,,,,METAR,16.0
RORS 140300Z 09011KT 9999 FEW037 23/13 Q1020,RORS,2019-01-14T03:00:00Z,24.82,125.15,23.0,13.0,90,11,,6.21,30.11811,,,,,,,,,,,FEW,3700,,,,,,,VFR,,,,,,,,,,,,METAR,16.0
ROMY 140300Z 08009KT 040V110 9999 FEW035 SCT110 22/13 Q1020,ROMY,2019-01-14T03:00:00Z,24.77,125.27,22.0,13.0,80,9,,6.21,30.11811,,,,,,,,,,,FEW,3500,SCT,11000,,,,,VFR,,,,,,,,,,,,METAR,41.0
FAOB 140300Z AUTO 32003KT //// // ////// 19/13 Q1013,FAOB,2019-01-14T03:00:00Z,-34.6,20.27,19.0,13.0,320,3,,,29.911417,,,TRUE,,,,,,,,,,,,,,,,,,,,,,,,,,,,METAR,75.0
FABL 140300Z 00000KT CAVOK 15/05 Q1016 NOSIG,FABL,2019-01-14T03:00:00Z,-29.1,26.3,15.0,5.0,0,0,,6.21,30.0,,,,,,TRUE,,,,,CAVOK,,,,,,,,VFR,,,,,,,,,,,,METAR,1348.0
RJNW 140300Z 30004KT 250V040 9999 FEW007 SCT030 BKN070 05/M00 Q1022,RJNW,2019-01-14T03:00:00Z,37.3,136.97,5.0,0.0,300,4,,6.21,30.177166,,,,,,,,,,,FEW,700,SCT,3000,BKN,7000,,,VFR,,,,,,,,,,,,METAR,219.0
RJKA 140300Z 35008KT 9999 FEW035 BKN040 18/09 Q1021,RJKA,2019-01-14T03:00:00Z,28.42,129.72,18.0,9.0,350,8,,6.21,30.147638,,,,,,,,,,,FEW,3500,BKN,4000,,,,,VFR,,,,,,,,,,,,METAR,7.0
RJFG 140300Z VRB04KT 9999 FEW030 15/05 Q1021,RJFG,2019-01-14T03:00:00Z,30.62,130.98,15.0,5.0,0,4,,6.21,30.147638,,,,,,,,,,,FEW,3000,,,,,,,VFR,,,,,,,,,,,,METAR,237.0
RJTO 140300Z 04016KT 9999 FEW035 SCT060 09/M01 Q1020,RJTO,2019-01-14T03:00:00Z,34.77,139.37,9.0,-1.0,40,16,,6.21,30.11811,,,,,,,,,,,FEW,3500,SCT,6000,,,,,VFR,,,,,,,,,,,,METAR,41.0
RJTI 140300Z 04007KT 010V150 9999 FEW030 08/M03 Q1021,RJTI,2019-01-14T03:00:00Z,35.63,139.83,8.0,-3.0,40,7,,6.21,30.147638,,,,,,,,,,,FEW,3000,,,,,,,VFR,,,,,,,,,,,,METAR,8.0
RJTF 140300Z 04007KT 360V090 9999 FEW030 09/M03 Q1021,RJTF,2019-01-14T03:00:00Z,35.67,139.52,9.0,-3.0,40,7,,6.21,30.147638,,,,,,,,,,,FEW,3000,,,,,,,VFR,,,,,,,,,,,,METAR,44.0
RJSY 140300Z 33005KT 280V010 9999 FEW040 SCT050 05/M03 Q1023,RJSY,2019-01-14T03:00:00Z,38.82,139.77,5.0,-3.0,330,5,,6.21,30.206694,,,,,,,,,,,FEW,4000,SCT,5000,,,,,VFR,,,,,,,,,,,,METAR,22.0
RJSR 140300Z VRB02KT 9999 FEW040 M01/M07 Q1023,RJSR,2019-01-14T03:00:00Z,40.18,140.37,-1.0,-7.0,0,2,,6.21,30.206694,,,,,,,,,,,FEW,4000,,,,,,,VFR,,,,,,,,,,,,METAR,87.0
RJSM 140300Z 01004KT 290V060 9999 FEW015 BKN030 00/M08 Q1023,RJSM,2019-01-14T03:00:00Z,40.7,141.37,0.0,-8.0,10,4,,6.21,30.206694,,,,,,,,,,,FEW,1500,BKN,3000,,,,,MVFR,,,,,,,,,,,,METAR,36.0
RJSI 140300Z 02010KT 350V050 9999 FEW030 03/M08 Q1022,RJSI,2019-01-14T03:00:00Z,39.42,141.12,3.0,-8.0,20,10,,6.21,30.177166,,,,,,,,,,,FEW,3000,,,,,,,VFR,,,,,,,,,,,,METAR,93.0
RJSC 140300Z 01003KT 320V040 9999 FEW030 SCT050 02/M03 Q1022,RJSC,2019-01-14T03:00:00Z,38.42,140.37,2.0,-3.0,10,3,,6.21,30.177166,,,,,,,,,,,FEW,3000,SCT,5000,,,,,VFR,,,,,,,,,,,,METAR,108.0
RJOY 140300Z 31004KT 260V070 9999 FEW030 10/01 Q1023,RJOY,2019-01-14T03:00:00Z,34.6,135.58,10.0,1.0,310,4,,6.21,30.206694,,,,,,,,,,,FEW,3000,,,,,,,VFR,,,,,,,,,,,,METAR,13.0
RJOW 140300Z 25012KT 9999 -SHRA FEW020 BKN030 11/05 Q1022,RJOW,2019-01-14T03:00:00Z,34.67,131.8,11.0,5.0,250,12,,6.21,30.177166,,,,,,,,,,-SHRA,FEW,2000,BKN,3000,,,,,MVFR,,,,,,,,,,,,METAR,54.0
RJOS 140300Z 02010KT 350V050 9999 SCT030 10/04 Q1023,RJOS,2019-01-14T03:00:00Z,34.12,134.62,10.0,4.0,20,10,,6.21,30.206694,,,,,,,,,,,SCT,3000,,,,,,,VFR,,,,,,,,,,,,METAR,11.0
RJOR 140300Z 05003KT 010V100 9999 FEW030 09/00 Q1023,RJOR,2019-01-14T03:00:00Z,35.52,134.17,9.0,0.0,50,3,,6.21,30.206694,,,,,,,,,,,FEW,3000,,,,,,,VFR,,,,,,,,,,,,METAR,18.0
KW29 140300Z AUTO 01007G17KT 10SM OVC065 M01/M07 A3027 RMK AO2,KW29,2019-01-14T03:00:00Z,38.98,-76.33,-1.0,-7.0,10,7,17,10.0,30.268702,,,TRUE,TRUE,,,,,,,OVC,6500,,,,,,,VFR,,,,,,,,,,,,SPECI,15.0
KSUT 140300Z AUTO 34009KT 7SM OVC009 04/03 A3015 RMK AO2 T00430028,KSUT,2019-01-14T03:00:00Z,33.93,-78.08,4.3,2.8,340,9,,7.0,30.15059,,,TRUE,TRUE,,,,,,,OVC,900,,,,,,,IFR,,,,,,,,,,,,METAR,8.0
KONX 140300Z AUTO 7SM OVC007 04/04 A3007 RMK AO2 T00410041,KONX,2019-01-14T03:00:00Z,36.4,-76.02,4.1,4.1,,,,7.0,30.070866,,,TRUE,TRUE,,,,,,,OVC,700,,,,,,,IFR,,,,,,,,,,,,METAR,5.0
KMQI 140300Z AUTO 36017G26KT 5SM BR OVC005 06/06 A3001 RMK AO2 T00610056,KMQI,2019-01-14T03:00:00Z,35.92,-75.7,6.1,5.6,360,17,26,5.0,30.008858,,,TRUE,TRUE,,,,,,BR,OVC,500,,,,,,,IFR,,,,,,,,,,,,METAR,4.0
KHBI 140300Z AUTO 01004KT 10SM OVC008 00/00 A3021 RMK AO2 T00041003,KHBI,2019-01-14T03:00:00Z,35.65,-79.9,0.4,-0.3,10,4,,10.0,30.209646,,,TRUE,TRUE,,,,,,,OVC,800,,,,,,,IFR,,,,,,,,,,,,METAR,205.0
KFFA 140300Z AUTO 34010G24KT 290V020 4SM BR OVC005 06/06 A2998 RMK AO2 T00630063,KFFA,2019-01-14T03:00:00Z,36.02,-75.67,6.3,6.3,340,10,24,4.0,29.97933,,,TRUE,TRUE,,,,,,BR,OVC,500,,,,,,,IFR,,,,,,,,,,,,METAR,4.0
KFDK 140300Z AUTO 00000KT 4SM -SN OVC030 M01/M02 A3033 RMK AO2,KFDK,2019-01-14T03:00:00Z,39.42,-77.37,-1.0,-2.0,0,0,,4.0,30.33071,,,TRUE,TRUE,,,,,,-SN,OVC,3000,,,,,,,MVFR,,,,,,,,,,,,SPECI,92.0
KEYF 140300Z AUTO 34008KT 10SM OVC009 03/02 A3018 RMK AO2 PWINO T00310015,KEYF,2019-01-14T03:00:00Z,34.6,-78.58,3.1,1.5,340,8,,10.0,30.180119,,,TRUE,TRUE,,,,,TRUE,,OVC,900,,,,,,,IFR,,,,,,,,,,,,METAR,41.0
KEXX 140300Z AUTO 00000KT 10SM OVC009 01/00 A3020 RMK AO2 T00050002,KEXX,2019-01-14T03:00:00Z,35.78,-80.3,0.5,0.2,0,0,,10.0,30.200787,,,TRUE,TRUE,,,,,,,OVC,900,,,,,,,IFR,,,,,,,,,,,,METAR,223.0
KDPL 140300Z AUTO 34007KT 2SM -DZ BR OVC007 02/02 A3017 RMK AO2,KDPL,2019-01-14T03:00:00Z,35.0,-77.97,2.0,2.0,340,7,,2.0,30.171259,,,TRUE,TRUE,,,,,,-DZ BR,OVC,700,,,,,,,IFR,,,,,,,,,,,,METAR,42.0
KDMW 140300Z AUTO 03006KT 5SM -SN SCT020 OVC026 M02/M08 A3026 RMK AO2,KDMW,2019-01-14T03:00:00Z,39.6,-77.0,-2.0,-8.0,30,6,,5.0,30.259842,,,TRUE,TRUE,,,,,,-SN,SCT,2000,OVC,2600,,,,,MVFR,,,,,,,,,,,,SPECI,241.0
KCTZ 140300Z AUTO 35005KT 7SM OVC010 03/02 A3018 RMK AO2 T00250017,KCTZ,2019-01-14T03:00:00Z,34.98,-78.37,2.5,1.7,350,5,,7.0,30.180119,,,TRUE,TRUE,,,,,,,OVC,1000,,,,,,,MVFR,,,,,,,,,,,,METAR,45.0
KCPC 140300Z AUTO 35004KT 10SM OVC010 04/02 A3017 RMK AO2 T00360016,KCPC,2019-01-14T03:00:00Z,34.28,-78.72,3.6,1.6,350,4,,10.0,30.171259,,,TRUE,TRUE,,,,,,,OVC,1000,,,,,,,MVFR,,,,,,,,,,,,METAR,29.0
KCGE 140300Z AUTO 36007G13KT 4SM BR SCT019 SCT024 OVC039 M02/M04 A3023 RMK A01,KCGE,2019-01-14T03:00:00Z,38.53,-76.03,-2.0,-4.0,360,7,13,4.0,30.230314,,,TRUE,TRUE,,,,,,BR,SCT,1900,SCT,2400,OVC,3900,,,MVFR,,,,,,,,,,,,SPECI,6.0
KCBE 140300Z AUTO 36003KT 2 1/2SM -SN BR BKN036 OVC043 M03/M04 A3032 RMK AO2 T10291039,KCBE,2019-01-14T03:00:00Z,39.62,-78.77,-2.9,-3.9,360,3,,2.5,30.318897,,,TRUE,TRUE,,,,,,-SN BR,BKN,3600,OVC,4300,,,,,IFR,,,,,,,,,,,,SPECI,236.0
KAFP 140300Z AUTO 01003KT 10SM OVC010 02/00 A3020 RMK AO2 T00230001,KAFP,2019-01-14T03:00:00Z,35.02,-80.08,2.3,0.1,10,3,,10.0,30.200787,,,TRUE,TRUE,,,,,,,OVC,1000,,,,,,,MVFR,,,,,,,,,,,,METAR,92.0
EHEH 140300Z AUTO 28009KT 230V340 9999 BKN022 BKN026 BKN048 07/04 Q1008 WHT,EHEH,2019-01-14T03:00:00Z,51.45,5.38,7.0,4.0,280,9,,6.21,29.763779,,,TRUE,,,,,,,,BKN,2200,BKN,2600,BKN,4800,,,MVFR,,,,,,,,,,,,SPECI,22.0
CZZJ 140300Z AUTO 27003KT M07/M08 RMK AO1 SOG 26 8002 SLP278 T10701079,CZZJ,2019-01-14T03:00:00Z,53.58,-116.47,-7.0,-7.9,270,3,,,,1027.8,,TRUE,TRUE,,,,,,,,,,,,,,,,,,,,,,,,,,,METAR,927.0
CZTB 140300Z AUTO 24005KT M01/M03 RMK AO1 SOG 41 8010 SLP227 T10071032,CZTB,2019-01-14T03:00:00Z,48.37,-89.32,-0.7,-3.2,240,5,,,,1022.7,,TRUE,TRUE,,,,,,,,,,,,,,,,,,,,,,,,,,,METAR,199.0
CZMJ 140300Z AUTO 15002KT M06/M08 RMK AO1 SLP274 T10551075 51005,CZMJ,2019-01-14T03:00:00Z,50.33,-105.57,-5.5,-7.5,150,2,,,,1027.4,,TRUE,TRUE,,,,,,,,,,,,,,,,0.5,,,,,,,,,,,METAR,577.0
CZKD 140300Z AUTO 32008KT M18/M21 RMK AO1 SOG 33 1016 SLP252 T11791211,CZKD,2019-01-14T03:00:00Z,56.03,-96.52,-17.9,-21.1,320,8,,,,1025.2,,TRUE,TRUE,,,,,,,,,,,,,,,,,,,,,,,,,,,METAR,183.0
CXZV 140300Z AUTO 31003KT M21/M24 RMK AO1 SOG 68 8005 SLP252 T12091236,CXZV,2019-01-14T03:00:00Z,50.22,-66.25,-20.9,-23.6,310,3,,,,1025.2,,TRUE,TRUE,,,,,,,,,,,,,,,,,,,,,,,,,,,METAR,52.0
CXVN 140300Z AUTO 11005KT M06/M09 RMK AO1 SOG 01 5000 SLP295 T10591092,CXVN,2019-01-14T03:00:00Z,43.18,-79.4,-5.9,-9.2,110,5,,,,1029.5,,TRUE,TRUE,,,,,,,,,,,,,,,,,,,,,,,,,,,METAR,79.0
CXTO 140300Z AUTO M07/M14 RMK AO1 SOG 01 6003 SLP302 T10691140,CXTO,2019-01-14T03:00:00Z,43.67,-79.4,-6.9,-14.0,,,,,,1030.2,,TRUE,TRUE,,,,,,,,,,,,,,,,,,,,,,,,,,,METAR,113.0
CXTD 140300Z AUTO 22004KT M12/M15 RMK AO1 SOG 03 3002 SLP271 T11231148,CXTD,2019-01-14T03:00:00Z,45.62,-61.68,-12.3,-14.8,220,4,,,,1027.1,,TRUE,TRUE,,,,,,,,,,,,,,,,,,,,,,,,,,,METAR,68.0
CXRL 140300Z AUTO 11004KT M02/M02 RMK AO1 T10221022,CXRL,2019-01-14T03:00:00Z,54.5,-111.7,-2.2,-2.2,110,4,,,,,,TRUE,TRUE,,,,,,,,,,,,,,,,,,,,,,,,,,,METAR,585.0
CXRB 140300Z AUTO 35006KT M36/M40 RMK AO1 SOG 03 8003 SLP259 T13641398,CXRB,2019-01-14T03:00:00Z,74.72,-94.98,-36.4,-39.8,350,6,,,,1025.9,,TRUE,TRUE,,,,,,,,,,,,,,,,,,,,,,,,,,,METAR,68.0
CXPC 140300Z AUTO M13/M16 RMK AO1 SOG 08 6010 SLP298 T11301159,CXPC,2019-01-14T03:00:00Z,45.35,-80.05,-13.0,-15.9,,,,,,1029.8,,TRUE,TRUE,,,,,,,,,,,,,,,,,,,,,,,,,,,METAR,176.0
CXPA 140300Z AUTO 08005KT M06/M06 RMK AO1 T10611061,CXPA,2019-01-14T03:00:00Z,55.62,-118.3,-6.1,-6.1,80,5,,,,,,TRUE,TRUE,,,,,,,,,,,,,,,,,,,,,,,,,,,METAR,621.0
CXOY 140300Z AUTO 33006KT M11/M12 RMK AO1 T11091121,CXOY,2019-01-14T03:00:00Z,51.38,-110.35,-10.9,-12.1,330,6,,,,,,TRUE,TRUE,,,,,,,,,,,,,,,,,,,,,,,,,,,METAR,767.0
CXLB 140300Z AUTO 30006KT M08/M10 RMK AO1 SLP272 T10761104 52007,CXLB,2019-01-14T03:00:00Z,44.37,-64.3,-7.6,-10.4,300,6,,,,1027.2,,TRUE,TRUE,,,,,,,,,,,,,,,,0.7,,,,,,,,,,,METAR,4.0
CXKM 140300Z AUTO 35003KT M13/M14 RMK AO1 T11271140,CXKM,2019-01-14T03:00:00Z,52.82,-111.85,-12.7,-14.0,350,3,,,,,,TRUE,TRUE,,,,,,,,,,,,,,,,,,,,,,,,,,,METAR,675.0
CXKI 140300Z AUTO M18/M20 RMK AO1 SOG 49 6023 SLP278 T11811200,CXKI,2019-01-14T03:00:00Z,48.22,-80.0,-18.1,-20.0,,,,,,1027.8,,TRUE,TRUE,,,,,,,,,,,,,,,,,,,,,,,,,,,METAR,324.0
CXHR 140300Z AUTO 33015KT M02/M05 RMK AO1 PK WND 34018/0255 T10201054,CXHR,2019-01-14T03:00:00Z,51.18,-112.5,-2.0,-5.4,330,15,,,,,,TRUE,TRUE,,,,,,,,,,,,,,,,,,,,,,,,,,,METAR,971.0
CXFR 140300Z AUTO 07004KT M05/M05 RMK AO1 T10531054,CXFR,2019-01-14T03:00:00Z,56.08,-118.43,-5.3,-5.4,70,4,,,,,,TRUE,TRUE,,,,,,,,,,,,,,,,,,,,,,,,,,,METAR,655.0
CXCS 140300Z AUTO 31008KT M10/M12 RMK AO1 T11031120,CXCS,2019-01-14T03:00:00Z,51.93,-110.72,-10.3,-12.0,310,8,,,,,,TRUE,TRUE,,,,,,,,,,,,,,,,,,,,,,,,,,,METAR,772.0
CXCP 140300Z AUTO 29008KT M05/M09 RMK AO1 T10461090,CXCP,2019-01-14T03:00:00Z,50.28,-113.35,-4.6,-9.0,290,8,,,,,,TRUE,TRUE,,,,,,,,,,,,,,,,,,,,,,,,,,,METAR,1006.0
CXCD 140300Z AUTO 09004KT M02/M02 RMK AO1 T10171017,CXCD,2019-01-14T03:00:00Z,56.32,-119.75,-1.7,-1.7,90,4,,,,,,TRUE,TRUE,,,,,,,,,,,,,,,,,,,,,,,,,,,METAR,630.0
CXBR 140300Z AUTO 29009KT M02/M13 RMK AO1 T10161134,CXBR,2019-01-14T03:00:00Z,49.62,-113.82,-1.6,-13.4,290,9,,,,,,TRUE,TRUE,,,,,,,,,,,,,,,,,,,,,,,,,,,METAR,1073.0
CXBA 140300Z AUTO 27002KT M12/M13 RMK AO1 T11201126,CXBA,2019-01-14T03:00:00Z,52.12,-110.1,-12.0,-12.6,270,2,,,,,,TRUE,TRUE,,,,,,,,,,,,,,,,,,,,,,,,,,,METAR,687.0
CWGL 140300Z AUTO 12003KT M10/M15 RMK AO1 SLP301 T10951146 56008,CWGL,2019-01-14T03:00:00Z,44.52,-79.22,-9.5,-14.6,120,3,,,,1030.1,,TRUE,TRUE,,,,,,,,,,,,,,,,-0.8,,,,,,,,,,,METAR,221.0
CWGD 140300Z AUTO 07003KT M12/M15 RMK AO1 SOG 01 5003 SLP297 T11201150,CWGD,2019-01-14T03:00:00Z,43.77,-81.72,-12.0,-15.0,70,3,,,,1029.7,,TRUE,TRUE,,,,,,,,,,,,,,,,,,,,,,,,,,,METAR,214.0
CWGB 140300Z AUTO 22005KT 06/05 RMK AO1 SLP209 T00550051 58001,CWGB,2019-01-14T03:00:00Z,49.35,-124.17,5.5,5.1,220,5,,,,1020.9,,TRUE,TRUE,,,,,,,,,,,,,,,,-0.1,,,,,,,,,,,METAR,5.0
CWFQ 140300Z AUTO 14001KT M17/M19 RMK AO1 SOG 22 7009 SLP312 T11711186,CWFQ,2019-01-14T03:00:00Z,45.03,-72.82,-17.1,-18.6,140,1,,,,1031.2,,TRUE,TRUE,,,,,,,,,,,,,,,,,,,,,,,,,,,METAR,152.0
CWFJ 140300Z AUTO 29004KT 02/M12 RMK AO1 T00161120,CWFJ,2019-01-14T03:00:00Z,49.2,-113.27,1.6,-12.0,290,4,,,,,,TRUE,TRUE,,,,,,,,,,,,,,,,,,,,,,,,,,,METAR,1136.0
CWFF 140300Z AUTO 03002KT M08/M09 RMK AO1 SOG 14 1010 SLP286 T10781088,CWFF,2019-01-14T03:00:00Z,52.82,-104.58,-7.8,-8.8,30,2,,,,1028.6,,TRUE,TRUE,,,,,,,,,,,,,,,,,,,,,,,,,,,METAR,490.0
CWEW 140300Z AUTO 22002KT M16/M18 RMK AO1 SOG 14 6010 SLP330 T11611183,CWEW,2019-01-14T03:00:00Z,45.82,-73.43,-16.1,-18.3,220,2,,,,1033.0,,TRUE,TRUE,,,,,,,,,,,,,,,,,,,,,,,,,,,METAR,21.0
CWEL 140300Z AUTO 32008KT 08/06 RMK AO1 SLP209 T00810061 58002,CWEL,2019-01-14T03:00:00Z,49.22,-123.78,8.1,6.1,320,8,,,,1020.9,,TRUE,TRUE,,,,,,,,,,,,,,,,-0.2,,,,,,,,,,,METAR,5.0
LESO 140300Z AUTO VRB05KT 9000 -RA SCT011/// BKN016/// BKN024/// 10/09 Q1027,LESO,2019-01-14T03:00:00Z,43.35,-1.8,10.0,9.0,0,5,,5.59,30.324802,,,TRUE,,,,,,,-RA,SCT,1100,BKN,1600,BKN,2400,,,MVFR,,,,,,,,,,,,METAR,8.0
LERS 140300Z AUTO 27022G32KT 9999 NCD 10/05 Q1017,LERS,2019-01-14T03:00:00Z,41.13,1.17,10.0,5.0,270,22,32,6.21,30.029528,,,TRUE,,,,,,,,CLR,,,,,,,,VFR,,,,,,,,,,,,METAR,76.0
LEMH 140300Z AUTO 28006KT 250V320 9999 NCD 11/08 Q1017,LEMH,2019-01-14T03:00:00Z,39.87,4.22,11.0,8.0,280,6,,6.21,30.029528,,,TRUE,,,,,,,,CLR,,,,,,,,VFR,,,,,,,,,,,,METAR,82.0
LEGR 140300Z AUTO 00000KT 9999 NCD M04/M05 Q1025,LEGR,2019-01-14T03:00:00Z,37.17,-3.77,-4.0,-5.0,0,0,,6.21,30.265747,,,TRUE,,,,,,,,CLR,,,,,,,,VFR,,,,,,,,,,,,METAR,559.0
LEGE 140300Z 00000KT CAVOK 01/01 Q1016,LEGE,2019-01-14T03:00:00Z,41.88,2.77,1.0,1.0,0,0,,6.21,30.0,,,,,,,,,,,CAVOK,,,,,,,,VFR,,,,,,,,,,,,METAR,129.0
LECO 140300Z AUTO 17003KT 130V190 9999 OVC029/// 09/08 Q1029,LECO,2019-01-14T03:00:00Z,43.28,-8.37,9.0,8.0,170,3,,6.21,30.383858,,,TRUE,,,,,,,,OVC,2900,,,,,,,MVFR,,,,,,,,,,,,METAR,103.0
LEBB 140300Z AUTO 28002KT 9999 SCT027/// BKN034/// BKN040/// 11/07 Q1027,LEBB,2019-01-14T03:00:00Z,43.28,-2.92,11.0,7.0,280,2,,6.21,30.324802,,,TRUE,,,,,,,,SCT,2700,BKN,3400,BKN,4000,,,VFR,,,,,,,,,,,,METAR,34.0
LEAS 140300Z AUTO 21009KT 9999 OVC031/// 09/05 Q1028,LEAS,2019-01-14T03:00:00Z,43.53,-6.02,9.0,5.0,210,9,,6.21,30.35433,,,TRUE,,,,,,,,OVC,3100,,,,,,,VFR,,,,,,,,,,,,METAR,134.0
LEAM 140300Z AUTO 01002KT 9999 NCD 06/05 Q1022,LEAM,2019-01-14T03:00:00Z,36.85,-2.37,6.0,5.0,10,2,,6.21,30.177166,,,TRUE,,,,,,,,CLR,,,,,,,,VFR,,,,,,,,,,,,METAR,21.0
LPBJ 140300Z VRB01KT CAVOK 02/01 Q1025,LPBJ,2019-01-14T03:00:00Z,38.08,-7.93,2.0,1.0,0,1,,6.21,30.265747,,,,,,,,,,,CAVOK,,,,,,,,VFR,,,,,,,,,,,,METAR,194.0
LPPT 140300Z 03004KT 360V060 CAVOK 07/03 Q1026,LPPT,2019-01-14T03:00:00Z,38.77,-9.12,7.0,3.0,30,4,,6.21,30.295275,,,,,,,,,,,CAVOK,,,,,,,,VFR,,,,,,,,,,,,METAR,123.0
LPPS 140300Z 10011KT 9999 SCT015 17/13 Q1023,LPPS,2019-01-14T03:00:00Z,33.07,-16.35,17.0,13.0,100,11,,6.21,30.206694,,,,,,,,,,,SCT,1500,,,,,,,VFR,,,,,,,,,,,,METAR,82.0
LPPR 140300Z VRB01KT CAVOK 05/04 Q1026,LPPR,2019-01-14T03:00:00Z,41.22,-8.67,5.0,4.0,0,1,,6.21,30.295275,,,,,,,,,,,CAVOK,,,,,,,,VFR,,,,,,,,,,,,METAR,73.0
LPMA 140300Z 10007KT 050V140 9999 SCT016 17/13 Q1023,LPMA,2019-01-14T03:00:00Z,32.7,-16.77,17.0,13.0,100,7,,6.21,30.206694,,,,,,,,,,,SCT,1600,,,,,,,VFR,,,,,,,,,,,,METAR,55.0
LPFR 140300Z 03006KT CAVOK 07/02 Q1025,LPFR,2019-01-14T03:00:00Z,37.02,-7.97,7.0,2.0,30,6,,6.21,30.265747,,,,,,,,,,,CAVOK,,,,,,,,VFR,,,,,,,,,,,,METAR,4.0
LEMI 140300Z AUTO 29007KT 250V320 9999 NCD 10/M01 Q1022,LEMI,2019-01-14T03:00:00Z,,,10.0,-1.0,290,7,,6.21,30.177166,,,TRUE,,,,,,,,CLR,,,,,,,,VFR,,,,,,,,,,,,METAR,
GEML 140300Z AUTO 26003KT 220V320 9999 NCD 07/00 Q1023,GEML,2019-01-14T03:00:00Z,35.27,-2.95,7.0,0.0,260,3,,6.21,30.206694,,,TRUE,,,,,,,,CLR,,,,,,,,VFR,,,,,,,,,,,,METAR,55.0
LELN 140300Z AUTO 02002KT 9999 NCD M05/M06 Q1026,LELN,2019-01-14T03:00:00Z,42.57,-5.65,-5.0,-6.0,20,2,,6.21,30.295275,,,TRUE,,,,,,,,CLR,,,,,,,,VFR,,,,,,,,,,,,METAR,914.0
LELC 140300Z AUTO 26006KT 9999 NCD 07/01 Q1022,LELC,2019-01-14T03:00:00Z,37.77,-0.8,7.0,1.0,260,6,,6.21,30.177166,,,TRUE,,,,,,,,CLR,,,,,,,,VFR,,,,,,,,,,,,METAR,3.0
LEXJ 140300Z AUTO 23006KT 9999 FEW029/// BKN035/// 11/07 Q1028,LEXJ,2019-01-14T03:00:00Z,43.42,-3.82,11.0,7.0,230,6,,6.21,30.35433,,,TRUE,,,,,,,,FEW,2900,BKN,3500,,,,,VFR,,,,,,,,,,,,METAR,6.0
LEPP 140300Z AUTO 31006KT 8000 SCT018/// BKN026/// OVC033/// 07/05 Q1025,LEPP,2019-01-14T03:00:00Z,42.77,-1.65,7.0,5.0,310,6,,4.97,30.265747,,,TRUE,,,,,,,,SCT,1800,BKN,2600,OVC,3300,,,MVFR,,,,,,,,,,,,METAR,459.0
KVUJ 140300Z AUTO 03007KT 10SM OVC008 01/00 A3024 RMK AO2 T00120000,KVUJ,2019-01-14T03:00:00Z,35.42,-80.15,1.2,0.0,30,7,,10.0,30.239174,,,TRUE,TRUE,,,,,,,OVC,800,,,,,,,IFR,,,,,,,,,,,,METAR,186.0
KSVH 140300Z AUTO 03004KT 10SM OVC007 02/00 A3018 RMK AO2 T00150003,KSVH,2019-01-14T03:00:00Z,35.75,-80.95,1.5,0.3,30,4,,10.0,30.180119,,,TRUE,TRUE,,,,,,,OVC,700,,,,,,,IFR,,,,,,,,,,,,METAR,294.0
KSCR 140300Z AUTO 36003KT 10SM OVC007 00/00 A3019 RMK AO2 T00030000,KSCR,2019-01-14T03:00:00Z,35.7,-79.5,0.3,0.0,360,3,,10.0,30.188976,,,TRUE,TRUE,,,,,,,OVC,700,,,,,,,IFR,,,,,,,,,,,,METAR,188.0
KRUQ 140300Z AUTO 04003KT 10SM OVC010 01/M01 A3019 RMK AO2 T00051006,KRUQ,2019-01-14T03:00:00Z,35.65,-80.52,0.5,-0.6,40,3,,10.0,30.188976,,,TRUE,TRUE,,,,,,,OVC,1000,,,,,,,MVFR,,,,,,,,,,,,METAR,236.0
KRHP 140300Z AUTO 00000KT 10SM OVC007 06/06 A3016 RMK AO2 T00550055,KRHP,2019-01-14T03:00:00Z,35.18,-83.85,5.5,5.5,0,0,,10.0,30.159449,,,TRUE,TRUE,,,,,,,OVC,700,,,,,,,IFR,,,,,,,,,,,,METAR,518.0
KOCW 140300Z AUTO 33008G14KT 10SM OVC007 02/01 A3013 RMK AO2 T00230013,KOCW,2019-01-14T03:00:00Z,35.57,-77.05,2.3,1.3,330,8,14,10.0,30.129921,,,TRUE,TRUE,,,,,,,OVC,700,,,,,,,IFR,,,,,,,,,,,,METAR,12.0
KLHZ 140300Z AUTO 5SM BR OVC007 00/00 A3020 RMK AO2,KLHZ,2019-01-14T03:00:00Z,36.02,-78.33,0.0,0.0,,,,5.0,30.200787,,,TRUE,TRUE,,,,,,BR,OVC,700,,,,,,,IFR,,,,,,,,,,,,METAR,113.0
KGWW 140300Z AUTO 35006KT 4SM BR BKN006 OVC011 01/01 A3017 RMK AO2 T00120012,KGWW,2019-01-14T03:00:00Z,35.47,-77.97,1.2,1.2,350,6,,4.0,30.171259,,,TRUE,TRUE,,,,,,BR,BKN,600,OVC,1100,,,,,IFR,,,,,,,,,,,,METAR,41.0
KFQD 140300Z AUTO 00000KT 10SM OVC019 02/02 A3019 RMK AO2,KFQD,2019-01-14T03:00:00Z,35.42,-81.93,2.0,2.0,0,0,,10.0,30.188976,,,TRUE,TRUE,,,,,,,OVC,1900,,,,,,,MVFR,,,,,,,,,,,,METAR,329.0
KFME 140300Z AUTO 00000KT 10SM OVC049 M02/M04 A3031 RMK AO1,KFME,2019-01-14T03:00:00Z,39.08,-76.77,-2.0,-4.0,0,0,,10.0,30.31004,,,TRUE,TRUE,,,,,,,OVC,4900,,,,,,,VFR,,,,,,,,,,,,SPECI,46.0
KETC 140300Z AUTO 34008KT 10SM OVC007 01/00 A3016 RMK AO2 T00120001,KETC,2019-01-14T03:00:00Z,35.93,-77.55,1.2,0.1,340,8,,10.0,30.159449,,,TRUE,TRUE,,,,,,,OVC,700,,,,,,,IFR,,,,,,,,,,,,METAR,17.0
KASJ 140300Z AUTO 34009G15KT 10SM OVC008 01/00 A3015 RMK AO2 T00050001,KASJ,2019-01-14T03:00:00Z,36.28,-77.17,0.5,0.1,340,9,15,10.0,30.15059,,,TRUE,TRUE,,,,,,,OVC,800,,,,,,,IFR,,,,,,,,,,,,METAR,21.0
LPLA 140300Z /////KT 9999 SCT020 15/13 Q1027,LPLA,2019-01-14T03:00:00Z,38.77,-27.1,15.0,13.0,,,,6.21,30.324802,,,,,,,,,,,SCT,2000,,,,,,,VFR,,,,,,,,,,,,SPECI,55.0
LETL 140300Z AUTO 30007KT 2300 UP VV/// M01/M02 Q1024,LETL,2019-01-14T03:00:00Z,40.42,-1.22,-1.0,-2.0,300,7,,1.43,30.236221,,,TRUE,,,,,,,UP,OVX,0,,,,,,,LIFR,,,,,,,,,,,,METAR,1013.0
LECH 140300Z AUTO 22002KT 9999 NCD 14/03 Q1019,LECH,2019-01-14T03:00:00Z,40.2,0.07,14.0,3.0,220,2,,6.21,30.088583,,,TRUE,,,,,,,,CLR,,,,,,,,VFR,,,,,,,,,,,,METAR,337.0
LEBG 140300Z AUTO VRB01KT 9999 OVC007/// 03/03 Q1027,LEBG,2019-01-14T03:00:00Z,42.37,-3.62,3.0,3.0,0,1,,6.21,30.324802,,,TRUE,,,,,,,,OVC,700,,,,,,,IFR,,,,,,,,,,,,METAR,891.0
LEAG 140300Z AUTO 26005KT CAVOK 09/02 Q1024,LEAG,2019-01-14T03:00:00Z,,,9.0,2.0,260,5,,6.21,30.236221,,,TRUE,,,,,,,,CAVOK,,,,,,,,VFR,,,,,,,,,,,,METAR,
LEZG 140300Z 29025KT CAVOK 09/04 Q1024,LEZG,2019-01-14T03:00:00Z,41.67,-1.02,9.0,4.0,290,25,,6.21,30.236221,,,,,,,,,,,CAVOK,,,,,,,,VFR,,,,,,,,,,,,METAR,258.0
LEVT 140300Z 23005KT 9999 FEW018 BKN025 06/04 Q1027,LEVT,2019-01-14T03:00:00Z,42.87,-2.72,6.0,4.0,230,5,,6.21,30.324802,,,,,,,,,,,FEW,1800,BKN,2500,,,,,MVFR,,,,,,,,,,,,METAR,509.0
LEJR 140300Z AUTO 22002KT 9999 NCD 01/M01 Q1025,LEJR,2019-01-14T03:00:00Z,36.75,-6.07,1.0,-1.0,220,2,,6.21,30.265747,,,TRUE,,,,,,,,CLR,,,,,,,,VFR,,,,,,,,,,,,METAR,30.0
LEST 140300Z 07005KT 010V130 9999 OVC016 08/06 Q1028 NOSIG,LEST,2019-01-14T03:00:00Z,42.88,-8.42,8.0,6.0,70,5,,6.21,30.35433,,,,,,TRUE,,,,,OVC,1600,,,,,,,MVFR,,,,,,,,,,,,METAR,367.0
LEDA 140300Z AUTO 21006KT 9999 NCD 03/03 Q1020,LEDA,2019-01-14T03:00:00Z,41.73,0.53,3.0,3.0,210,6,,6.21,30.11811,,,TRUE,,,,,,,,CLR,,,,,,,,VFR,,,,,,,,,,,,METAR,350.0
LESA 140300Z AUTO 00000KT 4700 BR NSC M04/M05 Q1026,LESA,2019-01-14T03:00:00Z,40.95,-5.5,-4.0,-5.0,0,0,,2.92,30.295275,,,TRUE,,,,,,,BR,CLR,,,,,,,,IFR,,,,,,,,,,,,METAR,795.0
GCXO 140300Z AUTO 14007KT 100V190 9000 NCD 12/08 Q1022,GCXO,2019-01-14T03:00:00Z,28.48,-16.35,12.0,8.0,140,7,,5.59,30.177166,,,TRUE,,,,,,,,CLR,,,,,,,,VFR,,,,,,,,,,,,METAR,632.0
GCTS 140300Z 05011KT CAVOK 20/M06 Q1020 NOSIG,GCTS,2019-01-14T03:00:00Z,28.05,-16.57,20.0,-6.0,50,11,,6.21,30.11811,,,,,,TRUE,,,,,CAVOK,,,,,,,,VFR,,,,,,,,,,,,METAR,72.0
GCRR 140300Z AUTO 09014KT 9999 NCD 19/14 Q1023,GCRR,2019-01-14T03:00:00Z,28.93,-13.58,19.0,14.0,90,14,,6.21,30.206694,,,TRUE,,,,,,,,CLR,,,,,,,,VFR,,,,,,,,,,,,METAR,40.0
GCLP 140300Z 24003KT 200V260 CAVOK 17/09 Q1021 NOSIG,GCLP,2019-01-14T03:00:00Z,27.92,-15.37,17.0,9.0,240,3,,6.21,30.147638,,,,,,TRUE,,,,,CAVOK,,,,,,,,VFR,,,,,,,,,,,,METAR,25.0
GCLA 140300Z AUTO VRB04KT 9999 NCD 18/M04 Q1019,GCLA,2019-01-14T03:00:00Z,28.62,-17.75,18.0,-4.0,0,4,,6.21,30.088583,,,TRUE,,,,,,,,CLR,,,,,,,,VFR,,,,,,,,,,,,METAR,31.0
GCFV 140300Z AUTO 12015KT 9999 NCD 19/10 Q1022,GCFV,2019-01-14T03:00:00Z,28.43,-13.87,19.0,10.0,120,15,,6.21,30.177166,,,TRUE,,,,,,,,CLR,,,,,,,,VFR,,,,,,,,,,,,METAR,23.0
LPPD 140300Z 05005KT 020V090 9999 FEW020 SCT030 15/10 Q1026,LPPD,2019-01-14T03:00:00Z,37.72,-25.68,15.0,10.0,50,5,,6.21,30.295275,,,,,,,,,,,FEW,2000,SCT,3000,,,,,VFR,,,,,,,,,,,,METAR,72.0
LPAZ 140300Z 10008KT 9999 FEW021 SCT047 16/12 Q1025,LPAZ,2019-01-14T03:00:00Z,36.97,-25.17,16.0,12.0,100,8,,6.21,30.265747,,,,,,,,,,,FEW,2100,SCT,4700,,,,,VFR,,,,,,,,,,,,METAR,100.0
GCHI 140300Z AUTO 20012KT 160V230 //// R34///// NSC 20/09 Q1020,GCHI,2019-01-14T03:00:00Z,27.82,-17.87,20.0,9.0,200,12,,,30.11811,,,TRUE,,,,,,,,CLR,,,,,,,,,,,,,,,,,,,,METAR,30.0
GCGM 140300Z AUTO 05009KT 340V120 9999 NCD 19/00 Q1021 RMK R09/07010KT 020V100 ARP/07009KT 030V100,GCGM,2019-01-14T03:00:00Z,28.03,-17.22,19.0,0.0,50,9,,6.21,30.147638,,,TRUE,,,,,,,,CLR,,,,,,,,VFR,,,,,,,,,,,,METAR,219.0
LEZL 140300Z VRB01KT CAVOK 04/01 Q1025 NOSIG,LEZL,2019-01-14T03:00:00Z,37.42,-5.9,4.0,1.0,0,1,,6.21,30.265747,,,,,,TRUE,,,,,CAVOK,,,,,,,,VFR,,,,,,,,,,,,METAR,31.0
LEVX 140300Z 22005KT 170V270 CAVOK 04/04 Q1027 NOSIG,LEVX,2019-01-14T03:00:00Z,42.22,-8.62,4.0,4.0,220,5,,6.21,30.324802,,,,,,TRUE,,,,,CAVOK,,,,,,,,VFR,,,,,,,,,,,,METAR,256.0
LEVC 140300Z 27005KT CAVOK 04/01 Q1020 NOSIG,LEVC,2019-01-14T03:00:00Z,39.5,-0.47,4.0,1.0,270,5,,6.21,30.11811,,,,,,TRUE,,,,,CAVOK,,,,,,,,VFR,,,,,,,,,,,,METAR,62.0
LEPA 140300Z 25010KT 210V270 CAVOK 10/07 Q1018 NOSIG,LEPA,2019-01-14T03:00:00Z,39.53,2.72,10.0,7.0,250,10,,6.21,30.059055,,,,,,TRUE,,,,,CAVOK,,,,,,,,VFR,,,,,,,,,,,,METAR,8.0
LEMG 140300Z 30012KT CAVOK 09/M01 Q1023 NOSIG,LEMG,2019-01-14T03:00:00Z,36.67,-4.5,9.0,-1.0,300,12,,6.21,30.206694,,,,,,TRUE,,,,,CAVOK,,,,,,,,VFR,,,,,,,,,,,,METAR,7.0
LEMD 140300Z VRB02KT CAVOK M02/M03 Q1025 NOSIG,LEMD,2019-01-14T03:00:00Z,40.48,-3.57,-2.0,-3.0,0,2,,6.21,30.265747,,,,,,TRUE,,,,,CAVOK,,,,,,,,VFR,,,,,,,,,,,,METAR,582.0
LEIB 140300Z AUTO 00000KT CAVOK 06/05 Q1020,LEIB,2019-01-14T03:00:00Z,38.87,1.37,6.0,5.0,0,0,,6.21,30.11811,,,TRUE,,,,,,,,CAVOK,,,,,,,,VFR,,,,,,,,,,,,METAR,12.0
LEBL 140300Z 32011KT 290V350 CAVOK 11/05 Q1017 NOSIG,LEBL,2019-01-14T03:00:00Z,41.27,2.07,11.0,5.0,320,11,,6.21,30.029528,,,,,,TRUE,,,,,CAVOK,,,,,,,,VFR,,,,,,,,,,,,METAR,6.0
LEAL 140300Z 30011KT CAVOK 11/M00 Q1021 NOSIG,LEAL,2019-01-14T03:00:00Z,38.27,-0.55,11.0,0.0,300,11,,6.21,30.147638,,,,,,TRUE,,,,,CAVOK,,,,,,,,VFR,,,,,,,,,,,,METAR,31.0
LFSB 140300Z AUTO 29013KT 9999 -RA FEW015/// BKN034/// BKN047/// ///CB 07/05 Q1009 TEMPO 30020G35KT 4000 SHRA,LFSB,2019-01-14T03:00:00Z,47.6,7.52,7.0,5.0,290,13,,6.21,29.793306,,,TRUE,,,,,,,-RA,FEW,1500,BKN,3400,BKN,4700,,,VFR,,,,,,,,,,,,SPECI,271.0
LFRN 140300Z AUTO 31012KT 9999 FEW022 OVC034 10/08 Q1020 NOSIG,LFRN,2019-01-14T03:00:00Z,48.07,-1.72,10.0,8.0,310,12,,6.21,30.11811,,,TRUE,,,TRUE,,,,,FEW,2200,OVC,3400,,,,,VFR,,,,,,,,,,,,METAR,37.0
LFRD 140300Z AUTO 33014KT 9999 FEW020 OVC034 10/06 Q1021 NOSIG,LFRD,2019-01-14T03:00:00Z,48.58,-2.07,10.0,6.0,330,14,,6.21,30.147638,,,TRUE,,,TRUE,,,,,FEW,2000,OVC,3400,,,,,VFR,,,,,,,,,,,,METAR,59.0
LFPB 140300Z AUTO 32008KT CAVOK 09/01 Q1015 NOSIG,LFPB,2019-01-14T03:00:00Z,48.97,2.45,9.0,1.0,320,8,,6.21,29.970472,,,TRUE,,,TRUE,,,,,CAVOK,,,,,,,,VFR,,,,,,,,,,,,METAR,65.0
LFOK 140300Z AUTO 32015KT 9999 FEW026 SCT056 BKN068 06/04 Q1013 TEMPO 31015G25KT,LFOK,2019-01-14T03:00:00Z,48.78,4.18,6.0,4.0,320,15,,6.21,29.911417,,,TRUE,,,,,,,,FEW,2600,SCT,5600,BKN,6800,,,VFR,,,,,,,,,,,,SPECI,162.0
LFOB 140300Z AUTO 32011KT CAVOK 07/02 Q1015 NOSIG,LFOB,2019-01-14T03:00:00Z,49.47,2.12,7.0,2.0,320,11,,6.21,29.970472,,,TRUE,,,TRUE,,,,,CAVOK,,,,,,,,VFR,,,,,,,,,,,,METAR,111.0
LFMU 140300Z AUTO 27020KT CAVOK 11/07 Q1017 TEMPO 30020G35KT,LFMU,2019-01-14T03:00:00Z,43.32,3.35,11.0,7.0,270,20,,6.21,30.029528,,,TRUE,,,,,,,,CAVOK,,,,,,,,VFR,,,,,,,,,,,,SPECI,17.0
LFMT 140300Z AUTO 31023G34KT 280V340 CAVOK 13/03 Q1015 NOSIG,LFMT,2019-01-14T03:00:00Z,43.57,3.97,13.0,3.0,310,23,34,6.21,29.970472,,,TRUE,,,TRUE,,,,,CAVOK,,,,,,,,VFR,,,,,,,,,,,,METAR,6.0
LFMK 140300Z AUTO 28020G30KT 6000 -RA BKN011 OVC017 09/08 Q1021 TEMPO 28030G45KT RA,LFMK,2019-01-14T03:00:00Z,43.22,2.32,9.0,8.0,280,20,30,3.73,30.147638,,,TRUE,,,,,,,-RA,BKN,1100,OVC,1700,,,,,MVFR,,,,,,,,,,,,SPECI,130.0
LFLY 140300Z AUTO 29008KT 260V320 9999 FEW020 OVC033 09/05 Q1015 TEMPO 35015G25KT 4000 RA BKN014,LFLY,2019-01-14T03:00:00Z,45.72,4.95,9.0,5.0,290,8,,6.21,29.970472,,,TRUE,,,,,,,,FEW,2000,OVC,3300,,,,,VFR,,,,,,,,,,,,SPECI,201.0
LFLL 140300Z 28011KT 9999 -RA BKN023 OVC028 08/06 Q1015 NOSIG,LFLL,2019-01-14T03:00:00Z,45.72,5.07,8.0,6.0,280,11,,6.21,29.970472,,,,,,TRUE,,,,-RA,BKN,2300,OVC,2800,,,,,MVFR,,,,,,,,,,,,METAR,240.0
LFRS 140300Z AUTO 28009KT 9999 FEW017 OVC035 10/08 Q1021 TEMPO 4000 -DZ BKN005,LFRS,2019-01-14T03:00:00Z,47.17,-1.6,10.0,8.0,280,9,,6.21,30.147638,,,TRUE,,,,,,,,FEW,1700,OVC,3500,,,,,VFR,,,,,,,,,,,,SPECI,27.0
LFRB 140300Z AUTO 32010KT 290V350 9999 FEW017 OVC031 10/08 Q1023 BECMG BKN006 OVC010,LFRB,2019-01-14T03:00:00Z,48.45,-4.42,10.0,8.0,320,10,,6.21,30.206694,,,TRUE,,,,,,,,FEW,1700,OVC,3100,,,,,VFR,,,,,,,,,,,,SPECI,103.0
LFQQ 140300Z AUTO 30015KT 9999 FEW025 SCT033 BKN046 08/04 Q1013 NOSIG,LFQQ,2019-01-14T03:00:00Z,50.57,3.1,8.0,4.0,300,15,,6.21,29.911417,,,TRUE,,,TRUE,,,,,FEW,2500,SCT,3300,BKN,4600,,,VFR,,,,,,,,,,,,METAR,52.0
LFPO 140300Z 35011KT CAVOK 09/05 Q1015 NOSIG,LFPO,2019-01-14T03:00:00Z,48.72,2.38,9.0,5.0,350,11,,6.21,29.970472,,,,,,TRUE,,,,,CAVOK,,,,,,,,VFR,,,,,,,,,,,,METAR,96.0
LFPG 140300Z 33014KT 9999 FEW046 08/02 Q1015 NOSIG,LFPG,2019-01-14T03:00:00Z,49.02,2.52,8.0,2.0,330,14,,6.21,29.970472,,,,,,TRUE,,,,,FEW,4600,,,,,,,VFR,,,,,,,,,,,,METAR,109.0
LFMN 140300Z 33008KT 9999 FEW013 SCT260 06/01 Q1003 NOSIG,LFMN,2019-01-14T03:00:00Z,43.63,7.2,6.0,1.0,330,8,,6.21,29.616142,,,,,,TRUE,,,,,FEW,1300,SCT,26000,,,,,VFR,,,,,,,,,,,,METAR,10.0
LFBH 140300Z AUTO 32013KT 8000 BKN010 OVC014 09/09 Q1022 TEMPO 31015G25KT 4000 DZ,LFBH,2019-01-14T03:00:00Z,46.18,-1.2,9.0,9.0,320,13,,4.97,30.177166,,,TRUE,,,,,,,,BKN,1000,OVC,1400,,,,,MVFR,,,,,,,,,,,,SPECI,10.0
LFBD 140300Z AUTO 28011KT 9999 FEW022 OVC028 10/08 Q1024 TEMPO 3000 -DZ OVC008,LFBD,2019-01-14T03:00:00Z,44.82,-0.7,10.0,8.0,280,11,,6.21,30.236221,,,TRUE,,,,,,,,FEW,2200,OVC,2800,,,,,MVFR,,,,,,,,,,,,SPECI,61.0
LFMY 140300Z AUTO 32009KT CAVOK 11/04 Q1013,LFMY,2019-01-14T03:00:00Z,43.6,5.08,11.0,4.0,320,9,,6.21,29.911417,,,TRUE,,,,,,,,CAVOK,,,,,,,,VFR,,,,,,,,,,,,METAR,60.0
LFMO 140300Z AUTO 35012KT 9999 FEW060 BKN140 BKN190 10/05 Q1014 NOSIG,LFMO,2019-01-14T03:00:00Z,44.12,4.87,10.0,5.0,350,12,,6.21,29.940945,,,TRUE,,,TRUE,,,,,FEW,6000,BKN,14000,BKN,19000,,,VFR,,,,,,,,,,,,METAR,55.0
LFMC 140300Z AUTO 29020KT 9999 ////// 13/03 Q1005,LFMC,2019-01-14T03:00:00Z,43.37,6.37,13.0,3.0,290,20,,6.21,29.675198,,,TRUE,,,,,,,,,,,,,,,,,,,,,,,,,,,,METAR,78.0
LFKS 140300Z AUTO 28005KT CAVOK 07/05 Q1003,LFKS,2019-01-14T03:00:00Z,41.92,9.4,7.0,5.0,280,5,,6.21,29.616142,,,TRUE,,,,,,,,CAVOK,,,,,,,,VFR,,,,,,,,,,,,METAR,22.0
LFBY 140300Z AUTO 24008KT //// // ////// 10/09 Q1026,LFBY,2019-01-14T03:00:00Z,43.67,-1.07,10.0,9.0,240,8,,,30.295275,,,TRUE,,,,,,,,,,,,,,,,,,,,,,,,,,,,METAR,32.0
LFBM 140300Z AUTO 25006KT 5000 +DZ BR BKN006 BKN014 OVC020 09/09 Q1025 TEMPO RADZ BKN003,LFBM,2019-01-14T03:00:00Z,43.92,-0.5,9.0,9.0,250,6,,3.11,30.265747,,,TRUE,,,,,,,+DZ BR,BKN,600,BKN,1400,OVC,2000,,,IFR,,,,,,,,,,,,SPECI,63.0
LFBG 140300Z AUTO 29012KT 9999 OVC012 10/08 Q1022,LFBG,2019-01-14T03:00:00Z,45.67,-0.32,10.0,8.0,290,12,,6.21,30.177166,,,TRUE,,,,,,,,OVC,1200,,,,,,,MVFR,,,,,,,,,,,,METAR,31.0
LFBC 140300Z AUTO 29010KT 260V330 9999 SCT014 BKN020 BKN027 11/09 Q1024,LFBC,2019-01-14T03:00:00Z,44.52,-1.12,11.0,9.0,290,10,,6.21,30.236221,,,TRUE,,,,,,,,SCT,1400,BKN,2000,BKN,2700,,,MVFR,,,,,,,,,,,,METAR,33.0
LFSG 140300Z AUTO 30012KT //// R26///// // FEW025 BKN064 BKN076 06/03 Q1011,LFSG,2019-01-14T03:00:00Z,48.33,6.07,6.0,3.0,300,12,,,29.852362,,,TRUE,,,,,,,,FEW,2500,BKN,6400,BKN,7600,,,,,,,,,,,,,,,METAR,330.0
LFRZ 140300Z AUTO 28009KT CAVOK 09/07 Q1022 TEMPO 4000 -DZ BKN005,LFRZ,2019-01-14T03:00:00Z,47.32,-2.17,9.0,7.0,280,9,,6.21,30.177166,,,TRUE,,,,,,,,CAVOK,,,,,,,,VFR,,,,,,,,,,,,METAR,4.0
LFRV 140300Z AUTO 29006KT 260V320 9999 BKN021 OVC028 09/08 Q1021,LFRV,2019-01-14T03:00:00Z,47.72,-2.72,9.0,8.0,290,6,,6.21,30.147638,,,TRUE,,,,,,,,BKN,2100,OVC,2800,,,,,MVFR,,,,,,,,,,,,METAR,133.0
LFRO 140300Z AUTO 31009KT 280V350 9999 FEW018 OVC028 10/08 Q1022,LFRO,2019-01-14T03:00:00Z,48.75,-3.47,10.0,8.0,310,9,,6.21,30.177166,,,TRUE,,,,,,,,FEW,1800,OVC,2800,,,,,MVFR,,,,,,,,,,,,METAR,89.0
LFRM 140300Z AUTO 26004KT 230V300 9999 FEW023 BKN048 10/07 Q1019,LFRM,2019-01-14T03:00:00Z,47.95,0.2,10.0,7.0,260,4,,6.21,30.088583,,,TRUE,,,,,,,,FEW,2300,BKN,4800,,,,,VFR,,,,,,,,,,,,METAR,52.0
LFRI 140300Z AUTO 29009KT 9999 OVC022 10/08 Q1022,LFRI,2019-01-14T03:00:00Z,46.7,-1.37,10.0,8.0,290,9,,6.21,30.177166,,,TRUE,,,,,,,,OVC,2200,,,,,,,MVFR,,,,,,,,,,,,METAR,91.0
LFOV 140300Z AUTO 30008KT 250V340 9999 OVC040 10/07 Q1019,LFOV,2019-01-14T03:00:00Z,48.03,-0.75,10.0,7.0,300,8,,6.21,30.088583,,,TRUE,,,,,,,,OVC,4000,,,,,,,VFR,,,,,,,,,,,,METAR,101.0
LFMI 140300Z AUTO 30013KT CAVOK 10/06 Q1013 NOSIG,LFMI,2019-01-14T03:00:00Z,43.52,4.92,10.0,6.0,300,13,,6.21,29.911417,,,TRUE,,,TRUE,,,,,CAVOK,,,,,,,,VFR,,,,,,,,,,,,METAR,24.0
LFBA 140300Z AUTO 27010KT 9999 FEW017 OVC035 10/08 Q1023,LFBA,2019-01-14T03:00:00Z,44.17,0.6,10.0,8.0,270,10,,6.21,30.206694,,,TRUE,,,,,,,,FEW,1700,OVC,3500,,,,,VFR,,,,,,,,,,,,METAR,60.0
OIZH 140300Z 30006KT CAVOK 04/M12 Q1021 A3015 NOSIG,OIZH,2019-01-14T03:00:00Z,29.47,60.92,4.0,-12.0,300,6,,6.21,30.147638,,,,,,TRUE,,,,,CAVOK,,,,,,,,VFR,,,,,,,,,,,,METAR,1370.0
OITT 140300Z 06004KT 9999 FEW030 BKN090 M00/M03 Q1008 A2977,OITT,2019-01-14T03:00:00Z,38.13,46.23,0.0,-3.0,60,4,,6.21,29.763779,,,,,,,,,,,FEW,3000,BKN,9000,,,,,VFR,,,,,,,,,,,,METAR,1361.0
OISS 140300Z 00000KT 9999 FEW040 BKN200 05/M04 Q1021 A3015,OISS,2019-01-14T03:00:00Z,29.52,52.57,5.0,-4.0,0,0,,6.21,30.147638,,,,,,,,,,,FEW,4000,BKN,20000,,,,,VFR,,,,,,,,,,,,METAR,1491.0
OIMM 140300Z 00000KT 9999 SCT035 SCT190 08/M07 Q1012 A2990,OIMM,2019-01-14T03:00:00Z,36.23,59.62,8.0,-7.0,0,0,,6.21,29.88189,,,,,,,,,,,SCT,3500,SCT,19000,,,,,VFR,,,,,,,,,,,,METAR,980.0
OIKK 140300Z 12006KT CAVOK 06/M18 Q1020 A3014,OIKK,2019-01-14T03:00:00Z,30.25,56.97,6.0,-18.0,120,6,,6.21,30.11811,,,,,,,,,,,CAVOK,,,,,,,,VFR,,,,,,,,,,,,METAR,1754.0
OIKB 140300Z 36006KT 8000 SCT030 SCT200 18/10 Q1018 A3009 NOSIG,OIKB,2019-01-14T03:00:00Z,27.22,56.37,18.0,10.0,360,6,,4.97,30.059055,,,,,,TRUE,,,,,SCT,3000,SCT,20000,,,,,MVFR,,,,,,,,,,,,METAR,10.0
OIII 140300Z 05004KT 6000 RA SCT035 OVC090 01/M01 Q1013 A2993,OIII,2019-01-14T03:00:00Z,35.68,51.3,1.0,-1.0,50,4,,3.73,29.911417,,,,,,,,,,RA,SCT,3500,OVC,9000,,,,,MVFR,,,,,,,,,,,,METAR,1191.0
OIFM 140300Z 26004KT 7000 NSC 01/M01 Q1016 A3001,OIFM,2019-01-14T03:00:00Z,32.75,51.87,1.0,-1.0,260,4,,4.35,30.0,,,,,,,,,,,CLR,,,,,,,,MVFR,,,,,,,,,,,,METAR,1542.0
OIAW 140300Z 07008KT 7000 -RA FEW030CB SCT035 OVC080 15/12 Q1013,OIAW,2019-01-14T03:00:00Z,31.32,48.77,15.0,12.0,70,8,,4.35,29.911417,,,,,,,,,,-RA,FEW,3000,SCT,3500,OVC,8000,,,MVFR,,,,,,,,,,,,METAR,22.0
LFRL 140300Z AUTO 30009KT 9999 SCT012 BKN032 09/08 Q1024,LFRL,2019-01-14T03:00:00Z,48.27,-4.42,9.0,8.0,300,9,,6.21,30.236221,,,TRUE,,,,,,,,SCT,1200,BKN,3200,,,,,VFR,,,,,,,,,,,,METAR,82.0
LFRJ 140300Z AUTO 33010KT 9999 OVC025 10/08 Q1023,LFRJ,2019-01-14T03:00:00Z,48.52,-4.15,10.0,8.0,330,10,,6.21,30.206694,,,TRUE,,,,,,,,OVC,2500,,,,,,,MVFR,,,,,,,,,,,,METAR,115.0
LFOJ 140300Z AUTO 28008KT 9999 BKN024 BKN030 BKN040 09/07 Q1016,LFOJ,2019-01-14T03:00:00Z,47.97,1.75,9.0,7.0,280,8,,6.21,30.0,,,TRUE,,,,,,,,BKN,2400,BKN,3000,BKN,4000,,,MVFR,,,,,,,,,,,,METAR,125.0
LFOE 140300Z AUTO 31012KT 270V350 CAVOK 08/05 Q1016 NOSIG,LFOE,2019-01-14T03:00:00Z,49.02,1.22,8.0,5.0,310,12,,6.21,30.0,,,TRUE,,,TRUE,,,,,CAVOK,,,,,,,,VFR,,,,,,,,,,,,METAR,146.0
LFOC 140300Z AUTO 28009KT 9999 SCT027 BKN035 BKN046 10/07 Q1017,LFOC,2019-01-14T03:00:00Z,48.03,1.37,10.0,7.0,280,9,,6.21,30.029528,,,TRUE,,,,,,,,SCT,2700,BKN,3500,BKN,4600,,,VFR,,,,,,,,,,,,METAR,127.0
OITP 140300Z 19006KT 9999 FEW040 00/M01 Q1007,OITP,2019-01-14T03:00:00Z,39.6,47.88,0.0,-1.0,190,6,,6.21,29.734253,,,,,,,,,,,FEW,4000,,,,,,,VFR,,,,,,,,,,,,METAR,77.0
OISR 140300Z 00000KT 8000 NSC 09/06 Q1019,OISR,2019-01-14T03:00:00Z,27.37,53.2,9.0,6.0,0,0,,4.97,30.088583,,,,,,,,,,,CLR,,,,,,,,MVFR,,,,,,,,,,,,METAR,408.0
OISF 140300Z 00000KT CAVOK 06/00 Q1019,OISF,2019-01-14T03:00:00Z,28.9,53.72,6.0,0.0,0,0,,6.21,30.088583,,,,,,,,,,,CAVOK,,,,,,,,VFR,,,,,,,,,,,,METAR,1383.0
OIAH 140300Z 12008KT 9999 FEW035CB SCT040 OVC100 12/01 Q1017,OIAH,2019-01-14T03:00:00Z,30.33,50.83,12.0,1.0,120,8,,6.21,30.029528,,,,,,,,,,,FEW,3500,SCT,4000,OVC,10000,,,VFR,,,,,,,,,,,,METAR,738.0
OIZJ 140300Z 08006KT 8000 NSC 21/16 Q1018,OIZJ,2019-01-14T03:00:00Z,25.65,57.8,21.0,16.0,80,6,,4.97,30.059055,,,,,,,,,,,CLR,,,,,,,,MVFR,,,,,,,,,,,,METAR,4.0
OIIP 140300Z 12010KT 3000 SN RA FEW025 SCT035 OVC080 M00/M01 Q1012,OIIP,2019-01-14T03:00:00Z,35.78,50.83,0.0,-1.0,120,10,,1.86,29.88189,,,,,,,,,,SN RA,FEW,2500,SCT,3500,OVC,8000,,,IFR,,,,,,,,,,,,METAR,1271.0
OIFS 140300Z 22008KT 9999 FEW030 SCT035 BKN080 05/00 Q1018,OIFS,2019-01-14T03:00:00Z,32.32,50.85,5.0,0.0,220,8,,6.21,30.059055,,,,,,,,,,,FEW,3000,SCT,3500,BKN,8000,,,VFR,,,,,,,,,,,,METAR,2078.0
OIBA 140300Z 15010KT 5000 HZ NSC 23/16 Q1017,OIBA,2019-01-14T03:00:00Z,25.88,55.03,23.0,16.0,150,10,,3.11,30.029528,,,,,,,,,,HZ,CLR,,,,,,,,MVFR,,,,,,,,,,,,METAR,7.0
OITM 140300Z 10004KT 9999 FEW035 SCT090 BKN180 02/M00 Q1006,OITM,2019-01-14T03:00:00Z,37.35,46.15,2.0,0.0,100,4,,6.21,29.704725,,,,,,,,,,,FEW,3500,SCT,9000,BKN,18000,,,VFR,,,,,,,,,,,,METAR,1340.0
OINE 140300Z 08006KT 9999 SCT100 BKN170 19/M01 Q1003,OINE,2019-01-14T03:00:00Z,37.38,55.45,19.0,-1.0,80,6,,6.21,29.616142,,,,,,,,,,,SCT,10000,BKN,17000,,,,,VFR,,,,,,,,,,,,METAR,130.0
OIMQ 140300Z AUTO 12004KT //// // ////// 05/M04 Q1016,OIMQ,2019-01-14T03:00:00Z,35.23,58.47,5.0,-4.0,120,4,,,30.0,,,TRUE,,,,,,,,,,,,,,,,,,,,,,,,,,,,METAR,1140.0
OIMD 140300Z AUTO 27010KT //// // ////// 02/M01 Q1015,OIMD,2019-01-14T03:00:00Z,34.38,58.63,2.0,-1.0,270,10,,,29.970472,,,TRUE,,,,,,,,,,,,,,,,,,,,,,,,,,,,METAR,1100.0
OIMC 140300Z AUTO 19012KT //// // ////// 15/M06 Q1009,OIMC,2019-01-14T03:00:00Z,36.5,61.07,15.0,-6.0,190,12,,,29.793306,,,TRUE,,,,,,,,,,,,,,,,,,,,,,,,,,,,METAR,288.0
OIIK 140300Z 12010KT 3000 SN FEW030CB OVC100 M00/M01 Q1012,OIIK,2019-01-14T03:00:00Z,36.25,50.05,0.0,-1.0,120,10,,1.86,29.88189,,,,,,,,,,SN,FEW,3000,OVC,10000,,,,,IFR,,,,,,,,,,,,METAR,1278.0
OIBQ 140300Z 12012KT 5000 BR NSC 21/18 Q1015,OIBQ,2019-01-14T03:00:00Z,29.27,50.32,21.0,18.0,120,12,,3.11,29.970472,,,,,,,,,,BR,CLR,,,,,,,,MVFR,,,,,,,,,,,,METAR,6.0
OIBL 140300Z 08010KT 8000 NSC 21/15 Q1018,OIBL,2019-01-14T03:00:00Z,26.53,54.82,21.0,15.0,80,10,,4.97,30.059055,,,,,,,,,,,CLR,,,,,,,,MVFR,,,,,,,,,,,,METAR,14.0
OICS 140300Z 21006KT 5000 RA FEW035CB SCT040 OVC070 03/02 Q1008,OICS,2019-01-14T03:00:00Z,35.25,47.02,3.0,2.0,210,6,,3.11,29.763779,,,,,,,,,,RA,FEW,3500,SCT,4000,OVC,7000,,,MVFR,,,,,,,,,,,,METAR,1373.0
OIBP 140300Z 00000KT CAVOK 14/12 Q1017 A3005,OIBP,2019-01-14T03:00:00Z,27.38,52.73,14.0,12.0,0,0,,6.21,30.029528,,,,,,,,,,,CAVOK,,,,,,,,VFR,,,,,,,,,,,,METAR,9.0
OIBB 140300Z 15010KT 7000 FEW040 OVC180 19/15 Q1015 A2999,OIBB,2019-01-14T03:00:00Z,28.97,50.82,19.0,15.0,150,10,,4.35,29.970472,,,,,,,,,,,FEW,4000,OVC,18000,,,,,MVFR,,,,,,,,,,,,METAR,19.0
OITZ 140300Z 12006KT 9999 -RA SCT020 SCT030 OVC070 04/00 Q1007,OITZ,2019-01-14T03:00:00Z,36.77,48.37,4.0,0.0,120,6,,6.21,29.734253,,,,,,,,,,-RA,SCT,2000,SCT,3000,OVC,7000,,,VFR,,,,,,,,,,,,METAR,1663.0
OISY 140300Z 00000KT 9999 FEW030CB SCT035 OVC080 08/M09 Q1022,OISY,2019-01-14T03:00:00Z,30.7,51.55,8.0,-9.0,0,0,,6.21,30.177166,,,,,,,,,,,FEW,3000,SCT,3500,OVC,8000,,,VFR,,,,,,,,,,,,METAR,1811.0
OINR 140300Z 27002KT 9999 BKN090 11/09 Q1006,OINR,2019-01-14T03:00:00Z,36.88,50.67,11.0,9.0,270,2,,6.21,29.704725,,,,,,,,,,,BKN,9000,,,,,,,VFR,,,,,,,,,,,,METAR,-20.0
OINN 140300Z 30004KT 9999 BKN027 OVC160 10/07 Q1006,OINN,2019-01-14T03:00:00Z,36.67,51.47,10.0,7.0,300,4,,6.21,29.704725,,,,,,,,,,,BKN,2700,OVC,16000,,,,,MVFR,,,,,,,,,,,,METAR,-19.0
OIKQ 140300Z 06010KT 6000 NSC 20/15 Q1018,OIKQ,2019-01-14T03:00:00Z,26.75,55.9,20.0,15.0,60,10,,3.73,30.059055,,,,,,,,,,,CLR,,,,,,,,MVFR,,,,,,,,,,,,METAR,12.0
OICI 140300Z 14010KT 9999 FEW030CB SCT035 OVC080 08/06 Q1012 A2990,OICI,2019-01-14T03:00:00Z,33.58,46.4,8.0,6.0,140,10,,6.21,29.88189,,,,,,,,,,,FEW,3000,SCT,3500,OVC,8000,,,VFR,,,,,,,,,,,,METAR,1343.0
OIAM 140300Z 10010KT 7000 FEW035CB SCT040 BKN100 16/12 Q1013,OIAM,2019-01-14T03:00:00Z,30.55,49.15,16.0,12.0,100,10,,4.35,29.911417,,,,,,,,,,,FEW,3500,SCT,4000,BKN,10000,,,MVFR,,,,,,,,,,,,METAR,4.0
OIYY 140300Z 09006KT 9999 FEW045 SCT090 14/M12 Q1014,OIYY,2019-01-14T03:00:00Z,31.9,54.28,14.0,-12.0,90,6,,6.21,29.940945,,,,,,,,,,,FEW,4500,SCT,9000,,,,,VFR,,,,,,,,,,,,METAR,1236.0
OITR 140300Z 30004KT 9999 FEW035CB FEW040 M02/M03 Q1006,OITR,2019-01-14T03:00:00Z,37.67,45.07,-2.0,-3.0,300,4,,6.21,29.704725,,,,,,,,,,,FEW,3500,FEW,4000,,,,,VFR,,,,,,,,,,,,METAR,1312.0
OINZ 140300Z 22008KT 9999 SCT035 OVC090 10/08 Q1006,OINZ,2019-01-14T03:00:00Z,36.63,53.2,10.0,8.0,220,8,,6.21,29.704725,,,,,,,,,,,SCT,3500,OVC,9000,,,,,VFR,,,,,,,,,,,,METAR,11.0
OIIE 140300Z VRB02KT 7000 -RA SCT025 SCT035 OVC070 01/M00 Q1014 RESN,OIIE,2019-01-14T03:00:00Z,35.42,51.15,1.0,0.0,0,2,,4.35,29.940945,,,,,,,,,,-RA,SCT,2500,SCT,3500,OVC,7000,,,MVFR,,,,,,,,,,,,METAR,1008.0
OIGG 140300Z 21004KT 5000 BR SCT010 BKN150 08/05 Q1008,OIGG,2019-01-14T03:00:00Z,37.33,49.6,8.0,5.0,210,4,,3.11,29.763779,,,,,,,,,,BR,SCT,1000,BKN,15000,,,,,MVFR,,,,,,,,,,,,METAR,-13.0
OICC 140300Z 16012KT 8000 FEW015 SCT030CB BKN040 OVC070 09/06 Q1010 A2984 TEMPO RA,OICC,2019-01-14T03:00:00Z,34.35,47.17,9.0,6.0,160,12,,4.97,29.822834,,,,,,,,,,,FEW,1500,SCT,3000,BKN,4000,OVC,7000,MVFR,,,,,,,,,,,,METAR,1322.0
OIBK 140300Z 08006KT 6000 NSC 20/14 Q1018,OIBK,2019-01-14T03:00:00Z,26.53,53.98,20.0,14.0,80,6,,3.73,30.059055,,,,,,,,,,,CLR,,,,,,,,MVFR,,,,,,,,,,,,METAR,30.0
OIAA 140300Z 13010KT 9999 FEW030CB SCT035 OVC080 19/14 Q1011,OIAA,2019-01-14T03:00:00Z,30.37,48.25,19.0,14.0,130,10,,6.21,29.852362,,,,,,,,,,,FEW,3000,SCT,3500,OVC,8000,,,VFR,,,,,,,,,,,,METAR,11.0
OIZI 140300Z 01008KT 8000 NSC 10/M08 Q1022,OIZI,2019-01-14T03:00:00Z,27.23,60.72,10.0,-8.0,10,8,,4.97,30.177166,,,,,,,,,,,CLR,,,,,,,,MVFR,,,,,,,,,,,,METAR,591.0
OIZB 140300Z 35004KT CAVOK M02/M17 Q1023,OIZB,2019-01-14T03:00:00Z,31.1,61.55,-2.0,-17.0,350,4,,6.21,30.206694,,,,,,,,,,,CAVOK,,,,,,,,VFR,,,,,,,,,,,,METAR,489.0
OING 140300Z 24016KT 9999 FEW040 OVC100 11/08 Q1006,OING,2019-01-14T03:00:00Z,36.9,54.4,11.0,8.0,240,16,,6.21,29.704725,,,,,,,,,,,FEW,4000,OVC,10000,,,,,VFR,,,,,,,,,,,,METAR,155.0
OIHR 140300Z 19019KT 7000 -RA SCT035 OVC070 06/03 Q1012,OIHR,2019-01-14T03:00:00Z,34.13,49.85,6.0,3.0,190,19,,4.35,29.88189,,,,,,,,,,-RA,SCT,3500,OVC,7000,,,,,MVFR,,,,,,,,,,,,METAR,1658.0
OIBS 140300Z 11016KT CAVOK 23/17 Q1017,OIBS,2019-01-14T03:00:00Z,25.9,54.55,23.0,17.0,110,16,,6.21,30.029528,,,,,,,,,,,CAVOK,,,,,,,,VFR,,,,,,,,,,,,METAR,14.0
OIBJ 140300Z 00000KT CAVOK 12/08 Q1020,OIBJ,2019-01-14T03:00:00Z,27.82,52.35,12.0,8.0,0,0,,6.21,30.11811,,,,,,,,,,,CAVOK,,,,,,,,VFR,,,,,,,,,,,,METAR,663.0
LFRK 140300Z AUTO 31012KT 9999 FEW022 SCT040 OVC050 09/07 Q1019,LFRK,2019-01-14T03:00:00Z,49.17,-0.45,9.0,7.0,310,12,,6.21,30.088583,,,TRUE,,,,,,,,FEW,2200,SCT,4000,OVC,5000,,,VFR,,,,,,,,,,,,METAR,67.0
LFRC 140300Z AUTO 32011KT 290V350 9999 BKN029 OVC037 09/03 Q1019,LFRC,2019-01-14T03:00:00Z,49.63,-1.47,9.0,3.0,320,11,,6.21,30.088583,,,TRUE,,,,,,,,BKN,2900,OVC,3700,,,,,MVFR,,,,,,,,,,,,METAR,138.0
LFPN 140300Z AUTO 33012KT 9999 FEW044 BKN052 OVC062 08/05 Q1015,LFPN,2019-01-14T03:00:00Z,48.75,2.12,8.0,5.0,330,12,,6.21,29.970472,,,TRUE,,,,,,,,FEW,4400,BKN,5200,OVC,6200,,,VFR,,,,,,,,,,,,METAR,164.0
LFJR 140300Z AUTO 27007KT 9999 FEW022 OVC036 09/08 Q1020,LFJR,2019-01-14T03:00:00Z,47.57,-0.3,9.0,8.0,270,7,,6.21,30.11811,,,TRUE,,,,,,,,FEW,2200,OVC,3600,,,,,VFR,,,,,,,,,,,,METAR,60.0
LFGA 140300Z AUTO 14003KT 110V180 9999 OVC027 07/03 Q1009,LFGA,2019-01-14T03:00:00Z,48.1,7.35,7.0,3.0,140,3,,6.21,29.793306,,,TRUE,,,,,,,,OVC,2700,,,,,,,MVFR,,,,,,,,,,,,METAR,191.0
LFBU 140300Z AUTO 30013KT 6000 OVC009 09/07 Q1022,LFBU,2019-01-14T03:00:00Z,45.72,0.22,9.0,7.0,300,13,,3.73,30.177166,,,TRUE,,,,,,,,OVC,900,,,,,,,IFR,,,,,,,,,,,,METAR,133.0
LFAT 140300Z AUTO 33022KT CAVOK 08/04 Q1015,LFAT,2019-01-14T03:00:00Z,50.52,1.62,8.0,4.0,330,22,,6.21,29.970472,,,TRUE,,,,,,,,CAVOK,,,,,,,,VFR,,,,,,,,,,,,METAR,14.0
LFAQ 140300Z AUTO 31013KT 9999 BKN038 OVC058 07/03 Q1014,LFAQ,2019-01-14T03:00:00Z,49.97,2.7,7.0,3.0,310,13,,6.21,29.940945,,,TRUE,,,,,,,,BKN,3800,OVC,5800,,,,,VFR,,,,,,,,,,,,METAR,111.0
LFSD 140300Z AUTO 29012KT 240V310 9999 SCT024 BKN031 BKN042 09/05 Q1013,LFSD,2019-01-14T03:00:00Z,47.27,5.07,9.0,5.0,290,12,,6.21,29.911417,,,TRUE,,,,,,,,SCT,2400,BKN,3100,BKN,4200,,,VFR,,,,,,,,,,,,METAR,227.0
LFRQ 140300Z AUTO 30011KT 9999 FEW009 09/08 Q1023,LFRQ,2019-01-14T03:00:00Z,47.97,-4.17,9.0,8.0,300,11,,6.21,30.206694,,,TRUE,,,,,,,,FEW,900,,,,,,,VFR,,,,,,,,,,,,METAR,94.0
LFRH 140300Z AUTO 30007KT 270V350 9999 FEW014 09/07 Q1022 BECMG OVC012,LFRH,2019-01-14T03:00:00Z,47.77,-3.45,9.0,7.0,300,7,,6.21,30.177166,,,TRUE,,,,,,,,FEW,1400,,,,,,,VFR,,,,,,,,,,,,METAR,44.0
LFPT 140300Z AUTO 33008KT CAVOK 08/04 Q1016,LFPT,2019-01-14T03:00:00Z,49.1,2.03,8.0,4.0,330,8,,6.21,30.0,,,TRUE,,,,,,,,CAVOK,,,,,,,,VFR,,,,,,,,,,,,METAR,99.0
LFPM 140300Z AUTO 32013KT 9999 FEW046/// SCT060/// ///TCU 08/06 Q1015,LFPM,2019-01-14T03:00:00Z,48.62,2.67,8.0,6.0,320,13,,6.21,29.970472,,,TRUE,,,,,,,,FEW,4600,SCT,6000,,,,,VFR,,,,,,,,,,,,METAR,92.0
LFLN 140300Z AUTO 29014KT 9999 -DZ OVC012 08/07 Q1015,LFLN,2019-01-14T03:00:00Z,46.42,4.02,8.0,7.0,290,14,,6.21,29.970472,,,TRUE,,,,,,,-DZ,OVC,1200,,,,,,,MVFR,,,,,,,,,,,,METAR,244.0
KC99 140300Z AUTO 20007KT 10SM CLR M10/M13 A3017 RMK AO2,KC99,2019-01-14T03:00:00Z,29.87,-105.55,-10.0,-13.0,200,7,,10.0,30.171259,,,TRUE,TRUE,,,,,,,CLR,,,,,,,,VFR,,,,,,,,,,,,METAR,3320.0
VAAU 140300Z 00000KT 2000 HZ NSC 17/11 Q1018 BECMG 3000 HZ,VAAU,2019-01-14T03:00:00Z,19.85,75.4,17.0,11.0,0,0,,1.24,30.059055,,,,,,,,,,HZ,CLR,,,,,,,,IFR,,,,,,,,,,,,METAR,579.0
SBUL 140300Z 27002KT 9999 TS FEW047 FEW050CB 21/18 Q1019,SBUL,2019-01-14T03:00:00Z,-18.87,-48.22,21.0,18.0,270,2,,6.21,30.088583,,,,,,,,,,TS,FEW,4700,FEW,5000,,,,,VFR,,,,,,,,,,,,METAR,922.0
SBSR 140300Z 18002KT CAVOK 28/19 Q1016,SBSR,2019-01-14T03:00:00Z,-20.8,-49.4,28.0,19.0,180,2,,6.21,30.0,,,,,,,,,,,CAVOK,,,,,,,,VFR,,,,,,,,,,,,METAR,543.0
SBSC 140300Z 32003KT CAVOK 26/23 Q1014,SBSC,2019-01-14T03:00:00Z,-22.92,-43.72,26.0,23.0,320,3,,6.21,29.940945,,,,,,,,,,,CAVOK,,,,,,,,VFR,,,,,,,,,,,,METAR,3.0
SBMK 140300Z 00000KT CAVOK 23/14 Q1017,SBMK,2019-01-14T03:00:00Z,-16.7,-43.82,23.0,14.0,0,0,,6.21,30.029528,,,,,,,,,,,CAVOK,,,,,,,,VFR,,,,,,,,,,,,METAR,646.0
SBDN 140300Z 13005KT CAVOK 26/20 Q1016,SBDN,2019-01-14T03:00:00Z,-22.18,-51.43,26.0,20.0,130,5,,6.21,30.0,,,,,,,,,,,CAVOK,,,,,,,,VFR,,,,,,,,,,,,METAR,435.0
SBBH 140300Z 11006KT CAVOK 22/15 Q1019,SBBH,2019-01-14T03:00:00Z,-19.85,-43.95,22.0,15.0,110,6,,6.21,30.088583,,,,,,,,,,,CAVOK,,,,,,,,VFR,,,,,,,,,,,,METAR,785.0
SBQV 140300Z 13011KT 9999 BKN015 20/17 Q1020,SBQV,2019-01-14T03:00:00Z,-14.87,-40.87,20.0,17.0,130,11,,6.21,30.11811,,,,,,,,,,,BKN,1500,,,,,,,MVFR,,,,,,,,,,,,METAR,893.0
SBKG 140300Z 09006KT 9999 SCT013 23/21 Q1016,SBKG,2019-01-14T03:00:00Z,-7.27,-35.87,23.0,21.0,90,6,,6.21,30.0,,,,,,,,,,,SCT,1300,,,,,,,VFR,,,,,,,,,,,,METAR,560.0
SBIL 140300Z 10008KT 9999 SCT025 27/23 Q1015,SBIL,2019-01-14T03:00:00Z,-14.8,-39.02,27.0,23.0,100,8,,6.21,29.970472,,,,,,,,,,,SCT,2500,,,,,,,VFR,,,,,,,,,,,,METAR,5.0
SBCH 140300Z 10005KT 9999 -TSRA FEW004 BKN025 FEW040CB OVC080 21/21 Q1018,SBCH,2019-01-14T03:00:00Z,-27.13,-52.67,21.0,21.0,100,5,,6.21,30.059055,,,,,,,,,,-TSRA,FEW,400,BKN,2500,FEW,4000,OVC,8000,MVFR,,,,,,,,,,,,METAR,650.0
SBIZ 140300Z 03004KT 9999 SCT012 25/24 Q1013,SBIZ,2019-01-14T03:00:00Z,-5.52,-47.45,25.0,24.0,30,4,,6.21,29.911417,,,,,,,,,,,SCT,1200,,,,,,,VFR,,,,,,,,,,,,METAR,123.0
FCPP 140300Z 21004KT 8000 FEW010 SCT023 FEW030CB 27/25 Q1011 TEMPO TS,FCPP,2019-01-14T03:00:00Z,-4.82,11.9,27.0,25.0,210,4,,4.97,29.852362,,,,,,,,,,,FEW,1000,SCT,2300,FEW,3000,,,MVFR,,,,,,,,,,,,METAR,17.0
FKYS 140300Z /////KT 6000 SCT006 22/21 Q1017 BECMG 4000 BR,FKYS,2019-01-14T03:00:00Z,3.82,11.52,22.0,21.0,,,,3.73,30.029528,,,,,,,,,,,SCT,600,,,,,,,MVFR,,,,,,,,,,,,METAR,760.0
FKKD 140300Z 12002KT 8000 BKN013 FEW016CB 26/25 Q1011 BECMG SCT013 FEW016CB,FKKD,2019-01-14T03:00:00Z,4.0,9.72,26.0,25.0,120,2,,4.97,29.852362,,,,,,,,,,,BKN,1300,FEW,1600,,,,,MVFR,,,,,,,,,,,,METAR,9.0
FEFF 140300Z VRB02KT CAVOK 25/23 Q1011 NOSIG,FEFF,2019-01-14T03:00:00Z,4.4,18.52,25.0,23.0,0,2,,6.21,29.852362,,,,,,TRUE,,,,,CAVOK,,,,,,,,VFR,,,,,,,,,,,,METAR,366.0
FCBB 140300Z VRB01KT 8000 FEW010 BKN018 23/22 Q1012 NOSIG,FCBB,2019-01-14T03:00:00Z,-4.25,15.25,23.0,22.0,0,1,,4.97,29.88189,,,,,,TRUE,,,,,FEW,1000,BKN,1800,,,,,MVFR,,,,,,,,,,,,METAR,316.0
FGBT 140300Z 00000KT 9999 FEW010 ///// Q1011,FGBT,2019-01-14T03:00:00Z,1.88,9.8,,,0,0,,6.21,29.852362,,,,,,,,,,,FEW,1000,,,,,,,VFR,,,,,,,,,,,,METAR,8.0
FGSL 140300Z 24006KT 9999 SCT012 26/24 Q1012 NOSIG,FGSL,2019-01-14T03:00:00Z,3.75,8.72,26.0,24.0,240,6,,6.21,29.88189,,,,,,TRUE,,,,,SCT,1200,,,,,,,VFR,,,,,,,,,,,,METAR,56.0
SBAN 140300Z 12007KT CAVOK 18/15 Q1019,SBAN,2019-01-14T03:00:00Z,-16.22,-48.97,18.0,15.0,120,7,,6.21,30.088583,,,,,,,,,,,CAVOK,,,,,,,,VFR,,,,,,,,,,,,METAR,1137.0
FQNP 140300Z /////KT 9999 BKN020 BKN100 23/22 Q1013,FQNP,2019-01-14T03:00:00Z,-15.08,39.27,23.0,22.0,,,,6.21,29.911417,,,,,,,,,,,BKN,2000,BKN,10000,,,,,MVFR,,,,,,,,,,,,SPECI,441.0
FAPP 140300Z 19003KT 9999 TS FEW030CB SCT080 23/18 Q1017,FAPP,2019-01-14T03:00:00Z,-23.83,29.45,23.0,18.0,190,3,,6.21,30.029528,,,,,,,,,,TS,FEW,3000,SCT,8000,,,,,VFR,,,,,,,,,,,,METAR,1242.0
FAPN 140300Z AUTO 02005KT //// // ////// ///// Q1015,FAPN,2019-01-14T03:00:00Z,-25.33,27.17,,,20,5,,,29.970472,,,TRUE,,,,,,,,,,,,,,,,,,,,,,,,,,,,METAR,1039.0
GOOD 140300Z 00000KT 8000 NSC 22/10 Q1012,GOOD,2019-01-14T03:00:00Z,14.65,-16.22,22.0,10.0,0,0,,4.97,29.88189,,,,,,,,,,,CLR,,,,,,,,MVFR,,,,,,,,,,,,METAR,9.0
YBPN 140300Z AUTO 11019KT 9999 // SCT020 SCT030 BKN055 28/23 Q1011,YBPN,2019-01-14T03:00:00Z,-20.5,148.55,28.0,23.0,110,19,,6.21,29.852362,,,TRUE,,,,,,,,SCT,2000,SCT,3000,BKN,5500,,,VFR,,,,,,,,,,,,METAR,25.0
YBOK 140300Z 10014KT CAVOK 32/13 Q1016 NOSIG,YBOK,2019-01-14T03:00:00Z,-27.42,151.72,32.0,13.0,100,14,,6.21,30.0,,,,,,TRUE,,,,,CAVOK,,,,,,,,VFR,,,,,,,,,,,,METAR,407.0
YBNA 140300Z AUTO 13010KT 090V160 9999 // SCT034 29/24 Q1017,YBNA,2019-01-14T03:00:00Z,-28.83,153.57,29.0,24.0,130,10,,6.21,30.029528,,,TRUE,,,,,,,,SCT,3400,,,,,,,VFR,,,,,,,,,,,,METAR,2.0
YBHI 140300Z AUTO 35013G24KT 9999 // NCD 42/04 Q1010,YBHI,2019-01-14T03:00:00Z,-32.0,141.47,42.0,4.0,350,13,24,6.21,29.822834,,,TRUE,,,,,,,,CLR,,,,,,,,VFR,,,,,,,,,,,,METAR,292.0
YESP 140300Z AUTO 18011KT 9999 // BKN020 OVC025 20/14 Q1015,YESP,2019-01-14T03:00:00Z,-33.68,121.82,20.0,14.0,180,11,,6.21,29.970472,,,TRUE,,,,,,,,BKN,2000,OVC,2500,,,,,MVFR,,,,,,,,,,,,METAR,143.0
YEML 140300Z AUTO 07011KT 9999 // NCD 33/14 Q1012,YEML,2019-01-14T03:00:00Z,-23.57,148.18,33.0,14.0,70,11,,6.21,29.88189,,,TRUE,,,,,,,,CLR,,,,,,,,VFR,,,,,,,,,,,,METAR,190.0
YDBY 140300Z AUTO 01003KT //// // NCD 32/24 Q1005,YDBY,2019-01-14T03:00:00Z,-17.37,123.67,32.0,24.0,10,3,,,29.675198,,,TRUE,,,,,,,,CLR,,,,,,,,,,,,,,,,,,,,METAR,7.0
YCOM 140300Z AUTO 29014G24KT 9999 // NCD 33/10 Q1016,YCOM,2019-01-14T03:00:00Z,-36.3,148.97,33.0,10.0,290,14,24,6.21,30.0,,,TRUE,,,,,,,,CLR,,,,,,,,VFR,,,,,,,,,,,,METAR,941.0
YCNM 140300Z AUTO 35011KT //// // ////// 36/08 Q1014,YCNM,2019-01-14T03:00:00Z,-30.98,148.38,36.0,8.0,350,11,,,29.940945,,,TRUE,,,,,,,,,,,,,,,,,,,,,,,,,,,,METAR,184.0
YCDU 140300Z AUTO 20012KT 9999 // NCD 30/15 Q1010,YCDU,2019-01-14T03:00:00Z,-32.12,133.7,30.0,15.0,200,12,,6.21,29.822834,,,TRUE,,,,,,,,CLR,,,,,,,,VFR,,,,,,,,,,,,METAR,15.0
YPBO 140300Z AUTO 07013KT 9999 // NCD 41/13 Q1007,YPBO,2019-01-14T03:00:00Z,-23.2,117.75,41.0,13.0,70,13,,6.21,29.734253,,,TRUE,,,,,,,,CLR,,,,,,,,VFR,,,,,,,,,,,,METAR,1292.0
YOLD 140300Z AUTO 33007KT 9999 // NCD 44/01 Q1007,YOLD,2019-01-14T03:00:00Z,-30.48,136.88,44.0,1.0,330,7,,6.21,29.734253,,,TRUE,,,,,,,,CLR,,,,,,,,VFR,,,,,,,,,,,,METAR,105.0
YNWN 140300Z AUTO 02010KT 9999 // NCD 39/12 Q1009,YNWN,2019-01-14T03:00:00Z,-23.42,119.8,39.0,12.0,20,10,,6.21,29.793306,,,TRUE,,,,,,,,CLR,,,,,,,,VFR,,,,,,,,,,,,METAR,525.0
YNTN 140300Z AUTO 10005KT 070V140 9999 // BKN059 BKN070 34/20 Q1007,YNTN,2019-01-14T03:00:00Z,-17.68,141.07,34.0,20.0,100,5,,6.21,29.734253,,,TRUE,,,,,,,,BKN,5900,BKN,7000,,,,,VFR,,,,,,,,,,,,METAR,22.0
YNBR 140300Z AUTO 25010KT 9999 // NCD 37/07 Q1015,YNBR,2019-01-14T03:00:00Z,-30.32,149.83,37.0,7.0,250,10,,6.21,29.970472,,,TRUE,,,,,,,,CLR,,,,,,,,VFR,,,,,,,,,,,,METAR,240.0
YNAR 140300Z AUTO 32012KT //// // ////// 42/10 Q1010,YNAR,2019-01-14T03:00:00Z,-34.7,146.52,42.0,10.0,320,12,,,29.822834,,,TRUE,,,,,,,,,,,,,,,,,,,,,,,,,,,,METAR,145.0
YRMD 140300Z AUTO 07008KT 050V120 9999 // ////// 36/13 Q1008,YRMD,2019-01-14T03:00:00Z,-20.7,143.12,36.0,13.0,70,8,,6.21,29.763779,,,TRUE,,,,,,,,,,,,,,,,,,,,,,,,,,,,METAR,207.0
YLIS 140300Z AUTO 14010KT 070V140 9999 // SCT049 30/19 Q1016,YLIS,2019-01-14T03:00:00Z,-28.83,153.27,30.0,19.0,140,10,,6.21,30.0,,,TRUE,,,,,,,,SCT,4900,,,,,,,VFR,,,,,,,,,,,,METAR,11.0
YKRY 140300Z AUTO 09010KT 9999 // SCT051 30/14 Q1017,YKRY,2019-01-14T03:00:00Z,-26.57,151.83,30.0,14.0,90,10,,6.21,30.029528,,,TRUE,,,,,,,,SCT,5100,,,,,,,VFR,,,,,,,,,,,,METAR,434.0
YHUG 140300Z AUTO 08011KT 9999 // ////// 36/14 Q1009,YHUG,2019-01-14T03:00:00Z,-20.82,144.23,36.0,14.0,80,11,,6.21,29.793306,,,TRUE,,,,,,,,,,,,,,,,,,,,,,,,,,,,METAR,318.0
YGTE 140300Z AUTO 10007KT 9999 // SCT037 SCT057 BKN072 32/24 Q1006,YGTE,2019-01-14T03:00:00Z,-13.97,136.45,32.0,24.0,100,7,,6.21,29.704725,,,TRUE,,,,,,,,SCT,3700,SCT,5700,BKN,7200,,,VFR,,,,,,,,,,,,METAR,14.0
YGFN 140300Z AUTO 06007KT 9999 // SCT050 30/16 Q1016,YGFN,2019-01-14T03:00:00Z,-29.77,153.03,30.0,16.0,60,7,,6.21,30.0,,,TRUE,,,,,,,,SCT,5000,,,,,,,VFR,,,,,,,,,,,,METAR,34.0
FMMS 140300Z 24004KT 5000 -RA BKN017CB OVC250 25/24 Q1015,FMMS,2019-01-14T03:00:00Z,-17.07,49.82,25.0,24.0,240,4,,3.11,29.970472,,,,,,,,,,-RA,BKN,1700,OVC,25000,,,,,MVFR,,,,,,,,,,,,METAR,3.0
VVNB 140300Z 12006KT 1900 BR BKN008 21/21 Q1017 BECMG TL0330 3100 BR,VVNB,2019-01-14T03:00:00Z,21.22,105.8,21.0,21.0,120,6,,1.18,30.029528,,,,,,,,,,BR,BKN,800,,,,,,,IFR,,,,,,,,,,,,SPECI,12.0
VVCI 140300Z 08005KT 040V130 5000 BR BKN010 OVC026 22/20 Q1017 NOSIG,VVCI,2019-01-14T03:00:00Z,20.82,106.73,22.0,20.0,80,5,,3.11,30.029528,,,,,,TRUE,,,,BR,BKN,1000,OVC,2600,,,,,MVFR,,,,,,,,,,,,METAR,3.0
FQTT 140300Z 00000KT 9999 BKN020 25/25 Q1009,FQTT,2019-01-14T03:00:00Z,-16.1,33.62,25.0,25.0,0,0,,6.21,29.793306,,,,,,,,,,,BKN,2000,,,,,,,MVFR,,,,,,,,,,,,METAR,160.0
FQCH 140300Z 00000KT 9999 SCT015 FEW020CB 24/23 Q1014 RMK CB TO SW,FQCH,2019-01-14T03:00:00Z,-19.15,33.43,24.0,23.0,0,0,,6.21,29.940945,,,,,,,,,,,SCT,1500,FEW,2000,,,,,VFR,,,,,,,,,,,,SPECI,732.0
CWDQ 140300Z AUTO 00000KT M18/M20 RMK AO1 SOG 47 6010 SLP319 T11841200,CWDQ,2019-01-14T03:00:00Z,47.42,-72.78,-18.4,-20.0,0,0,,,,1031.9,,TRUE,TRUE,,,,,,,,,,,,,,,,,,,,,,,,,,,METAR,169.0
CWEZ 140300Z AUTO 31002KT RMK AO1 56003,CWEZ,2019-01-14T03:00:00Z,48.78,-123.05,,,310,2,,,,,,TRUE,TRUE,,,,,,,,,,,,,,,,-0.3,,,,,,,,,,,METAR,7.0
CWRA 140300Z AUTO 26015KT RMK AO1 PK WND 26026/0218 51002,CWRA,2019-01-14T03:00:00Z,46.63,-53.07,,,260,15,,,,,,TRUE,TRUE,,,,,,,,,,,,,,,,0.2,,,,,,,,,,,METAR,28.0
CWDO 140300Z AUTO 26014G21KT M07/M10 RMK AO1 SOG 02 3009 PK WND 27025/0206 SLP156 T10671096,CWDO,2019-01-14T03:00:00Z,49.67,-54.78,-6.7,-9.6,260,14,21,,,1015.6,,TRUE,TRUE,,,,,,,,,,,,,,,,,,,,,,,,,,,METAR,92.0
CWDM 140300Z AUTO 33008KT M14/M18 RMK AO1 SOG 23 3011 SLP194 T11401183,CWDM,2019-01-14T03:00:00Z,50.47,-59.62,-14.0,-18.3,330,8,,,,1019.4,,TRUE,TRUE,,,,,,,,,,,,,,,,,,,,,,,,,,,METAR,6.0
CXSE 140300Z AUTO 28012KT M37/M41 RMK AO1 SOG 44 6009 SLP343 T13701411,CXSE,2019-01-14T03:00:00Z,73.77,-105.28,-37.0,-41.1,280,12,,,,1034.3,,TRUE,TRUE,,,,,,,,,,,,,,,,,,,,,,,,,,,METAR,11.0
CXDK 140300Z AUTO 12002KT M22/M24 RMK AO1 SOG 34 7023 SLP252 T12151242,CXDK,2019-01-14T03:00:00Z,61.27,-124.47,-21.5,-24.2,120,2,,,,1025.2,,TRUE,TRUE,,,,,,,,,,,,,,,,,,,,,,,,,,,METAR,283.0
CWWS 140300Z AUTO 01014KT M09/M10 RMK AO1 SOG 37 3010 PK WND 01020/0216 SLP268 T10891103 50001,CWWS,2019-01-14T03:00:00Z,52.82,-97.62,-8.9,-10.3,10,14,,,,1026.8,,TRUE,TRUE,,,,,,,,,,,,,,,,0.1,,,,,,,,,,,METAR,223.0
CWTT 140300Z AUTO 35001KT M22/M24 RMK AO1 T12151235,CWTT,2019-01-14T03:00:00Z,45.27,-72.17,-21.5,-23.5,350,1,,,,,,TRUE,TRUE,,,,,,,,,,,,,,,,,,,,,,,,,,,METAR,209.0
CXNP 140300Z AUTO 28004KT M12/M15 RMK AO1 SOG 09 3002 SLP282 T11191149,CXNP,2019-01-14T03:00:00Z,45.75,-64.23,-11.9,-14.9,280,4,,,,1028.2,,TRUE,TRUE,,,,,,,,,,,,,,,,,,,,,,,,,,,METAR,20.0
CAHR 140300Z AUTO 26004KT M13/M15 RMK AO1 SOG 37 6002 SLP266 T11301153,CAHR,2019-01-14T03:00:00Z,46.35,-63.17,-13.0,-15.3,260,4,,,,1026.6,,TRUE,TRUE,,,,,,,,,,,,,,,,,,,,,,,,,,,METAR,53.0
DAAE 140300Z 24009KT CAVOK 07/04 Q1021,DAAE,2019-01-14T03:00:00Z,36.72,5.07,7.0,4.0,240,9,,6.21,30.147638,,,,,,,,,,,CAVOK,,,,,,,,VFR,,,,,,,,,,,,METAR,2.0
UTST 140300Z 03006KT CAVOK 01/M05 Q1020 R88/CLRD70 NOSIG,UTST,2019-01-14T03:00:00Z,37.28,67.32,1.0,-5.0,30,6,,6.21,30.11811,,,,,,TRUE,,,,,CAVOK,,,,,,,,VFR,,,,,,,,,,,,SPECI,302.0
GLRB 140300Z 00000KT 6000 BR FEW006 SCT011 24/23 Q1012,GLRB,2019-01-14T03:00:00Z,6.25,-10.33,24.0,23.0,0,0,,3.73,29.88189,,,,,,,,,,BR,FEW,600,SCT,1100,,,,,MVFR,,,,,,,,,,,,METAR,18.0
LYTV 140300Z VRB01KT 9999 SCT033 04/02 Q1004,LYTV,2019-01-14T03:00:00Z,42.38,18.72,4.0,2.0,0,1,,6.21,29.64567,,,,,,,,,,,SCT,3300,,,,,,,VFR,,,,,,,,,,,,METAR,5.0
VOBM 140300Z 00000KT 4000 BR NSC 16/13 Q1019,VOBM,2019-01-14T03:00:00Z,15.85,74.62,16.0,13.0,0,0,,2.49,30.088583,,,,,,,,,,BR,CLR,,,,,,,,IFR,,,,,,,,,,,,METAR,758.0
VEBN 140300Z 24006KT 0800 MIFG NSC 13/10 Q1018 NOSIG,VEBN,2019-01-14T03:00:00Z,25.45,82.85,13.0,10.0,240,6,,0.5,30.059055,,,,,,TRUE,,,,MIFG,CLR,,,,,,,,LIFR,,,,,,,,,,,,METAR,83.0
CYAH 140300Z AUTO 21012G23KT 1SM -SN VV012 M16/M18 A2990 RMK SLP159,CYAH,2019-01-14T03:00:00Z,53.75,-73.67,-16.0,-18.0,210,12,23,1.0,29.899607,1015.9,,TRUE,,,,,,,-SN,OVX,0,,,,,,,LIFR,,,,,,,,,,,1200,SPECI,306.0
HUEN 140300Z 36002KT 9999 FEW020 FEW022CB BKN100 20/20 Q1015,HUEN,2019-01-14T03:00:00Z,0.03,32.45,20.0,20.0,360,2,,6.21,29.970472,,,,,,,,,,,FEW,2000,FEW,2200,BKN,10000,,,VFR,,,,,,,,,,,,METAR,1155.0
HRYR 140300Z 08003KT 060V160 9999 SCT026 SCT100 18/15 Q1019 NOSIG,HRYR,2019-01-14T03:00:00Z,-1.97,30.12,18.0,15.0,80,3,,6.21,30.088583,,,,,,TRUE,,,,,SCT,2600,SCT,10000,,,,,VFR,,,,,,,,,,,,METAR,1497.0
HKJK 140300Z 36004KT CAVOK 15/12 Q1021 NOSIG,HKJK,2019-01-14T03:00:00Z,-1.32,36.92,15.0,12.0,360,4,,6.21,30.147638,,,,,,TRUE,,,,,CAVOK,,,,,,,,VFR,,,,,,,,,,,,METAR,1624.0
WBKT 140300Z 07006KT 350V140 9999 SCT013 SCT140 BKN270 28/25 Q1010,WBKT,2019-01-14T03:00:00Z,6.92,116.82,28.0,25.0,70,6,,6.21,29.822834,,,,,,,,,,,SCT,1300,SCT,14000,BKN,27000,,,VFR,,,,,,,,,,,,METAR,5.0
OISL 140300Z 00000KT CAVOK 10/02 Q1018,OISL,2019-01-14T03:00:00Z,27.67,54.37,10.0,2.0,0,0,,6.21,30.059055,,,,,,,,,,,CAVOK,,,,,,,,VFR,,,,,,,,,,,,METAR,805.0
OIMT 140300Z AUTO 03002KT //// // ////// 06/M08 Q1014,OIMT,2019-01-14T03:00:00Z,33.67,56.92,6.0,-8.0,30,2,,,29.940945,,,TRUE,,,,,,,,,,,,,,,,,,,,,,,,,,,,METAR,711.0
ORER 140300Z VRB02KT 8000 BKN030 09/07 Q1010,ORER,2019-01-14T03:00:00Z,36.23,43.97,9.0,7.0,0,2,,4.97,29.822834,,,,,,,,,,,BKN,3000,,,,,,,MVFR,,,,,,,,,,,,METAR,409.0
ORNI 140300Z 18012KT 7000 BKN040 15/11 Q1008,ORNI,2019-01-14T03:00:00Z,31.98,44.4,15.0,11.0,180,12,,4.35,29.763779,,,,,,,,,,,BKN,4000,,,,,,,MVFR,,,,,,,,,,,,METAR,53.0
ORMM 140300Z 13016KT 9999 FEW040 OVC100 19/14 Q1012 NOSIG,ORMM,2019-01-14T03:00:00Z,30.57,47.67,19.0,14.0,130,16,,6.21,29.88189,,,,,,TRUE,,,,,FEW,4000,OVC,10000,,,,,VFR,,,,,,,,,,,,METAR,2.0
GOGK 140300Z 00000KT 8000 NSC 19/15 Q1012,GOGK,2019-01-14T03:00:00Z,12.9,-14.97,19.0,15.0,0,0,,4.97,29.88189,,,,,,,,,,,CLR,,,,,,,,MVFR,,,,,,,,,,,,METAR,10.0
GOSM 140300Z 14002KT CAVOK 21/02 Q1013,GOSM,2019-01-14T03:00:00Z,15.6,-13.33,21.0,2.0,140,2,,6.21,29.911417,,,,,,,,,,,CAVOK,,,,,,,,VFR,,,,,,,,,,,,METAR,17.0
GOOG 140300Z 04004KT 8000 NSC 20/03 Q////,GOOG,2019-01-14T03:00:00Z,15.4,-15.08,20.0,3.0,40,4,,4.97,,,,,,,,,,,,CLR,,,,,,,,MVFR,,,,,,,,,,,,METAR,21.0
GOSP 140300Z 04002KT CAVOK 21/02 Q1013,GOSP,2019-01-14T03:00:00Z,16.68,-14.97,21.0,2.0,40,2,,6.21,29.911417,,,,,,,,,,,CAVOK,,,,,,,,VFR,,,,,,,,,,,,METAR,7.0
FMNN 140300Z 00000KT 9999 FEW020 BKN233 25/25 Q1012,FMNN,2019-01-14T03:00:00Z,-13.32,48.32,25.0,25.0,0,0,,6.21,29.88189,,,,,,,,,,,FEW,2000,BKN,23300,,,,,VFR,,,,,,,,,,,,METAR,9.0
FMNA 140300Z 16008KT 9999 BKN020 25/23 Q1012,FMNA,2019-01-14T03:00:00Z,-12.33,49.28,25.0,23.0,160,8,,6.21,29.88189,,,,,,,,,,,BKN,2000,,,,,,,MVFR,,,,,,,,,,,,METAR,105.0
UTTT 140300Z 07010KT CAVOK 04/M11 Q1015 R08R/CLRD70 NOSIG,UTTT,2019-01-14T03:00:00Z,41.27,69.27,4.0,-11.0,70,10,,6.21,29.970472,,,,,,TRUE,,,,,CAVOK,,,,,,,,VFR,,,,,,,,,,,,METAR,489.0
UTFF 140300Z 17005KT 9999 NSC M04/M08 Q1022 R18/CLRD70,UTFF,2019-01-14T03:00:00Z,40.37,71.77,-4.0,-8.0,170,5,,6.21,30.177166,,,,,,,,,,,CLR,,,,,,,,VFR,,,,,,,,,,,,METAR,577.0
UTSS 140300Z 17010KT 9999 NSC 07/M12 Q1014 R09/70D NOSIG,UTSS,2019-01-14T03:00:00Z,39.7,66.98,7.0,-12.0,170,10,,6.21,29.940945,,,,,,TRUE,,,,,CLR,,,,,,,,VFR,,,,,,,,,,,,METAR,724.0
UTSK 140300Z 12008KT CAVOK 07/M07 Q1013 R16/CLRD70,UTSK,2019-01-14T03:00:00Z,38.83,65.77,7.0,-7.0,120,8,,6.21,29.911417,,,,,,,,,,,CAVOK,,,,,,,,VFR,,,,,,,,,,,,SPECI,1365.0
UTSB 140300Z 14010KT CAVOK 05/M06 Q1011 R19/CLRD70 NOSIG,UTSB,2019-01-14T03:00:00Z,39.77,64.48,5.0,-6.0,140,10,,6.21,29.852362,,,,,,TRUE,,,,,CAVOK,,,,,,,,VFR,,,,,,,,,,,,SPECI,226.0
UTSA 140300Z 13008KT 9999 NSC 03/M05 Q1012 R07/CLRD70 NOSIG,UTSA,2019-01-14T03:00:00Z,40.12,65.17,3.0,-5.0,130,8,,6.21,29.88189,,,,,,TRUE,,,,,CLR,,,,,,,,VFR,,,,,,,,,,,,SPECI,346.0
EIDW 140300Z 27012KT 9999 -DZ FEW016 BKN030 07/03 Q1021 NOSIG,EIDW,2019-01-14T03:00:00Z,53.42,-6.25,7.0,3.0,270,12,,6.21,30.147638,,,,,,TRUE,,,,-DZ,FEW,1600,BKN,3000,,,,,MVFR,,,,,,,,,,,,METAR,85.0
EINN 140300Z 28008KT 9999 FEW015 BKN034 09/03 Q1025 NOSIG,EINN,2019-01-14T03:00:00Z,52.7,-8.92,9.0,3.0,280,8,,6.21,30.265747,,,,,,TRUE,,,,,FEW,1500,BKN,3400,,,,,VFR,,,,,,,,,,,,METAR,20.0
EICK 140300Z 32013KT 9999 FEW017 BKN023 08/04 Q1024 NOSIG,EICK,2019-01-14T03:00:00Z,51.85,-8.47,8.0,4.0,320,13,,6.21,30.236221,,,,,,TRUE,,,,,FEW,1700,BKN,2300,,,,,MVFR,,,,,,,,,,,,METAR,162.0
TLPL 140300Z 05007KT 9999 FEW024 23/20 Q1017 NOSIG,TLPL,2019-01-14T03:00:00Z,13.75,-60.95,23.0,20.0,50,7,,6.21,30.029528,,,,,,TRUE,,,,,FEW,2400,,,,,,,VFR,,,,,,,,,,,,METAR,3.0
LZPP 140300Z AUTO 31008KT 280V340 9999 FEW040/// SCT063/// BKN080/// 04/01 Q0992,LZPP,2019-01-14T03:00:00Z,48.62,17.83,4.0,1.0,310,8,,6.21,29.291338,,,TRUE,,,,,,,,FEW,4000,SCT,6300,BKN,8000,,,VFR,,,,,,,,,,,,METAR,161.0
LZSL 140300Z 32003KT 280V010 9999 -RA FEW005 SCT010 OVC030 01/M00 Q0990,LZSL,2019-01-14T03:00:00Z,48.63,19.13,1.0,0.0,320,3,,6.21,29.232283,,,,,,,,,,-RA,FEW,500,SCT,1000,OVC,3000,,,MVFR,,,,,,,,,,,,METAR,313.0
LZZI 140300Z 29006KT 9999 FEW014 BKN024 01/00 Q0989,LZZI,2019-01-14T03:00:00Z,49.23,18.62,1.0,0.0,290,6,,6.21,29.202755,,,,,,,,,,,FEW,1400,BKN,2400,,,,,MVFR,,,,,,,,,,,,METAR,311.0
LQBK 140300Z 22003KT 9999 -RA BKN040 07/02 Q0997 NOSIG,LQBK,2019-01-14T03:00:00Z,44.93,17.3,7.0,2.0,220,3,,6.21,29.438976,,,,,,TRUE,,,,-RA,BKN,4000,,,,,,,VFR,,,,,,,,,,,,METAR,122.0
LQMO 140300Z 33003KT 280V360 3000 -RASN BR FEW005 BKN035 M00/M01 Q1003,LQMO,2019-01-14T03:00:00Z,43.28,17.83,0.0,-1.0,330,3,,1.86,29.616142,,,,,,,,,,-RA -SN BR,FEW,500,BKN,3500,,,,,IFR,,,,,,,,,,,,METAR,48.0
LQSA 140300Z VRB02KT 0800 R12/1300N -SN FZFG SCT005 BKN015 BKN030 M06/M06 Q1000,LQSA,2019-01-14T03:00:00Z,43.82,18.32,-6.0,-6.0,0,2,,0.5,29.52756,,,,,,,,,,-SN FZFG,SCT,500,BKN,1500,BKN,3000,,,LIFR,,,,,,,,,,,,METAR,511.0
LQTZ 140300Z VRB02KT 4000 -FZRA BR BKN030 M03/M03 Q0998,LQTZ,2019-01-14T03:00:00Z,44.47,18.73,-3.0,-3.0,0,2,,2.49,29.468504,,,,,,,,,,-FZRA BR,BKN,3000,,,,,,,IFR,,,,,,,,,,,,METAR,306.0
SCVM 140300Z 36004KT CAVOK 15/13 Q1017,SCVM,2019-01-14T03:00:00Z,-32.95,-71.48,15.0,13.0,360,4,,6.21,30.029528,,,,,,,,,,,CAVOK,,,,,,,,VFR,,,,,,,,,,,,METAR,141.0
SBAR 140300Z 11009KT 9999 SCT018 SCT070 27/22 Q1014,SBAR,2019-01-14T03:00:00Z,-10.97,-37.07,27.0,22.0,110,9,,6.21,29.940945,,,,,,,,,,,SCT,1800,SCT,7000,,,,,VFR,,,,,,,,,,,,METAR,9.0
OJAM 140300Z 24022G33KT 3000 SQ SCT030 BKN040 SCT060TCU 07/02 Q1009 NOSIG,OJAM,2019-01-14T03:00:00Z,31.97,35.97,7.0,2.0,240,22,33,1.86,29.793306,,,,,,TRUE,,,,SQ,SCT,3000,BKN,4000,SCT,6000,,,IFR,,,,,,,,,,,,METAR,773.0
LEMO 140300Z 11003KT CAVOK M00/M03 Q1025 NOSIG,LEMO,2019-01-14T03:00:00Z,37.17,-5.62,0.0,-3.0,110,3,,6.21,30.265747,,,,,,TRUE,,,,,CAVOK,,,,,,,,VFR,,,,,,,,,,,,METAR,88.0
SBMN 140300Z 35008KT 6000 -RA SCT010 FEW020TCU BKN080 23/22 Q10 15,SBMN,2019-01-14T03:00:00Z,-3.13,-59.97,23.0,22.0,350,8,,3.73,,,,,,,,,,,-RA,SCT,1000,FEW,2000,BKN,8000,,,MVFR,,,,,,,,,,,,METAR,84.0
SBSJ 140300Z 20003KT 8000 SCT030 21/20 Q1018,SBSJ,2019-01-14T03:00:00Z,-23.22,-45.87,21.0,20.0,200,3,,4.97,30.059055,,,,,,,,,,,SCT,3000,,,,,,,MVFR,,,,,,,,,,,,METAR,646.0
OSLK 140300Z 06010KT 7000-SHRA FEW026CB SCT030 BKN100 09/07 Q1006,OSLK,2019-01-14T03:00:00Z,35.4,35.95,9.0,7.0,60,10,,,29.704725,,,,,,,,,,-SHRA,FEW,2600,SCT,3000,BKN,10000,,,,,,,,,,,,,,,METAR,48.0
OSDI 140300Z 21014KT 9999 FEW030 SCT100 06/04 Q1008,OSDI,2019-01-14T03:00:00Z,33.42,36.52,6.0,4.0,210,14,,6.21,29.763779,,,,,,,,,,,FEW,3000,SCT,10000,,,,,VFR,,,,,,,,,,,,METAR,605.0
GVNP 140300Z 02008KT 9999 FEW015 SCT100 21/17 Q1016 NOSIG,GVNP,2019-01-14T03:00:00Z,14.95,-23.48,21.0,17.0,20,8,,6.21,30.0,,,,,,TRUE,,,,,FEW,1500,SCT,10000,,,,,VFR,,,,,,,,,,,,METAR,70.0
UBBL 140300Z 00000KT 8000 BKN021 04/02 Q1009 R33/CLRD// NOSIG RMK MT OBSC ,UBBL,2019-01-14T03:00:00Z,38.75,48.82,4.0,2.0,0,0,,4.97,29.793306,,,,,,TRUE,,,,,BKN,2100,,,,,,,MVFR,,,,,,,,,,,,METAR,10.0
OSKL 140300Z 05014KT 3500BR SCT026 OVC100 06/04 Q1007,OSKL,2019-01-14T03:00:00Z,37.03,41.2,6.0,4.0,50,14,,,29.734253,,,,,,,,,,BR,SCT,2600,OVC,10000,,,,,,,,,,,,,,,,,SPECI,455.0
NFTF 140300Z 09009KT 9999 SCT016 BKN100 29/24 Q1007,NFTF,2019-01-14T03:00:00Z,-21.23,-175.15,29.0,24.0,90,9,,6.21,29.734253,,,,,,,,,,,SCT,1600,BKN,10000,,,,,VFR,,,,,,,,,,,,METAR,38.0
NFTL 140300Z 09007KT 9999 FEW020 29/25 Q1006,NFTL,2019-01-14T03:00:00Z,-19.78,-174.33,29.0,25.0,90,7,,6.21,29.704725,,,,,,,,,,,FEW,2000,,,,,,,VFR,,,,,,,,,,,,METAR,3.0
NFTV 140300Z 10010KT 9999 FEW017 SCT290 29/23 Q1005,NFTV,2019-01-14T03:00:00Z,-18.58,-173.97,29.0,23.0,100,10,,6.21,29.675198,,,,,,,,,,,FEW,1700,SCT,29000,,,,,VFR,,,,,,,,,,,,METAR,71.0
SBRB 140300Z VRB01KT 9999 FEW015 24/24 Q1013,SBRB,2019-01-14T03:00:00Z,-10.0,-67.78,24.0,24.0,0,1,,6.21,29.911417,,,,,,,,,,,FEW,1500,,,,,,,VFR,,,,,,,,,,,,METAR,143.0
BIRK 140300Z 08014KT 9999 FEW025 SCT045 BKN050 M03/M05 Q1011,BIRK,2019-01-14T03:00:00Z,64.13,-21.93,-3.0,-5.0,80,14,,6.21,29.852362,,,,,,,,,,,FEW,2500,SCT,4500,BKN,5000,,,VFR,,,,,,,,,,,,METAR,61.0
BIKF 140300Z 14015KT 9999 FEW026 SCT240 M02/M04 Q1010,BIKF,2019-01-14T03:00:00Z,63.98,-22.6,-2.0,-4.0,140,15,,6.21,29.822834,,,,,,,,,,,FEW,2600,SCT,24000,,,,,VFR,,,,,,,,,,,,METAR,54.0
BIEG 140300Z 19003KT CAVOK M11/M13 Q1014 R04/790294,BIEG,2019-01-14T03:00:00Z,65.27,-14.4,-11.0,-13.0,190,3,,6.21,29.940945,,,,,,,,,,,CAVOK,,,,,,,,VFR,,,,,,,,,,,,SPECI,38.0
BIAR 140300Z 35003KT 240V030 9999 FEW049 M09/M09 Q1012,BIAR,2019-01-14T03:00:00Z,65.67,-18.07,-9.0,-9.0,350,3,,6.21,29.88189,,,,,,,,,,,FEW,4900,,,,,,,VFR,,,,,,,,,,,,METAR,27.0
LYVR 140300Z 16026KT CAVOK 03/M03 Q0996 R01/////// NOSIG,LYVR,2019-01-14T03:00:00Z,45.13,21.32,3.0,-3.0,160,26,,6.21,29.409449,,,,,,TRUE,,,,,CAVOK,,,,,,,,VFR,,,,,,,,,,,,METAR,85.0
LYUZ 140300Z AUTO 24012G22KT CAVOK M01/M05 Q0997,LYUZ,2019-01-14T03:00:00Z,43.9,19.7,-1.0,-5.0,240,12,22,6.21,29.438976,,,TRUE,,,,,,,,CAVOK,,,,,,,,VFR,,,,,,,,,,,,METAR,904.0
LYPG 140300Z VRB01KT 9999 BKN040 OVC070 01/M02 Q1005 NOSIG,LYPG,2019-01-14T03:00:00Z,42.37,19.25,1.0,-2.0,0,1,,6.21,29.675198,,,,,,TRUE,,,,,BKN,4000,OVC,7000,,,,,VFR,,,,,,,,,,,,METAR,43.0
LYNI 140300Z VRB01KT 5000 BR NSC M07/M07 Q1002 NOSIG,LYNI,2019-01-14T03:00:00Z,43.32,21.88,-7.0,-7.0,0,1,,3.11,29.586615,,,,,,TRUE,,,,BR,CLR,,,,,,,,MVFR,,,,,,,,,,,,METAR,202.0
LYKV 140300Z VRB01KT 0200 FZFG VV002 M08/M10 Q0999 R14/////// NOSIG,LYKV,2019-01-14T03:00:00Z,43.82,20.58,-8.0,-10.0,0,1,,0.12,29.498032,,,,,,TRUE,,,,FZFG,OVX,0,,,,,,,LIFR,,,,,,,,,,,200,METAR,209.0
LYBT 140300Z 15003KT 120V200 CAVOK 02/M02 Q0997 NOSIG,LYBT,2019-01-14T03:00:00Z,44.93,20.25,2.0,-2.0,150,3,,6.21,29.438976,,,,,,TRUE,,,,,CAVOK,,,,,,,,VFR,,,,,,,,,,,,METAR,80.0
LYBE 140300Z 18007KT 9999 FEW045 03/M02 Q0997 R12/1///95 NOSIG,LYBE,2019-01-14T03:00:00Z,44.82,20.28,3.0,-2.0,180,7,,6.21,29.438976,,,,,,TRUE,,,,,FEW,4500,,,,,,,VFR,,,,,,,,,,,,SPECI,99.0
TGPY 140300Z 05003KT 9999 FEW020 24/20 Q1016 NOSIG,TGPY,2019-01-14T03:00:00Z,12.0,-61.78,24.0,20.0,50,3,,6.21,30.0,,,,,,TRUE,,,,,FEW,2000,,,,,,,VFR,,,,,,,,,,,,METAR,7.0
GAMB 140300Z 04006KT CAVOK 20/M03 Q1015,GAMB,2019-01-14T03:00:00Z,14.52,-4.08,20.0,-3.0,40,6,,6.21,29.970472,,,,,,,,,,,CAVOK,,,,,,,,VFR,,,,,,,,,,,,METAR,272.0
MUCF 140259Z AUTO 22003KT 22/19 Q1021,MUCF,2019-01-14T02:59:00Z,22.13,-80.4,22.0,19.0,220,3,,,30.147638,,,TRUE,,,,,,,,,,,,,,,,,,,,,,,,,,,,SPECI,39.0
KDVP 140259Z AUTO 23013KT 10SM OVC014 A3026 RMK AO2,KDVP,2019-01-14T02:59:00Z,43.98,-95.78,,,230,13,,10.0,30.259842,,,TRUE,TRUE,,,,,,,OVC,1400,,,,,,,MVFR,,,,,,,,,,,,SPECI,495.0
KDVN 140259Z AUTO 28003KT 4SM BR CLR M09/M11 A3044 RMK AO2 T10891106,KDVN,2019-01-14T02:59:00Z,41.62,-90.58,-8.9,-10.6,280,3,,4.0,30.43996,,,TRUE,TRUE,,,,,,BR,CLR,,,,,,,,MVFR,,,,,,,,,,,,METAR,230.0
KSPI 140259Z 34005KT 10SM CLR M04/M06 A3041 RMK AO2 T10391061,KSPI,2019-01-14T02:59:00Z,39.85,-89.68,-3.9,-6.1,340,5,,10.0,30.410433,,,,TRUE,,,,,,,CLR,,,,,,,,VFR,,,,,,,,,,,,METAR,181.0
KNOZ 140259Z AUTO 06005KT 10SM CLR 13/08 A3008 RMK AO2 SLP139 T01330078 51008 $,KNOZ,2019-01-14T02:59:00Z,32.5,-114.45,13.3,7.8,60,5,,10.0,30.079725,1013.9,,TRUE,TRUE,TRUE,,,,,,CLR,,,,,,,,VFR,0.8,,,,,,,,,,,SPECI,103.0
KNGU 140259Z 01016G30KT 7SM OVC008 02/01 A3014 RMK AO2 PK WND 35030/0254 RAE53 CIG 007V012 SLP205 P0000 60003 T00220006 53012,KNGU,2019-01-14T02:59:00Z,36.92,-76.27,2.2,0.6,10,16,30,7.0,30.138779,1020.5,,,TRUE,,,,,,,OVC,800,,,,,,,IFR,1.2,,,,,0.005,,,,,,SPECI,5.0
RKSO 140258Z 06004KT 1/2SM FZFG SCT000 OVC002 M01/M01 A3034 RMK AO2A FZFG SCT000 SLP278 50001,RKSO,2019-01-14T02:58:00Z,37.07,127.02,-1.0,-1.0,60,4,,0.5,30.339567,1027.8,,,TRUE,,,,,,FZFG,SCT,0,OVC,200,,,,,LIFR,0.1,,,,,,,,,,,METAR,12.0
ETOU 140258Z AUTO 28009KT 9999 BKN023 06/01 A2971 RMK AO2 DZE58 SLP066 FZRANO $,ETOU,2019-01-14T02:58:00Z,50.03,8.32,6.0,1.0,280,9,,6.21,29.71063,1006.6,,TRUE,TRUE,TRUE,,,TRUE,,,BKN,2300,,,,,,,MVFR,,,,,,,,,,,,SPECI,141.0
KGRF 140258Z 00000KT 6SM CLR 02/02 A3011 RMK AO2A SLP203 T00200020 58002 RVRNO $,KGRF,2019-01-14T02:58:00Z,47.07,-122.57,2.0,2.0,0,0,,6.0,30.109253,1020.3,,,TRUE,TRUE,,,,,,CLR,,,,,,,,VFR,-0.2,,,,,,,,,,,SPECI,92.0
KT70 140258Z AUTO 16004KT 10SM OVC048 11/04 A3030 RMK AO2 SLP260 T01060036 52017 $,KT70,2019-01-14T02:58:00Z,29.12,-100.48,10.6,3.6,160,4,,10.0,30.301182,1026.0,,TRUE,TRUE,TRUE,,,,,,OVC,4800,,,,,,,VFR,1.7,,,,,,,,,,,METAR,298.0
KHLR 140258Z AUTO 03008KT 10SM CLR 03/00 A3037 RMK AO2 SLP289 T00300002 52015,KHLR,2019-01-14T02:58:00Z,31.13,-97.72,3.0,0.2,30,8,,10.0,30.369095,1028.9,,TRUE,TRUE,,,,,,,CLR,,,,,,,,VFR,1.5,,,,,,,,,,,METAR,283.0
KGRK 140258Z AUTO 03010KT 10SM CLR 03/00 A3039 RMK AO2 SLP298 T00300001 52014,KGRK,2019-01-14T02:58:00Z,31.07,-97.83,3.0,0.1,30,10,,10.0,30.389763,1029.8,,TRUE,TRUE,,,,,,,CLR,,,,,,,,VFR,1.4,,,,,,,,,,,METAR,309.0
MHSC 140258Z AUTO 36019KT 9999 BKN034 21/19 A3012 RMK AO2 SLP167 T02130187 52022 $,MHSC,2019-01-14T02:58:00Z,14.37,-87.62,21.3,18.7,360,19,,6.21,30.121063,1016.7,,TRUE,TRUE,TRUE,,,,,,BKN,3400,,,,,,,VFR,2.2,,,,,,,,,,,METAR,626.0
KTCM 140258Z 00000KT 4SM BR CLR 01/01 A3011 RMK AO2A T00060006 58001 $,KTCM,2019-01-14T02:58:00Z,47.12,-122.47,0.6,0.6,0,0,,4.0,30.109253,,,,TRUE,TRUE,,,,,BR,CLR,,,,,,,,MVFR,-0.1,,,,,,,,,,,METAR,98.0
KMRH 140258Z AUTO 33016KT 10SM OVC006 05/04 A3009 RMK AO2 RAE37 SLP189 P0000 60000 T00500039 53019 $,KMRH,2019-01-14T02:58:00Z,34.73,-76.65,5.0,3.9,330,16,,10.0,30.088583,1018.9,,TRUE,TRUE,TRUE,,,,,,OVC,600,,,,,,,IFR,1.9,,,,,0.005,0.005,,,,,METAR,3.0
KMEI 140258Z 35010KT 10SM OVC018 06/02 A3034 RMK AO2 SLP273 I1000137 T00610017 51010,KMEI,2019-01-14T02:58:00Z,32.33,-88.75,6.1,1.7,350,10,,10.0,30.339567,1027.3,,,TRUE,,,,,,,OVC,1800,,,,,,,MVFR,1.0,,,,,,,,,,,METAR,89.0
KJES 140258Z AUTO 34004KT 10SM OVC026 11/08 A3020 RMK AO2,KJES,2019-01-14T02:58:00Z,31.55,-81.88,11.0,8.0,340,4,,10.0,30.200787,,,TRUE,TRUE,,,,,,,OVC,2600,,,,,,,MVFR,,,,,,,,,,,,METAR,33.0
K1BW 140258Z AUTO 27007KT 10SM CLR M05/M09 A3022 RMK AO2 SLP284 T10501091 50004 $,K1BW,2019-01-14T02:58:00Z,41.52,-104.0,-5.0,-9.1,270,7,,10.0,30.221457,1028.4,,TRUE,TRUE,TRUE,,,,,,CLR,,,,,,,,VFR,0.4,,,,,,,,,,,METAR,1607.0
K0J4 140258Z AUTO 10SM OVC024 09/04 A3028 RMK AO2 SLP251 T00940044 53010 $,K0J4,2019-01-14T02:58:00Z,31.05,-86.32,9.4,4.4,,,,10.0,30.280512,1025.1,,TRUE,TRUE,TRUE,,,,,,OVC,2400,,,,,,,MVFR,1.0,,,,,,,,,,,METAR,96.0
KEUF 140258Z AUTO 30003KT 10SM OVC037 10/07 A3022 RMK AO2 SLP234 T01000067 53008 $,KEUF,2019-01-14T02:58:00Z,31.95,-85.13,10.0,6.7,300,3,,10.0,30.221457,1023.4,,TRUE,TRUE,TRUE,,,,,,OVC,3700,,,,,,,VFR,0.8,,,,,,,,,,,METAR,87.0
KINS 140258Z AUTO 00000KT 10SM CLR 05/M07 A3011 RMK AO2 SLP202 T00531066 52009 $,KINS,2019-01-14T02:58:00Z,36.58,-115.67,5.3,-6.6,0,0,,10.0,30.109253,1020.2,,TRUE,TRUE,TRUE,,,,,,CLR,,,,,,,,VFR,0.9,,,,,,,,,,,METAR,955.0
KBAB 140258Z AUTO 05005KT 10SM CLR 09/05 A2997 RMK AO2 SLP152 T00880052 52003 $,KBAB,2019-01-14T02:58:00Z,39.12,-121.42,8.8,5.2,50,5,,10.0,29.970472,1015.2,,TRUE,TRUE,TRUE,,,,,,CLR,,,,,,,,VFR,0.3,,,,,,,,,,,METAR,34.0
K1OM 140258Z AUTO 28008KT 10SM FEW230 03/M13 A3010 RMK AO2 SLP221 T00261126 57004 $,K1OM,2019-01-14T02:58:00Z,47.33,-108.93,2.6,-12.6,280,8,,10.0,30.100393,1022.1,,TRUE,TRUE,TRUE,,,,,,FEW,23000,,,,,,,VFR,-0.4,,,,,,,,,,,METAR,1086.0
K1KM 140258Z AUTO 28015KT 10SM CLR 00/M13 A3014 RMK AO2 SLP255 T00001127 50000 $,K1KM,2019-01-14T02:58:00Z,46.45,-109.8,0.0,-12.7,280,15,,10.0,30.138779,1025.5,,TRUE,TRUE,TRUE,,,,,,CLR,,,,,,,,VFR,0.0,,,,,,,,,,,METAR,1330.0
K1JM 140258Z AUTO 27008KT 10SM CLR M05/M14 A3013 RMK AO2 SLP272 T10471136 51004 $,K1JM,2019-01-14T02:58:00Z,47.75,-111.55,-4.7,-13.6,270,8,,10.0,30.129921,1027.2,,TRUE,TRUE,TRUE,,,,,,CLR,,,,,,,,VFR,0.4,,,,,,,,,,,METAR,1152.0
K1GM 140258Z AUTO 20013KT 10SM CLR M03/M12 A3015 RMK AO2 SLP263 T10331117 50002 $,K1GM,2019-01-14T02:58:00Z,47.33,-112.1,-3.3,-11.7,200,13,,10.0,30.15059,1026.3,,TRUE,TRUE,TRUE,,,,,,CLR,,,,,,,,VFR,0.2,,,,,,,,,,,METAR,1311.0
K1EM 140258Z AUTO 24007KT 10SM M 04/M14 A3011 RMK AO2 SLP232 T00441139 58002 $,K1EM,2019-01-14T02:58:00Z,47.45,-109.42,4.4,-13.9,240,7,,10.0,30.109253,1023.2,,TRUE,TRUE,TRUE,,,,,,,,,,,,,,,-0.2,,,,,,,,,,,METAR,1116.0
KHMN 140258Z AUTO 17008KT 10SM OVC080 07/00 A3022 RMK AO2 SLP224 T00730000 52017 $,KHMN,2019-01-14T02:58:00Z,32.85,-106.08,7.3,0.0,170,8,,10.0,30.221457,1022.4,,TRUE,TRUE,TRUE,,,,,,OVC,8000,,,,,,,VFR,1.7,,,,,,,,,,,METAR,1248.0
K1LM 140258Z AUTO 24005KT 10SM CLR 02/M14 A3013 RMK AO2 SLP240 T00161144 55001 $,K1LM,2019-01-14T02:58:00Z,46.7,-109.73,1.6,-14.4,240,5,,10.0,30.129921,1024.0,,TRUE,TRUE,TRUE,,,,,,CLR,,,,,,,,VFR,-0.1,,,,,,,,,,,METAR,1414.0
K1FM 140258Z AUTO 00000KT 10SM CLR M01/M13 A3015 RMK AO2 SLP260 T10121127 51003 $,K1FM,2019-01-14T02:58:00Z,47.6,-112.32,-1.2,-12.7,0,0,,10.0,30.15059,1026.0,,TRUE,TRUE,TRUE,,,,,,CLR,,,,,,,,VFR,0.3,,,,,,,,,,,METAR,1116.0
KLGF 140258Z AUTO 00000KT 10SM SCT150 BKN210 OVC230 14/08 A3008 RMK AO2 SLPNO T01350081 52010 $,KLGF,2019-01-14T02:58:00Z,32.87,-114.4,13.5,8.1,0,0,,10.0,30.079725,,,TRUE,TRUE,TRUE,,,,,,SCT,15000,BKN,21000,OVC,23000,,,VFR,1.0,,,,,,,,,,,METAR,132.0
K1HM 140258Z AUTO 24004KT 10SM CLR M01/M13 A3014 RMK AO2 SLP242 T10071128 52007 $,K1HM,2019-01-14T02:58:00Z,,,-0.7,-12.8,240,4,,10.0,30.138779,1024.2,,TRUE,TRUE,TRUE,,,,,,CLR,,,,,,,,VFR,0.7,,,,,,,,,,,METAR,
K1CM 140258Z AUTO 00000KT 10SM CLR M02/M14 A3012 RMK AO2 SLP249 T10201136 58003 $,K1CM,2019-01-14T02:58:00Z,47.1,-110.17,-2.0,-13.6,0,0,,10.0,30.121063,1024.9,,TRUE,TRUE,TRUE,,,,,,CLR,,,,,,,,VFR,-0.3,,,,,,,,,,,METAR,1337.0
K1AM 140258Z AUTO 00000KT 10SM CLR M02/M13 A3014 RMK AO2 SLP209 T10241131 50003 $,K1AM,2019-01-14T02:58:00Z,47.28,-110.8,-2.4,-13.1,0,0,,10.0,30.138779,1020.9,,TRUE,TRUE,TRUE,,,,,,CLR,,,,,,,,VFR,0.3,,,,,,,,,,,METAR,1219.0
KGFA 140258Z AUTO 25004KT 10SM CLR M02/M11 A3014 RMK AO2 SLP264 T10191115 50003 PWINO FZRANO $,KGFA,2019-01-14T02:58:00Z,47.5,-111.17,-1.9,-11.5,250,4,,10.0,30.138779,1026.4,,TRUE,TRUE,TRUE,,,TRUE,TRUE,,CLR,,,,,,,,VFR,0.3,,,,,,,,,,,METAR,1075.0
KFHU 140258Z AUTO 05004KT 10SM BKN060 08/03 A3015 RMK AO2 SLP191 T00800032 52013 $,KFHU,2019-01-14T02:58:00Z,31.58,-110.35,8.0,3.2,50,4,,10.0,30.15059,1019.1,,TRUE,TRUE,TRUE,,,,,,BKN,6000,,,,,,,VFR,1.3,,,,,,,,,,,METAR,1438.0
KDMA 140258Z AUTO 35003KT 10SM BKN140 11/08 A3010 RMK AO2 SLP181 T01100082 52009 $,KDMA,2019-01-14T02:58:00Z,32.17,-110.87,11.0,8.2,350,3,,10.0,30.100393,1018.1,,TRUE,TRUE,TRUE,,,,,,BKN,14000,,,,,,,VFR,0.9,,,,,,,,,,,METAR,824.0
KBIF 140258Z AUTO 05004KT 10SM CLR 07/00 A3020 RMK AO2 SLP214 T00731002 52024 $,KBIF,2019-01-14T02:58:00Z,31.85,-106.38,7.3,-0.2,50,4,,10.0,30.200787,1021.4,,TRUE,TRUE,TRUE,,,,,,CLR,,,,,,,,VFR,2.4,,,,,,,,,,,METAR,1203.0
PAFR 140258Z AUTO 00000KT 9SM BKN140 OVC160 M06/M07 A2974 RMK AO2 SLP083 T10581067 52010,PAFR,2019-01-14T02:58:00Z,61.27,-149.65,-5.8,-6.7,0,0,,9.0,29.740158,1008.3,,TRUE,TRUE,,,,,,,BKN,14000,OVC,16000,,,,,VFR,1.0,,,,,,,,,,,METAR,115.0
KMUO 140258Z AUTO 19003KT 10SM CLR M06/M06 A3030 RMK AO2 SLP297 T10571057 50002 $,KMUO,2019-01-14T02:58:00Z,43.03,-115.87,-5.7,-5.7,190,3,,10.0,30.301182,1029.7,,TRUE,TRUE,TRUE,,,,,,CLR,,,,,,,,VFR,0.2,,,,,,,,,,,METAR,913.0
KHIF 140258Z AUTO 35004KT 10SM CLR M07/M09 A3029 RMK AO2 SLP304 T10711088 52008,KHIF,2019-01-14T02:58:00Z,41.12,-111.97,-7.1,-8.8,350,4,,10.0,30.28937,1030.4,,TRUE,TRUE,,,,,,,CLR,,,,,,,,VFR,0.8,,,,,,,,,,,METAR,1459.0
KFEW 140258Z AUTO 00000KT 10SM CLR M09/M13 A3023 RMK AO2 SLP323 T10921134 51008 $,KFEW,2019-01-14T02:58:00Z,41.13,-104.87,-9.2,-13.4,0,0,,10.0,30.230314,1032.3,,TRUE,TRUE,TRUE,,,,,,CLR,,,,,,,,VFR,0.8,,,,,,,,,,,METAR,1878.0
KFCS 140258Z AUTO 19006KT 9SM SCT007 OVC020 M01/M01 A3022 RMK AO2 CIG 006V020 SLP299 T10141015 50006 $,KFCS,2019-01-14T02:58:00Z,38.67,-104.77,-1.4,-1.5,190,6,,9.0,30.221457,1029.9,,TRUE,TRUE,TRUE,,,,,,SCT,700,OVC,2000,,,,,MVFR,0.6,,,,,,,,,,,METAR,1789.0
KEDW 140258Z AUTO 07010KT 10SM FEW075 BKN120 08/04 A3006 RMK AO2 SLP188 T00840038 52008,KEDW,2019-01-14T02:58:00Z,34.88,-117.87,8.4,3.8,70,10,,10.0,30.059055,1018.8,,TRUE,TRUE,,,,,,,FEW,7500,BKN,12000,,,,,VFR,0.8,,,,,,,,,,,METAR,702.0
KCWN 140258Z AUTO 00000KT 10SM CLR M04/M05 A3016 RMK AO2 SLP169 T10381048 51009 $,KCWN,2019-01-14T02:58:00Z,38.75,-104.85,-3.8,-4.8,0,0,,10.0,30.159449,1016.9,,TRUE,TRUE,TRUE,,,,,,CLR,,,,,,,,VFR,0.9,,,,,,,,,,,METAR,2040.0
KAFF 140258Z AUTO 21003KT 10SM BKN007 OVC014 M02/M03 A3021 RMK AO2 SLP277 T10201026 51008,KAFF,2019-01-14T02:58:00Z,38.97,-104.82,-2.0,-2.6,210,3,,10.0,30.209646,1027.7,,TRUE,TRUE,,,,,,,BKN,700,OVC,1400,,,,,IFR,0.8,,,,,,,,,,,METAR,2003.0
K9L2 140258Z AUTO 04009KT 10SM OVC120 08/03 A3007 RMK AO2 SLP190 T00790026 53009,K9L2,2019-01-14T02:58:00Z,34.97,-117.87,7.9,2.6,40,9,,10.0,30.070866,1019.0,,TRUE,TRUE,,,,,,,OVC,12000,,,,,,,VFR,0.9,,,,,,,,,,,METAR,701.0
K4MR 140258Z AUTO 14006KT 10SM OVC043 03/M01 A3031 RMK AO2 SLP278 T00341012 51012 TSNO $,K4MR,2019-01-14T02:58:00Z,34.3,-103.8,3.4,-1.2,140,6,,10.0,30.31004,1027.8,,TRUE,TRUE,TRUE,,TRUE,,,,OVC,4300,,,,,,,VFR,1.2,,,,,,,,,,,METAR,1326.0
K1YT 140258Z AUTO 15004KT 10SM OVC005 M01/M02 A3033 RMK AO2 SLPNO T10071019 53002 $,K1YT,2019-01-14T02:58:00Z,46.67,-120.45,-0.7,-1.9,150,4,,10.0,30.33071,,,TRUE,TRUE,TRUE,,,,,,OVC,500,,,,,,,IFR,0.2,,,,,,,,,,,METAR,438.0
KVBG 140258Z AUTO 14010KT 10SM OVC130 13/10 A2996 RMK AO2 SLP149 T01290095 58001 $,KVBG,2019-01-14T02:58:00Z,34.73,-120.58,12.9,9.5,140,10,,10.0,29.958662,1014.9,,TRUE,TRUE,TRUE,,,,,,OVC,13000,,,,,,,VFR,-0.1,,,,,,,,,,,METAR,112.0
KSLI 140258Z AUTO 00000KT 10SM OVC140 13/10 A3001 RMK AO2 SLP166 T01250102 55004,KSLI,2019-01-14T02:58:00Z,33.77,-118.03,12.5,10.2,0,0,,10.0,30.008858,1016.6,,TRUE,TRUE,,,,,,,OVC,14000,,,,,,,VFR,-0.4,,,,,,,,,,,METAR,11.0
KRIV 140258Z AUTO 08010KT 10SM FEW130 13/05 A3002 RMK AO2 SLP169 T01280047 58000,KRIV,2019-01-14T02:58:00Z,33.87,-117.27,12.8,4.7,80,10,,10.0,30.02067,1016.9,,TRUE,TRUE,,,,,,,FEW,13000,,,,,,,VFR,0.0,,,,,,,,,,,METAR,469.0
PAFB 140258Z AUTO 00000KT 10SM CLR M22/M25 A2984 RMK AO2 SLP125 T12211246 51010 $,PAFB,2019-01-14T02:58:00Z,64.83,-147.62,-22.1,-24.6,0,0,,10.0,29.840551,1012.5,,TRUE,TRUE,TRUE,,,,,,CLR,,,,,,,,VFR,1.0,,,,,,,,,,,METAR,137.0
KSXS 140258Z AUTO 33005KT 10SM OVC027 09/06 A3024 RMK AO2 SLP242 T00890056 52009,KSXS,2019-01-14T02:58:00Z,31.37,-85.85,8.9,5.6,330,5,,10.0,30.239174,1024.2,,TRUE,TRUE,,,,,,,OVC,2700,,,,,,,MVFR,0.9,,,,,,,,,,,METAR,122.0
KLOR 140258Z AUTO 31004KT 10SM OVC029 09/06 A3024 RMK AO2 SLP223 T00900059 52008,KLOR,2019-01-14T02:58:00Z,31.35,-85.75,9.0,5.9,310,4,,10.0,30.239174,1022.3,,TRUE,TRUE,,,,,,,OVC,2900,,,,,,,MVFR,0.8,,,,,,,,,,,METAR,74.0
KHUA 140258Z AUTO 34006KT 10SM OVC006 04/03 A3027 RMK AO2 SLP255 T00410032 52012,KHUA,2019-01-14T02:58:00Z,34.68,-86.68,4.1,3.2,340,6,,10.0,30.268702,1025.5,,TRUE,TRUE,,,,,,,OVC,600,,,,,,,IFR,1.2,,,,,,,,,,,METAR,209.0
KGOV 140258Z AUTO 00000KT 9SM CLR M19/M21 A3033 RMK AO2 SLP310 T11881207 57011 $,KGOV,2019-01-14T02:58:00Z,44.68,-84.73,-18.8,-20.7,0,0,,9.0,30.33071,1031.0,,TRUE,TRUE,TRUE,,,,,,CLR,,,,,,,,VFR,-1.1,,,,,,,,,,,METAR,353.0
KBKF 140258Z 20006KT 10SM CLR M05/M06 A3022 RMK AO2A SLP277 T10471064 50006,KBKF,2019-01-14T02:58:00Z,39.72,-104.75,-4.7,-6.4,200,6,,10.0,30.221457,1027.7,,,TRUE,,,,,,,CLR,,,,,,,,VFR,0.6,,,,,,,,,,,METAR,1726.0
KPOE 140258Z AUTO 36005KT 10SM OVC021 04/01 A3038 RMK AO2 SLP292 T00430007 52017,KPOE,2019-01-14T02:58:00Z,31.05,-93.2,4.3,0.7,360,5,,10.0,30.380905,1029.2,,TRUE,TRUE,,,,,,,OVC,2100,,,,,,,MVFR,1.7,,,,,,,,,,,METAR,101.0
OAKN 140258Z COR 05007KT 9000 HZ SCT190 02/M13 A3024 RMK AO2A SLP234 WND DATA ESTMD Q1024 PA3010 DA2219 T00221129 53007 COR 0302,OAKN,2019-01-14T02:58:00Z,31.5,65.83,2.2,-12.9,50,7,,5.59,30.239174,1023.4,TRUE,,TRUE,,,,,,HZ,SCT,19000,,,,,,,VFR,0.7,,,,,,,,,,,METAR,1010.0
KLSV 140258Z 01006KT 10SM CLR 09/M04 A3015 RMK AO2A SLP216 ALSTG/SLP ESTMD T00871041 52010 $,KLSV,2019-01-14T02:58:00Z,36.22,-115.02,8.7,-4.1,10,6,,10.0,30.15059,1021.6,,,TRUE,TRUE,,,,,,CLR,,,,,,,,VFR,1.0,,,,,,,,,,,SPECI,570.0
KSUU 140258Z AUTO 05005KT 10SM CLR 09/06 A2998 RMK AO2 SLP159 T00870058 55000 $,KSUU,2019-01-14T02:58:00Z,38.27,-121.92,8.7,5.8,50,5,,10.0,29.97933,1015.9,,TRUE,TRUE,TRUE,,,,,,CLR,,,,,,,,VFR,0.0,,,,,,,,,,,SPECI,19.0
KNSI 140257Z AUTO 11012KT 10SM CLR 13/ A2999 RMK AO2 SLP152 6//// T0133 56002 PNO $,KNSI,2019-01-14T02:57:00Z,33.22,-119.45,13.3,,110,12,,10.0,29.991142,1015.2,,TRUE,TRUE,TRUE,,,,,,CLR,,,,,,,,VFR,-0.2,,,,,,,,,,,METAR,154.0
PHNG 140257Z 26004KT 10SM OVC055 24/19 A2998 RMK AO2 SLP148 T02440189 53005 $,PHNG,2019-01-14T02:57:00Z,21.43,-157.77,24.4,18.9,260,4,,10.0,29.97933,1014.8,,,TRUE,TRUE,,,,,,OVC,5500,,,,,,,VFR,0.5,,,,,,,,,,,SPECI,3.0
KEAR 140257Z AUTO 24010KT 10SM OVC005 M02/M03 A3034 RMK AO2 SLP299 T10221033 58004 FZRANO,KEAR,2019-01-14T02:57:00Z,40.72,-99.0,-2.2,-3.3,240,10,,10.0,30.339567,1029.9,,TRUE,TRUE,,,,TRUE,,,OVC,500,,,,,,,IFR,-0.4,,,,,,,,,,,METAR,649.0
PAJC 140257Z AUTO 16017G27KT 10SM BKN038 06/M02 A2928 RMK AO2 PK WND 13027/0255 RAB0159E25 SLP916 P0000 6//// T00561022 51038,PAJC,2019-01-14T02:57:00Z,56.32,-158.37,5.6,-2.2,160,17,27,10.0,29.279528,991.6,,TRUE,TRUE,,,,,,,BKN,3800,,,,,,,VFR,3.8,,,,,0.005,,,,,,METAR,15.0
KNYL 140257Z AUTO 06005KT 10SM CLR 15/07 A3008 RMK AO2 SLP184 T01500072 51009,KNYL,2019-01-14T02:57:00Z,32.63,-114.62,15.0,7.2,60,5,,10.0,30.079725,1018.4,,TRUE,TRUE,,,,,,,CLR,,,,,,,,VFR,0.9,,,,,,,,,,,METAR,65.0
KFLG 140257Z 07007KT 10SM OVC007 M02/M04 A3017 RMK AO2 SNE22 SLP221 P0000 60000 T10221039 51011,KFLG,2019-01-14T02:57:00Z,35.13,-111.67,-2.2,-3.9,70,7,,10.0,30.171259,1022.1,,,TRUE,,,,,,,OVC,700,,,,,,,IFR,1.1,,,,,0.005,0.005,,,,,METAR,2134.0
KNTD 140257Z 13003KT 10SM SCT140 13/08 A3001 RMK AO2 SLP165 T01280078 55001 $,KNTD,2019-01-14T02:57:00Z,34.12,-119.12,12.8,7.8,130,3,,10.0,30.008858,1016.5,,,TRUE,TRUE,,,,,,SCT,14000,,,,,,,VFR,-0.1,,,,,,,,,,,METAR,4.0
KSZL 140257Z 29003KT 5SM BR OVC013 M02/M02 A3040 RMK SLPNO T10181021 51006 $,KSZL,2019-01-14T02:57:00Z,38.72,-93.53,-1.8,-2.1,290,3,,5.0,30.398623,,,,,TRUE,,,,,BR,OVC,1300,,,,,,,MVFR,0.6,,,,,,,,,,,METAR,265.0
PGWT 140257Z 08014KT 7SM SCT016 M/M A2981,PGWT,2019-01-14T02:57:00Z,14.98,145.62,,,80,14,,7.0,29.811024,,,,,,,,,,,SCT,1600,,,,,,,VFR,,,,,,,,,,,,METAR,82.0
EQYG 140257Z AUTO 25012G17KT 9SM RA FEW037 BKN045 OVC095 11/ A2972 RMK AO2 RAB53 SLP059 P0000 60000 T0106 58018 $ ,EQYG,2019-01-14T02:57:00Z,,,10.6,,250,12,17,9.0,29.719488,1005.9,,TRUE,TRUE,TRUE,,,,,RA,FEW,3700,BKN,4500,OVC,9500,,,VFR,-1.8,,,,,0.005,0.005,,,,,METAR,
KNJM 140257Z AUTO 31009KT 04/03 A3012 RMK AO2 SLP202 T00390028 51015 $,KNJM,2019-01-14T02:57:00Z,34.67,-77.02,3.9,2.8,310,9,,,30.121063,1020.2,,TRUE,TRUE,TRUE,,,,,,,,,,,,,,,1.5,,,,,,,,,,,SPECI,7.0
KNTU 140256Z 35017G26KT 1SM -RA BR OVC007 03/03 A3009 RMK AO2 PK WND 35029/0221 RAE03B50SNB35E52 SLP191 P0000 60002 T00280028 51014,KNTU,2019-01-14T02:56:00Z,36.82,-76.02,2.8,2.8,350,17,26,1.0,30.088583,1019.1,,,TRUE,,,,,,-RA BR,OVC,700,,,,,,,IFR,1.4,,,,,0.005,0.02,,,,,METAR,7.0
KRDR 140256Z AUTO 33005KT 10SM OVC008 M04/M05 A3020 RMK AO2 SLP248 T10401050 58000 $,KRDR,2019-01-14T02:56:00Z,47.97,-97.4,-4.0,-5.0,330,5,,10.0,30.200787,1024.8,,TRUE,TRUE,TRUE,,,,,,OVC,800,,,,,,,IFR,0.0,,,,,,,,,,,METAR,278.0
KLSF 140256Z AUTO 27004KT 10SM FEW028 OVC037 09/08 A3022 RMK AO2 SLP239 T00940075 52007,KLSF,2019-01-14T02:56:00Z,32.32,-84.97,9.4,7.5,270,4,,10.0,30.221457,1023.9,,TRUE,TRUE,,,,,,,FEW,2800,OVC,3700,,,,,VFR,0.7,,,,,,,,,,,SPECI,71.0
PAGN 140256Z AUTO 00000KT 10SM OVC028 03/02 A3002 RMK AO2 UPB05E34RAB34E51 SLP153 P0000 60003 T00280022 58001,PAGN,2019-01-14T02:56:00Z,57.5,-134.58,2.8,2.2,0,0,,10.0,30.02067,1015.3,,TRUE,TRUE,,,,,,,OVC,2800,,,,,,,MVFR,-0.1,,,,,0.005,0.03,,,,,METAR,2.0
PAHL 140256Z AUTO 08015G28KT 9SM -SN OVC060 M14/M17 A2973 RMK AO2 PK WND 08028/0252 SLP079 P0000 60000 T11441172 55004 FZRANO,PAHL,2019-01-14T02:56:00Z,65.7,-156.35,-14.4,-17.2,80,15,28,9.0,29.731298,1007.9,,TRUE,TRUE,,,,TRUE,,-SN,OVC,6000,,,,,,,VFR,-0.4,,,,,0.005,0.005,,,,,METAR,65.0
BGTL 140256Z AUTO 10010KT 9999 CLR M30/M34 A3002 RMK AO2 SLP161 T13001344 55000 TSNO CHINO RWY26 $,BGTL,2019-01-14T02:56:00Z,76.53,-68.7,-30.0,-34.4,100,10,,6.21,30.02067,1016.1,,TRUE,TRUE,TRUE,,TRUE,,,,CLR,,,,,,,,VFR,0.0,,,,,,,,,,,SPECI,77.0
PAHP 140256Z AUTO 11020KT 10SM SCT050 M05/M06 A2912 RMK AO2 PK WND 11026/0205 UPE16 SLPNO P0000 60000 T10501056 53026 FZRANO,PAHP,2019-01-14T02:56:00Z,61.52,-166.15,-5.0,-5.6,110,20,,10.0,29.120079,,,TRUE,TRUE,,,,TRUE,,,SCT,5000,,,,,,,VFR,2.6,,,,,0.005,0.005,,,,,METAR,5.0
PAKF 140256Z AUTO 18019G28KT 140V210 8SM -RA OVC012 04/02 A2890 RMK AO2 PK WND 15036/0205 SLP785 P0011 60014 T00390017 53004,PAKF,2019-01-14T02:56:00Z,54.85,-163.42,3.9,1.7,180,19,28,8.0,28.898623,978.5,,TRUE,TRUE,,,,,,-RA,OVC,1200,,,,,,,MVFR,0.4,,,,,0.11,0.14,,,,,METAR,6.0
PAIN 140256Z AUTO VRB06KT 10SM CLR 01/M07 A2971 RMK AO2 SLP094 T00111067 58000 FZRANO,PAIN,2019-01-14T02:56:00Z,63.73,-148.92,1.1,-6.7,0,6,,10.0,29.71063,1009.4,,TRUE,TRUE,,,,TRUE,,,CLR,,,,,,,,VFR,0.0,,,,,,,,,,,METAR,524.0
PAIK 140256Z AUTO 09018G28KT 10SM OVC046 M12/M19 A2972 RMK AO2 PK WND 08028/0254 SLP070 T11221194 58010 FZRANO,PAIK,2019-01-14T02:56:00Z,66.98,-160.43,-12.2,-19.4,90,18,28,10.0,29.719488,1007.0,,TRUE,TRUE,,,,TRUE,,,OVC,4600,,,,,,,VFR,-1.0,,,,,,,,,,,METAR,51.0
KNYG 140256Z AUTO 02010KT 2 1/2SM -SN BR BKN016 OVC028 M01/M02 A3029 RMK AO2 SLP258 P0001 60001 T10061017 53008,KNYG,2019-01-14T02:56:00Z,38.5,-77.28,-0.6,-1.7,20,10,,2.5,30.28937,1025.8,,TRUE,TRUE,,,,,,-SN BR,BKN,1600,OVC,2800,,,,,IFR,0.8,,,,,0.01,0.01,,,,,METAR,4.0
PALG 140256Z AUTO 08012G17KT 10SM BKN036 OVC048 00/M02 A2926 RMK AO2 RAB0159E04SNE0159 SLP914 P0000 60000 T00001022 53010 FZRANO,PALG,2019-01-14T02:56:00Z,61.53,-160.33,0.0,-2.2,80,12,17,10.0,29.258858,991.4,,TRUE,TRUE,,,,TRUE,,,BKN,3600,OVC,4800,,,,,VFR,1.0,,,,,0.005,0.005,,,,,METAR,17.0
PAKH 140256Z AUTO 14010KT 9SM BKN024 OVC031 05/03 A2957 RMK AO2 SLP014 T00500028 53030 $,PAKH,2019-01-14T02:56:00Z,56.93,-154.18,5.0,2.8,140,10,,9.0,29.568897,1001.4,,TRUE,TRUE,TRUE,,,,,,BKN,2400,OVC,3100,,,,,MVFR,3.0,,,,,,,,,,,METAR,14.0
KCHS 140256Z 33008KT 10SM OVC008 08/06 A3017 RMK AO2 SLP217 T00780061 53008,KCHS,2019-01-14T02:56:00Z,32.9,-80.03,7.8,6.1,330,8,,10.0,30.171259,1021.7,,,TRUE,,,,,,,OVC,800,,,,,,,IFR,0.8,,,,,,,,,,,METAR,13.0
KCEC 140256Z AUTO 15003KT 10SM CLR 08/07 A2998 RMK AO2 SLP153 T00780067 51006,KCEC,2019-01-14T02:56:00Z,41.77,-124.22,7.8,6.7,150,3,,10.0,29.97933,1015.3,,TRUE,TRUE,,,,,,,CLR,,,,,,,,VFR,0.6,,,,,,,,,,,METAR,17.0
KCAE 140256Z 33003KT 10SM BKN011 OVC024 06/05 A3020 RMK AO2 SLP226 T00560050 51014,KCAE,2019-01-14T02:56:00Z,33.93,-81.12,5.6,5.0,330,3,,10.0,30.200787,1022.6,,,TRUE,,,,,,,BKN,1100,OVC,2400,,,,,MVFR,1.4,,,,,,,,,,,METAR,70.0
KBZN 140256Z 15004KT 10SM CLR M10/M13 A3025 RMK AO2 SLP322 T11001128 50004,KBZN,2019-01-14T02:56:00Z,45.78,-111.17,-10.0,-12.8,150,4,,10.0,30.250984,1032.2,,,TRUE,,,,,,,CLR,,,,,,,,VFR,0.4,,,,,,,,,,,METAR,1361.0
KBJJ 140256Z AUTO 01007KT 10SM CLR M05/M07 A3026 RMK AO2 SLP265 T10501072 53008,KBJJ,2019-01-14T02:56:00Z,40.87,-81.88,-5.0,-7.2,10,7,,10.0,30.259842,1026.5,,TRUE,TRUE,,,,,,,CLR,,,,,,,,VFR,0.8,,,,,,,,,,,METAR,343.0
PAGA 140256Z AUTO 35004KT 10SM OVC080 M17/M19 A2972 RMK AO2 SLP069 60000 T11721189 55000 FZRANO,PAGA,2019-01-14T02:56:00Z,64.73,-156.93,-17.2,-18.9,350,4,,10.0,29.719488,1006.9,,TRUE,TRUE,,,,TRUE,,,OVC,8000,,,,,,,VFR,0.0,,,,,,0.005,,,,,METAR,46.0
PAFM 140256Z AUTO 03008KT 10SM BKN100 M18/M23 A2983 RMK AO2 SLP116 T11831233 58001 FZRANO,PAFM,2019-01-14T02:56:00Z,67.1,-157.85,-18.3,-23.3,30,8,,10.0,29.828741,1011.6,,TRUE,TRUE,,,,TRUE,,,BKN,10000,,,,,,,VFR,-0.1,,,,,,,,,,,METAR,88.0
PAFE 140256Z AUTO 09008KT 10SM -RA SCT018 BKN028 OVC038 07/06 A3002 RMK AO2 SLP178 P0002 60004 T00670061 51005,PAFE,2019-01-14T02:56:00Z,56.97,-133.92,6.7,6.1,90,8,,10.0,30.02067,1017.8,,TRUE,TRUE,,,,,,-RA,SCT,1800,BKN,2800,OVC,3800,,,MVFR,0.5,,,,,0.02,0.04,,,,,METAR,9.0
PAEM 140256Z AUTO 12015KT 10SM BKN018 OVC029 M06/M07 A2923 RMK AO2 PK WND 12026/0204 SNE38 SLP956 P0000 60000 T10611067 51017 FZRANO,PAEM,2019-01-14T02:56:00Z,62.78,-164.48,-6.1,-6.7,120,15,,10.0,29.22933,995.6,,TRUE,TRUE,,,,TRUE,,,BKN,1800,OVC,2900,,,,,MVFR,1.7,,,,,0.005,0.005,,,,,METAR,3.0
PADK 140256Z AUTO 34019G31KT 10SM -RA FEW017 BKN031 OVC038 02/M01 A2876 RMK AO2 PK WND 36035/0210 SNB06E15 SLP740 P0000 60000 T00171011 53023 FZRANO,PADK,2019-01-14T02:56:00Z,51.88,-176.65,1.7,-1.1,340,19,31,10.0,28.759842,974.0,,TRUE,TRUE,,,,TRUE,,-RA,FEW,1700,BKN,3100,OVC,3800,,,VFR,2.3,,,,,0.005,0.005,,,,,METAR,4.0
PABV 140256Z AUTO 19006KT 10SM CLR M04/M06 A2981 RMK AO2 SLP102 T10441056 53015 FZRANO,PABV,2019-01-14T02:56:00Z,61.42,-149.52,-4.4,-5.6,190,6,,10.0,29.811024,1010.2,,TRUE,TRUE,,,,TRUE,,,CLR,,,,,,,,VFR,1.5,,,,,,,,,,,METAR,29.0
PABL 140256Z AUTO 13018G23KT 1 3/4SM -SN BR OVC012 M13/M15 A2963 RMK AO2 SLP036 P0000 60000 T11331150 58004 FZRANO,PABL,2019-01-14T02:56:00Z,65.98,-161.15,-13.3,-15.0,130,18,23,1.75,29.630905,1003.6,,TRUE,TRUE,,,,TRUE,,-SN BR,OVC,1200,,,,,,,IFR,-0.4,,,,,0.005,0.005,,,,,METAR,7.0
KNID 140256Z AUTO 00000KT 10SM SCT085 07/02 A3011 RMK AO2 SLP207 T00670022 53018,KNID,2019-01-14T02:56:00Z,35.67,-117.67,6.7,2.2,0,0,,10.0,30.109253,1020.7,,TRUE,TRUE,,,,,,,SCT,8500,,,,,,,VFR,1.8,,,,,,,,,,,METAR,696.0
KNCA 140256Z AUTO 32011KT 10SM OVC008 04/02 A3013 RMK AO2 SLP205 6//// T00390022 51021 PNO $,KNCA,2019-01-14T02:56:00Z,34.72,-77.45,3.9,2.2,320,11,,10.0,30.129921,1020.5,,TRUE,TRUE,TRUE,,,,,,OVC,800,,,,,,,IFR,2.1,,,,,,,,,,,METAR,8.0
KNUC 140256Z AUTO 12010KT CLR 12/ A3003 RMK AO2 SLP166 6//// T0122 53003 PNO $,KNUC,2019-01-14T02:56:00Z,33.02,-118.57,12.2,,120,10,,,30.029528,1016.6,,TRUE,TRUE,TRUE,,,,,,CLR,,,,,,,,,0.3,,,,,,,,,,,METAR,55.0
KMHS 140256Z AUTO 04003KT 7SM CLR 01/M04 A3002 RMK AO2 SLP202 T00061039 50002,KMHS,2019-01-14T02:56:00Z,41.32,-122.32,0.6,-3.9,40,3,,7.0,30.02067,1020.2,,TRUE,TRUE,,,,,,,CLR,,,,,,,,VFR,0.2,,,,,,,,,,,METAR,1078.0
KMQE 140256Z AUTO 06008KT M05/M08 A3031 RMK AO1 SLP287 T10501083 56007,KMQE,2019-01-14T02:56:00Z,42.22,-71.12,-5.0,-8.3,60,8,,,30.31004,1028.7,,TRUE,TRUE,,,,,,,,,,,,,,,,-0.7,,,,,,,,,,,METAR,199.0
KD07 140256Z AUTO 23007KT M04/M04 A3014 RMK AO1 SLP247 T10391039 58004,KD07,2019-01-14T02:56:00Z,45.03,-102.02,-3.9,-3.9,230,7,,,30.138779,1024.7,,TRUE,TRUE,,,,,,,,,,,,,,,,-0.4,,,,,,,,,,,METAR,784.0
PPIZ 140256Z AUTO 07034G40KT 1/4SM +SN OVC003 M31/M34 A2992 RMK AO2 PK WND 06042/0242 SLP135 P0000 60000 T13111339 58008 FZRANO,PPIZ,2019-01-14T02:56:00Z,69.73,-163.0,-31.1,-33.9,70,34,40,0.25,29.920275,1013.5,,TRUE,TRUE,,,,TRUE,,+SN,OVC,300,,,,,,,LIFR,-0.8,,,,,0.005,0.005,,,,,METAR,8.0
PFYU 140256Z 00000KT 10SM CLR M34/ A3010 RMK AO2 SLP229 6//// T1344 51010 $,PFYU,2019-01-14T02:56:00Z,66.57,-145.27,-34.4,,0,0,,10.0,30.100393,1022.9,,,TRUE,TRUE,,,,,,CLR,,,,,,,,VFR,1.0,,,,,,,,,,,METAR,131.0
PFEL 140256Z AUTO 34008KT 9SM -SN SCT017 BKN032 OVC045 M07/M09 A2945 RMK AO2 SLP975 P0000 60000 T10671089 51015 FZRANO,PFEL,2019-01-14T02:56:00Z,64.62,-162.27,-6.7,-8.9,340,8,,9.0,29.450787,997.5,,TRUE,TRUE,,,,TRUE,,-SN,SCT,1700,BKN,3200,OVC,4500,,,VFR,1.5,,,,,0.005,0.005,,,,,METAR,49.0
PFCL 140256Z AUTO 13018KT 10SM CLR 02/M01 RMK AO2 PK WND 14032/0210 SLPNO T00221006 FZRANO TSNO $,PFCL,2019-01-14T02:56:00Z,58.83,-158.53,2.2,-0.6,130,18,,10.0,,,,TRUE,TRUE,TRUE,,TRUE,TRUE,,,CLR,,,,,,,,VFR,,,,,,,,,,,,METAR,24.0
PAZK 140256Z AUTO VRB03KT 9SM -SN CLR M16/M18 A2975 RMK AO2 SLP179 P0000 60000 T11611183 53002 FZRANO,PAZK,2019-01-14T02:56:00Z,61.93,-147.17,-16.1,-18.3,0,3,,9.0,29.749016,1017.9,,TRUE,TRUE,,,,TRUE,,-SN,CLR,,,,,,,,VFR,0.2,,,,,0.005,0.005,,,,,METAR,1003.0
PAWS 140256Z AUTO 13004KT 10SM BKN120 00/M08 A2979 RMK AO2 SLP102 T00001078 53011 FZRANO,PAWS,2019-01-14T02:56:00Z,61.57,-149.53,0.0,-7.8,130,4,,10.0,29.790354,1010.2,,TRUE,TRUE,,,,TRUE,,,BKN,12000,,,,,,,VFR,1.1,,,,,,,,,,,METAR,107.0
PAWG 140256Z 07008KT 10SM -RA OVC055 07/05 A3007 RMK AO2 SLP182 6//// T00670050 50000 PNO $,PAWG,2019-01-14T02:56:00Z,56.48,-132.37,6.7,5.0,70,8,,10.0,30.070866,1018.2,,,TRUE,TRUE,,,,,-RA,OVC,5500,,,,,,,VFR,0.0,,,,,,,,,,,METAR,11.0
PAVD 140256Z 00000KT 10SM SCT049 OVC060 M02/M03 A2997 RMK AO2 SLP174 60000 T10221033 53002,PAVD,2019-01-14T02:56:00Z,61.13,-146.25,-2.2,-3.3,0,0,,10.0,29.970472,1017.4,,,TRUE,,,,,,,SCT,4900,OVC,6000,,,,,VFR,0.2,,,,,,0.005,,,,,METAR,37.0
PAVC 140256Z AUTO 13021G42KT 100V170 7SM OVC022 05/01 A2903 RMK AO2 PK WND 11042/0255 RAE46 SLP837 P0008 60011 T00500011 53013,PAVC,2019-01-14T02:56:00Z,55.12,-162.27,5.0,1.1,130,21,42,7.0,29.028543,983.7,,TRUE,TRUE,,,,,,,OVC,2200,,,,,,,MVFR,1.3,,,,,0.08,0.11,,,,,METAR,47.0
PAVA 140256Z AUTO 11018KT 10SM SCT047 M04/M05 A2913 RMK AO2 PK WND 12028/0207 SLP949 6//// T10441050 53020 FZRANO PNO $,PAVA,2019-01-14T02:56:00Z,61.53,-165.6,-4.4,-5.0,110,18,,10.0,29.128937,994.9,,TRUE,TRUE,TRUE,,,TRUE,,,SCT,4700,,,,,,,VFR,2.0,,,,,,,,,,,METAR,23.0
PAUN 140256Z AUTO 09035G43KT 1 1/2SM -SN BR CLR M11/M13 A2947 RMK AO2 PK WND 10044/0203 SLP983 P0000 60000 T11061128 50011 FZRANO,PAUN,2019-01-14T02:56:00Z,63.88,-160.8,-10.6,-12.8,90,35,43,1.5,29.471457,998.3,,TRUE,TRUE,,,,TRUE,,-SN BR,CLR,,,,,,,,IFR,1.1,,,,,0.005,0.005,,,,,METAR,6.0
KNGP 140256Z AUTO 08005KT 10SM CLR 12/08 A3036 RMK AO2 SLP281 T01220078 53018 $,KNGP,2019-01-14T02:56:00Z,27.68,-97.27,12.2,7.8,80,5,,10.0,30.360237,1028.1,,TRUE,TRUE,TRUE,,,,,,CLR,,,,,,,,VFR,1.8,,,,,,,,,,,METAR,6.0
KNOG 140256Z AUTO 06006KT 10SM CLR 09/04 A3038 RMK AO2 SLP269 T00890044 53024 $,KNOG,2019-01-14T02:56:00Z,27.9,-98.05,8.9,4.4,60,6,,10.0,30.380905,1026.9,,TRUE,TRUE,TRUE,,,,,,CLR,,,,,,,,VFR,2.4,,,,,,,,,,,SPECI,78.0
EGUL 140256Z AUTO 29009KT 9999 CLR 05/02 A2992 RMK AO2 SLP135 T00530023 52018 $,EGUL,2019-01-14T02:56:00Z,52.42,0.57,5.3,2.3,290,9,,6.21,29.920275,1013.5,,TRUE,TRUE,TRUE,,,,,,CLR,,,,,,,,VFR,1.8,,,,,,,,,,,SPECI,10.0
EGUN 140256Z 28011KT 9999 CLR 05/05 A2993 RMK AO2A SLP139 WND DATA ESTMD T00520052 52019 .,EGUN,2019-01-14T02:56:00Z,52.37,0.47,5.2,5.2,280,11,,6.21,29.929134,1013.9,,,TRUE,,,,,,,CLR,,,,,,,,VFR,1.9,,,,,,,,,,,SPECI,10.0
KHRT 140256Z 36009KT 10SM OVC025 10/05 A3025 RMK AO2A SLP245 T01010049 52014 $,KHRT,2019-01-14T02:56:00Z,30.42,-86.67,10.1,4.9,360,9,,10.0,30.250984,1024.5,,,TRUE,TRUE,,,,,,OVC,2500,,,,,,,MVFR,1.4,,,,,,,,,,,SPECI,12.0
EHVK 140256Z AUTO 30006KT 270V010 9999 -RA FEW008 FEW015CB BKN027 OVC034 06/05 Q1008 BLU,EHVK,2019-01-14T02:56:00Z,51.63,5.7,6.0,5.0,300,6,,6.21,29.763779,,,TRUE,,,,,,,-RA,FEW,800,FEW,1500,BKN,2700,OVC,3400,MVFR,,,,,,,,,,,,SPECI,21.0
OKAS 140256Z 12012KT 5000 HZ FEW130 SCT150 BKN250 15/05 A2987 RMK AO2A SLP114 WND DATA ESTMD T01480050 53002 PA +520,OKAS,2019-01-14T02:56:00Z,,,14.8,5.0,120,12,,3.11,29.870079,1011.4,,,TRUE,,,,,,HZ,FEW,13000,SCT,15000,BKN,25000,,,MVFR,0.2,,,,,,,,,,,METAR,
KDYR 140256Z AUTO 34008KT 10SM OVC012 02/00 A3037 RMK AO2 SLPNO T00170000 51010 FZRANO,KDYR,2019-01-14T02:56:00Z,36.0,-89.4,1.7,0.0,340,8,,10.0,30.369095,,,TRUE,TRUE,,,,TRUE,,,OVC,1200,,,,,,,MVFR,1.0,,,,,,,,,,,METAR,103.0
KDWU 140256Z AUTO 32003KT 9SM OVC015 00/M01 A3026 RMK AO2 SLP252 6//// T00001006 51009 FZRANO PNO $,KDWU,2019-01-14T02:56:00Z,38.55,-82.73,0.0,-0.6,320,3,,9.0,30.259842,1025.2,,TRUE,TRUE,TRUE,,,TRUE,,,OVC,1500,,,,,,,MVFR,0.9,,,,,,,,,,,METAR,166.0
KDVL 140256Z AUTO 36008KT 4SM BR OVC004 M07/M07 A3019 RMK AO2 SLP266 T10671072 53006 FZRANO,KDVL,2019-01-14T02:56:00Z,48.12,-98.92,-6.7,-7.2,360,8,,4.0,30.188976,1026.6,,TRUE,TRUE,,,,TRUE,,BR,OVC,400,,,,,,,LIFR,0.6,,,,,,,,,,,METAR,443.0
KDIJ 140256Z AUTO 00000KT 10SM CLR M12/M13 A3025 RMK AO2 SLP346 T11171128 50006,KDIJ,2019-01-14T02:56:00Z,43.75,-111.1,-11.7,-12.8,0,0,,10.0,30.250984,1034.6,,TRUE,TRUE,,,,,,,CLR,,,,,,,,VFR,0.6,,,,,,,,,,,METAR,1899.0
KCWI 140256Z AUTO 00000KT 10SM OVC020 M03/M06 A3042 RMK AO2 SLP332 T10281056 53000 FZRANO,KCWI,2019-01-14T02:56:00Z,41.82,-90.32,-2.8,-5.6,0,0,,10.0,30.41929,1033.2,,TRUE,TRUE,,,,TRUE,,,OVC,2000,,,,,,,MVFR,0.0,,,,,,,,,,,METAR,216.0
KPRN 140256Z AUTO 33007KT 10SM OVC022 08/02 A3026 RMK AO2 SLP248 T00780022 53015 $,KPRN,2019-01-14T02:56:00Z,31.85,-86.62,7.8,2.2,330,7,,10.0,30.259842,1024.8,,TRUE,TRUE,TRUE,,,,,,OVC,2200,,,,,,,MVFR,1.5,,,,,,,,,,,METAR,138.0
K79J 140256Z AUTO 33007KT 10SM OVC027 11/05 A3026 RMK AO2 SLP244 T01060050 51010,K79J,2019-01-14T02:56:00Z,31.32,-86.4,10.6,5.0,330,7,,10.0,30.259842,1024.4,,TRUE,TRUE,,,,,,,OVC,2700,,,,,,,MVFR,1.0,,,,,,,,,,,METAR,94.0
KGNA 140256Z AUTO 26009KT 01/M03 A3019 RMK AO1 SLP235 T00061028 56014 $,KGNA,2019-01-14T02:56:00Z,47.75,-90.35,0.6,-2.8,260,9,,,30.188976,1023.5,,TRUE,TRUE,TRUE,,,,,,,,,,,,,,,-1.4,,,,,,,,,,,METAR,185.0
KP53 140256Z AUTO 19009KT M07/M09 A3030 RMK AO1 SLP276 T10671094 58012,KP53,2019-01-14T02:56:00Z,46.42,-86.65,-6.7,-9.4,190,9,,,30.301182,1027.6,,TRUE,TRUE,,,,,,,,,,,,,,,,-1.2,,,,,,,,,,,METAR,187.0
K2WX 140256Z AUTO 28007KT M01/M06 A3011 RMK AO1 SLP236 T10061056 58000,K2WX,2019-01-14T02:56:00Z,45.6,-103.55,-0.6,-5.6,280,7,,,30.109253,1023.6,,TRUE,TRUE,,,,,,,,,,,,,,,,0.0,,,,,,,,,,,METAR,915.0
KP28 140256Z AUTO 32004KT M02/M04 A3045 RMK AO1 SLP329 T10221039 51006,KP28,2019-01-14T02:56:00Z,37.28,-98.55,-2.2,-3.9,320,4,,,30.448818,1032.9,,TRUE,TRUE,,,,,,,,,,,,,,,,0.6,,,,,,,,,,,METAR,469.0
KNMM 140256Z AUTO 31007KT 10SM OVC017 06/02 A3034 RMK AO2 SLP286 T00610022 51011 CHINO SOUTH VISNO SOUTH $,KNMM,2019-01-14T02:56:00Z,32.53,-88.57,6.1,2.2,310,7,,10.0,30.339567,1028.6,,TRUE,TRUE,TRUE,,,,,,OVC,1700,,,,,,,MVFR,1.1,,,,,,,,,,,METAR,97.0
KEEN 140256Z AUTO 00000KT 10SM CLR M13/M14 A3038 RMK AO2 SLP312 T11281144 55002 FZRANO $,KEEN,2019-01-14T02:56:00Z,42.88,-72.27,-12.8,-14.4,0,0,,10.0,30.380905,1031.2,,TRUE,TRUE,TRUE,,,TRUE,,,CLR,,,,,,,,VFR,-0.2,,,,,,,,,,,METAR,149.0
KNQI 140256Z AUTO 14003KT 10SM CLR 09/06 A3037 RMK AO2 SLP280 T00940061 53022,KNQI,2019-01-14T02:56:00Z,27.5,-97.82,9.4,6.1,140,3,,10.0,30.369095,1028.0,,TRUE,TRUE,,,,,,,CLR,,,,,,,,VFR,2.2,,,,,,,,,,,METAR,15.0
KALK 140256Z AUTO 10SM BKN055 09/02 A3016 RMK AO2 SLP167 T00940017 51013 $,KALK,2019-01-14T02:56:00Z,31.6,-110.43,9.4,1.7,,,,10.0,30.159449,1016.7,,TRUE,TRUE,TRUE,,,,,,BKN,5500,,,,,,,VFR,1.3,,,,,,,,,,,METAR,1453.0
KRYM 140256Z AUTO 20006KT 10SM OVC011 M01/M03 A3025 RMK AO2 SLP264 T10111031 57008 $,KRYM,2019-01-14T02:56:00Z,46.08,-94.37,-1.1,-3.1,200,6,,10.0,30.250984,1026.4,,TRUE,TRUE,TRUE,,,,,,OVC,1100,,,,,,,MVFR,-0.8,,,,,,,,,,,METAR,351.0
KBTP 140256Z AUTO 07005KT 10SM OVC033 M04/M06 A3024 RMK AO2 SLP262 6//// T10391061 53001 FZRANO,KBTP,2019-01-14T02:56:00Z,40.77,-79.95,-3.9,-6.1,70,5,,10.0,30.239174,1026.2,,TRUE,TRUE,,,,TRUE,,,OVC,3300,,,,,,,VFR,0.1,,,,,,,,,,,METAR,380.0
KBVX 140256Z AUTO 32004KT 10SM OVC018 02/M01 A3040 RMK AO2 SLP299 T00221011 51012 FZRANO,KBVX,2019-01-14T02:56:00Z,35.73,-91.65,2.2,-1.1,320,4,,10.0,30.398623,1029.9,,TRUE,TRUE,,,,TRUE,,,OVC,1800,,,,,,,MVFR,1.2,,,,,,,,,,,METAR,141.0
KMUI 140256Z AUTO 00000KT 10SM FEW065 OVC110 M01/M07 A3027 RMK AO2 SLPNO T10131074 53004 $,KMUI,2019-01-14T02:56:00Z,40.42,-76.57,-1.3,-7.4,0,0,,10.0,30.268702,,,TRUE,TRUE,TRUE,,,,,,FEW,6500,OVC,11000,,,,,VFR,0.4,,,,,,,,,,,METAR,149.0
KHOP 140256Z AUTO 33005KT 7SM OVC005 02/02 A3031 RMK AO2 SLPNO T00160016 52013 $,KHOP,2019-01-14T02:56:00Z,36.67,-87.5,1.6,1.6,330,5,,7.0,30.31004,,,TRUE,TRUE,TRUE,,,,,,OVC,500,,,,,,,IFR,1.3,,,,,,,,,,,METAR,174.0
KGUS 140256Z AUTO 00000KT 10SM CLR M09/M09 A3034 RMK AO2 SLP291 T10891091 52004 $,KGUS,2019-01-14T02:56:00Z,40.63,-86.15,-8.9,-9.1,0,0,,10.0,30.339567,1029.1,,TRUE,TRUE,TRUE,,,,,,CLR,,,,,,,,VFR,0.4,,,,,,,,,,,METAR,247.0
KGTB 140256Z AUTO 00000KT 10SM CLR M18/M20 A3039 RMK AO2 SLP311 T11771201 57008 VISNO RWY03 $,KGTB,2019-01-14T02:56:00Z,44.07,-75.72,-17.7,-20.1,0,0,,10.0,30.389763,1031.1,,TRUE,TRUE,TRUE,,,,,,CLR,,,,,,,,VFR,-0.8,,,,,,,,,,,METAR,207.0
KFTK 140256Z AUTO 34003KT 10SM OVC009 00/M01 A3030 RMK AO2 SLP270 T00021007 52014,KFTK,2019-01-14T02:56:00Z,37.88,-85.97,0.2,-0.7,340,3,,10.0,30.301182,1027.0,,TRUE,TRUE,,,,,,,OVC,900,,,,,,,IFR,1.4,,,,,,,,,,,METAR,230.0
PHBK 140256Z AUTO 35009KT 9SM CLR 26/19 A2999 RMK AO2 SLP159 T02610194 53001,PHBK,2019-01-14T02:56:00Z,22.03,-159.78,26.1,19.4,350,9,,9.0,29.991142,1015.9,,TRUE,TRUE,,,,,,,CLR,,,,,,,,VFR,0.1,,,,,,,,,,,SPECI,8.0
PHHI 140256Z AUTO 02005KT 10SM BKN030 OVC044 22/18 A3002 RMK AO2 DZB06E24 SLP159 P0000 60000 T02150183 53007 $,PHHI,2019-01-14T02:56:00Z,21.48,-158.05,21.5,18.3,20,5,,10.0,30.02067,1015.9,,TRUE,TRUE,TRUE,,,,,,BKN,3000,OVC,4400,,,,,MVFR,0.7,,,,,0.005,,,,,,SPECI,255.0
PAED 140256Z AUTO 03005KT 10SM OVC120 M05/M05 A2977 RMK AO2 SLP080 T10541055 50012,PAED,2019-01-14T02:56:00Z,61.25,-149.8,-5.4,-5.5,30,5,,10.0,29.769686,1008.0,,TRUE,TRUE,,,,,,,OVC,12000,,,,,,,VFR,1.2,,,,,,,,,,,METAR,59.0
KVAD 140256Z AUTO 35012G20KT 10SM OVC016 12/09 A3019 RMK AO2 SLP225 T01180094 52027 $,KVAD,2019-01-14T02:56:00Z,30.97,-83.2,11.8,9.4,350,12,20,10.0,30.188976,1022.5,,TRUE,TRUE,TRUE,,,,,,OVC,1600,,,,,,,MVFR,2.7,,,,,,,,,,,METAR,71.0
KMXF 140256Z AUTO 31005KT 10SM OVC025 08/04 A3027 RMK AO2 SLP254 T00830035 52015 $,KMXF,2019-01-14T02:56:00Z,32.37,-86.37,8.3,3.5,310,5,,10.0,30.268702,1025.4,,TRUE,TRUE,TRUE,,,,,,OVC,2500,,,,,,,MVFR,1.5,,,,,,,,,,,METAR,51.0
KLHW 140256Z AUTO 32005KT 10SM OVC013 10/08 A3018 RMK AO2 SLP223 T00990075 52014 $,KLHW,2019-01-14T02:56:00Z,31.87,-81.57,9.9,7.5,320,5,,10.0,30.180119,1022.3,,TRUE,TRUE,TRUE,,,,,,OVC,1300,,,,,,,MVFR,1.4,,,,,,,,,,,METAR,14.0
KHST 140256Z AUTO 27003KT 10SM CLR 21/18 A3015 RMK AO2 SLP213 T02050181 52012 FZRANO $,KHST,2019-01-14T02:56:00Z,25.47,-80.37,20.5,18.1,270,3,,10.0,30.15059,1021.3,,TRUE,TRUE,TRUE,,,TRUE,,,CLR,,,,,,,,VFR,1.2,,,,,,,,,,,METAR,2.0
KHFF 140256Z AUTO 36008KT 10SM OVC008 02/00 A3019 RMK AO2 SLP242 T00170003 52013,KHFF,2019-01-14T02:56:00Z,35.02,-79.5,1.7,0.3,360,8,,10.0,30.188976,1024.2,,TRUE,TRUE,,,,,,,OVC,800,,,,,,,IFR,1.3,,,,,,,,,,,METAR,115.0
KEND 140256Z AUTO 02006KT 10SM OVC014 00/M01 A3045 RMK AO2 SLP326 T10031013 51007 $,KEND,2019-01-14T02:56:00Z,36.32,-97.92,-0.3,-1.3,20,6,,10.0,30.448818,1032.6,,TRUE,TRUE,TRUE,,,,,,OVC,1400,,,,,,,MVFR,0.7,,,,,,,,,,,METAR,398.0
KDAA 140256Z AUTO 02006KT 9SM -SN FEW009 FEW013 OVC044 M01/M04 A3028 RMK AO2 UPE0157SNB0157E45UPB45E48SNB48 SLP258 P0002 60007 T10141038 52010 $,KDAA,2019-01-14T02:56:00Z,38.72,-77.17,-1.4,-3.8,20,6,,9.0,30.280512,1025.8,,TRUE,TRUE,TRUE,,,,,-SN,FEW,900,FEW,1300,OVC,4400,,,VFR,1.0,,,,,0.02,0.07,,,,,METAR,21.0
KINW 140256Z AUTO 13004KT 10SM OVC015 01/M01 A3022 RMK AO2 SLP244 T00111006 53014,KINW,2019-01-14T02:56:00Z,35.03,-110.72,1.1,-0.6,130,4,,10.0,30.221457,1024.4,,TRUE,TRUE,,,,,,,OVC,1500,,,,,,,MVFR,1.4,,,,,,,,,,,METAR,1490.0
KIMS 140256Z AUTO 33005KT 10SM OVC010 00/M01 A3031 RMK AO1,KIMS,2019-01-14T02:56:00Z,38.75,-85.47,0.0,-1.0,330,5,,10.0,30.31004,,,TRUE,TRUE,,,,,,,OVC,1000,,,,,,,MVFR,,,,,,,,,,,,METAR,250.0
KHYX 140256Z AUTO 00000KT 10SM CLR M07/M10 A3039 RMK AO2,KHYX,2019-01-14T02:56:00Z,43.43,-83.87,-7.0,-10.0,0,0,,10.0,30.389763,,,TRUE,TRUE,,,,,,,CLR,,,,,,,,VFR,,,,,,,,,,,,METAR,183.0
KHYA 140256Z 04007KT 10SM OVC025 M01/M06 A3031 RMK AO2 SLP266 T10061061 58012,KHYA,2019-01-14T02:56:00Z,41.67,-70.27,-0.6,-6.1,40,7,,10.0,30.31004,1026.6,,,TRUE,,,,,,,OVC,2500,,,,,,,MVFR,-1.2,,,,,,,,,,,METAR,22.0
KHWV 140256Z AUTO 03007KT 010V070 10SM OVC019 M03/M07 A3031 RMK AO2 SLP264 T10281072 56007,KHWV,2019-01-14T02:56:00Z,40.82,-72.87,-2.8,-7.2,30,7,,10.0,30.31004,1026.4,,TRUE,TRUE,,,,,,,OVC,1900,,,,,,,MVFR,-0.7,,,,,,,,,,,METAR,21.0
KHCD 140256Z AUTO 20005KT 10SM BKN017 00/M02 A3029 RMK AO2 T00001020,KHCD,2019-01-14T02:56:00Z,44.87,-94.38,0.0,-2.0,200,5,,10.0,30.28937,,,TRUE,TRUE,,,,,,,BKN,1700,,,,,,,MVFR,,,,,,,,,,,,METAR,323.0
KGRD 140256Z AUTO 00000KT 2 1/2SM BR OVC004 04/04 A3020 RMK AO2 SLP231 T00390039 51011,KGRD,2019-01-14T02:56:00Z,34.25,-82.15,3.9,3.9,0,0,,2.5,30.200787,1023.1,,TRUE,TRUE,,,,,,BR,OVC,400,,,,,,,LIFR,1.1,,,,,,,,,,,METAR,185.0
KGON 140256Z 05009KT 10SM OVC019 M03/M07 A3034 RMK AO2 SLP272 T10331072 58007,KGON,2019-01-14T02:56:00Z,41.33,-72.05,-3.3,-7.2,50,9,,10.0,30.339567,1027.2,,,TRUE,,,,,,,OVC,1900,,,,,,,MVFR,-0.7,,,,,,,,,,,METAR,3.0
KFSD 140256Z 20009KT 10SM SCT015 M01/M03 A3027 RMK AO2 SLP271 T10111033 58010,KFSD,2019-01-14T02:56:00Z,43.58,-96.75,-1.1,-3.3,200,9,,10.0,30.268702,1027.1,,,TRUE,,,,,,,SCT,1500,,,,,,,VFR,-1.0,,,,,,,,,,,METAR,436.0
KFGN 140256Z AUTO 24005KT 7SM OVC004 M06/M07 A3018 RMK AO2,KFGN,2019-01-14T02:56:00Z,49.32,-94.9,-6.0,-7.0,240,5,,7.0,30.180119,,,TRUE,TRUE,,,,,,,OVC,400,,,,,,,LIFR,,,,,,,,,,,,METAR,328.0
KMDT 140256Z 00000KT 10SM OVC070 M01/M05 A3028 RMK AO2 SLP258 T10061050 53004 $,KMDT,2019-01-14T02:56:00Z,40.2,-76.77,-0.6,-5.0,0,0,,10.0,30.280512,1025.8,,,TRUE,TRUE,,,,,,OVC,7000,,,,,,,VFR,0.4,,,,,,,,,,,METAR,95.0
KLWS 140256Z AUTO 26007KT 10SM CLR M02/M04 A3032 RMK AO2 SLP287 T10171039 51008,KLWS,2019-01-14T02:56:00Z,46.37,-117.02,-1.7,-3.9,260,7,,10.0,30.318897,1028.7,,TRUE,TRUE,,,,,,,CLR,,,,,,,,VFR,0.8,,,,,,,,,,,METAR,438.0
KLNR 140256Z AUTO 00000KT 10SM OVC020 M02/M06 A3040 RMK AO2 SLP300 T10221061 57002,KLNR,2019-01-14T02:56:00Z,43.22,-90.18,-2.2,-6.1,0,0,,10.0,30.398623,1030.0,,TRUE,TRUE,,,,,,,OVC,2000,,,,,,,MVFR,-0.2,,,,,,,,,,,METAR,217.0
KLJF 140256Z AUTO 23005KT 10SM OVC014 01/M02 A3027 RMK AO2,KLJF,2019-01-14T02:56:00Z,45.1,-94.52,1.0,-2.0,230,5,,10.0,30.268702,,,TRUE,TRUE,,,,,,,OVC,1400,,,,,,,MVFR,,,,,,,,,,,,METAR,348.0
KLAS 140256Z 00000KT 10SM FEW100 SCT250 11/M04 A3012 RMK AO2 SLP202 T01061044 53009,KLAS,2019-01-14T02:56:00Z,36.07,-115.17,10.6,-4.4,0,0,,10.0,30.121063,1020.2,,,TRUE,,,,,,,FEW,10000,SCT,25000,,,,,VFR,0.9,,,,,,,,,,,METAR,636.0
KJXN 140256Z AUTO 03003KT 10SM CLR M06/M09 A3034 RMK AO2 SLP288 T10611094 50000,KJXN,2019-01-14T02:56:00Z,42.27,-84.47,-6.1,-9.4,30,3,,10.0,30.339567,1028.8,,TRUE,TRUE,,,,,,,CLR,,,,,,,,VFR,0.0,,,,,,,,,,,METAR,305.0
KJMS 140256Z AUTO 29004KT 7SM OVC004 M04/M05 A3017 RMK AO2 SLP244 T10391050 50004,KJMS,2019-01-14T02:56:00Z,46.93,-98.67,-3.9,-5.0,290,4,,7.0,30.171259,1024.4,,TRUE,TRUE,,,,,,,OVC,400,,,,,,,LIFR,0.4,,,,,,,,,,,METAR,455.0
KJAX 140256Z 05004KT 10SM FEW025 13/12 A3015 RMK AO2 SLP211 T01330122 53022,KJAX,2019-01-14T02:56:00Z,30.5,-81.68,13.3,12.2,50,4,,10.0,30.15059,1021.1,,,TRUE,,,,,,,FEW,2500,,,,,,,VFR,2.2,,,,,,,,,,,METAR,10.0
KISQ 140256Z AUTO 26003KT 10SM OVC019 M06/M10 A3033 RMK AO2 T10581100,KISQ,2019-01-14T02:56:00Z,45.97,-86.17,-5.8,-10.0,260,3,,10.0,30.33071,,,TRUE,TRUE,,,,,,,OVC,1900,,,,,,,MVFR,,,,,,,,,,,,METAR,209.0
KISP 140256Z 05010G19KT 10SM BKN021 BKN130 OVC170 M03/M07 A3030 RMK AO2 SLP260 T10281072 56006 $,KISP,2019-01-14T02:56:00Z,40.8,-73.1,-2.8,-7.2,50,10,19,10.0,30.301182,1026.0,,,TRUE,TRUE,,,,,,BKN,2100,BKN,13000,OVC,17000,,,MVFR,-0.6,,,,,,,,,,,METAR,43.0
KXNO 140256Z AUTO 33006KT 10SM OVC003 06/06 A3019 RMK AO2 SLP228 T00570057 52014 $,KXNO,2019-01-14T02:56:00Z,33.62,-81.07,5.7,5.7,330,6,,10.0,30.188976,1022.8,,TRUE,TRUE,TRUE,,,,,,OVC,300,,,,,,,LIFR,1.4,,,,,,,,,,,METAR,98.0
KSVN 140256Z AUTO 31005KT 10SM OVC013 09/07 A3017 RMK AO2 CIG 012 RWY28 SLP220 T00920068 52014 FZRANO $,KSVN,2019-01-14T02:56:00Z,32.02,-81.15,9.2,6.8,310,5,,10.0,30.171259,1022.0,,TRUE,TRUE,TRUE,,,TRUE,,,OVC,1300,,,,,,,MVFR,1.4,,,,,,,,,,,METAR,13.0
KLTS 140256Z AUTO 04008KT 10SM BKN012 OVC100 00/M03 A3045 RMK AO2 SLP322 T00041030 52009 $,KLTS,2019-01-14T02:56:00Z,34.67,-99.27,0.4,-3.0,40,8,,10.0,30.448818,1032.2,,TRUE,TRUE,TRUE,,,,,,BKN,1200,OVC,10000,,,,,MVFR,0.9,,,,,,,,,,,METAR,420.0
KLRF 140256Z AUTO 33005KT 10SM OVC022 04/00 A3040 RMK AO2 SLP299 T00371005 52013 $,KLRF,2019-01-14T02:56:00Z,34.92,-92.15,3.7,-0.5,330,5,,10.0,30.398623,1029.9,,TRUE,TRUE,TRUE,,,,,,OVC,2200,,,,,,,MVFR,1.3,,,,,,,,,,,METAR,95.0
KFBG 140256Z AUTO 34006KT 10SM OVC006 02/02 A3018 RMK AO2 SLP225 T00180017 52014,KFBG,2019-01-14T02:56:00Z,35.12,-78.92,1.8,1.7,340,6,,10.0,30.180119,1022.5,,TRUE,TRUE,,,,,,,OVC,600,,,,,,,IFR,1.4,,,,,,,,,,,METAR,74.0
KBIX 140256Z AUTO 02011G18KT 10SM OVC021 08/03 A3031 RMK AO2 SLP267 T00780031 52015,KBIX,2019-01-14T02:56:00Z,30.42,-88.92,7.8,3.1,20,11,18,10.0,30.31004,1026.7,,TRUE,TRUE,,,,,,,OVC,2100,,,,,,,MVFR,1.5,,,,,,,,,,,METAR,10.0
KVPS 140256Z AUTO 36011KT 10SM OVC025 10/05 A3025 RMK AO2 SLP250 T01020046 52015 VISNO RWY12 $,KVPS,2019-01-14T02:56:00Z,30.47,-86.52,10.2,4.6,360,11,,10.0,30.250984,1025.0,,TRUE,TRUE,TRUE,,,,,,OVC,2500,,,,,,,MVFR,1.5,,,,,,,,,,,METAR,26.0
KTTS 140256Z AUTO 29003KT 10SM FEW055 FEW075 19/16 A3012 RMK AO2 SLP204 T01920164 52010 $,KTTS,2019-01-14T02:56:00Z,28.62,-80.72,19.2,16.4,290,3,,10.0,30.121063,1020.4,,TRUE,TRUE,TRUE,,,,,,FEW,5500,FEW,7500,,,,,VFR,1.0,,,,,,,,,,,METAR,3.0
KTIK 140256Z AUTO 02008KT 10SM OVC013 00/M02 A3043 RMK AO2 CIG 012 RWY13 SLP324 60000 T00041023 50006 $,KTIK,2019-01-14T02:56:00Z,35.42,-97.37,0.4,-2.3,20,8,,10.0,30.431103,1032.4,,TRUE,TRUE,TRUE,,,,,,OVC,1300,,,,,,,MVFR,0.6,,,,,,0.005,,,,,METAR,394.0
KTBN 140256Z AUTO 34005KT 6SM BR OVC006 M01/M01 A3040 RMK AO2 CIG 005 RWY32 SLP310 60000 T10131014 52010,KTBN,2019-01-14T02:56:00Z,37.72,-92.12,-1.3,-1.4,340,5,,6.0,30.398623,1031.0,,TRUE,TRUE,,,,,,BR,OVC,600,,,,,,,IFR,1.0,,,,,,0.005,,,,,METAR,353.0
KSSC 140256Z AUTO 35005KT 10SM SCT009 BKN023 05/04 A3018 RMK AO2 CIG 016V023 CIG 007 RWY22 SLP223 T00540036 51012 TSNO $,KSSC,2019-01-14T02:56:00Z,33.97,-80.47,5.4,3.6,350,5,,10.0,30.180119,1022.3,,TRUE,TRUE,TRUE,,TRUE,,,,SCT,900,BKN,2300,,,,,MVFR,1.2,,,,,,,,,,,METAR,74.0
KSKF 140256Z AUTO 07008KT 10SM CLR 09/03 A3037 RMK AO2 SLP287 T00850031 52023,KSKF,2019-01-14T02:56:00Z,29.37,-98.57,8.5,3.1,70,8,,10.0,30.369095,1028.7,,TRUE,TRUE,,,,,,,CLR,,,,,,,,VFR,2.3,,,,,,,,,,,METAR,210.0
KRND 140256Z AUTO 06008KT 10SM CLR 07/03 A3039 RMK AO2 SLP295 T00730026 52022,KRND,2019-01-14T02:56:00Z,29.52,-98.27,7.3,2.6,60,8,,10.0,30.389763,1029.5,,TRUE,TRUE,,,,,,,CLR,,,,,,,,VFR,2.2,,,,,,,,,,,METAR,232.0
KRCA 140256Z AUTO 30005KT 10SM CLR M03/M03 A3014 RMK AO2 SLP258 T10311031 50000 FZRANO $,KRCA,2019-01-14T02:56:00Z,44.13,-103.08,-3.1,-3.1,300,5,,10.0,30.138779,1025.8,,TRUE,TRUE,TRUE,,,TRUE,,,CLR,,,,,,,,VFR,0.0,,,,,,,,,,,METAR,999.0
KOZR 140256Z AUTO 33005KT 10SM OVC029 09/05 A3024 RMK AO2 SLP243 T00930049 52010,KOZR,2019-01-14T02:56:00Z,31.28,-85.72,9.3,4.9,330,5,,10.0,30.239174,1024.3,,TRUE,TRUE,,,,,,,OVC,2900,,,,,,,MVFR,1.0,,,,,,,,,,,METAR,93.0
KEGI 140256Z AUTO 35010KT 10SM OVC023 10/05 A3025 RMK AO2 SLP245 T00970049 52015 $,KEGI,2019-01-14T02:56:00Z,30.63,-86.52,9.7,4.9,350,10,,10.0,30.250984,1024.5,,TRUE,TRUE,TRUE,,,,,,OVC,2300,,,,,,,MVFR,1.5,,,,,,,,,,,SPECI,59.0
KGNR 140256Z AUTO 34010KT M16/M20 A3028 RMK AO1 SLP295 T11611200 55002,KGNR,2019-01-14T02:56:00Z,45.47,-69.55,-16.1,-20.0,340,10,,,30.280512,1029.5,,TRUE,TRUE,,,,,,,,,,,,,,,,-0.2,,,,,,,,,,,METAR,427.0
KQAZ 140256Z AUTO 00000KT 9999 CLR 12/M12 A2998 RMK AO2 SLPNO WND DATA ESTMD T01221119 57011,KQAZ,2019-01-14T02:56:00Z,,,12.2,-11.9,0,0,,6.21,29.97933,,,TRUE,TRUE,,,,,,,CLR,,,,,,,,VFR,-1.1,,,,,,,,,,,SPECI,
PMDY 140256Z AUTO 24012KT CLR 23/17 A2989 RMK AO2 SLP120 T02330167 55003 PWINO $,PMDY,2019-01-14T02:56:00Z,28.22,-177.37,23.3,16.7,240,12,,,29.890747,1012.0,,TRUE,TRUE,TRUE,,,,TRUE,,CLR,,,,,,,,,-0.3,,,,,,,,,,,SPECI,4.0
PHNY 140256Z AUTO 26007KT 10SM SCT025 BKN040 23/16 A3006 RMK AO2 SLP161 T02280161 53006,PHNY,2019-01-14T02:56:00Z,20.77,-156.93,22.8,16.1,260,7,,10.0,30.059055,1016.1,,TRUE,TRUE,,,,,,,SCT,2500,BKN,4000,,,,,VFR,0.6,,,,,,,,,,,SPECI,399.0
PATG 140256Z AUTO 10018KT 10SM BKN039 BKN060 02/M01 A2923 RMK AO2 PK WND 11026/0211 SLP990 T00171006 51022 FZRANO,PATG,2019-01-14T02:56:00Z,59.05,-160.38,1.7,-0.6,100,18,,10.0,29.22933,999.0,,TRUE,TRUE,,,,TRUE,,,BKN,3900,BKN,6000,,,,,VFR,2.2,,,,,,,,,,,METAR,4.0
PASX 140256Z AUTO 09013KT 10SM CLR 04/M01 A2973 RMK AO2 SLP078 T00441006 53006,PASX,2019-01-14T02:56:00Z,60.48,-151.03,4.4,-0.6,90,13,,10.0,29.731298,1007.8,,TRUE,TRUE,,,,,,,CLR,,,,,,,,VFR,0.6,,,,,,,,,,,METAR,32.0
PASD 140256Z 14018G29KT 9SM BKN028 BKN037 OVC046 05/02 A2915 RMK AO2 PK WND 15029/0249 SLP874 6//// T00500017 53030 PNO $,PASD,2019-01-14T02:56:00Z,55.33,-160.5,5.0,1.7,140,18,29,9.0,29.149607,987.4,,,TRUE,TRUE,,,,,,BKN,2800,BKN,3700,OVC,4600,,,MVFR,3.0,,,,,,,,,,,METAR,7.0
PARC 140256Z AUTO 4SM HZ CLR A2988 RMK AO2 SLPNO 53003 FZRANO $,PARC,2019-01-14T02:56:00Z,68.12,-145.58,,,,,,4.0,29.878937,,,TRUE,TRUE,TRUE,,,TRUE,,HZ,CLR,,,,,,,,MVFR,0.3,,,,,,,,,,,METAR,636.0
PAPO 140256Z AUTO 01011KT 10SM BKN075 OVC090 M17/M18 A2973 RMK AO2 SLP068 T11671183 58013 FZRANO,PAPO,2019-01-14T02:56:00Z,68.35,-166.8,-16.7,-18.3,10,11,,10.0,29.731298,1006.8,,TRUE,TRUE,,,,TRUE,,,BKN,7500,OVC,9000,,,,,VFR,-1.3,,,,,,,,,,,METAR,6.0
PAPM 140256Z AUTO 11022G30KT 10SM FEW060 02/M01 A2913 RMK AO2 PK WND 11030/0255 SLP866 T00221011 51018 FZRANO,PAPM,2019-01-14T02:56:00Z,59.02,-161.82,2.2,-1.1,110,22,30,10.0,29.128937,986.6,,TRUE,TRUE,,,,TRUE,,,FEW,6000,,,,,,,VFR,1.8,,,,,,,,,,,METAR,5.0
PAPH 140256Z AUTO 16015KT 10SM CLR 02/M01 A2925 RMK AO2 PK WND 16026/0227 SLP909 60000 T00221011 53037 FZRANO,PAPH,2019-01-14T02:56:00Z,56.95,-158.62,2.2,-1.1,160,15,,10.0,29.25,990.9,,TRUE,TRUE,,,,TRUE,,,CLR,,,,,,,,VFR,3.7,,,,,,0.005,,,,,METAR,29.0
PAPG 140256Z 02003KT 7SM -RA FEW012 BKN032 OVC040 05/04 A3005 RMK AO2 SLP179 P0003 60015 T00500039 58001,PAPG,2019-01-14T02:56:00Z,56.82,-132.97,5.0,3.9,20,3,,7.0,30.050198,1017.9,,,TRUE,,,,,,-RA,FEW,1200,BKN,3200,OVC,4000,,,VFR,-0.1,,,,,0.03,0.15,,,,,METAR,15.0
PANW 140256Z AUTO 11009KT 10SM CLR 02/01 A2940 RMK AO2 SLP973 60001 T00170006 53025 FZRANO,PANW,2019-01-14T02:56:00Z,59.45,-157.37,1.7,0.6,110,9,,10.0,29.40059,997.3,,TRUE,TRUE,,,,TRUE,,,CLR,,,,,,,,VFR,2.5,,,,,,0.01,,,,,METAR,92.0
PAMM 140256Z AUTO 12011G16KT 080V170 10SM -RA SCT026 BKN037 OVC047 09/06 A3006 RMK AO2 SLP170 P0003 60008 T00940061 58003,PAMM,2019-01-14T02:56:00Z,55.13,-131.58,9.4,6.1,120,11,16,10.0,30.059055,1017.0,,TRUE,TRUE,,,,,,-RA,SCT,2600,BKN,3700,OVC,4700,,,VFR,-0.3,,,,,0.03,0.08,,,,,METAR,1.0
PAMK 140256Z AUTO 11023KT 7SM OVC075 M06/M08 A2933 RMK AO2 PK WND 10031/0224 SNB21E47 SLP935 P0000 60000 T10561078 53015 FZRANO,PAMK,2019-01-14T02:56:00Z,63.48,-162.12,-5.6,-7.8,110,23,,7.0,29.329725,993.5,,TRUE,TRUE,,,,TRUE,,,OVC,7500,,,,,,,VFR,1.5,,,,,0.005,0.005,,,,,METAR,28.0
PAMH 140256Z AUTO 00000KT 10SM CLR M20/M23 A2977 RMK AO2 SLP837 T12001228 53006 FZRANO,PAMH,2019-01-14T02:56:00Z,63.9,-152.32,-20.0,-22.8,0,0,,10.0,29.769686,983.7,,TRUE,TRUE,,,,TRUE,,,CLR,,,,,,,,VFR,0.6,,,,,,,,,,,METAR,214.0
PAMB 140256Z AUTO 13018G25KT 10SM FEW110 02/M01 A2930 RMK AO2 SLP930 T00221011 53029 FZRANO $,PAMB,2019-01-14T02:56:00Z,58.98,-159.05,2.2,-1.1,130,18,25,10.0,29.300198,993.0,,TRUE,TRUE,TRUE,,,TRUE,,,FEW,11000,,,,,,,VFR,2.9,,,,,,,,,,,METAR,16.0
KNPA 140256Z AUTO 35010KT 10SM OVC028 10/05 A3027 RMK AO2 SLP251 T01000050 51014,KNPA,2019-01-14T02:56:00Z,30.35,-87.32,10.0,5.0,350,10,,10.0,30.268702,1025.1,,TRUE,TRUE,,,,,,,OVC,2800,,,,,,,MVFR,1.4,,,,,,,,,,,SPECI,9.0
KNLC 140256Z 15004KT 10SM BKN120 OVC200 11/07 A3000 RMK AO2 SLP159 RH/80 T01060072 53007 $,KNLC,2019-01-14T02:56:00Z,36.32,-119.95,10.6,7.2,150,4,,10.0,30.0,1015.9,,,TRUE,TRUE,,,,,,BKN,12000,OVC,20000,,,,,VFR,0.7,,,,,,,,,,,METAR,72.0
ROTM 140256Z 01007KT 10SM FEW030 SCT050 22/11 A3015 RMK AO2 SLP196 STNPR29845 T02170111 58012 $,ROTM,2019-01-14T02:56:00Z,26.27,127.75,21.7,11.1,10,7,,10.0,30.15059,1019.6,,,TRUE,TRUE,,,,,,FEW,3000,SCT,5000,,,,,VFR,-1.2,,,,,,,,,,,SPECI,75.0
K8D3 140256Z AUTO 23006KT M02/M04 A3020 RMK AO1 SLP253 T10221039 56011,K8D3,2019-01-14T02:56:00Z,45.67,-96.98,-2.2,-3.9,230,6,,,30.200787,1025.3,,TRUE,TRUE,,,,,,,,,,,,,,,,-1.1,,,,,,,,,,,METAR,354.0
KNXP 140256Z AUTO 14006KT 10SM CLR 09/05 A3018 RMK AO2 SLP206 T00940050 53014,KNXP,2019-01-14T02:56:00Z,34.28,-116.17,9.4,5.0,140,6,,10.0,30.180119,1020.6,,TRUE,TRUE,,,,,,,CLR,,,,,,,,VFR,1.4,,,,,,,,,,,METAR,626.0
KNFE 140256Z AUTO 35014G25KT 7SM -RA OVC007 04/03 A3009 RMK AO2 PK WND 35026/0225 CIG 006V012 SLP192 P0000 60002 T00440028 51012,KNFE,2019-01-14T02:56:00Z,36.7,-76.13,4.4,2.8,350,14,25,7.0,30.088583,1019.2,,TRUE,TRUE,,,,,,-RA,OVC,700,,,,,,,IFR,1.2,,,,,0.005,0.02,,,,,METAR,5.0
ETIK 140256Z AUTO 28013G21KT 9999 OVC028 05/03 A2962 RMK AO2 SLP040 T00500029 52022 $,ETIK,2019-01-14T02:56:00Z,49.47,10.37,5.0,2.9,280,13,21,6.21,29.619095,1004.0,,TRUE,TRUE,TRUE,,,,,,OVC,2800,,,,,,,MVFR,2.2,,,,,,,,,,,METAR,325.0
ETIC 140256Z AUTO 28012G24KT 9999 FEW020 BKN030 04/02 A2949 RMK AO2 PK WND 29027/14 DZB07E14RAB14E25DZB25E26 SLP003 P0000 60000 T00430022 52020 $,ETIC,2019-01-14T02:56:00Z,49.7,11.93,4.3,2.2,280,12,24,6.21,29.489174,1000.3,,TRUE,TRUE,TRUE,,,,,,FEW,2000,BKN,3000,,,,,MVFR,2.0,,,,,0.005,0.005,,,,,METAR,415.0
ETEB 140256Z AUTO 29013G21KT 9999 OVC021 04/02 A2959 RMK AO2 OVC V BKN SLP048 T00420016 52022 $,ETEB,2019-01-14T02:56:00Z,49.32,10.62,4.2,1.6,290,13,21,6.21,29.589567,1004.8,,TRUE,TRUE,TRUE,,,,,,OVC,2100,,,,,,,MVFR,2.2,,,,,,,,,,,METAR,467.0
ETAD 140256Z AUTO 24006KT 9999 OVC019 04/02 A2976 RMK AO2 RAB02E15 OVC V BKN SLP077 P0000 60000 T00390024 52024 $,ETAD,2019-01-14T02:56:00Z,49.98,6.7,3.9,2.4,240,6,,6.21,29.760826,1007.7,,TRUE,TRUE,TRUE,,,,,,OVC,1900,,,,,,,MVFR,2.4,,,,,0.005,,,,,,SPECI,365.0
KSLG 140256Z AUTO 34008KT 2 1/2SM -SN BR OVC007 M01/M01 A3043 RMK AO2 UPB41E48SNB48 SLP314 P0000 6//// T10061011 51005 FZRANO,KSLG,2019-01-14T02:56:00Z,36.2,-94.47,-0.6,-1.1,340,8,,2.5,30.431103,1031.4,,TRUE,TRUE,,,,TRUE,,-SN BR,OVC,700,,,,,,,IFR,0.5,,,,,0.005,,,,,,METAR,300.0
KSKX 140256Z AUTO 35003KT 10SM OVC019 M04/M06 A3028 RMK AO2 SNE04 SLP298 P0000 60000 T10441056 51014 FZRANO $,KSKX,2019-01-14T02:56:00Z,36.45,-105.67,-4.4,-5.6,350,3,,10.0,30.280512,1029.8,,TRUE,TRUE,TRUE,,,TRUE,,,OVC,1900,,,,,,,MVFR,1.4,,,,,0.005,0.005,,,,,METAR,2161.0
KSGU 140256Z AUTO 00000KT 10SM BKN095 06/M04 A3021 RMK AO2 SLP240 T00561039,KSGU,2019-01-14T02:56:00Z,37.07,-113.52,5.6,-3.9,0,0,,10.0,30.209646,1024.0,,TRUE,TRUE,,,,,,,BKN,9500,,,,,,,VFR,,,,,,,,,,,,METAR,896.0
KSGT 140256Z AUTO 36008KT 10SM OVC026 04/01 A3040 RMK AO2 SLP298 T00390011 51011,KSGT,2019-01-14T02:56:00Z,34.6,-91.57,3.9,1.1,360,8,,10.0,30.398623,1029.8,,TRUE,TRUE,,,,,,,OVC,2600,,,,,,,MVFR,1.1,,,,,,,,,,,METAR,68.0
KSGH 140256Z AUTO 01008KT 10SM OVC009 M02/M03 A3027 RMK AO2 SLP266 T10221033 52013,KSGH,2019-01-14T02:56:00Z,39.83,-83.83,-2.2,-3.3,10,8,,10.0,30.268702,1026.6,,TRUE,TRUE,,,,,,,OVC,900,,,,,,,IFR,1.3,,,,,,,,,,,METAR,321.0
KSFZ 140256Z AUTO 02005KT 10SM OVC017 M06/M08 A3034 RMK AO2 SLP224 T10561083 56006 FZRANO,KSFZ,2019-01-14T02:56:00Z,41.92,-71.5,-5.6,-8.3,20,5,,10.0,30.339567,1022.4,,TRUE,TRUE,,,,TRUE,,,OVC,1700,,,,,,,MVFR,-0.6,,,,,,,,,,,METAR,134.0
KSFM 140256Z AUTO 26003KT 10SM CLR M14/M16 A3039 RMK AO2 SLP301 6//// T11391156 56003 FZRANO PNO $,KSFM,2019-01-14T02:56:00Z,43.38,-70.72,-13.9,-15.6,260,3,,10.0,30.389763,1030.1,,TRUE,TRUE,TRUE,,,TRUE,,,CLR,,,,,,,,VFR,-0.3,,,,,,,,,,,METAR,74.0
KSDY 140256Z AUTO 33004KT 10SM CLR M04/M06 A3018 RMK AO2 SLP261 T10441056 51003 FZRANO,KSDY,2019-01-14T02:56:00Z,47.7,-104.2,-4.4,-5.6,330,4,,10.0,30.180119,1026.1,,TRUE,TRUE,,,,TRUE,,,CLR,,,,,,,,VFR,0.3,,,,,,,,,,,METAR,605.0
KRUT 140256Z AUTO 12007KT 10SM CLR M18/M20 A3039 RMK AO2 SLP315 T11781200 58006 FZRANO $,KRUT,2019-01-14T02:56:00Z,43.52,-72.95,-17.8,-20.0,120,7,,10.0,30.389763,1031.5,,TRUE,TRUE,TRUE,,,TRUE,,,CLR,,,,,,,,VFR,-0.6,,,,,,,,,,,METAR,240.0
KRKD 140256Z AUTO 00000KT 10SM CLR M14/M16 A3041 RMK AO2 SLP299 T11391156 58002 FZRANO,KRKD,2019-01-14T02:56:00Z,44.07,-69.08,-13.9,-15.6,0,0,,10.0,30.410433,1029.9,,TRUE,TRUE,,,,TRUE,,,CLR,,,,,,,,VFR,-0.2,,,,,,,,,,,METAR,17.0
KPWT 140256Z AUTO 00000KT 10SM CLR 03/01 A3012 RMK AO2 SLP219 T00280006 56001,KPWT,2019-01-14T02:56:00Z,47.5,-122.75,2.8,0.6,0,0,,10.0,30.121063,1021.9,,TRUE,TRUE,,,,,,,CLR,,,,,,,,VFR,-0.1,,,,,,,,,,,METAR,147.0
KPWG 140256Z AUTO 02008KT 10SM CLR 02/00 A3044 RMK AO2 SLP327 T00220000 51015 FZRANO,KPWG,2019-01-14T02:56:00Z,31.47,-97.32,2.2,0.0,20,8,,10.0,30.43996,1032.7,,TRUE,TRUE,,,,TRUE,,,CLR,,,,,,,,VFR,1.5,,,,,,,,,,,METAR,180.0
PAOH 140256Z AUTO 09004KT 10SM -RA OVC008 02/02 A3002 RMK AO2 RAE16B46UPB22E46 SLP165 P0001 60003 T00220022 50000 FZRANO,PAOH,2019-01-14T02:56:00Z,58.1,-135.45,2.2,2.2,90,4,,10.0,30.02067,1016.5,,TRUE,TRUE,,,,TRUE,,-RA,OVC,800,,,,,,,IFR,0.0,,,,,0.01,0.03,,,,,METAR,9.0
PANA 140256Z AUTO 11009KT 10SM FEW031 01/01 A2920 RMK AO2 SLP888 60000 T00110006 53025 FZRANO,PANA,2019-01-14T02:56:00Z,60.68,-161.98,1.1,0.6,110,9,,10.0,29.199802,988.8,,TRUE,TRUE,,,,TRUE,,,FEW,3100,,,,,,,VFR,2.5,,,,,,0.005,,,,,METAR,5.0
PAHX 140256Z AUTO 03017KT 10SM SCT055 BKN070 OVC090 M13/M15 A2946 RMK AO2 SNB18E29 SLP979 P0000 60000 T11281150 53010 FZRANO,PAHX,2019-01-14T02:56:00Z,62.7,-159.57,-12.8,-15.0,30,17,,10.0,29.459646,997.9,,TRUE,TRUE,,,,TRUE,,,SCT,5500,BKN,7000,OVC,9000,,,VFR,1.0,,,,,0.005,0.005,,,,,METAR,24.0
KYKN 140256Z AUTO 17006KT 10SM CLR M03/M04 A3030 RMK AO2 SLP290 T10281039 58007 FZRANO,KYKN,2019-01-14T02:56:00Z,42.92,-97.37,-2.8,-3.9,170,6,,10.0,30.301182,1029.0,,TRUE,TRUE,,,,TRUE,,,CLR,,,,,,,,VFR,-0.7,,,,,,,,,,,METAR,398.0
KY50 140256Z AUTO 23005KT 10SM OVC014 M04/M07 A3039 RMK AO2 SLP318 T10391067 58005 FZRANO $,KY50,2019-01-14T02:56:00Z,44.03,-89.3,-3.9,-6.7,230,5,,10.0,30.389763,1031.8,,TRUE,TRUE,TRUE,,,TRUE,,,OVC,1400,,,,,,,MVFR,-0.5,,,,,,,,,,,METAR,262.0
KWVL 140256Z AUTO 10SM CLR M16/M17 A3038 RMK AO2 SLP325 T11561172 50002 FZRANO $,KWVL,2019-01-14T02:56:00Z,44.52,-69.67,-15.6,-17.2,,,,10.0,30.380905,1032.5,,TRUE,TRUE,TRUE,,,TRUE,,,CLR,,,,,,,,VFR,0.2,,,,,,,,,,,METAR,101.0
KFRM 140256Z AUTO 20009KT 7SM CLR M02/M03 A3032 RMK AO2 SLP289 T10221033 58004 FZRANO,KFRM,2019-01-14T02:56:00Z,43.63,-94.42,-2.2,-3.3,200,9,,7.0,30.318897,1028.9,,TRUE,TRUE,,,,TRUE,,,CLR,,,,,,,,VFR,-0.4,,,,,,,,,,,METAR,354.0
KFOD 140256Z AUTO 20006KT 8SM CLR M05/M06 A3037 RMK AO2 SLP331 T10501061 58005 FZRANO,KFOD,2019-01-14T02:56:00Z,42.53,-94.17,-5.0,-6.1,200,6,,8.0,30.369095,1033.1,,TRUE,TRUE,,,,TRUE,,,CLR,,,,,,,,VFR,-0.5,,,,,,,,,,,METAR,355.0
KFNL 140256Z AUTO 17003KT 10SM CLR M01/M04 A3023 RMK AO2 SLP268 6//// T10061044 50005 FZRANO PNO $,KFNL,2019-01-14T02:56:00Z,40.45,-105.02,-0.6,-4.4,170,3,,10.0,30.230314,1026.8,,TRUE,TRUE,TRUE,,,TRUE,,,CLR,,,,,,,,VFR,0.5,,,,,,,,,,,METAR,1529.0
KFLP 140256Z AUTO 34004KT 10SM OVC013 01/M01 A3042 RMK AO2 SLP307 T00111011 51010 FZRANO,KFLP,2019-01-14T02:56:00Z,36.28,-92.58,1.1,-1.1,340,4,,10.0,30.41929,1030.7,,TRUE,TRUE,,,,TRUE,,,OVC,1300,,,,,,,MVFR,1.0,,,,,,,,,,,METAR,219.0
KFKL 140256Z AUTO 04004KT 10SM CLR M06/M08 A3024 RMK AO2 SLP262 6//// T10561078 53003 FZRANO,KFKL,2019-01-14T02:56:00Z,41.37,-79.87,-5.6,-7.8,40,4,,10.0,30.239174,1026.2,,TRUE,TRUE,,,,TRUE,,,CLR,,,,,,,,VFR,0.3,,,,,,,,,,,METAR,469.0
KFAM 140256Z AUTO 33006KT 5SM -SN BR OVC006 M02/M03 A3039 RMK AO2 SLP301 P0000 60000 T10171028 51012 FZRANO,KFAM,2019-01-14T02:56:00Z,37.77,-90.42,-1.7,-2.8,330,6,,5.0,30.389763,1030.1,,TRUE,TRUE,,,,TRUE,,-SN BR,OVC,600,,,,,,,IFR,1.2,,,,,0.005,0.005,,,,,METAR,288.0
KEWK 140256Z AUTO 32005KT 5SM BR OVC004 M03/M03 A3044 RMK AO2 SLP326 T10281033 51004 FZRANO,KEWK,2019-01-14T02:56:00Z,38.03,-97.27,-2.8,-3.3,320,5,,5.0,30.43996,1032.6,,TRUE,TRUE,,,,TRUE,,BR,OVC,400,,,,,,,LIFR,0.4,,,,,,,,,,,METAR,467.0
KEUL 140256Z AUTO 00000KT 1 1/4SM BR CLR M04/M06 A3034 RMK AO2 SLP302 T10441056 50002 FZRANO $,KEUL,2019-01-14T02:56:00Z,43.62,-116.62,-4.4,-5.6,0,0,,1.25,30.339567,1030.2,,TRUE,TRUE,TRUE,,,TRUE,,BR,CLR,,,,,,,,IFR,0.2,,,,,,,,,,,METAR,740.0
KESC 140256Z AUTO 23006KT 10SM CLR M09/M11 A3034 RMK AO2 SLP301 T10891106 58016 FZRANO,KESC,2019-01-14T02:56:00Z,45.75,-87.08,-8.9,-10.6,230,6,,10.0,30.339567,1030.1,,TRUE,TRUE,,,,TRUE,,,CLR,,,,,,,,VFR,-1.6,,,,,,,,,,,METAR,187.0
KENV 140256Z AUTO 00000KT 10SM OVC011 M03/M06 A3033 RMK AO2 SLP311 T10331061 53006 FZRANO,KENV,2019-01-14T02:56:00Z,40.72,-114.02,-3.3,-6.1,0,0,,10.0,30.33071,1031.1,,TRUE,TRUE,,,,TRUE,,,OVC,1100,,,,,,,MVFR,0.6,,,,,,,,,,,METAR,1292.0
KEKY 140256Z AUTO 31009KT 10SM OVC013 05/03 A3029 RMK AO2 SLP280 T00500028 53010,KEKY,2019-01-14T02:56:00Z,33.32,-86.93,5.0,2.8,310,9,,10.0,30.28937,1028.0,,TRUE,TRUE,,,,,,,OVC,1300,,,,,,,MVFR,1.0,,,,,,,,,,,METAR,213.0
KOCH 140256Z AUTO 34004KT 10SM OVC024 04/01 A3042 RMK AO2 SLP308 T00390011 51016,KOCH,2019-01-14T02:56:00Z,31.57,-94.72,3.9,1.1,340,4,,10.0,30.41929,1030.8,,TRUE,TRUE,,,,,,,OVC,2400,,,,,,,MVFR,1.6,,,,,,,,,,,METAR,108.0
KOAJ 140256Z AUTO 31004KT 8SM OVC007 03/02 A3015 RMK AO2 CIG 005V010 SLP214 60000 T00280022 51020,KOAJ,2019-01-14T02:56:00Z,34.82,-77.62,2.8,2.2,310,4,,8.0,30.15059,1021.4,,TRUE,TRUE,,,,,,,OVC,700,,,,,,,IFR,2.0,,,,,,0.005,,,,,METAR,29.0
KMYR 140256Z 34009KT 10SM -RA BR OVC008 06/04 A3018 RMK AO2 SLP218 P0000 60000 T00560039 51015,KMYR,2019-01-14T02:56:00Z,33.67,-78.92,5.6,3.9,340,9,,10.0,30.180119,1021.8,,,TRUE,,,,,,-RA BR,OVC,800,,,,,,,IFR,1.5,,,,,0.005,0.005,,,,,METAR,8.0
KMTW 140256Z AUTO 00000KT 10SM CLR M08/M09 A3039 RMK AO2 SLP315 T10831094 58007 FZRANO,KMTW,2019-01-14T02:56:00Z,44.12,-87.67,-8.3,-9.4,0,0,,10.0,30.389763,1031.5,,TRUE,TRUE,,,,TRUE,,,CLR,,,,,,,,VFR,-0.7,,,,,,,,,,,METAR,198.0
KMSV 140256Z AUTO 04003KT 10SM CLR M11/M14 A3027 RMK AO2 SLP279 T11111144 53002 FZRANO,KMSV,2019-01-14T02:56:00Z,41.7,-74.78,-11.1,-14.4,40,3,,10.0,30.268702,1027.9,,TRUE,TRUE,,,,TRUE,,,CLR,,,,,,,,VFR,0.2,,,,,,,,,,,METAR,428.0
KMRF 140256Z AUTO 36006KT 10SM CLR 03/00 A3027 RMK AO2 SLP253 T00280000 51016,KMRF,2019-01-14T02:56:00Z,30.37,-104.02,2.8,0.0,360,6,,10.0,30.268702,1025.3,,TRUE,TRUE,,,,,,,CLR,,,,,,,,VFR,1.6,,,,,,,,,,,METAR,1481.0
KMNM 140256Z AUTO 24004KT 10SM CLR M08/M09 A3037 RMK AO2 SLP306 T10781094 58010 FZRANO $,KMNM,2019-01-14T02:56:00Z,45.12,-87.62,-7.8,-9.4,240,4,,10.0,30.369095,1030.6,,TRUE,TRUE,TRUE,,,TRUE,,,CLR,,,,,,,,VFR,-1.0,,,,,,,,,,,METAR,191.0
KMML 140256Z AUTO 23012G21KT 10SM OVC013 M01/M03 A3026 RMK AO2 SLP267 T10061028 58012 FZRANO,KMML,2019-01-14T02:56:00Z,44.45,-95.82,-0.6,-2.8,230,12,21,10.0,30.259842,1026.7,,TRUE,TRUE,,,,TRUE,,,OVC,1300,,,,,,,MVFR,-1.2,,,,,,,,,,,METAR,359.0
KMKY 140256Z AUTO 29004KT 10SM CLR 20/19 A3017 RMK AO2 SLP217 T02000194 51011,KMKY,2019-01-14T02:56:00Z,26.0,-81.67,20.0,19.4,290,4,,10.0,30.171259,1021.7,,TRUE,TRUE,,,,,,,CLR,,,,,,,,VFR,1.1,,,,,,,,,,,METAR,2.0
KMKT 140256Z AUTO 20006KT 7SM FEW030 M02/M04 A3032 RMK AO2 SLP283 T10171039 58007 FZRANO,KMKT,2019-01-14T02:56:00Z,44.22,-93.92,-1.7,-3.9,200,6,,7.0,30.318897,1028.3,,TRUE,TRUE,,,,TRUE,,,FEW,3000,,,,,,,VFR,-0.7,,,,,,,,,,,METAR,311.0
KMJX 140256Z AUTO 02012KT 10SM OVC023 M01/M06 A3026 RMK AO2 SLP253 T10111056 56003 FZRANO,KMJX,2019-01-14T02:56:00Z,39.93,-74.3,-1.1,-5.6,20,12,,10.0,30.259842,1025.3,,TRUE,TRUE,,,,TRUE,,,OVC,2300,,,,,,,MVFR,-0.3,,,,,,,,,,,METAR,25.0
KMBL 140256Z AUTO 00000KT 10SM CLR M11/M12 A3037 RMK AO2 SLP308 T11061117 58006 FZRANO,KMBL,2019-01-14T02:56:00Z,44.27,-86.25,-10.6,-11.7,0,0,,10.0,30.369095,1030.8,,TRUE,TRUE,,,,TRUE,,,CLR,,,,,,,,VFR,-0.6,,,,,,,,,,,METAR,189.0
KM19 140256Z AUTO 34010KT 10SM OVC020 03/M01 A3040 RMK AO2 SLP303 T00281006 51012,KM19,2019-01-14T02:56:00Z,35.65,-91.17,2.8,-0.6,340,10,,10.0,30.398623,1030.3,,TRUE,TRUE,,,,,,,OVC,2000,,,,,,,MVFR,1.2,,,,,,,,,,,METAR,73.0
KITH 140256Z 01003KT 10SM CLR M16/M18 A3034 RMK AO2 SLP298 T11561178 53005,KITH,2019-01-14T02:56:00Z,42.47,-76.45,-15.6,-17.8,10,3,,10.0,30.339567,1029.8,,,TRUE,,,,,,,CLR,,,,,,,,VFR,0.5,,,,,,,,,,,METAR,335.0
KISM 140256Z AUTO 28005KT 10SM FEW029 OVC046 21/18 A3016 RMK AO2 SLP214 6//// T02060178 51012 PNO $,KISM,2019-01-14T02:56:00Z,28.28,-81.43,20.6,17.8,280,5,,10.0,30.159449,1021.4,,TRUE,TRUE,TRUE,,,,,,FEW,2900,OVC,4600,,,,,VFR,1.2,,,,,,,,,,,METAR,25.0
KILE 140256Z AUTO 01008KT 10SM CLR 03/00 A3042 RMK AO2 SLP325 T00280000 51014,KILE,2019-01-14T02:56:00Z,31.07,-97.67,2.8,0.0,10,8,,10.0,30.41929,1032.5,,TRUE,TRUE,,,,,,,CLR,,,,,,,,VFR,1.4,,,,,,,,,,,METAR,258.0
KHYS 140256Z AUTO 23007KT 10SM OVC009 M02/M03 A3040 RMK AO2 SLP318 T10221033 50001 FZRANO,KHYS,2019-01-14T02:56:00Z,38.85,-99.27,-2.2,-3.3,230,7,,10.0,30.398623,1031.8,,TRUE,TRUE,,,,TRUE,,,OVC,900,,,,,,,IFR,0.1,,,,,,,,,,,METAR,609.0
KHYI 140256Z AUTO 04012KT 10SM OVC065 07/03 A3041 RMK AO2 SLP298 T00720028 51021,KHYI,2019-01-14T02:56:00Z,29.88,-97.87,7.2,2.8,40,12,,10.0,30.410433,1029.8,,TRUE,TRUE,,,,,,,OVC,6500,,,,,,,VFR,2.1,,,,,,,,,,,METAR,182.0
KHND 140256Z 16005KT 10SM FEW075 06/M03 A3015 RMK AO2 SLP223 T00611033 53008 $,KHND,2019-01-14T02:56:00Z,35.98,-115.13,6.1,-3.3,160,5,,10.0,30.15059,1022.3,,,TRUE,TRUE,,,,,,FEW,7500,,,,,,,VFR,0.8,,,,,,,,,,,METAR,749.0
KHNB 140256Z AUTO 02006KT 10SM OVC012 01/M01 A3033 RMK AO2 SLP277 T00061011 51016 FZRANO,KHNB,2019-01-14T02:56:00Z,38.25,-86.95,0.6,-1.1,20,6,,10.0,30.33071,1027.7,,TRUE,TRUE,,,,TRUE,,,OVC,1200,,,,,,,MVFR,1.6,,,,,,,,,,,METAR,161.0
KHEZ 140256Z AUTO 36009KT 10SM OVC019 04/01 A3039 RMK AO2 SLP295 6//// T00440006 51012,KHEZ,2019-01-14T02:56:00Z,31.62,-91.3,4.4,0.6,360,9,,10.0,30.389763,1029.5,,TRUE,TRUE,,,,,,,OVC,1900,,,,,,,MVFR,1.2,,,,,,,,,,,METAR,83.0
KAJO 140256Z AUTO 10SM RMK AO2 SLPNO 6//// FZRANO $,KAJO,2019-01-14T02:56:00Z,33.9,-117.6,,,,,,10.0,,,,TRUE,TRUE,TRUE,,,TRUE,,,,,,,,,,,,,,,,,,,,,,,METAR,163.0
KAIZ 140256Z AUTO 33003KT 4SM BR OVC006 M01/M02 A3044 RMK AO2 SLP319 T10111022 51011 FZRANO,KAIZ,2019-01-14T02:56:00Z,38.1,-92.53,-1.1,-2.2,330,3,,4.0,30.43996,1031.9,,TRUE,TRUE,,,,TRUE,,BR,OVC,600,,,,,,,IFR,1.1,,,,,,,,,,,METAR,265.0
KAFJ 140256Z AUTO 05007KT 10SM OVC060 M03/M05 A3024 RMK AO2 SLP253 60000 T10281050 53004 FZRANO,KAFJ,2019-01-14T02:56:00Z,40.12,-80.27,-2.8,-5.0,50,7,,10.0,30.239174,1025.3,,TRUE,TRUE,,,,TRUE,,,OVC,6000,,,,,,,VFR,0.4,,,,,,0.005,,,,,METAR,361.0
KADF 140256Z AUTO 00000KT 10SM OVC027 04/01 A3043 RMK AO2 SLP309 T00440011 51010,KADF,2019-01-14T02:56:00Z,34.1,-93.07,4.4,1.1,0,0,,10.0,30.431103,1030.9,,TRUE,TRUE,,,,,,,OVC,2700,,,,,,,MVFR,1.0,,,,,,,,,,,METAR,56.0
KADC 140256Z AUTO 23009KT 10SM OVC010 M02/M03 A3020 RMK AO2,KADC,2019-01-14T02:56:00Z,46.45,-95.22,-2.0,-3.0,230,9,,10.0,30.200787,,,TRUE,TRUE,,,,,,,OVC,1000,,,,,,,MVFR,,,,,,,,,,,,METAR,418.0
K7N0 140256Z AUTO 01009KT 10SM OVC020 07/02 A3035 RMK AO2 SLP279 T00720022 51017,K7N0,2019-01-14T02:56:00Z,29.95,-90.07,7.2,2.2,10,9,,10.0,30.351377,1027.9,,TRUE,TRUE,,,,,,,OVC,2000,,,,,,,MVFR,1.7,,,,,,,,,,,METAR,0.0
K1M4 140256Z AUTO 34005KT 10SM OVC006 03/02 A3031 RMK AO2 CIG 005V009 SLP288 T00330022 51010,K1M4,2019-01-14T02:56:00Z,34.28,-87.6,3.3,2.2,340,5,,10.0,30.31004,1028.8,,TRUE,TRUE,,,,,,,OVC,600,,,,,,,IFR,1.0,,,,,,,,,,,METAR,284.0
KCVO 140256Z AUTO 28004KT 10SM CLR 03/02 A3008 RMK AO2 SLP188 T00330022 56003,KCVO,2019-01-14T02:56:00Z,44.5,-123.27,3.3,2.2,280,4,,10.0,30.079725,1018.8,,TRUE,TRUE,,,,,,,CLR,,,,,,,,VFR,-0.3,,,,,,,,,,,METAR,75.0
KCVN 140256Z AUTO 12006KT 10SM FEW055 01/M02 A3033 RMK AO2 SLP296 T00111017 51014 FZRANO,KCVN,2019-01-14T02:56:00Z,34.42,-103.07,1.1,-1.7,120,6,,10.0,30.33071,1029.6,,TRUE,TRUE,,,,TRUE,,,FEW,5500,,,,,,,VFR,1.4,,,,,,,,,,,METAR,1284.0
KCTB 140256Z AUTO 33011KT 10SM CLR M02/M15 A3015 RMK AO2 SLP257 T10221150 53016,KCTB,2019-01-14T02:56:00Z,48.6,-112.37,-2.2,-15.0,330,11,,10.0,30.15059,1025.7,,TRUE,TRUE,,,,,,,CLR,,,,,,,,VFR,1.6,,,,,,,,,,,METAR,1175.0
KCOQ 140256Z AUTO 23011G14KT 10SM OVC013 M01/M04 A3020 RMK AO2,KCOQ,2019-01-14T02:56:00Z,46.7,-92.5,-1.0,-4.0,230,11,14,10.0,30.200787,,,TRUE,TRUE,,,,,,,OVC,1300,,,,,,,MVFR,,,,,,,,,,,,METAR,390.0
KCOE 140256Z AUTO 03009KT 10SM CLR M02/M04 A3030 RMK AO2 SLP306 T10221044 51003 FZRANO,KCOE,2019-01-14T02:56:00Z,47.77,-116.82,-2.2,-4.4,30,9,,10.0,30.301182,1030.6,,TRUE,TRUE,,,,TRUE,,,CLR,,,,,,,,VFR,0.3,,,,,,,,,,,METAR,707.0
KCOD 140256Z AUTO 00000KT 9SM CLR M04/M06 A3019 RMK AO2 SLP285 T10391061 50002 FZRANO,KCOD,2019-01-14T02:56:00Z,44.52,-109.02,-3.9,-6.1,0,0,,9.0,30.188976,1028.5,,TRUE,TRUE,,,,TRUE,,,CLR,,,,,,,,VFR,0.2,,,,,,,,,,,METAR,1553.0
KCIU 140256Z AUTO 00000KT 10SM CLR M13/M14 A3034 RMK AO2 SLP306 60000 T11331144 56014 FZRANO,KCIU,2019-01-14T02:56:00Z,46.25,-84.47,-13.3,-14.4,0,0,,10.0,30.339567,1030.6,,TRUE,TRUE,,,,TRUE,,,CLR,,,,,,,,VFR,-1.4,,,,,,0.005,,,,,METAR,244.0
KCGZ 140256Z AUTO 00000KT 10SM FEW075 10/08 A3011 RMK AO2 SLP199 T01000083 53008 $,KCGZ,2019-01-14T02:56:00Z,32.95,-111.77,10.0,8.3,0,0,,10.0,30.109253,1019.9,,TRUE,TRUE,TRUE,,,,,,FEW,7500,,,,,,,VFR,0.8,,,,,,,,,,,METAR,446.0
KPSM 140256Z 33006KT 10SM CLR M09/M12 A3038 RMK AO2A SLP292 T10931123 57005,KPSM,2019-01-14T02:56:00Z,43.07,-70.82,-9.3,-12.3,330,6,,10.0,30.380905,1029.2,,,TRUE,,,,,,,CLR,,,,,,,,VFR,-0.5,,,,,,,,,,,METAR,31.0
KWRI 140256Z AUTO 02010KT 10SM OVC150 M02/M08 A3024 RMK AO2 SLP242 T10211080 53002 $,KWRI,2019-01-14T02:56:00Z,40.02,-74.58,-2.1,-8.0,20,10,,10.0,30.239174,1024.2,,TRUE,TRUE,TRUE,,,,,,OVC,15000,,,,,,,VFR,0.2,,,,,,,,,,,METAR,41.0
PHSF 140256Z AUTO 27003KT 10SM CLR 17/10 A3028 RMK AO2 SLP157 WND DATA ESTMD T01670099 53002 PWINO $,PHSF,2019-01-14T02:56:00Z,19.77,-155.55,16.7,9.9,270,3,,10.0,30.280512,1015.7,,TRUE,TRUE,TRUE,,,,TRUE,,CLR,,,,,,,,VFR,0.2,,,,,,,,,,,SPECI,1887.0
KDIK 140256Z AUTO 29005KT 10SM CLR M03/M05 A3012 RMK AO2 SLP236 T10331050 50003,KDIK,2019-01-14T02:56:00Z,46.8,-102.8,-3.3,-5.0,290,5,,10.0,30.121063,1023.6,,TRUE,TRUE,,,,,,,CLR,,,,,,,,VFR,0.3,,,,,,,,,,,METAR,788.0
KDAY 140256Z 01010KT 10SM OVC008 M02/M04 A3029 RMK AO2 SLP269 T10171039 51010,KDAY,2019-01-14T02:56:00Z,39.9,-84.22,-1.7,-3.9,10,10,,10.0,30.28937,1026.9,,,TRUE,,,,,,,OVC,800,,,,,,,IFR,1.0,,,,,,,,,,,METAR,305.0
KCXY 140256Z AUTO 00000KT 10SM FEW070 OVC080 01/M06 A3029 RMK AO2 SLP261 T00061056 53005,KCXY,2019-01-14T02:56:00Z,40.22,-76.85,0.6,-5.6,0,0,,10.0,30.28937,1026.1,,TRUE,TRUE,,,,,,,FEW,7000,OVC,8000,,,,,VFR,0.5,,,,,,,,,,,METAR,106.0
KCNB 140256Z AUTO 24009G14KT 10SM OVC013 02/00 A3026 RMK AO2 T00151005,KCNB,2019-01-14T02:56:00Z,44.73,-96.27,1.5,-0.5,240,9,14,10.0,30.259842,,,TRUE,TRUE,,,,,,,OVC,1300,,,,,,,MVFR,,,,,,,,,,,,METAR,364.0
RODN 140256Z AUTO 02009KT 10SM SCT036 BKN045 22/12 A3014 RMK AO2 SLP213 T02160122 58012 $,RODN,2019-01-14T02:56:00Z,26.35,127.77,21.6,12.2,20,9,,10.0,30.138779,1021.3,,TRUE,TRUE,TRUE,,,,,,SCT,3600,BKN,4500,,,,,VFR,-1.2,,,,,,,,,,,SPECI,45.0
RKJK 140256Z 11006KT 2 3/4SM BR CLR 04/02 A3032 RMK AO2A TWR VIS 1 PRESFR SLP272 T00390023 58006 PNO $,RKJK,2019-01-14T02:56:00Z,35.9,126.62,3.9,2.3,110,6,,2.75,30.318897,1027.2,,,TRUE,TRUE,,,,,BR,CLR,,,,,,,,IFR,-0.6,,,,,,,,,,,SPECI,9.0
KDUG 140256Z AUTO 00000KT 10SM FEW065 10/03 A3014 RMK AO2 SLP186 T01000028 53016,KDUG,2019-01-14T02:56:00Z,31.47,-109.58,10.0,2.8,0,0,,10.0,30.138779,1018.6,,TRUE,TRUE,,,,,,,FEW,6500,,,,,,,VFR,1.6,,,,,,,,,,,METAR,1265.0
KDTL 140256Z AUTO 24007KT 5SM BR OVC005 M03/M04 A3021 RMK AO2,KDTL,2019-01-14T02:56:00Z,46.82,-95.87,-3.0,-4.0,240,7,,5.0,30.209646,,,TRUE,TRUE,,,,,,BR,OVC,500,,,,,,,IFR,,,,,,,,,,,,METAR,426.0
KEAU 140256Z AUTO 00000KT 10SM OVC025 M04/M07 A3032 RMK AO2 SLP284 T10391067 58006,KEAU,2019-01-14T02:56:00Z,44.87,-91.47,-3.9,-6.7,0,0,,10.0,30.318897,1028.4,,TRUE,TRUE,,,,,,,OVC,2500,,,,,,,MVFR,-0.6,,,,,,,,,,,METAR,276.0
KEED 140256Z AUTO 34006KT 10SM BKN080 14/M01 A3011 RMK AO2 SLP188 T01391006 53012,KEED,2019-01-14T02:56:00Z,34.77,-114.62,13.9,-0.6,340,6,,10.0,30.109253,1018.8,,TRUE,TRUE,,,,,,,BKN,8000,,,,,,,VFR,1.2,,,,,,,,,,,METAR,302.0
KTPH 140256Z AUTO VRB04KT 10SM CLR M01/M13 A3012 RMK AO2 SLP231 T10111133 52010,KTPH,2019-01-14T02:56:00Z,38.05,-117.08,-1.1,-13.3,0,4,,10.0,30.121063,1023.1,,TRUE,TRUE,,,,,,,CLR,,,,,,,,VFR,1.0,,,,,,,,,,,METAR,1652.0
KSLE 140256Z 33006KT 10SM CLR 05/M02 A3007 RMK AO2 SLP185 T00501017 55001,KSLE,2019-01-14T02:56:00Z,44.9,-123.0,5.0,-1.7,330,6,,10.0,30.070866,1018.5,,,TRUE,,,,,,,CLR,,,,,,,,VFR,-0.1,,,,,,,,,,,METAR,59.0
KSHV 140256Z 01009KT 10SM OVC028 06/01 A3040 RMK AO2 SLP294 T00610006 51008,KSHV,2019-01-14T02:56:00Z,32.45,-93.83,6.1,0.6,10,9,,10.0,30.398623,1029.4,,,TRUE,,,,,,,OVC,2800,,,,,,,MVFR,0.8,,,,,,,,,,,METAR,83.0
KSFO 140256Z 33004KT 10SM BKN200 13/07 A2994 RMK AO2 SLP139 T01280072 53002 $,KSFO,2019-01-14T02:56:00Z,37.62,-122.37,12.8,7.2,330,4,,10.0,29.940945,1013.9,,,TRUE,TRUE,,,,,,BKN,20000,,,,,,,VFR,0.2,,,,,,,,,,,METAR,3.0
KSDF 140256Z 34008KT 8SM OVC013 01/M02 A3031 RMK AO2 SLP267 60000 T00111017 51014,KSDF,2019-01-14T02:56:00Z,38.18,-85.73,1.1,-1.7,340,8,,8.0,30.31004,1026.7,,,TRUE,,,,,,,OVC,1300,,,,,,,MVFR,1.4,,,,,,0.005,,,,,METAR,146.0
KSBP 140256Z 00000KT 10SM SCT120 11/07 A2996 RMK AO2 SLP148 T01110072 53001 $,KSBP,2019-01-14T02:56:00Z,35.23,-120.63,11.1,7.2,0,0,,10.0,29.958662,1014.8,,,TRUE,TRUE,,,,,,SCT,12000,,,,,,,VFR,0.1,,,,,,,,,,,METAR,59.0
KRQB 140256Z AUTO 00000KT 10SM CLR M08/M10 A3035 RMK AO2 T10801096,KRQB,2019-01-14T02:56:00Z,43.72,-85.5,-8.0,-9.6,0,0,,10.0,30.351377,,,TRUE,TRUE,,,,,,,CLR,,,,,,,,VFR,,,,,,,,,,,,METAR,302.0
KEKO 140256Z AUTO 08003KT 10SM CLR M09/M12 A3021 RMK AO2 SLP290 T10891117 53003,KEKO,2019-01-14T02:56:00Z,40.82,-115.78,-8.9,-11.7,80,3,,10.0,30.209646,1029.0,,TRUE,TRUE,,,,,,,CLR,,,,,,,,VFR,0.3,,,,,,,,,,,METAR,1547.0
KPVU 140256Z 32007KT 6SM BR CLR M04/M06 A3030 RMK AO2 SLP298 T10391056 51009,KPVU,2019-01-14T02:56:00Z,40.22,-111.72,-3.9,-5.6,320,7,,6.0,30.301182,1029.8,,,TRUE,,,,,,BR,CLR,,,,,,,,VFR,0.9,,,,,,,,,,,METAR,1369.0
KUKI 140256Z AUTO 00000KT 10SM CLR 11/04 A2996 RMK AO2 SLP143 T01110039 53002,KUKI,2019-01-14T02:56:00Z,39.12,-123.2,11.1,3.9,0,0,,10.0,29.958662,1014.3,,TRUE,TRUE,,,,,,,CLR,,,,,,,,VFR,0.2,,,,,,,,,,,METAR,187.0
KHEF 140256Z 01009KT 3SM BR BKN011 OVC049 M02/M03 A3029 RMK AO2 CIG 008V013 SLP270 6//// T10221033 53007 PNO $,KHEF,2019-01-14T02:56:00Z,38.72,-77.52,-2.2,-3.3,10,9,,3.0,30.28937,1027.0,,,TRUE,TRUE,,,,,BR,BKN,1100,OVC,4900,,,,,MVFR,0.7,,,,,,,,,,,METAR,59.0
KHDN 140256Z AUTO 00000KT 1/4SM -SN FZFG OVC002 M12/M13 A3031 RMK AO2 SLP359 P0000 60000 T11221133 51006 FZRANO,KHDN,2019-01-14T02:56:00Z,40.47,-107.22,-12.2,-13.3,0,0,,0.25,30.31004,1035.9,,TRUE,TRUE,,,,TRUE,,-SN FZFG,OVC,200,,,,,,,LIFR,0.6,,,,,0.005,0.005,,,,,METAR,2012.0
KGXY 140256Z AUTO 00000KT 10SM CLR M03/M06 A3024 RMK AO2 SLP299 T10331056 50005 FZRANO,KGXY,2019-01-14T02:56:00Z,40.42,-104.62,-3.3,-5.6,0,0,,10.0,30.239174,1029.9,,TRUE,TRUE,,,,TRUE,,,CLR,,,,,,,,VFR,0.5,,,,,,,,,,,METAR,1420.0
KVIS 140256Z AUTO 06004KT 10SM CLR 10/08 A3000 RMK AO2 SLP170 6//// T01000078 50008 PNO $,KVIS,2019-01-14T02:56:00Z,36.32,-119.4,10.0,7.8,60,4,,10.0,30.0,1017.0,,TRUE,TRUE,TRUE,,,,,,CLR,,,,,,,,VFR,0.8,,,,,,,,,,,METAR,89.0
KUDG 140256Z AUTO 32005KT 10SM OVC010 03/02 A3020 RMK AO2 SLP235 60000 T00330017 53011,KUDG,2019-01-14T02:56:00Z,34.45,-79.88,3.3,1.7,320,5,,10.0,30.200787,1023.5,,TRUE,TRUE,,,,,,,OVC,1000,,,,,,,MVFR,1.1,,,,,,0.005,,,,,METAR,59.0
KUCP 140256Z AUTO 05003KT 10SM CLR M06/M08 A3026 RMK AO2 SLP279 T10611078 53004,KUCP,2019-01-14T02:56:00Z,41.03,-80.42,-6.1,-7.8,50,3,,10.0,30.259842,1027.9,,TRUE,TRUE,,,,,,,CLR,,,,,,,,VFR,0.4,,,,,,,,,,,METAR,327.0
KTVF 140256Z AUTO 20008KT 4SM BR OVC004 M06/M07 A3021 RMK AO2 SLP251 60000 T10611067 50001 FZRANO,KTVF,2019-01-14T02:56:00Z,48.07,-96.17,-6.1,-6.7,200,8,,4.0,30.209646,1025.1,,TRUE,TRUE,,,,TRUE,,BR,OVC,400,,,,,,,LIFR,0.1,,,,,,0.005,,,,,METAR,340.0
KTOB 140256Z AUTO 20009KT 10SM SCT090 M03/M06 A3032 RMK AO2,KTOB,2019-01-14T02:56:00Z,44.02,-92.82,-3.0,-6.0,200,9,,10.0,30.318897,,,TRUE,TRUE,,,,,,,SCT,9000,,,,,,,VFR,,,,,,,,,,,,METAR,398.0
KSUE 140256Z AUTO 22004KT 10SM CLR M09/M11 A3037 RMK AO2 SLP309 T10891106 56010 FZRANO,KSUE,2019-01-14T02:56:00Z,44.85,-87.42,-8.9,-10.6,220,4,,10.0,30.369095,1030.9,,TRUE,TRUE,,,,TRUE,,,CLR,,,,,,,,VFR,-1.0,,,,,,,,,,,METAR,221.0
KSRC 140256Z AUTO 33006KT 10SM OVC021 03/01 A3041 RMK AO2 SLP309 T00330006 51012,KSRC,2019-01-14T02:56:00Z,35.22,-91.73,3.3,0.6,330,6,,10.0,30.410433,1030.9,,TRUE,TRUE,,,,,,,OVC,2100,,,,,,,MVFR,1.2,,,,,,,,,,,METAR,80.0
KSQI 140256Z AUTO 00000KT 10SM OVC018 M04/M06 A3042 RMK AO2 SLP325 T10391056 55000 FZRANO,KSQI,2019-01-14T02:56:00Z,41.75,-89.67,-3.9,-5.6,0,0,,10.0,30.41929,1032.5,,TRUE,TRUE,,,,TRUE,,,OVC,1800,,,,,,,MVFR,0.0,,,,,,,,,,,METAR,197.0
KSOP 140256Z AUTO 02004KT 10SM OVC009 01/01 A3020 RMK AO2 SLP245 60000 T00110006 51014 FZRANO,KSOP,2019-01-14T02:56:00Z,35.22,-79.4,1.1,0.6,20,4,,10.0,30.200787,1024.5,,TRUE,TRUE,,,,TRUE,,,OVC,900,,,,,,,IFR,1.4,,,,,,0.005,,,,,METAR,141.0
KSMN 140256Z AUTO 08003KT 10SM OVC019 M07/M10 A3042 RMK AO2 SLP359 T10671100 51004 FZRANO,KSMN,2019-01-14T02:56:00Z,45.12,-113.87,-6.7,-10.0,80,3,,10.0,30.41929,1035.9,,TRUE,TRUE,,,,TRUE,,,OVC,1900,,,,,,,MVFR,0.4,,,,,,,,,,,METAR,1233.0
PPIT 140256Z AUTO 08014KT FEW045 SCT050 BKN120 M04/M04 A2919 RMK AO2 SLP886 T10391039 53019 PWINO FZRANO TSNO $,PPIT,2019-01-14T02:56:00Z,60.9,-162.43,-3.9,-3.9,80,14,,,29.190945,988.6,,TRUE,TRUE,TRUE,,TRUE,TRUE,TRUE,,FEW,4500,SCT,5000,BKN,12000,,,,1.9,,,,,,,,,,,METAR,4.0
PFWS 140256Z AUTO 14021G26KT 10SM CLR 03/00 A2938 RMK AO2 PK WND 15029/0220 SLP955 T00280000 51030,PFWS,2019-01-14T02:56:00Z,58.7,-157.0,2.8,0.0,140,21,26,10.0,29.379921,995.5,,TRUE,TRUE,,,,,,,CLR,,,,,,,,VFR,3.0,,,,,,,,,,,METAR,49.0
PFNO 140256Z AUTO 07025G31KT 3SM -SN OVC055 M13/M18 A2967 RMK AO2 PK WND 07039/0240 PRESRR SLP050 P0000 60000 T11331178 55003 FZRANO,PFNO,2019-01-14T02:56:00Z,66.82,-161.02,-13.3,-17.8,70,25,31,3.0,29.66929,1005.0,,TRUE,TRUE,,,,TRUE,,-SN,OVC,5500,,,,,,,MVFR,-0.3,,,,,0.005,0.005,,,,,METAR,17.0
PFKW 140256Z AUTO 09005KT 10SM FEW045 OVC060 01/00 A2923 RMK AO2 UPE0158RAB0158E28 SLP897 P0000 60003 T00110000 53027 FZRANO,PFKW,2019-01-14T02:56:00Z,60.8,-161.43,1.1,0.0,90,5,,10.0,29.22933,989.7,,TRUE,TRUE,,,,TRUE,,,FEW,4500,OVC,6000,,,,,VFR,2.7,,,,,0.005,0.03,,,,,METAR,8.0
KVWU 140256Z AUTO 26011G15KT 7SM OVC006 M04/M06 A3021 RMK AO2,KVWU,2019-01-14T02:56:00Z,48.15,-94.52,-4.0,-6.0,260,11,15,7.0,30.209646,,,TRUE,TRUE,,,,,,,OVC,600,,,,,,,IFR,,,,,,,,,,,,METAR,360.0
KVPZ 140256Z AUTO 00000KT 10SM CLR M07/M11 A3037 RMK AO2 SLP297 T10721106 53001 TSNO,KVPZ,2019-01-14T02:56:00Z,41.45,-87.0,-7.2,-10.6,0,0,,10.0,30.369095,1029.7,,TRUE,TRUE,,,TRUE,,,,CLR,,,,,,,,VFR,0.1,,,,,,,,,,,METAR,231.0
KWJF 140256Z 07008KT 10SM FEW070 BKN110 09/01 A3007 RMK AO2 SLP192 T00890006 50005 $,KWJF,2019-01-14T02:56:00Z,34.72,-118.22,8.9,0.6,70,8,,10.0,30.070866,1019.2,,,TRUE,TRUE,,,,,,FEW,7000,BKN,11000,,,,,VFR,0.5,,,,,,,,,,,METAR,715.0
KWMC 140256Z AUTO 08006KT 10SM CLR M02/M07 A3014 RMK AO2 SLP238 T10171067 53008,KWMC,2019-01-14T02:56:00Z,40.9,-117.8,-1.7,-6.7,80,6,,10.0,30.138779,1023.8,,TRUE,TRUE,,,,,,,CLR,,,,,,,,VFR,0.8,,,,,,,,,,,METAR,1310.0
TJSJ 140256Z 09005KT 10SM SCT030 24/21 A3010 RMK AO2 SLP193 T02390206 50008 $,TJSJ,2019-01-14T02:56:00Z,18.43,-66.02,23.9,20.6,90,5,,10.0,30.100393,1019.3,,,TRUE,TRUE,,,,,,SCT,3000,,,,,,,VFR,0.8,,,,,,,,,,,METAR,21.0
KY31 140256Z AUTO 27005KT 10SM CLR M10/M11 A3035 RMK AO2 T11041115,KY31,2019-01-14T02:56:00Z,44.25,-84.18,-10.4,-11.5,270,5,,10.0,30.351377,,,TRUE,TRUE,,,,,,,CLR,,,,,,,,VFR,,,,,,,,,,,,METAR,269.0
KASH 140256Z AUTO 00000KT 10SM CLR M09/M12 A3039 RMK AO2 SLP305 T10941122 55001 FZRANO $,KASH,2019-01-14T02:56:00Z,42.78,-71.52,-9.4,-12.2,0,0,,10.0,30.389763,1030.5,,TRUE,TRUE,TRUE,,,TRUE,,,CLR,,,,,,,,VFR,-0.1,,,,,,,,,,,METAR,61.0
KARG 140256Z AUTO 34007KT 10SM BKN020 OVC028 02/M01 A3040 RMK AO2 SLP299 T00171006 51010 FZRANO,KARG,2019-01-14T02:56:00Z,36.12,-90.92,1.7,-0.6,340,7,,10.0,30.398623,1029.9,,TRUE,TRUE,,,,TRUE,,,BKN,2000,OVC,2800,,,,,MVFR,1.0,,,,,,,,,,,METAR,83.0
KEKQ 140256Z AUTO 01013KT 9SM OVC005 02/01 A3026 RMK AO2 UPE12 CIG 004V008 SLP277 6//// T00170011 51008 PNO $,KEKQ,2019-01-14T02:56:00Z,36.85,-84.85,1.7,1.1,10,13,,9.0,30.259842,1027.7,,TRUE,TRUE,TRUE,,,,,,OVC,500,,,,,,,IFR,0.8,,,,,,,,,,,METAR,294.0
KEHR 140256Z AUTO 35007KT 10SM BKN011 OVC017 01/M02 A3034 RMK AO2 RAB0158E10 SLP288 P0000 60000 T00061017 51012 FZRANO,KEHR,2019-01-14T02:56:00Z,37.82,-87.67,0.6,-1.7,350,7,,10.0,30.339567,1028.8,,TRUE,TRUE,,,,TRUE,,,BKN,1100,OVC,1700,,,,,MVFR,1.2,,,,,0.005,0.005,,,,,METAR,117.0
KEGE 140256Z AUTO 11004KT 10SM CLR M10/M13 A3027 RMK AO2 SLP366 T11001128 51017 FZRANO,KEGE,2019-01-14T02:56:00Z,39.63,-106.92,-10.0,-12.8,110,4,,10.0,30.268702,1036.6,,TRUE,TRUE,,,,TRUE,,,CLR,,,,,,,,VFR,1.7,,,,,,,,,,,METAR,1993.0
KQND 140256Z AUTO 00000KT 0800 DU CLR 19/M07 A2997 RMK AO2 SLP136 WND DATA ESTMD T01931068 55000,KQND,2019-01-14T02:56:00Z,,,19.3,-6.8,0,0,,0.5,29.970472,1013.6,,TRUE,TRUE,,,,,,DU,CLR,,,,,,,,LIFR,0.0,,,,,,,,,,,METAR,
KQN3 140256Z AUTO 00000KT 9999 CLR 19/M07 A2992 RMK AO2 SLP126 WND DATA ESTMD T01861068 57011,KQN3,2019-01-14T02:56:00Z,,,18.6,-6.8,0,0,,6.21,29.920275,1012.6,,TRUE,TRUE,,,,,,,CLR,,,,,,,,VFR,-1.1,,,,,,,,,,,METAR,
KQHY 140256Z AUTO 35004KT 10SM OVC025 10/05 A3027 RMK AO2 SLP257 T01030052 52014 $,KQHY,2019-01-14T02:56:00Z,,,10.3,5.2,350,4,,10.0,30.268702,1025.7,,TRUE,TRUE,TRUE,,,,,,OVC,2500,,,,,,,MVFR,1.4,,,,,,,,,,,METAR,
KQDG 140256Z AUTO 29004KT M M CLR 03/M05 A3025 RMK AO2 SLP246 T00281046 58012 PWINO $,KQDG,2019-01-14T02:56:00Z,,,2.8,-4.6,290,4,,,30.250984,1024.6,,TRUE,TRUE,TRUE,,,,TRUE,,CLR,,,,,,,,,-1.2,,,,,,,,,,,METAR,
KQD3 140256Z AUTO 00000KT 9999 CLR 21/18 A2998 RMK AO2 SLP137 WND DATA ESTMD T02100178,KQD3,2019-01-14T02:56:00Z,,,21.0,17.8,0,0,,6.21,29.97933,1013.7,,TRUE,TRUE,,,,,,,CLR,,,,,,,,VFR,,,,,,,,,,,,METAR,
KQBF 140256Z AUTO VRB04KT 9999 CLR 23/M05 A2993 RMK AO2 SLP091 WND DATA ESTMD T02321050 57011,KQBF,2019-01-14T02:56:00Z,,,23.2,-5.0,0,4,,6.21,29.929134,1009.1,,TRUE,TRUE,,,,,,,CLR,,,,,,,,VFR,-1.1,,,,,,,,,,,METAR,
KBJI 140256Z AUTO 26006KT 10SM OVC007 M04/M05 A3019 RMK AO2 T10411051,KBJI,2019-01-14T02:56:00Z,47.5,-94.92,-4.1,-5.1,260,6,,10.0,30.188976,,,TRUE,TRUE,,,,,,,OVC,700,,,,,,,IFR,,,,,,,,,,,,METAR,420.0
KBIH 140256Z AUTO 17009KT 10SM CLR 04/M11 A3007 RMK AO2 SLP193 T00441106 53010,KBIH,2019-01-14T02:56:00Z,37.37,-118.35,4.4,-10.6,170,9,,10.0,30.070866,1019.3,,TRUE,TRUE,,,,,,,CLR,,,,,,,,VFR,1.0,,,,,,,,,,,METAR,1253.0
KBED 140256Z 00000KT 10SM CLR M10/M13 A3037 RMK AO2 SLP304 T11001133 56005,KBED,2019-01-14T02:56:00Z,42.47,-71.3,-10.0,-13.3,0,0,,10.0,30.369095,1030.4,,,TRUE,,,,,,,CLR,,,,,,,,VFR,-0.5,,,,,,,,,,,SPECI,50.0
KART 140256Z AUTO 06005KT 10SM CLR M18/M19 A3044 RMK AO2 SLP320 T11781189 58004 $,KART,2019-01-14T02:56:00Z,43.98,-76.03,-17.8,-18.9,60,5,,10.0,30.43996,1032.0,,TRUE,TRUE,TRUE,,,,,,CLR,,,,,,,,VFR,-0.4,,,,,,,,,,,METAR,100.0
KAND 140256Z AUTO 11004KT 7SM OVC008 05/04 A3017 RMK AO2 SLP219 T00500039 51006,KAND,2019-01-14T02:56:00Z,34.5,-82.72,5.0,3.9,110,4,,7.0,30.171259,1021.9,,TRUE,TRUE,,,,,,,OVC,800,,,,,,,IFR,0.6,,,,,,,,,,,METAR,239.0
KAIT 140256Z AUTO 21007KT 10SM OVC011 M02/M04 A3020 RMK AO2,KAIT,2019-01-14T02:56:00Z,46.53,-93.67,-2.0,-4.0,210,7,,10.0,30.200787,,,TRUE,TRUE,,,,,,,OVC,1100,,,,,,,MVFR,,,,,,,,,,,,METAR,367.0
KQRH 140256Z AUTO 00000KT 9999 CLR 21/18 A3002 RMK AO2 SLPNO WND DATA ESTMD T02120177 52007,KQRH,2019-01-14T02:56:00Z,,,21.2,17.7,0,0,,6.21,30.02067,,,TRUE,TRUE,,,,,,,CLR,,,,,,,,VFR,0.7,,,,,,,,,,,METAR,
PAMY 140256Z AUTO 12019KT 1 3/4SM -SN BR CLR M04/M04 A2903 RMK AO2 SLP831 P0000 60000 T10391044 53027 FZRANO $,PAMY,2019-01-14T02:56:00Z,60.37,-166.27,-3.9,-4.4,120,19,,1.75,29.028543,983.1,,TRUE,TRUE,TRUE,,,TRUE,,-SN BR,CLR,,,,,,,,IFR,2.7,,,,,0.005,0.005,,,,,METAR,13.0
PAOM 140256Z 09028G34KT 3/4SM R28/4500VP6000FT -SN BR VV014 M06/M07 A2931 RMK AO2 PK WND 09033/0256 P0000 T10611067 $,PAOM,2019-01-14T02:56:00Z,64.5,-165.43,-6.1,-6.7,90,28,34,0.75,29.309055,,,,TRUE,TRUE,,,,,-SN BR,OVX,0,,,,,,,LIFR,,,,,,0.005,,,,,1400,METAR,11.0
PAYA 140256Z AUTO 00000KT 3SM BR CLR M04/M05 A2996 RMK AO2 T10391050 TSNO,PAYA,2019-01-14T02:56:00Z,59.52,-139.67,-3.9,-5.0,0,0,,3.0,29.958662,,,TRUE,TRUE,,,TRUE,,,BR,CLR,,,,,,,,MVFR,,,,,,,,,,,,METAR,11.0
KAQV 140256Z AUTO VRB03KT 10SM OVC022 05/00 A3037 RMK AO2 SLP286 T00500000 51012,KAQV,2019-01-14T02:56:00Z,31.4,-93.3,5.0,0.0,0,3,,10.0,30.369095,1028.6,,TRUE,TRUE,,,,,,,OVC,2200,,,,,,,MVFR,1.2,,,,,,,,,,,METAR,111.0
KAUO 140256Z AUTO 31010KT 10SM FEW015 07/06 A3024 RMK AO2 SLP265 T00670056 51008,KAUO,2019-01-14T02:56:00Z,32.62,-85.42,6.7,5.6,310,10,,10.0,30.239174,1026.5,,TRUE,TRUE,,,,,,,FEW,1500,,,,,,,VFR,0.8,,,,,,,,,,,METAR,236.0
KAWO 140256Z AUTO 00000KT 10SM CLR 01/01 A3014 RMK AO2 SLP213 T00110006 51002 FZRANO,KAWO,2019-01-14T02:56:00Z,48.17,-122.17,1.1,0.6,0,0,,10.0,30.138779,1021.3,,TRUE,TRUE,,,,TRUE,,,CLR,,,,,,,,VFR,0.2,,,,,,,,,,,METAR,42.0
KOLU 140256Z AUTO 21006KT 8SM OVC012 M02/M03 A3036 RMK AO2 SLP302 T10171033 58008 FZRANO,KOLU,2019-01-14T02:56:00Z,41.45,-97.32,-1.7,-3.3,210,6,,8.0,30.360237,1030.2,,TRUE,TRUE,,,,TRUE,,,OVC,1200,,,,,,,MVFR,-0.8,,,,,,,,,,,METAR,440.0
KBOK 140256Z AUTO 10004KT 10SM CLR 10/06 A2997 RMK AO2 SLP166 T01000061 53004,KBOK,2019-01-14T02:56:00Z,42.07,-124.28,10.0,6.1,100,4,,10.0,29.970472,1016.6,,TRUE,TRUE,,,,,,,CLR,,,,,,,,VFR,0.4,,,,,,,,,,,METAR,140.0
KBMI 140256Z 35007KT 10SM CLR M07/M09 A3039 RMK AO2 SLP304 T10721089 51007,KBMI,2019-01-14T02:56:00Z,40.47,-88.92,-7.2,-8.9,350,7,,10.0,30.389763,1030.4,,,TRUE,,,,,,,CLR,,,,,,,,VFR,0.7,,,,,,,,,,,METAR,267.0
KBLM 140256Z AUTO 02009KT 10SM OVC025 M02/M07 A3027 RMK AO2 SLP257 T10171067 56001 FZRANO,KBLM,2019-01-14T02:56:00Z,40.17,-74.12,-1.7,-6.7,20,9,,10.0,30.268702,1025.7,,TRUE,TRUE,,,,TRUE,,,OVC,2500,,,,,,,MVFR,-0.1,,,,,,,,,,,METAR,48.0
KBKX 140256Z AUTO 20008KT 10SM OVC012 M01/M03 A3024 RMK AO2 SLP276 T10111028 58011 FZRANO,KBKX,2019-01-14T02:56:00Z,44.28,-96.82,-1.1,-2.8,200,8,,10.0,30.239174,1027.6,,TRUE,TRUE,,,,TRUE,,,OVC,1200,,,,,,,MVFR,-1.1,,,,,,,,,,,METAR,502.0
KBID 140256Z AUTO 05012G21KT 10SM OVC017 M02/M05 A3031 RMK AO2 SLP268 6//// T10171050 56009 FZRANO,KBID,2019-01-14T02:56:00Z,41.17,-71.58,-1.7,-5.0,50,12,21,10.0,30.31004,1026.8,,TRUE,TRUE,,,,TRUE,,,OVC,1700,,,,,,,MVFR,-0.9,,,,,,,,,,,METAR,33.0
KBHB 140256Z AUTO 34003KT 10SM CLR M13/M16 A3042 RMK AO2 SLP307 T11281156 53000 FZRANO $,KBHB,2019-01-14T02:56:00Z,44.45,-68.37,-12.8,-15.6,340,3,,10.0,30.41929,1030.7,,TRUE,TRUE,TRUE,,,TRUE,,,CLR,,,,,,,,VFR,0.0,,,,,,,,,,,METAR,26.0
KOWB 140256Z 36005KT 10SM OVC012 02/M01 A3033 RMK AO2 SLP283 T00171006 51014,KOWB,2019-01-14T02:56:00Z,37.72,-87.17,1.7,-0.6,360,5,,10.0,30.33071,1028.3,,,TRUE,,,,,,,OVC,1200,,,,,,,MVFR,1.4,,,,,,,,,,,METAR,124.0
KOTH 140256Z VRB03KT 10SM CLR 08/04 A3001 RMK AO2 SLP160 T00830044 55003,KOTH,2019-01-14T02:56:00Z,43.42,-124.25,8.3,4.4,0,3,,10.0,30.008858,1016.0,,,TRUE,,,,,,,CLR,,,,,,,,VFR,-0.3,,,,,,,,,,,METAR,4.0
KOTG 140256Z AUTO 22014KT 10SM CLR M03/M04 A3028 RMK AO2 SLP280 T10281039 58009 FZRANO,KOTG,2019-01-14T02:56:00Z,43.63,-95.57,-2.8,-3.9,220,14,,10.0,30.280512,1028.0,,TRUE,TRUE,,,,TRUE,,,CLR,,,,,,,,VFR,-0.9,,,,,,,,,,,METAR,480.0
KIWD 140256Z AUTO 22010KT 10SM OVC019 M03/M06 A3024 RMK AO2 SLP260 6//// T10281061 56018 FZRANO PNO $,KIWD,2019-01-14T02:56:00Z,46.52,-90.12,-2.8,-6.1,220,10,,10.0,30.239174,1026.0,,TRUE,TRUE,TRUE,,,TRUE,,,OVC,1900,,,,,,,MVFR,-1.8,,,,,,,,,,,METAR,375.0
KPVG 140256Z AUTO VRB04KT 10SM UP OVC007 02/01 A3014 RMK AO2 RAE34UPB34 SLP206 6//// T00170006 53013 FZRANO PNO $,KPVG,2019-01-14T02:56:00Z,36.78,-76.45,1.7,0.6,0,4,,10.0,30.138779,1020.6,,TRUE,TRUE,TRUE,,,TRUE,,UP,OVC,700,,,,,,,IFR,1.3,,,,,,,,,,,METAR,7.0
KPVC 140256Z AUTO 08011KT 10SM OVC023 M01/M06 A3036 RMK AO2 SLP279 T10111061 58009 FZRANO,KPVC,2019-01-14T02:56:00Z,42.07,-70.22,-1.1,-6.1,80,11,,10.0,30.360237,1027.9,,TRUE,TRUE,,,,TRUE,,,OVC,2300,,,,,,,MVFR,-0.9,,,,,,,,,,,METAR,2.0
KPTV 140256Z AUTO 11005KT 10SM CLR 09/08 A3001 RMK AO2 SLP179 T00940078 51010,KPTV,2019-01-14T02:56:00Z,36.02,-119.07,9.4,7.8,110,5,,10.0,30.008858,1017.9,,TRUE,TRUE,,,,,,,CLR,,,,,,,,VFR,1.0,,,,,,,,,,,METAR,135.0
KPTN 140256Z AUTO 01006KT 10SM CLR 07/03 A3036 RMK AO2 SLP281 T00670033 53018,KPTN,2019-01-14T02:56:00Z,29.72,-91.32,6.7,3.3,10,6,,10.0,30.360237,1028.1,,TRUE,TRUE,,,,,,,CLR,,,,,,,,VFR,1.8,,,,,,,,,,,METAR,3.0
KPRX 140256Z AUTO 01009KT 10SM OVC019 03/M01 A3044 RMK AO2 SLP326 T00281011 51007,KPRX,2019-01-14T02:56:00Z,33.62,-95.45,2.8,-1.1,10,9,,10.0,30.43996,1032.6,,TRUE,TRUE,,,,,,,OVC,1900,,,,,,,MVFR,0.7,,,,,,,,,,,METAR,167.0
KPQI 140256Z AUTO 32006KT 10SM CLR M24/M27 A3037 RMK AO2 SLP335 T12441267 50002 FZRANO,KPQI,2019-01-14T02:56:00Z,46.67,-68.03,-24.4,-26.7,320,6,,10.0,30.369095,1033.5,,TRUE,TRUE,,,,TRUE,,,CLR,,,,,,,,VFR,0.2,,,,,,,,,,,METAR,146.0
KPIB 140256Z AUTO 35008KT 10SM OVC018 05/02 A3035 RMK AO2 SLP279 T00500022 51013,KPIB,2019-01-14T02:56:00Z,31.47,-89.32,5.0,2.2,350,8,,10.0,30.351377,1027.9,,TRUE,TRUE,,,,,,,OVC,1800,,,,,,,MVFR,1.3,,,,,,,,,,,METAR,91.0
KJAC 140256Z 02008KT 10SM CLR M20/M22 A3028 RMK AO2 SLP417 T12001222 51009,KJAC,2019-01-14T02:56:00Z,43.62,-110.73,-20.0,-22.2,20,8,,10.0,30.280512,1041.7,,,TRUE,,,,,,,CLR,,,,,,,,VFR,0.9,,,,,,,,,,,METAR,1961.0
KJRB 140256Z AUTO 04014G20KT 10SM CLR M01/M07 A3031 RMK AO2 SLP265 T10111072 53000 FZRANO,KJRB,2019-01-14T02:56:00Z,40.7,-74.02,-1.1,-7.2,40,14,20,10.0,30.31004,1026.5,,TRUE,TRUE,,,,TRUE,,,CLR,,,,,,,,VFR,0.0,,,,,,,,,,,METAR,7.0
KJHW 140256Z AUTO 06004KT 10SM CLR M09/M14 A3025 RMK AO2 SLP280 T10941144 53003 FZRANO,KJHW,2019-01-14T02:56:00Z,42.13,-79.27,-9.4,-14.4,60,4,,10.0,30.250984,1028.0,,TRUE,TRUE,,,,TRUE,,,CLR,,,,,,,,VFR,0.3,,,,,,,,,,,METAR,525.0
KKLS 140256Z AUTO 00000KT 10SM CLR 02/01 A3012 RMK AO2 SLP203 T00220011 53001 FZRANO,KKLS,2019-01-14T02:56:00Z,46.12,-122.9,2.2,1.1,0,0,,10.0,30.121063,1020.3,,TRUE,TRUE,,,,TRUE,,,CLR,,,,,,,,VFR,0.1,,,,,,,,,,,METAR,5.0
KLBL 140256Z AUTO 16006KT 7SM OVC003 M01/M01 A3036 RMK AO2 SLP306 T10061011 50001 FZRANO,KLBL,2019-01-14T02:56:00Z,37.03,-100.97,-0.6,-1.1,160,6,,7.0,30.360237,1030.6,,TRUE,TRUE,,,,TRUE,,,OVC,300,,,,,,,LIFR,0.1,,,,,,,,,,,METAR,879.0
KLCI 140256Z AUTO 00000KT 10SM CLR M16/M18 A3038 RMK AO2 SLP310 T11561178 55002 FZRANO $,KLCI,2019-01-14T02:56:00Z,43.57,-71.42,-15.6,-17.8,0,0,,10.0,30.380905,1031.0,,TRUE,TRUE,TRUE,,,TRUE,,,CLR,,,,,,,,VFR,-0.2,,,,,,,,,,,METAR,166.0
KNUW 140256Z 00000KT 10SM CLR 04/01 A3018 RMK AO2 SLP219 T00390011 52000 $,KNUW,2019-01-14T02:56:00Z,48.35,-122.65,3.9,1.1,0,0,,10.0,30.180119,1021.9,,,TRUE,TRUE,,,,,,CLR,,,,,,,,VFR,0.0,,,,,,,,,,,METAR,14.0
KGAD 140256Z AUTO 31004KT 10SM OVC012 06/06 A3027 RMK AO2 SLP258 T00610056 51013,KGAD,2019-01-14T02:56:00Z,33.97,-86.07,6.1,5.6,310,4,,10.0,30.268702,1025.8,,TRUE,TRUE,,,,,,,OVC,1200,,,,,,,MVFR,1.3,,,,,,,,,,,METAR,173.0
KLRD 140256Z 05012KT 10SM OVC050 13/03 A3032 RMK AO2 SLP286 T01330033 51017,KLRD,2019-01-14T02:56:00Z,27.55,-99.47,13.3,3.3,50,12,,10.0,30.318897,1028.6,,,TRUE,,,,,,,OVC,5000,,,,,,,VFR,1.7,,,,,,,,,,,METAR,155.0
KLPC 140256Z AUTO 14008G16KT 090V160 10SM FEW100 SCT120 14/09 A2995 RMK AO2 SLP147 T01440094 58001,KLPC,2019-01-14T02:56:00Z,34.67,-120.47,14.4,9.4,140,8,16,10.0,29.949802,1014.7,,TRUE,TRUE,,,,,,,FEW,10000,SCT,12000,,,,,VFR,-0.1,,,,,,,,,,,METAR,27.0
KLEW 140256Z AUTO 00000KT 10SM CLR M16/M18 A3039 RMK AO2 SLP310 T11561178 58003 FZRANO,KLEW,2019-01-14T02:56:00Z,44.03,-70.27,-15.6,-17.8,0,0,,10.0,30.389763,1031.0,,TRUE,TRUE,,,,TRUE,,,CLR,,,,,,,,VFR,-0.3,,,,,,,,,,,METAR,88.0
KGAI 140256Z AUTO 00000KT 3SM -SN BR OVC027 M03/M04 A3028 RMK AO2 SLP287 P0006 60020 T10331044 51007 FZRANO,KGAI,2019-01-14T02:56:00Z,39.17,-77.17,-3.3,-4.4,0,0,,3.0,30.280512,1028.7,,TRUE,TRUE,,,,TRUE,,-SN BR,OVC,2700,,,,,,,MVFR,0.7,,,,,0.06,0.2,,,,,METAR,165.0
KGBD 140256Z AUTO 21005KT 10SM OVC010 M02/M03 A3042 RMK AO2 SLP322 T10171033 50003 FZRANO,KGBD,2019-01-14T02:56:00Z,38.35,-98.87,-1.7,-3.3,210,5,,10.0,30.41929,1032.2,,TRUE,TRUE,,,,TRUE,,,OVC,1000,,,,,,,MVFR,0.3,,,,,,,,,,,METAR,575.0
KGDV 140256Z AUTO 10SM CLR M03/M05 A3015 RMK AO2 SLP249 T10281050 51001 FZRANO $,KGDV,2019-01-14T02:56:00Z,47.12,-104.78,-2.8,-5.0,,,,10.0,30.15059,1024.9,,TRUE,TRUE,TRUE,,,TRUE,,,CLR,,,,,,,,VFR,0.1,,,,,,,,,,,METAR,749.0
KGHW 140256Z AUTO 22009KT 10SM OVC010 M02/M02 A3023 RMK AO2,KGHW,2019-01-14T02:56:00Z,45.63,-95.32,-2.0,-2.0,220,9,,10.0,30.230314,,,TRUE,TRUE,,,,,,,OVC,1000,,,,,,,MVFR,,,,,,,,,,,,METAR,425.0
KGPZ 140256Z AUTO 22005KT 7SM OVC008 M02/M03 A3020 RMK AO2 SLP250 T10221033 58009 FZRANO,KGPZ,2019-01-14T02:56:00Z,47.22,-93.52,-2.2,-3.3,220,5,,7.0,30.200787,1025.0,,TRUE,TRUE,,,,TRUE,,,OVC,800,,,,,,,IFR,-0.9,,,,,,,,,,,METAR,413.0
KGTR 140256Z AUTO 32008KT 10SM OVC018 05/02 A3035 RMK AO2 SLP280 T00500022 51012,KGTR,2019-01-14T02:56:00Z,33.45,-88.57,5.0,2.2,320,8,,10.0,30.351377,1028.0,,TRUE,TRUE,,,,,,,OVC,1800,,,,,,,MVFR,1.2,,,,,,,,,,,METAR,80.0
KNJK 140256Z AUTO 28003KT 10SM FEW065 14/05 A3011 RMK AO2 SLP210 T01390050 53008 $,KNJK,2019-01-14T02:56:00Z,32.82,-115.67,13.9,5.0,280,3,,10.0,30.109253,1021.0,,TRUE,TRUE,TRUE,,,,,,FEW,6500,,,,,,,VFR,0.8,,,,,,,,,,,METAR,-13.0
KGUC 140256Z AUTO 00000KT 10SM CLR M14/M16 A3024 RMK AO2 SLP356 T11391156 51013 FZRANO,KGUC,2019-01-14T02:56:00Z,38.52,-106.92,-13.9,-15.6,0,0,,10.0,30.239174,1035.6,,TRUE,TRUE,,,,TRUE,,,CLR,,,,,,,,VFR,1.3,,,,,,,,,,,METAR,2339.0
KGTU 140256Z 01006KT 10SM CLR 04/01 A3042 RMK AO2 SLP307 T00440011 51014,KGTU,2019-01-14T02:56:00Z,30.68,-97.68,4.4,1.1,10,6,,10.0,30.41929,1030.7,,,TRUE,,,,,,,CLR,,,,,,,,VFR,1.4,,,,,,,,,,,METAR,240.0
KOXD 140256Z AUTO 02006KT 10SM OVC008 M02/M03 A3028 RMK AO2 T10201026,KOXD,2019-01-14T02:56:00Z,39.5,-84.78,-2.0,-2.6,20,6,,10.0,30.280512,,,TRUE,TRUE,,,,,,,OVC,800,,,,,,,IFR,,,,,,,,,,,,METAR,317.0
KD39 140256Z AUTO 20008KT 10SM OVC012 M01/M03 A3024 RMK AO2 T10151030,KD39,2019-01-14T02:56:00Z,45.7,-94.93,-1.5,-3.0,200,8,,10.0,30.239174,,,TRUE,TRUE,,,,,,,OVC,1200,,,,,,,MVFR,,,,,,,,,,,,METAR,380.0
KHZR 140256Z AUTO 03009KT 10SM OVC021 06/01 A3038 RMK AO2,KHZR,2019-01-14T02:56:00Z,30.72,-91.48,6.0,1.0,30,9,,10.0,30.380905,,,TRUE,TRUE,,,,,,,OVC,2100,,,,,,,MVFR,,,,,,,,,,,,METAR,12.0
KCUL 140256Z AUTO 34008KT 7SM OVC013 00/M02 A3035 RMK AO2,KCUL,2019-01-14T02:56:00Z,38.08,-88.12,0.0,-2.0,340,8,,7.0,30.351377,,,TRUE,TRUE,,,,,,,OVC,1300,,,,,,,MVFR,,,,,,,,,,,,METAR,118.0
KSFY 140256Z AUTO 00000KT 10SM OVC022 M03/M06 A3042 RMK AO2,KSFY,2019-01-14T02:56:00Z,42.05,-90.12,-3.0,-6.0,0,0,,10.0,30.41929,,,TRUE,TRUE,,,,,,,OVC,2200,,,,,,,MVFR,,,,,,,,,,,,METAR,188.0
KSMP 140256Z AUTO 06007KT 020V160 10SM CLR M03/M05 A3017 RMK AO2 SLP252 T10281050 55004 $,KSMP,2019-01-14T02:56:00Z,47.28,-121.33,-2.8,-5.0,60,7,,10.0,30.171259,1025.2,,TRUE,TRUE,TRUE,,,,,,CLR,,,,,,,,VFR,-0.4,,,,,,,,,,,SPECI,1208.0
KSXT 140256Z AUTO 11008KT 10SM CLR 07/M06 A3000 RMK AO2 SLP159 T00721061 58003,KSXT,2019-01-14T02:56:00Z,42.6,-123.37,7.2,-6.1,110,8,,10.0,30.0,1015.9,,TRUE,TRUE,,,,,,,CLR,,,,,,,,VFR,-0.3,,,,,,,,,,,SPECI,1170.0
RJTY 140256Z AUTO 05007KT 10SM CLR 08/M05 A3020 RMK AO2 SLP236 T00781053 58017 FZRANO $,RJTY,2019-01-14T02:56:00Z,35.75,139.33,7.8,-5.3,50,7,,10.0,30.200787,1023.6,,TRUE,TRUE,TRUE,,,TRUE,,,CLR,,,,,,,,VFR,-1.7,,,,,,,,,,,SPECI,139.0
RKSG 140256Z 13006KT 1/2SM FZFG VV002 00/00 A3034 RMK AO2A SLP278 T00040004 50000 $,RKSG,2019-01-14T02:56:00Z,36.97,127.02,0.4,0.4,130,6,,0.5,30.339567,1027.8,,,TRUE,TRUE,,,,,FZFG,OVX,0,,,,,,,LIFR,0.0,,,,,,,,,,200,SPECI,16.0
PAEI 140256Z AUTO 00000KT 10SM FEW150 M21/M24 A2982 RMK AO2 SLP119 T12081241 52010 $,PAEI,2019-01-14T02:56:00Z,64.67,-147.1,-20.8,-24.1,0,0,,10.0,29.819881,1011.9,,TRUE,TRUE,TRUE,,,,,,FEW,15000,,,,,,,VFR,1.0,,,,,,,,,,,METAR,167.0
MUGM 140256Z 34006KT 9999 FEW030 FEW080 23/20 A3011 RMK SLP195 T02330202 51015,MUGM,2019-01-14T02:56:00Z,19.9,-75.2,23.3,20.2,340,6,,6.21,30.109253,1019.5,,,,,,,,,,FEW,3000,FEW,8000,,,,,VFR,1.5,,,,,,,,,,,SPECI,17.0
KMGE 140256Z 28006KT 7SM OVC008 07/05 A3019 RMK AO2A SLP230 T00670053 52010 $,KMGE,2019-01-14T02:56:00Z,33.92,-84.52,6.7,5.3,280,6,,7.0,30.188976,1023.0,,,TRUE,TRUE,,,,,,OVC,800,,,,,,,IFR,1.0,,,,,,,,,,,METAR,326.0
KDYS 140256Z 03005KT 10SM OVC011 01/M01 A3043 RMK AO2A SLP329 ALSTG/SLP ESTMD PNO $,KDYS,2019-01-14T02:56:00Z,32.42,-99.83,1.0,-1.0,30,5,,10.0,30.431103,1032.9,,,TRUE,TRUE,,,,,,OVC,1100,,,,,,,MVFR,,,,,,,,,,,,METAR,545.0
KADW 140256Z 01011KT 9SM -UP OVC016 M02/M04 A3026 RMK AO2A SNE16UPB16E30SNB30E40UPB40 CIG 003 RWY19L SLP257 P0001 60004 T10251044 52010 $,KADW,2019-01-14T02:56:00Z,38.82,-76.87,-2.5,-4.4,10,11,,9.0,30.259842,1025.7,,,TRUE,TRUE,,,,,UP,OVC,1600,,,,,,,MVFR,1.0,,,,,0.01,0.04,,,,,METAR,86.0
KNSE 140256Z AUTO 36007KT 310V030 10SM OVC027 09/04 A3027 RMK AO2 SLP237 T00940044 51014 $,KNSE,2019-01-14T02:56:00Z,30.73,-87.02,9.4,4.4,360,7,,10.0,30.268702,1023.7,,TRUE,TRUE,TRUE,,,,,,OVC,2700,,,,,,,MVFR,1.4,,,,,,,,,,,METAR,61.0
KPEX 140256Z AUTO 23010G14KT 10SM OVC011 M01/M02 A3026 RMK AO2 T10091018,KPEX,2019-01-14T02:56:00Z,45.37,-94.73,-0.9,-1.8,230,10,14,10.0,30.259842,,,TRUE,TRUE,,,,,,,OVC,1100,,,,,,,MVFR,,,,,,,,,,,,METAR,360.0
KLNQ 140256Z AUTO 36010KT 10SM OVC019 09/03 A3033 RMK AO2 T00850034,KLNQ,2019-01-14T02:56:00Z,29.35,-89.43,8.5,3.4,360,10,,10.0,30.33071,,,TRUE,TRUE,,,,,,,OVC,1900,,,,,,,MVFR,,,,,,,,,,,,METAR,1.0
KI19 140256Z AUTO 36004KT 10SM OVC010 M01/M02 A3029 RMK AO2 T10131025,KI19,2019-01-14T02:56:00Z,39.7,-83.98,-1.3,-2.5,360,4,,10.0,30.28937,,,TRUE,TRUE,,,,,,,OVC,1000,,,,,,,MVFR,,,,,,,,,,,,METAR,289.0
KFKA 140256Z AUTO 21005KT 10SM CLR M04/M06 A3034 RMK AO2 T10431064,KFKA,2019-01-14T02:56:00Z,43.68,-92.17,-4.3,-6.4,210,5,,10.0,30.339567,,,TRUE,TRUE,,,,,,,CLR,,,,,,,,VFR,,,,,,,,,,,,SPECI,389.0
KCFE 140256Z AUTO 20006KT 10SM OVC018 00/M03 A3029 RMK AO2 T00001027,KCFE,2019-01-14T02:56:00Z,45.17,-93.85,0.0,-2.7,200,6,,10.0,30.28937,,,TRUE,TRUE,,,,,,,OVC,1800,,,,,,,MVFR,,,,,,,,,,,,SPECI,295.0
KCDI 140256Z AUTO 03005KT 10SM SCT020 OVC034 00/M04 A3024 RMK AO2 T10051036,KCDI,2019-01-14T02:56:00Z,39.97,-81.58,-0.5,-3.6,30,5,,10.0,30.239174,,,TRUE,TRUE,,,,,,,SCT,2000,OVC,3400,,,,,VFR,,,,,,,,,,,,SPECI,244.0
KBFW 140256Z AUTO 23003KT 10SM OVC014 M01/M03 A3017 RMK AO2,KBFW,2019-01-14T02:56:00Z,47.25,-91.4,-1.0,-3.0,230,3,,10.0,30.171259,,,TRUE,TRUE,,,,,,,OVC,1400,,,,,,,MVFR,,,,,,,,,,,,SPECI,331.0
KP60 140256Z AUTO 00000KT M16/M17 A3025 RMK AO1 SLP385 T11561172 51006,KP60,2019-01-14T02:56:00Z,44.55,-110.42,-15.6,-17.2,0,0,,,30.250984,1038.5,,TRUE,TRUE,,,,,,,,,,,,,,,,0.6,,,,,,,,,,,METAR,2388.0
KMEH 140256Z AUTO 00000KT 10SM CLR M06/M08 A3020 RMK AO2 SLP268 T10561083 50002,KMEH,2019-01-14T02:56:00Z,45.52,-118.42,-5.6,-8.3,0,0,,10.0,30.200787,1026.8,,TRUE,TRUE,,,,,,,CLR,,,,,,,,VFR,0.2,,,,,,,,,,,METAR,1136.0
KXMR 140256Z AUTO 29004KT 10SM CLR 20/16 A3012 RMK AO2 SLP203 T01960162 52012 $,KXMR,2019-01-14T02:56:00Z,28.47,-80.57,19.6,16.2,290,4,,10.0,30.121063,1020.3,,TRUE,TRUE,TRUE,,,,,,CLR,,,,,,,,VFR,1.2,,,,,,,,,,,METAR,3.0
KMIB 140256Z AUTO 32007KT 10SM CLR M13/M15 A3018 RMK AO2 SLP262 T11321148 51009,KMIB,2019-01-14T02:56:00Z,48.42,-101.33,-13.2,-14.8,320,7,,10.0,30.180119,1026.2,,TRUE,TRUE,,,,,,,CLR,,,,,,,,VFR,0.9,,,,,,,,,,,METAR,508.0
KIAB 140256Z AUTO 35005KT 10SM OVC007 M02/M03 A3044 RMK AO2 SLP327 T10181034 52004 CHINO RWY19 $,KIAB,2019-01-14T02:56:00Z,37.62,-97.27,-1.8,-3.4,350,5,,10.0,30.43996,1032.7,,TRUE,TRUE,TRUE,,,,,,OVC,700,,,,,,,IFR,0.4,,,,,,,,,,,METAR,418.0
KFSI 140256Z AUTO 03005KT 10SM OVC014 01/M01 A3045 RMK AO2 SLP321 T00051007 52009,KFSI,2019-01-14T02:56:00Z,34.65,-98.4,0.5,-0.7,30,5,,10.0,30.448818,1032.1,,TRUE,TRUE,,,,,,,OVC,1400,,,,,,,MVFR,0.9,,,,,,,,,,,METAR,362.0
KDOV 140256Z 36012KT 10SM BKN029 OVC045 M01/M06 A3023 RMK AO2A SLP240 T10121064 53001 $,KDOV,2019-01-14T02:56:00Z,39.12,-75.47,-1.2,-6.4,360,12,,10.0,30.230314,1024.0,,,TRUE,TRUE,,,,,,BKN,2900,OVC,4500,,,,,MVFR,0.1,,,,,,,,,,,METAR,9.0
KCBM 140256Z AUTO 32010KT 10SM OVC018 05/01 A3034 RMK AO2 SLP278 T00530014 52012 $,KCBM,2019-01-14T02:56:00Z,33.63,-88.45,5.3,1.4,320,10,,10.0,30.339567,1027.8,,TRUE,TRUE,TRUE,,,,,,OVC,1800,,,,,,,MVFR,1.2,,,,,,,,,,,METAR,67.0
KRDM 140256Z 31006KT 10SM OVC004 M03/M04 A3022 RMK AO2 SLP260 T10281039 51006,KRDM,2019-01-14T02:56:00Z,44.25,-121.15,-2.8,-3.9,310,6,,10.0,30.221457,1026.0,,,TRUE,,,,,,,OVC,400,,,,,,,LIFR,0.6,,,,,,,,,,,METAR,938.0
KPWC 140256Z AUTO 22004KT 10SM OVC010 M02/M04 A3023 RMK AO2,KPWC,2019-01-14T02:56:00Z,46.72,-94.37,-2.0,-4.0,220,4,,10.0,30.230314,,,TRUE,TRUE,,,,,,,OVC,1000,,,,,,,MVFR,,,,,,,,,,,,METAR,395.0
KOSC 140256Z AUTO 00000KT 10SM BKN018 M06/M09 A3037 RMK AO2 T10631089,KOSC,2019-01-14T02:56:00Z,44.45,-83.4,-6.3,-8.9,0,0,,10.0,30.369095,,,TRUE,TRUE,,,,,,,BKN,1800,,,,,,,MVFR,,,,,,,,,,,,METAR,193.0
KOFK 140256Z AUTO 22010G19KT 10SM OVC014 M01/M03 A3032 RMK AO2 SLP286 T10061028 58008,KOFK,2019-01-14T02:56:00Z,41.98,-97.43,-0.6,-2.8,220,10,19,10.0,30.318897,1028.6,,TRUE,TRUE,,,,,,,OVC,1400,,,,,,,MVFR,-0.8,,,,,,,,,,,METAR,470.0
KNUQ 140256Z 00000KT 10SM CLR 12/08 A2995 RMK AO2 SLP146 T01220078 53004,KNUQ,2019-01-14T02:56:00Z,37.4,-122.05,12.2,7.8,0,0,,10.0,29.949802,1014.6,,,TRUE,,,,,,,CLR,,,,,,,,VFR,0.4,,,,,,,,,,,METAR,12.0
KMOP 140256Z AUTO 00000KT 10SM CLR M06/M10 A3038 RMK AO2 T10651096,KMOP,2019-01-14T02:56:00Z,43.62,-84.73,-6.5,-9.6,0,0,,10.0,30.380905,,,TRUE,TRUE,,,,,,,CLR,,,,,,,,VFR,,,,,,,,,,,,METAR,230.0
OTBH 140256Z 00000KT 8000 BR SCT220 16/14 A3005 RMK AO2A SLP178 T01570142 53009 $,OTBH,2019-01-14T02:56:00Z,25.12,51.32,15.7,14.2,0,0,,4.97,30.050198,1017.8,,,TRUE,TRUE,,,,,BR,SCT,22000,,,,,,,MVFR,0.9,,,,,,,,,,,METAR,40.0
KCEF 140256Z 02005KT 10SM BKN230 M10/M14 A3036 RMK AO2A SLP292 T11011137 53002,KCEF,2019-01-14T02:56:00Z,42.2,-72.52,-10.1,-13.7,20,5,,10.0,30.360237,1029.2,,,TRUE,,,,,,,BKN,23000,,,,,,,VFR,0.2,,,,,,,,,,,METAR,75.0
KBLV 140256Z 35008KT 10SM OVC014 M02/M05 A3044 RMK AO2A SLP317 ALSTG/SLP ESTMD RVRNO PNO TSNO $,KBLV,2019-01-14T02:56:00Z,38.53,-89.83,-2.0,-5.0,350,8,,10.0,30.43996,1031.7,,,TRUE,TRUE,,TRUE,,,,OVC,1400,,,,,,,MVFR,,,,,,,,,,,,METAR,138.0
KNDZ 140256Z 36010G19KT 10SM OVC027 10/04 A3027 RMK AO2 SLP238 T01000044 51014 $,KNDZ,2019-01-14T02:56:00Z,30.7,-87.02,10.0,4.4,360,10,19,10.0,30.268702,1023.8,,,TRUE,TRUE,,,,,,OVC,2700,,,,,,,MVFR,1.4,,,,,,,,,,,SPECI,54.0
ETAR 140256Z 24003KT 9999 SCT037 SCT055 04/01 A2974 RMK AO2A SLP081 T0044 52021 $,ETAR,2019-01-14T02:56:00Z,49.42,7.58,4.4,1.0,240,3,,6.21,29.740158,1008.1,,,TRUE,TRUE,,,,,,SCT,3700,SCT,5500,,,,,VFR,2.1,,,,,,,,,,,SPECI,238.0
KDRA 140256Z AUTO 10008KT 10SM CLR 07/M06 A3012 RMK AO2 SLP194 T00671056 53013,KDRA,2019-01-14T02:56:00Z,36.62,-116.03,6.7,-5.6,100,8,,10.0,30.121063,1019.4,,TRUE,TRUE,,,,,,,CLR,,,,,,,,VFR,1.3,,,,,,,,,,,SPECI,1006.0
KNRS 140256Z AUTO 12003KT 6SM HZ CLR 12/09 A3004 RMK AO2 RAB16E47 SLP173 P0000 60000 T01170089 53001 $,KNRS,2019-01-14T02:56:00Z,32.57,-117.12,11.7,8.9,120,3,,6.0,30.041338,1017.3,,TRUE,TRUE,TRUE,,,,,HZ,CLR,,,,,,,,VFR,0.1,,,,,0.005,,,,,,SPECI,7.0
KNBT 140256Z AUTO 32017G21KT 10SM OVC008 05/04 A3007 RMK AO2 SLP188 6//// T00500044 53019 PNO $,KNBT,2019-01-14T02:56:00Z,35.02,-76.47,5.0,4.4,320,17,21,10.0,30.070866,1018.8,,TRUE,TRUE,TRUE,,,,,,OVC,800,,,,,,,IFR,1.9,,,,,,,,,,,METAR,5.0
KFRI 140256Z AUTO 00000KT 7SM OVC008 M02/M04 A3045 RMK AO2 SLPNO T10171039 50004 $,KFRI,2019-01-14T02:56:00Z,39.03,-96.77,-1.7,-3.9,0,0,,7.0,30.448818,,,TRUE,TRUE,TRUE,,,,,,OVC,800,,,,,,,IFR,0.4,,,,,,,,,,,SPECI,325.0
KFFO 140256Z AUTO 02010KT 10SM OVC011 M01/M04 A3028 RMK AO2 SLP267 T10151042 52011,KFFO,2019-01-14T02:56:00Z,39.82,-84.03,-1.5,-4.2,20,10,,10.0,30.280512,1026.7,,TRUE,TRUE,,,,,,,OVC,1100,,,,,,,MVFR,1.1,,,,,,,,,,,SPECI,251.0
PGUA 140256Z AUTO 05016KT 10SM FEW018 BKN049 28/21 A2983 RMK AO2 SLP092 T02810214 57014 $,PGUA,2019-01-14T02:56:00Z,13.57,144.92,28.1,21.4,50,16,,10.0,29.828741,1009.2,,TRUE,TRUE,TRUE,,,,,,FEW,1800,BKN,4900,,,,,VFR,-1.4,,,,,,,,,,,SPECI,187.0
KNFL 140256Z AUTO 04004KT 10SM CLR M01/M05 A3011 RMK AO2 SLP163 T10061050 51007,KNFL,2019-01-14T02:56:00Z,39.42,-118.7,-0.6,-5.0,40,4,,10.0,30.109253,1016.3,,TRUE,TRUE,,,,,,,CLR,,,,,,,,VFR,0.7,,,,,,,,,,,SPECI,1199.0
KWRB 140256Z AUTO 00000KT 10SM FEW047 06/06 A3020 RMK AO2 SLP231 T00640063 51005,KWRB,2019-01-14T02:56:00Z,32.62,-83.58,6.4,6.3,0,0,,10.0,30.200787,1023.1,,TRUE,TRUE,,,,,,,FEW,4700,,,,,,,VFR,0.5,,,,,,,,,,,SPECI,90.0
KPAM 140256Z AUTO 35010KT 10SM BKN027 09/06 A3024 RMK AO2 SLP243 T00940056 52025 $,KPAM,2019-01-14T02:56:00Z,30.07,-85.57,9.4,5.6,350,10,,10.0,30.239174,1024.3,,TRUE,TRUE,TRUE,,,,,,BKN,2700,,,,,,,MVFR,2.5,,,,,,,,,,,METAR,5.0
KGVQ 140256Z AUTO 10006KT 10SM -SN OVC010 M08/M10 A3037 RMK AO2 UPB0158E50SNE0158B50 SLP319 P0000 60000 T10781100 53001 FZRANO,KGVQ,2019-01-14T02:56:00Z,43.03,-78.17,-7.8,-10.0,100,6,,10.0,30.369095,1031.9,,TRUE,TRUE,,,,TRUE,,-SN,OVC,1000,,,,,,,MVFR,0.1,,,,,0.005,0.005,,,,,METAR,278.0
KW96 140255Z AUTO 35005KT 7SM OVC009 M01/M01 A3020 RMK AO1 60012 T10101010,KW96,2019-01-14T02:55:00Z,37.5,-77.12,-1.0,-1.0,350,5,,7.0,30.200787,,,TRUE,TRUE,,,,,,,OVC,900,,,,,,,IFR,,,,,,,0.12,,,,,METAR,37.0
KCNW 140255Z 02009KT 10SM SCT019 03/00 A3044,KCNW,2019-01-14T02:55:00Z,31.63,-97.07,3.0,0.0,20,9,,10.0,30.43996,,,,,,,,,,,SCT,1900,,,,,,,VFR,,,,,,,,,,,,METAR,156.0
TNCE 140255Z AUTO 06009KT 030V090 //// // ///////// 24/20 Q1018 RE//,TNCE,2019-01-14T02:55:00Z,17.47,-62.97,24.0,20.0,60,9,,,30.059055,,,TRUE,,,,,,,,,,,,,,,,,,,,,,,,,,,,METAR,39.0
TNCB 140255Z AUTO 09012KT 9999 FEW017/// 25/21 Q1016,TNCB,2019-01-14T02:55:00Z,12.13,-68.28,25.0,21.0,90,12,,6.21,30.0,,,TRUE,,,,,,,,FEW,1700,,,,,,,VFR,,,,,,,,,,,,METAR,6.0
K14Y 140255Z AUTO 21008KT OVC011 M01/M03 A3023 RMK AO2 PWINO,K14Y,2019-01-14T02:55:00Z,45.9,-94.87,-1.0,-3.0,210,8,,,30.230314,,,TRUE,TRUE,,,,,TRUE,,OVC,1100,,,,,,,,,,,,,,,,,,,METAR,406.0
KCKP 140255Z AUTO 20008KT 5SM BR CLR M03/M03 A3034 RMK AO2 T10281031,KCKP,2019-01-14T02:55:00Z,42.73,-95.55,-2.8,-3.1,200,8,,5.0,30.339567,,,TRUE,TRUE,,,,,,BR,CLR,,,,,,,,MVFR,,,,,,,,,,,,METAR,374.0
KCCB 140255Z AUTO 10007KT 10SM BKN110 14/03 A3002 RMK AO2,KCCB,2019-01-14T02:55:00Z,34.12,-117.68,14.0,3.0,100,7,,10.0,30.02067,,,TRUE,TRUE,,,,,,,BKN,11000,,,,,,,VFR,,,,,,,,,,,,METAR,440.0
KC83 140255Z AUTO 00000KT 9SM CLR 07/06 A2998 RMK AO2,KC83,2019-01-14T02:55:00Z,37.83,-121.62,7.0,6.0,0,0,,9.0,29.97933,,,TRUE,TRUE,,,,,,,CLR,,,,,,,,VFR,,,,,,,,,,,,METAR,24.0
KC29 140255Z AUTO 29004KT 10SM OVC015 M02/M05 A3039 RMK AO1 T10251053,KC29,2019-01-14T02:55:00Z,43.12,-89.53,-2.5,-5.3,290,4,,10.0,30.389763,,,TRUE,TRUE,,,,,,,OVC,1500,,,,,,,MVFR,,,,,,,,,,,,METAR,283.0
KBWD 140255Z AUTO 02006KT 10SM OVC014 02/00 A3042 RMK AO1,KBWD,2019-01-14T02:55:00Z,31.8,-98.95,2.0,0.0,20,6,,10.0,30.41929,,,TRUE,TRUE,,,,,,,OVC,1400,,,,,,,MVFR,,,,,,,,,,,,METAR,423.0
KBQX 140255Z AUTO 05011G16KT 10SM OVC070 13/07 A3035 RMK A01,KBQX,2019-01-14T02:55:00Z,28.5,-95.72,13.0,7.0,50,11,16,10.0,30.351377,,,TRUE,TRUE,,,,,,,OVC,7000,,,,,,,VFR,,,,,,,,,,,,METAR,34.0
PAUT 140255Z AUTO 15018G25KT 10SM SCT014 SCT034 BKN100 03/00 A2871 RMK AO2 60009 T00260002,PAUT,2019-01-14T02:55:00Z,54.15,-165.6,2.6,0.2,150,18,25,10.0,28.709646,,,TRUE,TRUE,,,,,,,SCT,1400,SCT,3400,BKN,10000,,,VFR,,,,,,,0.09,,,,,METAR,25.0
KLVN 140255Z AUTO 18004KT 10SM 00/M02 A3031 RMK AO2,KLVN,2019-01-14T02:55:00Z,44.63,-93.23,0.0,-2.0,180,4,,10.0,30.31004,,,TRUE,TRUE,,,,,,,,,,,,,,,,,,,,,,,,,,,SPECI,293.0
ORBD 140255Z 14011KT 6000 FUHZ OVC029 13/10 A2978 RMK WND DATA ALSTG ESTMD,ORBD,2019-01-14T02:55:00Z,33.93,44.37,13.0,10.0,140,11,,3.73,29.778543,,,,,,,,,,FU HZ,OVC,2900,,,,,,,MVFR,,,,,,,,,,,,METAR,49.0
KQZF 140255Z AUTO 36006KT 3SM HZ FEW007 16/M10 A3003 RMK AO2 SLP156 WND DATA ESTMD T01611104 55005 $,KQZF,2019-01-14T02:55:00Z,,,16.1,-10.4,360,6,,3.0,30.029528,1015.6,,TRUE,TRUE,TRUE,,,,,HZ,FEW,700,,,,,,,MVFR,-0.5,,,,,,,,,,,METAR,
KWHP 140255Z 00000KT 10SM BKN110 13/04 A3005,KWHP,2019-01-14T02:55:00Z,34.25,-118.42,13.0,4.0,0,0,,10.0,30.050198,,,,,,,,,,,BKN,11000,,,,,,,VFR,,,,,,,,,,,,METAR,306.0
KQVF 140255Z AUTO 00000KT 8SM CLR 25/ A2985 RMK AO2 SLP108 WND DATA ESTMD T0249 52012,KQVF,2019-01-14T02:55:00Z,,,24.9,,0,0,,8.0,29.84941,1010.8,,TRUE,TRUE,,,,,,,CLR,,,,,,,,VFR,1.2,,,,,,,,,,,METAR,
LICT 140255Z 28014KT 9999 FEW020 BKN040 12/10 Q1010 RMK BKN VIS MIN 9999 WIND THR13 28017KT BLU,LICT,2019-01-14T02:55:00Z,37.92,12.5,12.0,10.0,280,14,,6.21,29.822834,,,,,,,,,,,FEW,2000,BKN,4000,,,,,VFR,,,,,,,,,,,,SPECI,7.0
LIRS 140255Z 03003KT 9999 SCT040 04/03 Q1004 RMK SCT VIS MIN 9999 WIND THR03 03005KT WIND THR21 06002KT BLU,LIRS,2019-01-14T02:55:00Z,42.75,11.07,4.0,3.0,30,3,,6.21,29.64567,,,,,,,,,,,SCT,4000,,,,,,,VFR,,,,,,,,,,,,SPECI,7.0
LIRM 140255Z /////KT 5000 BR SCT025 03/02 Q1005,LIRM,2019-01-14T02:55:00Z,41.03,14.07,3.0,2.0,,,,3.11,29.675198,,,,,,,,,,BR,SCT,2500,,,,,,,MVFR,,,,,,,,,,,,METAR,10.0
LIPC 140255Z 22003KT CAVOK 00/M00 Q1000 RMK BKN BKN200 VIS MIN 9999 WIND THR11 /////KT WIND THR29 23002KT BLU,LIPC,2019-01-14T02:55:00Z,44.22,12.3,0.0,0.0,220,3,,6.21,29.52756,,,,,,,,,,,CAVOK,,,,,,,,VFR,,,,,,,,,,,,METAR,10.0
KDZJ 140255Z AUTO 26004KT 5SM BR OVC004 05/05 A3017 RMK AO2 T00530049 60001,KDZJ,2019-01-14T02:55:00Z,34.85,-84.0,5.3,4.9,260,4,,5.0,30.171259,,,TRUE,TRUE,,,,,,BR,OVC,400,,,,,,,LIFR,,,,,,,0.01,,,,,METAR,582.0
KDZB 140255Z AUTO 04005KT 10SM BKN065 06/02 A3040 RMK AO2 T00580020,KDZB,2019-01-14T02:55:00Z,30.53,-98.37,5.8,2.0,40,5,,10.0,30.398623,,,TRUE,TRUE,,,,,,,BKN,6500,,,,,,,VFR,,,,,,,,,,,,METAR,334.0
KDXX 140255Z AUTO 22008KT 10SM OVC014 01/M01 A3024 RMK AO2,KDXX,2019-01-14T02:55:00Z,44.98,-96.18,1.0,-1.0,220,8,,10.0,30.239174,,,TRUE,TRUE,,,,,,,OVC,1400,,,,,,,MVFR,,,,,,,,,,,,METAR,330.0
KDUX 140255Z AUTO 15004KT 5SM BR SCT070 00/M01 A3034 RMK AO2 T10031011,KDUX,2019-01-14T02:55:00Z,35.85,-102.02,-0.3,-1.1,150,4,,5.0,30.339567,,,TRUE,TRUE,,,,,,BR,SCT,7000,,,,,,,MVFR,,,,,,,,,,,,METAR,1129.0
KDUA 140255Z AUTO 34005KT 10SM OVC017 01/M01 A3046 RMK AO2,KDUA,2019-01-14T02:55:00Z,33.95,-96.4,1.0,-1.0,340,5,,10.0,30.46063,,,TRUE,TRUE,,,,,,,OVC,1700,,,,,,,MVFR,,,,,,,,,,,,METAR,213.0
KDRI 140255Z AUTO 02003KT 10SM CLR 03/00 A3041 RMK AO2 T00340003,KDRI,2019-01-14T02:55:00Z,30.83,-93.33,3.4,0.3,20,3,,10.0,30.410433,,,TRUE,TRUE,,,,,,,CLR,,,,,,,,VFR,,,,,,,,,,,,METAR,63.0
KDNV 140255Z AUTO 35006KT 7SM OVC033 M06/M08 A3035 RMK AO2 T10591076,KDNV,2019-01-14T02:55:00Z,40.2,-87.6,-5.9,-7.6,350,6,,7.0,30.351377,,,TRUE,TRUE,,,,,,,OVC,3300,,,,,,,VFR,,,,,,,,,,,,METAR,212.0
KDNN 140255Z AUTO 00000KT 2SM BR SCT001 SCT014 OVC022 05/05 A3023 RMK AO2,KDNN,2019-01-14T02:55:00Z,34.72,-84.87,5.0,5.0,0,0,,2.0,30.230314,,,TRUE,TRUE,,,,,,BR,SCT,100,SCT,1400,OVC,2200,,,IFR,,,,,,,,,,,,METAR,216.0
KDLO 140255Z AUTO 09004KT 10SM CLR 10/06 A3000 RMK AO2 T00950059,KDLO,2019-01-14T02:55:00Z,35.75,-119.23,9.5,5.9,90,4,,10.0,30.0,,,TRUE,TRUE,,,,,,,CLR,,,,,,,,VFR,,,,,,,,,,,,METAR,96.0
KDLH 140255Z 25012KT 10SM OVC011 M01/M04 A3019 RMK AO2 SLP245 T10061039 58012,KDLH,2019-01-14T02:55:00Z,46.85,-92.2,-0.6,-3.9,250,12,,10.0,30.188976,1024.5,,,TRUE,,,,,,,OVC,1100,,,,,,,MVFR,-1.2,,,,,,,,,,,METAR,435.0
KD25 140255Z AUTO 21007KT 10SM OVC014 M05/M07 A3024 RMK AO2 T10511067,KD25,2019-01-14T02:55:00Z,46.12,-89.88,-5.1,-6.7,210,7,,10.0,30.239174,,,TRUE,TRUE,,,,,,,OVC,1400,,,,,,,MVFR,,,,,,,,,,,,METAR,491.0
KCZL 140255Z AUTO 29004KT 10SM OVC015 07/07 A3024 RMK AO2,KCZL,2019-01-14T02:55:00Z,34.47,-84.93,7.0,7.0,290,4,,10.0,30.239174,,,TRUE,TRUE,,,,,,,OVC,1500,,,,,,,MVFR,,,,,,,,,,,,METAR,195.0
KCXU 140255Z AUTO 00000KT 10SM OVC023 12/07 A3021 RMK AO1 T01210072,KCXU,2019-01-14T02:55:00Z,31.22,-84.23,12.1,7.2,0,0,,10.0,30.209646,,,TRUE,TRUE,,,,,,,OVC,2300,,,,,,,MVFR,,,,,,,,,,,,METAR,53.0
KEDN 140255Z AUTO 34006KT 10SM OVC027 09/06 A3025 RMK AO2 T00860055,KEDN,2019-01-14T02:55:00Z,31.3,-85.9,8.6,5.5,340,6,,10.0,30.250984,,,TRUE,TRUE,,,,,,,OVC,2700,,,,,,,MVFR,,,,,,,,,,,,METAR,110.0
KECU 140255Z AUTO 07005KT 10SM BKN035 OVC043 09/03 A3038 RMK AO2,KECU,2019-01-14T02:55:00Z,29.95,-100.17,9.0,3.0,70,5,,10.0,30.380905,,,TRUE,TRUE,,,,,,,BKN,3500,OVC,4300,,,,,VFR,,,,,,,,,,,,METAR,725.0
KECS 140255Z AUTO 01004KT 10SM CLR M05/M10 A3020 RMK AO2,KECS,2019-01-14T02:55:00Z,43.88,-104.32,-5.0,-10.0,10,4,,10.0,30.200787,,,TRUE,TRUE,,,,,,,CLR,,,,,,,,VFR,,,,,,,,,,,,METAR,1273.0
KEBA 140255Z AUTO 00000KT 10SM OVC010 07/06 A3021 RMK AO2 T00710056,KEBA,2019-01-14T02:55:00Z,34.1,-82.82,7.1,5.6,0,0,,10.0,30.209646,,,TRUE,TRUE,,,,,,,OVC,1000,,,,,,,MVFR,,,,,,,,,,,,METAR,184.0
KEAT 140255Z AUTO 00000KT 10SM OVC003 M02/M03 A3036 RMK AO2 SLP295 T10171028 50000,KEAT,2019-01-14T02:55:00Z,47.4,-120.2,-1.7,-2.8,0,0,,10.0,30.360237,1029.5,,TRUE,TRUE,,,,,,,OVC,300,,,,,,,LIFR,0.0,,,,,,,,,,,METAR,377.0
KBTA 140255Z AUTO 20005KT 2SM BR OVC009 M04/M05 A3038 RMK AO2 T10441051,KBTA,2019-01-14T02:55:00Z,41.42,-96.12,-4.4,-5.1,200,5,,2.0,30.380905,,,TRUE,TRUE,,,,,,BR,OVC,900,,,,,,,IFR,,,,,,,,,,,,METAR,396.0
KBVN 140255Z AUTO 23009KT 10SM OVC012 00/M03 A3032 RMK AO2 T10051026,KBVN,2019-01-14T02:55:00Z,41.73,-98.05,-0.5,-2.6,230,9,,10.0,30.318897,,,TRUE,TRUE,,,,,,,OVC,1200,,,,,,,MVFR,,,,,,,,,,,,METAR,551.0
KBXA 140255Z AUTO 03003KT 10SM OVC017 07/03 A3035 RMK AO2 T00670032,KBXA,2019-01-14T02:55:00Z,30.82,-89.87,6.7,3.2,30,3,,10.0,30.351377,,,TRUE,TRUE,,,,,,,OVC,1700,,,,,,,MVFR,,,,,,,,,,,,METAR,36.0
KBYL 140255Z AUTO 31004KT 3SM OVC003 01/01 A3021 RMK AO1,KBYL,2019-01-14T02:55:00Z,36.8,-84.2,1.0,1.0,310,4,,3.0,30.209646,,,TRUE,TRUE,,,,,,,OVC,300,,,,,,,LIFR,,,,,,,,,,,,METAR,359.0
KBYY 140255Z AUTO 35004KT 10SM CLR 09/05 A3037 RMK AO2 T00930056,KBYY,2019-01-14T02:55:00Z,28.97,-95.87,9.3,5.6,350,4,,10.0,30.369095,,,TRUE,TRUE,,,,,,,CLR,,,,,,,,VFR,,,,,,,,,,,,METAR,14.0
KMTC 140255Z 36005KT 12SM CLR M08/M09 A3035 RMK AO2A SLP293 T10821090 54000 $,KMTC,2019-01-14T02:55:00Z,42.62,-82.82,-8.2,-9.0,360,5,,12.0,30.351377,1029.3,,,TRUE,TRUE,,,,,,CLR,,,,,,,,VFR,,,,,,,,,,,,METAR,177.0
KTCY 140255Z AUTO 00000KT 4SM BR CLR 08/07 A2998 RMK A01,KTCY,2019-01-14T02:55:00Z,37.68,-121.43,8.0,7.0,0,0,,4.0,29.97933,,,TRUE,TRUE,,,,,,BR,CLR,,,,,,,,MVFR,,,,,,,,,,,,METAR,59.0
PATL 140255Z AUTO 09005KT 10SM BKN090 M14/M15 A2958 RMK AO2 SLP054 T11361151 53014,PATL,2019-01-14T02:55:00Z,62.9,-155.97,-13.6,-15.1,90,5,,10.0,29.58071,1005.4,,TRUE,TRUE,,,,,,,BKN,9000,,,,,,,VFR,1.4,,,,,,,,,,,METAR,294.0
PASV 140255Z AUTO 12025G40KT 10SM OVC075 04/M04 A2941 RMK AO2 PK WND 13048/0215 LTG DSNT SW SLP974 T00391039 52035,PASV,2019-01-14T02:55:00Z,61.1,-155.57,3.9,-3.9,120,25,40,10.0,29.409449,997.4,,TRUE,TRUE,,,,,,,OVC,7500,,,,,,,VFR,3.5,,,,,,,,,,,METAR,484.0
PALU 140255Z AUTO 12013KT 10SM OVC080 M24/M28 A2984 RMK AO2 SLP103 T12441280 57011,PALU,2019-01-14T02:55:00Z,68.88,-166.1,-24.4,-28.0,120,13,,10.0,29.840551,1010.3,,TRUE,TRUE,,,,,,,OVC,8000,,,,,,,VFR,-1.1,,,,,,,,,,,METAR,3.0
PAIM 140255Z AUTO 13013G16KT 6SM -SN FEW035 BKN070 M16/M19 A2977 RMK AO2 LTG DSNT W SNB0155 SLP129 P0000 60000 T11581186 58003,PAIM,2019-01-14T02:55:00Z,66.0,-153.7,-15.8,-18.6,130,13,16,6.0,29.769686,1012.9,,TRUE,TRUE,,,,,,-SN,FEW,3500,BKN,7000,,,,,VFR,-0.3,,,,,0.005,0.005,,,,,METAR,389.0
KIMM 140255Z AUTO 00000KT 10SM SCT003 19/18 A3016 RMK A01,KIMM,2019-01-14T02:55:00Z,26.43,-81.4,19.0,18.0,0,0,,10.0,30.159449,,,TRUE,TRUE,,,,,,,SCT,300,,,,,,,VFR,,,,,,,,,,,,METAR,12.0
KIKT 140255Z AUTO 36009G16KT 280V050 10SM OVC025 15/09 A3027 RMK A01,KIKT,2019-01-14T02:55:00Z,28.52,-88.28,15.0,9.0,360,9,16,10.0,30.268702,,,TRUE,TRUE,,,,,,,OVC,2500,,,,,,,MVFR,,,,,,,,,,,,METAR,25.0
KIFP 140255Z 07007KT 10SM CLR 13/M02 A3012 RMK AO2,KIFP,2019-01-14T02:55:00Z,35.15,-114.57,13.0,-2.0,70,7,,10.0,30.121063,,,,TRUE,,,,,,,CLR,,,,,,,,VFR,,,,,,,,,,,,METAR,212.0
KI23 140255Z AUTO 01009KT 10SM OVC026 M02/M05 A3026 RMK AO1,KI23,2019-01-14T02:55:00Z,39.57,-83.42,-2.0,-5.0,10,9,,10.0,30.259842,,,TRUE,TRUE,,,,,,,OVC,2600,,,,,,,MVFR,,,,,,,,,,,,METAR,299.0
KHZD 140255Z AUTO 33006KT 1 3/4SM BR OVC005 02/02 A3033 RMK A01,KHZD,2019-01-14T02:55:00Z,36.08,-88.47,2.0,2.0,330,6,,1.75,30.33071,,,TRUE,TRUE,,,,,,BR,OVC,500,,,,,,,IFR,,,,,,,,,,,,METAR,151.0
KHTH 140255Z AUTO 21006KT 10SM CLR M00/M08 A3009 RMK A01,KHTH,2019-01-14T02:55:00Z,,,0.0,-8.0,210,6,,10.0,30.088583,,,TRUE,TRUE,,,,,,,CLR,,,,,,,,VFR,,,,,,,,,,,,METAR,
KHLB 140255Z AUTO VRB04KT 8SM OVC006 M03/M03 A3029 RMK A01,KHLB,2019-01-14T02:55:00Z,,,-3.0,-3.0,0,4,,8.0,30.28937,,,TRUE,TRUE,,,,,,,OVC,600,,,,,,,IFR,,,,,,,,,,,,METAR,
KHHV 140255Z AUTO 06013KT 10SM OVC023 17/11 A3032 RMK A01,KHHV,2019-01-14T02:55:00Z,26.93,-94.68,17.0,11.0,60,13,,10.0,30.318897,,,TRUE,TRUE,,,,,,,OVC,2300,,,,,,,MVFR,,,,,,,,,,,,METAR,25.0
KHAE 140255Z AUTO 00000KT 10SM OVC014 M01/M05 A3043 RMK AO2,KHAE,2019-01-14T02:55:00Z,39.73,-91.45,-1.0,-5.0,0,0,,10.0,30.431103,,,TRUE,TRUE,,,,,,,OVC,1400,,,,,,,MVFR,,,,,,,,,,,,METAR,234.0
KGZS 140255Z AUTO 31005KT 10SM OVC006 04/03 A3029 RMK A01,KGZS,2019-01-14T02:55:00Z,35.15,-87.05,4.0,3.0,310,5,,10.0,30.28937,,,TRUE,TRUE,,,,,,,OVC,600,,,,,,,IFR,,,,,,,,,,,,METAR,209.0
KGUL 140255Z AUTO 03008G17KT 10SM BKN024 15/09 A3031 RMK A01,KGUL,2019-01-14T02:55:00Z,27.3,-93.53,15.0,9.0,30,8,17,10.0,30.31004,,,TRUE,TRUE,,,,,,,BKN,2400,,,,,,,MVFR,,,,,,,,,,,,METAR,30.0
KGKT 140255Z AUTO VRB05KT 9SM OVC005 07/06 A3017 RMK A01,KGKT,2019-01-14T02:55:00Z,35.85,-83.53,7.0,6.0,0,5,,9.0,30.171259,,,TRUE,TRUE,,,,,,,OVC,500,,,,,,,IFR,,,,,,,,,,,,METAR,309.0
KGCY 140255Z AUTO 24004KT 2SM BR OVC003 05/05 A3014 RMK A01,KGCY,2019-01-14T02:55:00Z,36.2,-82.82,5.0,5.0,240,4,,2.0,30.138779,,,TRUE,TRUE,,,,,,BR,OVC,300,,,,,,,LIFR,,,,,,,,,,,,METAR,490.0
KGBK 140255Z AUTO VRB04G15KT 10SM BKN023 15/10 A3030 RMK A01,KGBK,2019-01-14T02:55:00Z,27.2,-92.2,15.0,10.0,0,4,15,10.0,30.301182,,,TRUE,TRUE,,,,,,,BKN,2300,,,,,,,MVFR,,,,,,,,,,,,METAR,59.0
KFYE 140255Z AUTO 32007KT 10SM BKN010 OVC015 03/02 A3034 RMK A01,KFYE,2019-01-14T02:55:00Z,35.2,-89.38,3.0,2.0,320,7,,10.0,30.339567,,,TRUE,TRUE,,,,,,,BKN,1000,OVC,1500,,,,,MVFR,,,,,,,,,,,,METAR,133.0
KFWB 140255Z AUTO 34007KT 320V020 3SM BR OVC006 00/00 A3040 RMK AO2,KFWB,2019-01-14T02:55:00Z,36.7,-93.4,0.0,0.0,340,7,,3.0,30.398623,,,TRUE,TRUE,,,,,,BR,OVC,600,,,,,,,IFR,,,,,,,,,,,,METAR,406.0
KFTN 140255Z AUTO 02005KT 10SM OVC047 12/04 A3035 RMK A01,KFTN,2019-01-14T02:55:00Z,28.22,-100.02,12.0,4.0,20,5,,10.0,30.351377,,,TRUE,TRUE,,,,,,,OVC,4700,,,,,,,VFR,,,,,,,,,,,,METAR,236.0
KFOT 140255Z AUTO 16006KT 10SM CLR 09/09 A2998 RMK AO1,KFOT,2019-01-14T02:55:00Z,40.55,-124.13,9.0,9.0,160,6,,10.0,29.97933,,,TRUE,TRUE,,,,,,,CLR,,,,,,,,VFR,,,,,,,,,,,,METAR,120.0
KFCH 140255Z AUTO 07004KT 10SM CLR 13/07 A2999 RMK A01,KFCH,2019-01-14T02:55:00Z,36.72,-119.82,13.0,7.0,70,4,,10.0,29.991142,,,TRUE,TRUE,,,,,,,CLR,,,,,,,,VFR,,,,,,,,,,,,METAR,85.0
KEVU 140255Z AUTO 00000KT 1/4SM FZFG VV002 M06/M08 A3042 RMK AO2,KEVU,2019-01-14T02:55:00Z,40.35,-94.92,-6.0,-8.0,0,0,,0.25,30.41929,,,TRUE,TRUE,,,,,,FZFG,OVX,0,,,,,,,LIFR,,,,,,,,,,,200,METAR,349.0
KMMI 140255Z AUTO 00000KT 2 1/2SM BR BKN003 OVC019 06/06 A3022 RMK A01,KMMI,2019-01-14T02:55:00Z,35.4,-84.57,6.0,6.0,0,0,,2.5,30.221457,,,TRUE,TRUE,,,,,,BR,BKN,300,OVC,1900,,,,,LIFR,,,,,,,,,,,,METAR,266.0
KMJQ 140255Z AUTO 22006KT 7SM CLR M02/M04 A3030 RMK AO2,KMJQ,2019-01-14T02:55:00Z,43.63,-94.97,-2.0,-4.0,220,6,,7.0,30.301182,,,TRUE,TRUE,,,,,,,CLR,,,,,,,,VFR,,,,,,,,,,,,METAR,441.0
KMIS 140255Z AUTO 02018G25KT 10SM OVC022 11/07 A3030 RMK A01,KMIS,2019-01-14T02:55:00Z,29.3,-88.85,11.0,7.0,20,18,25,10.0,30.301182,,,TRUE,TRUE,,,,,,,OVC,2200,,,,,,,MVFR,,,,,,,,,,,,METAR,32.0
KMGG 140255Z AUTO 21005KT 10SM OVC016 00/M01 A3028 RMK AO2 T00031015,KMGG,2019-01-14T02:55:00Z,45.23,-93.98,0.3,-1.5,210,5,,10.0,30.280512,,,TRUE,TRUE,,,,,,,OVC,1600,,,,,,,MVFR,,,,,,,,,,,,METAR,313.0
KMEV 140255Z AUTO 36004KT 10SM CLR M03/M07 A3008 RMK AO2,KMEV,2019-01-14T02:55:00Z,38.98,-119.75,-3.0,-7.0,360,4,,10.0,30.079725,,,TRUE,TRUE,,,,,,,CLR,,,,,,,,VFR,,,,,,,,,,,,METAR,1439.0
KMDS 140255Z AUTO 20012KT 10SM M03/M03 A3023 RMK AO2,KMDS,2019-01-14T02:55:00Z,44.02,-97.08,-3.0,-3.0,200,12,,10.0,30.230314,,,TRUE,TRUE,,,,,,,,,,,,,,,,,,,,,,,,,,,METAR,524.0
KMCC 140255Z AUTO 00000KT 10SM CLR 11/09 A3001 RMK AO2,KMCC,2019-01-14T02:55:00Z,38.67,-121.4,11.0,9.0,0,0,,10.0,30.008858,,,TRUE,TRUE,,,,,,,CLR,,,,,,,,VFR,,,,,,,,,,,,METAR,23.0
KMBT 140255Z AUTO 33005KT 4SM BR BKN006 OVC010 04/03 A3026 RMK A01,KMBT,2019-01-14T02:55:00Z,35.88,-86.38,4.0,3.0,330,5,,4.0,30.259842,,,TRUE,TRUE,,,,,,BR,BKN,600,OVC,1000,,,,,IFR,,,,,,,,,,,,METAR,188.0
KM91 140255Z AUTO 34005KT 1 1/2SM BR OVC004 02/02 A3028 RMK A01,KM91,2019-01-14T02:55:00Z,36.53,-86.92,2.0,2.0,340,5,,1.5,30.280512,,,TRUE,TRUE,,,,,,BR,OVC,400,,,,,,,LIFR,,,,,,,,,,,,METAR,215.0
KM75 140255Z AUTO 00000KT 10SM CLR M08/M09 A3012 RMK A01,KM75,2019-01-14T02:55:00Z,48.37,-107.92,-8.0,-9.0,0,0,,10.0,30.121063,,,TRUE,TRUE,,,,,,,CLR,,,,,,,,VFR,,,,,,,,,,,,METAR,687.0
KM54 140255Z AUTO 33007KT 10SM OVC010 04/02 A3026 RMK A01,KM54,2019-01-14T02:55:00Z,36.18,-86.32,4.0,2.0,330,7,,10.0,30.259842,,,TRUE,TRUE,,,,,,,OVC,1000,,,,,,,MVFR,,,,,,,,,,,,METAR,180.0
KM08 140255Z AUTO 32005KT 7SM OVC009 03/02 A3033 RMK A01,KM08,2019-01-14T02:55:00Z,35.22,-89.05,3.0,2.0,320,5,,7.0,30.33071,,,TRUE,TRUE,,,,,,,OVC,900,,,,,,,IFR,,,,,,,,,,,,METAR,152.0
KM04 140255Z AUTO 35007KT 10SM BKN014 OVC021 02/01 A3036 RMK A01,KM04,2019-01-14T02:55:00Z,35.58,-89.58,2.0,1.0,350,7,,10.0,30.360237,,,TRUE,TRUE,,,,,,,BKN,1400,OVC,2100,,,,,MVFR,,,,,,,,,,,,METAR,85.0
KM02 140255Z AUTO 35008KT 2 1/2SM BR OVC004 02/01 A3028 RMK A01,KM02,2019-01-14T02:55:00Z,36.13,-87.43,2.0,1.0,350,8,,2.5,30.280512,,,TRUE,TRUE,,,,,,BR,OVC,400,,,,,,,LIFR,,,,,,,,,,,,METAR,272.0
KLZZ 140255Z AUTO 36003KT 10SM CLR 02/00 A3040 RMK AO2 T00190000,KLZZ,2019-01-14T02:55:00Z,31.1,-98.2,1.9,0.0,360,3,,10.0,30.398623,,,TRUE,TRUE,,,,,,,CLR,,,,,,,,VFR,,,,,,,,,,,,METAR,371.0
KLYO 140255Z AUTO 28004KT 10SM OVC005 M03/M04 A3043 RMK AO2 T10351040,KLYO,2019-01-14T02:55:00Z,38.35,-98.23,-3.5,-4.0,280,4,,10.0,30.431103,,,TRUE,TRUE,,,,,,,OVC,500,,,,,,,IFR,,,,,,,,,,,,METAR,515.0
KLUG 140255Z AUTO 00000KT 3SM BR OVC004 04/03 A3028 RMK A01,KLUG,2019-01-14T02:55:00Z,35.52,-86.8,4.0,3.0,0,0,,3.0,30.280512,,,TRUE,TRUE,,,,,,BR,OVC,400,,,,,,,LIFR,,,,,,,,,,,,METAR,219.0
KJXI 140255Z AUTO 10SM TS OVC022 04/00 A3043 RMK AO2 T00401001,KJXI,2019-01-14T02:55:00Z,32.7,-94.95,4.0,-0.1,,,,10.0,30.431103,,,TRUE,TRUE,,,,,,TS,OVC,2200,,,,,,,MVFR,,,,,,,,,,,,METAR,127.0
KJWN 140255Z AUTO 31006G11KT 9SM OVC008 03/02 A3028 RMK A01,KJWN,2019-01-14T02:55:00Z,36.18,-86.88,3.0,2.0,310,6,11,9.0,30.280512,,,TRUE,TRUE,,,,,,,OVC,800,,,,,,,IFR,,,,,,,,,,,,METAR,151.0
KJTC 140255Z AUTO 00000KT 10SM OVC003 01/M00 A3019 RMK AO2,KJTC,2019-01-14T02:55:00Z,34.13,-109.32,1.0,0.0,0,0,,10.0,30.188976,,,TRUE,TRUE,,,,,,,OVC,300,,,,,,,LIFR,,,,,,,,,,,,METAR,2150.0
KJAU 140255Z AUTO 01003KT 10SM BKN015 OVC022 05/03 A3022 RMK A01,KJAU,2019-01-14T02:55:00Z,36.33,-84.17,5.0,3.0,10,3,,10.0,30.221457,,,TRUE,TRUE,,,,,,,BKN,1500,OVC,2200,,,,,MVFR,,,,,,,,,,,,METAR,360.0
KJAQ 140255Z AUTO 00000KT 10SM CLR 11/05 A2999 RMK AO1 T01070050,KJAQ,2019-01-14T02:55:00Z,38.37,-120.8,10.7,5.0,0,0,,10.0,29.991142,,,TRUE,TRUE,,,,,,,CLR,,,,,,,,VFR,,,,,,,,,,,,METAR,512.0
KSLR 140255Z AUTO 01007KT 10SM OVC020 04/00 A3046 RMK AO2 T00360000,KSLR,2019-01-14T02:55:00Z,33.17,-95.62,3.6,0.0,10,7,,10.0,30.46063,,,TRUE,TRUE,,,,,,,OVC,2000,,,,,,,MVFR,,,,,,,,,,,,METAR,149.0
KSLO 140255Z AUTO 02007KT 7SM OVC008 M01/M03 A3039 RMK AO2 T10151032,KSLO,2019-01-14T02:55:00Z,38.65,-88.97,-1.5,-3.2,20,7,,7.0,30.389763,,,TRUE,TRUE,,,,,,,OVC,800,,,,,,,IFR,,,,,,,,,,,,METAR,175.0
KSEZ 140255Z AUTO 04011G16KT 10SM CLR 04/00 A3015 RMK AO2,KSEZ,2019-01-14T02:55:00Z,34.85,-111.78,4.0,0.0,40,11,16,10.0,30.15059,,,TRUE,TRUE,,,,,,,CLR,,,,,,,,VFR,,,,,,,,,,,,METAR,1473.0
KSEP 140255Z AUTO 01006KT 10SM OVC012 01/M01 A3044 RMK AO2 T00141013,KSEP,2019-01-14T02:55:00Z,32.22,-98.17,1.4,-1.3,10,6,,10.0,30.43996,,,TRUE,TRUE,,,,,,,OVC,1200,,,,,,,MVFR,,,,,,,,,,,,METAR,402.0
KSCK 140255Z 00000KT 6SM BR CLR 08/07 A2998 RMK AO2 SLP151 T00830072 52001,KSCK,2019-01-14T02:55:00Z,37.88,-121.22,8.3,7.2,0,0,,6.0,29.97933,1015.1,,,TRUE,,,,,,BR,CLR,,,,,,,,VFR,0.1,,,,,,,,,,,METAR,10.0
KSCD 140255Z AUTO 33004KT 10SM OVC016 07/05 A3027 RMK AO2 T00700047,KSCD,2019-01-14T02:55:00Z,33.17,-86.3,7.0,4.7,330,4,,10.0,30.268702,,,TRUE,TRUE,,,,,,,OVC,1600,,,,,,,MVFR,,,,,,,,,,,,METAR,173.0
KSAR 140255Z AUTO 34006KT 10SM OVC011 M02/M02 A3041 RMK AO2 T10221025,KSAR,2019-01-14T02:55:00Z,38.15,-89.7,-2.2,-2.5,340,6,,10.0,30.410433,,,TRUE,TRUE,,,,,,,OVC,1100,,,,,,,MVFR,,,,,,,,,,,,METAR,164.0
KRYW 140255Z AUTO 05005KT 10SM CLR 05/02 A3040 RMK AO2 T00460021,KRYW,2019-01-14T02:55:00Z,30.5,-97.97,4.6,2.1,50,5,,10.0,30.398623,,,TRUE,TRUE,,,,,,,CLR,,,,,,,,VFR,,,,,,,,,,,,METAR,376.0
KRSV 140255Z AUTO 02006KT 10SM SCT018 OVC034 M01/M03 A3037 RMK AO2 T10101033,KRSV,2019-01-14T02:55:00Z,39.02,-87.65,-1.0,-3.3,20,6,,10.0,30.369095,,,TRUE,TRUE,,,,,,,SCT,1800,OVC,3400,,,,,VFR,,,,,,,,,,,,METAR,141.0
KRSN 140255Z AUTO 35004KT 10SM OVC023 05/00 A3044 RMK AO2 T00451002,KRSN,2019-01-14T02:55:00Z,32.52,-92.58,4.5,-0.2,350,4,,10.0,30.43996,,,TRUE,TRUE,,,,,,,OVC,2300,,,,,,,MVFR,,,,,,,,,,,,METAR,95.0
KRNO 140255Z 00000KT 10SM FEW180 04/M06 A3010 RMK AO2 SLP202 T00391061 51009,KRNO,2019-01-14T02:55:00Z,39.5,-119.77,3.9,-6.1,0,0,,10.0,30.100393,1020.2,,,TRUE,,,,,,,FEW,18000,,,,,,,VFR,0.9,,,,,,,,,,,METAR,1342.0
KRKR 140255Z AUTO 33006KT 10SM OVC021 02/M01 A3046 RMK AO2,KRKR,2019-01-14T02:55:00Z,35.02,-94.62,2.0,-1.0,330,6,,10.0,30.46063,,,TRUE,TRUE,,,,,,,OVC,2100,,,,,,,MVFR,,,,,,,,,,,,METAR,138.0
KRGA 140255Z AUTO 01005KT 7SM OVC006 M00/M01 A3024 RMK AO2,KRGA,2019-01-14T02:55:00Z,37.63,-84.33,0.0,-1.0,10,5,,7.0,30.239174,,,TRUE,TRUE,,,,,,,OVC,600,,,,,,,IFR,,,,,,,,,,,,METAR,305.0
KXSA 140255Z AUTO 35008G16KT 320V040 3SM -SN OVC006 M01/M01 A3022 RMK AO2 T10101015,KXSA,2019-01-14T02:55:00Z,37.87,-76.9,-1.0,-1.5,350,8,16,3.0,30.221457,,,TRUE,TRUE,,,,,,-SN,OVC,600,,,,,,,IFR,,,,,,,,,,,,METAR,42.0
KWWR 140255Z AUTO 00000KT 10SM OVC013 00/M03 A3043 RMK AO2,KWWR,2019-01-14T02:55:00Z,36.45,-99.52,0.0,-3.0,0,0,,10.0,30.431103,,,TRUE,TRUE,,,,,,,OVC,1300,,,,,,,MVFR,,,,,,,,,,,,METAR,667.0
KW99 140255Z AUTO 00000KT 3SM -SN SCT007 OVC012 M03/M04 A3026 RMK AO2 T10301036,KW99,2019-01-14T02:55:00Z,39.0,-79.15,-3.0,-3.6,0,0,,3.0,30.259842,,,TRUE,TRUE,,,,,,-SN,SCT,700,OVC,1200,,,,,MVFR,,,,,,,,,,,,METAR,293.0
KFSO 140255Z AUTO 00000KT 10SM CLR M20/M21 A3047 RMK AO2 T11971211,KFSO,2019-01-14T02:55:00Z,44.93,-73.1,-19.7,-21.1,0,0,,10.0,30.469488,,,TRUE,TRUE,,,,,,,CLR,,,,,,,,VFR,,,,,,,,,,,,METAR,70.0
KFOA 140255Z AUTO 36008KT 7SM OVC011 M01/M03 A3038 RMK AO2 T10071026,KFOA,2019-01-14T02:55:00Z,38.67,-88.45,-0.7,-2.6,360,8,,7.0,30.380905,,,TRUE,TRUE,,,,,,,OVC,1100,,,,,,,MVFR,,,,,,,,,,,,METAR,144.0
KFKR 140255Z AUTO 00000KT 10SM CLR M04/M08 A3037 RMK AO2 T10431080 TSNO,KFKR,2019-01-14T02:55:00Z,40.27,-86.57,-4.3,-8.0,0,0,,10.0,30.369095,,,TRUE,TRUE,,,TRUE,,,,CLR,,,,,,,,VFR,,,,,,,,,,,,METAR,262.0
KFIN 140255Z AUTO 00000KT 10SM CLR 17/16 A3013 RMK AO2 T01660157,KFIN,2019-01-14T02:55:00Z,29.47,-81.2,16.6,15.7,0,0,,10.0,30.129921,,,TRUE,TRUE,,,,,,,CLR,,,,,,,,VFR,,,,,,,,,,,,METAR,10.0
KFHB 140255Z AUTO 04007KT 10SM SCT006 14/13 A3017 RMK AO2 T01370128,KFHB,2019-01-14T02:55:00Z,30.62,-81.47,13.7,12.8,40,7,,10.0,30.171259,,,TRUE,TRUE,,,,,,,SCT,600,,,,,,,VFR,,,,,,,,,,,,METAR,5.0
KFET 140255Z AUTO 20007KT 10SM OVC011 M01/M03 A3039 RMK AO2 T10081027,KFET,2019-01-14T02:55:00Z,41.45,-96.52,-0.8,-2.7,200,7,,10.0,30.389763,,,TRUE,TRUE,,,,,,,OVC,1100,,,,,,,MVFR,,,,,,,,,,,,METAR,367.0
KFEP 140255Z AUTO 04003KT 10SM OVC017 M03/M06 A3041 RMK AO2 T10351063,KFEP,2019-01-14T02:55:00Z,42.25,-89.58,-3.5,-6.3,40,3,,10.0,30.410433,,,TRUE,TRUE,,,,,,,OVC,1700,,,,,,,MVFR,,,,,,,,,,,,METAR,262.0
KFBR 140255Z AUTO 00000KT 10SM CLR M17/M19 A3029 RMK AO2 T11701191,KFBR,2019-01-14T02:55:00Z,41.4,-110.4,-17.0,-19.1,0,0,,10.0,30.28937,,,TRUE,TRUE,,,,,,,CLR,,,,,,,,VFR,,,,,,,,,,,,METAR,2144.0
KF46 140255Z AUTO 03008KT 10SM OVC016 04/01 A3045 RMK AO2 T00410008,KF46,2019-01-14T02:55:00Z,32.93,-96.43,4.1,0.8,30,8,,10.0,30.448818,,,TRUE,TRUE,,,,,,,OVC,1600,,,,,,,MVFR,,,,,,,,,,,,METAR,176.0
KF44 140255Z AUTO 03007KT 10SM OVC021 03/00 A3042 RMK AO2,KF44,2019-01-14T02:55:00Z,32.17,-95.83,3.0,0.0,30,7,,10.0,30.41929,,,TRUE,TRUE,,,,,,,OVC,2100,,,,,,,MVFR,,,,,,,,,,,,METAR,135.0
KF17 140255Z AUTO 36006KT 10SM OVC025 05/00 A3042 RMK AO2 T00500001,KF17,2019-01-14T02:55:00Z,31.83,-94.15,5.0,0.1,360,6,,10.0,30.41929,,,TRUE,TRUE,,,,,,,OVC,2500,,,,,,,MVFR,,,,,,,,,,,,METAR,97.0
KF05 140255Z AUTO 07006KT 10SM BKN018 OVC095 02/M01 A3047 RMK AO1 T00151014,KF05,2019-01-14T02:55:00Z,34.23,-99.28,1.5,-1.4,70,6,,10.0,30.469488,,,TRUE,TRUE,,,,,,,BKN,1800,OVC,9500,,,,,MVFR,,,,,,,,,,,,METAR,386.0
KF00 140255Z AUTO 35006KT 10SM OVC017 01/M02 A3045 RMK AO2 T00131018,KF00,2019-01-14T02:55:00Z,33.62,-96.18,1.3,-1.8,350,6,,10.0,30.448818,,,TRUE,TRUE,,,,,,,OVC,1700,,,,,,,MVFR,,,,,,,,,,,,METAR,188.0
KETN 140255Z AUTO 02006KT 10SM OVC012 01/M02 A3043 RMK AO2 T00051018,KETN,2019-01-14T02:55:00Z,32.42,-98.82,0.5,-1.8,20,6,,10.0,30.431103,,,TRUE,TRUE,,,,,,,OVC,1200,,,,,,,MVFR,,,,,,,,,,,,METAR,446.0
KERV 140255Z AUTO 00000KT 10SM OVC048 08/02 A3037 RMK AO2 T00810024,KERV,2019-01-14T02:55:00Z,29.98,-99.08,8.1,2.4,0,0,,10.0,30.369095,,,TRUE,TRUE,,,,,,,OVC,4800,,,,,,,VFR,,,,,,,,,,,,METAR,510.0
KOJA 140255Z AUTO 01005KT 10SM OVC013 00/M01 A3045 RMK AO2,KOJA,2019-01-14T02:55:00Z,35.55,-98.67,0.0,-1.0,10,5,,10.0,30.448818,,,TRUE,TRUE,,,,,,,OVC,1300,,,,,,,MVFR,,,,,,,,,,,,METAR,490.0
KOBE 140255Z AUTO 00000KT 10SM CLR 18/15 A3014 RMK AO2,KOBE,2019-01-14T02:55:00Z,27.27,-80.85,18.0,15.0,0,0,,10.0,30.138779,,,TRUE,TRUE,,,,,,,CLR,,,,,,,,VFR,,,,,,,,,,,,METAR,11.0
KMZH 140255Z AUTO 23006KT 10SM OVC014 00/M03 A3022 RMK AO2,KMZH,2019-01-14T02:55:00Z,46.42,-92.8,0.0,-3.0,230,6,,10.0,30.221457,,,TRUE,TRUE,,,,,,,OVC,1400,,,,,,,MVFR,,,,,,,,,,,,METAR,328.0
KMRT 140255Z AUTO 03007KT 10SM OVC010 M02/M04 A3028 RMK AO2 T10221038,KMRT,2019-01-14T02:55:00Z,40.22,-83.35,-2.2,-3.8,30,7,,10.0,30.280512,,,TRUE,TRUE,,,,,,,OVC,1000,,,,,,,MVFR,,,,,,,,,,,,METAR,312.0
KMQB 140255Z AUTO 32005KT 7SM CLR M11/M11 A3045 RMK AO2 T11071114,KMQB,2019-01-14T02:55:00Z,40.52,-90.65,-10.7,-11.4,320,5,,7.0,30.448818,,,TRUE,TRUE,,,,,,,CLR,,,,,,,,VFR,,,,,,,,,,,,METAR,215.0
KMNE 140255Z AUTO 34004KT 10SM OVC025 06/01 A3041 RMK AO2 T00550014,KMNE,2019-01-14T02:55:00Z,32.65,-93.3,5.5,1.4,340,4,,10.0,30.410433,,,TRUE,TRUE,,,,,,,OVC,2500,,,,,,,MVFR,,,,,,,,,,,,METAR,85.0
KMMH 140255Z AUTO 00000KT 10SM CLR M07/M13 A3008 RMK AO2 T10751133,KMMH,2019-01-14T02:55:00Z,37.62,-118.82,-7.5,-13.3,0,0,,10.0,30.079725,,,TRUE,TRUE,,,,,,,CLR,,,,,,,,VFR,,,,,,,,,,,,METAR,2173.0
KMLJ 140255Z AUTO 00000KT 7SM OVC021 06/06 A3020 RMK AO2,KMLJ,2019-01-14T02:55:00Z,33.15,-83.23,6.0,6.0,0,0,,7.0,30.200787,,,TRUE,TRUE,,,,,,,OVC,2100,,,,,,,MVFR,,,,,,,,,,,,METAR,117.0
KMKN 140255Z AUTO 04004KT 10SM OVC015 02/00 A3042 RMK AO2 T00200000,KMKN,2019-01-14T02:55:00Z,31.92,-98.6,2.0,0.0,40,4,,10.0,30.41929,,,TRUE,TRUE,,,,,,,OVC,1500,,,,,,,MVFR,,,,,,,,,,,,METAR,423.0
KMKG 140255Z 35003KT 10SM FEW250 M07/M09 A3038 RMK AO2 SLP299 T10671094 58003 $,KMKG,2019-01-14T02:55:00Z,43.17,-86.23,-6.7,-9.4,350,3,,10.0,30.380905,1029.9,,,TRUE,TRUE,,,,,,FEW,25000,,,,,,,VFR,-0.3,,,,,,,,,,,METAR,191.0
KLXY 140255Z AUTO 03006KT 10SM OVC019 03/M01 A3043 RMK AO2 T00321006,KLXY,2019-01-14T02:55:00Z,31.63,-96.52,3.2,-0.6,30,6,,10.0,30.431103,,,TRUE,TRUE,,,,,,,OVC,1900,,,,,,,MVFR,,,,,,,,,,,,METAR,166.0
KLXN 140255Z AUTO 22008KT 10SM OVC004 M01/M02 A3032 RMK AO2 T10101021,KLXN,2019-01-14T02:55:00Z,40.78,-99.77,-1.0,-2.1,220,8,,10.0,30.318897,,,TRUE,TRUE,,,,,,,OVC,400,,,,,,,LIFR,,,,,,,,,,,,METAR,734.0
KIRK 140255Z AUTO 01003KT 9SM OVC015 M02/M03 A3043 RMK AO2 SLP320 T10171033 50005,KIRK,2019-01-14T02:55:00Z,40.1,-92.55,-1.7,-3.3,10,3,,9.0,30.431103,1032.0,,TRUE,TRUE,,,,,,,OVC,1500,,,,,,,MVFR,0.5,,,,,,,,,,,METAR,293.0
KINL 140255Z AUTO 26007KT 4SM BR OVC007 M04/M04 A3020 RMK AO2 SLP248 T10391044 52002,KINL,2019-01-14T02:55:00Z,48.57,-93.4,-3.9,-4.4,260,7,,4.0,30.200787,1024.8,,TRUE,TRUE,,,,,,BR,OVC,700,,,,,,,IFR,0.2,,,,,,,,,,,METAR,360.0
KINJ 140255Z AUTO 01007KT 10SM OVC017 03/01 A3044 RMK AO2 T00280005,KINJ,2019-01-14T02:55:00Z,32.08,-97.1,2.8,0.5,10,7,,10.0,30.43996,,,TRUE,TRUE,,,,,,,OVC,1700,,,,,,,MVFR,,,,,,,,,,,,METAR,209.0
KIKG 140255Z AUTO 00000KT 10SM CLR 09/08 A3038 RMK AO2 T00850075,KIKG,2019-01-14T02:55:00Z,27.55,-98.03,8.5,7.5,0,0,,10.0,30.380905,,,TRUE,TRUE,,,,,,,CLR,,,,,,,,VFR,,,,,,,,,,,,METAR,40.0
KIGQ 140255Z AUTO 01003KT 10SM OVC023 M01/M05 A3039 RMK AO2 T10131046,KIGQ,2019-01-14T02:55:00Z,41.53,-87.53,-1.3,-4.6,10,3,,10.0,30.389763,,,TRUE,TRUE,,,,,,,OVC,2300,,,,,,,MVFR,,,,,,,,,,,,METAR,188.0
KIER 140255Z AUTO 01009KT 10SM OVC023 05/01 A3041 RMK AO2 T00510005,KIER,2019-01-14T02:55:00Z,31.73,-93.1,5.1,0.5,10,9,,10.0,30.410433,,,TRUE,TRUE,,,,,,,OVC,2300,,,,,,,MVFR,,,,,,,,,,,,METAR,37.0
KIBM 140255Z AUTO 24006KT 10SM CLR M04/M07 A3021 RMK AO2 T10401069,KIBM,2019-01-14T02:55:00Z,41.18,-103.68,-4.0,-6.9,240,6,,10.0,30.209646,,,TRUE,TRUE,,,,,,,CLR,,,,,,,,VFR,,,,,,,,,,,,METAR,1501.0
KI35 140255Z AUTO 27007KT 10SM OVC010 03/02 A3017 RMK AO2 T00320019,KI35,2019-01-14T02:55:00Z,36.87,-83.37,3.2,1.9,270,7,,10.0,30.171259,,,TRUE,TRUE,,,,,,,OVC,1000,,,,,,,MVFR,,,,,,,,,,,,METAR,473.0
KHVE 140255Z AUTO 10SM BKN070 00/M05 A3026 RMK AO2,KHVE,2019-01-14T02:55:00Z,38.42,-110.7,0.0,-5.0,,,,10.0,30.259842,,,TRUE,TRUE,,,,,,,BKN,7000,,,,,,,VFR,,,,,,,,,,,,METAR,1350.0
KHRX 140255Z AUTO 11004KT 10SM SCT065 OVC075 01/00 A3035 RMK AO2 T00120000,KHRX,2019-01-14T02:55:00Z,34.87,-102.33,1.2,0.0,110,4,,10.0,30.351377,,,TRUE,TRUE,,,,,,,SCT,6500,OVC,7500,,,,,VFR,,,,,,,,,,,,METAR,1154.0
KHQZ 140255Z AUTO 34004KT 10SM OVC017 03/00 A3046 RMK AO1 T00261003,KHQZ,2019-01-14T02:55:00Z,32.75,-96.53,2.6,-0.3,340,4,,10.0,30.46063,,,TRUE,TRUE,,,,,,,OVC,1700,,,,,,,MVFR,,,,,,,,,,,,METAR,136.0
KHQU 140255Z AUTO 00000KT 10SM OVC011 06/05 A3024 RMK AO2 T00570049,KHQU,2019-01-14T02:55:00Z,33.53,-82.52,5.7,4.9,0,0,,10.0,30.239174,,,TRUE,TRUE,,,,,,,OVC,1100,,,,,,,MVFR,,,,,,,,,,,,METAR,152.0
KHON 140255Z AUTO 19007KT 7SM OVC010 M01/M03 A3024 RMK AO2 SLP257 T10061028 58010,KHON,2019-01-14T02:55:00Z,44.38,-98.23,-0.6,-2.8,190,7,,7.0,30.239174,1025.7,,TRUE,TRUE,,,,,,,OVC,1000,,,,,,,MVFR,-1.0,,,,,,,,,,,METAR,390.0
KHMZ 140255Z AUTO 00000KT 5SM -SN SCT036 OVC070 M04/M05 A3026 RMK AO2 T10401052,KHMZ,2019-01-14T02:55:00Z,40.08,-78.52,-4.0,-5.2,0,0,,5.0,30.259842,,,TRUE,TRUE,,,,,,-SN,SCT,3600,OVC,7000,,,,,MVFR,,,,,,,,,,,,METAR,354.0
KHHF 140255Z AUTO 10003KT 7SM OVC013 01/00 A3040 RMK AO2 T00101003,KHHF,2019-01-14T02:55:00Z,35.9,-100.4,1.0,-0.3,100,3,,7.0,30.398623,,,TRUE,TRUE,,,,,,,OVC,1300,,,,,,,MVFR,,,,,,,,,,,,METAR,712.0
KHFY 140255Z AUTO 03007KT 10SM OVC011 M03/M05 A3034 RMK AO2 T10351053,KHFY,2019-01-14T02:55:00Z,39.63,-86.08,-3.5,-5.3,30,7,,10.0,30.339567,,,TRUE,TRUE,,,,,,,OVC,1100,,,,,,,MVFR,,,,,,,,,,,,METAR,251.0
KHFJ 140255Z AUTO 33006KT 2SM -SN OVC003 M01/M01 A3041 RMK AO2,KHFJ,2019-01-14T02:55:00Z,36.9,-94.02,-1.0,-1.0,330,6,,2.0,30.410433,,,TRUE,TRUE,,,,,,-SN,OVC,300,,,,,,,LIFR,,,,,,,,,,,,METAR,401.0
KAPY 140255Z AUTO 08005KT 10SM OVC046 15/03 A3033 RMK AO2 T01500035,KAPY,2019-01-14T02:55:00Z,26.97,-99.25,15.0,3.5,80,5,,10.0,30.33071,,,TRUE,TRUE,,,,,,,OVC,4600,,,,,,,VFR,,,,,,,,,,,,METAR,129.0
KANJ 140255Z AUTO 08004KT 10SM OVC016 M11/M14 A3034 RMK AO2 SLP292 T11061139 56012,KANJ,2019-01-14T02:55:00Z,46.47,-84.37,-10.6,-13.9,80,4,,10.0,30.339567,1029.2,,TRUE,TRUE,,,,,,,OVC,1600,,,,,,,MVFR,-1.2,,,,,,,,,,,METAR,218.0
KALM 140255Z AUTO 00000KT 10SM SCT085 07/00 A3021 RMK AO2,KALM,2019-01-14T02:55:00Z,32.82,-105.97,7.0,0.0,0,0,,10.0,30.209646,,,TRUE,TRUE,,,,,,,SCT,8500,,,,,,,VFR,,,,,,,,,,,,METAR,1279.0
KAJR 140255Z AUTO 29004KT 7SM CLR 04/04 A3015 RMK AO2 T00400038,KAJR,2019-01-14T02:55:00Z,34.5,-83.55,4.0,3.8,290,4,,7.0,30.15059,,,TRUE,TRUE,,,,,,,CLR,,,,,,,,VFR,,,,,,,,,,,,METAR,441.0
KAJG 140255Z AUTO 00000KT 10SM SCT017 M01/M02 A3036 RMK AO2 T10061025,KAJG,2019-01-14T02:55:00Z,38.62,-87.73,-0.6,-2.5,0,0,,10.0,30.360237,,,TRUE,TRUE,,,,,,,SCT,1700,,,,,,,VFR,,,,,,,,,,,,METAR,131.0
KAIG 140255Z AUTO 20005KT 10SM CLR M08/M09 A3029 RMK AO2 T10851094,KAIG,2019-01-14T02:55:00Z,45.15,-89.12,-8.5,-9.4,200,5,,10.0,30.28937,,,TRUE,TRUE,,,,,,,CLR,,,,,,,,VFR,,,,,,,,,,,,METAR,464.0
KADM 140255Z AUTO 01004KT 10SM OVC019 02/00 A3046 RMK AO2 T00221003,KADM,2019-01-14T02:55:00Z,34.28,-97.02,2.2,-0.3,10,4,,10.0,30.46063,,,TRUE,TRUE,,,,,,,OVC,1900,,,,,,,MVFR,,,,,,,,,,,,METAR,232.0
KAAS 140255Z AUTO 35004KT 7SM OVC005 00/00 A3031 RMK AO1,KAAS,2019-01-14T02:55:00Z,37.35,-85.32,0.0,0.0,350,4,,7.0,30.31004,,,TRUE,TRUE,,,,,,,OVC,500,,,,,,,IFR,,,,,,,,,,,,METAR,281.0
KA39 140255Z AUTO 05003KT 10SM CLR 11/08 A3014 RMK AO2,KA39,2019-01-14T02:55:00Z,32.98,-111.92,11.0,8.0,50,3,,10.0,30.138779,,,TRUE,TRUE,,,,,,,CLR,,,,,,,,VFR,,,,,,,,,,,,METAR,396.0
K8W2 140255Z AUTO 03005KT 2 1/2SM OVC041 M03/M04 A3025 RMK AO1 T10311038,K8W2,2019-01-14T02:55:00Z,38.65,-78.7,-3.1,-3.8,30,5,,2.5,30.250984,,,TRUE,TRUE,,,,,,,OVC,4100,,,,,,,IFR,,,,,,,,,,,,METAR,297.0
K82V 140255Z AUTO 24004KT 10SM CLR M06/M08 A3022 RMK AO2,K82V,2019-01-14T02:55:00Z,41.15,-104.13,-6.0,-8.0,240,4,,10.0,30.221457,,,TRUE,TRUE,,,,,,,CLR,,,,,,,,VFR,,,,,,,,,,,,METAR,1570.0
K7W4 140255Z AUTO 36003KT 7SM OVC008 M01/M02 A3023 RMK AO1 60002 T10151022,K7W4,2019-01-14T02:55:00Z,37.97,-77.75,-1.5,-2.2,360,3,,7.0,30.230314,,,TRUE,TRUE,,,,,,,OVC,800,,,,,,,IFR,,,,,,,0.02,,,,,METAR,106.0
K6A2 140255Z AUTO 31003KT 10SM BKN025 05/05 A3020 RMK AO2,K6A2,2019-01-14T02:55:00Z,33.23,-84.27,5.0,5.0,310,3,,10.0,30.200787,,,TRUE,TRUE,,,,,,,BKN,2500,,,,,,,MVFR,,,,,,,,,,,,METAR,292.0
K5R8 140255Z AUTO 00000KT 10SM CLR 04/02 A3040 RMK AO2 T00350015,K5R8,2019-01-14T02:55:00Z,30.43,-93.47,3.5,1.5,0,0,,10.0,30.398623,,,TRUE,TRUE,,,,,,,CLR,,,,,,,,VFR,,,,,,,,,,,,METAR,24.0
K4S1 140255Z AUTO 07013KT 7SM CLR 11/06 A2996 RMK AO1,K4S1,2019-01-14T02:55:00Z,42.42,-124.42,11.0,6.0,70,13,,7.0,29.958662,,,TRUE,TRUE,,,,,,,CLR,,,,,,,,VFR,,,,,,,,,,,,METAR,5.0
K4O4 140255Z AUTO 36010KT 10SM OVC018 02/M01 A3044 RMK AO2,K4O4,2019-01-14T02:55:00Z,33.92,-94.87,2.0,-1.0,360,10,,10.0,30.43996,,,TRUE,TRUE,,,,,,,OVC,1800,,,,,,,MVFR,,,,,,,,,,,,SPECI,144.0
K3R7 140255Z AUTO 36007KT 10SM SCT022 05/02 A3038 RMK AO2 T00510015,K3R7,2019-01-14T02:55:00Z,30.25,-92.67,5.1,1.5,360,7,,10.0,30.380905,,,TRUE,TRUE,,,,,,,SCT,2200,,,,,,,VFR,,,,,,,,,,,,METAR,7.0
K3LF 140255Z AUTO 33004KT 7SM OVC018 M03/M04 A3041 RMK AO2 T10311043,K3LF,2019-01-14T02:55:00Z,39.17,-89.67,-3.1,-4.3,330,4,,7.0,30.410433,,,TRUE,TRUE,,,,,,,OVC,1800,,,,,,,MVFR,,,,,,,,,,,,METAR,210.0
K2G9 140255Z AUTO 09005KT 7SM -SN OVC065 M06/M07 A3017 RMK AO2,K2G9,2019-01-14T02:55:00Z,40.03,-79.02,-6.0,-7.0,90,5,,7.0,30.171259,,,TRUE,TRUE,,,,,,-SN,OVC,6500,,,,,,,VFR,,,,,,,,,,,,METAR,693.0
K1K1 140255Z AUTO 00000KT 10SM OVC007 M02/M03 A3046 RMK AO2 T10251033,K1K1,2019-01-14T02:55:00Z,37.77,-97.12,-2.5,-3.3,0,0,,10.0,30.46063,,,TRUE,TRUE,,,,,,,OVC,700,,,,,,,IFR,,,,,,,,,,,,METAR,416.0
K1A9 140255Z AUTO 31003KT 10SM OVC022 08/04 A3028 RMK AO2 T00750040,K1A9,2019-01-14T02:55:00Z,32.43,-86.52,7.5,4.0,310,3,,10.0,30.280512,,,TRUE,TRUE,,,,,,,OVC,2200,,,,,,,MVFR,,,,,,,,,,,,METAR,69.0
K13K 140255Z AUTO 01006KT 5SM BR OVC006 M02/M03 A3046 RMK AO2 T10221030,K13K,2019-01-14T02:55:00Z,37.85,-96.3,-2.2,-3.0,10,6,,5.0,30.46063,,,TRUE,TRUE,,,,,,BR,OVC,600,,,,,,,IFR,,,,,,,,,,,,METAR,369.0
K0V4 140255Z AUTO 4SM OVC005 00/00 A3021 RMK AO1 T00001001,K0V4,2019-01-14T02:55:00Z,37.15,-79.02,0.0,-0.1,,,,4.0,30.209646,,,TRUE,TRUE,,,,,,,OVC,500,,,,,,,IFR,,,,,,,,,,,,METAR,182.0
K0F2 140255Z AUTO 01004KT 10SM OVC014 01/M01 A3045 RMK AO2 T00101015,K0F2,2019-01-14T02:55:00Z,33.6,-97.78,1.0,-1.5,10,4,,10.0,30.448818,,,TRUE,TRUE,,,,,,,OVC,1400,,,,,,,MVFR,,,,,,,,,,,,METAR,336.0
K0E0 140255Z AUTO 00000KT 10SM -SN SCT008 OVC013 01/00 A3028 RMK AO2 T00070002,K0E0,2019-01-14T02:55:00Z,34.98,-106.0,0.7,0.2,0,0,,10.0,30.280512,,,TRUE,TRUE,,,,,,-SN,SCT,800,OVC,1300,,,,,MVFR,,,,,,,,,,,,METAR,1890.0
KCWC 140255Z AUTO 02007KT 10SM OVC016 01/M02 A3049 RMK AO2 T00141018,KCWC,2019-01-14T02:55:00Z,33.85,-98.48,1.4,-1.8,20,7,,10.0,30.490158,,,TRUE,TRUE,,,,,,,OVC,1600,,,,,,,MVFR,,,,,,,,,,,,METAR,305.0
KCVB 140255Z AUTO 13003KT 7SM CLR 09/03 A3040 RMK AO2 T00850025,KCVB,2019-01-14T02:55:00Z,29.35,-98.85,8.5,2.5,130,3,,7.0,30.398623,,,TRUE,TRUE,,,,,,,CLR,,,,,,,,VFR,,,,,,,,,,,,METAR,235.0
KCQF 140255Z AUTO 34004KT 10SM OVC026 08/04 A3029 RMK AO2,KCQF,2019-01-14T02:55:00Z,30.47,-87.88,8.0,4.0,340,4,,10.0,30.28937,,,TRUE,TRUE,,,,,,,OVC,2600,,,,,,,MVFR,,,,,,,,,,,,METAR,28.0
KCPK 140255Z AUTO 34009G21KT 10SM -DZ OVC006 02/01 A3012 RMK AO2 60001 T00210012,KCPK,2019-01-14T02:55:00Z,36.67,-76.32,2.1,1.2,340,9,21,10.0,30.121063,,,TRUE,TRUE,,,,,,-DZ,OVC,600,,,,,,,IFR,,,,,,,0.01,,,,,METAR,6.0
KCNK 140255Z AUTO 22004KT 10SM OVC006 M03/M04 A3042 RMK AO2 SLP319 T10331039 50001 $,KCNK,2019-01-14T02:55:00Z,39.55,-97.65,-3.3,-3.9,220,4,,10.0,30.41929,1031.9,,TRUE,TRUE,TRUE,,,,,,OVC,600,,,,,,,IFR,0.1,,,,,,,,,,,METAR,447.0
KCNI 140255Z AUTO 00000KT 4SM BR OVC005 07/06 A3020 RMK AO2,KCNI,2019-01-14T02:55:00Z,34.32,-84.42,7.0,6.0,0,0,,4.0,30.200787,,,TRUE,TRUE,,,,,,BR,OVC,500,,,,,,,IFR,,,,,,,,,,,,METAR,372.0
KCMD 140255Z AUTO 32006KT 4SM BR OVC004 03/02 A3029 RMK AO2 T00300023,KCMD,2019-01-14T02:55:00Z,34.27,-86.85,3.0,2.3,320,6,,4.0,30.28937,,,TRUE,TRUE,,,,,,BR,OVC,400,,,,,,,LIFR,,,,,,,,,,,,METAR,294.0
KCMA 140255Z 08005KT 10SM CLR 13/06 A3000 RMK AO2 SLP169 T01280061 55004,KCMA,2019-01-14T02:55:00Z,34.22,-119.1,12.8,6.1,80,5,,10.0,30.0,1016.9,,,TRUE,,,,,,,CLR,,,,,,,,VFR,-0.4,,,,,,,,,,,METAR,23.0
KCKN 140255Z AUTO 20007KT 10SM OVC008 M05/M06 A3022 RMK AO2,KCKN,2019-01-14T02:55:00Z,47.85,-96.62,-5.0,-6.0,200,7,,10.0,30.221457,,,TRUE,TRUE,,,,,,,OVC,800,,,,,,,IFR,,,,,,,,,,,,METAR,273.0
KCKC 140255Z AUTO 00000KT 5SM BR OVC005 M04/M06 A3014 RMK AO2,KCKC,2019-01-14T02:55:00Z,47.83,-90.37,-4.0,-6.0,0,0,,5.0,30.138779,,,TRUE,TRUE,,,,,,BR,OVC,500,,,,,,,IFR,,,,,,,,,,,,METAR,548.0
KCIR 140255Z AUTO 34010KT 10SM OVC013 01/M01 A3037 RMK AO2 T00051006,KCIR,2019-01-14T02:55:00Z,37.07,-89.22,0.5,-0.6,340,10,,10.0,30.369095,,,TRUE,TRUE,,,,,,,OVC,1300,,,,,,,MVFR,,,,,,,,,,,,METAR,98.0
KCDH 140255Z AUTO 31003KT 10SM OVC026 05/M00 A3041 RMK AO2,KCDH,2019-01-14T02:55:00Z,33.62,-92.77,5.0,0.0,310,3,,10.0,30.410433,,,TRUE,TRUE,,,,,,,OVC,2600,,,,,,,MVFR,,,,,,,,,,,,METAR,35.0
KCDA 140255Z AUTO 00000KT 10SM CLR M17/M19 A3037 RMK AO2 T11661186,KCDA,2019-01-14T02:55:00Z,44.57,-72.02,-16.6,-18.6,0,0,,10.0,30.369095,,,TRUE,TRUE,,,,,,,CLR,,,,,,,,VFR,,,,,,,,,,,,METAR,363.0
KCAO 140255Z AUTO 21006KT 10SM FEW024 OVC055 01/M01 A3028 RMK AO2 SLP274 60000 T00061006 51009,KCAO,2019-01-14T02:55:00Z,36.45,-103.15,0.6,-0.6,210,6,,10.0,30.280512,1027.4,,TRUE,TRUE,,,,,,,FEW,2400,OVC,5500,,,,,VFR,0.9,,,,,,0.005,,,,,METAR,1514.0
KCXW 140255Z AUTO VRB06KT 10SM OVC026 04/00 A3041 RMK A01,KCXW,2019-01-14T02:55:00Z,35.02,-92.55,4.0,0.0,0,6,,10.0,30.410433,,,TRUE,TRUE,,,,,,,OVC,2600,,,,,,,MVFR,,,,,,,,,,,,METAR,84.0
KCVW 140255Z AUTO 04011KT 10SM CLR 07/04 A3037 RMK A01,KCVW,2019-01-14T02:55:00Z,29.78,-93.3,7.0,4.0,40,11,,10.0,30.369095,,,TRUE,TRUE,,,,,,,CLR,,,,,,,,VFR,,,,,,,,,,,,METAR,1.0
KCRX 140255Z AUTO 31006KT 10SM BKN008 OVC014 04/02 A3033 RMK AO2,KCRX,2019-01-14T02:55:00Z,34.92,-88.6,4.0,2.0,310,6,,10.0,30.33071,,,TRUE,TRUE,,,,,,,BKN,800,OVC,1400,,,,,IFR,,,,,,,,,,,,METAR,130.0
KCQM 140255Z AUTO 26005KT 5SM BR OVC010 M03/M04 A3019 RMK AO2,KCQM,2019-01-14T02:55:00Z,47.82,-92.68,-3.0,-4.0,260,5,,5.0,30.188976,,,TRUE,TRUE,,,,,,BR,OVC,1000,,,,,,,MVFR,,,,,,,,,,,,METAR,404.0
KCMY 140255Z AUTO 00000KT 10SM CLR M09/M10 A3038 RMK AO2 T10931100,KCMY,2019-01-14T02:55:00Z,43.97,-90.73,-9.3,-10.0,0,0,,10.0,30.380905,,,TRUE,TRUE,,,,,,,CLR,,,,,,,,VFR,,,,,,,,,,,,METAR,256.0
KDSF 140255Z AUTO 10SM OVC026 16/09 A3026 RMK A01,KDSF,2019-01-14T02:55:00Z,28.35,-88.27,16.0,9.0,,,,10.0,30.259842,,,TRUE,TRUE,,,,,,,OVC,2600,,,,,,,MVFR,,,,,,,,,,,,METAR,130.0
KDKX 140255Z AUTO 24005KT 5SM BR OVC004 07/07 A3019 RMK A01,KDKX,2019-01-14T02:55:00Z,35.97,-83.87,7.0,7.0,240,5,,5.0,30.188976,,,TRUE,TRUE,,,,,,BR,OVC,400,,,,,,,LIFR,,,,,,,,,,,,METAR,254.0
KU42 140255Z AUTO 33004KT 10SM OVC015 M04/M05 A3031 RMK AO1 T10371050,KU42,2019-01-14T02:55:00Z,40.62,-111.98,-3.7,-5.0,330,4,,10.0,30.31004,,,TRUE,TRUE,,,,,,,OVC,1500,,,,,,,MVFR,,,,,,,,,,,,METAR,1402.0
KTZR 140255Z AUTO 36008KT 10SM BKN026 OVC070 M02/M04 A3026 RMK AO2 T10221042,KTZR,2019-01-14T02:55:00Z,39.9,-83.13,-2.2,-4.2,360,8,,10.0,30.259842,,,TRUE,TRUE,,,,,,,BKN,2600,OVC,7000,,,,,MVFR,,,,,,,,,,,,METAR,276.0
KTYL 140255Z AUTO 00000KT 10SM OVC014 00/00 A3022 RMK AO2,KTYL,2019-01-14T02:55:00Z,,,0.0,0.0,0,0,,10.0,30.221457,,,TRUE,TRUE,,,,,,,OVC,1400,,,,,,,MVFR,,,,,,,,,,,,METAR,
KTVI 140255Z AUTO 01008KT 10SM OVC016 11/08 A3022 RMK AO2,KTVI,2019-01-14T02:55:00Z,30.9,-83.88,11.0,8.0,10,8,,10.0,30.221457,,,TRUE,TRUE,,,,,,,OVC,1600,,,,,,,MVFR,,,,,,,,,,,,METAR,80.0
KTNB 140255Z AUTO 00000KT 7SM SCT007 SCT060 OVC070 02/02 A3009 RMK AO2 T00200020,KTNB,2019-01-14T02:55:00Z,36.2,-81.65,2.0,2.0,0,0,,7.0,30.088583,,,TRUE,TRUE,,,,,,,SCT,700,SCT,6000,OVC,7000,,,VFR,,,,,,,,,,,,METAR,911.0
KTHA 140255Z AUTO 30007KT 2SM BR OVC003 03/03 A3024 RMK A01,KTHA,2019-01-14T02:55:00Z,35.38,-86.25,3.0,3.0,300,7,,2.0,30.239174,,,TRUE,TRUE,,,,,,BR,OVC,300,,,,,,,LIFR,,,,,,,,,,,,METAR,331.0
KSZY 140255Z AUTO 00000KT 9SM BKN005 OVC016 02/02 A3032 RMK A01,KSZY,2019-01-14T02:55:00Z,,,2.0,2.0,0,0,,9.0,30.318897,,,TRUE,TRUE,,,,,,,BKN,500,OVC,1600,,,,,IFR,,,,,,,,,,,,METAR,
KSZT 140255Z AUTO 04009KT 10SM CLR M02/M05 A3033 RMK AO2,KSZT,2019-01-14T02:55:00Z,48.3,-116.57,-2.0,-5.0,40,9,,10.0,30.33071,,,TRUE,TRUE,,,,,,,CLR,,,,,,,,VFR,,,,,,,,,,,,METAR,648.0
KSYN 140255Z AUTO 19006KT 10SM OVC028 M01/M04 A3031 RMK AO2 T10101038,KSYN,2019-01-14T02:55:00Z,44.47,-93.02,-1.0,-3.8,190,6,,10.0,30.31004,,,TRUE,TRUE,,,,,,,OVC,2800,,,,,,,MVFR,,,,,,,,,,,,METAR,280.0
KSYI 140255Z AUTO 29004KT 3SM BR OVC004 04/04 A3026 RMK A01,KSYI,2019-01-14T02:55:00Z,35.57,-86.45,4.0,4.0,290,4,,3.0,30.259842,,,TRUE,TRUE,,,,,,BR,OVC,400,,,,,,,LIFR,,,,,,,,,,,,METAR,245.0
KSXU 140255Z AUTO 02006KT 5SM -RA SCT003 OVC028 01/01 A3029 RMK AO2 T00060005,KSXU,2019-01-14T02:55:00Z,34.93,-104.65,0.6,0.5,20,6,,5.0,30.28937,,,TRUE,TRUE,,,,,,-RA,SCT,300,OVC,2800,,,,,MVFR,,,,,,,,,,,,METAR,1460.0
KSRE 140255Z AUTO 03005KT 10SM OVC015 01/M02 A3045 RMK AO2,KSRE,2019-01-14T02:55:00Z,35.27,-96.68,1.0,-2.0,30,5,,10.0,30.448818,,,TRUE,TRUE,,,,,,,OVC,1500,,,,,,,MVFR,,,,,,,,,,,,METAR,312.0
KSRB 140255Z AUTO VRB05KT 10SM BKN007 OVC010 03/03 A3023 RMK A01,KSRB,2019-01-14T02:55:00Z,36.05,-85.53,3.0,3.0,0,5,,10.0,30.230314,,,TRUE,TRUE,,,,,,,BKN,700,OVC,1000,,,,,IFR,,,,,,,,,,,,METAR,313.0
KSNH 140255Z AUTO 33007G13KT 10SM OVC009 03/02 A3032 RMK A01,KSNH,2019-01-14T02:55:00Z,35.17,-88.22,3.0,2.0,330,7,13,10.0,30.318897,,,TRUE,TRUE,,,,,,,OVC,900,,,,,,,IFR,,,,,,,,,,,,METAR,144.0
KSIK 140255Z AUTO 34006KT 10SM OVC012 01/00 A3038 RMK AO2,KSIK,2019-01-14T02:55:00Z,36.9,-89.57,1.0,0.0,340,6,,10.0,30.380905,,,TRUE,TRUE,,,,,,,OVC,1200,,,,,,,MVFR,,,,,,,,,,,,METAR,96.0
KSCX 140255Z AUTO 33005G10KT 10SM BKN005 OVC011 02/02 A3019 RMK A01,KSCX,2019-01-14T02:55:00Z,36.45,-84.58,2.0,2.0,330,5,10,10.0,30.188976,,,TRUE,TRUE,,,,,,,BKN,500,OVC,1100,,,,,IFR,,,,,,,,,,,,METAR,471.0
KSCF 140255Z AUTO 02011KT 10SM CLR 10/05 A3027 RMK A01,KSCF,2019-01-14T02:55:00Z,29.12,-91.87,10.0,5.0,20,11,,10.0,30.268702,,,TRUE,TRUE,,,,,,,CLR,,,,,,,,VFR,,,,,,,,,,,,METAR,8.0
KS52 140255Z AUTO 00000KT 3 1/2SM BR M08/M09 A3036 RMK AO2 T10791088,KS52,2019-01-14T02:55:00Z,48.38,-120.15,-7.9,-8.8,0,0,,3.5,30.360237,,,TRUE,TRUE,,,,,,BR,,,,,,,,,,,,,,,,,,,,,METAR,520.0
KS39 140255Z AUTO 00000KT 10SM CLR M03/M04 A3021 RMK AO2,KS39,2019-01-14T02:55:00Z,44.28,-120.9,-3.0,-4.0,0,0,,10.0,30.209646,,,TRUE,TRUE,,,,,,,CLR,,,,,,,,VFR,,,,,,,,,,,,METAR,991.0
KRZR 140255Z AUTO 28004KT 10SM OVC021 07/06 A3020 RMK A01,KRZR,2019-01-14T02:55:00Z,35.22,-84.8,7.0,6.0,280,4,,10.0,30.200787,,,TRUE,TRUE,,,,,,,OVC,2100,,,,,,,MVFR,,,,,,,,,,,,METAR,263.0
KRZL 140255Z AUTO 00000KT 10SM CLR M07/M08 A3038 RMK AO2,KRZL,2019-01-14T02:55:00Z,40.95,-87.18,-7.0,-8.0,0,0,,10.0,30.380905,,,TRUE,TRUE,,,,,,,CLR,,,,,,,,VFR,,,,,,,,,,,,METAR,213.0
KRTS 140255Z AUTO 00000KT 10SM CLR M02/M06 A3008 RMK AO2,KRTS,2019-01-14T02:55:00Z,39.67,-119.88,-2.0,-6.0,0,0,,10.0,30.079725,,,TRUE,TRUE,,,,,,,CLR,,,,,,,,VFR,,,,,,,,,,,,METAR,1540.0
KRPH 140255Z AUTO 01004KT 10SM OVC014 01/M01 A3044 RMK AO2 T00051008,KRPH,2019-01-14T02:55:00Z,33.12,-98.55,0.5,-0.8,10,4,,10.0,30.43996,,,TRUE,TRUE,,,,,,,OVC,1400,,,,,,,MVFR,,,,,,,,,,,,METAR,342.0
KRNC 140255Z AUTO 32005KT 3SM BR BKN006 OVC012 04/03 A3024 RMK A01,KRNC,2019-01-14T02:55:00Z,35.7,-85.85,4.0,3.0,320,5,,3.0,30.239174,,,TRUE,TRUE,,,,,,BR,BKN,600,OVC,1200,,,,,IFR,,,,,,,,,,,,METAR,315.0
KRMN 140255Z AUTO 34005KT 4SM -SN SCT009 BKN048 OVC065 M01/M01 A3031 RMK AO2 60002 T10111011,KRMN,2019-01-14T02:55:00Z,38.4,-77.45,-1.1,-1.1,340,5,,4.0,30.31004,,,TRUE,TRUE,,,,,,-SN,SCT,900,BKN,4800,OVC,6500,,,MVFR,,,,,,,0.02,,,,,METAR,65.0
KRLD 140255Z AUTO 31004KT 10SM OVC016 01/00 A3041 RMK AO2 T00080000,KRLD,2019-01-14T02:55:00Z,46.3,-119.3,0.8,0.0,310,4,,10.0,30.410433,,,TRUE,TRUE,,,,,,,OVC,1600,,,,,,,MVFR,,,,,,,,,,,,METAR,120.0
KETB 140255Z AUTO 00000KT 10SM SCT019 M08/M08 A3038 RMK AO2,KETB,2019-01-14T02:55:00Z,43.42,-88.13,-8.0,-8.0,0,0,,10.0,30.380905,,,TRUE,TRUE,,,,,,,SCT,1900,,,,,,,VFR,,,,,,,,,,,,METAR,270.0
KEKS 140255Z AUTO 00000KT 10SM CLR M08/M11 A3026 RMK AO2,KEKS,2019-01-14T02:55:00Z,45.27,-111.65,-8.0,-11.0,0,0,,10.0,30.259842,,,TRUE,TRUE,,,,,,,CLR,,,,,,,,VFR,,,,,,,,,,,,METAR,1641.0
KEIR 140255Z AUTO 02013KT 10SM BKN026 12/06 A3033 RMK A01,KEIR,2019-01-14T02:55:00Z,28.63,-91.48,12.0,6.0,20,13,,10.0,30.33071,,,TRUE,TRUE,,,,,,,BKN,2600,,,,,,,MVFR,,,,,,,,,,,,METAR,28.0
KUCY 140255Z AUTO 32005KT 1 3/4SM BR OVC004 02/01 A3035 RMK A01,KUCY,2019-01-14T02:55:00Z,36.38,-88.98,2.0,1.0,320,5,,1.75,30.351377,,,TRUE,TRUE,,,,,,BR,OVC,400,,,,,,,LIFR,,,,,,,,,,,,METAR,104.0
KLLJ 140255Z AUTO 00000KT 10SM CLR M15/M17 A3035 RMK AO2 SLP357 T11501172 51006,KLLJ,2019-01-14T02:55:00Z,44.52,-114.22,-15.0,-17.2,0,0,,10.0,30.351377,1035.7,,TRUE,TRUE,,,,,,,CLR,,,,,,,,VFR,0.6,,,,,,,,,,,METAR,1536.0
KUYF 140255Z AUTO 01008KT 10SM OVC010 M02/M03 A3026 RMK AO2,KUYF,2019-01-14T02:55:00Z,39.93,-83.47,-2.0,-3.0,10,8,,10.0,30.259842,,,TRUE,TRUE,,,,,,,OVC,1000,,,,,,,MVFR,,,,,,,,,,,,METAR,330.0
KVAF 140255Z AUTO 05011G17KT 9SM BKN024 14/09 A3031 RMK A01,KVAF,2019-01-14T02:55:00Z,27.35,-94.63,14.0,9.0,50,11,17,9.0,30.31004,,,TRUE,TRUE,,,,,,,BKN,2400,,,,,,,MVFR,,,,,,,,,,,,METAR,46.0
KVBS 140255Z AUTO 08017KT 10SM FEW028 SCT032 10/04 A3037 RMK A01,KVBS,2019-01-14T02:55:00Z,29.48,-93.63,10.0,4.0,80,17,,10.0,30.369095,,,TRUE,TRUE,,,,,,,FEW,2800,SCT,3200,,,,,VFR,,,,,,,,,,,,METAR,31.0
KVKS 140255Z AUTO 34006KT 10SM OVC024 06/01 A3038 RMK A01,KVKS,2019-01-14T02:55:00Z,32.23,-90.93,6.0,1.0,340,6,,10.0,30.380905,,,TRUE,TRUE,,,,,,,OVC,2400,,,,,,,MVFR,,,,,,,,,,,,METAR,32.0
KHDC 140255Z AUTO 03005KT 10SM OVC019 05/02 A3036 RMK AO2,KHDC,2019-01-14T02:55:00Z,30.52,-90.42,5.0,2.0,30,5,,10.0,30.360237,,,TRUE,TRUE,,,,,,,OVC,1900,,,,,,,MVFR,,,,,,,,,,,,METAR,13.0
KHCR 140255Z AUTO 00000KT 10SM CLR M13/M16 A3024 RMK AO2,KHCR,2019-01-14T02:55:00Z,40.48,-111.43,-13.0,-16.0,0,0,,10.0,30.239174,,,TRUE,TRUE,,,,,,,CLR,,,,,,,,VFR,,,,,,,,,,,,METAR,1706.0
KGZL 140255Z AUTO 34006KT 10SM OVC015 01/M03 A3046 RMK AO2,KGZL,2019-01-14T02:55:00Z,35.28,-95.1,1.0,-3.0,340,6,,10.0,30.46063,,,TRUE,TRUE,,,,,,,OVC,1500,,,,,,,MVFR,,,,,,,,,,,,METAR,183.0
KGYI 140255Z AUTO 36006KT 10SM OVC016 02/M01 A3046 RMK AO2 T00171010 TSNO,KGYI,2019-01-14T02:55:00Z,33.72,-96.67,1.7,-1.0,360,6,,10.0,30.46063,,,TRUE,TRUE,,,TRUE,,,,OVC,1600,,,,,,,MVFR,,,,,,,,,,,,METAR,228.0
KGYB 140255Z AUTO 02006KT 10SM OVC070 07/01 A3040 RMK AO2 T00680014,KGYB,2019-01-14T02:55:00Z,30.17,-96.98,6.8,1.4,20,6,,10.0,30.398623,,,TRUE,TRUE,,,,,,,OVC,7000,,,,,,,VFR,,,,,,,,,,,,METAR,148.0
KGWB 140255Z AUTO 00000KT 10SM CLR M08/M10 A3035 RMK AO2,KGWB,2019-01-14T02:55:00Z,41.3,-85.07,-8.0,-10.0,0,0,,10.0,30.351377,,,TRUE,TRUE,,,,,,,CLR,,,,,,,,VFR,,,,,,,,,,,,METAR,269.0
KVDF 140255Z AUTO 00000KT 1/4SM FG OVC003 16/15 A3017 RMK AO2,KVDF,2019-01-14T02:55:00Z,28.02,-82.33,16.0,15.0,0,0,,0.25,30.171259,,,TRUE,TRUE,,,,,,FG,OVC,300,,,,,,,LIFR,,,,,,,,,,,,METAR,7.0
KVBW 140255Z AUTO 00000KT 7SM OVC042 M03/M04 A3023 RMK AO1 T10301040,KVBW,2019-01-14T02:55:00Z,38.37,-78.97,-3.0,-4.0,0,0,,7.0,30.230314,,,TRUE,TRUE,,,,,,,OVC,4200,,,,,,,VFR,,,,,,,,,,,,METAR,355.0
KUVA 140255Z AUTO 00000KT 10SM OVC060 11/06 A3037 RMK AO2 T01050062,KUVA,2019-01-14T02:55:00Z,29.22,-99.75,10.5,6.2,0,0,,10.0,30.369095,,,TRUE,TRUE,,,,,,,OVC,6000,,,,,,,VFR,,,,,,,,,,,,METAR,287.0
KUNI 140255Z AUTO 34003KT 10SM BKN018 OVC030 00/M02 A3023 RMK AO2 T10051023,KUNI,2019-01-14T02:55:00Z,39.22,-82.23,-0.5,-2.3,340,3,,10.0,30.230314,,,TRUE,TRUE,,,,,,,BKN,1800,OVC,3000,,,,,MVFR,,,,,,,,,,,,METAR,193.0
KULS 140255Z AUTO 16005KT 2 1/2SM BR OVC003 00/00 A3032 RMK AO2,KULS,2019-01-14T02:55:00Z,37.6,-101.37,0.0,0.0,160,5,,2.5,30.318897,,,TRUE,TRUE,,,,,,BR,OVC,300,,,,,,,LIFR,,,,,,,,,,,,METAR,936.0
KUGN 140255Z AUTO 31003KT 10SM OVC020 M03/M07 A3038 RMK AO2 SLP303 T10281067 55003,KUGN,2019-01-14T02:55:00Z,42.42,-87.87,-2.8,-6.7,310,3,,10.0,30.380905,1030.3,,TRUE,TRUE,,,,,,,OVC,2000,,,,,,,MVFR,-0.3,,,,,,,,,,,METAR,222.0
KUBE 140255Z AUTO 19008KT 10SM OVC022 M02/M05 A3027 RMK AO2,KUBE,2019-01-14T02:55:00Z,45.5,-91.98,-2.0,-5.0,190,8,,10.0,30.268702,,,TRUE,TRUE,,,,,,,OVC,2200,,,,,,,MVFR,,,,,,,,,,,,METAR,379.0
KU68 140255Z AUTO 00000KT 10SM CLR M07/M07 A3023 RMK AO2,KU68,2019-01-14T02:55:00Z,44.92,-108.45,-7.0,-7.0,0,0,,10.0,30.230314,,,TRUE,TRUE,,,,,,,CLR,,,,,,,,VFR,,,,,,,,,,,,METAR,1247.0
KTYQ 140255Z AUTO 01004KT 10SM CLR M10/M10 A3034 RMK AO2 T10991102,KTYQ,2019-01-14T02:55:00Z,40.03,-86.25,-9.9,-10.2,10,4,,10.0,30.339567,,,TRUE,TRUE,,,,,,,CLR,,,,,,,,VFR,,,,,,,,,,,,METAR,281.0
KTQH 140255Z AUTO 31003KT 10SM SCT008 OVC014 00/M01 A3045 RMK AO2,KTQH,2019-01-14T02:55:00Z,35.93,-95.0,0.0,-1.0,310,3,,10.0,30.448818,,,TRUE,TRUE,,,,,,,SCT,800,OVC,1400,,,,,MVFR,,,,,,,,,,,,METAR,266.0
KTMA 140255Z AUTO 01004KT 10SM OVC028 11/07 A3020 RMK AO2 T01050066,KTMA,2019-01-14T02:55:00Z,31.43,-83.48,10.5,6.6,10,4,,10.0,30.200787,,,TRUE,TRUE,,,,,,,OVC,2800,,,,,,,MVFR,,,,,,,,,,,,METAR,109.0
KTKV 140255Z AUTO 00000KT 10SM CLR M08/M09 A3029 RMK AO2 T10801090,KTKV,2019-01-14T02:55:00Z,45.47,-89.82,-8.0,-9.0,0,0,,10.0,30.28937,,,TRUE,TRUE,,,,,,,CLR,,,,,,,,VFR,,,,,,,,,,,,METAR,453.0
KSYF 140255Z AUTO 21008KT 1 1/4SM BR OVC003 M01/M01 A3028 RMK AO2 T10151015,KSYF,2019-01-14T02:55:00Z,39.77,-101.8,-1.5,-1.5,210,8,,1.25,30.280512,,,TRUE,TRUE,,,,,,BR,OVC,300,,,,,,,LIFR,,,,,,,,,,,,METAR,1025.0
KW13 140255Z AUTO 00000KT 5SM BKN037 OVC049 M04/M04 A3021 RMK AO1 T10371040,KW13,2019-01-14T02:55:00Z,38.08,-78.95,-3.7,-4.0,0,0,,5.0,30.209646,,,TRUE,TRUE,,,,,,,BKN,3700,OVC,4900,,,,,MVFR,,,,,,,,,,,,METAR,443.0
KVJI 140255Z AUTO 10004KT 3SM BR SCT004 OVC008 02/02 A3013 RMK AO2 60002 T00170017,KVJI,2019-01-14T02:55:00Z,36.67,-82.02,1.7,1.7,100,4,,3.0,30.129921,,,TRUE,TRUE,,,,,,BR,SCT,400,OVC,800,,,,,IFR,,,,,,,0.02,,,,,METAR,631.0
KW75 140255Z AUTO 35013G20KT 10SM OVC008 00/00 A3018 RMK AO1 P0003 60016 T10021002,KW75,2019-01-14T02:55:00Z,37.6,-76.45,-0.2,-0.2,350,13,20,10.0,30.180119,,,TRUE,TRUE,,,,,,,OVC,800,,,,,,,IFR,,,,,,0.03,0.16,,,,,METAR,9.0
KW63 140255Z AUTO 36006KT 4SM OVC006 00/00 A3019 RMK AO1,KW63,2019-01-14T02:55:00Z,36.6,-78.55,0.0,0.0,360,6,,4.0,30.188976,,,TRUE,TRUE,,,,,,,OVC,600,,,,,,,IFR,,,,,,,,,,,,METAR,129.0
KVKY 140255Z AUTO 10SM OVC022 11/07 A3031 RMK A01,KVKY,2019-01-14T02:55:00Z,29.25,-88.43,11.0,7.0,,,,10.0,30.31004,,,TRUE,TRUE,,,,,,,OVC,2200,,,,,,,MVFR,,,,,,,,,,,,METAR,32.0
KVOA 140255Z AUTO 36010KT 10SM OVC023 12/07 A3026 RMK A01,KVOA,2019-01-14T02:55:00Z,29.23,-87.78,12.0,7.0,360,10,,10.0,30.259842,,,TRUE,TRUE,,,,,,,OVC,2300,,,,,,,MVFR,,,,,,,,,,,,METAR,53.0
KVQT 140255Z AUTO 05013KT 10SM OVC023 13/08 A3033 RMK A01,KVQT,2019-01-14T02:55:00Z,28.27,-92.27,13.0,8.0,50,13,,10.0,30.33071,,,TRUE,TRUE,,,,,,,OVC,2300,,,,,,,MVFR,,,,,,,,,,,,METAR,25.0
KXBP 140255Z AUTO 10SM OVC014 01/M01 A3048 RMK AO2 6//// T00111012 PNO,KXBP,2019-01-14T02:55:00Z,33.18,-97.83,1.1,-1.2,,,,10.0,30.481298,,,TRUE,TRUE,,,,,,,OVC,1400,,,,,,,MVFR,,,,,,,,,,,,METAR,260.0
KXER 140255Z AUTO 01010G16KT 10SM OVC022 13/08 A3032 RMK A01,KXER,2019-01-14T02:55:00Z,,,13.0,8.0,10,10,16,10.0,30.318897,,,TRUE,TRUE,,,,,,,OVC,2200,,,,,,,MVFR,,,,,,,,,,,,METAR,
K04W 140255Z AUTO 23010G15KT 10SM OVC015 00/M02 A3026 RMK AO2,K04W,2019-01-14T02:55:00Z,46.02,-92.9,0.0,-2.0,230,10,15,10.0,30.259842,,,TRUE,TRUE,,,,,,,OVC,1500,,,,,,,MVFR,,,,,,,,,,,,METAR,311.0
KXPY 140255Z AUTO 01012G17KT 10SM OVC020 09/05 A3033 RMK A01,KXPY,2019-01-14T02:55:00Z,29.12,-90.2,9.0,5.0,10,12,17,10.0,30.33071,,,TRUE,TRUE,,,,,,,OVC,2000,,,,,,,MVFR,,,,,,,,,,,,METAR,2.0
KXNX 140255Z AUTO 30007KT 240V320 10SM OVC008 03/02 A3031 RMK A01,KXNX,2019-01-14T02:55:00Z,36.38,-86.42,3.0,2.0,300,7,,10.0,30.31004,,,TRUE,TRUE,,,,,,,OVC,800,,,,,,,IFR,,,,,,,,,,,,METAR,178.0
KXIH 140255Z AUTO 03020KT 10SM CLR A3035 RMK A01,KXIH,2019-01-14T02:55:00Z,29.18,-94.52,,,30,20,,10.0,30.351377,,,TRUE,TRUE,,,,,,,CLR,,,,,,,,VFR,,,,,,,,,,,,METAR,75.0
KAST 140255Z AUTO 07004KT 10SM CLR 08/01 A3007 RMK AO2 SLP181 T00780011 55001,KAST,2019-01-14T02:55:00Z,46.15,-123.88,7.8,1.1,70,4,,10.0,30.070866,1018.1,,TRUE,TRUE,,,,,,,CLR,,,,,,,,VFR,-0.1,,,,,,,,,,,METAR,3.0
KASN 140255Z AUTO 32009KT 10SM OVC018 07/04 A3027 RMK AO2 T00670044,KASN,2019-01-14T02:55:00Z,33.57,-86.05,6.7,4.4,320,9,,10.0,30.268702,,,TRUE,TRUE,,,,,,,OVC,1800,,,,,,,MVFR,,,,,,,,,,,,METAR,162.0
KARM 140255Z AUTO 36006KT 10SM CLR 08/03 A3039 RMK AO2 T00830030,KARM,2019-01-14T02:55:00Z,29.25,-96.15,8.3,3.0,360,6,,10.0,30.389763,,,TRUE,TRUE,,,,,,,CLR,,,,,,,,VFR,,,,,,,,,,,,METAR,31.0
K05U 140255Z AUTO 00000KT 1SM BR OVC003 M07/M07 A3017 RMK A01,K05U,2019-01-14T02:55:00Z,39.6,-116.0,-7.0,-7.0,0,0,,1.0,30.171259,,,TRUE,TRUE,,,,,,BR,OVC,300,,,,,,,LIFR,,,,,,,,,,,,METAR,1816.0
K0A9 140255Z AUTO 26006KT 2SM BR BKN007 OVC011 06/05 A3013 RMK AO2 P0001,K0A9,2019-01-14T02:55:00Z,36.37,-82.17,6.0,5.0,260,6,,2.0,30.129921,,,TRUE,TRUE,,,,,,BR,BKN,700,OVC,1100,,,,,IFR,,,,,,0.01,,,,,,METAR,486.0
K18H 140255Z AUTO 03011G16KT 6SM HZ SCT023 17/11 A3027 RMK A01,K18H,2019-01-14T02:55:00Z,26.13,-92.03,17.0,11.0,30,11,16,6.0,30.268702,,,TRUE,TRUE,,,,,,HZ,SCT,2300,,,,,,,VFR,,,,,,,,,,,,METAR,10.0
K1U7 140255Z AUTO 09006KT 10SM CLR M16/M18 A3028 RMK A01,K1U7,2019-01-14T02:55:00Z,,,-16.0,-18.0,90,6,,10.0,30.280512,,,TRUE,TRUE,,,,,,,CLR,,,,,,,,VFR,,,,,,,,,,,,METAR,
K28J 140255Z AUTO 28004KT M1/4SM FG OVC002 15/15 A3014 RMK AO2,K28J,2019-01-14T02:55:00Z,29.65,-81.58,15.0,15.0,280,4,,0.25,30.138779,,,TRUE,TRUE,,,,,,FG,OVC,200,,,,,,,LIFR,,,,,,,,,,,,METAR,15.0
K2A0 140255Z AUTO 00000KT 10SM OVC017 07/05 A3021 RMK A01,K2A0,2019-01-14T02:55:00Z,35.48,-84.93,7.0,5.0,0,0,,10.0,30.209646,,,TRUE,TRUE,,,,,,,OVC,1700,,,,,,,MVFR,,,,,,,,,,,,METAR,219.0
K2LS 140255Z AUTO VRB03G10KT 10SM OVC020 08/04 A3035 RMK AO2,K2LS,2019-01-14T02:55:00Z,29.42,-90.3,8.0,4.0,0,3,10,10.0,30.351377,,,TRUE,TRUE,,,,,,,OVC,2000,,,,,,,MVFR,,,,,,,,,,,,METAR,-2.0
K2M2 140255Z AUTO 30005G10KT 6SM BR OVC004 03/02 A3028 RMK A01,K2M2,2019-01-14T02:55:00Z,35.23,-87.25,3.0,2.0,300,5,10,6.0,30.280512,,,TRUE,TRUE,,,,,,BR,OVC,400,,,,,,,LIFR,,,,,,,,,,,,METAR,286.0
K33N 140255Z AUTO 02011KT 10SM OVC045 M01/M08 A3024 RMK A01,K33N,2019-01-14T02:55:00Z,39.22,-75.6,-1.0,-8.0,20,11,,10.0,30.239174,,,TRUE,TRUE,,,,,,,OVC,4500,,,,,,,VFR,,,,,,,,,,,,METAR,17.0
K3D2 140255Z AUTO 22003KT 10SM CLR M08/M09 A3034 RMK AO2 T10761095,K3D2,2019-01-14T02:55:00Z,45.13,-87.18,-7.6,-9.5,220,3,,10.0,30.339567,,,TRUE,TRUE,,,,,,,CLR,,,,,,,,VFR,,,,,,,,,,,,METAR,234.0
K3L4 140255Z AUTO 03007G15KT 10SM CLR A3037 RMK A01,K3L4,2019-01-14T02:55:00Z,29.8,-92.8,,,30,7,15,10.0,30.369095,,,TRUE,TRUE,,,,,,,CLR,,,,,,,,VFR,,,,,,,,,,,,METAR,2.0
K3S8 140255Z AUTO 00000KT 10SM CLR 04/02 A3002 RMK AO2,K3S8,2019-01-14T02:55:00Z,42.5,-123.4,4.0,2.0,0,0,,10.0,30.02067,,,TRUE,TRUE,,,,,,,CLR,,,,,,,,VFR,,,,,,,,,,,,METAR,343.0
K3T5 140255Z AUTO 36004KT 10SM CLR 08/03 A3039 RMK AO2 T00800027,K3T5,2019-01-14T02:55:00Z,29.9,-96.95,8.0,2.7,360,4,,10.0,30.389763,,,TRUE,TRUE,,,,,,,CLR,,,,,,,,VFR,,,,,,,,,,,,METAR,99.0
K46U 140255Z AUTO 00000KT 10SM CLR M13/M15 A3029 RMK A01,K46U,2019-01-14T02:55:00Z,43.18,-111.05,-13.0,-15.0,0,0,,10.0,30.28937,,,TRUE,TRUE,,,,,,,CLR,,,,,,,,VFR,,,,,,,,,,,,METAR,1717.0
K4S2 140255Z AUTO 06008KT 10SM OVC020 03/00 A3034 RMK AO2,K4S2,2019-01-14T02:55:00Z,45.68,-121.55,3.0,0.0,60,8,,10.0,30.339567,,,TRUE,TRUE,,,,,,,OVC,2000,,,,,,,MVFR,,,,,,,,,,,,METAR,192.0
K54A 140255Z AUTO 00000KT 1 3/4SM BR 18/18 A3016 RMK AO2 VIS 3/4V4,K54A,2019-01-14T02:55:00Z,26.85,-82.25,18.0,18.0,0,0,,1.75,30.159449,,,TRUE,TRUE,,,,,,BR,,,,,,,,,,,,,,,,,,,,,METAR,14.0
KW31 140255Z AUTO 36008KT 10SM OVC007 M01/M01 A3019 RMK AO1 T10141014,KW31,2019-01-14T02:55:00Z,36.95,-78.18,-1.4,-1.4,360,8,,10.0,30.188976,,,TRUE,TRUE,,,,,,,OVC,700,,,,,,,IFR,,,,,,,,,,,,METAR,162.0
K5T9 140255Z AUTO 00000KT 10SM OVC048 08/00 A3036 RMK A01,K5T9,2019-01-14T02:55:00Z,28.85,-100.52,8.0,0.0,0,0,,10.0,30.360237,,,TRUE,TRUE,,,,,,,OVC,4800,,,,,,,VFR,,,,,,,,,,,,METAR,270.0
KQBL 140255Z AUTO 08003KT 10SM BKN025 10/05 A3029 RMK AO2 SLP255 WND DATA ESTMD T01040052 52014,KQBL,2019-01-14T02:55:00Z,,,10.4,5.2,80,3,,10.0,30.28937,1025.5,,TRUE,TRUE,,,,,,,BKN,2500,,,,,,,MVFR,1.4,,,,,,,,,,,METAR,
KBGF 140255Z AUTO 29006KT 2SM BR OVC003 04/03 A3025 RMK A01,KBGF,2019-01-14T02:55:00Z,35.18,-86.07,4.0,3.0,290,6,,2.0,30.250984,,,TRUE,TRUE,,,,,,BR,OVC,300,,,,,,,LIFR,,,,,,,,,,,,METAR,299.0
KBBP 140255Z AUTO 35007KT 10SM OVC010 02/01 A3020 RMK AO2,KBBP,2019-01-14T02:55:00Z,34.62,-79.73,2.0,1.0,350,7,,10.0,30.200787,,,TRUE,TRUE,,,,,,,OVC,1000,,,,,,,MVFR,,,,,,,,,,,,METAR,45.0
KBBF 140255Z AUTO 07008G13KT 10SM CLR 14/07 A3033 RMK A01,KBBF,2019-01-14T02:55:00Z,27.83,-96.02,14.0,7.0,70,8,13,10.0,30.33071,,,TRUE,TRUE,,,,,,,CLR,,,,,,,,VFR,,,,,,,,,,,,METAR,36.0
KAVK 140255Z AUTO 00000KT 10SM OVC010 M01/M02 A3045 RMK AO2,KAVK,2019-01-14T02:55:00Z,36.77,-98.67,-1.0,-2.0,0,0,,10.0,30.448818,,,TRUE,TRUE,,,,,,,OVC,1000,,,,,,,MVFR,,,,,,,,,,,,METAR,449.0
KATP 140255Z AUTO 03010G16KT 10SM OVC025 15/10 A3029 RMK A01,KATP,2019-01-14T02:55:00Z,27.2,-90.03,15.0,10.0,30,10,16,10.0,30.28937,,,TRUE,TRUE,,,,,,,OVC,2500,,,,,,,MVFR,,,,,,,,,,,,METAR,62.0
KARW 140255Z AUTO 30007KT 7SM OVC008 08/06 A3019 RMK AO2,KARW,2019-01-14T02:55:00Z,32.42,-80.63,8.0,6.0,300,7,,7.0,30.188976,,,TRUE,TRUE,,,,,,,OVC,800,,,,,,,IFR,,,,,,,,,,,,METAR,4.0
K8A3 140255Z AUTO 33004KT 1 1/2SM BR OVC002 02/02 A3021 RMK A01,K8A3,2019-01-14T02:55:00Z,36.42,-85.32,2.0,2.0,330,4,,1.5,30.209646,,,TRUE,TRUE,,,,,,BR,OVC,200,,,,,,,LIFR,,,,,,,,,,,,METAR,419.0
K6S0 140255Z AUTO 26016KT 10SM CLR 02/M13 A3017 RMK A01,K6S0,2019-01-14T02:55:00Z,45.8,-109.97,2.0,-13.0,260,16,,10.0,30.171259,,,TRUE,TRUE,,,,,,,CLR,,,,,,,,VFR,,,,,,,,,,,,METAR,1363.0
KMNV 140255Z AUTO 24003KT 2 1/2SM BR BKN003 OVC019 06/06 A3020 RMK A01,KMNV,2019-01-14T02:55:00Z,35.55,-84.38,6.0,6.0,240,3,,2.5,30.200787,,,TRUE,TRUE,,,,,,BR,BKN,300,OVC,1900,,,,,LIFR,,,,,,,,,,,,METAR,314.0
KASW 140255Z AUTO 00000KT 10SM CLR M07/M10 A3035 RMK AO2,KASW,2019-01-14T02:55:00Z,41.27,-85.83,-7.0,-10.0,0,0,,10.0,30.351377,,,TRUE,TRUE,,,,,,,CLR,,,,,,,,VFR,,,,,,,,,,,,METAR,259.0
KAVC 140255Z AUTO 36009KT 10SM OVC006 M01/M01 A3024 RMK AO2 T10061006,KAVC,2019-01-14T02:55:00Z,36.68,-78.03,-0.6,-0.6,360,9,,10.0,30.239174,,,TRUE,TRUE,,,,,,,OVC,600,,,,,,,IFR,,,,,,,,,,,,METAR,135.0
KAVQ 140255Z AUTO 28004KT 10SM CLR 11/07 RMK AO2 T01130073,KAVQ,2019-01-14T02:55:00Z,32.4,-111.22,11.3,7.3,280,4,,10.0,,,,TRUE,TRUE,,,,,,,CLR,,,,,,,,VFR,,,,,,,,,,,,METAR,619.0
KAXH 140255Z AUTO 02004KT 10SM BKN075 09/04 A3038 RMK AO2 T00870035,KAXH,2019-01-14T02:55:00Z,29.52,-95.48,8.7,3.5,20,4,,10.0,30.380905,,,TRUE,TRUE,,,,,,,BKN,7500,,,,,,,VFR,,,,,,,,,,,,METAR,21.0
EHGG 140255Z AUTO 32009KT 9999 NSC 05/01 Q1005,EHGG,2019-01-14T02:55:00Z,53.12,6.57,5.0,1.0,320,9,,6.21,29.675198,,,TRUE,,,,,,,,CLR,,,,,,,,VFR,,,,,,,,,,,,METAR,4.0
EHBK 140255Z AUTO 28008KT 240V320 9999 BKN015 OVC019 06/04 Q1009,EHBK,2019-01-14T02:55:00Z,50.92,5.77,6.0,4.0,280,8,,6.21,29.793306,,,TRUE,,,,,,,,BKN,1500,OVC,1900,,,,,MVFR,,,,,,,,,,,,METAR,116.0
EHAM 140255Z 31014KT 290V350 9999 FEW020 SCT035 07/05 Q1008 TEMPO 31022G33KT 7000 -SHRA SCT025CB,EHAM,2019-01-14T02:55:00Z,52.32,4.78,7.0,5.0,310,14,,6.21,29.763779,,,,,,,,,,,FEW,2000,SCT,3500,,,,,VFR,,,,,,,,,,,,METAR,9.0
KOMH 140255Z AUTO 01008KT 7SM -SN BKN009 BKN017 OVC041 M02/M03 A3026 RMK AO2,KOMH,2019-01-14T02:55:00Z,38.25,-78.05,-2.0,-3.0,10,8,,7.0,30.259842,,,TRUE,TRUE,,,,,,-SN,BKN,900,BKN,1700,OVC,4100,,,IFR,,,,,,,,,,,,METAR,142.0
KOLE 140255Z AUTO 07008KT 10SM CLR M13/M13 A3024 RMK AO2,KOLE,2019-01-14T02:55:00Z,42.23,-78.37,-13.0,-13.0,70,8,,10.0,30.239174,,,TRUE,TRUE,,,,,,,CLR,,,,,,,,VFR,,,,,,,,,,,,METAR,651.0
KBQK 140255Z AUTO 34006KT 10SM OVC010 11/08 A3020 RMK AO2,KBQK,2019-01-14T02:55:00Z,31.25,-81.47,11.0,8.0,340,6,,10.0,30.200787,,,TRUE,TRUE,,,,,,,OVC,1000,,,,,,,MVFR,,,,,,,,,,,,METAR,8.0
KBPG 140255Z AUTO 04008KT 10SM OVC005 00/M01 A3041 RMK AO2 T00001012,KBPG,2019-01-14T02:55:00Z,32.22,-101.52,0.0,-1.2,40,8,,10.0,30.410433,,,TRUE,TRUE,,,,,,,OVC,500,,,,,,,IFR,,,,,,,,,,,,METAR,784.0
KBPC 140255Z AUTO 00000KT 10SM OVC085 00/M01 A3038 RMK AO2,KBPC,2019-01-14T02:55:00Z,35.88,-101.03,0.0,-1.0,0,0,,10.0,30.380905,,,TRUE,TRUE,,,,,,,OVC,8500,,,,,,,VFR,,,,,,,,,,,,METAR,845.0
KBKS 140255Z AUTO 06004KT 10SM CLR 10/06 A3035 RMK AO1 T00970061,KBKS,2019-01-14T02:55:00Z,27.2,-98.12,9.7,6.1,60,4,,10.0,30.351377,,,TRUE,TRUE,,,,,,,CLR,,,,,,,,VFR,,,,,,,,,,,,METAR,34.0
KBIJ 140255Z AUTO 00000KT 10SM CLR 07/04 A3024 RMK AO2,KBIJ,2019-01-14T02:55:00Z,31.4,-84.9,7.0,4.0,0,0,,10.0,30.239174,,,TRUE,TRUE,,,,,,,CLR,,,,,,,,VFR,,,,,,,,,,,,METAR,65.0
KBEC 140255Z AUTO 04003KT 7SM OVC007 M02/M03 A3044 RMK AO2 T10201033,KBEC,2019-01-14T02:55:00Z,37.7,-97.22,-2.0,-3.3,40,3,,7.0,30.43996,,,TRUE,TRUE,,,,,,,OVC,700,,,,,,,IFR,,,,,,,,,,,,METAR,429.0
KBEA 140255Z AUTO 02006KT 10SM CLR 10/04 A3037 RMK AO2 T01030038,KBEA,2019-01-14T02:55:00Z,28.37,-97.78,10.3,3.8,20,6,,10.0,30.369095,,,TRUE,TRUE,,,,,,,CLR,,,,,,,,VFR,,,,,,,,,,,,METAR,82.0
KBAM 140255Z AUTO 05011KT 10SM CLR 00/M07 A3015 RMK AO1,KBAM,2019-01-14T02:55:00Z,,,0.0,-7.0,50,11,,10.0,30.15059,,,TRUE,TRUE,,,,,,,CLR,,,,,,,,VFR,,,,,,,,,,,,METAR,
KAZE 140255Z AUTO 36006KT 10SM SCT036 OVC044 10/06 A3020 RMK AO2 T01000060,KAZE,2019-01-14T02:55:00Z,31.88,-82.65,10.0,6.0,360,6,,10.0,30.200787,,,TRUE,TRUE,,,,,,,SCT,3600,OVC,4400,,,,,VFR,,,,,,,,,,,,METAR,78.0
KAZC 140255Z AUTO 08012G20KT 10SM SCT080 05/M02 A3020 RMK AO2,KAZC,2019-01-14T02:55:00Z,36.97,-113.02,5.0,-2.0,80,12,20,10.0,30.200787,,,TRUE,TRUE,,,,,,,SCT,8000,,,,,,,VFR,,,,,,,,,,,,METAR,1486.0
KAYS 140255Z AUTO 36008KT 10SM SCT012 OVC023 11/09 A3020 RMK AO2 T01130087,KAYS,2019-01-14T02:55:00Z,31.25,-82.4,11.3,8.7,360,8,,10.0,30.200787,,,TRUE,TRUE,,,,,,,SCT,1200,OVC,2300,,,,,MVFR,,,,,,,,,,,,METAR,46.0
KAXX 140255Z AUTO 16005KT 10SM M05/M06 A3023 RMK AO2 T10471065,KAXX,2019-01-14T02:55:00Z,36.42,-105.28,-4.7,-6.5,160,5,,10.0,30.230314,,,TRUE,TRUE,,,,,,,,,,,,,,,,,,,,,,,,,,,METAR,2548.0
KAXS 140255Z AUTO 06005KT 10SM OVC100 01/M02 A3047 RMK AO2 T00071020,KAXS,2019-01-14T02:55:00Z,34.7,-99.33,0.7,-2.0,60,5,,10.0,30.469488,,,TRUE,TRUE,,,,,,,OVC,10000,,,,,,,VFR,,,,,,,,,,,,METAR,437.0
KPHP 140255Z AUTO 26003KT 10SM CLR M04/M04 A3016 RMK AO2 SLP240 T10391044 58002,KPHP,2019-01-14T02:55:00Z,44.05,-101.6,-3.9,-4.4,260,3,,10.0,30.159449,1024.0,,TRUE,TRUE,,,,,,,CLR,,,,,,,,VFR,-0.2,,,,,,,,,,,METAR,672.0
KOWX 140255Z AUTO 02010KT 7SM BKN022 M05/M08 A3034 RMK AO1,KOWX,2019-01-14T02:55:00Z,41.03,-83.98,-5.0,-8.0,20,10,,7.0,30.339567,,,TRUE,TRUE,,,,,,,BKN,2200,,,,,,,MVFR,,,,,,,,,,,,METAR,233.0
KOWP 140255Z AUTO 36004KT 10SM OVC013 01/M01 A3047 RMK AO2 T00141012,KOWP,2019-01-14T02:55:00Z,36.18,-96.15,1.4,-1.2,360,4,,10.0,30.469488,,,TRUE,TRUE,,,,,,,OVC,1300,,,,,,,MVFR,,,,,,,,,,,,METAR,272.0
KOVL 140255Z AUTO 23009KT 10SM OVC015 00/M02 A3027 RMK AO2,KOVL,2019-01-14T02:55:00Z,44.78,-95.03,0.0,-2.0,230,9,,10.0,30.268702,,,TRUE,TRUE,,,,,,,OVC,1500,,,,,,,MVFR,,,,,,,,,,,,METAR,328.0
KOSU 140255Z 36009KT 10SM FEW030 M03/M05 A3026 RMK AO2 T10281050,KOSU,2019-01-14T02:55:00Z,40.08,-83.08,-2.8,-5.0,360,9,,10.0,30.259842,,,,TRUE,,,,,,,FEW,3000,,,,,,,VFR,,,,,,,,,,,,METAR,280.0
KONP 140255Z AUTO 07016G22KT 10SM CLR 09/00 A3004 RMK AO2,KONP,2019-01-14T02:55:00Z,44.57,-124.03,9.0,0.0,70,16,22,10.0,30.041338,,,TRUE,TRUE,,,,,,,CLR,,,,,,,,VFR,,,,,,,,,,,,METAR,48.0
KPVJ 140255Z AUTO 03005KT 10SM OVC017 01/M01 A3045 RMK AO2 T00101011,KPVJ,2019-01-14T02:55:00Z,34.72,-97.22,1.0,-1.1,30,5,,10.0,30.448818,,,TRUE,TRUE,,,,,,,OVC,1700,,,,,,,MVFR,,,,,,,,,,,,METAR,295.0
KPUJ 140255Z AUTO 30006KT 10SM OVC007 05/05 A3020 RMK AO2,KPUJ,2019-01-14T02:55:00Z,33.92,-84.93,5.0,5.0,300,6,,10.0,30.200787,,,TRUE,TRUE,,,,,,,OVC,700,,,,,,,IFR,,,,,,,,,,,,METAR,393.0
KPTB 140255Z AUTO 36008KT 7SM OVC007 00/M02 A3021 RMK AO2 T10031019,KPTB,2019-01-14T02:55:00Z,37.17,-77.52,-0.3,-1.9,360,8,,7.0,30.209646,,,TRUE,TRUE,,,,,,,OVC,700,,,,,,,IFR,,,,,,,,,,,,METAR,59.0
KPRS 140255Z AUTO 04013G20KT 10SM CLR 10/03 A3022 RMK AO2 T01000027,KPRS,2019-01-14T02:55:00Z,29.63,-104.35,10.0,2.7,40,13,20,10.0,30.221457,,,TRUE,TRUE,,,,,,,CLR,,,,,,,,VFR,,,,,,,,,,,,METAR,896.0
KPMH 140255Z AUTO 33005KT 7SM OVC026 00/M02 A3026 RMK AO2 T10051016,KPMH,2019-01-14T02:55:00Z,38.83,-82.85,-0.5,-1.6,330,5,,7.0,30.259842,,,TRUE,TRUE,,,,,,,OVC,2600,,,,,,,MVFR,,,,,,,,,,,,METAR,202.0
KPKV 140255Z AUTO 01006KT 10SM CLR 10/07 A3037 RMK AO2 T00990068,KPKV,2019-01-14T02:55:00Z,28.65,-96.68,9.9,6.8,10,6,,10.0,30.369095,,,TRUE,TRUE,,,,,,,CLR,,,,,,,,VFR,,,,,,,,,,,,METAR,9.0
KPIM 140255Z AUTO 00000KT 10SM SCT033 07/05 A3022 RMK AO2 T00690054 PWINO,KPIM,2019-01-14T02:55:00Z,32.83,-84.88,6.9,5.4,0,0,,10.0,30.221457,,,TRUE,TRUE,,,,,TRUE,,SCT,3300,,,,,,,VFR,,,,,,,,,,,,METAR,275.0
KIZA 140255Z AUTO 15011G18KT 10SM CLR 12/07 A2997 RMK AO2,KIZA,2019-01-14T02:55:00Z,34.6,-120.07,12.0,7.0,150,11,18,10.0,29.970472,,,TRUE,TRUE,,,,,,,CLR,,,,,,,,VFR,,,,,,,,,,,,METAR,205.0
KJFZ 140255Z AUTO 28004KT 1/4SM FG OVC002 03/02 A3010 RMK AO2 60001 T00250024,KJFZ,2019-01-14T02:55:00Z,37.07,-81.8,2.5,2.4,280,4,,0.25,30.100393,,,TRUE,TRUE,,,,,,FG,OVC,200,,,,,,,LIFR,,,,,,,0.01,,,,,METAR,809.0
KJSV 140255Z AUTO 00000KT 10SM OVC020 02/00 A3045 RMK AO2,KJSV,2019-01-14T02:55:00Z,35.43,-94.8,2.0,0.0,0,0,,10.0,30.448818,,,TRUE,TRUE,,,,,,,OVC,2000,,,,,,,MVFR,,,,,,,,,,,,METAR,161.0
KJWY 140255Z AUTO 34009KT 10SM OVC017 02/00 A3045 RMK AO2 T00200000,KJWY,2019-01-14T02:55:00Z,32.45,-96.92,2.0,0.0,340,9,,10.0,30.448818,,,TRUE,TRUE,,,,,,,OVC,1700,,,,,,,MVFR,,,,,,,,,,,,METAR,217.0
KJYL 140255Z AUTO 33005KT 10SM OVC016 09/07 A3020 RMK AO2 T00850069,KJYL,2019-01-14T02:55:00Z,32.65,-81.6,8.5,6.9,330,5,,10.0,30.200787,,,TRUE,TRUE,,,,,,,OVC,1600,,,,,,,MVFR,,,,,,,,,,,,METAR,57.0
KJYR 140255Z AUTO 21007KT 10SM OVC008 M02/M03 A3037 RMK AO2,KJYR,2019-01-14T02:55:00Z,40.9,-97.62,-2.0,-3.0,210,7,,10.0,30.369095,,,TRUE,TRUE,,,,,,,OVC,800,,,,,,,IFR,,,,,,,,,,,,METAR,509.0
KK88 140255Z AUTO 34003KT 7SM OVC008 M02/M02 A3047 RMK AO1 T10181022,KK88,2019-01-14T02:55:00Z,37.87,-95.38,-1.8,-2.2,340,3,,7.0,30.469488,,,TRUE,TRUE,,,,,,,OVC,800,,,,,,,IFR,,,,,,,,,,,,METAR,309.0
KL18 140255Z AUTO 00000KT 10SM SCT120 12/07 A3002 RMK AO2,KL18,2019-01-14T02:55:00Z,33.35,-117.25,12.0,7.0,0,0,,10.0,30.02067,,,TRUE,TRUE,,,,,,,SCT,12000,,,,,,,VFR,,,,,,,,,,,,METAR,216.0
KFXY 140255Z AUTO 21005KT 10SM CLR M03/M03 A3034 RMK AO2,KFXY,2019-01-14T02:55:00Z,43.23,-93.62,-3.0,-3.0,210,5,,10.0,30.339567,,,TRUE,TRUE,,,,,,,CLR,,,,,,,,VFR,,,,,,,,,,,,METAR,375.0
KFWZ 140255Z AUTO 34009KT 10SM CLR M02/M18 RMK AO2,KFWZ,2019-01-14T02:55:00Z,42.52,-108.78,-2.0,-18.0,340,9,,10.0,,,,TRUE,TRUE,,,,,,,CLR,,,,,,,,VFR,,,,,,,,,,,,METAR,2588.0
KLXL 140255Z AUTO 21008KT 10SM OVC013 M01/M02 A3025 RMK AO2,KLXL,2019-01-14T02:55:00Z,45.95,-94.33,-1.0,-2.0,210,8,,10.0,30.250984,,,TRUE,TRUE,,,,,,,OVC,1300,,,,,,,MVFR,,,,,,,,,,,,METAR,342.0
KLUV 140255Z AUTO 08009KT 4SM BR OVC003 M01/M02 A3038 RMK AO2,KLUV,2019-01-14T02:55:00Z,32.75,-101.92,-1.0,-2.0,80,9,,4.0,30.380905,,,TRUE,TRUE,,,,,,BR,OVC,300,,,,,,,LIFR,,,,,,,,,,,,METAR,912.0
KLUD 140255Z AUTO 00000KT 7SM OVC012 01/M02 A3044 RMK AO2 T00061019,KLUD,2019-01-14T02:55:00Z,33.25,-97.58,0.6,-1.9,0,0,,7.0,30.43996,,,TRUE,TRUE,,,,,,,OVC,1200,,,,,,,MVFR,,,,,,,,,,,,METAR,319.0
KLUA 140255Z AUTO 02005KT 3SM -SN SCT031 OVC039 M02/M02 A3025 RMK AO2,KLUA,2019-01-14T02:55:00Z,38.67,-78.5,-2.0,-2.0,20,5,,3.0,30.250984,,,TRUE,TRUE,,,,,,-SN,SCT,3100,OVC,3900,,,,,MVFR,,,,,,,,,,,,METAR,275.0
KLRU 140255Z AUTO 13007KT 10SM CLR 09/01 A3019 RMK AO2 T00850013,KLRU,2019-01-14T02:55:00Z,32.27,-106.92,8.5,1.3,130,7,,10.0,30.188976,,,TRUE,TRUE,,,,,,,CLR,,,,,,,,VFR,,,,,,,,,,,,METAR,1358.0
KLOT 140255Z AUTO 32004KT 10SM OVC020 M05/M07 A3040 RMK AO2 T10511068,KLOT,2019-01-14T02:55:00Z,41.6,-88.1,-5.1,-6.8,320,4,,10.0,30.398623,,,TRUE,TRUE,,,,,,,OVC,2000,,,,,,,MVFR,,,,,,,,,,,,METAR,205.0
KLNP 140255Z AUTO 34007KT M1/4SM FG OVC001 02/02 A3012 RMK AO2,KLNP,2019-01-14T02:55:00Z,36.97,-82.52,2.0,2.0,340,7,,0.25,30.121063,,,TRUE,TRUE,,,,,,FG,OVC,100,,,,,,,LIFR,,,,,,,,,,,,METAR,817.0
KLNC 140255Z AUTO 36007KT 10SM OVC018 03/M01 A3047 RMK AO2 T00251008,KLNC,2019-01-14T02:55:00Z,32.58,-96.72,2.5,-0.8,360,7,,10.0,30.469488,,,TRUE,TRUE,,,,,,,OVC,1800,,,,,,,MVFR,,,,,,,,,,,,METAR,153.0
KLNA 140255Z AUTO 22004KT 10SM SCT060 22/19 A3015 RMK AO2 T02200187,KLNA,2019-01-14T02:55:00Z,26.6,-80.02,22.0,18.7,220,4,,10.0,30.15059,,,TRUE,TRUE,,,,,,,SCT,6000,,,,,,,VFR,,,,,,,,,,,,METAR,11.0
KLIC 140255Z AUTO 15006KT 1/4SM FZFG VV002 M04/M04 A3024 RMK AO2 SLP287 I1003 I3003 T10391039 51004,KLIC,2019-01-14T02:55:00Z,39.27,-103.67,-3.9,-3.9,150,6,,0.25,30.239174,1028.7,,TRUE,TRUE,,,,,,FZFG,OVX,0,,,,,,,LIFR,0.4,,,,,,,,,,200,METAR,1630.0
KLHM 140255Z AUTO 04004KT 10SM CLR 07/05 A2997 RMK AO1,KLHM,2019-01-14T02:55:00Z,38.92,-121.35,7.0,5.0,40,4,,10.0,29.970472,,,TRUE,TRUE,,,,,,,CLR,,,,,,,,VFR,,,,,,,,,,,,METAR,37.0
KLHB 140255Z AUTO 01005KT 10SM CLR 04/02 A3043 RMK AO2 T00400018,KLHB,2019-01-14T02:55:00Z,30.87,-96.62,4.0,1.8,10,5,,10.0,30.431103,,,TRUE,TRUE,,,,,,,CLR,,,,,,,,VFR,,,,,,,,,,,,METAR,87.0
KLDJ 140255Z AUTO 03006KT 10SM CLR M02/M13 A3032 RMK AO2 T10251127,KLDJ,2019-01-14T02:55:00Z,40.62,-74.25,-2.5,-12.7,30,6,,10.0,30.318897,,,TRUE,TRUE,,,,,,,CLR,,,,,,,,VFR,,,,,,,,,,,,METAR,7.0
LIBN 140255Z 15004KT CAVOK 00/M01 Q1006 RMK SCT SCT200 VIS MIN 9999 WIND THR14 14004KT WIND THR32 15003KT BLU,LIBN,2019-01-14T02:55:00Z,40.22,18.13,0.0,-1.0,150,4,,6.21,29.704725,,,,,,,,,,,CAVOK,,,,,,,,VFR,,,,,,,,,,,,METAR,61.0
KTDF 140255Z AUTO 36006KT 5SM BR OVC004 00/00 A3021 RMK AO2,KTDF,2019-01-14T02:55:00Z,36.28,-78.98,0.0,0.0,360,6,,5.0,30.209646,,,TRUE,TRUE,,,,,,BR,OVC,400,,,,,,,LIFR,,,,,,,,,,,,SPECI,186.0
LIRE 140255Z 10010KT 9999 SCT020 BKN040 08/06 Q1005 RMK BKN VIS MIN 9999 WIND THR13 16005KT WIND THR31 /////KT BLU,LIRE,2019-01-14T02:55:00Z,41.63,12.42,8.0,6.0,100,10,,6.21,29.675198,,,,,,,,,,,SCT,2000,BKN,4000,,,,,VFR,,,,,,,,,,,,METAR,12.0
LIPL 140255Z 29010KT CAVOK 04/M00 Q0999 RMK SKC VIS MIN 9999 WIND THR31 29010KT WIND THR13 29009KT BLU,LIPL,2019-01-14T02:55:00Z,45.42,10.27,4.0,0.0,290,10,,6.21,29.498032,,,,,,,,,,,CAVOK,,,,,,,,VFR,,,,,,,,,,,,METAR,92.0
LIMU 140255Z 22005KT CAVOK 10/08 Q1003 RMK SKC QUK / QUL / VIS MAR 45 KM VIS MIN 9999,LIMU,2019-01-14T02:55:00Z,43.95,8.17,10.0,8.0,220,5,,6.21,29.616142,,,,,,,,,,,CAVOK,,,,,,,,VFR,,,,,,,,,,,,METAR,221.0
LIMH 140255Z /////KT 0100 -SN FZFG VV/// M13/M13 Q0998 RMK MON INVIS VAL INVIS VIS MIN 0100,LIMH,2019-01-14T02:55:00Z,45.93,7.7,-13.0,-13.0,,,,0.06,29.468504,,,,,,,,,,FZFG -SN,OVX,0,,,,,,,LIFR,,,,,,,,,,,,METAR,3488.0
LIEB 140255Z 20008KT CAVOK 13/05 Q1007 RMK QUK/ QUL/ VIS MAR 20 KM MON INVIS VIS MIN 9999,LIEB,2019-01-14T02:55:00Z,39.93,9.72,13.0,5.0,200,8,,6.21,29.734253,,,,,,,,,,,CAVOK,,,,,,,,VFR,,,,,,,,,,,,METAR,156.0
LICZ 140255Z 25009KT CAVOK 08/08 Q1009 RMK FEW FEW180 VIS MIN 9999 WIND THR28 /////KT WIND THR10 23007KT A2981 BLU,LICZ,2019-01-14T02:55:00Z,37.38,14.92,8.0,8.0,250,9,,6.21,29.793306,,,,,,,,,,,CAVOK,,,,,,,,VFR,,,,,,,,,,,,METAR,22.0
LICF 140255Z 02003KT 9999 SCT020 11/08 Q1008 RMK BKN QUK / QUL / VIS MAR 12 KM MON INVIS NC VIS MIN 9999,LICF,2019-01-14T02:55:00Z,38.2,15.55,11.0,8.0,20,3,,6.21,29.763779,,,,,,,,,,,SCT,2000,,,,,,,VFR,,,,,,,,,,,,METAR,51.0
LIBV 140255Z 17007KT CAVOK 02/01 Q1003 RMK SCT SCT200 VIS MIN 9999 WIND THR32 17006KT WIND THR14 18006KT BLU,LIBV,2019-01-14T02:55:00Z,40.77,16.92,2.0,1.0,170,7,,6.21,29.616142,,,,,,,,,,,CAVOK,,,,,,,,VFR,,,,,,,,,,,,METAR,350.0
LIBQ 140255Z 26005KT 0000 FZFG VV/// M02/M02 Q1004 RMK MON INVIS VAL INVIS VIS MIN 0000,LIBQ,2019-01-14T02:55:00Z,39.32,16.38,-2.0,-2.0,260,5,,0.0,29.64567,,,,,,,,,,FZFG,OVX,0,,,,,,,LIFR,,,,,,,,,,,,METAR,1720.0
KGAO 140255Z AUTO 36007KT 10SM OVC020 08/03 A3034 RMK AO2 T00810032,KGAO,2019-01-14T02:55:00Z,29.45,-90.27,8.1,3.2,360,7,,10.0,30.339567,,,TRUE,TRUE,,,,,,,OVC,2000,,,,,,,MVFR,,,,,,,,,,,,METAR,1.0
KGCD 140255Z AUTO 00000KT 10SM CLR 01/M06 A3019 RMK AO2 T00081060,KGCD,2019-01-14T02:55:00Z,44.38,-118.97,0.8,-6.0,0,0,,10.0,30.188976,,,TRUE,TRUE,,,,,,,CLR,,,,,,,,VFR,,,,,,,,,,,,METAR,1127.0
KGCM 140255Z AUTO 00000KT 10SM OVC012 00/M02 A3048 RMK AO2 TSNO,KGCM,2019-01-14T02:55:00Z,36.3,-95.48,0.0,-2.0,0,0,,10.0,30.481298,,,TRUE,TRUE,,,TRUE,,,,OVC,1200,,,,,,,MVFR,,,,,,,,,,,,METAR,221.0
KGDJ 140255Z AUTO 02006KT 10SM OVC017 03/M01 A3047 RMK AO2 T00281006,KGDJ,2019-01-14T02:55:00Z,32.45,-97.82,2.8,-0.6,20,6,,10.0,30.469488,,,TRUE,TRUE,,,,,,,OVC,1700,,,,,,,MVFR,,,,,,,,,,,,METAR,237.0
KGIC 140255Z AUTO 00000KT 4SM CLR M03/M06 A3024 RMK AO1,KGIC,2019-01-14T02:55:00Z,45.95,-116.12,-3.0,-6.0,0,0,,4.0,30.239174,,,TRUE,TRUE,,,,,,,CLR,,,,,,,,MVFR,,,,,,,,,,,,METAR,1009.0
KGLW 140255Z AUTO 35005KT 3SM BR OVC005 01/01 A3027 RMK AO2 T00120007,KGLW,2019-01-14T02:55:00Z,37.03,-85.95,1.2,0.7,350,5,,3.0,30.268702,,,TRUE,TRUE,,,,,,BR,OVC,500,,,,,,,IFR,,,,,,,,,,,,METAR,218.0
KGMJ 140255Z AUTO 32003KT 7SM BKN008 OVC012 00/M01 A3046 RMK AO2,KGMJ,2019-01-14T02:55:00Z,36.6,-94.73,0.0,-1.0,320,3,,7.0,30.46063,,,TRUE,TRUE,,,,,,,BKN,800,OVC,1200,,,,,IFR,,,,,,,,,,,,METAR,254.0
KGPI 140255Z 00000KT 10SM OVC010 M04/M07 A3038 RMK AO2 SLP326 T10441067 51002,KGPI,2019-01-14T02:55:00Z,48.32,-114.25,-4.4,-6.7,0,0,,10.0,30.380905,1032.6,,,TRUE,,,,,,,OVC,1000,,,,,,,MVFR,0.2,,,,,,,,,,,METAR,908.0
KGPM 140255Z AUTO 35007KT 10SM OVC018 03/M01 A3047 RMK AO2 T00261011,KGPM,2019-01-14T02:55:00Z,32.7,-97.05,2.6,-1.1,350,7,,10.0,30.469488,,,TRUE,TRUE,,,,,,,OVC,1800,,,,,,,MVFR,,,,,,,,,,,,METAR,180.0
KHZX 140255Z AUTO 21008G14KT 10SM OVC010 00/M02 A3022 RMK AO2,KHZX,2019-01-14T02:55:00Z,46.62,-93.32,0.0,-2.0,210,8,14,10.0,30.221457,,,TRUE,TRUE,,,,,,,OVC,1000,,,,,,,MVFR,,,,,,,,,,,,METAR,374.0
NZWD 140255Z 16009KT 9999 SCT035 BKN050 BKN070 OVC120 M03/M06 A2948 RMK SLP981 SN DSNT GRID N-NE AND SW GRID33009KT SDF/HDG,NZWD,2019-01-14T02:55:00Z,-77.87,167.07,-3.0,-6.0,160,9,,6.21,29.480314,998.1,,,,,,,,,,SCT,3500,BKN,5000,BKN,7000,OVC,12000,VFR,,,,,,,,,,,,METAR,22.0
TXKF 140255Z 15011KT 9999 -SHRA SCT028 BKN040 BKN063 BKN300 19/13 Q1022 ,TXKF,2019-01-14T02:55:00Z,32.37,-64.68,19.0,13.0,150,11,,6.21,30.177166,,,,,,,,,,-SHRA,SCT,2800,BKN,4000,BKN,6300,BKN,30000,VFR,,,,,,,,,,,,METAR,6.0
KNFG 140255Z AUTO 00000KT 10SM CLR 10/08 A3002 RMK AO2 SLP165 T01000083 58002,KNFG,2019-01-14T02:55:00Z,33.28,-117.33,10.0,8.3,0,0,,10.0,30.02067,1016.5,,TRUE,TRUE,,,,,,,CLR,,,,,,,,VFR,-0.2,,,,,,,,,,,METAR,24.0
KNBG 140255Z AUTO 01008KT 10SM OVC023 07/03 A3034 RMK AO2 SLP273 T00720033 53018 $,KNBG,2019-01-14T02:55:00Z,29.82,-90.02,7.2,3.3,10,8,,10.0,30.339567,1027.3,,TRUE,TRUE,TRUE,,,,,,OVC,2300,,,,,,,MVFR,1.8,,,,,,,,,,,METAR,1.0
KWWD 140255Z AUTO 36008KT 9SM BKN023 OVC036 M01/M03 A3020 RMK AO2 SNE54 SLP230 P0000 60000 T10111028 55000 FZRANO,KWWD,2019-01-14T02:55:00Z,39.02,-74.92,-1.1,-2.8,360,8,,9.0,30.200787,1023.0,,TRUE,TRUE,,,,TRUE,,,BKN,2300,OVC,3600,,,,,MVFR,0.0,,,,,0.005,0.005,,,,,METAR,7.0
EHRD 140255Z AUTO 31014KT 270V350 9999 FEW018 BKN041 08/05 Q1009 NOSIG,EHRD,2019-01-14T02:55:00Z,51.95,4.45,8.0,5.0,310,14,,6.21,29.793306,,,TRUE,,,TRUE,,,,,FEW,1800,BKN,4100,,,,,VFR,,,,,,,,,,,,METAR,-5.0
LIVR 140255Z 33005KT 0100 -SN FZFG VV/// M03/M03 Q0995 RMK MON INVIS VIS MIN 0100,LIVR,2019-01-14T02:55:00Z,46.28,11.77,-3.0,-3.0,330,5,,0.06,29.379921,,,,,,,,,,-SN FZFG,OVX,0,,,,,,,LIFR,,,,,,,,,,,,METAR,2006.0
LIVF 140255Z 21024G41KT 9999 SCT028 07/03 Q0997 RMK OVC SCT100 BKN220 MON S W CIME INC NC VAL NIL VIS MIN 9999,LIVF,2019-01-14T02:55:00Z,43.52,12.72,7.0,3.0,210,24,41,6.21,29.438976,,,,,,,,,,,SCT,2800,,,,,,,VFR,,,,,,,,,,,,METAR,574.0
LIRT 140255Z 33025KT 9999 FEW002 SCT015 01/M01 Q1002 RMK BKN MON INVIS VAL NIL VIS MIN 9999,LIRT,2019-01-14T02:55:00Z,41.03,15.22,1.0,-1.0,330,25,,6.21,29.586615,,,,,,,,,,,FEW,200,SCT,1500,,,,,VFR,,,,,,,,,,,,METAR,1093.0
KMHR 140255Z 00000KT 10SM SKC 10/07 A2998,KMHR,2019-01-14T02:55:00Z,38.53,-121.28,10.0,7.0,0,0,,10.0,29.97933,,,,,,,,,,,SKC,,,,,,,,VFR,,,,,,,,,,,,METAR,29.0
KLAM 140255Z AUTO 19004KT 10SM OVC012 M02/M02 A3026 RMK AO2 T10231023,KLAM,2019-01-14T02:55:00Z,35.87,-106.27,-2.3,-2.3,190,4,,10.0,30.259842,,,TRUE,TRUE,,,,,,,OVC,1200,,,,,,,MVFR,,,,,,,,,,,,METAR,2179.0
KL35 140255Z AUTO 00000KT 10SM OVC019 00/M02 A3006 RMK AO2,KL35,2019-01-14T02:55:00Z,34.27,-116.85,0.0,-2.0,0,0,,10.0,30.059055,,,TRUE,TRUE,,,,,,,OVC,1900,,,,,,,MVFR,,,,,,,,,,,,METAR,2059.0
KJZP 140255Z AUTO 36005KT 3/4SM BR OVC003 05/05 A3021 RMK AO2 6//// T00480048 PNO,KJZP,2019-01-14T02:55:00Z,34.45,-84.47,4.8,4.8,360,5,,0.75,30.209646,,,TRUE,TRUE,,,,,,BR,OVC,300,,,,,,,LIFR,,,,,,,,,,,,METAR,468.0
KJYO 140255Z AUTO 03005KT 5SM -SN SCT006 SCT015 OVC040 M02/M02 A3030 RMK AO2,KJYO,2019-01-14T02:55:00Z,39.07,-77.57,-2.0,-2.0,30,5,,5.0,30.301182,,,TRUE,TRUE,,,,,,-SN,SCT,600,SCT,1500,OVC,4000,,,MVFR,,,,,,,,,,,,METAR,119.0
KJWG 140255Z AUTO 33004KT 10SM OVC014 00/M01 A3046 RMK AO2 T10011010,KJWG,2019-01-14T02:55:00Z,35.87,-98.42,-0.1,-1.0,330,4,,10.0,30.46063,,,TRUE,TRUE,,,,,,,OVC,1400,,,,,,,MVFR,,,,,,,,,,,,METAR,472.0
KJOT 140255Z AUTO 34003KT 10SM BKN022 M04/M06 A3040 RMK AO2 T10381062,KJOT,2019-01-14T02:55:00Z,41.52,-88.18,-3.8,-6.2,340,3,,10.0,30.398623,,,TRUE,TRUE,,,,,,,BKN,2200,,,,,,,MVFR,,,,,,,,,,,,METAR,177.0
KJKA 140255Z AUTO 36007KT 290V030 10SM OVC028 09/04 A3029 RMK AO2 T00910037,KJKA,2019-01-14T02:55:00Z,30.28,-87.67,9.1,3.7,360,7,,10.0,30.28937,,,TRUE,TRUE,,,,,,,OVC,2800,,,,,,,MVFR,,,,,,,,,,,,METAR,5.0
KJGG 140255Z AUTO 00000KT 2 1/2SM OVC010 01/01 A3018 RMK AO1 P0002,KJGG,2019-01-14T02:55:00Z,37.23,-76.72,1.0,1.0,0,0,,2.5,30.180119,,,TRUE,TRUE,,,,,,,OVC,1000,,,,,,,IFR,,,,,,0.02,,,,,,METAR,15.0
KJCA 140255Z AUTO 28009KT 10SM CLR 05/04 A3018 RMK AO2 PWINO T00510045,KJCA,2019-01-14T02:55:00Z,34.18,-83.57,5.1,4.5,280,9,,10.0,30.180119,,,TRUE,TRUE,,,,,TRUE,,CLR,,,,,,,,VFR,,,,,,,,,,,,METAR,290.0
KJAS 140255Z AUTO 00000KT 10SM CLR 04/03 A3042 RMK AO2 T00420025,KJAS,2019-01-14T02:55:00Z,30.88,-94.03,4.2,2.5,0,0,,10.0,30.41929,,,TRUE,TRUE,,,,,,,CLR,,,,,,,,VFR,,,,,,,,,,,,METAR,65.0
KIKK 140255Z AUTO 00000KT 10SM CLR M08/M10 A3040 RMK AO2 T10841097,KIKK,2019-01-14T02:55:00Z,41.07,-87.85,-8.4,-9.7,0,0,,10.0,30.398623,,,TRUE,TRUE,,,,,,,CLR,,,,,,,,VFR,,,,,,,,,,,,METAR,192.0
KHWY 140255Z AUTO 01007KT 5SM -SN OVC011 M01/M04 A3027 RMK AO2 T10101036,KHWY,2019-01-14T02:55:00Z,38.58,-77.72,-1.0,-3.6,10,7,,5.0,30.268702,,,TRUE,TRUE,,,,,,-SN,OVC,1100,,,,,,,MVFR,,,,,,,,,,,,METAR,103.0
KHSP 140255Z AUTO 00000KT 1/4SM SN BKN003 OVC009 A3007 RMK AO2,KHSP,2019-01-14T02:55:00Z,37.95,-79.82,,,0,0,,0.25,30.070866,,,TRUE,TRUE,,,,,,SN,BKN,300,OVC,900,,,,,LIFR,,,,,,,,,,,,METAR,1156.0
KHSB 140255Z AUTO 36010KT 7SM OVC011 00/M01 A3037 RMK AO2 T00001007,KHSB,2019-01-14T02:55:00Z,37.82,-88.55,0.0,-0.7,360,10,,7.0,30.369095,,,TRUE,TRUE,,,,,,,OVC,1100,,,,,,,MVFR,,,,,,,,,,,,METAR,121.0
KHQG 140255Z AUTO 17008KT 4SM BR OVC004 00/00 A3033 RMK AO2 T00010000,KHQG,2019-01-14T02:55:00Z,37.17,-101.37,0.1,0.0,170,8,,4.0,30.33071,,,TRUE,TRUE,,,,,,BR,OVC,400,,,,,,,LIFR,,,,,,,,,,,,METAR,956.0
KHQG 140255Z AUTO 17008KT 4SM BR OVC004 00/00 A3033 RMK AO2 T00010000,KHQG,2019-01-14T02:55:00Z,37.17,-101.37,0.1,0.0,170,8,,4.0,30.33071,,,TRUE,TRUE,,,,,,BR,OVC,400,,,,,,,LIFR,,,,,,,,,,,,METAR,956.0
KHLX 140255Z AUTO 00000KT 3/4SM BR OVC002 M01/M01 A3010 RMK AO2 T10101015,KHLX,2019-01-14T02:55:00Z,36.77,-80.82,-1.0,-1.5,0,0,,0.75,30.100393,,,TRUE,TRUE,,,,,,BR,OVC,200,,,,,,,LIFR,,,,,,,,,,,,METAR,834.0
KHJH 140255Z AUTO 20003KT 7SM OVC008 M02/M03 A3041 RMK AO2 T10211031,KHJH,2019-01-14T02:55:00Z,40.15,-97.58,-2.1,-3.1,200,3,,7.0,30.410433,,,TRUE,TRUE,,,,,,,OVC,800,,,,,,,IFR,,,,,,,,,,,,METAR,447.0
KHDE 140255Z AUTO 22009KT 10SM OVC004 M02/M02 A3034 RMK AO2 T10251025,KHDE,2019-01-14T02:55:00Z,40.45,-99.32,-2.5,-2.5,220,9,,10.0,30.339567,,,TRUE,TRUE,,,,,,,OVC,400,,,,,,,LIFR,,,,,,,,,,,,METAR,705.0
KGRN 140255Z AUTO 25007KT 10SM CLR 00/M06 A3018 RMK AO2 T00001062,KGRN,2019-01-14T02:55:00Z,42.8,-102.17,0.0,-6.2,250,7,,10.0,30.180119,,,TRUE,TRUE,,,,,,,CLR,,,,,,,,VFR,,,,,,,,,,,,METAR,1086.0
KGOP 140255Z AUTO 04004KT 10SM CLR 02/M00 A3044 RMK AO2,KGOP,2019-01-14T02:55:00Z,31.42,-97.8,2.0,0.0,40,4,,10.0,30.43996,,,TRUE,TRUE,,,,,,,CLR,,,,,,,,VFR,,,,,,,,,,,,METAR,276.0
KGLE 140255Z AUTO 03004KT 10SM OVC015 01/M02 A3047 RMK AO2 T00131016,KGLE,2019-01-14T02:55:00Z,33.65,-97.2,1.3,-1.6,30,4,,10.0,30.469488,,,TRUE,TRUE,,,,,,,OVC,1500,,,,,,,MVFR,,,,,,,,,,,,METAR,256.0
KGHG 140255Z AUTO 05005G13KT 10SM OVC022 M00/M05 A3035 RMK AO2,KGHG,2019-01-14T02:55:00Z,42.1,-70.67,0.0,-5.0,50,5,13,10.0,30.351377,,,TRUE,TRUE,,,,,,,OVC,2200,,,,,,,MVFR,,,,,,,,,,,,METAR,4.0
KFZG 140255Z AUTO 36005KT 10SM OVC032 10/07 A3023 RMK AO2 T01030072 PWINO,KFZG,2019-01-14T02:55:00Z,31.68,-83.27,10.3,7.2,360,5,,10.0,30.230314,,,TRUE,TRUE,,,,,TRUE,,OVC,3200,,,,,,,VFR,,,,,,,,,,,,METAR,111.0
KFWS 140255Z AUTO 03006KT 10SM OVC016 02/M01 A3047 RMK AO2 T00221010,KFWS,2019-01-14T02:55:00Z,32.57,-97.3,2.2,-1.0,30,6,,10.0,30.469488,,,TRUE,TRUE,,,,,,,OVC,1600,,,,,,,MVFR,,,,,,,,,,,,METAR,208.0
KFWC 140255Z AUTO 34005KT 7SM OVC011 M01/M02 A3036 RMK AO1 T10111024,KFWC,2019-01-14T02:55:00Z,38.38,-88.42,-1.1,-2.4,340,5,,7.0,30.360237,,,TRUE,TRUE,,,,,,,OVC,1100,,,,,,,MVFR,,,,,,,,,,,,METAR,133.0
KFKN 140255Z AUTO 35009G16KT 10SM -RA OVC008 01/00 A3016 RMK AO2 60001 T00050002,KFKN,2019-01-14T02:55:00Z,36.7,-76.9,0.5,0.2,350,9,16,10.0,30.159449,,,TRUE,TRUE,,,,,,-RA,OVC,800,,,,,,,IFR,,,,,,,0.01,,,,,METAR,12.0
KF70 140255Z AUTO 00000KT 10SM SCT110 12/03 A3003 RMK AO1,KF70,2019-01-14T02:55:00Z,33.57,-117.13,12.0,3.0,0,0,,10.0,30.029528,,,TRUE,TRUE,,,,,,,SCT,11000,,,,,,,VFR,,,,,,,,,,,,METAR,412.0
KEZZ 140255Z AUTO 28003KT 10SM OVC013 M04/M05 A3044 RMK AO2 T10371053,KEZZ,2019-01-14T02:55:00Z,39.72,-94.28,-3.7,-5.3,280,3,,10.0,30.43996,,,TRUE,TRUE,,,,,,,OVC,1300,,,,,,,MVFR,,,,,,,,,,,,METAR,317.0
KEZF 140255Z AUTO 35006KT 5SM UP OVC011 M01/M01 A3026 RMK AO2 T10121012,KEZF,2019-01-14T02:55:00Z,38.27,-77.45,-1.2,-1.2,350,6,,5.0,30.259842,,,TRUE,TRUE,,,,,,UP,OVC,1100,,,,,,,MVFR,,,,,,,,,,,,METAR,26.0
KENL 140255Z AUTO 35008KT 7SM OVC009 M02/M02 A3038 RMK AO2 T10161025,KENL,2019-01-14T02:55:00Z,38.52,-89.1,-1.6,-2.5,350,8,,7.0,30.380905,,,TRUE,TRUE,,,,,,,OVC,900,,,,,,,IFR,,,,,,,,,,,,METAR,163.0
KELK 140255Z AUTO 06003KT 10SM BKN100 M01/M03 A3041 RMK AO2 T10111026,KELK,2019-01-14T02:55:00Z,35.43,-99.4,-1.1,-2.6,60,3,,10.0,30.410433,,,TRUE,TRUE,,,,,,,BKN,10000,,,,,,,VFR,,,,,,,,,,,,METAR,610.0
KELA 140255Z AUTO 01006KT 10SM BKN070 10/04 A3039 RMK AO2 T00950043,KELA,2019-01-14T02:55:00Z,29.6,-96.32,9.5,4.3,10,6,,10.0,30.389763,,,TRUE,TRUE,,,,,,,BKN,7000,,,,,,,VFR,,,,,,,,,,,,METAR,56.0
KEFK 140255Z AUTO 00000KT 10SM CLR M21/M23 A3041 RMK AO2 T12101226,KEFK,2019-01-14T02:55:00Z,44.88,-72.23,-21.0,-22.6,0,0,,10.0,30.410433,,,TRUE,TRUE,,,,,,,CLR,,,,,,,,VFR,,,,,,,,,,,,METAR,284.0
KEBG 140255Z AUTO 07010KT 10SM BKN046 13/08 A3033 RMK AO2 T01300081,KEBG,2019-01-14T02:55:00Z,26.45,-98.13,13.0,8.1,70,10,,10.0,30.33071,,,TRUE,TRUE,,,,,,,BKN,4600,,,,,,,VFR,,,,,,,,,,,,METAR,24.0
KDVO 140255Z AUTO 22006KT 10SM CLR 11/09 A2997 RMK AO2,KDVO,2019-01-14T02:55:00Z,38.15,-122.55,11.0,9.0,220,6,,10.0,29.970472,,,TRUE,TRUE,,,,,,,CLR,,,,,,,,VFR,,,,,,,,,,,,METAR,1.0
KDUC 140255Z AUTO 34005KT 10SM OVC015 01/M02 A3047 RMK AO2 T00081020,KDUC,2019-01-14T02:55:00Z,34.47,-97.97,0.8,-2.0,340,5,,10.0,30.469488,,,TRUE,TRUE,,,,,,,OVC,1500,,,,,,,MVFR,,,,,,,,,,,,METAR,339.0
KDKR 140255Z AUTO 36004KT 10SM 03/00 A3045 RMK AO2,KDKR,2019-01-14T02:55:00Z,31.3,-95.4,3.0,0.0,360,4,,10.0,30.448818,,,TRUE,TRUE,,,,,,,,,,,,,,,,,,,,,,,,,,,METAR,106.0
KDKB 140255Z AUTO 00000KT 10SM OVC017 M08/M09 A3040 RMK AO2 T10801088,KDKB,2019-01-14T02:55:00Z,41.93,-88.7,-8.0,-8.8,0,0,,10.0,30.398623,,,TRUE,TRUE,,,,,,,OVC,1700,,,,,,,MVFR,,,,,,,,,,,,METAR,279.0
KDED 140255Z AUTO 27004KT 10SM SCT070 18/15 A3013 RMK AO2,KDED,2019-01-14T02:55:00Z,29.07,-81.28,18.0,15.0,270,4,,10.0,30.129921,,,TRUE,TRUE,,,,,,,SCT,7000,,,,,,,VFR,,,,,,,,,,,,METAR,24.0
KCXE 140255Z AUTO 01006KT 10SM OVC007 M01/M01 A3020 RMK AO1 T10081008,KCXE,2019-01-14T02:55:00Z,36.78,-78.5,-0.8,-0.8,10,6,,10.0,30.200787,,,TRUE,TRUE,,,,,,,OVC,700,,,,,,,IFR,,,,,,,,,,,,METAR,153.0
KCUH 140255Z AUTO 05005KT 10SM OVC013 00/M02 A3046 RMK AO2 T00001016,KCUH,2019-01-14T02:55:00Z,35.95,-96.77,0.0,-1.6,50,5,,10.0,30.46063,,,TRUE,TRUE,,,,,,,OVC,1300,,,,,,,MVFR,,,,,,,,,,,,METAR,279.0
KCTY 140255Z AUTO 24004KT 10SM CLR 14/14 A3016 RMK AO2 T01410137,KCTY,2019-01-14T02:55:00Z,29.63,-83.1,14.1,13.7,240,4,,10.0,30.159449,,,TRUE,TRUE,,,,,,,CLR,,,,,,,,VFR,,,,,,,,,,,,METAR,13.0
KCTJ 140255Z AUTO 32004KT 10SM OVC011 06/04 A3025 RMK AO2 T00600040,KCTJ,2019-01-14T02:55:00Z,33.63,-85.15,6.0,4.0,320,4,,10.0,30.250984,,,TRUE,TRUE,,,,,,,OVC,1100,,,,,,,MVFR,,,,,,,,,,,,METAR,354.0
KCHK 140255Z AUTO 02007KT 5SM BR OVC015 01/M02 A3043 RMK AO2 T00071019,KCHK,2019-01-14T02:55:00Z,35.1,-97.97,0.7,-1.9,20,7,,5.0,30.431103,,,TRUE,TRUE,,,,,,BR,OVC,1500,,,,,,,MVFR,,,,,,,,,,,,METAR,351.0
KCFD 140255Z AUTO 01008KT 10SM CLR 04/01 A3042 RMK AO2 T00430006,KCFD,2019-01-14T02:55:00Z,30.72,-96.33,4.3,0.6,10,8,,10.0,30.41929,,,TRUE,TRUE,,,,,,,CLR,,,,,,,,VFR,,,,,,,,,,,,METAR,112.0
KC65 140255Z AUTO 00000KT 10SM SCT044 M10/M10 A3036 RMK A01,KC65,2019-01-14T02:55:00Z,41.37,-86.3,-10.0,-10.0,0,0,,10.0,30.360237,,,TRUE,TRUE,,,,,,,SCT,4400,,,,,,,VFR,,,,,,,,,,,,METAR,244.0
KBVS 140255Z AUTO 31004KT 10SM CLR 04/03 A3014 RMK A01,KBVS,2019-01-14T02:55:00Z,48.47,-122.42,4.0,3.0,310,4,,10.0,30.138779,,,TRUE,TRUE,,,,,,,CLR,,,,,,,,VFR,,,,,,,,,,,,METAR,43.0
KBQP 140255Z AUTO 34005KT 10SM OVC024 05/00 A3041 RMK AO2 T00480000,KBQP,2019-01-14T02:55:00Z,32.75,-91.88,4.8,0.0,340,5,,10.0,30.410433,,,TRUE,TRUE,,,,,,,OVC,2400,,,,,,,MVFR,,,,,,,,,,,,METAR,51.0
KBMT 140255Z AUTO 03004KT 10SM CLR 06/03 A3040 RMK AO2 T00620025,KBMT,2019-01-14T02:55:00Z,30.07,-94.22,6.2,2.5,30,4,,10.0,30.398623,,,TRUE,TRUE,,,,,,,CLR,,,,,,,,VFR,,,,,,,,,,,,METAR,10.0
KBIE 140255Z AUTO 22007KT 5SM OVC007 M02/M03 A3041 RMK AO2 T10181028 PWINO,KBIE,2019-01-14T02:55:00Z,40.28,-96.75,-1.8,-2.8,220,7,,5.0,30.410433,,,TRUE,TRUE,,,,,TRUE,,OVC,700,,,,,,,IFR,,,,,,,,,,,,METAR,403.0
KBGE 140255Z 10SM 11/05 A3023 RMK AO2 PWINO,KBGE,2019-01-14T02:55:00Z,30.97,-84.63,11.0,5.0,,,,10.0,30.230314,,,,TRUE,,,,,TRUE,,,,,,,,,,,,,,,,,,,,,,METAR,43.0
KBCB 140255Z AUTO 00000KT 10SM OVC017 M01/M01 A3018 RMK AO2 T10101015,KBCB,2019-01-14T02:55:00Z,37.22,-80.42,-1.0,-1.5,0,0,,10.0,30.180119,,,TRUE,TRUE,,,,,,,OVC,1700,,,,,,,MVFR,,,,,,,,,,,,METAR,650.0
KAUN 140255Z AUTO 08003KT 10SM CLR 08/05 A2999 RMK A01,KAUN,2019-01-14T02:55:00Z,38.95,-121.08,8.0,5.0,80,3,,10.0,29.991142,,,TRUE,TRUE,,,,,,,CLR,,,,,,,,VFR,,,,,,,,,,,,METAR,467.0
KAUH 140255Z AUTO 21010KT 10SM OVC011 M01/M02 A3035 RMK AO2 T10111025,KAUH,2019-01-14T02:55:00Z,40.88,-98.0,-1.1,-2.5,210,10,,10.0,30.351377,,,TRUE,TRUE,,,,,,,OVC,1100,,,,,,,MVFR,,,,,,,,,,,,METAR,550.0
KASL 140255Z AUTO 01005KT 10SM OVC025 05/00 A3043 RMK AO1 T00451002,KASL,2019-01-14T02:55:00Z,32.52,-94.3,4.5,-0.2,10,5,,10.0,30.431103,,,TRUE,TRUE,,,,,,,OVC,2500,,,,,,,MVFR,,,,,,,,,,,,METAR,109.0
KAQR 140255Z AUTO 01004KT 10SM OVC019 02/M01 A3046 RMK AO2,KAQR,2019-01-14T02:55:00Z,34.4,-96.15,2.0,-1.0,10,4,,10.0,30.46063,,,TRUE,TRUE,,,,,,,OVC,1900,,,,,,,MVFR,,,,,,,,,,,,METAR,189.0
KANW 140255Z AUTO 21009KT 10SM CLR M03/M03 A3022 RMK AO2 T10261028,KANW,2019-01-14T02:55:00Z,42.57,-100.0,-2.6,-2.8,210,9,,10.0,30.221457,,,TRUE,TRUE,,,,,,,CLR,,,,,,,,VFR,,,,,,,,,,,,METAR,789.0
KALX 140255Z AUTO 10SM OVC017 08/04 A3025 RMK AO2 T00750042,KALX,2019-01-14T02:55:00Z,32.92,-85.97,7.5,4.2,,,,10.0,30.250984,,,TRUE,TRUE,,,,,,,OVC,1700,,,,,,,MVFR,,,,,,,,,,,,METAR,209.0
KAHQ 140255Z AUTO 22010KT 10SM OVC011 M02/M03 A3039 RMK AO2 T10191033,KAHQ,2019-01-14T02:55:00Z,41.23,-96.6,-1.9,-3.3,220,10,,10.0,30.389763,,,TRUE,TRUE,,,,,,,OVC,1100,,,,,,,MVFR,,,,,,,,,,,,METAR,374.0
KAFK 140255Z AUTO 25007KT 2 1/2SM BR BKN009 M07/M08 A3042 RMK AO2 T10701084,KAFK,2019-01-14T02:55:00Z,40.6,-95.85,-7.0,-8.4,250,7,,2.5,30.41929,,,TRUE,TRUE,,,,,,BR,BKN,900,,,,,,,IFR,,,,,,,,,,,,METAR,354.0
KADH 140255Z AUTO 36006KT 10SM OVC015 01/M01 A3045 RMK AO2,KADH,2019-01-14T02:55:00Z,34.8,-96.67,1.0,-1.0,360,6,,10.0,30.448818,,,TRUE,TRUE,,,,,,,OVC,1500,,,,,,,MVFR,,,,,,,,,,,,METAR,308.0
K9V9 140255Z AUTO 00000KT 7SM CLR M02/M02 A3020 RMK AO2 T10231023,K9V9,2019-01-14T02:55:00Z,43.77,-99.32,-2.3,-2.3,0,0,,7.0,30.200787,,,TRUE,TRUE,,,,,,,CLR,,,,,,,,VFR,,,,,,,,,,,,METAR,519.0
K8A0 140255Z AUTO 31008KT 7SM BKN004 OVC007 04/03 A3025 RMK AO2,K8A0,2019-01-14T02:55:00Z,34.23,-86.25,4.0,3.0,310,8,,7.0,30.250984,,,TRUE,TRUE,,,,,,,BKN,400,OVC,700,,,,,LIFR,,,,,,,,,,,,METAR,315.0
K6R3 140255Z AUTO 01003KT 10SM CLR 06/03 A3040 RMK AO2 T00570030,K6R3,2019-01-14T02:55:00Z,30.35,-95.0,5.7,3.0,10,3,,10.0,30.398623,,,TRUE,TRUE,,,,,,,CLR,,,,,,,,VFR,,,,,,,,,,,,METAR,46.0
K4V0 140255Z AUTO 00000KT 10SM OVC011 M06/M08 A3035 RMK AO2 T10611079,K4V0,2019-01-14T02:55:00Z,40.1,-108.77,-6.1,-7.9,0,0,,10.0,30.351377,,,TRUE,TRUE,,,,,,,OVC,1100,,,,,,,MVFR,,,,,,,,,,,,METAR,1608.0
K4A9 140255Z AUTO 29006KT 10SM OVC008 06/04 A3023 RMK AO2 T00560041,K4A9,2019-01-14T02:55:00Z,34.47,-85.72,5.6,4.1,290,6,,10.0,30.230314,,,TRUE,TRUE,,,,,,,OVC,800,,,,,,,IFR,,,,,,,,,,,,METAR,267.0
K48A 140255Z AUTO 30005KT 10SM CLR 05/05 A3020 RMK AO2 T00510046,K48A,2019-01-14T02:55:00Z,,,5.1,4.6,300,5,,10.0,30.200787,,,TRUE,TRUE,,,,,,,CLR,,,,,,,,VFR,,,,,,,,,,,,METAR,
K40J 140255Z AUTO 34007KT 1 3/4SM BR BKN001 12/12 A3018 RMK AO2 T01230118,K40J,2019-01-14T02:55:00Z,30.07,-83.57,12.3,11.8,340,7,,1.75,30.180119,,,TRUE,TRUE,,,,,,BR,BKN,100,,,,,,,LIFR,,,,,,,,,,,,METAR,13.0
K3N8 140255Z AUTO 26009KT 5SM BR OVC003 M06/M06 A3022 RMK AO2 T10581065,K3N8,2019-01-14T02:55:00Z,47.25,-95.88,-5.8,-6.5,260,9,,5.0,30.221457,,,TRUE,TRUE,,,,,,BR,OVC,300,,,,,,,LIFR,,,,,,,,,,,,METAR,383.0
K3F3 140255Z AUTO 02005KT 10SM OVC025 06/01 A3044 RMK AO2 T00550006,K3F3,2019-01-14T02:55:00Z,32.07,-93.77,5.5,0.6,20,5,,10.0,30.43996,,,TRUE,TRUE,,,,,,,OVC,2500,,,,,,,MVFR,,,,,,,,,,,,METAR,96.0
K2J5 140255Z AUTO 32003KT 10SM BKN020 OVC029 06/05 A3020 RMK AO2 PWINO T00640053,K2J5,2019-01-14T02:55:00Z,32.9,-81.97,6.4,5.3,320,3,,10.0,30.200787,,,TRUE,TRUE,,,,,TRUE,,BKN,2000,OVC,2900,,,,,MVFR,,,,,,,,,,,,METAR,72.0
K2J3 140255Z AUTO 00000KT 10SM OVC021 07/05 A3020 RMK AO2 T00670054,K2J3,2019-01-14T02:55:00Z,32.98,-82.38,6.7,5.4,0,0,,10.0,30.200787,,,TRUE,TRUE,,,,,,,OVC,2100,,,,,,,MVFR,,,,,,,,,,,,METAR,100.0
K1F0 140255Z AUTO 36003KT 10SM OVC016 01/M02 A3046 RMK AO2,K1F0,2019-01-14T02:55:00Z,34.15,-97.12,1.0,-2.0,360,3,,10.0,30.46063,,,TRUE,TRUE,,,,,,,OVC,1600,,,,,,,MVFR,,,,,,,,,,,,METAR,257.0
K1A6 140255Z AUTO 00000KT 10SM OVC012 04/03 A3020 RMK AO2 T00420034,K1A6,2019-01-14T02:55:00Z,36.62,-83.73,4.2,3.4,0,0,,10.0,30.200787,,,TRUE,TRUE,,,,,,,OVC,1200,,,,,,,MVFR,,,,,,,,,,,,METAR,352.0
K19S 140255Z AUTO 19005KT 1/4SM FZFG OVC003 M02/M02 A3036 RMK AO2 T10171018,K19S,2019-01-14T02:55:00Z,37.48,-100.83,-1.7,-1.8,190,5,,0.25,30.360237,,,TRUE,TRUE,,,,,,FZFG,OVC,300,,,,,,,LIFR,,,,,,,,,,,,METAR,886.0
MUHA 140255Z 07002KT 9000 FEW025 19/18 Q1021,MUHA,2019-01-14T02:55:00Z,22.97,-82.42,19.0,18.0,70,2,,5.59,30.147638,,,,,,,,,,,FEW,2500,,,,,,,VFR,,,,,,,,,,,,SPECI,64.0
KRZN 140255Z AUTO 21004KT 10SM OVC021 00/M04 A3028 RMK AO2 T10051043,KRZN,2019-01-14T02:55:00Z,45.82,-92.37,-0.5,-4.3,210,4,,10.0,30.280512,,,TRUE,TRUE,,,,,,,OVC,2100,,,,,,,MVFR,,,,,,,,,,,,METAR,301.0
KRWV 140255Z AUTO 02006KT 10SM CLR 05/01 A3041 RMK AO2 T00520012,KRWV,2019-01-14T02:55:00Z,30.52,-96.7,5.2,1.2,20,6,,10.0,30.410433,,,TRUE,TRUE,,,,,,,CLR,,,,,,,,VFR,,,,,,,,,,,,METAR,119.0
KRPJ 140255Z AUTO 15004KT 10SM OVC019 M10/M10 A3041 RMK AO2 T10961104,KRPJ,2019-01-14T02:55:00Z,41.88,-89.08,-9.6,-10.4,150,4,,10.0,30.410433,,,TRUE,TRUE,,,,,,,OVC,1900,,,,,,,MVFR,,,,,,,,,,,,METAR,238.0
KPVW 140255Z AUTO 09006KT 10SM OVC075 00/M02 A3034 RMK AO2 T10031025,KPVW,2019-01-14T02:55:00Z,34.17,-101.72,-0.3,-2.5,90,6,,10.0,30.339567,,,TRUE,TRUE,,,,,,,OVC,7500,,,,,,,VFR,,,,,,,,,,,,METAR,1028.0
KPVF 140255Z AUTO 08007KT 10SM OVC080 08/03 A3001 RMK AO1,KPVF,2019-01-14T02:55:00Z,38.72,-120.75,8.0,3.0,80,7,,10.0,30.008858,,,TRUE,TRUE,,,,,,,OVC,8000,,,,,,,VFR,,,,,,,,,,,,METAR,789.0
KPTT 140255Z AUTO 31003KT 10SM OVC005 M02/M03 A3042 RMK AO2 T10211028,KPTT,2019-01-14T02:55:00Z,37.7,-98.75,-2.1,-2.8,310,3,,10.0,30.41929,,,TRUE,TRUE,,,,,,,OVC,500,,,,,,,IFR,,,,,,,,,,,,SPECI,595.0
KPSK 140255Z AUTO 00000KT 10SM OVC012 00/M01 A3016 RMK AO2 T10031006,KPSK,2019-01-14T02:55:00Z,37.12,-80.67,-0.3,-0.6,0,0,,10.0,30.159449,,,TRUE,TRUE,,,,,,,OVC,1200,,,,,,,MVFR,,,,,,,,,,,,SPECI,642.0
KPRG 140255Z AUTO 01004KT 10SM OVC033 M02/M04 A3037 RMK AO2 T10161045,KPRG,2019-01-14T02:55:00Z,39.7,-87.67,-1.6,-4.5,10,4,,10.0,30.369095,,,TRUE,TRUE,,,,,,,OVC,3300,,,,,,,VFR,,,,,,,,,,,,METAR,199.0
KPPO 140255Z AUTO 02003KT 10SM CLR M11/M12 A3037 RMK AO2 T11061124,KPPO,2019-01-14T02:55:00Z,41.57,-86.73,-10.6,-12.4,20,3,,10.0,30.369095,,,TRUE,TRUE,,,,,,,CLR,,,,,,,,VFR,,,,,,,,,,,,METAR,248.0
KPPA 140255Z AUTO 14005KT 10SM BKN080 OVC090 01/M01 A3036 RMK AO2 T00071009,KPPA,2019-01-14T02:55:00Z,35.62,-101.0,0.7,-0.9,140,5,,10.0,30.360237,,,TRUE,TRUE,,,,,,,BKN,8000,OVC,9000,,,,,VFR,,,,,,,,,,,,METAR,989.0
KPNA 140255Z AUTO 30004KT 10SM CLR M21/M24 A3027 RMK AO2 TSNO,KPNA,2019-01-14T02:55:00Z,42.8,-109.8,-21.0,-24.0,300,4,,10.0,30.268702,,,TRUE,TRUE,,,TRUE,,,,CLR,,,,,,,,VFR,,,,,,,,,,,,METAR,2160.0
KPMV 140255Z AUTO 22006KT 1 1/4SM BR VV007 M06/M07 A3041 RMK AO2 T10601067,KPMV,2019-01-14T02:55:00Z,40.95,-95.92,-6.0,-6.7,220,6,,1.25,30.410433,,,TRUE,TRUE,,,,,,BR,OVX,0,,,,,,,LIFR,,,,,,,,,,,700,METAR,367.0
KPMU 140255Z AUTO VRB03KT 10SM OVC017 05/02 A3037 RMK AO2,KPMU,2019-01-14T02:55:00Z,34.37,-89.9,5.0,2.0,0,3,,10.0,30.369095,,,TRUE,TRUE,,,,,,,OVC,1700,,,,,,,MVFR,,,,,,,,,,,,METAR,67.0
KPLU 140255Z AUTO 00000KT 10SM CLR 02/02 A3011 RMK AO2,KPLU,2019-01-14T02:55:00Z,47.1,-122.28,2.0,2.0,0,0,,10.0,30.109253,,,TRUE,TRUE,,,,,,,CLR,,,,,,,,VFR,,,,,,,,,,,,METAR,164.0
KPEZ 140255Z AUTO 03003KT 10SM CLR 07/03 A3039 RMK AO2 T00720028,KPEZ,2019-01-14T02:55:00Z,28.95,-98.52,7.2,2.8,30,3,,10.0,30.389763,,,TRUE,TRUE,,,,,,,CLR,,,,,,,,VFR,,,,,,,,,,,,METAR,132.0
KPBX 140255Z AUTO 33004KT M1/4SM FZFG OVC003 00/00 A3019 RMK AO2 T10021002,KPBX,2019-01-14T02:55:00Z,37.57,-82.57,-0.2,-0.2,330,4,,0.25,30.188976,,,TRUE,TRUE,,,,,,FZFG,OVC,300,,,,,,,LIFR,,,,,,,,,,,,METAR,449.0
KOXI 140255Z AUTO 00000KT 7SM CLR M10/M11 A3037 RMK AO1,KOXI,2019-01-14T02:55:00Z,41.33,-86.67,-10.0,-11.0,0,0,,7.0,30.369095,,,TRUE,TRUE,,,,,,,CLR,,,,,,,,VFR,,,,,,,,,,,,METAR,209.0
KOSA 140255Z AUTO 36005KT 10SM BKN023 04/M01 A3045 RMK AO1 T00401006,KOSA,2019-01-14T02:55:00Z,33.1,-94.97,4.0,-0.6,360,5,,10.0,30.448818,,,TRUE,TRUE,,,,,,,BKN,2300,,,,,,,MVFR,,,,,,,,,,,,METAR,111.0
KORG 140255Z AUTO 00000KT 10SM CLR 06/04 A3041 RMK AO2 T00600036,KORG,2019-01-14T02:55:00Z,30.07,-93.8,6.0,3.6,0,0,,10.0,30.410433,,,TRUE,TRUE,,,,,,,CLR,,,,,,,,VFR,,,,,,,,,,,,METAR,4.0
KOPN 140255Z AUTO 33004KT 10SM OVC033 07/03 A3022 RMK AO2,KOPN,2019-01-14T02:55:00Z,32.95,-84.27,7.0,3.0,330,4,,10.0,30.221457,,,TRUE,TRUE,,,,,,,OVC,3300,,,,,,,VFR,,,,,,,,,,,,METAR,243.0
KOPL 140255Z AUTO 04009KT 10SM OVC021 06/01 A3038 RMK AO2 T00550008,KOPL,2019-01-14T02:55:00Z,30.55,-92.1,5.5,0.8,40,9,,10.0,30.380905,,,TRUE,TRUE,,,,,,,OVC,2100,,,,,,,MVFR,,,,,,,,,,,,METAR,23.0
KONM 140255Z AUTO 35005KT 10SM SCT047 BKN060 OVC090 03/01 A3024 RMK AO2 T00280008,KONM,2019-01-14T02:55:00Z,34.02,-106.9,2.8,0.8,350,5,,10.0,30.239174,,,TRUE,TRUE,,,,,,,SCT,4700,BKN,6000,OVC,9000,,,VFR,,,,,,,,,,,,METAR,1410.0
KONL 140255Z AUTO 21012KT 10SM OVC007 00/M02 A3026 RMK AO2 T10051016,KONL,2019-01-14T02:55:00Z,42.47,-98.67,-0.5,-1.6,210,12,,10.0,30.259842,,,TRUE,TRUE,,,,,,,OVC,700,,,,,,,IFR,,,,,,,,,,,,METAR,619.0
KOKV 140255Z AUTO 00000KT 4SM -SN SCT007 BKN045 OVC050 M03/M04 A3029 RMK AO2,KOKV,2019-01-14T02:55:00Z,39.13,-78.15,-3.0,-4.0,0,0,,4.0,30.28937,,,TRUE,TRUE,,,,,,-SN,SCT,700,BKN,4500,OVC,5000,,,MVFR,,,,,,,,,,,,METAR,222.0
KOGA 140255Z AUTO 00000KT 1/2SM FZFG OVC003 M02/M02 A3027 RMK AO2 T10221024,KOGA,2019-01-14T02:55:00Z,41.12,-101.77,-2.2,-2.4,0,0,,0.5,30.268702,,,TRUE,TRUE,,,,,,FZFG,OVC,300,,,,,,,LIFR,,,,,,,,,,,,METAR,999.0
KO54 140255Z AUTO 00000KT 10SM CLR 04/01 A2999 RMK AO1,KO54,2019-01-14T02:55:00Z,40.75,-122.92,4.0,1.0,0,0,,10.0,29.991142,,,TRUE,TRUE,,,,,,,CLR,,,,,,,,VFR,,,,,,,,,,,,METAR,717.0
KMZZ 140255Z AUTO 00000KT 4SM HZ CLR A3036 RMK AO2,KMZZ,2019-01-14T02:55:00Z,40.48,-85.68,,,0,0,,4.0,30.360237,,,TRUE,TRUE,,,,,,HZ,CLR,,,,,,,,MVFR,,,,,,,,,,,,METAR,262.0
KMWO 140255Z AUTO 01006KT 10SM OVC016 M01/M03 A3030 RMK AO2 T10111032,KMWO,2019-01-14T02:55:00Z,39.53,-84.4,-1.1,-3.2,10,6,,10.0,30.301182,,,TRUE,TRUE,,,,,,,OVC,1600,,,,,,,MVFR,,,,,,,,,,,,METAR,198.0
KMWA 140255Z AUTO 33006KT 7SM OVC009 M01/M02 A3038 RMK AO2 T10061018,KMWA,2019-01-14T02:55:00Z,37.77,-89.02,-0.6,-1.8,330,6,,7.0,30.380905,,,TRUE,TRUE,,,,,,,OVC,900,,,,,,,IFR,,,,,,,,,,,,METAR,144.0
KMTV 140255Z AUTO 00000KT 10SM OVC015 00/00 A3022 RMK AO2 T00000000,KMTV,2019-01-14T02:55:00Z,36.63,-80.02,0.0,0.0,0,0,,10.0,30.221457,,,TRUE,TRUE,,,,,,,OVC,1500,,,,,,,MVFR,,,,,,,,,,,,METAR,287.0
KMQS 140255Z AUTO 00000KT 10SM FEW060 SCT090 M02/M10 A3026 RMK AO2,KMQS,2019-01-14T02:55:00Z,39.98,-75.87,-2.0,-10.0,0,0,,10.0,30.259842,,,TRUE,TRUE,,,,,,,FEW,6000,SCT,9000,,,,,VFR,,,,,,,,,,,,METAR,201.0
KMLE 140255Z AUTO 00000KT 4SM BR CLR M04/M05 A3041 RMK AO2 T10401050,KMLE,2019-01-14T02:55:00Z,41.2,-96.12,-4.0,-5.0,0,0,,4.0,30.410433,,,TRUE,TRUE,,,,,,BR,CLR,,,,,,,,MVFR,,,,,,,,,,,,METAR,320.0
KMKJ 140255Z AUTO 00000KT 2 1/2SM BR OVC003 01/01 A3014 RMK AO2 6//// T00050005,KMKJ,2019-01-14T02:55:00Z,36.88,-81.33,0.5,0.5,0,0,,2.5,30.138779,,,TRUE,TRUE,,,,,,BR,OVC,300,,,,,,,LIFR,,,,,,,,,,,,METAR,780.0
KMGR 140255Z AUTO 36006KT 10SM SCT014 OVC024 11/08 A3021 RMK AO2,KMGR,2019-01-14T02:55:00Z,31.08,-83.8,11.0,8.0,360,6,,10.0,30.209646,,,TRUE,TRUE,,,,,,,SCT,1400,OVC,2400,,,,,MVFR,,,,,,,,,,,,METAR,90.0
KMFV 140255Z AUTO 36012G17KT 1SM -SN OVC003 01/00 A3013 RMK AO2 P0004 60037 T00050002,KMFV,2019-01-14T02:55:00Z,37.63,-75.77,0.5,0.2,360,12,17,1.0,30.129921,,,TRUE,TRUE,,,,,,-SN,OVC,300,,,,,,,LIFR,,,,,,0.04,0.37,,,,,METAR,15.0
KMDQ 140255Z AUTO 31006KT 5SM BR OVC005 04/03 A3028 RMK A02 T00390032,KMDQ,2019-01-14T02:55:00Z,34.87,-86.55,3.9,3.2,310,6,,5.0,30.280512,,,TRUE,TRUE,,,,,,BR,OVC,500,,,,,,,IFR,,,,,,,,,,,,METAR,230.0
KM30 140255Z AUTO 34007KT 10SM OVC010 01/00 A3037 RMK AO2 T00101005,KM30,2019-01-14T02:55:00Z,37.18,-88.75,1.0,-0.5,340,7,,10.0,30.369095,,,TRUE,TRUE,,,,,,,OVC,1000,,,,,,,MVFR,,,,,,,,,,,,METAR,117.0
KLWB 140255Z AUTO 00000KT 10SM OVC020 M02/M02 A3015 RMK AO2 P0001 60004 T10161023,KLWB,2019-01-14T02:55:00Z,37.87,-80.4,-1.6,-2.3,0,0,,10.0,30.15059,,,TRUE,TRUE,,,,,,,OVC,2000,,,,,,,MVFR,,,,,,0.01,0.04,,,,,METAR,702.0
KLVL 140255Z AUTO 10SM OVC007 00/M01 A3018 RMK AO1 T10021006,KLVL,2019-01-14T02:55:00Z,36.78,-77.8,-0.2,-0.6,,,,10.0,30.180119,,,TRUE,TRUE,,,,,,,OVC,700,,,,,,,IFR,,,,,,,,,,,,METAR,100.0
KLOM 140255Z AUTO 04005KT 10SM BKN100 M02/M11 A3029 RMK AO1,KLOM,2019-01-14T02:55:00Z,40.13,-75.27,-2.0,-11.0,40,5,,10.0,30.28937,,,TRUE,TRUE,,,,,,,BKN,10000,,,,,,,VFR,,,,,,,,,,,,METAR,92.0
KLNN 140255Z AUTO 08004KT 10SM CLR A3031 RMK AO1,KLNN,2019-01-14T02:55:00Z,41.67,-81.37,,,80,4,,10.0,30.31004,,,TRUE,TRUE,,,,,,,CLR,,,,,,,,VFR,,,,,,,,,,,,METAR,191.0
KLKU 140255Z AUTO 01006KT 5SM -SN BR BKN006 BKN022 OVC034 M02/M03 A3028 RMK AO2 P0002 T10241033 60008,KLKU,2019-01-14T02:55:00Z,38.02,-77.97,-2.4,-3.3,10,6,,5.0,30.280512,,,TRUE,TRUE,,,,,,-SN BR,BKN,600,BKN,2200,OVC,3400,,,IFR,,,,,,0.02,0.08,,,,,METAR,150.0
KLCQ 140255Z AUTO 00000KT 10SM CLR 12/10 A3016 RMK AO2,KLCQ,2019-01-14T02:55:00Z,30.18,-82.58,12.0,10.0,0,0,,10.0,30.159449,,,TRUE,TRUE,,,,,,,CLR,,,,,,,,VFR,,,,,,,,,,,,METAR,61.0
KLCG 140255Z AUTO 21015KT 10SM OVC013 00/M03 A3032 RMK AO2 T10051027,KLCG,2019-01-14T02:55:00Z,42.25,-96.98,-0.5,-2.7,210,15,,10.0,30.318897,,,TRUE,TRUE,,,,,,,OVC,1300,,,,,,,MVFR,,,,,,,,,,,,METAR,436.0
KHSG 140255Z AUTO 04003KT 10SM CLR M05/M10 A3020 RMK AO2 T10551101,KHSG,2019-01-14T02:55:00Z,43.72,-108.38,-5.5,-10.1,40,3,,10.0,30.200787,,,TRUE,TRUE,,,,,,,CLR,,,,,,,,VFR,,,,,,,,,,,,METAR,1494.0
KHHW 140255Z AUTO 36005KT 10SM OVC017 03/M01 A3044 RMK AO2 T00321008,KHHW,2019-01-14T02:55:00Z,34.03,-95.55,3.2,-0.8,360,5,,10.0,30.43996,,,TRUE,TRUE,,,,,,,OVC,1700,,,,,,,MVFR,,,,,,,,,,,,METAR,144.0
KFYG 140255Z AUTO 00000KT 10SM OVC015 M01/M02 A3042 RMK AO2,KFYG,2019-01-14T02:55:00Z,38.58,-91.0,-1.0,-2.0,0,0,,10.0,30.41929,,,TRUE,TRUE,,,,,,,OVC,1500,,,,,,,MVFR,,,,,,,,,,,,METAR,149.0
KEQA 140255Z AUTO 36005KT 7SM OVC006 00/M02 A3045 RMK AO2,KEQA,2019-01-14T02:55:00Z,37.78,-96.82,0.0,-2.0,360,5,,7.0,30.448818,,,TRUE,TRUE,,,,,,,OVC,600,,,,,,,IFR,,,,,,,,,,,,METAR,420.0
KD73 140255Z AUTO 30006KT 7SM BKN008 06/05 A3019 RMK AO2 T00610054,KD73,2019-01-14T02:55:00Z,33.78,-83.7,6.1,5.4,300,6,,7.0,30.188976,,,TRUE,TRUE,,,,,,,BKN,800,,,,,,,IFR,,,,,,,,,,,,METAR,267.0
KCWV 140255Z AUTO 27005KT 7SM OVC046 09/07 A3021 RMK AO2 T00920065,KCWV,2019-01-14T02:55:00Z,32.2,-81.87,9.2,6.5,270,5,,7.0,30.209646,,,TRUE,TRUE,,,,,,,OVC,4600,,,,,,,VFR,,,,,,,,,,,,METAR,33.0
KCCO 140255Z AUTO 31006KT OVC018 08/05 A3021 RMK AO2 T00800049 PWINO,KCCO,2019-01-14T02:55:00Z,33.32,-84.77,8.0,4.9,310,6,,,30.209646,,,TRUE,TRUE,,,,,TRUE,,OVC,1800,,,,,,,,,,,,,,,,,,,METAR,296.0
KC75 140255Z AUTO 00000KT 10SM CLR M09/M10 A3042 RMK AO2 T10911103,KC75,2019-01-14T02:55:00Z,41.02,-89.38,-9.1,-10.3,0,0,,10.0,30.41929,,,TRUE,TRUE,,,,,,,CLR,,,,,,,,VFR,,,,,,,,,,,,METAR,173.0
KAPS 140255Z AUTO 02007KT 10SM OVC021 08/02 A3035 RMK AO2 T00750022,KAPS,2019-01-14T02:55:00Z,30.08,-90.58,7.5,2.2,20,7,,10.0,30.351377,,,TRUE,TRUE,,,,,,,OVC,2100,,,,,,,MVFR,,,,,,,,,,,,METAR,2.0
KACP 140255Z AUTO 02007KT 10SM OVC023 06/01 A3039 RMK AO2 T00560005,KACP,2019-01-14T02:55:00Z,30.75,-92.68,5.6,0.5,20,7,,10.0,30.389763,,,TRUE,TRUE,,,,,,,OVC,2300,,,,,,,MVFR,,,,,,,,,,,,METAR,33.0
K5A6 140255Z AUTO 33003KT 10SM OVC019 04/01 A3036 RMK AO2 T00400010,K5A6,2019-01-14T02:55:00Z,33.47,-89.73,4.0,1.0,330,3,,10.0,30.360237,,,TRUE,TRUE,,,,,,,OVC,1900,,,,,,,MVFR,,,,,,,,,,,,METAR,111.0
K3K3 140255Z AUTO 14004KT 1/2SM FG OVC002 00/00 A3033 RMK AO2,K3K3,2019-01-14T02:55:00Z,38.0,-101.75,0.0,0.0,140,4,,0.5,30.33071,,,TRUE,TRUE,,,,,,FG,OVC,200,,,,,,,LIFR,,,,,,,,,,,,METAR,1013.0
K3AU 140255Z AUTO 29004KT 7SM OVC008 M02/M02 A3045 RMK AO2,K3AU,2019-01-14T02:55:00Z,37.67,-97.08,-2.0,-2.0,290,4,,7.0,30.448818,,,TRUE,TRUE,,,,,,,OVC,800,,,,,,,IFR,,,,,,,,,,,,METAR,405.0
K11R 140255Z AUTO 01005KT 10SM CLR 07/03 A3041 RMK AO2 T00650025,K11R,2019-01-14T02:55:00Z,30.22,-96.37,6.5,2.5,10,5,,10.0,30.410433,,,TRUE,TRUE,,,,,,,CLR,,,,,,,,VFR,,,,,,,,,,,,METAR,94.0
KY49 140255Z AUTO 24007KT 7SM OVC006 M03/M04 A3019 RMK AO2 T10331043,KY49,2019-01-14T02:55:00Z,47.13,-94.65,-3.3,-4.3,240,7,,7.0,30.188976,,,TRUE,TRUE,,,,,,,OVC,600,,,,,,,IFR,,,,,,,,,,,,METAR,416.0
KWDR 140255Z AUTO 31008G14KT 10SM OVC006 07/06 A3020 RMK AO2,KWDR,2019-01-14T02:55:00Z,33.98,-83.67,7.0,6.0,310,8,14,10.0,30.200787,,,TRUE,TRUE,,,,,,,OVC,600,,,,,,,IFR,,,,,,,,,,,,SPECI,287.0
KW78 140255Z AUTO 36004KT 10SM OVC007 00/M01 A3021 RMK AO1 T10021008,KW78,2019-01-14T02:55:00Z,36.68,-78.85,-0.2,-0.8,360,4,,10.0,30.209646,,,TRUE,TRUE,,,,,,,OVC,700,,,,,,,IFR,,,,,,,,,,,,SPECI,129.0
KW43 140255Z AUTO 10SM CLR M01/M10 A3017 RMK AO2,KW43,2019-01-14T02:55:00Z,44.67,-104.57,-1.0,-10.0,,,,10.0,30.171259,,,TRUE,TRUE,,,,,,,CLR,,,,,,,,VFR,,,,,,,,,,,,METAR,1300.0
KW22 140255Z AUTO 00000KT 1 1/2SM BR OVC003 M01/M01 A3014 RMK AO2,KW22,2019-01-14T02:55:00Z,39.0,-80.27,-1.0,-1.0,0,0,,1.5,30.138779,,,TRUE,TRUE,,,,,,BR,OVC,300,,,,,,,LIFR,,,,,,,,,,,,METAR,499.0
KVDI 140255Z AUTO 33003KT 10SM OVC044 08/05 A3020 RMK AO2,KVDI,2019-01-14T02:55:00Z,32.2,-82.37,8.0,5.0,330,3,,10.0,30.200787,,,TRUE,TRUE,,,,,,,OVC,4400,,,,,,,VFR,,,,,,,,,,,,SPECI,84.0
KTXW 140255Z AUTO 08009G15KT 10SM BKN043 OVC049 13/09 A3032 RMK AO2 T01260085,KTXW,2019-01-14T02:55:00Z,26.18,-97.97,12.6,8.5,80,9,15,10.0,30.318897,,,TRUE,TRUE,,,,,,,BKN,4300,OVC,4900,,,,,VFR,,,,,,,,,,,,METAR,21.0
KTMK 140255Z AUTO 04011G16KT 10SM CLR 10/M02 A3007 RMK AO2,KTMK,2019-01-14T02:55:00Z,45.42,-123.82,10.0,-2.0,40,11,16,10.0,30.070866,,,TRUE,TRUE,,,,,,,CLR,,,,,,,,VFR,,,,,,,,,,,,METAR,11.0
KTIF 140255Z AUTO 23007KT 3SM BR OVC002 M01/M02 A3025 RMK AO2 T10131016,KTIF,2019-01-14T02:55:00Z,41.97,-100.57,-1.3,-1.6,230,7,,3.0,30.250984,,,TRUE,TRUE,,,,,,BR,OVC,200,,,,,,,LIFR,,,,,,,,,,,,METAR,892.0
KTFP 140255Z AUTO 00000KT 10SM CLR 10/07 A3036 RMK AO2 T01040068 PNO,KTFP,2019-01-14T02:55:00Z,27.92,-97.22,10.4,6.8,0,0,,10.0,30.360237,,,TRUE,TRUE,,,,,,,CLR,,,,,,,,VFR,,,,,,,,,,,,METAR,6.0
KTEX 140255Z AUTO 12003KT 10SM SCT034 M05/M06 A3020 RMK AO2,KTEX,2019-01-14T02:55:00Z,37.95,-107.9,-5.0,-6.0,120,3,,10.0,30.200787,,,TRUE,TRUE,,,,,,,SCT,3400,,,,,,,VFR,,,,,,,,,,,,METAR,2769.0
KTBR 140255Z AUTO 32006KT 10SM OVC013 08/06 A3020 RMK AO2 T00750057,KTBR,2019-01-14T02:55:00Z,32.48,-81.73,7.5,5.7,320,6,,10.0,30.200787,,,TRUE,TRUE,,,,,,,OVC,1300,,,,,,,MVFR,,,,,,,,,,,,SPECI,57.0
KTAZ 140255Z AUTO 36003KT 7SM OVC020 M06/M07 A3041 RMK AO2 T10591067,KTAZ,2019-01-14T02:55:00Z,39.53,-89.33,-5.9,-6.7,360,3,,7.0,30.410433,,,TRUE,TRUE,,,,,,,OVC,2000,,,,,,,MVFR,,,,,,,,,,,,METAR,190.0
KT82 140255Z AUTO 06007KT 10SM OVC050 06/01 A3038 RMK AO2 T00610010,KT82,2019-01-14T02:55:00Z,30.25,-98.92,6.1,1.0,60,7,,10.0,30.380905,,,TRUE,TRUE,,,,,,,OVC,5000,,,,,,,VFR,,,,,,,,,,,,METAR,517.0
KT20 140255Z AUTO 01004KT 10SM CLR 07/03 A3039 RMK AO2 T00670031,KT20,2019-01-14T02:55:00Z,29.52,-97.47,6.7,3.1,10,4,,10.0,30.389763,,,TRUE,TRUE,,,,,,,CLR,,,,,,,,VFR,,,,,,,,,,,,METAR,108.0
KSWW 140255Z AUTO 02005KT 7SM OVC003 00/00 A3042 RMK AO2 T00010001,KSWW,2019-01-14T02:55:00Z,32.47,-100.47,0.1,0.1,20,5,,7.0,30.41929,,,TRUE,TRUE,,,,,,,OVC,300,,,,,,,LIFR,,,,,,,,,,,,METAR,727.0
KSUN 140255Z 30008KT 10SM SKC M06/M09 A3024,KSUN,2019-01-14T02:55:00Z,43.5,-114.28,-6.0,-9.0,300,8,,10.0,30.239174,,,,,,,,,,,SKC,,,,,,,,VFR,,,,,,,,,,,,METAR,1620.0
KSOA 140255Z AUTO 02004KT 10SM FEW045 05/01 A3039 RMK AO2,KSOA,2019-01-14T02:55:00Z,30.58,-100.65,5.0,1.0,20,4,,10.0,30.389763,,,TRUE,TRUE,,,,,,,FEW,4500,,,,,,,VFR,,,,,,,,,,,,METAR,652.0
KSNL 140255Z AUTO 01004KT 10SM OVC014 00/M02 A3045 RMK AO2 T00021020,KSNL,2019-01-14T02:55:00Z,35.35,-96.95,0.2,-2.0,10,4,,10.0,30.448818,,,TRUE,TRUE,,,,,,,OVC,1400,,,,,,,MVFR,,,,,,,,,,,,SPECI,327.0
KSNK 140255Z AUTO 03005KT 7SM OVC005 00/M01 A3041 RMK AO2 T10051007,KSNK,2019-01-14T02:55:00Z,32.7,-100.95,-0.5,-0.7,30,5,,7.0,30.410433,,,TRUE,TRUE,,,,,,,OVC,500,,,,,,,IFR,,,,,,,,,,,,METAR,741.0
KSME 140255Z AUTO 02006KT 10SM OVC008 00/00 A3026 RMK AO2,KSME,2019-01-14T02:55:00Z,37.05,-84.62,0.0,0.0,20,6,,10.0,30.259842,,,TRUE,TRUE,,,,,,,OVC,800,,,,,,,IFR,,,,,,,,,,,,METAR,283.0
KSJS 140255Z AUTO 01004KT 2 1/2SM -RA OVC003 00/00 A3021 RMK AO2 T00000000,KSJS,2019-01-14T02:55:00Z,37.75,-82.63,0.0,0.0,10,4,,2.5,30.209646,,,TRUE,TRUE,,,,,,-RA,OVC,300,,,,,,,LIFR,,,,,,,,,,,,METAR,372.0
KSHD 140255Z AUTO 03004KT 4SM BR SCT009 OVC034 M04/M04 A3025 RMK AO2 T10361043,KSHD,2019-01-14T02:55:00Z,38.27,-78.9,-3.6,-4.3,30,4,,4.0,30.250984,,,TRUE,TRUE,,,,,,BR,SCT,900,OVC,3400,,,,,MVFR,,,,,,,,,,,,SPECI,366.0
KSBS 140255Z AUTO 00000KT 10SM CLR M14/M15 A3027 RMK AO1 T11391147,KSBS,2019-01-14T02:55:00Z,40.52,-106.87,-13.9,-14.7,0,0,,10.0,30.268702,,,TRUE,TRUE,,,,,,,CLR,,,,,,,,VFR,,,,,,,,,,,,METAR,2096.0
KSBO 140255Z AUTO 32003KT 10SM OVC023 07/06 A3021 RMK AO2,KSBO,2019-01-14T02:55:00Z,32.62,-82.37,7.0,6.0,320,3,,10.0,30.209646,,,TRUE,TRUE,,,,,,,OVC,2300,,,,,,,MVFR,,,,,,,,,,,,SPECI,100.0
RJOI 140255Z 10003KT 9999 FEW030 BKN060 10/02 A3023 RMK SLP236 T01000022 58007,RJOI,2019-01-14T02:55:00Z,34.13,132.22,10.0,2.2,100,3,,6.21,30.230314,1023.6,,,,,,,,,,FEW,3000,BKN,6000,,,,,VFR,-0.7,,,,,,,,,,,SPECI,2.0
PATC 140255Z AUTO 03037KT 1/4SM +SN BKN012 M17/M19 A2935 RMK AO2 PK WND 03045/0158 SHSNB0056E0156 SLP952 P0000 60000 T11751187 55007,PATC,2019-01-14T02:55:00Z,65.57,-167.92,-17.5,-18.7,30,37,,0.25,29.350393,995.2,,TRUE,TRUE,,,,,,+SN,BKN,1200,,,,,,,LIFR,-0.7,,,,,0.005,0.005,,,,,METAR,83.0
KXLL 140255Z AUTO 04008KT 10SM CLR M03/M12 A3031 RMK AO2,KXLL,2019-01-14T02:55:00Z,40.57,-75.48,-3.0,-12.0,40,8,,10.0,30.31004,,,TRUE,TRUE,,,,,,,CLR,,,,,,,,VFR,,,,,,,,,,,,METAR,122.0
KVYS 140255Z AUTO 03004KT 10SM CLR M10/M11 A3042 RMK AO2 T10971112,KVYS,2019-01-14T02:55:00Z,41.35,-89.15,-9.7,-11.2,30,4,,10.0,30.41929,,,TRUE,TRUE,,,,,,,CLR,,,,,,,,VFR,,,,,,,,,,,,METAR,199.0
KUXL 140255Z AUTO 02008KT 10SM CLR 06/02 A3040 RMK AO2 T00620021,KUXL,2019-01-14T02:55:00Z,30.13,-93.38,6.2,2.1,20,8,,10.0,30.398623,,,TRUE,TRUE,,,,,,,CLR,,,,,,,,VFR,,,,,,,,,,,,METAR,4.0
KUTA 140255Z AUTO 34008KT 10SM 03/00 A3039 RMK AO2 TSNO,KUTA,2019-01-14T02:55:00Z,34.68,-90.35,3.0,0.0,340,8,,10.0,30.389763,,,TRUE,TRUE,,,TRUE,,,,,,,,,,,,,,,,,,,,,,,,METAR,59.0
KTOC 140255Z AUTO 00000KT 7SM OVC006 05/04 A3016 RMK AO2 T00510043,KTOC,2019-01-14T02:55:00Z,34.6,-83.3,5.1,4.3,0,0,,7.0,30.159449,,,TRUE,TRUE,,,,,,,OVC,600,,,,,,,IFR,,,,,,,,,,,,METAR,304.0
KTIP 140255Z AUTO 33003KT 4SM BR CLR M11/M12 A3038 RMK AO2 T11101120,KTIP,2019-01-14T02:55:00Z,40.28,-88.15,-11.0,-12.0,330,3,,4.0,30.380905,,,TRUE,TRUE,,,,,,BR,CLR,,,,,,,,MVFR,,,,,,,,,,,,METAR,225.0
KT35 140255Z AUTO 03007KT 10SM CLR 04/01 A3043 RMK AO2 T00420010,KT35,2019-01-14T02:55:00Z,30.88,-96.97,4.2,1.0,30,7,,10.0,30.431103,,,TRUE,TRUE,,,,,,,CLR,,,,,,,,VFR,,,,,,,,,,,,METAR,123.0
KSVE 140255Z AUTO 00000KT 10SM CLR M01/M04 A3011 RMK AO2,KSVE,2019-01-14T02:55:00Z,40.37,-120.57,-1.0,-4.0,0,0,,10.0,30.109253,,,TRUE,TRUE,,,,,,,CLR,,,,,,,,VFR,,,,,,,,,,,,METAR,1263.0
KSTE 140255Z AUTO 19003KT 10SM SCT019 M07/M09 A3035 RMK AO2 T10751086,KSTE,2019-01-14T02:55:00Z,44.55,-89.53,-7.5,-8.6,190,3,,10.0,30.351377,,,TRUE,TRUE,,,,,,,SCT,1900,,,,,,,VFR,,,,,,,,,,,,METAR,338.0
KSRR 140255Z AUTO 08003KT 10SM FEW013 M02/M03 A3027 RMK AO2,KSRR,2019-01-14T02:55:00Z,33.47,-105.52,-2.0,-3.0,80,3,,10.0,30.268702,,,TRUE,TRUE,,,,,,,FEW,1300,,,,,,,VFR,,,,,,,,,,,,METAR,2076.0
KSAA 140255Z AUTO 00000KT 10SM CLR M18/M20 A3025 RMK AO2,KSAA,2019-01-14T02:55:00Z,41.45,-106.83,-18.0,-20.0,0,0,,10.0,30.250984,,,TRUE,TRUE,,,,,,,CLR,,,,,,,,VFR,,,,,,,,,,,,METAR,2138.0
KRNV 140255Z AUTO 34006KT 10SM OVC023 05/01 A3039 RMK AO2 T00470012,KRNV,2019-01-14T02:55:00Z,33.77,-90.75,4.7,1.2,340,6,,10.0,30.389763,,,TRUE,TRUE,,,,,,,OVC,2300,,,,,,,MVFR,,,,,,,,,,,,METAR,41.0
KREG 140255Z AUTO 36007G14KT 10SM OVC021 06/02 A3035 RMK AO2 T00630016,KREG,2019-01-14T02:55:00Z,30.17,-90.93,6.3,1.6,360,7,14,10.0,30.351377,,,TRUE,TRUE,,,,,,,OVC,2100,,,,,,,MVFR,,,,,,,,,,,,METAR,4.0
KRCR 140255Z AUTO 00000KT 10SM CLR M07/M10 A3036 RMK AO2,KRCR,2019-01-14T02:55:00Z,41.07,-86.18,-7.0,-10.0,0,0,,10.0,30.360237,,,TRUE,TRUE,,,,,,,CLR,,,,,,,,VFR,,,,,,,,,,,,METAR,241.0
PAAD 140255Z AUTO 11014KT 10SM CLR M30/M33 A3012 RMK AO2 T12981330,PAAD,2019-01-14T02:55:00Z,70.13,-146.28,-29.8,-33.0,110,14,,10.0,30.121063,,,TRUE,TRUE,,,,,,,CLR,,,,,,,,VFR,,,,,,,,,,,,METAR,8.0
KPXE 140255Z AUTO 30004KT 10SM BKN042 07/05 A3021 RMK AO2 T00720053,KPXE,2019-01-14T02:55:00Z,32.52,-83.77,7.2,5.3,300,4,,10.0,30.209646,,,TRUE,TRUE,,,,,,,BKN,4200,,,,,,,VFR,,,,,,,,,,,,METAR,127.0
KPNT 140255Z AUTO 00000KT 10SM CLR M10/M10 A3041 RMK AO2 T11021104,KPNT,2019-01-14T02:55:00Z,40.92,-88.62,-10.2,-10.4,0,0,,10.0,30.410433,,,TRUE,TRUE,,,,,,,CLR,,,,,,,,VFR,,,,,,,,,,,,METAR,201.0
KOZS 140255Z AUTO 31004KT 5SM BR OVC005 M01/M01 A3043 RMK AO2,KOZS,2019-01-14T02:55:00Z,37.97,-92.68,-1.0,-1.0,310,4,,5.0,30.431103,,,TRUE,TRUE,,,,,,BR,OVC,500,,,,,,,IFR,,,,,,,,,,,,METAR,324.0
KOZA 140255Z AUTO 04005KT 10SM CLR 02/00 A3037 RMK AO2,KOZA,2019-01-14T02:55:00Z,30.73,-101.2,2.0,0.0,40,5,,10.0,30.369095,,,TRUE,TRUE,,,,,,,CLR,,,,,,,,VFR,,,,,,,,,,,,METAR,726.0
KOLY 140255Z AUTO 35006KT 7SM OVC016 M02/M02 A3037 RMK AO2 T10171017,KOLY,2019-01-14T02:55:00Z,38.72,-88.18,-1.7,-1.7,350,6,,7.0,30.369095,,,TRUE,TRUE,,,,,,,OVC,1600,,,,,,,MVFR,,,,,,,,,,,,METAR,147.0
KOCQ 140255Z AUTO 23003KT 10SM CLR M11/M12 A3037 RMK AO1 T11111124,KOCQ,2019-01-14T02:55:00Z,44.87,-87.92,-11.1,-12.4,230,3,,10.0,30.369095,,,TRUE,TRUE,,,,,,,CLR,,,,,,,,VFR,,,,,,,,,,,,METAR,183.0
KMYZ 140255Z AUTO 26005KT 5SM BR OVC007 M02/M03 A3043 RMK AO2,KMYZ,2019-01-14T02:55:00Z,39.85,-96.63,-2.0,-3.0,260,5,,5.0,30.431103,,,TRUE,TRUE,,,,,,BR,OVC,700,,,,,,,IFR,,,,,,,,,,,,METAR,319.0
KMEZ 140255Z AUTO 35006KT 10SM OVC014 03/00 A3041 RMK AO2,KMEZ,2019-01-14T02:55:00Z,34.55,-94.2,3.0,0.0,350,6,,10.0,30.410433,,,TRUE,TRUE,,,,,,,OVC,1400,,,,,,,MVFR,,,,,,,,,,,,METAR,329.0
KMDD 140255Z AUTO 08009KT 5SM BR 02/00 A3038 RMK AO2 T00150000,KMDD,2019-01-14T02:55:00Z,32.03,-102.1,1.5,0.0,80,9,,5.0,30.380905,,,TRUE,TRUE,,,,,,BR,,,,,,,,,,,,,,,,,,,,,METAR,854.0
KLGC 140255Z AUTO 32003KT 10SM BKN025 08/06 A3022 RMK AO2 T00750064,KLGC,2019-01-14T02:55:00Z,33.0,-85.07,7.5,6.4,320,3,,10.0,30.221457,,,TRUE,TRUE,,,,,,,BKN,2500,,,,,,,MVFR,,,,,,,,,,,,METAR,211.0
KLCK 140255Z AUTO 36009KT 10SM SCT031 OVC070 M01/M05 A3026 RMK AO2 T10131047,KLCK,2019-01-14T02:55:00Z,39.82,-82.92,-1.3,-4.7,360,9,,10.0,30.259842,,,TRUE,TRUE,,,,,,,SCT,3100,OVC,7000,,,,,VFR,,,,,,,,,,,,METAR,227.0
KIOB 140255Z AUTO 01005KT 5SM BR OVC005 00/M01 A3025 RMK AO2,KIOB,2019-01-14T02:55:00Z,38.05,-83.98,0.0,-1.0,10,5,,5.0,30.250984,,,TRUE,TRUE,,,,,,BR,OVC,500,,,,,,,IFR,,,,,,,,,,,,METAR,311.0
KIJX 140255Z AUTO 36005KT 10SM OVC014 M02/M04 A3042 RMK AO2 T10161037,KIJX,2019-01-14T02:55:00Z,39.77,-90.25,-1.6,-3.7,360,5,,10.0,30.41929,,,TRUE,TRUE,,,,,,,OVC,1400,,,,,,,MVFR,,,,,,,,,,,,METAR,190.0
KI63 140255Z AUTO 34005KT 10SM OVC012 M03/M04 A3042 RMK AO2 T10281042,KI63,2019-01-14T02:55:00Z,39.98,-90.8,-2.8,-4.2,340,5,,10.0,30.41929,,,TRUE,TRUE,,,,,,,OVC,1200,,,,,,,MVFR,,,,,,,,,,,,METAR,223.0
KHYW 140255Z AUTO 00000KT 7SM OVC008 04/04 A3018 RMK AO2,KHYW,2019-01-14T02:55:00Z,33.83,-79.12,4.0,4.0,0,0,,7.0,30.180119,,,TRUE,TRUE,,,,,,,OVC,800,,,,,,,IFR,,,,,,,,,,,,METAR,11.0
KHTO 140255Z AUTO 04008KT 10SM OVC017 M02/M05 A3030 RMK AO2 T10161052,KHTO,2019-01-14T02:55:00Z,40.95,-72.25,-1.6,-5.2,40,8,,10.0,30.301182,,,TRUE,TRUE,,,,,,,OVC,1700,,,,,,,MVFR,,,,,,,,,,,,METAR,17.0
KHHG 140255Z AUTO 00000KT 5SM BR CLR M10/M10 A3034 RMK AO2 T10961103,KHHG,2019-01-14T02:55:00Z,40.85,-85.45,-9.6,-10.3,0,0,,5.0,30.339567,,,TRUE,TRUE,,,,,,BR,CLR,,,,,,,,MVFR,,,,,,,,,,,,METAR,246.0
KGNC 140255Z AUTO 09007KT 10SM OVC033 02/M01 A3039 RMK AO2 T00201014,KGNC,2019-01-14T02:55:00Z,32.68,-102.65,2.0,-1.4,90,7,,10.0,30.389763,,,TRUE,TRUE,,,,,,,OVC,3300,,,,,,,VFR,,,,,,,,,,,,METAR,1010.0
KGGP 140255Z AUTO 36003KT 10SM CLR M07/M09 A3036 RMK AO2,KGGP,2019-01-14T02:55:00Z,40.72,-86.37,-7.0,-9.0,360,3,,10.0,30.360237,,,TRUE,TRUE,,,,,,,CLR,,,,,,,,VFR,,,,,,,,,,,,METAR,225.0
KGDB 140255Z AUTO 21008KT 7SM OVC014 00/M02 A3028 RMK AO2 T00001020,KGDB,2019-01-14T02:55:00Z,44.75,-95.55,0.0,-2.0,210,8,,7.0,30.280512,,,TRUE,TRUE,,,,,,,OVC,1400,,,,,,,MVFR,,,,,,,,,,,,METAR,319.0
KGBG 140255Z AUTO 28004KT 3/4SM BR OVC002 M10/M11 A3043 RMK AO2 T11031113,KGBG,2019-01-14T02:55:00Z,40.93,-90.43,-10.3,-11.3,280,4,,0.75,30.431103,,,TRUE,TRUE,,,,,,BR,OVC,200,,,,,,,LIFR,,,,,,,,,,,,SPECI,233.0
KEZM 140255Z AUTO 00000KT 10SM CLR 08/05 A3023 RMK AO2 T00750048,KEZM,2019-01-14T02:55:00Z,32.22,-83.13,7.5,4.8,0,0,,10.0,30.230314,,,TRUE,TRUE,,,,,,,CLR,,,,,,,,VFR,,,,,,,,,,,,METAR,93.0
KEHA 140255Z AUTO 17009KT 3SM BR BKN001 01/01 A3031 RMK AO2 T00100010,KEHA,2019-01-14T02:55:00Z,37.0,-101.9,1.0,1.0,170,9,,3.0,30.31004,,,TRUE,TRUE,,,,,,BR,BKN,100,,,,,,,LIFR,,,,,,,,,,,,METAR,1099.0
KE38 140255Z AUTO 33005KT 10SM CLR 03/00 A3031 RMK AO2 T00300000,KE38,2019-01-14T02:55:00Z,30.38,-103.68,3.0,0.0,330,5,,10.0,30.31004,,,TRUE,TRUE,,,,,,,CLR,,,,,,,,VFR,,,,,,,,,,,,METAR,1376.0
KDVK 140255Z AUTO 00000KT 5SM BR OVC005 00/00 A3027 RMK AO2,KDVK,2019-01-14T02:55:00Z,37.58,-84.77,0.0,0.0,0,0,,5.0,30.268702,,,TRUE,TRUE,,,,,,BR,OVC,500,,,,,,,IFR,,,,,,,,,,,,METAR,312.0
KDUB 140255Z AUTO 30004KT 10SM CLR M06/M14 A3021 RMK AO2,KDUB,2019-01-14T02:55:00Z,43.55,-109.68,-6.0,-14.0,300,4,,10.0,30.209646,,,TRUE,TRUE,,,,,,,CLR,,,,,,,,VFR,,,,,,,,,,,,METAR,2224.0
KDTA 140255Z AUTO 00000KT 10SM OVC015 M03/M05 A3028 RMK AO1,KDTA,2019-01-14T02:55:00Z,39.38,-112.5,-3.0,-5.0,0,0,,10.0,30.280512,,,TRUE,TRUE,,,,,,,OVC,1500,,,,,,,MVFR,,,,,,,,,,,,METAR,1402.0
KDQH 140255Z AUTO 35007KT 10SM OVC028 11/06 A3023 RMK AO2 T01050056,KDQH,2019-01-14T02:55:00Z,31.48,-82.87,10.5,5.6,350,7,,10.0,30.230314,,,TRUE,TRUE,,,,,,,OVC,2800,,,,,,,MVFR,,,,,,,,,,,,METAR,78.0
KDCY 140255Z AUTO 01008KT 10SM OVC016 00/M04 A3034 RMK AO2 T10051036,KDCY,2019-01-14T02:55:00Z,38.7,-87.13,-0.5,-3.6,10,8,,10.0,30.339567,,,TRUE,TRUE,,,,,,,OVC,1600,,,,,,,MVFR,,,,,,,,,,,,SPECI,144.0
KDBN 140255Z AUTO 00000KT 5SM BR CLR 03/02 A3023 RMK AO2,KDBN,2019-01-14T02:55:00Z,32.57,-82.98,3.0,2.0,0,0,,5.0,30.230314,,,TRUE,TRUE,,,,,,BR,CLR,,,,,,,,MVFR,,,,,,,,,,,,METAR,94.0
KCVC 140255Z AUTO 29004KT 7SM OVC024 07/06 A3018 RMK AO2 PNO,KCVC,2019-01-14T02:55:00Z,33.63,-83.85,7.0,6.0,290,4,,7.0,30.180119,,,TRUE,TRUE,,,,,,,OVC,2400,,,,,,,MVFR,,,,,,,,,,,,METAR,247.0
KCQB 140255Z AUTO 02004KT 7SM BR OVC014 01/M02 A3046 RMK AO2 T00071016,KCQB,2019-01-14T02:55:00Z,35.72,-96.82,0.7,-1.6,20,4,,7.0,30.46063,,,TRUE,TRUE,,,,,,BR,OVC,1400,,,,,,,MVFR,,,,,,,,,,,,METAR,300.0
KCOM 140255Z AUTO 03004KT 10SM OVC010 02/M01 A3042 RMK AO2 T00151006,KCOM,2019-01-14T02:55:00Z,31.83,-99.4,1.5,-0.6,30,4,,10.0,30.41929,,,TRUE,TRUE,,,,,,,OVC,1000,,,,,,,MVFR,,,,,,,,,,,,METAR,517.0
KCKF 140255Z AUTO 00000KT 10SM CLR 09/06 A3023 RMK AO2 T00850056,KCKF,2019-01-14T02:55:00Z,31.98,-83.77,8.5,5.6,0,0,,10.0,30.230314,,,TRUE,TRUE,,,,,,,CLR,,,,,,,,VFR,,,,,,,,,,,,METAR,91.0
KC09 140255Z AUTO 00000KT 10SM CLR M08/M10 A3041 RMK AO2 T10841099,KC09,2019-01-14T02:55:00Z,41.43,-88.42,-8.4,-9.9,0,0,,10.0,30.410433,,,TRUE,TRUE,,,,,,,CLR,,,,,,,,VFR,,,,,,,,,,,,SPECI,178.0
KBKD 140255Z AUTO 05004KT 10SM OVC013 02/M01 A3044 RMK AO2 T00241009,KBKD,2019-01-14T02:55:00Z,32.72,-98.88,2.4,-0.9,50,4,,10.0,30.43996,,,TRUE,TRUE,,,,,,,OVC,1300,,,,,,,MVFR,,,,,,,,,,,,METAR,392.0
KBHC 140255Z AUTO 36006KT 10SM OVC031 09/07 A3020 RMK AO2,KBHC,2019-01-14T02:55:00Z,31.72,-82.4,9.0,7.0,360,6,,10.0,30.200787,,,TRUE,TRUE,,,,,,,OVC,3100,,,,,,,VFR,,,,,,,,,,,,METAR,61.0
KBDG 140255Z AUTO 00000KT 10SM 00/00 A3028 RMK AO1 T00021005,KBDG,2019-01-14T02:55:00Z,37.58,-109.47,0.2,-0.5,0,0,,10.0,30.280512,,,TRUE,TRUE,,,,,,,,,,,,,,,,,,,,,,,,,,,METAR,1788.0
KBBD 140255Z AUTO 02008KT 10SM OVC050 01/M00 A3039 RMK AO2,KBBD,2019-01-14T02:55:00Z,31.18,-99.32,1.0,0.0,20,8,,10.0,30.389763,,,TRUE,TRUE,,,,,,,OVC,5000,,,,,,,VFR,,,,,,,,,,,,METAR,557.0
KAFO 140255Z AUTO 00000KT 7SM CLR M19/M22 A3026 RMK AO2,KAFO,2019-01-14T02:55:00Z,42.72,-110.95,-19.0,-22.0,0,0,,7.0,30.259842,,,TRUE,TRUE,,,,,,,CLR,,,,,,,,VFR,,,,,,,,,,,,METAR,1897.0
KAAA 140255Z AUTO 32003KT 10SM CLR M06/M07 A3041 RMK AO2 T10591070,KAAA,2019-01-14T02:55:00Z,40.17,-89.33,-5.9,-7.0,320,3,,10.0,30.410433,,,TRUE,TRUE,,,,,,,CLR,,,,,,,,VFR,,,,,,,,,,,,SPECI,182.0
KA08 140255Z AUTO 32011KT 10SM OVC018 06/03 A3030 RMK AO2 T00610033,KA08,2019-01-14T02:55:00Z,32.52,-87.38,6.1,3.3,320,11,,10.0,30.301182,,,TRUE,TRUE,,,,,,,OVC,1800,,,,,,,MVFR,,,,,,,,,,,,METAR,69.0
K9A5 140255Z AUTO 00000KT 10SM OVC020 06/03 A3023 RMK AO2 T00600033,K9A5,2019-01-14T02:55:00Z,34.68,-85.28,6.0,3.3,0,0,,10.0,30.230314,,,TRUE,TRUE,,,,,,,OVC,2000,,,,,,,MVFR,,,,,,,,,,,,METAR,237.0
K6P9 140255Z AUTO 02006KT 10SM OVC012 01/M01 A3043 RMK AO2 T00091006,K6P9,2019-01-14T02:55:00Z,32.43,-98.6,0.9,-0.6,20,6,,10.0,30.431103,,,TRUE,TRUE,,,,,,,OVC,1200,,,,,,,MVFR,,,,,,,,,,,,METAR,449.0
K6B0 140255Z AUTO 00000KT 10SM CLR M18/M20 A3042 RMK AO2 T11811200,K6B0,2019-01-14T02:55:00Z,43.98,-73.1,-18.1,-20.0,0,0,,10.0,30.41929,,,TRUE,TRUE,,,,,,,CLR,,,,,,,,VFR,,,,,,,,,,,,SPECI,149.0
K66R 140255Z AUTO 02006KT 10SM SCT070 09/01 A3041 RMK AO2 T00860012,K66R,2019-01-14T02:55:00Z,29.65,-96.52,8.6,1.2,20,6,,10.0,30.410433,,,TRUE,TRUE,,,,,,,SCT,7000,,,,,,,VFR,,,,,,,,,,,,METAR,74.0
K5C1 140255Z AUTO 05006KT 10SM OVC055 08/02 A3038 RMK AO1,K5C1,2019-01-14T02:55:00Z,29.72,-98.7,8.0,2.0,50,6,,10.0,30.380905,,,TRUE,TRUE,,,,,,,OVC,5500,,,,,,,VFR,,,,,,,,,,,,METAR,423.0
K49A 140255Z AUTO 30003KT 5SM BR BKN003 OVC006 06/05 A3021 RMK AO2 T00580051,K49A,2019-01-14T02:55:00Z,34.63,-84.53,5.8,5.1,300,3,,5.0,30.209646,,,TRUE,TRUE,,,,,,BR,BKN,300,OVC,600,,,,,LIFR,,,,,,,,,,,,METAR,453.0
K2I0 140255Z AUTO 36009KT 7SM OVC011 02/01 A3032 RMK AO2 T00170008,K2I0,2019-01-14T02:55:00Z,37.35,-87.4,1.7,0.8,360,9,,7.0,30.318897,,,TRUE,TRUE,,,,,,,OVC,1100,,,,,,,MVFR,,,,,,,,,,,,METAR,134.0
K1H2 140255Z AUTO 34006KT 7SM OVC012 M02/M04 A3039 RMK AO2 T10221037,K1H2,2019-01-14T02:55:00Z,39.07,-88.53,-2.2,-3.7,340,6,,7.0,30.389763,,,TRUE,TRUE,,,,,,,OVC,1200,,,,,,,MVFR,,,,,,,,,,,,METAR,179.0
K0R4 140255Z AUTO 02008KT 10SM OVC022 05/01 A3039 RMK AO2 T00500007,K0R4,2019-01-14T02:55:00Z,31.57,-91.5,5.0,0.7,20,8,,10.0,30.389763,,,TRUE,TRUE,,,,,,,OVC,2200,,,,,,,MVFR,,,,,,,,,,,,METAR,17.0
K06C 140255Z AUTO 36004KT 10SM OVC016 M04/M07 A3038 RMK AO2 T10401070,K06C,2019-01-14T02:55:00Z,41.98,-88.1,-4.0,-7.0,360,4,,10.0,30.380905,,,TRUE,TRUE,,,,,,,OVC,1600,,,,,,,MVFR,,,,,,,,,,,,SPECI,244.0
EHSC 140255Z AUTO 32025KT 9999 ///////// 08/05 Q1010 W08/H28,EHSC,2019-01-14T02:55:00Z,51.93,3.67,8.0,5.0,320,25,,6.21,29.822834,,,TRUE,,,,,,,,,,,,,,,,,,,,,,,,,,,,METAR,50.0
EHSA 140255Z AUTO 30029KT 9999 ///////// 08/04 Q1010 W06/H29,EHSA,2019-01-14T02:55:00Z,52.0,3.28,8.0,4.0,300,29,,6.21,29.822834,,,TRUE,,,,,,,,,,,,,,,,,,,,,,,,,,,,METAR,50.0
EHQE 140255Z AUTO 31031KT 9000 -UP SCT015CB BKN019 BKN029 08/05 Q1007 W///H///,EHQE,2019-01-14T02:55:00Z,52.92,4.15,8.0,5.0,310,31,,5.59,29.734253,,,TRUE,,,,,,,UP,SCT,1500,BKN,1900,BKN,2900,,,MVFR,,,,,,,,,,,,METAR,50.0
EHPG 140255Z AUTO 30022KT 270V350 9999 FEW020 SCT024 BKN036 09/04 Q1009 W///H///,EHPG,2019-01-14T02:55:00Z,52.37,3.35,9.0,4.0,300,22,,6.21,29.793306,,,TRUE,,,,,,,,FEW,2000,SCT,2400,BKN,3600,,,VFR,,,,,,,,,,,,METAR,50.0
EHMG 140255Z AUTO 34021KT 9999 FEW022 SCT026 BKN033 07/01 Q1007 W///H///,EHMG,2019-01-14T02:55:00Z,53.62,4.97,7.0,1.0,340,21,,6.21,29.734253,,,TRUE,,,,,,,,FEW,2200,SCT,2600,BKN,3300,,,VFR,,,,,,,,,,,,METAR,50.0
EHMA 140255Z AUTO 34026KT 9999 NSC 07/00 Q1005 W///H///,EHMA,2019-01-14T02:55:00Z,53.5,5.95,7.0,0.0,340,26,,6.21,29.675198,,,TRUE,,,,,,,,CLR,,,,,,,,VFR,,,,,,,,,,,,METAR,50.0
EHKV 140255Z AUTO 31026KT 9999 FEW015CB SCT025 BKN030 07/05 Q1009 W///H///,EHKV,2019-01-14T02:55:00Z,53.27,3.63,7.0,5.0,310,26,,6.21,29.793306,,,TRUE,,,,,,,,FEW,1500,SCT,2500,BKN,3000,,,MVFR,,,,,,,,,,,,METAR,50.0
EHJR 140255Z AUTO 33032KT //// // ///////// 08/05 Q1008 RE// W///H34,EHJR,2019-01-14T02:55:00Z,53.22,3.22,8.0,5.0,330,32,,,29.763779,,,TRUE,,,,,,,,,,,,,,,,,,,,,,,,,,,,METAR,50.0
EHJA 140255Z AUTO 01018KT 9999 FEW007/// SCT011/// BKN016/// 07/05 Q1008 W///H///,EHJA,2019-01-14T02:55:00Z,53.82,2.95,7.0,5.0,10,18,,6.21,29.763779,,,TRUE,,,,,,,,FEW,700,SCT,1100,BKN,1600,,,MVFR,,,,,,,,,,,,METAR,50.0
EHHW 140255Z AUTO 35026KT //// // FEW025/// SCT038/// 06/02 Q1004 RE// W///H///,EHHW,2019-01-14T02:55:00Z,54.03,6.03,6.0,2.0,350,26,,,29.64567,,,TRUE,,,,,,,,FEW,2500,SCT,3800,,,,,,,,,,,,,,,,,METAR,0.0
EHFZ 140255Z AUTO 34022KT 9999 FEW020 SCT027 BKN033 07/02 Q1007 W///H///,EHFZ,2019-01-14T02:55:00Z,54.12,4.02,7.0,2.0,340,22,,6.21,29.734253,,,TRUE,,,,,,,,FEW,2000,SCT,2700,BKN,3300,,,VFR,,,,,,,,,,,,METAR,50.0
EHFD 140255Z AUTO 32034KT //// // FEW025/// SCT032/// 06/M00 Q1004 RE// W///H///,EHFD,2019-01-14T02:55:00Z,54.85,4.7,6.0,0.0,320,34,,,29.64567,,,TRUE,,,,,,,,FEW,2500,SCT,3200,,,,,,,,,,,,,,,,,METAR,50.0
EHDV 140255Z AUTO 36022KT 9999 FEW015/// BKN025/// BKN028/// 07/02 Q1008 W///H///,EHDV,2019-01-14T02:55:00Z,54.32,2.93,7.0,2.0,360,22,,6.21,29.763779,,,TRUE,,,,,,,,FEW,1500,BKN,2500,BKN,2800,,,MVFR,,,,,,,,,,,,METAR,50.0
EHAK 140255Z AUTO 35044KT 9999 -RA FEW027/// SCT031/// BKN038/// 04/01 Q1006 W///H///,EHAK,2019-01-14T02:55:00Z,55.42,3.82,4.0,1.0,350,44,,6.21,29.704725,,,TRUE,,,,,,,-RA,FEW,2700,SCT,3100,BKN,3800,,,VFR,,,,,,,,,,,,METAR,50.0
KRKW 140255Z AUTO VRB04G14KT 10SM OVC009 04/03 A3018 RMK A01,KRKW,2019-01-14T02:55:00Z,35.92,-84.68,4.0,3.0,0,4,14,10.0,30.180119,,,TRUE,TRUE,,,,,,,OVC,900,,,,,,,IFR,,,,,,,,,,,,METAR,508.0
KRCV 140255Z AUTO 27005KT 10SM OVC017 M07/M09 A3024 RMK AO2 T10751092,KRCV,2019-01-14T02:55:00Z,37.72,-106.35,-7.5,-9.2,270,5,,10.0,30.239174,,,TRUE,TRUE,,,,,,,OVC,1700,,,,,,,MVFR,,,,,,,,,,,,METAR,2424.0
KRAS 140255Z AUTO 03006KT 10SM CLR 12/07 A3038 RMK AO2 T01190066,KRAS,2019-01-14T02:55:00Z,27.82,-97.08,11.9,6.6,30,6,,10.0,30.380905,,,TRUE,TRUE,,,,,,,CLR,,,,,,,,VFR,,,,,,,,,,,,METAR,2.0
KPYX 140255Z AUTO 15004KT 7SM OVC005 00/00 A3036 RMK AO2 T00021005,KPYX,2019-01-14T02:55:00Z,36.42,-100.75,0.2,-0.5,150,4,,7.0,30.360237,,,TRUE,TRUE,,,,,,,OVC,500,,,,,,,IFR,,,,,,,,,,,,METAR,889.0
KPVE 140255Z AUTO 33007KT 3SM BR OVC005 02/02 A3032 RMK A01,KPVE,2019-01-14T02:55:00Z,35.65,-88.2,2.0,2.0,330,7,,3.0,30.318897,,,TRUE,TRUE,,,,,,BR,OVC,500,,,,,,,IFR,,,,,,,,,,,,METAR,149.0
KPVB 140255Z AUTO 00000KT 10SM OVC018 M02/M04 A3039 RMK AO1 T10221045,KPVB,2019-01-14T02:55:00Z,42.68,-90.43,-2.2,-4.5,0,0,,10.0,30.389763,,,TRUE,TRUE,,,,,,,OVC,1800,,,,,,,MVFR,,,,,,,,,,,,METAR,313.0
KPTD 140255Z AUTO 00000KT 10SM FEW013 SCT026 BKN033 M21/M23 A3043 RMK AO2,KPTD,2019-01-14T02:55:00Z,44.68,-74.95,-21.0,-23.0,0,0,,10.0,30.431103,,,TRUE,TRUE,,,,,,,FEW,1300,SCT,2600,BKN,3300,,,VFR,,,,,,,,,,,,METAR,144.0
KPSN 140255Z AUTO 36004KT 10SM OVC022 03/00 A3044 RMK AO2 T00410005,KPSN,2019-01-14T02:55:00Z,31.78,-95.7,3.0,0.5,360,4,,10.0,30.43996,,,TRUE,TRUE,,,,,,,OVC,2200,,,,,,,MVFR,,,,,,,,,,,,METAR,129.0
KPPQ 140255Z AUTO 01006KT 10SM OVC012 M01/M03 A3043 RMK AO2 T10141031,KPPQ,2019-01-14T02:55:00Z,39.63,-90.78,-1.4,-3.1,10,6,,10.0,30.431103,,,TRUE,TRUE,,,,,,,OVC,1200,,,,,,,MVFR,,,,,,,,,,,,METAR,216.0
KPOY 140255Z AUTO 14009KT 10SM CLR M04/M07 A3017 RMK AO2,KPOY,2019-01-14T02:55:00Z,44.87,-108.8,-4.0,-7.0,140,9,,10.0,30.171259,,,TRUE,TRUE,,,,,,,CLR,,,,,,,,VFR,,,,,,,,,,,,METAR,1552.0
KPHT 140255Z AUTO 34004KT 4SM BR OVC007 01/01 A3033 RMK A01,KPHT,2019-01-14T02:55:00Z,36.33,-88.38,1.0,1.0,340,4,,4.0,30.33071,,,TRUE,TRUE,,,,,,BR,OVC,700,,,,,,,IFR,,,,,,,,,,,,METAR,177.0
KPEQ 140255Z AUTO 03004KT 10SM CLR 05/00 A3032 RMK AO2 T00510000,KPEQ,2019-01-14T02:55:00Z,31.38,-103.52,5.1,0.0,30,4,,10.0,30.318897,,,TRUE,TRUE,,,,,,,CLR,,,,,,,,VFR,,,,,,,,,,,,METAR,797.0
KPCW 140255Z AUTO 03010KT 10SM OVC019 M02/M05 A3032 RMK AO2,KPCW,2019-01-14T02:55:00Z,41.52,-82.87,-2.0,-5.0,30,10,,10.0,30.318897,,,TRUE,TRUE,,,,,,,OVC,1900,,,,,,,MVFR,,,,,,,,,,,,METAR,178.0
KPCD 140255Z AUTO 10SM OVC013 M01/M03 A3040 RMK AO2 T10101030,KPCD,2019-01-14T02:55:00Z,37.87,-89.87,-1.0,-3.0,,,,10.0,30.398623,,,TRUE,TRUE,,,,,,,OVC,1300,,,,,,,MVFR,,,,,,,,,,,,METAR,113.0
KP08 140255Z AUTO 00000KT 10SM BKN060 OVC070 13/10 A3012 RMK AO2,KP08,2019-01-14T02:55:00Z,32.93,-111.43,13.0,10.0,0,0,,10.0,30.121063,,,TRUE,TRUE,,,,,,,BKN,6000,OVC,7000,,,,,VFR,,,,,,,,,,,,METAR,481.0
KOWI 140255Z AUTO 34005KT 10SM OVC010 M01/M02 A3045 RMK AO2,KOWI,2019-01-14T02:55:00Z,38.53,-95.25,-1.0,-2.0,340,5,,10.0,30.448818,,,TRUE,TRUE,,,,,,,OVC,1000,,,,,,,MVFR,,,,,,,,,,,,METAR,292.0
KOKM 140255Z AUTO 34004KT 10SM OVC014 01/M02 A3047 RMK AO2 T00051018,KOKM,2019-01-14T02:55:00Z,35.67,-95.95,0.5,-1.8,340,4,,10.0,30.469488,,,TRUE,TRUE,,,,,,,OVC,1400,,,,,,,MVFR,,,,,,,,,,,,METAR,220.0
KO69 140255Z AUTO 15003KT 10SM CLR 12/08 A2996 RMK A01,KO69,2019-01-14T02:55:00Z,38.25,-122.6,12.0,8.0,150,3,,10.0,29.958662,,,TRUE,TRUE,,,,,,,CLR,,,,,,,,VFR,,,,,,,,,,,,METAR,28.0
KNQA 140255Z AUTO 33007KT 10SM OVC012 03/01 A3036 RMK A01,KNQA,2019-01-14T02:55:00Z,35.35,-89.87,3.0,1.0,330,7,,10.0,30.360237,,,TRUE,TRUE,,,,,,,OVC,1200,,,,,,,MVFR,,,,,,,,,,,,METAR,86.0
KN03 140255Z AUTO 00000KT 10SM CLR M16/M17 A3034 RMK AO2,KN03,2019-01-14T02:55:00Z,42.6,-76.22,-16.0,-17.0,0,0,,10.0,30.339567,,,TRUE,TRUE,,,,,,,CLR,,,,,,,,VFR,,,,,,,,,,,,METAR,366.0
KMZG 140255Z AUTO 12007KT 090V150 10SM FEW027 14/08 A3035 RMK A01,KMZG,2019-01-14T02:55:00Z,27.73,-96.18,14.0,8.0,120,7,,10.0,30.351377,,,TRUE,TRUE,,,,,,,FEW,2700,,,,,,,VFR,,,,,,,,,,,,METAR,29.0
KMVH 140255Z AUTO 27008KT 10SM CLR 00/M14 A3014 RMK AO2,KMVH,2019-01-14T02:55:00Z,46.83,-108.93,0.0,-14.0,270,8,,10.0,30.138779,,,TRUE,TRUE,,,,,,,CLR,,,,,,,,VFR,,,,,,,,,,,,METAR,1355.0
KMRC 140255Z AUTO 31005KT 10SM OVC006 03/03 A3028 RMK A01,KMRC,2019-01-14T02:55:00Z,35.55,-87.18,3.0,3.0,310,5,,10.0,30.280512,,,TRUE,TRUE,,,,,,,OVC,600,,,,,,,IFR,,,,,,,,,,,,METAR,208.0
KMOR 140255Z AUTO 24007KT 2 1/2SM BR OVC003 06/06 A3014 RMK A01,KMOR,2019-01-14T02:55:00Z,36.18,-83.37,6.0,6.0,240,7,,2.5,30.138779,,,TRUE,TRUE,,,,,,BR,OVC,300,,,,,,,LIFR,,,,,,,,,,,,METAR,400.0
KJHN 140255Z AUTO 15005KT 1/2SM FG OVC001 01/00 A3032 RMK AO2 T00120000,KJHN,2019-01-14T02:55:00Z,37.58,-101.73,1.2,0.0,150,5,,0.5,30.318897,,,TRUE,TRUE,,,,,,FG,OVC,100,,,,,,,LIFR,,,,,,,,,,,,METAR,1013.0
KIYA 140255Z AUTO 36006KT 10SM BKN021 05/03 A3037 RMK AO2 T00500025,KIYA,2019-01-14T02:55:00Z,29.98,-92.08,5.0,2.5,360,6,,10.0,30.369095,,,TRUE,TRUE,,,,,,,BKN,2100,,,,,,,MVFR,,,,,,,,,,,,METAR,5.0
KHII 140255Z AUTO 05004KT 10SM CLR 13/03 A3011 RMK AO2,KHII,2019-01-14T02:55:00Z,34.57,-114.37,13.0,3.0,50,4,,10.0,30.109253,,,TRUE,TRUE,,,,,,,CLR,,,,,,,,VFR,,,,,,,,,,,,METAR,238.0
KGVE 140255Z AUTO 02004KT 10SM SCT013 SCT022 OVC055 M01/M02 A3025 RMK AO1 T10151022,KGVE,2019-01-14T02:55:00Z,38.15,-78.17,-1.5,-2.2,20,4,,10.0,30.250984,,,TRUE,TRUE,,,,,,,SCT,1300,SCT,2200,OVC,5500,,,VFR,,,,,,,,,,,,METAR,138.0
KFRR 140255Z AUTO 08005KT 1 3/4SM SCT006 OVC012 M02/M03 A3027 RMK AO1,KFRR,2019-01-14T02:55:00Z,38.92,-78.25,-2.0,-3.0,80,5,,1.75,30.268702,,,TRUE,TRUE,,,,,,,SCT,600,OVC,1200,,,,,IFR,,,,,,,,,,,,METAR,216.0
KEMM 140255Z AUTO 00000KT 10SM CLR M16/M18 A3025 RMK AO2,KEMM,2019-01-14T02:55:00Z,41.82,-110.55,-16.0,-18.0,0,0,,10.0,30.250984,,,TRUE,TRUE,,,,,,,CLR,,,,,,,,VFR,,,,,,,,,,,,METAR,2220.0
KBWP 140255Z AUTO 28004KT 10SM OVC012 M03/M05 A3025 RMK AO1,KBWP,2019-01-14T02:55:00Z,46.25,-96.62,-3.0,-5.0,280,4,,10.0,30.250984,,,TRUE,TRUE,,,,,,,OVC,1200,,,,,,,MVFR,,,,,,,,,,,,SPECI,295.0
KACJ 140255Z AUTO 30003KT 10SM CLR 10/05 A3024 RMK AO2,KACJ,2019-01-14T02:55:00Z,32.12,-84.18,10.0,5.0,300,3,,10.0,30.239174,,,TRUE,TRUE,,,,,,,CLR,,,,,,,,VFR,,,,,,,,,,,,METAR,143.0
K5M9 140255Z AUTO 34005KT 10SM OVC007 00/00 A3033 RMK AO2 T00001005,K5M9,2019-01-14T02:55:00Z,37.33,-88.12,0.0,-0.5,340,5,,10.0,30.33071,,,TRUE,TRUE,,,,,,,OVC,700,,,,,,,IFR,,,,,,,,,,,,METAR,199.0
K21D 140255Z AUTO 18005KT 10SM 00/M03 A3030 RMK AO2,K21D,2019-01-14T02:55:00Z,45.0,-92.85,0.0,-3.0,180,5,,10.0,30.301182,,,TRUE,TRUE,,,,,,,,,,,,,,,,,,,,,,,,,,,SPECI,285.0
KVES 140255Z AUTO 05009KT 10SM OVC010 M03/M03 A3030 RMK AO2,KVES,2019-01-14T02:55:00Z,40.2,-84.53,-3.0,-3.0,50,9,,10.0,30.301182,,,TRUE,TRUE,,,,,,,OVC,1000,,,,,,,MVFR,,,,,,,,,,,,SPECI,307.0
KVER 140255Z AUTO 00000KT 7SM OVC013 M01/ A3044 RMK AO2 T1007,KVER,2019-01-14T02:55:00Z,38.95,-92.68,-0.7,,0,0,,7.0,30.43996,,,TRUE,TRUE,,,,,,,OVC,1300,,,,,,,MVFR,,,,,,,,,,,,METAR,218.0
KRQO 140255Z AUTO 01009KT OVC016 00/M02 A3046 RMK AO2 PWINO T00001024,KRQO,2019-01-14T02:55:00Z,35.47,-98.0,0.0,-2.4,10,9,,,30.46063,,,TRUE,TRUE,,,,,TRUE,,OVC,1600,,,,,,,,,,,,,,,,,,,METAR,432.0
KEBS 140255Z AUTO 20009KT 7SM CLR M07/M08 A3035 RMK AO2,KEBS,2019-01-14T02:55:00Z,42.42,-93.87,-7.0,-8.0,200,9,,7.0,30.351377,,,TRUE,TRUE,,,,,,,CLR,,,,,,,,VFR,,,,,,,,,,,,SPECI,342.0
KTVK 140255Z AUTO 00000KT 10SM OVC014 M03/M04 A3043 RMK AO2,KTVK,2019-01-14T02:55:00Z,40.68,-92.9,-3.0,-4.0,0,0,,10.0,30.431103,,,TRUE,TRUE,,,,,,,OVC,1400,,,,,,,MVFR,,,,,,,,,,,,SPECI,314.0
KMRJ 140255Z AUTO 00000KT 10SM OVC016 M02/M03 A3038 RMK AO2,KMRJ,2019-01-14T02:55:00Z,42.88,-90.23,-2.0,-3.0,0,0,,10.0,30.380905,,,TRUE,TRUE,,,,,,,OVC,1600,,,,,,,MVFR,,,,,,,,,,,,SPECI,359.0
EBLB 140255Z AUTO 30011KT 9999 -RA OVC011/// 03/02 Q1007 GRN,EBLB,2019-01-14T02:55:00Z,50.47,6.17,3.0,2.0,300,11,,6.21,29.734253,,,TRUE,,,,,,,-RA,OVC,1100,,,,,,,MVFR,,,,,,,,,,,,METAR,570.0
EBFS 140255Z AUTO 30014KT 9999 -DZ FEW013/// SCT022/// BKN055/// 05/03 Q1011 WHT,EBFS,2019-01-14T02:55:00Z,50.22,4.65,5.0,3.0,300,14,,6.21,29.852362,,,TRUE,,,,,,,-DZ,FEW,1300,SCT,2200,BKN,5500,,,VFR,,,,,,,,,,,,METAR,299.0
EBFN 140255Z AUTO 32013KT 9999 /// 08/03 Q1014 BLU,EBFN,2019-01-14T02:55:00Z,51.07,2.63,8.0,3.0,320,13,,6.21,29.940945,,,TRUE,,,,,,,,,,,,,,,,,,,,,,,,,,,,SPECI,9.0
EBDT 140255Z AUTO 30012KT 9999 FEW020/// OVC046/// 07/04 Q1010 BLU,EBDT,2019-01-14T02:55:00Z,51.02,5.07,7.0,4.0,300,12,,6.21,29.822834,,,TRUE,,,,,,,,FEW,2000,OVC,4600,,,,,VFR,,,,,,,,,,,,METAR,54.0
EBCV 140255Z AUTO 30014KT 9999 FEW023/// OVC043/// 07/04 Q1013 BLU,EBCV,2019-01-14T02:55:00Z,50.57,3.82,7.0,4.0,300,14,,6.21,29.911417,,,TRUE,,,,,,,,FEW,2300,OVC,4300,,,,,VFR,,,,,,,,,,,,METAR,63.0
EBBL 140255Z AUTO 28008KT 9999 FEW022/// BKN046/// 07/04 Q1009 BLU,EBBL,2019-01-14T02:55:00Z,51.17,5.47,7.0,4.0,280,8,,6.21,29.793306,,,TRUE,,,,,,,,FEW,2200,BKN,4600,,,,,VFR,,,,,,,,,,,,METAR,64.0
EBBE 140255Z AUTO 30012KT 9999 FEW020/// SCT024/// OVC033/// 07/03 Q1011 WHT,EBBE,2019-01-14T02:55:00Z,50.75,4.77,7.0,3.0,300,12,,6.21,29.852362,,,TRUE,,,,,,,,FEW,2000,SCT,2400,OVC,3300,,,VFR,,,,,,,,,,,,METAR,127.0
OPLA 140255Z 32008KT 4000 FU FEW100 08/05 Q1021 NOSIG RMK QFE996 RMK A30.14,OPLA,2019-01-14T02:55:00Z,31.52,74.4,8.0,5.0,320,8,,2.49,30.147638,,,,,,TRUE,,,,FU,FEW,10000,,,,,,,IFR,,,,,,,,,,,,SPECI,217.0
OPKC 140255Z 05013KT 4000 FU NSC 15/08 Q1022 TEMPO 05015G25KT,OPKC,2019-01-14T02:55:00Z,24.88,67.17,15.0,8.0,50,13,,2.49,30.177166,,,,,,,,,,FU,CLR,,,,,,,,IFR,,,,,,,,,,,,SPECI,22.0
OPIS 140255Z 26008KT 5000 HZ NSC 05/01 Q1022 RH77,OPIS,2019-01-14T02:55:00Z,33.55,72.83,5.0,1.0,260,8,,3.11,30.177166,,,,,,,,,,HZ,CLR,,,,,,,,MVFR,,,,,,,,,,,,METAR,537.0
EHFS 140255Z AUTO 32014KT 270V350 9999 FEW024 BKN034 07/04 Q1011 W///H///,EHFS,2019-01-14T02:55:00Z,51.45,3.6,7.0,4.0,320,14,,6.21,29.852362,,,TRUE,,,,,,,,FEW,2400,BKN,3400,,,,,VFR,,,,,,,,,,,,METAR,32.0
NZCM 140255Z 19010KT 9999 FEW015 FEW030 BKN065 BKN080 M02/M06 A2948 RMK AO2A SLP985 SN DSNT SE-SW-W T10201064,NZCM,2019-01-14T02:55:00Z,-77.85,166.67,-2.0,-6.4,190,10,,6.21,29.480314,998.5,,,TRUE,,,,,,,FEW,1500,FEW,3000,BKN,6500,BKN,8000,VFR,,,,,,,,,,,,METAR,8.0
KNKX 140255Z 16004KT 10SM CLR 12/08 A3003 RMK AO2 SLP166 T01220083 53003,KNKX,2019-01-14T02:55:00Z,32.87,-117.13,12.2,8.3,160,4,,10.0,30.029528,1016.6,,,TRUE,,,,,,,CLR,,,,,,,,VFR,0.3,,,,,,,,,,,METAR,146.0
OAJL 140255Z 23002KT 8000 HZ CLR 03/M06 A3032 RMK AO2A SLPNO T00281060 52004,OAJL,2019-01-14T02:55:00Z,34.42,70.47,2.8,-6.0,230,2,,4.97,30.318897,,,,TRUE,,,,,,HZ,CLR,,,,,,,,MVFR,0.4,,,,,,,,,,,METAR,580.0
KMNZ 140255Z AUTO 03006KT 10SM OVC013 02/00 A3042 RMK AO2 T00230001,KMNZ,2019-01-14T02:55:00Z,31.67,-98.15,2.3,0.1,30,6,,10.0,30.41929,,,TRUE,TRUE,,,,,,,OVC,1300,,,,,,,MVFR,,,,,,,,,,,,METAR,396.0
LIVP 140255Z 31012KT CAVOK M01/M06 Q0996 RMK OVC OVC070 MON LIB VAL NIL VIS MIN 9999,LIVP,2019-01-14T02:55:00Z,46.15,11.03,-1.0,-6.0,310,12,,6.21,29.409449,,,,,,,,,,,CAVOK,,,,,,,,VFR,,,,,,,,,,,,SPECI,2129.0
LIRK 140255Z AUTO 29017KT //// M02/M07 Q1002,LIRK,2019-01-14T02:55:00Z,42.47,12.97,-2.0,-7.0,290,17,,,29.586615,,,TRUE,,,,,,,,,,,,,,,,,,,,,,,,,,,,SPECI,1875.0
LIQC 140255Z 23002KT 9999 FEW025 09/06 Q1005 RMK FEW QUK / QUL / VIS MAR 20 KM VIS MIN 9999,LIQC,2019-01-14T02:55:00Z,40.55,14.2,9.0,6.0,230,2,,6.21,29.675198,,,,,,,,,,,FEW,2500,,,,,,,VFR,,,,,,,,,,,,SPECI,269.0
LIPS 140255Z 03006KT 3000 BR NSC M02/M02 Q1001 RMK SCT SCT200 VIS MIN 3000 WIND THR26 02002KT WIND THR08 06003KT YLO,LIPS,2019-01-14T02:55:00Z,45.67,12.08,-2.0,-2.0,30,6,,1.86,29.557087,,,,,,,,,,BR,CLR,,,,,,,,IFR,,,,,,,,,,,,SPECI,41.0
LIMK 140255Z 29029KT CAVOK 10/00 Q1000 RMK BKN BKN200 VAL FOSCHIA VIS MIN 9999,LIMK,2019-01-14T02:55:00Z,45.02,7.72,10.0,0.0,290,29,,6.21,29.52756,,,,,,,,,,,CAVOK,,,,,,,,VFR,,,,,,,,,,,,SPECI,710.0
LIED 140255Z 31013KT 8000 SCT010 BKN025 12/10 Q1009 RMK OVC VIS MIN 8000 WIND THR35 /////KT WIND THR17 /////KT BLU,LIED,2019-01-14T02:55:00Z,39.35,8.97,12.0,10.0,310,13,,4.97,29.793306,,,,,,,,,,,SCT,1000,BKN,2500,,,,,MVFR,,,,,,,,,,,,SPECI,28.0
LIBY 140255Z 26003KT CAVOK 07/04 Q1007 RMK SKC QUK / QUL / VIS MAR 10 KM VIS MIN 9999,LIBY,2019-01-14T02:55:00Z,39.82,18.35,7.0,4.0,260,3,,6.21,29.734253,,,,,,,,,,,CAVOK,,,,,,,,VFR,,,,,,,,,,,,SPECI,112.0
FJDG 140255Z 14005KT 9999 FEW017 SCT080 BKN220 27/26 A2991 RMK SLP125 8/172 T02720261 52014,FJDG,2019-01-14T02:55:00Z,-7.32,72.42,27.2,26.1,140,5,,6.21,29.911417,1012.5,,,,,,,,,,FEW,1700,SCT,8000,BKN,22000,,,VFR,1.4,,,,,,,,,,,SPECI,3.0
EHDL 140255Z AUTO 30010KT 260V350 9999 BKN016 OVC019 06/05 Q1007 REDZ WHT,EHDL,2019-01-14T02:55:00Z,52.07,5.87,6.0,5.0,300,10,,6.21,29.734253,,,TRUE,,,,,,,,BKN,1600,OVC,1900,,,,,MVFR,,,,,,,,,,,,METAR,52.0
EHLW 140255Z AUTO 36010KT 9999 OVC034 06/03 Q1006 BLU,EHLW,2019-01-14T02:55:00Z,53.22,5.75,6.0,3.0,360,10,,6.21,29.704725,,,TRUE,,,,,,,,OVC,3400,,,,,,,VFR,,,,,,,,,,,,METAR,2.0
KBYS 140255Z AUTO 18002KT 10SM FEW060 08/03 A3013 RMK AO2 SLP230 WND DATA ESTMD T00760031 52016,KBYS,2019-01-14T02:55:00Z,35.28,-116.62,7.6,3.1,180,2,,10.0,30.129921,1023.0,,TRUE,TRUE,,,,,,,FEW,6000,,,,,,,VFR,1.6,,,,,,,,,,,METAR,716.0
EHWO 140255Z AUTO 30009KT 230V360 9999 NCD 07/04 Q1010 BLU,EHWO,2019-01-14T02:55:00Z,51.45,4.32,7.0,4.0,300,9,,6.21,29.822834,,,TRUE,,,,,,,,CLR,,,,,,,,VFR,,,,,,,,,,,,METAR,17.0
KJSO 140255Z AUTO 01004KT 10SM OVC021 03/00 A3042 RMK AO2 T00390003,KJSO,2019-01-14T02:55:00Z,31.87,-95.22,3.9,0.3,10,4,,10.0,30.41929,,,TRUE,TRUE,,,,,,,OVC,2100,,,,,,,MVFR,,,,,,,,,,,,METAR,206.0
KETH 140255Z AUTO 20007KT 10SM OVC011 M02/M04 A3024 RMK AO2,KETH,2019-01-14T02:55:00Z,45.78,-96.55,-2.0,-4.0,200,7,,10.0,30.239174,,,TRUE,TRUE,,,,,,,OVC,1100,,,,,,,MVFR,,,,,,,,,,,,METAR,313.0
KELO 140255Z AUTO 26010KT 7SM OVC010 M02/M04 A3017 RMK AO2 TSNO,KELO,2019-01-14T02:55:00Z,47.82,-91.82,-2.0,-4.0,260,10,,7.0,30.171259,,,TRUE,TRUE,,,TRUE,,,,OVC,1000,,,,,,,MVFR,,,,,,,,,,,,METAR,443.0
PAKN 140254Z 14013KT 10SM CLR A2936 RMK AO2 SLPNO 51030 $,PAKN,2019-01-14T02:54:00Z,58.68,-156.65,,,140,13,,10.0,29.359253,,,,TRUE,TRUE,,,,,,CLR,,,,,,,,VFR,3.0,,,,,,,,,,,METAR,17.0
KCAR 140254Z AUTO 27003KT 10SM CLR M20/M23 A3034 RMK AO2 SLP295 I1000 I3000 T12001228 58001,KCAR,2019-01-14T02:54:00Z,46.87,-68.02,-20.0,-22.8,270,3,,10.0,30.339567,1029.5,,TRUE,TRUE,,,,,,,CLR,,,,,,,,VFR,-0.1,,,,,,,,,,,METAR,191.0
KBAD 140254Z 01005KT 10SM OVC028 05/00 A3041 RMK A02A SLP302 T00540002 52010 $,KBAD,2019-01-14T02:54:00Z,32.5,-93.67,5.4,0.2,10,5,,10.0,30.410433,1030.2,,,TRUE,TRUE,,,,,,OVC,2800,,,,,,,MVFR,1.0,,,,,,,,,,,METAR,51.0
KMTP 140254Z AUTO 06009G18KT M01/M04 A3031 RMK AO1 SLP265 T10111044 56013,KMTP,2019-01-14T02:54:00Z,41.07,-71.92,-1.1,-4.4,60,9,18,,30.31004,1026.5,,TRUE,TRUE,,,,,,,,,,,,,,,,-1.3,,,,,,,,,,,METAR,2.0
KCOS 140254Z 15005KT 1/4SM R17L/1200V1400FT FZFG VV002 M02/M02 A3023 RMK AO2 SLP288 T10171022 51008 $,KCOS,2019-01-14T02:54:00Z,38.82,-104.68,-1.7,-2.2,150,5,,0.25,30.230314,1028.8,,,TRUE,TRUE,,,,,FZFG,OVX,0,,,,,,,LIFR,0.8,,,,,,,,,,200,METAR,1856.0
KMIV 140254Z AUTO 02012KT 10SM FEW055 OVC100 M02/M07 A3023 RMK AO2 SLP236 T10171072 55000 TSNO,KMIV,2019-01-14T02:54:00Z,39.37,-75.08,-1.7,-7.2,20,12,,10.0,30.230314,1023.6,,TRUE,TRUE,,,TRUE,,,,FEW,5500,OVC,10000,,,,,VFR,0.0,,,,,,,,,,,METAR,23.0
KDDH 140254Z AUTO 00000KT 10SM CLR M13/M17 A3035 RMK AO2 SLP296 T11331172 53000,KDDH,2019-01-14T02:54:00Z,42.9,-73.25,-13.3,-17.2,0,0,,10.0,30.351377,1029.6,,TRUE,TRUE,,,,,,,CLR,,,,,,,,VFR,0.0,,,,,,,,,,,METAR,244.0
KDEC 140254Z 36007KT 6SM BR CLR M07/M08 A3039 RMK AO2 SLP302 T10671083 51007 $,KDEC,2019-01-14T02:54:00Z,39.83,-88.85,-6.7,-8.3,360,7,,6.0,30.389763,1030.2,,,TRUE,TRUE,,,,,BR,CLR,,,,,,,,VFR,0.7,,,,,,,,,,,METAR,207.0
KMRY 140254Z 06003KT 10SM CLR 11/07 A2995 RMK AO2 SLP153 T01110067 53002 $,KMRY,2019-01-14T02:54:00Z,36.58,-121.85,11.1,6.7,60,3,,10.0,29.949802,1015.3,,,TRUE,TRUE,,,,,,CLR,,,,,,,,VFR,0.2,,,,,,,,,,,METAR,66.0
KMVL 140254Z AUTO 00000KT 10SM CLR M23/M25 A3042 RMK AO2 SLP328 I3000 T12281250 58005 $,KMVL,2019-01-14T02:54:00Z,44.53,-72.62,-22.8,-25.0,0,0,,10.0,30.41929,1032.8,,TRUE,TRUE,TRUE,,,,,,CLR,,,,,,,,VFR,-0.5,,,,,,,,,,,METAR,234.0
KOFP 140254Z AUTO 35005KT 3SM BR BKN009 OVC012 M01/M02 A3024 RMK AO2 SNE40 CIG 006V010 SLP242 P0000 60006 I3000 T10061022 53005,KOFP,2019-01-14T02:54:00Z,37.7,-77.43,-0.6,-2.2,350,5,,3.0,30.239174,1024.2,,TRUE,TRUE,,,,,,BR,BKN,900,OVC,1200,,,,,IFR,0.5,,,,,0.005,0.06,,,,,METAR,62.0
KOLM 140254Z 00000KT 10SM BCFG SCT002 00/M01 A3012 RMK AO2 SLP200 T00001006 56003,KOLM,2019-01-14T02:54:00Z,46.97,-122.9,0.0,-0.6,0,0,,10.0,30.121063,1020.0,,,TRUE,,,,,,BCFG,SCT,200,,,,,,,VFR,-0.3,,,,,,,,,,,METAR,58.0
KOLS 140254Z AUTO 09004KT 10SM CLR 08/04 A3012 RMK AO2 SLP178 T00830039 53010,KOLS,2019-01-14T02:54:00Z,31.42,-110.85,8.3,3.9,90,4,,10.0,30.121063,1017.8,,TRUE,TRUE,,,,,,,CLR,,,,,,,,VFR,1.0,,,,,,,,,,,METAR,1184.0
KORH 140254Z 03005KT 10SM CLR M08/M14 A3030 RMK AO2 SLP283 T10831144 55003,KORH,2019-01-14T02:54:00Z,42.27,-71.87,-8.3,-14.4,30,5,,10.0,30.301182,1028.3,,,TRUE,,,,,,,CLR,,,,,,,,VFR,-0.3,,,,,,,,,,,METAR,304.0
KLBT 140254Z AUTO 36009KT 10SM OVC009 03/01 A3018 RMK AO2 SLP221 T00330011 52016,KLBT,2019-01-14T02:54:00Z,34.6,-79.07,3.3,1.1,360,9,,10.0,30.180119,1022.1,,TRUE,TRUE,,,,,,,OVC,900,,,,,,,IFR,1.6,,,,,,,,,,,METAR,37.0
KLAF 140254Z AUTO 01003KT 10SM SCT035 M05/M08 A3037 RMK AO2 SLP292 T10501083 51007,KLAF,2019-01-14T02:54:00Z,40.42,-86.93,-5.0,-8.3,10,3,,10.0,30.369095,1029.2,,TRUE,TRUE,,,,,,,SCT,3500,,,,,,,VFR,0.7,,,,,,,,,,,METAR,182.0
KVAY 140254Z AUTO 04007G15KT 10SM CLR M02/M09 A3028 RMK AO2 SLP253 T10171089 53003,KVAY,2019-01-14T02:54:00Z,39.93,-74.83,-1.7,-8.9,40,7,15,10.0,30.280512,1025.3,,TRUE,TRUE,,,,,,,CLR,,,,,,,,VFR,0.3,,,,,,,,,,,METAR,15.0
KUZA 140254Z AUTO 02004KT 10SM OVC006 03/02 A3019 RMK AO2 SLP232 T00280022 51012 $,KUZA,2019-01-14T02:54:00Z,34.98,-81.05,2.8,2.2,20,4,,10.0,30.188976,1023.2,,TRUE,TRUE,TRUE,,,,,,OVC,600,,,,,,,IFR,1.2,,,,,,,,,,,METAR,202.0
KUIN 140254Z AUTO 01008KT 10SM FEW040 M07/M08 A3042 RMK AO2 SLP312 T10671083 51006,KUIN,2019-01-14T02:54:00Z,39.95,-91.2,-6.7,-8.3,10,8,,10.0,30.41929,1031.2,,TRUE,TRUE,,,,,,,FEW,4000,,,,,,,VFR,0.6,,,,,,,,,,,METAR,234.0
KTQE 140254Z AUTO 20007KT 5SM BR BKN012 M03/M04 A3039 RMK AO2 SLP301 T10331039 58001 $,KTQE,2019-01-14T02:54:00Z,41.77,-96.18,-3.3,-3.9,200,7,,5.0,30.389763,1030.1,,TRUE,TRUE,TRUE,,,,,BR,BKN,1200,,,,,,,MVFR,-0.1,,,,,,,,,,,METAR,312.0
KTAD 140254Z AUTO 32004KT 10SM OVC120 M01/M02 A3024 RMK AO2 SLP257 T10111022 51008,KTAD,2019-01-14T02:54:00Z,37.27,-104.33,-1.1,-2.2,320,4,,10.0,30.239174,1025.7,,TRUE,TRUE,,,,,,,OVC,12000,,,,,,,VFR,0.8,,,,,,,,,,,METAR,1756.0
KSYR 140254Z 00000KT 10SM FEW200 M14/M17 A3040 RMK AO2 SLP299 T11441172 55000,KSYR,2019-01-14T02:54:00Z,43.12,-76.1,-14.4,-17.2,0,0,,10.0,30.398623,1029.9,,,TRUE,,,,,,,FEW,20000,,,,,,,VFR,0.0,,,,,,,,,,,METAR,127.0
KSUS 140254Z 36003KT 4SM BR OVC017 M01/M03 A3042 RMK AO2 SLP310 T10061028 51009 $,KSUS,2019-01-14T02:54:00Z,38.65,-90.65,-0.6,-2.8,360,3,,4.0,30.41929,1031.0,,,TRUE,TRUE,,,,,BR,OVC,1700,,,,,,,MVFR,0.9,,,,,,,,,,,METAR,141.0
KSLC 140254Z 35006KT 10SM BKN018 M03/M06 A3031 RMK AO2 SLP286 T10281056 53007,KSLC,2019-01-14T02:54:00Z,40.77,-111.97,-2.8,-5.6,350,6,,10.0,30.31004,1028.6,,,TRUE,,,,,,,BKN,1800,,,,,,,MVFR,0.7,,,,,,,,,,,METAR,1286.0
KSJN 140254Z AUTO 19004KT 10SM SCT032 OVC044 02/M01 A3018 RMK AO2 SLP222 T00171006 51012,KSJN,2019-01-14T02:54:00Z,34.52,-109.38,1.7,-0.6,190,4,,10.0,30.180119,1022.2,,TRUE,TRUE,,,,,,,SCT,3200,OVC,4400,,,,,VFR,1.2,,,,,,,,,,,METAR,1745.0
KSET 140254Z AUTO 33004KT 10SM OVC017 M01/M03 A3043 RMK AO2 SLP307 T10111033 53005,KSET,2019-01-14T02:54:00Z,38.93,-90.43,-1.1,-3.3,330,4,,10.0,30.431103,1030.7,,TRUE,TRUE,,,,,,,OVC,1700,,,,,,,MVFR,0.5,,,,,,,,,,,METAR,134.0
KPNE 140254Z 04010KT 10SM BKN110 M01/M11 A3030 RMK AO2 SLP260 T10111106 53005,KPNE,2019-01-14T02:54:00Z,40.08,-75.02,-1.1,-10.6,40,10,,10.0,30.301182,1026.0,,,TRUE,,,,,,,BKN,11000,,,,,,,VFR,0.5,,,,,,,,,,,METAR,28.0
KPLN 140254Z AUTO 00000KT 10SM CLR M17/M19 A3036 RMK AO2 SLP300 I3000 T11671189 57016,KPLN,2019-01-14T02:54:00Z,45.57,-84.8,-16.7,-18.9,0,0,,10.0,30.360237,1030.0,,TRUE,TRUE,,,,,,,CLR,,,,,,,,VFR,-1.6,,,,,,,,,,,METAR,217.0
KPIA 140254Z 35003KT 10SM CLR M06/M08 A3042 RMK AO2 SLP310 T10561078 51007 $,KPIA,2019-01-14T02:54:00Z,40.67,-89.68,-5.6,-7.8,350,3,,10.0,30.41929,1031.0,,,TRUE,TRUE,,,,,,CLR,,,,,,,,VFR,0.7,,,,,,,,,,,METAR,205.0
KPHL 140254Z 03015G18KT 10SM FEW065 BKN110 OVC150 M01/M10 A3028 RMK AO2 SLP254 T10111100 53002 $,KPHL,2019-01-14T02:54:00Z,39.87,-75.23,-1.1,-10.0,30,15,18,10.0,30.280512,1025.4,,,TRUE,TRUE,,,,,,FEW,6500,BKN,11000,OVC,15000,,,VFR,0.2,,,,,,,,,,,METAR,18.0
KPHF 140254Z 01010G15KT 10SM -RA OVC010 01/00 A3015 RMK AO2 RAE06B35 SLP208 P0000 60000 T00110000 51004 $,KPHF,2019-01-14T02:54:00Z,37.13,-76.5,1.1,0.0,10,10,15,10.0,30.15059,1020.8,,,TRUE,TRUE,,,,,-RA,OVC,1000,,,,,,,MVFR,0.4,,,,,0.005,0.005,,,,,METAR,12.0
KMOT 140254Z 32005KT 9SM CLR M09/M11 A3018 RMK AO2 SLP255 T10891106 51009,KMOT,2019-01-14T02:54:00Z,48.25,-101.27,-8.9,-10.6,320,5,,9.0,30.180119,1025.5,,,TRUE,,,,,,,CLR,,,,,,,,VFR,0.9,,,,,,,,,,,METAR,519.0
KRBL 140254Z AUTO 28007KT 10SM CLR 10/03 A2998 RMK AO2 SLP152 T01000033 55002,KRBL,2019-01-14T02:54:00Z,40.15,-122.25,10.0,3.3,280,7,,10.0,29.97933,1015.2,,TRUE,TRUE,,,,,,,CLR,,,,,,,,VFR,-0.2,,,,,,,,,,,METAR,104.0
KLWT 140254Z AUTO 16007KT 10SM CLR M03/M12 A3013 RMK AO2 SLP245 T10281122 51002,KLWT,2019-01-14T02:54:00Z,47.03,-109.47,-2.8,-12.2,160,7,,10.0,30.129921,1024.5,,TRUE,TRUE,,,,,,,CLR,,,,,,,,VFR,0.2,,,,,,,,,,,METAR,1270.0
KLWM 140254Z 00000KT 10SM CLR M08/M12 A3039 RMK AO2 SLP295 T10831122 58007 $,KLWM,2019-01-14T02:54:00Z,42.72,-71.13,-8.3,-12.2,0,0,,10.0,30.389763,1029.5,,,TRUE,TRUE,,,,,,CLR,,,,,,,,VFR,-0.7,,,,,,,,,,,METAR,54.0
KLNK 140254Z 24010KT 8SM OVC011 M02/M04 A3041 RMK AO2 SLP313 T10171044 58007,KLNK,2019-01-14T02:54:00Z,40.85,-96.77,-1.7,-4.4,240,10,,8.0,30.410433,1031.3,,,TRUE,,,,,,,OVC,1100,,,,,,,MVFR,-0.7,,,,,,,,,,,METAR,364.0
KLEX 140254Z 01008KT 7SM OVC008 00/M02 A3025 RMK AO2 SNE0155 SLP251 P0000 60000 T00001022 51011,KLEX,2019-01-14T02:54:00Z,38.03,-84.6,0.0,-2.2,10,8,,7.0,30.250984,1025.1,,,TRUE,,,,,,,OVC,800,,,,,,,IFR,1.1,,,,,0.005,0.005,,,,,METAR,300.0
KMGJ 140254Z AUTO 04007KT 10SM CLR M08/M14 A3034 RMK AO2 SLP278 T10781144 51004,KMGJ,2019-01-14T02:54:00Z,41.52,-74.27,-7.8,-14.4,40,7,,10.0,30.339567,1027.8,,TRUE,TRUE,,,,,,,CLR,,,,,,,,VFR,0.4,,,,,,,,,,,METAR,108.0
KMFI 140254Z AUTO 21006KT 10SM CLR M07/M08 A3032 RMK AO2 SLP290 T10721083 56006 $,KMFI,2019-01-14T02:54:00Z,44.63,-90.18,-7.2,-8.3,210,6,,10.0,30.318897,1029.0,,TRUE,TRUE,TRUE,,,,,,CLR,,,,,,,,VFR,-0.6,,,,,,,,,,,METAR,389.0
KMEM 140254Z 33007KT 10SM OVC013 03/02 A3036 RMK AO2 DZE0158 SLP283 P0000 60000 T00330017 53009,KMEM,2019-01-14T02:54:00Z,35.07,-89.98,3.3,1.7,330,7,,10.0,30.360237,1028.3,,,TRUE,,,,,,,OVC,1300,,,,,,,MVFR,0.9,,,,,0.005,0.005,,,,,METAR,86.0
KCRW 140254Z 31004KT 4SM -SN BR OVC004 01/00 A3019 RMK AO2 SLP231 CIG 003V006 VLY FG P0000 60001 T00060000 53014 $,KCRW,2019-01-14T02:54:00Z,38.38,-81.58,0.6,0.0,310,4,,4.0,30.188976,1023.1,,,TRUE,TRUE,,,,,-SN BR,OVC,400,,,,,,,LIFR,1.4,,,,,0.005,0.01,,,,,METAR,309.0
KCOU 140254Z 31004KT 7SM OVC009 M01/M02 A3043 RMK AO2 SLP312 T10111022 51008,KCOU,2019-01-14T02:54:00Z,38.82,-92.22,-1.1,-2.2,310,4,,7.0,30.431103,1031.2,,,TRUE,,,,,,,OVC,900,,,,,,,IFR,0.8,,,,,,,,,,,METAR,271.0
KAKQ 140254Z AUTO 36008G15KT 10SM OVC008 01/M01 A3017 RMK AO2 UPE01 CIG 007V011 SLP219 P0000 60000 T00061011 53008,KAKQ,2019-01-14T02:54:00Z,36.98,-77.0,0.6,-1.1,360,8,15,10.0,30.171259,1021.9,,TRUE,TRUE,,,,,,,OVC,800,,,,,,,IFR,0.8,,,,,0.005,0.005,,,,,METAR,34.0
KAPN 140254Z AUTO 19004KT 10SM OVC015 M06/M09 A3038 RMK AO2 SLP300 T10611089 58012,KAPN,2019-01-14T02:54:00Z,45.07,-83.57,-6.1,-8.9,190,4,,10.0,30.380905,1030.0,,TRUE,TRUE,,,,,,,OVC,1500,,,,,,,MVFR,-1.2,,,,,,,,,,,METAR,210.0
KAPC 140254Z 07008KT 10SM CLR 13/06 A2995 RMK AO2 SLP135 T01330061 56001,KAPC,2019-01-14T02:54:00Z,38.2,-122.28,13.3,6.1,70,8,,10.0,29.949802,1013.5,,,TRUE,,,,,,,CLR,,,,,,,,VFR,-0.1,,,,,,,,,,,METAR,13.0
KALO 140254Z AUTO 00000KT 6SM BR CLR M06/M07 A3039 RMK AO2 SLP306 T10561072 57002,KALO,2019-01-14T02:54:00Z,42.55,-92.4,-5.6,-7.2,0,0,,6.0,30.389763,1030.6,,TRUE,TRUE,,,,,,BR,CLR,,,,,,,,VFR,-0.2,,,,,,,,,,,METAR,264.0
KAKR 140254Z AUTO 02005KT 10SM CLR M04/M08 A3026 RMK AO2 SLP261 T10391078 53008,KAKR,2019-01-14T02:54:00Z,41.03,-81.47,-3.9,-7.8,20,5,,10.0,30.259842,1026.1,,TRUE,TRUE,,,,,,,CLR,,,,,,,,VFR,0.8,,,,,,,,,,,METAR,363.0
KAUW 140254Z AUTO 20004KT 10SM CLR M06/M08 A3031 RMK AO2 SLP288 T10611083 58009,KAUW,2019-01-14T02:54:00Z,44.93,-89.62,-6.1,-8.3,200,4,,10.0,30.31004,1028.8,,TRUE,TRUE,,,,,,,CLR,,,,,,,,VFR,-0.9,,,,,,,,,,,METAR,362.0
KHWD 140254Z 06005KT 10SM CLR 14/06 A2994 RMK AO2 SLP149 T01390061 53001,KHWD,2019-01-14T02:54:00Z,37.67,-122.12,13.9,6.1,60,5,,10.0,29.940945,1014.9,,,TRUE,,,,,,,CLR,,,,,,,,VFR,0.1,,,,,,,,,,,METAR,21.0
KROC 140254Z 09007KT 9SM -SN OVC014 M06/M09 A3040 RMK AO2 SLP308 PCPN VRY LGT P0000 60000 T10611089 55001 $,KROC,2019-01-14T02:54:00Z,43.12,-77.68,-6.1,-8.9,90,7,,9.0,30.398623,1030.8,,,TRUE,TRUE,,,,,-SN,OVC,1400,,,,,,,MVFR,-0.1,,,,,0.005,0.005,,,,,METAR,178.0
KROA 140254Z 02006KT 10SM FEW027 OVC034 M01/M02 A3022 RMK AO2 SLP244 T10061022 53008,KROA,2019-01-14T02:54:00Z,37.32,-79.97,-0.6,-2.2,20,6,,10.0,30.221457,1024.4,,,TRUE,,,,,,,FEW,2700,OVC,3400,,,,,VFR,0.8,,,,,,,,,,,METAR,362.0
KRKS 140254Z AUTO 22004KT 1/4SM FZFG VV001 M14/M16 A3028 RMK AO2 SLP357 I3001 T11441156 51008,KRKS,2019-01-14T02:54:00Z,41.6,-109.07,-14.4,-15.6,220,4,,0.25,30.280512,1035.7,,TRUE,TRUE,,,,,,FZFG,OVX,0,,,,,,,LIFR,0.8,,,,,,,,,,100,METAR,2060.0
KRFD 140254Z 00000KT 10SM OVC018 M02/M07 A3041 RMK AO2 SLP309 T10221067 55000 $,KRFD,2019-01-14T02:54:00Z,42.2,-89.1,-2.2,-6.7,0,0,,10.0,30.410433,1030.9,,,TRUE,TRUE,,,,,,OVC,1800,,,,,,,MVFR,0.0,,,,,,,,,,,METAR,221.0
KRDG 140254Z 04010KT 10SM OVC090 M02/M11 A3028 RMK AO2 SLP263 T10221111 53007,KRDG,2019-01-14T02:54:00Z,40.37,-75.97,-2.2,-11.1,40,10,,10.0,30.280512,1026.3,,,TRUE,,,,,,,OVC,9000,,,,,,,VFR,0.7,,,,,,,,,,,METAR,109.0
KPTW 140254Z AUTO 03007KT 10SM OVC095 M03/M12 A3029 RMK AO2 SLP259 T10281122 53005 TSNO $,KPTW,2019-01-14T02:54:00Z,40.23,-75.55,-2.8,-12.2,30,7,,10.0,30.28937,1025.9,,TRUE,TRUE,TRUE,,TRUE,,,,OVC,9500,,,,,,,VFR,0.5,,,,,,,,,,,METAR,92.0
KPSF 140254Z AUTO 00000KT 10SM CLR M11/M16 A3029 RMK AO2 SLP287 T11111161 53001,KPSF,2019-01-14T02:54:00Z,42.43,-73.28,-11.1,-16.1,0,0,,10.0,30.28937,1028.7,,TRUE,TRUE,,,,,,,CLR,,,,,,,,VFR,0.1,,,,,,,,,,,METAR,355.0
KJST 140254Z AUTO 08003KT 10SM BKN037 OVC050 M05/M07 A3016 RMK AO2 SLP248 T10501072 53005,KJST,2019-01-14T02:54:00Z,40.32,-78.83,-5.0,-7.2,80,3,,10.0,30.159449,1024.8,,TRUE,TRUE,,,,,,,BKN,3700,OVC,5000,,,,,VFR,0.5,,,,,,,,,,,METAR,694.0
KJAN 140254Z 34007KT 10SM OVC019 05/01 A3036 RMK AO2 SLP282 T00500006 53010 $,KJAN,2019-01-14T02:54:00Z,32.32,-90.08,5.0,0.6,340,7,,10.0,30.360237,1028.2,,,TRUE,TRUE,,,,,,OVC,1900,,,,,,,MVFR,1.0,,,,,,,,,,,METAR,91.0
KIZG 140254Z AUTO 00000KT 10SM CLR M18/M20 A3038 RMK AO2 SLP301 I3000 T11831200 55004,KIZG,2019-01-14T02:54:00Z,43.98,-70.95,-18.3,-20.0,0,0,,10.0,30.380905,1030.1,,TRUE,TRUE,,,,,,,CLR,,,,,,,,VFR,-0.4,,,,,,,,,,,METAR,135.0
KISW 140254Z AUTO 20003KT 10SM CLR M07/M09 A3037 RMK AO2 SLP301 T10671094 56005 TSNO,KISW,2019-01-14T02:54:00Z,44.37,-89.83,-6.7,-9.4,200,3,,10.0,30.369095,1030.1,,TRUE,TRUE,,,TRUE,,,,CLR,,,,,,,,VFR,-0.5,,,,,,,,,,,METAR,307.0
KIPT 140254Z 33003KT 10SM CLR M03/M14 A3031 RMK AO2 SLP272 T10281144 53007,KIPT,2019-01-14T02:54:00Z,41.25,-76.92,-2.8,-14.4,330,3,,10.0,30.31004,1027.2,,,TRUE,,,,,,,CLR,,,,,,,,VFR,0.7,,,,,,,,,,,METAR,164.0
KIND 140254Z 03006KT 10SM SCT044 M04/M07 A3034 RMK AO2 SLP283 T10441072 51010 $,KIND,2019-01-14T02:54:00Z,39.72,-86.3,-4.4,-7.2,30,6,,10.0,30.339567,1028.3,,,TRUE,TRUE,,,,,,SCT,4400,,,,,,,VFR,1.0,,,,,,,,,,,METAR,241.0
KIMT 140254Z AUTO 17004KT 10SM CLR M09/M11 A3028 RMK AO2 SLP281 T10891111 58015 $,KIMT,2019-01-14T02:54:00Z,45.82,-88.12,-8.9,-11.1,170,4,,10.0,30.280512,1028.1,,TRUE,TRUE,TRUE,,,,,,CLR,,,,,,,,VFR,-1.5,,,,,,,,,,,METAR,349.0
KILN 140254Z AUTO 02011KT 9SM OVC025 M02/M04 A3026 RMK AO2 SLP276 T10221044 53010,KILN,2019-01-14T02:54:00Z,39.43,-83.8,-2.2,-4.4,20,11,,9.0,30.259842,1027.6,,TRUE,TRUE,,,,,,,OVC,2500,,,,,,,MVFR,1.0,,,,,,,,,,,METAR,322.0
MMCZ 140254Z 06004KT 6SM SCT015CB BKN100 24/22 A3011 RMK SLP201 52016 908 60425 8/360 RAB12E18,MMCZ,2019-01-14T02:54:00Z,20.52,-86.92,24.0,22.0,60,4,,6.0,30.109253,1020.1,,,,,,,,,,SCT,1500,BKN,10000,,,,,VFR,1.6,,,,,,4.25,,,,,METAR,5.0
KWLD 140254Z AUTO 02005KT 9SM OVC009 M01/M02 A3046 RMK AO2 SLP327 T10111022 51003,KWLD,2019-01-14T02:54:00Z,37.17,-97.03,-1.1,-2.2,20,5,,9.0,30.46063,1032.7,,TRUE,TRUE,,,,,,,OVC,900,,,,,,,IFR,0.3,,,,,,,,,,,METAR,350.0
KVTA 140254Z AUTO 36004KT 10SM OVC028 M01/M05 A3025 RMK AO2 SLP251 T10111050 53009,KVTA,2019-01-14T02:54:00Z,40.02,-82.47,-1.1,-5.0,360,4,,10.0,30.250984,1025.1,,TRUE,TRUE,,,,,,,OVC,2800,,,,,,,MVFR,0.9,,,,,,,,,,,METAR,268.0
KVSF 140254Z AUTO 00000KT 10SM CLR M15/M16 A3039 RMK AO2 SLP307 I1000 I3000 T11501161 55004,KVSF,2019-01-14T02:54:00Z,43.35,-72.52,-15.0,-16.1,0,0,,10.0,30.389763,1030.7,,TRUE,TRUE,,,,,,,CLR,,,,,,,,VFR,-0.4,,,,,,,,,,,METAR,175.0
PGSN 140254Z 05017G21KT 10SM CLR 29/20 A2982 RMK AO2 SLP118 T02940200 58018 $,PGSN,2019-01-14T02:54:00Z,15.12,145.72,29.4,20.0,50,17,21,10.0,29.819881,1011.8,,,TRUE,TRUE,,,,,,CLR,,,,,,,,VFR,-1.8,,,,,,,,,,,SPECI,65.0
PHOG 140254Z 36007KT 10SM FEW045 SCT050 28/17 A3000 RMK AO2 SLP162 T02780172 53007,PHOG,2019-01-14T02:54:00Z,20.9,-156.43,27.8,17.2,360,7,,10.0,30.0,1016.2,,,TRUE,,,,,,,FEW,4500,SCT,5000,,,,,VFR,0.7,,,,,,,,,,,SPECI,12.0
PHMK 140254Z 04006KT 10SM BKN032 26/18 A3002 RMK AO2 SLP166 T02610178 53006 $,PHMK,2019-01-14T02:54:00Z,21.15,-157.1,26.1,17.8,40,6,,10.0,30.02067,1016.6,,,TRUE,TRUE,,,,,,BKN,3200,,,,,,,VFR,0.6,,,,,,,,,,,SPECI,141.0
KSBY 140254Z 35008KT 2 1/2SM -SN BR OVC011 M01/M01 A3019 RMK AO2 UPB0157E34SNB34 SLP226 P0001 60001 T10061011 53014,KSBY,2019-01-14T02:54:00Z,38.33,-75.5,-0.6,-1.1,350,8,,2.5,30.188976,1022.6,,,TRUE,,,,,,-SN BR,OVC,1100,,,,,,,IFR,1.4,,,,,0.01,0.01,,,,,METAR,19.0
KSBN 140254Z 35004KT 10SM CLR M10/M13 A3037 RMK AO2 SLP299 T11001128 51005 $,KSBN,2019-01-14T02:54:00Z,41.7,-86.32,-10.0,-12.8,350,4,,10.0,30.369095,1029.9,,,TRUE,TRUE,,,,,,CLR,,,,,,,,VFR,0.5,,,,,,,,,,,METAR,237.0
KRST 140254Z 19006KT 10SM CLR M06/M07 A3033 RMK AO2 SLP290 T10561067 58005,KRST,2019-01-14T02:54:00Z,43.9,-92.5,-5.6,-6.7,190,6,,10.0,30.33071,1029.0,,,TRUE,,,,,,,CLR,,,,,,,,VFR,-0.5,,,,,,,,,,,METAR,403.0
PAHN 140254Z AUTO 28006KT 10SM SCT023 OVC031 00/M03 A3006 RMK AO2 SLP180 T00001028 53006 TSNO,PAHN,2019-01-14T02:54:00Z,59.25,-135.52,0.0,-2.8,280,6,,10.0,30.059055,1018.0,,TRUE,TRUE,,,TRUE,,,,SCT,2300,OVC,3100,,,,,VFR,0.6,,,,,,,,,,,METAR,5.0
KAVL 140254Z 00000KT 1 1/4SM BR OVC002 03/03 A3013 RMK AO2 SLP209 T00330028 51008,KAVL,2019-01-14T02:54:00Z,35.43,-82.53,3.3,2.8,0,0,,1.25,30.129921,1020.9,,,TRUE,,,,,,BR,OVC,200,,,,,,,LIFR,0.8,,,,,,,,,,,METAR,670.0
KBFL 140254Z 10013KT 10SM CLR 17/M01 A2997 RMK AO2 SLP148 T01721011 50006,KBFL,2019-01-14T02:54:00Z,35.43,-119.05,17.2,-1.1,100,13,,10.0,29.970472,1014.8,,,TRUE,,,,,,,CLR,,,,,,,,VFR,0.6,,,,,,,,,,,METAR,151.0
KAVP 140254Z 03003KT 10SM CLR M04/M13 A3028 RMK AO2 SLP264 T10441128 53007,KAVP,2019-01-14T02:54:00Z,41.33,-75.72,-4.4,-12.8,30,3,,10.0,30.280512,1026.4,,,TRUE,,,,,,,CLR,,,,,,,,VFR,0.7,,,,,,,,,,,METAR,291.0
KBOS 140254Z 01007KT 10SM OVC022 M03/M09 A3038 RMK AO2 SLP285 T10281089 56010,KBOS,2019-01-14T02:54:00Z,42.37,-71.02,-2.8,-8.9,10,7,,10.0,30.380905,1028.5,,,TRUE,,,,,,,OVC,2200,,,,,,,MVFR,-1.0,,,,,,,,,,,METAR,6.0
KBWI 140254Z 00000KT 4SM BR FEW024 SCT030 OVC055 M02/M04 A3027 RMK AO2 SNE54 SLP253 P0000 60001 T10171044 50007,KBWI,2019-01-14T02:54:00Z,39.17,-76.68,-1.7,-4.4,0,0,,4.0,30.268702,1025.3,,,TRUE,,,,,,BR,FEW,2400,SCT,3000,OVC,5500,,,MVFR,0.7,,,,,0.005,0.01,,,,,METAR,59.0
KBUY 140254Z AUTO 36007KT 9SM OVC006 01/M01 A3019 RMK AO2 CIG 005V011 SLP227 T00111006 51011,KBUY,2019-01-14T02:54:00Z,36.05,-79.47,1.1,-0.6,360,7,,9.0,30.188976,1022.7,,TRUE,TRUE,,,,,,,OVC,600,,,,,,,IFR,1.1,,,,,,,,,,,METAR,180.0
KBUF 140254Z 08009KT 10SM -SN BKN011 M08/M11 A3038 RMK AO2 SNB50 SLP301 P0000 60000 T10831106 53001 $,KBUF,2019-01-14T02:54:00Z,42.93,-78.73,-8.3,-10.6,80,9,,10.0,30.380905,1030.1,,,TRUE,TRUE,,,,,-SN,BKN,1100,,,,,,,MVFR,0.1,,,,,0.005,0.005,,,,,METAR,211.0
KBTV 140254Z 00000KT 10SM CLR M17/M20 A3046 RMK AO2 SLP323 I1000 I3000 T11721200 56007,KBTV,2019-01-14T02:54:00Z,44.47,-73.15,-17.2,-20.0,0,0,,10.0,30.46063,1032.3,,,TRUE,,,,,,,CLR,,,,,,,,VFR,-0.7,,,,,,,,,,,METAR,105.0
MUSC 140254Z VRB01KT 9000 FEW025 18/16 Q1021,MUSC,2019-01-14T02:54:00Z,22.5,-79.95,18.0,16.0,0,1,,5.59,30.147638,,,,,,,,,,,FEW,2500,,,,,,,VFR,,,,,,,,,,,,SPECI,103.0
K1V4 140254Z AUTO M19/M21 A3040 RMK AO1 SLP328 T11941211 56003,K1V4,2019-01-14T02:54:00Z,44.42,-72.02,-19.4,-21.1,,,,,30.398623,1032.8,,TRUE,TRUE,,,,,,,,,,,,,,,,-0.3,,,,,,,,,,,METAR,210.0
KNAK 140254Z AUTO 36007KT 7SM -SN OVC047 00/M04 A3027 RMK AO2 SLP253 P0000 60003 T00001044 50007,KNAK,2019-01-14T02:54:00Z,38.98,-76.48,0.0,-4.4,360,7,,7.0,30.268702,1025.3,,TRUE,TRUE,,,,,,-SN,OVC,4700,,,,,,,VFR,0.7,,,,,0.005,,,,,,SPECI,2.0
KDMH 140254Z AUTO 00/M05 A3028 RMK AO1 SLP253 T00001050 53006,KDMH,2019-01-14T02:54:00Z,39.28,-76.62,0.0,-5.0,,,,,30.280512,1025.3,,TRUE,TRUE,,,,,,,,,,,,,,,,0.6,,,,,,,,,,,METAR,5.0
KBKB 140254Z AUTO VRB05KT 10SM OVC022 05/01 A3036 RMK AO2 SLP312 T00500006 52014,KBKB,2019-01-14T02:54:00Z,31.0,-92.92,5.0,0.6,0,5,,10.0,30.360237,1031.2,,TRUE,TRUE,,,,,,,OVC,2200,,,,,,,MVFR,1.4,,,,,,,,,,,METAR,94.0
PGUM 140254Z 04015KT 10SM BKN055 31/22 A2983 RMK AO2 SLP091 T03060222 58015,PGUM,2019-01-14T02:54:00Z,13.48,144.8,30.6,22.2,40,15,,10.0,29.828741,1009.1,,,TRUE,,,,,,,BKN,5500,,,,,,,VFR,-1.5,,,,,,,,,,,SPECI,91.0
KGSO 140254Z 04006KT 6SM BR OVC005 00/00 A3018 RMK AO2 CIG 004V009 SLP225 T00000000 51010,KGSO,2019-01-14T02:54:00Z,36.1,-79.95,0.0,0.0,40,6,,6.0,30.180119,1022.5,,,TRUE,,,,,,BR,OVC,500,,,,,,,IFR,1.0,,,,,,,,,,,METAR,275.0
KAAO 140254Z AUTO 00000KT 7SM OVC006 M02/M03 A3045 RMK AO2 SLP327 T10221028 53004 $,KAAO,2019-01-14T02:54:00Z,37.75,-97.22,-2.2,-2.8,0,0,,7.0,30.448818,1032.7,,TRUE,TRUE,TRUE,,,,,,OVC,600,,,,,,,IFR,0.4,,,,,,,,,,,METAR,434.0
KACY 140254Z AUTO 02012KT 10SM BKN026 OVC030 M01/M03 A3021 RMK AO2 SLP231 T10061033 58001 $,KACY,2019-01-14T02:54:00Z,39.45,-74.57,-0.6,-3.3,20,12,,10.0,30.209646,1023.1,,TRUE,TRUE,TRUE,,,,,,BKN,2600,OVC,3000,,,,,MVFR,-0.1,,,,,,,,,,,METAR,23.0
K12N 140254Z AUTO 03006KT M06/M13 A3030 RMK AO1 SLP277 T10611128 53002,K12N,2019-01-14T02:54:00Z,41.02,-74.73,-6.1,-12.8,30,6,,,30.301182,1027.7,,TRUE,TRUE,,,,,,,,,,,,,,,,0.2,,,,,,,,,,,METAR,177.0
KEWN 140254Z AUTO 33012G16KT 6SM BR OVC008 03/02 A3012 RMK AO2 SLP200 T00330022 51020,KEWN,2019-01-14T02:54:00Z,35.07,-77.05,3.3,2.2,330,12,16,6.0,30.121063,1020.0,,TRUE,TRUE,,,,,,BR,OVC,800,,,,,,,IFR,2.0,,,,,,,,,,,METAR,3.0
KEVV 140254Z 01007KT 10SM OVC012 00/M01 A3035 RMK AO2 SLP280 T00001011 51014 $,KEVV,2019-01-14T02:54:00Z,38.05,-87.52,0.0,-1.1,10,7,,10.0,30.351377,1028.0,,,TRUE,TRUE,,,,,,OVC,1200,,,,,,,MVFR,1.4,,,,,,,,,,,METAR,117.0
KEUG 140254Z 00000KT 10SM CLR 02/01 A3006 RMK AO2 SLP184 T00220006 56005,KEUG,2019-01-14T02:54:00Z,44.13,-123.22,2.2,0.6,0,0,,10.0,30.059055,1018.4,,,TRUE,,,,,,,CLR,,,,,,,,VFR,-0.5,,,,,,,,,,,METAR,114.0
KECG 140254Z 34021G28KT 10SM OVC009 05/03 A3007 RMK AO2 PK WND 34028/0254 SLP181 60001 T00500028 53014,KECG,2019-01-14T02:54:00Z,36.27,-76.18,5.0,2.8,340,21,28,10.0,30.070866,1018.1,,,TRUE,,,,,,,OVC,900,,,,,,,IFR,1.4,,,,,,0.01,,,,,METAR,11.0
KDYL 140254Z AUTO 04006G15KT 10SM BKN100 M03/M13 A3027 RMK AO2 SLP260 T10281133 53005,KDYL,2019-01-14T02:54:00Z,40.33,-75.12,-2.8,-13.3,40,6,15,10.0,30.268702,1026.0,,TRUE,TRUE,,,,,,,BKN,10000,,,,,,,VFR,0.5,,,,,,,,,,,METAR,117.0
KDSV 140254Z AUTO 00000KT 10SM OVC013 M09/M12 A3039 RMK AO2 SLP313 T10941122 53008,KDSV,2019-01-14T02:54:00Z,42.57,-77.72,-9.4,-12.2,0,0,,10.0,30.389763,1031.3,,TRUE,TRUE,,,,,,,OVC,1300,,,,,,,MVFR,0.8,,,,,,,,,,,METAR,198.0
KDSM 140254Z 19005KT 5SM BR CLR M06/M07 A3041 RMK AO2 SLP314 I1000 I3000 T10611072 58001,KDSM,2019-01-14T02:54:00Z,41.53,-93.67,-6.1,-7.2,190,5,,5.0,30.410433,1031.4,,,TRUE,,,,,,BR,CLR,,,,,,,,MVFR,-0.1,,,,,,,,,,,METAR,295.0
KFIG 140254Z AUTO 35005KT 10SM FEW090 M07/M08 A3024 RMK AO2 SLP266 60000 I1000 I3000 T10671078 53003,KFIG,2019-01-14T02:54:00Z,41.05,-78.42,-6.7,-7.8,350,5,,10.0,30.239174,1026.6,,TRUE,TRUE,,,,,,,FEW,9000,,,,,,,VFR,0.3,,,,,,0.005,,,,,METAR,462.0
KFFZ 140254Z 00000KT 10SM CLR 13/08 A3009 RMK AO2 SLP180 T01330078 53007,KFFZ,2019-01-14T02:54:00Z,33.47,-111.72,13.3,7.8,0,0,,10.0,30.088583,1018.0,,,TRUE,,,,,,,CLR,,,,,,,,VFR,0.7,,,,,,,,,,,METAR,424.0
KGED 140254Z AUTO 03012G22KT 10SM OVC024 01/M03 A3020 RMK AO2 UPE08 SLP227 P0000 60001 T00111033 53003,KGED,2019-01-14T02:54:00Z,38.68,-75.37,1.1,-3.3,30,12,22,10.0,30.200787,1022.7,,TRUE,TRUE,,,,,,,OVC,2400,,,,,,,MVFR,0.3,,,,,0.005,0.01,,,,,METAR,19.0
KGCN 140254Z AUTO 08007KT 10SM OVC060 M01/M04 A3017 RMK AO2 SLP222 T10111039 51008,KGCN,2019-01-14T02:54:00Z,35.95,-112.15,-1.1,-3.9,80,7,,10.0,30.171259,1022.2,,TRUE,TRUE,,,,,,,OVC,6000,,,,,,,VFR,0.8,,,,,,,,,,,METAR,2016.0
KGCK 140254Z 21007KT 1/4SM FZFG VV002 M03/M03 A3035 RMK AO2 SLP305 I1004 I3008 T10281028 50001,KGCK,2019-01-14T02:54:00Z,37.92,-100.72,-2.8,-2.8,210,7,,0.25,30.351377,1030.5,,,TRUE,,,,,,FZFG,OVX,0,,,,,,,LIFR,0.1,,,,,,,,,,200,METAR,877.0
KFZY 140254Z AUTO 00000KT 10SM CLR M14/M17 A3039 RMK AO2 SLP303 I1000 I3000 T11441172 55003,KFZY,2019-01-14T02:54:00Z,43.35,-76.38,-14.4,-17.2,0,0,,10.0,30.389763,1030.3,,TRUE,TRUE,,,,,,,CLR,,,,,,,,VFR,-0.3,,,,,,,,,,,METAR,138.0
KFWA 140254Z 00000KT 10SM CLR M09/M12 A3035 RMK AO2 SLP290 I1000 I3000 T10941117 53005 $,KFWA,2019-01-14T02:54:00Z,40.98,-85.18,-9.4,-11.7,0,0,,10.0,30.351377,1029.0,,,TRUE,TRUE,,,,,,CLR,,,,,,,,VFR,0.5,,,,,,,,,,,METAR,248.0
KMWT 140253Z AUTO 32004KT 10SM OVC019 03/M01 A3038 RMK AO2 SLP297 T00331011 51010,KMWT,2019-01-14T02:53:00Z,34.55,-93.58,3.3,-1.1,320,4,,10.0,30.380905,1029.7,,TRUE,TRUE,,,,,,,OVC,1900,,,,,,,MVFR,1.0,,,,,,,,,,,METAR,214.0
PAKW 140253Z AUTO 02004KT 7SM -RA OVC042 07/07 A2999 RMK SLP156 P0010 60021 T00720072 58001 TSNO VIA AUTODIAL,PAKW,2019-01-14T02:53:00Z,55.58,-133.07,7.2,7.2,20,4,,7.0,29.991142,1015.6,,TRUE,,,,TRUE,,,-RA,OVC,4200,,,,,,,VFR,-0.1,,,,,0.1,0.21,,,,,METAR,15.0
PASC 140253Z 07017KT 5SM BLSN BR SCT016 M26/M28 A3012 RMK AO2 SLP204 T12561283 53002 $,PASC,2019-01-14T02:53:00Z,70.2,-148.47,-25.6,-28.3,70,17,,5.0,30.121063,1020.4,,,TRUE,TRUE,,,,,BLSN BR,SCT,1600,,,,,,,MVFR,0.2,,,,,,,,,,,METAR,15.0
KORB 140253Z AUTO 27005KT 7SM OVC010 M04/M06 A3017 RMK AO2,KORB,2019-01-14T02:53:00Z,48.02,-92.87,-4.0,-6.0,270,5,,7.0,30.171259,,,TRUE,TRUE,,,,,,,OVC,1000,,,,,,,MVFR,,,,,,,,,,,,METAR,397.0
PABE 140253Z 11010KT 10SM BKN036 OVC080 02/01 A2921 RMK SLP895 60004 I3003 T00170006 53020 $ VIA AUTODIAL,PABE,2019-01-14T02:53:00Z,60.78,-161.83,1.7,0.6,110,10,,10.0,29.208662,989.5,,,,TRUE,,,,,,BKN,3600,OVC,8000,,,,,VFR,2.0,,,,,,0.04,,,,,METAR,41.0
KPNC 140253Z AUTO 04005KT 10SM OVC012 00/M03 A3047 RMK AO2 SLP325 T00001028 51005,KPNC,2019-01-14T02:53:00Z,36.73,-97.1,0.0,-2.8,40,5,,10.0,30.469488,1032.5,,TRUE,TRUE,,,,,,,OVC,1200,,,,,,,MVFR,0.5,,,,,,,,,,,METAR,308.0
PATO 140253Z AUTO 11019G36KT 080V150 5SM -RA OVC024 05/01 A2982 RMK AO2 PK WND 13047/0215 SLP099 P0003 60006 T00500011 53002 TSNO $,PATO,2019-01-14T02:53:00Z,60.78,-148.85,5.0,1.1,110,19,36,5.0,29.819881,1009.9,,TRUE,TRUE,TRUE,,TRUE,,,-RA,OVC,2400,,,,,,,MVFR,0.2,,,,,0.03,0.06,,,,,METAR,31.0
PATK 140253Z AUTO 02009G17KT 10SM BKN100 OVC110 M02/M09 A2981 RMK AO2 SLP102 T10171094 50005 TSNO,PATK,2019-01-14T02:53:00Z,62.3,-150.1,-1.7,-9.4,20,9,17,10.0,29.811024,1010.2,,TRUE,TRUE,,,TRUE,,,,BKN,10000,OVC,11000,,,,,VFR,0.5,,,,,,,,,,,METAR,109.0
PASO 140253Z AUTO VRB05KT 5SM -RA BR OVC032 03/02 A2962 RMK AO2 SLP029 P0007 60011 T00330017 53007 TSNO,PASO,2019-01-14T02:53:00Z,59.45,-151.7,3.3,1.7,0,5,,5.0,29.619095,1002.9,,TRUE,TRUE,,,TRUE,,,-RA BR,OVC,3200,,,,,,,MVFR,0.7,,,,,0.07,0.11,,,,,METAR,9.0
PASI 140253Z 35004KT 7SM OVC044 06/06 A2992 RMK AO2 RAE26 SLP133 P0001 60004 T00610056 51001 $,PASI,2019-01-14T02:53:00Z,57.07,-135.35,6.1,5.6,350,4,,7.0,29.920275,1013.3,,,TRUE,TRUE,,,,,,OVC,4400,,,,,,,VFR,0.1,,,,,0.01,0.04,,,,,METAR,5.0
PHLI 140253Z 08006KT 10SM FEW033 BKN055 24/18 A3002 RMK AO2 SLP165 T02440183 53004,PHLI,2019-01-14T02:53:00Z,21.97,-159.33,24.4,18.3,80,6,,10.0,30.02067,1016.5,,,TRUE,,,,,,,FEW,3300,BKN,5500,,,,,VFR,0.4,,,,,,,,,,,METAR,45.0
PHKO 140253Z 36015KT 10SM SCT070 27/17 A2997 RMK AO2 SLP148 T02670167 53001,PHKO,2019-01-14T02:53:00Z,19.73,-156.05,26.7,16.7,360,15,,10.0,29.970472,1014.8,,,TRUE,,,,,,,SCT,7000,,,,,,,VFR,0.1,,,,,,,,,,,METAR,27.0
K6R6 140253Z AUTO 06005KT 05/02 A3030 RMK AO1 SLP257 T00500022 51018 $,K6R6,2019-01-14T02:53:00Z,30.05,-102.22,5.0,2.2,60,5,,,30.301182,1025.7,,TRUE,TRUE,TRUE,,,,,,,,,,,,,,,1.8,,,,,,,,,,,SPECI,701.0
KSFB 140253Z 27008KT 10SM FEW034 SCT050 SCT060 19/17 A3014 RMK AO2 SLP203 T01940167 51009,KSFB,2019-01-14T02:53:00Z,28.77,-81.22,19.4,16.7,270,8,,10.0,30.138779,1020.3,,,TRUE,,,,,,,FEW,3400,SCT,5000,SCT,6000,,,VFR,0.9,,,,,,,,,,,METAR,17.0
KSEG 140253Z AUTO 36006KT 10SM OVC110 M03/M11 A3030 RMK AO2 SLP267 T10331111 53007 $,KSEG,2019-01-14T02:53:00Z,40.82,-76.87,-3.3,-11.1,360,6,,10.0,30.301182,1026.7,,TRUE,TRUE,TRUE,,,,,,OVC,11000,,,,,,,VFR,0.7,,,,,,,,,,,METAR,134.0
KSEA 140253Z 01007KT 10SM CLR 06/01 A3011 RMK AO2 SLP202 T00610011 50000 $,KSEA,2019-01-14T02:53:00Z,47.45,-122.32,6.1,1.1,10,7,,10.0,30.109253,1020.2,,,TRUE,TRUE,,,,,,CLR,,,,,,,,VFR,0.0,,,,,,,,,,,METAR,136.0
KSDM 140253Z 00000KT 10SM CLR 12/09 A3003 RMK AO2 SLP170 T01170094 53004,KSDM,2019-01-14T02:53:00Z,32.58,-117.0,11.7,9.4,0,0,,10.0,30.029528,1017.0,,,TRUE,,,,,,,CLR,,,,,,,,VFR,0.4,,,,,,,,,,,METAR,159.0
KHEI 140253Z AUTO 00000KT 10SM CLR M06/M07 A3014 RMK AO2 SLP249 T10561072 50002,KHEI,2019-01-14T02:53:00Z,46.02,-102.65,-5.6,-7.2,0,0,,10.0,30.138779,1024.9,,TRUE,TRUE,,,,,,,CLR,,,,,,,,VFR,0.2,,,,,,,,,,,METAR,828.0
KHBR 140253Z AUTO 04006KT 10SM OVC013 01/M02 A3045 RMK AO2 SLP324 T00061022 51009,KHBR,2019-01-14T02:53:00Z,34.98,-99.05,0.6,-2.2,40,6,,10.0,30.448818,1032.4,,TRUE,TRUE,,,,,,,OVC,1300,,,,,,,MVFR,0.9,,,,,,,,,,,METAR,473.0
KHBG 140253Z AUTO 33008KT 10SM OVC019 06/02 A3035 RMK AO2 SLP277 T00560017 51014,KHBG,2019-01-14T02:53:00Z,31.27,-89.25,5.6,1.7,330,8,,10.0,30.351377,1027.7,,TRUE,TRUE,,,,,,,OVC,1900,,,,,,,MVFR,1.4,,,,,,,,,,,METAR,44.0
KHAO 140253Z AUTO 34007KT 10SM OVC013 M01/M03 A3030 RMK AO2 SLP268 T10061033 51010,KHAO,2019-01-14T02:53:00Z,39.37,-84.52,-0.6,-3.3,340,7,,10.0,30.301182,1026.8,,TRUE,TRUE,,,,,,,OVC,1300,,,,,,,MVFR,1.0,,,,,,,,,,,METAR,188.0
KGZH 140253Z AUTO 34007KT 10SM OVC027 09/03 A3029 RMK AO2 SLP254 T00940033 52013,KGZH,2019-01-14T02:53:00Z,31.42,-87.05,9.4,3.3,340,7,,10.0,30.28937,1025.4,,TRUE,TRUE,,,,,,,OVC,2700,,,,,,,MVFR,1.3,,,,,,,,,,,METAR,78.0
KGWO 140253Z AUTO 33004KT 10SM OVC022 05/01 A3037 RMK AO2 SLP285 T00500011 51006,KGWO,2019-01-14T02:53:00Z,33.5,-90.08,5.0,1.1,330,4,,10.0,30.369095,1028.5,,TRUE,TRUE,,,,,,,OVC,2200,,,,,,,MVFR,0.6,,,,,,,,,,,METAR,44.0
KGVL 140253Z AUTO 29008KT 9SM OVC005 06/06 A3018 RMK AO2 SLP225 T00560056 51008,KGVL,2019-01-14T02:53:00Z,34.27,-83.83,5.6,5.6,290,8,,9.0,30.180119,1022.5,,TRUE,TRUE,,,,,,,OVC,500,,,,,,,IFR,0.8,,,,,,,,,,,METAR,386.0
KGUP 140253Z AUTO 13004KT 10SM BKN045 OVC055 M01/M03 A3021 RMK AO2 SLP248 T10061028 51012,KGUP,2019-01-14T02:53:00Z,35.52,-108.8,-0.6,-2.8,130,4,,10.0,30.209646,1024.8,,TRUE,TRUE,,,,,,,BKN,4500,OVC,5500,,,,,VFR,1.2,,,,,,,,,,,METAR,1971.0
KGTF 140253Z 23013KT 10SM CLR 01/M12 A3013 RMK AO2 SLP248 T00111117 51004,KGTF,2019-01-14T02:53:00Z,47.47,-111.38,1.1,-11.7,230,13,,10.0,30.129921,1024.8,,,TRUE,,,,,,,CLR,,,,,,,,VFR,0.4,,,,,,,,,,,METAR,1119.0
KGSH 140253Z AUTO 36004KT 10SM CLR M08/M10 A3035 RMK AO2 SLP291 T10781100 51006,KGSH,2019-01-14T02:53:00Z,41.53,-85.78,-7.8,-10.0,360,4,,10.0,30.351377,1029.1,,TRUE,TRUE,,,,,,,CLR,,,,,,,,VFR,0.6,,,,,,,,,,,METAR,252.0
KGRR 140253Z 04004KT 10SM CLR M06/M11 A3037 RMK AO2 SLP297 T10561111 55001,KGRR,2019-01-14T02:53:00Z,42.88,-85.52,-5.6,-11.1,40,4,,10.0,30.369095,1029.7,,,TRUE,,,,,,,CLR,,,,,,,,VFR,-0.1,,,,,,,,,,,METAR,237.0
KGRI 140253Z AUTO 22014KT 10SM OVC011 M01/M04 A3035 RMK AO2 SLP305 T10111039 58002,KGRI,2019-01-14T02:53:00Z,40.97,-98.32,-1.1,-3.9,220,14,,10.0,30.351377,1030.5,,TRUE,TRUE,,,,,,,OVC,1100,,,,,,,MVFR,-0.2,,,,,,,,,,,METAR,561.0
KGRB 140253Z 23005KT 10SM OVC017 M04/M08 A3037 RMK AO2 SLP297 T10391078 58009 $,KGRB,2019-01-14T02:53:00Z,44.48,-88.13,-3.9,-7.8,230,5,,10.0,30.369095,1029.7,,,TRUE,TRUE,,,,,,OVC,1700,,,,,,,MVFR,-0.9,,,,,,,,,,,METAR,208.0
KGPT 140253Z 35013G19KT 10SM OVC021 08/03 A3032 RMK AO2 SLP265 T00780028 51015,KGPT,2019-01-14T02:53:00Z,30.42,-89.08,7.8,2.8,350,13,19,10.0,30.318897,1026.5,,,TRUE,,,,,,,OVC,2100,,,,,,,MVFR,1.5,,,,,,,,,,,METAR,14.0
KGOK 140253Z AUTO 04004KT 9SM OVC015 01/M02 A3046 RMK AO2 SLP325 T00111022 51007 $,KGOK,2019-01-14T02:53:00Z,35.85,-97.4,1.1,-2.2,40,4,,9.0,30.46063,1032.5,,TRUE,TRUE,TRUE,,,,,,OVC,1500,,,,,,,MVFR,0.7,,,,,,,,,,,METAR,324.0
KGNV 140253Z 28008KT 10SM CLR 13/09 A3017 RMK AO2 SLP216 T01330094 52015,KGNV,2019-01-14T02:53:00Z,29.7,-82.28,13.3,9.4,280,8,,10.0,30.171259,1021.6,,,TRUE,,,,,,,CLR,,,,,,,,VFR,1.5,,,,,,,,,,,METAR,45.0
KGMU 140253Z AUTO 06003KT 1 1/4SM BR OVC002 05/04 A3017 RMK AO2 SLP223 T00500039 51009,KGMU,2019-01-14T02:53:00Z,34.85,-82.35,5.0,3.9,60,3,,1.25,30.171259,1022.3,,TRUE,TRUE,,,,,,BR,OVC,200,,,,,,,LIFR,0.9,,,,,,,,,,,METAR,315.0
KGLR 140253Z AUTO 19003KT 10SM CLR M13/M14 A3031 RMK AO2 SLP294 I3001 T11281139 58014,KGLR,2019-01-14T02:53:00Z,45.02,-84.68,-12.8,-13.9,190,3,,10.0,30.31004,1029.4,,TRUE,TRUE,,,,,,,CLR,,,,,,,,VFR,-1.4,,,,,,,,,,,METAR,407.0
KGLH 140253Z AUTO 36007KT 10SM OVC024 04/01 A3038 RMK AO2 SLP298 T00440006 52009,KGLH,2019-01-14T02:53:00Z,33.5,-90.98,4.4,0.6,360,7,,10.0,30.380905,1029.8,,TRUE,TRUE,,,,,,,OVC,2400,,,,,,,MVFR,0.9,,,,,,,,,,,METAR,45.0
KGLD 140253Z AUTO 21010KT 3/4SM BR VV003 M01/M02 A3027 RMK AO2 SLP278 I1002 I3009 T10111017 50005,KGLD,2019-01-14T02:53:00Z,39.37,-101.7,-1.1,-1.7,210,10,,0.75,30.268702,1027.8,,TRUE,TRUE,,,,,,BR,OVX,0,,,,,,,LIFR,0.5,,,,,,,,,,300,METAR,1113.0
KGKY 140253Z AUTO 33008KT 10SM OVC018 03/M01 A3045 RMK AO2 SLP313 T00281006 51010,KGKY,2019-01-14T02:53:00Z,32.67,-97.1,2.8,-0.6,330,8,,10.0,30.448818,1031.3,,TRUE,TRUE,,,,,,,OVC,1800,,,,,,,MVFR,1.0,,,,,,,,,,,METAR,192.0
KGKJ 140253Z AUTO 02004KT 10SM CLR M07/M10 A3024 RMK AO2 SLP263 T10671100 53003 TSNO,KGKJ,2019-01-14T02:53:00Z,41.63,-80.22,-6.7,-10.0,20,4,,10.0,30.239174,1026.3,,TRUE,TRUE,,,TRUE,,,,CLR,,,,,,,,VFR,0.3,,,,,,,,,,,METAR,428.0
KGJT 140253Z 08003KT 10SM CLR M04/M06 A3023 RMK AO2 SLP272 T10391061 51010,KGJT,2019-01-14T02:53:00Z,39.12,-108.52,-3.9,-6.1,80,3,,10.0,30.230314,1027.2,,,TRUE,,,,,,,CLR,,,,,,,,VFR,1.0,,,,,,,,,,,METAR,1475.0
KGIF 140253Z AUTO 26004KT 10SM FEW026 FEW037 A3017 RMK AO2 SLPNO 51010,KGIF,2019-01-14T02:53:00Z,28.07,-81.75,,,260,4,,10.0,30.171259,,,TRUE,TRUE,,,,,,,FEW,2600,FEW,3700,,,,,VFR,1.0,,,,,,,,,,,METAR,43.0
KGGG 140253Z 36005KT 10SM OVC024 05/01 A3041 RMK AO2 SLP301 T00500011 51010,KGGG,2019-01-14T02:53:00Z,32.38,-94.72,5.0,1.1,360,5,,10.0,30.410433,1030.1,,,TRUE,,,,,,,OVC,2400,,,,,,,MVFR,1.0,,,,,,,,,,,METAR,107.0
KGFL 140253Z AUTO 05005KT 10SM CLR M12/M16 A3043 RMK AO2 SLP318 T11221156 55003,KGFL,2019-01-14T02:53:00Z,43.33,-73.62,-12.2,-15.6,50,5,,10.0,30.431103,1031.8,,TRUE,TRUE,,,,,,,CLR,,,,,,,,VFR,-0.3,,,,,,,,,,,METAR,103.0
KGFK 140253Z 24004KT 10SM OVC009 M06/M07 A3020 RMK AO2 SLP245 T10561067 58001,KGFK,2019-01-14T02:53:00Z,47.95,-97.18,-5.6,-6.7,240,4,,10.0,30.200787,1024.5,,,TRUE,,,,,,,OVC,900,,,,,,,IFR,-0.1,,,,,,,,,,,METAR,258.0
KGEZ 140253Z AUTO 01006KT 10SM OVC011 M03/M06 A3032 RMK AO2 SLP276 T10281056 51011,KGEZ,2019-01-14T02:53:00Z,39.58,-85.8,-2.8,-5.6,10,6,,10.0,30.318897,1027.6,,TRUE,TRUE,,,,,,,OVC,1100,,,,,,,MVFR,1.1,,,,,,,,,,,METAR,245.0
KMFE 140253Z 07007KT 10SM BKN044 14/09 A3033 RMK AO2 SLP270 T01390094 51022 $,KMFE,2019-01-14T02:53:00Z,26.18,-98.25,13.9,9.4,70,7,,10.0,30.33071,1027.0,,,TRUE,TRUE,,,,,,BKN,4400,,,,,,,VFR,2.2,,,,,,,,,,,METAR,38.0
KMDW 140253Z 36004KT 10SM BKN023 M02/M06 A3039 RMK AO2 SLP304 T10171061 51002,KMDW,2019-01-14T02:53:00Z,41.78,-87.75,-1.7,-6.1,360,4,,10.0,30.389763,1030.4,,,TRUE,,,,,,,BKN,2300,,,,,,,MVFR,0.2,,,,,,,,,,,METAR,188.0
KMCW 140253Z AUTO 20008KT 8SM CLR M05/M06 A3036 RMK AO2 SLP293 T10501061 58004,KMCW,2019-01-14T02:53:00Z,43.15,-93.33,-5.0,-6.1,200,8,,8.0,30.360237,1029.3,,TRUE,TRUE,,,,,,,CLR,,,,,,,,VFR,-0.4,,,,,,,,,,,METAR,369.0
KMCO 140253Z 28005KT 10SM FEW025 SCT034 BKN047 21/17 A3015 RMK AO2 SLP207 T02110167 51012,KMCO,2019-01-14T02:53:00Z,28.42,-81.33,21.1,16.7,280,5,,10.0,30.15059,1020.7,,,TRUE,,,,,,,FEW,2500,SCT,3400,BKN,4700,,,VFR,1.2,,,,,,,,,,,METAR,29.0
KMCN 140253Z AUTO 28004KT 10SM OVC045 06/06 A3020 RMK AO2 SLP228 T00610056 51006,KMCN,2019-01-14T02:53:00Z,32.68,-83.65,6.1,5.6,280,4,,10.0,30.200787,1022.8,,TRUE,TRUE,,,,,,,OVC,4500,,,,,,,VFR,0.6,,,,,,,,,,,METAR,109.0
KMCE 140253Z AUTO 00000KT 5SM BR CLR 09/08 A2998 RMK AO2 SLP152 T00890083 53002,KMCE,2019-01-14T02:53:00Z,37.28,-120.5,8.9,8.3,0,0,,5.0,29.97933,1015.2,,TRUE,TRUE,,,,,,BR,CLR,,,,,,,,MVFR,0.2,,,,,,,,,,,METAR,47.0
KMCB 140253Z AUTO 01010KT 10SM OVC017 04/00 A3035 RMK AO2 SLP278 T00440000 51013,KMCB,2019-01-14T02:53:00Z,31.18,-90.47,4.4,0.0,10,10,,10.0,30.351377,1027.8,,TRUE,TRUE,,,,,,,OVC,1700,,,,,,,MVFR,1.3,,,,,,,,,,,METAR,124.0
KMBS 140253Z 00000KT 10SM CLR M07/M09 A3039 RMK AO2 SLP304 T10671089 55003,KMBS,2019-01-14T02:53:00Z,43.53,-84.08,-6.7,-8.9,0,0,,10.0,30.389763,1030.4,,,TRUE,,,,,,,CLR,,,,,,,,VFR,-0.3,,,,,,,,,,,METAR,202.0
KMAI 140253Z AUTO 33004KT 10SM CLR 08/06 A3023 RMK AO2 SLP237 T00830056 51018,KMAI,2019-01-14T02:53:00Z,30.83,-85.18,8.3,5.6,330,4,,10.0,30.230314,1023.7,,TRUE,TRUE,,,,,,,CLR,,,,,,,,VFR,1.8,,,,,,,,,,,METAR,32.0
KMAF 140253Z 07010KT 7SM BKN005 01/M01 A3036 RMK AO2 SLP282 T00111006 51014,KMAF,2019-01-14T02:53:00Z,31.95,-102.2,1.1,-0.6,70,10,,7.0,30.360237,1028.2,,,TRUE,,,,,,,BKN,500,,,,,,,IFR,1.4,,,,,,,,,,,METAR,874.0
KMAE 140253Z AUTO 08006KT 9SM CLR 12/07 A3000 RMK AO2 SLP157 T01220067 53004,KMAE,2019-01-14T02:53:00Z,36.98,-120.12,12.2,6.7,80,6,,9.0,30.0,1015.7,,TRUE,TRUE,,,,,,,CLR,,,,,,,,VFR,0.4,,,,,,,,,,,METAR,77.0
KLXV 140253Z AUTO 01004KT 10SM CLR M16/M17 A3019 RMK AO2 SLP276 T11561172 51013,KLXV,2019-01-14T02:53:00Z,39.23,-106.32,-15.6,-17.2,10,4,,10.0,30.188976,1027.6,,TRUE,TRUE,,,,,,,CLR,,,,,,,,VFR,1.3,,,,,,,,,,,METAR,3028.0
KLXT 140253Z AUTO 33003KT 10SM OVC011 M02/M03 A3044 RMK AO2 SLP321 T10171033 50005,KLXT,2019-01-14T02:53:00Z,38.97,-94.37,-1.7,-3.3,330,3,,10.0,30.43996,1032.1,,TRUE,TRUE,,,,,,,OVC,1100,,,,,,,MVFR,0.5,,,,,,,,,,,METAR,306.0
KLWV 140253Z AUTO 36006KT 8SM OVC039 M01/M03 A3036 RMK AO2 SLP284 T10061033 51011,KLWV,2019-01-14T02:53:00Z,38.77,-87.6,-0.6,-3.3,360,6,,8.0,30.360237,1028.4,,TRUE,TRUE,,,,,,,OVC,3900,,,,,,,VFR,1.1,,,,,,,,,,,METAR,131.0
KLVM 140253Z AUTO 28013KT 10SM CLR M01/M10 A3018 RMK AO2 SLP267 T10111100 50002,KLVM,2019-01-14T02:53:00Z,45.7,-110.43,-1.1,-10.0,280,13,,10.0,30.180119,1026.7,,TRUE,TRUE,,,,,,,CLR,,,,,,,,VFR,0.2,,,,,,,,,,,METAR,1418.0
KLVK 140253Z 05007KT 10SM CLR 10/06 A2996 RMK AO2 SLP145 T01000056 53001,KLVK,2019-01-14T02:53:00Z,37.7,-121.82,10.0,5.6,50,7,,10.0,29.958662,1014.5,,,TRUE,,,,,,,CLR,,,,,,,,VFR,0.1,,,,,,,,,,,METAR,117.0
KLVJ 140253Z AUTO 03006KT 10SM FEW075 10/04 A3039 RMK AO2 SLP288 T01000039 51020,KLVJ,2019-01-14T02:53:00Z,29.52,-95.25,10.0,3.9,30,6,,10.0,30.389763,1028.8,,TRUE,TRUE,,,,,,,FEW,7500,,,,,,,VFR,2.0,,,,,,,,,,,METAR,12.0
KLUK 140253Z 01003KT 10SM BKN027 OVC032 01/M03 A3030 RMK AO2 SLP266 T00061028 52010,KLUK,2019-01-14T02:53:00Z,39.1,-84.42,0.6,-2.8,10,3,,10.0,30.301182,1026.6,,,TRUE,,,,,,,BKN,2700,OVC,3200,,,,,MVFR,1.0,,,,,,,,,,,METAR,155.0
KLSE 140253Z 15005KT 10SM CLR M04/M07 A3037 RMK AO2 SLP300 T10441072 58004,KLSE,2019-01-14T02:53:00Z,43.88,-91.25,-4.4,-7.2,150,5,,10.0,30.369095,1030.0,,,TRUE,,,,,,,CLR,,,,,,,,VFR,-0.4,,,,,,,,,,,METAR,199.0
KLPR 140253Z AUTO 04019KT 10SM OVC016 M02/M07 A3030 RMK AO2 PK WND 04026/0155 SLP271 T10171067 53006,KLPR,2019-01-14T02:53:00Z,41.35,-82.18,-1.7,-6.7,40,19,,10.0,30.301182,1027.1,,TRUE,TRUE,,,,,,,OVC,1600,,,,,,,MVFR,0.6,,,,,,,,,,,METAR,241.0
KLOZ 140253Z AUTO 34007KT 6SM BR OVC004 01/01 A3021 RMK AO2 SLP238 I3000 T00110006 53010,KLOZ,2019-01-14T02:53:00Z,37.08,-84.07,1.1,0.6,340,7,,6.0,30.209646,1023.8,,TRUE,TRUE,,,,,,BR,OVC,400,,,,,,,LIFR,1.0,,,,,,,,,,,METAR,362.0
KLOU 140253Z 34004KT 9SM OVC013 02/M02 A3030 RMK AO2 SLP265 T00171022 51015,KLOU,2019-01-14T02:53:00Z,38.22,-85.67,1.7,-2.2,340,4,,9.0,30.301182,1026.5,,,TRUE,,,,,,,OVC,1300,,,,,,,MVFR,1.5,,,,,,,,,,,METAR,164.0
KLOL 140253Z AUTO 03009KT 10SM CLR 01/M04 A3013 RMK AO2 SLP227 T00061044 53006,KLOL,2019-01-14T02:53:00Z,40.07,-118.57,0.6,-4.4,30,9,,10.0,30.129921,1022.7,,TRUE,TRUE,,,,,,,CLR,,,,,,,,VFR,0.6,,,,,,,,,,,METAR,1189.0
KLNS 140253Z 04011KT 10SM OVC100 M01/M11 A3027 RMK AO2 SLP256 T10061106 53004,KLNS,2019-01-14T02:53:00Z,40.12,-76.3,-0.6,-10.6,40,11,,10.0,30.268702,1025.6,,,TRUE,,,,,,,OVC,10000,,,,,,,VFR,0.4,,,,,,,,,,,METAR,125.0
KLND 140253Z AUTO 00000KT 10SM CLR M13/M16 A3024 RMK AO2 SLP346 T11331161 51007 $,KLND,2019-01-14T02:53:00Z,42.82,-108.73,-13.3,-16.1,0,0,,10.0,30.239174,1034.6,,TRUE,TRUE,TRUE,,,,,,CLR,,,,,,,,VFR,0.7,,,,,,,,,,,METAR,1694.0
KLMT 140253Z 31003KT 10SM CLR M01/M04 A3007 RMK AO2 SLP205 T10061044 53001,KLMT,2019-01-14T02:53:00Z,42.15,-121.72,-0.6,-4.4,310,3,,10.0,30.070866,1020.5,,,TRUE,,,,,,,CLR,,,,,,,,VFR,0.1,,,,,,,,,,,METAR,1246.0
KGEY 140253Z AUTO 00000KT 10SM CLR M07/M08 A3022 RMK AO2 SLP296 T10721083 51006,KGEY,2019-01-14T02:53:00Z,44.52,-108.08,-7.2,-8.3,0,0,,10.0,30.221457,1029.6,,TRUE,TRUE,,,,,,,CLR,,,,,,,,VFR,0.6,,,,,,,,,,,METAR,1191.0
KGCC 140253Z AUTO 24011KT 10SM CLR M01/M07 A3016 RMK AO2 SLP245 T10061072 58002,KGCC,2019-01-14T02:53:00Z,44.33,-105.55,-0.6,-7.2,240,11,,10.0,30.159449,1024.5,,TRUE,TRUE,,,,,,,CLR,,,,,,,,VFR,-0.2,,,,,,,,,,,METAR,1320.0
KGAG 140253Z AUTO 00000KT 7SM OVC014 00/M03 A3040 RMK AO2 SLP312 T00001028 50003 TSNO,KGAG,2019-01-14T02:53:00Z,36.3,-99.77,0.0,-2.8,0,0,,7.0,30.398623,1031.2,,TRUE,TRUE,,,TRUE,,,,OVC,1400,,,,,,,MVFR,0.3,,,,,,,,,,,METAR,668.0
KFYV 140253Z 35005KT 2 1/2SM -SN BR OVC008 00/M02 A3041 RMK AO2 SNB41 SLP309 P0000 60000 T00001017 51007,KFYV,2019-01-14T02:53:00Z,36.02,-94.17,0.0,-1.7,350,5,,2.5,30.410433,1030.9,,,TRUE,,,,,,-SN BR,OVC,800,,,,,,,IFR,0.7,,,,,0.005,0.005,,,,,METAR,379.0
KFXE 140253Z 22004KT 10SM CLR 22/20 A3014 RMK AO2 SLP208 T02220200 51010,KFXE,2019-01-14T02:53:00Z,26.2,-80.18,22.2,20.0,220,4,,10.0,30.138779,1020.8,,,TRUE,,,,,,,CLR,,,,,,,,VFR,1.0,,,,,,,,,,,METAR,6.0
KFWN 140253Z AUTO 04007KT 10SM CLR M07/M13 A3031 RMK AO2 SLP271 T10671133 53001,KFWN,2019-01-14T02:53:00Z,41.2,-74.63,-6.7,-13.3,40,7,,10.0,30.31004,1027.1,,TRUE,TRUE,,,,,,,CLR,,,,,,,,VFR,0.1,,,,,,,,,,,METAR,133.0
KFVE 140253Z AUTO 32004KT 9SM OVC014 M14/M18 A3030 RMK AO2 SLP282 T11391178 58001,KFVE,2019-01-14T02:53:00Z,47.28,-68.3,-13.9,-17.8,320,4,,9.0,30.301182,1028.2,,TRUE,TRUE,,,,,,,OVC,1400,,,,,,,MVFR,-0.1,,,,,,,,,,,METAR,301.0
KFUL 140253Z 00000KT 10SM CLR 14/08 A3001 RMK AO2 SLP160 T01440078 58006,KFUL,2019-01-14T02:53:00Z,33.87,-117.98,14.4,7.8,0,0,,10.0,30.008858,1016.0,,,TRUE,,,,,,,CLR,,,,,,,,VFR,-0.6,,,,,,,,,,,METAR,35.0
KFTW 140253Z 36009KT 9SM OVC015 02/M02 A3045 RMK AO2 SLP317 T00171017 51010,KFTW,2019-01-14T02:53:00Z,32.83,-97.37,1.7,-1.7,360,9,,9.0,30.448818,1031.7,,,TRUE,,,,,,,OVC,1500,,,,,,,MVFR,1.0,,,,,,,,,,,METAR,214.0
KFST 140253Z AUTO 12008KT 10SM CLR 07/02 A3030 RMK AO2 SLP249 T00670017 51015,KFST,2019-01-14T02:53:00Z,30.92,-102.92,6.7,1.7,120,8,,10.0,30.301182,1024.9,,TRUE,TRUE,,,,,,,CLR,,,,,,,,VFR,1.5,,,,,,,,,,,METAR,918.0
KFSM 140253Z 32005KT 8SM OVC019 03/M01 A3045 RMK AO2 SLP312 T00281011 51008,KFSM,2019-01-14T02:53:00Z,35.33,-94.37,2.8,-1.1,320,5,,8.0,30.448818,1031.2,,,TRUE,,,,,,,OVC,1900,,,,,,,MVFR,0.8,,,,,,,,,,,METAR,140.0
KFPR 140253Z AUTO 29004KT 10SM CLR 18/14 A3014 RMK AO2 SLP206 T01830144 51012,KFPR,2019-01-14T02:53:00Z,27.5,-80.38,18.3,14.4,290,4,,10.0,30.138779,1020.6,,TRUE,TRUE,,,,,,,CLR,,,,,,,,VFR,1.2,,,,,,,,,,,METAR,13.0
KFOK 140253Z 04011G19KT 10SM OVC018 M02/M07 A3031 RMK AO2 SLP264 T10221067 56008 $,KFOK,2019-01-14T02:53:00Z,40.85,-72.62,-2.2,-6.7,40,11,19,10.0,30.31004,1026.4,,,TRUE,TRUE,,,,,,OVC,1800,,,,,,,MVFR,-0.8,,,,,,,,,,,METAR,33.0
KFOE 140253Z 00000KT 7SM OVC009 M01/M04 A3044 RMK AO2 SLP320 T10111039 50004,KFOE,2019-01-14T02:53:00Z,38.93,-95.65,-1.1,-3.9,0,0,,7.0,30.43996,1032.0,,,TRUE,,,,,,,OVC,900,,,,,,,IFR,0.4,,,,,,,,,,,METAR,320.0
KFNT 140253Z 04005KT 10SM CLR M08/M11 A3037 RMK AO2 SLP299 T10781111 55001,KFNT,2019-01-14T02:53:00Z,42.97,-83.75,-7.8,-11.1,40,5,,10.0,30.369095,1029.9,,,TRUE,,,,,,,CLR,,,,,,,,VFR,-0.1,,,,,,,,,,,METAR,233.0
KFNB 140253Z AUTO 21003KT 10SM OVC013 M02/M04 A3043 RMK AO2 SLP317 T10221044 58002 $,KFNB,2019-01-14T02:53:00Z,40.07,-95.58,-2.2,-4.4,210,3,,10.0,30.431103,1031.7,,TRUE,TRUE,TRUE,,,,,,OVC,1300,,,,,,,MVFR,-0.2,,,,,,,,,,,METAR,300.0
KFMY 140253Z AUTO 29005KT 5SM BR OVC003 20/19 A3016 RMK AO2 SLP215 T02000194 51012,KFMY,2019-01-14T02:53:00Z,26.58,-81.87,20.0,19.4,290,5,,5.0,30.159449,1021.5,,TRUE,TRUE,,,,,,BR,OVC,300,,,,,,,LIFR,1.2,,,,,,,,,,,METAR,4.0
KFLO 140253Z 33006KT 10SM OVC008 04/02 A3019 RMK AO2 SLP223 T00440022 53011,KFLO,2019-01-14T02:53:00Z,34.18,-79.73,4.4,2.2,330,6,,10.0,30.188976,1022.3,,,TRUE,,,,,,,OVC,800,,,,,,,IFR,1.1,,,,,,,,,,,METAR,44.0
KFLL 140253Z AUTO 24006KT 10SM CLR 22/20 A3014 RMK AO2 SLP204 T02220200 51010,KFLL,2019-01-14T02:53:00Z,26.07,-80.15,22.2,20.0,240,6,,10.0,30.138779,1020.4,,TRUE,TRUE,,,,,,,CLR,,,,,,,,VFR,1.0,,,,,,,,,,,METAR,3.0
KFLD 140253Z AUTO 27004KT 10SM OVC015 M04/M08 A3038 RMK AO2 SNB09E20 SLP301 P0000 60000 T10441078 56005 $,KFLD,2019-01-14T02:53:00Z,43.77,-88.48,-4.4,-7.8,270,4,,10.0,30.380905,1030.1,,TRUE,TRUE,TRUE,,,,,,OVC,1500,,,,,,,MVFR,-0.5,,,,,0.005,0.005,,,,,METAR,240.0
KFHR 140253Z AUTO 00000KT 10SM CLR 06/03 A3015 RMK AO2 SLP211 T00610033 52001,KFHR,2019-01-14T02:53:00Z,48.52,-123.03,6.1,3.3,0,0,,10.0,30.15059,1021.1,,TRUE,TRUE,,,,,,,CLR,,,,,,,,VFR,0.1,,,,,,,,,,,METAR,32.0
KFFT 140253Z AUTO 36005KT 10SM BKN015 OVC024 01/M02 A3026 RMK AO2 SLP253 T00061022 51012 $,KFFT,2019-01-14T02:53:00Z,38.18,-84.9,0.6,-2.2,360,5,,10.0,30.259842,1025.3,,TRUE,TRUE,TRUE,,,,,,BKN,1500,OVC,2400,,,,,MVFR,1.2,,,,,,,,,,,METAR,236.0
KFFC 140253Z AUTO 32007KT 10SM OVC021 09/05 A3022 RMK AO2 SLP237 T00890050 51013,KFFC,2019-01-14T02:53:00Z,33.35,-84.57,8.9,5.0,320,7,,10.0,30.221457,1023.7,,TRUE,TRUE,,,,,,,OVC,2100,,,,,,,MVFR,1.3,,,,,,,,,,,METAR,262.0
KFDY 140253Z AUTO 02009KT 10SM OVC019 M03/M07 A3030 RMK AO2 SLP269 T10281067 52003,KFDY,2019-01-14T02:53:00Z,41.02,-83.67,-2.8,-6.7,20,9,,10.0,30.301182,1026.9,,TRUE,TRUE,,,,,,,OVC,1900,,,,,,,MVFR,0.3,,,,,,,,,,,METAR,247.0
KFCM 140253Z 20006KT 8SM OVC027 00/M04 A3029 RMK AO2 SLP269 T00001039 58009,KFCM,2019-01-14T02:53:00Z,44.83,-93.47,0.0,-3.9,200,6,,8.0,30.28937,1026.9,,,TRUE,,,,,,,OVC,2700,,,,,,,MVFR,-0.9,,,,,,,,,,,METAR,280.0
KMSP 140253Z 20006KT 9SM OVC027 01/M03 A3030 RMK AO2 SLP272 T00111033 58011,KMSP,2019-01-14T02:53:00Z,44.88,-93.23,1.1,-3.3,200,6,,9.0,30.301182,1027.2,,,TRUE,,,,,,,OVC,2700,,,,,,,MVFR,-1.1,,,,,,,,,,,METAR,265.0
KMSO 140253Z 00000KT 4SM BR OVC003 M08/M09 A3038 RMK AO2 SLP339 60000 I1000 I3000 T10781094 51005,KMSO,2019-01-14T02:53:00Z,46.92,-114.1,-7.8,-9.4,0,0,,4.0,30.380905,1033.9,,,TRUE,,,,,,BR,OVC,300,,,,,,,LIFR,0.5,,,,,,0.005,,,,,METAR,975.0
KMSN 140253Z VRB03KT 10SM OVC015 M03/M07 A3039 RMK AO2 SLP302 T10331067 55003,KMSN,2019-01-14T02:53:00Z,43.13,-89.35,-3.3,-6.7,0,3,,10.0,30.389763,1030.2,,,TRUE,,,,,,,OVC,1500,,,,,,,MVFR,-0.3,,,,,,,,,,,METAR,261.0
KMSL 140253Z AUTO 32008KT 10SM OVC009 04/02 A3032 RMK AO2 CIG 008V013 SLPNO T00440022 53004 $,KMSL,2019-01-14T02:53:00Z,34.75,-87.6,4.4,2.2,320,8,,10.0,30.318897,,,TRUE,TRUE,TRUE,,,,,,OVC,900,,,,,,,IFR,0.4,,,,,,,,,,,METAR,164.0
KMPO 140253Z AUTO 07006KT 10SM CLR M07/M14 A3020 RMK AO2 SLP259 T10721139 53003,KMPO,2019-01-14T02:53:00Z,41.13,-75.38,-7.2,-13.9,70,6,,10.0,30.200787,1025.9,,TRUE,TRUE,,,,,,,CLR,,,,,,,,VFR,0.3,,,,,,,,,,,METAR,577.0
KMOD 140253Z 00000KT 4SM BR CLR 08/07 A2998 RMK AO2 SLP153 T00830072 53003,KMOD,2019-01-14T02:53:00Z,37.62,-120.95,8.3,7.2,0,0,,4.0,29.97933,1015.3,,,TRUE,,,,,,BR,CLR,,,,,,,,MVFR,0.3,,,,,,,,,,,METAR,29.0
KMNN 140253Z AUTO 03010KT 9SM OVC011 M02/M04 A3028 RMK AO2 SLP267 T10221044 51007 $,KMNN,2019-01-14T02:53:00Z,40.62,-83.07,-2.2,-4.4,30,10,,9.0,30.280512,1026.7,,TRUE,TRUE,TRUE,,,,,,OVC,1100,,,,,,,MVFR,0.7,,,,,,,,,,,METAR,301.0
KMMV 140253Z AUTO 35006KT 10SM CLR 04/M01 A3009 RMK AO2 SLP188 T00391011 57002,KMMV,2019-01-14T02:53:00Z,45.2,-123.13,3.9,-1.1,350,6,,10.0,30.088583,1018.8,,TRUE,TRUE,,,,,,,CLR,,,,,,,,VFR,-0.2,,,,,,,,,,,METAR,48.0
KMMK 140253Z AUTO 01004KT 10SM CLR M06/M14 A3036 RMK AO2 SLP282 T10611139 55000,KMMK,2019-01-14T02:53:00Z,41.52,-72.83,-6.1,-13.9,10,4,,10.0,30.360237,1028.2,,TRUE,TRUE,,,,,,,CLR,,,,,,,,VFR,0.0,,,,,,,,,,,METAR,31.0
KMLU 140253Z 33007KT 10SM OVC024 05/01 A3041 RMK AO2 SLP298 T00500006 51010 $,KMLU,2019-01-14T02:53:00Z,32.52,-92.03,5.0,0.6,330,7,,10.0,30.410433,1029.8,,,TRUE,TRUE,,,,,,OVC,2400,,,,,,,MVFR,1.0,,,,,,,,,,,METAR,29.0
KMLT 140253Z AUTO 27003KT 6SM HZ CLR M16/M18 A3041 RMK AO2 SLP312 T11561183 53000,KMLT,2019-01-14T02:53:00Z,45.65,-68.7,-15.6,-18.3,270,3,,6.0,30.410433,1031.2,,TRUE,TRUE,,,,,,HZ,CLR,,,,,,,,VFR,0.0,,,,,,,,,,,METAR,123.0
KMLS 140253Z AUTO 16006KT 10SM CLR 00/M04 A3014 RMK AO2 SLP238 T00001044 58003,KMLS,2019-01-14T02:53:00Z,46.43,-105.88,0.0,-4.4,160,6,,10.0,30.138779,1023.8,,TRUE,TRUE,,,,,,,CLR,,,,,,,,VFR,-0.3,,,,,,,,,,,METAR,801.0
KMLP 140253Z AUTO 10003KT 10SM CLR 07/M40 A3020 RMK AO2 SLP184 T00721400 50000 $,KMLP,2019-01-14T02:53:00Z,47.45,-115.67,7.2,-40.0,100,3,,10.0,30.200787,1018.4,,TRUE,TRUE,TRUE,,,,,,CLR,,,,,,,,VFR,0.0,,,,,,,,,,,METAR,1837.0
KMLB 140253Z 27006KT 10SM OVC065 22/16 A3013 RMK AO2 SLP202 T02170156 51010,KMLB,2019-01-14T02:53:00Z,28.1,-80.65,21.7,15.6,270,6,,10.0,30.129921,1020.2,,,TRUE,,,,,,,OVC,6500,,,,,,,VFR,1.0,,,,,,,,,,,METAR,11.0
KMKO 140253Z AUTO 34006KT 10SM OVC016 01/M01 A3048 RMK AO2 SLP326 T00061011 51006,KMKO,2019-01-14T02:53:00Z,35.65,-95.37,0.6,-1.1,340,6,,10.0,30.481298,1032.6,,TRUE,TRUE,,,,,,,OVC,1600,,,,,,,MVFR,0.6,,,,,,,,,,,METAR,185.0
KMKL 140253Z AUTO 33009KT 7SM OVC009 02/01 A3035 RMK AO2 SLP281 T00170006 51013,KMKL,2019-01-14T02:53:00Z,35.6,-88.92,1.7,0.6,330,9,,7.0,30.351377,1028.1,,TRUE,TRUE,,,,,,,OVC,900,,,,,,,IFR,1.3,,,,,,,,,,,METAR,128.0
KMIW 140253Z AUTO 18004KT 1/4SM FZFG VV003 M09/M09 A3039 RMK AO2 SLP308 I1000 I3001 T10891094 58002,KMIW,2019-01-14T02:53:00Z,42.12,-92.92,-8.9,-9.4,180,4,,0.25,30.389763,1030.8,,TRUE,TRUE,,,,,,FZFG,OVX,0,,,,,,,LIFR,-0.2,,,,,,,,,,300,METAR,296.0
KMIE 140253Z 01005KT 7SM CLR M07/M10 A3033 RMK AO2 SLP280 T10721100 53007,KMIE,2019-01-14T02:53:00Z,40.23,-85.4,-7.2,-10.0,10,5,,7.0,30.33071,1028.0,,,TRUE,,,,,,,CLR,,,,,,,,VFR,0.7,,,,,,,,,,,METAR,285.0
KMIC 140253Z 21005KT 10SM OVC025 01/M03 A3028 RMK AO2 SLP266 T00111033 58013,KMIC,2019-01-14T02:53:00Z,45.07,-93.35,1.1,-3.3,210,5,,10.0,30.280512,1026.6,,,TRUE,,,,,,,OVC,2500,,,,,,,MVFR,-1.3,,,,,,,,,,,METAR,265.0
KMIA 140253Z 24004KT 10SM BKN041 22/19 A3016 RMK AO2 SLP212 T02220189 51012,KMIA,2019-01-14T02:53:00Z,25.8,-80.28,22.2,18.9,240,4,,10.0,30.159449,1021.2,,,TRUE,,,,,,,BKN,4100,,,,,,,VFR,1.2,,,,,,,,,,,METAR,3.0
KMHT 140253Z 01007KT 10SM CLR M08/M14 A3038 RMK AO2 SLP308 T10831139 56004,KMHT,2019-01-14T02:53:00Z,42.93,-71.43,-8.3,-13.9,10,7,,10.0,30.380905,1030.8,,,TRUE,,,,,,,CLR,,,,,,,,VFR,-0.4,,,,,,,,,,,METAR,81.0
KMHE 140253Z AUTO 18008KT 9SM OVC012 00/M03 A3025 RMK AO2 SLP261 T00001033 58011,KMHE,2019-01-14T02:53:00Z,43.77,-98.02,0.0,-3.3,180,8,,9.0,30.250984,1026.1,,TRUE,TRUE,,,,,,,OVC,1200,,,,,,,MVFR,-1.1,,,,,,,,,,,METAR,397.0
KMGY 140253Z AUTO 02008KT 10SM OVC012 M01/M04 A3027 RMK AO2 SLP260 T10061039 53010,KMGY,2019-01-14T02:53:00Z,39.6,-84.23,-0.6,-3.9,20,8,,10.0,30.268702,1026.0,,TRUE,TRUE,,,,,,,OVC,1200,,,,,,,MVFR,1.0,,,,,,,,,,,METAR,289.0
KMGW 140253Z 07005KT 9SM -SN OVC022 M02/M06 A3019 RMK AO2 SLP236 P0000 60000 T10171056 51003,KMGW,2019-01-14T02:53:00Z,39.65,-79.92,-1.7,-5.6,70,5,,9.0,30.188976,1023.6,,,TRUE,,,,,,-SN,OVC,2200,,,,,,,MVFR,0.3,,,,,0.005,0.005,,,,,METAR,378.0
KMGM 140253Z 30006KT 10SM OVC026 08/04 A3028 RMK AO2 SLP252 T00830039 51010,KMGM,2019-01-14T02:53:00Z,32.3,-86.4,8.3,3.9,300,6,,10.0,30.280512,1025.2,,,TRUE,,,,,,,OVC,2600,,,,,,,MVFR,1.0,,,,,,,,,,,METAR,63.0
KMFR 140253Z 29004KT 10SM CLR 09/M02 A2999 RMK AO2 SLP161 T00941022 53002,KMFR,2019-01-14T02:53:00Z,42.38,-122.87,9.4,-2.2,290,4,,10.0,29.991142,1016.1,,,TRUE,,,,,,,CLR,,,,,,,,VFR,0.2,,,,,,,,,,,METAR,396.0
KICT 140253Z 00000KT 7SM OVC006 M02/M03 A3045 RMK AO2 SLP325 T10171028 53004 $,KICT,2019-01-14T02:53:00Z,37.65,-97.43,-1.7,-2.8,0,0,,7.0,30.448818,1032.5,,,TRUE,TRUE,,,,,,OVC,600,,,,,,,IFR,0.4,,,,,,,,,,,METAR,407.0
KICR 140253Z AUTO 21013KT 10SM CLR 01/M03 A3018 RMK AO2 SLP243 T00061033 58006,KICR,2019-01-14T02:53:00Z,43.38,-99.85,0.6,-3.3,210,13,,10.0,30.180119,1024.3,,TRUE,TRUE,,,,,,,CLR,,,,,,,,VFR,-0.6,,,,,,,,,,,METAR,621.0
KIAH 140253Z 01009KT 10SM FEW070 08/03 A3038 RMK AO2 SLP287 T00830033 51019,KIAH,2019-01-14T02:53:00Z,30.0,-95.37,8.3,3.3,10,9,,10.0,30.380905,1028.7,,,TRUE,,,,,,,FEW,7000,,,,,,,VFR,1.9,,,,,,,,,,,METAR,36.0
KIAG 140253Z 07010KT 10SM OVC012 M08/M11 A3038 RMK AO2 SLP312 T10781111 53001 $,KIAG,2019-01-14T02:53:00Z,43.12,-78.93,-7.8,-11.1,70,10,,10.0,30.380905,1031.2,,,TRUE,TRUE,,,,,,OVC,1200,,,,,,,MVFR,0.1,,,,,,,,,,,METAR,182.0
KHZY 140253Z AUTO 06004KT 10SM CLR M06/M09 A3030 RMK AO2 SLP273 T10561094 53002,KHZY,2019-01-14T02:53:00Z,41.78,-80.7,-5.6,-9.4,60,4,,10.0,30.301182,1027.3,,TRUE,TRUE,,,,,,,CLR,,,,,,,,VFR,0.2,,,,,,,,,,,METAR,276.0
KHYR 140253Z AUTO 22008KT 8SM OVC021 M01/M05 A3026 RMK AO2 SLP265 T10111050 58015,KHYR,2019-01-14T02:53:00Z,46.02,-91.45,-1.1,-5.0,220,8,,8.0,30.259842,1026.5,,TRUE,TRUE,,,,,,,OVC,2100,,,,,,,MVFR,-1.5,,,,,,,,,,,METAR,370.0
KHWO 140253Z AUTO 24006KT 10SM CLR 21/17 A3016 RMK AO2 SLP213 T02110172 51012,KHWO,2019-01-14T02:53:00Z,26.0,-80.23,21.1,17.2,240,6,,10.0,30.159449,1021.3,,TRUE,TRUE,,,,,,,CLR,,,,,,,,VFR,1.2,,,,,,,,,,,METAR,2.0
KHVR 140253Z AUTO 00000KT 10SM CLR M07/M13 A3013 RMK AO2 SLP250 T10721128 53006,KHVR,2019-01-14T02:53:00Z,48.55,-109.77,-7.2,-12.8,0,0,,10.0,30.129921,1025.0,,TRUE,TRUE,,,,,,,CLR,,,,,,,,VFR,0.6,,,,,,,,,,,METAR,787.0
KHVN 140253Z 02006KT 10SM CLR M05/M12 A3034 RMK AO2 SLP274 T10501122 55001,KHVN,2019-01-14T02:53:00Z,41.27,-72.87,-5.0,-12.2,20,6,,10.0,30.339567,1027.4,,,TRUE,,,,,,,CLR,,,,,,,,VFR,-0.1,,,,,,,,,,,METAR,4.0
KHUL 140253Z AUTO 00000KT 10SM CLR M22/M24 A3036 RMK AO2 SLP296 I3000 T12221244 50002 TSNO,KHUL,2019-01-14T02:53:00Z,46.12,-67.8,-22.2,-24.4,0,0,,10.0,30.360237,1029.6,,TRUE,TRUE,,,TRUE,,,,CLR,,,,,,,,VFR,0.2,,,,,,,,,,,METAR,150.0
KHUF 140253Z 02009KT 10SM OVC032 M01/M04 A3036 RMK AO2 SLP286 T10111044 51012,KHUF,2019-01-14T02:53:00Z,39.45,-87.3,-1.1,-4.4,20,9,,10.0,30.360237,1028.6,,,TRUE,,,,,,,OVC,3200,,,,,,,VFR,1.2,,,,,,,,,,,METAR,179.0
KHTL 140253Z AUTO 00000KT 10SM CLR M13/M14 A3035 RMK AO2 SLP301 I1000 I3000 T11281144 58007,KHTL,2019-01-14T02:53:00Z,44.35,-84.67,-12.8,-14.4,0,0,,10.0,30.351377,1030.1,,TRUE,TRUE,,,,,,,CLR,,,,,,,,VFR,-0.7,,,,,,,,,,,METAR,351.0
KHSV 140253Z 31007KT 10SM OVC006 04/03 A3028 RMK AO2 SLP256 T00440033 51012,KHSV,2019-01-14T02:53:00Z,34.65,-86.78,4.4,3.3,310,7,,10.0,30.280512,1025.6,,,TRUE,,,,,,,OVC,600,,,,,,,IFR,1.2,,,,,,,,,,,METAR,191.0
KHSI 140253Z AUTO 24007KT 8SM OVC009 M01/M03 A3036 RMK AO2 SLP303 T10111033 56004,KHSI,2019-01-14T02:53:00Z,40.6,-98.43,-1.1,-3.3,240,7,,8.0,30.360237,1030.3,,TRUE,TRUE,,,,,,,OVC,900,,,,,,,IFR,-0.4,,,,,,,,,,,METAR,591.0
KHRO 140253Z AUTO 32008KT 5SM BR OVC006 M01/M02 A3039 RMK AO2 SLP302 T10061017 51009,KHRO,2019-01-14T02:53:00Z,36.27,-93.15,-0.6,-1.7,320,8,,5.0,30.389763,1030.2,,TRUE,TRUE,,,,,,BR,OVC,600,,,,,,,IFR,0.9,,,,,,,,,,,METAR,417.0
KHRI 140253Z AUTO 00000KT 10SM OVC016 01/M01 A3037 RMK AO2 SLP289 T00111006 57000,KHRI,2019-01-14T02:53:00Z,45.83,-119.27,1.1,-0.6,0,0,,10.0,30.369095,1028.9,,TRUE,TRUE,,,,,,,OVC,1600,,,,,,,MVFR,0.0,,,,,,,,,,,METAR,195.0
KHQM 140253Z AUTO 08008KT 9SM CLR 07/03 A3009 RMK AO2 SLP191 T00720028 53000,KHQM,2019-01-14T02:53:00Z,46.97,-123.93,7.2,2.8,80,8,,9.0,30.088583,1019.1,,TRUE,TRUE,,,,,,,CLR,,,,,,,,VFR,0.0,,,,,,,,,,,METAR,7.0
KHOU 140253Z 02011KT 10SM CLR 10/02 A3037 RMK AO2 SLP288 T01000022 51020,KHOU,2019-01-14T02:53:00Z,29.63,-95.28,10.0,2.2,20,11,,10.0,30.369095,1028.8,,,TRUE,,,,,,,CLR,,,,,,,,VFR,2.0,,,,,,,,,,,METAR,36.0
KHOT 140253Z AUTO 35004KT 10SM BKN021 OVC029 04/01 A3040 RMK AO2 SLP297 T00440006 50004,KHOT,2019-01-14T02:53:00Z,34.48,-93.1,4.4,0.6,350,4,,10.0,30.398623,1029.7,,TRUE,TRUE,,,,,,,BKN,2100,OVC,2900,,,,,MVFR,0.4,,,,,,,,,,,METAR,162.0
KHLN 140253Z 16003KT 10SM CLR M07/M11 A3025 RMK AO2 SLP325 T10671106 50001,KHLN,2019-01-14T02:53:00Z,46.6,-111.98,-6.7,-10.6,160,3,,10.0,30.250984,1032.5,,,TRUE,,,,,,,CLR,,,,,,,,VFR,0.1,,,,,,,,,,,METAR,1182.0
KHLG 140253Z AUTO 04008KT 8SM FEW012 OVC060 M03/M06 A3021 RMK AO2 SLP248 T10281056 53006,KHLG,2019-01-14T02:53:00Z,40.17,-80.65,-2.8,-5.6,40,8,,8.0,30.209646,1024.8,,TRUE,TRUE,,,,,,,FEW,1200,OVC,6000,,,,,VFR,0.6,,,,,,,,,,,METAR,372.0
KHKS 140253Z VRB06KT 10SM OVC019 04/01 A3037 RMK AO2 SLP281 T00440006 53010,KHKS,2019-01-14T02:53:00Z,32.33,-90.22,4.4,0.6,0,6,,10.0,30.369095,1028.1,,,TRUE,,,,,,,OVC,1900,,,,,,,MVFR,1.0,,,,,,,,,,,METAR,108.0
KHKA 140253Z AUTO 35011KT 5SM BR SCT008 OVC014 02/00 A3038 RMK AO2 SLP290 T00220000 51009 $,KHKA,2019-01-14T02:53:00Z,35.93,-89.83,2.2,0.0,350,11,,5.0,30.380905,1029.0,,TRUE,TRUE,TRUE,,,,,BR,SCT,800,OVC,1400,,,,,MVFR,0.9,,,,,,,,,,,METAR,78.0
KHJO 140253Z AUTO 08004KT 10SM CLR 10/08 A3001 RMK AO2 SLP164 T01000078 51009,KHJO,2019-01-14T02:53:00Z,36.32,-119.62,10.0,7.8,80,4,,10.0,30.008858,1016.4,,TRUE,TRUE,,,,,,,CLR,,,,,,,,VFR,0.9,,,,,,,,,,,METAR,74.0
KHIO 140253Z AUTO 08006KT 10SM CLR 06/M02 A3011 RMK AO2 SLP200 T00611017 50000 $,KHIO,2019-01-14T02:53:00Z,45.55,-122.95,6.1,-1.7,80,6,,10.0,30.109253,1020.0,,TRUE,TRUE,TRUE,,,,,,CLR,,,,,,,,VFR,0.0,,,,,,,,,,,METAR,68.0
KHIB 140253Z AUTO 25005KT 4SM BR OVC008 M03/M04 A3019 RMK AO2 SLP245 T10281044 55005,KHIB,2019-01-14T02:53:00Z,47.38,-92.83,-2.8,-4.4,250,5,,4.0,30.188976,1024.5,,TRUE,TRUE,,,,,,BR,OVC,800,,,,,,,IFR,-0.5,,,,,,,,,,,METAR,412.0
KHHR 140253Z 12004KT 10SM CLR 14/07 A3002 RMK AO2 SLP164 T01440067 56008 $,KHHR,2019-01-14T02:53:00Z,33.92,-118.33,14.4,6.7,120,4,,10.0,30.02067,1016.4,,,TRUE,TRUE,,,,,,CLR,,,,,,,,VFR,-0.8,,,,,,,,,,,METAR,18.0
KHGR 140253Z 26003KT 5SM -SN BR OVC044 M02/M04 A3028 RMK AO2 SNB47 SLP272 P0000 60001 T10221044 53007 $,KHGR,2019-01-14T02:53:00Z,39.7,-77.73,-2.2,-4.4,260,3,,5.0,30.280512,1027.2,,,TRUE,TRUE,,,,,-SN BR,OVC,4400,,,,,,,MVFR,0.7,,,,,0.005,0.01,,,,,METAR,224.0
KHFD 140253Z 01008KT 10SM CLR M06/M14 A3037 RMK AO2 SLP285 T10611139 51002,KHFD,2019-01-14T02:53:00Z,41.73,-72.65,-6.1,-13.9,10,8,,10.0,30.369095,1028.5,,,TRUE,,,,,,,CLR,,,,,,,,VFR,0.2,,,,,,,,,,,METAR,4.0
KLLQ 140253Z AUTO 33003KT 10SM OVC024 05/00 A3039 RMK AO2 SLP293 T00500000 53007,KLLQ,2019-01-14T02:53:00Z,33.63,-91.75,5.0,0.0,330,3,,10.0,30.389763,1029.3,,TRUE,TRUE,,,,,,,OVC,2400,,,,,,,MVFR,0.7,,,,,,,,,,,METAR,83.0
KLIT 140253Z 36007KT 10SM OVC025 03/M01 A3041 RMK AO2 SLP302 T00331006 51012,KLIT,2019-01-14T02:53:00Z,34.73,-92.23,3.3,-0.6,360,7,,10.0,30.410433,1030.2,,,TRUE,,,,,,,OVC,2500,,,,,,,MVFR,1.2,,,,,,,,,,,METAR,79.0
KLHQ 140253Z AUTO 36005KT 10SM OVC031 M03/M06 A3025 RMK AO2 SLP254 T10331056 53006,KLHQ,2019-01-14T02:53:00Z,39.75,-82.67,-3.3,-5.6,360,5,,10.0,30.250984,1025.4,,TRUE,TRUE,,,,,,,OVC,3100,,,,,,,VFR,0.6,,,,,,,,,,,METAR,260.0
KLGB 140253Z 00000KT 10SM CLR 15/08 A3002 RMK AO2 SLP164 T01500083 55005,KLGB,2019-01-14T02:53:00Z,33.82,-118.15,15.0,8.3,0,0,,10.0,30.02067,1016.4,,,TRUE,,,,,,,CLR,,,,,,,,VFR,-0.5,,,,,,,,,,,METAR,10.0
KLFT 140253Z 02010KT 10SM OVC022 06/02 A3037 RMK AO2 SLP282 T00610017 51009,KLFT,2019-01-14T02:53:00Z,30.2,-92.0,6.1,1.7,20,10,,10.0,30.369095,1028.2,,,TRUE,,,,,,,OVC,2200,,,,,,,MVFR,0.9,,,,,,,,,,,METAR,11.0
KLFK 140253Z AUTO 34003KT 10SM CLR 03/01 A3041 RMK AO2 SLP297 T00280006 51016,KLFK,2019-01-14T02:53:00Z,31.23,-94.75,2.8,0.6,340,3,,10.0,30.410433,1029.7,,TRUE,TRUE,,,,,,,CLR,,,,,,,,VFR,1.6,,,,,,,,,,,METAR,88.0
KLEE 140253Z AUTO 27005KT 10SM CLR 17/16 A3016 RMK AO2 SLP211 T01720161 51014,KLEE,2019-01-14T02:53:00Z,28.82,-81.82,17.2,16.1,270,5,,10.0,30.159449,1021.1,,TRUE,TRUE,,,,,,,CLR,,,,,,,,VFR,1.4,,,,,,,,,,,METAR,23.0
KLEB 140253Z 00000KT 10SM CLR M19/M23 A3041 RMK AO2 SLP323 I1000 I3000 T11891228 55001,KLEB,2019-01-14T02:53:00Z,43.63,-72.3,-18.9,-22.8,0,0,,10.0,30.410433,1032.3,,,TRUE,,,,,,,CLR,,,,,,,,VFR,-0.1,,,,,,,,,,,METAR,171.0
KLCH 140253Z 05007KT 10SM CLR 06/03 A3039 RMK AO2 SLP297 T00560028 51025,KLCH,2019-01-14T02:53:00Z,30.13,-93.22,5.6,2.8,50,7,,10.0,30.389763,1029.7,,,TRUE,,,,,,,CLR,,,,,,,,VFR,2.5,,,,,,,,,,,METAR,4.0
KLBX 140253Z AUTO 36004KT 10SM CLR 08/05 A3037 RMK AO2 SLP282 T00830050 53019,KLBX,2019-01-14T02:53:00Z,29.12,-95.47,8.3,5.0,360,4,,10.0,30.369095,1028.2,,TRUE,TRUE,,,,,,,CLR,,,,,,,,VFR,1.9,,,,,,,,,,,METAR,6.0
KLBB 140253Z 11005KT 9SM CLR M02/M04 A3035 RMK AO2 SLP295 T10171039 51016,KLBB,2019-01-14T02:53:00Z,33.67,-101.82,-1.7,-3.9,110,5,,9.0,30.351377,1029.5,,,TRUE,,,,,,,CLR,,,,,,,,VFR,1.6,,,,,,,,,,,METAR,993.0
KLAX 140253Z 11005KT 10SM BKN140 BKN200 14/07 A3001 RMK AO2 SLP163 T01440067 56008,KLAX,2019-01-14T02:53:00Z,33.93,-118.38,14.4,6.7,110,5,,10.0,30.008858,1016.3,,,TRUE,,,,,,,BKN,14000,BKN,20000,,,,,VFR,-0.8,,,,,,,,,,,METAR,46.0
KLAW 140253Z AUTO 02008KT 10SM OVC014 01/M02 A3047 RMK AO2 SLP327 T00111017 51010,KLAW,2019-01-14T02:53:00Z,34.55,-98.42,1.1,-1.7,20,8,,10.0,30.469488,1032.7,,TRUE,TRUE,,,,,,,OVC,1400,,,,,,,MVFR,1.0,,,,,,,,,,,METAR,337.0
KLAR 140253Z AUTO 00000KT 10SM CLR M19/M23 A3020 RMK AO2 SLP342 I1000 I3000 T11891228 50004,KLAR,2019-01-14T02:53:00Z,41.32,-105.67,-18.9,-22.8,0,0,,10.0,30.200787,1034.2,,TRUE,TRUE,,,,,,,CLR,,,,,,,,VFR,0.4,,,,,,,,,,,METAR,2216.0
KLAN 140253Z 02004KT 10SM CLR M07/M10 A3036 RMK AO2 SLP297 T10671100 58003,KLAN,2019-01-14T02:53:00Z,42.78,-84.58,-6.7,-10.0,20,4,,10.0,30.360237,1029.7,,,TRUE,,,,,,,CLR,,,,,,,,VFR,-0.3,,,,,,,,,,,METAR,264.0
KLAA 140253Z AUTO 10007KT 1/4SM FG VV002 01/M01 A3027 RMK AO2 SLP269 T00061006 58000,KLAA,2019-01-14T02:53:00Z,38.07,-102.68,0.6,-0.6,100,7,,0.25,30.268702,1026.9,,TRUE,TRUE,,,,,,FG,OVX,0,,,,,,,LIFR,0.0,,,,,,,,,,200,METAR,1119.0
KJER 140253Z AUTO 09004KT 10SM CLR M06/M07 A3027 RMK AO2 SLP292 T10561072 53004,KJER,2019-01-14T02:53:00Z,42.72,-114.45,-5.6,-7.2,90,4,,10.0,30.268702,1029.2,,TRUE,TRUE,,,,,,,CLR,,,,,,,,VFR,0.4,,,,,,,,,,,METAR,1222.0
KJEF 140253Z 32003KT 9SM BKN016 OVC026 M01/M03 A3045 RMK AO2 SLP306 T10061028 51004 $,KJEF,2019-01-14T02:53:00Z,38.6,-92.15,-0.6,-2.8,320,3,,9.0,30.448818,1030.6,,,TRUE,TRUE,,,,,,BKN,1600,OVC,2600,,,,,MVFR,0.4,,,,,,,,,,,METAR,168.0
KJBR 140253Z AUTO 35006KT 10SM BKN019 OVC025 03/00 A3039 RMK AO2 SLP292 T00280000 53010 $,KJBR,2019-01-14T02:53:00Z,35.83,-90.65,2.8,0.0,350,6,,10.0,30.389763,1029.2,,TRUE,TRUE,TRUE,,,,,,BKN,1900,OVC,2500,,,,,MVFR,1.0,,,,,,,,,,,METAR,79.0
KIXD 140253Z 00000KT 10SM OVC011 M02/M03 A3045 RMK AO2 SLP322 T10171033 51007 $,KIXD,2019-01-14T02:53:00Z,38.82,-94.88,-1.7,-3.3,0,0,,10.0,30.448818,1032.2,,,TRUE,TRUE,,,,,,OVC,1100,,,,,,,MVFR,0.7,,,,,,,,,,,METAR,342.0
KIWI 140253Z AUTO 00000KT 10SM CLR M12/M14 A3042 RMK AO2 SLP301 I1000 I3000 T11221139 58002,KIWI,2019-01-14T02:53:00Z,43.97,-69.72,-12.2,-13.9,0,0,,10.0,30.41929,1030.1,,TRUE,TRUE,,,,,,,CLR,,,,,,,,VFR,-0.2,,,,,,,,,,,METAR,20.0
KITR 140253Z AUTO 23011KT 1/2SM FZFG VV002 M02/M02 A3027 RMK AO2 SLP290 I1003 I3004 T10221022 50006,KITR,2019-01-14T02:53:00Z,39.23,-102.28,-2.2,-2.2,230,11,,0.5,30.268702,1029.0,,TRUE,TRUE,,,,,,FZFG,OVX,0,,,,,,,LIFR,0.6,,,,,,,,,,200,METAR,1279.0
KIPL 140253Z AUTO 00000KT 10SM FEW065 12/06 A3008 RMK AO2 SLP184 T01220061 53009,KIPL,2019-01-14T02:53:00Z,32.83,-115.58,12.2,6.1,0,0,,10.0,30.079725,1018.4,,TRUE,TRUE,,,,,,,FEW,6500,,,,,,,VFR,0.9,,,,,,,,,,,METAR,-17.0
KINK 140253Z AUTO 07008KT 10SM CLR 04/M01 A3031 RMK AO2 SLP266 T00441006 52020,KINK,2019-01-14T02:53:00Z,31.78,-103.2,4.4,-0.6,70,8,,10.0,30.31004,1026.6,,TRUE,TRUE,,,,,,,CLR,,,,,,,,VFR,2.0,,,,,,,,,,,METAR,855.0
KIML 140253Z AUTO 17007KT 1/2SM FZFG VV002 M02/M04 A3028 RMK AO2 SLP287 I1003 I3004 T10221039 50004,KIML,2019-01-14T02:53:00Z,40.52,-101.62,-2.2,-3.9,170,7,,0.5,30.280512,1028.7,,TRUE,TRUE,,,,,,FZFG,OVX,0,,,,,,,LIFR,0.4,,,,,,,,,,200,METAR,998.0
KILM 140253Z 32011KT 10SM OVC009 04/02 A3014 RMK AO2 SLP207 T00390022 51019,KILM,2019-01-14T02:53:00Z,34.27,-77.9,3.9,2.2,320,11,,10.0,30.138779,1020.7,,,TRUE,,,,,,,OVC,900,,,,,,,IFR,1.9,,,,,,,,,,,METAR,9.0
KIDA 140253Z AUTO 34005KT 10SM CLR M14/M16 A3028 RMK AO2 SLP347 T11441161 51008,KIDA,2019-01-14T02:53:00Z,43.52,-112.07,-14.4,-16.1,340,5,,10.0,30.280512,1034.7,,TRUE,TRUE,,,,,,,CLR,,,,,,,,VFR,0.8,,,,,,,,,,,METAR,1453.0
KFAY 140253Z 33009KT 9SM OVC009 02/01 A3018 RMK AO2 CIG 006V013 SLP217 T00220006 53015,KFAY,2019-01-14T02:53:00Z,34.98,-78.88,2.2,0.6,330,9,,9.0,30.180119,1021.7,,,TRUE,,,,,,,OVC,900,,,,,,,IFR,1.5,,,,,,,,,,,METAR,55.0
KFAT 140253Z 07005KT 10SM FEW200 12/07 A3000 RMK AO2 SLP174 T01220067 52010 $,KFAT,2019-01-14T02:53:00Z,36.78,-119.72,12.2,6.7,70,5,,10.0,30.0,1017.4,,,TRUE,TRUE,,,,,,FEW,20000,,,,,,,VFR,1.0,,,,,,,,,,,METAR,104.0
KFAR 140253Z 7SM OVC006 M04/M05 A3023 RMK AO2 SLP252 T10391050 50002,KFAR,2019-01-14T02:53:00Z,46.93,-96.82,-3.9,-5.0,,,,7.0,30.230314,1025.2,,,TRUE,,,,,,,OVC,600,,,,,,,IFR,0.2,,,,,,,,,,,METAR,277.0
KEYW 140253Z AUTO 01004KT 10SM CLR 23/21 A3016 RMK AO2 SLP214 T02280206 51008,KEYW,2019-01-14T02:53:00Z,24.55,-81.75,22.8,20.6,10,4,,10.0,30.159449,1021.4,,TRUE,TRUE,,,,,,,CLR,,,,,,,,VFR,0.8,,,,,,,,,,,METAR,5.0
KEYE 140253Z AUTO 02004KT 10SM CLR M05/M08 A3033 RMK AO2 SLP282 T10501083 51011 $,KEYE,2019-01-14T02:53:00Z,39.83,-86.3,-5.0,-8.3,20,4,,10.0,30.33071,1028.2,,TRUE,TRUE,TRUE,,,,,,CLR,,,,,,,,VFR,1.1,,,,,,,,,,,METAR,248.0
KEWB 140253Z 03005KT 10SM OVC022 M02/M06 A3033 RMK AO2 SLP270 T10221056 58010,KEWB,2019-01-14T02:53:00Z,41.68,-70.95,-2.2,-5.6,30,5,,10.0,30.33071,1027.0,,,TRUE,,,,,,,OVC,2200,,,,,,,MVFR,-1.0,,,,,,,,,,,METAR,23.0
KEVW 140253Z AUTO 00000KT 10SM CLR M12/M18 A3023 RMK AO2 SLP332 T11171178 51008,KEVW,2019-01-14T02:53:00Z,41.27,-111.03,-11.7,-17.8,0,0,,10.0,30.230314,1033.2,,TRUE,TRUE,,,,,,,CLR,,,,,,,,VFR,0.8,,,,,,,,,,,METAR,2177.0
KESF 140253Z AUTO VRB03KT 10SM OVC023 05/01 A3039 RMK AO2 SLP291 T00500006 51013,KESF,2019-01-14T02:53:00Z,31.4,-92.28,5.0,0.6,0,3,,10.0,30.389763,1029.1,,TRUE,TRUE,,,,,,,OVC,2300,,,,,,,MVFR,1.3,,,,,,,,,,,METAR,28.0
KEQY 140253Z AUTO 35005KT 10SM OVC007 02/00 A3018 RMK AO2 SLP241 T00220000 52011,KEQY,2019-01-14T02:53:00Z,35.02,-80.62,2.2,0.0,350,5,,10.0,30.180119,1024.1,,TRUE,TRUE,,,,,,,OVC,700,,,,,,,IFR,1.1,,,,,,,,,,,METAR,212.0
KEPH 140253Z AUTO 34005KT 10SM OVC003 M01/M02 A3035 RMK AO2 SLP294 T10111017 58001 $,KEPH,2019-01-14T02:53:00Z,47.3,-119.52,-1.1,-1.7,340,5,,10.0,30.351377,1029.4,,TRUE,TRUE,TRUE,,,,,,OVC,300,,,,,,,LIFR,-0.1,,,,,,,,,,,METAR,383.0
KENW 140253Z 00000KT 10SM OVC019 M02/M06 A3039 RMK AO2 SLP300 T10221056 55001 $,KENW,2019-01-14T02:53:00Z,42.6,-87.93,-2.2,-5.6,0,0,,10.0,30.389763,1030.0,,,TRUE,TRUE,,,,,,OVC,1900,,,,,,,MVFR,-0.1,,,,,,,,,,,METAR,219.0
KEMP 140253Z AUTO 00000KT 4SM BR OVC006 M03/M03 A3044 RMK AO2 SLP325 T10281028 50005,KEMP,2019-01-14T02:53:00Z,38.33,-96.2,-2.8,-2.8,0,0,,4.0,30.43996,1032.5,,TRUE,TRUE,,,,,,BR,OVC,600,,,,,,,IFR,0.5,,,,,,,,,,,METAR,367.0
KELY 140253Z AUTO 03006KT 9SM OVC003 M07/M08 A3021 RMK AO2 SLP278 T10721078 53012,KELY,2019-01-14T02:53:00Z,39.3,-114.85,-7.2,-7.8,30,6,,9.0,30.209646,1027.8,,TRUE,TRUE,,,,,,,OVC,300,,,,,,,LIFR,1.2,,,,,,,,,,,METAR,1906.0
KELM 140253Z 00000KT 10SM CLR M12/M15 A3035 RMK AO2 SLP297 T11171150 53004,KELM,2019-01-14T02:53:00Z,42.15,-76.9,-11.7,-15.0,0,0,,10.0,30.351377,1029.7,,,TRUE,,,,,,,CLR,,,,,,,,VFR,0.4,,,,,,,,,,,METAR,302.0
KELD 140253Z AUTO 31004KT 10SM OVC024 04/01 A3042 RMK AO2 SLP300 T00440011 51011,KELD,2019-01-14T02:53:00Z,33.22,-92.82,4.4,1.1,310,4,,10.0,30.41929,1030.0,,TRUE,TRUE,,,,,,,OVC,2400,,,,,,,MVFR,1.1,,,,,,,,,,,METAR,81.0
KEEO 140253Z AUTO 12004KT 10SM OVC007 M08/M10 A3028 RMK AO2 SLP319 T10781100 51010,KEEO,2019-01-14T02:53:00Z,40.05,-107.88,-7.8,-10.0,120,4,,10.0,30.280512,1031.9,,TRUE,TRUE,,,,,,,OVC,700,,,,,,,IFR,1.0,,,,,,,,,,,METAR,1930.0
KECP 140253Z 33006KT 10SM CLR 09/05 A3023 RMK AO2 SLP250 60000 T00890050 51018 $,KECP,2019-01-14T02:53:00Z,30.35,-85.8,8.9,5.0,330,6,,10.0,30.230314,1025.0,,,TRUE,TRUE,,,,,,CLR,,,,,,,,VFR,1.8,,,,,,0.005,,,,,METAR,21.0
KDXR 140253Z 04005KT 10SM CLR M06/M14 A3033 RMK AO2 SLP276 T10561144 50000,KDXR,2019-01-14T02:53:00Z,41.37,-73.48,-5.6,-14.4,40,5,,10.0,30.33071,1027.6,,,TRUE,,,,,,,CLR,,,,,,,,VFR,0.0,,,,,,,,,,,METAR,139.0
KDWH 140253Z 01007KT 10SM CLR 07/03 A3038 RMK AO2 SLP287 T00720033 51016 $,KDWH,2019-01-14T02:53:00Z,30.07,-95.55,7.2,3.3,10,7,,10.0,30.380905,1028.7,,,TRUE,TRUE,,,,,,CLR,,,,,,,,VFR,1.6,,,,,,,,,,,METAR,46.0
KDVT 140253Z 00000KT 10SM CLR 12/08 A3010 RMK AO2 SLP187 T01170083 53008 $,KDVT,2019-01-14T02:53:00Z,33.68,-112.07,11.7,8.3,0,0,,10.0,30.100393,1018.7,,,TRUE,TRUE,,,,,,CLR,,,,,,,,VFR,0.8,,,,,,,,,,,METAR,443.0
KDUJ 140253Z AUTO 08004KT 8SM CLR M07/M08 A3021 RMK AO2 SLP257 I1000 I3000 T10671083 53002 $,KDUJ,2019-01-14T02:53:00Z,41.17,-78.9,-6.7,-8.3,80,4,,8.0,30.209646,1025.7,,TRUE,TRUE,TRUE,,,,,,CLR,,,,,,,,VFR,0.2,,,,,,,,,,,METAR,554.0
KDTW 140253Z 01004KT 10SM SCT016 M06/M10 A3037 RMK AO2 SLP294 T10611100 53004 $,KDTW,2019-01-14T02:53:00Z,42.23,-83.33,-6.1,-10.0,10,4,,10.0,30.369095,1029.4,,,TRUE,TRUE,,,,,,SCT,1600,,,,,,,VFR,0.4,,,,,,,,,,,METAR,195.0
KDTS 140253Z 35013KT 10SM OVC026 11/05 A3026 RMK AO2 SLP246 T01060050 51015,KDTS,2019-01-14T02:53:00Z,30.4,-86.47,10.6,5.0,350,13,,10.0,30.259842,1024.6,,,TRUE,,,,,,,OVC,2600,,,,,,,MVFR,1.5,,,,,,,,,,,METAR,5.0
KDTO 140253Z 02010KT 10SM OVC016 02/M02 A3046 RMK AO2 SLP317 T00171022 51009,KDTO,2019-01-14T02:53:00Z,33.2,-97.2,1.7,-2.2,20,10,,10.0,30.46063,1031.7,,,TRUE,,,,,,,OVC,1600,,,,,,,MVFR,0.9,,,,,,,,,,,METAR,196.0
KDTN 140253Z 01008KT 10SM OVC028 07/01 A3041 RMK AO2 SLP297 T00670006 51009,KDTN,2019-01-14T02:53:00Z,32.55,-93.75,6.7,0.6,10,8,,10.0,30.410433,1029.7,,,TRUE,,,,,,,OVC,2800,,,,,,,MVFR,0.9,,,,,,,,,,,METAR,53.0
KDRT 140253Z AUTO 18015G32KT 10SM OVC050 12/04 A3034 RMK AO2 PK WND 20032/0253 SLP270 T01170039 51020,KDRT,2019-01-14T02:53:00Z,29.37,-100.92,11.7,3.9,180,15,32,10.0,30.339567,1027.0,,TRUE,TRUE,,,,,,,OVC,5000,,,,,,,VFR,2.0,,,,,,,,,,,METAR,313.0
KDNL 140253Z AUTO VRB03KT 10SM OVC012 07/04 A3020 RMK AO2 SLP227 T00720044 51012 TSNO,KDNL,2019-01-14T02:53:00Z,33.47,-82.03,7.2,4.4,0,3,,10.0,30.200787,1022.7,,TRUE,TRUE,,,TRUE,,,,OVC,1200,,,,,,,MVFR,1.2,,,,,,,,,,,METAR,130.0
KAUG 140253Z AUTO 35005KT 10SM CLR M14/M16 A3040 RMK AO2 SLP301 T11391156 58002,KAUG,2019-01-14T02:53:00Z,44.32,-69.8,-13.9,-15.6,350,5,,10.0,30.398623,1030.1,,TRUE,TRUE,,,,,,,CLR,,,,,,,,VFR,-0.2,,,,,,,,,,,METAR,109.0
KATY 140253Z AUTO 21012KT 10SM OVC007 M02/M03 A3020 RMK AO2 SLP253 T10221033 57010,KATY,2019-01-14T02:53:00Z,44.9,-97.15,-2.2,-3.3,210,12,,10.0,30.200787,1025.3,,TRUE,TRUE,,,,,,,OVC,700,,,,,,,IFR,-1.0,,,,,,,,,,,METAR,532.0
KASX 140253Z AUTO 22009KT 6SM HZ OVC024 M01/M04 A3025 RMK AO2 SLP258 T10061044 56019,KASX,2019-01-14T02:53:00Z,46.55,-90.92,-0.6,-4.4,220,9,,6.0,30.250984,1025.8,,TRUE,TRUE,,,,,,HZ,OVC,2400,,,,,,,MVFR,-1.9,,,,,,,,,,,METAR,251.0
KASE 140253Z 21007KT 10SM CLR M10/M14 A3020 RMK AO2 SLP288 T11001139 51015 $,KASE,2019-01-14T02:53:00Z,39.23,-106.87,-10.0,-13.9,210,7,,10.0,30.200787,1028.8,,,TRUE,TRUE,,,,,,CLR,,,,,,,,VFR,1.5,,,,,,,,,,,METAR,2354.0
KASD 140253Z AUTO 36006KT 10SM OVC020 07/02 A3034 RMK AO2 SLP273 T00670022 51013,KASD,2019-01-14T02:53:00Z,30.35,-89.82,6.7,2.2,360,6,,10.0,30.339567,1027.3,,TRUE,TRUE,,,,,,,OVC,2000,,,,,,,MVFR,1.3,,,,,,,,,,,METAR,9.0
KARB 140253Z AUTO 02005KT 10SM CLR M07/M10 A3035 RMK AO2 SLP291 T10671100 53005,KARB,2019-01-14T02:53:00Z,42.22,-83.73,-6.7,-10.0,20,5,,10.0,30.351377,1029.1,,TRUE,TRUE,,,,,,,CLR,,,,,,,,VFR,0.5,,,,,,,,,,,METAR,251.0
KARA 140253Z AUTO 35009KT 10SM OVC022 07/02 A3037 RMK AO2 SLP282 T00670017 51017,KARA,2019-01-14T02:53:00Z,30.03,-91.88,6.7,1.7,350,9,,10.0,30.369095,1028.2,,TRUE,TRUE,,,,,,,OVC,2200,,,,,,,MVFR,1.7,,,,,,,,,,,METAR,18.0
KAPF 140253Z AUTO 29004KT 8SM CLR 19/19 A3016 RMK AO2 SLP212 T01940194 51012 $,KAPF,2019-01-14T02:53:00Z,26.15,-81.77,19.4,19.4,290,4,,8.0,30.159449,1021.2,,TRUE,TRUE,TRUE,,,,,,CLR,,,,,,,,VFR,1.2,,,,,,,,,,,METAR,3.0
KAPA 140253Z 00000KT 10SM FEW220 M08/M09 A3021 RMK AO2 SLP300 T10781089 51007,KAPA,2019-01-14T02:53:00Z,39.57,-104.85,-7.8,-8.9,0,0,,10.0,30.209646,1030.0,,,TRUE,,,,,,,FEW,22000,,,,,,,VFR,0.7,,,,,,,,,,,METAR,1775.0
KAOO 140253Z AUTO 00000KT 9SM OVC055 M04/M06 A3024 RMK AO2 SLP261 60000 T10391061 53005,KAOO,2019-01-14T02:53:00Z,40.3,-78.32,-3.9,-6.1,0,0,,9.0,30.239174,1026.1,,TRUE,TRUE,,,,,,,OVC,5500,,,,,,,VFR,0.5,,,,,,0.005,,,,,METAR,455.0
KAOH 140253Z AUTO 02007KT 10SM OVC014 M04/M07 A3030 RMK AO2 SLP272 T10391072 51005,KAOH,2019-01-14T02:53:00Z,40.7,-84.02,-3.9,-7.2,20,7,,10.0,30.301182,1027.2,,TRUE,TRUE,,,,,,,OVC,1400,,,,,,,MVFR,0.5,,,,,,,,,,,METAR,296.0
KANB 140253Z AUTO 30005KT 10SM OVC014 07/04 A3025 RMK AO2 SLP251 T00720039 51004,KANB,2019-01-14T02:53:00Z,33.58,-85.85,7.2,3.9,300,5,,10.0,30.250984,1025.1,,TRUE,TRUE,,,,,,,OVC,1400,,,,,,,MVFR,0.4,,,,,,,,,,,METAR,183.0
KAMW 140253Z AUTO 00000KT 3SM BR CLR M09/M11 A3040 RMK AO2 SLP306 I1000 I3001 T10941106 58003,KAMW,2019-01-14T02:53:00Z,41.98,-93.62,-9.4,-10.6,0,0,,3.0,30.398623,1030.6,,TRUE,TRUE,,,,,,BR,CLR,,,,,,,,MVFR,-0.3,,,,,,,,,,,METAR,279.0
KAMG 140253Z AUTO 33005KT 10SM -RA OVC029 11/06 A3020 RMK AO2 SLP225 P0000 60000 T01110061 51019,KAMG,2019-01-14T02:53:00Z,31.53,-82.5,11.1,6.1,330,5,,10.0,30.200787,1022.5,,TRUE,TRUE,,,,,,-RA,OVC,2900,,,,,,,MVFR,1.9,,,,,0.005,0.005,,,,,METAR,59.0
KAMA 140253Z 15005KT 10SM OVC005 01/M01 A3034 RMK AO2 SLP288 T00111006 51008,KAMA,2019-01-14T02:53:00Z,35.22,-101.72,1.1,-0.6,150,5,,10.0,30.339567,1028.8,,,TRUE,,,,,,,OVC,500,,,,,,,IFR,0.8,,,,,,,,,,,METAR,1093.0
KALW 140253Z AUTO 36003KT 10SM OVC008 00/M03 A3034 RMK AO2 SLP288 T00001028 50001,KALW,2019-01-14T02:53:00Z,46.1,-118.28,0.0,-2.8,360,3,,10.0,30.339567,1028.8,,TRUE,TRUE,,,,,,,OVC,800,,,,,,,IFR,0.1,,,,,,,,,,,METAR,363.0
KALI 140253Z AUTO 11003KT 10SM CLR 07/04 A3036 RMK AO2 SLP282 T00720039 53023,KALI,2019-01-14T02:53:00Z,27.73,-98.02,7.2,3.9,110,3,,10.0,30.360237,1028.2,,TRUE,TRUE,,,,,,,CLR,,,,,,,,VFR,2.3,,,,,,,,,,,METAR,53.0
KAKO 140253Z AUTO 22008KT 10SM CLR M03/M04 A3023 RMK AO2 SLP277 T10281044 50003,KAKO,2019-01-14T02:53:00Z,40.17,-103.22,-2.8,-4.4,220,8,,10.0,30.230314,1027.7,,TRUE,TRUE,,,,,,,CLR,,,,,,,,VFR,0.3,,,,,,,,,,,METAR,1421.0
KAIA 140253Z AUTO 00000KT 10SM CLR M06/M06 A3020 RMK AO2 SLP279 T10561061 50003,KAIA,2019-01-14T02:53:00Z,42.05,-102.8,-5.6,-6.1,0,0,,10.0,30.200787,1027.9,,TRUE,TRUE,,,,,,,CLR,,,,,,,,VFR,0.3,,,,,,,,,,,METAR,1196.0
KAGC 140253Z VRB03KT 10SM OVC033 M03/M06 A3021 RMK AO2 SLP251 T10331061 53004,KAGC,2019-01-14T02:53:00Z,40.35,-79.92,-3.3,-6.1,0,3,,10.0,30.209646,1025.1,,,TRUE,,,,,,,OVC,3300,,,,,,,VFR,0.4,,,,,,,,,,,METAR,389.0
KAFW 140253Z 36006KT 10SM OVC016 02/M02 A3045 RMK AO2 SLP323 T00221022 52009,KAFW,2019-01-14T02:53:00Z,32.97,-97.32,2.2,-2.2,360,6,,10.0,30.448818,1032.3,,,TRUE,,,,,,,OVC,1600,,,,,,,MVFR,0.9,,,,,,,,,,,METAR,233.0
KAEX 140253Z 01008KT 10SM OVC024 06/01 A3038 RMK AO2 SLP292 T00560006 51013,KAEX,2019-01-14T02:53:00Z,31.33,-92.57,5.6,0.6,10,8,,10.0,30.380905,1029.2,,,TRUE,,,,,,,OVC,2400,,,,,,,MVFR,1.3,,,,,,,,,,,METAR,27.0
KADG 140253Z AUTO 07006KT 10SM CLR M07/M12 A3035 RMK AO2 SLP293 T10671122 51004 TSNO,KADG,2019-01-14T02:53:00Z,41.87,-84.08,-6.7,-12.2,70,6,,10.0,30.351377,1029.3,,TRUE,TRUE,,,TRUE,,,,CLR,,,,,,,,VFR,0.4,,,,,,,,,,,METAR,241.0
KACV 140253Z AUTO 08003KT 8SM CLR 08/06 A2998 RMK AO2 SLP158 T00780061 50002,KACV,2019-01-14T02:53:00Z,40.98,-124.1,7.8,6.1,80,3,,8.0,29.97933,1015.8,,TRUE,TRUE,,,,,,,CLR,,,,,,,,VFR,0.2,,,,,,,,,,,METAR,67.0
KACK 140253Z 06009G21KT 10SM OVC025 00/M05 A3030 RMK AO2 SLP258 T00001050 56016,KACK,2019-01-14T02:53:00Z,41.25,-70.07,0.0,-5.0,60,9,21,10.0,30.301182,1025.8,,,TRUE,,,,,,,OVC,2500,,,,,,,MVFR,-1.6,,,,,,,,,,,METAR,16.0
KABY 140253Z AUTO 35005KT 10SM BKN021 BKN026 OVC030 12/07 A3024 RMK AO2 SLP238 T01170072 51017,KABY,2019-01-14T02:53:00Z,31.53,-84.2,11.7,7.2,350,5,,10.0,30.239174,1023.8,,TRUE,TRUE,,,,,,,BKN,2100,BKN,2600,OVC,3000,,,MVFR,1.7,,,,,,,,,,,METAR,58.0
KABR 140253Z AUTO 21010KT 10SM OVC005 M02/M02 A3021 RMK AO2 SLP250 T10171022 58010 $,KABR,2019-01-14T02:53:00Z,45.45,-98.42,-1.7,-2.2,210,10,,10.0,30.209646,1025.0,,TRUE,TRUE,TRUE,,,,,,OVC,500,,,,,,,IFR,-1.0,,,,,,,,,,,METAR,397.0
KAAF 140253Z AUTO 35009KT 10SM CLR 11/07 A3020 RMK AO2 SLP225 T01060072 53019,KAAF,2019-01-14T02:53:00Z,29.73,-85.03,10.6,7.2,350,9,,10.0,30.200787,1022.5,,TRUE,TRUE,,,,,,,CLR,,,,,,,,VFR,1.9,,,,,,,,,,,METAR,5.0
KDMO 140253Z AUTO 28004KT 5SM BR OVC011 M03/M03 A3045 RMK AO2 SLP321 T10281028 51008 $,KDMO,2019-01-14T02:53:00Z,38.72,-93.17,-2.8,-2.8,280,4,,5.0,30.448818,1032.1,,TRUE,TRUE,TRUE,,,,,BR,OVC,1100,,,,,,,MVFR,0.8,,,,,,,,,,,METAR,274.0
KDMN 140253Z AUTO 05007KT 10SM BKN065 09/M01 A3016 RMK AO2 SLP195 T00891006 53015,KDMN,2019-01-14T02:53:00Z,32.27,-107.72,8.9,-0.6,50,7,,10.0,30.159449,1019.5,,TRUE,TRUE,,,,,,,BKN,6500,,,,,,,VFR,1.5,,,,,,,,,,,METAR,1311.0
KDLS 140253Z AUTO 07007KT 10SM OVC026 03/01 A3037 RMK AO2 SLP285 T00330011 52004,KDLS,2019-01-14T02:53:00Z,45.62,-121.17,3.3,1.1,70,7,,10.0,30.369095,1028.5,,TRUE,TRUE,,,,,,,OVC,2600,,,,,,,MVFR,0.4,,,,,,,,,,,METAR,71.0
KDLN 140253Z AUTO 20008KT 10SM CLR M07/M13 A3023 RMK AO2 SLP313 T10671128 51007,KDLN,2019-01-14T02:53:00Z,45.25,-112.55,-6.7,-12.8,200,8,,10.0,30.230314,1031.3,,TRUE,TRUE,,,,,,,CLR,,,,,,,,VFR,0.7,,,,,,,,,,,METAR,1591.0
KDKK 140253Z AUTO 06008KT 10SM CLR M09/M13 A3035 RMK AO2 SLP290 T10891133 53002,KDKK,2019-01-14T02:53:00Z,42.5,-79.28,-8.9,-13.3,60,8,,10.0,30.351377,1029.0,,TRUE,TRUE,,,,,,,CLR,,,,,,,,VFR,0.2,,,,,,,,,,,METAR,202.0
KDHT 140253Z AUTO 18005KT 4SM BR OVC065 01/M01 A3033 RMK AO2 SLP283 T00061011 51010,KDHT,2019-01-14T02:53:00Z,36.02,-102.55,0.6,-1.1,180,5,,4.0,30.33071,1028.3,,TRUE,TRUE,,,,,,BR,OVC,6500,,,,,,,MVFR,1.0,,,,,,,,,,,METAR,1217.0
KDHN 140253Z AUTO 33006KT 10SM BKN031 09/04 A3026 RMK AO2 SLP247 T00890044 51011,KDHN,2019-01-14T02:53:00Z,31.32,-85.45,8.9,4.4,330,6,,10.0,30.259842,1024.7,,TRUE,TRUE,,,,,,,BKN,3100,,,,,,,VFR,1.1,,,,,,,,,,,METAR,113.0
KDGW 140253Z AUTO 33006KT 10SM CLR M07/M11 A3021 RMK AO2 SLP303 T10721111 51007 $,KDGW,2019-01-14T02:53:00Z,42.8,-105.38,-7.2,-11.1,330,6,,10.0,30.209646,1030.3,,TRUE,TRUE,TRUE,,,,,,CLR,,,,,,,,VFR,0.7,,,,,,,,,,,METAR,1499.0
KDFW 140253Z 02009KT 10SM OVC017 02/M02 A3044 RMK AO2 SLP310 T00221017 51010,KDFW,2019-01-14T02:53:00Z,32.9,-97.02,2.2,-1.7,20,9,,10.0,30.43996,1031.0,,,TRUE,,,,,,,OVC,1700,,,,,,,MVFR,1.0,,,,,,,,,,,METAR,174.0
KDFI 140253Z AUTO 00000KT 7SM CLR M11/M12 A3035 RMK AO2 SLP289 I1001 I3001 T11061122 53004,KDFI,2019-01-14T02:53:00Z,41.33,-84.43,-10.6,-12.2,0,0,,7.0,30.351377,1028.9,,TRUE,TRUE,,,,,,,CLR,,,,,,,,VFR,0.4,,,,,,,,,,,METAR,219.0
KDEW 140253Z AUTO 36007KT 10SM CLR M04/M05 A3030 RMK AO2 SLP291 I1000 I3000 T10391050 50000,KDEW,2019-01-14T02:53:00Z,47.97,-117.43,-3.9,-5.0,360,7,,10.0,30.301182,1029.1,,TRUE,TRUE,,,,,,,CLR,,,,,,,,VFR,0.0,,,,,,,,,,,METAR,674.0
KDET 140253Z 02004KT 10SM CLR M06/M09 A3037 RMK AO2 SLP293 T10611094 53001 $,KDET,2019-01-14T02:53:00Z,42.4,-83.02,-6.1,-9.4,20,4,,10.0,30.369095,1029.3,,,TRUE,TRUE,,,,,,CLR,,,,,,,,VFR,0.1,,,,,,,,,,,METAR,190.0
KDEQ 140253Z AUTO 01004KT 10SM OVC022 04/00 A3042 RMK AO2 SLP302 T00390000 51010,KDEQ,2019-01-14T02:53:00Z,34.05,-94.4,3.9,0.0,10,4,,10.0,30.41929,1030.2,,TRUE,TRUE,,,,,,,OVC,2200,,,,,,,MVFR,1.0,,,,,,,,,,,METAR,106.0
KDEN 140253Z 22005KT 10SM CLR M01/M07 A3021 RMK AO2 SLP260 T10111067 51007 $,KDEN,2019-01-14T02:53:00Z,39.85,-104.65,-1.1,-6.7,220,5,,10.0,30.209646,1026.0,,,TRUE,TRUE,,,,,,CLR,,,,,,,,VFR,0.7,,,,,,,,,,,METAR,1640.0
KDBQ 140253Z AUTO VRB03KT 10SM OVC017 M03/M07 A3039 RMK AO2 SLP306 T10281067 55001 $,KDBQ,2019-01-14T02:53:00Z,42.4,-90.7,-2.8,-6.7,0,3,,10.0,30.389763,1030.6,,TRUE,TRUE,TRUE,,,,,,OVC,1700,,,,,,,MVFR,-0.1,,,,,,,,,,,METAR,326.0
KDAN 140253Z AUTO 03011KT 10SM OVC006 00/M01 A3021 RMK AO2 SLP229 T00001006 52010,KDAN,2019-01-14T02:53:00Z,36.57,-79.33,0.0,-0.6,30,11,,10.0,30.209646,1022.9,,TRUE,TRUE,,,,,,,OVC,600,,,,,,,IFR,1.0,,,,,,,,,,,METAR,175.0
KDAL 140253Z 03007KT 10SM OVC018 03/M01 A3046 RMK AO2 SLP316 T00331011 51011 $,KDAL,2019-01-14T02:53:00Z,32.85,-96.85,3.3,-1.1,30,7,,10.0,30.46063,1031.6,,,TRUE,TRUE,,,,,,OVC,1800,,,,,,,MVFR,1.1,,,,,,,,,,,METAR,158.0
KDAB 140253Z 26006KT 10SM CLR 19/17 A3013 RMK AO2 SLP202 T01890167 51009,KDAB,2019-01-14T02:53:00Z,29.18,-81.07,18.9,16.7,260,6,,10.0,30.129921,1020.2,,,TRUE,,,,,,,CLR,,,,,,,,VFR,0.9,,,,,,,,,,,METAR,9.0
KCYS 140253Z 29008KT 10SM CLR M07/M13 A3020 RMK AO2 SLP296 T10671128 51007,KCYS,2019-01-14T02:53:00Z,41.15,-104.8,-6.7,-12.8,290,8,,10.0,30.200787,1029.6,,,TRUE,,,,,,,CLR,,,,,,,,VFR,0.7,,,,,,,,,,,METAR,1868.0
KCXO 140253Z AUTO 02005KT 10SM CLR 06/03 A3040 RMK AO2 SLP293 T00610033 51020,KCXO,2019-01-14T02:53:00Z,30.35,-95.42,6.1,3.3,20,5,,10.0,30.398623,1029.3,,TRUE,TRUE,,,,,,,CLR,,,,,,,,VFR,2.0,,,,,,,,,,,METAR,75.0
KCUT 140253Z AUTO 30006KT 10SM CLR 00/M19 A3014 RMK AO2 SLP242 T00001194 50002 $,KCUT,2019-01-14T02:53:00Z,43.73,-103.62,0.0,-19.4,300,6,,10.0,30.138779,1024.2,,TRUE,TRUE,TRUE,,,,,,CLR,,,,,,,,VFR,0.2,,,,,,,,,,,METAR,1725.0
KCUB 140253Z AUTO 00000KT OVC009 06/04 A3021 RMK AO2 CIG 006V013 SLP229 T00610039 51007 $,KCUB,2019-01-14T02:53:00Z,33.97,-81.0,6.1,3.9,0,0,,,30.209646,1022.9,,TRUE,TRUE,TRUE,,,,,,OVC,900,,,,,,,,0.7,,,,,,,,,,,METAR,56.0
KCSV 140253Z AUTO 32005KT 6SM BR OVC003 03/02 A3020 RMK AO2 SLP232 60001 T00280017 52013,KCSV,2019-01-14T02:53:00Z,35.95,-85.08,2.8,1.7,320,5,,6.0,30.200787,1023.2,,TRUE,TRUE,,,,,,BR,OVC,300,,,,,,,LIFR,1.3,,,,,,0.01,,,,,METAR,570.0
KCRS 140253Z AUTO 03007KT 10SM OVC020 03/M01 A3045 RMK AO2 SLP315 T00331011 51014 $,KCRS,2019-01-14T02:53:00Z,32.03,-96.4,3.3,-1.1,30,7,,10.0,30.448818,1031.5,,TRUE,TRUE,TRUE,,,,,,OVC,2000,,,,,,,MVFR,1.4,,,,,,,,,,,METAR,133.0
KCRQ 140253Z 12003KT 10SM CLR 14/09 A3001 RMK AO2 SLP162 T01390094 58000,KCRQ,2019-01-14T02:53:00Z,33.13,-117.28,13.9,9.4,120,3,,10.0,30.008858,1016.2,,,TRUE,,,,,,,CLR,,,,,,,,VFR,0.0,,,,,,,,,,,METAR,99.0
KCPS 140253Z 36008KT 10SM OVC016 M01/M04 A3042 RMK AO2 SLP305 T10111044 51011,KCPS,2019-01-14T02:53:00Z,38.57,-90.15,-1.1,-4.4,360,8,,10.0,30.41929,1030.5,,,TRUE,,,,,,,OVC,1600,,,,,,,MVFR,1.1,,,,,,,,,,,METAR,126.0
KBRD 140253Z AUTO 21010KT 5SM HZ OVC011 M01/M04 A3022 RMK AO2 SLP252 T10061039 58009,KBRD,2019-01-14T02:53:00Z,46.4,-94.13,-0.6,-3.9,210,10,,5.0,30.221457,1025.2,,TRUE,TRUE,,,,,,HZ,OVC,1100,,,,,,,MVFR,-0.9,,,,,,,,,,,METAR,372.0
KBPT 140253Z 02006KT 10SM CLR 07/02 A3039 RMK AO2 SLP289 T00720022 51028 $,KBPT,2019-01-14T02:53:00Z,29.95,-94.03,7.2,2.2,20,6,,10.0,30.389763,1028.9,,,TRUE,TRUE,,,,,,CLR,,,,,,,,VFR,2.8,,,,,,,,,,,METAR,5.0
KBPK 140253Z AUTO 36006KT 9SM OVC010 01/M02 A3039 RMK AO2 SLP298 T00061017 51010,KBPK,2019-01-14T02:53:00Z,36.37,-92.47,0.6,-1.7,360,6,,9.0,30.389763,1029.8,,TRUE,TRUE,,,,,,,OVC,1000,,,,,,,MVFR,1.0,,,,,,,,,,,METAR,280.0
KBPI 140253Z AUTO 00000KT 10SM CLR M19/M23 A3027 RMK AO2 SLP389 T11941228 51006,KBPI,2019-01-14T02:53:00Z,42.58,-110.1,-19.4,-22.8,0,0,,10.0,30.268702,1038.9,,TRUE,TRUE,,,,,,,CLR,,,,,,,,VFR,0.6,,,,,,,,,,,METAR,2117.0
KBOI 140253Z 00000KT 9SM CLR M03/M06 A3030 RMK AO2 SLP289 T10331056 50003,KBOI,2019-01-14T02:53:00Z,43.57,-116.23,-3.3,-5.6,0,0,,9.0,30.301182,1028.9,,,TRUE,,,,,,,CLR,,,,,,,,VFR,0.3,,,,,,,,,,,METAR,875.0
KBNO 140253Z AUTO 00000KT 10SM CLR M06/M07 A3020 RMK AO2 SLP278 T10611072 56001 $,KBNO,2019-01-14T02:53:00Z,43.6,-118.95,-6.1,-7.2,0,0,,10.0,30.200787,1027.8,,TRUE,TRUE,TRUE,,,,,,CLR,,,,,,,,VFR,-0.1,,,,,,,,,,,METAR,1264.0
KBNA 140253Z 32007KT 10SM OVC008 04/02 A3029 RMK AO2 SLP259 60000 T00390017 53013,KBNA,2019-01-14T02:53:00Z,36.12,-86.68,3.9,1.7,320,7,,10.0,30.28937,1025.9,,,TRUE,,,,,,,OVC,800,,,,,,,IFR,1.3,,,,,,0.005,,,,,METAR,210.0
KBMQ 140253Z AUTO 01005KT 10SM CLR 04/01 A3041 RMK AO2 SLP302 T00440006 51018 $,KBMQ,2019-01-14T02:53:00Z,30.73,-98.23,4.4,0.6,10,5,,10.0,30.410433,1030.2,,TRUE,TRUE,TRUE,,,,,,CLR,,,,,,,,VFR,1.8,,,,,,,,,,,METAR,389.0
KBMG 140253Z AUTO 01007KT 10SM OVC013 M02/M04 A3032 RMK AO2 SLP277 T10171039 51013,KBMG,2019-01-14T02:53:00Z,39.15,-86.62,-1.7,-3.9,10,7,,10.0,30.318897,1027.7,,TRUE,TRUE,,,,,,,OVC,1300,,,,,,,MVFR,1.3,,,,,,,,,,,METAR,257.0
KBLI 140253Z 00000KT 10SM CLR 03/01 A3014 RMK AO2 SLP217 T00280006 50001,KBLI,2019-01-14T02:53:00Z,48.8,-122.53,2.8,0.6,0,0,,10.0,30.138779,1021.7,,,TRUE,,,,,,,CLR,,,,,,,,VFR,0.1,,,,,,,,,,,METAR,50.0
KBKV 140253Z 26003KT 1/4SM FG VV002 16/16 A3018 RMK AO2 SLP218 T01560156 53013,KBKV,2019-01-14T02:53:00Z,28.47,-82.45,15.6,15.6,260,3,,0.25,30.180119,1021.8,,,TRUE,,,,,,FG,OVX,0,,,,,,,LIFR,1.3,,,,,,,,,,200,METAR,20.0
KBKL 140253Z 06009KT 10SM CLR M03/M07 A3031 RMK AO2 SLP270 T10281067 53005,KBKL,2019-01-14T02:53:00Z,41.53,-81.67,-2.8,-6.7,60,9,,10.0,30.31004,1027.0,,,TRUE,,,,,,,CLR,,,,,,,,VFR,0.5,,,,,,,,,,,METAR,184.0
KBKE 140253Z AUTO 10008KT 10SM OVC010 M02/M04 A3028 RMK AO2 SLP288 T10171039 51005,KBKE,2019-01-14T02:53:00Z,44.85,-117.82,-1.7,-3.9,100,8,,10.0,30.280512,1028.8,,TRUE,TRUE,,,,,,,OVC,1000,,,,,,,MVFR,0.5,,,,,,,,,,,METAR,1024.0
KBIV 140253Z AUTO 00000KT 10SM CLR M07/M11 A3038 RMK AO2 SLP298 T10671111 50000,KBIV,2019-01-14T02:53:00Z,42.75,-86.1,-6.7,-11.1,0,0,,10.0,30.380905,1029.8,,TRUE,TRUE,,,,,,,CLR,,,,,,,,VFR,0.0,,,,,,,,,,,METAR,208.0
KBIL 140253Z 24021KT 10SM FEW250 01/M09 A3015 RMK AO2 SLP242 T00111089 50001 $,KBIL,2019-01-14T02:53:00Z,45.8,-108.55,1.1,-8.9,240,21,,10.0,30.15059,1024.2,,,TRUE,TRUE,,,,,,FEW,25000,,,,,,,VFR,0.1,,,,,,,,,,,METAR,1091.0
KBGR 140253Z 32003KT 10SM CLR M13/M16 A3043 RMK AO2 SLP309 T11331156 53003,KBGR,2019-01-14T02:53:00Z,44.8,-68.82,-13.3,-15.6,320,3,,10.0,30.431103,1030.9,,,TRUE,,,,,,,CLR,,,,,,,,VFR,0.3,,,,,,,,,,,METAR,57.0
KBGM 140253Z 01005KT 10SM CLR M11/M15 A3026 RMK AO2 SLP281 T11111150 53001,KBGM,2019-01-14T02:53:00Z,42.22,-75.98,-11.1,-15.0,10,5,,10.0,30.259842,1028.1,,,TRUE,,,,,,,CLR,,,,,,,,VFR,0.1,,,,,,,,,,,METAR,490.0
KBFM 140253Z AUTO 34014KT 10SM BKN030 09/04 A3031 RMK AO2 SLP263 T00890039 51009,KBFM,2019-01-14T02:53:00Z,30.62,-88.07,8.9,3.9,340,14,,10.0,30.31004,1026.3,,TRUE,TRUE,,,,,,,BKN,3000,,,,,,,MVFR,0.9,,,,,,,,,,,METAR,20.0
KBFI 140253Z 00000KT 10SM CLR 06/02 A3012 RMK AO2 SLP200 T00560017 51002,KBFI,2019-01-14T02:53:00Z,47.55,-122.32,5.6,1.7,0,0,,10.0,30.121063,1020.0,,,TRUE,,,,,,,CLR,,,,,,,,VFR,0.2,,,,,,,,,,,METAR,4.0
KBFF 140253Z AUTO 10SM CLR M07/M09 A3022 RMK AO2 SLP287 T10721094 50004 $,KBFF,2019-01-14T02:53:00Z,41.87,-103.58,-7.2,-9.4,,,,10.0,30.221457,1028.7,,TRUE,TRUE,TRUE,,,,,,CLR,,,,,,,,VFR,0.4,,,,,,,,,,,METAR,1203.0
KBFD 140253Z AUTO 00000KT 10SM CLR M10/M17 A3022 RMK AO2 SLP267 T11001167 53003,KBFD,2019-01-14T02:53:00Z,41.8,-78.63,-10.0,-16.7,0,0,,10.0,30.221457,1026.7,,TRUE,TRUE,,,,,,,CLR,,,,,,,,VFR,0.3,,,,,,,,,,,METAR,647.0
KBEH 140253Z AUTO 00000KT 10SM CLR M08/M12 A3037 RMK AO2 SLP296 T10781117 50002,KBEH,2019-01-14T02:53:00Z,42.13,-86.42,-7.8,-11.7,0,0,,10.0,30.369095,1029.6,,TRUE,TRUE,,,,,,,CLR,,,,,,,,VFR,0.2,,,,,,,,,,,METAR,191.0
KBDE 140253Z AUTO 26005KT 10SM OVC008 M06/M07 A3019 RMK AO2 SLP246 T10561067 50009,KBDE,2019-01-14T02:53:00Z,48.73,-94.62,-5.6,-6.7,260,5,,10.0,30.188976,1024.6,,TRUE,TRUE,,,,,,,OVC,800,,,,,,,IFR,0.9,,,,,,,,,,,METAR,329.0
KBBW 140253Z AUTO 21009KT 9SM OVC002 M02/M02 A3028 RMK AO2 SLP284 T10171022 58003,KBBW,2019-01-14T02:53:00Z,41.43,-99.63,-1.7,-2.2,210,9,,9.0,30.280512,1028.4,,TRUE,TRUE,,,,,,,OVC,200,,,,,,,LIFR,-0.3,,,,,,,,,,,METAR,776.0
KBAF 140253Z 01007KT 10SM CLR M08/M15 A3037 RMK AO2 SLP296 T10831150 53002,KBAF,2019-01-14T02:53:00Z,42.17,-72.72,-8.3,-15.0,10,7,,10.0,30.369095,1029.6,,,TRUE,,,,,,,CLR,,,,,,,,VFR,0.2,,,,,,,,,,,METAR,83.0
KAZO 140253Z COR 00000KT 10SM CLR M07/ A3035 RMK AO2 SLP294 T1072 58001 $,KAZO,2019-01-14T02:53:00Z,42.23,-85.55,-7.2,,0,0,,10.0,30.351377,1029.4,TRUE,,TRUE,TRUE,,,,,,CLR,,,,,,,,VFR,-0.1,,,,,,,,,,,METAR,272.0
KAXN 140253Z AUTO 21012KT 10SM OVC009 00/M03 A3021 RMK AO2 SLP253 T00001033 58008,KAXN,2019-01-14T02:53:00Z,45.87,-95.4,0.0,-3.3,210,12,,10.0,30.209646,1025.3,,TRUE,TRUE,,,,,,,OVC,900,,,,,,,IFR,-0.8,,,,,,,,,,,METAR,433.0
KAWM 140253Z AUTO 35006KT 9SM OVC017 04/02 A3037 RMK AO2 SLP286 T00440022 51011 $,KAWM,2019-01-14T02:53:00Z,35.13,-90.23,4.4,2.2,350,6,,9.0,30.369095,1028.6,,TRUE,TRUE,TRUE,,,,,,OVC,1700,,,,,,,MVFR,1.1,,,,,,,,,,,METAR,65.0
KAUS 140253Z 03009KT 10SM OVC065 08/02 A3041 RMK AO2 SLP301 T00830017 51020,KAUS,2019-01-14T02:53:00Z,30.18,-97.68,8.3,1.7,30,9,,10.0,30.410433,1030.1,,,TRUE,,,,,,,OVC,6500,,,,,,,VFR,2.0,,,,,,,,,,,METAR,166.0
KP92 140253Z AUTO 35003KT A3034 RMK AO1 SLP275 51017 $,KP92,2019-01-14T02:53:00Z,29.57,-91.53,,,350,3,,,30.339567,1027.5,,TRUE,TRUE,TRUE,,,,,,,,,,,,,,,1.7,,,,,,,,,,,METAR,1.0
KOQT 140253Z AUTO 26003KT 10SM BKN014 OVC020 07/06 A3020 RMK AO2 SLP233 T00720061 53014,KOQT,2019-01-14T02:53:00Z,36.02,-84.23,7.2,6.1,260,3,,10.0,30.200787,1023.3,,TRUE,TRUE,,,,,,,BKN,1400,OVC,2000,,,,,MVFR,1.4,,,,,,,,,,,METAR,277.0
KSDB 140253Z AUTO 10020G29KT 10SM SCT050 BKN060 OVC090 06/M01 A3004 RMK AO2 PK WND 10032/0225 SLP161 T00561011 58001,KSDB,2019-01-14T02:53:00Z,34.75,-118.72,5.6,-1.1,100,20,29,10.0,30.041338,1016.1,,TRUE,TRUE,,,,,,,SCT,5000,BKN,6000,OVC,9000,,,VFR,-0.1,,,,,,,,,,,METAR,1377.0
KRVS 140253Z 34003KT 10SM OVC016 01/M03 A3048 RMK AO2 SLP331 T00111028 51006,KRVS,2019-01-14T02:53:00Z,36.05,-95.98,1.1,-2.8,340,3,,10.0,30.481298,1033.1,,,TRUE,,,,,,,OVC,1600,,,,,,,MVFR,0.6,,,,,,,,,,,METAR,200.0
KRHI 140253Z AUTO 24005KT 10SM CLR M06/M09 A3026 RMK AO2 SLP281 T10611089 58013 $,KRHI,2019-01-14T02:53:00Z,45.63,-89.48,-6.1,-8.9,240,5,,10.0,30.259842,1028.1,,TRUE,TRUE,TRUE,,,,,,CLR,,,,,,,,VFR,-1.3,,,,,,,,,,,METAR,485.0
KCMX 140253Z AUTO 23010KT 10SM OVC022 M02/M08 A3020 RMK AO2 SLP246 T10171083 58017,KCMX,2019-01-14T02:53:00Z,47.17,-88.48,-1.7,-8.3,230,10,,10.0,30.200787,1024.6,,TRUE,TRUE,,,,,,,OVC,2200,,,,,,,MVFR,-1.7,,,,,,,,,,,METAR,326.0
KBYI 140253Z AUTO 00000KT 10SM CLR M06/M08 A3025 RMK AO2 SLP282 T10561083 50006,KBYI,2019-01-14T02:53:00Z,42.55,-113.77,-5.6,-8.3,0,0,,10.0,30.250984,1028.2,,TRUE,TRUE,,,,,,,CLR,,,,,,,,VFR,0.6,,,,,,,,,,,METAR,1264.0
KBRL 140253Z AUTO 00000KT 10SM OVC021 M02/M06 A3043 RMK AO2 SLP313 T10221061 51006 $,KBRL,2019-01-14T02:53:00Z,40.77,-91.13,-2.2,-6.1,0,0,,10.0,30.431103,1031.3,,TRUE,TRUE,TRUE,,,,,,OVC,2100,,,,,,,MVFR,0.6,,,,,,,,,,,METAR,211.0
KLKV 140253Z AUTO 33008KT 10SM CLR M02/M06 A3011 RMK AO2 SLP241 T10171061 53005 FZRANO,KLKV,2019-01-14T02:53:00Z,42.17,-120.4,-1.7,-6.1,330,8,,10.0,30.109253,1024.1,,TRUE,TRUE,,,,TRUE,,,CLR,,,,,,,,VFR,0.5,,,,,,,,,,,METAR,1441.0
KHLC 140253Z AUTO 21009KT 8SM OVC005 M02/M03 A3037 RMK AO2 SLP309 T10221028 58001,KHLC,2019-01-14T02:53:00Z,39.37,-99.83,-2.2,-2.8,210,9,,8.0,30.369095,1030.9,,TRUE,TRUE,,,,,,,OVC,500,,,,,,,IFR,-0.1,,,,,,,,,,,METAR,669.0
KGGW 140253Z AUTO 08006KT 10SM CLR M04/M07 A3014 RMK AO2 SLP247 T10441072 53003,KGGW,2019-01-14T02:53:00Z,48.22,-106.62,-4.4,-7.2,80,6,,10.0,30.138779,1024.7,,TRUE,TRUE,,,,,,,CLR,,,,,,,,VFR,0.3,,,,,,,,,,,METAR,694.0
PKMR 140253Z 11007KT 15SM FEW016 SCT050 BKN300 30/22 A2968 RMK SLP054 8/808 T03020224 57029,PKMR,2019-01-14T02:53:00Z,7.08,171.38,30.2,22.4,110,7,,15.0,29.681103,1005.4,,,,,,,,,,FEW,1600,SCT,5000,BKN,30000,,,VFR,-2.9,,,,,,,,,,,SPECI,4.0
KUNV 140253Z 00000KT 7SM OVC060 M03/M09 A3025,KUNV,2019-01-14T02:53:00Z,40.85,-77.83,-3.0,-9.0,0,0,,7.0,30.250984,,,,,,,,,,,OVC,6000,,,,,,,VFR,,,,,,,,,,,,METAR,378.0
KSHN 140253Z AUTO 00000KT 10SM CLR 02/01 A3010 RMK AO2 SLP197 T00170006 58001 $,KSHN,2019-01-14T02:53:00Z,47.23,-123.13,1.7,0.6,0,0,,10.0,30.100393,1019.7,,TRUE,TRUE,TRUE,,,,,,CLR,,,,,,,,VFR,-0.1,,,,,,,,,,,METAR,82.0
KSGR 140253Z 01008KT 10SM OVC070 10/03 A3037 RMK AO2 SLP287 T01000033 53019,KSGR,2019-01-14T02:53:00Z,29.62,-95.65,10.0,3.3,10,8,,10.0,30.369095,1028.7,,,TRUE,,,,,,,OVC,7000,,,,,,,VFR,1.9,,,,,,,,,,,METAR,2.0
KSFF 140253Z 00000KT 10SM CLR M02/M03 A3031 RMK AO2 SLP284 T10171033 50001,KSFF,2019-01-14T02:53:00Z,47.68,-117.32,-1.7,-3.3,0,0,,10.0,30.31004,1028.4,,,TRUE,,,,,,,CLR,,,,,,,,VFR,0.1,,,,,,,,,,,METAR,609.0
PAOT 140253Z 09030G39KT 5SM BLSN OVC044 M12/M16 A2960 RMK PK WND 10039/0244 SLP023 T11171156 58022 VISNO E $ VIA AUTODIAL,PAOT,2019-01-14T02:53:00Z,66.87,-162.58,-11.7,-15.6,90,30,39,5.0,29.601377,1002.3,,,,TRUE,,,,,BLSN,OVC,4400,,,,,,,MVFR,-2.2,,,,,,,,,,,METAR,3.0
PAWD 140253Z AUTO 20018G25KT 10SM FEW024 SCT032 OVC043 06/02 A2979 RMK PK WND 19030/0238 SLP086 6//// T00560022 51009 TSNO PNO $ VIA AUTODIAL,PAWD,2019-01-14T02:53:00Z,60.12,-149.42,5.6,2.2,200,18,25,10.0,29.790354,1008.6,,TRUE,,TRUE,,TRUE,,,,FEW,2400,SCT,3200,OVC,4300,,,VFR,0.9,,,,,,,,,,,METAR,23.0
PABR 140253Z 07018G27KT 2SM BLSN SCT008 M27/M30 A3022 RMK PK WND 07028/0240 SLP236 I3000 T12671300 55001 VIA AUTODIAL,PABR,2019-01-14T02:53:00Z,71.28,-156.77,-26.7,-30.0,70,18,27,2.0,30.221457,1023.6,,,,,,,,,BLSN,SCT,800,,,,,,,IFR,-0.1,,,,,,,,,,,METAR,7.0
PAQT 140253Z AUTO 05015KT 1 1/4SM BR OVC008 M27/M29 A3014 RMK SLP207 60000 T12721294 55001 TSNO VIA AUTODIAL,PAQT,2019-01-14T02:53:00Z,70.22,-151.0,-27.2,-29.4,50,15,,1.25,30.138779,1020.7,,TRUE,,,,TRUE,,,BR,OVC,800,,,,,,,IFR,-0.1,,,,,,0.005,,,,,METAR,12.0
PANT 140253Z AUTO 12012KT 10SM -RA SCT023 OVC041 08/07 A3005 RMK SLP177 P0003 60009 T00830067 58002 TSNO $ VIA AUTODIAL,PANT,2019-01-14T02:53:00Z,55.03,-131.57,8.3,6.7,120,12,,10.0,30.050198,1017.7,,TRUE,,TRUE,,TRUE,,,-RA,SCT,2300,OVC,4100,,,,,VFR,-0.2,,,,,0.03,0.09,,,,,METAR,36.0
KSLN 140253Z 25004KT 8SM OVC005 M03/M03 A3046 RMK AO2 SLP329 T10281033 50005,KSLN,2019-01-14T02:53:00Z,38.78,-97.65,-2.8,-3.3,250,4,,8.0,30.46063,1032.9,,,TRUE,,,,,,,OVC,500,,,,,,,IFR,0.5,,,,,,,,,,,METAR,385.0
KSMF 140253Z 29003KT 10SM BKN250 11/08 A2998 RMK AO2 SLP152 T01060078 53000,KSMF,2019-01-14T02:53:00Z,38.7,-121.6,10.6,7.8,290,3,,10.0,29.97933,1015.2,,,TRUE,,,,,,,BKN,25000,,,,,,,VFR,0.0,,,,,,,,,,,METAR,6.0
KSMQ 140253Z AUTO 04007KT 10SM CLR M03/M13 A3029 RMK AO2 SLP261 T10281133 53006,KSMQ,2019-01-14T02:53:00Z,40.62,-74.67,-2.8,-13.3,40,7,,10.0,30.28937,1026.1,,TRUE,TRUE,,,,,,,CLR,,,,,,,,VFR,0.6,,,,,,,,,,,METAR,30.0
KSNA 140253Z 24003KT 10SM SCT130 BKN170 14/08 A3002 RMK AO2 SLP164 T01440083 56003,KSNA,2019-01-14T02:53:00Z,33.67,-117.87,14.4,8.3,240,3,,10.0,30.02067,1016.4,,,TRUE,,,,,,,SCT,13000,BKN,17000,,,,,VFR,-0.3,,,,,,,,,,,METAR,16.0
KSNS 140253Z AUTO 00000KT 10SM CLR 12/07 A2995 RMK AO2 SLP149 T01220072 53004,KSNS,2019-01-14T02:53:00Z,36.67,-121.6,12.2,7.2,0,0,,10.0,29.949802,1014.9,,TRUE,TRUE,,,,,,,CLR,,,,,,,,VFR,0.4,,,,,,,,,,,METAR,30.0
KSNY 140253Z AUTO 23011KT 10SM CLR M05/M07 A3022 RMK AO2 SLP288 T10501067 50004,KSNY,2019-01-14T02:53:00Z,41.1,-102.98,-5.0,-6.7,230,11,,10.0,30.221457,1028.8,,TRUE,TRUE,,,,,,,CLR,,,,,,,,VFR,0.4,,,,,,,,,,,METAR,1307.0
KSPB 140253Z AUTO 26003KT 10SM CLR 03/M01 A3012 RMK AO2 SLP199 T00331006 53002,KSPB,2019-01-14T02:53:00Z,45.77,-122.87,3.3,-0.6,260,3,,10.0,30.121063,1019.9,,TRUE,TRUE,,,,,,,CLR,,,,,,,,VFR,0.2,,,,,,,,,,,METAR,14.0
KSPG 140253Z AUTO 31003KT 10SM CLR 19/18 A3015 RMK AO2 SLP208 T01890178 51011,KSPG,2019-01-14T02:53:00Z,27.77,-82.63,18.9,17.8,310,3,,10.0,30.15059,1020.8,,TRUE,TRUE,,,,,,,CLR,,,,,,,,VFR,1.1,,,,,,,,,,,METAR,2.0
KSPW 140253Z AUTO 21008KT 7SM CLR M02/M04 A3032 RMK AO2 SLP286 T10221044 58004,KSPW,2019-01-14T02:53:00Z,43.17,-95.22,-2.2,-4.4,210,8,,7.0,30.318897,1028.6,,TRUE,TRUE,,,,,,,CLR,,,,,,,,VFR,-0.4,,,,,,,,,,,METAR,403.0
KSRQ 140253Z 00000KT 9SM CLR 18/17 A3015 RMK AO2 SLP209 T01830172 51013,KSRQ,2019-01-14T02:53:00Z,27.4,-82.57,18.3,17.2,0,0,,9.0,30.15059,1020.9,,,TRUE,,,,,,,CLR,,,,,,,,VFR,1.3,,,,,,,,,,,METAR,18.0
KSSF 140253Z 07008KT 10SM CLR 09/02 A3037 RMK AO2 SLP288 T00940017 51024 $,KSSF,2019-01-14T02:53:00Z,29.33,-98.47,9.4,1.7,70,8,,10.0,30.369095,1028.8,,,TRUE,TRUE,,,,,,CLR,,,,,,,,VFR,2.4,,,,,,,,,,,METAR,176.0
KSSI 140253Z AUTO 32011KT 10SM OVC010 12/08 A3018 RMK AO2 SLP221 T01170083 53022,KSSI,2019-01-14T02:53:00Z,31.15,-81.38,11.7,8.3,320,11,,10.0,30.180119,1022.1,,TRUE,TRUE,,,,,,,OVC,1000,,,,,,,MVFR,2.2,,,,,,,,,,,METAR,6.0
KSTC 140253Z 21011KT 10SM OVC015 M01/M03 A3026 RMK AO2 SLP269 T10061033 56010 $,KSTC,2019-01-14T02:53:00Z,45.55,-94.05,-0.6,-3.3,210,11,,10.0,30.259842,1026.9,,,TRUE,TRUE,,,,,,OVC,1500,,,,,,,MVFR,-1.0,,,,,,,,,,,METAR,314.0
KSTJ 140253Z AUTO 31003KT 6SM BR OVC012 M02/M04 A3046 RMK AO2 SLP324 T10221039 51001,KSTJ,2019-01-14T02:53:00Z,39.77,-94.92,-2.2,-3.9,310,3,,6.0,30.46063,1032.4,,TRUE,TRUE,,,,,,BR,OVC,1200,,,,,,,MVFR,0.1,,,,,,,,,,,METAR,247.0
KSTP 140253Z 16006KT 8SM OVC028 00/M04 A3032 RMK AO2 SLP273 T00001044 58012 $,KSTP,2019-01-14T02:53:00Z,44.93,-93.05,0.0,-4.4,160,6,,8.0,30.318897,1027.3,,,TRUE,TRUE,,,,,,OVC,2800,,,,,,,MVFR,-1.2,,,,,,,,,,,METAR,219.0
KSJC 140253Z 14006KT 10SM FEW050 BKN100 OVC200 12/06 A2995 RMK AO2 SLP140 T01170056 53003,KSJC,2019-01-14T02:53:00Z,37.37,-121.92,11.7,5.6,140,6,,10.0,29.949802,1014.0,,,TRUE,,,,,,,FEW,5000,BKN,10000,OVC,20000,,,VFR,0.3,,,,,,,,,,,METAR,24.0
KSIY 140253Z AUTO 03003KT 10SM CLR 03/M04 A3004 RMK AO2 SLP198 T00281039 50002,KSIY,2019-01-14T02:53:00Z,41.77,-122.47,2.8,-3.9,30,3,,10.0,30.041338,1019.8,,TRUE,TRUE,,,,,,,CLR,,,,,,,,VFR,0.2,,,,,,,,,,,METAR,807.0
KSHR 140253Z AUTO 10SM CLR M02/M08 A3015 RMK AO2 SLP263 T10221083 58001,KSHR,2019-01-14T02:53:00Z,44.77,-106.97,-2.2,-8.3,,,,10.0,30.15059,1026.3,,TRUE,TRUE,,,,,,,CLR,,,,,,,,VFR,-0.1,,,,,,,,,,,METAR,1202.0
KSTS 140253Z 21005KT 10SM CLR 12/06 A2995 RMK AO2 SLP136 T01170061 53004,KSTS,2019-01-14T02:53:00Z,38.5,-122.82,11.7,6.1,210,5,,10.0,29.949802,1013.6,,,TRUE,,,,,,,CLR,,,,,,,,VFR,0.4,,,,,,,,,,,METAR,39.0
KSWO 140253Z AUTO 36007KT 9SM OVC013 01/M03 A3046 RMK AO2 SLP322 T00111028 51007,KSWO,2019-01-14T02:53:00Z,36.17,-97.08,1.1,-2.8,360,7,,9.0,30.46063,1032.2,,TRUE,TRUE,,,,,,,OVC,1300,,,,,,,MVFR,0.7,,,,,,,,,,,METAR,290.0
KBVO 140253Z AUTO 00000KT 8SM OVC012 00/M02 A3049 RMK AO2 SLP327 T00001022 51006,KBVO,2019-01-14T02:53:00Z,36.77,-96.02,0.0,-2.2,0,0,,8.0,30.490158,1032.7,,TRUE,TRUE,,,,,,,OVC,1200,,,,,,,MVFR,0.6,,,,,,,,,,,METAR,210.0
KBUR 140253Z 35005KT 10SM CLR 13/06 A3001 RMK AO2 SLP156 T01330056 58009,KBUR,2019-01-14T02:53:00Z,34.2,-118.37,13.3,5.6,350,5,,10.0,30.008858,1015.6,,,TRUE,,,,,,,CLR,,,,,,,,VFR,-0.9,,,,,,,,,,,METAR,217.0
KBTR 140253Z 01011KT 10SM OVC021 06/01 A3037 RMK AO2 SLP283 T00560011 51015,KBTR,2019-01-14T02:53:00Z,30.53,-91.15,5.6,1.1,10,11,,10.0,30.369095,1028.3,,,TRUE,,,,,,,OVC,2100,,,,,,,MVFR,1.5,,,,,,,,,,,METAR,21.0
KBTM 140253Z AUTO 15003KT 10SM CLR M16/M19 A3024 RMK AO2 SLP358 T11611194 50005,KBTM,2019-01-14T02:53:00Z,45.97,-112.5,-16.1,-19.4,150,3,,10.0,30.239174,1035.8,,TRUE,TRUE,,,,,,,CLR,,,,,,,,VFR,0.5,,,,,,,,,,,METAR,1688.0
KBTL 140253Z 04004KT 10SM CLR M06/M10 A3035 RMK AO2 SLP292 T10561100 58000,KBTL,2019-01-14T02:53:00Z,42.32,-85.23,-5.6,-10.0,40,4,,10.0,30.351377,1029.2,,,TRUE,,,,,,,CLR,,,,,,,,VFR,0.0,,,,,,,,,,,METAR,290.0
KBRO 140253Z 36005KT 10SM OVC046 14/12 A3033 RMK AO2 SLP268 T01390117 51017,KBRO,2019-01-14T02:53:00Z,25.92,-97.42,13.9,11.7,360,5,,10.0,30.33071,1026.8,,,TRUE,,,,,,,OVC,4600,,,,,,,VFR,1.7,,,,,,,,,,,METAR,7.0
KTCL 140253Z AUTO 33009KT 10SM OVC018 07/02 A3033 RMK AO2 SLP268 T00670022 51014,KTCL,2019-01-14T02:53:00Z,33.22,-87.62,6.7,2.2,330,9,,10.0,30.33071,1026.8,,TRUE,TRUE,,,,,,,OVC,1800,,,,,,,MVFR,1.4,,,,,,,,,,,METAR,49.0
KTCC 140253Z AUTO 04003KT 8SM FEW025 OVC032 03/01 A3030 RMK AO2 SLP270 T00280011 51006,KTCC,2019-01-14T02:53:00Z,35.18,-103.6,2.8,1.1,40,3,,8.0,30.301182,1027.0,,TRUE,TRUE,,,,,,,FEW,2500,OVC,3200,,,,,VFR,0.6,,,,,,,,,,,METAR,1235.0
KBWG 140253Z AUTO 01005KT 4SM BR OVC005 02/01 A3029 RMK AO2 CIG 004V010 SLP261 T00220011 51013,KBWG,2019-01-14T02:53:00Z,36.97,-86.42,2.2,1.1,10,5,,4.0,30.28937,1026.1,,TRUE,TRUE,,,,,,BR,OVC,500,,,,,,,IFR,1.3,,,,,,,,,,,METAR,168.0
KCDS 140253Z AUTO 12006KT 10SM OVC090 02/M02 A3042 RMK AO2 SLP313 T00171017 51009,KCDS,2019-01-14T02:53:00Z,34.43,-100.28,1.7,-1.7,120,6,,10.0,30.41929,1031.3,,TRUE,TRUE,,,,,,,OVC,9000,,,,,,,VFR,0.9,,,,,,,,,,,METAR,594.0
KCDR 140253Z AUTO 24007KT 10SM CLR M04/M06 A3020 RMK AO2 SLP281 I3000 T10391056 50007 $,KCDR,2019-01-14T02:53:00Z,42.83,-103.1,-3.9,-5.6,240,7,,10.0,30.200787,1028.1,,TRUE,TRUE,TRUE,,,,,,CLR,,,,,,,,VFR,0.7,,,,,,,,,,,METAR,1010.0
KCCR 140253Z 00000KT 10SM CLR 12/07 A2997 RMK AO2 SLP135 T01170072 55001,KCCR,2019-01-14T02:53:00Z,38.0,-122.05,11.7,7.2,0,0,,10.0,29.970472,1013.5,,,TRUE,,,,,,,CLR,,,,,,,,VFR,-0.1,,,,,,,,,,,METAR,11.0
KCAG 140253Z AUTO 09004KT 7SM OVC004 M09/M11 A3031 RMK AO2 SLP343 T10891106 51011,KCAG,2019-01-14T02:53:00Z,40.5,-107.52,-8.9,-10.6,90,4,,7.0,30.31004,1034.3,,TRUE,TRUE,,,,,,,OVC,400,,,,,,,LIFR,1.1,,,,,,,,,,,METAR,1887.0
KBYG 140253Z AUTO 21006KT 10SM CLR 02/M11 A3016 RMK AO2 SLP234 T00221111 58001,KBYG,2019-01-14T02:53:00Z,44.38,-106.72,2.2,-11.1,210,6,,10.0,30.159449,1023.4,,TRUE,TRUE,,,,,,,CLR,,,,,,,,VFR,-0.1,,,,,,,,,,,METAR,1497.0
KTUP 140253Z 33006KT 10SM OVC017 05/01 A3034 RMK AO2 SLP273 T00500011 51009,KTUP,2019-01-14T02:53:00Z,34.27,-88.77,5.0,1.1,330,6,,10.0,30.339567,1027.3,,,TRUE,,,,,,,OVC,1700,,,,,,,MVFR,0.9,,,,,,,,,,,METAR,105.0
KCHA 140253Z 27007KT 10SM OVC020 07/03 A3023 RMK AO2 SLP237 T00720033 51014 $,KCHA,2019-01-14T02:53:00Z,35.03,-85.2,7.2,3.3,270,7,,10.0,30.230314,1023.7,,,TRUE,TRUE,,,,,,OVC,2000,,,,,,,MVFR,1.4,,,,,,,,,,,METAR,210.0
KCGI 140253Z AUTO 36009KT 8SM OVC013 01/M02 A3038 RMK AO2 SLP289 T00061022 53011,KCGI,2019-01-14T02:53:00Z,37.23,-89.58,0.6,-2.2,360,9,,8.0,30.380905,1028.9,,TRUE,TRUE,,,,,,,OVC,1300,,,,,,,MVFR,1.1,,,,,,,,,,,METAR,102.0
KCEZ 140253Z AUTO 00000KT 8SM BKN025 OVC049 01/M01 A3021 RMK AO2 SNB33E48 SLP242 P0000 60000 T00061011 51015,KCEZ,2019-01-14T02:53:00Z,37.3,-108.63,0.6,-1.1,0,0,,8.0,30.209646,1024.2,,TRUE,TRUE,,,,,,,BKN,2500,OVC,4900,,,,,MVFR,1.5,,,,,0.005,0.005,,,,,METAR,1797.0
KCEW 140253Z AUTO 36005KT 10SM OVC025 10/04 A3028 RMK AO2 SLP251 T01000044 51014,KCEW,2019-01-14T02:53:00Z,30.78,-86.52,10.0,4.4,360,5,,10.0,30.280512,1025.1,,TRUE,TRUE,,,,,,,OVC,2500,,,,,,,MVFR,1.4,,,,,,,,,,,METAR,55.0
KCDW 140253Z 04005KT 10SM CLR M04/M13 A3032 RMK AO2 SLP276 T10441133 55001,KCDW,2019-01-14T02:53:00Z,40.88,-74.28,-4.4,-13.3,40,5,,10.0,30.318897,1027.6,,,TRUE,,,,,,,CLR,,,,,,,,VFR,-0.1,,,,,,,,,,,METAR,64.0
KOLF 140253Z AUTO 04004KT 10SM CLR M06/M08 A3017 RMK AO2 SLP256 T10611083 50003 TSNO,KOLF,2019-01-14T02:53:00Z,48.1,-105.58,-6.1,-8.3,40,4,,10.0,30.171259,1025.6,,TRUE,TRUE,,,TRUE,,,,CLR,,,,,,,,VFR,0.3,,,,,,,,,,,METAR,604.0
KOJC 140253Z 34003KT 10SM OVC011 M02/M04 A3044 RMK AO2 SLP321 T10221039 51007,KOJC,2019-01-14T02:53:00Z,38.85,-94.73,-2.2,-3.9,340,3,,10.0,30.43996,1032.1,,,TRUE,,,,,,,OVC,1100,,,,,,,MVFR,0.7,,,,,,,,,,,METAR,326.0
KOGD 140253Z 33004KT 9SM CLR M08/M09 A3030 RMK AO2 SLP305 T10781094 53008,KOGD,2019-01-14T02:53:00Z,41.2,-112.02,-7.8,-9.4,330,4,,9.0,30.301182,1030.5,,,TRUE,,,,,,,CLR,,,,,,,,VFR,0.8,,,,,,,,,,,METAR,1353.0
KOGB 140253Z AUTO 35004KT 10SM OVC009 07/04 A3019 RMK AO2 SLP222 T00670044 51012,KOGB,2019-01-14T02:53:00Z,33.47,-80.85,6.7,4.4,350,4,,10.0,30.188976,1022.2,,TRUE,TRUE,,,,,,,OVC,900,,,,,,,IFR,1.2,,,,,,,,,,,METAR,59.0
KODX 140253Z AUTO 22011KT 10SM OVC007 M01/M03 A3030 RMK AO2 SLP286 T10111028 58004,KODX,2019-01-14T02:53:00Z,41.62,-98.95,-1.1,-2.8,220,11,,10.0,30.301182,1028.6,,TRUE,TRUE,,,,,,,OVC,700,,,,,,,IFR,-0.4,,,,,,,,,,,METAR,631.0
KOAK 140253Z 07005KT 10SM BKN200 BKN250 12/07 A2995 RMK AO2 SLP142 T01220067 53001,KOAK,2019-01-14T02:53:00Z,37.72,-122.23,12.2,6.7,70,5,,10.0,29.949802,1014.2,,,TRUE,,,,,,,BKN,20000,BKN,25000,,,,,VFR,0.1,,,,,,,,,,,METAR,26.0
KNEW 140253Z 01011G20KT 10SM OVC020 07/03 A3035 RMK AO2 SLP271 T00720028 51017,KNEW,2019-01-14T02:53:00Z,30.05,-90.03,7.2,2.8,10,11,20,10.0,30.351377,1027.1,,,TRUE,,,,,,,OVC,2000,,,,,,,MVFR,1.7,,,,,,,,,,,METAR,3.0
KMYV 140253Z AUTO 00000KT 10SM CLR 09/06 A2999 RMK AO2 SLP160 T00890061 50001,KMYV,2019-01-14T02:53:00Z,39.1,-121.57,8.9,6.1,0,0,,10.0,29.991142,1016.0,,TRUE,TRUE,,,,,,,CLR,,,,,,,,VFR,0.1,,,,,,,,,,,METAR,21.0
KMYF 140253Z 12003KT 10SM CLR 12/09 A3004 RMK AO2 SLP171 T01220094 53003,KMYF,2019-01-14T02:53:00Z,32.82,-117.13,12.2,9.4,120,3,,10.0,30.041338,1017.1,,,TRUE,,,,,,,CLR,,,,,,,,VFR,0.3,,,,,,,,,,,METAR,136.0
KMWL 140253Z AUTO 35008KT 8SM OVC014 02/M02 A3044 RMK AO2 SLP311 T00171022 52011,KMWL,2019-01-14T02:53:00Z,32.78,-98.07,1.7,-2.2,350,8,,8.0,30.43996,1031.1,,TRUE,TRUE,,,,,,,OVC,1400,,,,,,,MVFR,1.1,,,,,,,,,,,METAR,284.0
KMVY 140253Z AUTO 03012KT 10SM OVC024 M01/M05 A3030 RMK AO2 SLP260 T10111050 58016,KMVY,2019-01-14T02:53:00Z,41.4,-70.62,-1.1,-5.0,30,12,,10.0,30.301182,1026.0,,TRUE,TRUE,,,,,,,OVC,2400,,,,,,,MVFR,-1.6,,,,,,,,,,,METAR,16.0
KMTJ 140253Z AUTO 16006KT 10SM CLR M07/M11 A3025 RMK AO2 SLP284 T10721106 51011,KMTJ,2019-01-14T02:53:00Z,38.5,-107.9,-7.2,-10.6,160,6,,10.0,30.250984,1028.4,,TRUE,TRUE,,,,,,,CLR,,,,,,,,VFR,1.1,,,,,,,,,,,METAR,1750.0
KMTH 140253Z AUTO 33004KT 10SM CLR 23/20 A3016 RMK AO2 SLP211 T02280200 53005,KMTH,2019-01-14T02:53:00Z,24.73,-81.05,22.8,20.0,330,4,,10.0,30.159449,1021.1,,TRUE,TRUE,,,,,,,CLR,,,,,,,,VFR,0.5,,,,,,,,,,,METAR,2.0
KMSY 140253Z 02007KT 10SM OVC020 08/03 A3034 RMK AO2 SLP277 T00780033 51016 $,KMSY,2019-01-14T02:53:00Z,30.0,-90.25,7.8,3.3,20,7,,10.0,30.339567,1027.7,,,TRUE,TRUE,,,,,,OVC,2000,,,,,,,MVFR,1.6,,,,,,,,,,,METAR,5.0
KMSS 140253Z AUTO 00000KT 10SM CLR M18/M20 A3048 RMK AO2 SLP333 I1000 I3000 T11831200 56010,KMSS,2019-01-14T02:53:00Z,44.93,-74.85,-18.3,-20.0,0,0,,10.0,30.481298,1033.3,,TRUE,TRUE,,,,,,,CLR,,,,,,,,VFR,-1.0,,,,,,,,,,,METAR,66.0
KCPR 140253Z 23013KT 10SM CLR M07/M12 A3021 RMK AO2 SLP295 T10721122 51004,KCPR,2019-01-14T02:53:00Z,42.9,-106.47,-7.2,-12.2,230,13,,10.0,30.209646,1029.5,,,TRUE,,,,,,,CLR,,,,,,,,VFR,0.4,,,,,,,,,,,METAR,1621.0
KCOT 140253Z AUTO 07006KT 10SM CLR 08/04 A3037 RMK AO2 SLP284 T00830039 51024,KCOT,2019-01-14T02:53:00Z,28.45,-99.22,8.3,3.9,70,6,,10.0,30.369095,1028.4,,TRUE,TRUE,,,,,,,CLR,,,,,,,,VFR,2.4,,,,,,,,,,,METAR,140.0
KCNY 140253Z AUTO 00000KT 10SM CLR M06/M08 A3022 RMK AO2 SLP274 T10611078 51010 $,KCNY,2019-01-14T02:53:00Z,38.77,-109.75,-6.1,-7.8,0,0,,10.0,30.221457,1027.4,,TRUE,TRUE,TRUE,,,,,,CLR,,,,,,,,VFR,1.0,,,,,,,,,,,METAR,1390.0
KCNO 140253Z 00000KT 10SM SCT110 14/08 A3003 RMK AO2 SLP170 T01390083 58001,KCNO,2019-01-14T02:53:00Z,33.98,-117.62,13.9,8.3,0,0,,10.0,30.029528,1017.0,,,TRUE,,,,,,,SCT,11000,,,,,,,VFR,-0.1,,,,,,,,,,,METAR,207.0
KCNM 140253Z AUTO 17006KT 10SM OVC034 04/M02 A3030 RMK AO2 SLP256 T00441017 51018,KCNM,2019-01-14T02:53:00Z,32.33,-104.25,4.4,-1.7,170,6,,10.0,30.301182,1025.6,,TRUE,TRUE,,,,,,,OVC,3400,,,,,,,VFR,1.8,,,,,,,,,,,METAR,985.0
KCMI 140253Z 34006KT 10SM BR CLR M08/M09 A3038 RMK AO2 SLP298 I1000 I3000 T10831094 51009 $,KCMI,2019-01-14T02:53:00Z,40.03,-88.27,-8.3,-9.4,340,6,,10.0,30.380905,1029.8,,,TRUE,TRUE,,,,,BR,CLR,,,,,,,,VFR,0.9,,,,,,,,,,,METAR,228.0
KCLM 140253Z AUTO 22004KT 10SM CLR 01/01 A3015 RMK AO2 SLP214 T00110006 53004,KCLM,2019-01-14T02:53:00Z,48.12,-123.5,1.1,0.6,220,4,,10.0,30.15059,1021.4,,TRUE,TRUE,,,,,,,CLR,,,,,,,,VFR,0.4,,,,,,,,,,,METAR,85.0
KCLL 140253Z 01009KT 10SM CLR 06/02 A3040 RMK AO2 SLP295 T00560017 51017 $,KCLL,2019-01-14T02:53:00Z,30.58,-96.37,5.6,1.7,10,9,,10.0,30.398623,1029.5,,,TRUE,TRUE,,,,,,CLR,,,,,,,,VFR,1.7,,,,,,,,,,,METAR,96.0
KCKB 140253Z 02005KT 8SM OVC009 M01/M03 A3017 RMK AO2 SLP224 60000 I3001 T10061028 51007 $,KCKB,2019-01-14T02:53:00Z,39.3,-80.22,-0.6,-2.8,20,5,,8.0,30.171259,1022.4,,,TRUE,TRUE,,,,,,OVC,900,,,,,,,IFR,0.7,,,,,,0.005,,,,,METAR,360.0
KRNT 140253Z 00000KT 10SM CLR 05/02 A3012 RMK AO2 SLP204 T00500022 51003,KRNT,2019-01-14T02:53:00Z,47.5,-122.22,5.0,2.2,0,0,,10.0,30.121063,1020.4,,,TRUE,,,,,,,CLR,,,,,,,,VFR,0.3,,,,,,,,,,,METAR,21.0
KRNM 140253Z 10007KT 10SM CLR 12/03 A3003 RMK AO2 SLP167 T01220028 53004,KRNM,2019-01-14T02:53:00Z,33.03,-116.92,12.2,2.8,100,7,,10.0,30.029528,1016.7,,,TRUE,,,,,,,CLR,,,,,,,,VFR,0.4,,,,,,,,,,,METAR,427.0
KRMG 140253Z AUTO 26004KT 10SM OVC012 07/05 A3022 RMK AO2 SLP232 T00720050 53007 $,KRMG,2019-01-14T02:53:00Z,34.35,-85.17,7.2,5.0,260,4,,10.0,30.221457,1023.2,,TRUE,TRUE,TRUE,,,,,,OVC,1200,,,,,,,MVFR,0.7,,,,,,,,,,,METAR,193.0
KRME 140253Z AUTO 00000KT 10SM CLR M12/M14 A3040 RMK AO2 SLP304 T11171144 55000,KRME,2019-01-14T02:53:00Z,43.22,-75.4,-11.7,-14.4,0,0,,10.0,30.398623,1030.4,,TRUE,TRUE,,,,,,,CLR,,,,,,,,VFR,0.0,,,,,,,,,,,METAR,154.0
KRKP 140253Z AUTO 05007KT 10SM CLR 11/06 A3037 RMK AO2 SLP285 T01110061 53020,KRKP,2019-01-14T02:53:00Z,28.08,-97.05,11.1,6.1,50,7,,10.0,30.369095,1028.5,,TRUE,TRUE,,,,,,,CLR,,,,,,,,VFR,2.0,,,,,,,,,,,METAR,6.0
KRIW 140253Z AUTO 23003KT 10SM CLR M15/M17 A3025 RMK AO2 SLP346 T11501172 50006,KRIW,2019-01-14T02:53:00Z,43.07,-108.47,-15.0,-17.2,230,3,,10.0,30.250984,1034.6,,TRUE,TRUE,,,,,,,CLR,,,,,,,,VFR,0.6,,,,,,,,,,,METAR,1697.0
KRIL 140253Z AUTO 21006KT 10SM CLR M07/M11 A3025 RMK AO2 SLP311 T10671106 51016 $,KRIL,2019-01-14T02:53:00Z,39.53,-107.73,-6.7,-10.6,210,6,,10.0,30.250984,1031.1,,TRUE,TRUE,TRUE,,,,,,CLR,,,,,,,,VFR,1.6,,,,,,,,,,,METAR,1678.0
KRBG 140253Z AUTO 12003KT 1/2SM FG VV002 03/03 A3006 RMK AO2 SLP184 T00280028 58002,KRBG,2019-01-14T02:53:00Z,43.23,-123.35,2.8,2.8,120,3,,0.5,30.059055,1018.4,,TRUE,TRUE,,,,,,FG,OVX,0,,,,,,,LIFR,-0.2,,,,,,,,,,200,METAR,154.0
KRBD 140253Z AUTO 01007KT 10SM 02/M02 A3044 RMK AO2 SLP311 T00221017 51012 $,KRBD,2019-01-14T02:53:00Z,32.68,-96.87,2.2,-1.7,10,7,,10.0,30.43996,1031.1,,TRUE,TRUE,TRUE,,,,,,,,,,,,,,,1.2,,,,,,,,,,,METAR,203.0
KRAL 140253Z 00000KT 10SM BKN110 13/08 A3003 RMK AO2 SLP161 T01330078 50002,KRAL,2019-01-14T02:53:00Z,33.95,-117.45,13.3,7.8,0,0,,10.0,30.029528,1016.1,,,TRUE,,,,,,,BKN,11000,,,,,,,VFR,0.2,,,,,,,,,,,METAR,252.0
KRAC 140253Z AUTO 29004KT 10SM OVC019 M03/M07 A3040 RMK AO2 SLP303 T10281072 58003,KRAC,2019-01-14T02:53:00Z,42.77,-87.82,-2.8,-7.2,290,4,,10.0,30.398623,1030.3,,TRUE,TRUE,,,,,,,OVC,1900,,,,,,,MVFR,-0.3,,,,,,,,,,,METAR,203.0
KPWA 140253Z 36007KT 10SM OVC014 01/M02 A3045 RMK AO2 SLP322 T00111022 51007,KPWA,2019-01-14T02:53:00Z,35.53,-97.65,1.1,-2.2,360,7,,10.0,30.448818,1032.2,,,TRUE,,,,,,,OVC,1400,,,,,,,MVFR,0.7,,,,,,,,,,,METAR,397.0
KPUW 140253Z AUTO 00000KT 1/4SM FZFG VV002 M03/M04 A3029 RMK AO2 SLP286 I1001 I3004 T10331039 50001,KPUW,2019-01-14T02:53:00Z,46.75,-117.12,-3.3,-3.9,0,0,,0.25,30.28937,1028.6,,TRUE,TRUE,,,,,,FZFG,OVX,0,,,,,,,LIFR,0.1,,,,,,,,,,200,METAR,773.0
KPUC 140253Z AUTO 04009KT 10SM CLR M04/M11 A3021 RMK AO2 SLP284 T10441111 51013,KPUC,2019-01-14T02:53:00Z,39.62,-110.75,-4.4,-11.1,40,9,,10.0,30.209646,1028.4,,TRUE,TRUE,,,,,,,CLR,,,,,,,,VFR,1.3,,,,,,,,,,,METAR,2091.0
KPUB 140253Z 04004KT 10SM BKN120 M02/M03 A3025 RMK AO2 SLP276 T10171028 50007 $,KPUB,2019-01-14T02:53:00Z,38.28,-104.5,-1.7,-2.8,40,4,,10.0,30.250984,1027.6,,,TRUE,TRUE,,,,,,BKN,12000,,,,,,,VFR,0.7,,,,,,,,,,,METAR,1420.0
KPTK 140253Z 00000KT 10SM CLR M07/M11 A3034 RMK AO2 SLP289 T10671106 55001,KPTK,2019-01-14T02:53:00Z,42.67,-83.42,-6.7,-10.6,0,0,,10.0,30.339567,1028.9,,,TRUE,,,,,,,CLR,,,,,,,,VFR,-0.1,,,,,,,,,,,METAR,299.0
KPSX 140253Z AUTO 01009KT 10SM CLR 10/06 A3036 RMK AO2 SLP282 T01000061 51019,KPSX,2019-01-14T02:53:00Z,28.72,-96.25,10.0,6.1,10,9,,10.0,30.360237,1028.2,,TRUE,TRUE,,,,,,,CLR,,,,,,,,VFR,1.9,,,,,,,,,,,METAR,5.0
KPSP 140253Z 09004KT 10SM BKN070 15/06 A3011 RMK AO2 SLP196 T01500056 53012,KPSP,2019-01-14T02:53:00Z,33.82,-116.5,15.0,5.6,90,4,,10.0,30.109253,1019.6,,,TRUE,,,,,,,BKN,7000,,,,,,,VFR,1.2,,,,,,,,,,,METAR,135.0
KPSC 140253Z 00000KT 10SM SCT010 BKN014 OVC019 01/M01 A3041 RMK AO2 SLP300 T00061006 50001,KPSC,2019-01-14T02:53:00Z,46.27,-119.12,0.6,-0.6,0,0,,10.0,30.410433,1030.0,,,TRUE,,,,,,,SCT,1000,BKN,1400,OVC,1900,,,MVFR,0.1,,,,,,,,,,,METAR,121.0
KPRC 140253Z 00000KT 10SM CLR M01/M02 A3014 RMK AO2 SLP205 T10061022 52010 $,KPRC,2019-01-14T02:53:00Z,34.65,-112.42,-0.6,-2.2,0,0,,10.0,30.138779,1020.5,,,TRUE,TRUE,,,,,,CLR,,,,,,,,VFR,1.0,,,,,,,,,,,METAR,1524.0
KPRB 140253Z AUTO 09003KT 10SM CLR 10/08 A2996 RMK AO2 SLP147 T01000083 53002,KPRB,2019-01-14T02:53:00Z,35.67,-120.63,10.0,8.3,90,3,,10.0,29.958662,1014.7,,TRUE,TRUE,,,,,,,CLR,,,,,,,,VFR,0.2,,,,,,,,,,,METAR,245.0
KPQL 140253Z AUTO 36011KT 10SM OVC024 09/03 A3030 RMK AO2 SLP263 T00890033 51015,KPQL,2019-01-14T02:53:00Z,30.47,-88.53,8.9,3.3,360,11,,10.0,30.301182,1026.3,,TRUE,TRUE,,,,,,,OVC,2400,,,,,,,MVFR,1.5,,,,,,,,,,,METAR,6.0
KPOU 140253Z 01005KT 10SM CLR M09/M14 A3037 RMK AO2 SLP284 T10891144 52005,KPOU,2019-01-14T02:53:00Z,41.63,-73.88,-8.9,-14.4,10,5,,10.0,30.369095,1028.4,,,TRUE,,,,,,,CLR,,,,,,,,VFR,0.5,,,,,,,,,,,METAR,46.0
KPNS 140253Z 35008KT 10SM OVC027 11/04 A3027 RMK AO2 SLP251 T01060044 51014,KPNS,2019-01-14T02:53:00Z,30.48,-87.18,10.6,4.4,350,8,,10.0,30.268702,1025.1,,,TRUE,,,,,,,OVC,2700,,,,,,,MVFR,1.4,,,,,,,,,,,METAR,38.0
KPMP 140253Z AUTO 21003KT 10SM CLR 23/19 A3014 RMK AO2 SLP207 T02280189 51009,KPMP,2019-01-14T02:53:00Z,26.25,-80.12,22.8,18.9,210,3,,10.0,30.138779,1020.7,,TRUE,TRUE,,,,,,,CLR,,,,,,,,VFR,0.9,,,,,,,,,,,METAR,6.0
KPMD 140253Z 07008KT 10SM OVC110 09/01 A3006 RMK AO2 SLP183 T00890006 50007,KPMD,2019-01-14T02:53:00Z,34.63,-118.08,8.9,0.6,70,8,,10.0,30.059055,1018.3,,,TRUE,,,,,,,OVC,11000,,,,,,,VFR,0.7,,,,,,,,,,,METAR,780.0
KPKD 140253Z AUTO 24010KT 8SM OVC006 M03/M04 A3019 RMK AO2 SLP247 T10281039 55006,KPKD,2019-01-14T02:53:00Z,46.9,-95.07,-2.8,-3.9,240,10,,8.0,30.188976,1024.7,,TRUE,TRUE,,,,,,,OVC,600,,,,,,,IFR,-0.6,,,,,,,,,,,METAR,442.0
KPKB 140253Z VRB03KT 7SM OVC018 M01/M02 A3022 RMK AO2 SNE15 SLP241 P0000 60000 T10061022 53007,KPKB,2019-01-14T02:53:00Z,39.35,-81.42,-0.6,-2.2,0,3,,7.0,30.221457,1024.1,,,TRUE,,,,,,,OVC,1800,,,,,,,MVFR,0.7,,,,,0.005,0.005,,,,,METAR,262.0
KPIR 140253Z AUTO 03004KT 1/4SM FZFG VV001 M07/M07 A3017 RMK AO2 SLP243 I3001 T10721072 58007 $,KPIR,2019-01-14T02:53:00Z,44.38,-100.28,-7.2,-7.2,30,4,,0.25,30.171259,1024.3,,TRUE,TRUE,TRUE,,,,,FZFG,OVX,0,,,,,,,LIFR,-0.7,,,,,,,,,,100,METAR,526.0
KPIL 140253Z AUTO 36005KT 10SM CLR 13/10 A3032 RMK AO2 SLP266 T01280100 53013 $,KPIL,2019-01-14T02:53:00Z,26.17,-97.33,12.8,10.0,360,5,,10.0,30.318897,1026.6,,TRUE,TRUE,TRUE,,,,,,CLR,,,,,,,,VFR,1.3,,,,,,,,,,,METAR,5.0
KPIH 140253Z 00000KT 10SM CLR M09/M12 A3029 RMK AO2 SLP324 T10941117 53009 $,KPIH,2019-01-14T02:53:00Z,42.92,-112.57,-9.4,-11.7,0,0,,10.0,30.28937,1032.4,,,TRUE,TRUE,,,,,,CLR,,,,,,,,VFR,0.9,,,,,,,,,,,METAR,1359.0
KPIE 140253Z 33007KT 9SM SCT005 17/17 A3017 RMK AO2 SLP217 T01720167 53013,KPIE,2019-01-14T02:53:00Z,27.92,-82.68,17.2,16.7,330,7,,9.0,30.171259,1021.7,,,TRUE,,,,,,,SCT,500,,,,,,,VFR,1.3,,,,,,,,,,,METAR,4.0
KPHD 140253Z AUTO 02003KT 10SM SCT040 M03/M07 A3026 RMK AO2 SLP257 T10281067 53006,KPHD,2019-01-14T02:53:00Z,40.47,-81.42,-2.8,-6.7,20,3,,10.0,30.259842,1025.7,,TRUE,TRUE,,,,,,,SCT,4000,,,,,,,VFR,0.6,,,,,,,,,,,METAR,272.0
KPGD 140253Z AUTO 24005KT 8SM CLR 19/18 A3018 RMK AO2 SLP219 T01940183 51010,KPGD,2019-01-14T02:53:00Z,26.92,-82.0,19.4,18.3,240,5,,8.0,30.180119,1021.9,,TRUE,TRUE,,,,,,,CLR,,,,,,,,VFR,1.0,,,,,,,,,,,METAR,7.0
KPGA 140253Z AUTO 00000KT 10SM BKN055 OVC070 05/M02 A3021 RMK AO2 SLP230 T00501022 51012 TSNO,KPGA,2019-01-14T02:53:00Z,36.92,-111.45,5.0,-2.2,0,0,,10.0,30.209646,1023.0,,TRUE,TRUE,,,TRUE,,,,BKN,5500,OVC,7000,,,,,VFR,1.2,,,,,,,,,,,METAR,1307.0
KPEO 140253Z AUTO VRB03KT 10SM OVC009 M09/M12 A3037 RMK AO2 SLP303 I1000 I3000 T10891117 53004,KPEO,2019-01-14T02:53:00Z,42.65,-77.05,-8.9,-11.7,0,3,,10.0,30.369095,1030.3,,TRUE,TRUE,,,,,,,OVC,900,,,,,,,IFR,0.4,,,,,,,,,,,METAR,256.0
KPDX 140253Z 11023G28KT 10SM CLR 07/M02 A3012 RMK AO2 PK WND 12032/0202 SLP200 T00721017 53004,KPDX,2019-01-14T02:53:00Z,45.6,-122.62,7.2,-1.7,110,23,28,10.0,30.121063,1020.0,,,TRUE,,,,,,,CLR,,,,,,,,VFR,0.4,,,,,,,,,,,METAR,7.0
KPDT 140253Z 04006KT 10SM OVC012 M01/M02 A3031 RMK AO2 SLP273 T10061022 58002 $,KPDT,2019-01-14T02:53:00Z,45.7,-118.83,-0.6,-2.2,40,6,,10.0,30.31004,1027.3,,,TRUE,TRUE,,,,,,OVC,1200,,,,,,,MVFR,-0.2,,,,,,,,,,,METAR,462.0
KPDK 140253Z 29006KT 7SM BKN010 OVC015 07/05 A3019 RMK AO2 CIG 008V013 SLP235 T00670050 53004,KPDK,2019-01-14T02:53:00Z,33.88,-84.3,6.7,5.0,290,6,,7.0,30.188976,1023.5,,,TRUE,,,,,,,BKN,1000,OVC,1500,,,,,MVFR,0.4,,,,,,,,,,,METAR,302.0
KPBI 140253Z 21006KT 10SM BKN055 22/19 A3015 RMK AO2 SLP208 T02170189 51010 $,KPBI,2019-01-14T02:53:00Z,26.68,-80.1,21.7,18.9,210,6,,10.0,30.15059,1020.8,,,TRUE,TRUE,,,,,,BKN,5500,,,,,,,VFR,1.0,,,,,,,,,,,METAR,6.0
KPBG 140253Z AUTO 28004KT 10SM FEW019 M14/M17 A3047 RMK AO2 SLP325 T11441167 56007,KPBG,2019-01-14T02:53:00Z,44.65,-73.47,-14.4,-16.7,280,4,,10.0,30.469488,1032.5,,TRUE,TRUE,,,,,,,FEW,1900,,,,,,,VFR,-0.7,,,,,,,,,,,METAR,72.0
KPBF 140253Z AUTO 36007KT 10SM BKN023 OVC029 04/00 A3040 RMK AO2 SLP295 T00440000 53010,KPBF,2019-01-14T02:53:00Z,34.18,-91.93,4.4,0.0,360,7,,10.0,30.398623,1029.5,,TRUE,TRUE,,,,,,,BKN,2300,OVC,2900,,,,,MVFR,1.0,,,,,,,,,,,METAR,62.0
KPAH 140253Z 35009KT 9SM OVC010 02/M01 A3035 RMK AO2 SLP280 T00171011 53013,KPAH,2019-01-14T02:53:00Z,37.07,-88.77,1.7,-1.1,350,9,,9.0,30.351377,1028.0,,,TRUE,,,,,,,OVC,1000,,,,,,,MVFR,1.3,,,,,,,,,,,METAR,119.0
KPAE 140253Z 35004KT 10SM CLR 06/02 A3013 RMK AO2 SLP207 T00610022 50000,KPAE,2019-01-14T02:53:00Z,47.92,-122.28,6.1,2.2,350,4,,10.0,30.129921,1020.7,,,TRUE,,,,,,,CLR,,,,,,,,VFR,0.0,,,,,,,,,,,METAR,180.0
KOXB 140253Z AUTO 03016G25KT 10SM OVC018 03/01 A3016 RMK AO2 PK WND 03028/0214 RAB27E44 SLP212 P0000 60003 T00330006 53007,KOXB,2019-01-14T02:53:00Z,38.32,-75.12,3.3,0.6,30,16,25,10.0,30.159449,1021.2,,TRUE,TRUE,,,,,,,OVC,1800,,,,,,,MVFR,0.7,,,,,0.005,0.03,,,,,METAR,3.0
KOWD 140253Z AUTO 00000KT 10SM OVC023 M03/M08 A3037 RMK AO2 SLP284 T10331083 57008,KOWD,2019-01-14T02:53:00Z,42.18,-71.17,-3.3,-8.3,0,0,,10.0,30.369095,1028.4,,TRUE,TRUE,,,,,,,OVC,2300,,,,,,,MVFR,-0.8,,,,,,,,,,,METAR,19.0
KOVS 140253Z AUTO 00000KT 10SM OVC025 M03/M06 A3040 RMK AO2 SLP305 T10281056 58003,KOVS,2019-01-14T02:53:00Z,43.15,-90.68,-2.8,-5.6,0,0,,10.0,30.398623,1030.5,,TRUE,TRUE,,,,,,,OVC,2500,,,,,,,MVFR,-0.3,,,,,,,,,,,METAR,202.0
KOVE 140253Z AUTO 07006KT 10SM CLR 10/07 A3000 RMK AO2 SLP163 T01000067 53005,KOVE,2019-01-14T02:53:00Z,39.5,-121.62,10.0,6.7,70,6,,10.0,30.0,1016.3,,TRUE,TRUE,,,,,,,CLR,,,,,,,,VFR,0.5,,,,,,,,,,,METAR,58.0
KOTM 140253Z AUTO 00000KT 4SM BR OVC017 M06/M07 A3042 RMK AO2 SLP314 I1000 I3000 T10561067 50002 $,KOTM,2019-01-14T02:53:00Z,41.1,-92.45,-5.6,-6.7,0,0,,4.0,30.41929,1031.4,,TRUE,TRUE,TRUE,,,,,BR,OVC,1700,,,,,,,MVFR,0.2,,,,,,,,,,,METAR,256.0
KOSH 140253Z 28004KT 10SM OVC014 M04/M08 A3038 RMK AO2 SLP305 T10441078 58005,KOSH,2019-01-14T02:53:00Z,43.97,-88.55,-4.4,-7.8,280,4,,10.0,30.380905,1030.5,,,TRUE,,,,,,,OVC,1400,,,,,,,MVFR,-0.5,,,,,,,,,,,METAR,248.0
KORL 140253Z 28009KT 10SM OVC031 21/17 A3014 RMK AO2 SLP211 T02060167 51012,KORL,2019-01-14T02:53:00Z,28.55,-81.33,20.6,16.7,280,9,,10.0,30.138779,1021.1,,,TRUE,,,,,,,OVC,3100,,,,,,,VFR,1.2,,,,,,,,,,,METAR,37.0
KOPF 140253Z 26006KT 10SM FEW055 22/17 A3016 RMK AO2 SLP213 T02170172 51012,KOPF,2019-01-14T02:53:00Z,25.92,-80.28,21.7,17.2,260,6,,10.0,30.159449,1021.3,,,TRUE,,,,,,,FEW,5500,,,,,,,VFR,1.2,,,,,,,,,,,METAR,16.0
KONT 140253Z 08005KT 10SM BKN110 13/06 A3002 RMK AO2 SLP170 T01330056 58001,KONT,2019-01-14T02:53:00Z,34.05,-117.58,13.3,5.6,80,5,,10.0,30.02067,1017.0,,,TRUE,,,,,,,BKN,11000,,,,,,,VFR,-0.1,,,,,,,,,,,METAR,274.0
KONO 140253Z AUTO 34004KT 10SM OVC022 00/M03 A3036 RMK AO2 SLP309 T00001028 58000,KONO,2019-01-14T02:53:00Z,44.02,-117.02,0.0,-2.8,340,4,,10.0,30.360237,1030.9,,TRUE,TRUE,,,,,,,OVC,2200,,,,,,,MVFR,0.0,,,,,,,,,,,METAR,667.0
KOMK 140253Z AUTO 00000KT 3/4SM BR VV002 M02/M03 A3037 RMK AO2 SLP303 T10171028 58002,KOMK,2019-01-14T02:53:00Z,48.47,-119.52,-1.7,-2.8,0,0,,0.75,30.369095,1030.3,,TRUE,TRUE,,,,,,BR,OVX,0,,,,,,,LIFR,-0.2,,,,,,,,,,200,METAR,395.0
KSAC 140253Z 00000KT 10SM CLR 10/08 A2999 RMK AO2 SLP154 T01000083 53001,KSAC,2019-01-14T02:53:00Z,38.5,-121.5,10.0,8.3,0,0,,10.0,29.991142,1015.4,,,TRUE,,,,,,,CLR,,,,,,,,VFR,0.1,,,,,,,,,,,METAR,11.0
KRXE 140253Z AUTO 04004KT 10SM CLR M13/M16 A3027 RMK AO2 SLP340 T11281156 51007,KRXE,2019-01-14T02:53:00Z,43.83,-111.8,-12.8,-15.6,40,4,,10.0,30.268702,1034.0,,TRUE,TRUE,,,,,,,CLR,,,,,,,,VFR,0.7,,,,,,,,,,,METAR,1480.0
KRWL 140253Z AUTO 00000KT 10SM CLR M16/M18 A3026 RMK AO2 SLP355 I1000 I3000 T11611178 51010,KRWL,2019-01-14T02:53:00Z,41.78,-107.2,-16.1,-17.8,0,0,,10.0,30.259842,1035.5,,TRUE,TRUE,,,,,,,CLR,,,,,,,,VFR,1.0,,,,,,,,,,,METAR,2077.0
KRWI 140253Z AUTO 35009KT 6SM BR OVC008 01/01 A3017 RMK AO2 SLP219 T00110006 53014,KRWI,2019-01-14T02:53:00Z,35.85,-77.9,1.1,0.6,350,9,,6.0,30.171259,1021.9,,TRUE,TRUE,,,,,,BR,OVC,800,,,,,,,IFR,1.4,,,,,,,,,,,METAR,47.0
KRWF 140253Z AUTO 22008KT 9SM OVC016 M01/M03 A3027 RMK AO2 SLP266 T10061028 58012,KRWF,2019-01-14T02:53:00Z,44.55,-95.08,-0.6,-2.8,220,8,,9.0,30.268702,1026.6,,TRUE,TRUE,,,,,,,OVC,1600,,,,,,,MVFR,-1.2,,,,,,,,,,,METAR,311.0
KRUE 140253Z AUTO 32005KT 10SM OVC023 03/M01 A3041 RMK AO2 SLP296 T00331006 51010,KRUE,2019-01-14T02:53:00Z,35.25,-93.1,3.3,-0.6,320,5,,10.0,30.410433,1029.6,,TRUE,TRUE,,,,,,,OVC,2300,,,,,,,MVFR,1.0,,,,,,,,,,,METAR,115.0
KRTN 140253Z AUTO 21007KT 10SM OVC006 M02/M03 A3025 RMK AO2 CIG 004V009 SLP255 T10171028 53007,KRTN,2019-01-14T02:53:00Z,36.73,-104.5,-1.7,-2.8,210,7,,10.0,30.250984,1025.5,,TRUE,TRUE,,,,,,,OVC,600,,,,,,,IFR,0.7,,,,,,,,,,,METAR,1936.0
KRSW 140253Z 00000KT 10SM FEW005 19/18 A3017 RMK AO2 SLP212 T01890183 51012,KRSW,2019-01-14T02:53:00Z,26.53,-81.75,18.9,18.3,0,0,,10.0,30.171259,1021.2,,,TRUE,,,,,,,FEW,500,,,,,,,VFR,1.2,,,,,,,,,,,METAR,10.0
KRSL 140253Z AUTO 22009KT 10SM OVC011 M02/M03 A3039 RMK AO2 SLP315 T10171028 50001 $,KRSL,2019-01-14T02:53:00Z,38.87,-98.82,-1.7,-2.8,220,9,,10.0,30.389763,1031.5,,TRUE,TRUE,TRUE,,,,,,OVC,1100,,,,,,,MVFR,0.1,,,,,,,,,,,METAR,567.0
KRQE 140253Z AUTO 00000KT 10SM FEW041 M04/M05 A3020 RMK AO2 SLP228 T10441050 51015,KRQE,2019-01-14T02:53:00Z,35.65,-109.07,-4.4,-5.0,0,0,,10.0,30.200787,1022.8,,TRUE,TRUE,,,,,,,FEW,4100,,,,,,,VFR,1.5,,,,,,,,,,,METAR,2055.0
KYIP 140253Z 03006KT 10SM CLR M06/M10 A3036 RMK AO2 SLP292 T10611100 53005,KYIP,2019-01-14T02:53:00Z,42.23,-83.53,-6.1,-10.0,30,6,,10.0,30.360237,1029.2,,,TRUE,,,,,,,CLR,,,,,,,,VFR,0.5,,,,,,,,,,,METAR,215.0
KXNA 140253Z 35007KT 4SM -SN OVC007 01/M02 A3041 RMK AO2 SNB52 CIG 006V010 SLP308 P0000 60000 T00061022 51007,KXNA,2019-01-14T02:53:00Z,36.28,-94.3,0.6,-2.2,350,7,,4.0,30.410433,1030.8,,,TRUE,,,,,,-SN,OVC,700,,,,,,,IFR,0.7,,,,,0.005,0.005,,,,,METAR,392.0
KWVI 140253Z AUTO 02004KT 10SM CLR 13/07 A2995 RMK AO2 SLP142 T01280072 53004,KWVI,2019-01-14T02:53:00Z,36.93,-121.78,12.8,7.2,20,4,,10.0,29.949802,1014.2,,TRUE,TRUE,,,,,,,CLR,,,,,,,,VFR,0.4,,,,,,,,,,,METAR,43.0
KWST 140253Z AUTO 03006KT 10SM OVC019 M02/M07 A3034 RMK AO2 SLP273 T10221067 56008,KWST,2019-01-14T02:53:00Z,41.35,-71.8,-2.2,-6.7,30,6,,10.0,30.339567,1027.3,,TRUE,TRUE,,,,,,,OVC,1900,,,,,,,MVFR,-0.8,,,,,,,,,,,METAR,21.0
KWRL 140253Z AUTO 17006KT 10SM CLR M08/M11 A3021 RMK AO2 SLP305 T10831106 50005,KWRL,2019-01-14T02:53:00Z,43.97,-107.95,-8.3,-10.6,170,6,,10.0,30.209646,1030.5,,TRUE,TRUE,,,,,,,CLR,,,,,,,,VFR,0.5,,,,,,,,,,,METAR,1271.0
KVUO 140253Z AUTO 00000KT 10SM CLR 06/M02 A3011 RMK AO2 SLP198 T00611022 58000,KVUO,2019-01-14T02:53:00Z,45.62,-122.65,6.1,-2.2,0,0,,10.0,30.109253,1019.8,,TRUE,TRUE,,,,,,,CLR,,,,,,,,VFR,0.0,,,,,,,,,,,METAR,8.0
KVRB 140253Z AUTO 25004KT 10SM SCT070 19/15 A3014 RMK AO2 SLP205 T01890150 53014,KVRB,2019-01-14T02:53:00Z,27.65,-80.42,18.9,15.0,250,4,,10.0,30.138779,1020.5,,TRUE,TRUE,,,,,,,SCT,7000,,,,,,,VFR,1.4,,,,,,,,,,,METAR,10.0
KVPC 140253Z AUTO 00000KT 10SM BKN013 OVC019 07/05 A3023 RMK AO2 SLP234 T00670050 51011,KVPC,2019-01-14T02:53:00Z,34.13,-84.85,6.7,5.0,0,0,,10.0,30.230314,1023.4,,TRUE,TRUE,,,,,,,BKN,1300,OVC,1900,,,,,MVFR,1.1,,,,,,,,,,,METAR,222.0
KVGT 140253Z 23003KT 10SM CLR 09/M04 A3013 RMK AO2 SLP228 T00891039 53008 $,KVGT,2019-01-14T02:53:00Z,36.22,-115.2,8.9,-3.9,230,3,,10.0,30.129921,1022.8,,,TRUE,TRUE,,,,,,CLR,,,,,,,,VFR,0.8,,,,,,,,,,,METAR,671.0
KVEL 140253Z AUTO 11003KT 10SM OVC013 M06/M09 A3035 RMK AO2 SLP329 T10611089 51010 $,KVEL,2019-01-14T02:53:00Z,40.45,-109.52,-6.1,-8.9,110,3,,10.0,30.351377,1032.9,,TRUE,TRUE,TRUE,,,,,,OVC,1300,,,,,,,MVFR,1.0,,,,,,,,,,,METAR,1604.0
KSDL 140253Z 00000KT 10SM CLR 13/06 A3011 RMK AO2 SLP186 T01330061 53007,KSDL,2019-01-14T02:53:00Z,33.62,-111.92,13.3,6.1,0,0,,10.0,30.109253,1018.6,,,TRUE,,,,,,,CLR,,,,,,,,VFR,0.7,,,,,,,,,,,METAR,447.0
KSBM 140253Z AUTO 29004KT 10SM OVC019 M05/M08 A3038 RMK AO2 SLP300 T10501078 58005,KSBM,2019-01-14T02:53:00Z,43.78,-87.85,-5.0,-7.8,290,4,,10.0,30.380905,1030.0,,TRUE,TRUE,,,,,,,OVC,1900,,,,,,,MVFR,-0.5,,,,,,,,,,,METAR,232.0
KSBA 140253Z 05007KT 10SM CLR 13/09 A2998 RMK AO2 SLP152 T01280094 56007,KSBA,2019-01-14T02:53:00Z,34.43,-119.85,12.8,9.4,50,7,,10.0,29.97933,1015.2,,,TRUE,,,,,,,CLR,,,,,,,,VFR,-0.7,,,,,,,,,,,METAR,3.0
KSAV 140253Z 33007KT 10SM OVC013 09/07 A3020 RMK AO2 SLP224 T00890072 51013,KSAV,2019-01-14T02:53:00Z,32.12,-81.2,8.9,7.2,330,7,,10.0,30.200787,1022.4,,,TRUE,,,,,,,OVC,1300,,,,,,,MVFR,1.3,,,,,,,,,,,METAR,14.0
KSAF 140253Z 00000KT 4SM -SN BR FEW020 OVC026 M02/M03 A3025 RMK AO2 SLP250 P0000 60000 T10171028 51012,KSAF,2019-01-14T02:53:00Z,35.62,-106.1,-1.7,-2.8,0,0,,4.0,30.250984,1025.0,,,TRUE,,,,,,-SN BR,FEW,2000,OVC,2600,,,,,MVFR,1.2,,,,,0.005,0.005,,,,,METAR,1930.0
KYKM 140253Z 14004KT 3SM BR OVC007 M01/M01 A3037 RMK AO2 SFC VIS 5 SLP298 T10061011 53003,KYKM,2019-01-14T02:53:00Z,46.57,-120.53,-0.6,-1.1,140,4,,3.0,30.369095,1029.8,,,TRUE,,,,,,BR,OVC,700,,,,,,,IFR,0.3,,,,,,,,,,,METAR,324.0
KZZV 140253Z AUTO 01004KT 9SM OVC032 M01/M05 A3023 RMK AO2 SLP245 T10061050 51005 $,KZZV,2019-01-14T02:53:00Z,39.95,-81.9,-0.6,-5.0,10,4,,9.0,30.230314,1024.5,,TRUE,TRUE,TRUE,,,,,,OVC,3200,,,,,,,VFR,0.5,,,,,,,,,,,METAR,268.0
PADQ 140253Z 14011KT 10SM CLR 05/01 A2962 RMK AO2 SLP032 T00500011 51044,PADQ,2019-01-14T02:53:00Z,57.75,-152.5,5.0,1.1,140,11,,10.0,29.619095,1003.2,,,TRUE,,,,,,,CLR,,,,,,,,VFR,4.4,,,,,,,,,,,METAR,34.0
PABI 140253Z 10025G34KT 10SM FEW050 BKN140 BKN200 M14/M19 A2983 RMK AO2 PK WND 11034/0251 SLP152 T11441189 51010,PABI,2019-01-14T02:53:00Z,64.0,-145.72,-14.4,-18.9,100,25,34,10.0,29.828741,1015.2,,,TRUE,,,,,,,FEW,5000,BKN,14000,BKN,20000,,,VFR,1.0,,,,,,,,,,,METAR,386.0
PAAQ 140253Z 35014G21KT 10SM BKN120 OVC180 M03/M09 A2977 RMK AO2 SLP087 T10281094 53005 $,PAAQ,2019-01-14T02:53:00Z,61.6,-149.08,-2.8,-9.4,350,14,21,10.0,29.769686,1008.7,,,TRUE,TRUE,,,,,,BKN,12000,OVC,18000,,,,,VFR,0.5,,,,,,,,,,,METAR,73.0
PHNL 140253Z COR 07005KT 10SM FEW033 SCT040 BKN060 27/17 A3001 RMK AO2 SLP160 T02670172 53004,PHNL,2019-01-14T02:53:00Z,21.33,-157.92,26.7,17.2,70,5,,10.0,30.008858,1016.0,TRUE,,TRUE,,,,,,,FEW,3300,SCT,4000,BKN,6000,,,VFR,0.4,,,,,,,,,,,SPECI,4.0
KTCS 140253Z AUTO 36003KT 10SM BKN046 BKN055 OVC080 07/01 A3019 RMK AO2 SLP207 T00720011 52017,KTCS,2019-01-14T02:53:00Z,33.23,-107.27,7.2,1.1,360,3,,10.0,30.188976,1020.7,,TRUE,TRUE,,,,,,,BKN,4600,BKN,5500,OVC,8000,,,VFR,1.7,,,,,,,,,,,METAR,1469.0
KRDD 140253Z CALMKT 10SM CLR 09/03 A2996,KRDD,2019-01-14T02:53:00Z,40.52,-122.3,9.0,3.0,,,,10.0,29.958662,,,,,,,,,,,CLR,,,,,,,,VFR,,,,,,,,,,,,METAR,155.0
KNIP 140253Z 03009KT 10SM FEW003 FEW015 16/15 A3015 RMK AO2 SLP206 T01610150 53017,KNIP,2019-01-14T02:53:00Z,30.22,-81.67,16.1,15.0,30,9,,10.0,30.15059,1020.6,,,TRUE,,,,,,,FEW,300,FEW,1500,,,,,VFR,1.7,,,,,,,,,,,METAR,7.0
KP68 140253Z AUTO 00000KT M07/M08 A3016 RMK AO1 SLP257 T10671078 51005,KP68,2019-01-14T02:53:00Z,39.6,-116.0,-6.7,-7.8,0,0,,,30.159449,1025.7,,TRUE,TRUE,,,,,,,,,,,,,,,,0.5,,,,,,,,,,,METAR,1809.0
KVCB 140253Z AUTO 34005KT 10SM CLR 10/07 A2999 RMK AO2 SLP156 T01000067 58001 $,KVCB,2019-01-14T02:53:00Z,38.38,-121.95,10.0,6.7,340,5,,10.0,29.991142,1015.6,,TRUE,TRUE,TRUE,,,,,,CLR,,,,,,,,VFR,-0.1,,,,,,,,,,,METAR,33.0
KUUU 140253Z AUTO 03008KT 10SM OVC019 M03/M06 A3032 RMK AO2 SLP270 T10281061 58009 $,KUUU,2019-01-14T02:53:00Z,41.53,-71.28,-2.8,-6.1,30,8,,10.0,30.318897,1027.0,,TRUE,TRUE,TRUE,,,,,,OVC,1900,,,,,,,MVFR,-0.9,,,,,,,,,,,METAR,51.0
KUTS 140253Z AUTO 36004KT 10SM CLR 04/01 A3040 RMK AO2 SLP294 T00390011 51020,KUTS,2019-01-14T02:53:00Z,30.75,-95.58,3.9,1.1,360,4,,10.0,30.398623,1029.4,,TRUE,TRUE,,,,,,,CLR,,,,,,,,VFR,2.0,,,,,,,,,,,METAR,104.0
KUNO 140253Z AUTO 34007KT 9SM OVC008 M01/M02 A3038 RMK AO2 SLP297 T10061022 51010,KUNO,2019-01-14T02:53:00Z,36.88,-91.9,-0.6,-2.2,340,7,,9.0,30.380905,1029.7,,TRUE,TRUE,,,,,,,OVC,800,,,,,,,IFR,1.0,,,,,,,,,,,METAR,372.0
KUIL 140253Z AUTO 05004KT 10SM CLR 04/02 A3010 RMK AO2 SLP192 T00390022 52006 $,KUIL,2019-01-14T02:53:00Z,47.93,-124.55,3.9,2.2,50,4,,10.0,30.100393,1019.2,,TRUE,TRUE,TRUE,,,,,,CLR,,,,,,,,VFR,0.6,,,,,,,,,,,METAR,54.0
KUAO 140253Z 01008KT 10SM CLR 04/M02 A3008 RMK AO2 SLP188 T00391017 56004,KUAO,2019-01-14T02:53:00Z,45.25,-122.77,3.9,-1.7,10,8,,10.0,30.079725,1018.8,,,TRUE,,,,,,,CLR,,,,,,,,VFR,-0.4,,,,,,,,,,,METAR,59.0
KTYS 140253Z 24007KT 1 1/2SM BR OVC003 06/06 A3017 RMK AO2 SFC VIS 4 SLP220 T00610061 53011,KTYS,2019-01-14T02:53:00Z,35.82,-83.98,6.1,6.1,240,7,,1.5,30.171259,1022.0,,,TRUE,,,,,,BR,OVC,300,,,,,,,LIFR,1.1,,,,,,,,,,,METAR,302.0
KTYR 140253Z 36007KT 10SM OVC021 04/M01 A3042 RMK AO2 SLP302 T00441011 51010,KTYR,2019-01-14T02:53:00Z,32.37,-95.4,4.4,-1.1,360,7,,10.0,30.41929,1030.2,,,TRUE,,,,,,,OVC,2100,,,,,,,MVFR,1.0,,,,,,,,,,,METAR,165.0
KTXK 140253Z 35006KT 10SM OVC022 04/00 A3042 RMK AO2 SLP303 T00390000 51013,KTXK,2019-01-14T02:53:00Z,33.45,-93.98,3.9,0.0,350,6,,10.0,30.41929,1030.3,,,TRUE,,,,,,,OVC,2200,,,,,,,MVFR,1.3,,,,,,,,,,,METAR,111.0
KTVR 140253Z AUTO VRB04KT 10SM OVC027 06/01 A3039 RMK AO2 SLP298 T00560006 51007,KTVR,2019-01-14T02:53:00Z,32.35,-91.03,5.6,0.6,0,4,,10.0,30.389763,1029.8,,TRUE,TRUE,,,,,,,OVC,2700,,,,,,,MVFR,0.7,,,,,,,,,,,METAR,26.0
KTVL 140253Z AUTO 00000KT 10SM CLR M03/M07 A3005 RMK AO2 SLP212 T10331072 53010,KTVL,2019-01-14T02:53:00Z,38.9,-120.0,-3.3,-7.2,0,0,,10.0,30.050198,1021.2,,TRUE,TRUE,,,,,,,CLR,,,,,,,,VFR,1.0,,,,,,,,,,,METAR,1924.0
KTVC 140253Z AUTO 00000KT 10SM CLR M11/M12 A3035 RMK AO2 SLP292 I1000 I3000 T11061122 58012,KTVC,2019-01-14T02:53:00Z,44.73,-85.57,-10.6,-12.2,0,0,,10.0,30.351377,1029.2,,TRUE,TRUE,,,,,,,CLR,,,,,,,,VFR,-1.2,,,,,,,,,,,METAR,190.0
KTUS 140253Z 00000KT 10SM CLR 12/08 A3012 RMK AO2 SLP183 60003 T01170083 53009,KTUS,2019-01-14T02:53:00Z,32.13,-110.95,11.7,8.3,0,0,,10.0,30.121063,1018.3,,,TRUE,,,,,,,CLR,,,,,,,,VFR,0.9,,,,,,0.03,,,,,METAR,776.0
KTUL 140253Z 34006KT 10SM OVC015 01/M02 A3046 RMK AO2 SLP320 T00111022 51006,KTUL,2019-01-14T02:53:00Z,36.2,-95.88,1.1,-2.2,340,6,,10.0,30.46063,1032.0,,,TRUE,,,,,,,OVC,1500,,,,,,,MVFR,0.6,,,,,,,,,,,METAR,207.0
KTTN 140253Z 02009KT 10SM SCT100 M03/M12 A3028 RMK AO2 SLP248 T10281122 53003,KTTN,2019-01-14T02:53:00Z,40.28,-74.82,-2.8,-12.2,20,9,,10.0,30.280512,1024.8,,,TRUE,,,,,,,SCT,10000,,,,,,,VFR,0.3,,,,,,,,,,,METAR,59.0
KTTD 140253Z 08025G34KT 10SM CLR 06/M01 A3013 RMK AO2 PK WND 08034/0252 SLP202 T00611006 58004,KTTD,2019-01-14T02:53:00Z,45.55,-122.42,6.1,-0.6,80,25,34,10.0,30.129921,1020.2,,,TRUE,,,,,,,CLR,,,,,,,,VFR,-0.4,,,,,,,,,,,METAR,14.0
KTRL 140253Z AUTO 02010KT 10SM OVC018 03/M02 A3045 RMK AO2 SLP313 T00331017 51010,KTRL,2019-01-14T02:53:00Z,32.72,-96.27,3.3,-1.7,20,10,,10.0,30.448818,1031.3,,TRUE,TRUE,,,,,,,OVC,1800,,,,,,,MVFR,1.0,,,,,,,,,,,METAR,145.0
KTRI 140253Z 00000KT 2SM -DZ BR OVC004 05/05 A3014 RMK AO2 TWR VIS 3 DZB35 SLP202 P0001 60001 T00500050 51007,KTRI,2019-01-14T02:53:00Z,36.48,-82.4,5.0,5.0,0,0,,2.0,30.138779,1020.2,,,TRUE,,,,,,-DZ BR,OVC,400,,,,,,,LIFR,0.7,,,,,0.01,0.01,,,,,METAR,474.0
KTOR 140253Z AUTO 30006KT 10SM CLR M04/M11 A3021 RMK AO2 SLP284 T10441106 51008 $,KTOR,2019-01-14T02:53:00Z,42.07,-104.15,-4.4,-10.6,300,6,,10.0,30.209646,1028.4,,TRUE,TRUE,TRUE,,,,,,CLR,,,,,,,,VFR,0.8,,,,,,,,,,,METAR,1277.0
KTOP 140253Z AUTO 00000KT 9SM OVC012 M01/M04 A3045 RMK AO2 SLP321 T10111039 50003,KTOP,2019-01-14T02:53:00Z,39.07,-95.63,-1.1,-3.9,0,0,,9.0,30.448818,1032.1,,TRUE,TRUE,,,,,,,OVC,1200,,,,,,,MVFR,0.3,,,,,,,,,,,METAR,268.0
KTOI 140253Z AUTO 32007KT 10SM OVC032 09/06 A3026 RMK AO2 SLP245 T00890056 51010,KTOI,2019-01-14T02:53:00Z,31.85,-86.02,8.9,5.6,320,7,,10.0,30.259842,1024.5,,TRUE,TRUE,,,,,,,OVC,3200,,,,,,,VFR,1.0,,,,,,,,,,,METAR,118.0
KTMB 140253Z 28004KT 10SM BKN035 20/18 A3016 RMK AO2 SLP211 T02000178 51012,KTMB,2019-01-14T02:53:00Z,25.65,-80.43,20.0,17.8,280,4,,10.0,30.159449,1021.1,,,TRUE,,,,,,,BKN,3500,,,,,,,VFR,1.2,,,,,,,,,,,METAR,2.0
KTLH 140253Z 32013KT 10SM CLR 12/08 A3021 RMK AO2 SLP228 T01170078 53029,KTLH,2019-01-14T02:53:00Z,30.4,-84.35,11.7,7.8,320,13,,10.0,30.209646,1022.8,,,TRUE,,,,,,,CLR,,,,,,,,VFR,2.9,,,,,,,,,,,METAR,19.0
KTKI 140253Z 02010KT 10SM OVC016 02/M01 A3045 RMK AO2 SLP328 T00221011 51008,KTKI,2019-01-14T02:53:00Z,33.18,-96.58,2.2,-1.1,20,10,,10.0,30.448818,1032.8,,,TRUE,,,,,,,OVC,1600,,,,,,,MVFR,0.8,,,,,,,,,,,METAR,179.0
KTHV 140253Z AUTO 35004KT 10SM OVC075 M01/M06 A3027 RMK AO2 SLP259 T10111061 53006,KTHV,2019-01-14T02:53:00Z,39.92,-76.88,-1.1,-6.1,350,4,,10.0,30.268702,1025.9,,TRUE,TRUE,,,,,,,OVC,7500,,,,,,,VFR,0.6,,,,,,,,,,,METAR,144.0
KTDZ 140253Z AUTO 04006KT 10SM OVC021 M03/M07 A3035 RMK AO2 SLP285 T10281067 52003,KTDZ,2019-01-14T02:53:00Z,41.57,-83.48,-2.8,-6.7,40,6,,10.0,30.351377,1028.5,,TRUE,TRUE,,,,,,,OVC,2100,,,,,,,MVFR,0.3,,,,,,,,,,,METAR,189.0
KNQX 140253Z 01004KT 10SM FEW017 22/20 A3016 RMK SLP212 LAST T02220200 52007,KNQX,2019-01-14T02:53:00Z,24.57,-81.67,22.2,20.0,10,4,,10.0,30.159449,1021.2,,,,,,,,,,FEW,1700,,,,,,,VFR,0.7,,,,,,,,,,,METAR,2.0
PACV 140253Z 12003KT 10SM OVC060 04/01 A2995 RMK AO2 SLP143 T00390011 50002,PACV,2019-01-14T02:53:00Z,60.5,-145.47,3.9,1.1,120,3,,10.0,29.949802,1014.3,,,TRUE,,,,,,,OVC,6000,,,,,,,VFR,0.2,,,,,,,,,,,METAR,12.0
PACD 140253Z AUTO 14027G36KT 8SM UP FEW020 BKN048 OVC065 03/02 A2893 RMK AO2 PK WND 14044/0221 RAB01E15UPB52SNE01B15E37 SLP797 P0000 60003 T00280017 53014 TSNO,PACD,2019-01-14T02:53:00Z,55.2,-162.72,2.8,1.7,140,27,36,8.0,28.931103,979.7,,TRUE,TRUE,,,TRUE,,,UP,FEW,2000,BKN,4800,OVC,6500,,,VFR,1.4,,,,,0.005,0.03,,,,,METAR,30.0
PABT 140253Z 34003KT 10SM BKN070 OVC080 M21/M25 A2995 RMK AO2 SLP172 T12111250 51007 PNO $,PABT,2019-01-14T02:53:00Z,66.92,-151.52,-21.1,-25.0,340,3,,10.0,29.949802,1017.2,,,TRUE,TRUE,,,,,,BKN,7000,OVC,8000,,,,,VFR,0.7,,,,,,,,,,,METAR,195.0
PHJR 140253Z 08004KT 10SM SCT040 OVC050 25/18 A3002 RMK AO2 SLP171 T02500178 53007,PHJR,2019-01-14T02:53:00Z,21.32,-158.07,25.0,17.8,80,4,,10.0,30.02067,1017.1,,,TRUE,,,,,,,SCT,4000,OVC,5000,,,,,VFR,0.7,,,,,,,,,,,SPECI,15.0
PAEN 140253Z 09015KT 10SM FEW120 05/M01 A2972 RMK AO2 SLP066 T00501011 52007,PAEN,2019-01-14T02:53:00Z,60.57,-151.25,5.0,-1.1,90,15,,10.0,29.719488,1006.6,,,TRUE,,,,,,,FEW,12000,,,,,,,VFR,0.7,,,,,,,,,,,METAR,27.0
PAEG 140253Z AUTO 09011G18KT 10SM CLR M14/M19 A3001 RMK AO2 SLP186 T11391194 51008 TSNO,PAEG,2019-01-14T02:53:00Z,64.78,-141.15,-13.9,-19.4,90,11,18,10.0,30.008858,1018.6,,TRUE,TRUE,,,TRUE,,,,CLR,,,,,,,,VFR,0.8,,,,,,,,,,,METAR,268.0
PAGK 140253Z AUTO 00000KT 10SM CLR M20/M22 A2997 RMK AO2 SLP225 T12001222 56005 TSNO,PAGK,2019-01-14T02:53:00Z,62.15,-145.45,-20.0,-22.2,0,0,,10.0,29.970472,1022.5,,TRUE,TRUE,,,TRUE,,,,CLR,,,,,,,,VFR,-0.5,,,,,,,,,,,METAR,481.0
PAFA 140253Z 03004KT 10SM FEW070 FEW095 BKN150 M21/M24 A2983 RMK AO2 SLP117 T12061244 51012 PNO $,PAFA,2019-01-14T02:53:00Z,64.8,-147.85,-20.6,-24.4,30,4,,10.0,29.828741,1011.7,,,TRUE,TRUE,,,,,,FEW,7000,FEW,9500,BKN,15000,,,VFR,1.2,,,,,,,,,,,METAR,132.0
PAGY 140253Z AUTO 00000KT 4SM -SN BR OVC037 01/M01 A3006 RMK AO2 SNB42 SLP180 P0000 60000 T00061011 53006 TSNO,PAGY,2019-01-14T02:53:00Z,59.47,-135.3,0.6,-1.1,0,0,,4.0,30.059055,1018.0,,TRUE,TRUE,,,TRUE,,,-SN BR,OVC,3700,,,,,,,MVFR,0.6,,,,,0.005,0.005,,,,,METAR,5.0
PHTO 140253Z 14007KT 10SM OVC050 25/17 A3000 RMK AO2 SLP158 T02500167 53002,PHTO,2019-01-14T02:53:00Z,19.72,-155.05,25.0,16.7,140,7,,10.0,30.0,1015.8,,,TRUE,,,,,,,OVC,5000,,,,,,,VFR,0.2,,,,,,,,,,,METAR,12.0
TIST 140253Z AUTO 08004KT 10SM CLR 24/20 A3009 RMK AO2 SLP190 T02390200 50005,TIST,2019-01-14T02:53:00Z,18.33,-64.98,23.9,20.0,80,4,,10.0,30.088583,1019.0,,TRUE,TRUE,,,,,,,CLR,,,,,,,,VFR,0.5,,,,,,,,,,,METAR,7.0
TISX 140253Z AUTO 04005KT 10SM CLR 23/21 A3009 RMK AO2 SLP189 6//// T02280211 50005 PNO $,TISX,2019-01-14T02:53:00Z,17.7,-64.8,22.8,21.1,40,5,,10.0,30.088583,1018.9,,TRUE,TRUE,TRUE,,,,,,CLR,,,,,,,,VFR,0.5,,,,,,,,,,,METAR,19.0
PAOR 140253Z 00000KT 10SM SCT090 BKN150 M26/M29 A3003 RMK AO2 SLP256 T12611289 51001,PAOR,2019-01-14T02:53:00Z,62.97,-141.93,-26.1,-28.9,0,0,,10.0,30.029528,1025.6,,,TRUE,,,,,,,SCT,9000,BKN,15000,,,,,VFR,0.1,,,,,,,,,,,METAR,523.0
PANN 140253Z AUTO 00000KT 10SM SCT110 M21/M24 A2980 RMK AO2 SLP109 T12111244 51009 TSNO,PANN,2019-01-14T02:53:00Z,64.55,-149.08,-21.1,-24.4,0,0,,10.0,29.799213,1010.9,,TRUE,TRUE,,,TRUE,,,,SCT,11000,,,,,,,VFR,0.9,,,,,,,,,,,METAR,110.0
PANC 140253Z VRB03KT 10SM FEW070 BKN150 BKN220 M03/M06 A2978 RMK AO2 SLP088 T10331061 53011,PANC,2019-01-14T02:53:00Z,61.17,-150.0,-3.3,-6.1,0,3,,10.0,29.778543,1008.8,,,TRUE,,,,,,,FEW,7000,BKN,15000,BKN,22000,,,VFR,1.1,,,,,,,,,,,METAR,38.0
PAMR 140253Z 00000KT 10SM SCT120 M05/M08 A2979 RMK AO2 SLP089 T10501078 53011 $,PAMR,2019-01-14T02:53:00Z,61.22,-149.85,-5.0,-7.8,0,0,,10.0,29.790354,1008.9,,,TRUE,TRUE,,,,,,SCT,12000,,,,,,,VFR,1.1,,,,,,,,,,,METAR,41.0
PAMC 140253Z AUTO 00000KT 10SM BKN110 M17/M19 A2962 RMK AO2 SLP041 T11671189 53012 TSNO $,PAMC,2019-01-14T02:53:00Z,62.97,-155.62,-16.7,-18.9,0,0,,10.0,29.619095,1004.1,,TRUE,TRUE,TRUE,,TRUE,,,,BKN,11000,,,,,,,VFR,1.2,,,,,,,,,,,METAR,103.0
PALH 140253Z 00000KT 10SM FEW120 M04/M07 A2980 RMK AO2 SLP091 T10441067 53011,PALH,2019-01-14T02:53:00Z,61.18,-149.97,-4.4,-6.7,0,0,,10.0,29.799213,1009.1,,,TRUE,,,,,,,FEW,12000,,,,,,,VFR,1.1,,,,,,,,,,,METAR,22.0
PAKV 140253Z AUTO 06013G20KT 10SM OVC070 M13/M17 A2966 RMK AO2 SLP051 60000 T11331167 58001 TSNO $,PAKV,2019-01-14T02:53:00Z,64.33,-158.75,-13.3,-16.7,60,13,20,10.0,29.660433,1005.1,,TRUE,TRUE,TRUE,,TRUE,,,,OVC,7000,,,,,,,VFR,-0.1,,,,,,0.005,,,,,METAR,61.0
PAKT 140253Z 15011KT 4SM RA BR OVC023 08/07 A3006 RMK AO2 SLP179 HARBOR WIND 12020KT P0016 60062 T00780067 55002,PAKT,2019-01-14T02:53:00Z,55.35,-131.7,7.8,6.7,150,11,,4.0,30.059055,1017.9,,,TRUE,,,,,,RA BR,OVC,2300,,,,,,,MVFR,-0.2,,,,,0.16,0.62,,,,,METAR,28.0
PAJN 140253Z 00000KT 5SM -RA BR SCT005 SCT018 OVC038 01/01 A3003 RMK AO2 SLP169 P0004 60012 T00060006 55003 $,PAJN,2019-01-14T02:53:00Z,58.35,-134.58,0.6,0.6,0,0,,5.0,30.029528,1016.9,,,TRUE,TRUE,,,,,-RA BR,SCT,500,SCT,1800,OVC,3800,,,MVFR,-0.3,,,,,0.04,0.12,,,,,METAR,5.0
PAIL 140253Z 09020G31KT 10SM -RA BKN034 BKN043 OVC075 02/01 A2952 RMK AO2 PK WND 10031/0201 SLP000 P0000 60004 T00220011 53029 $,PAIL,2019-01-14T02:53:00Z,59.75,-154.92,2.2,1.1,90,20,31,10.0,29.518702,1000.0,,,TRUE,TRUE,,,,,-RA,BKN,3400,BKN,4300,OVC,7500,,,VFR,2.9,,,,,0.005,0.04,,,,,METAR,49.0
PAHO 140253Z 11013G17KT 9SM -RA OVC023 04/01 A2967 RMK AO2 SLP048 P0004 60004 T00440011 53014,PAHO,2019-01-14T02:53:00Z,59.63,-151.47,4.4,1.1,110,13,17,9.0,29.66929,1004.8,,,TRUE,,,,,,-RA,OVC,2300,,,,,,,MVFR,1.4,,,,,0.04,0.04,,,,,METAR,28.0
KMLF 140252Z AUTO 04007KT 10SM OVC011 M03/M06 A3026 RMK AO2 SLP275 T10331061 53010,KMLF,2019-01-14T02:52:00Z,38.42,-113.02,-3.3,-6.1,40,7,,10.0,30.259842,1027.5,,TRUE,TRUE,,,,,,,OVC,1100,,,,,,,MVFR,1.0,,,,,,,,,,,METAR,1534.0
KTRM 140252Z AUTO 00000KT 10SM CLR 14/07 A3007 RMK AO2 SLP183 T01390067 50007 TSNO,KTRM,2019-01-14T02:52:00Z,33.63,-116.17,13.9,6.7,0,0,,10.0,30.070866,1018.3,,TRUE,TRUE,,,TRUE,,,,CLR,,,,,,,,VFR,0.7,,,,,,,,,,,METAR,-35.0
KTOL 140252Z 04007KT 10SM CLR M04/M09 A3034 RMK AO2 SLP285 T10441094 52003,KTOL,2019-01-14T02:52:00Z,41.58,-83.8,-4.4,-9.4,40,7,,10.0,30.339567,1028.5,,,TRUE,,,,,,,CLR,,,,,,,,VFR,0.3,,,,,,,,,,,METAR,210.0
KTAN 140252Z AUTO 00000KT 10SM OVC022 M02/M07 A3034 RMK AO2 SLP274 T10171067 58011,KTAN,2019-01-14T02:52:00Z,41.88,-71.02,-1.7,-6.7,0,0,,10.0,30.339567,1027.4,,TRUE,TRUE,,,,,,,OVC,2200,,,,,,,MVFR,-1.1,,,,,,,,,,,METAR,7.0
KSUX 140252Z 21014KT 10SM OVC014 M01/M04 A3036 RMK AO2 SLP297 T10111044 58001,KSUX,2019-01-14T02:52:00Z,42.38,-96.38,-1.1,-4.4,210,14,,10.0,30.360237,1029.7,,,TRUE,,,,,,,OVC,1400,,,,,,,MVFR,-0.1,,,,,,,,,,,METAR,338.0
KSPS 140252Z AUTO 02007KT 10SM OVC016 01/M01 A3046 RMK AO2 SLP320 T00111011 51010,KSPS,2019-01-14T02:52:00Z,33.98,-98.5,1.1,-1.1,20,7,,10.0,30.46063,1032.0,,TRUE,TRUE,,,,,,,OVC,1600,,,,,,,MVFR,1.0,,,,,,,,,,,METAR,308.0
KSGF 140252Z 35009KT 3SM BR OVC004 M01/M02 A3040 RMK AO2 SLP306 T10061022 50008,KSGF,2019-01-14T02:52:00Z,37.23,-93.38,-0.6,-2.2,350,9,,3.0,30.398623,1030.6,,,TRUE,,,,,,BR,OVC,400,,,,,,,LIFR,0.8,,,,,,,,,,,METAR,390.0
KRAP 140252Z 32004KT 10SM CLR M03/M06 A3014 RMK AO2 SLP256 T10331056 50001,KRAP,2019-01-14T02:52:00Z,44.05,-103.05,-3.3,-5.6,320,4,,10.0,30.138779,1025.6,,,TRUE,,,,,,,CLR,,,,,,,,VFR,0.1,,,,,,,,,,,METAR,965.0
KPYM 140252Z AUTO 06009KT 10SM OVC022 M01/M06 A3034 RMK AO2 SLP274 T10111061 58012,KPYM,2019-01-14T02:52:00Z,41.92,-70.73,-1.1,-6.1,60,9,,10.0,30.339567,1027.4,,TRUE,TRUE,,,,,,,OVC,2200,,,,,,,MVFR,-1.2,,,,,,,,,,,METAR,43.0
KPWK 140252Z 32003KT 10SM OVC020 M02/M07 A3040 RMK AO2 SLP303 T10221067 58002 $,KPWK,2019-01-14T02:52:00Z,42.12,-87.9,-2.2,-6.7,320,3,,10.0,30.398623,1030.3,,,TRUE,TRUE,,,,,,OVC,2000,,,,,,,MVFR,-0.2,,,,,,,,,,,METAR,203.0
PATA 140252Z 10010KT 10SM BKN110 M19/M25 A2988 RMK AO2 SLP127 T11941250 56005 PNO $,PATA,2019-01-14T02:52:00Z,65.17,-152.1,-19.4,-25.0,100,10,,10.0,29.878937,1012.7,,,TRUE,TRUE,,,,,,BKN,11000,,,,,,,VFR,-0.5,,,,,,,,,,,METAR,67.0
KFIT 140252Z AUTO 33003KT 10SM CLR M11/M14 A3038 RMK AO2 SLP295 T11061139 55000,KFIT,2019-01-14T02:52:00Z,42.55,-71.75,-10.6,-13.9,330,3,,10.0,30.380905,1029.5,,TRUE,TRUE,,,,,,,CLR,,,,,,,,VFR,0.0,,,,,,,,,,,METAR,103.0
KDPA 140252Z AUTO 35004KT 10SM FEW016 M08/M11 A3039 RMK AO2 SLP301 T10781106 51001,KDPA,2019-01-14T02:52:00Z,41.92,-88.25,-7.8,-10.6,350,4,,10.0,30.389763,1030.1,,TRUE,TRUE,,,,,,,FEW,1600,,,,,,,VFR,0.1,,,,,,,,,,,METAR,231.0
KDDC 140252Z AUTO 20006KT 3SM BR OVC003 M02/M03 A3038 RMK AO2 SLP312 T10221033 50002 $,KDDC,2019-01-14T02:52:00Z,37.77,-99.97,-2.2,-3.3,200,6,,3.0,30.380905,1031.2,,TRUE,TRUE,TRUE,,,,,BR,OVC,300,,,,,,,LIFR,0.2,,,,,,,,,,,METAR,789.0
KCVG 140252Z 35007KT 8SM BKN012 OVC021 M01/M03 A3027 RMK AO2 SLP257 T10061028 51010 $,KCVG,2019-01-14T02:52:00Z,39.05,-84.67,-0.6,-2.8,350,7,,8.0,30.268702,1025.7,,,TRUE,TRUE,,,,,,BKN,1200,OVC,2100,,,,,MVFR,1.0,,,,,,,,,,,METAR,269.0
KCQX 140252Z AUTO 05010KT 10SM OVC026 00/M06 A3033 RMK AO2 SLP272 T00001061 58012,KCQX,2019-01-14T02:52:00Z,41.68,-70.0,0.0,-6.1,50,10,,10.0,30.33071,1027.2,,TRUE,TRUE,,,,,,,OVC,2600,,,,,,,MVFR,-1.2,,,,,,,,,,,METAR,19.0
KCNU 140252Z AUTO 02004KT 7SM OVC007 M01/M02 A3046 RMK AO2 SLP324 T10111022 51005,KCNU,2019-01-14T02:52:00Z,37.67,-95.48,-1.1,-2.2,20,4,,7.0,30.46063,1032.4,,TRUE,TRUE,,,,,,,OVC,700,,,,,,,IFR,0.5,,,,,,,,,,,METAR,297.0
KCLT 140252Z 01004KT 10SM OVC009 02/01 A3020 RMK AO2 SLP230 T00220011 53010,KCLT,2019-01-14T02:52:00Z,35.22,-80.95,2.2,1.1,10,4,,10.0,30.200787,1023.0,,,TRUE,,,,,,,OVC,900,,,,,,,IFR,1.0,,,,,,,,,,,METAR,220.0
KCKV 140252Z AUTO 35008KT 4SM BR OVC005 02/00 A3031 RMK AO2 CIG 004V009 SLP267 T00220000 51014,KCKV,2019-01-14T02:52:00Z,36.62,-87.42,2.2,0.0,350,8,,4.0,30.31004,1026.7,,TRUE,TRUE,,,,,,BR,OVC,500,,,,,,,IFR,1.4,,,,,,,,,,,METAR,165.0
KCID 140252Z 00000KT 6SM BR OVC018 M04/M06 A3040 RMK AO2 SLP306 T10441061 58001,KCID,2019-01-14T02:52:00Z,41.88,-91.72,-4.4,-6.1,0,0,,6.0,30.398623,1030.6,,,TRUE,,,,,,BR,OVC,1800,,,,,,,MVFR,-0.1,,,,,,,,,,,METAR,264.0
KBML 140252Z AUTO 00000KT 10SM CLR M24/M27 A3036 RMK AO2 SLP320 T12391267 58001,KBML,2019-01-14T02:52:00Z,44.58,-71.18,-23.9,-26.7,0,0,,10.0,30.360237,1032.0,,TRUE,TRUE,,,,,,,CLR,,,,,,,,VFR,-0.1,,,,,,,,,,,METAR,345.0
KBLU 140252Z AUTO 00000KT 10SM CLR 03/M06 A3003 RMK AO2 SLP162 T00331056 53004 $,KBLU,2019-01-14T02:52:00Z,39.28,-120.7,3.3,-5.6,0,0,,10.0,30.029528,1016.2,,TRUE,TRUE,TRUE,,,,,,CLR,,,,,,,,VFR,0.4,,,,,,,,,,,METAR,1609.0
KBLH 140252Z AUTO 34005KT 10SM CLR 13/06 A3010 RMK AO2 SLP191 T01280061 53009,KBLH,2019-01-14T02:52:00Z,33.62,-114.72,12.8,6.1,340,5,,10.0,30.100393,1019.1,,TRUE,TRUE,,,,,,,CLR,,,,,,,,VFR,0.9,,,,,,,,,,,METAR,119.0
KBIS 140252Z 00000KT 9SM CLR M07/M07 A3017 RMK AO2 SLP247 I1001 I3001 T10671072 50004,KBIS,2019-01-14T02:52:00Z,46.77,-100.75,-6.7,-7.2,0,0,,9.0,30.171259,1024.7,,,TRUE,,,,,,,CLR,,,,,,,,VFR,0.4,,,,,,,,,,,METAR,505.0
KBDR 140252Z 03011KT 10SM CLR M04/M13 A3034 RMK AO2 SLP272 T10391128 58003,KBDR,2019-01-14T02:52:00Z,41.17,-73.13,-3.9,-12.8,30,11,,10.0,30.339567,1027.2,,,TRUE,,,,,,,CLR,,,,,,,,VFR,-0.3,,,,,,,,,,,METAR,7.0
KATL 140252Z 32009KT 10SM BKN016 BKN025 08/04 A3020 RMK AO2 SLP231 T00780044 51009 $,KATL,2019-01-14T02:52:00Z,33.63,-84.45,7.8,4.4,320,9,,10.0,30.200787,1023.1,,,TRUE,TRUE,,,,,,BKN,1600,BKN,2500,,,,,MVFR,0.9,,,,,,,,,,,METAR,296.0
KARR 140252Z AUTO 29003KT 10SM CLR M14/M16 A3040 RMK AO2 SLP307 I1000 I3000 T11441156 51004 TSNO,KARR,2019-01-14T02:52:00Z,41.77,-88.48,-14.4,-15.6,290,3,,10.0,30.398623,1030.7,,TRUE,TRUE,,,TRUE,,,,CLR,,,,,,,,VFR,0.4,,,,,,,,,,,METAR,215.0
KAQW 140252Z AUTO 00000KT 10SM CLR M13/M14 A3037 RMK AO2 SLP300 T11331144 53001 $,KAQW,2019-01-14T02:52:00Z,42.7,-73.17,-13.3,-14.4,0,0,,10.0,30.369095,1030.0,,TRUE,TRUE,TRUE,,,,,,CLR,,,,,,,,VFR,0.1,,,,,,,,,,,METAR,199.0
KAFN 140252Z AUTO 00000KT 10SM CLR M12/M13 A3032 RMK AO2 SLP293 T11171133 56003,KAFN,2019-01-14T02:52:00Z,42.8,-72.0,-11.7,-13.3,0,0,,10.0,30.318897,1029.3,,TRUE,TRUE,,,,,,,CLR,,,,,,,,VFR,-0.3,,,,,,,,,,,METAR,313.0
KABI 140252Z 02005KT 10SM OVC011 01/M01 A3041 RMK AO2 SLP305 T00111006 51011,KABI,2019-01-14T02:52:00Z,32.42,-99.68,1.1,-0.6,20,5,,10.0,30.410433,1030.5,,,TRUE,,,,,,,OVC,1100,,,,,,,MVFR,1.1,,,,,,,,,,,METAR,548.0
KPPF 140252Z AUTO 01005KT 6SM BR OVC008 M01/M02 A3047 RMK AO2 SLP326 T10061017 50004,KPPF,2019-01-14T02:52:00Z,37.33,-95.5,-0.6,-1.7,10,5,,6.0,30.469488,1032.6,,TRUE,TRUE,,,,,,BR,OVC,800,,,,,,,IFR,0.4,,,,,,,,,,,METAR,274.0
KORE 140252Z AUTO 00000KT 10SM CLR M12/M15 A3037 RMK AO2 SLP297 T11171150 55001,KORE,2019-01-14T02:52:00Z,42.57,-72.28,-11.7,-15.0,0,0,,10.0,30.369095,1029.7,,TRUE,TRUE,,,,,,,CLR,,,,,,,,VFR,-0.1,,,,,,,,,,,METAR,164.0
KOMA 140252Z 16007KT 3SM BR CLR M06/M08 A3041 RMK AO2 SLP312 T10611078 58002 $,KOMA,2019-01-14T02:52:00Z,41.32,-95.9,-6.1,-7.8,160,7,,3.0,30.410433,1031.2,,,TRUE,TRUE,,,,,BR,CLR,,,,,,,,MVFR,-0.2,,,,,,,,,,,METAR,312.0
KOKC 140252Z 03006KT 10SM OVC014 01/M03 A3044 RMK AO2 SLP319 T00061028 50006,KOKC,2019-01-14T02:52:00Z,35.38,-97.6,0.6,-2.8,30,6,,10.0,30.43996,1031.9,,,TRUE,,,,,,,OVC,1400,,,,,,,MVFR,0.6,,,,,,,,,,,METAR,390.0
KOKB 140252Z AUTO 00000KT 10SM CLR 11/09 A3001 RMK AO2 SLP163 T01060089 58002,KOKB,2019-01-14T02:52:00Z,33.22,-117.35,10.6,8.9,0,0,,10.0,30.008858,1016.3,,TRUE,TRUE,,,,,,,CLR,,,,,,,,VFR,-0.2,,,,,,,,,,,METAR,8.0
KMWH 140252Z 05005KT 10SM OVC009 01/M02 A3036 RMK AO2 SLP295 T00061017 50000,KMWH,2019-01-14T02:52:00Z,47.2,-119.32,0.6,-1.7,50,5,,10.0,30.360237,1029.5,,,TRUE,,,,,,,OVC,900,,,,,,,IFR,0.0,,,,,,,,,,,METAR,362.0
KMKE 140252Z 00000KT 10SM SCT020 M04/M08 A3038 RMK AO2 SLP299 T10391083 58006,KMKE,2019-01-14T02:52:00Z,42.95,-87.9,-3.9,-8.3,0,0,,10.0,30.380905,1029.9,,,TRUE,,,,,,,SCT,2000,,,,,,,VFR,-0.6,,,,,,,,,,,METAR,206.0
KMHK 140252Z 00000KT 8SM OVC008 00/M03 A3046 RMK AO2 SLP324 T00001028 50005,KMHK,2019-01-14T02:52:00Z,39.13,-96.68,0.0,-2.8,0,0,,8.0,30.46063,1032.4,,,TRUE,,,,,,,OVC,800,,,,,,,IFR,0.5,,,,,,,,,,,METAR,317.0
KMFD 140252Z 01008KT 10SM SCT009 M04/M06 A3025 RMK AO2 SLP263 T10391056 53007,KMFD,2019-01-14T02:52:00Z,40.82,-82.52,-3.9,-5.6,10,8,,10.0,30.250984,1026.3,,,TRUE,,,,,,,SCT,900,,,,,,,VFR,0.7,,,,,,,,,,,METAR,395.0
KMEB 140252Z AUTO 01006KT 10SM OVC010 03/01 A3020 RMK AO2 SLP226 T00280006 52014,KMEB,2019-01-14T02:52:00Z,34.78,-79.37,2.8,0.6,10,6,,10.0,30.200787,1022.6,,TRUE,TRUE,,,,,,,OVC,1000,,,,,,,MVFR,1.4,,,,,,,,,,,METAR,67.0
KMDH 140252Z 35008KT 7SM OVC013 M01/M03 A3038 RMK AO2 SLP293 T10111028 51013,KMDH,2019-01-14T02:52:00Z,37.78,-89.25,-1.1,-2.8,350,8,,7.0,30.380905,1029.3,,,TRUE,,,,,,,OVC,1300,,,,,,,MVFR,1.3,,,,,,,,,,,METAR,130.0
KMBG 140252Z AUTO 21005KT 1/4SM FZFG VV002 M03/M04 A3015 RMK AO2 SLP234 I1001 I3001 T10281044 56002,KMBG,2019-01-14T02:52:00Z,45.55,-100.42,-2.8,-4.4,210,5,,0.25,30.15059,1023.4,,TRUE,TRUE,,,,,,FZFG,OVX,0,,,,,,,LIFR,-0.2,,,,,,,,,,200,METAR,510.0
KLWC 140252Z AUTO 29003KT 6SM HZ OVC013 M01/M04 A3046 RMK AO2 SLP322 T10111039 51005,KLWC,2019-01-14T02:52:00Z,39.02,-95.22,-1.1,-3.9,290,3,,6.0,30.46063,1032.2,,TRUE,TRUE,,,,,,HZ,OVC,1300,,,,,,,MVFR,0.5,,,,,,,,,,,METAR,253.0
KISN 140252Z AUTO 00000KT 10SM CLR M07/M09 A3018 RMK AO2 SLP262 T10671089 52005,KISN,2019-01-14T02:52:00Z,48.17,-103.63,-6.7,-8.9,0,0,,10.0,30.180119,1026.2,,TRUE,TRUE,,,,,,,CLR,,,,,,,,VFR,0.5,,,,,,,,,,,METAR,579.0
KIOW 140252Z AUTO 00000KT 10SM OVC020 M01/M06 A3044 RMK AO2 SLP315 T10111056 50000,KIOW,2019-01-14T02:52:00Z,41.63,-91.55,-1.1,-5.6,0,0,,10.0,30.43996,1031.5,,TRUE,TRUE,,,,,,,OVC,2000,,,,,,,MVFR,0.0,,,,,,,,,,,METAR,198.0
KIJD 140252Z AUTO 05004KT 10SM CLR M09/M11 A3036 RMK AO2 SLP284 T10941111 58001 $,KIJD,2019-01-14T02:52:00Z,41.75,-72.18,-9.4,-11.1,50,4,,10.0,30.360237,1028.4,,TRUE,TRUE,TRUE,,,,,,CLR,,,,,,,,VFR,-0.1,,,,,,,,,,,METAR,75.0
KIEN 140252Z AUTO 25005KT 10SM CLR M03/M06 A3019 RMK AO2 SLP265 T10331056 51004,KIEN,2019-01-14T02:52:00Z,43.03,-102.52,-3.3,-5.6,250,5,,10.0,30.188976,1026.5,,TRUE,TRUE,,,,,,,CLR,,,,,,,,VFR,0.4,,,,,,,,,,,METAR,998.0
KHUT 140252Z 00000KT 2 1/2SM BR OVC002 M03/M03 A3044 RMK AO2 SLP319 T10331033 51004,KHUT,2019-01-14T02:52:00Z,38.07,-97.87,-3.3,-3.3,0,0,,2.5,30.43996,1031.9,,,TRUE,,,,,,BR,OVC,200,,,,,,,LIFR,0.4,,,,,,,,,,,METAR,467.0
KHRL 140252Z 03009KT 10SM OVC049 13/09 A3032 RMK AO2 SLP268 T01280089 51015,KHRL,2019-01-14T02:52:00Z,26.23,-97.65,12.8,8.9,30,9,,10.0,30.318897,1026.8,,,TRUE,,,,,,,OVC,4900,,,,,,,VFR,1.5,,,,,,,,,,,METAR,10.0
KHIE 140252Z AUTO 00000KT 10SM CLR M23/M26 A3036 RMK AO2 SLP319 I3000 T12331256 58003,KHIE,2019-01-14T02:52:00Z,44.37,-71.55,-23.3,-25.6,0,0,,10.0,30.360237,1031.9,,TRUE,TRUE,,,,,,,CLR,,,,,,,,VFR,-0.3,,,,,,,,,,,METAR,318.0
KGLS 140252Z AUTO 02014KT 10SM CLR 11/06 A3037 RMK AO2 SLP284 T01060056 51019 $,KGLS,2019-01-14T02:52:00Z,29.27,-94.87,10.6,5.6,20,14,,10.0,30.369095,1028.4,,TRUE,TRUE,TRUE,,,,,,CLR,,,,,,,,VFR,1.9,,,,,,,,,,,METAR,6.0
PTYA 140252Z 05012G21KT 12SM FEW018 SCT300 30/22 A2978 RMK SLP084 8/101 T03020224 57017,PTYA,2019-01-14T02:52:00Z,9.48,138.08,30.2,22.4,50,12,21,12.0,29.778543,1008.4,,,,,,,,,,FEW,1800,SCT,30000,,,,,VFR,-1.7,,,,,,,,,,,SPECI,17.0
KP69 140252Z AUTO 00000KT M03/M04 A3035 RMK AO1 SLP310 T10331044 51014 TSNO,KP69,2019-01-14T02:52:00Z,46.15,-115.6,-3.3,-4.4,0,0,,,30.351377,1031.0,,TRUE,TRUE,,,TRUE,,,,,,,,,,,,,1.4,,,,,,,,,,,METAR,480.0
KN60 140252Z AUTO 35006KT M10/M11 A3017 RMK AO1 SLP253 T11001111 51008,KN60,2019-01-14T02:52:00Z,47.65,-101.43,-10.0,-11.1,350,6,,,30.171259,1025.3,,TRUE,TRUE,,,,,,,,,,,,,,,,0.8,,,,,,,,,,,METAR,582.0
KBAN 140252Z AUTO 34003KT 10SM CLR M01/M09 A3003 RMK AO2 SLP202 T10061094 53005 $,KBAN,2019-01-14T02:52:00Z,38.35,-119.52,-0.6,-9.4,340,3,,10.0,30.029528,1020.2,,TRUE,TRUE,TRUE,,,,,,CLR,,,,,,,,VFR,0.5,,,,,,,,,,,METAR,2057.0
KREO 140252Z AUTO 04003KT M04/M06 A3022 RMK AO1 SLP270 T10391056 51002,KREO,2019-01-14T02:52:00Z,42.58,-117.87,-3.9,-5.6,40,3,,,30.221457,1027.0,,TRUE,TRUE,,,,,,,,,,,,,,,,0.2,,,,,,,,,,,METAR,1235.0
KNRB 140252Z AUTO 03009KT 10SM FEW006 15/14 A3015 RMK AO2 SLP209 T01500139 51012 TSNO $,KNRB,2019-01-14T02:52:00Z,30.38,-81.42,15.0,13.9,30,9,,10.0,30.15059,1020.9,,TRUE,TRUE,TRUE,,TRUE,,,,FEW,600,,,,,,,VFR,1.2,,,,,,,,,,,METAR,5.0
KCZZ 140252Z AUTO 06013KT 09/03 A3001 RMK AO1 SLP155 T00890033 53006,KCZZ,2019-01-14T02:52:00Z,32.63,-116.47,8.9,3.3,60,13,,,30.008858,1015.5,,TRUE,TRUE,,,,,,,,,,,,,,,,0.6,,,,,,,,,,,METAR,807.0
KCDJ 140252Z AUTO 00000KT M01/M04 A3045 RMK AO1 SLP327 T10111044 50001 $,KCDJ,2019-01-14T02:52:00Z,39.82,-93.58,-1.1,-4.4,0,0,,,30.448818,1032.7,,TRUE,TRUE,TRUE,,,,,,,,,,,,,,,0.1,,,,,,,,,,,SPECI,234.0
PABA 140252Z AUTO 08023KT 3SM BR CLR M26/M28 A3016 RMK AO2 PK WND 08029/0200 SLP199 T12561278 51007 FZRANO TSNO,PABA,2019-01-14T02:52:00Z,70.13,-143.58,-25.6,-27.8,80,23,,3.0,30.159449,1019.9,,TRUE,TRUE,,,TRUE,TRUE,,BR,CLR,,,,,,,,MVFR,0.7,,,,,,,,,,,METAR,2.0
KVTN 140252Z AUTO 22010KT 10SM CLR M01/M03 A3020 RMK AO2 SLP254 T10061033 50000,KVTN,2019-01-14T02:52:00Z,42.87,-100.55,-0.6,-3.3,220,10,,10.0,30.200787,1025.4,,TRUE,TRUE,,,,,,,CLR,,,,,,,,VFR,0.0,,,,,,,,,,,METAR,788.0
KEST 140252Z AUTO 19009KT 5SM BR CLR M03/M04 A3030 RMK AO2 SLP281 T10331044 58006,KEST,2019-01-14T02:52:00Z,43.4,-94.75,-3.3,-4.4,190,9,,5.0,30.301182,1028.1,,TRUE,TRUE,,,,,,BR,CLR,,,,,,,,MVFR,-0.6,,,,,,,,,,,METAR,401.0
KNHK 140252Z AUTO 01017KT 1/4SM +SN FZFG VV004 M01/M01 A3024 RMK AO2 SLP239 P0000 60000 T10111011 50003 $,KNHK,2019-01-14T02:52:00Z,38.27,-76.4,-1.1,-1.1,10,17,,0.25,30.239174,1023.9,,TRUE,TRUE,TRUE,,,,,+SN FZFG,OVX,0,,,,,,,LIFR,0.3,,,,,0.005,,,,,400,SPECI,12.0
KCFV 140252Z AUTO 02006KT 7SM OVC009 M01/M02 A3047 RMK AO2 SLP324 T10061022 50004,KCFV,2019-01-14T02:52:00Z,37.08,-95.57,-0.6,-2.2,20,6,,7.0,30.469488,1032.4,,TRUE,TRUE,,,,,,,OVC,900,,,,,,,IFR,0.4,,,,,,,,,,,METAR,225.0
MMMD 140252Z 02004KT 7SM SCT015 23/19 A3016 RMK SLP207 52013 910 8/500,MMMD,2019-01-14T02:52:00Z,20.95,-89.65,23.0,19.0,20,4,,7.0,30.159449,1020.7,,,,,,,,,,SCT,1500,,,,,,,VFR,1.3,,,,,,,,,,,METAR,10.0
KNFW 140252Z AUTO 35008KT 10SM OVC016 03/M02 A3046 RMK AO2 SLP296 T00281017 51011 TSNO VISNO N $,KNFW,2019-01-14T02:52:00Z,32.78,-97.43,2.8,-1.7,350,8,,10.0,30.46063,1029.6,,TRUE,TRUE,TRUE,,TRUE,,,,OVC,1600,,,,,,,MVFR,1.1,,,,,,,,,,,SPECI,198.0
MUCM 140252Z 04005KT 9000 FEW030 21/20 Q1020,MUCM,2019-01-14T02:52:00Z,21.42,-77.85,21.0,20.0,40,5,,5.59,30.11811,,,,,,,,,,,FEW,3000,,,,,,,VFR,,,,,,,,,,,,SPECI,122.0
PTTP 140252Z 09003KT 15SM SCT018TCU OVC300 29/25 A2969 RMK TCU ALQDS SLP052 8/201 T02890251 57020,PTTP,2019-01-14T02:52:00Z,6.97,158.22,28.9,25.1,90,3,,15.0,29.68996,1005.2,,,,,,,,,,SCT,1800,OVC,30000,,,,,VFR,-2.0,,,,,,,,,,,SPECI,2.0
KNZY 140252Z 15003KT 10SM FEW015 BKN150 15/10 A3003 RMK AO2 SLP168 T01500100 53001 PNO $,KNZY,2019-01-14T02:52:00Z,32.7,-117.22,15.0,10.0,150,3,,10.0,30.029528,1016.8,,,TRUE,TRUE,,,,,,FEW,1500,BKN,15000,,,,,VFR,0.1,,,,,,,,,,,SPECI,8.0
KMWN 140251Z 28007KT 130SM SKC M11/M27 RMK,KMWN,2019-01-14T02:51:00Z,44.27,-71.3,-11.0,-27.0,280,7,,30.0,,,,,,,,,,,,SKC,,,,,,,,VFR,,,,,,,,,,,,METAR,1910.0
KP59 140251Z AUTO 24007KT M02/M08 A3022 RMK AO1 SLP247 T10171078 56017,KP59,2019-01-14T02:51:00Z,47.47,-87.88,-1.7,-7.8,240,7,,,30.221457,1024.7,,TRUE,TRUE,,,,,,,,,,,,,,,,-1.7,,,,,,,,,,,METAR,190.0
KSJT 140251Z AUTO 05008KT 10SM OVC014 02/00 A3038 RMK AO2 SLP301 T00220000 51015,KSJT,2019-01-14T02:51:00Z,31.37,-100.5,2.2,0.0,50,8,,10.0,30.380905,1030.1,,TRUE,TRUE,,,,,,,OVC,1400,,,,,,,MVFR,1.5,,,,,,,,,,,METAR,576.0
KSAT 140251Z 07009KT 10SM FEW065 08/03 A3039 RMK AO2 SLP282 T00830028 53023,KSAT,2019-01-14T02:51:00Z,29.53,-98.47,8.3,2.8,70,9,,10.0,30.389763,1028.2,,,TRUE,,,,,,,FEW,6500,,,,,,,VFR,2.3,,,,,,,,,,,METAR,243.0
KSAN 140251Z 16003KT 10SM BKN200 15/09 A3005 RMK AO2 SLP175 T01500094 53001,KSAN,2019-01-14T02:51:00Z,32.73,-117.18,15.0,9.4,160,3,,10.0,30.050198,1017.5,,,TRUE,,,,,,,BKN,20000,,,,,,,VFR,0.1,,,,,,,,,,,METAR,12.0
KSAD 140251Z AUTO 00000KT 10SM SCT085 09/06 A3013 RMK AO2 SLP193 T00890061 51013,KSAD,2019-01-14T02:51:00Z,32.85,-109.63,8.9,6.1,0,0,,10.0,30.129921,1019.3,,TRUE,TRUE,,,,,,,SCT,8500,,,,,,,VFR,1.3,,,,,,,,,,,METAR,962.0
KROW 140251Z 23006KT 10SM BKN040 02/M02 A3029 RMK AO2 SLP254 T00171017 51014,KROW,2019-01-14T02:51:00Z,33.3,-104.5,1.7,-1.7,230,6,,10.0,30.28937,1025.4,,,TRUE,,,,,,,BKN,4000,,,,,,,VFR,1.4,,,,,,,,,,,METAR,1112.0
KRDU 140251Z 34005KT 5SM BR OVC005 01/00 A3019 RMK AO2 SLP228 T00060000 53015,KRDU,2019-01-14T02:51:00Z,35.9,-78.78,0.6,0.0,340,5,,5.0,30.188976,1022.8,,,TRUE,,,,,,BR,OVC,500,,,,,,,IFR,1.5,,,,,,,,,,,SPECI,130.0
KPWM 140251Z VRB03KT 10SM CLR M11/M13 A3040 RMK AO2 SLP297 T11061128 55002,KPWM,2019-01-14T02:51:00Z,43.65,-70.3,-10.6,-12.8,0,3,,10.0,30.398623,1029.7,,,TRUE,,,,,,,CLR,,,,,,,,VFR,-0.2,,,,,,,,,,,METAR,15.0
KPVD 140251Z 01008KT 10SM -SN OVC020 M03/M07 A3035 RMK AO2 SLP278 PCPN VRY LGT P0000 60000 T10331072 58008,KPVD,2019-01-14T02:51:00Z,41.72,-71.43,-3.3,-7.2,10,8,,10.0,30.351377,1027.8,,,TRUE,,,,,,-SN,OVC,2000,,,,,,,MVFR,-0.8,,,,,0.005,0.005,,,,,METAR,16.0
KPIT 140251Z 07004KT 10SM BKN032 OVC085 M03/M06 A3022 RMK AO2 SLP258 60000 T10331056 53004 $,KPIT,2019-01-14T02:51:00Z,40.5,-80.27,-3.3,-5.6,70,4,,10.0,30.221457,1025.8,,,TRUE,TRUE,,,,,,BKN,3200,OVC,8500,,,,,VFR,0.4,,,,,,0.005,,,,,METAR,357.0
KPHX 140251Z 24004KT 10SM SCT110 OVC190 13/09 A3008 RMK AO2 SLP180 T01330094 53006,KPHX,2019-01-14T02:51:00Z,33.43,-112.02,13.3,9.4,240,4,,10.0,30.079725,1018.0,,,TRUE,,,,,,,SCT,11000,OVC,19000,,,,,VFR,0.6,,,,,,,,,,,METAR,336.0
KOXR 140251Z 10004KT 10SM CLR 14/07 A3000 RMK AO2 SLP159 T01390067 55005,KOXR,2019-01-14T02:51:00Z,34.2,-119.2,13.9,6.7,100,4,,10.0,30.0,1015.9,,,TRUE,,,,,,,CLR,,,,,,,,VFR,-0.5,,,,,,,,,,,METAR,20.0
KORF 140251Z 35022G32KT 7SM -RA OVC007 03/03 A3011 RMK AO2 PK WND 35033/0217 RAE12B38SNB12E38 SLP195 P0002 60004 T00330028 51013,KORF,2019-01-14T02:51:00Z,36.9,-76.2,3.3,2.8,350,22,32,7.0,30.109253,1019.5,,,TRUE,,,,,,-RA,OVC,700,,,,,,,IFR,1.3,,,,,0.02,,,,,,SPECI,14.0
KORD 140251Z 34005KT 10SM BKN020 M03/M07 A3038 RMK AO2 SLP297 T10331067 57001,KORD,2019-01-14T02:51:00Z,41.98,-87.93,-3.3,-6.7,340,5,,10.0,30.380905,1029.7,,,TRUE,,,,,,,BKN,2000,,,,,,,MVFR,-0.1,,,,,,,,,,,METAR,200.0
KMYL 140251Z AUTO 06003KT 10SM CLR M11/M13 A3020 RMK AO2 SLP319 T11111133 51007,KMYL,2019-01-14T02:51:00Z,44.9,-116.1,-11.1,-13.3,60,3,,10.0,30.200787,1031.9,,TRUE,TRUE,,,,,,,CLR,,,,,,,,VFR,0.7,,,,,,,,,,,METAR,1533.0
KMPV 140251Z AUTO 00000KT 10SM CLR M19/M21 A3040 RMK AO2 SLP332 I1000 I3000 T11941211 58004,KMPV,2019-01-14T02:51:00Z,44.2,-72.57,-19.4,-21.1,0,0,,10.0,30.398623,1033.2,,TRUE,TRUE,,,,,,,CLR,,,,,,,,VFR,-0.4,,,,,,,,,,,METAR,343.0
KLGA 140251Z 04013G22KT 10SM BKN150 BKN250 M02/M10 A3031 RMK AO2 SLP264 T10171100 55000,KLGA,2019-01-14T02:51:00Z,40.78,-73.88,-1.7,-10.0,40,13,22,10.0,30.31004,1026.4,,,TRUE,,,,,,,BKN,15000,BKN,25000,,,,,VFR,0.0,,,,,,,,,,,METAR,11.0
KJFK 140251Z 03011KT 10SM BKN170 M03/M09 A3032 RMK AO2 SLP266 T10281089 55003,KJFK,2019-01-14T02:51:00Z,40.63,-73.77,-2.8,-8.9,30,11,,10.0,30.318897,1026.6,,,TRUE,,,,,,,BKN,17000,,,,,,,VFR,-0.3,,,,,,,,,,,METAR,9.0
KJCT 140251Z AUTO 07008KT 10SM OVC055 06/02 A3038 RMK AO2 SLP279 T00560017 51019,KJCT,2019-01-14T02:51:00Z,30.5,-99.77,5.6,1.7,70,8,,10.0,30.380905,1027.9,,TRUE,TRUE,,,,,,,OVC,5500,,,,,,,VFR,1.9,,,,,,,,,,,METAR,522.0
KILG 140251Z 03010KT 10SM OVC060 M01/M10 A3028 RMK AO2 SLP253 T10111100 53005 $,KILG,2019-01-14T02:51:00Z,39.67,-75.6,-1.1,-10.0,30,10,,10.0,30.280512,1025.3,,,TRUE,TRUE,,,,,,OVC,6000,,,,,,,VFR,0.5,,,,,,,,,,,METAR,28.0
KIGM 140251Z AUTO 00000KT 10SM OVC070 07/M03 A3013 RMK AO2 SLP181 T00671033 53015,KIGM,2019-01-14T02:51:00Z,35.25,-113.93,6.7,-3.3,0,0,,10.0,30.129921,1018.1,,TRUE,TRUE,,,,,,,OVC,7000,,,,,,,VFR,1.5,,,,,,,,,,,METAR,1032.0
KHTS 140251Z 35004KT 4SM BR OVC009 00/M01 A3022 RMK AO2 UPE19 CIG 006V012 SLP241 P0001 60001 I3000 T00001011 51013,KHTS,2019-01-14T02:51:00Z,38.37,-82.55,0.0,-1.1,350,4,,4.0,30.221457,1024.1,,,TRUE,,,,,,BR,OVC,900,,,,,,,IFR,1.3,,,,,0.01,0.01,,,,,METAR,254.0
KHSE 140251Z AUTO 32013G22KT 5SM -RA BR BKN007 OVC011 08/07 A2999 RMK AO2 RAB45 SLP156 P0000 60000 T00780067 53015 TSNO,KHSE,2019-01-14T02:51:00Z,35.23,-75.62,7.8,6.7,320,13,22,5.0,29.991142,1015.6,,TRUE,TRUE,,,TRUE,,,-RA BR,BKN,700,OVC,1100,,,,,IFR,1.5,,,,,0.005,,,,,,SPECI,3.0
KYNG 140251Z 02006KT 10SM FEW250 M06/M09 A3025 RMK AO2 SLP261 T10561094 53004 $,KYNG,2019-01-14T02:51:00Z,41.25,-80.67,-5.6,-9.4,20,6,,10.0,30.250984,1026.1,,,TRUE,TRUE,,,,,,FEW,25000,,,,,,,VFR,0.4,,,,,,,,,,,METAR,360.0
KVNY 140251Z VRB05KT 10SM BKN120 14/05 A3001 RMK AO2 SLP159 T01390050 56008,KVNY,2019-01-14T02:51:00Z,34.22,-118.48,13.9,5.0,0,5,,10.0,30.008858,1015.9,,,TRUE,,,,,,,BKN,12000,,,,,,,VFR,-0.8,,,,,,,,,,,METAR,245.0
KVCT 140251Z 01006KT 10SM CLR 08/05 A3037 RMK AO2 SLP285 T00780050 51020 $,KVCT,2019-01-14T02:51:00Z,28.87,-96.93,7.8,5.0,10,6,,10.0,30.369095,1028.5,,,TRUE,TRUE,,,,,,CLR,,,,,,,,VFR,2.0,,,,,,,,,,,METAR,31.0
KTEB 140251Z 03010KT 10SM CLR M03/M12 A3032 RMK AO2 SLP266 T10331122 55000 $,KTEB,2019-01-14T02:51:00Z,40.87,-74.05,-3.3,-12.2,30,10,,10.0,30.318897,1026.6,,,TRUE,TRUE,,,,,,CLR,,,,,,,,VFR,0.0,,,,,,,,,,,METAR,7.0
KSTL 140251Z 34005KT 9SM OVC016 M02/M04 A3042 RMK AO2 SNE48 SLP312 P0000 60000 T10171039 51010 $,KSTL,2019-01-14T02:51:00Z,38.75,-90.37,-1.7,-3.9,340,5,,9.0,30.41929,1031.2,,,TRUE,TRUE,,,,,,OVC,1600,,,,,,,MVFR,1.0,,,,,0.005,,,,,,SPECI,171.0
KSMX 140251Z 08005KT 10SM OVC110 13/08 A2997 RMK AO2 SLP150 T01330078 53003 $,KSMX,2019-01-14T02:51:00Z,34.9,-120.45,13.3,7.8,80,5,,10.0,29.970472,1015.0,,,TRUE,TRUE,,,,,,OVC,11000,,,,,,,VFR,0.3,,,,,,,,,,,METAR,74.0
KSMO 140251Z 00000KT 10SM CLR 16/07 A3001 RMK AO2 SLP162 T01560067 56010,KSMO,2019-01-14T02:51:00Z,34.02,-118.45,15.6,6.7,0,0,,10.0,30.008858,1016.2,,,TRUE,,,,,,,CLR,,,,,,,,VFR,-1.0,,,,,,,,,,,METAR,57.0
KSLK 140251Z AUTO A3028 RMK AO2 SLPNO 57010 PWINO FZRANO,KSLK,2019-01-14T02:51:00Z,44.4,-74.2,,,,,,,30.280512,,,TRUE,TRUE,,,,TRUE,TRUE,,,,,,,,,,,-1.0,,,,,,,,,,,METAR,498.0
KHDO 140251Z AUTO 11006KT 10SM BKN065 10/04 A3038 RMK AO2 SLP283 T01000039 53026 $,KHDO,2019-01-14T02:51:00Z,29.37,-99.17,10.0,3.9,110,6,,10.0,30.380905,1028.3,,TRUE,TRUE,TRUE,,,,,,BKN,6500,,,,,,,VFR,2.6,,,,,,,,,,,METAR,282.0
KEWR 140251Z 02011KT 10SM SCT150 BKN250 M03/M12 A3031 RMK AO2 SLP264 T10331122 53001,KEWR,2019-01-14T02:51:00Z,40.68,-74.17,-3.3,-12.2,20,11,,10.0,30.31004,1026.4,,,TRUE,,,,,,,SCT,15000,BKN,25000,,,,,VFR,0.1,,,,,,,,,,,METAR,7.0
KERI 140251Z 06007KT 10SM CLR M07/M13 A3032 RMK AO2 SLP278 T10671128 53003,KERI,2019-01-14T02:51:00Z,42.08,-80.18,-6.7,-12.8,60,7,,10.0,30.318897,1027.8,,,TRUE,,,,,,,CLR,,,,,,,,VFR,0.3,,,,,,,,,,,METAR,222.0
KELP 140251Z 01003KT 10SM FEW060 FEW250 08/00 A3019 RMK AO2 SLP204 T00830000 51023,KELP,2019-01-14T02:51:00Z,31.82,-106.38,8.3,0.0,10,3,,10.0,30.188976,1020.4,,,TRUE,,,,,,,FEW,6000,FEW,25000,,,,,VFR,2.3,,,,,,,,,,,METAR,1197.0
KEKN 140251Z AUTO 00000KT 10SM OVC031 00/M03 A3013 RMK AO2 SLP227 T00001028 53006 TSNO,KEKN,2019-01-14T02:51:00Z,38.88,-79.85,0.0,-2.8,0,0,,10.0,30.129921,1022.7,,TRUE,TRUE,,,TRUE,,,,OVC,3100,,,,,,,VFR,0.6,,,,,,,,,,,METAR,603.0
KDAW 140251Z AUTO 32006KT 10SM CLR M11/M13 A3038 RMK AO2 SLP291 T11111128 56004,KDAW,2019-01-14T02:51:00Z,43.28,-70.92,-11.1,-12.8,320,6,,10.0,30.380905,1029.1,,TRUE,TRUE,,,,,,,CLR,,,,,,,,VFR,-0.4,,,,,,,,,,,METAR,100.0
KCSG 140251Z AUTO 30004KT 10SM OVC037 10/06 A3022 RMK AO2 SLP232 T01000061 51006,KCSG,2019-01-14T02:51:00Z,32.52,-84.95,10.0,6.1,300,4,,10.0,30.221457,1023.2,,TRUE,TRUE,,,,,,,OVC,3700,,,,,,,VFR,0.6,,,,,,,,,,,SPECI,135.0
KCRP 140251Z 00000KT 10SM CLR 09/05 A3037 RMK AO2 SLP283 T00940050 53022 $,KCRP,2019-01-14T02:51:00Z,27.77,-97.5,9.4,5.0,0,0,,10.0,30.369095,1028.3,,,TRUE,TRUE,,,,,,CLR,,,,,,,,VFR,2.2,,,,,,,,,,,METAR,14.0
KCON 140251Z AUTO 33003KT 10SM CLR M11/M14 A3039 RMK AO2 SLP297 T11111144 57002,KCON,2019-01-14T02:51:00Z,43.2,-71.5,-11.1,-14.4,330,3,,10.0,30.389763,1029.7,,TRUE,TRUE,,,,,,,CLR,,,,,,,,VFR,-0.2,,,,,,,,,,,METAR,103.0
KCMH 140251Z 01009KT 9SM OVC028 M02/M05 A3026 RMK AO2 SLP256 T10171050 53010,KCMH,2019-01-14T02:51:00Z,40.0,-82.88,-1.7,-5.0,10,9,,9.0,30.259842,1025.6,,,TRUE,,,,,,,OVC,2800,,,,,,,MVFR,1.0,,,,,,,,,,,METAR,247.0
KCLE 140251Z 05007KT 10SM FEW015 SCT250 M03/M07 A3032 RMK AO2 SLP277 T10281067 53007 $,KCLE,2019-01-14T02:51:00Z,41.42,-81.85,-2.8,-6.7,50,7,,10.0,30.318897,1027.7,,,TRUE,TRUE,,,,,,FEW,1500,SCT,25000,,,,,VFR,0.7,,,,,,,,,,,METAR,233.0
KCAK 140251Z 02006KT 9SM CLR M06/M09 A3025 RMK AO2 SLP261 T10561089 53007,KCAK,2019-01-14T02:51:00Z,40.92,-81.45,-5.6,-8.9,20,6,,9.0,30.250984,1026.1,,,TRUE,,,,,,,CLR,,,,,,,,VFR,0.7,,,,,,,,,,,METAR,377.0
KBKW 140251Z AUTO 00000KT 10SM OVC008 M01/M02 A3011 RMK AO2 UPB14E28 SLP228 P0000 60000 T10111017 53009,KBKW,2019-01-14T02:51:00Z,37.8,-81.12,-1.1,-1.7,0,0,,10.0,30.109253,1022.8,,TRUE,TRUE,,,,,,,OVC,800,,,,,,,IFR,0.9,,,,,0.005,0.005,,,,,METAR,764.0
KBHK 140251Z AUTO 00000KT 10SM CLR M03/M05 A3014 RMK AO2 SLP247 T10281050 58001 $,KBHK,2019-01-14T02:51:00Z,46.35,-104.25,-2.8,-5.0,0,0,,10.0,30.138779,1024.7,,TRUE,TRUE,TRUE,,,,,,CLR,,,,,,,,VFR,-0.1,,,,,,,,,,,METAR,902.0
KBGD 140251Z AUTO 13005KT 10SM OVC080 02/M01 A3036 RMK AO2 SLP297 T00171011 51006,KBGD,2019-01-14T02:51:00Z,35.7,-101.4,1.7,-1.1,130,5,,10.0,30.360237,1029.7,,TRUE,TRUE,,,,,,,OVC,8000,,,,,,,VFR,0.6,,,,,,,,,,,METAR,927.0
KBDL 140251Z 01006KT 10SM BKN230 M09/M14 A3037 RMK AO2 SLP287 T10891139 53002,KBDL,2019-01-14T02:51:00Z,41.93,-72.68,-8.9,-13.9,10,6,,10.0,30.369095,1028.7,,,TRUE,,,,,,,BKN,23000,,,,,,,VFR,0.2,,,,,,,,,,,METAR,60.0
KBAZ 140251Z AUTO 06007KT 10SM FEW065 07/02 A3039 RMK AO2 SLP291 T00720022 51023,KBAZ,2019-01-14T02:51:00Z,29.72,-98.05,7.2,2.2,60,7,,10.0,30.389763,1029.1,,TRUE,TRUE,,,,,,,FEW,6500,,,,,,,VFR,2.3,,,,,,,,,,,METAR,195.0
KAVX 140251Z AUTO 12009KT 10SM FEW002 09/09 A3002 RMK AO2 SLP168 T00940094 55006 $,KAVX,2019-01-14T02:51:00Z,33.4,-118.42,9.4,9.4,120,9,,10.0,30.02067,1016.8,,TRUE,TRUE,TRUE,,,,,,FEW,200,,,,,,,VFR,-0.6,,,,,,,,,,,METAR,482.0
KALB 140251Z 35005KT 10SM FEW250 M11/M16 A3043 RMK AO2 SLP311 T11111161 53004,KALB,2019-01-14T02:51:00Z,42.75,-73.8,-11.1,-16.1,350,5,,10.0,30.431103,1031.1,,,TRUE,,,,,,,FEW,25000,,,,,,,VFR,0.4,,,,,,,,,,,METAR,92.0
KAHN 140251Z AUTO 28006KT 10SM OVC007 06/04 A3017 RMK AO2 SLP222 T00610044 51007,KAHN,2019-01-14T02:51:00Z,33.95,-83.33,6.1,4.4,280,6,,10.0,30.171259,1022.2,,TRUE,TRUE,,,,,,,OVC,700,,,,,,,IFR,0.7,,,,,,,,,,,SPECI,244.0
KABE 140251Z 06009KT 10SM CLR M03/M13 A3030 RMK AO2 SLP265 T10331133 51007,KABE,2019-01-14T02:51:00Z,40.65,-75.45,-3.3,-13.3,60,9,,10.0,30.301182,1026.5,,,TRUE,,,,,,,CLR,,,,,,,,VFR,0.7,,,,,,,,,,,METAR,114.0
KP58 140251Z AUTO 07006KT M03/M07 A3037 RMK AO1 SLP298 T10331072 56007,KP58,2019-01-14T02:51:00Z,44.02,-82.8,-3.3,-7.2,70,6,,,30.369095,1029.8,,TRUE,TRUE,,,,,,,,,,,,,,,,-0.7,,,,,,,,,,,METAR,179.0
KATT 140251Z AUTO VRB03KT 10SM BKN065 07/01 A3042 RMK AO2 SLP306 T00720011 53020 $,KATT,2019-01-14T02:51:00Z,30.32,-97.77,7.2,1.1,0,3,,10.0,30.41929,1030.6,,TRUE,TRUE,TRUE,,,,,,BKN,6500,,,,,,,VFR,2.0,,,,,,,,,,,METAR,201.0
KNYC 140251Z AUTO 10SM CLR M02/M13 A3032 RMK AO2 SLP262 T10221128 55000 $,KNYC,2019-01-14T02:51:00Z,40.78,-73.97,-2.2,-12.8,,,,10.0,30.318897,1026.2,,TRUE,TRUE,TRUE,,,,,,CLR,,,,,,,,VFR,0.0,,,,,,,,,,,METAR,11.0
KSNT 140251Z AUTO 00000KT M15/M18 A3027 RMK AO1 SLP354 T11501183 51009 $,KSNT,2019-01-14T02:51:00Z,44.17,-114.93,-15.0,-18.3,0,0,,,30.268702,1035.4,,TRUE,TRUE,TRUE,,,,,,,,,,,,,,,0.9,,,,,,,,,,,METAR,1980.0
KBVE 140251Z AUTO 35007G16KT 10SM OVC020 08/04 A3033 RMK AO2 SLP270 T00830039 51014,KBVE,2019-01-14T02:51:00Z,29.32,-89.4,8.3,3.9,350,7,16,10.0,30.33071,1027.0,,TRUE,TRUE,,,,,,,OVC,2000,,,,,,,MVFR,1.4,,,,,,,,,,,METAR,1.0
KTPL 140251Z AUTO 01007KT 10SM CLR 03/01 A3042 RMK AO2 SLP321 T00280006 51014,KTPL,2019-01-14T02:51:00Z,31.13,-97.4,2.8,0.6,10,7,,10.0,30.41929,1032.1,,TRUE,TRUE,,,,,,,CLR,,,,,,,,VFR,1.4,,,,,,,,,,,METAR,208.0
KOXC 140251Z AUTO 04004KT 10SM CLR M07/M13 A3030 RMK AO2 SLP287 T10721133 50000 FZRANO,KOXC,2019-01-14T02:51:00Z,41.47,-73.13,-7.2,-13.3,40,4,,10.0,30.301182,1028.7,,TRUE,TRUE,,,,TRUE,,,CLR,,,,,,,,VFR,0.0,,,,,,,,,,,METAR,222.0
KCWA 140251Z 18004KT 10SM SCT100 M08/M09 A3033,KCWA,2019-01-14T02:51:00Z,44.78,-89.67,-8.0,-9.0,180,4,,10.0,30.33071,,,,,,,,,,,SCT,10000,,,,,,,VFR,,,,,,,,,,,,METAR,389.0
OITL 140251Z 18010KT 9999 FEW035 FEW040CB 03/M03 Q1006,OITL,2019-01-14T02:51:00Z,38.33,48.42,3.0,-3.0,180,10,,6.21,29.704725,,,,,,,,,,,FEW,3500,FEW,4000,,,,,VFR,,,,,,,,,,,,METAR,1316.0
MUCU 140251Z 01003KT 9000 FEW020 SCT060 23/20 Q1019,MUCU,2019-01-14T02:51:00Z,19.97,-75.83,23.0,20.0,10,3,,5.59,30.088583,,,,,,,,,,,FEW,2000,SCT,6000,,,,,VFR,,,,,,,,,,,,SPECI,76.0
MMMX 140251Z 06006KT 7SM -RA BKN020CB OVC080 13/08 A3041 NOSIG RMK SLP173 52022 907 60105 8/36/ HZY INTMNT RA,MMMX,2019-01-14T02:51:00Z,19.42,-99.08,13.0,8.0,60,6,,7.0,30.410433,1017.3,,,,,TRUE,,,,-RA,BKN,2000,OVC,8000,,,,,MVFR,2.2,,,,,,1.05,,,,,METAR,2238.0
KTGI 140251Z AUTO 35021G28KT 4SM OVC005 00/M01 A3017 RMK AO1 P0001,KTGI,2019-01-14T02:51:00Z,37.82,-75.98,0.0,-1.0,350,21,28,4.0,30.171259,,,TRUE,TRUE,,,,,,,OVC,500,,,,,,,IFR,,,,,,0.01,,,,,,METAR,2.0
EGVN 140250Z 27004KT 9999 BKN038 08/03 Q1017 NOSIG,EGVN,2019-01-14T02:50:00Z,51.77,-1.58,8.0,3.0,270,4,,6.21,30.029528,,,,,,TRUE,,,,,BKN,3800,,,,,,,VFR,,,,,,,,,,,,METAR,88.0
ENFB 140250Z AUTO 32045KT 9999NDV FEW027/// SCT034/// BKN056/// 00/M08 Q1002 W///S7,ENFB,2019-01-14T02:50:00Z,61.2,1.83,0.0,-8.0,320,45,,,29.586615,,,TRUE,,,,,,,,FEW,2700,SCT,3400,BKN,5600,,,,,,,,,,,,,,,METAR,10.0
ENSL 140250Z AUTO 32049KT 9999NDV SCT027/// 03/M04 Q1006 W05/S6,ENSL,2019-01-14T02:50:00Z,58.37,1.9,3.0,-4.0,320,49,,,29.704725,,,TRUE,,,,,,,,SCT,2700,,,,,,,,,,,,,,,,,,,METAR,50.0
ENHE 140250Z 36057KT 9999 BKN035 04/// Q0979 W///S7,ENHE,2019-01-14T02:50:00Z,65.33,2.33,,,360,57,,6.21,28.90748,,,,,,,,,,,BKN,3500,,,,,,,VFR,,,,,,,,,,,,SPECI,1.0
ENGC 140250Z 34045G55KT 9000 VCSH SCT010 BKN030 M02/M06 Q1001 W05/S7,ENGC,2019-01-14T02:50:00Z,61.02,2.02,-2.0,-6.0,340,45,55,5.59,29.557087,,,,,,,,,,VCSH,SCT,1000,BKN,3000,,,,,MVFR,,,,,,,,,,,,METAR,10.0
ENLE 140250Z 32035G47KT 9999 VCSH FEW020CB BKN040 04/M03 Q1005 W08/S6,ENLE,2019-01-14T02:50:00Z,56.53,3.22,4.0,-3.0,320,35,47,6.21,29.675198,,,,,,,,,,VCSH,FEW,2000,BKN,4000,,,,,VFR,,,,,,,,,,,,METAR,3.0
EGNS 140250Z 28010KT 240V340 9999 FEW020 08/04 Q1018,EGNS,2019-01-14T02:50:00Z,54.08,-4.63,8.0,4.0,280,10,,6.21,30.059055,,,,,,,,,,,FEW,2000,,,,,,,VFR,,,,,,,,,,,,METAR,17.0
OAKB 140250Z 33005KT CAVOK M07/M13 Q1026 NOSIG RMK A3031 BLU BLU,OAKB,2019-01-14T02:50:00Z,34.55,69.22,-7.0,-13.0,330,5,,6.21,30.295275,,,,,,TRUE,,,,,CAVOK,,,,,,,,VFR,,,,,,,,,,,,SPECI,1791.0
KHSA 140250Z 35008G14KT 7SM OVC020 07/03 A3035,KHSA,2019-01-14T02:50:00Z,30.37,-89.45,7.0,3.0,350,8,14,7.0,30.351377,,,,,,,,,,,OVC,2000,,,,,,,MVFR,,,,,,,,,,,,METAR,7.0
ENQA 140250Z AUTO 33048KT 9999NDV BKN037/// 00/M07 Q0998 W03/S7,ENQA,2019-01-14T02:50:00Z,60.65,3.72,0.0,-7.0,330,48,,,29.468504,,,TRUE,,,,,,,,BKN,3700,,,,,,,,,,,,,,,,,,,METAR,20.0
ENQC 140250Z AUTO 31044G55KT 9999NDV FEW016/// BKN037/// 01/M07 Q0998 W///S7,ENQC,2019-01-14T02:50:00Z,60.88,3.62,1.0,-7.0,310,44,55,,29.468504,,,TRUE,,,,,,,,FEW,1600,BKN,3700,,,,,,,,,,,,,,,,,METAR,20.0
ENHM 140250Z AUTO 35043G53KT 9999NDV -RA FEW039/// BKN052/// BKN072/// 00/M03 Q1004 REFZDZ W07/S7,ENHM,2019-01-14T02:50:00Z,59.57,2.23,0.0,-3.0,350,43,53,,29.64567,,,TRUE,,,,,,,-RA,FEW,3900,BKN,5200,BKN,7200,,,,,,,,,,,,,,,METAR,10.0
EDHI 140250Z AUTO 31014KT 280V340 9999 // FEW035/// 04/M01 Q0999,EDHI,2019-01-14T02:50:00Z,53.53,9.83,4.0,-1.0,310,14,,6.21,29.498032,,,TRUE,,,,,,,,FEW,3500,,,,,,,VFR,,,,,,,,,,,,METAR,13.0
EDSB 140250Z AUTO 23006KT 200V270 9999 FEW030/// BKN035/// BKN041/// 07/04 Q1008,EDSB,2019-01-14T02:50:00Z,48.78,8.08,7.0,4.0,230,6,,6.21,29.763779,,,TRUE,,,,,,,,FEW,3000,BKN,3500,BKN,4100,,,VFR,,,,,,,,,,,,METAR,124.0
EDNY 140250Z AUTO 30008G19KT 250V340 9999 // FEW016/// BKN029/// OVC034/// 05/03 Q1007,EDNY,2019-01-14T02:50:00Z,47.67,9.52,5.0,3.0,300,8,19,6.21,29.734253,,,TRUE,,,,,,,,FEW,1600,BKN,2900,OVC,3400,,,MVFR,,,,,,,,,,,,METAR,424.0
EDMA 140250Z AUTO 28011KT 9999 // FEW027/// BKN033/// 04/01 Q1003,EDMA,2019-01-14T02:50:00Z,48.42,10.92,4.0,1.0,280,11,,6.21,29.616142,,,TRUE,,,,,,,,FEW,2700,BKN,3300,,,,,VFR,,,,,,,,,,,,SPECI,463.0
EDLW 140250Z AUTO 30008KT 230V340 9999 // BKN011/// 05/04 Q1005,EDLW,2019-01-14T02:50:00Z,51.52,7.62,5.0,4.0,300,8,,6.21,29.675198,,,TRUE,,,,,,,,BKN,1100,,,,,,,MVFR,,,,,,,,,,,,METAR,127.0
EDLP 140250Z 29009KT 260V320 9999 BKN015 05/04 Q1003,EDLP,2019-01-14T02:50:00Z,51.62,8.62,5.0,4.0,290,9,,6.21,29.616142,,,,,,,,,,,BKN,1500,,,,,,,MVFR,,,,,,,,,,,,METAR,213.0
EDAC 140250Z AUTO 29016G26KT 9999 // FEW024/// BKN030/// BKN039/// 05/01 Q0997,EDAC,2019-01-14T02:50:00Z,50.98,12.5,5.0,1.0,290,16,26,6.21,29.438976,,,TRUE,,,,,,,,FEW,2400,BKN,3000,BKN,3900,,,MVFR,,,,,,,,,,,,SPECI,195.0
ENUN 140250Z AUTO 01052G64KT 9999NDV -SHRA SCT024/// BKN071/// BKN100/// 02/M03 Q0980 W07/S/,ENUN,2019-01-14T02:50:00Z,,,2.0,-3.0,10,52,64,,28.937008,,,TRUE,,,,,,,-SHRA,SCT,2400,BKN,7100,BKN,10000,,,,,,,,,,,,,,,METAR,
ENSF 140250Z AUTO 33050G60KT //// SCT030/// 00/M08 Q1001 W///S7,ENSF,2019-01-14T02:50:00Z,61.25,1.85,0.0,-8.0,330,50,60,,29.557087,,,TRUE,,,,,,,,SCT,3000,,,,,,,,,,,,,,,,,,,METAR,10.0
LGKO 140250Z 20003KT 9999 FEW018TCU SCT025 09/05 Q1005,LGKO,2019-01-14T02:50:00Z,36.8,27.08,9.0,5.0,200,3,,6.21,29.675198,,,,,,,,,,,FEW,1800,SCT,2500,,,,,VFR,,,,,,,,,,,,METAR,125.0
LGEL 140250Z 00000KT 9999 SCT025 BKN070 06/05 Q1004,LGEL,2019-01-14T02:50:00Z,38.07,23.55,6.0,5.0,0,0,,6.21,29.64567,,,,,,,,,,,SCT,2500,BKN,7000,,,,,VFR,,,,,,,,,,,,METAR,31.0
KEFD 140250Z 02007KT 10SM CLR 10/03 A3039,KEFD,2019-01-14T02:50:00Z,29.6,-95.17,10.0,3.0,20,7,,10.0,30.389763,,,,,,,,,,,CLR,,,,,,,,VFR,,,,,,,,,,,,METAR,10.0
EGOS 140250Z AUTO 29015KT 9999 FEW034/// SCT040/// BKN048/// 08/03 Q1017,EGOS,2019-01-14T02:50:00Z,52.8,-2.67,8.0,3.0,290,15,,6.21,30.029528,,,TRUE,,,,,,,,FEW,3400,SCT,4000,BKN,4800,,,VFR,,,,,,,,,,,,SPECI,76.0
EGOV 140250Z AUTO 29013KT 9999 FEW031/// BKN038/// 08/04 Q1020 RERA,EGOV,2019-01-14T02:50:00Z,53.25,-4.53,8.0,4.0,290,13,,6.21,30.11811,,,TRUE,,,,,,,,FEW,3100,BKN,3800,,,,,VFR,,,,,,,,,,,,SPECI,11.0
EGOM 140250Z AUTO 28012KT 9999 BKN170/// 02/02 Q1013,EGOM,2019-01-14T02:50:00Z,55.05,-2.55,2.0,2.0,280,12,,6.21,29.911417,,,TRUE,,,,,,,,BKN,17000,,,,,,,VFR,,,,,,,,,,,,SPECI,325.0
EGOP 140250Z AUTO 33014KT 9999 // SCT039/// 08/03 Q1021,EGOP,2019-01-14T02:50:00Z,51.72,-4.32,8.0,3.0,330,14,,6.21,30.147638,,,TRUE,,,,,,,,SCT,3900,,,,,,,VFR,,,,,,,,,,,,METAR,6.0
EGUW 140250Z AUTO 30013KT 9999 NCD 05/03 Q1013,EGUW,2019-01-14T02:50:00Z,52.12,0.97,5.0,3.0,300,13,,6.21,29.911417,,,TRUE,,,,,,,,CLR,,,,,,,,VFR,,,,,,,,,,,,SPECI,87.0
EGVO 140250Z AUTO 31009KT 9999 NCD 07/02 Q1016,EGVO,2019-01-14T02:50:00Z,51.23,-0.95,7.0,2.0,310,9,,6.21,30.0,,,TRUE,,,,,,,,CLR,,,,,,,,VFR,,,,,,,,,,,,SPECI,123.0
EGVP 140250Z AUTO 27008KT 9999 // NCD 06/02 Q1018,EGVP,2019-01-14T02:50:00Z,51.13,-1.57,6.0,2.0,270,8,,6.21,30.059055,,,TRUE,,,,,,,,CLR,,,,,,,,VFR,,,,,,,,,,,,METAR,91.0
EGWU 140250Z AUTO 32014KT 9999 // SCT035/// 08/02 Q1016,EGWU,2019-01-14T02:50:00Z,51.55,-0.42,8.0,2.0,320,14,,6.21,30.0,,,TRUE,,,,,,,,SCT,3500,,,,,,,VFR,,,,,,,,,,,,METAR,40.0
EGXE 140250Z AUTO 29014KT 9999 NCD 06/02 Q1014,EGXE,2019-01-14T02:50:00Z,54.28,-1.52,6.0,2.0,290,14,,6.21,29.940945,,,TRUE,,,,,,,,CLR,,,,,,,,VFR,,,,,,,,,,,,SPECI,40.0
EGXU 140250Z AUTO 29009KT 9999 // NCD 06/02 Q1014,EGXU,2019-01-14T02:50:00Z,54.05,-1.25,6.0,2.0,290,9,,6.21,29.940945,,,TRUE,,,,,,,,CLR,,,,,,,,VFR,,,,,,,,,,,,METAR,16.0
EGXT 140250Z AUTO 28012KT 9999 NCD 06/03 Q1014,EGXT,2019-01-14T02:50:00Z,52.62,-0.47,6.0,3.0,280,12,,6.21,29.940945,,,TRUE,,,,,,,,CLR,,,,,,,,VFR,,,,,,,,,,,,SPECI,84.0
EGXW 140250Z AUTO 30010KT 9999 NCD 06/03 Q1013,EGXW,2019-01-14T02:50:00Z,53.18,-0.52,6.0,3.0,300,10,,6.21,29.911417,,,TRUE,,,,,,,,CLR,,,,,,,,VFR,,,,,,,,,,,,SPECI,70.0
EGXZ 140250Z AUTO 31015KT 9999 NCD 07/02 Q1014,EGXZ,2019-01-14T02:50:00Z,54.2,-1.38,7.0,2.0,310,15,,6.21,29.940945,,,TRUE,,,,,,,,CLR,,,,,,,,VFR,,,,,,,,,,,,SPECI,28.0
EGYD 140250Z AUTO 29013KT 9999 // NCD 06/03 Q1014,EGYD,2019-01-14T02:50:00Z,53.03,-0.5,6.0,3.0,290,13,,6.21,29.940945,,,TRUE,,,,,,,,CLR,,,,,,,,VFR,,,,,,,,,,,,METAR,67.0
LOWK 140250Z AUTO 32008KT 9999 FEW046 BKN080 01/00 Q0997,LOWK,2019-01-14T02:50:00Z,46.65,14.32,1.0,0.0,320,8,,6.21,29.438976,,,TRUE,,,,,,,,FEW,4600,BKN,8000,,,,,VFR,,,,,,,,,,,,METAR,441.0
LOWG 140250Z AUTO VRB03KT 9999 -SHSN FEW026 BKN050 M01/M02 Q0996,LOWG,2019-01-14T02:50:00Z,47.0,15.42,-1.0,-2.0,0,3,,6.21,29.409449,,,TRUE,,,,,,,-SHSN,FEW,2600,BKN,5000,,,,,VFR,,,,,,,,,,,,METAR,347.0
LOWI 140250Z AUTO 13004KT 040V170 9999 -RA FEW009 BKN036 03/02 Q1000,LOWI,2019-01-14T02:50:00Z,47.27,11.33,3.0,2.0,130,4,,6.21,29.52756,,,TRUE,,,,,,,-RA,FEW,900,BKN,3600,,,,,VFR,,,,,,,,,,,,METAR,581.0
LOWS 140250Z AUTO 29010KT 260V320 9999 FEW016 SCT040 BKN044 04/02 Q1001,LOWS,2019-01-14T02:50:00Z,47.78,13.02,4.0,2.0,290,10,,6.21,29.557087,,,TRUE,,,,,,,,FEW,1600,SCT,4000,BKN,4400,,,VFR,,,,,,,,,,,,METAR,430.0
LOWL 140250Z AUTO 29015KT 9999 FEW020 BKN022 04/02 Q0998,LOWL,2019-01-14T02:50:00Z,48.22,14.18,4.0,2.0,290,15,,6.21,29.468504,,,TRUE,,,,,,,,FEW,2000,BKN,2200,,,,,MVFR,,,,,,,,,,,,METAR,313.0
LOWW 140250Z 29021G38KT CAVOK 06/01 Q0994 NOSIG,LOWW,2019-01-14T02:50:00Z,48.12,16.57,6.0,1.0,290,21,38,6.21,29.350393,,,,,,TRUE,,,,,CAVOK,,,,,,,,VFR,,,,,,,,,,,,METAR,190.0
OAMS 140250Z 23007KT 8000 FEW180 BKN230 03/M02 Q1018 BLU+BLU+ TEMPO YLO,OAMS,2019-01-14T02:50:00Z,36.7,67.2,3.0,-2.0,230,7,,4.97,30.059055,,,,,,,,,,,FEW,18000,BKN,23000,,,,,MVFR,,,,,,,,,,,,METAR,378.0
ESNZ 140250Z AUTO 29010KT 9999 FEW015/// M05/M07 Q0975 RESG REFZUP,ESNZ,2019-01-14T02:50:00Z,63.17,14.5,-5.0,-7.0,290,10,,6.21,28.78937,,,TRUE,,,,,,,UP,FEW,1500,,,,,,,VFR,,,,,,,,,,,,METAR,370.0
ESNU 140250Z AUTO 30011KT 9999 OVC022/// M05/M07 Q0968 R14/71//32,ESNU,2019-01-14T02:50:00Z,63.78,20.27,-5.0,-7.0,300,11,,6.21,28.582678,,,TRUE,,,,,,,,OVC,2200,,,,,,,MVFR,,,,,,,,,,,,METAR,14.0
ESNS 140250Z AUTO 25003KT 2300 -SN FEW007/// SCT018/// BKN029/// M05/M06 Q0967,ESNS,2019-01-14T02:50:00Z,64.62,21.07,-5.0,-6.0,250,3,,1.43,28.55315,,,TRUE,,,,,,,-SN,FEW,700,SCT,1800,BKN,2900,,,IFR,,,,,,,,,,,,METAR,49.0
ESNQ 140250Z AUTO 01002KT 9000 -SN FEW007/// BKN014/// OVC026/// M13/M15 Q0974,ESNQ,2019-01-14T02:50:00Z,67.82,20.32,-13.0,-15.0,10,2,,5.59,28.759842,,,TRUE,,,,,,,-SN,FEW,700,BKN,1400,OVC,2600,,,MVFR,,,,,,,,,,,,METAR,452.0
ESNO 140250Z AUTO 30013KT 9999 NCD M07/M12 Q0970,ESNO,2019-01-14T02:50:00Z,63.38,18.97,-7.0,-12.0,300,13,,6.21,28.641733,,,TRUE,,,,,,,,CLR,,,,,,,,VFR,,,,,,,,,,,,METAR,103.0
ESNN 140250Z AUTO 30007KT 9999 NCD M04/M10 Q0976,ESNN,2019-01-14T02:50:00Z,62.52,17.43,-4.0,-10.0,300,7,,6.21,28.818897,,,TRUE,,,,,,,,CLR,,,,,,,,VFR,,,,,,,,,,,,METAR,10.0
ESNK 140250Z AUTO 33010KT 300V360 9999 NCD M05/M11 Q0974,ESNK,2019-01-14T02:50:00Z,63.03,17.77,-5.0,-11.0,330,10,,6.21,28.759842,,,TRUE,,,,,,,,CLR,,,,,,,,VFR,,,,,,,,,,,,METAR,19.0
ESNG 140250Z AUTO 33003KT 9999 FEW006/// M10/M12 Q0974,ESNG,2019-01-14T02:50:00Z,67.13,20.82,-10.0,-12.0,330,3,,6.21,28.759842,,,TRUE,,,,,,,,FEW,600,,,,,,,VFR,,,,,,,,,,,,METAR,310.0
ESCM 140250Z AUTO 32015KT 9999 NCD M05/M09 Q0978,ESCM,2019-01-14T02:50:00Z,59.87,17.6,-5.0,-9.0,320,15,,6.21,28.877953,,,TRUE,,,,,,,,CLR,,,,,,,,VFR,,,,,,,,,,,,METAR,41.0
ESIA 140250Z AUTO 30010KT 9999 SCT120/// M02/M09 Q0983,ESIA,2019-01-14T02:50:00Z,58.52,14.5,-2.0,-9.0,300,10,,6.21,29.02559,,,TRUE,,,,,,,,SCT,12000,,,,,,,VFR,,,,,,,,,,,,METAR,94.0
ESSL 140250Z AUTO 30013KT 9999 NCD M04/M08 Q0982,ESSL,2019-01-14T02:50:00Z,58.38,15.67,-4.0,-8.0,300,13,,6.21,28.996063,,,TRUE,,,,,,,,CLR,,,,,,,,VFR,,,,,,,,,,,,METAR,52.0
ESPE 140250Z AUTO 36008KT 1900 -SN VV017 M07/M08 Q0972,ESPE,2019-01-14T02:50:00Z,65.88,20.15,-7.0,-8.0,360,8,,1.18,28.700787,,,TRUE,,,,,,,-SN,OVX,0,,,,,,,LIFR,,,,,,,,,,,1700,METAR,182.0
ESPA 140250Z AUTO 05007KT 0900 0800// R14/1900N R32/1900N UP VV012 M05/M06 Q0971,ESPA,2019-01-14T02:50:00Z,65.53,22.12,-5.0,-6.0,50,7,,0.56,28.671259,,,TRUE,,,,,,,UP,OVX,0,,,,,,,LIFR,,,,,,,,,,,1200,METAR,34.0
ESIB 140250Z AUTO 31015KT 9999 SCT130/// M01/M08 Q0986,ESIB,2019-01-14T02:50:00Z,58.42,12.68,-1.0,-8.0,310,15,,6.21,29.114174,,,TRUE,,,,,,,,SCT,13000,,,,,,,VFR,,,,,,,,,,,,METAR,74.0
ESDF 140250Z AUTO 34011KT 310V010 9999 NCD M01/M05 Q0983,ESDF,2019-01-14T02:50:00Z,56.27,15.27,-1.0,-5.0,340,11,,6.21,29.02559,,,TRUE,,,,,,,,CLR,,,,,,,,VFR,,,,,,,,,,,,METAR,74.0
ESCF 140250Z AUTO 29013KT 9999 NCD M04/M08 Q0982,ESCF,2019-01-14T02:50:00Z,58.38,15.52,-4.0,-8.0,290,13,,6.21,28.996063,,,TRUE,,,,,,,,CLR,,,,,,,,VFR,,,,,,,,,,,,METAR,117.0
ETNG 140250Z 28012KT 9999 SCT025 BKN045 06/04 Q1008,ETNG,2019-01-14T02:50:00Z,50.97,6.03,6.0,4.0,280,12,,6.21,29.763779,,,,,,,,,,,SCT,2500,BKN,4500,,,,,VFR,,,,,,,,,,,,METAR,98.0
ESND 140250Z AUTO 28006KT 240V300 9999 NCD M09/M11 Q0979,ESND,2019-01-14T02:50:00Z,62.05,14.42,-9.0,-11.0,280,6,,6.21,28.90748,,,TRUE,,,,,,,,CLR,,,,,,,,VFR,,,,,,,,,,,,METAR,359.0
ESUP 140250Z AUTO 05004KT //// R11///// -SN FEW006/// SCT014/// BKN019/// M13/M15 Q0976,ESUP,2019-01-14T02:50:00Z,67.25,23.07,-13.0,-15.0,50,4,,,28.818897,,,TRUE,,,,,,,-SN,FEW,600,SCT,1400,BKN,1900,,,,,,,,,,,,,,,METAR,165.0
ESST 140250Z AUTO 29006KT 9999 FEW130/// M07/M10 Q0984,ESST,2019-01-14T02:50:00Z,60.15,12.98,-7.0,-10.0,290,6,,6.21,29.055119,,,TRUE,,,,,,,,FEW,13000,,,,,,,VFR,,,,,,,,,,,,METAR,120.0
ESNV 140250Z AUTO 29006KT 9999 NCD M12/M13 Q0973,ESNV,2019-01-14T02:50:00Z,64.58,16.83,-12.0,-13.0,290,6,,6.21,28.730314,,,TRUE,,,,,,,,CLR,,,,,,,,VFR,,,,,,,,,,,,METAR,348.0
ESKM 140250Z AUTO 31012KT 9999 NCD M04/M11 Q0980,ESKM,2019-01-14T02:50:00Z,60.97,14.52,-4.0,-11.0,310,12,,6.21,28.937008,,,TRUE,,,,,,,,CLR,,,,,,,,VFR,,,,,,,,,,,,METAR,193.0
ESGR 140250Z AUTO 32010KT 9999 SCT084/// BKN110/// M01/M08 Q0984,ESGR,2019-01-14T02:50:00Z,58.45,13.97,-1.0,-8.0,320,10,,6.21,29.055119,,,TRUE,,,,,,,,SCT,8400,BKN,11000,,,,,VFR,,,,,,,,,,,,METAR,105.0
PTKK 140250Z VRB03KT 14SM FEW012 OVC100 26/23 A2965 RMK RAE38 SLP040 60015 8/12/ T02640232 57027,PTKK,2019-01-14T02:50:00Z,7.47,151.85,26.4,23.2,0,3,,14.0,29.648623,1004.0,,,,,,,,,,FEW,1200,OVC,10000,,,,,VFR,-2.7,,,,,,,,,,,SPECI,2.0
EGMD 140250Z AUTO 32014KT 9999 SCT036/// 08/03 Q1015,EGMD,2019-01-14T02:50:00Z,50.95,0.92,8.0,3.0,320,14,,6.21,29.970472,,,TRUE,,,,,,,,SCT,3600,,,,,,,VFR,,,,,,,,,,,,METAR,3.0
EGMC 140250Z 29014KT 9999 FEW045 07/02 Q1014,EGMC,2019-01-14T02:50:00Z,51.57,0.7,7.0,2.0,290,14,,6.21,29.940945,,,,,,,,,,,FEW,4500,,,,,,,VFR,,,,,,,,,,,,METAR,15.0
EGSH 140250Z AUTO 29010KT 9999 NCD 06/03 Q1012,EGSH,2019-01-14T02:50:00Z,52.68,1.28,6.0,3.0,290,10,,6.21,29.88189,,,TRUE,,,,,,,,CLR,,,,,,,,VFR,,,,,,,,,,,,METAR,36.0
EGCN 140250Z 30015KT CAVOK 08/04 Q1015,EGCN,2019-01-14T02:50:00Z,53.48,-1.0,8.0,4.0,300,15,,6.21,29.970472,,,,,,,,,,,CAVOK,,,,,,,,VFR,,,,,,,,,,,,METAR,17.0
EGCK 140250Z AUTO 32014KT 9999 BKN021/// OVC041/// 08/05 Q1020,EGCK,2019-01-14T02:50:00Z,53.1,4.33,8.0,5.0,320,14,,6.21,30.11811,,,TRUE,,,,,,,,BKN,2100,OVC,4100,,,,,MVFR,,,,,,,,,,,,METAR,0.0
EGPO 140250Z AUTO 03005KT 9999 FEW021/// 03/01 Q1016,EGPO,2019-01-14T02:50:00Z,58.22,-6.32,3.0,1.0,30,5,,6.21,30.0,,,TRUE,,,,,,,,FEW,2100,,,,,,,VFR,,,,,,,,,,,,METAR,13.0
EGPM 140250Z AUTO 32024G37KT 9999 -RA FEW003/// BKN034/// OVC048/// 01/M05 Q1010,EGPM,2019-01-14T02:50:00Z,60.42,-1.3,1.0,-5.0,320,24,37,6.21,29.822834,,,TRUE,,,,,,,-RA,FEW,300,BKN,3400,OVC,4800,,,VFR,,,,,,,,,,,,METAR,22.0
EGPL 140250Z AUTO 00000KT 9999 BKN033/// BKN040/// 04/03 Q1016,EGPL,2019-01-14T02:50:00Z,57.47,-7.37,4.0,3.0,0,0,,6.21,30.0,,,TRUE,,,,,,,,BKN,3300,BKN,4000,,,,,VFR,,,,,,,,,,,,METAR,6.0
EGPC 140250Z AUTO 34014KT 9999 -RA SCT008/// SCT017/// 01/00 Q1014,EGPC,2019-01-14T02:50:00Z,58.45,-3.07,1.0,0.0,340,14,,6.21,29.940945,,,TRUE,,,,,,,-RA,SCT,800,SCT,1700,,,,,VFR,,,,,,,,,,,,METAR,39.0
EGPA 140250Z AUTO 33019KT 9999 FEW037/// SCT043/// ///// Q1013,EGPA,2019-01-14T02:50:00Z,58.95,-2.88,,,330,19,,6.21,29.911417,,,TRUE,,,,,,,,FEW,3700,SCT,4300,,,,,VFR,,,,,,,,,,,,METAR,21.0
EGPE 140250Z AUTO 15001KT 9999 SCT046/// 02/00 Q1016,EGPE,2019-01-14T02:50:00Z,57.52,-4.03,2.0,0.0,150,1,,6.21,30.0,,,TRUE,,,,,,,,SCT,4600,,,,,,,VFR,,,,,,,,,,,,METAR,9.0
EGNJ 140250Z AUTO 29012KT 9999 NCD 07/04 Q1013,EGNJ,2019-01-14T02:50:00Z,53.57,-0.35,7.0,4.0,290,12,,6.21,29.911417,,,TRUE,,,,,,,,CLR,,,,,,,,VFR,,,,,,,,,,,,METAR,31.0
EGLL 140250Z AUTO 31010KT 9999 NCD 08/02 Q1016 NOSIG,EGLL,2019-01-14T02:50:00Z,51.48,-0.45,8.0,2.0,310,10,,6.21,30.0,,,TRUE,,,TRUE,,,,,CLR,,,,,,,,VFR,,,,,,,,,,,,METAR,24.0
EGCC 140250Z AUTO 30012KT 9999 BKN016 07/04 Q1016 NOSIG,EGCC,2019-01-14T02:50:00Z,53.35,-2.27,7.0,4.0,300,12,,6.21,30.0,,,TRUE,,,TRUE,,,,,BKN,1600,,,,,,,MVFR,,,,,,,,,,,,METAR,78.0
EGPD 140250Z AUTO 30011KT 9999 OVC045 02/01 Q1014 TEMPO SHRASN,EGPD,2019-01-14T02:50:00Z,57.2,-2.22,2.0,1.0,300,11,,6.21,29.940945,,,TRUE,,,,,,,,OVC,4500,,,,,,,VFR,,,,,,,,,,,,METAR,65.0
EGSS 140250Z AUTO 29010G20KT 9999 NCD 06/03 Q1015,EGSS,2019-01-14T02:50:00Z,51.88,0.22,6.0,3.0,290,10,20,6.21,29.970472,,,TRUE,,,,,,,,CLR,,,,,,,,VFR,,,,,,,,,,,,METAR,106.0
EGPH 140250Z 03008KT 9999 -RA BKN034 05/03 Q1014,EGPH,2019-01-14T02:50:00Z,55.95,-3.35,5.0,3.0,30,8,,6.21,29.940945,,,,,,,,,,-RA,BKN,3400,,,,,,,VFR,,,,,,,,,,,,METAR,41.0
EGPF 140250Z AUTO 26008KT 9999 BKN029 OVC039 07/03 Q1015,EGPF,2019-01-14T02:50:00Z,55.87,-4.42,7.0,3.0,260,8,,6.21,29.970472,,,TRUE,,,,,,,,BKN,2900,OVC,3900,,,,,MVFR,,,,,,,,,,,,METAR,8.0
EGKK 140250Z 31008KT 9999 SCT038 08/02 Q1016,EGKK,2019-01-14T02:50:00Z,51.13,-0.17,8.0,2.0,310,8,,6.21,30.0,,,,,,,,,,,SCT,3800,,,,,,,VFR,,,,,,,,,,,,METAR,62.0
EGBB 140250Z 31014KT 9999 BKN025 08/03 Q1017,EGBB,2019-01-14T02:50:00Z,52.47,-1.75,8.0,3.0,310,14,,6.21,30.029528,,,,,,,,,,,BKN,2500,,,,,,,MVFR,,,,,,,,,,,,METAR,99.0
EGNX 140250Z 30017KT 9999 FEW026 06/04 Q1015,EGNX,2019-01-14T02:50:00Z,52.82,-1.32,6.0,4.0,300,17,,6.21,29.970472,,,,,,,,,,,FEW,2600,,,,,,,VFR,,,,,,,,,,,,METAR,94.0
EGNM 140250Z 28017KT CAVOK 05/03 Q1014,EGNM,2019-01-14T02:50:00Z,53.87,-1.63,5.0,3.0,280,17,,6.21,29.940945,,,,,,,,,,,CAVOK,,,,,,,,VFR,,,,,,,,,,,,METAR,208.0
EGLC 140250Z AUTO 29012KT 9999 BKN033 09/03 Q1016,EGLC,2019-01-14T02:50:00Z,51.5,0.05,9.0,3.0,290,12,,6.21,30.0,,,TRUE,,,,,,,,BKN,3300,,,,,,,VFR,,,,,,,,,,,,METAR,5.0
EGGW 140250Z AUTO 30015KT 9999 BKN025 07/03 Q1015,EGGW,2019-01-14T02:50:00Z,51.87,-0.37,7.0,3.0,300,15,,6.21,29.970472,,,TRUE,,,,,,,,BKN,2500,,,,,,,MVFR,,,,,,,,,,,,METAR,160.0
EGFF 140250Z AUTO 30010KT 9999 OVC036 08/03 Q1020,EGFF,2019-01-14T02:50:00Z,51.38,-3.35,8.0,3.0,300,10,,6.21,30.11811,,,TRUE,,,,,,,,OVC,3600,,,,,,,VFR,,,,,,,,,,,,METAR,67.0
EGAC 140250Z AUTO 30008G18KT 260V340 9999 BKN044/// 08/03 Q1019,EGAC,2019-01-14T02:50:00Z,54.62,-5.87,8.0,3.0,300,8,18,6.21,30.088583,,,TRUE,,,,,,,,BKN,4400,,,,,,,VFR,,,,,,,,,,,,METAR,5.0
EGAA 140250Z 29013KT 9999 FEW040 06/02 Q1019,EGAA,2019-01-14T02:50:00Z,54.63,-6.22,6.0,2.0,290,13,,6.21,30.088583,,,,,,,,,,,FEW,4000,,,,,,,VFR,,,,,,,,,,,,METAR,81.0
EGJJ 140250Z AUTO 32014KT 290V350 9999 OVC034/// 10/06 Q1020,EGJJ,2019-01-14T02:50:00Z,49.22,-2.2,10.0,6.0,320,14,,6.21,30.11811,,,TRUE,,,,,,,,OVC,3400,,,,,,,VFR,,,,,,,,,,,,METAR,84.0
EGJB 140250Z 33016KT 9999 FEW024 BKN032 09/03 Q1021,EGJB,2019-01-14T02:50:00Z,49.42,-2.6,9.0,3.0,330,16,,6.21,30.147638,,,,,,,,,,,FEW,2400,BKN,3200,,,,,VFR,,,,,,,,,,,,METAR,102.0
ESOE 140250Z 29012KT CAVOK M04/M10 Q0982,ESOE,2019-01-14T02:50:00Z,59.22,15.05,-4.0,-10.0,290,12,,6.21,28.996063,,,,,,,,,,,CAVOK,,,,,,,,VFR,,,,,,,,,,,,METAR,57.0
ESSV 140250Z AUTO 34022KT 9999 BKN022/// OVC035/// M00/M04 Q0977,ESSV,2019-01-14T02:50:00Z,57.67,18.35,0.0,-4.0,340,22,,6.21,28.848425,,,TRUE,,,,,,,,BKN,2200,OVC,3500,,,,,MVFR,,,,,,,,,,,,METAR,47.0
ESSP 140250Z AUTO 29012KT 9999 NCD M05/M08 Q0981,ESSP,2019-01-14T02:50:00Z,58.57,16.25,-5.0,-8.0,290,12,,6.21,28.966536,,,TRUE,,,,,,,,CLR,,,,,,,,VFR,,,,,,,,,,,,METAR,8.0
ESSD 140250Z AUTO 31007KT 9999 NCD M05/M09 Q0980,ESSD,2019-01-14T02:50:00Z,60.42,15.5,-5.0,-9.0,310,7,,6.21,28.937008,,,TRUE,,,,,,,,CLR,,,,,,,,VFR,,,,,,,,,,,,METAR,161.0
ESSB 140250Z AUTO 29008KT 9999 NCD M05/M09 Q0978,ESSB,2019-01-14T02:50:00Z,59.35,17.93,-5.0,-9.0,290,8,,6.21,28.877953,,,TRUE,,,,,,,,CLR,,,,,,,,VFR,,,,,,,,,,,,METAR,11.0
ESSA 140250Z 30011KT CAVOK M04/M09 Q0977 R01L/29//62 R08/29//74 R01R/29//78 NOSIG,ESSA,2019-01-14T02:50:00Z,59.63,17.93,-4.0,-9.0,300,11,,6.21,28.848425,,,,,,TRUE,,,,,CAVOK,,,,,,,,VFR,,,,,,,,,,,,METAR,61.0
ESOW 140250Z AUTO 31009KT 9999 NCD M04/M10 Q0980,ESOW,2019-01-14T02:50:00Z,59.57,16.62,-4.0,-10.0,310,9,,6.21,28.937008,,,TRUE,,,,,,,,CLR,,,,,,,,VFR,,,,,,,,,,,,METAR,31.0
ESOK 140250Z AUTO 29011KT 9999 NCD M05/M10 Q0984,ESOK,2019-01-14T02:50:00Z,59.45,13.33,-5.0,-10.0,290,11,,6.21,29.055119,,,TRUE,,,,,,,,CLR,,,,,,,,VFR,,,,,,,,,,,,METAR,107.0
ESKN 140250Z 31011KT CAVOK M05/M08 Q0979 R26/490143,ESKN,2019-01-14T02:50:00Z,58.78,16.9,-5.0,-8.0,310,11,,6.21,28.90748,,,,,,,,,,,CAVOK,,,,,,,,VFR,,,,,,,,,,,,METAR,43.0
EGPB 140250Z AUTO 33025G37KT 9999 BKN041/// 02/M06 Q1011,EGPB,2019-01-14T02:50:00Z,59.87,-1.3,2.0,-6.0,330,25,37,6.21,29.852362,,,TRUE,,,,,,,,BKN,4100,,,,,,,VFR,,,,,,,,,,,,METAR,5.0
EGNT 140250Z 29008KT 9999 FEW030 05/02 Q1013,EGNT,2019-01-14T02:50:00Z,55.02,-1.7,5.0,2.0,290,8,,6.21,29.911417,,,,,,,,,,,FEW,3000,,,,,,,VFR,,,,,,,,,,,,METAR,81.0
EGGD 140250Z AUTO 32017KT 9999 BKN035 BKN042 07/02 Q1019,EGGD,2019-01-14T02:50:00Z,51.37,-2.72,7.0,2.0,320,17,,6.21,30.088583,,,TRUE,,,,,,,,BKN,3500,BKN,4200,,,,,VFR,,,,,,,,,,,,METAR,189.0
VNKT 140250Z VRB02KT 1000 BR FEW010 06/05 Q1021 NOSIG,VNKT,2019-01-14T02:50:00Z,27.68,85.37,6.0,5.0,0,2,,0.62,30.147638,,,,,,TRUE,,,,BR,FEW,1000,,,,,,,LIFR,,,,,,,,,,,,METAR,1337.0
MSLP 140250Z 33004KT 290V350 CAVOK 27/21 Q1014 A2995,MSLP,2019-01-14T02:50:00Z,13.43,-89.05,27.0,21.0,330,4,,6.21,29.940945,,,,,,,,,,,CAVOK,,,,,,,,VFR,,,,,,,,,,,,METAR,25.0
MSSS 140250Z 34007KT CAVOK 23/15 Q1019 A3009,MSSS,2019-01-14T02:50:00Z,13.7,-89.12,23.0,15.0,340,7,,6.21,30.088583,,,,,,,,,,,CAVOK,,,,,,,,VFR,,,,,,,,,,,,METAR,616.0
BGKK 140250Z AUTO 11009KT 9999NDV FEW017/// M11/M13 Q1008,BGKK,2019-01-14T02:50:00Z,65.57,-37.13,-11.0,-13.0,110,9,,,29.763779,,,TRUE,,,,,,,,FEW,1700,,,,,,,,,,,,,,,,,,,SPECI,34.0
BGJN 140250Z AUTO 09005KT 9999NDV BKN034/// M19/M25 Q1013,BGJN,2019-01-14T02:50:00Z,69.25,-51.07,-19.0,-25.0,90,5,,,29.911417,,,TRUE,,,,,,,,BKN,3400,,,,,,,,,,,,,,,,,,,SPECI,25.0
BGGH 140250Z AUTO 02012KT 9999NDV FEW010/// FEW200/// M09/M10 Q1003,BGGH,2019-01-14T02:50:00Z,64.2,-51.68,-9.0,-10.0,20,12,,,29.616142,,,TRUE,,,,,,,,FEW,1000,FEW,20000,,,,,,,,,,,,,,,,,SPECI,70.0
BGBW 140250Z AUTO 21003KT 9999NDV BKN180/// M04/M08 Q0996,BGBW,2019-01-14T02:50:00Z,61.17,-45.42,-4.0,-8.0,210,3,,,29.409449,,,TRUE,,,,,,,,BKN,18000,,,,,,,,,,,,,,,,,,,SPECI,26.0
BGSF 140250Z AUTO 05007KT 9999NDV NCD M32/M35 Q1012,BGSF,2019-01-14T02:50:00Z,67.0,-50.72,-32.0,-35.0,50,7,,,29.88189,,,TRUE,,,,,,,,CLR,,,,,,,,,,,,,,,,,,,,SPECI,53.0
KBAK 140250Z 36007KT 10SM OVC013 M03/M06 A3034 RMK LAST,KBAK,2019-01-14T02:50:00Z,39.27,-85.9,-3.0,-6.0,360,7,,10.0,30.339567,,,,,,,,,,,OVC,1300,,,,,,,MVFR,,,,,,,,,,,,METAR,200.0
EFKT 140250Z AUTO 33002KT 5000 -SN OVC041 M13/M15 Q0977,EFKT,2019-01-14T02:50:00Z,67.7,24.85,-13.0,-15.0,330,2,,3.11,28.848425,,,TRUE,,,,,,,-SN,OVC,4100,,,,,,,MVFR,,,,,,,,,,,,METAR,643.0
EFKS 140250Z AUTO 09004KT 9999 -SN OVC045 M13/M15 Q0976,EFKS,2019-01-14T02:50:00Z,66.0,29.23,-13.0,-15.0,90,4,,6.21,28.818897,,,TRUE,,,,,,,-SN,OVC,4500,,,,,,,VFR,,,,,,,,,,,,METAR,263.0
EFKI 140250Z AUTO 13011KT 8000 -SN OVC038 M07/M09 Q0974,EFKI,2019-01-14T02:50:00Z,64.27,27.67,-7.0,-9.0,130,11,,4.97,28.759842,,,TRUE,,,,,,,-SN,OVC,3800,,,,,,,MVFR,,,,,,,,,,,,METAR,136.0
EFKE 140250Z 08009KT 040V110 6000 -SN BKN020 BKN028 OVC031 M07/M09 Q0973,EFKE,2019-01-14T02:50:00Z,65.77,24.57,-7.0,-9.0,80,9,,3.73,28.730314,,,,,,,,,,-SN,BKN,2000,BKN,2800,OVC,3100,,,MVFR,,,,,,,,,,,,METAR,15.0
EFET 140250Z AUTO 01002KT 2600 -SN OVC055 M13/M14 Q0976,EFET,2019-01-14T02:50:00Z,68.37,23.43,-13.0,-14.0,10,2,,1.62,28.818897,,,TRUE,,,,,,,-SN,OVC,5500,,,,,,,IFR,,,,,,,,,,,,METAR,306.0
EFUT 140250Z AUTO 12006KT 5000 -SN OVC005 M02/M03 Q0972,EFUT,2019-01-14T02:50:00Z,60.88,26.92,-2.0,-3.0,120,6,,3.11,28.700787,,,TRUE,,,,,,,-SN,OVC,500,,,,,,,IFR,,,,,,,,,,,,METAR,100.0
EFSI 140250Z AUTO 28007KT 9999 -SN FEW008 BKN011 OVC014 M04/M05 Q0970,EFSI,2019-01-14T02:50:00Z,62.7,22.83,-4.0,-5.0,280,7,,6.21,28.641733,,,TRUE,,,,,,,-SN,FEW,800,BKN,1100,OVC,1400,,,MVFR,,,,,,,,,,,,METAR,91.0
EFSA 140250Z AUTO 11007KT 9999 OVC005 M06/M06 Q0976,EFSA,2019-01-14T02:50:00Z,61.95,28.93,-6.0,-6.0,110,7,,6.21,28.818897,,,TRUE,,,,,,,,OVC,500,,,,,,,IFR,,,,,,,,,,,,METAR,95.0
EFMI 140250Z AUTO 10006KT 5000 -SN BKN007 OVC036 M03/M03 Q0974,EFMI,2019-01-14T02:50:00Z,61.68,27.2,-3.0,-3.0,100,6,,3.11,28.759842,,,TRUE,,,,,,,-SN,BKN,700,OVC,3600,,,,,IFR,,,,,,,,,,,,METAR,138.0
EFLP 140250Z AUTO 10005KT 070V150 2700 -SN SCT006 OVC027 M04/M05 Q0974,EFLP,2019-01-14T02:50:00Z,61.07,28.13,-4.0,-5.0,100,5,,1.68,28.759842,,,TRUE,,,,,,,-SN,SCT,600,OVC,2700,,,,,IFR,,,,,,,,,,,,METAR,106.0
EFJO 140250Z AUTO 11005KT 3200 -SN BKN010 OVC034 M07/M08 Q0976,EFJO,2019-01-14T02:50:00Z,62.67,29.62,-7.0,-8.0,110,5,,1.99,28.818897,,,TRUE,,,,,,,-SN,BKN,1000,OVC,3400,,,,,IFR,,,,,,,,,,,,METAR,117.0
EFPO 140250Z AUTO 32006KT 9999 -SN BKN026/// OVC054/// M02/M04 Q0972,EFPO,2019-01-14T02:50:00Z,61.47,21.8,-2.0,-4.0,320,6,,6.21,28.700787,,,TRUE,,,,,,,-SN,BKN,2600,OVC,5400,,,,,MVFR,,,,,,,,,,,,METAR,17.0
EFKK 140250Z 21007KT 180V240 9999 -SN OVC006 M02/M03 Q0969,EFKK,2019-01-14T02:50:00Z,63.72,23.13,-2.0,-3.0,210,7,,6.21,28.612206,,,,,,,,,,-SN,OVC,600,,,,,,,IFR,,,,,,,,,,,,METAR,25.0
EFHA 140250Z AUTO 12006KT 7000 -SN BKN006 OVC038 M03/M04 Q0971,EFHA,2019-01-14T02:50:00Z,61.85,24.8,-3.0,-4.0,120,6,,4.35,28.671259,,,TRUE,,,,,,,-SN,BKN,600,OVC,3800,,,,,IFR,,,,,,,,,,,,METAR,145.0
EFKU 140250Z AUTO 09006KT 3400 -SN OVC029 M08/M10 Q0975,EFKU,2019-01-14T02:50:00Z,63.02,27.8,-8.0,-10.0,90,6,,2.11,28.78937,,,TRUE,,,,,,,-SN,OVC,2900,,,,,,,IFR,,,,,,,,,,,,METAR,102.0
EFJY 140250Z AUTO 13006KT 4300 -SN OVC037 M05/M06 Q0972,EFJY,2019-01-14T02:50:00Z,62.4,25.68,-5.0,-6.0,130,6,,2.67,28.700787,,,TRUE,,,,,,,-SN,OVC,3700,,,,,,,IFR,,,,,,,,,,,,METAR,145.0
EDDB 140250Z 30021G32KT 9999 BKN027 05/00 Q0992 NOSIG,EDDB,2019-01-14T02:50:00Z,52.38,13.53,5.0,0.0,300,21,32,6.21,29.291338,,,,,,TRUE,,,,,BKN,2700,,,,,,,MVFR,,,,,,,,,,,,METAR,48.0
EDDW 140250Z 31011KT 9999 BKN038 05/00 Q1002,EDDW,2019-01-14T02:50:00Z,53.03,8.8,5.0,0.0,310,11,,6.21,29.586615,,,,,,,,,,,BKN,3800,,,,,,,VFR,,,,,,,,,,,,METAR,5.0
EDDR 140250Z 29011KT 9999 FEW020 04/02 Q1008,EDDR,2019-01-14T02:50:00Z,49.22,7.1,4.0,2.0,290,11,,6.21,29.763779,,,,,,,,,,,FEW,2000,,,,,,,VFR,,,,,,,,,,,,METAR,320.0
EDDP 140250Z 31022KT 9999 FEW030 04/M01 Q0997 TEMPO 30020G35KT,EDDP,2019-01-14T02:50:00Z,51.43,12.23,4.0,-1.0,310,22,,6.21,29.438976,,,,,,,,,,,FEW,3000,,,,,,,VFR,,,,,,,,,,,,METAR,149.0
EDDG 140250Z 30008KT 270V340 9999 -SHRA FEW017CB BKN040 06/04 Q1005 NOSIG,EDDG,2019-01-14T02:50:00Z,52.13,7.7,6.0,4.0,300,8,,6.21,29.675198,,,,,,TRUE,,,,-SHRA,FEW,1700,BKN,4000,,,,,VFR,,,,,,,,,,,,METAR,52.0
EDDE 140250Z 30019KT 9999 FEW020 04/00 Q0999,EDDE,2019-01-14T02:50:00Z,50.98,10.97,4.0,0.0,300,19,,6.21,29.498032,,,,,,,,,,,FEW,2000,,,,,,,VFR,,,,,,,,,,,,METAR,323.0
EDDC 140250Z 30021G33KT 9999 SCT023 BKN040 04/00 Q0994,EDDC,2019-01-14T02:50:00Z,51.13,13.75,4.0,0.0,300,21,33,6.21,29.350393,,,,,,,,,,,SCT,2300,BKN,4000,,,,,VFR,,,,,,,,,,,,METAR,226.0
LSMS 140250Z AUTO 13003KT 060V200 9999 -DZ SCT050 05/03 Q1008,LSMS,2019-01-14T02:50:00Z,46.22,7.32,5.0,3.0,130,3,,6.21,29.763779,,,TRUE,,,,,,,-DZ,SCT,5000,,,,,,,VFR,,,,,,,,,,,,METAR,481.0
EDDV 140250Z 31014KT 260V330 9999 BKN030 04/M00 Q1001,EDDV,2019-01-14T02:50:00Z,52.47,9.68,4.0,0.0,310,14,,6.21,29.557087,,,,,,,,,,,BKN,3000,,,,,,,MVFR,,,,,,,,,,,,METAR,54.0
EDDT 140250Z 30015KT 260V340 9999 BKN034 05/M00 Q0993,EDDT,2019-01-14T02:50:00Z,52.57,13.32,5.0,0.0,300,15,,6.21,29.320866,,,,,,,,,,,BKN,3400,,,,,,,VFR,,,,,,,,,,,,METAR,37.0
EDDS 140250Z 30013G23KT 9999 FEW020 BKN035 05/02 Q1005,EDDS,2019-01-14T02:50:00Z,48.67,9.22,5.0,2.0,300,13,23,6.21,29.675198,,,,,,,,,,,FEW,2000,BKN,3500,,,,,VFR,,,,,,,,,,,,METAR,419.0
EDDN 140250Z 29014KT 9999 SCT025 BKN035 05/02 Q1001 R28/29//95,EDDN,2019-01-14T02:50:00Z,49.5,11.08,5.0,2.0,290,14,,6.21,29.557087,,,,,,,,,,,SCT,2500,BKN,3500,,,,,VFR,,,,,,,,,,,,METAR,312.0
EDDM 140250Z 28014KT 9999 FEW020 BKN035 05/01 Q1002 R88/290095 NOSIG,EDDM,2019-01-14T02:50:00Z,48.35,11.82,5.0,1.0,280,14,,6.21,29.586615,,,,,,TRUE,,,,,FEW,2000,BKN,3500,,,,,VFR,,,,,,,,,,,,METAR,447.0
EDDL 140250Z 29013KT 9999 FEW016 BKN028 07/04 Q1007 TEMPO 30015G25KT SHRA,EDDL,2019-01-14T02:50:00Z,51.3,6.77,7.0,4.0,290,13,,6.21,29.734253,,,,,,,,,,,FEW,1600,BKN,2800,,,,,MVFR,,,,,,,,,,,,METAR,44.0
EDDK 140250Z 29014KT 9999 -SHRA FEW018 BKN021 BKN040 06/04 Q1007 TEMPO 29015G25KT SHRA BKN010CB,EDDK,2019-01-14T02:50:00Z,50.87,7.15,6.0,4.0,290,14,,6.21,29.734253,,,,,,,,,,-SHRA,FEW,1800,BKN,2100,BKN,4000,,,MVFR,,,,,,,,,,,,METAR,99.0
EDDH 140250Z 30014G26KT 9999 FEW035 04/M02 Q0998 TEMPO 30020G35KT,EDDH,2019-01-14T02:50:00Z,53.63,10.0,4.0,-2.0,300,14,26,6.21,29.468504,,,,,,,,,,,FEW,3500,,,,,,,VFR,,,,,,,,,,,,METAR,16.0
EDDF 140250Z 29016KT 9999 -SHRA FEW022 BKN026TCU 07/03 Q1005 NOSIG,EDDF,2019-01-14T02:50:00Z,50.05,8.6,7.0,3.0,290,16,,6.21,29.675198,,,,,,TRUE,,,,-SHRA,FEW,2200,BKN,2600,,,,,MVFR,,,,,,,,,,,,METAR,113.0
LLSD 140250Z 22023G33KT 3900 DU SCT035 15/08 Q1010 RMK RERA,LLSD,2019-01-14T02:50:00Z,32.12,34.78,15.0,8.0,220,23,33,2.42,29.822834,,,,,,,,,,DU,SCT,3500,,,,,,,IFR,,,,,,,,,,,,SPECI,14.0
LLOV 140250Z AUTO 22004KT CAVOK 07/M01 Q1014,LLOV,2019-01-14T02:50:00Z,29.93,34.93,7.0,-1.0,220,4,,6.21,29.940945,,,TRUE,,,,,,,,CAVOK,,,,,,,,VFR,,,,,,,,,,,,METAR,432.0
PGRO 140250Z 03014KT 7SM SCT013 SCT100 27/20 A2982 RMK WIND DATA ESTIMATED,PGRO,2019-01-14T02:50:00Z,14.18,145.25,27.0,20.0,30,14,,7.0,29.819881,,,,,,,,,,,SCT,1300,SCT,10000,,,,,VFR,,,,,,,,,,,,SPECI,185.0
ESTL 140250Z AUTO 31016KT 9999 FEW071/// 01/M03 Q0988,ESTL,2019-01-14T02:50:00Z,56.07,13.2,1.0,-3.0,310,16,,6.21,29.17323,,,TRUE,,,,,,,,FEW,7100,,,,,,,VFR,,,,,,,,,,,,METAR,43.0
ESTA 140250Z AUTO 30017KT 9999 UP FEW023/// SCT036/// BKN048/// 00/M04 Q0988 REUP RESHUP,ESTA,2019-01-14T02:50:00Z,56.28,12.83,0.0,-4.0,300,17,,6.21,29.17323,,,TRUE,,,,,,,SH UP UP,FEW,2300,SCT,3600,BKN,4800,,,VFR,,,,,,,,,,,,SPECI,47.0
ESMX 140250Z AUTO 31014G25KT 9999 NCD M02/M07 Q0983,ESMX,2019-01-14T02:50:00Z,56.92,14.72,-2.0,-7.0,310,14,25,6.21,29.02559,,,TRUE,,,,,,,,CLR,,,,,,,,VFR,,,,,,,,,,,,METAR,186.0
ESMT 140250Z AUTO 31010KT 9999 FEW007/// SCT017/// BKN036/// M00/M04 Q0988 RESG,ESMT,2019-01-14T02:50:00Z,56.67,12.82,0.0,-4.0,310,10,,6.21,29.17323,,,TRUE,,,,,,,,FEW,700,SCT,1700,BKN,3600,,,VFR,,,,,,,,,,,,METAR,30.0
ESMS 140250Z 32014KT CAVOK 01/M05 Q0988,ESMS,2019-01-14T02:50:00Z,55.53,13.37,1.0,-5.0,320,14,,6.21,29.17323,,,,,,,,,,,CAVOK,,,,,,,,VFR,,,,,,,,,,,,METAR,106.0
ESMQ 140250Z AUTO 32015KT 9999 NCD M01/M05 Q0982,ESMQ,2019-01-14T02:50:00Z,56.68,16.3,-1.0,-5.0,320,15,,6.21,28.996063,,,TRUE,,,,,,,,CLR,,,,,,,,VFR,,,,,,,,,,,,METAR,16.0
ESMK 140250Z AUTO 30011KT 9999 FEW080/// 00/// Q0986,ESMK,2019-01-14T02:50:00Z,55.92,14.07,,,300,11,,6.21,29.114174,,,TRUE,,,,,,,,FEW,8000,,,,,,,VFR,,,,,,,,,,,,METAR,23.0
ESGT 140250Z AUTO 31014KT 9999 BKN120/// M01/M09 Q0987,ESGT,2019-01-14T02:50:00Z,58.32,12.33,-1.0,-9.0,310,14,,6.21,29.143702,,,TRUE,,,,,,,,BKN,12000,,,,,,,VFR,,,,,,,,,,,,METAR,41.0
ESGJ 140250Z AUTO 31012KT 9999 NCD M03/M07 Q0984,ESGJ,2019-01-14T02:50:00Z,57.77,14.07,-3.0,-7.0,310,12,,6.21,29.055119,,,TRUE,,,,,,,,CLR,,,,,,,,VFR,,,,,,,,,,,,METAR,232.0
ESGG 140250Z 32012KT CAVOK M01/M09 Q0987 R03/19//95,ESGG,2019-01-14T02:50:00Z,57.67,12.3,-1.0,-9.0,320,12,,6.21,29.143702,,,,,,,,,,,CAVOK,,,,,,,,VFR,,,,,,,,,,,,METAR,169.0
EKBI 140250Z AUTO 30018G28KT 9999 SCT036/// 01/M04 Q0996,EKBI,2019-01-14T02:50:00Z,55.72,9.15,1.0,-4.0,300,18,28,6.21,29.409449,,,TRUE,,,,,,,,SCT,3600,,,,,,,VFR,,,,,,,,,,,,METAR,66.0
EKAH 140250Z AUTO 31018KT 9999NDV FEW050/// 02/M05 Q0992,EKAH,2019-01-14T02:50:00Z,56.28,10.62,2.0,-5.0,310,18,,,29.291338,,,TRUE,,,,,,,,FEW,5000,,,,,,,,,,,,,,,,,,,METAR,25.0
EKRK 140250Z AUTO 33013KT 9999NDV -SHRASN FEW020/// SCT039/// BKN045/// BKN055/// 01/M01 Q0990,EKRK,2019-01-14T02:50:00Z,55.57,12.12,1.0,-1.0,330,13,,,29.232283,,,TRUE,,,,,,,-SHRA SN,FEW,2000,SCT,3900,BKN,4500,BKN,5500,,,,,,,,,,,,,METAR,44.0
EKRN 140250Z AUTO 31019KT 9999 SCT021/// 02/M03 Q0986,EKRN,2019-01-14T02:50:00Z,55.07,14.75,2.0,-3.0,310,19,,6.21,29.114174,,,TRUE,,,,,,,,SCT,2100,,,,,,,VFR,,,,,,,,,,,,METAR,16.0
EKEB 140250Z AUTO 32025G36KT 9999 FEW034/// BKN044/// 02/M02 Q0998,EKEB,2019-01-14T02:50:00Z,55.52,8.55,2.0,-2.0,320,25,36,6.21,29.468504,,,TRUE,,,,,,,,FEW,3400,BKN,4400,,,,,VFR,,,,,,,,,,,,METAR,29.0
EKSB 140250Z AUTO 31021KT //// BKN027/// 03/M01 Q0996,EKSB,2019-01-14T02:50:00Z,54.97,9.8,3.0,-1.0,310,21,,,29.409449,,,TRUE,,,,,,,,BKN,2700,,,,,,,,,,,,,,,,,,,METAR,23.0
EKVD 140250Z AUTO 32024G38KT //// ///////// 01/M03 Q0996,EKVD,2019-01-14T02:50:00Z,55.42,9.32,1.0,-3.0,320,24,38,,29.409449,,,TRUE,,,,,,,,,,,,,,,,,,,,,,,,,,,,METAR,45.0
PTSA 140250Z 05009KT 10SM VCSH BKN016TCU BKN130 OVC300 30/26 A2964 RMK VCSH SW TCU NE-W,PTSA,2019-01-14T02:50:00Z,5.35,162.95,30.0,26.0,50,9,,10.0,29.639763,,,,,,,,,,VCSH,BKN,1600,BKN,13000,OVC,30000,,,MVFR,,,,,,,,,,,,SPECI,3.0
EVLA 140250Z AUTO 33004KT 300V360 9999 SCT015/// OVC018/// 02/02 Q0973,EVLA,2019-01-14T02:50:00Z,56.52,21.1,2.0,2.0,330,4,,6.21,28.730314,,,TRUE,,,,,,,,SCT,1500,OVC,1800,,,,,MVFR,,,,,,,,,,,,METAR,4.0
EVVA 140250Z AUTO 33010KT 9999 FEW013 BKN020 01/01 Q0972,EVVA,2019-01-14T02:50:00Z,57.35,21.55,1.0,1.0,330,10,,6.21,28.700787,,,TRUE,,,,,,,,FEW,1300,BKN,2000,,,,,MVFR,,,,,,,,,,,,METAR,6.0
EYSA 140250Z 21009KT 3800 -DZ BR OVC002 01/01 Q0972 R14L/690295 AMB NOSIG,EYSA,2019-01-14T02:50:00Z,55.9,23.4,1.0,1.0,210,9,,2.36,28.700787,,,,,,TRUE,,,,-DZ BR,OVC,200,,,,,,,LIFR,,,,,,,,,,,,SPECI,135.0
LSZC 140250Z AUTO 26012G26KT 220V300 9999 -RA FEW037 BKN042 BKN050 09/02 Q1008,LSZC,2019-01-14T02:50:00Z,46.97,8.38,9.0,2.0,260,12,26,6.21,29.763779,,,TRUE,,,,,,,-RA,FEW,3700,BKN,4200,BKN,5000,,,VFR,,,,,,,,,,,,METAR,450.0
LSZS 140250Z AUTO 27009KT 200V320 4300 -SN BR BKN/// M00/M04 Q1000,LSZS,2019-01-14T02:50:00Z,46.53,9.88,0.0,-4.0,270,9,,2.67,29.52756,,,TRUE,,,,,,,-SN BR,,,,,,,,,,,,,,,,,,,,,METAR,1706.0
LSZR 140250Z AUTO 33017KT 1400 R10/1800U RA BR FEW011 BKN016 BKN021 04/03 Q1007,LSZR,2019-01-14T02:50:00Z,47.48,9.57,4.0,3.0,330,17,,0.87,29.734253,,,TRUE,,,,,,,RA BR,FEW,1100,BKN,1600,BKN,2100,,,LIFR,,,,,,,,,,,,METAR,398.0
LSZG 140250Z AUTO 25011KT 9999 SCT033 BKN038 BKN090 07/04 Q1010,LSZG,2019-01-14T02:50:00Z,47.17,7.42,7.0,4.0,250,11,,6.21,29.822834,,,TRUE,,,,,,,,SCT,3300,BKN,3800,BKN,9000,,,VFR,,,,,,,,,,,,METAR,430.0
LSGS 140250Z AUTO 13003KT 060V200 9999 -DZ SCT050 05/03 Q1008,LSGS,2019-01-14T02:50:00Z,46.22,7.32,5.0,3.0,130,3,,6.21,29.763779,,,TRUE,,,,,,,-DZ,SCT,5000,,,,,,,VFR,,,,,,,,,,,,METAR,481.0
LSGC 140250Z AUTO VRB04G16KT 5000 -RASN BKN/// 02/01 Q1010,LSGC,2019-01-14T02:50:00Z,47.08,6.8,2.0,1.0,0,4,16,3.11,29.822834,,,TRUE,,,,,,,-RA -SN,,,,,,,,,,,,,,,,,,,,,METAR,1027.0
EKKA 140250Z AUTO 31019KT 9999NDV NCD 02/M06 Q0995,EKKA,2019-01-14T02:50:00Z,56.3,9.12,2.0,-6.0,310,19,,,29.379921,,,TRUE,,,,,,,,CLR,,,,,,,,,,,,,,,,,,,,METAR,52.0
EKSP 140250Z 31016G27KT 9999 FEW035 01/M02 Q0996,EKSP,2019-01-14T02:50:00Z,55.22,9.27,1.0,-2.0,310,16,27,6.21,29.409449,,,,,,,,,,,FEW,3500,,,,,,,VFR,,,,,,,,,,,,METAR,40.0
LSZA 140250Z AUTO VRB04KT CAVOK 07/04 Q1002,LSZA,2019-01-14T02:50:00Z,46.0,8.92,7.0,4.0,0,4,,6.21,29.586615,,,TRUE,,,,,,,,CAVOK,,,,,,,,VFR,,,,,,,,,,,,METAR,276.0
LSZB 140250Z AUTO 25016G26KT 220V280 9999 -RA BKN039 SCT090 07/03 Q1010,LSZB,2019-01-14T02:50:00Z,46.92,7.5,7.0,3.0,250,16,26,6.21,29.822834,,,TRUE,,,,,,,-RA,BKN,3900,SCT,9000,,,,,VFR,,,,,,,,,,,,METAR,505.0
LSGG 140250Z AUTO 24006KT 210V280 9999 FEW028 SCT031 07/04 Q1013 NOSIG,LSGG,2019-01-14T02:50:00Z,46.25,6.12,7.0,4.0,240,6,,6.21,29.911417,,,TRUE,,,TRUE,,,,,FEW,2800,SCT,3100,,,,,VFR,,,,,,,,,,,,METAR,416.0
LSZH 140250Z 27008KT 240V300 8000 -SHRA FEW010 SCT014 BKN022 06/04 Q1007 TEMPO 4000 SHRA,LSZH,2019-01-14T02:50:00Z,47.48,8.53,6.0,4.0,270,8,,4.97,29.734253,,,,,,,,,,-SHRA,FEW,1000,SCT,1400,BKN,2200,,,MVFR,,,,,,,,,,,,METAR,432.0
LLBG 140250Z 20014KT 5000 DU BKN040 13/06 Q1010 TEMPO 22020G30KT 2500 SHRA DU FEW025TCU RMK OBS 1200FT-WIND 230/40KT,LLBG,2019-01-14T02:50:00Z,32.0,34.88,13.0,6.0,200,14,,3.11,29.822834,,,,,,,,,,DU,BKN,4000,,,,,,,MVFR,,,,,,,,,,,,METAR,49.0
ESNL 140250Z AUTO 30016KT 1300 R14/P2000N R32/P2000N -SN BKN005/// M06/M08 Q0970,ESNL,2019-01-14T02:50:00Z,64.55,18.72,-6.0,-8.0,300,16,,0.81,28.641733,,,TRUE,,,,,,,-SN,BKN,500,,,,,,,LIFR,,,,,,,,,,,,SPECI,214.0
ESUT 140250Z AUTO 00000KT 9999 NCD M22/M24 Q0974,ESUT,2019-01-14T02:50:00Z,65.8,15.08,-22.0,-24.0,0,0,,6.21,28.759842,,,TRUE,,,,,,,,CLR,,,,,,,,VFR,,,,,,,,,,,,METAR,463.0
ESNX 140250Z AUTO 34011KT 1200 R30/P2000N -SN VV017 M08/M09 Q0970,ESNX,2019-01-14T02:50:00Z,65.58,19.28,-8.0,-9.0,340,11,,0.75,28.641733,,,TRUE,,,,,,,-SN,OVX,0,,,,,,,LIFR,,,,,,,,,,,1700,METAR,379.0
KDAG 140250Z AUTO 05006KT 10SM CLR 09/04 A3011 RMK AO2 SLP195 T00890039 53014,KDAG,2019-01-14T02:50:00Z,34.85,-116.78,8.9,3.9,50,6,,10.0,30.109253,1019.5,,TRUE,TRUE,,,,,,,CLR,,,,,,,,VFR,1.4,,,,,,,,,,,METAR,587.0
KCWF 140250Z 03008KT 10SM SKC 05/02 A3039,KCWF,2019-01-14T02:50:00Z,30.22,-93.15,5.0,2.0,30,8,,10.0,30.389763,,,,,,,,,,,SKC,,,,,,,,VFR,,,,,,,,,,,,METAR,4.0
PTPN 140250Z 12005KT 15SM BKN018TCU BKN130 OVC300 29/25 A2965 RMK TCU SE-SW,PTPN,2019-01-14T02:50:00Z,6.97,158.22,29.0,25.0,120,5,,15.0,29.648623,,,,,,,,,,,BKN,1800,BKN,13000,OVC,30000,,,MVFR,,,,,,,,,,,,SPECI,2.0
EFIV 140250Z AUTO VRB01KT 9999 BKN005 OVC041 M09/M10 Q0977,EFIV,2019-01-14T02:50:00Z,68.62,27.42,-9.0,-10.0,0,1,,6.21,28.848425,,,TRUE,,,,,,,,BKN,500,OVC,4100,,,,,IFR,,,,,,,,,,,,METAR,148.0
EFMA 140250Z AUTO 34011KT 300V010 9999 BKN030 M01/M06 Q0974,EFMA,2019-01-14T02:50:00Z,60.12,19.88,-1.0,-6.0,340,11,,6.21,28.759842,,,TRUE,,,,,,,,BKN,3000,,,,,,,MVFR,,,,,,,,,,,,METAR,6.0
EFRO 140250Z AUTO 06010KT 7000 -SG BKN046 OVC065 M11/M12 Q0975,EFRO,2019-01-14T02:50:00Z,66.57,25.82,-11.0,-12.0,60,10,,4.35,28.78937,,,TRUE,,,,,,,-SG,BKN,4600,OVC,6500,,,,,MVFR,,,,,,,,,,,,METAR,201.0
EFOU 140250Z AUTO 12012KT 7000 -SN BKN035/// BKN041/// OVC054/// M06/M08 Q0972,EFOU,2019-01-14T02:50:00Z,64.92,25.37,-6.0,-8.0,120,12,,4.35,28.700787,,,TRUE,,,,,,,-SN,BKN,3500,BKN,4100,OVC,5400,,,MVFR,,,,,,,,,,,,METAR,15.0
EFVA 140250Z AUTO 24005KT 9999 OVC021/// M04/M06 Q0970,EFVA,2019-01-14T02:50:00Z,63.03,21.77,-4.0,-6.0,240,5,,6.21,28.641733,,,TRUE,,,,,,,,OVC,2100,,,,,,,MVFR,,,,,,,,,,,,METAR,4.0
EFTU 140250Z AUTO 32004KT 290V350 5000 -SN SCT005/// BKN007/// OVC015/// M01/M01 Q0971,EFTU,2019-01-14T02:50:00Z,60.52,22.27,-1.0,-1.0,320,4,,3.11,28.671259,,,TRUE,,,,,,,-SN,SCT,500,BKN,700,OVC,1500,,,IFR,,,,,,,,,,,,METAR,59.0
EFTP 140250Z AUTO 14005KT 2500 -SN VV007 M02/M03 Q0971,EFTP,2019-01-14T02:50:00Z,61.42,23.62,-2.0,-3.0,140,5,,1.55,28.671259,,,TRUE,,,,,,,-SN,OVX,0,,,,,,,LIFR,,,,,,,,,,,700,METAR,112.0
EFHK 140250Z 09005KT 2500 -SN BKN004 M01/M01 Q0971 TEMPO BKN005,EFHK,2019-01-14T02:50:00Z,60.32,24.97,-1.0,-1.0,90,5,,1.55,28.671259,,,,,,,,,,-SN,BKN,400,,,,,,,LIFR,,,,,,,,,,,,METAR,56.0
ENTO 140250Z AUTO 31014KT 9999 NCD M02/M14 Q0989,ENTO,2019-01-14T02:50:00Z,59.2,10.27,-2.0,-14.0,310,14,,6.21,29.202755,,,TRUE,,,,,,,,CLR,,,,,,,,VFR,,,,,,,,,,,,METAR,88.0
ENSB 140250Z 11012KT 9999 FEW025 BKN040 M10/M16 Q0996 RMK WIND 1400FT 08013KT,ENSB,2019-01-14T02:50:00Z,78.25,15.47,-10.0,-16.0,110,12,,6.21,29.409449,,,,,,,,,,,FEW,2500,BKN,4000,,,,,VFR,,,,,,,,,,,,METAR,29.0
ENRY 140250Z AUTO 30013G23KT 9999NDV NCD M01/M13 Q0989,ENRY,2019-01-14T02:50:00Z,59.37,10.77,-1.0,-13.0,300,13,23,,29.202755,,,TRUE,,,,,,,,CLR,,,,,,,,,,,,,,,,,,,,METAR,53.0
ENRO 140250Z AUTO 25014KT 9000NDV -SHSN FEW005/// SCT012/// BKN019/// M08/M10 Q0978,ENRO,2019-01-14T02:50:00Z,62.57,11.33,-8.0,-10.0,250,14,,,28.877953,,,TRUE,,,,,,,-SHSN,FEW,500,SCT,1200,BKN,1900,,,,,,,,,,,,,,,METAR,626.0
ENHD 140250Z AUTO 33034G46KT 9999 UP FEW021/// 01/M05 Q0999,ENHD,2019-01-14T02:50:00Z,59.35,5.22,1.0,-5.0,330,34,46,6.21,29.498032,,,TRUE,,,,,,,UP,FEW,2100,,,,,,,VFR,,,,,,,,,,,,METAR,24.0
ENCN 140250Z AUTO 32007G17KT 290V350 9999 NCD M00/M10 Q0995,ENCN,2019-01-14T02:50:00Z,58.2,8.07,0.0,-10.0,320,7,17,6.21,29.379921,,,TRUE,,,,,,,,CLR,,,,,,,,VFR,,,,,,,,,,,,METAR,17.0
ENAL 140250Z AUTO 31022G34KT 280V340 9999 FEW007/// SCT016/// BKN035/// 00/M03 Q0993 RESN,ENAL,2019-01-14T02:50:00Z,62.57,6.12,0.0,-3.0,310,22,34,6.21,29.320866,,,TRUE,,,,,,,,FEW,700,SCT,1600,BKN,3500,,,VFR,,,,,,,,,,,,METAR,22.0
ENZV 140250Z 33020KT 9999 VCSH SCT023 BKN030 M00/M03 Q0998,ENZV,2019-01-14T02:50:00Z,58.87,5.62,0.0,-3.0,330,20,,6.21,29.468504,,,,,,,,,,VCSH,SCT,2300,BKN,3000,,,,,MVFR,,,,,,,,,,,,METAR,9.0
ENVA 140250Z 25027G38KT 6000 R09/P2000N R27/P2000N SHSN SCT007 BKN023 M02/M03 Q0978 RMK WIND 670FT 26031G55KT,ENVA,2019-01-14T02:50:00Z,63.47,10.92,-2.0,-3.0,250,27,38,3.73,28.877953,,,,,,,,,,SHSN,SCT,700,BKN,2300,,,,,MVFR,,,,,,,,,,,,METAR,17.0
ENOL 140250Z 27045G59KT 2000 TSSNRA VV012 01/00 Q0976 RESHSNGS,ENOL,2019-01-14T02:50:00Z,63.7,9.58,1.0,0.0,270,45,59,1.24,28.818897,,,,,,,,,,TSSN TSRA,OVX,0,,,,,,,LIFR,,,,,,,,,,,1200,METAR,7.0
ENGM 140250Z 34005KT 290V030 CAVOK M05/M13 Q0986,ENGM,2019-01-14T02:50:00Z,60.2,11.1,-5.0,-13.0,340,5,,6.21,29.114174,,,,,,,,,,,CAVOK,,,,,,,,VFR,,,,,,,,,,,,METAR,204.0
ENDU 140250Z AUTO 00000KT 9999 NCD M21/M23 Q0979 RMK WIND 1100FT 01003KT WIND 2200FT 36005KT,ENDU,2019-01-14T02:50:00Z,69.03,18.55,-21.0,-23.0,0,0,,6.21,28.90748,,,TRUE,,,,,,,,CLR,,,,,,,,VFR,,,,,,,,,,,,METAR,79.0
ENBO 140250Z 08012KT 9999 FEW008 SCT045 M05/M08 Q0978,ENBO,2019-01-14T02:50:00Z,67.27,14.37,-5.0,-8.0,80,12,,6.21,28.877953,,,,,,,,,,,FEW,800,SCT,4500,,,,,VFR,,,,,,,,,,,,METAR,13.0
ENBR 140250Z 34024G40KT 300V010 7000 -SHSNGR BKN010 M01/M06 Q0998 RMK WIND 1200FT 33034G48KT,ENBR,2019-01-14T02:50:00Z,60.28,5.22,-1.0,-6.0,340,24,40,4.35,29.468504,,,,,,,,,,-SHSN -SHGR,BKN,1000,,,,,,,MVFR,,,,,,,,,,,,METAR,50.0
ENAN 140250Z AUTO 27005KT 9999 NCD M07/M10 Q0979,ENAN,2019-01-14T02:50:00Z,69.28,16.13,-7.0,-10.0,270,5,,6.21,28.90748,,,TRUE,,,,,,,,CLR,,,,,,,,VFR,,,,,,,,,,,,METAR,14.0
EYPA 140250Z AUTO 33006KT 280V010 9999 -RA OVC008/// 03/02 Q0973,EYPA,2019-01-14T02:50:00Z,55.97,21.08,3.0,2.0,330,6,,6.21,28.730314,,,TRUE,,,,,,,-RA,OVC,800,,,,,,,IFR,,,,,,,,,,,,METAR,10.0
EYVI 140250Z 19013KT 5000 -RASN BR OVC003 00/00 Q0975 R19/5/0294 NOSIG,EYVI,2019-01-14T02:50:00Z,54.63,25.28,0.0,0.0,190,13,,3.11,28.78937,,,,,,TRUE,,,,-RA -SN BR,OVC,300,,,,,,,LIFR,,,,,,,,,,,,METAR,197.0
PTRO 140250Z 03012G23KT 15SM FEW010 SCT016 BKN120 BKN300 29/23 A2977 ,PTRO,2019-01-14T02:50:00Z,7.37,134.55,29.0,23.0,30,12,23,15.0,29.769686,,,,,,,,,,,FEW,1000,SCT,1600,BKN,12000,BKN,30000,VFR,,,,,,,,,,,,METAR,54.0
KCIC 140250Z 07004KT 10SM BKN200 09/04 A2999 RMK LAST,KCIC,2019-01-14T02:50:00Z,39.78,-121.83,9.0,4.0,70,4,,10.0,29.991142,,,,,,,,,,,BKN,20000,,,,,,,VFR,,,,,,,,,,,,METAR,73.0
EYKA 140250Z 19009KT 160V220 3700 -RA BR OVC003 01/01 Q0974,EYKA,2019-01-14T02:50:00Z,54.97,24.08,1.0,1.0,190,9,,2.3,28.759842,,,,,,,,,,-RA BR,OVC,300,,,,,,,LIFR,,,,,,,,,,,,METAR,77.0
EETN 140250Z 14003KT 110V170 3700 SN FEW004 BKN016 OVC022 M01/M01 Q0970 R08/490394,EETN,2019-01-14T02:50:00Z,59.4,24.82,-1.0,-1.0,140,3,,2.3,28.641733,,,,,,,,,,SN,FEW,400,BKN,1600,OVC,2200,,,IFR,,,,,,,,,,,,METAR,40.0
EVRA 140250Z 18008KT 8000 -RASN OVC004 00/00 Q0971 R18/690295 NOSIG,EVRA,2019-01-14T02:50:00Z,56.92,23.97,0.0,0.0,180,8,,4.97,28.671259,,,,,,TRUE,,,,-RA -SN,OVC,400,,,,,,,LIFR,,,,,,,,,,,,METAR,10.0
EKVG 140250Z AUTO 35005KT 9999NDV -SHSN FEW029/// BKN057/// M01/M04 Q1013 RMK FEW033/// BKN110/// WIND SKEID 34005KT,EKVG,2019-01-14T02:50:00Z,62.07,-7.3,-1.0,-4.0,350,5,,,29.911417,,,TRUE,,,,,,,-SHSN,FEW,2900,BKN,5700,,,,,,,,,,,,,,,,,METAR,85.0
LXGB 140250Z AUTO 23008KT 9999 // NCD 11/05 Q1023,LXGB,2019-01-14T02:50:00Z,36.13,-5.33,11.0,5.0,230,8,,6.21,30.206694,,,TRUE,,,,,,,,CLR,,,,,,,,VFR,,,,,,,,,,,,SPECI,5.0
LICA 140250Z 00000KT 9999 FEW020 07/06 Q1007,LICA,2019-01-14T02:50:00Z,38.88,16.25,7.0,6.0,0,0,,6.21,29.734253,,,,,,,,,,,FEW,2000,,,,,,,VFR,,,,,,,,,,,,METAR,15.0
LIRZ 140250Z AUTO 21003KT 160V260 9999 FEW039/// BKN100/// 04/02 Q1004,LIRZ,2019-01-14T02:50:00Z,43.1,12.5,4.0,2.0,210,3,,6.21,29.64567,,,TRUE,,,,,,,,FEW,3900,BKN,10000,,,,,VFR,,,,,,,,,,,,METAR,205.0
LIBP 140250Z AUTO 21010KT 9999 BKN120/// 10/01 Q1000,LIBP,2019-01-14T02:50:00Z,42.42,14.18,10.0,1.0,210,10,,6.21,29.52756,,,TRUE,,,,,,,,BKN,12000,,,,,,,VFR,,,,,,,,,,,,METAR,11.0
LIPY 140250Z 22018KT 9999 BKN050 11/04 Q0999,LIPY,2019-01-14T02:50:00Z,43.62,13.37,11.0,4.0,220,18,,6.21,29.498032,,,,,,,,,,,BKN,5000,,,,,,,VFR,,,,,,,,,,,,METAR,10.0
LIPO 140250Z 07006KT CAVOK 00/M01 Q0999,LIPO,2019-01-14T02:50:00Z,45.42,10.33,0.0,-1.0,70,6,,6.21,29.498032,,,,,,,,,,,CAVOK,,,,,,,,VFR,,,,,,,,,,,,METAR,109.0
EGPI 140250Z AUTO 31018KT 9999 NCD 07/05 Q1017,EGPI,2019-01-14T02:50:00Z,55.68,-6.25,7.0,5.0,310,18,,6.21,30.029528,,,TRUE,,,,,,,,CLR,,,,,,,,VFR,,,,,,,,,,,,METAR,18.0
EGPU 140250Z AUTO 30019KT 9999 FEW020/// 08/05 Q1017 RERA,EGPU,2019-01-14T02:50:00Z,56.5,-6.87,8.0,5.0,300,19,,6.21,30.029528,,,TRUE,,,,,,,,FEW,2000,,,,,,,VFR,,,,,,,,,,,,METAR,12.0
LSMP 140250Z AUTO 23011KT 9999NDV -SHRA FEW024 SCT040 OVC051 00/M03 Q1011 RMK,LSMP,2019-01-14T02:50:00Z,46.82,6.92,0.0,-3.0,230,11,,,29.852362,,,TRUE,,,,,,,-SHRA,FEW,2400,SCT,4000,OVC,5100,,,,,,,,,,,,,,,METAR,491.0
LSMM 140250Z AUTO 30013G27KT 220V030 9999NDV -RA SCT028 OVC032 07/02 Q1007 RMK,LSMM,2019-01-14T02:50:00Z,46.75,8.12,7.0,2.0,300,13,27,,29.734253,,,TRUE,,,,,,,-RA,SCT,2800,OVC,3200,,,,,,,,,,,,,,,,,METAR,577.0
LSME 140250Z AUTO 26009KT 220V290 9999NDV -SHRA BKN033 OVC052 07/03 Q1008 RMK,LSME,2019-01-14T02:50:00Z,47.1,8.3,7.0,3.0,260,9,,,29.763779,,,TRUE,,,,,,,-SHRA,BKN,3300,OVC,5200,,,,,,,,,,,,,,,,,METAR,427.0
LSMD 140250Z AUTO 29010KT 250V320 9999NDV -RA SCT013 BKN018 OVC021 06/04 Q1007 RERA RMK,LSMD,2019-01-14T02:50:00Z,47.4,8.65,6.0,4.0,290,10,,,29.734253,,,TRUE,,,,,,,-RA,SCT,1300,BKN,1800,OVC,2100,,,,,,,,,,,,,,,METAR,448.0
LSMA 140250Z AUTO 20012G22KT 170V250 9999NDV -SHRA FEW039 OVC045 07/04 Q1007 RMK,LSMA,2019-01-14T02:50:00Z,46.95,8.28,7.0,4.0,200,12,22,,29.734253,,,TRUE,,,,,,,-SHRA,FEW,3900,OVC,4500,,,,,,,,,,,,,,,,,METAR,444.0
EGYP 140250Z 26022KT 9999 BKN040 OVC110 10/06 Q1003 BLU,EGYP,2019-01-14T02:50:00Z,-51.82,-58.45,10.0,6.0,260,22,,6.21,29.616142,,,,,,,,,,,BKN,4000,OVC,11000,,,,,VFR,,,,,,,,,,,,METAR,74.0
TJBQ 140250Z 12004KT 10SM CLR 22/17 A3012,TJBQ,2019-01-14T02:50:00Z,18.5,-67.13,22.0,17.0,120,4,,10.0,30.121063,,,,,,,,,,,CLR,,,,,,,,VFR,,,,,,,,,,,,METAR,72.0
EGQL 140250Z 03003KT 9999 SCT031 BKN042 BKN050 03/02 Q1015 BLU,EGQL,2019-01-14T02:50:00Z,56.38,-2.87,3.0,2.0,30,3,,6.21,29.970472,,,,,,,,,,,SCT,3100,BKN,4200,BKN,5000,,,VFR,,,,,,,,,,,,METAR,12.0
LTCJ 140250Z 21002KT 7000 -RA SCT035 OVC090 02/02 Q1008 RMK RWY20 20003KT,LTCJ,2019-01-14T02:50:00Z,37.93,41.12,2.0,2.0,210,2,,4.35,29.763779,,,,,,,,,,-RA,SCT,3500,OVC,9000,,,,,MVFR,,,0.3,,,,,,,,,METAR,540.0
K65S 140250Z AUTO 06004KT 10SM OVC019 M02/M05 A3036 RMK AO2,K65S,2019-01-14T02:50:00Z,48.73,-116.3,-2.0,-5.0,60,4,,10.0,30.360237,,,TRUE,TRUE,,,,,,,OVC,1900,,,,,,,MVFR,,,,,,,,,,,,METAR,713.0
K6I2 140250Z AUTO 00000KT 5SM BR OVC006 00/00 A3027 RMK AO2,K6I2,2019-01-14T02:50:00Z,37.63,-85.25,0.0,0.0,0,0,,5.0,30.268702,,,TRUE,TRUE,,,,,,BR,OVC,600,,,,,,,IFR,,,,,,,,,,,,METAR,264.0
OIHM 140250Z AUTO 14016KT //// // ////// 04/02 Q1012,OIHM,2019-01-14T02:50:00Z,34.28,48.82,4.0,2.0,140,16,,,29.88189,,,TRUE,,,,,,,,,,,,,,,,,,,,,,,,,,,,METAR,1726.0
OIHH 140250Z AUTO 11004KT //// // ////// 03/03 Q1009,OIHH,2019-01-14T02:50:00Z,34.87,48.55,3.0,3.0,110,4,,,29.793306,,,TRUE,,,,,,,,,,,,,,,,,,,,,,,,,,,,SPECI,1757.0
OICK 140250Z 36006KT 7000 -RA FEW035CB SCT040 OVC070 08/06 Q1013,OICK,2019-01-14T02:50:00Z,33.43,48.28,8.0,6.0,360,6,,4.35,29.911417,,,,,,,,,,-RA,FEW,3500,SCT,4000,OVC,7000,,,MVFR,,,,,,,,,,,,METAR,1155.0
KHME 140250Z AUTO 08004KT //// // ////// 05/M03 Q1014,KHME,2019-01-14T02:50:00Z,,,5.0,-3.0,80,4,,,29.940945,,,TRUE,,,,,,,,,,,,,,,,,,,,,,,,,,,,METAR,
LGPZ 140250Z 00000KT 9999 FEW030 04/03 Q1007 RMK SCT080 BLU,LGPZ,2019-01-14T02:50:00Z,38.92,20.77,4.0,3.0,0,0,,6.21,29.734253,,,,,,,,,,,FEW,3000,,,,,,,VFR,,,,,,,,,,,,METAR,4.0
KJQF 140250Z 03005KT 7SM OVC007 02/01 A3021,KJQF,2019-01-14T02:50:00Z,35.38,-80.72,2.0,1.0,30,5,,7.0,30.209646,,,,,,,,,,,OVC,700,,,,,,,IFR,,,,,,,,,,,,METAR,210.0
EGUB 140250Z AUTO 31008KT 9999 // SCT040/// 07/02 Q1017,EGUB,2019-01-14T02:50:00Z,51.62,-1.07,7.0,2.0,310,8,,6.21,30.029528,,,TRUE,,,,,,,,SCT,4000,,,,,,,VFR,,,,,,,,,,,,METAR,63.0
EGDX 140250Z AUTO 29009KT 9999 BKN038/// 08/03 Q1019,EGDX,2019-01-14T02:50:00Z,51.4,-3.43,8.0,3.0,290,9,,6.21,30.088583,,,TRUE,,,,,,,,BKN,3800,,,,,,,VFR,,,,,,,,,,,,METAR,50.0
EGQK 140250Z AUTO 28006KT 9999 FEW015/// BKN034/// 03/01 Q1015,EGQK,2019-01-14T02:50:00Z,57.65,-3.57,3.0,1.0,280,6,,6.21,29.970472,,,TRUE,,,,,,,,FEW,1500,BKN,3400,,,,,VFR,,,,,,,,,,,,METAR,7.0
MUHG 140250Z 10005KT 9000 FEW025 22/21 Q1020,MUHG,2019-01-14T02:50:00Z,20.77,-76.32,22.0,21.0,100,5,,5.59,30.11811,,,,,,,,,,,FEW,2500,,,,,,,VFR,,,,,,,,,,,,SPECI,106.0
MUCC 140250Z 26005KT 220V360 8000 -RA BKN018 22/20 Q1020,MUCC,2019-01-14T02:50:00Z,22.47,-78.33,22.0,20.0,260,5,,4.97,30.11811,,,,,,,,,,-RA,BKN,1800,,,,,,,MVFR,,,,,,,,,,,,SPECI,4.0
MUVR 140250Z 06004KT 8000 FEW030 20/18 Q1021,MUVR,2019-01-14T02:50:00Z,23.03,-81.43,20.0,18.0,60,4,,4.97,30.147638,,,,,,,,,,,FEW,3000,,,,,,,MVFR,,,,,,,,,,,,SPECI,65.0
LTFH 140250Z VRB02KT 2800 R13/0800U R31/P1500U BCFG FEW008 BKN028 04/03 Q1005 NOSIG,LTFH,2019-01-14T02:50:00Z,41.27,36.55,4.0,3.0,0,2,,1.74,29.675198,,,,,,TRUE,,,,BCFG,FEW,800,BKN,2800,,,,,IFR,,,,,,,,,,,,SPECI,5.0
LTDA 140250Z 22004KT 9999 SCT035 BKN100 08/05 Q1009 NOSIG,LTDA,2019-01-14T02:50:00Z,36.37,36.28,8.0,5.0,220,4,,6.21,29.793306,,,,,,TRUE,,,,,SCT,3500,BKN,10000,,,,,VFR,,,,,,,,,,,,METAR,82.0
LTCI 140250Z 11002KT 9999 SCT035 BKN070 M05/M06 Q1006 NOSIG,LTCI,2019-01-14T02:50:00Z,38.45,43.32,-5.0,-6.0,110,2,,6.21,29.704725,,,,,,TRUE,,,,,SCT,3500,BKN,7000,,,,,VFR,,,,,,,,,,,,METAR,1661.0
LTCF 140250Z 01002KT 1200 R06/P1500N R24/P1500U BR BKN030 OVC070 M14/M15 Q1005,LTCF,2019-01-14T02:50:00Z,40.57,43.12,-14.0,-15.0,10,2,,0.75,29.675198,,,,,,,,,,BR,BKN,3000,OVC,7000,,,,,LIFR,,,,,,,,,,,,SPECI,1795.0
LTCD 140250Z 00000KT 0200 R28/0175U R10/0250U FZFG VV001 M13/M14 Q1008 NOSIG,LTCD,2019-01-14T02:50:00Z,39.72,39.5,-13.0,-14.0,0,0,,0.12,29.763779,,,,,,TRUE,,,,FZFG,OVX,0,,,,,,,LIFR,,,,,,,,,,,100,SPECI,1215.0
LTCA 140250Z 22003KT 7000 SCT020 BKN030 BKN090 M02/M03 Q1009 TEMPO FM0400 4000 BR,LTCA,2019-01-14T02:50:00Z,38.6,39.27,-2.0,-3.0,220,3,,4.35,29.793306,,,,,,,,,,,SCT,2000,BKN,3000,BKN,9000,,,MVFR,,,,,,,,,,,,METAR,882.0
LTBY 140250Z 07003KT 6000 SCT013 BKN027 01/00 Q1002,LTBY,2019-01-14T02:50:00Z,39.82,30.52,1.0,0.0,70,3,,3.73,29.586615,,,,,,,,,,,SCT,1300,BKN,2700,,,,,MVFR,,,,,,,,,,,,METAR,789.0
LTAY 140250Z 25005KT 5000 -RA BR FEW009 SCT030 BKN090 03/03 Q1004,LTAY,2019-01-14T02:50:00Z,37.77,29.68,3.0,3.0,250,5,,3.11,29.64567,,,,,,,,,,-RA BR,FEW,900,SCT,3000,BKN,9000,,,MVFR,,,,,,,,,,,,METAR,849.0
LTAR 140250Z 13004KT 9999 FEW040 SCT100 M10/M11 Q1004,LTAR,2019-01-14T02:50:00Z,39.8,36.9,-10.0,-11.0,130,4,,6.21,29.64567,,,,,,,,,,,FEW,4000,SCT,10000,,,,,VFR,,,,,,,,,,,,METAR,1271.0
LTFG 140250Z 03005KT 360V060 9999 -SHRA FEW020CB BKN030 09/08 Q1006 RETSRA,LTFG,2019-01-14T02:50:00Z,36.3,32.3,9.0,8.0,30,5,,6.21,29.704725,,,,,,,,,,-SHRA,FEW,2000,BKN,3000,,,,,MVFR,,,,,,,,,,,,METAR,95.0
LTFD 140250Z 10006KT 9999 SCT035 BKN100 04/01 Q1005,LTFD,2019-01-14T02:50:00Z,39.55,27.02,4.0,1.0,100,6,,6.21,29.675198,,,,,,,,,,,SCT,3500,BKN,10000,,,,,VFR,,,,,,,,,,,,METAR,16.0
LTCU 140250Z 15002KT 1800 BR SCT012 BKN030 OVC080 M04/M04 Q1009,LTCU,2019-01-14T02:50:00Z,38.87,40.58,-4.0,-4.0,150,2,,1.12,29.793306,,,,,,,,,,BR,SCT,1200,BKN,3000,OVC,8000,,,IFR,,,,,,,,,,,,METAR,1061.0
LTCR 140250Z 06007KT 7000 FEW013 SCT036 BKN090 05/04 Q1007,LTCR,2019-01-14T02:50:00Z,37.22,40.63,5.0,4.0,60,7,,4.35,29.734253,,,,,,,,,,,FEW,1300,SCT,3600,BKN,9000,,,MVFR,,,,,,,,,,,,METAR,527.0
LTCP 140250Z 07009KT 9999 -RA BKN033 OVC090 03/00 Q1007,LTCP,2019-01-14T02:50:00Z,37.73,38.47,3.0,0.0,70,9,,6.21,29.734253,,,,,,,,,,-RA,BKN,3300,OVC,9000,,,,,VFR,,,,,,,,,,,,METAR,676.0
LTCN 140250Z VRB01KT 7000 SCT035 BKN090 03/01 Q1008 TEMPO FM0400 4000 BR,LTCN,2019-01-14T02:50:00Z,37.53,36.95,3.0,1.0,0,1,,4.35,29.763779,,,,,,,,,,,SCT,3500,BKN,9000,,,,,MVFR,,,,,,,,,,,,METAR,526.0
LTCK 140250Z 00000KT 3800 -SN BR FEW020 BKN030 OVC070 M09/M10 Q1009,LTCK,2019-01-14T02:50:00Z,38.75,41.67,-9.0,-10.0,0,0,,2.36,29.793306,,,,,,,,,,-SN BR,FEW,2000,BKN,3000,OVC,7000,,,IFR,,,,,,,,,,,,METAR,1266.0
LTCB 140250Z 17004KT 9999 BKN090 07/03 Q1006,LTCB,2019-01-14T02:50:00Z,40.97,38.07,7.0,3.0,170,4,,6.21,29.704725,,,,,,,,,,,BKN,9000,,,,,,,VFR,,,,,,,,,,,,METAR,5.0
LTBH 140250Z VRB02KT 9999 SCT030 BKN100 03/01 Q1004,LTBH,2019-01-14T02:50:00Z,40.13,26.42,3.0,1.0,0,2,,6.21,29.64567,,,,,,,,,,,SCT,3000,BKN,10000,,,,,VFR,,,,,,,,,,,,METAR,3.0
LTCE 140250Z VRB02KT 4600 1400E R26L/P1500U R08R/1500U R26R/1400D R08L/P1500U BR BKN025 BKN070 M09/M10 Q1005 BECMG TL0320 9999 NSW,LTCE,2019-01-14T02:50:00Z,39.95,41.17,-9.0,-10.0,0,2,,2.86,29.675198,,,,,,,,,,BR,BKN,2500,BKN,7000,,,,,IFR,,,,,,,,,,,,METAR,1758.0
LTCC 140250Z 28003KT 4000 -RASN BR FEW012 BKN035 OVC090 01/01 Q1008 NOSIG RMK RWY16 26002KT,LTCC,2019-01-14T02:50:00Z,37.87,40.2,1.0,1.0,280,3,,2.49,29.763779,,,,,,TRUE,,,,-RA -SN BR,FEW,1200,BKN,3500,OVC,9000,,,IFR,,,,,,,,,,,,METAR,677.0
LTBU 140250Z 00000KT CAVOK M00/M01 Q1003 RMK RWY22 23006KT,LTBU,2019-01-14T02:50:00Z,41.12,27.92,0.0,-1.0,0,0,,6.21,29.616142,,,,,,,,,,,CAVOK,,,,,,,,VFR,,,,,,,,,,,,SPECI,173.0
LTBF 140250Z 00000KT 9999 FEW020 BKN035 02/02 Q1006 NOSIG,LTBF,2019-01-14T02:50:00Z,39.62,27.92,2.0,2.0,0,0,,6.21,29.704725,,,,,,TRUE,,,,,FEW,2000,BKN,3500,,,,,VFR,,,,,,,,,,,,METAR,102.0
LTAU 140250Z 00000KT 9999 SCT040 BKN090 M05/M06 Q1006 NOSIG RMK RWY07 /////KT,LTAU,2019-01-14T02:50:00Z,38.77,35.47,-5.0,-6.0,0,0,,6.21,29.704725,,,,,,TRUE,,,,,SCT,4000,BKN,9000,,,,,VFR,,,,,,,,,,,,METAR,1054.0
LTAT 140250Z VRB02KT 7000 SCT015 BKN035 OVC090 M02/M02 Q1009 NOSIG RMK RWY03 20002KT,LTAT,2019-01-14T02:50:00Z,38.42,38.07,-2.0,-2.0,0,2,,4.35,29.793306,,,,,,TRUE,,,,,SCT,1500,BKN,3500,OVC,9000,,,MVFR,,,0.2,,,,,,,,,METAR,849.0
LTAP 140250Z 00000KT 4300 -RA BR FEW020 SCT031 BKN090 01/00 Q1004 NOSIG RMK RWY23 VRB01KT,LTAP,2019-01-14T02:50:00Z,40.83,35.52,1.0,0.0,0,0,,2.67,29.64567,,,,,,TRUE,,,,-RA BR,FEW,2000,SCT,3100,BKN,9000,,,IFR,,,,,,,,,,,,METAR,535.0
LTAN 140250Z VRB01KT 0300 R01/0375U R19/0375U FZFG VV001 M02/M03 Q1004 NOSIG,LTAN,2019-01-14T02:50:00Z,37.97,32.53,-2.0,-3.0,0,1,,0.19,29.64567,,,,,,TRUE,,,,FZFG,OVX,0,,,,,,,LIFR,,,,,,,,,,,100,METAR,1006.0
LTAG 140250Z 00000KT CAVOK 05/M01 Q1007 NOSIG,LTAG,2019-01-14T02:50:00Z,37.0,35.42,5.0,-1.0,0,0,,6.21,29.734253,,,,,,TRUE,,,,,CAVOK,,,,,,,,VFR,,,,,,,,,,,,METAR,66.0
LTFM 140250Z 19004KT 9999 FEW035 BKN100 00/M01 Q1004 RMK RWY17L 20005KT RWY34L 22007KT RWY16R 22005KT,LTFM,2019-01-14T02:50:00Z,41.27,28.75,0.0,-1.0,190,4,,6.21,29.64567,,,,,,,,,,,FEW,3500,BKN,10000,,,,,VFR,,,0.5,,,,,,,,,METAR,99.0
LTFJ 140250Z 21008KT 7000 BKN011 BKN022 04/01 Q1004 NOSIG RMK RWY24 20006KT,LTFJ,2019-01-14T02:50:00Z,40.9,29.3,4.0,1.0,210,8,,4.35,29.64567,,,,,,TRUE,,,,,BKN,1100,BKN,2200,,,,,MVFR,,,0.6,,,,,,,,,SPECI,98.0
LTFE 140250Z 13003KT 100V160 9999 SCT035 BKN100 05/05 Q1006 NOSIG RMK RWY10 14003KT 120V180,LTFE,2019-01-14T02:50:00Z,37.25,27.67,5.0,5.0,130,3,,6.21,29.704725,,,,,,TRUE,,,,,SCT,3500,BKN,10000,,,,,VFR,,,,,,,,,,,,METAR,6.0
LTFC 140250Z 33004KT 290V350 9000 SCT035 BKN080 03/02 Q1004 RMK RWY23 35004KT,LTFC,2019-01-14T02:50:00Z,37.87,30.38,3.0,2.0,330,4,,5.59,29.64567,,,,,,,,,,,SCT,3500,BKN,8000,,,,,VFR,,,,,,,,,,,,SPECI,864.0
LTCS 140250Z 01006KT 9999 BKN015 02/01 Q1008 RMK RWY22 04006KT,LTCS,2019-01-14T02:50:00Z,37.45,38.9,2.0,1.0,10,6,,6.21,29.763779,,,,,,,,,,,BKN,1500,,,,,,,MVFR,,,,,,,,,,,,METAR,825.0
LTCG 140250Z 19004KT 150V250 9999 FEW035 SCT100 07/05 Q1007 NOSIG RMK RWY29 VRB01KT,LTCG,2019-01-14T02:50:00Z,41.0,39.8,7.0,5.0,190,4,,6.21,29.734253,,,,,,TRUE,,,,,FEW,3500,SCT,10000,,,,,VFR,,,,,,,,,,,,METAR,30.0
LTBS 140250Z 03005KT 9999 SCT030 SCT070 08/07 Q1006 NOSIG RMK RWY19 32004KT,LTBS,2019-01-14T02:50:00Z,36.7,28.77,8.0,7.0,30,5,,6.21,29.704725,,,,,,TRUE,,,,,SCT,3000,SCT,7000,,,,,VFR,,,,,,,,,,,,METAR,2.0
LTBR 140250Z VRB01KT 4500 BR FEW012 BKN025 02/02 Q1004 NOSIG RMK RWY07 VRB02KT,LTBR,2019-01-14T02:50:00Z,40.25,29.57,2.0,2.0,0,1,,2.8,29.64567,,,,,,TRUE,,,,BR,FEW,1200,BKN,2500,,,,,IFR,,,,,,,,,,,,SPECI,232.0
LTBJ 140250Z VRB01KT 9999 SCT040 BKN100 04/03 Q1005 TEMPO FM0400 4000 BR,LTBJ,2019-01-14T02:50:00Z,38.28,27.15,4.0,3.0,0,1,,6.21,29.675198,,,,,,,,,,,SCT,4000,BKN,10000,,,,,VFR,,,,,,,,,,,,METAR,120.0
LTBA 140250Z 22011KT 9999 FEW015 SCT028 05/01 Q1004 NOSIG RMK RWY17L 24006KT RWY05 21010KT RWY23 24011KT,LTBA,2019-01-14T02:50:00Z,40.97,28.82,5.0,1.0,220,11,,6.21,29.64567,,,,,,TRUE,,,,,FEW,1500,SCT,2800,,,,,VFR,,,-1.0,,,,,,,,,METAR,37.0
LTAZ 140250Z 14010KT 9999 SCT040 BKN100 M01/M03 Q1005 RMK RWY29 18007KT,LTAZ,2019-01-14T02:50:00Z,38.77,34.55,-1.0,-3.0,140,10,,6.21,29.675198,,,,,,,,,,,SCT,4000,BKN,10000,,,,,VFR,,,,,,,,,,,,SPECI,945.0
LTAJ 140250Z 02007KT 7000 -RA SCT014 BKN035 03/00 Q1007 NOSIG RMK RWY10 02008KT,LTAJ,2019-01-14T02:50:00Z,36.95,37.48,3.0,0.0,20,7,,4.35,29.734253,,,,,,TRUE,,,,-RA,SCT,1400,BKN,3500,,,,,MVFR,,,,,,,,,,,,METAR,855.0
LTAI 140250Z 03004KT 360V070 9999 BKN030 08/06 Q1005 NOSIG RMK RWY18C VRB02KT RWY36R 03005KT 360V060 RWY18L 03004KT 010V080,LTAI,2019-01-14T02:50:00Z,36.9,30.8,8.0,6.0,30,4,,6.21,29.675198,,,,,,TRUE,,,,,BKN,3000,,,,,,,MVFR,,,,,,,,,,,,METAR,54.0
LTAF 140250Z 25003KT CAVOK 03/01 Q1007 NOSIG RMK RWY23 VRB02KT,LTAF,2019-01-14T02:50:00Z,36.97,35.28,3.0,1.0,250,3,,6.21,29.734253,,,,,,TRUE,,,,,CAVOK,,,,,,,,VFR,,,,,,,,,,,,METAR,20.0
LTAC 140250Z VRB01KT 2400 -RASN BR SCT008 BKN030 BKN090 01/00 Q1002 BECMG 4000,LTAC,2019-01-14T02:50:00Z,40.12,32.97,1.0,0.0,0,1,,1.49,29.586615,,,,,,,,,,-RA -SN BR,SCT,800,BKN,3000,BKN,9000,,,IFR,,,,,,,,,,,,SPECI,949.0
LCEN 140250Z 27006KT 9999 FEW025 06/05 Q1006 NOSIG RMK RWY11 27007KT,LCEN,2019-01-14T02:50:00Z,35.13,33.5,6.0,5.0,270,6,,6.21,29.704725,,,,,,TRUE,,,,,FEW,2500,,,,,,,VFR,,,,,,,,,,,,METAR,91.0
MMRX 140250Z 04003KT 10SM SCT030 12/08 A3032 RMK SLP264 52021 9// 8/500,MMRX,2019-01-14T02:50:00Z,26.02,-98.22,12.0,8.0,40,3,,10.0,30.318897,1026.4,,,,,,,,,,SCT,3000,,,,,,,VFR,2.1,,,,,,,,,,,METAR,39.0
LGAD 140250Z 00000KT 9999 FEW018 BKN025 07/06 Q1006,LGAD,2019-01-14T02:50:00Z,37.92,21.27,7.0,6.0,0,0,,6.21,29.704725,,,,,,,,,,,FEW,1800,BKN,2500,,,,,MVFR,,,,,,,,,,,,METAR,12.0
LCRA 140250Z 04002KT 9999 FEW035 07/05 Q1007 NOSIG,LCRA,2019-01-14T02:50:00Z,34.57,32.97,7.0,5.0,40,2,,6.21,29.734253,,,,,,TRUE,,,,,FEW,3500,,,,,,,VFR,,,,,,,,,,,,METAR,23.0
EGYM 140250Z 28011KT 9999 FEW040 05/03 Q1013 BLU,EGYM,2019-01-14T02:50:00Z,52.63,0.57,5.0,3.0,280,11,,6.21,29.911417,,,,,,,,,,,FEW,4000,,,,,,,VFR,,,,,,,,,,,,METAR,23.0
EGXV 140250Z AUTO 29011KT 9999 NCD 07/02 Q1013,EGXV,2019-01-14T02:50:00Z,53.87,-0.45,7.0,2.0,290,11,,6.21,29.911417,,,TRUE,,,,,,,,CLR,,,,,,,,VFR,,,,,,,,,,,,METAR,6.0
EGXC 140250Z 30010KT 9999 FEW040 06/03 Q1013 BLU,EGXC,2019-01-14T02:50:00Z,53.1,-0.17,6.0,3.0,300,10,,6.21,29.911417,,,,,,,,,,,FEW,4000,,,,,,,VFR,,,,,,,,,,,,METAR,7.0
KSBD 140250Z 00000KT 7SM BKN080 14/05 A3003,KSBD,2019-01-14T02:50:00Z,34.08,-117.25,14.0,5.0,0,0,,7.0,30.029528,,,,,,,,,,,BKN,8000,,,,,,,VFR,,,,,,,,,,,,METAR,353.0
KRHV 140250Z 19006KT 10SM FEW050 BKN150 12/06 A2993,KRHV,2019-01-14T02:50:00Z,37.32,-121.82,12.0,6.0,190,6,,10.0,29.929134,,,,,,,,,,,FEW,5000,BKN,15000,,,,,VFR,,,,,,,,,,,,METAR,41.0
KO86 140250Z AUTO 00000KT 10SM CLR 02/00 A3003 RMK AO1,KO86,2019-01-14T02:50:00Z,40.98,-122.7,2.0,0.0,0,0,,10.0,30.029528,,,TRUE,TRUE,,,,,,,CLR,,,,,,,,VFR,,,,,,,,,,,,METAR,729.0
OODQ 140250Z AUTO 10010KT 9999 SCT028 22/16 Q1018 NOSIG,OODQ,2019-01-14T02:50:00Z,19.52,57.65,22.0,16.0,100,10,,6.21,30.059055,,,TRUE,,,TRUE,,,,,SCT,2800,,,,,,,VFR,,,,,,,,,,,,METAR,0.0
OOSA 140250Z 31005KT 9999 FEW030 21/16 Q1017 NOSIG,OOSA,2019-01-14T02:50:00Z,17.02,54.07,21.0,16.0,310,5,,6.21,30.029528,,,,,,TRUE,,,,,FEW,3000,,,,,,,VFR,,,,,,,,,,,,METAR,20.0
OOMS 140250Z VRB02KT 9000 NSC 18/14 Q1019 NOSIG,OOMS,2019-01-14T02:50:00Z,23.57,58.27,18.0,14.0,0,2,,5.59,30.088583,,,,,,TRUE,,,,,CLR,,,,,,,,VFR,,,,,,,,,,,,METAR,8.0
KIDP 140250Z AUTO 36006KT 10SM OVC009 M01/M03 A3047 RMK AO2 T10111026,KIDP,2019-01-14T02:50:00Z,37.17,-95.78,-1.1,-2.6,360,6,,10.0,30.469488,,,TRUE,TRUE,,,,,,,OVC,900,,,,,,,IFR,,,,,,,,,,,,METAR,251.0
KI16 140250Z AUTO 4SM BR OVC007 02/02 A3019 RMK AO2 T00240020,KI16,2019-01-14T02:50:00Z,37.6,-81.57,2.4,2.0,,,,4.0,30.188976,,,TRUE,TRUE,,,,,,BR,OVC,700,,,,,,,IFR,,,,,,,,,,,,SPECI,544.0
KHBV 140250Z AUTO 00000KT 10SM OVC055 10/04 A3034 RMK AO2 T00950036,KHBV,2019-01-14T02:50:00Z,27.35,-98.73,9.5,3.6,0,0,,10.0,30.339567,,,TRUE,TRUE,,,,,,,OVC,5500,,,,,,,VFR,,,,,,,,,,,,METAR,202.0
KGVT 140250Z AUTO 35008KT 10SM OVC017 04/00 A3046 RMK AO2,KGVT,2019-01-14T02:50:00Z,33.07,-96.07,4.0,0.0,350,8,,10.0,30.46063,,,TRUE,TRUE,,,,,,,OVC,1700,,,,,,,MVFR,,,,,,,,,,,,METAR,163.0
KFYJ 140250Z AUTO 36006G14KT 10SM OVC012 00/M01 A3021 RMK AO1 T10011006,KFYJ,2019-01-14T02:50:00Z,37.52,-76.77,-0.1,-0.6,360,6,14,10.0,30.209646,,,TRUE,TRUE,,,,,,,OVC,1200,,,,,,,MVFR,,,,,,,,,,,,METAR,7.0
KEHY 140250Z AUTO 10SM CLR M15/M18 A3019 RMK AO2 PWINO,KEHY,2019-01-14T02:50:00Z,41.73,-106.47,-15.0,-18.0,,,,10.0,30.188976,,,TRUE,TRUE,,,,,TRUE,,CLR,,,,,,,,VFR,,,,,,,,,,,,METAR,2225.0
KEAN 140250Z AUTO 17012KT 10SM CLR M04/M11 A3021 RMK AO2 T10451115,KEAN,2019-01-14T02:50:00Z,42.05,-104.93,-4.5,-11.5,170,12,,10.0,30.209646,,,TRUE,TRUE,,,,,,,CLR,,,,,,,,VFR,,,,,,,,,,,,METAR,1456.0
KE11 140250Z AUTO 09008KT 10SM OVC041 00/M01 A3036 RMK AO2 T00011013,KE11,2019-01-14T02:50:00Z,32.33,-102.53,0.1,-1.3,90,8,,10.0,30.360237,,,TRUE,TRUE,,,,,,,OVC,4100,,,,,,,VFR,,,,,,,,,,,,METAR,967.0
KDWX 140250Z AUTO 00000KT 10SM CLR M20/M22 A3033 RMK AO2 T11991222,KDWX,2019-01-14T02:50:00Z,41.03,-107.5,-19.9,-22.2,0,0,,10.0,30.33071,,,TRUE,TRUE,,,,,,,CLR,,,,,,,,VFR,,,,,,,,,,,,METAR,1996.0
KCPU 140250Z AUTO 00000KT 10SM CLR 09/04 A3000 RMK AO2 T00940043,KCPU,2019-01-14T02:50:00Z,38.15,-120.65,9.4,4.3,0,0,,10.0,30.0,,,TRUE,TRUE,,,,,,,CLR,,,,,,,,VFR,,,,,,,,,,,,METAR,404.0
KCJR 140250Z AUTO 01006KT 4SM -SN SCT010 BKN044 OVC050 M01/M03 A3028 RMK AO2 T10101027,KCJR,2019-01-14T02:50:00Z,38.53,-77.87,-1.0,-2.7,10,6,,4.0,30.280512,,,TRUE,TRUE,,,,,,-SN,SCT,1000,BKN,4400,OVC,5000,,,MVFR,,,,,,,,,,,,METAR,97.0
KBMC 140250Z AUTO 01003KT 10SM OVC012 M05/M08 A3033 RMK AO1 T10511081,KBMC,2019-01-14T02:50:00Z,41.55,-112.07,-5.1,-8.1,10,3,,10.0,30.33071,,,TRUE,TRUE,,,,,,,OVC,1200,,,,,,,MVFR,,,,,,,,,,,,METAR,1288.0
KAQO 140250Z AUTO 03005KT 10SM CLR 06/01 A3044 RMK AO2,KAQO,2019-01-14T02:50:00Z,30.78,-98.67,6.0,1.0,30,5,,10.0,30.43996,,,TRUE,TRUE,,,,,,,CLR,,,,,,,,VFR,,,,,,,,,,,,METAR,336.0
K3J7 140250Z AUTO 00000KT 7SM OVC008 07/06 A3015 RMK AO2,K3J7,2019-01-14T02:50:00Z,33.6,-83.13,7.0,6.0,0,0,,7.0,30.15059,,,TRUE,TRUE,,,,,,,OVC,800,,,,,,,IFR,,,,,,,,,,,,METAR,206.0
K17J 140250Z AUTO 35003KT 10SM OVC031 09/06 A3024 RMK AO2 T00870059,K17J,2019-01-14T02:50:00Z,31.07,-84.92,8.7,5.9,350,3,,10.0,30.239174,,,TRUE,TRUE,,,,,,,OVC,3100,,,,,,,VFR,,,,,,,,,,,,METAR,45.0
KTRK 140250Z AUTO 00000KT 10SM CLR M05/M08 A3007 RMK AO2,KTRK,2019-01-14T02:50:00Z,39.32,-120.12,-5.0,-8.0,0,0,,10.0,30.070866,,,TRUE,TRUE,,,,,,,CLR,,,,,,,,VFR,,,,,,,,,,,,METAR,1798.0
KSFQ 140250Z AUTO 00000KT 10SM OVC008 02/02 A3014 RMK AO2 60002 T00170017,KSFQ,2019-01-14T02:50:00Z,36.68,-76.6,1.7,1.7,0,0,,10.0,30.138779,,,TRUE,TRUE,,,,,,,OVC,800,,,,,,,IFR,,,,,,,0.02,,,,,METAR,22.0
KSEF 140250Z AUTO 27004KT 10SM SCT060 20/16 A3016 RMK AO2 T01970162,KSEF,2019-01-14T02:50:00Z,27.45,-81.35,19.7,16.2,270,4,,10.0,30.159449,,,TRUE,TRUE,,,,,,,SCT,6000,,,,,,,VFR,,,,,,,,,,,,METAR,19.0
KOYM 140250Z AUTO 06004KT 10SM CLR M07/M13 A3025 RMK AO2,KOYM,2019-01-14T02:50:00Z,41.42,-78.5,-7.0,-13.0,60,4,,10.0,30.250984,,,TRUE,TRUE,,,,,,,CLR,,,,,,,,VFR,,,,,,,,,,,,SPECI,590.0
KNOW 140250Z AUTO 20003KT 10SM CLR 05/04 A3016 RMK AO2 T00510035,KNOW,2019-01-14T02:50:00Z,48.13,-123.4,5.1,3.5,200,3,,10.0,30.159449,,,TRUE,TRUE,,,,,,,CLR,,,,,,,,VFR,,,,,,,,,,,,METAR,4.0
LTBQ 140250Z 00000KT 6000 BKN012 BKN020 02/02 Q1005 TEMPO FM0400 3200 BR,LTBQ,2019-01-14T02:50:00Z,40.72,30.07,2.0,2.0,0,0,,3.73,29.675198,,,,,,,,,,,BKN,1200,BKN,2000,,,,,MVFR,,,,,,,,,,,,SPECI,50.0
LTCO 140250Z 00000KT 2300 BR OVC020 M10/M12 Q1007,LTCO,2019-01-14T02:50:00Z,39.65,43.03,-10.0,-12.0,0,0,,1.43,29.734253,,,,,,,,,,BR,OVC,2000,,,,,,,IFR,,,,,,,,,,,,METAR,1665.0
OOSH 140250Z AUTO 24003KT //// 20/14 Q1018,OOSH,2019-01-14T02:50:00Z,24.55,56.62,20.0,14.0,240,3,,,30.059055,,,TRUE,,,,,,,,,,,,,,,,,,,,,,,,,,,,METAR,35.0
EGXS 140250Z AUTO 28013KT 9999 // NCD 06/03 Q1013,EGXS,2019-01-14T02:50:00Z,53.48,0.15,6.0,3.0,280,13,,6.21,29.911417,,,TRUE,,,,,,,,CLR,,,,,,,,VFR,,,,,,,,,,,,METAR,3.0
EGXP 140250Z AUTO 30011KT 9999 // NCD 06/04 Q1013,EGXP,2019-01-14T02:50:00Z,53.3,-0.55,6.0,4.0,300,11,,6.21,29.911417,,,TRUE,,,,,,,,CLR,,,,,,,,VFR,,,,,,,,,,,,METAR,61.0
EGDR 140250Z 34008KT 9999 OVC028 09/04 Q1023 BLU,EGDR,2019-01-14T02:50:00Z,50.08,-5.25,9.0,4.0,340,8,,6.21,30.206694,,,,,,,,,,,OVC,2800,,,,,,,MVFR,,,,,,,,,,,,METAR,82.0
EGDM 140250Z AUTO 30012KT 9999 NCD 06/02 Q1018,EGDM,2019-01-14T02:50:00Z,51.17,-1.75,6.0,2.0,300,12,,6.21,30.059055,,,TRUE,,,,,,,,CLR,,,,,,,,VFR,,,,,,,,,,,,SPECI,124.0
LIRN 140250Z 33003KT 270V350 8000 SCT060 05/04 Q1005 NOSIG,LIRN,2019-01-14T02:50:00Z,40.88,14.3,5.0,4.0,330,3,,4.97,29.675198,,,,,,TRUE,,,,,SCT,6000,,,,,,,MVFR,,,,,,,,,,,,METAR,72.0
LIRF 140250Z 10007KT 9999 FEW020 SCT045 06/04 Q1005 NOSIG,LIRF,2019-01-14T02:50:00Z,41.78,12.22,6.0,4.0,100,7,,6.21,29.675198,,,,,,TRUE,,,,,FEW,2000,SCT,4500,,,,,VFR,,,,,,,,,,,,METAR,3.0
LIRA 140250Z 11004KT CAVOK 08/06 Q1005,LIRA,2019-01-14T02:50:00Z,41.8,12.58,8.0,6.0,110,4,,6.21,29.675198,,,,,,,,,,,CAVOK,,,,,,,,VFR,,,,,,,,,,,,METAR,101.0
LIML 140250Z 27008KT CAVOK 09/04 Q1000 NOSIG,LIML,2019-01-14T02:50:00Z,45.47,9.27,9.0,4.0,270,8,,6.21,29.52756,,,,,,TRUE,,,,,CAVOK,,,,,,,,VFR,,,,,,,,,,,,METAR,103.0
LIMJ 140250Z VRB02KT 9999 SCT025 BKN030 11/06 Q1003,LIMJ,2019-01-14T02:50:00Z,44.42,8.83,11.0,6.0,0,2,,6.21,29.616142,,,,,,,,,,,SCT,2500,BKN,3000,,,,,MVFR,,,,,,,,,,,,METAR,3.0
LIMF 140250Z VRB06KT CAVOK 14/M01 Q1000,LIMF,2019-01-14T02:50:00Z,45.22,7.65,14.0,-1.0,0,6,,6.21,29.52756,,,,,,,,,,,CAVOK,,,,,,,,VFR,,,,,,,,,,,,METAR,287.0
LIME 140250Z 28003KT 240V340 CAVOK 03/M01 Q0999 NOSIG,LIME,2019-01-14T02:50:00Z,45.67,9.68,3.0,-1.0,280,3,,6.21,29.498032,,,,,,TRUE,,,,,CAVOK,,,,,,,,VFR,,,,,,,,,,,,METAR,237.0
LIMC 140250Z 23006KT 200V340 CAVOK 03/M01 Q1001 NOSIG,LIMC,2019-01-14T02:50:00Z,45.62,8.72,3.0,-1.0,230,6,,6.21,29.557087,,,,,,TRUE,,,,,CAVOK,,,,,,,,VFR,,,,,,,,,,,,METAR,211.0
LIEO 140250Z 26017KT 9999 SCT030 14/09 Q1006,LIEO,2019-01-14T02:50:00Z,40.88,9.52,14.0,9.0,260,17,,6.21,29.704725,,,,,,,,,,,SCT,3000,,,,,,,VFR,,,,,,,,,,,,METAR,13.0
LIEE 140250Z 32021G32KT 9999 -DZRA SCT040 13/09 Q1010,LIEE,2019-01-14T02:50:00Z,39.25,9.07,13.0,9.0,320,21,32,6.21,29.822834,,,,,,,,,,-DZ -RA,SCT,4000,,,,,,,VFR,,,,,,,,,,,,METAR,4.0
LIEA 140250Z 30013KT 260V330 9999 BKN025 14/09 Q1010,LIEA,2019-01-14T02:50:00Z,40.62,8.27,14.0,9.0,300,13,,6.21,29.822834,,,,,,,,,,,BKN,2500,,,,,,,MVFR,,,,,,,,,,,,METAR,23.0
LGTS 140250Z VRB03KT 9999 FEW020 M03/M06 Q1005 NOSIG,LGTS,2019-01-14T02:50:00Z,40.52,22.97,-3.0,-6.0,0,3,,6.21,29.675198,,,,,,TRUE,,,,,FEW,2000,,,,,,,VFR,,,,,,,,,,,,METAR,7.0
LGSM 140250Z 00000KT 9999 FEW018 06/05 Q1005,LGSM,2019-01-14T02:50:00Z,37.68,26.92,6.0,5.0,0,0,,6.21,29.675198,,,,,,,,,,,FEW,1800,,,,,,,VFR,,,,,,,,,,,,METAR,6.0
LGSA 140250Z 26007KT 9999 -RA FEW020 BKN030 09/06 Q1005,LGSA,2019-01-14T02:50:00Z,35.53,24.13,9.0,6.0,260,7,,6.21,29.675198,,,,,,,,,,-RA,FEW,2000,BKN,3000,,,,,MVFR,,,,,,,,,,,,METAR,135.0
LGLM 140250Z 00000KT 9999 SCT030 03/02 Q1004,LGLM,2019-01-14T02:50:00Z,39.92,25.23,3.0,2.0,0,0,,6.21,29.64567,,,,,,,,,,,SCT,3000,,,,,,,VFR,,,,,,,,,,,,METAR,5.0
LGKL 140250Z AUTO VRB03KT //// -RA ////// 05/04 Q1006 RE//,LGKL,2019-01-14T02:50:00Z,37.07,22.02,5.0,4.0,0,3,,,29.704725,,,TRUE,,,,,,,-RA,,,,,,,,,,,,,,,,,,,,,METAR,8.0
LGSO 140250Z AUTO 19004KT //// // ////// 09/06 Q1004 RE//,LGSO,2019-01-14T02:50:00Z,37.42,24.95,9.0,6.0,190,4,,,29.64567,,,TRUE,,,,,,,,,,,,,,,,,,,,,,,,,,,,SPECI,72.0
LGPA 140250Z AUTO 10005KT //// // ////// 07/06 Q1004 RE//,LGPA,2019-01-14T02:50:00Z,37.0,25.13,7.0,6.0,100,5,,,29.64567,,,TRUE,,,,,,,,,,,,,,,,,,,,,,,,,,,,SPECI,36.0
LGKP 140250Z AUTO 25012KT //// // ////// 12/06 Q1006 RE//,LGKP,2019-01-14T02:50:00Z,35.42,27.15,12.0,6.0,250,12,,,29.704725,,,TRUE,,,,,,,,,,,,,,,,,,,,,,,,,,,,METAR,20.0
LGBL 140250Z 27005KT CAVOK M01/M04 Q1006,LGBL,2019-01-14T02:50:00Z,39.22,22.8,-1.0,-4.0,270,5,,6.21,29.704725,,,,,,,,,,,CAVOK,,,,,,,,VFR,,,,,,,,,,,,METAR,26.0
ELLX 140250Z 30010KT 270V330 9999 SCT019 BKN025 05/02 Q1008 NOSIG,ELLX,2019-01-14T02:50:00Z,49.63,6.2,5.0,2.0,300,10,,6.21,29.763779,,,,,,TRUE,,,,,SCT,1900,BKN,2500,,,,,MVFR,,,,,,,,,,,,METAR,379.0
EBOS 140250Z 31013KT 9999 BKN024 07/04 Q1013 NOSIG,EBOS,2019-01-14T02:50:00Z,51.2,2.87,7.0,4.0,310,13,,6.21,29.911417,,,,,,TRUE,,,,,BKN,2400,,,,,,,MVFR,,,,,,,,,,,,METAR,5.0
EBLG 140250Z 29009KT 9999 -SHRA BKN016 06/04 Q1010 NOSIG,EBLG,2019-01-14T02:50:00Z,50.63,5.45,6.0,4.0,290,9,,6.21,29.822834,,,,,,TRUE,,,,-SHRA,BKN,1600,,,,,,,MVFR,,,,,,,,,,,,METAR,178.0
EBCI 140250Z 30009KT 260V330 9999 FEW010 BKN016 06/04 Q1011 NOSIG,EBCI,2019-01-14T02:50:00Z,50.47,4.45,6.0,4.0,300,9,,6.21,29.852362,,,,,,TRUE,,,,,FEW,1000,BKN,1600,,,,,MVFR,,,,,,,,,,,,METAR,192.0
EBBR 140250Z 30012KT 9999 FEW021 BKN040 07/04 Q1011 NOSIG,EBBR,2019-01-14T02:50:00Z,50.9,4.5,7.0,4.0,300,12,,6.21,29.852362,,,,,,TRUE,,,,,FEW,2100,BKN,4000,,,,,VFR,,,,,,,,,,,,METAR,58.0
EBAW 140250Z AUTO 32016KT 9999 // FEW021/// SCT042/// 08/05 Q1010,EBAW,2019-01-14T02:50:00Z,51.2,4.47,8.0,5.0,320,16,,6.21,29.822834,,,TRUE,,,,,,,,FEW,2100,SCT,4200,,,,,VFR,,,,,,,,,,,,METAR,14.0
LGSR 140250Z AUTO 36010KT //// -RA ////// 12/06 Q1004 RE//,LGSR,2019-01-14T02:50:00Z,36.4,25.48,12.0,6.0,360,10,,,29.64567,,,TRUE,,,,,,,-RA,,,,,,,,,,,,,,,,,,,,,METAR,40.0
LGRX 140250Z VRB03KT 9999 FEW015 BKN025 08/07 Q1006 RMK SCT080 BLU,LGRX,2019-01-14T02:50:00Z,38.17,21.42,8.0,7.0,0,3,,6.21,29.704725,,,,,,,,,,,FEW,1500,BKN,2500,,,,,MVFR,,,,,,,,,,,,METAR,15.0
LIBD 140250Z 23006KT CAVOK 05/02 Q1004,LIBD,2019-01-14T02:50:00Z,41.12,16.77,5.0,2.0,230,6,,6.21,29.64567,,,,,,,,,,,CAVOK,,,,,,,,VFR,,,,,,,,,,,,METAR,44.0
LIRQ 140250Z VRB02KT 7000 BKN035 05/04 Q1003,LIRQ,2019-01-14T02:50:00Z,43.78,11.18,5.0,4.0,0,2,,4.35,29.616142,,,,,,,,,,,BKN,3500,,,,,,,MVFR,,,,,,,,,,,,METAR,38.0
LIPQ 140250Z AUTO 02006KT 9999 BKN029/// 02/01 Q1000,LIPQ,2019-01-14T02:50:00Z,45.82,13.47,2.0,1.0,20,6,,6.21,29.52756,,,TRUE,,,,,,,,BKN,2900,,,,,,,MVFR,,,,,,,,,,,,METAR,12.0
LIPH 140250Z AUTO 35005KT 310V010 4600 BR NCD M01/M02 Q1000,LIPH,2019-01-14T02:50:00Z,45.63,12.17,-1.0,-2.0,350,5,,2.86,29.52756,,,TRUE,,,,,,,BR,CLR,,,,,,,,IFR,,,,,,,,,,,,METAR,23.0
LICJ 140250Z 20010KT 9999 SCT030 11/08 Q1009,LICJ,2019-01-14T02:50:00Z,38.17,13.08,11.0,8.0,200,10,,6.21,29.793306,,,,,,,,,,,SCT,3000,,,,,,,VFR,,,,,,,,,,,,METAR,34.0
LICC 140250Z VRB02KT 9999 FEW050 06/05 Q1009,LICC,2019-01-14T02:50:00Z,37.47,15.05,6.0,5.0,0,2,,6.21,29.793306,,,,,,,,,,,FEW,5000,,,,,,,VFR,,,,,,,,,,,,METAR,17.0
LIPR 140250Z AUTO 33005KT 290V350 9999 FEW210/// 06/03 Q1000,LIPR,2019-01-14T02:50:00Z,44.02,12.62,6.0,3.0,330,5,,6.21,29.52756,,,TRUE,,,,,,,,FEW,21000,,,,,,,VFR,,,,,,,,,,,,METAR,13.0
ENBN 140250Z AUTO 31004KT 280V360 9999NDV BKN041/// M03/M06 Q0976,ENBN,2019-01-14T02:50:00Z,65.47,12.22,-3.0,-6.0,310,4,,,28.818897,,,TRUE,,,,,,,,BKN,4100,,,,,,,,,,,,,,,,,,,METAR,9.0
LIPZ 140250Z 21004KT 3500 BR NSC M02/M03 Q0999 NOSIG,LIPZ,2019-01-14T02:50:00Z,45.5,12.35,-2.0,-3.0,210,4,,2.17,29.498032,,,,,,TRUE,,,,BR,CLR,,,,,,,,IFR,,,,,,,,,,,,METAR,6.0
LIPX 140250Z VRB02KT CAVOK M03/M04 Q1000,LIPX,2019-01-14T02:50:00Z,45.38,10.87,-3.0,-4.0,0,2,,6.21,29.52756,,,,,,,,,,,CAVOK,,,,,,,,VFR,,,,,,,,,,,,METAR,68.0
NSTU 140250Z VRB02KT 12SM FEW019 SCT130 BKN230 32/25 A2964 RMK SLP039 8/171 T03150247 56012,NSTU,2019-01-14T02:50:00Z,-14.33,-170.72,31.5,24.7,0,2,,12.0,29.639763,1003.9,,,,,,,,,,FEW,1900,SCT,13000,BKN,23000,,,VFR,-1.2,,,,,,,,,,,SPECI,3.0
LSZL 140250Z AUTO VRB02KT 9999NDV SCT093 08/05 Q1003 RMK,LSZL,2019-01-14T02:50:00Z,46.17,8.88,8.0,5.0,0,2,,,29.616142,,,TRUE,,,,,,,,SCT,9300,,,,,,,,,,,,,,,,,,,METAR,600.0
EGDY 140250Z 28007KT 9999 BKN040 08/04 Q1020 BLU,EGDY,2019-01-14T02:50:00Z,51.0,-2.62,8.0,4.0,280,7,,6.21,30.11811,,,,,,,,,,,BKN,4000,,,,,,,VFR,,,,,,,,,,,,METAR,23.0
EGQS 140250Z 31009KT 9999 FEW020 SCT038 BKN080 03/00 Q1015 BLU,EGQS,2019-01-14T02:50:00Z,57.72,-3.32,3.0,0.0,310,9,,6.21,29.970472,,,,,,,,,,,FEW,2000,SCT,3800,BKN,8000,,,VFR,,,,,,,,,,,,METAR,13.0
EGQM 140250Z AUTO 33007KT 9999 -DZ SCT010/// BKN028/// 05/04 Q1013,EGQM,2019-01-14T02:50:00Z,55.42,-1.6,5.0,4.0,330,7,,6.21,29.911417,,,TRUE,,,,,,,-DZ,SCT,1000,BKN,2800,,,,,MVFR,,,,,,,,,,,,METAR,23.0
LGRP 140250Z 12004KT 9999 FEW018TCU SCT025 10/08 Q1005 NOSIG,LGRP,2019-01-14T02:50:00Z,36.4,28.08,10.0,8.0,120,4,,6.21,29.675198,,,,,,TRUE,,,,,FEW,1800,SCT,2500,,,,,VFR,,,,,,,,,,,,METAR,5.0
LGKR 140250Z 00000KT 9999 FEW025 BKN040 04/02 Q1005 NOSIG,LGKR,2019-01-14T02:50:00Z,39.62,19.92,4.0,2.0,0,0,,6.21,29.675198,,,,,,TRUE,,,,,FEW,2500,BKN,4000,,,,,VFR,,,,,,,,,,,,METAR,2.0
LGIR 140250Z 16006KT 9999 SCT025 SCT080 09/07 Q1006 NOSIG,LGIR,2019-01-14T02:50:00Z,35.32,25.17,9.0,7.0,160,6,,6.21,29.704725,,,,,,TRUE,,,,,SCT,2500,SCT,8000,,,,,VFR,,,,,,,,,,,,METAR,39.0
LGAV 140250Z VRB01KT 9999 SCT030 BKN070 05/03 Q1005 NOSIG,LGAV,2019-01-14T02:50:00Z,37.93,23.95,5.0,3.0,0,1,,6.21,29.675198,,,,,,TRUE,,,,,SCT,3000,BKN,7000,,,,,VFR,,,,,,,,,,,,METAR,94.0
ENFL 140250Z AUTO 35024G35KT 310V020 4200NDV -SHRA FEW017/// SCT022/// BKN041/// M01/M05 Q0997,ENFL,2019-01-14T02:50:00Z,61.57,5.02,-1.0,-5.0,350,24,35,,29.438976,,,TRUE,,,,,,,-SHRA,FEW,1700,SCT,2200,BKN,4100,,,,,,,,,,,,,,,METAR,9.0
ENEV 140250Z AUTO 02003KT 9999 SCT014/// OVC098/// M13/M14 Q0979 RMK WIND 1400FT 03004KT,ENEV,2019-01-14T02:50:00Z,68.52,16.67,-13.0,-14.0,20,3,,6.21,28.90748,,,TRUE,,,,,,,,SCT,1400,OVC,9800,,,,,VFR,,,,,,,,,,,,METAR,26.0
ENAT 140250Z AUTO 21005KT 9999 NCD M10/M13 Q0980 RMK WIND 700FT 18005KT,ENAT,2019-01-14T02:50:00Z,69.97,23.37,-10.0,-13.0,210,5,,6.21,28.937008,,,TRUE,,,,,,,,CLR,,,,,,,,VFR,,,,,,,,,,,,METAR,3.0
EETU 140250Z 16007KT 9999 3800W -SN FEW008 BKN010 OVC018 01/00 Q0972,EETU,2019-01-14T02:50:00Z,58.32,26.68,1.0,0.0,160,7,,6.21,28.700787,,,,,,,,,,-SN,FEW,800,BKN,1000,OVC,1800,,,MVFR,,,,,,,,,,,,SPECI,67.0
EEKE 140250Z AUTO 32004KT 290V350 7000NDV -SN OVC003 00/00 Q0971,EEKE,2019-01-14T02:50:00Z,58.23,22.52,0.0,0.0,320,4,,,28.671259,,,TRUE,,,,,,,-SN,OVC,300,,,,,,,,,,,,,,,,,,,SPECI,4.0
ENHF 140250Z VRB01KT CAVOK M07/M09 Q0978 RMK WIND 1254FT 12003KT,ENHF,2019-01-14T02:50:00Z,70.67,23.67,-7.0,-9.0,0,1,,6.21,28.877953,,,,,,,,,,,CAVOK,,,,,,,,VFR,,,,,,,,,,,,METAR,81.0
ENKB 140250Z AUTO 27027G42KT 9999 SCT024/// BKN041/// 01/M05 Q0986 RESHUP RMK WIND 745FT 29045G55KT,ENKB,2019-01-14T02:50:00Z,63.12,7.82,1.0,-5.0,270,27,42,6.21,29.114174,,,TRUE,,,,,,,,SCT,2400,BKN,4100,,,,,VFR,,,,,,,,,,,,METAR,62.0
ENKR 140250Z AUTO 18004KT 9999 SCT030/// M10/M11 Q0978 RMK WIND 731FT 32003KT,ENKR,2019-01-14T02:50:00Z,69.72,29.88,-10.0,-11.0,180,4,,6.21,28.877953,,,TRUE,,,,,,,,SCT,3000,,,,,,,VFR,,,,,,,,,,,,METAR,91.0
EGGP 140250Z AUTO 29018KT 9999 FEW013/// SCT046/// 08/05 Q1017,EGGP,2019-01-14T02:50:00Z,53.32,-2.85,8.0,5.0,290,18,,6.21,30.029528,,,TRUE,,,,,,,,FEW,1300,SCT,4600,,,,,VFR,,,,,,,,,,,,METAR,26.0
ENWV 140250Z AUTO 33035KT 9999NDV FEW029/// BKN053/// 04/M02 Q1005 W///S6,ENWV,2019-01-14T02:50:00Z,,,4.0,-2.0,330,35,,,29.675198,,,TRUE,,,,,,,,FEW,2900,BKN,5300,,,,,,,,,,,,,,,,,METAR,
ENUG 140250Z AUTO VRB05KT 9999NDV BKN150/// 02/M05 Q0977 W06/S4,ENUG,2019-01-14T02:50:00Z,,,2.0,-5.0,0,5,,,28.848425,,,TRUE,,,,,,,,BKN,15000,,,,,,,,,,,,,,,,,,,METAR,
ENLA 140250Z AUTO 32043KT //// SCT035/// BKN067/// 04/M03 Q//// W///S6,ENLA,2019-01-14T02:50:00Z,57.1,2.83,4.0,-3.0,320,43,,,,,,TRUE,,,,,,,,SCT,3500,BKN,6700,,,,,,,,,,,,,,,,,METAR,4.0
ENSE 140250Z AUTO 33050G61KT 9999NDV -SN FEW026/// SCT081/// 00/M05 Q1000 REFZDZ W///S7,ENSE,2019-01-14T02:50:00Z,61.45,2.15,0.0,-5.0,330,50,61,,29.52756,,,TRUE,,,,,,,-SN,FEW,2600,SCT,8100,,,,,,,,,,,,,,,,,METAR,10.0
ENQR 140250Z AUTO 32048KT 2100NDV BKN027/// BKN080/// M01/// Q1001 W///S7,ENQR,2019-01-14T02:50:00Z,61.35,2.22,,,320,48,,,29.557087,,,TRUE,,,,,,,,BKN,2700,BKN,8000,,,,,,,,,,,,,,,,,METAR,10.0
ENNE 140250Z AUTO 36050KT 9999NDV SCT037/// 04/M04 Q0979 W///S7,ENNE,2019-01-14T02:50:00Z,66.03,8.08,4.0,-4.0,360,50,,,28.90748,,,TRUE,,,,,,,,SCT,3700,,,,,,,,,,,,,,,,,,,METAR,10.0
ENNA 140250Z AUTO VRB02KT 9999 OVC044/// M12/M14 Q0979 RMK WIND 1800FT 12006KT,ENNA,2019-01-14T02:50:00Z,70.07,24.97,-12.0,-14.0,0,2,,6.21,28.90748,,,TRUE,,,,,,,,OVC,4400,,,,,,,VFR,,,,,,,,,,,,METAR,8.0
ENML 140250Z AUTO 28024G34KT 250V310 9999NDV -SHRA BKN052/// 00/M08 Q0990,ENML,2019-01-14T02:50:00Z,62.75,7.27,0.0,-8.0,280,24,34,,29.232283,,,TRUE,,,,,,,-SHRA,BKN,5200,,,,,,,,,,,,,,,,,,,METAR,3.0
EDFH 140250Z 30014KT 9999 BKN015 04/02 Q1006,EDFH,2019-01-14T02:50:00Z,49.95,7.27,4.0,2.0,300,14,,6.21,29.704725,,,,,,,,,,,BKN,1500,,,,,,,MVFR,,,,,,,,,,,,METAR,498.0
ETNH 140249Z 31021G39KT 8000 FEW018TCU BKN045 03/M01 Q0998 BLU,ETNH,2019-01-14T02:49:00Z,54.32,9.55,3.0,-1.0,310,21,39,4.97,29.468504,,,,,,,,,,,FEW,1800,BKN,4500,,,,,MVFR,,,,,,,,,,,,SPECI,17.0
EKCH 140249Z 33013KT 300V360 9999 SCT011 BKN081 01/M01 Q0989 R04L/590225 R04R/590239 R12/550259 TEMPO 32022G35KT 3000 BKN010CB,EKCH,2019-01-14T02:49:00Z,55.62,12.67,1.0,-1.0,330,13,,6.21,29.202755,,,,,,,,,,,SCT,1100,BKN,8100,,,,,VFR,,,,,,,,,,,,METAR,5.0
KAEG 140249Z 02007KT 10SM OVC017 00/M01 A3025,KAEG,2019-01-14T02:49:00Z,35.13,-106.8,0.0,-1.0,20,7,,10.0,30.250984,,,,,,,,,,,OVC,1700,,,,,,,MVFR,,,,,,,,,,,,METAR,1779.0
MMGL 140249Z 29004KT 8SM SCT030 15/07 A3025 RMK SLP170 52024 924 8/500 AC,MMGL,2019-01-14T02:49:00Z,20.52,-103.32,15.0,7.0,290,4,,8.0,30.250984,1017.0,,,,,,,,,,SCT,3000,,,,,,,VFR,2.4,,,,,,,,,,,METAR,1528.0
MMCU 140249Z 11007KT 10SM SKC 11/00 A3017 RMK SLP213 52021 953,MMCU,2019-01-14T02:49:00Z,28.7,-105.97,11.0,0.0,110,7,,10.0,30.171259,1021.3,,,,,,,,,,SKC,,,,,,,,VFR,2.1,,,,,,,,,,,METAR,1372.0
MMTJ 140249Z 00000KT 8SM BKN200 12/10 A3006 RMK SLP188 54000 955 8/008 HZY,MMTJ,2019-01-14T02:49:00Z,32.53,-116.97,12.0,10.0,0,0,,8.0,30.059055,1018.8,,,,,,,,,,BKN,20000,,,,,,,VFR,,,,,,,,,,,,METAR,152.0
MMSL 140249Z 00000KT 7SM SKC 19/14 A3007,MMSL,2019-01-14T02:49:00Z,22.95,-109.93,19.0,14.0,0,0,,7.0,30.070866,,,,,,,,,,,SKC,,,,,,,,VFR,,,,,,,,,,,,METAR,140.0
KBJC 140249Z 00000KT 30SM FEW090 00/M07 A3022,KBJC,2019-01-14T02:49:00Z,39.9,-105.1,0.0,-7.0,0,0,,30.0,30.221457,,,,,,,,,,,FEW,9000,,,,,,,VFR,,,,,,,,,,,,METAR,1724.0
ENOA 140248Z 36043G60KT 8000 -SHSNRA FEW010 BKN025 M01/M03 Q1000 W///S7,ENOA,2019-01-14T02:48:00Z,60.5,2.83,-1.0,-3.0,360,43,60,4.97,29.52756,,,,,,,,,,-SHSN -SHRA,FEW,1000,BKN,2500,,,,,MVFR,,,,,,,,,,,,METAR,5.0
KASG 140248Z 34007KT 5SM BR BKN008 OVC013 00/00 A3042,KASG,2019-01-14T02:48:00Z,36.17,-94.12,0.0,0.0,340,7,,5.0,30.41929,,,,,,,,,,BR,BKN,800,OVC,1300,,,,,IFR,,,,,,,,,,,,METAR,412.0
KSQL 140248Z 27003KT 10SM BKN180 12/08 A2995,KSQL,2019-01-14T02:48:00Z,37.52,-122.25,12.0,8.0,270,3,,10.0,29.949802,,,,,,,,,,,BKN,18000,,,,,,,VFR,,,,,,,,,,,,METAR,1.0
MMMM 140248Z 00000KT 6SM SCT030 SCT090 SCT230 12/12 A3031 RMK SLP166 52014 951 8/532 RWY WET,MMMM,2019-01-14T02:48:00Z,19.85,-101.02,12.0,12.0,0,0,,6.0,30.31004,1016.6,,,,,,,,,,SCT,3000,SCT,9000,SCT,23000,,,VFR,1.4,,,,,,,,,,,METAR,1833.0
KJDN 140248Z AUTO 28004KT M07/M09 A3013 RMK AO1 SLP251 T10721094 55001,KJDN,2019-01-14T02:48:00Z,47.33,-106.95,-7.2,-9.4,280,4,,,30.129921,1025.1,,TRUE,TRUE,,,,,,,,,,,,,,,,-0.1,,,,,,,,,,,SPECI,801.0
KRYY 140248Z 28007KT 5SM BR OVC008 07/06 A3021 RMK AO2 SLP951 T00670056 51009,KRYY,2019-01-14T02:48:00Z,34.02,-84.6,6.7,5.6,280,7,,5.0,30.209646,995.1,,,TRUE,,,,,,BR,OVC,800,,,,,,,IFR,0.9,,,,,,,,,,,METAR,317.0
MMAA 140248Z 28003KT 6SM FEW300 26/23 A2996 RMK SLP146 52028 915 8/002 HZY,MMAA,2019-01-14T02:48:00Z,16.75,-99.75,26.0,23.0,280,3,,6.0,29.958662,1014.6,,,,,,,,,,FEW,30000,,,,,,,VFR,2.8,,,,,,,,,,,METAR,5.0
KEVB 140247Z 00000KT 10SM BKN060 19/16 A3014 RMK LAST,KEVB,2019-01-14T02:47:00Z,29.05,-80.95,19.0,16.0,0,0,,10.0,30.138779,,,,,,,,,,,BKN,6000,,,,,,,VFR,,,,,,,,,,,,SPECI,3.0
KPOC 140247Z 00000KT 10SM SCT080 12/07 A3003,KPOC,2019-01-14T02:47:00Z,34.1,-117.77,12.0,7.0,0,0,,10.0,30.029528,,,,,,,,,,,SCT,8000,,,,,,,VFR,,,,,,,,,,,,METAR,308.0
KIWA 140247Z 00000KT 20SM FEW050 BKN200 13/08 A3011,KIWA,2019-01-14T02:47:00Z,33.3,-111.65,13.0,8.0,0,0,,20.0,30.109253,,,,,,,,,,,FEW,5000,BKN,20000,,,,,VFR,,,,,,,,,,,,METAR,412.0
KADS 140247Z 34006KT 10SM OVC017 02/M01 A3047,KADS,2019-01-14T02:47:00Z,32.97,-96.82,2.0,-1.0,340,6,,10.0,30.469488,,,,,,,,,,,OVC,1700,,,,,,,MVFR,,,,,,,,,,,,METAR,196.0
KSEE 140247Z 00000KT 10SM SKC 14/09 A3004,KSEE,2019-01-14T02:47:00Z,32.82,-116.97,14.0,9.0,0,0,,10.0,30.041338,,,,,,,,,,,SKC,,,,,,,,VFR,,,,,,,,,,,,METAR,117.0
KCQT 140247Z AUTO 00000KT 10SM CLR 17/06 A3000 RMK AO2 SLP160 T01720061 56009,KCQT,2019-01-14T02:47:00Z,34.02,-118.28,17.2,6.1,0,0,,10.0,30.0,1016.0,,TRUE,TRUE,,,,,,,CLR,,,,,,,,VFR,-0.9,,,,,,,,,,,SPECI,56.0
KGYR 140247Z 36004KT 10SM SKC 13/08 A3010,KGYR,2019-01-14T02:47:00Z,33.42,-112.37,13.0,8.0,360,4,,10.0,30.100393,,,,,,,,,,,SKC,,,,,,,,VFR,,,,,,,,,,,,METAR,295.0
KSAW 140247Z 21005KT 10SM SKC M09/M11 A3027,KSAW,2019-01-14T02:47:00Z,46.35,-87.4,-9.0,-11.0,210,5,,10.0,30.268702,,,,,,,,,,,SKC,,,,,,,,VFR,,,,,,,,,,,,METAR,372.0
KCHD 140247Z 00000KT 10SM BKN200 12/09 A3010,KCHD,2019-01-14T02:47:00Z,33.27,-111.82,12.0,9.0,0,0,,10.0,30.100393,,,,,,,,,,,BKN,20000,,,,,,,VFR,,,,,,,,,,,,METAR,379.0
KOUN 140247Z 36005KT 10SM OVC012 01/M02 A3043,KOUN,2019-01-14T02:47:00Z,35.25,-97.47,1.0,-2.0,360,5,,10.0,30.431103,,,,,,,,,,,OVC,1200,,,,,,,MVFR,,,,,,,,,,,,METAR,357.0
KPAO 140247Z 27004KT 10SM SCT180 10/ A2996,KPAO,2019-01-14T02:47:00Z,37.47,-122.12,10.0,,270,4,,10.0,29.958662,,,,,,,,,,,SCT,18000,,,,,,,VFR,,,,,,,,,,,,METAR,2.0
MMCM 140247Z 00000KT 7SM SKC 24/20 A3012 RMK SLP201 5//// 910,MMCM,2019-01-14T02:47:00Z,18.5,-88.33,24.0,20.0,0,0,,7.0,30.121063,1020.1,,,,,,,,,,SKC,,,,,,,,VFR,,,,,,,,,,,,METAR,12.0
KBCT 140247Z 17003KT 10SM SCT050 21/19 A3014,KBCT,2019-01-14T02:47:00Z,26.38,-80.1,21.0,19.0,170,3,,10.0,30.138779,,,,,,,,,,,SCT,5000,,,,,,,VFR,,,,,,,,,,,,METAR,4.0
KWDG 140246Z 36005KT 10SM OVC015 00/M01 A3045 RMK LAST,KWDG,2019-01-14T02:46:00Z,36.37,-97.77,0.0,-1.0,360,5,,10.0,30.448818,,,,,,,,,,,OVC,1500,,,,,,,MVFR,,,,,,,,,,,,SPECI,356.0
MMUN 140246Z 01003KT 7SM SCT015 SCT080 24/24 A3014 RMK SLP206 52017 909 8/570,MMUN,2019-01-14T02:46:00Z,21.02,-86.85,24.0,24.0,10,3,,7.0,30.138779,1020.6,,,,,,,,,,SCT,1500,SCT,8000,,,,,VFR,1.7,,,,,,,,,,,METAR,10.0
MMTO 140246Z 32006KT 5SM BKN015 BKN070 BKN200 11/07 A3043 RMK SLP168 52020 906 8/463 HZY,MMTO,2019-01-14T02:46:00Z,19.35,-99.57,11.0,7.0,320,6,,5.0,30.431103,1016.8,,,,,,,,,,BKN,1500,BKN,7000,BKN,20000,,,MVFR,2.0,,,,,,,,,,,METAR,2576.0
MMDO 140246Z 20003KT 8SM SKC 12/M04 A3029 RMK SLP212 52021 910 ISOL CU,MMDO,2019-01-14T02:46:00Z,24.12,-104.52,12.0,-4.0,200,3,,8.0,30.28937,1021.2,,,,,,,,,,SKC,,,,,,,,VFR,2.1,,,,,,,,,,,METAR,1857.0
KEMT 140245Z 05004KT 10SM CLR 14/07 A3002,KEMT,2019-01-14T02:45:00Z,34.07,-118.02,14.0,7.0,50,4,,10.0,30.02067,,,,,,,,,,,CLR,,,,,,,,VFR,,,,,,,,,,,,METAR,90.0
KSWF 140245Z 07006KT 10SM SKC M09/M13 A3035,KSWF,2019-01-14T02:45:00Z,41.5,-74.08,-9.0,-13.0,70,6,,10.0,30.351377,,,,,,,,,,,SKC,,,,,,,,VFR,,,,,,,,,,,,METAR,150.0
PAKU 140245Z 07021KT 1SM R06/P6000FT BLSN BR BKN015 M26/M29 A3013,PAKU,2019-01-14T02:45:00Z,70.32,-149.58,-26.0,-29.0,70,21,,1.0,30.129921,,,,,,,,,,BLSN BR,BKN,1500,,,,,,,IFR,,,,,,,,,,,,METAR,2.0
KMMU 140245Z 04007KT 10SM SCT250 M04/M11 A3031,KMMU,2019-01-14T02:45:00Z,40.78,-74.42,-4.0,-11.0,40,7,,10.0,30.31004,,,,,,,,,,,SCT,25000,,,,,,,VFR,,,,,,,,,,,,METAR,57.0
PHJH 140245Z 04005KT 10SM SCT035 BKN050 26/16 A3000,PHJH,2019-01-14T02:45:00Z,20.97,-156.67,26.0,16.0,40,5,,10.0,30.0,,,,,,,,,,,SCT,3500,BKN,5000,,,,,VFR,,,,,,,,,,,,METAR,78.0
KALN 140245Z 35008KT 8SM OVC017 M02/M03 A3042,KALN,2019-01-14T02:45:00Z,38.88,-90.03,-2.0,-3.0,350,8,,8.0,30.41929,,,,,,,,,,,OVC,1700,,,,,,,MVFR,,,,,,,,,,,,METAR,166.0
LHSN 140245Z 24012KT 9999 OVC040 03/01 Q0992 RERA TEMPO -RA RMK BLU,LHSN,2019-01-14T02:45:00Z,47.12,20.23,3.0,1.0,240,12,,6.21,29.291338,,,,,,,,,,,OVC,4000,,,,,,,VFR,,,,,,,,,,,,METAR,98.0
LHKE 140245Z 25010KT 9999 BKN035 OVC070 04/01 Q0993 TEMPO -RA RMK BLU,LHKE,2019-01-14T02:45:00Z,46.92,19.75,4.0,1.0,250,10,,6.21,29.320866,,,,,,,,,,,BKN,3500,OVC,7000,,,,,VFR,,,,,,,,,,,,METAR,115.0
LMML 140245Z 33006KT 9999 SCT032 11/09 Q1011 NOSIG,LMML,2019-01-14T02:45:00Z,35.85,14.47,11.0,9.0,330,6,,6.21,29.852362,,,,,,TRUE,,,,,SCT,3200,,,,,,,VFR,,,,,,,,,,,,METAR,91.0
KRYN 140245Z 21004KT 10SM CLR 11/10 A3012 RMK LAST,KRYN,2019-01-14T02:45:00Z,32.15,-111.17,11.0,10.0,210,4,,10.0,30.121063,,,,,,,,,,,CLR,,,,,,,,VFR,,,,,,,,,,,,SPECI,737.0
KMER 140245Z 00000KT 10SM SKC 09/09 A2999,KMER,2019-01-14T02:45:00Z,37.38,-120.57,9.0,9.0,0,0,,10.0,29.991142,,,,,,,,,,,SKC,,,,,,,,VFR,,,,,,,,,,,,METAR,57.0
KUES 140245Z 00000KT 10SM OVC017 M04/M08 A3038 RMK LAST,KUES,2019-01-14T02:45:00Z,43.05,-88.25,-4.0,-8.0,0,0,,10.0,30.380905,,,,,,,,,,,OVC,1700,,,,,,,MVFR,,,,,,,,,,,,SPECI,278.0
KCGF 140245Z 07006KT 10SM SKC M05/M07 A3029,KCGF,2019-01-14T02:45:00Z,41.57,-81.47,-5.0,-7.0,70,6,,10.0,30.28937,,,,,,,,,,,SKC,,,,,,,,VFR,,,,,,,,,,,,METAR,268.0
KGYY 140245Z 01008KT 10SM BKN024 00/M05 A3039,KGYY,2019-01-14T02:45:00Z,41.62,-87.42,0.0,-5.0,10,8,,10.0,30.389763,,,,,,,,,,,BKN,2400,,,,,,,MVFR,,,,,,,,,,,,METAR,180.0
KATW 140245Z 24005KT 10SM OVC015 M04/M09 A3036,KATW,2019-01-14T02:45:00Z,44.27,-88.52,-4.0,-9.0,240,5,,10.0,30.360237,,,,,,,,,,,OVC,1500,,,,,,,MVFR,,,,,,,,,,,,METAR,280.0
PPNU 140245Z AUTO 07010G17KT 3/4SM OVC002 M26/M29 A3015 RMK AO1,PPNU,2019-01-14T02:45:00Z,70.42,-150.03,-26.0,-29.0,70,10,17,0.75,30.15059,,,TRUE,TRUE,,,,,,,OVC,200,,,,,,,LIFR,,,,,,,,,,,,METAR,27.0
MMTM 140245Z E36015KT 3SM -DZ BR SCT006 BKN010 OVC015 19/19 A3024 RMK SLP238 52037 940 65005 8/7// VRB CNDS,MMTM,2019-01-14T02:45:00Z,22.27,-97.87,19.0,19.0,360,15,,3.0,30.239174,1023.8,,,,,,,,,-DZ BR,SCT,600,BKN,1000,OVC,1500,,,MVFR,3.7,,,,,,50.05,,,,,METAR,24.0
MMMZ 140245Z 30002KT 10SM SKC 21/16 A2995 RMK SLP142 52010 957,MMMZ,2019-01-14T02:45:00Z,23.17,-106.27,21.0,16.0,300,2,,10.0,29.949802,1014.2,,,,,,,,,,SKC,,,,,,,,VFR,1.0,,,,,,,,,,,METAR,10.0
LHPR 140245Z AUTO 27014KT 230V290 9999 SCT041 BKN110 05/02 Q0993 RMK BLU,LHPR,2019-01-14T02:45:00Z,47.63,17.82,5.0,2.0,270,14,,6.21,29.320866,,,TRUE,,,,,,,,SCT,4100,BKN,11000,,,,,VFR,,,,,,,,,,,,METAR,129.0
LHPA 140245Z 25006KT 9999 BKN043 BKN083 06/01 Q0995 NOSIG RMK BLU,LHPA,2019-01-14T02:45:00Z,47.35,17.5,6.0,1.0,250,6,,6.21,29.379921,,,,,,TRUE,,,,,BKN,4300,BKN,8300,,,,,VFR,,,,,,,,,,,,METAR,148.0
LIRP 140245Z 18002KT 7000 BKN023 07/06 Q1004 NOSIG,LIRP,2019-01-14T02:45:00Z,43.67,10.37,7.0,6.0,180,2,,4.35,29.64567,,,,,,TRUE,,,,,BKN,2300,,,,,,,MVFR,,,,,,,,,,,,METAR,2.0
MMZH 140244Z 00000KT 7SM SCT080 SCT250 26/22 A2997 RMK SLP137 52010 904 8/032 HZY,MMZH,2019-01-14T02:44:00Z,17.6,-101.47,26.0,22.0,0,0,,7.0,29.970472,1013.7,,,,,,,,,,SCT,8000,SCT,25000,,,,,VFR,1.0,,,,,,,,,,,METAR,6.0
MMPR 140244Z 00000KT 12SM SKC 24/24 A2996 RMK SLP144 52014 952 SCCS,MMPR,2019-01-14T02:44:00Z,20.67,-105.25,24.0,24.0,0,0,,12.0,29.958662,1014.4,,,,,,,,,,SKC,,,,,,,,VFR,1.4,,,,,,,,,,,METAR,6.0
MMVA 140243Z 00000KT 7SM SKC 21/20 A3016 RMK SLP210 52020 927 HZY,MMVA,2019-01-14T02:43:00Z,18.0,-92.82,21.0,20.0,0,0,,7.0,30.159449,1021.0,,,,,,,,,,SKC,,,,,,,,VFR,2.0,,,,,,,,,,,METAR,13.0
MMVR 140243Z 01002KT 7SM SCT008 22/21 A3020 RMK SLP206 52017 941 8/100 HZY ISOL TCU,MMVR,2019-01-14T02:43:00Z,19.15,-96.18,22.0,21.0,10,2,,7.0,30.200787,1020.6,,,,,,,,,,SCT,800,,,,,,,VFR,1.7,,,,,,,,,,,METAR,16.0
MMEP 140243Z 00000KT 12SM SKC 14/13 A3011 RMK SLP217 52017 910,MMEP,2019-01-14T02:43:00Z,21.42,-104.85,14.0,13.0,0,0,,12.0,30.109253,1021.7,,,,,,,,,,SKC,,,,,,,,VFR,1.7,,,,,,,,,,,METAR,922.0
MMTC 140243Z 00000KT 10SM SKC 18/08 A3013 RMK SLP162 50020 961,MMTC,2019-01-14T02:43:00Z,25.57,-103.4,18.0,8.0,0,0,,10.0,30.129921,1016.2,,,,,,,,,,SKC,,,,,,,,VFR,2.0,,,,,,,,,,,METAR,1124.0
MMCV 140242Z 03008KT 5SM BKN050 18/13 A3027 RMK SLP261 52010 940 8/500 HZY,MMCV,2019-01-14T02:42:00Z,23.72,-98.97,18.0,13.0,30,8,,5.0,30.268702,1026.1,,,,,,,,,,BKN,5000,,,,,,,MVFR,1.0,,,,,,,,,,,METAR,238.0
MMLP 140242Z 36006KT 10SM SKC 20/16 A3005 RMK SLP174 52017 907,MMLP,2019-01-14T02:42:00Z,24.07,-110.37,20.0,16.0,360,6,,10.0,30.050198,1017.4,,,,,,,,,,SKC,,,,,,,,VFR,1.7,,,,,,,,,,,METAR,21.0
MMTP 140241Z 00000KT 9SM SCT030 24/22 A2996 RMK SLP168 52017 954 8/800 HZY,MMTP,2019-01-14T02:41:00Z,14.77,-92.37,24.0,22.0,0,0,,9.0,29.958662,1016.8,,,,,,,,,,SCT,3000,,,,,,,VFR,1.7,,,,,,,,,,,METAR,29.0
MMCP 140241Z 36010KT 7SM SKC 23/20 A3015,MMCP,2019-01-14T02:41:00Z,19.82,-90.5,23.0,20.0,360,10,,7.0,30.15059,,,,,,,,,,,SKC,,,,,,,,VFR,,,,,,,,,,,,METAR,5.0
MMZC 140241Z 09005KT 10SM SCT200 14/06 A3029 RMK 8/005,MMZC,2019-01-14T02:41:00Z,22.9,-102.68,14.0,6.0,90,5,,10.0,30.28937,,,,,,,,,,,SCT,20000,,,,,,,VFR,,,,,,,,,,,,METAR,2177.0
MMIO 140240Z 00000KT 1/2SM FG OVC003 05/04 A3028 RMK 8/7//,MMIO,2019-01-14T02:40:00Z,25.55,-100.93,5.0,4.0,0,0,,0.5,30.280512,,,,,,,,,,FG,OVC,300,,,,,,,LIFR,,,,,,,,,,,,METAR,1790.0
KGZN 140240Z AUTO 01006KT 10SM OVC010 01/M01 A3041 RMK AO2,KGZN,2019-01-14T02:40:00Z,32.37,-99.02,1.0,-1.0,10,6,,10.0,30.410433,,,TRUE,TRUE,,,,,,,OVC,1000,,,,,,,MVFR,,,,,,,,,,,,METAR,522.0
KMHV 140240Z AUTO 05006KT 10SM BKN060 OVC070 08/02 A3008 RMK A01,KMHV,2019-01-14T02:40:00Z,35.07,-118.15,8.0,2.0,50,6,,10.0,30.079725,,,TRUE,TRUE,,,,,,,BKN,6000,OVC,7000,,,,,VFR,,,,,,,,,,,,METAR,849.0
KJSL 140240Z AUTO VRB04G13KT 10SM BKN025 17/11 A3026 RMK A01,KJSL,2019-01-14T02:40:00Z,26.23,-95.25,17.0,11.0,0,4,13,10.0,30.259842,,,TRUE,TRUE,,,,,,,BKN,2500,,,,,,,MVFR,,,,,,,,,,,,METAR,10.0
SBNF 140240Z 25004KT 7000 -TSRA SCT013 FEW030CB BKN080 23/23 Q1 016,SBNF,2019-01-14T02:40:00Z,-26.88,-48.65,23.0,23.0,250,4,,4.35,,,,,,,,,,,-TSRA,SCT,1300,FEW,3000,BKN,8000,,,MVFR,,,,,,,,,,,,SPECI,5.0
MMTG 140240Z 30011KT 8SM FEW080 23/16 A3009 RMK SLP159 51019 918 8/030,MMTG,2019-01-14T02:40:00Z,16.57,-93.03,23.0,16.0,300,11,,8.0,30.088583,1015.9,,,,,,,,,,FEW,8000,,,,,,,VFR,1.9,,,,,,,,,,,METAR,528.0
MMQT 140240Z 07007KT 8SM SCT020 12/09 A3041 RMK 8/500 AC,MMQT,2019-01-14T02:40:00Z,20.62,-100.18,12.0,9.0,70,7,,8.0,30.410433,,,,,,,,,,,SCT,2000,,,,,,,VFR,,,,,,,,,,,,METAR,1919.0
MMSP 140240Z 12011KT 10SM BKN015 12/08 A3037 RMK SLP196 52011 933 8/500 ISOL CI,MMSP,2019-01-14T02:40:00Z,22.25,-100.93,12.0,8.0,120,11,,10.0,30.369095,1019.6,,,,,,,,,,BKN,1500,,,,,,,MVFR,1.1,,,,,,,,,,,METAR,1903.0
MMIA 140240Z 00000KT 8SM SKC 22/19 A3009 RMK SLP/// 5//// 9// 6////,MMIA,2019-01-14T02:40:00Z,19.27,-103.57,22.0,19.0,0,0,,8.0,30.088583,,,,,,,,,,,SKC,,,,,,,,VFR,,,,,,,,,,,,METAR,723.0
MMAS 140240Z 14006KT 10SM SCT035 SCT100 SCT200 16/07 A3031 RMK 8/538 PRESRR,MMAS,2019-01-14T02:40:00Z,21.7,-102.32,16.0,7.0,140,6,,10.0,30.31004,,,,,,,,,,,SCT,3500,SCT,10000,SCT,20000,,,VFR,,,,,,,,,,,,METAR,1863.0
MMMY 140240Z 00000KT 4SM OVC015 11/// A3031 RMK SLP/// 5//// 9// 8/5// HZY,MMMY,2019-01-14T02:40:00Z,25.77,-100.08,,,0,0,,4.0,30.31004,,,,,,,,,,,OVC,1500,,,,,,,MVFR,,0.0,,,,,,,,,,METAR,387.0
MMCS 140240Z 07012KT 10SM SKC 09/00 A3021 RMK SLP208 52024 909 ISOL CI,MMCS,2019-01-14T02:40:00Z,31.62,-106.42,9.0,0.0,70,12,,10.0,30.209646,1020.8,,,,,,,,,,SKC,,,,,,,,VFR,2.4,,,,,,,,,,,METAR,1171.0
MMAN 140240Z 00000KT 4SM FEW015 OVC025 09/06 A3035 RMK SLP/// 5//// 9// 8/5// HZY,MMAN,2019-01-14T02:40:00Z,25.87,-100.23,9.0,6.0,0,0,,4.0,30.351377,,,,,,,,,,,FEW,1500,OVC,2500,,,,,MVFR,,,,,,,,,,,,METAR,448.0
MMSD 140240Z 29006KT 12SM SKC 21/10 A3005 RMK SLP161 52015 952,MMSD,2019-01-14T02:40:00Z,23.13,-109.7,21.0,10.0,290,6,,12.0,30.050198,1016.1,,,,,,,,,,SKC,,,,,,,,VFR,1.5,,,,,,,,,,,METAR,109.0
MMML 140240Z 27003KT 10SM SCT120 BKN200 14/07 A3009 RMK SLP190 52007 920 8/018 SC,MMML,2019-01-14T02:40:00Z,32.62,-115.23,14.0,7.0,270,3,,10.0,30.088583,1019.0,,,,,,,,,,SCT,12000,BKN,20000,,,,,VFR,0.7,,,,,,,,,,,METAR,22.0
MMLM 140240Z 29007KT 10SM SKC 18/09 A3003 RMK SLP1610,MMLM,2019-01-14T02:40:00Z,25.67,-109.07,18.0,9.0,290,7,,10.0,30.029528,1016.1,,,,,,,,,,SKC,,,,,,,,VFR,,,,,,,,,,,,METAR,4.0
MMHO 140240Z 00000KT 10SM BKN200 17/12 A3007 RMK SLP190 52009 915 8/008 ISOL AC,MMHO,2019-01-14T02:40:00Z,29.08,-111.05,17.0,12.0,0,0,,10.0,30.070866,1019.0,,,,,,,,,,BKN,20000,,,,,,,VFR,0.9,,,,,,,,,,,METAR,184.0
MMCL 140240Z 00000KT 10SM SKC 21/06 A2997 RMK SLP148 51001 900,MMCL,2019-01-14T02:40:00Z,24.77,-107.47,21.0,6.0,0,0,,10.0,29.970472,1014.8,,,,,,,,,,SKC,,,,,,,,VFR,0.1,,,,,,,,,,,METAR,39.0
KAMN 140238Z AUTO 00000KT 10SM CLR M08/M09 A3039 RMK AO2,KAMN,2019-01-14T02:38:00Z,43.32,-84.68,-8.0,-9.0,0,0,,10.0,30.389763,,,TRUE,TRUE,,,,,,,CLR,,,,,,,,VFR,,,,,,,,,,,,SPECI,230.0
PAII 140236Z AUTO 13016KT 10SM FEW014 SCT024 02/01 A2935 RMK AO2 RAE27 P0001 FZRANO,PAII,2019-01-14T02:36:00Z,58.18,-157.38,2.0,1.0,130,16,,10.0,29.350393,,,TRUE,TRUE,,,,TRUE,,,FEW,1400,SCT,2400,,,,,VFR,,,,,,0.01,,,,,,SPECI,30.0
KRCE 140235Z AUTO 01007KT 10SM BKN015 00/M02 A3044 RMK AO2,KRCE,2019-01-14T02:35:00Z,35.48,-97.82,0.0,-2.0,10,7,,10.0,30.43996,,,TRUE,TRUE,,,,,,,BKN,1500,,,,,,,MVFR,,,,,,,,,,,,SPECI,413.0
RJNY 140234Z 08004KT 020V150 9999 FEW030 SCT040 11/M01 Q1020 RMK 1CU030 3SC040 A3015,RJNY,2019-01-14T02:34:00Z,34.82,138.3,11.0,-1.0,80,4,,6.21,30.11811,,,,,,,,,,,FEW,3000,SCT,4000,,,,,VFR,,,,,,,,,,,,METAR,10.0
VILK 140230Z 26004KT 0500 R27/1300 RMID/1000 R09/1100 FG NSC 11/09 Q1018 NOSIG,VILK,2019-01-14T02:30:00Z,26.75,80.87,11.0,9.0,260,4,,0.31,30.059055,,,,,,TRUE,,,,FG,CLR,,,,,,,,LIFR,,,,,,,,,,,,SPECI,128.0
HKEL 140230Z 12003KT CAVOK 12/09 Q1023,HKEL,2019-01-14T02:30:00Z,0.4,35.23,12.0,9.0,120,3,,6.21,30.206694,,,,,,,,,,,CAVOK,,,,,,,,VFR,,,,,,,,,,,,METAR,2133.0
VABP 140230Z 06005KT 1100 BR NSC 11/09 Q1021 BECMG 1500 BR,VABP,2019-01-14T02:30:00Z,23.27,77.33,11.0,9.0,60,5,,0.68,30.147638,,,,,,,,,,BR,CLR,,,,,,,,LIFR,,,,,,,,,,,,METAR,523.0
VAJB 140230Z 00000KT 1200 BR NSC 14/09 Q1018,VAJB,2019-01-14T02:30:00Z,23.18,80.05,14.0,9.0,0,0,,0.75,30.059055,,,,,,,,,,BR,CLR,,,,,,,,LIFR,,,,,,,,,,,,METAR,494.0
VYMD 140230Z 36003KT 5000 BR BKN020 BKN100 17/15 Q1015,VYMD,2019-01-14T02:30:00Z,21.7,95.98,17.0,15.0,360,3,,3.11,29.970472,,,,,,,,,,BR,BKN,2000,BKN,10000,,,,,MVFR,,,,,,,,,,,,METAR,91.0
VOGO 140230Z 03005KT 2200 BR NSC 22/19 Q1013 BECMG 3000 BR,VOGO,2019-01-14T02:30:00Z,15.38,73.83,22.0,19.0,30,5,,1.37,29.911417,,,,,,,,,,BR,CLR,,,,,,,,IFR,,,,,,,,,,,,METAR,52.0
VOGO 140230Z 03005KT 2200 BR NSC 22/19 Q1013 BECMG 3000 BR,VOGO,2019-01-14T02:30:00Z,15.38,73.83,22.0,19.0,30,5,,1.37,29.911417,,,,,,,,,,BR,CLR,,,,,,,,IFR,,,,,,,,,,,,METAR,52.0
KOWA 140230Z AUTO 18007KT 10SM CLR M02/M04 A3032 RMK AO2,KOWA,2019-01-14T02:30:00Z,44.12,-93.25,-2.0,-4.0,180,7,,10.0,30.318897,,,TRUE,TRUE,,,,,,,CLR,,,,,,,,VFR,,,,,,,,,,,,SPECI,350.0
VAJJ 140230Z VRB01KT 1500 BR NSC 20/16 Q1014 BECMG 2000 BR,VAJJ,2019-01-14T02:30:00Z,19.12,72.82,20.0,16.0,0,1,,0.93,29.940945,,,,,,,,,,BR,CLR,,,,,,,,LIFR,,,,,,,,,,,,METAR,4.0
WIDD 140230Z 36008KT 9999 FEW014 29/24 Q1012,WIDD,2019-01-14T02:30:00Z,1.12,104.12,29.0,24.0,360,8,,6.21,29.88189,,,,,,,,,,,FEW,1400,,,,,,,VFR,,,,,,,,,,,,METAR,38.0
ETNL 140223Z 31021G35KT 9999 FEW020 BKN060 04/M00 Q0991 BLU,ETNL,2019-01-14T02:23:00Z,53.92,12.27,4.0,0.0,310,21,35,6.21,29.26181,,,,,,,,,,,FEW,2000,BKN,6000,,,,,VFR,,,,,,,,,,,,SPECI,40.0
ETNW 140220Z 31016KT 9999 BKN030 05/M00 Q1001 BLU,ETNW,2019-01-14T02:20:00Z,52.45,9.42,5.0,0.0,310,16,,6.21,29.557087,,,,,,,,,,,BKN,3000,,,,,,,MVFR,,,,,,,,,,,,METAR,70.0
ETHC 140220Z 30014G32KT 9999 SCT030 05/M01 Q1000 BLU+,ETHC,2019-01-14T02:20:00Z,52.6,10.02,5.0,-1.0,300,14,32,6.21,29.52756,,,,,,,,,,,SCT,3000,,,,,,,VFR,,,,,,,,,,,,METAR,52.0
ETHB 140220Z 32012KT 9999 FEW012 BKN030 05/01 Q1002 BLU,ETHB,2019-01-14T02:20:00Z,52.27,9.07,5.0,1.0,320,12,,6.21,29.586615,,,,,,,,,,,FEW,1200,BKN,3000,,,,,MVFR,,,,,,,,,,,,METAR,78.0
ETHS 140220Z AUTO 34020KT 9999 // ////// 04/M02 Q0999 ///,ETHS,2019-01-14T02:20:00Z,52.92,10.18,4.0,-2.0,340,20,,6.21,29.498032,,,TRUE,,,,,,,,,,,,,,,,,,,,,,,,,,,,METAR,88.0
ETHF 140220Z 33018G32KT 9999 -RA BKN020 04/01 Q1002 WHT,ETHF,2019-01-14T02:20:00Z,51.12,9.27,4.0,1.0,330,18,32,6.21,29.586615,,,,,,,,,,-RA,BKN,2000,,,,,,,MVFR,,,,,,,,,,,,METAR,181.0
ETGG 140220Z AUTO 33029KT //// // ////// 03/M02 Q0996 ///,ETGG,2019-01-14T02:20:00Z,54.83,9.5,3.0,-2.0,330,29,,,29.409449,,,TRUE,,,,,,,,,,,,,,,,,,,,,,,,,,,,METAR,33.0
ETWM 140220Z AUTO 31005KT 9999 // ////// 05/03 Q1004 ///,ETWM,2019-01-14T02:20:00Z,52.72,7.33,5.0,3.0,310,5,,6.21,29.64567,,,TRUE,,,,,,,,,,,,,,,,,,,,,,,,,,,,METAR,21.0
ETSH 140220Z 30018G34KT 9999 BKN035 05/M01 Q0993 BLU,ETSH,2019-01-14T02:20:00Z,51.77,13.17,5.0,-1.0,300,18,34,6.21,29.320866,,,,,,,,,,,BKN,3500,,,,,,,VFR,,,,,,,,,,,,METAR,79.0
ETNT 140220Z AUTO 33016G26KT 9000 // ////// 05/M00 Q1003 ///,ETNT,2019-01-14T02:20:00Z,53.53,7.67,5.0,0.0,330,16,26,5.59,29.616142,,,TRUE,,,,,,,,,,,,,,,,,,,,,,,,,,,,METAR,12.0
ETNS 140220Z AUTO 32026G41KT 7000 // ////// 03/M02 Q0997 ///,ETNS,2019-01-14T02:20:00Z,54.47,9.52,3.0,-2.0,320,26,41,4.35,29.438976,,,TRUE,,,,,,,,,,,,,,,,,,,,,,,,,,,,METAR,25.0
ETMN 140220Z 33022KT 9999 FEW028 04/M01 Q1001 BLU+,ETMN,2019-01-14T02:20:00Z,53.77,8.67,4.0,-1.0,330,22,,6.21,29.557087,,,,,,,,,,,FEW,2800,,,,,,,VFR,,,,,,,,,,,,METAR,31.0
ENTC 140220Z 04003KT CAVOK M10/M11 Q0979 RMK WIND 2600FT /////KT,ENTC,2019-01-14T02:20:00Z,69.68,18.92,-10.0,-11.0,40,3,,6.21,28.90748,,,,,,,,,,,CAVOK,,,,,,,,VFR,,,,,,,,,,,,SPECI,10.0
LIPE 140220Z 25003KT 200V360 CAVOK M00/M02 Q1000,LIPE,2019-01-14T02:20:00Z,44.52,11.3,0.0,-2.0,250,3,,6.21,29.52756,,,,,,,,,,,CAVOK,,,,,,,,VFR,,,,,,,,,,,,METAR,42.0
LIBR 140220Z 23008KT CAVOK 04/00 Q1005,LIBR,2019-01-14T02:20:00Z,40.65,17.95,4.0,0.0,230,8,,6.21,29.675198,,,,,,,,,,,CAVOK,,,,,,,,VFR,,,,,,,,,,,,METAR,10.0
ETHA 140220Z AUTO 31020G31KT //// // ////// 01/M00 Q1003 ///,ETHA,2019-01-14T02:20:00Z,47.82,10.87,1.0,0.0,310,20,31,,29.616142,,,TRUE,,,,,,,,,,,,,,,,,,,,,,,,,,,,METAR,760.0
ETHL 140220Z 27006KT 9999 SCT018 BKN050 03/02 Q1005 BLACKBLU,ETHL,2019-01-14T02:20:00Z,48.22,9.92,3.0,2.0,270,6,,6.21,29.675198,,,,,,,,,,,SCT,1800,BKN,5000,,,,,VFR,,,,,,,,,,,,METAR,549.0
ETHN 140220Z 29014KT 9999 BKN018 BKN035 04/02 Q1002 WHT,ETHN,2019-01-14T02:20:00Z,49.38,9.97,4.0,2.0,290,14,,6.21,29.586615,,,,,,,,,,,BKN,1800,BKN,3500,,,,,MVFR,,,,,,,,,,,,METAR,473.0
ETNN 140220Z 30015KT 9999 -SHRA SCT020 BKN040 06/04 Q1007 BLU,ETNN,2019-01-14T02:20:00Z,50.82,6.67,6.0,4.0,300,15,,6.21,29.734253,,,,,,,,,,-SHRA,SCT,2000,BKN,4000,,,,,VFR,,,,,,,,,,,,METAR,135.0
ETSB 140220Z AUTO 31011KT 7000 // ////// 04/01 Q1006 ///,ETSB,2019-01-14T02:20:00Z,50.17,7.07,4.0,1.0,310,11,,4.35,29.704725,,,TRUE,,,,,,,,,,,,,,,,,,,,,,,,,,,,METAR,486.0
ETSI 140220Z AUTO 29013KT 3800 // ////// 05/01 Q1001 ///,ETSI,2019-01-14T02:20:00Z,48.72,11.52,5.0,1.0,290,13,,2.36,29.557087,,,TRUE,,,,,,,,,,,,,,,,,,,,,,,,,,,,METAR,370.0
ETSL 140220Z 27009KT 9999 FEW008 SCT015 BKN025 02/02 Q1003 BLACKBLU,ETSL,2019-01-14T02:20:00Z,48.17,10.87,2.0,2.0,270,9,,6.21,29.616142,,,,,,,,,,,FEW,800,SCT,1500,BKN,2500,,,MVFR,,,,,,,,,,,,METAR,562.0
ETSN 140220Z 27011KT 9999 BKN032 04/02 Q1002 BLU,ETSN,2019-01-14T02:20:00Z,48.72,11.22,4.0,2.0,270,11,,6.21,29.586615,,,,,,,,,,,BKN,3200,,,,,,,VFR,,,,,,,,,,,,METAR,387.0
KGOO 140215Z AUTO 00000KT 10SM CLR 07/03 A2999 RMK AO1,KGOO,2019-01-14T02:15:00Z,39.22,-121.0,7.0,3.0,0,0,,10.0,29.991142,,,TRUE,TRUE,,,,,,,CLR,,,,,,,,VFR,,,,,,,,,,,,METAR,962.0
KE16 140215Z AUTO 00000KT 10SM CLR 12/07 A2997 RMK AO2 PWINO PNO,KE16,2019-01-14T02:15:00Z,37.08,-121.6,12.0,7.0,0,0,,10.0,29.970472,,,TRUE,TRUE,,,,,TRUE,,CLR,,,,,,,,VFR,,,,,,,,,,,,SPECI,86.0
PANV 140214Z AUTO 04016G23KT 3SM -SN BR SCT032 OVC045 M16/M18 A2938 RMK AO2 P0000 FZRANO,PANV,2019-01-14T02:14:00Z,62.65,-160.18,-16.0,-18.0,40,16,23,3.0,29.379921,,,TRUE,TRUE,,,,TRUE,,-SN BR,SCT,3200,OVC,4500,,,,,MVFR,,,,,,0.005,,,,,,METAR,99.0
VCBI 140210Z 04010KT 8000 SCT017 25/21 Q1012 NOSIG,VCBI,2019-01-14T02:10:00Z,7.17,79.87,25.0,21.0,40,10,,4.97,29.88189,,,,,,TRUE,,,,,SCT,1700,,,,,,,MVFR,,,,,,,,,,,,METAR,8.0
VCRI 140210Z 02005KT 9999 SCT018 BKN080 25/25 Q1012 NOSIG,VCRI,2019-01-14T02:10:00Z,6.28,81.13,25.0,25.0,20,5,,6.21,29.88189,,,,,,TRUE,,,,,SCT,1800,BKN,8000,,,,,VFR,,,,,,,,,,,,METAR,7.0
CWND M01/M02 RMK SOG 01 1009 T10111015,CWND,2019-01-14T02:08:00Z,69.63,-135.43,-1.1,-1.5,,,,,,,,,,,,,,,,,,,,,,,,,,,,,,,,,,,,METAR,12.0
LTAB 140207Z 00000KT 9999 -RA FEW015 BKN025 BKN080 03/01 Q1003 NOSIG RMK RWY06 VRB02KT,LTAB,2019-01-14T02:07:00Z,39.92,32.75,3.0,1.0,0,0,,6.21,29.616142,,,,,,TRUE,,,,-RA,FEW,1500,BKN,2500,BKN,8000,,,MVFR,,,,,,,,,,,,SPECI,819.0
KN38 140205Z AUTO 02004KT 10SM CLR M10/M14 A3024 RMK AO2,KN38,2019-01-14T02:05:00Z,41.73,-77.4,-10.0,-14.0,20,4,,10.0,30.239174,,,TRUE,TRUE,,,,,,,CLR,,,,,,,,VFR,,,,,,,,,,,,SPECI,577.0
