No errors
No warnings
684 ms
data source=metars
4755 results
raw_text,station_id,observation_time,latitude,longitude,temp_c,dewpoint_c,wind_dir_degrees,wind_speed_kt,wind_gust_kt,visibility_statute_mi,altim_in_hg,sea_level_pressure_mb,corrected,auto,auto_station,maintenance_indicator_on,no_signal,lightning_sensor_off,freezing_rain_sensor_off,present_weather_sensor_off,wx_string,sky_cover,cloud_base_ft_agl,sky_cover,cloud_base_ft_agl,sky_cover,cloud_base_ft_agl,sky_cover,cloud_base_ft_agl,flight_category,three_hr_pressure_tendency_mb,maxT_c,minT_c,maxT24hr_c,minT24hr_c,precip_in,pcp3hr_in,pcp6hr_in,pcp24hr_in,snow_in,vert_vis_ft,metar_type,elevation_m
KSTK 052150Z AUTO 04004KT 10SM CLR 14/M06 A2992 RMK AO2,KSTK,2019-01-05T21:50:00Z,40.62,-103.27,14.0,-6.0,40,4,,10.0,29.920275,,,TRUE,TRUE,,,,,,,CLR,,,,,,,,VFR,,,,,,,,,,,,SPECI,1231.0
KOMN 052150Z 27010KT 10SM CLR 17/09 A3002,KOMN,2019-01-05T21:50:00Z,29.3,-81.12,17.0,9.0,270,10,,10.0,30.02067,,,,,,,,,,,CLR,,,,,,,,VFR,,,,,,,,,,,,METAR,9.0
KNQA 052150Z 22007KT 10SM CLR 13/04 A3010,KNQA,2019-01-05T21:50:00Z,35.35,-89.87,13.0,4.0,220,7,,10.0,30.100393,,,,,,,,,,,CLR,,,,,,,,VFR,,,,,,,,,,,,METAR,86.0
KHXD 052150Z 28009KT 10SM CLR 16/07 A2997,KHXD,2019-01-05T21:50:00Z,32.22,-80.7,16.0,7.0,280,9,,10.0,29.970472,,,,,,,,,,,CLR,,,,,,,,VFR,,,,,,,,,,,,METAR,6.0
TJBQ 052150Z 11012G18KT 10SM SCT044 SCT050 26/21 A3005,TJBQ,2019-01-05T21:50:00Z,18.5,-67.13,26.0,21.0,110,12,18,10.0,30.050198,,,,,,,,,,,SCT,4400,SCT,5000,,,,,VFR,,,,,,,,,,,,METAR,72.0
KWHP 052150Z 11008KT 10SM BKN026 BKN031 OVC039 12/08 A2997,KWHP,2019-01-05T21:50:00Z,34.25,-118.42,12.0,8.0,110,8,,10.0,29.970472,,,,,,,,,,,BKN,2600,BKN,3100,OVC,3900,,,MVFR,,,,,,,,,,,,METAR,306.0
PTRO 052150Z 05009G13KT 15SM SCT016TCU BKN120 BKN300 26/24 A2991 RMK TCU N-E-S ,PTRO,2019-01-05T21:50:00Z,7.37,134.55,26.0,24.0,50,9,13,15.0,29.911417,,,,,,,,,,,SCT,1600,BKN,12000,BKN,30000,,,VFR,,,,,,,,,,,,METAR,54.0
KVQQ 052150Z 30010KT 10SM CLR 16/08 A3004,KVQQ,2019-01-05T21:50:00Z,30.22,-81.88,16.0,8.0,300,10,,10.0,30.041338,,,,,,,,,,,CLR,,,,,,,,VFR,,,,,,,,,,,,METAR,25.0
KJNX 052150Z AUTO 27005KT 10SM CLR 16/03 A2981 RMK AO2,KJNX,2019-01-05T21:50:00Z,35.53,-78.38,16.0,3.0,270,5,,10.0,29.811024,,,TRUE,TRUE,,,,,,,CLR,,,,,,,,VFR,,,,,,,,,,,,METAR,50.0
KIPJ 052150Z AUTO 27003KT 10SM CLR 15/01 A2992 RMK AO2 T01510009,KIPJ,2019-01-05T21:50:00Z,35.48,-81.17,15.1,0.9,270,3,,10.0,29.920275,,,TRUE,TRUE,,,,,,,CLR,,,,,,,,VFR,,,,,,,,,,,,METAR,267.0
LATI 052150Z 21002KT CAVOK M01/M07 Q1015 NOSIG,LATI,2019-01-05T21:50:00Z,41.42,19.72,-1.0,-7.0,210,2,,6.21,29.970472,,,,,,TRUE,,,,,CAVOK,,,,,,,,VFR,,,,,,,,,,,,METAR,90.0
CYZY 052149Z AUTO 14003KT 2 1/2SM -SN BKN031 OVC050 M02/M03 A2947 RMK SLP020,CYZY,2019-01-05T21:49:00Z,55.28,-123.12,-2.0,-3.0,140,3,,2.5,29.471457,1002.0,,TRUE,,,,,,,-SN,BKN,3100,OVC,5000,,,,,IFR,,,,,,,,,,,,SPECI,690.0
CWPX 052149Z AUTO 26008KT ////SM //// FEW007 OVC047 M25/M29 A2967,CWPX,2019-01-05T21:49:00Z,69.02,-107.82,-25.0,-29.0,260,8,,,29.66929,,,TRUE,,,,,,,,FEW,700,OVC,4700,,,,,,,,,,,,,,,,,SPECI,165.0
CYBL 052148Z 09005KT 8SM SCT006 BKN011 OVC040 06/05 A2938 RMK SF4SC3SC1 SLP952,CYBL,2019-01-05T21:48:00Z,49.95,-125.27,6.0,5.0,90,5,,8.0,29.379921,995.2,,,,,,,,,,SCT,600,BKN,1100,OVC,4000,,,MVFR,,,,,,,,,,,,SPECI,106.0
KRYY 052148Z VRB06KT 10SM CLR 14/03 A3006 RMK AO2 SLP902 T01390028,KRYY,2019-01-05T21:48:00Z,34.02,-84.6,13.9,2.8,0,6,,10.0,30.059055,990.2,,,TRUE,,,,,,,CLR,,,,,,,,VFR,,,,,,,,,,,,METAR,317.0
CYPX 052148Z AUTO 18005KT 6SM HZ CLR M31/M34 A2965 RMK SLP045,CYPX,2019-01-05T21:48:00Z,60.03,-77.27,-31.0,-34.0,180,5,,6.0,29.648623,1004.5,,TRUE,,,,,,,HZ,CLR,,,,,,,,VFR,,,,,,,,,,,,SPECI,23.0
CYQZ 052148Z AUTO 00000KT 1/2SM FZFG SCT002 M01/M01 A2945 RMK SLP999,CYQZ,2019-01-05T21:48:00Z,53.02,-122.52,-1.0,-1.0,0,0,,0.5,29.450787,999.9,,TRUE,,,,,,,FZFG,SCT,200,,,,,,,LIFR,,,,,,,,,,,,SPECI,545.0
CYEN 052148Z AUTO 09005KT 1 3/4SM BR OVC003 M05/M06 A3002 RMK VIS VRB 3/4-3 SLP199,CYEN,2019-01-05T21:48:00Z,49.22,-102.97,-5.0,-6.0,90,5,,1.75,30.02067,1019.9,,TRUE,,,,,,,BR,OVC,300,,,,,,,LIFR,,,,,,,,,,,,SPECI,581.0
EKYT 052148Z AUTO 00000KT 0250 R08L/0400N R26R/0650N FZFG NCD M02/M02 Q1026 R26L/290095,EKYT,2019-01-05T21:48:00Z,57.1,9.87,-2.0,-2.0,0,0,,0.16,30.295275,,,TRUE,,,,,,,FZFG,CLR,,,,,,,,LIFR,,,,,,,,,,,,METAR,3.0
KVSF 052147Z AUTO 00000KT 3/4SM BR FEW002 OVC033 01/01 A2957 RMK AO2 T00110011,KVSF,2019-01-05T21:47:00Z,43.35,-72.52,1.1,1.1,0,0,,0.75,29.568897,,,TRUE,TRUE,,,,,,BR,FEW,200,OVC,3300,,,,,LIFR,,,,,,,,,,,,SPECI,175.0
KFLG 052147Z 20013G20KT 10SM BKN110 06/M06 A3007 RMK AO2,KFLG,2019-01-05T21:47:00Z,35.13,-111.67,6.0,-6.0,200,13,20,10.0,30.070866,,,,TRUE,,,,,,,BKN,11000,,,,,,,VFR,,,,,,,,,,,,SPECI,2134.0
KCQT 052147Z AUTO 13005KT 10SM SCT043 BKN090 OVC110 14/08 A2996 RMK AO2 SLP144 T01440083 ,KCQT,2019-01-05T21:47:00Z,34.02,-118.28,14.4,8.3,130,5,,10.0,29.958662,1014.4,,TRUE,TRUE,,,,,,,SCT,4300,BKN,9000,OVC,11000,,,VFR,,,,,,,,,,,,METAR,56.0
KNYC 052147Z AUTO 4SM -RA BR SCT007 SCT012 OVC022 06/05 A2954 RMK AO2 RAB2058 P0002 $ ,KNYC,2019-01-05T21:47:00Z,40.78,-73.97,6.0,5.0,,,,4.0,29.53937,,,TRUE,TRUE,TRUE,,,,,-RA BR,SCT,700,SCT,1200,OVC,2200,,,MVFR,,,,,,0.02,,,,,,SPECI,11.0
CYKY 052147Z 17019KT 2SM BR OVC002 M05/M06 A2986 RMK ST8 SLP149,CYKY,2019-01-05T21:47:00Z,51.52,-109.17,-5.0,-6.0,170,19,,2.0,29.861221,1014.9,,,,,,,,,BR,OVC,200,,,,,,,LIFR,,,,,,,,,,,,SPECI,694.0
PASH 052147Z AUTO 26010KT 3/4SM HZ VV002 M31/M34 A3013 RMK AO2 FZRANO,PASH,2019-01-05T21:47:00Z,66.27,-166.08,-31.0,-34.0,260,10,,0.75,30.129921,,,TRUE,TRUE,,,,TRUE,,HZ,OVX,0,,,,,,,LIFR,,,,,,,,,,,200,SPECI,2.0
PAMH 052147Z AUTO 00000KT 3SM -SN BR BKN039 OVC049 M24/M27 A2994 RMK AO2 P0000 FZRANO,PAMH,2019-01-05T21:47:00Z,63.9,-152.32,-24.0,-27.0,0,0,,3.0,29.940945,,,TRUE,TRUE,,,,TRUE,,-SN BR,BKN,3900,OVC,4900,,,,,MVFR,,,,,,0.005,,,,,,SPECI,214.0
PAFS 052147Z AUTO 00000KT 9SM -SN BKN030 OVC075 M23/M25 A2998 RMK AO2 P0000 FZRANO,PAFS,2019-01-05T21:47:00Z,63.02,-154.35,-23.0,-25.0,0,0,,9.0,29.97933,,,TRUE,TRUE,,,,TRUE,,-SN,BKN,3000,OVC,7500,,,,,MVFR,,,,,,0.005,,,,,,SPECI,126.0
PAFM 052147Z AUTO 00000KT 2 1/2SM -SN BKN028 BKN038 OVC055 M18/M21 A3006 RMK AO2 P0000 FZRANO,PAFM,2019-01-05T21:47:00Z,67.1,-157.85,-18.0,-21.0,0,0,,2.5,30.059055,,,TRUE,TRUE,,,,TRUE,,-SN,BKN,2800,BKN,3800,OVC,5500,,,IFR,,,,,,0.005,,,,,,SPECI,88.0
KFTG 052147Z 07007KT 10SM SCT120 BKN220 15/M08 A2995,KFTG,2019-01-05T21:47:00Z,39.78,-104.55,15.0,-8.0,70,7,,10.0,29.949802,,,,,,,,,,,SCT,12000,BKN,22000,,,,,VFR,,,,,,,,,,,,METAR,1675.0
KEVB 052147Z 28010G15KT 10SM CLR 19/09 A3002,KEVB,2019-01-05T21:47:00Z,29.05,-80.95,19.0,9.0,280,10,15,10.0,30.02067,,,,,,,,,,,CLR,,,,,,,,VFR,,,,,,,,,,,,METAR,3.0
KAEG 052147Z 00000KT 10SM BKN170 04/M06 A3015,KAEG,2019-01-05T21:47:00Z,35.13,-106.8,4.0,-6.0,0,0,,10.0,30.15059,,,,,,,,,,,BKN,17000,,,,,,,VFR,,,,,,,,,,,,METAR,1779.0
CZUM 052147Z AUTO VRB02KT 9SM -SN FEW018 OVC048 M07/M09 A2953 RMK SLP037,CZUM,2019-01-05T21:47:00Z,53.53,-64.08,-7.0,-9.0,0,2,,9.0,29.530512,1003.7,,TRUE,,,,,,,-SN,FEW,1800,OVC,4800,,,,,VFR,,,,,,,,,,,,SPECI,440.0
EKKA 052147Z AUTO 00000KT 0250NDV R09R/P2000N R27L/M0250D FG FEW003/// 01/00 Q1025,EKKA,2019-01-05T21:47:00Z,56.3,9.12,1.0,0.0,0,0,,1.24,30.265747,,,TRUE,,,,,,,FG,FEW,300,,,,,,,IFR,,,,,,,,,,,,METAR,52.0
KGYH 052147Z 26004KT 10SM CLR 16/04 A2995,KGYH,2019-01-05T21:47:00Z,34.75,-82.38,16.0,4.0,260,4,,10.0,29.949802,,,,,,,,,,,CLR,,,,,,,,VFR,,,,,,,,,,,,METAR,292.0
KBVI 052147Z 26007KT 10SM CLR 08/02 A2981 RMK LAST,KBVI,2019-01-05T21:47:00Z,40.77,-80.4,8.0,2.0,260,7,,10.0,29.811024,,,,,,,,,,,CLR,,,,,,,,VFR,,,,,,,,,,,,METAR,382.0
KSQL 052147Z 17011G22KT 3SM BKN029 BKN035 13/10 A2967,KSQL,2019-01-05T21:47:00Z,37.52,-122.25,13.0,10.0,170,11,22,3.0,29.66929,,,,,,,,,,,BKN,2900,BKN,3500,,,,,MVFR,,,,,,,,,,,,METAR,1.0
KCWA 052147Z 27007G15KT 10SM SCT250 06/00 A2983,KCWA,2019-01-05T21:47:00Z,44.78,-89.67,6.0,0.0,270,7,15,10.0,29.828741,,,,,,,,,,,SCT,25000,,,,,,,VFR,,,,,,,,,,,,METAR,389.0
KTZR 052147Z 24009KT 10SM SKC 08/04 A2989,KTZR,2019-01-05T21:47:00Z,39.9,-83.13,8.0,4.0,240,9,,10.0,29.890747,,,,,,,,,,,SKC,,,,,,,,VFR,,,,,,,,,,,,METAR,276.0
KBJC 052147Z 33004KT 30SM OVC220 13/M07 A2996,KBJC,2019-01-05T21:47:00Z,39.9,-105.1,13.0,-7.0,330,4,,30.0,29.958662,,,,,,,,,,,OVC,22000,,,,,,,VFR,,,,,,,,,,,,METAR,1724.0
PANC 052146Z 00000KT 2SM R07R/1600V2200FT BR BKN002 BKN050 BKN140 M14/M16 A2985 RMK AO2 SNE29 P0000 T11391156 $,PANC,2019-01-05T21:46:00Z,61.17,-150.0,-13.9,-15.6,0,0,,2.0,29.84941,,,,TRUE,TRUE,,,,,BR,BKN,200,BKN,5000,BKN,14000,,,LIFR,,,,,,0.005,,,,,,SPECI,38.0
KTIX 052146Z 30005KT 7SM CLR 22/11 A3001,KTIX,2019-01-05T21:46:00Z,28.5,-80.8,22.0,11.0,300,5,,7.0,30.008858,,,,,,,,,,,CLR,,,,,,,,VFR,,,,,,,,,,,,METAR,11.0
KMLF 052146Z AUTO 21016KT 10SM CLR 04/M04 A2991 RMK AO2 WSHFT 2132 T00391044 $,KMLF,2019-01-05T21:46:00Z,38.42,-113.02,3.9,-4.4,210,16,,10.0,29.911417,,,TRUE,TRUE,TRUE,,,,,,CLR,,,,,,,,VFR,,,,,,,,,,,,SPECI,1534.0
KBGM 052146Z 33013G19KT 7SM SCT011 01/M01 A2963 RMK AO2 T00111011,KBGM,2019-01-05T21:46:00Z,42.22,-75.98,1.1,-1.1,330,13,19,7.0,29.630905,,,,TRUE,,,,,,,SCT,1100,,,,,,,VFR,,,,,,,,,,,,SPECI,490.0
PFYU 052146Z 03003KT 3SM BR OVC003 M27/M29 A3007 RMK AO2,PFYU,2019-01-05T21:46:00Z,66.57,-145.27,-27.0,-29.0,30,3,,3.0,30.070866,,,,TRUE,,,,,,BR,OVC,300,,,,,,,LIFR,,,,,,,,,,,,METAR,131.0
KVCV 052146Z 16025G36KT 10SM OVC100 A2989,KVCV,2019-01-05T21:46:00Z,34.58,-117.38,,,160,25,36,10.0,29.890747,,,,,,,,,,,OVC,10000,,,,,,,VFR,,,,,,,,,,,,METAR,876.0
KCVO 052146Z AUTO 08007KT 5SM BR OVC003 06/06 A2938 RMK AO2 RAE29 P0000,KCVO,2019-01-05T21:46:00Z,44.5,-123.27,6.0,6.0,80,7,,5.0,29.379921,,,TRUE,TRUE,,,,,,BR,OVC,300,,,,,,,LIFR,,,,,,0.005,,,,,,METAR,75.0
CYWE 052146Z AUTO 26002KT 9SM -SN OVC012 M19/M21 A2984 RMK ICG INTMT SLP154,CYWE,2019-01-05T21:46:00Z,64.18,-114.08,-19.0,-21.0,260,2,,9.0,29.840551,1015.4,,TRUE,,,,,,,-SN,OVC,1200,,,,,,,MVFR,,,,,,,,,,,,SPECI,371.0
PAKU 052145Z 29004KT 10SM R24/P6000FT FEW250 M33/M36 A3011,PAKU,2019-01-05T21:45:00Z,70.32,-149.58,-33.0,-36.0,290,4,,10.0,30.109253,,,,,,,,,,,FEW,25000,,,,,,,VFR,,,,,,,,,,,,METAR,2.0
KMWA 052145Z 22010KT 20SM SKC 14/04 A3004,KMWA,2019-01-05T21:45:00Z,37.77,-89.02,14.0,4.0,220,10,,20.0,30.041338,,,,,,,,,,,SKC,,,,,,,,VFR,,,,,,,,,,,,METAR,144.0
KSCH 052145Z 00000KT 10SM CLR 03/01 A2959,KSCH,2019-01-05T21:45:00Z,42.85,-73.92,3.0,1.0,0,0,,10.0,29.589567,,,,,,,,,,,CLR,,,,,,,,VFR,,,,,,,,,,,,METAR,115.0
KANE 052145Z 33008KT 10SM FEW250 07/00 A2995,KANE,2019-01-05T21:45:00Z,45.15,-93.22,7.0,0.0,330,8,,10.0,29.949802,,,,,,,,,,,FEW,25000,,,,,,,VFR,,,,,,,,,,,,METAR,278.0
KSWF 052145Z 06005KT 2 1/2SM -RA BR BKN005 OVC010 05/05 A2955,KSWF,2019-01-05T21:45:00Z,41.5,-74.08,5.0,5.0,60,5,,2.5,29.551182,,,,,,,,,,-RA BR,BKN,500,OVC,1000,,,,,IFR,,,,,,,,,,,,METAR,150.0
KJVL 052145Z 25006KT 10SM FEW200 09/02 A2987,KJVL,2019-01-05T21:45:00Z,42.62,-89.05,9.0,2.0,250,6,,10.0,29.870079,,,,,,,,,,,FEW,20000,,,,,,,VFR,,,,,,,,,,,,METAR,246.0
KESN 052145Z 28009G15KT 10SM SCT022 BKN055 09/07 A2968,KESN,2019-01-05T21:45:00Z,38.8,-76.07,9.0,7.0,280,9,15,10.0,29.681103,,,,,,,,,,,SCT,2200,BKN,5500,,,,,VFR,,,,,,,,,,,,METAR,22.0
KBAK 052145Z 22007KT 10SM SKC 11/02 A2996,KBAK,2019-01-05T21:45:00Z,39.27,-85.9,11.0,2.0,220,7,,10.0,29.958662,,,,,,,,,,,SKC,,,,,,,,VFR,,,,,,,,,,,,METAR,200.0
CMGB 052145Z AUTO 35002KT 02/00 RMK AO1 SOG 06 3003 SLP027 T00160000,CMGB,2019-01-05T21:45:00Z,45.37,-72.77,1.6,0.0,350,2,,,,1002.7,,TRUE,TRUE,,,,,,,,,,,,,,,,,,,,,,,,,,,METAR,86.0
KBBG 052145Z 00000KT 10SM SKC 18/01 A3007,KBBG,2019-01-05T21:45:00Z,36.53,-93.2,18.0,1.0,0,0,,10.0,30.070866,,,,,,,,,,,SKC,,,,,,,,VFR,,,,,,,,,,,,METAR,397.0
CWPF 052145Z AUTO 34008KT 08/04 RMK AO1 T00820038,CWPF,2019-01-05T21:45:00Z,48.43,-123.43,8.2,3.8,340,8,,,,,,TRUE,TRUE,,,,,,,,,,,,,,,,,,,,,,,,,,,METAR,12.0
KIXA 052145Z AUTO 28006G14KT 10SM CLR 13/06 A2977 RMK AO2,KIXA,2019-01-05T21:45:00Z,36.33,-77.63,13.0,6.0,280,6,14,10.0,29.769686,,,TRUE,TRUE,,,,,,,CLR,,,,,,,,VFR,,,,,,,,,,,,METAR,44.0
KHNZ 052145Z AUTO 27006KT 10SM CLR 13/00 A2979 RMK AO2 T01270002,KHNZ,2019-01-05T21:45:00Z,36.37,-78.53,12.7,0.2,270,6,,10.0,29.790354,,,TRUE,TRUE,,,,,,,CLR,,,,,,,,VFR,,,,,,,,,,,,METAR,161.0
KBOW 052145Z 28010KT 10SM SKC 18/12 A3004,KBOW,2019-01-05T21:45:00Z,27.93,-81.77,18.0,12.0,280,10,,10.0,30.041338,,,,,,,,,,,SKC,,,,,,,,VFR,,,,,,,,,,,,METAR,39.0
KATW 052145Z 27011KT 10SM SCT120 07/M03 A2978,KATW,2019-01-05T21:45:00Z,44.27,-88.52,7.0,-3.0,270,11,,10.0,29.778543,,,,,,,,,,,SCT,12000,,,,,,,VFR,,,,,,,,,,,,METAR,280.0
KSAW 052145Z 32009KT 3SM -SN OVC008 01/00 A2977,KSAW,2019-01-05T21:45:00Z,46.35,-87.4,1.0,0.0,320,9,,3.0,29.769686,,,,,,,,,,-SN,OVC,800,,,,,,,IFR,,,,,,,,,,,,METAR,372.0
KOUN 052145Z 13012KT 10SM CLR 18/04 A2999,KOUN,2019-01-05T21:45:00Z,35.25,-97.47,18.0,4.0,130,12,,10.0,29.991142,,,,,,,,,,,CLR,,,,,,,,VFR,,,,,,,,,,,,METAR,357.0
PHJH 052145Z AUTO 05014KT 10SM FEW030 SCT040 25/16 A3012,PHJH,2019-01-05T21:45:00Z,20.97,-156.67,25.0,16.0,50,14,,10.0,30.121063,,,TRUE,,,,,,,,FEW,3000,SCT,4000,,,,,VFR,,,,,,,,,,,,METAR,78.0
SBPB 052145Z 08013KT 9999 SCT017 BKN090 29/22 Q1010,SBPB,2019-01-05T21:45:00Z,-2.92,-41.75,29.0,22.0,80,13,,6.21,29.822834,,,,,,,,,,,SCT,1700,BKN,9000,,,,,VFR,,,,,,,,,,,,SPECI,5.0
KTTA 052145Z AUTO 28007G16KT 10SM CLR 16/02 A2983 RMK AO2 T01560015,KTTA,2019-01-05T21:45:00Z,35.58,-79.1,15.6,1.5,280,7,16,10.0,29.828741,,,TRUE,TRUE,,,,,,,CLR,,,,,,,,VFR,,,,,,,,,,,,METAR,75.0
KSIF 052145Z AUTO 10SM CLR 15/00 A2984 RMK AO2 T01450000,KSIF,2019-01-05T21:45:00Z,36.43,-79.85,14.5,0.0,,,,10.0,29.840551,,,TRUE,TRUE,,,,,,,CLR,,,,,,,,VFR,,,,,,,,,,,,METAR,211.0
KGYY 052145Z 24008KT 15SM SKC 12/02 A2989,KGYY,2019-01-05T21:45:00Z,41.62,-87.42,12.0,2.0,240,8,,15.0,29.890747,,,,,,,,,,,SKC,,,,,,,,VFR,,,,,,,,,,,,METAR,180.0
KEHO 052145Z AUTO 24004KT 10SM CLR 15/02 A2993 RMK AO2 T01530016,KEHO,2019-01-05T21:45:00Z,35.25,-81.6,15.3,1.6,240,4,,10.0,29.929134,,,TRUE,TRUE,,,,,,,CLR,,,,,,,,VFR,,,,,,,,,,,,METAR,258.0
CYPA 052145Z 12004KT 15SM BKN012 BKN100 M13/M15 A3009 RMK SC6AC1 SLP228,CYPA,2019-01-05T21:45:00Z,53.22,-105.67,-13.0,-15.0,120,4,,15.0,30.088583,1022.8,,,,,,,,,,BKN,1200,BKN,10000,,,,,MVFR,,,,,,,,,,,,SPECI,428.0
PAVC 052145Z AUTO 15014G19KT 120V180 10SM FEW023 BKN030 OVC047 03/M02 A2981 RMK AO2 RAE40 P0000,PAVC,2019-01-05T21:45:00Z,55.12,-162.27,3.0,-2.0,150,14,19,10.0,29.811024,,,TRUE,TRUE,,,,,,,FEW,2300,BKN,3000,OVC,4700,,,MVFR,,,,,,0.005,,,,,,SPECI,47.0
PALP 052145Z 19006KT 15SM SKC M34/M38 A3011,PALP,2019-01-05T21:45:00Z,70.33,-150.93,-34.0,-38.0,190,6,,15.0,30.109253,,,,,,,,,,,SKC,,,,,,,,VFR,,,,,,,,,,,,METAR,5.0
PAIG 052145Z AUTO 23004KT 3/4SM BR OVC002 M11/M11 A2994 RMK AO2 FZRANO $,PAIG,2019-01-05T21:45:00Z,59.32,-155.9,-11.0,-11.0,230,4,,0.75,29.940945,,,TRUE,TRUE,TRUE,,,TRUE,,BR,OVC,200,,,,,,,LIFR,,,,,,,,,,,,METAR,28.0
KMWC 052145Z 27011KT 10SM SKC 09/M02 A2983,KMWC,2019-01-05T21:45:00Z,43.12,-88.03,9.0,-2.0,270,11,,10.0,29.828741,,,,,,,,,,,SKC,,,,,,,,VFR,,,,,,,,,,,,METAR,227.0
PAAK 052144Z AUTO 21013G17KT 2 1/2SM -SN FEW011 BKN038 OVC095 00/M03 A2952 RMK AO2 UPB30E34SNE05B34 P0000 FZRANO,PAAK,2019-01-05T21:44:00Z,52.22,-174.2,0.0,-3.0,210,13,17,2.5,29.518702,,,TRUE,TRUE,,,,TRUE,,-SN,FEW,1100,BKN,3800,OVC,9500,,,IFR,,,,,,0.005,,,,,,SPECI,17.0
KQVF 052144Z AUTO 00000KT SCT017 26/25 A2987 RMK AO2 SLP115 WND DATA ESTMD PWINO $,KQVF,2019-01-05T21:44:00Z,,,26.0,25.0,0,0,,,29.870079,1011.5,,TRUE,TRUE,TRUE,,,,TRUE,,SCT,1700,,,,,,,,,,,,,,,,,,,SPECI,
KACK 052144Z 03019KT 1 3/4SM +RA BR BKN004 OVC008 06/06 A2935 RMK AO2 PK WND 02031/2118 RAE06B21 P0020 T00610061,KACK,2019-01-05T21:44:00Z,41.25,-70.07,6.1,6.1,30,19,,1.75,29.350393,,,,TRUE,,,,,,+RA BR,BKN,400,OVC,800,,,,,LIFR,,,,,,0.2,,,,,,METAR,16.0
CYYU 052144Z 02008KT 2SM -SN BKN010 OVC018 M03/M06 A2974 RMK SN1SC4SC3 SLP086,CYYU,2019-01-05T21:44:00Z,49.42,-82.47,-3.0,-6.0,20,8,,2.0,29.740158,1008.6,,,,,,,,,-SN,BKN,1000,OVC,1800,,,,,IFR,,,,,,,,,,,,SPECI,227.0
KBDE 052144Z AUTO 32012KT 10SM SCT014 M06/M09 A3002 RMK AO2 T10611089,KBDE,2019-01-05T21:44:00Z,48.73,-94.62,-6.1,-8.9,320,12,,10.0,30.02067,,,TRUE,TRUE,,,,,,,SCT,1400,,,,,,,VFR,,,,,,,,,,,,METAR,329.0
KGKJ 052144Z AUTO 22004KT 7SM SCT016 03/01 A2977 RMK AO2 T00280011 TSNO,KGKJ,2019-01-05T21:44:00Z,41.63,-80.22,2.8,1.1,220,4,,7.0,29.769686,,,TRUE,TRUE,,,TRUE,,,,SCT,1600,,,,,,,VFR,,,,,,,,,,,,METAR,428.0
PALH 052143Z 00000KT 1/2SM BR SCT002 M14/M16 A2987 RMK AO2 SFC VIS 5 T11391161 $,PALH,2019-01-05T21:43:00Z,61.18,-149.97,-13.9,-16.1,0,0,,0.5,29.870079,,,,TRUE,TRUE,,,,,BR,SCT,200,,,,,,,LIFR,,,,,,,,,,,,SPECI,22.0
PAEN 052143Z 00000KT 3/4SM BR VV002 M14/M15 A2988 RMK AO2 FGBNK S-N T11391150 $,PAEN,2019-01-05T21:43:00Z,60.57,-151.25,-13.9,-15.0,0,0,,0.75,29.878937,,,,TRUE,TRUE,,,,,BR,OVX,0,,,,,,,LIFR,,,,,,,,,,,200,SPECI,27.0
KSBP 052143Z 16006KT 5SM -RA BR OVC055 11/09 A2988 RMK AO2 P0027 T01060089,KSBP,2019-01-05T21:43:00Z,35.23,-120.63,10.6,8.9,160,6,,5.0,29.878937,,,,TRUE,,,,,,-RA BR,OVC,5500,,,,,,,MVFR,,,,,,0.27,,,,,,SPECI,59.0
KRBL 052143Z AUTO 22006KT 1SM RA BR OVC005 05/04 A2961 RMK AO2 PRESFR P0017 T00500039,KRBL,2019-01-05T21:43:00Z,40.15,-122.25,5.0,3.9,220,6,,1.0,29.610237,,,TRUE,TRUE,,,,,,RA BR,OVC,500,,,,,,,IFR,,,,,,0.17,,,,,,SPECI,104.0
KDYL 052143Z AUTO 32008KT 10SM FEW013 SCT060 BKN085 07/05 A2955 RMK AO2 T00720050 $,KDYL,2019-01-05T21:43:00Z,40.33,-75.12,7.2,5.0,320,8,,10.0,29.551182,,,TRUE,TRUE,TRUE,,,,,,FEW,1300,SCT,6000,BKN,8500,,,VFR,,,,,,,,,,,,SPECI,117.0
KANJ 052143Z AUTO 00000KT 4SM BR SCT004 OVC009 02/01 A2966 RMK AO2 T00170006,KANJ,2019-01-05T21:43:00Z,46.47,-84.37,1.7,0.6,0,0,,4.0,29.660433,,,TRUE,TRUE,,,,,,BR,SCT,400,OVC,900,,,,,IFR,,,,,,,,,,,,SPECI,218.0
KSDB 052143Z AUTO 19016G32KT 9SM -RA SCT007 BKN014 OVC043 04/02 A2989 RMK AO2 PK WND 20034/2054 RAB43 P0000 T00440017,KSDB,2019-01-05T21:43:00Z,34.75,-118.72,4.4,1.7,190,16,32,9.0,29.890747,,,TRUE,TRUE,,,,,,-RA,SCT,700,BKN,1400,OVC,4300,,,MVFR,,,,,,0.005,,,,,,SPECI,1377.0
PFKT 052143Z AUTO 11010KT 1 3/4SM -SN BR CLR M23/M25 A3011 RMK AO2 P0000 FZRANO,PFKT,2019-01-05T21:43:00Z,65.33,-166.47,-23.0,-25.0,110,10,,1.75,30.109253,,,TRUE,TRUE,,,,TRUE,,-SN BR,CLR,,,,,,,,IFR,,,,,,0.005,,,,,,SPECI,9.0
CYAY 052143Z AUTO 19003KT 180V250 9SM BKN015 BKN240 M05/M06 A2978 RMK ICG SLP087,CYAY,2019-01-05T21:43:00Z,51.38,-56.07,-5.0,-6.0,190,3,,9.0,29.778543,1008.7,,TRUE,,,,,,,,BKN,1500,BKN,24000,,,,,MVFR,,,,,,,,,,,,SPECI,28.0
PASN 052143Z AUTO 18015KT 3SM -SN BR FEW020 BKN034 OVC042 01/M01 A2937 RMK AO2 PK WND 21029/2119 SNB28 P0000 T00061006 TSNO $,PASN,2019-01-05T21:43:00Z,57.15,-170.22,0.6,-0.6,180,15,,3.0,29.371063,,,TRUE,TRUE,TRUE,,TRUE,,,-SN BR,FEW,2000,BKN,3400,OVC,4200,,,MVFR,,,,,,0.005,,,,,,SPECI,29.0
KCGS 052143Z AUTO 28004KT 10SM CLR 11/04 A2968 RMK AO1 T01050038,KCGS,2019-01-05T21:43:00Z,38.98,-76.92,10.5,3.8,280,4,,10.0,29.681103,,,TRUE,TRUE,,,,,,,CLR,,,,,,,,VFR,,,,,,,,,,,,METAR,15.0
K2W6 052143Z AUTO 28007G14KT 10SM SCT065 10/05 A2969 RMK AO1,K2W6,2019-01-05T21:43:00Z,38.32,-76.55,10.0,5.0,280,7,14,10.0,29.68996,,,TRUE,TRUE,,,,,,,SCT,6500,,,,,,,VFR,,,,,,,,,,,,METAR,44.0
K0CO 052142Z AUTO 29014G18KT 10SM CLR M03/M10 A3019 RMK AO2,K0CO,2019-01-05T21:42:00Z,39.8,-105.77,-3.0,-10.0,290,14,18,10.0,30.188976,,,TRUE,TRUE,,,,,,,CLR,,,,,,,,VFR,,,,,,,,,,,,METAR,3807.0
KTVL 052142Z AUTO 20012G25KT 1 3/4SM -SN OVC026 M01/M06 A2973 RMK AO2 PK WND 19040/2109 RAE00UPB05E11SNB11E23B30 P0000 T10061056,KTVL,2019-01-05T21:42:00Z,38.9,-120.0,-0.6,-5.6,200,12,25,1.75,29.731298,,,TRUE,TRUE,,,,,,-SN,OVC,2600,,,,,,,IFR,,,,,,0.005,,,,,,SPECI,1924.0
KLAX 052142Z 11010KT 10SM BKN022 BKN028 OVC040 14/09 A2996 RMK AO2 T01440089,KLAX,2019-01-05T21:42:00Z,33.93,-118.38,14.4,8.9,110,10,,10.0,29.958662,,,,TRUE,,,,,,,BKN,2200,BKN,2800,OVC,4000,,,MVFR,,,,,,,,,,,,SPECI,46.0
KFME 052142Z AUTO 29009G16KT 10SM CLR 09/05 A2969 RMK AO1,KFME,2019-01-05T21:42:00Z,39.08,-76.77,9.0,5.0,290,9,16,10.0,29.68996,,,TRUE,TRUE,,,,,,,CLR,,,,,,,,VFR,,,,,,,,,,,,METAR,46.0
KEUG 052142Z 03007KT 8SM OVC005 07/04 A2937 RMK AO2 OVC V BKN T00670044 $,KEUG,2019-01-05T21:42:00Z,44.13,-123.22,6.7,4.4,30,7,,8.0,29.371063,,,,TRUE,TRUE,,,,,,OVC,500,,,,,,,IFR,,,,,,,,,,,,SPECI,114.0
KASX 052142Z AUTO VRB06KT 8SM BKN016 01/M02 A2994 RMK AO2 T00061017,KASX,2019-01-05T21:42:00Z,46.55,-90.92,0.6,-1.7,0,6,,8.0,29.940945,,,TRUE,TRUE,,,,,,,BKN,1600,,,,,,,MVFR,,,,,,,,,,,,SPECI,251.0
LKPR 052142Z 33008KT 9999 -RA FEW004 BKN006 OVC019 03/03 Q1020 RMK REG QNH 1015,LKPR,2019-01-05T21:42:00Z,50.1,14.27,3.0,3.0,330,8,,6.21,30.11811,,,,,,,,,,-RA,FEW,400,BKN,600,OVC,1900,,,IFR,,,,,,,,,,,,SPECI,365.0
CYPO 052142Z AUTO 30004KT 9SM FEW040 M21/M23 A2997 RMK SLP158,CYPO,2019-01-05T21:42:00Z,54.98,-85.43,-21.0,-23.0,300,4,,9.0,29.970472,1015.8,,TRUE,,,,,,,,FEW,4000,,,,,,,VFR,,,,,,,,,,,,SPECI,53.0
CYMT 052142Z AUTO 33010KT 270V350 9SM SCT013 OVC020 M05/M07 A2962 RMK SLP055,CYMT,2019-01-05T21:42:00Z,49.77,-74.52,-5.0,-7.0,330,10,,9.0,29.619095,1005.5,,TRUE,,,,,,,,SCT,1300,OVC,2000,,,,,MVFR,,,,,,,,,,,,SPECI,387.0
CYNA 052142Z AUTO 06005KT 1/2SM FZFG BKN003 M10/M11 A2976 RMK ICG INTMT SLP079,CYNA,2019-01-05T21:42:00Z,50.17,-61.82,-10.0,-11.0,60,5,,0.5,29.760826,1007.9,,TRUE,,,,,,,FZFG,BKN,300,,,,,,,LIFR,,,,,,,,,,,,SPECI,11.0
KVBG 052142Z AUTO 15008KT 4SM -RA BR FEW006 SCT018 BKN029 OVC035 11/10 A2987 RMK AO2 SLP119,KVBG,2019-01-05T21:42:00Z,34.73,-120.58,11.0,10.0,150,8,,4.0,29.870079,1011.9,,TRUE,TRUE,,,,,,-RA BR,FEW,600,SCT,1800,BKN,2900,OVC,3500,MVFR,,,,,,,,,,,,METAR,112.0
EHLW 052142Z AUTO 32013KT 270V350 9999 BKN006 BKN008 OVC009 07/07 Q1030 YLO,EHLW,2019-01-05T21:42:00Z,53.22,5.75,7.0,7.0,320,13,,6.21,30.413385,,,TRUE,,,,,,,,BKN,600,BKN,800,OVC,900,,,IFR,,,,,,,,,,,,SPECI,2.0
EBCV 052142Z AUTO 30011KT 8000 OVC024/// 04/02 Q1036 WHT,EBCV,2019-01-05T21:42:00Z,50.57,3.82,4.0,2.0,300,11,,4.97,30.590551,,,TRUE,,,,,,,,OVC,2400,,,,,,,MVFR,,,,,,,,,,,,SPECI,63.0
KSMQ 052141Z AUTO 32004KT 10SM OVC031 08/06 A2952 RMK AO2 T00830061,KSMQ,2019-01-05T21:41:00Z,40.62,-74.67,8.3,6.1,320,4,,10.0,29.518702,,,TRUE,TRUE,,,,,,,OVC,3100,,,,,,,VFR,,,,,,,,,,,,METAR,30.0
KMGJ 052141Z AUTO 06005KT 2 1/2SM -RA BR BKN006 OVC013 04/03 A2953 RMK AO2 RAB2055 P0001 T00440033,KMGJ,2019-01-05T21:41:00Z,41.52,-74.27,4.4,3.3,60,5,,2.5,29.530512,,,TRUE,TRUE,,,,,,-RA BR,BKN,600,OVC,1300,,,,,IFR,,,,,,0.01,,,,,,METAR,108.0
KHFD 052141Z 36009KT 5SM RA BR SCT011 BKN026 OVC034 04/02 A2952 RMK AO2 P0007 T00390022,KHFD,2019-01-05T21:41:00Z,41.73,-72.65,3.9,2.2,360,9,,5.0,29.518702,,,,TRUE,,,,,,RA BR,SCT,1100,BKN,2600,OVC,3400,,,MVFR,,,,,,0.07,,,,,,METAR,4.0
CYCO 052141Z 25013KT 2SM -SN DRSN OVC055 M19/M22 A2990 RMK SN2SC6 SLP128,CYCO,2019-01-05T21:41:00Z,67.82,-115.15,-19.0,-22.0,250,13,,2.0,29.899607,1012.8,,,,,,,,,-SN DRSN,OVC,5500,,,,,,,IFR,,,,,,,,,,,,SPECI,22.0
PALG 052141Z AUTO 23003KT 9SM -SN BKN007 OVC048 M13/M14 A2995 RMK AO2 CIG 006V011 P0000 FZRANO,PALG,2019-01-05T21:41:00Z,61.53,-160.33,-13.0,-14.0,230,3,,9.0,29.949802,,,TRUE,TRUE,,,,TRUE,,-SN,BKN,700,OVC,4800,,,,,IFR,,,,,,0.005,,,,,,METAR,17.0
PAGM 052141Z AUTO 06026KT 1 1/4SM BR SCT004 M18/M20 A2995 RMK AO2 PK WND 06029/2141 FZRANO,PAGM,2019-01-05T21:41:00Z,63.77,-171.73,-18.0,-20.0,60,26,,1.25,29.949802,,,TRUE,TRUE,,,,TRUE,,BR,SCT,400,,,,,,,IFR,,,,,,,,,,,,METAR,8.0
ETMN 052141Z 35007KT 1800 -DZ BR OVC002 06/06 Q1026 AMB,ETMN,2019-01-05T21:41:00Z,53.77,8.67,6.0,6.0,350,7,,1.12,30.295275,,,,,,,,,,-DZ BR,OVC,200,,,,,,,LIFR,,,,,,,,,,,,SPECI,31.0
EHVL 052141Z AUTO 32021KT 5000 BR FEW005 BKN007 BKN010 07/06 Q1031 GRN,EHVL,2019-01-05T21:41:00Z,53.23,4.92,7.0,6.0,320,21,,3.11,30.442913,,,TRUE,,,,,,,BR,FEW,500,BKN,700,BKN,1000,,,IFR,,,,,,,,,,,,SPECI,5.0
CWZQ 052140Z AUTO 13001KT 01/01 RMK AO1 T00130013,CWZQ,2019-01-05T21:40:00Z,46.53,-61.05,1.3,1.3,130,1,,,,,,TRUE,TRUE,,,,,,,,,,,,,,,,,,,,,,,,,,,METAR,17.0
KQFX 052140Z AUTO 11002KT 9000 HZ BKN160 M11/M13 A3035 RMK A02 TSNO,KQFX,2019-01-05T21:40:00Z,,,-11.0,-13.0,110,2,,5.59,30.351377,,,TRUE,TRUE,,,TRUE,,,HZ,BKN,16000,,,,,,,VFR,,,,,,,,,,,,METAR,
KQFW 052140Z AUTO 01002KT 6000 HZ OVC160 M11/M15 A3037 RMK A02 TSNO,KQFW,2019-01-05T21:40:00Z,,,-11.0,-15.0,10,2,,3.73,30.369095,,,TRUE,TRUE,,,TRUE,,,HZ,OVC,16000,,,,,,,MVFR,,,,,,,,,,,,METAR,
KQFV 052140Z AUTO 10001KT 9999 BKN160 M13/M16 A3033 RMK A02 TSNO,KQFV,2019-01-05T21:40:00Z,,,-13.0,-16.0,100,1,,6.21,30.33071,,,TRUE,TRUE,,,TRUE,,,,BKN,16000,,,,,,,VFR,,,,,,,,,,,,METAR,
KQFT 052140Z AUTO 04001KT 9999 OVC170 M08/M14 A3036 RMK A02 TSNO,KQFT,2019-01-05T21:40:00Z,,,-8.0,-14.0,40,1,,6.21,30.360237,,,TRUE,TRUE,,,TRUE,,,,OVC,17000,,,,,,,VFR,,,,,,,,,,,,METAR,
KQFB 052140Z AUTO 33003KT 8000 HZ OVC150 M08/M11 A3036 RMK A02 TSNO,KQFB,2019-01-05T21:40:00Z,,,-8.0,-11.0,330,3,,4.97,30.360237,,,TRUE,TRUE,,,TRUE,,,HZ,OVC,15000,,,,,,,MVFR,,,,,,,,,,,,METAR,
KQEY 052140Z AUTO 23001KT 9999 BKN140 BKN180 M08/M12 A3004 RMK A02 TSNO,KQEY,2019-01-05T21:40:00Z,,,-8.0,-12.0,230,1,,6.21,30.041338,,,TRUE,TRUE,,,TRUE,,,,BKN,14000,BKN,18000,,,,,VFR,,,,,,,,,,,,METAR,
KQEW 052140Z AUTO 25002KT 9999 BKN170 M05/M15 A3032 RMK A02 TSNO,KQEW,2019-01-05T21:40:00Z,,,-5.0,-15.0,250,2,,6.21,30.318897,,,TRUE,TRUE,,,TRUE,,,,BKN,17000,,,,,,,VFR,,,,,,,,,,,,METAR,
KQEV 052140Z AUTO 28001KT 9999 BKN160 BKN190 M10/M12 A3034 RMK A02 TSNO,KQEV,2019-01-05T21:40:00Z,,,-10.0,-12.0,280,1,,6.21,30.339567,,,TRUE,TRUE,,,TRUE,,,,BKN,16000,BKN,19000,,,,,VFR,,,,,,,,,,,,METAR,
KQES 052140Z AUTO 17003KT 9999 BKN160 M04/M08 A3039 RMK A02 TSNO,KQES,2019-01-05T21:40:00Z,,,-4.0,-8.0,170,3,,6.21,30.389763,,,TRUE,TRUE,,,TRUE,,,,BKN,16000,,,,,,,VFR,,,,,,,,,,,,METAR,
KQER 052140Z AUTO 14003KT 9999 OVC160 M13/M17 A3029 RMK A02 TSNO,KQER,2019-01-05T21:40:00Z,,,-13.0,-17.0,140,3,,6.21,30.28937,,,TRUE,TRUE,,,TRUE,,,,OVC,16000,,,,,,,VFR,,,,,,,,,,,,METAR,
KQEN 052140Z AUTO 25004KT 8000 BKN140 M13/M14 A3017 RMK A02 TSNO,KQEN,2019-01-05T21:40:00Z,,,-13.0,-14.0,250,4,,4.97,30.171259,,,TRUE,TRUE,,,TRUE,,,,BKN,14000,,,,,,,MVFR,,,,,,,,,,,,METAR,
KQEL 052140Z AUTO 11002KT 9999 BKN140 M10/M15 A3045 RMK A02 TSNO,KQEL,2019-01-05T21:40:00Z,,,-10.0,-15.0,110,2,,6.21,30.448818,,,TRUE,TRUE,,,TRUE,,,,BKN,14000,,,,,,,VFR,,,,,,,,,,,,METAR,
RJSF 052140Z 31006KT 270V340 9999 FEW020 SCT030 M02/M08 Q1017 RMK 1CU020 3CU030 A3004,RJSF,2019-01-05T21:40:00Z,37.22,140.42,-2.0,-8.0,310,6,,6.21,30.029528,,,,,,,,,,,FEW,2000,SCT,3000,,,,,VFR,,,,,,,,,,,,SPECI,375.0
RJSA 052140Z 24012KT 1200 R24/1800N -SHSN FEW002 SCT003 BKN005 M04/M05 Q1016 RMK 1ST002 3ST003 5ST005 A3001,RJSA,2019-01-05T21:40:00Z,40.72,140.68,-4.0,-5.0,240,12,,0.75,30.0,,,,,,,,,,-SHSN,FEW,200,SCT,300,BKN,500,,,LIFR,,,,,,,,,,,,METAR,201.0
RJEC 052140Z 21004KT 6000 -SHSN FEW010 SCT025 BKN040 M09/M10 Q1011 RMK 1ST010 3CU025 5CU040 A2988,RJEC,2019-01-05T21:40:00Z,43.67,142.43,-9.0,-10.0,210,4,,3.73,29.852362,,,,,,,,,,-SHSN,FEW,1000,SCT,2500,BKN,4000,,,MVFR,,,,,,,,,,,,METAR,211.0
ETIC 052140Z AUTO 29007KT 9999 -DZ OVC005 M A3020 RMK AO2 DZB40 SLPNO ALSTG ESTMD $,ETIC,2019-01-05T21:40:00Z,49.7,11.93,,,290,7,,6.21,30.200787,,,TRUE,TRUE,TRUE,,,,,-DZ,OVC,500,,,,,,,IFR,,,,,,,,,,,,SPECI,415.0
KMLT 052140Z AUTO 00000KT 10SM OVC029 01/M01 A2962 RMK AO2 T00061011,KMLT,2019-01-05T21:40:00Z,45.65,-68.7,0.6,-1.1,0,0,,10.0,29.619095,,,TRUE,TRUE,,,,,,,OVC,2900,,,,,,,MVFR,,,,,,,,,,,,METAR,123.0
KMDS 052140Z AUTO 35006KT 10SM 03/02 A2999 RMK AO2,KMDS,2019-01-05T21:40:00Z,44.02,-97.08,3.0,2.0,350,6,,10.0,29.991142,,,TRUE,TRUE,,,,,,,,,,,,,,,,,,,,,,,,,,,METAR,524.0
KEDJ 052140Z AUTO 25010KT 10SM CLR 08/02 A2989 RMK AO1,KEDJ,2019-01-05T21:40:00Z,40.37,-83.82,8.0,2.0,250,10,,10.0,29.890747,,,TRUE,TRUE,,,,,,,CLR,,,,,,,,VFR,,,,,,,,,,,,METAR,342.0
KUUU 052140Z AUTO 35010G19KT 2SM RA BR OVC005 05/04 A2944 RMK AO2 P0014 T00500044,KUUU,2019-01-05T21:40:00Z,41.53,-71.28,5.0,4.4,350,10,19,2.0,29.438976,,,TRUE,TRUE,,,,,,RA BR,OVC,500,,,,,,,IFR,,,,,,0.14,,,,,,METAR,51.0
KUKT 052140Z AUTO VRB04G12KT 10SM FEW036 BKN075 07/06 A2957 RMK A01,KUKT,2019-01-05T21:40:00Z,40.43,-75.38,7.0,6.0,0,4,12,10.0,29.568897,,,TRUE,TRUE,,,,,,,FEW,3600,BKN,7500,,,,,VFR,,,,,,,,,,,,METAR,160.0
KPBG 052140Z AUTO 34004KT 10SM OVC029 02/M01 A2962 RMK AO2 T00171011,KPBG,2019-01-05T21:40:00Z,44.65,-73.47,1.7,-1.1,340,4,,10.0,29.619095,,,TRUE,TRUE,,,,,,,OVC,2900,,,,,,,MVFR,,,,,,,,,,,,METAR,72.0
PKWA 052140Z AUTO 05013KT 10SM SCT016 29/25 A2984 RMK AO2 T02900248,PKWA,2019-01-05T21:40:00Z,8.72,167.72,29.0,24.8,50,13,,10.0,29.840551,,,TRUE,TRUE,,,,,,,SCT,1600,,,,,,,VFR,,,,,,,,,,,,METAR,8.0
PASD 052140Z 16015G21KT 10SM -SN FEW026 BKN033 OVC045 03/M02 A2986 RMK AO2 RAB38E40SNB40 PNO $,PASD,2019-01-05T21:40:00Z,55.33,-160.5,3.0,-2.0,160,15,21,10.0,29.861221,,,,TRUE,TRUE,,,,,-SN,FEW,2600,BKN,3300,OVC,4500,,,VFR,,,,,,,,,,,,SPECI,7.0
PADU 052140Z 24014KT 6SM -SN BKN024 OVC032 02/M01 A2960 RMK AO2 WSHFT 2113 RAE21SNB21 VIS NE 3 P0001,PADU,2019-01-05T21:40:00Z,53.9,-166.53,2.0,-1.0,240,14,,6.0,29.601377,,,,TRUE,,,,,,-SN,BKN,2400,OVC,3200,,,,,MVFR,,,,,,0.01,,,,,,SPECI,4.0
KHAF 052140Z AUTO 18019G35KT 3SM BR SCT008 SCT019 BKN055 12/11 A2968 RMK AO2 P0009,KHAF,2019-01-05T21:40:00Z,37.52,-122.5,12.0,11.0,180,19,35,3.0,29.681103,,,TRUE,TRUE,,,,,,BR,SCT,800,SCT,1900,BKN,5500,,,MVFR,,,,,,0.09,,,,,,SPECI,21.0
KCVH 052140Z AUTO 15014KT 10SM BKN050 BKN075 BKN085 12/08 A2975 RMK A01,KCVH,2019-01-05T21:40:00Z,36.9,-121.42,12.0,8.0,150,14,,10.0,29.749016,,,TRUE,TRUE,,,,,,,BKN,5000,BKN,7500,BKN,8500,,,VFR,,,,,,,,,,,,SPECI,70.0
CYFC 052140Z AUTO 03004KT 5SM -SN OVC034 01/00 A2964 RMK SLP040,CYFC,2019-01-05T21:40:00Z,45.87,-66.52,1.0,0.0,30,4,,5.0,29.639763,1004.0,,TRUE,,,,,,,-SN,OVC,3400,,,,,,,MVFR,,,,,,,,,,,,SPECI,20.0
KWBF 052140Z AUTO 00000KT 10SM CLR 18/12 A3018 RMK A01,KWBF,2019-01-05T21:40:00Z,,,18.0,12.0,0,0,,10.0,30.180119,,,TRUE,TRUE,,,,,,,CLR,,,,,,,,VFR,,,,,,,,,,,,SPECI,
KHQI 052140Z AUTO 10SM CLR 19/13 A3016 RMK A01,KHQI,2019-01-05T21:40:00Z,27.93,-93.67,19.0,13.0,,,,10.0,30.159449,,,TRUE,TRUE,,,,,,,CLR,,,,,,,,VFR,,,,,,,,,,,,SPECI,26.0
KGRY 052140Z AUTO 00000KT 10SM CLR 17/12 A3019 RMK A01,KGRY,2019-01-05T21:40:00Z,27.63,-90.45,17.0,12.0,0,0,,10.0,30.188976,,,TRUE,TRUE,,,,,,,CLR,,,,,,,,VFR,,,,,,,,,,,,SPECI,58.0
KGHB 052140Z AUTO 00000KT 10SM SCT022 17/12 A3020 RMK A01,KGHB,2019-01-05T21:40:00Z,27.83,-91.98,17.0,12.0,0,0,,10.0,30.200787,,,TRUE,TRUE,,,,,,,SCT,2200,,,,,,,VFR,,,,,,,,,,,,SPECI,30.0
KEMK 052140Z AUTO 00000KT 10SM CLR 23/12 A3017 RMK A01,KEMK,2019-01-05T21:40:00Z,27.82,-94.32,23.0,12.0,0,0,,10.0,30.171259,,,TRUE,TRUE,,,,,,,CLR,,,,,,,,VFR,,,,,,,,,,,,SPECI,26.0
KHSD 052140Z AUTO 15008KT 10SM CLR 18/03 A3001 RMK A01,KHSD,2019-01-05T21:40:00Z,35.6,-97.72,18.0,3.0,150,8,,10.0,30.008858,,,TRUE,TRUE,,,,,,,CLR,,,,,,,,VFR,,,,,,,,,,,,METAR,364.0
KGOO 052140Z AUTO 13011G22KT 110V230 10SM SCT010 OVC017 03/02 A2969 RMK AO1 P0001,KGOO,2019-01-05T21:40:00Z,39.22,-121.0,3.0,2.0,130,11,22,10.0,29.68996,,,TRUE,TRUE,,,,,,,SCT,1000,OVC,1700,,,,,MVFR,,,,,,0.01,,,,,,METAR,962.0
KFYM 052140Z AUTO 00000KT 10SM CLR 14/04 A3008 RMK A01,KFYM,2019-01-05T21:40:00Z,35.07,-86.57,14.0,4.0,0,0,,10.0,30.079725,,,TRUE,TRUE,,,,,,,CLR,,,,,,,,VFR,,,,,,,,,,,,SPECI,300.0
KVBW 052140Z AUTO 31003KT 10SM CLR 11/01 A2974 RMK AO1 T01140011,KVBW,2019-01-05T21:40:00Z,38.37,-78.97,11.4,1.1,310,3,,10.0,29.740158,,,TRUE,TRUE,,,,,,,CLR,,,,,,,,VFR,,,,,,,,,,,,SPECI,355.0
KW29 052140Z AUTO 31010KT 10SM SCT024 SCT065 SCT075 08/07 A2965 RMK AO2,KW29,2019-01-05T21:40:00Z,38.98,-76.33,8.0,7.0,310,10,,10.0,29.648623,,,TRUE,TRUE,,,,,,,SCT,2400,SCT,6500,SCT,7500,,,VFR,,,,,,,,,,,,METAR,15.0
KSUT 052140Z AUTO 30012G18KT 10SM CLR 15/05 A2985 RMK AO2 T01530050,KSUT,2019-01-05T21:40:00Z,33.93,-78.08,15.3,5.0,300,12,18,10.0,29.84941,,,TRUE,TRUE,,,,,,,CLR,,,,,,,,VFR,,,,,,,,,,,,METAR,8.0
KONX 052140Z AUTO 10SM OVC041 14/07 A2972 RMK AO2 T01360070,KONX,2019-01-05T21:40:00Z,36.4,-76.02,13.6,7.0,,,,10.0,29.719488,,,TRUE,TRUE,,,,,,,OVC,4100,,,,,,,VFR,,,,,,,,,,,,METAR,5.0
KMRN 052140Z AUTO 28005KT 10SM CLR 15/01 A2995 RMK AO2 T01450007,KMRN,2019-01-05T21:40:00Z,35.82,-81.62,14.5,0.7,280,5,,10.0,29.949802,,,TRUE,TRUE,,,,,,,CLR,,,,,,,,VFR,,,,,,,,,,,,METAR,387.0
KMQI 052140Z AUTO 29008G15KT 10SM CLR 13/06 A2973 RMK AO2 T01310056,KMQI,2019-01-05T21:40:00Z,35.92,-75.7,13.1,5.6,290,8,15,10.0,29.731298,,,TRUE,TRUE,,,,,,,CLR,,,,,,,,VFR,,,,,,,,,,,,METAR,4.0
KHRJ 052140Z AUTO 00000KT 10SM CLR 16/03 A2983 RMK AO2 T01620028,KHRJ,2019-01-05T21:40:00Z,35.38,-78.73,16.2,2.8,0,0,,10.0,29.828741,,,TRUE,TRUE,,,,,,,CLR,,,,,,,,VFR,,,,,,,,,,,,METAR,60.0
KFFA 052140Z AUTO 26010G16KT 240V300 10SM BKN042 13/06 A2971 RMK AO2 T01250060,KFFA,2019-01-05T21:40:00Z,36.02,-75.67,12.5,6.0,260,10,16,10.0,29.71063,,,TRUE,TRUE,,,,,,,BKN,4200,,,,,,,VFR,,,,,,,,,,,,METAR,4.0
KEYF 052140Z AUTO 27010KT 10SM CLR 16/05 A2985 RMK AO2 PWINO T01560046,KEYF,2019-01-05T21:40:00Z,34.6,-78.58,15.6,4.6,270,10,,10.0,29.84941,,,TRUE,TRUE,,,,,TRUE,,CLR,,,,,,,,VFR,,,,,,,,,,,,METAR,41.0
KEXX 052140Z AUTO 24006KT 10SM CLR 15/02 A2988 RMK AO2 T01510018,KEXX,2019-01-05T21:40:00Z,35.78,-80.3,15.1,1.8,240,6,,10.0,29.878937,,,TRUE,TRUE,,,,,,,CLR,,,,,,,,VFR,,,,,,,,,,,,METAR,223.0
KDPL 052140Z AUTO 29007KT 10SM CLR 16/04 A2981 RMK AO2,KDPL,2019-01-05T21:40:00Z,35.0,-77.97,16.0,4.0,290,7,,10.0,29.811024,,,TRUE,TRUE,,,,,,,CLR,,,,,,,,VFR,,,,,,,,,,,,METAR,42.0
KDMW 052140Z AUTO 30010G16KT 10SM CLR 09/03 A2965 RMK AO2,KDMW,2019-01-05T21:40:00Z,39.6,-77.0,9.0,3.0,300,10,16,10.0,29.648623,,,TRUE,TRUE,,,,,,,CLR,,,,,,,,VFR,,,,,,,,,,,,METAR,241.0
KCTZ 052140Z AUTO 28006KT 10SM CLR 17/05 A2983 RMK AO2 T01650051,KCTZ,2019-01-05T21:40:00Z,34.98,-78.37,16.5,5.1,280,6,,10.0,29.828741,,,TRUE,TRUE,,,,,,,CLR,,,,,,,,VFR,,,,,,,,,,,,METAR,45.0
KCPC 052140Z AUTO 27006KT 10SM CLR 16/04 A2985 RMK AO2 T01570043,KCPC,2019-01-05T21:40:00Z,34.28,-78.72,15.7,4.3,270,6,,10.0,29.84941,,,TRUE,TRUE,,,,,,,CLR,,,,,,,,VFR,,,,,,,,,,,,METAR,29.0
KCGE 052140Z AUTO 31010G17KT 10SM BKN050 BKN060 09/06 A2965 RMK A01,KCGE,2019-01-05T21:40:00Z,38.53,-76.03,9.0,6.0,310,10,17,10.0,29.648623,,,TRUE,TRUE,,,,,,,BKN,5000,BKN,6000,,,,,VFR,,,,,,,,,,,,METAR,6.0
KCBE 052140Z AUTO 28012G24KT 10SM CLR 10/02 A2980 RMK AO2 T01030016,KCBE,2019-01-05T21:40:00Z,39.62,-78.77,10.3,1.6,280,12,24,10.0,29.799213,,,TRUE,TRUE,,,,,,,CLR,,,,,,,,VFR,,,,,,,,,,,,METAR,236.0
KAFP 052140Z AUTO 28004KT 10SM CLR 17/03 A2987 RMK AO2 T01650025,KAFP,2019-01-05T21:40:00Z,35.02,-80.08,16.5,2.5,280,4,,10.0,29.870079,,,TRUE,TRUE,,,,,,,CLR,,,,,,,,VFR,,,,,,,,,,,,METAR,92.0
KVUJ 052140Z AUTO 30004KT 10SM CLR 16/02 A2992 RMK AO2 T01600016,KVUJ,2019-01-05T21:40:00Z,35.42,-80.15,16.0,1.6,300,4,,10.0,29.920275,,,TRUE,TRUE,,,,,,,CLR,,,,,,,,VFR,,,,,,,,,,,,METAR,186.0
KUKF 052140Z AUTO 30006G14KT 10SM CLR 13/01 A2995 RMK AO2,KUKF,2019-01-05T21:40:00Z,36.22,-81.1,13.0,1.0,300,6,14,10.0,29.949802,,,TRUE,TRUE,,,,,,,CLR,,,,,,,,VFR,,,,,,,,,,,,METAR,396.0
KSVH 052140Z AUTO 28008KT 10SM CLR 15/02 A2990 RMK AO2 T01460023,KSVH,2019-01-05T21:40:00Z,35.75,-80.95,14.6,2.3,280,8,,10.0,29.899607,,,TRUE,TRUE,,,,,,,CLR,,,,,,,,VFR,,,,,,,,,,,,METAR,294.0
KSCR 052140Z AUTO 30006KT 10SM CLR 15/01 A2985 RMK AO2 T01530012,KSCR,2019-01-05T21:40:00Z,35.7,-79.5,15.3,1.2,300,6,,10.0,29.84941,,,TRUE,TRUE,,,,,,,CLR,,,,,,,,VFR,,,,,,,,,,,,METAR,188.0
KRUQ 052140Z AUTO 29007KT 10SM CLR 15/01 A2989 RMK AO2 T01470014,KRUQ,2019-01-05T21:40:00Z,35.65,-80.52,14.7,1.4,290,7,,10.0,29.890747,,,TRUE,TRUE,,,,,,,CLR,,,,,,,,VFR,,,,,,,,,,,,METAR,236.0
KRHP 052140Z AUTO 10006KT 10SM CLR 13/02 A3002 RMK AO2 T01250015,KRHP,2019-01-05T21:40:00Z,35.18,-83.85,12.5,1.5,100,6,,10.0,30.02067,,,TRUE,TRUE,,,,,,,CLR,,,,,,,,VFR,,,,,,,,,,,,METAR,518.0
KRCZ 052140Z AUTO 25005KT 10SM CLR 16/05 A2987 RMK AO2 T01550047,KRCZ,2019-01-05T21:40:00Z,34.88,-79.77,15.5,4.7,250,5,,10.0,29.870079,,,TRUE,TRUE,,,,,,,CLR,,,,,,,,VFR,,,,,,,,,,,,METAR,109.0
KOCW 052140Z AUTO 28007KT 10SM CLR 15/03 A2977 RMK AO2 T01470032,KOCW,2019-01-05T21:40:00Z,35.57,-77.05,14.7,3.2,280,7,,10.0,29.769686,,,TRUE,TRUE,,,,,,,CLR,,,,,,,,VFR,,,,,,,,,,,,METAR,12.0
KLHZ 052140Z AUTO 10SM CLR 14/02 A2982 RMK AO2,KLHZ,2019-01-05T21:40:00Z,36.02,-78.33,14.0,2.0,,,,10.0,29.819881,,,TRUE,TRUE,,,,,,,CLR,,,,,,,,VFR,,,,,,,,,,,,METAR,113.0
KGWW 052140Z AUTO 28004KT 10SM CLR 16/04 A2980 RMK AO2 T01550035,KGWW,2019-01-05T21:40:00Z,35.47,-77.97,15.5,3.5,280,4,,10.0,29.799213,,,TRUE,TRUE,,,,,,,CLR,,,,,,,,VFR,,,,,,,,,,,,METAR,41.0
KFQD 052140Z AUTO 27003KT 10SM CLR 15/01 A2994 RMK AO2,KFQD,2019-01-05T21:40:00Z,35.42,-81.93,15.0,1.0,270,3,,10.0,29.940945,,,TRUE,TRUE,,,,,,,CLR,,,,,,,,VFR,,,,,,,,,,,,METAR,329.0
KETC 052140Z AUTO 28009KT 10SM CLR 15/03 A2977 RMK AO2 T01520031,KETC,2019-01-05T21:40:00Z,35.93,-77.55,15.2,3.1,280,9,,10.0,29.769686,,,TRUE,TRUE,,,,,,,CLR,,,,,,,,VFR,,,,,,,,,,,,METAR,17.0
KEDE 052140Z AUTO 29008KT 10SM CLR 15/07 A2975 RMK AO2 T01480068,KEDE,2019-01-05T21:40:00Z,36.02,-76.57,14.8,6.8,290,8,,10.0,29.749016,,,TRUE,TRUE,,,,,,,CLR,,,,,,,,VFR,,,,,,,,,,,,METAR,6.0
KASJ 052140Z AUTO 29006KT 10SM CLR 13/04 A2976 RMK AO2 T01330036,KASJ,2019-01-05T21:40:00Z,36.28,-77.17,13.3,3.6,290,6,,10.0,29.760826,,,TRUE,TRUE,,,,,,,CLR,,,,,,,,VFR,,,,,,,,,,,,METAR,21.0
K24A 052140Z AUTO 31006KT 10SM CLR 11/00 A2999 RMK AO2 T01141004,K24A,2019-01-05T21:40:00Z,35.32,-83.2,11.4,-0.4,310,6,,10.0,29.991142,,,TRUE,TRUE,,,,,,,CLR,,,,,,,,VFR,,,,,,,,,,,,METAR,871.0
K1A5 052140Z AUTO 32010G14KT 290V350 10SM CLR 12/03 A3004 RMK AO2 T01210032,K1A5,2019-01-05T21:40:00Z,35.22,-83.42,12.1,3.2,320,10,14,10.0,30.041338,,,TRUE,TRUE,,,,,,,CLR,,,,,,,,VFR,,,,,,,,,,,,METAR,616.0
PAED 052140Z 00000KT 3SM BR OVC005 M12/M12 A2985 RMK AO2A SLP108 FG BANK OHD $,PAED,2019-01-05T21:40:00Z,61.25,-149.8,-12.0,-12.0,0,0,,3.0,29.84941,1010.8,,,TRUE,TRUE,,,,,BR,OVC,500,,,,,,,IFR,,,,,,,,,,,,METAR,59.0
EHWO 052140Z AUTO 29008KT 240V330 9000 BR FEW013 SCT015 BKN019 05/04 Q1034 WHT,EHWO,2019-01-05T21:40:00Z,51.45,4.32,5.0,4.0,290,8,,5.59,30.531496,,,TRUE,,,,,,,BR,FEW,1300,SCT,1500,BKN,1900,,,MVFR,,,,,,,,,,,,SPECI,17.0
EHKD 052139Z AUTO 32012KT 280V350 9999 FEW010 BKN016 OVC021 07/05 Q1032 WHT,EHKD,2019-01-05T21:39:00Z,52.92,4.77,7.0,5.0,320,12,,6.21,30.47244,,,TRUE,,,,,,,,FEW,1000,BKN,1600,OVC,2100,,,MVFR,,,,,,,,,,,,SPECI,14.0
EHEH 052139Z AUTO 27005KT 230V320 9999 FEW020 SCT026 OVC037 06/05 Q1033 BLU 28008KT 9999 FEW015 BKN030 TEMPO 4500 BR -DZ SCT008 SCT010 BKN012,EHEH,2019-01-05T21:39:00Z,51.45,5.38,6.0,5.0,270,5,,6.21,30.501968,,,TRUE,,,,,,,,FEW,2000,SCT,2600,OVC,3700,FEW,1500,VFR,,,,,,,,,,,,METAR,22.0
BGTL 052139Z AUTO 11014G23KT 9999 FEW080 M15/M17 A2991 RMK AO2 WSHFT 32 SLP118 TSNO CHINO RWY26 $,BGTL,2019-01-05T21:39:00Z,76.53,-68.7,-15.0,-17.0,110,14,23,6.21,29.911417,1011.8,,TRUE,TRUE,TRUE,,TRUE,,,,FEW,8000,,,,,,,VFR,,,,,,,,,,,,METAR,77.0
CYGW 052139Z AUTO 00000KT 5SM -SN CLR M26/M28 A2980 RMK SLP095,CYGW,2019-01-05T21:39:00Z,55.27,-77.77,-26.0,-28.0,0,0,,5.0,29.799213,1009.5,,TRUE,,,,,,,-SN,CLR,,,,,,,,MVFR,,,,,,,,,,,,SPECI,12.0
KTAN 052139Z AUTO 34007KT 2SM RA BR BKN007 OVC010 06/04 A2945 RMK AO2 RAB02 P0003 T00560039,KTAN,2019-01-05T21:39:00Z,41.88,-71.02,5.6,3.9,340,7,,2.0,29.450787,,,TRUE,TRUE,,,,,,RA BR,BKN,700,OVC,1000,,,,,IFR,,,,,,0.03,,,,,,SPECI,7.0
KHHR 052139Z 11007KT 10SM BKN024 BKN034 OVC100 14/09 A2996 RMK AO2 T01440089,KHHR,2019-01-05T21:39:00Z,33.92,-118.33,14.4,8.9,110,7,,10.0,29.958662,,,,TRUE,,,,,,,BKN,2400,BKN,3400,OVC,10000,,,MVFR,,,,,,,,,,,,SPECI,18.0
KFVE 052139Z AUTO 05003KT 4SM BR OVC003 00/M02 A2961 RMK AO2 T00001017,KFVE,2019-01-05T21:39:00Z,47.28,-68.3,0.0,-1.7,50,3,,4.0,29.610237,,,TRUE,TRUE,,,,,,BR,OVC,300,,,,,,,LIFR,,,,,,,,,,,,SPECI,301.0
CYSF 052139Z AUTO 00000KT 8SM OVC012 M27/M30 A3010 RMK SLP232,CYSF,2019-01-05T21:39:00Z,59.25,-105.82,-27.0,-30.0,0,0,,8.0,30.100393,1023.2,,TRUE,,,,,,,,OVC,1200,,,,,,,MVFR,,,,,,,,,,,,SPECI,250.0
KTCM 052138Z AUTO 26005KT 10SM BKN006 BKN090 07/07 A2941 RMK AO2 CIG 006V095 BKN006 V SCT SLP964 $,KTCM,2019-01-05T21:38:00Z,47.12,-122.47,7.0,7.0,260,5,,10.0,29.409449,996.4,,TRUE,TRUE,TRUE,,,,,,BKN,600,BKN,9000,,,,,IFR,,,,,,,,,,,,SPECI,98.0
KDOV 052138Z AUTO 28014G21KT 10SM -RA BKN014 OVC055 08/07 A2958 RMK AO2 DZB18E19RAB19 CIG 014V060 CIG 013 RWY19 SLP020 $,KDOV,2019-01-05T21:38:00Z,39.12,-75.47,8.0,7.0,280,14,21,10.0,29.58071,1002.0,,TRUE,TRUE,TRUE,,,,,-RA,BKN,1400,OVC,5500,,,,,MVFR,,,,,,,,,,,,SPECI,9.0
KHZR 052138Z AUTO 34003KT 10SM CLR 17/07 A3018 RMK AO2,KHZR,2019-01-05T21:38:00Z,30.72,-91.48,17.0,7.0,340,3,,10.0,30.180119,,,TRUE,TRUE,,,,,,,CLR,,,,,,,,VFR,,,,,,,,,,,,SPECI,12.0
KROC 052138Z 30010KT 7SM OVC014 03/00 A2974 RMK AO2 T00280000,KROC,2019-01-05T21:38:00Z,43.12,-77.68,2.8,0.0,300,10,,7.0,29.740158,,,,TRUE,,,,,,,OVC,1400,,,,,,,MVFR,,,,,,,,,,,,SPECI,178.0
KRDD 052138Z VRB04KT 1 3/4SM RA BR BKN010 OVC016 06/04 A2961 RMK AO2 CIG 008V013 P0005 T00560044,KRDD,2019-01-05T21:38:00Z,40.52,-122.3,5.6,4.4,0,4,,1.75,29.610237,,,,TRUE,,,,,,RA BR,BKN,1000,OVC,1600,,,,,IFR,,,,,,0.05,,,,,,SPECI,155.0
YSRI 052138Z AUTO 21006KT //// // BKN008 OVC015 OVC021 18/17 Q1017,YSRI,2019-01-05T21:38:00Z,-33.6,150.77,18.0,17.0,210,6,,,30.029528,,,TRUE,,,,,,,,BKN,800,OVC,1500,OVC,2100,,,,,,,,,,,,,,,SPECI,21.0
KXVG 052138Z AUTO 33004KT 10SM OVC010 M01/M03 A2998 RMK AO2,KXVG,2019-01-05T21:38:00Z,46.98,-94.2,-1.0,-3.0,330,4,,10.0,29.97933,,,TRUE,TRUE,,,,,,,OVC,1000,,,,,,,MVFR,,,,,,,,,,,,SPECI,407.0
CYCX 052138Z AUTO 06002KT 2 1/2SM -UP OVC018 OVC066 01/00 A2964,CYCX,2019-01-05T21:38:00Z,45.82,-66.42,1.0,0.0,60,2,,2.5,29.639763,,,TRUE,,,,,,,UP,OVC,1800,OVC,6600,,,,,IFR,,,,,,,,,,,,SPECI,51.0
CYYN 052138Z AUTO 14014G19KT 1SM -FZRA BR VV003 M05/M06 A2985 RMK ICG SLP149,CYYN,2019-01-05T21:38:00Z,50.27,-107.67,-5.0,-6.0,140,14,19,1.0,29.84941,1014.9,,TRUE,,,,,,,-FZRA BR,OVX,0,,,,,,,LIFR,,,,,,,,,,,300,SPECI,818.0
CYZV 052138Z 08003KT 10SM OVC008 M02/M02 A2968 RMK SF8 SLP055,CYZV,2019-01-05T21:38:00Z,50.22,-66.27,-2.0,-2.0,80,3,,10.0,29.681103,1005.5,,,,,,,,,,OVC,800,,,,,,,IFR,,,,,,,,,,,,SPECI,55.0
KWRI 052138Z 30010KT 6SM -RA BR OVC006 07/07 A2950 RMK AO2A TWR VIS 2 RAE11RAB30 CIG 006 RWY18 CIG 006 RWY24 SLPNO ALSTG ESTMD $,KWRI,2019-01-05T21:38:00Z,40.02,-74.58,7.0,7.0,300,10,,6.0,29.500984,,,,TRUE,TRUE,,,,,-RA BR,OVC,600,,,,,,,IFR,,,,,,,,,,,,METAR,41.0
CYXR 052137Z AUTO 00000KT 9SM -FZRA SCT006 SCT016 BKN022 OVC046 M01/M01 A2966 RMK ICG SLP058,CYXR,2019-01-05T21:37:00Z,47.7,-79.83,-1.0,-1.0,0,0,,9.0,29.660433,1005.8,,TRUE,,,,,,,-FZRA,SCT,600,SCT,1600,BKN,2200,OVC,4600,MVFR,,,,,,,,,,,,SPECI,243.0
KNY0 052137Z AUTO 31009KT 10SM CLR 03/00 A2957 RMK AO2,KNY0,2019-01-05T21:37:00Z,42.98,-74.33,3.0,0.0,310,9,,10.0,29.568897,,,TRUE,TRUE,,,,,,,CLR,,,,,,,,VFR,,,,,,,,,,,,SPECI,271.0
KJES 052137Z AUTO 29008KT 10SM CLR 17/06 A3000 RMK AO2,KJES,2019-01-05T21:37:00Z,31.55,-81.88,17.0,6.0,290,8,,10.0,30.0,,,TRUE,TRUE,,,,,,,CLR,,,,,,,,VFR,,,,,,,,,,,,METAR,33.0
KBAB 052137Z 13023G29KT 10SM FEW035 OVC048 10/05 A2964 RMK AO2A RAE05DZB05E11DZB28E37 SLP041 $,KBAB,2019-01-05T21:37:00Z,39.12,-121.42,10.0,5.0,130,23,29,10.0,29.639763,1004.1,,,TRUE,TRUE,,,,,,FEW,3500,OVC,4800,,,,,VFR,,,,,,,,,,,,SPECI,34.0
KGON 052137Z 36017G23KT 5SM RA BR FEW007 OVC040 06/04 A2943 RMK AO2 P0020 T00560044,KGON,2019-01-05T21:37:00Z,41.33,-72.05,5.6,4.4,360,17,23,5.0,29.430119,,,,TRUE,,,,,,RA BR,FEW,700,OVC,4000,,,,,MVFR,,,,,,0.2,,,,,,SPECI,3.0
KFWN 052137Z AUTO VRB03KT 10SM SCT016 OVC036 07/06 A2954 RMK AO2 T00720056,KFWN,2019-01-05T21:37:00Z,41.2,-74.63,7.2,5.6,0,3,,10.0,29.53937,,,TRUE,TRUE,,,,,,,SCT,1600,OVC,3600,,,,,VFR,,,,,,,,,,,,SPECI,133.0
PARC 052137Z AUTO 2SM BR CLR A2981 RMK AO2 FZRANO $,PARC,2019-01-05T21:37:00Z,68.12,-145.58,,,,,,2.0,29.811024,,,TRUE,TRUE,TRUE,,,TRUE,,BR,CLR,,,,,,,,IFR,,,,,,,,,,,,SPECI,636.0
KPQN 052136Z AUTO 03003KT 10SM CLR 04/M01 A2998 RMK AO2,KPQN,2019-01-05T21:36:00Z,43.97,-96.32,4.0,-1.0,30,3,,10.0,29.97933,,,TRUE,TRUE,,,,,,,CLR,,,,,,,,VFR,,,,,,,,,,,,SPECI,529.0
KPNM 052136Z AUTO 36010KT 10SM CLR 05/M01 A2997 RMK AO2,KPNM,2019-01-05T21:36:00Z,45.57,-93.6,5.0,-1.0,360,10,,10.0,29.970472,,,TRUE,TRUE,,,,,,,CLR,,,,,,,,VFR,,,,,,,,,,,,SPECI,298.0
KONZ 052136Z AUTO 23005KT 10SM CLR 08/02 A2978 RMK AO2 T00770022,KONZ,2019-01-05T21:36:00Z,42.1,-83.15,7.7,2.2,230,5,,10.0,29.778543,,,TRUE,TRUE,,,,,,,CLR,,,,,,,,VFR,,,,,,,,,,,,SPECI,180.0
KONA 052136Z AUTO 30007KT 10SM CLR 09/00 A2991 RMK AO2,KONA,2019-01-05T21:36:00Z,44.07,-91.7,9.0,0.0,300,7,,10.0,29.911417,,,TRUE,TRUE,,,,,,,CLR,,,,,,,,VFR,,,,,,,,,,,,SPECI,200.0
KMWM 052136Z AUTO 32010KT 10SM CLR 03/M01 A2998 RMK AO2,KMWM,2019-01-05T21:36:00Z,43.9,-95.1,3.0,-1.0,320,10,,10.0,29.97933,,,TRUE,TRUE,,,,,,,CLR,,,,,,,,VFR,,,,,,,,,,,,SPECI,430.0
KMQJ 052136Z AUTO 24008KT 10SM CLR 11/05 A2993 RMK AO1,KMQJ,2019-01-05T21:36:00Z,39.85,-85.9,11.0,5.0,240,8,,10.0,29.929134,,,TRUE,TRUE,,,,,,,CLR,,,,,,,,VFR,,,,,,,,,,,,SPECI,263.0
KLYV 052136Z AUTO 35005KT 10SM CLR 04/M01 A3000 RMK AO2,KLYV,2019-01-05T21:36:00Z,43.62,-96.22,4.0,-1.0,350,5,,10.0,30.0,,,TRUE,TRUE,,,,,,,CLR,,,,,,,,VFR,,,,,,,,,,,,SPECI,436.0
KLWA 052136Z AUTO 25009G15KT 10SM CLR 09/02 A2984 RMK AO2 T00850020,KLWA,2019-01-05T21:36:00Z,42.35,-86.25,8.5,2.0,250,9,15,10.0,29.840551,,,TRUE,TRUE,,,,,,,CLR,,,,,,,,VFR,,,,,,,,,,,,SPECI,203.0
KJYM 052136Z AUTO 25006KT 10SM CLR 09/01 A2981 RMK AO2 T00910008,KJYM,2019-01-05T21:36:00Z,41.92,-84.58,9.1,0.8,250,6,,10.0,29.811024,,,TRUE,TRUE,,,,,,,CLR,,,,,,,,VFR,,,,,,,,,,,,SPECI,360.0
KJYG 052136Z AUTO 31008KT 10SM CLR 04/01 A3001 RMK AO2,KJYG,2019-01-05T21:36:00Z,43.98,-94.55,4.0,1.0,310,8,,10.0,30.008858,,,TRUE,TRUE,,,,,,,CLR,,,,,,,,VFR,,,,,,,,,,,,SPECI,325.0
KJMR 052136Z AUTO 36004KT 10SM SCT018 01/M02 A2999 RMK AO2,KJMR,2019-01-05T21:36:00Z,45.88,-93.27,1.0,-2.0,360,4,,10.0,29.991142,,,TRUE,TRUE,,,,,,,SCT,1800,,,,,,,VFR,,,,,,,,,,,,SPECI,309.0
KJKJ 052136Z AUTO 01010G14KT 7SM OVC003 M03/M04 A3007 RMK AO2,KJKJ,2019-01-05T21:36:00Z,46.83,-96.67,-3.0,-4.0,10,10,14,7.0,30.070866,,,TRUE,TRUE,,,,,,,OVC,300,,,,,,,LIFR,,,,,,,,,,,,SPECI,280.0
KISQ 052136Z AUTO 29010KT 03/00 A2974 RMK AO2 T00251005 PWINO,KISQ,2019-01-05T21:36:00Z,45.97,-86.17,2.5,-0.5,290,10,,,29.740158,,,TRUE,TRUE,,,,,TRUE,,,,,,,,,,,,,,,,,,,,,,SPECI,209.0
KHZL 052136Z AUTO 30007KT 10SM SCT004 SCT009 04/03 A2963 RMK AO2,KHZL,2019-01-05T21:36:00Z,40.98,-76.0,4.0,3.0,300,7,,10.0,29.630905,,,TRUE,TRUE,,,,,,,SCT,400,SCT,900,,,,,VFR,,,,,,,,,,,,SPECI,489.0
KHCO 052136Z AUTO 36011KT 10SM OVC014 M06/M07 A3011 RMK AO2,KHCO,2019-01-05T21:36:00Z,48.75,-96.93,-6.0,-7.0,360,11,,10.0,30.109253,,,TRUE,TRUE,,,,,,,OVC,1400,,,,,,,MVFR,,,,,,,,,,,,SPECI,250.0
KHAI 052136Z AUTO 29006KT 10SM CLR 11/02 A2984 RMK AO2 T01100019,KHAI,2019-01-05T21:36:00Z,41.97,-85.6,11.0,1.9,290,6,,10.0,29.840551,,,TRUE,TRUE,,,,,,,CLR,,,,,,,,VFR,,,,,,,,,,,,SPECI,251.0
KEVM 052136Z AUTO 28003KT 10SM OVC010 M01/M01 A2995 RMK AO2 T10121015,KEVM,2019-01-05T21:36:00Z,47.42,-92.5,-1.2,-1.5,280,3,,10.0,29.949802,,,TRUE,TRUE,,,,,,,OVC,1000,,,,,,,MVFR,,,,,,,,,,,,SPECI,421.0
KELO 052136Z AUTO 31008KT 10SM BKN016 M01/M02 A2991 RMK AO2 TSNO,KELO,2019-01-05T21:36:00Z,47.82,-91.82,-1.0,-2.0,310,8,,10.0,29.911417,,,TRUE,TRUE,,,TRUE,,,,BKN,1600,,,,,,,MVFR,,,,,,,,,,,,SPECI,443.0
KDYT 052136Z AUTO 10SM CLR 01/M01 A2997 RMK AO2,KDYT,2019-01-05T21:36:00Z,46.72,-92.03,1.0,-1.0,,,,10.0,29.970472,,,TRUE,TRUE,,,,,,,CLR,,,,,,,,VFR,,,,,,,,,,,,SPECI,186.0
KDUH 052136Z AUTO 24004KT 10SM CLR 09/03 A2981 RMK AO2 T00880032,KDUH,2019-01-05T21:36:00Z,41.73,-83.65,8.8,3.2,240,4,,10.0,29.811024,,,TRUE,TRUE,,,,,,,CLR,,,,,,,,VFR,,,,,,,,,,,,SPECI,204.0
KDRM 052136Z AUTO 00000KT 7SM OVC011 03/01 A2966 RMK AO2 T00270009,KDRM,2019-01-05T21:36:00Z,46.0,-83.75,2.7,0.9,0,0,,7.0,29.660433,,,TRUE,TRUE,,,,,,,OVC,1100,,,,,,,MVFR,,,,,,,,,,,,SPECI,204.0
KCBG 052136Z AUTO 36006KT 10SM CLR 04/M02 A2997 RMK AO2,KCBG,2019-01-05T21:36:00Z,45.57,-93.27,4.0,-2.0,360,6,,10.0,29.970472,,,TRUE,TRUE,,,,,,,CLR,,,,,,,,VFR,,,,,,,,,,,,SPECI,287.0
KBDH 052136Z AUTO 30007KT 10SM CLR 01/M02 A3001 RMK AO2,KBDH,2019-01-05T21:36:00Z,45.12,-95.13,1.0,-2.0,300,7,,10.0,30.008858,,,TRUE,TRUE,,,,,,,CLR,,,,,,,,VFR,,,,,,,,,,,,SPECI,247.0
KAXV 052136Z AUTO 23009KT 7SM CLR 10/01 A2990 RMK AO2,KAXV,2019-01-05T21:36:00Z,40.5,-84.3,10.0,1.0,230,9,,7.0,29.899607,,,TRUE,TRUE,,,,,,,CLR,,,,,,,,VFR,,,,,,,,,,,,SPECI,279.0
KACQ 052136Z AUTO 29010KT 10SM CLR 04/00 A2997 RMK AO2,KACQ,2019-01-05T21:36:00Z,44.07,-93.55,4.0,0.0,290,10,,10.0,29.970472,,,TRUE,TRUE,,,,,,,CLR,,,,,,,,VFR,,,,,,,,,,,,SPECI,343.0
KACB 052136Z AUTO 30004KT 10SM OVC021 05/01 A2974 RMK AO2 T00490007,KACB,2019-01-05T21:36:00Z,44.98,-85.2,4.9,0.7,300,4,,10.0,29.740158,,,TRUE,TRUE,,,,,,,OVC,2100,,,,,,,MVFR,,,,,,,,,,,,SPECI,190.0
K9MN 052136Z AUTO 28010KT 10SM CLR 07/00 A2992 RMK AO1 T00720002,K9MN,2019-01-05T21:36:00Z,44.02,-92.48,7.2,0.2,280,10,,10.0,29.920275,,,TRUE,TRUE,,,,,,,CLR,,,,,,,,VFR,,,,,,,,,,,,SPECI,355.0
K4I3 052136Z AUTO 24007KT 10SM CLR 09/03 A2986 RMK AO2,K4I3,2019-01-05T21:36:00Z,40.33,-82.53,9.0,3.0,240,7,,10.0,29.861221,,,TRUE,TRUE,,,,,,,CLR,,,,,,,,VFR,,,,,,,,,,,,SPECI,363.0
K22N 052136Z AUTO 30005KT 10SM CLR 07/03 A2959 RMK AO2,K22N,2019-01-05T21:36:00Z,40.8,-75.77,7.0,3.0,300,5,,10.0,29.589567,,,TRUE,TRUE,,,,,,,CLR,,,,,,,,VFR,,,,,,,,,,,,SPECI,163.0
K14Y 052136Z AUTO 35003KT SCT016 01/M02 A2998 RMK AO2 PWINO,K14Y,2019-01-05T21:36:00Z,45.9,-94.87,1.0,-2.0,350,3,,,29.97933,,,TRUE,TRUE,,,,,TRUE,,SCT,1600,,,,,,,,,,,,,,,,,,,SPECI,406.0
KEIK 052136Z AUTO 34003KT 10SM CLR 14/M09 A2999 RMK AO2 T01431095,KEIK,2019-01-05T21:36:00Z,40.02,-105.05,14.3,-9.5,340,3,,10.0,29.991142,,,TRUE,TRUE,,,,,,,CLR,,,,,,,,VFR,,,,,,,,,,,,SPECI,1564.0
K04V 052136Z AUTO 00000KT 10SM CLR M05/M10 A3017 RMK AO2,K04V,2019-01-05T21:36:00Z,38.1,-106.17,-5.0,-10.0,0,0,,10.0,30.171259,,,TRUE,TRUE,,,,,,,CLR,,,,,,,,VFR,,,,,,,,,,,,SPECI,2385.0
KRMY 052136Z AUTO 23004KT 10SM CLR 09/03 A2980 RMK AO2 T00900033,KRMY,2019-01-05T21:36:00Z,42.23,-84.95,9.0,3.3,230,4,,10.0,29.799213,,,TRUE,TRUE,,,,,,,CLR,,,,,,,,VFR,,,,,,,,,,,,SPECI,287.0
KPZQ 052136Z AUTO 30011G15KT 10SM OVC024 04/01 A2968 RMK AO2 T00400005,KPZQ,2019-01-05T21:36:00Z,45.4,-83.82,4.0,0.5,300,11,15,10.0,29.681103,,,TRUE,TRUE,,,,,,,OVC,2400,,,,,,,MVFR,,,,,,,,,,,,SPECI,204.0
KTWM 052136Z AUTO 31005KT 10SM OVC017 00/M03 A2991 RMK AO2,KTWM,2019-01-05T21:36:00Z,47.03,-91.75,0.0,-3.0,310,5,,10.0,29.911417,,,TRUE,TRUE,,,,,,,OVC,1700,,,,,,,MVFR,,,,,,,,,,,,SPECI,328.0
KTTF 052136Z AUTO 24010KT 10SM CLR 08/05 A2979 RMK AO2 T00750045,KTTF,2019-01-05T21:36:00Z,41.93,-83.42,7.5,4.5,240,10,,10.0,29.790354,,,TRUE,TRUE,,,,,,,CLR,,,,,,,,VFR,,,,,,,,,,,,SPECI,188.0
KTKC 052136Z AUTO 31006KT 10SM CLR 04/00 A3000 RMK AO2 T00350000,KTKC,2019-01-05T21:36:00Z,44.25,-95.62,3.5,0.0,310,6,,10.0,30.0,,,TRUE,TRUE,,,,,,,CLR,,,,,,,,VFR,,,,,,,,,,,,SPECI,408.0
KSJX 052136Z AUTO 30007KT 270V330 10SM OVC023 03/01 A2974 RMK AO2 T00280005,KSJX,2019-01-05T21:36:00Z,45.7,-85.57,2.8,0.5,300,7,,10.0,29.740158,,,TRUE,TRUE,,,,,,,OVC,2300,,,,,,,MVFR,,,,,,,,,,,,SPECI,204.0
KRZT 052136Z AUTO 25009KT 10SM CLR 08/02 A2992 RMK AO2,KRZT,2019-01-05T21:36:00Z,39.43,-83.02,8.0,2.0,250,9,,10.0,29.920275,,,TRUE,TRUE,,,,,,,CLR,,,,,,,,VFR,,,,,,,,,,,,SPECI,221.0
PAKI 052136Z AUTO 08010KT 3SM -SN BR OVC002 M13/M14 A2985 RMK AO2 SNB00 P0000 FZRANO,PAKI,2019-01-05T21:36:00Z,59.93,-164.03,-13.0,-14.0,80,10,,3.0,29.84941,,,TRUE,TRUE,,,,TRUE,,-SN BR,OVC,200,,,,,,,LIFR,,,,,,0.005,,,,,,METAR,4.0
KMHS 052136Z AUTO VRB03KT 1/4SM SN FG FEW006 OVC010 00/M01 A2949 RMK AO2 PRESFR P0006 T00001006,KMHS,2019-01-05T21:36:00Z,41.32,-122.32,0.0,-0.6,0,3,,0.25,29.489174,,,TRUE,TRUE,,,,,,SN FG,FEW,600,OVC,1000,,,,,LIFR,,,,,,0.06,,,,,,SPECI,1078.0
KBJI 052136Z AUTO 31007KT 10SM CLR M01/M04 A2999 RMK AO2 T10081043,KBJI,2019-01-05T21:36:00Z,47.5,-94.92,-0.8,-4.3,310,7,,10.0,29.991142,,,TRUE,TRUE,,,,,,,CLR,,,,,,,,VFR,,,,,,,,,,,,SPECI,420.0
KCFS 052136Z AUTO 23008KT 10SM CLR 06/02 A2971 RMK AO2 T00580023,KCFS,2019-01-05T21:36:00Z,43.47,-83.45,5.8,2.3,230,8,,10.0,29.71063,,,TRUE,TRUE,,,,,,,CLR,,,,,,,,VFR,,,,,,,,,,,,SPECI,214.0
KERY 052136Z AUTO 29008KT 1 1/2SM BR OVC004 02/00 A2970 RMK AO2 T00150003,KERY,2019-01-05T21:36:00Z,46.3,-85.45,1.5,0.3,290,8,,1.5,29.698818,,,TRUE,TRUE,,,,,,BR,OVC,400,,,,,,,LIFR,,,,,,,,,,,,SPECI,265.0
KFKS 052136Z AUTO 25004KT 10SM CLR 04/02 A2976 RMK AO2 T00380015,KFKS,2019-01-05T21:36:00Z,44.63,-86.2,3.8,1.5,250,4,,10.0,29.760826,,,TRUE,TRUE,,,,,,,CLR,,,,,,,,VFR,,,,,,,,,,,,SPECI,193.0
KLDM 052136Z AUTO 24007KT 10SM CLR 05/02 A2977 RMK AO2 T00470023,KLDM,2019-01-05T21:36:00Z,43.97,-86.4,4.7,2.3,240,7,,10.0,29.769686,,,TRUE,TRUE,,,,,,,CLR,,,,,,,,VFR,,,,,,,,,,,,SPECI,197.0
KMOP 052136Z AUTO 26005KT 10SM CLR 08/01 A2973 RMK AO2 T00760012,KMOP,2019-01-05T21:36:00Z,43.62,-84.73,7.6,1.2,260,5,,10.0,29.731298,,,TRUE,TRUE,,,,,,,CLR,,,,,,,,VFR,,,,,,,,,,,,SPECI,230.0
KMJQ 052136Z AUTO 34005KT 10SM CLR 04/00 A2999 RMK AO2,KMJQ,2019-01-05T21:36:00Z,43.63,-94.97,4.0,0.0,340,5,,10.0,29.991142,,,TRUE,TRUE,,,,,,,CLR,,,,,,,,VFR,,,,,,,,,,,,SPECI,441.0
KMCD 052136Z AUTO 29010KT 10SM OVC018 02/02 A2969 RMK AO2 T00180018,KMCD,2019-01-05T21:36:00Z,45.85,-84.63,1.8,1.8,290,10,,10.0,29.68996,,,TRUE,TRUE,,,,,,,OVC,1800,,,,,,,MVFR,,,,,,,,,,,,SPECI,226.0
KCVX 052136Z AUTO 27012KT 10SM BKN026 03/01 A2976 RMK AO2 T00310007,KCVX,2019-01-05T21:36:00Z,45.3,-85.27,3.1,0.7,270,12,,10.0,29.760826,,,TRUE,TRUE,,,,,,,BKN,2600,,,,,,,MVFR,,,,,,,,,,,,SPECI,204.0
K21D 052136Z AUTO 33008KT 10SM 06/00 A2995 RMK AO2,K21D,2019-01-05T21:36:00Z,45.0,-92.85,6.0,0.0,330,8,,10.0,29.949802,,,TRUE,TRUE,,,,,,,,,,,,,,,,,,,,,,,,,,,METAR,285.0
KSFY 052136Z AUTO 26005KT 10SM CLR 09/03 A2993 RMK AO2,KSFY,2019-01-05T21:36:00Z,42.05,-90.12,9.0,3.0,260,5,,10.0,29.929134,,,TRUE,TRUE,,,,,,,CLR,,,,,,,,VFR,,,,,,,,,,,,METAR,188.0
KSYN 052136Z AUTO 28006KT 10SM CLR 06/01 A2993 RMK AO2 T00570005,KSYN,2019-01-05T21:36:00Z,44.47,-93.02,5.7,0.5,280,6,,10.0,29.929134,,,TRUE,TRUE,,,,,,,CLR,,,,,,,,VFR,,,,,,,,,,,,SPECI,280.0
KPEX 052136Z AUTO 31006KT 10SM CLR 03/00 A2998 RMK AO2 T00260000,KPEX,2019-01-05T21:36:00Z,45.37,-94.73,2.6,0.0,310,6,,10.0,29.97933,,,TRUE,TRUE,,,,,,,CLR,,,,,,,,VFR,,,,,,,,,,,,SPECI,360.0
KOXD 052136Z AUTO 25007KT 10SM CLR 10/05 A2993 RMK AO2 T01030047,KOXD,2019-01-05T21:36:00Z,39.5,-84.78,10.3,4.7,250,7,,10.0,29.929134,,,TRUE,TRUE,,,,,,,CLR,,,,,,,,VFR,,,,,,,,,,,,SPECI,317.0
KFKA 052136Z AUTO 31009KT 10SM CLR 06/00 A2992 RMK AO2 T00580000,KFKA,2019-01-05T21:36:00Z,43.68,-92.17,5.8,0.0,310,9,,10.0,29.920275,,,TRUE,TRUE,,,,,,,CLR,,,,,,,,VFR,,,,,,,,,,,,SPECI,389.0
KI19 052136Z AUTO 25009KT 10SM CLR 10/03 A2993 RMK AO2 T00960025,KI19,2019-01-05T21:36:00Z,39.7,-83.98,9.6,2.5,250,9,,10.0,29.929134,,,TRUE,TRUE,,,,,,,CLR,,,,,,,,VFR,,,,,,,,,,,,SPECI,289.0
ETIH 052136Z AUTO 28007KT 9999 -RA BKN008 OVC013 04/04 A3021 RMK AO2 RAE07RAB36 SLP251 $,ETIH,2019-01-05T21:36:00Z,49.22,11.82,4.0,4.0,280,7,,6.21,30.209646,1025.1,,TRUE,TRUE,TRUE,,,,,-RA,BKN,800,OVC,1300,,,,,IFR,,,,,,,,,,,,SPECI,442.0
KCKN 052136Z AUTO 35019G27KT 4SM BR OVC007 M06/M07 A3009 RMK AO2,KCKN,2019-01-05T21:36:00Z,47.85,-96.62,-6.0,-7.0,350,19,27,4.0,30.088583,,,TRUE,TRUE,,,,,,BR,OVC,700,,,,,,,IFR,,,,,,,,,,,,SPECI,273.0
K04W 052136Z AUTO 36008KT 10SM OVC017 01/M01 A2997 RMK AO2,K04W,2019-01-05T21:36:00Z,46.02,-92.9,1.0,-1.0,360,8,,10.0,29.970472,,,TRUE,TRUE,,,,,,,OVC,1700,,,,,,,MVFR,,,,,,,,,,,,SPECI,311.0
KVWU 052136Z AUTO 33005KT 10SM CLR 00/M07 A2999 RMK AO2,KVWU,2019-01-05T21:36:00Z,48.15,-94.52,0.0,-7.0,330,5,,10.0,29.991142,,,TRUE,TRUE,,,,,,,CLR,,,,,,,,VFR,,,,,,,,,,,,SPECI,360.0
KMZH 052136Z AUTO 35003KT 10SM OVC014 00/M02 A2995 RMK AO2,KMZH,2019-01-05T21:36:00Z,46.42,-92.8,0.0,-2.0,350,3,,10.0,29.949802,,,TRUE,TRUE,,,,,,,OVC,1400,,,,,,,MVFR,,,,,,,,,,,,SPECI,328.0
KMGG 052136Z AUTO 30006KT 10SM CLR 05/00 A2997 RMK AO2 T00500000,KMGG,2019-01-05T21:36:00Z,45.23,-93.98,5.0,0.0,300,6,,10.0,29.970472,,,TRUE,TRUE,,,,,,,CLR,,,,,,,,VFR,,,,,,,,,,,,SPECI,313.0
KLJF 052136Z AUTO 33009KT 10SM CLR 04/00 A2997 RMK AO2,KLJF,2019-01-05T21:36:00Z,45.1,-94.52,4.0,0.0,330,9,,10.0,29.970472,,,TRUE,TRUE,,,,,,,CLR,,,,,,,,VFR,,,,,,,,,,,,SPECI,348.0
KGDB 052136Z AUTO 30007KT 10SM CLR 04/00 A3002 RMK AO2 T00350000,KGDB,2019-01-05T21:36:00Z,44.75,-95.55,3.5,0.0,300,7,,10.0,30.02067,,,TRUE,TRUE,,,,,,,CLR,,,,,,,,VFR,,,,,,,,,,,,SPECI,319.0
KDTL 052136Z AUTO 34009KT 7SM OVC005 M02/M02 A3002 RMK AO2,KDTL,2019-01-05T21:36:00Z,46.82,-95.87,-2.0,-2.0,340,9,,7.0,30.02067,,,TRUE,TRUE,,,,,,,OVC,500,,,,,,,IFR,,,,,,,,,,,,SPECI,426.0
KCQM 052136Z AUTO 28006KT 10SM M01/M03 A2994 RMK AO2,KCQM,2019-01-05T21:36:00Z,47.82,-92.68,-1.0,-3.0,280,6,,10.0,29.940945,,,TRUE,TRUE,,,,,,,,,,,,,,,,,,,,,,,,,,,SPECI,404.0
KAIT 052136Z AUTO 34006KT 10SM OVC014 M01/M03 A2996 RMK AO2,KAIT,2019-01-05T21:36:00Z,46.53,-93.67,-1.0,-3.0,340,6,,10.0,29.958662,,,TRUE,TRUE,,,,,,,OVC,1400,,,,,,,MVFR,,,,,,,,,,,,SPECI,367.0
KSAZ 052136Z AUTO 34007KT 10SM BKN016 01/M03 A2999 RMK AO2,KSAZ,2019-01-05T21:36:00Z,46.37,-94.8,1.0,-3.0,340,7,,10.0,29.991142,,,TRUE,TRUE,,,,,,,BKN,1600,,,,,,,MVFR,,,,,,,,,,,,SPECI,392.0
KRQB 052136Z AUTO 27009KT 10SM CLR 07/01 A2974 RMK AO2 T00740011,KRQB,2019-01-05T21:36:00Z,43.72,-85.5,7.4,1.1,270,9,,10.0,29.740158,,,TRUE,TRUE,,,,,,,CLR,,,,,,,,VFR,,,,,,,,,,,,SPECI,302.0
KPWC 052136Z AUTO 32005KT 10SM OVC013 M01/M03 A3002 RMK AO2,KPWC,2019-01-05T21:36:00Z,46.72,-94.37,-1.0,-3.0,320,5,,10.0,30.02067,,,TRUE,TRUE,,,,,,,OVC,1300,,,,,,,MVFR,,,,,,,,,,,,SPECI,395.0
KPMH 052136Z AUTO 00000KT 10SM CLR 10/03 A2995 RMK AO2 T01020026,KPMH,2019-01-05T21:36:00Z,38.83,-82.85,10.2,2.6,0,0,,10.0,29.949802,,,TRUE,TRUE,,,,,,,CLR,,,,,,,,VFR,,,,,,,,,,,,SPECI,202.0
KOZW 052136Z AUTO 23007KT 10SM CLR 08/01 A2976 RMK AO2 T00750010,KOZW,2019-01-05T21:36:00Z,42.62,-83.97,7.5,1.0,230,7,,10.0,29.760826,,,TRUE,TRUE,,,,,,,CLR,,,,,,,,VFR,,,,,,,,,,,,SPECI,293.0
KIKW 052136Z AUTO 26006KT 10SM CLR 08/02 A2972 RMK AO2 T00790020,KIKW,2019-01-05T21:36:00Z,43.67,-84.27,7.9,2.0,260,6,,10.0,29.719488,,,TRUE,TRUE,,,,,,,CLR,,,,,,,,VFR,,,,,,,,,,,,SPECI,194.0
KHYX 052136Z AUTO 22009KT 10SM CLR 06/01 A2972 RMK AO2,KHYX,2019-01-05T21:36:00Z,43.43,-83.87,6.0,1.0,220,9,,10.0,29.719488,,,TRUE,TRUE,,,,,,,CLR,,,,,,,,VFR,,,,,,,,,,,,SPECI,183.0
KGHW 052136Z AUTO 33006KT 10SM CLR 01/M02 A2998 RMK AO2,KGHW,2019-01-05T21:36:00Z,45.63,-95.32,1.0,-2.0,330,6,,10.0,29.97933,,,TRUE,TRUE,,,,,,,CLR,,,,,,,,VFR,,,,,,,,,,,,SPECI,425.0
KVLL 052136Z AUTO 23006KT 10SM CLR 10/00 A2977 RMK AO2 T00951003,KVLL,2019-01-05T21:36:00Z,42.55,-83.18,9.5,-0.3,230,6,,10.0,29.769686,,,TRUE,TRUE,,,,,,,CLR,,,,,,,,VFR,,,,,,,,,,,,SPECI,222.0
KULM 052136Z AUTO 31009KT 10SM CLR 04/M01 A2999 RMK AO2,KULM,2019-01-05T21:36:00Z,44.32,-94.5,4.0,-1.0,310,9,,10.0,29.991142,,,TRUE,TRUE,,,,,,,CLR,,,,,,,,VFR,,,,,,,,,,,,SPECI,308.0
KTEW 052136Z AUTO 24003KT 10SM CLR 09/03 A2978 RMK AO2 T00850027,KTEW,2019-01-05T21:36:00Z,42.57,-84.42,8.5,2.7,240,3,,10.0,29.778543,,,TRUE,TRUE,,,,,,,CLR,,,,,,,,VFR,,,,,,,,,,,,SPECI,280.0
KOVL 052136Z AUTO 31009KT 10SM CLR 02/00 A2998 RMK AO2,KOVL,2019-01-05T21:36:00Z,44.78,-95.03,2.0,0.0,310,9,,10.0,29.97933,,,TRUE,TRUE,,,,,,,CLR,,,,,,,,VFR,,,,,,,,,,,,SPECI,328.0
KOSC 052136Z AUTO 22005KT 10SM CLR 03/02 A2965 RMK AO2 T00300016,KOSC,2019-01-05T21:36:00Z,44.45,-83.4,3.0,1.6,220,5,,10.0,29.648623,,,TRUE,TRUE,,,,,,,CLR,,,,,,,,VFR,,,,,,,,,,,,SPECI,193.0
KMVE 052136Z AUTO 35009KT 10SM CLR 02/M02 A3001 RMK AO2,KMVE,2019-01-05T21:36:00Z,44.97,-95.72,2.0,-2.0,350,9,,10.0,30.008858,,,TRUE,TRUE,,,,,,,CLR,,,,,,,,VFR,,,,,,,,,,,,SPECI,315.0
KMRT 052136Z AUTO 26008KT 10SM CLR 09/04 A2988 RMK AO2 T00900040,KMRT,2019-01-05T21:36:00Z,40.22,-83.35,9.0,4.0,260,8,,10.0,29.878937,,,TRUE,TRUE,,,,,,,CLR,,,,,,,,VFR,,,,,,,,,,,,SPECI,312.0
KHRX 052135Z AUTO 21014KT 10SM CLR 22/M06 A3000 RMK AO2 T02211062,KHRX,2019-01-05T21:35:00Z,34.87,-102.33,22.1,-6.2,210,14,,10.0,30.0,,,TRUE,TRUE,,,,,,,CLR,,,,,,,,VFR,,,,,,,,,,,,METAR,1154.0
KOIN 052135Z AUTO 10006KT 10SM CLR 10/00 A2998 RMK AO1 T00971002,KOIN,2019-01-05T21:35:00Z,39.83,-100.53,9.7,-0.2,100,6,,10.0,29.97933,,,TRUE,TRUE,,,,,,,CLR,,,,,,,,VFR,,,,,,,,,,,,SPECI,824.0
KLUX 052135Z AUTO 28008KT 10SM CLR 16/03 A2994 RMK AO2,KLUX,2019-01-05T21:35:00Z,34.5,-81.95,16.0,3.0,280,8,,10.0,29.940945,,,TRUE,TRUE,,,,,,,CLR,,,,,,,,VFR,,,,,,,,,,,,SPECI,213.0
KGAF 052135Z AUTO 36014G19KT 9SM OVC011 M05/M07 A3012 RMK AO2 PWINO,KGAF,2019-01-05T21:35:00Z,48.4,-97.37,-5.0,-7.0,360,14,19,9.0,30.121063,,,TRUE,TRUE,,,,,TRUE,,OVC,1100,,,,,,,MVFR,,,,,,,,,,,,SPECI,252.0
KBRY 052135Z AUTO 24007KT 10SM CLR 12/03 A3002 RMK AO1,KBRY,2019-01-05T21:35:00Z,37.82,-85.5,12.0,3.0,240,7,,10.0,30.02067,,,TRUE,TRUE,,,,,,,CLR,,,,,,,,VFR,,,,,,,,,,,,SPECI,204.0
KDYA 052135Z AUTO 29005KT 10SM CLR 17/02 A3014 RMK AO2 T01680016,KDYA,2019-01-05T21:35:00Z,32.47,-87.95,16.8,1.6,290,5,,10.0,30.138779,,,TRUE,TRUE,,,,,,,CLR,,,,,,,,VFR,,,,,,,,,,,,SPECI,34.0
KD57 052135Z AUTO 04006KT 6SM HZ OVC007 M01/M03 A3000 RMK AO2 PWINO,KD57,2019-01-05T21:35:00Z,46.82,-101.87,-1.0,-3.0,40,6,,6.0,30.0,,,TRUE,TRUE,,,,,TRUE,HZ,OVC,700,,,,,,,IFR,,,,,,,,,,,,SPECI,637.0
KBNL 052135Z AUTO 28008KT 10SM CLR 16/04 A2996 RMK AO2,KBNL,2019-01-05T21:35:00Z,33.25,-81.38,16.0,4.0,280,8,,10.0,29.958662,,,TRUE,TRUE,,,,,,,CLR,,,,,,,,VFR,,,,,,,,,,,,SPECI,75.0
KANK 052135Z AUTO 22004KT 10SM CLR 07/M07 A3015 RMK AO1 T00711073,KANK,2019-01-05T21:35:00Z,38.53,-106.05,7.1,-7.3,220,4,,10.0,30.15059,,,TRUE,TRUE,,,,,,,CLR,,,,,,,,VFR,,,,,,,,,,,,SPECI,2293.0
KRCX 052135Z AUTO 31013G19KT 10SM OVC021 03/00 A2991 RMK AO2 T00331005,KRCX,2019-01-05T21:35:00Z,45.5,-91.0,3.3,-0.5,310,13,19,10.0,29.911417,,,TRUE,TRUE,,,,,,,OVC,2100,,,,,,,MVFR,,,,,,,,,,,,SPECI,377.0
KSPF 052135Z AUTO 00000KT 10SM CLR 06/M03 A2992 RMK AO2 PWINO,KSPF,2019-01-05T21:35:00Z,44.47,-103.77,6.0,-3.0,0,0,,10.0,29.920275,,,TRUE,TRUE,,,,,TRUE,,CLR,,,,,,,,VFR,,,,,,,,,,,,SPECI,1188.0
KOEB 052135Z AUTO 23007KT 10SM CLR 10/03 A2982 RMK AO2 T00960028,KOEB,2019-01-05T21:35:00Z,41.92,-85.03,9.6,2.8,230,7,,10.0,29.819881,,,TRUE,TRUE,,,,,,,CLR,,,,,,,,VFR,,,,,,,,,,,,SPECI,292.0
KMGN 052135Z AUTO 28007KT 10SM BKN012 BKN017 OVC023 02/01 A2971 RMK AO2 T00300010,KMGN,2019-01-05T21:35:00Z,45.43,-84.92,3.0,1.0,280,7,,10.0,29.71063,,,TRUE,TRUE,,,,,,,BKN,1200,BKN,1700,OVC,2300,,,MVFR,,,,,,,,,,,,SPECI,209.0
KHZX 052135Z AUTO 34007KT 10SM OVC013 00/M02 A2998 RMK AO2,KHZX,2019-01-05T21:35:00Z,46.62,-93.32,0.0,-2.0,340,7,,10.0,29.97933,,,TRUE,TRUE,,,,,,,OVC,1300,,,,,,,MVFR,,,,,,,,,,,,SPECI,374.0
KFSE 052135Z AUTO 31006KT 10SM CLR M03/M06 A3003 RMK AO2,KFSE,2019-01-05T21:35:00Z,47.58,-95.77,-3.0,-6.0,310,6,,10.0,30.029528,,,TRUE,TRUE,,,,,,,CLR,,,,,,,,VFR,,,,,,,,,,,,SPECI,389.0
KCOQ 052135Z AUTO 31007KT 10SM OVC012 00/M03 A2995 RMK AO2,KCOQ,2019-01-05T21:35:00Z,46.7,-92.5,0.0,-3.0,310,7,,10.0,29.949802,,,TRUE,TRUE,,,,,,,OVC,1200,,,,,,,MVFR,,,,,,,,,,,,SPECI,390.0
KY63 052135Z AUTO 30007KT 280V350 1SM BR OVC002 M04/M04 A3001 RMK AO2 T10371037,KY63,2019-01-05T21:35:00Z,45.98,-96.0,-3.7,-3.7,300,7,,1.0,30.008858,,,TRUE,TRUE,,,,,,BR,OVC,200,,,,,,,LIFR,,,,,,,,,,,,METAR,367.0
KY51 052135Z AUTO 30007KT 10SM CLR 08/00 A2988 RMK AO1 T00750003,KY51,2019-01-05T21:35:00Z,43.58,-90.9,7.5,0.3,300,7,,10.0,29.878937,,,TRUE,TRUE,,,,,,,CLR,,,,,,,,VFR,,,,,,,,,,,,METAR,394.0
KY19 052135Z AUTO 33004KT 6SM BR OVC005 M02/M02 A3003 RMK AO2,KY19,2019-01-05T21:35:00Z,46.77,-100.9,-2.0,-2.0,330,4,,6.0,30.029528,,,TRUE,TRUE,,,,,,BR,OVC,500,,,,,,,IFR,,,,,,,,,,,,SPECI,593.0
KX07 052135Z AUTO 30009KT 10SM CLR 19/12 A3005 RMK A01,KX07,2019-01-05T21:35:00Z,27.9,-81.62,19.0,12.0,300,9,,10.0,30.050198,,,TRUE,TRUE,,,,,,,CLR,,,,,,,,VFR,,,,,,,,,,,,METAR,39.0
KWYS 052135Z AUTO 00000KT 10SM CLR M02/M07 A2988 RMK AO2,KWYS,2019-01-05T21:35:00Z,44.67,-111.12,-2.0,-7.0,0,0,,10.0,29.878937,,,TRUE,TRUE,,,,,,,CLR,,,,,,,,VFR,,,,,,,,,,,,SPECI,2025.0
KVVV 052135Z AUTO 34011KT 7SM OVC006 M01/M03 A3002 RMK AO2,KVVV,2019-01-05T21:35:00Z,45.3,-96.42,-1.0,-3.0,340,11,,7.0,30.02067,,,TRUE,TRUE,,,,,,,OVC,600,,,,,,,IFR,,,,,,,,,,,,METAR,335.0
KUOX 052135Z AUTO VRB04KT 10SM CLR 14/04 A3014 RMK AO2,KUOX,2019-01-05T21:35:00Z,34.38,-89.53,14.0,4.0,0,4,,10.0,30.138779,,,TRUE,TRUE,,,,,,,CLR,,,,,,,,VFR,,,,,,,,,,,,METAR,137.0
KTSP 052135Z AUTO 11019G31KT 10SM OVC075 07/M10 A2987 RMK AO2,KTSP,2019-01-05T21:35:00Z,35.13,-118.43,7.0,-10.0,110,19,31,10.0,29.870079,,,TRUE,TRUE,,,,,,,OVC,7500,,,,,,,VFR,,,,,,,,,,,,SPECI,1220.0
KTPF 052135Z AUTO 29007KT 10SM BKN024 17/13 A3007 RMK AO2,KTPF,2019-01-05T21:35:00Z,27.92,-82.45,17.0,13.0,290,7,,10.0,30.070866,,,TRUE,TRUE,,,,,,,BKN,2400,,,,,,,MVFR,,,,,,,,,,,,METAR,3.0
KTME 052135Z AUTO 20006KT 10SM CLR 22/03 A3014 RMK AO2,KTME,2019-01-05T21:35:00Z,29.8,-95.9,22.0,3.0,200,6,,10.0,30.138779,,,TRUE,TRUE,,,,,,,CLR,,,,,,,,VFR,,,,,,,,,,,,METAR,51.0
KTKX 052135Z AUTO 21010KT 7SM CLR 14/06 A3007 RMK AO2,KTKX,2019-01-05T21:35:00Z,36.22,-90.02,14.0,6.0,210,10,,7.0,30.070866,,,TRUE,TRUE,,,,,,,CLR,,,,,,,,VFR,,,,,,,,,,,,METAR,80.0
KSUZ 052135Z AUTO 19006KT 10SM CLR 17/04 A3010 RMK A01,KSUZ,2019-01-05T21:35:00Z,34.58,-92.48,17.0,4.0,190,6,,10.0,30.100393,,,TRUE,TRUE,,,,,,,CLR,,,,,,,,VFR,,,,,,,,,,,,METAR,119.0
KSOW 052135Z AUTO 20013G20KT 10SM SCT120 09/M09 A3011 RMK AO2,KSOW,2019-01-05T21:35:00Z,34.27,-110.0,9.0,-9.0,200,13,20,10.0,30.109253,,,TRUE,TRUE,,,,,,,SCT,12000,,,,,,,VFR,,,,,,,,,,,,SPECI,1954.0
KSNC 052135Z AUTO 35012G19KT 3SM RA OVC004 04/04 A2945 RMK AO2,KSNC,2019-01-05T21:35:00Z,41.38,-72.5,4.0,4.0,350,12,19,3.0,29.450787,,,TRUE,TRUE,,,,,,RA,OVC,400,,,,,,,LIFR,,,,,,,,,,,,SPECI,127.0
KSMS 052135Z AUTO 24005G12KT 10SM CLR 16/06 A2992 RMK AO2,KSMS,2019-01-05T21:35:00Z,34.0,-80.37,16.0,6.0,240,5,12,10.0,29.920275,,,TRUE,TRUE,,,,,,,CLR,,,,,,,,VFR,,,,,,,,,,,,METAR,56.0
KSLH 052135Z AUTO 28011G18KT 10SM BKN014 OVC019 03/00 A2969 RMK AO2 T00260000,KSLH,2019-01-05T21:35:00Z,45.65,-84.52,2.6,0.0,280,11,18,10.0,29.68996,,,TRUE,TRUE,,,,,,,BKN,1400,OVC,1900,,,,,MVFR,,,,,,,,,,,,METAR,195.0
KSLB 052135Z AUTO 32004KT 10SM CLR 10/01 A2998 RMK AO2,KSLB,2019-01-05T21:35:00Z,42.6,-95.22,10.0,1.0,320,4,,10.0,29.97933,,,TRUE,TRUE,,,,,,,CLR,,,,,,,,VFR,,,,,,,,,,,,METAR,454.0
KSHL 052135Z AUTO 34006KT 10SM CLR 06/04 A2998 RMK AO2,KSHL,2019-01-05T21:35:00Z,43.22,-95.82,6.0,4.0,340,6,,10.0,29.97933,,,TRUE,TRUE,,,,,,,CLR,,,,,,,,VFR,,,,,,,,,,,,METAR,432.0
KS33 052135Z AUTO 03005KT 10SM CLR 03/M01 A2948 RMK AO2,KS33,2019-01-05T21:35:00Z,44.67,-121.15,3.0,-1.0,30,5,,10.0,29.480314,,,TRUE,TRUE,,,,,,,CLR,,,,,,,,VFR,,,,,,,,,,,,METAR,743.0
KS25 052135Z AUTO 00000KT 5SM BR OVC005 M02/M02 A2999 RMK AO2,KS25,2019-01-05T21:35:00Z,47.8,-103.25,-2.0,-2.0,0,0,,5.0,29.991142,,,TRUE,TRUE,,,,,,BR,OVC,500,,,,,,,IFR,,,,,,,,,,,,METAR,644.0
KRYV 052135Z AUTO 26006KT 10SM CLR 08/00 A2984 RMK AO2 T00820003,KRYV,2019-01-05T21:35:00Z,43.17,-88.72,8.2,0.3,260,6,,10.0,29.840551,,,TRUE,TRUE,,,,,,,CLR,,,,,,,,VFR,,,,,,,,,,,,METAR,254.0
KRVL 052135Z AUTO 25007G12KT 10SM CLR 10/02 A2967 RMK AO2,KRVL,2019-01-05T21:35:00Z,40.68,-77.63,10.0,2.0,250,7,12,10.0,29.66929,,,TRUE,TRUE,,,,,,,CLR,,,,,,,,VFR,,,,,,,,,,,,METAR,250.0
KROX 052135Z AUTO 34010KT 10SM CLR M06/M08 A3005 RMK AO2,KROX,2019-01-05T21:35:00Z,48.85,-95.7,-6.0,-8.0,340,10,,10.0,30.050198,,,TRUE,TRUE,,,,,,,CLR,,,,,,,,VFR,,,,,,,,,,,,SPECI,323.0
KROS 052135Z AUTO 33005KT 10SM SCT100 02/M02 A2996 RMK AO2 T00211016,KROS,2019-01-05T21:35:00Z,45.7,-92.95,2.1,-1.6,330,5,,10.0,29.958662,,,TRUE,TRUE,,,,,,,SCT,10000,,,,,,,VFR,,,,,,,,,,,,SPECI,281.0
KRNP 052135Z AUTO 25009KT 10SM CLR 09/02 A2975 RMK AO2 T00870020,KRNP,2019-01-05T21:35:00Z,43.0,-84.13,8.7,2.0,250,9,,10.0,29.749016,,,TRUE,TRUE,,,,,,,CLR,,,,,,,,VFR,,,,,,,,,,,,SPECI,224.0
KRNH 052135Z AUTO 34014KT 10SM CLR 05/M01 A2993 RMK AO2 T00511006,KRNH,2019-01-05T21:35:00Z,45.15,-92.53,5.1,-0.6,340,14,,10.0,29.929134,,,TRUE,TRUE,,,,,,,CLR,,,,,,,,VFR,,,,,,,,,,,,METAR,304.0
KRID 052135Z AUTO 10SM CLR 08/05 A2993 RMK AO2,KRID,2019-01-05T21:35:00Z,39.75,-84.85,8.0,5.0,,,,10.0,29.929134,,,TRUE,TRUE,,,,,,,CLR,,,,,,,,VFR,,,,,,,,,,,,SPECI,348.0
KRGK 052135Z AUTO 30007KT 10SM CLR 08/M02 A2991 RMK AO2,KRGK,2019-01-05T21:35:00Z,44.58,-92.48,8.0,-2.0,300,7,,10.0,29.911417,,,TRUE,TRUE,,,,,,,CLR,,,,,,,,VFR,,,,,,,,,,,,METAR,239.0
KRFI 052135Z AUTO 24003KT 10SM CLR 20/06 A3013 RMK AO2 T02030055,KRFI,2019-01-05T21:35:00Z,32.15,-94.85,20.3,5.5,240,3,,10.0,30.129921,,,TRUE,TRUE,,,,,,,CLR,,,,,,,,VFR,,,,,,,,,,,,SPECI,135.0
KRDK 052135Z AUTO 26003KT 10SM CLR 14/03 A2998 RMK AO2,KRDK,2019-01-05T21:35:00Z,41.02,-95.27,14.0,3.0,260,3,,10.0,29.97933,,,TRUE,TRUE,,,,,,,CLR,,,,,,,,VFR,,,,,,,,,,,,SPECI,318.0
KRCE 052135Z AUTO 18008KT 10SM CLR 15/07 A3001 RMK AO2,KRCE,2019-01-05T21:35:00Z,35.48,-97.82,15.0,7.0,180,8,,10.0,30.008858,,,TRUE,TRUE,,,,,,,CLR,,,,,,,,VFR,,,,,,,,,,,,METAR,413.0
KRBW 052135Z AUTO 28009G14KT 10SM CLR 16/06 A2995 RMK AO2,KRBW,2019-01-05T21:35:00Z,32.92,-80.63,16.0,6.0,280,9,14,10.0,29.949802,,,TRUE,TRUE,,,,,,,CLR,,,,,,,,VFR,,,,,,,,,,,,METAR,31.0
KY70 052135Z AUTO 24011KT 10SM CLR 08/01 A2977 RMK AO2 T00780011,KY70,2019-01-05T21:35:00Z,42.93,-85.07,7.8,1.1,240,11,,10.0,29.769686,,,TRUE,TRUE,,,,,,,CLR,,,,,,,,VFR,,,,,,,,,,,,METAR,250.0
KPSO 052135Z AUTO 20003KT 10SM CLR 08/M07 A3015 RMK AO2 T00761066,KPSO,2019-01-05T21:35:00Z,37.28,-107.05,7.6,-6.6,200,3,,10.0,30.15059,,,TRUE,TRUE,,,,,,,CLR,,,,,,,,VFR,,,,,,,,,,,,SPECI,2334.0
KPOV 052135Z AUTO 25006KT 10SM CLR 07/00 A2979 RMK AO2 T00710004 PWINO,KPOV,2019-01-05T21:35:00Z,41.22,-81.25,7.1,0.4,250,6,,10.0,29.790354,,,TRUE,TRUE,,,,,TRUE,,CLR,,,,,,,,VFR,,,,,,,,,,,,SPECI,365.0
KPLR 052135Z AUTO 26005KT 10SM CLR 16/03 A3011 RMK A01,KPLR,2019-01-05T21:35:00Z,33.57,-86.25,16.0,3.0,260,5,,10.0,30.109253,,,TRUE,TRUE,,,,,,,CLR,,,,,,,,VFR,,,,,,,,,,,,METAR,148.0
KPHN 052135Z AUTO 20005KT 7SM CLR 05/01 A2973 RMK AO2,KPHN,2019-01-05T21:35:00Z,42.92,-82.52,5.0,1.0,200,5,,7.0,29.731298,,,TRUE,TRUE,,,,,,,CLR,,,,,,,,VFR,,,,,,,,,,,,SPECI,198.0
KPDC 052135Z AUTO 26005KT 10SM CLR 08/00 A2992 RMK AO2 T00770000,KPDC,2019-01-05T21:35:00Z,43.02,-91.12,7.7,0.0,260,5,,10.0,29.920275,,,TRUE,TRUE,,,,,,,CLR,,,,,,,,VFR,,,,,,,,,,,,SPECI,201.0
KPCM 052135Z AUTO 28006KT 10SM SCT026 17/11 A3008 RMK AO2,KPCM,2019-01-05T21:35:00Z,28.0,-82.17,17.0,11.0,280,6,,10.0,30.079725,,,TRUE,TRUE,,,,,,,SCT,2600,,,,,,,VFR,,,,,,,,,,,,METAR,47.0
KPAN 052135Z AUTO 00000KT 10SM CLR 09/M03 A3007 RMK AO2,KPAN,2019-01-05T21:35:00Z,34.25,-111.33,9.0,-3.0,0,0,,10.0,30.070866,,,TRUE,TRUE,,,,,,,CLR,,,,,,,,VFR,,,,,,,,,,,,SPECI,1572.0
KOXV 052135Z AUTO 27006KT 10SM CLR 12/06 A2996 RMK AO2,KOXV,2019-01-05T21:35:00Z,41.28,-93.12,12.0,6.0,270,6,,10.0,29.958662,,,TRUE,TRUE,,,,,,,CLR,,,,,,,,VFR,,,,,,,,,,,,SPECI,283.0
KORS 052135Z AUTO 00000KT 10SM BKN070 BKN080 09/03 A2939 RMK AO2,KORS,2019-01-05T21:35:00Z,48.7,-122.92,9.0,3.0,0,0,,10.0,29.388779,,,TRUE,TRUE,,,,,,,BKN,7000,BKN,8000,,,,,VFR,,,,,,,,,,,,SPECI,9.0
KORC 052135Z AUTO 33004KT 10SM CLR 08/03 A2999 RMK AO2,KORC,2019-01-05T21:35:00Z,42.97,-96.07,8.0,3.0,330,4,,10.0,29.991142,,,TRUE,TRUE,,,,,,,CLR,,,,,,,,VFR,,,,,,,,,,,,SPECI,431.0
KOQN 052135Z AUTO 31010G14KT 10SM BKN014 BKN034 OVC120 07/06 A2958 RMK AO2,KOQN,2019-01-05T21:35:00Z,39.98,-75.58,7.0,6.0,310,10,14,10.0,29.58071,,,TRUE,TRUE,,,,,,,BKN,1400,BKN,3400,OVC,12000,,,MVFR,,,,,,,,,,,,METAR,142.0
KOGS 052135Z AUTO 00000KT 7SM OVC020 02/00 A2963 RMK AO2 T00160000,KOGS,2019-01-05T21:35:00Z,44.67,-75.47,1.6,0.0,0,0,,7.0,29.630905,,,TRUE,TRUE,,,,,,,OVC,2000,,,,,,,MVFR,,,,,,,,,,,,SPECI,91.0
KO22 052135Z AUTO 15005G13KT 3SM HZ FEW024 SCT031 SCT037 07/04 A2982 RMK A01,KO22,2019-01-05T21:35:00Z,38.03,-120.42,7.0,4.0,150,5,13,3.0,29.819881,,,TRUE,TRUE,,,,,,HZ,FEW,2400,SCT,3100,SCT,3700,,,MVFR,,,,,,,,,,,,SPECI,646.0
KMYP 052135Z AUTO 24020KT 10SM OVC110 M01/M15 A3030 RMK AO2,KMYP,2019-01-05T21:35:00Z,38.48,-106.32,-1.0,-15.0,240,20,,10.0,30.301182,,,TRUE,TRUE,,,,,,,OVC,11000,,,,,,,VFR,,,,,,,,,,,,SPECI,3667.0
KMPZ 052135Z AUTO 23007KT 10SM CLR 12/05 A2996 RMK AO2,KMPZ,2019-01-05T21:35:00Z,40.95,-91.52,12.0,5.0,230,7,,10.0,29.958662,,,TRUE,TRUE,,,,,,,CLR,,,,,,,,VFR,,,,,,,,,,,,SPECI,224.0
KMGC 052135Z AUTO 23006KT 10SM CLR 10/02 A2988 RMK AO2,KMGC,2019-01-05T21:35:00Z,41.7,-86.82,10.0,2.0,230,6,,10.0,29.878937,,,TRUE,TRUE,,,,,,,CLR,,,,,,,,VFR,,,,,,,,,,,,SPECI,200.0
KMBO 052135Z AUTO 30005KT 10SM CLR 15/04 A3016 RMK AO2 PWINO,KMBO,2019-01-05T21:35:00Z,32.43,-90.1,15.0,4.0,300,5,,10.0,30.159449,,,TRUE,TRUE,,,,,TRUE,,CLR,,,,,,,,VFR,,,,,,,,,,,,METAR,99.0
KMAN 052135Z AUTO 05004KT 10SM CLR 02/M01 A2974 RMK A01,KMAN,2019-01-05T21:35:00Z,43.58,-116.52,2.0,-1.0,50,4,,10.0,29.740158,,,TRUE,TRUE,,,,,,,CLR,,,,,,,,VFR,,,,,,,,,,,,SPECI,774.0
KM40 052135Z AUTO 29003KT 10SM CLR 14/08 A3015 RMK AO2,KM40,2019-01-05T21:35:00Z,33.87,-88.48,14.0,8.0,290,3,,10.0,30.15059,,,TRUE,TRUE,,,,,,,CLR,,,,,,,,VFR,,,,,,,,,,,,METAR,69.0
KLRO 052135Z AUTO 30008KT 10SM CLR 17/07 A2991 RMK AO2,KLRO,2019-01-05T21:35:00Z,32.9,-79.78,17.0,7.0,300,8,,10.0,29.911417,,,TRUE,TRUE,,,,,,,CLR,,,,,,,,VFR,,,,,,,,,,,,METAR,4.0
KLRJ 052135Z AUTO 35006KT 10SM CLR 08/01 A3000 RMK AO2,KLRJ,2019-01-05T21:35:00Z,42.77,-96.2,8.0,1.0,350,6,,10.0,30.0,,,TRUE,TRUE,,,,,,,CLR,,,,,,,,VFR,,,,,,,,,,,,SPECI,365.0
KL52 052135Z AUTO 21007G16KT 1/2SM FG BKN004 OVC018 11/10 A2990 RMK A01,KL52,2019-01-05T21:35:00Z,35.1,-120.62,11.0,10.0,210,7,16,0.5,29.899607,,,TRUE,TRUE,,,,,,FG,BKN,400,OVC,1800,,,,,LIFR,,,,,,,,,,,,SPECI,4.0
KL08 052135Z AUTO 00000KT 10SM CLR 13/M00 A2998 RMK AO2,KL08,2019-01-05T21:35:00Z,33.27,-116.32,13.0,0.0,0,0,,10.0,29.97933,,,TRUE,TRUE,,,,,,,CLR,,,,,,,,VFR,,,,,,,,,,,,SPECI,159.0
KKY8 052135Z AUTO 23005KT 10SM CLR 12/06 A3004 RMK A01,KKY8,2019-01-05T21:35:00Z,37.95,-86.87,12.0,6.0,230,5,,10.0,30.041338,,,TRUE,TRUE,,,,,,,CLR,,,,,,,,VFR,,,,,,,,,,,,METAR,126.0
KJZI 052135Z AUTO 28010G15KT 7SM CLR 17/07 A2992 RMK AO2 PWINO,KJZI,2019-01-05T21:35:00Z,32.7,-80.0,17.0,7.0,280,10,15,7.0,29.920275,,,TRUE,TRUE,,,,,TRUE,,CLR,,,,,,,,VFR,,,,,,,,,,,,METAR,6.0
KJVY 052135Z AUTO 24008KT 10SM CLR 13/04 A3000 RMK AO2 T01290039,KJVY,2019-01-05T21:35:00Z,,,12.9,3.9,240,8,,10.0,30.0,,,TRUE,TRUE,,,,,,,CLR,,,,,,,,VFR,,,,,,,,,,,,SPECI,
KJVW 052135Z AUTO 29005KT 10SM CLR 16/05 A3016 RMK AO2,KJVW,2019-01-05T21:35:00Z,32.3,-90.42,16.0,5.0,290,5,,10.0,30.159449,,,TRUE,TRUE,,,,,,,CLR,,,,,,,,VFR,,,,,,,,,,,,METAR,76.0
KJFX 052135Z AUTO 00000KT 10SM 17/05 A3012 RMK AO2 PWINO,KJFX,2019-01-05T21:35:00Z,33.9,-87.32,17.0,5.0,0,0,,10.0,30.121063,,,TRUE,TRUE,,,,,TRUE,,,,,,,,,,,,,,,,,,,,,,METAR,148.0
KD60 052135Z AUTO 10010KT 6SM BR OVC005 M04/M04 A3001 RMK AO2,KD60,2019-01-05T21:35:00Z,48.38,-102.9,-4.0,-4.0,100,10,,6.0,30.008858,,,TRUE,TRUE,,,,,,BR,OVC,500,,,,,,,IFR,,,,,,,,,,,,SPECI,693.0
KD50 052135Z AUTO 11004KT 5SM BR OVC005 M04/M04 A3001 RMK AO2,KD50,2019-01-05T21:35:00Z,48.93,-103.3,-4.0,-4.0,110,4,,5.0,30.008858,,,TRUE,TRUE,,,,,,BR,OVC,500,,,,,,,IFR,,,,,,,,,,,,SPECI,595.0
KCXP 052135Z AUTO 20014G29KT 180V240 9SM FEW090 SCT110 08/M10 A2968 RMK AO2,KCXP,2019-01-05T21:35:00Z,39.18,-119.73,8.0,-10.0,200,14,29,9.0,29.681103,,,TRUE,TRUE,,,,,,,FEW,9000,SCT,11000,,,,,VFR,,,,,,,,,,,,SPECI,1435.0
KCSQ 052135Z AUTO 24003KT 10SM CLR 14/04 A2998 RMK AO2,KCSQ,2019-01-05T21:35:00Z,41.02,-94.37,14.0,4.0,240,3,,10.0,29.97933,,,TRUE,TRUE,,,,,,,CLR,,,,,,,,VFR,,,,,,,,,,,,SPECI,394.0
KCQW 052135Z AUTO 29006G12KT 10SM CLR 16/04 A2987 RMK AO2,KCQW,2019-01-05T21:35:00Z,34.72,-79.95,16.0,4.0,290,6,12,10.0,29.870079,,,TRUE,TRUE,,,,,,,CLR,,,,,,,,VFR,,,,,,,,,,,,METAR,73.0
KCPT 052135Z AUTO 18009KT 10SM CLR 22/01 A3007 RMK AO2,KCPT,2019-01-05T21:35:00Z,32.35,-97.43,22.0,1.0,180,9,,10.0,30.070866,,,TRUE,TRUE,,,,,,,CLR,,,,,,,,VFR,,,,,,,,,,,,SPECI,260.0
KCNC 052135Z AUTO 28006KT 10SM CLR 14/03 A2997 RMK AO2,KCNC,2019-01-05T21:35:00Z,41.02,-93.37,14.0,3.0,280,6,,10.0,29.970472,,,TRUE,TRUE,,,,,,,CLR,,,,,,,,VFR,,,,,,,,,,,,SPECI,320.0
KCMR 052135Z AUTO 16011G17KT 10SM CLR 08/M07 A3004 RMK AO2,KCMR,2019-01-05T21:35:00Z,35.3,-112.2,8.0,-7.0,160,11,17,10.0,30.041338,,,TRUE,TRUE,,,,,,,CLR,,,,,,,,VFR,,,,,,,,,,,,SPECI,2036.0
KCLW 052135Z AUTO 31009G14KT 10SM OVC021 15/10 A3008 RMK AO2,KCLW,2019-01-05T21:35:00Z,27.98,-82.75,15.0,10.0,310,9,14,10.0,30.079725,,,TRUE,TRUE,,,,,,,OVC,2100,,,,,,,MVFR,,,,,,,,,,,,METAR,22.0
KCIN 052135Z AUTO 30005KT 10SM CLR 13/06 A2996 RMK AO2,KCIN,2019-01-05T21:35:00Z,42.03,-94.77,13.0,6.0,300,5,,10.0,29.958662,,,TRUE,TRUE,,,,,,,CLR,,,,,,,,VFR,,,,,,,,,,,,SPECI,375.0
KCFJ 052135Z AUTO 23011KT 10SM CLR 09/04 A2994 RMK AO2 T00920040,KCFJ,2019-01-05T21:35:00Z,39.98,-86.92,9.2,4.0,230,11,,10.0,29.940945,,,TRUE,TRUE,,,,,,,CLR,,,,,,,,VFR,,,,,,,,,,,,SPECI,244.0
KCDN 052135Z AUTO 26009G15KT 10SM CLR 16/05 A2992 RMK AO2,KCDN,2019-01-05T21:35:00Z,34.28,-80.57,16.0,5.0,260,9,15,10.0,29.920275,,,TRUE,TRUE,,,,,,,CLR,,,,,,,,VFR,,,,,,,,,,,,METAR,92.0
KCCU 052135Z AUTO 23008KT 10SM CLR 02/M19 A3020 RMK AO2,KCCU,2019-01-05T21:35:00Z,39.48,-106.15,2.0,-19.0,230,8,,10.0,30.200787,,,TRUE,TRUE,,,,,,,CLR,,,,,,,,VFR,,,,,,,,,,,,SPECI,3680.0
KCBF 052135Z AUTO 36006KT 10SM CLR 12/02 A2997 RMK AO2,KCBF,2019-01-05T21:35:00Z,41.27,-95.77,12.0,2.0,360,6,,10.0,29.970472,,,TRUE,TRUE,,,,,,,CLR,,,,,,,,VFR,,,,,,,,,,,,SPECI,382.0
KCAV 052135Z AUTO 34008KT 10SM CLR 09/04 A2997 RMK AO2 PWINO,KCAV,2019-01-05T21:35:00Z,42.75,-93.77,9.0,4.0,340,8,,10.0,29.970472,,,TRUE,TRUE,,,,,TRUE,,CLR,,,,,,,,VFR,,,,,,,,,,,,SPECI,354.0
KCAD 052135Z AUTO 25009KT 10SM CLR 05/00 A2970 RMK AO2 T00471003,KCAD,2019-01-05T21:35:00Z,44.27,-85.42,4.7,-0.3,250,9,,10.0,29.698818,,,TRUE,TRUE,,,,,,,CLR,,,,,,,,VFR,,,,,,,,,,,,SPECI,398.0
KC35 052135Z AUTO 28008KT 10SM CLR 08/00 A2986 RMK AO2 T00831004,KC35,2019-01-05T21:35:00Z,43.53,-89.98,8.3,-0.4,280,8,,10.0,29.861221,,,TRUE,TRUE,,,,,,,CLR,,,,,,,,VFR,,,,,,,,,,,,SPECI,276.0
KBVU 052135Z AUTO 08004KT 10SM CLR 09/M09 A2997 RMK AO2,KBVU,2019-01-05T21:35:00Z,35.95,-114.87,9.0,-9.0,80,4,,10.0,29.970472,,,TRUE,TRUE,,,,,,,CLR,,,,,,,,VFR,,,,,,,,,,,,SPECI,671.0
KBUU 052135Z AUTO 26006KT 10SM CLR 08/02 A2985 RMK AO2 T00810015,KBUU,2019-01-05T21:35:00Z,42.68,-88.3,8.1,1.5,260,6,,10.0,29.84941,,,TRUE,TRUE,,,,,,,CLR,,,,,,,,VFR,,,,,,,,,,,,SPECI,237.0
KBRG 052135Z AUTO 27005KT 10SM CLR 00/M05 A3017 RMK AO2 T00041047,KBRG,2019-01-05T21:35:00Z,34.65,-106.83,0.4,-4.7,270,5,,10.0,30.171259,,,TRUE,TRUE,,,,,,,CLR,,,,,,,,VFR,,,,,,,,,,,,METAR,1585.0
KBNW 052135Z AUTO 29006KT 10SM CLR 12/04 A2996 RMK AO2,KBNW,2019-01-05T21:35:00Z,42.03,-93.83,12.0,4.0,290,6,,10.0,29.958662,,,TRUE,TRUE,,,,,,,CLR,,,,,,,,VFR,,,,,,,,,,,,SPECI,354.0
KBDU 052135Z AUTO 00000KT 10SM CLR 14/M07 A2994 RMK AO2,KBDU,2019-01-05T21:35:00Z,40.03,-105.23,14.0,-7.0,0,0,,10.0,29.940945,,,TRUE,TRUE,,,,,,,CLR,,,,,,,,VFR,,,,,,,,,,,,SPECI,1612.0
KBDN 052135Z AUTO 09010KT 10SM CLR 07/M04 A2944 RMK AO2,KBDN,2019-01-05T21:35:00Z,44.1,-121.2,7.0,-4.0,90,10,,10.0,29.438976,,,TRUE,TRUE,,,,,,,CLR,,,,,,,,VFR,,,,,,,,,,,,METAR,1055.0
KBAX 052135Z AUTO 25008KT 10SM CLR 06/02 A2969 RMK AO2 T00560018,KBAX,2019-01-05T21:35:00Z,43.78,-82.98,5.6,1.8,250,8,,10.0,29.68996,,,TRUE,TRUE,,,,,,,CLR,,,,,,,,VFR,,,,,,,,,,,,METAR,234.0
KBAC 052135Z AUTO 02009KT 10SM OVC011 M01/M01 A3006 RMK AO2,KBAC,2019-01-05T21:35:00Z,46.93,-98.02,-1.0,-1.0,20,9,,10.0,30.059055,,,TRUE,TRUE,,,,,,,OVC,1100,,,,,,,MVFR,,,,,,,,,,,,SPECI,427.0
KAXA 052135Z AUTO 35007KT 10SM CLR 07/02 A2998 RMK AO2 PWINO,KAXA,2019-01-05T21:35:00Z,43.07,-94.27,7.0,2.0,350,7,,10.0,29.97933,,,TRUE,TRUE,,,,,TRUE,,CLR,,,,,,,,VFR,,,,,,,,,,,,METAR,372.0
KAWG 052135Z AUTO 23005KT 10SM CLR 12/05 A2996 RMK AO2,KAWG,2019-01-05T21:35:00Z,41.27,-91.67,12.0,5.0,230,5,,10.0,29.958662,,,TRUE,TRUE,,,,,,,CLR,,,,,,,,VFR,,,,,,,,,,,,METAR,230.0
KAUM 052135Z AUTO 30010KT 10SM CLR 08/M01 A2994 RMK AO2,KAUM,2019-01-05T21:35:00Z,43.67,-92.92,8.0,-1.0,300,10,,10.0,29.940945,,,TRUE,TRUE,,,,,,,CLR,,,,,,,,VFR,,,,,,,,,,,,SPECI,375.0
KATS 052135Z AUTO 15008KT 10SM CLR 18/M03 A3004 RMK AO2,KATS,2019-01-05T21:35:00Z,32.85,-104.47,18.0,-3.0,150,8,,10.0,30.041338,,,TRUE,TRUE,,,,,,,CLR,,,,,,,,VFR,,,,,,,,,,,,METAR,1081.0
KAQX 052135Z AUTO VRB04G10KT 10SM CLR 16/05 A2995 RMK AO2 TSNO,KAQX,2019-01-05T21:35:00Z,32.98,-81.27,16.0,5.0,0,4,10,10.0,29.949802,,,TRUE,TRUE,,,TRUE,,,,CLR,,,,,,,,VFR,,,,,,,,,,,,SPECI,49.0
KAQP 052135Z AUTO 34012KT 5SM BR OVC006 00/M02 A3002 RMK AO2,KAQP,2019-01-05T21:35:00Z,45.22,-96.0,0.0,-2.0,340,12,,5.0,30.02067,,,TRUE,TRUE,,,,,,BR,OVC,600,,,,,,,IFR,,,,,,,,,,,,SPECI,311.0
KIRS 052135Z AUTO 24007KT 10SM CLR 11/03 A2983 RMK AO2 T01050030,KIRS,2019-01-05T21:35:00Z,41.8,-85.43,10.5,3.0,240,7,,10.0,29.828741,,,TRUE,TRUE,,,,,,,CLR,,,,,,,,VFR,,,,,,,,,,,,SPECI,282.0
KIKV 052135Z AUTO 24004KT 10SM CLR 13/03 A2997 RMK AO2,KIKV,2019-01-05T21:35:00Z,41.68,-93.57,13.0,3.0,240,4,,10.0,29.970472,,,TRUE,TRUE,,,,,,,CLR,,,,,,,,VFR,,,,,,,,,,,,SPECI,275.0
KIIB 052135Z AUTO 26003KT 10SM CLR 09/05 A2994 RMK AO2 T00880053,KIIB,2019-01-05T21:35:00Z,42.45,-91.95,8.8,5.3,260,3,,10.0,29.940945,,,TRUE,TRUE,,,,,,,CLR,,,,,,,,VFR,,,,,,,,,,,,METAR,298.0
KIDI 052135Z AUTO 29007KT 10SM CLR 08/02 A2980 RMK A01,KIDI,2019-01-05T21:35:00Z,40.62,-79.08,8.0,2.0,290,7,,10.0,29.799213,,,TRUE,TRUE,,,,,,,CLR,,,,,,,,VFR,,,,,,,,,,,,SPECI,429.0
KICL 052135Z AUTO 22006KT 10SM CLR 14/03 A2999 RMK AO2,KICL,2019-01-05T21:35:00Z,40.72,-95.02,14.0,3.0,220,6,,10.0,29.991142,,,TRUE,TRUE,,,,,,,CLR,,,,,,,,VFR,,,,,,,,,,,,SPECI,303.0
KHZE 052135Z AUTO 10003KT 7SM OVC005 M02/M02 A3006 RMK AO2 TSNO,KHZE,2019-01-05T21:35:00Z,47.28,-101.58,-2.0,-2.0,100,3,,7.0,30.059055,,,TRUE,TRUE,,,TRUE,,,,OVC,500,,,,,,,IFR,,,,,,,,,,,,SPECI,553.0
KHNR 052135Z AUTO 00000KT 10SM CLR 12/04 A2997 RMK AO2,KHNR,2019-01-05T21:35:00Z,41.58,-95.33,12.0,4.0,0,0,,10.0,29.970472,,,TRUE,TRUE,,,,,,,CLR,,,,,,,,VFR,,,,,,,,,,,,SPECI,375.0
KHEG 052135Z AUTO 29007KT 9SM CLR 15/07 A3005 RMK AO2,KHEG,2019-01-05T21:35:00Z,30.28,-81.8,15.0,7.0,290,7,,9.0,30.050198,,,TRUE,TRUE,,,,,,,CLR,,,,,,,,VFR,,,,,,,,,,,,METAR,27.0
KGYL 052135Z AUTO 29006KT 10SM CLR 04/00 A2996 RMK AO2 T00410000,KGYL,2019-01-05T21:35:00Z,44.77,-94.08,4.1,0.0,290,6,,10.0,29.958662,,,TRUE,TRUE,,,,,,,CLR,,,,,,,,VFR,,,,,,,,,,,,SPECI,302.0
KGWR 052135Z AUTO 01006KT 6SM BR M02/M02 A3005 RMK A01,KGWR,2019-01-05T21:35:00Z,46.22,-97.65,-2.0,-2.0,10,6,,6.0,30.050198,,,TRUE,TRUE,,,,,,BR,,,,,,,,,,,,,,,,,,,,,SPECI,386.0
KGPC 052135Z AUTO 23004KT 10SM CLR 10/02 A2996 RMK AO2,KGPC,2019-01-05T21:35:00Z,39.63,-86.82,10.0,2.0,230,4,,10.0,29.958662,,,TRUE,TRUE,,,,,,,CLR,,,,,,,,VFR,,,,,,,,,,,,SPECI,257.0
KGNT 052135Z AUTO 30012G15KT 10SM CLR M01/M07 A3015 RMK AO2 T10071066,KGNT,2019-01-05T21:35:00Z,35.17,-107.9,-0.7,-6.6,300,12,15,10.0,30.15059,,,TRUE,TRUE,,,,,,,CLR,,,,,,,,VFR,,,,,,,,,,,,SPECI,1987.0
KFPK 052135Z AUTO 25006KT 10SM CLR 10/03 A2978 RMK AO2 T00980030,KFPK,2019-01-05T21:35:00Z,42.57,-84.82,9.8,3.0,250,6,,10.0,29.778543,,,TRUE,TRUE,,,,,,,CLR,,,,,,,,VFR,,,,,,,,,,,,METAR,272.0
KFMM 052135Z AUTO 08007KT 10SM 14/M09 A2995 RMK AO2 T01351086,KFMM,2019-01-05T21:35:00Z,40.33,-103.8,13.5,-8.6,80,7,,10.0,29.949802,,,TRUE,TRUE,,,,,,,,,,,,,,,,,,,,,,,,,,,SPECI,1393.0
KFMH 052135Z AUTO 02013G22KT 1 1/2SM +UP OVC004 05/05 A2939 RMK AO2 LTG DSNT E AND SE,KFMH,2019-01-05T21:35:00Z,41.63,-70.52,5.0,5.0,20,13,22,1.5,29.388779,,,TRUE,TRUE,,,,,,UP,OVC,400,,,,,,,LIFR,,,,,,,,,,,,SPECI,40.0
KFFX 052135Z AUTO 25007KT 10SM CLR 06/01 A2978 RMK AO2 T00610006,KFFX,2019-01-05T21:35:00Z,43.43,-86.0,6.1,0.6,250,7,,10.0,29.778543,,,TRUE,TRUE,,,,,,,CLR,,,,,,,,VFR,,,,,,,,,,,,SPECI,236.0
KFFM 052135Z AUTO 36006KT 7SM OVC004 M03/M04 A3002 RMK AO2,KFFM,2019-01-05T21:35:00Z,46.28,-96.15,-3.0,-4.0,360,6,,7.0,30.02067,,,TRUE,TRUE,,,,,,,OVC,400,,,,,,,LIFR,,,,,,,,,,,,SPECI,361.0
KFFL 052135Z AUTO 23006KT 10SM CLR 13/03 A2995 RMK AO2 PWINO,KFFL,2019-01-05T21:35:00Z,41.03,-91.97,13.0,3.0,230,6,,10.0,29.949802,,,TRUE,TRUE,,,,,TRUE,,CLR,,,,,,,,VFR,,,,,,,,,,,,SPECI,244.0
KDNS 052135Z AUTO 00000KT 10SM CLR 12/12 A2998 RMK AO2,KDNS,2019-01-05T21:35:00Z,41.97,-95.37,12.0,12.0,0,0,,10.0,29.97933,,,TRUE,TRUE,,,,,,,CLR,,,,,,,,VFR,,,,,,,,,,,,SPECI,388.0
KDNA 052135Z AUTO 04003KT 10SM CLR 12/M05 A3014 RMK AO2,KDNA,2019-01-05T21:35:00Z,31.88,-106.7,12.0,-5.0,40,3,,10.0,30.138779,,,TRUE,TRUE,,,,,,,CLR,,,,,,,,VFR,,,,,,,,,,,,SPECI,1253.0
KDLZ 052135Z AUTO 23007KT 10SM CLR 09/03 A2988 RMK AO2,KDLZ,2019-01-05T21:35:00Z,40.28,-83.12,9.0,3.0,230,7,,10.0,29.878937,,,TRUE,TRUE,,,,,,,CLR,,,,,,,,VFR,,,,,,,,,,,,SPECI,289.0
KDLL 052135Z AUTO 27007KT 10SM CLR 09/M02 A2985 RMK AO2 T00861016,KDLL,2019-01-05T21:35:00Z,43.52,-89.77,8.6,-1.6,270,7,,10.0,29.84941,,,TRUE,TRUE,,,,,,,CLR,,,,,,,,VFR,,,,,,,,,,,,SPECI,299.0
KDEH 052135Z AUTO 27005KT 10SM CLR 08/02 A2991 RMK AO2,KDEH,2019-01-05T21:35:00Z,43.27,-91.72,8.0,2.0,270,5,,10.0,29.911417,,,TRUE,TRUE,,,,,,,CLR,,,,,,,,VFR,,,,,,,,,,,,SPECI,353.0
KD95 052135Z AUTO 25009KT 10SM CLR 08/00 A2972 RMK AO2 T00790002,KD95,2019-01-05T21:35:00Z,43.07,-83.27,7.9,0.2,250,9,,10.0,29.719488,,,TRUE,TRUE,,,,,,,CLR,,,,,,,,VFR,,,,,,,,,,,,METAR,255.0
KANQ 052135Z AUTO 25008KT 10SM CLR 09/03 A2983 RMK AO2,KANQ,2019-01-05T21:35:00Z,41.63,-85.08,9.0,3.0,250,8,,10.0,29.828741,,,TRUE,TRUE,,,,,,,CLR,,,,,,,,VFR,,,,,,,,,,,,SPECI,303.0
KAJZ 052135Z AUTO 00000KT 10SM CLR M03/M07 A3012 RMK AO2 T10321072,KAJZ,2019-01-05T21:35:00Z,38.78,-108.07,-3.2,-7.2,0,0,,10.0,30.121063,,,TRUE,TRUE,,,,,,,CLR,,,,,,,,VFR,,,,,,,,,,,,SPECI,1583.0
KAIO 052135Z AUTO 00000KT 10SM CLR 14/03 A2997 RMK AO2,KAIO,2019-01-05T21:35:00Z,41.38,-95.03,14.0,3.0,0,0,,10.0,29.970472,,,TRUE,TRUE,,,,,,,CLR,,,,,,,,VFR,,,,,,,,,,,,METAR,360.0
KAIK 052135Z AUTO 27008KT 10SM CLR 15/03 A2999 RMK AO2,KAIK,2019-01-05T21:35:00Z,33.65,-81.68,15.0,3.0,270,8,,10.0,29.991142,,,TRUE,TRUE,,,,,,,CLR,,,,,,,,VFR,,,,,,,,,,,,SPECI,161.0
KAIB 052135Z AUTO 00000KT 10SM CLR 00/M05 A3014 RMK AO2,KAIB,2019-01-05T21:35:00Z,38.23,-108.57,0.0,-5.0,0,0,,10.0,30.138779,,,TRUE,TRUE,,,,,,,CLR,,,,,,,,VFR,,,,,,,,,,,,SPECI,1811.0
KAEL 052135Z AUTO 29006KT 10SM CLR 06/02 A2995 RMK AO2,KAEL,2019-01-05T21:35:00Z,43.68,-93.37,6.0,2.0,290,6,,10.0,29.949802,,,TRUE,TRUE,,,,,,,CLR,,,,,,,,VFR,,,,,,,,,,,,SPECI,383.0
KAEJ 052135Z AUTO 00000KT 10SM CLR 02/M08 A3009 RMK AO2 T00181083,KAEJ,2019-01-05T21:35:00Z,38.82,-106.12,1.8,-8.3,0,0,,10.0,30.088583,,,TRUE,TRUE,,,,,,,CLR,,,,,,,,VFR,,,,,,,,,,,,METAR,2422.0
KADU 052135Z AUTO 00000KT 10SM CLR 14/02 A2998 RMK AO2,KADU,2019-01-05T21:35:00Z,41.7,-94.92,14.0,2.0,0,0,,10.0,29.97933,,,TRUE,TRUE,,,,,,,CLR,,,,,,,,VFR,,,,,,,,,,,,SPECI,392.0
K9D7 052135Z AUTO 01003KT 10SM OVC008 M04/M04 A3009 RMK AO2,K9D7,2019-01-05T21:35:00Z,48.48,-99.23,-4.0,-4.0,10,3,,10.0,30.088583,,,TRUE,TRUE,,,,,,,OVC,800,,,,,,,IFR,,,,,,,,,,,,METAR,452.0
K82C 052135Z AUTO 28006KT 7SM CLR 09/00 A2985 RMK AO2 T00900000,K82C,2019-01-05T21:35:00Z,43.83,-90.13,9.0,0.0,280,6,,7.0,29.84941,,,TRUE,TRUE,,,,,,,CLR,,,,,,,,VFR,,,,,,,,,,,,METAR,276.0
K6S2 052135Z AUTO 12005KT 10SM SCT110 11/05 A2928 RMK AO2,K6S2,2019-01-05T21:35:00Z,43.98,-124.12,11.0,5.0,120,5,,10.0,29.279528,,,TRUE,TRUE,,,,,,,SCT,11000,,,,,,,VFR,,,,,,,,,,,,SPECI,16.0
K6L4 052135Z AUTO 24005G11KT CLR 08/02 A2994 RMK AO2,K6L4,2019-01-05T21:35:00Z,37.85,-81.92,8.0,2.0,240,5,11,,29.940945,,,TRUE,TRUE,,,,,,,CLR,,,,,,,,,,,,,,,,,,,,SPECI,508.0
K6B9 052135Z AUTO VRB06KT 8SM OVC009 02/00 A2969 RMK AO2,K6B9,2019-01-05T21:35:00Z,42.92,-76.43,2.0,0.0,0,6,,8.0,29.68996,,,TRUE,TRUE,,,,,,,OVC,900,,,,,,,IFR,,,,,,,,,,,,SPECI,316.0
K5SM 052135Z AUTO 21007KT 10SM SCT120 00/M10 A3018 RMK AO2,K5SM,2019-01-05T21:35:00Z,39.43,-107.38,0.0,-10.0,210,7,,10.0,30.180119,,,TRUE,TRUE,,,,,,,SCT,12000,,,,,,,VFR,,,,,,,,,,,,SPECI,3232.0
K5H4 052135Z AUTO 05009KT 8SM OVC003 M04/M04 A3007 RMK AO2,K5H4,2019-01-05T21:35:00Z,47.78,-99.93,-4.0,-4.0,50,9,,8.0,30.070866,,,TRUE,TRUE,,,,,,,OVC,300,,,,,,,LIFR,,,,,,,,,,,,METAR,490.0
K57C 052135Z AUTO 27011KT 10SM CLR 09/01 A2984 RMK AO2 T00900013,K57C,2019-01-05T21:35:00Z,42.8,-88.37,9.0,1.3,270,11,,10.0,29.840551,,,TRUE,TRUE,,,,,,,CLR,,,,,,,,VFR,,,,,,,,,,,,SPECI,262.0
K4R5 052135Z AUTO 32004KT 10SM SCT017 02/M02 A2992 RMK AO2 T00151017,K4R5,2019-01-05T21:35:00Z,46.78,-90.77,1.5,-1.7,320,4,,10.0,29.920275,,,TRUE,TRUE,,,,,,,SCT,1700,,,,,,,VFR,,,,,,,,,,,,METAR,198.0
K4M9 052135Z AUTO 20007KT 10SM CLR 14/08 A3007 RMK AO2 PWINO,K4M9,2019-01-05T21:35:00Z,36.4,-90.65,14.0,8.0,200,7,,10.0,30.070866,,,TRUE,TRUE,,,,,TRUE,,CLR,,,,,,,,VFR,,,,,,,,,,,,SPECI,90.0
K4A6 052135Z AUTO VRB04KT 10SM CLR 15/03 A3009 RMK AO2,K4A6,2019-01-05T21:35:00Z,34.68,-86.0,15.0,3.0,0,4,,10.0,30.088583,,,TRUE,TRUE,,,,,,,CLR,,,,,,,,VFR,,,,,,,,,,,,SPECI,198.0
K46D 052135Z AUTO 04006G11KT 10SM OVC005 M03/M04 A3007 RMK AO2,K46D,2019-01-05T21:35:00Z,47.45,-99.15,-3.0,-4.0,40,6,11,10.0,30.070866,,,TRUE,TRUE,,,,,,,OVC,500,,,,,,,IFR,,,,,,,,,,,,METAR,490.0
K42J 052135Z AUTO 32008KT 10SM CLR 14/07 A3004 RMK A01 TSNO,K42J,2019-01-05T21:35:00Z,29.85,-82.05,14.0,7.0,320,8,,10.0,30.041338,,,TRUE,TRUE,,,TRUE,,,,CLR,,,,,,,,VFR,,,,,,,,,,,,SPECI,60.0
K33V 052135Z AUTO 18010KT 10SM CLR 04/M08 A3007 RMK AO1,K33V,2019-01-05T21:35:00Z,40.75,-106.28,4.0,-8.0,180,10,,10.0,30.070866,,,TRUE,TRUE,,,,,,,CLR,,,,,,,,VFR,,,,,,,,,,,,SPECI,2484.0
K2P2 052135Z AUTO 32004KT 10SM OVC033 03/00 A2976 RMK AO2 T00310000,K2P2,2019-01-05T21:35:00Z,45.38,-86.92,3.1,0.0,320,4,,10.0,29.760826,,,TRUE,TRUE,,,,,,,OVC,3300,,,,,,,VFR,,,,,,,,,,,,METAR,199.0
K2D5 052135Z AUTO 35006KT 6SM BR OVC008 M02/M02 A3005 RMK AO2 PWINO,K2D5,2019-01-05T21:35:00Z,46.17,-98.08,-2.0,-2.0,350,6,,6.0,30.050198,,,TRUE,TRUE,,,,,TRUE,BR,OVC,800,,,,,,,IFR,,,,,,,,,,,,METAR,407.0
K24J 052135Z AUTO 27006KT 10SM CLR 15/06 A3006 RMK A01,K24J,2019-01-05T21:35:00Z,30.3,-83.03,15.0,6.0,270,6,,10.0,30.059055,,,TRUE,TRUE,,,,,,,CLR,,,,,,,,VFR,,,,,,,,,,,,SPECI,32.0
K20U 052135Z AUTO 00000KT 10SM CLR 05/M04 A2995 RMK AO2,K20U,2019-01-05T21:35:00Z,46.93,-103.98,5.0,-4.0,0,0,,10.0,29.949802,,,TRUE,TRUE,,,,,,,CLR,,,,,,,,VFR,,,,,,,,,,,,METAR,840.0
K0S9 052135Z AUTO 13008KT 10SM CLR 12/05 A2937 RMK AO2,K0S9,2019-01-05T21:35:00Z,48.05,-122.82,12.0,5.0,130,8,,10.0,29.371063,,,TRUE,TRUE,,,,,,,CLR,,,,,,,,VFR,,,,,,,,,,,,SPECI,33.0
K08D 052135Z AUTO 08007KT 10SM OVC004 M04/M04 A3001 RMK AO2,K08D,2019-01-05T21:35:00Z,48.3,-102.4,-4.0,-4.0,80,7,,10.0,30.008858,,,TRUE,TRUE,,,,,,,OVC,400,,,,,,,LIFR,,,,,,,,,,,,METAR,684.0
K06D 052135Z AUTO 34003KT 10SM OVC009 M03/M03 A3005 RMK AO2,K06D,2019-01-05T21:35:00Z,48.88,-99.62,-3.0,-3.0,340,3,,10.0,30.050198,,,TRUE,TRUE,,,,,,,OVC,900,,,,,,,IFR,,,,,,,,,,,,METAR,556.0
CYTE 052135Z AUTO 24004KT 3SM -SN OVC027 M21/M24 A2947 RMK SLP987,CYTE,2019-01-05T21:35:00Z,64.22,-76.52,-21.0,-24.0,240,4,,3.0,29.471457,998.7,,TRUE,,,,,,,-SN,OVC,2700,,,,,,,MVFR,,,,,,,,,,,,SPECI,47.0
KQFR 052135Z AUTO 00000KT 10SM OVC006 M12/M27 A2983 RMK AO1,KQFR,2019-01-05T21:35:00Z,,,-12.0,-27.0,0,0,,10.0,29.828741,,,TRUE,TRUE,,,,,,,OVC,600,,,,,,,IFR,,,,,,,,,,,,METAR,
KTVY 052135Z AUTO 00000KT 5SM BR SCT120 M05/M07 A2994 RMK AO2,KTVY,2019-01-05T21:35:00Z,40.62,-112.35,-5.0,-7.0,0,0,,5.0,29.940945,,,TRUE,TRUE,,,,,,BR,SCT,12000,,,,,,,MVFR,,,,,,,,,,,,METAR,1317.0
KSVC 052135Z AUTO 00000KT 10SM CLR 11/M06 A3015 RMK AO2 T01091059,KSVC,2019-01-05T21:35:00Z,32.63,-108.15,10.9,-5.9,0,0,,10.0,30.15059,,,TRUE,TRUE,,,,,,,CLR,,,,,,,,VFR,,,,,,,,,,,,METAR,1659.0
KSDC 052135Z AUTO 30003KT 7SM BKN012 OVC019 02/00 A2974 RMK AO2,KSDC,2019-01-05T21:35:00Z,43.23,-77.12,2.0,0.0,300,3,,7.0,29.740158,,,TRUE,TRUE,,,,,,,BKN,1200,OVC,1900,,,,,MVFR,,,,,,,,,,,,METAR,129.0
KPTS 052135Z AUTO 19008KT 10SM CLR 14/06 A3003 RMK AO2 T01430058,KPTS,2019-01-05T21:35:00Z,37.45,-94.73,14.3,5.8,190,8,,10.0,30.029528,,,TRUE,TRUE,,,,,,,CLR,,,,,,,,VFR,,,,,,,,,,,,SPECI,290.0
KPRO 052135Z AUTO 00000KT 10SM CLR 13/02 A2996 RMK AO2 T01270023,KPRO,2019-01-05T21:35:00Z,41.83,-94.17,12.7,2.3,0,0,,10.0,29.958662,,,TRUE,TRUE,,,,,,,CLR,,,,,,,,VFR,,,,,,,,,,,,SPECI,308.0
KPEA 052135Z AUTO 26004KT 10SM CLR 13/03 A2997 RMK AO2 T01300027,KPEA,2019-01-05T21:35:00Z,41.4,-92.95,13.0,2.7,260,4,,10.0,29.970472,,,TRUE,TRUE,,,,,,,CLR,,,,,,,,VFR,,,,,,,,,,,,SPECI,270.0
KMAW 052135Z AUTO 20008KT 10SM CLR 15/06 A3008 RMK AO2,KMAW,2019-01-05T21:35:00Z,36.6,-90.0,15.0,6.0,200,8,,10.0,30.079725,,,TRUE,TRUE,,,,,,,CLR,,,,,,,,VFR,,,,,,,,,,,,SPECI,90.0
KM25 052135Z AUTO 23004KT 10SM CLR 13/05 A3008 RMK AO2 PWINO,KM25,2019-01-05T21:35:00Z,36.77,-88.58,13.0,5.0,230,4,,10.0,30.079725,,,TRUE,TRUE,,,,,TRUE,,CLR,,,,,,,,VFR,,,,,,,,,,,,SPECI,160.0
KLRY 052135Z AUTO 20005KT 10SM CLR 16/03 A3004 RMK AO2,KLRY,2019-01-05T21:35:00Z,38.62,-94.35,16.0,3.0,200,5,,10.0,30.041338,,,TRUE,TRUE,,,,,,,CLR,,,,,,,,VFR,,,,,,,,,,,,SPECI,279.0
KLKR 052135Z AUTO 28004KT 10SM CLR 15/02 A2991 RMK AO2,KLKR,2019-01-05T21:35:00Z,34.72,-80.85,15.0,2.0,280,4,,10.0,29.911417,,,TRUE,TRUE,,,,,,,CLR,,,,,,,,VFR,,,,,,,,,,,,SPECI,149.0
KJSO 052135Z AUTO 21004KT 10SM CLR 20/03 A3013 RMK AO2 T02050037,KJSO,2019-01-05T21:35:00Z,31.87,-95.22,20.5,3.7,210,4,,10.0,30.129921,,,TRUE,TRUE,,,,,,,CLR,,,,,,,,VFR,,,,,,,,,,,,METAR,206.0
KINF 052135Z AUTO 27005KT 7SM CLR 13/11 A3007 RMK AO2,KINF,2019-01-05T21:35:00Z,28.8,-82.32,13.0,11.0,270,5,,7.0,30.070866,,,TRUE,TRUE,,,,,,,CLR,,,,,,,,VFR,,,,,,,,,,,,SPECI,15.0
KEOK 052135Z AUTO 25006KT 10SM CLR 13/04 A2997 RMK AO2,KEOK,2019-01-05T21:35:00Z,40.47,-91.42,13.0,4.0,250,6,,10.0,29.970472,,,TRUE,TRUE,,,,,,,CLR,,,,,,,,VFR,,,,,,,,,,,,SPECI,205.0
KDYB 052135Z AUTO 27007KT 10SM CLR 16/06 A2993 RMK AO1,KDYB,2019-01-05T21:35:00Z,33.07,-80.28,16.0,6.0,270,7,,10.0,29.929134,,,TRUE,TRUE,,,,,,,CLR,,,,,,,,VFR,,,,,,,,,,,,SPECI,18.0
KCCY 052135Z AUTO 29006KT 10SM CLR 08/02 A2994 RMK AO2,KCCY,2019-01-05T21:35:00Z,43.07,-92.62,8.0,2.0,290,6,,10.0,29.940945,,,TRUE,TRUE,,,,,,,CLR,,,,,,,,VFR,,,,,,,,,,,,SPECI,343.0
K2J9 052135Z AUTO VRB06G14KT 10SM CLR 16/06 A3010 RMK AO2,K2J9,2019-01-05T21:35:00Z,30.6,-84.55,16.0,6.0,0,6,14,10.0,30.100393,,,TRUE,TRUE,,,,,,,CLR,,,,,,,,VFR,,,,,,,,,,,,SPECI,69.0
KVTI 052135Z AUTO 27004KT 10SM CLR 09/04 A2995 RMK AO2 T00910042,KVTI,2019-01-05T21:35:00Z,42.22,-92.02,9.1,4.2,270,4,,10.0,29.949802,,,TRUE,TRUE,,,,,,,CLR,,,,,,,,VFR,,,,,,,,,,,,SPECI,255.0
KSEM 052135Z AUTO 28006KT 10SM 15/04 A3013 RMK AO2,KSEM,2019-01-05T21:35:00Z,32.35,-86.98,15.0,4.0,280,6,,10.0,30.129921,,,TRUE,TRUE,,,,,,,,,,,,,,,,,,,,,,,,,,,SPECI,51.0
KRUG 052135Z AUTO 36004KT 10SM OVC006 M04/M04 A3006 RMK AO2,KRUG,2019-01-05T21:35:00Z,48.38,-100.02,-4.0,-4.0,360,4,,10.0,30.059055,,,TRUE,TRUE,,,,,,,OVC,600,,,,,,,IFR,,,,,,,,,,,,SPECI,472.0
KPCZ 052135Z AUTO 27009G19KT 10SM CLR 09/00 A2981 RMK AO2 T00900000,KPCZ,2019-01-05T21:35:00Z,44.33,-89.02,9.0,0.0,270,9,19,10.0,29.811024,,,TRUE,TRUE,,,,,,,CLR,,,,,,,,VFR,,,,,,,,,,,,SPECI,252.0
KMCJ 052135Z AUTO 00000KT 10SM CLR 23/01 A3013 RMK A01,KMCJ,2019-01-05T21:35:00Z,29.72,-95.4,23.0,1.0,0,0,,10.0,30.129921,,,TRUE,TRUE,,,,,,,CLR,,,,,,,,VFR,,,,,,,,,,,,METAR,69.0
KLUM 052135Z AUTO 28010KT 10SM CLR 05/M02 A2991 RMK AO2 T00481020,KLUM,2019-01-05T21:35:00Z,44.9,-91.87,4.8,-2.0,280,10,,10.0,29.911417,,,TRUE,TRUE,,,,,,,CLR,,,,,,,,VFR,,,,,,,,,,,,SPECI,273.0
KLNL 052135Z AUTO 32007KT 270V350 3SM UP OVC006 00/00 A2984 RMK AO2 T00001005,KLNL,2019-01-05T21:35:00Z,46.15,-89.22,0.0,-0.5,320,7,,3.0,29.840551,,,TRUE,TRUE,,,,,,UP,OVC,600,,,,,,,IFR,,,,,,,,,,,,SPECI,520.0
KGGE 052135Z AUTO 29007KT 10SM CLR 16/05 A2990 RMK AO2,KGGE,2019-01-05T21:35:00Z,33.32,-79.32,16.0,5.0,290,7,,10.0,29.899607,,,TRUE,TRUE,,,,,,,CLR,,,,,,,,VFR,,,,,,,,,,,,SPECI,12.0
KCLS 052135Z AUTO 00000KT 5SM BR FEW005 07/07 A2941 RMK AO2,KCLS,2019-01-05T21:35:00Z,46.68,-122.98,7.0,7.0,0,0,,5.0,29.409449,,,TRUE,TRUE,,,,,,BR,FEW,500,,,,,,,MVFR,,,,,,,,,,,,METAR,54.0
KCKI 052135Z AUTO 27011G15KT 10SM CLR 16/03 A2991 RMK AO2,KCKI,2019-01-05T21:35:00Z,33.72,-79.85,16.0,3.0,270,11,15,10.0,29.911417,,,TRUE,TRUE,,,,,,,CLR,,,,,,,,VFR,,,,,,,,,,,,SPECI,21.0
K96D 052135Z AUTO 01011KT 10SM M05/M05 A3012 RMK AO2,K96D,2019-01-05T21:35:00Z,48.93,-97.9,-5.0,-5.0,10,11,,10.0,30.121063,,,TRUE,TRUE,,,,,,,,,,,,,,,,,,,,,,,,,,,SPECI,290.0
K1P1 052135Z AUTO 00000KT 10SM CLR 01/M01 A2956 RMK AO2 T00071014,K1P1,2019-01-05T21:35:00Z,43.78,-71.75,0.7,-1.4,0,0,,10.0,29.56004,,,TRUE,TRUE,,,,,,,CLR,,,,,,,,VFR,,,,,,,,,,,,SPECI,154.0
KS32 052135Z AUTO 36013KT 10SM OVC010 M03/M04 A3006 RMK AO2,KS32,2019-01-05T21:35:00Z,47.42,-98.1,-3.0,-4.0,360,13,,10.0,30.059055,,,TRUE,TRUE,,,,,,,OVC,1000,,,,,,,MVFR,,,,,,,,,,,,METAR,684.0
KEOE 052135Z AUTO 27007KT 10SM CLR 16/04 A2997 RMK AO2,KEOE,2019-01-05T21:35:00Z,34.32,-81.63,16.0,4.0,270,7,,10.0,29.970472,,,TRUE,TRUE,,,,,,,CLR,,,,,,,,VFR,,,,,,,,,,,,SPECI,174.0
KCCA 052135Z AUTO 21005KT 10SM CLR 18/05 A3007 RMK AO2,KCCA,2019-01-05T21:35:00Z,35.6,-92.45,18.0,5.0,210,5,,10.0,30.070866,,,TRUE,TRUE,,,,,,,CLR,,,,,,,,VFR,,,,,,,,,,,,SPECI,157.0
K74V 052135Z AUTO 00000KT 10SM CLR M02/M12 A3014 RMK AO2,K74V,2019-01-05T21:35:00Z,40.28,-110.05,-2.0,-12.0,0,0,,10.0,30.138779,,,TRUE,TRUE,,,,,,,CLR,,,,,,,,VFR,,,,,,,,,,,,METAR,1576.0
K2V5 052135Z AUTO 06011KT 10SM CLR 17/M05 A2992 RMK AO2,K2V5,2019-01-05T21:35:00Z,40.1,-102.25,17.0,-5.0,60,11,,10.0,29.920275,,,TRUE,TRUE,,,,,,,CLR,,,,,,,,VFR,,,,,,,,,,,,METAR,1118.0
KDRI 052135Z AUTO 21003KT 10SM CLR 19/04 A3017 RMK AO2 T01910035,KDRI,2019-01-05T21:35:00Z,30.83,-93.33,19.1,3.5,210,3,,10.0,30.171259,,,TRUE,TRUE,,,,,,,CLR,,,,,,,,VFR,,,,,,,,,,,,METAR,63.0
KDNN 052135Z AUTO 34004KT 10SM CLR 15/03 A3007 RMK AO2,KDNN,2019-01-05T21:35:00Z,34.72,-84.87,15.0,3.0,340,4,,10.0,30.070866,,,TRUE,TRUE,,,,,,,CLR,,,,,,,,VFR,,,,,,,,,,,,METAR,216.0
KY31 052135Z AUTO 27006KT 10SM CLR 06/01 A2967 RMK AO2 T00570005,KY31,2019-01-05T21:35:00Z,44.25,-84.18,5.7,0.5,270,6,,10.0,29.66929,,,TRUE,TRUE,,,,,,,CLR,,,,,,,,VFR,,,,,,,,,,,,SPECI,269.0
KTOB 052135Z AUTO 29009KT 10SM CLR 05/00 A2994 RMK AO2,KTOB,2019-01-05T21:35:00Z,44.02,-92.82,5.0,0.0,290,9,,10.0,29.940945,,,TRUE,TRUE,,,,,,,CLR,,,,,,,,VFR,,,,,,,,,,,,SPECI,398.0
KSYM 052135Z AUTO 25006G12KT 10SM CLR 10/03 A2999 RMK AO2,KSYM,2019-01-05T21:35:00Z,38.22,-83.58,10.0,3.0,250,6,12,10.0,29.991142,,,TRUE,TRUE,,,,,,,CLR,,,,,,,,VFR,,,,,,,,,,,,METAR,313.0
KSGS 052135Z AUTO 32009KT 10SM CLR 07/00 A2994 RMK AO2 T00691003,KSGS,2019-01-05T21:35:00Z,44.87,-93.03,6.9,-0.3,320,9,,10.0,29.940945,,,TRUE,TRUE,,,,,,,CLR,,,,,,,,VFR,,,,,,,,,,,,SPECI,250.0
KRRT 052135Z AUTO 33007KT 10SM CLR M06/M08 A3005 RMK AO2,KRRT,2019-01-05T21:35:00Z,48.93,-95.33,-6.0,-8.0,330,7,,10.0,30.050198,,,TRUE,TRUE,,,,,,,CLR,,,,,,,,VFR,,,,,,,,,,,,SPECI,327.0
KFRG 052135Z 01007G17KT 340V040 1 3/4SM -RA BR BKN008 BKN012 OVC017 07/06 A2947 RMK AO2 SFC VIS 2 1/2 RAB28 P0000 T00720061,KFRG,2019-01-05T21:35:00Z,40.73,-73.42,7.2,6.1,10,7,17,1.75,29.471457,,,,TRUE,,,,,,-RA BR,BKN,800,BKN,1200,OVC,1700,,,IFR,,,,,,0.005,,,,,,METAR,21.0
KFGX 052135Z AUTO 24008KT 10SM CLR 10/05 A2998 RMK AO2 T00950046,KFGX,2019-01-05T21:35:00Z,38.55,-83.75,9.5,4.6,240,8,,10.0,29.97933,,,TRUE,TRUE,,,,,,,CLR,,,,,,,,VFR,,,,,,,,,,,,METAR,278.0
KF46 052135Z AUTO 19008KT 10SM CLR 22/06 A3007 RMK AO2 T02240064,KF46,2019-01-05T21:35:00Z,32.93,-96.43,22.4,6.4,190,8,,10.0,30.070866,,,TRUE,TRUE,,,,,,,CLR,,,,,,,,VFR,,,,,,,,,,,,METAR,176.0
KERV 052135Z AUTO 16007KT 10SM CLR 22/00 A3011 RMK AO2 T02201004,KERV,2019-01-05T21:35:00Z,29.98,-99.08,22.0,-0.4,160,7,,10.0,30.109253,,,TRUE,TRUE,,,,,,,CLR,,,,,,,,VFR,,,,,,,,,,,,METAR,510.0
KEFT 052135Z AUTO 10SM CLR 08/01 A2988 RMK AO2 T00810011,KEFT,2019-01-05T21:35:00Z,42.62,-89.6,8.1,1.1,,,,10.0,29.878937,,,TRUE,TRUE,,,,,,,CLR,,,,,,,,VFR,,,,,,,,,,,,SPECI,331.0
KEDC 052135Z AUTO 20009KT 10SM CLR 22/01 A3010 RMK AO2,KEDC,2019-01-05T21:35:00Z,30.4,-97.57,22.0,1.0,200,9,,10.0,30.100393,,,TRUE,TRUE,,,,,,,CLR,,,,,,,,VFR,,,,,,,,,,,,METAR,189.0
KDZB 052135Z AUTO 21004KT 10SM CLR 24/01 A3008 RMK AO2 T02360007,KDZB,2019-01-05T21:35:00Z,30.53,-98.37,23.6,0.7,210,4,,10.0,30.079725,,,TRUE,TRUE,,,,,,,CLR,,,,,,,,VFR,,,,,,,,,,,,METAR,334.0
KFWB 052135Z AUTO 24005KT 10SM CLR 18/03 A3007 RMK AO2,KFWB,2019-01-05T21:35:00Z,36.7,-93.4,18.0,3.0,240,5,,10.0,30.070866,,,TRUE,TRUE,,,,,,,CLR,,,,,,,,VFR,,,,,,,,,,,,METAR,406.0
KFSW 052135Z AUTO 23003KT 10SM CLR 14/04 A2997 RMK AO2,KFSW,2019-01-05T21:35:00Z,40.67,-91.32,14.0,4.0,230,3,,10.0,29.970472,,,TRUE,TRUE,,,,,,,CLR,,,,,,,,VFR,,,,,,,,,,,,SPECI,221.0
KFSO 052135Z AUTO 00000KT 7SM CLR 00/M01 A2962 RMK AO2 T10011013,KFSO,2019-01-05T21:35:00Z,44.93,-73.1,-0.1,-1.3,0,0,,7.0,29.619095,,,TRUE,TRUE,,,,,,,CLR,,,,,,,,VFR,,,,,,,,,,,,SPECI,70.0
KFRH 052135Z AUTO 24007KT 10SM CLR 11/M01 A3001 RMK AO1,KFRH,2019-01-05T21:35:00Z,38.5,-86.63,11.0,-1.0,240,7,,10.0,30.008858,,,TRUE,TRUE,,,,,,,CLR,,,,,,,,VFR,,,,,,,,,,,,SPECI,241.0
KFWZ 052135Z AUTO 25017G24KT 10SM CLR 02/M15 A2986 RMK AO2,KFWZ,2019-01-05T21:35:00Z,42.52,-108.78,2.0,-15.0,250,17,24,10.0,29.861221,,,TRUE,TRUE,,,,,,,CLR,,,,,,,,VFR,,,,,,,,,,,,METAR,2588.0
KGAO 052135Z AUTO 18003KT 10SM CLR 20/08 A3018 RMK AO2 T01970076,KGAO,2019-01-05T21:35:00Z,29.45,-90.27,19.7,7.6,180,3,,10.0,30.180119,,,TRUE,TRUE,,,,,,,CLR,,,,,,,,VFR,,,,,,,,,,,,METAR,1.0
KM21 052135Z AUTO 26003KT 10SM CLR 14/03 A3005 RMK AO2 T01400034,KM21,2019-01-05T21:35:00Z,37.22,-87.15,14.0,3.4,260,3,,10.0,30.050198,,,TRUE,TRUE,,,,,,,CLR,,,,,,,,VFR,,,,,,,,,,,,METAR,129.0
KLXY 052135Z AUTO 18010G15KT 10SM CLR 21/02 A3009 RMK AO2 T02070023,KLXY,2019-01-05T21:35:00Z,31.63,-96.52,20.7,2.3,180,10,15,10.0,30.088583,,,TRUE,TRUE,,,,,,,CLR,,,,,,,,VFR,,,,,,,,,,,,SPECI,166.0
KLWM 052135Z 36008KT 7SM -RA OVC010 04/01 A2953 RMK AO2 P0001 T00440011,KLWM,2019-01-05T21:35:00Z,42.72,-71.13,4.4,1.1,360,8,,7.0,29.530512,,,,TRUE,,,,,,-RA,OVC,1000,,,,,,,MVFR,,,,,,0.01,,,,,,METAR,54.0
KLUD 052135Z AUTO 12004KT 10SM CLR 21/04 A3003 RMK AO2 T02080036,KLUD,2019-01-05T21:35:00Z,33.25,-97.58,20.8,3.6,120,4,,10.0,30.029528,,,TRUE,TRUE,,,,,,,CLR,,,,,,,,VFR,,,,,,,,,,,,METAR,319.0
KLNC 052135Z AUTO 17004KT 10SM CLR 21/04 A3007 RMK AO2 T02100042,KLNC,2019-01-05T21:35:00Z,32.58,-96.72,21.0,4.2,170,4,,10.0,30.070866,,,TRUE,TRUE,,,,,,,CLR,,,,,,,,VFR,,,,,,,,,,,,SPECI,153.0
KLNA 052135Z AUTO 29006KT 10SM CLR 24/14 A3001 RMK AO2 T02400144,KLNA,2019-01-05T21:35:00Z,26.6,-80.02,24.0,14.4,290,6,,10.0,30.008858,,,TRUE,TRUE,,,,,,,CLR,,,,,,,,VFR,,,,,,,,,,,,METAR,11.0
KL18 052135Z AUTO 00000KT 10SM OVC080 13/05 A2998 RMK AO2,KL18,2019-01-05T21:35:00Z,33.35,-117.25,13.0,5.0,0,0,,10.0,29.97933,,,TRUE,TRUE,,,,,,,OVC,8000,,,,,,,VFR,,,,,,,,,,,,METAR,216.0
KK88 052135Z AUTO 22005KT 10SM CLR 15/04 A3003 RMK AO1 T01510036,KK88,2019-01-05T21:35:00Z,37.87,-95.38,15.1,3.6,220,5,,10.0,30.029528,,,TRUE,TRUE,,,,,,,CLR,,,,,,,,VFR,,,,,,,,,,,,METAR,309.0
KJYL 052135Z AUTO 31009KT 10SM CLR 17/06 A2998 RMK AO2 T01720057,KJYL,2019-01-05T21:35:00Z,32.65,-81.6,17.2,5.7,310,9,,10.0,29.97933,,,TRUE,TRUE,,,,,,,CLR,,,,,,,,VFR,,,,,,,,,,,,METAR,57.0
KJWY 052135Z AUTO 19006KT 10SM CLR 22/04 A3008 RMK AO2 T02150039,KJWY,2019-01-05T21:35:00Z,32.45,-96.92,21.5,3.9,190,6,,10.0,30.079725,,,TRUE,TRUE,,,,,,,CLR,,,,,,,,VFR,,,,,,,,,,,,METAR,217.0
KJSV 052135Z AUTO 32005KT 10SM CLR 19/05 A3009 RMK AO2,KJSV,2019-01-05T21:35:00Z,35.43,-94.8,19.0,5.0,320,5,,10.0,30.088583,,,TRUE,TRUE,,,,,,,CLR,,,,,,,,VFR,,,,,,,,,,,,METAR,161.0
KIGQ 052135Z AUTO 28008KT 240V330 10SM CLR 11/03 A2989 RMK AO2 T01070031,KIGQ,2019-01-05T21:35:00Z,41.53,-87.53,10.7,3.1,280,8,,10.0,29.890747,,,TRUE,TRUE,,,,,,,CLR,,,,,,,,VFR,,,,,,,,,,,,SPECI,188.0
KI75 052135Z AUTO 22004KT 5SM HZ CLR 14/05 A2998 RMK AO2 T01430054,KI75,2019-01-05T21:35:00Z,41.05,-93.68,14.3,5.4,220,4,,5.0,29.97933,,,TRUE,TRUE,,,,,,HZ,CLR,,,,,,,,MVFR,,,,,,,,,,,,SPECI,339.0
KI67 052135Z AUTO 23006KT 10SM CLR 11/02 A2995 RMK AO1,KI67,2019-01-05T21:35:00Z,39.25,-84.78,11.0,2.0,230,6,,10.0,29.949802,,,TRUE,TRUE,,,,,,,CLR,,,,,,,,VFR,,,,,,,,,,,,SPECI,178.0
KHVS 052135Z AUTO 27005KT 10SM CLR 15/05 A2989 RMK AO2,KHVS,2019-01-05T21:35:00Z,34.4,-80.12,15.0,5.0,270,5,,10.0,29.890747,,,TRUE,TRUE,,,,,,,CLR,,,,,,,,VFR,,,,,,,,,,,,METAR,111.0
KHVE 052135Z AUTO 10SM CLR M04/M10 A3020 RMK AO2,KHVE,2019-01-05T21:35:00Z,38.42,-110.7,-4.0,-10.0,,,,10.0,30.200787,,,TRUE,TRUE,,,,,,,CLR,,,,,,,,VFR,,,,,,,,,,,,METAR,1350.0
KHPT 052135Z AUTO 31007KT 10SM CLR 08/03 A2996 RMK AO2,KHPT,2019-01-05T21:35:00Z,42.58,-93.23,8.0,3.0,310,7,,10.0,29.958662,,,TRUE,TRUE,,,,,,,CLR,,,,,,,,VFR,,,,,,,,,,,,SPECI,358.0
KHFY 052135Z AUTO 25006KT 10SM CLR 11/04 A2995 RMK AO2 T01120041,KHFY,2019-01-05T21:35:00Z,39.63,-86.08,11.2,4.1,250,6,,10.0,29.949802,,,TRUE,TRUE,,,,,,,CLR,,,,,,,,VFR,,,,,,,,,,,,SPECI,251.0
KHFJ 052135Z AUTO 00000KT 10SM CLR 17/02 A3005 RMK AO2,KHFJ,2019-01-05T21:35:00Z,36.9,-94.02,17.0,2.0,0,0,,10.0,30.050198,,,TRUE,TRUE,,,,,,,CLR,,,,,,,,VFR,,,,,,,,,,,,METAR,401.0
KHCR 052135Z AUTO 35003KT 10SM CLR 02/M05 A2992 RMK AO2,KHCR,2019-01-05T21:35:00Z,40.48,-111.43,2.0,-5.0,350,3,,10.0,29.920275,,,TRUE,TRUE,,,,,,,CLR,,,,,,,,VFR,,,,,,,,,,,,METAR,1706.0
KGZL 052135Z AUTO 22008KT 10SM CLR 20/M07 A3007 RMK AO2,KGZL,2019-01-05T21:35:00Z,35.28,-95.1,20.0,-7.0,220,8,,10.0,30.070866,,,TRUE,TRUE,,,,,,,CLR,,,,,,,,VFR,,,,,,,,,,,,METAR,183.0
KGYB 052135Z AUTO 18006KT 10SM CLR 22/02 A3012 RMK AO2 T02150018,KGYB,2019-01-05T21:35:00Z,30.17,-96.98,21.5,1.8,180,6,,10.0,30.121063,,,TRUE,TRUE,,,,,,,CLR,,,,,,,,VFR,,,,,,,,,,,,METAR,148.0
KGWB 052135Z AUTO 23005KT 10SM CLR 10/03 A2985 RMK AO2,KGWB,2019-01-05T21:35:00Z,41.3,-85.07,10.0,3.0,230,5,,10.0,29.84941,,,TRUE,TRUE,,,,,,,CLR,,,,,,,,VFR,,,,,,,,,,,,SPECI,269.0
KGMJ 052135Z AUTO 00000KT 10SM CLR 17/03 A3007 RMK AO2,KGMJ,2019-01-05T21:35:00Z,36.6,-94.73,17.0,3.0,0,0,,10.0,30.070866,,,TRUE,TRUE,,,,,,,CLR,,,,,,,,VFR,,,,,,,,,,,,METAR,254.0
KGLW 052135Z AUTO 25007KT 10SM CLR 12/04 A3005 RMK AO2 T01230041,KGLW,2019-01-05T21:35:00Z,37.03,-85.95,12.3,4.1,250,7,,10.0,30.050198,,,TRUE,TRUE,,,,,,,CLR,,,,,,,,VFR,,,,,,,,,,,,METAR,218.0
KBAF 052135Z 01009KT 4SM -RA BR FEW028 OVC035 03/02 A2952 RMK AO2 P0006 T00330017,KBAF,2019-01-05T21:35:00Z,42.17,-72.72,3.3,1.7,10,9,,4.0,29.518702,,,,TRUE,,,,,,-RA BR,FEW,2800,OVC,3500,,,,,MVFR,,,,,,0.06,,,,,,METAR,83.0
KAXS 052135Z AUTO 17007KT 10SM CLR 16/08 A3003 RMK AO2 T01610078,KAXS,2019-01-05T21:35:00Z,34.7,-99.33,16.1,7.8,170,7,,10.0,30.029528,,,TRUE,TRUE,,,,,,,CLR,,,,,,,,VFR,,,,,,,,,,,,METAR,437.0
KAXH 052135Z AUTO 17003KT 10SM CLR 24/07 A3014 RMK AO2 T02360068,KAXH,2019-01-05T21:35:00Z,29.52,-95.48,23.6,6.8,170,3,,10.0,30.138779,,,TRUE,TRUE,,,,,,,CLR,,,,,,,,VFR,,,,,,,,,,,,METAR,21.0
KASW 052135Z AUTO 24006KT 10SM CLR 10/03 A2986 RMK AO2,KASW,2019-01-05T21:35:00Z,41.27,-85.83,10.0,3.0,240,6,,10.0,29.861221,,,TRUE,TRUE,,,,,,,CLR,,,,,,,,VFR,,,,,,,,,,,,SPECI,259.0
KASN 052135Z AUTO 31007KT 10SM CLR 16/02 A3010 RMK AO2 T01560022,KASN,2019-01-05T21:35:00Z,33.57,-86.05,15.6,2.2,310,7,,10.0,30.100393,,,TRUE,TRUE,,,,,,,CLR,,,,,,,,VFR,,,,,,,,,,,,METAR,162.0
KARV 052135Z AUTO 34011G16KT 10SM OVC010 01/00 A2984 RMK AO2 T00111003,KARV,2019-01-05T21:35:00Z,45.92,-89.72,1.1,-0.3,340,11,16,10.0,29.840551,,,TRUE,TRUE,,,,,,,OVC,1000,,,,,,,MVFR,,,,,,,,,,,,SPECI,496.0
KARM 052135Z AUTO 18004KT 10SM CLR 21/03 A3014 RMK AO2 T02110033,KARM,2019-01-05T21:35:00Z,29.25,-96.15,21.1,3.3,180,4,,10.0,30.138779,,,TRUE,TRUE,,,,,,,CLR,,,,,,,,VFR,,,,,,,,,,,,SPECI,31.0
KALM 052135Z AUTO 22003KT 10SM CLR 13/M03 A3014 RMK AO2,KALM,2019-01-05T21:35:00Z,32.82,-105.97,13.0,-3.0,220,3,,10.0,30.138779,,,TRUE,TRUE,,,,,,,CLR,,,,,,,,VFR,,,,,,,,,,,,METAR,1279.0
KAIG 052135Z AUTO 30012G15KT 10SM CLR 04/M01 A2979 RMK AO2 T00391006,KAIG,2019-01-05T21:35:00Z,45.15,-89.12,3.9,-0.6,300,12,15,10.0,29.790354,,,TRUE,TRUE,,,,,,,CLR,,,,,,,,VFR,,,,,,,,,,,,SPECI,464.0
K82V 052135Z AUTO 13005KT 10SM CLR 13/M08 A2994 RMK AO2,K82V,2019-01-05T21:35:00Z,41.15,-104.13,13.0,-8.0,130,5,,10.0,29.940945,,,TRUE,TRUE,,,,,,,CLR,,,,,,,,VFR,,,,,,,,,,,,METAR,1570.0
K7W4 052135Z AUTO 29006KT 10SM CLR 14/02 A2971 RMK AO1 T01350021,K7W4,2019-01-05T21:35:00Z,37.97,-77.75,13.5,2.1,290,6,,10.0,29.71063,,,TRUE,TRUE,,,,,,,CLR,,,,,,,,VFR,,,,,,,,,,,,METAR,106.0
K7L2 052135Z AUTO 02006KT 10SM 02/M03 A3004 RMK AO2,K7L2,2019-01-05T21:35:00Z,46.22,-100.25,2.0,-3.0,20,6,,10.0,30.041338,,,TRUE,TRUE,,,,,,,,,,,,,,,,,,,,,,,,,,,SPECI,543.0
K5R8 052135Z AUTO 00000KT 10SM CLR 19/05 A3017 RMK AO2 T01920049,K5R8,2019-01-05T21:35:00Z,30.43,-93.47,19.2,4.9,0,0,,10.0,30.171259,,,TRUE,TRUE,,,,,,,CLR,,,,,,,,VFR,,,,,,,,,,,,METAR,24.0
K54J 052135Z AUTO 32006KT 10SM CLR 16/04 A3012 RMK AO2 T01600035,K54J,2019-01-05T21:35:00Z,30.73,-86.15,16.0,3.5,320,6,,10.0,30.121063,,,TRUE,TRUE,,,,,,,CLR,,,,,,,,VFR,,,,,,,,,,,,METAR,88.0
K4V0 052135Z AUTO 28003KT 10SM CLR M01/M12 A3010 RMK AO2 T10111116,K4V0,2019-01-05T21:35:00Z,40.1,-108.77,-1.1,-11.6,280,3,,10.0,30.100393,,,TRUE,TRUE,,,,,,,CLR,,,,,,,,VFR,,,,,,,,,,,,METAR,1608.0
K4S1 052135Z AUTO 15008G18KT 10SM RA SCT050 OVC065 12/05 A2924 RMK AO1,K4S1,2019-01-05T21:35:00Z,42.42,-124.42,12.0,5.0,150,8,18,10.0,29.241142,,,TRUE,TRUE,,,,,,RA,SCT,5000,OVC,6500,,,,,VFR,,,,,,,,,,,,METAR,5.0
K3R7 052135Z AUTO 00000KT 10SM CLR 18/08 A3018 RMK AO2 T01750079,K3R7,2019-01-05T21:35:00Z,30.25,-92.67,17.5,7.9,0,0,,10.0,30.180119,,,TRUE,TRUE,,,,,,,CLR,,,,,,,,VFR,,,,,,,,,,,,METAR,7.0
K1K1 052135Z AUTO 21006KT 10SM CLR 16/00 A3000 RMK AO2 T01551001,K1K1,2019-01-05T21:35:00Z,37.77,-97.12,15.5,-0.1,210,6,,10.0,30.0,,,TRUE,TRUE,,,,,,,CLR,,,,,,,,VFR,,,,,,,,,,,,METAR,416.0
K0F2 052135Z AUTO 16007KT 10SM CLR 22/00 A3003 RMK AO2 T02150000,K0F2,2019-01-05T21:35:00Z,33.6,-97.78,21.5,0.0,160,7,,10.0,30.029528,,,TRUE,TRUE,,,,,,,CLR,,,,,,,,VFR,,,,,,,,,,,,SPECI,336.0
KY23 052135Z AUTO 34006KT 290V360 10SM SCT027 05/00 A2991 RMK AO2 T00481002,KY23,2019-01-05T21:35:00Z,45.3,-91.63,4.8,-0.2,340,6,,10.0,29.911417,,,TRUE,TRUE,,,,,,,SCT,2700,,,,,,,VFR,,,,,,,,,,,,SPECI,322.0
KW96 052135Z AUTO 30008G22KT 10SM CLR 14/04 A2970 RMK AO1 T01360037,KW96,2019-01-05T21:35:00Z,37.5,-77.12,13.6,3.7,300,8,22,10.0,29.698818,,,TRUE,TRUE,,,,,,,CLR,,,,,,,,VFR,,,,,,,,,,,,METAR,37.0
KW75 052135Z AUTO 32009G19KT 10SM BKN047 12/06 A2968 RMK AO1 T01160061,KW75,2019-01-05T21:35:00Z,37.6,-76.45,11.6,6.1,320,9,19,10.0,29.681103,,,TRUE,TRUE,,,,,,,BKN,4700,,,,,,,VFR,,,,,,,,,,,,METAR,9.0
KW63 052135Z AUTO 29007KT 240V320 10SM CLR 14/01 A2978 RMK AO1,KW63,2019-01-05T21:35:00Z,36.6,-78.55,14.0,1.0,290,7,,10.0,29.778543,,,TRUE,TRUE,,,,,,,CLR,,,,,,,,VFR,,,,,,,,,,,,METAR,129.0
KW31 052135Z AUTO 29005KT 10SM CLR 13/03 A2975 RMK AO1 T01330032,KW31,2019-01-05T21:35:00Z,36.95,-78.18,13.3,3.2,290,5,,10.0,29.749016,,,TRUE,TRUE,,,,,,,CLR,,,,,,,,VFR,,,,,,,,,,,,METAR,162.0
KUBE 052135Z AUTO 33015G20KT 10SM BKN020 02/M02 A2992 RMK AO2,KUBE,2019-01-05T21:35:00Z,45.5,-91.98,2.0,-2.0,330,15,20,10.0,29.920275,,,TRUE,TRUE,,,,,,,BKN,2000,,,,,,,MVFR,,,,,,,,,,,,SPECI,379.0
KTYQ 052135Z AUTO 24012G16KT 10SM CLR 10/04 A2993 RMK AO2 T01040036,KTYQ,2019-01-05T21:35:00Z,40.03,-86.25,10.4,3.6,240,12,16,10.0,29.929134,,,TRUE,TRUE,,,,,,,CLR,,,,,,,,VFR,,,,,,,,,,,,SPECI,281.0
KTNU 052135Z AUTO 27006KT 10SM CLR 12/04 A2995 RMK AO2,KTNU,2019-01-05T21:35:00Z,41.67,-93.02,12.0,4.0,270,6,,10.0,29.949802,,,TRUE,TRUE,,,,,,,CLR,,,,,,,,VFR,,,,,,,,,,,,SPECI,290.0
KTKV 052135Z AUTO 31012G17KT 10SM OVC027 04/M01 A2983 RMK AO2 T00401011,KTKV,2019-01-05T21:35:00Z,45.47,-89.82,4.0,-1.1,310,12,17,10.0,29.828741,,,TRUE,TRUE,,,,,,,OVC,2700,,,,,,,MVFR,,,,,,,,,,,,SPECI,453.0
KSLO 052135Z AUTO 23005KT 10SM CLR 14/05 A3001 RMK AO2 T01350050,KSLO,2019-01-05T21:35:00Z,38.65,-88.97,13.5,5.0,230,5,,10.0,30.008858,,,TRUE,TRUE,,,,,,,CLR,,,,,,,,VFR,,,,,,,,,,,,SPECI,175.0
KSEZ 052135Z AUTO 00000KT 10SM CLR 11/M04 A3006 RMK AO2,KSEZ,2019-01-05T21:35:00Z,34.85,-111.78,11.0,-4.0,0,0,,10.0,30.059055,,,TRUE,TRUE,,,,,,,CLR,,,,,,,,VFR,,,,,,,,,,,,METAR,1473.0
KSDA 052135Z AUTO 24005KT 10SM CLR 13/03 A2999 RMK AO2,KSDA,2019-01-05T21:35:00Z,40.75,-95.42,13.0,3.0,240,5,,10.0,29.991142,,,TRUE,TRUE,,,,,,,CLR,,,,,,,,VFR,,,,,,,,,,,,SPECI,296.0
KSAR 052135Z AUTO 20004KT 10SM CLR 15/06 A3003 RMK AO2 T01480056,KSAR,2019-01-05T21:35:00Z,38.15,-89.7,14.8,5.6,200,4,,10.0,30.029528,,,TRUE,TRUE,,,,,,,CLR,,,,,,,,VFR,,,,,,,,,,,,SPECI,164.0
KSAA 052135Z AUTO 00000KT 10SM CLR 06/M07 A3002 RMK AO2,KSAA,2019-01-05T21:35:00Z,41.45,-106.83,6.0,-7.0,0,0,,10.0,30.02067,,,TRUE,TRUE,,,,,,,CLR,,,,,,,,VFR,,,,,,,,,,,,SPECI,2138.0
KRYW 052135Z AUTO 19006KT 10SM CLR 23/01 A3010 RMK AO2 T02250005,KRYW,2019-01-05T21:35:00Z,30.5,-97.97,22.5,0.5,190,6,,10.0,30.100393,,,TRUE,TRUE,,,,,,,CLR,,,,,,,,VFR,,,,,,,,,,,,SPECI,376.0
KRSN 052135Z AUTO 20004KT 10SM CLR 18/03 A3018 RMK AO2 T01840026,KRSN,2019-01-05T21:35:00Z,32.52,-92.58,18.4,2.6,200,4,,10.0,30.180119,,,TRUE,TRUE,,,,,,,CLR,,,,,,,,VFR,,,,,,,,,,,,METAR,95.0
KRKR 052135Z AUTO 21006KT 10SM CLR 18/04 A3008 RMK AO2,KRKR,2019-01-05T21:35:00Z,35.02,-94.62,18.0,4.0,210,6,,10.0,30.079725,,,TRUE,TRUE,,,,,,,CLR,,,,,,,,VFR,,,,,,,,,,,,METAR,138.0
KPUJ 052135Z AUTO 30005KT 7SM CLR 13/01 A3006 RMK AO2,KPUJ,2019-01-05T21:35:00Z,33.92,-84.93,13.0,1.0,300,5,,7.0,30.059055,,,TRUE,TRUE,,,,,,,CLR,,,,,,,,VFR,,,,,,,,,,,,METAR,393.0
KPRS 052135Z AUTO 19003KT 10SM CLR 18/M04 A3010 RMK AO2 T01811039,KPRS,2019-01-05T21:35:00Z,29.63,-104.35,18.1,-3.9,190,3,,10.0,30.100393,,,TRUE,TRUE,,,,,,,CLR,,,,,,,,VFR,,,,,,,,,,,,SPECI,896.0
KPKV 052135Z AUTO 18005KT 10SM CLR 24/02 A3013 RMK AO2 T02360020,KPKV,2019-01-05T21:35:00Z,28.65,-96.68,23.6,2.0,180,5,,10.0,30.129921,,,TRUE,TRUE,,,,,,,CLR,,,,,,,,VFR,,,,,,,,,,,,METAR,9.0
KPIM 052135Z AUTO 28009KT 10SM CLR 16/00 A3007 RMK AO2 T01580001 PWINO,KPIM,2019-01-05T21:35:00Z,32.83,-84.88,15.8,0.1,280,9,,10.0,30.070866,,,TRUE,TRUE,,,,,TRUE,,CLR,,,,,,,,VFR,,,,,,,,,,,,METAR,275.0
KPEZ 052135Z AUTO 18006KT 10SM CLR 24/03 A3011 RMK AO2 T02350031,KPEZ,2019-01-05T21:35:00Z,28.95,-98.52,23.5,3.1,180,6,,10.0,30.109253,,,TRUE,TRUE,,,,,,,CLR,,,,,,,,VFR,,,,,,,,,,,,SPECI,132.0
KOOA 052135Z AUTO 28003KT 10SM CLR 12/07 A2996 RMK AO2 T01180069,KOOA,2019-01-05T21:35:00Z,41.23,-92.5,11.8,6.9,280,3,,10.0,29.958662,,,TRUE,TRUE,,,,,,,CLR,,,,,,,,VFR,,,,,,,,,,,,SPECI,256.0
KOMH 052135Z AUTO 28007KT 10SM CLR 13/01 A2971 RMK AO2,KOMH,2019-01-05T21:35:00Z,38.25,-78.05,13.0,1.0,280,7,,10.0,29.71063,,,TRUE,TRUE,,,,,,,CLR,,,,,,,,VFR,,,,,,,,,,,,METAR,142.0
KOLG 052135Z AUTO 30004KT 10SM BKN012 BKN018 00/M01 A2994 RMK AO1,KOLG,2019-01-05T21:35:00Z,46.3,-91.82,0.0,-1.0,300,4,,10.0,29.940945,,,TRUE,TRUE,,,,,,,BKN,1200,BKN,1800,,,,,MVFR,,,,,,,,,,,,SPECI,336.0
KOLE 052135Z AUTO 29006KT 2 1/2SM BR OVC004 M01/M01 A2971 RMK AO2,KOLE,2019-01-05T21:35:00Z,42.23,-78.37,-1.0,-1.0,290,6,,2.5,29.71063,,,TRUE,TRUE,,,,,,BR,OVC,400,,,,,,,LIFR,,,,,,,,,,,,SPECI,651.0
KOEO 052135Z AUTO 33009G17KT 10SM CLR 05/00 A2997 RMK AO2 T00470000,KOEO,2019-01-05T21:35:00Z,45.32,-92.7,4.7,0.0,330,9,17,10.0,29.970472,,,TRUE,TRUE,,,,,,,CLR,,,,,,,,VFR,,,,,,,,,,,,SPECI,275.0
KOBE 052135Z AUTO 00000KT 10SM CLR 22/13 A3001 RMK AO2,KOBE,2019-01-05T21:35:00Z,27.27,-80.85,22.0,13.0,0,0,,10.0,30.008858,,,TRUE,TRUE,,,,,,,CLR,,,,,,,,VFR,,,,,,,,,,,,METAR,11.0
KMUT 052135Z AUTO 28005KT 10SM CLR 12/03 A2996 RMK AO2,KMUT,2019-01-05T21:35:00Z,41.37,-91.15,12.0,3.0,280,5,,10.0,29.958662,,,TRUE,TRUE,,,,,,,CLR,,,,,,,,VFR,,,,,,,,,,,,SPECI,167.0
KMNE 052135Z AUTO 21004KT 10SM CLR 19/05 A3015 RMK AO2 T01930050,KMNE,2019-01-05T21:35:00Z,32.65,-93.3,19.3,5.0,210,4,,10.0,30.15059,,,TRUE,TRUE,,,,,,,CLR,,,,,,,,VFR,,,,,,,,,,,,METAR,85.0
KMKS 052135Z AUTO 32003KT 10SM CLR 16/08 A2992 RMK AO2,KMKS,2019-01-05T21:35:00Z,33.18,-80.03,16.0,8.0,320,3,,10.0,29.920275,,,TRUE,TRUE,,,,,,,CLR,,,,,,,,VFR,,,,,,,,,,,,METAR,23.0
KMKN 052135Z AUTO 22009KT 10SM CLR 22/01 A3007 RMK AO2 T02150005,KMKN,2019-01-05T21:35:00Z,31.92,-98.6,21.5,0.5,220,9,,10.0,30.070866,,,TRUE,TRUE,,,,,,,CLR,,,,,,,,VFR,,,,,,,,,,,,METAR,423.0
KMHL 052135Z AUTO 21003KT 10SM CLR 13/05 A3002 RMK AO2,KMHL,2019-01-05T21:35:00Z,39.1,-93.2,13.0,5.0,210,3,,10.0,30.02067,,,TRUE,TRUE,,,,,,,CLR,,,,,,,,VFR,,,,,,,,,,,,METAR,237.0
KMDZ 052135Z AUTO 29009KT 10SM CLR 04/M01 A2983 RMK AO2 T00391010 TSNO,KMDZ,2019-01-05T21:35:00Z,45.1,-90.3,3.9,-1.0,290,9,,10.0,29.828741,,,TRUE,TRUE,,,TRUE,,,,CLR,,,,,,,,VFR,,,,,,,,,,,,SPECI,448.0
KBEC 052135Z AUTO 21008KT 10SM CLR 16/00 A2999 RMK AO2 T01550000,KBEC,2019-01-05T21:35:00Z,37.7,-97.22,15.5,0.0,210,8,,10.0,29.991142,,,TRUE,TRUE,,,,,,,CLR,,,,,,,,VFR,,,,,,,,,,,,METAR,429.0
KBEA 052135Z AUTO 15009KT 10SM CLR 25/M01 A3011 RMK AO2 T02511008,KBEA,2019-01-05T21:35:00Z,28.37,-97.78,25.1,-0.8,150,9,,10.0,30.109253,,,TRUE,TRUE,,,,,,,CLR,,,,,,,,VFR,,,,,,,,,,,,METAR,82.0
KBCK 052135Z AUTO 28010G15KT 10SM CLR 10/M01 A2987 RMK AO2 T00991015,KBCK,2019-01-05T21:35:00Z,44.25,-90.85,9.9,-1.5,280,10,15,10.0,29.870079,,,TRUE,TRUE,,,,,,,CLR,,,,,,,,VFR,,,,,,,,,,,,SPECI,255.0
KBAM 052135Z AUTO 28003KT 10SM OVC110 01/M03 A2971 RMK AO1,KBAM,2019-01-05T21:35:00Z,,,1.0,-3.0,280,3,,10.0,29.71063,,,TRUE,TRUE,,,,,,,OVC,11000,,,,,,,VFR,,,,,,,,,,,,SPECI,
KBPC 052135Z AUTO 24014G20KT 10SM CLR 23/M04 A2993 RMK AO2,KBPC,2019-01-05T21:35:00Z,35.88,-101.03,23.0,-4.0,240,14,20,10.0,29.929134,,,TRUE,TRUE,,,,,,,CLR,,,,,,,,VFR,,,,,,,,,,,,METAR,845.0
KD55 052135Z AUTO 02007KT 3SM BR OVC002 M05/M05 A3007 RMK AO2,KD55,2019-01-05T21:35:00Z,48.75,-98.4,-5.0,-5.0,20,7,,3.0,30.070866,,,TRUE,TRUE,,,,,,BR,OVC,200,,,,,,,LIFR,,,,,,,,,,,,SPECI,491.0
KD25 052135Z AUTO 32010KT 3SM BR OVC005 M01/M01 A2985 RMK AO2 T10081008,KD25,2019-01-05T21:35:00Z,46.12,-89.88,-0.8,-0.8,320,10,,3.0,29.84941,,,TRUE,TRUE,,,,,,BR,OVC,500,,,,,,,IFR,,,,,,,,,,,,SPECI,491.0
KCZL 052135Z AUTO 33008KT 10SM CLR 16/00 A3007 RMK AO2,KCZL,2019-01-05T21:35:00Z,34.47,-84.93,16.0,0.0,330,8,,10.0,30.070866,,,TRUE,TRUE,,,,,,,CLR,,,,,,,,VFR,,,,,,,,,,,,METAR,195.0
KCXU 052135Z AUTO 00000KT 10SM CLR 17/05 A3008 RMK AO1 T01650054,KCXU,2019-01-05T21:35:00Z,31.22,-84.23,16.5,5.4,0,0,,10.0,30.079725,,,TRUE,TRUE,,,,,,,CLR,,,,,,,,VFR,,,,,,,,,,,,METAR,53.0
KCWC 052135Z AUTO 15006KT 10SM CLR 18/05 A3004 RMK AO2 T01830050,KCWC,2019-01-05T21:35:00Z,33.85,-98.48,18.3,5.0,150,6,,10.0,30.041338,,,TRUE,TRUE,,,,,,,CLR,,,,,,,,VFR,,,,,,,,,,,,METAR,305.0
KCKZ 052135Z AUTO 31005KT 10SM FEW015 SCT020 OVC035 07/07 A2957 RMK AO2,KCKZ,2019-01-05T21:35:00Z,40.38,-75.28,7.0,7.0,310,5,,10.0,29.568897,,,TRUE,TRUE,,,,,,,FEW,1500,SCT,2000,OVC,3500,,,VFR,,,,,,,,,,,,SPECI,173.0
KCGC 052135Z AUTO 28008KT 10SM SCT017 13/10 A3008 RMK AO2,KCGC,2019-01-05T21:35:00Z,28.87,-82.57,13.0,10.0,280,8,,10.0,30.079725,,,TRUE,TRUE,,,,,,,SCT,1700,,,,,,,VFR,,,,,,,,,,,,METAR,3.0
KCBK 052135Z AUTO 09009KT 10SM CLR 10/03 A2993 RMK AO2,KCBK,2019-01-05T21:35:00Z,39.43,-101.05,10.0,3.0,90,9,,10.0,29.929134,,,TRUE,TRUE,,,,,,,CLR,,,,,,,,VFR,,,,,,,,,,,,METAR,971.0
KBYY 052135Z AUTO 20004KT 10SM CLR 21/09 A3014 RMK AO2 T02170090,KBYY,2019-01-05T21:35:00Z,28.97,-95.87,21.7,9.0,200,4,,10.0,30.138779,,,TRUE,TRUE,,,,,,,CLR,,,,,,,,VFR,,,,,,,,,,,,SPECI,14.0
KBYL 052135Z AUTO 25005KT 10SM CLR 12/03 A3003 RMK AO1,KBYL,2019-01-05T21:35:00Z,36.8,-84.2,12.0,3.0,250,5,,10.0,30.029528,,,TRUE,TRUE,,,,,,,CLR,,,,,,,,VFR,,,,,,,,,,,,METAR,359.0
KBXA 052135Z AUTO 30003KT 10SM CLR 19/05 A3017 RMK AO2 T01900047,KBXA,2019-01-05T21:35:00Z,30.82,-89.87,19.0,4.7,300,3,,10.0,30.171259,,,TRUE,TRUE,,,,,,,CLR,,,,,,,,VFR,,,,,,,,,,,,METAR,36.0
KBWW 052135Z AUTO 00000KT 10SM CLR 07/M03 A2983 RMK AO2,KBWW,2019-01-05T21:35:00Z,46.17,-103.3,7.0,-3.0,0,0,,10.0,29.828741,,,TRUE,TRUE,,,,,,,CLR,,,,,,,,VFR,,,,,,,,,,,,METAR,910.0
KBWD 052135Z AUTO 19007KT 10SM CLR 21/00 A3006 RMK AO1,KBWD,2019-01-05T21:35:00Z,31.8,-98.95,21.0,0.0,190,7,,10.0,30.059055,,,TRUE,TRUE,,,,,,,CLR,,,,,,,,VFR,,,,,,,,,,,,SPECI,423.0
KDLO 052135Z AUTO 10006KT 10SM CLR 12/01 A2985 RMK AO2 T01180008,KDLO,2019-01-05T21:35:00Z,35.75,-119.23,11.8,0.8,100,6,,10.0,29.84941,,,TRUE,TRUE,,,,,,,CLR,,,,,,,,VFR,,,,,,,,,,,,METAR,96.0
KBKS 052135Z AUTO 16009KT 10SM CLR 26/06 A3009 RMK AO1 T02560061,KBKS,2019-01-05T21:35:00Z,27.2,-98.12,25.6,6.1,160,9,,10.0,30.088583,,,TRUE,TRUE,,,,,,,CLR,,,,,,,,VFR,,,,,,,,,,,,METAR,34.0
KBPG 052135Z AUTO 22008KT 080V290 10SM CLR 19/M04 A3007 RMK AO2 T01901039,KBPG,2019-01-05T21:35:00Z,32.22,-101.52,19.0,-3.9,220,8,,10.0,30.070866,,,TRUE,TRUE,,,,,,,CLR,,,,,,,,VFR,,,,,,,,,,,,METAR,784.0
KBQK 052135Z AUTO 27011G14KT 10SM CLR 15/07 A3000 RMK AO2,KBQK,2019-01-05T21:35:00Z,31.25,-81.47,15.0,7.0,270,11,14,10.0,30.0,,,TRUE,TRUE,,,,,,,CLR,,,,,,,,VFR,,,,,,,,,,,,SPECI,8.0
KC29 052135Z AUTO 29008KT 10SM CLR 09/00 A2986 RMK AO1 T00910000,KC29,2019-01-05T21:35:00Z,43.12,-89.53,9.1,0.0,290,8,,10.0,29.861221,,,TRUE,TRUE,,,,,,,CLR,,,,,,,,VFR,,,,,,,,,,,,SPECI,283.0
KC83 052135Z AUTO 15012KT 10SM OVC048 13/07 A2967 RMK AO2,KC83,2019-01-05T21:35:00Z,37.83,-121.62,13.0,7.0,150,12,,10.0,29.66929,,,TRUE,TRUE,,,,,,,OVC,4800,,,,,,,VFR,,,,,,,,,,,,METAR,24.0
KCCB 052135Z AUTO 26006KT 10SM FEW060 FEW070 12/02 A2997 RMK AO2,KCCB,2019-01-05T21:35:00Z,34.12,-117.68,12.0,2.0,260,6,,10.0,29.970472,,,TRUE,TRUE,,,,,,,FEW,6000,FEW,7000,,,,,VFR,,,,,,,,,,,,METAR,440.0
KCDH 052135Z AUTO 23006KT 10SM CLR 19/03 A3012 RMK AO2,KCDH,2019-01-05T21:35:00Z,33.62,-92.77,19.0,3.0,230,6,,10.0,30.121063,,,TRUE,TRUE,,,,,,,CLR,,,,,,,,VFR,,,,,,,,,,,,SPECI,35.0
KCDA 052135Z AUTO 00000KT 10SM CLR 00/M03 A2956 RMK AO2 T10041028,KCDA,2019-01-05T21:35:00Z,44.57,-72.02,-0.4,-2.8,0,0,,10.0,29.56004,,,TRUE,TRUE,,,,,,,CLR,,,,,,,,VFR,,,,,,,,,,,,SPECI,363.0
KCKC 052135Z AUTO 30007G17KT 259V329 10SM SCT013 BKN019 OVC026 M02/M05 A2984 RMK AO2,KCKC,2019-01-05T21:35:00Z,47.83,-90.37,-2.0,-5.0,300,7,17,10.0,29.840551,,,TRUE,TRUE,,,,,,,SCT,1300,BKN,1900,OVC,2600,,,MVFR,,,,,,,,,,,,SPECI,548.0
KCKP 052135Z AUTO 35006KT 10SM CLR 09/01 A2999 RMK AO2 T00920006,KCKP,2019-01-05T21:35:00Z,42.73,-95.55,9.2,0.6,350,6,,10.0,29.991142,,,TRUE,TRUE,,,,,,,CLR,,,,,,,,VFR,,,,,,,,,,,,SPECI,374.0
KCMD 052135Z AUTO 00000KT 10SM CLR 14/01 A3012 RMK AO2 T01440008,KCMD,2019-01-05T21:35:00Z,34.27,-86.85,14.4,0.8,0,0,,10.0,30.121063,,,TRUE,TRUE,,,,,,,CLR,,,,,,,,VFR,,,,,,,,,,,,SPECI,294.0
KECU 052135Z AUTO 17010KT 10SM CLR 20/02 A3014 RMK AO2,KECU,2019-01-05T21:35:00Z,29.95,-100.17,20.0,2.0,170,10,,10.0,30.138779,,,TRUE,TRUE,,,,,,,CLR,,,,,,,,VFR,,,,,,,,,,,,METAR,725.0
KECS 052135Z AUTO 18007KT 10SM CLR 05/M05 A2994 RMK AO2,KECS,2019-01-05T21:35:00Z,43.88,-104.32,5.0,-5.0,180,7,,10.0,29.940945,,,TRUE,TRUE,,,,,,,CLR,,,,,,,,VFR,,,,,,,,,,,,METAR,1273.0
KEDN 052135Z AUTO 32005KT 10SM CLR 16/03 A3011 RMK AO2 T01550028,KEDN,2019-01-05T21:35:00Z,31.3,-85.9,15.5,2.8,320,5,,10.0,30.109253,,,TRUE,TRUE,,,,,,,CLR,,,,,,,,VFR,,,,,,,,,,,,SPECI,110.0
KEDU 052135Z AUTO 14013G20KT 10SM OVC046 10/07 A2966 RMK AO1,KEDU,2019-01-05T21:35:00Z,38.53,-121.78,10.0,7.0,140,13,20,10.0,29.660433,,,TRUE,TRUE,,,,,,,OVC,4600,,,,,,,VFR,,,,,,,,,,,,METAR,21.0
KEKS 052135Z AUTO 17018G26KT 10SM CLR 05/M07 A2984 RMK AO2,KEKS,2019-01-05T21:35:00Z,45.27,-111.65,5.0,-7.0,170,18,26,10.0,29.840551,,,TRUE,TRUE,,,,,,,CLR,,,,,,,,VFR,,,,,,,,,,,,METAR,1641.0
KETB 052135Z AUTO 27009G14KT 10SM CLR 07/00 A2981 RMK AO2,KETB,2019-01-05T21:35:00Z,43.42,-88.13,7.0,0.0,270,9,14,10.0,29.811024,,,TRUE,TRUE,,,,,,,CLR,,,,,,,,VFR,,,,,,,,,,,,SPECI,270.0
KEVU 052135Z AUTO 21005KT 10SM CLR 15/M04 A2998 RMK AO2,KEVU,2019-01-05T21:35:00Z,40.35,-94.92,15.0,-4.0,210,5,,10.0,29.97933,,,TRUE,TRUE,,,,,,,CLR,,,,,,,,VFR,,,,,,,,,,,,SPECI,349.0
KF05 052135Z AUTO 17007KT 10SM CLR 18/06 A3001 RMK AO1 T01770063,KF05,2019-01-05T21:35:00Z,34.23,-99.28,17.7,6.3,170,7,,10.0,30.008858,,,TRUE,TRUE,,,,,,,CLR,,,,,,,,VFR,,,,,,,,,,,,METAR,386.0
KFCH 052135Z AUTO 14008KT 10SM FEW110 14/03 A2984 RMK A01,KFCH,2019-01-05T21:35:00Z,36.72,-119.82,14.0,3.0,140,8,,10.0,29.840551,,,TRUE,TRUE,,,,,,,FEW,11000,,,,,,,VFR,,,,,,,,,,,,METAR,85.0
KFEP 052135Z AUTO 24006KT 10SM CLR 07/04 A2992 RMK AO2 T00730037,KFEP,2019-01-05T21:35:00Z,42.25,-89.58,7.3,3.7,240,6,,10.0,29.920275,,,TRUE,TRUE,,,,,,,CLR,,,,,,,,VFR,,,,,,,,,,,,SPECI,262.0
KFKR 052135Z AUTO 26010KT 10SM CLR 11/06 A2994 RMK AO2 T01090055 TSNO,KFKR,2019-01-05T21:35:00Z,40.27,-86.57,10.9,5.5,260,10,,10.0,29.940945,,,TRUE,TRUE,,,TRUE,,,,CLR,,,,,,,,VFR,,,,,,,,,,,,SPECI,262.0
KLHM 052135Z AUTO 13019G32KT 10SM OVC060 10/05 A2966 RMK AO1,KLHM,2019-01-05T21:35:00Z,38.92,-121.35,10.0,5.0,130,19,32,10.0,29.660433,,,TRUE,TRUE,,,,,,,OVC,6000,,,,,,,VFR,,,,,,,,,,,,METAR,37.0
KLMO 052135Z AUTO 00000KT 10SM CLR 16/M08 A2996 RMK AO2 T01611078,KLMO,2019-01-05T21:35:00Z,40.17,-105.17,16.1,-7.8,0,0,,10.0,29.958662,,,TRUE,TRUE,,,,,,,CLR,,,,,,,,VFR,,,,,,,,,,,,SPECI,1541.0
KLNP 052135Z AUTO 27004KT 10SM CLR 09/02 A2998 RMK AO2,KLNP,2019-01-05T21:35:00Z,36.97,-82.52,9.0,2.0,270,4,,10.0,29.97933,,,TRUE,TRUE,,,,,,,CLR,,,,,,,,VFR,,,,,,,,,,,,SPECI,817.0
KLUG 052135Z AUTO 32004KT 10SM CLR 15/03 A3008 RMK A01,KLUG,2019-01-05T21:35:00Z,35.52,-86.8,15.0,3.0,320,4,,10.0,30.079725,,,TRUE,TRUE,,,,,,,CLR,,,,,,,,VFR,,,,,,,,,,,,SPECI,219.0
KLZZ 052135Z AUTO 18006KT 10SM CLR 22/00 A3007 RMK AO2 P0001 T02161004,KLZZ,2019-01-05T21:35:00Z,31.1,-98.2,21.6,-0.4,180,6,,10.0,30.070866,,,TRUE,TRUE,,,,,,,CLR,,,,,,,,VFR,,,,,,0.01,,,,,,METAR,371.0
KM02 052135Z AUTO 24007KT 10SM CLR 14/04 A3006 RMK A01,KM02,2019-01-05T21:35:00Z,36.13,-87.43,14.0,4.0,240,7,,10.0,30.059055,,,TRUE,TRUE,,,,,,,CLR,,,,,,,,VFR,,,,,,,,,,,,SPECI,272.0
KM54 052135Z AUTO 25005KT 10SM CLR 14/04 A3006 RMK A01,KM54,2019-01-05T21:35:00Z,36.18,-86.32,14.0,4.0,250,5,,10.0,30.059055,,,TRUE,TRUE,,,,,,,CLR,,,,,,,,VFR,,,,,,,,,,,,SPECI,180.0
KM08 052135Z AUTO 24007KT 10SM CLR 14/04 A3010 RMK A01,KM08,2019-01-05T21:35:00Z,35.22,-89.05,14.0,4.0,240,7,,10.0,30.100393,,,TRUE,TRUE,,,,,,,CLR,,,,,,,,VFR,,,,,,,,,,,,SPECI,152.0
KM75 052135Z AUTO 12009KT 10SM CLR 08/M05 A2984 RMK A01,KM75,2019-01-05T21:35:00Z,48.37,-107.92,8.0,-5.0,120,9,,10.0,29.840551,,,TRUE,TRUE,,,,,,,CLR,,,,,,,,VFR,,,,,,,,,,,,METAR,687.0
KMQB 052135Z AUTO 26007KT 10SM CLR 11/05 A2999 RMK AO2 T01100053,KMQB,2019-01-05T21:35:00Z,40.52,-90.65,11.0,5.3,260,7,,10.0,29.991142,,,TRUE,TRUE,,,,,,,CLR,,,,,,,,VFR,,,,,,,,,,,,SPECI,215.0
KMOR 052135Z AUTO 24009KT 10SM CLR 11/03 A3001 RMK A01,KMOR,2019-01-05T21:35:00Z,36.18,-83.37,11.0,3.0,240,9,,10.0,30.008858,,,TRUE,TRUE,,,,,,,CLR,,,,,,,,VFR,,,,,,,,,,,,SPECI,400.0
KMNV 052135Z AUTO 00000KT 10SM CLR 14/02 A3004 RMK A01,KMNV,2019-01-05T21:35:00Z,35.55,-84.38,14.0,2.0,0,0,,10.0,30.041338,,,TRUE,TRUE,,,,,,,CLR,,,,,,,,VFR,,,,,,,,,,,,SPECI,314.0
KMMI 052135Z AUTO VRB04KT 10SM CLR 14/02 A3006 RMK A01,KMMI,2019-01-05T21:35:00Z,35.4,-84.57,14.0,2.0,0,4,,10.0,30.059055,,,TRUE,TRUE,,,,,,,CLR,,,,,,,,VFR,,,,,,,,,,,,SPECI,266.0
KMMH 052135Z AUTO 11005KT 10SM -SN BKN043 OVC050 00/M08 A2979 RMK AO2 T10051084,KMMH,2019-01-05T21:35:00Z,37.62,-118.82,-0.5,-8.4,110,5,,10.0,29.790354,,,TRUE,TRUE,,,,,,-SN,BKN,4300,OVC,5000,,,,,VFR,,,,,,,,,,,,SPECI,2173.0
KMLJ 052135Z AUTO 31013G17KT 10SM CLR 16/03 A3002 RMK AO2,KMLJ,2019-01-05T21:35:00Z,33.15,-83.23,16.0,3.0,310,13,17,10.0,30.02067,,,TRUE,TRUE,,,,,,,CLR,,,,,,,,VFR,,,,,,,,,,,,SPECI,117.0
KMEV 052135Z AUTO 20025G43KT 9SM CLR 07/M09 A2966 RMK AO2,KMEV,2019-01-05T21:35:00Z,38.98,-119.75,7.0,-9.0,200,25,43,9.0,29.660433,,,TRUE,TRUE,,,,,,,CLR,,,,,,,,VFR,,,,,,,,,,,,METAR,1439.0
KMCC 052135Z AUTO 13025G32KT 10SM OVC050 11/05 A2969 RMK AO2,KMCC,2019-01-05T21:35:00Z,38.67,-121.4,11.0,5.0,130,25,32,10.0,29.68996,,,TRUE,TRUE,,,,,,,OVC,5000,,,,,,,VFR,,,,,,,,,,,,SPECI,23.0
KMBT 052135Z AUTO VRB03KT 10SM CLR 14/03 A3006 RMK A01,KMBT,2019-01-05T21:35:00Z,35.88,-86.38,14.0,3.0,0,3,,10.0,30.059055,,,TRUE,TRUE,,,,,,,CLR,,,,,,,,VFR,,,,,,,,,,,,SPECI,188.0
KM91 052135Z AUTO 26004KT 10SM CLR 14/04 A3005 RMK A01,KM91,2019-01-05T21:35:00Z,36.53,-86.92,14.0,4.0,260,4,,10.0,30.050198,,,TRUE,TRUE,,,,,,,CLR,,,,,,,,VFR,,,,,,,,,,,,SPECI,215.0
KMRC 052135Z AUTO 23005KT 10SM CLR 15/04 A3007 RMK A01,KMRC,2019-01-05T21:35:00Z,35.55,-87.18,15.0,4.0,230,5,,10.0,30.070866,,,TRUE,TRUE,,,,,,,CLR,,,,,,,,VFR,,,,,,,,,,,,SPECI,208.0
KDXX 052135Z AUTO 01010KT 10SM CLR 02/M01 A3002 RMK AO2,KDXX,2019-01-05T21:35:00Z,44.98,-96.18,2.0,-1.0,10,10,,10.0,30.02067,,,TRUE,TRUE,,,,,,,CLR,,,,,,,,VFR,,,,,,,,,,,,SPECI,330.0
KDUX 052135Z AUTO 20012KT 10SM CLR 18/M02 A2996 RMK AO2 T01811017,KDUX,2019-01-05T21:35:00Z,35.85,-102.02,18.1,-1.7,200,12,,10.0,29.958662,,,TRUE,TRUE,,,,,,,CLR,,,,,,,,VFR,,,,,,,,,,,,METAR,1129.0
KDKX 052135Z AUTO 24006KT 10SM CLR 13/04 A3004 RMK A01,KDKX,2019-01-05T21:35:00Z,35.97,-83.87,13.0,4.0,240,6,,10.0,30.041338,,,TRUE,TRUE,,,,,,,CLR,,,,,,,,VFR,,,,,,,,,,,,SPECI,254.0
KCXW 052135Z AUTO 17007KT 10SM CLR 17/06 A3008 RMK A01,KCXW,2019-01-05T21:35:00Z,35.02,-92.55,17.0,6.0,170,7,,10.0,30.079725,,,TRUE,TRUE,,,,,,,CLR,,,,,,,,VFR,,,,,,,,,,,,SPECI,84.0
KCRX 052135Z AUTO 25006KT 10SM CLR 15/04 A3011 RMK AO2,KCRX,2019-01-05T21:35:00Z,34.92,-88.6,15.0,4.0,250,6,,10.0,30.109253,,,TRUE,TRUE,,,,,,,CLR,,,,,,,,VFR,,,,,,,,,,,,SPECI,130.0
KCNB 052135Z AUTO 30009KT 270V340 10SM CLR 06/01 A3002 RMK AO2 T00580007,KCNB,2019-01-05T21:35:00Z,44.73,-96.27,5.8,0.7,300,9,,10.0,30.02067,,,TRUE,TRUE,,,,,,,CLR,,,,,,,,VFR,,,,,,,,,,,,SPECI,364.0
KCMY 052135Z AUTO 00000KT 10SM CLR 09/00 A2988 RMK AO2 T00920003,KCMY,2019-01-05T21:35:00Z,43.97,-90.73,9.2,0.3,0,0,,10.0,29.878937,,,TRUE,TRUE,,,,,,,CLR,,,,,,,,VFR,,,,,,,,,,,,SPECI,256.0
KLVN 052135Z AUTO 27006KT 10SM CLR 06/01 A2995 RMK AO2,KLVN,2019-01-05T21:35:00Z,44.63,-93.23,6.0,1.0,270,6,,10.0,29.949802,,,TRUE,TRUE,,,,,,,CLR,,,,,,,,VFR,,,,,,,,,,,,METAR,293.0
KMWK 052135Z AUTO 27005KT 10SM CLR 14/02 A2989 RMK AO2 T01410022,KMWK,2019-01-05T21:35:00Z,36.47,-80.55,14.1,2.2,270,5,,10.0,29.890747,,,TRUE,TRUE,,,,,,,CLR,,,,,,,,VFR,,,,,,,,,,,,SPECI,380.0
KTVK 052135Z AUTO 00000KT 10SM CLR 14/04 A2999 RMK AO2,KTVK,2019-01-05T21:35:00Z,40.68,-92.9,14.0,4.0,0,0,,10.0,29.991142,,,TRUE,TRUE,,,,,,,CLR,,,,,,,,VFR,,,,,,,,,,,,METAR,314.0
KEBS 052135Z AUTO 32005KT 10SM CLR 10/04 A2995 RMK AO2,KEBS,2019-01-05T21:35:00Z,42.42,-93.87,10.0,4.0,320,5,,10.0,29.949802,,,TRUE,TRUE,,,,,,,CLR,,,,,,,,VFR,,,,,,,,,,,,METAR,342.0
KSEF 052135Z AUTO 30011G18KT 10SM CLR 21/11 A3003 RMK AO2 T02140109,KSEF,2019-01-05T21:35:00Z,27.45,-81.35,21.4,10.9,300,11,18,10.0,30.029528,,,TRUE,TRUE,,,,,,,CLR,,,,,,,,VFR,,,,,,,,,,,,SPECI,19.0
KRQO 052135Z AUTO 17008KT CLR 11/05 A3002 RMK AO2 PWINO T01120053,KRQO,2019-01-05T21:35:00Z,35.47,-98.0,11.2,5.3,170,8,,,30.02067,,,TRUE,TRUE,,,,,TRUE,,CLR,,,,,,,,,,,,,,,,,,,,SPECI,432.0
KFYJ 052135Z AUTO 27007KT 10SM BKN055 14/06 A2971 RMK AO1 T01360058,KFYJ,2019-01-05T21:35:00Z,37.52,-76.77,13.6,5.8,270,7,,10.0,29.71063,,,TRUE,TRUE,,,,,,,BKN,5500,,,,,,,VFR,,,,,,,,,,,,SPECI,7.0
KFRR 052135Z AUTO 06003KT 10SM CLR 10/02 A2972 RMK AO1,KFRR,2019-01-05T21:35:00Z,38.92,-78.25,10.0,2.0,60,3,,10.0,29.719488,,,TRUE,TRUE,,,,,,,CLR,,,,,,,,VFR,,,,,,,,,,,,SPECI,216.0
KEAN 052135Z AUTO 19004KT 10SM SCT100 SCT120 11/M09 A2993 RMK AO2 T01051088,KEAN,2019-01-05T21:35:00Z,42.05,-104.93,10.5,-8.8,190,4,,10.0,29.929134,,,TRUE,TRUE,,,,,,,SCT,10000,SCT,12000,,,,,VFR,,,,,,,,,,,,METAR,1456.0
KDWX 052135Z AUTO 07005KT 10SM CLR 00/M07 A3007 RMK AO2 T10021074,KDWX,2019-01-05T21:35:00Z,41.03,-107.5,-0.2,-7.4,70,5,,10.0,30.070866,,,TRUE,TRUE,,,,,,,CLR,,,,,,,,VFR,,,,,,,,,,,,SPECI,1996.0
KBWP 052135Z AUTO 35009KT 5SM OVC008 M02/M04 A3005 RMK AO1,KBWP,2019-01-05T21:35:00Z,46.25,-96.62,-2.0,-4.0,350,9,,5.0,30.050198,,,TRUE,TRUE,,,,,,,OVC,800,,,,,,,IFR,,,,,,,,,,,,METAR,295.0
KBMC 052135Z AUTO 00000KT 7SM CLR M02/M07 A2993 RMK AO1 T10191071,KBMC,2019-01-05T21:35:00Z,41.55,-112.07,-1.9,-7.1,0,0,,7.0,29.929134,,,TRUE,TRUE,,,,,,,CLR,,,,,,,,VFR,,,,,,,,,,,,METAR,1288.0
K3J7 052135Z AUTO 27007KT 10SM CLR 16/03 A2997 RMK AO2,K3J7,2019-01-05T21:35:00Z,33.6,-83.13,16.0,3.0,270,7,,10.0,29.970472,,,TRUE,TRUE,,,,,,,CLR,,,,,,,,VFR,,,,,,,,,,,,SPECI,206.0
K17J 052135Z AUTO 35007KT 10SM CLR 16/05 A3009 RMK AO2 T01640048,K17J,2019-01-05T21:35:00Z,31.07,-84.92,16.4,4.8,350,7,,10.0,30.088583,,,TRUE,TRUE,,,,,,,CLR,,,,,,,,VFR,,,,,,,,,,,,SPECI,45.0
KY49 052135Z AUTO 30006KT 10SM CLR M01/M04 A2999 RMK AO2 T10061040,KY49,2019-01-05T21:35:00Z,47.13,-94.65,-0.6,-4.0,300,6,,10.0,29.991142,,,TRUE,TRUE,,,,,,,CLR,,,,,,,,VFR,,,,,,,,,,,,SPECI,416.0
KXLL 052135Z AUTO 29005KT 10SM SCT055 SCT070 07/06 A2960 RMK AO2,KXLL,2019-01-05T21:35:00Z,40.57,-75.48,7.0,6.0,290,5,,10.0,29.601377,,,TRUE,TRUE,,,,,,,SCT,5500,SCT,7000,,,,,VFR,,,,,,,,,,,,METAR,122.0
KW78 052135Z AUTO 28005KT 10SM CLR 14/00 A2980 RMK AO1 T01440000,KW78,2019-01-05T21:35:00Z,36.68,-78.85,14.4,0.0,280,5,,10.0,29.799213,,,TRUE,TRUE,,,,,,,CLR,,,,,,,,VFR,,,,,,,,,,,,SPECI,129.0
KW43 052135Z AUTO 29003KT 10SM CLR 07/M04 A2992 RMK AO2,KW43,2019-01-05T21:35:00Z,44.67,-104.57,7.0,-4.0,290,3,,10.0,29.920275,,,TRUE,TRUE,,,,,,,CLR,,,,,,,,VFR,,,,,,,,,,,,SPECI,1300.0
KVYS 052135Z 10SM CLR 13/06 A2993 RMK AO2 T01250058,KVYS,2019-01-05T21:35:00Z,41.35,-89.15,12.5,5.8,,,,10.0,29.929134,,,,TRUE,,,,,,,CLR,,,,,,,,VFR,,,,,,,,,,,,SPECI,199.0
KVER 052135Z AUTO 23005KT 10SM CLR 16/02 A3002 RMK AO2 T01550022,KVER,2019-01-05T21:35:00Z,38.95,-92.68,15.5,2.2,230,5,,10.0,30.02067,,,TRUE,TRUE,,,,,,,CLR,,,,,,,,VFR,,,,,,,,,,,,SPECI,218.0
KUXL 052135Z AUTO 13007KT 10SM CLR 18/10 A3018 RMK AO2 T01830104,KUXL,2019-01-05T21:35:00Z,30.13,-93.38,18.3,10.4,130,7,,10.0,30.180119,,,TRUE,TRUE,,,,,,,CLR,,,,,,,,VFR,,,,,,,,,,,,SPECI,4.0
KTOC 052135Z AUTO 27007KT 10SM CLR 16/02 A2997 RMK AO2 T01580016,KTOC,2019-01-05T21:35:00Z,34.6,-83.3,15.8,1.6,270,7,,10.0,29.970472,,,TRUE,TRUE,,,,,,,CLR,,,,,,,,VFR,,,,,,,,,,,,SPECI,304.0
KTIP 052135Z AUTO 24010KT 10SM CLR 10/06 A2994 RMK AO2 T01010064,KTIP,2019-01-05T21:35:00Z,40.28,-88.15,10.1,6.4,240,10,,10.0,29.940945,,,TRUE,TRUE,,,,,,,CLR,,,,,,,,VFR,,,,,,,,,,,,SPECI,225.0
KT82 052135Z AUTO 20009KT 10SM CLR 21/00 A3009 RMK AO2 T02071003,KT82,2019-01-05T21:35:00Z,30.25,-98.92,20.7,-0.3,200,9,,10.0,30.088583,,,TRUE,TRUE,,,,,,,CLR,,,,,,,,VFR,,,,,,,,,,,,SPECI,517.0
KT35 052135Z AUTO 21005KT 10SM CLR 23/01 A3009 RMK AO2 T02270010,KT35,2019-01-05T21:35:00Z,30.88,-96.97,22.7,1.0,210,5,,10.0,30.088583,,,TRUE,TRUE,,,,,,,CLR,,,,,,,,VFR,,,,,,,,,,,,SPECI,123.0
KSME 052135Z AUTO 23005KT 10SM CLR 10/03 A3005 RMK AO2,KSME,2019-01-05T21:35:00Z,37.05,-84.62,10.0,3.0,230,5,,10.0,30.050198,,,TRUE,TRUE,,,,,,,CLR,,,,,,,,VFR,,,,,,,,,,,,SPECI,283.0
KSHD 052135Z AUTO 00000KT 10SM CLR 11/02 A2977 RMK AO2 T01080023,KSHD,2019-01-05T21:35:00Z,38.27,-78.9,10.8,2.3,0,0,,10.0,29.769686,,,TRUE,TRUE,,,,,,,CLR,,,,,,,,VFR,,,,,,,,,,,,SPECI,366.0
KSFQ 052135Z AUTO 29009G15KT 10SM CLR 14/06 A2973 RMK AO2 T01420063,KSFQ,2019-01-05T21:35:00Z,36.68,-76.6,14.2,6.3,290,9,15,10.0,29.731298,,,TRUE,TRUE,,,,,,,CLR,,,,,,,,VFR,,,,,,,,,,,,SPECI,22.0
KSBO 052135Z AUTO 29009KT 10SM CLR 17/05 A3001 RMK AO2,KSBO,2019-01-05T21:35:00Z,32.62,-82.37,17.0,5.0,290,9,,10.0,30.008858,,,TRUE,TRUE,,,,,,,CLR,,,,,,,,VFR,,,,,,,,,,,,SPECI,100.0
KREG 052135Z AUTO 35007KT 10SM CLR 18/08 A3017 RMK AO2 T01810075,KREG,2019-01-05T21:35:00Z,30.17,-90.93,18.1,7.5,350,7,,10.0,30.171259,,,TRUE,TRUE,,,,,,,CLR,,,,,,,,VFR,,,,,,,,,,,,SPECI,4.0
KRCR 052135Z AUTO 24009G15KT 10SM CLR 11/04 A2989 RMK AO2,KRCR,2019-01-05T21:35:00Z,41.07,-86.18,11.0,4.0,240,9,15,10.0,29.890747,,,TRUE,TRUE,,,,,,,CLR,,,,,,,,VFR,,,,,,,,,,,,METAR,241.0
KPXE 052135Z AUTO 30010G14KT 10SM CLR 17/03 A3004 RMK AO2 T01660025,KPXE,2019-01-05T21:35:00Z,32.52,-83.77,16.6,2.5,300,10,14,10.0,30.041338,,,TRUE,TRUE,,,,,,,CLR,,,,,,,,VFR,,,,,,,,,,,,SPECI,127.0
KPTT 052135Z AUTO 14009KT 10SM CLR 18/M01 A2996 RMK AO2 T01761011,KPTT,2019-01-05T21:35:00Z,37.7,-98.75,17.6,-1.1,140,9,,10.0,29.958662,,,TRUE,TRUE,,,,,,,CLR,,,,,,,,VFR,,,,,,,,,,,,SPECI,595.0
KPSK 052135Z AUTO 27009G17KT 10SM CLR 10/02 A2988 RMK AO2 T01000015,KPSK,2019-01-05T21:35:00Z,37.12,-80.67,10.0,1.5,270,9,17,10.0,29.878937,,,TRUE,TRUE,,,,,,,CLR,,,,,,,,VFR,,,,,,,,,,,,SPECI,642.0
KPPO 052135Z AUTO 25007KT 10SM CLR 10/04 A2988 RMK AO2 T01000037,KPPO,2019-01-05T21:35:00Z,41.57,-86.73,10.0,3.7,250,7,,10.0,29.878937,,,TRUE,TRUE,,,,,,,CLR,,,,,,,,VFR,,,,,,,,,,,,METAR,248.0
KPNT 052135Z AUTO 25010KT 10SM CLR 11/07 A2993 RMK AO2 T01120069,KPNT,2019-01-05T21:35:00Z,40.92,-88.62,11.2,6.9,250,10,,10.0,29.929134,,,TRUE,TRUE,,,,,,,CLR,,,,,,,,VFR,,,,,,,,,,,,SPECI,201.0
KOZA 052135Z AUTO 19013G20KT 10SM CLR 21/M02 A3010 RMK AO2,KOZA,2019-01-05T21:35:00Z,30.73,-101.2,21.0,-2.0,190,13,20,10.0,30.100393,,,TRUE,TRUE,,,,,,,CLR,,,,,,,,VFR,,,,,,,,,,,,SPECI,726.0
KOYM 052135Z AUTO 28010G15KT 10SM CLR 06/00 A2973 RMK AO2,KOYM,2019-01-05T21:35:00Z,41.42,-78.5,6.0,0.0,280,10,15,10.0,29.731298,,,TRUE,TRUE,,,,,,,CLR,,,,,,,,VFR,,,,,,,,,,,,METAR,590.0
KOXI 052135Z AUTO 25006KT 10SM CLR 10/03 A2989 RMK AO1,KOXI,2019-01-05T21:35:00Z,41.33,-86.67,10.0,3.0,250,6,,10.0,29.890747,,,TRUE,TRUE,,,,,,,CLR,,,,,,,,VFR,,,,,,,,,,,,METAR,209.0
KOPN 052135Z AUTO 31011KT 10SM CLR 16/M01 A3006 RMK AO2,KOPN,2019-01-05T21:35:00Z,32.95,-84.27,16.0,-1.0,310,11,,10.0,30.059055,,,TRUE,TRUE,,,,,,,CLR,,,,,,,,VFR,,,,,,,,,,,,SPECI,243.0
KOPL 052135Z AUTO 25006KT 10SM CLR 17/07 A3017 RMK AO2 T01700070,KOPL,2019-01-05T21:35:00Z,30.55,-92.1,17.0,7.0,250,6,,10.0,30.171259,,,TRUE,TRUE,,,,,,,CLR,,,,,,,,VFR,,,,,,,,,,,,SPECI,23.0
KOLY 052135Z AUTO 18006KT 10SM CLR 12/05 A3001 RMK AO2 T01160052,KOLY,2019-01-05T21:35:00Z,38.72,-88.18,11.6,5.2,180,6,,10.0,30.008858,,,TRUE,TRUE,,,,,,,CLR,,,,,,,,VFR,,,,,,,,,,,,METAR,147.0
KMZZ 052135Z AUTO 25009KT 10SM CLR 10/04 A2991 RMK AO2 T00960038,KMZZ,2019-01-05T21:35:00Z,40.48,-85.68,9.6,3.8,250,9,,10.0,29.911417,,,TRUE,TRUE,,,,,,,CLR,,,,,,,,VFR,,,,,,,,,,,,SPECI,262.0
KMYZ 052135Z AUTO 22007KT 10SM CLR 16/01 A2999 RMK AO2,KMYZ,2019-01-05T21:35:00Z,39.85,-96.63,16.0,1.0,220,7,,10.0,29.991142,,,TRUE,TRUE,,,,,,,CLR,,,,,,,,VFR,,,,,,,,,,,,SPECI,319.0
KMRJ 052135Z AUTO 27007KT 10SM CLR 08/03 A2989 RMK AO2,KMRJ,2019-01-05T21:35:00Z,42.88,-90.23,8.0,3.0,270,7,,10.0,29.890747,,,TRUE,TRUE,,,,,,,CLR,,,,,,,,VFR,,,,,,,,,,,,METAR,359.0
KMFV 052135Z AUTO 29011G18KT 10SM BKN042 OVC049 11/07 A2966 RMK AO2 T01140071 PNO,KMFV,2019-01-05T21:35:00Z,37.63,-75.77,11.4,7.1,290,11,18,10.0,29.660433,,,TRUE,TRUE,,,,,,,BKN,4200,OVC,4900,,,,,VFR,,,,,,,,,,,,SPECI,15.0
KMDD 052135Z AUTO 19007KT 10SM 21/M03 A3006 RMK AO2 T02101027,KMDD,2019-01-05T21:35:00Z,32.03,-102.1,21.0,-2.7,190,7,,10.0,30.059055,,,TRUE,TRUE,,,,,,,,,,,,,,,,,,,,,,,,,,,SPECI,854.0
KLWB 052135Z AUTO 27005KT 10SM CLR 08/00 A2988 RMK AO2 T00780001,KLWB,2019-01-05T21:35:00Z,37.87,-80.4,7.8,0.1,270,5,,10.0,29.878937,,,TRUE,TRUE,,,,,,,CLR,,,,,,,,VFR,,,,,,,,,,,,METAR,702.0
KLGC 052135Z AUTO 32009KT 10SM CLR 17/02 A3007 RMK AO2 T01700020,KLGC,2019-01-05T21:35:00Z,33.0,-85.07,17.0,2.0,320,9,,10.0,30.070866,,,TRUE,TRUE,,,,,,,CLR,,,,,,,,VFR,,,,,,,,,,,,METAR,211.0
KLCK 052135Z AUTO 24009KT 10SM CLR 08/04 A2990 RMK AO2 T00820035,KLCK,2019-01-05T21:35:00Z,39.82,-82.92,8.2,3.5,240,9,,10.0,29.899607,,,TRUE,TRUE,,,,,,,CLR,,,,,,,,VFR,,,,,,,,,,,,SPECI,227.0
KJOT 052135Z AUTO 24007KT 10SM CLR 12/05 A2990 RMK AO2 T01180050,KJOT,2019-01-05T21:35:00Z,41.52,-88.18,11.8,5.0,240,7,,10.0,29.899607,,,TRUE,TRUE,,,,,,,CLR,,,,,,,,VFR,,,,,,,,,,,,SPECI,177.0
KJHN 052135Z AUTO 18003KT 10SM CLR 06/00 A2993 RMK AO2 T00551002,KJHN,2019-01-05T21:35:00Z,37.58,-101.73,5.5,-0.2,180,3,,10.0,29.929134,,,TRUE,TRUE,,,,,,,CLR,,,,,,,,VFR,,,,,,,,,,,,METAR,1013.0
KIJX 052135Z AUTO 23008KT 10SM CLR 13/05 A2998 RMK AO2 T01250046,KIJX,2019-01-05T21:35:00Z,39.77,-90.25,12.5,4.6,230,8,,10.0,29.97933,,,TRUE,TRUE,,,,,,,CLR,,,,,,,,VFR,,,,,,,,,,,,METAR,190.0
KIDP 052135Z AUTO 19006KT 10SM CLR 16/05 A3003 RMK AO2 T01600046,KIDP,2019-01-05T21:35:00Z,37.17,-95.78,16.0,4.6,190,6,,10.0,30.029528,,,TRUE,TRUE,,,,,,,CLR,,,,,,,,VFR,,,,,,,,,,,,METAR,251.0
KI63 052135Z AUTO 25006KT 10SM CLR 12/04 A2998 RMK AO2 T01220037,KI63,2019-01-05T21:35:00Z,39.98,-90.8,12.2,3.7,250,6,,10.0,29.97933,,,TRUE,TRUE,,,,,,,CLR,,,,,,,,VFR,,,,,,,,,,,,SPECI,223.0
KHTO 052135Z AUTO 36012G18KT 5SM RA OVC005 06/05 A2941 RMK AO2 P0017 T00550050,KHTO,2019-01-05T21:35:00Z,40.95,-72.25,5.5,5.0,360,12,18,5.0,29.409449,,,TRUE,TRUE,,,,,,RA,OVC,500,,,,,,,IFR,,,,,,0.17,,,,,,SPECI,17.0
KHSG 052135Z AUTO 18012G19KT 10SM CLR 01/M07 A2987 RMK AO2 T00121066,KHSG,2019-01-05T21:35:00Z,43.72,-108.38,1.2,-6.6,180,12,19,10.0,29.870079,,,TRUE,TRUE,,,,,,,CLR,,,,,,,,VFR,,,,,,,,,,,,SPECI,1494.0
KHII 052135Z AUTO 21005KT 10SM SCT049 BKN070 10/M06 A3002 RMK AO2,KHII,2019-01-05T21:35:00Z,34.57,-114.37,10.0,-6.0,210,5,,10.0,30.02067,,,TRUE,TRUE,,,,,,,SCT,4900,BKN,7000,,,,,VFR,,,,,,,,,,,,SPECI,238.0
KHHW 052135Z AUTO 17005KT 10SM CLR 21/01 A3008 RMK AO2 T02050005,KHHW,2019-01-05T21:35:00Z,34.03,-95.55,20.5,0.5,170,5,,10.0,30.079725,,,TRUE,TRUE,,,,,,,CLR,,,,,,,,VFR,,,,,,,,,,,,METAR,144.0
KHHG 052135Z AUTO 24008G14KT 10SM CLR 09/03 A2988 RMK AO2 T00910026,KHHG,2019-01-05T21:35:00Z,40.85,-85.45,9.1,2.6,240,8,14,10.0,29.878937,,,TRUE,TRUE,,,,,,,CLR,,,,,,,,VFR,,,,,,,,,,,,METAR,246.0
KGVT 052135Z AUTO 15008KT 10SM CLR 21/05 A3008 RMK AO2,KGVT,2019-01-05T21:35:00Z,33.07,-96.07,21.0,5.0,150,8,,10.0,30.079725,,,TRUE,TRUE,,,,,,,CLR,,,,,,,,VFR,,,,,,,,,,,,SPECI,163.0
KGNC 052135Z AUTO 20009KT 10SM CLR 20/M07 A3008 RMK AO2 T01971074,KGNC,2019-01-05T21:35:00Z,32.68,-102.65,19.7,-7.4,200,9,,10.0,30.079725,,,TRUE,TRUE,,,,,,,CLR,,,,,,,,VFR,,,,,,,,,,,,SPECI,1010.0
KGGP 052135Z AUTO 26010KT 10SM CLR 09/05 A2992 RMK AO2,KGGP,2019-01-05T21:35:00Z,40.72,-86.37,9.0,5.0,260,10,,10.0,29.920275,,,TRUE,TRUE,,,,,,,CLR,,,,,,,,VFR,,,,,,,,,,,,SPECI,225.0
KFWC 052135Z AUTO 19005KT 10SM CLR 12/06 A3001 RMK AO1 T01210057,KFWC,2019-01-05T21:35:00Z,38.38,-88.42,12.1,5.7,190,5,,10.0,30.008858,,,TRUE,TRUE,,,,,,,CLR,,,,,,,,VFR,,,,,,,,,,,,SPECI,133.0
KEHY 052135Z AUTO 27017KT 10SM CLR 05/M10 A2997 RMK AO2 PWINO,KEHY,2019-01-05T21:35:00Z,41.73,-106.47,5.0,-10.0,270,17,,10.0,29.970472,,,TRUE,TRUE,,,,,TRUE,,CLR,,,,,,,,VFR,,,,,,,,,,,,SPECI,2225.0
KD73 052135Z AUTO 31013G19KT 10SM CLR 14/02 A3003 RMK AO2 T01430022,KD73,2019-01-05T21:35:00Z,33.78,-83.7,14.3,2.2,310,13,19,10.0,30.029528,,,TRUE,TRUE,,,,,,,CLR,,,,,,,,VFR,,,,,,,,,,,,SPECI,267.0
KCWV 052135Z AUTO 25007KT 7SM CLR 18/06 A2999 RMK AO2 T01760056,KCWV,2019-01-05T21:35:00Z,32.2,-81.87,17.6,5.6,250,7,,7.0,29.991142,,,TRUE,TRUE,,,,,,,CLR,,,,,,,,VFR,,,,,,,,,,,,SPECI,33.0
KCCO 052135Z AUTO 30006KT CLR 16/00 A3006 RMK AO2 T01570000 PWINO,KCCO,2019-01-05T21:35:00Z,33.32,-84.77,15.7,0.0,300,6,,,30.059055,,,TRUE,TRUE,,,,,TRUE,,CLR,,,,,,,,,,,,,,,,,,,,SPECI,296.0
KC75 052135Z AUTO 23006KT 10SM CLR 12/03 A2993 RMK AO2 T01220027,KC75,2019-01-05T21:35:00Z,41.02,-89.38,12.2,2.7,230,6,,10.0,29.929134,,,TRUE,TRUE,,,,,,,CLR,,,,,,,,VFR,,,,,,,,,,,,SPECI,173.0
KACP 052135Z AUTO 00000KT 10SM CLR 19/06 A3017 RMK AO2 T01860064,KACP,2019-01-05T21:35:00Z,30.75,-92.68,18.6,6.4,0,0,,10.0,30.171259,,,TRUE,TRUE,,,,,,,CLR,,,,,,,,VFR,,,,,,,,,,,,SPECI,33.0
K5M9 052135Z AUTO 00000KT 10SM CLR 12/03 A3006 RMK AO2 T01200034,K5M9,2019-01-05T21:35:00Z,37.33,-88.12,12.0,3.4,0,0,,10.0,30.059055,,,TRUE,TRUE,,,,,,,CLR,,,,,,,,VFR,,,,,,,,,,,,SPECI,199.0
K3K3 052135Z AUTO 13007KT 10SM CLR 11/01 A2992 RMK AO2,K3K3,2019-01-05T21:35:00Z,38.0,-101.75,11.0,1.0,130,7,,10.0,29.920275,,,TRUE,TRUE,,,,,,,CLR,,,,,,,,VFR,,,,,,,,,,,,SPECI,1013.0
K3AU 052135Z AUTO 21006KT 10SM CLR 15/00 A3000 RMK AO2,K3AU,2019-01-05T21:35:00Z,37.67,-97.08,15.0,0.0,210,6,,10.0,30.0,,,TRUE,TRUE,,,,,,,CLR,,,,,,,,VFR,,,,,,,,,,,,SPECI,405.0
K11R 052135Z AUTO 20007KT 10SM CLR 23/02 A3013 RMK AO2 T02270016,K11R,2019-01-05T21:35:00Z,30.22,-96.37,22.7,1.6,200,7,,10.0,30.129921,,,TRUE,TRUE,,,,,,,CLR,,,,,,,,VFR,,,,,,,,,,,,SPECI,94.0
KTFP 052135Z AUTO 18010KT 10SM CLR 22/07 A3013 RMK AO2 T02150066 PNO,KTFP,2019-01-05T21:35:00Z,27.92,-97.22,21.5,6.6,180,10,,10.0,30.129921,,,TRUE,TRUE,,,,,,,CLR,,,,,,,,VFR,,,,,,,,,,,,SPECI,6.0
KTEX 052135Z AUTO 27004KT 10SM CLR 06/M09 A3012 RMK AO2,KTEX,2019-01-05T21:35:00Z,37.95,-107.9,6.0,-9.0,270,4,,10.0,30.121063,,,TRUE,TRUE,,,,,,,CLR,,,,,,,,VFR,,,,,,,,,,,,SPECI,2769.0
KTBR 052135Z AUTO 29008KT 10SM CLR 17/05 A2998 RMK AO2 T01650048,KTBR,2019-01-05T21:35:00Z,32.48,-81.73,16.5,4.8,290,8,,10.0,29.97933,,,TRUE,TRUE,,,,,,,CLR,,,,,,,,VFR,,,,,,,,,,,,SPECI,57.0
KTAZ 052135Z AUTO 22004KT 10SM CLR 12/07 A2998 RMK AO2 T01220065,KTAZ,2019-01-05T21:35:00Z,39.53,-89.33,12.2,6.5,220,4,,10.0,29.97933,,,TRUE,TRUE,,,,,,,CLR,,,,,,,,VFR,,,,,,,,,,,,SPECI,190.0
KT20 052135Z AUTO 16004KT 10SM CLR 24/02 A3010 RMK AO2 T02400016,KT20,2019-01-05T21:35:00Z,29.52,-97.47,24.0,1.6,160,4,,10.0,30.100393,,,TRUE,TRUE,,,,,,,CLR,,,,,,,,VFR,,,,,,,,,,,,SPECI,108.0
KSWW 052135Z AUTO 17009KT 10SM CLR 21/M03 A3007 RMK AO2 T02081035,KSWW,2019-01-05T21:35:00Z,32.47,-100.47,20.8,-3.5,170,9,,10.0,30.070866,,,TRUE,TRUE,,,,,,,CLR,,,,,,,,VFR,,,,,,,,,,,,SPECI,727.0
KSOA 052135Z AUTO 18008KT 10SM CLR 22/M02 A3011 RMK AO2,KSOA,2019-01-05T21:35:00Z,30.58,-100.65,22.0,-2.0,180,8,,10.0,30.109253,,,TRUE,TRUE,,,,,,,CLR,,,,,,,,VFR,,,,,,,,,,,,SPECI,652.0
KSNL 052135Z AUTO 18010KT 10SM CLR 19/02 A3002 RMK AO2 T01880017,KSNL,2019-01-05T21:35:00Z,35.35,-96.95,18.8,1.7,180,10,,10.0,30.02067,,,TRUE,TRUE,,,,,,,CLR,,,,,,,,VFR,,,,,,,,,,,,SPECI,327.0
KSNK 052135Z AUTO 19011KT 10SM CLR 19/M03 A3005 RMK AO2 T01941033,KSNK,2019-01-05T21:35:00Z,32.7,-100.95,19.4,-3.3,190,11,,10.0,30.050198,,,TRUE,TRUE,,,,,,,CLR,,,,,,,,VFR,,,,,,,,,,,,SPECI,741.0
KSJS 052135Z AUTO 25004KT 10SM CLR 10/03 A2997 RMK AO2 T01010033,KSJS,2019-01-05T21:35:00Z,37.75,-82.63,10.1,3.3,250,4,,10.0,29.970472,,,TRUE,TRUE,,,,,,,CLR,,,,,,,,VFR,,,,,,,,,,,,SPECI,372.0
KSBS 052135Z AUTO 00000KT 10SM CLR M04/M09 A3006 RMK AO1 T10371090,KSBS,2019-01-05T21:35:00Z,40.52,-106.87,-3.7,-9.0,0,0,,10.0,30.059055,,,TRUE,TRUE,,,,,,,CLR,,,,,,,,VFR,,,,,,,,,,,,SPECI,2096.0
KRZN 052135Z AUTO 36007KT 10SM OVC016 01/M02 A2997 RMK AO2 T00141020,KRZN,2019-01-05T21:35:00Z,45.82,-92.37,1.4,-2.0,360,7,,10.0,29.970472,,,TRUE,TRUE,,,,,,,OVC,1600,,,,,,,MVFR,,,,,,,,,,,,SPECI,301.0
KRWV 052135Z AUTO 18005KT 10SM CLR 21/04 A3011 RMK AO2 T02100039,KRWV,2019-01-05T21:35:00Z,30.52,-96.7,21.0,3.9,180,5,,10.0,30.109253,,,TRUE,TRUE,,,,,,,CLR,,,,,,,,VFR,,,,,,,,,,,,SPECI,119.0
KRPJ 052135Z AUTO 25005KT 10SM CLR 07/05 A2992 RMK AO2 T00730051,KRPJ,2019-01-05T21:35:00Z,41.88,-89.08,7.3,5.1,250,5,,10.0,29.920275,,,TRUE,TRUE,,,,,,,CLR,,,,,,,,VFR,,,,,,,,,,,,SPECI,238.0
KRAS 052135Z AUTO 13006KT 10SM CLR 18/13 A3015 RMK AO2 T01820129,KRAS,2019-01-05T21:35:00Z,27.82,-97.08,18.2,12.9,130,6,,10.0,30.15059,,,TRUE,TRUE,,,,,,,CLR,,,,,,,,VFR,,,,,,,,,,,,SPECI,2.0
KPYX 052135Z AUTO 22007KT 10SM CLR 18/02 A2992 RMK AO2 T01820024,KPYX,2019-01-05T21:35:00Z,36.42,-100.75,18.2,2.4,220,7,,10.0,29.920275,,,TRUE,TRUE,,,,,,,CLR,,,,,,,,VFR,,,,,,,,,,,,SPECI,889.0
KPVW 052135Z AUTO 21011KT 10SM CLR 20/M08 A3000 RMK AO2 T01961076,KPVW,2019-01-05T21:35:00Z,34.17,-101.72,19.6,-7.6,210,11,,10.0,30.0,,,TRUE,TRUE,,,,,,,CLR,,,,,,,,VFR,,,,,,,,,,,,SPECI,1028.0
KPVF 052135Z AUTO 14020G31KT 2 1/2SM FEW020 SCT028 03/02 A2974 RMK AO1 P0004,KPVF,2019-01-05T21:35:00Z,38.72,-120.75,3.0,2.0,140,20,31,2.5,29.740158,,,TRUE,TRUE,,,,,,,FEW,2000,SCT,2800,,,,,IFR,,,,,,0.04,,,,,,SPECI,789.0
KPRG 052135Z AUTO 24008KT 10SM CLR 12/07 A2998 RMK AO2 T01210066,KPRG,2019-01-05T21:35:00Z,39.7,-87.67,12.1,6.6,240,8,,10.0,29.97933,,,TRUE,TRUE,,,,,,,CLR,,,,,,,,VFR,,,,,,,,,,,,SPECI,199.0
KPPA 052135Z AUTO 20018KT 10SM CLR 23/M03 A2997 RMK AO2 T02251033,KPPA,2019-01-05T21:35:00Z,35.62,-101.0,22.5,-3.3,200,18,,10.0,29.970472,,,TRUE,TRUE,,,,,,,CLR,,,,,,,,VFR,,,,,,,,,,,,SPECI,989.0
KPMU 052135Z AUTO 24005KT 10SM CLR 14/05 A3013 RMK AO2,KPMU,2019-01-05T21:35:00Z,34.37,-89.9,14.0,5.0,240,5,,10.0,30.129921,,,TRUE,TRUE,,,,,,,CLR,,,,,,,,VFR,,,,,,,,,,,,SPECI,67.0
KPLU 052135Z AUTO 00000KT 10SM BKN100 08/06 A2940 RMK AO2,KPLU,2019-01-05T21:35:00Z,47.1,-122.28,8.0,6.0,0,0,,10.0,29.40059,,,TRUE,TRUE,,,,,,,BKN,10000,,,,,,,VFR,,,,,,,,,,,,SPECI,164.0
KPBX 052135Z AUTO 23005KT 10SM CLR 09/03 A2998 RMK AO2 T00930029,KPBX,2019-01-05T21:35:00Z,37.57,-82.57,9.3,2.9,230,5,,10.0,29.97933,,,TRUE,TRUE,,,,,,,CLR,,,,,,,,VFR,,,,,,,,,,,,SPECI,449.0
KOSA 052135Z AUTO 18006KT 10SM CLR 20/04 A3011 RMK AO1 T02030037,KOSA,2019-01-05T21:35:00Z,33.1,-94.97,20.3,3.7,180,6,,10.0,30.109253,,,TRUE,TRUE,,,,,,,CLR,,,,,,,,VFR,,,,,,,,,,,,SPECI,111.0
KORG 052135Z AUTO 18006KT 10SM CLR 18/11 A3018 RMK AO2 T01830107,KORG,2019-01-05T21:35:00Z,30.07,-93.8,18.3,10.7,180,6,,10.0,30.180119,,,TRUE,TRUE,,,,,,,CLR,,,,,,,,VFR,,,,,,,,,,,,SPECI,4.0
KONM 052135Z AUTO 34005KT 10SM CLR 02/M05 A3016 RMK AO2 T00241053,KONM,2019-01-05T21:35:00Z,34.02,-106.9,2.4,-5.3,340,5,,10.0,30.159449,,,TRUE,TRUE,,,,,,,CLR,,,,,,,,VFR,,,,,,,,,,,,SPECI,1410.0
KONL 052135Z AUTO 00000KT 10SM CLR 09/M01 A3000 RMK AO2 T00891008,KONL,2019-01-05T21:35:00Z,42.47,-98.67,8.9,-0.8,0,0,,10.0,30.0,,,TRUE,TRUE,,,,,,,CLR,,,,,,,,VFR,,,,,,,,,,,,SPECI,619.0
KOKV 052135Z AUTO 30010G18KT 10SM CLR 10/02 A2975 RMK AO2,KOKV,2019-01-05T21:35:00Z,39.13,-78.15,10.0,2.0,300,10,18,10.0,29.749016,,,TRUE,TRUE,,,,,,,CLR,,,,,,,,VFR,,,,,,,,,,,,SPECI,222.0
KOGA 052135Z AUTO 09007KT 10SM CLR 15/M03 A2994 RMK AO2 T01461033,KOGA,2019-01-05T21:35:00Z,41.12,-101.77,14.6,-3.3,90,7,,10.0,29.940945,,,TRUE,TRUE,,,,,,,CLR,,,,,,,,VFR,,,,,,,,,,,,SPECI,999.0
KO54 052135Z AUTO 04007KT 3SM FEW020 03/01 A2955 RMK AO1 P0002,KO54,2019-01-05T21:35:00Z,40.75,-122.92,3.0,1.0,40,7,,3.0,29.551182,,,TRUE,TRUE,,,,,,,FEW,2000,,,,,,,MVFR,,,,,,0.02,,,,,,SPECI,717.0
KMWO 052135Z AUTO 23011KT 10SM CLR 11/03 A2994 RMK AO2 T01080034,KMWO,2019-01-05T21:35:00Z,39.53,-84.4,10.8,3.4,230,11,,10.0,29.940945,,,TRUE,TRUE,,,,,,,CLR,,,,,,,,VFR,,,,,,,,,,,,SPECI,198.0
PAAD 052135Z AUTO 25010KT 10SM OVC002 M31/M34 A3010 RMK AO2 T13131340,PAAD,2019-01-05T21:35:00Z,70.13,-146.28,-31.3,-34.0,250,10,,10.0,30.100393,,,TRUE,TRUE,,,,,,,OVC,200,,,,,,,LIFR,,,,,,,,,,,,SPECI,8.0
KWDR 052135Z AUTO 31011G18KT 10SM CLR 15/01 A3005 RMK AO2,KWDR,2019-01-05T21:35:00Z,33.98,-83.67,15.0,1.0,310,11,18,10.0,30.050198,,,TRUE,TRUE,,,,,,,CLR,,,,,,,,VFR,,,,,,,,,,,,SPECI,287.0
KW22 052135Z AUTO 24009KT 10SM CLR 08/02 A2987 RMK AO2,KW22,2019-01-05T21:35:00Z,39.0,-80.27,8.0,2.0,240,9,,10.0,29.870079,,,TRUE,TRUE,,,,,,,CLR,,,,,,,,VFR,,,,,,,,,,,,SPECI,499.0
KVDI 052135Z AUTO 28007KT 10SM CLR 17/02 A3001 RMK AO2,KVDI,2019-01-05T21:35:00Z,32.2,-82.37,17.0,2.0,280,7,,10.0,30.008858,,,TRUE,TRUE,,,,,,,CLR,,,,,,,,VFR,,,,,,,,,,,,SPECI,84.0
KTXW 052135Z AUTO 16010KT 10SM BKN110 26/08 A3009 RMK AO2 T02610082,KTXW,2019-01-05T21:35:00Z,26.18,-97.97,26.1,8.2,160,10,,10.0,30.088583,,,TRUE,TRUE,,,,,,,BKN,11000,,,,,,,VFR,,,,,,,,,,,,SPECI,21.0
KTMK 052135Z AUTO 05008KT 10SM BKN050 OVC095 09/06 A2937 RMK AO2 P0001,KTMK,2019-01-05T21:35:00Z,45.42,-123.82,9.0,6.0,50,8,,10.0,29.371063,,,TRUE,TRUE,,,,,,,BKN,5000,OVC,9500,,,,,VFR,,,,,,0.01,,,,,,SPECI,11.0
KTIF 052135Z AUTO 08009KT 10SM CLR 11/M01 A2999 RMK AO2 T01121014,KTIF,2019-01-05T21:35:00Z,41.97,-100.57,11.2,-1.4,80,9,,10.0,29.991142,,,TRUE,TRUE,,,,,,,CLR,,,,,,,,VFR,,,,,,,,,,,,SPECI,892.0
KFYG 052135Z AUTO 33004KT 10SM CLR 15/05 A3001 RMK AO2,KFYG,2019-01-05T21:35:00Z,38.58,-91.0,15.0,5.0,330,4,,10.0,30.008858,,,TRUE,TRUE,,,,,,,CLR,,,,,,,,VFR,,,,,,,,,,,,SPECI,149.0
KFVX 052135Z AUTO 00000KT 10SM CLR 14/02 A2974 RMK AO2 T01410023,KFVX,2019-01-05T21:35:00Z,37.35,-78.42,14.1,2.3,0,0,,10.0,29.740158,,,TRUE,TRUE,,,,,,,CLR,,,,,,,,VFR,,,,,,,,,,,,SPECI,125.0
KFKN 052135Z AUTO 29009G16KT 10SM CLR 14/05 A2974 RMK AO2 T01390050,KFKN,2019-01-05T21:35:00Z,36.7,-76.9,13.9,5.0,290,9,16,10.0,29.740158,,,TRUE,TRUE,,,,,,,CLR,,,,,,,,VFR,,,,,,,,,,,,SPECI,12.0
KFET 052135Z AUTO 36003KT 10SM CLR 12/02 A2999 RMK AO2 T01200021,KFET,2019-01-05T21:35:00Z,41.45,-96.52,12.0,2.1,360,3,,10.0,29.991142,,,TRUE,TRUE,,,,,,,CLR,,,,,,,,VFR,,,,,,,,,,,,SPECI,367.0
KF70 052135Z AUTO 22003KT 10SM SCT070 SCT090 12/00 A2997 RMK AO1,KF70,2019-01-05T21:35:00Z,33.57,-117.13,12.0,0.0,220,3,,10.0,29.970472,,,TRUE,TRUE,,,,,,,SCT,7000,SCT,9000,,,,,VFR,,,,,,,,,,,,SPECI,412.0
KEZZ 052135Z AUTO 25006KT 10SM CLR 13/05 A3001 RMK AO2 T01300053,KEZZ,2019-01-05T21:35:00Z,39.72,-94.28,13.0,5.3,250,6,,10.0,30.008858,,,TRUE,TRUE,,,,,,,CLR,,,,,,,,VFR,,,,,,,,,,,,SPECI,317.0
KEZM 052135Z AUTO 29006KT 10SM CLR 17/03 A3005 RMK AO2 T01650033,KEZM,2019-01-05T21:35:00Z,32.22,-83.13,16.5,3.3,290,6,,10.0,30.050198,,,TRUE,TRUE,,,,,,,CLR,,,,,,,,VFR,,,,,,,,,,,,SPECI,93.0
KEZF 052135Z AUTO 30006KT 10SM CLR 13/07 A2970 RMK AO2 T01300066,KEZF,2019-01-05T21:35:00Z,38.27,-77.45,13.0,6.6,300,6,,10.0,29.698818,,,TRUE,TRUE,,,,,,,CLR,,,,,,,,VFR,,,,,,,,,,,,SPECI,26.0
KEQA 052135Z AUTO 21006KT 10SM CLR 16/01 A3001 RMK AO2,KEQA,2019-01-05T21:35:00Z,37.78,-96.82,16.0,1.0,210,6,,10.0,30.008858,,,TRUE,TRUE,,,,,,,CLR,,,,,,,,VFR,,,,,,,,,,,,SPECI,420.0
KENL 052135Z AUTO 00000KT 10SM CLR 13/07 A3002 RMK AO2 T01320066,KENL,2019-01-05T21:35:00Z,38.52,-89.1,13.2,6.6,0,0,,10.0,30.02067,,,TRUE,TRUE,,,,,,,CLR,,,,,,,,VFR,,,,,,,,,,,,SPECI,163.0
KELK 052135Z AUTO 17008KT 10SM CLR 18/03 A2998 RMK AO2 T01790033,KELK,2019-01-05T21:35:00Z,35.43,-99.4,17.9,3.3,170,8,,10.0,29.97933,,,TRUE,TRUE,,,,,,,CLR,,,,,,,,VFR,,,,,,,,,,,,SPECI,610.0
KELA 052135Z AUTO 18007KT 10SM CLR 22/04 A3012 RMK AO2 T02220036,KELA,2019-01-05T21:35:00Z,29.6,-96.32,22.2,3.6,180,7,,10.0,30.121063,,,TRUE,TRUE,,,,,,,CLR,,,,,,,,VFR,,,,,,,,,,,,SPECI,56.0
KEHA 052135Z AUTO 16008KT 10SM CLR 08/04 A2992 RMK AO2 T00750035,KEHA,2019-01-05T21:35:00Z,37.0,-101.9,7.5,3.5,160,8,,10.0,29.920275,,,TRUE,TRUE,,,,,,,CLR,,,,,,,,VFR,,,,,,,,,,,,SPECI,1099.0
KEFK 052135Z AUTO 33003KT 10SM CLR 00/M03 A2958 RMK AO2 T10051027,KEFK,2019-01-05T21:35:00Z,44.88,-72.23,-0.5,-2.7,330,3,,10.0,29.58071,,,TRUE,TRUE,,,,,,,CLR,,,,,,,,VFR,,,,,,,,,,,,SPECI,284.0
KEBG 052135Z AUTO 16008KT 10SM CLR 27/07 A3010 RMK AO2 T02690065,KEBG,2019-01-05T21:35:00Z,26.45,-98.13,26.9,6.5,160,8,,10.0,30.100393,,,TRUE,TRUE,,,,,,,CLR,,,,,,,,VFR,,,,,,,,,,,,SPECI,24.0
KE38 052135Z AUTO 22010KT 10SM CLR 23/M09 A3015 RMK AO2 T02271086,KE38,2019-01-05T21:35:00Z,30.38,-103.68,22.7,-8.6,220,10,,10.0,30.15059,,,TRUE,TRUE,,,,,,,CLR,,,,,,,,VFR,,,,,,,,,,,,SPECI,1376.0
KE11 052135Z AUTO 23011G14KT 10SM CLR 20/M09 A3005 RMK AO2 T02001088,KE11,2019-01-05T21:35:00Z,32.33,-102.53,20.0,-8.8,230,11,14,10.0,30.050198,,,TRUE,TRUE,,,,,,,CLR,,,,,,,,VFR,,,,,,,,,,,,SPECI,967.0
KDVO 052135Z AUTO 19018G26KT 8SM BKN026 BKN032 BKN040 13/11 A2960 RMK AO2,KDVO,2019-01-05T21:35:00Z,38.15,-122.55,13.0,11.0,190,18,26,8.0,29.601377,,,TRUE,TRUE,,,,,,,BKN,2600,BKN,3200,BKN,4000,,,MVFR,,,,,,,,,,,,SPECI,1.0
KDVK 052135Z AUTO 25004KT 10SM CLR 11/03 A3003 RMK AO2,KDVK,2019-01-05T21:35:00Z,37.58,-84.77,11.0,3.0,250,4,,10.0,30.029528,,,TRUE,TRUE,,,,,,,CLR,,,,,,,,VFR,,,,,,,,,,,,SPECI,312.0
KDUC 052135Z AUTO 15009KT 10SM CLR 17/04 A3003 RMK AO2 T01740044,KDUC,2019-01-05T21:35:00Z,34.47,-97.97,17.4,4.4,150,9,,10.0,30.029528,,,TRUE,TRUE,,,,,,,CLR,,,,,,,,VFR,,,,,,,,,,,,SPECI,339.0
KDUB 052135Z AUTO 32011G17KT 10SM CLR 03/M11 A2988 RMK AO2,KDUB,2019-01-05T21:35:00Z,43.55,-109.68,3.0,-11.0,320,11,17,10.0,29.878937,,,TRUE,TRUE,,,,,,,CLR,,,,,,,,VFR,,,,,,,,,,,,SPECI,2224.0
KDTA 052135Z AUTO 35003KT 10SM CLR M02/M05 A2994 RMK AO1,KDTA,2019-01-05T21:35:00Z,39.38,-112.5,-2.0,-5.0,350,3,,10.0,29.940945,,,TRUE,TRUE,,,,,,,CLR,,,,,,,,VFR,,,,,,,,,,,,SPECI,1402.0
KDQH 052135Z AUTO 30008KT 10SM CLR 16/05 A3005 RMK AO2 T01560051,KDQH,2019-01-05T21:35:00Z,31.48,-82.87,15.6,5.1,300,8,,10.0,30.050198,,,TRUE,TRUE,,,,,,,CLR,,,,,,,,VFR,,,,,,,,,,,,SPECI,78.0
KDKR 052135Z AUTO 21005KT 10SM 20/05 A3014 RMK AO2,KDKR,2019-01-05T21:35:00Z,31.3,-95.4,20.0,5.0,210,5,,10.0,30.138779,,,TRUE,TRUE,,,,,,,,,,,,,,,,,,,,,,,,,,,SPECI,106.0
KDKB 052135Z AUTO 26009KT 10SM CLR 08/04 A2990 RMK AO2 T00770042,KDKB,2019-01-05T21:35:00Z,41.93,-88.7,7.7,4.2,260,9,,10.0,29.899607,,,TRUE,TRUE,,,,,,,CLR,,,,,,,,VFR,,,,,,,,,,,,SPECI,279.0
KDED 052135Z AUTO 29007KT 10SM CLR 18/09 A3001 RMK AO2,KDED,2019-01-05T21:35:00Z,29.07,-81.28,18.0,9.0,290,7,,10.0,30.008858,,,TRUE,TRUE,,,,,,,CLR,,,,,,,,VFR,,,,,,,,,,,,SPECI,24.0
KDCY 052135Z AUTO 24006KT 10SM CLR 11/03 A3000 RMK AO2 T01130033,KDCY,2019-01-05T21:35:00Z,38.7,-87.13,11.3,3.3,240,6,,10.0,30.0,,,TRUE,TRUE,,,,,,,CLR,,,,,,,,VFR,,,,,,,,,,,,SPECI,144.0
KDBN 052135Z AUTO 29008KT 10SM CLR 16/02 A3004 RMK AO2,KDBN,2019-01-05T21:35:00Z,32.57,-82.98,16.0,2.0,290,8,,10.0,30.041338,,,TRUE,TRUE,,,,,,,CLR,,,,,,,,VFR,,,,,,,,,,,,SPECI,94.0
KD39 052135Z AUTO 36007KT 10SM CLR 01/M02 A2998 RMK AO2 T00131021,KD39,2019-01-05T21:35:00Z,45.7,-94.93,1.3,-2.1,360,7,,10.0,29.97933,,,TRUE,TRUE,,,,,,,CLR,,,,,,,,VFR,,,,,,,,,,,,SPECI,380.0
KCXE 052135Z AUTO 26008KT 10SM CLR 13/02 A2978 RMK AO1 T01330018,KCXE,2019-01-05T21:35:00Z,36.78,-78.5,13.3,1.8,260,8,,10.0,29.778543,,,TRUE,TRUE,,,,,,,CLR,,,,,,,,VFR,,,,,,,,,,,,SPECI,153.0
KCVC 052135Z AUTO 31010KT 10SM CLR 16/02 A3003 RMK AO2 PNO,KCVC,2019-01-05T21:35:00Z,33.63,-83.85,16.0,2.0,310,10,,10.0,30.029528,,,TRUE,TRUE,,,,,,,CLR,,,,,,,,VFR,,,,,,,,,,,,SPECI,247.0
KCVB 052135Z AUTO 17008KT 10SM CLR 24/01 A3011 RMK AO2 T02350007,KCVB,2019-01-05T21:35:00Z,29.35,-98.85,23.5,0.7,170,8,,10.0,30.109253,,,TRUE,TRUE,,,,,,,CLR,,,,,,,,VFR,,,,,,,,,,,,SPECI,235.0
KCUH 052135Z AUTO 18006KT 10SM CLR 18/04 A3002 RMK AO2 T01810043,KCUH,2019-01-05T21:35:00Z,35.95,-96.77,18.1,4.3,180,6,,10.0,30.02067,,,TRUE,TRUE,,,,,,,CLR,,,,,,,,VFR,,,,,,,,,,,,SPECI,279.0
KCTY 052135Z AUTO 29005KT 10SM CLR 16/08 A3007 RMK AO2 T01580080,KCTY,2019-01-05T21:35:00Z,29.63,-83.1,15.8,8.0,290,5,,10.0,30.070866,,,TRUE,TRUE,,,,,,,CLR,,,,,,,,VFR,,,,,,,,,,,,SPECI,13.0
KCTJ 052135Z AUTO 29006KT 10SM CLR 14/02 A3010 RMK AO2 T01410015,KCTJ,2019-01-05T21:35:00Z,33.63,-85.15,14.1,1.5,290,6,,10.0,30.100393,,,TRUE,TRUE,,,,,,,CLR,,,,,,,,VFR,,,,,,,,,,,,SPECI,354.0
KCQB 052135Z AUTO 16005KT 10SM CLR 19/05 A3003 RMK AO2 T01920048,KCQB,2019-01-05T21:35:00Z,35.72,-96.82,19.2,4.8,160,5,,10.0,30.029528,,,TRUE,TRUE,,,,,,,CLR,,,,,,,,VFR,,,,,,,,,,,,SPECI,300.0
KCPK 052135Z AUTO 28009KT 5SM HZ SCT045 14/05 A2971 RMK AO2 T01350049,KCPK,2019-01-05T21:35:00Z,36.67,-76.32,13.5,4.9,280,9,,5.0,29.71063,,,TRUE,TRUE,,,,,,HZ,SCT,4500,,,,,,,MVFR,,,,,,,,,,,,SPECI,6.0
KCOM 052135Z AUTO 19008KT 10SM CLR 21/02 A3007 RMK AO2 T02110018,KCOM,2019-01-05T21:35:00Z,31.83,-99.4,21.1,1.8,190,8,,10.0,30.070866,,,TRUE,TRUE,,,,,,,CLR,,,,,,,,VFR,,,,,,,,,,,,SPECI,517.0
KCKF 052135Z AUTO 30007KT 10SM CLR 17/02 A3006 RMK AO2 T01680016,KCKF,2019-01-05T21:35:00Z,31.98,-83.77,16.8,1.6,300,7,,10.0,30.059055,,,TRUE,TRUE,,,,,,,CLR,,,,,,,,VFR,,,,,,,,,,,,SPECI,91.0
KCHK 052135Z AUTO 00000KT 10SM CLR 14/06 A2999 RMK AO2 T01450058,KCHK,2019-01-05T21:35:00Z,35.1,-97.97,14.5,5.8,0,0,,10.0,29.991142,,,TRUE,TRUE,,,,,,,CLR,,,,,,,,VFR,,,,,,,,,,,,SPECI,351.0
KCFD 052135Z AUTO 20006KT 10SM CLR 21/03 A3012 RMK AO2 T02110026,KCFD,2019-01-05T21:35:00Z,30.72,-96.33,21.1,2.6,200,6,,10.0,30.121063,,,TRUE,TRUE,,,,,,,CLR,,,,,,,,VFR,,,,,,,,,,,,SPECI,112.0
KCDI 052135Z AUTO 22009KT 10SM CLR 08/02 A2987 RMK AO2 T00840023,KCDI,2019-01-05T21:35:00Z,39.97,-81.58,8.4,2.3,220,9,,10.0,29.870079,,,TRUE,TRUE,,,,,,,CLR,,,,,,,,VFR,,,,,,,,,,,,SPECI,244.0
KC65 052135Z AUTO 24010KT 10SM CLR 11/03 A2987 RMK A01,KC65,2019-01-05T21:35:00Z,41.37,-86.3,11.0,3.0,240,10,,10.0,29.870079,,,TRUE,TRUE,,,,,,,CLR,,,,,,,,VFR,,,,,,,,,,,,SPECI,244.0
KC09 052135Z AUTO 25007KT 10SM CLR 11/05 A2991 RMK AO2 T01060051,KC09,2019-01-05T21:35:00Z,41.43,-88.42,10.6,5.1,250,7,,10.0,29.911417,,,TRUE,TRUE,,,,,,,CLR,,,,,,,,VFR,,,,,,,,,,,,SPECI,178.0
KBVS 052135Z AUTO 00000KT 10SM FEW110 10/04 A2940 RMK A01,KBVS,2019-01-05T21:35:00Z,48.47,-122.42,10.0,4.0,0,0,,10.0,29.40059,,,TRUE,TRUE,,,,,,,FEW,11000,,,,,,,VFR,,,,,,,,,,,,SPECI,43.0
KBKD 052135Z AUTO 23007KT 5SM HZ CLR 23/M02 A3003 RMK AO2 T02301023,KBKD,2019-01-05T21:35:00Z,32.72,-98.88,23.0,-2.3,230,7,,5.0,30.029528,,,TRUE,TRUE,,,,,,HZ,CLR,,,,,,,,MVFR,,,,,,,,,,,,SPECI,392.0
KBHC 052135Z AUTO 29007KT 10SM CLR 15/05 A3001 RMK AO2,KBHC,2019-01-05T21:35:00Z,31.72,-82.4,15.0,5.0,290,7,,10.0,30.008858,,,TRUE,TRUE,,,,,,,CLR,,,,,,,,VFR,,,,,,,,,,,,SPECI,61.0
KBGE 052135Z 31010KT 10SM 17/02 A3009 RMK AO2 PWINO,KBGE,2019-01-05T21:35:00Z,30.97,-84.63,17.0,2.0,310,10,,10.0,30.088583,,,,TRUE,,,,,TRUE,,,,,,,,,,,,,,,,,,,,,,SPECI,43.0
KBDG 052135Z AUTO 00000KT 10SM M01/M06 A3019 RMK AO1 T10101061,KBDG,2019-01-05T21:35:00Z,37.58,-109.47,-1.0,-6.1,0,0,,10.0,30.188976,,,TRUE,TRUE,,,,,,,,,,,,,,,,,,,,,,,,,,,SPECI,1788.0
KBCB 052135Z AUTO 29008G17KT 10SM CLR 09/01 A2989 RMK AO2 T00920009,KBCB,2019-01-05T21:35:00Z,37.22,-80.42,9.2,0.9,290,8,17,10.0,29.890747,,,TRUE,TRUE,,,,,,,CLR,,,,,,,,VFR,,,,,,,,,,,,SPECI,650.0
KAQR 052135Z AUTO 17004KT 10SM CLR 19/01 A3007 RMK AO2,KAQR,2019-01-05T21:35:00Z,34.4,-96.15,19.0,1.0,170,4,,10.0,30.070866,,,TRUE,TRUE,,,,,,,CLR,,,,,,,,VFR,,,,,,,,,,,,SPECI,189.0
KAPS 052135Z AUTO 10SM CLR 19/07 A3017 RMK AO2 T01920072,KAPS,2019-01-05T21:35:00Z,30.08,-90.58,19.2,7.2,,,,10.0,30.171259,,,TRUE,TRUE,,,,,,,CLR,,,,,,,,VFR,,,,,,,,,,,,SPECI,2.0
KAFO 052135Z AUTO 00000KT 7SM CLR M10/M11 A2993 RMK AO2,KAFO,2019-01-05T21:35:00Z,42.72,-110.95,-10.0,-11.0,0,0,,7.0,29.929134,,,TRUE,TRUE,,,,,,,CLR,,,,,,,,VFR,,,,,,,,,,,,SPECI,1897.0
KAFK 052135Z AUTO 25004KT 10SM CLR 15/M02 A2998 RMK AO2 T01481019,KAFK,2019-01-05T21:35:00Z,40.6,-95.85,14.8,-1.9,250,4,,10.0,29.97933,,,TRUE,TRUE,,,,,,,CLR,,,,,,,,VFR,,,,,,,,,,,,SPECI,354.0
KAAA 052135Z AUTO 27003KT 10SM CLR 14/04 A2997 RMK AO2 T01350038,KAAA,2019-01-05T21:35:00Z,40.17,-89.33,13.5,3.8,270,3,,10.0,29.970472,,,TRUE,TRUE,,,,,,,CLR,,,,,,,,VFR,,,,,,,,,,,,SPECI,182.0
KA08 052135Z AUTO 28010KT 10SM CLR 17/05 A3012 RMK AO2 T01660050,KA08,2019-01-05T21:35:00Z,32.52,-87.38,16.6,5.0,280,10,,10.0,30.121063,,,TRUE,TRUE,,,,,,,CLR,,,,,,,,VFR,,,,,,,,,,,,SPECI,69.0
K9V9 052135Z AUTO 34003KT 10SM CLR 07/00 A3001 RMK AO2 T00711001,K9V9,2019-01-05T21:35:00Z,43.77,-99.32,7.1,-0.1,340,3,,10.0,30.008858,,,TRUE,TRUE,,,,,,,CLR,,,,,,,,VFR,,,,,,,,,,,,SPECI,519.0
K9A5 052135Z AUTO 00000KT 7SM CLR 15/01 A3007 RMK AO2 T01510006,K9A5,2019-01-05T21:35:00Z,34.68,-85.28,15.1,0.6,0,0,,7.0,30.070866,,,TRUE,TRUE,,,,,,,CLR,,,,,,,,VFR,,,,,,,,,,,,SPECI,237.0
K6B0 052135Z AUTO 36004KT 10SM CLR 01/M02 A2959 RMK AO2 T00051017,K6B0,2019-01-05T21:35:00Z,43.98,-73.1,0.5,-1.7,360,4,,10.0,29.589567,,,TRUE,TRUE,,,,,,,CLR,,,,,,,,VFR,,,,,,,,,,,,SPECI,149.0
K66R 052135Z AUTO 19005KT 10SM CLR 23/01 A3013 RMK AO2 T02250009,K66R,2019-01-05T21:35:00Z,29.65,-96.52,22.5,0.9,190,5,,10.0,30.129921,,,TRUE,TRUE,,,,,,,CLR,,,,,,,,VFR,,,,,,,,,,,,SPECI,74.0
K5C1 052135Z AUTO 00000KT 10SM CLR 20/01 A3012 RMK AO1,K5C1,2019-01-05T21:35:00Z,29.72,-98.7,20.0,1.0,0,0,,10.0,30.121063,,,TRUE,TRUE,,,,,,,CLR,,,,,,,,VFR,,,,,,,,,,,,SPECI,423.0
K5A6 052135Z AUTO 26005KT 10SM CLR 14/03 A3015 RMK AO2 T01420032,K5A6,2019-01-05T21:35:00Z,33.47,-89.73,14.2,3.2,260,5,,10.0,30.15059,,,TRUE,TRUE,,,,,,,CLR,,,,,,,,VFR,,,,,,,,,,,,SPECI,111.0
K4A9 052135Z AUTO 27006KT 10SM CLR 14/03 A3007 RMK AO2 T01410031,K4A9,2019-01-05T21:35:00Z,34.47,-85.72,14.1,3.1,270,6,,10.0,30.070866,,,TRUE,TRUE,,,,,,,CLR,,,,,,,,VFR,,,,,,,,,,,,SPECI,267.0
K49A 052135Z AUTO 33004KT 10SM CLR 13/02 A3008 RMK AO2 T01280022,K49A,2019-01-05T21:35:00Z,34.63,-84.53,12.8,2.2,330,4,,10.0,30.079725,,,TRUE,TRUE,,,,,,,CLR,,,,,,,,VFR,,,,,,,,,,,,SPECI,453.0
K48A 052135Z AUTO 30009KT 10SM CLR 17/03 A3003 RMK AO2 T01680026,K48A,2019-01-05T21:35:00Z,,,16.8,2.6,300,9,,10.0,30.029528,,,TRUE,TRUE,,,,,,,CLR,,,,,,,,VFR,,,,,,,,,,,,METAR,
K40J 052135Z AUTO 32005KT 10SM CLR 16/07 A3008 RMK AO2 T01590070,K40J,2019-01-05T21:35:00Z,30.07,-83.57,15.9,7.0,320,5,,10.0,30.079725,,,TRUE,TRUE,,,,,,,CLR,,,,,,,,VFR,,,,,,,,,,,,SPECI,13.0
K3F3 052135Z AUTO 19005KT 10SM CLR 20/07 A3017 RMK AO2 T01970066,K3F3,2019-01-05T21:35:00Z,32.07,-93.77,19.7,6.6,190,5,,10.0,30.171259,,,TRUE,TRUE,,,,,,,CLR,,,,,,,,VFR,,,,,,,,,,,,SPECI,96.0
K2J5 052135Z AUTO 29004KT 10SM CLR 16/04 A2998 RMK AO2 T01650043,K2J5,2019-01-05T21:35:00Z,32.9,-81.97,16.5,4.3,290,4,,10.0,29.97933,,,TRUE,TRUE,,,,,,,CLR,,,,,,,,VFR,,,,,,,,,,,,METAR,72.0
K1H2 052135Z AUTO 19008KT 10SM CLR 13/07 A3001 RMK AO2 T01280065,K1H2,2019-01-05T21:35:00Z,39.07,-88.53,12.8,6.5,190,8,,10.0,30.008858,,,TRUE,TRUE,,,,,,,CLR,,,,,,,,VFR,,,,,,,,,,,,SPECI,179.0
K19S 052135Z AUTO 18010KT 10SM CLR 13/03 A2993 RMK AO2 T01270031,K19S,2019-01-05T21:35:00Z,37.48,-100.83,12.7,3.1,180,10,,10.0,29.929134,,,TRUE,TRUE,,,,,,,CLR,,,,,,,,VFR,,,,,,,,,,,,SPECI,886.0
K0R4 052135Z AUTO 16006KT 10SM CLR 16/08 A3016 RMK AO2 T01570082,K0R4,2019-01-05T21:35:00Z,31.57,-91.5,15.7,8.2,160,6,,10.0,30.159449,,,TRUE,TRUE,,,,,,,CLR,,,,,,,,VFR,,,,,,,,,,,,SPECI,17.0
K06C 052135Z AUTO 26004KT 10SM CLR 10/03 A2988 RMK AO2 T00950025,K06C,2019-01-05T21:35:00Z,41.98,-88.1,9.5,2.5,260,4,,10.0,29.878937,,,TRUE,TRUE,,,,,,,CLR,,,,,,,,VFR,,,,,,,,,,,,SPECI,244.0
KMTV 052135Z AUTO 32006KT 10SM CLR 13/01 A2987 RMK AO2 T01310006,KMTV,2019-01-05T21:35:00Z,36.63,-80.02,13.1,0.6,320,6,,10.0,29.870079,,,TRUE,TRUE,,,,,,,CLR,,,,,,,,VFR,,,,,,,,,,,,SPECI,287.0
KMQS 052135Z AUTO 30012KT 10SM SCT009 BKN015 06/06 A2961 RMK AO2,KMQS,2019-01-05T21:35:00Z,39.98,-75.87,6.0,6.0,300,12,,10.0,29.610237,,,TRUE,TRUE,,,,,,,SCT,900,BKN,1500,,,,,MVFR,,,,,,,,,,,,SPECI,201.0
KMLE 052135Z AUTO 32004KT 10SM CLR 13/03 A2998 RMK AO2 T01300026,KMLE,2019-01-05T21:35:00Z,41.2,-96.12,13.0,2.6,320,4,,10.0,29.97933,,,TRUE,TRUE,,,,,,,CLR,,,,,,,,VFR,,,,,,,,,,,,SPECI,320.0
KMKJ 052135Z AUTO 27016G29KT 10SM CLR 10/03 A2992 RMK AO2 T01000029,KMKJ,2019-01-05T21:35:00Z,36.88,-81.33,10.0,2.9,270,16,29,10.0,29.920275,,,TRUE,TRUE,,,,,,,CLR,,,,,,,,VFR,,,,,,,,,,,,SPECI,780.0
KMGR 052135Z AUTO 28004KT 10SM CLR 15/06 A3007 RMK AO2,KMGR,2019-01-05T21:35:00Z,31.08,-83.8,15.0,6.0,280,4,,10.0,30.070866,,,TRUE,TRUE,,,,,,,CLR,,,,,,,,VFR,,,,,,,,,,,,SPECI,90.0
KMDQ 052135Z AUTO 32004KT 10SM CLR 14/04 A3010 RMK A02 T01370040,KMDQ,2019-01-05T21:35:00Z,34.87,-86.55,13.7,4.0,320,4,,10.0,30.100393,,,TRUE,TRUE,,,,,,,CLR,,,,,,,,VFR,,,,,,,,,,,,SPECI,230.0
KM30 052135Z AUTO 20004KT 10SM CLR 13/04 A3007 RMK AO2 T01300036,KM30,2019-01-05T21:35:00Z,37.18,-88.75,13.0,3.6,200,4,,10.0,30.070866,,,TRUE,TRUE,,,,,,,CLR,,,,,,,,VFR,,,,,,,,,,,,SPECI,117.0
KLVL 052135Z AUTO 10SM CLR 14/03 A2975 RMK AO1 T01380030,KLVL,2019-01-05T21:35:00Z,36.78,-77.8,13.8,3.0,,,,10.0,29.749016,,,TRUE,TRUE,,,,,,,CLR,,,,,,,,VFR,,,,,,,,,,,,SPECI,100.0
KLOM 052135Z AUTO 30005KT 10SM SCT013 BKN029 OVC080 07/06 A2957 RMK AO1,KLOM,2019-01-05T21:35:00Z,40.13,-75.27,7.0,6.0,300,5,,10.0,29.568897,,,TRUE,TRUE,,,,,,,SCT,1300,BKN,2900,OVC,8000,,,MVFR,,,,,,,,,,,,SPECI,92.0
KLNQ 052135Z AUTO 00000KT 10SM CLR 14/07 A3019 RMK AO2 T01420066,KLNQ,2019-01-05T21:35:00Z,29.35,-89.43,14.2,6.6,0,0,,10.0,30.188976,,,TRUE,TRUE,,,,,,,CLR,,,,,,,,VFR,,,,,,,,,,,,METAR,1.0
KLKU 052135Z AUTO 25005KT 10SM CLR 13/03 A2976 RMK AO2 T01310026,KLKU,2019-01-05T21:35:00Z,38.02,-77.97,13.1,2.6,250,5,,10.0,29.760826,,,TRUE,TRUE,,,,,,,CLR,,,,,,,,VFR,,,,,,,,,,,,SPECI,150.0
KLCG 052135Z AUTO 35005KT 10SM CLR 08/00 A3000 RMK AO2 T00761005,KLCG,2019-01-05T21:35:00Z,42.25,-96.98,7.6,-0.5,350,5,,10.0,30.0,,,TRUE,TRUE,,,,,,,CLR,,,,,,,,VFR,,,,,,,,,,,,SPECI,436.0
KLAM 052135Z AUTO 00000KT 10SM CLR 03/M05 A3015 RMK AO2 T00311048,KLAM,2019-01-05T21:35:00Z,35.87,-106.27,3.1,-4.8,0,0,,10.0,30.15059,,,TRUE,TRUE,,,,,,,CLR,,,,,,,,VFR,,,,,,,,,,,,SPECI,2179.0
KL35 052135Z AUTO 30012G15KT 4SM -SN BKN019 OVC031 01/M01 A2994 RMK AO2,KL35,2019-01-05T21:35:00Z,34.27,-116.85,1.0,-1.0,300,12,15,4.0,29.940945,,,TRUE,TRUE,,,,,,-SN,BKN,1900,OVC,3100,,,,,MVFR,,,,,,,,,,,,SPECI,2059.0
KJZP 052135Z AUTO 34010G15KT 10SM CLR 12/02 A3007 RMK AO2 T01200016 PNO,KJZP,2019-01-05T21:35:00Z,34.45,-84.47,12.0,1.6,340,10,15,10.0,30.070866,,,TRUE,TRUE,,,,,,,CLR,,,,,,,,VFR,,,,,,,,,,,,SPECI,468.0
KJYO 052135Z AUTO 31017G21KT 10SM CLR 11/04 A2970 RMK AO2,KJYO,2019-01-05T21:35:00Z,39.07,-77.57,11.0,4.0,310,17,21,10.0,29.698818,,,TRUE,TRUE,,,,,,,CLR,,,,,,,,VFR,,,,,,,,,,,,SPECI,119.0
KJWG 052135Z AUTO 19007KT 10SM CLR 17/04 A3000 RMK AO2 T01720037,KJWG,2019-01-05T21:35:00Z,35.87,-98.42,17.2,3.7,190,7,,10.0,30.0,,,TRUE,TRUE,,,,,,,CLR,,,,,,,,VFR,,,,,,,,,,,,SPECI,472.0
KJKA 052135Z AUTO 31008KT 10SM CLR 17/03 A3015 RMK AO2 T01660034,KJKA,2019-01-05T21:35:00Z,30.28,-87.67,16.6,3.4,310,8,,10.0,30.15059,,,TRUE,TRUE,,,,,,,CLR,,,,,,,,VFR,,,,,,,,,,,,SPECI,5.0
KJGG 052135Z AUTO 30005G14KT 10SM CLR 15/06 A2971 RMK AO1,KJGG,2019-01-05T21:35:00Z,37.23,-76.72,15.0,6.0,300,5,14,10.0,29.71063,,,TRUE,TRUE,,,,,,,CLR,,,,,,,,VFR,,,,,,,,,,,,SPECI,15.0
KJCA 052135Z AUTO 28009G16KT 10SM CLR 14/03 A3001 RMK AO2 PWINO T01410025,KJCA,2019-01-05T21:35:00Z,34.18,-83.57,14.1,2.5,280,9,16,10.0,30.008858,,,TRUE,TRUE,,,,,TRUE,,CLR,,,,,,,,VFR,,,,,,,,,,,,SPECI,290.0
KJAS 052135Z AUTO 21004KT 10SM CLR 21/08 A3017 RMK AO2 T02050075,KJAS,2019-01-05T21:35:00Z,30.88,-94.03,20.5,7.5,210,4,,10.0,30.171259,,,TRUE,TRUE,,,,,,,CLR,,,,,,,,VFR,,,,,,,,,,,,SPECI,65.0
KIKK 052135Z AUTO 26007KT 10SM CLR 11/06 A2992 RMK AO2 T01110056,KIKK,2019-01-05T21:35:00Z,41.07,-87.85,11.1,5.6,260,7,,10.0,29.920275,,,TRUE,TRUE,,,,,,,CLR,,,,,,,,VFR,,,,,,,,,,,,SPECI,192.0
KHWY 052135Z AUTO 31006KT 10SM CLR 13/01 A2971 RMK AO2 T01270012,KHWY,2019-01-05T21:35:00Z,38.58,-77.72,12.7,1.2,310,6,,10.0,29.71063,,,TRUE,TRUE,,,,,,,CLR,,,,,,,,VFR,,,,,,,,,,,,SPECI,103.0
KHSP 052135Z AUTO 29018G25KT 10SM CLR 05/02 A2978 RMK AO2 T00500022,KHSP,2019-01-05T21:35:00Z,37.95,-79.82,5.0,2.2,290,18,25,10.0,29.778543,,,TRUE,TRUE,,,,,,,CLR,,,,,,,,VFR,,,,,,,,,,,,SPECI,1156.0
KHQG 052135Z AUTO 20004KT 10SM CLR 06/01 A2993 RMK AO2 T00570006,KHQG,2019-01-05T21:35:00Z,37.17,-101.37,5.7,0.6,200,4,,10.0,29.929134,,,TRUE,TRUE,,,,,,,CLR,,,,,,,,VFR,,,,,,,,,,,,SPECI,956.0
KHQG 052135Z AUTO 20004KT 10SM CLR 06/01 A2993 RMK AO2 T00570006,KHQG,2019-01-05T21:35:00Z,37.17,-101.37,5.7,0.6,200,4,,10.0,29.929134,,,TRUE,TRUE,,,,,,,CLR,,,,,,,,VFR,,,,,,,,,,,,SPECI,956.0
KHLX 052135Z AUTO 28011G19KT 10SM CLR 09/01 A2986 RMK AO2 T00880010,KHLX,2019-01-05T21:35:00Z,36.77,-80.82,8.8,1.0,280,11,19,10.0,29.861221,,,TRUE,TRUE,,,,,,,CLR,,,,,,,,VFR,,,,,,,,,,,,SPECI,834.0
KHJH 052135Z AUTO 19005KT 10SM CLR 16/01 A2997 RMK AO2 T01600008,KHJH,2019-01-05T21:35:00Z,40.15,-97.58,16.0,0.8,190,5,,10.0,29.970472,,,TRUE,TRUE,,,,,,,CLR,,,,,,,,VFR,,,,,,,,,,,,SPECI,447.0
KHDE 052135Z AUTO 36003KT 10SM CLR 09/02 A2997 RMK AO2 T00880020,KHDE,2019-01-05T21:35:00Z,40.45,-99.32,8.8,2.0,360,3,,10.0,29.970472,,,TRUE,TRUE,,,,,,,CLR,,,,,,,,VFR,,,,,,,,,,,,SPECI,705.0
KGRN 052135Z AUTO 11008KT 10SM CLR 10/M03 A2996 RMK AO2 T01031031,KGRN,2019-01-05T21:35:00Z,42.8,-102.17,10.3,-3.1,110,8,,10.0,29.958662,,,TRUE,TRUE,,,,,,,CLR,,,,,,,,VFR,,,,,,,,,,,,SPECI,1086.0
KGOP 052135Z AUTO 19008KT 10SM CLR 23/M00 A3009 RMK AO2,KGOP,2019-01-05T21:35:00Z,31.42,-97.8,23.0,0.0,190,8,,10.0,30.088583,,,TRUE,TRUE,,,,,,,CLR,,,,,,,,VFR,,,,,,,,,,,,SPECI,276.0
KGLE 052135Z AUTO 18007KT 10SM CLR 18/04 A3006 RMK AO2 T01810035,KGLE,2019-01-05T21:35:00Z,33.65,-97.2,18.1,3.5,180,7,,10.0,30.059055,,,TRUE,TRUE,,,,,,,CLR,,,,,,,,VFR,,,,,,,,,,,,SPECI,256.0
KGHG 052135Z AUTO 36007G14KT 330V040 1 3/4SM -RA OVC003 06/06 A2945 RMK AO2 LTG DSNT SE,KGHG,2019-01-05T21:35:00Z,42.1,-70.67,6.0,6.0,360,7,14,1.75,29.450787,,,TRUE,TRUE,,,,,,-RA,OVC,300,,,,,,,LIFR,,,,,,,,,,,,SPECI,4.0
KGBG 052135Z AUTO 23007KT 10SM CLR 11/04 A2996 RMK AO2 T01050042,KGBG,2019-01-05T21:35:00Z,40.93,-90.43,10.5,4.2,230,7,,10.0,29.958662,,,TRUE,TRUE,,,,,,,CLR,,,,,,,,VFR,,,,,,,,,,,,SPECI,233.0
KFZG 052135Z AUTO 28008KT 10SM CLR 17/06 A3006 RMK AO2 T01650060 PWINO,KFZG,2019-01-05T21:35:00Z,31.68,-83.27,16.5,6.0,280,8,,10.0,30.059055,,,TRUE,TRUE,,,,,TRUE,,CLR,,,,,,,,VFR,,,,,,,,,,,,SPECI,111.0
KBYS 052135Z AUTO 10005KT 10SM SCT050 BKN065 09/M08 A2995 RMK AO2 SLP165 WND DATA ESTMD,KBYS,2019-01-05T21:35:00Z,35.28,-116.62,9.0,-8.0,100,5,,10.0,29.949802,1016.5,,TRUE,TRUE,,,,,,,SCT,5000,BKN,6500,,,,,VFR,,,,,,,,,,,,SPECI,716.0
KCNI 052135Z AUTO 31006G19KT 10SM CLR 15/M01 A3005 RMK AO2,KCNI,2019-01-05T21:35:00Z,34.32,-84.42,15.0,-1.0,310,6,19,10.0,30.050198,,,TRUE,TRUE,,,,,,,CLR,,,,,,,,VFR,,,,,,,,,,,,SPECI,372.0
KCIR 052135Z AUTO 18006KT 10SM CLR 12/06 A3006 RMK AO2 T01200061,KCIR,2019-01-05T21:35:00Z,37.07,-89.22,12.0,6.1,180,6,,10.0,30.059055,,,TRUE,TRUE,,,,,,,CLR,,,,,,,,VFR,,,,,,,,,,,,SPECI,98.0
KCFE 052135Z AUTO 29005KT 10SM CLR 05/M01 A2997 RMK AO2 T00541010,KCFE,2019-01-05T21:35:00Z,45.17,-93.85,5.4,-1.0,290,5,,10.0,29.970472,,,TRUE,TRUE,,,,,,,CLR,,,,,,,,VFR,,,,,,,,,,,,SPECI,295.0
KCEY 052135Z AUTO 23007KT 10SM CLR 13/04 A3007 RMK AO1,KCEY,2019-01-05T21:35:00Z,36.67,-88.37,13.0,4.0,230,7,,10.0,30.070866,,,TRUE,TRUE,,,,,,,CLR,,,,,,,,VFR,,,,,,,,,,,,SPECI,176.0
KBXK 052135Z AUTO 13005KT 10SM CLR 17/01 A2999 RMK AO1,KBXK,2019-01-05T21:35:00Z,33.42,-112.68,17.0,1.0,130,5,,10.0,29.991142,,,TRUE,TRUE,,,,,,,CLR,,,,,,,,VFR,,,,,,,,,,,,SPECI,315.0
KBVN 052135Z AUTO 34004KT 10SM CLR 09/03 A2999 RMK AO2 T00940033,KBVN,2019-01-05T21:35:00Z,41.73,-98.05,9.4,3.3,340,4,,10.0,29.991142,,,TRUE,TRUE,,,,,,,CLR,,,,,,,,VFR,,,,,,,,,,,,SPECI,551.0
KBTA 052135Z AUTO 00000KT 10SM CLR 12/02 A2997 RMK AO2 T01220023,KBTA,2019-01-05T21:35:00Z,41.42,-96.12,12.2,2.3,0,0,,10.0,29.970472,,,TRUE,TRUE,,,,,,,CLR,,,,,,,,VFR,,,,,,,,,,,,SPECI,396.0
KBQX 052135Z AUTO 10004KT 10SM CLR 18/13 A3016 RMK A01,KBQX,2019-01-05T21:35:00Z,28.5,-95.72,18.0,13.0,100,4,,10.0,30.159449,,,TRUE,TRUE,,,,,,,CLR,,,,,,,,VFR,,,,,,,,,,,,SPECI,34.0
KBQP 052135Z AUTO 22004KT 10SM CLR 18/03 A3015 RMK AO2 T01770028,KBQP,2019-01-05T21:35:00Z,32.75,-91.88,17.7,2.8,220,4,,10.0,30.15059,,,TRUE,TRUE,,,,,,,CLR,,,,,,,,VFR,,,,,,,,,,,,SPECI,51.0
KBMT 052135Z AUTO 26003KT 10SM CLR 21/07 A3016 RMK AO2 T02060067,KBMT,2019-01-05T21:35:00Z,30.07,-94.22,20.6,6.7,260,3,,10.0,30.159449,,,TRUE,TRUE,,,,,,,CLR,,,,,,,,VFR,,,,,,,,,,,,SPECI,10.0
KBKT 052135Z AUTO 27010G17KT 10SM CLR 14/03 A2975 RMK AO1 T01350025,KBKT,2019-01-05T21:35:00Z,37.07,-77.95,13.5,2.5,270,10,17,10.0,29.749016,,,TRUE,TRUE,,,,,,,CLR,,,,,,,,VFR,,,,,,,,,,,,SPECI,134.0
KBIJ 052135Z AUTO 31005KT 10SM CLR 16/02 A3009 RMK AO2,KBIJ,2019-01-05T21:35:00Z,31.4,-84.9,16.0,2.0,310,5,,10.0,30.088583,,,TRUE,TRUE,,,,,,,CLR,,,,,,,,VFR,,,,,,,,,,,,SPECI,65.0
KBIE 052135Z AUTO 22004KT 10SM CLR 17/03 A2997 RMK AO2 T01690033,KBIE,2019-01-05T21:35:00Z,40.28,-96.75,16.9,3.3,220,4,,10.0,29.970472,,,TRUE,TRUE,,,,,,,CLR,,,,,,,,VFR,,,,,,,,,,,,SPECI,403.0
KBFW 052135Z AUTO 31003KT 10SM OVC017 01/00 A2990 RMK AO2,KBFW,2019-01-05T21:35:00Z,47.25,-91.4,1.0,0.0,310,3,,10.0,29.899607,,,TRUE,TRUE,,,,,,,OVC,1700,,,,,,,MVFR,,,,,,,,,,,,SPECI,331.0
KBBF 052135Z AUTO 16005KT 10SM CLR 19/11 A3013 RMK A01,KBBF,2019-01-05T21:35:00Z,27.83,-96.02,19.0,11.0,160,5,,10.0,30.129921,,,TRUE,TRUE,,,,,,,CLR,,,,,,,,VFR,,,,,,,,,,,,SPECI,36.0
KBBD 052135Z AUTO 21010KT 10SM CLR 22/M03 A3007 RMK AO2,KBBD,2019-01-05T21:35:00Z,31.18,-99.32,22.0,-3.0,210,10,,10.0,30.070866,,,TRUE,TRUE,,,,,,,CLR,,,,,,,,VFR,,,,,,,,,,,,SPECI,557.0
KAYS 052135Z AUTO 31007KT 10SM CLR 16/03 A3003 RMK AO2 T01550026,KAYS,2019-01-05T21:35:00Z,31.25,-82.4,15.5,2.6,310,7,,10.0,30.029528,,,TRUE,TRUE,,,,,,,CLR,,,,,,,,VFR,,,,,,,,,,,,SPECI,46.0
KAVQ 052135Z AUTO 11004KT 10SM CLR 22/00 RMK AO2 T02201005,KAVQ,2019-01-05T21:35:00Z,32.4,-111.22,22.0,-0.5,110,4,,10.0,,,,TRUE,TRUE,,,,,,,CLR,,,,,,,,VFR,,,,,,,,,,,,SPECI,619.0
KAUN 052135Z AUTO 13018G34KT 8SM OVC046 07/03 A2970 RMK A01,KAUN,2019-01-05T21:35:00Z,38.95,-121.08,7.0,3.0,130,18,34,8.0,29.698818,,,TRUE,TRUE,,,,,,,OVC,4600,,,,,,,VFR,,,,,,,,,,,,SPECI,467.0
KAUH 052135Z AUTO 00000KT 10SM CLR 12/03 A2998 RMK AO2 T01160031,KAUH,2019-01-05T21:35:00Z,40.88,-98.0,11.6,3.1,0,0,,10.0,29.97933,,,TRUE,TRUE,,,,,,,CLR,,,,,,,,VFR,,,,,,,,,,,,SPECI,550.0
KATP 052135Z AUTO 34008KT 10SM CLR 18/12 A3018 RMK A01,KATP,2019-01-05T21:35:00Z,27.2,-90.03,18.0,12.0,340,8,,10.0,30.180119,,,TRUE,TRUE,,,,,,,CLR,,,,,,,,VFR,,,,,,,,,,,,METAR,62.0
KASL 052135Z AUTO 19004KT 10SM CLR 20/02 A3014 RMK AO1 T01970015,KASL,2019-01-05T21:35:00Z,32.52,-94.3,19.7,1.5,190,4,,10.0,30.138779,,,TRUE,TRUE,,,,,,,CLR,,,,,,,,VFR,,,,,,,,,,,,SPECI,109.0
KANW 052135Z AUTO 06003KT 10SM CLR 08/00 A3000 RMK AO2 T00810002,KANW,2019-01-05T21:35:00Z,42.57,-100.0,8.1,0.2,60,3,,10.0,30.0,,,TRUE,TRUE,,,,,,,CLR,,,,,,,,VFR,,,,,,,,,,,,SPECI,789.0
KALX 052135Z AUTO 29006KT 10SM CLR 15/05 A3010 RMK AO2 T01530047,KALX,2019-01-05T21:35:00Z,32.92,-85.97,15.3,4.7,290,6,,10.0,30.100393,,,TRUE,TRUE,,,,,,,CLR,,,,,,,,VFR,,,,,,,,,,,,METAR,209.0
KAHQ 052135Z AUTO 01005KT 10SM CLR 11/04 A2998 RMK AO2 T01050040,KAHQ,2019-01-05T21:35:00Z,41.23,-96.6,10.5,4.0,10,5,,10.0,29.97933,,,TRUE,TRUE,,,,,,,CLR,,,,,,,,VFR,,,,,,,,,,,,SPECI,374.0
KADH 052135Z AUTO 16006KT 10SM CLR 20/02 A3005 RMK AO2,KADH,2019-01-05T21:35:00Z,34.8,-96.67,20.0,2.0,160,6,,10.0,30.050198,,,TRUE,TRUE,,,,,,,CLR,,,,,,,,VFR,,,,,,,,,,,,METAR,308.0
KA39 052135Z AUTO 33003KT 10SM CLR 17/04 A3001 RMK AO2,KA39,2019-01-05T21:35:00Z,32.98,-111.92,17.0,4.0,330,3,,10.0,30.008858,,,TRUE,TRUE,,,,,,,CLR,,,,,,,,VFR,,,,,,,,,,,,SPECI,396.0
K8W2 052135Z AUTO 20006KT 10SM CLR 11/01 A2974 RMK AO1 T01070011,K8W2,2019-01-05T21:35:00Z,38.65,-78.7,10.7,1.1,200,6,,10.0,29.740158,,,TRUE,TRUE,,,,,,,CLR,,,,,,,,VFR,,,,,,,,,,,,METAR,297.0
K8A0 052135Z AUTO 29005KT 10SM CLR 13/01 A3009 RMK AO2,K8A0,2019-01-05T21:35:00Z,34.23,-86.25,13.0,1.0,290,5,,10.0,30.088583,,,TRUE,TRUE,,,,,,,CLR,,,,,,,,VFR,,,,,,,,,,,,METAR,315.0
K4O4 052135Z AUTO 00000KT 10SM CLR 19/01 A3010 RMK AO2,K4O4,2019-01-05T21:35:00Z,33.92,-94.87,19.0,1.0,0,0,,10.0,30.100393,,,TRUE,TRUE,,,,,,,CLR,,,,,,,,VFR,,,,,,,,,,,,SPECI,144.0
K3N8 052135Z AUTO 32008KT 10SM OVC007 M03/M04 A3003 RMK AO2 T10281039,K3N8,2019-01-05T21:35:00Z,47.25,-95.88,-2.8,-3.9,320,8,,10.0,30.029528,,,TRUE,TRUE,,,,,,,OVC,700,,,,,,,IFR,,,,,,,,,,,,SPECI,383.0
K2J3 052135Z AUTO 30008G14KT 10SM CLR 16/04 A2999 RMK AO2 T01620036,K2J3,2019-01-05T21:35:00Z,32.98,-82.38,16.2,3.6,300,8,14,10.0,29.991142,,,TRUE,TRUE,,,,,,,CLR,,,,,,,,VFR,,,,,,,,,,,,METAR,100.0
K2I0 052135Z AUTO 28005KT 10SM CLR 14/06 A3006 RMK AO2 T01400062,K2I0,2019-01-05T21:35:00Z,37.35,-87.4,14.0,6.2,280,5,,10.0,30.059055,,,TRUE,TRUE,,,,,,,CLR,,,,,,,,VFR,,,,,,,,,,,,SPECI,134.0
K2G9 052135Z AUTO 27010G18KT 10SM CLR 05/00 A2976 RMK AO2,K2G9,2019-01-05T21:35:00Z,40.03,-79.02,5.0,0.0,270,10,18,10.0,29.760826,,,TRUE,TRUE,,,,,,,CLR,,,,,,,,VFR,,,,,,,,,,,,SPECI,693.0
K1F0 052135Z AUTO 10SM CLR 20/00 A3004 RMK AO2 TSNO,K1F0,2019-01-05T21:35:00Z,34.15,-97.12,20.0,0.0,,,,10.0,30.041338,,,TRUE,TRUE,,,TRUE,,,,CLR,,,,,,,,VFR,,,,,,,,,,,,METAR,257.0
K1A6 052135Z AUTO 00000KT 10SM CLR 12/02 A3003 RMK AO2 T01200021,K1A6,2019-01-05T21:35:00Z,36.62,-83.73,12.0,2.1,0,0,,10.0,30.029528,,,TRUE,TRUE,,,,,,,CLR,,,,,,,,VFR,,,,,,,,,,,,METAR,352.0
K18H 052135Z AUTO 07006KT 4SM HZ SCT023 22/14 A3015 RMK A01,K18H,2019-01-05T21:35:00Z,26.13,-92.03,22.0,14.0,70,6,,4.0,30.15059,,,TRUE,TRUE,,,,,,HZ,SCT,2300,,,,,,,MVFR,,,,,,,,,,,,METAR,10.0
K13K 052135Z AUTO 21010KT 10SM CLR 18/00 A3001 RMK AO2 T01791002,K13K,2019-01-05T21:35:00Z,37.85,-96.3,17.9,-0.2,210,10,,10.0,30.008858,,,TRUE,TRUE,,,,,,,CLR,,,,,,,,VFR,,,,,,,,,,,,METAR,369.0
KW81 052135Z AUTO 27005KT 10SM CLR 13/01 A2975 RMK AO1 T01320005,KW81,2019-01-05T21:35:00Z,37.18,-78.1,13.2,0.5,270,5,,10.0,29.749016,,,TRUE,TRUE,,,,,,,CLR,,,,,,,,VFR,,,,,,,,,,,,SPECI,129.0
KW13 052135Z AUTO 27005KT 10SM CLR 12/01 A2976 RMK AO1 T01170006,KW13,2019-01-05T21:35:00Z,38.08,-78.95,11.7,0.6,270,5,,10.0,29.760826,,,TRUE,TRUE,,,,,,,CLR,,,,,,,,VFR,,,,,,,,,,,,SPECI,443.0
KVQT 052135Z AUTO 00000KT 10SM CLR 18/12 A3020 RMK A01,KVQT,2019-01-05T21:35:00Z,28.27,-92.27,18.0,12.0,0,0,,10.0,30.200787,,,TRUE,TRUE,,,,,,,CLR,,,,,,,,VFR,,,,,,,,,,,,SPECI,25.0
KVOA 052135Z AUTO 34007KT 10SM CLR 14/08 A3014 RMK A01,KVOA,2019-01-05T21:35:00Z,29.23,-87.78,14.0,8.0,340,7,,10.0,30.138779,,,TRUE,TRUE,,,,,,,CLR,,,,,,,,VFR,,,,,,,,,,,,SPECI,53.0
KVKY 052135Z AUTO 35009KT 10SM CLR 14/08 A3018 RMK A01,KVKY,2019-01-05T21:35:00Z,29.25,-88.43,14.0,8.0,350,9,,10.0,30.180119,,,TRUE,TRUE,,,,,,,CLR,,,,,,,,VFR,,,,,,,,,,,,SPECI,32.0
KVBS 052135Z AUTO 19003KT 10SM CLR 16/11 A3017 RMK A01,KVBS,2019-01-05T21:35:00Z,29.48,-93.63,16.0,11.0,190,3,,10.0,30.171259,,,TRUE,TRUE,,,,,,,CLR,,,,,,,,VFR,,,,,,,,,,,,SPECI,31.0
KVAF 052135Z AUTO 14004KT 7SM CLR 19/12 A3015 RMK A01,KVAF,2019-01-05T21:35:00Z,27.35,-94.63,19.0,12.0,140,4,,7.0,30.15059,,,TRUE,TRUE,,,,,,,CLR,,,,,,,,VFR,,,,,,,,,,,,SPECI,46.0
KUTA 052135Z AUTO 19005KT 10SM 12/07 A3014 RMK AO2 TSNO,KUTA,2019-01-05T21:35:00Z,34.68,-90.35,12.0,7.0,190,5,,10.0,30.138779,,,TRUE,TRUE,,,TRUE,,,,,,,,,,,,,,,,,,,,,,,,SPECI,59.0
KTVI 052135Z AUTO 31004KT 10SM CLR 15/06 A3008 RMK AO2,KTVI,2019-01-05T21:35:00Z,30.9,-83.88,15.0,6.0,310,4,,10.0,30.079725,,,TRUE,TRUE,,,,,,,CLR,,,,,,,,VFR,,,,,,,,,,,,SPECI,80.0
KSZT 052135Z AUTO 03015KT 10SM CLR 03/M01 A2964 RMK AO2,KSZT,2019-01-05T21:35:00Z,48.3,-116.57,3.0,-1.0,30,15,,10.0,29.639763,,,TRUE,TRUE,,,,,,,CLR,,,,,,,,VFR,,,,,,,,,,,,SPECI,648.0
KSTE 052135Z AUTO 27010KT 10SM CLR 07/00 A2983 RMK AO2 T00661005,KSTE,2019-01-05T21:35:00Z,44.55,-89.53,6.6,-0.5,270,10,,10.0,29.828741,,,TRUE,TRUE,,,,,,,CLR,,,,,,,,VFR,,,,,,,,,,,,SPECI,338.0
KSRR 052135Z AUTO 36004KT 10SM CLR 12/M08 A3016 RMK AO2,KSRR,2019-01-05T21:35:00Z,33.47,-105.52,12.0,-8.0,360,4,,10.0,30.159449,,,TRUE,TRUE,,,,,,,CLR,,,,,,,,VFR,,,,,,,,,,,,SPECI,2076.0
KSCF 052135Z AUTO 00000KT 10SM CLR 15/09 A3013 RMK A01,KSCF,2019-01-05T21:35:00Z,29.12,-91.87,15.0,9.0,0,0,,10.0,30.129921,,,TRUE,TRUE,,,,,,,CLR,,,,,,,,VFR,,,,,,,,,,,,SPECI,8.0
KS52 052135Z AUTO 00000KT 10SM BKN050 00/M01 A2960 RMK AO2 T10021012,KS52,2019-01-05T21:35:00Z,48.38,-120.15,-0.2,-1.2,0,0,,10.0,29.601377,,,TRUE,TRUE,,,,,,,BKN,5000,,,,,,,VFR,,,,,,,,,,,,METAR,520.0
KRPH 052135Z AUTO 14004KT 10SM CLR 23/04 A3001 RMK AO2 T02250040,KRPH,2019-01-05T21:35:00Z,33.12,-98.55,22.5,4.0,140,4,,10.0,30.008858,,,TRUE,TRUE,,,,,,,CLR,,,,,,,,VFR,,,,,,,,,,,,SPECI,342.0
KRNV 052135Z AUTO 20007KT 10SM CLR 14/06 A3013 RMK AO2 T01400057,KRNV,2019-01-05T21:35:00Z,33.77,-90.75,14.0,5.7,200,7,,10.0,30.129921,,,TRUE,TRUE,,,,,,,CLR,,,,,,,,VFR,,,,,,,,,,,,SPECI,41.0
KRLD 052135Z AUTO 03003KT 10SM CLR 06/01 A2958 RMK AO2 T00580011,KRLD,2019-01-05T21:35:00Z,46.3,-119.3,5.8,1.1,30,3,,10.0,29.58071,,,TRUE,TRUE,,,,,,,CLR,,,,,,,,VFR,,,,,,,,,,,,SPECI,120.0
KPSN 052135Z AUTO 18006KT 10SM CLR 20/03 A3011 RMK AO2 T02080040,KPSN,2019-01-05T21:35:00Z,31.78,-95.7,20.8,4.0,180,6,,10.0,30.109253,,,TRUE,TRUE,,,,,,,CLR,,,,,,,,VFR,,,,,,,,,,,,SPECI,129.0
KPPQ 052135Z AUTO 23008KT 10SM CLR 14/04 A3000 RMK AO2 T01400041,KPPQ,2019-01-05T21:35:00Z,39.63,-90.78,14.0,4.1,230,8,,10.0,30.0,,,TRUE,TRUE,,,,,,,CLR,,,,,,,,VFR,,,,,,,,,,,,SPECI,216.0
KPOY 052135Z AUTO 12011KT 10SM CLR 01/M05 A2984 RMK AO2,KPOY,2019-01-05T21:35:00Z,44.87,-108.8,1.0,-5.0,120,11,,10.0,29.840551,,,TRUE,TRUE,,,,,,,CLR,,,,,,,,VFR,,,,,,,,,,,,SPECI,1552.0
KPMV 052135Z AUTO 30004KT 10SM CLR 14/03 A2997 RMK AO2 T01350031,KPMV,2019-01-05T21:35:00Z,40.95,-95.92,13.5,3.1,300,4,,10.0,29.970472,,,TRUE,TRUE,,,,,,,CLR,,,,,,,,VFR,,,,,,,,,,,,SPECI,367.0
KPEQ 052135Z AUTO 11004KT 10SM CLR 20/M07 A3005 RMK AO2 T01961067,KPEQ,2019-01-05T21:35:00Z,31.38,-103.52,19.6,-6.7,110,4,,10.0,30.050198,,,TRUE,TRUE,,,,,,,CLR,,,,,,,,VFR,,,,,,,,,,,,SPECI,797.0
KOZS 052135Z AUTO 25005KT 10SM CLR 16/01 A3004 RMK AO2,KOZS,2019-01-05T21:35:00Z,37.97,-92.68,16.0,1.0,250,5,,10.0,30.041338,,,TRUE,TRUE,,,,,,,CLR,,,,,,,,VFR,,,,,,,,,,,,SPECI,324.0
KOKM 052135Z AUTO 13007KT 10SM CLR 20/04 A3005 RMK AO2 T01970035,KOKM,2019-01-05T21:35:00Z,35.67,-95.95,19.7,3.5,130,7,,10.0,30.050198,,,TRUE,TRUE,,,,,,,CLR,,,,,,,,VFR,,,,,,,,,,,,SPECI,220.0
KOCQ 052135Z AUTO 29008KT 10SM CLR 07/00 A2976 RMK AO1 T00701001,KOCQ,2019-01-05T21:35:00Z,44.87,-87.92,7.0,-0.1,290,8,,10.0,29.760826,,,TRUE,TRUE,,,,,,,CLR,,,,,,,,VFR,,,,,,,,,,,,SPECI,183.0
KMIS 052135Z AUTO 35007KT 10SM CLR 14/07 A3018 RMK A01,KMIS,2019-01-05T21:35:00Z,29.3,-88.85,14.0,7.0,350,7,,10.0,30.180119,,,TRUE,TRUE,,,,,,,CLR,,,,,,,,VFR,,,,,,,,,,,,SPECI,32.0
KMEZ 052135Z AUTO 25005KT 10SM CLR 20/04 A3009 RMK AO2,KMEZ,2019-01-05T21:35:00Z,34.55,-94.2,20.0,4.0,250,5,,10.0,30.088583,,,TRUE,TRUE,,,,,,,CLR,,,,,,,,VFR,,,,,,,,,,,,SPECI,329.0
KMDJ 052135Z AUTO 35005KT 10SM CLR 13/09 A3020 RMK A01,KMDJ,2019-01-05T21:35:00Z,28.65,-89.8,13.0,9.0,350,5,,10.0,30.200787,,,TRUE,TRUE,,,,,,,CLR,,,,,,,,VFR,,,,,,,,,,,,SPECI,31.0
KLYO 052135Z AUTO 15010KT 10SM CLR 17/03 A2996 RMK AO2 T01650033,KLYO,2019-01-05T21:35:00Z,38.35,-98.23,16.5,3.3,150,10,,10.0,29.958662,,,TRUE,TRUE,,,,,,,CLR,,,,,,,,VFR,,,,,,,,,,,,SPECI,515.0
KLXN 052135Z AUTO 31003KT 10SM CLR 08/03 A2997 RMK AO2 T00780030,KLXN,2019-01-05T21:35:00Z,40.78,-99.77,7.8,3.0,310,3,,10.0,29.970472,,,TRUE,TRUE,,,,,,,CLR,,,,,,,,VFR,,,,,,,,,,,,SPECI,734.0
KLUV 052135Z AUTO 20005KT 10SM CLR 19/M04 A3004 RMK AO2,KLUV,2019-01-05T21:35:00Z,32.75,-101.92,19.0,-4.0,200,5,,10.0,30.041338,,,TRUE,TRUE,,,,,,,CLR,,,,,,,,VFR,,,,,,,,,,,,SPECI,912.0
KLUA 052135Z AUTO 00000KT 10SM CLR 12/01 A2974 RMK AO2,KLUA,2019-01-05T21:35:00Z,38.67,-78.5,12.0,1.0,0,0,,10.0,29.740158,,,TRUE,TRUE,,,,,,,CLR,,,,,,,,VFR,,,,,,,,,,,,SPECI,275.0
KLRU 052135Z AUTO 12004KT 10SM CLR 14/M05 A3014 RMK AO2 T01351050,KLRU,2019-01-05T21:35:00Z,32.27,-106.92,13.5,-5.0,120,4,,10.0,30.138779,,,TRUE,TRUE,,,,,,,CLR,,,,,,,,VFR,,,,,,,,,,,,SPECI,1358.0
KLNN 052135Z 29005KT 10SM CLR A2980 RMK AO1,KLNN,2019-01-05T21:35:00Z,41.67,-81.37,,,290,5,,10.0,29.799213,,,,TRUE,,,,,,,CLR,,,,,,,,VFR,,,,,,,,,,,,SPECI,191.0
KLHB 052135Z AUTO 13006KT 10SM CLR 21/07 A3011 RMK AO2 T02100070,KLHB,2019-01-05T21:35:00Z,30.87,-96.62,21.0,7.0,130,6,,10.0,30.109253,,,TRUE,TRUE,,,,,,,CLR,,,,,,,,VFR,,,,,,,,,,,,SPECI,87.0
KXPY 052135Z AUTO VRB04KT 10SM CLR 16/10 A3019 RMK A01,KXPY,2019-01-05T21:35:00Z,29.12,-90.2,16.0,10.0,0,4,,10.0,30.188976,,,TRUE,TRUE,,,,,,,CLR,,,,,,,,VFR,,,,,,,,,,,,SPECI,2.0
KXIH 052135Z AUTO 12006KT 10SM CLR A3016 RMK A01,KXIH,2019-01-05T21:35:00Z,29.18,-94.52,,,120,6,,10.0,30.159449,,,TRUE,TRUE,,,,,,,CLR,,,,,,,,VFR,,,,,,,,,,,,SPECI,75.0
KXER 052135Z AUTO 00000KT 10SM CLR 17/11 A3020 RMK A01,KXER,2019-01-05T21:35:00Z,,,17.0,11.0,0,0,,10.0,30.200787,,,TRUE,TRUE,,,,,,,CLR,,,,,,,,VFR,,,,,,,,,,,,METAR,
KXBP 052135Z AUTO 19007KT 10SM CLR 23/M02 A3005 RMK AO2 T02261023 PNO,KXBP,2019-01-05T21:35:00Z,33.18,-97.83,22.6,-2.3,190,7,,10.0,30.050198,,,TRUE,TRUE,,,,,,,CLR,,,,,,,,VFR,,,,,,,,,,,,SPECI,260.0
KWWR 052135Z AUTO 17011G17KT 10SM CLR 20/M04 A2998 RMK AO2,KWWR,2019-01-05T21:35:00Z,36.45,-99.52,20.0,-4.0,170,11,17,10.0,29.97933,,,TRUE,TRUE,,,,,,,CLR,,,,,,,,VFR,,,,,,,,,,,,SPECI,667.0
KJFZ 052135Z AUTO 31007KT 10SM CLR 07/01 A2996 RMK AO2 T00700005,KJFZ,2019-01-05T21:35:00Z,37.07,-81.8,7.0,0.5,310,7,,10.0,29.958662,,,TRUE,TRUE,,,,,,,CLR,,,,,,,,VFR,,,,,,,,,,,,SPECI,809.0
KIOB 052135Z AUTO 25008KT 10SM CLR 10/03 A3000 RMK AO2,KIOB,2019-01-05T21:35:00Z,38.05,-83.98,10.0,3.0,250,8,,10.0,30.0,,,TRUE,TRUE,,,,,,,CLR,,,,,,,,VFR,,,,,,,,,,,,SPECI,311.0
KIKT 052135Z AUTO VRB04G13KT 8SM CLR 17/09 A3016 RMK A01,KIKT,2019-01-05T21:35:00Z,28.52,-88.28,17.0,9.0,0,4,13,8.0,30.159449,,,TRUE,TRUE,,,,,,,CLR,,,,,,,,VFR,,,,,,,,,,,,SPECI,25.0
KIBM 052135Z AUTO 07003KT 10SM CLR 12/M08 A2995 RMK AO2 T01211082,KIBM,2019-01-05T21:35:00Z,41.18,-103.68,12.1,-8.2,70,3,,10.0,29.949802,,,TRUE,TRUE,,,,,,,CLR,,,,,,,,VFR,,,,,,,,,,,,SPECI,1501.0
KHYW 052135Z AUTO 29004KT 7SM CLR 15/05 A2988 RMK AO2,KHYW,2019-01-05T21:35:00Z,33.83,-79.12,15.0,5.0,290,4,,7.0,29.878937,,,TRUE,TRUE,,,,,,,CLR,,,,,,,,VFR,,,,,,,,,,,,SPECI,11.0
KHQU 052135Z AUTO 35010G15KT 10SM CLR 16/03 A3003 RMK AO2 T01600026,KHQU,2019-01-05T21:35:00Z,33.53,-82.52,16.0,2.6,350,10,15,10.0,30.029528,,,TRUE,TRUE,,,,,,,CLR,,,,,,,,VFR,,,,,,,,,,,,SPECI,152.0
KHMZ 052135Z AUTO 31009G20KT 10SM CLR 08/00 A2974 RMK AO2 T00800002,KHMZ,2019-01-05T21:35:00Z,40.08,-78.52,8.0,0.2,310,9,20,10.0,29.740158,,,TRUE,TRUE,,,,,,,CLR,,,,,,,,VFR,,,,,,,,,,,,SPECI,354.0
KHHV 052135Z AUTO VRB04KT 10SM CLR 27/14 A3017 RMK A01,KHHV,2019-01-05T21:35:00Z,26.93,-94.68,27.0,14.0,0,4,,10.0,30.171259,,,TRUE,TRUE,,,,,,,CLR,,,,,,,,VFR,,,,,,,,,,,,SPECI,25.0
KHDC 052135Z AUTO 36004KT 10SM CLR 18/08 A3017 RMK AO2,KHDC,2019-01-05T21:35:00Z,30.52,-90.42,18.0,8.0,360,4,,10.0,30.171259,,,TRUE,TRUE,,,,,,,CLR,,,,,,,,VFR,,,,,,,,,,,,SPECI,13.0
KGUL 052135Z AUTO 09003KT 10SM SCT027 19/13 A3018 RMK A01,KGUL,2019-01-05T21:35:00Z,27.3,-93.53,19.0,13.0,90,3,,10.0,30.180119,,,TRUE,TRUE,,,,,,,SCT,2700,,,,,,,VFR,,,,,,,,,,,,SPECI,30.0
KGIC 052135Z AUTO 00000KT 10SM CLR 01/00 A2963 RMK AO1,KGIC,2019-01-05T21:35:00Z,45.95,-116.12,1.0,0.0,0,0,,10.0,29.630905,,,TRUE,TRUE,,,,,,,CLR,,,,,,,,VFR,,,,,,,,,,,,SPECI,1009.0
KGDJ 052135Z AUTO 17007KT 10SM CLR 23/01 A3006 RMK AO2 T02310006,KGDJ,2019-01-05T21:35:00Z,32.45,-97.82,23.1,0.6,170,7,,10.0,30.059055,,,TRUE,TRUE,,,,,,,CLR,,,,,,,,VFR,,,,,,,,,,,,SPECI,237.0
KGCM 052135Z AUTO 16005KT 10SM CLR 16/05 A3007 RMK AO2 TSNO,KGCM,2019-01-05T21:35:00Z,36.3,-95.48,16.0,5.0,160,5,,10.0,30.070866,,,TRUE,TRUE,,,TRUE,,,,CLR,,,,,,,,VFR,,,,,,,,,,,,SPECI,221.0
KGBK 052135Z AUTO 00000KT 10SM SCT024 22/14 A3018 RMK A01,KGBK,2019-01-05T21:35:00Z,27.2,-92.2,22.0,14.0,0,0,,10.0,30.180119,,,TRUE,TRUE,,,,,,,SCT,2400,,,,,,,VFR,,,,,,,,,,,,SPECI,59.0
KFOA 052135Z AUTO 24005KT 10SM CLR 13/05 A3001 RMK AO2 T01310051,KFOA,2019-01-05T21:35:00Z,38.67,-88.45,13.1,5.1,240,5,,10.0,30.008858,,,TRUE,TRUE,,,,,,,CLR,,,,,,,,VFR,,,,,,,,,,,,SPECI,144.0
KFLY 052135Z AUTO 17008G16KT 10SM CLR 14/M13 A3001 RMK AO2 T01361135,KFLY,2019-01-05T21:35:00Z,38.95,-104.57,13.6,-13.5,170,8,16,10.0,30.008858,,,TRUE,TRUE,,,,,,,CLR,,,,,,,,VFR,,,,,,,,,,,,SPECI,2096.0
KFHB 052135Z AUTO 28014KT 10SM CLR 15/07 A3001 RMK AO2 T01460072,KFHB,2019-01-05T21:35:00Z,30.62,-81.47,14.6,7.2,280,14,,10.0,30.008858,,,TRUE,TRUE,,,,,,,CLR,,,,,,,,VFR,,,,,,,,,,,,SPECI,5.0
KFGN 052135Z AUTO 32016KT 10SM OVC015 M06/M09 A3004 RMK AO2,KFGN,2019-01-05T21:35:00Z,49.32,-94.9,-6.0,-9.0,320,16,,10.0,30.041338,,,TRUE,TRUE,,,,,,,OVC,1500,,,,,,,MVFR,,,,,,,,,,,,SPECI,328.0
KF44 052135Z AUTO 15005KT 10SM CLR 21/03 A3008 RMK AO2,KF44,2019-01-05T21:35:00Z,32.17,-95.83,21.0,3.0,150,5,,10.0,30.079725,,,TRUE,TRUE,,,,,,,CLR,,,,,,,,VFR,,,,,,,,,,,,SPECI,135.0
KF00 052135Z AUTO 18009KT 10SM CLR 20/02 A3007 RMK AO2 T02010023,KF00,2019-01-05T21:35:00Z,33.62,-96.18,20.1,2.3,180,9,,10.0,30.070866,,,TRUE,TRUE,,,,,,,CLR,,,,,,,,VFR,,,,,,,,,,,,SPECI,188.0
KETN 052135Z AUTO 19009KT 10SM CLR 21/M01 A3005 RMK AO2 T02141007,KETN,2019-01-05T21:35:00Z,32.42,-98.82,21.4,-0.7,190,9,,10.0,30.050198,,,TRUE,TRUE,,,,,,,CLR,,,,,,,,VFR,,,,,,,,,,,,SPECI,446.0
KEIR 052135Z AUTO 00000KT 10SM CLR 15/09 A3021 RMK A01,KEIR,2019-01-05T21:35:00Z,28.63,-91.48,15.0,9.0,0,0,,10.0,30.209646,,,TRUE,TRUE,,,,,,,CLR,,,,,,,,VFR,,,,,,,,,,,,SPECI,28.0
KEBA 052135Z AUTO 28013G18KT 10SM CLR 18/04 A2998 RMK AO2 T01750037,KEBA,2019-01-05T21:35:00Z,34.1,-82.82,17.5,3.7,280,13,18,10.0,29.97933,,,TRUE,TRUE,,,,,,,CLR,,,,,,,,VFR,,,,,,,,,,,,SPECI,184.0
KDZJ 052135Z AUTO 29005KT 10SM CLR 11/01 A3004 RMK AO2 T01100014,KDZJ,2019-01-05T21:35:00Z,34.85,-84.0,11.0,1.4,290,5,,10.0,30.041338,,,TRUE,TRUE,,,,,,,CLR,,,,,,,,VFR,,,,,,,,,,,,SPECI,582.0
KDUA 052135Z AUTO 16006KT 10SM CLR 20/02 A3007 RMK AO2,KDUA,2019-01-05T21:35:00Z,33.95,-96.4,20.0,2.0,160,6,,10.0,30.070866,,,TRUE,TRUE,,,,,,,CLR,,,,,,,,VFR,,,,,,,,,,,,SPECI,213.0
KDSF 052135Z AUTO 10SM CLR 19/09 A3015 RMK A01,KDSF,2019-01-05T21:35:00Z,28.35,-88.27,19.0,9.0,,,,10.0,30.15059,,,TRUE,TRUE,,,,,,,CLR,,,,,,,,VFR,,,,,,,,,,,,METAR,130.0
KDNV 052135Z AUTO 24010KT 10SM CLR A2992 RMK AO2,KDNV,2019-01-05T21:35:00Z,40.2,-87.6,,,240,10,,10.0,29.920275,,,TRUE,TRUE,,,,,,,CLR,,,,,,,,VFR,,,,,,,,,,,,SPECI,212.0
KCVW 052135Z AUTO 15006KT 10SM CLR 15/12 A3017 RMK A01,KCVW,2019-01-05T21:35:00Z,29.78,-93.3,15.0,12.0,150,6,,10.0,30.171259,,,TRUE,TRUE,,,,,,,CLR,,,,,,,,VFR,,,,,,,,,,,,SPECI,1.0
KCQF 052135Z AUTO 25005KT 10SM CLR 13/06 A3015 RMK AO2,KCQF,2019-01-05T21:35:00Z,30.47,-87.88,13.0,6.0,250,5,,10.0,30.15059,,,TRUE,TRUE,,,,,,,CLR,,,,,,,,VFR,,,,,,,,,,,,SPECI,28.0
KBGF 052135Z AUTO VRB05KT 10SM CLR 13/04 A3008 RMK A01,KBGF,2019-01-05T21:35:00Z,35.18,-86.07,13.0,4.0,0,5,,10.0,30.079725,,,TRUE,TRUE,,,,,,,CLR,,,,,,,,VFR,,,,,,,,,,,,SPECI,299.0
KBBP 052135Z AUTO 29009G14KT 10SM CLR 16/05 A2988 RMK AO2,KBBP,2019-01-05T21:35:00Z,34.62,-79.73,16.0,5.0,290,9,14,10.0,29.878937,,,TRUE,TRUE,,,,,,,CLR,,,,,,,,VFR,,,,,,,,,,,,SPECI,45.0
KAZE 052135Z AUTO 00000KT 10SM CLR 17/04 A3002 RMK AO2 T01700042,KAZE,2019-01-05T21:35:00Z,31.88,-82.65,17.0,4.2,0,0,,10.0,30.02067,,,TRUE,TRUE,,,,,,,CLR,,,,,,,,VFR,,,,,,,,,,,,SPECI,78.0
KAZC 052135Z AUTO 14006KT 10SM CLR 08/M07 A3004 RMK AO2,KAZC,2019-01-05T21:35:00Z,36.97,-113.02,8.0,-7.0,140,6,,10.0,30.041338,,,TRUE,TRUE,,,,,,,CLR,,,,,,,,VFR,,,,,,,,,,,,SPECI,1486.0
KAXX 052135Z AUTO 27010G14KT 10SM 06/M12 A3015 RMK AO2 T00611123,KAXX,2019-01-05T21:35:00Z,36.42,-105.28,6.1,-12.3,270,10,14,10.0,30.15059,,,TRUE,TRUE,,,,,,,,,,,,,,,,,,,,,,,,,,,METAR,2548.0
KAVK 052135Z AUTO 14011KT 10SM CLR 19/06 A2996 RMK AO2,KAVK,2019-01-05T21:35:00Z,36.77,-98.67,19.0,6.0,140,11,,10.0,29.958662,,,TRUE,TRUE,,,,,,,CLR,,,,,,,,VFR,,,,,,,,,,,,SPECI,449.0
KAVC 052135Z AUTO 27005KT 10SM CLR 14/03 A2982 RMK AO2 T01370032,KAVC,2019-01-05T21:35:00Z,36.68,-78.03,13.7,3.2,270,5,,10.0,29.819881,,,TRUE,TRUE,,,,,,,CLR,,,,,,,,VFR,,,,,,,,,,,,SPECI,135.0
KARW 052135Z AUTO 29009KT 5SM HZ CLR 16/07 A2995 RMK AO2,KARW,2019-01-05T21:35:00Z,32.42,-80.63,16.0,7.0,290,9,,5.0,29.949802,,,TRUE,TRUE,,,,,,HZ,CLR,,,,,,,,MVFR,,,,,,,,,,,,SPECI,4.0
KAPY 052135Z AUTO 15004KT 10SM CLR 25/08 A3008 RMK AO2 T02500089,KAPY,2019-01-05T21:35:00Z,26.97,-99.25,25.0,8.9,150,4,,10.0,30.079725,,,TRUE,TRUE,,,,,,,CLR,,,,,,,,VFR,,,,,,,,,,,,METAR,129.0
KAJR 052135Z AUTO 30009G15KT 10SM CLR 14/01 A2998 RMK AO2 T01370008,KAJR,2019-01-05T21:35:00Z,34.5,-83.55,13.7,0.8,300,9,15,10.0,29.97933,,,TRUE,TRUE,,,,,,,CLR,,,,,,,,VFR,,,,,,,,,,,,SPECI,441.0
KAJG 052135Z AUTO 23008KT 10SM CLR 12/06 A3001 RMK AO2 T01180061,KAJG,2019-01-05T21:35:00Z,38.62,-87.73,11.8,6.1,230,8,,10.0,30.008858,,,TRUE,TRUE,,,,,,,CLR,,,,,,,,VFR,,,,,,,,,,,,SPECI,131.0
KADC 052135Z AUTO 02006KT 10SM CLR 00/M03 A2999 RMK AO2,KADC,2019-01-05T21:35:00Z,46.45,-95.22,0.0,-3.0,20,6,,10.0,29.991142,,,TRUE,TRUE,,,,,,,CLR,,,,,,,,VFR,,,,,,,,,,,,SPECI,418.0
KAAS 052135Z AUTO 23006KT 10SM CLR 11/05 A3008 RMK AO1,KAAS,2019-01-05T21:35:00Z,37.35,-85.32,11.0,5.0,230,6,,10.0,30.079725,,,TRUE,TRUE,,,,,,,CLR,,,,,,,,VFR,,,,,,,,,,,,SPECI,281.0
K8A3 052135Z AUTO 24006KT 10SM CLR 10/04 A3005 RMK A01,K8A3,2019-01-05T21:35:00Z,36.42,-85.32,10.0,4.0,240,6,,10.0,30.050198,,,TRUE,TRUE,,,,,,,CLR,,,,,,,,VFR,,,,,,,,,,,,SPECI,419.0
K6S0 052135Z AUTO 13004KT 10SM CLR 07/M05 A2981 RMK A01,K6S0,2019-01-05T21:35:00Z,45.8,-109.97,7.0,-5.0,130,4,,10.0,29.811024,,,TRUE,TRUE,,,,,,,CLR,,,,,,,,VFR,,,,,,,,,,,,METAR,1363.0
K6A2 052135Z AUTO 32010G15KT 290V350 10SM CLR 15/00 A3005 RMK AO2,K6A2,2019-01-05T21:35:00Z,33.23,-84.27,15.0,0.0,320,10,15,10.0,30.050198,,,TRUE,TRUE,,,,,,,CLR,,,,,,,,VFR,,,,,,,,,,,,SPECI,292.0
K5T9 052135Z AUTO 15007G14KT 130V200 10SM CLR M17/ A3008 RMK A01,K5T9,2019-01-05T21:35:00Z,28.85,-100.52,-17.0,,150,7,14,10.0,30.079725,,,TRUE,TRUE,,,,,,,CLR,,,,,,,,VFR,,,,,,,,,,,,METAR,270.0
K54A 052135Z AUTO 32009KT 10SM CLR 19/13 A3006 RMK AO2,K54A,2019-01-05T21:35:00Z,26.85,-82.25,19.0,13.0,320,9,,10.0,30.059055,,,TRUE,TRUE,,,,,,,CLR,,,,,,,,VFR,,,,,,,,,,,,METAR,14.0
K4S2 052135Z AUTO 03004KT 10SM OVC100 06/01 A2952 RMK AO2,K4S2,2019-01-05T21:35:00Z,45.68,-121.55,6.0,1.0,30,4,,10.0,29.518702,,,TRUE,TRUE,,,,,,,OVC,10000,,,,,,,VFR,,,,,,,,,,,,METAR,192.0
K46U 052135Z AUTO 00000KT 10SM CLR M06/M09 A2996 RMK A01,K46U,2019-01-05T21:35:00Z,43.18,-111.05,-6.0,-9.0,0,0,,10.0,29.958662,,,TRUE,TRUE,,,,,,,CLR,,,,,,,,VFR,,,,,,,,,,,,SPECI,1717.0
K3T5 052135Z AUTO 18005KT 10SM CLR 23/02 A3010 RMK AO2 T02310019,K3T5,2019-01-05T21:35:00Z,29.9,-96.95,23.1,1.9,180,5,,10.0,30.100393,,,TRUE,TRUE,,,,,,,CLR,,,,,,,,VFR,,,,,,,,,,,,METAR,99.0
K3S8 052135Z AUTO 00000KT 10SM FEW085 SCT110 05/02 A2935 RMK AO2,K3S8,2019-01-05T21:35:00Z,42.5,-123.4,5.0,2.0,0,0,,10.0,29.350393,,,TRUE,TRUE,,,,,,,FEW,8500,SCT,11000,,,,,VFR,,,,,,,,,,,,SPECI,343.0
K3LF 052135Z AUTO 23006KT 10SM CLR 13/06 A3001 RMK AO2 T01300056,K3LF,2019-01-05T21:35:00Z,39.17,-89.67,13.0,5.6,230,6,,10.0,30.008858,,,TRUE,TRUE,,,,,,,CLR,,,,,,,,VFR,,,,,,,,,,,,SPECI,210.0
K3L4 052135Z AUTO 22006KT 1/4SM HZ VV002 17/10 A3019 RMK A01,K3L4,2019-01-05T21:35:00Z,29.8,-92.8,17.0,10.0,220,6,,0.25,30.188976,,,TRUE,TRUE,,,,,,HZ,OVX,0,,,,,,,LIFR,,,,,,,,,,,200,SPECI,2.0
K3D2 052135Z AUTO 25003KT 10SM CLR 03/00 A2975 RMK AO2 T00311005,K3D2,2019-01-05T21:35:00Z,45.13,-87.18,3.1,-0.5,250,3,,10.0,29.749016,,,TRUE,TRUE,,,,,,,CLR,,,,,,,,VFR,,,,,,,,,,,,SPECI,234.0
K33N 052135Z AUTO 30007G16KT 270V330 10SM BKN014 BKN018 OVC065 08/07 A2960 RMK A01,K33N,2019-01-05T21:35:00Z,39.22,-75.6,8.0,7.0,300,7,16,10.0,29.601377,,,TRUE,TRUE,,,,,,,BKN,1400,BKN,1800,OVC,6500,,,MVFR,,,,,,,,,,,,METAR,17.0
K2M2 052135Z AUTO 29003KT 10SM CLR 14/04 A3009 RMK A01,K2M2,2019-01-05T21:35:00Z,35.23,-87.25,14.0,4.0,290,3,,10.0,30.088583,,,TRUE,TRUE,,,,,,,CLR,,,,,,,,VFR,,,,,,,,,,,,SPECI,286.0
K2LS 052135Z AUTO 15006KT 10SM CLR 17/08 A3019 RMK AO2,K2LS,2019-01-05T21:35:00Z,29.42,-90.3,17.0,8.0,150,6,,10.0,30.188976,,,TRUE,TRUE,,,,,,,CLR,,,,,,,,VFR,,,,,,,,,,,,METAR,-2.0
K2A0 052135Z AUTO 32005KT 10SM CLR 14/03 A3005 RMK A01,K2A0,2019-01-05T21:35:00Z,35.48,-84.93,14.0,3.0,320,5,,10.0,30.050198,,,TRUE,TRUE,,,,,,,CLR,,,,,,,,VFR,,,,,,,,,,,,SPECI,219.0
K28J 052135Z AUTO 30007KT 10SM CLR 18/08 A3004 RMK AO2,K28J,2019-01-05T21:35:00Z,29.65,-81.58,18.0,8.0,300,7,,10.0,30.041338,,,TRUE,TRUE,,,,,,,CLR,,,,,,,,VFR,,,,,,,,,,,,SPECI,15.0
K1M5 052135Z AUTO 24004KT 10SM CLR 14/04 A3006 RMK A01,K1M5,2019-01-05T21:35:00Z,36.6,-86.48,14.0,4.0,240,4,,10.0,30.059055,,,TRUE,TRUE,,,,,,,CLR,,,,,,,,VFR,,,,,,,,,,,,SPECI,250.0
K1A9 052135Z AUTO 29003KT 10SM CLR 16/02 A3011 RMK AO2 T01620024,K1A9,2019-01-05T21:35:00Z,32.43,-86.52,16.2,2.4,290,3,,10.0,30.109253,,,TRUE,TRUE,,,,,,,CLR,,,,,,,,VFR,,,,,,,,,,,,SPECI,69.0
K0V4 052135Z AUTO 28008G15KT 10SM CLR 14/02 A2978 RMK AO1 T01440020,K0V4,2019-01-05T21:35:00Z,37.15,-79.02,14.4,2.0,280,8,15,10.0,29.778543,,,TRUE,TRUE,,,,,,,CLR,,,,,,,,VFR,,,,,,,,,,,,SPECI,182.0
K0R0 052135Z AUTO 00000KT 10SM CLR 18/05 A3020 RMK AO2,K0R0,2019-01-05T21:35:00Z,31.3,-89.82,18.0,5.0,0,0,,10.0,30.200787,,,TRUE,TRUE,,,,,,,CLR,,,,,,,,VFR,,,,,,,,,,,,SPECI,81.0
K0E0 052135Z AUTO 00000KT 10SM CLR 02/M03 A3015 RMK AO2 T00211034,K0E0,2019-01-05T21:35:00Z,34.98,-106.0,2.1,-3.4,0,0,,10.0,30.15059,,,TRUE,TRUE,,,,,,,CLR,,,,,,,,VFR,,,,,,,,,,,,METAR,1890.0
K0A9 052135Z AUTO 26009KT 10SM CLR 10/03 A2999 RMK AO2,K0A9,2019-01-05T21:35:00Z,36.37,-82.17,10.0,3.0,260,9,,10.0,29.991142,,,TRUE,TRUE,,,,,,,CLR,,,,,,,,VFR,,,,,,,,,,,,SPECI,486.0
K05U 052135Z AUTO 15014KT 10SM CLR 04/M11 A2980 RMK A01,K05U,2019-01-05T21:35:00Z,39.6,-116.0,4.0,-11.0,150,14,,10.0,29.799213,,,TRUE,TRUE,,,,,,,CLR,,,,,,,,VFR,,,,,,,,,,,,SPECI,1816.0
KSZY 052135Z AUTO 27004KT 10SM CLR 15/05 A3009 RMK A01,KSZY,2019-01-05T21:35:00Z,,,15.0,5.0,270,4,,10.0,30.088583,,,TRUE,TRUE,,,,,,,CLR,,,,,,,,VFR,,,,,,,,,,,,METAR,
KSYI 052135Z AUTO 28004KT 10SM CLR 14/04 A3008 RMK A01,KSYI,2019-01-05T21:35:00Z,35.57,-86.45,14.0,4.0,280,4,,10.0,30.079725,,,TRUE,TRUE,,,,,,,CLR,,,,,,,,VFR,,,,,,,,,,,,METAR,245.0
KSYF 052135Z AUTO 08006KT 10SM CLR 17/M06 A2991 RMK AO2 T01651056,KSYF,2019-01-05T21:35:00Z,39.77,-101.8,16.5,-5.6,80,6,,10.0,29.911417,,,TRUE,TRUE,,,,,,,CLR,,,,,,,,VFR,,,,,,,,,,,,METAR,1025.0
KSXU 052135Z AUTO 21012KT 10SM CLR 14/M03 A3003 RMK AO2 T01411033,KSXU,2019-01-05T21:35:00Z,34.93,-104.65,14.1,-3.3,210,12,,10.0,30.029528,,,TRUE,TRUE,,,,,,,CLR,,,,,,,,VFR,,,,,,,,,,,,METAR,1460.0
KSVE 052135Z AUTO 19022G33KT 10SM FEW041 06/M02 A2959 RMK AO2,KSVE,2019-01-05T21:35:00Z,40.37,-120.57,6.0,-2.0,190,22,33,10.0,29.589567,,,TRUE,TRUE,,,,,,,FEW,4100,,,,,,,VFR,,,,,,,,,,,,METAR,1263.0
KSRE 052135Z AUTO VRB03KT 10SM CLR 21/02 A3003 RMK AO2,KSRE,2019-01-05T21:35:00Z,35.27,-96.68,21.0,2.0,0,3,,10.0,30.029528,,,TRUE,TRUE,,,,,,,CLR,,,,,,,,VFR,,,,,,,,,,,,METAR,312.0
KSRB 052135Z AUTO 25004KT 10SM CLR 12/04 A3006 RMK A01,KSRB,2019-01-05T21:35:00Z,36.05,-85.53,12.0,4.0,250,4,,10.0,30.059055,,,TRUE,TRUE,,,,,,,CLR,,,,,,,,VFR,,,,,,,,,,,,METAR,313.0
KSNH 052135Z AUTO 23004KT 10SM CLR 15/05 A3009 RMK A01,KSNH,2019-01-05T21:35:00Z,35.17,-88.22,15.0,5.0,230,4,,10.0,30.088583,,,TRUE,TRUE,,,,,,,CLR,,,,,,,,VFR,,,,,,,,,,,,METAR,144.0
KSLR 052135Z AUTO 17008KT 10SM CLR 21/02 A3010 RMK AO2 T02060021,KSLR,2019-01-05T21:35:00Z,33.17,-95.62,20.6,2.1,170,8,,10.0,30.100393,,,TRUE,TRUE,,,,,,,CLR,,,,,,,,VFR,,,,,,,,,,,,METAR,149.0
KSIK 052135Z AUTO 19005KT 10SM CLR 13/07 A3006 RMK AO2,KSIK,2019-01-05T21:35:00Z,36.9,-89.57,13.0,7.0,190,5,,10.0,30.059055,,,TRUE,TRUE,,,,,,,CLR,,,,,,,,VFR,,,,,,,,,,,,METAR,96.0
KSEP 052135Z AUTO 21010KT 10SM CLR 22/M01 A3008 RMK AO2 T02181009,KSEP,2019-01-05T21:35:00Z,32.22,-98.17,21.8,-0.9,210,10,,10.0,30.079725,,,TRUE,TRUE,,,,,,,CLR,,,,,,,,VFR,,,,,,,,,,,,METAR,402.0
KSCX 052135Z AUTO 29003KT 10SM CLR 11/02 A3004 RMK A01,KSCX,2019-01-05T21:35:00Z,36.45,-84.58,11.0,2.0,290,3,,10.0,30.041338,,,TRUE,TRUE,,,,,,,CLR,,,,,,,,VFR,,,,,,,,,,,,METAR,471.0
KSCD 052135Z AUTO 27006KT 10SM SCT120 16/04 A3011 RMK AO2 T01550039,KSCD,2019-01-05T21:35:00Z,33.17,-86.3,15.5,3.9,270,6,,10.0,30.109253,,,TRUE,TRUE,,,,,,,SCT,12000,,,,,,,VFR,,,,,,,,,,,,METAR,173.0
KS39 052135Z AUTO 11006G12KT 10SM CLR 07/M05 A2947 RMK AO2,KS39,2019-01-05T21:35:00Z,44.28,-120.9,7.0,-5.0,110,6,12,10.0,29.471457,,,TRUE,TRUE,,,,,,,CLR,,,,,,,,VFR,,,,,,,,,,,,METAR,991.0
KRZR 052135Z AUTO 36004KT 10SM CLR 15/03 A3003 RMK A01,KRZR,2019-01-05T21:35:00Z,35.22,-84.8,15.0,3.0,360,4,,10.0,30.029528,,,TRUE,TRUE,,,,,,,CLR,,,,,,,,VFR,,,,,,,,,,,,METAR,263.0
KRZL 052135Z AUTO 00000KT 10SM CLR 11/06 A2992 RMK AO2,KRZL,2019-01-05T21:35:00Z,40.95,-87.18,11.0,6.0,0,0,,10.0,29.920275,,,TRUE,TRUE,,,,,,,CLR,,,,,,,,VFR,,,,,,,,,,,,SPECI,213.0
KRTS 052135Z AUTO 21028G41KT 10SM CLR 06/M09 A2959 RMK AO2,KRTS,2019-01-05T21:35:00Z,39.67,-119.88,6.0,-9.0,210,28,41,10.0,29.589567,,,TRUE,TRUE,,,,,,,CLR,,,,,,,,VFR,,,,,,,,,,,,METAR,1540.0
KRSV 052135Z AUTO 24007KT 10SM CLR 11/06 A3001 RMK AO2 T01100055,KRSV,2019-01-05T21:35:00Z,39.02,-87.65,11.0,5.5,240,7,,10.0,30.008858,,,TRUE,TRUE,,,,,,,CLR,,,,,,,,VFR,,,,,,,,,,,,SPECI,141.0
KRNC 052135Z AUTO 26003KT 10SM CLR 13/03 A3007 RMK A01,KRNC,2019-01-05T21:35:00Z,35.7,-85.85,13.0,3.0,260,3,,10.0,30.070866,,,TRUE,TRUE,,,,,,,CLR,,,,,,,,VFR,,,,,,,,,,,,METAR,315.0
KRMN 052135Z AUTO 31006KT 10SM CLR 13/05 A2974 RMK AO2 LTG DSNT SE T01250051,KRMN,2019-01-05T21:35:00Z,38.4,-77.45,12.5,5.1,310,6,,10.0,29.740158,,,TRUE,TRUE,,,,,,,CLR,,,,,,,,VFR,,,,,,,,,,,,METAR,65.0
KRKW 052135Z AUTO 32004KT 10SM CLR 12/02 A3004 RMK A01,KRKW,2019-01-05T21:35:00Z,35.92,-84.68,12.0,2.0,320,4,,10.0,30.041338,,,TRUE,TRUE,,,,,,,CLR,,,,,,,,VFR,,,,,,,,,,,,METAR,508.0
KRGA 052135Z AUTO 25010KT 10SM CLR 11/04 A3001 RMK AO2,KRGA,2019-01-05T21:35:00Z,37.63,-84.33,11.0,4.0,250,10,,10.0,30.008858,,,TRUE,TRUE,,,,,,,CLR,,,,,,,,VFR,,,,,,,,,,,,METAR,305.0
KRCV 052135Z AUTO 11003KT 10SM CLR M06/M10 A3016 RMK AO2 T10561102,KRCV,2019-01-05T21:35:00Z,37.72,-106.35,-5.6,-10.2,110,3,,10.0,30.159449,,,TRUE,TRUE,,,,,,,CLR,,,,,,,,VFR,,,,,,,,,,,,METAR,2424.0
KRAW 052135Z AUTO 00000KT 10SM CLR A3004 RMK AO2,KRAW,2019-01-05T21:35:00Z,38.35,-93.35,,,0,0,,10.0,30.041338,,,TRUE,TRUE,,,,,,,CLR,,,,,,,,VFR,,,,,,,,,,,,METAR,285.0
KPVE 052135Z AUTO VRB04KT 10SM CLR 15/04 A3008 RMK A01,KPVE,2019-01-05T21:35:00Z,35.65,-88.2,15.0,4.0,0,4,,10.0,30.079725,,,TRUE,TRUE,,,,,,,CLR,,,,,,,,VFR,,,,,,,,,,,,METAR,149.0
KPVB 052135Z AUTO 28009KT 10SM CLR 09/02 A2991 RMK AO1 T00900024,KPVB,2019-01-05T21:35:00Z,42.68,-90.43,9.0,2.4,280,9,,10.0,29.911417,,,TRUE,TRUE,,,,,,,CLR,,,,,,,,VFR,,,,,,,,,,,,SPECI,313.0
KPTD 052135Z AUTO 00000KT 7SM OVC020 01/M00 A2965 RMK AO2,KPTD,2019-01-05T21:35:00Z,44.68,-74.95,1.0,0.0,0,0,,7.0,29.648623,,,TRUE,TRUE,,,,,,,OVC,2000,,,,,,,MVFR,,,,,,,,,,,,SPECI,144.0
KPTB 052135Z AUTO 26008KT 10SM CLR 14/03 A2974 RMK AO2 T01380030,KPTB,2019-01-05T21:35:00Z,37.17,-77.52,13.8,3.0,260,8,,10.0,29.740158,,,TRUE,TRUE,,,,,,,CLR,,,,,,,,VFR,,,,,,,,,,,,METAR,59.0
KPHT 052135Z AUTO 22005KT 10SM CLR 13/06 A3008 RMK A01,KPHT,2019-01-05T21:35:00Z,36.33,-88.38,13.0,6.0,220,5,,10.0,30.079725,,,TRUE,TRUE,,,,,,,CLR,,,,,,,,VFR,,,,,,,,,,,,METAR,177.0
KPCW 052135Z AUTO 24010KT 10SM CLR 08/03 A2981 RMK AO2,KPCW,2019-01-05T21:35:00Z,41.52,-82.87,8.0,3.0,240,10,,10.0,29.811024,,,TRUE,TRUE,,,,,,,CLR,,,,,,,,VFR,,,,,,,,,,,,SPECI,178.0
KPCD 052135Z AUTO 13005KT 10SM CLR 14/09 A3002 RMK AO2 T01400089,KPCD,2019-01-05T21:35:00Z,37.87,-89.87,14.0,8.9,130,5,,10.0,30.02067,,,TRUE,TRUE,,,,,,,CLR,,,,,,,,VFR,,,,,,,,,,,,METAR,113.0
KOWX 052135Z AUTO 24013G17KT 10SM CLR 07/02 A2987 RMK AO1,KOWX,2019-01-05T21:35:00Z,41.03,-83.98,7.0,2.0,240,13,17,10.0,29.870079,,,TRUE,TRUE,,,,,,,CLR,,,,,,,,VFR,,,,,,,,,,,,SPECI,233.0
KOWP 052135Z AUTO 18005KT 10SM CLR 21/01 A3004 RMK AO2 T02060012,KOWP,2019-01-05T21:35:00Z,36.18,-96.15,20.6,1.2,180,5,,10.0,30.041338,,,TRUE,TRUE,,,,,,,CLR,,,,,,,,VFR,,,,,,,,,,,,METAR,272.0
KJYR 052135Z AUTO 00000KT 10SM CLR 12/03 A2998 RMK AO2,KJYR,2019-01-05T21:35:00Z,40.9,-97.62,12.0,3.0,0,0,,10.0,29.97933,,,TRUE,TRUE,,,,,,,CLR,,,,,,,,VFR,,,,,,,,,,,,SPECI,509.0
KJXI 052135Z AUTO 18004KT 10SM CLR 20/02 A3011 RMK AO2 T02020018,KJXI,2019-01-05T21:35:00Z,32.7,-94.95,20.2,1.8,180,4,,10.0,30.109253,,,TRUE,TRUE,,,,,,,CLR,,,,,,,,VFR,,,,,,,,,,,,METAR,127.0
KJWN 052135Z AUTO 00000KT 10SM CLR 15/04 A3005 RMK A01,KJWN,2019-01-05T21:35:00Z,36.18,-86.88,15.0,4.0,0,0,,10.0,30.050198,,,TRUE,TRUE,,,,,,,CLR,,,,,,,,VFR,,,,,,,,,,,,SPECI,151.0
KJTC 052135Z AUTO 00000KT 10SM CLR 06/M06 A3012 RMK AO2,KJTC,2019-01-05T21:35:00Z,34.13,-109.32,6.0,-6.0,0,0,,10.0,30.121063,,,TRUE,TRUE,,,,,,,CLR,,,,,,,,VFR,,,,,,,,,,,,METAR,2150.0
KJAU 052135Z AUTO 00000KT 10SM CLR 13/02 A3006 RMK A01,KJAU,2019-01-05T21:35:00Z,36.33,-84.17,13.0,2.0,0,0,,10.0,30.059055,,,TRUE,TRUE,,,,,,,CLR,,,,,,,,VFR,,,,,,,,,,,,SPECI,360.0
KJAQ 052135Z AUTO 12011G27KT 090V150 7SM SCT018 SCT034 OVC075 06/06 A2973 RMK AO1 T00600056,KJAQ,2019-01-05T21:35:00Z,38.37,-120.8,6.0,5.6,120,11,27,7.0,29.731298,,,TRUE,TRUE,,,,,,,SCT,1800,SCT,3400,OVC,7500,,,VFR,,,,,,,,,,,,METAR,512.0
KIZA 052135Z AUTO 10012G19KT 10SM OVC034 A2987 RMK AO2,KIZA,2019-01-05T21:35:00Z,34.6,-120.07,,,100,12,19,10.0,29.870079,,,TRUE,TRUE,,,,,,,OVC,3400,,,,,,,VFR,,,,,,,,,,,,METAR,205.0
KINJ 052135Z AUTO 17008KT 10SM CLR 21/08 A3007 RMK AO2 T02100075,KINJ,2019-01-05T21:35:00Z,32.08,-97.1,21.0,7.5,170,8,,10.0,30.070866,,,TRUE,TRUE,,,,,,,CLR,,,,,,,,VFR,,,,,,,,,,,,METAR,209.0
KIMS 052135Z AUTO 24009KT 10SM CLR 11/05 A2999 RMK AO1,KIMS,2019-01-05T21:35:00Z,38.75,-85.47,11.0,5.0,240,9,,10.0,29.991142,,,TRUE,TRUE,,,,,,,CLR,,,,,,,,VFR,,,,,,,,,,,,SPECI,250.0
KIMM 052135Z AUTO 28007G15KT 10SM FEW031 22/15 A3003 RMK A01,KIMM,2019-01-05T21:35:00Z,26.43,-81.4,22.0,15.0,280,7,15,10.0,30.029528,,,TRUE,TRUE,,,,,,,FEW,3100,,,,,,,VFR,,,,,,,,,,,,SPECI,12.0
KIKG 052135Z AUTO 14007KT 10SM CLR 26/07 A3010 RMK AO2 T02550073,KIKG,2019-01-05T21:35:00Z,27.55,-98.03,25.5,7.3,140,7,,10.0,30.100393,,,TRUE,TRUE,,,,,,,CLR,,,,,,,,VFR,,,,,,,,,,,,METAR,40.0
KIER 052135Z AUTO 29004KT 10SM CLR 20/04 A3015 RMK AO2 T02000039,KIER,2019-01-05T21:35:00Z,31.73,-93.1,20.0,3.9,290,4,,10.0,30.15059,,,TRUE,TRUE,,,,,,,CLR,,,,,,,,VFR,,,,,,,,,,,,SPECI,37.0
KI69 052135Z AUTO 22006KT 10SM CLR 10/04 A2996 RMK AO2 T01010042,KI69,2019-01-05T21:35:00Z,39.08,-84.22,10.1,4.2,220,6,,10.0,29.958662,,,TRUE,TRUE,,,,,,,CLR,,,,,,,,VFR,,,,,,,,,,,,SPECI,255.0
KI35 052135Z AUTO 26003KT 10SM CLR 11/02 A3002 RMK AO2 T01050022,KI35,2019-01-05T21:35:00Z,36.87,-83.37,10.5,2.2,260,3,,10.0,30.02067,,,TRUE,TRUE,,,,,,,CLR,,,,,,,,VFR,,,,,,,,,,,,SPECI,473.0
KI23 052135Z AUTO 24009KT 10SM CLR 08/03 A2991 RMK AO1,KI23,2019-01-05T21:35:00Z,39.57,-83.42,8.0,3.0,240,9,,10.0,29.911417,,,TRUE,TRUE,,,,,,,CLR,,,,,,,,VFR,,,,,,,,,,,,SPECI,299.0
KHZD 052135Z AUTO 24005KT 10SM CLR 14/06 A3008 RMK A01,KHZD,2019-01-05T21:35:00Z,36.08,-88.47,14.0,6.0,240,5,,10.0,30.079725,,,TRUE,TRUE,,,,,,,CLR,,,,,,,,VFR,,,,,,,,,,,,SPECI,151.0
KHTH 052135Z AUTO 17015G22KT 10SM FEW120 12/M09 A2967 RMK A01,KHTH,2019-01-05T21:35:00Z,,,12.0,-9.0,170,15,22,10.0,29.66929,,,TRUE,TRUE,,,,,,,FEW,12000,,,,,,,VFR,,,,,,,,,,,,METAR,
KHSB 052135Z AUTO 22005KT 10SM CLR 14/07 A3004 RMK AO2 T01400071,KHSB,2019-01-05T21:35:00Z,37.82,-88.55,14.0,7.1,220,5,,10.0,30.041338,,,TRUE,TRUE,,,,,,,CLR,,,,,,,,VFR,,,,,,,,,,,,SPECI,121.0
KHLB 052135Z AUTO 00000KT 10SM CLR 10/05 A2995 RMK A01,KHLB,2019-01-05T21:35:00Z,,,10.0,5.0,0,0,,10.0,29.949802,,,TRUE,TRUE,,,,,,,CLR,,,,,,,,VFR,,,,,,,,,,,,SPECI,
KHHF 052135Z AUTO 16010G15KT 10SM CLR 20/01 A2993 RMK AO2 T02000012,KHHF,2019-01-05T21:35:00Z,35.9,-100.4,20.0,1.2,160,10,15,10.0,29.929134,,,TRUE,TRUE,,,,,,,CLR,,,,,,,,VFR,,,,,,,,,,,,METAR,712.0
KHCD 052135Z AUTO 28006KT 10SM CLR 04/00 A2998 RMK AO2 T00350002,KHCD,2019-01-05T21:35:00Z,44.87,-94.38,3.5,0.2,280,6,,10.0,29.97933,,,TRUE,TRUE,,,,,,,CLR,,,,,,,,VFR,,,,,,,,,,,,SPECI,323.0
KHAE 052135Z AUTO 24005KT 10SM CLR 14/02 A3000 RMK AO2,KHAE,2019-01-05T21:35:00Z,39.73,-91.45,14.0,2.0,240,5,,10.0,30.0,,,TRUE,TRUE,,,,,,,CLR,,,,,,,,VFR,,,,,,,,,,,,SPECI,234.0
KGZS 052135Z AUTO 31004KT 10SM CLR 16/04 A3008 RMK A01,KGZS,2019-01-05T21:35:00Z,35.15,-87.05,16.0,4.0,310,4,,10.0,30.079725,,,TRUE,TRUE,,,,,,,CLR,,,,,,,,VFR,,,,,,,,,,,,SPECI,209.0
KGKT 052135Z AUTO 26006KT 10SM CLR 13/03 A3004 RMK A01,KGKT,2019-01-05T21:35:00Z,35.85,-83.53,13.0,3.0,260,6,,10.0,30.041338,,,TRUE,TRUE,,,,,,,CLR,,,,,,,,VFR,,,,,,,,,,,,SPECI,309.0
KGCY 052135Z AUTO 24005G12KT 10SM CLR 09/03 A3001 RMK A01,KGCY,2019-01-05T21:35:00Z,36.2,-82.82,9.0,3.0,240,5,12,10.0,30.008858,,,TRUE,TRUE,,,,,,,CLR,,,,,,,,VFR,,,,,,,,,,,,SPECI,490.0
KGCD 052135Z AUTO 09004KT 10SM CLR 05/M03 A2957 RMK AO2 T00511035,KGCD,2019-01-05T21:35:00Z,44.38,-118.97,5.1,-3.5,90,4,,10.0,29.568897,,,TRUE,TRUE,,,,,,,CLR,,,,,,,,VFR,,,,,,,,,,,,METAR,1127.0
KFYE 052135Z AUTO 22007KT 10SM CLR 14/05 A3010 RMK A01,KFYE,2019-01-05T21:35:00Z,35.2,-89.38,14.0,5.0,220,7,,10.0,30.100393,,,TRUE,TRUE,,,,,,,CLR,,,,,,,,VFR,,,,,,,,,,,,SPECI,133.0
KFXY 052135Z AUTO 32007KT 10SM CLR 07/02 A2996 RMK AO2,KFXY,2019-01-05T21:35:00Z,43.23,-93.62,7.0,2.0,320,7,,10.0,29.958662,,,TRUE,TRUE,,,,,,,CLR,,,,,,,,VFR,,,,,,,,,,,,SPECI,375.0
KFTN 052135Z AUTO 14010G15KT 10SM CLR 25/03 A3008 RMK A01,KFTN,2019-01-05T21:35:00Z,28.22,-100.02,25.0,3.0,140,10,15,10.0,30.079725,,,TRUE,TRUE,,,,,,,CLR,,,,,,,,VFR,,,,,,,,,,,,METAR,236.0
KFOT 052135Z AUTO 13024G31KT 2SM BKN037 BKN045 10/10 A2933 RMK AO1,KFOT,2019-01-05T21:35:00Z,40.55,-124.13,10.0,10.0,130,24,31,2.0,29.329725,,,TRUE,TRUE,,,,,,,BKN,3700,BKN,4500,,,,,IFR,,,,,,,,,,,,METAR,120.0
PAUT 052135Z AUTO 16027G41KT 4SM RA SCT010 BKN015 OVC022 02/01 A2961 RMK AO2 P0001 T00220007,PAUT,2019-01-05T21:35:00Z,54.15,-165.6,2.2,0.7,160,27,41,4.0,29.610237,,,TRUE,TRUE,,,,,,RA,SCT,1000,BKN,1500,OVC,2200,,,MVFR,,,,,,0.01,,,,,,SPECI,25.0
KXSA 052135Z AUTO 26009KT 10SM SCT060 13/05 A2970 RMK AO2 T01250053,KXSA,2019-01-05T21:35:00Z,37.87,-76.9,12.5,5.3,260,9,,10.0,29.698818,,,TRUE,TRUE,,,,,,,SCT,6000,,,,,,,VFR,,,,,,,,,,,,SPECI,42.0
KXNX 052135Z AUTO VRB05KT 10SM CLR 14/04 A3009 RMK A01,KXNX,2019-01-05T21:35:00Z,36.38,-86.42,14.0,4.0,0,5,,10.0,30.088583,,,TRUE,TRUE,,,,,,,CLR,,,,,,,,VFR,,,,,,,,,,,,SPECI,178.0
KW99 052135Z AUTO 32007KT 10SM CLR 09/01 A2978 RMK AO2 T00900014,KW99,2019-01-05T21:35:00Z,39.0,-79.15,9.0,1.4,320,7,,10.0,29.778543,,,TRUE,TRUE,,,,,,,CLR,,,,,,,,VFR,,,,,,,,,,,,SPECI,293.0
KVKS 052135Z AUTO 20005KT 10SM CLR 16/07 A3017 RMK A01,KVKS,2019-01-05T21:35:00Z,32.23,-90.93,16.0,7.0,200,5,,10.0,30.171259,,,TRUE,TRUE,,,,,,,CLR,,,,,,,,VFR,,,,,,,,,,,,SPECI,32.0
KVJI 052135Z AUTO 28009KT 10SM CLR 09/03 A2997 RMK AO2 T00870029,KVJI,2019-01-05T21:35:00Z,36.67,-82.02,8.7,2.9,280,9,,10.0,29.970472,,,TRUE,TRUE,,,,,,,CLR,,,,,,,,VFR,,,,,,,,,,,,SPECI,631.0
KVDF 052135Z AUTO 32007G14KT 10SM SCT026 16/11 A3008 RMK AO2,KVDF,2019-01-05T21:35:00Z,28.02,-82.33,16.0,11.0,320,7,14,10.0,30.079725,,,TRUE,TRUE,,,,,,,SCT,2600,,,,,,,VFR,,,,,,,,,,,,SPECI,7.0
KUYF 052135Z AUTO 24008KT 10SM CLR 08/05 A2989 RMK AO2,KUYF,2019-01-05T21:35:00Z,39.93,-83.47,8.0,5.0,240,8,,10.0,29.890747,,,TRUE,TRUE,,,,,,,CLR,,,,,,,,VFR,,,,,,,,,,,,SPECI,330.0
KUVA 052135Z AUTO 15009KT 10SM CLR 23/04 A3010 RMK AO2 T02250044,KUVA,2019-01-05T21:35:00Z,29.22,-99.75,22.5,4.4,150,9,,10.0,30.100393,,,TRUE,TRUE,,,,,,,CLR,,,,,,,,VFR,,,,,,,,,,,,METAR,287.0
KUNI 052135Z AUTO 23006KT 7SM CLR 10/03 A2991 RMK AO2 T00960032,KUNI,2019-01-05T21:35:00Z,39.22,-82.23,9.6,3.2,230,6,,7.0,29.911417,,,TRUE,TRUE,,,,,,,CLR,,,,,,,,VFR,,,,,,,,,,,,SPECI,193.0
KULS 052135Z AUTO 18004KT 10SM CLR 08/01 A2992 RMK AO2,KULS,2019-01-05T21:35:00Z,37.6,-101.37,8.0,1.0,180,4,,10.0,29.920275,,,TRUE,TRUE,,,,,,,CLR,,,,,,,,VFR,,,,,,,,,,,,SPECI,936.0
KUCY 052135Z AUTO 22006KT 10SM CLR 13/06 A3008 RMK A01,KUCY,2019-01-05T21:35:00Z,36.38,-88.98,13.0,6.0,220,6,,10.0,30.079725,,,TRUE,TRUE,,,,,,,CLR,,,,,,,,VFR,,,,,,,,,,,,SPECI,104.0
KU68 052135Z AUTO 14004KT 10SM CLR 03/M04 A2989 RMK AO2,KU68,2019-01-05T21:35:00Z,44.92,-108.45,3.0,-4.0,140,4,,10.0,29.890747,,,TRUE,TRUE,,,,,,,CLR,,,,,,,,VFR,,,,,,,,,,,,METAR,1247.0
KTDF 052135Z AUTO 27007G15KT 10SM CLR 13/00 A2983 RMK AO2,KTDF,2019-01-05T21:35:00Z,36.28,-78.98,13.0,0.0,270,7,15,10.0,29.828741,,,TRUE,TRUE,,,,,,,CLR,,,,,,,,VFR,,,,,,,,,,,,METAR,186.0
KU42 052135Z AUTO 12009KT 10SM CLR 03/M05 A2991 RMK AO1 T00301054,KU42,2019-01-05T21:35:00Z,40.62,-111.98,3.0,-5.4,120,9,,10.0,29.911417,,,TRUE,TRUE,,,,,,,CLR,,,,,,,,VFR,,,,,,,,,,,,METAR,1402.0
KTYL 052135Z AUTO 00000KT 10SM CLR 02/M05 A3011 RMK AO2,KTYL,2019-01-05T21:35:00Z,,,2.0,-5.0,0,0,,10.0,30.109253,,,TRUE,TRUE,,,,,,,CLR,,,,,,,,VFR,,,,,,,,,,,,METAR,
KTQH 052135Z AUTO 20003KT 10SM CLR 18/02 A3008 RMK AO2,KTQH,2019-01-05T21:35:00Z,35.93,-95.0,18.0,2.0,200,3,,10.0,30.079725,,,TRUE,TRUE,,,,,,,CLR,,,,,,,,VFR,,,,,,,,,,,,SPECI,266.0
KTNB 052135Z AUTO 30012G16KT 10SM SCT025 05/00 A2993 RMK AO2 T00520004,KTNB,2019-01-05T21:35:00Z,36.2,-81.65,5.2,0.4,300,12,16,10.0,29.929134,,,TRUE,TRUE,,,,,,,SCT,2500,,,,,,,VFR,,,,,,,,,,,,SPECI,911.0
KTMA 052135Z AUTO 28005KT 10SM CLR 16/05 A3005 RMK AO2 T01550046,KTMA,2019-01-05T21:35:00Z,31.43,-83.48,15.5,4.6,280,5,,10.0,30.050198,,,TRUE,TRUE,,,,,,,CLR,,,,,,,,VFR,,,,,,,,,,,,METAR,109.0
KTHA 052135Z AUTO 29005KT 10SM CLR 13/03 A3007 RMK A01,KTHA,2019-01-05T21:35:00Z,35.38,-86.25,13.0,3.0,290,5,,10.0,30.070866,,,TRUE,TRUE,,,,,,,CLR,,,,,,,,VFR,,,,,,,,,,,,SPECI,331.0
KTCY 052135Z AUTO 12017G31KT 10SM FEW045 SCT120 11/07 A2968 RMK A01,KTCY,2019-01-05T21:35:00Z,37.68,-121.43,11.0,7.0,120,17,31,10.0,29.681103,,,TRUE,TRUE,,,,,,,FEW,4500,SCT,12000,,,,,VFR,,,,,,,,,,,,METAR,59.0
KOWI 052135Z AUTO 10SM CLR 15/05 A3001 RMK AO2,KOWI,2019-01-05T21:35:00Z,38.53,-95.25,15.0,5.0,,,,10.0,30.008858,,,TRUE,TRUE,,,,,,,CLR,,,,,,,,VFR,,,,,,,,,,,,SPECI,292.0
KONP 052135Z AUTO 09007KT 10SM BKN070 11/07 A2932 RMK AO2,KONP,2019-01-05T21:35:00Z,44.57,-124.03,11.0,7.0,90,7,,10.0,29.320866,,,TRUE,TRUE,,,,,,,BKN,7000,,,,,,,VFR,,,,,,,,,,,,METAR,48.0
KOJA 052135Z AUTO 18007KT 10SM CLR 16/02 A3000 RMK AO2,KOJA,2019-01-05T21:35:00Z,35.55,-98.67,16.0,2.0,180,7,,10.0,30.0,,,TRUE,TRUE,,,,,,,CLR,,,,,,,,VFR,,,,,,,,,,,,SPECI,490.0
KO69 052135Z AUTO 18010G15KT 160V220 10SM BKN027 OVC032 13/12 A2962 RMK A01,KO69,2019-01-05T21:35:00Z,38.25,-122.6,13.0,12.0,180,10,15,10.0,29.619095,,,TRUE,TRUE,,,,,,,BKN,2700,OVC,3200,,,,,MVFR,,,,,,,,,,,,SPECI,28.0
KN38 052135Z AUTO 34008KT 10SM CLR 06/M00 A2965 RMK AO2,KN38,2019-01-05T21:35:00Z,41.73,-77.4,6.0,0.0,340,8,,10.0,29.648623,,,TRUE,TRUE,,,,,,,CLR,,,,,,,,VFR,,,,,,,,,,,,SPECI,577.0
KN03 052135Z AUTO 29006KT 7SM OVC008 02/01 A2967 RMK AO2,KN03,2019-01-05T21:35:00Z,42.6,-76.22,2.0,1.0,290,6,,7.0,29.66929,,,TRUE,TRUE,,,,,,,OVC,800,,,,,,,IFR,,,,,,,,,,,,SPECI,366.0
KMVH 052135Z AUTO 18010KT 10SM CLR 08/M07 A2982 RMK AO2,KMVH,2019-01-05T21:35:00Z,46.83,-108.93,8.0,-7.0,180,10,,10.0,29.819881,,,TRUE,TRUE,,,,,,,CLR,,,,,,,,VFR,,,,,,,,,,,,METAR,1355.0
KFOZ 052134Z AUTO 24006KT 10SM SCT011 BKN018 00/M02 A2996 RMK AO2,KFOZ,2019-01-05T21:34:00Z,47.77,-93.65,0.0,-2.0,240,6,,10.0,29.958662,,,TRUE,TRUE,,,,,,,SCT,1100,BKN,1800,,,,,MVFR,,,,,,,,,,,,SPECI,411.0
K2V6 052134Z AUTO 06012KT 10SM CLR 15/M07 A2991 RMK AO2,K2V6,2019-01-05T21:34:00Z,40.1,-102.72,15.0,-7.0,60,12,,10.0,29.911417,,,TRUE,TRUE,,,,,,,CLR,,,,,,,,VFR,,,,,,,,,,,,SPECI,1261.0
PASA 052134Z AUTO 07020KT 1/4SM -SN FZFG OVC003 M17/M19 A2998 RMK AO2 SNB21 P0000 FZRANO $,PASA,2019-01-05T21:34:00Z,63.68,-170.5,-17.0,-19.0,70,20,,0.25,29.97933,,,TRUE,TRUE,TRUE,,,TRUE,,-SN FZFG,OVC,300,,,,,,,LIFR,,,,,,0.005,,,,,,SPECI,16.0
CYQI 052134Z 07007KT 3/4SM -RA BR OVC007 04/04 A2953 RMK FG7ST1 SLP002,CYQI,2019-01-05T21:34:00Z,43.83,-66.08,4.0,4.0,70,7,,0.75,29.530512,1000.2,,,,,,,,,-RA BR,OVC,700,,,,,,,LIFR,,,,,,,,,,,,SPECI,43.0
CYYJ 052134Z 25006KT 240V320 20SM -RA FEW058 BKN082 OVC120 07/05 A2940 RMK SC2AC4AC2 SLP958,CYYJ,2019-01-05T21:34:00Z,48.63,-123.42,7.0,5.0,250,6,,20.0,29.40059,995.8,,,,,,,,,-RA,FEW,5800,BKN,8200,OVC,12000,,,VFR,,,,,,,,,,,,SPECI,19.0
CYTL 052134Z AUTO 32009KT 9SM BKN019 M17/M21 A3001 RMK SLP188,CYTL,2019-01-05T21:34:00Z,53.82,-89.88,-17.0,-21.0,320,9,,9.0,30.008858,1018.8,,TRUE,,,,,,,,BKN,1900,,,,,,,MVFR,,,,,,,,,,,,SPECI,224.0
KORB 052134Z AUTO 30005KT 10SM CLR M01/M04 A2992 RMK AO2,KORB,2019-01-05T21:34:00Z,48.02,-92.87,-1.0,-4.0,300,5,,10.0,29.920275,,,TRUE,TRUE,,,,,,,CLR,,,,,,,,VFR,,,,,,,,,,,,SPECI,397.0
KPYM 052133Z AUTO 01016G22KT 3SM -RA BR OVC004 06/04 A2943 RMK AO2 P0001 T00560039,KPYM,2019-01-05T21:33:00Z,41.92,-70.73,5.6,3.9,10,16,22,3.0,29.430119,,,TRUE,TRUE,,,,,,-RA BR,OVC,400,,,,,,,LIFR,,,,,,0.01,,,,,,SPECI,43.0
KOWA 052133Z AUTO 28007KT 10SM CLR 06/01 A2995 RMK AO2,KOWA,2019-01-05T21:33:00Z,44.12,-93.25,6.0,1.0,280,7,,10.0,29.949802,,,TRUE,TRUE,,,,,,,CLR,,,,,,,,VFR,,,,,,,,,,,,SPECI,350.0
KHWV 052133Z AUTO 36013G19KT 10SM BKN005 OVC031 06/04 A2944 RMK AO2 RAB01E14 P0000 T00560044,KHWV,2019-01-05T21:33:00Z,40.82,-72.87,5.6,4.4,360,13,19,10.0,29.438976,,,TRUE,TRUE,,,,,,,BKN,500,OVC,3100,,,,,IFR,,,,,,0.005,,,,,,SPECI,21.0
KETH 052133Z AUTO 33011KT 5SM BR OVC006 M02/M03 A3006 RMK AO2,KETH,2019-01-05T21:33:00Z,45.78,-96.55,-2.0,-3.0,330,11,,5.0,30.059055,,,TRUE,TRUE,,,,,,BR,OVC,600,,,,,,,IFR,,,,,,,,,,,,SPECI,313.0
CYHZ 052133Z 08005KT 1/4SM R23/2200FT/N R14/2200FT/N FG VV002 02/02 A2961 RMK FG8 SLP033,CYHZ,2019-01-05T21:33:00Z,44.87,-63.5,2.0,2.0,80,5,,0.25,29.610237,1003.3,,,,,,,,,FG,OVX,0,,,,,,,LIFR,,,,,,,,,,,200,SPECI,145.0
PAVA 052133Z AUTO 08016KT 1 3/4SM -SN BR OVC033 M12/M13 A2991 RMK AO2 VIS 1 1/4V3 FZRANO PNO $,PAVA,2019-01-05T21:33:00Z,61.53,-165.6,-12.0,-13.0,80,16,,1.75,29.911417,,,TRUE,TRUE,TRUE,,,TRUE,,-SN BR,OVC,3300,,,,,,,IFR,,,,,,,,,,,,SPECI,23.0
PFWS 052133Z AUTO 36005KT 3SM BR OVC002 M12/M13 RMK AO2 FZRANO $,PFWS,2019-01-05T21:33:00Z,58.7,-157.0,-12.0,-13.0,360,5,,3.0,,,,TRUE,TRUE,TRUE,,,TRUE,,BR,OVC,200,,,,,,,LIFR,,,,,,,,,,,,SPECI,49.0
KMSV 052133Z AUTO 32010G15KT 10SM BKN010 OVC055 04/03 A2955 RMK AO2 CIG 007V013,KMSV,2019-01-05T21:33:00Z,41.7,-74.78,4.0,3.0,320,10,15,10.0,29.551182,,,TRUE,TRUE,,,,,,,BKN,1000,OVC,5500,,,,,MVFR,,,,,,,,,,,,SPECI,428.0
CYRV 052133Z AUTO 00000KT 5SM BR FEW070 SCT180 01/01 A2966 RMK SLP064,CYRV,2019-01-05T21:33:00Z,50.97,-118.17,1.0,1.0,0,0,,5.0,29.660433,1006.4,,TRUE,,,,,,,BR,FEW,7000,SCT,18000,,,,,MVFR,,,,,,,,,,,,SPECI,443.0
KEMV 052133Z AUTO 25005KT 10SM CLR 14/04 A2977 RMK AO2,KEMV,2019-01-05T21:33:00Z,36.68,-77.48,14.0,4.0,250,5,,10.0,29.769686,,,TRUE,TRUE,,,,,,,CLR,,,,,,,,VFR,,,,,,,,,,,,SPECI,39.0
PANN 052132Z AUTO 00000KT 1 1/2SM BR SCT002 M35/ A2996 RMK AO2 T1350 TSNO,PANN,2019-01-05T21:32:00Z,64.55,-149.08,-35.0,,0,0,,1.5,29.958662,,,TRUE,TRUE,,,TRUE,,,BR,SCT,200,,,,,,,IFR,,,,,,,,,,,,SPECI,110.0
PASY 052132Z AUTO 25032G43KT 7SM FEW030 SCT037 SCT050 M01/M07 A2886 RMK AO2 SNE31 SLP777 FZRANO $,PASY,2019-01-05T21:32:00Z,52.72,174.12,-1.0,-7.0,250,32,43,7.0,28.860237,977.7,,TRUE,TRUE,TRUE,,,TRUE,,,FEW,3000,SCT,3700,SCT,5000,,,VFR,,,,,,,,,,,,SPECI,31.0
OPPS 052130Z 23004KT 4000 MIST FEW040 FEW100 06/04 Q1022,OPPS,2019-01-05T21:30:00Z,34.02,71.52,6.0,4.0,230,4,,2.49,30.177166,,,,,,,,,,,FEW,4000,FEW,10000,,,,,IFR,,,,,,,,,,,,METAR,360.0
SPJR 052130Z 33008KT 9000 -RA SCT026 BKN043 19/09 Q1025,SPJR,2019-01-05T21:30:00Z,-7.12,-78.47,19.0,9.0,330,8,,5.59,30.265747,,,,,,,,,,-RA,SCT,2600,BKN,4300,,,,,VFR,,,,,,,,,,,,METAR,2622.0
OBBI 052130Z 22002KT CAVOK 18/14 Q1019 NOSIG,OBBI,2019-01-05T21:30:00Z,26.27,50.63,18.0,14.0,220,2,,6.21,30.088583,,,,,,TRUE,,,,,CAVOK,,,,,,,,VFR,,,,,,,,,,,,METAR,2.0
HSSS 052130Z 36015KT CAVOK 25/04 Q1014 NOSIG,HSSS,2019-01-05T21:30:00Z,15.58,32.53,25.0,4.0,360,15,,6.21,29.940945,,,,,,TRUE,,,,,CAVOK,,,,,,,,VFR,,,,,,,,,,,,METAR,380.0
UBBB 052130Z 34010KT 9999 OVC005 07/06 Q1015 R88/D NOSIG,UBBB,2019-01-05T21:30:00Z,40.45,50.07,7.0,6.0,340,10,,6.21,29.970472,,,,,,TRUE,,,,,OVC,500,,,,,,,IFR,,,,,,,,,,,,METAR,-6.0
UBBN 052130Z 02008KT 9999 NSC M02/M04 Q1014 R14R/CLRD// NOSIG RMK MT OP QFE686,UBBN,2019-01-05T21:30:00Z,39.18,45.45,-2.0,-4.0,20,8,,6.21,29.940945,,,,,,TRUE,,,,,CLR,,,,,,,,VFR,,,,,,,,,,,,SPECI,873.0
VOMM 052130Z 23002KT 2500 BR FEW020 22/20 Q1014 BECMG 2000 BR,VOMM,2019-01-05T21:30:00Z,13.0,80.17,22.0,20.0,230,2,,1.55,29.940945,,,,,,,,,,BR,FEW,2000,,,,,,,IFR,,,,,,,,,,,,METAR,16.0
KJRB 052130Z AUTO 00000KT 4SM -RA BR OVC008 07/07 A2951 RMK AO2 RAB07 P0000,KJRB,2019-01-05T21:30:00Z,40.7,-74.02,7.0,7.0,0,0,,4.0,29.509842,,,TRUE,TRUE,,,,,,-RA BR,OVC,800,,,,,,,IFR,,,,,,0.005,,,,,,SPECI,7.0
TFFR 052130Z AUTO 09010KT 9999 FEW035 BKN070 26/21 Q1017 NOSIG,TFFR,2019-01-05T21:30:00Z,16.27,-61.53,26.0,21.0,90,10,,6.21,30.029528,,,TRUE,,,TRUE,,,,,FEW,3500,BKN,7000,,,,,VFR,,,,,,,,,,,,METAR,11.0
NWWW 052130Z AUTO 15009KT 9999 BKN056 28/17 Q1011 NOSIG,NWWW,2019-01-05T21:30:00Z,-22.02,166.22,28.0,17.0,150,9,,6.21,29.852362,,,TRUE,,,TRUE,,,,,BKN,5600,,,,,,,VFR,,,,,,,,,,,,METAR,16.0
LBGO 052130Z AUTO VRB02KT 9999 NCD M08/M09 Q1013,LBGO,2019-01-05T21:30:00Z,43.15,25.72,-8.0,-9.0,0,2,,6.21,29.911417,,,TRUE,,,,,,,,CLR,,,,,,,,VFR,,,,,,,,,,,,METAR,86.0
LBPD 052130Z AUTO 27003KT 9999 NCD M06/M08 Q1013,LBPD,2019-01-05T21:30:00Z,42.13,24.8,-6.0,-8.0,270,3,,6.21,29.911417,,,TRUE,,,,,,,,CLR,,,,,,,,VFR,,,,,,,,,,,,METAR,185.0
LBBG 052130Z 27008KT 9999 SCT026 SCT049 M02/M04 Q1013 NOSIG,LBBG,2019-01-05T21:30:00Z,42.57,27.52,-2.0,-4.0,270,8,,6.21,29.911417,,,,,,TRUE,,,,,SCT,2600,SCT,4900,,,,,VFR,,,,,,,,,,,,METAR,28.0
LBWN 052130Z 29007KT CAVOK M05/M09 Q1013 NOSIG,LBWN,2019-01-05T21:30:00Z,43.22,27.82,-5.0,-9.0,290,7,,6.21,29.911417,,,,,,TRUE,,,,,CAVOK,,,,,,,,VFR,,,,,,,,,,,,METAR,43.0
LBSF 052130Z 26002KT 9999 SCT063 M08/M11 Q1012 NOSIG,LBSF,2019-01-05T21:30:00Z,42.7,23.42,-8.0,-11.0,260,2,,6.21,29.88189,,,,,,TRUE,,,,,SCT,6300,,,,,,,VFR,,,,,,,,,,,,METAR,530.0
FMMI 052130Z 07003KT 050V110 9999 -TSRA FEW017CB BKN020 19/18 Q1018 TEMPO TSRA,FMMI,2019-01-05T21:30:00Z,-18.8,47.47,19.0,18.0,70,3,,6.21,30.059055,,,,,,,,,,-TSRA,FEW,1700,BKN,2000,,,,,MVFR,,,,,,,,,,,,METAR,1276.0
SOCA 052130Z AUTO 05006KT 9999 FEW026 OVC058 27/23 Q1013 NOSIG,SOCA,2019-01-05T21:30:00Z,4.82,-52.37,27.0,23.0,50,6,,6.21,29.911417,,,TRUE,,,TRUE,,,,,FEW,2600,OVC,5800,,,,,VFR,,,,,,,,,,,,METAR,9.0
LHBP 052130Z VRB03KT 0800 R31L/0175N R31R/0600N FZFG FEW002 M05/M05 Q1014 R88/29//95 TEMPO 0500,LHBP,2019-01-05T21:30:00Z,47.42,19.27,-5.0,-5.0,0,3,,0.5,29.940945,,,,,,,,,,FZFG,FEW,200,,,,,,,LIFR,,,,,,,,,,,,SPECI,185.0
LZTT 052130Z VRB05KT 9999 -SN FEW013 SCT053 M03/M07 Q1009,LZTT,2019-01-05T21:30:00Z,49.07,20.25,-3.0,-7.0,0,5,,6.21,29.793306,,,,,,,,,,-SN,FEW,1300,SCT,5300,,,,,VFR,,,,,,,,,,,,METAR,707.0
LZKZ 052130Z 35003KT 6000 SCT013 BKN030 M03/M05 Q1012,LZKZ,2019-01-05T21:30:00Z,48.67,21.23,-3.0,-5.0,350,3,,3.73,29.88189,,,,,,,,,,,SCT,1300,BKN,3000,,,,,MVFR,,,,,,,,,,,,METAR,232.0
LZIB 052130Z 34005KT 9999 FEW012 BKN069 02/M01 Q1017 R13/690595,LZIB,2019-01-05T21:30:00Z,48.17,17.22,2.0,-1.0,340,5,,6.21,30.029528,,,,,,,,,,,FEW,1200,BKN,6900,,,,,VFR,,,,,,,,,,,,METAR,134.0
YMDG 052130Z AUTO 05009KT 9999 // OVC017 22/19 Q1016,YMDG,2019-01-05T21:30:00Z,-32.57,149.62,22.0,19.0,50,9,,6.21,30.0,,,TRUE,,,,,,,,OVC,1700,,,,,,,MVFR,,,,,,,,,,,,SPECI,471.0
UBBG 052130Z 10004KT 9999 FEW100 02/01 Q1014 R30/CLRD// NOSIG,UBBG,2019-01-05T21:30:00Z,40.73,46.32,2.0,1.0,100,4,,6.21,29.940945,,,,,,TRUE,,,,,FEW,10000,,,,,,,VFR,,,,,,,,,,,,SPECI,330.0
YWLM 052130Z AUTO 20016KT 9999 // OVC008 20/18 Q1015,YWLM,2019-01-05T21:30:00Z,-32.8,151.83,20.0,18.0,200,16,,6.21,29.970472,,,TRUE,,,,,,,,OVC,800,,,,,,,IFR,,,,,,,,,,,,METAR,9.0
YCOM 052130Z AUTO 21002KT 9999 // BKN011 12/09 Q1019,YCOM,2019-01-05T21:30:00Z,-36.3,148.97,12.0,9.0,210,2,,6.21,30.088583,,,TRUE,,,,,,,,BKN,1100,,,,,,,MVFR,,,,,,,,,,,,SPECI,941.0
TFFF 052130Z AUTO 11018G28KT 2700 -RA BR FEW016 BKN022 BKN032 23/20 Q1017 BECMG 10010KT 9999 NSW,TFFF,2019-01-05T21:30:00Z,14.6,-61.0,23.0,20.0,110,18,28,1.68,30.029528,,,TRUE,,,,,,,-RA BR,FEW,1600,BKN,2200,BKN,3200,,,IFR,,1.0,,,,,,,,,,METAR,5.0
YSNF 052130Z AUTO 10012KT //// // BKN014 OVC019 OVC035 23/19 Q1018,YSNF,2019-01-05T21:30:00Z,-29.02,167.92,23.0,19.0,100,12,,,30.059055,,,TRUE,,,,,,,,BKN,1400,OVC,1900,OVC,3500,,,,,,,,,,,,,,,METAR,109.0
SPZO 052130Z /////KT 9999 SCT046 SCT100 20/06 Q1027 NOSIG RMK BIRD HAZARD RWY 28,SPZO,2019-01-05T21:30:00Z,-13.55,-71.97,20.0,6.0,,,,6.21,30.324802,,,,,,TRUE,,,,,SCT,4600,SCT,10000,,,,,VFR,,,,,,,,,,,,SPECI,3249.0
WIII 052130Z VRB02KT 4000 BR FEW022 25/22 Q1011 NOSIG,WIII,2019-01-05T21:30:00Z,-6.13,106.67,25.0,22.0,0,2,,2.49,29.852362,,,,,,TRUE,,,,BR,FEW,2200,,,,,,,IFR,,,,,,,,,,,,METAR,8.0
LUKK 052130Z 21005KT CAVOK M06/M09 Q1009 R08/D NOSIG,LUKK,2019-01-05T21:30:00Z,46.93,28.93,-6.0,-9.0,210,5,,6.21,29.793306,,,,,,TRUE,,,,,CAVOK,,,,,,,,VFR,,,,,,,,,,,,METAR,122.0
GMMN 052130Z 13003KT 9999 NSC 07/06 Q1030 NOSIG,GMMN,2019-01-05T21:30:00Z,33.37,-7.57,7.0,6.0,130,3,,6.21,30.413385,,,,,,TRUE,,,,,CLR,,,,,,,,VFR,,,,,,,,,,,,METAR,206.0
GMME 052130Z 13004KT 080V170 8000 NSC 08/06 Q1029 NOSIG,GMME,2019-01-05T21:30:00Z,34.03,-6.77,8.0,6.0,130,4,,4.97,30.383858,,,,,,TRUE,,,,,CLR,,,,,,,,MVFR,,,,,,,,,,,,METAR,75.0
GMFF 052130Z 18008KT CAVOK 05/M01 Q1031 NOSIG,GMFF,2019-01-05T21:30:00Z,33.92,-4.97,5.0,-1.0,180,8,,6.21,30.442913,,,,,,TRUE,,,,,CAVOK,,,,,,,,VFR,,,,,,,,,,,,METAR,579.0
GMAD 052130Z 16007KT 040V100 CAVOK 12/06 Q1028 NOSIG,GMAD,2019-01-05T21:30:00Z,30.32,-9.42,12.0,6.0,160,7,,6.21,30.35433,,,,,,TRUE,,,,,CAVOK,,,,,,,,VFR,,,,,,,,,,,,METAR,74.0
NTAA 052130Z 01009KT 9999 FEW023 BKN300 32/24 Q1012 NOSIG,NTAA,2019-01-05T21:30:00Z,-17.55,-149.62,32.0,24.0,10,9,,6.21,29.88189,,,,,,TRUE,,,,,FEW,2300,BKN,30000,,,,,VFR,,,,,,,,,,,,METAR,2.0
WAJJ 052130Z 25009KT 7000 -RA SCT010 25/23 Q1010,WAJJ,2019-01-05T21:30:00Z,-2.58,140.52,25.0,23.0,250,9,,4.35,29.822834,,,,,,,,,,-RA,SCT,1000,,,,,,,MVFR,,,,,,,,,,,,METAR,88.0
WAMM 052130Z 04002KT 9000 SCT020 24/23 Q1013 NOSIG,WAMM,2019-01-05T21:30:00Z,1.55,124.92,24.0,23.0,40,2,,5.59,29.911417,,,,,,TRUE,,,,,SCT,2000,,,,,,,VFR,,,,,,,,,,,,METAR,80.0
PPIT 052130Z AUTO 07011KT 3SM BR OVC002 M12/M12 A2992 RMK AO2 FZRANO TSNO,PPIT,2019-01-05T21:30:00Z,60.9,-162.43,-12.0,-12.0,70,11,,3.0,29.920275,,,TRUE,TRUE,,,TRUE,TRUE,,BR,OVC,200,,,,,,,LIFR,,,,,,,,,,,,SPECI,4.0
UKOO 052130Z 00000MPS 9999 FEW035 M05/M07 Q1010 R16/090060 NOSIG,UKOO,2019-01-05T21:30:00Z,46.42,30.68,-5.0,-7.0,0,0,,6.21,29.822834,,,,,,TRUE,,,,,FEW,3500,,,,,,,VFR,,,,,,,,,,,,SPECI,35.0
UKHH 052130Z 21003MPS 9999 OVC019 M05/M08 Q1013 R25/72//72 NOSIG,UKHH,2019-01-05T21:30:00Z,49.92,36.28,-5.0,-8.0,210,6,,6.21,29.911417,,,,,,TRUE,,,,,OVC,1900,,,,,,,MVFR,,,,,,,,,,,,SPECI,155.0
UKBB 052130Z 20005MPS 3400 -SN FEW008 OVC020 M04/M05 Q1006 R18L/452026 R18R/492030 NOSIG,UKBB,2019-01-05T21:30:00Z,50.33,30.9,-4.0,-5.0,200,10,,2.11,29.704725,,,,,,TRUE,,,,-SN,FEW,800,OVC,2000,,,,,IFR,,,,,,,,,,,,SPECI,119.0
UKLL 052130Z 33007MPS 9000 -SN OVC007 M02/M02 Q1009 R31/420530 TEMPO -FZRASN BKN017CB,UKLL,2019-01-05T21:30:00Z,49.82,23.93,-2.0,-2.0,330,14,,5.59,29.793306,,,,,,,,,,-SN,OVC,700,,,,,,,IFR,,,,,,,,,,,,SPECI,325.0
UKDD 052130Z 19004MPS 6000 OVC029 M05/M06 Q1012 R08/911070 NOSIG,UKDD,2019-01-05T21:30:00Z,48.37,35.1,-5.0,-6.0,190,8,,3.73,29.88189,,,,,,TRUE,,,,,OVC,2900,,,,,,,MVFR,,,,,,,,,,,,SPECI,149.0
UKDE 052130Z 08003MPS 6000 NSC M10/M10 Q1013 R02R/390135 NOSIG,UKDE,2019-01-05T21:30:00Z,47.87,35.32,-10.0,-10.0,80,6,,3.73,29.911417,,,,,,TRUE,,,,,CLR,,,,,,,,MVFR,,,,,,,,,,,,SPECI,113.0
GLRB 052130Z 00000KT 8000 FEW012 26/25 Q1013 RMK BRVC,GLRB,2019-01-05T21:30:00Z,6.25,-10.33,26.0,25.0,0,0,,4.97,29.911417,,,,,,,,,,,FEW,1200,,,,,,,MVFR,,,,,,,,,,,,METAR,18.0
FMEP 052130Z AUTO 06005KT CAVOK 27/21 Q1012,FMEP,2019-01-05T21:30:00Z,-21.32,55.42,27.0,21.0,60,5,,6.21,29.88189,,,TRUE,,,,,,,,CAVOK,,,,,,,,VFR,,,,,,,,,,,,METAR,18.0
FMEE 052130Z AUTO 13008KT CAVOK 27/23 Q1013 TEMPO 4500 SHRA SCT020TCU,FMEE,2019-01-05T21:30:00Z,-20.87,55.52,27.0,23.0,130,8,,6.21,29.911417,,,TRUE,,,,,,,,CAVOK,,,,,,,,VFR,,,,,,,,,,,,METAR,25.0
UKKM 052130Z AUTO 20005MPS 2000 R33/1300D SN ///007/// M04/M04 Q1004,UKKM,2019-01-05T21:30:00Z,50.6,30.2,-4.0,-4.0,200,10,,1.24,29.64567,,,TRUE,,,,,,,SN,,,,,,,,,,,,,,,,,,,,,METAR,157.0
UKKK 052130Z 21004MPS 180V250 2300 -SN SCT009 OVC028 M04/M05 Q1005 R26/490240 NOSIG,UKKK,2019-01-05T21:30:00Z,50.4,30.45,-4.0,-5.0,210,8,,1.43,29.675198,,,,,,TRUE,,,,-SN,SCT,900,OVC,2800,,,,,IFR,,,,,,,,,,,,METAR,179.0
VEBS 052130Z 01002KT 2000 BR NSC 13/12 Q1015 BECMG 1500 BR,VEBS,2019-01-05T21:30:00Z,20.25,85.82,13.0,12.0,10,2,,1.24,29.970472,,,,,,,,,,BR,CLR,,,,,,,,IFR,,,,,,,,,,,,METAR,46.0
VTSS 052130Z 30003KT 9999 SCT020 BKN100 25/24 Q1011 NOSIG,VTSS,2019-01-05T21:30:00Z,6.92,100.38,25.0,24.0,300,3,,6.21,29.852362,,,,,,TRUE,,,,,SCT,2000,BKN,10000,,,,,VFR,,,,,,,,,,,,METAR,35.0
VTSP 052130Z 10010KT 8000 FEW020 25/23 Q1010 NOSIG,VTSP,2019-01-05T21:30:00Z,8.12,98.32,25.0,23.0,100,10,,4.97,29.822834,,,,,,TRUE,,,,,FEW,2000,,,,,,,MVFR,,,,,,,,,,,,METAR,10.0
VTCC 052130Z VRB02KT 9999 FEW035 21/19 Q1018 NOSIG,VTCC,2019-01-05T21:30:00Z,18.77,98.97,21.0,19.0,0,2,,6.21,30.059055,,,,,,TRUE,,,,,FEW,3500,,,,,,,VFR,,,,,,,,,,,,METAR,314.0
VTBU 052130Z 32003KT 3000 BR FEW020 BKN100 24/22 Q1012 NOSIG,VTBU,2019-01-05T21:30:00Z,12.68,101.0,24.0,22.0,320,3,,1.86,29.88189,,,,,,TRUE,,,,BR,FEW,2000,BKN,10000,,,,,IFR,,,,,,,,,,,,METAR,5.0
VTBS 052130Z 33003KT 6000 FEW020 SCT040 BKN100 24/22 Q1012 NOSIG,VTBS,2019-01-05T21:30:00Z,13.68,100.75,24.0,22.0,330,3,,3.73,29.88189,,,,,,TRUE,,,,,FEW,2000,SCT,4000,BKN,10000,,,MVFR,,,,,,,,,,,,METAR,2.0
VTBD 052130Z 31003KT 270V350 5000 -RA BR FEW020 SCT035 BKN100 24/23 Q1013 NOSIG,VTBD,2019-01-05T21:30:00Z,13.92,100.6,24.0,23.0,310,3,,3.11,29.911417,,,,,,TRUE,,,,-RA BR,FEW,2000,SCT,3500,BKN,10000,,,MVFR,,,,,,,,,,,,METAR,3.0
LWSK 052130Z 00000KT 9999 BKN100 M08/M10 Q1017 NOSIG,LWSK,2019-01-05T21:30:00Z,41.97,21.63,-8.0,-10.0,0,0,,6.21,30.029528,,,,,,TRUE,,,,,BKN,10000,,,,,,,VFR,,,,,,,,,,,,METAR,239.0
VVDN 052130Z VRB01KT 8000 FEW015 BKN060 22/20 Q1018 NOSIG,VVDN,2019-01-05T21:30:00Z,16.02,108.2,22.0,20.0,0,1,,4.97,30.059055,,,,,,TRUE,,,,,FEW,1500,BKN,6000,,,,,MVFR,,,,,,,,,,,,METAR,7.0
VVTS 052130Z 04002KT 9999 FEW017 24/23 Q1012 NOSIG,VVTS,2019-01-05T21:30:00Z,10.82,106.67,24.0,23.0,40,2,,6.21,29.88189,,,,,,TRUE,,,,,FEW,1700,,,,,,,VFR,,,,,,,,,,,,METAR,19.0
VVPQ 052130Z 08008KT 9999 FEW020 26/23 Q1012 NOSIG,VVPQ,2019-01-05T21:30:00Z,10.23,103.97,26.0,23.0,80,8,,6.21,29.88189,,,,,,TRUE,,,,,FEW,2000,,,,,,,VFR,,,,,,,,,,,,METAR,4.0
VVPB 052130Z VRB01KT 5000 BR SCT010 BKN050 20/20 Q1019 NOSIG,VVPB,2019-01-05T21:30:00Z,16.38,107.7,20.0,20.0,0,1,,3.11,30.088583,,,,,,TRUE,,,,BR,SCT,1000,BKN,5000,,,,,MVFR,,,,,,,,,,,,METAR,17.0
VVNB 052130Z 07006KT 040V100 6000 SCT010 BKN023 16/16 Q1020 NOSIG,VVNB,2019-01-05T21:30:00Z,21.22,105.8,16.0,16.0,70,6,,3.73,30.11811,,,,,,TRUE,,,,,SCT,1000,BKN,2300,,,,,MVFR,,,,,,,,,,,,METAR,12.0
VVCT 052130Z 09004KT 8000 FEW015 25/23 Q1012 NOSIG,VVCT,2019-01-05T21:30:00Z,10.08,105.72,25.0,23.0,90,4,,4.97,29.88189,,,,,,TRUE,,,,,FEW,1500,,,,,,,MVFR,,,,,,,,,,,,METAR,3.0
VVCR 052130Z 03007KT 9999 SCT015 26/23 Q1015 NOSIG,VVCR,2019-01-05T21:30:00Z,12.0,109.22,26.0,23.0,30,7,,6.21,29.970472,,,,,,TRUE,,,,,SCT,1500,,,,,,,VFR,,,,,,,,,,,,METAR,12.0
VVCI 052130Z 04003KT 010V070 3900 -DZ BR SCT002 OVC005 18/18 Q1019 NOSIG,VVCI,2019-01-05T21:30:00Z,20.82,106.73,18.0,18.0,40,3,,2.42,30.088583,,,,,,TRUE,,,,-DZ BR,SCT,200,OVC,500,,,,,IFR,,,,,,,,,,,,METAR,3.0
VYYY 052130Z 32003KT 7000 SCT110 22/19 Q1012,VYYY,2019-01-05T21:30:00Z,16.9,96.13,22.0,19.0,320,3,,4.35,29.88189,,,,,,,,,,,SCT,11000,,,,,,,MVFR,,,,,,,,,,,,METAR,33.0
VDSV 052130Z 00000KT 9000 FEW017 24/22 Q1012,VDSV,2019-01-05T21:30:00Z,10.58,103.63,24.0,22.0,0,0,,5.59,29.88189,,,,,,,,,,,FEW,1700,,,,,,,VFR,,,,,,,,,,,,METAR,10.0
VDSR 052130Z VRB02KT 9000 SCT017 25/24 Q1012,VDSR,2019-01-05T21:30:00Z,13.42,103.83,25.0,24.0,0,2,,5.59,29.88189,,,,,,,,,,,SCT,1700,,,,,,,VFR,,,,,,,,,,,,METAR,15.0
VDPP 052130Z 00000KT 9000 FEW017 25/23 Q1012,VDPP,2019-01-05T21:30:00Z,11.55,104.83,25.0,23.0,0,0,,5.59,29.88189,,,,,,,,,,,FEW,1700,,,,,,,VFR,,,,,,,,,,,,METAR,10.0
KCPW 052130Z AUTO 21012G19KT 10SM CLR M03/M12 A3027 RMK AO2,KCPW,2019-01-05T21:30:00Z,37.45,-106.8,-3.0,-12.0,210,12,19,10.0,30.268702,,,TRUE,TRUE,,,,,,,CLR,,,,,,,,VFR,,,,,,,,,,,,SPECI,3584.0
KC07 052130Z AUTO 23004KT 10SM BKN110 00/M07 A3013 RMK AO2,KC07,2019-01-05T21:30:00Z,40.35,-106.7,0.0,-7.0,230,4,,10.0,30.129921,,,TRUE,TRUE,,,,,,,BKN,11000,,,,,,,VFR,,,,,,,,,,,,SPECI,3224.0
KHEQ 052130Z AUTO 07010KT 10SM CLR 16/M06 A2994 RMK AO2,KHEQ,2019-01-05T21:30:00Z,40.57,-102.28,16.0,-6.0,70,10,,10.0,29.940945,,,TRUE,TRUE,,,,,,,CLR,,,,,,,,VFR,,,,,,,,,,,,SPECI,1137.0
KGNB 052130Z AUTO 21003KT 10SM CLR M04/M10 A3011 RMK AO2 T10421103,KGNB,2019-01-05T21:30:00Z,40.08,-105.92,-4.2,-10.3,210,3,,10.0,30.109253,,,TRUE,TRUE,,,,,,,CLR,,,,,,,,VFR,,,,,,,,,,,,SPECI,2500.0
K4BM 052130Z AUTO 23013G19KT 10SM CLR 01/M15 A3018 RMK AO2 LTG DSNT NW,K4BM,2019-01-05T21:30:00Z,39.05,-105.52,1.0,-15.0,230,13,19,10.0,30.180119,,,TRUE,TRUE,,,,,,,CLR,,,,,,,,VFR,,,,,,,,,,,,SPECI,3438.0
K20V 052130Z AUTO 00000KT 10SM CLR M06/M12 A3014 RMK AO2,K20V,2019-01-05T21:30:00Z,40.05,-106.37,-6.0,-12.0,0,0,,10.0,30.138779,,,TRUE,TRUE,,,,,,,CLR,,,,,,,,VFR,,,,,,,,,,,,SPECI,2259.0
K1V6 052130Z AUTO 27013KT 10SM CLR 18/M08 A2993 RMK AO2,K1V6,2019-01-05T21:30:00Z,38.43,-105.1,18.0,-8.0,270,13,,10.0,29.929134,,,TRUE,TRUE,,,,,,,CLR,,,,,,,,VFR,,,,,,,,,,,,SPECI,1658.0
UCFO 052130Z 00000MPS 1000 0800NE R12/P1500U PRFG OVC016 M00/M00 Q1027 R12/19//95 TEMPO 0500 FZFG,UCFO,2019-01-05T21:30:00Z,40.6,72.8,0.0,0.0,0,0,,0.62,30.324802,,,,,,,,,,PRFG,OVC,1600,,,,,,,LIFR,,,,,,,,,,,,METAR,884.0
UCFM 052130Z 04003MPS 2500 BR OVC005 M02/M03 Q1028 R08/19//95 NOSIG,UCFM,2019-01-05T21:30:00Z,43.07,74.48,-2.0,-3.0,40,6,,1.55,30.35433,,,,,,TRUE,,,,BR,OVC,500,,,,,,,IFR,,,,,,,,,,,,METAR,633.0
DAUH 052130Z 20003KT CAVOK 06/M00 Q1030,DAUH,2019-01-05T21:30:00Z,31.67,6.15,6.0,0.0,200,3,,6.21,30.413385,,,,,,,,,,,CAVOK,,,,,,,,VFR,,,,,,,,,,,,METAR,142.0
DAOO 052130Z 00000KT 5000 NSC 05/04 Q1031,DAOO,2019-01-05T21:30:00Z,35.62,-0.6,5.0,4.0,0,0,,3.11,30.442913,,,,,,,,,,,CLR,,,,,,,,MVFR,,,,,,,,,,,,METAR,90.0
DAON 052130Z 00000KT CAVOK 04/M02 Q1032,DAON,2019-01-05T21:30:00Z,35.02,-1.47,4.0,-2.0,0,0,,6.21,30.47244,,,,,,,,,,,CAVOK,,,,,,,,VFR,,,,,,,,,,,,METAR,247.0
DABC 052130Z 27007KT 9999 SCT030 05/02 Q1028,DABC,2019-01-05T21:30:00Z,36.27,6.62,5.0,2.0,270,7,,6.21,30.35433,,,,,,,,,,,SCT,3000,,,,,,,VFR,,,,,,,,,,,,METAR,694.0
DABB 052130Z 25011KT 8000 FEW020TCU SCT030 09/08 Q1026,DABB,2019-01-05T21:30:00Z,36.82,7.82,9.0,8.0,250,11,,4.97,30.295275,,,,,,,,,,,FEW,2000,SCT,3000,,,,,MVFR,,,,,,,,,,,,METAR,4.0
DAAT 052130Z 12006KT CAVOK 08/M17 Q1026,DAAT,2019-01-05T21:30:00Z,22.82,5.47,8.0,-17.0,120,6,,6.21,30.295275,,,,,,,,,,,CAVOK,,,,,,,,VFR,,,,,,,,,,,,METAR,1377.0
DAAG 052130Z 26004KT 9999 FEW020 06/05 Q1031,DAAG,2019-01-05T21:30:00Z,36.72,3.22,6.0,5.0,260,4,,6.21,30.442913,,,,,,,,,,,FEW,2000,,,,,,,VFR,,,,,,,,,,,,METAR,25.0
UTDL 052130Z 08007MPS 1900 R08/1900D BR NSC 02/00 Q1028 R08/CLRD70 NOSIG RMK QFE731/0975,UTDL,2019-01-05T21:30:00Z,40.22,69.7,2.0,0.0,80,14,,1.18,30.35433,,,,,,TRUE,,,,BR,CLR,,,,,,,,IFR,,,,,,,,,,,,METAR,442.0
UTDT 052130Z 00000MPS 0400 R35/0900U FG VV003 00/00 Q1027 R35/////// RMK QBB110 QFE730/0974,UTDT,2019-01-05T21:30:00Z,37.87,68.87,0.0,0.0,0,0,,0.25,30.324802,,,,,,,,,,FG,OVX,0,,,,,,,LIFR,,,,,,,,,,,300,METAR,449.0
UTDK 052130Z 03001MPS 1400 BR VV003 02/01 Q1027 R01/19//60 RMK QBB090 QFE712/0950,UTDK,2019-01-05T21:30:00Z,37.98,69.8,2.0,1.0,30,2,,0.87,30.324802,,,,,,,,,,BR,OVX,0,,,,,,,LIFR,,,,,,,,,,,300,METAR,699.0
UTDD 052130Z 18001MPS 3800 BR FU NSC M01/M02 Q1027 R09/D NOSIG RMK QFE701/0935,UTDD,2019-01-05T21:30:00Z,38.53,68.82,-1.0,-2.0,180,2,,2.36,30.324802,,,,,,TRUE,,,,BR FU,CLR,,,,,,,,IFR,,,,,,,,,,,,METAR,803.0
UAUU 052130Z 16005MPS CAVOK M17/M18 Q1027 R15/850156 NOSIG RMK QFE754/1005,UAUU,2019-01-05T21:30:00Z,53.2,63.55,-17.0,-18.0,160,10,,6.21,30.324802,,,,,,TRUE,,,,,CAVOK,,,,,,,,VFR,,,,,,,,,,,,SPECI,182.0
UATT 052130Z 18008MPS 9999 DRSN SCT042 M09/M14 Q1021 R13/820250 NOSIG RMK QFE746/0995,UATT,2019-01-05T21:30:00Z,50.25,57.2,-9.0,-14.0,180,16,,6.21,30.147638,,,,,,TRUE,,,,DRSN,SCT,4200,,,,,,,VFR,,,,,,,,,,,,METAR,227.0
UATG 052130Z 11004MPS 0300 R14/0800N FZFG VV001 M03/M03 Q1019 R14/39//50 NOSIG RMK QBB050 QFE766/1022,UATG,2019-01-05T21:30:00Z,47.12,51.83,-3.0,-3.0,110,8,,0.19,30.088583,,,,,,TRUE,,,,FZFG,OVX,0,,,,,,,LIFR,,,,,,,,,,,100,METAR,-22.0
UATE 052130Z 03004MPS 2700 BR OVC005 01/01 Q1018 R12/0///70 NOSIG RMK QBB150 QFE761/1015,UATE,2019-01-05T21:30:00Z,43.87,51.1,1.0,1.0,30,8,,1.68,30.059055,,,,,,TRUE,,,,BR,OVC,500,,,,,,,IFR,,,,,,,,,,,,METAR,22.0
UASP 052130Z 15003MPS 9999 BKN025 M18/M20 Q1041 R21/0///60 NOSIG RMK QFE769/1026,UASP,2019-01-05T21:30:00Z,52.2,77.07,-18.0,-20.0,150,6,,6.21,30.73819,,,,,,TRUE,,,,,BKN,2500,,,,,,,MVFR,,,,,,,,,,,,SPECI,125.0
UAKK 052130Z 08002MPS CAVOK M18/M20 Q1034 R05/910560 NOSIG RMK QFE728/0970,UAKK,2019-01-05T21:30:00Z,49.67,73.33,-18.0,-20.0,80,4,,6.21,30.531496,,,,,,TRUE,,,,,CAVOK,,,,,,,,VFR,,,,,,,,,,,,SPECI,538.0
UAII 052130Z 12002MPS 1100 R28/P2000 BR OVC023 00/M00 Q1027 R28/1///60 NOSIG RMK QFE733/0977,UAII,2019-01-05T21:30:00Z,42.37,69.48,0.0,0.0,120,4,,0.68,30.324802,,,,,,TRUE,,,,BR,OVC,2300,,,,,,,LIFR,,,,,,,,,,,,SPECI,422.0
UACC 052130Z 11002MPS CAVOK M25/M27 Q1035 R04/3///65 NOSIG RMK QFE744/0992,UACC,2019-01-05T21:30:00Z,51.02,71.47,-25.0,-27.0,110,4,,6.21,30.561024,,,,,,TRUE,,,,,CAVOK,,,,,,,,VFR,,,,,,,,,,,,METAR,355.0
UADD 052130Z VRB01MPS 1700 R13/P2000 BR OVC002 M02/M02 Q1027 R13/390332 NOSIG RMK QBB060 MT OBSC QFE713/0950,UADD,2019-01-05T21:30:00Z,42.85,71.3,-2.0,-2.0,0,2,,1.06,30.324802,,,,,,TRUE,,,,BR,OVC,200,,,,,,,LIFR,,,,,,,,,,,,SPECI,665.0
UAAA 052130Z 04002MPS 3100 BR OVC004 M06/M07 Q1032 R23R/91//50 R23L/91//45 NOSIG RMK QBB130,UAAA,2019-01-05T21:30:00Z,43.35,77.03,-6.0,-7.0,40,4,,1.93,30.47244,,,,,,TRUE,,,,BR,OVC,400,,,,,,,LIFR,,,,,,,,,,,,METAR,681.0
UDSG 052130Z 07004KT 6000 NSC M06/M08 Q1013 R02/CLRD70 NOSIG,UDSG,2019-01-05T21:30:00Z,40.75,43.87,-6.0,-8.0,70,4,,3.73,29.911417,,,,,,TRUE,,,,,CLR,,,,,,,,MVFR,,,,,,,,,,,,METAR,1524.0
UDYZ 052130Z 06002KT 2000 1400E R09/P2000N BR NSC M02/M03 Q1015 R09/000070 NOSIG,UDYZ,2019-01-05T21:30:00Z,40.15,44.4,-2.0,-3.0,60,2,,1.24,29.970472,,,,,,TRUE,,,,BR,CLR,,,,,,,,IFR,,,,,,,,,,,,METAR,865.0
ZYTX 052130Z 05003MPS 8000 NSC M17/M22 Q1033 NOSIG,ZYTX,2019-01-05T21:30:00Z,41.63,123.48,-17.0,-22.0,50,6,,4.97,30.501968,,,,,,TRUE,,,,,CLR,,,,,,,,MVFR,,,,,,,,,,,,METAR,35.0
ZYTL 052130Z 33002MPS 280V360 CAVOK M06/M16 Q1032 NOSIG,ZYTL,2019-01-05T21:30:00Z,38.97,121.53,-6.0,-16.0,330,4,,6.21,30.47244,,,,,,TRUE,,,,,CAVOK,,,,,,,,VFR,,,,,,,,,,,,METAR,97.0
ZWWW 052130Z 27001MPS 3000 -SN BR BKN040 M13/M15 Q1038 NOSIG,ZWWW,2019-01-05T21:30:00Z,43.88,87.47,-13.0,-15.0,270,2,,1.86,30.649607,,,,,,TRUE,,,,-SN BR,BKN,4000,,,,,,,IFR,,,,,,,,,,,,METAR,654.0
ZSSS 052130Z 35004MPS 3000 BR BKN004 OVC030 06/06 Q1029 NOSIG,ZSSS,2019-01-05T21:30:00Z,31.2,121.33,6.0,6.0,350,8,,1.86,30.383858,,,,,,TRUE,,,,BR,BKN,400,OVC,3000,,,,,LIFR,,,,,,,,,,,,METAR,7.0
ZSPD 052130Z 36006MPS 5000 -RA BR BKN005 06/06 Q1029 NOSIG,ZSPD,2019-01-05T21:30:00Z,31.15,121.8,6.0,6.0,360,12,,3.11,30.383858,,,,,,TRUE,,,,-RA BR,BKN,500,,,,,,,IFR,,,,,,,,,,,,METAR,4.0
ZSHC 052130Z 31003MPS 7000 FEW011 BKN026 06/04 Q1031 NOSIG,ZSHC,2019-01-05T21:30:00Z,30.22,120.43,6.0,4.0,310,6,,4.35,30.442913,,,,,,TRUE,,,,,FEW,1100,BKN,2600,,,,,MVFR,,,,,,,,,,,,METAR,43.0
ZGGG 052130Z 01002MPS 8000 -RA SCT010 OVC023 12/09 Q1023 NOSIG,ZGGG,2019-01-05T21:30:00Z,23.4,113.3,12.0,9.0,10,4,,4.97,30.206694,,,,,,TRUE,,,,-RA,SCT,1000,OVC,2300,,,,,MVFR,,,,,,,,,,,,METAR,15.0
ZBYN 052130Z 09002MPS 2800 HZ NSC M11/M14 Q1025 NOSIG,ZBYN,2019-01-05T21:30:00Z,37.77,112.63,-11.0,-14.0,90,4,,1.74,30.265747,,,,,,TRUE,,,,HZ,CLR,,,,,,,,IFR,,,,,,,,,,,,METAR,779.0
ZBTJ 052130Z 17001MPS CAVOK M07/M13 Q1031 NOSIG,ZBTJ,2019-01-05T21:30:00Z,39.12,117.35,-7.0,-13.0,170,2,,6.21,30.442913,,,,,,TRUE,,,,,CAVOK,,,,,,,,VFR,,,,,,,,,,,,METAR,3.0
ZBAA 052130Z 34002MPS CAVOK M12/M21 Q1031 NOSIG,ZBAA,2019-01-05T21:30:00Z,40.07,116.58,-12.0,-21.0,340,4,,6.21,30.442913,,,,,,TRUE,,,,,CAVOK,,,,,,,,VFR,,,,,,,,,,,,METAR,30.0
HECA 052130Z 23012KT CAVOK 14/01 Q1016 NOSIG,HECA,2019-01-05T21:30:00Z,30.12,31.38,14.0,1.0,230,12,,6.21,30.0,,,,,,TRUE,,,,,CAVOK,,,,,,,,VFR,,,,,,,,,,,,METAR,74.0
LESB 052130Z AUTO 26005KT CAVOK 09/06 Q1028,LESB,2019-01-05T21:30:00Z,39.6,2.7,9.0,6.0,260,5,,6.21,30.35433,,,TRUE,,,,,,,,CAVOK,,,,,,,,VFR,,,,,,,,,,,,METAR,48.0
LELL 052130Z AUTO 28002KT 9999 NCD 06/M01 Q1026,LELL,2019-01-05T21:30:00Z,41.52,2.1,6.0,-1.0,280,2,,6.21,30.295275,,,TRUE,,,,,,,,CLR,,,,,,,,VFR,,,,,,,,,,,,METAR,250.0
LETU 052130Z AUTO 29019KT 9999 NCD 08/M06 Q1032,LETU,2019-01-05T21:30:00Z,,,8.0,-6.0,290,19,,6.21,30.47244,,,TRUE,,,,,,,,CLR,,,,,,,,VFR,,,,,,,,,,,,METAR,
LEBR 052130Z AUTO 31021KT 9999 NCD 08/M08 Q1031,LEBR,2019-01-05T21:30:00Z,42.2,-1.43,8.0,-8.0,310,21,,6.21,30.442913,,,TRUE,,,,,,,,CLR,,,,,,,,VFR,,,,,,,,,,,,METAR,295.0
LELO 052130Z 26008KT CAVOK 04/M04 Q1035,LELO,2019-01-05T21:30:00Z,42.45,-2.32,4.0,-4.0,260,8,,6.21,30.561024,,,,,,,,,,,CAVOK,,,,,,,,VFR,,,,,,,,,,,,METAR,363.0
LEBT 052130Z AUTO VRB02KT 9999 NCD 05/M01 Q1028,LEBT,2019-01-05T21:30:00Z,39.58,-0.45,5.0,-1.0,0,2,,6.21,30.35433,,,TRUE,,,,,,,,CLR,,,,,,,,VFR,,,,,,,,,,,,METAR,50.0
LEHC 052130Z AUTO 33001KT 7000 NCD M01/M02 Q1029,LEHC,2019-01-05T21:30:00Z,42.08,-0.32,-1.0,-2.0,330,1,,4.35,30.383858,,,TRUE,,,,,,,,CLR,,,,,,,,MVFR,,,,,,,,,,,,METAR,539.0
LEBA 052130Z AUTO 00000KT 9999 NCD 02/01 Q1032,LEBA,2019-01-05T21:30:00Z,37.85,-4.82,2.0,1.0,0,0,,6.21,30.47244,,,TRUE,,,,,,,,CLR,,,,,,,,VFR,,,,,,,,,,,,METAR,92.0
RKSI 052130Z 07005KT CAVOK M06/M15 Q1028 NOSIG,RKSI,2019-01-05T21:30:00Z,37.47,126.45,-6.0,-15.0,70,5,,6.21,30.35433,,,,,,TRUE,,,,,CAVOK,,,,,,,,VFR,,,,,,,,,,,,METAR,7.0
VOHS 052130Z 11004KT 3000 BR NSC 16/15 Q1017 NOSIG,VOHS,2019-01-05T21:30:00Z,17.23,78.43,16.0,15.0,110,4,,1.86,30.029528,,,,,,TRUE,,,,BR,CLR,,,,,,,,IFR,,,,,,,,,,,,METAR,1.0
UMMS 052130Z 01007MPS 9999 -SHSN OVC009CB M05/M06 Q1008 R31/490631 NOSIG,UMMS,2019-01-05T21:30:00Z,53.88,28.03,-5.0,-6.0,10,14,,6.21,29.763779,,,,,,TRUE,,,,-SHSN,OVC,900,,,,,,,IFR,,,,,,,,,,,,METAR,205.0
NSFA 052130Z 33022KT 0800 +SHRA FEW017CB SCT019 OVC037 27/26 Q1007 RMK CB TO N,NSFA,2019-01-05T21:30:00Z,-13.83,-172.0,27.0,26.0,330,22,,0.5,29.734253,,,,,,,,,,+SHRA,FEW,1700,SCT,1900,OVC,3700,,,LIFR,,,,,,,,,,,,METAR,5.0
LFSG 052130Z AUTO 30006KT //// R26///// // BKN042 03/02 Q1033,LFSG,2019-01-05T21:30:00Z,48.33,6.07,3.0,2.0,300,6,,,30.501968,,,TRUE,,,,,,,,BKN,4200,,,,,,,,,,,,,,,,,,,METAR,330.0
LFRZ 052130Z AUTO 04003KT 010V080 8000 OVC020 03/M00 Q1039 TEMPO 3000 BR BKN010,LFRZ,2019-01-05T21:30:00Z,47.32,-2.17,3.0,0.0,40,3,,4.97,30.679134,,,TRUE,,,,,,,,OVC,2000,,,,,,,MVFR,,,,,,,,,,,,METAR,4.0
LFRV 052130Z AUTO 02005KT 9000 OVC015 03/00 Q1039,LFRV,2019-01-05T21:30:00Z,47.72,-2.72,3.0,0.0,20,5,,5.59,30.679134,,,TRUE,,,,,,,,OVC,1500,,,,,,,MVFR,,,,,,,,,,,,METAR,133.0
LFRO 052130Z AUTO 17001KT 9000 OVC022 05/02 Q1040 NOSIG,LFRO,2019-01-05T21:30:00Z,48.75,-3.47,5.0,2.0,170,1,,5.59,30.708662,,,TRUE,,,TRUE,,,,,OVC,2200,,,,,,,MVFR,,,,,,,,,,,,METAR,89.0
LFRM 052130Z AUTO 35004KT 320V020 9999 OVC021 05/01 Q1039,LFRM,2019-01-05T21:30:00Z,47.95,0.2,5.0,1.0,350,4,,6.21,30.679134,,,TRUE,,,,,,,,OVC,2100,,,,,,,MVFR,,,,,,,,,,,,METAR,52.0
LFRI 052130Z AUTO 03008KT 360V060 9000 OVC017 03/M00 Q1039,LFRI,2019-01-05T21:30:00Z,46.7,-1.37,3.0,0.0,30,8,,5.59,30.679134,,,TRUE,,,,,,,,OVC,1700,,,,,,,MVFR,,,,,,,,,,,,METAR,91.0
LFOV 052130Z AUTO 03005KT 9999 OVC019 04/00 Q1039,LFOV,2019-01-05T21:30:00Z,48.03,-0.75,4.0,0.0,30,5,,6.21,30.679134,,,TRUE,,,,,,,,OVC,1900,,,,,,,MVFR,,,,,,,,,,,,METAR,101.0
LFMI 052130Z AUTO VRB05KT 9999 FEW028 SCT140 06/01 Q1023 TEMPO 35035G55KT,LFMI,2019-01-05T21:30:00Z,43.52,4.92,6.0,1.0,0,5,,6.21,30.206694,,,TRUE,,,,,,,,FEW,2800,SCT,14000,,,,,VFR,,,,,,,,,,,,METAR,24.0
LFBA 052130Z AUTO 25005KT 9000 NSC 01/M01 Q1037 BECMG 4000 BR,LFBA,2019-01-05T21:30:00Z,44.17,0.6,1.0,-1.0,250,5,,5.59,30.620079,,,TRUE,,,,,,,,CLR,,,,,,,,VFR,,,,,,,,,,,,METAR,60.0
LFSL 052130Z AUTO 35008KT 9000 NSC M00/M02 Q1034,LFSL,2019-01-05T21:30:00Z,45.03,1.48,0.0,-2.0,350,8,,5.59,30.531496,,,TRUE,,,,,,,,CLR,,,,,,,,VFR,,,,,,,,,,,,METAR,310.0
LFMV 052130Z AUTO 35030G45KT CAVOK 06/00 Q1025,LFMV,2019-01-05T21:30:00Z,43.9,4.9,6.0,0.0,350,30,45,6.21,30.265747,,,TRUE,,,,,,,,CAVOK,,,,,,,,VFR,,,,,,,,,,,,METAR,38.0
LFMP 052130Z AUTO 31023G33KT CAVOK 10/M05 Q1028 TEMPO 34035G50KT,LFMP,2019-01-05T21:30:00Z,42.72,2.87,10.0,-5.0,310,23,33,6.21,30.35433,,,TRUE,,,,,,,,CAVOK,,,,,,,,VFR,,,,,,,,,,,,METAR,48.0
LFLS 052130Z AUTO 36008KT 340V090 9999 OVC009 02/00 Q1032,LFLS,2019-01-05T21:30:00Z,45.37,5.32,2.0,0.0,360,8,,6.21,30.47244,,,TRUE,,,,,,,,OVC,900,,,,,,,IFR,,,,,,,,,,,,METAR,386.0
LFLC 052130Z AUTO 35002KT 9999 BKN021 OVC032 02/M01 Q1036 TEMPO 1500 -SN BR OVC008,LFLC,2019-01-05T21:30:00Z,45.77,3.17,2.0,-1.0,350,2,,6.21,30.590551,,,TRUE,,,,,,,,BKN,2100,OVC,3200,,,,,MVFR,,,,,,,,,,,,METAR,330.0
LFKJ 052130Z AUTO 04007KT CAVOK 05/02 Q1021 NOSIG,LFKJ,2019-01-05T21:30:00Z,41.92,8.8,5.0,2.0,40,7,,6.21,30.147638,,,TRUE,,,TRUE,,,,,CAVOK,,,,,,,,VFR,,,,,,,,,,,,METAR,9.0
LFKF 052130Z AUTO 22004KT 180V270 CAVOK 09/04 Q1020 NOSIG,LFKF,2019-01-05T21:30:00Z,41.5,9.08,9.0,4.0,220,4,,6.21,30.11811,,,TRUE,,,TRUE,,,,,CAVOK,,,,,,,,VFR,,,,,,,,,,,,METAR,23.0
LFKC 052130Z AUTO VRB03KT CAVOK 03/00 Q1020,LFKC,2019-01-05T21:30:00Z,42.52,8.8,3.0,0.0,0,3,,6.21,30.11811,,,TRUE,,,,,,,,CAVOK,,,,,,,,VFR,,,,,,,,,,,,METAR,58.0
LFJL 052130Z AUTO 29012KT 9999 SCT012 BKN029 OVC038 04/03 Q1032 TEMPO 2000 -RADZ BR OVC002,LFJL,2019-01-05T21:30:00Z,48.97,6.25,4.0,3.0,290,12,,6.21,30.47244,,,TRUE,,,,,,,,SCT,1200,BKN,2900,OVC,3800,,,MVFR,,,,,,,,,,,,METAR,264.0
LFCR 052130Z AUTO 30004KT CAVOK M04/M06 Q1032 NOSIG,LFCR,2019-01-05T21:30:00Z,44.38,2.47,-4.0,-6.0,300,4,,6.21,30.47244,,,TRUE,,,TRUE,,,,,CAVOK,,,,,,,,VFR,,,,,,,,,,,,METAR,580.0
LRTM 052130Z AUTO 07004KT 3000 -SN FEW010/// M05/M07 Q1011,LRTM,2019-01-05T21:30:00Z,46.47,24.42,-5.0,-7.0,70,4,,1.86,29.852362,,,TRUE,,,,,,,-SN,FEW,1000,,,,,,,IFR,,,,,,,,,,,,METAR,309.0
LRSM 052130Z AUTO 11003KT 6000 -SN OVC015/// M04/M04 Q1013,LRSM,2019-01-05T21:30:00Z,47.7,22.88,-4.0,-4.0,110,3,,3.73,29.911417,,,TRUE,,,,,,,-SN,OVC,1500,,,,,,,MVFR,,,,,,,,,,,,METAR,124.0
LROD 052130Z AUTO 17003KT 130V210 9999 -SN BKN013/// M03/M04 Q1013,LROD,2019-01-05T21:30:00Z,47.03,21.92,-3.0,-4.0,170,3,,6.21,29.911417,,,TRUE,,,,,,,-SN,BKN,1300,,,,,,,MVFR,,,,,,,,,,,,METAR,140.0
LRCL 052130Z 02004KT 340V040 2000 -SN BR SCT015 OVC028 M05/M07 Q1011 R07/590394,LRCL,2019-01-05T21:30:00Z,46.78,23.68,-5.0,-7.0,20,4,,1.24,29.852362,,,,,,,,,,-SN BR,SCT,1500,OVC,2800,,,,,IFR,,,,,,,,,,,,METAR,413.0
LRBM 052130Z AUTO VRB01KT 4500 -SN FEW005/// BKN009/// BKN070/// M05/M06 Q1013,LRBM,2019-01-05T21:30:00Z,47.67,23.47,-5.0,-6.0,0,1,,2.8,29.911417,,,TRUE,,,,,,,-SN,FEW,500,BKN,900,BKN,7000,,,IFR,,,,,,,,,,,,METAR,185.0
LRAR 052130Z AUTO 16005KT 6000 -FZDZ OVC008/// M03/M03 Q1012,LRAR,2019-01-05T21:30:00Z,46.18,21.27,-3.0,-3.0,160,5,,3.73,29.88189,,,TRUE,,,,,,,-FZDZ,OVC,800,,,,,,,IFR,,,,,,,,,,,,METAR,118.0
DTTJ 052130Z 24011KT 9999 FEW020 12/02 Q1027,DTTJ,2019-01-05T21:30:00Z,33.87,10.77,12.0,2.0,240,11,,6.21,30.324802,,,,,,,,,,,FEW,2000,,,,,,,VFR,,,,,,,,,,,,METAR,4.0
DTTA 052130Z 22009KT 9999 FEW026 SCT046 10/07 Q1024 NOSIG,DTTA,2019-01-05T21:30:00Z,36.85,10.22,10.0,7.0,220,9,,6.21,30.236221,,,,,,TRUE,,,,,FEW,2600,SCT,4600,,,,,VFR,,,,,,,,,,,,METAR,4.0
DTNH 052130Z 25006KT 9999 FEW046 10/04 Q1025,DTNH,2019-01-05T21:30:00Z,36.07,10.43,10.0,4.0,250,6,,6.21,30.265747,,,,,,,,,,,FEW,4600,,,,,,,VFR,,,,,,,,,,,,METAR,2.0
LFRS 052130Z AUTO 07006KT 010V100 9000 OVC020 03/M00 Q1039 TEMPO 3000 BR BKN010,LFRS,2019-01-05T21:30:00Z,47.17,-1.6,3.0,0.0,70,6,,5.59,30.679134,,,TRUE,,,,,,,,OVC,2000,,,,,,,MVFR,,,,,,,,,,,,METAR,27.0
LFRB 052130Z AUTO 04002KT 8000 OVC020 05/02 Q1040 NOSIG,LFRB,2019-01-05T21:30:00Z,48.45,-4.42,5.0,2.0,40,2,,4.97,30.708662,,,TRUE,,,TRUE,,,,,OVC,2000,,,,,,,MVFR,,,,,,,,,,,,METAR,103.0
LFQQ 052130Z AUTO 30009KT 260V340 9000 OVC023 04/01 Q1036 NOSIG,LFQQ,2019-01-05T21:30:00Z,50.57,3.1,4.0,1.0,300,9,,5.59,30.590551,,,TRUE,,,TRUE,,,,,OVC,2300,,,,,,,MVFR,,,,,,,,,,,,METAR,52.0
LFPO 052130Z 36008KT 9999 OVC023 05/M00 Q1037 NOSIG,LFPO,2019-01-05T21:30:00Z,48.72,2.38,5.0,0.0,360,8,,6.21,30.620079,,,,,,TRUE,,,,,OVC,2300,,,,,,,MVFR,,,,,,,,,,,,METAR,96.0
LFPG 052130Z 35006KT 9999 OVC019 04/00 Q1037 NOSIG,LFPG,2019-01-05T21:30:00Z,49.02,2.52,4.0,0.0,350,6,,6.21,30.620079,,,,,,TRUE,,,,,OVC,1900,,,,,,,MVFR,,,,,,,,,,,,METAR,109.0
LFMN 052130Z 33010KT CAVOK 07/00 Q1019 NOSIG,LFMN,2019-01-05T21:30:00Z,43.63,7.2,7.0,0.0,330,10,,6.21,30.088583,,,,,,TRUE,,,,,CAVOK,,,,,,,,VFR,,,,,,,,,,,,METAR,10.0
LFLL 052130Z 34011KT 8000 OVC008 03/02 Q1034 NOSIG,LFLL,2019-01-05T21:30:00Z,45.72,5.07,3.0,2.0,340,11,,4.97,30.531496,,,,,,TRUE,,,,,OVC,800,,,,,,,IFR,,,,,,,,,,,,METAR,240.0
LFBH 052130Z AUTO 06007KT 9000 OVC018 04/00 Q1039 NOSIG,LFBH,2019-01-05T21:30:00Z,46.18,-1.2,4.0,0.0,60,7,,5.59,30.679134,,,TRUE,,,TRUE,,,,,OVC,1800,,,,,,,MVFR,,,,,,,,,,,,METAR,10.0
LFBD 052130Z AUTO 35002KT 5000 BR NSC M01/M02 Q1038 TEMPO BKN012,LFBD,2019-01-05T21:30:00Z,44.82,-0.7,-1.0,-2.0,350,2,,3.11,30.649607,,,TRUE,,,,,,,BR,CLR,,,,,,,,MVFR,,,,,,,,,,,,METAR,61.0
LFML 052130Z AUTO 32020KT CAVOK 06/01 Q1022 BECMG 34025G35KT,LFML,2019-01-05T21:30:00Z,43.45,5.22,6.0,1.0,320,20,,6.21,30.177166,,,TRUE,,,,,,,,CAVOK,,,,,,,,VFR,,,,,,,,,,,,METAR,36.0
LFLB 052130Z AUTO 32004KT 280V360 7000 BKN031 OVC044 03/00 Q1033 NOSIG,LFLB,2019-01-05T21:30:00Z,45.63,5.87,3.0,0.0,320,4,,4.35,30.501968,,,TRUE,,,TRUE,,,,,BKN,3100,OVC,4400,,,,,MVFR,,,,,,,,,,,,METAR,239.0
LFKB 052130Z AUTO 22004KT CAVOK 04/01 Q1020 NOSIG,LFKB,2019-01-05T21:30:00Z,42.53,9.47,4.0,1.0,220,4,,6.21,30.11811,,,TRUE,,,TRUE,,,,,CAVOK,,,,,,,,VFR,,,,,,,,,,,,METAR,12.0
LFBZ 052130Z AUTO 17003KT 9999 BKN016 03/02 Q1037 BECMG 4000 BR,LFBZ,2019-01-05T21:30:00Z,43.47,-1.52,3.0,2.0,170,3,,6.21,30.620079,,,TRUE,,,,,,,,BKN,1600,,,,,,,MVFR,,,,,,,,,,,,METAR,71.0
LFBT 052130Z AUTO 16004KT CAVOK M03/M05 Q1036 BECMG 4000 BR,LFBT,2019-01-05T21:30:00Z,43.17,0.0,-3.0,-5.0,160,4,,6.21,30.590551,,,TRUE,,,,,,,,CAVOK,,,,,,,,VFR,,,,,,,,,,,,METAR,363.0
LFBP 052130Z AUTO 16005KT 7000 NSC M01/M02 Q1036 BECMG 4000 BR,LFBP,2019-01-05T21:30:00Z,43.37,-0.42,-1.0,-2.0,160,5,,4.35,30.590551,,,TRUE,,,,,,,,CLR,,,,,,,,MVFR,,,,,,,,,,,,METAR,185.0
LFBO 052130Z AUTO 28008KT CAVOK 02/M02 Q1036 NOSIG,LFBO,2019-01-05T21:30:00Z,43.62,1.37,2.0,-2.0,280,8,,6.21,30.590551,,,TRUE,,,TRUE,,,,,CAVOK,,,,,,,,VFR,,,,,,,,,,,,METAR,153.0
LFBL 052130Z AUTO 03012KT 9999 OVC010 01/M01 Q1035 NOSIG,LFBL,2019-01-05T21:30:00Z,45.87,1.17,1.0,-1.0,30,12,,6.21,30.561024,,,TRUE,,,TRUE,,,,,OVC,1000,,,,,,,MVFR,,,,,,,,,,,,METAR,402.0
LFBI 052130Z AUTO 03006KT 9999 OVC016 03/M00 Q1038 TEMPO BKN010,LFBI,2019-01-05T21:30:00Z,46.57,0.32,3.0,0.0,30,6,,6.21,30.649607,,,TRUE,,,,,,,,OVC,1600,,,,,,,MVFR,,,,,,,,,,,,METAR,120.0
LFSB 052130Z 26010KT 9999 FEW010 OVC036 04/02 Q1032 NOSIG,LFSB,2019-01-05T21:30:00Z,47.6,7.52,4.0,2.0,260,10,,6.21,30.47244,,,,,,TRUE,,,,,FEW,1000,OVC,3600,,,,,VFR,,,,,,,,,,,,METAR,271.0
LFRN 052130Z AUTO 01004KT 340V040 9999 OVC021 05/01 Q1039 NOSIG,LFRN,2019-01-05T21:30:00Z,48.07,-1.72,5.0,1.0,10,4,,6.21,30.679134,,,TRUE,,,TRUE,,,,,OVC,2100,,,,,,,MVFR,,,,,,,,,,,,METAR,37.0
LFRD 052130Z AUTO VRB03KT 9999 OVC022 05/01 Q1039 TEMPO 3000 BR,LFRD,2019-01-05T21:30:00Z,48.58,-2.07,5.0,1.0,0,3,,6.21,30.679134,,,TRUE,,,,,,,,OVC,2200,,,,,,,MVFR,,,,,,,,,,,,METAR,59.0
LFPB 052130Z AUTO 32003KT 280V010 9999 OVC023 04/M00 Q1037 NOSIG,LFPB,2019-01-05T21:30:00Z,48.97,2.45,4.0,0.0,320,3,,6.21,30.620079,,,TRUE,,,TRUE,,,,,OVC,2300,,,,,,,MVFR,,,,,,,,,,,,METAR,65.0
LFOK 052130Z AUTO 31010KT 6000 -RA BKN021 BKN027 OVC032 03/02 Q1035 TEMPO 4000 DZ OVC008,LFOK,2019-01-05T21:30:00Z,48.78,4.18,3.0,2.0,310,10,,3.73,30.561024,,,TRUE,,,,,,,-RA,BKN,2100,BKN,2700,OVC,3200,,,MVFR,,,,,,,,,,,,METAR,162.0
LFOB 052130Z AUTO 34003KT 9000 OVC021 04/01 Q1037 NOSIG,LFOB,2019-01-05T21:30:00Z,49.47,2.12,4.0,1.0,340,3,,5.59,30.620079,,,TRUE,,,TRUE,,,,,OVC,2100,,,,,,,MVFR,,,,,,,,,,,,METAR,111.0
LFMU 052130Z AUTO 30014KT CAVOK 06/M02 Q1029,LFMU,2019-01-05T21:30:00Z,43.32,3.35,6.0,-2.0,300,14,,6.21,30.383858,,,TRUE,,,,,,,,CAVOK,,,,,,,,VFR,,,,,,,,,,,,METAR,17.0
LFMT 052130Z AUTO 31009KT CAVOK 07/M02 Q1028 NOSIG,LFMT,2019-01-05T21:30:00Z,43.57,3.97,7.0,-2.0,310,9,,6.21,30.35433,,,TRUE,,,TRUE,,,,,CAVOK,,,,,,,,VFR,,,,,,,,,,,,METAR,6.0
LFMK 052130Z AUTO 26011KT CAVOK 03/M01 Q1035,LFMK,2019-01-05T21:30:00Z,43.22,2.32,3.0,-1.0,260,11,,6.21,30.561024,,,TRUE,,,,,,,,CAVOK,,,,,,,,VFR,,,,,,,,,,,,METAR,130.0
LFLY 052130Z AUTO 34011KT 9999 OVC021 04/00 Q1034 TEMPO 3000 -DZ BKN006 OVC010,LFLY,2019-01-05T21:30:00Z,45.72,4.95,4.0,0.0,340,11,,6.21,30.531496,,,TRUE,,,,,,,,OVC,2100,,,,,,,MVFR,,,,,,,,,,,,METAR,201.0
LPHR 052130Z 13019KT 8000 SCT004 SCT007 BKN012 18/17 Q1016,LPHR,2019-01-05T21:30:00Z,38.52,-28.72,18.0,17.0,130,19,,4.97,30.0,,,,,,,,,,,SCT,400,SCT,700,BKN,1200,,,MVFR,,,,,,,,,,,,METAR,41.0
LPPT 052130Z 33004KT 280V070 CAVOK 09/04 Q1033,LPPT,2019-01-05T21:30:00Z,38.77,-9.12,9.0,4.0,330,4,,6.21,30.501968,,,,,,,,,,,CAVOK,,,,,,,,VFR,,,,,,,,,,,,METAR,123.0
LPPS 052130Z 09009KT 9999 FEW015 BKN030 17/09 Q1029,LPPS,2019-01-05T21:30:00Z,33.07,-16.35,17.0,9.0,90,9,,6.21,30.383858,,,,,,,,,,,FEW,1500,BKN,3000,,,,,MVFR,,,,,,,,,,,,METAR,82.0
LPPR 052130Z VRB02KT 6000 NSC 04/03 Q1034,LPPR,2019-01-05T21:30:00Z,41.22,-8.67,4.0,3.0,0,2,,3.73,30.531496,,,,,,,,,,,CLR,,,,,,,,MVFR,,,,,,,,,,,,METAR,73.0
LPMA 052130Z 07007KT 340V130 9999 SCT016 17/12 Q1029,LPMA,2019-01-05T21:30:00Z,32.7,-16.77,17.0,12.0,70,7,,6.21,30.383858,,,,,,,,,,,SCT,1600,,,,,,,VFR,,,,,,,,,,,,METAR,55.0
LPFR 052130Z 31003KT 260V350 CAVOK 08/05 Q1031,LPFR,2019-01-05T21:30:00Z,37.02,-7.97,8.0,5.0,310,3,,6.21,30.442913,,,,,,,,,,,CAVOK,,,,,,,,VFR,,,,,,,,,,,,METAR,4.0
VECC 052130Z 36003KT 2600 BR NSC 13/10 Q1015 NOSIG,VECC,2019-01-05T21:30:00Z,22.65,88.43,13.0,10.0,360,3,,1.62,29.970472,,,,,,TRUE,,,,BR,CLR,,,,,,,,IFR,,,,,,,,,,,,METAR,6.0
LRTR 052130Z 16005KT 4000 -SN BR BKN005 OVC012 M03/M03 Q1012 R11/590593,LRTR,2019-01-05T21:30:00Z,45.82,21.33,-3.0,-3.0,160,5,,2.49,29.88189,,,,,,,,,,-SN BR,BKN,500,OVC,1200,,,,,IFR,,,,,,,,,,,,SPECI,88.0
LPPD 052130Z 13019KT 9999 FEW016 BKN040 17/15 Q1023,LPPD,2019-01-05T21:30:00Z,37.72,-25.68,17.0,15.0,130,19,,6.21,30.206694,,,,,,,,,,,FEW,1600,BKN,4000,,,,,VFR,,,,,,,,,,,,METAR,72.0
LPAZ 052130Z 14020KT 9999 FEW014 17/15 Q1022,LPAZ,2019-01-05T21:30:00Z,36.97,-25.17,17.0,15.0,140,20,,6.21,30.177166,,,,,,,,,,,FEW,1400,,,,,,,VFR,,,,,,,,,,,,METAR,100.0
LRSB 052130Z 00000KT 4000 -SN SCT015 OVC044 M07/M08 Q1010 R27/490195,LRSB,2019-01-05T21:30:00Z,45.78,24.08,-7.0,-8.0,0,0,,2.49,29.822834,,,,,,,,,,-SN,SCT,1500,OVC,4400,,,,,IFR,,,,,,,,,,,,METAR,444.0
LROP 052130Z 24008KT 9000 NSC M06/M07 Q1011 NOSIG,LROP,2019-01-05T21:30:00Z,44.57,26.1,-6.0,-7.0,240,8,,5.59,29.852362,,,,,,TRUE,,,,,CLR,,,,,,,,VFR,,,,,,,,,,,,METAR,95.0
LRCK 052130Z 25009KT CAVOK M09/M10 Q1011 NOSIG,LRCK,2019-01-05T21:30:00Z,44.37,28.48,-9.0,-10.0,250,9,,6.21,29.852362,,,,,,TRUE,,,,,CAVOK,,,,,,,,VFR,,,,,,,,,,,,METAR,108.0
LRBS 052130Z 26007KT CAVOK M05/M06 Q1011 NOSIG,LRBS,2019-01-05T21:30:00Z,44.5,26.08,-5.0,-6.0,260,7,,6.21,29.852362,,,,,,TRUE,,,,,CAVOK,,,,,,,,VFR,,,,,,,,,,,,METAR,91.0
LRTC 052130Z AUTO 20005KT 9999 NCD M05/M08 Q1011,LRTC,2019-01-05T21:30:00Z,45.07,28.72,-5.0,-8.0,200,5,,6.21,29.852362,,,TRUE,,,,,,,,CLR,,,,,,,,VFR,,,,,,,,,,,,METAR,6.0
LRSV 052130Z 25010KT 5000 -SN BR SCT010 BKN025 M04/M05 Q1006 R16/450194,LRSV,2019-01-05T21:30:00Z,47.68,26.35,-4.0,-5.0,250,10,,3.11,29.704725,,,,,,,,,,-SN BR,SCT,1000,BKN,2500,,,,,MVFR,,,,,,,,,,,,METAR,351.0
LRIA 052130Z 00000KT 9999 -SN SCT033 M03/M09 Q1009 R14/19//95,LRIA,2019-01-05T21:30:00Z,47.17,27.62,-3.0,-9.0,0,0,,6.21,29.793306,,,,,,,,,,-SN,SCT,3300,,,,,,,VFR,,,,,,,,,,,,METAR,104.0
LRCV 052130Z AUTO 24008KT 9999 FEW070/// BKN100/// BKN130/// M03/M08 Q1010,LRCV,2019-01-05T21:30:00Z,44.32,23.88,-3.0,-8.0,240,8,,6.21,29.822834,,,TRUE,,,,,,,,FEW,7000,BKN,10000,BKN,13000,,,VFR,,,,,,,,,,,,METAR,191.0
LRBC 052130Z 34004KT 9999 FEW037 M02/M08 Q1009,LRBC,2019-01-05T21:30:00Z,46.52,26.92,-2.0,-8.0,340,4,,6.21,29.793306,,,,,,,,,,,FEW,3700,,,,,,,VFR,,,,,,,,,,,,METAR,185.0
LFTW 052130Z AUTO 35024G36KT CAVOK 07/M01 Q1026,LFTW,2019-01-05T21:30:00Z,43.75,4.42,7.0,-1.0,350,24,36,6.21,30.295275,,,TRUE,,,,,,,,CAVOK,,,,,,,,VFR,,,,,,,,,,,,METAR,96.0
LFTH 052130Z AUTO VRB03KT CAVOK 03/00 Q1019 NOSIG,LFTH,2019-01-05T21:30:00Z,43.1,6.15,3.0,0.0,0,3,,6.21,30.088583,,,TRUE,,,TRUE,,,,,CAVOK,,,,,,,,VFR,,,,,,,,,,,,METAR,4.0
LFST 052130Z AUTO VRB02KT 9999 BKN023 OVC029 04/03 Q1031 TEMPO 2800 -RADZ BR OVC012,LFST,2019-01-05T21:30:00Z,48.53,7.62,4.0,3.0,0,2,,6.21,30.442913,,,TRUE,,,,,,,,BKN,2300,OVC,2900,,,,,MVFR,,,,,,,,,,,,METAR,154.0
LFRG 052130Z AUTO 32005KT 270V010 9999 OVC017 04/01 Q1038,LFRG,2019-01-05T21:30:00Z,49.37,0.15,4.0,1.0,320,5,,6.21,30.649607,,,TRUE,,,,,,,,OVC,1700,,,,,,,MVFR,,,,,,,,,,,,METAR,146.0
LFOT 052130Z AUTO 02003KT 9999 OVC024 04/M00 Q1038 TEMPO BKN006,LFOT,2019-01-05T21:30:00Z,47.43,0.72,4.0,0.0,20,3,,6.21,30.649607,,,TRUE,,,,,,,,OVC,2400,,,,,,,MVFR,,,,,,,,,,,,METAR,108.0
LFMH 052130Z AUTO 34007KT 310V010 7000 BKN008 OVC030 01/00 Q1034,LFMH,2019-01-05T21:30:00Z,45.52,4.28,1.0,0.0,340,7,,4.35,30.531496,,,TRUE,,,,,,,,BKN,800,OVC,3000,,,,,IFR,,,,,,,,,,,,METAR,402.0
LFMD 052130Z AUTO VRB04KT CAVOK 04/01 Q1019,LFMD,2019-01-05T21:30:00Z,43.53,6.95,4.0,1.0,0,4,,6.21,30.088583,,,TRUE,,,,,,,,CAVOK,,,,,,,,VFR,,,,,,,,,,,,METAR,9.0
LFGJ 052130Z AUTO 00000KT 1700 BR OVC002 02/01 Q1035,LFGJ,2019-01-05T21:30:00Z,47.05,5.43,2.0,1.0,0,0,,1.06,30.561024,,,TRUE,,,,,,,BR,OVC,200,,,,,,,LIFR,,,,,,,,,,,,METAR,196.0
LFBE 052130Z AUTO 27004KT 6000 NSC M01/M02 Q1036,LFBE,2019-01-05T21:30:00Z,44.82,0.52,-1.0,-2.0,270,4,,3.73,30.590551,,,TRUE,,,,,,,,CLR,,,,,,,,MVFR,,,,,,,,,,,,METAR,52.0
LFSN 052130Z AUTO VRB02KT 9999 SCT011 SCT017 OVC039 05/03 Q1033,LFSN,2019-01-05T21:30:00Z,48.67,6.22,5.0,3.0,0,2,,6.21,30.501968,,,TRUE,,,,,,,,SCT,1100,SCT,1700,OVC,3900,,,VFR,,,,,,,,,,,,METAR,217.0
LFQB 052130Z AUTO 32008KT 5000 BR OVC018 04/03 Q1036,LFQB,2019-01-05T21:30:00Z,48.32,4.02,4.0,3.0,320,8,,3.11,30.590551,,,TRUE,,,,,,,BR,OVC,1800,,,,,,,MVFR,,,,,,,,,,,,METAR,118.0
LFQA 052130Z AUTO 31009KT 7000 -DZ BKN013 OVC028 04/02 Q1035,LFQA,2019-01-05T21:30:00Z,49.2,4.15,4.0,2.0,310,9,,4.35,30.561024,,,TRUE,,,,,,,-DZ,BKN,1300,OVC,2800,,,,,MVFR,,,,,,,,,,,,METAR,95.0
LFOP 052130Z AUTO 33007KT 300V360 9999 OVC017 04/01 Q1037,LFOP,2019-01-05T21:30:00Z,49.37,1.17,4.0,1.0,330,7,,6.21,30.620079,,,TRUE,,,,,,,,OVC,1700,,,,,,,MVFR,,,,,,,,,,,,METAR,157.0
LFOH 052130Z AUTO 32008KT 9999 OVC020 05/01 Q1038,LFOH,2019-01-05T21:30:00Z,49.52,0.07,5.0,1.0,320,8,,6.21,30.649607,,,TRUE,,,,,,,,OVC,2000,,,,,,,MVFR,,,,,,,,,,,,METAR,103.0
LFLX 052130Z AUTO 35006KT 9999 OVC018 04/00 Q1037 TEMPO BKN006,LFLX,2019-01-05T21:30:00Z,46.85,1.72,4.0,0.0,350,6,,6.21,30.620079,,,TRUE,,,,,,,,OVC,1800,,,,,,,MVFR,,,,,,,,,,,,METAR,157.0
LFLP 052130Z AUTO 04003KT 360V070 8000 FEW037 M01/M02 Q1031,LFLP,2019-01-05T21:30:00Z,45.92,6.08,-1.0,-2.0,40,3,,4.97,30.442913,,,TRUE,,,,,,,,FEW,3700,,,,,,,MVFR,,,,,,,,,,,,METAR,463.0
LFCK 052130Z AUTO 34005KT 320V030 7000 NSC M01/M02 Q1036 BECMG BKN013,LFCK,2019-01-05T21:30:00Z,43.55,2.28,-1.0,-2.0,340,5,,4.35,30.590551,,,TRUE,,,,,,,,CLR,,,,,,,,MVFR,,,,,,,,,,,,METAR,240.0
VANP 052130Z 10002KT 2500 BR NSC 17/12 Q1015 NOSIG,VANP,2019-01-05T21:30:00Z,21.08,79.05,17.0,12.0,100,2,,1.55,29.970472,,,,,,TRUE,,,,BR,CLR,,,,,,,,IFR,,,,,,,,,,,,METAR,310.0
VAAH 052130Z 35003KT 4000 HZ NSC 16/10 Q1014 NOSIG,VAAH,2019-01-05T21:30:00Z,23.07,72.62,16.0,10.0,350,3,,2.49,29.940945,,,,,,TRUE,,,,HZ,CLR,,,,,,,,IFR,,,,,,,,,,,,METAR,55.0
LEMI 052130Z AUTO 25011KT 9999 NCD 09/05 Q1029,LEMI,2019-01-05T21:30:00Z,,,9.0,5.0,250,11,,6.21,30.383858,,,TRUE,,,,,,,,CLR,,,,,,,,VFR,,,,,,,,,,,,METAR,
GEML 052130Z AUTO 24004KT 9999 NCD 09/05 Q1031,GEML,2019-01-05T21:30:00Z,35.27,-2.95,9.0,5.0,240,4,,6.21,30.442913,,,TRUE,,,,,,,,CLR,,,,,,,,VFR,,,,,,,,,,,,METAR,55.0
LELN 052130Z AUTO 35005KT 8000 NCD M03/M09 Q1034,LELN,2019-01-05T21:30:00Z,42.57,-5.65,-3.0,-9.0,350,5,,4.97,30.531496,,,TRUE,,,,,,,,CLR,,,,,,,,MVFR,,,,,,,,,,,,METAR,914.0
LELC 052130Z AUTO 26009KT 9000 NCD 09/07 Q1029,LELC,2019-01-05T21:30:00Z,37.77,-0.8,9.0,7.0,260,9,,5.59,30.383858,,,TRUE,,,,,,,,CLR,,,,,,,,VFR,,,,,,,,,,,,METAR,3.0
LEXJ 052130Z 17003KT 120V200 CAVOK 03/03 Q1038,LEXJ,2019-01-05T21:30:00Z,43.42,-3.82,3.0,3.0,170,3,,6.21,30.649607,,,,,,,,,,,CAVOK,,,,,,,,VFR,,,,,,,,,,,,METAR,6.0
LEPP 052130Z 36005KT 330V040 CAVOK 04/M05 Q1034,LEPP,2019-01-05T21:30:00Z,42.77,-1.65,4.0,-5.0,360,5,,6.21,30.531496,,,,,,,,,,,CAVOK,,,,,,,,VFR,,,,,,,,,,,,METAR,459.0
VOCI 052130Z 12003KT 3500 HZ FEW015 SCT090 20/16 Q1012 NOSIG,VOCI,2019-01-05T21:30:00Z,10.15,76.4,20.0,16.0,120,3,,2.17,29.88189,,,,,,TRUE,,,,HZ,FEW,1500,SCT,9000,,,,,IFR,,,,,,,,,,,,METAR,8.0
VOCL 052130Z 05002KT 5000 BR FEW020 21/17 Q1012 NOSIG,VOCL,2019-01-05T21:30:00Z,11.13,75.95,21.0,17.0,50,2,,3.11,29.88189,,,,,,TRUE,,,,BR,FEW,2000,,,,,,,MVFR,,,,,,,,,,,,METAR,104.0
LEZG 052130Z 29019KT CAVOK 09/M05 Q1031,LEZG,2019-01-05T21:30:00Z,41.67,-1.02,9.0,-5.0,290,19,,6.21,30.442913,,,,,,,,,,,CAVOK,,,,,,,,VFR,,,,,,,,,,,,METAR,258.0
LEVT 052130Z 08002KT CAVOK M04/M07 Q1036,LEVT,2019-01-05T21:30:00Z,42.87,-2.72,-4.0,-7.0,80,2,,6.21,30.590551,,,,,,,,,,,CAVOK,,,,,,,,VFR,,,,,,,,,,,,METAR,509.0
LEJR 052130Z 00000KT CAVOK 05/03 Q1031,LEJR,2019-01-05T21:30:00Z,36.75,-6.07,5.0,3.0,0,0,,6.21,30.442913,,,,,,,,,,,CAVOK,,,,,,,,VFR,,,,,,,,,,,,METAR,30.0
LEST 052130Z VRB02KT CAVOK 03/M01 Q1035 NOSIG,LEST,2019-01-05T21:30:00Z,42.88,-8.42,3.0,-1.0,0,2,,6.21,30.561024,,,,,,TRUE,,,,,CAVOK,,,,,,,,VFR,,,,,,,,,,,,METAR,367.0
LEDA 052130Z AUTO VRB02KT 0050 R31/0225N FZFG VV001 M01/M01 Q1030,LEDA,2019-01-05T21:30:00Z,41.73,0.53,-1.0,-1.0,0,2,,0.03,30.413385,,,TRUE,,,,,,,FZFG,OVX,0,,,,,,,LIFR,,,,,,,,,,,100,METAR,350.0
LESA 052130Z AUTO 10004KT 5000 BR NSC M05/M06 Q1035,LESA,2019-01-05T21:30:00Z,40.95,-5.5,-5.0,-6.0,100,4,,3.11,30.561024,,,TRUE,,,,,,,BR,CLR,,,,,,,,MVFR,,,,,,,,,,,,METAR,795.0
GCXO 052130Z 14007KT CAVOK 13/06 Q1028 NOSIG,GCXO,2019-01-05T21:30:00Z,28.48,-16.35,13.0,6.0,140,7,,6.21,30.35433,,,,,,TRUE,,,,,CAVOK,,,,,,,,VFR,,,,,,,,,,,,METAR,632.0
GCTS 052130Z 05008KT CAVOK 18/M00 Q1026 NOSIG,GCTS,2019-01-05T21:30:00Z,28.05,-16.57,18.0,0.0,50,8,,6.21,30.295275,,,,,,TRUE,,,,,CAVOK,,,,,,,,VFR,,,,,,,,,,,,METAR,72.0
GCRR 052130Z 01007KT CAVOK 18/M01 Q1028,GCRR,2019-01-05T21:30:00Z,28.93,-13.58,18.0,-1.0,10,7,,6.21,30.35433,,,,,,,,,,,CAVOK,,,,,,,,VFR,,,,,,,,,,,,METAR,40.0
GCLP 052130Z 32003KT 270V010 CAVOK 18/M04 Q1027 NOSIG,GCLP,2019-01-05T21:30:00Z,27.92,-15.37,18.0,-4.0,320,3,,6.21,30.324802,,,,,,TRUE,,,,,CAVOK,,,,,,,,VFR,,,,,,,,,,,,METAR,25.0
GCLA 052130Z 29007KT CAVOK 17/06 Q1026,GCLA,2019-01-05T21:30:00Z,28.62,-17.75,17.0,6.0,290,7,,6.21,30.295275,,,,,,,,,,,CAVOK,,,,,,,,VFR,,,,,,,,,,,,METAR,31.0
GCFV 052130Z 01006KT CAVOK 17/09 Q1028,GCFV,2019-01-05T21:30:00Z,28.43,-13.87,17.0,9.0,10,6,,6.21,30.35433,,,,,,,,,,,CAVOK,,,,,,,,VFR,,,,,,,,,,,,METAR,23.0
LEZL 052130Z 00000KT CAVOK 06/03 Q1031 NOSIG,LEZL,2019-01-05T21:30:00Z,37.42,-5.9,6.0,3.0,0,0,,6.21,30.442913,,,,,,TRUE,,,,,CAVOK,,,,,,,,VFR,,,,,,,,,,,,METAR,31.0
LEVX 052130Z 24005KT 200V270 CAVOK 07/01 Q1034 NOSIG,LEVX,2019-01-05T21:30:00Z,42.22,-8.62,7.0,1.0,240,5,,6.21,30.531496,,,,,,TRUE,,,,,CAVOK,,,,,,,,VFR,,,,,,,,,,,,METAR,256.0
LEVC 052130Z 30006KT CAVOK 06/03 Q1028 NOSIG,LEVC,2019-01-05T21:30:00Z,39.5,-0.47,6.0,3.0,300,6,,6.21,30.35433,,,,,,TRUE,,,,,CAVOK,,,,,,,,VFR,,,,,,,,,,,,METAR,62.0
LEPA 052130Z 25009KT 9999 FEW025 10/10 Q1027 NOSIG,LEPA,2019-01-05T21:30:00Z,39.53,2.72,10.0,10.0,250,9,,6.21,30.324802,,,,,,TRUE,,,,,FEW,2500,,,,,,,VFR,,,,,,,,,,,,METAR,8.0
LEMG 052130Z 28006KT CAVOK 08/06 Q1031 NOSIG,LEMG,2019-01-05T21:30:00Z,36.67,-4.5,8.0,6.0,280,6,,6.21,30.442913,,,,,,TRUE,,,,,CAVOK,,,,,,,,VFR,,,,,,,,,,,,METAR,7.0
LEMD 052130Z VRB01KT CAVOK 01/M02 Q1032 NOSIG,LEMD,2019-01-05T21:30:00Z,40.48,-3.57,1.0,-2.0,0,1,,6.21,30.47244,,,,,,TRUE,,,,,CAVOK,,,,,,,,VFR,,,,,,,,,,,,METAR,582.0
LEIB 052130Z 23009KT CAVOK 13/10 Q1029 NOSIG,LEIB,2019-01-05T21:30:00Z,38.87,1.37,13.0,10.0,230,9,,6.21,30.383858,,,,,,TRUE,,,,,CAVOK,,,,,,,,VFR,,,,,,,,,,,,METAR,12.0
LEBL 052130Z 32015KT CAVOK 08/M02 Q1026 NOSIG,LEBL,2019-01-05T21:30:00Z,41.27,2.07,8.0,-2.0,320,15,,6.21,30.295275,,,,,,TRUE,,,,,CAVOK,,,,,,,,VFR,,,,,,,,,,,,METAR,6.0
LEAL 052130Z 24007KT CAVOK 08/M00 Q1029 NOSIG,LEAL,2019-01-05T21:30:00Z,38.27,-0.55,8.0,0.0,240,7,,6.21,30.383858,,,,,,TRUE,,,,,CAVOK,,,,,,,,VFR,,,,,,,,,,,,METAR,31.0
GCHI 052130Z AUTO 16009KT 120V190 CAVOK 19/12 Q1026,GCHI,2019-01-05T21:30:00Z,27.82,-17.87,19.0,12.0,160,9,,6.21,30.295275,,,TRUE,,,,,,,,CAVOK,,,,,,,,VFR,,,,,,,,,,,,METAR,30.0
GCGM 052130Z AUTO 05008KT 350V090 CAVOK 19/M05 Q1027 RMK R09/06007KT 020V110 ARP/06008KT 010V180,GCGM,2019-01-05T21:30:00Z,28.03,-17.22,19.0,-5.0,50,8,,6.21,30.324802,,,TRUE,,,,,,,,CAVOK,,,,,,,,VFR,,,,,,,,,,,,METAR,219.0
VOTR 052130Z 02007KT 2500 BR FEW016 21/19 Q1013 NOSIG,VOTR,2019-01-05T21:30:00Z,10.77,78.72,21.0,19.0,20,7,,1.55,29.911417,,,,,,TRUE,,,,BR,FEW,1600,,,,,,,IFR,,,,,,,,,,,,METAR,88.0
LETL 052130Z AUTO 32003KT 9999 NCD M00/M09 Q1032,LETL,2019-01-05T21:30:00Z,40.42,-1.22,0.0,-9.0,320,3,,6.21,30.47244,,,TRUE,,,,,,,,CLR,,,,,,,,VFR,,,,,,,,,,,,METAR,1013.0
LECH 052130Z AUTO VRB01KT 9999 NCD 09/M04 Q1028,LECH,2019-01-05T21:30:00Z,40.2,0.07,9.0,-4.0,0,1,,6.21,30.35433,,,TRUE,,,,,,,,CLR,,,,,,,,VFR,,,,,,,,,,,,METAR,337.0
LEBG 052130Z AUTO 03005KT 9999 NCD 01/M06 Q1035,LEBG,2019-01-05T21:30:00Z,42.37,-3.62,1.0,-6.0,30,5,,6.21,30.561024,,,TRUE,,,,,,,,CLR,,,,,,,,VFR,,,,,,,,,,,,METAR,891.0
LEAG 052130Z AUTO 30003KT 260V350 CAVOK 11/08 Q1031,LEAG,2019-01-05T21:30:00Z,,,11.0,8.0,300,3,,6.21,30.442913,,,TRUE,,,,,,,,CAVOK,,,,,,,,VFR,,,,,,,,,,,,METAR,
LFSD 052130Z AUTO 31006KT 8000 -RA FEW035 OVC047 03/02 Q1035,LFSD,2019-01-05T21:30:00Z,47.27,5.07,3.0,2.0,310,6,,4.97,30.561024,,,TRUE,,,,,,,-RA,FEW,3500,OVC,4700,,,,,MVFR,,,,,,,,,,,,METAR,227.0
LFRT 052130Z AUTO 30003KT 8000 OVC021 05/02 Q1039,LFRT,2019-01-05T21:30:00Z,48.52,-2.85,5.0,2.0,300,3,,4.97,30.679134,,,TRUE,,,,,,,,OVC,2100,,,,,,,MVFR,,,,,,,,,,,,METAR,136.0
LFRQ 052130Z AUTO 00000KT 9000 OVC018 03/01 Q1040 TEMPO OVC013,LFRQ,2019-01-05T21:30:00Z,47.97,-4.17,3.0,1.0,0,0,,5.59,30.708662,,,TRUE,,,,,,,,OVC,1800,,,,,,,MVFR,,,,,,,,,,,,METAR,94.0
LFRH 052130Z AUTO 07003KT 7000 OVC018 04/01 Q1040 TEMPO 3000 BR,LFRH,2019-01-05T21:30:00Z,47.77,-3.45,4.0,1.0,70,3,,4.35,30.708662,,,TRUE,,,,,,,,OVC,1800,,,,,,,MVFR,,,,,,,,,,,,METAR,44.0
LFPT 052130Z AUTO 32003KT 9999 OVC022 04/01 Q1037,LFPT,2019-01-05T21:30:00Z,49.1,2.03,4.0,1.0,320,3,,6.21,30.620079,,,TRUE,,,,,,,,OVC,2200,,,,,,,MVFR,,,,,,,,,,,,METAR,99.0
LFPM 052130Z AUTO 34007KT 9999 OVC022 04/00 Q1037,LFPM,2019-01-05T21:30:00Z,48.62,2.67,4.0,0.0,340,7,,6.21,30.620079,,,TRUE,,,,,,,,OVC,2200,,,,,,,MVFR,,,,,,,,,,,,METAR,92.0
LFLN 052130Z AUTO 29003KT 260V320 5000 BR BKN009 BKN035 OVC041 01/M00 Q1036 TEMPO 2500 -DZRA,LFLN,2019-01-05T21:30:00Z,46.42,4.02,1.0,0.0,290,3,,3.11,30.590551,,,TRUE,,,,,,,BR,BKN,900,BKN,3500,OVC,4100,,,IFR,,,,,,,,,,,,METAR,244.0
LESO 052130Z AUTO 19003KT 150V270 9999 NCD 03/02 Q1037,LESO,2019-01-05T21:30:00Z,43.35,-1.8,3.0,2.0,190,3,,6.21,30.620079,,,TRUE,,,,,,,,CLR,,,,,,,,VFR,,,,,,,,,,,,METAR,8.0
LERS 052130Z AUTO VRB02KT 9999 NCD 01/M02 Q1027,LERS,2019-01-05T21:30:00Z,41.13,1.17,1.0,-2.0,0,2,,6.21,30.324802,,,TRUE,,,,,,,,CLR,,,,,,,,VFR,,,,,,,,,,,,METAR,76.0
LEMH 052130Z 29008KT 260V320 9999 FEW025 11/08 Q1026,LEMH,2019-01-05T21:30:00Z,39.87,4.22,11.0,8.0,290,8,,6.21,30.295275,,,,,,,,,,,FEW,2500,,,,,,,VFR,,,,,,,,,,,,METAR,82.0
LEGR 052130Z 00000KT CAVOK M00/M03 Q1032,LEGR,2019-01-05T21:30:00Z,37.17,-3.77,0.0,-3.0,0,0,,6.21,30.47244,,,,,,,,,,,CAVOK,,,,,,,,VFR,,,,,,,,,,,,METAR,559.0
LEGE 052130Z VRB02KT CAVOK 04/02 Q1026,LEGE,2019-01-05T21:30:00Z,41.88,2.77,4.0,2.0,0,2,,6.21,30.295275,,,,,,,,,,,CAVOK,,,,,,,,VFR,,,,,,,,,,,,METAR,129.0
LECO 052130Z 17007KT 9000 NSC 02/02 Q1035 NOSIG,LECO,2019-01-05T21:30:00Z,43.28,-8.37,2.0,2.0,170,7,,5.59,30.561024,,,,,,TRUE,,,,,CLR,,,,,,,,VFR,,,,,,,,,,,,METAR,103.0
LEBB 052130Z 00000KT CAVOK 01/00 Q1038 NOSIG,LEBB,2019-01-05T21:30:00Z,43.28,-2.92,1.0,0.0,0,0,,6.21,30.649607,,,,,,TRUE,,,,,CAVOK,,,,,,,,VFR,,,,,,,,,,,,METAR,34.0
LEAS 052130Z 16003KT 120V190 CAVOK 05/02 Q1037 NOSIG,LEAS,2019-01-05T21:30:00Z,43.53,-6.02,5.0,2.0,160,3,,6.21,30.620079,,,,,,TRUE,,,,,CAVOK,,,,,,,,VFR,,,,,,,,,,,,METAR,134.0
LEAM 052130Z 33007KT CAVOK 09/06 Q1030,LEAM,2019-01-05T21:30:00Z,36.85,-2.37,9.0,6.0,330,7,,6.21,30.413385,,,,,,,,,,,CAVOK,,,,,,,,VFR,,,,,,,,,,,,METAR,21.0
LFRK 052130Z AUTO 33006KT 9999 OVC019 05/01 Q1039,LFRK,2019-01-05T21:30:00Z,49.17,-0.45,5.0,1.0,330,6,,6.21,30.679134,,,TRUE,,,,,,,,OVC,1900,,,,,,,MVFR,,,,,,,,,,,,METAR,67.0
LFRC 052130Z AUTO 33005KT 300V020 9999 OVC020 05/M00 Q1039,LFRC,2019-01-05T21:30:00Z,49.63,-1.47,5.0,0.0,330,5,,6.21,30.679134,,,TRUE,,,,,,,,OVC,2000,,,,,,,MVFR,,,,,,,,,,,,METAR,138.0
LFPN 052130Z AUTO 33005KT 9999 OVC020 04/M00 Q1037,LFPN,2019-01-05T21:30:00Z,48.75,2.12,4.0,0.0,330,5,,6.21,30.620079,,,TRUE,,,,,,,,OVC,2000,,,,,,,MVFR,,,,,,,,,,,,METAR,164.0
LFJR 052130Z AUTO VRB02KT 9999 OVC023 04/01 Q1039,LFJR,2019-01-05T21:30:00Z,47.57,-0.3,4.0,1.0,0,2,,6.21,30.679134,,,TRUE,,,,,,,,OVC,2300,,,,,,,MVFR,,,,,,,,,,,,METAR,60.0
LFGA 052130Z AUTO VRB02KT 9999 FEW033 SCT048 OVC056 03/01 Q1032,LFGA,2019-01-05T21:30:00Z,48.1,7.35,3.0,1.0,0,2,,6.21,30.47244,,,TRUE,,,,,,,,FEW,3300,SCT,4800,OVC,5600,,,VFR,,,,,,,,,,,,METAR,191.0
LFBU 052130Z AUTO 03012KT 9999 OVC017 02/M01 Q1037,LFBU,2019-01-05T21:30:00Z,45.72,0.22,2.0,-1.0,30,12,,6.21,30.620079,,,TRUE,,,,,,,,OVC,1700,,,,,,,MVFR,,,,,,,,,,,,METAR,133.0
LFAT 052130Z AUTO VRB02KT 9999 OVC023 04/01 Q1037,LFAT,2019-01-05T21:30:00Z,50.52,1.62,4.0,1.0,0,2,,6.21,30.620079,,,TRUE,,,,,,,,OVC,2300,,,,,,,MVFR,,,,,,,,,,,,METAR,14.0
LFAQ 052130Z AUTO 29006KT 8000 OVC020 03/01 Q1036,LFAQ,2019-01-05T21:30:00Z,49.97,2.7,3.0,1.0,290,6,,4.97,30.590551,,,TRUE,,,,,,,,OVC,2000,,,,,,,MVFR,,,,,,,,,,,,METAR,111.0
LFRL 052130Z AUTO 00000KT 9999 OVC019 05/02 Q1040,LFRL,2019-01-05T21:30:00Z,48.27,-4.42,5.0,2.0,0,0,,6.21,30.708662,,,TRUE,,,,,,,,OVC,1900,,,,,,,MVFR,,,,,,,,,,,,METAR,82.0
LFOJ 052130Z AUTO 33007KT 9999 OVC022 03/00 Q1037,LFOJ,2019-01-05T21:30:00Z,47.97,1.75,3.0,0.0,330,7,,6.21,30.620079,,,TRUE,,,,,,,,OVC,2200,,,,,,,MVFR,,,,,,,,,,,,METAR,125.0
LFOE 052130Z AUTO 29004KT 9000 OVC017 04/01 Q1037 BECMG BKN010,LFOE,2019-01-05T21:30:00Z,49.02,1.22,4.0,1.0,290,4,,5.59,30.620079,,,TRUE,,,,,,,,OVC,1700,,,,,,,MVFR,,,,,,,,,,,,METAR,146.0
LFOC 052130Z AUTO 35004KT 9999 OVC019 04/01 Q1038,LFOC,2019-01-05T21:30:00Z,48.03,1.37,4.0,1.0,350,4,,6.21,30.649607,,,TRUE,,,,,,,,OVC,1900,,,,,,,MVFR,,,,,,,,,,,,METAR,127.0
LFPV 052130Z AUTO 35006KT 310V030 9999 OVC019 04/M00 Q1037 NOSIG,LFPV,2019-01-05T21:30:00Z,48.77,2.2,4.0,0.0,350,6,,6.21,30.620079,,,TRUE,,,TRUE,,,,,OVC,1900,,,,,,,MVFR,,,,,,,,,,,,METAR,179.0
LFOA 052130Z AUTO 31004KT 9000 OVC019 03/01 Q1037,LFOA,2019-01-05T21:30:00Z,47.03,2.63,3.0,1.0,310,4,,5.59,30.620079,,,TRUE,,,,,,,,OVC,1900,,,,,,,MVFR,,,,,,,,,,,,METAR,179.0
LFMY 052130Z AUTO 35021G42KT 320V020 CAVOK 06/00 Q1021,LFMY,2019-01-05T21:30:00Z,43.6,5.08,6.0,0.0,350,21,42,6.21,30.147638,,,TRUE,,,,,,,,CAVOK,,,,,,,,VFR,,,,,,,,,,,,METAR,60.0
LFMO 052130Z AUTO 34030G42KT 9999 FEW021 05/01 Q1027 NOSIG,LFMO,2019-01-05T21:30:00Z,44.12,4.87,5.0,1.0,340,30,42,6.21,30.324802,,,TRUE,,,TRUE,,,,,FEW,2100,,,,,,,VFR,,,,,,,,,,,,METAR,55.0
LFMC 052130Z AUTO 00000KT 9999 ////// 02/M01 Q1019,LFMC,2019-01-05T21:30:00Z,43.37,6.37,2.0,-1.0,0,0,,6.21,30.088583,,,TRUE,,,,,,,,,,,,,,,,,,,,,,,,,,,,METAR,78.0
LFKS 052130Z AUTO 27007KT CAVOK 07/02 Q1020,LFKS,2019-01-05T21:30:00Z,41.92,9.4,7.0,2.0,270,7,,6.21,30.11811,,,TRUE,,,,,,,,CAVOK,,,,,,,,VFR,,,,,,,,,,,,METAR,22.0
LFBY 052130Z AUTO 00000KT 1200 0200 // ////// M01/M01 Q1037,LFBY,2019-01-05T21:30:00Z,43.67,-1.07,-1.0,-1.0,0,0,,0.75,30.620079,,,TRUE,,,,,,,,,,,,,,,,,,,,,,,,,,,,METAR,32.0
LFBM 052130Z AUTO 00000KT 9999 4500 NSC M03/M03 Q1037 BECMG OVC006,LFBM,2019-01-05T21:30:00Z,43.92,-0.5,-3.0,-3.0,0,0,,6.21,30.620079,,,TRUE,,,,,,,,CLR,,,,,,,,VFR,,,,,,,,,,,,METAR,63.0
LFBG 052130Z AUTO 02010KT 9000 OVC017 04/00 Q1038 NOSIG,LFBG,2019-01-05T21:30:00Z,45.67,-0.32,4.0,0.0,20,10,,5.59,30.649607,,,TRUE,,,TRUE,,,,,OVC,1700,,,,,,,MVFR,,,,,,,,,,,,METAR,31.0
LFBC 052130Z AUTO 01003KT 6000 NSC M01/M03 Q1038,LFBC,2019-01-05T21:30:00Z,44.52,-1.12,-1.0,-3.0,10,3,,3.73,30.649607,,,TRUE,,,,,,,,CLR,,,,,,,,MVFR,,,,,,,,,,,,METAR,33.0
LJPZ 052130Z AUTO 12008KT 9999 NCD M02/M04 Q1019,LJPZ,2019-01-05T21:30:00Z,45.47,13.62,-2.0,-4.0,120,8,,6.21,30.088583,,,TRUE,,,,,,,,CLR,,,,,,,,VFR,,,,,,,,,,,,METAR,2.0
LJMB 052130Z AUTO VRB01KT 9000 NCD M03/M07 Q1016,LJMB,2019-01-05T21:30:00Z,46.47,15.67,-3.0,-7.0,0,1,,5.59,30.0,,,TRUE,,,,,,,,CLR,,,,,,,,VFR,,,,,,,,,,,,METAR,265.0
LJLJ 052130Z VRB01KT 9999 SCT060 M05/M08 Q1016 NOSIG,LJLJ,2019-01-05T21:30:00Z,46.22,14.47,-5.0,-8.0,0,1,,6.21,30.0,,,,,,TRUE,,,,,SCT,6000,,,,,,,VFR,,,,,,,,,,,,METAR,385.0
OITT 052130Z 00000KT 6000 NSC M04/M05 Q1016 A3003,OITT,2019-01-05T21:30:00Z,38.13,46.23,-4.0,-5.0,0,0,,3.73,30.0,,,,,,,,,,,CLR,,,,,,,,MVFR,,,,,,,,,,,,METAR,1361.0
OIMM 052130Z 01004KT 5000 BR NSC 01/01 Q1019 A3012,OIMM,2019-01-05T21:30:00Z,36.23,59.62,1.0,1.0,10,4,,3.11,30.088583,,,,,,,,,,BR,CLR,,,,,,,,MVFR,,,,,,,,,,,,METAR,980.0
OIKB 052130Z 33004KT CAVOK 16/06 Q1018 A3008,OIKB,2019-01-05T21:30:00Z,27.22,56.37,16.0,6.0,330,4,,6.21,30.059055,,,,,,,,,,,CAVOK,,,,,,,,VFR,,,,,,,,,,,,METAR,10.0
OIII 052130Z 21004KT 7000 FEW100 BKN190 05/M00 Q1019 A3010,OIII,2019-01-05T21:30:00Z,35.68,51.3,5.0,0.0,210,4,,4.35,30.088583,,,,,,,,,,,FEW,10000,BKN,19000,,,,,MVFR,,,,,,,,,,,,METAR,1191.0
OIFM 052130Z 28004KT 5000 BR NSC M00/M03 Q1021 A3017,OIFM,2019-01-05T21:30:00Z,32.75,51.87,0.0,-3.0,280,4,,3.11,30.147638,,,,,,,,,,BR,CLR,,,,,,,,MVFR,,,,,,,,,,,,METAR,1542.0
LFYR 052130Z AUTO 00000KT 9999 OVC021 04/01 Q1038,LFYR,2019-01-05T21:30:00Z,47.32,1.67,4.0,1.0,0,0,,6.21,30.649607,,,TRUE,,,,,,,,OVC,2100,,,,,,,MVFR,,,,,,,,,,,,METAR,86.0
LFSX 052130Z AUTO 29004KT 260V340 7000 OVC004 03/02 Q1033,LFSX,2019-01-05T21:30:00Z,47.77,6.33,3.0,2.0,290,4,,4.35,30.501968,,,TRUE,,,,,,,,OVC,400,,,,,,,LIFR,,,,,,,,,,,,METAR,273.0
LFSO 052130Z AUTO 28007KT 8000 SCT006 BKN010 BKN014 04/03 Q1033,LFSO,2019-01-05T21:30:00Z,48.57,5.97,4.0,3.0,280,7,,4.97,30.501968,,,TRUE,,,,,,,,SCT,600,BKN,1000,BKN,1400,,,MVFR,,,,,,,,,,,,METAR,350.0
LFSI 052130Z AUTO 32010KT 7000 OVC009 04/02 Q1035,LFSI,2019-01-05T21:30:00Z,48.62,4.9,4.0,2.0,320,10,,4.35,30.561024,,,TRUE,,,,,,,,OVC,900,,,,,,,IFR,,,,,,,,,,,,METAR,140.0
OICC 052130Z 10014KT 9999 SCT045 BKN080 12/M22 Q1018 A3008,OICC,2019-01-05T21:30:00Z,34.35,47.17,12.0,-22.0,100,14,,6.21,30.059055,,,,,,,,,,,SCT,4500,BKN,8000,,,,,VFR,,,,,,,,,,,,METAR,1322.0
LJCE 052130Z AUTO VRB01KT 9999 NCD M04/M07 Q1017,LJCE,2019-01-05T21:30:00Z,45.9,15.52,-4.0,-7.0,0,1,,6.21,30.029528,,,TRUE,,,,,,,,CLR,,,,,,,,VFR,,,,,,,,,,,,METAR,155.0
SARE 052130Z 07005KT 7000 SHRA FEW050CB 29/26 Q1006,SARE,2019-01-05T21:30:00Z,-27.43,-59.03,29.0,26.0,70,5,,4.35,29.704725,,,,,,,,,,SHRA,FEW,5000,,,,,,,MVFR,,,,,,,,,,,,SPECI,52.0
DIAP 052130Z 06002KT 7000 NSC 26/20 Q1012 NOSIG,DIAP,2019-01-05T21:30:00Z,5.25,-3.92,26.0,20.0,60,2,,4.35,29.88189,,,,,,TRUE,,,,,CLR,,,,,,,,MVFR,,,,,,,,,,,,SPECI,8.0
FOOL 052130Z 20005KT 190V250 9999 FEW011 28/25 Q1013 NOSIG,FOOL,2019-01-05T21:30:00Z,0.45,9.42,28.0,25.0,200,5,,6.21,29.911417,,,,,,TRUE,,,,,FEW,1100,,,,,,,VFR,,,,,,,,,,,,SPECI,15.0
VGHS 052130Z 00000KT 2000 HZ NSC 16/12 Q1016 TEMPO S/VIS 1500M,VGHS,2019-01-05T21:30:00Z,23.85,90.4,16.0,12.0,0,0,,1.24,30.0,,,,,,,,,,HZ,CLR,,,,,,,,IFR,,,,,,,,,,,,METAR,10.0
WSSS 052130Z VRB02KT 9000 -SHRA FEW015TCU SCT025 27/25 Q1011 TEMPO TL2200 4500 SHRA,WSSS,2019-01-05T21:30:00Z,1.37,103.97,27.0,25.0,0,2,,5.59,29.852362,,,,,,,,,,-SHRA,FEW,1500,SCT,2500,,,,,VFR,,,,,,,,,,,,METAR,16.0
EICK 052130Z 22005KT 9999 BKN025 08/07 Q1037 NOSIG,EICK,2019-01-05T21:30:00Z,51.85,-8.47,8.0,7.0,220,5,,6.21,30.620079,,,,,,TRUE,,,,,BKN,2500,,,,,,,MVFR,,,,,,,,,,,,METAR,162.0
EINN 052130Z 12006KT 9999 FEW025 SCT030 BKN080 07/06 Q1036 NOSIG,EINN,2019-01-05T21:30:00Z,52.7,-8.92,7.0,6.0,120,6,,6.21,30.590551,,,,,,TRUE,,,,,FEW,2500,SCT,3000,BKN,8000,,,VFR,,,,,,,,,,,,METAR,20.0
EIDW 052130Z 22007KT 170V270 9999 FEW022 BKN030 08/04 Q1036 NOSIG,EIDW,2019-01-05T21:30:00Z,53.42,-6.25,8.0,4.0,220,7,,6.21,30.590551,,,,,,TRUE,,,,,FEW,2200,BKN,3000,,,,,MVFR,,,,,,,,,,,,METAR,85.0
LYVR 052130Z 18007G20KT 8000 -SN BKN016 M02/M04 Q1013 R01/////// NOSIG,LYVR,2019-01-05T21:30:00Z,45.13,21.32,-2.0,-4.0,180,7,20,4.97,29.911417,,,,,,TRUE,,,,-SN,BKN,1600,,,,,,,MVFR,,,,,,,,,,,,METAR,85.0
LYUZ 052130Z AUTO 28008KT 5000 -SN BR OVC002/// M04/M05 Q1010,LYUZ,2019-01-05T21:30:00Z,43.9,19.7,-4.0,-5.0,280,8,,3.11,29.822834,,,TRUE,,,,,,,-SN BR,OVC,200,,,,,,,LIFR,,,,,,,,,,,,METAR,904.0
LYTV 052130Z VRB02KT CAVOK 02/M04 Q1015,LYTV,2019-01-05T21:30:00Z,42.38,18.72,2.0,-4.0,0,2,,6.21,29.970472,,,,,,,,,,,CAVOK,,,,,,,,VFR,,,,,,,,,,,,METAR,5.0
LYPG 052130Z 34003KT 9999 BKN100 M01/M07 Q1016 NOSIG,LYPG,2019-01-05T21:30:00Z,42.37,19.25,-1.0,-7.0,340,3,,6.21,30.0,,,,,,TRUE,,,,,BKN,10000,,,,,,,VFR,,,,,,,,,,,,METAR,43.0
LYNI 052130Z 18003KT 130V220 5000 SN BR SCT020 OVC030 M04/M07 Q1015 NOSIG,LYNI,2019-01-05T21:30:00Z,43.32,21.88,-4.0,-7.0,180,3,,3.11,29.970472,,,,,,TRUE,,,,SN BR,SCT,2000,OVC,3000,,,,,MVFR,,,,,,,,,,,,METAR,202.0
LYKV 052130Z 00000KT 4000 SN BKN013 BKN027 M02/M04 Q1014 NOSIG,LYKV,2019-01-05T21:30:00Z,43.82,20.58,-2.0,-4.0,0,0,,2.49,29.940945,,,,,,TRUE,,,,SN,BKN,1300,BKN,2700,,,,,IFR,,,,,,,,,,,,METAR,209.0
LYBT 052130Z 24010KT 3500 -SN BR BKN003 OVC020 M00/M01 Q1013 RESN R12/////// NOSIG,LYBT,2019-01-05T21:30:00Z,44.93,20.25,0.0,-1.0,240,10,,2.17,29.911417,,,,,,TRUE,,,,-SN BR,BKN,300,OVC,2000,,,,,LIFR,,,,,,,,,,,,METAR,80.0
LYBE 052130Z 28014KT 4000 -SN SCT005 BKN014 OVC030 00/00 Q1013 RESN R12/4/0594 NOSIG,LYBE,2019-01-05T21:30:00Z,44.82,20.28,0.0,0.0,280,14,,2.49,29.911417,,,,,,TRUE,,,,-SN,SCT,500,BKN,1400,OVC,3000,,,IFR,,,,,,,,,,,,METAR,99.0
LQTZ 052130Z VRB01KT 1200 R09/0900D -SN BR BKN005 OVC015 M03/M03 Q1015,LQTZ,2019-01-05T21:30:00Z,44.47,18.73,-3.0,-3.0,0,1,,0.75,29.970472,,,,,,,,,,-SN BR,BKN,500,OVC,1500,,,,,LIFR,,,,,,,,,,,,METAR,306.0
LQSA 052130Z 00000KT 2000 SN BR SCT003 BKN015 OVC035 M05/M05 Q1015,LQSA,2019-01-05T21:30:00Z,43.82,18.32,-5.0,-5.0,0,0,,1.24,29.970472,,,,,,,,,,SN BR,SCT,300,BKN,1500,OVC,3500,,,IFR,,,,,,,,,,,,METAR,511.0
LQBK 052130Z 19002KT 9999 -SN SCT027 BKN037 02/01 Q1017 NOSIG,LQBK,2019-01-05T21:30:00Z,44.93,17.3,2.0,1.0,190,2,,6.21,30.029528,,,,,,TRUE,,,,-SN,SCT,2700,BKN,3700,,,,,VFR,,,,,,,,,,,,METAR,122.0
LKTB 052130Z 31004KT CAVOK 02/M01 Q1017 R27/29//95 NOSIG,LKTB,2019-01-05T21:30:00Z,49.13,16.68,2.0,-1.0,310,4,,6.21,30.029528,,,,,,TRUE,,,,,CAVOK,,,,,,,,VFR,,,,,,,,,,,,METAR,246.0
LKMT 052130Z 34009KT 310V010 9999 BKN012 OVC016 02/M00 Q1016 R04/690295 NOSIG,LKMT,2019-01-05T21:30:00Z,49.67,18.12,2.0,0.0,340,9,,6.21,30.0,,,,,,TRUE,,,,,BKN,1200,OVC,1600,,,,,MVFR,,,,,,,,,,,,METAR,256.0
BIKF 052130Z 23019G31KT 9999 SHRA FEW022 SCT032CB BKN051 01/M00 Q1019 R28/710072,BIKF,2019-01-05T21:30:00Z,63.98,-22.6,1.0,0.0,230,19,31,6.21,30.088583,,,,,,,,,,SHRA,FEW,2200,SCT,3200,BKN,5100,,,VFR,,,,,,,,,,,,METAR,54.0
LZZI 052130Z 23003KT 210V270 9999 -SN OVC044 01/M02 Q1015,LZZI,2019-01-05T21:30:00Z,49.23,18.62,1.0,-2.0,230,3,,6.21,29.970472,,,,,,,,,,-SN,OVC,4400,,,,,,,VFR,,,,,,,,,,,,METAR,311.0
LZSL 052130Z 32011KT 280V340 9999 -SN OVC049 02/M04 Q1013,LZSL,2019-01-05T21:30:00Z,48.63,19.13,2.0,-4.0,320,11,,6.21,29.911417,,,,,,,,,,-SN,OVC,4900,,,,,,,VFR,,,,,,,,,,,,METAR,313.0
LZPP 052130Z AUTO 30008KT 9999 OVC049/// 02/M01 Q1016,LZPP,2019-01-05T21:30:00Z,48.62,17.83,2.0,-1.0,300,8,,6.21,30.0,,,TRUE,,,,,,,,OVC,4900,,,,,,,VFR,,,,,,,,,,,,METAR,161.0
OTBD 052130Z AUTO 24003KT CAVOK 18/14 Q1019 NOSIG,OTBD,2019-01-05T21:30:00Z,25.25,51.57,18.0,14.0,240,3,,6.21,30.088583,,,TRUE,,,TRUE,,,,,CAVOK,,,,,,,,VFR,,,,,,,,,,,,METAR,10.0
LCPH 052130Z 29010KT 9999 FEW020 SCT045 14/07 Q1010,LCPH,2019-01-05T21:30:00Z,34.72,32.47,14.0,7.0,290,10,,6.21,29.822834,,,,,,,,,,,FEW,2000,SCT,4500,,,,,VFR,,,,,,,,,,,,METAR,8.0
LCLK 052130Z 22004KT 9999 FEW025 BKN060 12/10 Q1010 NOSIG,LCLK,2019-01-05T21:30:00Z,34.87,33.62,12.0,10.0,220,4,,6.21,29.822834,,,,,,TRUE,,,,,FEW,2500,BKN,6000,,,,,VFR,,,,,,,,,,,,METAR,2.0
UGSB 052130Z AUTO 12014KT 9999 FEW120 11/03 Q1006 NOSIG,UGSB,2019-01-05T21:30:00Z,41.62,41.6,11.0,3.0,120,14,,6.21,29.704725,,,TRUE,,,TRUE,,,,,FEW,12000,,,,,,,VFR,,,,,,,,,,,,METAR,32.0
UGKO 052130Z 08012KT 9999 SCT030 BKN045 10/04 Q1007 NOSIG,UGKO,2019-01-05T21:30:00Z,42.18,42.48,10.0,4.0,80,12,,6.21,29.734253,,,,,,TRUE,,,,,SCT,3000,BKN,4500,,,,,VFR,,,,,,,,,,,,METAR,68.0
UGTB 052130Z 06005KT CAVOK 04/M01 Q1016 NOSIG,UGTB,2019-01-05T21:30:00Z,41.67,44.95,4.0,-1.0,60,5,,6.21,30.0,,,,,,TRUE,,,,,CAVOK,,,,,,,,VFR,,,,,,,,,,,,METAR,495.0
KUKI 052130Z AUTO 14013G19KT 9SM -RA FEW024 BKN036 OVC046 11/09 A2952 RMK AO2 P0000 T01060089,KUKI,2019-01-05T21:30:00Z,39.12,-123.2,10.6,8.9,140,13,19,9.0,29.518702,,,TRUE,TRUE,,,,,,-RA,FEW,2400,BKN,3600,OVC,4600,,,VFR,,,,,,0.005,,,,,,SPECI,187.0
KMAE 052130Z AUTO 15010KT 3SM RA BKN050 OVC060 12/06 A2984 RMK AO2 P0007 T01170061,KMAE,2019-01-05T21:30:00Z,36.98,-120.12,11.7,6.1,150,10,,3.0,29.840551,,,TRUE,TRUE,,,,,,RA,BKN,5000,OVC,6000,,,,,MVFR,,,,,,0.07,,,,,,SPECI,77.0
KFAR 052130Z 02005KT 9SM OVC005 M02/M03 A3006 RMK AO2 T10221033,KFAR,2019-01-05T21:30:00Z,46.93,-96.82,-2.2,-3.3,20,5,,9.0,30.059055,,,,TRUE,,,,,,,OVC,500,,,,,,,IFR,,,,,,,,,,,,SPECI,277.0
KBRD 052130Z AUTO 35011KT 6SM HZ OVC014 01/M03 A2998 RMK AO2 T00061033,KBRD,2019-01-05T21:30:00Z,46.4,-94.13,0.6,-3.3,350,11,,6.0,29.97933,,,TRUE,TRUE,,,,,,HZ,OVC,1400,,,,,,,MVFR,,,,,,,,,,,,SPECI,372.0
KAQW 052130Z AUTO 27005KT 10SM OVC011 03/02 A2954 RMK AO2 T00330022,KAQW,2019-01-05T21:30:00Z,42.7,-73.17,3.3,2.2,270,5,,10.0,29.53937,,,TRUE,TRUE,,,,,,,OVC,1100,,,,,,,MVFR,,,,,,,,,,,,SPECI,199.0
VABB 052130Z 00000KT 2100 FU NSC 21/15 Q1013 NOSIG,VABB,2019-01-05T21:30:00Z,19.1,72.87,21.0,15.0,0,0,,1.3,29.911417,,,,,,TRUE,,,,FU,CLR,,,,,,,,IFR,,,,,,,,,,,,METAR,8.0
LDZD 052130Z VRB01KT CAVOK M03/M04 Q1018,LDZD,2019-01-05T21:30:00Z,44.1,15.37,-3.0,-4.0,0,1,,6.21,30.059055,,,,,,,,,,,CAVOK,,,,,,,,VFR,,,,,,,,,,,,METAR,84.0
LDZA 052130Z 24005KT CAVOK 00/M05 Q1017 NOSIG,LDZA,2019-01-05T21:30:00Z,45.72,16.07,0.0,-5.0,240,5,,6.21,30.029528,,,,,,TRUE,,,,,CAVOK,,,,,,,,VFR,,,,,,,,,,,,METAR,107.0
LDSP 052130Z AUTO 32011KT CAVOK 05/M02 Q1016,LDSP,2019-01-05T21:30:00Z,43.52,16.3,5.0,-2.0,320,11,,6.21,30.0,,,TRUE,,,,,,,,CAVOK,,,,,,,,VFR,,,,,,,,,,,,METAR,21.0
LDRI 052130Z VRB02KT CAVOK 02/M05 Q1018,LDRI,2019-01-05T21:30:00Z,45.22,14.57,2.0,-5.0,0,2,,6.21,30.059055,,,,,,,,,,,CAVOK,,,,,,,,VFR,,,,,,,,,,,,METAR,85.0
LDPL 052130Z 06004KT CAVOK M00/M04 Q1018,LDPL,2019-01-05T21:30:00Z,44.88,13.92,0.0,-4.0,60,4,,6.21,30.059055,,,,,,,,,,,CAVOK,,,,,,,,VFR,,,,,,,,,,,,METAR,63.0
LDOS 052130Z 29011KT 9999 SCT007 OVC027 01/M00 Q1014 R99/490791,LDOS,2019-01-05T21:30:00Z,45.47,18.82,1.0,0.0,290,11,,6.21,29.940945,,,,,,,,,,,SCT,700,OVC,2700,,,,,MVFR,,,,,,,,,,,,METAR,89.0
LDDU 052130Z 01009KT 330V070 CAVOK 04/M06 Q1015,LDDU,2019-01-05T21:30:00Z,42.57,18.27,4.0,-6.0,10,9,,6.21,29.970472,,,,,,,,,,,CAVOK,,,,,,,,VFR,,,,,,,,,,,,METAR,165.0
EPZG 052130Z 31003KT 270V350 CAVOK 00/M00 Q1021,EPZG,2019-01-05T21:30:00Z,52.13,15.8,0.0,0.0,310,3,,6.21,30.147638,,,,,,,,,,,CAVOK,,,,,,,,VFR,,,,,,,,,,,,METAR,59.0
EPWR 052130Z 35011KT 9999 BKN012 02/M01 Q1019,EPWR,2019-01-05T21:30:00Z,51.1,16.87,2.0,-1.0,350,11,,6.21,30.088583,,,,,,,,,,,BKN,1200,,,,,,,MVFR,,,,,,,,,,,,METAR,121.0
EPSY 052130Z 36012KT 9999 OVC013 M02/M05 Q1015 R01/710295,EPSY,2019-01-05T21:30:00Z,53.47,20.93,-2.0,-5.0,360,12,,6.21,29.970472,,,,,,,,,,,OVC,1300,,,,,,,MVFR,,,,,,,,,,,,METAR,141.0
EPSC 052130Z 34009KT 9999 FEW029 OVC033 02/M01 Q1022,EPSC,2019-01-05T21:30:00Z,53.58,14.9,2.0,-1.0,340,9,,6.21,30.177166,,,,,,,,,,,FEW,2900,OVC,3300,,,,,VFR,,,,,,,,,,,,METAR,47.0
EPMO 052130Z 35012KT 330V030 9999 BKN016 M01/M05 Q1015,EPMO,2019-01-05T21:30:00Z,52.45,20.65,-1.0,-5.0,350,12,,6.21,29.970472,,,,,,,,,,,BKN,1600,,,,,,,MVFR,,,,,,,,,,,,METAR,104.0
EPLB 052130Z 36010KT 9999 -SN BKN012 OVC019 M02/M03 Q1011 R25/29//94,EPLB,2019-01-05T21:30:00Z,51.23,22.72,-2.0,-3.0,360,10,,6.21,29.852362,,,,,,,,,,-SN,BKN,1200,OVC,1900,,,,,MVFR,,,,,,,,,,,,SPECI,206.0
EPKT 052130Z 32007KT 290V360 9999 FEW009 SCT013 BKN016 00/M02 Q1015,EPKT,2019-01-05T21:30:00Z,50.47,19.08,0.0,-2.0,320,7,,6.21,29.970472,,,,,,,,,,,FEW,900,SCT,1300,BKN,1600,,,MVFR,,,,,,,,,,,,METAR,284.0
EPBY 052130Z 34010KT 9999 BKN033 01/M01 Q1018,EPBY,2019-01-05T21:30:00Z,53.1,18.0,1.0,-1.0,340,10,,6.21,30.059055,,,,,,,,,,,BKN,3300,,,,,,,VFR,,,,,,,,,,,,METAR,71.0
EPWA 052130Z 01011KT 9999 BKN016 M01/M04 Q1014 R33/2///95 NOSIG,EPWA,2019-01-05T21:30:00Z,52.17,20.97,-1.0,-4.0,10,11,,6.21,29.940945,,,,,,TRUE,,,,,BKN,1600,,,,,,,MVFR,,,,,,,,,,,,SPECI,107.0
EPRZ 052130Z 28007KT 9999 -SN SCT011 BKN022 M01/M02 Q1012 R27/420295,EPRZ,2019-01-05T21:30:00Z,50.1,22.05,-1.0,-2.0,280,7,,6.21,29.88189,,,,,,,,,,-SN,SCT,1100,BKN,2200,,,,,MVFR,,,,,,,,,,,,SPECI,202.0
EPPO 052130Z 33005KT 9999 FEW012 BKN031 00/M00 Q1020 R10/290095,EPPO,2019-01-05T21:30:00Z,52.42,16.82,0.0,0.0,330,5,,6.21,30.11811,,,,,,,,,,,FEW,1200,BKN,3100,,,,,VFR,,,,,,,,,,,,SPECI,92.0
EPLL 052130Z 34009KT 310V020 9999 BKN017 OVC019 00/M03 Q1015 R25/29//95,EPLL,2019-01-05T21:30:00Z,51.72,19.4,0.0,-3.0,340,9,,6.21,29.970472,,,,,,,,,,,BKN,1700,OVC,1900,,,,,MVFR,,,,,,,,,,,,SPECI,184.0
EPKK 052130Z 30009KT 9999 SCT020 BKN030 01/M02 Q1014 R25/29//95,EPKK,2019-01-05T21:30:00Z,50.07,19.8,1.0,-2.0,300,9,,6.21,29.940945,,,,,,,,,,,SCT,2000,BKN,3000,,,,,MVFR,,,,,,,,,,,,SPECI,237.0
EPGD 052130Z 02012KT 4800 -SHSN FEW003 BKN008 00/M01 Q1018 R11/610195,EPGD,2019-01-05T21:30:00Z,54.37,18.47,0.0,-1.0,20,12,,2.98,30.059055,,,,,,,,,,-SHSN,FEW,300,BKN,800,,,,,IFR,,,,,,,,,,,,SPECI,138.0
GMMX 052130Z 15003KT 110V180 8000 NSC 11/M04 Q1029 NOSIG,GMMX,2019-01-05T21:30:00Z,31.62,-8.02,11.0,-4.0,150,3,,4.97,30.383858,,,,,,TRUE,,,,,CLR,,,,,,,,MVFR,,,,,,,,,,,,METAR,466.0
UKDR 052130Z 19002MPS CAVOK M06/M08 Q1011 R18/490545 NOSIG,UKDR,2019-01-05T21:30:00Z,48.05,33.22,-6.0,-8.0,190,4,,6.21,29.852362,,,,,,TRUE,,,,,CAVOK,,,,,,,,VFR,,,,,,,,,,,,SPECI,124.0
NZAA 052130Z AUTO 24010KT 9999 BKN022/// 21/16 Q1018 NOSIG,NZAA,2019-01-05T21:30:00Z,-37.02,174.8,21.0,16.0,240,10,,6.21,30.059055,,,TRUE,,,TRUE,,,,,BKN,2200,,,,,,,MVFR,,,,,,,,,,,,METAR,6.0
NZCH 052130Z AUTO 20015KT 170V250 9999 BKN015/// 19/15 Q1007 TEMPO BKN012,NZCH,2019-01-05T21:30:00Z,-43.47,172.55,19.0,15.0,200,15,,6.21,29.734253,,,TRUE,,,,,,,,BKN,1500,,,,,,,MVFR,,,,,,,,,,,,METAR,34.0
NZWN 052130Z AUTO 36021KT 9999 SCT017/// 22/17 Q1012 NOSIG,NZWN,2019-01-05T21:30:00Z,-41.32,174.8,22.0,17.0,360,21,,6.21,29.88189,,,TRUE,,,TRUE,,,,,SCT,1700,,,,,,,VFR,,,,,,,,,,,,METAR,7.0
WBSB 052130Z 23003KT 9999 FEW015 BKN300 25/25 Q1011 NOSIG,WBSB,2019-01-05T21:30:00Z,4.92,114.92,25.0,25.0,230,3,,6.21,29.852362,,,,,,TRUE,,,,,FEW,1500,BKN,30000,,,,,VFR,,,,,,,,,,,,METAR,15.0
WBKK 052130Z 11006KT 9999 FEW015 BKN280 24/21 Q1011 NOSIG,WBKK,2019-01-05T21:30:00Z,5.92,116.03,24.0,21.0,110,6,,6.21,29.852362,,,,,,TRUE,,,,,FEW,1500,BKN,28000,,,,,VFR,,,,,,,,,,,,METAR,3.0
WBGG 052130Z VRB02KT 9999 FEW018 SCT150 BKN300 25/24 Q1010 NOSIG,WBGG,2019-01-05T21:30:00Z,1.47,110.35,25.0,24.0,0,2,,6.21,29.822834,,,,,,TRUE,,,,,FEW,1800,SCT,15000,BKN,30000,,,VFR,,,,,,,,,,,,METAR,27.0
WMKP 052130Z 00000KT 9000 FEW025 BKN280 25/24 Q1009 NOSIG,WMKP,2019-01-05T21:30:00Z,5.28,100.27,25.0,24.0,0,0,,5.59,29.793306,,,,,,TRUE,,,,,FEW,2500,BKN,28000,,,,,VFR,,,,,,,,,,,,METAR,4.0
WMKK 052130Z VRB01KT 9000 FEW017CB BKN280 26/24 Q1010 NOSIG,WMKK,2019-01-05T21:30:00Z,2.75,101.72,26.0,24.0,0,1,,5.59,29.822834,,,,,,TRUE,,,,,FEW,1700,BKN,28000,,,,,VFR,,,,,,,,,,,,METAR,22.0
KE16 052130Z AUTO 14009KT 1 1/2SM -RA SCT024 BKN030 OVC036 11/09 A2976 RMK AO2,KE16,2019-01-05T21:30:00Z,37.08,-121.6,11.0,9.0,140,9,,1.5,29.760826,,,TRUE,TRUE,,,,,,-RA,SCT,2400,BKN,3000,OVC,3600,,,IFR,,,,,,,,,,,,METAR,86.0
KCPU 052130Z AUTO 13019G24KT 5SM BR OVC033 06/05 A2979 RMK AO2 T00630047,KCPU,2019-01-05T21:30:00Z,38.15,-120.65,6.3,4.7,130,19,24,5.0,29.790354,,,TRUE,TRUE,,,,,,BR,OVC,3300,,,,,,,MVFR,,,,,,,,,,,,METAR,404.0
KCJR 052130Z AUTO 32005KT 10SM CLR 14/01 A2972 RMK AO2 T01400006,KCJR,2019-01-05T21:30:00Z,38.53,-77.87,14.0,0.6,320,5,,10.0,29.719488,,,TRUE,TRUE,,,,,,,CLR,,,,,,,,VFR,,,,,,,,,,,,SPECI,97.0
HRYR 052130Z VRB02KT 9999 FEW026 SCT100 19/16 Q1020 NOSIG,HRYR,2019-01-05T21:30:00Z,-1.97,30.12,19.0,16.0,0,2,,6.21,30.11811,,,,,,TRUE,,,,,FEW,2600,SCT,10000,,,,,VFR,,,,,,,,,,,,METAR,1497.0
VOTV 052130Z 00000KT 4000 HZ FEW018 24/23 Q1011 NOSIG,VOTV,2019-01-05T21:30:00Z,8.47,76.95,24.0,23.0,0,0,,2.49,29.852362,,,,,,TRUE,,,,HZ,FEW,1800,,,,,,,IFR,,,,,,,,,,,,METAR,8.0
KVES 052130Z AUTO 26009G16KT 10SM CLR 10/03 A2990 RMK AO2,KVES,2019-01-05T21:30:00Z,40.2,-84.53,10.0,3.0,260,9,16,10.0,29.899607,,,TRUE,TRUE,,,,,,,CLR,,,,,,,,VFR,,,,,,,,,,,,METAR,307.0
KNOW 052130Z AUTO 00000KT 10SM BKN110 08/06 A2938 RMK AO2 T00770055,KNOW,2019-01-05T21:30:00Z,48.13,-123.4,7.7,5.5,0,0,,10.0,29.379921,,,TRUE,TRUE,,,,,,,BKN,11000,,,,,,,VFR,,,,,,,,,,,,METAR,4.0
KLOT 052130Z AUTO 26011KT 10SM CLR 10/05 A2989 RMK AO2 T01030045,KLOT,2019-01-05T21:30:00Z,41.6,-88.1,10.3,4.5,260,11,,10.0,29.890747,,,TRUE,TRUE,,,,,,,CLR,,,,,,,,VFR,,,,,,,,,,,,METAR,205.0
KLCQ 052130Z AUTO 31007KT 10SM CLR 13/06 A3006 RMK AO2,KLCQ,2019-01-05T21:30:00Z,30.18,-82.58,13.0,6.0,310,7,,10.0,30.059055,,,TRUE,TRUE,,,,,,,CLR,,,,,,,,VFR,,,,,,,,,,,,SPECI,61.0
KIYA 052130Z AUTO 00000KT 10SM CLR 18/08 A3018 RMK AO2 T01750083,KIYA,2019-01-05T21:30:00Z,29.98,-92.08,17.5,8.3,0,0,,10.0,30.180119,,,TRUE,TRUE,,,,,,,CLR,,,,,,,,VFR,,,,,,,,,,,,SPECI,5.0
KI16 052130Z AUTO 10SM CLR 08/02 A2999 RMK AO2 T00840019,KI16,2019-01-05T21:30:00Z,37.6,-81.57,8.4,1.9,,,,10.0,29.991142,,,TRUE,TRUE,,,,,,,CLR,,,,,,,,VFR,,,,,,,,,,,,METAR,544.0
KHBV 052130Z AUTO 18004KT 10SM CLR 24/04 A3010 RMK AO2 T02380042,KHBV,2019-01-05T21:30:00Z,27.35,-98.73,23.8,4.2,180,4,,10.0,30.100393,,,TRUE,TRUE,,,,,,,CLR,,,,,,,,VFR,,,,,,,,,,,,METAR,202.0
KGVE 052130Z AUTO 00000KT 10SM CLR 14/02 A2971 RMK AO1 T01380024,KGVE,2019-01-05T21:30:00Z,38.15,-78.17,13.8,2.4,0,0,,10.0,29.71063,,,TRUE,TRUE,,,,,,,CLR,,,,,,,,VFR,,,,,,,,,,,,SPECI,138.0
KFBR 052130Z AUTO 00000KT 10SM CLR M07/M07 A3000 RMK AO2 T10721073,KFBR,2019-01-05T21:30:00Z,41.4,-110.4,-7.2,-7.3,0,0,,10.0,30.0,,,TRUE,TRUE,,,,,,,CLR,,,,,,,,VFR,,,,,,,,,,,,SPECI,2144.0
KAQO 052130Z AUTO 14003KT 10SM CLR 26/03 A3010 RMK AO2,KAQO,2019-01-05T21:30:00Z,30.78,-98.67,26.0,3.0,140,3,,10.0,30.100393,,,TRUE,TRUE,,,,,,,CLR,,,,,,,,VFR,,,,,,,,,,,,SPECI,336.0
KACJ 052130Z AUTO 31007KT 290V350 10SM CLR 18/M01 A3008 RMK AO2,KACJ,2019-01-05T21:30:00Z,32.12,-84.18,18.0,-1.0,310,7,,10.0,30.079725,,,TRUE,TRUE,,,,,,,CLR,,,,,,,,VFR,,,,,,,,,,,,SPECI,143.0
WIPP 052130Z 16002KT 0500 FG VV008 25/25 Q1011,WIPP,2019-01-05T21:30:00Z,-2.88,104.7,25.0,25.0,160,2,,0.31,29.852362,,,,,,,,,,FG,OVX,0,,,,,,,LIFR,,,,,,,,,,,800,METAR,10.0
WAHS 052130Z 16002KT 6000 FEW014 25/23 Q1011 NOSIG,WAHS,2019-01-05T21:30:00Z,-6.98,110.38,25.0,23.0,160,2,,3.73,29.852362,,,,,,TRUE,,,,,FEW,1400,,,,,,,MVFR,,,,,,,,,,,,METAR,5.0
WATT 052130Z 25005KT 8000 -RA BKN016 26/25 Q1012 NOSIG,WATT,2019-01-05T21:30:00Z,-10.17,123.67,26.0,25.0,250,5,,4.97,29.88189,,,,,,TRUE,,,,-RA,BKN,1600,,,,,,,MVFR,,,,,,,,,,,,METAR,102.0
WAPP 052130Z VRB02KT 9999 SCT018 26/23 Q1011 NOSIG,WAPP,2019-01-05T21:30:00Z,-3.7,128.07,26.0,23.0,0,2,,6.21,29.852362,,,,,,TRUE,,,,,SCT,1800,,,,,,,VFR,,,,,,,,,,,,METAR,12.0
ROMY 052130Z 01004KT 9999 BKN028 BKN034 20/19 Q1019,ROMY,2019-01-05T21:30:00Z,24.77,125.27,20.0,19.0,10,4,,6.21,30.088583,,,,,,,,,,,BKN,2800,BKN,3400,,,,,MVFR,,,,,,,,,,,,METAR,41.0
ROAH 052130Z 03008KT 6000 -RA FEW010 SCT025 BKN035 19/17 Q1019 RMK 1CU010 3CU025 5SC035 A3011,ROAH,2019-01-05T21:30:00Z,26.17,127.65,19.0,17.0,30,8,,3.73,30.088583,,,,,,,,,,-RA,FEW,1000,SCT,2500,BKN,3500,,,MVFR,,,,,,,,,,,,METAR,8.0
RJTT 052130Z 02014KT 9999 FEW030 BKN060 06/M04 Q1017 NOSIG RMK 1CU030 6SC060 A3005,RJTT,2019-01-05T21:30:00Z,35.53,139.77,6.0,-4.0,20,14,,6.21,30.029528,,,,,,TRUE,,,,,FEW,3000,BKN,6000,,,,,VFR,,,,,,,,,,,,SPECI,8.0
RJOR 052130Z 01019KT 9999 -SHRA FEW015 SCT030 BKN040 06/M00 Q1021,RJOR,2019-01-05T21:30:00Z,35.52,134.17,6.0,0.0,10,19,,6.21,30.147638,,,,,,,,,,-SHRA,FEW,1500,SCT,3000,BKN,4000,,,VFR,,,,,,,,,,,,METAR,18.0
RJOC 052130Z 12002KT 9999 -SHRA FEW025 BKN030 BKN040 04/03 Q1023,RJOC,2019-01-05T21:30:00Z,35.42,132.87,4.0,3.0,120,2,,6.21,30.206694,,,,,,,,,,-SHRA,FEW,2500,BKN,3000,BKN,4000,,,MVFR,,,,,,,,,,,,METAR,5.0
RJKA 052130Z 34010KT 5000 -SHRA FEW020 BKN025 BKN030 16/14 Q1021,RJKA,2019-01-05T21:30:00Z,28.42,129.72,16.0,14.0,340,10,,3.11,30.147638,,,,,,,,,,-SHRA,FEW,2000,BKN,2500,BKN,3000,,,MVFR,,,,,,,,,,,,METAR,7.0
RJGG 052130Z 35016KT 9999 FEW020 SCT060 BKN/// 05/M03 Q1019 NOSIG,RJGG,2019-01-05T21:30:00Z,34.87,136.8,5.0,-3.0,350,16,,6.21,30.088583,,,,,,TRUE,,,,,FEW,2000,SCT,6000,,,,,VFR,,,,,,,,,,,,SPECI,5.0
RJFF 052130Z 15002KT 8000 -RA FEW030 BKN040 05/03 Q1023 NOSIG RMK 1CU030 7SC040 A3021,RJFF,2019-01-05T21:30:00Z,33.57,130.43,5.0,3.0,150,2,,4.97,30.206694,,,,,,TRUE,,,,-RA,FEW,3000,BKN,4000,,,,,MVFR,,,,,,,,,,,,METAR,12.0
RJDC 052130Z 28003KT 9999 FEW020 SCT060 BKN110 06/03 Q1022,RJDC,2019-01-05T21:30:00Z,33.92,131.27,6.0,3.0,280,3,,6.21,30.177166,,,,,,,,,,,FEW,2000,SCT,6000,BKN,11000,,,VFR,,,,,,,,,,,,METAR,8.0
RJCC 052130Z 19002KT 9999 FEW015 BKN050 M07/M08 Q1014 RMK 1ST015 7CU050 A2996,RJCC,2019-01-05T21:30:00Z,42.77,141.67,-7.0,-8.0,190,2,,6.21,29.940945,,,,,,,,,,,FEW,1500,BKN,5000,,,,,VFR,,,,,,,,,,,,SPECI,30.0
RJBB 052130Z 03016KT 9999 FEW020 SCT/// 06/01 Q1020 NOSIG,RJBB,2019-01-05T21:30:00Z,34.42,135.25,6.0,1.0,30,16,,6.21,30.11811,,,,,,TRUE,,,,,FEW,2000,,,,,,,VFR,,,,,,,,,,,,SPECI,8.0
RJAA 052130Z 03007KT 9999 FEW030 01/M08 Q1017 NOSIG RMK 1CU030 A3005,RJAA,2019-01-05T21:30:00Z,35.77,140.37,1.0,-8.0,30,7,,6.21,30.029528,,,,,,TRUE,,,,,FEW,3000,,,,,,,VFR,,,,,,,,,,,,SPECI,44.0
WADD 052130Z 35002KT 9999 FEW015CB SCT016 27/25 Q1011 NOSIG,WADD,2019-01-05T21:30:00Z,-8.73,115.17,27.0,25.0,350,2,,6.21,29.852362,,,,,,TRUE,,,,,FEW,1500,SCT,1600,,,,,VFR,,,,,,,,,,,,METAR,216.0
WARR 052130Z 25003KT 5000 HZ FEW020 26/25 Q1011 NOSIG,WARR,2019-01-05T21:30:00Z,-7.37,112.78,26.0,25.0,250,3,,3.11,29.852362,,,,,,TRUE,,,,HZ,FEW,2000,,,,,,,MVFR,,,,,,,,,,,,METAR,2.0
WAAA 052130Z 06002KT 8000 FEW018 23/22 Q1012 NOSIG,WAAA,2019-01-05T21:30:00Z,-5.07,119.53,23.0,22.0,60,2,,4.97,29.88189,,,,,,TRUE,,,,,FEW,1800,,,,,,,MVFR,,,,,,,,,,,,METAR,14.0
LFLW 052130Z AUTO 11002KT 7000 NSC M04/M05 Q1032,LFLW,2019-01-05T21:30:00Z,44.88,2.42,-4.0,-5.0,110,2,,4.35,30.47244,,,TRUE,,,,,,,,CLR,,,,,,,,MVFR,,,,,,,,,,,,METAR,639.0
YSSY 052130Z 19014KT 9999 FEW009 SCT012 BKN020 19/17 Q1016 INTER 2200/0030 5000 -SHRA BKN012,YSSY,2019-01-05T21:30:00Z,-33.95,151.17,19.0,17.0,190,14,,6.21,30.0,,,,,,,,,,,FEW,900,SCT,1200,BKN,2000,,,MVFR,,,,,,,,,,,,SPECI,3.0
YPPH 052130Z 09013KT CAVOK 21/09 Q1016 FM2130 MOD TURB BLW 3000FT,YPPH,2019-01-05T21:30:00Z,-31.93,115.98,21.0,9.0,90,13,,6.21,30.0,,,,,,,,,,,CAVOK,,,,,,,,VFR,,,,,,,,,,,,SPECI,13.0
YMML 052130Z 22010KT 9999 FEW025 16/08 Q1020 NOSIG,YMML,2019-01-05T21:30:00Z,-37.67,144.82,16.0,8.0,220,10,,6.21,30.11811,,,,,,TRUE,,,,,FEW,2500,,,,,,,VFR,,,,,,,,,,,,METAR,141.0
YPDN 052130Z 05002KT 9999 FEW016 SCT155 BKN170 23/21 Q1008 TEMPO 2130/2200 VRB25G45KT 1000 TSRA BKN010 SCT020CB,YPDN,2019-01-05T21:30:00Z,-12.42,130.9,23.0,21.0,50,2,,6.21,29.763779,,,,,,,,,,,FEW,1600,SCT,15500,BKN,17000,,,VFR,,,,,,,,,,,,SPECI,30.0
YBBN 052130Z 06006KT 9999 FEW020 SCT025 26/20 Q1014 NOSIG,YBBN,2019-01-05T21:30:00Z,-27.38,153.13,26.0,20.0,60,6,,6.21,29.940945,,,,,,TRUE,,,,,FEW,2000,SCT,2500,,,,,VFR,,,,,,,,,,,,METAR,5.0
YPAD 052130Z 09003KT 9999 SCT035 19/10 Q1021 NOSIG,YPAD,2019-01-05T21:30:00Z,-34.95,138.52,19.0,10.0,90,3,,6.21,30.147638,,,,,,TRUE,,,,,SCT,3500,,,,,,,VFR,,,,,,,,,,,,METAR,4.0
YBCS 052130Z AUTO 21004KT 120V280 9999 // NCD 26/22 Q1010 RMK RF00.0/000.0 NOSIG,YBCS,2019-01-05T21:30:00Z,-16.87,145.75,26.0,22.0,210,4,,6.21,29.822834,,,TRUE,,,,,,,,CLR,,,,,,,,VFR,,,,,,,,,,,,METAR,7.0
YLHI 052130Z AUTO 03010KT 9999 // BKN030 25/18 Q1018,YLHI,2019-01-05T21:30:00Z,-31.53,159.07,25.0,18.0,30,10,,6.21,30.059055,,,TRUE,,,,,,,,BKN,3000,,,,,,,MVFR,,,,,,,,,,,,METAR,2.0
YCFS 052130Z AUTO 34006KT 310V010 9999 // NCD 25/19 Q1014 RF00.0/000.0,YCFS,2019-01-05T21:30:00Z,-30.32,153.12,25.0,19.0,340,6,,6.21,29.940945,,,TRUE,,,,,,,,CLR,,,,,,,,VFR,,,,,,,,,,,,METAR,5.0
YBRK 052130Z AUTO 12008KT 9999 // NCD 25/19 Q1012 RF00.0/000.0,YBRK,2019-01-05T21:30:00Z,-23.37,150.47,25.0,19.0,120,8,,6.21,29.88189,,,TRUE,,,,,,,,CLR,,,,,,,,VFR,,,,,,,,,,,,METAR,14.0
YPPD 052130Z AUTO 25006KT //// // SCT089 27/25 Q1010,YPPD,2019-01-05T21:30:00Z,-20.37,118.62,27.0,25.0,250,6,,,29.822834,,,TRUE,,,,,,,,SCT,8900,,,,,,,,,,,,,,,,,,,METAR,6.0
YMLT 052130Z AUTO 35007KT 9999 // NCD 15/08 Q1015 RF00.0/000.0,YMLT,2019-01-05T21:30:00Z,-41.52,147.18,15.0,8.0,350,7,,6.21,29.970472,,,TRUE,,,,,,,,CLR,,,,,,,,VFR,,,,,,,,,,,,METAR,178.0
YMHB 052130Z 31013KT 9999 FEW045 SCT050 17/04 Q1014 RF00.0/000.0,YMHB,2019-01-05T21:30:00Z,-42.82,147.52,17.0,4.0,310,13,,6.21,29.940945,,,,,,,,,,,FEW,4500,SCT,5000,,,,,VFR,,,,,,,,,,,,METAR,27.0
YPCC 052130Z AUTO 13015KT 9999 // BKN048 OVC056 26/22 Q1011,YPCC,2019-01-05T21:30:00Z,-12.17,96.82,26.0,22.0,130,15,,6.21,29.852362,,,TRUE,,,,,,,,BKN,4800,OVC,5600,,,,,VFR,,,,,,,,,,,,METAR,3.0
YBRM 052130Z AUTO 26011KT 9999 // SCT020 SCT030 30/25 Q1009,YBRM,2019-01-05T21:30:00Z,-17.93,122.22,30.0,25.0,260,11,,6.21,29.793306,,,TRUE,,,,,,,,SCT,2000,SCT,3000,,,,,VFR,,,,,,,,,,,,METAR,9.0
YBTL 052130Z AUTO 19005KT 9999 // NCD 27/21 Q1010,YBTL,2019-01-05T21:30:00Z,-19.25,146.75,27.0,21.0,190,5,,6.21,29.822834,,,TRUE,,,,,,,,CLR,,,,,,,,VFR,,,,,,,,,,,,METAR,6.0
YPTN 052130Z AUTO 04004KT 9999 // NCD 24/24 Q1008,YPTN,2019-01-05T21:30:00Z,-14.52,132.38,24.0,24.0,40,4,,6.21,29.763779,,,TRUE,,,,,,,,CLR,,,,,,,,VFR,,,,,,,,,,,,METAR,109.0
YPLM 052130Z AUTO 01009KT 9999 // NCD 24/21 Q1010 RF00.0/000.0,YPLM,2019-01-05T21:30:00Z,-22.22,114.07,24.0,21.0,10,9,,6.21,29.822834,,,TRUE,,,,,,,,CLR,,,,,,,,VFR,,,,,,,,,,,,METAR,6.0
YPKG 052130Z AUTO 09008KT 9999 // NCD 20/09 Q1021 RF00.0/000.0,YPKG,2019-01-05T21:30:00Z,-30.77,121.45,20.0,9.0,90,8,,6.21,30.147638,,,TRUE,,,,,,,,CLR,,,,,,,,VFR,,,,,,,,,,,,METAR,360.0
YBCG 052130Z AUTO 24003KT 9999 // BKN031 BKN050 26/21 Q1014,YBCG,2019-01-05T21:30:00Z,-28.17,153.5,26.0,21.0,240,3,,6.21,29.940945,,,TRUE,,,,,,,,BKN,3100,BKN,5000,,,,,VFR,,,,,,,,,,,,METAR,6.0
YSCB 052130Z AUTO 16009KT 9999 // OVC029 16/11 Q1018 RF00.0/007.0,YSCB,2019-01-05T21:30:00Z,-35.28,149.17,16.0,11.0,160,9,,6.21,30.059055,,,TRUE,,,,,,,,OVC,2900,,,,,,,MVFR,,,,,,,,,,,,METAR,577.0
YMAV 052130Z AUTO 26010KT 9999 // NCD 17/09 Q1020 RF00.0/000.0,YMAV,2019-01-05T21:30:00Z,-38.03,144.48,17.0,9.0,260,10,,6.21,30.11811,,,TRUE,,,,,,,,CLR,,,,,,,,VFR,,,,,,,,,,,,METAR,8.0
YBAS 052130Z AUTO 14008KT 9999 // NCD 24/M00 Q1016 RF00.0/000.0,YBAS,2019-01-05T21:30:00Z,-23.8,133.9,24.0,0.0,140,8,,6.21,30.0,,,TRUE,,,,,,,,CLR,,,,,,,,VFR,,,,,,,,,,,,METAR,541.0
UTTT 052130Z 00000KT 2000 BR NSC 03/02 Q1027 R08R/CLRD70 NOSIG,UTTT,2019-01-05T21:30:00Z,41.27,69.27,3.0,2.0,0,0,,1.24,30.324802,,,,,,TRUE,,,,BR,CLR,,,,,,,,IFR,,,,,,,,,,,,SPECI,489.0
UTST 052130Z 04008KT CAVOK 01/M01 Q1027 R88/CLRD70 NOSIG,UTST,2019-01-05T21:30:00Z,37.28,67.32,1.0,-1.0,40,8,,6.21,30.324802,,,,,,TRUE,,,,,CAVOK,,,,,,,,VFR,,,,,,,,,,,,SPECI,302.0
UTSS 052130Z 11008KT 6000 SCT008 02/01 Q1025 R09/CLRD70 NOSIG,UTSS,2019-01-05T21:30:00Z,39.7,66.98,2.0,1.0,110,8,,3.73,30.265747,,,,,,TRUE,,,,,SCT,800,,,,,,,MVFR,,,,,,,,,,,,SPECI,724.0
UTSK 052130Z 07006KT 6000 NSC 02/00 Q1024 R16/CLRD70,UTSK,2019-01-05T21:30:00Z,38.83,65.77,2.0,0.0,70,6,,3.73,30.236221,,,,,,,,,,,CLR,,,,,,,,MVFR,,,,,,,,,,,,SPECI,1365.0
UTSB 052130Z 11004KT 6000 FEW033 02/01 Q1024 R01/CLRD70 NOSIG,UTSB,2019-01-05T21:30:00Z,39.77,64.48,2.0,1.0,110,4,,3.73,30.236221,,,,,,TRUE,,,,,FEW,3300,,,,,,,MVFR,,,,,,,,,,,,SPECI,226.0
UTNN 052130Z 12010KT 3000 BR OVC003 M02/M03 Q1022 R33/CLRD60 TEMPO 1000 BR RMK BASE330,UTNN,2019-01-05T21:30:00Z,42.48,59.63,-2.0,-3.0,120,10,,1.86,30.177166,,,,,,,,,,BR,OVC,300,,,,,,,LIFR,,,,,,,,,,,,SPECI,67.0
UTFN 052130Z 33004KT 9999 NSC 00/M05 Q1029 R28/CLRD70 NOSIG,UTFN,2019-01-05T21:30:00Z,40.98,71.57,0.0,-5.0,330,4,,6.21,30.383858,,,,,,TRUE,,,,,CLR,,,,,,,,VFR,,,,,,,,,,,,METAR,490.0
YBMA 052130Z AUTO 00000KT 9999 // NCD 27/20 Q1010 RF00.0/002.0,YBMA,2019-01-05T21:30:00Z,-20.67,139.47,27.0,20.0,0,0,,6.21,29.822834,,,TRUE,,,,,,,,CLR,,,,,,,,VFR,,,,,,,,,,,,SPECI,344.0
YBHM 052130Z AUTO 15013KT 9999 // SCT020 SCT025 BKN031 26/22 Q1010,YBHM,2019-01-05T21:30:00Z,-20.35,148.95,26.0,22.0,150,13,,6.21,29.822834,,,TRUE,,,,,,,,SCT,2000,SCT,2500,BKN,3100,,,VFR,,,,,,,,,,,,SPECI,5.0
YGLA 052130Z AUTO 03007KT 9999 // BKN021 OVC027 OVC035 23/21 Q1012,YGLA,2019-01-05T21:30:00Z,-23.87,151.22,23.0,21.0,30,7,,6.21,29.88189,,,TRUE,,,,,,,,BKN,2100,OVC,2700,OVC,3500,,,MVFR,,,,,,,,,,,,METAR,52.0
YAMB 052130Z AUTO 20003KT 9999 // SCT044 BKN052 26/21 Q1014,YAMB,2019-01-05T21:30:00Z,-27.63,152.72,26.0,21.0,200,3,,6.21,29.940945,,,TRUE,,,,,,,,SCT,4400,BKN,5200,,,,,VFR,,,,,,,,,,,,SPECI,28.0
YGEL 052130Z AUTO 15005KT 9999 // BKN125 21/17 Q1013 RF00.0/000.0,YGEL,2019-01-05T21:30:00Z,-28.8,114.7,21.0,17.0,150,5,,6.21,29.911417,,,TRUE,,,,,,,,BKN,12500,,,,,,,VFR,,,,,,,,,,,,METAR,37.0
YSTW 052130Z AUTO 36004KT 320V020 9999 // NCD 28/11 Q1014 RF00.0/000.0,YSTW,2019-01-05T21:30:00Z,-31.07,150.85,28.0,11.0,360,4,,6.21,29.940945,,,TRUE,,,,,,,,CLR,,,,,,,,VFR,,,,,,,,,,,,SPECI,410.0
YHID 052130Z AUTO 33009KT 9999 // SCT011 26/24 Q1010,YHID,2019-01-05T21:30:00Z,-10.58,142.3,26.0,24.0,330,9,,6.21,29.822834,,,TRUE,,,,,,,,SCT,1100,,,,,,,VFR,,,,,,,,,,,,METAR,13.0
YPJT 052130Z AUTO 10010KT 9999 // NCD 21/10 Q1016 RF00.0/000.0,YPJT,2019-01-05T21:30:00Z,-32.1,115.88,21.0,10.0,100,10,,6.21,30.0,,,TRUE,,,,,,,,CLR,,,,,,,,VFR,,,,,,,,,,,,METAR,30.0
YPEA 052130Z AUTO 12008KT 090V150 9999 // NCD 22/09 Q1016,YPEA,2019-01-05T21:30:00Z,-31.67,116.02,22.0,9.0,120,8,,6.21,30.0,,,TRUE,,,,,,,,CLR,,,,,,,,VFR,,,,,,,,,,,,SPECI,49.0
YPWR 052130Z AUTO 15017KT 9999 // NCD 18/09 Q1020 RF00.0/000.0,YPWR,2019-01-05T21:30:00Z,-31.12,136.82,18.0,9.0,150,17,,6.21,30.11811,,,TRUE,,,,,,,,CLR,,,,,,,,VFR,,,,,,,,,,,,METAR,167.0
YSDU 052130Z AUTO 14011KT 9999 // NCD 22/12 Q1014 RF00.0/002.4,YSDU,2019-01-05T21:30:00Z,-32.22,148.57,22.0,12.0,140,11,,6.21,29.940945,,,TRUE,,,,,,,,CLR,,,,,,,,VFR,,,,,,,,,,,,SPECI,275.0
YPGV 052130Z AUTO 22002KT 9999 // SCT020 26/25 Q1009 RF00.0/000.0,YPGV,2019-01-05T21:30:00Z,-12.27,136.82,26.0,25.0,220,2,,6.21,29.793306,,,TRUE,,,,,,,,SCT,2000,,,,,,,VFR,,,,,,,,,,,,SPECI,55.0
YPKU 052130Z AUTO 23009KT 9999 // NCD 25/21 Q1007 RF00.0/000.0,YPKU,2019-01-05T21:30:00Z,-15.77,128.68,25.0,21.0,230,9,,6.21,29.734253,,,TRUE,,,,,,,,CLR,,,,,,,,VFR,,,,,,,,,,,,SPECI,45.0
YFRT 052130Z AUTO 11007KT //// // SCT032 15/12 Q1022 RF00.0/000.0,YFRT,2019-01-05T21:30:00Z,-30.83,128.12,15.0,12.0,110,7,,,30.177166,,,TRUE,,,,,,,,SCT,3200,,,,,,,,,,,,,,,,,,,SPECI,156.0
YCIN 052130Z AUTO 30005KT 9999 // NCD 27/26 Q1009 RF00.0/001.6,YCIN,2019-01-05T21:30:00Z,-17.58,123.83,27.0,26.0,300,5,,6.21,29.793306,,,TRUE,,,,,,,,CLR,,,,,,,,VFR,,,,,,,,,,,,SPECI,91.0
VMMC 052130Z 35011KT 9999 FEW010 SCT025 16/14 Q1020 NOSIG,VMMC,2019-01-05T21:30:00Z,22.15,113.58,16.0,14.0,350,11,,6.21,30.11811,,,,,,TRUE,,,,,FEW,1000,SCT,2500,,,,,VFR,,,,,,,,,,,,METAR,6.0
RCNN 052130Z 01012KT 3200 BR FEW014 BKN060 19/18 Q1019 NOSIG RMK A3009,RCNN,2019-01-05T21:30:00Z,22.93,120.2,19.0,18.0,10,12,,1.99,30.088583,,,,,,TRUE,,,,BR,FEW,1400,BKN,6000,,,,,IFR,,,,,,,,,,,,SPECI,19.0
RCMQ 052130Z 01010KT 7000 -RA SCT003 BKN005 BKN020 16/15 Q1020 NOSIG RMK A3013,RCMQ,2019-01-05T21:30:00Z,24.27,120.62,16.0,15.0,10,10,,4.35,30.11811,,,,,,TRUE,,,,-RA,SCT,300,BKN,500,BKN,2000,,,IFR,,,,,,,,,,,,SPECI,5.0
RCTP 052130Z 04009KT 6000 -RA SCT003 BKN006 BKN015 17/16 Q1022 NOSIG RMK A3020,RCTP,2019-01-05T21:30:00Z,25.07,121.22,17.0,16.0,40,9,,3.73,30.177166,,,,,,TRUE,,,,-RA,SCT,300,BKN,600,BKN,1500,,,IFR,,,,,,,,,,,,METAR,33.0
VILK 052130Z 11003KT 1000 R27/P2000 RMID/P2000 R09/P2000 BR NSC 12/10 Q1016 NOSIG,VILK,2019-01-05T21:30:00Z,26.75,80.87,12.0,10.0,110,3,,0.62,30.0,,,,,,TRUE,,,,BR,CLR,,,,,,,,LIFR,,,,,,,,,,,,METAR,128.0
UMKK 052130Z 05006MPS 9999 OVC023 M01/M06 Q1018 R06/19//60 NOSIG RMK QFE763/1017,UMKK,2019-01-05T21:30:00Z,54.88,20.6,-1.0,-6.0,50,12,,6.21,30.059055,,,,,,TRUE,,,,,OVC,2300,,,,,,,MVFR,,,,,,,,,,,,METAR,21.0
ULMM 052130Z 01001MPS 9999 BKN012CB M08/M10 Q1010 R31/690140 NOSIG RMK QFE750,ULMM,2019-01-05T21:30:00Z,68.78,32.75,-8.0,-10.0,10,2,,6.21,29.822834,,,,,,TRUE,,,,,BKN,1200,,,,,,,MVFR,,,,,,,,,,,,SPECI,51.0
UUYY 052130Z 01003MPS 9999 SCT046 M16/M18 Q1012 R36/450242 TEMPO 2100 -SN BR RMK QFE750/1000,UUYY,2019-01-05T21:30:00Z,61.65,50.82,-16.0,-18.0,10,6,,6.21,29.88189,,,,,,,,,,,SCT,4600,,,,,,,VFR,,,,,,,,,,,,METAR,119.0
UUOO 052130Z 22001MPS 9999 OVC012 M04/M07 Q1012 R30/810240 NOSIG RMK QFE746,UUOO,2019-01-05T21:30:00Z,51.82,39.23,-4.0,-7.0,220,2,,6.21,29.88189,,,,,,TRUE,,,,,OVC,1200,,,,,,,MVFR,,,,,,,,,,,,SPECI,157.0
ULAA 052130Z 00000MPS 8000 -SN OVC007 M14/M16 Q1018 R08/490242 NOSIG RMK QFE763/1017,ULAA,2019-01-05T21:30:00Z,64.6,40.72,-14.0,-16.0,0,0,,4.97,30.059055,,,,,,TRUE,,,,-SN,OVC,700,,,,,,,IFR,,,,,,,,,,,,SPECI,19.0
UEEE 052130Z 36002MPS 2400 -SN BR NSC M38/M42 Q1021 R23L/490150 NOSIG RMK QFE757,UEEE,2019-01-05T21:30:00Z,62.08,129.77,-38.0,-42.0,360,4,,1.49,30.147638,,,,,,TRUE,,,,-SN BR,CLR,,,,,,,,IFR,,,,,,,,,,,,METAR,103.0
GOBD 052130Z 01011KT CAVOK 23/07 Q1015 NOSIG,GOBD,2019-01-05T21:30:00Z,14.67,-17.07,23.0,7.0,10,11,,6.21,29.970472,,,,,,TRUE,,,,,CAVOK,,,,,,,,VFR,,,,,,,,,,,,METAR,88.0
GABS 052130Z 06006KT CAVOK 24/M03 Q1018 NOSIG,GABS,2019-01-05T21:30:00Z,12.52,-7.95,24.0,-3.0,60,6,,6.21,30.059055,,,,,,TRUE,,,,,CAVOK,,,,,,,,VFR,,,,,,,,,,,,METAR,381.0
GQNO 052130Z 08007KT CAVOK 20/M09 Q1017 NOSIG,GQNO,2019-01-05T21:30:00Z,18.3,-15.97,20.0,-9.0,80,7,,6.21,30.029528,,,,,,TRUE,,,,,CAVOK,,,,,,,,VFR,,,,,,,,,,,,METAR,4.0
USCM 052130Z 17006MPS 4600 -SN VV006 M16/M19 Q1018 R18/090060 TEMPO 1000 SN VV003 RMK QFE726,USCM,2019-01-05T21:30:00Z,53.4,58.75,-16.0,-19.0,170,12,,2.86,30.059055,,,,,,,,,,-SN,OVX,0,,,,,,,LIFR,,,,,,,,,,,600,METAR,435.0
USSS 052130Z 15004MPS 9999 -SHSN SCT040CB M09/M15 Q1015 R08R/190045 NOSIG RMK QFE741/0988,USSS,2019-01-05T21:30:00Z,56.75,60.82,-9.0,-15.0,150,8,,6.21,29.970472,,,,,,TRUE,,,,-SHSN,SCT,4000,,,,,,,VFR,,,,,,,,,,,,SPECI,233.0
USRR 052130Z 14002MPS 7000 OVC001 M19/M21 Q1026 R25/39//35 NOSIG RMK QBB050 OBST OBSC QFE764,USRR,2019-01-05T21:30:00Z,61.33,73.42,-19.0,-21.0,140,4,,4.35,30.295275,,,,,,TRUE,,,,,OVC,100,,,,,,,LIFR,,,,,,,,,,,,SPECI,44.0
USNN 052130Z 11001MPS 9999 FEW003 M26/M29 Q1029 R21/450145 NOSIG RMK QFE767,USNN,2019-01-05T21:30:00Z,60.95,76.48,-26.0,-29.0,110,2,,6.21,30.383858,,,,,,TRUE,,,,,FEW,300,,,,,,,VFR,,,,,,,,,,,,SPECI,54.0
USCC 052130Z 15006MPS CAVOK M14/M18 Q1019 R09/000060 TEMPO 18012MPS RMK QFE744,USCC,2019-01-05T21:30:00Z,55.3,61.5,-14.0,-18.0,150,12,,6.21,30.088583,,,,,,,,,,,CAVOK,,,,,,,,VFR,,,,,,,,,,,,SPECI,234.0
UWUU 052130Z 17011MPS 2100 -SN OVC017 M06/M08 Q1012 R14R/421040 TEMPO 0500 +SN VV004 RMK QFE749/0999,UWUU,2019-01-05T21:30:00Z,54.57,55.87,-6.0,-8.0,170,21,,1.3,29.88189,,,,,,,,,,-SN,OVC,1700,,,,,,,IFR,,,,,,,,,,,,SPECI,137.0
UUOL 052130Z 26003MPS 9999 -SN BKN027 M04/M05 Q1011 R33/810342 NOSIG,UUOL,2019-01-05T21:30:00Z,52.7,39.53,-4.0,-5.0,260,6,,6.21,29.852362,,,,,,TRUE,,,,-SN,BKN,2700,,,,,,,MVFR,,,,,,,,,,,,METAR,176.0
UUWW 052130Z 35002MPS 9000 -SN OVC025 M07/M09 Q1012 R06/520242 NOSIG,UUWW,2019-01-05T21:30:00Z,55.6,37.27,-7.0,-9.0,350,4,,5.59,29.88189,,,,,,TRUE,,,,-SN,OVC,2500,,,,,,,MVFR,,,,,,,,,,,,METAR,203.0
UUEE 052130Z 34003MPS 7000 -SN OVC017 M07/M08 Q1012 R06R/420345 NOSIG,UUEE,2019-01-05T21:30:00Z,55.97,37.42,-7.0,-8.0,340,6,,4.35,29.88189,,,,,,TRUE,,,,-SN,OVC,1700,,,,,,,MVFR,,,,,,,,,,,,METAR,190.0
UUDL 052130Z 36002MPS 7000 -SN OVC014 M07/M09 Q1012 R23/490236 NOSIG RMK QFE751,UUDL,2019-01-05T21:30:00Z,57.57,40.17,-7.0,-9.0,360,4,,4.35,29.88189,,,,,,TRUE,,,,-SN,OVC,1400,,,,,,,MVFR,,,,,,,,,,,,METAR,88.0
UUDD 052130Z 34003MPS 9999 -SN BKN023 M07/M10 Q1011 R32L/550293 NOSIG,UUDD,2019-01-05T21:30:00Z,55.4,37.9,-7.0,-10.0,340,6,,6.21,29.852362,,,,,,TRUE,,,,-SN,BKN,2300,,,,,,,MVFR,,,,,,,,,,,,METAR,168.0
UUBW 052130Z 33003MPS 9999 -SN BKN024 M07/M08 Q1012 R30/450338 NOSIG,UUBW,2019-01-05T21:30:00Z,55.55,38.15,-7.0,-8.0,330,6,,6.21,29.88189,,,,,,TRUE,,,,-SN,BKN,2400,,,,,,,MVFR,,,,,,,,,,,,METAR,115.0
ULLI 052130Z 04003MPS 9999 -SN SCT011 OVC018 M04/M07 Q1019 R10R/420545 NOSIG,ULLI,2019-01-05T21:30:00Z,59.8,30.27,-4.0,-7.0,40,6,,6.21,30.088583,,,,,,TRUE,,,,-SN,SCT,1100,OVC,1800,,,,,MVFR,,,,,,,,,,,,METAR,4.0
UWGG 052130Z 35002MPS 4700 -SN OVC010 M09/M11 Q1008 R36R/450245 TEMPO 1700 SN,UWGG,2019-01-05T21:30:00Z,56.23,43.78,-9.0,-11.0,350,4,,2.92,29.763779,,,,,,,,,,-SN,OVC,1000,,,,,,,IFR,,,,,,,,,,,,METAR,73.0
UUOB 052130Z 21003MPS 9999 OVC027 M05/M08 Q1012 R29/810350 NOSIG,UUOB,2019-01-05T21:30:00Z,50.65,36.58,-5.0,-8.0,210,6,,6.21,29.88189,,,,,,TRUE,,,,,OVC,2700,,,,,,,MVFR,,,,,,,,,,,,METAR,224.0
UIUU 052130Z 00000MPS 3900 FU NSC M37/M40 Q1031 R26/810550 NOSIG RMK QFE729/0972,UIUU,2019-01-05T21:30:00Z,51.8,107.45,-37.0,-40.0,0,0,,2.42,30.442913,,,,,,TRUE,,,,FU,CLR,,,,,,,,IFR,,,,,,,,,,,,METAR,515.0
UIII 052130Z 00000MPS 9999 SCT003 M24/M27 Q1030 R30/820550 NOSIG RMK QBB100 QFE727/0970,UIII,2019-01-05T21:30:00Z,52.27,104.4,-24.0,-27.0,0,0,,6.21,30.413385,,,,,,TRUE,,,,,SCT,300,,,,,,,VFR,,,,,,,,,,,,METAR,513.0
UIBB 052130Z AUTO 00000MPS 3600 // ///003/// M24/M27 Q1026 RMK QBB110 QFE726/0968,UIBB,2019-01-05T21:30:00Z,56.37,101.7,-24.0,-27.0,0,0,,2.24,30.295275,,,TRUE,,,,,,,,,,,,,,,,,,,,,,,,,,,,METAR,490.0
UIAA 052130Z 00000MPS 5000 NSC M33/M36 Q1025 R29/350150 NOSIG RMK QFE710/0947,UIAA,2019-01-05T21:30:00Z,52.02,113.32,-33.0,-36.0,0,0,,3.11,30.265747,,,,,,TRUE,,,,,CLR,,,,,,,,MVFR,,,,,,,,,,,,METAR,685.0
USHH 052130Z 14002MPS 2000 R06/2000D SN BKN026 M13/M15 Q1022 R06/490332 TEMPO 1000 SN BR OVC003 RMK QFE763,USHH,2019-01-05T21:30:00Z,61.03,69.08,-13.0,-15.0,140,4,,1.24,30.177166,,,,,,,,,,SN,BKN,2600,,,,,,,IFR,,,,,,,,,,,,METAR,23.0
USTR 052130Z 19005G10MPS 9999 DRSN NSC M10/M17 Q1023 R21/450255 TEMPO 20013MPS RMK QFE757/1010,USTR,2019-01-05T21:30:00Z,57.17,65.32,-10.0,-17.0,190,10,19,6.21,30.206694,,,,,,,,,,DRSN,CLR,,,,,,,,VFR,,,1.3,,,,,,,,,SPECI,115.0
UNTT 052130Z 22005MPS 3300 -SHSN SCT024CB BKN035 M13/M15 Q1032 R21/450537 NOSIG RMK QFE759,UNTT,2019-01-05T21:30:00Z,56.38,85.22,-13.0,-15.0,220,10,,2.05,30.47244,,,,,,TRUE,,,,-SHSN,SCT,2400,BKN,3500,,,,,IFR,,,,,,,,,,,,METAR,182.0
UNOO 052130Z 23005MPS CAVOK M11/M14 Q1035 R25/850340 NOSIG RMK QFE768,UNOO,2019-01-05T21:30:00Z,54.97,73.32,-11.0,-14.0,230,10,,6.21,30.561024,,,,,,TRUE,,,,,CAVOK,,,,,,,,VFR,,,,,,,,,,,,SPECI,95.0
UNNT 052130Z 21004MPS 3000 -SN OVC032 M12/M14 Q1036 R25/490150 R34/490150 NOSIG RMK QFE767/1023,UNNT,2019-01-05T21:30:00Z,55.02,82.63,-12.0,-14.0,210,8,,1.86,30.590551,,,,,,TRUE,,,,-SN,OVC,3200,,,,,,,IFR,,,,,,,,,,,,SPECI,111.0
UNKL 052130Z 26004MPS 9000 -SN SCT020 M13/M16 Q1030 WS R29 R29/390232 NOSIG RMK QFE746,UNKL,2019-01-05T21:30:00Z,56.17,92.48,-13.0,-16.0,260,8,,5.59,30.413385,,,,,,TRUE,,,,-SN,SCT,2000,,,,,,,VFR,,,,,,,,,,,,SPECI,276.0
UNEE 052130Z 18004MPS 1800 1200NE R23/P2000D SHSN SCT026CB M16/M18 Q1034 R23/491035 NOSIG RMK QFE752,UNEE,2019-01-05T21:30:00Z,55.27,86.08,-16.0,-18.0,180,8,,1.12,30.531496,,,,,,TRUE,,,,SHSN,SCT,2600,,,,,,,IFR,,,,,,,,,,,,SPECI,260.0
UNBB 052130Z 21007MPS 9999 -SN BKN040 M17/M19 Q1038 R24/810355 NOSIG RMK QFE756,UNBB,2019-01-05T21:30:00Z,53.37,83.53,-17.0,-19.0,210,14,,6.21,30.649607,,,,,,TRUE,,,,-SN,BKN,4000,,,,,,,VFR,,,,,,,,,,,,SPECI,255.0
UNAA 052130Z 00000MPS 2300 -SHSN BR SCT041CB M23/M26 Q1037 R02/810157 NOSIG RMK QFE755,UNAA,2019-01-05T21:30:00Z,53.75,91.4,-23.0,-26.0,0,0,,1.43,30.620079,,,,,,TRUE,,,,-SHSN BR,SCT,4100,,,,,,,IFR,,,,,,,,,,,,SPECI,245.0
UWWW 052130Z 25005MPS 9000 -SN BKN015 M06/M08 Q1007 R15/450537 NOSIG RMK QFE744/0992,UWWW,2019-01-05T21:30:00Z,53.5,50.17,-6.0,-8.0,250,10,,5.59,29.734253,,,,,,TRUE,,,,-SN,BKN,1500,,,,,,,MVFR,,,,,,,,,,,,SPECI,146.0
UWOO 052130Z 18006MPS 6000 -SN BLSN OVC009 M08/M09 Q1019 R08/850545 NOSIG RMK QFE753/1005,UWOO,2019-01-05T21:30:00Z,51.8,55.47,-8.0,-9.0,180,12,,3.73,30.088583,,,,,,TRUE,,,,-SN BLSN,OVC,900,,,,,,,IFR,,,,,,,,,,,,METAR,109.0
UWKS 052130Z 00000MPS 3000 -SN BKN008 M10/M11 Q1005 R06/490338 TEMPO 2000 SN BKN006 RMK QFE739,UWKS,2019-01-05T21:30:00Z,56.08,47.35,-10.0,-11.0,0,0,,1.86,29.675198,,,,,,,,,,-SN,BKN,800,,,,,,,IFR,,,,,,,,,,,,METAR,170.0
UWKE 052130Z 14005MPS 2400 -SN OVC006 M08/M10 Q1005 R21/420540 NOSIG RMK OBST OBSC QFE737/0983,UWKE,2019-01-05T21:30:00Z,55.57,52.08,-8.0,-10.0,140,10,,1.49,29.675198,,,,,,TRUE,,,,-SN,OVC,600,,,,,,,IFR,,,,,,,,,,,,SPECI,196.0
UWKD 052130Z 13002MPS 7000 -SN OVC027 M09/M11 Q1005 R11/451040 NOSIG RMK QFE744/0992,UWKD,2019-01-05T21:30:00Z,55.62,49.28,-9.0,-11.0,130,4,,4.35,29.675198,,,,,,TRUE,,,,-SN,OVC,2700,,,,,,,MVFR,,,,,,,,,,,,METAR,126.0
URWW 052130Z 22002MPS 9999 -SN OVC021 M04/M06 Q1016 R24/710250 TEMPO 0400 FZFG OVC002,URWW,2019-01-05T21:30:00Z,48.78,44.33,-4.0,-6.0,220,4,,6.21,30.0,,,,,,,,,,-SN,OVC,2100,,,,,,,MVFR,,,,,,,,,,,,SPECI,147.0
URWI 052130Z AUTO 15004MPS 9999 // ///070/// M01/M02 Q1016,URWI,2019-01-05T21:30:00Z,46.37,44.33,-1.0,-2.0,150,8,,6.21,30.0,,,TRUE,,,,,,,,,,,,,,,,,,,,,,,,,,,,SPECI,150.0
URWA 052130Z 31001MPS 8000 NSC M01/M01 Q1019 R27/390045 NOSIG RMK QFE766/1021,URWA,2019-01-05T21:30:00Z,46.28,48.02,-1.0,-1.0,310,2,,4.97,30.088583,,,,,,TRUE,,,,,CLR,,,,,,,,MVFR,,,,,,,,,,,,SPECI,-20.0
URSS 052130Z 04001MPS 9999 FEW050CB OVC090 06/03 Q1008 WS ALL RWY R02/290055 R06/290055 NOSIG RMK R06/11002MPS QFE755,URSS,2019-01-05T21:30:00Z,43.45,39.95,6.0,3.0,40,2,,6.21,29.763779,,,,,,TRUE,,,,,FEW,5000,OVC,9000,,,,,VFR,,,,,,,,,,,,METAR,16.0
URRP 052130Z VRB01MPS 9999 SCT048 M06/M07 Q1015 R05/CLRD70 NOSIG RMK QFE757/1009,URRP,2019-01-05T21:30:00Z,47.5,39.92,-6.0,-7.0,0,2,,6.21,29.970472,,,,,,TRUE,,,,,SCT,4800,,,,,,,VFR,,,,,,,,,,,,METAR,65.0
URMT 052130Z 11006MPS 9999 SCT012 M01/M03 Q1012 R07/150060 NOSIG RMK QFE719,URMT,2019-01-05T21:30:00Z,45.12,42.12,-1.0,-3.0,110,12,,6.21,29.88189,,,,,,TRUE,,,,,SCT,1200,,,,,,,VFR,,,,,,,,,,,,SPECI,453.0
URMM 052130Z 11007MPS 9999 SCT024 M01/M03 Q1013 R12/750134 TEMPO 0300 FZFG OVC002 RMK QFE732/0976,URMM,2019-01-05T21:30:00Z,44.22,43.1,-1.0,-3.0,110,14,,6.21,29.911417,,,,,,,,,,,SCT,2400,,,,,,,VFR,,,,,,,,,,,,METAR,314.0
URML 052130Z 27002MPS 9000 FEW014 OVC034 03/01 Q1016 R32/010070 NOSIG RMK QFE761/1015,URML,2019-01-05T21:30:00Z,42.82,47.65,3.0,1.0,270,4,,5.59,30.0,,,,,,TRUE,,,,,FEW,1400,OVC,3400,,,,,VFR,,,,,,,,,,,,SPECI,4.0
URMG 052130Z 09005MPS 9999 OVC023 01/M01 Q1015 R26/000070 NOSIG RMK QFE746/0995,URMG,2019-01-05T21:30:00Z,43.37,45.7,1.0,-1.0,90,10,,6.21,29.970472,,,,,,TRUE,,,,,OVC,2300,,,,,,,MVFR,,,,,,,,,,,,METAR,263.0
URKK 052130Z 07003MPS 9999 -RA OVC030 02/00 Q1012 R05R/290060 NOSIG RMK QFE756,URKK,2019-01-05T21:30:00Z,45.03,39.15,2.0,0.0,70,6,,6.21,29.88189,,,,,,TRUE,,,,-RA,OVC,3000,,,,,,,MVFR,,,,,,,,,,,,SPECI,34.0
URKA 052130Z AUTO 07008MPS 9000 // ///058/// 00/M00 Q1010 RMK QFE753/1005,URKA,2019-01-05T21:30:00Z,45.0,37.35,0.0,0.0,70,16,,5.59,29.822834,,,TRUE,,,,,,,,,,,,,,,,,,,,,,,,,,,,METAR,53.0
UHSS 052130Z 20003MPS 9999 SCT033 M22/M25 Q1011 R01/810365 NOSIG RMK MT OBSC QFE757/1010,UHSS,2019-01-05T21:30:00Z,46.88,142.72,-22.0,-25.0,200,6,,6.21,29.852362,,,,,,TRUE,,,,,SCT,3300,,,,,,,VFR,,,,,,,,,,,,METAR,31.0
UHMM 052130Z 23001MPS 9999 NSC M25/M32 Q1004 R10/82//45 NOSIG RMK QFE738,UHMM,2019-01-05T21:30:00Z,59.92,150.72,-25.0,-32.0,230,2,,6.21,29.64567,,,,,,TRUE,,,,,CLR,,,,,,,,VFR,,,,,,,,,,,,METAR,175.0
UHMA 052130Z 36006G11MPS 250V050 9999 DRSN BKN023 M13/M16 Q1011 R01/////// NOSIG RMK END R01/02003G09MPS QFE755/1006,UHMA,2019-01-05T21:30:00Z,64.73,177.73,-13.0,-16.0,360,12,21,6.21,29.852362,,,,,,TRUE,,,,DRSN,BKN,2300,,,,,,,MVFR,,,,,,,,,,,,METAR,62.0
UHWW 052130Z 36002MPS 9999 NSC M13/M22 Q1028 R25L/0///70 NOSIG RMK QFE770,UHWW,2019-01-05T21:30:00Z,43.4,132.15,-13.0,-22.0,360,4,,6.21,30.35433,,,,,,TRUE,,,,,CLR,,,,,,,,VFR,,,,,,,,,,,,METAR,14.0
UHPP 052130Z 35005MPS 9999 NSC M21/M29 Q0988 R34L/750345 NOSIG RMK QFE737/0983,UHPP,2019-01-05T21:30:00Z,53.17,158.45,-21.0,-29.0,350,10,,6.21,29.17323,,,,,,TRUE,,,,,CLR,,,,,,,,VFR,,,,,,,,,,,,METAR,40.0
UHHH 052130Z 28003MPS CAVOK M20/M24 Q1020 R23L/090060 NOSIG RMK QFE758/1011,UHHH,2019-01-05T21:30:00Z,48.52,135.18,-20.0,-24.0,280,6,,6.21,30.11811,,,,,,TRUE,,,,,CAVOK,,,,,,,,VFR,,,,,,,,,,,,METAR,72.0
UHBB 052130Z 24002MPS CAVOK M20/M25 Q1026 R36/090060 NOSIG RMK QFE752/1003,UHBB,2019-01-05T21:30:00Z,50.43,127.42,-20.0,-25.0,240,4,,6.21,30.295275,,,,,,TRUE,,,,,CAVOK,,,,,,,,VFR,,,,,,,,,,,,METAR,195.0
VEGT 052130Z 00000KT 1500 BR FEW020 12/11 Q1017 NOSIG,VEGT,2019-01-05T21:30:00Z,26.1,91.58,12.0,11.0,0,0,,0.93,30.029528,,,,,,TRUE,,,,BR,FEW,2000,,,,,,,LIFR,,,,,,,,,,,,METAR,54.0
K6I2 052130Z AUTO 23008KT 10SM CLR 11/05 A3003 RMK AO2,K6I2,2019-01-05T21:30:00Z,37.63,-85.25,11.0,5.0,230,8,,10.0,30.029528,,,TRUE,TRUE,,,,,,,CLR,,,,,,,,VFR,,,,,,,,,,,,SPECI,264.0
K65S 052130Z AUTO 00000KT 10SM CLR 01/00 A2967 RMK AO2,K65S,2019-01-05T21:30:00Z,48.73,-116.3,1.0,0.0,0,0,,10.0,29.66929,,,TRUE,TRUE,,,,,,,CLR,,,,,,,,VFR,,,,,,,,,,,,METAR,713.0
KP08 052130Z AUTO 22004KT 10SM CLR 20/02 A2997 RMK AO2,KP08,2019-01-05T21:30:00Z,32.93,-111.43,20.0,2.0,220,4,,10.0,29.970472,,,TRUE,TRUE,,,,,,,CLR,,,,,,,,VFR,,,,,,,,,,,,METAR,481.0
KO86 052130Z AUTO 24003KT 2SM SCT017 01/00 A2957 RMK AO1 P0004,KO86,2019-01-05T21:30:00Z,40.98,-122.7,1.0,0.0,240,3,,2.0,29.568897,,,TRUE,TRUE,,,,,,,SCT,1700,,,,,,,IFR,,,,,,0.04,,,,,,METAR,729.0
ZMUB 052130Z 17002MPS 4000NW FU NSC M30/M34 Q1021 NOSIG RMK QFE658.1 68 NT,ZMUB,2019-01-05T21:30:00Z,47.83,106.78,-30.0,-34.0,170,4,,2.49,30.147638,,,,,,TRUE,,,,FU,CLR,,,,,,,,IFR,,,,,,,,,,,,SPECI,1330.0
BKPR 052130Z VRB02KT 9999 FEW050 BKN090 M06/M10 Q1013 NOSIG RMK 17010095,BKPR,2019-01-05T21:30:00Z,42.58,21.03,-6.0,-10.0,0,2,,6.21,29.911417,,,,,,TRUE,,,,,FEW,5000,BKN,9000,,,,,VFR,,,,,,,,,,,,SPECI,576.0
WADL 052130Z VRB01KT 2000 BR FEW016 SCT100 25/24 Q1012 NOSIG,WADL,2019-01-05T21:30:00Z,-8.75,116.28,25.0,24.0,0,1,,1.24,29.88189,,,,,,TRUE,,,,BR,FEW,1600,SCT,10000,,,,,IFR,,,,,,,,,,,,METAR,97.0
GMTT 052130Z 06008KT CAVOK 10/07 Q1030 NOSIG,GMTT,2019-01-05T21:30:00Z,35.72,-5.9,10.0,7.0,60,8,,6.21,30.413385,,,,,,TRUE,,,,,CAVOK,,,,,,,,VFR,,,,,,,,,,,,METAR,21.0
FMCZ 052130Z AUTO VRB02KT CAVOK 27/24 Q1010 NOSIG,FMCZ,2019-01-05T21:30:00Z,-12.8,45.27,27.0,24.0,0,2,,6.21,29.822834,,,TRUE,,,TRUE,,,,,CAVOK,,,,,,,,VFR,,,,,,,,,,,,METAR,7.0
VOBL 052130Z VRB03KT 3000 BR SCT010 12/12 Q1018 NOSIG,VOBL,2019-01-05T21:30:00Z,13.2,77.7,12.0,12.0,0,3,,1.86,30.059055,,,,,,TRUE,,,,BR,SCT,1000,,,,,,,IFR,,,,,,,,,,,,METAR,915.0
VOML 052130Z 11004KT 6000 NSC 21/17 Q1012 NOSIG,VOML,2019-01-05T21:30:00Z,12.97,74.88,21.0,17.0,110,4,,3.73,29.88189,,,,,,TRUE,,,,,CLR,,,,,,,,MVFR,,,,,,,,,,,,METAR,103.0
VHHH 052130Z 34009KT 7000 FEW010 SCT020 17/15 Q1021 NOSIG,VHHH,2019-01-05T21:30:00Z,22.32,113.92,17.0,15.0,340,9,,4.35,30.147638,,,,,,TRUE,,,,,FEW,1000,SCT,2000,,,,,MVFR,,,,,,,,,,,,METAR,9.0
CYPL 052130Z 30007KT 270V040 10SM -SHSN OVC028 M09/M15 A2991 RMK SC8 CVCTV CLD EMBD SLP160,CYPL,2019-01-05T21:30:00Z,51.47,-90.2,-9.0,-15.0,300,7,,10.0,29.911417,1016.0,,,,,,,,,-SHSN,OVC,2800,,,,,,,MVFR,,,,,,,,,,,,SPECI,373.0
CYBU 052129Z AUTO 04006KT 9SM -SN OVC015 M12/M15 A3011 RMK SLP231,CYBU,2019-01-05T21:29:00Z,53.32,-104.0,-12.0,-15.0,40,6,,9.0,30.109253,1023.1,,TRUE,,,,,,,-SN,OVC,1500,,,,,,,MVFR,,,,,,,,,,,,SPECI,374.0
KPQI 052129Z AUTO 00000KT 7SM -RA OVC015 00/M01 A2963 RMK AO2 RAB24 P0000 FZRANO,KPQI,2019-01-05T21:29:00Z,46.67,-68.03,0.0,-1.0,0,0,,7.0,29.630905,,,TRUE,TRUE,,,,TRUE,,-RA,OVC,1500,,,,,,,MVFR,,,,,,0.005,,,,,,SPECI,146.0
CYSB 052129Z 09003KT 20SM OVC008 M01/M02 A2963 RMK SC8 SLP053,CYSB,2019-01-05T21:29:00Z,46.63,-80.8,-1.0,-2.0,90,3,,20.0,29.630905,1005.3,,,,,,,,,,OVC,800,,,,,,,IFR,,,,,,,,,,,,SPECI,348.0
KWVL 052129Z AUTO 10SM SCT015 BKN090 01/M02 A2954 RMK AO2 FZRANO $,KWVL,2019-01-05T21:29:00Z,44.52,-69.67,1.0,-2.0,,,,10.0,29.53937,,,TRUE,TRUE,TRUE,,,TRUE,,,SCT,1500,BKN,9000,,,,,VFR,,,,,,,,,,,,SPECI,101.0
PMDY 052129Z AUTO 21013KT 8SM SCT014 BKN025 24/22 A2986 RMK AO2 PWINO,PMDY,2019-01-05T21:29:00Z,28.22,-177.37,24.0,22.0,210,13,,8.0,29.861221,,,TRUE,TRUE,,,,,TRUE,,SCT,1400,BKN,2500,,,,,MVFR,,,,,,,,,,,,METAR,4.0
KERI 052129Z 25007KT 2 1/2SM BR OVC007 03/01 A2980 RMK AO2 T00330011,KERI,2019-01-05T21:29:00Z,42.08,-80.18,3.3,1.1,250,7,,2.5,29.799213,,,,TRUE,,,,,,BR,OVC,700,,,,,,,IFR,,,,,,,,,,,,SPECI,222.0
KSJC 052129Z 15017KT 8SM -RA FEW001 BKN025 OVC045 12/09 A2970 RMK AO2 PK WND 13026/2106 RAB15 P0000 T01170089,KSJC,2019-01-05T21:29:00Z,37.37,-121.92,11.7,8.9,150,17,,8.0,29.698818,,,,TRUE,,,,,,-RA,FEW,100,BKN,2500,OVC,4500,,,MVFR,,,,,,0.005,,,,,,SPECI,24.0
PATC 052129Z AUTO 03017KT 1 1/2SM -SHSN BR CLR M21/M22 A3004 RMK AO2 SLP185,PATC,2019-01-05T21:29:00Z,65.57,-167.92,-21.0,-22.0,30,17,,1.5,30.041338,1018.5,,TRUE,TRUE,,,,,,-SHSN BR,CLR,,,,,,,,IFR,,,,,,,,,,,,SPECI,83.0
CYAZ 052128Z 10007KT 15SM -RA SCT042 OVC060 09/05 A2932 RMK SC4SC4 VRY LGT PCPN SLP931 DENSITY ALT 100FT,CYAZ,2019-01-05T21:28:00Z,49.08,-125.77,9.0,5.0,100,7,,15.0,29.320866,993.1,,,,,,,,,-RA,SCT,4200,OVC,6000,,,,,VFR,,,,,,,,,,,,SPECI,24.0
PAFR 052128Z AUTO 00000KT 8SM OVC005 M13/M14 A2981 RMK AO2 SLP112,PAFR,2019-01-05T21:28:00Z,61.27,-149.65,-13.0,-14.0,0,0,,8.0,29.811024,1011.2,,TRUE,TRUE,,,,,,,OVC,500,,,,,,,IFR,,,,,,,,,,,,SPECI,115.0
KPHL 052128Z 32011KT 10SM SCT016 BKN060 BKN080 08/06 A2956 RMK AO2 T00830061,KPHL,2019-01-05T21:28:00Z,39.87,-75.23,8.3,6.1,320,11,,10.0,29.56004,,,,TRUE,,,,,,,SCT,1600,BKN,6000,BKN,8000,,,VFR,,,,,,,,,,,,SPECI,18.0
K7BM 052128Z AUTO 24004KT 10SM CLR 05/M15 A3013 RMK AO2,K7BM,2019-01-05T21:28:00Z,38.78,-106.22,5.0,-15.0,240,4,,10.0,30.129921,,,TRUE,TRUE,,,,,,,CLR,,,,,,,,VFR,,,,,,,,,,,,SPECI,2995.0
KGRF 052128Z 22003KT 10SM BKN006 07/07 A2941 RMK AO2A SLP964 $,KGRF,2019-01-05T21:28:00Z,47.07,-122.57,7.0,7.0,220,3,,10.0,29.409449,996.4,,,TRUE,TRUE,,,,,,BKN,600,,,,,,,IFR,,,,,,,,,,,,SPECI,92.0
KHFF 052128Z AUTO 28007KT 10SM CLR 16/04 A2986 RMK AO2 SLP127,KHFF,2019-01-05T21:28:00Z,35.02,-79.5,16.0,4.0,280,7,,10.0,29.861221,1012.7,,TRUE,TRUE,,,,,,,CLR,,,,,,,,VFR,,,,,,,,,,,,SPECI,115.0
PFKW 052127Z AUTO 07005KT 1 1/2SM BR OVC002 M12/M13 A2993 RMK AO2 FZRANO,PFKW,2019-01-05T21:27:00Z,60.8,-161.43,-12.0,-13.0,70,5,,1.5,29.929134,,,TRUE,TRUE,,,,TRUE,,BR,OVC,200,,,,,,,LIFR,,,,,,,,,,,,SPECI,8.0
KCMX 052127Z AUTO 32010KT 10SM BKN005 BKN011 OVC015 01/M01 A2981 RMK AO2 CIG 003V007 T00111006,KCMX,2019-01-05T21:27:00Z,47.17,-88.48,1.1,-0.6,320,10,,10.0,29.811024,,,TRUE,TRUE,,,,,,,BKN,500,BKN,1100,OVC,1500,,,IFR,,,,,,,,,,,,SPECI,326.0
LTAR 052127Z 22018KT 5000 SN BR SCT015 BKN025 BKN080 M00/M02 Q1007 RESN RMK RWY19 20016KT,LTAR,2019-01-05T21:27:00Z,39.8,36.9,0.0,-2.0,220,18,,3.11,29.734253,,,,,,,,,,SN BR,SCT,1500,BKN,2500,BKN,8000,,,MVFR,,,1.6,,,,,,,,,SPECI,1271.0
KPVD 052127Z 36013KT 2SM RA BR BKN009 BKN022 OVC041 05/04 A2945 RMK AO2 CIG 006V015 P0005 T00500044,KPVD,2019-01-05T21:27:00Z,41.72,-71.43,5.0,4.4,360,13,,2.0,29.450787,,,,TRUE,,,,,,RA BR,BKN,900,BKN,2200,OVC,4100,,,IFR,,,,,,0.05,,,,,,SPECI,16.0
KISN 052127Z AUTO 09007KT 7SM OVC004 M03/M05 A3000 RMK AO2 T10281050,KISN,2019-01-05T21:27:00Z,48.17,-103.63,-2.8,-5.0,90,7,,7.0,30.0,,,TRUE,TRUE,,,,,,,OVC,400,,,,,,,LIFR,,,,,,,,,,,,SPECI,579.0
KBUR 052127Z 14010KT 10SM OVC028 13/08 A2995 RMK AO2 T01280083,KBUR,2019-01-05T21:27:00Z,34.2,-118.37,12.8,8.3,140,10,,10.0,29.949802,,,,TRUE,,,,,,,OVC,2800,,,,,,,MVFR,,,,,,,,,,,,SPECI,217.0
PAEH 052127Z AUTO 12027G32KT 5SM -FZDZ FEW023 BKN150 M03/M05 A2981 RMK AO2 SLP106,PAEH,2019-01-05T21:27:00Z,58.65,-162.07,-3.0,-5.0,120,27,32,5.0,29.811024,1010.6,,TRUE,TRUE,,,,,,-FZDZ,FEW,2300,BKN,15000,,,,,MVFR,,,,,,,,,,,,SPECI,161.0
KJHW 052126Z AUTO 29007KT 4SM BR OVC007 01/M01 A2975 RMK AO2 FZRANO,KJHW,2019-01-05T21:26:00Z,42.13,-79.27,1.0,-1.0,290,7,,4.0,29.749016,,,TRUE,TRUE,,,,TRUE,,BR,OVC,700,,,,,,,IFR,,,,,,,,,,,,METAR,525.0
ETEB 052126Z AUTO 28011KT 8000 -DZ BR OVC004 02/02 A3026 RMK AO2 RAE2056DZB2056E2057UPB2057E01RAB01E06UPB06E16DZB16 SLPNO $,ETEB,2019-01-05T21:26:00Z,49.32,10.62,2.0,2.0,280,11,,4.97,30.259842,,,TRUE,TRUE,TRUE,,,,,-DZ BR,OVC,400,,,,,,,LIFR,,,,,,,,,,,,SPECI,467.0
PAMM 052126Z AUTO 35011KT 10SM BKN031 01/M04 A2952 RMK AO2 FZRANO,PAMM,2019-01-05T21:26:00Z,55.13,-131.58,1.0,-4.0,350,11,,10.0,29.518702,,,TRUE,TRUE,,,,TRUE,,,BKN,3100,,,,,,,VFR,,,,,,,,,,,,METAR,1.0
KWVI 052126Z AUTO 17007KT 6SM -RA BR OVC028 11/10 A2975 RMK AO2 RAB08 P0000 T01110100,KWVI,2019-01-05T21:26:00Z,36.93,-121.78,11.1,10.0,170,7,,6.0,29.749016,,,TRUE,TRUE,,,,,,-RA BR,OVC,2800,,,,,,,MVFR,,,,,,0.005,,,,,,SPECI,43.0
KJFK 052126Z 33020G28KT 2SM -RA BR BKN009 BKN013 OVC021 07/06 A2950 RMK AO2 PK WND 33028/2120 SFC VIS 3 VIS 1 3/4 W P0001 T00670061,KJFK,2019-01-05T21:26:00Z,40.63,-73.77,6.7,6.1,330,20,28,2.0,29.500984,,,,TRUE,,,,,,-RA BR,BKN,900,BKN,1300,OVC,2100,,,IFR,,,,,,0.01,,,,,,SPECI,9.0
KBOS 052126Z 36015KT 3SM -RA BR BKN007 BKN021 OVC045 04/03 A2948 RMK AO2 P0001 T00440028,KBOS,2019-01-05T21:26:00Z,42.37,-71.02,4.4,2.8,360,15,,3.0,29.480314,,,,TRUE,,,,,,-RA BR,BKN,700,BKN,2100,OVC,4500,,,IFR,,,,,,0.01,,,,,,SPECI,6.0
EHGR 052125Z AUTO 28007KT 240V320 9999 FEW016 BKN031 OVC035 06/04 Q1033 BLU,EHGR,2019-01-05T21:25:00Z,51.57,4.92,6.0,4.0,280,7,,6.21,30.501968,,,TRUE,,,,,,,,FEW,1600,BKN,3100,OVC,3500,,,VFR,,,,,,,,,,,,METAR,13.0
KPEO 052125Z AUTO 30008KT 6SM BR OVC010 02/M01 A2972 RMK AO2 T00171006,KPEO,2019-01-05T21:25:00Z,42.65,-77.05,1.7,-0.6,300,8,,6.0,29.719488,,,TRUE,TRUE,,,,,,BR,OVC,1000,,,,,,,MVFR,,,,,,,,,,,,METAR,256.0
KMVY 052125Z 03014KT 3SM RA BR OVC005 06/06 A2937 RMK AO2 P0008 T00560056,KMVY,2019-01-05T21:25:00Z,41.4,-70.62,5.6,5.6,30,14,,3.0,29.371063,,,,TRUE,,,,,,RA BR,OVC,500,,,,,,,IFR,,,,,,0.08,,,,,,METAR,16.0
KFZY 052125Z AUTO 32007KT 8SM SCT014 OVC024 03/M01 A2970 RMK AO2 T00281006,KFZY,2019-01-05T21:25:00Z,43.35,-76.38,2.8,-0.6,320,7,,8.0,29.698818,,,TRUE,TRUE,,,,,,,SCT,1400,OVC,2400,,,,,MVFR,,,,,,,,,,,,METAR,138.0
EHRD 052125Z AUTO 30010KT 260V330 9999 -DZ FEW007 SCT017 BKN020 06/04 Q1033 NOSIG,EHRD,2019-01-05T21:25:00Z,51.95,4.45,6.0,4.0,300,10,,6.21,30.501968,,,TRUE,,,TRUE,,,,-DZ,FEW,700,SCT,1700,BKN,2000,,,MVFR,,,,,,,,,,,,METAR,-5.0
EHGG 052125Z AUTO 32013KT 280V340 9999 OVC004 07/07 Q1029 TEMPO 4000 -DZ BKN005,EHGG,2019-01-05T21:25:00Z,53.12,6.57,7.0,7.0,320,13,,6.21,30.383858,,,TRUE,,,,,,,,OVC,400,,,,,,,LIFR,,,,,,,,,,,,METAR,4.0
EHBK 052125Z AUTO 30006KT 260V350 6000 FEW005 BKN006 OVC008 05/04 Q1032 TEMPO 8000 -DZ,EHBK,2019-01-05T21:25:00Z,50.92,5.77,5.0,4.0,300,6,,3.73,30.47244,,,TRUE,,,,,,,,FEW,500,BKN,600,OVC,800,,,IFR,,,,,,,,,,,,METAR,116.0
EHAM 052125Z 30010KT 9999 FEW016 SCT021 BKN040 06/04 Q1032 NOSIG,EHAM,2019-01-05T21:25:00Z,52.32,4.78,6.0,4.0,300,10,,6.21,30.47244,,,,,,TRUE,,,,,FEW,1600,SCT,2100,BKN,4000,,,VFR,,,,,,,,,,,,METAR,9.0
KSYR 052125Z 29011KT 10SM BKN019 BKN029 03/M01 A2970 RMK AO2 T00281006,KSYR,2019-01-05T21:25:00Z,43.12,-76.1,2.8,-0.6,290,11,,10.0,29.698818,,,,TRUE,,,,,,,BKN,1900,BKN,2900,,,,,MVFR,,,,,,,,,,,,SPECI,127.0
EHDL 052125Z AUTO 30007KT 270V360 9999 SCT007 OVC008 06/06 Q1031 GRN,EHDL,2019-01-05T21:25:00Z,52.07,5.87,6.0,6.0,300,7,,6.21,30.442913,,,TRUE,,,,,,,,SCT,700,OVC,800,,,,,IFR,,,,,,,,,,,,METAR,52.0
EHVK 052125Z AUTO 28007KT 250V340 9999 SCT007 BKN008 OVC010 06/05 Q1032 GRN,EHVK,2019-01-05T21:25:00Z,51.63,5.7,6.0,5.0,280,7,,6.21,30.47244,,,TRUE,,,,,,,,SCT,700,BKN,800,OVC,1000,,,IFR,,,,,,,,,,,,METAR,21.0
EHSC 052125Z AUTO 31018KT 9999 ///////// 06/03 Q1034 W08/H17,EHSC,2019-01-05T21:25:00Z,51.93,3.67,6.0,3.0,310,18,,6.21,30.531496,,,TRUE,,,,,,,,,,,,,,,,,,,,,,,,,,,,METAR,50.0
EHSA 052125Z AUTO 30018KT 280V340 9999 ///////// 06/02 Q1034 W06/H17,EHSA,2019-01-05T21:25:00Z,52.0,3.28,6.0,2.0,300,18,,6.21,30.531496,,,TRUE,,,,,,,,,,,,,,,,,,,,,,,,,,,,METAR,50.0
EHQE 052125Z AUTO 32021KT 9999 FEW020 BKN031 BKN035 08/03 Q1032 W///H///,EHQE,2019-01-05T21:25:00Z,52.92,4.15,8.0,3.0,320,21,,6.21,30.47244,,,TRUE,,,,,,,,FEW,2000,BKN,3100,BKN,3500,,,VFR,,,,,,,,,,,,METAR,50.0
EHPG 052125Z AUTO 29011KT 250V330 9999 FEW013 BKN016 OVC019 07/03 Q1034 W///H///,EHPG,2019-01-05T21:25:00Z,52.37,3.35,7.0,3.0,290,11,,6.21,30.531496,,,TRUE,,,,,,,,FEW,1300,BKN,1600,OVC,1900,,,MVFR,,,,,,,,,,,,METAR,50.0
EHMG 052125Z AUTO 32025KT 9999 FEW006 SCT033 07/06 Q1031 W///H///,EHMG,2019-01-05T21:25:00Z,53.62,4.97,7.0,6.0,320,25,,6.21,30.442913,,,TRUE,,,,,,,,FEW,600,SCT,3300,,,,,VFR,,,,,,,,,,,,METAR,50.0
EHMA 052125Z AUTO 31026KT //// // FEW005 BKN007 BKN008 07/06 Q1029 RE// W///H///,EHMA,2019-01-05T21:25:00Z,53.5,5.95,7.0,6.0,310,26,,,30.383858,,,TRUE,,,,,,,,FEW,500,BKN,700,BKN,800,,,,,,,,,,,,,,,METAR,50.0
EHKV 052125Z AUTO 32017KT 270V330 9999 FEW011 SCT021 BKN025 07/03 Q1034 W///H///,EHKV,2019-01-05T21:25:00Z,53.27,3.63,7.0,3.0,320,17,,6.21,30.531496,,,TRUE,,,,,,,,FEW,1100,SCT,2100,BKN,2500,,,MVFR,,,,,,,,,,,,METAR,50.0
EHJR 052125Z AUTO 32016KT //// // ///////// 07/03 Q1033 RE// W///H19,EHJR,2019-01-05T21:25:00Z,53.22,3.22,7.0,3.0,320,16,,,30.501968,,,TRUE,,,,,,,,,,,,,,,,,,,,,,,,,,,,METAR,50.0
EHJA 052125Z AUTO 31018KT 9999 SCT023/// OVC026/// 07/02 Q1033 W///H///,EHJA,2019-01-05T21:25:00Z,53.82,2.95,7.0,2.0,310,18,,6.21,30.501968,,,TRUE,,,,,,,,SCT,2300,OVC,2600,,,,,MVFR,,,,,,,,,,,,METAR,50.0
EHHW 052125Z AUTO 34024KT //// // FEW004/// SCT007/// BKN029/// 08/07 Q1029 RE// W///H///,EHHW,2019-01-05T21:25:00Z,54.03,6.03,8.0,7.0,340,24,,,30.383858,,,TRUE,,,,,,,,FEW,400,SCT,700,BKN,2900,,,,,,,,,,,,,,,METAR,0.0
EHFZ 052125Z AUTO 31018KT 9999 FEW014 SCT016 BKN020 08/05 Q1031 W///H///,EHFZ,2019-01-05T21:25:00Z,54.12,4.02,8.0,5.0,310,18,,6.21,30.442913,,,TRUE,,,,,,,,FEW,1400,SCT,1600,BKN,2000,,,MVFR,,,,,,,,,,,,METAR,50.0
EHFD 052125Z AUTO 32023KT //// // FEW006/// SCT008/// BKN011/// 08/06 Q1029 RE// W///H///,EHFD,2019-01-05T21:25:00Z,54.85,4.7,8.0,6.0,320,23,,,30.383858,,,TRUE,,,,,,,,FEW,600,SCT,800,BKN,1100,,,,,,,,,,,,,,,METAR,50.0
EHDV 052125Z AUTO 31020KT 9999 FEW014/// OVC026/// 08/04 Q1033 W///H///,EHDV,2019-01-05T21:25:00Z,54.32,2.93,8.0,4.0,310,20,,6.21,30.501968,,,TRUE,,,,,,,,FEW,1400,OVC,2600,,,,,MVFR,,,,,,,,,,,,METAR,50.0
EHAK 052125Z AUTO 33023KT 9999 FEW007/// BKN034/// 07/06 Q1030 W///H///,EHAK,2019-01-05T21:25:00Z,55.42,3.82,7.0,6.0,330,23,,6.21,30.413385,,,TRUE,,,,,,,,FEW,700,BKN,3400,,,,,VFR,,,,,,,,,,,,METAR,50.0
PAIM 052125Z AUTO 00000KT 10SM -SHSN FEW031 OVC055 M28/M30 A2988 RMK AO2 SLP190,PAIM,2019-01-05T21:25:00Z,66.0,-153.7,-28.0,-30.0,0,0,,10.0,29.878937,1019.0,,TRUE,TRUE,,,,,,-SHSN,FEW,3100,OVC,5500,,,,,VFR,,,,,,,,,,,,SPECI,389.0
EBLB 052125Z AUTO 32005KT 0800 DZ OVC002/// 02/02 Q1031 AMB,EBLB,2019-01-05T21:25:00Z,50.47,6.17,2.0,2.0,320,5,,0.5,30.442913,,,TRUE,,,,,,,DZ,OVC,200,,,,,,,LIFR,,,,,,,,,,,,METAR,570.0
EBFS 052125Z AUTO 30010KT 3900 BR OVC002/// 03/02 Q1034 AMB,EBFS,2019-01-05T21:25:00Z,50.22,4.65,3.0,2.0,300,10,,2.42,30.531496,,,TRUE,,,,,,,BR,OVC,200,,,,,,,LIFR,,,,,,,,,,,,METAR,299.0
EBFN 052125Z AUTO 33010KT 9999 /// 05/00 Q1036 BLU,EBFN,2019-01-05T21:25:00Z,51.07,2.63,5.0,0.0,330,10,,6.21,30.590551,,,TRUE,,,,,,,,,,,,,,,,,,,,,,,,,,,,METAR,9.0
EBDT 052125Z AUTO 30006KT 3600 BR FEW004/// SCT006/// BKN008/// 05/05 Q1034 YLO,EBDT,2019-01-05T21:25:00Z,51.02,5.07,5.0,5.0,300,6,,2.24,30.531496,,,TRUE,,,,,,,BR,FEW,400,SCT,600,BKN,800,,,IFR,,,,,,,,,,,,SPECI,54.0
EBBL 052125Z AUTO 27006KT 9999 FEW009/// OVC032/// 05/04 Q1033 BLU,EBBL,2019-01-05T21:25:00Z,51.17,5.47,5.0,4.0,270,6,,6.21,30.501968,,,TRUE,,,,,,,,FEW,900,OVC,3200,,,,,VFR,,,,,,,,,,,,SPECI,64.0
EBBE 052125Z AUTO 30008KT 2700 BR BKN004/// OVC006/// 04/04 Q1034 YLO,EBBE,2019-01-05T21:25:00Z,50.75,4.77,4.0,4.0,300,8,,1.68,30.531496,,,TRUE,,,,,,,BR,BKN,400,OVC,600,,,,,LIFR,,,,,,,,,,,,SPECI,127.0
EHFS 052125Z AUTO 31011KT 280V340 9999 OVC016 06/02 Q1035 W///H///,EHFS,2019-01-05T21:25:00Z,51.45,3.6,6.0,2.0,310,11,,6.21,30.561024,,,TRUE,,,,,,,,OVC,1600,,,,,,,MVFR,,,,,,,,,,,,METAR,32.0
PPNU 052125Z AUTO 23007KT 10SM CLR M33/M35 A3010 RMK AO1,PPNU,2019-01-05T21:25:00Z,70.42,-150.03,-33.0,-35.0,230,7,,10.0,30.100393,,,TRUE,TRUE,,,,,,,CLR,,,,,,,,VFR,,,,,,,,,,,,METAR,27.0
CYHI 052125Z 31017KT 1/2SM -SN PRFG DRSN FEW010 SCT036 OVC044 M22/M25 A2982 RMK ST1ST2ST5 CIG RAG VIS S 2 SLP106,CYHI,2019-01-05T21:25:00Z,70.77,-117.78,-22.0,-25.0,310,17,,0.5,29.819881,1010.6,,,,,,,,,-SN PRFG DRSN,FEW,1000,SCT,3600,OVC,4400,,,LIFR,,,,,,,,,,,,SPECI,36.0
KMJX 052125Z AUTO 31009KT 2 1/2SM -RA BR OVC005 07/07 A2951 RMK AO2 CIG 004V008 P0001,KMJX,2019-01-05T21:25:00Z,39.93,-74.3,7.0,7.0,310,9,,2.5,29.509842,,,TRUE,TRUE,,,,,,-RA BR,OVC,500,,,,,,,IFR,,,,,,0.01,,,,,,METAR,25.0
TXKF 052124Z 21020G30KT 9999 SCT016 BKN077 BKN300 23/20 Q1012 ,TXKF,2019-01-05T21:24:00Z,32.37,-64.68,23.0,20.0,210,20,30,6.21,29.88189,,,,,,,,,,,SCT,1600,BKN,7700,BKN,30000,,,VFR,,,,,,,,,,,,SPECI,6.0
KMNH 052124Z AUTO 09006KT 10SM CLR 12/M11 A3000 RMK AO2,KMNH,2019-01-05T21:24:00Z,39.22,-104.65,12.0,-11.0,90,6,,10.0,30.0,,,TRUE,TRUE,,,,,,,CLR,,,,,,,,VFR,,,,,,,,,,,,SPECI,2152.0
CYAH 052124Z AUTO 26004KT 6SM -SN FEW014 SCT021 BKN030 OVC037 M12/M13 A2960 RMK SLP049,CYAH,2019-01-05T21:24:00Z,53.75,-73.67,-12.0,-13.0,260,4,,6.0,29.601377,1004.9,,TRUE,,,,,,,-SN,FEW,1400,SCT,2100,BKN,3000,OVC,3700,MVFR,,,,,,,,,,,,SPECI,306.0
CYAM 052124Z 00000KT 6SM BR FEW008 BKN012 OVC014 01/01 A2966 RMK ST2SC5SC1 SLP055,CYAM,2019-01-05T21:24:00Z,46.47,-84.52,1.0,1.0,0,0,,6.0,29.660433,1005.5,,,,,,,,,BR,FEW,800,BKN,1200,OVC,1400,,,MVFR,,,,,,,,,,,,SPECI,192.0
CYYE 052124Z 00000KT 15SM FEW018 SCT040 BKN065 BKN150 M13/M15 A2967 RMK SF1SC2SC3AC1 SLP083,CYYE,2019-01-05T21:24:00Z,58.82,-122.57,-13.0,-15.0,0,0,,15.0,29.66929,1008.3,,,,,,,,,,FEW,1800,SCT,4000,BKN,6500,BKN,15000,VFR,,,,,,,,,,,,SPECI,382.0
KORE 052124Z AUTO 35003KT 10SM -RA SCT030 SCT037 OVC050 03/01 A2953 RMK AO2 RAE03B22 P0000 T00280011,KORE,2019-01-05T21:24:00Z,42.57,-72.28,2.8,1.1,350,3,,10.0,29.530512,,,TRUE,TRUE,,,,,,-RA,SCT,3000,SCT,3700,OVC,5000,,,VFR,,,,,,0.005,,,,,,METAR,164.0
KHIF 052123Z 24004KT 10SM OVC160 00/M07 A2991 RMK AO2A DZB16E23 SLP149,KHIF,2019-01-05T21:23:00Z,41.12,-111.97,0.0,-7.0,240,4,,10.0,29.911417,1014.9,,,TRUE,,,,,,,OVC,16000,,,,,,,VFR,,,,,,,,,,,,SPECI,1459.0
KWST 052123Z AUTO 36009KT 3SM RA BR FEW005 OVC041 07/06 A2943 RMK AO2 P0018 T00720061,KWST,2019-01-05T21:23:00Z,41.35,-71.8,7.2,6.1,360,9,,3.0,29.430119,,,TRUE,TRUE,,,,,,RA BR,FEW,500,OVC,4100,,,,,MVFR,,,,,,0.18,,,,,,SPECI,21.0
KC99 052122Z AUTO 00000KT 10SM CLR 03/M15 A3014 RMK AO2,KC99,2019-01-05T21:22:00Z,29.87,-105.55,3.0,-15.0,0,0,,10.0,30.138779,,,TRUE,TRUE,,,,,,,CLR,,,,,,,,VFR,,,,,,,,,,,,METAR,3320.0
PANA 052122Z AUTO 04005KT 1 3/4SM BR OVC002 M10/M11 A2992 RMK AO2 VIS 3/4V4 SNE08 P0000 FZRANO,PANA,2019-01-05T21:22:00Z,60.68,-161.98,-10.0,-11.0,40,5,,1.75,29.920275,,,TRUE,TRUE,,,,TRUE,,BR,OVC,200,,,,,,,LIFR,,,,,,0.005,,,,,,METAR,5.0
CWLY 052122Z AUTO 19004KT 160V220 9SM SCT006 04/02 A2952 RMK SLP003,CWLY,2019-01-05T21:22:00Z,50.22,-121.58,4.0,2.0,190,4,,9.0,29.518702,1000.3,,TRUE,,,,,,,,SCT,600,,,,,,,VFR,,,,,,,,,,,,SPECI,229.0
CYNM 052122Z AUTO 35006KT 3SM -SN BKN027 OVC045 M06/M07 A2968 RMK SLP071,CYNM,2019-01-05T21:22:00Z,49.77,-77.82,-6.0,-7.0,350,6,,3.0,29.681103,1007.1,,TRUE,,,,,,,-SN,BKN,2700,OVC,4500,,,,,MVFR,,,,,,,,,,,,SPECI,281.0
CYTZ 052122Z AUTO 20014KT 9SM SCT021 03/00 A2973 RMK SLP070,CYTZ,2019-01-05T21:22:00Z,43.63,-79.4,3.0,0.0,200,14,,9.0,29.731298,1007.0,,TRUE,,,,,,,,SCT,2100,,,,,,,VFR,,,,,,,,,,,,SPECI,77.0
KDAW 052121Z AUTO 36006KT 10SM -RA SCT011 BKN050 OVC065 02/01 A2952 RMK AO2 UPB19E20 P0000 T00170006,KDAW,2019-01-05T21:21:00Z,43.28,-70.92,1.7,0.6,360,6,,10.0,29.518702,,,TRUE,TRUE,,,,,,-RA,SCT,1100,BKN,5000,OVC,6500,,,VFR,,,,,,0.005,,,,,,METAR,100.0
KCQX 052121Z AUTO 04013G21KT 2 1/2SM -RA BR OVC003 06/06 A2940 RMK AO2 LTG DSNT SE P0000 T00560056,KCQX,2019-01-05T21:21:00Z,41.68,-70.0,5.6,5.6,40,13,21,2.5,29.40059,,,TRUE,TRUE,,,,,,-RA BR,OVC,300,,,,,,,LIFR,,,,,,0.005,,,,,,METAR,19.0
PASK 052121Z AUTO 26008KT 10SM BKN003 OVC050 M21/M22 A3008 RMK AO2 FZRANO $,PASK,2019-01-05T21:21:00Z,66.6,-160.0,-21.0,-22.0,260,8,,10.0,30.079725,,,TRUE,TRUE,TRUE,,,TRUE,,,BKN,300,OVC,5000,,,,,LIFR,,,,,,,,,,,,METAR,8.0
PAOO 052121Z AUTO 06013KT 6SM -SN BR OVC004 M07/M08 A2986 RMK AO2 P0000 FZRANO,PAOO,2019-01-05T21:21:00Z,60.53,-165.12,-7.0,-8.0,60,13,,6.0,29.861221,,,TRUE,TRUE,,,,TRUE,,-SN BR,OVC,400,,,,,,,LIFR,,,,,,0.005,,,,,,METAR,18.0
RJOT 052120Z 14004KT 110V190 9999 FEW025 SCT050 BKN150 03/01 Q1020 RMK 1CU025 3SC050 5AC150 A3014,RJOT,2019-01-05T21:20:00Z,34.22,134.02,3.0,1.0,140,4,,6.21,30.11811,,,,,,,,,,,FEW,2500,SCT,5000,BKN,15000,,,VFR,,,,,,,,,,,,METAR,188.0
K7W6 052120Z AUTO 26012G21KT 10SM CLR 13/05 A2973 RMK AO2 T01310048,K7W6,2019-01-05T21:20:00Z,35.55,-75.95,13.1,4.8,260,12,21,10.0,29.731298,,,TRUE,TRUE,,,,,,,CLR,,,,,,,,VFR,,,,,,,,,,,,SPECI,2.0
LSMM 052120Z AUTO 09002KT 4700NDV -SHRA BR SCT013 OVC017 M01/M01 Q1032 RMK,LSMM,2019-01-05T21:20:00Z,46.75,8.12,-1.0,-1.0,90,2,,,30.47244,,,TRUE,,,,,,,-SHRA BR,SCT,1300,OVC,1700,,,,,,,,,,,,,,,,,METAR,577.0
LSME 052120Z AUTO 23002KT 2300NDV DZ BR FEW033 01/01 Q1032 RMK,LSME,2019-01-05T21:20:00Z,47.1,8.3,1.0,1.0,230,2,,,30.47244,,,TRUE,,,,,,,DZ BR,FEW,3300,,,,,,,,,,,,,,,,,,,METAR,427.0
LSMD 052120Z AUTO 00000KT 7000NDV FEW013 BKN017 01/01 Q1032 RMK,LSMD,2019-01-05T21:20:00Z,47.4,8.65,1.0,1.0,0,0,,,30.47244,,,TRUE,,,,,,,,FEW,1300,BKN,1700,,,,,,,,,,,,,,,,,METAR,448.0
LSMA 052120Z AUTO 15001KT 4500NDV -DZ BR FEW009 SCT016 OVC026 00/M00 Q1032 RMK,LSMA,2019-01-05T21:20:00Z,46.95,8.28,0.0,0.0,150,1,,,30.47244,,,TRUE,,,,,,,-DZ BR,FEW,900,SCT,1600,OVC,2600,,,,,,,,,,,,,,,METAR,444.0
LTAZ 052120Z 12004KT 9999 BKN035 BKN090 01/01 Q1009 RMK RWY29 12003KT 080V160,LTAZ,2019-01-05T21:20:00Z,38.77,34.55,1.0,1.0,120,4,,6.21,29.793306,,,,,,,,,,,BKN,3500,BKN,9000,,,,,VFR,,,,,,,,,,,,SPECI,945.0
LTAJ 052120Z 11009KT 6000 SCT016 BKN070 07/06 Q1010 NOSIG RMK RWY10 11005KT 060V180,LTAJ,2019-01-05T21:20:00Z,36.95,37.48,7.0,6.0,110,9,,3.73,29.822834,,,,,,TRUE,,,,,SCT,1600,BKN,7000,,,,,MVFR,,-0.5,,,,,,,,,,SPECI,855.0
LTAI 052120Z 33005KT 9999 SCT030 BKN100 09/01 Q1007 NOSIG RMK RWY18C 30004KT 270V340 RWY36R 29004KT 250V340 RWY18L VRB02KT,LTAI,2019-01-05T21:20:00Z,36.9,30.8,9.0,1.0,330,5,,6.21,29.734253,,,,,,TRUE,,,,,SCT,3000,BKN,10000,,,,,VFR,,,,,,,,,,,,METAR,54.0
LTAF 052120Z 04010KT 9999 BKN030 BKN090 10/09 Q1009 NOSIG RMK RWY23 06010KT,LTAF,2019-01-05T21:20:00Z,36.97,35.28,10.0,9.0,40,10,,6.21,29.793306,,,,,,TRUE,,,,,BKN,3000,BKN,9000,,,,,MVFR,,,,,,,,,,,,METAR,20.0
LTAC 052120Z 25003KT 200V300 0400 R03R/0400N R21L/0250U R03L/0375U R21R/0275U FZFG BKN001 M04/M04 Q1008 R03L/2///94 NOSIG,LTAC,2019-01-05T21:20:00Z,40.12,32.97,-4.0,-4.0,250,3,,0.25,29.763779,,,,,,TRUE,,,,FZFG,BKN,100,,,,,,,LIFR,,,,,,,,,,,,SPECI,949.0
LTCJ 052120Z 02007KT 9999 FEW040 BKN100 03/03 Q1014 RMK RWY20 02006KT,LTCJ,2019-01-05T21:20:00Z,37.93,41.12,3.0,3.0,20,7,,6.21,29.940945,,,,,,,,,,,FEW,4000,BKN,10000,,,,,VFR,,,,,,,,,,,,SPECI,540.0
LTCE 052120Z 21009KT 9999 SCT035 BKN080 00/M06 Q1012 NOSIG RMK RWY08R 19009KT RWY26R 21014KT RWY08L 20012KT,LTCE,2019-01-05T21:20:00Z,39.95,41.17,0.0,-6.0,210,9,,6.21,29.88189,,,,,,TRUE,,,,,SCT,3500,BKN,8000,,,,,VFR,,,-1.4,,,,,,,,,SPECI,1758.0
LTCC 052120Z VRB01KT 9999 FEW040 BKN100 05/03 Q1014 NOSIG RMK RWY16 25004KT,LTCC,2019-01-05T21:20:00Z,37.87,40.2,5.0,3.0,0,1,,6.21,29.940945,,,,,,TRUE,,,,,FEW,4000,BKN,10000,,,,,VFR,,,,,,,,,,,,SPECI,677.0
LTBU 052120Z 35016KT 9999 BKN008 BKN035 M01/M02 Q1011 RMK RWY22 01013KT,LTBU,2019-01-05T21:20:00Z,41.12,27.92,-1.0,-2.0,350,16,,6.21,29.852362,,,,,,,,,,,BKN,800,BKN,3500,,,,,IFR,,,,,,,,,,,,SPECI,173.0
LTAU 052120Z 00000KT 2000 SN SCT004 BKN030 00/M01 Q1010 NOSIG RMK RWY07 /////KT,LTAU,2019-01-05T21:20:00Z,38.77,35.47,0.0,-1.0,0,0,,1.24,29.822834,,,,,,TRUE,,,,SN,SCT,400,BKN,3000,,,,,IFR,,,,,,,,,,,,SPECI,1054.0
LTAT 052120Z 11007KT 9999 BKN035 BKN090 07/01 Q1011 NOSIG RMK RWY03 13006KT,LTAT,2019-01-05T21:20:00Z,38.42,38.07,7.0,1.0,110,7,,6.21,29.852362,,,,,,TRUE,,,,,BKN,3500,BKN,9000,,,,,VFR,,,,,,,,,,,,SPECI,849.0
LTAP 052120Z 32005KT 7000 FEW011 BKN036 BKN100 01/00 Q1007 NOSIG RMK RWY23 31005KT,LTAP,2019-01-05T21:20:00Z,40.83,35.52,1.0,0.0,320,5,,4.35,29.734253,,,,,,TRUE,,,,,FEW,1100,BKN,3600,BKN,10000,,,MVFR,,,,,,,,,,,,SPECI,535.0
LTAG 052120Z 02012KT 9999 BKN030 BKN090 10/08 Q1009 NOSIG,LTAG,2019-01-05T21:20:00Z,37.0,35.42,10.0,8.0,20,12,,6.21,29.793306,,,,,,TRUE,,,,,BKN,3000,BKN,9000,,,,,MVFR,,,,,,,,,,,,METAR,66.0
LCEN 052120Z 30005KT 9999 FEW025 BKN080 10/08 Q1009 NOSIG RMK RWY11 00000KT,LCEN,2019-01-05T21:20:00Z,35.13,33.5,10.0,8.0,300,5,,6.21,29.793306,,,,,,TRUE,,,,,FEW,2500,BKN,8000,,,,,VFR,,,,,,,,,,,,SPECI,91.0
LTBR 052120Z VRB01KT 6000 2000SE BR FEW013 BKN025 BKN080 01/01 Q1010 NOSIG,LTBR,2019-01-05T21:20:00Z,40.25,29.57,1.0,1.0,0,1,,3.73,29.822834,,,,,,TRUE,,,,BR,FEW,1300,BKN,2500,BKN,8000,,,MVFR,,,,,,,,,,,,SPECI,232.0
LTBJ 052120Z VRB02KT 9999 SCT030 BKN090 04/03 Q1008 RERA NOSIG RMK RWY16 VRB02KT,LTBJ,2019-01-05T21:20:00Z,38.28,27.15,4.0,3.0,0,2,,6.21,29.763779,,,,,,TRUE,,,,,SCT,3000,BKN,9000,,,,,VFR,,,,,,,,,,,,METAR,120.0
LTBA 052120Z 02011KT 350V050 9999 SCT010 BKN025 03/01 Q1012 NOSIG RMK RWY17L 02010KT RWY05 01011KT RWY23 02011KT,LTBA,2019-01-05T21:20:00Z,40.97,28.82,3.0,1.0,20,11,,6.21,29.88189,,,,,,TRUE,,,,,SCT,1000,BKN,2500,,,,,MVFR,,,,,,,,,,,,METAR,37.0
LTCG 052120Z VRB02KT 9999 SCT035 BKN100 07/05 Q1006 NOSIG RMK RWY29 VRB01KT,LTCG,2019-01-05T21:20:00Z,41.0,39.8,7.0,5.0,0,2,,6.21,29.704725,,,,,,TRUE,,,,,SCT,3500,BKN,10000,,,,,VFR,,,,,,,,,,,,SPECI,30.0
LTBS 052120Z 03006KT 9999 SCT018 BKN080 07/06 Q1008 RESHRA NOSIG RMK RWY19 36005KT,LTBS,2019-01-05T21:20:00Z,36.7,28.77,7.0,6.0,30,6,,6.21,29.763779,,,,,,TRUE,,,,,SCT,1800,BKN,8000,,,,,VFR,,,,,,,,,,,,METAR,2.0
LTFM 052120Z 01013KT 9999 -RA SCT009 BKN022 02/00 Q1012 RMK RWY17L 01013KT RWY34L 36013KT RWY16R 36013KT,LTFM,2019-01-05T21:20:00Z,41.27,28.75,2.0,0.0,10,13,,6.21,29.88189,,,,,,,,,,-RA,SCT,900,BKN,2200,,,,,MVFR,,,,,,,,,,,,METAR,99.0
LTFJ 052120Z 03010KT 9999 SCT006 BKN025 03/02 Q1011 TEMPO FM2300 -RASN,LTFJ,2019-01-05T21:20:00Z,40.9,29.3,3.0,2.0,30,10,,6.21,29.852362,,,,,,,,,,,SCT,600,BKN,2500,,,,,MVFR,,,,,,,,,,,,SPECI,98.0
LGEL 052120Z 32012KT 9999 FEW025 02/M04 Q1013,LGEL,2019-01-05T21:20:00Z,38.07,23.55,2.0,-4.0,320,12,,6.21,29.911417,,,,,,,,,,,FEW,2500,,,,,,,VFR,,,,,,,,,,,,METAR,31.0
EGPI 052120Z AUTO VRB02KT 9999 OVC018/// 08/06 Q1034,EGPI,2019-01-05T21:20:00Z,55.68,-6.25,8.0,6.0,0,2,,6.21,30.531496,,,TRUE,,,,,,,,OVC,1800,,,,,,,MVFR,,,,,,,,,,,,METAR,18.0
EGPU 052120Z AUTO 22014KT 190V250 3000 BR OVC003/// 09/09 Q1032 RERA,EGPU,2019-01-05T21:20:00Z,56.5,-6.87,9.0,9.0,220,14,,1.86,30.47244,,,TRUE,,,,,,,BR,OVC,300,,,,,,,LIFR,,,,,,,,,,,,METAR,12.0
EDDS 052120Z 27011KT 9999 -DZ FEW005 BKN010 04/02 Q1028,EDDS,2019-01-05T21:20:00Z,48.67,9.22,4.0,2.0,270,11,,6.21,30.35433,,,,,,,,,,-DZ,FEW,500,BKN,1000,,,,,MVFR,,,,,,,,,,,,METAR,419.0
EDDN 052120Z 28010KT 6000 -DZRA BKN004 OVC006 05/04 Q1024 R28/29//95,EDDN,2019-01-05T21:20:00Z,49.5,11.08,5.0,4.0,280,10,,3.73,30.236221,,,,,,,,,,-DZ -RA,BKN,400,OVC,600,,,,,LIFR,,,,,,,,,,,,METAR,312.0
EDDM 052120Z 26016KT 3000 -SN OVC006 01/00 Q1024 R88/290095 NOSIG,EDDM,2019-01-05T21:20:00Z,48.35,11.82,1.0,0.0,260,16,,1.86,30.236221,,,,,,TRUE,,,,-SN,OVC,600,,,,,,,IFR,,,,,,,,,,,,METAR,447.0
EDDL 052120Z 30011KT 4000 -DZ SCT004 BKN006 06/05 Q1031 NOSIG,EDDL,2019-01-05T21:20:00Z,51.3,6.77,6.0,5.0,300,11,,2.49,30.442913,,,,,,TRUE,,,,-DZ,SCT,400,BKN,600,,,,,IFR,,,,,,,,,,,,METAR,44.0
EDDK 052120Z 30016KT 6000 -DZ OVC006 06/05 Q1031 NOSIG,EDDK,2019-01-05T21:20:00Z,50.87,7.15,6.0,5.0,300,16,,3.73,30.442913,,,,,,TRUE,,,,-DZ,OVC,600,,,,,,,IFR,,,,,,,,,,,,METAR,99.0
EDDH 052120Z 33004KT 4000 BR FEW001 BKN002 06/06 Q1025 BECMG 2500,EDDH,2019-01-05T21:20:00Z,53.63,10.0,6.0,6.0,330,4,,2.49,30.265747,,,,,,,,,,BR,FEW,100,BKN,200,,,,,LIFR,,,,,,,,,,,,METAR,16.0
EDDF 052120Z 30011KT 260V340 9999 FEW016 BKN020 07/03 Q1028 NOSIG,EDDF,2019-01-05T21:20:00Z,50.05,8.6,7.0,3.0,300,11,,6.21,30.35433,,,,,,TRUE,,,,,FEW,1600,BKN,2000,,,,,MVFR,,,,,,,,,,,,METAR,113.0
ESTL 052120Z AUTO 00000KT 0600 R29L/P2000N BR BKN052/// M03/M03 Q1025,ESTL,2019-01-05T21:20:00Z,56.07,13.2,-3.0,-3.0,0,0,,0.37,30.265747,,,TRUE,,,,,,,BR,BKN,5200,,,,,,,LIFR,,,,,,,,,,,,METAR,43.0
ESTA 052120Z AUTO 13003KT 9999 NCD M01/M03 Q1024,ESTA,2019-01-05T21:20:00Z,56.28,12.83,-1.0,-3.0,130,3,,6.21,30.236221,,,TRUE,,,,,,,,CLR,,,,,,,,VFR,,,,,,,,,,,,METAR,47.0
ESMX 052120Z AUTO VRB03KT 9999 NCD M05/M05 Q1024,ESMX,2019-01-05T21:20:00Z,56.92,14.72,-5.0,-5.0,0,3,,6.21,30.236221,,,TRUE,,,,,,,,CLR,,,,,,,,VFR,,,,,,,,,,,,METAR,186.0
ESMT 052120Z AUTO 10003KT 9999 NCD 00/M01 Q1025,ESMT,2019-01-05T21:20:00Z,56.67,12.82,0.0,-1.0,100,3,,6.21,30.265747,,,TRUE,,,,,,,,CLR,,,,,,,,VFR,,,,,,,,,,,,METAR,30.0
ESMS 052120Z 36006KT CAVOK M00/M04 Q1024 R17/19//95,ESMS,2019-01-05T21:20:00Z,55.53,13.37,0.0,-4.0,360,6,,6.21,30.236221,,,,,,,,,,,CAVOK,,,,,,,,VFR,,,,,,,,,,,,SPECI,106.0
ESMQ 052120Z AUTO 34007KT 9999 OVC037/// 00/M02 Q1023,ESMQ,2019-01-05T21:20:00Z,56.68,16.3,0.0,-2.0,340,7,,6.21,30.206694,,,TRUE,,,,,,,,OVC,3700,,,,,,,VFR,,,,,,,,,,,,METAR,16.0
ESMK 052120Z AUTO 35005KT 9999 SCT040/// M01/// Q1025,ESMK,2019-01-05T21:20:00Z,55.92,14.07,,,350,5,,6.21,30.265747,,,TRUE,,,,,,,,SCT,4000,,,,,,,VFR,,,,,,,,,,,,SPECI,23.0
ESGT 052120Z AUTO 32003KT 7000 FG BKN028/// 00/M00 Q1025,ESGT,2019-01-05T21:20:00Z,58.32,12.33,0.0,0.0,320,3,,4.35,30.265747,,,TRUE,,,,,,,FG,BKN,2800,,,,,,,MVFR,,,,,,,,,,,,METAR,41.0
ESGJ 052120Z AUTO 26001KT 9999 SCT011/// OVC015/// M02/M02 Q1024,ESGJ,2019-01-05T21:20:00Z,57.77,14.07,-2.0,-2.0,260,1,,6.21,30.236221,,,TRUE,,,,,,,,SCT,1100,OVC,1500,,,,,MVFR,,,,,,,,,,,,METAR,232.0
ESGG 052120Z VRB02KT 9999 BKN014 02/00 Q1024 R03/19//95,ESGG,2019-01-05T21:20:00Z,57.67,12.3,2.0,0.0,0,2,,6.21,30.236221,,,,,,,,,,,BKN,1400,,,,,,,MVFR,,,,,,,,,,,,SPECI,169.0
LSMS 052120Z AUTO VRB02KT 9999 BKN023 01/M03 Q1031,LSMS,2019-01-05T21:20:00Z,46.22,7.32,1.0,-3.0,0,2,,6.21,30.442913,,,TRUE,,,,,,,,BKN,2300,,,,,,,MVFR,,,,,,,,,,,,METAR,481.0
LSMP 052120Z AUTO VRB01KT 6000NDV SCT042 BKN049 01/M01 Q1032 RMK,LSMP,2019-01-05T21:20:00Z,46.82,6.92,1.0,-1.0,0,1,,,30.47244,,,TRUE,,,,,,,,SCT,4200,BKN,4900,,,,,,,,,,,,,,,,,METAR,491.0
EKBI 052120Z 23001KT 3000 R09/0700N R27/0900D BCFG BKN064 01/00 Q1026,EKBI,2019-01-05T21:20:00Z,55.72,9.15,1.0,0.0,230,1,,1.86,30.295275,,,,,,,,,,BCFG,BKN,6400,,,,,,,IFR,,,,,,,,,,,,SPECI,66.0
EKAH 052120Z AUTO 28002KT 0350NDV R10R/0500N R28L/0800U FZFG VV001 M02/M02 Q1026,EKAH,2019-01-05T21:20:00Z,56.28,10.62,-2.0,-2.0,280,2,,0.31,30.295275,,,TRUE,,,,,,,FZFG,OVX,0,,,,,,,LIFR,,,,,,,,,,,100,SPECI,25.0
EKRK 052120Z AUTO 32002KT 0350NDV R11/0650N R29/1200U FZFG NCD M01/M01 Q1025 R99/390192,EKRK,2019-01-05T21:20:00Z,55.57,12.12,-1.0,-1.0,320,2,,0.4,30.265747,,,TRUE,,,,,,,FZFG,CLR,,,,,,,,LIFR,,,,,,,,,,,,SPECI,44.0
EKEB 052120Z AUTO 33001KT 0300 R08/1000D R26/0900N FG OVC002/// 06/06 Q1026,EKEB,2019-01-05T21:20:00Z,55.52,8.55,6.0,6.0,330,1,,0.19,30.295275,,,TRUE,,,,,,,FG,OVC,200,,,,,,,LIFR,,,,,,,,,,,,SPECI,29.0
EKCH 052120Z 05005KT CAVOK 01/M01 Q1025 NOSIG,EKCH,2019-01-05T21:20:00Z,55.62,12.67,1.0,-1.0,50,5,,6.21,30.265747,,,,,,TRUE,,,,,CAVOK,,,,,,,,VFR,,,,,,,,,,,,METAR,5.0
EKRN 052120Z AUTO 36005KT 330V030 9999NDV OVC028/// 02/M03 Q1024,EKRN,2019-01-05T21:20:00Z,55.07,14.75,2.0,-3.0,360,5,,,30.236221,,,TRUE,,,,,,,,OVC,2800,,,,,,,,,,,,,,,,,,,SPECI,16.0
EKSB 052120Z AUTO 23002KT 9999NDV NCD 02/02 Q1026,EKSB,2019-01-05T21:20:00Z,54.97,9.8,2.0,2.0,230,2,,,30.295275,,,TRUE,,,,,,,,CLR,,,,,,,,,,,,,,,,,,,,SPECI,23.0
EKVD 052120Z AUTO 11001KT //// ///////// 01/01 Q1026,EKVD,2019-01-05T21:20:00Z,55.42,9.32,1.0,1.0,110,1,,,30.295275,,,TRUE,,,,,,,,,,,,,,,,,,,,,,,,,,,,SPECI,45.0
EVLA 052120Z AUTO 05011KT 9999 FEW025/// OVC029/// M02/M05 Q1020,EVLA,2019-01-05T21:20:00Z,56.52,21.1,-2.0,-5.0,50,11,,6.21,30.11811,,,TRUE,,,,,,,,FEW,2500,OVC,2900,,,,,MVFR,,,,,,,,,,,,METAR,4.0
EVVA 052120Z AUTO 06004KT 9999 OVC031 M02/M05 Q1021,EVVA,2019-01-05T21:20:00Z,57.35,21.55,-2.0,-5.0,60,4,,6.21,30.147638,,,TRUE,,,,,,,,OVC,3100,,,,,,,VFR,,,,,,,,,,,,METAR,6.0
PATO 052120Z AUTO 00000KT 3/4SM BR VV002 M16/M17 RMK AO2 T11561172 TSNO $,PATO,2019-01-05T21:20:00Z,60.78,-148.85,-15.6,-17.2,0,0,,0.75,,,,TRUE,TRUE,TRUE,,TRUE,,,BR,OVX,0,,,,,,,LIFR,,,,,,,,,,,200,METAR,31.0
LSZA 052120Z AUTO VRB02KT CAVOK 04/M02 Q1019,LSZA,2019-01-05T21:20:00Z,46.0,8.92,4.0,-2.0,0,2,,6.21,30.088583,,,TRUE,,,,,,,,CAVOK,,,,,,,,VFR,,,,,,,,,,,,METAR,276.0
LSZB 052120Z AUTO 15003KT 3700 BR BKN023 BKN033 BKN038 00/M00 Q1032,LSZB,2019-01-05T21:20:00Z,46.92,7.5,0.0,0.0,150,3,,2.3,30.47244,,,TRUE,,,,,,,BR,BKN,2300,BKN,3300,BKN,3800,,,IFR,,,,,,,,,,,,METAR,505.0
LSGG 052120Z 28002KT 9999 BKN040 M00/M02 Q1032 NOSIG,LSGG,2019-01-05T21:20:00Z,46.25,6.12,0.0,-2.0,280,2,,6.21,30.47244,,,,,,TRUE,,,,,BKN,4000,,,,,,,VFR,,,,,,,,,,,,METAR,416.0
LSZH 052120Z 25004KT 9999 FEW012 BKN014 BKN018 02/M00 Q1031 R88/29//// TEMPO BKN015,LSZH,2019-01-05T21:20:00Z,47.48,8.53,2.0,0.0,250,4,,6.21,30.442913,,,,,,,,,,,FEW,1200,BKN,1400,BKN,1800,,,MVFR,,,,,,,,,,,,SPECI,432.0
LSZC 052120Z AUTO 00000KT 1300 -DZ BKN009 01/01 Q1032,LSZC,2019-01-05T21:20:00Z,46.97,8.38,1.0,1.0,0,0,,0.81,30.47244,,,TRUE,,,,,,,-DZ,BKN,900,,,,,,,LIFR,,,,,,,,,,,,METAR,450.0
LSZS 052120Z AUTO 02003KT 330V070 2400 -SN BR BKN/// M04/M05 Q1023,LSZS,2019-01-05T21:20:00Z,46.53,9.88,-4.0,-5.0,20,3,,1.49,30.206694,,,TRUE,,,,,,,-SN BR,,,,,,,,,,,,,,,,,,,,,SPECI,1706.0
LSZR 052120Z AUTO 10007KT 5000 -SN BKN/// 01/01 Q1030,LSZR,2019-01-05T21:20:00Z,47.48,9.57,1.0,1.0,100,7,,3.11,30.413385,,,TRUE,,,,,,,-SN,,,,,,,,,,,,,,,,,,,,,SPECI,398.0
LSZG 052120Z AUTO 08002KT 4900 BR FEW026 OVC043 00/00 Q1032,LSZG,2019-01-05T21:20:00Z,47.17,7.42,0.0,0.0,80,2,,3.04,30.47244,,,TRUE,,,,,,,BR,FEW,2600,OVC,4300,,,,,MVFR,,,,,,,,,,,,METAR,430.0
LSGS 052120Z AUTO VRB02KT 9999 BKN023 01/M03 Q1031,LSGS,2019-01-05T21:20:00Z,46.22,7.32,1.0,-3.0,0,2,,6.21,30.442913,,,TRUE,,,,,,,,BKN,2300,,,,,,,MVFR,,,,,,,,,,,,METAR,481.0
LSGC 052120Z AUTO VRB02KT 3800 BR FEW002 M02/M02 Q1030 REFZDZ,LSGC,2019-01-05T21:20:00Z,47.08,6.8,-2.0,-2.0,0,2,,2.36,30.413385,,,TRUE,,,,,,,BR,FEW,200,,,,,,,IFR,,,,,,,,,,,,METAR,1027.0
EKSP 052120Z 27002KT 0200 R10/M0300N R28/M0300N FG NSC 02/02 Q1026 RMK FEW065,EKSP,2019-01-05T21:20:00Z,55.22,9.27,2.0,2.0,270,2,,0.12,30.295275,,,,,,,,,,FG,CLR,,,,,,,,LIFR,,,,,,,,,,,,METAR,40.0
ESNX 052120Z AUTO 00000KT 9999 OVC110/// M16/M18 Q1016,ESNX,2019-01-05T21:20:00Z,65.58,19.28,-16.0,-18.0,0,0,,6.21,30.0,,,TRUE,,,,,,,,OVC,11000,,,,,,,VFR,,,,,,,,,,,,METAR,379.0
ESNL 052120Z AUTO 00000KT 9999 BKN029/// M16/M18 Q1019,ESNL,2019-01-05T21:20:00Z,64.55,18.72,-16.0,-18.0,0,0,,6.21,30.088583,,,TRUE,,,,,,,,BKN,2900,,,,,,,MVFR,,,,,,,,,,,,METAR,214.0
ESUT 052120Z AUTO 34004KT 9999 BKN016/// OVC022/// 00/M01 Q1017,ESUT,2019-01-05T21:20:00Z,65.8,15.08,0.0,-1.0,340,4,,6.21,30.029528,,,TRUE,,,,,,,,BKN,1600,OVC,2200,,,,,MVFR,,,,,,,,,,,,METAR,463.0
LLBG 052120Z 18011KT 9999 SCT050 11/05 Q1015 NOSIG,LLBG,2019-01-05T21:20:00Z,32.0,34.88,11.0,5.0,180,11,,6.21,29.970472,,,,,,TRUE,,,,,SCT,5000,,,,,,,VFR,,,,,,,,,,,,METAR,49.0
VNKT 052120Z 00000KT 4000 BR FEW015 04/03 Q1022 NOSIG,VNKT,2019-01-05T21:20:00Z,27.68,85.37,4.0,3.0,0,0,,2.49,30.177166,,,,,,TRUE,,,,BR,FEW,1500,,,,,,,IFR,,,,,,,,,,,,METAR,1337.0
EYVI 052120Z 01013KT 9999 -SN OVC013 M06/M08 Q1013 R01/4/0294 NOSIG,EYVI,2019-01-05T21:20:00Z,54.63,25.28,-6.0,-8.0,10,13,,6.21,29.911417,,,,,,TRUE,,,,-SN,OVC,1300,,,,,,,MVFR,,,,,,,,,,,,SPECI,197.0
EYSA 052120Z 01009KT 9999 -SN SCT016 OVC028 M06/M08 Q1017 R32R/29//95 WHT BECMG OVC025 BLU,EYSA,2019-01-05T21:20:00Z,55.9,23.4,-6.0,-8.0,10,9,,6.21,30.029528,,,,,,,,,,-SN,SCT,1600,OVC,2800,,,,,MVFR,,,,,,,,,,,,METAR,135.0
KMHV 052120Z AUTO 19003KT 10SM BKN100 09/M11 A2993 RMK A01,KMHV,2019-01-05T21:20:00Z,35.07,-118.15,9.0,-11.0,190,3,,10.0,29.929134,,,TRUE,TRUE,,,,,,,BKN,10000,,,,,,,VFR,,,,,,,,,,,,SPECI,849.0
KJSL 052120Z AUTO 00000KT 10SM FEW023 21/14 A3016 RMK A01,KJSL,2019-01-05T21:20:00Z,26.23,-95.25,21.0,14.0,0,0,,10.0,30.159449,,,TRUE,TRUE,,,,,,,FEW,2300,,,,,,,VFR,,,,,,,,,,,,METAR,10.0
KGZN 052120Z AUTO 23010KT 10SM CLR 22/M02 A3005 RMK AO2,KGZN,2019-01-05T21:20:00Z,32.37,-99.02,22.0,-2.0,230,10,,10.0,30.050198,,,TRUE,TRUE,,,,,,,CLR,,,,,,,,VFR,,,,,,,,,,,,METAR,522.0
ESNZ 052120Z AUTO 29007KT 9999 NCD 01/00 Q1020,ESNZ,2019-01-05T21:20:00Z,63.17,14.5,1.0,0.0,290,7,,6.21,30.11811,,,TRUE,,,,,,,,CLR,,,,,,,,VFR,,,,,,,,,,,,METAR,370.0
ESNU 052120Z 00000KT CAVOK M13/M15 Q1020 R14/72//34,ESNU,2019-01-05T21:20:00Z,63.78,20.27,-13.0,-15.0,0,0,,6.21,30.11811,,,,,,,,,,,CAVOK,,,,,,,,VFR,,,,,,,,,,,,SPECI,14.0
ESNS 052120Z AUTO 25003KT 9999 SCT190/// M12/M13 Q1019,ESNS,2019-01-05T21:20:00Z,64.62,21.07,-12.0,-13.0,250,3,,6.21,30.088583,,,TRUE,,,,,,,,SCT,19000,,,,,,,VFR,,,,,,,,,,,,METAR,49.0
ESNQ 052120Z AUTO 22007KT 9999 OVC082/// M06/M07 Q1012,ESNQ,2019-01-05T21:20:00Z,67.82,20.32,-6.0,-7.0,220,7,,6.21,29.88189,,,TRUE,,,,,,,,OVC,8200,,,,,,,VFR,,,,,,,,,,,,METAR,452.0
ESNO 052120Z AUTO 07004KT 030V100 9999 NCD M06/M06 Q1019,ESNO,2019-01-05T21:20:00Z,63.38,18.97,-6.0,-6.0,70,4,,6.21,30.088583,,,TRUE,,,,,,,,CLR,,,,,,,,VFR,,,,,,,,,,,,METAR,103.0
ESNN 052120Z AUTO 36002KT 1300 R16/P2000N R34/P2000N BCFG BKN001/// M03/M03 Q1021,ESNN,2019-01-05T21:20:00Z,62.52,17.43,-3.0,-3.0,360,2,,0.81,30.147638,,,TRUE,,,,,,,BCFG,BKN,100,,,,,,,LIFR,,,,,,,,,,,,SPECI,10.0
ESNK 052120Z AUTO 01003KT 4100 BR BKN003/// OVC005/// M01/M01 Q1021,ESNK,2019-01-05T21:20:00Z,63.03,17.77,-1.0,-1.0,10,3,,2.55,30.147638,,,TRUE,,,,,,,BR,BKN,300,OVC,500,,,,,LIFR,,,,,,,,,,,,METAR,19.0
ESNG 052120Z AUTO 29007KT 9999 FEW210/// M14/M15 Q1014,ESNG,2019-01-05T21:20:00Z,67.13,20.82,-14.0,-15.0,290,7,,6.21,29.940945,,,TRUE,,,,,,,,FEW,21000,,,,,,,VFR,,,,,,,,,,,,METAR,310.0
ESCM 052120Z AUTO 24005KT 9999 OVC035/// M01/M01 Q1023,ESCM,2019-01-05T21:20:00Z,59.87,17.6,-1.0,-1.0,240,5,,6.21,30.206694,,,TRUE,,,,,,,,OVC,3500,,,,,,,VFR,,,,,,,,,,,,METAR,41.0
ESIA 052120Z AUTO 26002KT 2600 BR OVC006/// M00/M01 Q1024,ESIA,2019-01-05T21:20:00Z,58.52,14.5,0.0,-1.0,260,2,,1.62,30.236221,,,TRUE,,,,,,,BR,OVC,600,,,,,,,IFR,,,,,,,,,,,,METAR,94.0
ESSL 052120Z AUTO 00000KT 9999 OVC035/// M01/M01 Q1024,ESSL,2019-01-05T21:20:00Z,58.38,15.67,-1.0,-1.0,0,0,,6.21,30.236221,,,TRUE,,,,,,,,OVC,3500,,,,,,,VFR,,,,,,,,,,,,METAR,52.0
ESPE 052120Z AUTO 00000KT 9999 NCD M18/M20 Q1017,ESPE,2019-01-05T21:20:00Z,65.88,20.15,-18.0,-20.0,0,0,,6.21,30.029528,,,TRUE,,,,,,,,CLR,,,,,,,,VFR,,,,,,,,,,,,METAR,182.0
ESPA 052120Z AUTO 00000KT 9999 NCD M13/M15 Q1018,ESPA,2019-01-05T21:20:00Z,65.53,22.12,-13.0,-15.0,0,0,,6.21,30.059055,,,TRUE,,,,,,,,CLR,,,,,,,,VFR,,,,,,,,,,,,METAR,34.0
ESIB 052120Z AUTO 21003KT 9999 FEW030/// SCT043/// 01/01 Q1024,ESIB,2019-01-05T21:20:00Z,58.42,12.68,1.0,1.0,210,3,,6.21,30.236221,,,TRUE,,,,,,,,FEW,3000,SCT,4300,,,,,VFR,,,,,,,,,,,,METAR,74.0
ESDF 052120Z AUTO 34005KT 9999 NCD M02/M04 Q1024,ESDF,2019-01-05T21:20:00Z,56.27,15.27,-2.0,-4.0,340,5,,6.21,30.236221,,,TRUE,,,,,,,,CLR,,,,,,,,VFR,,,,,,,,,,,,METAR,74.0
ESCF 052120Z AUTO VRB02KT 9999 OVC031/// M01/M02 Q1024,ESCF,2019-01-05T21:20:00Z,58.38,15.52,-1.0,-2.0,0,2,,6.21,30.236221,,,TRUE,,,,,,,,OVC,3100,,,,,,,VFR,,,,,,,,,,,,METAR,117.0
ESSV 052120Z AUTO 04003KT 4000 -SN FEW011/// SCT017/// M02/M02 Q1022 RESN,ESSV,2019-01-05T21:20:00Z,57.67,18.35,-2.0,-2.0,40,3,,2.49,30.177166,,,TRUE,,,,,,,-SN,FEW,1100,SCT,1700,,,,,IFR,,,,,,,,,,,,METAR,47.0
ESSP 052120Z AUTO 00000KT 7000 OVC035/// M03/M03 Q1024,ESSP,2019-01-05T21:20:00Z,58.57,16.25,-3.0,-3.0,0,0,,4.35,30.236221,,,TRUE,,,,,,,,OVC,3500,,,,,,,MVFR,,,,,,,,,,,,METAR,8.0
ESSD 052120Z AUTO 30005KT 9999 OVC017/// 01/01 Q1022,ESSD,2019-01-05T21:20:00Z,60.42,15.5,1.0,1.0,300,5,,6.21,30.177166,,,TRUE,,,,,,,,OVC,1700,,,,,,,MVFR,,,,,,,,,,,,METAR,161.0
ESSB 052120Z AUTO 21003KT 9999 OVC043/// M01/M01 Q1023,ESSB,2019-01-05T21:20:00Z,59.35,17.93,-1.0,-1.0,210,3,,6.21,30.206694,,,TRUE,,,,,,,,OVC,4300,,,,,,,VFR,,,,,,,,,,,,METAR,11.0
ESSA 052120Z 18003KT 0500 R01L/P1500N R19R/0750N R01R/P1500N R19L/P1500N BCFG BKN043 M01/M01 Q1023 R01L/29//65 R08/29//74 R01R/29//72 TEMPO 5000 BKN002,ESSA,2019-01-05T21:20:00Z,59.63,17.93,-1.0,-1.0,180,3,,0.31,30.206694,,,,,,,,,,BCFG,BKN,4300,,,,,,,LIFR,,,,,,,,,,,,SPECI,61.0
ESOW 052120Z AUTO VRB03KT 9999 FEW009/// OVC025/// M01/M02 Q1024,ESOW,2019-01-05T21:20:00Z,59.57,16.62,-1.0,-2.0,0,3,,6.21,30.236221,,,TRUE,,,,,,,,FEW,900,OVC,2500,,,,,MVFR,,,,,,,,,,,,METAR,31.0
ESOK 052120Z AUTO 31003KT 8000 BR SCT034/// M01/M01 Q1024,ESOK,2019-01-05T21:20:00Z,59.45,13.33,-1.0,-1.0,310,3,,4.97,30.236221,,,TRUE,,,,,,,BR,SCT,3400,,,,,,,MVFR,,,,,,,,,,,,METAR,107.0
ESOE 052120Z AUTO 21005KT 9999 FEW006/// SCT012/// OVC019/// 01/M00 Q1023,ESOE,2019-01-05T21:20:00Z,59.22,15.05,1.0,0.0,210,5,,6.21,30.206694,,,TRUE,,,,,,,,FEW,600,SCT,1200,OVC,1900,,,MVFR,,,,,,,,,,,,METAR,57.0
ESKN 052120Z 28003KT 9999 MIFG BKN042 M03/M03 Q1024 R26/710147,ESKN,2019-01-05T21:20:00Z,58.78,16.9,-3.0,-3.0,280,3,,6.21,30.236221,,,,,,,,,,MIFG,BKN,4200,,,,,,,VFR,,,,,,,,,,,,SPECI,43.0
ESND 052120Z AUTO 00000KT 0800 R09/P2000N BR NCD M06/M07 Q1021,ESND,2019-01-05T21:20:00Z,62.05,14.42,-6.0,-7.0,0,0,,0.5,30.147638,,,TRUE,,,,,,,BR,CLR,,,,,,,,LIFR,,,,,,,,,,,,METAR,359.0
ESUP 052120Z AUTO 21001KT 9999 OVC036/// ///// Q1014,ESUP,2019-01-05T21:20:00Z,67.25,23.07,,,210,1,,6.21,29.940945,,,TRUE,,,,,,,,OVC,3600,,,,,,,VFR,,,,,,,,,,,,METAR,165.0
ESST 052120Z AUTO VRB01KT 9999 FEW037/// M04/M04 Q1024,ESST,2019-01-05T21:20:00Z,60.15,12.98,-4.0,-4.0,0,1,,6.21,30.236221,,,TRUE,,,,,,,,FEW,3700,,,,,,,VFR,,,,,,,,,,,,METAR,120.0
EBAW 052120Z 30009KT 6000 -DZRA BKN006 05/05 Q1034 NOSIG,EBAW,2019-01-05T21:20:00Z,51.2,4.47,5.0,5.0,300,9,,3.73,30.531496,,,,,,TRUE,,,,-DZ -RA,BKN,600,,,,,,,IFR,,,,,,,,,,,,METAR,14.0
EBBR 052120Z 29010KT 6000 -DZ BKN006 05/04 Q1034 NOSIG,EBBR,2019-01-05T21:20:00Z,50.9,4.5,5.0,4.0,290,10,,3.73,30.531496,,,,,,TRUE,,,,-DZ,BKN,600,,,,,,,IFR,,,,,,,,,,,,METAR,58.0
EBCI 052120Z 30007KT 260V340 3500 -DZ BR SCT003 BKN005 03/02 Q1034 TEMPO 2500 BKN004,EBCI,2019-01-05T21:20:00Z,50.47,4.45,3.0,2.0,300,7,,2.17,30.531496,,,,,,,,,,-DZ BR,SCT,300,BKN,500,,,,,IFR,,,,,,,,,,,,METAR,192.0
EBLG 052120Z 32007KT 3000 -DZ BR FEW002 BKN003 BKN004 04/04 Q1033 TEMPO 2500 DZ BKN003,EBLG,2019-01-05T21:20:00Z,50.63,5.45,4.0,4.0,320,7,,1.86,30.501968,,,,,,,,,,-DZ BR,FEW,200,BKN,300,BKN,400,,,LIFR,,,,,,,,,,,,METAR,178.0
EBOS 052120Z 32010KT 9999 BKN022 05/01 Q1036 NOSIG,EBOS,2019-01-05T21:20:00Z,51.2,2.87,5.0,1.0,320,10,,6.21,30.590551,,,,,,TRUE,,,,,BKN,2200,,,,,,,MVFR,,,,,,,,,,,,METAR,5.0
ELLX 052120Z 31008KT 9999 SCT016 03/02 Q1031 NOSIG,ELLX,2019-01-05T21:20:00Z,49.63,6.2,3.0,2.0,310,8,,6.21,30.442913,,,,,,TRUE,,,,,SCT,1600,,,,,,,VFR,,,,,,,,,,,,METAR,379.0
LOWW 052120Z 31011KT 9999 -RA FEW008 BKN032 03/01 Q1018 R88/29//95 NOSIG,LOWW,2019-01-05T21:20:00Z,48.12,16.57,3.0,1.0,310,11,,6.21,30.059055,,,,,,TRUE,,,,-RA,FEW,800,BKN,3200,,,,,VFR,,,,,,,,,,,,SPECI,190.0
LOWL 052120Z 27011KT 9999 -SHRASN FEW005 BKN010 01/00 Q1022 R08/29//95 TEMPO FEW004 BKN009,LOWL,2019-01-05T21:20:00Z,48.22,14.18,1.0,0.0,270,11,,6.21,30.177166,,,,,,,,,,-SHRA -SHSN,FEW,500,BKN,1000,,,,,MVFR,,,,,,,,,,,,SPECI,313.0
EGHI 052120Z VRB01KT 9999 OVC029 03/00 Q1039,EGHI,2019-01-05T21:20:00Z,50.95,-1.35,3.0,0.0,0,1,,6.21,30.679134,,,,,,,,,,,OVC,2900,,,,,,,MVFR,,,,,,,,,,,,METAR,14.0
EDSB 052120Z 20011KT 8000 -DZ OVC020 03/03 Q1031,EDSB,2019-01-05T21:20:00Z,48.78,8.08,3.0,3.0,200,11,,4.97,30.442913,,,,,,,,,,-DZ,OVC,2000,,,,,,,MVFR,,,,,,,,,,,,METAR,124.0
EDNY 052120Z 25008KT 4500 -RASN BR OVC006 01/00 Q1030,EDNY,2019-01-05T21:20:00Z,47.67,9.52,1.0,0.0,250,8,,2.8,30.413385,,,,,,,,,,-RA -SN BR,OVC,600,,,,,,,IFR,,,,,,,,,,,,METAR,424.0
EDMA 052120Z AUTO 25014KT 4600 // BKN006/// OVC012/// 01/00 Q1025,EDMA,2019-01-05T21:20:00Z,48.42,10.92,1.0,0.0,250,14,,2.86,30.265747,,,TRUE,,,,,,,,BKN,600,OVC,1200,,,,,IFR,,,,,,,,,,,,METAR,463.0
EDLW 052120Z AUTO 28008KT 240V330 5000 // BKN003/// 06/06 Q1029,EDLW,2019-01-05T21:20:00Z,51.52,7.62,6.0,6.0,280,8,,3.11,30.383858,,,TRUE,,,,,,,,BKN,300,,,,,,,LIFR,,,,,,,,,,,,METAR,127.0
EDLP 052120Z 28007KT 240V320 1400 R24/P2000N DZ BR OVC002 06/06 Q1027,EDLP,2019-01-05T21:20:00Z,51.62,8.62,6.0,6.0,280,7,,0.87,30.324802,,,,,,,,,,DZ BR,OVC,200,,,,,,,LIFR,,,,,,,,,,,,METAR,213.0
EDAC 052120Z AUTO 33013KT 9999 // BKN008/// OVC015/// 06/05 Q1022,EDAC,2019-01-05T21:20:00Z,50.98,12.5,6.0,5.0,330,13,,6.21,30.177166,,,TRUE,,,,,,,,BKN,800,OVC,1500,,,,,IFR,,,,,,,,,,,,METAR,195.0
EDLV 052120Z 29009KT 270V330 9000 BKN010 06/05 Q1032,EDLV,2019-01-05T21:20:00Z,51.6,6.15,6.0,5.0,290,9,,5.59,30.47244,,,,,,,,,,,BKN,1000,,,,,,,MVFR,,,,,,,,,,,,METAR,32.0
EDFH 052120Z 30011KT 9999 BKN007 03/02 Q1029,EDFH,2019-01-05T21:20:00Z,49.95,7.27,3.0,2.0,300,11,,6.21,30.383858,,,,,,,,,,,BKN,700,,,,,,,IFR,,,,,,,,,,,,METAR,498.0
EDJA 052120Z 23017KT 6000 -SN BLSN FEW004 BKN010 OVC015 00/M00 Q1027,EDJA,2019-01-05T21:20:00Z,47.98,10.23,0.0,0.0,230,17,,3.73,30.324802,,,,,,,,,,-SN BLSN,FEW,400,BKN,1000,OVC,1500,,,MVFR,,,,,,,,,,,,METAR,633.0
LGSR 052120Z AUTO 36014KT //// -RA ////// 07/02 Q1009 RE//,LGSR,2019-01-05T21:20:00Z,36.4,25.48,7.0,2.0,360,14,,,29.793306,,,TRUE,,,,,,,-RA,,,,,,,,,,,,,,,,,,,,,SPECI,40.0
ENHF 052120Z AUTO 23020KT 8000 DZ SCT002/// BKN004/// BKN008/// 04/04 Q1007 RMK WIND 1254FT 28030KT,ENHF,2019-01-05T21:20:00Z,70.67,23.67,4.0,4.0,230,20,,4.97,29.734253,,,TRUE,,,,,,,DZ,SCT,200,BKN,400,BKN,800,,,LIFR,,,,,,,,,,,,SPECI,81.0
ENBN 052120Z AUTO 20005KT //// FEW006/// BKN011/// OVC013/// 06/05 Q1020,ENBN,2019-01-05T21:20:00Z,65.47,12.22,6.0,5.0,200,5,,,30.11811,,,TRUE,,,,,,,,FEW,600,BKN,1100,OVC,1300,,,,,,,,,,,,,,,SPECI,9.0
ENUN 052120Z AUTO 23022KT 130V240 0450NDV -DZ FG VV004 06/06 Q1016 W07/S/,ENUN,2019-01-05T21:20:00Z,,,6.0,6.0,230,22,,,30.0,,,TRUE,,,,,,,-DZ FG,OVX,0,,,,,,,LIFR,,,,,,,,,,,400,METAR,
ENSF 052120Z AUTO 25014KT //// SCT027/// BKN053/// 10/06 Q1027 W///S4,ENSF,2019-01-05T21:20:00Z,61.25,1.85,10.0,6.0,250,14,,,30.324802,,,TRUE,,,,,,,,SCT,2700,BKN,5300,,,,,,,,,,,,,,,,,METAR,10.0
ENFB 052120Z AUTO 24011KT 9999NDV BKN058/// 09/06 Q1027 W///S4,ENFB,2019-01-05T21:20:00Z,61.2,1.83,9.0,6.0,240,11,,,30.324802,,,TRUE,,,,,,,,BKN,5800,,,,,,,,,,,,,,,,,,,SPECI,10.0
ENSL 052120Z AUTO 31018KT 9999NDV BKN010/// BKN034/// 08/06 Q1030 W06/S3,ENSL,2019-01-05T21:20:00Z,58.37,1.9,8.0,6.0,310,18,,,30.413385,,,TRUE,,,,,,,,BKN,1000,BKN,3400,,,,,,,,,,,,,,,,,METAR,50.0
ENHE 052120Z 28021KT 9000 BKN005 BKN040 07/07 Q1019 W///S4,ENHE,2019-01-05T21:20:00Z,65.33,2.33,7.0,7.0,280,21,,5.59,30.088583,,,,,,,,,,,BKN,500,BKN,4000,,,,,IFR,,,,,,,,,,,,SPECI,1.0
ENLE 052120Z 30020KT 9999 FEW007 BKN040 07/05 Q1030 W08/S4,ENLE,2019-01-05T21:20:00Z,56.53,3.22,7.0,5.0,300,20,,6.21,30.413385,,,,,,,,,,,FEW,700,BKN,4000,,,,,VFR,,,,,,,,,,,,METAR,3.0
LGSO 052120Z AUTO 30014KT 290V350 //// // ////// 06/02 Q1010 RE//,LGSO,2019-01-05T21:20:00Z,37.42,24.95,6.0,2.0,300,14,,,29.822834,,,TRUE,,,,,,,,,,,,,,,,,,,,,,,,,,,,SPECI,72.0
LGPA 052120Z AUTO 36011KT //// -RA ////// 05/02 Q1010 RE//,LGPA,2019-01-05T21:20:00Z,37.0,25.13,5.0,2.0,360,11,,,29.822834,,,TRUE,,,,,,,-RA,,,,,,,,,,,,,,,,,,,,,SPECI,36.0
LGKP 052120Z AUTO 29013KT //// -RA ////// 09/06 Q1008 RE//,LGKP,2019-01-05T21:20:00Z,35.42,27.15,9.0,6.0,290,13,,,29.763779,,,TRUE,,,,,,,-RA,,,,,,,,,,,,,,,,,,,,,SPECI,20.0
LGTS 052120Z 36008KT 9999 FEW020 M01/M07 Q1015 R16/889295 NOSIG,LGTS,2019-01-05T21:20:00Z,40.52,22.97,-1.0,-7.0,360,8,,6.21,29.970472,,,,,,TRUE,,,,,FEW,2000,,,,,,,VFR,,,,,,,,,,,,SPECI,7.0
LGSA 052120Z 28006KT 9999 FEW010 FEW018TCU SCT020 03/03 Q1010,LGSA,2019-01-05T21:20:00Z,35.53,24.13,3.0,3.0,280,6,,6.21,29.822834,,,,,,,,,,,FEW,1000,FEW,1800,SCT,2000,,,VFR,,,,,,,,,,,,METAR,135.0
LGLM 052120Z AUTO 03007KT 350V050 //// // ////// 04/00 Q1012 RERASN,LGLM,2019-01-05T21:20:00Z,39.92,25.23,4.0,0.0,30,7,,,29.88189,,,TRUE,,,,,,,,,,,,,,,,,,,,,,,,,,,,SPECI,5.0
LGKL 052120Z AUTO 35006KT //// // ////// 01/M01 Q1013 RE//,LGKL,2019-01-05T21:20:00Z,37.07,22.02,1.0,-1.0,350,6,,,29.911417,,,TRUE,,,,,,,,,,,,,,,,,,,,,,,,,,,,SPECI,8.0
LGAD 052120Z AUTO VRB01KT //// // ////// 01/M02 Q1014 RE//,LGAD,2019-01-05T21:20:00Z,37.92,21.27,1.0,-2.0,0,1,,,29.940945,,,TRUE,,,,,,,,,,,,,,,,,,,,,,,,,,,,SPECI,12.0
ENWV 052120Z AUTO 31013KT 4800NDV -RA BR BKN006/// 07/06 Q1030 W///S4,ENWV,2019-01-05T21:20:00Z,,,7.0,6.0,310,13,,,30.413385,,,TRUE,,,,,,,-RA BR,BKN,600,,,,,,,,,,,,,,,,,,,METAR,
ENUG 052120Z AUTO 27030KT 8000NDV -RA BKN008/// OVC037/// 06/04 Q1005 W07/S5,ENUG,2019-01-05T21:20:00Z,,,6.0,4.0,270,30,,,29.675198,,,TRUE,,,,,,,-RA,BKN,800,OVC,3700,,,,,,,,,,,,,,,,,METAR,
ENLA 052120Z AUTO 29023KT //// BKN039/// 07/05 Q//// W///S4,ENLA,2019-01-05T21:20:00Z,57.1,2.83,7.0,5.0,290,23,,,,,,TRUE,,,,,,,,BKN,3900,,,,,,,,,,,,,,,,,,,METAR,4.0
ENHM 052120Z AUTO 26017KT 9999NDV -SHRA FEW030/// BKN036/// OVC045/// 07/06 Q1029 W08/S4,ENHM,2019-01-05T21:20:00Z,59.57,2.23,7.0,6.0,260,17,,,30.383858,,,TRUE,,,,,,,-SHRA,FEW,3000,BKN,3600,OVC,4500,,,,,,,,,,,,,,,METAR,10.0
ENQA 052120Z AUTO 31017KT 9999NDV FEW015/// OVC024/// 07/07 Q1028 W05/S3,ENQA,2019-01-05T21:20:00Z,60.65,3.72,7.0,7.0,310,17,,,30.35433,,,TRUE,,,,,,,,FEW,1500,OVC,2400,,,,,,,,,,,,,,,,,METAR,20.0
ENQC 052120Z AUTO 29013KT 9999NDV OVC006/// 07/07 Q1027 W///S3,ENQC,2019-01-05T21:20:00Z,60.88,3.62,7.0,7.0,290,13,,,30.324802,,,TRUE,,,,,,,,OVC,600,,,,,,,,,,,,,,,,,,,METAR,20.0
ENSE 052120Z AUTO 26016KT 9999NDV -SHRA FEW007/// SCT019/// BKN043/// 09/07 Q1027 W///S4,ENSE,2019-01-05T21:20:00Z,61.45,2.15,9.0,7.0,260,16,,,30.324802,,,TRUE,,,,,,,-SHRA,FEW,700,SCT,1900,BKN,4300,,,,,,,,,,,,,,,METAR,10.0
ENQR 052120Z AUTO 22012KT 200V260 8000NDV SCT010/// BKN038/// 09/07 Q1026 W///S4,ENQR,2019-01-05T21:20:00Z,61.35,2.22,9.0,7.0,220,12,,,30.295275,,,TRUE,,,,,,,,SCT,1000,BKN,3800,,,,,,,,,,,,,,,,,METAR,10.0
ENNE 052120Z AUTO 29013KT 1000NDV BR BKN004/// 06/06 Q1018 W///S4,ENNE,2019-01-05T21:20:00Z,66.03,8.08,6.0,6.0,290,13,,,30.059055,,,TRUE,,,,,,,BR,BKN,400,,,,,,,,,,,,,,,,,,,METAR,10.0
ENNA 052120Z AUTO 14009KT 9999 BKN033/// OVC053/// 03/M01 Q1009 RMK WIND 1800FT 29031KT,ENNA,2019-01-05T21:20:00Z,70.07,24.97,3.0,-1.0,140,9,,6.21,29.793306,,,TRUE,,,,,,,,BKN,3300,OVC,5300,,,,,VFR,,,,,,,,,,,,SPECI,8.0
ENML 052120Z AUTO 08004KT 060V120 2600NDV -SHRA BR BKN003/// BKN006/// OVC022/// 06/06 Q1025,ENML,2019-01-05T21:20:00Z,62.75,7.27,6.0,6.0,80,4,,,30.265747,,,TRUE,,,,,,,-SHRA BR,BKN,300,BKN,600,OVC,2200,,,,,,,,,,,,,,,SPECI,3.0
ENKR 052120Z AUTO 25006KT 200V270 9999 OVC032/// M02/M04 Q1008 RMK WIND 731FT 25022KT,ENKR,2019-01-05T21:20:00Z,69.72,29.88,-2.0,-4.0,250,6,,6.21,29.763779,,,TRUE,,,,,,,,OVC,3200,,,,,,,VFR,,,,,,,,,,,,SPECI,91.0
ENKB 052120Z AUTO 24010KT 1900 DZ VV004 07/07 Q1024 REUP RMK WIND 745FT 25019KT,ENKB,2019-01-05T21:20:00Z,63.12,7.82,7.0,7.0,240,10,,1.18,30.236221,,,TRUE,,,,,,,DZ,OVX,0,,,,,,,LIFR,,,,,,,,,,,400,SPECI,62.0
ENFL 052120Z AUTO 12003KT 090V150 0900NDV R07/P2000N -DZ FG OVC001/// 06/06 Q1027,ENFL,2019-01-05T21:20:00Z,61.57,5.02,6.0,6.0,120,3,,1.24,30.324802,,,TRUE,,,,,,,-DZ FG,OVC,100,,,,,,,LIFR,,,,,,,,,,,,SPECI,9.0
ENEV 052120Z AUTO 20009KT 3600 BR OVC005/// 04/03 Q1016 RMK WIND 1400FT 24028KT,ENEV,2019-01-05T21:20:00Z,68.52,16.67,4.0,3.0,200,9,,2.24,30.0,,,TRUE,,,,,,,BR,OVC,500,,,,,,,IFR,,,,,,,,,,,,SPECI,26.0
LIPZ 052120Z 29005KT 5000 BR NSC M01/M04 Q1020 BECMG 3000 BR,LIPZ,2019-01-05T21:20:00Z,45.5,12.35,-1.0,-4.0,290,5,,3.11,30.11811,,,,,,,,,,BR,CLR,,,,,,,,MVFR,,,,,,,,,,,,SPECI,6.0
LIPX 052120Z 31004KT CAVOK M04/M05 Q1020,LIPX,2019-01-05T21:20:00Z,45.38,10.87,-4.0,-5.0,310,4,,6.21,30.11811,,,,,,,,,,,CAVOK,,,,,,,,VFR,,,,,,,,,,,,METAR,68.0
LIPR 052120Z VRB02KT CAVOK M01/M04 Q1020,LIPR,2019-01-05T21:20:00Z,44.02,12.62,-1.0,-4.0,0,2,,6.21,30.11811,,,,,,,,,,,CAVOK,,,,,,,,VFR,,,,,,,,,,,,METAR,13.0
LIPQ 052120Z VRB02KT CAVOK M04/M05 Q1019,LIPQ,2019-01-05T21:20:00Z,45.82,13.47,-4.0,-5.0,0,2,,6.21,30.088583,,,,,,,,,,,CAVOK,,,,,,,,VFR,,,,,,,,,,,,METAR,12.0
LIPH 052120Z VRB02KT 4000 BR NSC M02/M04 Q1019,LIPH,2019-01-05T21:20:00Z,45.63,12.17,-2.0,-4.0,0,2,,2.49,30.088583,,,,,,,,,,BR,CLR,,,,,,,,IFR,,,,,,,,,,,,METAR,23.0
LIPE 052120Z 21003KT CAVOK M01/M04 Q1020,LIPE,2019-01-05T21:20:00Z,44.52,11.3,-1.0,-4.0,210,3,,6.21,30.11811,,,,,,,,,,,CAVOK,,,,,,,,VFR,,,,,,,,,,,,METAR,42.0
LICJ 052120Z 28009KT 9999 SCT050 12/05 Q1021,LICJ,2019-01-05T21:20:00Z,38.17,13.08,12.0,5.0,280,9,,6.21,30.147638,,,,,,,,,,,SCT,5000,,,,,,,VFR,,,,,,,,,,,,METAR,34.0
LICC 052120Z VRB02KT 9999 FEW020 SCT070 06/03 Q1020,LICC,2019-01-05T21:20:00Z,37.47,15.05,6.0,3.0,0,2,,6.21,30.11811,,,,,,,,,,,FEW,2000,SCT,7000,,,,,VFR,,,,,,,,,,,,METAR,17.0
LIBR 052120Z 34010KT 9999 DZ FEW020 SCT040 07/03 Q1015,LIBR,2019-01-05T21:20:00Z,40.65,17.95,7.0,3.0,340,10,,6.21,29.970472,,,,,,,,,,DZ,FEW,2000,SCT,4000,,,,,VFR,,,,,,,,,,,,METAR,10.0
LIBD 052120Z 29009KT 250V310 7000 -RA SCT025 BKN035 04/01 Q1017 R07/290195,LIBD,2019-01-05T21:20:00Z,41.12,16.77,4.0,1.0,290,9,,4.35,30.029528,,,,,,,,,,-RA,SCT,2500,BKN,3500,,,,,MVFR,,,,,,,,,,,,SPECI,44.0
LIRQ 052120Z 05003KT CAVOK M03/M04 Q1020,LIRQ,2019-01-05T21:20:00Z,43.78,11.18,-3.0,-4.0,50,3,,6.21,30.11811,,,,,,,,,,,CAVOK,,,,,,,,VFR,,,,,,,,,,,,METAR,38.0
LIRN 052120Z VRB02KT 9999 FEW030 SCT080 05/M03 Q1019 NOSIG,LIRN,2019-01-05T21:20:00Z,40.88,14.3,5.0,-3.0,0,2,,6.21,30.088583,,,,,,TRUE,,,,,FEW,3000,SCT,8000,,,,,VFR,,,,,,,,,,,,METAR,72.0
LIRF 052120Z 04003KT 9999 BKN045 06/M01 Q1020 NOSIG,LIRF,2019-01-05T21:20:00Z,41.78,12.22,6.0,-1.0,40,3,,6.21,30.11811,,,,,,TRUE,,,,,BKN,4500,,,,,,,VFR,,,,,,,,,,,,METAR,3.0
LIRA 052120Z 03005KT 9999 SCT050 06/00 Q1019,LIRA,2019-01-05T21:20:00Z,41.8,12.58,6.0,0.0,30,5,,6.21,30.088583,,,,,,,,,,,SCT,5000,,,,,,,VFR,,,,,,,,,,,,METAR,101.0
LIML 052120Z VRB01KT CAVOK M01/M03 Q1020 NOSIG,LIML,2019-01-05T21:20:00Z,45.47,9.27,-1.0,-3.0,0,1,,6.21,30.11811,,,,,,TRUE,,,,,CAVOK,,,,,,,,VFR,,,,,,,,,,,,METAR,103.0
LIMJ 052120Z 03003KT 9999 BKN026 10/06 Q1020,LIMJ,2019-01-05T21:20:00Z,44.42,8.83,10.0,6.0,30,3,,6.21,30.11811,,,,,,,,,,,BKN,2600,,,,,,,MVFR,,,,,,,,,,,,METAR,3.0
LIMF 052120Z 29005KT 260V320 CAVOK 02/M04 Q1019,LIMF,2019-01-05T21:20:00Z,45.22,7.65,2.0,-4.0,290,5,,6.21,30.088583,,,,,,,,,,,CAVOK,,,,,,,,VFR,,,,,,,,,,,,METAR,287.0
LIME 052120Z VRB02KT CAVOK M02/M05 Q1020 NOSIG,LIME,2019-01-05T21:20:00Z,45.67,9.68,-2.0,-5.0,0,2,,6.21,30.11811,,,,,,TRUE,,,,,CAVOK,,,,,,,,VFR,,,,,,,,,,,,METAR,237.0
LIMC 052120Z 01003KT 330V040 CAVOK 00/M07 Q1019 NOSIG,LIMC,2019-01-05T21:20:00Z,45.62,8.72,0.0,-7.0,10,3,,6.21,30.088583,,,,,,TRUE,,,,,CAVOK,,,,,,,,VFR,,,,,,,,,,,,METAR,211.0
LIEO 052120Z 24012KT CAVOK 09/05 Q1020,LIEO,2019-01-05T21:20:00Z,40.88,9.52,9.0,5.0,240,12,,6.21,30.11811,,,,,,,,,,,CAVOK,,,,,,,,VFR,,,,,,,,,,,,METAR,13.0
LIEE 052120Z 34006KT 9999 SCT035 07/04 Q1022,LIEE,2019-01-05T21:20:00Z,39.25,9.07,7.0,4.0,340,6,,6.21,30.177166,,,,,,,,,,,SCT,3500,,,,,,,VFR,,,,,,,,,,,,METAR,4.0
LIEA 052120Z 22003KT 200V270 9999 BKN028 10/06 Q1022,LIEA,2019-01-05T21:20:00Z,40.62,8.27,10.0,6.0,220,3,,6.21,30.177166,,,,,,,,,,,BKN,2800,,,,,,,MVFR,,,,,,,,,,,,METAR,23.0
LOWK 052120Z AUTO 32004KT 300V010 9999 FEW070 M04/M06 Q1018 R10L/19//95 NOSIG,LOWK,2019-01-05T21:20:00Z,46.65,14.32,-4.0,-6.0,320,4,,6.21,30.059055,,,TRUE,,,TRUE,,,,,FEW,7000,,,,,,,VFR,,,,,,,,,,,,SPECI,441.0
LOWG 052120Z 02003KT 340V050 9999 FEW050 M03/M05 Q1016 R17/19//95 NOSIG,LOWG,2019-01-05T21:20:00Z,47.0,15.42,-3.0,-5.0,20,3,,6.21,30.0,,,,,,TRUE,,,,,FEW,5000,,,,,,,VFR,,,,,,,,,,,,SPECI,347.0
LOWI 052120Z 11003KT 060V140 5000 SNRA VV010 01/00 Q1026 R08/19//95 TEMPO 3000 VV008,LOWI,2019-01-05T21:20:00Z,47.27,11.33,1.0,0.0,110,3,,3.11,30.295275,,,,,,,,,,SN RA,OVX,0,,,,,,,LIFR,,,,,,,,,,,1000,SPECI,581.0
LOWS 052120Z 27006KT 220V300 9999 FEW015 SCT020 BKN028 02/00 Q1024 R15/29//95 NOSIG,LOWS,2019-01-05T21:20:00Z,47.78,13.02,2.0,0.0,270,6,,6.21,30.236221,,,,,,TRUE,,,,,FEW,1500,SCT,2000,BKN,2800,,,MVFR,,,,,,,,,,,,SPECI,430.0
LGRP 052120Z 21007G17KT 9999 -RA FEW018TCU BKN025 07/05 Q1007 WS ALL RWY NOSIG,LGRP,2019-01-05T21:20:00Z,36.4,28.08,7.0,5.0,210,7,17,6.21,29.734253,,,,,,TRUE,,,,-RA,FEW,1800,BKN,2500,,,,,MVFR,,,,,,,,,,,,METAR,5.0
LGKR 052120Z 00000KT 9999 FEW025 03/M03 Q1014 NOSIG,LGKR,2019-01-05T21:20:00Z,39.62,19.92,3.0,-3.0,0,0,,6.21,29.940945,,,,,,TRUE,,,,,FEW,2500,,,,,,,VFR,,,,,,,,,,,,METAR,2.0
LGIR 052120Z 20006KT 9999 FEW018TCU 05/04 Q1010 NOSIG,LGIR,2019-01-05T21:20:00Z,35.32,25.17,5.0,4.0,200,6,,6.21,29.822834,,,,,,TRUE,,,,,FEW,1800,,,,,,,VFR,,,,,,,,,,,,METAR,39.0
LGAV 052120Z 35007KT 9999 FEW030 02/M04 Q1012 NOSIG,LGAV,2019-01-05T21:20:00Z,37.93,23.95,2.0,-4.0,350,7,,6.21,29.88189,,,,,,TRUE,,,,,FEW,3000,,,,,,,VFR,,,,,,,,,,,,METAR,94.0
ETSN 052120Z 26013KT 6000 -DZRA SCT008 BKN020 BKN040 02/01 Q1025 WHT,ETSN,2019-01-05T21:20:00Z,48.72,11.22,2.0,1.0,260,13,,3.73,30.265747,,,,,,,,,,-DZ -RA,SCT,800,BKN,2000,BKN,4000,,,MVFR,,,,,,,,,,,,METAR,387.0
ETSL 052120Z AUTO 24012KT 2300 // ////// 01/00 Q1026 ///,ETSL,2019-01-05T21:20:00Z,48.17,10.87,1.0,0.0,240,12,,1.43,30.295275,,,TRUE,,,,,,,,,,,,,,,,,,,,,,,,,,,,METAR,562.0
ETSI 052120Z AUTO 27013KT 3900 // ////// 02/01 Q1025 ///,ETSI,2019-01-05T21:20:00Z,48.72,11.52,2.0,1.0,270,13,,2.42,30.265747,,,TRUE,,,,,,,,,,,,,,,,,,,,,,,,,,,,METAR,370.0
ETSB 052120Z AUTO 31009KT 3800 // ////// 03/02 Q1029 ///,ETSB,2019-01-05T21:20:00Z,50.17,7.07,3.0,2.0,310,9,,2.36,30.383858,,,TRUE,,,,,,,,,,,,,,,,,,,,,,,,,,,,METAR,486.0
ETNN 052120Z AUTO 31012KT 5000 // ////// 05/04 Q1032 ///,ETNN,2019-01-05T21:20:00Z,50.82,6.67,5.0,4.0,310,12,,3.11,30.47244,,,TRUE,,,,,,,,,,,,,,,,,,,,,,,,,,,,METAR,135.0
ETHN 052120Z 29011KT 3000 -DZ BR OVC001 03/02 Q1025 RED,ETHN,2019-01-05T21:20:00Z,49.38,9.97,3.0,2.0,290,11,,1.86,30.265747,,,,,,,,,,-DZ BR,OVC,100,,,,,,,LIFR,,,,,,,,,,,,METAR,473.0
ETHL 052120Z 24010KT 6000 -RADZ BKN005 BKN009 01/M00 Q1027 YLO,ETHL,2019-01-05T21:20:00Z,48.22,9.92,1.0,0.0,240,10,,3.73,30.324802,,,,,,,,,,-RA -DZ,BKN,500,BKN,900,,,,,IFR,,,,,,,,,,,,METAR,549.0
ETHA 052120Z AUTO 28021KT //// // ////// M00/M01 Q1026 ///,ETHA,2019-01-05T21:20:00Z,47.82,10.87,0.0,-1.0,280,21,,,30.295275,,,TRUE,,,,,,,,,,,,,,,,,,,,,,,,,,,,METAR,760.0
ETWM 052120Z AUTO 32006KT //// // ////// 07/07 Q1028 ///,ETWM,2019-01-05T21:20:00Z,52.72,7.33,7.0,7.0,320,6,,,30.35433,,,TRUE,,,,,,,,,,,,,,,,,,,,,,,,,,,,METAR,21.0
ETSH 052120Z 01005KT 9999 FEW005 BKN017 04/03 Q1023 WHT,ETSH,2019-01-05T21:20:00Z,51.77,13.17,4.0,3.0,10,5,,6.21,30.206694,,,,,,,,,,,FEW,500,BKN,1700,,,,,MVFR,,,,,,,,,,,,METAR,79.0
ETNW 052120Z 32009KT 9999 BKN007 07/06 Q1026 GRN,ETNW,2019-01-05T21:20:00Z,52.45,9.42,7.0,6.0,320,9,,6.21,30.295275,,,,,,,,,,,BKN,700,,,,,,,IFR,,,,,,,,,,,,METAR,70.0
ETNT 052120Z 33012KT 2500 -DZRA BR SCT001 BKN005 07/07 Q1027 YLO,ETNT,2019-01-05T21:20:00Z,53.53,7.67,7.0,7.0,330,12,,1.55,30.324802,,,,,,,,,,-DZ -RA BR,SCT,100,BKN,500,,,,,IFR,,,,,,,,,,,,METAR,12.0
ETNS 052120Z AUTO 31002KT 0050 // ////// 02/01 Q1026 ///,ETNS,2019-01-05T21:20:00Z,54.47,9.52,2.0,1.0,310,2,,0.03,30.295275,,,TRUE,,,,,,,,,,,,,,,,,,,,,,,,,,,,METAR,25.0
ETNL 052120Z 33005KT 9999 FEW200 02/01 Q1025 BLU+,ETNL,2019-01-05T21:20:00Z,53.92,12.27,2.0,1.0,330,5,,6.21,30.265747,,,,,,,,,,,FEW,20000,,,,,,,VFR,,,,,,,,,,,,METAR,40.0
ETNH 052120Z 29004KT 0300 FG VV000 04/04 Q1026 RED,ETNH,2019-01-05T21:20:00Z,54.32,9.55,4.0,4.0,290,4,,0.19,30.295275,,,,,,,,,,FG,OVX,0,,,,,,,LIFR,,,,,,,,,,,0,METAR,17.0
ETHS 052120Z 34006KT 3000 BR BKN002 06/05 Q1025 AMB,ETHS,2019-01-05T21:20:00Z,52.92,10.18,6.0,5.0,340,6,,1.86,30.265747,,,,,,,,,,BR,BKN,200,,,,,,,LIFR,,,,,,,,,,,,METAR,88.0
ETHF 052120Z 31007KT 9999 FEW015 BKN070 06/04 Q1026 BLU,ETHF,2019-01-05T21:20:00Z,51.12,9.27,6.0,4.0,310,7,,6.21,30.295275,,,,,,,,,,,FEW,1500,BKN,7000,,,,,VFR,,,,,,,,,,,,METAR,181.0
ETHC 052120Z AUTO 32004KT 4800 // ////// 07/06 Q1026 ///,ETHC,2019-01-05T21:20:00Z,52.6,10.02,7.0,6.0,320,4,,2.98,30.295275,,,TRUE,,,,,,,,,,,,,,,,,,,,,,,,,,,,METAR,52.0
ETHB 052120Z AUTO 31007KT 3200 // ////// 07/06 Q1026 ///,ETHB,2019-01-05T21:20:00Z,52.27,9.07,7.0,6.0,310,7,,1.99,30.295275,,,TRUE,,,,,,,,,,,,,,,,,,,,,,,,,,,,METAR,78.0
ETGG 052120Z AUTO 29003KT //// // ////// 02/01 Q1026 ///,ETGG,2019-01-05T21:20:00Z,54.83,9.5,2.0,1.0,290,3,,,30.295275,,,TRUE,,,,,,,,,,,,,,,,,,,,,,,,,,,,METAR,33.0
LSZL 052120Z AUTO 11008KT 050V150 9999NDV NCD 14/M04 Q1019 RMK,LSZL,2019-01-05T21:20:00Z,46.17,8.88,14.0,-4.0,110,8,,,30.088583,,,TRUE,,,,,,,,CLR,,,,,,,,,,,,,,,,,,,,METAR,600.0
ENRY 052120Z AUTO 07003KT 6000NDV NCD M02/M03 Q1025,ENRY,2019-01-05T21:20:00Z,59.37,10.77,-2.0,-3.0,70,3,,,30.265747,,,TRUE,,,,,,,,CLR,,,,,,,,,,,,,,,,,,,,METAR,53.0
EGPH 052120Z 26006KT 9999 FEW013 BKN038 06/03 Q1034,EGPH,2019-01-05T21:20:00Z,55.95,-3.35,6.0,3.0,260,6,,6.21,30.531496,,,,,,,,,,,FEW,1300,BKN,3800,,,,,VFR,,,,,,,,,,,,METAR,41.0
PFNO 052120Z AUTO 29003KT 1/4SM FZFG BKN003 OVC044 M21/M22 A3008 RMK AO2 FZRANO,PFNO,2019-01-05T21:20:00Z,66.82,-161.02,-21.0,-22.0,290,3,,0.25,30.079725,,,TRUE,TRUE,,,,TRUE,,FZFG,BKN,300,OVC,4400,,,,,LIFR,,,,,,,,,,,,METAR,17.0
EDHI 052120Z AUTO 30004KT 3600 // SCT002/// OVC004/// 06/06 Q1025,EDHI,2019-01-05T21:20:00Z,53.53,9.83,6.0,6.0,300,4,,2.24,30.265747,,,TRUE,,,,,,,,SCT,200,OVC,400,,,,,LIFR,,,,,,,,,,,,METAR,13.0
EDDV 052120Z 30007KT 8000 -DZ BKN005 06/06 Q1026,EDDV,2019-01-05T21:20:00Z,52.47,9.68,6.0,6.0,300,7,,4.97,30.295275,,,,,,,,,,-DZ,BKN,500,,,,,,,IFR,,,,,,,,,,,,METAR,54.0
EDDT 052120Z 35004KT 320V030 9999 FEW020 03/01 Q1023 NOSIG,EDDT,2019-01-05T21:20:00Z,52.57,13.32,3.0,1.0,350,4,,6.21,30.206694,,,,,,TRUE,,,,,FEW,2000,,,,,,,VFR,,,,,,,,,,,,METAR,37.0
EDDB 052120Z 36008KT 9999 FEW032 03/01 Q1023 NOSIG,EDDB,2019-01-05T21:20:00Z,52.38,13.53,3.0,1.0,360,8,,6.21,30.206694,,,,,,TRUE,,,,,FEW,3200,,,,,,,VFR,,,,,,,,,,,,METAR,48.0
EDDC 052120Z 02013KT 9999 -RA BKN007 OVC020 03/03 Q1021 R04/29//95,EDDC,2019-01-05T21:20:00Z,51.13,13.75,3.0,3.0,20,13,,6.21,30.147638,,,,,,,,,,-RA,BKN,700,OVC,2000,,,,,IFR,,,,,,,,,,,,METAR,226.0
EFKS 052120Z AUTO VRB01KT CAVOK M11/M12 Q1015,EFKS,2019-01-05T21:20:00Z,66.0,29.23,-11.0,-12.0,0,1,,6.21,29.970472,,,TRUE,,,,,,,,CAVOK,,,,,,,,VFR,,,,,,,,,,,,METAR,263.0
EFKI 052120Z AUTO 21003KT 9999 FEW005 OVC020 M08/M10 Q1018,EFKI,2019-01-05T21:20:00Z,64.27,27.67,-8.0,-10.0,210,3,,6.21,30.059055,,,TRUE,,,,,,,,FEW,500,OVC,2000,,,,,MVFR,,,,,,,,,,,,METAR,136.0
EFKE 052120Z AUTO VRB01KT CAVOK M15/M17 Q1017,EFKE,2019-01-05T21:20:00Z,65.77,24.57,-15.0,-17.0,0,1,,6.21,30.029528,,,TRUE,,,,,,,,CAVOK,,,,,,,,VFR,,,,,,,,,,,,METAR,15.0
EFET 052120Z AUTO 20003KT 9999 OVC044 M08/M08 Q1012,EFET,2019-01-05T21:20:00Z,68.37,23.43,-8.0,-8.0,200,3,,6.21,29.88189,,,TRUE,,,,,,,,OVC,4400,,,,,,,VFR,,,,,,,,,,,,METAR,306.0
EFUT 052120Z AUTO 33004KT 9999 -SHSN BKN006 OVC020 M08/M09 Q1020,EFUT,2019-01-05T21:20:00Z,60.88,26.92,-8.0,-9.0,330,4,,6.21,30.11811,,,TRUE,,,,,,,-SHSN,BKN,600,OVC,2000,,,,,IFR,,,,,,,,,,,,METAR,100.0
EFSI 052120Z AUTO 16001KT 9999 FEW003 BKN020 OVC033 M04/M04 Q1020,EFSI,2019-01-05T21:20:00Z,62.7,22.83,-4.0,-4.0,160,1,,6.21,30.11811,,,TRUE,,,,,,,,FEW,300,BKN,2000,OVC,3300,,,MVFR,,,,,,,,,,,,METAR,91.0
EFSA 052120Z AUTO 26002KT 9999 -SN OVC011 M09/M10 Q1020,EFSA,2019-01-05T21:20:00Z,61.95,28.93,-9.0,-10.0,260,2,,6.21,30.11811,,,TRUE,,,,,,,-SN,OVC,1100,,,,,,,MVFR,,,,,,,,,,,,METAR,95.0
EFMI 052120Z AUTO 28002KT 4000 BR OVC005 M09/M10 Q1021,EFMI,2019-01-05T21:20:00Z,61.68,27.2,-9.0,-10.0,280,2,,2.49,30.147638,,,TRUE,,,,,,,BR,OVC,500,,,,,,,IFR,,,,,,,,,,,,METAR,138.0
EGPL 052120Z AUTO 23013KT 3700 -DZ OVC003/// 10/10 Q1030,EGPL,2019-01-05T21:20:00Z,57.47,-7.37,10.0,10.0,230,13,,2.3,30.413385,,,TRUE,,,,,,,-DZ,OVC,300,,,,,,,LIFR,,,,,,,,,,,,METAR,6.0
EGPC 052120Z AUTO 23006KT 200V270 9999 -RA SCT026/// OVC036/// 07/03 Q1030,EGPC,2019-01-05T21:20:00Z,58.45,-3.07,7.0,3.0,230,6,,6.21,30.413385,,,TRUE,,,,,,,-RA,SCT,2600,OVC,3600,,,,,VFR,,,,,,,,,,,,METAR,39.0
EGPA 052120Z 21009KT 9999 SCT025 BKN030 07/05 Q1030,EGPA,2019-01-05T21:20:00Z,58.95,-2.88,7.0,5.0,210,9,,6.21,30.413385,,,,,,,,,,,SCT,2500,BKN,3000,,,,,MVFR,,,,,,,,,,,,METAR,21.0
EGTK 052120Z 24005KT 9999 OVC026 04/02 Q1037,EGTK,2019-01-05T21:20:00Z,51.83,-1.32,4.0,2.0,240,5,,6.21,30.620079,,,,,,,,,,,OVC,2600,,,,,,,MVFR,,,,,,,,,,,,METAR,82.0
EGMD 052120Z AUTO 24004KT 9999 OVC024/// 04/02 Q1037,EGMD,2019-01-05T21:20:00Z,50.95,0.92,4.0,2.0,240,4,,6.21,30.620079,,,TRUE,,,,,,,,OVC,2400,,,,,,,MVFR,,,,,,,,,,,,METAR,3.0
EGMC 052120Z 27004KT 9000 BKN026 06/02 Q1037,EGMC,2019-01-05T21:20:00Z,51.57,0.7,6.0,2.0,270,4,,5.59,30.620079,,,,,,,,,,,BKN,2600,,,,,,,MVFR,,,,,,,,,,,,METAR,15.0
EGKB 052120Z 30007KT 9999 BKN021 05/01 Q1037,EGKB,2019-01-05T21:20:00Z,51.32,0.02,5.0,1.0,300,7,,6.21,30.620079,,,,,,,,,,,BKN,2100,,,,,,,MVFR,,,,,,,,,,,,METAR,183.0
EGHH 052120Z 14001KT 6000 OVC025 03/01 Q1039,EGHH,2019-01-05T21:20:00Z,50.78,-1.83,3.0,1.0,140,1,,3.73,30.679134,,,,,,,,,,,OVC,2500,,,,,,,MVFR,,,,,,,,,,,,METAR,11.0
EGPE 052120Z AUTO 23013KT 9999 -DZ FEW027/// SCT033/// BKN036/// 06/04 Q1032,EGPE,2019-01-05T21:20:00Z,57.52,-4.03,6.0,4.0,230,13,,6.21,30.47244,,,TRUE,,,,,,,-DZ,FEW,2700,SCT,3300,BKN,3600,,,VFR,,,,,,,,,,,,METAR,9.0
EGNJ 052120Z 22006KT 9999 BKN025 05/02 Q1035,EGNJ,2019-01-05T21:20:00Z,53.57,-0.35,5.0,2.0,220,6,,6.21,30.561024,,,,,,,,,,,BKN,2500,,,,,,,MVFR,,,,,,,,,,,,METAR,31.0
EGNH 052120Z 26009KT 9999 BKN023 08/05 Q1036,EGNH,2019-01-05T21:20:00Z,53.77,-3.02,8.0,5.0,260,9,,6.21,30.590551,,,,,,,,,,,BKN,2300,,,,,,,MVFR,,,,,,,,,,,,METAR,10.0
EGTE 052120Z 00000KT 9000 OVC025 04/03 Q1039,EGTE,2019-01-05T21:20:00Z,50.72,-3.42,4.0,3.0,0,0,,5.59,30.679134,,,,,,,,,,,OVC,2500,,,,,,,MVFR,,,,,,,,,,,,METAR,30.0
EGJJ 052120Z AUTO 34006KT 310V020 9999 OVC018/// 06/02 Q1039,EGJJ,2019-01-05T21:20:00Z,49.22,-2.2,6.0,2.0,340,6,,6.21,30.679134,,,TRUE,,,,,,,,OVC,1800,,,,,,,MVFR,,,,,,,,,,,,METAR,84.0
EGJB 052120Z 36005KT 9999 BKN019 05/01 Q1039,EGJB,2019-01-05T21:20:00Z,49.42,-2.6,5.0,1.0,360,5,,6.21,30.679134,,,,,,,,,,,BKN,1900,,,,,,,MVFR,,,,,,,,,,,,METAR,102.0
EGSH 052120Z AUTO 27004KT 9999 OVC024/// 04/02 Q1036,EGSH,2019-01-05T21:20:00Z,52.68,1.28,4.0,2.0,270,4,,6.21,30.590551,,,TRUE,,,,,,,,OVC,2400,,,,,,,MVFR,,,,,,,,,,,,METAR,36.0
EGCN 052120Z 24005KT 9999 OVC026 06/04 Q1037,EGCN,2019-01-05T21:20:00Z,53.48,-1.0,6.0,4.0,240,5,,6.21,30.620079,,,,,,,,,,,OVC,2600,,,,,,,MVFR,,,,,,,,,,,,METAR,17.0
EGCK 052120Z AUTO 17004KT 9999 OVC033/// 06/04 Q1037,EGCK,2019-01-05T21:20:00Z,53.1,4.33,6.0,4.0,170,4,,6.21,30.620079,,,TRUE,,,,,,,,OVC,3300,,,,,,,VFR,,,,,,,,,,,,METAR,0.0
EGPB 052120Z AUTO 26014KT 9999 BKN013/// 08/06 Q1029,EGPB,2019-01-05T21:20:00Z,59.87,-1.3,8.0,6.0,260,14,,6.21,30.383858,,,TRUE,,,,,,,,BKN,1300,,,,,,,MVFR,,,,,,,,,,,,METAR,5.0
EGNV 052120Z 19004KT 9999 SCT029 01/M00 Q1035,EGNV,2019-01-05T21:20:00Z,54.52,-1.42,1.0,0.0,190,4,,6.21,30.561024,,,,,,,,,,,SCT,2900,,,,,,,VFR,,,,,,,,,,,,METAR,37.0
EGNT 052120Z 28009KT 9999 FEW028 04/02 Q1034,EGNT,2019-01-05T21:20:00Z,55.02,-1.7,4.0,2.0,280,9,,6.21,30.531496,,,,,,,,,,,FEW,2800,,,,,,,VFR,,,,,,,,,,,,METAR,81.0
EGGP 052120Z 27003KT 9999 OVC030 07/04 Q1037,EGGP,2019-01-05T21:20:00Z,53.32,-2.85,7.0,4.0,270,3,,6.21,30.620079,,,,,,,,,,,OVC,3000,,,,,,,MVFR,,,,,,,,,,,,METAR,26.0
EGGD 052120Z AUTO 23005KT 9999 BKN014 OVC019 05/04 Q1038,EGGD,2019-01-05T21:20:00Z,51.37,-2.72,5.0,4.0,230,5,,6.21,30.649607,,,TRUE,,,,,,,,BKN,1400,OVC,1900,,,,,MVFR,,,,,,,,,,,,METAR,189.0
EGLL 052120Z AUTO 27005KT 9999 OVC027 05/02 Q1038 NOSIG,EGLL,2019-01-05T21:20:00Z,51.48,-0.45,5.0,2.0,270,5,,6.21,30.649607,,,TRUE,,,TRUE,,,,,OVC,2700,,,,,,,MVFR,,,,,,,,,,,,METAR,24.0
EGCC 052120Z AUTO 23003KT 9999 OVC027 06/02 Q1036 NOSIG,EGCC,2019-01-05T21:20:00Z,53.35,-2.27,6.0,2.0,230,3,,6.21,30.590551,,,TRUE,,,TRUE,,,,,OVC,2700,,,,,,,MVFR,,,,,,,,,,,,METAR,78.0
EGPD 052120Z AUTO 06002KT 9999 OVC044 01/M01 Q1032 NOSIG,EGPD,2019-01-05T21:20:00Z,57.2,-2.22,1.0,-1.0,60,2,,6.21,30.47244,,,TRUE,,,TRUE,,,,,OVC,4400,,,,,,,VFR,,,,,,,,,,,,METAR,65.0
EGSS 052120Z AUTO 28004KT 250V310 9999 OVC024 05/02 Q1036,EGSS,2019-01-05T21:20:00Z,51.88,0.22,5.0,2.0,280,4,,6.21,30.590551,,,TRUE,,,,,,,,OVC,2400,,,,,,,MVFR,,,,,,,,,,,,METAR,106.0
EGPK 052120Z 17003KT 9999 -RA SCT020 BKN030 06/05 Q1035,EGPK,2019-01-05T21:20:00Z,55.5,-4.57,6.0,5.0,170,3,,6.21,30.561024,,,,,,,,,,-RA,SCT,2000,BKN,3000,,,,,MVFR,,,,,,,,,,,,METAR,20.0
EGPF 052120Z AUTO VRB03KT 9999 -RA BKN011 OVC018 05/04 Q1035,EGPF,2019-01-05T21:20:00Z,55.87,-4.42,5.0,4.0,0,3,,6.21,30.561024,,,TRUE,,,,,,,-RA,BKN,1100,OVC,1800,,,,,MVFR,,,,,,,,,,,,METAR,8.0
EGKK 052120Z 28005KT 9999 BKN024 05/01 Q1038,EGKK,2019-01-05T21:20:00Z,51.13,-0.17,5.0,1.0,280,5,,6.21,30.649607,,,,,,,,,,,BKN,2400,,,,,,,MVFR,,,,,,,,,,,,METAR,62.0
EGBB 052120Z VRB03KT 9999 BKN027 05/03 Q1037,EGBB,2019-01-05T21:20:00Z,52.47,-1.75,5.0,3.0,0,3,,6.21,30.620079,,,,,,,,,,,BKN,2700,,,,,,,MVFR,,,,,,,,,,,,METAR,99.0
EGNX 052120Z 27006KT 9999 BKN025 06/03 Q1036,EGNX,2019-01-05T21:20:00Z,52.82,-1.32,6.0,3.0,270,6,,6.21,30.590551,,,,,,,,,,,BKN,2500,,,,,,,MVFR,,,,,,,,,,,,METAR,94.0
EGNM 052120Z 28009KT 9999 SCT015 05/03 Q1035,EGNM,2019-01-05T21:20:00Z,53.87,-1.63,5.0,3.0,280,9,,6.21,30.561024,,,,,,,,,,,SCT,1500,,,,,,,VFR,,,,,,,,,,,,METAR,208.0
EGLC 052120Z AUTO 29008KT 9999 OVC028 07/02 Q1037,EGLC,2019-01-05T21:20:00Z,51.5,0.05,7.0,2.0,290,8,,6.21,30.620079,,,TRUE,,,,,,,,OVC,2800,,,,,,,MVFR,,,,,,,,,,,,METAR,5.0
EGGW 052120Z AUTO 29007KT 9999 OVC023 05/02 Q1037,EGGW,2019-01-05T21:20:00Z,51.87,-0.37,5.0,2.0,290,7,,6.21,30.620079,,,TRUE,,,,,,,,OVC,2300,,,,,,,MVFR,,,,,,,,,,,,METAR,160.0
EGFF 052120Z AUTO 28007KT 9999 OVC025 07/05 Q1038,EGFF,2019-01-05T21:20:00Z,51.38,-3.35,7.0,5.0,280,7,,6.21,30.649607,,,TRUE,,,,,,,,OVC,2500,,,,,,,MVFR,,,,,,,,,,,,METAR,67.0
EGAC 052120Z AUTO VRB03KT 9999 BKN032/// 07/05 Q1035,EGAC,2019-01-05T21:20:00Z,54.62,-5.87,7.0,5.0,0,3,,6.21,30.561024,,,TRUE,,,,,,,,BKN,3200,,,,,,,VFR,,,,,,,,,,,,METAR,5.0
EGAA 052120Z 20004KT 9999 SCT028 BKN034 06/04 Q1035,EGAA,2019-01-05T21:20:00Z,54.63,-6.22,6.0,4.0,200,4,,6.21,30.561024,,,,,,,,,,,SCT,2800,BKN,3400,,,,,VFR,,,,,,,,,,,,METAR,81.0
EGPM 052120Z AUTO 24014KT 9999 BKN010/// OVC022/// 08/07 Q1028,EGPM,2019-01-05T21:20:00Z,60.42,-1.3,8.0,7.0,240,14,,6.21,30.35433,,,TRUE,,,,,,,,BKN,1000,OVC,2200,,,,,MVFR,,,,,,,,,,,,METAR,22.0
ESGR 052120Z AUTO VRB01KT 9999 SCT016/// OVC023/// 00/M00 Q1024,ESGR,2019-01-05T21:20:00Z,58.45,13.97,0.0,0.0,0,1,,6.21,30.236221,,,TRUE,,,,,,,,SCT,1600,OVC,2300,,,,,MVFR,,,,,,,,,,,,METAR,105.0
EGPO 052120Z AUTO 20012KT 9999 SCT006/// OVC009/// 09/09 Q1029,EGPO,2019-01-05T21:20:00Z,58.22,-6.32,9.0,9.0,200,12,,6.21,30.383858,,,TRUE,,,,,,,,SCT,600,OVC,900,,,,,IFR,,,,,,,,,,,,METAR,13.0
ESKM 052120Z AUTO VRB02KT 0400 R16/P2000N R34/P2000D BR FEW030/// M02/M02 Q1022,ESKM,2019-01-05T21:20:00Z,60.97,14.52,-2.0,-2.0,0,2,,0.25,30.177166,,,TRUE,,,,,,,BR,FEW,3000,,,,,,,LIFR,,,,,,,,,,,,SPECI,193.0
ESNV 052120Z AUTO 12002KT 1200 R10/P2000N R28/P2000N BR OVC002/// M12/M13 Q1018,ESNV,2019-01-05T21:20:00Z,64.58,16.83,-12.0,-13.0,120,2,,0.75,30.059055,,,TRUE,,,,,,,BR,OVC,200,,,,,,,LIFR,,,,,,,,,,,,METAR,348.0
EDDE 052120Z 32013KT 9999 SCT010 BKN022 06/05 Q1024,EDDE,2019-01-05T21:20:00Z,50.98,10.97,6.0,5.0,320,13,,6.21,30.236221,,,,,,,,,,,SCT,1000,BKN,2200,,,,,MVFR,,,,,,,,,,,,METAR,323.0
EDDW 052120Z 31011KT 9999 -DZ BKN004 07/07 Q1026,EDDW,2019-01-05T21:20:00Z,53.03,8.8,7.0,7.0,310,11,,6.21,30.295275,,,,,,,,,,-DZ,BKN,400,,,,,,,LIFR,,,,,,,,,,,,METAR,5.0
EDDR 052120Z 27008KT 9999 -RA FEW011 BKN018 03/02 Q1031 NOSIG,EDDR,2019-01-05T21:20:00Z,49.22,7.1,3.0,2.0,270,8,,6.21,30.442913,,,,,,TRUE,,,,-RA,FEW,1100,BKN,1800,,,,,MVFR,,,,,,,,,,,,METAR,320.0
EDDP 052120Z 34011KT 9999 FEW009 BKN031 06/05 Q1023 TEMPO BKN014,EDDP,2019-01-05T21:20:00Z,51.43,12.23,6.0,5.0,340,11,,6.21,30.206694,,,,,,,,,,,FEW,900,BKN,3100,,,,,VFR,,,,,,,,,,,,METAR,149.0
EDDG 052120Z 30009KT 270V330 4000 DZ FEW004 BKN006 07/06 Q1028 TEMPO 6000 -DZ,EDDG,2019-01-05T21:20:00Z,52.13,7.7,7.0,6.0,300,9,,2.49,30.35433,,,,,,,,,,DZ,FEW,400,BKN,600,,,,,IFR,,,,,,,,,,,,METAR,52.0
EFKK 052120Z AUTO 18007KT 1100 0650 R01/1900U BCFG VV001 M05/M05 Q1019,EFKK,2019-01-05T21:20:00Z,63.72,23.13,-5.0,-5.0,180,7,,0.68,30.088583,,,TRUE,,,,,,,BCFG,OVX,0,,,,,,,LIFR,,,,,,,,,,,100,SPECI,25.0
EFHA 052120Z AUTO VRB01KT 9999 FEW007 OVC031 M07/M08 Q1020,EFHA,2019-01-05T21:20:00Z,61.85,24.8,-7.0,-8.0,0,1,,6.21,30.11811,,,TRUE,,,,,,,,FEW,700,OVC,3100,,,,,VFR,,,,,,,,,,,,METAR,145.0
EFKU 052120Z AUTO VRB01KT 1900 BR OVC003 M10/M11 Q1020,EFKU,2019-01-05T21:20:00Z,63.02,27.8,-10.0,-11.0,0,1,,1.18,30.11811,,,TRUE,,,,,,,BR,OVC,300,,,,,,,LIFR,,,,,,,,,,,,METAR,102.0
EFJY 052120Z AUTO 13004KT 9999 OVC027 M08/M09 Q1020,EFJY,2019-01-05T21:20:00Z,62.4,25.68,-8.0,-9.0,130,4,,6.21,30.11811,,,TRUE,,,,,,,,OVC,2700,,,,,,,MVFR,,,,,,,,,,,,METAR,145.0
EFKT 052120Z 12001KT CAVOK M12/M14 Q1013,EFKT,2019-01-05T21:20:00Z,67.7,24.85,-12.0,-14.0,120,1,,6.21,29.911417,,,,,,,,,,,CAVOK,,,,,,,,VFR,,,,,,,,,,,,METAR,643.0
CYKP 052120Z AUTO 34008KT 9SM -SN SCT017 BKN034 OVC050 M10/M13 A2987 RMK ICG SLP134,CYKP,2019-01-05T21:20:00Z,51.67,-85.9,-10.0,-13.0,340,8,,9.0,29.870079,1013.4,,TRUE,,,,,,,-SN,SCT,1700,BKN,3400,OVC,5000,,,VFR,,,,,,,,,,,,SPECI,179.0
EFLP 052120Z AUTO 36002KT 9999 -SN OVC005 M09/M10 Q1020,EFLP,2019-01-05T21:20:00Z,61.07,28.13,-9.0,-10.0,360,2,,6.21,30.11811,,,TRUE,,,,,,,-SN,OVC,500,,,,,,,IFR,,,,,,,,,,,,METAR,106.0
EFJO 052120Z AUTO 28004KT 250V320 9999 -SHSN OVC005 M09/M10 Q1019,EFJO,2019-01-05T21:20:00Z,62.67,29.62,-9.0,-10.0,280,4,,6.21,30.088583,,,TRUE,,,,,,,-SHSN,OVC,500,,,,,,,IFR,,,,,,,,,,,,METAR,117.0
ENCN 052120Z 06003KT CAVOK M00/M00 Q1025,ENCN,2019-01-05T21:20:00Z,58.2,8.07,0.0,0.0,60,3,,6.21,30.265747,,,,,,,,,,,CAVOK,,,,,,,,VFR,,,,,,,,,,,,METAR,17.0
ENAL 052120Z 22010KT 2900 -DZ OVC004 07/07 Q1025,ENAL,2019-01-05T21:20:00Z,62.57,6.12,7.0,7.0,220,10,,1.8,30.265747,,,,,,,,,,-DZ,OVC,400,,,,,,,LIFR,,,,,,,,,,,,METAR,22.0
EFPO 052120Z AUTO 15003KT 100V180 9999 OVC045/// M05/M06 Q1022,EFPO,2019-01-05T21:20:00Z,61.47,21.8,-5.0,-6.0,150,3,,6.21,30.177166,,,TRUE,,,,,,,,OVC,4500,,,,,,,VFR,,,,,,,,,,,,METAR,17.0
EFVA 052120Z AUTO 15003KT CAVOK M04/M04 Q1020,EFVA,2019-01-05T21:20:00Z,63.03,21.77,-4.0,-4.0,150,3,,6.21,30.11811,,,TRUE,,,,,,,,CAVOK,,,,,,,,VFR,,,,,,,,,,,,METAR,4.0
EFTU 052120Z AUTO VRB03KT 9999 BKN003/// OVC035/// M06/M06 Q1022,EFTU,2019-01-05T21:20:00Z,60.52,22.27,-6.0,-6.0,0,3,,6.21,30.177166,,,TRUE,,,,,,,,BKN,300,OVC,3500,,,,,LIFR,,,,,,,,,,,,METAR,59.0
EFTP 052120Z AUTO VRB03KT 190V260 9999 FEW003 OVC031 M06/M06 Q1021,EFTP,2019-01-05T21:20:00Z,61.42,23.62,-6.0,-6.0,0,3,,6.21,30.147638,,,TRUE,,,,,,,,FEW,300,OVC,3100,,,,,VFR,,,,,,,,,,,,METAR,112.0
EFHK 052120Z 33006KT 9999 BKN007 M07/M08 Q1021 NOSIG,EFHK,2019-01-05T21:20:00Z,60.32,24.97,-7.0,-8.0,330,6,,6.21,30.147638,,,,,,TRUE,,,,,BKN,700,,,,,,,IFR,,,,,,,,,,,,METAR,56.0
ENZV 052120Z 33013KT 5000 BR OVC002 08/07 Q1027,ENZV,2019-01-05T21:20:00Z,58.87,5.62,8.0,7.0,330,13,,3.11,30.324802,,,,,,,,,,BR,OVC,200,,,,,,,LIFR,,,,,,,,,,,,METAR,9.0
ENVA 052120Z 00000KT 4000 R09/P2000N R27/P2000N BCFG BR -DZ VV008 05/05 Q1023 RMK WIND 670FT 24010KT,ENVA,2019-01-05T21:20:00Z,63.47,10.92,5.0,5.0,0,0,,2.49,30.206694,,,,,,,,,,BCFG -DZ BR,OVX,0,,,,,,,LIFR,,,,,,,,,,,800,SPECI,17.0
ENOL 052120Z 27011KT 1500 DZ BR SCT002 BKN004 07/07 Q1023 TEMPO 8000 -DZ SCT005 BKN010,ENOL,2019-01-05T21:20:00Z,63.7,9.58,7.0,7.0,270,11,,0.93,30.206694,,,,,,,,,,DZ BR,SCT,200,BKN,400,,,,,LIFR,,,,,,,,,,,,SPECI,7.0
ENGM 052120Z 01002KT 9999 FEW044 M05/M05 Q1024 NOSIG,ENGM,2019-01-05T21:20:00Z,60.2,11.1,-5.0,-5.0,10,2,,6.21,30.236221,,,,,,TRUE,,,,,FEW,4400,,,,,,,VFR,,,,,,,,,,,,METAR,204.0
ENDU 052120Z AUTO 22007KT 180V250 9999 FEW024/// BKN033/// OVC047/// 04/01 Q1014 RMK WIND 1100FT 20009KT WIND 2200FT 26018KT,ENDU,2019-01-05T21:20:00Z,69.03,18.55,4.0,1.0,220,7,,6.21,29.940945,,,TRUE,,,,,,,,FEW,2400,BKN,3300,OVC,4700,,,VFR,,,0.9,,,,,,,,,SPECI,79.0
ENBO 052120Z 10008KT 9999 FEW008 SCT020 BKN050 03/03 Q1018,ENBO,2019-01-05T21:20:00Z,67.27,14.37,3.0,3.0,100,8,,6.21,30.059055,,,,,,,,,,,FEW,800,SCT,2000,BKN,5000,,,VFR,,,,,,,,,,,,METAR,13.0
ENBR 052120Z 31003KT 1200 R35/P2000N -DZ BR VV002 07/07 Q1027 RMK WIND 1200FT 32008KT,ENBR,2019-01-05T21:20:00Z,60.28,5.22,7.0,7.0,310,3,,0.75,30.324802,,,,,,,,,,-DZ BR,OVX,0,,,,,,,LIFR,,,,,,,,,,,200,SPECI,50.0
ENAN 052120Z AUTO 23012KT 9999 OVC016/// 05/03 Q1014,ENAN,2019-01-05T21:20:00Z,69.28,16.13,5.0,3.0,230,12,,6.21,29.940945,,,TRUE,,,,,,,,OVC,1600,,,,,,,MVFR,,,,,,,,,,,,METAR,14.0
ENTO 052120Z AUTO VRB02KT 9999 BKN200/// 01/00 Q1024,ENTO,2019-01-05T21:20:00Z,59.2,10.27,1.0,0.0,0,2,,6.21,30.236221,,,TRUE,,,,,,,,BKN,20000,,,,,,,VFR,,,,,,,,,,,,METAR,88.0
ENTC 052120Z 20015KT 9999 BKN010 04/02 Q1013 RMK WIND 2600FT /////KT,ENTC,2019-01-05T21:20:00Z,69.68,18.92,4.0,2.0,200,15,,6.21,29.911417,,,,,,,,,,,BKN,1000,,,,,,,MVFR,,,,,,,,,,,,SPECI,10.0
ENRO 052120Z AUTO 21005KT 9999NDV BKN013/// OVC020/// 02/02 Q1021,ENRO,2019-01-05T21:20:00Z,62.57,11.33,2.0,2.0,210,5,,,30.147638,,,TRUE,,,,,,,,BKN,1300,OVC,2000,,,,,,,,,,,,,,,,,SPECI,626.0
ENHD 052120Z 33010KT 3000 -DZ BR OVC002 08/07 Q1027,ENHD,2019-01-05T21:20:00Z,59.35,5.22,8.0,7.0,330,10,,1.86,30.324802,,,,,,,,,,-DZ BR,OVC,200,,,,,,,LIFR,,,,,,,,,,,,METAR,24.0
EFOU 052120Z AUTO 19004KT 9999 OVC030/// M05/M05 Q1018,EFOU,2019-01-05T21:20:00Z,64.92,25.37,-5.0,-5.0,190,4,,6.21,30.059055,,,TRUE,,,,,,,,OVC,3000,,,,,,,MVFR,,,,,,,,,,,,METAR,15.0
EFIV 052120Z AUTO 22011KT 9999 OVC043 M06/M09 Q1011,EFIV,2019-01-05T21:20:00Z,68.62,27.42,-6.0,-9.0,220,11,,6.21,29.852362,,,TRUE,,,,,,,,OVC,4300,,,,,,,VFR,,,,,,,,,,,,METAR,148.0
EFMA 052120Z AUTO VRB01KT 9999 OVC043 M02/M04 Q1023,EFMA,2019-01-05T21:20:00Z,60.12,19.88,-2.0,-4.0,0,1,,6.21,30.206694,,,TRUE,,,,,,,,OVC,4300,,,,,,,VFR,,,,,,,,,,,,METAR,6.0
EFRO 052120Z AUTO 22006KT 0550 R21/1000U FZFG VV002 M12/M13 Q1015,EFRO,2019-01-05T21:20:00Z,66.57,25.82,-12.0,-13.0,220,6,,0.34,29.970472,,,TRUE,,,,,,,FZFG,OVX,0,,,,,,,LIFR,,,,,,,,,,,200,METAR,201.0
LTFE 052120Z 06007KT 020V110 9999 -SHRA SCT030 BKN080 05/03 Q1009 NOSIG RMK RWY10 08006KT 040V120,LTFE,2019-01-05T21:20:00Z,37.25,27.67,5.0,3.0,60,7,,6.21,29.793306,,,,,,TRUE,,,,-SHRA,SCT,3000,BKN,8000,,,,,VFR,,,,,,,,,,,,SPECI,6.0
CYPH 052120Z AUTO 23005KT 6SM HZ CLR M28/M31 A2971 RMK SLP068,CYPH,2019-01-05T21:20:00Z,58.45,-78.08,-28.0,-31.0,230,5,,6.0,29.71063,1006.8,,TRUE,,,,,,,HZ,CLR,,,,,,,,VFR,,,,,,,,,,,,SPECI,3.0
EYPA 052120Z AUTO 03013KT 9999 BKN030/// M02/M07 Q1020,EYPA,2019-01-05T21:20:00Z,55.97,21.08,-2.0,-7.0,30,13,,6.21,30.11811,,,TRUE,,,,,,,,BKN,3000,,,,,,,MVFR,,,,,,,,,,,,METAR,10.0
EETN 052120Z 04005KT 9999 -SN OVC024 M04/M07 Q1021 R08/450294 NOSIG,EETN,2019-01-05T21:20:00Z,59.4,24.82,-4.0,-7.0,40,5,,6.21,30.147638,,,,,,TRUE,,,,-SN,OVC,2400,,,,,,,MVFR,,,,,,,,,,,,SPECI,40.0
EYKA 052120Z 36009KT 330V040 9999 -SN OVC018 M05/M09 Q1016 R08/29//95,EYKA,2019-01-05T21:20:00Z,54.97,24.08,-5.0,-9.0,360,9,,6.21,30.0,,,,,,,,,,-SN,OVC,1800,,,,,,,MVFR,,,,,,,,,,,,METAR,77.0
EKVG 052120Z AUTO 30018KT 9999NDV BKN019/// 07/04 Q1023 RMK BKN023/// WIND SKEID 30029KT,EKVG,2019-01-05T21:20:00Z,62.07,-7.3,7.0,4.0,300,18,,,30.206694,,,TRUE,,,,,,,,BKN,1900,,,,,,,,,,,,,,,,,,,METAR,85.0
EVRA 052120Z 36008KT 9999 OVC029 M06/M08 Q1019 R36/310195 NOSIG,EVRA,2019-01-05T21:20:00Z,56.92,23.97,-6.0,-8.0,360,8,,6.21,30.088583,,,,,,TRUE,,,,,OVC,2900,,,,,,,MVFR,,,,,,,,,,,,SPECI,10.0
LTFC 052120Z 35005KT 9999 SCT040 BKN100 01/M01 Q1006 RMK RWY23 35006KT,LTFC,2019-01-05T21:20:00Z,37.87,30.38,1.0,-1.0,350,5,,6.21,29.704725,,,,,,,,,,,SCT,4000,BKN,10000,,,,,VFR,,,,,,,,,,,,SPECI,864.0
LTCS 052120Z 12009KT 9999 BKN030 05/04 Q1013 RMK RWY22 14009KT,LTCS,2019-01-05T21:20:00Z,37.45,38.9,5.0,4.0,120,9,,6.21,29.911417,,,,,,,,,,,BKN,3000,,,,,,,MVFR,,,,,,,,,,,,METAR,825.0
KCAR 052119Z AUTO 00000KT 4SM BR OVC004 01/M01 A2961 RMK AO2 T00061011,KCAR,2019-01-05T21:19:00Z,46.87,-68.02,0.6,-1.1,0,0,,4.0,29.610237,,,TRUE,TRUE,,,,,,BR,OVC,400,,,,,,,LIFR,,,,,,,,,,,,METAR,191.0
KBDR 052119Z 36012KT 8SM -RA SCT014 BKN021 OVC026 07/05 A2946 RMK AO2 P0002 T00670050 $,KBDR,2019-01-05T21:19:00Z,41.17,-73.13,6.7,5.0,360,12,,8.0,29.459646,,,,TRUE,TRUE,,,,,-RA,SCT,1400,BKN,2100,OVC,2600,,,MVFR,,,,,,0.02,,,,,,METAR,7.0
CYLH 052119Z AUTO 33006KT 310V010 9SM -SN BKN020 OVC048 M10/M13 A2989 RMK SLP144,CYLH,2019-01-05T21:19:00Z,52.2,-87.93,-10.0,-13.0,330,6,,9.0,29.890747,1014.4,,TRUE,,,,,,,-SN,BKN,2000,OVC,4800,,,,,MVFR,,,,,,,,,,,,SPECI,254.0
KBHB 052118Z AUTO 02008KT 8SM FEW008 OVC017 02/02 A2957 RMK AO2 FZRANO $,KBHB,2019-01-05T21:18:00Z,44.45,-68.37,2.0,2.0,20,8,,8.0,29.568897,,,TRUE,TRUE,TRUE,,,TRUE,,,FEW,800,OVC,1700,,,,,MVFR,,,,,,,,,,,,METAR,26.0
PAMO 052118Z AUTO 1 1/2SM -SN BR OVC017 M12/M14 A2995 RMK AO2 P0000 FZRANO $,PAMO,2019-01-05T21:18:00Z,62.1,-163.68,-12.0,-14.0,,,,1.5,29.949802,,,TRUE,TRUE,TRUE,,,TRUE,,-SN BR,OVC,1700,,,,,,,IFR,,,,,,0.005,,,,,,METAR,103.0
KAMN 052118Z AUTO 24005KT 10SM CLR 08/02 A2974 RMK AO2,KAMN,2019-01-05T21:18:00Z,43.32,-84.68,8.0,2.0,240,5,,10.0,29.740158,,,TRUE,TRUE,,,,,,,CLR,,,,,,,,VFR,,,,,,,,,,,,METAR,230.0
KPOB 052117Z AUTO 30007KT 10SM CLR 17/03 A2983 RMK AO2 SLP104 $,KPOB,2019-01-05T21:17:00Z,35.17,-79.02,17.0,3.0,300,7,,10.0,29.828741,1010.4,,TRUE,TRUE,TRUE,,,,,,CLR,,,,,,,,VFR,,,,,,,,,,,,SPECI,66.0
KFBG 052117Z AUTO 28008KT 10SM CLR 17/03 A2982 RMK AO2 SLP100,KFBG,2019-01-05T21:17:00Z,35.12,-78.92,17.0,3.0,280,8,,10.0,29.819881,1010.0,,TRUE,TRUE,,,,,,,CLR,,,,,,,,VFR,,,,,,,,,,,,METAR,74.0
KBID 052116Z AUTO 01017G23KT 4SM RA BR OVC005 06/05 A2941 RMK AO2 P0007,KBID,2019-01-05T21:16:00Z,41.17,-71.58,6.0,5.0,10,17,23,4.0,29.409449,,,TRUE,TRUE,,,,,,RA BR,OVC,500,,,,,,,IFR,,,,,,0.07,,,,,,METAR,33.0
LTBL 052116Z 11003KT 9999 FEW015 SCT030 BKN090 06/03 Q1009 RERA NOSIG RMK RWY17 00000KT,LTBL,2019-01-05T21:16:00Z,38.5,27.02,6.0,3.0,110,3,,6.21,29.793306,,,,,,TRUE,,,,,FEW,1500,SCT,3000,BKN,9000,,,VFR,,,,,,,,,,,,SPECI,5.0
CYXU 052116Z 21006KT 1 1/4SM BR OVC002 M00/M00 A2975 RMK FG4ST4 SLP086,CYXU,2019-01-05T21:16:00Z,43.02,-81.15,0.0,0.0,210,6,,1.25,29.749016,1008.6,,,,,,,,,BR,OVC,200,,,,,,,LIFR,,,,,,,,,,,,SPECI,278.0
ETOU 052116Z AUTO 33016G22KT 9999 BKN020 07/00 A3035 RMK AO2 CIG 020V230 SLP284 $,ETOU,2019-01-05T21:16:00Z,50.03,8.32,7.0,0.0,330,16,22,6.21,30.351377,1028.4,,TRUE,TRUE,TRUE,,,,,,BKN,2000,,,,,,,MVFR,,,,,,,,,,,,SPECI,141.0
KAVP 052116Z 33010KT 8SM FEW016 06/03 A2959 RMK AO2 T00610033,KAVP,2019-01-05T21:16:00Z,41.33,-75.72,6.1,3.3,330,10,,8.0,29.589567,,,,TRUE,,,,,,,FEW,1600,,,,,,,VFR,,,,,,,,,,,,METAR,291.0
KOWD 052116Z 36008KT 3SM RA BR BKN007 BKN011 OVC038 06/04 A2947 RMK AO2 P0014 T00560039,KOWD,2019-01-05T21:16:00Z,42.18,-71.17,5.6,3.9,360,8,,3.0,29.471457,,,,TRUE,,,,,,RA BR,BKN,700,BKN,1100,OVC,3800,,,IFR,,,,,,0.14,,,,,,METAR,19.0
K40B 052116Z AUTO 00000KT 00/ A2959 RMK AO1 SLP038 T0001 58004 60000,K40B,2019-01-05T21:16:00Z,46.62,-69.52,0.1,,0,0,,,29.589567,1003.8,,TRUE,TRUE,,,,,,,,,,,,,,,,-0.4,,,,,,0.005,,,,,METAR,314.0
CYUY 052116Z 32003KT 3SM -SN OVC007 M02/M02 A2965 RMK SF8 SLP059,CYUY,2019-01-05T21:16:00Z,48.2,-78.82,-2.0,-2.0,320,3,,3.0,29.648623,1005.9,,,,,,,,,-SN,OVC,700,,,,,,,IFR,,,,,,,,,,,,SPECI,301.0
KBDL 052115Z 36011KT 4SM -RA BR SCT009 BKN021 OVC060 03/02 A2951 RMK AO2 P0002 T00330022 $,KBDL,2019-01-05T21:15:00Z,41.93,-72.68,3.3,2.2,360,11,,4.0,29.509842,,,,TRUE,TRUE,,,,,-RA BR,SCT,900,BKN,2100,OVC,6000,,,MVFR,,,,,,0.02,,,,,,METAR,60.0
KMTN 052115Z 30019KT 10SM SCT024 SCT065 09/08 A2964,KMTN,2019-01-05T21:15:00Z,39.32,-76.42,9.0,8.0,300,19,,10.0,29.639763,,,,,,,,,,,SCT,2400,SCT,6500,,,,,VFR,,,,,,,,,,,,SPECI,7.0
RJOB 052115Z 02010KT 9999 -SHRA FEW010 BKN045 04/M00 Q1020 RMK 1CU010 5CU045 A3013,RJOB,2019-01-05T21:15:00Z,34.75,133.83,4.0,0.0,20,10,,6.21,30.11811,,,,,,,,,,-SHRA,FEW,1000,BKN,4500,,,,,VFR,,,,,,,,,,,,SPECI,242.0
PAMR 052115Z 00000KT 4SM BR OVC005 M12/M13 A2985 RMK AO2 T11171133 $,PAMR,2019-01-05T21:15:00Z,61.22,-149.85,-11.7,-13.3,0,0,,4.0,29.84941,,,,TRUE,TRUE,,,,,BR,OVC,500,,,,,,,IFR,,,,,,,,,,,,METAR,41.0
KSTS 052115Z 16009G20KT 3SM -RA BR BKN007 OVC025 11/11 A2959 RMK AO2 P0012 T01110106,KSTS,2019-01-05T21:15:00Z,38.5,-122.82,11.1,10.6,160,9,20,3.0,29.589567,,,,TRUE,,,,,,-RA BR,BKN,700,OVC,2500,,,,,IFR,,,,,,0.12,,,,,,METAR,39.0
LIRP 052115Z 04001KT 9999 SCT030 01/M00 Q1020 NOSIG,LIRP,2019-01-05T21:15:00Z,43.67,10.37,1.0,0.0,40,1,,6.21,30.11811,,,,,,TRUE,,,,,SCT,3000,,,,,,,VFR,,,,,,,,,,,,METAR,2.0
SAWT 052115Z 25013G23KT 9999 BKN025 12/M02 Q0988,SAWT,2019-01-05T21:15:00Z,-51.6,-72.22,12.0,-2.0,250,13,23,6.21,29.17323,,,,,,,,,,,BKN,2500,,,,,,,MVFR,,,,,,,,,,,,SPECI,273.0
KBKN 052115Z AUTO 15007KT 10SM CLR 15/06 A3003 RMK AO2,KBKN,2019-01-05T21:15:00Z,36.75,-97.35,15.0,6.0,150,7,,10.0,30.029528,,,TRUE,TRUE,,,,,,,CLR,,,,,,,,VFR,,,,,,,,,,,,METAR,314.0
LMML 052115Z 32012KT 9999 FEW043 10/01 Q1022 NOSIG,LMML,2019-01-05T21:15:00Z,35.85,14.47,10.0,1.0,320,12,,6.21,30.177166,,,,,,TRUE,,,,,FEW,4300,,,,,,,VFR,,,,,,,,,,,,METAR,91.0
LHSN 052115Z 36006KT 320V020 6000 -SN FEW007 BKN020 OVC050 00/M01 Q1013 NOSIG RMK WHT,LHSN,2019-01-05T21:15:00Z,47.12,20.23,0.0,-1.0,360,6,,3.73,29.911417,,,,,,TRUE,,,,-SN,FEW,700,BKN,2000,OVC,5000,,,MVFR,,,,,,,,,,,,METAR,98.0
LHKE 052115Z 33008KT 8000 SCT017 OVC040 01/00 Q1013 NOSIG RMK BLU,LHKE,2019-01-05T21:15:00Z,46.92,19.75,1.0,0.0,330,8,,4.97,29.911417,,,,,,TRUE,,,,,SCT,1700,OVC,4000,,,,,MVFR,,,,,,,,,,,,METAR,115.0
LHPR 052115Z AUTO 32015KT CAVOK 02/M01 Q1016 RMK BLU,LHPR,2019-01-05T21:15:00Z,47.63,17.82,2.0,-1.0,320,15,,6.21,30.0,,,TRUE,,,,,,,,CAVOK,,,,,,,,VFR,,,,,,,,,,,,METAR,129.0
LHPA 052115Z 34017KT 9999 BKN040 BKN083 02/01 Q1016 NOSIG RMK BLU,LHPA,2019-01-05T21:15:00Z,47.35,17.5,2.0,1.0,340,17,,6.21,30.0,,,,,,TRUE,,,,,BKN,4000,BKN,8300,,,,,VFR,,,,,,,,,,,,METAR,148.0
LHDC 052115Z 23002KT 8000 OVC006 M03/M05 Q1014 NOSIG,LHDC,2019-01-05T21:15:00Z,47.47,21.62,-3.0,-5.0,230,2,,4.97,29.940945,,,,,,TRUE,,,,,OVC,600,,,,,,,IFR,,,,,,,,,,,,METAR,112.0
CYHD 052115Z AUTO 30011G16KT 9SM -SN OVC013 M07/M10 A2995 RMK SLP172,CYHD,2019-01-05T21:15:00Z,49.82,-92.75,-7.0,-10.0,300,11,16,9.0,29.949802,1017.2,,TRUE,,,,,,,-SN,OVC,1300,,,,,,,MVFR,,,,,,,,,,,,SPECI,413.0
KGLR 052114Z AUTO 28011G20KT 9SM BKN013 02/01 A2967 RMK AO2 T00220006 $,KGLR,2019-01-05T21:14:00Z,45.02,-84.68,2.2,0.6,280,11,20,9.0,29.66929,,,TRUE,TRUE,TRUE,,,,,,BKN,1300,,,,,,,MVFR,,,,,,,,,,,,SPECI,407.0
KEKN 052114Z AUTO 30007KT 10SM BKN030 07/00 A2985 RMK AO2 T00720000 TSNO,KEKN,2019-01-05T21:14:00Z,38.88,-79.85,7.2,0.0,300,7,,10.0,29.84941,,,TRUE,TRUE,,,TRUE,,,,BKN,3000,,,,,,,MVFR,,,,,,,,,,,,METAR,603.0
KCUL 052113Z AUTO 22006KT 10SM CLR 13/06 A3002 RMK AO2,KCUL,2019-01-05T21:13:00Z,38.08,-88.12,13.0,6.0,220,6,,10.0,30.02067,,,TRUE,TRUE,,,,,,,CLR,,,,,,,,VFR,,,,,,,,,,,,METAR,118.0
KVPS 052113Z 35008KT 10SM CLR 18/04 A3011 RMK AO2A SLP203 $,KVPS,2019-01-05T21:13:00Z,30.47,-86.52,18.0,4.0,350,8,,10.0,30.109253,1020.3,,,TRUE,TRUE,,,,,,CLR,,,,,,,,VFR,,,,,,,,,,,,SPECI,26.0
KPVC 052113Z AUTO 03017G21KT 7SM FEW007 OVC011 06/04 A2944 RMK AO2,KPVC,2019-01-05T21:13:00Z,42.07,-70.22,6.0,4.0,30,17,21,7.0,29.438976,,,TRUE,TRUE,,,,,,,FEW,700,OVC,1100,,,,,MVFR,,,,,,,,,,,,SPECI,2.0
KWAL 052113Z AUTO 29013G21KT 10SM FEW021 OVC030 11/ A2960 RMK AO2 T0111 $,KWAL,2019-01-05T21:13:00Z,37.93,-75.47,11.1,,290,13,21,10.0,29.601377,,,TRUE,TRUE,TRUE,,,,,,FEW,2100,OVC,3000,,,,,MVFR,,,,,,,,,,,,SPECI,14.0
KOLM 052113Z 00000KT 9SM SCT004 OVC090 07/06 A2943 RMK AO2 T00720061,KOLM,2019-01-05T21:13:00Z,46.97,-122.9,7.2,6.1,0,0,,9.0,29.430119,,,,TRUE,,,,,,,SCT,400,OVC,9000,,,,,VFR,,,,,,,,,,,,SPECI,58.0
KTTN 052112Z 31007KT 7SM FEW010 SCT014 OVC025 08/07 A2952 RMK AO2 T00780067,KTTN,2019-01-05T21:12:00Z,40.28,-74.82,7.8,6.7,310,7,,7.0,29.518702,,,,TRUE,,,,,,,FEW,1000,SCT,1400,OVC,2500,,,MVFR,,,,,,,,,,,,SPECI,59.0
KDDH 052112Z AUTO 00000KT 10SM SCT006 BKN014 OVC046 03/01 A2954 RMK AO2 T00280006,KDDH,2019-01-05T21:12:00Z,42.9,-73.25,2.8,0.6,0,0,,10.0,29.53937,,,TRUE,TRUE,,,,,,,SCT,600,BKN,1400,OVC,4600,,,MVFR,,,,,,,,,,,,SPECI,244.0
SBLO 052112Z 24007KT 4000 TSRA SCT010 BKN025 FEW035CB BKN050 24 /23 Q1013,SBLO,2019-01-05T21:12:00Z,-23.32,-51.12,,,240,7,,2.49,29.911417,,,,,,,,,,TSRA,SCT,1000,BKN,2500,FEW,3500,BKN,5000,IFR,,,,,,,,,,,,SPECI,570.0
PABL 052112Z AUTO 33006KT 9SM -SN OVC010 M19/M22 A3009 RMK AO2 P0000 FZRANO,PABL,2019-01-05T21:12:00Z,65.98,-161.15,-19.0,-22.0,330,6,,9.0,30.088583,,,TRUE,TRUE,,,,TRUE,,-SN,OVC,1000,,,,,,,MVFR,,,,,,0.005,,,,,,SPECI,7.0
KFKL 052112Z AUTO 28004KT 7SM SCT010 03/00 A2977 RMK AO2,KFKL,2019-01-05T21:12:00Z,41.37,-79.87,3.0,0.0,280,4,,7.0,29.769686,,,TRUE,TRUE,,,,,,,SCT,1000,,,,,,,VFR,,,,,,,,,,,,SPECI,469.0
KTGI 052111Z AUTO 29022KT 10SM OVC048 11/07 A2964 RMK AO1,KTGI,2019-01-05T21:11:00Z,37.82,-75.98,11.0,7.0,290,22,,10.0,29.639763,,,TRUE,TRUE,,,,,,,OVC,4800,,,,,,,VFR,,,,,,,,,,,,METAR,2.0
KGFK 052111Z 36015KT 10SM OVC009 M06/M07 A3009 RMK AO2 T10611072,KGFK,2019-01-05T21:11:00Z,47.95,-97.18,-6.1,-7.2,360,15,,10.0,30.088583,,,,TRUE,,,,,,,OVC,900,,,,,,,IFR,,,,,,,,,,,,SPECI,258.0
KFOK 052111Z 35010G20KT 6SM -RA BR BKN007 BKN011 OVC016 07/06 A2942 RMK AO2 P0007 T00670056,KFOK,2019-01-05T21:11:00Z,40.85,-72.62,6.7,5.6,350,10,20,6.0,29.421259,,,,TRUE,,,,,,-RA BR,BKN,700,BKN,1100,OVC,1600,,,IFR,,,,,,0.07,,,,,,SPECI,33.0
RJOM 052110Z 06004KT 360V130 9999 FEW025 BKN130 03/01 Q1021 RMK 1CU025 6AC130 A3017,RJOM,2019-01-05T21:10:00Z,33.82,132.68,3.0,1.0,60,4,,6.21,30.147638,,,,,,,,,,,FEW,2500,BKN,13000,,,,,VFR,,,,,,,,,,,,SPECI,7.0
RJOK 052110Z 35011KT 9999 FEW045 BKN120 BKN150 08/M03 Q1018 RMK 1SC045 5AC120 7AC150 A3008,RJOK,2019-01-05T21:10:00Z,33.52,133.67,8.0,-3.0,350,11,,6.21,30.059055,,,,,,,,,,,FEW,4500,BKN,12000,BKN,15000,,,VFR,,,,,,,,,,,,METAR,10.0
RJFM 052110Z 28003KT 9999 FEW030 BKN130 09/04 Q1020 RMK 2CU030 6AC130 A3013,RJFM,2019-01-05T21:10:00Z,31.87,131.43,9.0,4.0,280,3,,6.21,30.11811,,,,,,,,,,,FEW,3000,BKN,13000,,,,,VFR,,,,,,,,,,,,METAR,9.0
RJSN 052110Z 32011KT 9999 FEW015 SCT020 BKN030 02/M03 Q1020 RMK 1CU015 3CU020 6CU030 A3013,RJSN,2019-01-05T21:10:00Z,37.95,139.12,2.0,-3.0,320,11,,6.21,30.11811,,,,,,,,,,,FEW,1500,SCT,2000,BKN,3000,,,MVFR,,,,,,,,,,,,SPECI,4.0
RJOA 052110Z 36008KT 310V040 9999 FEW045 SCT120 BKN150 03/M03 Q1020 RMK 1SC045 3AC120 6AC150 A3013,RJOA,2019-01-05T21:10:00Z,34.42,132.92,3.0,-3.0,360,8,,6.21,30.11811,,,,,,,,,,,FEW,4500,SCT,12000,BKN,15000,,,VFR,,,,,,,,,,,,SPECI,6.0
RJNT 052110Z 24002KT 9999 VCSH FEW010 SCT025 BKN050 01/00 Q1022 RMK 1ST010 3CU025 5SC050 A3020,RJNT,2019-01-05T21:10:00Z,36.63,137.17,1.0,0.0,240,2,,6.21,30.177166,,,,,,,,,,VCSH,FEW,1000,SCT,2500,BKN,5000,,,VFR,,,,,,,,,,,,SPECI,27.0
RJFT 052110Z 34002KT 7000 NSC 03/02 Q1022 RMK 7AC090 A3019,RJFT,2019-01-05T21:10:00Z,32.82,130.83,3.0,2.0,340,2,,4.35,30.177166,,,,,,,,,,,CLR,,,,,,,,MVFR,,,,,,,,,,,,SPECI,196.0
RJCH 052110Z 33003KT 300V010 9999 -SHSN FEW030 BKN050 M04/M06 Q1015 RMK 1CU030 7CU050 A3000,RJCH,2019-01-05T21:10:00Z,41.77,140.82,-4.0,-6.0,330,3,,6.21,29.970472,,,,,,,,,,-SHSN,FEW,3000,BKN,5000,,,,,VFR,,,,,,,,,,,,SPECI,36.0
RJFU 052110Z VRB01KT 8000 NSC 06/03 Q1022 RMK 3AC090 7AC110 A3019,RJFU,2019-01-05T21:10:00Z,32.92,129.92,6.0,3.0,0,1,,4.97,30.177166,,,,,,,,,,,CLR,,,,,,,,MVFR,,,,,,,,,,,,SPECI,5.0
KPSF 052110Z AUTO 28004KT 5SM BR FEW006 OVC022 03/02 A2950 RMK AO2 T00330017,KPSF,2019-01-05T21:10:00Z,42.43,-73.28,3.3,1.7,280,4,,5.0,29.500984,,,TRUE,TRUE,,,,,,BR,FEW,600,OVC,2200,,,,,MVFR,,,,,,,,,,,,SPECI,355.0
KMKY 052110Z AUTO 31015G20KT 10SM FEW024 22/16 A3005 RMK AO2,KMKY,2019-01-05T21:10:00Z,26.0,-81.67,22.0,16.0,310,15,20,10.0,30.050198,,,TRUE,TRUE,,,,,,,FEW,2400,,,,,,,VFR,,,,,,,,,,,,SPECI,2.0
VCBI 052110Z 04009KT CAVOK 23/20 Q1012 NOSIG,VCBI,2019-01-05T21:10:00Z,7.17,79.87,23.0,20.0,40,9,,6.21,29.88189,,,,,,TRUE,,,,,CAVOK,,,,,,,,VFR,,,,,,,,,,,,METAR,8.0
CZSJ 052108Z AUTO 36007KT 6SM -SN FEW016 OVC039 M12/M15 A3001 RMK SLP190,CZSJ,2019-01-05T21:08:00Z,53.07,-93.35,-12.0,-15.0,360,7,,6.0,30.008858,1019.0,,TRUE,,,,,,,-SN,FEW,1600,OVC,3900,,,,,VFR,,,,,,,,,,,,SPECI,290.0
KILG 052108Z 31015G21KT 10SM BKN015 OVC080 08/06 A2957 RMK AO2 T00780061,KILG,2019-01-05T21:08:00Z,39.67,-75.6,7.8,6.1,310,15,21,10.0,29.568897,,,,TRUE,,,,,,,BKN,1500,OVC,8000,,,,,MVFR,,,,,,,,,,,,SPECI,28.0
KHIB 052108Z AUTO 31008KT 8SM OVC011 M02/M03 A2993 RMK AO2 T10171028,KHIB,2019-01-05T21:08:00Z,47.38,-92.83,-1.7,-2.8,310,8,,8.0,29.929134,,,TRUE,TRUE,,,,,,,OVC,1100,,,,,,,MVFR,,,,,,,,,,,,SPECI,412.0
CYIK 052107Z 15018KT 4SM -SN BR DRSN OVC019 M28/M31 A2955 RMK SC8 SLP015,CYIK,2019-01-05T21:07:00Z,62.42,-77.93,-28.0,-31.0,150,18,,4.0,29.551182,1001.5,,,,,,,,,-SN BR DRSN,OVC,1900,,,,,,,MVFR,,,,,,,,,,,,SPECI,42.0
PADK 052107Z AUTO 25023KT 8SM UP FEW018 SCT026 BKN045 M01/M03 A2944 RMK AO2 PK WND 25028/2058 P0000 FZRANO,PADK,2019-01-05T21:07:00Z,51.88,-176.65,-1.0,-3.0,250,23,,8.0,29.438976,,,TRUE,TRUE,,,,TRUE,,UP,FEW,1800,SCT,2600,BKN,4500,,,VFR,,,,,,0.005,,,,,,METAR,4.0
CYGH 052107Z 00000KT 15SM FEW003 SCT052 SCT080 BKN150 M27/M30 A3002 RMK ST2SC1AC1AS1 SLP180,CYGH,2019-01-05T21:07:00Z,66.27,-128.62,-27.0,-30.0,0,0,,15.0,30.02067,1018.0,,,,,,,,,,FEW,300,SCT,5200,SCT,8000,BKN,15000,VFR,,,,,,,,,,,,SPECI,66.0
CYDN 052106Z AUTO 12002KT 9SM OVC014 M07/M09 A3011 RMK SLP218,CYDN,2019-01-05T21:06:00Z,51.1,-100.03,-7.0,-9.0,120,2,,9.0,30.109253,1021.8,,TRUE,,,,,,,,OVC,1400,,,,,,,MVFR,,,,,,,,,,,,SPECI,305.0
MSLP 052106Z 24007KT 9999 FEW023 31/21 Q1010 NOSIG RMK FU NE SE,MSLP,2019-01-05T21:06:00Z,13.43,-89.05,31.0,21.0,240,7,,6.21,29.822834,,,,,,TRUE,,,,,FEW,2300,,,,,,,VFR,,,,,,,,,,,,SPECI,25.0
KTEB 052105Z 32004G19KT 2SM -RA BR OVC006 07/06 A2949,KTEB,2019-01-05T21:05:00Z,40.87,-74.05,7.0,6.0,320,4,19,2.0,29.489174,,,,,,,,,,-RA BR,OVC,600,,,,,,,IFR,,,,,,,,,,,,SPECI,7.0
KMLP 052105Z AUTO 16006KT 10SM FEW001 M02/M04 A2963 RMK AO2 T10221044,KMLP,2019-01-05T21:05:00Z,47.45,-115.67,-2.2,-4.4,160,6,,10.0,29.630905,,,TRUE,TRUE,,,,,,,FEW,100,,,,,,,VFR,,,,,,,,,,,,METAR,1837.0
KHYR 052105Z AUTO VRB04KT 10SM OVC013 01/M02 A2991 RMK AO2 T00111017,KHYR,2019-01-05T21:05:00Z,46.02,-91.45,1.1,-1.7,0,4,,10.0,29.911417,,,TRUE,TRUE,,,,,,,OVC,1300,,,,,,,MVFR,,,,,,,,,,,,SPECI,370.0
KCDW 052105Z VRB03KT 2 1/2SM -RA BR FEW008 OVC021 06/06 A2951 RMK AO2 P0000 T00560056,KCDW,2019-01-05T21:05:00Z,40.88,-74.28,5.6,5.6,0,3,,2.5,29.509842,,,,TRUE,,,,,,-RA BR,FEW,800,OVC,2100,,,,,IFR,,,,,,0.005,,,,,,METAR,64.0
KCEF 052105Z 02010KT 3SM RA BR SCT006 SCT016 OVC024 03/02 A2950 RMK AO2A SLP998,KCEF,2019-01-05T21:05:00Z,42.2,-72.52,3.0,2.0,20,10,,3.0,29.500984,999.8,,,TRUE,,,,,,RA BR,SCT,600,SCT,1600,OVC,2400,,,MVFR,,,,,,,,,,,,SPECI,75.0
PASV 052104Z AUTO 00000KT 10SM -SN BKN016 M16/M17 A2980 RMK AO2 SLP148,PASV,2019-01-05T21:04:00Z,61.1,-155.57,-16.0,-17.0,0,0,,10.0,29.799213,1014.8,,TRUE,TRUE,,,,,,-SN,BKN,1600,,,,,,,MVFR,,,,,,,,,,,,METAR,484.0
CYTS 052104Z 34004KT 1 1/2SM -SN SCT004 BKN007 OVC011 M02/M02 A2966 RMK SC3SC3SC2 VIS VRB 1-2 SLP062,CYTS,2019-01-05T21:04:00Z,48.57,-81.37,-2.0,-2.0,340,4,,1.5,29.660433,1006.2,,,,,,,,,-SN,SCT,400,BKN,700,OVC,1100,,,IFR,,,,,,,,,,,,SPECI,295.0
KEWR 052103Z 35015G20KT 3SM -RA BR FEW008 BKN012 OVC020 07/06 A2949 RMK AO2 P0000 T00720061,KEWR,2019-01-05T21:03:00Z,40.68,-74.17,7.2,6.1,350,15,20,3.0,29.489174,,,,TRUE,,,,,,-RA BR,FEW,800,BKN,1200,OVC,2000,,,MVFR,,,,,,0.005,,,,,,SPECI,7.0
CYXS 052103Z AUTO 01006KT 8SM SCT001 SCT130 M03/M04 A2946 RMK SLP013,CYXS,2019-01-05T21:03:00Z,53.9,-122.68,-3.0,-4.0,10,6,,8.0,29.459646,1001.3,,TRUE,,,,,,,,SCT,100,SCT,13000,,,,,VFR,,,,,,,,,,,,SPECI,691.0
CYBC 052103Z AUTO VRB02KT 2SM BR OVC002 M01/M02 A2965 RMK SLP043,CYBC,2019-01-05T21:03:00Z,49.12,-68.2,-1.0,-2.0,0,2,,2.0,29.648623,1004.3,,TRUE,,,,,,,BR,OVC,200,,,,,,,LIFR,,,,,,,,,,,,SPECI,22.0
CYPY 052103Z AUTO 10006KT 6SM -SN BKN016 M17/M19 A2998 RMK PRESFR SLP181,CYPY,2019-01-05T21:03:00Z,58.77,-111.12,-17.0,-19.0,100,6,,6.0,29.97933,1018.1,,TRUE,,,,,,,-SN,BKN,1600,,,,,,,MVFR,,,,,,,,,,,,SPECI,232.0
KTIW 052102Z 23004KT 10SM SCT005 BKN100 07/06 A2942 RMK AO2 T00670056,KTIW,2019-01-05T21:02:00Z,47.27,-122.58,6.7,5.6,230,4,,10.0,29.421259,,,,TRUE,,,,,,,SCT,500,BKN,10000,,,,,VFR,,,,,,,,,,,,SPECI,89.0
KPNE 052102Z 32010KT 10SM SCT011 SCT016 OVC028 09/07 A2954 RMK AO2 T00940067,KPNE,2019-01-05T21:02:00Z,40.08,-75.02,9.4,6.7,320,10,,10.0,29.53937,,,,TRUE,,,,,,,SCT,1100,SCT,1600,OVC,2800,,,MVFR,,,,,,,,,,,,SPECI,28.0
FALE 052102Z 23003KT 190V250 CAVOK 21/16 Q1015 NOSIG,FALE,2019-01-05T21:02:00Z,-29.62,31.12,21.0,16.0,230,3,,6.21,29.970472,,,,,,TRUE,,,,,CAVOK,,,,,,,,VFR,,,,,,,,,,,,SPECI,109.0
PADM 052102Z AUTO 07005KT 10SM CLR M14/M17 A2999 RMK AO2 SLP166 60000 T11441167 53010 FZRANO,PADM,2019-01-05T21:02:00Z,61.87,-162.03,-14.4,-16.7,70,5,,10.0,29.991142,1016.6,,TRUE,TRUE,,,,TRUE,,,CLR,,,,,,,,VFR,1.0,,,,,,0.005,,,,,SPECI,31.0
PASM 052102Z AUTO 08008KT 10SM OVC018 M12/M13 A2995 RMK AO2 SNB2024E2033 SLP162 P0000 60000 T11171128 53008 FZRANO,PASM,2019-01-05T21:02:00Z,62.07,-163.3,-11.7,-12.8,80,8,,10.0,29.949802,1016.2,,TRUE,TRUE,,,,TRUE,,,OVC,1800,,,,,,,MVFR,0.8,,,,,0.005,0.005,,,,,SPECI,92.0
PADG 052101Z 00000KT 15SM SKC M22/M25 A2998,PADG,2019-01-05T21:01:00Z,68.03,-162.9,-22.0,-25.0,0,0,,15.0,29.97933,,,,,,,,,,,SKC,,,,,,,,VFR,,,,,,,,,,,,SPECI,297.0
KRDG 052101Z 30013KT 10SM FEW020 SCT075 08/07 A2958 RMK AO2 T00780067,KRDG,2019-01-05T21:01:00Z,40.37,-75.97,7.8,6.7,300,13,,10.0,29.58071,,,,TRUE,,,,,,,FEW,2000,SCT,7500,,,,,VFR,,,,,,,,,,,,SPECI,109.0
KMPO 052101Z AUTO 31016KT 10SM FEW007 FEW018 SCT120 04/03 A2951 RMK AO2 T00390033,KMPO,2019-01-05T21:01:00Z,41.13,-75.38,3.9,3.3,310,16,,10.0,29.509842,,,TRUE,TRUE,,,,,,,FEW,700,FEW,1800,SCT,12000,,,VFR,,,,,,,,,,,,SPECI,577.0
KBLU 052101Z AUTO 15011G25KT M1/4SM +SN FZFG VV004 M01/M03 A2974 RMK AO2 P0001 T10111028 $,KBLU,2019-01-05T21:01:00Z,39.28,-120.7,-1.1,-2.8,150,11,25,0.25,29.740158,,,TRUE,TRUE,TRUE,,,,,+SN FZFG,OVX,0,,,,,,,LIFR,,,,,,0.01,,,,,400,SPECI,1609.0
SKLT 052100Z 28003KT 9999 SCT012 BKN080 28/25 A2983,SKLT,2019-01-05T21:00:00Z,-4.2,-69.93,28.0,25.0,280,3,,6.21,29.828741,,,,,,,,,,,SCT,1200,BKN,8000,,,,,VFR,,,,,,,,,,,,METAR,84.0
SMZO 052100Z 03010KT 9999 FEW020 28/23 Q1012 NOSIG,SMZO,2019-01-05T21:00:00Z,5.82,-55.18,28.0,23.0,30,10,,6.21,29.88189,,,,,,TRUE,,,,,FEW,2000,,,,,,,VFR,,,,,,,,,,,,METAR,10.0
SMJP 052100Z 05011KT 9999 FEW020 28/23 Q1012 NOSIG,SMJP,2019-01-05T21:00:00Z,5.45,-55.17,28.0,23.0,50,11,,6.21,29.88189,,,,,,TRUE,,,,,FEW,2000,,,,,,,VFR,,,,,,,,,,,,METAR,16.0
MPBO 052100Z 24004KT 9999 FEW015 BKN090 Q1015,MPBO,2019-01-05T21:00:00Z,9.35,-82.25,,,240,4,,6.21,29.970472,,,,,,,,,,,FEW,1500,BKN,9000,,,,,VFR,,,,,,,,,,,,METAR,3.0
GVNP 052100Z 04012KT 9999 FEW015 SCT200 22/17 Q1017 NOSIG,GVNP,2019-01-05T21:00:00Z,14.95,-23.48,22.0,17.0,40,12,,6.21,30.029528,,,,,,TRUE,,,,,FEW,1500,SCT,20000,,,,,VFR,,,,,,,,,,,,METAR,70.0
SBSJ 052100Z 05002KT 9999 SCT030 BKN100 23/22 Q1015,SBSJ,2019-01-05T21:00:00Z,-23.22,-45.87,23.0,22.0,50,2,,6.21,29.970472,,,,,,,,,,,SCT,3000,BKN,10000,,,,,VFR,,,,,,,,,,,,METAR,646.0
OKBK 052100Z 13007KT 7000 NSC 13/11 Q1017 NOSIG,OKBK,2019-01-05T21:00:00Z,29.22,47.97,13.0,11.0,130,7,,4.35,30.029528,,,,,,TRUE,,,,,CLR,,,,,,,,MVFR,,,,,,,,,,,,METAR,55.0
CXWM 052100Z AUTO 14009KT 05/M03 RMK AO1 T00541029,CXWM,2019-01-05T21:00:00Z,49.5,-112.12,5.4,-2.9,140,9,,,,,,TRUE,TRUE,,,,,,,,,,,,,,,,,,,,,,,,,,,METAR,944.0
CXDB 052100Z AUTO 11007KT 03/M03 RMK AO1 T00261028,CXDB,2019-01-05T21:00:00Z,49.05,-112.82,2.6,-2.8,110,7,,,,,,TRUE,TRUE,,,,,,,,,,,,,,,,,,,,,,,,,,,METAR,1310.0
CXAK 052100Z AUTO 12013KT M04/M05 RMK AO1 PK WND 11017/2058 T10431049,CXAK,2019-01-05T21:00:00Z,52.35,-112.6,-4.3,-4.9,120,13,,,,,,TRUE,TRUE,,,,,,,,,,,,,,,,,,,,,,,,,,,METAR,795.0
VAAU 052100Z 00000KT 6000 NSC 16/09 Q1016 NOSIG,VAAU,2019-01-05T21:00:00Z,19.85,75.4,16.0,9.0,0,0,,3.73,30.0,,,,,,TRUE,,,,,CLR,,,,,,,,MVFR,,,,,,,,,,,,METAR,579.0
HTAR 052100Z 00000KT 9999 FEW018 17/16 Q1017,HTAR,2019-01-05T21:00:00Z,-3.37,36.63,17.0,16.0,0,0,,6.21,30.029528,,,,,,,,,,,FEW,1800,,,,,,,VFR,,,,,,,,,,,,SPECI,1387.0
HTZA 052100Z 05004KT 9999 FEW012 27/24 Q1011 NOSIG,HTZA,2019-01-05T21:00:00Z,-6.22,39.22,27.0,24.0,50,4,,6.21,29.852362,,,,,,TRUE,,,,,FEW,1200,,,,,,,VFR,,,,,,,,,,,,SPECI,15.0
HTKJ 052100Z 02004KT 9999 FEW028 24/16 Q1015 NOSIG,HTKJ,2019-01-05T21:00:00Z,-3.42,37.07,24.0,16.0,20,4,,6.21,29.970472,,,,,,TRUE,,,,,FEW,2800,,,,,,,VFR,,,,,,,,,,,,SPECI,896.0
HTDA 052100Z 02008KT 9999 FEW014 28/25 Q1012 NOSIG,HTDA,2019-01-05T21:00:00Z,-6.88,39.2,28.0,25.0,20,8,,6.21,29.88189,,,,,,TRUE,,,,,FEW,1400,,,,,,,VFR,,,,,,,,,,,,SPECI,55.0
HTSU 052100Z 00000KT 9999 SCT020 FEW022CB 19/17 Q1020,HTSU,2019-01-05T21:00:00Z,-7.95,31.67,19.0,17.0,0,0,,6.21,30.11811,,,,,,,,,,,SCT,2000,FEW,2200,,,,,VFR,,,,,,,,,,,,METAR,1804.0
HTMT 052100Z 35011KT 9999 BKN021 FEW022CB 28/25 Q1012,HTMT,2019-01-05T21:00:00Z,-10.27,40.17,28.0,25.0,350,11,,6.21,29.88189,,,,,,,,,,,BKN,2100,FEW,2200,,,,,MVFR,,,,,,,,,,,,METAR,113.0
HTTB 052100Z 00000KT 9999 TS SCT018 FEW020CB 21/20 Q1018 NOSIG,HTTB,2019-01-05T21:00:00Z,-5.07,32.82,21.0,20.0,0,0,,6.21,30.059055,,,,,,TRUE,,,,TS,SCT,1800,FEW,2000,,,,,VFR,,,,,,,,,,,,SPECI,1190.0
HTSO 052100Z 00000KT 9999 FEW016 FEW017CB 23/20 Q1017,HTSO,2019-01-05T21:00:00Z,-10.67,35.57,23.0,20.0,0,0,,6.21,30.029528,,,,,,,,,,,FEW,1600,FEW,1700,,,,,VFR,,,,,,,,,,,,SPECI,1067.0
HTMW 052100Z 00000KT 9999 FEW021 FEW022CB 21/19 Q1015 NOSIG,HTMW,2019-01-05T21:00:00Z,-2.47,32.92,21.0,19.0,0,0,,6.21,29.970472,,,,,,TRUE,,,,,FEW,2100,FEW,2200,,,,,VFR,,,,,,,,,,,,SPECI,1140.0
HTMU 052100Z 00000KT 9999 FEW022CB SCT090 22/19 Q1017,HTMU,2019-01-05T21:00:00Z,-1.5,33.78,22.0,19.0,0,0,,6.21,30.029528,,,,,,,,,,,FEW,2200,SCT,9000,,,,,VFR,,,,,,,,,,,,SPECI,1147.0
HTMG 052100Z 06015KT 9999 FEW025 25/22 Q1014,HTMG,2019-01-05T21:00:00Z,-6.82,37.63,25.0,22.0,60,15,,6.21,29.940945,,,,,,,,,,,FEW,2500,,,,,,,VFR,,,,,,,,,,,,SPECI,526.0
HTKA 052100Z 00000KT 9999 FEW021 FEW022CB 21/20 Q1018,HTKA,2019-01-05T21:00:00Z,-4.87,29.67,21.0,20.0,0,0,,6.21,30.059055,,,,,,,,,,,FEW,2100,FEW,2200,,,,,VFR,,,,,,,,,,,,SPECI,885.0
HTIR 052100Z 00000KT 9999 SKC 21/16 Q1020,HTIR,2019-01-05T21:00:00Z,-7.67,35.75,21.0,16.0,0,0,,6.21,30.11811,,,,,,,,,,,SKC,,,,,,,,VFR,,,,,,,,,,,,SPECI,1428.0
HTDO 052100Z 08006KT 9999 FEW029 FEW031CB 24/18 Q1016 NOSIG,HTDO,2019-01-05T21:00:00Z,-6.17,35.77,24.0,18.0,80,6,,6.21,30.0,,,,,,TRUE,,,,,FEW,2900,FEW,3100,,,,,VFR,,,,,,,,,,,,SPECI,1120.0
HTBU 052100Z 00000KT 9999 FEW017 FEW19CB 21/19 Q1016,HTBU,2019-01-05T21:00:00Z,-1.32,31.82,21.0,19.0,0,0,,6.21,30.0,,,,,,,,,,,FEW,1700,,,,,,,VFR,,,,,,,,,,,,SPECI,1137.0
SBPA 052100Z 11016KT CAVOK 26/19 Q1011,SBPA,2019-01-05T21:00:00Z,-30.0,-51.17,26.0,19.0,110,16,,6.21,29.852362,,,,,,,,,,,CAVOK,,,,,,,,VFR,,,,,,,,,,,,METAR,3.0
GOOK 052100Z 04006KT CAVOK 29/19 Q1014,GOOK,2019-01-05T21:00:00Z,14.15,-16.07,29.0,19.0,40,6,,6.21,29.940945,,,,,,,,,,,CAVOK,,,,,,,,VFR,,,,,,,,,,,,METAR,7.0
TKPK 052100Z 07014KT 9999 SCT022 26/20 Q1018,TKPK,2019-01-05T21:00:00Z,17.3,-62.72,26.0,20.0,70,14,,6.21,30.059055,,,,,,,,,,,SCT,2200,,,,,,,VFR,,,,,,,,,,,,METAR,48.0
SBCG 052100Z 01004KT 9999 FEW030 FEW045TCU BKN100 28/22 Q1012,SBCG,2019-01-05T21:00:00Z,-20.47,-54.67,28.0,22.0,10,4,,6.21,29.88189,,,,,,,,,,,FEW,3000,FEW,4500,BKN,10000,,,VFR,,,,,,,,,,,,METAR,567.0
OISS 052100Z 00000KT CAVOK 03/01 Q1024 A3024,OISS,2019-01-05T21:00:00Z,29.52,52.57,3.0,1.0,0,0,,6.21,30.236221,,,,,,,,,,,CAVOK,,,,,,,,VFR,,,,,,,,,,,,METAR,1491.0
OIKK 052100Z 12004KT CAVOK M00/M16 Q1024 A3025,OIKK,2019-01-05T21:00:00Z,30.25,56.97,0.0,-16.0,120,4,,6.21,30.236221,,,,,,,,,,,CAVOK,,,,,,,,VFR,,,,,,,,,,,,METAR,1754.0
OIAW 052100Z 10002KT 5000 BR NSC 12/11 Q1017,OIAW,2019-01-05T21:00:00Z,31.32,48.77,12.0,11.0,100,2,,3.11,30.029528,,,,,,,,,,BR,CLR,,,,,,,,MVFR,,,,,,,,,,,,METAR,22.0
NCRK 052100Z AUTO 36004KT //// ////// 32/25 Q1009,NCRK,2019-01-05T21:00:00Z,-10.05,-161.08,32.0,25.0,360,4,,,29.793306,,,TRUE,,,,,,,,,,,,,,,,,,,,,,,,,,,,METAR,5.0
NCPY 052100Z AUTO 02008KT //// ////// 30/25 Q1012,NCPY,2019-01-05T21:00:00Z,-9.02,-158.07,30.0,25.0,20,8,,,29.88189,,,TRUE,,,,,,,,,,,,,,,,,,,,,,,,,,,,METAR,2.0
NCMR 052100Z AUTO 21004KT //// ////// Q1009,NCMR,2019-01-05T21:00:00Z,-19.85,-157.7,,,210,4,,,29.793306,,,TRUE,,,,,,,,,,,,,,,,,,,,,,,,,,,,METAR,8.0
NCMK 052100Z AUTO 18003KT //// ////// 29/25 Q1008,NCMK,2019-01-05T21:00:00Z,-20.15,-157.38,29.0,25.0,180,3,,,29.763779,,,TRUE,,,,,,,,,,,,,,,,,,,,,,,,,,,,METAR,9.0
NCMH 052100Z AUTO 36005KT //// ////// 30/26 Q1011,NCMH,2019-01-05T21:00:00Z,-10.38,-161.0,30.0,26.0,360,5,,,29.852362,,,TRUE,,,,,,,,,,,,,,,,,,,,,,,,,,,,METAR,0.0
NCMG 052100Z AUTO 26004KT //// ////// 28/20 Q1005,NCMG,2019-01-05T21:00:00Z,-21.92,-157.95,28.0,20.0,260,4,,,29.675198,,,TRUE,,,,,,,,,,,,,,,,,,,,,,,,,,,,METAR,41.0
NCAT 052100Z AUTO 20002KT //// ////// Q1004,NCAT,2019-01-05T21:00:00Z,-19.97,-158.12,,,200,2,,,29.64567,,,TRUE,,,,,,,,,,,,,,,,,,,,,,,,,,,,METAR,11.0
NCRG 052100Z 22006KT 9999 SCT023 BKN290 28/21 Q1010,NCRG,2019-01-05T21:00:00Z,-21.2,-159.82,28.0,21.0,220,6,,6.21,29.822834,,,,,,,,,,,SCT,2300,BKN,29000,,,,,VFR,,,,,,,,,,,,METAR,7.0
OIZH 052100Z 23006KT CAVOK M00/M13 Q1024 A3026,OIZH,2019-01-05T21:00:00Z,29.47,60.92,0.0,-13.0,230,6,,6.21,30.236221,,,,,,,,,,,CAVOK,,,,,,,,VFR,,,,,,,,,,,,METAR,1370.0
RPMD 052100Z 01004KT 330V030 9999 SCT016 SCT290 25/25 Q1013 RMK A2991,RPMD,2019-01-05T21:00:00Z,7.12,125.65,25.0,25.0,10,4,,6.21,29.911417,,,,,,,,,,,SCT,1600,SCT,29000,,,,,VFR,,,,,,,,,,,,METAR,18.0
RPVM 052100Z 01008KT 9999 FEW020 OVC090 25/22 Q1014 RMK A2994,RPVM,2019-01-05T21:00:00Z,10.32,123.98,25.0,22.0,10,8,,6.21,29.940945,,,,,,,,,,,FEW,2000,OVC,9000,,,,,VFR,,,,,,,,,,,,METAR,10.0
RPLL 052100Z 06002KT 9999 FEW023 25/21 Q1015 NOSIG RMK A2997,RPLL,2019-01-05T21:00:00Z,14.52,121.0,25.0,21.0,60,2,,6.21,29.970472,,,,,,TRUE,,,,,FEW,2300,,,,,,,VFR,,,,,,,,,,,,METAR,21.0
RPVD 052100Z 00000KT 9999 FEW015 BKN080 27/23 Q1012 RMK A2988,RPVD,2019-01-05T21:00:00Z,9.33,123.3,27.0,23.0,0,0,,6.21,29.88189,,,,,,,,,,,FEW,1500,BKN,8000,,,,,VFR,,,,,,,,,,,,METAR,8.0
RPVP 052100Z 27004KT 9999 FEW020 24/22 Q1014 RMK A2994,RPVP,2019-01-05T21:00:00Z,9.75,118.72,24.0,22.0,270,4,,6.21,29.940945,,,,,,,,,,,FEW,2000,,,,,,,VFR,,,,,,,,,,,,METAR,16.0
RPLC 052100Z 29002KT 9999 FEW020 SCT300 23/20 Q1016 NOSIG RMK A3000,RPLC,2019-01-05T21:00:00Z,15.17,120.58,23.0,20.0,290,2,,6.21,30.0,,,,,,TRUE,,,,,FEW,2000,SCT,30000,,,,,VFR,,,,,,,,,,,,SPECI,196.0
NCPK 052100Z AUTO ,NCPK,2019-01-05T21:00:00Z,-10.88,-165.82,,,,,,,,,,TRUE,,,,,,,,,,,,,,,,,,,,,,,,,,,,METAR,3.0
RPLB 052100Z 12005KT 9999 FEW020 23/20 Q1016 NOSIG RMK A3000,RPLB,2019-01-05T21:00:00Z,14.8,120.27,23.0,20.0,120,5,,6.21,30.0,,,,,,TRUE,,,,,FEW,2000,,,,,,,VFR,,,,,,,,,,,,METAR,17.0
CYPC 052100Z 31009KT 10SM -SN OVC016 M18/M21 A3001 RMK SC8 SLP164,CYPC,2019-01-05T21:00:00Z,69.37,-124.07,-18.0,-21.0,310,9,,10.0,30.008858,1016.4,,,,,,,,,-SN,OVC,1600,,,,,,,MVFR,,,,,,,,,,,,METAR,6.0
CYBR 052100Z 09004KT 4SM -SN OVC008 M06/M07 A3007 RMK ST8 SLP212,CYBR,2019-01-05T21:00:00Z,49.92,-99.95,-6.0,-7.0,90,4,,4.0,30.070866,1021.2,,,,,,,,,-SN,OVC,800,,,,,,,IFR,,,,,,,,,,,,METAR,409.0
RPMZ 052100Z 04003KT 9999 FEW017 SCT090 25/22 Q1012 RMK A2988,RPMZ,2019-01-05T21:00:00Z,6.92,122.07,25.0,22.0,40,3,,6.21,29.88189,,,,,,,,,,,FEW,1700,SCT,9000,,,,,VFR,,,,,,,,,,,,METAR,6.0
RPLI 052100Z 11004KT 9999 FEW018 22/22 Q1016 NOSIG RMK A3000,RPLI,2019-01-05T21:00:00Z,18.17,120.52,22.0,22.0,110,4,,6.21,30.0,,,,,,TRUE,,,,,FEW,1800,,,,,,,VFR,,,,,,,,,,,,METAR,5.0
SABE 052100Z 11010KT CAVOK 28/14 Q1008 NOSIG,SABE,2019-01-05T21:00:00Z,-34.57,-58.42,28.0,14.0,110,10,,6.21,29.763779,,,,,,TRUE,,,,,CAVOK,,,,,,,,VFR,,,,,,,,,,,,METAR,6.0
SAAR 052100Z 07010KT CAVOK 30/17 Q1006,SAAR,2019-01-05T21:00:00Z,-32.92,-60.77,30.0,17.0,70,10,,6.21,29.704725,,,,,,,,,,,CAVOK,,,,,,,,VFR,,,,,,,,,,,,METAR,25.0
TQPF 052100Z 10013KT 9999 SCT019 26/20 Q1018,TQPF,2019-01-05T21:00:00Z,18.18,-63.03,26.0,20.0,100,13,,6.21,30.059055,,,,,,,,,,,SCT,1900,,,,,,,VFR,,,,,,,,,,,,METAR,31.0
SACO 052100Z 04016KT 9999 SCT040 SCT060 30/21 Q1006 NOSIG,SACO,2019-01-05T21:00:00Z,-31.32,-64.22,30.0,21.0,40,16,,6.21,29.704725,,,,,,TRUE,,,,,SCT,4000,SCT,6000,,,,,VFR,,,,,,,,,,,,METAR,474.0
SAME 052100Z 14003KT 9999 FEW045TCU SCT050 33/18 Q1002,SAME,2019-01-05T21:00:00Z,-32.82,-68.77,33.0,18.0,140,3,,6.21,29.586615,,,,,,,,,,,FEW,4500,SCT,5000,,,,,VFR,,,,,,,,,,,,METAR,704.0
SAEZ 052100Z 05010KT CAVOK 29/13 Q1008 NOSIG,SAEZ,2019-01-05T21:00:00Z,-34.82,-58.52,29.0,13.0,50,10,,6.21,29.763779,,,,,,TRUE,,,,,CAVOK,,,,,,,,VFR,,,,,,,,,,,,METAR,20.0
SADF 052100Z 04007KT CAVOK 29/15 Q1008,SADF,2019-01-05T21:00:00Z,-34.45,-58.58,29.0,15.0,40,7,,6.21,29.763779,,,,,,,,,,,CAVOK,,,,,,,,VFR,,,,,,,,,,,,METAR,4.0
SANT 052100Z 09010KT 9999 FEW040 BKN200 31/23 Q1005,SANT,2019-01-05T21:00:00Z,-26.85,-65.08,31.0,23.0,90,10,,6.21,29.675198,,,,,,,,,,,FEW,4000,BKN,20000,,,,,VFR,,,,,,,,,,,,METAR,450.0
SAZS 052100Z 29024G33KT 9999 FEW040 25/02 Q1009,SAZS,2019-01-05T21:00:00Z,-41.13,-71.17,25.0,2.0,290,24,33,6.21,29.793306,,,,,,,,,,,FEW,4000,,,,,,,VFR,,,,,,,,,,,,METAR,840.0
SAZM 052100Z 34015G25KT CAVOK 29/12 Q1007,SAZM,2019-01-05T21:00:00Z,-37.92,-57.57,29.0,12.0,340,15,25,6.21,29.734253,,,,,,,,,,,CAVOK,,,,,,,,VFR,,,,,,,,,,,,METAR,21.0
SAWE 052100Z 32024G34KT 9999 RA BKN018 OVC050 09/07 Q0988,SAWE,2019-01-05T21:00:00Z,-53.78,-67.75,9.0,7.0,320,24,34,6.21,29.17323,,,,,,,,,,RA,BKN,1800,OVC,5000,,,,,MVFR,,,,,,,,,,,,METAR,22.0
SAVC 052100Z 29028KT CAVOK 27/M01 Q0997,SAVC,2019-01-05T21:00:00Z,-45.77,-67.47,27.0,-1.0,290,28,,6.21,29.438976,,,,,,,,,,,CAVOK,,,,,,,,VFR,,,,,,,,,,,,METAR,46.0
SASA 052100Z 05009KT 9999 SCT020 SCT200 28/19 Q1010,SASA,2019-01-05T21:00:00Z,-24.85,-65.47,28.0,19.0,50,9,,6.21,29.822834,,,,,,,,,,,SCT,2000,SCT,20000,,,,,VFR,,,,,,,,,,,,METAR,1216.0
SARL 052100Z 09010KT 9999 FEW018 31/23 Q1008,SARL,2019-01-05T21:00:00Z,-29.67,-57.13,31.0,23.0,90,10,,6.21,29.763779,,,,,,,,,,,FEW,1800,,,,,,,VFR,,,,,,,,,,,,METAR,70.0
SARI 052100Z 09006KT 9999 FEW015 SCT100 BKN200 29/24 Q1010,SARI,2019-01-05T21:00:00Z,-25.72,-54.47,29.0,24.0,90,6,,6.21,29.822834,,,,,,,,,,,FEW,1500,SCT,10000,BKN,20000,,,VFR,,,,,,,,,,,,METAR,270.0
SARF 052100Z 07005KT 9999 FEW017 BKN100 OVC200 26/25 Q1007,SARF,2019-01-05T21:00:00Z,-26.22,-58.22,26.0,25.0,70,5,,6.21,29.734253,,,,,,,,,,,FEW,1700,BKN,10000,OVC,20000,,,VFR,,,,,,,,,,,,METAR,60.0
SBCO 052100Z 12012KT CAVOK 27/20 Q1011,SBCO,2019-01-05T21:00:00Z,-29.95,-51.15,27.0,20.0,120,12,,6.21,29.852362,,,,,,,,,,,CAVOK,,,,,,,,VFR,,,,,,,,,,,,METAR,47.0
SBBQ 052100Z 23004KT 9999 SCT030 BKN100 24/19 Q1020,SBBQ,2019-01-05T21:00:00Z,-21.25,-43.77,24.0,19.0,230,4,,6.21,30.11811,,,,,,,,,,,SCT,3000,BKN,10000,,,,,VFR,,,,,,,,,,,,METAR,1171.0
SBBI 052100Z 10006KT 9999 -RA BKN007 BKN100 20/19 Q1017,SBBI,2019-01-05T21:00:00Z,-25.4,-49.23,20.0,19.0,100,6,,6.21,30.029528,,,,,,,,,,-RA,BKN,700,BKN,10000,,,,,IFR,,,,,,,,,,,,METAR,923.0
SBAF 052100Z 02003KT 3000 RA SCT012 BKN035 24/22 Q1013,SBAF,2019-01-05T21:00:00Z,-22.87,-43.37,24.0,22.0,20,3,,1.86,29.911417,,,,,,,,,,RA,SCT,1200,BKN,3500,,,,,IFR,,,,,,,,,,,,METAR,34.0
SBPJ 052100Z VRB07KT 9999 FEW015 SCT025 FEW040TCU 26/21 Q1012,SBPJ,2019-01-05T21:00:00Z,-10.28,-48.37,26.0,21.0,0,7,,6.21,29.88189,,,,,,,,,,,FEW,1500,SCT,2500,FEW,4000,,,VFR,,,,,,,,,,,,METAR,236.0
SBAN 052100Z VRB06KT 9999 VCSH FEW020 BKN030 FEW040TCU 19/16 Q1019,SBAN,2019-01-05T21:00:00Z,-16.22,-48.97,19.0,16.0,0,6,,6.21,30.088583,,,,,,,,,,VCSH,FEW,2000,BKN,3000,FEW,4000,,,MVFR,,,,,,,,,,,,METAR,1137.0
SBMK 052100Z 34003KT 9999 FEW048 FEW050TCU 31/09 Q1013,SBMK,2019-01-05T21:00:00Z,-16.7,-43.82,31.0,9.0,340,3,,6.21,29.911417,,,,,,,,,,,FEW,4800,FEW,5000,,,,,VFR,,,,,,,,,,,,METAR,646.0
SBLS 052100Z 11003KT 070V140 CAVOK 25/16 Q1017,SBLS,2019-01-05T21:00:00Z,-19.67,-43.88,25.0,16.0,110,3,,6.21,30.029528,,,,,,,,,,,CAVOK,,,,,,,,VFR,,,,,,,,,,,,METAR,852.0
SBGW 052100Z 30003KT 9999 SCT025 BKN080 25/21 Q1014,SBGW,2019-01-05T21:00:00Z,-22.77,-45.2,25.0,21.0,300,3,,6.21,29.940945,,,,,,,,,,,SCT,2500,BKN,8000,,,,,VFR,,,,,,,,,,,,METAR,533.0
SBES 052100Z 07008KT 9999 VCSH FEW025TCU SCT040 BKN080 28/21 Q1013,SBES,2019-01-05T21:00:00Z,-22.82,-42.1,28.0,21.0,70,8,,6.21,29.911417,,,,,,,,,,VCSH,FEW,2500,SCT,4000,BKN,8000,,,VFR,,,,,,,,,,,,METAR,11.0
SBSC 052100Z 14007KT 9999 FEW030TCU BKN070 29/24 Q1012,SBSC,2019-01-05T21:00:00Z,-22.92,-43.72,29.0,24.0,140,7,,6.21,29.88189,,,,,,,,,,,FEW,3000,BKN,7000,,,,,VFR,,,,,,,,,,,,METAR,3.0
SBPR 052100Z 06005KT 9999 FEW030 SCT100 27/18 Q1017,SBPR,2019-01-05T21:00:00Z,-19.9,-43.98,27.0,18.0,60,5,,6.21,30.029528,,,,,,,,,,,FEW,3000,SCT,10000,,,,,VFR,,,,,,,,,,,,METAR,927.0
OIYY 052100Z 16006KT CAVOK 07/M15 Q1021,OIYY,2019-01-05T21:00:00Z,31.9,54.28,7.0,-15.0,160,6,,6.21,30.147638,,,,,,,,,,,CAVOK,,,,,,,,VFR,,,,,,,,,,,,METAR,1236.0
OITR 052100Z 24002KT 0200 R21/1300U FZFG VV002 M06/M07 Q1015,OITR,2019-01-05T21:00:00Z,37.67,45.07,-6.0,-7.0,240,2,,0.12,29.970472,,,,,,,,,,FZFG,OVX,0,,,,,,,LIFR,,,,,,,,,,,200,METAR,1312.0
OIIE 052100Z 04004KT 5000 BR NSC 04/02 Q1020,OIIE,2019-01-05T21:00:00Z,35.42,51.15,4.0,2.0,40,4,,3.11,30.11811,,,,,,,,,,BR,CLR,,,,,,,,MVFR,,,,,,,,,,,,METAR,1008.0
OIGG 052100Z 24004KT 3000 BR FEW015 SCT120 09/08 Q1015,OIGG,2019-01-05T21:00:00Z,37.33,49.6,9.0,8.0,240,4,,1.86,29.970472,,,,,,,,,,BR,FEW,1500,SCT,12000,,,,,IFR,,,,,,,,,,,,METAR,-13.0
OIBK 052100Z 03004KT 8000 NSC 20/18 Q1019,OIBK,2019-01-05T21:00:00Z,26.53,53.98,20.0,18.0,30,4,,4.97,30.088583,,,,,,,,,,,CLR,,,,,,,,MVFR,,,,,,,,,,,,METAR,30.0
OIAA 052100Z 19004KT CAVOK 11/08 Q1017,OIAA,2019-01-05T21:00:00Z,30.37,48.25,11.0,8.0,190,4,,6.21,30.029528,,,,,,,,,,,CAVOK,,,,,,,,VFR,,,,,,,,,,,,METAR,11.0
DTTZ 052100Z 24012KT 9999 SCT030 11/01 Q1028 NOSIG,DTTZ,2019-01-05T21:00:00Z,33.92,8.08,11.0,1.0,240,12,,6.21,30.35433,,,,,,TRUE,,,,,SCT,3000,,,,,,,VFR,,,,,,,,,,,,METAR,93.0
DTTX 052100Z 24006KT 9999 FEW030 09/M00 Q1026 NOSIG,DTTX,2019-01-05T21:00:00Z,34.72,10.67,9.0,0.0,240,6,,6.21,30.295275,,,,,,TRUE,,,,,FEW,3000,,,,,,,VFR,,,,,,,,,,,,METAR,23.0
DTTG 052100Z 23010KT 9999 FEW020 08/M01 Q1028 NOSIG,DTTG,2019-01-05T21:00:00Z,33.73,9.92,8.0,-1.0,230,10,,6.21,30.35433,,,,,,TRUE,,,,,FEW,2000,,,,,,,VFR,,,,,,,,,,,,METAR,5.0
DTTF 052100Z 26007KT 9999 SCT026 09/M00 Q1028 NOSIG,DTTF,2019-01-05T21:00:00Z,34.42,8.82,9.0,0.0,260,7,,6.21,30.35433,,,,,,TRUE,,,,,SCT,2600,,,,,,,VFR,,,,,,,,,,,,METAR,314.0
DTMB 052100Z 26011KT 8000 SCT033 11/03 Q1025 NOSIG,DTMB,2019-01-05T21:00:00Z,35.77,10.75,11.0,3.0,260,11,,4.97,30.265747,,,,,,TRUE,,,,,SCT,3300,,,,,,,MVFR,,,,,,,,,,,,METAR,2.0
DTKA 052100Z AUTO 23010KT /// 10/08 Q1025,DTKA,2019-01-05T21:00:00Z,36.98,8.88,10.0,8.0,230,10,,,30.265747,,,TRUE,,,,,,,,,,,,,,,,,,,,,,,,,,,,METAR,21.0
TGPY 052100Z 10012KT 9999 FEW019 28/23 Q1014,TGPY,2019-01-05T21:00:00Z,12.0,-61.78,28.0,23.0,100,12,,6.21,29.940945,,,,,,,,,,,FEW,1900,,,,,,,VFR,,,,,,,,,,,,METAR,7.0
MKJS 052100Z 07014KT 9999 FEW022 30/22 Q1014,MKJS,2019-01-05T21:00:00Z,18.5,-77.92,30.0,22.0,70,14,,6.21,29.940945,,,,,,,,,,,FEW,2200,,,,,,,VFR,,,,,,,,,,,,METAR,1.0
MHCH 052100Z 02025KT 9999 FEW034 36/17 HZ,MHCH,2019-01-05T21:00:00Z,13.32,-87.15,36.0,17.0,20,25,,6.21,,,,,,,,,,,HZ,FEW,3400,,,,,,,VFR,,,,,,,,,,,,METAR,48.0
MHLE 052100Z 06004KT 9999 FEW024 21/11,MHLE,2019-01-05T21:00:00Z,14.32,-88.15,21.0,11.0,60,4,,6.21,,,,,,,,,,,,FEW,2400,,,,,,,VFR,,,,,,,,,,,,METAR,1100.0
MHGS 052100Z 31006KT 9999 SCT028 28/14 HZ,MHGS,2019-01-05T21:00:00Z,14.57,-88.6,28.0,14.0,310,6,,6.21,,,,,,,,,,,HZ,SCT,2800,,,,,,,VFR,,,,,,,,,,,,METAR,913.0
MHSR 052100Z 36008KT 9999 BKN025 26/14 HZ,MHSR,2019-01-05T21:00:00Z,14.78,-88.78,26.0,14.0,360,8,,6.21,,,,,,,,,,,HZ,BKN,2500,,,,,,,MVFR,,,,,,,,,,,,METAR,1079.0
MHTR 052100Z 33003KT 9999 FEW024TCU 28/23 Q1016 TCU SW HZ,MHTR,2019-01-05T21:00:00Z,15.93,-85.93,28.0,23.0,330,3,,6.21,30.0,,,,,,,,,,HZ,FEW,2400,,,,,,,VFR,,,,,,,,,,,,SPECI,3.0
GUCY 052100Z 00000KT 4000 HZ FEW015 BKN110 27/16 Q1013 NOSIG,GUCY,2019-01-05T21:00:00Z,9.57,-13.62,27.0,16.0,0,0,,2.49,29.911417,,,,,,TRUE,,,,HZ,FEW,1500,BKN,11000,,,,,IFR,,,,,,,,,,,,METAR,26.0
VOGO 052100Z VRB02KT 5000 BR FEW220 22/19 Q1012 TEMPO 4000 BR,VOGO,2019-01-05T21:00:00Z,15.38,73.83,22.0,19.0,0,2,,3.11,29.88189,,,,,,,,,,BR,FEW,22000,,,,,,,MVFR,,,,,,,,,,,,METAR,52.0
VOGO 052100Z VRB02KT 5000 BR FEW220 22/19 Q1012 TEMPO 4000 BR,VOGO,2019-01-05T21:00:00Z,15.38,73.83,22.0,19.0,0,2,,3.11,29.88189,,,,,,,,,,BR,FEW,22000,,,,,,,MVFR,,,,,,,,,,,,METAR,52.0
CXAJ 052100Z AUTO 11007KT M08/M09 RMK AO1 SOG 33 T10771093,CXAJ,2019-01-05T21:00:00Z,54.77,-112.82,-7.7,-9.3,110,7,,,,,,TRUE,TRUE,,,,,,,,,,,,,,,,,,,,,,,,,,,METAR,574.0
CXAG 052100Z AUTO 12012KT M06/M07 RMK AO1 T10611069,CXAG,2019-01-05T21:00:00Z,53.92,-112.28,-6.1,-6.9,120,12,,,,,,TRUE,TRUE,,,,,,,,,,,,,,,,,,,,,,,,,,,METAR,625.0
CZPS 052100Z AUTO 14010KT M07/M07 RMK AO1 T10681069,CZPS,2019-01-05T21:00:00Z,52.43,-113.6,-6.8,-6.9,140,10,,,,,,TRUE,TRUE,,,,,,,,,,,,,,,,,,,,,,,,,,,METAR,965.0
CZOL 052100Z AUTO 16008KT M04/M05 RMK AO1 T10381051,CZOL,2019-01-05T21:00:00Z,53.65,-113.35,-3.8,-5.1,160,8,,,,,,TRUE,TRUE,,,,,,,,,,,,,,,,,,,,,,,,,,,METAR,665.0
CXVM 052100Z AUTO 10008KT M06/M07 RMK AO1 T10591070,CXVM,2019-01-05T21:00:00Z,53.35,-110.88,-5.9,-7.0,100,8,,,,,,TRUE,TRUE,,,,,,,,,,,,,,,,,,,,,,,,,,,METAR,623.0
CXOL 052100Z AUTO 12011KT M08/M09 RMK AO1 T10791086,CXOL,2019-01-05T21:00:00Z,51.77,-114.08,-7.9,-8.6,120,11,,,,,,TRUE,TRUE,,,,,,,,,,,,,,,,,,,,,,,,,,,METAR,1046.0
CXMO 052100Z AUTO 18010KT M05/M05 RMK AO1 T10491053,CXMO,2019-01-05T21:00:00Z,51.67,-112.68,-4.9,-5.3,180,10,,,,,,TRUE,TRUE,,,,,,,,,,,,,,,,,,,,,,,,,,,METAR,836.0
HEMA 052100Z 26008KT CAVOK 15/09 Q1016 NOSIG,HEMA,2019-01-05T21:00:00Z,25.55,34.58,15.0,9.0,260,8,,6.21,30.0,,,,,,TRUE,,,,,CAVOK,,,,,,,,VFR,,,,,,,,,,,,METAR,77.0
HESG 052100Z 31005KT CAVOK 11/M03 Q1018 NOSIG,HESG,2019-01-05T21:00:00Z,26.33,31.75,11.0,-3.0,310,5,,6.21,30.059055,,,,,,TRUE,,,,,CAVOK,,,,,,,,VFR,,,,,,,,,,,,METAR,70.0
HESC 052100Z 28012KT CAVOK 05/M04 Q1020 NOSIG,HESC,2019-01-05T21:00:00Z,28.68,34.07,5.0,-4.0,280,12,,6.21,30.11811,,,,,,TRUE,,,,,CAVOK,,,,,,,,VFR,,,,,,,,,,,,METAR,1332.0
HEBL 052100Z 32008KT CAVOK 15/M03 Q1018 NOSIG,HEBL,2019-01-05T21:00:00Z,22.38,31.62,15.0,-3.0,320,8,,6.21,30.059055,,,,,,TRUE,,,,,CAVOK,,,,,,,,VFR,,,,,,,,,,,,METAR,188.0
HEBA 052100Z 19006KT CAVOK 10/05 Q1016 NOSIG,HEBA,2019-01-05T21:00:00Z,30.92,29.7,10.0,5.0,190,6,,6.21,30.0,,,,,,TRUE,,,,,CAVOK,,,,,,,,VFR,,,,,,,,,,,,METAR,54.0
HEAT 052100Z 27010KT CAVOK 09/00 Q1021 NOSIG,HEAT,2019-01-05T21:00:00Z,27.05,31.02,9.0,0.0,270,10,,6.21,30.147638,,,,,,TRUE,,,,,CAVOK,,,,,,,,VFR,,,,,,,,,,,,METAR,70.0
HESH 052100Z 29003KT CAVOK 17/04 Q1015 NOSIG,HESH,2019-01-05T21:00:00Z,27.97,34.38,17.0,4.0,290,3,,6.21,29.970472,,,,,,TRUE,,,,,CAVOK,,,,,,,,VFR,,,,,,,,,,,,METAR,50.0
HEPS 052100Z 21009KT CAVOK 13/07 Q1016 NOSIG,HEPS,2019-01-05T21:00:00Z,31.28,32.25,13.0,7.0,210,9,,6.21,30.0,,,,,,TRUE,,,,,CAVOK,,,,,,,,VFR,,,,,,,,,,,,METAR,6.0
HEGN 052100Z 33014KT CAVOK 14/M01 Q1017 NOSIG,HEGN,2019-01-05T21:00:00Z,27.18,33.8,14.0,-1.0,330,14,,6.21,30.029528,,,,,,TRUE,,,,,CAVOK,,,,,,,,VFR,,,,,,,,,,,,METAR,14.0
HEAR 052100Z 22003KT CAVOK 11/06 Q1016 NOSIG,HEAR,2019-01-05T21:00:00Z,31.07,33.82,11.0,6.0,220,3,,6.21,30.0,,,,,,TRUE,,,,,CAVOK,,,,,,,,VFR,,,,,,,,,,,,METAR,32.0
HELX 052100Z 00000KT CAVOK 11/03 Q1018 NOSIG,HELX,2019-01-05T21:00:00Z,25.67,32.7,11.0,3.0,0,0,,6.21,30.059055,,,,,,TRUE,,,,,CAVOK,,,,,,,,VFR,,,,,,,,,,,,METAR,88.0
HEAX 052100Z 25017KT 9999 SCT020 13/09 Q1015 NOSIG,HEAX,2019-01-05T21:00:00Z,31.18,29.93,13.0,9.0,250,17,,6.21,29.970472,,,,,,TRUE,,,,,SCT,2000,,,,,,,VFR,,,,,,,,,,,,METAR,7.0
HEMM 052100Z 24012KT CAVOK 10/05 Q1016 NOSIG,HEMM,2019-01-05T21:00:00Z,31.32,27.22,10.0,5.0,240,12,,6.21,30.0,,,,,,TRUE,,,,,CAVOK,,,,,,,,VFR,,,,,,,,,,,,METAR,30.0
SBSL 052100Z 03004KT 9999 BKN017 BKN100 24/23 Q1011,SBSL,2019-01-05T21:00:00Z,-2.6,-44.22,24.0,23.0,30,4,,6.21,29.852362,,,,,,,,,,,BKN,1700,BKN,10000,,,,,MVFR,,,,,,,,,,,,METAR,53.0
SBCR 052100Z 07006KT 9999 FEW030 33/24 Q1007,SBCR,2019-01-05T21:00:00Z,-19.0,-57.67,33.0,24.0,70,6,,6.21,29.734253,,,,,,,,,,,FEW,3000,,,,,,,VFR,,,,,,,,,,,,METAR,141.0
SBMQ 052100Z 03008KT 9999 SCT020 FEW023TCU SCT070 29/25 Q1010,SBMQ,2019-01-05T21:00:00Z,0.05,-51.07,29.0,25.0,30,8,,6.21,29.822834,,,,,,,,,,,SCT,2000,FEW,2300,SCT,7000,,,VFR,,,,,,,,,,,,METAR,15.0
SCEL 052100Z 21013KT 180V240 CAVOK 27/12 Q1011 NOSIG,SCEL,2019-01-05T21:00:00Z,-33.37,-70.77,27.0,12.0,210,13,,6.21,29.852362,,,,,,TRUE,,,,,CAVOK,,,,,,,,VFR,,,,,,,,,,,,METAR,476.0
SBBR 052100Z 33003KT 230V030 9999 FEW020 SCT070 21/19 Q1019,SBBR,2019-01-05T21:00:00Z,-15.87,-47.92,21.0,19.0,330,3,,6.21,30.088583,,,,,,,,,,,FEW,2000,SCT,7000,,,,,VFR,,,,,,,,,,,,METAR,1061.0
SBSP 052100Z 30005KT 9999 FEW018 BKN050 24/19 Q1016,SBSP,2019-01-05T21:00:00Z,-23.62,-46.63,24.0,19.0,300,5,,6.21,30.0,,,,,,,,,,,FEW,1800,BKN,5000,,,,,VFR,,,,,,,,,,,,METAR,803.0
MRLB 052100Z 08021KT CAVOK 33/19 A2980 NOSIG,MRLB,2019-01-05T21:00:00Z,10.6,-85.55,33.0,19.0,80,21,,6.21,29.799213,,,,,,TRUE,,,,,CAVOK,,,,,,,,VFR,,,,,,,,,,,,METAR,82.0
SBRB 052100Z 12001KT 9999 SCT030 FEW035TCU SCT100 26/23 Q1009,SBRB,2019-01-05T21:00:00Z,-10.0,-67.78,26.0,23.0,120,1,,6.21,29.793306,,,,,,,,,,,SCT,3000,FEW,3500,SCT,10000,,,VFR,,,,,,,,,,,,METAR,143.0
LFVP 052100Z 17006KT 6000 BKN006 02/01 Q1010 NOSIG,LFVP,2019-01-05T21:00:00Z,46.77,-56.18,2.0,1.0,170,6,,3.73,29.822834,,,,,,TRUE,,,,,BKN,600,,,,,,,IFR,,,,,,,,,,,,METAR,8.0
GVSV 052100Z 07014KT CAVOK 23/15 Q1018 NOSIG,GVSV,2019-01-05T21:00:00Z,16.83,-25.07,23.0,15.0,70,14,,6.21,30.059055,,,,,,TRUE,,,,,CAVOK,,,,,,,,VFR,,,,,,,,,,,,METAR,20.0
OPST 052100Z 00000KT 4000 FU SCT100 07/06 Q1020 NOSIG RH93,OPST,2019-01-05T21:00:00Z,32.53,74.37,7.0,6.0,0,0,,2.49,30.11811,,,,,,TRUE,,,,FU,SCT,10000,,,,,,,IFR,,,,,,,,,,,,METAR,247.0
NFNA 052100Z 11010KT 8000 -SHRA SCT007 BKN015 OVC045 27/25 Q1005,NFNA,2019-01-05T21:00:00Z,-18.05,178.57,27.0,25.0,110,10,,4.97,29.675198,,,,,,,,,,-SHRA,SCT,700,BKN,1500,OVC,4500,,,MVFR,,,,,,,,,,,,SPECI,5.0
SBNT 052100Z 13012KT 9999 FEW021 SCT070 28/23 Q1013,SBNT,2019-01-05T21:00:00Z,-5.92,-35.25,28.0,23.0,130,12,,6.21,29.911417,,,,,,,,,,,FEW,2100,SCT,7000,,,,,VFR,,,,,,,,,,,,METAR,49.0
UWSS 052100Z 28005G10MPS 9999 DRSN FEW100 M06/M09 Q1011 R30/850234 NOSIG RMK QFE745,UWSS,2019-01-05T21:00:00Z,51.57,46.07,-6.0,-9.0,280,10,19,6.21,29.852362,,,,,,TRUE,,,,DRSN,FEW,10000,,,,,,,VFR,,,,,,,,,,,,METAR,166.0
UWOR 052100Z 17008MPS 9999 DRSN NSC M12/M16 Q1021 R25/850245 NOSIG RMK QFE742/0990,UWOR,2019-01-05T21:00:00Z,51.07,58.6,-12.0,-16.0,170,16,,6.21,30.147638,,,,,,TRUE,,,,DRSN,CLR,,,,,,,,VFR,,,,,,,,,,,,METAR,277.0
UWLW 052100Z 22002MPS 8000 -SN BKN007 OVC020 M09/M10 Q1006 R20/452038 NOSIG RMK QFE749,UWLW,2019-01-05T21:00:00Z,54.4,48.8,-9.0,-10.0,220,4,,4.97,29.704725,,,,,,TRUE,,,,-SN,BKN,700,OVC,2000,,,,,IFR,,,,,,,,,,,,METAR,66.0
USPP 052100Z 12003MPS 9999 -SN BKN036 M06/M08 Q1010 R03/490545 NOSIG RMK QFE747,USPP,2019-01-05T21:00:00Z,57.92,56.02,-6.0,-8.0,120,6,,6.21,29.822834,,,,,,TRUE,,,,-SN,BKN,3600,,,,,,,VFR,,,,,,,,,,,,METAR,123.0
VTUU 052100Z 02004KT CAVOK 21/18 Q1014 NOSIG,VTUU,2019-01-05T21:00:00Z,15.25,104.87,21.0,18.0,20,4,,6.21,29.940945,,,,,,TRUE,,,,,CAVOK,,,,,,,,VFR,,,,,,,,,,,,METAR,127.0
VTUQ 052100Z AUTO 00000KT ////NDV ////// 22/20 Q1015 A2997,VTUQ,2019-01-05T21:00:00Z,14.95,102.32,22.0,20.0,0,0,,,29.970472,,,TRUE,,,,,,,,,,,,,,,,,,,,,,,,,,,,METAR,234.0
VTUK 052100Z 07005KT 8000 NSC 23/18 Q1015 NOSIG,VTUK,2019-01-05T21:00:00Z,16.47,102.78,23.0,18.0,70,5,,4.97,29.970472,,,,,,TRUE,,,,,CLR,,,,,,,,MVFR,,,,,,,,,,,,METAR,204.0
UUBC 052100Z AUTO 06002MPS 8000 // ///007/// M05/M06 Q1011 RMK QFE740/0987,UUBC,2019-01-05T21:00:00Z,54.55,36.37,-5.0,-6.0,60,4,,4.97,29.852362,,,TRUE,,,,,,,,,,,,,,,,,,,,,,,,,,,,METAR,199.0
GOOD 052100Z 00000KT 8000 NSC 27/09 Q1013,GOOD,2019-01-05T21:00:00Z,14.65,-16.22,27.0,9.0,0,0,,4.97,29.911417,,,,,,,,,,,CLR,,,,,,,,MVFR,,,,,,,,,,,,METAR,9.0
GOGS 052100Z VRB06KT CAVOK 24/16 Q1014,GOGS,2019-01-05T21:00:00Z,12.4,-16.75,24.0,16.0,0,6,,6.21,29.940945,,,,,,,,,,,CAVOK,,,,,,,,VFR,,,,,,,,,,,,METAR,13.0
GOGG 052100Z VRB02KT CAVOK 25/16 Q1014,GOGG,2019-01-05T21:00:00Z,12.55,-16.27,25.0,16.0,0,2,,6.21,29.940945,,,,,,,,,,,CAVOK,,,,,,,,VFR,,,,,,,,,,,,METAR,23.0
GOSM 052100Z 08002KT CAVOK 24/04 Q1016,GOSM,2019-01-05T21:00:00Z,15.6,-13.33,24.0,4.0,80,2,,6.21,30.0,,,,,,,,,,,CAVOK,,,,,,,,VFR,,,,,,,,,,,,METAR,17.0
GOTT 052100Z 02006KT CAVOK 26/05 Q1014,GOTT,2019-01-05T21:00:00Z,13.73,-13.65,26.0,5.0,20,6,,6.21,29.940945,,,,,,,,,,,CAVOK,,,,,,,,VFR,,,,,,,,,,,,METAR,50.0
GOGK 052100Z 00000KT 8000 NSC 24/16 Q1012,GOGK,2019-01-05T21:00:00Z,12.9,-14.97,24.0,16.0,0,0,,4.97,29.88189,,,,,,,,,,,CLR,,,,,,,,MVFR,,,,,,,,,,,,METAR,10.0
GOOG 052100Z 10002KT 8000 NSC 25/05 Q////,GOOG,2019-01-05T21:00:00Z,15.4,-15.08,25.0,5.0,100,2,,4.97,,,,,,,,,,,,CLR,,,,,,,,MVFR,,,,,,,,,,,,METAR,21.0
GOSP 052100Z 04002KT CAVOK 23/05 Q1016,GOSP,2019-01-05T21:00:00Z,16.68,-14.97,23.0,5.0,40,2,,6.21,30.0,,,,,,,,,,,CAVOK,,,,,,,,VFR,,,,,,,,,,,,METAR,7.0
GOSS 052100Z 36006KT CAVOK 27/11 Q1015,GOSS,2019-01-05T21:00:00Z,16.05,-16.43,27.0,11.0,360,6,,6.21,29.970472,,,,,,,,,,,CAVOK,,,,,,,,VFR,,,,,,,,,,,,METAR,4.0
GOOY 052100Z 02008KT 8000 NSC 23/15 Q1013,GOOY,2019-01-05T21:00:00Z,14.72,-17.5,23.0,15.0,20,8,,4.97,29.911417,,,,,,,,,,,CLR,,,,,,,,MVFR,,,,,,,,,,,,METAR,24.0
WMKA 052100Z VRB02KT 9000 FEW010 BKN280 25/24 Q1010,WMKA,2019-01-05T21:00:00Z,6.2,100.4,25.0,24.0,0,2,,5.59,29.822834,,,,,,,,,,,FEW,1000,BKN,28000,,,,,VFR,,,,,,,,,,,,METAR,5.0
WMKN 052100Z VRB03KT 8000 -RA FEW005 SCT018 OVC150 27/25 Q1011,WMKN,2019-01-05T21:00:00Z,5.37,103.08,27.0,25.0,0,3,,4.97,29.852362,,,,,,,,,,-RA,FEW,500,SCT,1800,OVC,15000,,,MVFR,,,,,,,,,,,,METAR,6.0
WMKM 052100Z 05006KT 360V090 9999 FEW030 SCT140 BKN280 26/24 Q1011,WMKM,2019-01-05T21:00:00Z,2.27,102.25,26.0,24.0,50,6,,6.21,29.852362,,,,,,,,,,,FEW,3000,SCT,14000,BKN,28000,,,VFR,,,,,,,,,,,,METAR,9.0
WMKL 052100Z 00000KT 9999 FEW026 BKN280 25/24 Q1010,WMKL,2019-01-05T21:00:00Z,6.32,99.72,25.0,24.0,0,0,,6.21,29.822834,,,,,,,,,,,FEW,2600,BKN,28000,,,,,VFR,,,,,,,,,,,,METAR,7.0
WMKE 052100Z AUTO 28006KT 240V330 //// // 25/24 Q1011,WMKE,2019-01-05T21:00:00Z,4.53,103.43,25.0,24.0,280,6,,,29.852362,,,TRUE,,,,,,,,,,,,,,,,,,,,,,,,,,,,METAR,5.0
WMKD 052100Z VRB02KT 8000 -RA FEW010 SCT023 BKN280 25/24 Q1011 NOSIG,WMKD,2019-01-05T21:00:00Z,3.77,103.22,25.0,24.0,0,2,,4.97,29.852362,,,,,,TRUE,,,,-RA,FEW,1000,SCT,2300,BKN,28000,,,MVFR,,,,,,,,,,,,METAR,16.0
WMKC 052100Z 09010KT 060V120 9999 -RA SCT020 BKN280 27/24 Q1011,WMKC,2019-01-05T21:00:00Z,6.17,102.27,27.0,24.0,90,10,,6.21,29.852362,,,,,,,,,,-RA,SCT,2000,BKN,28000,,,,,VFR,,,,,,,,,,,,METAR,5.0
WMKB 052100Z VRB01KT 8000 FEW025 SCT140 BKN270 25/24 Q1009 NOSIG,WMKB,2019-01-05T21:00:00Z,5.47,100.37,25.0,24.0,0,1,,4.97,29.793306,,,,,,TRUE,,,,,FEW,2500,SCT,14000,BKN,27000,,,MVFR,,,,,,,,,,,,METAR,4.0
WMBA 052100Z 00000KT 6000 FEW032 SCT150 BKN280 25/24 Q1009,WMBA,2019-01-05T21:00:00Z,4.22,100.7,25.0,24.0,0,0,,3.73,29.793306,,,,,,,,,,,FEW,3200,SCT,15000,BKN,28000,,,MVFR,,,,,,,,,,,,METAR,8.0
WMAU 052100Z AUTO VRB08KT //// // 27/24 Q//// QFF1010,WMAU,2019-01-05T21:00:00Z,2.38,103.88,27.0,24.0,0,8,,0.63,,,,TRUE,,,,,,,,,,,,,,,,,,,,,,,,,,,,METAR,45.0
RORY 052100Z AUTO 02012KT 9999 BKN012 OVC060 19/17 Q1020,RORY,2019-01-05T21:00:00Z,27.05,128.4,19.0,17.0,20,12,,6.21,30.11811,,,TRUE,,,,,,,,BKN,1200,OVC,6000,,,,,MVFR,,,,,,,,,,,,METAR,16.0
RJSM 052100Z 24008KT 9999 FEW015 SCT025 BKN040 M02/M06 Q1016,RJSM,2019-01-05T21:00:00Z,40.7,141.37,-2.0,-6.0,240,8,,6.21,30.0,,,,,,,,,,,FEW,1500,SCT,2500,BKN,4000,,,VFR,,,,,,,,,,,,METAR,36.0
RJOS 052100Z 03017KT 9999 FEW020 BKN030 BKN050 07/01 Q1020,RJOS,2019-01-05T21:00:00Z,34.12,134.62,7.0,1.0,30,17,,6.21,30.11811,,,,,,,,,,,FEW,2000,BKN,3000,BKN,5000,,,MVFR,,,,,,,,,,,,METAR,11.0
RJCO 052100Z 29007KT 9999 FEW015 BKN050 M03/M10 Q1014,RJCO,2019-01-05T21:00:00Z,43.12,141.37,-3.0,-10.0,290,7,,6.21,29.940945,,,,,,,,,,,FEW,1500,BKN,5000,,,,,VFR,,,,,,,,,,,,METAR,11.0
ROYN 052100Z AUTO 01011KT 9999 FEW005 BKN011 OVC021 21/20 Q1019,ROYN,2019-01-05T21:00:00Z,24.47,122.97,21.0,20.0,10,11,,6.21,30.088583,,,TRUE,,,,,,,,FEW,500,BKN,1100,OVC,2100,,,MVFR,,,,,,,,,,,,METAR,17.0
CERM 052100Z AUTO 13002KT M00/M01 RMK AO1 SOG 39 0000 SLP042 T10011009,CERM,2019-01-05T21:00:00Z,47.42,-68.32,-0.1,-0.9,130,2,,,,1004.2,,TRUE,TRUE,,,,,,,,,,,,,,,,,,,,,,,,,,,METAR,154.0
CMFM 052100Z AUTO 34003KT M02/M04 RMK AO1 SOG 55 5001 SLP025 T10181037,CMFM,2019-01-05T21:00:00Z,47.32,-71.15,-1.8,-3.7,340,3,,,,1002.5,,TRUE,TRUE,,,,,,,,,,,,,,,,,,,,,,,,,,,METAR,672.0
CWZO 052100Z AUTO 04007KT RMK AO1,CWZO,2019-01-05T21:00:00Z,48.55,-123.23,,,40,7,,,,,,TRUE,TRUE,,,,,,,,,,,,,,,,,,,,,,,,,,,METAR,1.0
CWYY 052100Z AUTO 35003KT 04/M00 RMK AO1 SLP041 T00401004 58039,CWYY,2019-01-05T21:00:00Z,49.03,-119.43,4.0,-0.4,350,3,,,,1004.1,,TRUE,TRUE,,,,,,,,,,,,,,,,-3.9,,,,,,,,,,,METAR,283.0
CWYJ 052100Z AUTO 34006KT 07/04 RMK AO1 SLP957 T00650043 58042,CWYJ,2019-01-05T21:00:00Z,48.45,-123.3,6.5,4.3,340,6,,,,995.7,,TRUE,TRUE,,,,,,,,,,,,,,,,-4.2,,,,,,,,,,,METAR,39.0
CWXL 052100Z AUTO 14011KT 06/M03 RMK AO1 T00641026,CWXL,2019-01-05T21:00:00Z,49.73,-111.45,6.4,-2.6,140,11,,,,,,TRUE,TRUE,,,,,,,,,,,,,,,,,,,,,,,,,,,METAR,817.0
CWBU 052100Z AUTO 08005KT M12/M15 RMK AO1 SOG 13 1005 SLP227 T11241153,CWBU,2019-01-05T21:00:00Z,53.33,-104.02,-12.4,-15.3,80,5,,,,1022.7,,TRUE,TRUE,,,,,,,,,,,,,,,,,,,,,,,,,,,METAR,373.0
CWDK 052100Z AUTO 17004KT 07/M06 RMK AO1 SLP071 T00681059 57024,CWDK,2019-01-05T21:00:00Z,50.02,-113.62,6.8,-5.9,170,4,,,,1007.1,,TRUE,TRUE,,,,,,,,,,,,,,,,-2.4,,,,,,,,,,,METAR,1012.0
CWDJ 052100Z AUTO 16002KT M04/M06 RMK AO1 SOG 01 6005 SLP190 T10371061,CWDJ,2019-01-05T21:00:00Z,50.4,-104.58,-3.7,-6.1,160,2,,,,1019.0,,TRUE,TRUE,,,,,,,,,,,,,,,,,,,,,,,,,,,METAR,573.0
CWCO 052100Z AUTO 14002KT 04/M00 RMK AO1 SLP053 T00391003 58002,CWCO,2019-01-05T21:00:00Z,44.45,-80.17,3.9,-0.3,140,2,,,,1005.3,,TRUE,TRUE,,,,,,,,,,,,,,,,-0.2,,,,,,,,,,,METAR,221.0
CWCJ 052100Z AUTO 36004KT M01/M02 RMK AO1 2PAST HR SOG 20 3025 SLP080 P0001 T10071020 50002,CWCJ,2019-01-05T21:00:00Z,48.6,-86.28,-0.7,-2.0,360,4,,,,1008.0,,TRUE,TRUE,,,,,,,,,,,,,,,,0.2,,,,,0.01,,,,,,METAR,206.0
CWCF 052100Z AUTO 32008KT M13/M16 RMK AO1 SOG 14 3029 SLP217 T11261156,CWCF,2019-01-05T21:00:00Z,52.35,-97.03,-12.6,-15.6,320,8,,,,1021.7,,TRUE,TRUE,,,,,,,,,,,,,,,,,,,,,,,,,,,METAR,222.0
CWBZ 052100Z AUTO 30004KT 02/M00 RMK AO1 SLP043 T00181003 53011,CWBZ,2019-01-05T21:00:00Z,45.12,-74.27,1.8,-0.3,300,4,,,,1004.3,,TRUE,TRUE,,,,,,,,,,,,,,,,1.1,,,,,,,,,,,METAR,49.0
CWBS 052100Z AUTO 04004KT 01/M00 RMK AO1 T00121004,CWBS,2019-01-05T21:00:00Z,46.18,-72.92,1.2,-0.4,40,4,,,,,,TRUE,TRUE,,,,,,,,,,,,,,,,,,,,,,,,,,,METAR,16.0
CWBO 052100Z AUTO 10003KT M04/M04 RMK AO1 SLP121 T10361042 57022,CWBO,2019-01-05T21:00:00Z,50.53,-111.83,-3.6,-4.2,100,3,,,,1012.1,,TRUE,TRUE,,,,,,,,,,,,,,,,-2.2,,,,,,,,,,,METAR,747.0
CWAV 052100Z AUTO 08004KT M06/M07 RMK AO1 SLP088 T10571070 58022,CWAV,2019-01-05T21:00:00Z,51.77,-114.67,-5.7,-7.0,80,4,,,,1008.8,,TRUE,TRUE,,,,,,,,,,,,,,,,-2.2,,,,,,,,,,,METAR,1114.0
CWAQ 052100Z AUTO 13006KT M04/M05 RMK AO1 SOG 01 6007 SLP167 T10441050,CWAQ,2019-01-05T21:00:00Z,49.05,-105.48,-4.4,-5.0,130,6,,,,1016.7,,TRUE,TRUE,,,,,,,,,,,,,,,,,,,,,,,,,,,METAR,756.0
CWAF 052100Z AUTO 00000KT M00/M01 RMK AO1 T10021008,CWAF,2019-01-05T21:00:00Z,48.07,-69.53,-0.2,-0.8,0,0,,,,,,TRUE,TRUE,,,,,,,,,,,,,,,,,,,,,,,,,,,METAR,5.0
CZMJ 052100Z AUTO 13007KT M02/M04 RMK AO1 SLP192 T10211041 55004,CZMJ,2019-01-05T21:00:00Z,50.33,-105.57,-2.1,-4.1,130,7,,,,1019.2,,TRUE,TRUE,,,,,,,,,,,,,,,,-0.4,,,,,,,,,,,METAR,577.0
CXRL 052100Z AUTO 12009KT M10/M10 RMK AO1 T10991099,CXRL,2019-01-05T21:00:00Z,54.5,-111.7,-9.9,-9.9,120,9,,,,,,TRUE,TRUE,,,,,,,,,,,,,,,,,,,,,,,,,,,METAR,585.0
CXPA 052100Z AUTO 09003KT M07/M08 RMK AO1 T10671080,CXPA,2019-01-05T21:00:00Z,55.62,-118.3,-6.7,-8.0,90,3,,,,,,TRUE,TRUE,,,,,,,,,,,,,,,,,,,,,,,,,,,METAR,621.0
CXOY 052100Z AUTO 13012KT M04/M04 RMK AO1 T10401041,CXOY,2019-01-05T21:00:00Z,51.38,-110.35,-4.0,-4.1,130,12,,,,,,TRUE,TRUE,,,,,,,,,,,,,,,,,,,,,,,,,,,METAR,767.0
CXKM 052100Z AUTO 15012KT M04/M05 RMK AO1 PK WND 15019/2037 T10351046,CXKM,2019-01-05T21:00:00Z,52.82,-111.85,-3.5,-4.6,150,12,,,,,,TRUE,TRUE,,,,,,,,,,,,,,,,,,,,,,,,,,,METAR,675.0
CXHR 052100Z AUTO 12009KT M06/M06 RMK AO1 T10601060,CXHR,2019-01-05T21:00:00Z,51.18,-112.5,-6.0,-6.0,120,9,,,,,,TRUE,TRUE,,,,,,,,,,,,,,,,,,,,,,,,,,,METAR,971.0
CXFR 052100Z AUTO 09009KT M07/M08 RMK AO1 T10681083,CXFR,2019-01-05T21:00:00Z,56.08,-118.43,-6.8,-8.3,90,9,,,,,,TRUE,TRUE,,,,,,,,,,,,,,,,,,,,,,,,,,,METAR,655.0
CXCS 052100Z AUTO 14013KT M04/M05 RMK AO1 T10431054,CXCS,2019-01-05T21:00:00Z,51.93,-110.72,-4.3,-5.4,140,13,,,,,,TRUE,TRUE,,,,,,,,,,,,,,,,,,,,,,,,,,,METAR,772.0
CXCP 052100Z AUTO 10008KT M01/M05 RMK AO1 T10101052,CXCP,2019-01-05T21:00:00Z,50.28,-113.35,-1.0,-5.2,100,8,,,,,,TRUE,TRUE,,,,,,,,,,,,,,,,,,,,,,,,,,,METAR,1006.0
CXCD 052100Z AUTO 11008KT M08/M09 RMK AO1 T10841094,CXCD,2019-01-05T21:00:00Z,56.32,-119.75,-8.4,-9.4,110,8,,,,,,TRUE,TRUE,,,,,,,,,,,,,,,,,,,,,,,,,,,METAR,630.0
CXBR 052100Z AUTO 26009KT 06/M04 RMK AO1 T00561035,CXBR,2019-01-05T21:00:00Z,49.62,-113.82,5.6,-3.5,260,9,,,,,,TRUE,TRUE,,,,,,,,,,,,,,,,,,,,,,,,,,,METAR,1073.0
CXVW 052100Z AUTO 14015KT M04/M06 RMK AO1 PK WND 14021/2041 T10381058,CXVW,2019-01-05T21:00:00Z,55.1,-117.2,-3.8,-5.8,140,15,,,,,,TRUE,TRUE,,,,,,,,,,,,,,,,,,,,,,,,,,,METAR,698.0
CXTH 052100Z AUTO 09009KT M07/M07 RMK AO1 T10671069,CXTH,2019-01-05T21:00:00Z,53.63,-111.68,-6.7,-6.9,90,9,,,,,,TRUE,TRUE,,,,,,,,,,,,,,,,,,,,,,,,,,,METAR,678.0
CXSP 052100Z AUTO 13007KT M08/M09 RMK AO1 T10821090,CXSP,2019-01-05T21:00:00Z,54.02,-111.27,-8.2,-9.0,130,7,,,,,,TRUE,TRUE,,,,,,,,,,,,,,,,,,,,,,,,,,,METAR,649.0
CXSL 052100Z AUTO 12006KT M07/M08 RMK AO1 T10721079,CXSL,2019-01-05T21:00:00Z,54.28,-112.5,-7.2,-7.9,120,6,,,,,,TRUE,TRUE,,,,,,,,,,,,,,,,,,,,,,,,,,,METAR,680.0
CXSC 052100Z AUTO 09004KT M03/M03 RMK AO1 T10301030 50004,CXSC,2019-01-05T21:00:00Z,50.3,-110.08,-3.0,-3.0,90,4,,,,,,TRUE,TRUE,,,,,,,,,,,,,,,,0.4,,,,,,,,,,,METAR,800.0
CXPL 052100Z AUTO 12010KT M04/M04 RMK AO1 T10421043,CXPL,2019-01-05T21:00:00Z,51.13,-111.7,-4.2,-4.3,120,10,,,,,,TRUE,TRUE,,,,,,,,,,,,,,,,,,,,,,,,,,,METAR,750.0
CXMG 052100Z AUTO 36001KT M10/M12 RMK AO1 T11031117,CXMG,2019-01-05T21:00:00Z,56.97,-117.45,-10.3,-11.7,360,1,,,,,,TRUE,TRUE,,,,,,,,,,,,,,,,,,,,,,,,,,,METAR,457.0
CXHD 052100Z AUTO 14013KT M04/M05 RMK AO1 PK WND 14020/2039 T10431052,CXHD,2019-01-05T21:00:00Z,53.18,-112.25,-4.3,-5.2,140,13,,,,,,TRUE,TRUE,,,,,,,,,,,,,,,,,,,,,,,,,,,METAR,688.0
CXFM 052100Z AUTO 12013KT 07/M04 RMK AO1 T00711039,CXFM,2019-01-05T21:00:00Z,49.48,-111.48,7.1,-3.9,120,13,,,,,,TRUE,TRUE,,,,,,,,,,,,,,,,,,,,,,,,,,,METAR,881.0
CPXL 052100Z AUTO 13009KT 06/M03 RMK AO1 T00591027,CPXL,2019-01-05T21:00:00Z,49.87,-111.38,5.9,-2.7,130,9,,,,,,TRUE,TRUE,,,,,,,,,,,,,,,,,,,,,,,,,,,METAR,799.0
CPSV 052100Z AUTO 07006KT 04/M02 RMK AO1 T00361023,CPSV,2019-01-05T21:00:00Z,49.92,-110.92,3.6,-2.3,70,6,,,,,,TRUE,TRUE,,,,,,,,,,,,,,,,,,,,,,,,,,,METAR,766.0
CPST 052100Z AUTO 12006KT M06/M06 RMK AO1 T10581063,CPST,2019-01-05T21:00:00Z,51.03,-113.28,-5.8,-6.3,120,6,,,,,,TRUE,TRUE,,,,,,,,,,,,,,,,,,,,,,,,,,,METAR,967.0
CPRY 052100Z AUTO 13004KT 06/M03 RMK AO1 T00601034,CPRY,2019-01-05T21:00:00Z,49.48,-112.68,6.0,-3.4,130,4,,,,,,TRUE,TRUE,,,,,,,,,,,,,,,,,,,,,,,,,,,METAR,937.0
CPRO 052100Z AUTO 10004KT M05/M05 RMK AO1 T10461052,CPRO,2019-01-05T21:00:00Z,50.83,-112.05,-4.6,-5.2,100,4,,,,,,TRUE,TRUE,,,,,,,,,,,,,,,,,,,,,,,,,,,METAR,714.0
CPFI 052100Z AUTO 07004KT 04/M02 RMK AO1 T00381015,CPFI,2019-01-05T21:00:00Z,49.8,-112.03,3.8,-1.5,70,4,,,,,,TRUE,TRUE,,,,,,,,,,,,,,,,,,,,,,,,,,,METAR,833.0
CPEH 052100Z AUTO 08004KT M05/M05 RMK AO1 T10481052,CPEH,2019-01-05T21:00:00Z,50.18,-112.43,-4.8,-5.2,80,4,,,,,,TRUE,TRUE,,,,,,,,,,,,,,,,,,,,,,,,,,,METAR,801.0
CWDV 052100Z AUTO 31007KT M04/M07 RMK AO1 SOG 31 3037 SLP128 T10361073,CWDV,2019-01-05T21:00:00Z,49.02,-90.47,-3.6,-7.3,310,7,,,,1012.8,,TRUE,TRUE,,,,,,,,,,,,,,,,,,,,,,,,,,,METAR,489.0
CWDQ 052100Z AUTO 00000KT M01/M02 RMK AO1 SOG 40 6002 SLP038 T10121016,CWDQ,2019-01-05T21:00:00Z,47.42,-72.78,-1.2,-1.6,0,0,,,,1003.8,,TRUE,TRUE,,,,,,,,,,,,,,,,,,,,,,,,,,,METAR,169.0
CWNZ 052100Z AUTO 36004KT M04/M06 RMK AO1 SOG 38 3022 SLP090 T10411058 50001,CWNZ,2019-01-05T21:00:00Z,49.75,-84.17,-4.1,-5.8,360,4,,,,1009.0,,TRUE,TRUE,,,,,,,,,,,,,,,,0.1,,,,,,,,,,,METAR,256.0
CWNC 052100Z AUTO 26006KT 02/M00 RMK AO1 SOG 01 1017 SLP060 T00201003,CWNC,2019-01-05T21:00:00Z,43.95,-78.17,2.0,-0.3,260,6,,,,1006.0,,TRUE,TRUE,,,,,,,,,,,,,,,,,,,,,,,,,,,METAR,78.0
CWPO 052100Z AUTO 01005KT M05/M07 RMK AO1 SLP222 T10451068 53019,CWPO,2019-01-05T21:00:00Z,49.2,-98.9,-4.5,-6.8,10,5,,,,1022.2,,TRUE,TRUE,,,,,,,,,,,,,,,,1.9,,,,,,,,,,,METAR,470.0
CWPC 052100Z AUTO 27017KT 02/00 RMK AO1 PK WND 27020/2054 SLP083 T00200000 53016,CWPC,2019-01-05T21:00:00Z,42.87,-79.25,2.0,0.0,270,17,,,,1008.3,,TRUE,TRUE,,,,,,,,,,,,,,,,1.6,,,,,,,,,,,METAR,184.0
CWLS 052100Z AUTO 21005KT 03/M00 RMK AO1 SOG 05 0004 SLP059 T00261002,CWLS,2019-01-05T21:00:00Z,43.97,-80.75,2.6,-0.2,210,5,,,,1005.9,,TRUE,TRUE,,,,,,,,,,,,,,,,,,,,,,,,,,,METAR,415.0
CWBE 052100Z AUTO 11005KT M00/M02 RMK AO1 SLP062 T10031015 56002,CWBE,2019-01-05T21:00:00Z,45.98,-81.48,-0.3,-1.5,110,5,,,,1006.2,,TRUE,TRUE,,,,,,,,,,,,,,,,-0.2,,,,,,,,,,,METAR,196.0
CTCK 052100Z AUTO 17003KT 01/M00 RMK AO1 SOG 06 3003 SLP040 T00121003 50002,CTCK,2019-01-05T21:00:00Z,45.25,-74.97,1.2,-0.3,170,3,,,,1004.0,,TRUE,TRUE,,,,,,,,,,,,,,,,0.2,,,,,,,,,,,METAR,85.0
CWGM 052100Z AUTO 22009KT 05/M03 RMK AO1 PK WND 22018/2000 T00451033,CWGM,2019-01-05T21:00:00Z,49.13,-113.78,4.5,-3.3,220,9,,,,,,TRUE,TRUE,,,,,,,,,,,,,,,,,,,,,,,,,,,METAR,1296.0
CWGB 052100Z AUTO 09012KT 08/05 RMK AO1 PRESFR SLP953 T00840051 58043,CWGB,2019-01-05T21:00:00Z,49.35,-124.17,8.4,5.1,90,12,,,,995.3,,TRUE,TRUE,,,,,,,,,,,,,,,,-4.3,,,,,,,,,,,METAR,5.0
CWFJ 052100Z AUTO 06001KT 05/M02 RMK AO1 T00501024,CWFJ,2019-01-05T21:00:00Z,49.2,-113.27,5.0,-2.4,60,1,,,,,,TRUE,TRUE,,,,,,,,,,,,,,,,,,,,,,,,,,,METAR,1136.0
CWFF 052100Z AUTO 09004KT M11/M13 RMK AO1 SOG 15 3004 SLP222 T11111133,CWFF,2019-01-05T21:00:00Z,52.82,-104.58,-11.1,-13.3,90,4,,,,1022.2,,TRUE,TRUE,,,,,,,,,,,,,,,,,,,,,,,,,,,METAR,490.0
CWEZ 052100Z AUTO 09004KT RMK AO1 58041,CWEZ,2019-01-05T21:00:00Z,48.78,-123.05,,,90,4,,,,,,TRUE,TRUE,,,,,,,,,,,,,,,,-4.1,,,,,,,,,,,METAR,7.0
CWEW 052100Z AUTO 32003KT 02/M00 RMK AO1 SOG 09 3004 SLP046 T00181001,CWEW,2019-01-05T21:00:00Z,45.82,-73.43,1.8,-0.1,320,3,,,,1004.6,,TRUE,TRUE,,,,,,,,,,,,,,,,,,,,,,,,,,,METAR,21.0
CWEL 052100Z AUTO 18010KT 08/05 RMK AO1 PRESFR SLP958 T00750050 58045,CWEL,2019-01-05T21:00:00Z,49.22,-123.78,7.5,5.0,180,10,,,,995.8,,TRUE,TRUE,,,,,,,,,,,,,,,,-4.5,,,,,,,,,,,METAR,5.0
CWEB 052100Z AUTO 11011G20KT 07/07 RMK AO1 4PAST HR 8049 PK WND 11020/2052 SLP925 P0002 T00720067 50010,CWEB,2019-01-05T21:00:00Z,49.38,-126.55,7.2,6.7,110,11,20,,,992.5,,TRUE,TRUE,,,,,,,,,,,,,,,,1.0,,,,,0.02,,,,,,METAR,7.0
CWMQ 052100Z AUTO 18011KT 06/M06 RMK AO1 SLP121 T00641059 58022,CWMQ,2019-01-05T21:00:00Z,49.9,-109.47,6.4,-5.9,180,11,,,,1012.1,,TRUE,TRUE,,,,,,,,,,,,,,,,-2.2,,,,,,,,,,,METAR,767.0
CWMM 052100Z AUTO 09/05 RMK AO1 SLP962 T00940047 58044,CWMM,2019-01-05T21:00:00Z,49.22,-122.68,9.4,4.7,,,,,,996.2,,TRUE,TRUE,,,,,,,,,,,,,,,,-4.4,,,,,,,,,,,METAR,5.0
CWMJ 052100Z AUTO 00000KT 01/M01 RMK AO1 SOG 19 3006 SLP046 T00101007,CWMJ,2019-01-05T21:00:00Z,46.27,-76.0,1.0,-0.7,0,0,,,,1004.6,,TRUE,TRUE,,,,,,,,,,,,,,,,,,,,,,,,,,,METAR,200.0
CWLM 052100Z AUTO 02009KT 07/04 RMK AO1 SLP957 T00730042 58039,CWLM,2019-01-05T21:00:00Z,48.42,-123.32,7.3,4.2,20,9,,,,995.7,,TRUE,TRUE,,,,,,,,,,,,,,,,-3.9,,,,,,,,,,,METAR,70.0
CWLE 052100Z AUTO 15014KT M04/M05 RMK AO1 SOG 14 8014 PK WND 14017/2031 SLP167 T10361050,CWLE,2019-01-05T21:00:00Z,50.95,-107.15,-3.6,-5.0,150,14,,,,1016.7,,TRUE,TRUE,,,,,,,,,,,,,,,,,,,,,,,,,,,METAR,665.0
CWLC 052100Z AUTO 33006KT 04/03 RMK AO1 T00380026,CWLC,2019-01-05T21:00:00Z,54.3,-130.62,3.8,2.6,330,6,,,,,,TRUE,TRUE,,,,,,,,,,,,,,,,,,,,,,,,,,,METAR,27.0
CWKX 052100Z AUTO 00000KT M17/M20 RMK AO1 SOG 29 8007 SLP117 T11701198,CWKX,2019-01-05T21:00:00Z,58.43,-130.02,-17.0,-19.8,0,0,,,,1011.7,,TRUE,TRUE,,,,,,,,,,,,,,,,,,,,,,,,,,,METAR,793.0
CWKH 052100Z AUTO 05/03 RMK AO1 SLP949 T00510026 57040,CWKH,2019-01-05T21:00:00Z,48.57,-123.55,5.1,2.6,,,,,,994.9,,TRUE,TRUE,,,,,,,,,,,,,,,,-4.0,,,,,,,,,,,METAR,366.0
CWJX 052100Z AUTO 11011KT M02/M04 RMK AO1 SOG 02 7020 SLP136 T10241039,CWJX,2019-01-05T21:00:00Z,50.88,-109.5,-2.4,-3.9,110,11,,,,1013.6,,TRUE,TRUE,,,,,,,,,,,,,,,,,,,,,,,,,,,METAR,672.0
CWJW 052100Z AUTO 24001KT 00/M02 RMK AO1 3PAST HR SOG 19 8030 SLP047 P0001 T00001019 50003,CWJW,2019-01-05T21:00:00Z,52.93,-118.03,0.0,-1.9,240,1,,,,1004.7,,TRUE,TRUE,,,,,,,,,,,,,,,,0.3,,,,,0.01,,,,,,METAR,1020.0
CWJV 052100Z AUTO 05001KT 02/M00 RMK AO1 SLP035 T00191002 58044,CWJV,2019-01-05T21:00:00Z,50.22,-119.18,1.9,-0.2,50,1,,,,1003.5,,TRUE,TRUE,,,,,,,,,,,,,,,,-4.4,,,,,,,,,,,METAR,556.0
CWJT 052100Z AUTO 00000KT M00/M00 RMK AO1 SLP044 T10041001 51006,CWJT,2019-01-05T21:00:00Z,46.07,-74.57,-0.4,-0.1,0,0,,,,1004.4,,TRUE,TRUE,,,,,,,,,,,,,,,,0.6,,,,,,,,,,,METAR,239.0
CWJR 052100Z AUTO 29001KT 04/01 RMK AO1 SLP079 T00400012 58033,CWJR,2019-01-05T21:00:00Z,49.07,-116.5,4.0,1.2,290,1,,,,1007.9,,TRUE,TRUE,,,,,,,,,,,,,,,,-3.3,,,,,,,,,,,METAR,646.0
CWJI 052100Z AUTO 13003KT M05/M06 RMK AO1 SLP176 T10491061 56010,CWJI,2019-01-05T21:00:00Z,49.72,-105.92,-4.9,-6.1,130,3,,,,1017.6,,TRUE,TRUE,,,,,,,,,,,,,,,,-1.0,,,,,,,,,,,METAR,724.0
CWST 052100Z AUTO 06001KT M01/M01 RMK AO1 SOG 16 7002 SLP031 T10071007,CWST,2019-01-05T21:00:00Z,47.35,-70.02,-0.7,-0.7,60,1,,,,1003.1,,TRUE,TRUE,,,,,,,,,,,,,,,,,,,,,,,,,,,METAR,31.0
CWSP 052100Z AUTO 09002KT 08/05 RMK AO1 SLP958 T00840052 56039,CWSP,2019-01-05T21:00:00Z,48.38,-123.92,8.4,5.2,90,2,,,,995.8,,TRUE,TRUE,,,,,,,,,,,,,,,,-3.9,,,,,,,,,,,METAR,21.0
CWSL 052100Z AUTO 04001KT 02/01 RMK AO1 SOG 05 8041 SLP044 T00210006,CWSL,2019-01-05T21:00:00Z,50.7,-119.27,2.1,0.6,40,1,,,,1004.4,,TRUE,TRUE,,,,,,,,,,,,,,,,,,,,,,,,,,,METAR,351.0
CWSG 052100Z AUTO 14002KT M02/M03 RMK AO1 SLP045 T10181031 56008,CWSG,2019-01-05T21:00:00Z,49.12,-66.65,-1.8,-3.1,140,2,,,,1004.5,,TRUE,TRUE,,,,,,,,,,,,,,,,-0.8,,,,,,,,,,,METAR,5.0
CWSD 052100Z AUTO 08004KT M02/M03 RMK AO1 SOG 16 5009 SLP051 T10191028,CWSD,2019-01-05T21:00:00Z,46.42,-63.85,-1.9,-2.8,80,4,,,,1005.1,,TRUE,TRUE,,,,,,,,,,,,,,,,,,,,,,,,,,,METAR,24.0
CWRZ 052100Z AUTO 05004KT 03/03 RMK AO1 SLP066 T00340029 56003,CWRZ,2019-01-05T21:00:00Z,48.42,-64.32,3.4,2.9,50,4,,,,1006.6,,TRUE,TRUE,,,,,,,,,,,,,,,,-0.3,,,,,,,,,,,METAR,16.0
CWRT 052100Z AUTO 31003KT 04/M03 RMK AO1 T00371032,CWRT,2019-01-05T21:00:00Z,49.62,-114.47,3.7,-3.2,310,3,,,,,,TRUE,TRUE,,,,,,,,,,,,,,,,,,,,,,,,,,,METAR,1303.0
CWRK 052100Z AUTO 20001KT 01/M00 RMK AO1 SOG 15 0006 SLP048 T00121003,CWRK,2019-01-05T21:00:00Z,45.07,-77.87,1.2,-0.3,200,1,,,,1004.8,,TRUE,TRUE,,,,,,,,,,,,,,,,,,,,,,,,,,,METAR,331.0
CWRJ 052100Z AUTO 07011KT M05/M06 RMK AO1 SOG 07 6016 SLP167 T10501062,CWRJ,2019-01-05T21:00:00Z,51.57,-107.92,-5.0,-6.2,70,11,,,,1016.7,,TRUE,TRUE,,,,,,,,,,,,,,,,,,,,,,,,,,,METAR,586.0
CWQP 052100Z AUTO 30008KT 03/00 RMK AO1 SLP063 T00290000 53021,CWQP,2019-01-05T21:00:00Z,43.83,-77.15,2.9,0.0,300,8,,,,1006.3,,TRUE,TRUE,,,,,,,,,,,,,,,,2.1,,,,,,,,,,,METAR,79.0
CWQO 052100Z AUTO 01002KT M01/M02 RMK AO1 T10081019,CWQO,2019-01-05T21:00:00Z,48.42,-68.9,-0.8,-1.9,10,2,,,,,,TRUE,TRUE,,,,,,,,,,,,,,,,,,,,,,,,,,,METAR,1.0
CWQK 052100Z AUTO 04015KT 08/03 RMK AO1 PK WND 04018/2056 SLP952 T00750033 58045,CWQK,2019-01-05T21:00:00Z,48.3,-123.53,7.5,3.3,40,15,,,,995.2,,TRUE,TRUE,,,,,,,,,,,,,,,,-4.5,,,,,,,,,,,METAR,5.0
CWQH 052100Z AUTO 19001KT 02/M02 RMK AO1 SOG 09 T00161018,CWQH,2019-01-05T21:00:00Z,45.37,-71.82,1.6,-1.8,190,1,,,,,,TRUE,TRUE,,,,,,,,,,,,,,,,,,,,,,,,,,,METAR,181.0
CWRN 052100Z AUTO 09004KT 02/02 RMK AO1 SLP056 T00230021 56015,CWRN,2019-01-05T21:00:00Z,45.35,-60.98,2.3,2.1,90,4,,,,1005.6,,TRUE,TRUE,,,,,,,,,,,,,,,,-1.5,,,,,,,,,,,METAR,8.0
CWBV 052100Z AUTO 06006KT 02/02 RMK AO1 SLP039 T00190017 58022,CWBV,2019-01-05T21:00:00Z,44.82,-62.32,1.9,1.7,60,6,,,,1003.9,,TRUE,TRUE,,,,,,,,,,,,,,,,-2.2,,,,,,,,,,,METAR,10.0
CWBY 052100Z AUTO 11006KT M03/M04 RMK AO1 SOG 23 0000 SLP060 T10331044,CWBY,2019-01-05T21:00:00Z,49.82,-64.28,-3.3,-4.4,110,6,,,,1006.0,,TRUE,TRUE,,,,,,,,,,,,,,,,,,,,,,,,,,,METAR,53.0
CWNH 052100Z AUTO 20001KT M00/M02 RMK AO1 SOG 18 6004 SLP039 T10041015,CWNH,2019-01-05T21:00:00Z,47.78,-69.53,-0.4,-1.5,200,1,,,,1003.9,,TRUE,TRUE,,,,,,,,,,,,,,,,,,,,,,,,,,,METAR,148.0
CWER 052100Z AUTO 03005KT RMK AO1,CWER,2019-01-05T21:00:00Z,47.0,-70.82,,,30,5,,,,,,TRUE,TRUE,,,,,,,,,,,,,,,,,,,,,,,,,,,METAR,5.0
CWEP 052100Z AUTO 02/01 RMK AO1 SOG 51 7012 T00210014,CWEP,2019-01-05T21:00:00Z,46.45,-61.97,2.1,1.4,,,,,,,,TRUE,TRUE,,,,,,,,,,,,,,,,,,,,,,,,,,,METAR,11.0
CWPK 052100Z AUTO 28002KT M01/M03 RMK AO1 SOG 41 3008 SLP044 T10111029,CWPK,2019-01-05T21:00:00Z,47.92,-74.62,-1.1,-2.9,280,2,,,,1004.4,,TRUE,TRUE,,,,,,,,,,,,,,,,,,,,,,,,,,,METAR,442.0
CWMT 052100Z AUTO 10002KT M17/M19 RMK AO1 SOG 22 0000 SLP148 T11721193,CWMT,2019-01-05T21:00:00Z,63.13,-117.25,-17.2,-19.3,100,2,,,,1014.8,,TRUE,TRUE,,,,,,,,,,,,,,,,,,,,,,,,,,,METAR,271.0
CWZW 052100Z AUTO 28003KT M18/M23 RMK AO1 SOG 21 8005 SLP124 T11831226,CWZW,2019-01-05T21:00:00Z,60.17,-132.73,-18.3,-22.6,280,3,,,,1012.4,,TRUE,TRUE,,,,,,,,,,,,,,,,,,,,,,,,,,,METAR,705.0
CWVT 052100Z AUTO 13006KT M17/M20 RMK AO1 SOG 26 8014 SLP223 T11711200,CWVT,2019-01-05T21:00:00Z,55.82,-108.42,-17.1,-20.0,130,6,,,,1022.3,,TRUE,TRUE,,,,,,,,,,,,,,,,,,,,,,,,,,,METAR,434.0
CWOY 052100Z AUTO 10005KT M10/M12 RMK AO1 SOG 02 1003 SLP209 T10961115,CWOY,2019-01-05T21:00:00Z,51.77,-104.2,-9.6,-11.5,100,5,,,,1020.9,,TRUE,TRUE,,,,,,,,,,,,,,,,,,,,,,,,,,,METAR,560.0
CWKO 052100Z AUTO 13006KT M05/M06 RMK AO1 SOG 15 6008 SLP166 T10531061,CWKO,2019-01-05T21:00:00Z,49.17,-105.97,-5.3,-6.1,130,6,,,,1016.6,,TRUE,TRUE,,,,,,,,,,,,,,,,,,,,,,,,,,,METAR,917.0
CWEH 052100Z AUTO 15005KT 03/M05 RMK AO1 SLP121 T00271053 58019,CWEH,2019-01-05T21:00:00Z,49.42,-108.97,2.7,-5.3,150,5,,,,1012.1,,TRUE,TRUE,,,,,,,,,,,,,,,,-1.9,,,,,,,,,,,METAR,1078.0
CWDC 052100Z AUTO 22002KT M21/M24 RMK AO1 SOG 31 3002 SLP219 T12091235,CWDC,2019-01-05T21:00:00Z,59.57,-108.47,-20.9,-23.5,220,2,,,,1021.9,,TRUE,TRUE,,,,,,,,,,,,,,,,,,,,,,,,,,,METAR,318.0
CWRO 052100Z AUTO 01009KT 03/M00 RMK AO1 SLP981 T00301002 58018,CWRO,2019-01-05T21:00:00Z,54.17,-131.67,3.0,-0.2,10,9,,,,998.1,,TRUE,TRUE,,,,,,,,,,,,,,,,-1.8,,,,,,,,,,,METAR,7.0
CWLP 052100Z AUTO 35013KT 05/04 RMK AO1 4PAST HR 8036 SLP950 P0005 T00520038 50034,CWLP,2019-01-05T21:00:00Z,50.93,-127.63,5.2,3.8,350,13,,,,995.0,,TRUE,TRUE,,,,,,,,,,,,,,,,3.4,,,,,0.05,,,,,,METAR,17.0
CWJD 052100Z AUTO 32005KT M13/M19 RMK AO1 SOG 15 3014 SLP231 T11321188,CWJD,2019-01-05T21:00:00Z,53.17,-99.27,-13.2,-18.8,320,5,,,,1023.1,,TRUE,TRUE,,,,,,,,,,,,,,,,,,,,,,,,,,,METAR,223.0
CWEQ 052100Z AUTO 04008KT M12/M14 RMK AO1 SOG 12 3015 SLP226 T11181140,CWEQ,2019-01-05T21:00:00Z,52.12,-101.22,-11.8,-14.0,40,8,,,,1022.6,,TRUE,TRUE,,,,,,,,,,,,,,,,,,,,,,,,,,,METAR,335.0
CWLB 052100Z AUTO 15005KT M08/M10 RMK AO1 SOG 21 8018 SLP148 T10811103,CWLB,2019-01-05T21:00:00Z,54.77,-112.02,-8.1,-10.3,150,5,,,,1014.8,,TRUE,TRUE,,,,,,,,,,,,,,,,,,,,,,,,,,,METAR,567.0
CWCT 052100Z AUTO 13010KT M04/M04 RMK AO1 SOG 02 6019 SLP134 T10401035,CWCT,2019-01-05T21:00:00Z,52.07,-111.47,-4.0,-3.5,130,10,,,,1013.4,,TRUE,TRUE,,,,,,,,,,,,,,,,,,,,,,,,,,,METAR,791.0
CWPZ 052100Z AUTO 13002KT M03/M05 RMK AO1 SOG 36 7028 SLP995 T10331047,CWPZ,2019-01-05T21:00:00Z,54.38,-125.97,-3.3,-4.7,130,2,,,,999.5,,TRUE,TRUE,,,,,,,,,,,,,,,,,,,,,,,,,,,METAR,713.0
CWPE 052100Z AUTO 07005KT 03/02 RMK AO1 SOG 01 6006 SLP030 T00310017,CWPE,2019-01-05T21:00:00Z,45.07,-66.47,3.1,1.7,70,5,,,,1003.0,,TRUE,TRUE,,,,,,,,,,,,,,,,,,,,,,,,,,,METAR,1.0
CWPD 052100Z AUTO 00000KT M04/M05 RMK AO1 SLP019 T10391049 57005,CWPD,2019-01-05T21:00:00Z,47.57,-71.22,-3.9,-4.9,0,0,,,,1001.9,,TRUE,TRUE,,,,,,,,,,,,,,,,-0.5,,,,,,,,,,,METAR,803.0
CWOE 052100Z AUTO 11008KT 04/M05 RMK AO1 SLP108 T00441046 56022,CWOE,2019-01-05T21:00:00Z,49.12,-110.47,4.4,-4.6,110,8,,,,1010.8,,TRUE,TRUE,,,,,,,,,,,,,,,,-2.2,,,,,,,,,,,METAR,935.0
CWOD 052100Z AUTO 35004KT M00/M03 RMK AO1 SOG 34 3005 SLP027 T10041033,CWOD,2019-01-05T21:00:00Z,48.85,-72.55,-0.4,-3.3,350,4,,,,1002.7,,TRUE,TRUE,,,,,,,,,,,,,,,,,,,,,,,,,,,METAR,137.0
CWOC 052100Z AUTO 10005KT M03/M04 RMK AO1 SLP061 T10311035 56004,CWOC,2019-01-05T21:00:00Z,48.02,-65.32,-3.1,-3.5,100,5,,,,1006.1,,TRUE,TRUE,,,,,,,,,,,,,,,,-0.4,,,,,,,,,,,METAR,47.0
CWNP 052100Z AUTO 14001KT 02/M00 RMK AO1 SOG 14 8036 SLP063 T00181001,CWNP,2019-01-05T21:00:00Z,50.27,-117.82,1.8,-0.1,140,1,,,,1006.3,,TRUE,TRUE,,,,,,,,,,,,,,,,,,,,,,,,,,,METAR,524.0
CWNK 052100Z AUTO 35009KT M06/M09 RMK AO1 T10591087,CWNK,2019-01-05T21:00:00Z,49.5,-98.03,-5.9,-8.7,350,9,,,,,,TRUE,TRUE,,,,,,,,,,,,,,,,,,,,,,,,,,,METAR,268.0
CWNE 052100Z AUTO 07005KT M02/M02 RMK AO1 SLP056 T10161022 58008,CWNE,2019-01-05T21:00:00Z,47.07,-64.0,-1.6,-2.2,70,5,,,,1005.6,,TRUE,TRUE,,,,,,,,,,,,,,,,-0.8,,,,,,,,,,,METAR,15.0
CWXA 052100Z AUTO 25008G15KT 02/M08 RMK AO1 SLP052 T00221080 56028,CWXA,2019-01-05T21:00:00Z,51.07,-115.07,2.2,-8.0,250,8,15,,,1005.2,,TRUE,TRUE,,,,,,,,,,,,,,,,-2.8,,,,,,,,,,,METAR,1298.0
CWVQ 052100Z AUTO 31003KT 02/M00 RMK AO1 SOG 02 3008 SLP042 T00191003,CWVQ,2019-01-05T21:00:00Z,45.42,-73.92,1.9,-0.3,310,3,,,,1004.2,,TRUE,TRUE,,,,,,,,,,,,,,,,,,,,,,,,,,,METAR,39.0
CWVP 052100Z AUTO 17006KT 01/M07 RMK AO1 SOG 12 8017 SLP106 T00081073,CWVP,2019-01-05T21:00:00Z,49.63,-109.52,0.8,-7.3,170,6,,,,1010.6,,TRUE,TRUE,,,,,,,,,,,,,,,,,,,,,,,,,,,METAR,1271.0
CWVN 052100Z AUTO 09006KT M01/M04 RMK AO1 SLP141 T10061040 56018,CWVN,2019-01-05T21:00:00Z,49.07,-107.57,-0.6,-4.0,90,6,,,,1014.1,,TRUE,TRUE,,,,,,,,,,,,,,,,-1.8,,,,,,,,,,,METAR,785.0
CWVI 052100Z AUTO 15010G15KT M04/M06 RMK AO1 SOG 27 8024 PK WND 14017/2019 SLP132 T10441058,CWVI,2019-01-05T21:00:00Z,53.52,-112.1,-4.4,-5.8,150,10,15,,,1013.2,,TRUE,TRUE,,,,,,,,,,,,,,,,,,,,,,,,,,,METAR,639.0
CWVF 052100Z AUTO 31005KT 07/05 RMK AO1 T00710051,CWVF,2019-01-05T21:00:00Z,49.1,-123.3,7.1,5.1,310,5,,,,,,TRUE,TRUE,,,,,,,,,,,,,,,,,,,,,,,,,,,METAR,1.0
CWUX 052100Z AUTO 25001KT M03/M04 RMK AO1 SLP037 T10281038 55004,CWUX,2019-01-05T21:00:00Z,48.3,-70.93,-2.8,-3.8,250,1,,,,1003.7,,TRUE,TRUE,,,,,,,,,,,,,,,,-0.4,,,,,,,,,,,METAR,135.0
CWTY 052100Z AUTO 03003KT 01/M00 RMK AO1 SLP033 T00121002 55003,CWTY,2019-01-05T21:00:00Z,46.35,-72.52,1.2,-0.2,30,3,,,,1003.3,,TRUE,TRUE,,,,,,,,,,,,,,,,-0.3,,,,,,,,,,,METAR,6.0
CWTN 052100Z AUTO 34001KT 01/M01 RMK AO1 SLP033 T00071007 58004,CWTN,2019-01-05T21:00:00Z,47.07,-70.78,0.7,-0.7,340,1,,,,1003.3,,TRUE,TRUE,,,,,,,,,,,,,,,,-0.4,,,,,,,,,,,METAR,6.0
CWTG 052100Z AUTO 30003KT M02/M02 RMK AO1 SLP045 T10201023 58007,CWTG,2019-01-05T21:00:00Z,49.32,-67.37,-2.0,-2.3,300,3,,,,1004.5,,TRUE,TRUE,,,,,,,,,,,,,,,,-0.7,,,,,,,,,,,METAR,5.0
CWTA 052100Z AUTO 36004KT 02/M00 RMK AO1 SOG 10 3004 SLP037 T00201001,CWTA,2019-01-05T21:00:00Z,45.5,-73.58,2.0,-0.1,360,4,,,,1003.7,,TRUE,TRUE,,,,,,,,,,,,,,,,,,,,,,,,,,,METAR,63.0
CXKT 052100Z AUTO 08002KT 01/01 RMK AO1 SOG 01 8015 SLP033 T00140007,CXKT,2019-01-05T21:00:00Z,45.07,-64.48,1.4,0.7,80,2,,,,1003.3,,TRUE,TRUE,,,,,,,,,,,,,,,,,,,,,,,,,,,METAR,49.0
CXTP 052100Z AUTO 22003KT 00/M00 RMK AO1 SOG 41 1010 SLP108 T00001003,CXTP,2019-01-05T21:00:00Z,48.55,-53.97,0.0,-0.3,220,3,,,,1010.8,,TRUE,TRUE,,,,,,,,,,,,,,,,,,,,,,,,,,,METAR,107.0
CXSH 052100Z AUTO 02002KT 01/M00 RMK AO1 4PAST HR 5001 SLP033 P0002 T00091002 50008,CXSH,2019-01-05T21:00:00Z,46.58,-72.73,0.9,-0.2,20,2,,,,1003.3,,TRUE,TRUE,,,,,,,,,,,,,,,,0.8,,,,,0.02,,,,,,METAR,110.0
CXRH 052100Z AUTO 00000KT RMK AO1,CXRH,2019-01-05T21:00:00Z,49.57,-57.88,,,0,0,,,,,,TRUE,TRUE,,,,,,,,,,,,,,,,,,,,,,,,,,,METAR,68.0
CXNM 052100Z AUTO 08004KT M01/M01 RMK AO1 SOG 217 T10091007,CXNM,2019-01-05T21:00:00Z,46.82,-60.67,-0.9,-0.7,80,4,,,,,,TRUE,TRUE,,,,,,,,,,,,,,,,,,,,,,,,,,,METAR,439.0
CXMM 052100Z AUTO 12010KT M14/M17 RMK AO1 SOG 25 8016 SLP170 T11401172,CXMM,2019-01-05T21:00:00Z,56.65,-111.22,-14.0,-17.2,120,10,,,,1017.0,,TRUE,TRUE,,,,,,,,,,,,,,,,,,,,,,,,,,,METAR,369.0
CXMD 052100Z AUTO 36007KT M06/M08 RMK AO1 SOG 18 3025 SLP216 T10561083,CXMD,2019-01-05T21:00:00Z,49.22,-98.08,-5.6,-8.3,360,7,,,,1021.6,,TRUE,TRUE,,,,,,,,,,,,,,,,,,,,,,,,,,,METAR,301.0
CXHF 052100Z AUTO 01/M00 RMK AO1 T00071002,CXHF,2019-01-05T21:00:00Z,45.83,-75.65,0.7,-0.2,,,,,,,,TRUE,TRUE,,,,,,,,,,,,,,,,,,,,,,,,,,,METAR,190.0
CXGH 052100Z AUTO 35007KT M16/M21 RMK AO1 PK WND 00018/2005 SLP208 T11581206 52025,CXGH,2019-01-05T21:00:00Z,50.63,-97.0,-15.8,-20.6,350,7,,,,1020.8,,TRUE,TRUE,,,,,,,,,,,,,,,,2.5,,,,,,,,,,,METAR,217.0
CXEG 052100Z AUTO M04/M05 RMK AO1 T10351054,CXEG,2019-01-05T21:00:00Z,53.3,-113.6,-3.5,-5.4,,,,,,,,TRUE,TRUE,,,,,,,,,,,,,,,,,,,,,,,,,,,METAR,715.0
CXEC 052100Z AUTO 16011KT M04/M06 RMK AO1 SOG 26 8022 SLP113 T10411055,CXEC,2019-01-05T21:00:00Z,53.57,-113.52,-4.1,-5.5,160,11,,,,1011.3,,TRUE,TRUE,,,,,,,,,,,,,,,,,,,,,,,,,,,METAR,671.0
CXDW 052100Z AUTO 36007KT M06/M08 RMK AO1 SLP214 T10581078 51024,CXDW,2019-01-05T21:00:00Z,49.4,-98.32,-5.8,-7.8,360,7,,,,1021.4,,TRUE,TRUE,,,,,,,,,,,,,,,,2.4,,,,,,,,,,,METAR,341.0
CXCK 052100Z AUTO 28001KT M26/M32 RMK AO1 SOG 12 1003 SLP166 T12621315 50003,CXCK,2019-01-05T21:00:00Z,62.12,-136.2,-26.2,-31.5,280,1,,,,1016.6,,TRUE,TRUE,,,,,,,,,,,,,,,,0.3,,,,,,,,,,,METAR,540.0
CXCA 052100Z AUTO 36009KT M02/M06 RMK AO1 SOG 17 3037 SLP116 T10231056,CXCA,2019-01-05T21:00:00Z,49.15,-88.35,-2.3,-5.6,360,9,,,,1011.6,,TRUE,TRUE,,,,,,,,,,,,,,,,,,,,,,,,,,,METAR,228.0
CXBO 052100Z AUTO 06002KT RMK AO1,CXBO,2019-01-05T21:00:00Z,46.83,-71.2,,,60,2,,,,,,TRUE,TRUE,,,,,,,,,,,,,,,,,,,,,,,,,,,METAR,100.0
CXZC 052100Z AUTO 32005KT M10/M13 RMK AO1 SOG 46 2021 SLP101 T11011132,CXZC,2019-01-05T21:00:00Z,51.3,-80.62,-10.1,-13.2,320,5,,,,1010.1,,TRUE,TRUE,,,,,,,,,,,,,,,,,,,,,,,,,,,METAR,9.0
CXBI 052100Z AUTO 19002KT 01/M01 RMK AO1 SLP057 T00141013 50002,CXBI,2019-01-05T21:00:00Z,44.48,-79.55,1.4,-1.3,190,2,,,,1005.7,,TRUE,TRUE,,,,,,,,,,,,,,,,0.2,,,,,,,,,,,METAR,289.0
CWKK 052100Z AUTO 34010KT M04/M07 RMK AO1 SOG 31 3035 SLP111 T10381069,CWKK,2019-01-05T21:00:00Z,49.72,-88.33,-3.8,-6.9,340,10,,,,1011.1,,TRUE,TRUE,,,,,,,,,,,,,,,,,,,,,,,,,,,METAR,260.0
CTRA 052100Z AUTO 33005KT M07/M10 RMK AO1 SOG 23 3033 SLP175 T10691095,CTRA,2019-01-05T21:00:00Z,49.67,-93.73,-6.9,-9.5,330,5,,,,1017.5,,TRUE,TRUE,,,,,,,,,,,,,,,,,,,,,,,,,,,METAR,435.0
CTNK 052100Z AUTO 00000KT 01/M01 RMK AO1 SOG 34 3010 SLP051 T00071009,CTNK,2019-01-05T21:00:00Z,45.53,-78.27,0.7,-0.9,0,0,,,,1005.1,,TRUE,TRUE,,,,,,,,,,,,,,,,,,,,,,,,,,,METAR,410.0
CWJH 052100Z AUTO 24001KT M22/M25 RMK AO1 SOG 40 1003 SLP242 T12221248,CWJH,2019-01-05T21:00:00Z,56.32,-103.27,-22.2,-24.8,240,1,,,,1024.2,,TRUE,TRUE,,,,,,,,,,,,,,,,,,,,,,,,,,,METAR,344.0
CWJC 052100Z AUTO 25015KT M27/M30 RMK AO1 PK WND 25019/2100 SLP167 T12671297 55007,CWJC,2019-01-05T21:00:00Z,61.13,-100.9,-26.7,-29.7,250,15,,,,1016.7,,TRUE,TRUE,,,,,,,,,,,,,,,,-0.7,,,,,,,,,,,METAR,357.0
CWJB 052100Z AUTO 00000KT 01/01 RMK AO1 SOG 47 T00060005,CWJB,2019-01-05T21:00:00Z,46.78,-71.27,0.6,0.5,0,0,,,,,,TRUE,TRUE,,,,,,,,,,,,,,,,,,,,,,,,,,,METAR,91.0
CWIW 052100Z AUTO 12006KT M08/M10 RMK AO1 SOG 03 7005 SLP199 T10761095,CWIW,2019-01-05T21:00:00Z,51.67,-105.4,-7.6,-9.5,120,6,,,,1019.9,,TRUE,TRUE,,,,,,,,,,,,,,,,,,,,,,,,,,,METAR,526.0
CWIT 052100Z AUTO 30004KT 02/01 RMK AO1 7PAST HR SOG 05 3006 SLP033 P0003 T00150005 50007,CWIT,2019-01-05T21:00:00Z,45.17,-73.67,1.5,0.5,300,4,,,,1003.3,,TRUE,TRUE,,,,,,,,,,,,,,,,0.7,,,,,0.03,,,,,,METAR,52.0
CWIS 052100Z AUTO 03002KT M02/M04 RMK AO1 SOG 105 7002 SLP025 T10151036,CWIS,2019-01-05T21:00:00Z,47.28,-70.63,-1.5,-3.6,30,2,,,,1002.5,,TRUE,TRUE,,,,,,,,,,,,,,,,,,,,,,,,,,,METAR,719.0
CWIP 052100Z AUTO 08002KT M01/ RMK AO1 T1011,CWIP,2019-01-05T21:00:00Z,50.17,-66.43,-1.1,,80,2,,,,,,TRUE,TRUE,,,,,,,,,,,,,,,,,,,,,,,,,,,METAR,25.0
CWIJ 052100Z AUTO 00027KT M20/M22 RMK AO1 SOG 56 3006 SLP127 T12021215,CWIJ,2019-01-05T21:00:00Z,65.77,-111.23,-20.2,-21.5,0,27,,,,1012.7,,TRUE,TRUE,,,,,,,,,,,,,,,,,,,,,,,,,,,METAR,500.0
CWII 052100Z AUTO 35011G17KT M09/M12 RMK AO1 PK WND 34020/2025 SLP206 T10861122 51025,CWII,2019-01-05T21:00:00Z,50.7,-96.57,-8.6,-12.2,350,11,17,,,1020.6,,TRUE,TRUE,,,,,,,,,,,,,,,,2.5,,,,,,,,,,,METAR,220.0
CWIG 052100Z AUTO 34003KT RMK AO1,CWIG,2019-01-05T21:00:00Z,47.07,-70.53,,,340,3,,,,,,TRUE,TRUE,,,,,,,,,,,,,,,,,,,,,,,,,,,METAR,18.0
CWID 052100Z AUTO 06004KT M13/M15 RMK AO1 SLP136 T11281147 58016,CWID,2019-01-05T21:00:00Z,61.32,-117.6,-12.8,-14.7,60,4,,,,1013.6,,TRUE,TRUE,,,,,,,,,,,,,,,,-1.6,,,,,,,,,,,METAR,161.0
CWHT 052100Z AUTO 00000KT M31/M35 RMK AO1 SOG 07 8003 SLP175 T13121347,CWHT,2019-01-05T21:00:00Z,60.77,-137.58,-31.2,-34.7,0,0,,,,1017.5,,TRUE,TRUE,,,,,,,,,,,,,,,,,,,,,,,,,,,METAR,599.0
CWHI 052100Z AUTO 14010KT M06/M06 RMK AO1 T10561064,CWHI,2019-01-05T21:00:00Z,51.7,-113.22,-5.6,-6.4,140,10,,,,,,TRUE,TRUE,,,,,,,,,,,,,,,,,,,,,,,,,,,METAR,907.0
CWGY 052100Z AUTO M04/M05 RMK AO1 SLP147 T10431053 56018,CWGY,2019-01-05T21:00:00Z,51.67,-110.2,-4.3,-5.3,,,,,,1014.7,,TRUE,TRUE,,,,,,,,,,,,,,,,-1.8,,,,,,,,,,,METAR,707.0
CWGX 052100Z AUTO 28006KT M21/M25 RMK AO1 SOG 21 2026 SLP212 T12091248,CWGX,2019-01-05T21:00:00Z,56.35,-94.7,-20.9,-24.8,280,6,,,,1021.2,,TRUE,TRUE,,,,,,,,,,,,,,,,,,,,,,,,,,,METAR,145.0
CWGW 052100Z AUTO 02003KT 01/M04 RMK AO1 SOG 10 8026 SLP104 T00051043,CWGW,2019-01-05T21:00:00Z,49.75,-114.9,0.5,-4.3,20,3,,,,1010.4,,TRUE,TRUE,,,,,,,,,,,,,,,,,,,,,,,,,,,METAR,1137.0
CWGT 052100Z AUTO 10017KT 08/04 RMK AO1 PRESFR PK WND 11019/2024 SLP950 T00820043 58048,CWGT,2019-01-05T21:00:00Z,49.48,-124.43,8.2,4.3,100,17,,,,995.0,,TRUE,TRUE,,,,,,,,,,,,,,,,-4.8,,,,,,,,,,,METAR,5.0
CWGR 052100Z AUTO 09005KT M01/M02 RMK AO1 SLP065 T10111015 58009,CWGR,2019-01-05T21:00:00Z,47.42,-61.8,-1.1,-1.5,90,5,,,,1006.5,,TRUE,TRUE,,,,,,,,,,,,,,,,-0.9,,,,,,,,,,,METAR,60.0
FAOB 052100Z AUTO 18002KT //// // ////// 17/12 Q1019,FAOB,2019-01-05T21:00:00Z,-34.6,20.27,17.0,12.0,180,2,,,30.088583,,,TRUE,,,,,,,,,,,,,,,,,,,,,,,,,,,,METAR,75.0
FABL 052100Z AUTO 17012KT 9999 ///////// 22/08 Q1017,FABL,2019-01-05T21:00:00Z,-29.1,26.3,22.0,8.0,170,12,,6.21,30.029528,,,TRUE,,,,,,,,,,,,,,,,,,,,,,,,,,,,METAR,1348.0
RJAW 052100Z 22007KT 9999 FEW020 19/16 Q1017 RMK 2CU020 A3006,RJAW,2019-01-05T21:00:00Z,24.77,141.32,19.0,16.0,220,7,,6.21,30.029528,,,,,,,,,,,FEW,2000,,,,,,,VFR,,,,,,,,,,,,METAR,116.0
UTO8 M M M 038/02/02/0401/M/ SOG 06 8020 46MM,UTO8,2019-01-05T21:00:00Z,,,,,,,,4.98,,,,,,,,,,,,,,,,,,,,,,,,,,,,,,,,METAR,
DAOV 052100Z 24002KT CAVOK 02/M06 Q1032,DAOV,2019-01-05T21:00:00Z,35.2,0.15,2.0,-6.0,240,2,,6.21,30.47244,,,,,,,,,,,CAVOK,,,,,,,,VFR,,,,,,,,,,,,METAR,514.0
DAOR 052100Z 00000KT CAVOK 05/M08 Q1031,DAOR,2019-01-05T21:00:00Z,31.65,-2.27,5.0,-8.0,0,0,,6.21,30.442913,,,,,,,,,,,CAVOK,,,,,,,,VFR,,,,,,,,,,,,METAR,773.0
DAOL 052100Z 17002KT CAVOK 03/01 Q1021,DAOL,2019-01-05T21:00:00Z,35.53,-0.52,3.0,1.0,170,2,,6.21,30.147638,,,,,,,,,,,CAVOK,,,,,,,,VFR,,,,,,,,,,,,METAR,112.0
DAOF 052100Z 06011KT CAVOK 12/M08 Q1029,DAOF,2019-01-05T21:00:00Z,27.7,-8.17,12.0,-8.0,60,11,,6.21,30.383858,,,,,,,,,,,CAVOK,,,,,,,,VFR,,,,,,,,,,,,METAR,431.0
DAAY 052100Z 00000KT CAVOK 05/M08 Q1034,DAAY,2019-01-05T21:00:00Z,33.53,-0.25,5.0,-8.0,0,0,,6.21,30.531496,,,,,,,,,,,CAVOK,,,,,,,,VFR,,,,,,,,,,,,METAR,1149.0
DAAP 052100Z 01005KT CAVOK 08/M01 Q1028,DAAP,2019-01-05T21:00:00Z,26.72,8.62,8.0,-1.0,10,5,,6.21,30.35433,,,,,,,,,,,CAVOK,,,,,,,,VFR,,,,,,,,,,,,METAR,558.0
WBKW 052100Z 34003KT 310V010 9999 FEW017 BKN300 23/22 Q1012,WBKW,2019-01-05T21:00:00Z,4.32,118.12,23.0,22.0,340,3,,6.21,29.88189,,,,,,,,,,,FEW,1700,BKN,30000,,,,,VFR,,,,,,,,,,,,METAR,20.0
WBKT 052100Z 00000KT 9999 FEW014 SCT140 BKN270 27/25 Q1012,WBKT,2019-01-05T21:00:00Z,6.92,116.82,27.0,25.0,0,0,,6.21,29.88189,,,,,,,,,,,FEW,1400,SCT,14000,BKN,27000,,,VFR,,,,,,,,,,,,METAR,5.0
WBKS 052100Z 00000KT 9999 FEW015 BKN300 26/25 Q1012,WBKS,2019-01-05T21:00:00Z,5.9,118.07,26.0,25.0,0,0,,6.21,29.88189,,,,,,,,,,,FEW,1500,BKN,30000,,,,,VFR,,,,,,,,,,,,METAR,13.0
WBKL 052100Z 10004KT 050V160 9999 FEW015 BKN300 28/23 Q1010,WBKL,2019-01-05T21:00:00Z,5.28,115.25,28.0,23.0,100,4,,6.21,29.822834,,,,,,,,,,,FEW,1500,BKN,30000,,,,,VFR,,,,,,,,,,,,METAR,30.0
WBGY 052100Z AUTO 00000KT //// // 25/24 Q1010,WBGY,2019-01-05T21:00:00Z,1.22,111.43,25.0,24.0,0,0,,,29.822834,,,TRUE,,,,,,,,,,,,,,,,,,,,,,,,,,,,METAR,34.0
WBGS 052100Z 00000KT 9999 SCT018 BKN150 26/25 Q1011,WBGS,2019-01-05T21:00:00Z,2.27,111.98,26.0,25.0,0,0,,6.21,29.852362,,,,,,,,,,,SCT,1800,BKN,15000,,,,,VFR,,,,,,,,,,,,METAR,8.0
WBGR 052100Z VRB03KT 9999 SCT014 SCT150 BKN300 25/25 Q1010,WBGR,2019-01-05T21:00:00Z,4.32,113.97,25.0,25.0,0,3,,6.21,29.822834,,,,,,,,,,,SCT,1400,SCT,15000,BKN,30000,,,VFR,,,,,,,,,,,,METAR,18.0
WBGB 052100Z VRB02KT 9999 FEW016 BKN150 25/25 Q1011,WBGB,2019-01-05T21:00:00Z,3.12,113.02,25.0,25.0,0,2,,6.21,29.852362,,,,,,,,,,,FEW,1600,BKN,15000,,,,,VFR,,,,,,,,,,,,METAR,5.0
WMSA 052100Z 00000KT 8000 FEW025 SCT140 BKN270 26/25 Q1010,WMSA,2019-01-05T21:00:00Z,3.13,101.55,26.0,25.0,0,0,,4.97,29.822834,,,,,,,,,,,FEW,2500,SCT,14000,BKN,27000,,,MVFR,,,,,,,,,,,,METAR,27.0
SARP 052100Z 32004KT 9999 FEW030TCU BKN060 27/23 Q1009,SARP,2019-01-05T21:00:00Z,-27.38,-55.97,27.0,23.0,320,4,,6.21,29.793306,,,,,,,,,,,FEW,3000,BKN,6000,,,,,VFR,,,,,,,,,,,,METAR,125.0
MPDA 052100Z 03014G24KT 9999 FEW020 33/18 Q1008,MPDA,2019-01-05T21:00:00Z,8.4,-82.43,33.0,18.0,30,14,24,6.21,29.763779,,,,,,,,,,,FEW,2000,,,,,,,VFR,,,,,,,,,,,,METAR,27.0
YBDV 052100Z AUTO 17017KT //// // ////// 28/04 Q1010,YBDV,2019-01-05T21:00:00Z,-25.9,139.35,28.0,4.0,170,17,,,29.822834,,,TRUE,,,,,,,,,,,,,,,,,,,,,,,,,,,,METAR,47.0
YBCV 052100Z AUTO 02010KT 9999 // NCD 29/10 Q1011,YBCV,2019-01-05T21:00:00Z,-26.38,146.27,29.0,10.0,20,10,,6.21,29.852362,,,TRUE,,,,,,,,CLR,,,,,,,,VFR,,,,,,,,,,,,METAR,304.0
YAYE 052100Z AUTO 12008KT 9999 // NCD 22/04 Q1017,YAYE,2019-01-05T21:00:00Z,-25.18,130.98,22.0,4.0,120,8,,6.21,30.029528,,,TRUE,,,,,,,,CLR,,,,,,,,VFR,,,,,,,,,,,,METAR,496.0
YARG 052100Z AUTO 11003KT 9999 // NCD 25/23 Q1008,YARG,2019-01-05T21:00:00Z,-16.63,128.45,25.0,23.0,110,3,,6.21,29.763779,,,TRUE,,,,,,,,CLR,,,,,,,,VFR,,,,,,,,,,,,METAR,165.0
YABA 052100Z AUTO 08006KT 9999 // OVC022 17/13 Q1022,YABA,2019-01-05T21:00:00Z,-34.93,117.8,17.0,13.0,80,6,,6.21,30.177166,,,TRUE,,,,,,,,OVC,2200,,,,,,,MVFR,,,,,,,,,,,,METAR,69.0
OJAM 052100Z 25004KT 5000 HZ NSC 07/05 Q1015 NOSIG,OJAM,2019-01-05T21:00:00Z,31.97,35.97,7.0,5.0,250,4,,3.11,29.970472,,,,,,TRUE,,,,HZ,CLR,,,,,,,,MVFR,,,,,,,,,,,,METAR,773.0
OJAI 052100Z 28005KT 6000 SCT035 05/03 Q1016 NOSIG,OJAI,2019-01-05T21:00:00Z,31.72,36.0,5.0,3.0,280,5,,3.73,30.0,,,,,,TRUE,,,,,SCT,3500,,,,,,,MVFR,,,,,,,,,,,,METAR,730.0
RJSS 052100Z 35006KT 9999 FEW015 SCT050 M01/M06 Q1018,RJSS,2019-01-05T21:00:00Z,38.12,140.92,-1.0,-6.0,350,6,,6.21,30.059055,,,,,,,,,,,FEW,1500,SCT,5000,,,,,VFR,,,,,,,,,,,,METAR,5.0
RJOO 052100Z 32005KT 9999 FEW020 BKN050 05/01 Q1020 RMK 1CU020 5SC050 A3015,RJOO,2019-01-05T21:00:00Z,34.77,135.43,5.0,1.0,320,5,,6.21,30.11811,,,,,,,,,,,FEW,2000,BKN,5000,,,,,VFR,,,,,,,,,,,,METAR,15.0
RJNK 052100Z 05006KT 8000 -SHSNRA FEW015 SCT020 BKN030 01/M00 Q1023,RJNK,2019-01-05T21:00:00Z,36.37,136.42,1.0,0.0,50,6,,4.97,30.206694,,,,,,,,,,-SHSN -SHRA,FEW,1500,SCT,2000,BKN,3000,,,MVFR,,,,,,,,,,,,METAR,9.0
RJFK 052100Z 34005KT 9999 FEW020 BKN120 04/M01 Q1020 RMK 1CU020 7AC120 A3012,RJFK,2019-01-05T21:00:00Z,31.8,130.72,4.0,-1.0,340,5,,6.21,30.11811,,,,,,,,,,,FEW,2000,BKN,12000,,,,,VFR,,,,,,,,,,,,METAR,275.0
ZYHB 052100Z 17002MPS CAVOK M23/M27 Q1030 NOSIG,ZYHB,2019-01-05T21:00:00Z,45.62,126.25,-23.0,-27.0,170,4,,6.21,30.413385,,,,,,TRUE,,,,,CAVOK,,,,,,,,VFR,,,,,,,,,,,,METAR,140.0
ZYCC 052100Z 22002MPS 6000 NSC M21/M25 Q1031 NOSIG,ZYCC,2019-01-05T21:00:00Z,43.98,125.68,-21.0,-25.0,220,4,,3.73,30.442913,,,,,,TRUE,,,,,CLR,,,,,,,,MVFR,,,,,,,,,,,,METAR,238.0
ZUCK 052100Z 03005MPS 9000 OVC043 07/02 Q1022 NOSIG,ZUCK,2019-01-05T21:00:00Z,29.72,106.63,7.0,2.0,30,10,,5.59,30.177166,,,,,,TRUE,,,,,OVC,4300,,,,,,,VFR,,,,,,,,,,,,METAR,416.0
ZSOF 052100Z 20003MPS 1200 R33/P2000N BR SCT005 BKN033 01/00 Q1031 NOSIG,ZSOF,2019-01-05T21:00:00Z,31.98,116.97,1.0,0.0,200,6,,0.75,30.442913,,,,,,TRUE,,,,BR,SCT,500,BKN,3300,,,,,LIFR,,,,,,,,,,,,METAR,63.0
ZSNJ 052100Z 32002MPS 1500 BR BKN005 OVC020 02/02 Q1032 NOSIG,ZSNJ,2019-01-05T21:00:00Z,31.75,118.87,2.0,2.0,320,4,,0.93,30.47244,,,,,,TRUE,,,,BR,BKN,500,OVC,2000,,,,,LIFR,,,,,,,,,,,,METAR,33.0
ZLLL 052100Z VRB02MPS 8000 NSC M11/M14 Q1019 NOSIG,ZLLL,2019-01-05T21:00:00Z,36.52,103.62,-11.0,-14.0,0,4,,4.97,30.088583,,,,,,TRUE,,,,,CLR,,,,,,,,MVFR,,,,,,,,,,,,METAR,1947.0
ZJSY 052100Z VRB01MPS CAVOK 22/20 Q1018 NOSIG,ZJSY,2019-01-05T21:00:00Z,18.3,109.42,22.0,20.0,0,2,,6.21,30.059055,,,,,,TRUE,,,,,CAVOK,,,,,,,,VFR,,,,,,,,,,,,METAR,27.0
ZJHK 052100Z 05002MPS 1200 R09/P2000 BR BKN002 OVC012 21/20 Q1019 NOSIG,ZJHK,2019-01-05T21:00:00Z,19.93,110.47,21.0,20.0,50,4,,0.75,30.088583,,,,,,TRUE,,,,BR,BKN,200,OVC,1200,,,,,LIFR,,,,,,,,,,,,METAR,23.0
ZHHH 052100Z 05004MPS 1600 BR FEW016 M01/M02 Q1030 NOSIG,ZHHH,2019-01-05T21:00:00Z,30.78,114.22,-1.0,-2.0,50,8,,0.99,30.413385,,,,,,TRUE,,,,BR,FEW,1600,,,,,,,LIFR,,,,,,,,,,,,METAR,33.0
ZHCC 052100Z 27001MPS 6000 NSC M08/M12 Q1032 NOSIG,ZHCC,2019-01-05T21:00:00Z,34.52,113.83,-8.0,-12.0,270,2,,3.73,30.47244,,,,,,TRUE,,,,,CLR,,,,,,,,MVFR,,,,,,,,,,,,METAR,151.0
ZGHA 052100Z 36003MPS 2000 BR FEW007 BKN010 OVC040 04/03 Q1029 NOSIG,ZGHA,2019-01-05T21:00:00Z,28.18,113.22,4.0,3.0,360,6,,1.24,30.383858,,,,,,TRUE,,,,BR,FEW,700,BKN,1000,OVC,4000,,,IFR,,,,,,,,,,,,METAR,66.0
ZBHH 052100Z 06002MPS CAVOK M17/M22 Q1022 NOSIG,ZBHH,2019-01-05T21:00:00Z,40.85,111.82,-17.0,-22.0,60,4,,6.21,30.177166,,,,,,TRUE,,,,,CAVOK,,,,,,,,VFR,,,,,,,,,,,,METAR,1065.0
GQPP 052100Z 04005KT 7000 NSC 19/06 Q1019 NOSIG,GQPP,2019-01-05T21:00:00Z,20.92,-17.02,19.0,6.0,40,5,,4.35,30.088583,,,,,,TRUE,,,,,CLR,,,,,,,,MVFR,,,,,,,,,,,,METAR,3.0
UKLI 052100Z 29006MPS 270V350 4600 -SHSN BKN010 BKN023CB M02/M04 Q1008 R28/490530 NOSIG,UKLI,2019-01-05T21:00:00Z,48.88,24.68,-2.0,-4.0,290,12,,2.86,29.763779,,,,,,TRUE,,,,-SHSN,BKN,1000,BKN,2300,,,,,IFR,,,,,,,,,,,,METAR,280.0
TVSA 052100Z 07008KT 030V110 5000N SHRA BKN016 SCT036 23/21 Q1015 ,TVSA,2019-01-05T21:00:00Z,13.15,-61.15,23.0,21.0,70,8,,3.11,29.970472,,,,,,,,,,SHRA,BKN,1600,SCT,3600,,,,,MVFR,,,,,,,,,,,,METAR,17.0
MYNN 052100Z 30010G22KT 9999 SCT015 BKN200 29/24 A3002,MYNN,2019-01-05T21:00:00Z,25.03,-77.47,29.0,24.0,300,10,22,6.21,30.02067,,,,,,,,,,,SCT,1500,BKN,20000,,,,,VFR,,,,,,,,,,,,METAR,3.0
MNBL 052100Z 11008KT 9999 BKN017 29/24 Q1013,MNBL,2019-01-05T21:00:00Z,12.0,-83.77,29.0,24.0,110,8,,6.21,29.911417,,,,,,,,,,,BKN,1700,,,,,,,MVFR,,,,,,,,,,,,METAR,5.0
MNCH 052100Z 14004KT 9999 FEW025 36/18 Q1010,MNCH,2019-01-05T21:00:00Z,12.62,-87.12,36.0,18.0,140,4,,6.21,29.822834,,,,,,,,,,,FEW,2500,,,,,,,VFR,,,,,,,,,,,,METAR,53.0
MNJU 052100Z 09004KT 9999 FEW020 32/22 Q1012,MNJU,2019-01-05T21:00:00Z,12.08,-85.37,32.0,22.0,90,4,,6.21,29.88189,,,,,,,,,,,FEW,2000,,,,,,,VFR,,,,,,,,,,,,METAR,90.0
MNJG 052100Z 36016KT 9999 FEW020 24/16 Q1013,MNJG,2019-01-05T21:00:00Z,13.08,-86.02,24.0,16.0,360,16,,6.21,29.911417,,,,,,,,,,,FEW,2000,,,,,,,VFR,,,,,,,,,,,,METAR,985.0
MNRS 052100Z 12006KT 9999 FEW015 30/22 Q1010,MNRS,2019-01-05T21:00:00Z,11.42,-85.82,30.0,22.0,120,6,,6.21,29.822834,,,,,,,,,,,FEW,1500,,,,,,,VFR,,,,,,,,,,,,METAR,53.0
MNPC 052100Z 08010KT 6000 VCRA BKN016TCU 29/25 Q1013 TCURA/W,MNPC,2019-01-05T21:00:00Z,14.05,-83.38,29.0,25.0,80,10,,3.73,29.911417,,,,,,,,,,VCRA RA,BKN,1600,,,,,,,MVFR,,,,,,,,,,,,METAR,16.0
VTSG 052100Z 01003KT 6000 BCFG FEW020 23/23 Q1011 NOSIG,VTSG,2019-01-05T21:00:00Z,8.1,98.98,23.0,23.0,10,3,,3.73,29.852362,,,,,,TRUE,,,,BCFG,FEW,2000,,,,,,,MVFR,,,,,,,,,,,,METAR,25.0
VTCT 052100Z 00000KT 9999 BKN045 18/18 Q1018 NOSIG,VTCT,2019-01-05T21:00:00Z,19.95,99.88,18.0,18.0,0,0,,6.21,30.059055,,,,,,TRUE,,,,,BKN,4500,,,,,,,VFR,,,,,,,,,,,,METAR,390.0
CZPC 052100Z AUTO 27006KT 9SM BKN180 BKN200 05/M04 A2968 RMK SLP077,CZPC,2019-01-05T21:00:00Z,49.52,-114.0,5.0,-4.0,270,6,,9.0,29.681103,1007.7,,TRUE,,,,,,,,BKN,18000,BKN,20000,,,,,VFR,,,,,,,,,,,,METAR,1190.0
CZFM 052100Z 15002KT 15SM -SN BKN060 M20/M23 A3002 RMK NS7 SLP173,CZFM,2019-01-05T21:00:00Z,67.4,-134.87,-20.0,-23.0,150,2,,15.0,30.02067,1017.3,,,,,,,,,-SN,BKN,6000,,,,,,,VFR,,,,,,,,,,,,METAR,43.0
CYPD 052100Z AUTO 06005KT 1/2SM -RA FG VV002 01/01 A2969 RMK SLP062,CYPD,2019-01-05T21:00:00Z,45.67,-61.37,1.0,1.0,60,5,,0.5,29.68996,1006.2,,TRUE,,,,,,,-RA FG,OVX,0,,,,,,,LIFR,,,,,,,,,,,200,METAR,114.0
CWSA 052100Z AUTO 10009KT 1/4SM -RA FG VV002 04/04 A2969 RMK SLP057,CWSA,2019-01-05T21:00:00Z,43.93,-60.0,4.0,4.0,100,9,,0.25,29.68996,1005.7,,TRUE,,,,,,,-RA FG,OVX,0,,,,,,,LIFR,,,,,,,,,,,200,METAR,4.0
CWGZ 052100Z 08026G33KT 3/4SM BLSN BKN013 BKN078 M15/M21 A2969 RMK BLSN4SC1AC1 -14.7/-25.0/0.4/LAST OBS/NEXT 081300Z SLP061,CWGZ,2019-01-05T21:00:00Z,76.42,-82.9,-15.0,-21.0,80,26,33,0.75,29.68996,1006.1,,,,,,,,,BLSN,BKN,1300,BKN,7800,,,,,LIFR,,,,,,,,,,,,METAR,45.0
CWFD 052100Z AUTO 06016KT 020V100 ////SM //// OVC003 M16/M17 A2945,CWFD,2019-01-05T21:00:00Z,66.57,-61.58,-16.0,-17.0,60,16,,,29.450787,,,TRUE,,,,,,,,OVC,300,,,,,,,,,,,,,,,,,,,METAR,393.0
CWEU 052100Z 07002KT 12SM -SN OVC065 M26/M30 A2978 RMK SC8 SLP089,CWEU,2019-01-05T21:00:00Z,80.0,-85.92,-26.0,-30.0,70,2,,12.0,29.778543,1008.9,,,,,,,,,-SN,OVC,6500,,,,,,,VFR,,,,,,,,,,,,METAR,10.0
CZST 052100Z 07002KT 15SM SCT070 M05/M05 A2955 RMK AC4 SLP008,CZST,2019-01-05T21:00:00Z,55.93,-129.98,-5.0,-5.0,70,2,,15.0,29.551182,1000.8,,,,,,,,,,SCT,7000,,,,,,,VFR,,,,,,,,,,,,METAR,7.0
CZCP 052100Z AUTO 32007KT 280V010 ////SM //// OVC009 M20/M22 A2997,CZCP,2019-01-05T21:00:00Z,70.17,-124.72,-20.0,-22.0,320,7,,,29.970472,,,TRUE,,,,,,,,OVC,900,,,,,,,,,,,,,,,,,,,METAR,93.0
CZBF 052100Z AUTO 35002KT 9SM OVC010 M03/M04 A2970 RMK SLP063,CZBF,2019-01-05T21:00:00Z,47.62,-65.75,-3.0,-4.0,350,2,,9.0,29.698818,1006.3,,TRUE,,,,,,,,OVC,1000,,,,,,,MVFR,,,,,,,,,,,,METAR,59.0
CYCA 052100Z AUTO 21009G16KT 9SM CLR M08/M11 A2970 RMK SLP059,CYCA,2019-01-05T21:00:00Z,53.68,-57.03,-8.0,-11.0,210,9,16,9.0,29.698818,1005.9,,TRUE,,,,,,,,CLR,,,,,,,,VFR,,,,,,,,,,,,METAR,12.0
CWZZ 052100Z AUTO ///// ////SM OVC065 M15/M16 A2925,CWZZ,2019-01-05T21:00:00Z,58.32,-62.57,-15.0,-16.0,,,,,29.25,,,TRUE,,,,,,,,OVC,6500,,,,,,,,,,,,,,,,,,,METAR,483.0
CWUW 052100Z AUTO 10028G35KT ////SM NCD M26/M29 A2942,CWUW,2019-01-05T21:00:00Z,68.65,-71.17,-26.0,-29.0,100,28,35,,29.421259,,,TRUE,,,,,,,,CLR,,,,,,,,,,,,,,,,,,,,METAR,527.0
CWSW 052100Z 03004KT 320V050 20SM BKN038 BKN080 00/M04 A2980 RMK NS7AC1 AC TR SLP128,CWSW,2019-01-05T21:00:00Z,49.75,-114.87,0.0,-4.0,30,4,,20.0,29.799213,1012.8,,,,,,,,,,BKN,3800,BKN,8000,,,,,VFR,,,,,,,,,,,,METAR,1138.0
CWRX 052100Z AUTO 09016KT ////SM //// BKN003 BKN016 OVC041 M25/M28 A2958,CWRX,2019-01-05T21:00:00Z,69.07,-79.02,-25.0,-28.0,90,16,,,29.58071,,,TRUE,,,,,,,,BKN,300,BKN,1600,OVC,4100,,,,,,,,,,,,,,,METAR,41.0
CWLI 052100Z AUTO 29008KT ////SM //// OVC035 M20/M22 A////,CWLI,2019-01-05T21:00:00Z,69.58,-130.9,-20.0,-22.0,290,8,,,,,,TRUE,,,,,,,,OVC,3500,,,,,,,,,,,,,,,,,,,METAR,102.0
CWIL 052100Z AUTO 25006KT ////SM NCD ///// A////,CWIL,2019-01-05T21:00:00Z,68.32,-100.07,,,250,6,,,,,,TRUE,,,,,,,,CLR,,,,,,,,,,,,,,,,,,,,METAR,36.0
CZMT 052100Z VRB02KT 15SM FEW008 SCT180 02/M02 A2950 RMK CU2CI2 SLP991,CZMT,2019-01-05T21:00:00Z,54.03,-132.13,2.0,-2.0,0,2,,15.0,29.500984,999.1,,,,,,,,,,FEW,800,SCT,18000,,,,,VFR,,,,,,,,,,,,METAR,8.0
CZFA 052100Z 30005KT 30SM FEW051 SCT090 BKN200 M21/M23 A2971 RMK SC1AC2CC2 SLP139,CZFA,2019-01-05T21:00:00Z,62.2,-133.37,-21.0,-23.0,300,5,,30.0,29.71063,1013.9,,,,,,,,,,FEW,5100,SCT,9000,BKN,20000,,,VFR,,,,,,,,,,,,METAR,717.0
CYZW 052100Z 28006KT 30SM FEW080 M19/M22 A2970 RMK AC1 AC TR SLP125,CYZW,2019-01-05T21:00:00Z,60.17,-132.75,-19.0,-22.0,280,6,,30.0,29.698818,1012.5,,,,,,,,,,FEW,8000,,,,,,,VFR,,,,,,,,,,,,METAR,705.0
CYYF 052100Z 35003KT 15SM FEW008 SCT055 OVC140 03/01 A2962 RMK SC1SC3AC4 SLP042,CYYF,2019-01-05T21:00:00Z,49.47,-119.58,3.0,1.0,350,3,,15.0,29.619095,1004.2,,,,,,,,,,FEW,800,SCT,5500,OVC,14000,,,VFR,,,,,,,,,,,,METAR,344.0
CYYD 052100Z 28003KT 25SM FEW006 FEW020 BKN100 OVC140 M03/M04 A2946 RMK SF1SC1AC3AC3 SLP998,CYYD,2019-01-05T21:00:00Z,54.82,-127.18,-3.0,-4.0,280,3,,25.0,29.459646,999.8,,,,,,,,,,FEW,600,FEW,2000,BKN,10000,OVC,14000,VFR,,,,,,,,,,,,METAR,523.0
CYXY 052100Z VRB02KT 40SM FEW040 FEW140 M21/M24 A2973 RMK SC1AC1 SLP143,CYXY,2019-01-05T21:00:00Z,60.72,-135.07,-21.0,-24.0,0,2,,40.0,29.731298,1014.3,,,,,,,,,,FEW,4000,FEW,14000,,,,,VFR,,,,,,,,,,,,METAR,703.0
CYXT 052100Z 35010KT 20SM DRSN FEW003 SCT015 SCT030 BKN055 OVC110 M01/M03 A2947 RMK SF2SF1SC1SC2AC2 SLP991,CYXT,2019-01-05T21:00:00Z,54.47,-128.57,-1.0,-3.0,350,10,,20.0,29.471457,999.1,,,,,,,,,DRSN,FEW,300,SCT,1500,SCT,3000,BKN,5500,VFR,,,,,,,,,,,,METAR,217.0
CYXJ 052100Z 11011KT 40SM R30/4000VP6000FT/N FEW007 FEW090 BKN240 M10/M12 A2955 RMK SF1AC1CI4 PRESFR SLP057,CYXJ,2019-01-05T21:00:00Z,56.25,-120.73,-10.0,-12.0,110,11,,40.0,29.551182,1005.7,,,,,,,,,,FEW,700,FEW,9000,BKN,24000,,,VFR,,,,,,,,,,,,METAR,695.0
CYWL 052100Z 12015G21KT 15SM BKN150 BKN220 02/M03 A2945 RMK AC5CI2 SLP003,CYWL,2019-01-05T21:00:00Z,52.18,-122.07,2.0,-3.0,120,15,21,15.0,29.450787,1000.3,,,,,,,,,,BKN,15000,BKN,22000,,,,,VFR,,,,,,,,,,,,METAR,940.0
CYQU 052100Z 03004KT 25SM FEW070 SCT160 OVC240 M09/M10 A2957 RMK AC1AC3CI4 SLP061,CYQU,2019-01-05T21:00:00Z,55.18,-118.88,-9.0,-10.0,30,4,,25.0,29.568897,1006.1,,,,,,,,,,FEW,7000,SCT,16000,OVC,24000,,,VFR,,,,,,,,,,,,METAR,669.0
CYQH 052100Z 30003KT 30SM BKN030 M16/M18 A2964 RMK SC7 SLP097,CYQH,2019-01-05T21:00:00Z,60.12,-128.82,-16.0,-18.0,300,3,,30.0,29.639763,1009.7,,,,,,,,,,BKN,3000,,,,,,,MVFR,,,,,,,,,,,,METAR,690.0
CYPW 052100Z 11004KT 15SM FEW012 OVC090 06/04 A2942 RMK SC2AS6 SLP966,CYPW,2019-01-05T21:00:00Z,49.82,-124.5,6.0,4.0,110,4,,15.0,29.421259,996.6,,,,,,,,,,FEW,1200,OVC,9000,,,,,VFR,,,,,,,,,,,,METAR,130.0
CYOC 052100Z 00000KT 6SM -SN FEW017 BKN047 BKN070 OVC110 M26/M29 A2998 RMK ST1SC5AC1AC1 SLP195,CYOC,2019-01-05T21:00:00Z,67.57,-139.82,-26.0,-29.0,0,0,,6.0,29.97933,1019.5,,,,,,,,,-SN,FEW,1700,BKN,4700,BKN,7000,OVC,11000,VFR,,,,,,,,,,,,METAR,251.0
CYMA 052100Z 26003KT 220V300 20SM SCT014 M28/M31 A2985 RMK SC3 SLP177,CYMA,2019-01-05T21:00:00Z,63.62,-135.87,-28.0,-31.0,260,3,,20.0,29.84941,1017.7,,,,,,,,,,SCT,1400,,,,,,,VFR,,,,,,,,,,,,METAR,504.0
CYLW 052100Z AUTO 08003KT 360V080 9SM SCT055 BKN110 02/01 A2961 RMK SLP044,CYLW,2019-01-05T21:00:00Z,49.95,-119.37,2.0,1.0,80,3,,9.0,29.610237,1004.4,,TRUE,,,,,,,,SCT,5500,BKN,11000,,,,,VFR,,,,,,,,,,,,METAR,430.0
CYKA 052100Z 10009KT 40SM FEW061 SCT150 BKN250 06/01 A2956 RMK SC1AC3CI2 PRESFR SLP022,CYKA,2019-01-05T21:00:00Z,50.7,-120.45,6.0,1.0,100,9,,40.0,29.56004,1002.2,,,,,,,,,,FEW,6100,SCT,15000,BKN,25000,,,VFR,,,,,,,,,,,,METAR,346.0
CYIN 052100Z AUTO 15015G24KT 9SM OVC110 01/M04 A2944 RMK SLP999,CYIN,2019-01-05T21:00:00Z,51.27,-121.68,1.0,-4.0,150,15,24,9.0,29.438976,999.9,,TRUE,,,,,,,,OVC,11000,,,,,,,VFR,,,,,,,,,,,,METAR,1128.0
CYGE 052100Z 14008KT 20SM FEW028 SCT045 BKN073 BKN230 02/M02 A2972 RMK SC1CU2AC2CC2 CONTRAILS SLP092,CYGE,2019-01-05T21:00:00Z,51.3,-116.98,2.0,-2.0,140,8,,20.0,29.719488,1009.2,,,,,,,,,,FEW,2800,SCT,4500,BKN,7300,BKN,23000,VFR,,,,,,,,,,,,METAR,785.0
CYDL 052100Z AUTO 05003KT 9SM OVC033 M17/M19 A2964 RMK SLP102,CYDL,2019-01-05T21:00:00Z,58.42,-130.02,-17.0,-19.0,50,3,,9.0,29.639763,1010.2,,TRUE,,,,,,,,OVC,3300,,,,,,,VFR,,,,,,,,,,,,METAR,816.0
CYDA 052100Z 00000KT 20SM FEW090 FEW140 M39/M43 A2999 RMK AC1AC1 AC TR SLP221,CYDA,2019-01-05T21:00:00Z,64.03,-139.12,-39.0,-43.0,0,0,,20.0,29.991142,1022.1,,,,,,,,,,FEW,9000,FEW,14000,,,,,VFR,,,,,,,,,,,,METAR,369.0
CYCG 052100Z 35005KT 15SM FEW020 FEW058 FEW170 BKN230 05/01 A2966 RMK SF1SC1AC1CI5 SF TR SC TR SLP061,CYCG,2019-01-05T21:00:00Z,49.28,-117.62,5.0,1.0,350,5,,15.0,29.660433,1006.1,,,,,,,,,,FEW,2000,FEW,5800,FEW,17000,BKN,23000,VFR,,,,,,,,,,,,METAR,495.0
CYCD 052100Z 00000KT 30SM OVC095 09/04 A2942 RMK AC8 SLP963,CYCD,2019-01-05T21:00:00Z,49.05,-123.87,9.0,4.0,0,0,,30.0,29.421259,996.3,,,,,,,,,,OVC,9500,,,,,,,VFR,,,,,,,,,,,,METAR,30.0
CYBD 052100Z VRB02KT 10SM BCFG OVC060 03/03 A2945 RMK SC8 VIS W 2 SLP974,CYBD,2019-01-05T21:00:00Z,52.37,-126.57,3.0,3.0,0,2,,10.0,29.450787,997.4,,,,,,,,,BCFG,OVC,6000,,,,,,,VFR,,,,,,,,,,,,METAR,35.0
CBBC 052100Z AUTO 11002KT 9SM -RA OVC028 04/03 A2943 RMK SLP968,CBBC,2019-01-05T21:00:00Z,52.18,-128.15,4.0,3.0,110,2,,9.0,29.430119,996.8,,TRUE,,,,,,,-RA,OVC,2800,,,,,,,MVFR,,,,,,,,,,,,METAR,43.0
CYZR 052100Z AUTO 19008KT 7SM CLR 05/02 A2972 RMK SLP073,CYZR,2019-01-05T21:00:00Z,43.0,-82.3,5.0,2.0,190,8,,7.0,29.719488,1007.3,,TRUE,,,,,,,,CLR,,,,,,,,VFR,,,,,,,,,,,,METAR,181.0
CYZE 052100Z AUTO 18005KT 9SM OVC016 02/01 A2963 RMK SLP043,CYZE,2019-01-05T21:00:00Z,45.87,-82.57,2.0,1.0,180,5,,9.0,29.630905,1004.3,,TRUE,,,,,,,,OVC,1600,,,,,,,MVFR,,,,,,,,,,,,METAR,193.0
CYYY 052100Z 15006KT 15SM OVC056 00/M02 A2964 RMK SC8 SLP042,CYYY,2019-01-05T21:00:00Z,48.6,-68.22,0.0,-2.0,150,6,,15.0,29.639763,1004.2,,,,,,,,,,OVC,5600,,,,,,,VFR,,,,,,,,,,,,METAR,52.0
CYWA 052100Z AUTO 29003KT 9SM BKN025 BKN056 BKN064 OVC082 02/M02 A2968 RMK SLP056,CYWA,2019-01-05T21:00:00Z,45.95,-77.32,2.0,-2.0,290,3,,9.0,29.681103,1005.6,,TRUE,,,,,,,,BKN,2500,BKN,5600,BKN,6400,OVC,8200,MVFR,,,,,,,,,,,,METAR,130.0
CYVV 052100Z 22009KT 15SM OVC020 03/01 A2966 RMK SC8 SLP052,CYVV,2019-01-05T21:00:00Z,44.75,-81.08,3.0,1.0,220,9,,15.0,29.660433,1005.2,,,,,,,,,,OVC,2000,,,,,,,MVFR,,,,,,,,,,,,METAR,222.0
CYVP 052100Z 25009KT 15SM FEW100 SCT150 SCT250 M23/M26 A2955 RMK AC1AC3CI1 CI TR SLP013,CYVP,2019-01-05T21:00:00Z,58.12,-68.42,-23.0,-26.0,250,9,,15.0,29.551182,1001.3,,,,,,,,,,FEW,10000,SCT,15000,SCT,25000,,,VFR,,,,,,,,,,,,METAR,60.0
CYRL 052100Z 33009KT 5SM -SN DRSN OVC015 M09/M12 A2998 RMK SN1SC7 SLP181,CYRL,2019-01-05T21:00:00Z,51.07,-93.78,-9.0,-12.0,330,9,,5.0,29.97933,1018.1,,,,,,,,,-SN DRSN,OVC,1500,,,,,,,MVFR,,,,,,,,,,,,METAR,383.0
CYRJ 052100Z 07002KT 25SM BKN027 BKN220 M02/M04 A2962 RMK SC5CI2 SLP041,CYRJ,2019-01-05T21:00:00Z,48.52,-72.27,-2.0,-4.0,70,2,,25.0,29.619095,1004.1,,,,,,,,,,BKN,2700,BKN,22000,,,,,MVFR,,,,,,,,,,,,METAR,179.0
CYQT 052100Z 30010KT 20SM BKN027 02/M02 A2982 RMK SC7 SLP110,CYQT,2019-01-05T21:00:00Z,48.37,-89.32,2.0,-2.0,300,10,,20.0,29.819881,1011.0,,,,,,,,,,BKN,2700,,,,,,,MVFR,,,,,,,,,,,,METAR,199.0
CYPQ 052100Z AUTO 23005KT 9SM OVC018 02/00 A2969 RMK SLP064,CYPQ,2019-01-05T21:00:00Z,44.22,-78.37,2.0,0.0,230,5,,9.0,29.68996,1006.4,,TRUE,,,,,,,,OVC,1800,,,,,,,MVFR,,,,,,,,,,,,METAR,191.0
CYND 052100Z 00000KT 15SM FEW030 BKN100 03/M01 A2964 RMK SC1AC5 SLP042,CYND,2019-01-05T21:00:00Z,45.52,-75.57,3.0,-1.0,0,0,,15.0,29.639763,1004.2,,,,,,,,,,FEW,3000,BKN,10000,,,,,VFR,,,,,,,,,,,,METAR,64.0
CYMO 052100Z AUTO 32006KT 9SM OVC055 M10/M14 A2982 RMK SLP101,CYMO,2019-01-05T21:00:00Z,51.28,-80.62,-10.0,-14.0,320,6,,9.0,29.819881,1010.1,,TRUE,,,,,,,,OVC,5500,,,,,,,VFR,,,,,,,,,,,,METAR,10.0
CYHU 052100Z AUTO 33007KT 4SM BR OVC028 01/M00 A2963 RMK SLP038,CYHU,2019-01-05T21:00:00Z,45.52,-73.42,1.0,0.0,330,7,,4.0,29.630905,1003.8,,TRUE,,,,,,,BR,OVC,2800,,,,,,,MVFR,,,,,,,,,,,,METAR,27.0
CYGR 052100Z 09006KT 15SM BKN050 OVC170 M01/M02 A2973 RMK SC6AC2 SLP069,CYGR,2019-01-05T21:00:00Z,47.42,-61.77,-1.0,-2.0,90,6,,15.0,29.731298,1006.9,,,,,,,,,,BKN,5000,OVC,17000,,,,,VFR,,,,,,,,,,,,METAR,10.0
CYGP 052100Z 00000KT 15SM OVC055 M02/M05 A2971 RMK SC8 SLP064,CYGP,2019-01-05T21:00:00Z,48.77,-64.47,-2.0,-5.0,0,0,,15.0,29.71063,1006.4,,,,,,,,,,OVC,5500,,,,,,,VFR,,,,,,,,,,,,METAR,33.0
CYFT 052100Z 24009KT 15SM BKN025 M09/M13 A2959 RMK SC7 LAST OBS/NEXT061000 UTC SLP028,CYFT,2019-01-05T21:00:00Z,55.07,-59.17,-9.0,-13.0,240,9,,15.0,29.589567,1002.8,,,,,,,,,,BKN,2500,,,,,,,MVFR,,,,,,,,,,,,METAR,71.0
CZMD 052100Z AUTO 34005KT 300V020 9SM OVC042 M15/M18 A3000 RMK SLP187,CZMD,2019-01-05T21:00:00Z,53.43,-91.77,-15.0,-18.0,340,5,,9.0,30.0,1018.7,,TRUE,,,,,,,,OVC,4200,,,,,,,VFR,,,,,,,,,,,,METAR,278.0
CYYW 052100Z AUTO 34009G16KT 310V010 9SM -SN OVC027 M05/M10 A2984 RMK SLP132,CYYW,2019-01-05T21:00:00Z,50.3,-88.9,-5.0,-10.0,340,9,16,9.0,29.840551,1013.2,,TRUE,,,,,,,-SN,OVC,2700,,,,,,,MVFR,,,,,,,,,,,,METAR,351.0
CYYH 052100Z 18010KT 7SM -SN FEW025 BKN046 BKN066 M31/M36 A2971 RMK SN1SC1SC3AC2 SLP069,CYYH,2019-01-05T21:00:00Z,69.53,-93.57,-31.0,-36.0,180,10,,7.0,29.71063,1006.9,,,,,,,,,-SN,FEW,2500,BKN,4600,BKN,6600,,,VFR,,,,,,,,,,,,METAR,28.0
CYYB 052100Z 04004KT 280V050 20SM -SN BKN012 OVC034 M01/M02 A2965 RMK SC6SC2 SLP057,CYYB,2019-01-05T21:00:00Z,46.35,-79.42,-1.0,-2.0,40,4,,20.0,29.648623,1005.7,,,,,,,,,-SN,BKN,1200,OVC,3400,,,,,MVFR,,,,,,,,,,,,METAR,371.0
CYXZ 052100Z 03004KT 8SM -SN FEW010 BKN030 BKN057 M00/M01 A2968 RMK SF1SC5SC2 SF TR SLP068,CYXZ,2019-01-05T21:00:00Z,47.97,-84.77,0.0,-1.0,30,4,,8.0,29.681103,1006.8,,,,,,,,,-SN,FEW,1000,BKN,3000,BKN,5700,,,MVFR,,,,,,,,,,,,METAR,287.0
CYXL 052100Z 35006KT 320V020 15SM -SN OVC014 M07/M09 A2992 RMK SC8 SLP161,CYXL,2019-01-05T21:00:00Z,50.12,-91.9,-7.0,-9.0,350,6,,15.0,29.920275,1016.1,,,,,,,,,-SN,OVC,1400,,,,,,,MVFR,,,,,,,,,,,,METAR,390.0
CYVQ 052100Z 00000KT 15SM BKN048 OVC060 M16/M18 A3000 RMK SC5SC3 SLP168,CYVQ,2019-01-05T21:00:00Z,65.27,-126.78,-16.0,-18.0,0,0,,15.0,30.0,1016.8,,,,,,,,,,BKN,4800,OVC,6000,,,,,VFR,,,,,,,,,,,,METAR,74.0
CYVO 052100Z 27004KT 240V310 2SM -SN OVC026 M01/M02 A2964 RMK SN3SC5 SLP057,CYVO,2019-01-05T21:00:00Z,48.07,-77.77,-1.0,-2.0,270,4,,2.0,29.639763,1005.7,,,,,,,,,-SN,OVC,2600,,,,,,,IFR,,,,,,,,,,,,METAR,337.0
CYSP 052100Z 01007KT 15SM SCT012 BKN016 OVC024 M01/M03 A2973 RMK SC3SC4SC1 SLP088,CYSP,2019-01-05T21:00:00Z,48.75,-86.35,-1.0,-3.0,10,7,,15.0,29.731298,1008.8,,,,,,,,,,SCT,1200,BKN,1600,OVC,2400,,,MVFR,,,,,,,,,,,,METAR,315.0
CYSN 052100Z 23008KT 6SM BR OVC013 02/01 A2975 RMK SC8 SLP079,CYSN,2019-01-05T21:00:00Z,43.2,-79.17,2.0,1.0,230,8,,6.0,29.749016,1007.9,,,,,,,,,BR,OVC,1300,,,,,,,MVFR,,,,,,,,,,,,METAR,98.0
CYSC 052100Z AUTO 05003KT 9SM BKN140 BKN240 02/M00 A2956 RMK SLP022,CYSC,2019-01-05T21:00:00Z,45.43,-71.68,2.0,0.0,50,3,,9.0,29.56004,1002.2,,TRUE,,,,,,,,BKN,14000,BKN,24000,,,,,VFR,,,,,,,,,,,,METAR,241.0
CYRQ 052100Z AUTO 06005KT 3SM BR OVC005 01/00 A2962 RMK SLP036,CYRQ,2019-01-05T21:00:00Z,46.35,-72.68,1.0,0.0,60,5,,3.0,29.619095,1003.6,,TRUE,,,,,,,BR,OVC,500,,,,,,,IFR,,,,,,,,,,,,METAR,61.0
CYRB 052100Z VRB02KT 10SM IC FEW030 M30/M33 A2968 RMK SC2 SLP067,CYRB,2019-01-05T21:00:00Z,74.72,-94.97,-30.0,-33.0,0,2,,10.0,29.681103,1006.7,,,,,,,,,IC,FEW,3000,,,,,,,VFR,,,,,,,,,,,,METAR,67.0
CYQK 052100Z 33008KT 20SM OVC014 M07/M10 A2999 RMK SC8 SLP181,CYQK,2019-01-05T21:00:00Z,49.77,-94.37,-7.0,-10.0,330,8,,20.0,29.991142,1018.1,,,,,,,,,,OVC,1400,,,,,,,MVFR,,,,,,,,,,,,METAR,411.0
CYQA 052100Z AUTO 18003KT 9SM SCT015 BKN090 OVC110 01/M01 A2965 RMK ICG INTMT SLP053,CYQA,2019-01-05T21:00:00Z,44.97,-79.28,1.0,-1.0,180,3,,9.0,29.648623,1005.3,,TRUE,,,,,,,,SCT,1500,BKN,9000,OVC,11000,,,VFR,,,,,,,,,,,,METAR,282.0
CYOO 052100Z AUTO 21006KT 9SM OVC016 02/00 A2972 RMK SLP072,CYOO,2019-01-05T21:00:00Z,43.92,-78.9,2.0,0.0,210,6,,9.0,29.719488,1007.2,,TRUE,,,,,,,,OVC,1600,,,,,,,MVFR,,,,,,,,,,,,METAR,139.0
CYLD 052100Z 01003KT 10SM -SN OVC027 M01/M02 A2963 RMK SC8 SLP061,CYLD,2019-01-05T21:00:00Z,47.82,-83.33,-1.0,-2.0,10,3,,10.0,29.630905,1006.1,,,,,,,,,-SN,OVC,2700,,,,,,,MVFR,,,,,,,,,,,,METAR,447.0
CYKL 052100Z AUTO 27005KT 9SM -SN BKN055 OVC080 M08/M10 A2942 RMK SLP006,CYKL,2019-01-05T21:00:00Z,54.78,-66.82,-8.0,-10.0,270,5,,9.0,29.421259,1000.6,,TRUE,,,,,,,-SN,BKN,5500,OVC,8000,,,,,VFR,,,,,,,,,,,,METAR,521.0
CYKF 052100Z AUTO 23005KT 9SM OVC010 01/M01 A2970 RMK SLP074,CYKF,2019-01-05T21:00:00Z,43.47,-80.38,1.0,-1.0,230,5,,9.0,29.698818,1007.4,,TRUE,,,,,,,,OVC,1000,,,,,,,MVFR,,,,,,,,,,,,METAR,317.0
CYHM 052100Z 24010G18KT 4SM BR OVC006 M00/M01 A2974 RMK SC8 SLP081,CYHM,2019-01-05T21:00:00Z,43.17,-79.93,0.0,-1.0,240,10,18,4.0,29.740158,1008.1,,,,,,,,,BR,OVC,600,,,,,,,IFR,,,,,,,,,,,,METAR,238.0
CYGQ 052100Z 36004KT 10SM -SN BKN017 OVC033 M04/M08 A2978 RMK SC5SC3 SLP108,CYGQ,2019-01-05T21:00:00Z,49.77,-86.92,-4.0,-8.0,360,4,,10.0,29.778543,1010.8,,,,,,,,,-SN,BKN,1700,OVC,3300,,,,,MVFR,,,,,,,,,,,,METAR,351.0
CYGK 052100Z 31004KT 15SM OVC023 03/M01 A2970 RMK SC8 SLP061,CYGK,2019-01-05T21:00:00Z,44.22,-76.58,3.0,-1.0,310,4,,15.0,29.698818,1006.1,,,,,,,,,,OVC,2300,,,,,,,MVFR,,,,,,,,,,,,METAR,93.0
CYER 052100Z AUTO 30007KT 9SM CLR M22/M24 A3002 RMK SLP170,CYER,2019-01-05T21:00:00Z,56.02,-87.68,-22.0,-24.0,300,7,,9.0,30.02067,1017.0,,TRUE,,,,,,,,CLR,,,,,,,,VFR,,,,,,,,,,,,METAR,16.0
CYCK 052100Z AUTO 23010KT 8SM CLR 05/03 A2976 RMK SLP086,CYCK,2019-01-05T21:00:00Z,42.3,-82.08,5.0,3.0,230,10,,8.0,29.760826,1008.6,,TRUE,,,,,,,,CLR,,,,,,,,VFR,,,,,,,,,,,,METAR,198.0
CYBN 052100Z AUTO 15005KT 9SM BKN092 03/M00 A2967 RMK SLP058,CYBN,2019-01-05T21:00:00Z,44.27,-79.92,3.0,0.0,150,5,,9.0,29.66929,1005.8,,TRUE,,,,,,,,BKN,9200,,,,,,,VFR,,,,,,,,,,,,METAR,223.0
CYAT 052100Z AUTO 34006KT 9SM FEW020 OVC080 M14/M17 A2987 RMK SLP117,CYAT,2019-01-05T21:00:00Z,52.93,-82.43,-14.0,-17.0,340,6,,9.0,29.870079,1011.7,,TRUE,,,,,,,,FEW,2000,OVC,8000,,,,,VFR,,,,,,,,,,,,METAR,9.0
CZVL 052100Z AUTO 14012KT 9SM OVC006 M04/M05 A2975 RMK SLP115,CZVL,2019-01-05T21:00:00Z,53.67,-113.85,-4.0,-5.0,140,12,,9.0,29.749016,1011.5,,TRUE,,,,,,,,OVC,600,,,,,,,IFR,,,,,,,,,,,,METAR,686.0
CYZH 052100Z AUTO 11014KT 9SM SCT012 OVC018 M06/M07 A2974 RMK SLP111,CYZH,2019-01-05T21:00:00Z,55.28,-114.77,-6.0,-7.0,110,14,,9.0,29.740158,1011.1,,TRUE,,,,,,,,SCT,1200,OVC,1800,,,,,MVFR,,,,,,,,,,,,METAR,581.0
CYYL 052100Z AUTO 28006KT 9SM CLR M23/M26 A3009 RMK SLP235,CYYL,2019-01-05T21:00:00Z,56.87,-101.07,-23.0,-26.0,280,6,,9.0,30.088583,1023.5,,TRUE,,,,,,,,CLR,,,,,,,,VFR,,,,,,,,,,,,METAR,357.0
CYVC 052100Z 18005KT 15SM FEW120 M18/M21 A3013 RMK AC1 SLP241,CYVC,2019-01-05T21:00:00Z,55.15,-105.27,-18.0,-21.0,180,5,,15.0,30.129921,1024.1,,,,,,,,,,FEW,12000,,,,,,,VFR,,,,,,,,,,,,METAR,379.0
CYQW 052100Z AUTO 11014G19KT 9SM OVC021 M08/M10 A2997 RMK SLP189,CYQW,2019-01-05T21:00:00Z,52.77,-108.25,-8.0,-10.0,110,14,19,9.0,29.970472,1018.9,,TRUE,,,,,,,,OVC,2100,,,,,,,MVFR,,,,,,,,,,,,METAR,548.0
CYQR 052100Z 14003KT 15SM FEW017 FEW100 SCT240 M04/M05 A2999 RMK SC1AC1CI2 SLP194,CYQR,2019-01-05T21:00:00Z,50.43,-104.67,-4.0,-5.0,140,3,,15.0,29.991142,1019.4,,,,,,,,,,FEW,1700,FEW,10000,SCT,24000,,,VFR,,,,,,,,,,,,METAR,577.0
CYQL 052100Z 04006KT 030V160 60SM SCT170 OVC270 04/M03 A2971 RMK AC3CI5 SLP086,CYQL,2019-01-05T21:00:00Z,49.63,-112.8,4.0,-3.0,40,6,,60.0,29.71063,1008.6,,,,,,,,,,SCT,17000,OVC,27000,,,,,VFR,,,,,,,,,,,,METAR,929.0
CYQF 052100Z 14014KT 3/4SM BR OVC002 M07/M08 A2972 RMK ST8 SLP118,CYQF,2019-01-05T21:00:00Z,52.17,-113.9,-7.0,-8.0,140,14,,0.75,29.719488,1011.8,,,,,,,,,BR,OVC,200,,,,,,,LIFR,,,,,,,,,,,,METAR,905.0
CYOJ 052100Z 13008KT 15SM -SN BKN010 OVC045 M12/M14 A2976 RMK SC7SC1 SLP112,CYOJ,2019-01-05T21:00:00Z,58.62,-117.17,-12.0,-14.0,130,8,,15.0,29.760826,1011.2,,,,,,,,,-SN,BKN,1000,OVC,4500,,,,,MVFR,,,,,,,,,,,,METAR,338.0
CYNE 052100Z AUTO 33007KT 9SM OVC040 M13/M17 A3011 RMK SLP221,CYNE,2019-01-05T21:00:00Z,53.97,-97.82,-13.0,-17.0,330,7,,9.0,30.109253,1022.1,,TRUE,,,,,,,,OVC,4000,,,,,,,VFR,,,,,,,,,,,,METAR,223.0
CYMM 052100Z AUTO 13010KT 9SM OVC100 M14/M17 A2996 RMK SLP180,CYMM,2019-01-05T21:00:00Z,56.65,-111.22,-14.0,-17.0,130,10,,9.0,29.958662,1018.0,,TRUE,,,,,,,,OVC,10000,,,,,,,VFR,,,,,,,,,,,,METAR,369.0
CYLL 052100Z 11011KT 15SM OVC008 M08/M09 A2987 RMK SC8 SLP163,CYLL,2019-01-05T21:00:00Z,53.32,-110.07,-8.0,-9.0,110,11,,15.0,29.870079,1016.3,,,,,,,,,,OVC,800,,,,,,,IFR,,,,,,,,,,,,METAR,669.0
CYKJ 052100Z AUTO 00000KT 9SM CLR M22/M24 A3001 RMK SLP227,CYKJ,2019-01-05T21:00:00Z,57.25,-105.62,-22.0,-24.0,0,0,,9.0,30.008858,1022.7,,TRUE,,,,,,,,CLR,,,,,,,,VFR,,,,,,,,,,,,METAR,509.0
CYGX 052100Z 28006KT 15SM SKC M21/M25 A3010 RMK SLP214,CYGX,2019-01-05T21:00:00Z,56.35,-94.7,-21.0,-25.0,280,6,,15.0,30.100393,1021.4,,,,,,,,,,SKC,,,,,,,,VFR,,,,,,,,,,,,METAR,145.0
CYET 052100Z AUTO 13005KT 070V150 9SM OVC005 M05/M05 A2964 RMK SLP085,CYET,2019-01-05T21:00:00Z,53.57,-116.47,-5.0,-5.0,130,5,,9.0,29.639763,1008.5,,TRUE,,,,,,,,OVC,500,,,,,,,IFR,,,,,,,,,,,,METAR,925.0
CYBQ 052100Z AUTO 29004KT 9SM CLR M24/M28 A3003 RMK SLP209,CYBQ,2019-01-05T21:00:00Z,58.7,-98.5,-24.0,-28.0,290,4,,9.0,30.029528,1020.9,,TRUE,,,,,,,,CLR,,,,,,,,VFR,,,,,,,,,,,,METAR,262.0
CYBK 052100Z 00000KT 10SM -SN BKN055 BKN090 M25/M29 A2983 RMK SC5AC1 SLP107,CYBK,2019-01-05T21:00:00Z,64.28,-96.07,-25.0,-29.0,0,0,,10.0,29.828741,1010.7,,,,,,,,,-SN,BKN,5500,BKN,9000,,,,,VFR,,,,,,,,,,,,METAR,18.0
CYZG 052100Z 20017KT 15SM FEW100 SCT140 M29/M32 A2945 RMK AC1AS2 SLP011,CYZG,2019-01-05T21:00:00Z,62.17,-75.67,-29.0,-32.0,200,17,,15.0,29.450787,1001.1,,,,,,,,,,FEW,10000,SCT,14000,,,,,VFR,,,,,,,,,,,,METAR,226.0
CYWK 052100Z 16005KT 12SM -SN BKN021 M06/M08 A2948 RMK SC7 SLP024,CYWK,2019-01-05T21:00:00Z,52.92,-66.87,-6.0,-8.0,160,5,,12.0,29.480314,1002.4,,,,,,,,,-SN,BKN,2100,,,,,,,MVFR,,,,,,,,,,,,METAR,551.0
CYMU 052100Z 00000KT 15SM FEW075 FEW280 M23/M26 A2973 RMK AC1CI1 AC TR SLP078,CYMU,2019-01-05T21:00:00Z,56.52,-76.52,-23.0,-26.0,0,0,,15.0,29.731298,1007.8,,,,,,,,,,FEW,7500,FEW,28000,,,,,VFR,,,,,,,,,,,,METAR,71.0
CYMH 052100Z AUTO 21005KT 140V230 9SM CLR M05/M10 A2975 RMK SLP075,CYMH,2019-01-05T21:00:00Z,52.28,-55.85,-5.0,-10.0,210,5,,9.0,29.749016,1007.5,,TRUE,,,,,,,,CLR,,,,,,,,VFR,,,,,,,,,,,,METAR,11.0
CYLA 052100Z 24005KT 15SM FEW030 FEW080 M24/M27 A2950 RMK SC1AC1 SC TR SLP997,CYLA,2019-01-05T21:00:00Z,59.28,-69.58,-24.0,-27.0,240,5,,15.0,29.500984,999.7,,,,,,,,,,FEW,3000,FEW,8000,,,,,VFR,,,,,,,,,,,,METAR,35.0
CYKG 052100Z 31007KT 15SM IC FEW030 FEW100 FEW250 M21/M25 A2944 RMK SC1AS1CI1 SC TR AS TR SLP992,CYKG,2019-01-05T21:00:00Z,61.57,-71.92,-21.0,-25.0,310,7,,15.0,29.438976,999.2,,,,,,,,,IC,FEW,3000,FEW,10000,FEW,25000,,,VFR,,,,,,,,,,,,METAR,151.0
CYHA 052100Z 34011KT 15SM DRSN OVC013 M16/M18 A2944 RMK ST8 SLP976,CYHA,2019-01-05T21:00:00Z,61.03,-69.62,-16.0,-18.0,340,11,,15.0,29.438976,997.6,,,,,,,,,DRSN,OVC,1300,,,,,,,MVFR,,,,,,,,,,,,METAR,30.0
CYGV 052100Z AUTO 05008KT 9SM OVC047 M06/M07 A2972 RMK SLP068,CYGV,2019-01-05T21:00:00Z,50.27,-63.62,-6.0,-7.0,50,8,,9.0,29.719488,1006.8,,TRUE,,,,,,,,OVC,4700,,,,,,,VFR,,,,,,,,,,,,METAR,33.0
CYBX 052100Z 00000KT 15SM FEW015 M07/M08 A2977 RMK SC1 SLP084,CYBX,2019-01-05T21:00:00Z,51.45,-57.17,-7.0,-8.0,0,0,,15.0,29.769686,1008.4,,,,,,,,,,FEW,1500,,,,,,,VFR,,,,,,,,,,,,METAR,35.0
CYAS 052100Z 27006KT 15SM FEW030 M24/M26 A2944 RMK SC2 SLP987,CYAS,2019-01-05T21:00:00Z,60.02,-70.0,-24.0,-26.0,270,6,,15.0,29.438976,998.7,,,,,,,,,,FEW,3000,,,,,,,VFR,,,,,,,,,,,,METAR,117.0
CYAB 052100Z 29003KT 10SM -SN FEW008 FEW017 BKN045 M25/M29 A2974 RMK ST1SC1SC5 SLP077,CYAB,2019-01-05T21:00:00Z,73.0,-85.05,-25.0,-29.0,290,3,,10.0,29.740158,1007.7,,,,,,,,,-SN,FEW,800,FEW,1700,BKN,4500,,,VFR,,,,,,,,,,,,METAR,22.0
CYOA 052100Z 29010KT 15SM OVC023 M19/M21 A2976 RMK SC8,CYOA,2019-01-05T21:00:00Z,64.7,-110.62,-19.0,-21.0,290,10,,15.0,29.760826,,,,,,,,,,,OVC,2300,,,,,,,MVFR,,,,,,,,,,,,METAR,469.0
CYZU 052100Z 09006KT 5SM BR OVC003 M07/M08 A2969 RMK SC8 SLP100,CYZU,2019-01-05T21:00:00Z,54.15,-115.78,-7.0,-8.0,90,6,,5.0,29.68996,1010.0,,,,,,,,,BR,OVC,300,,,,,,,LIFR,,,,,,,,,,,,METAR,785.0
CYXH 052100Z 04005KT 30SM BKN260 02/M03 A2978 RMK CI7 SLP116,CYXH,2019-01-05T21:00:00Z,50.02,-110.72,2.0,-3.0,40,5,,30.0,29.778543,1011.6,,,,,,,,,,BKN,26000,,,,,,,VFR,,,,,,,,,,,,METAR,716.0
CYVT 052100Z 13007KT 15SM BKN075 M17/M21 A3001 RMK AC7 SLP209,CYVT,2019-01-05T21:00:00Z,55.82,-108.42,-17.0,-21.0,130,7,,15.0,30.008858,1020.9,,,,,,,,,,BKN,7500,,,,,,,VFR,,,,,,,,,,,,METAR,434.0
CYUX 052100Z 06008KT 10SM HZ SCT017 M24/M27 A2957 RMK SC3 SLP016,CYUX,2019-01-05T21:00:00Z,68.77,-81.25,-24.0,-27.0,60,8,,10.0,29.568897,1001.6,,,,,,,,,HZ,SCT,1700,,,,,,,VFR,,,,,,,,,,,,METAR,8.0
CYUB 052100Z 26003KT 3SM -SN BKN036 M18/M20 A3004 RMK SC7 SLP176,CYUB,2019-01-05T21:00:00Z,69.45,-133.02,-18.0,-20.0,260,3,,3.0,30.041338,1017.6,,,,,,,,,-SN,BKN,3600,,,,,,,MVFR,,,,,,,,,,,,METAR,5.0
CYTH 052100Z 30006KT 15SM FEW020 M17/M22 A3011 RMK SC1 SLP224,CYTH,2019-01-05T21:00:00Z,55.78,-97.87,-17.0,-22.0,300,6,,15.0,30.109253,1022.4,,,,,,,,,,FEW,2000,,,,,,,VFR,,,,,,,,,,,,METAR,218.0
CYSM 052100Z 14006KT 8SM -SN OVC009 M14/M16 A2998 RMK SC8 SLP175,CYSM,2019-01-05T21:00:00Z,60.03,-111.97,-14.0,-16.0,140,6,,8.0,29.97933,1017.5,,,,,,,,,-SN,OVC,900,,,,,,,IFR,,,,,,,,,,,,METAR,203.0
CYQV 052100Z AUTO 35007KT 9SM OVC008 M09/M11 A3005 RMK SLP214,CYQV,2019-01-05T21:00:00Z,51.27,-102.47,-9.0,-11.0,350,7,,9.0,30.050198,1021.4,,TRUE,,,,,,,,OVC,800,,,,,,,IFR,,,,,,,,,,,,METAR,498.0
CYPE 052100Z 06004KT 15SM OVC013 M07/M10 A2966 RMK SC8 SLP086,CYPE,2019-01-05T21:00:00Z,56.22,-117.45,-7.0,-10.0,60,4,,15.0,29.660433,1008.6,,,,,,,,,,OVC,1300,,,,,,,MVFR,,,,,,,,,,,,METAR,571.0
CYOD 052100Z 09008KT 15SM OVC012 M10/M12 A2993 RMK SC8 SLP177,CYOD,2019-01-05T21:00:00Z,54.4,-110.28,-10.0,-12.0,90,8,,15.0,29.929134,1017.7,,,,,,,,,,OVC,1200,,,,,,,MVFR,,,,,,,,,,,,METAR,544.0
CYLJ 052100Z 07008KT 15SM FEW010 SCT070 M13/M16 A2998 RMK SC1AC2 SLP193,CYLJ,2019-01-05T21:00:00Z,54.12,-108.52,-13.0,-16.0,70,8,,15.0,29.97933,1019.3,,,,,,,,,,FEW,1000,SCT,7000,,,,,VFR,,,,,,,,,,,,METAR,480.0
CYIO 052100Z 15011KT 15SM FEW042 SCT250 M29/M32 A2978 RMK SC1CI2 SLP098,CYIO,2019-01-05T21:00:00Z,72.67,-77.97,-29.0,-32.0,150,11,,15.0,29.778543,1009.8,,,,,,,,,,FEW,4200,SCT,25000,,,,,VFR,,,,,,,,,,,,METAR,57.0
CYEK 052100Z 24008KT 15SM IC SCT120 M27/M31 A2994 RMK AS4 -25.8/-29.5/0.1MM/LST STFD OBS/NXT 061500Z SLP143,CYEK,2019-01-05T21:00:00Z,61.1,-94.07,-27.0,-31.0,240,8,,15.0,29.940945,1014.3,,,,,,,,,IC,SCT,12000,,,,,,,VFR,,,,,,,,,,,,METAR,10.0
CYED 052100Z AUTO 15009KT 9SM OVC007 M04/M07 A2977 RMK SLP121,CYED,2019-01-05T21:00:00Z,53.67,-113.47,-4.0,-7.0,150,9,,9.0,29.769686,1012.1,,TRUE,,,,,,,,OVC,700,,,,,,,IFR,,,,,,,,,,,,METAR,688.0
CYCY 052100Z VRB02KT 15SM SKC M30/M32 A2987 RMK SLP123,CYCY,2019-01-05T21:00:00Z,70.47,-68.52,-30.0,-32.0,0,2,,15.0,29.870079,1012.3,,,,,,,,,,SKC,,,,,,,,VFR,,,,,,,,,,,,METAR,26.0
CYBW 052100Z AUTO 10006KT 8SM CLR M02/M05 A2965 RMK SLP099,CYBW,2019-01-05T21:00:00Z,51.1,-114.37,-2.0,-5.0,100,6,,8.0,29.648623,1009.9,,TRUE,,,,,,,,CLR,,,,,,,,VFR,,,,,,,,,,,,METAR,1200.0
CWRF 052100Z AUTO 31008KT M33/ A2951 RMK SLP056,CWRF,2019-01-05T21:00:00Z,69.42,-89.72,-33.0,,310,8,,,29.509842,1005.6,,TRUE,,,,,,,,,,,,,,,,,,,,,,,,,,,,METAR,325.0
CYWH 052100Z 36010KT 15SM BKN050 OVC110 08/04 A2941 RMK SC5AC3 SLP959,CYWH,2019-01-05T21:00:00Z,48.42,-123.38,8.0,4.0,360,10,,15.0,29.409449,995.9,,,,,,,,,,BKN,5000,OVC,11000,,,,,VFR,,,,,,,,,,,,METAR,10.0
CYZS 052100Z 36014KT 15SM IC DRSN SKC M33/M37 A2957 RMK PRESRR SLP027,CYZS,2019-01-05T21:00:00Z,64.2,-83.37,-33.0,-37.0,360,14,,15.0,29.568897,1002.7,,,,,,,,,IC DRSN,SKC,,,,,,,,VFR,,,,,,,,,,,,METAR,64.0
CYXN 052100Z 28013KT 15SM IC FEW020 SCT230 M28/M32 A2987 RMK SC1CI2 -27.0/-29.0/TR/LAST STFD OBS/NEXT 061500Z SLP118,CYXN,2019-01-05T21:00:00Z,62.22,-92.58,-28.0,-32.0,280,13,,15.0,29.870079,1011.8,,,,,,,,,IC,FEW,2000,SCT,23000,,,,,VFR,,,,,,,,,,,,METAR,20.0
CYWJ 052100Z 34003KT 15SM FEW010 SCT040 BKN060 M20/M22 A2992 RMK ST1SC3SC3 SLP161,CYWJ,2019-01-05T21:00:00Z,65.22,-123.43,-20.0,-22.0,340,3,,15.0,29.920275,1016.1,,,,,,,,,,FEW,1000,SCT,4000,BKN,6000,,,VFR,,,,,,,,,,,,METAR,176.0
CYVM 052100Z 32003KT 310V060 15SM IC BKN065 M32/M35 A2982 RMK SC7 SLP101,CYVM,2019-01-05T21:00:00Z,67.53,-64.02,-32.0,-35.0,320,3,,15.0,29.819881,1010.1,,,,,,,,,IC,BKN,6500,,,,,,,VFR,,,,,,,,,,,,METAR,6.0
CYUT 052100Z 33014G19KT 15SM DRSN BKN270 M33/M37 A2965 RMK CI5 -31.5/-33.1/0.0/1.0 SNW CVR/ONE LOOSE LAST STFD OB/NXT 061500Z SLP046,CYUT,2019-01-05T21:00:00Z,66.52,-86.25,-33.0,-37.0,330,14,19,15.0,29.648623,1004.6,,,,,,,,,DRSN,BKN,27000,,,,,,,VFR,,,,,,,,,,,,METAR,24.0
CYSY 052100Z 34013KT 10SM DRSN SCT007 M28/M32 A2996 RMK ST4 SLP163,CYSY,2019-01-05T21:00:00Z,72.0,-125.27,-28.0,-32.0,340,13,,10.0,29.958662,1016.3,,,,,,,,,DRSN,SCT,700,,,,,,,VFR,,,,,,,,,,,,METAR,86.0
CYRT 052100Z 32010KT 15SM IC FEW055 SCT240 M29/M32 A2981 RMK SC2CI2 SLP103,CYRT,2019-01-05T21:00:00Z,62.82,-92.12,-29.0,-32.0,320,10,,15.0,29.811024,1010.3,,,,,,,,,IC,FEW,5500,SCT,24000,,,,,VFR,,,,,,,,,,,,METAR,32.0
CYRA 052100Z 00000KT 15SM OVC057 M18/M21 A2991 RMK SC8 -23.0/-18.5/0/32.0 SNW CVR/MUCH LOOSE LAST STFD OBS/NEXT 061500 UTC SLP157,CYRA,2019-01-05T21:00:00Z,64.12,-117.32,-18.0,-21.0,0,0,,15.0,29.911417,1015.7,,,,,,,,,,OVC,5700,,,,,,,VFR,,,,,,,,,,,,METAR,213.0
CYLK 052100Z 09003KT 040V130 25SM -SN OVC006 M20/M24 A2998 RMK SC8 -32.7/-19.3/TR/23/SNW CVR MUCH LOOSE LAST STFD OBS NEXT 061500 SLP182,CYLK,2019-01-05T21:00:00Z,62.42,-110.67,-20.0,-24.0,90,3,,25.0,29.97933,1018.2,,,,,,,,,-SN,OVC,600,,,,,,,IFR,,,,,,,,,,,,METAR,179.0
CYKD 052100Z 17002KT 15SM BKN070 M20/M22 A3005 RMK AC7 SLP177,CYKD,2019-01-05T21:00:00Z,68.22,-135.0,-20.0,-22.0,170,2,,15.0,30.050198,1017.7,,,,,,,,,,BKN,7000,,,,,,,VFR,,,,,,,,,,,,METAR,7.0
CYHY 052100Z 13007KT 15SM SCT014 BKN100 M13/M15 A2990 RMK SC4AC3 SLP144,CYHY,2019-01-05T21:00:00Z,60.82,-115.77,-13.0,-15.0,130,7,,15.0,29.899607,1014.4,,,,,,,,,,SCT,1400,BKN,10000,,,,,VFR,,,,,,,,,,,,METAR,166.0
CYHK 052100Z AUTO 32011KT 9SM CLR M35/M38 A2974 RMK SLP083,CYHK,2019-01-05T21:00:00Z,68.62,-95.83,-35.0,-38.0,320,11,,9.0,29.740158,1008.3,,TRUE,,,,,,,,CLR,,,,,,,,VFR,,,,,,,,,,,,METAR,46.0
CYFS 052100Z VRB02KT 12SM -SN BKN050 OVC085 M14/M16 A2983 RMK SC5AC3 SLP121,CYFS,2019-01-05T21:00:00Z,61.75,-121.22,-14.0,-16.0,0,2,,12.0,29.828741,1012.1,,,,,,,,,-SN,BKN,5000,OVC,8500,,,,,VFR,,,,,,,,,,,,METAR,169.0
CYCS 052100Z 29017KT 15SM BKN061 BKN070 M30/M34 A2979 RMK SC5AS2 -29.1/-31.2/NIL/37 TR LOOSE/ LAST STFD OBS/ NXT 061500 SLP093,CYCS,2019-01-05T21:00:00Z,63.35,-90.72,-30.0,-34.0,290,17,,15.0,29.790354,,,,,,,,,,,BKN,6100,BKN,7000,,,,,VFR,,,,,,,,,,,,METAR,11.0
CYCB 052100Z 16003KT 6SM -SN SCT040 BKN070 BKN140 M27/M31 A2977 RMK SC4AC2AC1 SLP089,CYCB,2019-01-05T21:00:00Z,69.08,-105.12,-27.0,-31.0,160,3,,6.0,29.769686,1008.9,,,,,,,,,-SN,SCT,4000,BKN,7000,BKN,14000,,,VFR,,,,,,,,,,,,METAR,27.0
CYBB 052100Z 23014KT 12SM IC FEW100 M33/M37 A2972 RMK AC2 SLP071,CYBB,2019-01-05T21:00:00Z,68.52,-89.82,-33.0,-37.0,230,14,,12.0,29.719488,1007.1,,,,,,,,,IC,FEW,10000,,,,,,,VFR,,,,,,,,,,,,METAR,15.0
CYZX 052100Z 07009KT 12SM OVC016 02/01 A2963 RMK SC8 SLP035,CYZX,2019-01-05T21:00:00Z,44.98,-64.92,2.0,1.0,70,9,,12.0,29.630905,1003.5,,,,,,,,,,OVC,1600,,,,,,,MVFR,,,,,,,,,,,,METAR,28.0
CYZF 052100Z 16002KT 15SM -SN FEW002 BKN027 BKN090 M17/M19 A2994 RMK SF1SC7AC1 SF TR AC TR SLP165,CYZF,2019-01-05T21:00:00Z,62.47,-114.45,-17.0,-19.0,160,2,,15.0,29.940945,1016.5,,,,,,,,,-SN,FEW,200,BKN,2700,BKN,9000,,,MVFR,,,,,,,,,,,,METAR,206.0
CYYZ 052100Z 24006KT 15SM FEW016 FEW090 02/M02 A2971 RMK SF1AC1 SF TR SLP070,CYYZ,2019-01-05T21:00:00Z,43.67,-79.62,2.0,-2.0,240,6,,15.0,29.71063,1007.0,,,,,,,,,,FEW,1600,FEW,9000,,,,,VFR,,,,,,,,,,,,METAR,173.0
CYYT 052100Z 19011KT 15SM SCT005 OVC020 00/M00 A2989 RMK ST4SC4 CIG ESTD SLP131,CYYT,2019-01-05T21:00:00Z,47.62,-52.72,0.0,0.0,190,11,,15.0,29.890747,1013.1,,,,,,,,,,SCT,500,OVC,2000,,,,,MVFR,,,,,,,,,,,,METAR,140.0
CYYR 052100Z 00000KT 15SM FEW045 FEW080 FEW250 M14/M15 A2968 RMK SC1AC1CI2 SLP056,CYYR,2019-01-05T21:00:00Z,53.32,-60.42,-14.0,-15.0,0,0,,15.0,29.681103,1005.6,,,,,,,,,,FEW,4500,FEW,8000,FEW,25000,,,VFR,,,,,,,,,,,,METAR,49.0
CYYQ 052100Z 27007KT 15SM IC FEW300 M28/M32 A3006 RMK CI1 CI TR SLP185,CYYQ,2019-01-05T21:00:00Z,58.75,-94.07,-28.0,-32.0,270,7,,15.0,30.059055,1018.5,,,,,,,,,IC,FEW,30000,,,,,,,VFR,,,,,,,,,,,,METAR,29.0
CYYC 052100Z 11004KT 2 1/2SM BR SCT003 BKN130 OVC180 M07/M08 A2968 RMK FG1ST3AC2AC2 SLP115,CYYC,2019-01-05T21:00:00Z,51.12,-114.02,-7.0,-8.0,110,4,,2.5,29.681103,1011.5,,,,,,,,,BR,SCT,300,BKN,13000,OVC,18000,,,IFR,,,,,,,,,,,,METAR,1084.0
CYXX 052100Z 03005KT 25SM FEW050 SCT130 BKN140 09/03 A2943 RMK CU1AC4AC3 CU TR PRESFR SLP968,CYXX,2019-01-05T21:00:00Z,49.03,-122.38,9.0,3.0,30,5,,25.0,29.430119,996.8,,,,,,,,,,FEW,5000,SCT,13000,BKN,14000,,,VFR,,,,,,,,,,,,METAR,58.0
CYWG 052100Z 01006KT 15SM OVC017 M07/M10 A3011 RMK SC8 SLP215,CYWG,2019-01-05T21:00:00Z,49.88,-97.22,-7.0,-10.0,10,6,,15.0,30.109253,1021.5,,,,,,,,,,OVC,1700,,,,,,,MVFR,,,,,,,,,,,,METAR,239.0
CYVR 052100Z 34004KT 30SM FEW012 FEW035 SCT100 BKN130 OVC180 07/05 A2941 RMK CF1CF1AC3AC4AC1 CF TR CF TR PRESFR SLP962,CYVR,2019-01-05T21:00:00Z,49.17,-123.17,7.0,5.0,340,4,,30.0,29.409449,996.2,,,,,,,,,,FEW,1200,FEW,3500,SCT,10000,BKN,13000,VFR,,,,,,,,,,,,METAR,2.0
CYUL 052100Z 33004KT 10SM FEW009 OVC032 02/00 A2965 RMK SF1SC8 SF TR SLP042,CYUL,2019-01-05T21:00:00Z,45.47,-73.73,2.0,0.0,330,4,,10.0,29.648623,1004.2,,,,,,,,,,FEW,900,OVC,3200,,,,,VFR,,,,,,,,,,,,METAR,36.0
CYTR 052100Z 24005KT 15SM OVC018 03/M00 A2970 RMK SC8 SLP063,CYTR,2019-01-05T21:00:00Z,44.12,-77.52,3.0,0.0,240,5,,15.0,29.698818,1006.3,,,,,,,,,,OVC,1800,,,,,,,MVFR,,,,,,,,,,,,METAR,86.0
CYQY 052100Z 10003KT 3SM BR BKN003 OVC022 01/01 A2972 RMK ST5SC3 SLP069,CYQY,2019-01-05T21:00:00Z,46.17,-60.03,1.0,1.0,100,3,,3.0,29.719488,1006.9,,,,,,,,,BR,BKN,300,OVC,2200,,,,,LIFR,,,,,,,,,,,,METAR,62.0
CYQX 052100Z 20006KT 20SM FEW008 FEW015 SCT025 BKN040 M01/M02 A2982 RMK SF1SC1SC1SC3 SLP109,CYQX,2019-01-05T21:00:00Z,48.95,-54.58,-1.0,-2.0,200,6,,20.0,29.819881,1010.9,,,,,,,,,,FEW,800,FEW,1500,SCT,2500,BKN,4000,VFR,,,,,,,,,,,,METAR,151.0
CYQQ 052100Z 12007KT 20SM FEW030 OVC075 08/06 A2942 RMK SC1AS7 SLP963,CYQQ,2019-01-05T21:00:00Z,49.72,-124.9,8.0,6.0,120,7,,20.0,29.421259,996.3,,,,,,,,,,FEW,3000,OVC,7500,,,,,VFR,,,,,,,,,,,,METAR,24.0
CYQM 052100Z 05006KT 12SM FEW009 OVC032 00/M01 A2966 RMK SF2SC6 SLP049,CYQM,2019-01-05T21:00:00Z,46.12,-64.67,0.0,-1.0,50,6,,12.0,29.660433,1004.9,,,,,,,,,,FEW,900,OVC,3200,,,,,VFR,,,,,,,,,,,,METAR,71.0
CYQG 052100Z AUTO 25010G16KT 9SM CLR 09/02 A2977 RMK SLP087,CYQG,2019-01-05T21:00:00Z,42.27,-82.97,9.0,2.0,250,10,16,9.0,29.769686,1008.7,,TRUE,,,,,,,,CLR,,,,,,,,VFR,,,,,,,,,,,,METAR,190.0
CYQB 052100Z 30003KT 3SM BR SCT160 BKN180 01/00 A2962 RMK AC3AC4 VIS LWR N-NE SLP037,CYQB,2019-01-05T21:00:00Z,46.78,-71.37,1.0,0.0,300,3,,3.0,29.619095,1003.7,,,,,,,,,BR,SCT,16000,BKN,18000,,,,,MVFR,,,,,,,,,,,,METAR,73.0
CYOW 052100Z 24005KT 15SM FEW030 BKN100 02/M00 A2964 RMK SC1AC5 SLP045,CYOW,2019-01-05T21:00:00Z,45.32,-75.67,2.0,0.0,240,5,,15.0,29.639763,1004.5,,,,,,,,,,FEW,3000,BKN,10000,,,,,VFR,,,,,,,,,,,,METAR,114.0
CYMX 052100Z 11002KT 10SM OVC032 02/M00 A2964 RMK SC8 PRESFR SLP041,CYMX,2019-01-05T21:00:00Z,45.67,-74.02,2.0,0.0,110,2,,10.0,29.639763,1004.1,,,,,,,,,,OVC,3200,,,,,,,VFR,,,,,,,,,,,,METAR,82.0
CYJT 052100Z 04005KT 15SM FEW020 SCT100 BKN200 M03/M04 A2980 RMK SC1AS2CI2 SLP093,CYJT,2019-01-05T21:00:00Z,48.55,-58.57,-3.0,-4.0,40,5,,15.0,29.799213,1009.3,,,,,,,,,,FEW,2000,SCT,10000,BKN,20000,,,VFR,,,,,,,,,,,,METAR,26.0
CYGL 052100Z 27006KT 5SM -SN BKN040 OVC110 M17/M19 A2970 RMK SC6AC2 SLP080,CYGL,2019-01-05T21:00:00Z,53.62,-77.7,-17.0,-19.0,270,6,,5.0,29.698818,1008.0,,,,,,,,,-SN,BKN,4000,OVC,11000,,,,,MVFR,,,,,,,,,,,,METAR,195.0
CYFB 052100Z 32010KT 5SM -SN DRSN OVC052 M22/M25 A2947 RMK SN4SC4 SLP986,CYFB,2019-01-05T21:00:00Z,63.75,-68.55,-22.0,-25.0,320,10,,5.0,29.471457,998.6,,,,,,,,,-SN DRSN,OVC,5200,,,,,,,MVFR,,,,,,,,,,,,METAR,34.0
CYEG 052100Z 14016KT 2 1/4SM BR OVC006 M04/M06 A2975 RMK ST8 SLP115,CYEG,2019-01-05T21:00:00Z,53.28,-113.57,-4.0,-6.0,140,16,,2.25,29.749016,1011.5,,,,,,,,,BR,OVC,600,,,,,,,IFR,,,,,,,,,,,,METAR,723.0
CYBG 052100Z 00000KT 25SM BKN032 BKN130 M02/M03 A2963 RMK SC6AC1 SLP043,CYBG,2019-01-05T21:00:00Z,48.33,-70.98,-2.0,-3.0,0,0,,25.0,29.630905,1004.3,,,,,,,,,,BKN,3200,BKN,13000,,,,,VFR,,,,,,,,,,,,METAR,159.0
CYZT 052100Z 31008KT 5SM -RA BR SCT006 OVC013 05/04 A2938 RMK SF4SC4 SLP950,CYZT,2019-01-05T21:00:00Z,50.67,-127.37,5.0,4.0,310,8,,5.0,29.379921,995.0,,,,,,,,,-RA BR,SCT,600,OVC,1300,,,,,MVFR,,,,,,,,,,,,METAR,22.0
CYZP 052100Z AUTO 34013KT 9SM FEW039 OVC048 03/M01 A2947 RMK SLP982,CYZP,2019-01-05T21:00:00Z,53.25,-131.82,3.0,-1.0,340,13,,9.0,29.471457,998.2,,TRUE,,,,,,,,FEW,3900,OVC,4800,,,,,VFR,,,,,,,,,,,,METAR,6.0
CYXQ 052100Z 00000KT 25SM FEW004 FEW015 FEW100 M36/M40 A2979 RMK SF1SF1AC1 AC TR SLP186,CYXQ,2019-01-05T21:00:00Z,62.42,-140.87,-36.0,-40.0,0,0,,25.0,29.790354,1018.6,,,,,,,,,,FEW,400,FEW,1500,FEW,10000,,,VFR,,,,,,,,,,,,METAR,649.0
CYXE 052100Z 07008KT 15SM OVC021 M07/M09 A3001 RMK SC8 SLP199,CYXE,2019-01-05T21:00:00Z,52.17,-106.7,-7.0,-9.0,70,8,,15.0,30.008858,1019.9,,,,,,,,,,OVC,2100,,,,,,,MVFR,,,,,,,,,,,,METAR,504.0
CYXC 052100Z 00000KT 25SM SCT044 BKN100 BKN200 01/M03 A2972 RMK SC3AC2CI2 SLP092,CYXC,2019-01-05T21:00:00Z,49.6,-115.77,1.0,-3.0,0,0,,25.0,29.719488,1009.2,,,,,,,,,,SCT,4400,BKN,10000,BKN,20000,,,VFR,,,,,,,,,,,,METAR,939.0
CYVL 052100Z AUTO 17002KT 9SM -SN BKN032 OVC050 M20/M22 A2991 RMK SLP167,CYVL,2019-01-05T21:00:00Z,67.02,-126.13,-20.0,-22.0,170,2,,9.0,29.911417,1016.7,,TRUE,,,,,,,-SN,BKN,3200,OVC,5000,,,,,VFR,,,,,,,,,,,,METAR,259.0
CYQD 052100Z AUTO 30005KT 9SM CLR M17/M21 A3015 RMK SLP237,CYQD,2019-01-05T21:00:00Z,53.97,-101.08,-17.0,-21.0,300,5,,9.0,30.15059,1023.7,,TRUE,,,,,,,,CLR,,,,,,,,VFR,,,,,,,,,,,,METAR,271.0
CYPR 052100Z AUTO 08003KT 9SM BKN022 OVC029 03/02 A2945 RMK SLP976,CYPR,2019-01-05T21:00:00Z,54.28,-130.42,3.0,2.0,80,3,,9.0,29.450787,997.6,,TRUE,,,,,,,,BKN,2200,OVC,2900,,,,,MVFR,,,,,,,,,,,,METAR,34.0
CYIV 052100Z 34007KT 15SM -SN BKN017 OVC022 M14/M18 A3007 RMK SC5SC3 SLP206,CYIV,2019-01-05T21:00:00Z,53.85,-94.65,-14.0,-18.0,340,7,,15.0,30.070866,1020.6,,,,,,,,,-SN,BKN,1700,OVC,2200,,,,,MVFR,,,,,,,,,,,,METAR,237.0
CYHE 052100Z AUTO 11010KT 9SM BKN140 06/03 A2951 RMK SLP996,CYHE,2019-01-05T21:00:00Z,49.37,-121.5,6.0,3.0,110,10,,9.0,29.509842,999.6,,TRUE,,,,,,,,BKN,14000,,,,,,,VFR,,,,,,,,,,,,METAR,39.0
CYFO 052100Z 28004KT 15SM SKC M18/M23 A3014 RMK SLP240,CYFO,2019-01-05T21:00:00Z,54.67,-101.67,-18.0,-23.0,280,4,,15.0,30.138779,1024.0,,,,,,,,,,SKC,,,,,,,,VFR,,,,,,,,,,,,METAR,304.0
CYEV 052100Z 06003KT 15SM -SN OVC055 M19/M22 A3002 RMK SC8 SLP178,CYEV,2019-01-05T21:00:00Z,68.32,-133.5,-19.0,-22.0,60,3,,15.0,30.02067,1017.8,,,,,,,,,-SN,OVC,5500,,,,,,,VFR,,,,,,,,,,,,METAR,68.0
CYDQ 052100Z AUTO 06008KT 9SM FEW240 M09/M11 A2956 RMK SLP055,CYDQ,2019-01-05T21:00:00Z,55.75,-120.17,-9.0,-11.0,60,8,,9.0,29.56004,1005.5,,TRUE,,,,,,,,FEW,24000,,,,,,,VFR,,,,,,,,,,,,METAR,655.0
CYDC 052100Z 00000KT 25SM SCT120 BKN130 M02/M03 A2954 RMK AC3AS4 SLP030,CYDC,2019-01-05T21:00:00Z,49.47,-120.52,-2.0,-3.0,0,0,,25.0,29.53937,1003.0,,,,,,,,,,SCT,12000,BKN,13000,,,,,VFR,,,,,,,,,,,,METAR,700.0
CYDB 052100Z 00000KT 30SM SKC M31/M33 A2972 RMK SLP160,CYDB,2019-01-05T21:00:00Z,61.37,-139.05,-31.0,-33.0,0,0,,30.0,29.719488,1016.0,,,,,,,,,,SKC,,,,,,,,VFR,,,,,,,,,,,,METAR,801.0
CYCQ 052100Z 00000KT 15SM FEW035 BKN110 OVC210 M07/M10 A2955 RMK SC1AC5CI2 SLP047,CYCQ,2019-01-05T21:00:00Z,55.7,-121.62,-7.0,-10.0,0,0,,15.0,29.551182,1004.7,,,,,,,,,,FEW,3500,BKN,11000,OVC,21000,,,VFR,,,,,,,,,,,,METAR,609.0
CYCP 052100Z 00000KT 1SM BR BKN002 BKN062 00/00 A2960 RMK FG3ST2SC2 VIS NE-SE 4 SLP052,CYCP,2019-01-05T21:00:00Z,52.13,-119.28,0.0,0.0,0,0,,1.0,29.601377,1005.2,,,,,,,,,BR,BKN,200,BKN,6200,,,,,LIFR,,,,,,,,,,,,METAR,683.0
CYYG 052100Z 03004KT 15SM FEW034 BKN120 OVC230 M00/M01 A2969 RMK SC2AC5CI1 SLP058,CYYG,2019-01-05T21:00:00Z,46.27,-63.12,0.0,-1.0,30,4,,15.0,29.68996,1005.8,,,,,,,,,,FEW,3400,BKN,12000,OVC,23000,,,VFR,,,,,,,,,,,,METAR,54.0
CYTQ 052100Z 23010KT 15SM DRSN FEW040 FEW090 M25/M28 A2955 RMK SC1AC1 SC TR AC TR SLP013,CYTQ,2019-01-05T21:00:00Z,58.67,-69.95,-25.0,-28.0,230,10,,15.0,29.551182,1001.3,,,,,,,,,DRSN,FEW,4000,FEW,9000,,,,,VFR,,,,,,,,,,,,METAR,31.0
CYSJ 052100Z 05005KT 15SM FEW008 SCT035 OVC110 01/01 A2961 RMK SC2SC2AC4 SLP034,CYSJ,2019-01-05T21:00:00Z,45.32,-65.87,1.0,1.0,50,5,,15.0,29.610237,1003.4,,,,,,,,,,FEW,800,SCT,3500,OVC,11000,,,VFR,,,,,,,,,,,,METAR,109.0
CYLU 052100Z 18009KT 070V210 7SM -SN DRSN SCT015 BKN019 OVC024 M17/M20 A2950 RMK SC3SC3SC2 SLP999,CYLU,2019-01-05T21:00:00Z,58.72,-65.97,-17.0,-20.0,180,9,,7.0,29.500984,999.9,,,,,,,,,-SN DRSN,SCT,1500,BKN,1900,OVC,2400,,,MVFR,,,,,,,,,,,,METAR,60.0
CYDP 052100Z 19006KT 15SM FEW035 FEW110 M17/M21 A2953 RMK SC1AS1 SLP003,CYDP,2019-01-05T21:00:00Z,56.53,-61.67,-17.0,-21.0,190,6,,15.0,29.530512,1000.3,,,,,,,,,,FEW,3500,FEW,11000,,,,,VFR,,,,,,,,,,,,METAR,7.0
CYDF 052100Z 00000KT 15SM SCT030 BKN200 M04/M06 A2983 RMK SC3CI2 SLP103,CYDF,2019-01-05T21:00:00Z,49.22,-57.4,-4.0,-6.0,0,0,,15.0,29.828741,1010.3,,,,,,,,,,SCT,3000,BKN,20000,,,,,VFR,,,,,,,,,,,,METAR,22.0
RJFS 052100Z 04005KT 5000 BR FEW040 SCT100 BKN130 04/02 Q1022,RJFS,2019-01-05T21:00:00Z,33.15,130.3,4.0,2.0,40,5,,3.11,30.177166,,,,,,,,,,BR,FEW,4000,SCT,10000,BKN,13000,,,MVFR,,,,,,,,,,,,METAR,5.0
ROIG 052100Z 36006KT 9999 -SHRA BKN018 20/20 Q1019,ROIG,2019-01-05T21:00:00Z,24.32,124.17,20.0,20.0,360,6,,6.21,30.088583,,,,,,,,,,-SHRA,BKN,1800,,,,,,,MVFR,,,,,,,,,,,,METAR,7.0
RJOH 052100Z 01008KT 9999 -SHRA FEW020 BKN030 BKN050 06/M03 Q1022,RJOH,2019-01-05T21:00:00Z,35.47,133.25,6.0,-3.0,10,8,,6.21,30.177166,,,,,,,,,,-SHRA,FEW,2000,BKN,3000,BKN,5000,,,MVFR,,,,,,,,,,,,METAR,9.0
RJAH 052100Z 03004KT 9999 FEW030 M03/M10 Q1017,RJAH,2019-01-05T21:00:00Z,36.17,140.42,-3.0,-10.0,30,4,,6.21,30.029528,,,,,,,,,,,FEW,3000,,,,,,,VFR,,,,,,,,,,,,METAR,35.0
RJFR 052100Z 29004KT 9999 FEW025 BKN050 08/M01 Q1023,RJFR,2019-01-05T21:00:00Z,33.82,131.03,8.0,-1.0,290,4,,6.21,30.206694,,,,,,,,,,,FEW,2500,BKN,5000,,,,,VFR,,,,,,,,,,,,METAR,6.0
MNMG 052100Z 07012KT 9999 FEW030 0 33/19 Q1010 A2984 NOSIG,MNMG,2019-01-05T21:00:00Z,12.15,-86.17,33.0,19.0,70,12,,6.21,29.822834,,,,,,TRUE,,,,,FEW,3000,,,,,,,VFR,,,,,,,,,,,,METAR,59.0
TDPD 052100Z 11011KT 9999 SCT020 26/21 Q1017,TDPD,2019-01-05T21:00:00Z,15.55,-61.3,26.0,21.0,110,11,,6.21,30.029528,,,,,,,,,,,SCT,2000,,,,,,,VFR,,,,,,,,,,,,METAR,14.0
MTPP 052100Z 09004KT 9999 FEW028 32/18 Q1013 A2993,MTPP,2019-01-05T21:00:00Z,18.57,-72.28,32.0,18.0,90,4,,6.21,29.911417,,,,,,,,,,,FEW,2800,,,,,,,VFR,,,,,,,,,,,,METAR,37.0
EIME 052100Z 21012KT 9999 BKN030 08/04 Q1036,EIME,2019-01-05T21:00:00Z,53.3,-6.45,8.0,4.0,210,12,,6.21,30.590551,,,,,,,,,,,BKN,3000,,,,,,,MVFR,,,,,,,,,,,,METAR,93.0
TTCP 052100Z 13011KT 9999 FEW025 27/21 Q1014 NOSIG,TTCP,2019-01-05T21:00:00Z,11.15,-60.85,27.0,21.0,130,11,,6.21,29.940945,,,,,,TRUE,,,,,FEW,2500,,,,,,,VFR,,,,,,,,,,,,METAR,8.0
TTPP 052100Z 11012KT 9999 FEW025 28/21 Q1014 NOSIG,TTPP,2019-01-05T21:00:00Z,10.58,-61.35,28.0,21.0,110,12,,6.21,29.940945,,,,,,TRUE,,,,,FEW,2500,,,,,,,VFR,,,,,,,,,,,,METAR,15.0
FAVV 052100Z AUTO 03002KT //// // ////// 21/16 Q1017,FAVV,2019-01-05T21:00:00Z,-26.57,27.97,21.0,16.0,30,2,,,30.029528,,,TRUE,,,,,,,,,,,,,,,,,,,,,,,,,,,,SPECI,1483.0
SLVR 052100Z 32012G23KT 9999 FEW012 SCT020 30/23 Q1007,SLVR,2019-01-05T21:00:00Z,-17.63,-63.12,30.0,23.0,320,12,23,6.21,29.734253,,,,,,,,,,,FEW,1200,SCT,2000,,,,,VFR,,,,,,,,,,,,SPECI,373.0
SLTR 052100Z 33006KT 9999 FEW017 32/23 Q1007,SLTR,2019-01-05T21:00:00Z,-14.83,-64.92,32.0,23.0,330,6,,6.21,29.734253,,,,,,,,,,,FEW,1700,,,,,,,VFR,,,,,,,,,,,,SPECI,157.0
SLTJ 052100Z 00000KT 9999 FEW030 FEW033CB BKN200 26/14 Q1013,SLTJ,2019-01-05T21:00:00Z,-21.55,-64.72,26.0,14.0,0,0,,6.21,29.911417,,,,,,,,,,,FEW,3000,FEW,3300,BKN,20000,,,VFR,,,,,,,,,,,,SPECI,1858.0
SLLP 052100Z 32005KT 260V020 9999 SCT017 FEW020CB BKN20014/04 Q1035,SLLP,2019-01-05T21:00:00Z,-16.52,-68.17,14.0,4.0,320,5,,6.21,30.561024,,,,,,,,,,,SCT,1700,FEW,2000,,,,,VFR,,,,,,,,,,,,METAR,4014.0
SLCB 052100Z 22004KT 9999 FEW033 FEW036CB SCT200 26/10 Q1019,SLCB,2019-01-05T21:00:00Z,-17.42,-66.18,26.0,10.0,220,4,,6.21,30.088583,,,,,,,,,,,FEW,3300,FEW,3600,SCT,20000,,,VFR,,,,,,,,,,,,SPECI,2548.0
SYCJ 052100Z 05012KT 9999 SCT022 28/22 Q1013 NOSIG,SYCJ,2019-01-05T21:00:00Z,6.5,-58.25,28.0,22.0,50,12,,6.21,29.911417,,,,,,TRUE,,,,,SCT,2200,,,,,,,VFR,,,,,,,,,,,,SPECI,30.0
PLCH 052100Z 08010KT 9999 -SHRA SCT019 BKN040 OVC100 27/25 Q1011,PLCH,2019-01-05T21:00:00Z,1.98,-157.35,27.0,25.0,80,10,,6.21,29.852362,,,,,,,,,,-SHRA,SCT,1900,BKN,4000,OVC,10000,,,VFR,,,,,,,,,,,,SPECI,3.0
MBGT 052100Z 12010KT 9999 SCT020TCU 28/23 Q2998,MBGT,2019-01-05T21:00:00Z,21.43,-71.15,28.0,23.0,120,10,,6.21,,,,,,,,,,,,SCT,2000,,,,,,,VFR,,,,,,,,,,,,METAR,4.0
SBTF 052100Z 34003KT 9999 BKN007 OVC070 25/24 Q1010,SBTF,2019-01-05T21:00:00Z,-3.37,-64.72,25.0,24.0,340,3,,6.21,29.822834,,,,,,,,,,,BKN,700,OVC,7000,,,,,IFR,,,,,,,,,,,,METAR,47.0
SBTT 052100Z 26006KT 9999 SCT020 BKN100 27/23 Q1010,SBTT,2019-01-05T21:00:00Z,-4.25,-69.93,27.0,23.0,260,6,,6.21,29.822834,,,,,,,,,,,SCT,2000,BKN,10000,,,,,VFR,,,,,,,,,,,,METAR,85.0
SBSG 052100Z 16009KT 120V180 9999 FEW017 BKN021 28/24 Q1013,SBSG,2019-01-05T21:00:00Z,-5.77,-35.37,28.0,24.0,160,9,,6.21,29.911417,,,,,,,,,,,FEW,1700,BKN,2100,,,,,MVFR,,,,,,,,,,,,METAR,83.0
SBBE 052100Z 03007KT 9999 3000NE -RA SCT008 BKN020 FEW025TCU 25/24 Q1010,SBBE,2019-01-05T21:00:00Z,-1.37,-48.47,25.0,24.0,30,7,,6.21,29.822834,,,,,,,,,,-RA,SCT,800,BKN,2000,FEW,2500,,,MVFR,,,,,,,,,,,,METAR,16.0
SLET 052100Z 32013G25KT 9999 SCT018 FEW023TCU SCT200 30/22 Q1007,SLET,2019-01-05T21:00:00Z,-17.8,-63.17,30.0,22.0,320,13,25,6.21,29.734253,,,,,,,,,,,SCT,1800,FEW,2300,SCT,20000,,,VFR,,,,,,,,,,,,METAR,414.0
SLYA 052100Z 00000KT 9999 SCT020 28/25 Q1007,SLYA,2019-01-05T21:00:00Z,-21.97,-63.65,28.0,25.0,0,0,,6.21,29.734253,,,,,,,,,,,SCT,2000,,,,,,,VFR,,,,,,,,,,,,METAR,645.0
SLSI 052100Z 33010KT 9999 SCT017 34/22 Q1008,SLSI,2019-01-05T21:00:00Z,-16.37,-60.95,34.0,22.0,330,10,,6.21,29.763779,,,,,,,,,,,SCT,1700,,,,,,,VFR,,,,,,,,,,,,METAR,413.0
SLSA 052100Z 32008KT 9999 SCT017 32/24 Q1006,SLSA,2019-01-05T21:00:00Z,-13.77,-65.43,32.0,24.0,320,8,,6.21,29.704725,,,,,,,,,,,SCT,1700,,,,,,,VFR,,,,,,,,,,,,METAR,144.0
SLRY 052100Z 32014KT 9999 FEW020 SCT200 30/23 Q1006,SLRY,2019-01-05T21:00:00Z,-14.3,-67.37,30.0,23.0,320,14,,6.21,29.704725,,,,,,,,,,,FEW,2000,SCT,20000,,,,,VFR,,,,,,,,,,,,METAR,280.0
SLRQ 052100Z 01010KT 9999 FEW020 SCT070 BKN200 31/26 Q1006,SLRQ,2019-01-05T21:00:00Z,-14.42,-67.5,31.0,26.0,10,10,,6.21,29.704725,,,,,,,,,,,FEW,2000,SCT,7000,BKN,20000,,,VFR,,,,,,,,,,,,METAR,203.0
SLRI 052100Z 36008KT 5000 VCSH SCT017 FEW020CB BKN200 30/24 Q1010,SLRI,2019-01-05T21:00:00Z,-11.02,-66.08,30.0,24.0,360,8,,3.11,29.822834,,,,,,,,,,VCSH,SCT,1700,FEW,2000,BKN,20000,,,MVFR,,,,,,,,,,,,METAR,135.0
SLRB 052100Z 00000KT 9999 SCT020 34/23 Q1009,SLRB,2019-01-05T21:00:00Z,-18.32,-59.75,34.0,23.0,0,0,,6.21,29.793306,,,,,,,,,,,SCT,2000,,,,,,,VFR,,,,,,,,,,,,METAR,284.0
SLPS 052100Z 00000KT 9999 SCT020 BKN200 33/25 Q1006,SLPS,2019-01-05T21:00:00Z,-18.98,-57.82,33.0,25.0,0,0,,6.21,29.704725,,,,,,,,,,,SCT,2000,BKN,20000,,,,,VFR,,,,,,,,,,,,METAR,135.0
SLOR 052100Z 35008KT 8000 VCSH SCT015 FEW020CB BKN070 13/08 Q1032,SLOR,2019-01-05T21:00:00Z,-17.97,-67.08,13.0,8.0,350,8,,4.97,30.47244,,,,,,,,,,VCSH,SCT,1500,FEW,2000,BKN,7000,,,MVFR,,,,,,,,,,,,METAR,3702.0
SLMG 052100Z 32008KT 9999 SCT017 FEW023CB BKN200 32/24 Q1008,SLMG,2019-01-05T21:00:00Z,-13.27,-64.07,32.0,24.0,320,8,,6.21,29.763779,,,,,,,,,,,SCT,1700,FEW,2300,BKN,20000,,,VFR,,,,,,,,,,,,METAR,141.0
SLJO 052100Z 32008KT 9999 FEW017 FEW020CB 32/25 Q1007,SLJO,2019-01-05T21:00:00Z,-13.07,-64.67,32.0,25.0,320,8,,6.21,29.734253,,,,,,,,,,,FEW,1700,FEW,2000,,,,,VFR,,,,,,,,,,,,METAR,140.0
SLJE 052100Z 35015KT 9999 SCT020 BKN200 33/23 Q1009,SLJE,2019-01-05T21:00:00Z,-17.82,-60.75,33.0,23.0,350,15,,6.21,29.793306,,,,,,,,,,,SCT,2000,BKN,20000,,,,,VFR,,,,,,,,,,,,METAR,284.0
SLCP 052100Z 31010KT 9999 BKN017 30/22 Q1011,SLCP,2019-01-05T21:00:00Z,-16.15,-62.02,30.0,22.0,310,10,,6.21,29.852362,,,,,,,,,,,BKN,1700,,,,,,,MVFR,,,,,,,,,,,,METAR,497.0
SLCO 052100Z 34009KT 9999 SCT020 32/24 Q1008 METAR ,SLCO,2019-01-05T21:00:00Z,-11.03,-68.78,32.0,24.0,340,9,,6.21,29.763779,,,,,,,,,,,SCT,2000,,,,,,,VFR,,,,,,,,,,,,METAR,272.0
SLCA 052100Z 18004KT 9999 SCT036 29/22 Q1010,SLCA,2019-01-05T21:00:00Z,-20.0,-63.53,29.0,22.0,180,4,,6.21,29.822834,,,,,,,,,,,SCT,3600,,,,,,,VFR,,,,,,,,,,,,METAR,798.0
DAUZ 052100Z 34006KT CAVOK 07/M03 Q1028,DAUZ,2019-01-05T21:00:00Z,28.05,9.62,7.0,-3.0,340,6,,6.21,30.35433,,,,,,,,,,,CAVOK,,,,,,,,VFR,,,,,,,,,,,,METAR,562.0
DABT 052100Z 28006KT 9999 SCT026 04/M00 Q1028,DABT,2019-01-05T21:00:00Z,35.75,6.32,4.0,0.0,280,6,,6.21,30.35433,,,,,,,,,,,SCT,2600,,,,,,,VFR,,,,,,,,,,,,METAR,823.0
DAAV 052100Z 20005KT 9999 SCT016 09/07 Q1028,DAAV,2019-01-05T21:00:00Z,36.8,5.88,9.0,7.0,200,5,,6.21,30.35433,,,,,,,,,,,SCT,1600,,,,,,,VFR,,,,,,,,,,,,METAR,11.0
DAAJ 052100Z 36007KT CAVOK 11/M01 Q1026,DAAJ,2019-01-05T21:00:00Z,24.28,9.47,11.0,-1.0,360,7,,6.21,30.295275,,,,,,,,,,,CAVOK,,,,,,,,VFR,,,,,,,,,,,,METAR,968.0
DAAE 052100Z 25006KT 9999 FEW023 06/04 Q1029,DAAE,2019-01-05T21:00:00Z,36.72,5.07,6.0,4.0,250,6,,6.21,30.383858,,,,,,,,,,,FEW,2300,,,,,,,VFR,,,,,,,,,,,,METAR,2.0
DAOI 052100Z 00000KT CAVOK 08/02 Q1031,DAOI,2019-01-05T21:00:00Z,36.22,1.32,8.0,2.0,0,0,,6.21,30.442913,,,,,,,,,,,CAVOK,,,,,,,,VFR,,,,,,,,,,,,METAR,143.0
DAUG 052100Z 00000KT CAVOK 08/M03 Q1031,DAUG,2019-01-05T21:00:00Z,32.37,3.82,8.0,-3.0,0,0,,6.21,30.442913,,,,,,,,,,,CAVOK,,,,,,,,VFR,,,,,,,,,,,,METAR,450.0
DAUB 052100Z 32011KT 9999 FEW040 11/04 Q1029,DAUB,2019-01-05T21:00:00Z,34.78,5.72,11.0,4.0,320,11,,6.21,30.383858,,,,,,,,,,,FEW,4000,,,,,,,VFR,,,,,,,,,,,,METAR,87.0
DAUA 052100Z 02011KT CAVOK 09/M03 Q1030,DAUA,2019-01-05T21:00:00Z,27.83,-0.18,9.0,-3.0,20,11,,6.21,30.413385,,,,,,,,,,,CAVOK,,,,,,,,VFR,,,,,,,,,,,,METAR,263.0
DAOB 052100Z 23007KT CAVOK 01/M02 Q1031,DAOB,2019-01-05T21:00:00Z,35.33,1.47,1.0,-2.0,230,7,,6.21,30.442913,,,,,,,,,,,CAVOK,,,,,,,,VFR,,,,,,,,,,,,METAR,989.0
DABS 052100Z 28008KT 8000 FEW020 SCT030 05/02 Q1027,DABS,2019-01-05T21:00:00Z,35.43,8.12,5.0,2.0,280,8,,4.97,30.324802,,,,,,,,,,,FEW,2000,SCT,3000,,,,,MVFR,,,,,,,,,,,,METAR,813.0
DAAS 052100Z 26004KT 9999 FEW026 02/M01 Q1028,DAAS,2019-01-05T21:00:00Z,36.18,5.33,2.0,-1.0,260,4,,6.21,30.35433,,,,,,,,,,,FEW,2600,,,,,,,VFR,,,,,,,,,,,,METAR,1038.0
UCFL 052100Z 34001MPS 9999 SCT033 M06/M15 Q1025 R07/CLRD95,UCFL,2019-01-05T21:00:00Z,42.58,76.7,-6.0,-15.0,340,2,,6.21,30.265747,,,,,,,,,,,SCT,3300,,,,,,,VFR,,,,,,,,,,,,METAR,1648.0
ZUUU 052100Z 00000MPS 4000 BR SCT050 06/05 Q1022 NOSIG,ZUUU,2019-01-05T21:00:00Z,30.58,103.95,6.0,5.0,0,0,,2.49,30.177166,,,,,,TRUE,,,,BR,SCT,5000,,,,,,,IFR,,,,,,,,,,,,METAR,508.0
ZUGY 052100Z 14002MPS 100V170 9999 SCT008 BKN015 OVC023 05/04 Q1021 NOSIG,ZUGY,2019-01-05T21:00:00Z,26.53,106.8,5.0,4.0,140,4,,6.21,30.147638,,,,,,TRUE,,,,,SCT,800,BKN,1500,OVC,2300,,,MVFR,,,,,,,,,,,,METAR,1074.0
ZSQD 052100Z 32002MPS 7000 NSC M05/M08 Q1032 NOSIG,ZSQD,2019-01-05T21:00:00Z,36.27,120.38,-5.0,-8.0,320,4,,4.35,30.47244,,,,,,TRUE,,,,,CLR,,,,,,,,MVFR,,,,,,,,,,,,METAR,77.0
ZSFZ 052100Z 01003MPS 9999 OVC026 13/11 Q1024 NOSIG,ZSFZ,2019-01-05T21:00:00Z,25.93,119.67,13.0,11.0,10,6,,6.21,30.236221,,,,,,TRUE,,,,,OVC,2600,,,,,,,MVFR,,,,,,,,,,,,METAR,85.0
ZSAM 052100Z 10002MPS 4500 BR SCT009 OVC023 16/15 Q1022 NOSIG,ZSAM,2019-01-05T21:00:00Z,24.53,118.13,16.0,15.0,100,4,,2.8,30.177166,,,,,,TRUE,,,,BR,SCT,900,OVC,2300,,,,,IFR,,,,,,,,,,,,METAR,18.0
ZPPP 052100Z 20005MPS CAVOK 04/00 Q1025 NOSIG,ZPPP,2019-01-05T21:00:00Z,25.0,102.75,4.0,0.0,200,10,,6.21,30.265747,,,,,,TRUE,,,,,CAVOK,,,,,,,,VFR,,,,,,,,,,,,METAR,1892.0
ZLXY 052100Z 00000MPS 1600 BR NSC M10/M11 Q1026 NOSIG,ZLXY,2019-01-05T21:00:00Z,34.43,108.75,-10.0,-11.0,0,0,,0.99,30.295275,,,,,,TRUE,,,,BR,CLR,,,,,,,,LIFR,,,,,,,,,,,,METAR,479.0
ZGSZ 052100Z 36005MPS 8000 FEW009 SCT013 OVC020 15/14 Q1021 NOSIG,ZGSZ,2019-01-05T21:00:00Z,22.63,113.8,15.0,14.0,360,10,,4.97,30.147638,,,,,,TRUE,,,,,FEW,900,SCT,1300,OVC,2000,,,MVFR,,,,,,,,,,,,METAR,18.0
ZGOW 052100Z 02002MPS 9999 FEW013 BKN026 17/15 Q1021 NOSIG,ZGOW,2019-01-05T21:00:00Z,23.55,116.5,17.0,15.0,20,4,,6.21,30.147638,,,,,,TRUE,,,,,FEW,1300,BKN,2600,,,,,MVFR,,,,,,,,,,,,METAR,3.0
ZGNN 052100Z 10002MPS 5000 -RA BR FEW003 SCT005 OVC020 11/11 Q1022 NOSIG,ZGNN,2019-01-05T21:00:00Z,22.62,108.17,11.0,11.0,100,4,,3.11,30.177166,,,,,,TRUE,,,,-RA BR,FEW,300,SCT,500,OVC,2000,,,MVFR,,,,,,,,,,,,METAR,73.0
ZGKL 052100Z 06002MPS 020V100 4000 -DZ BR FEW009 SCT023 OVC043 06/05 Q1026 NOSIG,ZGKL,2019-01-05T21:00:00Z,25.22,110.03,6.0,5.0,60,4,,2.49,30.295275,,,,,,TRUE,,,,-DZ BR,FEW,900,SCT,2300,OVC,4300,,,IFR,,,,,,,,,,,,METAR,166.0
SAZN 052100Z 27006KT CAVOK 35/05 Q1002,SAZN,2019-01-05T21:00:00Z,-38.95,-68.15,35.0,5.0,270,6,,6.21,29.586615,,,,,,,,,,,CAVOK,,,,,,,,VFR,,,,,,,,,,,,METAR,271.0
SASJ 052100Z 05005KT 9999 FEW030 30/21 Q1008,SASJ,2019-01-05T21:00:00Z,-24.37,-65.1,30.0,21.0,50,5,,6.21,29.763779,,,,,,,,,,,FEW,3000,,,,,,,VFR,,,,,,,,,,,,METAR,1167.0
SAOC 052100Z 36024KT 9999 SCT030 FEW035 29/16 Q1005,SAOC,2019-01-05T21:00:00Z,-33.12,-64.27,29.0,16.0,360,24,,6.21,29.675198,,,,,,,,,,,SCT,3000,FEW,3500,,,,,VFR,,,,,,,,,,,,METAR,421.0
FAUT 052100Z AUTO 20006KT //// // ////// 17/13 Q1019,FAUT,2019-01-05T21:00:00Z,-31.52,28.67,17.0,13.0,200,6,,,30.088583,,,TRUE,,,,,,,,,,,,,,,,,,,,,,,,,,,,METAR,732.0
FAPP 052100Z AUTO 07004KT //// // ////// 23/19 Q1017,FAPP,2019-01-05T21:00:00Z,-23.83,29.45,23.0,19.0,70,4,,,30.029528,,,TRUE,,,,,,,,,,,,,,,,,,,,,,,,,,,,METAR,1242.0
FAPN 052100Z AUTO 02005KT //// // ////// ///// Q1014,FAPN,2019-01-05T21:00:00Z,-25.33,27.17,,,20,5,,,29.940945,,,TRUE,,,,,,,,,,,,,,,,,,,,,,,,,,,,METAR,1039.0
FAMM 052100Z AUTO 32007KT //// // ////// 25/13 Q1015,FAMM,2019-01-05T21:00:00Z,-25.8,25.52,25.0,13.0,320,7,,,29.970472,,,TRUE,,,,,,,,,,,,,,,,,,,,,,,,,,,,METAR,1277.0
FQTT 052100Z 00000KT 9999 BKN020 FEW025CB SCT100 28/25 Q1011 RMK CB TO NE/NW/S,FQTT,2019-01-05T21:00:00Z,-16.1,33.62,28.0,25.0,0,0,,6.21,29.852362,,,,,,,,,,,BKN,2000,FEW,2500,SCT,10000,,,MVFR,,,,,,,,,,,,METAR,160.0
FQPB 052100Z 34005KT 9999 SCT020 FEW025CB SCT100 26/24 Q1011 RMK CB TO SW/W,FQPB,2019-01-05T21:00:00Z,-12.97,40.5,26.0,24.0,340,5,,6.21,29.852362,,,,,,,,,,,SCT,2000,FEW,2500,SCT,10000,,,VFR,,,,,,,,,,,,METAR,50.0
FQCH 052100Z VRB02KT 9999 BKN015 FEW020CB 22/22 Q1016 RMK CB TO S,FQCH,2019-01-05T21:00:00Z,-19.15,33.43,22.0,22.0,0,2,,6.21,30.0,,,,,,,,,,,BKN,1500,FEW,2000,,,,,MVFR,,,,,,,,,,,,METAR,732.0
FQBR 052100Z /////KT 9999 BKN017 BKN030 26/25 Q1010,FQBR,2019-01-05T21:00:00Z,-19.8,34.88,26.0,25.0,,,,6.21,29.822834,,,,,,,,,,,BKN,1700,BKN,3000,,,,,MVFR,,,,,,,,,,,,METAR,16.0
FBMN 052100Z 06003KT CAVOK 24/21 Q1015,FBMN,2019-01-05T21:00:00Z,-19.97,23.42,24.0,21.0,60,3,,6.21,29.970472,,,,,,,,,,,CAVOK,,,,,,,,VFR,,,,,,,,,,,,METAR,900.0
FAUP 052100Z AUTO 22004KT //// // ////// 29/M00 Q1014,FAUP,2019-01-05T21:00:00Z,-28.38,21.27,29.0,0.0,220,4,,,29.940945,,,TRUE,,,,,,,,,,,,,,,,,,,,,,,,,,,,METAR,836.0
FAOR 052100Z 29009KT CAVOK 22/12 Q1019 NOSIG,FAOR,2019-01-05T21:00:00Z,-26.12,28.22,22.0,12.0,290,9,,6.21,30.088583,,,,,,TRUE,,,,,CAVOK,,,,,,,,VFR,,,,,,,,,,,,METAR,1700.0
FAKN 052100Z AUTO 27001KT //// // ////// 18/17 Q1019,FAKN,2019-01-05T21:00:00Z,-25.38,31.1,18.0,17.0,270,1,,,30.088583,,,TRUE,,,,,,,,,,,,,,,,,,,,,,,,,,,,METAR,862.0
FAKM 052100Z AUTO 18005KT //// // ////// 24/02 Q1015,FAKM,2019-01-05T21:00:00Z,-28.8,24.77,24.0,2.0,180,5,,,29.970472,,,TRUE,,,,,,,,,,,,,,,,,,,,,,,,,,,,METAR,1192.0
FAHS 052100Z AUTO 23007G18KT //// // ////// 21/20 Q1016,FAHS,2019-01-05T21:00:00Z,-24.37,31.02,21.0,20.0,230,7,18,,30.0,,,TRUE,,,,,,,,,,,,,,,,,,,,,,,,,,,,METAR,500.0
FAGG 052100Z AUTO 00000KT 9999 FEW024/// 18/15 Q1019,FAGG,2019-01-05T21:00:00Z,-34.0,22.37,18.0,15.0,0,0,,6.21,30.088583,,,TRUE,,,,,,,,FEW,2400,,,,,,,VFR,,,,,,,,,,,,METAR,193.0
FACT 052100Z 19016KT 9999 FEW035 19/14 Q1017 NOSIG,FACT,2019-01-05T21:00:00Z,-33.97,18.6,19.0,14.0,190,16,,6.21,30.029528,,,,,,TRUE,,,,,FEW,3500,,,,,,,VFR,,,,,,,,,,,,METAR,42.0
LKPD 052100Z 25003KT 9999 SCT014 BKN033 BKN060 02/00 Q1018 RMK BLU,LKPD,2019-01-05T21:00:00Z,50.02,15.73,2.0,0.0,250,3,,6.21,30.059055,,,,,,,,,,,SCT,1400,BKN,3300,BKN,6000,,,VFR,,,,,,,,,,,,SPECI,226.0
LKNA 052100Z 33006KT 9999 -RA OVC022 01/M00 Q1017 NOSIG RMK WHT WHT,LKNA,2019-01-05T21:00:00Z,49.17,16.12,1.0,0.0,330,6,,6.21,30.029528,,,,,,TRUE,,,,-RA,OVC,2200,,,,,,,MVFR,,,,,,,,,,,,SPECI,472.0
LKLN 052100Z AUTO 27003KT 220V010 9999 FEW026 OVC078 03/02 Q1021,LKLN,2019-01-05T21:00:00Z,49.68,13.27,3.0,2.0,270,3,,6.21,30.147638,,,TRUE,,,,,,,,FEW,2600,OVC,7800,,,,,VFR,,,,,,,,,,,,METAR,362.0
LKKB 052100Z 32006KT 9999 SCT013 OVC022 05/02 Q1019,LKKB,2019-01-05T21:00:00Z,50.12,14.53,5.0,2.0,320,6,,6.21,30.088583,,,,,,,,,,,SCT,1300,OVC,2200,,,,,MVFR,,,,,,,,,,,,METAR,286.0
LKCV 052100Z 32007KT 9999 OVC019 04/03 Q1019 RMK BLACK,LKCV,2019-01-05T21:00:00Z,49.93,15.38,4.0,3.0,320,7,,6.21,30.088583,,,,,,,,,,,OVC,1900,,,,,,,MVFR,,,,,,,,,,,,SPECI,242.0
ZWSH 052100Z 31004MPS 4500 FU NSC M08/M13 Q1025 NOSIG,ZWSH,2019-01-05T21:00:00Z,39.55,76.02,-8.0,-13.0,310,8,,2.8,30.265747,,,,,,TRUE,,,,FU,CLR,,,,,,,,IFR,,,,,,,,,,,,METAR,1380.0
ZBSJ 052100Z 29002MPS 2800 HZ NSC M12/M16 Q1031 NOSIG,ZBSJ,2019-01-05T21:00:00Z,38.28,114.7,-12.0,-16.0,290,4,,1.74,30.442913,,,,,,TRUE,,,,HZ,CLR,,,,,,,,IFR,,,,,,,,,,,,METAR,71.0
UTAT 052100Z 14010KT 1400 R08/1400D BR OVC002 M01/M01 Q1022 R08/CLRD70 NOSIG RMK QBB260,UTAT,2019-01-05T21:00:00Z,41.77,59.83,-1.0,-1.0,140,10,,0.87,30.177166,,,,,,TRUE,,,,BR,OVC,200,,,,,,,LIFR,,,,,,,,,,,,METAR,83.0
UTAM 052100Z 10010KT 6000 NSC 05/04 Q1022 NOSIG,UTAM,2019-01-05T21:00:00Z,37.62,61.9,5.0,4.0,100,10,,3.73,30.177166,,,,,,TRUE,,,,,CLR,,,,,,,,MVFR,,,,,,,,,,,,METAR,222.0
UTAV 052100Z 12008KT OAVOK 02/01 Q1023 NOSIG,UTAV,2019-01-05T21:00:00Z,39.08,63.62,2.0,1.0,120,8,,,30.206694,,,,,,TRUE,,,,,,,,,,,,,,,,,,,,,,,,,METAR,192.0
UTAK 052100Z 15002KT 9999 OVC007 07/06 Q1016 R16R/CLRD70 NOSIG,UTAK,2019-01-05T21:00:00Z,40.05,53.0,7.0,6.0,150,2,,6.21,30.0,,,,,,TRUE,,,,,OVC,700,,,,,,,IFR,,,,,,,,,,,,METAR,85.0
UTAA 052100Z 12010KT 0450 R12L/1100D R12R/2000N -DZ FG VV001 04/04 Q1017 R88/190065 TEMPO 0300 FG VV001,UTAA,2019-01-05T21:00:00Z,37.98,58.37,4.0,4.0,120,10,,0.28,30.029528,,,,,,,,,,-DZ FG,OVX,0,,,,,,,LIFR,,,,,,,,,,,100,METAR,210.0
UARR 052100Z 23008MPS 9999 DRSN OVC014 M03/M05 Q1016 R22/810255 NOSIG RMK QFE758/1011,UARR,2019-01-05T21:00:00Z,51.15,51.53,-3.0,-5.0,230,16,,6.21,30.0,,,,,,TRUE,,,,DRSN,OVC,1400,,,,,,,MVFR,,,,,,,,,,,,SPECI,38.0
UASK 052100Z 36001MPS 2500 BR PRFG SCT001 M32/M36 Q1044 R30/810250 TEMPO 1000 BR BKN002 RMK QBB050 QFE757/1010,UASK,2019-01-05T21:00:00Z,50.03,82.5,-32.0,-36.0,360,2,,1.55,30.82677,,,,,,,,,,BR PRFG,SCT,100,,,,,,,IFR,,,,,,,,,,,,METAR,286.0
UAOO 052100Z VRB01MPS CAVOK M15/M16 Q1029 NOSIG RMK QFE760/1013,UAOO,2019-01-05T21:00:00Z,44.7,65.6,-15.0,-16.0,0,2,,6.21,30.383858,,,,,,TRUE,,,,,CAVOK,,,,,,,,VFR,,,,,,,,,,,,SPECI,129.0
TDCF 052100Z 13005KT 9999 -SHRA BKN017 27/18 Q1015,TDCF,2019-01-05T21:00:00Z,15.33,-61.4,27.0,18.0,130,5,,6.21,29.970472,,,,,,,,,,-SHRA,BKN,1700,,,,,,,MVFR,,,,,,,,,,,,METAR,5.0
TRPG 052100Z 11011KT 9999 FEW016 SCT038 23/22 Q1017,TRPG,2019-01-05T21:00:00Z,16.78,-62.2,23.0,22.0,110,11,,6.21,30.029528,,,,,,,,,,,FEW,1600,SCT,3800,,,,,VFR,,,,,,,,,,,,METAR,168.0
LEAB 052100Z 24006KT CAVOK 03/M03 Q1031 NOSIG,LEAB,2019-01-05T21:00:00Z,38.95,-1.85,3.0,-3.0,240,6,,6.21,30.442913,,,,,,TRUE,,,,,CAVOK,,,,,,,,VFR,,,,,,,,,,,,METAR,704.0
LETO 052100Z 02005KT CAVOK M00/M02 Q1032 NOSIG,LETO,2019-01-05T21:00:00Z,40.47,-3.47,0.0,-2.0,20,5,,6.21,30.47244,,,,,,TRUE,,,,,CAVOK,,,,,,,,VFR,,,,,,,,,,,,METAR,608.0
LERT 052100Z 02006KT 350V050 CAVOK 09/05 Q1031 NOSIG,LERT,2019-01-05T21:00:00Z,36.63,-6.33,9.0,5.0,20,6,,6.21,30.442913,,,,,,TRUE,,,,,CAVOK,,,,,,,,VFR,,,,,,,,,,,,METAR,26.0
LEGT 052100Z 25002KT CAVOK 03/M00 Q1032,LEGT,2019-01-05T21:00:00Z,40.28,-3.72,3.0,0.0,250,2,,6.21,30.47244,,,,,,,,,,,CAVOK,,,,,,,,VFR,,,,,,,,,,,,METAR,612.0
SUAA 052100Z 03009KT CAVOK 28/11 Q1010,SUAA,2019-01-05T21:00:00Z,-34.77,-56.25,28.0,11.0,30,9,,6.21,29.822834,,,,,,,,,,,CAVOK,,,,,,,,VFR,,,,,,,,,,,,METAR,54.0
SULS 052100Z 01010KT 9999 FEW025 27/13 Q1010,SULS,2019-01-05T21:00:00Z,-34.87,-55.1,27.0,13.0,10,10,,6.21,29.822834,,,,,,,,,,,FEW,2500,,,,,,,VFR,,,,,,,,,,,,METAR,30.0
SUDU 052100Z 03010KT CAVOK 28/14 Q1010,SUDU,2019-01-05T21:00:00Z,-33.35,-56.5,28.0,14.0,30,10,,6.21,29.822834,,,,,,,,,,,CAVOK,,,,,,,,VFR,,,,,,,,,,,,METAR,93.0
SYEC 052100Z 03012KT 360V070 9999 BKN023 28/23 Q1013 NOSIG,SYEC,2019-01-05T21:00:00Z,6.8,-58.1,28.0,23.0,30,12,,6.21,29.911417,,,,,,TRUE,,,,,BKN,2300,,,,,,,MVFR,,,,,,,,,,,,METAR,10.0
RKNY 052100Z AUTO 29006KT 9999 NCD M03/M11 Q1025,RKNY,2019-01-05T21:00:00Z,38.07,128.67,-3.0,-11.0,290,6,,6.21,30.265747,,,TRUE,,,,,,,,CLR,,,,,,,,VFR,,,,,,,,,,,,METAR,74.0
RKJB 052100Z 03009KT 6000 FEW030 M01/M10 Q1028 NOSIG,RKJB,2019-01-05T21:00:00Z,34.98,126.38,-1.0,-10.0,30,9,,3.73,30.35433,,,,,,TRUE,,,,,FEW,3000,,,,,,,MVFR,,,,,,,,,,,,METAR,2.0
RKTN 052100Z 12001KT CAVOK M06/M13 Q1027,RKTN,2019-01-05T21:00:00Z,35.88,128.65,-6.0,-13.0,120,1,,6.21,30.324802,,,,,,,,,,,CAVOK,,,,,,,,VFR,,,,,,,,,,,,METAR,35.0
RKTU 052100Z 07002KT CAVOK M10/M13 Q1028,RKTU,2019-01-05T21:00:00Z,36.7,127.5,-10.0,-13.0,70,2,,6.21,30.35433,,,,,,,,,,,CAVOK,,,,,,,,VFR,,,,,,,,,,,,METAR,66.0
RKPK 052100Z 36005KT CAVOK M01/M12 Q1026,RKPK,2019-01-05T21:00:00Z,35.17,128.92,-1.0,-12.0,360,5,,6.21,30.295275,,,,,,,,,,,CAVOK,,,,,,,,VFR,,,,,,,,,,,,METAR,15.0
RKPC 052100Z 02003KT 360V060 9999 SCT030 BKN120 05/M02 Q1027 NOSIG,RKPC,2019-01-05T21:00:00Z,33.5,126.48,5.0,-2.0,20,3,,6.21,30.324802,,,,,,TRUE,,,,,SCT,3000,BKN,12000,,,,,VFR,,,,,,,,,,,,METAR,27.0
RKSS 052100Z 33004KT CAVOK M06/M16 Q1028 NOSIG,RKSS,2019-01-05T21:00:00Z,37.53,126.78,-6.0,-16.0,330,4,,6.21,30.35433,,,,,,TRUE,,,,,CAVOK,,,,,,,,VFR,,,,,,,,,,,,METAR,19.0
SESA 052100Z 25008KT 9999 FEW012 SCT015 OVC090 25/24 Q1009,SESA,2019-01-05T21:00:00Z,-2.2,-80.97,25.0,24.0,250,8,,6.21,29.793306,,,,,,,,,,,FEW,1200,SCT,1500,OVC,9000,,,VFR,,,,,,,,,,,,METAR,8.0
UMGG 052100Z 10005MPS 3200 -SHSN OVC037CB M05/M06 Q1006 R10/N NOSIG,UMGG,2019-01-05T21:00:00Z,52.53,31.02,-5.0,-6.0,100,10,,1.99,29.704725,,,,,,TRUE,,,,-SHSN,OVC,3700,,,,,,,IFR,,,,,,,,,,,,METAR,144.0
FQMA 052100Z 22010KT 9999 TS FEW010 BKN020 FEW030CB 23/21 Q1012 NOSIG RMK TS TO NE,FQMA,2019-01-05T21:00:00Z,-25.92,32.57,23.0,21.0,220,10,,6.21,29.88189,,,,,,TRUE,,,,TS,FEW,1000,BKN,2000,FEW,3000,,,MVFR,,,,,,,,,,,,SPECI,44.0
OTHH 052100Z AUTO 28002KT CAVOK 16/12 Q1019 NOSIG,OTHH,2019-01-05T21:00:00Z,25.25,51.6,16.0,12.0,280,2,,6.21,30.088583,,,TRUE,,,TRUE,,,,,CAVOK,,,,,,,,VFR,,,,,,,,,,,,METAR,0.0
OINR 052100Z 21002KT 9999 SCT090 10/06 Q1013,OINR,2019-01-05T21:00:00Z,36.88,50.67,10.0,6.0,210,2,,6.21,29.911417,,,,,,,,,,,SCT,9000,,,,,,,VFR,,,,,,,,,,,,METAR,-20.0
OINN 052100Z 23004KT 9999 BKN170 11/09 Q1014,OINN,2019-01-05T21:00:00Z,36.67,51.47,11.0,9.0,230,4,,6.21,29.940945,,,,,,,,,,,BKN,17000,,,,,,,VFR,,,,,,,,,,,,METAR,-19.0
OIKQ 052100Z 01004KT 4000 BR NSC 16/14 Q1018,OIKQ,2019-01-05T21:00:00Z,26.75,55.9,16.0,14.0,10,4,,2.49,30.059055,,,,,,,,,,BR,CLR,,,,,,,,IFR,,,,,,,,,,,,METAR,12.0
OICI 052100Z 14004KT 9999 SCT040 BKN090 09/M09 Q1019 A3011,OICI,2019-01-05T21:00:00Z,33.58,46.4,9.0,-9.0,140,4,,6.21,30.088583,,,,,,,,,,,SCT,4000,BKN,9000,,,,,VFR,,,,,,,,,,,,METAR,1343.0
OIAM 052100Z 00000KT 6000 NSC 13/10 Q1017,OIAM,2019-01-05T21:00:00Z,30.55,49.15,13.0,10.0,0,0,,3.73,30.029528,,,,,,,,,,,CLR,,,,,,,,MVFR,,,,,,,,,,,,METAR,4.0
OITM 052100Z 08012KT 9999 FEW015 BKN080 00/M05 Q1014,OITM,2019-01-05T21:00:00Z,37.35,46.15,0.0,-5.0,80,12,,6.21,29.940945,,,,,,,,,,,FEW,1500,BKN,8000,,,,,VFR,,,,,,,,,,,,METAR,1340.0
OINE 052100Z 00000KT CAVOK 10/01 Q1014,OINE,2019-01-05T21:00:00Z,37.38,55.45,10.0,1.0,0,0,,6.21,29.940945,,,,,,,,,,,CAVOK,,,,,,,,VFR,,,,,,,,,,,,METAR,130.0
OIMQ 052100Z AUTO 05002KT //// // ////// 02/M00 Q1022,OIMQ,2019-01-05T21:00:00Z,35.23,58.47,2.0,0.0,50,2,,,30.177166,,,TRUE,,,,,,,,,,,,,,,,,,,,,,,,,,,,METAR,1140.0
OIMC 052100Z AUTO 05004KT //// // ////// 05/04 Q1018,OIMC,2019-01-05T21:00:00Z,36.5,61.07,5.0,4.0,50,4,,,30.059055,,,TRUE,,,,,,,,,,,,,,,,,,,,,,,,,,,,METAR,288.0
OIBL 052100Z 35006KT 5000 BR NSC 18/17 Q1019,OIBL,2019-01-05T21:00:00Z,26.53,54.82,18.0,17.0,350,6,,3.11,30.088583,,,,,,,,,,BR,CLR,,,,,,,,MVFR,,,,,,,,,,,,METAR,14.0
OIZJ 052100Z 01004KT 6000 NSC 20/14 Q1018,OIZJ,2019-01-05T21:00:00Z,25.65,57.8,20.0,14.0,10,4,,3.73,30.059055,,,,,,,,,,,CLR,,,,,,,,MVFR,,,,,,,,,,,,METAR,4.0
OIMN 052100Z 00000KT 9000 NSC 00/M02 Q1020,OIMN,2019-01-05T21:00:00Z,37.48,57.3,0.0,-2.0,0,0,,5.59,30.11811,,,,,,,,,,,CLR,,,,,,,,VFR,,,,,,,,,,,,METAR,1074.0
OIMB 052100Z 12006KT CAVOK M02/M09 Q1023,OIMB,2019-01-05T21:00:00Z,32.9,59.28,-2.0,-9.0,120,6,,6.21,30.206694,,,,,,,,,,,CAVOK,,,,,,,,VFR,,,,,,,,,,,,METAR,1491.0
OIFS 052100Z 24010KT CAVOK 05/M11 Q1022,OIFS,2019-01-05T21:00:00Z,32.32,50.85,5.0,-11.0,240,10,,6.21,30.177166,,,,,,,,,,,CAVOK,,,,,,,,VFR,,,,,,,,,,,,METAR,2078.0
OIZI 052100Z 02006KT CAVOK 11/M07 Q1021,OIZI,2019-01-05T21:00:00Z,27.23,60.72,11.0,-7.0,20,6,,6.21,30.147638,,,,,,,,,,,CAVOK,,,,,,,,VFR,,,,,,,,,,,,METAR,591.0
OIZB 052100Z 00000KT CAVOK 02/M08 Q1024,OIZB,2019-01-05T21:00:00Z,31.1,61.55,2.0,-8.0,0,0,,6.21,30.236221,,,,,,,,,,,CAVOK,,,,,,,,VFR,,,,,,,,,,,,METAR,489.0
OING 052100Z 00000KT CAVOK 02/01 Q1014,OING,2019-01-05T21:00:00Z,36.9,54.4,2.0,1.0,0,0,,6.21,29.940945,,,,,,,,,,,CAVOK,,,,,,,,VFR,,,,,,,,,,,,METAR,155.0
ORSU 052100Z 22004KT 2000 BR SCT020 OVC080 07/07 Q1019,ORSU,2019-01-05T21:00:00Z,35.57,45.32,7.0,7.0,220,4,,1.24,30.088583,,,,,,,,,,BR,SCT,2000,OVC,8000,,,,,IFR,,,,,,,,,,,,METAR,761.0
OITP 052100Z 14014KT 9999 BKN040 06/05 Q1013,OITP,2019-01-05T21:00:00Z,39.6,47.88,6.0,5.0,140,14,,6.21,29.911417,,,,,,,,,,,BKN,4000,,,,,,,VFR,,,,,,,,,,,,METAR,77.0
OISF 052100Z 00000KT CAVOK 04/M01 Q1022,OISF,2019-01-05T21:00:00Z,28.9,53.72,4.0,-1.0,0,0,,6.21,30.177166,,,,,,,,,,,CAVOK,,,,,,,,VFR,,,,,,,,,,,,METAR,1383.0
OIAH 052100Z 13004KT CAVOK 11/05 Q1020,OIAH,2019-01-05T21:00:00Z,30.33,50.83,11.0,5.0,130,4,,6.21,30.11811,,,,,,,,,,,CAVOK,,,,,,,,VFR,,,,,,,,,,,,METAR,738.0
OIBB 052100Z 09004KT 6000 NSC 15/11 Q1018 A3006,OIBB,2019-01-05T21:00:00Z,28.97,50.82,15.0,11.0,90,4,,3.73,30.059055,,,,,,,,,,,CLR,,,,,,,,MVFR,,,,,,,,,,,,METAR,19.0
SUMU 052100Z 12011KT CAVOK 27/14 Q1010 NOSIG,SUMU,2019-01-05T21:00:00Z,-34.82,-56.0,27.0,14.0,120,11,,6.21,29.822834,,,,,,TRUE,,,,,CAVOK,,,,,,,,VFR,,,,,,,,,,,,METAR,32.0
SAWH 052100Z 32013KT 9999 SCT048 SCT100 12/M00 Q0984,SAWH,2019-01-05T21:00:00Z,-54.85,-68.3,12.0,0.0,320,13,,6.21,29.055119,,,,,,,,,,,SCT,4800,SCT,10000,,,,,VFR,,,,,,,,,,,,METAR,14.0
SPJL 052100Z 05009KT 9999 BKN020 BKN100 15/06 Q1032 RMK PP000,SPJL,2019-01-05T21:00:00Z,-15.47,-70.15,15.0,6.0,50,9,,6.21,30.47244,,,,,,,,,,,BKN,2000,BKN,10000,,,,,MVFR,,,,,,,,,,,,METAR,3827.0
SPJI 052100Z 00000KT 9999 FEW025 SCT080 32/26 Q1018 RMK TX32.6 PP000,SPJI,2019-01-05T21:00:00Z,-7.17,-76.72,32.0,26.0,0,0,,6.21,30.059055,,,,,,,,,,,FEW,2500,SCT,8000,,,,,VFR,,,,,,,,,,,,METAR,363.0
OISL 052100Z 00000KT CAVOK 07/M01 Q1021,OISL,2019-01-05T21:00:00Z,27.67,54.37,7.0,-1.0,0,0,,6.21,30.147638,,,,,,,,,,,CAVOK,,,,,,,,VFR,,,,,,,,,,,,METAR,805.0
NGFU 052100Z 31004KT 9999 FEW018TCU BKN310 31/26 Q1005,NGFU,2019-01-05T21:00:00Z,-8.52,179.22,31.0,26.0,310,4,,6.21,29.675198,,,,,,,,,,,FEW,1800,BKN,31000,,,,,VFR,,,,,,,,,,,,METAR,1.0
OISY 052100Z 00000KT CAVOK 03/M05 Q1024,OISY,2019-01-05T21:00:00Z,30.7,51.55,3.0,-5.0,0,0,,6.21,30.236221,,,,,,,,,,,CAVOK,,,,,,,,VFR,,,,,,,,,,,,METAR,1811.0
MPTO 052100Z 34014KT 9999 FEW020 32/20 Q1010 NOSIG,MPTO,2019-01-05T21:00:00Z,9.05,-79.37,32.0,20.0,340,14,,6.21,29.822834,,,,,,TRUE,,,,,FEW,2000,,,,,,,VFR,,,,,,,,,,,,METAR,45.0
MWCB 052100Z VRB02KT 9999 FEW020 29/23 Q1016,MWCB,2019-01-05T21:00:00Z,19.68,-79.88,29.0,23.0,0,2,,6.21,30.0,,,,,,,,,,,FEW,2000,,,,,,,VFR,,,,,,,,,,,,METAR,2.0
MWCR 052100Z 01005KT 9999 SCT015TCU SCT030 26/25 Q1016,MWCR,2019-01-05T21:00:00Z,19.3,-81.37,26.0,25.0,10,5,,6.21,30.0,,,,,,,,,,,SCT,1500,SCT,3000,,,,,VFR,,,,,,,,,,,,METAR,3.0
SBMN 052100Z 29004KT 9999 SCT020 FEW025TCU 29/25 Q1009,SBMN,2019-01-05T21:00:00Z,-3.13,-59.97,29.0,25.0,290,4,,6.21,29.793306,,,,,,,,,,,SCT,2000,FEW,2500,,,,,VFR,,,,,,,,,,,,METAR,84.0
FQLC 052100Z 00000KT 9999 BKN016 FEW020CB 20/17 Q1019 RMK CB TO NE,FQLC,2019-01-05T21:00:00Z,-13.27,35.25,20.0,17.0,0,0,,6.21,30.088583,,,,,,,,,,,BKN,1600,FEW,2000,,,,,MVFR,,,,,,,,,,,,SPECI,1365.0
SBPV 052100Z 35004KT 9999 VCSH BKN030 FEW035TCU 29/23 Q1008,SBPV,2019-01-05T21:00:00Z,-8.72,-63.9,29.0,23.0,350,4,,6.21,29.763779,,,,,,,,,,VCSH,BKN,3000,FEW,3500,,,,,MVFR,,,,,,,,,,,,METAR,88.0
MGGT 052100Z 01010KT 9999 FEW024 25/14 Q1025 A3027,MGGT,2019-01-05T21:00:00Z,14.57,-90.53,25.0,14.0,10,10,,6.21,30.265747,,,,,,,,,,,FEW,2400,,,,,,,VFR,,,,,,,,,,,,METAR,1509.0
SBMO 052100Z 12007KT 9999 FEW020 26/21 Q1014,SBMO,2019-01-05T21:00:00Z,-9.52,-35.77,26.0,21.0,120,7,,6.21,29.940945,,,,,,,,,,,FEW,2000,,,,,,,VFR,,,,,,,,,,,,METAR,115.0
CWDT 052100Z AUTO 31002KT M05/M06 RMK AO1 SLP042 T10481059 55000,CWDT,2019-01-05T21:00:00Z,49.88,-71.25,-4.8,-5.9,310,2,,,,1004.2,,TRUE,TRUE,,,,,,,,,,,,,,,,0.0,,,,,,,,,,,METAR,399.0
CWIX 052100Z AUTO 32002KT M04/M05 RMK AO1 SLP033 T10381046 55002,CWIX,2019-01-05T21:00:00Z,48.6,-71.72,-3.8,-4.6,320,2,,,,1003.3,,TRUE,TRUE,,,,,,,,,,,,,,,,-0.2,,,,,,,,,,,METAR,113.0
CWPS 052100Z AUTO 21014G19KT 02/M00 RMK AO1 PK WND 21019/2058 SLP082 T00181002 53016,CWPS,2019-01-05T21:00:00Z,42.57,-80.03,1.8,-0.2,210,14,19,,,1008.2,,TRUE,TRUE,,,,,,,,,,,,,,,,1.6,,,,,,,,,,,METAR,175.0
CWNL 052100Z AUTO 22005KT 02/01 RMK AO1 SLP042 T00200010 55001,CWNL,2019-01-05T21:00:00Z,45.62,-82.97,2.0,1.0,220,5,,,,1004.2,,TRUE,TRUE,,,,,,,,,,,,,,,,-0.1,,,,,,,,,,,METAR,183.0
CXAT 052100Z AUTO 30004KT M26/M29 RMK AO1 SOG 05 1025 SLP079 T12561289,CXAT,2019-01-05T21:00:00Z,73.0,-85.03,-25.6,-28.9,300,4,,,,1007.9,,TRUE,TRUE,,,,,,,,,,,,,,,,,,,,,,,,,,,METAR,19.0
CZMU 052100Z AUTO 14010KT M05/M05 RMK AO1 SOG 25 T10491052,CZMU,2019-01-05T21:00:00Z,53.57,-112.3,-4.9,-5.2,140,10,,,,,,TRUE,TRUE,,,,,,,,,,,,,,,,,,,,,,,,,,,METAR,683.0
CWMZ 052100Z AUTO 22007KT 03/M00 RMK AO1 SLP050 T00271003 55006,CWMZ,2019-01-05T21:00:00Z,45.02,-80.37,2.7,-0.3,220,7,,,,1005.0,,TRUE,TRUE,,,,,,,,,,,,,,,,-0.6,,,,,,,,,,,METAR,191.0
CWCI 052100Z AUTO 02/01 RMK AO1 SLP063 T00170009 53035,CWCI,2019-01-05T21:00:00Z,47.32,-85.82,1.7,0.9,,,,,,1006.3,,TRUE,TRUE,,,,,,,,,,,,,,,,3.5,,,,,,,,,,,METAR,187.0
CWEF 052100Z AUTO 01/M00 RMK AO1 SLP070 T00071001 58010,CWEF,2019-01-05T21:00:00Z,47.22,-60.12,0.7,-0.1,,,,,,1007.0,,TRUE,TRUE,,,,,,,,,,,,,,,,-1.0,,,,,,,,,,,METAR,26.0
FVRG 052100Z 32004KT 9999 -RA SCT008 FEW030CB 18/18 Q1020 NOSIG,FVRG,2019-01-05T21:00:00Z,-17.93,31.1,18.0,18.0,320,4,,6.21,30.11811,,,,,,TRUE,,,,-RA,SCT,800,FEW,3000,,,,,VFR,,,,,,,,,,,,METAR,1490.0
FALA 052100Z AUTO 13004KT //// ////// 18/15 Q1018,FALA,2019-01-05T21:00:00Z,-25.92,27.92,18.0,15.0,130,4,,,30.059055,,,TRUE,,,,,,,,,,,,,,,,,,,,,,,,,,,,METAR,1377.0
FLKK 052100Z 19002KT 9999 BKN090 21/20 Q1019,FLKK,2019-01-05T21:00:00Z,-15.32,28.45,21.0,20.0,190,2,,6.21,30.088583,,,,,,,,,,,BKN,9000,,,,,,,VFR,,,,,,,,,,,,METAR,1154.0
SPMS 052100Z 01005KT 9999 FEW012 31/23 Q1010 RMK BIRD HAZARD RWY 09/27 PP000,SPMS,2019-01-05T21:00:00Z,-5.9,-76.12,31.0,23.0,10,5,,6.21,29.822834,,,,,,,,,,,FEW,1200,,,,,,,VFR,,,,,,,,,,,,METAR,179.0
SPME 052100Z 30008KT 9999 FEW014 SCT023 28/22 Q1009 RMK BIRD HAZARD RWY 32/14 PP000,SPME,2019-01-05T21:00:00Z,-3.53,-80.4,28.0,22.0,300,8,,6.21,29.793306,,,,,,,,,,,FEW,1400,SCT,2300,,,,,VFR,,,,,,,,,,,,METAR,27.0
SPLO 052100Z 16007KT CAVOK 25/21 Q1011 RMK TX26.4 PP000,SPLO,2019-01-05T21:00:00Z,-17.7,-71.35,25.0,21.0,160,7,,6.21,29.852362,,,,,,,,,,,CAVOK,,,,,,,,VFR,,,,,,,,,,,,METAR,9.0
WMKJ 052100Z 00000KT 6000 FEW010 BKN300 25/24 Q1010,WMKJ,2019-01-05T21:00:00Z,1.62,103.67,25.0,24.0,0,0,,3.73,29.822834,,,,,,,,,,,FEW,1000,BKN,30000,,,,,MVFR,,,,,,,,,,,,METAR,40.0
RKSM 052100Z 28001KT 9999 BKN180 M07/M13 A3037,RKSM,2019-01-05T21:00:00Z,37.42,127.12,-7.0,-13.0,280,1,,6.21,30.369095,,,,,,,,,,,BKN,18000,,,,,,,VFR,,,,,,,,,,,,METAR,20.0
HETR 052100Z 36006KT CAVOK 13/01 Q1017,HETR,2019-01-05T21:00:00Z,28.22,33.65,13.0,1.0,360,6,,6.21,30.029528,,,,,,,,,,,CAVOK,,,,,,,,VFR,,,,,,,,,,,,SPECI,35.0
MRPV 052100Z 09010KT 9999 SCT030 24/16 A3003 NOSIG,MRPV,2019-01-05T21:00:00Z,9.95,-84.15,24.0,16.0,90,10,,6.21,30.029528,,,,,,TRUE,,,,,SCT,3000,,,,,,,VFR,,,,,,,,,,,,SPECI,994.0
LQMO 052100Z VRB02KT 9999 FEW050 SCT075 M01/M06 Q1015,LQMO,2019-01-05T21:00:00Z,43.28,17.83,-1.0,-6.0,0,2,,6.21,29.970472,,,,,,,,,,,FEW,5000,SCT,7500,,,,,VFR,,,,,,,,,,,,METAR,48.0
SBRP 052100Z 34008KT 9999 SCT040 SCT100 25/21 Q1014,SBRP,2019-01-05T21:00:00Z,-21.12,-47.77,25.0,21.0,340,8,,6.21,29.940945,,,,,,,,,,,SCT,4000,SCT,10000,,,,,VFR,,,,,,,,,,,,METAR,549.0
BIEG 052100Z 23007KT 9999 FEW056 SCT160 04/M03 Q1017 R04/150095,BIEG,2019-01-05T21:00:00Z,65.27,-14.4,4.0,-3.0,230,7,,6.21,30.029528,,,,,,,,,,,FEW,5600,SCT,16000,,,,,VFR,,,,,,,,,,,,METAR,38.0
BIAR 052100Z 25004KT 190V330 9999 -RA BKN049 04/M06 Q1016,BIAR,2019-01-05T21:00:00Z,65.67,-18.07,4.0,-6.0,250,4,,6.21,30.0,,,,,,,,,,-RA,BKN,4900,,,,,,,VFR,,,,,,,,,,,,METAR,27.0
LKKV 052100Z 29010KT 9999 -RA FEW009 BKN015 02/02 Q1020 R29///////,LKKV,2019-01-05T21:00:00Z,50.2,12.92,2.0,2.0,290,10,,6.21,30.11811,,,,,,,,,,-RA,FEW,900,BKN,1500,,,,,MVFR,,,,,,,,,,,,SPECI,604.0
FSIA 052100Z 27005KT 9999 SCT020 28/24 Q1011 NOSIG,FSIA,2019-01-05T21:00:00Z,-4.67,55.52,28.0,24.0,270,5,,6.21,29.852362,,,,,,TRUE,,,,,SCT,2000,,,,,,,VFR,,,,,,,,,,,,METAR,3.0
MHAM 052100Z 23006KT 9999 FEW030 35/21,MHAM,2019-01-05T21:00:00Z,13.27,-87.65,35.0,21.0,230,6,,6.21,,,,,,,,,,,,FEW,3000,,,,,,,VFR,,,,,,,,,,,,METAR,5.0
SBEG 052100Z 28002KT 9999 SCT020 FEW025TCU SCT060 28/24 Q1009,SBEG,2019-01-05T21:00:00Z,-3.02,-60.03,28.0,24.0,280,2,,6.21,29.793306,,,,,,,,,,,SCT,2000,FEW,2500,SCT,6000,,,VFR,,,,,,,,,,,,METAR,2.0
GVAC 052100Z 06007KT CAVOK 22/15 Q1017 NOSIG,GVAC,2019-01-05T21:00:00Z,16.72,-22.93,22.0,15.0,60,7,,6.21,30.029528,,,,,,TRUE,,,,,CAVOK,,,,,,,,VFR,,,,,,,,,,,,METAR,55.0
MPPA 052100Z 02010KT 9999 FEW018 31/21 Q1009,MPPA,2019-01-05T21:00:00Z,8.92,-79.6,31.0,21.0,20,10,,6.21,29.793306,,,,,,,,,,,FEW,1800,,,,,,,VFR,,,,,,,,,,,,METAR,13.0
UBBL 052100Z VRB02KT 5000 BR SCT014 08/08 Q1016 R33/CLRD// NOSIG RMK MT OBSC ,UBBL,2019-01-05T21:00:00Z,38.75,48.82,8.0,8.0,0,2,,3.11,30.0,,,,,,TRUE,,,,BR,SCT,1400,,,,,,,MVFR,,,,,,,,,,,,METAR,10.0
SBSN 052100Z 08009KT CAVOK 30/24 Q1008,SBSN,2019-01-05T21:00:00Z,-2.42,-54.78,30.0,24.0,80,9,,6.21,29.763779,,,,,,,,,,,CAVOK,,,,,,,,VFR,,,,,,,,,,,,METAR,72.0
SBAR 052100Z 11013KT 9999 FEW019 SCT080 28/21 Q1013,SBAR,2019-01-05T21:00:00Z,-10.97,-37.07,28.0,21.0,110,13,,6.21,29.911417,,,,,,,,,,,FEW,1900,SCT,8000,,,,,VFR,,,,,,,,,,,,METAR,9.0
CWZL 052100Z AUTO 30009KT 03/01 RMK AO1 SLP983 T00290006 57022,CWZL,2019-01-05T21:00:00Z,53.03,-131.6,2.9,0.6,300,9,,,,998.3,,TRUE,TRUE,,,,,,,,,,,,,,,,-2.2,,,,,,,,,,,METAR,17.0
CWZV 052100Z AUTO 35006KT 04/01 RMK AO1 SLP961 T00390007 58025,CWZV,2019-01-05T21:00:00Z,51.93,-131.02,3.9,0.7,350,6,,,,996.1,,TRUE,TRUE,,,,,,,,,,,,,,,,-2.5,,,,,,,,,,,METAR,92.0
SESM 052100Z 12004KT 9999 SCT023 BKN100 29/19 Q1015 RMK A2999,SESM,2019-01-05T21:00:00Z,-1.5,-78.07,29.0,19.0,120,4,,6.21,29.970472,,,,,,,,,,,SCT,2300,BKN,10000,,,,,VFR,,,,,,,,,,,,METAR,1056.0
SECO 052100Z 16002KT 9999 FEW026 SCT100 31/24 Q1010 RMK A2984,SECO,2019-01-05T21:00:00Z,-0.45,-76.98,31.0,24.0,160,2,,6.21,29.822834,,,,,,,,,,,FEW,2600,SCT,10000,,,,,VFR,,,,,,,,,,,,METAR,220.0
SEST 052100Z 17014KT 9999 FEW020 27/23 Q1007 RMK A2974,SEST,2019-01-05T21:00:00Z,-0.9,-89.58,27.0,23.0,170,14,,6.21,29.734253,,,,,,,,,,,FEW,2000,,,,,,,VFR,,,,,,,,,,,,METAR,6.0
SENL 052100Z 06006KT CAVOK 30/22 Q1010 RMK A2984,SENL,2019-01-05T21:00:00Z,0.1,-76.87,30.0,22.0,60,6,,6.21,29.822834,,,,,,,,,,,CAVOK,,,,,,,,VFR,,,,,,,,,,,,METAR,293.0
SECA 052100Z 14009KT 9999 BKN040 31/14 Q1014,SECA,2019-01-05T21:00:00Z,-4.0,-79.37,31.0,14.0,140,9,,6.21,29.940945,,,,,,,,,,,BKN,4000,,,,,,,VFR,,,,,,,,,,,,METAR,1121.0
SECU 052100Z 07010KT 9999 BKN040 21/09 Q1023,SECU,2019-01-05T21:00:00Z,-2.87,-78.97,21.0,9.0,70,10,,6.21,30.206694,,,,,,,,,,,BKN,4000,,,,,,,VFR,,,,,,,,,,,,METAR,2531.0
SERO 052100Z 30008KT 9999 FEW020 SCT080 30/22 Q1008,SERO,2019-01-05T21:00:00Z,-3.43,-79.98,30.0,22.0,300,8,,6.21,29.763779,,,,,,,,,,,FEW,2000,SCT,8000,,,,,VFR,,,,,,,,,,,,METAR,51.0
SETN 052100Z 29006KT 240V330 9999 BKN026 BKN100 29/26 Q1008 A2978,SETN,2019-01-05T21:00:00Z,0.98,-79.63,29.0,26.0,290,6,,6.21,29.763779,,,,,,,,,,,BKN,2600,BKN,10000,,,,,MVFR,,,,,,,,,,,,METAR,10.0
SEGU 052100Z 27007KT 210V280 9999 FEW023 SCT030 BKN100 29/23 Q1007 NOSIG RMK A2976,SEGU,2019-01-05T21:00:00Z,-2.13,-79.87,29.0,23.0,270,7,,6.21,29.734253,,,,,,TRUE,,,,,FEW,2300,SCT,3000,BKN,10000,,,VFR,,,,,,,,,,,,METAR,9.0
SEMT 052100Z 22006KT 9999 BKN020 26/23 Q1009 RMK A2981,SEMT,2019-01-05T21:00:00Z,-0.95,-80.67,26.0,23.0,220,6,,6.21,29.793306,,,,,,,,,,,BKN,2000,,,,,,,MVFR,,,,,,,,,,,,SPECI,14.0
SEQM 052100Z 35017KT 9999 SCT040 24/09 Q1022 NOSIG RMK A3018,SEQM,2019-01-05T21:00:00Z,-0.12,-78.35,24.0,9.0,350,17,,6.21,30.177166,,,,,,TRUE,,,,,SCT,4000,,,,,,,VFR,,,,,,,,,,,,SPECI,2400.0
NGTA 052100Z 29006KT 9999 FEW018TCU SCT100 BKN300 30/27 Q1008,NGTA,2019-01-05T21:00:00Z,1.37,173.13,30.0,27.0,290,6,,6.21,29.763779,,,,,,,,,,,FEW,1800,SCT,10000,BKN,30000,,,VFR,,,,,,,,,,,,METAR,2.0
MROC 052100Z 08019G29KT 9999 FEW030 27/15 A2998 NOSIG,MROC,2019-01-05T21:00:00Z,10.0,-84.22,27.0,15.0,80,19,29,6.21,29.97933,,,,,,TRUE,,,,,FEW,3000,,,,,,,VFR,,,,,,,,,,,,METAR,920.0
SBJP 052100Z 11010KT 9999 SCT019 27/23 Q1014,SBJP,2019-01-05T21:00:00Z,-7.15,-34.95,27.0,23.0,110,10,,6.21,29.940945,,,,,,,,,,,SCT,1900,,,,,,,VFR,,,,,,,,,,,,METAR,66.0
AGGH 052100Z 00000KT 9999 HZ FEW017 28/24 Q1007,AGGH,2019-01-05T21:00:00Z,-9.42,160.05,28.0,24.0,0,0,,6.21,29.734253,,,,,,,,,,HZ,FEW,1700,,,,,,,VFR,,,,,,,,,,,,METAR,9.0
SCCI 052100Z 29027G37KT CAVOK 12/01 Q0987 NOSIG,SCCI,2019-01-05T21:00:00Z,-53.0,-70.83,12.0,1.0,290,27,37,6.21,29.143702,,,,,,TRUE,,,,,CAVOK,,,,,,,,VFR,,,,,,,,,,,,METAR,37.0
SCNT 052100Z 28028G38KT 9999 SCT030 SCT080 12/01 Q0990,SCNT,2019-01-05T21:00:00Z,-51.67,-72.53,12.0,1.0,280,28,38,6.21,29.232283,,,,,,,,,,,SCT,3000,SCT,8000,,,,,VFR,,,,,,,,,,,,METAR,67.0
SCVD 052100Z 21006KT CAVOK 27/13 Q1011,SCVD,2019-01-05T21:00:00Z,-39.65,-73.07,27.0,13.0,210,6,,6.21,29.852362,,,,,,,,,,,CAVOK,,,,,,,,VFR,,,,,,,,,,,,METAR,14.0
SCTE 052100Z 21007KT 160V240 CAVOK 19/12 Q1013 NOSIG,SCTE,2019-01-05T21:00:00Z,-41.42,-73.07,19.0,12.0,210,7,,6.21,29.911417,,,,,,TRUE,,,,,CAVOK,,,,,,,,VFR,,,,,,,,,,,,METAR,86.0
SCQP 052100Z 27012KT CAVOK 21/13 Q1013,SCQP,2019-01-05T21:00:00Z,-38.92,-72.65,21.0,13.0,270,12,,6.21,29.911417,,,,,,,,,,,CAVOK,,,,,,,,VFR,,,,,,,,,,,,METAR,97.0
SCJO 052100Z 18007KT CAVOK 24/10 Q1012,SCJO,2019-01-05T21:00:00Z,-40.6,-73.03,24.0,10.0,180,7,,6.21,29.88189,,,,,,,,,,,CAVOK,,,,,,,,VFR,,,,,,,,,,,,METAR,65.0
SCSE 052100Z 26010KT CAVOK 21/13 Q1012,SCSE,2019-01-05T21:00:00Z,-29.92,-71.2,21.0,13.0,260,10,,6.21,29.88189,,,,,,,,,,,CAVOK,,,,,,,,VFR,,,,,,,,,,,,METAR,146.0
SCDA 052100Z 22010KT 9999 FEW033 25/17 Q1010,SCDA,2019-01-05T21:00:00Z,-20.52,-70.17,25.0,17.0,220,10,,6.21,29.822834,,,,,,,,,,,FEW,3300,,,,,,,VFR,,,,,,,,,,,,METAR,52.0
SCAT 052100Z 30010KT 260V360 CAVOK 24/12 Q1013,SCAT,2019-01-05T21:00:00Z,-27.27,-70.77,24.0,12.0,300,10,,6.21,29.911417,,,,,,,,,,,CAVOK,,,,,,,,VFR,,,,,,,,,,,,METAR,204.0
SCIE 052100Z 36006KT 310V030 9999 SCT012 OVC015 16/13 Q1014,SCIE,2019-01-05T21:00:00Z,-36.77,-73.07,16.0,13.0,360,6,,6.21,29.940945,,,,,,,,,,,SCT,1200,OVC,1500,,,,,MVFR,,,,,,,,,,,,METAR,16.0
SCCF 052100Z 26022KT CAVOK 25/M01 Q1023,SCCF,2019-01-05T21:00:00Z,-22.5,-68.9,25.0,-1.0,260,22,,6.21,30.206694,,,,,,,,,,,CAVOK,,,,,,,,VFR,,,,,,,,,,,,METAR,2312.0
SCBA 052100Z 31037G48KT 9999 FEW030 15/04 Q1001,SCBA,2019-01-05T21:00:00Z,-45.92,-71.67,15.0,4.0,310,37,48,6.21,29.557087,,,,,,,,,,,FEW,3000,,,,,,,VFR,,,,,,,,,,,,METAR,524.0
SCAR 052100Z 20009KT CAVOK 24/17 Q1011,SCAR,2019-01-05T21:00:00Z,-18.35,-70.32,24.0,17.0,200,9,,6.21,29.852362,,,,,,,,,,,CAVOK,,,,,,,,VFR,,,,,,,,,,,,METAR,59.0
SCFA 052100Z 19010KT 9999 FEW025 22/15 Q1011 NOSIG,SCFA,2019-01-05T21:00:00Z,-23.42,-70.42,22.0,15.0,190,10,,6.21,29.852362,,,,,,TRUE,,,,,FEW,2500,,,,,,,VFR,,,,,,,,,,,,METAR,120.0
SCCY 052100Z 25011KT 180V320 9999 BKN033 17/05 Q1005,SCCY,2019-01-05T21:00:00Z,-45.57,-72.1,17.0,5.0,250,11,,6.21,29.675198,,,,,,,,,,,BKN,3300,,,,,,,VFR,,,,,,,,,,,,METAR,311.0
SCIC 052100Z VRB05KT CAVOK 29/12 Q1011,SCIC,2019-01-05T21:00:00Z,-34.97,-71.22,29.0,12.0,0,5,,6.21,29.852362,,,,,,,,,,,CAVOK,,,,,,,,VFR,,,,,,,,,,,,METAR,242.0
SCGE 052100Z 30014KT CAVOK 29/14 Q1012,SCGE,2019-01-05T21:00:00Z,-37.38,-72.42,29.0,14.0,300,14,,6.21,29.88189,,,,,,,,,,,CAVOK,,,,,,,,VFR,,,,,,,,,,,,METAR,114.0
SCRM 052100Z 11018KT 3000 -RASN BR OVC005 M00/M00 Q0973,SCRM,2019-01-05T21:00:00Z,-62.18,-58.98,0.0,0.0,110,18,,1.86,28.730314,,,,,,,,,,-RA -SN BR,OVC,500,,,,,,,IFR,,,,,,,,,,,,METAR,45.0
SCCH 052100Z 24009KT 9999 FEW020 29/13 Q1011,SCCH,2019-01-05T21:00:00Z,-36.57,-72.02,29.0,13.0,240,9,,6.21,29.852362,,,,,,,,,,,FEW,2000,,,,,,,VFR,,,,,,,,,,,,METAR,148.0
SCTN 052100Z AUTO 20008KT 160V220 //// R/////// // NCD 14/11 Q1013,SCTN,2019-01-05T21:00:00Z,-42.92,-72.7,14.0,11.0,200,8,,,29.911417,,,TRUE,,,,,,,,CLR,,,,,,,,,,,,,,,,,,,,METAR,4.0
SCPQ 052100Z AUTO 13008KT 070V170 //// R35/P2000N NCD 18/10 Q1013,SCPQ,2019-01-05T21:00:00Z,-42.33,-73.72,18.0,10.0,130,8,,1.24,29.911417,,,TRUE,,,,,,,,CLR,,,,,,,,IFR,,,,,,,,,,,,METAR,5.0
SCIP 052100Z 09013KT 050V120 9999 SCT025 BKN090 25/19 Q1024 NOSIG,SCIP,2019-01-05T21:00:00Z,-27.17,-109.43,25.0,19.0,90,13,,6.21,30.236221,,,,,,TRUE,,,,,SCT,2500,BKN,9000,,,,,VFR,,,,,,,,,,,,METAR,69.0
SPTN 052100Z 21010KT 180V250 CAVOK 25/16 Q1012 RMK SCT220 PP000,SPTN,2019-01-05T21:00:00Z,-18.07,-70.28,25.0,16.0,210,10,,6.21,29.88189,,,,,,,,,,,CAVOK,,,,,,,,VFR,,,,,,,,,,,,SPECI,458.0
SPSO 052100Z 22018KT CAVOK 25/20 Q1009 RMK BIRD HAZARD RWY 22/04 PP000,SPSO,2019-01-05T21:00:00Z,-13.73,-76.22,25.0,20.0,220,18,,6.21,29.793306,,,,,,,,,,,CAVOK,,,,,,,,VFR,,,,,,,,,,,,SPECI,10.0
SPRU 052100Z 16009KT 9999 FEW030 25/21 Q1009 RMK PP000,SPRU,2019-01-05T21:00:00Z,-8.08,-79.12,25.0,21.0,160,9,,6.21,29.793306,,,,,,,,,,,FEW,3000,,,,,,,VFR,,,,,,,,,,,,METAR,30.0
SPQU 052100Z 24011KT 9999 FEW090 21/03 Q1025 NOSIG RMK PP000,SPQU,2019-01-05T21:00:00Z,-16.33,-71.57,21.0,3.0,240,11,,6.21,30.265747,,,,,,TRUE,,,,,FEW,9000,,,,,,,VFR,,,,,,,,,,,,SPECI,2554.0
SPQT 052100Z 03002KT 9999 SCT025 BKN080 30/24 Q1010 RMK BIRD HAZARD RWY 06/24 PP000,SPQT,2019-01-05T21:00:00Z,-3.78,-73.32,30.0,24.0,30,2,,6.21,29.822834,,,,,,,,,,,SCT,2500,BKN,8000,,,,,VFR,,,,,,,,,,,,SPECI,126.0
SPHI 052100Z 20014KT CAVOK 28/20 Q1009 RMK PP000,SPHI,2019-01-05T21:00:00Z,-6.77,-79.82,28.0,20.0,200,14,,6.21,29.793306,,,,,,,,,,,CAVOK,,,,,,,,VFR,,,,,,,,,,,,METAR,34.0
SBMA 052100Z 33003KT 9999 FEW023 FEW027TCU SCT090 31/25 Q1009,SBMA,2019-01-05T21:00:00Z,-5.37,-49.13,31.0,25.0,330,3,,6.21,29.793306,,,,,,,,,,,FEW,2300,FEW,2700,SCT,9000,,,VFR,,,,,,,,,,,,METAR,102.0
SBCT 052100Z 10006KT 080V140 9000 OVC009 20/18 Q1017,SBCT,2019-01-05T21:00:00Z,-25.52,-49.17,20.0,18.0,100,6,,5.59,30.029528,,,,,,,,,,,OVC,900,,,,,,,IFR,,,,,,,,,,,,METAR,908.0
SBPL 052100Z 15006KT 9999 FEW047 31/16 Q1012,SBPL,2019-01-05T21:00:00Z,-9.37,-40.57,31.0,16.0,150,6,,6.21,29.88189,,,,,,,,,,,FEW,4700,,,,,,,VFR,,,,,,,,,,,,METAR,375.0
OPNH 052100Z 31504KT 1500M BR NSC 11/08 Q1018 TEMPO 1500 BR,OPNH,2019-01-05T21:00:00Z,26.22,68.37,11.0,8.0,315,4,,0.93,30.059055,,,,,,,,,,BR,CLR,,,,,,,,LIFR,,,,,,,,,,,,METAR,38.0
SBCP 052100Z 06008KT 9999 FEW025TCU BKN080 27/22 Q1012,SBCP,2019-01-05T21:00:00Z,-21.7,-41.3,27.0,22.0,60,8,,6.21,29.88189,,,,,,,,,,,FEW,2500,BKN,8000,,,,,VFR,,,,,,,,,,,,METAR,11.0
OERK 052100Z 14003KT CAVOK 14/M02 Q1020 NOSIG,OERK,2019-01-05T21:00:00Z,24.95,46.72,14.0,-2.0,140,3,,6.21,30.11811,,,,,,TRUE,,,,,CAVOK,,,,,,,,VFR,,,,,,,,,,,,METAR,612.0
OEMA 052100Z 00000KT CAVOK 22/14 Q1016 NOSIG,OEMA,2019-01-05T21:00:00Z,24.55,39.7,22.0,14.0,0,0,,6.21,30.0,,,,,,TRUE,,,,,CAVOK,,,,,,,,VFR,,,,,,,,,,,,METAR,631.0
OEJN 052100Z 04006KT 9999 FEW040 25/21 Q1015 NOSIG,OEJN,2019-01-05T21:00:00Z,21.68,39.15,25.0,21.0,40,6,,6.21,29.970472,,,,,,TRUE,,,,,FEW,4000,,,,,,,VFR,,,,,,,,,,,,METAR,15.0
OEDR 052100Z 27003KT CAVOK 13/10 Q1018 NOSIG,OEDR,2019-01-05T21:00:00Z,26.27,50.17,13.0,10.0,270,3,,6.21,30.059055,,,,,,TRUE,,,,,CAVOK,,,,,,,,VFR,,,,,,,,,,,,METAR,17.0
OEDF 052100Z 00000KT 6000 NSC 12/10 Q1019 NOSIG,OEDF,2019-01-05T21:00:00Z,26.47,49.8,12.0,10.0,0,0,,3.73,30.088583,,,,,,TRUE,,,,,CLR,,,,,,,,MVFR,,,,,,,,,,,,METAR,22.0
SPHO 052100Z VRB01KT 9999 SCT040 SCT230 24/05 Q1023 RMK PP000,SPHO,2019-01-05T21:00:00Z,-13.17,-74.22,24.0,5.0,0,1,,6.21,30.206694,,,,,,,,,,,SCT,4000,SCT,23000,,,,,VFR,,,,,,,,,,,,METAR,2749.0
SPYL 052100Z 24010KT CAVOK 26/18 Q1010 RMK 30.4 BIRD HAZARD RWY 17/35 PP000,SPYL,2019-01-05T21:00:00Z,-4.57,-81.25,26.0,18.0,240,10,,6.21,29.822834,,,,,,,,,,,CAVOK,,,,,,,,VFR,,,,,,,,,,,,SPECI,90.0
SPTU 052100Z 25010KT 220V300 9999 FEW020 SCT100 27/23 Q1007 RMK BIRD HAZARD RWY 01/19 PP000,SPTU,2019-01-05T21:00:00Z,-12.62,-69.2,27.0,23.0,250,10,,6.21,29.734253,,,,,,,,,,,FEW,2000,SCT,10000,,,,,VFR,,,,,,,,,,,,METAR,266.0
SPST 052100Z 27004KT 9999 SCT020 33/23 Q1009 RMK BIRD HAZARD RWY 17/35 PP000,SPST,2019-01-05T21:00:00Z,-6.52,-76.37,33.0,23.0,270,4,,6.21,29.793306,,,,,,,,,,,SCT,2000,,,,,,,VFR,,,,,,,,,,,,METAR,282.0
LPMT 052100Z 04003KT CAVOK 06/06 Q1033,LPMT,2019-01-05T21:00:00Z,38.7,-9.05,6.0,6.0,40,3,,6.21,30.501968,,,,,,,,,,,CAVOK,,,,,,,,VFR,,,,,,,,,,,,METAR,11.0
LPMR 052100Z 17002KT 7000 NSC 06/05 Q1034,LPMR,2019-01-05T21:00:00Z,39.82,-8.87,6.0,5.0,170,2,,4.35,30.531496,,,,,,,,,,,CLR,,,,,,,,MVFR,,,,,,,,,,,,METAR,54.0
LPOV 052100Z VRB02KT CAVOK 03/01 Q1033,LPOV,2019-01-05T21:00:00Z,40.92,-8.65,3.0,1.0,0,2,,6.21,30.501968,,,,,,,,,,,CAVOK,,,,,,,,VFR,,,,,,,,,,,,METAR,17.0
FIMP 052100Z 06007KT 9999 SCT017 27/24 Q1014,FIMP,2019-01-05T21:00:00Z,-20.42,57.67,27.0,24.0,60,7,,6.21,29.940945,,,,,,,,,,,SCT,1700,,,,,,,VFR,,,,,,,,,,,,METAR,57.0
FBSK 052100Z 04005KT 9999 FEW035CB SCT070 29/14 Q1013 NOSIG,FBSK,2019-01-05T21:00:00Z,-24.55,25.92,29.0,14.0,40,5,,6.21,29.911417,,,,,,TRUE,,,,,FEW,3500,SCT,7000,,,,,VFR,,,,,,,,,,,,METAR,1005.0
SBCZ 052100Z 05010KT 5000 -TSRA FEW010 FEW025CB BKN026 BKN1 00 24/23 Q1011 RERA,SBCZ,2019-01-05T21:00:00Z,-7.62,-72.77,24.0,23.0,50,10,,3.11,29.852362,,,,,,,,,,-TSRA,FEW,1000,FEW,2500,BKN,2600,,,MVFR,,,,,,,,,,,,METAR,170.0
MKJP 052100Z 13012KT 9999 FEW022 28/19 Q1014,MKJP,2019-01-05T21:00:00Z,17.92,-76.78,28.0,19.0,130,12,,6.21,29.940945,,,,,,,,,,,FEW,2200,,,,,,,VFR,,,,,,,,,,,,METAR,3.0
WSAP 052100Z 04004KT 9999 -SHRA SCT018CB BKN160 27/25 Q1011,WSAP,2019-01-05T21:00:00Z,1.37,103.92,27.0,25.0,40,4,,6.21,29.852362,,,,,,,,,,-SHRA,SCT,1800,BKN,16000,,,,,VFR,,,,,,,,,,,,METAR,32.0
YMOR 052100Z AUTO 03017KT 9999 // NCD 25/16 Q1013,YMOR,2019-01-05T21:00:00Z,-29.5,149.85,25.0,16.0,30,17,,6.21,29.911417,,,TRUE,,,,,,,,CLR,,,,,,,,VFR,,,,,,,,,,,,METAR,214.0
YMIA 052100Z AUTO 18009KT 9999 // NCD 16/08 Q1019,YMIA,2019-01-05T21:00:00Z,-34.23,142.08,16.0,8.0,180,9,,6.21,30.088583,,,TRUE,,,,,,,,CLR,,,,,,,,VFR,,,,,,,,,,,,METAR,51.0
YMER 052100Z AUTO 00000KT 9999 // NCD 18/12 Q1017,YMER,2019-01-05T21:00:00Z,-36.92,149.9,18.0,12.0,0,0,,6.21,30.029528,,,TRUE,,,,,,,,CLR,,,,,,,,VFR,,,,,,,,,,,,METAR,2.0
YMEN 052100Z AUTO 25008KT 9999 // NCD 15/10 Q1020,YMEN,2019-01-05T21:00:00Z,-37.72,144.9,15.0,10.0,250,8,,6.21,30.11811,,,TRUE,,,,,,,,CLR,,,,,,,,VFR,,,,,,,,,,,,METAR,86.0
YMEK 052100Z AUTO 05010KT 9999 // NCD 27/07 Q1016,YMEK,2019-01-05T21:00:00Z,-26.62,118.55,27.0,7.0,50,10,,6.21,30.0,,,TRUE,,,,,,,,CLR,,,,,,,,VFR,,,,,,,,,,,,METAR,522.0
YMAY 052100Z AUTO 16008KT 9999 // NCD 17/09 Q1017,YMAY,2019-01-05T21:00:00Z,-36.07,146.93,17.0,9.0,160,8,,6.21,30.029528,,,TRUE,,,,,,,,CLR,,,,,,,,VFR,,,,,,,,,,,,METAR,171.0
YLRE 052100Z AUTO 05013KT 9999 // NCD 30/13 Q1010,YLRE,2019-01-05T21:00:00Z,-23.43,144.28,30.0,13.0,50,13,,6.21,29.822834,,,TRUE,,,,,,,,CLR,,,,,,,,VFR,,,,,,,,,,,,METAR,193.0
KSNA 052100Z 14005KT 10SM SCT024 BKN029 BKN100 BKN140 15/08 A2997 RMK AO2 T01500083,KSNA,2019-01-05T21:00:00Z,33.67,-117.87,15.0,8.3,140,5,,10.0,29.970472,,,,TRUE,,,,,,,SCT,2400,BKN,2900,BKN,10000,BKN,14000,MVFR,,,,,,,,,,,,SPECI,16.0
KPRB 052100Z AUTO 27011G15KT 6SM -RA BR SCT014 BKN023 OVC047 09/08 A2986 RMK AO2 P0001 T00940078 $,KPRB,2019-01-05T21:00:00Z,35.67,-120.63,9.4,7.8,270,11,15,6.0,29.861221,,,TRUE,TRUE,TRUE,,,,,-RA BR,SCT,1400,BKN,2300,OVC,4700,,,MVFR,,,,,,0.01,,,,,,SPECI,245.0
KOXR 052100Z 00000KT 8SM FEW022 SCT044 OVC080 12/08 A2996 RMK AO2 RAE2053 P0000 T01220083,KOXR,2019-01-05T21:00:00Z,34.2,-119.2,12.2,8.3,0,0,,8.0,29.958662,,,,TRUE,,,,,,,FEW,2200,SCT,4400,OVC,8000,,,VFR,,,,,,0.005,,,,,,SPECI,20.0
KBVY 052100Z 01008KT 3SM -RA BR OVC005 04/02 A2950 RMK AO2 P0000 T00390017,KBVY,2019-01-05T21:00:00Z,42.58,-70.92,3.9,1.7,10,8,,3.0,29.500984,,,,TRUE,,,,,,-RA BR,OVC,500,,,,,,,IFR,,,,,,0.005,,,,,,SPECI,28.0
KAPC 052100Z 12008G18KT 7SM -RA BKN025 OVC033 10/07 A2965 RMK AO2 P0000 T01000067,KAPC,2019-01-05T21:00:00Z,38.2,-122.28,10.0,6.7,120,8,18,7.0,29.648623,,,,TRUE,,,,,,-RA,BKN,2500,OVC,3300,,,,,MVFR,,,,,,0.005,,,,,,SPECI,13.0
KNEL 052100Z AUTO 31008G15KT BKN006 OVC013 A2948 RMK AO2 SLPNO 60004 53017 $,KNEL,2019-01-05T21:00:00Z,40.02,-74.33,,,310,8,15,,29.480314,,,TRUE,TRUE,TRUE,,,,,,BKN,600,OVC,1300,,,,,,1.7,,,,,,0.04,,,,,METAR,31.0
SBUG 052100Z 11007KT 9999 FEW040 30/22 Q1008,SBUG,2019-01-05T21:00:00Z,-29.77,-57.02,30.0,22.0,110,7,,6.21,29.763779,,,,,,,,,,,FEW,4000,,,,,,,VFR,,,,,,,,,,,,METAR,74.0
GMTN 052100Z 23002KT 9999 FEW020 09/06 Q1031 NOSIG,GMTN,2019-01-05T21:00:00Z,35.57,-5.32,9.0,6.0,230,2,,6.21,30.442913,,,,,,TRUE,,,,,FEW,2000,,,,,,,VFR,,,,,,,,,,,,METAR,10.0
GMTA 052100Z 18006KT CAVOK 10/06 Q1031 NOSIG,GMTA,2019-01-05T21:00:00Z,35.17,-3.85,10.0,6.0,180,6,,6.21,30.442913,,,,,,TRUE,,,,,CAVOK,,,,,,,,VFR,,,,,,,,,,,,METAR,14.0
GMMZ 052100Z 26006KT CAVOK 06/M12 Q1031 NOSIG,GMMZ,2019-01-05T21:00:00Z,30.92,-6.9,6.0,-12.0,260,6,,6.21,30.442913,,,,,,TRUE,,,,,CAVOK,,,,,,,,VFR,,,,,,,,,,,,METAR,1140.0
GMMW 052100Z 24003KT CAVOK 07/02 Q1031 NOSIG,GMMW,2019-01-05T21:00:00Z,34.98,-3.02,7.0,2.0,240,3,,6.21,30.442913,,,,,,TRUE,,,,,CAVOK,,,,,,,,VFR,,,,,,,,,,,,METAR,175.0
GMML 052100Z 10008KT CAVOK 18/M07 Q1027 NOSIG,GMML,2019-01-05T21:00:00Z,27.13,-13.23,18.0,-7.0,100,8,,6.21,30.324802,,,,,,TRUE,,,,,CAVOK,,,,,,,,VFR,,,,,,,,,,,,METAR,6.0
GMMH 052100Z 06011KT 8000 NSC 19/06 Q1022 NOSIG,GMMH,2019-01-05T21:00:00Z,23.72,-15.93,19.0,6.0,60,11,,4.97,30.177166,,,,,,TRUE,,,,,CLR,,,,,,,,MVFR,,,,,,,,,,,,METAR,11.0
GMMB 052100Z AUTO 09006KT //// R32/P2000N ////// 07/06 Q1030 NOSIG,GMMB,2019-01-05T21:00:00Z,33.65,-7.22,7.0,6.0,90,6,,1.24,30.413385,,,TRUE,,,TRUE,,,,,,,,,,,,,,,,,,,,,,,,,METAR,191.0
GMFO 052100Z 20006KT CAVOK 04/M04 Q1031 NOSIG,GMFO,2019-01-05T21:00:00Z,34.77,-1.92,4.0,-4.0,200,6,,6.21,30.442913,,,,,,TRUE,,,,,CAVOK,,,,,,,,VFR,,,,,,,,,,,,METAR,470.0
GMFM 052100Z 14006KT CAVOK 09/01 Q1030 NOSIG,GMFM,2019-01-05T21:00:00Z,33.87,-5.52,9.0,1.0,140,6,,6.21,30.413385,,,,,,TRUE,,,,,CAVOK,,,,,,,,VFR,,,,,,,,,,,,METAR,549.0
GMFK 052100Z 33003KT CAVOK 10/M09 Q1033 NOSIG,GMFK,2019-01-05T21:00:00Z,31.95,-4.4,10.0,-9.0,330,3,,6.21,30.501968,,,,,,TRUE,,,,,CAVOK,,,,,,,,VFR,,,,,,,,,,,,METAR,1045.0
VOVZ 052100Z 29004KT 2000 BR NSC 17/15 Q1015 NOSIG,VOVZ,2019-01-05T21:00:00Z,17.75,83.22,17.0,15.0,290,4,,1.24,29.970472,,,,,,TRUE,,,,BR,CLR,,,,,,,,IFR,,,,,,,,,,,,METAR,5.0
VOCB 052100Z VRB02KT 4000 BR NSC 20/15 Q1016 NOSIG,VOCB,2019-01-05T21:00:00Z,11.02,77.03,20.0,15.0,0,2,,2.49,30.0,,,,,,TRUE,,,,BR,CLR,,,,,,,,IFR,,,,,,,,,,,,METAR,399.0
OLBA 052100Z 16008KT 5000 RA FEW020CB BKN034 13/10 Q1014 RERA NOSIG,OLBA,2019-01-05T21:00:00Z,33.82,35.47,13.0,10.0,160,8,,3.11,29.940945,,,,,,TRUE,,,,RA,FEW,2000,BKN,3400,,,,,MVFR,,,,,,,,,,,,METAR,19.0
WSSL 052100Z 01003KT 320V030 9999 FEW017 BKN300 27/25 Q1011,WSSL,2019-01-05T21:00:00Z,1.42,103.87,27.0,25.0,10,3,,6.21,29.852362,,,,,,,,,,,FEW,1700,BKN,30000,,,,,VFR,,,,,,,,,,,,METAR,14.0
TBPB 052100Z 10012KT 9999 FEW020 BKN036 26/21 Q1015 NOSIG,TBPB,2019-01-05T21:00:00Z,13.07,-59.48,26.0,21.0,100,12,,6.21,29.970472,,,,,,TRUE,,,,,FEW,2000,BKN,3600,,,,,VFR,,,,,,,,,,,,METAR,52.0
SBCY 052100Z 02003KT 9999 FEW020 BKN100 23/22 Q1010,SBCY,2019-01-05T21:00:00Z,-15.65,-56.12,23.0,22.0,20,3,,6.21,29.822834,,,,,,,,,,,FEW,2000,BKN,10000,,,,,VFR,,,,,,,,,,,,METAR,182.0
TLPL 052100Z 09019KT 9999 VCSH FEW009 SCT025 SCT040 26/23 Q1016 NOSIG,TLPL,2019-01-05T21:00:00Z,13.75,-60.95,26.0,23.0,90,19,,6.21,30.0,,,,,,TRUE,,,,VCSH,FEW,900,SCT,2500,SCT,4000,,,VFR,,,,,,,,,,,,METAR,3.0
SBGR 052100Z 31004KT 9999 SCT030 BKN050 24/21 Q1016,SBGR,2019-01-05T21:00:00Z,-23.42,-46.47,24.0,21.0,310,4,,6.21,30.0,,,,,,,,,,,SCT,3000,BKN,5000,,,,,VFR,,,,,,,,,,,,METAR,750.0
NFTF 052100Z 09008KT 9999 SCT008 SCT016 OVC100 26/23 Q1009,NFTF,2019-01-05T21:00:00Z,-21.23,-175.15,26.0,23.0,90,8,,6.21,29.793306,,,,,,,,,,,SCT,800,SCT,1600,OVC,10000,,,VFR,,,,,,,,,,,,METAR,38.0
NFTL 052100Z 10014KT 9999 SCT010 BKN017 OVC100 24/22 Q1007,NFTL,2019-01-05T21:00:00Z,-19.78,-174.33,24.0,22.0,100,14,,6.21,29.734253,,,,,,,,,,,SCT,1000,BKN,1700,OVC,10000,,,MVFR,,,,,,,,,,,,METAR,3.0
SBTA 052100Z VRB02KT 9999 FEW030 BKN080 23/20 Q1014,SBTA,2019-01-05T21:00:00Z,-23.03,-45.5,23.0,20.0,0,2,,6.21,29.940945,,,,,,,,,,,FEW,3000,BKN,8000,,,,,VFR,,,,,,,,,,,,METAR,586.0
SBST 052100Z 21005KT 8000 -RA BKN023 OVC027 24/23 Q1012 RERA,SBST,2019-01-05T21:00:00Z,-23.92,-46.28,24.0,23.0,210,5,,4.97,29.88189,,,,,,,,,,-RA,BKN,2300,OVC,2700,,,,,MVFR,,,,,,,,,,,,METAR,3.0
SBSR 052100Z VRB03KT 9999 -RA SCT015 FEW035TCU OVC070 23/20 Q1014,SBSR,2019-01-05T21:00:00Z,-20.8,-49.4,23.0,20.0,0,3,,6.21,29.940945,,,,,,,,,,-RA,SCT,1500,FEW,3500,OVC,7000,,,VFR,,,,,,,,,,,,METAR,543.0
CWWX 052100Z AUTO 26005KT 03/02 RMK AO1 SLP043 T00300015 53001,CWWX,2019-01-05T21:00:00Z,45.32,-81.73,3.0,1.5,260,5,,,,1004.3,,TRUE,TRUE,,,,,,,,,,,,,,,,0.1,,,,,,,,,,,METAR,181.0
VEPT 052100Z 00000KT 0900 R25/1200 FG NSC 09/09 Q1016 NOSIG,VEPT,2019-01-05T21:00:00Z,25.6,85.08,9.0,9.0,0,0,,0.56,30.0,,,,,,TRUE,,,,FG,CLR,,,,,,,,LIFR,,,,,,,,,,,,METAR,60.0
SBRJ 052100Z 01010KT 5000 VCSH FEW013 BKN020 SCT030TCU BKN080 2 6/23 Q1013,SBRJ,2019-01-05T21:00:00Z,-22.88,-43.17,,,10,10,,3.11,29.911417,,,,,,,,,,VCSH,FEW,1300,BKN,2000,SCT,3000,BKN,8000,MVFR,,,,,,,,,,,,METAR,3.0
SBCJ 052100Z 00000KT CAVOK 26/23 Q1013,SBCJ,2019-01-05T21:00:00Z,-6.12,-50.0,26.0,23.0,0,0,,6.21,29.911417,,,,,,,,,,,CAVOK,,,,,,,,VFR,,,,,,,,,,,,METAR,621.0
ORBI 052100Z 13012KT 9999 BKN035 14/07 Q1014 NOSIG,ORBI,2019-01-05T21:00:00Z,33.27,44.23,14.0,7.0,130,12,,6.21,29.940945,,,,,,TRUE,,,,,BKN,3500,,,,,,,VFR,,,,,,,,,,,,METAR,35.0
YCCY 052100Z AUTO 21005KT 9999 // NCD 30/15 Q1008,YCCY,2019-01-05T21:00:00Z,-20.67,140.5,30.0,15.0,210,5,,6.21,29.763779,,,TRUE,,,,,,,,CLR,,,,,,,,VFR,,,,,,,,,,,,METAR,570.0
YCBP 052100Z AUTO 18011KT 9999 // NCD 18/09 Q1019,YCBP,2019-01-05T21:00:00Z,-29.03,134.72,18.0,9.0,180,11,,6.21,30.088583,,,TRUE,,,,,,,,CLR,,,,,,,,VFR,,,,,,,,,,,,METAR,226.0
YCBB 052100Z AUTO 21004KT 9999 // NCD 23/17 Q1015,YCBB,2019-01-05T21:00:00Z,-31.33,149.27,23.0,17.0,210,4,,6.21,29.970472,,,TRUE,,,,,,,,CLR,,,,,,,,VFR,,,,,,,,,,,,METAR,645.0
YCBA 052100Z AUTO 15015KT 9999 // NCD 21/03 Q1015,YCBA,2019-01-05T21:00:00Z,-31.53,145.8,21.0,3.0,150,15,,6.21,29.970472,,,TRUE,,,,,,,,CLR,,,,,,,,VFR,,,,,,,,,,,,METAR,221.0
YCAS 052100Z AUTO 02003KT //// // ////// 24/18 Q1015,YCAS,2019-01-05T21:00:00Z,-28.88,153.07,24.0,18.0,20,3,,,29.970472,,,TRUE,,,,,,,,,,,,,,,,,,,,,,,,,,,,METAR,26.0
YCAR 052100Z AUTO 13005KT 9999 // NCD 24/18 Q1010,YCAR,2019-01-05T21:00:00Z,-24.88,113.67,24.0,18.0,130,5,,6.21,29.822834,,,TRUE,,,,,,,,CLR,,,,,,,,VFR,,,,,,,,,,,,METAR,8.0
YBWX 052100Z AUTO 28010KT //// // ////// 25/23 Q1011,YBWX,2019-01-05T21:00:00Z,-20.88,115.4,25.0,23.0,280,10,,,29.852362,,,TRUE,,,,,,,,,,,,,,,,,,,,,,,,,,,,METAR,6.0
YBWP 052100Z AUTO 05004KT 9999 // NCD 24/23 Q1008,YBWP,2019-01-05T21:00:00Z,-12.68,141.92,24.0,23.0,50,4,,6.21,29.763779,,,TRUE,,,,,,,,CLR,,,,,,,,VFR,,,,,,,,,,,,METAR,12.0
YBUD 052100Z AUTO 15007KT 9999 // OVC064 24/21 Q1013,YBUD,2019-01-05T21:00:00Z,-24.9,152.32,24.0,21.0,150,7,,6.21,29.911417,,,TRUE,,,,,,,,OVC,6400,,,,,,,VFR,,,,,,,,,,,,METAR,82.0
YWHA 052100Z AUTO 13011KT //// // NCD 18/10 Q1020,YWHA,2019-01-05T21:00:00Z,-33.07,137.52,18.0,10.0,130,11,,,30.11811,,,TRUE,,,,,,,,CLR,,,,,,,,,,,,,,,,,,,,SPECI,13.0
YWGT 052100Z AUTO 13005KT 100V160 //// // NCD 16/07 Q1017,YWGT,2019-01-05T21:00:00Z,-36.42,146.3,16.0,7.0,130,5,,,30.029528,,,TRUE,,,,,,,,CLR,,,,,,,,,,,,,,,,,,,,SPECI,153.0
YTRE 052100Z AUTO 14008KT 9999 // NCD 22/19 Q1013,YTRE,2019-01-05T21:00:00Z,-31.88,152.52,22.0,19.0,140,8,,6.21,29.911417,,,TRUE,,,,,,,,CLR,,,,,,,,VFR,,,,,,,,,,,,SPECI,12.0
YTNK 052100Z AUTO 12014KT 9999 // NCD 32/10 Q1010,YTNK,2019-01-05T21:00:00Z,-19.63,134.18,32.0,10.0,120,14,,6.21,29.822834,,,TRUE,,,,,,,,CLR,,,,,,,,VFR,,,,,,,,,,,,SPECI,377.0
YTEF 052100Z AUTO 14011KT 9999 // NCD 30/06 Q1011,YTEF,2019-01-05T21:00:00Z,-21.72,122.23,30.0,6.0,140,11,,6.21,29.852362,,,TRUE,,,,,,,,CLR,,,,,,,,VFR,,,,,,,,,,,,SPECI,296.0
YSWG 052100Z AUTO 13007KT 9999 // NCD 18/11 Q1016,YSWG,2019-01-05T21:00:00Z,-35.13,147.47,18.0,11.0,130,7,,6.21,30.0,,,TRUE,,,,,,,,CLR,,,,,,,,VFR,,,,,,,,,,,,SPECI,213.0
SBTE 052100Z 14009KT 9999 FEW040TCU SCT080 32/21 Q1009,SBTE,2019-01-05T21:00:00Z,-5.03,-42.82,32.0,21.0,140,9,,6.21,29.793306,,,,,,,,,,,FEW,4000,SCT,8000,,,,,VFR,,,,,,,,,,,,METAR,69.0
NFFN 052100Z 12005KT 070V170 9999 SCT007 BKN024TCU BKN100 29/24 Q1003 NOSIG,NFFN,2019-01-05T21:00:00Z,-17.75,177.45,29.0,24.0,120,5,,6.21,29.616142,,,,,,TRUE,,,,,SCT,700,BKN,2400,BKN,10000,,,MVFR,,,,,,,,,,,,METAR,18.0
TAPA 052100Z 10009KT 9999 -SHRA BKN018 BKN036 25/21 Q1017 NOSIG,TAPA,2019-01-05T21:00:00Z,17.12,-61.78,25.0,21.0,100,9,,6.21,30.029528,,,,,,TRUE,,,,-SHRA,BKN,1800,BKN,3600,,,,,MVFR,,,,,,,,,,,,METAR,14.0
SBKP 052100Z 00000KT 9999 -RA FEW008 BKN020 BKN080 23/21 Q1015,SBKP,2019-01-05T21:00:00Z,-23.0,-47.12,23.0,21.0,0,0,,6.21,29.970472,,,,,,,,,,-RA,FEW,800,BKN,2000,BKN,8000,,,MVFR,,,,,,,,,,,,METAR,661.0
SELT 052100Z 18018KT 9999 BKN030 19/07 Q1027,SELT,2019-01-05T21:00:00Z,-0.92,-78.62,19.0,7.0,180,18,,6.21,30.324802,,,,,,,,,,,BKN,3000,,,,,,,MVFR,,,,,,,,,,,,METAR,2785.0
SEJD 052100Z 15003KT 9999 SCT016 BKN100 27/25 Q1011 RMK A2987,SEJD,2019-01-05T21:00:00Z,-1.07,-77.58,27.0,25.0,150,3,,6.21,29.852362,,,,,,,,,,,SCT,1600,BKN,10000,,,,,VFR,,,,,,,,,,,,METAR,375.0
SEGS 052100Z 13010KT 9999 FEW020 31/19 Q1009 A2979,SEGS,2019-01-05T21:00:00Z,-0.45,-90.27,31.0,19.0,130,10,,6.21,29.793306,,,,,,,,,,,FEW,2000,,,,,,,VFR,,,,,,,,,,,,METAR,16.0
SEMC 052100Z 35006KT 9999 VCSH SCT026 SCT100 22/21 Q1016 RMK A3001 RESHRA,SEMC,2019-01-05T21:00:00Z,-2.3,-78.12,22.0,21.0,350,6,,6.21,30.0,,,,,,,,,,VCSH,SCT,2600,SCT,10000,,,,,VFR,,,,,,,,,,,,METAR,1052.0
MDAB 052100Z 08010KT 9999 SCT020 27/23 Q1016,MDAB,2019-01-05T21:00:00Z,19.2,-69.43,27.0,23.0,80,10,,6.21,30.0,,,,,,,,,,,SCT,2000,,,,,,,VFR,,,,,,,,,,,,METAR,35.0
MDCY 052100Z 18005KT 8000 VCSH SCT020 SCT080 27/23 Q1016,MDCY,2019-01-05T21:00:00Z,19.27,-69.73,27.0,23.0,180,5,,4.97,30.0,,,,,,,,,,VCSH,SCT,2000,SCT,8000,,,,,MVFR,,,,,,,,,,,,METAR,10.0
MDLR 052100Z 11009KT 9999 SCT020 27/22 Q1016,MDLR,2019-01-05T21:00:00Z,18.45,-68.92,27.0,22.0,110,9,,6.21,30.0,,,,,,,,,,,SCT,2000,,,,,,,VFR,,,,,,,,,,,,METAR,8.0
MDSD 052100Z 14006KT 9999 BKN018 SCT070 28/22 Q1015,MDSD,2019-01-05T21:00:00Z,18.42,-69.67,28.0,22.0,140,6,,6.21,29.970472,,,,,,,,,,,BKN,1800,SCT,7000,,,,,MVFR,,,,,,,,,,,,METAR,18.0
MDJB 052100Z 04008KT 8000 VCSH BKN018 BKN070 26/23 Q1016,MDJB,2019-01-05T21:00:00Z,18.57,-69.98,26.0,23.0,40,8,,4.97,30.0,,,,,,,,,,VCSH,BKN,1800,BKN,7000,,,,,MVFR,,,,,,,,,,,,METAR,30.0
MDBH 052100Z 13014KT 9999 FEW018CB FEW024 SCT070 27/22 Q1016 CB/E/SE,MDBH,2019-01-05T21:00:00Z,18.25,-71.12,27.0,22.0,130,14,,6.21,30.0,,,,,,,,,,,FEW,1800,FEW,2400,SCT,7000,,,VFR,,,,,,,,,,,,METAR,3.0
MDPC 052100Z 11007KT 9999 SCT018 28/22 Q1016,MDPC,2019-01-05T21:00:00Z,18.57,-68.37,28.0,22.0,110,7,,6.21,30.0,,,,,,,,,,,SCT,1800,,,,,,,VFR,,,,,,,,,,,,METAR,12.0
MDST 052100Z 13016KT 9999 SCT025 29/21 Q1015,MDST,2019-01-05T21:00:00Z,19.4,-70.6,29.0,21.0,130,16,,6.21,29.970472,,,,,,,,,,,SCT,2500,,,,,,,VFR,,,,,,,,,,,,METAR,184.0
MDPP 052100Z 09012KT 9999 FEW025 28/23 Q1014 NOSIG,MDPP,2019-01-05T21:00:00Z,19.75,-70.57,28.0,23.0,90,12,,6.21,29.940945,,,,,,TRUE,,,,,FEW,2500,,,,,,,VFR,,,,,,,,,,,,METAR,5.0
SBNF 052100Z 14007KT 9999 BKN025 25/20 Q1013,SBNF,2019-01-05T21:00:00Z,-26.88,-48.65,25.0,20.0,140,7,,6.21,29.911417,,,,,,,,,,,BKN,2500,,,,,,,MVFR,,,,,,,,,,,,METAR,5.0
SKMZ 052100Z 21001KT 9999 BKN100 21/16 A3024,SKMZ,2019-01-05T21:00:00Z,5.03,-75.47,21.0,16.0,210,1,,6.21,30.239174,,,,,,,,,,,BKN,10000,,,,,,,VFR,,,,,,,,,,,,METAR,2080.0
SKUI 052100Z 02006KT 9999 SCT030 30/25 A2974,SKUI,2019-01-05T21:00:00Z,5.72,-76.62,30.0,25.0,20,6,,6.21,29.740158,,,,,,,,,,,SCT,3000,,,,,,,VFR,,,,,,,,,,,,METAR,33.0
SKPC 052100Z 07005KT 9999 FEW020 SCT080 34/20 A2979,SKPC,2019-01-05T21:00:00Z,6.17,-67.5,34.0,20.0,70,5,,6.21,29.790354,,,,,,,,,,,FEW,2000,SCT,8000,,,,,VFR,,,,,,,,,,,,METAR,55.0
SKMD 052100Z 02012KT 9999 SCT050 BKN200 28/17 A3001,SKMD,2019-01-05T21:00:00Z,6.22,-75.58,28.0,17.0,20,12,,6.21,30.008858,,,,,,,,,,,SCT,5000,BKN,20000,,,,,VFR,,,,,,,,,,,,METAR,1499.0
SKUC 052100Z 05007KT 9999 SCT023 31/19 A2985,SKUC,2019-01-05T21:00:00Z,7.07,-70.72,31.0,19.0,50,7,,6.21,29.84941,,,,,,,,,,,SCT,2300,,,,,,,VFR,,,,,,,,,,,,METAR,128.0
SKEJ 052100Z 28004KT 9999 FEW020 SCT200 35/23 A2970,SKEJ,2019-01-05T21:00:00Z,7.02,-73.78,35.0,23.0,280,4,,6.21,29.698818,,,,,,,,,,,FEW,2000,SCT,20000,,,,,VFR,,,,,,,,,,,,METAR,134.0
SKLC 052100Z 33014KT 9999 SCT020 30/24 A2980,SKLC,2019-01-05T21:00:00Z,7.82,-76.7,30.0,24.0,330,14,,6.21,29.799213,,,,,,,,,,,SCT,2000,,,,,,,VFR,,,,,,,,,,,,METAR,30.0
SKMR 052100Z 32010KT 9999 BKN022 31/24 A2976,SKMR,2019-01-05T21:00:00Z,8.82,-75.83,31.0,24.0,320,10,,6.21,29.760826,,,,,,,,,,,BKN,2200,,,,,,,MVFR,,,,,,,,,,,,METAR,26.0
SKVP 052100Z 07011KT 9999 FEW020 36/18 A2980,SKVP,2019-01-05T21:00:00Z,10.42,-73.25,36.0,18.0,70,11,,6.21,29.799213,,,,,,,,,,,FEW,2000,,,,,,,VFR,,,,,,,,,,,,METAR,138.0
SKRH 052100Z 04006KT 9999 FEW030 28/22 A2980,SKRH,2019-01-05T21:00:00Z,11.52,-72.92,28.0,22.0,40,6,,6.21,29.799213,,,,,,,,,,,FEW,3000,,,,,,,VFR,,,,,,,,,,,,METAR,4.0
SKSM 052100Z 04014KT 9000 FEW020 33/21 A2978 RMK HZ,SKSM,2019-01-05T21:00:00Z,11.12,-74.22,33.0,21.0,40,14,,5.59,29.778543,,,,,,,,,,,FEW,2000,,,,,,,VFR,,,,,,,,,,,,SPECI,4.0
SKPV 052100Z 07008KT 040V110 9999 FEW017 BKN080 28/24 A2993,SKPV,2019-01-05T21:00:00Z,13.37,-81.33,28.0,24.0,70,8,,6.21,29.929134,,,,,,,,,,,FEW,1700,BKN,8000,,,,,VFR,,,,,,,,,,,,METAR,6.0
MGMT 052100Z 18004KT CAVOK 33/22 QFE1009.1,MGMT,2019-01-05T21:00:00Z,,,33.0,22.0,180,4,,6.21,,,,,,,,,,,,CAVOK,,,,,,,,VFR,,,,,,,,,,,,METAR,
MGES 052100Z 03010KT 9999 SCT020 25/13 QFE910.6,MGES,2019-01-05T21:00:00Z,14.57,-89.32,25.0,13.0,30,10,,6.21,,,,,,,,,,,,SCT,2000,,,,,,,VFR,,,,,,,,,,,,METAR,965.0
MGZA 052100Z 08010KT 9999 FEW030 33/16 QFE987/9,MGZA,2019-01-05T21:00:00Z,14.97,-89.52,33.0,16.0,80,10,,6.21,,,,,,,,,,,,FEW,3000,,,,,,,VFR,,,,,,,,,,,,METAR,490.0
MGCB 052100Z 09004KT 9999 SCT018 SCT060 21/16 QFE873.0,MGCB,2019-01-05T21:00:00Z,15.48,-90.42,21.0,16.0,90,4,,6.21,,,,,,,,,,,,SCT,1800,SCT,6000,,,,,VFR,,,,,,,,,,,,METAR,1316.0
MGQZ 052100Z 13006KT 9999 SCT030 24/06 QFE772/8,MGQZ,2019-01-05T21:00:00Z,14.87,-91.5,24.0,6.0,130,6,,6.21,,,,,,,,,,,,SCT,3000,,,,,,,VFR,,,,,,,,,,,,METAR,2371.0
MGRT 052100Z 22008KT 9999 SCT020 33/23 Q1013 A2991 VOL. STA. MARIA Y SANTIAGUITO EN ACTIVIDAD,MGRT,2019-01-05T21:00:00Z,14.53,-91.7,33.0,23.0,220,8,,6.21,29.911417,,,,,,,,,,SA,SCT,2000,,,,,,,VFR,,,,,,,,,,,,METAR,200.0
MGSJ 052100Z 24010KT 7000 SKC 32/22 Q1011 A2985 FU,MGSJ,2019-01-05T21:00:00Z,13.92,-90.83,32.0,22.0,240,10,,4.35,29.852362,,,,,,,,,,FU,SKC,,,,,,,,MVFR,,,,,,,,,,,,METAR,9.0
MGPB 052100Z 33004KT 9999 FEW018 29/24 Q1016 A3000,MGPB,2019-01-05T21:00:00Z,15.72,-88.58,29.0,24.0,330,4,,6.21,30.0,,,,,,,,,,,FEW,1800,,,,,,,VFR,,,,,,,,,,,,METAR,10.0
MGHT 052100Z 12008KT 9999 FEW035 27/09,MGHT,2019-01-05T21:00:00Z,15.32,-91.5,27.0,9.0,120,8,,6.21,,,,,,,,,,,,FEW,3500,,,,,,,VFR,,,,,,,,,,,,METAR,1901.0
MGMM 052100Z 31004KT 9999 SCT040 31/22 Q1017 A3003,MGMM,2019-01-05T21:00:00Z,16.97,-89.87,31.0,22.0,310,4,,6.21,30.029528,,,,,,,,,,,SCT,4000,,,,,,,VFR,,,,,,,,,,,,METAR,123.0
MPMG 052100Z 34015KT 300V010 9999 FEW020 30/21 Q1010 NOSIG,MPMG,2019-01-05T21:00:00Z,8.98,-79.57,30.0,21.0,340,15,,6.21,29.822834,,,,,,TRUE,,,,,FEW,2000,,,,,,,VFR,,,,,,,,,,,,METAR,13.0
MZBZ 052100Z 07006KT 9999 FEW021 BKN048 28/23 A3001 Q1016 NOSIG RMK DIST SHWRS-SW,MZBZ,2019-01-05T21:00:00Z,17.52,-88.3,28.0,23.0,70,6,,6.21,30.0,,,,,,TRUE,,,,,FEW,2100,BKN,4800,,,,,VFR,,,,,,,,,,,,METAR,5.0
SKAR 052100Z 00000KT 9999 SCT027 30/17 A2992,SKAR,2019-01-05T21:00:00Z,4.45,-75.77,30.0,17.0,0,0,,6.21,29.920275,,,,,,,,,,,SCT,2700,,,,,,,VFR,,,,,,,,,,,,METAR,1219.0
DTTB 052100Z 28015KT 9999 SCT016 BKN030 13/08 Q1023,DTTB,2019-01-05T21:00:00Z,37.25,9.8,13.0,8.0,280,15,,6.21,30.206694,,,,,,,,,,,SCT,1600,BKN,3000,,,,,MVFR,,,,,,,,,,,,METAR,3.0
DTTD 052100Z AUTO VRB02KT NCD 06/M06 Q1028,DTTD,2019-01-05T21:00:00Z,32.32,10.4,6.0,-6.0,0,2,,,30.35433,,,TRUE,,,,,,,,CLR,,,,,,,,,,,,,,,,,,,,METAR,301.0
DTTK 052100Z 26003KT 190V320 9999 FEW023 11/04 Q1025,DTTK,2019-01-05T21:00:00Z,35.67,10.08,11.0,4.0,260,3,,6.21,30.265747,,,,,,,,,,,FEW,2300,,,,,,,VFR,,,,,,,,,,,,METAR,68.0
DTTN 052100Z 21007KT 8000 SCT020 SCT030 09/07 Q1026,DTTN,2019-01-05T21:00:00Z,36.47,8.8,9.0,7.0,210,7,,4.97,30.295275,,,,,,,,,,,SCT,2000,SCT,3000,,,,,MVFR,,,,,,,,,,,,METAR,144.0
DTTL 052100Z AUTO 00000KT NCD 09/07 Q1023,DTTL,2019-01-05T21:00:00Z,36.85,11.07,9.0,7.0,0,0,,,30.206694,,,TRUE,,,,,,,,CLR,,,,,,,,,,,,,,,,,,,,METAR,30.0
FALW 052100Z AUTO 19012KT //// // ////// 17/13 Q1015,FALW,2019-01-05T21:00:00Z,-32.97,18.17,17.0,13.0,190,12,,,29.970472,,,TRUE,,,,,,,,,,,,,,,,,,,,,,,,,,,,METAR,0.0
CWEK 052100Z AUTO 03021KT 03/01 RMK AO1 PK WND 03026/2004 SLP977 T00310007 58019,CWEK,2019-01-05T21:00:00Z,54.58,-130.7,3.1,0.7,30,21,,,,997.7,,TRUE,TRUE,,,,,,,,,,,,,,,,-1.9,,,,,,,,,,,METAR,8.0
CXTN 052100Z AUTO 30008KT M22/M24 RMK AO1 SOG 66 1008 SLP140 T12191243,CXTN,2019-01-05T21:00:00Z,69.2,-122.35,-21.9,-24.3,300,8,,,,1014.0,,TRUE,TRUE,,,,,,,,,,,,,,,,,,,,,,,,,,,METAR,552.0
CXLL 052100Z AUTO M13/M15 RMK AO1 SOG 36 6013 SLP100 T11271148 50008,CXLL,2019-01-05T21:00:00Z,61.12,-122.85,-12.7,-14.8,,,,,,1010.0,,TRUE,TRUE,,,,,,,,,,,,,,,,0.8,,,,,,,,,,,METAR,183.0
CWND 052100Z AUTO 22002KT M18/M20 RMK AO1 SLP140 T11831203 52008,CWND,2019-01-05T21:00:00Z,69.63,-135.43,-18.3,-20.3,220,2,,,,1014.0,,TRUE,TRUE,,,,,,,,,,,,,,,,0.8,,,,,,,,,,,METAR,12.0
CWDZ 052100Z AUTO 14008KT M04/M05 RMK AO1 T10401047,CWDZ,2019-01-05T21:00:00Z,51.42,-112.67,-4.0,-4.7,140,8,,,,,,TRUE,TRUE,,,,,,,,,,,,,,,,,,,,,,,,,,,METAR,678.0
CXRB 052100Z AUTO 04001KT M30/M33 RMK AO1 SOG 02 3015 SLP055 T12991328 50002,CXRB,2019-01-05T21:00:00Z,74.72,-94.98,-29.9,-32.8,40,1,,,,1005.5,,TRUE,TRUE,,,,,,,,,,,,,,,,0.2,,,,,,,,,,,METAR,68.0
CWXC 052100Z AUTO 09001KT M03/M03 RMK AO1 5005 SLP024 T10291029 50003,CWXC,2019-01-05T21:00:00Z,48.88,-71.03,-2.9,-2.9,90,1,,,,1002.4,,TRUE,TRUE,,,,,,,,,,,,,,,,0.3,,,,,,,,,,,METAR,300.0
CWVU 052100Z AUTO 08008KT 04/ RMK AO1 SLP030 T0042 58017,CWVU,2019-01-05T21:00:00Z,44.28,-66.33,4.2,,80,8,,,,1003.0,,TRUE,TRUE,,,,,,,,,,,,,,,,-1.7,,,,,,,,,,,METAR,16.0
CXAF 052100Z AUTO 12007KT M08/M08 RMK AO1 T10801081,CXAF,2019-01-05T21:00:00Z,54.28,-112.97,-8.0,-8.1,120,7,,,,,,TRUE,TRUE,,,,,,,,,,,,,,,,,,,,,,,,,,,METAR,664.0
CWHP 052100Z AUTO 09004KT M01/M02 RMK AO1 SOG 02 8003 SLP081 T10121017,CWHP,2019-01-05T21:00:00Z,49.07,-61.7,-1.2,-1.7,90,4,,,,1008.1,,TRUE,TRUE,,,,,,,,,,,,,,,,,,,,,,,,,,,METAR,4.0
BIRK 052100Z 22012KT 9999 FEW018 01/M01 Q1020 RESHSN,BIRK,2019-01-05T21:00:00Z,64.13,-21.93,1.0,-1.0,220,12,,6.21,30.11811,,,,,,,,,,,FEW,1800,,,,,,,VFR,,,,,,,,,,,,METAR,61.0
CWWL 052100Z AUTO 36011KT 05/02 RMK AO1 SLP970 T00450022 58019,CWWL,2019-01-05T21:00:00Z,53.5,-130.63,4.5,2.2,360,11,,,,997.0,,TRUE,TRUE,,,,,,,,,,,,,,,,-1.9,,,,,,,,,,,METAR,17.0
CXYH 052100Z AUTO 04002KT M10/M12 RMK AO1 SLP077 T11011119 56017,CXYH,2019-01-05T21:00:00Z,61.25,-123.75,-10.1,-11.9,40,2,,,,1007.7,,TRUE,TRUE,,,,,,,,,,,,,,,,-1.7,,,,,,,,,,,METAR,204.0
CXDP 052100Z AUTO 09010KT M07/M08 RMK AO1 T10691075,CXDP,2019-01-05T21:00:00Z,54.32,-113.95,-6.9,-7.5,90,10,,,,,,TRUE,TRUE,,,,,,,,,,,,,,,,,,,,,,,,,,,METAR,614.0
CWME 052100Z AUTO 04014KT 04/03 RMK AO1 PK WND 04018/2038 T00420030 50010,CWME,2019-01-05T21:00:00Z,52.18,-127.47,4.2,3.0,40,14,,,,,,TRUE,TRUE,,,,,,,,,,,,,,,,1.0,,,,,,,,,,,METAR,32.0
CWQS 052100Z AUTO 02008KT 03/M03 RMK AO1 SLP981 T00251033 58016,CWQS,2019-01-05T21:00:00Z,53.32,-132.77,2.5,-3.3,20,8,,,,998.1,,TRUE,TRUE,,,,,,,,,,,,,,,,-1.6,,,,,,,,,,,METAR,14.0
CXTV 052100Z AUTO 26003KT M19/M21 RMK AO1 SOG 37 1006 SLP168 T11881210,CXTV,2019-01-05T21:00:00Z,68.75,-133.5,-18.8,-21.0,260,3,,,,1016.8,,TRUE,TRUE,,,,,,,,,,,,,,,,,,,,,,,,,,,METAR,85.0
CWRU 052100Z AUTO 35016G21KT 04/03 RMK AO1 6PAST HR 8042 PK WND 35021/2053 SLP930 P0006 T00430033 50042,CWRU,2019-01-05T21:00:00Z,50.12,-127.93,4.3,3.3,350,16,21,,,993.0,,TRUE,TRUE,,,,,,,,,,,,,,,,4.2,,,,,0.06,,,,,,METAR,98.0
SBSV 052100Z 09008KT 9999 FEW020 28/23 Q1014,SBSV,2019-01-05T21:00:00Z,-12.9,-38.32,28.0,23.0,90,8,,6.21,29.940945,,,,,,,,,,,FEW,2000,,,,,,,VFR,,,,,,,,,,,,METAR,6.0
SKIP 052100Z 11007KT 9999 SCT018 15/09 A3041,SKIP,2019-01-05T21:00:00Z,0.88,-77.67,15.0,9.0,110,7,,6.21,30.410433,,,,,,,,,,,SCT,1800,,,,,,,VFR,,,,,,,,,,,,METAR,2961.0
SKPS 052100Z 11012KT 9999 SCT028 26/09 A3007,SKPS,2019-01-05T21:00:00Z,1.4,-77.28,26.0,9.0,110,12,,6.21,30.070866,,,,,,,,,,,SCT,2800,,,,,,,VFR,,,,,,,,,,,,METAR,1826.0
SKNV 052100Z VRB05KT 9999 NSC 37/15 A2974,SKNV,2019-01-05T21:00:00Z,2.97,-75.28,37.0,15.0,0,5,,6.21,29.740158,,,,,,,,,,,CLR,,,,,,,,VFR,,,,,,,,,,,,METAR,443.0
SKVV 052100Z 31004KT 9999 FEW023 28/20 A2988,SKVV,2019-01-05T21:00:00Z,4.17,-73.62,28.0,20.0,310,4,,6.21,29.878937,,,,,,,,,,,FEW,2300,,,,,,,VFR,,,,,,,,,,,,METAR,431.0
SKIB 052100Z 15004KT 9999 FEW030 SCT100 32/17 A2996,SKIB,2019-01-05T21:00:00Z,4.42,-75.15,32.0,17.0,150,4,,6.21,29.958662,,,,,,,,,,,FEW,3000,SCT,10000,,,,,VFR,,,,,,,,,,,,METAR,928.0
LPBJ 052100Z 07004KT CAVOK 07/03 Q1032,LPBJ,2019-01-05T21:00:00Z,38.08,-7.93,7.0,3.0,70,4,,6.21,30.47244,,,,,,,,,,,CAVOK,,,,,,,,VFR,,,,,,,,,,,,METAR,194.0
LPLA 052100Z /////KT 9999 FEW006 SCT012 BKN020 17/16 Q1019,LPLA,2019-01-05T21:00:00Z,38.77,-27.1,17.0,16.0,,,,6.21,30.088583,,,,,,,,,,,FEW,600,SCT,1200,BKN,2000,,,MVFR,,,,,,,,,,,,METAR,55.0
GGOV 052100Z 28003KT 7000 NSC 26/14 Q1013 NOSIG,GGOV,2019-01-05T21:00:00Z,11.87,-15.65,26.0,14.0,280,3,,4.35,29.911417,,,,,,TRUE,,,,,CLR,,,,,,,,MVFR,,,,,,,,,,,,METAR,36.0
OEYN 052100Z 34002KT 9999 FEW040 23/18 Q1013 NOSIG,OEYN,2019-01-05T21:00:00Z,24.13,38.07,23.0,18.0,340,2,,6.21,29.911417,,,,,,TRUE,,,,,FEW,4000,,,,,,,VFR,,,,,,,,,,,,METAR,8.0
OEWJ 052100Z 05003KT CAVOK 18/12 Q1015 NOSIG,OEWJ,2019-01-05T21:00:00Z,26.18,36.47,18.0,12.0,50,3,,6.21,29.970472,,,,,,TRUE,,,,,CAVOK,,,,,,,,VFR,,,,,,,,,,,,METAR,16.0
OEWD 052100Z 11008KT CAVOK 15/08 Q1020 NOSIG,OEWD,2019-01-05T21:00:00Z,20.5,45.2,15.0,8.0,110,8,,6.21,30.11811,,,,,,TRUE,,,,,CAVOK,,,,,,,,VFR,,,,,,,,,,,,METAR,617.0
OETR 052100Z 27012KT CAVOK 07/03 Q1014,OETR,2019-01-05T21:00:00Z,31.7,38.73,7.0,3.0,270,12,,6.21,29.940945,,,,,,,,,,,CAVOK,,,,,,,,VFR,,,,,,,,,,,,METAR,855.0
OETF 052100Z 34005KT CAVOK 16/09 Q1023 NOSIG,OETF,2019-01-05T21:00:00Z,21.47,40.53,16.0,9.0,340,5,,6.21,30.206694,,,,,,TRUE,,,,,CAVOK,,,,,,,,VFR,,,,,,,,,,,,METAR,1449.0
OETB 052100Z 21010KT CAVOK 13/03 Q1015 NOSIG,OETB,2019-01-05T21:00:00Z,28.37,36.62,13.0,3.0,210,10,,6.21,29.970472,,,,,,TRUE,,,,,CAVOK,,,,,,,,VFR,,,,,,,,,,,,METAR,770.0
OESK 052100Z 30012KT CAVOK 16/03 Q1015,OESK,2019-01-05T21:00:00Z,29.77,40.1,16.0,3.0,300,12,,6.21,29.970472,,,,,,,,,,,CAVOK,,,,,,,,VFR,,,,,,,,,,,,METAR,684.0
OESH 052100Z 04005KT CAVOK 17/05 Q1021 NOSIG,OESH,2019-01-05T21:00:00Z,17.47,47.12,17.0,5.0,40,5,,6.21,30.147638,,,,,,TRUE,,,,,CAVOK,,,,,,,,VFR,,,,,,,,,,,,METAR,722.0
OERR 052100Z 32003KT CAVOK 13/12 Q1010 NOSIG,OERR,2019-01-05T21:00:00Z,30.88,41.12,13.0,12.0,320,3,,6.21,29.822834,,,,,,TRUE,,,,,CAVOK,,,,,,,,VFR,,,,,,,,,,,,METAR,552.0
OERF 052100Z 16016KT CAVOK 16/02 Q1012,OERF,2019-01-05T21:00:00Z,29.62,43.47,16.0,2.0,160,16,,6.21,29.88189,,,,,,,,,,,CAVOK,,,,,,,,VFR,,,,,,,,,,,,METAR,447.0
OEPA 052100Z 15012KT CAVOK 13/04 Q1016 NOSIG,OEPA,2019-01-05T21:00:00Z,28.32,46.12,13.0,4.0,150,12,,6.21,30.0,,,,,,TRUE,,,,,CAVOK,,,,,,,,VFR,,,,,,,,,,,,METAR,355.0
OENG 052100Z 00000KT CAVOK 15/06 Q1024 NOSIG,OENG,2019-01-05T21:00:00Z,17.62,44.42,15.0,6.0,0,0,,6.21,30.236221,,,,,,TRUE,,,,,CAVOK,,,,,,,,VFR,,,,,,,,,,,,METAR,1203.0
OEKM 052100Z 23004KT CAVOK 13/08 Q1027 NOSIG,OEKM,2019-01-05T21:00:00Z,18.3,42.78,13.0,8.0,230,4,,6.21,30.324802,,,,,,TRUE,,,,,CAVOK,,,,,,,,VFR,,,,,,,,,,,,METAR,2054.0
SAWG 052100Z 00000KT 9999 VCSH SCT030 SCT050 15/M01 Q0989,SAWG,2019-01-05T21:00:00Z,-51.62,-69.32,15.0,-1.0,0,0,,6.21,29.202755,,,,,,,,,,VCSH,SCT,3000,SCT,5000,,,,,VFR,,,,,,,,,,,,METAR,19.0
OEHL 052100Z 22010KT CAVOK 15/09 Q1016,OEHL,2019-01-05T21:00:00Z,27.42,41.67,15.0,9.0,220,10,,6.21,30.0,,,,,,,,,,,CAVOK,,,,,,,,VFR,,,,,,,,,,,,METAR,1013.0
OEGT 052100Z 33004KT 9999 SCT040 06/01 Q1015 NOSIG,OEGT,2019-01-05T21:00:00Z,31.42,37.27,6.0,1.0,330,4,,6.21,29.970472,,,,,,TRUE,,,,,SCT,4000,,,,,,,VFR,,,,,,,,,,,,METAR,499.0
OEGS 052100Z 17013KT 8000 NSC 18/11 Q1015,OEGS,2019-01-05T21:00:00Z,26.3,43.77,18.0,11.0,170,13,,4.97,29.970472,,,,,,,,,,,CLR,,,,,,,,MVFR,,,,,,,,,,,,METAR,650.0
OEGN 052100Z 07006KT CAVOK 26/21 Q1016 NOSIG,OEGN,2019-01-05T21:00:00Z,16.88,42.57,26.0,21.0,70,6,,6.21,30.0,,,,,,TRUE,,,,,CAVOK,,,,,,,,VFR,,,,,,,,,,,,METAR,3.0
OEDM 052100Z 12012KT 7000 NSC 15/04 Q1018,OEDM,2019-01-05T21:00:00Z,24.45,44.12,15.0,4.0,120,12,,4.35,30.059055,,,,,,,,,,,CLR,,,,,,,,MVFR,,,,,,,,,,,,METAR,922.0
OEBA 052100Z VRB02KT CAVOK 17/10 Q1023 NOSIG,OEBA,2019-01-05T21:00:00Z,20.3,41.62,17.0,10.0,0,2,,6.21,30.206694,,,,,,TRUE,,,,,CAVOK,,,,,,,,VFR,,,,,,,,,,,,METAR,1656.0
OEAR 052100Z 00000KT 7000 NSC 24/22 Q1016,OEAR,2019-01-05T21:00:00Z,,,24.0,22.0,0,0,,4.35,30.0,,,,,,,,,,,CLR,,,,,,,,MVFR,,,,,,,,,,,,METAR,
OEAO 052100Z 19010KT CAVOK 18/12 Q1017,OEAO,2019-01-05T21:00:00Z,26.48,38.12,18.0,12.0,190,10,,6.21,30.029528,,,,,,,,,,,CAVOK,,,,,,,,VFR,,,,,,,,,,,,METAR,624.0
OEAH 052100Z 00000KT CAVOK 12/02 Q1019 NOSIG,OEAH,2019-01-05T21:00:00Z,25.27,49.47,12.0,2.0,0,0,,6.21,30.088583,,,,,,TRUE,,,,,CAVOK,,,,,,,,VFR,,,,,,,,,,,,METAR,172.0
OEAB 052100Z 20007KT CAVOK 14/13 Q1027 NOSIG,OEAB,2019-01-05T21:00:00Z,18.22,42.63,14.0,13.0,200,7,,6.21,30.324802,,,,,,TRUE,,,,,CAVOK,,,,,,,,VFR,,,,,,,,,,,,METAR,2084.0
FEFF 052100Z VRB03KT 7000 NSC 26/21 Q1011 NOSIG,FEFF,2019-01-05T21:00:00Z,4.4,18.52,26.0,21.0,0,3,,4.35,29.852362,,,,,,TRUE,,,,,CLR,,,,,,,,MVFR,,,,,,,,,,,,METAR,366.0
FKKL 052100Z 01009KT CAVOK 23/01 Q1015,FKKL,2019-01-05T21:00:00Z,10.45,14.25,23.0,1.0,10,9,,6.21,29.970472,,,,,,,,,,,CAVOK,,,,,,,,VFR,,,,,,,,,,,,METAR,424.0
FKKR 052100Z 10004KT CAVOK 24/07 Q1013,FKKR,2019-01-05T21:00:00Z,9.32,13.37,24.0,7.0,100,4,,6.21,29.911417,,,,,,,,,,,CAVOK,,,,,,,,VFR,,,,,,,,,,,,METAR,244.0
FKYS 052100Z /////KT 4000 HZ FEW006 23/21 Q1016 NOSIG,FKYS,2019-01-05T21:00:00Z,3.82,11.52,23.0,21.0,,,,2.49,30.0,,,,,,TRUE,,,,HZ,FEW,600,,,,,,,IFR,,,,,,,,,,,,METAR,760.0
FKKD 052100Z 00000KT 6000 SCT016 26/26 Q1012 NOSIG,FKKD,2019-01-05T21:00:00Z,4.0,9.72,26.0,26.0,0,0,,3.73,29.88189,,,,,,TRUE,,,,,SCT,1600,,,,,,,MVFR,,,,,,,,,,,,METAR,9.0
FCPP 052100Z 20008KT 8000 -RA SCT010 BKN023 FEW028CB 26/25 Q1013 NOSIG,FCPP,2019-01-05T21:00:00Z,-4.82,11.9,26.0,25.0,200,8,,4.97,29.911417,,,,,,TRUE,,,,-RA,SCT,1000,BKN,2300,FEW,2800,,,MVFR,,,,,,,,,,,,METAR,17.0
FCBB 052100Z VRB02KT 9999 FEW023 FEW030CB 26/23 Q1014 NOSIG,FCBB,2019-01-05T21:00:00Z,-4.25,15.25,26.0,23.0,0,2,,6.21,29.940945,,,,,,TRUE,,,,,FEW,2300,FEW,3000,,,,,VFR,,,,,,,,,,,,METAR,316.0
UOOO 052100Z 16007MPS 6000 -SN DRSN SCT038 M23/M26 Q1003 R19/39//35 NOSIG RMK QFE736/0981,UOOO,2019-01-05T21:00:00Z,69.32,87.33,-23.0,-26.0,160,14,,3.73,29.616142,,,,,,TRUE,,,,-SN DRSN,SCT,3800,,,,,,,MVFR,,,,,,,,,,,,METAR,175.0
KTOA 052100Z 12011KT 10SM SCT012 BKN017 OVC019 14/09 A2997 RMK WIND SHIFT,KTOA,2019-01-05T21:00:00Z,33.78,-118.32,14.0,9.0,120,11,,10.0,29.970472,,,,,,,,,,,SCT,1200,BKN,1700,OVC,1900,,,MVFR,,,,,,,,,,,,SPECI,31.0
GANR 052100Z VRB02KT CAVOK 18/M00 Q1018,GANR,2019-01-05T21:00:00Z,15.23,-9.58,18.0,0.0,0,2,,6.21,30.059055,,,,,,,,,,,CAVOK,,,,,,,,VFR,,,,,,,,,,,,METAR,237.0
NIUE 052100Z AUTO 12012KT //// // ///////// 23/22 Q1009,NIUE,2019-01-05T21:00:00Z,-19.07,-169.92,23.0,22.0,120,12,,,29.793306,,,TRUE,,,,,,,,,,,,,,,,,,,,,,,,,,,,METAR,20.0
SVMI 052100Z 11004KT 9999 FEW016 29/22 Q1013,SVMI,2019-01-05T21:00:00Z,10.58,-67.0,29.0,22.0,110,4,,6.21,29.911417,,,,,,,,,,,FEW,1600,,,,,,,VFR,,,,,,,,,,,,METAR,48.0
URMN 052100Z 00000MPS 9999 BKN023 OVC/// M01/M02 Q1013 R24/////// NOSIG RMK QFE723,URMN,2019-01-05T21:00:00Z,43.52,43.63,-1.0,-2.0,0,0,,6.21,29.911417,,,,,,TRUE,,,,,BKN,2300,,,,,,,MVFR,,,,,,,,,,,,METAR,445.0
LBPL 052100Z 21008KT 9999 SKC M08/M10 Q1014,LBPL,2019-01-05T21:00:00Z,43.45,24.5,-8.0,-10.0,210,8,,6.21,29.940945,,,,,,,,,,,SKC,,,,,,,,VFR,,,,,,,,,,,,METAR,101.0
LBIA 052100Z 00000KT 9999 SCT100 M05/M06 Q1014,LBIA,2019-01-05T21:00:00Z,42.45,26.35,-5.0,-6.0,0,0,,6.21,29.940945,,,,,,,,,,,SCT,10000,,,,,,,VFR,,,,,,,,,,,,METAR,155.0
LBPG 052100Z 29006KT 9999 SKC M07/M09 Q1013,LBPG,2019-01-05T21:00:00Z,42.28,24.72,-7.0,-9.0,290,6,,6.21,29.911417,,,,,,,,,,,SKC,,,,,,,,VFR,,,,,,,,,,,,METAR,58.0
TLPC 052100Z 08011KT 9999 BKN021 26/22 Q1016 TEMPO SHRA,TLPC,2019-01-05T21:00:00Z,14.02,-61.0,26.0,22.0,80,11,,6.21,30.0,,,,,,,,,,,BKN,2100,,,,,,,MVFR,,,,,,,,,,,,METAR,2.0
OMSJ 052100Z 12001KT 5000 HZ NSC 16/14 Q1019,OMSJ,2019-01-05T21:00:00Z,25.32,55.52,16.0,14.0,120,1,,3.11,30.088583,,,,,,,,,,HZ,CLR,,,,,,,,MVFR,,,,,,,,,,,,METAR,33.0
OMRK 052100Z VRB02KT 4000 HZ NSC 15/13 Q1019 A3010,OMRK,2019-01-05T21:00:00Z,25.62,55.92,15.0,13.0,0,2,,2.49,30.088583,,,,,,,,,,HZ,CLR,,,,,,,,IFR,,,,,,,,,,,,METAR,31.0
ULOO 052100Z AUTO 32003MPS 7000 // ///021/// M06/M08 Q1018 RMK QFE759,ULOO,2019-01-05T21:00:00Z,57.78,28.4,-6.0,-8.0,320,6,,4.35,30.059055,,,TRUE,,,,,,,,,,,,,,,,,,,,,,,,,,,,METAR,47.0
LRCT 052100Z 15010KT 6000 -SN SCT025 OVC050 M05/M07 Q1011 BLU BLU,LRCT,2019-01-05T21:00:00Z,46.5,23.88,-5.0,-7.0,150,10,,3.73,29.852362,,,,,,,,,,-SN,SCT,2500,OVC,5000,,,,,MVFR,,,,,,,,,,,,METAR,331.0
SCVM 052100Z 30013KT 9999 FEW030 19/14 Q1013,SCVM,2019-01-05T21:00:00Z,-32.95,-71.48,19.0,14.0,300,13,,6.21,29.911417,,,,,,,,,,,FEW,3000,,,,,,,VFR,,,,,,,,,,,,METAR,141.0
GAMB 052100Z 02014KT CAVOK 22/M00 Q1016,GAMB,2019-01-05T21:00:00Z,14.52,-4.08,22.0,0.0,20,14,,6.21,30.0,,,,,,,,,,,CAVOK,,,,,,,,VFR,,,,,,,,,,,,METAR,272.0
GAKD 052100Z 06004KT CAVOK 23/03 Q1016,GAKD,2019-01-05T21:00:00Z,14.48,-11.4,23.0,3.0,60,4,,6.21,30.0,,,,,,,,,,,CAVOK,,,,,,,,VFR,,,,,,,,,,,,METAR,53.0
SBCF 052100Z 04006KT 9999 FEW035 SCT100 25/16 Q1017,SBCF,2019-01-05T21:00:00Z,-19.63,-43.97,25.0,16.0,40,6,,6.21,30.029528,,,,,,,,,,,FEW,3500,SCT,10000,,,,,VFR,,,,,,,,,,,,METAR,828.0
MBPV 052100Z 12003KT 9999 SCT012 28/23 Q1015,MBPV,2019-01-05T21:00:00Z,21.77,-72.27,28.0,23.0,120,3,,6.21,29.970472,,,,,,,,,,,SCT,1200,,,,,,,VFR,,,,,,,,,,,,METAR,5.0
FQNP 052100Z /////KT 9999 SCT010 BKN020 23/22 Q1013 RMK REDZ,FQNP,2019-01-05T21:00:00Z,-15.08,39.27,23.0,22.0,,,,6.21,29.911417,,,,,,,,,,,SCT,1000,BKN,2000,,,,,MVFR,,,,,,,,,,,,METAR,441.0
HKMO 052100Z 02006KT 9999 FEW022 26/24 Q1013 NOSIG,HKMO,2019-01-05T21:00:00Z,-4.02,39.62,26.0,24.0,20,6,,6.21,29.911417,,,,,,TRUE,,,,,FEW,2200,,,,,,,VFR,,,,,,,,,,,,METAR,55.0
FAJB 052100Z AUTO 29001KT //// // ////// 18/16 Q1019,FAJB,2019-01-05T21:00:00Z,-26.15,28.0,18.0,16.0,290,1,,,30.088583,,,TRUE,,,,,,,,,,,,,,,,,,,,,,,,,,,,SPECI,1626.0
SBFL 052100Z 18003KT 9999 BKN030 24/19 Q1014,SBFL,2019-01-05T21:00:00Z,-27.67,-48.53,24.0,19.0,180,3,,6.21,29.940945,,,,,,,,,,,BKN,3000,,,,,,,MVFR,,,,,,,,,,,,METAR,5.0
SPJC 052100Z 17013KT 9999 FEW010 25/19 Q1010 NOSIG RMK BIRD HAZARD RWY 15 PP000,SPJC,2019-01-05T21:00:00Z,-12.02,-77.12,25.0,19.0,170,13,,6.21,29.822834,,,,,,TRUE,,,,,FEW,1000,,,,,,,VFR,,,,,,,,,,,,SPECI,13.0
SBPP 052100Z 15004KT 9999 SCT019 FEW025TCU 26/22 Q1012,SBPP,2019-01-05T21:00:00Z,-22.55,-55.7,26.0,22.0,150,4,,6.21,29.88189,,,,,,,,,,,SCT,1900,FEW,2500,,,,,VFR,,,,,,,,,,,,METAR,660.0
RCSS 052100Z 29005KT 240V330 9999 -RA FEW012 BKN025 BKN035 18/17 Q1022 NOSIG RMK A3019,RCSS,2019-01-05T21:00:00Z,25.07,121.53,18.0,17.0,290,5,,6.21,30.177166,,,,,,TRUE,,,,-RA,FEW,1200,BKN,2500,BKN,3500,,,MVFR,,,,,,,,,,,,METAR,6.0
RCKH 052100Z 36003KT 320V040 2800 BR FEW013 SCT035 BKN055 22/20 Q1018 NOSIG RMK A3008,RCKH,2019-01-05T21:00:00Z,22.57,120.33,22.0,20.0,360,3,,1.74,30.059055,,,,,,TRUE,,,,BR,FEW,1300,SCT,3500,BKN,5500,,,IFR,,,,,,,,,,,,METAR,9.0
VERC 052100Z 00000KT 2000 HZ NSC 10/08 Q1019 NOSIG,VERC,2019-01-05T21:00:00Z,23.32,85.32,10.0,8.0,0,0,,1.24,30.088583,,,,,,TRUE,,,,HZ,CLR,,,,,,,,IFR,,,,,,,,,,,,METAR,652.0
FGBT 052100Z 14004KT 9999 SCT010 27/26 Q1012,FGBT,2019-01-05T21:00:00Z,1.88,9.8,27.0,26.0,140,4,,6.21,29.88189,,,,,,,,,,,SCT,1000,,,,,,,VFR,,,,,,,,,,,,METAR,8.0
FGSL 052100Z 21006KT 8000 FEW010 27/25 Q1013 NOSIG,FGSL,2019-01-05T21:00:00Z,3.75,8.72,27.0,25.0,210,6,,4.97,29.911417,,,,,,TRUE,,,,,FEW,1000,,,,,,,MVFR,,,,,,,,,,,,METAR,56.0
FOOG 052100Z 21007KT 9999 FEW010 27/25 Q1013,FOOG,2019-01-05T21:00:00Z,-0.7,8.75,27.0,25.0,210,7,,6.21,29.911417,,,,,,,,,,,FEW,1000,,,,,,,VFR,,,,,,,,,,,,METAR,4.0
OMDB 052100Z 06003KT 350V120 7000 NSC 21/18 Q1018 NOSIG,OMDB,2019-01-05T21:00:00Z,25.25,55.37,21.0,18.0,60,3,,4.35,30.059055,,,,,,TRUE,,,,,CLR,,,,,,,,MVFR,,,,,,,,,,,,METAR,5.0
MHLM 052100Z 02014KT 9999 FEW026 30/21 Q1015 A2997 NOSIG,MHLM,2019-01-05T21:00:00Z,15.45,-87.93,30.0,21.0,20,14,,6.21,29.970472,,,,,,TRUE,,,,,FEW,2600,,,,,,,VFR,,,,,,,,,,,,METAR,26.0
MHLC 052100Z 03006KT 9999 SCT022TCU 28/23 Q1015 A2997 NOSIG,MHLC,2019-01-05T21:00:00Z,15.75,-86.85,28.0,23.0,30,6,,6.21,29.970472,,,,,,TRUE,,,,,SCT,2200,,,,,,,VFR,,,,,,,,,,,,METAR,15.0
MHRO 052100Z 06002KT 9999 SCT020TCU 27/24 Q1016 A3000 RERA NOSIG,MHRO,2019-01-05T21:00:00Z,16.32,-86.53,27.0,24.0,60,2,,6.21,30.0,,,,,,TRUE,,,,,SCT,2000,,,,,,,VFR,,,,,,,,,,,,METAR,5.0
MHTG 052100Z 36018KT 9999 FEW030 27/14 Q1018 A3006 NOSIG,MHTG,2019-01-05T21:00:00Z,14.07,-87.22,27.0,14.0,360,18,,6.21,30.059055,,,,,,TRUE,,,,,FEW,3000,,,,,,,VFR,,,,,,,,,,,,METAR,1004.0
ZSNB 052100Z 33005MPS 9999 BKN020 07/05 Q1029 NOSIG,ZSNB,2019-01-05T21:00:00Z,29.83,121.47,7.0,5.0,330,10,,6.21,30.383858,,,,,,TRUE,,,,,BKN,2000,,,,,,,MVFR,,,,,,,,,,,,METAR,4.0
SBFI 052100Z 14007KT 9999 FEW030 28/24 Q1009,SBFI,2019-01-05T21:00:00Z,-25.6,-54.48,28.0,24.0,140,7,,6.21,29.793306,,,,,,,,,,,FEW,3000,,,,,,,VFR,,,,,,,,,,,,METAR,243.0
TNCA 052100Z 10019KT 9999 SCT023 27/22 Q1012 NOSIG,TNCA,2019-01-05T21:00:00Z,12.5,-70.0,27.0,22.0,100,19,,6.21,29.88189,,,,,,TRUE,,,,,SCT,2300,,,,,,,VFR,,,,,,,,,,,,METAR,18.0
LEMO 052100Z 04002KT CAVOK 04/00 Q1031 NOSIG,LEMO,2019-01-05T21:00:00Z,37.17,-5.62,4.0,0.0,40,2,,6.21,30.442913,,,,,,TRUE,,,,,CAVOK,,,,,,,,VFR,,,,,,,,,,,,METAR,88.0
UBBQ 052100Z 13004KT 9999 NSC M00/M02 Q1015 R34/CLRD// NOSIG RMK MT OP,UBBQ,2019-01-05T21:00:00Z,40.82,47.72,0.0,-2.0,130,4,,6.21,29.970472,,,,,,TRUE,,,,,CLR,,,,,,,,VFR,,,,,,,,,,,,METAR,338.0
SBGO 052100Z 13006KT 9999 FEW030 26/19 Q1016,SBGO,2019-01-05T21:00:00Z,-16.62,-49.22,26.0,19.0,130,6,,6.21,30.0,,,,,,,,,,,FEW,3000,,,,,,,VFR,,,,,,,,,,,,METAR,747.0
SKBG 052100Z 34006KT 9999 FEW017 SCT240 27/19 A2992 WS R35,SKBG,2019-01-05T21:00:00Z,7.13,-73.18,27.0,19.0,340,6,,6.21,29.920275,,,,,,,,,,,FEW,1700,SCT,24000,,,,,VFR,,,,,,,,,,,,SPECI,1189.0
SKSP 052100Z 06012KT 9999 FEW018 SCT090 29/23 A2992,SKSP,2019-01-05T21:00:00Z,12.57,-81.72,29.0,23.0,60,12,,6.21,29.920275,,,,,,,,,,,FEW,1800,SCT,9000,,,,,VFR,,,,,,,,,,,,METAR,-2.0
SKPE 052100Z 25008KT 9999 FEW016TCU SCT080 28/18 A2995 RMK TCU E/SE,SKPE,2019-01-05T21:00:00Z,4.82,-75.73,28.0,18.0,250,8,,6.21,29.949802,,,,,,,,,,,FEW,1600,SCT,8000,,,,,VFR,,,,,,,,,,,,SPECI,1346.0
SBGL 052100Z 12008KT 5000 -RA FEW015 BKN040 23/22 Q1013 RETSRA,SBGL,2019-01-05T21:00:00Z,-22.82,-43.25,23.0,22.0,120,8,,3.11,29.911417,,,,,,,,,,-RA,FEW,1500,BKN,4000,,,,,MVFR,,,,,,,,,,,,METAR,6.0
SKRG 052100Z 09005KT 9999 SCT017TCU BKN200 22/15 A3022 RMK TCU/S/NW,SKRG,2019-01-05T21:00:00Z,6.17,-75.42,22.0,15.0,90,5,,6.21,30.221457,,,,,,,,,,,SCT,1700,BKN,20000,,,,,VFR,,,,,,,,,,,,SPECI,2137.0
SKCC 052100Z VRB07KT 9999 SCT022 32/20 A2987,SKCC,2019-01-05T21:00:00Z,7.92,-72.52,32.0,20.0,0,7,,6.21,29.870079,,,,,,,,,,,SCT,2200,,,,,,,VFR,,,,,,,,,,,,METAR,317.0
SKCG 052100Z 36012KT CAVOK 30/24 A2977,SKCG,2019-01-05T21:00:00Z,10.43,-75.52,30.0,24.0,360,12,,6.21,29.769686,,,,,,,,,,,CAVOK,,,,,,,,VFR,,,,,,,,,,,,METAR,1.0
SKCL 052100Z 35013KT 9999 FEW025TCU SCT120 33/18 A2985 RMK TCU NE,SKCL,2019-01-05T21:00:00Z,3.53,-76.37,33.0,18.0,350,13,,6.21,29.84941,,,,,,,,,,,FEW,2500,SCT,12000,,,,,VFR,,,,,,,,,,,,SPECI,969.0
SKBO 052100Z 31010KT 9999 -TSRA SCT017CB SCT100 17/12 A3028 RMKCB/NE,SKBO,2019-01-05T21:00:00Z,4.7,-74.12,17.0,12.0,310,10,,6.21,30.280512,,,,,,,,,,-TSRA,SCT,1700,SCT,10000,,,,,VFR,,,,,,,,,,,,METAR,2548.0
SKBQ 052100Z 34012KT CAVOK 28/22 A2978,SKBQ,2019-01-05T21:00:00Z,10.9,-74.77,28.0,22.0,340,12,,6.21,29.778543,,,,,,,,,,,CAVOK,,,,,,,,VFR,,,,,,,,,,,,METAR,10.0
UBBY 052100Z 15006KT 9999 BKN100 04/01 Q1017 R33/////// RMK MT OP,UBBY,2019-01-05T21:00:00Z,41.57,46.67,4.0,1.0,150,6,,6.21,30.029528,,,,,,,,,,,BKN,10000,,,,,,,VFR,,,,,,,,,,,,METAR,390.0
MHCA 052100Z 12006KT 9999 BKN030TCU 30/20 Q1014 TCU SW W NW,MHCA,2019-01-05T21:00:00Z,14.9,-85.78,30.0,20.0,120,6,,6.21,29.940945,,,,,,,,,,,BKN,3000,,,,,,,MVFR,,,,,,,,,,,,METAR,442.0
SPGM 052100Z 36005KT 9999 SCT040 30/22 Q1012 RMK TX31.5 PP000,SPGM,2019-01-05T21:00:00Z,-9.28,-76.0,30.0,22.0,360,5,,6.21,29.88189,,,,,,,,,,,SCT,4000,,,,,,,VFR,,,,,,,,,,,,METAR,665.0
SPCL 052100Z 01007KT 9999 SCT020 31/23 Q1010 RMK BIRD HAZARD RWY 02/20 PP000,SPCL,2019-01-05T21:00:00Z,-8.38,-74.58,31.0,23.0,10,7,,6.21,29.822834,,,,,,,,,,,SCT,2000,,,,,,,VFR,,,,,,,,,,,,METAR,149.0
TKPN 052100Z 10014KT 9999 VCSH FEW019 26/19 Q1017,TKPN,2019-01-05T21:00:00Z,17.18,-62.57,26.0,19.0,100,14,,6.21,30.029528,,,,,,,,,,VCSH,FEW,1900,,,,,,,VFR,,,,,,,,,,,,METAR,17.0
CXKE 052100Z AUTO 25003KT 02/M00 RMK AO1 SOG 06 3004 SLP043 T00171002,CXKE,2019-01-05T21:00:00Z,45.0,-75.63,1.7,-0.2,250,3,,,,1004.3,,TRUE,TRUE,,,,,,,,,,,,,,,,,,,,,,,,,,,METAR,99.0
CXKA 052100Z AUTO 02005KT M03/M05 RMK AO1 SOG 25 2012 SLP069 T10301047,CXKA,2019-01-05T21:00:00Z,49.4,-82.45,-3.0,-4.7,20,5,,,,1006.9,,TRUE,TRUE,,,,,,,,,,,,,,,,,,,,,,,,,,,METAR,218.0
CXHM 052100Z AUTO 27007KT 01/M00 RMK AO1 SLP076 T00131003 51015,CXHM,2019-01-05T21:00:00Z,43.28,-79.9,1.3,-0.3,270,7,,,,1007.6,,TRUE,TRUE,,,,,,,,,,,,,,,,1.5,,,,,,,,,,,METAR,107.0
CWZS 052100Z AUTO 11002KT M03/M04 RMK AO1 SLP046 T10321040 57004,CWZS,2019-01-05T21:00:00Z,48.47,-67.43,-3.2,-4.0,110,2,,,,1004.6,,TRUE,TRUE,,,,,,,,,,,,,,,,-0.4,,,,,,,,,,,METAR,166.0
CWZA 052100Z AUTO 35005G15KT 08/03 RMK AO1 SLP972 T00780026 58048,CWZA,2019-01-05T21:00:00Z,49.25,-121.77,7.8,2.6,350,5,15,,,997.2,,TRUE,TRUE,,,,,,,,,,,,,,,,-4.8,,,,,,,,,,,METAR,15.0
CWIK 052100Z AUTO 02003KT M05/M06 RMK AO1 SOG 06 3006 SLP200 T10511060,CWIK,2019-01-05T21:00:00Z,50.37,-102.58,-5.1,-6.0,20,3,,,,1020.0,,TRUE,TRUE,,,,,,,,,,,,,,,,,,,,,,,,,,,SPECI,602.0
CWSR 052100Z AUTO 12010KT M11/M12 RMK AO1 SOG 10 8009 SLP185 T11091115,CWSR,2019-01-05T21:00:00Z,53.37,-107.53,-10.9,-11.5,120,10,,,,1018.5,,TRUE,TRUE,,,,,,,,,,,,,,,,,,,,,,,,,,,METAR,584.0
CWSK 052100Z AUTO 33003KT 05/04 RMK AO1 SOG 04 8045 SLP978 T00480038,CWSK,2019-01-05T21:00:00Z,49.78,-123.17,4.8,3.8,330,3,,,,997.8,,TRUE,TRUE,,,,,,,,,,,,,,,,,,,,,,,,,,,METAR,60.0
CWRY 052100Z AUTO 16012KT 03/M03 RMK AO1 SOG 05 8022 SLP092 T00331032,CWRY,2019-01-05T21:00:00Z,49.12,-112.03,3.3,-3.2,160,12,,,,1009.2,,TRUE,TRUE,,,,,,,,,,,,,,,,,,,,,,,,,,,METAR,1050.0
CWQV 052100Z AUTO 30001KT M04/M04 RMK AO1 T10371044,CWQV,2019-01-05T21:00:00Z,48.27,-70.12,-3.7,-4.4,300,1,,,,,,TRUE,TRUE,,,,,,,,,,,,,,,,,,,,,,,,,,,METAR,1.0
CZZJ 052100Z AUTO 11004KT M05/M06 RMK AO1 SOG 31 6023 SLP088 T10461056,CZZJ,2019-01-05T21:00:00Z,53.58,-116.47,-4.6,-5.6,110,4,,,,1008.8,,TRUE,TRUE,,,,,,,,,,,,,,,,,,,,,,,,,,,METAR,927.0
CZTB 052100Z AUTO 29008KT 02/M02 RMK AO1 SOG 26 3034 SLP110 T00171021,CZTB,2019-01-05T21:00:00Z,48.37,-89.32,1.7,-2.1,290,8,,,,1011.0,,TRUE,TRUE,,,,,,,,,,,,,,,,,,,,,,,,,,,METAR,199.0
CZRP 052100Z AUTO 27015KT M31/M35 RMK AO1 SOG 78 1004 PK WND 28017/2030 SLP064 T13141346,CZRP,2019-01-05T21:00:00Z,75.37,-105.72,-31.4,-34.6,270,15,,,,1006.4,,TRUE,TRUE,,,,,,,,,,,,,,,,,,,,,,,,,,,METAR,12.0
CZKD 052100Z AUTO 32006KT M19/M23 RMK AO1 SOG 31 1025 SLP210 T11881233,CZKD,2019-01-05T21:00:00Z,56.03,-96.52,-18.8,-23.3,320,6,,,,1021.0,,TRUE,TRUE,,,,,,,,,,,,,,,,,,,,,,,,,,,METAR,183.0
CXZV 052100Z AUTO 11002KT M02/M02 RMK AO1 SOG 59 6001 SLP054 T10161021,CXZV,2019-01-05T21:00:00Z,50.22,-66.25,-1.6,-2.1,110,2,,,,1005.4,,TRUE,TRUE,,,,,,,,,,,,,,,,,,,,,,,,,,,METAR,52.0
CXVN 052100Z AUTO 24008KT 03/M00 RMK AO1 SLP073 T00261003 53017,CXVN,2019-01-05T21:00:00Z,43.18,-79.4,2.6,-0.3,240,8,,,,1007.3,,TRUE,TRUE,,,,,,,,,,,,,,,,1.7,,,,,,,,,,,METAR,79.0
CXTO 052100Z AUTO 04/M01 RMK AO1 SLP067 T00361008 53008,CXTO,2019-01-05T21:00:00Z,43.67,-79.4,3.6,-0.8,,,,,,1006.7,,TRUE,TRUE,,,,,,,,,,,,,,,,0.8,,,,,,,,,,,METAR,113.0
CXTD 052100Z AUTO 13007KT 02/02 RMK AO1 SOG 03 6017 SLP058 T00240017,CXTD,2019-01-05T21:00:00Z,45.62,-61.68,2.4,1.7,130,7,,,,1005.8,,TRUE,TRUE,,,,,,,,,,,,,,,,,,,,,,,,,,,METAR,68.0
CXSE 052100Z AUTO 26007KT M38/M42 RMK AO1 SOG 42 3010 SLP088 T13831415,CXSE,2019-01-05T21:00:00Z,73.77,-105.28,-38.3,-41.5,260,7,,,,1008.8,,TRUE,TRUE,,,,,,,,,,,,,,,,,,,,,,,,,,,METAR,11.0
CXPC 052100Z AUTO 02/M01 RMK AO1 SOG 07 5007 SLP046 T00161014,CXPC,2019-01-05T21:00:00Z,45.35,-80.05,1.6,-1.4,,,,,,1004.6,,TRUE,TRUE,,,,,,,,,,,,,,,,,,,,,,,,,,,METAR,176.0
CXLB 052100Z AUTO 07005KT 02/02 RMK AO1 SLP022 T00220020 58022,CXLB,2019-01-05T21:00:00Z,44.37,-64.3,2.2,2.0,70,5,,,,1002.2,,TRUE,TRUE,,,,,,,,,,,,,,,,-2.2,,,,,,,,,,,METAR,4.0
CXKI 052100Z AUTO M01/M02 RMK AO1 2PAST HR SOG 33 3002 SLP055 P0001 T10121021 50011,CXKI,2019-01-05T21:00:00Z,48.22,-80.0,-1.2,-2.1,,,,,,1005.5,,TRUE,TRUE,,,,,,,,,,,,,,,,1.1,,,,,0.01,,,,,,METAR,324.0
CXDK 052100Z AUTO 23001KT M10/M12 RMK AO1 SOG 25 7013 SLP083 T10981116,CXDK,2019-01-05T21:00:00Z,61.27,-124.47,-9.8,-11.6,230,1,,,,1008.3,,TRUE,TRUE,,,,,,,,,,,,,,,,,,,,,,,,,,,METAR,283.0
CWGL 052100Z AUTO 18007KT 01/M01 RMK AO1 SLP052 T00061008 50002,CWGL,2019-01-05T21:00:00Z,44.52,-79.22,0.6,-0.8,180,7,,,,1005.2,,TRUE,TRUE,,,,,,,,,,,,,,,,0.2,,,,,,,,,,,METAR,221.0
CWGD 052100Z AUTO 18010KT 02/01 RMK AO1 SLP060 T00150011 58005,CWGD,2019-01-05T21:00:00Z,43.77,-81.72,1.5,1.1,180,10,,,,1006.0,,TRUE,TRUE,,,,,,,,,,,,,,,,-0.5,,,,,,,,,,,METAR,214.0
CWFQ 052100Z AUTO 32003KT 02/M01 RMK AO1 SOG 08 3005 SLP022 T00171012,CWFQ,2019-01-05T21:00:00Z,45.03,-72.82,1.7,-1.2,320,3,,,,1002.2,,TRUE,TRUE,,,,,,,,,,,,,,,,,,,,,,,,,,,METAR,152.0
CWKG 052100Z AUTO 09003KT 02/02 RMK AO1 SOG 06 8018 SLP025 T00240020,CWKG,2019-01-05T21:00:00Z,44.43,-65.2,2.4,2.0,90,3,,,,1002.5,,TRUE,TRUE,,,,,,,,,,,,,,,,,,,,,,,,,,,METAR,165.0
CWWB 052100Z AUTO 24007KT 02/M01 RMK AO1 SLP078 T00161010 53018,CWWB,2019-01-05T21:00:00Z,43.3,-79.78,1.6,-1.0,240,7,,,,1007.8,,TRUE,TRUE,,,,,,,,,,,,,,,,1.8,,,,,,,,,,,METAR,76.0
CWWZ 052100Z AUTO 25006KT 03/01 RMK AO1 SOG 01 3016 SLP078 T00270009,CWWZ,2019-01-05T21:00:00Z,43.25,-79.22,2.7,0.9,250,6,,,,1007.8,,TRUE,TRUE,,,,,,,,,,,,,,,,,,,,,,,,,,,METAR,79.0
CWNM 052100Z AUTO 10005KT 04/01 RMK AO1 SOG 05 8043 SLP062 T00420013,CWNM,2019-01-05T21:00:00Z,49.5,-117.28,4.2,1.3,100,5,,,,1006.2,,TRUE,TRUE,,,,,,,,,,,,,,,,,,,,,,,,,,,METAR,535.0
CWBT 052100Z AUTO 06003KT M04/M04 RMK AO1 SLP066 T10361036 58003,CWBT,2019-01-05T21:00:00Z,50.27,-64.23,-3.6,-3.6,60,3,,,,1006.6,,TRUE,TRUE,,,,,,,,,,,,,,,,-0.3,,,,,,,,,,,METAR,11.0
CWWF 052100Z AUTO 21002KT M03/M04 RMK AO1 SOG 06 8002 SLP190 T10311040,CWWF,2019-01-05T21:00:00Z,49.7,-103.8,-3.1,-4.0,210,2,,,,1019.0,,TRUE,TRUE,,,,,,,,,,,,,,,,,,,,,,,,,,,METAR,589.0
CWWA 052100Z AUTO 00000KT 07/05 RMK AO1 SLP960 T00740051 58040,CWWA,2019-01-05T21:00:00Z,49.35,-123.17,7.4,5.1,0,0,,,,996.0,,TRUE,TRUE,,,,,,,,,,,,,,,,-4.0,,,,,,,,,,,METAR,178.0
CWUS 052100Z AUTO 16001KT 03/01 RMK AO1 SLP040 T00260008 58038,CWUS,2019-01-05T21:00:00Z,49.57,-119.65,2.6,0.8,160,1,,,,1004.0,,TRUE,TRUE,,,,,,,,,,,,,,,,-3.8,,,,,,,,,,,METAR,454.0
CWTT 052100Z AUTO 06001KT 02/M02 RMK AO1 T00181016,CWTT,2019-01-05T21:00:00Z,45.27,-72.17,1.8,-1.6,60,1,,,,,,TRUE,TRUE,,,,,,,,,,,,,,,,,,,,,,,,,,,METAR,209.0
CWSF 052100Z AUTO 22004KT M00/M04 RMK AO1 SLP052 T10031041 58004,CWSF,2019-01-05T21:00:00Z,49.25,-65.32,-0.3,-4.1,220,4,,,,1005.2,,TRUE,TRUE,,,,,,,,,,,,,,,,-0.4,,,,,,,,,,,METAR,29.0
CWRA 052100Z AUTO 19016KT RMK AO1 PK WND 19018/2058 58004,CWRA,2019-01-05T21:00:00Z,46.63,-53.07,,,190,16,,,,,,TRUE,TRUE,,,,,,,,,,,,,,,,-0.4,,,,,,,,,,,METAR,28.0
CWDM 052100Z AUTO 23002KT M11/M12 RMK AO1 SOG 10 1010 SLP088 T11071118,CWDM,2019-01-05T21:00:00Z,50.47,-59.62,-10.7,-11.8,230,2,,,,1008.8,,TRUE,TRUE,,,,,,,,,,,,,,,,,,,,,,,,,,,METAR,6.0
CWSS 052100Z AUTO 05003KT 03/M00 RMK AO1 SOG 08 8007 SLP028 T00301003,CWSS,2019-01-05T21:00:00Z,45.2,-67.25,3.0,-0.3,50,3,,,,1002.8,,TRUE,TRUE,,,,,,,,,,,,,,,,,,,,,,,,,,,METAR,26.0
CWDO 052100Z AUTO 25007KT M01/M02 RMK AO1 SOG 02 1017 SLP104 T10061017 50006,CWDO,2019-01-05T21:00:00Z,49.67,-54.78,-0.6,-1.7,250,7,,,,1010.4,,TRUE,TRUE,,,,,,,,,,,,,,,,0.6,,,,,,,,,,,METAR,92.0
CWWE 052100Z AUTO 06004KT 03/02 RMK AO1 8PAST HR 8024 SLP019 P0003 T00270024 50008,CWWE,2019-01-05T21:00:00Z,43.97,-64.67,2.7,2.4,60,4,,,,1001.9,,TRUE,TRUE,,,,,,,,,,,,,,,,0.8,,,,,0.03,,,,,,METAR,9.0
CWRM 052100Z AUTO 12007KT M08/M09 RMK AO1 SOG 11 6024 SLP094 T10781088,CWRM,2019-01-05T21:00:00Z,52.42,-114.92,-7.8,-8.8,120,7,,,,1009.4,,TRUE,TRUE,,,,,,,,,,,,,,,,,,,,,,,,,,,METAR,988.0
CWZG 052100Z AUTO 23006KT M02/M06 RMK AO1 SOG 26 8029 SLP086 T10241055,CWZG,2019-01-05T21:00:00Z,51.2,-115.53,-2.4,-5.5,230,6,,,,1008.6,,TRUE,TRUE,,,,,,,,,,,,,,,,,,,,,,,,,,,METAR,1397.0
CWWS 052100Z AUTO 32015KT M14/M16 RMK AO1 SOG 25 3025 PK WND 33019/2042 SLP222 T11371164,CWWS,2019-01-05T21:00:00Z,52.82,-97.62,-13.7,-16.4,320,15,,,,1022.2,,TRUE,TRUE,,,,,,,,,,,,,,,,,,,,,,,,,,,METAR,223.0
CXWN 052100Z AUTO 36004KT M07/M10 RMK AO1 SLP212 T10661100 53029,CXWN,2019-01-05T21:00:00Z,49.88,-97.13,-6.6,-10.0,360,4,,,,1021.2,,TRUE,TRUE,,,,,,,,,,,,,,,,2.9,,,,,,,,,,,METAR,230.0
CXOX 052100Z AUTO 18003KT M17/M22 RMK AO1 SOG 39 5001 SLP232 T11731216,CXOX,2019-01-05T21:00:00Z,55.15,-105.27,-17.3,-21.6,180,3,,,,1023.2,,TRUE,TRUE,,,,,,,,,,,,,,,,,,,,,,,,,,,METAR,379.0
CXMY 052100Z AUTO 02/02 RMK AO1 T00180017,CXMY,2019-01-05T21:00:00Z,44.98,-62.48,1.8,1.7,,,,,,,,TRUE,TRUE,,,,,,,,,,,,,,,,,,,,,,,,,,,METAR,40.0
CXMI 052100Z AUTO 08004KT 02/ RMK AO1 SLP032 T0015 58021,CXMI,2019-01-05T21:00:00Z,44.6,-63.53,1.5,,80,4,,,,1003.2,,TRUE,TRUE,,,,,,,,,,,,,,,,-2.1,,,,,,,,,,,METAR,15.0
CXIB 052100Z AUTO 01001KT 01/M00 RMK AO1 SOG 33 8005 SLP069 T00071001,CXIB,2019-01-05T21:00:00Z,46.67,-60.38,0.7,-0.1,10,1,,,,1006.9,,TRUE,TRUE,,,,,,,,,,,,,,,,,,,,,,,,,,,METAR,8.0
CXHA 052100Z AUTO 24010KT 07/02 RMK AO1 PK WND 24017/2038 SLP087 T00670017 53004,CXHA,2019-01-05T21:00:00Z,42.03,-82.9,6.7,1.7,240,10,,,,1008.7,,TRUE,TRUE,,,,,,,,,,,,,,,,0.4,,,,,,,,,,,METAR,191.0
CXET 052100Z AUTO 14005KT 02/M01 RMK AO1 SOG 02 0003 SLP053 T00151009,CXET,2019-01-05T21:00:00Z,44.23,-79.78,1.5,-0.9,140,5,,,,1005.3,,TRUE,TRUE,,,,,,,,,,,,,,,,,,,,,,,,,,,METAR,251.0
CXEA 052100Z AUTO 31006KT M08/M11 RMK AO1 SOG 24 3037 SLP178 T10831106,CXEA,2019-01-05T21:00:00Z,50.63,-93.22,-8.3,-10.6,310,6,,,,1017.8,,TRUE,TRUE,,,,,,,,,,,,,,,,,,,,,,,,,,,METAR,355.0
CXDI 052100Z AUTO 23005KT M00/M01 RMK AO1 SLP079 T10021008 50013,CXDI,2019-01-05T21:00:00Z,42.87,-80.55,-0.2,-0.8,230,5,,,,1007.9,,TRUE,TRUE,,,,,,,,,,,,,,,,1.3,,,,,,,,,,,METAR,232.0
CXDE 052100Z AUTO 35003KT M20/M22 RMK AO1 SOG 19 1005 SLP158 T12001215,CXDE,2019-01-05T21:00:00Z,65.22,-123.43,-20.0,-21.5,350,3,,,,1015.8,,TRUE,TRUE,,,,,,,,,,,,,,,,,,,,,,,,,,,METAR,213.0
CXBK 052100Z AUTO 11001KT M03/M04 RMK AO1 SOG 03 5002 SLP177 T10341040,CXBK,2019-01-05T21:00:00Z,50.2,-104.7,-3.4,-4.0,110,1,,,,1017.7,,TRUE,TRUE,,,,,,,,,,,,,,,,,,,,,,,,,,,METAR,580.0
CZSM 052100Z AUTO 14004KT M14/M16 RMK AO1 SOG 33 7010 SLP168 T11421161,CZSM,2019-01-05T21:00:00Z,60.03,-111.93,-14.2,-16.1,140,4,,,,1016.8,,TRUE,TRUE,,,,,,,,,,,,,,,,,,,,,,,,,,,SPECI,203.0
CZHY 052100Z AUTO 12005KT M12/M15 RMK AO1 SOG 16 6018 SLP136 T11151152,CZHY,2019-01-05T21:00:00Z,60.83,-115.78,-11.5,-15.2,120,5,,,,1013.6,,TRUE,TRUE,,,,,,,,,,,,,,,,,,,,,,,,,,,SPECI,164.0
CZFS 052100Z AUTO 09003KT M14/M16 RMK AO1 SOG 29 8017 SLP121 T11381160,CZFS,2019-01-05T21:00:00Z,61.77,-121.23,-13.8,-16.0,90,3,,,,1012.1,,TRUE,TRUE,,,,,,,,,,,,,,,,,,,,,,,,,,,SPECI,168.0
CZEV 052100Z AUTO 09002KT M19/M21 RMK AO1 SOG 49 2006 SLP178 T11871209,CZEV,2019-01-05T21:00:00Z,68.32,-133.52,-18.7,-20.9,90,2,,,,1017.8,,TRUE,TRUE,,,,,,,,,,,,,,,,,,,,,,,,,,,SPECI,103.0
CPBT 052100Z AUTO 12004KT 05/M04 RMK AO1 T00501041,CPBT,2019-01-05T21:00:00Z,49.57,-113.05,5.0,-4.1,120,4,,,,,,TRUE,TRUE,,,,,,,,,,,,,,,,,,,,,,,,,,,METAR,980.0
CWIZ 052100Z AUTO 34002KT 02/M00 RMK AO1 SOG 08 T00191002,CWIZ,2019-01-05T21:00:00Z,45.28,-73.33,1.9,-0.2,340,2,,,,,,TRUE,TRUE,,,,,,,,,,,,,,,,,,,,,,,,,,,METAR,45.0
CWHV 052100Z AUTO 31002KT 01/00 RMK AO1 SLP020 T00080000 58006,CWHV,2019-01-05T21:00:00Z,46.2,-70.77,0.8,0.0,310,2,,,,1002.0,,TRUE,TRUE,,,,,,,,,,,,,,,,-0.6,,,,,,,,,,,METAR,229.0
CWHQ 052100Z AUTO 33001KT 01/ RMK AO1 T0007,CWHQ,2019-01-05T21:00:00Z,46.68,-71.97,0.7,,330,1,,,,,,TRUE,TRUE,,,,,,,,,,,,,,,,,,,,,,,,,,,METAR,55.0
CZDB 052100Z AUTO 05004KT 02/01 RMK AO1 SOG 05 8016 SLP046 T00190010,CZDB,2019-01-05T21:00:00Z,45.42,-63.47,1.9,1.0,50,4,,,,1004.6,,TRUE,TRUE,,,,,,,,,,,,,,,,,,,,,,,,,,,METAR,38.0
CZCR 052100Z AUTO 36002KT M05/M05 RMK AO1 SOG 27 6006 SLP060 T10461049,CZCR,2019-01-05T21:00:00Z,47.97,-66.32,-4.6,-4.9,360,2,,,,1006.0,,TRUE,TRUE,,,,,,,,,,,,,,,,,,,,,,,,,,,METAR,38.0
CXNP 052100Z AUTO 04004KT 02/01 RMK AO1 SOG 09 8009 SLP047 T00180010,CXNP,2019-01-05T21:00:00Z,45.75,-64.23,1.8,1.0,40,4,,,,1004.7,,TRUE,TRUE,,,,,,,,,,,,,,,,,,,,,,,,,,,METAR,20.0
CWXI 052100Z AUTO 28009KT M03/M05 RMK AO1 SLP074 T10251047 51017,CWXI,2019-01-05T21:00:00Z,51.02,-57.1,-2.5,-4.7,280,9,,,,1007.4,,TRUE,TRUE,,,,,,,,,,,,,,,,1.7,,,,,,,,,,,METAR,6.0
CAHR 052100Z AUTO 08002KT M00/M01 RMK AO1 SOG 15 5006 SLP055 T10031011,CAHR,2019-01-05T21:00:00Z,46.35,-63.17,-0.3,-1.1,80,2,,,,1005.5,,TRUE,TRUE,,,,,,,,,,,,,,,,,,,,,,,,,,,METAR,53.0
OIMT 052100Z AUTO 08004KT //// // ////// 05/M07 Q1021,OIMT,2019-01-05T21:00:00Z,33.67,56.92,5.0,-7.0,80,4,,,30.147638,,,TRUE,,,,,,,,,,,,,,,,,,,,,,,,,,,,METAR,711.0
SGES 052100Z 18003KT 9999 SCT015 BKN070 30/22 Q1009,SGES,2019-01-05T21:00:00Z,-25.45,-54.85,30.0,22.0,180,3,,6.21,29.793306,,,,,,,,,,,SCT,1500,BKN,7000,,,,,VFR,,,,,,,,,,,,METAR,849.0
SGAS 052100Z 09005KT 050V120 9999 SCT015 BKN070 26/24 Q1007,SGAS,2019-01-05T21:00:00Z,-25.25,-57.52,26.0,24.0,90,5,,6.21,29.734253,,,,,,,,,,,SCT,1500,BKN,7000,,,,,VFR,,,,,,,,,,,,METAR,101.0
SARC 052100Z 07007KT 9999 FEW035TCU SCT200 32/23 Q1006,SARC,2019-01-05T21:00:00Z,-27.43,-58.77,32.0,23.0,70,7,,6.21,29.704725,,,,,,,,,,,FEW,3500,SCT,20000,,,,,VFR,,,,,,,,,,,,METAR,62.0
ORER 052100Z 12009KT 8000 NCS 12/01 Q1018 NOSIG,ORER,2019-01-05T21:00:00Z,36.23,43.97,12.0,1.0,120,9,,4.97,30.059055,,,,,,TRUE,,,,,,,,,,,,,,,,,,,,,,,,,METAR,409.0
ORNI 052100Z 11014KT 8000 BKN040 14/08 Q1014OSIG,ORNI,2019-01-05T21:00:00Z,31.98,44.4,14.0,8.0,110,14,,4.97,,,,,,,,,,,,BKN,4000,,,,,,,MVFR,,,,,,,,,,,,METAR,53.0
ORMM 052100Z 12006KT CAVOK 13/08 Q1017 NOSIG,ORMM,2019-01-05T21:00:00Z,30.57,47.67,13.0,8.0,120,6,,6.21,30.029528,,,,,,TRUE,,,,,CAVOK,,,,,,,,VFR,,,,,,,,,,,,METAR,2.0
HKNW 052100Z 00000KT 9999 SCT020 BKN080 18/13 Q1021,HKNW,2019-01-05T21:00:00Z,-1.32,36.82,18.0,13.0,0,0,,6.21,30.147638,,,,,,,,,,,SCT,2000,BKN,8000,,,,,VFR,,,,,,,,,,,,METAR,1679.0
HKKI 052100Z 00000KT CAVOK 22/13 Q1017,HKKI,2019-01-05T21:00:00Z,-0.1,34.75,22.0,13.0,0,0,,6.21,30.029528,,,,,,,,,,,CAVOK,,,,,,,,VFR,,,,,,,,,,,,METAR,1146.0
HKJK 052100Z 05007KT 9999 FEW030 BKN080 18/15 Q1022 NOSIG,HKJK,2019-01-05T21:00:00Z,-1.32,36.92,18.0,15.0,50,7,,6.21,30.177166,,,,,,TRUE,,,,,FEW,3000,BKN,8000,,,,,VFR,,,,,,,,,,,,METAR,1624.0
HKEL 052100Z 11012KT CAVOK 16/11 Q1024,HKEL,2019-01-05T21:00:00Z,0.4,35.23,16.0,11.0,110,12,,6.21,30.236221,,,,,,,,,,,CAVOK,,,,,,,,VFR,,,,,,,,,,,,METAR,2133.0
MRLM 052100Z 04004KT 9999 FEW025TCU SCT130 28/24 A2992,MRLM,2019-01-05T21:00:00Z,9.97,-83.03,28.0,24.0,40,4,,6.21,29.920275,,,,,,,,,,,FEW,2500,SCT,13000,,,,,VFR,,,,,,,,,,,,METAR,2.0
UTFF 052100Z 05002KT 1000 BR SCT016 03/01 Q1028 R18/19//60,UTFF,2019-01-05T21:00:00Z,40.37,71.77,3.0,1.0,50,2,,0.62,30.35433,,,,,,,,,,BR,SCT,1600,,,,,,,LIFR,,,,,,,,,,,,METAR,577.0
UTSA 052100Z 10008KT 6000 NSC 01/M00 Q1025 R07/CLRD70 NOSIG,UTSA,2019-01-05T21:00:00Z,40.12,65.17,1.0,0.0,100,8,,3.73,30.265747,,,,,,TRUE,,,,,CLR,,,,,,,,MVFR,,,,,,,,,,,,METAR,346.0
UTNU 052100Z 12012KT 2400 BR OVC002 M00/M01 Q1023 R13/CLRD70 NOSIG RMK BASE200,UTNU,2019-01-05T21:00:00Z,41.58,60.63,0.0,-1.0,120,12,,1.49,30.206694,,,,,,TRUE,,,,BR,OVC,200,,,,,,,LIFR,,,,,,,,,,,,METAR,98.0
WAOO 052100Z AUTO 13002KT 5000 SCT220 25/24 Q1010,WAOO,2019-01-05T21:00:00Z,-3.45,114.77,25.0,24.0,130,2,,3.11,29.822834,,,TRUE,,,,,,,,SCT,22000,,,,,,,MVFR,,,,,,,,,,,,METAR,20.0
WIEE 052100Z VRB02KT 9999 FEW020 24/24 Q1010,WIEE,2019-01-05T21:00:00Z,-0.78,100.28,24.0,24.0,0,2,,6.21,29.822834,,,,,,,,,,,FEW,2000,,,,,,,VFR,,,,,,,,,,,,METAR,5.0
WIBB 052100Z 20004KT 6000 -RA BKN012 24/24 Q1010,WIBB,2019-01-05T21:00:00Z,0.47,101.45,24.0,24.0,200,4,,3.73,29.822834,,,,,,,,,,-RA,BKN,1200,,,,,,,MVFR,,,,,,,,,,,,METAR,31.0
WAQQ 052100Z 03003KT 8000 FEW015 24/23 Q1012,WAQQ,2019-01-05T21:00:00Z,3.33,117.57,24.0,23.0,30,3,,4.97,29.88189,,,,,,,,,,,FEW,1500,,,,,,,MVFR,,,,,,,,,,,,METAR,0.0
FMSD 052100Z 08004KT 9999 FEW020 SCT033 26/25 Q1011,FMSD,2019-01-05T21:00:00Z,-25.02,46.95,26.0,25.0,80,4,,6.21,29.852362,,,,,,,,,,,FEW,2000,SCT,3300,,,,,VFR,,,,,,,,,,,,METAR,9.0
FMMT 052100Z 00000KT 9999 VCSH FEW007 SCT017TCU BKN033 27/26 Q1012,FMMT,2019-01-05T21:00:00Z,-18.12,49.38,27.0,26.0,0,0,,6.21,29.88189,,,,,,,,,,VCSH,FEW,700,SCT,1700,BKN,3300,,,VFR,,,,,,,,,,,,METAR,6.0
FMNM 052100Z 00000KT 9999 FEW020CB 28/26 Q1010,FMNM,2019-01-05T21:00:00Z,-15.67,46.35,28.0,26.0,0,0,,6.21,29.822834,,,,,,,,,,,FEW,2000,,,,,,,VFR,,,,,,,,,,,,METAR,18.0
WMKI 052100Z VRB02KT 9999 FEW030 BKN280 25/23 Q1010,WMKI,2019-01-05T21:00:00Z,4.57,101.08,25.0,23.0,0,2,,6.21,29.822834,,,,,,,,,,,FEW,3000,BKN,28000,,,,,VFR,,,,,,,,,,,,METAR,39.0
AGGM 052100Z 27005KT 9999 SCT016 BKN100 BKN300 25/24 Q1008,AGGM,2019-01-05T21:00:00Z,-8.32,157.27,25.0,24.0,270,5,,6.21,29.763779,,,,,,,,,,,SCT,1600,BKN,10000,BKN,30000,,,VFR,,,,,,,,,,,,METAR,6.0
WIMM 052100Z 18003KT 5000 HZ SCT018 25/24 Q1009 NOSIG,WIMM,2019-01-05T21:00:00Z,3.57,98.67,25.0,24.0,180,3,,3.11,29.793306,,,,,,TRUE,,,,HZ,SCT,1800,,,,,,,MVFR,,,,,,,,,,,,METAR,25.0
WABB 052100Z 31006KT 9999 FEW018 26/23 Q1011 NOSIG,WABB,2019-01-05T21:00:00Z,-1.17,136.12,26.0,23.0,310,6,,6.21,29.852362,,,,,,TRUE,,,,,FEW,1800,,,,,,,VFR,,,,,,,,,,,,METAR,11.0
TNCM 052100Z 09012KT 050V130 9999 SCT019 27/21 Q1018 A3006 NOSIG ,TNCM,2019-01-05T21:00:00Z,18.05,-63.12,27.0,21.0,90,12,,6.21,30.059055,,,,,,TRUE,,,,,SCT,1900,,,,,,,VFR,,,,,,,,,,,,METAR,4.0
FYWW 052100Z AUTO 21002KT //// // ////// 24/09 Q1022,FYWW,2019-01-05T21:00:00Z,-22.57,17.1,24.0,9.0,210,2,,,30.177166,,,TRUE,,,,,,,,,,,,,,,,,,,,,,,,,,,,METAR,1725.0
FYWH 052100Z AUTO 22006KT //// // ////// 21/14 Q1022,FYWH,2019-01-05T21:00:00Z,-22.47,17.47,21.0,14.0,220,6,,,30.177166,,,TRUE,,,,,,,,,,,,,,,,,,,,,,,,,,,,METAR,1700.0
FYWB 052100Z AUTO 36008KT //// // ////// 18/14 Q1016,FYWB,2019-01-05T21:00:00Z,-22.98,14.65,18.0,14.0,360,8,,,30.0,,,TRUE,,,,,,,,,,,,,,,,,,,,,,,,,,,,METAR,46.0
FYOA 052100Z AUTO 32009KT //// // ////// 29/19 Q1015,FYOA,2019-01-05T21:00:00Z,-17.88,15.97,29.0,19.0,320,9,,,29.970472,,,TRUE,,,,,,,,,,,,,,,,,,,,,,,,,,,,METAR,1095.0
FYKT 052100Z AUTO 21009KT //// // ////// 29/01 Q1016,FYKT,2019-01-05T21:00:00Z,-26.52,18.12,29.0,1.0,210,9,,,30.0,,,TRUE,,,,,,,,,,,,,,,,,,,,,,,,,,,,METAR,1061.0
DFFD 052100Z 04004KT CAVOK 22/01 Q1017 NOSIG,DFFD,2019-01-05T21:00:00Z,12.33,-1.52,22.0,1.0,40,4,,6.21,30.029528,,,,,,TRUE,,,,,CAVOK,,,,,,,,VFR,,,,,,,,,,,,METAR,306.0
DFOO 052100Z 02006KT 8000 NSC 25/01 Q1016,DFOO,2019-01-05T21:00:00Z,11.17,-4.32,25.0,1.0,20,6,,4.97,30.0,,,,,,,,,,,CLR,,,,,,,,MVFR,,,,,,,,,,,,METAR,460.0
FTTA 052100Z 36008KT CAVOK 28/05 Q1012,FTTA,2019-01-05T21:00:00Z,9.15,18.37,28.0,5.0,360,8,,6.21,29.88189,,,,,,,,,,,CAVOK,,,,,,,,VFR,,,,,,,,,,,,METAR,365.0
FTTJ 052100Z 32004KT CAVOK 21/M01 Q1014 NOSIG,FTTJ,2019-01-05T21:00:00Z,12.12,15.02,21.0,-1.0,320,4,,6.21,29.940945,,,,,,TRUE,,,,,CAVOK,,,,,,,,VFR,,,,,,,,,,,,METAR,295.0
DBBB 052100Z 18003KT 3500 HZ NSC 28/22 Q1012 NOSIG,DBBB,2019-01-05T21:00:00Z,6.33,2.37,28.0,22.0,180,3,,2.17,29.88189,,,,,,TRUE,,,,HZ,CLR,,,,,,,,IFR,,,,,,,,,,,,METAR,9.0
DRRN 052100Z 06005KT CAVOK 23/M05 Q1016 NOSIG,DRRN,2019-01-05T21:00:00Z,13.47,2.17,23.0,-5.0,60,5,,6.21,30.0,,,,,,TRUE,,,,,CAVOK,,,,,,,,VFR,,,,,,,,,,,,METAR,227.0
DXSK 052100Z 00000KT 8000 NSC 23/11 Q////,DXSK,2019-01-05T21:00:00Z,9.0,1.15,23.0,11.0,0,0,,4.97,,,,,,,,,,,,CLR,,,,,,,,MVFR,,,,,,,,,,,,METAR,387.0
DXNG 052100Z 04007KT CAVOK 25/M02 Q1017,DXNG,2019-01-05T21:00:00Z,9.77,1.1,25.0,-2.0,40,7,,6.21,30.029528,,,,,,,,,,,CAVOK,,,,,,,,VFR,,,,,,,,,,,,METAR,343.0
DXXX 052100Z 19001KT 6000 NSC 26/18 Q1013 NOSIG,DXXX,2019-01-05T21:00:00Z,6.17,1.25,26.0,18.0,190,1,,3.73,29.911417,,,,,,TRUE,,,,,CLR,,,,,,,,MVFR,,,,,,,,,,,,METAR,25.0
OMAA 052100Z 28003KT CAVOK 19/14 Q1018 NOSIG,OMAA,2019-01-05T21:00:00Z,24.42,54.63,19.0,14.0,280,3,,6.21,30.059055,,,,,,TRUE,,,,,CAVOK,,,,,,,,VFR,,,,,,,,,,,,METAR,27.0
OMAL 052100Z 33006KT 8000 NSC 17/14 Q1019 NOSIG,OMAL,2019-01-05T21:00:00Z,24.25,55.6,17.0,14.0,330,6,,4.97,30.088583,,,,,,TRUE,,,,,CLR,,,,,,,,MVFR,,,,,,,,,,,,METAR,262.0
OMAD 052100Z 00000KT CAVOK 19/14 Q1019 NOSIG,OMAD,2019-01-05T21:00:00Z,24.42,54.47,19.0,14.0,0,0,,6.21,30.088583,,,,,,TRUE,,,,,CAVOK,,,,,,,,VFR,,,,,,,,,,,,METAR,3.0
YSNW 052100Z AUTO 20006KT 9999 // BKN023 OVC028 16/14 Q1017,YSNW,2019-01-05T21:00:00Z,-34.95,150.52,16.0,14.0,200,6,,6.21,30.029528,,,TRUE,,,,,,,,BKN,2300,OVC,2800,,,,,MVFR,,,,,,,,,,,,METAR,110.0
YLIS 052100Z AUTO 02003KT 9999 // NCD 23/20 Q1014,YLIS,2019-01-05T21:00:00Z,-28.83,153.27,23.0,20.0,20,3,,6.21,29.940945,,,TRUE,,,,,,,,CLR,,,,,,,,VFR,,,,,,,,,,,,METAR,11.0
YLEC 052100Z AUTO 12017KT //// // ////// 19/02 Q1017,YLEC,2019-01-05T21:00:00Z,-30.6,138.43,19.0,2.0,120,17,,,30.029528,,,TRUE,,,,,,,,,,,,,,,,,,,,,,,,,,,,METAR,262.0
YKRY 052100Z AUTO /////KT //// // ////// 21/18 Q1015,YKRY,2019-01-05T21:00:00Z,-26.57,151.83,21.0,18.0,,,,,29.970472,,,TRUE,,,,,,,,,,,,,,,,,,,,,,,,,,,,METAR,434.0
YHUG 052100Z AUTO 05003KT 9999 // NCD 28/13 Q1011,YHUG,2019-01-05T21:00:00Z,-20.82,144.23,28.0,13.0,50,3,,6.21,29.852362,,,TRUE,,,,,,,,CLR,,,,,,,,VFR,,,,,,,,,,,,METAR,318.0
YGTH 052100Z AUTO 17013KT 9999 // NCD 17/06 Q1016,YGTH,2019-01-05T21:00:00Z,-34.25,146.07,17.0,6.0,170,13,,6.21,30.0,,,TRUE,,,,,,,,CLR,,,,,,,,VFR,,,,,,,,,,,,METAR,134.0
YGTE 052100Z AUTO 09004KT 9999 // NCD 26/25 Q1007,YGTE,2019-01-05T21:00:00Z,-13.97,136.45,26.0,25.0,90,4,,6.21,29.734253,,,TRUE,,,,,,,,CLR,,,,,,,,VFR,,,,,,,,,,,,METAR,14.0
YGFN 052100Z AUTO 01004KT 9999 // NCD 21/21 Q1014,YGFN,2019-01-05T21:00:00Z,-29.77,153.03,21.0,21.0,10,4,,6.21,29.940945,,,TRUE,,,,,,,,CLR,,,,,,,,VFR,,,,,,,,,,,,METAR,34.0
YESP 052100Z AUTO 11006KT 9999 // NCD 12/10 Q1022,YESP,2019-01-05T21:00:00Z,-33.68,121.82,12.0,10.0,110,6,,6.21,30.177166,,,TRUE,,,,,,,,CLR,,,,,,,,VFR,,,,,,,,,,,,METAR,143.0
YEML 052100Z AUTO 08007KT 9999 // NCD 25/19 Q1013,YEML,2019-01-05T21:00:00Z,-23.57,148.18,25.0,19.0,80,7,,6.21,29.911417,,,TRUE,,,,,,,,CLR,,,,,,,,VFR,,,,,,,,,,,,METAR,190.0
YDBY 052100Z AUTO 27007KT //// // BKN015 28/25 Q1009,YDBY,2019-01-05T21:00:00Z,-17.37,123.67,28.0,25.0,270,7,,,29.793306,,,TRUE,,,,,,,,BKN,1500,,,,,,,,,,,,,,,,,,,METAR,7.0
YCNM 052100Z AUTO 19010KT //// // ////// 21/13 Q1013,YCNM,2019-01-05T21:00:00Z,-30.98,148.38,21.0,13.0,190,10,,,29.911417,,,TRUE,,,,,,,,,,,,,,,,,,,,,,,,,,,,METAR,184.0
YCDU 052100Z AUTO 12009KT 9999 // NCD 15/12 Q1022,YCDU,2019-01-05T21:00:00Z,-32.12,133.7,15.0,12.0,120,9,,6.21,30.177166,,,TRUE,,,,,,,,CLR,,,,,,,,VFR,,,,,,,,,,,,METAR,15.0
AYPY 052100Z 31005KTS 9999 FEW010 BKN040 24/23 Q1010 RMKS/ BUILD UPS ASSW RASH IN AREA,AYPY,2019-01-05T21:00:00Z,-9.42,147.22,24.0,23.0,310,5,,6.21,29.822834,,,,,,,,,,,FEW,1000,BKN,4000,,,,,VFR,,,,,,,,,,,,METAR,47.0
OEBH 052100Z 10002KT 4700 DU SKC 16/07 Q1020 NOSIG,OEBH,2019-01-05T21:00:00Z,19.97,42.62,16.0,7.0,100,2,,2.92,30.11811,,,,,,TRUE,,,,DU,SKC,,,,,,,,IFR,,,,,,,,,,,,METAR,1157.0
CWWK 052100Z AUTO 06005KT 10/03 RMK AO1 SLP964 T01010027 58042,CWWK,2019-01-05T21:00:00Z,49.02,-122.78,10.1,2.7,60,5,,,,996.4,,TRUE,TRUE,,,,,,,,,,,,,,,,-4.2,,,,,,,,,,,METAR,15.0
SBFN 052100Z 12013KT 9999 FEW017 27/23 Q1013,SBFN,2019-01-05T21:00:00Z,-3.85,-32.42,27.0,23.0,120,13,,6.21,29.911417,,,,,,,,,,,FEW,1700,,,,,,,VFR,,,,,,,,,,,,METAR,56.0
CWQR 052100Z AUTO 07011KT M02/M03 RMK AO1 T10191031,CWQR,2019-01-05T21:00:00Z,50.22,-64.22,-1.9,-3.1,70,11,,,,,,TRUE,TRUE,,,,,,,,,,,,,,,,,,,,,,,,,,,METAR,9.0
OMDW 052100Z 00000KT CAVOK 17/14 Q1019 NOSIG,OMDW,2019-01-05T21:00:00Z,24.9,55.17,17.0,14.0,0,0,,6.21,30.088583,,,,,,TRUE,,,,,CAVOK,,,,,,,,VFR,,,,,,,,,,,,METAR,25.0
OMFJ 052100Z 30004KT 6000 NSC 20/16 Q1019 RMK A3009,OMFJ,2019-01-05T21:00:00Z,25.1,56.32,20.0,16.0,300,4,,3.73,30.088583,,,,,,,,,,,CLR,,,,,,,,MVFR,,,,,,,,,,,,SPECI,28.0
VRMM 052100Z 08010KT 9999 SCT018TCU BKN280 28/22 Q1011 TEMPO 5000 -SHRA,VRMM,2019-01-05T21:00:00Z,4.2,73.52,28.0,22.0,80,10,,6.21,29.852362,,,,,,,,,,,SCT,1800,BKN,28000,,,,,VFR,,,,,,,,,,,,METAR,2.0
CWPR 052100Z AUTO 08001KT M02/M04 RMK AO1 SOG 03 8046 SLP024 T10171040,CWPR,2019-01-05T21:00:00Z,49.47,-120.52,-1.7,-4.0,80,1,,,,1002.4,,TRUE,TRUE,,,,,,,,,,,,,,,,,,,,,,,,,,,METAR,700.0
FAWK 052100Z AUTO 34003KT //// // ////// ///// Q1019,FAWK,2019-01-05T21:00:00Z,-25.82,28.22,,,340,3,,,30.088583,,,TRUE,,,,,,,,,,,,,,,,,,,,,,,,,,,,SPECI,1500.0
YBPN 052100Z AUTO 18007KT //// // OVC038 25/20 Q1011,YBPN,2019-01-05T21:00:00Z,-20.5,148.55,25.0,20.0,180,7,,,29.852362,,,TRUE,,,,,,,,OVC,3800,,,,,,,,,,,,,,,,,,,METAR,25.0
YBOK 052100Z AUTO 07008KT 9999 // NCD 22/18 Q1015,YBOK,2019-01-05T21:00:00Z,-27.42,151.72,22.0,18.0,70,8,,6.21,29.970472,,,TRUE,,,,,,,,CLR,,,,,,,,VFR,,,,,,,,,,,,METAR,407.0
YBNA 052100Z AUTO 35002KT 9999 // NCD 25/21 Q1014,YBNA,2019-01-05T21:00:00Z,-28.83,153.57,25.0,21.0,350,2,,6.21,29.940945,,,TRUE,,,,,,,,CLR,,,,,,,,VFR,,,,,,,,,,,,METAR,2.0
YBMK 052100Z AUTO 20007KT 9999 // SCT027 25/22 Q1010,YBMK,2019-01-05T21:00:00Z,-21.17,149.17,25.0,22.0,200,7,,6.21,29.822834,,,TRUE,,,,,,,,SCT,2700,,,,,,,VFR,,,,,,,,,,,,METAR,31.0
YBHI 052100Z AUTO 19013KT 9999 // NCD 16/06 Q1018,YBHI,2019-01-05T21:00:00Z,-32.0,141.47,16.0,6.0,190,13,,6.21,30.059055,,,TRUE,,,,,,,,CLR,,,,,,,,VFR,,,,,,,,,,,,METAR,292.0
YPBO 052100Z AUTO 08006KT 9999 // NCD 25/22 Q1014,YPBO,2019-01-05T21:00:00Z,-23.2,117.75,25.0,22.0,80,6,,6.21,29.940945,,,TRUE,,,,,,,,CLR,,,,,,,,VFR,,,,,,,,,,,,METAR,1292.0
YOLD 052100Z AUTO 16014KT 9999 // NCD 18/09 Q1018,YOLD,2019-01-05T21:00:00Z,-30.48,136.88,18.0,9.0,160,14,,6.21,30.059055,,,TRUE,,,,,,,,CLR,,,,,,,,VFR,,,,,,,,,,,,METAR,105.0
YNWN 052100Z AUTO 18005KT 9999 // NCD 29/05 Q1016,YNWN,2019-01-05T21:00:00Z,-23.42,119.8,29.0,5.0,180,5,,6.21,30.0,,,TRUE,,,,,,,,CLR,,,,,,,,VFR,,,,,,,,,,,,METAR,525.0
YNTN 052100Z AUTO 00000KT //// // SCT023 26/24 Q1009,YNTN,2019-01-05T21:00:00Z,-17.68,141.07,26.0,24.0,0,0,,,29.793306,,,TRUE,,,,,,,,SCT,2300,,,,,,,,,,,,,,,,,,,METAR,22.0
YNBR 052100Z AUTO 01018KT 9999 // NCD 27/11 Q1013,YNBR,2019-01-05T21:00:00Z,-30.32,149.83,27.0,11.0,10,18,,6.21,29.911417,,,TRUE,,,,,,,,CLR,,,,,,,,VFR,,,,,,,,,,,,METAR,240.0
YMTG 052100Z AUTO 31006KT 9999 // OVC033 13/11 Q1021,YMTG,2019-01-05T21:00:00Z,-37.75,140.78,13.0,11.0,310,6,,6.21,30.147638,,,TRUE,,,,,,,,OVC,3300,,,,,,,VFR,,,,,,,,,,,,METAR,65.0
SVMG 052100Z /////KT 9999 FEW010 32/24 Q1013 NOSIG,SVMG,2019-01-05T21:00:00Z,10.92,-63.97,32.0,24.0,,,,6.21,29.911417,,,,,,TRUE,,,,,FEW,1000,,,,,,,VFR,,,,,,,,,,,,SPECI,23.0
SBVT 052100Z 04016G26KT CAVOK 28/23 Q1012,SBVT,2019-01-05T21:00:00Z,-20.27,-40.27,28.0,23.0,40,16,26,6.21,29.88189,,,,,,,,,,,CAVOK,,,,,,,,VFR,,,,,,,,,,,,METAR,4.0
SBVH 052100Z 27003KT 200V320 8000 -TSRA BKN030 FEW035CB 24/23 Q1012,SBVH,2019-01-05T21:00:00Z,-12.72,-60.12,24.0,23.0,270,3,,4.97,29.88189,,,,,,,,,,-TSRA,BKN,3000,FEW,3500,,,,,MVFR,,,,,,,,,,,,METAR,652.0
SBIH 052100Z 10005KT 9999 FEW023 32/25 Q1008,SBIH,2019-01-05T21:00:00Z,-4.25,-56.0,32.0,25.0,100,5,,6.21,29.763779,,,,,,,,,,,FEW,2300,,,,,,,VFR,,,,,,,,,,,,METAR,34.0
SBHT 052100Z 12003KT 9999 SCT030 29/25 Q1009,SBHT,2019-01-05T21:00:00Z,-3.25,-52.27,29.0,25.0,120,3,,6.21,29.793306,,,,,,,,,,,SCT,3000,,,,,,,VFR,,,,,,,,,,,,METAR,74.0
SBSM 052100Z 10009KT 9999 SCT030 28/22 Q1010,SBSM,2019-01-05T21:00:00Z,-29.72,-53.7,28.0,22.0,100,9,,6.21,29.822834,,,,,,,,,,,SCT,3000,,,,,,,VFR,,,,,,,,,,,,METAR,85.0
SBMG 052100Z 00000KT 9999 VCSH SCT030 FEW035TCU 28/22 Q1011,SBMG,2019-01-05T21:00:00Z,-23.48,-52.02,28.0,22.0,0,0,,6.21,29.852362,,,,,,,,,,VCSH,SCT,3000,FEW,3500,,,,,VFR,,,,,,,,,,,,METAR,542.0
SBJU 052100Z 27006KT 9999 SCT020 SCT022 28/18 Q1014,SBJU,2019-01-05T21:00:00Z,-7.22,-39.27,28.0,18.0,270,6,,6.21,29.940945,,,,,,,,,,,SCT,2000,SCT,2200,,,,,VFR,,,,,,,,,,,,METAR,409.0
SBIL 052100Z 05007KT 9999 SCT025 28/23 Q1014,SBIL,2019-01-05T21:00:00Z,-14.8,-39.02,28.0,23.0,50,7,,6.21,29.940945,,,,,,,,,,,SCT,2500,,,,,,,VFR,,,,,,,,,,,,METAR,5.0
SBYS 052100Z 34005KT 9999 FEW017 SCT024 BKN100 23/22 Q1015,SBYS,2019-01-05T21:00:00Z,-21.97,-47.32,23.0,22.0,340,5,,6.21,29.970472,,,,,,,,,,,FEW,1700,SCT,2400,BKN,10000,,,VFR,,,,,,,,,,,,METAR,598.0
SBBH 052100Z 07005KT CAVOK 27/16 Q1016,SBBH,2019-01-05T21:00:00Z,-19.85,-43.95,27.0,16.0,70,5,,6.21,30.0,,,,,,,,,,,CAVOK,,,,,,,,VFR,,,,,,,,,,,,METAR,785.0
GBYD 052100Z 29005KT CAVOK 23/15 Q1014,GBYD,2019-01-05T21:00:00Z,13.33,-16.65,23.0,15.0,290,5,,6.21,29.940945,,,,,,,,,,,CAVOK,,,,,,,,VFR,,,,,,,,,,,,METAR,36.0
SBFZ 052100Z 08013KT 9999 FEW022 28/25 Q1011,SBFZ,2019-01-05T21:00:00Z,-3.77,-38.52,28.0,25.0,80,13,,6.21,29.852362,,,,,,,,,,,FEW,2200,,,,,,,VFR,,,,,,,,,,,,METAR,25.0
MYGF 052100Z 31008KT CAVOK 23/17 A3001,MYGF,2019-01-05T21:00:00Z,26.55,-78.7,23.0,17.0,310,8,,6.21,30.008858,,,,,,,,,,,CAVOK,,,,,,,,VFR,,,,,,,,,,,,METAR,2.0
FNLU 052100Z 19007KT 8000 FEW023 BKN080 26/23 Q1014,FNLU,2019-01-05T21:00:00Z,-8.83,13.22,26.0,23.0,190,7,,4.97,29.940945,,,,,,,,,,,FEW,2300,BKN,8000,,,,,MVFR,,,,,,,,,,,,METAR,70.0
OSKL 052100Z 05012KT 9999 FEW026 SCT100 08/04 Q1014,OSKL,2019-01-05T21:00:00Z,37.03,41.2,8.0,4.0,50,12,,6.21,29.940945,,,,,,,,,,,FEW,2600,SCT,10000,,,,,VFR,,,,,,,,,,,,METAR,455.0
OSLK 052100Z 21010KT 5000 TSRA SCT026 CB BKN030 12/10 Q1011,OSLK,2019-01-05T21:00:00Z,35.4,35.95,12.0,10.0,210,10,,3.11,29.852362,,,,,,,,,,TSRA,SCT,2600,BKN,3000,,,,,MVFR,,,,,,,,,,,,METAR,48.0
OSDI 052100Z 22018KT CAVOK 09/05 Q1013,OSDI,2019-01-05T21:00:00Z,33.42,36.52,9.0,5.0,220,18,,6.21,29.911417,,,,,,,,,,,CAVOK,,,,,,,,VFR,,,,,,,,,,,,METAR,605.0
SBRF 052100Z 13007G17KT 070V160 9999 FEW021 SCT070 28/23 Q1013,SBRF,2019-01-05T21:00:00Z,-8.13,-34.92,28.0,23.0,130,7,17,6.21,29.911417,,,,,,,,,,,FEW,2100,SCT,7000,,,,,VFR,,,,,,,,,,,,METAR,19.0
CWAE 052100Z 00000KT 15SM BKN100 BKN180 02/02 A2945 RMK AC6AC1 TR SC SLP989,CWAE,2019-01-05T21:00:00Z,50.13,-122.95,2.0,2.0,0,0,,15.0,29.450787,998.9,,,,,,,,,,BKN,10000,BKN,18000,,,,,VFR,,,,,,,,,,,,METAR,658.0
KNGU 052059Z 30018KT 10SM BKN043 14/06 A2969 RMK AO2 PK WND 29028/2044 SLP055 T01390056 53037 $,KNGU,2019-01-05T20:59:00Z,36.92,-76.27,13.9,5.6,300,18,,10.0,29.68996,1005.5,,,TRUE,TRUE,,,,,,BKN,4300,,,,,,,VFR,3.7,,,,,,,,,,,METAR,5.0
KDVP 052059Z AUTO 00000KT 10SM CLR A2998 RMK AO2,KDVP,2019-01-05T20:59:00Z,43.98,-95.78,,,0,0,,10.0,29.97933,,,TRUE,TRUE,,,,,,,CLR,,,,,,,,VFR,,,,,,,,,,,,SPECI,495.0
KNOZ 052059Z AUTO 00000KT 10SM BKN110 12/M02 A3000 RMK AO2 SLP109 T01221017 55016 $,KNOZ,2019-01-05T20:59:00Z,32.5,-114.45,12.2,-1.7,0,0,,10.0,30.0,1010.9,,TRUE,TRUE,TRUE,,,,,,BKN,11000,,,,,,,VFR,-1.6,,,,,,,,,,,SPECI,103.0
TNCC 052059Z AUTO 11010KT 9999 NCD 28/20 Q1013 NOSIG,TNCC,2019-01-05T20:59:00Z,12.2,-68.97,28.0,20.0,110,10,,6.21,29.911417,,,TRUE,,,TRUE,,,,,CLR,,,,,,,,VFR,,,,,,,,,,,,METAR,9.0
KLXL 052059Z AUTO 36005KT 10SM SCT020 02/M01 A2997 RMK AO2,KLXL,2019-01-05T20:59:00Z,45.95,-94.33,2.0,-1.0,360,5,,10.0,29.970472,,,TRUE,TRUE,,,,,,,SCT,2000,,,,,,,VFR,,,,,,,,,,,,SPECI,342.0
K1JM 052058Z AUTO 15007KT 10SM CLR 07/M06 A2973 RMK AO2 SLP091 T00691061 57027 $,K1JM,2019-01-05T20:58:00Z,47.75,-111.55,6.9,-6.1,150,7,,10.0,29.731298,1009.1,,TRUE,TRUE,TRUE,,,,,,CLR,,,,,,,,VFR,-2.7,,,,,,,,,,,METAR,1152.0
K0J4 052058Z AUTO 00000KT 10SM CLR 17/03 A3013 RMK AO2 SLP202 T01720033 55003 $,K0J4,2019-01-05T20:58:00Z,31.05,-86.32,17.2,3.3,0,0,,10.0,30.129921,1020.2,,TRUE,TRUE,TRUE,,,,,,CLR,,,,,,,,VFR,-0.3,,,,,,,,,,,METAR,96.0
KEUF 052058Z AUTO 30005KT 10SM CLR 17/03 A3007 RMK AO2 SLP182 T01720028 53001 $,KEUF,2019-01-05T20:58:00Z,31.95,-85.13,17.2,2.8,300,5,,10.0,30.070866,1018.2,,TRUE,TRUE,TRUE,,,,,,CLR,,,,,,,,VFR,0.1,,,,,,,,,,,METAR,87.0
KLGF 052058Z AUTO 05003KT 10SM FEW090 12/M04 A2999 RMK AO2 SLPNO T01221041 56017 PNO $,KLGF,2019-01-05T20:58:00Z,32.87,-114.4,12.2,-4.1,50,3,,10.0,29.991142,,,TRUE,TRUE,TRUE,,,,,,FEW,9000,,,,,,,VFR,-1.7,,,,,,,,,,,METAR,132.0
K1FM 052058Z AUTO 17003KT 10SM CLR 06/M06 A2973 RMK AO2 SLP084 T00571064 57025 $,K1FM,2019-01-05T20:58:00Z,47.6,-112.32,5.7,-6.4,170,3,,10.0,29.731298,1008.4,,TRUE,TRUE,TRUE,,,,,,CLR,,,,,,,,VFR,-2.5,,,,,,,,,,,METAR,1116.0
K1EM 052058Z AUTO 09014KT 10SM M 07/M05 A2978 RMK AO2 SLP109 T00681047 57022 $,K1EM,2019-01-05T20:58:00Z,47.45,-109.42,6.8,-4.7,90,14,,10.0,29.778543,1010.9,,TRUE,TRUE,TRUE,,,,,,,,,,,,,,,-2.2,,,,,,,,,,,METAR,1116.0
K1AM 052058Z AUTO 08006KT 10SM CLR 12/M08 A2973 RMK AO2 SLP029 T01171082 57026 $,K1AM,2019-01-05T20:58:00Z,47.28,-110.8,11.7,-8.2,80,6,,10.0,29.731298,1002.9,,TRUE,TRUE,TRUE,,,,,,CLR,,,,,,,,VFR,-2.6,,,,,,,,,,,METAR,1219.0
K1HM 052058Z AUTO 15008KT 10SM CLR 07/M07 A2973 RMK AO2 SLP079 T00741073 57023 $,K1HM,2019-01-05T20:58:00Z,,,7.4,-7.3,150,8,,10.0,29.731298,1007.9,,TRUE,TRUE,TRUE,,,,,,CLR,,,,,,,,VFR,-2.3,,,,,,,,,,,METAR,
K1GM 052058Z AUTO 17018KT 10SM CLR 07/M06 A2971 RMK AO2 SLP074 T00671065 57029 $,K1GM,2019-01-05T20:58:00Z,47.33,-112.1,6.7,-6.5,170,18,,10.0,29.71063,1007.4,,TRUE,TRUE,TRUE,,,,,,CLR,,,,,,,,VFR,-2.9,,,,,,,,,,,METAR,1311.0
KM63 052058Z AUTO 00000KT 10SM CLR 14/M08 A3010 RMK AO2 SLP221 WND DATA ESTMD T01441077,KM63,2019-01-05T20:58:00Z,32.05,-106.15,14.4,-7.7,0,0,,10.0,30.100393,1022.1,,TRUE,TRUE,,,,,,,CLR,,,,,,,,VFR,,,,,,,,,,,,METAR,1283.0
K1BW 052058Z AUTO 11004KT 10SM CLR 13/M07 A2996 RMK AO2 SLP122 T01281071 56016 $,K1BW,2019-01-05T20:58:00Z,41.52,-104.0,12.8,-7.1,110,4,,10.0,29.958662,1012.2,,TRUE,TRUE,TRUE,,,,,,CLR,,,,,,,,VFR,-1.6,,,,,,,,,,,METAR,1607.0
KT70 052058Z AUTO 17011KT 10SM CLR 23/02 A3003 RMK AO2 SLP166 T02300016 57029 $,KT70,2019-01-05T20:58:00Z,29.12,-100.48,23.0,1.6,170,11,,10.0,30.029528,1016.6,,TRUE,TRUE,TRUE,,,,,,CLR,,,,,,,,VFR,-2.9,,,,,,,,,,,METAR,298.0
KSXS 052058Z AUTO 34007KT 9SM CLR 16/03 A3009 RMK AO2 SLP191 T01590029 55001,KSXS,2019-01-05T20:58:00Z,31.37,-85.85,15.9,2.9,340,7,,9.0,30.088583,1019.1,,TRUE,TRUE,,,,,,,CLR,,,,,,,,VFR,-0.1,,,,,,,,,,,METAR,122.0
KPOE 052058Z AUTO 27003KT 7SM CLR 18/04 A3015 RMK AO2 SLP212 T01840040 55010,KPOE,2019-01-05T20:58:00Z,31.05,-93.2,18.4,4.0,270,3,,7.0,30.15059,1021.2,,TRUE,TRUE,,,,,,,CLR,,,,,,,,VFR,-1.0,,,,,,,,,,,METAR,101.0
KLOR 052058Z AUTO 30005KT 10SM CLR 16/03 A3010 RMK AO2 SLP176 T01640033 55000,KLOR,2019-01-05T20:58:00Z,31.35,-85.75,16.4,3.3,300,5,,10.0,30.100393,1017.6,,TRUE,TRUE,,,,,,,CLR,,,,,,,,VFR,0.0,,,,,,,,,,,METAR,74.0
KHLR 052058Z AUTO 20007KT 10SM CLR 23/M01 A3004 RMK AO2 SLP168 T02301006 57023,KHLR,2019-01-05T20:58:00Z,31.13,-97.72,23.0,-0.6,200,7,,10.0,30.041338,1016.8,,TRUE,TRUE,,,,,,,CLR,,,,,,,,VFR,-2.3,,,,,,,,,,,SPECI,283.0
KGRK 052058Z AUTO 17010KT 10SM CLR 22/M01 A3007 RMK AO2 SLP181 T02221009 56025,KGRK,2019-01-05T20:58:00Z,31.07,-97.83,22.2,-0.9,170,10,,10.0,30.070866,1018.1,,TRUE,TRUE,,,,,,,CLR,,,,,,,,VFR,-2.5,,,,,,,,,,,METAR,309.0
KBKF 052058Z 07005KT 10SM FEW120 BNK200 15/M08 A2995 RMK AO2A SLP110 T01491085 57015,KBKF,2019-01-05T20:58:00Z,39.72,-104.75,14.9,-8.5,70,5,,10.0,29.949802,1011.0,,,TRUE,,,,,,,FEW,12000,,,,,,,VFR,-1.5,,,,,,,,,,,METAR,1726.0
K9L2 052058Z AUTO 00000KT 9SM FEW290 07/M07 A2993 RMK AO2 SLP142 T00671074 57020,K9L2,2019-01-05T20:58:00Z,34.97,-117.87,6.7,-7.4,0,0,,9.0,29.929134,1014.2,,TRUE,TRUE,,,,,,,FEW,29000,,,,,,,VFR,-2.0,,,,,,,,,,,METAR,701.0
KMRH 052058Z AUTO 28017G24KT 10SM CLR 15/05 A2977 RMK AO2 SLP081 T01500050 53023 $,KMRH,2019-01-05T20:58:00Z,34.73,-76.65,15.0,5.0,280,17,24,10.0,29.769686,1008.1,,TRUE,TRUE,TRUE,,,,,,CLR,,,,,,,,VFR,2.3,,,,,,,,,,,METAR,3.0
KMEI 052058Z 30006KT 10SM CLR 18/03 A3014 RMK AO2 SLP206 I1000136 T01780033 55004,KMEI,2019-01-05T20:58:00Z,32.33,-88.75,17.8,3.3,300,6,,10.0,30.138779,1020.6,,,TRUE,,,,,,,CLR,,,,,,,,VFR,-0.4,,,,,,,,,,,METAR,89.0
RKSO 052058Z 09004KT 7SM SCT190 M10/M13 A3036 RMK AO2A SLP285 T11031134 55002,RKSO,2019-01-05T20:58:00Z,37.07,127.02,-10.3,-13.4,90,4,,7.0,30.360237,1028.5,,,TRUE,,,,,,,SCT,19000,,,,,,,VFR,-0.2,,,,,,,,,,,SPECI,12.0
KPVU 052058Z COR 27006KT 8SM OVC180 M02/M04 A2995 RMK AO2 SLP181 T10171044 56028,KPVU,2019-01-05T20:58:00Z,40.22,-111.72,-1.7,-4.4,270,6,,8.0,29.949802,1018.1,TRUE,,TRUE,,,,,,,OVC,18000,,,,,,,VFR,-2.8,,,,,,,,,,,METAR,1369.0
K1KM 052058Z AUTO 19003KT 10SM CLR 07/M07 A2981 RMK AO2 SLP114 T00741073 57022 $,K1KM,2019-01-05T20:58:00Z,46.45,-109.8,7.4,-7.3,190,3,,10.0,29.811024,1011.4,,TRUE,TRUE,TRUE,,,,,,CLR,,,,,,,,VFR,-2.2,,,,,,,,,,,METAR,1330.0
K1OM 052058Z AUTO 14011KT 10SM CLR 09/M03 A2979 RMK AO2 SLP104 T00891026 57018 $,K1OM,2019-01-05T20:58:00Z,47.33,-108.93,8.9,-2.6,140,11,,10.0,29.790354,1010.4,,TRUE,TRUE,TRUE,,,,,,CLR,,,,,,,,VFR,-1.8,,,,,,,,,,,METAR,1086.0
K1LM 052058Z AUTO 17011KT 10SM CLR 07/M06 A2979 RMK AO2 SLP108 T00721061 57023 $,K1LM,2019-01-05T20:58:00Z,46.7,-109.73,7.2,-6.1,170,11,,10.0,29.790354,1010.8,,TRUE,TRUE,TRUE,,,,,,CLR,,,,,,,,VFR,-2.3,,,,,,,,,,,METAR,1414.0
K1CM 052058Z AUTO 14010KT 10SM CLR 11/M07 A2975 RMK AO2 SLP088 T01081069 57026 $,K1CM,2019-01-05T20:58:00Z,47.1,-110.17,10.8,-6.9,140,10,,10.0,29.749016,1008.8,,TRUE,TRUE,TRUE,,,,,,CLR,,,,,,,,VFR,-2.6,,,,,,,,,,,METAR,1337.0
KBAD 052058Z 20003KT 7SM CLR 19/03 A3013 RMK AO2A SLPNO WND DATA ESTMD ALSTG/SLPNO ESTMD $,KBAD,2019-01-05T20:58:00Z,32.5,-93.67,19.0,3.0,200,3,,7.0,30.129921,,,,TRUE,TRUE,,,,,,CLR,,,,,,,,VFR,,,,,,,,,,,,METAR,51.0
KHEY 052058Z AUTO 30006KT 10SM CLR 16/04 A3009 RMK AO2 SLP192 T01620037 55001,KHEY,2019-01-05T20:58:00Z,31.35,-85.65,16.2,3.7,300,6,,10.0,30.088583,1019.2,,TRUE,TRUE,,,,,,,CLR,,,,,,,,VFR,-0.1,,,,,,,,,,,METAR,97.0
OAIX 052058Z 24003KT 6000 BR CLR M03/M05 A3022 RMK AO2A SLP219 T10331052 57008 $,OAIX,2019-01-05T20:58:00Z,34.95,69.27,-3.3,-5.2,240,3,,3.73,30.221457,1021.9,,,TRUE,TRUE,,,,,BR,CLR,,,,,,,,MVFR,-0.8,,,,,,,,,,,METAR,1492.0
KEDW 052058Z 00000KT 70SM FEW040 BKN120 07/M07 A2992 RMK AO2A SLP140 T00741075 57019,KEDW,2019-01-05T20:58:00Z,34.88,-117.87,7.4,-7.5,0,0,,70.0,29.920275,1014.0,,,TRUE,,,,,,,FEW,4000,BKN,12000,,,,,VFR,-1.9,,,,,,,,,,,SPECI,702.0
KROG 052058Z 25009KT 10SM CLR 18/02 A3007 RMK AO2 SLP181 T01780022 55007,KROG,2019-01-05T20:58:00Z,36.37,-94.08,17.8,2.2,250,9,,10.0,30.070866,1018.1,,,TRUE,,,,,,,CLR,,,,,,,,VFR,-0.7,,,,,,,,,,,METAR,415.0
KSKA 052058Z AUTO 06007KT 10SM BKN170 BKN190 03/02 A2959 RMK AO2 SLP038 T00310018 57029 $,KSKA,2019-01-05T20:58:00Z,47.62,-117.65,3.1,1.8,60,7,,10.0,29.589567,1003.8,,TRUE,TRUE,TRUE,,,,,,BKN,17000,BKN,19000,,,,,VFR,-2.9,,,,,,,,,,,SPECI,750.0
KSUU 052058Z AUTO 11004KT 10SM OVC041 11/06 A2966 RMK AO2 SLP051 T01060060 57028 $,KSUU,2019-01-05T20:58:00Z,38.27,-121.92,10.6,6.0,110,4,,10.0,29.660433,1005.1,,TRUE,TRUE,TRUE,,,,,,OVC,4100,,,,,,,VFR,-2.8,,,,,,,,,,,METAR,19.0
KRIV 052058Z AUTO 16005KT 10SM CLR 12/M01 A2997 RMK AO2 SLP152 T01241015 57018,KRIV,2019-01-05T20:58:00Z,33.87,-117.27,12.4,-1.5,160,5,,10.0,29.970472,1015.2,,TRUE,TRUE,,,,,,,CLR,,,,,,,,VFR,-1.8,,,,,,,,,,,METAR,469.0
KGFA 052058Z AUTO 03003KT 10SM FEW220 09/M06 A2974 RMK AO2 SLP090 T00911059 57029 $,KGFA,2019-01-05T20:58:00Z,47.5,-111.17,9.1,-5.9,30,3,,10.0,29.740158,1009.0,,TRUE,TRUE,TRUE,,,,,,FEW,22000,,,,,,,VFR,-2.9,,,,,,,,,,,METAR,1075.0
KFHU 052058Z AUTO 02003KT 10SM BKN140 16/00 A3007 RMK AO2 SLP153 T01611003 57022,KFHU,2019-01-05T20:58:00Z,31.58,-110.35,16.1,-0.3,20,3,,10.0,30.070866,1015.3,,TRUE,TRUE,,,,,,,BKN,14000,,,,,,,VFR,-2.2,,,,,,,,,,,METAR,1438.0
KFEW 052058Z AUTO 19006KT 10SM SCT180 13/M13 A2997 RMK AO2 SLP126 T01311131 56017 $,KFEW,2019-01-05T20:58:00Z,41.13,-104.87,13.1,-13.1,190,6,,10.0,29.970472,1012.6,,TRUE,TRUE,TRUE,,,,,,SCT,18000,,,,,,,VFR,-1.7,,,,,,,,,,,METAR,1878.0
KFCS 052058Z AUTO 00000KT 10SM FEW240 15/M10 A2994 RMK AO2 SLP145 T01501099 56013 $,KFCS,2019-01-05T20:58:00Z,38.67,-104.77,15.0,-9.9,0,0,,10.0,29.940945,1014.5,,TRUE,TRUE,TRUE,,,,,,FEW,24000,,,,,,,VFR,-1.3,,,,,,,,,,,METAR,1789.0
KDMA 052058Z AUTO 00000KT 10SM BKN160 22/M01 A2998 RMK AO2 SLP130 T02171010 57025 $,KDMA,2019-01-05T20:58:00Z,32.17,-110.87,21.7,-1.0,0,0,,10.0,29.97933,1013.0,,TRUE,TRUE,TRUE,,,,,,BKN,16000,,,,,,,VFR,-2.5,,,,,,,,,,,METAR,824.0
KCWN 052058Z AUTO 14004KT 10SM SCT220 12/M10 A2994 RMK AO2 SLP011 T01241099 56012 PWINO $,KCWN,2019-01-05T20:58:00Z,38.75,-104.85,12.4,-9.9,140,4,,10.0,29.940945,1001.1,,TRUE,TRUE,TRUE,,,,TRUE,,SCT,22000,,,,,,,VFR,-1.2,,,,,,,,,,,METAR,2040.0
KAFF 052058Z AUTO 18008KT 10SM CLR 16/M11 A2996 RMK AO2 SLP121 T01551111 55013,KAFF,2019-01-05T20:58:00Z,38.97,-104.82,15.5,-11.1,180,8,,10.0,29.958662,1012.1,,TRUE,TRUE,,,,,,,CLR,,,,,,,,VFR,-1.3,,,,,,,,,,,METAR,2003.0
MHSC 052058Z AUTO 34019G23KT 9999 CLR 30/16 A3000 RMK AO2 SLP119 T02980158 56020 $,MHSC,2019-01-05T20:58:00Z,14.37,-87.62,29.8,15.8,340,19,23,6.21,30.0,1011.9,,TRUE,TRUE,TRUE,,,,,,CLR,,,,,,,,VFR,-2.0,,,,,,,,,,,METAR,626.0
KSLI 052058Z 14006KT 10SM SCT023 OVC100 15/09 A2997 RMK AO2A SLP152 T01470093 56021,KSLI,2019-01-05T20:58:00Z,33.77,-118.03,14.7,9.3,140,6,,10.0,29.970472,1015.2,,,TRUE,,,,,,,SCT,2300,OVC,10000,,,,,VFR,-2.1,,,,,,,,,,,METAR,11.0
KMUO 052058Z AUTO 13021G29KT 10SM FEW160 FEW190 06/M05 A2974 RMK AO2 PK WND 12030/36 SLP086 T00601050 57026 $,KMUO,2019-01-05T20:58:00Z,43.03,-115.87,6.0,-5.0,130,21,29,10.0,29.740158,1008.6,,TRUE,TRUE,TRUE,,,,,,FEW,16000,FEW,19000,,,,,VFR,-2.6,,,,,,,,,,,METAR,913.0
KLUF 052058Z AUTO 07003KT 10SM FEW170 18/00 A2995 RMK AO2 SLP141 T01781005 57025 $,KLUF,2019-01-05T20:58:00Z,33.52,-112.37,17.8,-0.5,70,3,,10.0,29.949802,1014.1,,TRUE,TRUE,TRUE,,,,,,FEW,17000,,,,,,,VFR,-2.5,,,,,,,,,,,SPECI,332.0
KLSV 052058Z AUTO 00000KT 10SM FEW140 SCT170 08/M06 A2998 RMK AO2 SLPNO T00811065 57018 $,KLSV,2019-01-05T20:58:00Z,36.22,-115.02,8.1,-6.5,0,0,,10.0,29.97933,,,TRUE,TRUE,TRUE,,,,,,FEW,14000,SCT,17000,,,,,VFR,-1.8,,,,,,,,,,,METAR,570.0
KINS 052058Z AUTO 01003KT 10SM FEW100 SCT130 BKN170 BKN200 07/M08 A2993 RMK AO2 SLP137 T00661078 56017 $,KINS,2019-01-05T20:58:00Z,36.58,-115.67,6.6,-7.8,10,3,,10.0,29.929134,1013.7,,TRUE,TRUE,TRUE,,,,,,FEW,10000,SCT,13000,BKN,17000,BKN,20000,VFR,-1.7,,,,,,,,,,,METAR,955.0
KHUA 052058Z AUTO 30006KT 9SM CLR 14/04 A3008 RMK AO2 SLP188 T01390038 53003,KHUA,2019-01-05T20:58:00Z,34.68,-86.68,13.9,3.8,300,6,,9.0,30.079725,1018.8,,TRUE,TRUE,,,,,,,CLR,,,,,,,,VFR,0.3,,,,,,,,,,,SPECI,209.0
KHMN 052058Z AUTO 00000KT 10SM CLR 11/M03 A3016 RMK AO2 SLP206 T01061035 57019 $,KHMN,2019-01-05T20:58:00Z,32.85,-106.08,10.6,-3.5,0,0,,10.0,30.159449,1020.6,,TRUE,TRUE,TRUE,,,,,,CLR,,,,,,,,VFR,-1.9,,,,,,,,,,,METAR,1248.0
K4MR 052058Z AUTO 26008KT 10SM CLR 16/M04 A3004 RMK AO2 SLP157 T01601042 57020 TSNO $,K4MR,2019-01-05T20:58:00Z,34.3,-103.8,16.0,-4.2,260,8,,10.0,30.041338,1015.7,,TRUE,TRUE,TRUE,,TRUE,,,,CLR,,,,,,,,VFR,-2.0,,,,,,,,,,,METAR,1326.0
K1YT 052058Z AUTO 08009KT 10SM CLR 07/M01 A2954 RMK AO2 SLPNO T00651013 57035 $,K1YT,2019-01-05T20:58:00Z,46.67,-120.45,6.5,-1.3,80,9,,10.0,29.53937,,,TRUE,TRUE,TRUE,,,,,,CLR,,,,,,,,VFR,-3.5,,,,,,,,,,,METAR,438.0
KCVS 052058Z AUTO 26011KT 10SM CLR 18/M08 A3003 RMK AO2 SLP151 T01781076 57019 $,KCVS,2019-01-05T20:58:00Z,34.37,-103.32,17.8,-7.6,260,11,,10.0,30.029528,1015.1,,TRUE,TRUE,TRUE,,,,,,CLR,,,,,,,,VFR,-1.9,,,,,,,,,,,METAR,1309.0
KBIF 052058Z AUTO 00000KT 8SM CLR 13/M06 A3012 RMK AO2 SLP186 T01281065 57020 $,KBIF,2019-01-05T20:58:00Z,31.85,-106.38,12.8,-6.5,0,0,,8.0,30.121063,1018.6,,TRUE,TRUE,TRUE,,,,,,CLR,,,,,,,,VFR,-2.0,,,,,,,,,,,METAR,1203.0
PAFB 052058Z AUTO 00000KT 6SM HZ M M36/M39 A2998,PAFB,2019-01-05T20:58:00Z,64.83,-147.62,-36.0,-39.0,0,0,,6.0,29.97933,,,TRUE,,,,,,,HZ,,,,,,,,,,,,,,,,,,,,,METAR,137.0
PHNG 052057Z 07009G16KT 10SM FEW049 26/16 A3013 RMK AO2 SLP197 T02560161 50007 $,PHNG,2019-01-05T20:57:00Z,21.43,-157.77,25.6,16.1,70,9,16,10.0,30.129921,1019.7,,,TRUE,TRUE,,,,,,FEW,4900,,,,,,,VFR,0.7,,,,,,,,,,,SPECI,3.0
KMWN 052057Z 29017KT 80SM FEW/// SCT040 BKN060 BKN080 BKN100 BKN160 M01/M04 RMK TPS LWR FEW040,KMWN,2019-01-05T20:57:00Z,44.27,-71.3,-1.0,-4.0,290,17,,80.0,,,,,,,,,,,,SCT,4000,BKN,6000,BKN,8000,BKN,10000,VFR,,,,,,,,,,,,SPECI,1910.0
EQYG 052057Z AUTO 27005KT 10SM FEW031 04/ A2988 RMK AO2 RAB13E24 SLP116 P0000 60000 T0039 58007 TSNO $ ,EQYG,2019-01-05T20:57:00Z,,,3.9,,270,5,,10.0,29.878937,1011.6,,TRUE,TRUE,TRUE,,TRUE,,,,FEW,3100,,,,,,,VFR,-0.7,,,,,0.005,0.005,,,,,METAR,
KEAR 052057Z AUTO 36006KT 10SM CLR 09/03 A2997 RMK AO2 SLP156 T00890028 57005,KEAR,2019-01-05T20:57:00Z,40.72,-99.0,8.9,2.8,360,6,,10.0,29.970472,1015.6,,TRUE,TRUE,,,,,,,CLR,,,,,,,,VFR,-0.5,,,,,,,,,,,METAR,649.0
KNJM 052057Z AUTO 31008KT 10SM CLR 16/05 A2979 RMK AO2 SLP090 T01610050 53022,KNJM,2019-01-05T20:57:00Z,34.67,-77.02,16.1,5.0,310,8,,10.0,29.790354,1009.0,,TRUE,TRUE,,,,,,,CLR,,,,,,,,VFR,2.2,,,,,,,,,,,METAR,7.0
PAJC 052057Z AUTO 17003KT 10SM CLR M03/M06 A2990 RMK AO2 SLP126 T10331061 51006 FZRANO,PAJC,2019-01-05T20:57:00Z,56.32,-158.37,-3.3,-6.1,170,3,,10.0,29.899607,1012.6,,TRUE,TRUE,,,,TRUE,,,CLR,,,,,,,,VFR,0.6,,,,,,,,,,,METAR,15.0
KNYL 052057Z AUTO 06005KT 10SM FEW080 BKN100 OVC120 12/M01 A2999 RMK AO2 SLP156 T01221011 56017 $,KNYL,2019-01-05T20:57:00Z,32.63,-114.62,12.2,-1.1,60,5,,10.0,29.991142,1015.6,,TRUE,TRUE,TRUE,,,,,,FEW,8000,BKN,10000,OVC,12000,,,VFR,-1.7,,,,,,,,,,,METAR,65.0
KNSI 052057Z AUTO 14010KT 10SM OVC011 14/ A2993 RMK AO2 SLP132 60000 T0139 56018 $,KNSI,2019-01-05T20:57:00Z,33.22,-119.45,13.9,,140,10,,10.0,29.929134,1013.2,,TRUE,TRUE,TRUE,,,,,,OVC,1100,,,,,,,MVFR,-1.8,,,,,,0.005,,,,,METAR,154.0
KNTD 052057Z 13011KT 10SM FEW018 BKN032 OVC048 14/10 A2996 RMK AO2 RAE54 SLP146 P0000 60000 T01390100 58009 $,KNTD,2019-01-05T20:57:00Z,34.12,-119.12,13.9,10.0,130,11,,10.0,29.958662,1014.6,,,TRUE,TRUE,,,,,,FEW,1800,BKN,3200,OVC,4800,,,VFR,-0.9,,,,,0.005,0.005,,,,,METAR,4.0
KGAI 052056Z AUTO 31010G17KT 10SM CLR 09/05 A2966 RMK AO2 SLP074 60001 T00940050 53032,KGAI,2019-01-05T20:56:00Z,39.17,-77.17,9.4,5.0,310,10,17,10.0,29.660433,1007.4,,TRUE,TRUE,,,,,,,CLR,,,,,,,,VFR,3.2,,,,,,0.01,,,,,METAR,165.0
KCWI 052056Z AUTO 27010KT 10SM CLR 08/05 A2992 RMK AO2 SLP161 T00830050 53010,KCWI,2019-01-05T20:56:00Z,41.82,-90.32,8.3,5.0,270,10,,10.0,29.920275,1016.1,,TRUE,TRUE,,,,,,,CLR,,,,,,,,VFR,1.0,,,,,,,,,,,METAR,216.0
KCVN 052056Z AUTO 25010KT 10SM CLR 19/M08 A3003 RMK AO2 SLP163 T01891078 56018,KCVN,2019-01-05T20:56:00Z,34.42,-103.07,18.9,-7.8,250,10,,10.0,30.029528,1016.3,,TRUE,TRUE,,,,,,,CLR,,,,,,,,VFR,-1.8,,,,,,,,,,,METAR,1284.0
KCOD 052056Z AUTO 15007KT 10SM CLR 08/M07 A2986 RMK AO2 SLP124 T00831067 56018,KCOD,2019-01-05T20:56:00Z,44.52,-109.02,8.3,-6.7,150,7,,10.0,29.861221,1012.4,,TRUE,TRUE,,,,,,,CLR,,,,,,,,VFR,-1.8,,,,,,,,,,,METAR,1553.0
KCIU 052056Z AUTO 27006KT 5SM BR OVC007 02/01 A2965 RMK AO2 SLP070 T00220011 53010 FZRANO,KCIU,2019-01-05T20:56:00Z,46.25,-84.47,2.2,1.1,270,6,,5.0,29.648623,1007.0,,TRUE,TRUE,,,,TRUE,,BR,OVC,700,,,,,,,IFR,1.0,,,,,,,,,,,METAR,244.0
KSUE 052056Z AUTO 25008KT 10SM CLR 06/00 A2973 RMK AO2 SLP092 T00560000 53016,KSUE,2019-01-05T20:56:00Z,44.85,-87.42,5.6,0.0,250,8,,10.0,29.731298,1009.2,,TRUE,TRUE,,,,,,,CLR,,,,,,,,VFR,1.6,,,,,,,,,,,METAR,221.0
KSQI 052056Z AUTO 25010KT 10SM CLR 11/04 A2991 RMK AO2 SLP152 T01060039 53010,KSQI,2019-01-05T20:56:00Z,41.75,-89.67,10.6,3.9,250,10,,10.0,29.911417,1015.2,,TRUE,TRUE,,,,,,,CLR,,,,,,,,VFR,1.0,,,,,,,,,,,METAR,197.0
KSKX 052056Z AUTO 33006KT 10SM CLR 01/M07 A3017 RMK AO2 SLP271 T00111067 55013 FZRANO $,KSKX,2019-01-05T20:56:00Z,36.45,-105.67,1.1,-6.7,330,6,,10.0,30.171259,1027.1,,TRUE,TRUE,TRUE,,,TRUE,,,CLR,,,,,,,,VFR,-1.3,,,,,,,,,,,METAR,2161.0
KSFZ 052056Z AUTO 36011KT 7SM RA OVC004 03/03 A2946 RMK AO2 SLP924 P0011 60024 T00280028 55004,KSFZ,2019-01-05T20:56:00Z,41.92,-71.5,2.8,2.8,360,11,,7.0,29.459646,992.4,,TRUE,TRUE,,,,,,RA,OVC,400,,,,,,,LIFR,-0.4,,,,,0.11,0.24,,,,,METAR,134.0
KSFM 052056Z AUTO 36007KT 7SM -RA OVC009 01/00 A2953 RMK AO2 RAB10 SLP007 6//// T00110000 56007 FZRANO PNO $,KSFM,2019-01-05T20:56:00Z,43.38,-70.72,1.1,0.0,360,7,,7.0,29.530512,1000.7,,TRUE,TRUE,TRUE,,,TRUE,,-RA,OVC,900,,,,,,,IFR,-0.7,,,,,,,,,,,METAR,74.0
KSDY 052056Z AUTO 11006KT 6SM BR OVC004 M01/M02 A2999 RMK AO2 SLP181 60000 T10111022 55006 FZRANO,KSDY,2019-01-05T20:56:00Z,47.7,-104.2,-1.1,-2.2,110,6,,6.0,29.991142,1018.1,,TRUE,TRUE,,,,TRUE,,BR,OVC,400,,,,,,,LIFR,-0.6,,,,,,0.005,,,,,METAR,605.0
KRUT 052056Z AUTO 35005KT 10SM CLR 03/M01 A2955 RMK AO2 SLP030 T00281011 53007 $,KRUT,2019-01-05T20:56:00Z,43.52,-72.95,2.8,-1.1,350,5,,10.0,29.551182,1003.0,,TRUE,TRUE,TRUE,,,,,,CLR,,,,,,,,VFR,0.7,,,,,,,,,,,METAR,240.0
KRKD 052056Z AUTO 02007KT 350V050 10SM UP OVC008 03/02 A2955 RMK AO2 RAB01E25UPB47 SLP009 P0000 60000 T00280017 58009,KRKD,2019-01-05T20:56:00Z,44.07,-69.08,2.8,1.7,20,7,,10.0,29.551182,1000.9,,TRUE,TRUE,,,,,,UP,OVC,800,,,,,,,IFR,-0.9,,,,,0.005,0.005,,,,,METAR,17.0
KPVG 052056Z AUTO 28008G14KT 10SM OVC043 13/06 A2970 RMK AO2 SLP057 6//// T01330061 53035 PNO $,KPVG,2019-01-05T20:56:00Z,36.78,-76.45,13.3,6.1,280,8,14,10.0,29.698818,1005.7,,TRUE,TRUE,TRUE,,,,,,OVC,4300,,,,,,,VFR,3.5,,,,,,,,,,,METAR,7.0
KLCI 052056Z AUTO 08008KT 10SM SCT055 OVC100 03/M03 A2954 RMK AO2 SLP020 60000 T00281028 58005 $,KLCI,2019-01-05T20:56:00Z,43.57,-71.42,2.8,-2.8,80,8,,10.0,29.53937,1002.0,,TRUE,TRUE,TRUE,,,,,,SCT,5500,OVC,10000,,,,,VFR,-0.5,,,,,,0.005,,,,,METAR,166.0
KLBL 052056Z AUTO 21009KT 10SM CLR 14/02 A2995 RMK AO2 SLP142 T01390017 55022,KLBL,2019-01-05T20:56:00Z,37.03,-100.97,13.9,1.7,210,9,,10.0,29.949802,1014.2,,TRUE,TRUE,,,,,,,CLR,,,,,,,,VFR,-2.2,,,,,,,,,,,METAR,879.0
KJAC 052056Z 00000KT 10SM CLR M07/M12 A2998 RMK AO2 SLP233 T10671122 56017,KJAC,2019-01-05T20:56:00Z,43.62,-110.73,-6.7,-12.2,0,0,,10.0,29.97933,1023.3,,,TRUE,,,,,,,CLR,,,,,,,,VFR,-1.7,,,,,,,,,,,METAR,1961.0
KIWD 052056Z AUTO 30009KT 10SM UP OVC006 M01/M02 A2983 RMK AO2 UPB21 SLP120 6//// T10061017 53037 FZRANO PNO $,KIWD,2019-01-05T20:56:00Z,46.52,-90.12,-0.6,-1.7,300,9,,10.0,29.828741,1012.0,,TRUE,TRUE,TRUE,,,TRUE,,UP,OVC,600,,,,,,,IFR,3.7,,,,,,,,,,,METAR,375.0
KILE 052056Z AUTO 18006KT 10SM CLR 23/01 A3008 RMK AO2 SLP207 T02280006 56024,KILE,2019-01-05T20:56:00Z,31.07,-97.67,22.8,0.6,180,6,,10.0,30.079725,1020.7,,TRUE,TRUE,,,,,,,CLR,,,,,,,,VFR,-2.4,,,,,,,,,,,METAR,258.0
KHYS 052056Z AUTO 16006KT 10SM CLR 18/01 A2993 RMK AO2 SLP142 T01780011 58021,KHYS,2019-01-05T20:56:00Z,38.85,-99.27,17.8,1.1,160,6,,10.0,29.929134,1014.2,,TRUE,TRUE,,,,,,,CLR,,,,,,,,VFR,-2.1,,,,,,,,,,,METAR,609.0
KHNB 052056Z AUTO 20008KT 10SM CLR 12/06 A3002 RMK AO2 SLP168 T01170056 53003,KHNB,2019-01-05T20:56:00Z,38.25,-86.95,11.7,5.6,200,8,,10.0,30.02067,1016.8,,TRUE,TRUE,,,,,,,CLR,,,,,,,,VFR,0.3,,,,,,,,,,,METAR,161.0
KHEF 052056Z 32018G23KT 10SM CLR 13/03 A2969 RMK AO2 SLP065 6//// T01280033 53031 PNO $,KHEF,2019-01-05T20:56:00Z,38.72,-77.52,12.8,3.3,320,18,23,10.0,29.68996,1006.5,,,TRUE,TRUE,,,,,,CLR,,,,,,,,VFR,3.1,,,,,,,,,,,METAR,59.0
KHDN 052056Z AUTO 00000KT 10SM CLR M02/M07 A3006 RMK AO2 SLP224 T10221072 56019 FZRANO,KHDN,2019-01-05T20:56:00Z,40.47,-107.22,-2.2,-7.2,0,0,,10.0,30.059055,1022.4,,TRUE,TRUE,,,,TRUE,,,CLR,,,,,,,,VFR,-1.9,,,,,,,,,,,METAR,2012.0
KGXY 052056Z AUTO 14006KT 10SM CLR 14/M06 A2993 RMK AO2 SLP151 T01391061 56020,KGXY,2019-01-05T20:56:00Z,40.42,-104.62,13.9,-6.1,140,6,,10.0,29.929134,1015.1,,TRUE,TRUE,,,,,,,CLR,,,,,,,,VFR,-2.0,,,,,,,,,,,METAR,1420.0
KGUC 052056Z AUTO 09004KT 10SM CLR M08/M14 A3020 RMK AO2 SLP341 T10831139 56025 FZRANO,KGUC,2019-01-05T20:56:00Z,38.52,-106.92,-8.3,-13.9,90,4,,10.0,30.200787,1034.1,,TRUE,TRUE,,,,TRUE,,,CLR,,,,,,,,VFR,-2.5,,,,,,,,,,,METAR,2339.0
KGDV 052056Z AUTO 13004KT 10SM CLR 04/M03 A2994 RMK AO2 SLP159 T00441033 56010,KGDV,2019-01-05T20:56:00Z,47.12,-104.78,4.4,-3.3,130,4,,10.0,29.940945,1015.9,,TRUE,TRUE,,,,,,,CLR,,,,,,,,VFR,-1.0,,,,,,,,,,,METAR,749.0
KGBD 052056Z AUTO 13008KT 10SM CLR 18/01 A2995 RMK AO2 SLP144 T01830011 58018,KGBD,2019-01-05T20:56:00Z,38.35,-98.87,18.3,1.1,130,8,,10.0,29.949802,1014.4,,TRUE,TRUE,,,,,,,CLR,,,,,,,,VFR,-1.8,,,,,,,,,,,METAR,575.0
KBMI 052056Z 24011KT 10SM CLR 11/04 A2995 RMK AO2 SLP143 T01060044 53005,KBMI,2019-01-05T20:56:00Z,40.47,-88.92,10.6,4.4,240,11,,10.0,29.949802,1014.3,,,TRUE,,,,,,,CLR,,,,,,,,VFR,0.5,,,,,,,,,,,METAR,267.0
KASH 052056Z 34007KT 7SM -RA SCT019 SCT046 OVC070 03/02 A2953 RMK AO2 SLP012 P0000 60001 T00330022 55006 $,KASH,2019-01-05T20:56:00Z,42.78,-71.52,3.3,2.2,340,7,,7.0,29.530512,1001.2,,,TRUE,TRUE,,,,,-RA,SCT,1900,SCT,4600,OVC,7000,,,VFR,-0.6,,,,,0.005,0.01,,,,,METAR,61.0
KAIZ 052056Z AUTO 26007KT 10SM CLR 17/02 A3003 RMK AO2 SLP169 T01720022 55007,KAIZ,2019-01-05T20:56:00Z,38.1,-92.53,17.2,2.2,260,7,,10.0,30.029528,1016.9,,TRUE,TRUE,,,,,,,CLR,,,,,,,,VFR,-0.7,,,,,,,,,,,METAR,265.0
K7N0 052056Z AUTO 00000KT 10SM CLR 17/04 A3018 RMK AO2 SLP220 T01670044 55010,K7N0,2019-01-05T20:56:00Z,29.95,-90.07,16.7,4.4,0,0,,10.0,30.180119,1022.0,,TRUE,TRUE,,,,,,,CLR,,,,,,,,VFR,-1.0,,,,,,,,,,,METAR,0.0
PAWG 052056Z 30004KT 10SM CLR M03/M08 A2961,PAWG,2019-01-05T20:56:00Z,56.48,-132.37,-3.0,-8.0,300,4,,10.0,29.610237,,,,,,,,,,,CLR,,,,,,,,VFR,,,,,,,,,,,,METAR,11.0
KEGE 052056Z 00000KT 10SM CLR M02/M08 A3015 RMK AO2 SLP290 T10221083 56029 FZRANO,KEGE,2019-01-05T20:56:00Z,39.63,-106.92,-2.2,-8.3,0,0,,10.0,30.15059,1029.0,,,TRUE,,,,TRUE,,,CLR,,,,,,,,VFR,-2.9,,,,,,,,,,,METAR,1993.0
KEWK 052056Z AUTO 18005KT 10SM CLR 15/02 A2999 RMK AO2 SLP157 T01500022 58013,KEWK,2019-01-05T20:56:00Z,38.03,-97.27,15.0,2.2,180,5,,10.0,29.991142,1015.7,,TRUE,TRUE,,,,,,,CLR,,,,,,,,VFR,-1.3,,,,,,,,,,,METAR,467.0
KESC 052056Z AUTO 30009KT 10SM OVC024 04/M01 A2975 RMK AO2 SLP099 T00441006 53032,KESC,2019-01-05T20:56:00Z,45.75,-87.08,4.4,-0.6,300,9,,10.0,29.749016,1009.9,,TRUE,TRUE,,,,,,,OVC,2400,,,,,,,MVFR,3.2,,,,,,,,,,,METAR,187.0
KFAM 052056Z AUTO 28004KT 10SM CLR 18/02 A3001 RMK AO2 SLP163 T01780022 55004,KFAM,2019-01-05T20:56:00Z,37.77,-90.42,17.8,2.2,280,4,,10.0,30.008858,1016.3,,TRUE,TRUE,,,,,,,CLR,,,,,,,,VFR,-0.4,,,,,,,,,,,METAR,288.0
KFCI 052056Z AUTO 29013G16KT 10SM CLR 14/04 A2970 RMK AO2 SLP075 T01440039 51031,KFCI,2019-01-05T20:56:00Z,37.4,-77.52,14.4,3.9,290,13,16,10.0,29.698818,1007.5,,TRUE,TRUE,,,,,,,CLR,,,,,,,,VFR,3.1,,,,,,,,,,,METAR,72.0
KFOD 052056Z AUTO VRB04KT 10SM CLR 12/03 A2996 RMK AO2 SLP179 T01170028 53008,KFOD,2019-01-05T20:56:00Z,42.53,-94.17,11.7,2.8,0,4,,10.0,29.958662,1017.9,,TRUE,TRUE,,,,,,,CLR,,,,,,,,VFR,0.8,,,,,,,,,,,METAR,355.0
KFNL 052056Z AUTO 16008KT 10SM CLR 14/M07 A2994 RMK AO2 SLP126 6//// T01441067 56017 PNO $,KFNL,2019-01-05T20:56:00Z,40.45,-105.02,14.4,-6.7,160,8,,10.0,29.940945,1012.6,,TRUE,TRUE,TRUE,,,,,,CLR,,,,,,,,VFR,-1.7,,,,,,,,,,,METAR,1529.0
MMAS 052056Z 17005KT 9SM BKN200 25/02 A3024 RMK 8/008 HZY PRESFR,MMAS,2019-01-05T20:56:00Z,21.7,-102.32,25.0,2.0,170,5,,9.0,30.239174,,,,,,,,,,,BKN,20000,,,,,,,VFR,,,,,,,,,,,,METAR,1863.0
KRDR 052056Z AUTO 36011G20KT 10SM OVC009 M03/M05 A3008 RMK AO2 CIG 009V011 SLP203 T10341054 52024 $,KRDR,2019-01-05T20:56:00Z,47.97,-97.4,-3.4,-5.4,360,11,20,10.0,30.079725,1020.3,,TRUE,TRUE,TRUE,,,,,,OVC,900,,,,,,,IFR,2.4,,,,,,,,,,,METAR,278.0
KDAA 052056Z AUTO 30010G18KT 10SM CLR 12/05 A2966 RMK AO2 PK WND 31027/03 SLP047 60000 T01230048 52033,KDAA,2019-01-05T20:56:00Z,38.72,-77.17,12.3,4.8,300,10,18,10.0,29.660433,1004.7,,TRUE,TRUE,,,,,,,CLR,,,,,,,,VFR,3.3,,,,,,,,,,,SPECI,21.0
KGTB 052056Z AUTO 01005KT 10SM OVC016 02/M01 A2964 RMK AO2 SLP045 T00171014 53016 RVRNO $,KGTB,2019-01-05T20:56:00Z,44.07,-75.72,1.7,-1.4,10,5,,10.0,29.639763,1004.5,,TRUE,TRUE,TRUE,,,,,,OVC,1600,,,,,,,MVFR,1.6,,,,,,,,,,,METAR,207.0
KY50 052056Z AUTO 28015G19KT 10SM CLR 08/M01 A2980 RMK AO2 SLP119 6//// T00831006 53012 $,KY50,2019-01-05T20:56:00Z,44.03,-89.3,8.3,-0.6,280,15,19,10.0,29.799213,1011.9,,TRUE,TRUE,TRUE,,,,,,CLR,,,,,,,,VFR,1.2,,,,,,,,,,,METAR,262.0
KDYS 052056Z 17011KT 10SM CLR 21/M02 A3007 RMK AO2A SLP175 ALSTG/SLP ESTMD T02101022 $,KDYS,2019-01-05T20:56:00Z,32.42,-99.83,21.0,-2.2,170,11,,10.0,30.070866,1017.5,,,TRUE,TRUE,,,,,,CLR,,,,,,,,VFR,,,,,,,,,,,,SPECI,545.0
KVPZ 052056Z AUTO 24011KT 10SM CLR 12/03 A2988 RMK AO2 SLP121 T01220028 53009 TSNO,KVPZ,2019-01-05T20:56:00Z,41.45,-87.0,12.2,2.8,240,11,,10.0,29.878937,1012.1,,TRUE,TRUE,,,TRUE,,,,CLR,,,,,,,,VFR,0.9,,,,,,,,,,,METAR,231.0
PAFE 052056Z AUTO 33006KT 10SM CLR M01/M08 A2966 RMK AO2 SLP055 T10061078 58011 FZRANO,PAFE,2019-01-05T20:56:00Z,56.97,-133.92,-0.6,-7.8,330,6,,10.0,29.660433,1005.5,,TRUE,TRUE,,,,TRUE,,,CLR,,,,,,,,VFR,-1.1,,,,,,,,,,,METAR,9.0
PABV 052056Z AUTO 17004KT 4SM -SN BR OVC003 M13/M15 A2988 RMK AO2 SLP127 P0000 60000 T11331150 50001 FZRANO,PABV,2019-01-05T20:56:00Z,61.42,-149.52,-13.3,-15.0,170,4,,4.0,29.878937,1012.7,,TRUE,TRUE,,,,TRUE,,-SN BR,OVC,300,,,,,,,LIFR,0.1,,,,,0.005,0.005,,,,,METAR,29.0
KNQI 052056Z AUTO 13009KT 10SM CLR 25/07 A3011 RMK AO2 SLP193 T02500067 56025 $,KNQI,2019-01-05T20:56:00Z,27.5,-97.82,25.0,6.7,130,9,,10.0,30.109253,1019.3,,TRUE,TRUE,TRUE,,,,,,CLR,,,,,,,,VFR,-2.5,,,,,,,,,,,METAR,15.0
PAGA 052056Z AUTO 27004KT 9SM -SN OVC012 M21/M23 A3006 RMK AO2 SNE1958B16 SLP184 P0000 60000 T12111233 51008 FZRANO,PAGA,2019-01-05T20:56:00Z,64.73,-156.93,-21.1,-23.3,270,4,,9.0,30.059055,1018.4,,TRUE,TRUE,,,,TRUE,,-SN,OVC,1200,,,,,,,MVFR,0.8,,,,,0.005,0.005,,,,,METAR,46.0
PAGL 052056Z AUTO 31010KT 7SM CLR M24/M26 A3006 RMK AO2 SLP175 T12391261 51007 FZRANO,PAGL,2019-01-05T20:56:00Z,64.55,-163.03,-23.9,-26.1,310,10,,7.0,30.059055,1017.5,,TRUE,TRUE,,,,TRUE,,,CLR,,,,,,,,VFR,0.7,,,,,,,,,,,METAR,8.0
PAHP 052056Z AUTO 08020KT 4SM BR OVC033 M12/M13 A2992 RMK AO2 SNE41 SLP168 P0000 60000 T11171128 51003 FZRANO,PAHP,2019-01-05T20:56:00Z,61.52,-166.15,-11.7,-12.8,80,20,,4.0,29.920275,1016.8,,TRUE,TRUE,,,,TRUE,,BR,OVC,3300,,,,,,,MVFR,0.3,,,,,0.005,0.005,,,,,METAR,5.0
PANI 052056Z AUTO 06003KT 9SM -SN OVC055 M14/M16 A2996 RMK AO2 SNB08E26B49 SLP113 P0000 60000 T11391156 51008 FZRANO,PANI,2019-01-05T20:56:00Z,61.58,-159.53,-13.9,-15.6,60,3,,9.0,29.958662,1011.3,,TRUE,TRUE,,,,TRUE,,-SN,OVC,5500,,,,,,,VFR,0.8,,,,,0.005,0.005,,,,,METAR,26.0
PAII 052056Z AUTO 08003KT 10SM CLR M12/M13 A2993 RMK AO2 SLP140 T11171128 51008 FZRANO,PAII,2019-01-05T20:56:00Z,58.18,-157.38,-11.7,-12.8,80,3,,10.0,29.929134,1014.0,,TRUE,TRUE,,,,TRUE,,,CLR,,,,,,,,VFR,0.8,,,,,,,,,,,METAR,30.0
KNYG 052056Z AUTO 33015G25KT 10SM CLR 13/04 A2968 RMK AO2 SLP050 60000 T01330039 53031,KNYG,2019-01-05T20:56:00Z,38.5,-77.28,13.3,3.9,330,15,25,10.0,29.681103,1005.0,,TRUE,TRUE,,,,,,,CLR,,,,,,,,VFR,3.1,,,,,,0.005,,,,,METAR,4.0
PARY 052056Z AUTO 18003KT 10SM BKN016 OVC021 M23/M26 A2996 RMK AO2 SLP178 60000 T12281261 51008 FZRANO,PARY,2019-01-05T20:56:00Z,64.73,-155.47,-22.8,-26.1,180,3,,10.0,29.958662,1017.8,,TRUE,TRUE,,,,TRUE,,,BKN,1600,OVC,2100,,,,,MVFR,0.8,,,,,,0.005,,,,,METAR,199.0
PARS 052056Z AUTO 00000KT 9SM -SN OVC042 M15/M17 A2998 RMK AO2 SLP155 P0000 60000 T11501172 50003 FZRANO $,PARS,2019-01-05T20:56:00Z,61.77,-161.32,-15.0,-17.2,0,0,,9.0,29.97933,1015.5,,TRUE,TRUE,TRUE,,,TRUE,,-SN,OVC,4200,,,,,,,VFR,0.3,,,,,0.005,0.005,,,,,METAR,16.0
PAPO 052056Z AUTO 00000KT 10SM CLR M24/M27 A3015 RMK AO2 SLP208 T12441272 51009 FZRANO,PAPO,2019-01-05T20:56:00Z,68.35,-166.8,-24.4,-27.2,0,0,,10.0,30.15059,1020.8,,TRUE,TRUE,,,,TRUE,,,CLR,,,,,,,,VFR,0.9,,,,,,,,,,,METAR,6.0
PAPM 052056Z AUTO 04013KT 10SM CLR M11/M12 A2989 RMK AO2 SNB31E42 SLP125 P0000 60000 T11111122 51003 FZRANO,PAPM,2019-01-05T20:56:00Z,59.02,-161.82,-11.1,-12.2,40,13,,10.0,29.890747,1012.5,,TRUE,TRUE,,,,TRUE,,,CLR,,,,,,,,VFR,0.3,,,,,0.005,0.005,,,,,METAR,5.0
PAPH 052056Z AUTO 08006KT 10SM CLR M08/M09 A2989 RMK AO2 SLP124 T10781094 50005 FZRANO,PAPH,2019-01-05T20:56:00Z,56.95,-158.62,-7.8,-9.4,80,6,,10.0,29.890747,1012.4,,TRUE,TRUE,,,,TRUE,,,CLR,,,,,,,,VFR,0.5,,,,,,,,,,,METAR,29.0
PAPG 052056Z 00000KT 10SM CLR M06/M06 A2964 RMK AO2 SLP039 T10561061 58011,PAPG,2019-01-05T20:56:00Z,56.82,-132.97,-5.6,-6.1,0,0,,10.0,29.639763,1003.9,,,TRUE,,,,,,,CLR,,,,,,,,VFR,-1.1,,,,,,,,,,,METAR,15.0
PAOU 052056Z AUTO 13015KT 10SM OVC040 01/M02 A2983 RMK AO2 SLP101 T00061017 51009 FZRANO,PAOU,2019-01-05T20:56:00Z,56.0,-161.17,0.6,-1.7,130,15,,10.0,29.828741,1010.1,,TRUE,TRUE,,,,TRUE,,,OVC,4000,,,,,,,VFR,0.9,,,,,,,,,,,METAR,4.0
PANW 052056Z AUTO 36007KT 9SM -SN OVC036 M13/M14 A2994 RMK AO2 SNB1957E15B39 SLP155 P0000 60000 T11281139 50007 FZRANO,PANW,2019-01-05T20:56:00Z,59.45,-157.37,-12.8,-13.9,360,7,,9.0,29.940945,1015.5,,TRUE,TRUE,,,,TRUE,,-SN,OVC,3600,,,,,,,VFR,0.7,,,,,0.005,0.005,,,,,METAR,92.0
PAMK 052056Z AUTO 03009KT 9SM -SN OVC007 M16/M17 A3002 RMK AO2 SNB08E22B39 SLP168 P0000 60000 T11561172 51003 FZRANO,PAMK,2019-01-05T20:56:00Z,63.48,-162.12,-15.6,-17.2,30,9,,9.0,30.02067,1016.8,,TRUE,TRUE,,,,TRUE,,-SN,OVC,700,,,,,,,IFR,0.3,,,,,0.005,0.005,,,,,METAR,28.0
PAMB 052056Z AUTO 05008KT 9SM -SN FEW039 M11/M13 A2995 RMK AO2 SNB11E21B37 SLP148 P0000 60000 T11111128 50007 FZRANO $,PAMB,2019-01-05T20:56:00Z,58.98,-159.05,-11.1,-12.8,50,8,,9.0,29.949802,1014.8,,TRUE,TRUE,TRUE,,,TRUE,,-SN,FEW,3900,,,,,,,VFR,0.7,,,,,0.005,0.005,,,,,METAR,16.0
PHNY 052056Z AUTO 30005KT 10SM OVC031 23/16 A3017 RMK AO2 SLP198 T02280156 50004,PHNY,2019-01-05T20:56:00Z,20.77,-156.93,22.8,15.6,300,5,,10.0,30.171259,1019.8,,TRUE,TRUE,,,,,,,OVC,3100,,,,,,,VFR,0.4,,,,,,,,,,,METAR,399.0
PPIZ 052056Z AUTO 05004KT 10SM CLR M27/M29 A3020 RMK AO2 SLP232 T12671294 51011 FZRANO,PPIZ,2019-01-05T20:56:00Z,69.73,-163.0,-26.7,-29.4,50,4,,10.0,30.200787,1023.2,,TRUE,TRUE,,,,TRUE,,,CLR,,,,,,,,VFR,1.1,,,,,,,,,,,METAR,8.0
PAWS 052056Z AUTO 00000KT 1/4SM FZFG OVC001 M20/M22 A2986 RMK AO2 VIS M1/4V1 1/2 SLP129 T12001217 50002 FZRANO RVRNO,PAWS,2019-01-05T20:56:00Z,61.57,-149.53,-20.0,-21.7,0,0,,0.25,29.861221,1012.9,,TRUE,TRUE,,,,TRUE,,FZFG,OVC,100,,,,,,,LIFR,0.2,,,,,,,,,,,METAR,107.0
PAWN 052056Z AUTO 02004KT 10SM CLR M30/M32 A3009 RMK AO2 SLP207 T13001322 51009 FZRANO,PAWN,2019-01-05T20:56:00Z,67.57,-162.98,-30.0,-32.2,20,4,,10.0,30.088583,1020.7,,TRUE,TRUE,,,,TRUE,,,CLR,,,,,,,,VFR,0.9,,,,,,,,,,,METAR,30.0
PAWM 052056Z AUTO 35007KT 10SM CLR M21/M23 A3003 RMK AO2 SLP179 T12061228 51008 FZRANO,PAWM,2019-01-05T20:56:00Z,64.68,-163.42,-20.6,-22.8,350,7,,10.0,30.029528,1017.9,,TRUE,TRUE,,,,TRUE,,,CLR,,,,,,,,VFR,0.8,,,,,,,,,,,METAR,82.0
PAVD 052056Z 08004KT 10SM FEW150 BKN300 M15/M18 A2985 RMK AO2 SLP133 T11501178 58003,PAVD,2019-01-05T20:56:00Z,61.13,-146.25,-15.0,-17.8,80,4,,10.0,29.84941,1013.3,,,TRUE,,,,,,,FEW,15000,BKN,30000,,,,,VFR,-0.3,,,,,,,,,,,METAR,37.0
PAUN 052056Z AUTO 08010KT 10SM CLR M19/M22 A3002 RMK AO2 SLP171 T11941217 51006 FZRANO,PAUN,2019-01-05T20:56:00Z,63.88,-160.8,-19.4,-21.7,80,10,,10.0,30.02067,1017.1,,TRUE,TRUE,,,,TRUE,,,CLR,,,,,,,,VFR,0.6,,,,,,,,,,,METAR,6.0
PKMJ 052056Z 03016KT 15SM FEW015 SCT050 BKN120 OVC300 29/25 A2981 ,PKMJ,2019-01-05T20:56:00Z,7.07,171.27,29.0,25.0,30,16,,15.0,29.811024,,,,,,,,,,,FEW,1500,SCT,5000,BKN,12000,OVC,30000,VFR,,,,,,,,,,,,METAR,3.0
KNJK 052056Z 33004KT 10SM -RA FEW070 OVC100 11/03 A3001 RMK AO2 SLP177 6//// T01060028 57016 PNO $,KNJK,2019-01-05T20:56:00Z,32.82,-115.67,10.6,2.8,330,4,,10.0,30.008858,1017.7,,,TRUE,TRUE,,,,,-RA,FEW,7000,OVC,10000,,,,,VFR,-1.6,,,,,,,,,,,METAR,-13.0
KPTN 052056Z AUTO 35005KT 10SM CLR 18/09 A3018 RMK AO2 SLP220 T01830094 55010,KPTN,2019-01-05T20:56:00Z,29.72,-91.32,18.3,9.4,350,5,,10.0,30.180119,1022.0,,TRUE,TRUE,,,,,,,CLR,,,,,,,,VFR,-1.0,,,,,,,,,,,METAR,3.0
KOCH 052056Z AUTO 20007KT 10SM CLR 21/07 A3013 RMK AO2 SLP208 T02060067 56016,KOCH,2019-01-05T20:56:00Z,31.57,-94.72,20.6,6.7,200,7,,10.0,30.129921,1020.8,,TRUE,TRUE,,,,,,,CLR,,,,,,,,VFR,-1.6,,,,,,,,,,,METAR,108.0
KMVN 052056Z AUTO 21006KT 10SM CLR 13/06 A3002 RMK AO2 SLP168 T01330056 53004,KMVN,2019-01-05T20:56:00Z,38.32,-88.87,13.3,5.6,210,6,,10.0,30.02067,1016.8,,TRUE,TRUE,,,,,,,CLR,,,,,,,,VFR,0.4,,,,,,,,,,,METAR,146.0
KMRF 052056Z AUTO 17012KT 10SM 20/M07 A3014 RMK AO2 SLP189 T02001072 56022 $,KMRF,2019-01-05T20:56:00Z,30.37,-104.02,20.0,-7.2,170,12,,10.0,30.138779,1018.9,,TRUE,TRUE,TRUE,,,,,,,,,,,,,,,-2.2,,,,,,,,,,,METAR,1481.0
KMNM 052056Z AUTO 28004KT 10SM CLR 08/00 A2973 RMK AO2 SLP087 T00780000 53018 $,KMNM,2019-01-05T20:56:00Z,45.12,-87.62,7.8,0.0,280,4,,10.0,29.731298,1008.7,,TRUE,TRUE,TRUE,,,,,,CLR,,,,,,,,VFR,1.8,,,,,,,,,,,METAR,191.0
KLRD 052056Z 17010KT 10SM CLR 25/08 A3007 RMK AO2 SLP197 T02500078 56031,KLRD,2019-01-05T20:56:00Z,27.55,-99.47,25.0,7.8,170,10,,10.0,30.070866,1019.7,,,TRUE,,,,,,,CLR,,,,,,,,VFR,-3.1,,,,,,,,,,,METAR,155.0
KLNR 052056Z AUTO 29008KT 10SM CLR 09/00 A2986 RMK AO2 SLP114 T00940000 53010,KLNR,2019-01-05T20:56:00Z,43.22,-90.18,9.4,0.0,290,8,,10.0,29.861221,1011.4,,TRUE,TRUE,,,,,,,CLR,,,,,,,,VFR,1.0,,,,,,,,,,,METAR,217.0
KLEW 052056Z AUTO 36009KT 10SM UP OVC010 02/M02 A2957 RMK AO2 RAB09E28UPB55 SLP029 P0000 60000 T00171017 56014 FZRANO,KLEW,2019-01-05T20:56:00Z,44.03,-70.27,1.7,-1.7,360,9,,10.0,29.568897,1002.9,,TRUE,TRUE,,,,TRUE,,UP,OVC,1000,,,,,,,MVFR,-1.4,,,,,0.005,0.005,,,,,METAR,88.0
PFEL 052056Z AUTO 35007KT 10SM CLR M19/M22 A3005 RMK AO2 SLP178 T11941217 50008 FZRANO,PFEL,2019-01-05T20:56:00Z,64.62,-162.27,-19.4,-21.7,350,7,,10.0,30.050198,1017.8,,TRUE,TRUE,,,,TRUE,,,CLR,,,,,,,,VFR,0.8,,,,,,,,,,,METAR,49.0
PAZK 052056Z AUTO 02007KT 10SM CLR M24/M27 A2963 RMK AO2 SLP146 T12391272 58004 FZRANO,PAZK,2019-01-05T20:56:00Z,61.93,-147.17,-23.9,-27.2,20,7,,10.0,29.630905,1014.6,,TRUE,TRUE,,,,TRUE,,,CLR,,,,,,,,VFR,-0.4,,,,,,,,,,,METAR,1003.0
PASL 052056Z AUTO 00000KT 8SM OVC049 M17/M19 A3003 RMK AO2 SLP166 60000 T11671189 53004 FZRANO,PASL,2019-01-05T20:56:00Z,61.72,-157.15,-16.7,-18.9,0,0,,8.0,30.029528,1016.6,,TRUE,TRUE,,,,TRUE,,,OVC,4900,,,,,,,VFR,0.4,,,,,,0.005,,,,,METAR,55.0
PAQH 052056Z AUTO 06013KT 10SM CLR M13/M14 A2990 RMK AO2 SNB00E40 SLP125 P0000 60000 T11281144 50005 FZRANO,PAQH,2019-01-05T20:56:00Z,59.75,-161.85,-12.8,-14.4,60,13,,10.0,29.899607,1012.5,,TRUE,TRUE,,,,TRUE,,,CLR,,,,,,,,VFR,0.5,,,,,0.005,0.005,,,,,METAR,13.0
PAOH 052056Z AUTO 00000KT 10SM OVC029 M03/M04 A2973 RMK AO2 SLP067 T10331044 58009 FZRANO,PAOH,2019-01-05T20:56:00Z,58.1,-135.45,-3.3,-4.4,0,0,,10.0,29.731298,1006.7,,TRUE,TRUE,,,,TRUE,,,OVC,2900,,,,,,,MVFR,-0.9,,,,,,,,,,,METAR,9.0
KLFI 052056Z AUTO 30010G23KT 10SM BKN043 14/06 A2966 RMK AO2 PK WND 28030/01 SLP051 T01400059 52036 $,KLFI,2019-01-05T20:56:00Z,37.07,-76.37,14.0,5.9,300,10,23,10.0,29.660433,1005.1,,TRUE,TRUE,TRUE,,,,,,BKN,4300,,,,,,,VFR,3.6,,,,,,,,,,,SPECI,3.0
EGUN 052056Z AUTO 28004KT 9999 OVC026 05/05 A3059 RMK AO2 SLP362 T00490049 57005 .,EGUN,2019-01-05T20:56:00Z,52.37,0.47,4.9,4.9,280,4,,6.21,30.590551,1036.2,,TRUE,TRUE,,,,,,,OVC,2600,,,,,,,MVFR,-0.5,,,,,,,,,,,METAR,10.0
ROTM 052056Z 02005KT 4800 -SHRA FEW010 BKN020 OVC025 18/18 A3013 RMK SHRAB20 SLP188 STNPR29825 P0007 60009 T01830183 53006,ROTM,2019-01-05T20:56:00Z,26.27,127.75,18.3,18.3,20,5,,2.98,30.129921,1018.8,,,,,,,,,-SHRA,FEW,1000,BKN,2000,OVC,2500,,,IFR,0.6,,,,,0.07,0.09,,,,,METAR,75.0
PHHI 052056Z AUTO 10010G17KT 10SM CLR 23/16 M RMK AO2 SLPNO T02330156 $,PHHI,2019-01-05T20:56:00Z,21.48,-158.05,23.3,15.6,100,10,17,10.0,,,,TRUE,TRUE,TRUE,,,,,,CLR,,,,,,,,VFR,,,,,,,,,,,,METAR,255.0
KNFL 052056Z 13020G26KT 9SM FEW080 SCT120 BKN160 OVC220 10/M08 A2965 RMK AO2 PK WND 12026/2054 WSHFT 1959 SLP025 ACSL DSNT E AND SW T01001083 58037,KNFL,2019-01-05T20:56:00Z,39.42,-118.7,10.0,-8.3,130,20,26,9.0,29.648623,1002.5,,,TRUE,,,,,,,FEW,8000,SCT,12000,BKN,16000,OVC,22000,VFR,-3.7,,,,,,,,,,,SPECI,1199.0
KSXT 052056Z AUTO 13011G22KT 10SM FEW090 06/M01 A2933 RMK AO2 PRESFR SLP930 T00611011 58041,KSXT,2019-01-05T20:56:00Z,42.6,-123.37,6.1,-1.1,130,11,22,10.0,29.329725,993.0,,TRUE,TRUE,,,,,,,FEW,9000,,,,,,,VFR,-4.1,,,,,,,,,,,METAR,1170.0
PASX 052056Z AUTO 00000KT 10SM CLR M15/M17 A2990 RMK AO2 SNE04 SLP135 P0000 60000 T11501167 50004 FZRANO,PASX,2019-01-05T20:56:00Z,60.48,-151.03,-15.0,-16.7,0,0,,10.0,29.899607,1013.5,,TRUE,TRUE,,,,TRUE,,,CLR,,,,,,,,VFR,0.4,,,,,0.005,0.005,,,,,METAR,32.0
PATG 052056Z AUTO 34009KT 10SM CLR M14/M16 A2995 RMK AO2 SNE17 SLP240 P0000 60000 T11441156 50007 FZRANO,PATG,2019-01-05T20:56:00Z,59.05,-160.38,-14.4,-15.6,340,9,,10.0,29.949802,1024.0,,TRUE,TRUE,,,,TRUE,,,CLR,,,,,,,,VFR,0.7,,,,,0.005,0.005,,,,,METAR,4.0
PADL 052056Z 33004KT 10SM SCT065 M13/M14 A2996 RMK AO2 SLPNO 6//// T11281139,PADL,2019-01-05T20:56:00Z,59.05,-158.5,-12.8,-13.9,330,4,,10.0,29.958662,,,,TRUE,,,,,,,SCT,6500,,,,,,,VFR,,,,,,,,,,,,METAR,26.0
PAEM 052056Z AUTO 08010KT 10SM OVC006 M12/M13 A2999 RMK AO2 SNE19 SLP214 P0000 60000 T11171133 52007 FZRANO,PAEM,2019-01-05T20:56:00Z,62.78,-164.48,-11.7,-13.3,80,10,,10.0,29.991142,1021.4,,TRUE,TRUE,,,,TRUE,,,OVC,600,,,,,,,IFR,0.7,,,,,0.005,0.005,,,,,METAR,3.0
PAHL 052056Z AUTO 00000KT 9SM -SN OVC020 M22/M24 A3004 RMK AO2 SLP182 P0000 60000 T12171239 51006 FZRANO,PAHL,2019-01-05T20:56:00Z,65.7,-156.35,-21.7,-23.9,0,0,,9.0,30.041338,1018.2,,TRUE,TRUE,,,,TRUE,,-SN,OVC,2000,,,,,,,MVFR,0.6,,,,,0.005,0.005,,,,,METAR,65.0
PAGS 052056Z AUTO 00000KT 10SM CLR M03/M04 A2974 RMK AO2 SLP071 T10331044 58008 FZRANO,PAGS,2019-01-05T20:56:00Z,58.42,-135.73,-3.3,-4.4,0,0,,10.0,29.740158,1007.1,,TRUE,TRUE,,,,TRUE,,,CLR,,,,,,,,VFR,-0.8,,,,,,,,,,,METAR,9.0
PAHY 052056Z AUTO 34003KT 10SM CLR 01/M05 A2954 RMK AO2 UPB05E27SNB07E20 SLP103 P0000 60000 T00061050 58015 FZRANO $,PAHY,2019-01-05T20:56:00Z,55.2,-132.83,0.6,-5.0,340,3,,10.0,29.53937,1010.3,,TRUE,TRUE,TRUE,,,TRUE,,,CLR,,,,,,,,VFR,-1.5,,,,,0.005,0.005,,,,,METAR,1.0
PAIK 052056Z AUTO 34004KT 9SM OVC049 M19/M21 A3007 RMK AO2 SNE52 SLP190 P0000 60000 T11891211 51007 FZRANO,PAIK,2019-01-05T20:56:00Z,66.98,-160.43,-18.9,-21.1,340,4,,9.0,30.070866,1019.0,,TRUE,TRUE,,,,TRUE,,,OVC,4900,,,,,,,VFR,0.7,,,,,0.005,0.005,,,,,METAR,51.0
PAKF 052056Z AUTO 20020G28KT 10SM BKN030 OVC036 03/M02 A2972 RMK AO2 PK WND 22028/2055 SLP065 T00331017 58001,PAKF,2019-01-05T20:56:00Z,54.85,-163.42,3.3,-1.7,200,20,28,10.0,29.719488,1006.5,,TRUE,TRUE,,,,,,,BKN,3000,OVC,3600,,,,,MVFR,-0.1,,,,,,,,,,,METAR,6.0
PAJZ 052056Z AUTO 29003KT 7SM OVC039 M14/M15 A2999 RMK AO2 SNB33E56 SLP163 P0000 60000 T11391150 51005 FZRANO $,PAJZ,2019-01-05T20:56:00Z,59.73,-157.27,-13.9,-15.0,290,3,,7.0,29.991142,1016.3,,TRUE,TRUE,TRUE,,,TRUE,,,OVC,3900,,,,,,,VFR,0.5,,,,,0.005,0.005,,,,,METAR,82.0
PAIN 052056Z AUTO 00000KT 10SM CLR M33/M36 A2982 RMK AO2 SLP190 T13281356 50000 FZRANO,PAIN,2019-01-05T20:56:00Z,63.73,-148.92,-32.8,-35.6,0,0,,10.0,29.819881,1019.0,,TRUE,TRUE,,,,TRUE,,,CLR,,,,,,,,VFR,0.0,,,,,,,,,,,METAR,524.0
PAKH 052056Z AUTO 04007KT 10SM CLR M02/M05 A2987 RMK AO2 SLP117 T10221050 50002 FZRANO $,PAKH,2019-01-05T20:56:00Z,56.93,-154.18,-2.2,-5.0,40,7,,10.0,29.870079,1011.7,,TRUE,TRUE,TRUE,,,TRUE,,,CLR,,,,,,,,VFR,0.2,,,,,,,,,,,METAR,14.0
KENV 052056Z AUTO 00000KT 10SM CLR M06/M09 A2995 RMK AO2 SLP194 T10561094 58026 FZRANO,KENV,2019-01-05T20:56:00Z,40.72,-114.02,-5.6,-9.4,0,0,,10.0,29.949802,1019.4,,TRUE,TRUE,,,,TRUE,,,CLR,,,,,,,,VFR,-2.6,,,,,,,,,,,METAR,1292.0
K2WX 052056Z AUTO 15003KT 08/M05 A2991 RMK AO1 SLP143 T00831050 56016,K2WX,2019-01-05T20:56:00Z,45.6,-103.55,8.3,-5.0,150,3,,,29.911417,1014.3,,TRUE,TRUE,,,,,,,,,,,,,,,,-1.6,,,,,,,,,,,METAR,915.0
KRND 052056Z AUTO 16009KT 10SM CLR 22/01 A3010 RMK AO2 SLP192 T02240014 56027,KRND,2019-01-05T20:56:00Z,29.52,-98.27,22.4,1.4,160,9,,10.0,30.100393,1019.2,,TRUE,TRUE,,,,,,,CLR,,,,,,,,VFR,-2.7,,,,,,,,,,,METAR,232.0
KRCA 052056Z AUTO 12007KT 10SM CLR 06/M01 A2995 RMK AO2 SLP163 T00641015 57015 $,KRCA,2019-01-05T20:56:00Z,44.13,-103.08,6.4,-1.5,120,7,,10.0,29.949802,1016.3,,TRUE,TRUE,TRUE,,,,,,CLR,,,,,,,,VFR,-1.5,,,,,,,,,,,METAR,999.0
KPAM 052056Z AUTO 27010KT 10SM CLR 16/08 A3010 RMK AO2 SLP196 T01570084 55003 $,KPAM,2019-01-05T20:56:00Z,30.07,-85.57,15.7,8.4,270,10,,10.0,30.100393,1019.6,,TRUE,TRUE,TRUE,,,,,,CLR,,,,,,,,VFR,-0.3,,,,,,,,,,,METAR,5.0
KIAB 052056Z AUTO 23009KT 10SM CLR 16/00 A2999 RMK AO2 SLP161 T01641003 57017 $,KIAB,2019-01-05T20:56:00Z,37.62,-97.27,16.4,-0.3,230,9,,10.0,29.991142,1016.1,,TRUE,TRUE,TRUE,,,,,,CLR,,,,,,,,VFR,-1.7,,,,,,,,,,,METAR,418.0
KHOP 052056Z AUTO 27006KT 10SM CLR 15/03 A3005 RMK AO2 SLP179 T01460031 53002,KHOP,2019-01-05T20:56:00Z,36.67,-87.5,14.6,3.1,270,6,,10.0,30.050198,1017.9,,TRUE,TRUE,,,,,,,CLR,,,,,,,,VFR,0.2,,,,,,,,,,,METAR,174.0
KGUS 052056Z AUTO 25011KT 10SM CLR 10/05 A2989 RMK AO2 SLP130 T01020054 53007 $,KGUS,2019-01-05T20:56:00Z,40.63,-86.15,10.2,5.4,250,11,,10.0,29.890747,1013.0,,TRUE,TRUE,TRUE,,,,,,CLR,,,,,,,,VFR,0.7,,,,,,,,,,,METAR,247.0
KFAF 052056Z AUTO 30012KT 10SM BKN046 14/06 A2965 RMK AO2 SLP044 T01380059 52031 $,KFAF,2019-01-05T20:56:00Z,37.12,-76.62,13.8,5.9,300,12,,10.0,29.648623,1004.4,,TRUE,TRUE,TRUE,,,,,,BKN,4600,,,,,,,VFR,3.1,,,,,,,,,,,METAR,4.0
KCOF 052056Z AUTO 27013KT 10SM CLR 22/12 A2999 RMK AO2 SLP160 T02240120 55000 $,KCOF,2019-01-05T20:56:00Z,28.23,-80.6,22.4,12.0,270,13,,10.0,29.991142,1016.0,,TRUE,TRUE,TRUE,,,,,,CLR,,,,,,,,VFR,0.0,,,,,,,,,,,METAR,3.0
KADW 052056Z AUTO 31016G24KT 10SM CLR 10/05 A2964 RMK AO2 PK WND 31028/43 RAE10 SLPNO P0000 60001 T01020048 52030 $,KADW,2019-01-05T20:56:00Z,38.82,-76.87,10.2,4.8,310,16,24,10.0,29.639763,,,TRUE,TRUE,TRUE,,,,,,CLR,,,,,,,,VFR,3.0,,,,,0.005,0.01,,,,,METAR,86.0
K8D3 052056Z AUTO 36013KT M01/M02 A3001 RMK AO1 SLP179 T10061017 53025,K8D3,2019-01-05T20:56:00Z,45.67,-96.98,-0.6,-1.7,360,13,,,30.008858,1017.9,,TRUE,TRUE,,,,,,,,,,,,,,,,2.5,,,,,,,,,,,METAR,354.0
KP28 052056Z AUTO 17009KT 17/00 A2995 RMK AO1 SLP146 T01720000 56023,KP28,2019-01-05T20:56:00Z,37.28,-98.55,17.2,0.0,170,9,,,29.949802,1014.6,,TRUE,TRUE,,,,,,,,,,,,,,,,-2.3,,,,,,,,,,,METAR,469.0
KNOG 052056Z AUTO 19007G14KT 10SM CLR 24/04 A3011 RMK AO2 SLP179 T02440039 56025 PWINO $,KNOG,2019-01-05T20:56:00Z,27.9,-98.05,24.4,3.9,190,7,14,10.0,30.109253,1017.9,,TRUE,TRUE,TRUE,,,,TRUE,,CLR,,,,,,,,VFR,-2.5,,,,,,,,,,,METAR,78.0
KNDZ 052056Z AUTO 33007KT 10SM CLR 17/04 A3013 RMK AO2 SLP189 T01670039 55005 $,KNDZ,2019-01-05T20:56:00Z,30.7,-87.02,16.7,3.9,330,7,,10.0,30.129921,1018.9,,TRUE,TRUE,TRUE,,,,,,CLR,,,,,,,,VFR,-0.5,,,,,,,,,,,METAR,54.0
KD07 052056Z AUTO 00000KT 08/M03 A2996 RMK AO1 SLP164 T00781028 55010,KD07,2019-01-05T20:56:00Z,45.03,-102.02,7.8,-2.8,0,0,,,29.958662,1016.4,,TRUE,TRUE,,,,,,,,,,,,,,,,-1.0,,,,,,,,,,,METAR,784.0
KGNA 052056Z AUTO 26005KT 03/M02 A2986 RMK AO1 SLP121 T00281022 53040,KGNA,2019-01-05T20:56:00Z,47.75,-90.35,2.8,-2.2,260,5,,,29.861221,1012.1,,TRUE,TRUE,,,,,,,,,,,,,,,,4.0,,,,,,,,,,,METAR,185.0
KP53 052056Z AUTO 34012G25KT 02/01 A2973 RMK AO1 PK WND 32026/2024 SLP075 T00170006 53031,KP53,2019-01-05T20:56:00Z,46.42,-86.65,1.7,0.6,340,12,25,,29.731298,1007.5,,TRUE,TRUE,,,,,,,,,,,,,,,,3.1,,,,,,,,,,,METAR,187.0
KNUC 052056Z AUTO 19012KT SCT021 SCT030 BKN037 14/11 A2998 RMK AO2 SLP149 T01390106 56008 $,KNUC,2019-01-05T20:56:00Z,33.02,-118.57,13.9,10.6,190,12,,,29.97933,1014.9,,TRUE,TRUE,TRUE,,,,,,SCT,2100,SCT,3000,BKN,3700,,,,-0.8,,,,,,,,,,,METAR,55.0
KNID 052056Z AUTO 00000KT 10SM OVC090 05/M09 A2993 RMK AO2 SLP146 T00501089 58019,KNID,2019-01-05T20:56:00Z,35.67,-117.67,5.0,-8.9,0,0,,10.0,29.929134,1014.6,,TRUE,TRUE,,,,,,,OVC,9000,,,,,,,VFR,-1.9,,,,,,,,,,,METAR,696.0
KQAZ 052056Z AUTO VRB03KT 9999 CLR 18/M08 A3008 RMK AO2 SLP208 WND DATA ESTMD T01751076 50010,KQAZ,2019-01-05T20:56:00Z,,,17.5,-7.6,0,3,,6.21,30.079725,1020.8,,TRUE,TRUE,,,,,,,CLR,,,,,,,,VFR,1.0,,,,,,,,,,,METAR,
KGNR 052056Z AUTO 00000KT 01/M02 A2955 RMK AO1 SLP022 T00061022 55005,KGNR,2019-01-05T20:56:00Z,45.47,-69.55,0.6,-2.2,0,0,,,29.551182,1002.2,,TRUE,TRUE,,,,,,,,,,,,,,,,-0.5,,,,,,,,,,,METAR,427.0
PHBK 052056Z AUTO 09008KT 10SM CLR 27/16 A3013 RMK AO2 SLP206 T02670156 50007,PHBK,2019-01-05T20:56:00Z,22.03,-159.78,26.7,15.6,90,8,,10.0,30.129921,1020.6,,TRUE,TRUE,,,,,,,CLR,,,,,,,,VFR,0.7,,,,,,,,,,,SPECI,8.0
KALK 052056Z AUTO 05007KT 10SM CLR 18/M02 A3007 RMK AO2 SLP125 T01781022 56022,KALK,2019-01-05T20:56:00Z,31.6,-110.43,17.8,-2.2,50,7,,10.0,30.070866,1012.5,,TRUE,TRUE,,,,,,,CLR,,,,,,,,VFR,-2.2,,,,,,,,,,,METAR,1453.0
KNLC 052056Z AUTO 15011KT 10SM BKN060 BKN070 13/04 A2983 RMK AO2 SLP104 T01330039 56014 $,KNLC,2019-01-05T20:56:00Z,36.32,-119.95,13.3,3.9,150,11,,10.0,29.828741,1010.4,,TRUE,TRUE,TRUE,,,,,,BKN,6000,BKN,7000,,,,,VFR,-1.4,,,,,,,,,,,METAR,72.0
KMQE 052056Z AUTO 01014G21KT 03/03 A2944 RMK AO1 SLP984 P0016 60028 T00280028 55012,KMQE,2019-01-05T20:56:00Z,42.22,-71.12,2.8,2.8,10,14,21,,29.438976,998.4,,TRUE,TRUE,,,,,,,,,,,,,,,,-1.2,,,,,0.16,0.28,,,,,METAR,199.0
ETAR 052056Z 28007KT 9999 FEW019 OVC025 04/04 A3042 RMK AO2A SLP316 T00380038 53000 $,ETAR,2019-01-05T20:56:00Z,49.42,7.58,3.8,3.8,280,7,,6.21,30.41929,1031.6,,,TRUE,TRUE,,,,,,FEW,1900,OVC,2500,,,,,MVFR,0.0,,,,,,,,,,,SPECI,238.0
ETAD 052056Z AUTO 25007KT 9999 OVC016 03/02 A3042 RMK AO2 SLP308 T00310021 58001 $,ETAD,2019-01-05T20:56:00Z,49.98,6.7,3.1,2.1,250,7,,6.21,30.41929,1030.8,,TRUE,TRUE,TRUE,,,,,,OVC,1600,,,,,,,MVFR,-0.1,,,,,,,,,,,SPECI,365.0
KYKN 052056Z AUTO 31006KT 10SM CLR 07/02 A3000 RMK AO2 SLP184 T00670017 53007,KYKN,2019-01-05T20:56:00Z,42.92,-97.37,6.7,1.7,310,6,,10.0,30.0,1018.4,,TRUE,TRUE,,,,,,,CLR,,,,,,,,VFR,0.7,,,,,,,,,,,METAR,398.0
KVIS 052056Z AUTO 09006KT 10SM CLR 14/03 A2985 RMK AO2 SLP120 6//// T01390033 58012 PNO $,KVIS,2019-01-05T20:56:00Z,36.32,-119.4,13.9,3.3,90,6,,10.0,29.84941,1012.0,,TRUE,TRUE,TRUE,,,,,,CLR,,,,,,,,VFR,-1.2,,,,,,,,,,,METAR,89.0
KEKY 052056Z AUTO 33008KT 10SM CLR 15/03 A3011 RMK AO2 SLP220 T01500033 53000,KEKY,2019-01-05T20:56:00Z,33.32,-86.93,15.0,3.3,330,8,,10.0,30.109253,1022.0,,TRUE,TRUE,,,,,,,CLR,,,,,,,,VFR,0.0,,,,,,,,,,,METAR,213.0
KEKQ 052056Z AUTO 26015KT 10SM CLR 12/04 A3005 RMK AO2 SLP203 6//// T01170044 53008 PNO $,KEKQ,2019-01-05T20:56:00Z,36.85,-84.85,11.7,4.4,260,15,,10.0,30.050198,1020.3,,TRUE,TRUE,TRUE,,,,,,CLR,,,,,,,,VFR,0.8,,,,,,,,,,,METAR,294.0
KDYR 052056Z AUTO 25007KT 10SM CLR 13/05 A3009 RMK AO2 SLP207 6//// T01280050 55004 PNO $,KDYR,2019-01-05T20:56:00Z,36.0,-89.4,12.8,5.0,250,7,,10.0,30.088583,1020.7,,TRUE,TRUE,TRUE,,,,,,CLR,,,,,,,,VFR,-0.4,,,,,,,,,,,METAR,103.0
KDWU 052056Z AUTO 27006KT 10SM CLR 11/03 A2994 RMK AO2 SLP142 6//// T01060033 52009 PNO $,KDWU,2019-01-05T20:56:00Z,38.55,-82.73,10.6,3.3,270,6,,10.0,29.940945,1014.2,,TRUE,TRUE,TRUE,,,,,,CLR,,,,,,,,VFR,0.9,,,,,,,,,,,METAR,166.0
KDVL 052056Z AUTO 02006KT 10SM OVC006 M04/M05 A3007 RMK AO2 SLP218 T10391050 51022 FZRANO,KDVL,2019-01-05T20:56:00Z,48.12,-98.92,-3.9,-5.0,20,6,,10.0,30.070866,1021.8,,TRUE,TRUE,,,,TRUE,,,OVC,600,,,,,,,IFR,2.2,,,,,,,,,,,METAR,443.0
KDIJ 052056Z AUTO 00000KT 10SM CLR 03/M08 A2991 RMK AO2 SLP159 T00281078 58015,KDIJ,2019-01-05T20:56:00Z,43.75,-111.1,2.8,-7.8,0,0,,10.0,29.911417,1015.9,,TRUE,TRUE,,,,,,,CLR,,,,,,,,VFR,-1.5,,,,,,,,,,,METAR,1899.0
KCTB 052056Z AUTO 13009KT 10SM CLR 02/M05 A2972 RMK AO2 SLP080 T00221050 58022,KCTB,2019-01-05T20:56:00Z,48.6,-112.37,2.2,-5.0,130,9,,10.0,29.719488,1008.0,,TRUE,TRUE,,,,,,,CLR,,,,,,,,VFR,-2.2,,,,,,,,,,,METAR,1175.0
KCOE 052056Z AUTO 03009KT 10SM CLR 04/01 A2964 RMK AO2 SLP069 T00390006 58027,KCOE,2019-01-05T20:56:00Z,47.77,-116.82,3.9,0.6,30,9,,10.0,29.639763,1006.9,,TRUE,TRUE,,,,,,,CLR,,,,,,,,VFR,-2.7,,,,,,,,,,,METAR,707.0
KCGZ 052056Z AUTO 00000KT 10SM CLR 18/01 A2998 RMK AO2 SLP151 T01830006 56023 $,KCGZ,2019-01-05T20:56:00Z,32.95,-111.77,18.3,0.6,0,0,,10.0,29.97933,1015.1,,TRUE,TRUE,TRUE,,,,,,CLR,,,,,,,,VFR,-2.3,,,,,,,,,,,METAR,446.0
KBVX 052056Z AUTO 19006KT 10SM CLR 17/06 A3007 RMK AO2 SLP185 T01720056 55007,KBVX,2019-01-05T20:56:00Z,35.73,-91.65,17.2,5.6,190,6,,10.0,30.070866,1018.5,,TRUE,TRUE,,,,,,,CLR,,,,,,,,VFR,-0.7,,,,,,,,,,,METAR,141.0
KBTP 052056Z AUTO 28009G16KT 10SM CLR 08/02 A2978 RMK AO2 SLP096 T00780017 51018,KBTP,2019-01-05T20:56:00Z,40.77,-79.95,7.8,1.7,280,9,16,10.0,29.778543,1009.6,,TRUE,TRUE,,,,,,,CLR,,,,,,,,VFR,1.8,,,,,,,,,,,METAR,380.0
KBOK 052056Z AUTO 15006KT 10SM -RA OVC060 12/05 A2929 RMK AO2 RAB24 SLP934 P0000 60002 T01220050 58059,KBOK,2019-01-05T20:56:00Z,42.07,-124.28,12.2,5.0,150,6,,10.0,29.291338,993.4,,TRUE,TRUE,,,,,,-RA,OVC,6000,,,,,,,VFR,-5.9,,,,,0.005,0.02,,,,,METAR,140.0
KBLM 052056Z AUTO 32011G19KT 5SM -RA BR OVC004 07/07 A2948 RMK AO2 SLP988 P0001 60003 T00670067 53036,KBLM,2019-01-05T20:56:00Z,40.17,-74.12,6.7,6.7,320,11,19,5.0,29.480314,998.8,,TRUE,TRUE,,,,,,-RA BR,OVC,400,,,,,,,LIFR,3.6,,,,,0.01,0.03,,,,,METAR,48.0
KBKX 052056Z AUTO 35005KT 10SM CLR 03/M02 A2999 RMK AO2 SLP188 T00331017 53012,KBKX,2019-01-05T20:56:00Z,44.28,-96.82,3.3,-1.7,350,5,,10.0,29.991142,1018.8,,TRUE,TRUE,,,,,,,CLR,,,,,,,,VFR,1.2,,,,,,,,,,,METAR,502.0
KAWO 052056Z AUTO 30003KT 10SM SCT080 BKN090 BKN110 10/06 A2942 RMK AO2 SLP967 T01000061 58035,KAWO,2019-01-05T20:56:00Z,48.17,-122.17,10.0,6.1,300,3,,10.0,29.421259,996.7,,TRUE,TRUE,,,,,,,SCT,8000,BKN,9000,BKN,11000,,,VFR,-3.5,,,,,,,,,,,METAR,42.0
KAUO 052056Z AUTO 28008KT 10SM CLR 16/02 A3008 RMK AO2 SLP213 T01560017 55002,KAUO,2019-01-05T20:56:00Z,32.62,-85.42,15.6,1.7,280,8,,10.0,30.079725,1021.3,,TRUE,TRUE,,,,,,,CLR,,,,,,,,VFR,-0.2,,,,,,,,,,,METAR,236.0
KARG 052056Z AUTO 20010KT 10SM CLR 14/07 A3007 RMK AO2 SLP186 T01390072 55006,KARG,2019-01-05T20:56:00Z,36.12,-90.92,13.9,7.2,200,10,,10.0,30.070866,1018.6,,TRUE,TRUE,,,,,,,CLR,,,,,,,,VFR,-0.6,,,,,,,,,,,METAR,83.0
KAFJ 052056Z AUTO 27012KT 10SM CLR 09/02 A2983 RMK AO2 SLP107 T00890022 53021,KAFJ,2019-01-05T20:56:00Z,40.12,-80.27,8.9,2.2,270,12,,10.0,29.828741,1010.7,,TRUE,TRUE,,,,,,,CLR,,,,,,,,VFR,2.1,,,,,,,,,,,METAR,361.0
KADF 052056Z AUTO 22007KT 10SM CLR 17/06 A3011 RMK AO2 SLP202 T01670056 56009,KADF,2019-01-05T20:56:00Z,34.1,-93.07,16.7,5.6,220,7,,10.0,30.109253,1020.2,,TRUE,TRUE,,,,,,,CLR,,,,,,,,VFR,-0.9,,,,,,,,,,,METAR,56.0
K1M4 052056Z AUTO VRB04KT 10SM CLR 14/04 A3012 RMK AO2 SLP224 T01390044 53001,K1M4,2019-01-05T20:56:00Z,34.28,-87.6,13.9,4.4,0,4,,10.0,30.121063,1022.4,,TRUE,TRUE,,,,,,,CLR,,,,,,,,VFR,0.1,,,,,,,,,,,METAR,284.0
KVBT 052056Z AUTO 24008KT 10SM CLR 17/03 A3008 RMK AO2 SLP190 T01720033 55008,KVBT,2019-01-05T20:56:00Z,36.35,-94.22,17.2,3.3,240,8,,10.0,30.079725,1019.0,,TRUE,TRUE,,,,,,,CLR,,,,,,,,VFR,-0.8,,,,,,,,,,,SPECI,395.0
KUDG 052056Z AUTO 27010KT 10SM CLR 16/06 A2987 RMK AO2 SLP123 T01610056 53014,KUDG,2019-01-05T20:56:00Z,34.45,-79.88,16.1,5.6,270,10,,10.0,29.870079,1012.3,,TRUE,TRUE,,,,,,,CLR,,,,,,,,VFR,1.4,,,,,,,,,,,SPECI,59.0
KUCP 052056Z AUTO 24011KT 10SM CLR 08/02 A2979 RMK AO2 SLP109 T00830017 52013,KUCP,2019-01-05T20:56:00Z,41.03,-80.42,8.3,1.7,240,11,,10.0,29.790354,1010.9,,TRUE,TRUE,,,,,,,CLR,,,,,,,,VFR,1.3,,,,,,,,,,,METAR,327.0
KTVF 052056Z AUTO 33011KT 10SM CLR M05/M07 A3004 RMK AO2 SLP194 T10501072 53027 FZRANO,KTVF,2019-01-05T20:56:00Z,48.07,-96.17,-5.0,-7.2,330,11,,10.0,30.041338,1019.4,,TRUE,TRUE,,,,TRUE,,,CLR,,,,,,,,VFR,2.7,,,,,,,,,,,METAR,340.0
KSRC 052056Z AUTO 16007KT 10SM CLR 16/06 A3009 RMK AO2 SLP199 T01610061 55009,KSRC,2019-01-05T20:56:00Z,35.22,-91.73,16.1,6.1,160,7,,10.0,30.088583,1019.9,,TRUE,TRUE,,,,,,,CLR,,,,,,,,VFR,-0.9,,,,,,,,,,,METAR,80.0
KSOP 052056Z AUTO 28008G15KT 10SM CLR 16/03 A2984 RMK AO2 SLP122 T01610028 53016,KSOP,2019-01-05T20:56:00Z,35.22,-79.4,16.1,2.8,280,8,15,10.0,29.840551,1012.2,,TRUE,TRUE,,,,,,,CLR,,,,,,,,VFR,1.6,,,,,,,,,,,METAR,141.0
KSMN 052056Z AUTO 00000KT 10SM CLR M03/M08 A2986 RMK AO2 SLP162 T10331083 56033 FZRANO,KSMN,2019-01-05T20:56:00Z,45.12,-113.87,-3.3,-8.3,0,0,,10.0,29.861221,1016.2,,TRUE,TRUE,,,,TRUE,,,CLR,,,,,,,,VFR,-3.3,,,,,,,,,,,METAR,1233.0
KSLG 052056Z AUTO 24011KT 10SM CLR 17/03 A3008 RMK AO2 SLP186 T01720028 55004,KSLG,2019-01-05T20:56:00Z,36.2,-94.47,17.2,2.8,240,11,,10.0,30.079725,1018.6,,TRUE,TRUE,,,,,,,CLR,,,,,,,,VFR,-0.4,,,,,,,,,,,METAR,300.0
KSGU 052056Z AUTO 00000KT 10SM CLR 04/M07 A3003 RMK AO2 SLP178 6//// T00391067 56029 PNO $,KSGU,2019-01-05T20:56:00Z,37.07,-113.52,3.9,-6.7,0,0,,10.0,30.029528,1017.8,,TRUE,TRUE,TRUE,,,,,,CLR,,,,,,,,VFR,-2.9,,,,,,,,,,,METAR,896.0
KSGT 052056Z AUTO 20006KT 10SM CLR 14/04 A3012 RMK AO2 SLP200 T01440039 55005,KSGT,2019-01-05T20:56:00Z,34.6,-91.57,14.4,3.9,200,6,,10.0,30.121063,1020.0,,TRUE,TRUE,,,,,,,CLR,,,,,,,,VFR,-0.5,,,,,,,,,,,METAR,68.0
KSGJ 052056Z 29009KT 10SM CLR 16/08 A3001 RMK AO2 SLP162 T01610078 53003,KSGJ,2019-01-05T20:56:00Z,29.97,-81.32,16.1,7.8,290,9,,10.0,30.008858,1016.2,,,TRUE,,,,,,,CLR,,,,,,,,VFR,0.3,,,,,,,,,,,METAR,3.0
KSGH 052056Z AUTO 25011KT 10SM CLR 09/04 A2989 RMK AO2 SLP130 T00940044 51009,KSGH,2019-01-05T20:56:00Z,39.83,-83.83,9.4,4.4,250,11,,10.0,29.890747,1013.0,,TRUE,TRUE,,,,,,,CLR,,,,,,,,VFR,0.9,,,,,,,,,,,METAR,321.0
KPWT 052056Z AUTO 00000KT 10SM CLR 09/06 A2942 RMK AO2 SLP980 T00940061 58032,KPWT,2019-01-05T20:56:00Z,47.5,-122.75,9.4,6.1,0,0,,10.0,29.421259,998.0,,TRUE,TRUE,,,,,,,CLR,,,,,,,,VFR,-3.2,,,,,,,,,,,METAR,147.0
KPWG 052056Z AUTO 17006KT 10SM CLR 22/05 A3009 RMK AO2 SLP203 T02170050 56022,KPWG,2019-01-05T20:56:00Z,31.47,-97.32,21.7,5.0,170,6,,10.0,30.088583,1020.3,,TRUE,TRUE,,,,,,,CLR,,,,,,,,VFR,-2.2,,,,,,,,,,,METAR,180.0
KPTV 052056Z AUTO 02003KT 10SM CLR 12/05 A2985 RMK AO2 SLP124 T01170050 58010,KPTV,2019-01-05T20:56:00Z,36.02,-119.07,11.7,5.0,20,3,,10.0,29.84941,1012.4,,TRUE,TRUE,,,,,,,CLR,,,,,,,,VFR,-1.0,,,,,,,,,,,METAR,135.0
KPRX 052056Z AUTO 20006KT 10SM CLR 19/06 A3009 RMK AO2 SLP208 T01940061 56016 $,KPRX,2019-01-05T20:56:00Z,33.62,-95.45,19.4,6.1,200,6,,10.0,30.088583,1020.8,,TRUE,TRUE,TRUE,,,,,,CLR,,,,,,,,VFR,-1.6,,,,,,,,,,,METAR,167.0
KPIB 052056Z AUTO VRB05KT 10SM CLR 17/04 A3016 RMK AO2 SLP213 T01670044 55009,KPIB,2019-01-05T20:56:00Z,31.47,-89.32,16.7,4.4,0,5,,10.0,30.159449,1021.3,,TRUE,TRUE,,,,,,,CLR,,,,,,,,VFR,-0.9,,,,,,,,,,,METAR,91.0
KOWB 052056Z 26005KT 10SM CLR 13/06 A3004 RMK AO2 SLP186 T01330056 53003,KOWB,2019-01-05T20:56:00Z,37.72,-87.17,13.3,5.6,260,5,,10.0,30.041338,1018.6,,,TRUE,,,,,,,CLR,,,,,,,,VFR,0.3,,,,,,,,,,,METAR,124.0
KOTH 052056Z 13007KT 10SM CLR 12/06 A2931 RMK AO2 SLP925 60001 T01220061 58052,KOTH,2019-01-05T20:56:00Z,43.42,-124.25,12.2,6.1,130,7,,10.0,29.309055,992.5,,,TRUE,,,,,,,CLR,,,,,,,,VFR,-5.2,,,,,,0.01,,,,,METAR,4.0
KOTG 052056Z AUTO 32007KT 10SM CLR 05/00 A2999 RMK AO2 SLP171 T00500000 53015,KOTG,2019-01-05T20:56:00Z,43.63,-95.57,5.0,0.0,320,7,,10.0,29.991142,1017.1,,TRUE,TRUE,,,,,,,CLR,,,,,,,,VFR,1.5,,,,,,,,,,,METAR,480.0
KOKK 052056Z AUTO 25011KT 10SM CLR 11/04 A2990 RMK AO2 SLP133 T01110044 53008,KOKK,2019-01-05T20:56:00Z,40.53,-86.07,11.1,4.4,250,11,,10.0,29.899607,1013.3,,TRUE,TRUE,,,,,,,CLR,,,,,,,,VFR,0.8,,,,,,,,,,,METAR,253.0
KOAJ 052056Z 27004KT 10SM CLR 16/05 A2979 RMK AO2 SLP093 T01560050 53016,KOAJ,2019-01-05T20:56:00Z,34.82,-77.62,15.6,5.0,270,4,,10.0,29.790354,1009.3,,,TRUE,,,,,,,CLR,,,,,,,,VFR,1.6,,,,,,,,,,,METAR,29.0
KMYR 052056Z 30014G19KT 10SM CLR 16/05 A2986 RMK AO2 SLP112 T01610050 53015,KMYR,2019-01-05T20:56:00Z,33.67,-78.92,16.1,5.0,300,14,19,10.0,29.861221,1011.2,,,TRUE,,,,,,,CLR,,,,,,,,VFR,1.5,,,,,,,,,,,METAR,8.0
KMQY 052056Z 00000KT 10SM CLR 15/03 A3008 RMK AO2 SLP146 T01500033 53004,KMQY,2019-01-05T20:56:00Z,36.02,-86.52,15.0,3.3,0,0,,10.0,30.079725,1014.6,,,TRUE,,,,,,,CLR,,,,,,,,VFR,0.4,,,,,,,,,,,METAR,166.0
KMML 052056Z AUTO 33009KT 10SM CLR 03/M01 A2999 RMK AO2 SLP169 T00331011 53017,KMML,2019-01-05T20:56:00Z,44.45,-95.82,3.3,-1.1,330,9,,10.0,29.991142,1016.9,,TRUE,TRUE,,,,,,,CLR,,,,,,,,VFR,1.7,,,,,,,,,,,METAR,359.0
KMKT 052056Z AUTO 30009KT 10SM CLR 05/00 A2996 RMK AO2 SLP158 T00500000 53021,KMKT,2019-01-05T20:56:00Z,44.22,-93.92,5.0,0.0,300,9,,10.0,29.958662,1015.8,,TRUE,TRUE,,,,,,,CLR,,,,,,,,VFR,2.1,,,,,,,,,,,METAR,311.0
KM19 052056Z AUTO 19011KT 10SM CLR 16/05 A3008 RMK AO2 SLP192 T01560050 55007,KM19,2019-01-05T20:56:00Z,35.65,-91.17,15.6,5.0,190,11,,10.0,30.079725,1019.2,,TRUE,TRUE,,,,,,,CLR,,,,,,,,VFR,-0.7,,,,,,,,,,,METAR,73.0
KLZU 052056Z 29007G15KT 10SM CLR 14/02 A3001 RMK AO2 SLP175 T01390022 53009,KLZU,2019-01-05T20:56:00Z,33.98,-83.97,13.9,2.2,290,7,15,10.0,30.008858,1017.5,,,TRUE,,,,,,,CLR,,,,,,,,VFR,0.9,,,,,,,,,,,METAR,323.0
KLPC 052056Z AUTO 13007G15KT 4SM -RA BR BKN016 BKN032 OVC048 12/10 A2988 RMK AO2 RAB10 SLP123 P0002 60002 T01220100 56016,KLPC,2019-01-05T20:56:00Z,34.67,-120.47,12.2,10.0,130,7,15,4.0,29.878937,1012.3,,TRUE,TRUE,,,,,,-RA BR,BKN,1600,BKN,3200,OVC,4800,,,MVFR,-1.6,,,,,0.02,0.02,,,,,METAR,27.0
KLGD 052056Z AUTO 14020G29KT 10SM CLR 03/M04 A2966 RMK AO2 PK WND 13033/2041 SLP189 T00331044 58039,KLGD,2019-01-05T20:56:00Z,45.27,-118.0,3.3,-4.4,140,20,29,10.0,29.660433,1018.9,,TRUE,TRUE,,,,,,,CLR,,,,,,,,VFR,-3.9,,,,,,,,,,,METAR,827.0
KKLS 052056Z AUTO 00000KT 10SM FEW070 OVC095 07/06 A2943 RMK AO2 SLP972 T00670056 58031,KKLS,2019-01-05T20:56:00Z,46.12,-122.9,6.7,5.6,0,0,,10.0,29.430119,997.2,,TRUE,TRUE,,,,,,,FEW,7000,OVC,9500,,,,,VFR,-3.1,,,,,,,,,,,METAR,5.0
KITH 052056Z 31010KT 2 1/2SM BR OVC005 01/01 A2967 RMK AO2 SLP057 T00110006 53027,KITH,2019-01-05T20:56:00Z,42.47,-76.45,1.1,0.6,310,10,,2.5,29.66929,1005.7,,,TRUE,,,,,,BR,OVC,500,,,,,,,IFR,2.7,,,,,,,,,,,METAR,335.0
KISO 052056Z 30009G15KT 10SM CLR 16/02 A2978,KISO,2019-01-05T20:56:00Z,35.32,-77.62,16.0,2.0,300,9,15,10.0,29.778543,,,,,,,,,,,CLR,,,,,,,,VFR,,,,,,,,,,,,METAR,29.0
KISM 052056Z 29010KT 10SM CLR 20/11 A3003 RMK AO2 SLP171 6//// T02000106 53002 PNO $,KISM,2019-01-05T20:56:00Z,28.28,-81.43,20.0,10.6,290,10,,10.0,30.029528,1017.1,,,TRUE,TRUE,,,,,,CLR,,,,,,,,VFR,0.2,,,,,,,,,,,METAR,25.0
KHYI 052056Z 19010KT 10SM CLR 23/01 A3011 RMK AO2 SLP192 T02280006 56026,KHYI,2019-01-05T20:56:00Z,29.88,-97.87,22.8,0.6,190,10,,10.0,30.109253,1019.2,,,TRUE,,,,,,,CLR,,,,,,,,VFR,-2.6,,,,,,,,,,,METAR,182.0
KHND 052056Z 01004KT 10SM FEW110 09/M08 A2999 RMK AO2 SLP165 T00891078 56021 $,KHND,2019-01-05T20:56:00Z,35.98,-115.13,8.9,-7.8,10,4,,10.0,29.991142,1016.5,,,TRUE,TRUE,,,,,,FEW,11000,,,,,,,VFR,-2.1,,,,,,,,,,,METAR,749.0
KHEZ 052056Z AUTO 25006KT 10SM CLR 16/07 A3018 RMK AO2 SLP222 T01610067 55005,KHEZ,2019-01-05T20:56:00Z,31.62,-91.3,16.1,6.7,250,6,,10.0,30.180119,1022.2,,TRUE,TRUE,,,,,,,CLR,,,,,,,,VFR,-0.5,,,,,,,,,,,METAR,83.0
KGVQ 052056Z AUTO 28012KT 5SM BR OVC009 01/M01 A2974 RMK AO2 SLP098 T00111011 53024 FZRANO,KGVQ,2019-01-05T20:56:00Z,43.03,-78.17,1.1,-1.1,280,12,,5.0,29.740158,1009.8,,TRUE,TRUE,,,,TRUE,,BR,OVC,900,,,,,,,IFR,2.4,,,,,,,,,,,METAR,278.0
KGTR 052056Z 00000KT 10SM CLR 15/06 A3013 RMK AO2 SLP206 T01500056 55005,KGTR,2019-01-05T20:56:00Z,33.45,-88.57,15.0,5.6,0,0,,10.0,30.129921,1020.6,,,TRUE,,,,,,,CLR,,,,,,,,VFR,-0.5,,,,,,,,,,,METAR,80.0
KGPZ 052056Z AUTO 33009KT 10SM OVC009 M01/M02 A2996 RMK AO2 SLP167 T10061022 51034 FZRANO,KGPZ,2019-01-05T20:56:00Z,47.22,-93.52,-0.6,-2.2,330,9,,10.0,29.958662,1016.7,,TRUE,TRUE,,,,TRUE,,,OVC,900,,,,,,,IFR,3.4,,,,,,,,,,,METAR,413.0
KGAD 052056Z AUTO 28007KT 10SM CLR 16/04 A3009 RMK AO2 SLP194 T01560044 53003,KGAD,2019-01-05T20:56:00Z,33.97,-86.07,15.6,4.4,280,7,,10.0,30.088583,1019.4,,TRUE,TRUE,,,,,,,CLR,,,,,,,,VFR,0.3,,,,,,,,,,,METAR,173.0
KFRM 052056Z AUTO 32012KT 10SM CLR 06/00 A2997 RMK AO2 SLP161 T00560000 53016,KFRM,2019-01-05T20:56:00Z,43.63,-94.42,5.6,0.0,320,12,,10.0,29.970472,1016.1,,TRUE,TRUE,,,,,,,CLR,,,,,,,,VFR,1.6,,,,,,,,,,,METAR,354.0
KFLP 052056Z AUTO 03006KT 10SM CLR 19/06 A3004 RMK AO2 SLP173 T01940061 56012,KFLP,2019-01-05T20:56:00Z,36.28,-92.58,19.4,6.1,30,6,,10.0,30.041338,1017.3,,TRUE,TRUE,,,,,,,CLR,,,,,,,,VFR,-1.2,,,,,,,,,,,METAR,219.0
KEUL 052056Z AUTO 04008KT 1 1/4SM HZ CLR 02/M04 A2976 RMK AO2 SLP099 T00171039 57035 FZRANO $,KEUL,2019-01-05T20:56:00Z,43.62,-116.62,1.7,-3.9,40,8,,1.25,29.760826,1009.9,,TRUE,TRUE,TRUE,,,TRUE,,HZ,CLR,,,,,,,,IFR,-3.5,,,,,,,,,,,METAR,740.0
KAQV 052056Z AUTO VRB04KT 10SM CLR 19/02 A3014 RMK AO2 SLP205 T01890022 56010,KAQV,2019-01-05T20:56:00Z,31.4,-93.3,18.9,2.2,0,4,,10.0,30.138779,1020.5,,TRUE,TRUE,,,,,,,CLR,,,,,,,,VFR,-1.0,,,,,,,,,,,METAR,111.0
KNMM 052056Z AUTO 30007KT 10SM CLR 18/03 A3014 RMK AO2 SLP215 T01830033 55005 CHINO SOUTH VISNO SOUTH $,KNMM,2019-01-05T20:56:00Z,32.53,-88.57,18.3,3.3,300,7,,10.0,30.138779,1021.5,,TRUE,TRUE,TRUE,,,,,,CLR,,,,,,,,VFR,-0.5,,,,,,,,,,,SPECI,97.0
KNBC 052056Z AUTO 28011KT 10SM CLR 17/07 A2994 RMK AO2 SLP137 T01720072 53010,KNBC,2019-01-05T20:56:00Z,32.47,-80.72,17.2,7.2,280,11,,10.0,29.940945,1013.7,,TRUE,TRUE,,,,,,,CLR,,,,,,,,VFR,1.0,,,,,,,,,,,SPECI,12.0
KNXP 052056Z AUTO 15011KT 10SM OVC110 12/M09 A3002 RMK AO2 SLP151 T01171089 56022 $,KNXP,2019-01-05T20:56:00Z,34.28,-116.17,11.7,-8.9,150,11,,10.0,30.02067,1015.1,,TRUE,TRUE,TRUE,,,,,,OVC,11000,,,,,,,VFR,-2.2,,,,,,,,,,,METAR,626.0
KPRN 052056Z AUTO 32006KT 10SM CLR 17/01 A3010 RMK AO2 SLP193 T01670006 55003,KPRN,2019-01-05T20:56:00Z,31.85,-86.62,16.7,0.6,320,6,,10.0,30.100393,1019.3,,TRUE,TRUE,,,,,,,CLR,,,,,,,,VFR,-0.3,,,,,,,,,,,METAR,138.0
KNFE 052056Z AUTO 28008G16KT 240V310 10SM OVC041 16/06 A2968 RMK AO2 SLP051 T01560061 53036,KNFE,2019-01-05T20:56:00Z,36.7,-76.13,15.6,6.1,280,8,16,10.0,29.681103,1005.1,,TRUE,TRUE,,,,,,,OVC,4100,,,,,,,VFR,3.6,,,,,,,,,,,METAR,5.0
K79J 052056Z AUTO 31009KT 10SM CLR 18/03 A3011 RMK AO2 SLP193 T01830028 55002,K79J,2019-01-05T20:56:00Z,31.32,-86.4,18.3,2.8,310,9,,10.0,30.109253,1019.3,,TRUE,TRUE,,,,,,,CLR,,,,,,,,VFR,-0.2,,,,,,,,,,,SPECI,94.0
KNTU 052056Z 28012G18KT 10SM OVC041 14/06 A2966 RMK AO2 SLP045 T01390061 53038,KNTU,2019-01-05T20:56:00Z,36.82,-76.02,13.9,6.1,280,12,18,10.0,29.660433,1004.5,,,TRUE,,,,,,,OVC,4100,,,,,,,VFR,3.8,,,,,,,,,,,METAR,7.0
KNPA 052056Z VRB04KT 10SM CLR 17/04 A3012 RMK AO2 SLP201 T01720044 56008,KNPA,2019-01-05T20:56:00Z,30.35,-87.32,17.2,4.4,0,4,,10.0,30.121063,1020.1,,,TRUE,,,,,,,CLR,,,,,,,,VFR,-0.8,,,,,,,,,,,METAR,9.0
KRYM 052056Z AUTO 36007KT 10SM BKN019 02/M02 A2997 RMK AO2 SLP169 T00161021 52032 $,KRYM,2019-01-05T20:56:00Z,46.08,-94.37,1.6,-2.1,360,7,,10.0,29.970472,1016.9,,TRUE,TRUE,TRUE,,,,,,BKN,1900,,,,,,,MVFR,3.2,,,,,,,,,,,METAR,351.0
KNCA 052056Z AUTO 29016G20KT 10SM CLR 16/05 A2978 RMK AO2 SLP087 T01560050 53018,KNCA,2019-01-05T20:56:00Z,34.72,-77.45,15.6,5.0,290,16,20,10.0,29.778543,1008.7,,TRUE,TRUE,,,,,,,CLR,,,,,,,,VFR,1.8,,,,,,,,,,,SPECI,8.0
KSPD 052056Z AUTO 12004KT 18/M06 A2991 RMK AO1 SLP104 T01831056 55022,KSPD,2019-01-05T20:56:00Z,37.28,-102.62,18.3,-5.6,120,4,,,29.911417,1010.4,,TRUE,TRUE,,,,,,,,,,,,,,,,-2.2,,,,,,,,,,,METAR,1335.0
KCAE 052056Z 28011KT 10SM CLR 17/06 A2991 RMK AO2 SLP128 T01670061 53012,KCAE,2019-01-05T20:56:00Z,33.93,-81.12,16.7,6.1,280,11,,10.0,29.911417,1012.8,,,TRUE,,,,,,,CLR,,,,,,,,VFR,1.2,,,,,,,,,,,METAR,70.0
KQHY 052056Z AUTO 32004KT 10SM CLR 17/05 A3012 RMK AO2 SLP206 T01710050 57007 $,KQHY,2019-01-05T20:56:00Z,,,17.1,5.0,320,4,,10.0,30.121063,1020.6,,TRUE,TRUE,TRUE,,,,,,CLR,,,,,,,,VFR,-0.7,,,,,,,,,,,METAR,
KQBL 052056Z AUTO 31003KT 10SM CLR 17/05 A3014 RMK AO2 SLP208 WND DATA ESTMD T01730046 57007,KQBL,2019-01-05T20:56:00Z,,,17.3,4.6,310,3,,10.0,30.138779,1020.8,,TRUE,TRUE,,,,,,,CLR,,,,,,,,VFR,-0.7,,,,,,,,,,,METAR,
OTBH 052056Z 32003KT 9000 HZ FEW200 15/13 A3010 RMK AO2A SLP195 T01450132 402340145 57013 $,OTBH,2019-01-05T20:56:00Z,25.12,51.32,14.5,13.2,320,3,,5.59,30.100393,1019.5,,,TRUE,TRUE,,,,,HZ,FEW,20000,,,,,,,VFR,-1.3,,,23.4,14.5,,,,,,,METAR,40.0
OAKN 052056Z 00000KT 9999 CLR 04/M07 A3023 RMK AO2A SLP223 WND DATA ESTMD Q1024 PA3019 DA2457 T00381068 55004,OAKN,2019-01-05T20:56:00Z,31.5,65.83,3.8,-6.8,0,0,,6.21,30.230314,1022.3,,,TRUE,,,,,,,CLR,,,,,,,,VFR,-0.4,,,,,,,,,,,METAR,1010.0
KGRD 052056Z AUTO 25008KT 10SM CLR 16/03 A2995 RMK AO2 SLP141 T01560033 53014,KGRD,2019-01-05T20:56:00Z,34.25,-82.15,15.6,3.3,250,8,,10.0,29.949802,1014.1,,TRUE,TRUE,,,,,,,CLR,,,,,,,,VFR,1.4,,,,,,,,,,,SPECI,185.0
KDRA 052056Z AUTO 07004KT 10SM OVC080 08/M08 A2993 RMK AO2 SLP128 T00781083 56017,KDRA,2019-01-05T20:56:00Z,36.62,-116.03,7.8,-8.3,70,4,,10.0,29.929134,1012.8,,TRUE,TRUE,,,,,,,OVC,8000,,,,,,,VFR,-1.7,,,,,,,,,,,METAR,1006.0
ETIK 052056Z AUTO 27009KT 9999 OVC009 04/04 A3029 RMK AO2 SLP275 P0001 60001 T00420042 50003 $,ETIK,2019-01-05T20:56:00Z,49.47,10.37,4.2,4.2,270,9,,6.21,30.28937,1027.5,,TRUE,TRUE,TRUE,,,,,,OVC,900,,,,,,,IFR,0.3,,,,,0.01,0.01,,,,,METAR,325.0
KDIK 052056Z AUTO 07008KT 10SM CLR 04/M03 A2994 RMK AO2 SLP158 T00441028 55002,KDIK,2019-01-05T20:56:00Z,46.8,-102.8,4.4,-2.8,70,8,,10.0,29.940945,1015.8,,TRUE,TRUE,,,,,,,CLR,,,,,,,,VFR,-0.2,,,,,,,,,,,METAR,788.0
KDAY 052056Z 24012KT 10SM FEW250 10/04 A2991 RMK AO2 SLP131 T01000039 53007,KDAY,2019-01-05T20:56:00Z,39.9,-84.22,10.0,3.9,240,12,,10.0,29.911417,1013.1,,,TRUE,,,,,,,FEW,25000,,,,,,,VFR,0.7,,,,,,,,,,,METAR,305.0
KCXY 052056Z 27008KT 10SM CLR 10/04 A2964 RMK AO2 SLP037 60001 T01000039 51030,KCXY,2019-01-05T20:56:00Z,40.22,-76.85,10.0,3.9,270,8,,10.0,29.639763,1003.7,,,TRUE,,,,,,,CLR,,,,,,,,VFR,3.0,,,,,,0.01,,,,,METAR,106.0
KCHS 052056Z 30011G20KT 10SM CLR 17/04 A2990 RMK AO2 SLP123 T01720044 53009,KCHS,2019-01-05T20:56:00Z,32.9,-80.03,17.2,4.4,300,11,20,10.0,29.899607,1012.3,,,TRUE,,,,,,,CLR,,,,,,,,VFR,0.9,,,,,,,,,,,METAR,13.0
KDUG 052056Z AUTO 15005KT 10SM CLR 14/02 A3007 RMK AO2 SLP166 T01440022 56026 $,KDUG,2019-01-05T20:56:00Z,31.47,-109.58,14.4,2.2,150,5,,10.0,30.070866,1016.6,,TRUE,TRUE,TRUE,,,,,,CLR,,,,,,,,VFR,-2.6,,,,,,,,,,,METAR,1265.0
KRDM 052056Z 13011KT 10SM CLR 09/M04 A2947 RMK AO2 SLP984 T00891044 56034,KRDM,2019-01-05T20:56:00Z,44.25,-121.15,8.9,-4.4,130,11,,10.0,29.471457,998.4,,,TRUE,,,,,,,CLR,,,,,,,,VFR,-3.4,,,,,,,,,,,METAR,938.0
KSDF 052056Z 23007KT 10SM FEW200 13/04 A2999 RMK AO2 SLP157 T01330039 52004 $,KSDF,2019-01-05T20:56:00Z,38.18,-85.73,13.3,3.9,230,7,,10.0,29.991142,1015.7,,,TRUE,TRUE,,,,,,FEW,20000,,,,,,,VFR,0.4,,,,,,,,,,,METAR,146.0
KISP 052056Z 02014G23KT 10SM OVC005 06/06 A2940 RMK AO2 RAB42E56 SLP957 P0000 60001 T00610056 51013,KISP,2019-01-05T20:56:00Z,40.8,-73.1,6.1,5.6,20,14,23,10.0,29.40059,995.7,,,TRUE,,,,,,,OVC,500,,,,,,,IFR,1.3,,,,,0.005,0.01,,,,,METAR,43.0
KINW 052056Z AUTO 00000KT 10SM CLR M03/M08 A3013 RMK AO2 SLP256 T10281078 56025,KINW,2019-01-05T20:56:00Z,35.03,-110.72,-2.8,-7.8,0,0,,10.0,30.129921,1025.6,,TRUE,TRUE,,,,,,,CLR,,,,,,,,VFR,-2.5,,,,,,,,,,,METAR,1490.0
KSFO 052056Z 18025G37KT 9SM -RA FEW012 BKN030 OVC050 13/09 A2962 RMK AO2 PK WND 17046/2025 RAB03E23B39 SLP030 P0000 60000 T01330094 56023 $,KSFO,2019-01-05T20:56:00Z,37.62,-122.37,13.3,9.4,180,25,37,9.0,29.619095,1003.0,,,TRUE,TRUE,,,,,-RA,FEW,1200,BKN,3000,OVC,5000,,,MVFR,-2.3,,,,,0.005,0.005,,,,,METAR,3.0
KJAX 052056Z 28015G18KT 10SM CLR 14/07 A3001 RMK AO2 SLP161 T01440067 53001,KJAX,2019-01-05T20:56:00Z,30.5,-81.68,14.4,6.7,280,15,18,10.0,30.008858,1016.1,,,TRUE,,,,,,,CLR,,,,,,,,VFR,0.1,,,,,,,,,,,METAR,10.0
KELZ 052056Z AUTO VRB06KT 10SM CLR 04/00 A2967 RMK AO2 SLP064 T00390000 53020,KELZ,2019-01-05T20:56:00Z,42.1,-77.98,3.9,0.0,0,6,,10.0,29.66929,1006.4,,TRUE,TRUE,,,,,,,CLR,,,,,,,,VFR,2.0,,,,,,,,,,,METAR,646.0
KEKO 052056Z AUTO 08012KT 10SM BKN110 M03/M09 A2979 RMK AO2 SLP134 T10331089 58028,KEKO,2019-01-05T20:56:00Z,40.82,-115.78,-3.3,-8.9,80,12,,10.0,29.790354,1013.4,,TRUE,TRUE,,,,,,,BKN,11000,,,,,,,VFR,-2.8,,,,,,,,,,,METAR,1547.0
KEED 052056Z AUTO 00000KT 10SM OVC100 10/M06 A3002 RMK AO2 SLP160 T01001061 56012 $,KEED,2019-01-05T20:56:00Z,34.77,-114.62,10.0,-6.1,0,0,,10.0,30.02067,1016.0,,TRUE,TRUE,TRUE,,,,,,OVC,10000,,,,,,,VFR,-1.2,,,,,,,,,,,METAR,302.0
KEAU 052056Z 30011G19KT 10SM CLR 08/M01 A2986 RMK AO2 SLP119 T00781006 53020,KEAU,2019-01-05T20:56:00Z,44.87,-91.47,7.8,-0.6,300,11,19,10.0,29.861221,1011.9,,,TRUE,,,,,,,CLR,,,,,,,,VFR,2.0,,,,,,,,,,,METAR,276.0
KLAS 052056Z 07003KT 10SM FEW100 SCT130 OVC220 09/M07 A2997 RMK AO2 SLP150 T00941072 56019,KLAS,2019-01-05T20:56:00Z,36.07,-115.17,9.4,-7.2,70,3,,10.0,29.970472,1015.0,,,TRUE,,,,,,,FEW,10000,SCT,13000,OVC,22000,,,VFR,-1.9,,,,,,,,,,,METAR,636.0
KJXN 052056Z 22009KT 10SM CLR 08/03 A2978 RMK AO2 SLP094 T00780028 51007,KJXN,2019-01-05T20:56:00Z,42.27,-84.47,7.8,2.8,220,9,,10.0,29.778543,1009.4,,,TRUE,,,,,,,CLR,,,,,,,,VFR,0.7,,,,,,,,,,,METAR,305.0
KJMS 052056Z AUTO 02010KT 10SM OVC006 M02/M04 A3002 RMK AO2 SLP182 T10221039 51005,KJMS,2019-01-05T20:56:00Z,46.93,-98.67,-2.2,-3.9,20,10,,10.0,30.02067,1018.2,,TRUE,TRUE,,,,,,,OVC,600,,,,,,,IFR,0.5,,,,,,,,,,,METAR,455.0
KFSD 052056Z 35004KT 10SM SCT180 07/01 A2999 RMK AO2 SLP168 T00720006 53008,KFSD,2019-01-05T20:56:00Z,43.58,-96.75,7.2,0.6,350,4,,10.0,29.991142,1016.8,,,TRUE,,,,,,,SCT,18000,,,,,,,VFR,0.8,,,,,,,,,,,METAR,436.0
EGUL 052056Z AUTO 00000KT 9999 OVC026 M A3060 RMK AO2 SLPNO ALSTG ESTMD 56003 $,EGUL,2019-01-05T20:56:00Z,52.42,0.57,,,0,0,,6.21,30.59941,,,TRUE,TRUE,TRUE,,,,,,OVC,2600,,,,,,,MVFR,-0.3,,,,,,,,,,,METAR,10.0
KHPN 052056Z 34016G23KT 6SM -RA BR BKN010 BKN014 OVC021 06/04 A2945 RMK AO2 SLP978 P0005 60005 T00560044 53021,KHPN,2019-01-05T20:56:00Z,41.07,-73.7,5.6,4.4,340,16,23,6.0,29.450787,997.8,,,TRUE,,,,,,-RA BR,BKN,1000,BKN,1400,OVC,2100,,,MVFR,2.1,,,,,0.05,0.05,,,,,METAR,121.0
KHYA 052056Z 04010KT 1SM -RA BR OVC003 06/05 A2938 RMK AO2 LTG DSNT SE SLP951 P0001 60001 T00610050 56022,KHYA,2019-01-05T20:56:00Z,41.67,-70.27,6.1,5.0,40,10,,1.0,29.379921,995.1,,,TRUE,,,,,,-RA BR,OVC,300,,,,,,,LIFR,-2.2,,,,,0.01,0.01,,,,,METAR,22.0
KWJF 052056Z 02004KT 10SM CLR 10/M09 A2994 RMK AO2 SLP150 T01001094 56021,KWJF,2019-01-05T20:56:00Z,34.72,-118.22,10.0,-9.4,20,4,,10.0,29.940945,1015.0,,,TRUE,,,,,,,CLR,,,,,,,,VFR,-2.1,,,,,,,,,,,METAR,715.0
KLWS 052056Z 13014KT 10SM CLR 09/M04 A2963 RMK AO2 SLP038 T00891039 58036,KLWS,2019-01-05T20:56:00Z,46.37,-117.02,8.9,-3.9,130,14,,10.0,29.630905,1003.8,,,TRUE,,,,,,,CLR,,,,,,,,VFR,-3.6,,,,,,,,,,,METAR,438.0
KWMC 052056Z AUTO 05011KT 10SM BKN110 01/M06 A2969 RMK AO2 SLP069 T00061056 58026,KWMC,2019-01-05T20:56:00Z,40.9,-117.8,0.6,-5.6,50,11,,10.0,29.68996,1006.9,,TRUE,TRUE,,,,,,,BKN,11000,,,,,,,VFR,-2.6,,,,,,,,,,,METAR,1310.0
KOFK 052056Z AUTO 36006KT 10SM CLR 09/02 A2996 RMK AO2 SLP157 T00940022 53004,KOFK,2019-01-05T20:56:00Z,41.98,-97.43,9.4,2.2,360,6,,10.0,29.958662,1015.7,,TRUE,TRUE,,,,,,,CLR,,,,,,,,VFR,0.4,,,,,,,,,,,METAR,470.0
KNUQ 052056Z 15012G23KT 10SM BKN036 BKN055 12/08 A2970 RMK AO2 PK WND 15028/2042 SLP059 60000 T01220083 55006,KNUQ,2019-01-05T20:56:00Z,37.4,-122.05,12.2,8.3,150,12,23,10.0,29.698818,1005.9,,,TRUE,,,,,,,BKN,3600,BKN,5500,,,,,VFR,-0.6,,,,,,0.005,,,,,METAR,12.0
KMOT 052056Z 06007KT 3SM BR OVC002 M04/M06 A3004 RMK AO2 T10391056,KMOT,2019-01-05T20:56:00Z,48.25,-101.27,-3.9,-5.6,60,7,,3.0,30.041338,,,,TRUE,,,,,,BR,OVC,200,,,,,,,LIFR,,,,,,,,,,,,METAR,519.0
KMOB 052056Z 32004KT 10SM CLR 18/03 A3014 RMK AO2 SLP205 T01780033 55007 $,KMOB,2019-01-05T20:56:00Z,30.68,-88.25,17.8,3.3,320,4,,10.0,30.138779,1020.5,,,TRUE,TRUE,,,,,,CLR,,,,,,,,VFR,-0.7,,,,,,,,,,,METAR,63.0
KMDT 052056Z 31012KT 10SM CLR 09/04 A2962 RMK AO2 SLP033 60002 T00890044 51032,KMDT,2019-01-05T20:56:00Z,40.2,-76.77,8.9,4.4,310,12,,10.0,29.619095,1003.3,,,TRUE,,,,,,,CLR,,,,,,,,VFR,3.2,,,,,,0.02,,,,,METAR,95.0
KBED 052056Z 01010KT 2 1/2SM -RA BR OVC004 04/02 A2949 RMK AO2 SLP003 P0003 60007 T00390022 55001,KBED,2019-01-05T20:56:00Z,42.47,-71.3,3.9,2.2,10,10,,2.5,29.489174,1000.3,,,TRUE,,,,,,-RA BR,OVC,400,,,,,,,LIFR,-0.1,,,,,0.03,0.07,,,,,METAR,50.0
KART 052056Z AUTO 31007KT 8SM OVC020 02/M01 A2968 RMK AO2 SLP058 T00221006 53020,KART,2019-01-05T20:56:00Z,43.98,-76.03,2.2,-0.6,310,7,,8.0,29.681103,1005.8,,TRUE,TRUE,,,,,,,OVC,2000,,,,,,,MVFR,2.0,,,,,,,,,,,METAR,100.0
KAND 052056Z AUTO 27009G19KT 10SM CLR 17/02 A2994 RMK AO2 SLP135 T01670022 53016,KAND,2019-01-05T20:56:00Z,34.5,-82.72,16.7,2.2,270,9,19,10.0,29.940945,1013.5,,TRUE,TRUE,,,,,,,CLR,,,,,,,,VFR,1.6,,,,,,,,,,,METAR,239.0
KBIH 052056Z AUTO 18005KT 10SM OVC085 07/M09 A2982 RMK AO2 SLP100 T00721094 56022,KBIH,2019-01-05T20:56:00Z,37.37,-118.35,7.2,-9.4,180,5,,10.0,29.819881,1010.0,,TRUE,TRUE,,,,,,,OVC,8500,,,,,,,VFR,-2.2,,,,,,,,,,,METAR,1253.0
KBJJ 052056Z AUTO 25008KT 10SM CLR 08/02 A2981 RMK AO2 SLP100 T00830017 50005,KBJJ,2019-01-05T20:56:00Z,40.87,-81.88,8.3,1.7,250,8,,10.0,29.811024,1010.0,,TRUE,TRUE,,,,,,,CLR,,,,,,,,VFR,0.5,,,,,,,,,,,METAR,343.0
RJTY 052056Z AUTO 01010KT 10SM CLR 01/M07 A3004 RMK AO2 SLP183 T00081072 52012 FZRANO $,RJTY,2019-01-05T20:56:00Z,35.75,139.33,0.8,-7.2,10,10,,10.0,30.041338,1018.3,,TRUE,TRUE,TRUE,,,TRUE,,,CLR,,,,,,,,VFR,1.2,,,,,,,,,,,SPECI,139.0
KBZN 052056Z 00000KT 10SM CLR 02/M05 A2980 RMK AO2 SLP121 T00221050 58025,KBZN,2019-01-05T20:56:00Z,45.78,-111.17,2.2,-5.0,0,0,,10.0,29.799213,1012.1,,,TRUE,,,,,,,CLR,,,,,,,,VFR,-2.5,,,,,,,,,,,METAR,1361.0
KSHV 052056Z 19004KT 10SM CLR 19/02 A3012 RMK AO2 SLP200 T01940017 55011,KSHV,2019-01-05T20:56:00Z,32.45,-93.83,19.4,1.7,190,4,,10.0,30.121063,1020.0,,,TRUE,,,,,,,CLR,,,,,,,,VFR,-1.1,,,,,,,,,,,METAR,83.0
KSLE 052056Z 15006KT 5SM BR OVC005 06/05 A2943 RMK AO2 RAB19E29 SLP965 P0000 60000 T00610050 58025,KSLE,2019-01-05T20:56:00Z,44.9,-123.0,6.1,5.0,150,6,,5.0,29.430119,996.5,,,TRUE,,,,,,BR,OVC,500,,,,,,,IFR,-2.5,,,,,0.005,0.005,,,,,METAR,59.0
OKAS 052056Z 13007KT 8000 HZ CLR 13/09 A3006 RMK AO2A SLP179 WND DATA ESTMD T01260092 402060070 57027 PA +344,OKAS,2019-01-05T20:56:00Z,,,12.6,9.2,130,7,,4.97,30.059055,1017.9,,,TRUE,,,,,,HZ,CLR,,,,,,,,MVFR,-2.7,,,20.6,7.0,,,,,,,METAR,
KTPH 052056Z AUTO 19016KT 10SM OVC110 05/M14 A2985 RMK AO2 PK WND 18026/2040 SLP117 T00501139 56025,KTPH,2019-01-05T20:56:00Z,38.05,-117.08,5.0,-13.9,190,16,,10.0,29.84941,1011.7,,TRUE,TRUE,,,,,,,OVC,11000,,,,,,,VFR,-2.5,,,,,,,,,,,METAR,1652.0
KQND 052056Z AUTO 00000KT 9999 CLR 21/00 A3004 RMK AO2 SLP166 WND DATA ESTMD T02101004,KQND,2019-01-05T20:56:00Z,,,21.0,-0.4,0,0,,6.21,30.041338,1016.6,,TRUE,TRUE,,,,,,,CLR,,,,,,,,VFR,,,,,,,,,,,,METAR,
KQRH 052056Z AUTO 00000KT 9999 CLR 23/18 A3008 RMK AO2 SLP173 WND DATA ESTMD T02260175 402860221,KQRH,2019-01-05T20:56:00Z,,,22.6,17.5,0,0,,6.21,30.079725,1017.3,,TRUE,TRUE,,,,,,,CLR,,,,,,,,VFR,,,,28.6,22.1,,,,,,,METAR,
KBLV 052056Z AUTO 24005KT 10SM CLR 16/01 A2999 RMK AO2 SLP160 T01590012 55003 $,KBLV,2019-01-05T20:56:00Z,38.53,-89.83,15.9,1.2,240,5,,10.0,29.991142,1016.0,,TRUE,TRUE,TRUE,,,,,,CLR,,,,,,,,VFR,-0.3,,,,,,,,,,,METAR,138.0
KQN3 052056Z AUTO 00000KT 9999 CLR 24/M06 A3001 RMK AO2 SLP159 WND DATA ESTMD T02381056 51019,KQN3,2019-01-05T20:56:00Z,,,23.8,-5.6,0,0,,6.21,30.008858,1015.9,,TRUE,TRUE,,,,,,,CLR,,,,,,,,VFR,1.9,,,,,,,,,,,METAR,
KQDG 052056Z AUTO 27009KT M M FEW027 BKN040 M02/M03 A3002 RMK AO2 SLP168 60002 T10171033 55003 PWINO FZRANO $,KQDG,2019-01-05T20:56:00Z,,,-1.7,-3.3,270,9,,,30.02067,1016.8,,TRUE,TRUE,TRUE,,,TRUE,TRUE,,FEW,2700,BKN,4000,,,,,,-0.3,,,,,,0.02,,,,,METAR,
KQD3 052056Z AUTO 00000KT 9999 CLR 21/16 A3004 RMK AO2 SLP157 WND DATA ESTMD T02110162 56006,KQD3,2019-01-05T20:56:00Z,,,21.1,16.2,0,0,,6.21,30.041338,1015.7,,TRUE,TRUE,,,,,,,CLR,,,,,,,,VFR,-0.6,,,,,,,,,,,METAR,
KQBF 052056Z AUTO 03004KT 8000 HZ CLR 25/M03 A3003 RMK AO2 SLP128 WND DATA ESTMD T02461034 52024,KQBF,2019-01-05T20:56:00Z,,,24.6,-3.4,30,4,,4.97,30.029528,1012.8,,TRUE,TRUE,,,,,,HZ,CLR,,,,,,,,MVFR,2.4,,,,,,,,,,,METAR,
KNUW 052056Z 10004KT 10SM FEW050 BKN110 BKN140 BKN180 10/03 A2945 RMK AO2 SLP971 T01000033 58042 $,KNUW,2019-01-05T20:56:00Z,48.35,-122.65,10.0,3.3,100,4,,10.0,29.450787,997.1,,,TRUE,TRUE,,,,,,FEW,5000,BKN,11000,BKN,14000,BKN,18000,VFR,-4.2,,,,,,,,,,,METAR,14.0
KMEH 052056Z AUTO 00000KT 10SM CLR 02/M06 A2958 RMK AO2 SLP033 T00221056 58028,KMEH,2019-01-05T20:56:00Z,45.52,-118.42,2.2,-5.6,0,0,,10.0,29.58071,1003.3,,TRUE,TRUE,,,,,,,CLR,,,,,,,,VFR,-2.8,,,,,,,,,,,METAR,1136.0
KFFO 052056Z AUTO 23010KT 10SM CLR 10/03 A2990 RMK AO2 SLP132 T01010034 52008,KFFO,2019-01-05T20:56:00Z,39.82,-84.03,10.1,3.4,230,10,,10.0,29.899607,1013.2,,TRUE,TRUE,,,,,,,CLR,,,,,,,,VFR,0.8,,,,,,,,,,,METAR,251.0
RKSG 052056Z 00000KT 5SM BR SCT180 M09/M09 A3036 RMK AO2A SLP286 T10931095 55003 $,RKSG,2019-01-05T20:56:00Z,36.97,127.02,-9.3,-9.5,0,0,,5.0,30.360237,1028.6,,,TRUE,TRUE,,,,,BR,SCT,18000,,,,,,,MVFR,-0.3,,,,,,,,,,,SPECI,16.0
MUGM 052056Z 20008KT 9999 FEW035 28/25 A3000 RMK SLP160 T02820246 55003,MUGM,2019-01-05T20:56:00Z,19.9,-75.2,28.2,24.6,200,8,,6.21,30.0,1016.0,,,,,,,,,,FEW,3500,,,,,,,VFR,-0.3,,,,,,,,,,,METAR,17.0
KMIB 052056Z AUTO 02005KT 10SM OVC004 M04/M05 A3003 RMK AO2 SLP196 T10441054 51007 $,KMIB,2019-01-05T20:56:00Z,48.42,-101.33,-4.4,-5.4,20,5,,10.0,30.029528,1019.6,,TRUE,TRUE,TRUE,,,,,,OVC,400,,,,,,,LIFR,0.7,,,,,,,,,,,METAR,508.0
KMUI 052056Z AUTO 29012G18KT 10SM CLR 09/03 A2960 RMK AO2 SLP028 60001 T00870033 52029 $,KMUI,2019-01-05T20:56:00Z,40.42,-76.57,8.7,3.3,290,12,18,10.0,29.601377,1002.8,,TRUE,TRUE,TRUE,,,,,,CLR,,,,,,,,VFR,2.9,,,,,,0.01,,,,,METAR,149.0
KCBM 052056Z AUTO 00000KT 10SM CLR 15/04 A3012 RMK AO2 SLP203 T01460043 55006 $,KCBM,2019-01-05T20:56:00Z,33.63,-88.45,14.6,4.3,0,0,,10.0,30.121063,1020.3,,TRUE,TRUE,TRUE,,,,,,CLR,,,,,,,,VFR,-0.6,,,,,,,,,,,METAR,67.0
KEND 052056Z AUTO 14009KT 10SM CLR 16/05 A2998 RMK AO2 SLP157 T01610051 $,KEND,2019-01-05T20:56:00Z,36.32,-97.92,16.1,5.1,140,9,,10.0,29.97933,1015.7,,TRUE,TRUE,TRUE,,,,,,CLR,,,,,,,,VFR,,,,,,,,,,,,METAR,398.0
KFSI 052056Z AUTO 16007KT 10SM M 14/07 A3000 RMK AO2 SLP161 T01430071 57024 $,KFSI,2019-01-05T20:56:00Z,34.65,-98.4,14.3,7.1,160,7,,10.0,30.0,1016.1,,TRUE,TRUE,TRUE,,,,,,,,,,,,,,,-2.4,,,,,,,,,,,METAR,362.0
KOFF 052056Z AUTO 31003KT 10SM CLR 13/03 A2996 RMK AO2 SLP156 T01340029 53001 $,KOFF,2019-01-05T20:56:00Z,41.12,-95.92,13.4,2.9,310,3,,10.0,29.958662,1015.6,,TRUE,TRUE,TRUE,,,,,,CLR,,,,,,,,VFR,0.1,,,,,,,,,,,METAR,319.0
KPSM 052056Z 35010KT 7SM -RA OVC012 03/01 A2950 RMK AO2A RAB44 SLP993 P0000 60001 T00310005 57016,KPSM,2019-01-05T20:56:00Z,43.07,-70.82,3.1,0.5,350,10,,7.0,29.500984,999.3,,,TRUE,,,,,,-RA,OVC,1200,,,,,,,MVFR,-1.6,,,,,0.005,0.01,,,,,METAR,31.0
KCEC 052056Z AUTO 17020G30KT 10SM -RA SCT060 OVC080 13/06 A2927 RMK AO2 PK WND 18030/2053 RAB20 SLP913 P0000 60000 T01280056 56058,KCEC,2019-01-05T20:56:00Z,41.77,-124.22,12.8,5.6,170,20,30,10.0,29.27067,991.3,,TRUE,TRUE,,,,,,-RA,SCT,6000,OVC,8000,,,,,VFR,-5.8,,,,,0.005,0.005,,,,,METAR,17.0
KVOK 052056Z 27010KT 10SM FEW120 FEW200 09/00 A2983 RMK AO2A SLP114 53010,KVOK,2019-01-05T20:56:00Z,43.92,-90.27,9.0,0.0,270,10,,10.0,29.828741,1011.4,,,TRUE,,,,,,,FEW,12000,FEW,20000,,,,,VFR,1.0,,,,,,,,,,,METAR,277.0
KBIX 052056Z AUTO 23007KT 10SM CLR 16/07 A3014 RMK AO2 SLP209 T01610073 55010,KBIX,2019-01-05T20:56:00Z,30.42,-88.92,16.1,7.3,230,7,,10.0,30.138779,1020.9,,TRUE,TRUE,,,,,,,CLR,,,,,,,,VFR,-1.0,,,,,,,,,,,METAR,10.0
KHST 052056Z AUTO 26008KT 10SM CLR 25/14 A3000 RMK AO2 SLP162 T02530135 55003 FZRANO $,KHST,2019-01-05T20:56:00Z,25.47,-80.37,25.3,13.5,260,8,,10.0,30.0,1016.2,,TRUE,TRUE,TRUE,,,TRUE,,,CLR,,,,,,,,VFR,-0.3,,,,,,,,,,,METAR,2.0
KSSC 052056Z AUTO 27010KT 10SM CLR 17/05 A2989 RMK AO2 SLP123 T01660052 52011 TSNO $,KSSC,2019-01-05T20:56:00Z,33.97,-80.47,16.6,5.2,270,10,,10.0,29.890747,1012.3,,TRUE,TRUE,TRUE,,TRUE,,,,CLR,,,,,,,,VFR,1.1,,,,,,,,,,,METAR,74.0
K2DP 052056Z AUTO 27012KT 10SM CLR 14/06 A2970 RMK AO2 SLPNO T01380056 52025,K2DP,2019-01-05T20:56:00Z,35.68,-75.9,13.8,5.6,270,12,,10.0,29.698818,,,TRUE,TRUE,,,,,,,CLR,,,,,,,,VFR,2.5,,,,,,,,,,,METAR,3.0
KDLF 052056Z AUTO 15011KT 10SM CLR 23/02 A3006 RMK AO2 SLP178 T02290024 57030,KDLF,2019-01-05T20:56:00Z,29.37,-100.77,22.9,2.4,150,11,,10.0,30.059055,1017.8,,TRUE,TRUE,,,,,,,CLR,,,,,,,,VFR,-3.0,,,,,,,,,,,METAR,330.0
KEGI 052056Z AUTO 34006KT 10SM CLR 17/03 A3011 RMK AO2 SLP197 T01710034 56005 $,KEGI,2019-01-05T20:56:00Z,30.63,-86.52,17.1,3.4,340,6,,10.0,30.109253,1019.7,,TRUE,TRUE,TRUE,,,,,,CLR,,,,,,,,VFR,-0.5,,,,,,,,,,,SPECI,59.0
KFRI 052056Z AUTO 28004KT 10SM CLR 17/01 A2999 RMK AO2 SLP158 T01700014 56009,KFRI,2019-01-05T20:56:00Z,39.03,-96.77,17.0,1.4,280,4,,10.0,29.991142,1015.8,,TRUE,TRUE,,,,,,,CLR,,,,,,,,VFR,-0.9,,,,,,,,,,,METAR,325.0
KSVN 052056Z AUTO 29010KT 10SM CLR 17/15 A2993 RMK AO2 SLP138 T01660148 53010 FZRANO $,KSVN,2019-01-05T20:56:00Z,32.02,-81.15,16.6,14.8,290,10,,10.0,29.929134,1013.8,,TRUE,TRUE,TRUE,,,TRUE,,,CLR,,,,,,,,VFR,1.0,,,,,,,,,,,METAR,13.0
KSKF 052056Z AUTO 17009KT 10SM CLR 22/03 A3009 RMK AO2 SLP189 T02240030 57027,KSKF,2019-01-05T20:56:00Z,29.37,-98.57,22.4,3.0,170,9,,10.0,30.088583,1018.9,,TRUE,TRUE,,,,,,,CLR,,,,,,,,VFR,-2.7,,,,,,,,,,,METAR,210.0
KLSF 052056Z AUTO 27009KT 10SM CLR 17/03 A3005 RMK AO2 SLP181 T01710034 53002,KLSF,2019-01-05T20:56:00Z,32.32,-84.97,17.1,3.4,270,9,,10.0,30.050198,1018.1,,TRUE,TRUE,,,,,,,CLR,,,,,,,,VFR,0.2,,,,,,,,,,,METAR,71.0
KLHW 052056Z AUTO 27011G15KT 10SM CLR 17/06 A2995 RMK AO2 SLP145 T01690061 53006 $,KLHW,2019-01-05T20:56:00Z,31.87,-81.57,16.9,6.1,270,11,15,10.0,29.949802,1014.5,,TRUE,TRUE,TRUE,,,,,,CLR,,,,,,,,VFR,0.6,,,,,,,,,,,METAR,14.0
KTBN 052056Z AUTO 23006KT 10SM CLR 18/01 A3001 RMK AO2 SLP165 T01790005 56007 $,KTBN,2019-01-05T20:56:00Z,37.72,-92.12,17.9,0.5,230,6,,10.0,30.008858,1016.5,,TRUE,TRUE,TRUE,,,,,,CLR,,,,,,,,VFR,-0.7,,,,,,,,,,,METAR,353.0
PGUA 052056Z 05014KT 10SM SCT026 25/20 A2997 RMK AO2A SLP139 T02490201 53012 PWINO $,PGUA,2019-01-05T20:56:00Z,13.57,144.92,24.9,20.1,50,14,,10.0,29.970472,1013.9,,,TRUE,TRUE,,,,TRUE,,SCT,2600,,,,,,,VFR,1.2,,,,,,,,,,,SPECI,187.0
RKJK 052056Z AUTO 00000KT 10SM CLR M05/M08 A3036 RMK AO2 SLP286 T10461080 55001 PNO $,RKJK,2019-01-05T20:56:00Z,35.9,126.62,-4.6,-8.0,0,0,,10.0,30.360237,1028.6,,TRUE,TRUE,TRUE,,,,,,CLR,,,,,,,,VFR,-0.1,,,,,,,,,,,SPECI,9.0
KNGP 052056Z AUTO 15011KT 10SM CLR 22/09 A3013 RMK AO2 SLP203 T02220089 56021,KNGP,2019-01-05T20:56:00Z,27.68,-97.27,22.2,8.9,150,11,,10.0,30.129921,1020.3,,TRUE,TRUE,,,,,,,CLR,,,,,,,,VFR,-2.1,,,,,,,,,,,SPECI,6.0
PAEI 052056Z 00000KT 10SM FEW100 M36/M40 A2995 RMK AO2A SLP171 T13571405 50004 $,PAEI,2019-01-05T20:56:00Z,64.67,-147.1,-35.7,-40.5,0,0,,10.0,29.949802,1017.1,,,TRUE,TRUE,,,,,,FEW,10000,,,,,,,VFR,0.4,,,,,,,,,,,METAR,167.0
KXNO 052056Z AUTO 26014KT 10SM CLR M A2994 RMK AO2 SLPNO ALSTG ESTMD 52014 $,KXNO,2019-01-05T20:56:00Z,33.62,-81.07,,,260,14,,10.0,29.940945,,,TRUE,TRUE,TRUE,,,,,,CLR,,,,,,,,VFR,1.4,,,,,,,,,,,METAR,98.0
KXMR 052056Z AUTO 29013KT 10SM CLR 21/11 A2998 RMK AO2 SLP155 T02140108 53002 $,KXMR,2019-01-05T20:56:00Z,28.47,-80.57,21.4,10.8,290,13,,10.0,29.97933,1015.5,,TRUE,TRUE,TRUE,,,,,,CLR,,,,,,,,VFR,0.2,,,,,,,,,,,METAR,3.0
KVAD 052056Z AUTO 29011KT 10SM CLR 15/07 A3004 RMK AO2 SLP175 T01490070 55000 $,KVAD,2019-01-05T20:56:00Z,30.97,-83.2,14.9,7.0,290,11,,10.0,30.041338,1017.5,,TRUE,TRUE,TRUE,,,,,,CLR,,,,,,,,VFR,0.0,,,,,,,,,,,METAR,71.0
KMXF 052056Z AUTO 31006KT 10SM CLR 17/03 A3010 RMK AO2 SLP196 T01690028 55004 $,KMXF,2019-01-05T20:56:00Z,32.37,-86.37,16.9,2.8,310,6,,10.0,30.100393,1019.6,,TRUE,TRUE,TRUE,,,,,,CLR,,,,,,,,VFR,-0.4,,,,,,,,,,,METAR,51.0
KLTS 052056Z AUTO 16006KT 10SM CLR 16/06 A3001 RMK AO2 SLP165 T01560055 56024 $,KLTS,2019-01-05T20:56:00Z,34.67,-99.27,15.6,5.5,160,6,,10.0,30.008858,1016.5,,TRUE,TRUE,TRUE,,,,,,CLR,,,,,,,,VFR,-2.4,,,,,,,,,,,METAR,420.0
KLRF 052056Z AUTO 19006KT 10SM CLR 17/05 A3008 RMK AO2 SLP190 T01660049 56009 $,KLRF,2019-01-05T20:56:00Z,34.92,-92.15,16.6,4.9,190,6,,10.0,30.079725,1019.0,,TRUE,TRUE,TRUE,,,,,,CLR,,,,,,,,VFR,-0.9,,,,,,,,,,,METAR,95.0
KGSB 052056Z AUTO 29011G19KT 10SM CLR 18/03 A2976 RMK AO2 SLP080 T01750026 53015 $,KGSB,2019-01-05T20:56:00Z,35.32,-77.97,17.5,2.6,290,11,19,10.0,29.760826,1008.0,,TRUE,TRUE,TRUE,,,,,,CLR,,,,,,,,VFR,1.5,,,,,,,,,,,METAR,33.0
PHSF 052056Z AUTO 15016G24KT 10SM CLR 22/M20 A3034 RMK AO2 PK WND 16026/38 SLP157 WND DATA ESTMD T02171196 50001 PWINO $,PHSF,2019-01-05T20:56:00Z,19.77,-155.55,21.7,-19.6,150,16,24,10.0,30.339567,1015.7,,TRUE,TRUE,TRUE,,,,TRUE,,CLR,,,,,,,,VFR,0.1,,,,,,,,,,,SPECI,1887.0
KTTS 052056Z AUTO 30009KT 10SM CLR 21/11 A2999 RMK AO2 SLP160 T02050106 53003 $,KTTS,2019-01-05T20:56:00Z,28.62,-80.72,20.5,10.6,300,9,,10.0,29.991142,1016.0,,TRUE,TRUE,TRUE,,,,,,CLR,,,,,,,,VFR,0.3,,,,,,,,,,,METAR,3.0
KTIK 052056Z AUTO 19009KT 10SM CLR 17/04 A3002 RMK AO2 SLP173 T01720038 56018 $,KTIK,2019-01-05T20:56:00Z,35.42,-97.37,17.2,3.8,190,9,,10.0,30.02067,1017.3,,TRUE,TRUE,TRUE,,,,,,CLR,,,,,,,,VFR,-1.8,,,,,,,,,,,METAR,394.0
KOZR 052056Z AUTO 29009KT 10SM CLR 16/02 A3009 RMK AO2 SLP192 T01640024 55002 $,KOZR,2019-01-05T20:56:00Z,31.28,-85.72,16.4,2.4,290,9,,10.0,30.088583,1019.2,,TRUE,TRUE,TRUE,,,,,,CLR,,,,,,,,VFR,-0.2,,,,,,,,,,,METAR,93.0
KSMP 052056Z AUTO VRB04KT 10SM FEW110 01/M02 A2945 RMK AO2 SLP987 T00061017 58035 $,KSMP,2019-01-05T20:56:00Z,47.28,-121.33,0.6,-1.7,0,4,,10.0,29.450787,998.7,,TRUE,TRUE,TRUE,,,,,,FEW,11000,,,,,,,VFR,-3.5,,,,,,,,,,,METAR,1208.0
TJSJ 052056Z 08014KT 10SM FEW035 27/19 A3004 RMK AO2 SLP170 T02720194 55001,TJSJ,2019-01-05T20:56:00Z,18.43,-66.02,27.2,19.4,80,14,,10.0,30.041338,1017.0,,,TRUE,,,,,,,FEW,3500,,,,,,,VFR,-0.1,,,,,,,,,,,METAR,21.0
KMCF 052056Z COR AUTO 32009G15KT 10SM OVC024 17/11 A3006 RMK AO2A SLPNO ALSTG ESTMD T01690107 FZRANO $ COR 2112,KMCF,2019-01-05T20:56:00Z,27.85,-82.52,16.9,10.7,320,9,15,10.0,30.059055,,TRUE,TRUE,TRUE,TRUE,,,TRUE,,,OVC,2400,,,,,,,MVFR,,,,,,,,,,,,METAR,4.0
KHRT 052056Z AUTO 36008KT 10SM CLR 17/04 A3010 RMK AO2 SLP195 T01710044 57007 $,KHRT,2019-01-05T20:56:00Z,30.42,-86.67,17.1,4.4,360,8,,10.0,30.100393,1019.5,,TRUE,TRUE,TRUE,,,,,,CLR,,,,,,,,VFR,-0.7,,,,,,,,,,,SPECI,12.0
KWRB 052056Z 31012KT 10SM CLR 18/02 A3001 RMK AO2A SLP165 T01760023 53005,KWRB,2019-01-05T20:56:00Z,32.62,-83.58,17.6,2.3,310,12,,10.0,30.008858,1016.5,,,TRUE,,,,,,,CLR,,,,,,,,VFR,0.5,,,,,,,,,,,METAR,90.0
KSZL 052056Z 25007KT 10SM CLR 15/03 A3002 RMK AO2A SLP168 ALSTG ESTMD SLP ESTMD T01480030 $,KSZL,2019-01-05T20:56:00Z,38.72,-93.53,14.8,3.0,250,7,,10.0,30.02067,1016.8,,,TRUE,TRUE,,,,,,CLR,,,,,,,,VFR,,,,,,,,,,,,METAR,265.0
KMMT 052056Z 27010KT 10SM CLR 17/05 A2991 RMK AO2A SLP131 T01730049 52013 $,KMMT,2019-01-05T20:56:00Z,33.92,-80.78,17.3,4.9,270,10,,10.0,29.911417,1013.1,,,TRUE,TRUE,,,,,,CLR,,,,,,,,VFR,1.3,,,,,,,,,,,SPECI,77.0
KMGE 052056Z 30009KT 10SM CLR 14/02 A3004 RMK AO2A SLP174 T01420021 53006 $,KMGE,2019-01-05T20:56:00Z,33.92,-84.52,14.2,2.1,300,9,,10.0,30.041338,1017.4,,,TRUE,TRUE,,,,,,CLR,,,,,,,,VFR,0.6,,,,,,,,,,,METAR,326.0
KNSE 052056Z AUTO VRB05KT 10SM CLR 17/05 A3013 RMK AO2 SLP189 T01670050 55004 $,KNSE,2019-01-05T20:56:00Z,30.73,-87.02,16.7,5.0,0,5,,10.0,30.129921,1018.9,,TRUE,TRUE,TRUE,,,,,,CLR,,,,,,,,VFR,-0.4,,,,,,,,,,,SPECI,61.0
KP60 052056Z AUTO 00000KT M04/M10 A2994 RMK AO1 SLP183 60001 T10391100 56015,KP60,2019-01-05T20:56:00Z,44.55,-110.42,-3.9,-10.0,0,0,,,29.940945,1018.3,,TRUE,TRUE,,,,,,,,,,,,,,,,-1.5,,,,,,0.01,,,,,METAR,2388.0
RODN 052056Z 05005KT 2 1/2SM -SHRA OVC021 19/18 A3011 RMK AO2A VIS 2 1/2V3 SLP203 T01860176 53007 PWINO $,RODN,2019-01-05T20:56:00Z,26.35,127.77,18.6,17.6,50,5,,2.5,30.109253,1020.3,,,TRUE,TRUE,,,,TRUE,-SHRA,OVC,2100,,,,,,,IFR,0.7,,,,,,,,,,,SPECI,45.0
KNRS 052056Z AUTO 16010G17KT 10SM SCT065 OVC085 16/08 A3001 RMK AO2 SLP163 T01560083 56016 $,KNRS,2019-01-05T20:56:00Z,32.57,-117.12,15.6,8.3,160,10,17,10.0,30.008858,1016.3,,TRUE,TRUE,TRUE,,,,,,SCT,6500,OVC,8500,,,,,VFR,-1.6,,,,,,,,,,,METAR,7.0
KCNK 052055Z AUTO 22004KT 10SM CLR 16/00 A2997 RMK AO2 SLP151 T01560000 56010 $,KCNK,2019-01-05T20:55:00Z,39.55,-97.65,15.6,0.0,220,4,,10.0,29.970472,1015.1,,TRUE,TRUE,TRUE,,,,,,CLR,,,,,,,,VFR,-1.0,,,,,,,,,,,METAR,447.0
KUGN 052055Z 27007KT 10SM CLR 11/01 A2983 RMK AO2 SLP106 T01110006 51014,KUGN,2019-01-05T20:55:00Z,42.42,-87.87,11.1,0.6,270,7,,10.0,29.828741,1010.6,,,TRUE,,,,,,,CLR,,,,,,,,VFR,1.4,,,,,,,,,,,METAR,222.0
KIRK 052055Z AUTO 24005KT 10SM CLR 14/04 A2998 RMK AO2 SLP160 T01390039 53004,KIRK,2019-01-05T20:55:00Z,40.1,-92.55,13.9,3.9,240,5,,10.0,29.97933,1016.0,,TRUE,TRUE,,,,,,,CLR,,,,,,,,VFR,0.4,,,,,,,,,,,METAR,293.0
KHON 052055Z AUTO 35006KT 10SM CLR 04/M01 A3000 RMK AO2 SLP173 T00391011 52005,KHON,2019-01-05T20:55:00Z,44.38,-98.23,3.9,-1.1,350,6,,10.0,30.0,1017.3,,TRUE,TRUE,,,,,,,CLR,,,,,,,,VFR,0.5,,,,,,,,,,,METAR,390.0
KCAO 052055Z AUTO 19016KT 10SM CLR 19/M04 A2993 RMK AO2 SLP106 T01941039 56020,KCAO,2019-01-05T20:55:00Z,36.45,-103.15,19.4,-3.9,190,16,,10.0,29.929134,1010.6,,TRUE,TRUE,,,,,,,CLR,,,,,,,,VFR,-2.0,,,,,,,,,,,METAR,1514.0
KNFG 052055Z AUTO 00000KT 10SM FEW075 OVC100 14/08 A2999 RMK AO2 SLP154 T01390078 58021 $,KNFG,2019-01-05T20:55:00Z,33.28,-117.33,13.9,7.8,0,0,,10.0,29.991142,1015.4,,TRUE,TRUE,TRUE,,,,,,FEW,7500,OVC,10000,,,,,VFR,-2.1,,,,,,,,,,,SPECI,24.0
KWWD 052055Z AUTO 29014G20KT 8SM -RA BKN012 BKN019 OVC080 07/07 A2953 RMK AO2 RAB10 SLP002 P0005 60005 T00720067 53029,KWWD,2019-01-05T20:55:00Z,39.02,-74.92,7.2,6.7,290,14,20,8.0,29.530512,1000.2,,TRUE,TRUE,,,,,,-RA,BKN,1200,BKN,1900,OVC,8000,,,MVFR,2.9,,,,,0.05,0.05,,,,,METAR,7.0
KIFP 052055Z 00000KT 20SM OCV140 09/M06 A3001,KIFP,2019-01-05T20:55:00Z,35.15,-114.57,9.0,-6.0,0,0,,20.0,30.008858,,,,,,,,,,,,,,,,,,,,,,,,,,,,,,,METAR,212.0
KGPI 052055Z 01003KT 10SM CLR 04/M01 A2971 RMK AO2 SLP079 T00441011 56029,KGPI,2019-01-05T20:55:00Z,48.32,-114.25,4.4,-1.1,10,3,,10.0,29.71063,1007.9,,,TRUE,,,,,,,CLR,,,,,,,,VFR,-2.9,,,,,,,,,,,METAR,908.0
KADM 052055Z 14005KT 10SM CLR 21/04 A3004,KADM,2019-01-05T20:55:00Z,34.28,-97.02,21.0,4.0,140,5,,10.0,30.041338,,,,,,,,,,,CLR,,,,,,,,VFR,,,,,,,,,,,,METAR,232.0
NZWD 052055Z 05006KT 9999 FEW035 SCT080 BKN180 M07/M10 A2911 RMK SLP858 GRID22006KT SDG/HDG,NZWD,2019-01-05T20:55:00Z,-77.87,167.07,-7.0,-10.0,50,6,,6.21,29.111221,985.8,,,,,,,,,,FEW,3500,SCT,8000,BKN,18000,,,VFR,,,,,,,,,,,,SPECI,22.0
KLDJ 052055Z AUTO 35006KT 1 3/4SM DZ BKN011 OVC015 08/06 A2949 RMK AO2 60012 T00760060,KLDJ,2019-01-05T20:55:00Z,40.62,-74.25,7.6,6.0,350,6,,1.75,29.489174,,,TRUE,TRUE,,,,,,DZ,BKN,1100,OVC,1500,,,,,IFR,,,,,,,0.12,,,,,METAR,7.0
KSUN 052055Z 00000KT 10SM SCT120 02/M07 A2983,KSUN,2019-01-05T20:55:00Z,43.5,-114.28,2.0,-7.0,0,0,,10.0,29.828741,,,,,,,,,,,SCT,12000,,,,,,,VFR,,,,,,,,,,,,METAR,1620.0
TNCE 052055Z AUTO 09012KT 040V120 //// // ///////// 26/21 Q1017 RE//,TNCE,2019-01-05T20:55:00Z,17.47,-62.97,26.0,21.0,90,12,,,30.029528,,,TRUE,,,,,,,,,,,,,,,,,,,,,,,,,,,,METAR,39.0
TNCB 052055Z 10015KT 080V150 9999 FEW021 27/21 Q1013,TNCB,2019-01-05T20:55:00Z,12.13,-68.28,27.0,21.0,100,15,,6.21,29.911417,,,,,,,,,,,FEW,2100,,,,,,,VFR,,,,,,,,,,,,METAR,6.0
KADS 052055Z 17009KT 10SM SKC 21/00 A3007,KADS,2019-01-05T20:55:00Z,32.97,-96.82,21.0,0.0,170,9,,10.0,30.070866,,,,,,,,,,,SKC,,,,,,,,VFR,,,,,,,,,,,,METAR,196.0
OAJL 052055Z 23001KT 6000 BR FEW044 05/03 A3021 RMK AO2A SLP233 T00470033 57003,OAJL,2019-01-05T20:55:00Z,34.42,70.47,4.7,3.3,230,1,,3.73,30.209646,1023.3,,,TRUE,,,,,,BR,FEW,4400,,,,,,,MVFR,-0.3,,,,,,,,,,,METAR,580.0
KNBG 052055Z 29004KT 10SM CLR 18/07 A3016 RMK AO2 SLP212 T01830067 55010 $,KNBG,2019-01-05T20:55:00Z,29.82,-90.02,18.3,6.7,290,4,,10.0,30.159449,1021.2,,,TRUE,TRUE,,,,,,CLR,,,,,,,,VFR,-1.0,,,,,,,,,,,METAR,1.0
KPHP 052055Z AUTO 14003KT 10SM CLR 10/M02 A2997 RMK AO2 SLP159 T01001017 56016,KPHP,2019-01-05T20:55:00Z,44.05,-101.6,10.0,-1.7,140,3,,10.0,29.970472,1015.9,,TRUE,TRUE,,,,,,,CLR,,,,,,,,VFR,-1.6,,,,,,,,,,,METAR,672.0
KMKG 052055Z 23011KT 10SM SCT250 07/02 A2980 RMK AO2 SLP096 T00720017 53008,KMKG,2019-01-05T20:55:00Z,43.17,-86.23,7.2,1.7,230,11,,10.0,29.799213,1009.6,,,TRUE,,,,,,,SCT,25000,,,,,,,VFR,0.8,,,,,,,,,,,METAR,191.0
KLIC 052055Z AUTO 06006KT 10SM CLR 16/M10 A2994 RMK AO2 SLP126 T01561100 56018,KLIC,2019-01-05T20:55:00Z,39.27,-103.67,15.6,-10.0,60,6,,10.0,29.940945,1012.6,,TRUE,TRUE,,,,,,,CLR,,,,,,,,VFR,-1.8,,,,,,,,,,,METAR,1630.0
LICT 052055Z 28006KT 9999 FEW024 BKN040 10/07 Q1022 RMK BKN VIS MIN 9999 WIND THR13 26009KT BLU,LICT,2019-01-05T20:55:00Z,37.92,12.5,10.0,7.0,280,6,,6.21,30.177166,,,,,,,,,,,FEW,2400,BKN,4000,,,,,VFR,,,,,,,,,,,,METAR,7.0
LIPC 052055Z 25006KT CAVOK M02/M03 Q1019 RMK SKC VIS MIN 9999 WIND THR11 25005KT WIND THR29 26008KT BLU,LIPC,2019-01-05T20:55:00Z,44.22,12.3,-2.0,-3.0,250,6,,6.21,30.088583,,,,,,,,,,,CAVOK,,,,,,,,VFR,,,,,,,,,,,,METAR,10.0
LIRS 052055Z 03004KT 9999 FEW060 04/01 Q1020 RMK FEW VIS MIN 9999 WIND THR03 04005KT WIND THR21 06003KT BLU,LIRS,2019-01-05T20:55:00Z,42.75,11.07,4.0,1.0,30,4,,6.21,30.11811,,,,,,,,,,,FEW,6000,,,,,,,VFR,,,,,,,,,,,,METAR,7.0
LIRM 052055Z /////KT 9999 SCT080 03/02 Q1019,LIRM,2019-01-05T20:55:00Z,41.03,14.07,3.0,2.0,,,,6.21,30.088583,,,,,,,,,,,SCT,8000,,,,,,,VFR,,,,,,,,,,,,METAR,10.0
KCDD 052055Z AUTO 34006KT 10SM CLR M01/M03 A2993 RMK AO2,KCDD,2019-01-05T20:55:00Z,48.27,-92.48,-1.0,-3.0,340,6,,10.0,29.929134,,,TRUE,TRUE,,,,,,,CLR,,,,,,,,VFR,,,,,,,,,,,,METAR,341.0
KEAT 052055Z AUTO 27003KT 10SM BKN038 03/01 A2960 RMK AO2 SLP030 T00330011 58037,KEAT,2019-01-05T20:55:00Z,47.4,-120.2,3.3,1.1,270,3,,10.0,29.601377,1003.0,,TRUE,TRUE,,,,,,,BKN,3800,,,,,,,VFR,-3.7,,,,,,,,,,,METAR,377.0
KDLH 052055Z 33009KT 10SM OVC009 01/M03 A2990 RMK AO2 SLP145 T00061028 53040,KDLH,2019-01-05T20:55:00Z,46.85,-92.2,0.6,-2.8,330,9,,10.0,29.899607,1014.5,,,TRUE,,,,,,,OVC,900,,,,,,,IFR,4.0,,,,,,,,,,,METAR,435.0
KCMA 052055Z 34003KT 7SM -RA FEW039 SCT049 OVC075 14/09 A2995 RMK AO2 SLP149 P0002 60002 T01390089 58014,KCMA,2019-01-05T20:55:00Z,34.22,-119.1,13.9,8.9,340,3,,7.0,29.949802,1014.9,,,TRUE,,,,,,-RA,FEW,3900,SCT,4900,OVC,7500,,,VFR,-1.4,,,,,0.02,0.02,,,,,METAR,23.0
KBCT 052055Z 31012G19KT 10SM CLR 26/14 A3000,KBCT,2019-01-05T20:55:00Z,26.38,-80.1,26.0,14.0,310,12,19,10.0,30.0,,,,,,,,,,,CLR,,,,,,,,VFR,,,,,,,,,,,,METAR,4.0
KAST 052055Z AUTO 09006KT 10SM OVC070 09/07 A2938 RMK AO2 RAB1959E35 SLP947 P0000 60001 T00890067 58036,KAST,2019-01-05T20:55:00Z,46.15,-123.88,8.9,6.7,90,6,,10.0,29.379921,994.7,,TRUE,TRUE,,,,,,,OVC,7000,,,,,,,VFR,-3.6,,,,,0.005,0.01,,,,,METAR,3.0
KAAT 052055Z AUTO 16011G18KT 10SM BKN100 BKN110 08/M06 A2958 RMK AO2 PK WND 17027/2023 SLP019 T00781061 58021,KAAT,2019-01-05T20:55:00Z,41.48,-120.57,7.8,-6.1,160,11,18,10.0,29.58071,1001.9,,TRUE,TRUE,,,,,,,BKN,10000,BKN,11000,,,,,VFR,-2.1,,,,,,,,,,,METAR,1331.0
KSCK 052055Z 13025G34KT 10SM OVC110 11/06 A2967 RMK AO2 PK WND 13034/2050 SLP046 T01110056 58033,KSCK,2019-01-05T20:55:00Z,37.88,-121.22,11.1,5.6,130,25,34,10.0,29.66929,1004.6,,,TRUE,,,,,,,OVC,11000,,,,,,,VFR,-3.3,,,,,,,,,,,METAR,10.0
KRNO 052055Z VRB03KT 10SM SCT120 BKN210 08/M06 A2964 RMK AO2 SLP033 T00831061 56035 $,KRNO,2019-01-05T20:55:00Z,39.5,-119.77,8.3,-6.1,0,3,,10.0,29.639763,1003.3,,,TRUE,TRUE,,,,,,SCT,12000,BKN,21000,,,,,VFR,-3.5,,,,,,,,,,,METAR,1342.0
KLLJ 052055Z AUTO 00000KT 10SM CLR M04/M09 A2983 RMK AO2 SLP150 T10441089 56033 $,KLLJ,2019-01-05T20:55:00Z,44.52,-114.22,-4.4,-8.9,0,0,,10.0,29.828741,1015.0,,TRUE,TRUE,TRUE,,,,,,CLR,,,,,,,,VFR,-3.3,,,,,,,,,,,METAR,1536.0
KLEE 052055Z 27008KT 10SM CLR 17/09 A3004 RMK AO2 T01670094,KLEE,2019-01-05T20:55:00Z,28.82,-81.82,16.7,9.4,270,8,,10.0,30.041338,,,,TRUE,,,,,,,CLR,,,,,,,,VFR,,,,,,,,,,,,METAR,23.0
KINL 052055Z AUTO 31012KT 10SM CLR 01/M06 A2994 RMK AO2 SLP158 T00061061 53027,KINL,2019-01-05T20:55:00Z,48.57,-93.4,0.6,-6.1,310,12,,10.0,29.940945,1015.8,,TRUE,TRUE,,,,,,,CLR,,,,,,,,VFR,2.7,,,,,,,,,,,METAR,360.0
NZCM 052055Z 13012G18KT 9999 FEW025 SCT035 BKN080 M05/M09 A2909 RMK AO2A SLP855 T10481091,NZCM,2019-01-05T20:55:00Z,-77.85,166.67,-4.8,-9.1,130,12,18,6.21,29.090551,985.5,,,TRUE,,,,,,,FEW,2500,SCT,3500,BKN,8000,,,VFR,,,,,,,,,,,,SPECI,8.0
MUHA 052055Z 36009KT 330V080 9000 BKN033 25/21 Q1017,MUHA,2019-01-05T20:55:00Z,22.97,-82.42,25.0,21.0,360,9,,5.59,30.029528,,,,,,,,,,,BKN,3300,,,,,,,VFR,,,,,,,,,,,,METAR,64.0
OPLA 052055Z 35006KT 4000 FU FEW040 SCT100 07/05 Q1019 NOSIG RMK QFE993 RMK A30.07,OPLA,2019-01-05T20:55:00Z,31.52,74.4,7.0,5.0,350,6,,2.49,30.088583,,,,,,TRUE,,,,FU,FEW,4000,SCT,10000,,,,,IFR,,,,,,,,,,,,METAR,217.0
OPKC 052055Z 35004KT 4000 HZ NSC 16/05 Q1018 NOSIG,OPKC,2019-01-05T20:55:00Z,24.88,67.17,16.0,5.0,350,4,,2.49,30.059055,,,,,,TRUE,,,,HZ,CLR,,,,,,,,IFR,,,,,,,,,,,,METAR,22.0
OPIS 052055Z 23006KT 5000 BR NSC 05/05 Q1020 RH100,OPIS,2019-01-05T20:55:00Z,33.55,72.83,5.0,5.0,230,6,,3.11,30.11811,,,,,,,,,,BR,CLR,,,,,,,,MVFR,,,,,,,,,,,,METAR,537.0
K6P9 052055Z AUTO 21009KT 10SM CLR A3006 RMK AO2 6////,K6P9,2019-01-05T20:55:00Z,32.43,-98.6,,,210,9,,10.0,30.059055,,,TRUE,TRUE,,,,,,,CLR,,,,,,,,VFR,,,,,,,,,,,,SPECI,449.0
KNKX 052055Z AUTO 15010KT 10SM FEW070 OVC095 17/08 A2999 RMK AO2 SLP152 T01670078 58020,KNKX,2019-01-05T20:55:00Z,32.87,-117.13,16.7,7.8,150,10,,10.0,29.991142,1015.2,,TRUE,TRUE,,,,,,,FEW,7000,OVC,9500,,,,,VFR,-2.0,,,,,,,,,,,SPECI,146.0
RJOI 052055Z 30007KT 9999 FEW030 BKN045 BKN055 04/M01 A3018 RMK SLP219 FIRST T00441006 5////,RJOI,2019-01-05T20:55:00Z,34.13,132.22,4.4,-0.6,300,7,,6.21,30.180119,1021.9,,,,,,,,,,FEW,3000,BKN,4500,BKN,5500,,,VFR,,,,,,,,,,,,SPECI,2.0
LIVR 052055Z 29016KT CAVOK M04/M07 Q1014 RMK SKC MON LIB VIS MIN 9999,LIVR,2019-01-05T20:55:00Z,46.28,11.77,-4.0,-7.0,290,16,,6.21,29.940945,,,,,,,,,,,CAVOK,,,,,,,,VFR,,,,,,,,,,,,METAR,2006.0
LIVF 052055Z 03005KT CAVOK 04/M03 Q1016 RMK SKC MON LIB VAL NIL VIS MIN 9999,LIVF,2019-01-05T20:55:00Z,43.52,12.72,4.0,-3.0,30,5,,6.21,30.0,,,,,,,,,,,CAVOK,,,,,,,,VFR,,,,,,,,,,,,METAR,574.0
LIRK 052055Z AUTO 01023G34KT //// M04/M04 Q1015,LIRK,2019-01-05T20:55:00Z,42.47,12.97,-4.0,-4.0,10,23,34,,29.970472,,,TRUE,,,,,,,,,,,,,,,,,,,,,,,,,,,,METAR,1875.0
LIRE 052055Z 02006KT 9999 FEW040 BKN060 07/00 Q1019 RMK BKN VIS MIN 9999 WIND THR13 04007KT WIND THR31 /////KT BLU,LIRE,2019-01-05T20:55:00Z,41.63,12.42,7.0,0.0,20,6,,6.21,30.088583,,,,,,,,,,,FEW,4000,BKN,6000,,,,,VFR,,,,,,,,,,,,METAR,12.0
LIQC 052055Z 16005KT CAVOK 10/01 Q1018 RMK SCT SCT070 QUK / QUL / VIS MAR 20 KM VIS MIN 9999,LIQC,2019-01-05T20:55:00Z,40.55,14.2,10.0,1.0,160,5,,6.21,30.059055,,,,,,,,,,,CAVOK,,,,,,,,VFR,,,,,,,,,,,,METAR,269.0
LIPS 052055Z 35005KT CAVOK M01/M02 Q1019 RMK SKC VIS MIN 9999 WIND THR26 32002KT WIND THR08 34004KT BLU,LIPS,2019-01-05T20:55:00Z,45.67,12.08,-1.0,-2.0,350,5,,6.21,30.088583,,,,,,,,,,,CAVOK,,,,,,,,VFR,,,,,,,,,,,,METAR,41.0
LIPL 052055Z 05004KT CAVOK M01/M03 Q1020 RMK SKC VIS MIN 9999 WIND THR31 05004KT WIND THR13 04003KT BLU,LIPL,2019-01-05T20:55:00Z,45.42,10.27,-1.0,-3.0,50,4,,6.21,30.11811,,,,,,,,,,,CAVOK,,,,,,,,VFR,,,,,,,,,,,,METAR,92.0
LIPA 052055Z 34001KT CAVOK M03/M07 Q1018 RMK SKC VIS MIN 9999 WIND THR05 35001KT WIND THR23 32001KT A3008 BLU,LIPA,2019-01-05T20:55:00Z,46.02,12.58,-3.0,-7.0,340,1,,6.21,30.059055,,,,,,,,,,,CAVOK,,,,,,,,VFR,,,,,,,,,,,,METAR,126.0
LIMU 052055Z 17004KT CAVOK 08/05 Q1018 RMK SKC QUK / QUL / VIS MAR 40 KM VIS MIN 9999,LIMU,2019-01-05T20:55:00Z,43.95,8.17,8.0,5.0,170,4,,6.21,30.059055,,,,,,,,,,,CAVOK,,,,,,,,VFR,,,,,,,,,,,,METAR,221.0
LIMK 052055Z 30005KT CAVOK 08/M03 Q1017 RMK SKC VAL NIL VIS MIN 9999,LIMK,2019-01-05T20:55:00Z,45.02,7.72,8.0,-3.0,300,5,,6.21,30.029528,,,,,,,,,,,CAVOK,,,,,,,,VFR,,,,,,,,,,,,METAR,710.0
LIMH 052055Z /////KT 0800 FZFG VV/// M12/M12 Q1019 RMK MON INVIS VAL INVIS VIS MIN 0800,LIMH,2019-01-05T20:55:00Z,45.93,7.7,-12.0,-12.0,,,,0.5,30.088583,,,,,,,,,,FZFG,OVX,0,,,,,,,LIFR,,,,,,,,,,,,METAR,3488.0
LIED 052055Z 30004KT 9999 FEW020 BKN035 07/06 Q1021 RMK BKN VIS MIN 9999 WIND THR35 /////KT WIND THR17 /////KT BLU,LIED,2019-01-05T20:55:00Z,39.35,8.97,7.0,6.0,300,4,,6.21,30.147638,,,,,,,,,,,FEW,2000,BKN,3500,,,,,VFR,,,,,,,,,,,,METAR,28.0
LIEB 052055Z 31007KT CAVOK 08/00 Q1018 RMK SKC QUK / QUL / VIS MAR 20 KM MON INVIS VIS MIN 9999,LIEB,2019-01-05T20:55:00Z,39.93,9.72,8.0,0.0,310,7,,6.21,30.059055,,,,,,,,,,,CAVOK,,,,,,,,VFR,,,,,,,,,,,,METAR,156.0
LICF 052055Z 35006KT 9999 BKN035 09/03 Q1019 RMK BKN BKN100 QUK / QUL / VIS MAR 12 KM MON INVIS NC VIS MIN 9999,LICF,2019-01-05T20:55:00Z,38.2,15.55,9.0,3.0,350,6,,6.21,30.088583,,,,,,,,,,,BKN,3500,,,,,,,VFR,,,,,,,,,,,,METAR,51.0
LIBQ 052055Z 35011KT 0000 -SN FZFG VV/// M06/M07 Q1012 RMK MON INVIS VAL INVIS VIS MIN 0000,LIBQ,2019-01-05T20:55:00Z,39.32,16.38,-6.0,-7.0,350,11,,0.0,29.88189,,,,,,,,,,-SN FZFG,OVX,0,,,,,,,LIFR,,,,,,,,,,,,METAR,1720.0
PGRO 052055Z 03010KT 7SM SCT013 SCT130 24/20 A2996 RMK WIND DATA ESTIMATED,PGRO,2019-01-05T20:55:00Z,14.18,145.25,24.0,20.0,30,10,,7.0,29.958662,,,,,,,,,,,SCT,1300,SCT,13000,,,,,VFR,,,,,,,,,,,,SPECI,185.0
PALU 052055Z AUTO 11012KT 10SM CLR M22/M28 A3017 RMK AO2 SLP215 T12161283 54001,PALU,2019-01-05T20:55:00Z,68.88,-166.1,-21.6,-28.3,110,12,,10.0,30.171259,1021.5,,TRUE,TRUE,,,,,,,CLR,,,,,,,,VFR,,,,,,,,,,,,METAR,3.0
PATL 052055Z AUTO 00000KT 10SM -SHSN CLR M21/M22 A2994 RMK AO2 SNB1957E2000SHSNB2006 SLP183 P0000 60000 T12061224 52007 $,PATL,2019-01-05T20:55:00Z,62.9,-155.97,-20.6,-22.4,0,0,,10.0,29.940945,1018.3,,TRUE,TRUE,TRUE,,,,,-SHSN,CLR,,,,,,,,VFR,0.7,,,,,0.005,0.005,,,,,METAR,294.0
KFTK 052055Z 24008KT 10SM FEW250 13/03 A3001 RMK SLP167 T01270034 52006 $,KFTK,2019-01-05T20:55:00Z,37.88,-85.97,12.7,3.4,240,8,,10.0,30.008858,1016.7,,,,TRUE,,,,,,FEW,25000,,,,,,,VFR,0.6,,,,,,,,,,,METAR,230.0
KHSA 052055Z 35006KT 10SM CLR 17/04 A3015,KHSA,2019-01-05T20:55:00Z,30.37,-89.45,17.0,4.0,350,6,,10.0,30.15059,,,,,,,,,,,CLR,,,,,,,,VFR,,,,,,,,,,,,METAR,7.0
LIVP 052055Z 02025KT CAVOK M06/M09 Q1013 RMK SKC MON LIB VAL NIL VIS MIN 9999,LIVP,2019-01-05T20:55:00Z,46.15,11.03,-6.0,-9.0,20,25,,6.21,29.911417,,,,,,,,,,,CAVOK,,,,,,,,VFR,,,,,,,,,,,,SPECI,2129.0
LICZ 052055Z 25010KT 9999 FEW035 BKN060 06/05 Q1021 RMK BKN VIS MIN 9999 WIND THR28 /////KT WIND THR10 25010KT A3015 BLU,LICZ,2019-01-05T20:55:00Z,37.38,14.92,6.0,5.0,250,10,,6.21,30.147638,,,,,,,,,,,FEW,3500,BKN,6000,,,,,VFR,,,,,,,,,,,,SPECI,22.0
LIBY 052055Z 33010KT 9999 SCT030 04/01 Q1015 RMK BKN BKN080 QUK / QUL / VIS MAR 10 KM VIS MIN 9999,LIBY,2019-01-05T20:55:00Z,39.82,18.35,4.0,1.0,330,10,,6.21,29.970472,,,,,,,,,,,SCT,3000,,,,,,,VFR,,,,,,,,,,,,SPECI,112.0
LIBV 052055Z 31014KT 5000 -RASN BR SCT008 BKN015 01/00 Q1016 RMK OVC VIS MIN 3500NW WIND THR32 31017KT WIND THR14 31012KT YLO,LIBV,2019-01-05T20:55:00Z,40.77,16.92,1.0,0.0,310,14,,3.11,30.0,,,,,,,,,,-RA -SN BR,SCT,800,BKN,1500,,,,,MVFR,,,,,,,,,,,,SPECI,350.0
LIBN 052055Z 29011KT 9999 -RA SCT040 02/01 Q1016 RMK OVC BKN100 VIS MIN 9999 WIND THR14 /////KT WIND THR32 28011KT BLU,LIBN,2019-01-05T20:55:00Z,40.22,18.13,2.0,1.0,290,11,,6.21,30.0,,,,,,,,,,-RA,SCT,4000,,,,,,,VFR,,,,,,,,,,,,SPECI,61.0
LIVE 052055Z 03006KT 2000 -SN BR OVC008 M03/M03 Q1021 RMK OVC VIS MIN 2000,LIVE,2019-01-05T20:55:00Z,46.85,10.5,-3.0,-3.0,30,6,,1.24,30.147638,,,,,,,,,,-SN BR,OVC,800,,,,,,,IFR,,,,,,,,,,,,METAR,1800.0
KMTC 052055Z 25009KT 7SM FEW230 10/03 A2973 RMK AO2A SLP077 WND DATA ESTMD T00980026 55000 $,KMTC,2019-01-05T20:55:00Z,42.62,-82.82,9.8,2.6,250,9,,7.0,29.731298,1007.7,,,TRUE,TRUE,,,,,,FEW,23000,,,,,,,VFR,0.0,,,,,,,,,,,METAR,177.0
KQZF 052055Z AUTO 33003KT 10SM CLR 20/M11 A3011 RMK AO2 LTG DSNT N SLP187 WND DATA ESTMD T01951108 51016 $,KQZF,2019-01-05T20:55:00Z,,,19.5,-10.8,330,3,,10.0,30.109253,1018.7,,TRUE,TRUE,TRUE,,,,,,CLR,,,,,,,,VFR,1.6,,,,,,,,,,,METAR,
FJDG 052055Z 09005KT 9999 FEW022 27/25 A2986 RMK SLP108 8/100 T02720253 57020,FJDG,2019-01-05T20:55:00Z,-7.32,72.42,27.2,25.3,90,5,,6.21,29.861221,1010.8,,,,,,,,,,FEW,2200,,,,,,,VFR,-2.0,,,,,,,,,,,SPECI,3.0
MMMT 052054Z 02010KT 4SM OVC010 23/21 A3001 RMK SLP238 57007 910 8/7//,MMMT,2019-01-05T20:54:00Z,18.1,-94.57,23.0,21.0,20,10,,4.0,30.008858,1023.8,,,,,,,,,,OVC,1000,,,,,,,MVFR,-0.7,,,,,,,,,,,METAR,40.0
PAHN 052054Z AUTO 31015KT 10SM CLR M07/M14 A2984 RMK AO2 SLP106 T10721144 58005 TSNO,PAHN,2019-01-05T20:54:00Z,59.25,-135.52,-7.2,-14.4,310,15,,10.0,29.840551,1010.6,,TRUE,TRUE,,,TRUE,,,,CLR,,,,,,,,VFR,-0.5,,,,,,,,,,,METAR,5.0
PGSN 052054Z 05012KT 10SM SCT029 BKN055 24/20 A2997 RMK AO2 SLP169 T02440200 53006 $,PGSN,2019-01-05T20:54:00Z,15.12,145.72,24.4,20.0,50,12,,10.0,29.970472,1016.9,,,TRUE,TRUE,,,,,,SCT,2900,BKN,5500,,,,,VFR,0.6,,,,,,,,,,,METAR,65.0
PHOG 052054Z 07017G29KT 10SM SCT040 27/16 A3011 RMK AO2 PK WND 07030/1959 SLP202 T02720161 50002,PHOG,2019-01-05T20:54:00Z,20.9,-156.43,27.2,16.1,70,17,29,10.0,30.109253,1020.2,,,TRUE,,,,,,,SCT,4000,,,,,,,VFR,0.2,,,,,,,,,,,METAR,12.0
PHMK 052054Z 05013G23KT 10SM CLR 25/15 A3013 RMK AO2 SLP207 T02500150 58000 $,PHMK,2019-01-05T20:54:00Z,21.15,-157.1,25.0,15.0,50,13,23,10.0,30.129921,1020.7,,,TRUE,TRUE,,,,,,CLR,,,,,,,,VFR,0.0,,,,,,,,,,,SPECI,141.0
PAKN 052054Z 36003KT 10SM CLR M11/M15 A2991 RMK AO2 SLP128 T11061150 53004 $,PAKN,2019-01-05T20:54:00Z,58.68,-156.65,-10.6,-15.0,360,3,,10.0,29.911417,1012.8,,,TRUE,TRUE,,,,,,CLR,,,,,,,,VFR,0.4,,,,,,,,,,,METAR,17.0
KWLD 052054Z AUTO 21006KT 10SM CLR 16/03 A3003 RMK AO2 SLP171 T01560028 56013,KWLD,2019-01-05T20:54:00Z,37.17,-97.03,15.6,2.8,210,6,,10.0,30.029528,1017.1,,TRUE,TRUE,,,,,,,CLR,,,,,,,,VFR,-1.3,,,,,,,,,,,METAR,350.0
KVTA 052054Z AUTO 24009KT 10SM CLR 10/03 A2986 RMK AO2 SLP114 T01000028 51011,KVTA,2019-01-05T20:54:00Z,40.02,-82.47,10.0,2.8,240,9,,10.0,29.861221,1011.4,,TRUE,TRUE,,,,,,,CLR,,,,,,,,VFR,1.1,,,,,,,,,,,METAR,268.0
KVAY 052054Z AUTO 31010KT 270V340 4SM BR FEW008 FEW013 OVC022 07/06 A2952 RMK AO2 RAB00E39 SLP994 P0002 60006 T00720061 53028,KVAY,2019-01-05T20:54:00Z,39.93,-74.83,7.2,6.1,310,10,,4.0,29.518702,999.4,,TRUE,TRUE,,,,,,BR,FEW,800,FEW,1300,OVC,2200,,,MVFR,2.8,,,,,0.02,0.06,,,,,METAR,15.0
KUZA 052054Z AUTO 29009KT 10SM CLR 17/03 A2990 RMK AO2 SLP121 T01670028 53014,KUZA,2019-01-05T20:54:00Z,34.98,-81.05,16.7,2.8,290,9,,10.0,29.899607,1012.1,,TRUE,TRUE,,,,,,,CLR,,,,,,,,VFR,1.4,,,,,,,,,,,METAR,202.0
KUIN 052054Z AUTO 22008KT 10SM CLR 13/04 A2997 RMK AO2 SLP150 T01280039 53001,KUIN,2019-01-05T20:54:00Z,39.95,-91.2,12.8,3.9,220,8,,10.0,29.970472,1015.0,,TRUE,TRUE,,,,,,,CLR,,,,,,,,VFR,0.1,,,,,,,,,,,METAR,234.0
KTQE 052054Z AUTO 04003KT 10SM CLR 11/04 A2998 RMK AO2 SLP153 T01110039 53006,KTQE,2019-01-05T20:54:00Z,41.77,-96.18,11.1,3.9,40,3,,10.0,29.97933,1015.3,,TRUE,TRUE,,,,,,,CLR,,,,,,,,VFR,0.6,,,,,,,,,,,METAR,312.0
KTAD 052054Z AUTO 10006KT 10SM CLR 17/M07 A2995 RMK AO2 SLP108 T01721067 56023,KTAD,2019-01-05T20:54:00Z,37.27,-104.33,17.2,-6.7,100,6,,10.0,29.949802,1010.8,,TRUE,TRUE,,,,,,,CLR,,,,,,,,VFR,-2.3,,,,,,,,,,,METAR,1756.0
KSUS 052054Z 26006KT 10SM CLR 17/02 A3000 RMK AO2 SLP162 T01670022 53000,KSUS,2019-01-05T20:54:00Z,38.65,-90.65,16.7,2.2,260,6,,10.0,30.0,1016.2,,,TRUE,,,,,,,CLR,,,,,,,,VFR,0.0,,,,,,,,,,,METAR,141.0
KSLC 052054Z 33004KT 2 1/2SM HZ OVC160 M03/M06 A2992 RMK AO2 TWR VIS 3 SLP157 T10281056 58033 $,KSLC,2019-01-05T20:54:00Z,40.77,-111.97,-2.8,-5.6,330,4,,2.5,29.920275,1015.7,,,TRUE,TRUE,,,,,HZ,OVC,16000,,,,,,,IFR,-3.3,,,,,,,,,,,METAR,1286.0
KSJN 052054Z AUTO 08003KT 10SM CLR 00/M06 A3009 RMK AO2 SLP223 T00001056 56022,KSJN,2019-01-05T20:54:00Z,34.52,-109.38,0.0,-5.6,80,3,,10.0,30.088583,1022.3,,TRUE,TRUE,,,,,,,CLR,,,,,,,,VFR,-2.2,,,,,,,,,,,METAR,1745.0
KSET 052054Z AUTO 25006KT 9SM CLR 15/04 A2999 RMK AO2 SLP156 T01500039 55001,KSET,2019-01-05T20:54:00Z,38.93,-90.43,15.0,3.9,250,6,,9.0,29.991142,1015.6,,TRUE,TRUE,,,,,,,CLR,,,,,,,,VFR,-0.1,,,,,,,,,,,METAR,134.0
KSBY 052054Z 29018G30KT 10SM OVC025 10/06 A2958 RMK AO2 PK WND 31031/2034 SLP017 T01000061 53030,KSBY,2019-01-05T20:54:00Z,38.33,-75.5,10.0,6.1,290,18,30,10.0,29.58071,1001.7,,,TRUE,,,,,,,OVC,2500,,,,,,,MVFR,3.0,,,,,,,,,,,METAR,19.0
KSBN 052054Z 23010KT 10SM CLR 09/03 A2986 RMK AO2 SLP116 T00940033 53007,KSBN,2019-01-05T20:54:00Z,41.7,-86.32,9.4,3.3,230,10,,10.0,29.861221,1011.6,,,TRUE,,,,,,,CLR,,,,,,,,VFR,0.7,,,,,,,,,,,METAR,237.0
KMEM 052054Z 24006KT 10SM CLR 14/04 A3010 RMK AO2 SLP194 T01390039 56004 $,KMEM,2019-01-05T20:54:00Z,35.07,-89.98,13.9,3.9,240,6,,10.0,30.100393,1019.4,,,TRUE,TRUE,,,,,,CLR,,,,,,,,VFR,-0.4,,,,,,,,,,,METAR,86.0
KLYH 052054Z 28007KT 10SM CLR 14/00 A2975 RMK AO2 SLP073 T01390000 53022,KLYH,2019-01-05T20:54:00Z,37.32,-79.2,13.9,0.0,280,7,,10.0,29.749016,1007.3,,,TRUE,,,,,,,CLR,,,,,,,,VFR,2.2,,,,,,,,,,,METAR,295.0
KLNK 052054Z 24005KT 10SM CLR 15/02 A2998 RMK AO2 SLP156 T01500022 55005,KLNK,2019-01-05T20:54:00Z,40.85,-96.77,15.0,2.2,240,5,,10.0,29.97933,1015.6,,,TRUE,,,,,,,CLR,,,,,,,,VFR,-0.5,,,,,,,,,,,METAR,364.0
KLEX 052054Z 23008KT 10SM CLR 11/04 A2999 RMK AO2 SLP157 T01110039 53009,KLEX,2019-01-05T20:54:00Z,38.03,-84.6,11.1,3.9,230,8,,10.0,29.991142,1015.7,,,TRUE,,,,,,,CLR,,,,,,,,VFR,0.9,,,,,,,,,,,METAR,300.0
KLBT 052054Z AUTO 28009KT 10SM CLR 16/05 A2983 RMK AO2 SLP101 T01610050 53013,KLBT,2019-01-05T20:54:00Z,34.6,-79.07,16.1,5.0,280,9,,10.0,29.828741,1010.1,,TRUE,TRUE,,,,,,,CLR,,,,,,,,VFR,1.3,,,,,,,,,,,METAR,37.0
KLAF 052054Z 23009KT 10SM CLR 11/05 A2992 RMK AO2 SLP133 T01110050 53005 $,KLAF,2019-01-05T20:54:00Z,40.42,-86.93,11.1,5.0,230,9,,10.0,29.920275,1013.3,,,TRUE,TRUE,,,,,,CLR,,,,,,,,VFR,0.5,,,,,,,,,,,METAR,182.0
KJST 052054Z AUTO 29015G29KT 10SM CLR 06/01 A2971 RMK AO2 PK WND 30029/2054 SLP071 T00610006 53020,KJST,2019-01-05T20:54:00Z,40.32,-78.83,6.1,0.6,290,15,29,10.0,29.71063,1007.1,,TRUE,TRUE,,,,,,,CLR,,,,,,,,VFR,2.0,,,,,,,,,,,METAR,694.0
KJAN 052054Z 25006KT 10SM CLR 16/03 A3016 RMK AO2 SLP212 T01610028 55006 $,KJAN,2019-01-05T20:54:00Z,32.32,-90.08,16.1,2.8,250,6,,10.0,30.159449,1021.2,,,TRUE,TRUE,,,,,,CLR,,,,,,,,VFR,-0.6,,,,,,,,,,,METAR,91.0
KIZG 052054Z AUTO 02004KT 10SM BKN016 OVC110 02/M02 A2956 RMK AO2 SLP016 T00221022 58003,KIZG,2019-01-05T20:54:00Z,43.98,-70.95,2.2,-2.2,20,4,,10.0,29.56004,1001.6,,TRUE,TRUE,,,,,,,BKN,1600,OVC,11000,,,,,MVFR,-0.3,,,,,,,,,,,METAR,135.0
KISW 052054Z AUTO 29012G21KT 10SM CLR 09/M02 A2981 RMK AO2 SLP106 T00941017 53014 TSNO,KISW,2019-01-05T20:54:00Z,44.37,-89.83,9.4,-1.7,290,12,21,10.0,29.811024,1010.6,,TRUE,TRUE,,,TRUE,,,,CLR,,,,,,,,VFR,1.4,,,,,,,,,,,METAR,307.0
KIPT 052054Z 31006KT 10SM CLR 11/01 A2962 RMK AO2 SLP032 T01060011 53020 $,KIPT,2019-01-05T20:54:00Z,41.25,-76.92,10.6,1.1,310,6,,10.0,29.619095,1003.2,,,TRUE,TRUE,,,,,,CLR,,,,,,,,VFR,2.0,,,,,,,,,,,METAR,164.0
KINT 052054Z 30013KT 10SM CLR 15/00 A2985 RMK AO2 SLP105 T01500000 53017,KINT,2019-01-05T20:54:00Z,36.13,-80.22,15.0,0.0,300,13,,10.0,29.84941,1010.5,,,TRUE,,,,,,,CLR,,,,,,,,VFR,1.7,,,,,,,,,,,METAR,291.0
KIND 052054Z 24013KT 10SM FEW250 12/03 A2993 RMK AO2 SLP137 T01170033 53001,KIND,2019-01-05T20:54:00Z,39.72,-86.3,11.7,3.3,240,13,,10.0,29.929134,1013.7,,,TRUE,,,,,,,FEW,25000,,,,,,,VFR,0.1,,,,,,,,,,,METAR,241.0
KIMT 052054Z AUTO 32012G22KT 10SM OVC016 02/M01 A2975 RMK AO2 SLP092 T00221006 53039,KIMT,2019-01-05T20:54:00Z,45.82,-88.12,2.2,-0.6,320,12,22,10.0,29.749016,1009.2,,TRUE,TRUE,,,,,,,OVC,1600,,,,,,,MVFR,3.9,,,,,,,,,,,METAR,349.0
KILN 052054Z AUTO 25013KT 10SM CLR 09/03 A2991 RMK AO2 SLP144 T00890028 51008,KILN,2019-01-05T20:54:00Z,39.43,-83.8,8.9,2.8,250,13,,10.0,29.911417,1014.4,,TRUE,TRUE,,,,,,,CLR,,,,,,,,VFR,0.8,,,,,,,,,,,METAR,322.0
KHWD 052054Z 16016G26KT 10SM BKN035 OVC043 14/07 A2967 RMK AO2 PK WND 16033/1956 SLP056 60000 T01390072 56013,KHWD,2019-01-05T20:54:00Z,37.67,-122.12,13.9,7.2,160,16,26,10.0,29.66929,1005.6,,,TRUE,,,,,,,BKN,3500,OVC,4300,,,,,VFR,-1.3,,,,,,0.005,,,,,METAR,21.0
KGSO 052054Z 30015G22KT 10SM CLR 14/01 A2982 RMK AO2 PK WND 31030/2006 SLP096 T01440011 53021,KGSO,2019-01-05T20:54:00Z,36.1,-79.95,14.4,1.1,300,15,22,10.0,29.819881,1009.6,,,TRUE,,,,,,,CLR,,,,,,,,VFR,2.1,,,,,,,,,,,METAR,275.0
KGED 052054Z AUTO 30009G26KT 10SM OVC017 11/06 A2956 RMK AO2 PK WND 32026/2046 SLP011 T01060061 53035,KGED,2019-01-05T20:54:00Z,38.68,-75.37,10.6,6.1,300,9,26,10.0,29.56004,1001.1,,TRUE,TRUE,,,,,,,OVC,1700,,,,,,,MVFR,3.5,,,,,,,,,,,METAR,19.0
KGCN 052054Z 19006KT 10SM OVC110 06/M07 A3007 RMK AO2 SLP187 T00611067 56015,KGCN,2019-01-05T20:54:00Z,35.95,-112.15,6.1,-6.7,190,6,,10.0,30.070866,1018.7,,,TRUE,,,,,,,OVC,11000,,,,,,,VFR,-1.5,,,,,,,,,,,METAR,2016.0
KGCK 052054Z 17010KT 10SM CLR 11/02 A2992 RMK AO2 SLP136 T01110017 56025,KGCK,2019-01-05T20:54:00Z,37.92,-100.72,11.1,1.7,170,10,,10.0,29.920275,1013.6,,,TRUE,,,,,,,CLR,,,,,,,,VFR,-2.5,,,,,,,,,,,METAR,877.0
KFWA 052054Z 24010KT 10SM FEW250 10/04 A2987 RMK AO2 SLP118 T01000044 53007,KFWA,2019-01-05T20:54:00Z,40.98,-85.18,10.0,4.4,240,10,,10.0,29.870079,1011.8,,,TRUE,,,,,,,FEW,25000,,,,,,,VFR,0.7,,,,,,,,,,,METAR,248.0
KFIG 052054Z AUTO 28010KT 10SM CLR 09/00 A2969 RMK AO2 SLP060 T00940000 53026,KFIG,2019-01-05T20:54:00Z,41.05,-78.42,9.4,0.0,280,10,,10.0,29.68996,1006.0,,TRUE,TRUE,,,,,,,CLR,,,,,,,,VFR,2.6,,,,,,,,,,,METAR,462.0
KFFZ 052054Z 00000KT 10SM CLR 19/M02 A2996 RMK AO2 SLP134 T01941017 56025,KFFZ,2019-01-05T20:54:00Z,33.47,-111.72,19.4,-1.7,0,0,,10.0,29.958662,1013.4,,,TRUE,,,,,,,CLR,,,,,,,,VFR,-2.5,,,,,,,,,,,METAR,424.0
KEWN 052054Z 29009KT 10SM CLR 15/06 A2977 RMK AO2 SLP081 T01500061 51020,KEWN,2019-01-05T20:54:00Z,35.07,-77.05,15.0,6.1,290,9,,10.0,29.769686,1008.1,,,TRUE,,,,,,,CLR,,,,,,,,VFR,2.0,,,,,,,,,,,METAR,3.0
KEVV 052054Z 19008KT 10SM CLR 12/05 A3003 RMK AO2 SLP171 T01220050 53005,KEVV,2019-01-05T20:54:00Z,38.05,-87.52,12.2,5.0,190,8,,10.0,30.029528,1017.1,,,TRUE,,,,,,,CLR,,,,,,,,VFR,0.5,,,,,,,,,,,METAR,117.0
KECG 052054Z 27016G21KT 10SM FEW043 15/06 A2969 RMK AO2 PK WND 28026/2040 SLP054 T01500056 53029,KECG,2019-01-05T20:54:00Z,36.27,-76.18,15.0,5.6,270,16,21,10.0,29.68996,1005.4,,,TRUE,,,,,,,FEW,4300,,,,,,,VFR,2.9,,,,,,,,,,,METAR,11.0
KDSV 052054Z AUTO 34008KT 4SM HZ OVC010 02/M01 A2973 RMK AO2 SLP082 T00221006 53023,KDSV,2019-01-05T20:54:00Z,42.57,-77.72,2.2,-0.6,340,8,,4.0,29.731298,1008.2,,TRUE,TRUE,,,,,,HZ,OVC,1000,,,,,,,MVFR,2.3,,,,,,,,,,,METAR,198.0
KDSM 052054Z 23004KT 10SM BKN250 13/03 A2996 RMK AO2 SLP148 T01330028 53005 $,KDSM,2019-01-05T20:54:00Z,41.53,-93.67,13.3,2.8,230,4,,10.0,29.958662,1014.8,,,TRUE,TRUE,,,,,,BKN,25000,,,,,,,VFR,0.5,,,,,,,,,,,METAR,295.0
KDEC 052054Z 23007KT 10SM CLR 12/04 A2996 RMK AO2 SLP149 T01170044 53001,KDEC,2019-01-05T20:54:00Z,39.83,-88.85,11.7,4.4,230,7,,10.0,29.958662,1014.9,,,TRUE,,,,,,,CLR,,,,,,,,VFR,0.1,,,,,,,,,,,METAR,207.0
KCOU 052054Z 25009KT 10SM CLR 16/03 A3001 RMK AO2 SLP163 T01610033 55002,KCOU,2019-01-05T20:54:00Z,38.82,-92.22,16.1,3.3,250,9,,10.0,30.008858,1016.3,,,TRUE,,,,,,,CLR,,,,,,,,VFR,-0.2,,,,,,,,,,,METAR,271.0
KCOS 052054Z 16008KT 10SM FEW200 BKN250 16/M10 A2997 RMK AO2 SLP136 T01561100 55010,KCOS,2019-01-05T20:54:00Z,38.82,-104.68,15.6,-10.0,160,8,,10.0,29.970472,1013.6,,,TRUE,,,,,,,FEW,20000,BKN,25000,,,,,VFR,-1.0,,,,,,,,,,,METAR,1856.0
KCEU 052054Z AUTO 26009KT 10SM CLR 17/03 A2994 RMK AO2 SLP135 T01720033 53019,KCEU,2019-01-05T20:54:00Z,34.67,-82.88,17.2,3.3,260,9,,10.0,29.940945,1013.5,,TRUE,TRUE,,,,,,,CLR,,,,,,,,VFR,1.9,,,,,,,,,,,METAR,268.0
KBWI 052054Z 30012KT 10SM FEW020 SCT070 SCT080 10/06 A2962 RMK AO2 RAE1958 SLP030 P0000 60000 T01000056 53037,KBWI,2019-01-05T20:54:00Z,39.17,-76.68,10.0,5.6,300,12,,10.0,29.619095,1003.0,,,TRUE,,,,,,,FEW,2000,SCT,7000,SCT,8000,,,VFR,3.7,,,,,0.005,0.005,,,,,METAR,59.0
KBUY 052054Z AUTO 25009KT 10SM CLR 16/02 A2981 RMK AO2 SLP092 T01610017 53022,KBUY,2019-01-05T20:54:00Z,36.05,-79.47,16.1,1.7,250,9,,10.0,29.811024,1009.2,,TRUE,TRUE,,,,,,,CLR,,,,,,,,VFR,2.2,,,,,,,,,,,METAR,180.0
KBUF 052054Z 25008KT 6SM BR OVC011 02/M01 A2975 RMK AO2 SLP082 T00171006 53022,KBUF,2019-01-05T20:54:00Z,42.93,-78.73,1.7,-0.6,250,8,,6.0,29.749016,1008.2,,,TRUE,,,,,,BR,OVC,1100,,,,,,,MVFR,2.2,,,,,,,,,,,METAR,211.0
KBTV 052054Z 34009KT 10SM FEW100 BKN150 02/M02 A2960 RMK AO2 SLP027 T00171022 53004,KBTV,2019-01-05T20:54:00Z,44.47,-73.15,1.7,-2.2,340,9,,10.0,29.601377,1002.7,,,TRUE,,,,,,,FEW,10000,BKN,15000,,,,,VFR,0.4,,,,,,,,,,,METAR,105.0
KBFL 052054Z 17004KT 7SM FEW024 16/M02 A2983 RMK AO2 SLP100 T01561017 56007,KBFL,2019-01-05T20:54:00Z,35.43,-119.05,15.6,-1.7,170,4,,7.0,29.828741,1010.0,,,TRUE,,,,,,,FEW,2400,,,,,,,VFR,-0.7,,,,,,,,,,,METAR,151.0
KAVL 052054Z AUTO 36011G18KT 10SM CLR 11/01 A2996 RMK AO2 SLP142 T01110006 53025,KAVL,2019-01-05T20:54:00Z,35.43,-82.53,11.1,0.6,360,11,18,10.0,29.958662,1014.2,,TRUE,TRUE,,,,,,,CLR,,,,,,,,VFR,2.5,,,,,,,,,,,METAR,670.0
KAUW 052054Z AUTO 29012KT 10SM CLR 07/M01 A2976 RMK AO2 SLP095 T00671006 53018,KAUW,2019-01-05T20:54:00Z,44.93,-89.62,6.7,-0.6,290,12,,10.0,29.760826,1009.5,,TRUE,TRUE,,,,,,,CLR,,,,,,,,VFR,1.8,,,,,,,,,,,METAR,362.0
KAPN 052054Z AUTO 26005KT 10SM CLR 07/00 A2963 RMK AO2 SLP041 T00720000 53001 $,KAPN,2019-01-05T20:54:00Z,45.07,-83.57,7.2,0.0,260,5,,10.0,29.630905,1004.1,,TRUE,TRUE,TRUE,,,,,,CLR,,,,,,,,VFR,0.1,,,,,,,,,,,METAR,210.0
KALO 052054Z 26005KT 10SM CLR 11/03 A2993 RMK AO2 SLP141 T01110033 53012,KALO,2019-01-05T20:54:00Z,42.55,-92.4,11.1,3.3,260,5,,10.0,29.929134,1014.1,,,TRUE,,,,,,,CLR,,,,,,,,VFR,1.2,,,,,,,,,,,METAR,264.0
KAKR 052054Z AUTO 23008KT 10SM CLR 09/02 A2979 RMK AO2 SLP094 T00890017 53009,KAKR,2019-01-05T20:54:00Z,41.03,-81.47,8.9,1.7,230,8,,10.0,29.790354,1009.4,,TRUE,TRUE,,,,,,,CLR,,,,,,,,VFR,0.9,,,,,,,,,,,METAR,363.0
KAKQ 052054Z AUTO 29007KT 10SM FEW055 15/04 A2969 RMK AO2 SLP055 T01500044 53032,KAKQ,2019-01-05T20:54:00Z,36.98,-77.0,15.0,4.4,290,7,,10.0,29.68996,1005.5,,TRUE,TRUE,,,,,,,FEW,5500,,,,,,,VFR,3.2,,,,,,,,,,,METAR,34.0
KAKH 052054Z AUTO VRB06KT 10SM CLR 18/01 A2989 RMK AO2 SLP121 T01780006 53017,KAKH,2019-01-05T20:54:00Z,35.2,-81.15,17.8,0.6,0,6,,10.0,29.890747,1012.1,,TRUE,TRUE,,,,,,,CLR,,,,,,,,VFR,1.7,,,,,,,,,,,METAR,243.0
KACY 052054Z AUTO 32014G23KT 10SM -RA OVC012 07/07 A2949 RMK AO2 PK WND 31026/2031 RAB32E42B47 SLP987 P0000 60000 T00720072 53032,KACY,2019-01-05T20:54:00Z,39.45,-74.57,7.2,7.2,320,14,23,10.0,29.489174,998.7,,TRUE,TRUE,,,,,,-RA,OVC,1200,,,,,,,MVFR,3.2,,,,,0.005,0.005,,,,,METAR,23.0
KAAO 052054Z AUTO 18008KT 10SM CLR 17/M01 A2999 RMK AO2 SLP160 T01671011 56015 $,KAAO,2019-01-05T20:54:00Z,37.75,-97.22,16.7,-1.1,180,8,,10.0,29.991142,1016.0,,TRUE,TRUE,TRUE,,,,,,CLR,,,,,,,,VFR,-1.5,,,,,,,,,,,METAR,434.0
KRST 052054Z 29012KT 10SM CLR 06/01 A2991 RMK AO2 SLP140 T00610011 53016,KRST,2019-01-05T20:54:00Z,43.9,-92.5,6.1,1.1,290,12,,10.0,29.911417,1014.0,,,TRUE,,,,,,,CLR,,,,,,,,VFR,1.6,,,,,,,,,,,METAR,403.0
KROA 052054Z 30015G22KT 10SM CLR 13/00 A2981 RMK AO2 PK WND 27028/2041 SLP095 T01280000 53022,KROA,2019-01-05T20:54:00Z,37.32,-79.97,12.8,0.0,300,15,22,10.0,29.811024,1009.5,,,TRUE,,,,,,,CLR,,,,,,,,VFR,2.2,,,,,,,,,,,METAR,362.0
KRKS 052054Z AUTO 09004KT 10SM CLR M06/M11 A2998 RMK AO2 SLP211 T10611106 56019,KRKS,2019-01-05T20:54:00Z,41.6,-109.07,-6.1,-10.6,90,4,,10.0,29.97933,1021.1,,TRUE,TRUE,,,,,,,CLR,,,,,,,,VFR,-1.9,,,,,,,,,,,METAR,2060.0
KRIC 052054Z 30011KT 10SM FEW065 14/04 A2969 RMK AO2 SLP057 T01440039 51034,KRIC,2019-01-05T20:54:00Z,37.52,-77.32,14.4,3.9,300,11,,10.0,29.68996,1005.7,,,TRUE,,,,,,,FEW,6500,,,,,,,VFR,3.4,,,,,,,,,,,METAR,50.0
KRFD 052054Z 27007KT 10SM FEW250 10/03 A2990 RMK AO2 SLP131 T01000028 53013,KRFD,2019-01-05T20:54:00Z,42.2,-89.1,10.0,2.8,270,7,,10.0,29.899607,1013.1,,,TRUE,,,,,,,FEW,25000,,,,,,,VFR,1.3,,,,,,,,,,,METAR,221.0
KPTW 052054Z AUTO 30010G17KT 10SM FEW014 BKN043 OVC060 07/07 A2956 RMK AO2 SLP009 60007 T00720067 53021 TSNO,KPTW,2019-01-05T20:54:00Z,40.23,-75.55,7.2,6.7,300,10,17,10.0,29.56004,1000.9,,TRUE,TRUE,,,TRUE,,,,FEW,1400,BKN,4300,OVC,6000,,,VFR,2.1,,,,,,0.07,,,,,METAR,92.0
KPIA 052054Z 25006KT 10SM CLR 13/03 A2994 RMK AO2 SLP143 T01280033 53002,KPIA,2019-01-05T20:54:00Z,40.67,-89.68,12.8,3.3,250,6,,10.0,29.940945,1014.3,,,TRUE,,,,,,,CLR,,,,,,,,VFR,0.2,,,,,,,,,,,METAR,205.0
KPHF 052054Z 29011G19KT 10SM OVC043 14/06 A2967 RMK AO2 PK WND 30030/2002 SLP046 T01440056 53032,KPHF,2019-01-05T20:54:00Z,37.13,-76.5,14.4,5.6,290,11,19,10.0,29.66929,1004.6,,,TRUE,,,,,,,OVC,4300,,,,,,,VFR,3.2,,,,,,,,,,,METAR,12.0
KORH 052054Z 02010G19KT 5SM -RA BR OVC005 01/01 A2947 RMK AO2 CIG 003V008 SLP989 P0004 60009 T00110006 55004,KORH,2019-01-05T20:54:00Z,42.27,-71.87,1.1,0.6,20,10,19,5.0,29.471457,998.9,,,TRUE,,,,,,-RA BR,OVC,500,,,,,,,IFR,-0.4,,,,,0.04,0.09,,,,,METAR,304.0
KOLS 052054Z AUTO 20014G20KT 10SM CLR 20/M03 A3003 RMK AO2 SLP136 T02001028 56021,KOLS,2019-01-05T20:54:00Z,31.42,-110.85,20.0,-2.8,200,14,20,10.0,30.029528,1013.6,,TRUE,TRUE,,,,,,,CLR,,,,,,,,VFR,-2.1,,,,,,,,,,,METAR,1184.0
KOFP 052054Z AUTO 10SM CLR 14/03 A2970 RMK AO2 SLP057 T01440033 53032,KOFP,2019-01-05T20:54:00Z,37.7,-77.43,14.4,3.3,,,,10.0,29.698818,1005.7,,TRUE,TRUE,,,,,,,CLR,,,,,,,,VFR,3.2,,,,,,,,,,,METAR,62.0
KMVL 052054Z AUTO 00000KT 10SM CLR M01/M02 A2957 RMK AO2 SLP025 T10111022 56006,KMVL,2019-01-05T20:54:00Z,44.53,-72.62,-1.1,-2.2,0,0,,10.0,29.568897,1002.5,,TRUE,TRUE,,,,,,,CLR,,,,,,,,VFR,-0.6,,,,,,,,,,,METAR,234.0
KMRY 052054Z 15011G17KT 120V190 10SM SCT034 OVC060 13/08 A2973 RMK AO2 RAB06E43 SLP082 P0001 60009 T01330078 56022,KMRY,2019-01-05T20:54:00Z,36.58,-121.85,13.3,7.8,150,11,17,10.0,29.731298,1008.2,,,TRUE,,,,,,,SCT,3400,OVC,6000,,,,,VFR,-2.2,,,,,0.01,0.09,,,,,METAR,66.0
KMKC 052054Z 10SM CLR 16/02 A2999 RMK AO2 SLP158 T01610017 55004,KMKC,2019-01-05T20:54:00Z,39.12,-94.6,16.1,1.7,,,,10.0,29.991142,1015.8,,,TRUE,,,,,,,CLR,,,,,,,,VFR,-0.4,,,,,,,,,,,METAR,227.0
KMIV 052054Z AUTO 30011KT 10SM BKN010 OVC019 08/07 A2952 RMK AO2 RAE50 SLP996 P0002 60005 T00780067 53035,KMIV,2019-01-05T20:54:00Z,39.37,-75.08,7.8,6.7,300,11,,10.0,29.518702,999.6,,TRUE,TRUE,,,,,,,BKN,1000,OVC,1900,,,,,MVFR,3.5,,,,,0.02,0.05,,,,,METAR,23.0
KMFI 052054Z AUTO 29010KT 10SM CLR 07/00 A2980 RMK AO2 SLP103 T00720000 53017,KMFI,2019-01-05T20:54:00Z,44.63,-90.18,7.2,0.0,290,10,,10.0,29.799213,1010.3,,TRUE,TRUE,,,,,,,CLR,,,,,,,,VFR,1.7,,,,,,,,,,,METAR,389.0
MMCB 052054Z 00000KT 10SM BKN200 28/08 A3011 RMK 8/008,MMCB,2019-01-05T20:54:00Z,18.83,-99.27,28.0,8.0,0,0,,10.0,30.109253,,,,,,,,,,,BKN,20000,,,,,,,VFR,,,,,,,,,,,,SPECI,1560.0
KNAK 052054Z AUTO 31011G19KT 10SM FEW025 SCT075 SCT095 11/06 A2962 RMK AO2 PK WND 33026/1955 RAB1958E38 SLP032 P0000 60000 T01060056 53039 $,KNAK,2019-01-05T20:54:00Z,38.98,-76.48,10.6,5.6,310,11,19,10.0,29.619095,1003.2,,TRUE,TRUE,TRUE,,,,,,FEW,2500,SCT,7500,SCT,9500,,,VFR,3.9,,,,,0.005,,,,,,SPECI,2.0
MMDO 052054Z 12007KT 12SM BKN200 23/M08 A3021 RMK SLP135 57034 906 8/008,MMDO,2019-01-05T20:54:00Z,24.12,-104.52,23.0,-8.0,120,7,,12.0,30.209646,1013.5,,,,,,,,,,BKN,20000,,,,,,,VFR,-3.4,,,,,,,,,,,METAR,1857.0
KPLN 052054Z AUTO 27012KT 10SM OVC015 03/01 A2968 RMK AO2 SLP060 T00330006 53015,KPLN,2019-01-05T20:54:00Z,45.57,-84.8,3.3,0.6,270,12,,10.0,29.681103,1006.0,,TRUE,TRUE,,,,,,,OVC,1500,,,,,,,MVFR,1.5,,,,,,,,,,,METAR,217.0
PGUM 052054Z 06007KT 10SM CLR 25/23 A2997 RMK AO2 SLP142 T02500228 53013,PGUM,2019-01-05T20:54:00Z,13.48,144.8,25.0,22.8,60,7,,10.0,29.970472,1014.2,,,TRUE,,,,,,,CLR,,,,,,,,VFR,1.3,,,,,,,,,,,SPECI,91.0
K12N 052054Z AUTO 00000KT 06/05 A2952 RMK AO1 SLP001 60023 T00610050 53026,K12N,2019-01-05T20:54:00Z,41.02,-74.73,6.1,5.0,0,0,,,29.518702,1000.1,,TRUE,TRUE,,,,,,,,,,,,,,,,2.6,,,,,,0.23,,,,,METAR,177.0
KMTP 052054Z AUTO 03012G20KT 07/07 A2941 RMK AO1 SLP957 P0032 60077 T00670067 53013,KMTP,2019-01-05T20:54:00Z,41.07,-71.92,6.7,6.7,30,12,20,,29.409449,995.7,,TRUE,TRUE,,,,,,,,,,,,,,,,1.3,,,,,0.32,0.77,,,,,METAR,2.0
KBKB 052054Z AUTO VRB04KT 10SM CLR 19/04 A3013 RMK AO2 SLP233 T01940039 56008,KBKB,2019-01-05T20:54:00Z,31.0,-92.92,19.4,3.9,0,4,,10.0,30.129921,1023.3,,TRUE,TRUE,,,,,,,CLR,,,,,,,,VFR,-0.8,,,,,,,,,,,METAR,94.0
KNKT 052054Z 28011G23KT 10SM FEW044 16/06 A2977 RMK AO2 PK WND 26028/1959 SLP079 T01560061 53021,KNKT,2019-01-05T20:54:00Z,34.9,-76.88,15.6,6.1,280,11,23,10.0,29.769686,1007.9,,,TRUE,,,,,,,FEW,4400,,,,,,,VFR,2.1,,,,,,,,,,,METAR,9.0
KDMH 052054Z AUTO 10/05 A2962 RMK AO1 SLP031 60002 T01000050 53036,KDMH,2019-01-05T20:54:00Z,39.28,-76.62,10.0,5.0,,,,,29.619095,1003.1,,TRUE,TRUE,,,,,,,,,,,,,,,,3.6,,,,,,0.02,,,,,METAR,5.0
KCRW 052054Z 27008KT 200V300 10SM FEW032 10/02 A2993 RMK AO2 SLP134 T01000022 53017,KCRW,2019-01-05T20:54:00Z,38.38,-81.58,10.0,2.2,270,8,,10.0,29.929134,1013.4,,,TRUE,,,,,,,FEW,3200,,,,,,,VFR,1.7,,,,,,,,,,,METAR,309.0
KLWT 052054Z AUTO 08008KT 10SM CLR 11/M05 A2978 RMK AO2 SLP090 T01111050 56022,KLWT,2019-01-05T20:54:00Z,47.03,-109.47,11.1,-5.0,80,8,,10.0,29.778543,1009.0,,TRUE,TRUE,,,,,,,CLR,,,,,,,,VFR,-2.2,,,,,,,,,,,METAR,1270.0
K1V4 052054Z AUTO 00/M03 A2955 RMK AO1 SLP020 T00001033 56006,K1V4,2019-01-05T20:54:00Z,44.42,-72.02,0.0,-3.3,,,,,29.551182,1002.0,,TRUE,TRUE,,,,,,,,,,,,,,,,-0.6,,,,,,,,,,,METAR,210.0
KSDL 052053Z 00000KT 10SM CLR 19/M02 A2997 RMK AO2 SLP140 T01941017 56024,KSDL,2019-01-05T20:53:00Z,33.62,-111.92,19.4,-1.7,0,0,,10.0,29.970472,1014.0,,,TRUE,,,,,,,CLR,,,,,,,,VFR,-2.4,,,,,,,,,,,METAR,447.0
PTKK 052053Z 03009KT 15SM FEW014 SCT120 BKN280 27/25 A2981 RMK SLP098 60007 8/171 T02720250 52014,PTKK,2019-01-05T20:53:00Z,7.47,151.85,27.2,25.0,30,9,,15.0,29.811024,1009.8,,,,,,,,,,FEW,1400,SCT,12000,BKN,28000,,,VFR,1.4,,,,,,,,,,,SPECI,2.0
KDHT 052053Z AUTO 21014KT 10SM CLR 16/00 A2996 RMK AO2 SLP135 T01560000 55017,KDHT,2019-01-05T20:53:00Z,36.02,-102.55,15.6,0.0,210,14,,10.0,29.958662,1013.5,,TRUE,TRUE,,,,,,,CLR,,,,,,,,VFR,-1.7,,,,,,,,,,,METAR,1217.0
KSBM 052053Z AUTO 26012KT 10SM CLR 07/00 A2977 RMK AO2 SLP089 T00670000 53010,KSBM,2019-01-05T20:53:00Z,43.78,-87.85,6.7,0.0,260,12,,10.0,29.769686,1008.9,,TRUE,TRUE,,,,,,,CLR,,,,,,,,VFR,1.0,,,,,,,,,,,METAR,232.0
KMFE 052053Z 14009G18KT 10SM CLR 27/10 A3010 RMK AO2 SLP190 T02720100 56033 $,KMFE,2019-01-05T20:53:00Z,26.18,-98.25,27.2,10.0,140,9,18,10.0,30.100393,1019.0,,,TRUE,TRUE,,,,,,CLR,,,,,,,,VFR,-3.3,,,,,,,,,,,METAR,38.0
KUNV 052053Z 30011G14KT 10SM SKC 10/01 A2965,KUNV,2019-01-05T20:53:00Z,40.85,-77.83,10.0,1.0,300,11,14,10.0,29.648623,,,,,,,,,,,SKC,,,,,,,,VFR,,,,,,,,,,,,METAR,378.0
PANT 052053Z AUTO 33007KT 10SM BKN027 01/M04 A2950 RMK SLP992 T00061039 58018 TSNO VIA AUTODIAL,PANT,2019-01-05T20:53:00Z,55.03,-131.57,0.6,-3.9,330,7,,10.0,29.500984,999.2,,TRUE,,,,TRUE,,,,BKN,2700,,,,,,,MVFR,-1.8,,,,,,,,,,,SPECI,36.0
MMCM 052053Z 13010KT 7SM SCT020 BKN100 29/20 A3001 RMK SLP164 5//// 924 8/520,MMCM,2019-01-05T20:53:00Z,18.5,-88.33,29.0,20.0,130,10,,7.0,30.008858,1016.4,,,,,,,,,,SCT,2000,BKN,10000,,,,,VFR,,,,,,,,,,,,METAR,12.0
PAQT 052053Z AUTO 19007KT 10SM CLR M36/ A3011 RMK SLP199 T1361 53015 TSNO VIA AUTODIAL,PAQT,2019-01-05T20:53:00Z,70.22,-151.0,-36.1,,190,7,,10.0,30.109253,1019.9,,TRUE,,,,TRUE,,,,CLR,,,,,,,,VFR,1.5,,,,,,,,,,,SPECI,12.0
PAYA 052053Z AUTO 00000KT 10SM CLR M06/M08 A2973 RMK AO2 SLP069 I1001 I3001 T10611078 58002 TSNO $,PAYA,2019-01-05T20:53:00Z,59.52,-139.67,-6.1,-7.8,0,0,,10.0,29.731298,1006.9,,TRUE,TRUE,TRUE,,TRUE,,,,CLR,,,,,,,,VFR,-0.2,,,,,,,,,,,METAR,11.0
PAWI 052053Z AUTO 28008KT 10SM CLR M22/M26 A3015 RMK AO2 SLP213 T12171256 51014 TSNO,PAWI,2019-01-05T20:53:00Z,70.62,-159.85,-21.7,-25.6,280,8,,10.0,30.15059,1021.3,,TRUE,TRUE,,,TRUE,,,,CLR,,,,,,,,VFR,1.4,,,,,,,,,,,METAR,27.0
PAVL 052053Z AUTO 01004KT 8SM CLR M22/M25 A3008 RMK AO2 SLP185 T12171250 51008 TSNO $,PAVL,2019-01-05T20:53:00Z,67.73,-164.55,-21.7,-25.0,10,4,,8.0,30.079725,1018.5,,TRUE,TRUE,TRUE,,TRUE,,,,CLR,,,,,,,,VFR,0.8,,,,,,,,,,,METAR,3.0
PATK 052053Z 00000KT 10SM CLR M25/M28 A2986 RMK AO2 SLP124 T12501278 50004 $,PATK,2019-01-05T20:53:00Z,62.3,-150.1,-25.0,-27.8,0,0,,10.0,29.861221,1012.4,,,TRUE,TRUE,,,,,,CLR,,,,,,,,VFR,0.4,,,,,,,,,,,METAR,109.0
PASO 052053Z AUTO 00000KT 10SM CLR M08/M11 A2985 RMK AO2 SLP107 I3001 T10831106 50003 TSNO $,PASO,2019-01-05T20:53:00Z,59.45,-151.7,-8.3,-10.6,0,0,,10.0,29.84941,1010.7,,TRUE,TRUE,TRUE,,TRUE,,,,CLR,,,,,,,,VFR,0.3,,,,,,,,,,,METAR,9.0
PASI 052053Z 00000KT 10SM CLR M01/M03 A2962 RMK AO2 SLP031 T10111028 58015,PASI,2019-01-05T20:53:00Z,57.07,-135.35,-1.1,-2.8,0,0,,10.0,29.619095,1003.1,,,TRUE,,,,,,,CLR,,,,,,,,VFR,-1.5,,,,,,,,,,,METAR,5.0
PASC 052053Z 23008KT 10SM CLR M34/ A3009 RMK AO2 SLP194 T1344 53018,PASC,2019-01-05T20:53:00Z,70.2,-148.47,-34.4,,230,8,,10.0,30.088583,1019.4,,,TRUE,,,,,,,CLR,,,,,,,,VFR,1.8,,,,,,,,,,,METAR,15.0
PAOT 052053Z 00000KT 10SM FEW002 SCT006 M24/M28 A3007 RMK AO2 VIS 1/4 E SLP182 I3000 T12441283 51010 $,PAOT,2019-01-05T20:53:00Z,66.87,-162.58,-24.4,-28.3,0,0,,10.0,30.070866,1018.2,,,TRUE,TRUE,,,,,,FEW,200,SCT,600,,,,,VFR,1.0,,,,,,,,,,,METAR,3.0
KHKS 052053Z 27005KT 10SM CLR 16/06 A3016 RMK AO2 SLP207 T01560056 55007 $,KHKS,2019-01-05T20:53:00Z,32.33,-90.22,15.6,5.6,270,5,,10.0,30.159449,1020.7,,,TRUE,TRUE,,,,,,CLR,,,,,,,,VFR,-0.7,,,,,,,,,,,METAR,108.0
KHKA 052053Z AUTO 22012KT 10SM CLR 13/07 A3008 RMK AO2 SLP186 T01330067 56007 $,KHKA,2019-01-05T20:53:00Z,35.93,-89.83,13.3,6.7,220,12,,10.0,30.079725,1018.6,,TRUE,TRUE,TRUE,,,,,,CLR,,,,,,,,VFR,-0.7,,,,,,,,,,,METAR,78.0
KHJO 052053Z AUTO 10006KT 10SM CLR 13/04 A2985 RMK AO2 SLP111 T01330044 56014,KHJO,2019-01-05T20:53:00Z,36.32,-119.62,13.3,4.4,100,6,,10.0,29.84941,1011.1,,TRUE,TRUE,,,,,,,CLR,,,,,,,,VFR,-1.4,,,,,,,,,,,SPECI,74.0
KHIO 052053Z 03003KT 10SM OVC070 07/06 A2942 RMK AO2 RAB33E43 SLP964 P0000 60000 T00720061 58030 $,KHIO,2019-01-05T20:53:00Z,45.55,-122.95,7.2,6.1,30,3,,10.0,29.421259,996.4,,,TRUE,TRUE,,,,,,OVC,7000,,,,,,,VFR,-3.0,,,,,0.005,0.005,,,,,METAR,68.0
KHGR 052053Z 30017KT 10SM CLR 11/02 A2967 RMK AO2 SLP059 T01110022 53028 $,KHGR,2019-01-05T20:53:00Z,39.7,-77.73,11.1,2.2,300,17,,10.0,29.66929,1005.9,,,TRUE,TRUE,,,,,,CLR,,,,,,,,VFR,2.8,,,,,,,,,,,METAR,224.0
KHEI 052053Z AUTO 24004KT 10SM CLR 06/M04 A2996 RMK AO2 SLP162 T00611039 56012,KHEI,2019-01-05T20:53:00Z,46.02,-102.65,6.1,-3.9,240,4,,10.0,29.958662,1016.2,,TRUE,TRUE,,,,,,,CLR,,,,,,,,VFR,-1.2,,,,,,,,,,,METAR,828.0
KHBR 052053Z AUTO 17009KT 10SM CLR 16/07 A3000 RMK AO2 SLP159 T01560072 56027,KHBR,2019-01-05T20:53:00Z,34.98,-99.05,15.6,7.2,170,9,,10.0,30.0,1015.9,,TRUE,TRUE,,,,,,,CLR,,,,,,,,VFR,-2.7,,,,,,,,,,,METAR,473.0
KHAO 052053Z AUTO 24010KT 10SM CLR 11/03 A2994 RMK AO2 SLP139 T01110033 53003,KHAO,2019-01-05T20:53:00Z,39.37,-84.52,11.1,3.3,240,10,,10.0,29.940945,1013.9,,TRUE,TRUE,,,,,,,CLR,,,,,,,,VFR,0.3,,,,,,,,,,,SPECI,188.0
KGZH 052053Z AUTO VRB05KT 10SM CLR 18/02 A3013 RMK AO2 SLP200 T01780022 55004,KGZH,2019-01-05T20:53:00Z,31.42,-87.05,17.8,2.2,0,5,,10.0,30.129921,1020.0,,TRUE,TRUE,,,,,,,CLR,,,,,,,,VFR,-0.4,,,,,,,,,,,METAR,78.0
PAMC 052053Z AUTO VRB03KT 10SM OVC046 M22/M24 A2999 RMK AO2 SLP170 60000 T12221239 51003 TSNO $,PAMC,2019-01-05T20:53:00Z,62.97,-155.62,-22.2,-23.9,0,3,,10.0,29.991142,1017.0,,TRUE,TRUE,TRUE,,TRUE,,,,OVC,4600,,,,,,,VFR,0.3,,,,,,0.005,,,,,METAR,103.0
PAKV 052053Z AUTO 22003KT 10SM OVC014 M20/M22 A3006 RMK AO2 SLP186 T12001217 50007 TSNO $,PAKV,2019-01-05T20:53:00Z,64.33,-158.75,-20.0,-21.7,220,3,,10.0,30.059055,1018.6,,TRUE,TRUE,TRUE,,TRUE,,,,OVC,1400,,,,,,,MVFR,0.7,,,,,,,,,,,METAR,61.0
PAKT 052053Z 31010KT 10SM BKN036 M01/M06 A2952 RMK AO2 SLP999 HARBOR WIND 28016KT T10061056 58019 $,PAKT,2019-01-05T20:53:00Z,55.35,-131.7,-0.6,-5.6,310,10,,10.0,29.518702,999.9,,,TRUE,TRUE,,,,,,BKN,3600,,,,,,,VFR,-1.9,,,,,,,,,,,METAR,28.0
PAJN 052053Z 28003KT 10SM FEW033 M06/M07 A2973 RMK AO2 SLP068 I1003 I3003 T10561072 58009 $,PAJN,2019-01-05T20:53:00Z,58.35,-134.58,-5.6,-7.2,280,3,,10.0,29.731298,1006.8,,,TRUE,TRUE,,,,,,FEW,3300,,,,,,,VFR,-0.9,,,,,,,,,,,METAR,5.0
PAIL 052053Z 25003KT 10SM FEW022 SCT028 M09/M10 A2990 RMK AO2 SLP128 T10941100 58002 $,PAIL,2019-01-05T20:53:00Z,59.75,-154.92,-9.4,-10.0,250,3,,10.0,29.899607,1012.8,,,TRUE,TRUE,,,,,,FEW,2200,SCT,2800,,,,,VFR,-0.2,,,,,,,,,,,METAR,49.0
PAHO 052053Z 04004KT 10SM CLR M09/M13 A2986 RMK AO2 SLP112 T10941133 50005,PAHO,2019-01-05T20:53:00Z,59.63,-151.47,-9.4,-13.3,40,4,,10.0,29.861221,1011.2,,,TRUE,,,,,,,CLR,,,,,,,,VFR,0.5,,,,,,,,,,,METAR,28.0
PAGY 052053Z AUTO 03017G26KT 10SM CLR M05/M15 A2985 RMK AO2 PK WND 04026/2047 SLP108 T10501150 58008 TSNO,PAGY,2019-01-05T20:53:00Z,59.47,-135.3,-5.0,-15.0,30,17,26,10.0,29.84941,1010.8,,TRUE,TRUE,,,TRUE,,,,CLR,,,,,,,,VFR,-0.8,,,,,,,,,,,METAR,5.0
PAGK 052053Z AUTO 00000KT 10SM FEW008 OVC014 M27/M30 A2992 RMK AO2 SLP214 T12671300 58001 TSNO $,PAGK,2019-01-05T20:53:00Z,62.15,-145.45,-26.7,-30.0,0,0,,10.0,29.920275,1021.4,,TRUE,TRUE,TRUE,,TRUE,,,,FEW,800,OVC,1400,,,,,MVFR,-0.1,,,,,,,,,,,METAR,481.0
PAFA 052053Z 02004KT 7SM FEW005 SCT170 M36/ A2997 RMK AO2 SLP171 T1356 51007 PNO,PAFA,2019-01-05T20:53:00Z,64.8,-147.85,-35.6,,20,4,,7.0,29.970472,1017.1,,,TRUE,,,,,,,FEW,500,SCT,17000,,,,,VFR,0.7,,,,,,,,,,,METAR,132.0
PAEG 052053Z AUTO 00000KT 10SM OVC013 M31/M36 A3001 RMK AO2 SLP198 T13111361 51003 TSNO $,PAEG,2019-01-05T20:53:00Z,64.78,-141.15,-31.1,-36.1,0,0,,10.0,30.008858,1019.8,,TRUE,TRUE,TRUE,,TRUE,,,,OVC,1300,,,,,,,MVFR,0.3,,,,,,,,,,,METAR,268.0
PADE 052053Z AUTO 20008KT 10SM FEW003 A3007 RMK AO2 SLP184 I1000 I3001 51007 TSNO $,PADE,2019-01-05T20:53:00Z,66.07,-162.77,,,200,8,,10.0,30.070866,1018.4,,TRUE,TRUE,TRUE,,TRUE,,,,FEW,300,,,,,,,VFR,0.7,,,,,,,,,,,METAR,5.0
PACV 052053Z 00000KT 10SM SCT150 M11/M12 A2978 RMK AO2 SLP085 I3000 T11061122 58002 $,PACV,2019-01-05T20:53:00Z,60.5,-145.47,-10.6,-12.2,0,0,,10.0,29.778543,1008.5,,,TRUE,TRUE,,,,,,SCT,15000,,,,,,,VFR,-0.2,,,,,,,,,,,METAR,12.0
PACD 052053Z 15024KT 10SM CLR 02/M01 A2974 RMK AO2 PK WND 15028/2053 UPB1956E02B24E34SNE1956B02E24B25E32B34E35 SLP073 P0000 60000 T00221011 50010 $,PACD,2019-01-05T20:53:00Z,55.2,-162.72,2.2,-1.1,150,24,,10.0,29.740158,1007.3,,,TRUE,TRUE,,,,,,CLR,,,,,,,,VFR,1.0,,,,,0.005,0.005,,,,,METAR,30.0
PABT 052053Z 04003KT 10SM FEW110 M32/M36 A2999 RMK AO2 SLP189 T13221361 51007 PNO $,PABT,2019-01-05T20:53:00Z,66.92,-151.52,-32.2,-36.1,40,3,,10.0,29.991142,1018.9,,,TRUE,TRUE,,,,,,FEW,11000,,,,,,,VFR,0.7,,,,,,,,,,,METAR,195.0
PHLI 052053Z 08014KT 10SM BKN044 26/16 A3017 RMK AO2 SLP214 T02560161 50010,PHLI,2019-01-05T20:53:00Z,21.97,-159.33,25.6,16.1,80,14,,10.0,30.171259,1021.4,,,TRUE,,,,,,,BKN,4400,,,,,,,VFR,1.0,,,,,,,,,,,METAR,45.0
PHKO 052053Z 17010KT 10SM SCT055 26/18 A3009 RMK AO2 SLP189 T02610183 50007,PHKO,2019-01-05T20:53:00Z,19.73,-156.05,26.1,18.3,170,10,,10.0,30.088583,1018.9,,,TRUE,,,,,,,SCT,5500,,,,,,,VFR,0.7,,,,,,,,,,,METAR,27.0
PHTO 052053Z 12003KT 10SM FEW048 OVC060 24/17 A3016 RMK AO2 SLP211 T02390167 50007,PHTO,2019-01-05T20:53:00Z,19.72,-155.05,23.9,16.7,120,3,,10.0,30.159449,1021.1,,,TRUE,,,,,,,FEW,4800,OVC,6000,,,,,VFR,0.7,,,,,,,,,,,METAR,12.0
PHJR 052053Z 07010G19KT 10SM FEW041 26/15 A3015 RMK AO2 SLP214 T02610150 50007,PHJR,2019-01-05T20:53:00Z,21.32,-158.07,26.1,15.0,70,10,19,10.0,30.15059,1021.4,,,TRUE,,,,,,,FEW,4100,,,,,,,VFR,0.7,,,,,,,,,,,SPECI,15.0
KPSC 052053Z 00000KT 10SM CLR 05/01 A2961 RMK AO2 SLP029 T00500006 58037,KPSC,2019-01-05T20:53:00Z,46.27,-119.12,5.0,0.6,0,0,,10.0,29.610237,1002.9,,,TRUE,,,,,,,CLR,,,,,,,,VFR,-3.7,,,,,,,,,,,METAR,121.0
KPRC 052053Z 15011KT 10SM OVC120 12/M04 A3003 RMK AO2 SLP145 T01221039 56020,KPRC,2019-01-05T20:53:00Z,34.65,-112.42,12.2,-3.9,150,11,,10.0,30.029528,1014.5,,,TRUE,,,,,,,OVC,12000,,,,,,,VFR,-2.0,,,,,,,,,,,METAR,1524.0
KPQL 052053Z 23004KT 10SM CLR 19/06 A3014 RMK AO2 SLP208 T01890061 55009,KPQL,2019-01-05T20:53:00Z,30.47,-88.53,18.9,6.1,230,4,,10.0,30.138779,1020.8,,,TRUE,,,,,,,CLR,,,,,,,,VFR,-0.9,,,,,,,,,,,METAR,6.0
KPOU 052053Z 02008KT 5SM BR SCT010 OVC029 04/03 A2952 RMK AO2 RAE39 SLP994 P0002 60022 T00440028 53020,KPOU,2019-01-05T20:53:00Z,41.63,-73.88,4.4,2.8,20,8,,5.0,29.518702,999.4,,,TRUE,,,,,,BR,SCT,1000,OVC,2900,,,,,MVFR,2.0,,,,,0.02,0.22,,,,,METAR,46.0
KPOF 052053Z AUTO 20008KT 10SM CLR 13/07 A3005 RMK AO2 SLP177 T01330072 55005,KPOF,2019-01-05T20:53:00Z,36.77,-90.32,13.3,7.2,200,8,,10.0,30.050198,1017.7,,TRUE,TRUE,,,,,,,CLR,,,,,,,,VFR,-0.5,,,,,,,,,,,METAR,99.0
KPNS 052053Z VRB04KT 10SM CLR 17/03 A3012 RMK AO2 SLP201 T01720033 56008,KPNS,2019-01-05T20:53:00Z,30.48,-87.18,17.2,3.3,0,4,,10.0,30.121063,1020.1,,,TRUE,,,,,,,CLR,,,,,,,,VFR,-0.8,,,,,,,,,,,METAR,38.0
KPNC 052053Z AUTO 20004KT 10SM CLR 16/03 A3002 RMK AO2 SLP164 T01560028 56014,KPNC,2019-01-05T20:53:00Z,36.73,-97.1,15.6,2.8,200,4,,10.0,30.02067,1016.4,,TRUE,TRUE,,,,,,,CLR,,,,,,,,VFR,-1.4,,,,,,,,,,,METAR,308.0
KPMP 052053Z 28012G18KT 10SM SCT170 SCT250 26/14 A3000 RMK AO2 SLP159 ACFT MSHP T02610139 55004,KPMP,2019-01-05T20:53:00Z,26.25,-80.12,26.1,13.9,280,12,18,10.0,30.0,1015.9,,,TRUE,,,,,,,SCT,17000,SCT,25000,,,,,VFR,-0.4,,,,,,,,,,,METAR,6.0
KPMD 052053Z 34005KT 10SM FEW100 08/M09 A2994 RMK AO2 SLP142 T00831094 55018,KPMD,2019-01-05T20:53:00Z,34.63,-118.08,8.3,-9.4,340,5,,10.0,29.940945,1014.2,,,TRUE,,,,,,,FEW,10000,,,,,,,VFR,-1.8,,,,,,,,,,,METAR,780.0
KPKD 052053Z AUTO 34006KT 10SM SCT013 M01/M04 A2996 RMK AO2 SLP167 T10061039 50021,KPKD,2019-01-05T20:53:00Z,46.9,-95.07,-0.6,-3.9,340,6,,10.0,29.958662,1016.7,,TRUE,TRUE,,,,,,,SCT,1300,,,,,,,VFR,2.1,,,,,,,,,,,METAR,442.0
KPKB 052053Z 28006G15KT 10SM CLR 11/02 A2991 RMK AO2 SLP132 T01060017 53019 $,KPKB,2019-01-05T20:53:00Z,39.35,-81.42,10.6,1.7,280,6,15,10.0,29.911417,1013.2,,,TRUE,TRUE,,,,,,CLR,,,,,,,,VFR,1.9,,,,,,,,,,,METAR,262.0
KPIR 052053Z AUTO 00000KT 10SM CLR 07/M01 A2998 RMK AO2 SLP165 T00721006 50001,KPIR,2019-01-05T20:53:00Z,44.38,-100.28,7.2,-0.6,0,0,,10.0,29.97933,1016.5,,TRUE,TRUE,,,,,,,CLR,,,,,,,,VFR,0.1,,,,,,,,,,,METAR,526.0
KPIL 052053Z AUTO 10013KT 10SM CLR 21/11 A3013 RMK AO2 SLP201 T02110106 56022,KPIL,2019-01-05T20:53:00Z,26.17,-97.33,21.1,10.6,100,13,,10.0,30.129921,1020.1,,TRUE,TRUE,,,,,,,CLR,,,,,,,,VFR,-2.2,,,,,,,,,,,METAR,5.0
KPIH 052053Z 05007KT 10SM CLR M01/M06 A2988 RMK AO2 SLP159 T10111061 56024,KPIH,2019-01-05T20:53:00Z,42.92,-112.57,-1.1,-6.1,50,7,,10.0,29.878937,1015.9,,,TRUE,,,,,,,CLR,,,,,,,,VFR,-2.4,,,,,,,,,,,METAR,1359.0
KPIE 052053Z 30011KT 10SM OVC024 16/11 A3007 RMK AO2 SLP180 T01610111 53002,KPIE,2019-01-05T20:53:00Z,27.92,-82.68,16.1,11.1,300,11,,10.0,30.070866,1018.0,,,TRUE,,,,,,,OVC,2400,,,,,,,MVFR,0.2,,,,,,,,,,,METAR,4.0
KPHD 052053Z AUTO 24006KT 10SM CLR 09/01 A2984 RMK AO2 SLP109 T00940011 53015,KPHD,2019-01-05T20:53:00Z,40.47,-81.42,9.4,1.1,240,6,,10.0,29.840551,1010.9,,TRUE,TRUE,,,,,,,CLR,,,,,,,,VFR,1.5,,,,,,,,,,,SPECI,272.0
KPGD 052053Z 31015KT 10SM CLR 22/12 A3005 RMK AO2 SLP176 T02170122 55002,KPGD,2019-01-05T20:53:00Z,26.92,-82.0,21.7,12.2,310,15,,10.0,30.050198,1017.6,,,TRUE,,,,,,,CLR,,,,,,,,VFR,-0.2,,,,,,,,,,,METAR,7.0
KPGA 052053Z AUTO 10003KT 10SM CLR M01/M08 A3014 RMK AO2 SLP232 T10111078 56027 TSNO,KPGA,2019-01-05T20:53:00Z,36.92,-111.45,-1.1,-7.8,100,3,,10.0,30.138779,1023.2,,TRUE,TRUE,,,TRUE,,,,CLR,,,,,,,,VFR,-2.7,,,,,,,,,,,METAR,1307.0
KPDX 052053Z 10005KT 10SM BKN100 OVC250 09/04 A2943 RMK AO2 SLP966 T00890044 58028,KPDX,2019-01-05T20:53:00Z,45.6,-122.62,8.9,4.4,100,5,,10.0,29.430119,996.6,,,TRUE,,,,,,,BKN,10000,OVC,25000,,,,,VFR,-2.8,,,,,,,,,,,METAR,7.0
KPDT 052053Z 14012KT 10SM CLR 10/M03 A2953 RMK AO2 SLP996 T01001033 58031,KPDT,2019-01-05T20:53:00Z,45.7,-118.83,10.0,-3.3,140,12,,10.0,29.530512,999.6,,,TRUE,,,,,,,CLR,,,,,,,,VFR,-3.1,,,,,,,,,,,METAR,462.0
KPDK 052053Z 30013G18KT 10SM CLR 13/02 A3003 RMK AO2 SLP173 T01330022 53006,KPDK,2019-01-05T20:53:00Z,33.88,-84.3,13.3,2.2,300,13,18,10.0,30.029528,1017.3,,,TRUE,,,,,,,CLR,,,,,,,,VFR,0.6,,,,,,,,,,,METAR,302.0
KGJT 052053Z 28004KT 10SM CLR M03/M07 A3016 RMK AO2 SLP256 T10331072 55015,KGJT,2019-01-05T20:53:00Z,39.12,-108.52,-3.3,-7.2,280,4,,10.0,30.159449,1025.6,,,TRUE,,,,,,,CLR,,,,,,,,VFR,-1.5,,,,,,,,,,,SPECI,1475.0
KGIF 052053Z AUTO 29012KT 10SM CLR 19/11 A3004 RMK AO2 SLP172 T01890111 53003,KGIF,2019-01-05T20:53:00Z,28.07,-81.75,18.9,11.1,290,12,,10.0,30.041338,1017.2,,TRUE,TRUE,,,,,,,CLR,,,,,,,,VFR,0.3,,,,,,,,,,,METAR,43.0
KGGW 052053Z AUTO 10011KT 10SM CLR 02/M02 A2990 RMK AO2 SLP146 T00221022 56014,KGGW,2019-01-05T20:53:00Z,48.22,-106.62,2.2,-2.2,100,11,,10.0,29.899607,1014.6,,TRUE,TRUE,,,,,,,CLR,,,,,,,,VFR,-1.4,,,,,,,,,,,METAR,694.0
KGGG 052053Z 24004KT 10SM CLR 21/03 A3011 RMK AO2 SLP197 T02060028 56014,KGGG,2019-01-05T20:53:00Z,32.38,-94.72,20.6,2.8,240,4,,10.0,30.109253,1019.7,,,TRUE,,,,,,,CLR,,,,,,,,VFR,-1.4,,,,,,,,,,,SPECI,107.0
KGFL 052053Z AUTO 00000KT 10SM CLR 06/M01 A2956 RMK AO2 SLP019 T00561006 53005,KGFL,2019-01-05T20:53:00Z,43.33,-73.62,5.6,-0.6,0,0,,10.0,29.56004,1001.9,,TRUE,TRUE,,,,,,,CLR,,,,,,,,VFR,0.5,,,,,,,,,,,METAR,103.0
KGEZ 052053Z AUTO 25009KT 10SM CLR 11/04 A2993 RMK AO2 SLP138 T01110039 53002,KGEZ,2019-01-05T20:53:00Z,39.58,-85.8,11.1,3.9,250,9,,10.0,29.929134,1013.8,,TRUE,TRUE,,,,,,,CLR,,,,,,,,VFR,0.2,,,,,,,,,,,METAR,245.0
KGEY 052053Z AUTO 00000KT 10SM CLR 02/M04 A2989 RMK AO2 SLP159 T00221044 56022,KGEY,2019-01-05T20:53:00Z,44.52,-108.08,2.2,-4.4,0,0,,10.0,29.890747,1015.9,,TRUE,TRUE,,,,,,,CLR,,,,,,,,VFR,-2.2,,,,,,,,,,,SPECI,1191.0
KGEG 052053Z 05005KT 10SM SCT160 BKN200 04/M01 A2961 RMK AO2 SLP039 T00391006 57028,KGEG,2019-01-05T20:53:00Z,47.62,-117.53,3.9,-0.6,50,5,,10.0,29.610237,1003.9,,,TRUE,,,,,,,SCT,16000,BKN,20000,,,,,VFR,-2.8,,,,,,,,,,,METAR,735.0
KGCC 052053Z AUTO 17007KT 10SM CLR 05/M02 A2988 RMK AO2 SLP128 T00501022 56021,KGCC,2019-01-05T20:53:00Z,44.33,-105.55,5.0,-2.2,170,7,,10.0,29.878937,1012.8,,TRUE,TRUE,,,,,,,CLR,,,,,,,,VFR,-2.1,,,,,,,,,,,METAR,1320.0
KGAG 052053Z AUTO 17012KT 10SM CLR 20/M01 A2995 RMK AO2 SLP140 T02001006 55024,KGAG,2019-01-05T20:53:00Z,36.3,-99.77,20.0,-0.6,170,12,,10.0,29.949802,1014.0,,TRUE,TRUE,,,,,,,CLR,,,,,,,,VFR,-2.4,,,,,,,,,,,METAR,668.0
KFYV 052053Z 24008KT 10SM CLR 18/03 A3006 RMK AO2 SLP180 T01830028 55010,KFYV,2019-01-05T20:53:00Z,36.02,-94.17,18.3,2.8,240,8,,10.0,30.059055,1018.0,,,TRUE,,,,,,,CLR,,,,,,,,VFR,-1.0,,,,,,,,,,,METAR,379.0
KFXE 052053Z 29011G18KT 10SM CLR 26/14 A3000 RMK AO2 SLP160 T02610139 55006,KFXE,2019-01-05T20:53:00Z,26.2,-80.18,26.1,13.9,290,11,18,10.0,30.0,1016.0,,,TRUE,,,,,,,CLR,,,,,,,,VFR,-0.6,,,,,,,,,,,METAR,6.0
KFUL 052053Z 11008KT 9SM SCT028 OVC100 15/08 A2997 RMK AO2 SLP147 T01500083 56022,KFUL,2019-01-05T20:53:00Z,33.87,-117.98,15.0,8.3,110,8,,9.0,29.970472,1014.7,,,TRUE,,,,,,,SCT,2800,OVC,10000,,,,,VFR,-2.2,,,,,,,,,,,SPECI,35.0
KFTY 052053Z 29012KT 10SM CLR 14/03 A3004 RMK AO2 SLP172 T01440028 53004,KFTY,2019-01-05T20:53:00Z,33.78,-84.52,14.4,2.8,290,12,,10.0,30.041338,1017.2,,,TRUE,,,,,,,CLR,,,,,,,,VFR,0.4,,,,,,,,,,,METAR,263.0
KFTW 052053Z 13007KT 10SM CLR 22/03 A3004 RMK AO2 SLP170 T02170028 56023,KFTW,2019-01-05T20:53:00Z,32.83,-97.37,21.7,2.8,130,7,,10.0,30.041338,1017.0,,,TRUE,,,,,,,CLR,,,,,,,,VFR,-2.3,,,,,,,,,,,METAR,214.0
KFST 052053Z AUTO 08010KT 10SM CLR 22/M04 A3005 RMK AO2 SLP145 T02171044 56031,KFST,2019-01-05T20:53:00Z,30.92,-102.92,21.7,-4.4,80,10,,10.0,30.050198,1014.5,,TRUE,TRUE,,,,,,,CLR,,,,,,,,VFR,-3.1,,,,,,,,,,,METAR,918.0
KFSM 052053Z 00000KT 10SM CLR 17/04 A3007 RMK AO2 SLP184 T01720039 55015,KFSM,2019-01-05T20:53:00Z,35.33,-94.37,17.2,3.9,0,0,,10.0,30.070866,1018.4,,,TRUE,,,,,,,CLR,,,,,,,,VFR,-1.5,,,,,,,,,,,METAR,140.0
KFPR 052053Z 29010KT 10SM SCT039 24/13 A3000 RMK AO2 SLP156 T02390133 55002,KFPR,2019-01-05T20:53:00Z,27.5,-80.38,23.9,13.3,290,10,,10.0,30.0,1015.6,,,TRUE,,,,,,,SCT,3900,,,,,,,VFR,-0.2,,,,,,,,,,,METAR,13.0
KFOE 052053Z 21006KT 10SM CLR 16/02 A2999 RMK AO2 SLP159 T01560017 55007,KFOE,2019-01-05T20:53:00Z,38.93,-95.65,15.6,1.7,210,6,,10.0,29.991142,1015.9,,,TRUE,,,,,,,CLR,,,,,,,,VFR,-0.7,,,,,,,,,,,METAR,320.0
KFNT 052053Z 25008KT 10SM CLR 08/01 A2974 RMK AO2 SLP078 T00830011 50000,KFNT,2019-01-05T20:53:00Z,42.97,-83.75,8.3,1.1,250,8,,10.0,29.740158,1007.8,,,TRUE,,,,,,,CLR,,,,,,,,VFR,0.0,,,,,,,,,,,METAR,233.0
KFNB 052053Z AUTO 24005KT 10SM CLR 17/02 A2997 RMK AO2 SLP150 T01670022 55003,KFNB,2019-01-05T20:53:00Z,40.07,-95.58,16.7,2.2,240,5,,10.0,29.970472,1015.0,,TRUE,TRUE,,,,,,,CLR,,,,,,,,VFR,-0.3,,,,,,,,,,,METAR,300.0
KFMN 052053Z 00000KT 10SM CLR M01/M06 A3012 RMK AO2 SLP251 T10111061 56025,KFMN,2019-01-05T20:53:00Z,36.75,-108.23,-1.1,-6.1,0,0,,10.0,30.121063,1025.1,,,TRUE,,,,,,,CLR,,,,,,,,VFR,-2.5,,,,,,,,,,,METAR,1685.0
KFLO 052053Z 30011G19KT 10SM CLR 17/04 A2987 RMK AO2 SLP112 T01720039 53014,KFLO,2019-01-05T20:53:00Z,34.18,-79.73,17.2,3.9,300,11,19,10.0,29.870079,1011.2,,,TRUE,,,,,,,CLR,,,,,,,,VFR,1.4,,,,,,,,,,,METAR,44.0
KFLL 052053Z AUTO 26011KT 10SM CLR 26/15 A2999 RMK AO2 SLP156 T02560150 55006,KFLL,2019-01-05T20:53:00Z,26.07,-80.15,25.6,15.0,260,11,,10.0,29.991142,1015.6,,TRUE,TRUE,,,,,,,CLR,,,,,,,,VFR,-0.6,,,,,,,,,,,METAR,3.0
KPBI 052053Z 28012KT 10SM FEW035 BKN180 BKN250 25/14 A3000 RMK AO2 SLP159 T02500144 55000 $,KPBI,2019-01-05T20:53:00Z,26.68,-80.1,25.0,14.4,280,12,,10.0,30.0,1015.9,,,TRUE,TRUE,,,,,,FEW,3500,BKN,18000,BKN,25000,,,VFR,0.0,,,,,,,,,,,METAR,6.0
KPBF 052053Z AUTO 20005KT 10SM CLR 17/01 A3011 RMK AO2 SLP194 T01720011 56009,KPBF,2019-01-05T20:53:00Z,34.18,-91.93,17.2,1.1,200,5,,10.0,30.109253,1019.4,,TRUE,TRUE,,,,,,,CLR,,,,,,,,VFR,-0.9,,,,,,,,,,,METAR,62.0
KPAH 052053Z 22007KT 10SM CLR 13/04 A3005 RMK AO2 SLP177 T01330039 53001,KPAH,2019-01-05T20:53:00Z,37.07,-88.77,13.3,3.9,220,7,,10.0,30.050198,1017.7,,,TRUE,,,,,,,CLR,,,,,,,,VFR,0.1,,,,,,,,,,,METAR,119.0
KPAE 052053Z VRB03KT 10SM SCT090 BKN110 11/01 A2942 RMK AO2 SLP963 T01110011 58034,KPAE,2019-01-05T20:53:00Z,47.92,-122.28,11.1,1.1,0,3,,10.0,29.421259,996.3,,,TRUE,,,,,,,SCT,9000,BKN,11000,,,,,VFR,-3.4,,,,,,,,,,,METAR,180.0
KOXB 052053Z AUTO 30012G27KT 10SM OVC022 11/06 A2955 RMK AO2 PK WND 31031/2004 SLP007 T01060061 53032,KOXB,2019-01-05T20:53:00Z,38.32,-75.12,10.6,6.1,300,12,27,10.0,29.551182,1000.7,,TRUE,TRUE,,,,,,,OVC,2200,,,,,,,MVFR,3.2,,,,,,,,,,,METAR,3.0
KOVS 052053Z AUTO 28007KT 10SM CLR 11/00 A2989 RMK AO2 SLP127 T01060000 53014,KOVS,2019-01-05T20:53:00Z,43.15,-90.68,10.6,0.0,280,7,,10.0,29.890747,1012.7,,TRUE,TRUE,,,,,,,CLR,,,,,,,,VFR,1.4,,,,,,,,,,,METAR,202.0
KOVE 052053Z AUTO 12010KT 10SM -RA 09/06 A2969 RMK AO2 RAB28 SLP058 P0003 60018 T00890056 $,KOVE,2019-01-05T20:53:00Z,39.5,-121.62,8.9,5.6,120,10,,10.0,29.68996,1005.8,,TRUE,TRUE,TRUE,,,,,-RA,,,,,,,,,,,,,,,0.03,,,,,,SPECI,58.0
KOTM 052053Z AUTO 26004KT 10SM CLR 14/03 A2995 RMK AO2 SLP145 T01440033 53004,KOTM,2019-01-05T20:53:00Z,41.1,-92.45,14.4,3.3,260,4,,10.0,29.949802,1014.5,,TRUE,TRUE,,,,,,,CLR,,,,,,,,VFR,0.4,,,,,,,,,,,SPECI,256.0
KOSU 052053Z 26009KT 10SM CLR 09/03 A2987 RMK AO2 SLP120 T00940028 53010,KOSU,2019-01-05T20:53:00Z,40.08,-83.08,9.4,2.8,260,9,,10.0,29.870079,1012.0,,,TRUE,,,,,,,CLR,,,,,,,,VFR,1.0,,,,,,,,,,,METAR,280.0
KOSH 052053Z 27005KT 10SM CLR 08/M01 A2978 RMK AO2 SLP095 T00781006 53014 $,KOSH,2019-01-05T20:53:00Z,43.97,-88.55,7.8,-0.6,270,5,,10.0,29.778543,1009.5,,,TRUE,TRUE,,,,,,CLR,,,,,,,,VFR,1.4,,,,,,,,,,,METAR,248.0
KORL 052053Z 29012KT 10SM CLR 19/10 A3001 RMK AO2 SLP167 T01890100 53001,KORL,2019-01-05T20:53:00Z,28.55,-81.33,18.9,10.0,290,12,,10.0,30.008858,1016.7,,,TRUE,,,,,,,CLR,,,,,,,,VFR,0.1,,,,,,,,,,,METAR,37.0
KOPF 052053Z 31010KT 10SM CLR 26/14 A3001 RMK AO2 SLP162 T02610139 55007,KOPF,2019-01-05T20:53:00Z,25.92,-80.28,26.1,13.9,310,10,,10.0,30.008858,1016.2,,,TRUE,,,,,,,CLR,,,,,,,,VFR,-0.7,,,,,,,,,,,METAR,16.0
KONT 052053Z 00000KT 10SM FEW030 OVC100 13/03 A2997 RMK AO2 SLP149 T01280033 56020,KONT,2019-01-05T20:53:00Z,34.05,-117.58,12.8,3.3,0,0,,10.0,29.970472,1014.9,,,TRUE,,,,,,,FEW,3000,OVC,10000,,,,,VFR,-2.0,,,,,,,,,,,SPECI,274.0
KONO 052053Z AUTO VRB03KT 10SM CLR 02/M04 A2979 RMK AO2 SLP107 T00221039 58039,KONO,2019-01-05T20:53:00Z,44.02,-117.02,2.2,-3.9,0,3,,10.0,29.790354,1010.7,,TRUE,TRUE,,,,,,,CLR,,,,,,,,VFR,-3.9,,,,,,,,,,,SPECI,667.0
KOMK 052053Z AUTO 00000KT 10SM CLR 04/02 A2961 RMK AO2 SLP039 T00440017 57037,KOMK,2019-01-05T20:53:00Z,48.47,-119.52,4.4,1.7,0,0,,10.0,29.610237,1003.9,,TRUE,TRUE,,,,,,,CLR,,,,,,,,VFR,-3.7,,,,,,,,,,,SPECI,395.0
KOLF 052053Z AUTO 07010KT 5SM BR OVC004 M02/M03 A2997 RMK AO2 SLP173 T10171028 55010 TSNO,KOLF,2019-01-05T20:53:00Z,48.1,-105.58,-1.7,-2.8,70,10,,5.0,29.970472,1017.3,,TRUE,TRUE,,,TRUE,,,BR,OVC,400,,,,,,,LIFR,-1.0,,,,,,,,,,,METAR,604.0
KOJC 052053Z 19006KT 10SM CLR 14/02 A3000 RMK AO2 SLP161 T01440022 55006,KOJC,2019-01-05T20:53:00Z,38.85,-94.73,14.4,2.2,190,6,,10.0,30.0,1016.1,,,TRUE,,,,,,,CLR,,,,,,,,VFR,-0.6,,,,,,,,,,,METAR,326.0
KOGD 052053Z 00000KT 8SM CLR 01/M08 A2992 RMK AO2 SLP141 T00111078 56030 $,KOGD,2019-01-05T20:53:00Z,41.2,-112.02,1.1,-7.8,0,0,,8.0,29.920275,1014.1,,,TRUE,TRUE,,,,,,CLR,,,,,,,,VFR,-3.0,,,,,,,,,,,SPECI,1353.0
KOGB 052053Z AUTO 26009KT 10SM CLR 17/05 A2992 RMK AO2 SLP129 T01670050 53010,KOGB,2019-01-05T20:53:00Z,33.47,-80.85,16.7,5.0,260,9,,10.0,29.920275,1012.9,,TRUE,TRUE,,,,,,,CLR,,,,,,,,VFR,1.0,,,,,,,,,,,METAR,59.0
KODX 052053Z AUTO 01005KT 10SM CLR 10/01 A2997 RMK AO2 SLP165 T01000011 55003 $,KODX,2019-01-05T20:53:00Z,41.62,-98.95,10.0,1.1,10,5,,10.0,29.970472,1016.5,,TRUE,TRUE,TRUE,,,,,,CLR,,,,,,,,VFR,-0.3,,,,,,,,,,,METAR,631.0
KODO 052053Z AUTO 19009KT 10SM CLR 19/M08 A3006 RMK AO2 SLP159 T01941083 56025,KODO,2019-01-05T20:53:00Z,31.92,-102.4,19.4,-8.3,190,9,,10.0,30.059055,1015.9,,TRUE,TRUE,,,,,,,CLR,,,,,,,,VFR,-2.5,,,,,,,,,,,SPECI,902.0
KOAK 052053Z 15019KT 10SM FEW010 BKN038 OVC060 13/08 A2967 RMK AO2 PK WND 15030/2041 SLP046 T01330083 56010,KOAK,2019-01-05T20:53:00Z,37.72,-122.23,13.3,8.3,150,19,,10.0,29.66929,1004.6,,,TRUE,,,,,,,FEW,1000,BKN,3800,OVC,6000,,,VFR,-1.0,,,,,,,,,,,SPECI,26.0
KNEW 052053Z 28005KT 10SM CLR 14/07 A3018 RMK AO2 SLP212 T01390072 55009,KNEW,2019-01-05T20:53:00Z,30.05,-90.03,13.9,7.2,280,5,,10.0,30.180119,1021.2,,,TRUE,,,,,,,CLR,,,,,,,,VFR,-0.9,,,,,,,,,,,METAR,3.0
KMYV 052053Z AUTO 14013G20KT 10SM -RA FEW035 BKN044 OVC055 10/06 A2968 RMK AO2 RAB1955E05B23 SLP056 P0000 60016 T01000061 58015,KMYV,2019-01-05T20:53:00Z,39.1,-121.57,10.0,6.1,140,13,20,10.0,29.681103,1005.6,,TRUE,TRUE,,,,,,-RA,FEW,3500,BKN,4400,OVC,5500,,,VFR,-1.5,,,,,0.005,,,,,,SPECI,21.0
KMYF 052053Z 16010KT 10SM FEW060 BKN080 BKN100 14/07 A3000 RMK AO2 SLP156 T01440072 56019 $,KMYF,2019-01-05T20:53:00Z,32.82,-117.13,14.4,7.2,160,10,,10.0,30.0,1015.6,,,TRUE,TRUE,,,,,,FEW,6000,BKN,8000,BKN,10000,,,VFR,-1.9,,,,,,,,,,,SPECI,136.0
KMWL 052053Z AUTO 14007KT 10SM CLR 22/02 A3003 RMK AO2 SLP163 T02220022 56025,KMWL,2019-01-05T20:53:00Z,32.78,-98.07,22.2,2.2,140,7,,10.0,30.029528,1016.3,,TRUE,TRUE,,,,,,,CLR,,,,,,,,VFR,-2.5,,,,,,,,,,,SPECI,284.0
KCPS 052053Z 22005KT 10SM CLR 16/02 A2999 RMK AO2 SLP157 T01560022 55002,KCPS,2019-01-05T20:53:00Z,38.57,-90.15,15.6,2.2,220,5,,10.0,29.991142,1015.7,,,TRUE,,,,,,,CLR,,,,,,,,VFR,-0.2,,,,,,,,,,,METAR,126.0
KCPR 052053Z 23022G28KT 10SM CLR 06/M05 A2991 RMK AO2 PK WND 23028/2051 SLP128 T00611050 56021,KCPR,2019-01-05T20:53:00Z,42.9,-106.47,6.1,-5.0,230,22,28,10.0,29.911417,1012.8,,,TRUE,,,,,,,CLR,,,,,,,,VFR,-2.1,,,,,,,,,,,METAR,1621.0
KCNY 052053Z AUTO 35005KT 10SM CLR M03/M08 A3015 RMK AO2 SLP254 T10281078 58024,KCNY,2019-01-05T20:53:00Z,38.77,-109.75,-2.8,-7.8,350,5,,10.0,30.15059,1025.4,,TRUE,TRUE,,,,,,,CLR,,,,,,,,VFR,-2.4,,,,,,,,,,,METAR,1390.0
KCNO 052053Z 00000KT 10SM SCT100 OVC120 13/02 A2999 RMK AO2 SLP154 T01330022 56021 $,KCNO,2019-01-05T20:53:00Z,33.98,-117.62,13.3,2.2,0,0,,10.0,29.991142,1015.4,,,TRUE,TRUE,,,,,,SCT,10000,OVC,12000,,,,,VFR,-2.1,,,,,,,,,,,SPECI,207.0
KCNM 052053Z AUTO 15006KT 10SM CLR 17/M04 A3003 RMK AO2 SLP155 T01671044 56029,KCNM,2019-01-05T20:53:00Z,32.33,-104.25,16.7,-4.4,150,6,,10.0,30.029528,1015.5,,TRUE,TRUE,,,,,,,CLR,,,,,,,,VFR,-2.9,,,,,,,,,,,METAR,985.0
KCMI 052053Z 25010KT 10SM CLR 11/06 A2994 RMK AO2 SLP144 T01060056 53002 $,KCMI,2019-01-05T20:53:00Z,40.03,-88.27,10.6,5.6,250,10,,10.0,29.940945,1014.4,,,TRUE,TRUE,,,,,,CLR,,,,,,,,VFR,0.2,,,,,,,,,,,SPECI,228.0
KCLM 052053Z AUTO 23003KT 10SM OVC100 07/05 A2940 RMK AO2 SLP958 T00720050 58040,KCLM,2019-01-05T20:53:00Z,48.12,-123.5,7.2,5.0,230,3,,10.0,29.40059,995.8,,TRUE,TRUE,,,,,,,OVC,10000,,,,,,,VFR,-4.0,,,,,,,,,,,SPECI,85.0
KCLL 052053Z 16006KT 10SM CLR 22/04 A3011 RMK AO2 SLP196 T02170044 56021,KCLL,2019-01-05T20:53:00Z,30.58,-96.37,21.7,4.4,160,6,,10.0,30.109253,1019.6,,,TRUE,,,,,,,CLR,,,,,,,,VFR,-2.1,,,,,,,,,,,METAR,96.0
KCKB 052053Z 26008KT 10SM CLR 11/01 A2984 RMK AO2 SLP102 T01060011 53020,KCKB,2019-01-05T20:53:00Z,39.3,-80.22,10.6,1.1,260,8,,10.0,29.840551,1010.2,,,TRUE,,,,,,,CLR,,,,,,,,VFR,2.0,,,,,,,,,,,METAR,360.0
KCHO 052053Z 30004KT 10SM CLR 16/01 A2970 RMK AO2 SLP055 T01560011 53019,KCHO,2019-01-05T20:53:00Z,38.13,-78.45,15.6,1.1,300,4,,10.0,29.698818,1005.5,,,TRUE,,,,,,,CLR,,,,,,,,VFR,1.9,,,,,,,,,,,METAR,192.0
KCHA 052053Z 32005KT 10SM CLR 17/02 A3005 RMK AO2 SLP174 T01670017 53006 $,KCHA,2019-01-05T20:53:00Z,35.03,-85.2,16.7,1.7,320,5,,10.0,30.050198,1017.4,,,TRUE,TRUE,,,,,,CLR,,,,,,,,VFR,0.6,,,,,,,,,,,METAR,210.0
KCGI 052053Z 18007KT 10SM CLR 14/06 A3004 RMK AO2 SLP173 T01390056 55004,KCGI,2019-01-05T20:53:00Z,37.23,-89.58,13.9,5.6,180,7,,10.0,30.041338,1017.3,,,TRUE,,,,,,,CLR,,,,,,,,VFR,-0.4,,,,,,,,,,,METAR,102.0
KCEZ 052053Z AUTO 17003KT 10SM CLR M01/M05 A3013 RMK AO2 SLP246 T10061050 56022,KCEZ,2019-01-05T20:53:00Z,37.3,-108.63,-0.6,-5.0,170,3,,10.0,30.129921,1024.6,,TRUE,TRUE,,,,,,,CLR,,,,,,,,VFR,-2.2,,,,,,,,,,,SPECI,1797.0
KCEW 052053Z AUTO VRB06KT 10SM CLR 17/03 A3013 RMK AO2 SLP200 T01720033 55005,KCEW,2019-01-05T20:53:00Z,30.78,-86.52,17.2,3.3,0,6,,10.0,30.129921,1020.0,,TRUE,TRUE,,,,,,,CLR,,,,,,,,VFR,-0.5,,,,,,,,,,,METAR,55.0
KCDS 052053Z AUTO 16012KT 10SM CLR 22/00 A2999 RMK AO2 SLP146 T02170000 56031,KCDS,2019-01-05T20:53:00Z,34.43,-100.28,21.7,0.0,160,12,,10.0,29.991142,1014.6,,TRUE,TRUE,,,,,,,CLR,,,,,,,,VFR,-3.1,,,,,,,,,,,SPECI,594.0
KCDR 052053Z AUTO 12008KT 10SM CLR 11/M02 A2994 RMK AO2 SLP155 T01111022 56018 $,KCDR,2019-01-05T20:53:00Z,42.83,-103.1,11.1,-2.2,120,8,,10.0,29.940945,1015.5,,TRUE,TRUE,TRUE,,,,,,CLR,,,,,,,,VFR,-1.8,,,,,,,,,,,METAR,1010.0
KCDC 052053Z AUTO 20017G24KT 10SM CLR 05/M06 A2993 RMK AO2 SLP128 T00501061 57024 $,KCDC,2019-01-05T20:53:00Z,37.7,-113.1,5.0,-6.1,200,17,24,10.0,29.929134,1012.8,,TRUE,TRUE,TRUE,,,,,,CLR,,,,,,,,VFR,-2.4,,,,,,,,,,,METAR,1714.0
KCCR 052053Z 18018G28KT 8SM BKN048 OVC055 15/07 A2965 RMK AO2 PK WND 21031/2041 RAB10E25 SLP025 P0000 60000 T01500067 58022,KCCR,2019-01-05T20:53:00Z,38.0,-122.05,15.0,6.7,180,18,28,8.0,29.648623,1002.5,,,TRUE,,,,,,,BKN,4800,OVC,5500,,,,,VFR,-2.2,,,,,0.005,,,,,,SPECI,11.0
KCAG 052053Z AUTO 00000KT 10SM CLR M02/M08 A3006 RMK AO2 SLP255 T10221078 56021,KCAG,2019-01-05T20:53:00Z,40.5,-107.52,-2.2,-7.8,0,0,,10.0,30.059055,1025.5,,TRUE,TRUE,,,,,,,CLR,,,,,,,,VFR,-2.1,,,,,,,,,,,METAR,1887.0
KBYG 052053Z AUTO 10003KT 10SM CLR 06/M03 A2985 RMK AO2 SLP107 T00561028 56020,KBYG,2019-01-05T20:53:00Z,44.38,-106.72,5.6,-2.8,100,3,,10.0,29.84941,1010.7,,TRUE,TRUE,,,,,,,CLR,,,,,,,,VFR,-2.0,,,,,,,,,,,METAR,1497.0
KBWG 052053Z AUTO 23008KT 10SM CLR 13/04 A3005 RMK AO2 SLP177 T01330044 53004,KBWG,2019-01-05T20:53:00Z,36.97,-86.42,13.3,4.4,230,8,,10.0,30.050198,1017.7,,TRUE,TRUE,,,,,,,CLR,,,,,,,,VFR,0.4,,,,,,,,,,,METAR,168.0
KBVO 052053Z AUTO 20005KT 10SM CLR 18/03 A3004 RMK AO2 SLP170 T01830028 56012,KBVO,2019-01-05T20:53:00Z,36.77,-96.02,18.3,2.8,200,5,,10.0,30.041338,1017.0,,TRUE,TRUE,,,,,,,CLR,,,,,,,,VFR,-1.2,,,,,,,,,,,METAR,210.0
KBTR 052053Z 27005KT 10SM CLR 17/07 A3017 RMK AO2 SLP216 T01720072 55009 $,KBTR,2019-01-05T20:53:00Z,30.53,-91.15,17.2,7.2,270,5,,10.0,30.171259,1021.6,,,TRUE,TRUE,,,,,,CLR,,,,,,,,VFR,-0.9,,,,,,,,,,,METAR,21.0
KBTM 052053Z AUTO 00000KT 10SM CLR M01/M08 A2978 RMK AO2 SLP126 T10061078 56021,KBTM,2019-01-05T20:53:00Z,45.97,-112.5,-0.6,-7.8,0,0,,10.0,29.778543,1012.6,,TRUE,TRUE,,,,,,,CLR,,,,,,,,VFR,-2.1,,,,,,,,,,,METAR,1688.0
KBTL 052053Z 22008KT 10SM CLR 10/03 A2979 RMK AO2 SLP095 T01000028 53000,KBTL,2019-01-05T20:53:00Z,42.32,-85.23,10.0,2.8,220,8,,10.0,29.790354,1009.5,,,TRUE,,,,,,,CLR,,,,,,,,VFR,0.0,,,,,,,,,,,METAR,290.0
KBRO 052053Z 11011KT 10SM CLR 24/12 A3013 RMK AO2 SLP201 T02390122 56023 $,KBRO,2019-01-05T20:53:00Z,25.92,-97.42,23.9,12.2,110,11,,10.0,30.129921,1020.1,,,TRUE,TRUE,,,,,,CLR,,,,,,,,VFR,-2.3,,,,,,,,,,,METAR,7.0
KTHV 052053Z AUTO 31009KT 10SM CLR 09/05 A2963 RMK AO2 SLP038 60001 T00890050 51034,KTHV,2019-01-05T20:53:00Z,39.92,-76.88,8.9,5.0,310,9,,10.0,29.630905,1003.8,,TRUE,TRUE,,,,,,,CLR,,,,,,,,VFR,3.4,,,,,,0.01,,,,,METAR,144.0
KTDZ 052053Z AUTO 24013KT 9SM CLR 09/02 A2982 RMK AO2 SLP102 T00890022 53006,KTDZ,2019-01-05T20:53:00Z,41.57,-83.48,8.9,2.2,240,13,,9.0,29.819881,1010.2,,TRUE,TRUE,,,,,,,CLR,,,,,,,,VFR,0.6,,,,,,,,,,,METAR,189.0
KTCS 052053Z AUTO 13003KT 10SM CLR 09/M05 A3014 RMK AO2 SLP194 T00941050 56018,KTCS,2019-01-05T20:53:00Z,33.23,-107.27,9.4,-5.0,130,3,,10.0,30.138779,1019.4,,TRUE,TRUE,,,,,,,CLR,,,,,,,,VFR,-1.8,,,,,,,,,,,METAR,1469.0
KTCL 052053Z 31003KT 10SM CLR 17/04 A3012 RMK AO2 SLP197 T01720039 56006,KTCL,2019-01-05T20:53:00Z,33.22,-87.62,17.2,3.9,310,3,,10.0,30.121063,1019.7,,,TRUE,,,,,,,CLR,,,,,,,,VFR,-0.6,,,,,,,,,,,METAR,49.0
KTCC 052053Z AUTO 25013KT 10SM CLR 20/M02 A2996 RMK AO2 SLP123 T02001022 56020,KTCC,2019-01-05T20:53:00Z,35.18,-103.6,20.0,-2.2,250,13,,10.0,29.958662,1012.3,,TRUE,TRUE,,,,,,,CLR,,,,,,,,VFR,-2.0,,,,,,,,,,,METAR,1235.0
KSTP 052053Z 30011KT 10SM CLR 08/M01 A2992 RMK AO2 SLP137 T00781006 53020,KSTP,2019-01-05T20:53:00Z,44.93,-93.05,7.8,-0.6,300,11,,10.0,29.920275,1013.7,,,TRUE,,,,,,,CLR,,,,,,,,VFR,2.0,,,,,,,,,,,METAR,219.0
KSTJ 052053Z AUTO 19004KT 10SM CLR 14/04 A2999 RMK AO2 SLP160 T01440044 55003,KSTJ,2019-01-05T20:53:00Z,39.77,-94.92,14.4,4.4,190,4,,10.0,29.991142,1016.0,,TRUE,TRUE,,,,,,,CLR,,,,,,,,VFR,-0.3,,,,,,,,,,,METAR,247.0
KSTC 052053Z 35009KT 10SM CLR 04/M01 A2994 RMK AO2 SLP158 T00441011 53027,KSTC,2019-01-05T20:53:00Z,45.55,-94.05,4.4,-1.1,350,9,,10.0,29.940945,1015.8,,,TRUE,,,,,,,CLR,,,,,,,,VFR,2.7,,,,,,,,,,,METAR,314.0
KSSI 052053Z AUTO 28012G20KT 10SM CLR 16/06 A2998 RMK AO2 SLP154 T01610061 53005,KSSI,2019-01-05T20:53:00Z,31.15,-81.38,16.1,6.1,280,12,20,10.0,29.97933,1015.4,,TRUE,TRUE,,,,,,,CLR,,,,,,,,VFR,0.5,,,,,,,,,,,METAR,6.0
KSSF 052053Z 14005KT 10SM CLR 23/00 A3009 RMK AO2 SLP188 T02330000 56028 $,KSSF,2019-01-05T20:53:00Z,29.33,-98.47,23.3,0.0,140,5,,10.0,30.088583,1018.8,,,TRUE,TRUE,,,,,,CLR,,,,,,,,VFR,-2.8,,,,,,,,,,,METAR,176.0
KSRQ 052053Z 33014KT 10SM OVC027 18/13 A3004 RMK AO2 SLP173 T01830128 53001 $,KSRQ,2019-01-05T20:53:00Z,27.4,-82.57,18.3,12.8,330,14,,10.0,30.041338,1017.3,,,TRUE,TRUE,,,,,,OVC,2700,,,,,,,MVFR,0.1,,,,,,,,,,,METAR,18.0
KSPW 052053Z AUTO 35010KT 10SM CLR 09/01 A2997 RMK AO2 SLP160 T00940011 53012,KSPW,2019-01-05T20:53:00Z,43.17,-95.22,9.4,1.1,350,10,,10.0,29.970472,1016.0,,TRUE,TRUE,,,,,,,CLR,,,,,,,,VFR,1.2,,,,,,,,,,,METAR,403.0
KSPG 052053Z 33011G22KT 10SM BKN026 17/11 A3005 RMK AO2 SLP174 T01720111 53002,KSPG,2019-01-05T20:53:00Z,27.77,-82.63,17.2,11.1,330,11,22,10.0,30.050198,1017.4,,,TRUE,,,,,,,BKN,2600,,,,,,,MVFR,0.2,,,,,,,,,,,METAR,2.0
KSPB 052053Z AUTO 00000KT 10SM OVC095 09/06 A2943 RMK AO2 SLP964 T00940056 58029,KSPB,2019-01-05T20:53:00Z,45.77,-122.87,9.4,5.6,0,0,,10.0,29.430119,996.4,,TRUE,TRUE,,,,,,,OVC,9500,,,,,,,VFR,-2.9,,,,,,,,,,,METAR,14.0
KSNY 052053Z AUTO 06008KT 10SM CLR 16/M08 A2994 RMK AO2 SLP134 T01561078 56021,KSNY,2019-01-05T20:53:00Z,41.1,-102.98,15.6,-7.8,60,8,,10.0,29.940945,1013.4,,TRUE,TRUE,,,,,,,CLR,,,,,,,,VFR,-2.1,,,,,,,,,,,METAR,1307.0
KSNS 052053Z 16012KT 10SM FEW050 BKN075 OVC110 12/08 A2974 RMK AO2 PK WND 14028/1959 RAE03 SLP080 P0000 60010 T01170083 58018,KSNS,2019-01-05T20:53:00Z,36.67,-121.6,11.7,8.3,160,12,,10.0,29.740158,1008.0,,,TRUE,,,,,,,FEW,5000,BKN,7500,OVC,11000,,,VFR,-1.8,,,,,0.005,0.1,,,,,METAR,30.0
KSMF 052053Z 15013G22KT 10SM OVC049 11/07 A2968 RMK AO2 SLP051 60004 T01060067 56026,KSMF,2019-01-05T20:53:00Z,38.7,-121.6,10.6,6.7,150,13,22,10.0,29.681103,1005.1,,,TRUE,,,,,,,OVC,4900,,,,,,,VFR,-2.6,,,,,,0.04,,,,,METAR,6.0
KSLN 052053Z 11004KT 10SM CLR 16/02 A2998 RMK AO2 SLP154 T01560017 56015,KSLN,2019-01-05T20:53:00Z,38.78,-97.65,15.6,1.7,110,4,,10.0,29.97933,1015.4,,,TRUE,,,,,,,CLR,,,,,,,,VFR,-1.5,,,,,,,,,,,METAR,385.0
KSIY 052053Z AUTO 17027G34KT 10SM FEW070 06/00 A2951 RMK AO2 PK WND 17043/1957 SLP002 T00610000 58037,KSIY,2019-01-05T20:53:00Z,41.77,-122.47,6.1,0.0,170,27,34,10.0,29.509842,1000.2,,TRUE,TRUE,,,,,,,FEW,7000,,,,,,,VFR,-3.7,,,,,,,,,,,METAR,807.0
KSHR 052053Z AUTO 36004KT 10SM CLR 04/M01 A2985 RMK AO2 SLP132 T00391011 56023,KSHR,2019-01-05T20:53:00Z,44.77,-106.97,3.9,-1.1,360,4,,10.0,29.84941,1013.2,,TRUE,TRUE,,,,,,,CLR,,,,,,,,VFR,-2.3,,,,,,,,,,,METAR,1202.0
KSHN 052053Z AUTO 00000KT 10SM OVC090 08/06 A2941 RMK AO2 SLP961 T00780056 58031,KSHN,2019-01-05T20:53:00Z,47.23,-123.13,7.8,5.6,0,0,,10.0,29.409449,996.1,,TRUE,TRUE,,,,,,,OVC,9000,,,,,,,VFR,-3.1,,,,,,,,,,,METAR,82.0
KSGR 052053Z 22004KT 10SM CLR 22/07 A3013 RMK AO2 SLP206 T02220072 56025,KSGR,2019-01-05T20:53:00Z,29.62,-95.65,22.2,7.2,220,4,,10.0,30.129921,1020.6,,,TRUE,,,,,,,CLR,,,,,,,,VFR,-2.5,,,,,,,,,,,METAR,2.0
KSFF 052053Z 00000KT 10SM CLR 06/01 A2962 RMK AO2 SLP040 T00560006 56030,KSFF,2019-01-05T20:53:00Z,47.68,-117.32,5.6,0.6,0,0,,10.0,29.619095,1004.0,,,TRUE,,,,,,,CLR,,,,,,,,VFR,-3.0,,,,,,,,,,,METAR,609.0
KSFB 052053Z 26012KT 10SM CLR 19/11 A3000 RMK AO2 SLP160 T01890106 55000,KSFB,2019-01-05T20:53:00Z,28.77,-81.22,18.9,10.6,260,12,,10.0,30.0,1016.0,,,TRUE,,,,,,,CLR,,,,,,,,VFR,0.0,,,,,,,,,,,METAR,17.0
KBRL 052053Z AUTO 25007KT 10SM CLR 12/03 A2995 RMK AO2 SLP145 T01220033 53001,KBRL,2019-01-05T20:53:00Z,40.77,-91.13,12.2,3.3,250,7,,10.0,29.949802,1014.5,,TRUE,TRUE,,,,,,,CLR,,,,,,,,VFR,0.1,,,,,,,,,,,METAR,211.0
KBPT 052053Z 23004KT 10SM CLR 21/07 A3016 RMK AO2 SLP212 T02110072 56014,KBPT,2019-01-05T20:53:00Z,29.95,-94.03,21.1,7.2,230,4,,10.0,30.159449,1021.2,,,TRUE,,,,,,,CLR,,,,,,,,VFR,-1.4,,,,,,,,,,,METAR,5.0
KBPK 052053Z AUTO 00000KT 10SM CLR 19/03 A3004 RMK AO2 SLP170 T01890028 55009,KBPK,2019-01-05T20:53:00Z,36.37,-92.47,18.9,2.8,0,0,,10.0,30.041338,1017.0,,TRUE,TRUE,,,,,,,CLR,,,,,,,,VFR,-0.9,,,,,,,,,,,METAR,280.0
KBPI 052053Z AUTO 09004KT 10SM CLR M06/M12 A3001 RMK AO2 SLP225 T10611117 56010,KBPI,2019-01-05T20:53:00Z,42.58,-110.1,-6.1,-11.7,90,4,,10.0,30.008858,1022.5,,TRUE,TRUE,,,,,,,CLR,,,,,,,,VFR,-1.0,,,,,,,,,,,METAR,2117.0
KBOI 052053Z 00000KT 10SM CLR 01/M05 A2975 RMK AO2 SLP094 T00111050 58030,KBOI,2019-01-05T20:53:00Z,43.57,-116.23,1.1,-5.0,0,0,,10.0,29.749016,1009.4,,,TRUE,,,,,,,CLR,,,,,,,,VFR,-3.0,,,,,,,,,,,METAR,875.0
KBNO 052053Z AUTO 07009KT 10SM CLR 01/M06 A2963 RMK AO2 SLP059 T00111061 56028 $,KBNO,2019-01-05T20:53:00Z,43.6,-118.95,1.1,-6.1,70,9,,10.0,29.630905,1005.9,,TRUE,TRUE,TRUE,,,,,,CLR,,,,,,,,VFR,-2.8,,,,,,,,,,,METAR,1264.0
KBNA 052053Z VRB03KT 10SM CLR 16/03 A3007 RMK AO2 SLP183 T01560028 53004,KBNA,2019-01-05T20:53:00Z,36.12,-86.68,15.6,2.8,0,3,,10.0,30.070866,1018.3,,,TRUE,,,,,,,CLR,,,,,,,,VFR,0.4,,,,,,,,,,,METAR,210.0
KBMQ 052053Z AUTO 18007KT 10SM CLR 22/01 A3010 RMK AO2 SLP187 T02220011 56027,KBMQ,2019-01-05T20:53:00Z,30.73,-98.23,22.2,1.1,180,7,,10.0,30.100393,1018.7,,TRUE,TRUE,,,,,,,CLR,,,,,,,,VFR,-2.7,,,,,,,,,,,SPECI,389.0
KBMG 052053Z 24009KT 10SM CLR 11/05 A2997 RMK AO2 SLP151 T01110050 53006,KBMG,2019-01-05T20:53:00Z,39.15,-86.62,11.1,5.0,240,9,,10.0,29.970472,1015.1,,,TRUE,,,,,,,CLR,,,,,,,,VFR,0.6,,,,,,,,,,,METAR,257.0
KBLI 052053Z 04005KT 10SM SCT120 09/02 A2941 RMK AO2 SLP968 T00890022 58038,KBLI,2019-01-05T20:53:00Z,48.8,-122.53,8.9,2.2,40,5,,10.0,29.409449,996.8,,,TRUE,,,,,,,SCT,12000,,,,,,,VFR,-3.8,,,,,,,,,,,METAR,50.0
KBKV 052053Z 30013KT 10SM OVC018 14/09 A3007 RMK AO2 SLP183 T01390089 53003,KBKV,2019-01-05T20:53:00Z,28.47,-82.45,13.9,8.9,300,13,,10.0,30.070866,1018.3,,,TRUE,,,,,,,OVC,1800,,,,,,,MVFR,0.3,,,,,,,,,,,METAR,20.0
KBKL 052053Z 26003KT 7SM CLR 06/01 A2978 RMK AO2 SLP089 T00560011 50001,KBKL,2019-01-05T20:53:00Z,41.53,-81.67,5.6,1.1,260,3,,7.0,29.778543,1008.9,,,TRUE,,,,,,,CLR,,,,,,,,VFR,0.1,,,,,,,,,,,METAR,184.0
KBKE 052053Z AUTO 07020KT 10SM CLR 02/M05 A2970 RMK AO2 SLP076 T00221050 58036,KBKE,2019-01-05T20:53:00Z,44.85,-117.82,2.2,-5.0,70,20,,10.0,29.698818,1007.6,,TRUE,TRUE,,,,,,,CLR,,,,,,,,VFR,-3.6,,,,,,,,,,,METAR,1024.0
KBIV 052053Z AUTO 25013G20KT 10SM CLR 07/02 A2982 RMK AO2 SLP102 T00670022 53008,KBIV,2019-01-05T20:53:00Z,42.75,-86.1,6.7,2.2,250,13,20,10.0,29.819881,1010.2,,TRUE,TRUE,,,,,,,CLR,,,,,,,,VFR,0.8,,,,,,,,,,,SPECI,208.0
KBHM 052053Z 26011KT 10SM CLR 16/03 A3012 RMK AO2 SLP198 T01560028 53001,KBHM,2019-01-05T20:53:00Z,33.57,-86.75,15.6,2.8,260,11,,10.0,30.121063,1019.8,,,TRUE,,,,,,,CLR,,,,,,,,VFR,0.1,,,,,,,,,,,METAR,197.0
KBGR 052053Z 02006KT 10SM BKN013 OVC080 02/00 A2960 RMK AO2 SLP027 T00220000 56010,KBGR,2019-01-05T20:53:00Z,44.8,-68.82,2.2,0.0,20,6,,10.0,29.601377,1002.7,,,TRUE,,,,,,,BKN,1300,OVC,8000,,,,,MVFR,-1.0,,,,,,,,,,,METAR,57.0
KBFM 052053Z 15007KT 10SM CLR 16/06 A3015 RMK AO2 SLP210 T01610056 55008,KBFM,2019-01-05T20:53:00Z,30.62,-88.07,16.1,5.6,150,7,,10.0,30.15059,1021.0,,,TRUE,,,,,,,CLR,,,,,,,,VFR,-0.8,,,,,,,,,,,METAR,20.0
KBFI 052053Z 00000KT 10SM CLR 10/05 A2942 RMK AO2 SLP962 T01000050 58033,KBFI,2019-01-05T20:53:00Z,47.55,-122.32,10.0,5.0,0,0,,10.0,29.421259,996.2,,,TRUE,,,,,,,CLR,,,,,,,,VFR,-3.3,,,,,,,,,,,METAR,4.0
KBFF 052053Z AUTO 13008KT 10SM CLR 14/M06 A2992 RMK AO2 SLP133 T01441061 56025,KBFF,2019-01-05T20:53:00Z,41.87,-103.58,14.4,-6.1,130,8,,10.0,29.920275,1013.3,,TRUE,TRUE,,,,,,,CLR,,,,,,,,VFR,-2.5,,,,,,,,,,,METAR,1203.0
KBFD 052053Z AUTO 32010KT 10SM CLR 05/M01 A2969 RMK AO2 SLP065 T00501006 53022,KBFD,2019-01-05T20:53:00Z,41.8,-78.63,5.0,-0.6,320,10,,10.0,29.68996,1006.5,,TRUE,TRUE,,,,,,,CLR,,,,,,,,VFR,2.2,,,,,,,,,,,METAR,647.0
KBEH 052053Z AUTO 25012KT 10SM CLR 09/02 A2985 RMK AO2 SLP112 T00940022 53009,KBEH,2019-01-05T20:53:00Z,42.13,-86.42,9.4,2.2,250,12,,10.0,29.84941,1011.2,,TRUE,TRUE,,,,,,,CLR,,,,,,,,VFR,0.9,,,,,,,,,,,SPECI,191.0
KBCE 052053Z AUTO 15010KT 10SM FEW100 M02/M08 A3005 RMK AO2 SLP206 T10171078 56026 $,KBCE,2019-01-05T20:53:00Z,37.7,-112.15,-1.7,-7.8,150,10,,10.0,30.050198,1020.6,,TRUE,TRUE,TRUE,,,,,,FEW,10000,,,,,,,VFR,-2.6,,,,,,,,,,,METAR,2312.0
KBBW 052053Z AUTO 02004KT 10SM CLR 09/01 A2997 RMK AO2 SLP159 T00890006 55004,KBBW,2019-01-05T20:53:00Z,41.43,-99.63,8.9,0.6,20,4,,10.0,29.970472,1015.9,,TRUE,TRUE,,,,,,,CLR,,,,,,,,VFR,-0.4,,,,,,,,,,,SPECI,776.0
KAZO 052053Z 26011KT 10SM CLR 11/01 A2981 RMK AO2 SLP100 T01110011 53005,KAZO,2019-01-05T20:53:00Z,42.23,-85.55,11.1,1.1,260,11,,10.0,29.811024,1010.0,,,TRUE,,,,,,,CLR,,,,,,,,VFR,0.5,,,,,,,,,,,METAR,272.0
KAXN 052053Z AUTO 35011KT 10SM CLR 03/M02 A2997 RMK AO2 SLP165 T00281022 53025 $,KAXN,2019-01-05T20:53:00Z,45.87,-95.4,2.8,-2.2,350,11,,10.0,29.970472,1016.5,,TRUE,TRUE,TRUE,,,,,,CLR,,,,,,,,VFR,2.5,,,,,,,,,,,METAR,433.0
KAWM 052053Z AUTO 18008KT 10SM CLR 14/09 A3010 RMK AO2 SLP191 T01390089 56005 $,KAWM,2019-01-05T20:53:00Z,35.13,-90.23,13.9,8.9,180,8,,10.0,30.100393,1019.1,,TRUE,TRUE,TRUE,,,,,,CLR,,,,,,,,VFR,-0.5,,,,,,,,,,,METAR,65.0
KAUS 052053Z 18010KT 10SM CLR 23/01 A3010 RMK AO2 SLP191 T02280011 56025,KAUS,2019-01-05T20:53:00Z,30.18,-97.68,22.8,1.1,180,10,,10.0,30.100393,1019.1,,,TRUE,,,,,,,CLR,,,,,,,,VFR,-2.5,,,,,,,,,,,METAR,166.0
KMTO 052053Z AUTO 23006KT 10SM CLR 12/05 A2996 RMK AO2 SLP148 T01220050 50002,KMTO,2019-01-05T20:53:00Z,39.47,-88.27,12.2,5.0,230,6,,10.0,29.958662,1014.8,,TRUE,TRUE,,,,,,,CLR,,,,,,,,VFR,0.2,,,,,,,,,,,METAR,214.0
KMTJ 052053Z AUTO 00000KT 10SM CLR M02/M07 A3012 RMK AO2 SLP237 T10221072 56022 $,KMTJ,2019-01-05T20:53:00Z,38.5,-107.9,-2.2,-7.2,0,0,,10.0,30.121063,1023.7,,TRUE,TRUE,TRUE,,,,,,CLR,,,,,,,,VFR,-2.2,,,,,,,,,,,METAR,1750.0
KMTH 052053Z AUTO 33013G19KT 10SM CLR 24/17 A3004 RMK AO2 SLP170 T02440167 55000,KMTH,2019-01-05T20:53:00Z,24.73,-81.05,24.4,16.7,330,13,19,10.0,30.041338,1017.0,,TRUE,TRUE,,,,,,,CLR,,,,,,,,VFR,0.0,,,,,,,,,,,METAR,2.0
KMSY 052053Z 36005KT 10SM CLR 17/08 A3017 RMK AO2 SLP218 T01720078 55011,KMSY,2019-01-05T20:53:00Z,30.0,-90.25,17.2,7.8,360,5,,10.0,30.171259,1021.8,,,TRUE,,,,,,,CLR,,,,,,,,VFR,-1.1,,,,,,,,,,,METAR,5.0
KMSS 052053Z AUTO 31008KT 7SM OVC023 02/01 A2969 RMK AO2 PRESRR SLP058 T00220006 53014,KMSS,2019-01-05T20:53:00Z,44.93,-74.85,2.2,0.6,310,8,,7.0,29.68996,1005.8,,TRUE,TRUE,,,,,,,OVC,2300,,,,,,,MVFR,1.4,,,,,,,,,,,METAR,66.0
KMSP 052053Z 31012KT 10SM FEW250 07/00 A2992 RMK AO2 SLP138 T00720000 53020,KMSP,2019-01-05T20:53:00Z,44.88,-93.23,7.2,0.0,310,12,,10.0,29.920275,1013.8,,,TRUE,,,,,,,FEW,25000,,,,,,,VFR,2.0,,,,,,,,,,,METAR,265.0
KMSO 052053Z 00000KT 9SM CLR 00/M03 A2973 RMK AO2 SLP096 T00001033 56034,KMSO,2019-01-05T20:53:00Z,46.92,-114.1,0.0,-3.3,0,0,,9.0,29.731298,1009.6,,,TRUE,,,,,,,CLR,,,,,,,,VFR,-3.4,,,,,,,,,,,METAR,975.0
KMSN 052053Z VRB04KT 10SM FEW250 10/M01 A2984 RMK AO2 SLP110 T01001011 53010,KMSN,2019-01-05T20:53:00Z,43.13,-89.35,10.0,-1.1,0,4,,10.0,29.840551,1011.0,,,TRUE,,,,,,,FEW,25000,,,,,,,VFR,1.0,,,,,,,,,,,METAR,261.0
KMSL 052053Z AUTO 29008KT 10SM CLR 14/04 A3011 RMK AO2 SLP195 T01440044 53003,KMSL,2019-01-05T20:53:00Z,34.75,-87.6,14.4,4.4,290,8,,10.0,30.109253,1019.5,,TRUE,TRUE,,,,,,,CLR,,,,,,,,VFR,0.3,,,,,,,,,,,METAR,164.0
KMRB 052053Z 28013KT 10SM CLR 12/02 A2968 RMK AO2 PK WND 34026/2023 SLP052 60001 T01220017 53026,KMRB,2019-01-05T20:53:00Z,39.4,-77.98,12.2,1.7,280,13,,10.0,29.681103,1005.2,,,TRUE,,,,,,,CLR,,,,,,,,VFR,2.6,,,,,,0.01,,,,,METAR,164.0
KMOD 052053Z 13013G19KT 7SM -RA OVC065 09/07 A2978 RMK AO2 SLP085 P0006 60010 T00890067 56002,KMOD,2019-01-05T20:53:00Z,37.62,-120.95,8.9,6.7,130,13,19,7.0,29.778543,1008.5,,,TRUE,,,,,,-RA,OVC,6500,,,,,,,VFR,-0.2,,,,,0.06,0.1,,,,,METAR,29.0
KMNN 052053Z AUTO 26009KT 9SM CLR 09/02 A2985 RMK AO2 SLP114 T00940022 53005,KMNN,2019-01-05T20:53:00Z,40.62,-83.07,9.4,2.2,260,9,,9.0,29.84941,1011.4,,TRUE,TRUE,,,,,,,CLR,,,,,,,,VFR,0.5,,,,,,,,,,,METAR,301.0
KMMV 052053Z AUTO 09003KT 6SM -RA BR OVC004 06/06 A2942 RMK AO2 RAB08E18B50 SLP962 P0000 60000 T00610056 58024,KMMV,2019-01-05T20:53:00Z,45.2,-123.13,6.1,5.6,90,3,,6.0,29.421259,996.2,,TRUE,TRUE,,,,,,-RA BR,OVC,400,,,,,,,LIFR,-2.4,,,,,0.005,0.005,,,,,METAR,48.0
KMMK 052053Z AUTO 01008G16KT 5SM RA BR OVC011 04/03 A2948 RMK AO2 SLP984 P0011 60028 T00440028 51021,KMMK,2019-01-05T20:53:00Z,41.52,-72.83,4.4,2.8,10,8,16,5.0,29.480314,998.4,,TRUE,TRUE,,,,,,RA BR,OVC,1100,,,,,,,MVFR,2.1,,,,,0.11,0.28,,,,,METAR,31.0
KMLU 052053Z AUTO 23005KT 10SM CLR 18/04 A3015 RMK AO2 SLP207 T01830039 56012 $,KMLU,2019-01-05T20:53:00Z,32.52,-92.03,18.3,3.9,230,5,,10.0,30.15059,1020.7,,TRUE,TRUE,TRUE,,,,,,CLR,,,,,,,,VFR,-1.2,,,,,,,,,,,METAR,29.0
KMLS 052053Z AUTO 12006KT 10SM CLR 08/M02 A2991 RMK AO2 SLP143 T00831022 56016,KMLS,2019-01-05T20:53:00Z,46.43,-105.88,8.3,-2.2,120,6,,10.0,29.911417,1014.3,,TRUE,TRUE,,,,,,,CLR,,,,,,,,VFR,-1.6,,,,,,,,,,,METAR,801.0
KMLB 052053Z 27013KT 10SM CLR 22/12 A2999 RMK AO2 SLP155 T02220117 55000,KMLB,2019-01-05T20:53:00Z,28.1,-80.65,22.2,11.7,270,13,,10.0,29.991142,1015.5,,,TRUE,,,,,,,CLR,,,,,,,,VFR,0.0,,,,,,,,,,,METAR,11.0
KMKO 052053Z AUTO 19005KT 10SM CLR 18/03 A3007 RMK AO2 SLP183 T01780033 55012,KMKO,2019-01-05T20:53:00Z,35.65,-95.37,17.8,3.3,190,5,,10.0,30.070866,1018.3,,TRUE,TRUE,,,,,,,CLR,,,,,,,,VFR,-1.2,,,,,,,,,,,METAR,185.0
KMKL 052053Z 24008KT 10SM CLR 14/05 A3009 RMK AO2 SLP187 T01440050 55003,KMKL,2019-01-05T20:53:00Z,35.6,-88.92,14.4,5.0,240,8,,10.0,30.088583,1018.7,,,TRUE,,,,,,,CLR,,,,,,,,VFR,-0.3,,,,,,,,,,,METAR,128.0
KMIW 052053Z AUTO 32006KT 10SM CLR 11/06 A2995 RMK AO2 SLP146 T01060056 53012,KMIW,2019-01-05T20:53:00Z,42.12,-92.92,10.6,5.6,320,6,,10.0,29.949802,1014.6,,TRUE,TRUE,,,,,,,CLR,,,,,,,,VFR,1.2,,,,,,,,,,,METAR,296.0
KMIE 052053Z 26010G19KT 10SM CLR 12/02 A2989 RMK AO2 SLP122 T01220022 53003,KMIE,2019-01-05T20:53:00Z,40.23,-85.4,12.2,2.2,260,10,19,10.0,29.890747,1012.2,,,TRUE,,,,,,,CLR,,,,,,,,VFR,0.3,,,,,,,,,,,METAR,285.0
KMIC 052053Z 30008KT 10SM CLR 06/M01 A2991 RMK AO2 SLP138 T00561006 53019,KMIC,2019-01-05T20:53:00Z,45.07,-93.35,5.6,-0.6,300,8,,10.0,29.911417,1013.8,,,TRUE,,,,,,,CLR,,,,,,,,VFR,1.9,,,,,,,,,,,METAR,265.0
KMIA 052053Z 26007KT 10SM FEW180 SCT250 26/15 A3000 RMK AO2 SLP160 T02610150 55009,KMIA,2019-01-05T20:53:00Z,25.8,-80.28,26.1,15.0,260,7,,10.0,30.0,1016.0,,,TRUE,,,,,,,FEW,18000,SCT,25000,,,,,VFR,-0.9,,,,,,,,,,,METAR,3.0
KMHT 052053Z 35007KT 10SM -RA SCT019 BKN040 OVC070 04/01 A2951 RMK AO2 RAB26 SLP010 P0000 60000 T00390011 56009,KMHT,2019-01-05T20:53:00Z,42.93,-71.43,3.9,1.1,350,7,,10.0,29.509842,1001.0,,,TRUE,,,,,,-RA,SCT,1900,BKN,4000,OVC,7000,,,VFR,-0.9,,,,,0.005,0.005,,,,,METAR,81.0
KMHE 052053Z AUTO 30006KT 10SM CLR 05/M01 A3001 RMK AO2 SLP174 T00501006 53006,KMHE,2019-01-05T20:53:00Z,43.77,-98.02,5.0,-0.6,300,6,,10.0,30.008858,1017.4,,TRUE,TRUE,,,,,,,CLR,,,,,,,,VFR,0.6,,,,,,,,,,,METAR,397.0
KDTO 052053Z 16006KT 10SM CLR 21/03 A3005 RMK AO2 SLP172 T02060028 56026,KDTO,2019-01-05T20:53:00Z,33.2,-97.2,20.6,2.8,160,6,,10.0,30.050198,1017.2,,,TRUE,,,,,,,CLR,,,,,,,,VFR,-2.6,,,,,,,,,,,METAR,196.0
KDTN 052053Z VRB03KT 10SM CLR 20/04 A3012 RMK AO2 SLP200 T02000039 56013,KDTN,2019-01-05T20:53:00Z,32.55,-93.75,20.0,3.9,0,3,,10.0,30.121063,1020.0,,,TRUE,,,,,,,CLR,,,,,,,,VFR,-1.3,,,,,,,,,,,METAR,53.0
KDRT 052053Z AUTO 15008KT 10SM CLR 22/04 A3006 RMK AO2 SLP173 T02220039 56032,KDRT,2019-01-05T20:53:00Z,29.37,-100.92,22.2,3.9,150,8,,10.0,30.059055,1017.3,,TRUE,TRUE,,,,,,,CLR,,,,,,,,VFR,-3.2,,,,,,,,,,,METAR,313.0
KDRO 052053Z AUTO 05004KT 10SM CLR 01/M02 A3013 RMK AO2 SLP254 60000 T00111022 56018 $,KDRO,2019-01-05T20:53:00Z,37.15,-107.77,1.1,-2.2,50,4,,10.0,30.129921,1025.4,,TRUE,TRUE,TRUE,,,,,,CLR,,,,,,,,VFR,-1.8,,,,,,0.005,,,,,METAR,2035.0
KDMO 052053Z AUTO 23007KT 10SM CLR 13/04 A3002 RMK AO2 SLP168 T01280039 56005,KDMO,2019-01-05T20:53:00Z,38.72,-93.17,12.8,3.9,230,7,,10.0,30.02067,1016.8,,TRUE,TRUE,,,,,,,CLR,,,,,,,,VFR,-0.5,,,,,,,,,,,METAR,274.0
KDMN 052053Z AUTO 11003KT 10SM CLR 13/M06 A3013 RMK AO2 SLP190 T01281056 56021,KDMN,2019-01-05T20:53:00Z,32.27,-107.72,12.8,-5.6,110,3,,10.0,30.129921,1019.0,,TRUE,TRUE,,,,,,,CLR,,,,,,,,VFR,-2.1,,,,,,,,,,,METAR,1311.0
KDLS 052053Z AUTO 00000KT 10SM CLR 05/02 A2956 RMK AO2 SLP012 T00500022 58038,KDLS,2019-01-05T20:53:00Z,45.62,-121.17,5.0,2.2,0,0,,10.0,29.56004,1001.2,,TRUE,TRUE,,,,,,,CLR,,,,,,,,VFR,-3.8,,,,,,,,,,,SPECI,71.0
KDKK 052053Z AUTO 23006KT 5SM BR OVC011 02/00 A2978 RMK AO2 SLP092 T00220000 53021 $,KDKK,2019-01-05T20:53:00Z,42.5,-79.28,2.2,0.0,230,6,,5.0,29.778543,1009.2,,TRUE,TRUE,TRUE,,,,,BR,OVC,1100,,,,,,,MVFR,2.1,,,,,,,,,,,METAR,202.0
KDHN 052053Z 29010KT 10SM CLR 17/02 A3012 RMK AO2 SLP198 T01670022 55000,KDHN,2019-01-05T20:53:00Z,31.32,-85.45,16.7,2.2,290,10,,10.0,30.121063,1019.8,,,TRUE,,,,,,,CLR,,,,,,,,VFR,0.0,,,,,,,,,,,METAR,113.0
KDGW 052053Z AUTO 20005KT 10SM CLR 12/M08 A2992 RMK AO2 SLP128 T01221078 55012 $,KDGW,2019-01-05T20:53:00Z,42.8,-105.38,12.2,-7.8,200,5,,10.0,29.920275,1012.8,,TRUE,TRUE,TRUE,,,,,,CLR,,,,,,,,VFR,-1.2,,,,,,,,,,,METAR,1499.0
KDFW 052053Z VRB05KT 10SM CLR 21/03 A3005 RMK AO2 SLP172 T02060033 56021,KDFW,2019-01-05T20:53:00Z,32.9,-97.02,20.6,3.3,0,5,,10.0,30.050198,1017.2,,,TRUE,,,,,,,CLR,,,,,,,,VFR,-2.1,,,,,,,,,,,METAR,174.0
KDFI 052053Z AUTO 24008G18KT 10SM CLR 09/03 A2984 RMK AO2 SLP109 T00940028 53007,KDFI,2019-01-05T20:53:00Z,41.33,-84.43,9.4,2.8,240,8,18,10.0,29.840551,1010.9,,TRUE,TRUE,,,,,,,CLR,,,,,,,,VFR,0.7,,,,,,,,,,,METAR,219.0
KDEW 052053Z AUTO 10SM CLR 05/M01 A2963 RMK AO2 SLP045 T00501006 56027,KDEW,2019-01-05T20:53:00Z,47.97,-117.43,5.0,-0.6,,,,10.0,29.630905,1004.5,,TRUE,TRUE,,,,,,,CLR,,,,,,,,VFR,-2.7,,,,,,,,,,,METAR,674.0
KDET 052053Z 27011G18KT 10SM CLR 09/01 A2977 RMK AO2 SLP084 T00940006 53003,KDET,2019-01-05T20:53:00Z,42.4,-83.02,9.4,0.6,270,11,18,10.0,29.769686,1008.4,,,TRUE,,,,,,,CLR,,,,,,,,VFR,0.3,,,,,,,,,,,METAR,190.0
KDEQ 052053Z AUTO 26006KT 10SM CLR 18/06 A3009 RMK AO2 SLP186 T01830056 55014,KDEQ,2019-01-05T20:53:00Z,34.05,-94.4,18.3,5.6,260,6,,10.0,30.088583,1018.6,,TRUE,TRUE,,,,,,,CLR,,,,,,,,VFR,-1.4,,,,,,,,,,,METAR,106.0
KDEN 052053Z 05006KT 10SM FEW120 BKN220 15/M09 A2993 RMK AO2 SLP104 T01501094 56018,KDEN,2019-01-05T20:53:00Z,39.85,-104.65,15.0,-9.4,50,6,,10.0,29.929134,1010.4,,,TRUE,,,,,,,FEW,12000,BKN,22000,,,,,VFR,-1.8,,,,,,,,,,,METAR,1640.0
KDCU 052053Z AUTO 27006KT 10SM CLR 13/04 A3010 RMK AO2 SLP192 T01330039 53001,KDCU,2019-01-05T20:53:00Z,34.65,-86.95,13.3,3.9,270,6,,10.0,30.100393,1019.2,,TRUE,TRUE,,,,,,,CLR,,,,,,,,VFR,0.1,,,,,,,,,,,METAR,176.0
KDBQ 052053Z 27010KT 10SM CLR 08/02 A2991 RMK AO2 SLP135 T00830022 53014,KDBQ,2019-01-05T20:53:00Z,42.4,-90.7,8.3,2.2,270,10,,10.0,29.911417,1013.5,,,TRUE,,,,,,,CLR,,,,,,,,VFR,1.4,,,,,,,,,,,METAR,326.0
KDAN 052053Z AUTO 30015G25KT 10SM CLR 15/00 A2980 RMK AO2 SLP083 T01500000 53023,KDAN,2019-01-05T20:53:00Z,36.57,-79.33,15.0,0.0,300,15,25,10.0,29.799213,1008.3,,TRUE,TRUE,,,,,,,CLR,,,,,,,,VFR,2.3,,,,,,,,,,,METAR,175.0
KDAL 052053Z 16006KT 10SM CLR 22/06 A3006 RMK AO2 SLP177 T02170056 56022 $,KDAL,2019-01-05T20:53:00Z,32.85,-96.85,21.7,5.6,160,6,,10.0,30.059055,1017.7,,,TRUE,TRUE,,,,,,CLR,,,,,,,,VFR,-2.2,,,,,,,,,,,METAR,158.0
KDAB 052053Z 28012G16KT 10SM CLR 19/11 A3000 RMK AO2 SLP157 T01890106 53004,KDAB,2019-01-05T20:53:00Z,29.18,-81.07,18.9,10.6,280,12,16,10.0,30.0,1015.7,,,TRUE,,,,,,,CLR,,,,,,,,VFR,0.4,,,,,,,,,,,METAR,9.0
KCYS 052053Z 17007KT 10SM CLR 13/M11 A2995 RMK AO2 SLP112 T01331111 56018,KCYS,2019-01-05T20:53:00Z,41.15,-104.8,13.3,-11.1,170,7,,10.0,29.949802,1011.2,,,TRUE,,,,,,,CLR,,,,,,,,VFR,-1.8,,,,,,,,,,,METAR,1868.0
KCXO 052053Z VRB03KT 10SM CLR 22/04 A3014 RMK AO2 SLP205 T02170044 56019,KCXO,2019-01-05T20:53:00Z,30.35,-95.42,21.7,4.4,0,3,,10.0,30.138779,1020.5,,,TRUE,,,,,,,CLR,,,,,,,,VFR,-1.9,,,,,,,,,,,METAR,75.0
KCUT 052053Z AUTO 12007KT 10SM CLR 05/M07 A2994 RMK AO2 SLP141 T00501067 56015,KCUT,2019-01-05T20:53:00Z,43.73,-103.62,5.0,-6.7,120,7,,10.0,29.940945,1014.1,,TRUE,TRUE,,,,,,,CLR,,,,,,,,VFR,-1.5,,,,,,,,,,,METAR,1725.0
KCUB 052053Z AUTO 27008KT 10SM CLR 17/04 A2992 RMK AO2 SLP130 T01720039 53011,KCUB,2019-01-05T20:53:00Z,33.97,-81.0,17.2,3.9,270,8,,10.0,29.920275,1013.0,,TRUE,TRUE,,,,,,,CLR,,,,,,,,VFR,1.1,,,,,,,,,,,METAR,56.0
KCSV 052053Z AUTO 28010KT 10SM CLR 10/02 A3005 RMK AO2 SLP177 T01000017 51013,KCSV,2019-01-05T20:53:00Z,35.95,-85.08,10.0,1.7,280,10,,10.0,30.050198,1017.7,,TRUE,TRUE,,,,,,,CLR,,,,,,,,VFR,1.3,,,,,,,,,,,METAR,570.0
KCSM 052053Z AUTO 16011KT 10SM CLR 16/06 A2999 RMK AO2 SLP155 T01560056 56027,KCSM,2019-01-05T20:53:00Z,35.35,-99.2,15.6,5.6,160,11,,10.0,29.991142,1015.5,,TRUE,TRUE,,,,,,,CLR,,,,,,,,VFR,-2.7,,,,,,,,,,,METAR,588.0
KCRS 052053Z AUTO 22008KT 10SM CLR 22/02 A3010 RMK AO2 SLP192 T02170022 56020 $,KCRS,2019-01-05T20:53:00Z,32.03,-96.4,21.7,2.2,220,8,,10.0,30.100393,1019.2,,TRUE,TRUE,TRUE,,,,,,CLR,,,,,,,,VFR,-2.0,,,,,,,,,,,METAR,133.0
KCRQ 052053Z 16005KT 10SM -RA OVC080 15/10 A2997 RMK AO2 RAB05 SLP148 P0000 60000 T01500100 58022,KCRQ,2019-01-05T20:53:00Z,33.13,-117.28,15.0,10.0,160,5,,10.0,29.970472,1014.8,,,TRUE,,,,,,-RA,OVC,8000,,,,,,,VFR,-2.2,,,,,0.005,0.005,,,,,METAR,99.0
KCRG 052053Z 30011G19KT 10SM CLR 14/07 A3001 RMK AO2 SLP161 T01440072 53003,KCRG,2019-01-05T20:53:00Z,30.33,-81.52,14.4,7.2,300,11,19,10.0,30.008858,1016.1,,,TRUE,,,,,,,CLR,,,,,,,,VFR,0.3,,,,,,,,,,,METAR,13.0
KCRE 052053Z AUTO 30009G17KT 10SM CLR 16/04 A2984 RMK AO1 SLP104 T01610044 53017,KCRE,2019-01-05T20:53:00Z,33.82,-78.72,16.1,4.4,300,9,17,10.0,29.840551,1010.4,,TRUE,TRUE,,,,,,,CLR,,,,,,,,VFR,1.7,,,,,,,,,,,METAR,10.0
KVGT 052053Z 13005KT 10SM CLR 09/M08 A2998 RMK AO2 SLP175 T00891078 56018,KVGT,2019-01-05T20:53:00Z,36.22,-115.2,8.9,-7.8,130,5,,10.0,29.97933,1017.5,,,TRUE,,,,,,,CLR,,,,,,,,VFR,-1.8,,,,,,,,,,,METAR,671.0
KVEL 052053Z AUTO 00000KT 10SM CLR M04/M12 A3012 RMK AO2 SLP253 T10391122 56021,KVEL,2019-01-05T20:53:00Z,40.45,-109.52,-3.9,-12.2,0,0,,10.0,30.121063,1025.3,,TRUE,TRUE,,,,,,,CLR,,,,,,,,VFR,-2.1,,,,,,,,,,,METAR,1604.0
KVCB 052053Z AUTO 00000KT 4SM BR OVC040 08/06 A2968 RMK AO2 SLP051 T00780056 58027,KVCB,2019-01-05T20:53:00Z,38.38,-121.95,7.8,5.6,0,0,,4.0,29.681103,1005.1,,TRUE,TRUE,,,,,,BR,OVC,4000,,,,,,,MVFR,-2.7,,,,,,,,,,,METAR,33.0
KUTS 052053Z AUTO 19006KT 10SM CLR 21/02 A3013 RMK AO2 SLP200 T02060022 56016,KUTS,2019-01-05T20:53:00Z,30.75,-95.58,20.6,2.2,190,6,,10.0,30.129921,1020.0,,TRUE,TRUE,,,,,,,CLR,,,,,,,,VFR,-1.6,,,,,,,,,,,METAR,104.0
KUNO 052053Z AUTO 25006KT 10SM CLR 17/04 A3005 RMK AO2 SLP175 T01670044 55006,KUNO,2019-01-05T20:53:00Z,36.88,-91.9,16.7,4.4,250,6,,10.0,30.050198,1017.5,,TRUE,TRUE,,,,,,,CLR,,,,,,,,VFR,-0.6,,,,,,,,,,,METAR,372.0
KUIL 052053Z AUTO 00000KT 10SM BKN060 OVC075 08/06 A2937 RMK AO2 SLP947 T00780056 56036,KUIL,2019-01-05T20:53:00Z,47.93,-124.55,7.8,5.6,0,0,,10.0,29.371063,994.7,,TRUE,TRUE,,,,,,,BKN,6000,OVC,7500,,,,,VFR,-3.6,,,,,,,,,,,METAR,54.0
KUAO 052053Z 10005KT 5SM BR OVC006 07/05 A2944 RMK AO2 SLP968 T00670050 58031,KUAO,2019-01-05T20:53:00Z,45.25,-122.77,6.7,5.0,100,5,,5.0,29.438976,996.8,,,TRUE,,,,,,BR,OVC,600,,,,,,,IFR,-3.1,,,,,,,,,,,METAR,59.0
KTYR 052053Z 19008KT 10SM CLR 21/02 A3010 RMK AO2 SLP192 T02110017 56015,KTYR,2019-01-05T20:53:00Z,32.37,-95.4,21.1,1.7,190,8,,10.0,30.100393,1019.2,,,TRUE,,,,,,,CLR,,,,,,,,VFR,-1.5,,,,,,,,,,,METAR,165.0
KTXK 052053Z 25009KT 10SM CLR 18/04 A3011 RMK AO2 SLP196 T01780039 56012,KTXK,2019-01-05T20:53:00Z,33.45,-93.98,17.8,3.9,250,9,,10.0,30.109253,1019.6,,,TRUE,,,,,,,CLR,,,,,,,,VFR,-1.2,,,,,,,,,,,METAR,111.0
KTWF 052053Z 06003KT 10SM CLR M01/M06 A2977 RMK AO2 SLP097 T10061056 58029,KTWF,2019-01-05T20:53:00Z,42.48,-114.48,-0.6,-5.6,60,3,,10.0,29.769686,1009.7,,,TRUE,,,,,,,CLR,,,,,,,,VFR,-2.9,,,,,,,,,,,METAR,1266.0
KTVR 052053Z AUTO 24003KT 10SM CLR 16/07 A3016 RMK AO2 SLP220 T01610067 55009,KTVR,2019-01-05T20:53:00Z,32.35,-91.03,16.1,6.7,240,3,,10.0,30.159449,1022.0,,TRUE,TRUE,,,,,,,CLR,,,,,,,,VFR,-0.9,,,,,,,,,,,METAR,26.0
KTVC 052053Z 25008KT 10SM SCT250 05/01 A2970 RMK AO2 SLP065 T00500006 53014,KTVC,2019-01-05T20:53:00Z,44.73,-85.57,5.0,0.6,250,8,,10.0,29.698818,1006.5,,,TRUE,,,,,,,SCT,25000,,,,,,,VFR,1.4,,,,,,,,,,,METAR,190.0
KTUS 052053Z 00000KT 10SM CLR 21/M03 A3000 RMK AO2 SLP136 T02111028 56028,KTUS,2019-01-05T20:53:00Z,32.13,-110.95,21.1,-2.8,0,0,,10.0,30.0,1013.6,,,TRUE,,,,,,,CLR,,,,,,,,VFR,-2.8,,,,,,,,,,,METAR,776.0
KTUP 052053Z 00000KT 10SM CLR 14/05 A3012 RMK AO2 SLP199 T01390050 55003 $,KTUP,2019-01-05T20:53:00Z,34.27,-88.77,13.9,5.0,0,0,,10.0,30.121063,1019.9,,,TRUE,TRUE,,,,,,CLR,,,,,,,,VFR,-0.3,,,,,,,,,,,METAR,105.0
KTUL 052053Z 17003KT 10SM CLR 17/04 A3003 RMK AO2 SLP170 T01720039 55008,KTUL,2019-01-05T20:53:00Z,36.2,-95.88,17.2,3.9,170,3,,10.0,30.029528,1017.0,,,TRUE,,,,,,,CLR,,,,,,,,VFR,-0.8,,,,,,,,,,,METAR,207.0
KTTD 052053Z 09013G19KT 10SM OVC100 09/02 A2943 RMK AO2 PK WND 09026/1959 SLP966 T00890017 57025,KTTD,2019-01-05T20:53:00Z,45.55,-122.42,8.9,1.7,90,13,19,10.0,29.430119,996.6,,,TRUE,,,,,,,OVC,10000,,,,,,,VFR,-2.5,,,,,,,,,,,METAR,14.0
KTRL 052053Z AUTO 14008KT 10SM CLR 21/04 A3008 RMK AO2 SLP185 T02110039 56019,KTRL,2019-01-05T20:53:00Z,32.72,-96.27,21.1,3.9,140,8,,10.0,30.079725,1018.5,,TRUE,TRUE,,,,,,,CLR,,,,,,,,VFR,-1.9,,,,,,,,,,,SPECI,145.0
KTRI 052053Z 25009KT 10SM FEW035 11/04 A2998 RMK AO2 SLP144 T01060039 53015 $,KTRI,2019-01-05T20:53:00Z,36.48,-82.4,10.6,3.9,250,9,,10.0,29.97933,1014.4,,,TRUE,TRUE,,,,,,FEW,3500,,,,,,,VFR,1.5,,,,,,,,,,,METAR,474.0
KTPA 052053Z 31010KT 10SM BKN025 17/11 A3006 RMK AO2 SLP180 T01720106 53002,KTPA,2019-01-05T20:53:00Z,27.97,-82.53,17.2,10.6,310,10,,10.0,30.059055,1018.0,,,TRUE,,,,,,,BKN,2500,,,,,,,MVFR,0.2,,,,,,,,,,,METAR,11.0
KTOR 052053Z AUTO 14005KT 10SM CLR 14/M06 A2990 RMK AO2 SLP114 T01391056 56024,KTOR,2019-01-05T20:53:00Z,42.07,-104.15,13.9,-5.6,140,5,,10.0,29.899607,1011.4,,TRUE,TRUE,,,,,,,CLR,,,,,,,,VFR,-2.4,,,,,,,,,,,METAR,1277.0
KTOP 052053Z 18006KT 10SM CLR 17/01 A2999 RMK AO2 SLP156 T01670011 56011,KTOP,2019-01-05T20:53:00Z,39.07,-95.63,16.7,1.1,180,6,,10.0,29.991142,1015.6,,,TRUE,,,,,,,CLR,,,,,,,,VFR,-1.1,,,,,,,,,,,METAR,268.0
KTOI 052053Z AUTO 31009KT 10SM CLR 16/02 A3011 RMK AO2 SLP195 T01610022 55001,KTOI,2019-01-05T20:53:00Z,31.85,-86.02,16.1,2.2,310,9,,10.0,30.109253,1019.5,,TRUE,TRUE,,,,,,,CLR,,,,,,,,VFR,-0.1,,,,,,,,,,,METAR,118.0
KTMB 052053Z 29012KT 10SM CLR 27/12 A3000 RMK AO2 SLP159 T02670122 55008,KTMB,2019-01-05T20:53:00Z,25.65,-80.43,26.7,12.2,290,12,,10.0,30.0,1015.9,,,TRUE,,,,,,,CLR,,,,,,,,VFR,-0.8,,,,,,,,,,,METAR,2.0
KTLH 052053Z 30011KT 10SM CLR 16/07 A3007 RMK AO2 SLP183 T01560072 55004,KTLH,2019-01-05T20:53:00Z,30.4,-84.35,15.6,7.2,300,11,,10.0,30.070866,1018.3,,,TRUE,,,,,,,CLR,,,,,,,,VFR,-0.4,,,,,,,,,,,METAR,19.0
KTKI 052053Z 15009KT 10SM CLR 19/06 A3006 RMK AO2 SLP188 T01940056 56021,KTKI,2019-01-05T20:53:00Z,33.18,-96.58,19.4,5.6,150,9,,10.0,30.059055,1018.8,,,TRUE,,,,,,,CLR,,,,,,,,VFR,-2.1,,,,,,,,,,,METAR,179.0
KAUG 052053Z AUTO 35005KT 10SM OVC012 01/M02 A2958 RMK AO2 SLP020 T00061022 56012,KAUG,2019-01-05T20:53:00Z,44.32,-69.8,0.6,-2.2,350,5,,10.0,29.58071,1002.0,,TRUE,TRUE,,,,,,,OVC,1200,,,,,,,MVFR,-1.2,,,,,,,,,,,METAR,109.0
KATY 052053Z AUTO 32009KT 10SM CLR 02/M02 A2998 RMK AO2 SLP169 T00221022 53012,KATY,2019-01-05T20:53:00Z,44.9,-97.15,2.2,-2.2,320,9,,10.0,29.97933,1016.9,,TRUE,TRUE,,,,,,,CLR,,,,,,,,VFR,1.2,,,,,,,,,,,SPECI,532.0
KASE 052053Z 33005KT 10SM CLR 06/M08 A3007 RMK AO2 SLP173 T00561083 56014,KASE,2019-01-05T20:53:00Z,39.23,-106.87,5.6,-8.3,330,5,,10.0,30.070866,1017.3,,,TRUE,,,,,,,CLR,,,,,,,,VFR,-1.4,,,,,,,,,,,METAR,2354.0
KASD 052053Z AUTO 20006KT 10SM CLR 17/08 A3015 RMK AO2 SLP210 T01670083 55012,KASD,2019-01-05T20:53:00Z,30.35,-89.82,16.7,8.3,200,6,,10.0,30.15059,1021.0,,TRUE,TRUE,,,,,,,CLR,,,,,,,,VFR,-1.2,,,,,,,,,,,METAR,9.0
KARB 052053Z 23011KT 10SM CLR 09/01 A2978 RMK AO2 SLP088 T00890011 53005 $,KARB,2019-01-05T20:53:00Z,42.22,-83.73,8.9,1.1,230,11,,10.0,29.778543,1008.8,,,TRUE,TRUE,,,,,,CLR,,,,,,,,VFR,0.5,,,,,,,,,,,METAR,251.0
KARA 052053Z 27008KT 10SM CLR 18/08 A3018 RMK AO2 SLP217 T01830078 56012 $,KARA,2019-01-05T20:53:00Z,30.03,-91.88,18.3,7.8,270,8,,10.0,30.180119,1021.7,,,TRUE,TRUE,,,,,,CLR,,,,,,,,VFR,-1.2,,,,,,,,,,,METAR,18.0
KAPF 052053Z 32012G17KT 10SM OVC032 22/15 A3004 RMK AO2 SLP171 T02170150 55000,KAPF,2019-01-05T20:53:00Z,26.15,-81.77,21.7,15.0,320,12,17,10.0,30.041338,1017.1,,,TRUE,,,,,,,OVC,3200,,,,,,,VFR,0.0,,,,,,,,,,,METAR,3.0
KAPA 052053Z 04005KT 10SM FEW140 FEW180 BKN220 14/M09 A2995 RMK AO2 SLP124 ACSL DSNT SW-NW T01441089 56016,KAPA,2019-01-05T20:53:00Z,39.57,-104.85,14.4,-8.9,40,5,,10.0,29.949802,1012.4,,,TRUE,,,,,,,FEW,14000,FEW,18000,BKN,22000,,,VFR,-1.6,,,,,,,,,,,METAR,1775.0
KAOO 052053Z AUTO 29013KT 10SM CLR 08/01 A2970 RMK AO2 SLP065 T00830011 53027,KAOO,2019-01-05T20:53:00Z,40.3,-78.32,8.3,1.1,290,13,,10.0,29.698818,1006.5,,TRUE,TRUE,,,,,,,CLR,,,,,,,,VFR,2.7,,,,,,,,,,,METAR,455.0
KAOH 052053Z AUTO 25013KT 10SM CLR 09/02 A2986 RMK AO2 SLP116 T00890022 53007,KAOH,2019-01-05T20:53:00Z,40.7,-84.02,8.9,2.2,250,13,,10.0,29.861221,1011.6,,TRUE,TRUE,,,,,,,CLR,,,,,,,,VFR,0.7,,,,,,,,,,,METAR,296.0
KANB 052053Z AUTO 26008KT 10SM CLR 16/02 A3008 RMK AO2 SLP188 T01560022 55000,KANB,2019-01-05T20:53:00Z,33.58,-85.85,15.6,2.2,260,8,,10.0,30.079725,1018.8,,TRUE,TRUE,,,,,,,CLR,,,,,,,,VFR,0.0,,,,,,,,,,,METAR,183.0
KAMW 052053Z AUTO 26007KT 10SM CLR 11/05 A2995 RMK AO2 SLP144 T01110050 53005,KAMW,2019-01-05T20:53:00Z,41.98,-93.62,11.1,5.0,260,7,,10.0,29.949802,1014.4,,TRUE,TRUE,,,,,,,CLR,,,,,,,,VFR,0.5,,,,,,,,,,,METAR,279.0
KAMG 052053Z AUTO 30009KT 10SM CLR 16/06 A3001 RMK AO2 SLP161 T01610056 53002,KAMG,2019-01-05T20:53:00Z,31.53,-82.5,16.1,5.6,300,9,,10.0,30.008858,1016.1,,TRUE,TRUE,,,,,,,CLR,,,,,,,,VFR,0.2,,,,,,,,,,,METAR,59.0
KAMA 052053Z AUTO 20020KT 10SM CLR 23/M09 A2996 RMK AO2 PK WND 21027/2023 SLP126 T02281089 56020,KAMA,2019-01-05T20:53:00Z,35.22,-101.72,22.8,-8.9,200,20,,10.0,29.958662,1012.6,,TRUE,TRUE,,,,,,,CLR,,,,,,,,VFR,-2.0,,,,,,,,,,,METAR,1093.0
KALW 052053Z 00000KT 10SM CLR 04/M01 A2955 RMK AO2 SLP012 T00441006 58035,KALW,2019-01-05T20:53:00Z,46.1,-118.28,4.4,-0.6,0,0,,10.0,29.551182,1001.2,,,TRUE,,,,,,,CLR,,,,,,,,VFR,-3.5,,,,,,,,,,,METAR,363.0
KALI 052053Z AUTO 13009KT 10SM CLR 24/04 A3010 RMK AO2 SLP193 T02440044 56027 $,KALI,2019-01-05T20:53:00Z,27.73,-98.02,24.4,4.4,130,9,,10.0,30.100393,1019.3,,TRUE,TRUE,TRUE,,,,,,CLR,,,,,,,,VFR,-2.7,,,,,,,,,,,METAR,53.0
KAKO 052053Z AUTO 08010KT 10SM CLR 14/M07 A2993 RMK AO2 SLP117 T01391067 56021,KAKO,2019-01-05T20:53:00Z,40.17,-103.22,13.9,-6.7,80,10,,10.0,29.929134,1011.7,,TRUE,TRUE,,,,,,,CLR,,,,,,,,VFR,-2.1,,,,,,,,,,,METAR,1421.0
KAIA 052053Z AUTO 11007KT 10SM CLR 12/M06 A2993 RMK AO2 SLP144 T01171056 56017,KAIA,2019-01-05T20:53:00Z,42.05,-102.8,11.7,-5.6,110,7,,10.0,29.929134,1014.4,,TRUE,TRUE,,,,,,,CLR,,,,,,,,VFR,-1.7,,,,,,,,,,,METAR,1196.0
KAGS 052053Z 30011KT 10SM CLR 18/03 A2995 RMK AO2 SLP139 T01830033 53009,KAGS,2019-01-05T20:53:00Z,33.37,-81.97,18.3,3.3,300,11,,10.0,29.949802,1013.9,,,TRUE,,,,,,,CLR,,,,,,,,VFR,0.9,,,,,,,,,,,METAR,44.0
KAGC 052053Z 29008G16KT 10SM CLR 09/01 A2978 RMK AO2 SLP095 T00890011 53023,KAGC,2019-01-05T20:53:00Z,40.35,-79.92,8.9,1.1,290,8,16,10.0,29.778543,1009.5,,,TRUE,,,,,,,CLR,,,,,,,,VFR,2.3,,,,,,,,,,,METAR,389.0
KAFW 052053Z 16007KT 10SM CLR 21/03 A3005 RMK AO2 SLP173 T02110028 56024,KAFW,2019-01-05T20:53:00Z,32.97,-97.32,21.1,2.8,160,7,,10.0,30.050198,1017.3,,,TRUE,,,,,,,CLR,,,,,,,,VFR,-2.4,,,,,,,,,,,METAR,233.0
KAEX 052053Z 00000KT 10SM CLR 18/06 A3014 RMK AO2 SLP212 T01780056 56012,KAEX,2019-01-05T20:53:00Z,31.33,-92.57,17.8,5.6,0,0,,10.0,30.138779,1021.2,,,TRUE,,,,,,,CLR,,,,,,,,VFR,-1.2,,,,,,,,,,,METAR,27.0
KADG 052053Z AUTO 26009KT 10SM CLR 09/02 A2981 RMK AO2 SLP100 T00890017 53005 TSNO,KADG,2019-01-05T20:53:00Z,41.87,-84.08,8.9,1.7,260,9,,10.0,29.811024,1010.0,,TRUE,TRUE,,,TRUE,,,,CLR,,,,,,,,VFR,0.5,,,,,,,,,,,SPECI,241.0
KACV 052053Z AUTO 13015G21KT 10SM -RA FEW050 OVC060 12/06 A2932 RMK AO2 PK WND 12033/2042 SLP933 P0001 60001 T01170061 56041,KACV,2019-01-05T20:53:00Z,40.98,-124.1,11.7,6.1,130,15,21,10.0,29.320866,993.3,,TRUE,TRUE,,,,,,-RA,FEW,5000,OVC,6000,,,,,VFR,-4.1,,,,,0.01,0.01,,,,,METAR,67.0
KABY 052053Z 29010KT 10SM CLR 17/03 A3007 RMK AO2 SLP183 T01720033 55002,KABY,2019-01-05T20:53:00Z,31.53,-84.2,17.2,3.3,290,10,,10.0,30.070866,1018.3,,,TRUE,,,,,,,CLR,,,,,,,,VFR,-0.2,,,,,,,,,,,METAR,58.0
KABR 052053Z AUTO 02007KT 10SM CLR 04/M01 A3001 RMK AO2 SLP174 T00441011 53008,KABR,2019-01-05T20:53:00Z,45.45,-98.42,4.4,-1.1,20,7,,10.0,30.008858,1017.4,,TRUE,TRUE,,,,,,,CLR,,,,,,,,VFR,0.8,,,,,,,,,,,SPECI,397.0
KAAF 052053Z AUTO 32008KT 10SM CLR 16/07 A3009 RMK AO2 SLP189 T01610067 55005,KAAF,2019-01-05T20:53:00Z,29.73,-85.03,16.1,6.7,320,8,,10.0,30.088583,1018.9,,TRUE,TRUE,,,,,,,CLR,,,,,,,,VFR,-0.5,,,,,,,,,,,METAR,5.0
KMWT 052053Z AUTO VRB06KT 10SM CLR 20/03 A3006 RMK AO2 SLP181 T02000028 55008,KMWT,2019-01-05T20:53:00Z,34.55,-93.58,20.0,2.8,0,6,,10.0,30.059055,1018.1,,TRUE,TRUE,,,,,,,CLR,,,,,,,,VFR,-0.8,,,,,,,,,,,METAR,214.0
KP68 052053Z AUTO 15010KT 03/M11 A2980 RMK AO1 SLP099 T00331111 58023,KP68,2019-01-05T20:53:00Z,39.6,-116.0,3.3,-11.1,150,10,,,29.799213,1009.9,,TRUE,TRUE,,,,,,,,,,,,,,,,-2.3,,,,,,,,,,,METAR,1809.0
KNIP 052053Z 31012KT 10SM CLR 15/07 A3002 RMK AO2 SLP162 T01500072 53003,KNIP,2019-01-05T20:53:00Z,30.22,-81.67,15.0,7.2,310,12,,10.0,30.02067,1016.2,,,TRUE,,,,,,,CLR,,,,,,,,VFR,0.3,,,,,,,,,,,METAR,7.0
KCQC 052053Z AUTO 29011KT 10SM CLR 04/M04 A3014 RMK AO2 SLP209 T00391044 55011,KCQC,2019-01-05T20:53:00Z,35.0,-105.67,3.9,-4.4,290,11,,10.0,30.138779,1020.9,,TRUE,TRUE,,,,,,,CLR,,,,,,,,VFR,-1.1,,,,,,,,,,,METAR,2160.0
KOQT 052053Z AUTO 20006KT 10SM CLR 14/03 A3003 RMK AO2 SLP172 T01390033 53007,KOQT,2019-01-05T20:53:00Z,36.02,-84.23,13.9,3.3,200,6,,10.0,30.029528,1017.2,,TRUE,TRUE,,,,,,,CLR,,,,,,,,VFR,0.7,,,,,,,,,,,METAR,277.0
KELY 052053Z AUTO 16019G29KT 10SM CLR 04/M13 A2986 RMK AO2 PK WND 15032/2032 SLP102 T00441128 56025,KELY,2019-01-05T20:53:00Z,39.3,-114.85,4.4,-12.8,160,19,29,10.0,29.861221,1010.2,,TRUE,TRUE,,,,,,,CLR,,,,,,,,VFR,-2.5,,,,,,,,,,,METAR,1906.0
KDLN 052053Z AUTO 12004KT 10SM CLR 02/M06 A2980 RMK AO2 SLP112 T00171061 56024,KDLN,2019-01-05T20:53:00Z,45.25,-112.55,1.7,-6.1,120,4,,10.0,29.799213,1011.2,,TRUE,TRUE,,,,,,,CLR,,,,,,,,VFR,-2.4,,,,,,,,,,,METAR,1591.0
KBYI 052053Z AUTO 05006KT 10SM CLR 01/M06 A2981 RMK AO2 SLP116 T00061056 56023,KBYI,2019-01-05T20:53:00Z,42.55,-113.77,0.6,-5.6,50,6,,10.0,29.811024,1011.6,,TRUE,TRUE,,,,,,,CLR,,,,,,,,VFR,-2.3,,,,,,,,,,,METAR,1264.0
KBIL 052053Z 23003KT 10SM SCT200 06/M03 A2984 RMK AO2 SLP120 T00561028 56018,KBIL,2019-01-05T20:53:00Z,45.8,-108.55,5.6,-2.8,230,3,,10.0,29.840551,1012.0,,,TRUE,,,,,,,SCT,20000,,,,,,,VFR,-1.8,,,,,,,,,,,METAR,1091.0
KPUC 052053Z AUTO 00000KT 10SM CLR M03/M10 A3010 RMK AO2 SLP258 T10281100 56025 TSNO $,KPUC,2019-01-05T20:53:00Z,39.62,-110.75,-2.8,-10.0,0,0,,10.0,30.100393,1025.8,,TRUE,TRUE,TRUE,,TRUE,,,,CLR,,,,,,,,VFR,-2.5,,,,,,,,,,,METAR,2091.0
KLSE 052053Z 00000KT 10SM CLR 11/00 A2987 RMK AO2 SLP123 T01110000 53011,KLSE,2019-01-05T20:53:00Z,43.88,-91.25,11.1,0.0,0,0,,10.0,29.870079,1012.3,,,TRUE,,,,,,,CLR,,,,,,,,VFR,1.1,,,,,,,,,,,METAR,199.0
KLKV 052053Z AUTO 17013G19KT 10SM OVC085 05/M04 A2958 RMK AO2 SLP506 T00501044 58022,KLKV,2019-01-05T20:53:00Z,42.17,-120.4,5.0,-4.4,170,13,19,10.0,29.58071,1050.6,,TRUE,TRUE,,,,,,,OVC,8500,,,,,,,VFR,-2.2,,,,,,,,,,,METAR,1441.0
KSWO 052053Z 15004KT CLR 19/03 A3002 RMK AO2 SLP163 T01940033 56016 $,KSWO,2019-01-05T20:53:00Z,36.17,-97.08,19.4,3.3,150,4,,,30.02067,1016.3,,,TRUE,TRUE,,,,,,CLR,,,,,,,,,-1.6,,,,,,,,,,,METAR,290.0
KFLD 052053Z AUTO 24008KT 10SM CLR 08/00 A2980 RMK AO2 SLP097 T00780000 53014,KFLD,2019-01-05T20:53:00Z,43.77,-88.48,7.8,0.0,240,8,,10.0,29.799213,1009.7,,TRUE,TRUE,,,,,,,CLR,,,,,,,,VFR,1.4,,,,,,,,,,,METAR,240.0
PTTP 052053Z 14003KT 15SM FEW019 SCT130 BKN300 26/25 A2984 RMK SLP103 8/171 T02560247 52010,PTTP,2019-01-05T20:53:00Z,6.97,158.22,25.6,24.7,140,3,,15.0,29.840551,1010.3,,,,,,,,,,FEW,1900,SCT,13000,BKN,30000,,,VFR,1.0,,,,,,,,,,,SPECI,2.0
TISX 052053Z 08015KT 10SM FEW027 28/21 A3005 RMK AO2 SLP175 T02780211 53001,TISX,2019-01-05T20:53:00Z,17.7,-64.8,27.8,21.1,80,15,,10.0,30.050198,1017.5,,,TRUE,,,,,,,FEW,2700,,,,,,,VFR,0.1,,,,,,,,,,,METAR,19.0
PAOR 052053Z 00000KT 5SM BR OVC006 M31/M33 A2986 RMK AO2 SLP208 T13111333 50001 $,PAOR,2019-01-05T20:53:00Z,62.97,-141.93,-31.1,-33.3,0,0,,5.0,29.861221,1020.8,,,TRUE,TRUE,,,,,BR,OVC,600,,,,,,,IFR,0.1,,,,,,,,,,,METAR,523.0
PAOM 052053Z 00000KT 10SM FEW001 M27/M28 A3003 RMK AO2 SLP171 I3000 T12671283 51009 $,PAOM,2019-01-05T20:53:00Z,64.5,-165.43,-26.7,-28.3,0,0,,10.0,30.029528,1017.1,,,TRUE,TRUE,,,,,,FEW,100,,,,,,,VFR,0.9,,,,,,,,,,,METAR,11.0
TIST 052053Z 12014KT 10SM CLR 28/20 A3005 RMK AO2 SLP175 T02780200 55000,TIST,2019-01-05T20:53:00Z,18.33,-64.98,27.8,20.0,120,14,,10.0,30.050198,1017.5,,,TRUE,,,,,,,CLR,,,,,,,,VFR,0.0,,,,,,,,,,,METAR,7.0
KTYS 052053Z 24006KT 10SM CLR 12/03 A3003 RMK AO2 SLP168 T01220033 53013,KTYS,2019-01-05T20:53:00Z,35.82,-83.98,12.2,3.3,240,6,,10.0,30.029528,1016.8,,,TRUE,,,,,,,CLR,,,,,,,,VFR,1.3,,,,,,,,,,,SPECI,302.0
KRNM 052053Z 12007KT 10SM BKN100 13/02 A2999 RMK AO2 SLP154 T01280022 58017,KRNM,2019-01-05T20:53:00Z,33.03,-116.92,12.8,2.2,120,7,,10.0,29.991142,1015.4,,,TRUE,,,,,,,BKN,10000,,,,,,,VFR,-1.7,,,,,,,,,,,METAR,427.0
PAPB 052053Z AUTO 18018G22KT 10SM SCT021 BKN043 OVC120 02/00 A2938 RMK AO2 SLP936 60004 T00170000 51014 TSNO $,PAPB,2019-01-05T20:53:00Z,56.58,-169.67,1.7,0.0,180,18,22,10.0,29.379921,993.6,,TRUE,TRUE,TRUE,,TRUE,,,,SCT,2100,BKN,4300,OVC,12000,,,VFR,1.4,,,,,,0.04,,,,,METAR,35.0
KGMU 052053Z 28005KT 10SM CLR 17/03 A2993 RMK AO2 SLP135 T01720028 53017,KGMU,2019-01-05T20:53:00Z,34.85,-82.35,17.2,2.8,280,5,,10.0,29.929134,1013.5,,,TRUE,,,,,,,CLR,,,,,,,,VFR,1.7,,,,,,,,,,,METAR,315.0
KGLH 052053Z 23006KT 10SM CLR 14/06 A3014 RMK AO2 SLP213 T01390061 55002,KGLH,2019-01-05T20:53:00Z,33.5,-90.98,13.9,6.1,230,6,,10.0,30.138779,1021.3,,,TRUE,,,,,,,CLR,,,,,,,,VFR,-0.2,,,,,,,,,,,METAR,45.0
KGLD 052053Z AUTO 10005KT 10SM CLR 17/M02 A2990 RMK AO2 SLP116 T01721017 56022,KGLD,2019-01-05T20:53:00Z,39.37,-101.7,17.2,-1.7,100,5,,10.0,29.899607,1011.6,,TRUE,TRUE,,,,,,,CLR,,,,,,,,VFR,-2.2,,,,,,,,,,,METAR,1113.0
KGKY 052053Z 14008KT 10SM CLR 22/04 A3006 RMK AO2 SLP176 T02170044 56022,KGKY,2019-01-05T20:53:00Z,32.67,-97.1,21.7,4.4,140,8,,10.0,30.059055,1017.6,,,TRUE,,,,,,,CLR,,,,,,,,VFR,-2.2,,,,,,,,,,,SPECI,192.0
PHNL 052053Z 09015G23KT 10SM FEW039 FEW050 SCT060 27/14 A3014 RMK AO2 PK WND 07026/2011 SLP206 T02670144 50007,PHNL,2019-01-05T20:53:00Z,21.33,-157.92,26.7,14.4,90,15,23,10.0,30.138779,1020.6,,,TRUE,,,,,,,FEW,3900,FEW,5000,SCT,6000,,,VFR,0.7,,,,,,,,,,,METAR,4.0
KGNV 052053Z 29006KT 10SM CLR 15/07 A3006 RMK AO2 SLP179 T01500072 53001,KGNV,2019-01-05T20:53:00Z,29.7,-82.28,15.0,7.2,290,6,,10.0,30.059055,1017.9,,,TRUE,,,,,,,CLR,,,,,,,,VFR,0.1,,,,,,,,,,,METAR,45.0
KGOK 052053Z AUTO 18010KT 10SM CLR 18/03 A3002 RMK AO2 SLP167 T01780028 56016 $,KGOK,2019-01-05T20:53:00Z,35.85,-97.4,17.8,2.8,180,10,,10.0,30.02067,1016.7,,TRUE,TRUE,TRUE,,,,,,CLR,,,,,,,,VFR,-1.6,,,,,,,,,,,METAR,324.0
KRSW 052053Z 29010KT 10SM CLR 22/13 A3004 RMK AO2 SLP168 T02170133 53001,KRSW,2019-01-05T20:53:00Z,26.53,-81.75,21.7,13.3,290,10,,10.0,30.041338,1016.8,,,TRUE,,,,,,,CLR,,,,,,,,VFR,0.1,,,,,,,,,,,METAR,10.0
KRWL 052053Z AUTO 23006KT 10SM CLR 04/M06 A3001 RMK AO2 SLP157 T00441056 56013,KRWL,2019-01-05T20:53:00Z,41.78,-107.2,4.4,-5.6,230,6,,10.0,30.008858,1015.7,,TRUE,TRUE,,,,,,,CLR,,,,,,,,VFR,-1.3,,,,,,,,,,,SPECI,2077.0
KRWI 052053Z AUTO 26010KT 10SM CLR 16/03 A2976 RMK AO2 SLP077 T01560033 53019,KRWI,2019-01-05T20:53:00Z,35.85,-77.9,15.6,3.3,260,10,,10.0,29.760826,1007.7,,TRUE,TRUE,,,,,,,CLR,,,,,,,,VFR,1.9,,,,,,,,,,,METAR,47.0
KGRI 052053Z 00000KT 10SM CLR 11/01 A2997 RMK AO2 SLP161 T01110011 56004,KGRI,2019-01-05T20:53:00Z,40.97,-98.32,11.1,1.1,0,0,,10.0,29.970472,1016.1,,,TRUE,,,,,,,CLR,,,,,,,,VFR,-0.4,,,,,,,,,,,METAR,561.0
KGRB 052053Z 25007KT 10SM CLR 08/00 A2975 RMK AO2 SLP082 T00780000 53012 $,KGRB,2019-01-05T20:53:00Z,44.48,-88.13,7.8,0.0,250,7,,10.0,29.749016,1008.2,,,TRUE,TRUE,,,,,,CLR,,,,,,,,VFR,1.2,,,,,,,,,,,SPECI,208.0
KGPT 052053Z 17006KT 10SM CLR 17/08 A3014 RMK AO2 SLP204 T01720083 56013,KGPT,2019-01-05T20:53:00Z,30.42,-89.08,17.2,8.3,170,6,,10.0,30.138779,1020.4,,,TRUE,,,,,,,CLR,,,,,,,,VFR,-1.3,,,,,,,,,,,METAR,14.0
KSBA 052053Z 11015KT 10SM SCT037 BKN060 14/09 A2991 RMK AO2 SLP129 T01440089 58016,KSBA,2019-01-05T20:53:00Z,34.43,-119.85,14.4,8.9,110,15,,10.0,29.911417,1012.9,,,TRUE,,,,,,,SCT,3700,BKN,6000,,,,,VFR,-1.6,,,,,,,,,,,SPECI,3.0
KSAV 052053Z 28012KT 10SM CLR 17/06 A2996 RMK AO2 SLP143 T01670061 53009 $,KSAV,2019-01-05T20:53:00Z,32.12,-81.2,16.7,6.1,280,12,,10.0,29.958662,1014.3,,,TRUE,TRUE,,,,,,CLR,,,,,,,,VFR,0.9,,,,,,,,,,,METAR,14.0
KSAF 052053Z 00000KT 10SM CLR 03/M06 A3014 RMK AO2 SLP210 T00331061 56010,KSAF,2019-01-05T20:53:00Z,35.62,-106.1,3.3,-6.1,0,0,,10.0,30.138779,1021.0,,,TRUE,,,,,,,CLR,,,,,,,,VFR,-1.0,,,,,,,,,,,SPECI,1930.0
KSAC 052053Z 13019G29KT 10SM OVC055 11/06 A2969 RMK AO2 PK WND 13029/2052 SLP052 60001 T01110056 56027,KSAC,2019-01-05T20:53:00Z,38.5,-121.5,11.1,5.6,130,19,29,10.0,29.68996,1005.2,,,TRUE,,,,,,,OVC,5500,,,,,,,VFR,-2.7,,,,,,,,,,,SPECI,11.0
KRXE 052053Z AUTO 05004KT 10SM CLR M03/M08 A2989 RMK AO2 SLP166 T10281083 56022,KRXE,2019-01-05T20:53:00Z,43.83,-111.8,-2.8,-8.3,50,4,,10.0,29.890747,1016.6,,TRUE,TRUE,,,,,,,CLR,,,,,,,,VFR,-2.2,,,,,,,,,,,SPECI,1480.0
KSEA 052053Z 00000KT 10SM SCT110 OVC160 09/06 A2942 RMK AO2 SLP967 T00940056 58030,KSEA,2019-01-05T20:53:00Z,47.45,-122.32,9.4,5.6,0,0,,10.0,29.421259,996.7,,,TRUE,,,,,,,SCT,11000,OVC,16000,,,,,VFR,-3.0,,,,,,,,,,,METAR,136.0
KSDM 052053Z 16008KT 10SM FEW060 OVC080 14/02 A3000 RMK AO2 SLP159 T01440022 58015,KSDM,2019-01-05T20:53:00Z,32.58,-117.0,14.4,2.2,160,8,,10.0,30.0,1015.9,,,TRUE,,,,,,,FEW,6000,OVC,8000,,,,,VFR,-1.5,,,,,,,,,,,METAR,159.0
KLOZ 052053Z AUTO 26008KT 10SM CLR 11/03 A3001 RMK AO2 SLP165 T01060033 53012 $,KLOZ,2019-01-05T20:53:00Z,37.08,-84.07,10.6,3.3,260,8,,10.0,30.008858,1016.5,,TRUE,TRUE,TRUE,,,,,,CLR,,,,,,,,VFR,1.2,,,,,,,,,,,METAR,362.0
KSEG 052053Z AUTO 00000KT 10SM CLR 10/03 A2963 RMK AO2 SLP036 60000 T01000028 51025,KSEG,2019-01-05T20:53:00Z,40.82,-76.87,10.0,2.8,0,0,,10.0,29.630905,1003.6,,TRUE,TRUE,,,,,,,CLR,,,,,,,,VFR,2.5,,,,,,0.005,,,,,METAR,134.0
KGUP 052053Z AUTO 26003KT 10SM CLR 03/M05 A3012 RMK AO2 SLP269 T00331050 56021,KGUP,2019-01-05T20:53:00Z,35.52,-108.8,3.3,-5.0,260,3,,10.0,30.121063,1026.9,,TRUE,TRUE,,,,,,,CLR,,,,,,,,VFR,-2.1,,,,,,,,,,,SPECI,1971.0
KGTF 052053Z 18007KT 10SM CLR 11/M06 A2973 RMK AO2 SLP082 T01111061 58027,KGTF,2019-01-05T20:53:00Z,47.47,-111.38,11.1,-6.1,180,7,,10.0,29.731298,1008.2,,,TRUE,,,,,,,CLR,,,,,,,,VFR,-2.7,,,,,,,,,,,METAR,1119.0
KGSP 052053Z 27003KT 10SM CLR 16/03 A2993 RMK AO2 SLP133 T01610033 53016,KGSP,2019-01-05T20:53:00Z,34.9,-82.22,16.1,3.3,270,3,,10.0,29.929134,1013.3,,,TRUE,,,,,,,CLR,,,,,,,,VFR,1.6,,,,,,,,,,,METAR,287.0
KGSH 052053Z AUTO 23011KT 10SM CLR 10/04 A2984 RMK AO2 SLP111 T01000039 53005,KGSH,2019-01-05T20:53:00Z,41.53,-85.78,10.0,3.9,230,11,,10.0,29.840551,1011.1,,TRUE,TRUE,,,,,,,CLR,,,,,,,,VFR,0.5,,,,,,,,,,,SPECI,252.0
KGRR 052053Z 25014KT 10SM FEW250 08/02 A2978 RMK AO2 SLP093 T00780022 53006,KGRR,2019-01-05T20:53:00Z,42.88,-85.52,7.8,2.2,250,14,,10.0,29.778543,1009.3,,,TRUE,,,,,,,FEW,25000,,,,,,,VFR,0.6,,,,,,,,,,,METAR,237.0
KHSI 052053Z AUTO 03003KT 10SM CLR 14/03 A2996 RMK AO2 SLP149 T01440033 57006,KHSI,2019-01-05T20:53:00Z,40.6,-98.43,14.4,3.3,30,3,,10.0,29.958662,1014.9,,TRUE,TRUE,,,,,,,CLR,,,,,,,,VFR,-0.6,,,,,,,,,,,METAR,591.0
KHRO 052053Z AUTO VRB05KT 10SM CLR 20/01 A3004 RMK AO2 SLP168 T02000011 55010,KHRO,2019-01-05T20:53:00Z,36.27,-93.15,20.0,1.1,0,5,,10.0,30.041338,1016.8,,TRUE,TRUE,,,,,,,CLR,,,,,,,,VFR,-1.0,,,,,,,,,,,METAR,417.0
KHRI 052053Z AUTO 00000KT 10SM CLR 04/01 A2955 RMK AO2 SLP009 T00390011 58034,KHRI,2019-01-05T20:53:00Z,45.83,-119.27,3.9,1.1,0,0,,10.0,29.551182,1000.9,,TRUE,TRUE,,,,,,,CLR,,,,,,,,VFR,-3.4,,,,,,,,,,,METAR,195.0
KGUY 052053Z AUTO 20005KT 10SM CLR 07/01 A2993 RMK AO2 SLP131 T00720011 56022,KGUY,2019-01-05T20:53:00Z,36.68,-101.5,7.2,1.1,200,5,,10.0,29.929134,1013.1,,TRUE,TRUE,,,,,,,CLR,,,,,,,,VFR,-2.2,,,,,,,,,,,METAR,948.0
KRBG 052053Z AUTO 00000KT 10SM CLR 06/03 A2938 RMK AO2 RAB15E27 SLP950 P0000 60000 T00560033 56056,KRBG,2019-01-05T20:53:00Z,43.23,-123.35,5.6,3.3,0,0,,10.0,29.379921,995.0,,TRUE,TRUE,,,,,,,CLR,,,,,,,,VFR,-5.6,,,,,0.005,,,,,,SPECI,154.0
KRBD 052053Z 18008KT 10SM CLR 22/03 A3006 RMK AO2 SLP175 T02170028 56019 $,KRBD,2019-01-05T20:53:00Z,32.68,-96.87,21.7,2.8,180,8,,10.0,30.059055,1017.5,,,TRUE,TRUE,,,,,,CLR,,,,,,,,VFR,-1.9,,,,,,,,,,,SPECI,203.0
KRAL 052053Z 29003KT 10SM SCT090 OVC120 13/00 A2997 RMK AO2 SLP142 T01280000 56020,KRAL,2019-01-05T20:53:00Z,33.95,-117.45,12.8,0.0,290,3,,10.0,29.970472,1014.2,,,TRUE,,,,,,,SCT,9000,OVC,12000,,,,,VFR,-2.0,,,,,,,,,,,SPECI,252.0
KRAC 052053Z AUTO 27010KT 10SM CLR 11/01 A2983 RMK AO2 SLP104 T01060011 53012,KRAC,2019-01-05T20:53:00Z,42.77,-87.82,10.6,1.1,270,10,,10.0,29.828741,1010.4,,TRUE,TRUE,,,,,,,CLR,,,,,,,,VFR,1.2,,,,,,,,,,,SPECI,203.0
KPWA 052053Z 16010KT 10SM CLR 18/05 A3002 RMK AO2 SLP165 T01780050 56018,KPWA,2019-01-05T20:53:00Z,35.53,-97.65,17.8,5.0,160,10,,10.0,30.02067,1016.5,,,TRUE,,,,,,,CLR,,,,,,,,VFR,-1.8,,,,,,,,,,,METAR,397.0
KFHR 052053Z AUTO 34003KT 10SM BKN100 BKN120 09/03 A2942 RMK AO2 SLP963 T00890033 58041,KFHR,2019-01-05T20:53:00Z,48.52,-123.03,8.9,3.3,340,3,,10.0,29.421259,996.3,,TRUE,TRUE,,,,,,,BKN,10000,BKN,12000,,,,,VFR,-4.1,,,,,,,,,,,METAR,32.0
KFFT 052053Z AUTO 24008KT 10SM CLR 11/04 A2998 RMK AO2 SLP154 T01110039 53008,KFFT,2019-01-05T20:53:00Z,38.18,-84.9,11.1,3.9,240,8,,10.0,29.97933,1015.4,,TRUE,TRUE,,,,,,,CLR,,,,,,,,VFR,0.8,,,,,,,,,,,METAR,236.0
KFFC 052053Z AUTO 30009KT 10SM CLR 17/01 A3005 RMK AO2 SLP176 T01670006 53005,KFFC,2019-01-05T20:53:00Z,33.35,-84.57,16.7,0.6,300,9,,10.0,30.050198,1017.6,,TRUE,TRUE,,,,,,,CLR,,,,,,,,VFR,0.5,,,,,,,,,,,METAR,262.0
KGWO 052053Z AUTO 23004KT 10SM CLR 13/06 A3015 RMK AO2 SLP210 T01330061 55004,KGWO,2019-01-05T20:53:00Z,33.5,-90.08,13.3,6.1,230,4,,10.0,30.15059,1021.0,,TRUE,TRUE,,,,,,,CLR,,,,,,,,VFR,-0.4,,,,,,,,,,,METAR,44.0
KGVL 052053Z AUTO 29012G18KT 10SM CLR 13/03 A3001 RMK AO2 SLP160 T01330028 53013,KGVL,2019-01-05T20:53:00Z,34.27,-83.83,13.3,2.8,290,12,18,10.0,30.008858,1016.0,,TRUE,TRUE,,,,,,,CLR,,,,,,,,VFR,1.3,,,,,,,,,,,METAR,386.0
KFMY 052053Z 30015KT 10SM CLR 22/13 A3003 RMK AO2 SLP172 T02170133 55002 $,KFMY,2019-01-05T20:53:00Z,26.58,-81.87,21.7,13.3,300,15,,10.0,30.029528,1017.2,,,TRUE,TRUE,,,,,,CLR,,,,,,,,VFR,-0.2,,,,,,,,,,,METAR,4.0
KLPR 052053Z AUTO 27010KT 10SM CLR 07/00 A2980 RMK AO2 SLP098 T00720000 51006,KLPR,2019-01-05T20:53:00Z,41.35,-82.18,7.2,0.0,270,10,,10.0,29.799213,1009.8,,TRUE,TRUE,,,,,,,CLR,,,,,,,,VFR,0.6,,,,,,,,,,,METAR,241.0
KMGM 052053Z 27006KT 10SM CLR 17/04 A3011 RMK AO2 SLP196 T01720044 55005,KMGM,2019-01-05T20:53:00Z,32.3,-86.4,17.2,4.4,270,6,,10.0,30.109253,1019.6,,,TRUE,,,,,,,CLR,,,,,,,,VFR,-0.5,,,,,,,,,,,METAR,63.0
KMFR 052053Z 14028G38KT 10SM CLR 12/01 A2938 RMK AO2 PK WND 14038/2053 SLP954 T01170006 56051,KMFR,2019-01-05T20:53:00Z,42.38,-122.87,11.7,0.6,140,28,38,10.0,29.379921,995.4,,,TRUE,,,,,,,CLR,,,,,,,,VFR,-5.1,,,,,,,,,,,METAR,396.0
KMDW 052053Z 25010KT 10SM FEW250 12/03 A2986 RMK AO2 SLP118 T01170028 53009,KMDW,2019-01-05T20:53:00Z,41.78,-87.75,11.7,2.8,250,10,,10.0,29.861221,1011.8,,,TRUE,,,,,,,FEW,25000,,,,,,,VFR,0.9,,,,,,,,,,,METAR,188.0
KMCW 052053Z AUTO 32012KT 10SM CLR 09/02 A2995 RMK AO2 SLP146 T00890022 53015 $,KMCW,2019-01-05T20:53:00Z,43.15,-93.33,8.9,2.2,320,12,,10.0,29.949802,1014.6,,TRUE,TRUE,TRUE,,,,,,CLR,,,,,,,,VFR,1.5,,,,,,,,,,,METAR,369.0
KMCO 052053Z 27013KT 10SM CLR 20/10 A3001 RMK AO2 SLP161 T02000100 53001,KMCO,2019-01-05T20:53:00Z,28.42,-81.33,20.0,10.0,270,13,,10.0,30.008858,1016.1,,,TRUE,,,,,,,CLR,,,,,,,,VFR,0.1,,,,,,,,,,,METAR,29.0
KMCN 052053Z 29010KT 10SM CLR 17/02 A3002 RMK AO2 SLP165 T01720017 53005,KMCN,2019-01-05T20:53:00Z,32.68,-83.65,17.2,1.7,290,10,,10.0,30.02067,1016.5,,,TRUE,,,,,,,CLR,,,,,,,,VFR,0.5,,,,,,,,,,,METAR,109.0
KMCK 052053Z AUTO 07006KT 10SM CLR 09/M01 A2994 RMK AO2 SLP149 T00891006 55017,KMCK,2019-01-05T20:53:00Z,40.2,-100.58,8.9,-0.6,70,6,,10.0,29.940945,1014.9,,TRUE,TRUE,,,,,,,CLR,,,,,,,,VFR,-1.7,,,,,,,,,,,METAR,782.0
KMCI 052053Z 23006KT 10SM FEW007 FEW140 SCT250 14/02 A3000 RMK AO2 SLP160 T01440017 55002 $,KMCI,2019-01-05T20:53:00Z,39.3,-94.73,14.4,1.7,230,6,,10.0,30.0,1016.0,,,TRUE,TRUE,,,,,,FEW,700,FEW,14000,SCT,25000,,,VFR,-0.2,,,,,,,,,,,METAR,320.0
KMCE 052053Z AUTO 12009KT 4SM -RA OVC055 09/06 A2981 RMK AO2 SLP095 P0006 60008 T00940061 55000,KMCE,2019-01-05T20:53:00Z,37.28,-120.5,9.4,6.1,120,9,,4.0,29.811024,1009.5,,TRUE,TRUE,,,,,,-RA,OVC,5500,,,,,,,MVFR,0.0,,,,,0.06,0.08,,,,,METAR,47.0
KMCB 052053Z AUTO 30007KT 10SM CLR 18/04 A3016 RMK AO2 SLP212 T01780039 55007,KMCB,2019-01-05T20:53:00Z,31.18,-90.47,17.8,3.9,300,7,,10.0,30.159449,1021.2,,TRUE,TRUE,,,,,,,CLR,,,,,,,,VFR,-0.7,,,,,,,,,,,METAR,124.0
KMBS 052053Z 23012KT 8SM CLR 07/03 A2972 RMK AO2 SLP068 T00670028 56003,KMBS,2019-01-05T20:53:00Z,43.53,-84.08,6.7,2.8,230,12,,8.0,29.719488,1006.8,,,TRUE,,,,,,,CLR,,,,,,,,VFR,-0.3,,,,,,,,,,,METAR,202.0
KMAI 052053Z AUTO 30009KT 10SM CLR 17/05 A3009 RMK AO2 SLP188 T01720050 55002,KMAI,2019-01-05T20:53:00Z,30.83,-85.18,17.2,5.0,300,9,,10.0,30.088583,1018.8,,TRUE,TRUE,,,,,,,CLR,,,,,,,,VFR,-0.2,,,,,,,,,,,METAR,32.0
KMAF 052053Z 20009KT 10SM CLR 20/M06 A3005 RMK AO2 SLP158 T02001061 56024,KMAF,2019-01-05T20:53:00Z,31.95,-102.2,20.0,-6.1,200,9,,10.0,30.050198,1015.8,,,TRUE,,,,,,,CLR,,,,,,,,VFR,-2.4,,,,,,,,,,,METAR,874.0
KLXV 052053Z AUTO 18008KT 10SM CLR 03/M13 A3009 RMK AO2 SLP150 T00331128 56015,KLXV,2019-01-05T20:53:00Z,39.23,-106.32,3.3,-12.8,180,8,,10.0,30.088583,1015.0,,TRUE,TRUE,,,,,,,CLR,,,,,,,,VFR,-1.5,,,,,,,,,,,METAR,3028.0
KLXT 052053Z AUTO 23007KT 10SM CLR 16/02 A3001 RMK AO2 SLP163 T01560022 55003,KLXT,2019-01-05T20:53:00Z,38.97,-94.37,15.6,2.2,230,7,,10.0,30.008858,1016.3,,TRUE,TRUE,,,,,,,CLR,,,,,,,,VFR,-0.3,,,,,,,,,,,METAR,306.0
KLWV 052053Z AUTO 23008KT 10SM CLR 13/05 A3001 RMK AO2 SLP163 T01280050 53005 PWINO $,KLWV,2019-01-05T20:53:00Z,38.77,-87.6,12.8,5.0,230,8,,10.0,30.008858,1016.3,,TRUE,TRUE,TRUE,,,,TRUE,,CLR,,,,,,,,VFR,0.5,,,,,,,,,,,SPECI,131.0
KLWD 052053Z AUTO 26004KT 10SM CLR 16/02 A2997 RMK AO2 SLP152 T01560022 53004,KLWD,2019-01-05T20:53:00Z,40.63,-93.9,15.6,2.2,260,4,,10.0,29.970472,1015.2,,TRUE,TRUE,,,,,,,CLR,,,,,,,,VFR,0.4,,,,,,,,,,,METAR,346.0
KLVS 052053Z AUTO 21017KT 10SM CLR 07/M06 A3003 RMK AO2 SLP144 T00721056 56021,KLVS,2019-01-05T20:53:00Z,35.65,-105.13,7.2,-5.6,210,17,,10.0,30.029528,1014.4,,TRUE,TRUE,,,,,,,CLR,,,,,,,,VFR,-2.1,,,,,,,,,,,METAR,2091.0
KLVM 052053Z AUTO 13005KT 10SM CLR 09/M04 A2979 RMK AO2 SLP083 T00891044 56025,KLVM,2019-01-05T20:53:00Z,45.7,-110.43,8.9,-4.4,130,5,,10.0,29.790354,1008.3,,TRUE,TRUE,,,,,,,CLR,,,,,,,,VFR,-2.5,,,,,,,,,,,METAR,1418.0
KLVK 052053Z 19022G35KT 10SM SCT120 14/06 A2963 RMK AO2 PK WND 19037/2010 SLP033 T01390056 56027,KLVK,2019-01-05T20:53:00Z,37.7,-121.82,13.9,5.6,190,22,35,10.0,29.630905,1003.3,,,TRUE,,,,,,,SCT,12000,,,,,,,VFR,-2.7,,,,,,,,,,,METAR,117.0
KLVJ 052053Z AUTO 19004KT 10SM CLR 21/06 A3016 RMK AO2 SLP210 T02110061 56023,KLVJ,2019-01-05T20:53:00Z,29.52,-95.25,21.1,6.1,190,4,,10.0,30.159449,1021.0,,TRUE,TRUE,,,,,,,CLR,,,,,,,,VFR,-2.3,,,,,,,,,,,METAR,12.0
KLUK 052053Z 20008KT 10SM CLR 11/04 A2995 RMK AO2 SLP142 T01110039 53002,KLUK,2019-01-05T20:53:00Z,39.1,-84.42,11.1,3.9,200,8,,10.0,29.949802,1014.2,,,TRUE,,,,,,,CLR,,,,,,,,VFR,0.2,,,,,,,,,,,SPECI,155.0
KHKY 052053Z 32006KT 10SM CLR 15/02 A2989 RMK AO2 SLP109 T01500017 53024 $,KHKY,2019-01-05T20:53:00Z,35.75,-81.38,15.0,1.7,320,6,,10.0,29.890747,1010.9,,,TRUE,TRUE,,,,,,CLR,,,,,,,,VFR,2.4,,,,,,,,,,,METAR,354.0
KMGY 052053Z AUTO 22011KT 10SM CLR 11/03 A2991 RMK AO2 SLP130 T01060028 51006,KMGY,2019-01-05T20:53:00Z,39.6,-84.23,10.6,2.8,220,11,,10.0,29.911417,1013.0,,TRUE,TRUE,,,,,,,CLR,,,,,,,,VFR,0.6,,,,,,,,,,,METAR,289.0
KMGW 052053Z 26007KT 230V290 10SM CLR 10/01 A2982 RMK AO2 SLP102 T01000011 53021 $,KMGW,2019-01-05T20:53:00Z,39.65,-79.92,10.0,1.1,260,7,,10.0,29.819881,1010.2,,,TRUE,TRUE,,,,,,CLR,,,,,,,,VFR,2.1,,,,,,,,,,,METAR,378.0
KHVN 052053Z 01015G24KT 2SM -RA BR BKN008 BKN040 OVC055 06/04 A2944 RMK AO2 RAB31 SLP969 P0004 60006 T00560039 53016,KHVN,2019-01-05T20:53:00Z,41.27,-72.87,5.6,3.9,10,15,24,2.0,29.438976,996.9,,,TRUE,,,,,,-RA BR,BKN,800,BKN,4000,OVC,5500,,,IFR,1.6,,,,,0.04,0.06,,,,,METAR,4.0
KHUL 052053Z AUTO 02004KT 5SM BR OVC030 00/M01 A2962 RMK AO2 SLP036 T00001006 56008 TSNO,KHUL,2019-01-05T20:53:00Z,46.12,-67.8,0.0,-0.6,20,4,,5.0,29.619095,1003.6,,TRUE,TRUE,,,TRUE,,,BR,OVC,3000,,,,,,,MVFR,-0.8,,,,,,,,,,,METAR,150.0
KHUF 052053Z 23007KT 10SM CLR 12/04 A2997 RMK AO2 SLP150 T01170044 53003,KHUF,2019-01-05T20:53:00Z,39.45,-87.3,11.7,4.4,230,7,,10.0,29.970472,1015.0,,,TRUE,,,,,,,CLR,,,,,,,,VFR,0.3,,,,,,,,,,,SPECI,179.0
KHTL 052053Z AUTO 26006KT 10SM CLR 04/00 A2968 RMK AO2 SLP065 T00390000 53005 $,KHTL,2019-01-05T20:53:00Z,44.35,-84.67,3.9,0.0,260,6,,10.0,29.681103,1006.5,,TRUE,TRUE,TRUE,,,,,,CLR,,,,,,,,VFR,0.5,,,,,,,,,,,METAR,351.0
KHSV 052053Z 30006KT 10SM CLR 14/04 A3009 RMK AO2 SLP189 T01440044 53001,KHSV,2019-01-05T20:53:00Z,34.65,-86.78,14.4,4.4,300,6,,10.0,30.088583,1018.9,,,TRUE,,,,,,,CLR,,,,,,,,VFR,0.1,,,,,,,,,,,METAR,191.0
KIAG 052053Z COR 24010KT 5SM BR OVC012 02/M01 A2974 RMK AO2 SLP086 T00171006 53016,KIAG,2019-01-05T20:53:00Z,43.12,-78.93,1.7,-0.6,240,10,,5.0,29.740158,1008.6,TRUE,,TRUE,,,,,,BR,OVC,1200,,,,,,,MVFR,1.6,,,,,,,,,,,METAR,182.0
KHZY 052053Z AUTO 28009KT 10SM CLR 06/02 A2979 RMK AO2 SLP095 T00560017 53012,KHZY,2019-01-05T20:53:00Z,41.78,-80.7,5.6,1.7,280,9,,10.0,29.790354,1009.5,,TRUE,TRUE,,,,,,,CLR,,,,,,,,VFR,1.2,,,,,,,,,,,SPECI,276.0
KHWO 052053Z 28010KT 10SM CLR 26/13 A3001 RMK AO2 SLP163 T02610133 55007,KHWO,2019-01-05T20:53:00Z,26.0,-80.23,26.1,13.3,280,10,,10.0,30.008858,1016.3,,,TRUE,,,,,,,CLR,,,,,,,,VFR,-0.7,,,,,,,,,,,METAR,2.0
KHVR 052053Z AUTO 08010KT 10SM CLR 11/M05 A2978 RMK AO2 SLP097 T01111050 56031,KHVR,2019-01-05T20:53:00Z,48.55,-109.77,11.1,-5.0,80,10,,10.0,29.778543,1009.7,,TRUE,TRUE,,,,,,,CLR,,,,,,,,VFR,-3.1,,,,,,,,,,,METAR,787.0
KIML 052053Z AUTO 05012KT 10SM CLR 16/M06 A2992 RMK AO2 SLP136 T01611056 56022 $,KIML,2019-01-05T20:53:00Z,40.52,-101.62,16.1,-5.6,50,12,,10.0,29.920275,1013.6,,TRUE,TRUE,TRUE,,,,,,CLR,,,,,,,,VFR,-2.2,,,,,,,,,,,METAR,998.0
KILM 052053Z 30017KT 10SM CLR 16/04 A2980 RMK AO2 SLP092 T01610044 53018,KILM,2019-01-05T20:53:00Z,34.27,-77.9,16.1,4.4,300,17,,10.0,29.799213,1009.2,,,TRUE,,,,,,,CLR,,,,,,,,VFR,1.8,,,,,,,,,,,METAR,9.0
KIDA 052053Z 00000KT 10SM OVC120 M04/M07 A2991 RMK AO2 SLP172 T10391072 58022,KIDA,2019-01-05T20:53:00Z,43.52,-112.07,-3.9,-7.2,0,0,,10.0,29.911417,1017.2,,,TRUE,,,,,,,OVC,12000,,,,,,,VFR,-2.2,,,,,,,,,,,SPECI,1453.0
KICT 052053Z 19007KT 10SM CLR 15/02 A2999 RMK AO2 SLP159 T01500017 56016 $,KICT,2019-01-05T20:53:00Z,37.65,-97.43,15.0,1.7,190,7,,10.0,29.991142,1015.9,,,TRUE,TRUE,,,,,,CLR,,,,,,,,VFR,-1.6,,,,,,,,,,,METAR,407.0
KICR 052053Z AUTO 31004KT 10SM CLR 09/00 A2998 RMK AO2 SLP164 T00940000 56010,KICR,2019-01-05T20:53:00Z,43.38,-99.85,9.4,0.0,310,4,,10.0,29.97933,1016.4,,TRUE,TRUE,,,,,,,CLR,,,,,,,,VFR,-1.0,,,,,,,,,,,METAR,621.0
KIAH 052053Z VRB03KT 10SM CLR 22/04 A3014 RMK AO2 SLP206 T02220044 56021,KIAH,2019-01-05T20:53:00Z,30.0,-95.37,22.2,4.4,0,3,,10.0,30.138779,1020.6,,,TRUE,,,,,,,CLR,,,,,,,,VFR,-2.1,,,,,,,,,,,METAR,36.0
PABR 052053Z 30014KT 10SM CLR M22/M25 A3013,PABR,2019-01-05T20:53:00Z,71.28,-156.77,-22.0,-25.0,300,14,,10.0,30.129921,,,,,,,,,,,CLR,,,,,,,,VFR,,,,,,,,,,,,METAR,7.0
KWRL 052053Z AUTO 00000KT 10SM CLR M01/M06 A2989 RMK AO2 SLP163 T10061056 56019,KWRL,2019-01-05T20:53:00Z,43.97,-107.95,-0.6,-5.6,0,0,,10.0,29.890747,1016.3,,TRUE,TRUE,,,,,,,CLR,,,,,,,,VFR,-1.9,,,,,,,,,,,SPECI,1271.0
KVUO 052053Z AUTO 10004KT 10SM OVC100 08/04 A2943 RMK AO2 SLP965 T00830039 58029,KVUO,2019-01-05T20:53:00Z,45.62,-122.65,8.3,3.9,100,4,,10.0,29.430119,996.5,,TRUE,TRUE,,,,,,,OVC,10000,,,,,,,VFR,-2.9,,,,,,,,,,,SPECI,8.0
KVRB 052053Z 29012KT 10SM FEW040 23/13 A3000 RMK AO2 SLP156 T02330128 55003,KVRB,2019-01-05T20:53:00Z,27.65,-80.42,23.3,12.8,290,12,,10.0,30.0,1015.6,,,TRUE,,,,,,,FEW,4000,,,,,,,VFR,-0.3,,,,,,,,,,,METAR,10.0
KVPC 052053Z AUTO VRB03KT 10SM CLR 14/03 A3006 RMK AO2 SLP174 T01440028 53005,KVPC,2019-01-05T20:53:00Z,34.13,-84.85,14.4,2.8,0,3,,10.0,30.059055,1017.4,,TRUE,TRUE,,,,,,,CLR,,,,,,,,VFR,0.5,,,,,,,,,,,METAR,222.0
KVLD 052053Z VRB03KT 10SM CLR 14/07 A3006 RMK AO2 SLP185 T01440067 53002,KVLD,2019-01-05T20:53:00Z,30.78,-83.27,14.4,6.7,0,3,,10.0,30.059055,1018.5,,,TRUE,,,,,,,CLR,,,,,,,,VFR,0.2,,,,,,,,,,,METAR,62.0
KVIH 052053Z AUTO 26007KT 10SM CLR 17/02 A3002 RMK AO2 SLP165 T01670022 55005,KVIH,2019-01-05T20:53:00Z,38.13,-91.77,16.7,2.2,260,7,,10.0,30.02067,1016.5,,TRUE,TRUE,,,,,,,CLR,,,,,,,,VFR,-0.5,,,,,,,,,,,METAR,333.0
KIWI 052053Z AUTO 00000KT 10SM OVC011 02/M01 A2957 RMK AO2 SLP014 T00221006 56015,KIWI,2019-01-05T20:53:00Z,43.97,-69.72,2.2,-0.6,0,0,,10.0,29.568897,1001.4,,TRUE,TRUE,,,,,,,OVC,1100,,,,,,,MVFR,-1.5,,,,,,,,,,,SPECI,20.0
KITR 052053Z AUTO 07006KT 10SM CLR 18/M03 A2991 RMK AO2 SLP117 T01781033 56021,KITR,2019-01-05T20:53:00Z,39.23,-102.28,17.8,-3.3,70,6,,10.0,29.911417,1011.7,,TRUE,TRUE,,,,,,,CLR,,,,,,,,VFR,-2.1,,,,,,,,,,,SPECI,1279.0
KIPL 052053Z AUTO 30005KT 10SM OVC090 A2999 RMK AO2 UPB1958E17RAB20E49 SLPNO P0000 60000 56017 $,KIPL,2019-01-05T20:53:00Z,32.83,-115.58,,,300,5,,10.0,29.991142,,,TRUE,TRUE,TRUE,,,,,,OVC,9000,,,,,,,VFR,-1.7,,,,,0.005,,,,,,SPECI,-17.0
KINK 052053Z AUTO 19006KT 10SM CLR 20/M09 A3004 RMK AO2 SLP160 T02001089 56029,KINK,2019-01-05T20:53:00Z,31.78,-103.2,20.0,-8.9,190,6,,10.0,30.041338,1016.0,,TRUE,TRUE,,,,,,,CLR,,,,,,,,VFR,-2.9,,,,,,,,,,,SPECI,855.0
MMQT 052053Z 00000KT 8SM SCT250 24/04 A3028 RMK 8/002 CU,MMQT,2019-01-05T20:53:00Z,20.62,-100.18,24.0,4.0,0,0,,8.0,30.280512,,,,,,,,,,,SCT,25000,,,,,,,VFR,,,,,,,,,,,,SPECI,1919.0
KHOU 052053Z 22005KT 10SM CLR 21/06 A3013 RMK AO2 SLP209 T02110056 56024,KHOU,2019-01-05T20:53:00Z,29.63,-95.28,21.1,5.6,220,5,,10.0,30.129921,1020.9,,,TRUE,,,,,,,CLR,,,,,,,,VFR,-2.4,,,,,,,,,,,METAR,36.0
KHOT 052053Z AUTO 22004KT 10SM CLR 19/03 A3009 RMK AO2 SLP189 T01890033 55007,KHOT,2019-01-05T20:53:00Z,34.48,-93.1,18.9,3.3,220,4,,10.0,30.088583,1018.9,,TRUE,TRUE,,,,,,,CLR,,,,,,,,VFR,-0.7,,,,,,,,,,,METAR,162.0
KHLN 052053Z 00000KT 10SM CLR 01/M04 A2979 RMK AO2 SLP138 T00111044 56028,KHLN,2019-01-05T20:53:00Z,46.6,-111.98,1.1,-4.4,0,0,,10.0,29.790354,1013.8,,,TRUE,,,,,,,CLR,,,,,,,,VFR,-2.8,,,,,,,,,,,SPECI,1182.0
KHLG 052053Z 28013G19KT 10SM CLR 09/01 A2981 RMK AO2 SLP102 T00940011 52018,KHLG,2019-01-05T20:53:00Z,40.17,-80.65,9.4,1.1,280,13,19,10.0,29.811024,1010.2,,,TRUE,,,,,,,CLR,,,,,,,,VFR,1.8,,,,,,,,,,,METAR,372.0
KHLC 052053Z AUTO 16005KT 10SM CLR 16/01 A2994 RMK AO2 SLP143 T01610006 55016,KHLC,2019-01-05T20:53:00Z,39.37,-99.83,16.1,0.6,160,5,,10.0,29.940945,1014.3,,TRUE,TRUE,,,,,,,CLR,,,,,,,,VFR,-1.6,,,,,,,,,,,METAR,669.0
KHQM 052053Z AUTO 05009KT 4SM -RA BR OVC050 07/07 A2940 RMK AO2 RAB13 PRESFR SLP960 P0002 60002 T00720067 58029,KHQM,2019-01-05T20:53:00Z,46.97,-123.93,7.2,6.7,50,9,,4.0,29.40059,996.0,,TRUE,TRUE,,,,,,-RA BR,OVC,5000,,,,,,,MVFR,-2.9,,,,,0.02,,,,,,SPECI,7.0
KRIW 052053Z AUTO 05003KT 10SM CLR M06/M10 A2994 RMK AO2 SLP199 T10561100 56019,KRIW,2019-01-05T20:53:00Z,43.07,-108.47,-5.6,-10.0,50,3,,10.0,29.940945,1019.9,,TRUE,TRUE,,,,,,,CLR,,,,,,,,VFR,-1.9,,,,,,,,,,,METAR,1697.0
KRIL 052053Z AUTO 00000KT 10SM CLR M02/M08 A3013 RMK AO2 SLP250 T10221078 56022,KRIL,2019-01-05T20:53:00Z,39.53,-107.73,-2.2,-7.8,0,0,,10.0,30.129921,1025.0,,TRUE,TRUE,,,,,,,CLR,,,,,,,,VFR,-2.2,,,,,,,,,,,METAR,1678.0
KRHI 052053Z AUTO 32007G19KT 10SM BKN026 05/M02 A2977 RMK AO2 SLP100 T00501017 53029,KRHI,2019-01-05T20:53:00Z,45.63,-89.48,5.0,-1.7,320,7,19,10.0,29.769686,1010.0,,TRUE,TRUE,,,,,,,BKN,2600,,,,,,,MVFR,2.9,,,,,,,,,,,METAR,485.0
KRME 052053Z 28008KT 10SM CLR 05/M01 A2963 RMK AO2 SLP038 T00501006 53017,KRME,2019-01-05T20:53:00Z,43.22,-75.4,5.0,-0.6,280,8,,10.0,29.630905,1003.8,,,TRUE,,,,,,,CLR,,,,,,,,VFR,1.7,,,,,,,,,,,SPECI,154.0
KRKP 052053Z AUTO 17008KT 7SM CLR 21/06 A3014 RMK AO2 SLP207 T02060056 56022 $,KRKP,2019-01-05T20:53:00Z,28.08,-97.05,20.6,5.6,170,8,,7.0,30.138779,1020.7,,TRUE,TRUE,TRUE,,,,,,CLR,,,,,,,,VFR,-2.2,,,,,,,,,,,SPECI,6.0
KRMG 052053Z AUTO 30006KT 10SM CLR 17/02 A3004 RMK AO2 SLP169 T01670022 53005,KRMG,2019-01-05T20:53:00Z,34.35,-85.17,16.7,2.2,300,6,,10.0,30.041338,1016.9,,TRUE,TRUE,,,,,,,CLR,,,,,,,,VFR,0.5,,,,,,,,,,,METAR,193.0
KRQE 052053Z AUTO 30003KT 10SM CLR 09/M06 A3012 RMK AO2 SLP197 T00891056 56020,KRQE,2019-01-05T20:53:00Z,35.65,-109.07,8.9,-5.6,300,3,,10.0,30.121063,1019.7,,TRUE,TRUE,,,,,,,CLR,,,,,,,,VFR,-2.0,,,,,,,,,,,METAR,2055.0
KRNT 052053Z 00000KT 8SM FEW110 08/06 A2942 RMK AO2 SLP968 T00830056 58032,KRNT,2019-01-05T20:53:00Z,47.5,-122.22,8.3,5.6,0,0,,8.0,29.421259,996.8,,,TRUE,,,,,,,FEW,11000,,,,,,,VFR,-3.2,,,,,,,,,,,SPECI,21.0
KRTN 052053Z AUTO 22009KT 10SM CLR 14/M07 A2999 RMK AO2 SLP134 T01391067 56019,KRTN,2019-01-05T20:53:00Z,36.73,-104.5,13.9,-6.7,220,9,,10.0,29.991142,1013.4,,TRUE,TRUE,,,,,,,CLR,,,,,,,,VFR,-1.9,,,,,,,,,,,SPECI,1936.0
KRVS 052053Z 17004KT 10SM CLR 18/03 A3004 RMK AO2 SLP177 T01830033 56014,KRVS,2019-01-05T20:53:00Z,36.05,-95.98,18.3,3.3,170,4,,10.0,30.041338,1017.7,,,TRUE,,,,,,,CLR,,,,,,,,VFR,-1.4,,,,,,,,,,,METAR,200.0
KRUE 052053Z AUTO 00000KT 10SM CLR 17/05 A3007 RMK AO2 SLP180 T01670050 55012 $,KRUE,2019-01-05T20:53:00Z,35.25,-93.1,16.7,5.0,0,0,,10.0,30.070866,1018.0,,TRUE,TRUE,TRUE,,,,,,CLR,,,,,,,,VFR,-1.2,,,,,,,,,,,METAR,115.0
KRWF 052053Z AUTO 33012G21KT 10SM CLR 04/M01 A2997 RMK AO2 SLP158 T00441011 53018 $,KRWF,2019-01-05T20:53:00Z,44.55,-95.08,4.4,-1.1,330,12,21,10.0,29.970472,1015.8,,TRUE,TRUE,TRUE,,,,,,CLR,,,,,,,,VFR,1.8,,,,,,,,,,,SPECI,311.0
KFDR 052053Z AUTO 16007KT 10SM CLR 14/08 A2999 RMK AO2 SLP154 T01440078 56024,KFDR,2019-01-05T20:53:00Z,34.35,-98.98,14.4,7.8,160,7,,10.0,29.991142,1015.4,,TRUE,TRUE,,,,,,,CLR,,,,,,,,VFR,-2.4,,,,,,,,,,,METAR,386.0
KFCM 052053Z 31011KT 10SM CLR 07/M01 A2991 RMK AO2 SLP138 T00671011 53017,KFCM,2019-01-05T20:53:00Z,44.83,-93.47,6.7,-1.1,310,11,,10.0,29.911417,1013.8,,,TRUE,,,,,,,CLR,,,,,,,,VFR,1.7,,,,,,,,,,,SPECI,280.0
KFDY 052053Z AUTO 25012KT 10SM CLR 09/03 A2984 RMK AO2 SLP104 T00940033 53006,KFDY,2019-01-05T20:53:00Z,41.02,-83.67,9.4,3.3,250,12,,10.0,29.840551,1010.4,,TRUE,TRUE,,,,,,,CLR,,,,,,,,VFR,0.6,,,,,,,,,,,SPECI,247.0
PABI 052053Z 07003KT 10SM FEW200 M31/M34 A2986 RMK AO2 SLP193 T13111344 50000,PABI,2019-01-05T20:53:00Z,64.0,-145.72,-31.1,-34.4,70,3,,10.0,29.861221,1019.3,,,TRUE,,,,,,,FEW,20000,,,,,,,VFR,0.0,,,,,,,,,,,METAR,386.0
PABE 052053Z 02005KT M1/4SM R19R/0800FT FZFG VV002 M09/M10 A2993 RMK AO2 SLP139 I1000 I3010 T10891100 51009 $,PABE,2019-01-05T20:53:00Z,60.78,-161.83,-8.9,-10.0,20,5,,0.25,29.929134,1013.9,,,TRUE,TRUE,,,,,FZFG,OVX,0,,,,,,,LIFR,0.9,,,,,,,,,,200,METAR,41.0
PAAQ 052053Z 00000KT 10SM FEW120 BKN200 M20/M22 A2985 RMK AO2 SLP117 T12001222 50002,PAAQ,2019-01-05T20:53:00Z,61.6,-149.08,-20.0,-22.2,0,0,,10.0,29.84941,1011.7,,,TRUE,,,,,,,FEW,12000,BKN,20000,,,,,VFR,0.2,,,,,,,,,,,METAR,73.0
KZZV 052053Z AUTO 26009KT 10SM CLR 09/02 A2987 RMK AO2 SLP117 T00890022 53016,KZZV,2019-01-05T20:53:00Z,39.95,-81.9,8.9,2.2,260,9,,10.0,29.870079,1011.7,,TRUE,TRUE,,,,,,,CLR,,,,,,,,VFR,1.6,,,,,,,,,,,METAR,268.0
KYKM 052053Z 00000KT 10SM CLR 07/M01 A2957 RMK AO2 SLP018 T00721006 58038,KYKM,2019-01-05T20:53:00Z,46.57,-120.53,7.2,-0.6,0,0,,10.0,29.568897,1001.8,,,TRUE,,,,,,,CLR,,,,,,,,VFR,-3.8,,,,,,,,,,,METAR,324.0
KYIP 052053Z 25012KT 10SM CLR 11/02 A2978 RMK AO2 SLP086 T01060017 53004,KYIP,2019-01-05T20:53:00Z,42.23,-83.53,10.6,1.7,250,12,,10.0,29.778543,1008.6,,,TRUE,,,,,,,CLR,,,,,,,,VFR,0.4,,,,,,,,,,,METAR,215.0
KXNA 052053Z 21008KT 10SM CLR 18/02 A3006 RMK AO2 SLP180 T01830022 55008,KXNA,2019-01-05T20:53:00Z,36.28,-94.3,18.3,2.2,210,8,,10.0,30.059055,1018.0,,,TRUE,,,,,,,CLR,,,,,,,,VFR,-0.8,,,,,,,,,,,METAR,392.0
PAKW 052053Z AUTO 05012KT 10SM CLR M01/M04 A2955 RMK AO2 SLP006 T10061044 58013 TSNO,PAKW,2019-01-05T20:53:00Z,55.58,-133.07,-0.6,-4.4,50,12,,10.0,29.551182,1000.6,,TRUE,TRUE,,,TRUE,,,,CLR,,,,,,,,VFR,-1.3,,,,,,,,,,,METAR,15.0
PADQ 052053Z VRB03KT 10SM CLR M01/M07 A2983 RMK AO2 SLP102 T10111067 58002 $,PADQ,2019-01-05T20:53:00Z,57.75,-152.5,-1.1,-6.7,0,3,,10.0,29.828741,1010.2,,,TRUE,TRUE,,,,,,CLR,,,,,,,,VFR,-0.2,,,,,,,,,,,METAR,34.0
KEQY 052053Z AUTO 27012G16KT 10SM CLR 17/02 A2986 RMK AO2 SLP123 T01670017 53012,KEQY,2019-01-05T20:53:00Z,35.02,-80.62,16.7,1.7,270,12,16,10.0,29.861221,1012.3,,TRUE,TRUE,,,,,,,CLR,,,,,,,,VFR,1.2,,,,,,,,,,,METAR,212.0
KESF 052053Z AUTO 20005KT 10SM CLR 18/02 A3015 RMK AO2 SLP210 T01830022 56010,KESF,2019-01-05T20:53:00Z,31.4,-92.28,18.3,2.2,200,5,,10.0,30.15059,1021.0,,TRUE,TRUE,,,,,,,CLR,,,,,,,,VFR,-1.0,,,,,,,,,,,METAR,28.0
KEVW 052053Z AUTO 09010KT 10SM CLR M02/M09 A2994 RMK AO2 SLP145 T10171094 58020 $,KEVW,2019-01-05T20:53:00Z,41.27,-111.03,-1.7,-9.4,90,10,,10.0,29.940945,1014.5,,TRUE,TRUE,TRUE,,,,,,CLR,,,,,,,,VFR,-2.0,,,,,,,,,,,SPECI,2177.0
KEWB 052053Z 02010G17KT 2SM -RA BR OVC005 06/06 A2940 RMK AO2 SLP958 P0001 60001 T00560056 56018 $,KEWB,2019-01-05T20:53:00Z,41.68,-70.95,5.6,5.6,20,10,17,2.0,29.40059,995.8,,,TRUE,TRUE,,,,,-RA BR,OVC,500,,,,,,,IFR,-1.8,,,,,0.01,0.01,,,,,METAR,23.0
KEYE 052053Z AUTO 24006KT 10SM CLR 13/03 A2992 RMK AO2 SLP134 T01280028 53002,KEYE,2019-01-05T20:53:00Z,39.83,-86.3,12.8,2.8,240,6,,10.0,29.920275,1013.4,,TRUE,TRUE,,,,,,,CLR,,,,,,,,VFR,0.2,,,,,,,,,,,METAR,248.0
KEYW 052053Z 34013KT 10SM CLR 25/18 A3005 RMK AO2 SLP175 T02500183 55003,KEYW,2019-01-05T20:53:00Z,24.55,-81.75,25.0,18.3,340,13,,10.0,30.050198,1017.5,,,TRUE,,,,,,,CLR,,,,,,,,VFR,-0.3,,,,,,,,,,,METAR,5.0
KFAY 052053Z 28011G17KT 10SM CLR 17/03 A2981 RMK AO2 SLP087 T01720033 53013,KFAY,2019-01-05T20:53:00Z,34.98,-78.88,17.2,3.3,280,11,17,10.0,29.811024,1008.7,,,TRUE,,,,,,,CLR,,,,,,,,VFR,1.3,,,,,,,,,,,METAR,55.0
TJNR 052053Z AUTO 10008KT 10SM CLR 27/21 A3007 RMK AO2 SLP181 T02670206 55001,TJNR,2019-01-05T20:53:00Z,18.25,-65.63,26.7,20.6,100,8,,10.0,30.070866,1018.1,,TRUE,TRUE,,,,,,,CLR,,,,,,,,VFR,-0.1,,,,,,,,,,,METAR,12.0
KFAT 052053Z 09012KT 10SM OVC120 14/02 A2983 RMK AO2 SLP100 T01390022 58018,KFAT,2019-01-05T20:53:00Z,36.78,-119.72,13.9,2.2,90,12,,10.0,29.828741,1010.0,,,TRUE,,,,,,,OVC,12000,,,,,,,VFR,-1.8,,,,,,,,,,,METAR,104.0
PAWD 052053Z AUTO 10SM CLR M09/M13 A2981 RMK SLP094 T10941133 50001 TSNO $ VIA AUTODIAL,PAWD,2019-01-05T20:53:00Z,60.12,-149.42,-9.4,-13.3,,,,10.0,29.811024,1009.4,,TRUE,,TRUE,,TRUE,,,,CLR,,,,,,,,VFR,0.1,,,,,,,,,,,SPECI,23.0
KNQX 052053Z 34014KT 10SM FEW025 BKN150 BKN250 24/17 A3005 RMK SLP174 T02440167 55002,KNQX,2019-01-05T20:53:00Z,24.57,-81.67,24.4,16.7,340,14,,10.0,30.050198,1017.4,,,,,,,,,,FEW,2500,BKN,15000,BKN,25000,,,VFR,-0.2,,,,,,,,,,,METAR,2.0
KDXR 052053Z 33005KT 10SM -RA BKN011 OVC021 06/04 A2949 RMK AO2 SLP986 P0007 60040 T00610039 53018,KDXR,2019-01-05T20:53:00Z,41.37,-73.48,6.1,3.9,330,5,,10.0,29.489174,998.6,,,TRUE,,,,,,-RA,BKN,1100,OVC,2100,,,,,MVFR,1.8,,,,,0.07,0.4,,,,,METAR,139.0
KDWH 052053Z 23004KT 10SM CLR 21/03 A3013 RMK AO2 SLP203 T02110028 56021,KDWH,2019-01-05T20:53:00Z,30.07,-95.55,21.1,2.8,230,4,,10.0,30.129921,1020.3,,,TRUE,,,,,,,CLR,,,,,,,,VFR,-2.1,,,,,,,,,,,METAR,46.0
KDVT 052053Z 17004KT 10SM CLR 18/M01 A2997 RMK AO2 SLP141 T01781011 56025 $,KDVT,2019-01-05T20:53:00Z,33.68,-112.07,17.8,-1.1,170,4,,10.0,29.970472,1014.1,,,TRUE,TRUE,,,,,,CLR,,,,,,,,VFR,-2.5,,,,,,,,,,,METAR,443.0
KDUJ 052053Z AUTO 28013KT 10SM CLR 07/M01 A2970 RMK AO2 SLP067 T00721006 53024,KDUJ,2019-01-05T20:53:00Z,41.17,-78.9,7.2,-0.6,280,13,,10.0,29.698818,1006.7,,TRUE,TRUE,,,,,,,CLR,,,,,,,,VFR,2.4,,,,,,,,,,,SPECI,554.0
KDTW 052053Z 23011KT 10SM FEW250 09/01 A2977 RMK AO2 SLP086 T00940011 53003,KDTW,2019-01-05T20:53:00Z,42.23,-83.33,9.4,1.1,230,11,,10.0,29.769686,1008.6,,,TRUE,,,,,,,FEW,25000,,,,,,,VFR,0.3,,,,,,,,,,,SPECI,195.0
KDTS 052053Z 35005KT 10SM CLR 26/04 A3011 RMK AO2 SLP195 T02610044 56007,KDTS,2019-01-05T20:53:00Z,30.4,-86.47,26.1,4.4,350,5,,10.0,30.109253,1019.5,,,TRUE,,,,,,,CLR,,,,,,,,VFR,-0.7,,,,,,,,,,,METAR,5.0
KLOU 052053Z 23010KT 10SM CLR 14/03 A2999 RMK AO2 SLP157 T01390028 52005,KLOU,2019-01-05T20:53:00Z,38.22,-85.67,13.9,2.8,230,10,,10.0,29.991142,1015.7,,,TRUE,,,,,,,CLR,,,,,,,,VFR,0.5,,,,,,,,,,,METAR,164.0
KLOL 052053Z AUTO 06006KT 10SM CLR 01/M04 A2970 RMK AO2 SLP080 T00061039 58029,KLOL,2019-01-05T20:53:00Z,40.07,-118.57,0.6,-3.9,60,6,,10.0,29.698818,1008.0,,TRUE,TRUE,,,,,,,CLR,,,,,,,,VFR,-2.9,,,,,,,,,,,SPECI,1189.0
KLNS 052053Z 31011KT 10SM FEW017 SCT047 09/06 A2960 RMK AO2 RAE07 SLP023 P0000 60002 T00890061 51022,KLNS,2019-01-05T20:53:00Z,40.12,-76.3,8.9,6.1,310,11,,10.0,29.601377,1002.3,,,TRUE,,,,,,,FEW,1700,SCT,4700,,,,,VFR,2.2,,,,,0.005,0.02,,,,,METAR,125.0
KLND 052053Z AUTO 00000KT 9SM CLR M04/M08 A2992 RMK AO2 SLP182 T10391083 56021,KLND,2019-01-05T20:53:00Z,42.82,-108.73,-3.9,-8.3,0,0,,9.0,29.920275,1018.2,,TRUE,TRUE,,,,,,,CLR,,,,,,,,VFR,-2.1,,,,,,,,,,,METAR,1694.0
KLMT 052053Z 16024G31KT 10SM BKN055 07/M03 A2950 RMK AO2 PK WND 16031/2052 SLP982 T00721033 58028,KLMT,2019-01-05T20:53:00Z,42.15,-121.72,7.2,-3.3,160,24,31,10.0,29.500984,998.2,,,TRUE,,,,,,,BKN,5500,,,,,,,VFR,-2.8,,,,,,,,,,,SPECI,1246.0
KLLQ 052053Z AUTO 21005KT 10SM CLR 17/03 A3011 RMK AO2 SLP197 T01720028 56007,KLLQ,2019-01-05T20:53:00Z,33.63,-91.75,17.2,2.8,210,5,,10.0,30.109253,1019.7,,TRUE,TRUE,,,,,,,CLR,,,,,,,,VFR,-0.7,,,,,,,,,,,METAR,83.0
KLIT 052053Z 20005KT 10SM CLR 17/03 A3010 RMK AO2 SLP193 T01670028 55010,KLIT,2019-01-05T20:53:00Z,34.73,-92.23,16.7,2.8,200,5,,10.0,30.100393,1019.3,,,TRUE,,,,,,,CLR,,,,,,,,VFR,-1.0,,,,,,,,,,,METAR,79.0
KLHX 052053Z AUTO 26006KT 10SM CLR 19/M06 A2990 RMK AO2 SLP106 T01941061 56021,KLHX,2019-01-05T20:53:00Z,38.05,-103.52,19.4,-6.1,260,6,,10.0,29.899607,1010.6,,TRUE,TRUE,,,,,,,CLR,,,,,,,,VFR,-2.1,,,,,,,,,,,METAR,1277.0
KLHQ 052053Z AUTO 23008KT 10SM CLR 09/04 A2989 RMK AO2 SLP123 T00890039 51010,KLHQ,2019-01-05T20:53:00Z,39.75,-82.67,8.9,3.9,230,8,,10.0,29.890747,1012.3,,TRUE,TRUE,,,,,,,CLR,,,,,,,,VFR,1.0,,,,,,,,,,,SPECI,260.0
KLGB 052053Z 14006KT 10SM BKN023 BKN030 BKN035 15/09 A2997 RMK AO2 SLP149 T01500094 56022,KLGB,2019-01-05T20:53:00Z,33.82,-118.15,15.0,9.4,140,6,,10.0,29.970472,1014.9,,,TRUE,,,,,,,BKN,2300,BKN,3000,BKN,3500,,,MVFR,-2.2,,,,,,,,,,,SPECI,10.0
KLFT 052053Z VRB03KT 10SM CLR 19/09 A3017 RMK AO2 SLP217 T01890089 55009,KLFT,2019-01-05T20:53:00Z,30.2,-92.0,18.9,8.9,0,3,,10.0,30.171259,1021.7,,,TRUE,,,,,,,CLR,,,,,,,,VFR,-0.9,,,,,,,,,,,METAR,11.0
KLFK 052053Z AUTO 18005KT 10SM CLR 19/06 A3013 RMK AO2 SLP201 T01940061 56017,KLFK,2019-01-05T20:53:00Z,31.23,-94.75,19.4,6.1,180,5,,10.0,30.129921,1020.1,,TRUE,TRUE,,,,,,,CLR,,,,,,,,VFR,-1.7,,,,,,,,,,,SPECI,88.0
KLEB 052053Z 35004KT 10SM CLR 02/M04 A2955 RMK AO2 SLP016 T00221039 55004,KLEB,2019-01-05T20:53:00Z,43.63,-72.3,2.2,-3.9,350,4,,10.0,29.551182,1001.6,,,TRUE,,,,,,,CLR,,,,,,,,VFR,-0.4,,,,,,,,,,,METAR,171.0
KLCH 052053Z 25006KT 10SM CLR 19/17 A3018 RMK AO2 SLP226 T01890172 55010,KLCH,2019-01-05T20:53:00Z,30.13,-93.22,18.9,17.2,250,6,,10.0,30.180119,1022.6,,,TRUE,,,,,,,CLR,,,,,,,,VFR,-1.0,,,,,,,,,,,METAR,4.0
KLBX 052053Z AUTO 17008KT 10SM CLR 21/08 A3014 RMK AO2 SLP207 T02060078 56024,KLBX,2019-01-05T20:53:00Z,29.12,-95.47,20.6,7.8,170,8,,10.0,30.138779,1020.7,,TRUE,TRUE,,,,,,,CLR,,,,,,,,VFR,-2.4,,,,,,,,,,,SPECI,6.0
KLBF 052053Z AUTO 06006KT 10SM CLR 12/01 A2997 RMK AO2 SLP157 T01220006 55008,KLBF,2019-01-05T20:53:00Z,41.12,-100.67,12.2,0.6,60,6,,10.0,29.970472,1015.7,,TRUE,TRUE,,,,,,,CLR,,,,,,,,VFR,-0.8,,,,,,,,,,,SPECI,847.0
KLBB 052053Z 19010KT 10SM FEW250 20/M07 A3002 RMK AO2 SLP149 T02001072 56023,KLBB,2019-01-05T20:53:00Z,33.67,-101.82,20.0,-7.2,190,10,,10.0,30.02067,1014.9,,,TRUE,,,,,,,FEW,25000,,,,,,,VFR,-2.3,,,,,,,,,,,METAR,993.0
KLAW 052053Z 17007KT 10SM CLR 14/07 A3002 RMK AO2 SLP169 T01390072 56026,KLAW,2019-01-05T20:53:00Z,34.55,-98.42,13.9,7.2,170,7,,10.0,30.02067,1016.9,,,TRUE,,,,,,,CLR,,,,,,,,VFR,-2.6,,,,,,,,,,,METAR,337.0
KLAR 052053Z AUTO 23016G21KT 10SM CLR 08/M10 A2998 RMK AO2 SLP115 T00831100 56018,KLAR,2019-01-05T20:53:00Z,41.32,-105.67,8.3,-10.0,230,16,21,10.0,29.97933,1011.5,,TRUE,TRUE,,,,,,,CLR,,,,,,,,VFR,-1.8,,,,,,,,,,,SPECI,2216.0
KLAN 052053Z 25012KT 10SM CLR 10/02 A2976 RMK AO2 SLP085 T01000022 53001,KLAN,2019-01-05T20:53:00Z,42.78,-84.58,10.0,2.2,250,12,,10.0,29.760826,1008.5,,,TRUE,,,,,,,CLR,,,,,,,,VFR,0.1,,,,,,,,,,,METAR,264.0
KLAA 052053Z AUTO 22003KT 10SM CLR 17/M05 A2988 RMK AO2 SLP115 T01721050 56026 $,KLAA,2019-01-05T20:53:00Z,38.07,-102.68,17.2,-5.0,220,3,,10.0,29.878937,1011.5,,TRUE,TRUE,TRUE,,,,,,CLR,,,,,,,,VFR,-2.6,,,,,,,,,,,METAR,1119.0
KJLN 052053Z 24009KT 10SM CLR 16/03 A3005 RMK AO2 SLP176 T01610033 55005,KJLN,2019-01-05T20:53:00Z,37.15,-94.5,16.1,3.3,240,9,,10.0,30.050198,1017.6,,,TRUE,,,,,,,CLR,,,,,,,,VFR,-0.5,,,,,,,,,,,METAR,299.0
KJKL 052053Z AUTO 26008G15KT 220V290 10SM CLR 11/03 A2998 RMK AO2 SLP152 T01110028 53012,KJKL,2019-01-05T20:53:00Z,37.6,-83.32,11.1,2.8,260,8,15,10.0,29.97933,1015.2,,TRUE,TRUE,,,,,,,CLR,,,,,,,,VFR,1.2,,,,,,,,,,,METAR,416.0
KJER 052053Z AUTO 04017KT 10SM CLR 01/M04 A2978 RMK AO2 SLP106 T00111044 58026,KJER,2019-01-05T20:53:00Z,42.72,-114.45,1.1,-4.4,40,17,,10.0,29.778543,1010.6,,TRUE,TRUE,,,,,,,CLR,,,,,,,,VFR,-2.6,,,,,,,,,,,METAR,1222.0
KJEF 052053Z 25005KT 10SM CLR 17/03 A3002 RMK AO2 SLP156 T01670028 55005,KJEF,2019-01-05T20:53:00Z,38.6,-92.15,16.7,2.8,250,5,,10.0,30.02067,1015.6,,,TRUE,,,,,,,CLR,,,,,,,,VFR,-0.5,,,,,,,,,,,METAR,168.0
KJBR 052053Z AUTO 21009KT 10SM CLR 13/08 A3008 RMK AO2 SLP185 T01330078 55002,KJBR,2019-01-05T20:53:00Z,35.83,-90.65,13.3,7.8,210,9,,10.0,30.079725,1018.5,,TRUE,TRUE,,,,,,,CLR,,,,,,,,VFR,-0.2,,,,,,,,,,,METAR,79.0
KIXD 052053Z 19006KT 10SM CLR 15/03 A3001 RMK AO2 SLP163 T01500028 55006 $,KIXD,2019-01-05T20:53:00Z,38.82,-94.88,15.0,2.8,190,6,,10.0,30.008858,1016.3,,,TRUE,TRUE,,,,,,CLR,,,,,,,,VFR,-0.6,,,,,,,,,,,METAR,342.0
KPUW 052053Z AUTO 12014KT 10SM CLR 04/M01 A2962 RMK AO2 SLP043 T00391011 58033,KPUW,2019-01-05T20:53:00Z,46.75,-117.12,3.9,-1.1,120,14,,10.0,29.619095,1004.3,,TRUE,TRUE,,,,,,,CLR,,,,,,,,VFR,-3.3,,,,,,,,,,,METAR,773.0
KPUB 052053Z 27007KT 10SM CLR 18/M08 A2990 RMK AO2 SLP111 T01831078 56021,KPUB,2019-01-05T20:53:00Z,38.28,-104.5,18.3,-7.8,270,7,,10.0,29.899607,1011.1,,,TRUE,,,,,,,CLR,,,,,,,,VFR,-2.1,,,,,,,,,,,METAR,1420.0
KPTK 052053Z 24009KT 10SM FEW250 08/01 A2974 RMK AO2 SLP077 T00830011 53004,KPTK,2019-01-05T20:53:00Z,42.67,-83.42,8.3,1.1,240,9,,10.0,29.740158,1007.7,,,TRUE,,,,,,,FEW,25000,,,,,,,VFR,0.4,,,,,,,,,,,METAR,299.0
KPSX 052053Z AUTO 17008KT 10SM CLR 21/06 A3014 RMK AO2 SLP205 T02110056 56025,KPSX,2019-01-05T20:53:00Z,28.72,-96.25,21.1,5.6,170,8,,10.0,30.138779,1020.5,,TRUE,TRUE,,,,,,,CLR,,,,,,,,VFR,-2.5,,,,,,,,,,,METAR,5.0
KPSP 052053Z 11004KT 10SM SCT110 14/M05 A3000 RMK AO2 SLP161 T01441050 56021,KPSP,2019-01-05T20:53:00Z,33.82,-116.5,14.4,-5.0,110,4,,10.0,30.0,1016.1,,,TRUE,,,,,,,SCT,11000,,,,,,,VFR,-2.1,,,,,,,,,,,METAR,135.0
KEEO 052053Z AUTO 00000KT 10SM CLR M01/M08 A3006 RMK AO2 SLP234 I3001 T10111078 55015,KEEO,2019-01-05T20:53:00Z,40.05,-107.88,-1.1,-7.8,0,0,,10.0,30.059055,1023.4,,TRUE,TRUE,,,,,,,CLR,,,,,,,,VFR,-1.5,,,,,,,,,,,METAR,1930.0
KECP 052053Z 31012KT 10SM CLR 17/06 A3009 RMK AO2 SLP201 T01720056 56004,KECP,2019-01-05T20:53:00Z,30.35,-85.8,17.2,5.6,310,12,,10.0,30.088583,1020.1,,,TRUE,,,,,,,CLR,,,,,,,,VFR,-0.4,,,,,,,,,,,METAR,21.0
KEET 052053Z AUTO 30009KT 10SM CLR 16/03 A3011 RMK AO2 SLP194 T01560033 55001,KEET,2019-01-05T20:53:00Z,33.18,-86.78,15.6,3.3,300,9,,10.0,30.109253,1019.4,,TRUE,TRUE,,,,,,,CLR,,,,,,,,VFR,-0.1,,,,,,,,,,,METAR,173.0
KELN 052053Z AUTO 35003KT 10SM CLR 04/00 A2955 RMK AO2 SLP017 T00440000 58036,KELN,2019-01-05T20:53:00Z,47.03,-120.53,4.4,0.0,350,3,,10.0,29.551182,1001.7,,TRUE,TRUE,,,,,,,CLR,,,,,,,,VFR,-3.6,,,,,,,,,,,METAR,519.0
KELM 052053Z 02007KT 10SM CLR 06/01 A2965 RMK AO2 SLP047 T00610011 53024,KELM,2019-01-05T20:53:00Z,42.15,-76.9,6.1,1.1,20,7,,10.0,29.648623,1004.7,,,TRUE,,,,,,,CLR,,,,,,,,VFR,2.4,,,,,,,,,,,SPECI,302.0
KELD 052053Z AUTO 20006KT 10SM CLR 18/05 A3012 RMK AO2 SLP200 T01830050 56010,KELD,2019-01-05T20:53:00Z,33.22,-92.82,18.3,5.0,200,6,,10.0,30.121063,1020.0,,TRUE,TRUE,,,,,,,CLR,,,,,,,,VFR,-1.0,,,,,,,,,,,METAR,81.0
KEMP 052053Z AUTO 20008KT 10SM CLR 17/01 A2999 RMK AO2 SLP160 T01670011 55010,KEMP,2019-01-05T20:53:00Z,38.33,-96.2,16.7,1.1,200,8,,10.0,29.991142,1016.0,,TRUE,TRUE,,,,,,,CLR,,,,,,,,VFR,-1.0,,,,,,,,,,,METAR,367.0
KENW 052053Z 26009KT 10SM CLR 10/03 A2982 RMK AO2 SLP104 T01000033 53013,KENW,2019-01-05T20:53:00Z,42.6,-87.93,10.0,3.3,260,9,,10.0,29.819881,1010.4,,,TRUE,,,,,,,CLR,,,,,,,,VFR,1.3,,,,,,,,,,,SPECI,219.0
KEPH 052053Z AUTO 05006KT 10SM CLR 07/M01 A2957 RMK AO2 SLP022 T00671006 $,KEPH,2019-01-05T20:53:00Z,47.3,-119.52,6.7,-0.6,50,6,,10.0,29.568897,1002.2,,TRUE,TRUE,TRUE,,,,,,CLR,,,,,,,,VFR,,,,,,,,,,,,METAR,383.0
MMEP 052052Z 22007KT 12SM SCT250 30/18 A3005 RMK SLP167 55008 915 8/009,MMEP,2019-01-05T20:52:00Z,21.42,-104.85,30.0,18.0,220,7,,12.0,30.050198,1016.7,,,,,,,,,,SCT,25000,,,,,,,VFR,-0.8,,,,,,,,,,,SPECI,922.0
OIHH 052052Z 11006KT 7000 NSC M03/M03 Q1018,OIHH,2019-01-05T20:52:00Z,34.87,48.55,-3.0,-3.0,110,6,,4.35,30.059055,,,,,,,,,,,CLR,,,,,,,,MVFR,,,,,,,,,,,,METAR,1757.0
OICS 052052Z 00000KT 9999 FEW040 BKN100 02/M01 Q1016,OICS,2019-01-05T20:52:00Z,35.25,47.02,2.0,-1.0,0,0,,6.21,30.0,,,,,,,,,,,FEW,4000,BKN,10000,,,,,VFR,,,,,,,,,,,,METAR,1373.0
PTPN 052052Z 13003KT 15SM SCT018 OVC300 26/25 A2980 ,PTPN,2019-01-05T20:52:00Z,6.97,158.22,26.0,25.0,130,3,,15.0,29.799213,,,,,,,,,,,SCT,1800,OVC,30000,,,,,VFR,,,,,,,,,,,,METAR,2.0
KFIT 052052Z AUTO 35007KT 10SM -RA FEW014 BKN034 OVC055 03/01 A2952 RMK AO2 SLP000 P0000 60001 T00280006 55003,KFIT,2019-01-05T20:52:00Z,42.55,-71.75,2.8,0.6,350,7,,10.0,29.518702,1000.0,,TRUE,TRUE,,,,,,-RA,FEW,1400,BKN,3400,OVC,5500,,,VFR,-0.3,,,,,0.005,,,,,,SPECI,103.0
KDDC 052052Z AUTO 19012KT 10SM CLR 16/M01 A2993 RMK AO2 SLP131 T01561011 56023,KDDC,2019-01-05T20:52:00Z,37.77,-99.97,15.6,-1.1,190,12,,10.0,29.929134,1013.1,,TRUE,TRUE,,,,,,,CLR,,,,,,,,VFR,-2.3,,,,,,,,,,,METAR,789.0
KDCA 052052Z 31009KT 10SM FEW025 SCT049 SCT075 12/05 A2966 RMK AO2 PK WND 31027/2017 SLP044 60001 T01220050 53033,KDCA,2019-01-05T20:52:00Z,38.85,-77.03,12.2,5.0,310,9,,10.0,29.660433,1004.4,,,TRUE,,,,,,,FEW,2500,SCT,4900,SCT,7500,,,VFR,3.3,,,,,,0.01,,,,,METAR,18.0
KCVG 052052Z 22009KT 10SM FEW250 11/03 A2994 RMK AO2 SLP138 T01110028 53004,KCVG,2019-01-05T20:52:00Z,39.05,-84.67,11.1,2.8,220,9,,10.0,29.940945,1013.8,,,TRUE,,,,,,,FEW,25000,,,,,,,VFR,0.4,,,,,,,,,,,METAR,269.0
KCNU 052052Z AUTO 18008KT 10SM CLR 16/00 A3003 RMK AO2 SLP168 T01610000 55009,KCNU,2019-01-05T20:52:00Z,37.67,-95.48,16.1,0.0,180,8,,10.0,30.029528,1016.8,,TRUE,TRUE,,,,,,,CLR,,,,,,,,VFR,-0.9,,,,,,,,,,,METAR,297.0
KCLT 052052Z 26007KT 10SM CLR 17/02 A2989 RMK AO2 SLP119 T01720017 53015 $,KCLT,2019-01-05T20:52:00Z,35.22,-80.95,17.2,1.7,260,7,,10.0,29.890747,1011.9,,,TRUE,TRUE,,,,,,CLR,,,,,,,,VFR,1.5,,,,,,,,,,,METAR,220.0
KCKV 052052Z AUTO 29006KT 10SM CLR 15/02 A3005 RMK AO2 SLP177 T01500022 53002,KCKV,2019-01-05T20:52:00Z,36.62,-87.42,15.0,2.2,290,6,,10.0,30.050198,1017.7,,TRUE,TRUE,,,,,,,CLR,,,,,,,,VFR,0.2,,,,,,,,,,,METAR,165.0
KCFV 052052Z AUTO 18005KT 10SM CLR 16/06 A3003 RMK AO2 SLP172 T01560056 56008,KCFV,2019-01-05T20:52:00Z,37.08,-95.57,15.6,5.6,180,5,,10.0,30.029528,1017.2,,TRUE,TRUE,,,,,,,CLR,,,,,,,,VFR,-0.8,,,,,,,,,,,METAR,225.0
KBML 052052Z AUTO 00000KT 10SM CLR M01/M03 A2955 RMK AO2 SLP025 T10061033 55006,KBML,2019-01-05T20:52:00Z,44.58,-71.18,-0.6,-3.3,0,0,,10.0,29.551182,1002.5,,TRUE,TRUE,,,,,,,CLR,,,,,,,,VFR,-0.6,,,,,,,,,,,METAR,345.0
KBLH 052052Z AUTO 13005KT 10SM SCT065 BKN090 OVC110 08/M03 A3002 RMK AO2 SLP164 T00831028 56013 $,KBLH,2019-01-05T20:52:00Z,33.62,-114.72,8.3,-2.8,130,5,,10.0,30.02067,1016.4,,TRUE,TRUE,TRUE,,,,,,SCT,6500,BKN,9000,OVC,11000,,,VFR,-1.3,,,,,,,,,,,METAR,119.0
KBLF 052052Z AUTO 28011G20KT 10SM CLR 07/M01 A2989 RMK AO2 SLP124 T00671006 53016,KBLF,2019-01-05T20:52:00Z,37.3,-81.2,6.7,-0.6,280,11,20,10.0,29.890747,1012.4,,TRUE,TRUE,,,,,,,CLR,,,,,,,,VFR,1.6,,,,,,,,,,,METAR,873.0
KBIS 052052Z 36003KT 10SM OVC008 M01/M02 A3002 RMK AO2 SLP185 T10061017 52010,KBIS,2019-01-05T20:52:00Z,46.77,-100.75,-0.6,-1.7,360,3,,10.0,30.02067,1018.5,,,TRUE,,,,,,,OVC,800,,,,,,,IFR,1.0,,,,,,,,,,,SPECI,505.0
KATL 052052Z 31012KT 10SM CLR 15/02 A3004 RMK AO2 SLP171 T01500022 53007,KATL,2019-01-05T20:52:00Z,33.63,-84.45,15.0,2.2,310,12,,10.0,30.041338,1017.1,,,TRUE,,,,,,,CLR,,,,,,,,VFR,0.7,,,,,,,,,,,METAR,296.0
KALS 052052Z AUTO 22003KT 7SM CLR M09/M12 A3017 RMK AO2 SLP332 T10891122 55018,KALS,2019-01-05T20:52:00Z,37.43,-105.87,-8.9,-12.2,220,3,,7.0,30.171259,1033.2,,TRUE,TRUE,,,,,,,CLR,,,,,,,,VFR,-1.8,,,,,,,,,,,METAR,2299.0
KABQ 052052Z 00000KT 10SM FEW180 BKN220 OVC300 03/M06 A3016 RMK AO2 SLP228 T00281056 56023,KABQ,2019-01-05T20:52:00Z,35.05,-106.62,2.8,-5.6,0,0,,10.0,30.159449,1022.8,,,TRUE,,,,,,,FEW,18000,BKN,22000,OVC,30000,,,VFR,-2.3,,,,,,,,,,,METAR,1618.0
KABI 052052Z 19010KT 10SM CLR 21/00 A3004 RMK AO2 SLP163 T02110000 56026,KABI,2019-01-05T20:52:00Z,32.42,-99.68,21.1,0.0,190,10,,10.0,30.041338,1016.3,,,TRUE,,,,,,,CLR,,,,,,,,VFR,-2.6,,,,,,,,,,,METAR,548.0
KSPI 052052Z 25009KT 10SM CLR 13/05 A2997 RMK AO2 SLP151 T01280050 55001,KSPI,2019-01-05T20:52:00Z,39.85,-89.68,12.8,5.0,250,9,,10.0,29.970472,1015.1,,,TRUE,,,,,,,CLR,,,,,,,,VFR,-0.1,,,,,,,,,,,METAR,181.0
KSGF 052052Z 27008KT 10SM CLR 17/03 A3003 RMK AO2 SLP171 T01720028 55004,KSGF,2019-01-05T20:52:00Z,37.23,-93.38,17.2,2.8,270,8,,10.0,30.029528,1017.1,,,TRUE,,,,,,,CLR,,,,,,,,VFR,-0.4,,,,,,,,,,,METAR,390.0
KRAP 052052Z 13009KT 10SM CLR 07/M02 A2996 RMK AO2 SLP163 T00671022 56015,KRAP,2019-01-05T20:52:00Z,44.05,-103.05,6.7,-2.2,130,9,,10.0,29.958662,1016.3,,,TRUE,,,,,,,CLR,,,,,,,,VFR,-1.5,,,,,,,,,,,METAR,965.0
KPPF 052052Z AUTO 20006KT 10SM CLR 16/04 A3004 RMK AO2 SLP173 T01610044 56008,KPPF,2019-01-05T20:52:00Z,37.33,-95.5,16.1,4.4,200,6,,10.0,30.041338,1017.3,,TRUE,TRUE,,,,,,,CLR,,,,,,,,VFR,-0.8,,,,,,,,,,,METAR,274.0
KOMA 052052Z 01009KT 10SM FEW250 11/03 A2997 RMK AO2 SLP153 T01110028 53002,KOMA,2019-01-05T20:52:00Z,41.32,-95.9,11.1,2.8,10,9,,10.0,29.970472,1015.3,,,TRUE,,,,,,,FEW,25000,,,,,,,VFR,0.2,,,,,,,,,,,METAR,312.0
KOKC 052052Z 17007KT 10SM FEW250 14/03 A3002 RMK AO2 SLP168 T01390033 56019 $,KOKC,2019-01-05T20:52:00Z,35.38,-97.6,13.9,3.3,170,7,,10.0,30.02067,1016.8,,,TRUE,TRUE,,,,,,FEW,25000,,,,,,,VFR,-1.9,,,,,,,,,,,METAR,390.0
KOKB 052052Z AUTO VRB05KT 10SM FEW075 OVC100 14/09 A2998 RMK AO2 SLP151 T01440094 56021,KOKB,2019-01-05T20:52:00Z,33.22,-117.35,14.4,9.4,0,5,,10.0,29.97933,1015.1,,TRUE,TRUE,,,,,,,FEW,7500,OVC,10000,,,,,VFR,-2.1,,,,,,,,,,,METAR,8.0
KMWH 052052Z 02003KT 10SM CLR 06/01 A2958 RMK AO2 SLP023 T00610006 58036,KMWH,2019-01-05T20:52:00Z,47.2,-119.32,6.1,0.6,20,3,,10.0,29.58071,1002.3,,,TRUE,,,,,,,CLR,,,,,,,,VFR,-3.6,,,,,,,,,,,METAR,362.0
KMHK 052052Z 23005KT 10SM CLR 17/03 A2999 RMK AO2 SLP157 T01720028 56009,KMHK,2019-01-05T20:52:00Z,39.13,-96.68,17.2,2.8,230,5,,10.0,29.991142,1015.7,,,TRUE,,,,,,,CLR,,,,,,,,VFR,-0.9,,,,,,,,,,,METAR,317.0
KMFD 052052Z 22011KT 10SM CLR 08/02 A2981 RMK AO2 SLP104 T00780022 51006,KMFD,2019-01-05T20:52:00Z,40.82,-82.52,7.8,2.2,220,11,,10.0,29.811024,1010.4,,,TRUE,,,,,,,CLR,,,,,,,,VFR,0.6,,,,,,,,,,,METAR,395.0
KMEB 052052Z AUTO 32011KT 10SM CLR 17/04 A2985 RMK AO2 SLP105 T01670039 53014 $,KMEB,2019-01-05T20:52:00Z,34.78,-79.37,16.7,3.9,320,11,,10.0,29.84941,1010.5,,TRUE,TRUE,TRUE,,,,,,CLR,,,,,,,,VFR,1.4,,,,,,,,,,,METAR,67.0
KMDH 052052Z 24004KT 10SM CLR 14/04 A3002 RMK AO2 SLP167 T01440039 56003,KMDH,2019-01-05T20:52:00Z,37.78,-89.25,14.4,3.9,240,4,,10.0,30.02067,1016.7,,,TRUE,,,,,,,CLR,,,,,,,,VFR,-0.3,,,,,,,,,,,METAR,130.0
KMBG 052052Z AUTO 35003KT 10SM CLR 08/M02 A2996 RMK AO2 SLP159 T00781017 58001,KMBG,2019-01-05T20:52:00Z,45.55,-100.42,7.8,-1.7,350,3,,10.0,29.958662,1015.9,,TRUE,TRUE,,,,,,,CLR,,,,,,,,VFR,-0.1,,,,,,,,,,,METAR,510.0
KLWC 052052Z AUTO 19004KT 10SM CLR 17/01 A3000 RMK AO2 SLP160 T01670011 55009,KLWC,2019-01-05T20:52:00Z,39.02,-95.22,16.7,1.1,190,4,,10.0,30.0,1016.0,,TRUE,TRUE,,,,,,,CLR,,,,,,,,VFR,-0.9,,,,,,,,,,,METAR,253.0
KIJD 052052Z AUTO 01009KT 4SM RA BR OVC011 04/04 A2947 RMK AO2 SLP981 P0030 60046 T00390039 51016,KIJD,2019-01-05T20:52:00Z,41.75,-72.18,3.9,3.9,10,9,,4.0,29.471457,998.1,,TRUE,TRUE,,,,,,RA BR,OVC,1100,,,,,,,MVFR,1.6,,,,,0.3,0.46,,,,,METAR,75.0
KIEN 052052Z AUTO 06007KT 10SM CLR 09/00 A2996 RMK AO2 SLP156 T00940000 56012,KIEN,2019-01-05T20:52:00Z,43.03,-102.52,9.4,0.0,60,7,,10.0,29.958662,1015.6,,TRUE,TRUE,,,,,,,CLR,,,,,,,,VFR,-1.2,,,,,,,,,,,METAR,998.0
KIAD 052052Z 32012KT 10SM FEW060 12/04 A2968 RMK AO2 PK WND 31027/1958 SLP049 60002 T01170044 53030 $,KIAD,2019-01-05T20:52:00Z,38.93,-77.45,11.7,4.4,320,12,,10.0,29.681103,1004.9,,,TRUE,TRUE,,,,,,FEW,6000,,,,,,,VFR,3.0,,,,,,0.02,,,,,METAR,93.0
KHUT 052052Z 17007KT 10SM CLR 17/03 A2997 RMK AO2 SLP146 T01670028 56015,KHUT,2019-01-05T20:52:00Z,38.07,-97.87,16.7,2.8,170,7,,10.0,29.970472,1014.6,,,TRUE,,,,,,,CLR,,,,,,,,VFR,-1.5,,,,,,,,,,,METAR,467.0
KHRL 052052Z 12010G18KT 10SM CLR 25/10 A3010 RMK AO2 SLP193 T02500100 56027,KHRL,2019-01-05T20:52:00Z,26.23,-97.65,25.0,10.0,120,10,18,10.0,30.100393,1019.3,,,TRUE,,,,,,,CLR,,,,,,,,VFR,-2.7,,,,,,,,,,,METAR,10.0
KHIE 052052Z AUTO 30003KT 10SM CLR 01/M02 A2955 RMK AO2 SLP022 T00061017 55004,KHIE,2019-01-05T20:52:00Z,44.37,-71.55,0.6,-1.7,300,3,,10.0,29.551182,1002.2,,TRUE,TRUE,,,,,,,CLR,,,,,,,,VFR,-0.4,,,,,,,,,,,METAR,318.0
KGLS 052052Z 16006KT 10SM CLR 17/11 A3017 RMK AO2 SLP215 T01720111 56020,KGLS,2019-01-05T20:52:00Z,29.27,-94.87,17.2,11.1,160,6,,10.0,30.171259,1021.5,,,TRUE,,,,,,,CLR,,,,,,,,VFR,-2.0,,,,,,,,,,,METAR,6.0
KTRM 052052Z AUTO 00000KT 10SM FEW080 OVC100 14/02 A2999 RMK AO2 SLP155 T01390022 56019 TSNO,KTRM,2019-01-05T20:52:00Z,33.63,-116.17,13.9,2.2,0,0,,10.0,29.991142,1015.5,,TRUE,TRUE,,,TRUE,,,,FEW,8000,OVC,10000,,,,,VFR,-1.9,,,,,,,,,,,METAR,-35.0
KTOL 052052Z 23010KT 10SM CLR 10/02 A2982 RMK AO2 SLP101 T01000022 53006,KTOL,2019-01-05T20:52:00Z,41.58,-83.8,10.0,2.2,230,10,,10.0,29.819881,1010.1,,,TRUE,,,,,,,CLR,,,,,,,,VFR,0.6,,,,,,,,,,,METAR,210.0
KSUX 052052Z 32010KT 10SM CLR 09/02 A2998 RMK AO2 SLP162 T00890017 53004,KSUX,2019-01-05T20:52:00Z,42.38,-96.38,8.9,1.7,320,10,,10.0,29.97933,1016.2,,,TRUE,,,,,,,CLR,,,,,,,,VFR,0.4,,,,,,,,,,,METAR,338.0
KSPS 052052Z AUTO 18008KT 10SM CLR 17/04 A3002 RMK AO2 SLP164 T01720039 56026,KSPS,2019-01-05T20:52:00Z,33.98,-98.5,17.2,3.9,180,8,,10.0,30.02067,1016.4,,TRUE,TRUE,,,,,,,CLR,,,,,,,,VFR,-2.6,,,,,,,,,,,METAR,308.0
PATA 052052Z 25004KT 10SM OVC100 M30/M33 A3003 RMK AO2 SLP181 T13001328 52004 PNO,PATA,2019-01-05T20:52:00Z,65.17,-152.1,-30.0,-32.8,250,4,,10.0,30.029528,1018.1,,,TRUE,,,,,,,OVC,10000,,,,,,,VFR,0.4,,,,,,,,,,,METAR,67.0
KP69 052052Z AUTO 35004KT 03/02 A2973 RMK AO1 SLP086 T00280017 58034 $,KP69,2019-01-05T20:52:00Z,46.15,-115.6,2.8,1.7,350,4,,,29.731298,1008.6,,TRUE,TRUE,TRUE,,,,,,,,,,,,,,,-3.4,,,,,,,,,,,METAR,480.0
KPWK 052052Z 25007KT 10SM CLR 13/01 A2986 RMK AO2 SLP115 T01280006 53010,KPWK,2019-01-05T20:52:00Z,42.12,-87.9,12.8,0.6,250,7,,10.0,29.861221,1011.5,,,TRUE,,,,,,,CLR,,,,,,,,VFR,1.0,,,,,,,,,,,METAR,203.0
KMLI 052052Z 24008KT 10SM CLR 12/04 A2992 RMK AO2 SLP135 T01220039 53006,KMLI,2019-01-05T20:52:00Z,41.45,-90.52,12.2,3.9,240,8,,10.0,29.920275,1013.5,,,TRUE,,,,,,,CLR,,,,,,,,VFR,0.6,,,,,,,,,,,METAR,184.0
KMKE 052052Z 27010G19KT 10SM FEW200 FEW250 13/M01 A2981 RMK AO2 SLP098 T01331011 53009,KMKE,2019-01-05T20:52:00Z,42.95,-87.9,13.3,-1.1,270,10,19,10.0,29.811024,1009.8,,,TRUE,,,,,,,FEW,20000,FEW,25000,,,,,VFR,0.9,,,,,,,,,,,METAR,206.0
KIOW 052052Z AUTO 28008KT 10SM CLR 12/03 A2994 RMK AO2 SLP144 T01170028 53003,KIOW,2019-01-05T20:52:00Z,41.63,-91.55,11.7,2.8,280,8,,10.0,29.940945,1014.4,,TRUE,TRUE,,,,,,,CLR,,,,,,,,VFR,0.3,,,,,,,,,,,METAR,198.0
KDVN 052052Z AUTO 27009KT 10SM CLR 10/04 A2994 RMK AO2 SLP139 T01000039 53009,KDVN,2019-01-05T20:52:00Z,41.62,-90.58,10.0,3.9,270,9,,10.0,29.940945,1013.9,,TRUE,TRUE,,,,,,,CLR,,,,,,,,VFR,0.9,,,,,,,,,,,METAR,230.0
KDPA 052052Z 26011KT 10SM CLR 11/04 A2986 RMK AO2 SLP117 T01060039 53007,KDPA,2019-01-05T20:52:00Z,41.92,-88.25,10.6,3.9,260,11,,10.0,29.861221,1011.7,,,TRUE,,,,,,,CLR,,,,,,,,VFR,0.7,,,,,,,,,,,METAR,231.0
KCID 052052Z 30008KT 10SM CLR 10/04 A2992 RMK AO2 SLP139 T01000044 53008,KCID,2019-01-05T20:52:00Z,41.88,-91.72,10.0,4.4,300,8,,10.0,29.920275,1013.9,,,TRUE,,,,,,,CLR,,,,,,,,VFR,0.8,,,,,,,,,,,METAR,264.0
KARR 052052Z 24008KT 10SM CLR 10/05 A2988 RMK AO2 SLP122 T01000050 53004,KARR,2019-01-05T20:52:00Z,41.77,-88.48,10.0,5.0,240,8,,10.0,29.878937,1012.2,,,TRUE,,,,,,,CLR,,,,,,,,VFR,0.4,,,,,,,,,,,METAR,215.0
KNZY 052052Z 16014KT 10SM FEW030 BKN100 OVC200 16/11 A2999 RMK AO2 SLP156 T01610106 $,KNZY,2019-01-05T20:52:00Z,32.7,-117.22,16.1,10.6,160,14,,10.0,29.991142,1015.6,,,TRUE,TRUE,,,,,,FEW,3000,BKN,10000,OVC,20000,,,VFR,,,,,,,,,,,,METAR,8.0
MUCL 052052Z 13007KT 9000 FEW015 BKN060 26/20 Q1017,MUCL,2019-01-05T20:52:00Z,21.63,-81.55,26.0,20.0,130,7,,5.59,30.029528,,,,,,,,,,,FEW,1500,BKN,6000,,,,,VFR,,,,,,,,,,,,METAR,5.0
KNHK 052052Z 32022G28KT 10SM FEW026 BKN050 BKN200 11/04 A2963 RMK AO2 PK WND 32028/2050 SLP034 60000 T01110044 53031 $,KNHK,2019-01-05T20:52:00Z,38.27,-76.4,11.1,4.4,320,22,28,10.0,29.630905,1003.4,,,TRUE,TRUE,,,,,,FEW,2600,BKN,5000,BKN,20000,,,VFR,3.1,,,,,,0.005,,,,,METAR,12.0
KNRB 052052Z AUTO 27010G17KT 10SM CLR 14/08 A3000 RMK AO2 SLP157 T01440078 53003 TSNO $,KNRB,2019-01-05T20:52:00Z,30.38,-81.42,14.4,7.8,270,10,17,10.0,30.0,1015.7,,TRUE,TRUE,TRUE,,TRUE,,,,CLR,,,,,,,,VFR,0.3,,,,,,,,,,,METAR,5.0
PABA 052052Z AUTO 26007KT 10SM CLR M29/M32 A3008 RMK AO2 SLP171 T12891317 53016 FZRANO TSNO,PABA,2019-01-05T20:52:00Z,70.13,-143.58,-28.9,-31.7,260,7,,10.0,30.079725,1017.1,,TRUE,TRUE,,,TRUE,TRUE,,,CLR,,,,,,,,VFR,1.6,,,,,,,,,,,METAR,2.0
KREO 052052Z AUTO 00000KT M01/M05 A2966 RMK AO1 SLP069 T10111050 56031,KREO,2019-01-05T20:52:00Z,42.58,-117.87,-1.1,-5.0,0,0,,,29.660433,1006.9,,TRUE,TRUE,,,,,,,,,,,,,,,,-3.1,,,,,,,,,,,METAR,1235.0
KVTN 052052Z AUTO 07005KT 10SM CLR 12/M03 A2998 RMK AO2 SLP164 T01171028 55011,KVTN,2019-01-05T20:52:00Z,42.87,-100.55,11.7,-2.8,70,5,,10.0,29.97933,1016.4,,TRUE,TRUE,,,,,,,CLR,,,,,,,,VFR,-1.1,,,,,,,,,,,METAR,788.0
KEST 052052Z AUTO 33008KT 10SM CLR 06/01 A2997 RMK AO2 SLP159 T00560006 53013,KEST,2019-01-05T20:52:00Z,43.4,-94.75,5.6,0.6,330,8,,10.0,29.970472,1015.9,,TRUE,TRUE,,,,,,,CLR,,,,,,,,VFR,1.3,,,,,,,,,,,METAR,401.0
KBAN 052052Z AUTO 18004KT 10SM OVC090 10/M08 A2969 RMK AO2 SLP025 60000 T01001078 58027 $,KBAN,2019-01-05T20:52:00Z,38.35,-119.52,10.0,-7.8,180,4,,10.0,29.68996,1002.5,,TRUE,TRUE,TRUE,,,,,,OVC,9000,,,,,,,VFR,-2.7,,,,,,0.005,,,,,METAR,2057.0
KCZZ 052052Z AUTO 00000KT 09/02 A2999 RMK AO1 SLP150 P0002 60002 T00890017 56006,KCZZ,2019-01-05T20:52:00Z,32.63,-116.47,8.9,1.7,0,0,,,29.991142,1015.0,,TRUE,TRUE,,,,,,,,,,,,,,,,-0.6,,,,,0.02,0.02,,,,,METAR,807.0
KNFW 052052Z 17008KT 10SM CLR 23/M02 A3005 RMK AO2 SLP158 T02331022 56023 VISNO N $,KNFW,2019-01-05T20:52:00Z,32.78,-97.43,23.3,-2.2,170,8,,10.0,30.050198,1015.8,,,TRUE,TRUE,,,,,,CLR,,,,,,,,VFR,-2.3,,,,,,,,,,,METAR,198.0
KN60 052052Z AUTO 05004KT M03/M04 A3001 RMK AO1 SLP188 T10281044 53007,KN60,2019-01-05T20:52:00Z,47.65,-101.43,-2.8,-4.4,50,4,,,30.008858,1018.8,,TRUE,TRUE,,,,,,,,,,,,,,,,0.7,,,,,,,,,,,METAR,582.0
KAFN 052052Z AUTO VRB04KT 6SM -RA BR OVC038 01/01 A2951 RMK AO2 SLP007 P0001 60001 T00110011 53000,KAFN,2019-01-05T20:52:00Z,42.8,-72.0,1.1,1.1,0,4,,6.0,29.509842,1000.7,,TRUE,TRUE,,,,,,-RA BR,OVC,3800,,,,,,,VFR,0.0,,,,,0.01,0.01,,,,,METAR,313.0
KCDJ 052052Z AUTO 23006KT 15/03 A3000 RMK AO1 SLP165 T01500033 55000,KCDJ,2019-01-05T20:52:00Z,39.82,-93.58,15.0,3.3,230,6,,,30.0,1016.5,,TRUE,TRUE,,,,,,,,,,,,,,,,0.0,,,,,,,,,,,METAR,234.0
KLGA 052051Z 33015KT 5SM -RA BR FEW008 BKN010 OVC013 07/05 A2947 RMK AO2 DZE1958RAB1958 SLP977 P0005 60005 T00720050 53024,KLGA,2019-01-05T20:51:00Z,40.78,-73.88,7.2,5.0,330,15,,5.0,29.471457,997.7,,,TRUE,,,,,,-RA BR,FEW,800,BKN,1000,OVC,1300,,,MVFR,2.4,,,,,0.05,0.05,,,,,METAR,11.0
MMMM 052051Z 05003KT 8SM SCT230 25/06 A3021 RMK SLP115 57029 910 8/002 HZY FU 4TH QUAD,MMMM,2019-01-05T20:51:00Z,19.85,-101.02,25.0,6.0,50,3,,8.0,30.209646,1011.5,,,,,,,,,,SCT,23000,,,,,,,VFR,-2.9,,,,,,,,,,,METAR,1833.0
OITL 052051Z 19023KT CAVOK 02/M05 Q1013,OITL,2019-01-05T20:51:00Z,38.33,48.42,2.0,-5.0,190,23,,6.21,29.911417,,,,,,,,,,,CAVOK,,,,,,,,VFR,,,,,,,,,,,,METAR,1316.0
KALB 052051Z 34003KT 7SM FEW017 SCT035 BKN046 BKN250 04/02 A2957 RMK AO2 DZE17 SLP017 P0000 60000 T00390017 53007,KALB,2019-01-05T20:51:00Z,42.75,-73.8,3.9,1.7,340,3,,7.0,29.568897,1001.7,,,TRUE,,,,,,,FEW,1700,SCT,3500,BKN,4600,BKN,25000,VFR,0.7,,,,,0.005,0.005,,,,,METAR,92.0
KIGM 052051Z AUTO 23008KT 10SM OVC110 11/ A3000 RMK AO2 SLP132 T0111 56012 $,KIGM,2019-01-05T20:51:00Z,35.25,-113.93,11.1,,230,8,,10.0,30.0,1013.2,,TRUE,TRUE,TRUE,,,,,,OVC,11000,,,,,,,VFR,-1.2,,,,,,,,,,,METAR,1032.0
KMPV 052051Z AUTO 00000KT 10SM CLR 00/M03 A2958 RMK AO2 SLP031 T00001028 56005,KMPV,2019-01-05T20:51:00Z,44.2,-72.57,0.0,-2.8,0,0,,10.0,29.58071,1003.1,,TRUE,TRUE,,,,,,,CLR,,,,,,,,VFR,-0.5,,,,,,,,,,,METAR,343.0
KPWM 052051Z VRB06KT 7SM -RA BKN011 OVC015 02/01 A2956 RMK AO2 RAB16 SLP009 P0000 60000 T00220006 56015,KPWM,2019-01-05T20:51:00Z,43.65,-70.3,2.2,0.6,0,6,,7.0,29.56004,1000.9,,,TRUE,,,,,,-RA,BKN,1100,OVC,1500,,,,,MVFR,-1.5,,,,,0.005,0.005,,,,,METAR,15.0
KPIT 052051Z 27010KT 10SM FEW250 09/02 A2979 RMK AO2 SLP101 T00890017 53020 $,KPIT,2019-01-05T20:51:00Z,40.5,-80.27,8.9,1.7,270,10,,10.0,29.790354,1010.1,,,TRUE,TRUE,,,,,,FEW,25000,,,,,,,VFR,2.0,,,,,,,,,,,METAR,357.0
KPHX 052051Z 14005KT 10SM BKN180 BKN200 BKN250 19/01 A2995 RMK AO2 SLP135 T01890006 56025,KPHX,2019-01-05T20:51:00Z,33.43,-112.02,18.9,0.6,140,5,,10.0,29.949802,1013.5,,,TRUE,,,,,,,BKN,18000,BKN,20000,BKN,25000,,,VFR,-2.5,,,,,,,,,,,METAR,336.0
KORF 052051Z 28007G17KT 240V330 10SM OVC041 14/07 A2966 RMK AO2 SLP045 T01440067 53037,KORF,2019-01-05T20:51:00Z,36.9,-76.2,14.4,6.7,280,7,17,10.0,29.660433,1004.5,,,TRUE,,,,,,,OVC,4100,,,,,,,VFR,3.7,,,,,,,,,,,METAR,14.0
KORD 052051Z 25011KT 10SM FEW250 11/03 A2985 RMK AO2 SLP112 T01110028 53010,KORD,2019-01-05T20:51:00Z,41.98,-87.93,11.1,2.8,250,11,,10.0,29.84941,1011.2,,,TRUE,,,,,,,FEW,25000,,,,,,,VFR,1.0,,,,,,,,,,,METAR,200.0
KMYL 052051Z AUTO 07005KT 10SM CLR M03/M06 A2968 RMK AO2 SLP095 T10331061 58026,KMYL,2019-01-05T20:51:00Z,44.9,-116.1,-3.3,-6.1,70,5,,10.0,29.681103,1009.5,,TRUE,TRUE,,,,,,,CLR,,,,,,,,VFR,-2.6,,,,,,,,,,,METAR,1533.0
KP58 052051Z AUTO 23009G15KT 05/01 A2965 RMK AO1 SLP050 T00500011 56013,KP58,2019-01-05T20:51:00Z,44.02,-82.8,5.0,1.1,230,9,15,,29.648623,1005.0,,TRUE,TRUE,,,,,,,,,,,,,,,,-1.3,,,,,,,,,,,METAR,179.0
KRDU 052051Z 28011KT 10SM CLR 16/02 A2979 RMK AO2 SLP086 T01610022 53021,KRDU,2019-01-05T20:51:00Z,35.9,-78.78,16.1,2.2,280,11,,10.0,29.790354,1008.6,,,TRUE,,,,,,,CLR,,,,,,,,VFR,2.1,,,,,,,,,,,SPECI,130.0
KROW 052051Z 00000KT 10SM CLR 15/M01 A3004 RMK AO2 SLP151 T01501011 56026,KROW,2019-01-05T20:51:00Z,33.3,-104.5,15.0,-1.1,0,0,,10.0,30.041338,1015.1,,,TRUE,,,,,,,CLR,,,,,,,,VFR,-2.6,,,,,,,,,,,METAR,1112.0
KSAD 052051Z AUTO 16008KT 10SM CLR 11/01 A3009 RMK AO2 SLP181 T01110011 56025,KSAD,2019-01-05T20:51:00Z,32.85,-109.63,11.1,1.1,160,8,,10.0,30.088583,1018.1,,TRUE,TRUE,,,,,,,CLR,,,,,,,,VFR,-2.5,,,,,,,,,,,METAR,962.0
KOXC 052051Z 01014KT 6SM -RA BR BKN008 OVC015 04/04 A2946,KOXC,2019-01-05T20:51:00Z,41.47,-73.13,4.0,4.0,10,14,,6.0,29.459646,,,,,,,,,,-RA BR,BKN,800,OVC,1500,,,,,IFR,,,,,,,,,,,,METAR,222.0
KSAN 052051Z 16010KT 10SM FEW030 BKN100 OVC200 16/09 A3001 RMK AO2 SLP163 T01560089 58018,KSAN,2019-01-05T20:51:00Z,32.73,-117.18,15.6,8.9,160,10,,10.0,30.008858,1016.3,,,TRUE,,,,,,,FEW,3000,BKN,10000,OVC,20000,,,VFR,-1.8,,,,,,,,,,,METAR,12.0
PKMR 052051Z 08008KT 15SM FEW014 SCT050 BKN120 OVC300 28/25 A2980 RMK SLP093 8/878 T02780252 52017,PKMR,2019-01-05T20:51:00Z,7.08,171.38,27.8,25.2,80,8,,15.0,29.799213,1009.3,,,,,,,,,,FEW,1400,SCT,5000,BKN,12000,OVC,30000,VFR,1.7,,,,,,,,,,,SPECI,4.0
MMCZ 052051Z 05008KT 8SM SCT015TCU 27/23 A3003 RMK SLP173 57012 925 8/200 SC CI,MMCZ,2019-01-05T20:51:00Z,20.52,-86.92,27.0,23.0,50,8,,8.0,30.029528,1017.3,,,,,,,,,,SCT,1500,,,,,,,VFR,-1.2,,,,,,,,,,,METAR,5.0
KSAT 052051Z VRB05KT 10SM CLR 22/02 A3011 RMK AO2 SLP185 T02220017 56028,KSAT,2019-01-05T20:51:00Z,29.53,-98.47,22.2,1.7,0,5,,10.0,30.109253,1018.5,,,TRUE,,,,,,,CLR,,,,,,,,VFR,-2.8,,,,,,,,,,,METAR,243.0
KSJT 052051Z 20012KT 10SM CLR 22/M01 A3005 RMK AO2 SLP174 T02171006 56029,KSJT,2019-01-05T20:51:00Z,31.37,-100.5,21.7,-0.6,200,12,,10.0,30.050198,1017.4,,,TRUE,,,,,,,CLR,,,,,,,,VFR,-2.9,,,,,,,,,,,METAR,576.0
KSLK 052051Z AUTO 00000KT 10SM SCT020 02/M01 A2955 RMK AO2 SLP030 T00171011 53010 $,KSLK,2019-01-05T20:51:00Z,44.4,-74.2,1.7,-1.1,0,0,,10.0,29.551182,1003.0,,TRUE,TRUE,TRUE,,,,,,SCT,2000,,,,,,,VFR,1.0,,,,,,,,,,,METAR,498.0
KSMO 052051Z 11006KT 10SM FEW020 FEW032 BKN110 16/09 A2997 RMK AO2 SLP148 T01610089 56020,KSMO,2019-01-05T20:51:00Z,34.02,-118.45,16.1,8.9,110,6,,10.0,29.970472,1014.8,,,TRUE,,,,,,,FEW,2000,FEW,3200,BKN,11000,,,VFR,-2.0,,,,,,,,,,,METAR,57.0
KVCT 052051Z 17009KT 10SM CLR 24/01 A3013 RMK AO2 SLP201 T02390006 56024,KVCT,2019-01-05T20:51:00Z,28.87,-96.93,23.9,0.6,170,9,,10.0,30.129921,1020.1,,,TRUE,,,,,,,CLR,,,,,,,,VFR,-2.4,,,,,,,,,,,METAR,31.0
KSTL 052051Z 24006KT 10SM BKN250 16/02 A3000 RMK AO2 SLP163 T01560017 55000,KSTL,2019-01-05T20:51:00Z,38.75,-90.37,15.6,1.7,240,6,,10.0,30.0,1016.3,,,TRUE,,,,,,,BKN,25000,,,,,,,VFR,0.0,,,,,,,,,,,SPECI,171.0
KYNG 052051Z 28007KT 8SM FEW250 07/02 A2978 RMK AO2 SLP093 T00720017 53011,KYNG,2019-01-05T20:51:00Z,41.25,-80.67,7.2,1.7,280,7,,8.0,29.778543,1009.3,,,TRUE,,,,,,,FEW,25000,,,,,,,VFR,1.1,,,,,,,,,,,METAR,360.0
KVNY 052051Z 15006KT 10SM SCT023 BKN033 BKN110 14/08 A2996 RMK AO2 SLP143 T01440078 56021,KVNY,2019-01-05T20:51:00Z,34.22,-118.48,14.4,7.8,150,6,,10.0,29.958662,1014.3,,,TRUE,,,,,,,SCT,2300,BKN,3300,BKN,11000,,,VFR,-2.1,,,,,,,,,,,METAR,245.0
KELP 052051Z 35005KT 10SM BKN250 14/M06 A3012 RMK AO2 SLP180 T01391061 56021,KELP,2019-01-05T20:51:00Z,31.82,-106.38,13.9,-6.1,350,5,,10.0,30.121063,1018.0,,,TRUE,,,,,,,BKN,25000,,,,,,,VFR,-2.1,,,,,,,,,,,METAR,1197.0
KHTS 052051Z 25011KT 10SM CLR 11/02 A2994 RMK AO2 SLP139 T01060022 53012,KHTS,2019-01-05T20:51:00Z,38.37,-82.55,10.6,2.2,250,11,,10.0,29.940945,1013.9,,,TRUE,,,,,,,CLR,,,,,,,,VFR,1.2,,,,,,,,,,,METAR,254.0
KHSE 052051Z AUTO 28010G20KT 10SM CLR 14/07 A2973 RMK AO2 SLP067 T01390072 53024,KHSE,2019-01-05T20:51:00Z,35.23,-75.62,13.9,7.2,280,10,20,10.0,29.731298,1006.7,,TRUE,TRUE,,,,,,,CLR,,,,,,,,VFR,2.4,,,,,,,,,,,METAR,3.0
KHDO 052051Z AUTO 18010KT 10SM CLR 24/03 A3010 RMK AO2 SLP185 T02440033 56030 $,KHDO,2019-01-05T20:51:00Z,29.37,-99.17,24.4,3.3,180,10,,10.0,30.100393,1018.5,,TRUE,TRUE,TRUE,,,,,,CLR,,,,,,,,VFR,-3.0,,,,,,,,,,,METAR,282.0
KSMX 052051Z 15015G28KT 6SM -RA FEW033 SCT060 OVC075 14/08 A2986 RMK AO2 PK WND 16029/2014 SLP113 P0001 60001 T01390083 56016 $,KSMX,2019-01-05T20:51:00Z,34.9,-120.45,13.9,8.3,150,15,28,6.0,29.861221,1011.3,,,TRUE,TRUE,,,,,-RA,FEW,3300,SCT,6000,OVC,7500,,,VFR,-1.6,,,,,0.01,0.01,,,,,METAR,74.0
KJCT 052051Z AUTO 20009KT 10SM CLR 23/M02 A3007 RMK AO2 SLP166 T02281022 56030,KJCT,2019-01-05T20:51:00Z,30.5,-99.77,22.8,-2.2,200,9,,10.0,30.070866,1016.6,,TRUE,TRUE,,,,,,,CLR,,,,,,,,VFR,-3.0,,,,,,,,,,,METAR,522.0
KCSG 052051Z 30010KT 10SM CLR 17/01 A3006 RMK AO2 SLP177 T01720011 53001,KCSG,2019-01-05T20:51:00Z,32.52,-84.95,17.2,1.1,300,10,,10.0,30.059055,1017.7,,,TRUE,,,,,,,CLR,,,,,,,,VFR,0.1,,,,,,,,,,,METAR,135.0
KCRP 052051Z 14014G20KT 10SM CLR 25/03 A3012 RMK AO2 SLP198 T02500033 56025 $,KCRP,2019-01-05T20:51:00Z,27.77,-97.5,25.0,3.3,140,14,20,10.0,30.121063,1019.8,,,TRUE,TRUE,,,,,,CLR,,,,,,,,VFR,-2.5,,,,,,,,,,,METAR,14.0
KCON 052051Z AUTO 00000KT 7SM -RA BKN055 OVC080 02/01 A2954 RMK AO2 UPB05E08RAB08 SLP007 P0001 60001 T00220011 56007,KCON,2019-01-05T20:51:00Z,43.2,-71.5,2.2,1.1,0,0,,7.0,29.53937,1000.7,,TRUE,TRUE,,,,,,-RA,BKN,5500,OVC,8000,,,,,VFR,-0.7,,,,,0.01,0.01,,,,,METAR,103.0
KCMH 052051Z 24009KT 10SM SCT250 10/02 A2987 RMK AO2 SLP119 T01000022 53009,KCMH,2019-01-05T20:51:00Z,40.0,-82.88,10.0,2.2,240,9,,10.0,29.870079,1011.9,,,TRUE,,,,,,,SCT,25000,,,,,,,VFR,0.9,,,,,,,,,,,METAR,247.0
KCLE 052051Z 23013KT 10SM FEW250 09/02 A2981 RMK AO2 SLP099 T00890022 50004,KCLE,2019-01-05T20:51:00Z,41.42,-81.85,8.9,2.2,230,13,,10.0,29.811024,1009.9,,,TRUE,,,,,,,FEW,25000,,,,,,,VFR,0.4,,,,,,,,,,,METAR,233.0
KCAK 052051Z 27008KT 7SM FEW250 09/01 A2980 RMK AO2 SLP098 T00890011 53011,KCAK,2019-01-05T20:51:00Z,40.92,-81.45,8.9,1.1,270,8,,7.0,29.799213,1009.8,,,TRUE,,,,,,,FEW,25000,,,,,,,VFR,1.1,,,,,,,,,,,METAR,377.0
KBKW 052051Z AUTO 28014G19KT 10SM CLR 07/00 A2989 RMK AO2 SLP130 T00720000 53017,KBKW,2019-01-05T20:51:00Z,37.8,-81.12,7.2,0.0,280,14,19,10.0,29.890747,1013.0,,TRUE,TRUE,,,,,,,CLR,,,,,,,,VFR,1.7,,,,,,,,,,,METAR,764.0
KBHK 052051Z AUTO 14005KT 10SM CLR 08/M03 A2993 RMK AO2 SLP148 T00781033 56017,KBHK,2019-01-05T20:51:00Z,46.35,-104.25,7.8,-3.3,140,5,,10.0,29.929134,1014.8,,TRUE,TRUE,,,,,,,CLR,,,,,,,,VFR,-1.7,,,,,,,,,,,METAR,902.0
KBGD 052051Z AUTO 22014G20KT 10SM CLR 22/M03 A2995 RMK AO2 SLP128 T02171033 56030,KBGD,2019-01-05T20:51:00Z,35.7,-101.4,21.7,-3.3,220,14,20,10.0,29.949802,1012.8,,TRUE,TRUE,,,,,,,CLR,,,,,,,,VFR,-3.0,,,,,,,,,,,METAR,927.0
KBAZ 052051Z 22010KT 10SM CLR 22/02 A3010 RMK AO2 SLP189 T02170022 56027,KBAZ,2019-01-05T20:51:00Z,29.72,-98.05,21.7,2.2,220,10,,10.0,30.100393,1018.9,,,TRUE,,,,,,,CLR,,,,,,,,VFR,-2.7,,,,,,,,,,,METAR,195.0
KAVX 052051Z AUTO 17010KT 10SM SCT010 BKN016 OVC090 11/09 A2997 RMK AO2 SLP148 T01060089 56015,KAVX,2019-01-05T20:51:00Z,33.4,-118.42,10.6,8.9,170,10,,10.0,29.970472,1014.8,,TRUE,TRUE,,,,,,,SCT,1000,BKN,1600,OVC,9000,,,MVFR,-1.5,,,,,,,,,,,METAR,482.0
KAHN 052051Z 28010G18KT 10SM CLR 16/02 A2998 RMK AO2 SLP152 T01560022 53009,KAHN,2019-01-05T20:51:00Z,33.95,-83.33,15.6,2.2,280,10,18,10.0,29.97933,1015.2,,,TRUE,,,,,,,CLR,,,,,,,,VFR,0.9,,,,,,,,,,,METAR,244.0
KACT 052051Z 18005KT 10SM CLR 22/04 A3008 RMK AO2 SLP184 T02170039 56021,KACT,2019-01-05T20:51:00Z,31.62,-97.23,21.7,3.9,180,5,,10.0,30.079725,1018.4,,,TRUE,,,,,,,CLR,,,,,,,,VFR,-2.1,,,,,,,,,,,METAR,151.0
KABE 052051Z 29009KT 10SM FEW030 BKN035 OVC055 08/05 A2954 RMK AO2 RAB07E37 SLP006 P0001 60004 T00830050 53027,KABE,2019-01-05T20:51:00Z,40.65,-75.45,8.3,5.0,290,9,,10.0,29.53937,1000.6,,,TRUE,,,,,,,FEW,3000,BKN,3500,OVC,5500,,,VFR,2.7,,,,,0.01,0.04,,,,,METAR,114.0
KATT 052051Z AUTO VRB04KT 10SM CLR 23/02 A3010 RMK AO2 SLP192 T02330017 56026,KATT,2019-01-05T20:51:00Z,30.32,-97.77,23.3,1.7,0,4,,10.0,30.100393,1019.2,,TRUE,TRUE,,,,,,,CLR,,,,,,,,VFR,-2.6,,,,,,,,,,,METAR,201.0
KP59 052051Z AUTO 02010KT 02/M01 A2977 RMK AO1 SLP092 60001 T00221006 53037,KP59,2019-01-05T20:51:00Z,47.47,-87.88,2.2,-0.6,20,10,,,29.769686,1009.2,,TRUE,TRUE,,,,,,,,,,,,,,,,3.7,,,,,,0.01,,,,,METAR,190.0
KSNT 052051Z AUTO 00000KT M08/M12 A2976 RMK AO1 SLP113 T10781122 58034,KSNT,2019-01-05T20:51:00Z,44.17,-114.93,-7.8,-12.2,0,0,,,29.760826,1011.3,,TRUE,TRUE,,,,,,,,,,,,,,,,-3.4,,,,,,,,,,,METAR,1980.0
KBVE 052051Z AUTO VRB03KT 10SM CLR 14/07 A3018 RMK AO2 SLP220 T01390067 55008,KBVE,2019-01-05T20:51:00Z,29.32,-89.4,13.9,6.7,0,3,,10.0,30.180119,1022.0,,TRUE,TRUE,,,,,,,CLR,,,,,,,,VFR,-0.8,,,,,,,,,,,METAR,1.0
PAMD 052051Z AUTO 05007KT 10SM CLR M01/M06 A2976 RMK AO2 SLP069 T10061056 50001 FZRANO,PAMD,2019-01-05T20:51:00Z,59.43,-146.3,-0.6,-5.6,50,7,,10.0,29.760826,1006.9,,TRUE,TRUE,,,,TRUE,,,CLR,,,,,,,,VFR,0.1,,,,,,,,,,,METAR,14.0
KTPL 052051Z AUTO 14006KT 10SM CLR 22/06 A3009 RMK AO2 SLP205 T02220061 56025,KTPL,2019-01-05T20:51:00Z,31.13,-97.4,22.2,6.1,140,6,,10.0,30.088583,1020.5,,TRUE,TRUE,,,,,,,CLR,,,,,,,,VFR,-2.5,,,,,,,,,,,METAR,208.0
KOCF 052051Z 30006KT 10SM CLR 17/08 A3004 RMK AO2 SLP174 T01720083 55001 $,KOCF,2019-01-05T20:51:00Z,29.17,-82.22,17.2,8.3,300,6,,10.0,30.041338,1017.4,,,TRUE,TRUE,,,,,,CLR,,,,,,,,VFR,-0.1,,,,,,,,,,,METAR,27.0
KLGU 052051Z AUTO 00000KT 2 1/2SM BR CLR M08/M11 A2994 RMK AO2 SLP202 T10831106 56026 $,KLGU,2019-01-05T20:51:00Z,41.78,-111.85,-8.3,-10.6,0,0,,2.5,29.940945,1020.2,,TRUE,TRUE,TRUE,,,,,BR,CLR,,,,,,,,IFR,-2.6,,,,,,,,,,,METAR,1355.0
KALN 052050Z 26008KT 10SM SCT200 14/04 A3000,KALN,2019-01-05T20:50:00Z,38.88,-90.03,14.0,4.0,260,8,,10.0,30.0,,,,,,,,,,,SCT,20000,,,,,,,VFR,,,,,,,,,,,,METAR,166.0
KGPM 052050Z 15004KT 10SM SKC 22/08 A3008,KGPM,2019-01-05T20:50:00Z,32.7,-97.05,22.0,8.0,150,4,,10.0,30.079725,,,,,,,,,,,SKC,,,,,,,,VFR,,,,,,,,,,,,METAR,180.0
ENSB 052050Z 13017KT 9999 FEW012 BKN020 M04/M07 Q0998 RMK WIND 1400FT 13017KT,ENSB,2019-01-05T20:50:00Z,78.25,15.47,-4.0,-7.0,130,17,,6.21,29.468504,,,,,,,,,,,FEW,1200,BKN,2000,,,,,MVFR,,,,,,,,,,,,METAR,29.0
EGQM 052050Z AUTO 21005KT 9999 FEW026/// 02/M00 Q1034,EGQM,2019-01-05T20:50:00Z,55.42,-1.6,2.0,0.0,210,5,,6.21,30.531496,,,TRUE,,,,,,,,FEW,2600,,,,,,,VFR,,,,,,,,,,,,METAR,23.0
EGQL 052050Z 25010KT 9999 BKN038 04/02 Q1033 BLU,EGQL,2019-01-05T20:50:00Z,56.38,-2.87,4.0,2.0,250,10,,6.21,30.501968,,,,,,,,,,,BKN,3800,,,,,,,VFR,,,,,,,,,,,,METAR,12.0
EGNS 052050Z 24009KT 210V270 9999 SCT019 BKN030 09/05 Q1036 NOSIG,EGNS,2019-01-05T20:50:00Z,54.08,-4.63,9.0,5.0,240,9,,6.21,30.590551,,,,,,TRUE,,,,,SCT,1900,BKN,3000,,,,,MVFR,,,,,,,,,,,,METAR,17.0
OAMS 052050Z VRB03KT 8000 FEW000 BKN006 01/01 Q1026 BLACKYLO BLU+TEMPO YLO,OAMS,2019-01-05T20:50:00Z,36.7,67.2,1.0,1.0,0,3,,4.97,30.295275,,,,,,,,,,,FEW,0,BKN,600,,,,,IFR,,,,,,,,,,,,METAR,378.0
KSBD 052050Z 15003KT 7SM OVC080 14/M05 A2998,KSBD,2019-01-05T20:50:00Z,34.08,-117.25,14.0,-5.0,150,3,,7.0,29.97933,,,,,,,,,,,OVC,8000,,,,,,,VFR,,,,,,,,,,,,METAR,353.0
KJQF 052050Z 30010KT 10SM CLR 17/02 A2990,KJQF,2019-01-05T20:50:00Z,35.38,-80.72,17.0,2.0,300,10,,10.0,29.899607,,,,,,,,,,,CLR,,,,,,,,VFR,,,,,,,,,,,,METAR,210.0
MMCV 052050Z 13010G20KT 7SM FEW200 26/09 A3009 RMK SLP189 57037 903 8/001 HZ,MMCV,2019-01-05T20:50:00Z,23.72,-98.97,26.0,9.0,130,10,20,7.0,30.088583,1018.9,,,,,,,,,,FEW,20000,,,,,,,VFR,-3.7,,,,,,,,,,,METAR,238.0
PGWT 052050Z 07010KT 7SM SCT016 BKN140 M/M A2994,PGWT,2019-01-05T20:50:00Z,14.98,145.62,,,70,10,,7.0,29.940945,,,,,,,,,,,SCT,1600,BKN,14000,,,,,VFR,,,,,,,,,,,,METAR,82.0
KWDG 052050Z 16008KT 10SM FEW200 16/06 A2999,KWDG,2019-01-05T20:50:00Z,36.37,-97.77,16.0,6.0,160,8,,10.0,29.991142,,,,,,,,,,,FEW,20000,,,,,,,VFR,,,,,,,,,,,,METAR,356.0
KHQZ 052050Z 15005KT 10SM CLR 20/06 A3008,KHQZ,2019-01-05T20:50:00Z,32.75,-96.53,20.0,6.0,150,5,,10.0,30.079725,,,,,,,,,,,CLR,,,,,,,,VFR,,,,,,,,,,,,METAR,136.0
KFWS 052050Z 21007KT 10SM CLR 22/02 A3008,KFWS,2019-01-05T20:50:00Z,32.57,-97.3,22.0,2.0,210,7,,10.0,30.079725,,,,,,,,,,,CLR,,,,,,,,VFR,,,,,,,,,,,,METAR,208.0
EGXS 052050Z AUTO 21006KT 9999 // OVC026/// 04/02 Q1035,EGXS,2019-01-05T20:50:00Z,53.48,0.15,4.0,2.0,210,6,,6.21,30.561024,,,TRUE,,,,,,,,OVC,2600,,,,,,,MVFR,,,,,,,,,,,,METAR,3.0
EGXP 052050Z AUTO 24005KT 9999 // OVC024/// 04/03 Q1035,EGXP,2019-01-05T20:50:00Z,53.3,-0.55,4.0,3.0,240,5,,6.21,30.561024,,,TRUE,,,,,,,,OVC,2400,,,,,,,MVFR,,,,,,,,,,,,METAR,61.0
EGYM 052050Z AUTO 25002KT 5000 HZ OVC024/// 04/03 Q1036,EGYM,2019-01-05T20:50:00Z,52.63,0.57,4.0,3.0,250,2,,3.11,30.590551,,,TRUE,,,,,,,HZ,OVC,2400,,,,,,,MVFR,,,,,,,,,,,,METAR,23.0
EGYD 052050Z AUTO 26007KT 9999 // OVC025/// 05/03 Q1036,EGYD,2019-01-05T20:50:00Z,53.03,-0.5,5.0,3.0,260,7,,6.21,30.590551,,,TRUE,,,,,,,,OVC,2500,,,,,,,MVFR,,,,,,,,,,,,METAR,67.0
EGXZ 052050Z AUTO 14003KT 5000 BR FEW024/// SCT160/// 00/M00 Q1035,EGXZ,2019-01-05T20:50:00Z,54.2,-1.38,0.0,0.0,140,3,,3.11,30.561024,,,TRUE,,,,,,,BR,FEW,2400,SCT,16000,,,,,MVFR,,,,,,,,,,,,METAR,28.0
EGXW 052050Z AUTO 24004KT 9999 OVC024/// 05/03 Q1035,EGXW,2019-01-05T20:50:00Z,53.18,-0.52,5.0,3.0,240,4,,6.21,30.561024,,,TRUE,,,,,,,,OVC,2400,,,,,,,MVFR,,,,,,,,,,,,METAR,70.0
EGXU 052050Z AUTO 10002KT 5000 // SCT026/// 02/01 Q1035,EGXU,2019-01-05T20:50:00Z,54.05,-1.25,2.0,1.0,100,2,,3.11,30.561024,,,TRUE,,,,,,,,SCT,2600,,,,,,,MVFR,,,,,,,,,,,,METAR,16.0
EGXE 052050Z AUTO 12002KT 6000 HZ FEW025/// 01/M01 Q1035,EGXE,2019-01-05T20:50:00Z,54.28,-1.52,1.0,-1.0,120,2,,3.73,30.561024,,,TRUE,,,,,,,HZ,FEW,2500,,,,,,,MVFR,,,,,,,,,,,,METAR,40.0
EGVP 052050Z AUTO 27005KT 9000 // OVC025/// 04/01 Q1038,EGVP,2019-01-05T20:50:00Z,51.13,-1.57,4.0,1.0,270,5,,5.59,30.649607,,,TRUE,,,,,,,,OVC,2500,,,,,,,MVFR,,,,,,,,,,,,METAR,91.0
EGVO 052050Z AUTO 27005KT 9999 OVC024/// 05/01 Q1037,EGVO,2019-01-05T20:50:00Z,51.23,-0.95,5.0,1.0,270,5,,6.21,30.620079,,,TRUE,,,,,,,,OVC,2400,,,,,,,MVFR,,,,,,,,,,,,METAR,123.0
EGUW 052050Z AUTO 27006KT 9999 OVC022/// 04/02 Q1036,EGUW,2019-01-05T20:50:00Z,52.12,0.97,4.0,2.0,270,6,,6.21,30.590551,,,TRUE,,,,,,,,OVC,2200,,,,,,,MVFR,,,,,,,,,,,,METAR,87.0
EGUB 052050Z AUTO 33002KT 9999 // OVC027/// 04/02 Q1038,EGUB,2019-01-05T20:50:00Z,51.62,-1.07,4.0,2.0,330,2,,6.21,30.649607,,,TRUE,,,,,,,,OVC,2700,,,,,,,MVFR,,,,,,,,,,,,METAR,63.0
EGOM 052050Z AUTO 28009KT 9999 OVC029/// 03/02 Q1034,EGOM,2019-01-05T20:50:00Z,55.05,-2.55,3.0,2.0,280,9,,6.21,30.531496,,,TRUE,,,,,,,,OVC,2900,,,,,,,MVFR,,,,,,,,,,,,METAR,325.0
EGDX 052050Z AUTO 27007KT 9999 FEW019/// BKN024/// 08/05 Q1038,EGDX,2019-01-05T20:50:00Z,51.4,-3.43,8.0,5.0,270,7,,6.21,30.649607,,,TRUE,,,,,,,,FEW,1900,BKN,2400,,,,,MVFR,,,,,,,,,,,,METAR,50.0
EGDY 052050Z AUTO 12002KT 6000 BR OVC026/// 03/02 Q1039,EGDY,2019-01-05T20:50:00Z,51.0,-2.62,3.0,2.0,120,2,,3.73,30.679134,,,TRUE,,,,,,,BR,OVC,2600,,,,,,,MVFR,,,,,,,,,,,,METAR,23.0
EGDR 052050Z AUTO 31004KT 9999 // OVC022/// 07/04 Q1039,EGDR,2019-01-05T20:50:00Z,50.08,-5.25,7.0,4.0,310,4,,6.21,30.679134,,,TRUE,,,,,,,,OVC,2200,,,,,,,MVFR,,,,,,,,,,,,METAR,82.0
EGDM 052050Z AUTO 22004KT 5000 HZ OVC023/// 03/01 Q1038,EGDM,2019-01-05T20:50:00Z,51.17,-1.75,3.0,1.0,220,4,,3.11,30.649607,,,TRUE,,,,,,,HZ,OVC,2300,,,,,,,MVFR,,,,,,,,,,,,METAR,124.0
EGQK 052050Z AUTO 23005KT 9999 -RA BKN027/// BKN037/// 06/02 Q1032,EGQK,2019-01-05T20:50:00Z,57.65,-3.57,6.0,2.0,230,5,,6.21,30.47244,,,TRUE,,,,,,,-RA,BKN,2700,BKN,3700,,,,,MVFR,,,,,,,,,,,,METAR,7.0
EGOV 052050Z AUTO 23011KT 9999 BKN038/// BKN220/// 08/05 Q1037,EGOV,2019-01-05T20:50:00Z,53.25,-4.53,8.0,5.0,230,11,,6.21,30.620079,,,TRUE,,,,,,,,BKN,3800,BKN,22000,,,,,VFR,,,,,,,,,,,,METAR,11.0
EGOS 052050Z AUTO 28005KT 9999 OVC026/// 06/04 Q1037,EGOS,2019-01-05T20:50:00Z,52.8,-2.67,6.0,4.0,280,5,,6.21,30.620079,,,TRUE,,,,,,,,OVC,2600,,,,,,,MVFR,,,,,,,,,,,,METAR,76.0
OIHM 052050Z AUTO 12014KT //// // ////// 09/M15 Q1019,OIHM,2019-01-05T20:50:00Z,34.28,48.82,9.0,-15.0,120,14,,,30.088583,,,TRUE,,,,,,,,,,,,,,,,,,,,,,,,,,,,METAR,1726.0
OICK 052050Z 00000KT 9999 FEW040 SCT090 05/04 Q1020,OICK,2019-01-05T20:50:00Z,33.43,48.28,5.0,4.0,0,0,,6.21,30.11811,,,,,,,,,,,FEW,4000,SCT,9000,,,,,VFR,,,,,,,,,,,,METAR,1155.0
KHME 052050Z AUTO 07004KT //// // ////// 05/03 Q1021,KHME,2019-01-05T20:50:00Z,,,5.0,3.0,70,4,,,30.147638,,,TRUE,,,,,,,,,,,,,,,,,,,,,,,,,,,,METAR,
EGWU 052050Z AUTO 29004KT 9999 // OVC025/// 05/02 Q1037,EGWU,2019-01-05T20:50:00Z,51.55,-0.42,5.0,2.0,290,4,,6.21,30.620079,,,TRUE,,,,,,,,OVC,2500,,,,,,,MVFR,,,,,,,,,,,,METAR,40.0
EGOP 052050Z AUTO 29003KT 9999 // OVC026/// 08/05 Q1038,EGOP,2019-01-05T20:50:00Z,51.72,-4.32,8.0,5.0,290,3,,6.21,30.649607,,,TRUE,,,,,,,,OVC,2600,,,,,,,MVFR,,,,,,,,,,,,METAR,6.0
PTYA 052050Z 05008KT 12SM FEW016 BKN300 27/25 A2989 RMK SLP122 8/101 T02740245 52005,PTYA,2019-01-05T20:50:00Z,9.48,138.08,27.4,24.5,50,8,,12.0,29.890747,1012.2,,,,,,,,,,FEW,1600,BKN,30000,,,,,VFR,0.5,,,,,,,,,,,METAR,17.0
KOQU 052050Z 03015KT 1 SM -RA BR FEW004 BKN006 OVC008 05/04 A2942,KOQU,2019-01-05T20:50:00Z,41.6,-71.42,5.0,4.0,30,15,,,29.421259,,,,,,,,,,-RA BR,FEW,400,BKN,600,OVC,800,,,,,,,,,,,,,,,METAR,6.0
OOSH 052050Z AUTO 00000KT //// 20/15 Q1018,OOSH,2019-01-05T20:50:00Z,24.55,56.62,20.0,15.0,0,0,,,30.059055,,,TRUE,,,,,,,,,,,,,,,,,,,,,,,,,,,,METAR,35.0
LICR 052050Z 35009KT 9999 SCT050 09/02 Q1019,LICR,2019-01-05T20:50:00Z,38.07,15.65,9.0,2.0,350,9,,6.21,30.088583,,,,,,,,,,,SCT,5000,,,,,,,VFR,,,,,,,,,,,,METAR,21.0
LICD 052050Z 29010KT CAVOK 11/02 Q1025,LICD,2019-01-05T20:50:00Z,35.5,12.62,11.0,2.0,290,10,,6.21,30.265747,,,,,,,,,,,CAVOK,,,,,,,,VFR,,,,,,,,,,,,METAR,20.0
LICB 052050Z 01003KT 9999 SCT040 06/02 Q1021,LICB,2019-01-05T20:50:00Z,37.0,14.62,6.0,2.0,10,3,,6.21,30.147638,,,,,,,,,,,SCT,4000,,,,,,,VFR,,,,,,,,,,,,METAR,220.0
LICA 052050Z 30013KT 9999 SCT025 SCT050 08/00 Q1019,LICA,2019-01-05T20:50:00Z,38.88,16.25,8.0,0.0,300,13,,6.21,30.088583,,,,,,,,,,,SCT,2500,SCT,5000,,,,,VFR,,,,,,,,,,,,METAR,15.0
LIPY 052050Z 19003KT 160V230 CAVOK 03/M00 Q1019,LIPY,2019-01-05T20:50:00Z,43.62,13.37,3.0,0.0,190,3,,6.21,30.088583,,,,,,,,,,,CAVOK,,,,,,,,VFR,,,,,,,,,,,,METAR,10.0
LIPO 052050Z 05005KT CAVOK M02/M04 Q1020,LIPO,2019-01-05T20:50:00Z,45.42,10.33,-2.0,-4.0,50,5,,6.21,30.11811,,,,,,,,,,,CAVOK,,,,,,,,VFR,,,,,,,,,,,,METAR,109.0
LIRZ 052050Z VRB01KT 9999 SCT040 03/M01 Q1020,LIRZ,2019-01-05T20:50:00Z,43.1,12.5,3.0,-1.0,0,1,,6.21,30.11811,,,,,,,,,,,SCT,4000,,,,,,,VFR,,,,,,,,,,,,METAR,205.0
LIBP 052050Z 22005KT CAVOK 04/M00 Q1018,LIBP,2019-01-05T20:50:00Z,42.42,14.18,4.0,0.0,220,5,,6.21,30.059055,,,,,,,,,,,CAVOK,,,,,,,,VFR,,,,,,,,,,,,METAR,11.0
MSSM 052050Z 18002KT CAVOK 36/18 Q//// A////,MSSM,2019-01-05T20:50:00Z,13.43,-88.12,36.0,18.0,180,2,,6.21,,,,,,,,,,,,CAVOK,,,,,,,,VFR,,,,,,,,,,,,METAR,80.0
MSSA 052050Z 33008KT CAVOK 32/14 Q1017 A3004,MSSA,2019-01-05T20:50:00Z,13.97,-89.57,32.0,14.0,330,8,,6.21,30.029528,,,,,,,,,,,CAVOK,,,,,,,,VFR,,,,,,,,,,,,METAR,725.0
MSAC 052050Z 24006KT CAVOK 31/22 Q1007 A2976,MSAC,2019-01-05T20:50:00Z,13.57,-89.83,31.0,22.0,240,6,,6.21,29.734253,,,,,,,,,,,CAVOK,,,,,,,,VFR,,,,,,,,,,,,METAR,15.0
EETU 052050Z AUTO VRB02KT 8000 SCT017/// M11/M12 Q1019,EETU,2019-01-05T20:50:00Z,58.32,26.68,-11.0,-12.0,0,2,,4.97,30.088583,,,TRUE,,,,,,,,SCT,1700,,,,,,,MVFR,,,,,,,,,,,,METAR,67.0
EEKE 052050Z AUTO 04006KT 9999NDV -SN FEW022 OVC035 M02/M05 Q1021,EEKE,2019-01-05T20:50:00Z,58.23,22.52,-2.0,-5.0,40,6,,,30.147638,,,TRUE,,,,,,,-SN,FEW,2200,OVC,3500,,,,,,,,,,,,,,,,,SPECI,4.0
LIPB 052050Z VRB04G14KT CAVOK 09/M03 Q1021,LIPB,2019-01-05T20:50:00Z,46.47,11.32,9.0,-3.0,0,4,14,6.21,30.147638,,,,,,,,,,,CAVOK,,,,,,,,VFR,,,,,,,,,,,,METAR,241.0
ENAT 052050Z VRB02KT 9999 FEW034 BKN049 01/M01 Q1010 RMK WIND 700FT 27010KT,ENAT,2019-01-05T20:50:00Z,69.97,23.37,1.0,-1.0,0,2,,6.21,29.822834,,,,,,,,,,,FEW,3400,BKN,4900,,,,,VFR,,,,,,,,,,,,METAR,3.0
LGBL 052050Z 28008KT 9999 FEW030 M01/M06 Q1015,LGBL,2019-01-05T20:50:00Z,39.22,22.8,-1.0,-6.0,280,8,,6.21,29.970472,,,,,,,,,,,FEW,3000,,,,,,,VFR,,,,,,,,,,,,METAR,26.0
LGKC 052050Z 36009KT 9999 FEW012 SCT020 04/02 Q1012,LGKC,2019-01-05T20:50:00Z,36.28,23.02,4.0,2.0,360,9,,6.21,29.88189,,,,,,,,,,,FEW,1200,SCT,2000,,,,,VFR,,,,,,,,,,,,METAR,319.0
LGRX 052050Z 00000KT 9999 FEW015 00/M02 Q1014 RMK FEW035 BLU,LGRX,2019-01-05T20:50:00Z,38.17,21.42,0.0,-2.0,0,0,,6.21,29.940945,,,,,,,,,,,FEW,1500,,,,,,,VFR,,,,,,,,,,,,METAR,15.0
LGPZ 052050Z 05010KT 9999 FEW025 03/M02 Q1015,LGPZ,2019-01-05T20:50:00Z,38.92,20.77,3.0,-2.0,50,10,,6.21,29.970472,,,,,,,,,,,FEW,2500,,,,,,,VFR,,,,,,,,,,,,METAR,4.0
LGKO 052050Z 36010KT 9999 RA FEW018TCU SCT025 06/04 Q1008,LGKO,2019-01-05T20:50:00Z,36.8,27.08,6.0,4.0,360,10,,6.21,29.763779,,,,,,,,,,RA,FEW,1800,SCT,2500,,,,,VFR,,,,,,,,,,,,METAR,125.0
LOXZ 052050Z 28005KT 10KM SCT012ST BKN050SC 04/M03 Q1016,LOXZ,2019-01-05T20:50:00Z,47.2,14.75,4.0,-3.0,280,5,,6.21,30.0,,,,,,,,,,,,,,,,,,,,,,,,,,,,,,,SPECI,682.0
KFIN 052050Z 27008G15KT 7SM CLR 17/08 A3001,KFIN,2019-01-05T20:50:00Z,29.47,-81.2,17.0,8.0,270,8,15,7.0,30.008858,,,,,,,,,,,CLR,,,,,,,,VFR,,,,,,,,,,,,METAR,10.0
KSUA 052050Z 29009G15KT 7SM SCT045 24/13 A3001,KSUA,2019-01-05T20:50:00Z,27.18,-80.22,24.0,13.0,290,9,15,7.0,30.008858,,,,,,,,,,,SCT,4500,,,,,,,VFR,,,,,,,,,,,,METAR,6.0
KEFD 052050Z 21005KT 10SM CLR 21/06 A3016,KEFD,2019-01-05T20:50:00Z,29.6,-95.17,21.0,6.0,210,5,,10.0,30.159449,,,,,,,,,,,CLR,,,,,,,,VFR,,,,,,,,,,,,METAR,10.0
EGYP 052050Z 27018KT 9999 BKN043 BKN200 12/02 Q0997 BLU,EGYP,2019-01-05T20:50:00Z,-51.82,-58.45,12.0,2.0,270,18,,6.21,29.438976,,,,,,,,,,,BKN,4300,BKN,20000,,,,,VFR,,,,,,,,,,,,METAR,74.0
TJIG 052050Z 10015KT 10SM SCT050 27/19 A3005,TJIG,2019-01-05T20:50:00Z,18.45,-66.1,27.0,19.0,100,15,,10.0,30.050198,,,,,,,,,,,SCT,5000,,,,,,,VFR,,,,,,,,,,,,METAR,3.0
LCRA 052050Z 23004KT 9999 -SHRA FEW030 OVC050 11/10 Q1010 TEMPO 4000 TSRA SCT020CB,LCRA,2019-01-05T20:50:00Z,34.57,32.97,11.0,10.0,230,4,,6.21,29.822834,,,,,,,,,,-SHRA,FEW,3000,OVC,5000,,,,,VFR,,,,,,,,,,,,METAR,23.0
ENOA 052050Z 27008KT 9999 SCT010 BKN042 08/07 Q1028 W///S3,ENOA,2019-01-05T20:50:00Z,60.5,2.83,8.0,7.0,270,8,,6.21,30.35433,,,,,,,,,,,SCT,1000,BKN,4200,,,,,VFR,,,,,,,,,,,,METAR,5.0
ENGC 052050Z 26009KT 9999 -SHRA BKN015 BKN040 08/06 Q1027 W07/S4,ENGC,2019-01-05T20:50:00Z,61.02,2.02,8.0,6.0,260,9,,6.21,30.324802,,,,,,,,,,-SHRA,BKN,1500,BKN,4000,,,,,MVFR,,,,,,,,,,,,METAR,10.0
ENST 052050Z 18012KT 9999 -DZ SCT003 BKN005 05/05 Q1020 RMK WIND 300FT 18013KT,ENST,2019-01-05T20:50:00Z,65.97,12.47,5.0,5.0,180,12,,6.21,30.11811,,,,,,,,,,-DZ,SCT,300,BKN,500,,,,,IFR,,,,,,,,,,,,METAR,17.0
MUCF 052050Z 19007KT 150V220 9999 SCT020 BKN080 28/21 Q1017,MUCF,2019-01-05T20:50:00Z,22.13,-80.4,28.0,21.0,190,7,,6.21,30.029528,,,,,,,,,,,SCT,2000,BKN,8000,,,,,VFR,,,,,,,,,,,,METAR,39.0
MUCU 052050Z 18006KT 160V230 9999 FEW020 28/18 Q1016,MUCU,2019-01-05T20:50:00Z,19.97,-75.83,28.0,18.0,180,6,,6.21,30.0,,,,,,,,,,,FEW,2000,,,,,,,VFR,,,,,,,,,,,,METAR,76.0
MUHG 052050Z VRB03KT 9000 SCT020 32/16 Q1015,MUHG,2019-01-05T20:50:00Z,20.77,-76.32,32.0,16.0,0,3,,5.59,29.970472,,,,,,,,,,,SCT,2000,,,,,,,VFR,,,,,,,,,,,,METAR,106.0
MUCM 052050Z 25013KT 9000 SCT020 28/21 Q1016,MUCM,2019-01-05T20:50:00Z,21.42,-77.85,28.0,21.0,250,13,,5.59,30.0,,,,,,,,,,,SCT,2000,,,,,,,VFR,,,,,,,,,,,,METAR,122.0
MUCC 052050Z 32007KT 9000 SCT020 28/19 Q1016,MUCC,2019-01-05T20:50:00Z,22.47,-78.33,28.0,19.0,320,7,,5.59,30.0,,,,,,,,,,,SCT,2000,,,,,,,VFR,,,,,,,,,,,,METAR,4.0
MUSC 052050Z 23004KT 9000 BKN020 28/17 Q1016,MUSC,2019-01-05T20:50:00Z,22.5,-79.95,28.0,17.0,230,4,,5.59,30.0,,,,,,,,,,,BKN,2000,,,,,,,MVFR,,,,,,,,,,,,METAR,103.0
MUVR 052050Z 36009KT 300V010 9000 FEW018TCU BKN020 25/22 Q1017,MUVR,2019-01-05T20:50:00Z,23.03,-81.43,25.0,22.0,360,9,,5.59,30.029528,,,,,,,,,,,FEW,1800,BKN,2000,,,,,MVFR,,,,,,,,,,,,METAR,65.0
LTFG 052050Z 07004KT 040V110 9999 FEW020CB BKN030 09/09 Q1010 RETSRA,LTFG,2019-01-05T20:50:00Z,36.3,32.3,9.0,9.0,70,4,,6.21,29.822834,,,,,,,,,,,FEW,2000,BKN,3000,,,,,MVFR,,,,,,,,,,,,METAR,95.0
LTFD 052050Z 10011KT 9999 FEW015 SCT030 BKN090 04/01 Q1010,LTFD,2019-01-05T20:50:00Z,39.55,27.02,4.0,1.0,100,11,,6.21,29.822834,,,,,,,,,,,FEW,1500,SCT,3000,BKN,9000,,,VFR,,,,,,,,,,,,METAR,16.0
LTCN 052050Z 11014KT 9999 -SHRA SCT030 BKN090 09/06 Q1010 NOSIG,LTCN,2019-01-05T20:50:00Z,37.53,36.95,9.0,6.0,110,14,,6.21,29.822834,,,,,,TRUE,,,,-SHRA,SCT,3000,BKN,9000,,,,,VFR,,,,,,,,,,,,METAR,526.0
LTCB 052050Z 22006KT 9999 SCT015 BKN028 BKN100 08/05 Q1007,LTCB,2019-01-05T20:50:00Z,40.97,38.07,8.0,5.0,220,6,,6.21,29.734253,,,,,,,,,,,SCT,1500,BKN,2800,BKN,10000,,,MVFR,,,,,,,,,,,,METAR,5.0
LTBH 052050Z 05012KT 9999 FEW015 BKN030 BKN100 00/M01 Q1013,LTBH,2019-01-05T20:50:00Z,40.13,26.42,0.0,-1.0,50,12,,6.21,29.911417,,,,,,,,,,,FEW,1500,BKN,3000,BKN,10000,,,MVFR,,,,,,,,,,,,METAR,3.0
LTFH 052050Z 17003KT 130V220 8000 -RA FEW012 BKN030 OVC090 06/04 Q1008 NOSIG,LTFH,2019-01-05T20:50:00Z,41.27,36.55,6.0,4.0,170,3,,4.97,29.763779,,,,,,TRUE,,,,-RA,FEW,1200,BKN,3000,OVC,9000,,,MVFR,,,,,,,,,,,,METAR,5.0
LTDA 052050Z 09004KT 9999 -SHRA BKN025 BKN080 10/10 Q1011 NOSIG,LTDA,2019-01-05T20:50:00Z,36.37,36.28,10.0,10.0,90,4,,6.21,29.852362,,,,,,TRUE,,,,-SHRA,BKN,2500,BKN,8000,,,,,MVFR,,,,,,,,,,,,METAR,82.0
LTCI 052050Z 07004KT 010V120 9999 SCT040 M07/M10 Q1014 NOSIG,LTCI,2019-01-05T20:50:00Z,38.45,43.32,-7.0,-10.0,70,4,,6.21,29.940945,,,,,,TRUE,,,,,SCT,4000,,,,,,,VFR,,,,,,,,,,,,METAR,1661.0
LTCF 052050Z 35006KT 310V010 9999 BKN035 M05/M07 Q1013,LTCF,2019-01-05T20:50:00Z,40.57,43.12,-5.0,-7.0,350,6,,6.21,29.911417,,,,,,,,,,,BKN,3500,,,,,,,VFR,,,,,,,,,,,,METAR,1795.0
LTCD 052050Z 08017KT 9999 BKN035 BKN090 05/M01 Q1010 NOSIG,LTCD,2019-01-05T20:50:00Z,39.72,39.5,5.0,-1.0,80,17,,6.21,29.822834,,,,,,TRUE,,,,,BKN,3500,BKN,9000,,,,,VFR,,,,,,,,,,,,METAR,1215.0
LTCA 052050Z 13007KT 9999 SCT033 BKN100 06/02 Q1013 NOSIG,LTCA,2019-01-05T20:50:00Z,38.6,39.27,6.0,2.0,130,7,,6.21,29.911417,,,,,,TRUE,,,,,SCT,3300,BKN,10000,,,,,VFR,,,,,,,,,,,,METAR,882.0
LTBZ 052050Z 15006KT CAVOK M02/M03 Q1006,LTBZ,2019-01-05T20:50:00Z,38.63,27.35,-2.0,-3.0,150,6,,6.21,29.704725,,,,,,,,,,,CAVOK,,,,,,,,VFR,,,,,,,,,,,,METAR,73.0
LTBY 052050Z 00000KT 9999 SCT030 SCT100 M03/M03 Q1008,LTBY,2019-01-05T20:50:00Z,39.82,30.52,-3.0,-3.0,0,0,,6.21,29.763779,,,,,,,,,,,SCT,3000,SCT,10000,,,,,VFR,,,,,,,,,,,,METAR,789.0
LTBQ 052050Z 00000KT 6000 SCT010 BKN020 BKN070 02/02 Q1012 NOSIG,LTBQ,2019-01-05T20:50:00Z,40.72,30.07,2.0,2.0,0,0,,3.73,29.88189,,,,,,TRUE,,,,,SCT,1000,BKN,2000,BKN,7000,,,MVFR,,,,,,,,,,,,METAR,50.0
LTBF 052050Z 00000KT 9999 FEW015 BKN035 01/01 Q1011 NOSIG,LTBF,2019-01-05T20:50:00Z,39.62,27.92,1.0,1.0,0,0,,6.21,29.852362,,,,,,TRUE,,,,,FEW,1500,BKN,3500,,,,,VFR,,,,,,,,,,,,METAR,102.0
LTAN 052050Z 36008KT 9999 SCT040 BKN100 01/M00 Q1007 NOSIG,LTAN,2019-01-05T20:50:00Z,37.97,32.53,1.0,0.0,360,8,,6.21,29.734253,,,,,,TRUE,,,,,SCT,4000,BKN,10000,,,,,VFR,,,,,,,,,,,,METAR,1006.0
LXGB 052050Z AUTO 35001KT 9999 // NCD 11/09 Q1031,LXGB,2019-01-05T20:50:00Z,36.13,-5.33,11.0,9.0,350,1,,6.21,30.442913,,,TRUE,,,,,,,,CLR,,,,,,,,VFR,,,,,,,,,,,,METAR,5.0
KLAL 052050Z 32010KT 10SM SCT029 18/11 A3004,KLAL,2019-01-05T20:50:00Z,27.97,-82.02,18.0,11.0,320,10,,10.0,30.041338,,,,,,,,,,,SCT,2900,,,,,,,VFR,,,,,,,,,,,,METAR,43.0
KHOB 052050Z 19007KT 10SM CLR 20/M10 A3005,KHOB,2019-01-05T20:50:00Z,32.67,-103.22,20.0,-10.0,190,7,,10.0,30.050198,,,,,,,,,,,CLR,,,,,,,,VFR,,,,,,,,,,,,METAR,1115.0
OPMT 052050Z 36004KT 3000 BR NSC 10/08 Q1019 NOSIG,OPMT,2019-01-05T20:50:00Z,30.18,71.42,10.0,8.0,360,4,,1.86,30.088583,,,,,,TRUE,,,,BR,CLR,,,,,,,,IFR,,,,,,,,,,,,METAR,123.0
LTAY 052050Z 13005KT 9999 SCT030 BKN100 01/00 Q1006,LTAY,2019-01-05T20:50:00Z,37.77,29.68,1.0,0.0,130,5,,6.21,29.704725,,,,,,,,,,,SCT,3000,BKN,10000,,,,,VFR,,,,,,,,,,,,METAR,849.0
EGVN 052050Z 28003KT 9999 OVC025 04/02 Q1037 BLU TEMPO 7000 HZ OVC023 WHT,EGVN,2019-01-05T20:50:00Z,51.77,-1.58,4.0,2.0,280,3,,6.21,30.620079,,,,,,,,,,,OVC,2500,,,,,,,MVFR,,,,,,,,,,,,SPECI,88.0
EGQS 052050Z 20002KT 9999 -RA BKN028 BKN038 05/02 Q1031 BLU,EGQS,2019-01-05T20:50:00Z,57.72,-3.32,5.0,2.0,200,2,,6.21,30.442913,,,,,,,,,,-RA,BKN,2800,BKN,3800,,,,,MVFR,,,,,,,,,,,,METAR,13.0
MMCT 052050Z 03010KT 8SM BKN020 28/19 A3004 RMK 8/400,MMCT,2019-01-05T20:50:00Z,20.63,-88.45,28.0,19.0,30,10,,8.0,30.041338,,,,,,,,,,,BKN,2000,,,,,,,MVFR,,,,,,,,,,,,SPECI,28.0
EGXV 052050Z AUTO 18002KT 9999 OVC026/// 04/02 Q1035,EGXV,2019-01-05T20:50:00Z,53.87,-0.45,4.0,2.0,180,2,,6.21,30.561024,,,TRUE,,,,,,,,OVC,2600,,,,,,,MVFR,,,,,,,,,,,,METAR,6.0
EGXC 052050Z 21002KT 9999 OVC027 04/02 Q1036 BLU,EGXC,2019-01-05T20:50:00Z,53.1,-0.17,4.0,2.0,210,2,,6.21,30.590551,,,,,,,,,,,OVC,2700,,,,,,,MVFR,,,,,,,,,,,,METAR,7.0
OOMS 052050Z VRB02KT CAVOK 21/17 Q1018 NOSIG,OOMS,2019-01-05T20:50:00Z,23.57,58.27,21.0,17.0,0,2,,6.21,30.059055,,,,,,TRUE,,,,,CAVOK,,,,,,,,VFR,,,,,,,,,,,,METAR,8.0
OODQ 052050Z AUTO 08006KT 9999 SCT038 21/18 Q1018 NOSIG,OODQ,2019-01-05T20:50:00Z,19.52,57.65,21.0,18.0,80,6,,6.21,30.059055,,,TRUE,,,TRUE,,,,,SCT,3800,,,,,,,VFR,,,,,,,,,,,,METAR,0.0
OOSA 052050Z VRB01KT CAVOK 22/16 Q1017 NOSIG,OOSA,2019-01-05T20:50:00Z,17.02,54.07,22.0,16.0,0,1,,6.21,30.029528,,,,,,TRUE,,,,,CAVOK,,,,,,,,VFR,,,,,,,,,,,,METAR,20.0
NSTU 052050Z 06010G22KT 12SM SCT019 BKN040 OVC100 30/25 A2971 RMK SLP063 8/87/ T03030248 50000,NSTU,2019-01-05T20:50:00Z,-14.33,-170.72,30.3,24.8,60,10,22,12.0,29.71063,1006.3,,,,,,,,,,SCT,1900,BKN,4000,OVC,10000,,,VFR,0.0,,,,,,,,,,,SPECI,3.0
KLBE 052050Z 27011G23KT 10SM SKC 09/02 A2977,KLBE,2019-01-05T20:50:00Z,40.27,-79.4,9.0,2.0,270,11,23,10.0,29.769686,,,,,,,,,,,SKC,,,,,,,,VFR,,,,,,,,,,,,METAR,361.0
OAKB 052050Z 32006KT CAVOK M06/M09 Q1023 NOSIG RMK A3023 BLU BLU,OAKB,2019-01-05T20:50:00Z,34.55,69.22,-6.0,-9.0,320,6,,6.21,30.206694,,,,,,TRUE,,,,,CAVOK,,,,,,,,VFR,,,,,,,,,,,,SPECI,1791.0
KOLV 052050Z 24009KT 10SM SKC 13/05 A3010,KOLV,2019-01-05T20:50:00Z,34.98,-89.78,13.0,5.0,240,9,,10.0,30.100393,,,,,,,,,,,SKC,,,,,,,,VFR,,,,,,,,,,,,METAR,122.0
MSSS 052050Z 03007KT 300V080 CAVOK 32/15 Q1015 A2995,MSSS,2019-01-05T20:50:00Z,13.7,-89.12,32.0,15.0,30,7,,6.21,29.970472,,,,,,,,,,,CAVOK,,,,,,,,VFR,,,,,,,,,,,,METAR,616.0
LLSD 052050Z 15008KT 9999 FEW050 13/05 Q1014,LLSD,2019-01-05T20:50:00Z,32.12,34.78,13.0,5.0,150,8,,6.21,29.940945,,,,,,,,,,,FEW,5000,,,,,,,VFR,,,,,,,,,,,,METAR,14.0
LLHA 052050Z 22007KT 180V250 9999 -RA BKN044 15/07 Q1014,LLHA,2019-01-05T20:50:00Z,32.78,35.02,15.0,7.0,220,7,,6.21,29.940945,,,,,,,,,,-RA,BKN,4400,,,,,,,VFR,,,,,,,,,,,,METAR,8.0
LLET 052050Z 34004KT 310V060 CAVOK 13/01 Q1017,LLET,2019-01-05T20:50:00Z,29.55,34.95,13.0,1.0,340,4,,6.21,30.029528,,,,,,,,,,,CAVOK,,,,,,,,VFR,,,,,,,,,,,,METAR,13.0
KDAG 052050Z AUTO 07008KT 10SM BKN110 07/M08 A2994 RMK AO2 SLP138 T00721083 58020,KDAG,2019-01-05T20:50:00Z,34.85,-116.78,7.2,-8.3,70,8,,10.0,29.940945,1013.8,,TRUE,TRUE,,,,,,,BKN,11000,,,,,,,VFR,-2.0,,,,,,,,,,,METAR,587.0
BGSF 052050Z AUTO 08010KT 9999NDV NCD M20/M24 Q1015,BGSF,2019-01-05T20:50:00Z,67.0,-50.72,-20.0,-24.0,80,10,,,29.970472,,,TRUE,,,,,,,,CLR,,,,,,,,,,,,,,,,,,,,METAR,53.0
BGBW 052050Z AUTO 05018KT 9999NDV BKN060/// M07/M22 Q1014,BGBW,2019-01-05T20:50:00Z,61.17,-45.42,-7.0,-22.0,50,18,,,29.940945,,,TRUE,,,,,,,,BKN,6000,,,,,,,,,,,,,,,,,,,METAR,26.0
BGGH 052050Z 10020KT 9999 DRSN SCT200 M09/M17 Q1009,BGGH,2019-01-05T20:50:00Z,64.2,-51.68,-9.0,-17.0,100,20,,6.21,29.793306,,,,,,,,,,DRSN,SCT,20000,,,,,,,VFR,,,,,,,,,,,,METAR,70.0
BGJN 052050Z 09011KT 9999 -SHSN FEW010 SCT028 BKN050 M12/M16 Q1015,BGJN,2019-01-05T20:50:00Z,69.25,-51.07,-12.0,-16.0,90,11,,6.21,29.970472,,,,,,,,,,-SHSN,FEW,1000,SCT,2800,BKN,5000,,,VFR,,,,,,,,,,,,METAR,25.0
BGKK 052050Z AUTO 22006KT 9999NDV NCD M05/M08 Q1005,BGKK,2019-01-05T20:50:00Z,65.57,-37.13,-5.0,-8.0,220,6,,,29.675198,,,TRUE,,,,,,,,CLR,,,,,,,,,,,,,,,,,,,,METAR,34.0
MMTJ 052049Z 10007KT 6SM FEW030 OVC200 14/01 A3003 RMK SLP181 57013 912 8/507 HZY,MMTJ,2019-01-05T20:49:00Z,32.53,-116.97,14.0,1.0,100,7,,6.0,30.029528,1018.1,,,,,,,,,,FEW,3000,OVC,20000,,,,,VFR,-1.3,,,,,,,,,,,METAR,152.0
MMAA 052049Z 23005KT 7SM BKN300 30/23 A2989 RMK SLP117 57018 907 8/008 HZY,MMAA,2019-01-05T20:49:00Z,16.75,-99.75,30.0,23.0,230,5,,7.0,29.890747,1011.7,,,,,,,,,,BKN,30000,,,,,,,VFR,-1.8,,,,,,,,,,,METAR,5.0
KGYI 052049Z 17008KT 10SM CLR 20/02 A3007,KGYI,2019-01-05T20:49:00Z,33.72,-96.67,20.0,2.0,170,8,,10.0,30.070866,,,,,,,,,,,CLR,,,,,,,,VFR,,,,,,,,,,,,METAR,228.0
MMUN 052049Z 03004KT 7SM SCT015TCU BKN080 25/22 A3005 RMK SLP177 57012 927 8/270,MMUN,2019-01-05T20:49:00Z,21.02,-86.85,25.0,22.0,30,4,,7.0,30.050198,1017.7,,,,,,,,,,SCT,1500,BKN,8000,,,,,VFR,-1.2,,,,,,,,,,,METAR,10.0
MMIA 052048Z 25010KT 8SM FEW250 29/14 A3001 RMK SLP/// 5//// 9// 6//// 8/008,MMIA,2019-01-05T20:48:00Z,19.27,-103.57,29.0,14.0,250,10,,8.0,30.008858,,,,,,,,,,,FEW,25000,,,,,,,VFR,,,,,,,,,,,,METAR,723.0
MMSL 052048Z 16003KT 10SM BKN250 24/17 A3000 RMK 8/008,MMSL,2019-01-05T20:48:00Z,22.95,-109.93,24.0,17.0,160,3,,10.0,30.0,,,,,,,,,,,BKN,25000,,,,,,,VFR,,,,,,,,,,,,METAR,140.0
KEKM 052048Z 25009KT 10SM CLR 10/03 A2984,KEKM,2019-01-05T20:48:00Z,41.72,-86.0,10.0,3.0,250,9,,10.0,29.840551,,,,,,,,,,,CLR,,,,,,,,VFR,,,,,,,,,,,,METAR,237.0
KJDN 052048Z AUTO 11010KT 08/M04 A2987 RMK AO1 SLP138 T00831039 56020,KJDN,2019-01-05T20:48:00Z,47.33,-106.95,8.3,-3.9,110,10,,,29.870079,1013.8,,TRUE,TRUE,,,,,,,,,,,,,,,,-2.0,,,,,,,,,,,METAR,801.0
KCHD 052047Z VRB04KT 10SM BKN120 BKN200 19/01 A2996,KCHD,2019-01-05T20:47:00Z,33.27,-111.82,19.0,1.0,0,4,,10.0,29.958662,,,,,,,,,,,BKN,12000,BKN,20000,,,,,VFR,,,,,,,,,,,,METAR,379.0
KSEE 052047Z 00000KT 10SM SKC 14/05 A3000,KSEE,2019-01-05T20:47:00Z,32.82,-116.97,14.0,5.0,0,0,,10.0,30.0,,,,,,,,,,,SKC,,,,,,,,VFR,,,,,,,,,,,,METAR,117.0
KCIC 052047Z 12012KT 2 1/2SM RABR BKN023 OVC036 07/07 A2967,KCIC,2019-01-05T20:47:00Z,39.78,-121.83,7.0,7.0,120,12,,2.5,29.66929,,,,,,,,,,RA BR,BKN,2300,OVC,3600,,,,,IFR,,,,,,,,,,,,METAR,73.0
KIWA 052047Z 36003KT 30SM OVC150 18/00 A2998,KIWA,2019-01-05T20:47:00Z,33.3,-111.65,18.0,0.0,360,3,,30.0,29.97933,,,,,,,,,,,OVC,15000,,,,,,,VFR,,,,,,,,,,,,METAR,412.0
KPOC 052047Z 00000KT 10SM CLR 12/04 A2998,KPOC,2019-01-05T20:47:00Z,34.1,-117.77,12.0,4.0,0,0,,10.0,29.97933,,,,,,,,,,,CLR,,,,,,,,VFR,,,,,,,,,,,,METAR,308.0
KFDK 052047Z 32009G15KT 10SM SKC 12/07 A2969,KFDK,2019-01-05T20:47:00Z,39.42,-77.37,12.0,7.0,320,9,15,10.0,29.68996,,,,,,,,,,,SKC,,,,,,,,VFR,,,,,,,,,,,,METAR,92.0
KGYR 052047Z 07006KT 10SM SCT160 OVC200 17/01 A2997,KGYR,2019-01-05T20:47:00Z,33.42,-112.37,17.0,1.0,70,6,,10.0,29.970472,,,,,,,,,,,SCT,16000,OVC,20000,,,,,VFR,,,,,,,,,,,,METAR,295.0
KRYN 052047Z 08007KT 10SM CLR 20/01 A2999,KRYN,2019-01-05T20:47:00Z,32.15,-111.17,20.0,1.0,80,7,,10.0,29.991142,,,,,,,,,,,CLR,,,,,,,,VFR,,,,,,,,,,,,METAR,737.0
KHUM 052047Z 35005KT 7SM CLR 19/09 A3016,KHUM,2019-01-05T20:47:00Z,29.57,-90.67,19.0,9.0,350,5,,7.0,30.159449,,,,,,,,,,,CLR,,,,,,,,VFR,,,,,,,,,,,,METAR,3.0
MMTO 052047Z 35004KT 3SM HZ FU SCT015 21/02 A3035 RMK SLP108 57028 914 8/100,MMTO,2019-01-05T20:47:00Z,19.35,-99.57,21.0,2.0,350,4,,3.0,30.351377,1010.8,,,,,,,,,HZ FU,SCT,1500,,,,,,,MVFR,-2.8,,,,,,,,,,,METAR,2576.0
KRHV 052047Z 17013KT 10SM BKN040 OVC100 13/09 A2970,KRHV,2019-01-05T20:47:00Z,37.32,-121.82,13.0,9.0,170,13,,10.0,29.698818,,,,,,,,,,,BKN,4000,OVC,10000,,,,,VFR,,,,,,,,,,,,METAR,41.0
MMRX 052046Z 12010KT 10SM SKC 25/06 A3010 RMK SLP188 57022 911,MMRX,2019-01-05T20:46:00Z,26.02,-98.22,25.0,6.0,120,10,,10.0,30.100393,1018.8,,,,,,,,,,SKC,,,,,,,,VFR,-2.2,,,,,,,,,,,METAR,39.0
MMPR 052046Z 21004KT 15SM BKN250 27/19 A2991 RMK SLP125 57013 916 8/002,MMPR,2019-01-05T20:46:00Z,20.67,-105.25,27.0,19.0,210,4,,15.0,29.911417,1012.5,,,,,,,,,,BKN,25000,,,,,,,VFR,-1.3,,,,,,,,,,,METAR,6.0
MMZC 052046Z 00000KT 10SM BKN200 23/M02 A3026 RMK 8/001,MMZC,2019-01-05T20:46:00Z,22.9,-102.68,23.0,-2.0,0,0,,10.0,30.259842,,,,,,,,,,,BKN,20000,,,,,,,VFR,,,,,,,,,,,,METAR,2177.0
MMML 052046Z 06008KT 10SM -DZ BKN050 OVC100 10/02 A3001 RMK SLP163 57013 973 60005 8/72/ DZ-CONT,MMML,2019-01-05T20:46:00Z,32.62,-115.23,10.0,2.0,60,8,,10.0,30.008858,1016.3,,,,,,,,,-DZ,BKN,5000,OVC,10000,,,,,VFR,-1.3,,,,,,0.05,,,,,METAR,22.0
MMSD 052046Z 12015KT 12SM SCT200 28/11 A2995 RMK SLP128 57021 912 8/009,MMSD,2019-01-05T20:46:00Z,23.13,-109.7,28.0,11.0,120,15,,12.0,29.949802,1012.8,,,,,,,,,,SCT,20000,,,,,,,VFR,-2.1,,,,,,,,,,,METAR,109.0
MMPA 052046Z 00000KT 6SM BKN020 OVC070 23/18 A3011 RMK SLP188 57024 912 8/17/ HZY,MMPA,2019-01-05T20:46:00Z,20.5,-97.47,23.0,18.0,0,0,,6.0,30.109253,1018.8,,,,,,,,,,BKN,2000,OVC,7000,,,,,MVFR,-2.4,,,,,,,,,,,METAR,142.0
MMVA 052046Z 01008KT 7SM BKN015TCU BKN210 27/21 A3005 RMK SLP173 57020 920 8/207 HZY SC,MMVA,2019-01-05T20:46:00Z,18.0,-92.82,27.0,21.0,10,8,,7.0,30.050198,1017.3,,,,,,,,,,BKN,1500,BKN,21000,,,,,MVFR,-2.0,,,,,,,,,,,METAR,13.0
KUES 052045Z 27013G18KT 10SM SKC 09/M01 A2982,KUES,2019-01-05T20:45:00Z,43.05,-88.25,9.0,-1.0,270,13,18,10.0,29.819881,,,,,,,,,,,SKC,,,,,,,,VFR,,,,,,,,,,,,METAR,278.0
MMMA 052045Z 14008KT 8SM SKC 24/12 A3012 RMK SLP200 57026 917,MMMA,2019-01-05T20:45:00Z,25.77,-97.52,24.0,12.0,140,8,,8.0,30.121063,1020.0,,,,,,,,,,SKC,,,,,,,,VFR,-2.6,,,,,,,,,,,METAR,8.0
MMMX 052045Z 25005KT 5SM SCT250 23/03 A3030 NOSIG RMK SLP106 57028 915 8/001 HZY ISOL CU,MMMX,2019-01-05T20:45:00Z,19.42,-99.08,23.0,3.0,250,5,,5.0,30.301182,1010.6,,,,,TRUE,,,,,SCT,25000,,,,,,,MVFR,-2.8,,,,,,,,,,,METAR,2238.0
KMMU 052045Z 35006G12KT 5SM -RA BR BKN022 07/06 A2951,KMMU,2019-01-05T20:45:00Z,40.78,-74.42,7.0,6.0,350,6,12,5.0,29.509842,,,,,,,,,,-RA BR,BKN,2200,,,,,,,MVFR,,,,,,,,,,,,METAR,57.0
KCGF 052045Z 24005KT 10SM SKC 06/01 A2978,KCGF,2019-01-05T20:45:00Z,41.57,-81.47,6.0,1.0,240,5,,10.0,29.778543,,,,,,,,,,,SKC,,,,,,,,VFR,,,,,,,,,,,,METAR,268.0
KMER 052045Z 15012KT 3SM BKN034 OVC046 09/09 A2981,KMER,2019-01-05T20:45:00Z,37.38,-120.57,9.0,9.0,150,12,,3.0,29.811024,,,,,,,,,,,BKN,3400,OVC,4600,,,,,MVFR,,,,,,,,,,,,METAR,57.0
LHUD 052045Z 31007KT 9999 BKN010 01/00 Q1013 RESN,LHUD,2019-01-05T20:45:00Z,46.25,20.1,1.0,0.0,310,7,,6.21,29.911417,,,,,,,,,,,BKN,1000,,,,,,,MVFR,,,,,,,,,,,,METAR,84.0
KEMT 052045Z 11003KT 10SM FEW030 OVC120 14/08 A2998,KEMT,2019-01-05T20:45:00Z,34.07,-118.02,14.0,8.0,110,3,,10.0,29.97933,,,,,,,,,,,FEW,3000,OVC,12000,,,,,VFR,,,,,,,,,,,,METAR,90.0
KAID 052045Z 28010KT 10SM CLR 12/03 A2991,KAID,2019-01-05T20:45:00Z,40.12,-85.62,12.0,3.0,280,10,,10.0,29.911417,,,,,,,,,,,CLR,,,,,,,,VFR,,,,,,,,,,,,METAR,280.0
KMHR 052045Z 13019G27KT 7SM BKN065 OVC080 10/06 A2970,KMHR,2019-01-05T20:45:00Z,38.53,-121.28,10.0,6.0,130,19,27,7.0,29.698818,,,,,,,,,,,BKN,6500,OVC,8000,,,,,VFR,,,,,,,,,,,,METAR,29.0
KCWF 052045Z 23004KT 10SM SKC 19/08 A3018,KCWF,2019-01-05T20:45:00Z,30.22,-93.15,19.0,8.0,230,4,,10.0,30.180119,,,,,,,,,,,SKC,,,,,,,,VFR,,,,,,,,,,,,METAR,4.0
MMPQ 052045Z 00000KT 5SM SCT020TCU BKN200 27/23 A2992 RMK 8/208 HZY,MMPQ,2019-01-05T20:45:00Z,17.53,-91.98,27.0,23.0,0,0,,5.0,29.920275,,,,,,,,,,,SCT,2000,BKN,20000,,,,,MVFR,,,,,,,,,,,,METAR,61.0
SBPK 052045Z 08014KT 9999 FEW040 26/18 Q1013,SBPK,2019-01-05T20:45:00Z,-31.72,-52.33,26.0,18.0,80,14,,6.21,29.911417,,,,,,,,,,,FEW,4000,,,,,,,VFR,,,,,,,,,,,,SPECI,13.0
MMVR 052045Z 02009KT 7SM FEW012 BKN035 BKN070 25/20 A3010 RMK SLP169 57018 915 8/850 HZY,MMVR,2019-01-05T20:45:00Z,19.15,-96.18,25.0,20.0,20,9,,7.0,30.100393,1016.9,,,,,,,,,,FEW,1200,BKN,3500,BKN,7000,,,VFR,-1.8,,,,,,,,,,,METAR,16.0
MMPS 052045Z 22008KT 10SM FEW015 SCT240 30/23 A2999 RMK 8/101 HZY,MMPS,2019-01-05T20:45:00Z,15.87,-97.07,30.0,23.0,220,8,,10.0,29.991142,,,,,,,,,,,FEW,1500,SCT,24000,,,,,VFR,,,,,,,,,,,,METAR,88.0
MMPB 052045Z 19009KT 8SM FEW025 SCT220 23/03 A3030 RMK 8/102 HZY,MMPB,2019-01-05T20:45:00Z,19.17,-98.37,23.0,3.0,190,9,,8.0,30.301182,,,,,,,,,,,FEW,2500,SCT,22000,,,,,VFR,,,,,,,,,,,,METAR,2244.0
KTRK 052045Z 19026G40KT 10SM SCT0360 BKN040 OVC0550 03/M08 A2969,KTRK,2019-01-05T20:45:00Z,39.32,-120.12,3.0,-8.0,190,26,40,10.0,29.68996,,,,,,,,,,,BKN,4000,,,,,,,VFR,,,,,,,,,,,,SPECI,1798.0
MMNL 052043Z 18010KT 10SM SKC 24/07 A3008 RMK SLP177 56035 902,MMNL,2019-01-05T20:43:00Z,27.42,-99.57,24.0,7.0,180,10,,10.0,30.079725,1017.7,,,,,,,,,,SKC,,,,,,,,VFR,-3.5,,,,,,,,,,,METAR,148.0
MMGL 052043Z 10006KT 10SM BKN300 26/06 A3016 RMK SLP109 57030 910 8/008,MMGL,2019-01-05T20:43:00Z,20.52,-103.32,26.0,6.0,100,6,,10.0,30.159449,1010.9,,,,,,,,,,BKN,30000,,,,,,,VFR,-3.0,,,,,,,,,,,METAR,1528.0
MMSP 052043Z 01013KT 12SM BKN250 25/05 A3024 RMK SLP140 57025 923 8/008,MMSP,2019-01-05T20:43:00Z,22.25,-100.93,25.0,5.0,10,13,,12.0,30.239174,1014.0,,,,,,,,,,BKN,25000,,,,,,,VFR,-2.5,,,,,,,,,,,METAR,1903.0
MMZO 052043Z 21008KT 10SM BKN210 30/23 A2988 RMK SLP/// 5//// 9// 8/004,MMZO,2019-01-05T20:43:00Z,19.13,-104.57,30.0,23.0,210,8,,10.0,29.878937,,,,,,,,,,,BKN,21000,,,,,,,VFR,,,,,,,,,,,,METAR,8.0
MMLM 052043Z 34004KT 10SM BKN220 26/09 A2994 RMK SLP139 8/001,MMLM,2019-01-05T20:43:00Z,25.67,-109.07,26.0,9.0,340,4,,10.0,29.940945,1013.9,,,,,,,,,,BKN,22000,,,,,,,VFR,,,,,,,,,,,,METAR,4.0
MMMZ 052043Z 22005KT 15SM BKN240 29/17 A2992 RMK SLP132 57013 920 8/002,MMMZ,2019-01-05T20:43:00Z,23.17,-106.27,29.0,17.0,220,5,,15.0,29.920275,1013.2,,,,,,,,,,BKN,24000,,,,,,,VFR,-1.3,,,,,,,,,,,METAR,10.0
MMCP 052043Z 33007KT 7SM FEW030 SCT100 26/21 A3004 RMK SLP162 57017 930 8/130 HZY,MMCP,2019-01-05T20:43:00Z,19.82,-90.5,26.0,21.0,330,7,,7.0,30.041338,1016.2,,,,,,,,,,FEW,3000,SCT,10000,,,,,VFR,-1.7,,,,,,,,,,,METAR,5.0
MMCS 052042Z 00000KT 10SM SCT200 12/M06 A3015 RMK SLP188 57022 958 8/002,MMCS,2019-01-05T20:42:00Z,31.62,-106.42,12.0,-6.0,0,0,,10.0,30.15059,1018.8,,,,,,,,,,SCT,20000,,,,,,,VFR,-2.2,,,,,,,,,,,METAR,1171.0
MMLO 052042Z 17006KT 8SM SCT250 26/05 A3028 RMK SLP132 57024 910 8/002 HZY,MMLO,2019-01-05T20:42:00Z,21.0,-101.47,26.0,5.0,170,6,,8.0,30.280512,1013.2,,,,,,,,,,SCT,25000,,,,,,,VFR,-2.4,,,,,,,,,,,METAR,1819.0
MMPN 052042Z 21010KT 12SM BKN280 24/10 A3018 RMK SLP/// 5//// 9// 8/001 HZY,MMPN,2019-01-05T20:42:00Z,19.38,-102.02,24.0,10.0,210,10,,12.0,30.180119,,,,,,,,,,,BKN,28000,,,,,,,VFR,,,,,,,,,,,,METAR,1593.0
MMCL 052042Z 18008KT 10SM SCT250 31/11 A2991 RMK SLP127 57020 913 8/002 HZY,MMCL,2019-01-05T20:42:00Z,24.77,-107.47,31.0,11.0,180,8,,10.0,29.911417,1012.7,,,,,,,,,,SCT,25000,,,,,,,VFR,-2.0,,,,,,,,,,,METAR,39.0
MMLP 052042Z 36008KT 10SM BKN180 BKN220 23/14 A2997 RMK SLP148 57018 906 8/038 HZ,MMLP,2019-01-05T20:42:00Z,24.07,-110.37,23.0,14.0,360,8,,10.0,29.970472,1014.8,,,,,,,,,,BKN,18000,BKN,22000,,,,,VFR,-1.8,,,,,,,,,,,METAR,21.0
MMBT 052042Z 00000KT 8SM FEW020 30/22 A2991 RMK 8/100,MMBT,2019-01-05T20:42:00Z,15.77,-96.27,30.0,22.0,0,0,,8.0,29.911417,,,,,,,,,,,FEW,2000,,,,,,,VFR,,,,,,,,,,,,METAR,143.0
MMOX 052042Z 21007KT 12SM SCT040 SCT210 26/08 A3019 RMK SLP116 57030 915 8/406,MMOX,2019-01-05T20:42:00Z,17.0,-96.72,26.0,8.0,210,7,,12.0,30.188976,1011.6,,,,,,,,,,SCT,4000,SCT,21000,,,,,VFR,-3.0,,,,,,,,,,,METAR,1528.0
MMCE 052042Z 02012KT 5SM BKN015 26/21 A3004 RMK SLP169 57017 917 8/100 HZY,MMCE,2019-01-05T20:42:00Z,18.65,-91.8,26.0,21.0,20,12,,5.0,30.041338,1016.9,,,,,,,,,,BKN,1500,,,,,,,MVFR,-1.7,,,,,,,,,,,METAR,2.0
MMCU 052041Z 09008KT 10SM BKN200 20/M01 A3011 RMK SLP168 57034 967 8/008,MMCU,2019-01-05T20:41:00Z,28.7,-105.97,20.0,-1.0,90,8,,10.0,30.109253,1016.8,,,,,,,,,,BKN,20000,,,,,,,VFR,-3.4,,,,,,,,,,,METAR,1372.0
MMTG 052041Z 32010G22KT 6SM SCT030 30/18 A2998 RMK SLP120 57029 910 8/500 VSBY VRB FU W,MMTG,2019-01-05T20:41:00Z,16.57,-93.03,30.0,18.0,320,10,22,6.0,29.97933,1012.0,,,,,,,,,,SCT,3000,,,,,,,VFR,-2.9,,,,,,,,,,,METAR,528.0
MMMD 052041Z 02010KT 7SM BKN030 28/17 A3007 RMK SLP183 52016 940 8/500,MMMD,2019-01-05T20:41:00Z,20.95,-89.65,28.0,17.0,20,10,,7.0,30.070866,1018.3,,,,,,,,,,BKN,3000,,,,,,,MVFR,1.6,,,,,,,,,,,METAR,10.0
MMIO 052040Z 36007KT 10SM SKC 23/15 A3020 RMK CI,MMIO,2019-01-05T20:40:00Z,25.55,-100.93,23.0,15.0,360,7,,10.0,30.200787,,,,,,,,,,,SKC,,,,,,,,VFR,,,,,,,,,,,,METAR,1790.0
MMAN 052040Z 11009KT 15SM SKC 23/05 A3012 RMK SLP/// 5//// 9// FU NE,MMAN,2019-01-05T20:40:00Z,25.87,-100.23,23.0,5.0,110,9,,15.0,30.121063,,,,,,,,,,,SKC,,,,,,,,VFR,,,,,,,,,,,,METAR,448.0
MMMY 052040Z 12006KT 15SM SKC 23/// A3008 RMK SLP/// 5//// 9//,MMMY,2019-01-05T20:40:00Z,25.77,-100.08,,,120,6,,15.0,30.079725,,,,,,,,,,,SKC,,,,,,,,VFR,,,,,,,,,,,,METAR,387.0
MMPG 052040Z 10008KT 10SM SKC 24/04 A3010,MMPG,2019-01-05T20:40:00Z,28.65,-100.52,24.0,4.0,100,8,,10.0,30.100393,,,,,,,,,,,SKC,,,,,,,,VFR,,,,,,,,,,,,METAR,250.0
MMTC 052040Z 20004KT 10SM SCT250 23/00 A3011 RMK SLP147 58037 956 8/002,MMTC,2019-01-05T20:40:00Z,25.57,-103.4,23.0,0.0,200,4,,10.0,30.109253,1014.7,,,,,,,,,,SCT,25000,,,,,,,VFR,-3.7,,,,,,,,,,,METAR,1124.0
MMCN 052040Z 13003KT 10SM FEW100 BKN200 26/03 A2991 RMK SLP129 8/038,MMCN,2019-01-05T20:40:00Z,27.4,-109.83,26.0,3.0,130,3,,10.0,29.911417,1012.9,,,,,,,,,,FEW,10000,BKN,20000,,,,,VFR,,,,,,,,,,,,METAR,43.0
MMGM 052040Z 24008KT 10SM OVC130 21/13 A2990 RMK 8/02/,MMGM,2019-01-05T20:40:00Z,27.95,-110.92,21.0,13.0,240,8,,10.0,29.899607,,,,,,,,,,,OVC,13000,,,,,,,VFR,,,,,,,,,,,,METAR,20.0
MMHO 052040Z 00000KT 10SM BKN100 OVC200 25/04 A2996 RMK SLP151 57023 952 8/037 HZY,MMHO,2019-01-05T20:40:00Z,29.08,-111.05,25.0,4.0,0,0,,10.0,29.958662,1015.1,,,,,,,,,,BKN,10000,OVC,20000,,,,,VFR,-2.3,,,,,,,,,,,METAR,184.0
MMLT 052040Z 00000KT 8SM BKN120 BKN240 19/14 A2994 RMK SLP139 8/032 HZY,MMLT,2019-01-05T20:40:00Z,26.02,-111.33,19.0,14.0,0,0,,8.0,29.940945,1013.9,,,,,,,,,,BKN,12000,BKN,24000,,,,,VFR,,,,,,,,,,,,METAR,15.0
MMTP 052040Z 28007KT 9SM SCT025 32/23 A2985 RMK SLP133 57024 915 8/400 HZY,MMTP,2019-01-05T20:40:00Z,14.77,-92.37,32.0,23.0,280,7,,9.0,29.84941,1013.3,,,,,,,,,,SCT,2500,,,,,,,VFR,-2.4,,,,,,,,,,,METAR,29.0
MMZH 052040Z 21007KT 7SM FEW025 BKN250 31/23 A2990 RMK SLP116 57024 913 8/102 HZY,MMZH,2019-01-05T20:40:00Z,17.6,-101.47,31.0,23.0,210,7,,7.0,29.899607,1011.6,,,,,,,,,,FEW,2500,BKN,25000,,,,,VFR,-2.4,,,,,,,,,,,METAR,6.0
MMTM 052040Z E06010KT 10SM SCT015 SCT200 25/17 A3012 RMK SLP198 52007 910 8/101,MMTM,2019-01-05T20:40:00Z,22.27,-97.87,25.0,17.0,60,10,,10.0,30.121063,1019.8,,,,,,,,,,SCT,1500,SCT,20000,,,,,VFR,0.7,,,,,,,,,,,METAR,24.0
