No errors
No warnings
386 ms
data source=metars
4912 results
raw_text,station_id,observation_time,latitude,longitude,temp_c,dewpoint_c,wind_dir_degrees,wind_speed_kt,wind_gust_kt,visibility_statute_mi,altim_in_hg,sea_level_pressure_mb,corrected,auto,auto_station,maintenance_indicator_on,no_signal,lightning_sensor_off,freezing_rain_sensor_off,present_weather_sensor_off,wx_string,sky_cover,cloud_base_ft_agl,sky_cover,cloud_base_ft_agl,sky_cover,cloud_base_ft_agl,sky_cover,cloud_base_ft_agl,flight_category,three_hr_pressure_tendency_mb,maxT_c,minT_c,maxT24hr_c,minT24hr_c,precip_in,pcp3hr_in,pcp6hr_in,pcp24hr_in,snow_in,vert_vis_ft,metar_type,elevation_m
K04V 121418Z AUTO 00000KT 10SM OVC050 M07/M10 A3015 RMK AO2,K04V,2019-01-12T14:18:00Z,38.1,-106.17,-7.0,-10.0,0,0,,10.0,30.15059,,,TRUE,TRUE,,,,,,,OVC,5000,,,,,,,VFR,,,,,,,,,,,,SPECI,2385.0
CYNA 121418Z AUTO 24015G21KT 2 1/4SM -SN OVC010 M03/M05 A2977 RMK SLP083,CYNA,2019-01-12T14:18:00Z,50.17,-61.82,-3.0,-5.0,240,15,21,2.25,29.769686,1008.3,,TRUE,,,,,,,-SN,OVC,1000,,,,,,,IFR,,,,,,,,,,,,SPECI,11.0
CYPD 121418Z AUTO 27008KT 9SM BKN023 BKN028 M11/M16 A3004 RMK SLP183,CYPD,2019-01-12T14:18:00Z,45.67,-61.37,-11.0,-16.0,270,8,,9.0,30.041338,1018.3,,TRUE,,,,,,,,BKN,2300,BKN,2800,,,,,MVFR,,,,,,,,,,,,SPECI,114.0
CYPY 121418Z AUTO 26004KT 9SM BKN011 M11/M13 A2979 RMK SLP109,CYPY,2019-01-12T14:18:00Z,58.77,-111.12,-11.0,-13.0,260,4,,9.0,29.790354,1010.9,,TRUE,,,,,,,,BKN,1100,,,,,,,MVFR,,,,,,,,,,,,SPECI,232.0
CYBC 121418Z AUTO 28010KT 9SM BKN035 BKN041 OVC048 M14/M21 A3008 RMK SLP190,CYBC,2019-01-12T14:18:00Z,49.12,-68.2,-14.0,-21.0,280,10,,9.0,30.079725,1019.0,,TRUE,,,,,,,,BKN,3500,BKN,4100,OVC,4800,,,VFR,,,,,,,,,,,,SPECI,22.0
PASL 121417Z AUTO 00000KT 2SM BR SCT001 BKN055 OVC080 M37/ A2986 RMK AO2 FZRANO,PASL,2019-01-12T14:17:00Z,61.72,-157.15,-37.0,,0,0,,2.0,29.861221,,,TRUE,TRUE,,,,TRUE,,BR,SCT,100,BKN,5500,OVC,8000,,,IFR,,,,,,,,,,,,SPECI,55.0
KCWI 121417Z AUTO 08008KT 1/2SM SN FZFG SCT007 OVC011 M02/M03 A3029 RMK AO2 P0000 FZRANO,KCWI,2019-01-12T14:17:00Z,41.82,-90.32,-2.0,-3.0,80,8,,0.5,30.28937,,,TRUE,TRUE,,,,TRUE,,SN FZFG,SCT,700,OVC,1100,,,,,LIFR,,,,,,0.005,,,,,,SPECI,216.0
CYMH 121417Z AUTO 20014G22KT 3SM -SN SCT020 OVC030 M02/M05 A2979 RMK SLP091,CYMH,2019-01-12T14:17:00Z,52.28,-55.85,-2.0,-5.0,200,14,22,3.0,29.790354,1009.1,,TRUE,,,,,,,-SN,SCT,2000,OVC,3000,,,,,MVFR,,,,,,,,,,,,SPECI,11.0
CWSA 121417Z AUTO 26016G23KT 6SM -SN FEW013 SCT019 BKN024 OVC045 M02/M05 A3013 RMK SLP203,CWSA,2019-01-12T14:17:00Z,43.93,-60.0,-2.0,-5.0,260,16,23,6.0,30.129921,1020.3,,TRUE,,,,,,,-SN,FEW,1300,SCT,1900,BKN,2400,OVC,4500,MVFR,,,,,,,,,,,,SPECI,4.0
CYFC 121417Z AUTO 26012G22KT 230V300 9SM SCT043 BKN110 M16/M20 A3015 RMK SLP215,CYFC,2019-01-12T14:17:00Z,45.87,-66.52,-16.0,-20.0,260,12,22,9.0,30.15059,1021.5,,TRUE,,,,,,,,SCT,4300,BKN,11000,,,,,VFR,,,,,,,,,,,,SPECI,20.0
KAQP 121417Z AUTO 02004KT 10SM BKN032 M06/M08 A3034 RMK AO2,KAQP,2019-01-12T14:17:00Z,45.22,-96.0,-6.0,-8.0,20,4,,10.0,30.339567,,,TRUE,TRUE,,,,,,,BKN,3200,,,,,,,VFR,,,,,,,,,,,,METAR,311.0
KRQB 121416Z AUTO 09009KT 10SM OVC055 M03/M07 A3043 RMK AO2 T10351072,KRQB,2019-01-12T14:16:00Z,43.72,-85.5,-3.5,-7.2,90,9,,10.0,30.431103,,,TRUE,TRUE,,,,,,,OVC,5500,,,,,,,VFR,,,,,,,,,,,,METAR,302.0
KPWC 121416Z AUTO 06005KT 10SM BKN012 OVC025 M06/M07 A3041 RMK AO2,KPWC,2019-01-12T14:16:00Z,46.72,-94.37,-6.0,-7.0,60,5,,10.0,30.410433,,,TRUE,TRUE,,,,,,,BKN,1200,OVC,2500,,,,,MVFR,,,,,,,,,,,,METAR,395.0
KTOB 121416Z AUTO 07007KT 10SM OVC060 M04/M06 A3028 RMK AO2,KTOB,2019-01-12T14:16:00Z,44.02,-92.82,-4.0,-6.0,70,7,,10.0,30.280512,,,TRUE,TRUE,,,,,,,OVC,6000,,,,,,,VFR,,,,,,,,,,,,METAR,398.0
KOVL 121416Z AUTO 06006KT 10SM SCT027 M08/M09 A3032 RMK AO2,KOVL,2019-01-12T14:16:00Z,44.78,-95.03,-8.0,-9.0,60,6,,10.0,30.318897,,,TRUE,TRUE,,,,,,,SCT,2700,,,,,,,VFR,,,,,,,,,,,,METAR,328.0
KOSC 121416Z AUTO 09008KT 7SM -SN OVC014 M03/M05 A3050 RMK AO2 T10271055,KOSC,2019-01-12T14:16:00Z,44.45,-83.4,-2.7,-5.5,90,8,,7.0,30.499016,,,TRUE,TRUE,,,,,,-SN,OVC,1400,,,,,,,MVFR,,,,,,,,,,,,METAR,193.0
KMZH 121416Z AUTO 05004KT 10SM OVC033 M03/M06 A3038 RMK AO2,KMZH,2019-01-12T14:16:00Z,46.42,-92.8,-3.0,-6.0,50,4,,10.0,30.380905,,,TRUE,TRUE,,,,,,,OVC,3300,,,,,,,VFR,,,,,,,,,,,,METAR,328.0
KPMH 121416Z AUTO 13003KT 3SM -SN BKN029 BKN039 OVC045 M02/M03 A3039 RMK AO2 T10181035,KPMH,2019-01-12T14:16:00Z,38.83,-82.85,-1.8,-3.5,130,3,,3.0,30.389763,,,TRUE,TRUE,,,,,,-SN,BKN,2900,BKN,3900,OVC,4500,,,MVFR,,,,,,,,,,,,METAR,202.0
KLXL 121416Z AUTO 04003KT 10SM OVC037 M04/M07 A3036 RMK AO2,KLXL,2019-01-12T14:16:00Z,45.95,-94.33,-4.0,-7.0,40,3,,10.0,30.360237,,,TRUE,TRUE,,,,,,,OVC,3700,,,,,,,VFR,,,,,,,,,,,,METAR,342.0
KIKW 121416Z AUTO 06005KT 7SM OVC060 M02/M06 A3047 RMK AO2 T10251060,KIKW,2019-01-12T14:16:00Z,43.67,-84.27,-2.5,-6.0,60,5,,7.0,30.469488,,,TRUE,TRUE,,,,,,,OVC,6000,,,,,,,VFR,,,,,,,,,,,,METAR,194.0
KMRT 121416Z AUTO 09006KT 3SM SCT016 BKN021 OVC035 M03/M05 A3036 RMK AO2 T10291051,KMRT,2019-01-12T14:16:00Z,40.22,-83.35,-2.9,-5.1,90,6,,3.0,30.360237,,,TRUE,TRUE,,,,,,,SCT,1600,BKN,2100,OVC,3500,,,MVFR,,,,,,,,,,,,METAR,312.0
KBAX 121416Z AUTO 00000KT 10SM OVC026 M03/M07 A3048 RMK AO2 T10311067,KBAX,2019-01-12T14:16:00Z,43.78,-82.98,-3.1,-6.7,0,0,,10.0,30.481298,,,TRUE,TRUE,,,,,,,OVC,2600,,,,,,,MVFR,,,,,,,,,,,,SPECI,234.0
KAXV 121416Z AUTO 09006KT 3/4SM -SN VV005 M02/M03 A3035 RMK AO2,KAXV,2019-01-12T14:16:00Z,40.5,-84.3,-2.0,-3.0,90,6,,0.75,30.351377,,,TRUE,TRUE,,,,,,-SN,OVX,0,,,,,,,LIFR,,,,,,,,,,,500,SPECI,279.0
KCFS 121416Z AUTO 07003KT 10SM OVC060 M03/M06 A3047 RMK AO2 T10321065,KCFS,2019-01-12T14:16:00Z,43.47,-83.45,-3.2,-6.5,70,3,,10.0,30.469488,,,TRUE,TRUE,,,,,,,OVC,6000,,,,,,,VFR,,,,,,,,,,,,SPECI,214.0
KTTF 121416Z AUTO 07003KT 10SM OVC024 M02/M03 A3043 RMK AO2 T10201030,KTTF,2019-01-12T14:16:00Z,41.93,-83.42,-2.0,-3.0,70,3,,10.0,30.431103,,,TRUE,TRUE,,,,,,,OVC,2400,,,,,,,MVFR,,,,,,,,,,,,SPECI,188.0
KCBG 121416Z AUTO 00000KT 10SM CLR M05/M10 A3037 RMK AO2,KCBG,2019-01-12T14:16:00Z,45.57,-93.27,-5.0,-10.0,0,0,,10.0,30.369095,,,TRUE,TRUE,,,,,,,CLR,,,,,,,,VFR,,,,,,,,,,,,SPECI,287.0
KCAD 121416Z AUTO 07008KT 10SM OVC060 M06/M08 A3041 RMK AO2 T10601085,KCAD,2019-01-12T14:16:00Z,44.27,-85.42,-6.0,-8.5,70,8,,10.0,30.410433,,,TRUE,TRUE,,,,,,,OVC,6000,,,,,,,VFR,,,,,,,,,,,,SPECI,398.0
KD95 121416Z AUTO 08003KT 10SM OVC065 M03/M07 A3046 RMK AO2 T10301075,KD95,2019-01-12T14:16:00Z,43.07,-83.27,-3.0,-7.5,80,3,,10.0,30.46063,,,TRUE,TRUE,,,,,,,OVC,6500,,,,,,,VFR,,,,,,,,,,,,SPECI,255.0
KDYT 121416Z AUTO 10SM SCT021 OVC042 M01/M04 A3045 RMK AO2,KDYT,2019-01-12T14:16:00Z,46.72,-92.03,-1.0,-4.0,,,,10.0,30.448818,,,TRUE,TRUE,,,,,,,SCT,2100,OVC,4200,,,,,VFR,,,,,,,,,,,,SPECI,186.0
KEVM 121416Z AUTO 06005KT 10SM OVC006 M07/M08 A3043 RMK AO2 T10701080,KEVM,2019-01-12T14:16:00Z,47.42,-92.5,-7.0,-8.0,60,5,,10.0,30.431103,,,TRUE,TRUE,,,,,,,OVC,600,,,,,,,IFR,,,,,,,,,,,,SPECI,421.0
K40B 121416Z AUTO 24008G21KT 190V320 M19/M24 A3015 RMK AO1 SLP261 T11921235 53023 P0011,K40B,2019-01-12T14:16:00Z,46.62,-69.52,-19.2,-23.5,240,8,21,,30.15059,1026.1,,TRUE,TRUE,,,,,,,,,,,,,,,,2.3,,,,,0.11,,,,,,SPECI,314.0
KFFM 121416Z AUTO 07004KT 10SM OVC027 M05/M08 A3037 RMK AO2,KFFM,2019-01-12T14:16:00Z,46.28,-96.15,-5.0,-8.0,70,4,,10.0,30.369095,,,TRUE,TRUE,,,,,,,OVC,2700,,,,,,,MVFR,,,,,,,,,,,,SPECI,361.0
KFKS 121416Z AUTO 08006KT 10SM OVC046 M05/M07 A3047 RMK AO2 T10471070,KFKS,2019-01-12T14:16:00Z,44.63,-86.2,-4.7,-7.0,80,6,,10.0,30.469488,,,TRUE,TRUE,,,,,,,OVC,4600,,,,,,,VFR,,,,,,,,,,,,SPECI,193.0
KFPK 121416Z AUTO 09006KT 10SM OVC080 M03/M05 A3039 RMK AO2 T10261055,KFPK,2019-01-12T14:16:00Z,42.57,-84.82,-2.6,-5.5,90,6,,10.0,30.389763,,,TRUE,TRUE,,,,,,,OVC,8000,,,,,,,VFR,,,,,,,,,,,,SPECI,272.0
KFSE 121416Z AUTO 05003KT 1 3/4SM BR OVC006 M06/M07 A3040 RMK AO2,KFSE,2019-01-12T14:16:00Z,47.58,-95.77,-6.0,-7.0,50,3,,1.75,30.398623,,,TRUE,TRUE,,,,,,BR,OVC,600,,,,,,,IFR,,,,,,,,,,,,SPECI,389.0
KMGN 121416Z AUTO 07011G14KT 10SM OVC016 M06/M08 A3052 RMK AO2 T10581088,KMGN,2019-01-12T14:16:00Z,45.43,-84.92,-5.8,-8.8,70,11,14,10.0,30.519686,,,TRUE,TRUE,,,,,,,OVC,1600,,,,,,,MVFR,,,,,,,,,,,,SPECI,209.0
KMCD 121416Z AUTO 06013KT 10SM SCT008 OVC024 M09/M11 A3056 RMK AO2 T10921110,KMCD,2019-01-12T14:16:00Z,45.85,-84.63,-9.2,-11.0,60,13,,10.0,30.561024,,,TRUE,TRUE,,,,,,,SCT,800,OVC,2400,,,,,MVFR,,,,,,,,,,,,SPECI,226.0
KLYV 121416Z AUTO 01006KT 7SM OVC017 M06/M07 A3026 RMK AO2,KLYV,2019-01-12T14:16:00Z,43.62,-96.22,-6.0,-7.0,10,6,,7.0,30.259842,,,TRUE,TRUE,,,,,,,OVC,1700,,,,,,,MVFR,,,,,,,,,,,,SPECI,436.0
KLWA 121416Z AUTO 09006KT 10SM OVC080 M02/M06 A3038 RMK AO2 T10171059,KLWA,2019-01-12T14:16:00Z,42.35,-86.25,-1.7,-5.9,90,6,,10.0,30.380905,,,TRUE,TRUE,,,,,,,OVC,8000,,,,,,,VFR,,,,,,,,,,,,SPECI,203.0
K4I3 121416Z AUTO 08005KT 10SM SCT032 M03/M06 A3038 RMK AO2,K4I3,2019-01-12T14:16:00Z,40.33,-82.53,-3.0,-6.0,80,5,,10.0,30.380905,,,TRUE,TRUE,,,,,,,SCT,3200,,,,,,,VFR,,,,,,,,,,,,SPECI,363.0
K22N 121416Z AUTO 00000KT 10SM OVC075 M05/M11 A3054 RMK AO2,K22N,2019-01-12T14:16:00Z,40.8,-75.77,-5.0,-11.0,0,0,,10.0,30.540354,,,TRUE,TRUE,,,,,,,OVC,7500,,,,,,,VFR,,,,,,,,,,,,SPECI,163.0
K14Y 121416Z AUTO 05004KT OVC032 M05/M08 A3034 RMK AO2 PWINO,K14Y,2019-01-12T14:16:00Z,45.9,-94.87,-5.0,-8.0,50,4,,,30.339567,,,TRUE,TRUE,,,,,TRUE,,OVC,3200,,,,,,,,,,,,,,,,,,,SPECI,406.0
KHAI 121416Z AUTO 09008KT 10SM SCT065 OVC100 M03/M06 A3038 RMK AO2 T10281065,KHAI,2019-01-12T14:16:00Z,41.97,-85.6,-2.8,-6.5,90,8,,10.0,30.380905,,,TRUE,TRUE,,,,,,,SCT,6500,OVC,10000,,,,,VFR,,,,,,,,,,,,SPECI,251.0
KSAZ 121416Z AUTO 05003KT 10SM OVC033 M06/M08 A3036 RMK AO2,KSAZ,2019-01-12T14:16:00Z,46.37,-94.8,-6.0,-8.0,50,3,,10.0,30.360237,,,TRUE,TRUE,,,,,,,OVC,3300,,,,,,,VFR,,,,,,,,,,,,SPECI,392.0
KRZT 121416Z AUTO 10003KT 5SM UP BKN008 OVC012 M02/M02 A3037 RMK AO2,KRZT,2019-01-12T14:16:00Z,39.43,-83.02,-2.0,-2.0,100,3,,5.0,30.369095,,,TRUE,TRUE,,,,,,UP,BKN,800,OVC,1200,,,,,IFR,,,,,,,,,,,,SPECI,221.0
KRRT 121416Z AUTO 07004KT 10SM BKN009 OVC022 M08/M10 A3044 RMK AO2,KRRT,2019-01-12T14:16:00Z,48.93,-95.33,-8.0,-10.0,70,4,,10.0,30.43996,,,TRUE,TRUE,,,,,,,BKN,900,OVC,2200,,,,,IFR,,,,,,,,,,,,SPECI,327.0
KOEB 121416Z AUTO 09008KT 7SM OVC120 M02/M06 A3038 RMK AO2 T10211065,KOEB,2019-01-12T14:16:00Z,41.92,-85.03,-2.1,-6.5,90,8,,7.0,30.380905,,,TRUE,TRUE,,,,,,,OVC,12000,,,,,,,VFR,,,,,,,,,,,,SPECI,292.0
KMWM 121416Z AUTO 35008KT 5SM BR BKN004 BKN037 M07/M08 A3026 RMK AO2,KMWM,2019-01-12T14:16:00Z,43.9,-95.1,-7.0,-8.0,350,8,,5.0,30.259842,,,TRUE,TRUE,,,,,,BR,BKN,400,BKN,3700,,,,,LIFR,,,,,,,,,,,,SPECI,430.0
KMQJ 121416Z AUTO 10009KT 3/4SM OVC007 M03/M03 A3029 RMK AO1,KMQJ,2019-01-12T14:16:00Z,39.85,-85.9,-3.0,-3.0,100,9,,0.75,30.28937,,,TRUE,TRUE,,,,,,,OVC,700,,,,,,,LIFR,,,,,,,,,,,,SPECI,263.0
KJMR 121416Z AUTO 06004KT 10SM OVC042 M03/M06 A3039 RMK AO2,KJMR,2019-01-12T14:16:00Z,45.88,-93.27,-3.0,-6.0,60,4,,10.0,30.389763,,,TRUE,TRUE,,,,,,,OVC,4200,,,,,,,VFR,,,,,,,,,,,,SPECI,309.0
KJKJ 121416Z AUTO 00000KT 2SM BR OVC003 M06/M07 A3040 RMK AO2,KJKJ,2019-01-12T14:16:00Z,46.83,-96.67,-6.0,-7.0,0,0,,2.0,30.398623,,,TRUE,TRUE,,,,,,BR,OVC,300,,,,,,,LIFR,,,,,,,,,,,,SPECI,280.0
KIRS 121416Z AUTO 10008KT 10SM OVC100 M02/M06 A3036 RMK AO2 T10211061,KIRS,2019-01-12T14:16:00Z,41.8,-85.43,-2.1,-6.1,100,8,,10.0,30.360237,,,TRUE,TRUE,,,,,,,OVC,10000,,,,,,,VFR,,,,,,,,,,,,SPECI,282.0
KI69 121416Z AUTO 10004KT 2SM -SN SCT005 SCT011 OVC017 M02/M03 A3034 RMK AO2 T10201027,KI69,2019-01-12T14:16:00Z,39.08,-84.22,-2.0,-2.7,100,4,,2.0,30.339567,,,TRUE,TRUE,,,,,,-SN,SCT,500,SCT,1100,OVC,1700,,,IFR,,,,,,,,,,,,SPECI,255.0
KPNM 121416Z AUTO 03004KT 10SM OVC046 M04/M07 A3035 RMK AO2,KPNM,2019-01-12T14:16:00Z,45.57,-93.6,-4.0,-7.0,30,4,,10.0,30.351377,,,TRUE,TRUE,,,,,,,OVC,4600,,,,,,,VFR,,,,,,,,,,,,SPECI,298.0
KOZW 121416Z AUTO 06005KT 10SM OVC060 M02/M06 A3042 RMK AO2 T10251065,KOZW,2019-01-12T14:16:00Z,42.62,-83.97,-2.5,-6.5,60,5,,10.0,30.41929,,,TRUE,TRUE,,,,,,,OVC,6000,,,,,,,VFR,,,,,,,,,,,,SPECI,293.0
KONZ 121416Z AUTO 08007KT 10SM OVC026 M01/M05 A3044 RMK AO2 T10151052,KONZ,2019-01-12T14:16:00Z,42.1,-83.15,-1.5,-5.2,80,7,,10.0,30.43996,,,TRUE,TRUE,,,,,,,OVC,2600,,,,,,,MVFR,,,,,,,,,,,,SPECI,180.0
KONA 121416Z AUTO 09005KT 10SM OVC065 M01/M05 A3035 RMK AO2,KONA,2019-01-12T14:16:00Z,44.07,-91.7,-1.0,-5.0,90,5,,10.0,30.351377,,,TRUE,TRUE,,,,,,,OVC,6500,,,,,,,VFR,,,,,,,,,,,,SPECI,200.0
KOKK 121416Z AUTO 08010KT 1 3/4SM -SN BR BKN022 OVC027 M03/M03 A3031 RMK AO2 P0000 FZRANO,KOKK,2019-01-12T14:16:00Z,40.53,-86.07,-3.0,-3.0,80,10,,1.75,30.31004,,,TRUE,TRUE,,,,TRUE,,-SN BR,BKN,2200,OVC,2700,,,,,IFR,,,,,,0.005,,,,,,SPECI,253.0
KLDM 121416Z AUTO 09007KT 10SM OVC050 M03/M08 A3043 RMK AO2 T10301084,KLDM,2019-01-12T14:16:00Z,43.97,-86.4,-3.0,-8.4,90,7,,10.0,30.431103,,,TRUE,TRUE,,,,,,,OVC,5000,,,,,,,VFR,,,,,,,,,,,,SPECI,197.0
KJYM 121416Z AUTO 08009KT 10SM SCT120 M03/M07 A3037 RMK AO2 T10311071,KJYM,2019-01-12T14:16:00Z,41.92,-84.58,-3.1,-7.1,80,9,,10.0,30.369095,,,TRUE,TRUE,,,,,,,SCT,12000,,,,,,,VFR,,,,,,,,,,,,SPECI,360.0
KPOV 121416Z AUTO 08008KT 10SM CLR M06/M10 A3041 RMK AO2 T10621103 PWINO,KPOV,2019-01-12T14:16:00Z,41.22,-81.25,-6.2,-10.3,80,8,,10.0,30.410433,,,TRUE,TRUE,,,,,TRUE,,CLR,,,,,,,,VFR,,,,,,,,,,,,SPECI,365.0
KJYG 121416Z AUTO 36004KT 7SM SCT032 OVC048 M05/M06 A3030 RMK AO2,KJYG,2019-01-12T14:16:00Z,43.98,-94.55,-5.0,-6.0,360,4,,7.0,30.301182,,,TRUE,TRUE,,,,,,,SCT,3200,OVC,4800,,,,,VFR,,,,,,,,,,,,SPECI,325.0
KVLL 121416Z AUTO 07007KT 10SM SCT025 OVC070 M02/M08 A3047 RMK AO2 T10211084,KVLL,2019-01-12T14:16:00Z,42.55,-83.18,-2.1,-8.4,70,7,,10.0,30.469488,,,TRUE,TRUE,,,,,,,SCT,2500,OVC,7000,,,,,VFR,,,,,,,,,,,,SPECI,222.0
KVVV 121416Z AUTO 36005KT 10SM OVC025 M06/M08 A3034 RMK AO2,KVVV,2019-01-12T14:16:00Z,45.3,-96.42,-6.0,-8.0,360,5,,10.0,30.339567,,,TRUE,TRUE,,,,,,,OVC,2500,,,,,,,MVFR,,,,,,,,,,,,SPECI,335.0
KPQN 121416Z AUTO 04007KT 7SM CLR M07/M07 A3026 RMK AO2,KPQN,2019-01-12T14:16:00Z,43.97,-96.32,-7.0,-7.0,40,7,,7.0,30.259842,,,TRUE,TRUE,,,,,,,CLR,,,,,,,,VFR,,,,,,,,,,,,SPECI,529.0
KDXX 121416Z AUTO 36006KT 10SM OVC025 M05/M07 A3034 RMK AO2,KDXX,2019-01-12T14:16:00Z,44.98,-96.18,-5.0,-7.0,360,6,,10.0,30.339567,,,TRUE,TRUE,,,,,,,OVC,2500,,,,,,,MVFR,,,,,,,,,,,,METAR,330.0
KCQM 121416Z AUTO 07006KT 10SM OVC007 M08/M09 A3045 RMK AO2,KCQM,2019-01-12T14:16:00Z,47.82,-92.68,-8.0,-9.0,70,6,,10.0,30.448818,,,TRUE,TRUE,,,,,,,OVC,700,,,,,,,IFR,,,,,,,,,,,,METAR,404.0
KYIP 121416Z 05006KT 10SM BKN024 OVC075 M01/M06 A3044 RMK AO2 T10061061,KYIP,2019-01-12T14:16:00Z,42.23,-83.53,-0.6,-6.1,50,6,,10.0,30.43996,,,,TRUE,,,,,,,BKN,2400,OVC,7500,,,,,MVFR,,,,,,,,,,,,SPECI,215.0
KUIN 121416Z AUTO 08012KT 3/4SM -SN BR FEW005 OVC016 M02/M03 A3012 RMK AO2 P0000 T10171028,KUIN,2019-01-12T14:16:00Z,39.95,-91.2,-1.7,-2.8,80,12,,0.75,30.121063,,,TRUE,TRUE,,,,,,-SN BR,FEW,500,OVC,1600,,,,,LIFR,,,,,,0.005,,,,,,SPECI,234.0
KRNM 121416Z AUTO 09005KT 3SM RA BR SCT013 OVC050 09/08 A3003 RMK AO2 P0007 T00940083,KRNM,2019-01-12T14:16:00Z,33.03,-116.92,9.4,8.3,90,5,,3.0,30.029528,,,TRUE,TRUE,,,,,,RA BR,SCT,1300,OVC,5000,,,,,MVFR,,,,,,0.07,,,,,,SPECI,427.0
KMDW 121416Z 09007KT 1SM R31C/P6000FT -SN SCT017 OVC024 M01/M04 A3034 RMK AO2 SNB02 P0000 T10061039,KMDW,2019-01-12T14:16:00Z,41.78,-87.75,-0.6,-3.9,90,7,,1.0,30.339567,,,,TRUE,,,,,,-SN,SCT,1700,OVC,2400,,,,,IFR,,,,,,0.005,,,,,,SPECI,188.0
KLCH 121416Z 24009KT 8SM BKN008 BKN023 OVC075 17/17 A2998 RMK AO2 RAB1359E07 CIG 005V013 P0001 T01720172,KLCH,2019-01-12T14:16:00Z,30.13,-93.22,17.2,17.2,240,9,,8.0,29.97933,,,,TRUE,,,,,,,BKN,800,BKN,2300,OVC,7500,,,IFR,,,,,,0.01,,,,,,SPECI,4.0
KEKO 121416Z AUTO 04008KT 1 3/4SM BR OVC002 M08/M09 A3019 RMK AO2 VIS 1 1/2V2 1/2 I1001 T10781094,KEKO,2019-01-12T14:16:00Z,40.82,-115.78,-7.8,-9.4,40,8,,1.75,30.188976,,,TRUE,TRUE,,,,,,BR,OVC,200,,,,,,,LIFR,,,,,,,,,,,,SPECI,1547.0
KDTO 121416Z 26011KT 10SM BKN020 05/02 A2998 RMK AO2 T00500017,KDTO,2019-01-12T14:16:00Z,33.2,-97.2,5.0,1.7,260,11,,10.0,29.97933,,,,TRUE,,,,,,,BKN,2000,,,,,,,MVFR,,,,,,,,,,,,SPECI,196.0
KDIK 121416Z AUTO 14007KT 4SM BR OVC005 M13/M14 A3025 RMK AO2 SNB1357E16 P0000 T11281144,KDIK,2019-01-12T14:16:00Z,46.8,-102.8,-12.8,-14.4,140,7,,4.0,30.250984,,,TRUE,TRUE,,,,,,BR,OVC,500,,,,,,,IFR,,,,,,0.005,,,,,,SPECI,788.0
MMLM 121416Z RTD 00000KT 5SM VCFG SKC 14/11 A3005 RMK RTS,MMLM,2019-01-12T14:16:00Z,25.67,-109.07,14.0,11.0,0,0,,5.0,30.050198,,,,,,,,,,VCFG,SKC,,,,,,,,MVFR,,,,,,,,,,,,SPECI,4.0
PAEH 121416Z AUTO 34002KT 2 1/2SM -SN FEW003 OVC016 M14/M15 A2941 RMK AO2 SLP980,PAEH,2019-01-12T14:16:00Z,58.65,-162.07,-14.0,-15.0,340,2,,2.5,29.409449,998.0,,TRUE,TRUE,,,,,,-SN,FEW,300,OVC,1600,,,,,IFR,,,,,,,,,,,,SPECI,161.0
KY70 121416Z AUTO 07008KT 10SM OVC065 M02/M07 A3041 RMK AO2 T10251070,KY70,2019-01-12T14:16:00Z,42.93,-85.07,-2.5,-7.0,70,8,,10.0,30.410433,,,TRUE,TRUE,,,,,,,OVC,6500,,,,,,,VFR,,,,,,,,,,,,SPECI,250.0
KCKN 121416Z AUTO 08005KT 10SM BKN018 M06/M06 A3042 RMK AO2,KCKN,2019-01-12T14:16:00Z,47.85,-96.62,-6.0,-6.0,80,5,,10.0,30.41929,,,TRUE,TRUE,,,,,,,BKN,1800,,,,,,,MVFR,,,,,,,,,,,,METAR,273.0
KCKC 121416Z AUTO 03010G16KT 4SM HZ OVC009 M11/M13 A3045 RMK AO2,KCKC,2019-01-12T14:16:00Z,47.83,-90.37,-11.0,-13.0,30,10,16,4.0,30.448818,,,TRUE,TRUE,,,,,,HZ,OVC,900,,,,,,,IFR,,,,,,,,,,,,METAR,548.0
KERY 121416Z AUTO 07004KT 7SM CLR M15/M18 A3055 RMK AO2 T11541180,KERY,2019-01-12T14:16:00Z,46.3,-85.45,-15.4,-18.0,70,4,,7.0,30.549213,,,TRUE,TRUE,,,,,,,CLR,,,,,,,,VFR,,,,,,,,,,,,METAR,265.0
K18H 121415Z AUTO 15010G22KT 4SM HZ CLR 23/16 A3005 RMK A01,K18H,2019-01-12T14:15:00Z,26.13,-92.03,23.0,16.0,150,10,22,4.0,30.050198,,,TRUE,TRUE,,,,,,HZ,CLR,,,,,,,,MVFR,,,,,,,,,,,,METAR,10.0
KHVE 121415Z AUTO 10SM CLR M06/M07 A3024 RMK AO2,KHVE,2019-01-12T14:15:00Z,38.42,-110.7,-6.0,-7.0,,,,10.0,30.239174,,,TRUE,TRUE,,,,,,,CLR,,,,,,,,VFR,,,,,,,,,,,,SPECI,1350.0
KTNB 121415Z AUTO 00000KT 10SM OVC060 M02/M07 A3034 RMK AO2 T10171071,KTNB,2019-01-12T14:15:00Z,36.2,-81.65,-1.7,-7.1,0,0,,10.0,30.339567,,,TRUE,TRUE,,,,,,,OVC,6000,,,,,,,VFR,,,,,,,,,,,,SPECI,911.0
KUYF 121415Z AUTO 08006KT 3/4SM -SN SCT005 OVC019 M03/M04 A3035 RMK AO2,KUYF,2019-01-12T14:15:00Z,39.93,-83.47,-3.0,-4.0,80,6,,0.75,30.351377,,,TRUE,TRUE,,,,,,-SN,SCT,500,OVC,1900,,,,,LIFR,,,,,,,,,,,,METAR,330.0
KU42 121415Z AUTO 17003KT 3SM OVC004 M02/M02 A3025 RMK AO1 T10221022,KU42,2019-01-12T14:15:00Z,40.62,-111.98,-2.2,-2.2,170,3,,3.0,30.250984,,,TRUE,TRUE,,,,,,,OVC,400,,,,,,,LIFR,,,,,,,,,,,,METAR,1402.0
KTYL 121415Z AUTO 21004KT 10SM CLR M07/M07 A3019 RMK AO2,KTYL,2019-01-12T14:15:00Z,,,-7.0,-7.0,210,4,,10.0,30.188976,,,TRUE,TRUE,,,,,,,CLR,,,,,,,,VFR,,,,,,,,,,,,METAR,
KTAZ 121415Z AUTO 09012KT 1 3/4SM UP OVC004 M01/M02 A3018 RMK AO2 T10121018,KTAZ,2019-01-12T14:15:00Z,39.53,-89.33,-1.2,-1.8,90,12,,1.75,30.180119,,,TRUE,TRUE,,,,,,UP,OVC,400,,,,,,,LIFR,,,,,,,,,,,,METAR,190.0
KT20 121415Z AUTO 32006KT 10SM CLR 13/13 A3005 RMK AO2 T01300130,KT20,2019-01-12T14:15:00Z,29.52,-97.47,13.0,13.0,320,6,,10.0,30.050198,,,TRUE,TRUE,,,,,,,CLR,,,,,,,,VFR,,,,,,,,,,,,METAR,108.0
KSZY 121415Z AUTO 12007KT 10SM BKN033 OVC040 08/M00 A3011 RMK A01,KSZY,2019-01-12T14:15:00Z,,,8.0,0.0,120,7,,10.0,30.109253,,,TRUE,TRUE,,,,,,,BKN,3300,OVC,4000,,,,,VFR,,,,,,,,,,,,METAR,
KSQL 121415Z AUTO 00000KT 6SM BR FEW047 BKN070 OVC085 10/10 A2996 RMK AO2,KSQL,2019-01-12T14:15:00Z,37.52,-122.25,10.0,10.0,0,0,,6.0,29.958662,,,TRUE,TRUE,,,,,,BR,FEW,4700,BKN,7000,OVC,8500,,,VFR,,,,,,,,,,,,METAR,1.0
KOGS 121415Z AUTO 29005KT 10SM CLR M14/M19 A3057 RMK AO2 T11361193,KOGS,2019-01-12T14:15:00Z,44.67,-75.47,-13.6,-19.3,290,5,,10.0,30.569881,,,TRUE,TRUE,,,,,,,CLR,,,,,,,,VFR,,,,,,,,,,,,SPECI,91.0
K2J9 121415Z AUTO VRB05G11KT 10SM SCT042 OVC050 12/08 A3025 RMK AO2,K2J9,2019-01-12T14:15:00Z,30.6,-84.55,12.0,8.0,0,5,11,10.0,30.250984,,,TRUE,TRUE,,,,,,,SCT,4200,OVC,5000,,,,,VFR,,,,,,,,,,,,SPECI,69.0
KORS 121415Z AUTO 00000KT 10SM CLR 06/03 A2995 RMK AO2,KORS,2019-01-12T14:15:00Z,48.7,-122.92,6.0,3.0,0,0,,10.0,29.949802,,,TRUE,TRUE,,,,,,,CLR,,,,,,,,VFR,,,,,,,,,,,,SPECI,9.0
KOXV 121415Z AUTO 06011KT 1/2SM -SN OVC003 M02/M02 A3016 RMK AO2,KOXV,2019-01-12T14:15:00Z,41.28,-93.12,-2.0,-2.0,60,11,,0.5,30.159449,,,TRUE,TRUE,,,,,,-SN,OVC,300,,,,,,,LIFR,,,,,,,,,,,,SPECI,283.0
KS33 121415Z AUTO 00000KT 4SM BR OVC002 M01/M01 A3012 RMK AO2,KS33,2019-01-12T14:15:00Z,44.67,-121.15,-1.0,-1.0,0,0,,4.0,30.121063,,,TRUE,TRUE,,,,,,BR,OVC,200,,,,,,,LIFR,,,,,,,,,,,,SPECI,743.0
KS25 121415Z AUTO 00000KT 7SM CLR M15/M16 A3029 RMK AO2,KS25,2019-01-12T14:15:00Z,47.8,-103.25,-15.0,-16.0,0,0,,7.0,30.28937,,,TRUE,TRUE,,,,,,,CLR,,,,,,,,VFR,,,,,,,,,,,,SPECI,644.0
KRYY 121415Z 08007G17KT 10SM OVC030 04/M06 A3033 RMK AO2,KRYY,2019-01-12T14:15:00Z,34.02,-84.6,4.0,-6.0,80,7,17,10.0,30.33071,,,,TRUE,,,,,,,OVC,3000,,,,,,,MVFR,,,,,,,,,,,,SPECI,317.0
KRYV 121415Z AUTO 05004KT 7SM OVC016 M01/M04 A3034 RMK AO2 T10151037,KRYV,2019-01-12T14:15:00Z,43.17,-88.72,-1.5,-3.7,50,4,,7.0,30.339567,,,TRUE,TRUE,,,,,,,OVC,1600,,,,,,,MVFR,,,,,,,,,,,,SPECI,254.0
KRVL 121415Z AUTO 00000KT 9SM -DZ BKN100 M06/M11 A3050 RMK AO2,KRVL,2019-01-12T14:15:00Z,40.68,-77.63,-6.0,-11.0,0,0,,9.0,30.499016,,,TRUE,TRUE,,,,,,-DZ,BKN,10000,,,,,,,VFR,,,,,,,,,,,,METAR,250.0
KRZR 121415Z AUTO 00000KT 10SM BKN035 BKN095 BKN120 06/01 A3024 RMK A01,KRZR,2019-01-12T14:15:00Z,35.22,-84.8,6.0,1.0,0,0,,10.0,30.239174,,,TRUE,TRUE,,,,,,,BKN,3500,BKN,9500,BKN,12000,,,VFR,,,,,,,,,,,,METAR,263.0
KRZL 121415Z AUTO 07008KT 1SM -SN SCT006 OVC017 M01/M02 A3032 RMK AO2,KRZL,2019-01-12T14:15:00Z,40.95,-87.18,-1.0,-2.0,70,8,,1.0,30.318897,,,TRUE,TRUE,,,,,,-SN,SCT,600,OVC,1700,,,,,IFR,,,,,,,,,,,,METAR,213.0
KRWV 121415Z AUTO 33010KT 10SM BKN012 BKN020 13/12 A3004 RMK AO2 T01270116,KRWV,2019-01-12T14:15:00Z,30.52,-96.7,12.7,11.6,330,10,,10.0,30.041338,,,TRUE,TRUE,,,,,,,BKN,1200,BKN,2000,,,,,MVFR,,,,,,,,,,,,METAR,119.0
KRTS 121415Z AUTO 00000KT 10SM CLR M05/M06 A3003 RMK AO2,KRTS,2019-01-12T14:15:00Z,39.67,-119.88,-5.0,-6.0,0,0,,10.0,30.029528,,,TRUE,TRUE,,,,,,,CLR,,,,,,,,VFR,,,,,,,,,,,,METAR,1540.0
KRPJ 121415Z AUTO 07009KT 1/2SM -SN SCT005 OVC016 M02/M03 A3030 RMK AO2 T10231027,KRPJ,2019-01-12T14:15:00Z,41.88,-89.08,-2.3,-2.7,70,9,,0.5,30.301182,,,TRUE,TRUE,,,,,,-SN,SCT,500,OVC,1600,,,,,LIFR,,,,,,,,,,,,METAR,238.0
KRNC 121415Z AUTO 16004KT 10SM FEW120 08/M02 A3022 RMK A01,KRNC,2019-01-12T14:15:00Z,35.7,-85.85,8.0,-2.0,160,4,,10.0,30.221457,,,TRUE,TRUE,,,,,,,FEW,12000,,,,,,,VFR,,,,,,,,,,,,METAR,315.0
KRKW 121415Z AUTO 00000KT 10SM FEW034 BKN100 04/M04 A3024 RMK A01,KRKW,2019-01-12T14:15:00Z,35.92,-84.68,4.0,-4.0,0,0,,10.0,30.239174,,,TRUE,TRUE,,,,,,,FEW,3400,BKN,10000,,,,,VFR,,,,,,,,,,,,METAR,508.0
KRCV 121415Z AUTO 28007KT 10SM SCT024 BKN050 OVC060 M07/M09 A3015 RMK AO2 T10671087,KRCV,2019-01-12T14:15:00Z,37.72,-106.35,-6.7,-8.7,280,7,,10.0,30.15059,,,TRUE,TRUE,,,,,,,SCT,2400,BKN,5000,OVC,6000,,,VFR,,,,,,,,,,,,METAR,2424.0
KRCE 121415Z AUTO 34018G25KT 9SM -RA BKN006 01/01 A2995 RMK AO2,KRCE,2019-01-12T14:15:00Z,35.48,-97.82,1.0,1.0,340,18,25,9.0,29.949802,,,TRUE,TRUE,,,,,,-RA,BKN,600,,,,,,,IFR,,,,,,,,,,,,METAR,413.0
KHAE 121415Z AUTO 08008KT 1SM -SN OVC005 00/M01 A3012 RMK AO2,KHAE,2019-01-12T14:15:00Z,39.73,-91.45,0.0,-1.0,80,8,,1.0,30.121063,,,TRUE,TRUE,,,,,,-SN,OVC,500,,,,,,,IFR,,,,,,,,,,,,METAR,234.0
KGZS 121415Z AUTO 15004KT 10SM OVC040 07/00 A3021 RMK A01,KGZS,2019-01-12T14:15:00Z,35.15,-87.05,7.0,0.0,150,4,,10.0,30.209646,,,TRUE,TRUE,,,,,,,OVC,4000,,,,,,,VFR,,,,,,,,,,,,METAR,209.0
KGUL 121415Z AUTO 23025G30KT 9SM FEW044 SCT090 22/17 A3003 RMK A01,KGUL,2019-01-12T14:15:00Z,27.3,-93.53,22.0,17.0,230,25,30,9.0,30.029528,,,TRUE,TRUE,,,,,,,FEW,4400,SCT,9000,,,,,VFR,,,,,,,,,,,,METAR,30.0
KSJS 121415Z AUTO 03003KT 10SM SCT065 OVC080 00/00 A3031 RMK AO2 T10051005,KSJS,2019-01-12T14:15:00Z,37.75,-82.63,-0.5,-0.5,30,3,,10.0,30.31004,,,TRUE,TRUE,,,,,,,SCT,6500,OVC,8000,,,,,VFR,,,,,,,,,,,,METAR,372.0
KSIK 121415Z AUTO 08009KT 10SM CLR 03/01 A3010 RMK AO2,KSIK,2019-01-12T14:15:00Z,36.9,-89.57,3.0,1.0,80,9,,10.0,30.100393,,,TRUE,TRUE,,,,,,,CLR,,,,,,,,VFR,,,,,,,,,,,,METAR,96.0
KSEE 121415Z AUTO 27004KT 3SM BR SCT043 OVC050 11/11 A3003 RMK AO2,KSEE,2019-01-12T14:15:00Z,32.82,-116.97,11.0,11.0,270,4,,3.0,30.029528,,,TRUE,TRUE,,,,,,BR,SCT,4300,OVC,5000,,,,,MVFR,,,,,,,,,,,,METAR,117.0
KSCX 121415Z AUTO 00000KT 10SM FEW046 BKN065 OVC075 02/01 A3025 RMK A01,KSCX,2019-01-12T14:15:00Z,36.45,-84.58,2.0,1.0,0,0,,10.0,30.250984,,,TRUE,TRUE,,,,,,,FEW,4600,BKN,6500,OVC,7500,,,VFR,,,,,,,,,,,,METAR,471.0
KSCF 121415Z AUTO VRB06G12KT 10SM FEW050 BKN075 SCT120 20/17 A2994 RMK A01,KSCF,2019-01-12T14:15:00Z,29.12,-91.87,20.0,17.0,0,6,12,10.0,29.940945,,,TRUE,TRUE,,,,,,,FEW,5000,BKN,7500,SCT,12000,,,VFR,,,,,,,,,,,,METAR,8.0
KSBS 121415Z AUTO 34005KT 7SM OVC002 M09/M09 A3020 RMK AO1 T10911094,KSBS,2019-01-12T14:15:00Z,40.52,-106.87,-9.1,-9.4,340,5,,7.0,30.200787,,,TRUE,TRUE,,,,,,,OVC,200,,,,,,,LIFR,,,,,,,,,,,,METAR,2096.0
KS39 121415Z AUTO 07004KT 6SM BR CLR M05/M05 A3006 RMK AO2,KS39,2019-01-12T14:15:00Z,44.28,-120.9,-5.0,-5.0,70,4,,6.0,30.059055,,,TRUE,TRUE,,,,,,BR,CLR,,,,,,,,VFR,,,,,,,,,,,,METAR,991.0
KTBR 121415Z AUTO 06004KT 10SM SCT047 OVC060 06/01 A3037 RMK AO2 T00600011,KTBR,2019-01-12T14:15:00Z,32.48,-81.73,6.0,1.1,60,4,,10.0,30.369095,,,TRUE,TRUE,,,,,,,SCT,4700,OVC,6000,,,,,VFR,,,,,,,,,,,,METAR,57.0
KTCY 121415Z AUTO 24004KT 7SM BKN065 09/09 A2996 RMK A01,KTCY,2019-01-12T14:15:00Z,37.68,-121.43,9.0,9.0,240,4,,7.0,29.958662,,,TRUE,TRUE,,,,,,,BKN,6500,,,,,,,VFR,,,,,,,,,,,,METAR,59.0
KTEX 121415Z AUTO 00000KT 10SM SCT035 BKN041 BKN070 M06/M07 A3013 RMK AO2,KTEX,2019-01-12T14:15:00Z,37.95,-107.9,-6.0,-7.0,0,0,,10.0,30.129921,,,TRUE,TRUE,,,,,,,SCT,3500,BKN,4100,BKN,7000,,,VFR,,,,,,,,,,,,METAR,2769.0
KSJX 121415Z AUTO 08009KT 10SM OVC012 M06/M08 A3053 RMK AO2 T10571077,KSJX,2019-01-12T14:15:00Z,45.7,-85.57,-5.7,-7.7,80,9,,10.0,30.528543,,,TRUE,TRUE,,,,,,,OVC,1200,,,,,,,MVFR,,,,,,,,,,,,SPECI,204.0
KTMK 121415Z AUTO 13004KT 10SM CLR 02/01 A2994 RMK AO2,KTMK,2019-01-12T14:15:00Z,45.42,-123.82,2.0,1.0,130,4,,10.0,29.940945,,,TRUE,TRUE,,,,,,,CLR,,,,,,,,VFR,,,,,,,,,,,,METAR,11.0
KUCY 121415Z AUTO 09007KT 10SM BKN110 04/01 A3009 RMK A01,KUCY,2019-01-12T14:15:00Z,36.38,-88.98,4.0,1.0,90,7,,10.0,30.088583,,,TRUE,TRUE,,,,,,,BKN,11000,,,,,,,VFR,,,,,,,,,,,,METAR,104.0
KVAF 121415Z AUTO 27017G48KT 3SM HZ FEW009 SCT048 BKN085 21/18 A3002 RMK A01,KVAF,2019-01-12T14:15:00Z,27.35,-94.63,21.0,18.0,270,17,48,3.0,30.02067,,,TRUE,TRUE,,,,,,HZ,FEW,900,SCT,4800,BKN,8500,,,MVFR,,,,,,,,,,,,METAR,46.0
KUBE 121415Z AUTO 09005KT 10SM OVC050 M03/M08 A3035 RMK AO2,KUBE,2019-01-12T14:15:00Z,45.5,-91.98,-3.0,-8.0,90,5,,10.0,30.351377,,,TRUE,TRUE,,,,,,,OVC,5000,,,,,,,VFR,,,,,,,,,,,,METAR,379.0
KVBS 121415Z AUTO 28003KT 10SM FEW035 BKN070 OVC090 17/16 A2998 RMK A01,KVBS,2019-01-12T14:15:00Z,29.48,-93.63,17.0,16.0,280,3,,10.0,29.97933,,,TRUE,TRUE,,,,,,,FEW,3500,BKN,7000,OVC,9000,,,VFR,,,,,,,,,,,,METAR,31.0
KSNK 121415Z AUTO 22004KT 10SM CLR 01/00 A3013 RMK AO2 T00110000,KSNK,2019-01-12T14:15:00Z,32.7,-100.95,1.1,0.0,220,4,,10.0,30.129921,,,TRUE,TRUE,,,,,,,CLR,,,,,,,,VFR,,,,,,,,,,,,METAR,741.0
KSNH 121415Z AUTO 15008KT 10SM FEW055 SCT110 08/00 A3012 RMK A01,KSNH,2019-01-12T14:15:00Z,35.17,-88.22,8.0,0.0,150,8,,10.0,30.121063,,,TRUE,TRUE,,,,,,,FEW,5500,SCT,11000,,,,,VFR,,,,,,,,,,,,METAR,144.0
KSNL 121415Z AUTO 34014G22KT 2 1/2SM RA OVC004 03/03 A2989 RMK AO2 T00280025,KSNL,2019-01-12T14:15:00Z,35.35,-96.95,2.8,2.5,340,14,22,2.5,29.890747,,,TRUE,TRUE,,,,,,RA,OVC,400,,,,,,,LIFR,,,,,,,,,,,,METAR,327.0
KTIF 121415Z AUTO 36005KT 2 1/2SM BR OVC003 M04/M04 A3021 RMK AO2 T10381043,KTIF,2019-01-12T14:15:00Z,41.97,-100.57,-3.8,-4.3,360,5,,2.5,30.209646,,,TRUE,TRUE,,,,,,BR,OVC,300,,,,,,,LIFR,,,,,,,,,,,,METAR,892.0
KTHA 121415Z AUTO 17005KT 10SM FEW026 BKN036 OVC120 07/M02 A3020 RMK A01,KTHA,2019-01-12T14:15:00Z,35.38,-86.25,7.0,-2.0,170,5,,10.0,30.200787,,,TRUE,TRUE,,,,,,,FEW,2600,BKN,3600,OVC,12000,,,VFR,,,,,,,,,,,,METAR,331.0
KPHT 121415Z AUTO 09007KT 10SM BKN110 03/01 A3013 RMK A01,KPHT,2019-01-12T14:15:00Z,36.33,-88.38,3.0,1.0,90,7,,10.0,30.129921,,,TRUE,TRUE,,,,,,,BKN,11000,,,,,,,VFR,,,,,,,,,,,,METAR,177.0
KPEZ 121415Z AUTO 31009KT 7SM CLR 14/13 A3007 RMK AO2 T01400129,KPEZ,2019-01-12T14:15:00Z,28.95,-98.52,14.0,12.9,310,9,,7.0,30.070866,,,TRUE,TRUE,,,,,,,CLR,,,,,,,,VFR,,,,,,,,,,,,METAR,132.0
KPEX 121415Z AUTO 06004KT 10SM SCT042 M07/M08 A3033 RMK AO2 T10721080,KPEX,2019-01-12T14:15:00Z,45.37,-94.73,-7.2,-8.0,60,4,,10.0,30.33071,,,TRUE,TRUE,,,,,,,SCT,4200,,,,,,,VFR,,,,,,,,,,,,METAR,360.0
KPCW 121415Z AUTO 11006KT 10SM CLR M02/M06 A3043 RMK AO2,KPCW,2019-01-12T14:15:00Z,41.52,-82.87,-2.0,-6.0,110,6,,10.0,30.431103,,,TRUE,TRUE,,,,,,,CLR,,,,,,,,VFR,,,,,,,,,,,,METAR,178.0
KPCD 121415Z AUTO 00000KT 5SM -RA BKN013 BKN036 OVC043 00/00 A3013 RMK AO2 T00001004,KPCD,2019-01-12T14:15:00Z,37.87,-89.87,0.0,-0.4,0,0,,5.0,30.129921,,,TRUE,TRUE,,,,,,-RA,BKN,1300,BKN,3600,OVC,4300,,,MVFR,,,,,,,,,,,,METAR,113.0
KPBX 121415Z AUTO 02004KT 10SM OVC065 00/00 A3028 RMK AO2 T10051005,KPBX,2019-01-12T14:15:00Z,37.57,-82.57,-0.5,-0.5,20,4,,10.0,30.280512,,,TRUE,TRUE,,,,,,,OVC,6500,,,,,,,VFR,,,,,,,,,,,,METAR,449.0
KP08 121415Z AUTO 08004KT 10SM CLR 09/02 A3009 RMK AO2,KP08,2019-01-12T14:15:00Z,32.93,-111.43,9.0,2.0,80,4,,10.0,30.088583,,,TRUE,TRUE,,,,,,,CLR,,,,,,,,VFR,,,,,,,,,,,,METAR,481.0
KOWX 121415Z AUTO 10008KT 10SM SCT044 OVC060 M02/M06 A3041 RMK AO1,KOWX,2019-01-12T14:15:00Z,41.03,-83.98,-2.0,-6.0,100,8,,10.0,30.410433,,,TRUE,TRUE,,,,,,,SCT,4400,OVC,6000,,,,,VFR,,,,,,,,,,,,METAR,233.0
KOWI 121415Z AUTO 02009KT 1/4SM SN OVC003 00/00 A2999 RMK AO2,KOWI,2019-01-12T14:15:00Z,38.53,-95.25,0.0,0.0,20,9,,0.25,29.991142,,,TRUE,TRUE,,,,,,SN,OVC,300,,,,,,,LIFR,,,,,,,,,,,,METAR,292.0
KOSA 121415Z AUTO 23004KT 4SM OVC004 10/10 A2994 RMK AO1 T01020095,KOSA,2019-01-12T14:15:00Z,33.1,-94.97,10.2,9.5,230,4,,4.0,29.940945,,,TRUE,TRUE,,,,,,,OVC,400,,,,,,,LIFR,,,,,,,,,,,,METAR,111.0
KORG 121415Z AUTO 26003KT 10SM SCT010 BKN036 17/17 A3000 RMK AO2 T01720172,KORG,2019-01-12T14:15:00Z,30.07,-93.8,17.2,17.2,260,3,,10.0,30.0,,,TRUE,TRUE,,,,,,,SCT,1000,BKN,3600,,,,,VFR,,,,,,,,,,,,METAR,4.0
KONM 121415Z AUTO 16003KT 10SM OVC050 M02/M03 A3021 RMK AO2 T10181031,KONM,2019-01-12T14:15:00Z,34.02,-106.9,-1.8,-3.1,160,3,,10.0,30.209646,,,TRUE,TRUE,,,,,,,OVC,5000,,,,,,,VFR,,,,,,,,,,,,METAR,1410.0
KONL 121415Z AUTO 36009KT 2 1/2SM BR OVC003 M07/M08 A3026 RMK AO2 T10751085,KONL,2019-01-12T14:15:00Z,42.47,-98.67,-7.5,-8.5,360,9,,2.5,30.259842,,,TRUE,TRUE,,,,,,BR,OVC,300,,,,,,,LIFR,,,,,,,,,,,,METAR,619.0
KOKV 121415Z AUTO 00000KT 10SM OVC090 M02/M08 A3051 RMK AO2,KOKV,2019-01-12T14:15:00Z,39.13,-78.15,-2.0,-8.0,0,0,,10.0,30.510826,,,TRUE,TRUE,,,,,,,OVC,9000,,,,,,,VFR,,,,,,,,,,,,METAR,222.0
KOGA 121415Z AUTO 00000KT 10SM OVC012 00/M01 A3020 RMK AO2 T00041010,KOGA,2019-01-12T14:15:00Z,41.12,-101.77,0.4,-1.0,0,0,,10.0,30.200787,,,TRUE,TRUE,,,,,,,OVC,1200,,,,,,,MVFR,,,,,,,,,,,,METAR,999.0
KO69 121415Z AUTO 00000KT 7SM OVC060 09/09 A2995 RMK A01,KO69,2019-01-12T14:15:00Z,38.25,-122.6,9.0,9.0,0,0,,7.0,29.949802,,,TRUE,TRUE,,,,,,,OVC,6000,,,,,,,VFR,,,,,,,,,,,,METAR,28.0
KN03 121415Z AUTO 00000KT 10SM OVC100 M09/M11 A3048 RMK AO2,KN03,2019-01-12T14:15:00Z,42.6,-76.22,-9.0,-11.0,0,0,,10.0,30.481298,,,TRUE,TRUE,,,,,,,OVC,10000,,,,,,,VFR,,,,,,,,,,,,METAR,366.0
KMZG 121415Z AUTO 02014KT 10SM CLR 18/18 A3004 RMK A01,KMZG,2019-01-12T14:15:00Z,27.73,-96.18,18.0,18.0,20,14,,10.0,30.041338,,,TRUE,TRUE,,,,,,,CLR,,,,,,,,VFR,,,,,,,,,,,,METAR,29.0
KPPA 121415Z AUTO 35021G27KT 10SM BKN010 OVC014 01/M01 A3007 RMK AO2 T00051006,KPPA,2019-01-12T14:15:00Z,35.62,-101.0,0.5,-0.6,350,21,27,10.0,30.070866,,,TRUE,TRUE,,,,,,,BKN,1000,OVC,1400,,,,,MVFR,,,,,,,,,,,,METAR,989.0
KPNA 121415Z AUTO 29004KT 10SM CLR M22/M24 A3021 RMK AO2 TSNO,KPNA,2019-01-12T14:15:00Z,42.8,-109.8,-22.0,-24.0,290,4,,10.0,30.209646,,,TRUE,TRUE,,,TRUE,,,,CLR,,,,,,,,VFR,,,,,,,,,,,,METAR,2160.0
KPMV 121415Z AUTO 02008KT 1SM -SN OVC003 M01/M01 A3014 RMK AO2 P0001 T10081012,KPMV,2019-01-12T14:15:00Z,40.95,-95.92,-0.8,-1.2,20,8,,1.0,30.138779,,,TRUE,TRUE,,,,,,-SN,OVC,300,,,,,,,LIFR,,,,,,0.01,,,,,,METAR,367.0
KPMU 121415Z AUTO 12005KT 5SM -RA FEW030 SCT037 BKN044 07/04 A3005 RMK AO2,KPMU,2019-01-12T14:15:00Z,34.37,-89.9,7.0,4.0,120,5,,5.0,30.050198,,,TRUE,TRUE,,,,,,-RA,FEW,3000,SCT,3700,BKN,4400,,,MVFR,,,,,,,,,,,,METAR,67.0
KPLU 121415Z AUTO 00000KT 10SM CLR M00/M00 A2994 RMK AO2,KPLU,2019-01-12T14:15:00Z,47.1,-122.28,0.0,0.0,0,0,,10.0,29.940945,,,TRUE,TRUE,,,,,,,CLR,,,,,,,,VFR,,,,,,,,,,,,METAR,164.0
KPVB 121415Z AUTO 07011G15KT 10SM OVC080 M02/M03 A3029 RMK AO1 T10201031,KPVB,2019-01-12T14:15:00Z,42.68,-90.43,-2.0,-3.1,70,11,15,10.0,30.28937,,,TRUE,TRUE,,,,,,,OVC,8000,,,,,,,VFR,,,,,,,,,,,,METAR,313.0
KPTD 121415Z AUTO 19003KT 10SM CLR M18/M21 A3058 RMK AO2,KPTD,2019-01-12T14:15:00Z,44.68,-74.95,-18.0,-21.0,190,3,,10.0,30.578741,,,TRUE,TRUE,,,,,,,CLR,,,,,,,,VFR,,,,,,,,,,,,METAR,144.0
KPRG 121415Z AUTO 09008KT 1SM -SN OVC007 00/00 A3027 RMK AO2 T00011005,KPRG,2019-01-12T14:15:00Z,39.7,-87.67,0.1,-0.5,90,8,,1.0,30.268702,,,TRUE,TRUE,,,,,,-SN,OVC,700,,,,,,,IFR,,,,,,,,,,,,METAR,199.0
KPVE 121415Z AUTO 12004KT 10SM BKN043 BKN055 BKN120 07/01 A3013 RMK A01,KPVE,2019-01-12T14:15:00Z,35.65,-88.2,7.0,1.0,120,4,,10.0,30.129921,,,TRUE,TRUE,,,,,,,BKN,4300,BKN,5500,BKN,12000,,,VFR,,,,,,,,,,,,METAR,149.0
KPVW 121415Z AUTO 35016G25KT 10SM SCT020 BKN030 01/M02 A3009 RMK AO2 T00131020,KPVW,2019-01-12T14:15:00Z,34.17,-101.72,1.3,-2.0,350,16,25,10.0,30.088583,,,TRUE,TRUE,,,,,,,SCT,2000,BKN,3000,,,,,MVFR,,,,,,,,,,,,METAR,1028.0
KJZP 121415Z AUTO 17014G21KT 130V200 10SM OVC026 03/M06 A3033 RMK AO2 T00301061 PNO,KJZP,2019-01-12T14:15:00Z,34.45,-84.47,3.0,-6.1,170,14,21,10.0,30.33071,,,TRUE,TRUE,,,,,,,OVC,2600,,,,,,,MVFR,,,,,,,,,,,,METAR,468.0
KL35 121415Z AUTO 00000KT 3SM -SN OVC017 00/M01 A3000 RMK AO2,KL35,2019-01-12T14:15:00Z,34.27,-116.85,0.0,-1.0,0,0,,3.0,30.0,,,TRUE,TRUE,,,,,,-SN,OVC,1700,,,,,,,MVFR,,,,,,,,,,,,METAR,2059.0
KCLS 121415Z AUTO 00000KT M1/4SM FG OVC004 01/01 A2996 RMK AO2,KCLS,2019-01-12T14:15:00Z,46.68,-122.98,1.0,1.0,0,0,,0.25,29.958662,,,TRUE,TRUE,,,,,,FG,OVC,400,,,,,,,LIFR,,,,,,,,,,,,SPECI,54.0
KCKI 121415Z AUTO 00000KT 10SM CLR 03/M05 A3043 RMK AO2,KCKI,2019-01-12T14:15:00Z,33.72,-79.85,3.0,-5.0,0,0,,10.0,30.431103,,,TRUE,TRUE,,,,,,,CLR,,,,,,,,VFR,,,,,,,,,,,,SPECI,21.0
KLNN 121415Z AUTO 11004KT 10SM OVC100 A3046 RMK AO1,KLNN,2019-01-12T14:15:00Z,41.67,-81.37,,,110,4,,10.0,30.46063,,,TRUE,TRUE,,,,,,,OVC,10000,,,,,,,VFR,,,,,,,,,,,,METAR,191.0
KLKU 121415Z AUTO 00000KT 10SM SCT065 OVC090 M01/M08 A3057 RMK AO2 T10121085,KLKU,2019-01-12T14:15:00Z,38.02,-77.97,-1.2,-8.5,0,0,,10.0,30.569881,,,TRUE,TRUE,,,,,,,SCT,6500,OVC,9000,,,,,VFR,,,,,,,,,,,,METAR,150.0
KLJF 121415Z AUTO 04004KT 10SM CLR M08/M09 A3033 RMK AO2,KLJF,2019-01-12T14:15:00Z,45.1,-94.52,-8.0,-9.0,40,4,,10.0,30.33071,,,TRUE,TRUE,,,,,,,CLR,,,,,,,,VFR,,,,,,,,,,,,METAR,348.0
KLDJ 121415Z AUTO 00000KT 10SM OVC090 M05/M13 A3057 RMK AO2 T10491127,KLDJ,2019-01-12T14:15:00Z,40.62,-74.25,-4.9,-12.7,0,0,,10.0,30.569881,,,TRUE,TRUE,,,,,,,OVC,9000,,,,,,,VFR,,,,,,,,,,,,METAR,7.0
KLCG 121415Z AUTO 35010KT 5SM BR OVC004 M06/M08 A3024 RMK AO2 T10561077,KLCG,2019-01-12T14:15:00Z,42.25,-96.98,-5.6,-7.7,350,10,,5.0,30.239174,,,TRUE,TRUE,,,,,,BR,OVC,400,,,,,,,LIFR,,,,,,,,,,,,METAR,436.0
KLAM 121415Z AUTO 16003KT 10SM SCT055 OVC090 M03/M03 A3018 RMK AO2 T10331033,KLAM,2019-01-12T14:15:00Z,35.87,-106.27,-3.3,-3.3,160,3,,10.0,30.180119,,,TRUE,TRUE,,,,,,,SCT,5500,OVC,9000,,,,,VFR,,,,,,,,,,,,METAR,2179.0
KLUG 121415Z AUTO 00000KT 10SM FEW038 BKN120 07/00 A3020 RMK A01,KLUG,2019-01-12T14:15:00Z,35.52,-86.8,7.0,0.0,0,0,,10.0,30.200787,,,TRUE,TRUE,,,,,,,FEW,3800,BKN,12000,,,,,VFR,,,,,,,,,,,,METAR,219.0
KLOM 121415Z AUTO 00000KT 10SM CLR M05/M13 A3057 RMK AO1,KLOM,2019-01-12T14:15:00Z,40.13,-75.27,-5.0,-13.0,0,0,,10.0,30.569881,,,TRUE,TRUE,,,,,,,CLR,,,,,,,,VFR,,,,,,,,,,,,METAR,92.0
KLNQ 121415Z AUTO 15005KT 10SM SCT029 BKN043 OVC050 16/14 A3010 RMK AO2 T01590140,KLNQ,2019-01-12T14:15:00Z,29.35,-89.43,15.9,14.0,150,5,,10.0,30.100393,,,TRUE,TRUE,,,,,,,SCT,2900,BKN,4300,OVC,5000,,,VFR,,,,,,,,,,,,METAR,1.0
KLVL 121415Z AUTO 10SM BKN060 OVC075 00/M07 A3052 RMK AO1 T00001071,KLVL,2019-01-12T14:15:00Z,36.78,-77.8,0.0,-7.1,,,,10.0,30.519686,,,TRUE,TRUE,,,,,,,BKN,6000,OVC,7500,,,,,VFR,,,,,,,,,,,,METAR,100.0
KLZZ 121415Z AUTO 30005KT 10SM CLR 07/04 A3006 RMK AO2 T00730036,KLZZ,2019-01-12T14:15:00Z,31.1,-98.2,7.3,3.6,300,5,,10.0,30.059055,,,TRUE,TRUE,,,,,,,CLR,,,,,,,,VFR,,,,,,,,,,,,METAR,371.0
KM02 121415Z AUTO 00000KT 10SM BKN120 03/01 A3017 RMK A01,KM02,2019-01-12T14:15:00Z,36.13,-87.43,3.0,1.0,0,0,,10.0,30.171259,,,TRUE,TRUE,,,,,,,BKN,12000,,,,,,,VFR,,,,,,,,,,,,METAR,272.0
KGPH 121415Z AUTO 00000KT 2SM -SN BKN007 BKN016 00/M01 A3005 RMK AO2,KGPH,2019-01-12T14:15:00Z,39.33,-94.32,0.0,-1.0,0,0,,2.0,30.050198,,,TRUE,TRUE,,,,,,-SN,BKN,700,BKN,1600,,,,,IFR,,,,,,,,,,,,SPECI,235.0
KEGV 121415Z AUTO 10007G15KT 7SM OVC005 M06/M07 A3039 RMK AO2 T10651068,KEGV,2019-01-12T14:15:00Z,45.93,-89.27,-6.5,-6.8,100,7,15,7.0,30.389763,,,TRUE,TRUE,,,,,,,OVC,500,,,,,,,IFR,,,,,,,,,,,,SPECI,500.0
K1S5 121415Z AUTO 00000KT 10SM SCT002 OVC009 M02/M02 A3017 RMK AO2 T10241025,K1S5,2019-01-12T14:15:00Z,46.33,-119.97,-2.4,-2.5,0,0,,10.0,30.171259,,,TRUE,TRUE,,,,,,,SCT,200,OVC,900,,,,,IFR,,,,,,,,,,,,SPECI,234.0
KRCX 121415Z AUTO 09006KT 10SM OVC042 M03/M07 A3038 RMK AO2 T10281071,KRCX,2019-01-12T14:15:00Z,45.5,-91.0,-2.8,-7.1,90,6,,10.0,30.380905,,,TRUE,TRUE,,,,,,,OVC,4200,,,,,,,VFR,,,,,,,,,,,,SPECI,377.0
KGAF 121415Z AUTO 33006KT 10SM OVC009 M09/M10 A3046 RMK AO2 PWINO,KGAF,2019-01-12T14:15:00Z,48.4,-97.37,-9.0,-10.0,330,6,,10.0,30.46063,,,TRUE,TRUE,,,,,TRUE,,OVC,900,,,,,,,IFR,,,,,,,,,,,,SPECI,252.0
KD57 121415Z AUTO 18005KT 9SM OVC008 M11/M14 A3033 RMK AO2 PWINO,KD57,2019-01-12T14:15:00Z,46.82,-101.87,-11.0,-14.0,180,5,,9.0,30.33071,,,TRUE,TRUE,,,,,TRUE,,OVC,800,,,,,,,IFR,,,,,,,,,,,,SPECI,637.0
KBNL 121415Z AUTO 08006KT 10SM OVC065 05/M03 A3039 RMK AO2,KBNL,2019-01-12T14:15:00Z,33.25,-81.38,5.0,-3.0,80,6,,10.0,30.389763,,,TRUE,TRUE,,,,,,,OVC,6500,,,,,,,VFR,,,,,,,,,,,,SPECI,75.0
KSLB 121415Z AUTO 04012KT 5SM BR OVC006 M03/M03 A3020 RMK AO2,KSLB,2019-01-12T14:15:00Z,42.6,-95.22,-3.0,-3.0,40,12,,5.0,30.200787,,,TRUE,TRUE,,,,,,BR,OVC,600,,,,,,,IFR,,,,,,,,,,,,SPECI,454.0
KTVY 121415Z AUTO 19011KT 10SM OVC005 M04/M05 A3027 RMK AO2,KTVY,2019-01-12T14:15:00Z,40.62,-112.35,-4.0,-5.0,190,11,,10.0,30.268702,,,TRUE,TRUE,,,,,,,OVC,500,,,,,,,IFR,,,,,,,,,,,,SPECI,1317.0
KRUG 121415Z AUTO 11005KT 9SM OVC006 M12/M12 A3038 RMK AO2,KRUG,2019-01-12T14:15:00Z,48.38,-100.02,-12.0,-12.0,110,5,,9.0,30.380905,,,TRUE,TRUE,,,,,,,OVC,600,,,,,,,IFR,,,,,,,,,,,,SPECI,472.0
KMAW 121415Z AUTO 08008KT 7SM -RA SCT011 SCT017 SCT024 03/01 A3008 RMK AO2 P0001,KMAW,2019-01-12T14:15:00Z,36.6,-90.0,3.0,1.0,80,8,,7.0,30.079725,,,TRUE,TRUE,,,,,,-RA,SCT,1100,SCT,1700,SCT,2400,,,VFR,,,,,,0.01,,,,,,SPECI,90.0
KM25 121415Z AUTO 10006KT 10SM OVC100 02/00 A3015 RMK AO2,KM25,2019-01-12T14:15:00Z,36.77,-88.58,2.0,0.0,100,6,,10.0,30.15059,,,TRUE,TRUE,,,,,,,OVC,10000,,,,,,,VFR,,,,,,,,,,,,SPECI,160.0
KLUM 121415Z AUTO 05007KT 7SM OVC060 M05/M08 A3035 RMK AO2 T10521080,KLUM,2019-01-12T14:15:00Z,44.9,-91.87,-5.2,-8.0,50,7,,7.0,30.351377,,,TRUE,TRUE,,,,,,,OVC,6000,,,,,,,VFR,,,,,,,,,,,,SPECI,273.0
KLRY 121415Z AUTO 05003KT 5SM BR 00/00 A3002 RMK AO2,KLRY,2019-01-12T14:15:00Z,38.62,-94.35,0.0,0.0,50,3,,5.0,30.02067,,,TRUE,TRUE,,,,,,BR,,,,,,,,,,,,,,,,,,,,,SPECI,279.0
KLNL 121415Z AUTO 11009KT 7SM OVC006 M06/M07 A3042 RMK AO2 T10651072,KLNL,2019-01-12T14:15:00Z,46.15,-89.22,-6.5,-7.2,110,9,,7.0,30.41929,,,TRUE,TRUE,,,,,,,OVC,600,,,,,,,IFR,,,,,,,,,,,,SPECI,520.0
KLKR 121415Z AUTO 07006KT 10SM OVC110 02/M07 A3043 RMK AO2,KLKR,2019-01-12T14:15:00Z,34.72,-80.85,2.0,-7.0,70,6,,10.0,30.431103,,,TRUE,TRUE,,,,,,,OVC,11000,,,,,,,VFR,,,,,,,,,,,,SPECI,149.0
KLBO 121415Z AUTO 10004KT 5SM BR OVC002 00/00 A2996 RMK AO2,KLBO,2019-01-12T14:15:00Z,37.65,-92.65,0.0,0.0,100,4,,5.0,29.958662,,,TRUE,TRUE,,,,,,BR,OVC,200,,,,,,,LIFR,,,,,,,,,,,,SPECI,403.0
KINF 121415Z AUTO 00000KT 10SM CLR 17/15 A3025 RMK AO2,KINF,2019-01-12T14:15:00Z,28.8,-82.32,17.0,15.0,0,0,,10.0,30.250984,,,TRUE,TRUE,,,,,,,CLR,,,,,,,,VFR,,,,,,,,,,,,SPECI,15.0
KEOK 121415Z AUTO 08012KT 3/4SM -SN OVC005 M01/M02 A3016 RMK AO2,KEOK,2019-01-12T14:15:00Z,40.47,-91.42,-1.0,-2.0,80,12,,0.75,30.159449,,,TRUE,TRUE,,,,,,-SN,OVC,500,,,,,,,LIFR,,,,,,,,,,,,SPECI,205.0
K24J 121415Z AUTO 06004KT 10SM OVC055 12/10 A3026 RMK A01,K24J,2019-01-12T14:15:00Z,30.3,-83.03,12.0,10.0,60,4,,10.0,30.259842,,,TRUE,TRUE,,,,,,,OVC,5500,,,,,,,VFR,,,,,,,,,,,,SPECI,32.0
K2D5 121415Z AUTO 36009KT 1SM BR OVC004 M08/M08 A3037 RMK AO2 PWINO,K2D5,2019-01-12T14:15:00Z,46.17,-98.08,-8.0,-8.0,360,9,,1.0,30.369095,,,TRUE,TRUE,,,,,TRUE,BR,OVC,400,,,,,,,LIFR,,,,,,,,,,,,SPECI,407.0
K20U 121415Z AUTO 16010KT 1/4SM FZFG OVC002 M08/M08 A3023 RMK AO2,K20U,2019-01-12T14:15:00Z,46.93,-103.98,-8.0,-8.0,160,10,,0.25,30.230314,,,TRUE,TRUE,,,,,,FZFG,OVC,200,,,,,,,LIFR,,,,,,,,,,,,SPECI,840.0
K1V6 121415Z AUTO 00000KT 2SM BR BKN003 OVC009 00/00 A3018 RMK AO2,K1V6,2019-01-12T14:15:00Z,38.43,-105.1,0.0,0.0,0,0,,2.0,30.180119,,,TRUE,TRUE,,,,,,BR,BKN,300,OVC,900,,,,,LIFR,,,,,,,,,,,,SPECI,1658.0
K0S9 121415Z AUTO 09004KT 10SM CLR 01/01 A2994 RMK AO2,K0S9,2019-01-12T14:15:00Z,48.05,-122.82,1.0,1.0,90,4,,10.0,29.940945,,,TRUE,TRUE,,,,,,,CLR,,,,,,,,VFR,,,,,,,,,,,,SPECI,33.0
K08D 121415Z AUTO 16011KT 10SM OVC009 M12/M13 A3030 RMK AO2,K08D,2019-01-12T14:15:00Z,48.3,-102.4,-12.0,-13.0,160,11,,10.0,30.301182,,,TRUE,TRUE,,,,,,,OVC,900,,,,,,,IFR,,,,,,,,,,,,SPECI,684.0
K06D 121415Z AUTO 14003KT 10SM BKN005 OVC010 M12/M13 A3036 RMK AO2,K06D,2019-01-12T14:15:00Z,48.88,-99.62,-12.0,-13.0,140,3,,10.0,30.360237,,,TRUE,TRUE,,,,,,,BKN,500,OVC,1000,,,,,IFR,,,,,,,,,,,,SPECI,556.0
KY63 121415Z AUTO 06004KT 10SM OVC026 M05/M07 A3035 RMK AO2 T10501074,KY63,2019-01-12T14:15:00Z,45.98,-96.0,-5.0,-7.4,60,4,,10.0,30.351377,,,TRUE,TRUE,,,,,,,OVC,2600,,,,,,,MVFR,,,,,,,,,,,,SPECI,367.0
KY19 121415Z AUTO 01004KT 5SM BR OVC004 M11/M11 A3035 RMK AO2,KY19,2019-01-12T14:15:00Z,46.77,-100.9,-11.0,-11.0,10,4,,5.0,30.351377,,,TRUE,TRUE,,,,,,BR,OVC,400,,,,,,,LIFR,,,,,,,,,,,,SPECI,593.0
KX07 121415Z AUTO 10006KT 10SM BKN060 18/14 A3026 RMK A01,KX07,2019-01-12T14:15:00Z,27.9,-81.62,18.0,14.0,100,6,,10.0,30.259842,,,TRUE,TRUE,,,,,,,BKN,6000,,,,,,,VFR,,,,,,,,,,,,SPECI,39.0
KUOX 121415Z AUTO 14008KT 7SM -DZ BKN039 BKN048 OVC060 07/01 A3008 RMK AO2,KUOX,2019-01-12T14:15:00Z,34.38,-89.53,7.0,1.0,140,8,,7.0,30.079725,,,TRUE,TRUE,,,,,,-DZ,BKN,3900,BKN,4800,OVC,6000,,,VFR,,,,,,,,,,,,SPECI,137.0
KUKT 121415Z AUTO 00000KT 10SM CLR M05/M15 A3054 RMK A01,KUKT,2019-01-12T14:15:00Z,40.43,-75.38,-5.0,-15.0,0,0,,10.0,30.540354,,,TRUE,TRUE,,,,,,,CLR,,,,,,,,VFR,,,,,,,,,,,,SPECI,160.0
KTSP 121415Z AUTO 11013KT 4SM -RA SCT018 OVC023 03/02 A2999 RMK AO2,KTSP,2019-01-12T14:15:00Z,35.13,-118.43,3.0,2.0,110,13,,4.0,29.991142,,,TRUE,TRUE,,,,,,-RA,SCT,1800,OVC,2300,,,,,MVFR,,,,,,,,,,,,METAR,1220.0
KTPF 121415Z AUTO 09007KT 10SM CLR 18/14 A3022 RMK AO2,KTPF,2019-01-12T14:15:00Z,27.92,-82.45,18.0,14.0,90,7,,10.0,30.221457,,,TRUE,TRUE,,,,,,,CLR,,,,,,,,VFR,,,,,,,,,,,,SPECI,3.0
KTNU 121415Z AUTO 06011KT 1 1/2SM -SN BKN008 BKN029 M02/M02 A3019 RMK AO2,KTNU,2019-01-12T14:15:00Z,41.67,-93.02,-2.0,-2.0,60,11,,1.5,30.188976,,,TRUE,TRUE,,,,,,-SN,BKN,800,BKN,2900,,,,,IFR,,,,,,,,,,,,SPECI,290.0
KTME 121415Z AUTO 27003KT 9SM CLR 16/15 A3004 RMK AO2,KTME,2019-01-12T14:15:00Z,29.8,-95.9,16.0,15.0,270,3,,9.0,30.041338,,,TRUE,TRUE,,,,,,,CLR,,,,,,,,VFR,,,,,,,,,,,,METAR,51.0
KTKX 121415Z AUTO 09008KT 6SM -UP BKN030 BKN035 OVC044 04/03 A3006 RMK AO2,KTKX,2019-01-12T14:15:00Z,36.22,-90.02,4.0,3.0,90,8,,6.0,30.059055,,,TRUE,TRUE,,,,,,UP,BKN,3000,BKN,3500,OVC,4400,,,MVFR,,,,,,,,,,,,SPECI,80.0
KTKC 121415Z AUTO 35007KT 7SM OVC009 M06/M07 A3029 RMK AO2 T10651075,KTKC,2019-01-12T14:15:00Z,44.25,-95.62,-6.5,-7.5,350,7,,7.0,30.28937,,,TRUE,TRUE,,,,,,,OVC,900,,,,,,,IFR,,,,,,,,,,,,SPECI,408.0
KSYM 121415Z AUTO 07006KT 10SM FEW006 BKN031 BKN039 M01/M03 A3034 RMK AO2,KSYM,2019-01-12T14:15:00Z,38.22,-83.58,-1.0,-3.0,70,6,,10.0,30.339567,,,TRUE,TRUE,,,,,,,FEW,600,BKN,3100,BKN,3900,,,VFR,,,,,,,,,,,,SPECI,313.0
KSUZ 121415Z AUTO 12003KT 6SM BR OVC005 05/04 A2996 RMK A01,KSUZ,2019-01-12T14:15:00Z,34.58,-92.48,5.0,4.0,120,3,,6.0,29.958662,,,TRUE,TRUE,,,,,,BR,OVC,500,,,,,,,IFR,,,,,,,,,,,,SPECI,119.0
KSTF 121415Z AUTO 13006KT 10SM BKN030 OVC042 07/01 A3013 RMK AO2 PWINO,KSTF,2019-01-12T14:15:00Z,33.43,-88.85,7.0,1.0,130,6,,10.0,30.129921,,,TRUE,TRUE,,,,,TRUE,,BKN,3000,OVC,4200,,,,,MVFR,,,,,,,,,,,,SPECI,102.0
KSOW 121415Z AUTO 00000KT 10SM CLR M07/M08 A3018 RMK AO2,KSOW,2019-01-12T14:15:00Z,34.27,-110.0,-7.0,-8.0,0,0,,10.0,30.180119,,,TRUE,TRUE,,,,,,,CLR,,,,,,,,VFR,,,,,,,,,,,,METAR,1954.0
KSNC 121415Z AUTO 32005KT 10SM OVC075 M06/M14 A3050 RMK AO2,KSNC,2019-01-12T14:15:00Z,41.38,-72.5,-6.0,-14.0,320,5,,10.0,30.499016,,,TRUE,TRUE,,,,,,,OVC,7500,,,,,,,VFR,,,,,,,,,,,,SPECI,127.0
KSMS 121415Z AUTO VRB03KT 10SM OVC024 03/M03 A3045 RMK AO2,KSMS,2019-01-12T14:15:00Z,34.0,-80.37,3.0,-3.0,0,3,,10.0,30.448818,,,TRUE,TRUE,,,,,,,OVC,2400,,,,,,,MVFR,,,,,,,,,,,,SPECI,56.0
KSLH 121415Z AUTO 09008KT 10SM OVC016 M06/M09 A3055 RMK AO2 T10601088,KSLH,2019-01-12T14:15:00Z,45.65,-84.52,-6.0,-8.8,90,8,,10.0,30.549213,,,TRUE,TRUE,,,,,,,OVC,1600,,,,,,,MVFR,,,,,,,,,,,,SPECI,195.0
K33V 121415Z AUTO 13003KT 5SM BKN001 A3017 RMK AO1,K33V,2019-01-12T14:15:00Z,40.75,-106.28,,,130,3,,5.0,30.171259,,,TRUE,TRUE,,,,,,,BKN,100,,,,,,,LIFR,,,,,,,,,,,,SPECI,2484.0
KDYA 121415Z AUTO 11005KT 10SM OVC045 09/04 A3018 RMK AO2 T00850039,KDYA,2019-01-12T14:15:00Z,32.47,-87.95,8.5,3.9,110,5,,10.0,30.180119,,,TRUE,TRUE,,,,,,,OVC,4500,,,,,,,VFR,,,,,,,,,,,,SPECI,34.0
KSUW 121415Z AUTO 08007KT 10SM OVC037 M02/M06 A3044 RMK AO2 T10231060,KSUW,2019-01-12T14:15:00Z,46.68,-92.1,-2.3,-6.0,80,7,,10.0,30.43996,,,TRUE,TRUE,,,,,,,OVC,3700,,,,,,,VFR,,,,,,,,,,,,METAR,206.0
KMGR 121415Z AUTO 10003KT 10SM SCT049 10/06 A3028 RMK AO2,KMGR,2019-01-12T14:15:00Z,31.08,-83.8,10.0,6.0,100,3,,10.0,30.280512,,,TRUE,TRUE,,,,,,,SCT,4900,,,,,,,VFR,,,,,,,,,,,,METAR,90.0
KMIS 121415Z AUTO 18011KT 10SM CLR 19/14 A3011 RMK A01,KMIS,2019-01-12T14:15:00Z,29.3,-88.85,19.0,14.0,180,11,,10.0,30.109253,,,TRUE,TRUE,,,,,,,CLR,,,,,,,,VFR,,,,,,,,,,,,METAR,32.0
KMJQ 121415Z AUTO 01008KT 4SM BR OVC004 M05/M06 A3026 RMK AO2,KMJQ,2019-01-12T14:15:00Z,43.63,-94.97,-5.0,-6.0,10,8,,4.0,30.259842,,,TRUE,TRUE,,,,,,BR,OVC,400,,,,,,,LIFR,,,,,,,,,,,,METAR,441.0
KMWO 121415Z AUTO 06006KT 3/4SM SN BR OVC006 M02/M03 A3036 RMK AO2 P0001 T10231032,KMWO,2019-01-12T14:15:00Z,39.53,-84.4,-2.3,-3.2,60,6,,0.75,30.360237,,,TRUE,TRUE,,,,,,SN BR,OVC,600,,,,,,,LIFR,,,,,,0.01,,,,,,METAR,198.0
KMVH 121415Z AUTO 27007KT 10SM CLR M04/M16 A3009 RMK AO2,KMVH,2019-01-12T14:15:00Z,46.83,-108.93,-4.0,-16.0,270,7,,10.0,30.088583,,,TRUE,TRUE,,,,,,,CLR,,,,,,,,VFR,,,,,,,,,,,,METAR,1355.0
KMTV 121415Z AUTO 00000KT 10SM OVC043 00/M07 A3051 RMK AO2 T00021066,KMTV,2019-01-12T14:15:00Z,36.63,-80.02,0.2,-6.6,0,0,,10.0,30.510826,,,TRUE,TRUE,,,,,,,OVC,4300,,,,,,,VFR,,,,,,,,,,,,METAR,287.0
KXPY 121415Z AUTO 16008G18KT 9SM CLR 19/17 A3005 RMK A01,KXPY,2019-01-12T14:15:00Z,29.12,-90.2,19.0,17.0,160,8,18,9.0,30.050198,,,TRUE,TRUE,,,,,,,CLR,,,,,,,,VFR,,,,,,,,,,,,METAR,2.0
KXNX 121415Z AUTO 04004KT 10SM SCT055 BKN075 BKN100 05/02 A3025 RMK A01,KXNX,2019-01-12T14:15:00Z,36.38,-86.42,5.0,2.0,40,4,,10.0,30.250984,,,TRUE,TRUE,,,,,,,SCT,5500,BKN,7500,BKN,10000,,,VFR,,,,,,,,,,,,METAR,178.0
KXIH 121415Z AUTO 26013KT 5SM HZ BKN005 BKN009 OVC013 A3000 RMK A01,KXIH,2019-01-12T14:15:00Z,29.18,-94.52,,,260,13,,5.0,30.0,,,TRUE,TRUE,,,,,,HZ,BKN,500,BKN,900,OVC,1300,,,IFR,,,,,,,,,,,,METAR,75.0
KXER 121415Z AUTO 20020G26KT 10SM SCT031 BKN039 23/16 A3007 RMK A01,KXER,2019-01-12T14:15:00Z,,,23.0,16.0,200,20,26,10.0,30.070866,,,TRUE,TRUE,,,,,,,SCT,3100,BKN,3900,,,,,VFR,,,,,,,,,,,,METAR,
KXBP 121415Z AUTO 10SM CLR 05/01 A3003 RMK AO2 T00450011,KXBP,2019-01-12T14:15:00Z,33.18,-97.83,4.5,1.1,,,,10.0,30.029528,,,TRUE,TRUE,,,,,,,CLR,,,,,,,,VFR,,,,,,,,,,,,METAR,260.0
KWDR 121415Z AUTO 08005KT 10SM OVC035 04/M05 A3039 RMK AO2,KWDR,2019-01-12T14:15:00Z,33.98,-83.67,4.0,-5.0,80,5,,10.0,30.389763,,,TRUE,TRUE,,,,,,,OVC,3500,,,,,,,VFR,,,,,,,,,,,,METAR,287.0
KW81 121415Z AUTO 00000KT 10SM BKN055 OVC070 M01/M09 A3051 RMK AO1 T10091088,KW81,2019-01-12T14:15:00Z,37.18,-78.1,-0.9,-8.8,0,0,,10.0,30.510826,,,TRUE,TRUE,,,,,,,BKN,5500,OVC,7000,,,,,VFR,,,,,,,,,,,,METAR,129.0
KW22 121415Z AUTO 00000KT 10SM FEW049 SCT070 M03/M06 A3034 RMK AO2,KW22,2019-01-12T14:15:00Z,39.0,-80.27,-3.0,-6.0,0,0,,10.0,30.339567,,,TRUE,TRUE,,,,,,,FEW,4900,SCT,7000,,,,,VFR,,,,,,,,,,,,METAR,499.0
KVQT 121415Z AUTO 21009G21KT 160V240 2 1/2SM HZ FEW028 FEW039 FEW046 22/17 A3004 RMK A01,KVQT,2019-01-12T14:15:00Z,28.27,-92.27,22.0,17.0,210,9,21,2.5,30.041338,,,TRUE,TRUE,,,,,,HZ,FEW,2800,FEW,3900,FEW,4600,,,IFR,,,,,,,,,,,,METAR,25.0
KVOA 121415Z AUTO 13016G23KT 10SM FEW050 20/13 A3012 RMK A01,KVOA,2019-01-12T14:15:00Z,29.23,-87.78,20.0,13.0,130,16,23,10.0,30.121063,,,TRUE,TRUE,,,,,,,FEW,5000,,,,,,,VFR,,,,,,,,,,,,METAR,53.0
KVKY 121415Z AUTO 00000KT 10SM FEW028 FEW034 OVC050 20/14 A3013 RMK A01,KVKY,2019-01-12T14:15:00Z,29.25,-88.43,20.0,14.0,0,0,,10.0,30.129921,,,TRUE,TRUE,,,,,,,FEW,2800,FEW,3400,OVC,5000,,,VFR,,,,,,,,,,,,METAR,32.0
KVKS 121415Z AUTO 13006G12KT 5SM BR OVC033 11/11 A3001 RMK A01,KVKS,2019-01-12T14:15:00Z,32.23,-90.93,11.0,11.0,130,6,12,5.0,30.008858,,,TRUE,TRUE,,,,,,BR,OVC,3300,,,,,,,MVFR,,,,,,,,,,,,METAR,32.0
KVDI 121415Z AUTO 07009KT 10SM OVC060 08/01 A3034 RMK AO2,KVDI,2019-01-12T14:15:00Z,32.2,-82.37,8.0,1.0,70,9,,10.0,30.339567,,,TRUE,TRUE,,,,,,,OVC,6000,,,,,,,VFR,,,,,,,,,,,,METAR,84.0
KMAO 121415Z AUTO 07009KT 10SM BKN026 03/M05 A3045 RMK AO2,KMAO,2019-01-12T14:15:00Z,34.18,-79.33,3.0,-5.0,70,9,,10.0,30.448818,,,TRUE,TRUE,,,,,,,BKN,2600,,,,,,,MVFR,,,,,,,,,,,,SPECI,28.0
KMYJ 121415Z AUTO 08009KT 1SM -SN OVC006 M01/M02 A3006 RMK AO2,KMYJ,2019-01-12T14:15:00Z,39.15,-91.82,-1.0,-2.0,80,9,,1.0,30.059055,,,TRUE,TRUE,,,,,,-SN,OVC,600,,,,,,,IFR,,,,,,,,,,,,METAR,251.0
KRRL 121415Z AUTO 09006KT 10SM OVC008 M04/M05 A3038 RMK AO2 T10401054 TSNO,KRRL,2019-01-12T14:15:00Z,45.2,-89.72,-4.0,-5.4,90,6,,10.0,30.380905,,,TRUE,TRUE,,,TRUE,,,,OVC,800,,,,,,,IFR,,,,,,,,,,,,SPECI,401.0
KRPD 121415Z AUTO 08007KT 10SM OVC050 M03/M06 A3037 RMK AO2 T10301065,KRPD,2019-01-12T14:15:00Z,45.42,-91.77,-3.0,-6.5,80,7,,10.0,30.369095,,,TRUE,TRUE,,,,,,,OVC,5000,,,,,,,VFR,,,,,,,,,,,,SPECI,338.0
KUNU 121415Z AUTO 04005KT 7SM BKN015 OVC026 M02/M05 A3036 RMK AO2 T10201047 TSNO,KUNU,2019-01-12T14:15:00Z,43.42,-88.7,-2.0,-4.7,40,5,,7.0,30.360237,,,TRUE,TRUE,,,TRUE,,,,BKN,1500,OVC,2600,,,,,MVFR,,,,,,,,,,,,SPECI,285.0
KSOA 121415Z AUTO 00000KT 9SM CLR 05/04 A3018 RMK AO2,KSOA,2019-01-12T14:15:00Z,30.58,-100.65,5.0,4.0,0,0,,9.0,30.180119,,,TRUE,TRUE,,,,,,,CLR,,,,,,,,VFR,,,,,,,,,,,,METAR,652.0
KMEV 121415Z AUTO 00000KT 10SM CLR M07/M07 A3005 RMK AO2,KMEV,2019-01-12T14:15:00Z,38.98,-119.75,-7.0,-7.0,0,0,,10.0,30.050198,,,TRUE,TRUE,,,,,,,CLR,,,,,,,,VFR,,,,,,,,,,,,METAR,1439.0
KMDS 121415Z AUTO 03008KT 10SM M07/M07 A3027 RMK AO2,KMDS,2019-01-12T14:15:00Z,44.02,-97.08,-7.0,-7.0,30,8,,10.0,30.268702,,,TRUE,TRUE,,,,,,,,,,,,,,,,,,,,,,,,,,,METAR,524.0
KMDQ 121415Z AUTO 14008KT 10SM OVC025 08/M02 A3022 RMK A02 T00791020,KMDQ,2019-01-12T14:15:00Z,34.87,-86.55,7.9,-2.0,140,8,,10.0,30.221457,,,TRUE,TRUE,,,,,,,OVC,2500,,,,,,,MVFR,,,,,,,,,,,,METAR,230.0
KMCC 121415Z AUTO 00000KT M1/4SM FG OVC001 04/04 A2998 RMK AO2,KMCC,2019-01-12T14:15:00Z,38.67,-121.4,4.0,4.0,0,0,,0.25,29.97933,,,TRUE,TRUE,,,,,,FG,OVC,100,,,,,,,LIFR,,,,,,,,,,,,METAR,23.0
KMBT 121415Z AUTO 00000KT 10SM CLR 07/M01 A3020 RMK A01,KMBT,2019-01-12T14:15:00Z,35.88,-86.38,7.0,-1.0,0,0,,10.0,30.200787,,,TRUE,TRUE,,,,,,,CLR,,,,,,,,VFR,,,,,,,,,,,,METAR,188.0
KM91 121415Z AUTO VRB03KT 03/02 A3019 RMK A01,KM91,2019-01-12T14:15:00Z,36.53,-86.92,3.0,2.0,0,3,,,30.188976,,,TRUE,TRUE,,,,,,,,,,,,,,,,,,,,,,,,,,,METAR,215.0
KM75 121415Z AUTO 06006KT 10SM CLR M11/M12 A3013 RMK A01,KM75,2019-01-12T14:15:00Z,48.37,-107.92,-11.0,-12.0,60,6,,10.0,30.129921,,,TRUE,TRUE,,,,,,,CLR,,,,,,,,VFR,,,,,,,,,,,,METAR,687.0
KM54 121415Z AUTO 00000KT 10SM CLR 06/01 A3021 RMK A01,KM54,2019-01-12T14:15:00Z,36.18,-86.32,6.0,1.0,0,0,,10.0,30.209646,,,TRUE,TRUE,,,,,,,CLR,,,,,,,,VFR,,,,,,,,,,,,METAR,180.0
KM30 121415Z AUTO 10003KT 10SM OVC110 02/00 A3016 RMK AO2 T00161001,KM30,2019-01-12T14:15:00Z,37.18,-88.75,1.6,-0.1,100,3,,10.0,30.159449,,,TRUE,TRUE,,,,,,,OVC,11000,,,,,,,VFR,,,,,,,,,,,,METAR,117.0
KM08 121415Z AUTO 12008KT 10SM FEW040 SCT070 OVC100 08/M00 A3008 RMK A01,KM08,2019-01-12T14:15:00Z,35.22,-89.05,8.0,0.0,120,8,,10.0,30.079725,,,TRUE,TRUE,,,,,,,FEW,4000,SCT,7000,OVC,10000,,,VFR,,,,,,,,,,,,METAR,152.0
KM04 121415Z AUTO 12005KT 10SM BKN036 BKN080 OVC095 06/02 A3008 RMK A01,KM04,2019-01-12T14:15:00Z,35.58,-89.58,6.0,2.0,120,5,,10.0,30.079725,,,TRUE,TRUE,,,,,,,BKN,3600,BKN,8000,OVC,9500,,,VFR,,,,,,,,,,,,METAR,85.0
KEOE 121415Z AUTO 04004KT 10SM BKN060 02/M03 A3046 RMK AO2,KEOE,2019-01-12T14:15:00Z,34.32,-81.63,2.0,-3.0,40,4,,10.0,30.46063,,,TRUE,TRUE,,,,,,,BKN,6000,,,,,,,VFR,,,,,,,,,,,,SPECI,174.0
KPRO 121415Z AUTO 06010KT 1 1/2SM -SN BKN005 OVC017 M02/M02 A3019 RMK AO2 T10191019,KPRO,2019-01-12T14:15:00Z,41.83,-94.17,-1.9,-1.9,60,10,,1.5,30.188976,,,TRUE,TRUE,,,,,,-SN,BKN,500,OVC,1700,,,,,IFR,,,,,,,,,,,,SPECI,308.0
KSPF 121415Z AUTO 00000KT 10SM CLR M04/M07 A3018 RMK AO2 PWINO,KSPF,2019-01-12T14:15:00Z,44.47,-103.77,-4.0,-7.0,0,0,,10.0,30.180119,,,TRUE,TRUE,,,,,TRUE,,CLR,,,,,,,,VFR,,,,,,,,,,,,SPECI,1188.0
KSDC 121415Z AUTO 00000KT 10SM SCT026 OVC090 M06/M12 A3057 RMK AO2,KSDC,2019-01-12T14:15:00Z,43.23,-77.12,-6.0,-12.0,0,0,,10.0,30.569881,,,TRUE,TRUE,,,,,,,SCT,2600,OVC,9000,,,,,VFR,,,,,,,,,,,,SPECI,129.0
K2V5 121415Z AUTO 10SM -SN SCT014 SCT049 OVC060 00/00 A3020 RMK AO2,K2V5,2019-01-12T14:15:00Z,40.1,-102.25,0.0,0.0,,,,10.0,30.200787,,,TRUE,TRUE,,,,,,-SN,SCT,1400,SCT,4900,OVC,6000,,,VFR,,,,,,,,,,,,METAR,1118.0
K2P2 121415Z AUTO 08006KT 10SM BKN022 OVC028 M03/M06 A3048 RMK AO2 T10331063,K2P2,2019-01-12T14:15:00Z,45.38,-86.92,-3.3,-6.3,80,6,,10.0,30.481298,,,TRUE,TRUE,,,,,,,BKN,2200,OVC,2800,,,,,MVFR,,,,,,,,,,,,SPECI,199.0
KROS 121415Z AUTO 04005KT 10SM OVC045 M04/M07 A3038 RMK AO2 T10411073,KROS,2019-01-12T14:15:00Z,45.7,-92.95,-4.1,-7.3,40,5,,10.0,30.380905,,,TRUE,TRUE,,,,,,,OVC,4500,,,,,,,VFR,,,,,,,,,,,,SPECI,281.0
KRNP 121415Z AUTO 06005KT 10SM SCT049 OVC065 M02/M07 A3044 RMK AO2 T10191069,KRNP,2019-01-12T14:15:00Z,43.0,-84.13,-1.9,-6.9,60,5,,10.0,30.43996,,,TRUE,TRUE,,,,,,,SCT,4900,OVC,6500,,,,,VFR,,,,,,,,,,,,SPECI,224.0
KRNH 121415Z AUTO 05004KT 7SM OVC055 M06/M08 A3034 RMK AO2 T10611080,KRNH,2019-01-12T14:15:00Z,45.15,-92.53,-6.1,-8.0,50,4,,7.0,30.339567,,,TRUE,TRUE,,,,,,,OVC,5500,,,,,,,VFR,,,,,,,,,,,,SPECI,304.0
KRMY 121415Z AUTO 08005KT 10SM OVC070 M02/M05 A3039 RMK AO2 T10251055,KRMY,2019-01-12T14:15:00Z,42.23,-84.95,-2.5,-5.5,80,5,,10.0,30.389763,,,TRUE,TRUE,,,,,,,OVC,7000,,,,,,,VFR,,,,,,,,,,,,SPECI,287.0
KRGK 121415Z AUTO 10004KT 7SM OVC055 M04/M08 A3033 RMK AO2,KRGK,2019-01-12T14:15:00Z,44.58,-92.48,-4.0,-8.0,100,4,,7.0,30.33071,,,TRUE,TRUE,,,,,,,OVC,5500,,,,,,,VFR,,,,,,,,,,,,SPECI,239.0
KRFI 121415Z AUTO 10SM BKN005 OVC011 12/12 A2997 RMK AO2 T01200115,KRFI,2019-01-12T14:15:00Z,32.15,-94.85,12.0,11.5,,,,10.0,29.970472,,,TRUE,TRUE,,,,,,,BKN,500,OVC,1100,,,,,IFR,,,,,,,,,,,,METAR,135.0
KRDK 121415Z AUTO 03011KT 1/2SM +UP OVC003 M01/M01 A3015 RMK AO2,KRDK,2019-01-12T14:15:00Z,41.02,-95.27,-1.0,-1.0,30,11,,0.5,30.15059,,,TRUE,TRUE,,,,,,UP,OVC,300,,,,,,,LIFR,,,,,,,,,,,,SPECI,318.0
KRBW 121415Z AUTO 00000KT 10SM OVC060 05/00 A3041 RMK AO2,KRBW,2019-01-12T14:15:00Z,32.92,-80.63,5.0,0.0,0,0,,10.0,30.410433,,,TRUE,TRUE,,,,,,,OVC,6000,,,,,,,VFR,,,,,,,,,,,,SPECI,31.0
KPZQ 121415Z AUTO 06008KT 10SM OVC017 M06/M09 A3056 RMK AO2 T10601090,KPZQ,2019-01-12T14:15:00Z,45.4,-83.82,-6.0,-9.0,60,8,,10.0,30.561024,,,TRUE,TRUE,,,,,,,OVC,1700,,,,,,,MVFR,,,,,,,,,,,,SPECI,204.0
KPLR 121415Z AUTO 00000KT 10SM OVC028 09/00 A3024 RMK A01,KPLR,2019-01-12T14:15:00Z,33.57,-86.25,9.0,0.0,0,0,,10.0,30.239174,,,TRUE,TRUE,,,,,,,OVC,2800,,,,,,,MVFR,,,,,,,,,,,,SPECI,148.0
KPHN 121415Z AUTO 08005KT 10SM BKN021 BKN026 OVC065 M03/M06 A3048 RMK AO2,KPHN,2019-01-12T14:15:00Z,42.92,-82.52,-3.0,-6.0,80,5,,10.0,30.481298,,,TRUE,TRUE,,,,,,,BKN,2100,BKN,2600,OVC,6500,,,MVFR,,,,,,,,,,,,SPECI,198.0
KPDC 121415Z AUTO 05005KT 10SM OVC075 M01/M05 A3031 RMK AO2 T10131050,KPDC,2019-01-12T14:15:00Z,43.02,-91.12,-1.3,-5.0,50,5,,10.0,30.31004,,,TRUE,TRUE,,,,,,,OVC,7500,,,,,,,VFR,,,,,,,,,,,,SPECI,201.0
KPCM 121415Z AUTO 09006KT 10SM BKN055 18/13 A3025 RMK AO2,KPCM,2019-01-12T14:15:00Z,28.0,-82.17,18.0,13.0,90,6,,10.0,30.250984,,,TRUE,TRUE,,,,,,,BKN,5500,,,,,,,VFR,,,,,,,,,,,,SPECI,47.0
KPAN 121415Z AUTO 08004KT 10SM CLR 01/M08 A3014 RMK AO2,KPAN,2019-01-12T14:15:00Z,34.25,-111.33,1.0,-8.0,80,4,,10.0,30.138779,,,TRUE,TRUE,,,,,,,CLR,,,,,,,,VFR,,,,,,,,,,,,METAR,1572.0
KORC 121415Z AUTO 03007KT 7SM BKN006 OVC046 M04/M05 A3024 RMK AO2,KORC,2019-01-12T14:15:00Z,42.97,-96.07,-4.0,-5.0,30,7,,7.0,30.239174,,,TRUE,TRUE,,,,,,,BKN,600,OVC,4600,,,,,IFR,,,,,,,,,,,,SPECI,431.0
KQFR 121415Z AUTO 34004KT 10SM OVC050 M19/M27 A2982 RMK AO1,KQFR,2019-01-12T14:15:00Z,,,-19.0,-27.0,340,4,,10.0,29.819881,,,TRUE,TRUE,,,,,,,OVC,5000,,,,,,,VFR,,,,,,,,,,,,METAR,
CYAY 121415Z AUTO 19009G15KT 9SM -SN OVC047 M04/M06 A2983 RMK ICG SLP105,CYAY,2019-01-12T14:15:00Z,51.38,-56.07,-4.0,-6.0,190,9,15,9.0,29.828741,1010.5,,TRUE,,,,,,,-SN,OVC,4700,,,,,,,VFR,,,,,,,,,,,,SPECI,28.0
KY51 121415Z AUTO 08010KT 5SM SCT010 OVC060 M03/M03 A3030 RMK AO1 T10271031,KY51,2019-01-12T14:15:00Z,43.58,-90.9,-2.7,-3.1,80,10,,5.0,30.301182,,,TRUE,TRUE,,,,,,,SCT,1000,OVC,6000,,,,,MVFR,,,,,,,,,,,,SPECI,394.0
KSVC 121415Z AUTO 35005KT 10SM CLR M05/M07 A3018 RMK AO2 T10531070,KSVC,2019-01-12T14:15:00Z,32.63,-108.15,-5.3,-7.0,350,5,,10.0,30.180119,,,TRUE,TRUE,,,,,,,CLR,,,,,,,,VFR,,,,,,,,,,,,SPECI,1659.0
KRID 121415Z AUTO 1SM +SN VV007 M03/M03 A3031 RMK AO2,KRID,2019-01-12T14:15:00Z,39.75,-84.85,-3.0,-3.0,,,,1.0,30.31004,,,TRUE,TRUE,,,,,,+SN,OVX,0,,,,,,,LIFR,,,,,,,,,,,700,SPECI,348.0
KPTS 121415Z AUTO 03005KT 5SM DZ OVC004 02/01 A2992 RMK AO2 T00150011,KPTS,2019-01-12T14:15:00Z,37.45,-94.73,1.5,1.1,30,5,,5.0,29.920275,,,TRUE,TRUE,,,,,,DZ,OVC,400,,,,,,,LIFR,,,,,,,,,,,,SPECI,290.0
KPSO 121415Z AUTO 20003KT 1SM SN OVC005 M03/M03 A3015 RMK AO2 T10271027,KPSO,2019-01-12T14:15:00Z,37.28,-107.05,-2.7,-2.7,200,3,,1.0,30.15059,,,TRUE,TRUE,,,,,,SN,OVC,500,,,,,,,IFR,,,,,,,,,,,,SPECI,2334.0
KPEA 121415Z AUTO 06005KT 1/2SM SN OVC005 M02/M03 A3019 RMK AO2 T10181028,KPEA,2019-01-12T14:15:00Z,41.4,-92.95,-1.8,-2.8,60,5,,0.5,30.188976,,,TRUE,TRUE,,,,,,SN,OVC,500,,,,,,,LIFR,,,,,,,,,,,,SPECI,270.0
KOQN 121415Z AUTO 05003KT 10SM CLR M03/M15 A3055 RMK AO2,KOQN,2019-01-12T14:15:00Z,39.98,-75.58,-3.0,-15.0,50,3,,10.0,30.549213,,,TRUE,TRUE,,,,,,,CLR,,,,,,,,VFR,,,,,,,,,,,,METAR,142.0
KJSO 121415Z AUTO 26009KT 7SM BKN005 OVC009 12/12 A2998 RMK AO2 T01220122,KJSO,2019-01-12T14:15:00Z,31.87,-95.22,12.2,12.2,260,9,,7.0,29.97933,,,TRUE,TRUE,,,,,,,BKN,500,OVC,900,,,,,IFR,,,,,,,,,,,,SPECI,206.0
KDYB 121415Z AUTO 03003KT 10SM OVC065 04/00 A3041 RMK AO1,KDYB,2019-01-12T14:15:00Z,33.07,-80.28,4.0,0.0,30,3,,10.0,30.410433,,,TRUE,TRUE,,,,,,,OVC,6500,,,,,,,VFR,,,,,,,,,,,,SPECI,18.0
KCCY 121415Z AUTO 08009KT 8SM OVC019 M02/M04 A3026 RMK AO2,KCCY,2019-01-12T14:15:00Z,43.07,-92.62,-2.0,-4.0,80,9,,8.0,30.259842,,,TRUE,TRUE,,,,,,,OVC,1900,,,,,,,MVFR,,,,,,,,,,,,SPECI,343.0
KC35 121415Z AUTO 07004KT 7SM OVC070 M03/M05 A3034 RMK AO2 T10261053,KC35,2019-01-12T14:15:00Z,43.53,-89.98,-2.6,-5.3,70,4,,7.0,30.339567,,,TRUE,TRUE,,,,,,,OVC,7000,,,,,,,VFR,,,,,,,,,,,,SPECI,276.0
KAIK 121415Z AUTO 06008KT 10SM OVC015 03/M05 A3042 RMK AO2,KAIK,2019-01-12T14:15:00Z,33.65,-81.68,3.0,-5.0,60,8,,10.0,30.41929,,,TRUE,TRUE,,,,,,,OVC,1500,,,,,,,MVFR,,,,,,,,,,,,SPECI,161.0
K42J 121415Z AUTO 08007KT 9SM OVC060 14/12 A3026 RMK A01 TSNO,K42J,2019-01-12T14:15:00Z,29.85,-82.05,14.0,12.0,80,7,,9.0,30.259842,,,TRUE,TRUE,,,TRUE,,,,OVC,6000,,,,,,,VFR,,,,,,,,,,,,SPECI,60.0
KMLE 121415Z AUTO 36003KT 1 1/4SM UP OVC007 00/00 A3017 RMK AO2 T00031005,KMLE,2019-01-12T14:15:00Z,41.2,-96.12,0.3,-0.5,360,3,,1.25,30.171259,,,TRUE,TRUE,,,,,,UP,OVC,700,,,,,,,IFR,,,,,,,,,,,,METAR,320.0
KMMI 121415Z AUTO VRB05G12KT 10SM FEW040 BKN110 08/M05 A3028 RMK A01,KMMI,2019-01-12T14:15:00Z,35.4,-84.57,8.0,-5.0,0,5,12,10.0,30.280512,,,TRUE,TRUE,,,,,,,FEW,4000,BKN,11000,,,,,VFR,,,,,,,,,,,,METAR,266.0
KMNV 121415Z AUTO 34005KT 10SM BKN100 06/M01 A3026 RMK A01,KMNV,2019-01-12T14:15:00Z,35.55,-84.38,6.0,-1.0,340,5,,10.0,30.259842,,,TRUE,TRUE,,,,,,,BKN,10000,,,,,,,VFR,,,,,,,,,,,,METAR,314.0
KMOR 121415Z AUTO 04004KT 10SM BKN065 OVC080 04/M02 A3027 RMK A01,KMOR,2019-01-12T14:15:00Z,36.18,-83.37,4.0,-2.0,40,4,,10.0,30.268702,,,TRUE,TRUE,,,,,,,BKN,6500,OVC,8000,,,,,VFR,,,,,,,,,,,,METAR,400.0
KHLX 121415Z AUTO 18004KT 10SM OVC020 M02/M09 A3035 RMK AO2 T10161091,KHLX,2019-01-12T14:15:00Z,36.77,-80.82,-1.6,-9.1,180,4,,10.0,30.351377,,,TRUE,TRUE,,,,,,,OVC,2000,,,,,,,MVFR,,,,,,,,,,,,METAR,834.0
KHMZ 121415Z AUTO 00000KT 10SM BKN100 M06/M09 A3046 RMK AO2 T10631091,KHMZ,2019-01-12T14:15:00Z,40.08,-78.52,-6.3,-9.1,0,0,,10.0,30.46063,,,TRUE,TRUE,,,,,,,BKN,10000,,,,,,,VFR,,,,,,,,,,,,METAR,354.0
KJCA 121415Z AUTO 07008KT 10SM OVC033 03/M06 A3039 RMK AO2 PWINO T00291055,KJCA,2019-01-12T14:15:00Z,34.18,-83.57,2.9,-5.5,70,8,,10.0,30.389763,,,TRUE,TRUE,,,,,TRUE,,OVC,3300,,,,,,,VFR,,,,,,,,,,,,METAR,290.0
KJAU 121415Z AUTO 00000KT 10SM OVC100 04/M02 A3032 RMK A01,KJAU,2019-01-12T14:15:00Z,36.33,-84.17,4.0,-2.0,0,0,,10.0,30.318897,,,TRUE,TRUE,,,,,,,OVC,10000,,,,,,,VFR,,,,,,,,,,,,METAR,360.0
KJAS 121415Z AUTO 00000KT 10SM OVC026 08/08 A3000 RMK AO2 T00760075,KJAS,2019-01-12T14:15:00Z,30.88,-94.03,7.6,7.5,0,0,,10.0,30.0,,,TRUE,TRUE,,,,,,,OVC,2600,,,,,,,MVFR,,,,,,,,,,,,METAR,65.0
KJAQ 121415Z AUTO 09005KT 10SM CLR 07/00 A2994 RMK AO1 T00660003,KJAQ,2019-01-12T14:15:00Z,38.37,-120.8,6.6,0.3,90,5,,10.0,29.940945,,,TRUE,TRUE,,,,,,,CLR,,,,,,,,VFR,,,,,,,,,,,,METAR,512.0
KIMS 121415Z AUTO 08005KT 7SM OVC007 M01/M01 A3030 RMK AO1,KIMS,2019-01-12T14:15:00Z,38.75,-85.47,-1.0,-1.0,80,5,,7.0,30.301182,,,TRUE,TRUE,,,,,,,OVC,700,,,,,,,IFR,,,,,,,,,,,,METAR,250.0
KIMM 121415Z AUTO 08009KT 10SM FEW060 20/15 A3020 RMK A01,KIMM,2019-01-12T14:15:00Z,26.43,-81.4,20.0,15.0,80,9,,10.0,30.200787,,,TRUE,TRUE,,,,,,,FEW,6000,,,,,,,VFR,,,,,,,,,,,,METAR,12.0
KIKT 121415Z AUTO 17009G18KT 140V220 10SM OVC055 20/14 A3015 RMK A01,KIKT,2019-01-12T14:15:00Z,28.52,-88.28,20.0,14.0,170,9,18,10.0,30.15059,,,TRUE,TRUE,,,,,,,OVC,5500,,,,,,,VFR,,,,,,,,,,,,METAR,25.0
KIKK 121415Z AUTO 09006KT 3/4SM -SN BKN005 OVC013 M02/M03 A3032 RMK AO2 T10211030,KIKK,2019-01-12T14:15:00Z,41.07,-87.85,-2.1,-3.0,90,6,,0.75,30.318897,,,TRUE,TRUE,,,,,,-SN,BKN,500,OVC,1300,,,,,LIFR,,,,,,,,,,,,METAR,192.0
KIFP 121415Z 00000KT 10SM CLR 09/03 A3008 RMK AO2,KIFP,2019-01-12T14:15:00Z,35.15,-114.57,9.0,3.0,0,0,,10.0,30.079725,,,,TRUE,,,,,,,CLR,,,,,,,,VFR,,,,,,,,,,,,METAR,212.0
KI23 121415Z AUTO 09008KT 1 1/2SM OVC005 M04/M05 A3036 RMK AO1,KI23,2019-01-12T14:15:00Z,39.57,-83.42,-4.0,-5.0,90,8,,1.5,30.360237,,,TRUE,TRUE,,,,,,,OVC,500,,,,,,,IFR,,,,,,,,,,,,METAR,299.0
KHZD 121415Z AUTO 10005KT 10SM SCT045 BKN120 04/01 A3013 RMK A01,KHZD,2019-01-12T14:15:00Z,36.08,-88.47,4.0,1.0,100,5,,10.0,30.129921,,,TRUE,TRUE,,,,,,,SCT,4500,BKN,12000,,,,,VFR,,,,,,,,,,,,METAR,151.0
KHWY 121415Z AUTO 00000KT 10SM OVC090 M01/M06 A3054 RMK AO2 T10061059,KHWY,2019-01-12T14:15:00Z,38.58,-77.72,-0.6,-5.9,0,0,,10.0,30.540354,,,TRUE,TRUE,,,,,,,OVC,9000,,,,,,,VFR,,,,,,,,,,,,METAR,103.0
KHTH 121415Z AUTO 14011KT 10SM CLR 01/M05 A3004 RMK A01,KHTH,2019-01-12T14:15:00Z,,,1.0,-5.0,140,11,,10.0,30.041338,,,TRUE,TRUE,,,,,,,CLR,,,,,,,,VFR,,,,,,,,,,,,METAR,
KHSP 121415Z AUTO 21004KT 4SM -SN SCT028 BKN034 OVC049 M04/M05 A3029 RMK AO2 T10361049,KHSP,2019-01-12T14:15:00Z,37.95,-79.82,-3.6,-4.9,210,4,,4.0,30.28937,,,TRUE,TRUE,,,,,,-SN,SCT,2800,BKN,3400,OVC,4900,,,MVFR,,,,,,,,,,,,METAR,1156.0
KHSB 121415Z AUTO 10007KT 7SM OVC005 01/01 A3018 RMK AO2 P0001 T00080008,KHSB,2019-01-12T14:15:00Z,37.82,-88.55,0.8,0.8,100,7,,7.0,30.180119,,,TRUE,TRUE,,,,,,,OVC,500,,,,,,,IFR,,,,,,0.01,,,,,,METAR,121.0
KHQG 121415Z AUTO 35016KT 10SM OVC023 00/M01 A3012 RMK AO2 T10011013,KHQG,2019-01-12T14:15:00Z,37.17,-101.37,-0.1,-1.3,350,16,,10.0,30.121063,,,TRUE,TRUE,,,,,,,OVC,2300,,,,,,,MVFR,,,,,,,,,,,,METAR,956.0
KHQG 121415Z AUTO 35016KT 10SM OVC023 00/M01 A3012 RMK AO2 T10011013,KHQG,2019-01-12T14:15:00Z,37.17,-101.37,-0.1,-1.3,350,16,,10.0,30.121063,,,TRUE,TRUE,,,,,,,OVC,2300,,,,,,,MVFR,,,,,,,,,,,,METAR,956.0
KHLB 121415Z AUTO 08006KT 2SM BR FEW007 OVC017 M02/M02 A3030 RMK A01,KHLB,2019-01-12T14:15:00Z,,,-2.0,-2.0,80,6,,2.0,30.301182,,,TRUE,TRUE,,,,,,BR,FEW,700,OVC,1700,,,,,IFR,,,,,,,,,,,,METAR,
KHJH 121415Z AUTO 36014G17KT 1 3/4SM -SN BKN006 OVC018 M01/M02 A3012 RMK AO2 T10111021,KHJH,2019-01-12T14:15:00Z,40.15,-97.58,-1.1,-2.1,360,14,17,1.75,30.121063,,,TRUE,TRUE,,,,,,-SN,BKN,600,OVC,1800,,,,,IFR,,,,,,,,,,,,METAR,447.0
KHHV 121415Z AUTO 28019KT 1 1/4SM BR SCT010 BKN017 OVC046 20/19 A3006 RMK A01 VIS 3/4V3,KHHV,2019-01-12T14:15:00Z,26.93,-94.68,20.0,19.0,280,19,,1.25,30.059055,,,TRUE,TRUE,,,,,,BR,SCT,1000,BKN,1700,OVC,4600,,,IFR,,,,,,,,,,,,METAR,25.0
KHDE 121415Z AUTO 01017G22KT 10SM BKN009 M05/M05 A3016 RMK AO2 T10471055,KHDE,2019-01-12T14:15:00Z,40.45,-99.32,-4.7,-5.5,10,17,22,10.0,30.159449,,,TRUE,TRUE,,,,,,,BKN,900,,,,,,,IFR,,,,,,,,,,,,METAR,705.0
KHCD 121415Z AUTO 04007KT 10SM CLR M07/M09 A3033 RMK AO2 T10711086,KHCD,2019-01-12T14:15:00Z,44.87,-94.38,-7.1,-8.6,40,7,,10.0,30.33071,,,TRUE,TRUE,,,,,,,CLR,,,,,,,,VFR,,,,,,,,,,,,METAR,323.0
KMRC 121415Z AUTO 00000KT 10SM FEW120 07/M02 A3019 RMK A01,KMRC,2019-01-12T14:15:00Z,35.55,-87.18,7.0,-2.0,0,0,,10.0,30.188976,,,TRUE,TRUE,,,,,,,FEW,12000,,,,,,,VFR,,,,,,,,,,,,METAR,208.0
KMQS 121415Z AUTO 00000KT 10SM CLR M06/M13 A3054 RMK AO2,KMQS,2019-01-12T14:15:00Z,39.98,-75.87,-6.0,-13.0,0,0,,10.0,30.540354,,,TRUE,TRUE,,,,,,,CLR,,,,,,,,VFR,,,,,,,,,,,,METAR,201.0
KSPA 121415Z AUTO 06005KT 10SM SCT055 OVC110 02/M07 A3042 RMK AO2,KSPA,2019-01-12T14:15:00Z,34.92,-81.93,2.0,-7.0,60,5,,10.0,30.41929,,,TRUE,TRUE,,,,,,,SCT,5500,OVC,11000,,,,,VFR,,,,,,,,,,,,METAR,303.0
KPLD 121415Z AUTO 00000KT 3/4SM -SN SCT007 OVC014 M02/M02 A3033 RMK AO2,KPLD,2019-01-12T14:15:00Z,40.45,-84.98,-2.0,-2.0,0,0,,0.75,30.33071,,,TRUE,TRUE,,,,,,-SN,SCT,700,OVC,1400,,,,,LIFR,,,,,,,,,,,,SPECI,282.0
KPGV 121415Z AUTO 02006KT 10SM CLR 01/M02 A3051 RMK AO2,KPGV,2019-01-12T14:15:00Z,35.62,-77.4,1.0,-2.0,20,6,,10.0,30.510826,,,TRUE,TRUE,,,,,,,CLR,,,,,,,,VFR,,,,,,,,,,,,METAR,8.0
KPBH 121415Z AUTO 08005KT 10SM SCT016 OVC038 M05/M07 A3036 RMK AO2 T10461071,KPBH,2019-01-12T14:15:00Z,45.7,-90.4,-4.6,-7.1,80,5,,10.0,30.360237,,,TRUE,TRUE,,,,,,,SCT,1600,OVC,3800,,,,,VFR,,,,,,,,,,,,SPECI,449.0
K4A6 121415Z AUTO VRB05G11KT 10SM OVC025 08/M04 A3024 RMK AO2,K4A6,2019-01-12T14:15:00Z,34.68,-86.0,8.0,-4.0,0,5,11,10.0,30.239174,,,TRUE,TRUE,,,,,,,OVC,2500,,,,,,,MVFR,,,,,,,,,,,,SPECI,198.0
K4M9 121415Z AUTO 07008KT 4SM BR FEW043 OVC050 03/03 A3004 RMK AO2 PWINO,K4M9,2019-01-12T14:15:00Z,36.4,-90.65,3.0,3.0,70,8,,4.0,30.041338,,,TRUE,TRUE,,,,,TRUE,BR,FEW,4300,OVC,5000,,,,,MVFR,,,,,,,,,,,,SPECI,90.0
K5H4 121415Z AUTO 00000KT 9SM OVC005 M12/M12 A3040 RMK AO2,K5H4,2019-01-12T14:15:00Z,47.78,-99.93,-12.0,-12.0,0,0,,9.0,30.398623,,,TRUE,TRUE,,,,,,,OVC,500,,,,,,,IFR,,,,,,,,,,,,SPECI,490.0
K57C 121415Z AUTO 08006KT 7SM OVC018 M01/M03 A3033 RMK AO2 T10091030,K57C,2019-01-12T14:15:00Z,42.8,-88.37,-0.9,-3.0,80,6,,7.0,30.33071,,,TRUE,TRUE,,,,,,,OVC,1800,,,,,,,MVFR,,,,,,,,,,,,SPECI,262.0
KVTI 121415Z AUTO 07008KT 3/4SM -SN OVC007 M02/M02 A3025 RMK AO2 T10201022,KVTI,2019-01-12T14:15:00Z,42.22,-92.02,-2.0,-2.2,70,8,,0.75,30.250984,,,TRUE,TRUE,,,,,,-SN,OVC,700,,,,,,,LIFR,,,,,,,,,,,,SPECI,255.0
KSEM 121415Z AUTO 11005KT 10SM OVC020 09/04 A3021 RMK AO2,KSEM,2019-01-12T14:15:00Z,32.35,-86.98,9.0,4.0,110,5,,10.0,30.209646,,,TRUE,TRUE,,,,,,,OVC,2000,,,,,,,MVFR,,,,,,,,,,,,SPECI,51.0
KS32 121415Z AUTO 02007KT 1 1/2SM BR OVC001 M09/M09 A3038 RMK AO2,KS32,2019-01-12T14:15:00Z,47.42,-98.1,-9.0,-9.0,20,7,,1.5,30.380905,,,TRUE,TRUE,,,,,,BR,OVC,100,,,,,,,LIFR,,,,,,,,,,,,SPECI,684.0
KPCZ 121415Z AUTO 04004KT 7SM OVC021 M01/M04 A3039 RMK AO2 T10131040,KPCZ,2019-01-12T14:15:00Z,44.33,-89.02,-1.3,-4.0,40,4,,7.0,30.389763,,,TRUE,TRUE,,,,,,,OVC,2100,,,,,,,MVFR,,,,,,,,,,,,SPECI,252.0
KMNI 121415Z AUTO 06005KT 10SM CLR 03/M03 A3043 RMK AO2,KMNI,2019-01-12T14:15:00Z,33.58,-80.22,3.0,-3.0,60,5,,10.0,30.431103,,,TRUE,TRUE,,,,,,,CLR,,,,,,,,VFR,,,,,,,,,,,,SPECI,32.0
KMCJ 121415Z AUTO 27007G13KT 230V010 10SM FEW007 BKN011 BKN017 16/15 A3000 RMK A01,KMCJ,2019-01-12T14:15:00Z,29.72,-95.4,16.0,15.0,270,7,13,10.0,30.0,,,TRUE,TRUE,,,,,,,FEW,700,BKN,1100,BKN,1700,,,MVFR,,,,,,,,,,,,SPECI,69.0
KGGE 121415Z AUTO 07007KT 10SM CLR 05/00 A3042 RMK AO2,KGGE,2019-01-12T14:15:00Z,33.32,-79.32,5.0,0.0,70,7,,10.0,30.41929,,,TRUE,TRUE,,,,,,,CLR,,,,,,,,VFR,,,,,,,,,,,,SPECI,12.0
KCCA 121415Z AUTO 00000KT 5SM -RA OVC006 03/03 A2999 RMK AO2,KCCA,2019-01-12T14:15:00Z,35.6,-92.45,3.0,3.0,0,0,,5.0,29.991142,,,TRUE,TRUE,,,,,,-RA,OVC,600,,,,,,,IFR,,,,,,,,,,,,SPECI,157.0
K96D 121415Z AUTO 32004KT 10SM M11/M10 A3044 RMK AO2,K96D,2019-01-12T14:15:00Z,48.93,-97.9,-11.0,-10.0,320,4,,10.0,30.43996,,,TRUE,TRUE,,,,,,,,,,,,,,,,,,,,,,,,,,,SPECI,290.0
K74V 121415Z AUTO 00000KT 5SM BR BKN001 M14/M16 A3028 RMK AO2,K74V,2019-01-12T14:15:00Z,40.28,-110.05,-14.0,-16.0,0,0,,5.0,30.280512,,,TRUE,TRUE,,,,,,BR,BKN,100,,,,,,,LIFR,,,,,,,,,,,,SPECI,1576.0
KSHL 121415Z AUTO 03010KT 6SM BR OVC007 M05/M05 A3023 RMK AO2,KSHL,2019-01-12T14:15:00Z,43.22,-95.82,-5.0,-5.0,30,10,,6.0,30.230314,,,TRUE,TRUE,,,,,,BR,OVC,700,,,,,,,IFR,,,,,,,,,,,,SPECI,432.0
KSDA 121415Z AUTO 03013KT 1/4SM -SN OVC003 M01/M01 A3014 RMK AO2,KSDA,2019-01-12T14:15:00Z,40.75,-95.42,-1.0,-1.0,30,13,,0.25,30.138779,,,TRUE,TRUE,,,,,,-SN,OVC,300,,,,,,,LIFR,,,,,,,,,,,,SPECI,296.0
K6S2 121415Z AUTO 12003KT 10SM SCT022 06/02 A2991 RMK AO2,K6S2,2019-01-12T14:15:00Z,43.98,-124.12,6.0,2.0,120,3,,10.0,29.911417,,,TRUE,TRUE,,,,,,,SCT,2200,,,,,,,VFR,,,,,,,,,,,,SPECI,16.0
K6L4 121415Z AUTO 11004KT 10SM SCT033 SCT042 OVC050 01/M01 A3029 RMK AO2,K6L4,2019-01-12T14:15:00Z,37.85,-81.92,1.0,-1.0,110,4,,10.0,30.28937,,,TRUE,TRUE,,,,,,,SCT,3300,SCT,4200,OVC,5000,,,VFR,,,,,,,,,,,,SPECI,508.0
K6B9 121415Z AUTO 00000KT 10SM BKN080 OVC100 M09/M12 A3050 RMK AO2,K6B9,2019-01-12T14:15:00Z,42.92,-76.43,-9.0,-12.0,0,0,,10.0,30.499016,,,TRUE,TRUE,,,,,,,BKN,8000,OVC,10000,,,,,VFR,,,,,,,,,,,,SPECI,316.0
KAZC 121415Z AUTO 00000KT 10SM CLR M03/M05 A3019 RMK AO2,KAZC,2019-01-12T14:15:00Z,36.97,-113.02,-3.0,-5.0,0,0,,10.0,30.188976,,,TRUE,TRUE,,,,,,,CLR,,,,,,,,VFR,,,,,,,,,,,,METAR,1486.0
KAZE 121415Z AUTO 07004KT 10SM OVC055 09/04 A3031 RMK AO2 T00870036,KAZE,2019-01-12T14:15:00Z,31.88,-82.65,8.7,3.6,70,4,,10.0,30.31004,,,TRUE,TRUE,,,,,,,OVC,5500,,,,,,,VFR,,,,,,,,,,,,SPECI,78.0
KBAM 121415Z AUTO 05010KT 10SM CLR M03/M05 A3012 RMK AO1,KBAM,2019-01-12T14:15:00Z,,,-3.0,-5.0,50,10,,10.0,30.121063,,,TRUE,TRUE,,,,,,,CLR,,,,,,,,VFR,,,,,,,,,,,,METAR,
KBCK 121415Z AUTO 09005KT 10SM BKN015 OVC050 M02/M06 A3036 RMK AO2 T10201056,KBCK,2019-01-12T14:15:00Z,44.25,-90.85,-2.0,-5.6,90,5,,10.0,30.360237,,,TRUE,TRUE,,,,,,,BKN,1500,OVC,5000,,,,,MVFR,,,,,,,,,,,,SPECI,255.0
KBDH 121415Z AUTO 06008KT 10SM SCT027 M07/M09 A3034 RMK AO2,KBDH,2019-01-12T14:15:00Z,45.12,-95.13,-7.0,-9.0,60,8,,10.0,30.339567,,,TRUE,TRUE,,,,,,,SCT,2700,,,,,,,VFR,,,,,,,,,,,,SPECI,247.0
KBEA 121415Z AUTO 29005KT 7SM OVC006 17/15 A3005 RMK AO2 T01700145,KBEA,2019-01-12T14:15:00Z,28.37,-97.78,17.0,14.5,290,5,,7.0,30.050198,,,TRUE,TRUE,,,,,,,OVC,600,,,,,,,IFR,,,,,,,,,,,,METAR,82.0
KFZG 121415Z AUTO 07005KT 10SM SCT042 SCT050 OVC055 09/05 A3032 RMK AO2 T00870051 PWINO,KFZG,2019-01-12T14:15:00Z,31.68,-83.27,8.7,5.1,70,5,,10.0,30.318897,,,TRUE,TRUE,,,,,TRUE,,SCT,4200,SCT,5000,OVC,5500,,,VFR,,,,,,,,,,,,METAR,111.0
KGOP 121415Z AUTO 27006KT 10SM CLR 07/04 A3008 RMK AO2,KGOP,2019-01-12T14:15:00Z,31.42,-97.8,7.0,4.0,270,6,,10.0,30.079725,,,TRUE,TRUE,,,,,,,CLR,,,,,,,,VFR,,,,,,,,,,,,METAR,276.0
KGLE 121415Z AUTO 28013KT 10SM OVC016 05/03 A2997 RMK AO2 T00510027,KGLE,2019-01-12T14:15:00Z,33.65,-97.2,5.1,2.7,280,13,,10.0,29.970472,,,TRUE,TRUE,,,,,,,OVC,1600,,,,,,,MVFR,,,,,,,,,,,,METAR,256.0
KGKT 121415Z AUTO 00000KT 10SM FEW075 SCT090 BKN110 04/M01 A3028 RMK A01,KGKT,2019-01-12T14:15:00Z,35.85,-83.53,4.0,-1.0,0,0,,10.0,30.280512,,,TRUE,TRUE,,,,,,,FEW,7500,SCT,9000,BKN,11000,,,VFR,,,,,,,,,,,,METAR,309.0
KGHG 121415Z AUTO 29007G13KT 250V320 10SM FEW100 M07/M19 A3047 RMK AO2,KGHG,2019-01-12T14:15:00Z,42.1,-70.67,-7.0,-19.0,290,7,13,10.0,30.469488,,,TRUE,TRUE,,,,,,,FEW,10000,,,,,,,VFR,,,,,,,,,,,,METAR,4.0
KGDB 121415Z AUTO 01006KT 7SM OVC023 M05/M07 A3034 RMK AO2 T10531072,KGDB,2019-01-12T14:15:00Z,44.75,-95.55,-5.3,-7.2,10,6,,7.0,30.339567,,,TRUE,TRUE,,,,,,,OVC,2300,,,,,,,MVFR,,,,,,,,,,,,METAR,319.0
KGCY 121415Z AUTO 00000KT 10SM SCT024 BKN065 OVC090 04/M06 A3027 RMK A01,KGCY,2019-01-12T14:15:00Z,36.2,-82.82,4.0,-6.0,0,0,,10.0,30.268702,,,TRUE,TRUE,,,,,,,SCT,2400,BKN,6500,OVC,9000,,,VFR,,,,,,,,,,,,METAR,490.0
KGBK 121415Z AUTO 18021KT 10SM SCT029 SCT085 SCT120 22/16 A3006 RMK A01,KGBK,2019-01-12T14:15:00Z,27.2,-92.2,22.0,16.0,180,21,,10.0,30.059055,,,TRUE,TRUE,,,,,,,SCT,2900,SCT,8500,SCT,12000,,,VFR,,,,,,,,,,,,METAR,59.0
KSWW 121415Z AUTO 29009KT 10SM CLR 04/00 A3013 RMK AO2 T00380003,KSWW,2019-01-12T14:15:00Z,32.47,-100.47,3.8,0.3,290,9,,10.0,30.129921,,,TRUE,TRUE,,,,,,,CLR,,,,,,,,VFR,,,,,,,,,,,,METAR,727.0
KSRE 121415Z AUTO 34009G18KT 1 3/4SM -UP OVC004 04/03 A2987 RMK AO2,KSRE,2019-01-12T14:15:00Z,35.27,-96.68,4.0,3.0,340,9,18,1.75,29.870079,,,TRUE,TRUE,,,,,,UP,OVC,400,,,,,,,LIFR,,,,,,,,,,,,METAR,312.0
KSRB 121415Z AUTO 16004KT 10SM SCT120 07/M03 A3022 RMK A01,KSRB,2019-01-12T14:15:00Z,36.05,-85.53,7.0,-3.0,160,4,,10.0,30.221457,,,TRUE,TRUE,,,,,,,SCT,12000,,,,,,,VFR,,,,,,,,,,,,METAR,313.0
KSXU 121415Z AUTO 00000KT 10SM CLR M01/M02 A3018 RMK AO2 T10071022,KSXU,2019-01-12T14:15:00Z,34.93,-104.65,-0.7,-2.2,0,0,,10.0,30.180119,,,TRUE,TRUE,,,,,,,CLR,,,,,,,,VFR,,,,,,,,,,,,METAR,1460.0
KSYI 121415Z AUTO 14005KT 10SM FEW040 FEW120 08/M02 A3021 RMK A01,KSYI,2019-01-12T14:15:00Z,35.57,-86.45,8.0,-2.0,140,5,,10.0,30.209646,,,TRUE,TRUE,,,,,,,FEW,4000,FEW,12000,,,,,VFR,,,,,,,,,,,,METAR,245.0
KLUL 121415Z AUTO 00000KT 10SM OVC023 08/07 A3011 RMK AO2 T00830066,KLUL,2019-01-12T14:15:00Z,31.67,-89.17,8.3,6.6,0,0,,10.0,30.109253,,,TRUE,TRUE,,,,,,,OVC,2300,,,,,,,MVFR,,,,,,,,,,,,METAR,73.0
KIFA 121415Z AUTO 06006KT 1SM -SN OVC007 M02/M03 A3023 RMK AO2 T10181026,KIFA,2019-01-12T14:15:00Z,42.47,-93.27,-1.8,-2.6,60,6,,1.0,30.230314,,,TRUE,TRUE,,,,,,-SN,OVC,700,,,,,,,IFR,,,,,,,,,,,,SPECI,347.0
KCLI 121415Z AUTO 05004KT 7SM SCT007 BKN014 OVC019 M02/M04 A3040 RMK AO2 T10231042,KCLI,2019-01-12T14:15:00Z,44.62,-88.73,-2.3,-4.2,50,4,,7.0,30.398623,,,TRUE,TRUE,,,,,,,SCT,700,BKN,1400,OVC,1900,,,MVFR,,,,,,,,,,,,SPECI,250.0
KBEC 121415Z AUTO 36013G19KT 10SM OVC006 00/M01 A2998 RMK AO2 T00001010,KBEC,2019-01-12T14:15:00Z,37.7,-97.22,0.0,-1.0,360,13,19,10.0,29.97933,,,TRUE,TRUE,,,,,,,OVC,600,,,,,,,IFR,,,,,,,,,,,,SPECI,429.0
KBIJ 121415Z AUTO 09005KT 10SM BKN038 BKN047 BKN055 09/04 A3025 RMK AO2,KBIJ,2019-01-12T14:15:00Z,31.4,-84.9,9.0,4.0,90,5,,10.0,30.250984,,,TRUE,TRUE,,,,,,,BKN,3800,BKN,4700,BKN,5500,,,VFR,,,,,,,,,,,,SPECI,65.0
KBKS 121415Z AUTO 01004KT 3SM CLR 12/11 A3007 RMK AO1 T01190110,KBKS,2019-01-12T14:15:00Z,27.2,-98.12,11.9,11.0,10,4,,3.0,30.070866,,,TRUE,TRUE,,,,,,,CLR,,,,,,,,MVFR,,,,,,,,,,,,METAR,34.0
KBPC 121415Z AUTO 36013G21KT 10SM BKN015 OVC020 01/M01 A3011 RMK AO2,KBPC,2019-01-12T14:15:00Z,35.88,-101.03,1.0,-1.0,360,13,21,10.0,30.109253,,,TRUE,TRUE,,,,,,,BKN,1500,OVC,2000,,,,,MVFR,,,,,,,,,,,,METAR,845.0
KBQK 121415Z AUTO 06011KT 10SM OVC060 13/11 A3032 RMK AO2,KBQK,2019-01-12T14:15:00Z,31.25,-81.47,13.0,11.0,60,11,,10.0,30.318897,,,TRUE,TRUE,,,,,,,OVC,6000,,,,,,,VFR,,,,,,,,,,,,SPECI,8.0
KBTA 121415Z AUTO 36012G15KT 1SM -SN OVC003 00/M01 A3016 RMK AO2 T10051011,KBTA,2019-01-12T14:15:00Z,41.42,-96.12,-0.5,-1.1,360,12,15,1.0,30.159449,,,TRUE,TRUE,,,,,,-SN,OVC,300,,,,,,,LIFR,,,,,,,,,,,,SPECI,396.0
KBVN 121415Z AUTO 35012KT 2 1/2SM BR OVC003 M06/M07 A3022 RMK AO2 T10601066,KBVN,2019-01-12T14:15:00Z,41.73,-98.05,-6.0,-6.6,350,12,,2.5,30.221457,,,TRUE,TRUE,,,,,,BR,OVC,300,,,,,,,LIFR,,,,,,,,,,,,SPECI,551.0
KAYS 121415Z AUTO 09006KT 10SM OVC055 11/09 A3031 RMK AO2 T01110085,KAYS,2019-01-12T14:15:00Z,31.25,-82.4,11.1,8.5,90,6,,10.0,30.31004,,,TRUE,TRUE,,,,,,,OVC,5500,,,,,,,VFR,,,,,,,,,,,,SPECI,46.0
KAXX 121415Z AUTO 00000KT M1/4SM FZFG M16/M18 A3016 RMK AO2 T11631180,KAXX,2019-01-12T14:15:00Z,36.42,-105.28,-16.3,-18.0,0,0,,0.25,30.159449,,,TRUE,TRUE,,,,,,FZFG,,,,,,,,,,,,,,,,,,,,,METAR,2548.0
KAXS 121415Z AUTO 34018G24KT 10SM OVC020 04/00 A3006 RMK AO2 T00390000,KAXS,2019-01-12T14:15:00Z,34.7,-99.33,3.9,0.0,340,18,24,10.0,30.059055,,,TRUE,TRUE,,,,,,,OVC,2000,,,,,,,MVFR,,,,,,,,,,,,SPECI,437.0
KAXH 121415Z AUTO 30005KT 10SM SCT007 OVC018 15/15 A3003 RMK AO2 T01500150,KAXH,2019-01-12T14:15:00Z,29.52,-95.48,15.0,15.0,300,5,,10.0,30.029528,,,TRUE,TRUE,,,,,,,SCT,700,OVC,1800,,,,,MVFR,,,,,,,,,,,,METAR,21.0
CYGL 121415Z 30006KT 15SM -SN OVC009 M17/M19 A3041 RMK SF8 CIG RAG SLP322,CYGL,2019-01-12T14:15:00Z,53.62,-77.7,-17.0,-19.0,300,6,,15.0,30.410433,1032.2,,,,,,,,,-SN,OVC,900,,,,,,,IFR,,,,,,,,,,,,SPECI,195.0
KAJZ 121415Z AUTO 05003KT 1 3/4SM -SN OVC010 M01/M02 A3020 RMK AO2 T10121020,KAJZ,2019-01-12T14:15:00Z,38.78,-108.07,-1.2,-2.0,50,3,,1.75,30.200787,,,TRUE,TRUE,,,,,,-SN,OVC,1000,,,,,,,IFR,,,,,,,,,,,,METAR,1583.0
KAIO 121415Z AUTO 04011KT 1SM UP CLR M02/M02 A3016 RMK AO2,KAIO,2019-01-12T14:15:00Z,41.38,-95.03,-2.0,-2.0,40,11,,1.0,30.159449,,,TRUE,TRUE,,,,,,UP,CLR,,,,,,,,IFR,,,,,,,,,,,,SPECI,360.0
KAIB 121415Z AUTO 00000KT 3SM -SN BKN050 OVC070 M02/M03 A3020 RMK AO2,KAIB,2019-01-12T14:15:00Z,38.23,-108.57,-2.0,-3.0,0,0,,3.0,30.200787,,,TRUE,TRUE,,,,,,-SN,BKN,5000,OVC,7000,,,,,MVFR,,,,,,,,,,,,SPECI,1811.0
KAEJ 121415Z AUTO 00000KT 10SM BKN025 BKN042 OVC065 M13/M15 A3017 RMK AO2 T11271148,KAEJ,2019-01-12T14:15:00Z,38.82,-106.12,-12.7,-14.8,0,0,,10.0,30.171259,,,TRUE,TRUE,,,,,,,BKN,2500,BKN,4200,OVC,6500,,,MVFR,,,,,,,,,,,,METAR,2422.0
KADU 121415Z AUTO 00000KT 1SM -SN OVC010 M02/M03 A3017 RMK AO2,KADU,2019-01-12T14:15:00Z,41.7,-94.92,-2.0,-3.0,0,0,,1.0,30.171259,,,TRUE,TRUE,,,,,,-SN,OVC,1000,,,,,,,IFR,,,,,,,,,,,,SPECI,392.0
KACQ 121415Z AUTO 06007KT 10SM OVC040 M03/M06 A3030 RMK AO2,KACQ,2019-01-12T14:15:00Z,44.07,-93.55,-3.0,-6.0,60,7,,10.0,30.301182,,,TRUE,TRUE,,,,,,,OVC,4000,,,,,,,VFR,,,,,,,,,,,,SPECI,343.0
KACB 121415Z AUTO 04005KT 10SM BKN042 OVC070 M05/M10 A3051 RMK AO2 T10491100,KACB,2019-01-12T14:15:00Z,44.98,-85.2,-4.9,-10.0,40,5,,10.0,30.510826,,,TRUE,TRUE,,,,,,,BKN,4200,OVC,7000,,,,,VFR,,,,,,,,,,,,SPECI,190.0
K9MN 121415Z AUTO 04004KT 10SM OVC050 M02/M05 A3030 RMK AO1 T10251055,K9MN,2019-01-12T14:15:00Z,44.02,-92.48,-2.5,-5.5,40,4,,10.0,30.301182,,,TRUE,TRUE,,,,,,,OVC,5000,,,,,,,VFR,,,,,,,,,,,,SPECI,355.0
K9D7 121415Z AUTO 00000KT 9SM BKN009 OVC017 M11/M11 A3042 RMK AO2,K9D7,2019-01-12T14:15:00Z,48.48,-99.23,-11.0,-11.0,0,0,,9.0,30.41929,,,TRUE,TRUE,,,,,,,BKN,900,OVC,1700,,,,,IFR,,,,,,,,,,,,SPECI,452.0
K82C 121415Z AUTO 09004KT 4SM HZ OVC065 M02/M05 A3035 RMK AO2 T10201047,K82C,2019-01-12T14:15:00Z,43.83,-90.13,-2.0,-4.7,90,4,,4.0,30.351377,,,TRUE,TRUE,,,,,,HZ,OVC,6500,,,,,,,MVFR,,,,,,,,,,,,SPECI,276.0
K7L2 121415Z AUTO 04004KT 2 1/2SM BR M10/M11 A3037 RMK AO2,K7L2,2019-01-12T14:15:00Z,46.22,-100.25,-10.0,-11.0,40,4,,2.5,30.369095,,,TRUE,TRUE,,,,,,BR,,,,,,,,,,,,,,,,,,,,,SPECI,543.0
KCGC 121415Z AUTO 10007KT 10SM CLR 18/12 A3024 RMK AO2,KCGC,2019-01-12T14:15:00Z,28.87,-82.57,18.0,12.0,100,7,,10.0,30.239174,,,TRUE,TRUE,,,,,,,CLR,,,,,,,,VFR,,,,,,,,,,,,SPECI,3.0
KCPK 121415Z AUTO 00000KT 10SM OVC110 01/M02 A3054 RMK AO2 T00051017,KCPK,2019-01-12T14:15:00Z,36.67,-76.32,0.5,-1.7,0,0,,10.0,30.540354,,,TRUE,TRUE,,,,,,,OVC,11000,,,,,,,VFR,,,,,,,,,,,,SPECI,6.0
KCOQ 121415Z AUTO 08007KT 10SM OVC029 M04/M06 A3040 RMK AO2,KCOQ,2019-01-12T14:15:00Z,46.7,-92.5,-4.0,-6.0,80,7,,10.0,30.398623,,,TRUE,TRUE,,,,,,,OVC,2900,,,,,,,MVFR,,,,,,,,,,,,SPECI,390.0
KCNU 121415Z AUTO 01006KT 2 1/2SM -SN BR OVC006 01/01 A2996 RMK AO2 P0000 T00060006,KCNU,2019-01-12T14:15:00Z,37.67,-95.48,0.6,0.6,10,6,,2.5,29.958662,,,TRUE,TRUE,,,,,,-SN BR,OVC,600,,,,,,,IFR,,,,,,0.005,,,,,,SPECI,297.0
KCNI 121415Z AUTO 07004G14KT 10SM OVC031 05/M08 A3034 RMK AO2,KCNI,2019-01-12T14:15:00Z,34.32,-84.42,5.0,-8.0,70,4,14,10.0,30.339567,,,TRUE,TRUE,,,,,,,OVC,3100,,,,,,,VFR,,,,,,,,,,,,SPECI,372.0
KCMD 121415Z AUTO 15003KT 10SM OVC020 07/M01 A3023 RMK AO2 T00701013,KCMD,2019-01-12T14:15:00Z,34.27,-86.85,7.0,-1.3,150,3,,10.0,30.230314,,,TRUE,TRUE,,,,,,,OVC,2000,,,,,,,MVFR,,,,,,,,,,,,SPECI,294.0
PAUT 121415Z AUTO 07008KT 10SM OVC013 03/01 A2907 RMK AO2 T00270010,PAUT,2019-01-12T14:15:00Z,54.15,-165.6,2.7,1.0,70,8,,10.0,29.069881,,,TRUE,TRUE,,,,,,,OVC,1300,,,,,,,MVFR,,,,,,,,,,,,SPECI,25.0
PAKT 121415Z AUTO 00000KT 10SM BKN004 OVC025 01/01 A2987 RMK AO2 T00110006 TSNO,PAKT,2019-01-12T14:15:00Z,55.35,-131.7,1.1,0.6,0,0,,10.0,29.870079,,,TRUE,TRUE,,,TRUE,,,,BKN,400,OVC,2500,,,,,LIFR,,,,,,,,,,,,SPECI,28.0
KCQF 121415Z AUTO 10007KT 10SM CLR 11/08 A3015 RMK AO2,KCQF,2019-01-12T14:15:00Z,30.47,-87.88,11.0,8.0,100,7,,10.0,30.15059,,,TRUE,TRUE,,,,,,,CLR,,,,,,,,VFR,,,,,,,,,,,,SPECI,28.0
KCDH 121415Z AUTO 15003KT 6SM BR OVC005 07/06 A2996 RMK AO2,KCDH,2019-01-12T14:15:00Z,33.62,-92.77,7.0,6.0,150,3,,6.0,29.958662,,,TRUE,TRUE,,,,,,BR,OVC,500,,,,,,,IFR,,,,,,,,,,,,SPECI,35.0
KCDA 121415Z AUTO 00000KT 10SM CLR M20/M23 A3042 RMK AO2 T11981230,KCDA,2019-01-12T14:15:00Z,44.57,-72.02,-19.8,-23.0,0,0,,10.0,30.41929,,,TRUE,TRUE,,,,,,,CLR,,,,,,,,VFR,,,,,,,,,,,,SPECI,363.0
KCBK 121415Z AUTO 34011KT 10SM SCT055 M02/M03 A3017 RMK AO2,KCBK,2019-01-12T14:15:00Z,39.43,-101.05,-2.0,-3.0,340,11,,10.0,30.171259,,,TRUE,TRUE,,,,,,,SCT,5500,,,,,,,VFR,,,,,,,,,,,,SPECI,971.0
KBYY 121415Z AUTO 30008KT 10SM OVC009 15/15 A3003 RMK AO2 T01550155,KBYY,2019-01-12T14:15:00Z,28.97,-95.87,15.5,15.5,300,8,,10.0,30.029528,,,TRUE,TRUE,,,,,,,OVC,900,,,,,,,IFR,,,,,,,,,,,,METAR,14.0
KBYL 121415Z AUTO 00000KT 5SM FEW020 BKN036 OVC110 00/00 A3029 RMK AO1,KBYL,2019-01-12T14:15:00Z,36.8,-84.2,0.0,0.0,0,0,,5.0,30.28937,,,TRUE,TRUE,,,,,,,FEW,2000,BKN,3600,OVC,11000,,,MVFR,,,,,,,,,,,,SPECI,359.0
KBXK 121415Z AUTO 00000KT 10SM CLR 06/05 A3010 RMK AO1,KBXK,2019-01-12T14:15:00Z,33.42,-112.68,6.0,5.0,0,0,,10.0,30.100393,,,TRUE,TRUE,,,,,,,CLR,,,,,,,,VFR,,,,,,,,,,,,METAR,315.0
KBXA 121415Z AUTO 16004KT 10SM -RA SCT044 SCT050 OVC110 13/11 A3006 RMK AO2 T01340110,KBXA,2019-01-12T14:15:00Z,30.82,-89.87,13.4,11.0,160,4,,10.0,30.059055,,,TRUE,TRUE,,,,,,-RA,SCT,4400,SCT,5000,OVC,11000,,,VFR,,,,,,,,,,,,SPECI,36.0
KBWD 121415Z AUTO 30010KT 10SM CLR 05/02 A3008 RMK AO1,KBWD,2019-01-12T14:15:00Z,31.8,-98.95,5.0,2.0,300,10,,10.0,30.079725,,,TRUE,TRUE,,,,,,,CLR,,,,,,,,VFR,,,,,,,,,,,,METAR,423.0
KCWC 121415Z AUTO 31013G18KT 10SM BKN023 BKN040 OVC046 05/01 A3003 RMK AO2 T00470011,KCWC,2019-01-12T14:15:00Z,33.85,-98.48,4.7,1.1,310,13,18,10.0,30.029528,,,TRUE,TRUE,,,,,,,BKN,2300,BKN,4000,OVC,4600,,,MVFR,,,,,,,,,,,,METAR,305.0
KCVB 121415Z AUTO 00000KT 1 1/2SM BR SCT011 BKN017 12/12 A3010 RMK AO2 T01190119,KCVB,2019-01-12T14:15:00Z,29.35,-98.85,11.9,11.9,0,0,,1.5,30.100393,,,TRUE,TRUE,,,,,,BR,SCT,1100,BKN,1700,,,,,IFR,,,,,,,,,,,,METAR,235.0
KCZL 121415Z AUTO 13006G14KT 10SM OVC032 06/M06 A3032 RMK AO2,KCZL,2019-01-12T14:15:00Z,34.47,-84.93,6.0,-6.0,130,6,14,10.0,30.318897,,,TRUE,TRUE,,,,,,,OVC,3200,,,,,,,VFR,,,,,,,,,,,,SPECI,195.0
KDNN 121415Z AUTO 16007KT 10SM OVC034 06/M05 A3030 RMK AO2,KDNN,2019-01-12T14:15:00Z,34.72,-84.87,6.0,-5.0,160,7,,10.0,30.301182,,,TRUE,TRUE,,,,,,,OVC,3400,,,,,,,VFR,,,,,,,,,,,,SPECI,216.0
KDLZ 121415Z AUTO 10007KT 10SM OVC033 M02/M06 A3037 RMK AO2,KDLZ,2019-01-12T14:15:00Z,40.28,-83.12,-2.0,-6.0,100,7,,10.0,30.369095,,,TRUE,TRUE,,,,,,,OVC,3300,,,,,,,VFR,,,,,,,,,,,,SPECI,289.0
KDLO 121415Z AUTO 00000KT 10SM SCT060 BKN070 OVC095 09/07 A2995 RMK AO2 T00920067,KDLO,2019-01-12T14:15:00Z,35.75,-119.23,9.2,6.7,0,0,,10.0,29.949802,,,TRUE,TRUE,,,,,,,SCT,6000,BKN,7000,OVC,9500,,,VFR,,,,,,,,,,,,METAR,96.0
KDDC 121415Z AUTO 36022G30KT 2SM -SN BR OVC006 M01/M03 A3007 RMK AO2 PK WND 35030/1410 CIG 005V011 P0000 T10111033 $,KDDC,2019-01-12T14:15:00Z,37.77,-99.97,-1.1,-3.3,360,22,30,2.0,30.070866,,,TRUE,TRUE,TRUE,,,,,-SN BR,OVC,600,,,,,,,IFR,,,,,,0.005,,,,,,SPECI,789.0
KDRI 121415Z AUTO 00000KT 5SM BR OVC003 13/12 A2999 RMK AO2 P0001 T01250118,KDRI,2019-01-12T14:15:00Z,30.83,-93.33,12.5,11.8,0,0,,5.0,29.991142,,,TRUE,TRUE,,,,,,BR,OVC,300,,,,,,,LIFR,,,,,,0.01,,,,,,SPECI,63.0
KDNV 121415Z AUTO 08004KT 1/2SM SN BKN005 OVC011 M02/M02 A3025 RMK AO2 T10171020,KDNV,2019-01-12T14:15:00Z,40.2,-87.6,-1.7,-2.0,80,4,,0.5,30.250984,,,TRUE,TRUE,,,,,,SN,BKN,500,OVC,1100,,,,,LIFR,,,,,,,,,,,,SPECI,212.0
KECS 121415Z AUTO 00000KT 10SM CLR M07/M08 A3019 RMK AO2,KECS,2019-01-12T14:15:00Z,43.88,-104.32,-7.0,-8.0,0,0,,10.0,30.188976,,,TRUE,TRUE,,,,,,,CLR,,,,,,,,VFR,,,,,,,,,,,,METAR,1273.0
KEBA 121415Z AUTO 06004KT 10SM OVC037 05/M03 A3042 RMK AO2 T00471034,KEBA,2019-01-12T14:15:00Z,34.1,-82.82,4.7,-3.4,60,4,,10.0,30.41929,,,TRUE,TRUE,,,,,,,OVC,3700,,,,,,,VFR,,,,,,,,,,,,SPECI,184.0
KDZJ 121415Z AUTO 11012KT 10SM BKN031 OVC100 04/M06 A3031 RMK AO2 T00391060,KDZJ,2019-01-12T14:15:00Z,34.85,-84.0,3.9,-6.0,110,12,,10.0,30.31004,,,TRUE,TRUE,,,,,,,BKN,3100,OVC,10000,,,,,VFR,,,,,,,,,,,,SPECI,582.0
KDZB 121415Z AUTO 27003KT 10SM CLR 09/06 A3009 RMK AO2 T00850057,KDZB,2019-01-12T14:15:00Z,30.53,-98.37,8.5,5.7,270,3,,10.0,30.088583,,,TRUE,TRUE,,,,,,,CLR,,,,,,,,VFR,,,,,,,,,,,,METAR,334.0
KF05 121415Z AUTO 33017KT 10SM BKN028 OVC036 04/01 A3005 RMK AO1 T00430005,KF05,2019-01-12T14:15:00Z,34.23,-99.28,4.3,0.5,330,17,,10.0,30.050198,,,TRUE,TRUE,,,,,,,BKN,2800,OVC,3600,,,,,MVFR,,,,,,,,,,,,METAR,386.0
KCXU 121415Z AUTO 00000KT 10SM SCT041 SCT047 SCT050 11/07 A3027 RMK AO1 T01100067,KCXU,2019-01-12T14:15:00Z,31.22,-84.23,11.0,6.7,0,0,,10.0,30.268702,,,TRUE,TRUE,,,,,,,SCT,4100,SCT,4700,SCT,5000,,,VFR,,,,,,,,,,,,SPECI,53.0
KF00 121415Z AUTO 25009KT 10SM BKN017 OVC025 05/04 A2994 RMK AO2 T00490037,KF00,2019-01-12T14:15:00Z,33.62,-96.18,4.9,3.7,250,9,,10.0,29.940945,,,TRUE,TRUE,,,,,,,BKN,1700,OVC,2500,,,,,MVFR,,,,,,,,,,,,METAR,188.0
KETN 121415Z AUTO 30010G20KT 10SM CLR 04/00 A3006 RMK AO2 T00390004,KETN,2019-01-12T14:15:00Z,32.42,-98.82,3.9,0.4,300,10,20,10.0,30.059055,,,TRUE,TRUE,,,,,,,CLR,,,,,,,,VFR,,,,,,,,,,,,METAR,446.0
KERV 121415Z AUTO 32007KT 10SM CLR 09/07 A3010 RMK AO2 T00920071,KERV,2019-01-12T14:15:00Z,29.98,-99.08,9.2,7.1,320,7,,10.0,30.100393,,,TRUE,TRUE,,,,,,,CLR,,,,,,,,VFR,,,,,,,,,,,,METAR,510.0
KELO 121415Z AUTO 05003KT 10SM OVC012 M09/M11 A3046 RMK AO2 TSNO,KELO,2019-01-12T14:15:00Z,47.82,-91.82,-9.0,-11.0,50,3,,10.0,30.46063,,,TRUE,TRUE,,,TRUE,,,,OVC,1200,,,,,,,MVFR,,,,,,,,,,,,SPECI,443.0
KELN 121415Z AUTO 00000KT 3/4SM BR BKN002 OVC015 M01/M03 A3014 RMK AO2 T10111028,KELN,2019-01-12T14:15:00Z,47.03,-120.53,-1.1,-2.8,0,0,,0.75,30.138779,,,TRUE,TRUE,,,,,,BR,BKN,200,OVC,1500,,,,,LIFR,,,,,,,,,,,,SPECI,519.0
KEFT 121415Z AUTO 10SM OVC080 M02/M05 A3029 RMK AO2 T10211048,KEFT,2019-01-12T14:15:00Z,42.62,-89.6,-2.1,-4.8,,,,10.0,30.28937,,,TRUE,TRUE,,,,,,,OVC,8000,,,,,,,VFR,,,,,,,,,,,,SPECI,331.0
KEDN 121415Z AUTO 11006KT 10SM BKN027 OVC031 10/06 A3023 RMK AO2 T00950060,KEDN,2019-01-12T14:15:00Z,31.3,-85.9,9.5,6.0,110,6,,10.0,30.230314,,,TRUE,TRUE,,,,,,,BKN,2700,OVC,3100,,,,,MVFR,,,,,,,,,,,,SPECI,110.0
KEDJ 121415Z AUTO 12003KT 1 1/2SM CLR M04/M05 A3035 RMK AO1,KEDJ,2019-01-12T14:15:00Z,40.37,-83.82,-4.0,-5.0,120,3,,1.5,30.351377,,,TRUE,TRUE,,,,,,,CLR,,,,,,,,IFR,,,,,,,,,,,,SPECI,342.0
KEDC 121415Z AUTO 32014G18KT 10SM CLR 10/07 A3006 RMK AO2,KEDC,2019-01-12T14:15:00Z,30.4,-97.57,10.0,7.0,320,14,18,10.0,30.059055,,,TRUE,TRUE,,,,,,,CLR,,,,,,,,VFR,,,,,,,,,,,,METAR,189.0
KECU 121415Z AUTO 33007KT 10SM CLR 07/05 A3016 RMK AO2,KECU,2019-01-12T14:15:00Z,29.95,-100.17,7.0,5.0,330,7,,10.0,30.159449,,,TRUE,TRUE,,,,,,,CLR,,,,,,,,VFR,,,,,,,,,,,,METAR,725.0
KF17 121415Z AUTO 00000KT 1/2SM FG OVC003 10/09 A2997 RMK AO2 T01000092,KF17,2019-01-12T14:15:00Z,31.83,-94.15,10.0,9.2,0,0,,0.5,29.970472,,,TRUE,TRUE,,,,,,FG,OVC,300,,,,,,,LIFR,,,,,,,,,,,,METAR,97.0
KMBO 121415Z AUTO 10004KT 5SM BKN004 OVC009 07/07 A3004 RMK AO2 PWINO,KMBO,2019-01-12T14:15:00Z,32.43,-90.1,7.0,7.0,100,4,,5.0,30.041338,,,TRUE,TRUE,,,,,TRUE,,BKN,400,OVC,900,,,,,LIFR,,,,,,,,,,,,SPECI,99.0
KMAN 121415Z AUTO 12008G13KT 10SM CLR M02/M02 A3025 RMK A01,KMAN,2019-01-12T14:15:00Z,43.58,-116.52,-2.0,-2.0,120,8,13,10.0,30.250984,,,TRUE,TRUE,,,,,,,CLR,,,,,,,,VFR,,,,,,,,,,,,METAR,774.0
KM40 121415Z AUTO 14008KT 10SM BKN040 BKN046 OVC070 08/03 A3015 RMK AO2,KM40,2019-01-12T14:15:00Z,33.87,-88.48,8.0,3.0,140,8,,10.0,30.15059,,,TRUE,TRUE,,,,,,,BKN,4000,BKN,4600,OVC,7000,,,VFR,,,,,,,,,,,,SPECI,69.0
KF44 121415Z AUTO 00000KT 10SM CLR 08/05 A2998 RMK AO2,KF44,2019-01-12T14:15:00Z,32.17,-95.83,8.0,5.0,0,0,,10.0,29.97933,,,TRUE,TRUE,,,,,,,CLR,,,,,,,,VFR,,,,,,,,,,,,METAR,135.0
KM21 121415Z AUTO 12004KT 10SM OVC110 01/00 A3020 RMK AO2 T00090001,KM21,2019-01-12T14:15:00Z,37.22,-87.15,0.9,0.1,120,4,,10.0,30.200787,,,TRUE,TRUE,,,,,,,OVC,11000,,,,,,,VFR,,,,,,,,,,,,SPECI,129.0
KLRO 121415Z AUTO 36004KT 10SM OVC055 06/02 A3040 RMK AO2,KLRO,2019-01-12T14:15:00Z,32.9,-79.78,6.0,2.0,360,4,,10.0,30.398623,,,TRUE,TRUE,,,,,,,OVC,5500,,,,,,,VFR,,,,,,,,,,,,SPECI,4.0
KLRJ 121415Z AUTO 36010KT 5SM BR OVC006 M05/M05 A3025 RMK AO2,KLRJ,2019-01-12T14:15:00Z,42.77,-96.2,-5.0,-5.0,360,10,,5.0,30.250984,,,TRUE,TRUE,,,,,,BR,OVC,600,,,,,,,IFR,,,,,,,,,,,,SPECI,365.0
KL52 121415Z AUTO 09006KT 10SM FEW047 SCT065 OVC110 10/08 A2996 RMK A01,KL52,2019-01-12T14:15:00Z,35.1,-120.62,10.0,8.0,90,6,,10.0,29.958662,,,TRUE,TRUE,,,,,,,FEW,4700,SCT,6500,OVC,11000,,,VFR,,,,,,,,,,,,METAR,4.0
KL08 121415Z AUTO 00000KT 10SM FEW031 BKN065 OVC075 09/07 A3001 RMK AO2,KL08,2019-01-12T14:15:00Z,33.27,-116.32,9.0,7.0,0,0,,10.0,30.008858,,,TRUE,TRUE,,,,,,,FEW,3100,BKN,6500,OVC,7500,,,VFR,,,,,,,,,,,,METAR,159.0
KKY8 121415Z AUTO 08006G11KT 8SM OVC080 02/02 A3023 RMK A01,KKY8,2019-01-12T14:15:00Z,37.95,-86.87,2.0,2.0,80,6,11,8.0,30.230314,,,TRUE,TRUE,,,,,,,OVC,8000,,,,,,,VFR,,,,,,,,,,,,SPECI,126.0
KJZI 121415Z AUTO 35008KT 6SM HZ OVC060 06/02 A3039 RMK AO2 PWINO,KJZI,2019-01-12T14:15:00Z,32.7,-80.0,6.0,2.0,350,8,,6.0,30.389763,,,TRUE,TRUE,,,,,TRUE,HZ,OVC,6000,,,,,,,VFR,,,,,,,,,,,,SPECI,6.0
KJVY 121415Z AUTO 00000KT 10SM OVC010 00/00 A3029 RMK AO2 T00021005,KJVY,2019-01-12T14:15:00Z,,,0.2,-0.5,0,0,,10.0,30.28937,,,TRUE,TRUE,,,,,,,OVC,1000,,,,,,,MVFR,,,,,,,,,,,,SPECI,
KJVW 121415Z AUTO 11011KT 10SM -DZ 10/10 A3002 RMK AO2,KJVW,2019-01-12T14:15:00Z,32.3,-90.42,10.0,10.0,110,11,,10.0,30.02067,,,TRUE,TRUE,,,,,,-DZ,,,,,,,,,,,,,,,,,,,,,SPECI,76.0
KJFX 121415Z AUTO 00000KT 10SM 09/03 A3022 RMK AO2 PWINO,KJFX,2019-01-12T14:15:00Z,33.9,-87.32,9.0,3.0,0,0,,10.0,30.221457,,,TRUE,TRUE,,,,,TRUE,,,,,,,,,,,,,,,,,,,,,,SPECI,148.0
KIKV 121415Z AUTO 1 1/2SM -SN FEW003 SCT007 SCT023 M02/M03 A3021 RMK AO2,KIKV,2019-01-12T14:15:00Z,41.68,-93.57,-2.0,-3.0,,,,1.5,30.209646,,,TRUE,TRUE,,,,,,-SN,FEW,300,SCT,700,SCT,2300,,,IFR,,,,,,,,,,,,SPECI,275.0
KIIB 121415Z AUTO 08009KT 1 3/4SM -SN OVC008 M01/M02 A3025 RMK AO2 T10141020,KIIB,2019-01-12T14:15:00Z,42.45,-91.95,-1.4,-2.0,80,9,,1.75,30.250984,,,TRUE,TRUE,,,,,,-SN,OVC,800,,,,,,,IFR,,,,,,,,,,,,SPECI,298.0
KIDI 121415Z AUTO 09007KT 10SM OVC090 M05/M09 A3043 RMK A01,KIDI,2019-01-12T14:15:00Z,40.62,-79.08,-5.0,-9.0,90,7,,10.0,30.431103,,,TRUE,TRUE,,,,,,,OVC,9000,,,,,,,VFR,,,,,,,,,,,,SPECI,429.0
KICL 121415Z AUTO 04008G15KT 3/4SM -SN BKN003 OVC009 M01/M02 A3015 RMK AO2,KICL,2019-01-12T14:15:00Z,40.72,-95.02,-1.0,-2.0,40,8,15,0.75,30.15059,,,TRUE,TRUE,,,,,,-SN,BKN,300,OVC,900,,,,,LIFR,,,,,,,,,,,,SPECI,303.0
KHZE 121415Z AUTO 14006KT 6SM -SN OVC012 M11/M11 A3038 RMK AO2 TSNO,KHZE,2019-01-12T14:15:00Z,47.28,-101.58,-11.0,-11.0,140,6,,6.0,30.380905,,,TRUE,TRUE,,,TRUE,,,-SN,OVC,1200,,,,,,,MVFR,,,,,,,,,,,,SPECI,553.0
KHNR 121415Z AUTO 03011KT 1SM -SN CLR M02/M02 A3016 RMK AO2,KHNR,2019-01-12T14:15:00Z,41.58,-95.33,-2.0,-2.0,30,11,,1.0,30.159449,,,TRUE,TRUE,,,,,,-SN,CLR,,,,,,,,IFR,,,,,,,,,,,,SPECI,375.0
KHEG 121415Z AUTO 00000KT 9SM OVC060 13/11 A3030 RMK AO2,KHEG,2019-01-12T14:15:00Z,30.28,-81.8,13.0,11.0,0,0,,9.0,30.301182,,,TRUE,TRUE,,,,,,,OVC,6000,,,,,,,VFR,,,,,,,,,,,,METAR,27.0
CYHY 121415Z 29010KT 2SM -SN FEW004 BKN010 OVC014 M18/M20 A2991 RMK SC2SC4SC2 SLP150,CYHY,2019-01-12T14:15:00Z,60.82,-115.77,-18.0,-20.0,290,10,,2.0,29.911417,1015.0,,,,,,,,,-SN,FEW,400,BKN,1000,OVC,1400,,,IFR,,,,,,,,,,,,SPECI,166.0
KCXP 121415Z AUTO 00000KT 10SM CLR M05/M06 A3006 RMK AO2,KCXP,2019-01-12T14:15:00Z,39.18,-119.73,-5.0,-6.0,0,0,,10.0,30.059055,,,TRUE,TRUE,,,,,,,CLR,,,,,,,,VFR,,,,,,,,,,,,METAR,1435.0
KCVX 121415Z AUTO 09008KT 10SM BKN012 BKN048 OVC075 M05/M08 A3054 RMK AO2 T10481076,KCVX,2019-01-12T14:15:00Z,45.3,-85.27,-4.8,-7.6,90,8,,10.0,30.540354,,,TRUE,TRUE,,,,,,,BKN,1200,BKN,4800,OVC,7500,,,MVFR,,,,,,,,,,,,SPECI,204.0
KMHL 121415Z AUTO 00000KT 1SM -SN OVC001 M01/M01 A3005 RMK AO2,KMHL,2019-01-12T14:15:00Z,39.1,-93.2,-1.0,-1.0,0,0,,1.0,30.050198,,,TRUE,TRUE,,,,,,-SN,OVC,100,,,,,,,LIFR,,,,,,,,,,,,SPECI,237.0
KD60 121415Z AUTO 17009KT 5SM BR OVC007 M13/M13 A3030 RMK AO2,KD60,2019-01-12T14:15:00Z,48.38,-102.9,-13.0,-13.0,170,9,,5.0,30.301182,,,TRUE,TRUE,,,,,,BR,OVC,700,,,,,,,IFR,,,,,,,,,,,,SPECI,693.0
KD55 121415Z AUTO 00000KT 10SM OVC004 M11/M11 A3038 RMK AO2,KD55,2019-01-12T14:15:00Z,48.75,-98.4,-11.0,-11.0,0,0,,10.0,30.380905,,,TRUE,TRUE,,,,,,,OVC,400,,,,,,,LIFR,,,,,,,,,,,,SPECI,491.0
KD50 121415Z AUTO 15008KT 10SM OVC009 M13/M13 A3028 RMK AO2,KD50,2019-01-12T14:15:00Z,48.93,-103.3,-13.0,-13.0,150,8,,10.0,30.280512,,,TRUE,TRUE,,,,,,,OVC,900,,,,,,,IFR,,,,,,,,,,,,SPECI,595.0
KFMM 121415Z AUTO 00000KT 10SM 00/M02 A3020 RMK AO2 T00001016,KFMM,2019-01-12T14:15:00Z,40.33,-103.8,0.0,-1.6,0,0,,10.0,30.200787,,,TRUE,TRUE,,,,,,,,,,,,,,,,,,,,,,,,,,,METAR,1393.0
KFMH 121415Z AUTO 30010G16KT 10SM BKN100 M07/M20 A3047 RMK AO2,KFMH,2019-01-12T14:15:00Z,41.63,-70.52,-7.0,-20.0,300,10,16,10.0,30.469488,,,TRUE,TRUE,,,,,,,BKN,10000,,,,,,,VFR,,,,,,,,,,,,METAR,40.0
KFFX 121415Z AUTO 09006KT 10SM OVC050 M03/M08 A3042 RMK AO2 T10261079,KFFX,2019-01-12T14:15:00Z,43.43,-86.0,-2.6,-7.9,90,6,,10.0,30.41929,,,TRUE,TRUE,,,,,,,OVC,5000,,,,,,,VFR,,,,,,,,,,,,SPECI,236.0
KFFL 121415Z AUTO 07013KT 3/4SM BR BKN002 BKN007 M02/M03 A3018 RMK AO2 PWINO,KFFL,2019-01-12T14:15:00Z,41.03,-91.97,-2.0,-3.0,70,13,,0.75,30.180119,,,TRUE,TRUE,,,,,TRUE,BR,BKN,200,BKN,700,,,,,LIFR,,,,,,,,,,,,SPECI,244.0
KEKX 121415Z AUTO 08003KT 10SM OVC090 01/01 A3025 RMK AO2 T00050005,KEKX,2019-01-12T14:15:00Z,,,0.5,0.5,80,3,,10.0,30.250984,,,TRUE,TRUE,,,,,,,OVC,9000,,,,,,,VFR,,,,,,,,,,,,SPECI,
KDUH 121415Z AUTO 00000KT 10SM CLR M03/M05 A3043 RMK AO2 T10271054,KDUH,2019-01-12T14:15:00Z,41.73,-83.65,-2.7,-5.4,0,0,,10.0,30.431103,,,TRUE,TRUE,,,,,,,CLR,,,,,,,,VFR,,,,,,,,,,,,SPECI,204.0
KDRM 121415Z AUTO 03003KT 10SM CLR M13/M16 A3058 RMK AO2 T11311160,KDRM,2019-01-12T14:15:00Z,46.0,-83.75,-13.1,-16.0,30,3,,10.0,30.578741,,,TRUE,TRUE,,,,,,,CLR,,,,,,,,VFR,,,,,,,,,,,,SPECI,204.0
KDNS 121415Z AUTO 04008KT 2SM -SN OVC005 M01/M01 A3020 RMK AO2,KDNS,2019-01-12T14:15:00Z,41.97,-95.37,-1.0,-1.0,40,8,,2.0,30.200787,,,TRUE,TRUE,,,,,,-SN,OVC,500,,,,,,,IFR,,,,,,,,,,,,SPECI,388.0
KDNA 121415Z AUTO 00000KT 10SM CLR M02/M03 A3020 RMK AO2,KDNA,2019-01-12T14:15:00Z,31.88,-106.7,-2.0,-3.0,0,0,,10.0,30.200787,,,TRUE,TRUE,,,,,,,CLR,,,,,,,,VFR,,,,,,,,,,,,METAR,1253.0
KDLL 121415Z AUTO 06005KT 7SM OVC021 M03/M05 A3034 RMK AO2 T10271052,KDLL,2019-01-12T14:15:00Z,43.52,-89.77,-2.7,-5.2,60,5,,7.0,30.339567,,,TRUE,TRUE,,,,,,,OVC,2100,,,,,,,MVFR,,,,,,,,,,,,SPECI,299.0
KDEH 121415Z AUTO 07008KT 8SM BKN029 OVC070 M02/M03 A3027 RMK AO2,KDEH,2019-01-12T14:15:00Z,43.27,-91.72,-2.0,-3.0,70,8,,8.0,30.268702,,,TRUE,TRUE,,,,,,,BKN,2900,OVC,7000,,,,,MVFR,,,,,,,,,,,,SPECI,353.0
KFEP 121415Z AUTO 07008KT 7SM OVC050 M02/M05 A3032 RMK AO2 T10211046,KFEP,2019-01-12T14:15:00Z,42.25,-89.58,-2.1,-4.6,70,8,,7.0,30.318897,,,TRUE,TRUE,,,,,,,OVC,5000,,,,,,,VFR,,,,,,,,,,,,SPECI,262.0
KFBR 121415Z AUTO 29003KT 1/4SM -SN OVC004 M12/M12 A3024 RMK AO2 T11201125,KFBR,2019-01-12T14:15:00Z,41.4,-110.4,-12.0,-12.5,290,3,,0.25,30.239174,,,TRUE,TRUE,,,,,,-SN,OVC,400,,,,,,,LIFR,,,,,,,,,,,,METAR,2144.0
KF46 121415Z AUTO 27013G20KT 10SM CLR 08/05 A2998 RMK AO2 T00830045,KF46,2019-01-12T14:15:00Z,32.93,-96.43,8.3,4.5,270,13,20,10.0,29.97933,,,TRUE,TRUE,,,,,,,CLR,,,,,,,,VFR,,,,,,,,,,,,METAR,176.0
KFGX 121415Z AUTO 10003KT 3SM -SN BKN006 BKN015 OVC031 M02/M02 A3035 RMK AO2 T10201020,KFGX,2019-01-12T14:15:00Z,38.55,-83.75,-2.0,-2.0,100,3,,3.0,30.351377,,,TRUE,TRUE,,,,,,-SN,BKN,600,BKN,1500,OVC,3100,,,IFR,,,,,,,,,,,,SPECI,278.0
KFHB 121415Z AUTO 11006KT 10SM OVC060 17/13 A3029 RMK AO2 T01680133,KFHB,2019-01-12T14:15:00Z,30.62,-81.47,16.8,13.3,110,6,,10.0,30.28937,,,TRUE,TRUE,,,,,,,OVC,6000,,,,,,,VFR,,,,,,,,,,,,SPECI,5.0
KFKR 121415Z AUTO 09009KT 3/4SM -SN BKN005 OVC014 00/M02 A3029 RMK AO2 T10051021 TSNO,KFKR,2019-01-12T14:15:00Z,40.27,-86.57,-0.5,-2.1,90,9,,0.75,30.28937,,,TRUE,TRUE,,,TRUE,,,-SN,BKN,500,OVC,1400,,,,,LIFR,,,,,,,,,,,,SPECI,262.0
KGWR 121415Z AUTO 01006KT 1 1/4SM BR M08/M08 A3037 RMK A01,KGWR,2019-01-12T14:15:00Z,46.22,-97.65,-8.0,-8.0,10,6,,1.25,30.369095,,,TRUE,TRUE,,,,,,BR,,,,,,,,,,,,,,,,,,,,,SPECI,386.0
KGPC 121415Z AUTO 00000KT 3/4SM -SN OVC005 M01/M02 A3027 RMK AO2,KGPC,2019-01-12T14:15:00Z,39.63,-86.82,-1.0,-2.0,0,0,,0.75,30.268702,,,TRUE,TRUE,,,,,,-SN,OVC,500,,,,,,,LIFR,,,,,,,,,,,,SPECI,257.0
KGNT 121415Z AUTO 00000KT 10SM CLR M07/M08 A3021 RMK AO2 T10661082,KGNT,2019-01-12T14:15:00Z,35.17,-107.9,-6.6,-8.2,0,0,,10.0,30.209646,,,TRUE,TRUE,,,,,,,CLR,,,,,,,,VFR,,,,,,,,,,,,METAR,1987.0
KGLY 121415Z AUTO 00000KT 3/4SM -SN OVC003 00/00 A2999 RMK AO2,KGLY,2019-01-12T14:15:00Z,38.35,-93.68,0.0,0.0,0,0,,0.75,29.991142,,,TRUE,TRUE,,,,,,-SN,OVC,300,,,,,,,LIFR,,,,,,,,,,,,SPECI,251.0
KAXA 121415Z AUTO 05008KT 7SM OVC018 M02/M03 A3022 RMK AO2 PWINO,KAXA,2019-01-12T14:15:00Z,43.07,-94.27,-2.0,-3.0,50,8,,7.0,30.221457,,,TRUE,TRUE,,,,,TRUE,,OVC,1800,,,,,,,MVFR,,,,,,,,,,,,SPECI,372.0
KAWO 121415Z AUTO 00000KT 3SM BR CLR M01/M02 A2997 RMK AO2 FZRANO,KAWO,2019-01-12T14:15:00Z,48.17,-122.17,-1.0,-2.0,0,0,,3.0,29.970472,,,TRUE,TRUE,,,,TRUE,,BR,CLR,,,,,,,,MVFR,,,,,,,,,,,,SPECI,42.0
KAWG 121415Z AUTO 06010KT 1/2SM -SN OVC003 M02/M02 A3021 RMK AO2,KAWG,2019-01-12T14:15:00Z,41.27,-91.67,-2.0,-2.0,60,10,,0.5,30.209646,,,TRUE,TRUE,,,,,,-SN,OVC,300,,,,,,,LIFR,,,,,,,,,,,,SPECI,230.0
KAUM 121415Z AUTO 07007KT 10SM OVC055 M01/M07 A3027 RMK AO2,KAUM,2019-01-12T14:15:00Z,43.67,-92.92,-1.0,-7.0,70,7,,10.0,30.268702,,,TRUE,TRUE,,,,,,,OVC,5500,,,,,,,VFR,,,,,,,,,,,,SPECI,375.0
KATS 121415Z AUTO 34006KT 10SM CLR 02/01 A3021 RMK AO2,KATS,2019-01-12T14:15:00Z,32.85,-104.47,2.0,1.0,340,6,,10.0,30.209646,,,TRUE,TRUE,,,,,,,CLR,,,,,,,,VFR,,,,,,,,,,,,METAR,1081.0
KAQX 121415Z AUTO 00000KT 10SM OVC060 05/M02 A3038 RMK AO2 TSNO,KAQX,2019-01-12T14:15:00Z,32.98,-81.27,5.0,-2.0,0,0,,10.0,30.380905,,,TRUE,TRUE,,,TRUE,,,,OVC,6000,,,,,,,VFR,,,,,,,,,,,,SPECI,49.0
KANQ 121415Z AUTO 09008KT 10SM CLR M03/M07 A3036 RMK AO2,KANQ,2019-01-12T14:15:00Z,41.63,-85.08,-3.0,-7.0,90,8,,10.0,30.360237,,,TRUE,TRUE,,,,,,,CLR,,,,,,,,VFR,,,,,,,,,,,,SPECI,303.0
KANK 121415Z AUTO 32005KT 3SM OVC022 M05/M06 A3025 RMK AO1 T10481064,KANK,2019-01-12T14:15:00Z,38.53,-106.05,-4.8,-6.4,320,5,,3.0,30.250984,,,TRUE,TRUE,,,,,,,OVC,2200,,,,,,,MVFR,,,,,,,,,,,,SPECI,2293.0
PAHY 121415Z AUTO 00000KT 1/4SM FG BKN002 01/01 A2984 RMK AO2 FZRANO RVRNO $,PAHY,2019-01-12T14:15:00Z,55.2,-132.83,1.0,1.0,0,0,,0.25,29.840551,,,TRUE,TRUE,TRUE,,,TRUE,,FG,BKN,200,,,,,,,LIFR,,,,,,,,,,,,SPECI,1.0
KHAF 121415Z AUTO 07005KT 10SM BKN065 OVC070 10/09 A2994 RMK AO2,KHAF,2019-01-12T14:15:00Z,37.52,-122.5,10.0,9.0,70,5,,10.0,29.940945,,,TRUE,TRUE,,,,,,,BKN,6500,OVC,7000,,,,,VFR,,,,,,,,,,,,METAR,21.0
KGYL 121415Z AUTO 02003KT 7SM CLR M07/M08 A3031 RMK AO2 T10671081,KGYL,2019-01-12T14:15:00Z,44.77,-94.08,-6.7,-8.1,20,3,,7.0,30.31004,,,TRUE,TRUE,,,,,,,CLR,,,,,,,,VFR,,,,,,,,,,,,SPECI,302.0
KFLY 121415Z AUTO 34008KT 4SM -SN SCT019 BKN035 OVC055 M02/M03 A3017 RMK AO2 T10201035,KFLY,2019-01-12T14:15:00Z,38.95,-104.57,-2.0,-3.5,340,8,,4.0,30.171259,,,TRUE,TRUE,,,,,,-SN,SCT,1900,BKN,3500,OVC,5500,,,MVFR,,,,,,,,,,,,METAR,2096.0
KFRH 121415Z AUTO 08008KT 5SM BKN004 BKN028 OVC060 00/M03 A3023 RMK AO1,KFRH,2019-01-12T14:15:00Z,38.5,-86.63,0.0,-3.0,80,8,,5.0,30.230314,,,TRUE,TRUE,,,,,,,BKN,400,BKN,2800,OVC,6000,,,LIFR,,,,,,,,,,,,SPECI,241.0
KFSW 121415Z AUTO 08009G15KT 1SM -SN OVC007 M02/M02 A3018 RMK AO2,KFSW,2019-01-12T14:15:00Z,40.67,-91.32,-2.0,-2.0,80,9,15,1.0,30.180119,,,TRUE,TRUE,,,,,,-SN,OVC,700,,,,,,,IFR,,,,,,,,,,,,SPECI,221.0
KFSO 121415Z AUTO 27005KT 10SM CLR M15/M20 A3054 RMK AO2 T11511205,KFSO,2019-01-12T14:15:00Z,44.93,-73.1,-15.1,-20.5,270,5,,10.0,30.540354,,,TRUE,TRUE,,,,,,,CLR,,,,,,,,VFR,,,,,,,,,,,,SPECI,70.0
KGAO 121415Z AUTO 15009KT 10SM SCT100 BKN120 17/15 A3004 RMK AO2 T01660146,KGAO,2019-01-12T14:15:00Z,29.45,-90.27,16.6,14.6,150,9,,10.0,30.041338,,,TRUE,TRUE,,,,,,,SCT,10000,BKN,12000,,,,,VFR,,,,,,,,,,,,SPECI,1.0
KFWZ 121415Z AUTO 33006KT 10SM CLR M04/M21 RMK AO2,KFWZ,2019-01-12T14:15:00Z,42.52,-108.78,-4.0,-21.0,330,6,,10.0,,,,TRUE,TRUE,,,,,,,CLR,,,,,,,,VFR,,,,,,,,,,,,METAR,2588.0
KMMH 121415Z AUTO 29005KT 10SM SCT026 SCT120 M08/M09 A3003 RMK AO2 T10791092,KMMH,2019-01-12T14:15:00Z,37.62,-118.82,-7.9,-9.2,290,5,,10.0,30.029528,,,TRUE,TRUE,,,,,,,SCT,2600,SCT,12000,,,,,VFR,,,,,,,,,,,,METAR,2173.0
KMLJ 121415Z AUTO 09007KT 10SM SCT036 BKN049 OVC065 06/00 A3035 RMK AO2,KMLJ,2019-01-12T14:15:00Z,33.15,-83.23,6.0,0.0,90,7,,10.0,30.351377,,,TRUE,TRUE,,,,,,,SCT,3600,BKN,4900,OVC,6500,,,VFR,,,,,,,,,,,,SPECI,117.0
KMKS 121415Z AUTO 04004KT 10SM OVC065 04/M00 A3042 RMK AO2,KMKS,2019-01-12T14:15:00Z,33.18,-80.03,4.0,0.0,40,4,,10.0,30.41929,,,TRUE,TRUE,,,,,,,OVC,6500,,,,,,,VFR,,,,,,,,,,,,SPECI,23.0
KMKN 121415Z AUTO 31008KT 10SM CLR 05/03 A3007 RMK AO2 T00540025,KMKN,2019-01-12T14:15:00Z,31.92,-98.6,5.4,2.5,310,8,,10.0,30.070866,,,TRUE,TRUE,,,,,,,CLR,,,,,,,,VFR,,,,,,,,,,,,METAR,423.0
KMDZ 121415Z AUTO 08008KT 10SM SCT013 OVC040 M05/M08 A3034 RMK AO2 T10481077 TSNO,KMDZ,2019-01-12T14:15:00Z,45.1,-90.3,-4.8,-7.7,80,8,,10.0,30.339567,,,TRUE,TRUE,,,TRUE,,,,SCT,1300,OVC,4000,,,,,VFR,,,,,,,,,,,,SPECI,448.0
KMCX 121415Z AUTO 09003KT 1SM -SN BKN006 OVC015 M02/M03 A3030 RMK AO2 T10251031,KMCX,2019-01-12T14:15:00Z,40.72,-86.77,-2.5,-3.1,90,3,,1.0,30.301182,,,TRUE,TRUE,,,,,,-SN,BKN,600,OVC,1500,,,,,IFR,,,,,,,,,,,,SPECI,206.0
KLYO 121415Z AUTO 36014KT 1 1/2SM -SN BR OVC005 M01/M01 A3005 RMK AO2 T10061013,KLYO,2019-01-12T14:15:00Z,38.35,-98.23,-0.6,-1.3,360,14,,1.5,30.050198,,,TRUE,TRUE,,,,,,-SN BR,OVC,500,,,,,,,IFR,,,,,,,,,,,,SPECI,515.0
KLXY 121415Z AUTO 28008G15KT 10SM CLR 08/04 A3002 RMK AO2 T00770039,KLXY,2019-01-12T14:15:00Z,31.63,-96.52,7.7,3.9,280,8,15,10.0,30.02067,,,TRUE,TRUE,,,,,,,CLR,,,,,,,,VFR,,,,,,,,,,,,METAR,166.0
KLXN 121415Z AUTO 01011G18KT 10SM OVC010 M04/M06 A3020 RMK AO2 T10381060,KLXN,2019-01-12T14:15:00Z,40.78,-99.77,-3.8,-6.0,10,11,18,10.0,30.200787,,,TRUE,TRUE,,,,,,,OVC,1000,,,,,,,MVFR,,,,,,,,,,,,SPECI,734.0
KLUV 121415Z AUTO 30010KT 10SM CLR 01/M01 A3015 RMK AO2,KLUV,2019-01-12T14:15:00Z,32.75,-101.92,1.0,-1.0,300,10,,10.0,30.15059,,,TRUE,TRUE,,,,,,,CLR,,,,,,,,VFR,,,,,,,,,,,,METAR,912.0
KLUK 121415Z 04004KT 3/4SM R21L/5500V6000FT -SN BR OVC019 M02/M03 A3036 RMK AO2 P0001 T10171028,KLUK,2019-01-12T14:15:00Z,39.1,-84.42,-1.7,-2.8,40,4,,0.75,30.360237,,,,TRUE,,,,,,-SN BR,OVC,1900,,,,,,,LIFR,,,,,,0.01,,,,,,SPECI,155.0
KLUD 121415Z AUTO 27012G16KT 7SM OVC019 04/01 A2998 RMK AO2 T00370011,KLUD,2019-01-12T14:15:00Z,33.25,-97.58,3.7,1.1,270,12,16,7.0,29.97933,,,TRUE,TRUE,,,,,,,OVC,1900,,,,,,,MVFR,,,,,,,,,,,,METAR,319.0
KLUA 121415Z AUTO 00000KT 10SM OVC060 M01/M06 A3047 RMK AO2,KLUA,2019-01-12T14:15:00Z,38.67,-78.5,-1.0,-6.0,0,0,,10.0,30.469488,,,TRUE,TRUE,,,,,,,OVC,6000,,,,,,,VFR,,,,,,,,,,,,SPECI,275.0
KLRU 121415Z AUTO 00000KT 10SM CLR M01/M03 A3020 RMK AO2 T10081026,KLRU,2019-01-12T14:15:00Z,32.27,-106.92,-0.8,-2.6,0,0,,10.0,30.200787,,,TRUE,TRUE,,,,,,,CLR,,,,,,,,VFR,,,,,,,,,,,,METAR,1358.0
KLOT 121415Z AUTO 09006KT 1SM -SN OVC020 M02/M03 A3032 RMK AO2 T10181028,KLOT,2019-01-12T14:15:00Z,41.6,-88.1,-1.8,-2.8,90,6,,1.0,30.318897,,,TRUE,TRUE,,,,,,-SN,OVC,2000,,,,,,,IFR,,,,,,,,,,,,SPECI,205.0
KLNP 121415Z AUTO 17007KT 10SM OVC075 02/M05 A3027 RMK AO2,KLNP,2019-01-12T14:15:00Z,36.97,-82.52,2.0,-5.0,170,7,,10.0,30.268702,,,TRUE,TRUE,,,,,,,OVC,7500,,,,,,,VFR,,,,,,,,,,,,SPECI,817.0
KLNC 121415Z AUTO 29009G18KT 10SM CLR 07/02 A3000 RMK AO2 T00670023,KLNC,2019-01-12T14:15:00Z,32.58,-96.72,6.7,2.3,290,9,18,10.0,30.0,,,TRUE,TRUE,,,,,,,CLR,,,,,,,,VFR,,,,,,,,,,,,METAR,153.0
KLNA 121415Z AUTO 08013G19KT 10SM SCT041 SCT049 BKN060 23/15 A3022 RMK AO2 T02320145,KLNA,2019-01-12T14:15:00Z,26.6,-80.02,23.2,14.5,80,13,19,10.0,30.221457,,,TRUE,TRUE,,,,,,,SCT,4100,SCT,4900,BKN,6000,,,VFR,,,,,,,,,,,,METAR,11.0
KLMO 121415Z AUTO 00000KT 10SM SCT055 OVC080 01/00 A3021 RMK AO2 T00080000,KLMO,2019-01-12T14:15:00Z,40.17,-105.17,0.8,0.0,0,0,,10.0,30.209646,,,TRUE,TRUE,,,,,,,SCT,5500,OVC,8000,,,,,VFR,,,,,,,,,,,,METAR,1541.0
KAVX 121415Z AUTO 15003KT 3SM BR FEW005 BKN010 BKN016 09/09 A3000 RMK AO2 T00890089,KAVX,2019-01-12T14:15:00Z,33.4,-118.42,8.9,8.9,150,3,,3.0,30.0,,,TRUE,TRUE,,,,,,BR,FEW,500,BKN,1000,BKN,1600,,,MVFR,,,,,,,,,,,,SPECI,482.0
KMNE 121415Z AUTO 00000KT 7SM OVC003 10/09 A2996 RMK AO2 T00950088,KMNE,2019-01-12T14:15:00Z,32.65,-93.3,9.5,8.8,0,0,,7.0,29.958662,,,TRUE,TRUE,,,,,,,OVC,300,,,,,,,LIFR,,,,,,,,,,,,SPECI,85.0
KMOP 121415Z AUTO 06006KT 10SM OVC050 M03/M07 A3045 RMK AO2 T10291072,KMOP,2019-01-12T14:15:00Z,43.62,-84.73,-2.9,-7.2,60,6,,10.0,30.448818,,,TRUE,TRUE,,,,,,,OVC,5000,,,,,,,VFR,,,,,,,,,,,,SPECI,230.0
KAVC 121415Z AUTO 04004KT 10SM BKN080 BKN100 OVC120 00/M07 A3055 RMK AO2 T10031066,KAVC,2019-01-12T14:15:00Z,36.68,-78.03,-0.3,-6.6,40,4,,10.0,30.549213,,,TRUE,TRUE,,,,,,,BKN,8000,BKN,10000,OVC,12000,,,VFR,,,,,,,,,,,,SPECI,135.0
KASW 121415Z AUTO 10008KT 10SM OVC050 M02/M06 A3033 RMK AO2,KASW,2019-01-12T14:15:00Z,41.27,-85.83,-2.0,-6.0,100,8,,10.0,30.33071,,,TRUE,TRUE,,,,,,,OVC,5000,,,,,,,VFR,,,,,,,,,,,,SPECI,259.0
KASN 121415Z AUTO 09005KT 10SM OVC030 08/M01 A3023 RMK AO2 T00811010,KASN,2019-01-12T14:15:00Z,33.57,-86.05,8.1,-1.0,90,5,,10.0,30.230314,,,TRUE,TRUE,,,,,,,OVC,3000,,,,,,,MVFR,,,,,,,,,,,,SPECI,162.0
KARV 121415Z AUTO 11005KT 4SM BR OVC005 M05/M06 A3038 RMK AO2 T10501060,KARV,2019-01-12T14:15:00Z,45.92,-89.72,-5.0,-6.0,110,5,,4.0,30.380905,,,TRUE,TRUE,,,,,,BR,OVC,500,,,,,,,IFR,,,,,,,,,,,,SPECI,496.0
KARM 121415Z AUTO 29005KT 10SM BKN014 15/14 A3004 RMK AO2 T01460136,KARM,2019-01-12T14:15:00Z,29.25,-96.15,14.6,13.6,290,5,,10.0,30.041338,,,TRUE,TRUE,,,,,,,BKN,1400,,,,,,,MVFR,,,,,,,,,,,,METAR,31.0
KAPY 121415Z AUTO 33006KT 1/4SM FG OVC002 10/10 A3010 RMK AO2 T01070107,KAPY,2019-01-12T14:15:00Z,26.97,-99.25,10.7,10.7,330,6,,0.25,30.100393,,,TRUE,TRUE,,,,,,FG,OVC,200,,,,,,,LIFR,,,,,,,,,,,,METAR,129.0
KALM 121415Z AUTO 15003KT 10SM CLR 00/M03 A3021 RMK AO2,KALM,2019-01-12T14:15:00Z,32.82,-105.97,0.0,-3.0,150,3,,10.0,30.209646,,,TRUE,TRUE,,,,,,,CLR,,,,,,,,VFR,,,,,,,,,,,,METAR,1279.0
KAJR 121415Z AUTO 09006KT 060V140 7SM OVC031 02/M06 A3036 RMK AO2 T00231063,KAJR,2019-01-12T14:15:00Z,34.5,-83.55,2.3,-6.3,90,6,,7.0,30.360237,,,TRUE,TRUE,,,,,,,OVC,3100,,,,,,,VFR,,,,,,,,,,,,SPECI,441.0
KAIT 121415Z AUTO 03004KT 7SM BKN013 OVC036 M06/M07 A3037 RMK AO2,KAIT,2019-01-12T14:15:00Z,46.53,-93.67,-6.0,-7.0,30,4,,7.0,30.369095,,,TRUE,TRUE,,,,,,,BKN,1300,OVC,3600,,,,,MVFR,,,,,,,,,,,,SPECI,367.0
KADC 121415Z AUTO 05005KT 10SM OVC029 M06/M07 A3036 RMK AO2,KADC,2019-01-12T14:15:00Z,46.45,-95.22,-6.0,-7.0,50,5,,10.0,30.360237,,,TRUE,TRUE,,,,,,,OVC,2900,,,,,,,MVFR,,,,,,,,,,,,SPECI,418.0
KAAS 121415Z AUTO 11007KT 10SM BKN100 02/01 A3031 RMK AO1,KAAS,2019-01-12T14:15:00Z,37.35,-85.32,2.0,1.0,110,7,,10.0,30.31004,,,TRUE,TRUE,,,,,,,BKN,10000,,,,,,,VFR,,,,,,,,,,,,SPECI,281.0
KA39 121415Z AUTO 04003KT 3 1/2SM BR CLR 03/03 A3013 RMK AO2,KA39,2019-01-12T14:15:00Z,32.98,-111.92,3.0,3.0,40,3,,3.5,30.129921,,,TRUE,TRUE,,,,,,BR,CLR,,,,,,,,MVFR,,,,,,,,,,,,METAR,396.0
K8W2 121415Z AUTO 00000KT 10SM OVC070 M02/M08 A3046 RMK AO1 T10231085,K8W2,2019-01-12T14:15:00Z,38.65,-78.7,-2.3,-8.5,0,0,,10.0,30.46063,,,TRUE,TRUE,,,,,,,OVC,7000,,,,,,,VFR,,,,,,,,,,,,SPECI,297.0
K82V 121415Z AUTO 30003KT 10SM BKN070 M05/M05 A3019 RMK AO2,K82V,2019-01-12T14:15:00Z,41.15,-104.13,-5.0,-5.0,300,3,,10.0,30.188976,,,TRUE,TRUE,,,,,,,BKN,7000,,,,,,,VFR,,,,,,,,,,,,METAR,1570.0
K7W4 121415Z AUTO 26004KT 10SM OVC080 M01/M09 A3053 RMK AO1 T10071088,K7W4,2019-01-12T14:15:00Z,37.97,-77.75,-0.7,-8.8,260,4,,10.0,30.528543,,,TRUE,TRUE,,,,,,,OVC,8000,,,,,,,VFR,,,,,,,,,,,,SPECI,106.0
K6A2 121415Z AUTO 09006KT 10SM BKN036 BKN055 OVC120 04/M03 A3030 RMK AO2,K6A2,2019-01-12T14:15:00Z,33.23,-84.27,4.0,-3.0,90,6,,10.0,30.301182,,,TRUE,TRUE,,,,,,,BKN,3600,BKN,5500,OVC,12000,,,VFR,,,,,,,,,,,,SPECI,292.0
K5R8 121415Z AUTO 00000KT 10SM BKN005 OVC008 16/16 A2998 RMK AO2 T01610156,K5R8,2019-01-12T14:15:00Z,30.43,-93.47,16.1,15.6,0,0,,10.0,29.97933,,,TRUE,TRUE,,,,,,,BKN,500,OVC,800,,,,,IFR,,,,,,,,,,,,SPECI,24.0
K54J 121415Z AUTO 08006KT 10SM SCT034 BKN049 09/07 A3022 RMK AO2 T00900067,K54J,2019-01-12T14:15:00Z,30.73,-86.15,9.0,6.7,80,6,,10.0,30.221457,,,TRUE,TRUE,,,,,,,SCT,3400,BKN,4900,,,,,VFR,,,,,,,,,,,,SPECI,88.0
K4S1 121415Z AUTO 16003KT 5SM BR BKN025 OVC032 11/09 A2989 RMK AO1,K4S1,2019-01-12T14:15:00Z,42.42,-124.42,11.0,9.0,160,3,,5.0,29.890747,,,TRUE,TRUE,,,,,,BR,BKN,2500,OVC,3200,,,,,MVFR,,,,,,,,,,,,METAR,5.0
K4R5 121415Z AUTO 11006KT 10SM OVC017 M03/M06 A3046 RMK AO2 T10281058,K4R5,2019-01-12T14:15:00Z,46.78,-90.77,-2.8,-5.8,110,6,,10.0,30.46063,,,TRUE,TRUE,,,,,,,OVC,1700,,,,,,,MVFR,,,,,,,,,,,,SPECI,198.0
K3R7 121415Z AUTO 27003KT 1 3/4SM +RA SCT020 OVC025 16/15 A2998 RMK AO2 P0002 T01550149,K3R7,2019-01-12T14:15:00Z,30.25,-92.67,15.5,14.9,270,3,,1.75,29.97933,,,TRUE,TRUE,,,,,,+RA,SCT,2000,OVC,2500,,,,,IFR,,,,,,0.02,,,,,,SPECI,7.0
K3LF 121415Z AUTO 09009KT 2SM -SN OVC004 M01/M01 A3016 RMK AO2 T10101013,K3LF,2019-01-12T14:15:00Z,39.17,-89.67,-1.0,-1.3,90,9,,2.0,30.159449,,,TRUE,TRUE,,,,,,-SN,OVC,400,,,,,,,LIFR,,,,,,,,,,,,SPECI,210.0
K2G9 121415Z AUTO 00000KT 10SM OVC100 M07/M10 A3035 RMK AO2,K2G9,2019-01-12T14:15:00Z,40.03,-79.02,-7.0,-10.0,0,0,,10.0,30.351377,,,TRUE,TRUE,,,,,,,OVC,10000,,,,,,,VFR,,,,,,,,,,,,SPECI,693.0
K2C8 121415Z AUTO 33006KT 10SM OVC010 M10/M12 A3044 RMK AO2,K2C8,2019-01-12T14:15:00Z,48.78,-97.63,-10.0,-12.0,330,6,,10.0,30.43996,,,TRUE,TRUE,,,,,,,OVC,1000,,,,,,,MVFR,,,,,,,,,,,,SPECI,272.0
K1P1 121415Z AUTO 27011G18KT 10SM CLR M14/M21 A3043 RMK AO2 T11421206,K1P1,2019-01-12T14:15:00Z,43.78,-71.75,-14.2,-20.6,270,11,18,10.0,30.431103,,,TRUE,TRUE,,,,,,,CLR,,,,,,,,VFR,,,,,,,,,,,,SPECI,154.0
K1K1 121415Z AUTO 02009G15KT 10SM OVC005 00/M01 A3000 RMK AO2 T10051009,K1K1,2019-01-12T14:15:00Z,37.77,-97.12,-0.5,-0.9,20,9,15,10.0,30.0,,,TRUE,TRUE,,,,,,,OVC,500,,,,,,,IFR,,,,,,,,,,,,SPECI,416.0
K1A9 121415Z AUTO 11007KT 10SM OVC025 09/02 A3021 RMK AO2 T00850016,K1A9,2019-01-12T14:15:00Z,32.43,-86.52,8.5,1.6,110,7,,10.0,30.209646,,,TRUE,TRUE,,,,,,,OVC,2500,,,,,,,MVFR,,,,,,,,,,,,SPECI,69.0
K13K 121415Z AUTO 36012KT 3SM -SN BR OVC006 00/00 A2998 RMK AO2 T00011004,K13K,2019-01-12T14:15:00Z,37.85,-96.3,0.1,-0.4,360,12,,3.0,29.97933,,,TRUE,TRUE,,,,,,-SN BR,OVC,600,,,,,,,IFR,,,,,,,,,,,,SPECI,369.0
K0V4 121415Z AUTO 00000KT 10SM OVC090 01/M07 A3048 RMK AO1 T00051073,K0V4,2019-01-12T14:15:00Z,37.15,-79.02,0.5,-7.3,0,0,,10.0,30.481298,,,TRUE,TRUE,,,,,,,OVC,9000,,,,,,,VFR,,,,,,,,,,,,SPECI,182.0
K0F2 121415Z AUTO 28010KT 10SM BKN015 OVC020 04/02 A2998 RMK AO2 T00400020,K0F2,2019-01-12T14:15:00Z,33.6,-97.78,4.0,2.0,280,10,,10.0,29.97933,,,TRUE,TRUE,,,,,,,BKN,1500,OVC,2000,,,,,MVFR,,,,,,,,,,,,METAR,336.0
K0E0 121415Z AUTO 00000KT 10SM SCT025 OVC034 M03/M03 A3021 RMK AO2 T10291029,K0E0,2019-01-12T14:15:00Z,34.98,-106.0,-2.9,-2.9,0,0,,10.0,30.209646,,,TRUE,TRUE,,,,,,,SCT,2500,OVC,3400,,,,,VFR,,,,,,,,,,,,METAR,1890.0
KHFJ 121415Z AUTO 08006KT 5SM -RA SCT005 SCT009 OVC019 01/01 A2990 RMK AO2 P0002,KHFJ,2019-01-12T14:15:00Z,36.9,-94.02,1.0,1.0,80,6,,5.0,29.899607,,,TRUE,TRUE,,,,,,-RA,SCT,500,SCT,900,OVC,1900,,,MVFR,,,,,,0.02,,,,,,SPECI,401.0
KHDC 121415Z AUTO 14004KT 10SM -RA SCT030 BKN035 OVC045 12/12 A3005 RMK AO2,KHDC,2019-01-12T14:15:00Z,30.52,-90.42,12.0,12.0,140,4,,10.0,30.050198,,,TRUE,TRUE,,,,,,-RA,SCT,3000,BKN,3500,OVC,4500,,,VFR,,,,,,,,,,,,SPECI,13.0
KHCR 121415Z AUTO 00000KT 10SM CLR M15/M18 A3024 RMK AO2,KHCR,2019-01-12T14:15:00Z,40.48,-111.43,-15.0,-18.0,0,0,,10.0,30.239174,,,TRUE,TRUE,,,,,,,CLR,,,,,,,,VFR,,,,,,,,,,,,METAR,1706.0
KHCO 121415Z AUTO 09004KT 10SM OVC035 M07/M08 A3043 RMK AO2,KHCO,2019-01-12T14:15:00Z,48.75,-96.93,-7.0,-8.0,90,4,,10.0,30.431103,,,TRUE,TRUE,,,,,,,OVC,3500,,,,,,,VFR,,,,,,,,,,,,SPECI,250.0
KGZL 121415Z AUTO 10010KT 5SM UP OVC003 04/04 A2988 RMK AO2,KGZL,2019-01-12T14:15:00Z,35.28,-95.1,4.0,4.0,100,10,,5.0,29.878937,,,TRUE,TRUE,,,,,,UP,OVC,300,,,,,,,LIFR,,,,,,,,,,,,SPECI,183.0
KGYB 121415Z AUTO 30005KT 10SM SCT020 10/10 A3005 RMK AO2 T01030101,KGYB,2019-01-12T14:15:00Z,30.17,-96.98,10.3,10.1,300,5,,10.0,30.050198,,,TRUE,TRUE,,,,,,,SCT,2000,,,,,,,VFR,,,,,,,,,,,,METAR,148.0
KGWB 121415Z AUTO 08008KT 10SM OVC050 M02/M05 A3037 RMK AO2,KGWB,2019-01-12T14:15:00Z,41.3,-85.07,-2.0,-5.0,80,8,,10.0,30.369095,,,TRUE,TRUE,,,,,,,OVC,5000,,,,,,,VFR,,,,,,,,,,,,SPECI,269.0
KGMJ 121415Z AUTO 04004KT 4SM -RA OVC004 02/02 A2991 RMK AO2 P0002,KGMJ,2019-01-12T14:15:00Z,36.6,-94.73,2.0,2.0,40,4,,4.0,29.911417,,,TRUE,TRUE,,,,,,-RA,OVC,400,,,,,,,LIFR,,,,,,0.02,,,,,,SPECI,254.0
KGLW 121415Z AUTO 09005KT 10SM OVC095 03/00 A3025 RMK AO2 T00250002,KGLW,2019-01-12T14:15:00Z,37.03,-85.95,2.5,0.2,90,5,,10.0,30.250984,,,TRUE,TRUE,,,,,,,OVC,9500,,,,,,,VFR,,,,,,,,,,,,SPECI,218.0
KGIC 121415Z AUTO 00000KT 10SM CLR M04/M04 A3016 RMK AO1,KGIC,2019-01-12T14:15:00Z,45.95,-116.12,-4.0,-4.0,0,0,,10.0,30.159449,,,TRUE,TRUE,,,,,,,CLR,,,,,,,,VFR,,,,,,,,,,,,METAR,1009.0
KGHW 121415Z AUTO 06008KT 10SM SCT031 M06/M07 A3032 RMK AO2,KGHW,2019-01-12T14:15:00Z,45.63,-95.32,-6.0,-7.0,60,8,,10.0,30.318897,,,TRUE,TRUE,,,,,,,SCT,3100,,,,,,,VFR,,,,,,,,,,,,SPECI,425.0
KGDJ 121415Z AUTO 29011G17KT 10SM CLR 07/02 A3005 RMK AO2 T00650018,KGDJ,2019-01-12T14:15:00Z,32.45,-97.82,6.5,1.8,290,11,17,10.0,30.050198,,,TRUE,TRUE,,,,,,,CLR,,,,,,,,VFR,,,,,,,,,,,,METAR,237.0
KGCM 121415Z AUTO 03006KT 2 1/2SM DZ OVC004 03/02 A2991 RMK AO2 P0001 TSNO,KGCM,2019-01-12T14:15:00Z,36.3,-95.48,3.0,2.0,30,6,,2.5,29.911417,,,TRUE,TRUE,,,TRUE,,,DZ,OVC,400,,,,,,,LIFR,,,,,,0.01,,,,,,SPECI,221.0
KGCD 121415Z AUTO 11006KT 10SM CLR 02/M03 A3012 RMK AO2 T00221033,KGCD,2019-01-12T14:15:00Z,44.38,-118.97,2.2,-3.3,110,6,,10.0,30.121063,,,TRUE,TRUE,,,,,,,CLR,,,,,,,,VFR,,,,,,,,,,,,METAR,1127.0
KSLO 121415Z AUTO 08006KT 2 1/2SM -SN OVC004 01/00 A3015 RMK AO2 T00070001,KSLO,2019-01-12T14:15:00Z,38.65,-88.97,0.7,0.1,80,6,,2.5,30.15059,,,TRUE,TRUE,,,,,,-SN,OVC,400,,,,,,,LIFR,,,,,,,,,,,,SPECI,175.0
KSLN 121415Z 36014KT 3SM -SN BR OVC011 00/M01 A3007 RMK AO2 P0000 T00001006,KSLN,2019-01-12T14:15:00Z,38.78,-97.65,0.0,-0.6,360,14,,3.0,30.070866,,,,TRUE,,,,,,-SN BR,OVC,1100,,,,,,,MVFR,,,,,,0.005,,,,,,SPECI,385.0
KSGS 121415Z AUTO 07005KT 7SM OVC060 M05/M08 A3034 RMK AO2 T10501076,KSGS,2019-01-12T14:15:00Z,44.87,-93.03,-5.0,-7.6,70,5,,7.0,30.339567,,,TRUE,TRUE,,,,,,,OVC,6000,,,,,,,VFR,,,,,,,,,,,,SPECI,250.0
KSEP 121415Z AUTO 29012G20KT 10SM CLR 06/01 A3006 RMK AO2 T00550010,KSEP,2019-01-12T14:15:00Z,32.22,-98.17,5.5,1.0,290,12,20,10.0,30.059055,,,TRUE,TRUE,,,,,,,CLR,,,,,,,,VFR,,,,,,,,,,,,METAR,402.0
KSCD 121415Z AUTO 14008G17KT 10SM OVC024 08/01 A3021 RMK AO2 T00820008,KSCD,2019-01-12T14:15:00Z,33.17,-86.3,8.2,0.8,140,8,17,10.0,30.209646,,,TRUE,TRUE,,,,,,,OVC,2400,,,,,,,MVFR,,,,,,,,,,,,SPECI,173.0
KSAR 121415Z AUTO 10010KT 10SM OVC005 00/00 A3014 RMK AO2 T00010001,KSAR,2019-01-12T14:15:00Z,38.15,-89.7,0.1,0.1,100,10,,10.0,30.138779,,,TRUE,TRUE,,,,,,,OVC,500,,,,,,,IFR,,,,,,,,,,,,SPECI,164.0
KS52 121415Z AUTO 00000KT 1/4SM FZFG OVC002 M04/M05 A3019 RMK AO2 T10401047,KS52,2019-01-12T14:15:00Z,48.38,-120.15,-4.0,-4.7,0,0,,0.25,30.188976,,,TRUE,TRUE,,,,,,FZFG,OVC,200,,,,,,,LIFR,,,,,,,,,,,,METAR,520.0
KRYW 121415Z AUTO 31007G14KT 280V340 10SM CLR 09/08 A3007 RMK AO2 T00860076,KRYW,2019-01-12T14:15:00Z,30.5,-97.97,8.6,7.6,310,7,14,10.0,30.070866,,,TRUE,TRUE,,,,,,,CLR,,,,,,,,VFR,,,,,,,,,,,,METAR,376.0
KRSV 121415Z AUTO 11006KT 4SM UP BKN005 OVC011 M01/M01 A3026 RMK AO2 T10071007,KRSV,2019-01-12T14:15:00Z,39.02,-87.65,-0.7,-0.7,110,6,,4.0,30.259842,,,TRUE,TRUE,,,,,,UP,BKN,500,OVC,1100,,,,,IFR,,,,,,,,,,,,SPECI,141.0
KRSN 121415Z AUTO 17003KT 7SM -RA BKN004 BKN034 OVC065 09/08 A3001 RMK AO2 T00900082,KRSN,2019-01-12T14:15:00Z,32.52,-92.58,9.0,8.2,170,3,,7.0,30.008858,,,TRUE,TRUE,,,,,,-RA,BKN,400,BKN,3400,OVC,6500,,,LIFR,,,,,,,,,,,,SPECI,95.0
KRPH 121415Z AUTO 29014G18KT 10SM CLR 04/01 A3003 RMK AO2 T00360010,KRPH,2019-01-12T14:15:00Z,33.12,-98.55,3.6,1.0,290,14,18,10.0,30.029528,,,TRUE,TRUE,,,,,,,CLR,,,,,,,,VFR,,,,,,,,,,,,METAR,342.0
KRMN 121415Z AUTO 00000KT 10SM OVC065 00/M06 A3059 RMK AO2 LTG DSNT SE T10051062,KRMN,2019-01-12T14:15:00Z,38.4,-77.45,-0.5,-6.2,0,0,,10.0,30.590551,,,TRUE,TRUE,,,,,,,OVC,6500,,,,,,,VFR,,,,,,,,,,,,SPECI,65.0
KRLD 121415Z AUTO 30003KT 1/4SM FG OVC002 00/00 A3021 RMK AO2 T00020002,KRLD,2019-01-12T14:15:00Z,46.3,-119.3,0.2,0.2,300,3,,0.25,30.209646,,,TRUE,TRUE,,,,,,FG,OVC,200,,,,,,,LIFR,,,,,,,,,,,,METAR,120.0
KOBE 121415Z AUTO 00000KT 10SM OVC065 18/13 A3023 RMK AO2,KOBE,2019-01-12T14:15:00Z,27.27,-80.85,18.0,13.0,0,0,,10.0,30.230314,,,TRUE,TRUE,,,,,,,OVC,6500,,,,,,,VFR,,,,,,,,,,,,SPECI,11.0
KO22 121415Z AUTO 00000KT 10SM CLR 03/02 A2996 RMK A01,KO22,2019-01-12T14:15:00Z,38.03,-120.42,3.0,2.0,0,0,,10.0,29.958662,,,TRUE,TRUE,,,,,,,CLR,,,,,,,,VFR,,,,,,,,,,,,METAR,646.0
KMVE 121415Z AUTO 04004KT 10SM OVC025 M07/M09 A3033 RMK AO2,KMVE,2019-01-12T14:15:00Z,44.97,-95.72,-7.0,-9.0,40,4,,10.0,30.33071,,,TRUE,TRUE,,,,,,,OVC,2500,,,,,,,MVFR,,,,,,,,,,,,SPECI,315.0
KMQB 121415Z AUTO 08012KT 1/2SM -SN BKN004 OVC013 M02/M02 A3022 RMK AO2 T10201023,KMQB,2019-01-12T14:15:00Z,40.52,-90.65,-2.0,-2.3,80,12,,0.5,30.221457,,,TRUE,TRUE,,,,,,-SN,BKN,400,OVC,1300,,,,,LIFR,,,,,,,,,,,,SPECI,215.0
KSYF 121415Z AUTO 33010KT 10SM OVC060 00/M02 A3019 RMK AO2 T00001021,KSYF,2019-01-12T14:15:00Z,39.77,-101.8,0.0,-2.1,330,10,,10.0,30.188976,,,TRUE,TRUE,,,,,,,OVC,6000,,,,,,,VFR,,,,,,,,,,,,SPECI,1025.0
KSLR 121415Z AUTO 26012G15KT 10SM CLR 08/05 A2997 RMK AO2 T00750051,KSLR,2019-01-12T14:15:00Z,33.17,-95.62,7.5,5.1,260,12,15,10.0,29.970472,,,TRUE,TRUE,,,,,,,CLR,,,,,,,,VFR,,,,,,,,,,,,METAR,149.0
KTKV 121415Z AUTO 07005KT 7SM OVC007 M05/M06 A3038 RMK AO2 T10501065,KTKV,2019-01-12T14:15:00Z,45.47,-89.82,-5.0,-6.5,70,5,,7.0,30.380905,,,TRUE,TRUE,,,,,,,OVC,700,,,,,,,IFR,,,,,,,,,,,,SPECI,453.0
KTEW 121415Z AUTO 08004KT 10SM OVC080 M02/M05 A3042 RMK AO2 T10221055,KTEW,2019-01-12T14:15:00Z,42.57,-84.42,-2.2,-5.5,80,4,,10.0,30.41929,,,TRUE,TRUE,,,,,,,OVC,8000,,,,,,,VFR,,,,,,,,,,,,SPECI,280.0
KSZT 121415Z AUTO 02004KT 10SM SCT006 BKN014 M01/M01 A3021 RMK AO2,KSZT,2019-01-12T14:15:00Z,48.3,-116.57,-1.0,-1.0,20,4,,10.0,30.209646,,,TRUE,TRUE,,,,,,,SCT,600,BKN,1400,,,,,MVFR,,,,,,,,,,,,METAR,648.0
KTMA 121415Z AUTO 08007KT 10SM SCT040 OVC055 09/05 A3028 RMK AO2 T00860051,KTMA,2019-01-12T14:15:00Z,31.43,-83.48,8.6,5.1,80,7,,10.0,30.280512,,,TRUE,TRUE,,,,,,,SCT,4000,OVC,5500,,,,,VFR,,,,,,,,,,,,METAR,109.0
KBDN 121415Z AUTO 00000KT 10SM CLR M04/M05 A3005 RMK AO2,KBDN,2019-01-12T14:15:00Z,44.1,-121.2,-4.0,-5.0,0,0,,10.0,30.050198,,,TRUE,TRUE,,,,,,,CLR,,,,,,,,VFR,,,,,,,,,,,,METAR,1055.0
KBAC 121415Z AUTO 02006KT 1 1/2SM BR OVC003 M09/M09 A3039 RMK AO2,KBAC,2019-01-12T14:15:00Z,46.93,-98.02,-9.0,-9.0,20,6,,1.5,30.389763,,,TRUE,TRUE,,,,,,BR,OVC,300,,,,,,,LIFR,,,,,,,,,,,,SPECI,427.0
KBRG 121415Z AUTO 00000KT 10SM BKN060 M01/M03 A3022 RMK AO2 T10131033,KBRG,2019-01-12T14:15:00Z,34.65,-106.83,-1.3,-3.3,0,0,,10.0,30.221457,,,TRUE,TRUE,,,,,,,BKN,6000,,,,,,,VFR,,,,,,,,,,,,SPECI,1585.0
KBNW 121415Z AUTO 07010KT 3/4SM -SN OVC003 M02/M02 A3019 RMK AO2,KBNW,2019-01-12T14:15:00Z,42.03,-93.83,-2.0,-2.0,70,10,,0.75,30.188976,,,TRUE,TRUE,,,,,,-SN,OVC,300,,,,,,,LIFR,,,,,,,,,,,,SPECI,354.0
KBKN 121415Z AUTO 34015KT -SN 01/01 A3000 RMK AO2,KBKN,2019-01-12T14:15:00Z,36.75,-97.35,1.0,1.0,340,15,,,30.0,,,TRUE,TRUE,,,,,,-SN,,,,,,,,,,,,,,,,,,,,,SPECI,314.0
KCLW 121415Z AUTO 09006KT 10SM CLR 16/11 A3022 RMK AO2,KCLW,2019-01-12T14:15:00Z,27.98,-82.75,16.0,11.0,90,6,,10.0,30.221457,,,TRUE,TRUE,,,,,,,CLR,,,,,,,,VFR,,,,,,,,,,,,SPECI,22.0
KCIR 121415Z AUTO 08007KT 10SM OVC110 02/01 A3013 RMK AO2 T00210005,KCIR,2019-01-12T14:15:00Z,37.07,-89.22,2.1,0.5,80,7,,10.0,30.129921,,,TRUE,TRUE,,,,,,,OVC,11000,,,,,,,VFR,,,,,,,,,,,,SPECI,98.0
KCIC 121415Z AUTO 00000KT 10SM CLR 04/04 A2997 RMK AO1,KCIC,2019-01-12T14:15:00Z,39.78,-121.83,4.0,4.0,0,0,,10.0,29.970472,,,TRUE,TRUE,,,,,,,CLR,,,,,,,,VFR,,,,,,,,,,,,METAR,73.0
KTQH 121415Z AUTO 00000KT 5SM BR OVC006 03/03 A2989 RMK AO2,KTQH,2019-01-12T14:15:00Z,35.93,-95.0,3.0,3.0,0,0,,5.0,29.890747,,,TRUE,TRUE,,,,,,BR,OVC,600,,,,,,,IFR,,,,,,,,,,,,SPECI,266.0
KJSV 121415Z AUTO 09010G14KT 4SM BR BKN005 OVC010 03/02 A2989 RMK AO2,KJSV,2019-01-12T14:15:00Z,35.43,-94.8,3.0,2.0,90,10,14,4.0,29.890747,,,TRUE,TRUE,,,,,,BR,BKN,500,OVC,1000,,,,,IFR,,,,,,,,,,,,SPECI,161.0
KJFZ 121415Z AUTO 14008G14KT 10SM OVC065 01/M06 A3026 RMK AO2 T00051063,KJFZ,2019-01-12T14:15:00Z,37.07,-81.8,0.5,-6.3,140,8,14,10.0,30.259842,,,TRUE,TRUE,,,,,,,OVC,6500,,,,,,,VFR,,,,,,,,,,,,SPECI,809.0
KIZA 121415Z AUTO 05003KT 10SM CLR 08/07 A2994 RMK AO2,KIZA,2019-01-12T14:15:00Z,34.6,-120.07,8.0,7.0,50,3,,10.0,29.940945,,,TRUE,TRUE,,,,,,,CLR,,,,,,,,VFR,,,,,,,,,,,,METAR,205.0
KISQ 121415Z AUTO 06005KT 10SM OVC048 M08/M11 A3053 RMK AO2 T10801112,KISQ,2019-01-12T14:15:00Z,45.97,-86.17,-8.0,-11.2,60,5,,10.0,30.528543,,,TRUE,TRUE,,,,,,,OVC,4800,,,,,,,VFR,,,,,,,,,,,,SPECI,209.0
KIKG 121415Z AUTO 34004KT M1/4SM FG OVC002 12/12 A3008 RMK AO2 T01200120,KIKG,2019-01-12T14:15:00Z,27.55,-98.03,12.0,12.0,340,4,,0.25,30.079725,,,TRUE,TRUE,,,,,,FG,OVC,200,,,,,,,LIFR,,,,,,,,,,,,METAR,40.0
KIGQ 121415Z AUTO 08005KT 3SM -SN SCT034 BKN043 OVC049 M02/M04 A3033 RMK AO2 T10181041,KIGQ,2019-01-12T14:15:00Z,41.53,-87.53,-1.8,-4.1,80,5,,3.0,30.33071,,,TRUE,TRUE,,,,,,-SN,SCT,3400,BKN,4300,OVC,4900,,,MVFR,,,,,,,,,,,,SPECI,188.0
KIER 121415Z AUTO 11003KT 7SM OVC002 10/10 A2997 RMK AO2 T00990098,KIER,2019-01-12T14:15:00Z,31.73,-93.1,9.9,9.8,110,3,,7.0,29.970472,,,TRUE,TRUE,,,,,,,OVC,200,,,,,,,LIFR,,,,,,,,,,,,SPECI,37.0
KIBM 121415Z AUTO 29007KT 10SM CLR M04/M05 A3018 RMK AO2 T10401052,KIBM,2019-01-12T14:15:00Z,41.18,-103.68,-4.0,-5.2,290,7,,10.0,30.180119,,,TRUE,TRUE,,,,,,,CLR,,,,,,,,VFR,,,,,,,,,,,,SPECI,1501.0
KI75 121415Z AUTO 05013G17KT 3/4SM -SN OVC005 M02/M02 A3014 RMK AO2 T10181025,KI75,2019-01-12T14:15:00Z,41.05,-93.68,-1.8,-2.5,50,13,17,0.75,30.138779,,,TRUE,TRUE,,,,,,-SN,OVC,500,,,,,,,LIFR,,,,,,,,,,,,SPECI,339.0
KI68 121415Z AUTO 10007KT 3/4SM -SN OVC008 M02/M02 A3033 RMK AO1 T10221022,KI68,2019-01-12T14:15:00Z,39.47,-84.25,-2.2,-2.2,100,7,,0.75,30.33071,,,TRUE,TRUE,,,,,,-SN,OVC,800,,,,,,,LIFR,,,,,,,,,,,,SPECI,274.0
KI67 121415Z AUTO 06003KT 1SM OVC004 M01/M02 A3034 RMK AO1 P0001,KI67,2019-01-12T14:15:00Z,39.25,-84.78,-1.0,-2.0,60,3,,1.0,30.339567,,,TRUE,TRUE,,,,,,,OVC,400,,,,,,,LIFR,,,,,,0.01,,,,,,SPECI,178.0
KI35 121415Z AUTO 15003KT 10SM SCT050 BKN065 OVC090 05/M04 A3029 RMK AO2 T00501045,KI35,2019-01-12T14:15:00Z,36.87,-83.37,5.0,-4.5,150,3,,10.0,30.28937,,,TRUE,TRUE,,,,,,,SCT,5000,BKN,6500,OVC,9000,,,VFR,,,,,,,,,,,,SPECI,473.0
KHZX 121415Z AUTO 06004KT 10SM SCT012 OVC030 M03/M05 A3039 RMK AO2,KHZX,2019-01-12T14:15:00Z,46.62,-93.32,-3.0,-5.0,60,4,,10.0,30.389763,,,TRUE,TRUE,,,,,,,SCT,1200,OVC,3000,,,,,MVFR,,,,,,,,,,,,SPECI,374.0
KHYX 121415Z AUTO 06006KT 10SM OVC060 M02/M06 A3047 RMK AO2,KHYX,2019-01-12T14:15:00Z,43.43,-83.87,-2.0,-6.0,60,6,,10.0,30.469488,,,TRUE,TRUE,,,,,,,OVC,6000,,,,,,,VFR,,,,,,,,,,,,SPECI,183.0
KHVS 121415Z AUTO 05007KT 10SM CLR 02/M05 A3045 RMK AO2,KHVS,2019-01-12T14:15:00Z,34.4,-80.12,2.0,-5.0,50,7,,10.0,30.448818,,,TRUE,TRUE,,,,,,,CLR,,,,,,,,VFR,,,,,,,,,,,,SPECI,111.0
KHRX 121415Z AUTO 35015G20KT 10SM OVC018 03/00 A3013 RMK AO2 T00300003,KHRX,2019-01-12T14:15:00Z,34.87,-102.33,3.0,0.3,350,15,20,10.0,30.129921,,,TRUE,TRUE,,,,,,,OVC,1800,,,,,,,MVFR,,,,,,,,,,,,METAR,1154.0
KHQU 121415Z AUTO 13008KT 10SM BKN041 BKN049 OVC070 04/M04 A3043 RMK AO2 T00381043,KHQU,2019-01-12T14:15:00Z,33.53,-82.52,3.8,-4.3,130,8,,10.0,30.431103,,,TRUE,TRUE,,,,,,,BKN,4100,BKN,4900,OVC,7000,,,VFR,,,,,,,,,,,,SPECI,152.0
KHPT 121415Z AUTO 00000KT 1 1/2SM -SN OVC016 M02/M02 A3023 RMK AO2,KHPT,2019-01-12T14:15:00Z,42.58,-93.23,-2.0,-2.0,0,0,,1.5,30.230314,,,TRUE,TRUE,,,,,,-SN,OVC,1600,,,,,,,IFR,,,,,,,,,,,,SPECI,358.0
KHHF 121415Z AUTO 35015G21KT 10SM OVC016 02/00 A3008 RMK AO2 T00150000,KHHF,2019-01-12T14:15:00Z,35.9,-100.4,1.5,0.0,350,15,21,10.0,30.079725,,,TRUE,TRUE,,,,,,,OVC,1600,,,,,,,MVFR,,,,,,,,,,,,METAR,712.0
KHFY 121415Z AUTO 10009KT 1/2SM OVC011 M02/M03 A3028 RMK AO2 T10211028,KHFY,2019-01-12T14:15:00Z,39.63,-86.08,-2.1,-2.8,100,9,,0.5,30.280512,,,TRUE,TRUE,,,,,,,OVC,1100,,,,,,,LIFR,,,,,,,,,,,,SPECI,251.0
KULS 121415Z AUTO 35014KT 10SM CLR 00/00 A3012 RMK AO2,KULS,2019-01-12T14:15:00Z,37.6,-101.37,0.0,0.0,350,14,,10.0,30.121063,,,TRUE,TRUE,,,,,,,CLR,,,,,,,,VFR,,,,,,,,,,,,SPECI,936.0
KULM 121415Z AUTO 05006KT 10SM CLR M07/M08 A3030 RMK AO2,KULM,2019-01-12T14:15:00Z,44.32,-94.5,-7.0,-8.0,50,6,,10.0,30.301182,,,TRUE,TRUE,,,,,,,CLR,,,,,,,,VFR,,,,,,,,,,,,SPECI,308.0
KU68 121415Z AUTO 00000KT 1/2SM FZFG OVC001 M03/M03 A3022 RMK AO2,KU68,2019-01-12T14:15:00Z,44.92,-108.45,-3.0,-3.0,0,0,,0.5,30.221457,,,TRUE,TRUE,,,,,,FZFG,OVC,100,,,,,,,LIFR,,,,,,,,,,,,METAR,1247.0
KTYQ 121415Z AUTO 10008KT 3/4SM -SN OVC007 M03/M03 A3028 RMK AO2 T10261026,KTYQ,2019-01-12T14:15:00Z,40.03,-86.25,-2.6,-2.6,100,8,,0.75,30.280512,,,TRUE,TRUE,,,,,,-SN,OVC,700,,,,,,,LIFR,,,,,,,,,,,,SPECI,281.0
KTXW 121415Z AUTO 00000KT M1/4SM FG OVC001 13/13 A3005 RMK AO2 T01320127,KTXW,2019-01-12T14:15:00Z,26.18,-97.97,13.2,12.7,0,0,,0.25,30.050198,,,TRUE,TRUE,,,,,,FG,OVC,100,,,,,,,LIFR,,,,,,,,,,,,METAR,21.0
KTWM 121415Z AUTO 07011G17KT 10SM OVC016 M03/M07 A3042 RMK AO2,KTWM,2019-01-12T14:15:00Z,47.03,-91.75,-3.0,-7.0,70,11,17,10.0,30.41929,,,TRUE,TRUE,,,,,,,OVC,1600,,,,,,,MVFR,,,,,,,,,,,,SPECI,328.0
KTVI 121415Z AUTO 10007KT 10SM SCT040 SCT050 10/06 A3027 RMK AO2,KTVI,2019-01-12T14:15:00Z,30.9,-83.88,10.0,6.0,100,7,,10.0,30.268702,,,TRUE,TRUE,,,,,,,SCT,4000,SCT,5000,,,,,VFR,,,,,,,,,,,,SPECI,80.0
KJWY 121415Z AUTO 28008G14KT 10SM SCT110 06/03 A3001 RMK AO2 T00610032,KJWY,2019-01-12T14:15:00Z,32.45,-96.92,6.1,3.2,280,8,14,10.0,30.008858,,,TRUE,TRUE,,,,,,,SCT,11000,,,,,,,VFR,,,,,,,,,,,,METAR,217.0
KGEV 121415Z AUTO 17006KT 10SM OVC050 M03/M06 A3033 RMK AO2 T10331060,KGEV,2019-01-12T14:15:00Z,36.43,-81.42,-3.3,-6.0,170,6,,10.0,30.33071,,,TRUE,TRUE,,,,,,,OVC,5000,,,,,,,VFR,,,,,,,,,,,,SPECI,969.0
KPKV 121415Z AUTO 31006KT 7SM OVC010 17/15 A3006 RMK AO2 T01660153,KPKV,2019-01-12T14:15:00Z,28.65,-96.68,16.6,15.3,310,6,,7.0,30.059055,,,TRUE,TRUE,,,,,,,OVC,1000,,,,,,,MVFR,,,,,,,,,,,,METAR,9.0
KPIM 121415Z AUTO 09011G16KT 10SM OVC033 07/M02 A3026 RMK AO2 T00661021 PWINO,KPIM,2019-01-12T14:15:00Z,32.83,-84.88,6.6,-2.1,90,11,16,10.0,30.259842,,,TRUE,TRUE,,,,,TRUE,,OVC,3300,,,,,,,VFR,,,,,,,,,,,,SPECI,275.0
KPEQ 121415Z AUTO 26004KT 10SM CLR 01/00 A3022 RMK AO2 T00090001,KPEQ,2019-01-12T14:15:00Z,31.38,-103.52,0.9,0.1,260,4,,10.0,30.221457,,,TRUE,TRUE,,,,,,,CLR,,,,,,,,VFR,,,,,,,,,,,,METAR,797.0
KOWP 121415Z AUTO 36004KT 2 1/2SM -RA OVC003 05/04 A2991 RMK AO2 T00460040,KOWP,2019-01-12T14:15:00Z,36.18,-96.15,4.6,4.0,360,4,,2.5,29.911417,,,TRUE,TRUE,,,,,,-RA,OVC,300,,,,,,,LIFR,,,,,,,,,,,,SPECI,272.0
KONP 121415Z AUTO 09009KT 10SM CLR 07/02 A2993 RMK AO2,KONP,2019-01-12T14:15:00Z,44.57,-124.03,7.0,2.0,90,9,,10.0,29.929134,,,TRUE,TRUE,,,,,,,CLR,,,,,,,,VFR,,,,,,,,,,,,METAR,48.0
KOMH 121415Z AUTO 00000KT 10SM OVC080 M01/M06 A3053 RMK AO2,KOMH,2019-01-12T14:15:00Z,38.25,-78.05,-1.0,-6.0,0,0,,10.0,30.528543,,,TRUE,TRUE,,,,,,,OVC,8000,,,,,,,VFR,,,,,,,,,,,,SPECI,142.0
KOLG 121415Z AUTO 04006KT 10SM OVC033 M04/M07 A3039 RMK AO1,KOLG,2019-01-12T14:15:00Z,46.3,-91.82,-4.0,-7.0,40,6,,10.0,30.389763,,,TRUE,TRUE,,,,,,,OVC,3300,,,,,,,VFR,,,,,,,,,,,,SPECI,336.0
KOLE 121415Z AUTO 10003KT 10SM OVC060 M10/M14 A3040 RMK AO2,KOLE,2019-01-12T14:15:00Z,42.23,-78.37,-10.0,-14.0,100,3,,10.0,30.398623,,,TRUE,TRUE,,,,,,,OVC,6000,,,,,,,VFR,,,,,,,,,,,,SPECI,651.0
KOKM 121415Z AUTO 03008KT 1 3/4SM RA OVC002 04/04 A2987 RMK AO2 T00420042,KOKM,2019-01-12T14:15:00Z,35.67,-95.95,4.2,4.2,30,8,,1.75,29.870079,,,TRUE,TRUE,,,,,,RA,OVC,200,,,,,,,LIFR,,,,,,,,,,,,SPECI,220.0
KOJA 121415Z AUTO 34016G21KT 10SM OVC011 01/01 A3000 RMK AO2,KOJA,2019-01-12T14:15:00Z,35.55,-98.67,1.0,1.0,340,16,21,10.0,30.0,,,TRUE,TRUE,,,,,,,OVC,1100,,,,,,,MVFR,,,,,,,,,,,,SPECI,490.0
KOEO 121415Z AUTO 00000KT 7SM SCT090 M09/M10 A3039 RMK AO2 T10881099,KOEO,2019-01-12T14:15:00Z,45.32,-92.7,-8.8,-9.9,0,0,,7.0,30.389763,,,TRUE,TRUE,,,,,,,SCT,9000,,,,,,,VFR,,,,,,,,,,,,SPECI,275.0
KLHM 121415Z AUTO 00000KT 10SM CLR 02/02 A2995 RMK AO1,KLHM,2019-01-12T14:15:00Z,38.92,-121.35,2.0,2.0,0,0,,10.0,29.949802,,,TRUE,TRUE,,,,,,,CLR,,,,,,,,VFR,,,,,,,,,,,,METAR,37.0
KLHB 121415Z AUTO 31008KT 10SM CLR 10/08 A3005 RMK AO2 T01030080,KLHB,2019-01-12T14:15:00Z,30.87,-96.62,10.3,8.0,310,8,,10.0,30.050198,,,TRUE,TRUE,,,,,,,CLR,,,,,,,,VFR,,,,,,,,,,,,METAR,87.0
KL18 121415Z AUTO 06004KT 10SM RA SCT045 BKN050 OVC070 10/09 A3003 RMK AO2,KL18,2019-01-12T14:15:00Z,33.35,-117.25,10.0,9.0,60,4,,10.0,30.029528,,,TRUE,TRUE,,,,,,RA,SCT,4500,BKN,5000,OVC,7000,,,VFR,,,,,,,,,,,,METAR,216.0
KK88 121415Z AUTO 00000KT 5SM OVC004 00/00 A2997 RMK AO1 P0002 T00000000,KK88,2019-01-12T14:15:00Z,37.87,-95.38,0.0,0.0,0,0,,5.0,29.970472,,,TRUE,TRUE,,,,,,,OVC,400,,,,,,,LIFR,,,,,,0.02,,,,,,SPECI,309.0
KJYR 121415Z AUTO 03016G21KT 5SM -SN OVC006 M04/M04 A3016 RMK AO2,KJYR,2019-01-12T14:15:00Z,40.9,-97.62,-4.0,-4.0,30,16,21,5.0,30.159449,,,TRUE,TRUE,,,,,,-SN,OVC,600,,,,,,,IFR,,,,,,,,,,,,SPECI,509.0
KCBF 121415Z AUTO 03013KT 1/2SM +UP OVC004 M01/M01 A3015 RMK AO2,KCBF,2019-01-12T14:15:00Z,41.27,-95.77,-1.0,-1.0,30,13,,0.5,30.15059,,,TRUE,TRUE,,,,,,UP,OVC,400,,,,,,,LIFR,,,,,,,,,,,,SPECI,382.0
KCAV 121415Z AUTO 06007G12KT 6SM BR OVC025 M02/M04 A3023 RMK AO2 PWINO,KCAV,2019-01-12T14:15:00Z,42.75,-93.77,-2.0,-4.0,60,7,12,6.0,30.230314,,,TRUE,TRUE,,,,,TRUE,BR,OVC,2500,,,,,,,MVFR,,,,,,,,,,,,SPECI,354.0
KBWW 121415Z AUTO 14007KT 1/4SM FZFG OVC002 M10/M11 A3012 RMK AO2,KBWW,2019-01-12T14:15:00Z,46.17,-103.3,-10.0,-11.0,140,7,,0.25,30.121063,,,TRUE,TRUE,,,,,,FZFG,OVC,200,,,,,,,LIFR,,,,,,,,,,,,METAR,910.0
KBVU 121415Z AUTO 00000KT 10SM SCT040 SCT047 SCT055 04/M01 A3011 RMK AO2,KBVU,2019-01-12T14:15:00Z,35.95,-114.87,4.0,-1.0,0,0,,10.0,30.109253,,,TRUE,TRUE,,,,,,,SCT,4000,SCT,4700,SCT,5500,,,VFR,,,,,,,,,,,,SPECI,671.0
KBUU 121415Z AUTO 08008KT 7SM BKN017 M01/M04 A3034 RMK AO2 T10131040,KBUU,2019-01-12T14:15:00Z,42.68,-88.3,-1.3,-4.0,80,8,,7.0,30.339567,,,TRUE,TRUE,,,,,,,BKN,1700,,,,,,,MVFR,,,,,,,,,,,,SPECI,237.0
KBRY 121415Z AUTO 00000KT 10SM CLR 00/00 A3026 RMK AO1,KBRY,2019-01-12T14:15:00Z,37.82,-85.5,0.0,0.0,0,0,,10.0,30.259842,,,TRUE,TRUE,,,,,,,CLR,,,,,,,,VFR,,,,,,,,,,,,SPECI,204.0
KJYL 121415Z AUTO 08006KT 10SM OVC060 06/01 A3038 RMK AO2 T00610009,KJYL,2019-01-12T14:15:00Z,32.65,-81.6,6.1,0.9,80,6,,10.0,30.380905,,,TRUE,TRUE,,,,,,,OVC,6000,,,,,,,VFR,,,,,,,,,,,,SPECI,57.0
KJYO 121415Z AUTO 00000KT 10SM OVC100 M01/M04 A3055 RMK AO2,KJYO,2019-01-12T14:15:00Z,39.07,-77.57,-1.0,-4.0,0,0,,10.0,30.549213,,,TRUE,TRUE,,,,,,,OVC,10000,,,,,,,VFR,,,,,,,,,,,,METAR,119.0
KJXI 121415Z AUTO 18004KT 4SM BR OVC003 10/10 A2994 RMK AO2 T01040102,KJXI,2019-01-12T14:15:00Z,32.7,-94.95,10.4,10.2,180,4,,4.0,29.940945,,,TRUE,TRUE,,,,,,BR,OVC,300,,,,,,,LIFR,,,,,,,,,,,,METAR,127.0
KJWN 121415Z AUTO 08003KT 10SM CLR 05/03 A3019 RMK A01,KJWN,2019-01-12T14:15:00Z,36.18,-86.88,5.0,3.0,80,3,,10.0,30.188976,,,TRUE,TRUE,,,,,,,CLR,,,,,,,,VFR,,,,,,,,,,,,METAR,151.0
KJWG 121415Z AUTO 34019G24KT 10SM OVC009 01/01 A3000 RMK AO2 T00130013,KJWG,2019-01-12T14:15:00Z,35.87,-98.42,1.3,1.3,340,19,24,10.0,30.0,,,TRUE,TRUE,,,,,,,OVC,900,,,,,,,IFR,,,,,,,,,,,,METAR,472.0
KJTC 121415Z AUTO 22006KT 10SM CLR M07/M11 A3017 RMK AO2,KJTC,2019-01-12T14:15:00Z,34.13,-109.32,-7.0,-11.0,220,6,,10.0,30.171259,,,TRUE,TRUE,,,,,,,CLR,,,,,,,,VFR,,,,,,,,,,,,METAR,2150.0
KJOT 121415Z AUTO 08006KT 1SM -SN OVC019 M01/M02 A3033 RMK AO2 T10131020,KJOT,2019-01-12T14:15:00Z,41.52,-88.18,-1.3,-2.0,80,6,,1.0,30.33071,,,TRUE,TRUE,,,,,,-SN,OVC,1900,,,,,,,IFR,,,,,,,,,,,,METAR,177.0
KJKA 121415Z AUTO 07004KT 10SM CLR 12/10 A3015 RMK AO2 T01160097,KJKA,2019-01-12T14:15:00Z,30.28,-87.67,11.6,9.7,70,4,,10.0,30.15059,,,TRUE,TRUE,,,,,,,CLR,,,,,,,,VFR,,,,,,,,,,,,METAR,5.0
KJGG 121415Z AUTO 00000KT 10SM CLR 03/M05 A3056 RMK AO1,KJGG,2019-01-12T14:15:00Z,37.23,-76.72,3.0,-5.0,0,0,,10.0,30.561024,,,TRUE,TRUE,,,,,,,CLR,,,,,,,,VFR,,,,,,,,,,,,METAR,15.0
KVNC 121415Z AUTO 08009KT 10SM CLR 18/14 A3021 RMK AO2,KVNC,2019-01-12T14:15:00Z,27.07,-82.43,18.0,14.0,80,9,,10.0,30.209646,,,TRUE,TRUE,,,,,,,CLR,,,,,,,,VFR,,,,,,,,,,,,SPECI,6.0
KOIN 121415Z AUTO 34007KT 10SM SCT014 SCT055 M03/M04 A3021 RMK AO1 T10351043,KOIN,2019-01-12T14:15:00Z,39.83,-100.53,-3.5,-4.3,340,7,,10.0,30.209646,,,TRUE,TRUE,,,,,,,SCT,1400,SCT,5500,,,,,VFR,,,,,,,,,,,,SPECI,824.0
KLUX 121415Z AUTO 05005KT 10SM OVC043 02/M04 A3042 RMK AO2,KLUX,2019-01-12T14:15:00Z,34.5,-81.95,2.0,-4.0,50,5,,10.0,30.41929,,,TRUE,TRUE,,,,,,,OVC,4300,,,,,,,VFR,,,,,,,,,,,,SPECI,213.0
KPOY 121415Z AUTO 13010KT 1/4SM FZFG OVC001 M06/M07 A3015 RMK AO2,KPOY,2019-01-12T14:15:00Z,44.87,-108.8,-6.0,-7.0,130,10,,0.25,30.15059,,,TRUE,TRUE,,,,,,FZFG,OVC,100,,,,,,,LIFR,,,,,,,,,,,,METAR,1552.0
KPPQ 121415Z AUTO 06010KT 3/4SM OVC004 M01/M01 A3015 RMK AO2 P0001 T10101012,KPPQ,2019-01-12T14:15:00Z,39.63,-90.78,-1.0,-1.2,60,10,,0.75,30.15059,,,TRUE,TRUE,,,,,,,OVC,400,,,,,,,LIFR,,,,,,0.01,,,,,,SPECI,216.0
KVJI 121415Z AUTO 09011KT 10SM SCT048 SCT060 OVC080 03/M05 A3029 RMK AO2 T00251050,KVJI,2019-01-12T14:15:00Z,36.67,-82.02,2.5,-5.0,90,11,,10.0,30.28937,,,TRUE,TRUE,,,,,,,SCT,4800,SCT,6000,OVC,8000,,,VFR,,,,,,,,,,,,SPECI,631.0
KVDF 121415Z AUTO 09003KT 10SM CLR 16/13 A3024 RMK AO2,KVDF,2019-01-12T14:15:00Z,28.02,-82.33,16.0,13.0,90,3,,10.0,30.239174,,,TRUE,TRUE,,,,,,,CLR,,,,,,,,VFR,,,,,,,,,,,,SPECI,7.0
KVBW 121415Z AUTO 16007KT 10SM SCT048 BKN065 OVC085 M02/M07 A3044 RMK AO1 T10171066,KVBW,2019-01-12T14:15:00Z,38.37,-78.97,-1.7,-6.6,160,7,,10.0,30.43996,,,TRUE,TRUE,,,,,,,SCT,4800,BKN,6500,OVC,8500,,,VFR,,,,,,,,,,,,SPECI,355.0
KUVA 121415Z AUTO 00000KT 5SM BR CLR 10/10 A3011 RMK AO2 T01040103,KUVA,2019-01-12T14:15:00Z,29.22,-99.75,10.4,10.3,0,0,,5.0,30.109253,,,TRUE,TRUE,,,,,,BR,CLR,,,,,,,,MVFR,,,,,,,,,,,,METAR,287.0
KUNI 121415Z AUTO 03006KT 4SM -SN OVC038 M02/M05 A3037 RMK AO2 T10251050,KUNI,2019-01-12T14:15:00Z,39.22,-82.23,-2.5,-5.0,30,6,,4.0,30.369095,,,TRUE,TRUE,,,,,,-SN,OVC,3800,,,,,,,MVFR,,,,,,,,,,,,SPECI,193.0
KRKR 121415Z AUTO 00000KT 10SM OVC014 05/04 A2989 RMK AO2,KRKR,2019-01-12T14:15:00Z,35.02,-94.62,5.0,4.0,0,0,,10.0,29.890747,,,TRUE,TRUE,,,,,,,OVC,1400,,,,,,,MVFR,,,,,,,,,,,,SPECI,138.0
KRGA 121415Z AUTO 00000KT 10SM OVC085 M01/M01 A3029 RMK AO2,KRGA,2019-01-12T14:15:00Z,37.63,-84.33,-1.0,-1.0,0,0,,10.0,30.28937,,,TRUE,TRUE,,,,,,,OVC,8500,,,,,,,VFR,,,,,,,,,,,,METAR,305.0
KRAW 121415Z AUTO 07003KT 1 3/4SM -SN OVC007 A2998 RMK AO2,KRAW,2019-01-12T14:15:00Z,38.35,-93.35,,,70,3,,1.75,29.97933,,,TRUE,TRUE,,,,,,-SN,OVC,700,,,,,,,IFR,,,,,,,,,,,,SPECI,285.0
KRAS 121415Z AUTO 31005KT 7SM OVC008 15/15 A3007 RMK AO2 T01540150,KRAS,2019-01-12T14:15:00Z,27.82,-97.08,15.4,15.0,310,5,,7.0,30.070866,,,TRUE,TRUE,,,,,,,OVC,800,,,,,,,IFR,,,,,,,,,,,,METAR,2.0
KPYX 121415Z AUTO 35021KT 5SM OVC008 01/00 A3008 RMK AO2 T00070000,KPYX,2019-01-12T14:15:00Z,36.42,-100.75,0.7,0.0,350,21,,5.0,30.079725,,,TRUE,TRUE,,,,,,,OVC,800,,,,,,,IFR,,,,,,,,,,,,METAR,889.0
KPVJ 121415Z AUTO 31016G20KT 5SM BR OVC008 04/04 A2990 RMK AO2 T00400040,KPVJ,2019-01-12T14:15:00Z,34.72,-97.22,4.0,4.0,310,16,20,5.0,29.899607,,,TRUE,TRUE,,,,,,BR,OVC,800,,,,,,,IFR,,,,,,,,,,,,SPECI,295.0
KPUJ 121415Z AUTO 12010G16KT 10SM OVC027 04/M06 A3027 RMK AO2,KPUJ,2019-01-12T14:15:00Z,33.92,-84.93,4.0,-6.0,120,10,16,10.0,30.268702,,,TRUE,TRUE,,,,,,,OVC,2700,,,,,,,MVFR,,,,,,,,,,,,SPECI,393.0
KPTB 121415Z AUTO 00000KT 10SM SCT100 SCT120 00/M06 A3055 RMK AO2 T00001060,KPTB,2019-01-12T14:15:00Z,37.17,-77.52,0.0,-6.0,0,0,,10.0,30.549213,,,TRUE,TRUE,,,,,,,SCT,10000,SCT,12000,,,,,VFR,,,,,,,,,,,,SPECI,59.0
KPSN 121415Z AUTO 29009KT 10SM OVC021 08/06 A3002 RMK AO2 T00910060,KPSN,2019-01-12T14:15:00Z,31.78,-95.7,8.0,6.0,290,9,,10.0,30.02067,,,TRUE,TRUE,,,,,,,OVC,2100,,,,,,,MVFR,,,,,,,,,,,,METAR,129.0
KPSC 121415Z 30005KT 1SM BR OVC004 02/01 A3020 RMK AO2 CIG 002V008 T00170011 RVRNO,KPSC,2019-01-12T14:15:00Z,46.27,-119.12,1.7,1.1,300,5,,1.0,30.200787,,,,TRUE,,,,,,BR,OVC,400,,,,,,,LIFR,,,,,,,,,,,,SPECI,121.0
KW13 121415Z AUTO 00000KT 10SM SCT038 OVC095 M02/M09 A3044 RMK AO1 T10221095,KW13,2019-01-12T14:15:00Z,38.08,-78.95,-2.2,-9.5,0,0,,10.0,30.43996,,,TRUE,TRUE,,,,,,,SCT,3800,OVC,9500,,,,,VFR,,,,,,,,,,,,SPECI,443.0
KPRS 121415Z AUTO 36005KT 10SM CLR 05/02 A3020 RMK AO2 T00450018,KPRS,2019-01-12T14:15:00Z,29.63,-104.35,4.5,1.8,360,5,,10.0,30.200787,,,TRUE,TRUE,,,,,,,CLR,,,,,,,,VFR,,,,,,,,,,,,METAR,896.0
KW31 121415Z AUTO 00000KT 10SM OVC070 M01/M08 A3049 RMK AO1 T10061080,KW31,2019-01-12T14:15:00Z,36.95,-78.18,-0.6,-8.0,0,0,,10.0,30.490158,,,TRUE,TRUE,,,,,,,OVC,7000,,,,,,,VFR,,,,,,,,,,,,SPECI,162.0
KW63 121415Z AUTO 07007KT 10SM OVC090 01/M05 A3047 RMK AO1,KW63,2019-01-12T14:15:00Z,36.6,-78.55,1.0,-5.0,70,7,,10.0,30.469488,,,TRUE,TRUE,,,,,,,OVC,9000,,,,,,,VFR,,,,,,,,,,,,SPECI,129.0
KW75 121415Z AUTO 07004KT 10SM OVC095 02/M10 A3054 RMK AO1 T00171105,KW75,2019-01-12T14:15:00Z,37.6,-76.45,1.7,-10.5,70,4,,10.0,30.540354,,,TRUE,TRUE,,,,,,,OVC,9500,,,,,,,VFR,,,,,,,,,,,,SPECI,9.0
KW96 121415Z AUTO 00000KT 10SM BKN080 OVC090 00/M05 A3054 RMK AO1 T10011054,KW96,2019-01-12T14:15:00Z,37.5,-77.12,-0.1,-5.4,0,0,,10.0,30.540354,,,TRUE,TRUE,,,,,,,BKN,8000,OVC,9000,,,,,VFR,,,,,,,,,,,,SPECI,37.0
KW99 121415Z AUTO 00000KT 10SM SCT060 BKN070 OVC085 M03/M08 A3046 RMK AO2 T10321076,KW99,2019-01-12T14:15:00Z,39.0,-79.15,-3.2,-7.6,0,0,,10.0,30.46063,,,TRUE,TRUE,,,,,,,SCT,6000,BKN,7000,OVC,8500,,,VFR,,,,,,,,,,,,SPECI,293.0
KGRN 121415Z AUTO 36005KT 1 1/4SM BR OVC003 M03/M03 A3020 RMK AO2 T10261035,KGRN,2019-01-12T14:15:00Z,42.8,-102.17,-2.6,-3.5,360,5,,1.25,30.200787,,,TRUE,TRUE,,,,,,BR,OVC,300,,,,,,,LIFR,,,,,,,,,,,,METAR,1086.0
KEFK 121415Z AUTO 00000KT 10SM CLR M17/M21 A3044 RMK AO2 T11731213,KEFK,2019-01-12T14:15:00Z,44.88,-72.23,-17.3,-21.3,0,0,,10.0,30.43996,,,TRUE,TRUE,,,,,,,CLR,,,,,,,,VFR,,,,,,,,,,,,METAR,284.0
KEIR 121415Z AUTO 18017KT 7SM FEW070 FEW095 FEW120 21/17 A3005 RMK A01,KEIR,2019-01-12T14:15:00Z,28.63,-91.48,21.0,17.0,180,17,,7.0,30.050198,,,TRUE,TRUE,,,,,,,FEW,7000,FEW,9500,FEW,12000,,,VFR,,,,,,,,,,,,METAR,28.0
KELK 121415Z AUTO 34019G23KT 10SM OVC011 01/00 A3002 RMK AO2 T00050000,KELK,2019-01-12T14:15:00Z,35.43,-99.4,0.5,0.0,340,19,23,10.0,30.02067,,,TRUE,TRUE,,,,,,,OVC,1100,,,,,,,MVFR,,,,,,,,,,,,METAR,610.0
KEBG 121415Z AUTO 00000KT 1/2SM FG OVC003 13/12 A3006 RMK AO2 T01280121,KEBG,2019-01-12T14:15:00Z,26.45,-98.13,12.8,12.1,0,0,,0.5,30.059055,,,TRUE,TRUE,,,,,,FG,OVC,300,,,,,,,LIFR,,,,,,,,,,,,METAR,24.0
KE11 121415Z AUTO 33012KT 10SM CLR 03/00 A3018 RMK AO2 T00301003,KE11,2019-01-12T14:15:00Z,32.33,-102.53,3.0,-0.3,330,12,,10.0,30.180119,,,TRUE,TRUE,,,,,,,CLR,,,,,,,,VFR,,,,,,,,,,,,METAR,967.0
KDVO 121415Z AUTO 20003KT 10SM OVC060 10/10 A2996 RMK AO2,KDVO,2019-01-12T14:15:00Z,38.15,-122.55,10.0,10.0,200,3,,10.0,29.958662,,,TRUE,TRUE,,,,,,,OVC,6000,,,,,,,VFR,,,,,,,,,,,,METAR,1.0
KDUX 121415Z AUTO 33016G21KT 10SM OVC012 01/00 A3011 RMK AO2 T00051005,KDUX,2019-01-12T14:15:00Z,35.85,-102.02,0.5,-0.5,330,16,21,10.0,30.109253,,,TRUE,TRUE,,,,,,,OVC,1200,,,,,,,MVFR,,,,,,,,,,,,METAR,1129.0
KDUC 121415Z AUTO 31017G20KT 10SM BKN008 OVC012 03/03 A2998 RMK AO2 T00350025,KDUC,2019-01-12T14:15:00Z,34.47,-97.97,3.5,2.5,310,17,20,10.0,29.97933,,,TRUE,TRUE,,,,,,,BKN,800,OVC,1200,,,,,IFR,,,,,,,,,,,,METAR,339.0
KDUA 121415Z AUTO 26008G15KT 10SM OVC013 06/04 A2993 RMK AO2,KDUA,2019-01-12T14:15:00Z,33.95,-96.4,6.0,4.0,260,8,15,10.0,29.929134,,,TRUE,TRUE,,,,,,,OVC,1300,,,,,,,MVFR,,,,,,,,,,,,METAR,213.0
KDTL 121415Z AUTO 07004KT 7SM OVC008 M05/M05 A3037 RMK AO2,KDTL,2019-01-12T14:15:00Z,46.82,-95.87,-5.0,-5.0,70,4,,7.0,30.369095,,,TRUE,TRUE,,,,,,,OVC,800,,,,,,,IFR,,,,,,,,,,,,METAR,426.0
KDSF 121415Z AUTO 10SM OVC055 20/14 A3013 RMK A01,KDSF,2019-01-12T14:15:00Z,28.35,-88.27,20.0,14.0,,,,10.0,30.129921,,,TRUE,TRUE,,,,,,,OVC,5500,,,,,,,VFR,,,,,,,,,,,,METAR,130.0
KDKX 121415Z AUTO 00000KT 10SM BKN100 05/M00 A3028 RMK A01,KDKX,2019-01-12T14:15:00Z,35.97,-83.87,5.0,0.0,0,0,,10.0,30.280512,,,TRUE,TRUE,,,,,,,BKN,10000,,,,,,,VFR,,,,,,,,,,,,METAR,254.0
KDKR 121415Z AUTO 00000KT 1/4SM FG 12/11 A3002 RMK AO2,KDKR,2019-01-12T14:15:00Z,31.3,-95.4,12.0,11.0,0,0,,0.25,30.02067,,,TRUE,TRUE,,,,,,FG,,,,,,,,,,,,,,,,,,,,,METAR,106.0
KDKB 121415Z AUTO 08009KT 1/2SM SN OVC010 M02/M03 A3031 RMK AO2 T10211027,KDKB,2019-01-12T14:15:00Z,41.93,-88.7,-2.1,-2.7,80,9,,0.5,30.31004,,,TRUE,TRUE,,,,,,SN,OVC,1000,,,,,,,LIFR,,,,,,,,,,,,METAR,279.0
KDED 121415Z AUTO 10009KT 10SM CLR 19/13 A3026 RMK AO2,KDED,2019-01-12T14:15:00Z,29.07,-81.28,19.0,13.0,100,9,,10.0,30.259842,,,TRUE,TRUE,,,,,,,CLR,,,,,,,,VFR,,,,,,,,,,,,METAR,24.0
KD25 121415Z AUTO 09005G08KT 7SM OVC004 M06/M06 A3039 RMK AO2 T10621062,KD25,2019-01-12T14:15:00Z,46.12,-89.88,-6.2,-6.2,90,5,8,7.0,30.389763,,,TRUE,TRUE,,,,,,,OVC,400,,,,,,,LIFR,,,,,,,,,,,,METAR,491.0
KCXW 121415Z AUTO 00000KT 3SM BR OVC006 04/04 A2997 RMK A01,KCXW,2019-01-12T14:15:00Z,35.02,-92.55,4.0,4.0,0,0,,3.0,29.970472,,,TRUE,TRUE,,,,,,BR,OVC,600,,,,,,,IFR,,,,,,,,,,,,METAR,84.0
KCXE 121415Z AUTO 07004KT 10SM OVC090 00/M08 A3048 RMK AO1 T00001081,KCXE,2019-01-12T14:15:00Z,36.78,-78.5,0.0,-8.1,70,4,,10.0,30.481298,,,TRUE,TRUE,,,,,,,OVC,9000,,,,,,,VFR,,,,,,,,,,,,METAR,153.0
KCVW 121415Z AUTO 22008KT 2 1/2SM BR FEW016 FEW034 BKN060 16/16 A2997 RMK A01,KCVW,2019-01-12T14:15:00Z,29.78,-93.3,16.0,16.0,220,8,,2.5,29.970472,,,TRUE,TRUE,,,,,,BR,FEW,1600,FEW,3400,BKN,6000,,,IFR,,,,,,,,,,,,METAR,1.0
KCUH 121415Z AUTO 36010KT 10SM OVC005 03/03 A2992 RMK AO2 T00270025,KCUH,2019-01-12T14:15:00Z,35.95,-96.77,2.7,2.5,360,10,,10.0,29.920275,,,TRUE,TRUE,,,,,,,OVC,500,,,,,,,IFR,,,,,,,,,,,,METAR,279.0
KCTY 121415Z AUTO 09004KT 10SM OVC055 13/10 A3025 RMK AO2 T01290103,KCTY,2019-01-12T14:15:00Z,29.63,-83.1,12.9,10.3,90,4,,10.0,30.250984,,,TRUE,TRUE,,,,,,,OVC,5500,,,,,,,VFR,,,,,,,,,,,,METAR,13.0
KCTJ 121415Z AUTO 11007KT 10SM OVC030 05/M05 A3030 RMK AO2 T00451053,KCTJ,2019-01-12T14:15:00Z,33.63,-85.15,4.5,-5.3,110,7,,10.0,30.301182,,,TRUE,TRUE,,,,,,,OVC,3000,,,,,,,MVFR,,,,,,,,,,,,METAR,354.0
KCRX 121415Z AUTO 13008KT 10SM BKN035 BKN044 OVC060 08/M00 A3012 RMK AO2,KCRX,2019-01-12T14:15:00Z,34.92,-88.6,8.0,0.0,130,8,,10.0,30.121063,,,TRUE,TRUE,,,,,,,BKN,3500,BKN,4400,OVC,6000,,,VFR,,,,,,,,,,,,METAR,130.0
KCOM 121415Z AUTO 31010G14KT 10SM CLR 06/01 A3009 RMK AO2 T00560009,KCOM,2019-01-12T14:15:00Z,31.83,-99.4,5.6,0.9,310,10,14,10.0,30.088583,,,TRUE,TRUE,,,,,,,CLR,,,,,,,,VFR,,,,,,,,,,,,METAR,517.0
KCNB 121415Z AUTO 34007KT 10SM OVC019 M04/M05 A3033 RMK AO2 T10441055,KCNB,2019-01-12T14:15:00Z,44.73,-96.27,-4.4,-5.5,340,7,,10.0,30.33071,,,TRUE,TRUE,,,,,,,OVC,1900,,,,,,,MVFR,,,,,,,,,,,,METAR,364.0
KCMY 121415Z AUTO 08008KT 10SM SCT014 BKN060 M02/M05 A3035 RMK AO2 T10221046,KCMY,2019-01-12T14:15:00Z,43.97,-90.73,-2.2,-4.6,80,8,,10.0,30.351377,,,TRUE,TRUE,,,,,,,SCT,1400,BKN,6000,,,,,VFR,,,,,,,,,,,,METAR,256.0
KCKZ 121415Z AUTO 00000KT 10SM CLR M05/M14 A3054 RMK AO2,KCKZ,2019-01-12T14:15:00Z,40.38,-75.28,-5.0,-14.0,0,0,,10.0,30.540354,,,TRUE,TRUE,,,,,,,CLR,,,,,,,,VFR,,,,,,,,,,,,METAR,173.0
KCKP 121415Z AUTO 02008KT 10SM OVC027 M03/M04 A3023 RMK AO2 T10321042,KCKP,2019-01-12T14:15:00Z,42.73,-95.55,-3.2,-4.2,20,8,,10.0,30.230314,,,TRUE,TRUE,,,,,,,OVC,2700,,,,,,,MVFR,,,,,,,,,,,,METAR,374.0
CWPF 121415Z AUTO 02009KT 08/04 RMK AO1 T00750037,CWPF,2019-01-12T14:15:00Z,48.43,-123.43,7.5,3.7,20,9,,,,,,TRUE,TRUE,,,,,,,,,,,,,,,,,,,,,,,,,,,METAR,12.0
KY31 121415Z AUTO 03004KT 10SM OVC015 M04/M08 A3046 RMK AO2 T10451084,KY31,2019-01-12T14:15:00Z,44.25,-84.18,-4.5,-8.4,30,4,,10.0,30.46063,,,TRUE,TRUE,,,,,,,OVC,1500,,,,,,,MVFR,,,,,,,,,,,,SPECI,269.0
KY23 121415Z AUTO 10006KT 10SM SCT018 OVC060 M03/M07 A3037 RMK AO2 T10351070,KY23,2019-01-12T14:15:00Z,45.3,-91.63,-3.5,-7.0,100,6,,10.0,30.369095,,,TRUE,TRUE,,,,,,,SCT,1800,OVC,6000,,,,,VFR,,,,,,,,,,,,SPECI,322.0
KXSA 121415Z AUTO 00000KT 10SM BKN060 00/M05 A3056 RMK AO2 T00001048,KXSA,2019-01-12T14:15:00Z,37.87,-76.9,0.0,-4.8,0,0,,10.0,30.561024,,,TRUE,TRUE,,,,,,,BKN,6000,,,,,,,VFR,,,,,,,,,,,,SPECI,42.0
KWWR 121415Z AUTO 34015G23KT 10SM OVC007 00/M01 A3008 RMK AO2,KWWR,2019-01-12T14:15:00Z,36.45,-99.52,0.0,-1.0,340,15,23,10.0,30.079725,,,TRUE,TRUE,,,,,,,OVC,700,,,,,,,IFR,,,,,,,,,,,,SPECI,667.0
KWRL 121415Z AUTO 00000KT 2SM BR BKN003 M13/M14 A3021 RMK AO2 T11281139,KWRL,2019-01-12T14:15:00Z,43.97,-107.95,-12.8,-13.9,0,0,,2.0,30.209646,,,TRUE,TRUE,,,,,,BR,BKN,300,,,,,,,LIFR,,,,,,,,,,,,SPECI,1271.0
KELA 121415Z AUTO 28004KT 10SM CLR 15/14 A3003 RMK AO2 T01500141,KELA,2019-01-12T14:15:00Z,29.6,-96.32,15.0,14.1,280,4,,10.0,30.029528,,,TRUE,TRUE,,,,,,,CLR,,,,,,,,VFR,,,,,,,,,,,,METAR,56.0
KEKS 121415Z AUTO 16005KT 10SM CLR M10/M14 A3024 RMK AO2,KEKS,2019-01-12T14:15:00Z,45.27,-111.65,-10.0,-14.0,160,5,,10.0,30.239174,,,TRUE,TRUE,,,,,,,CLR,,,,,,,,VFR,,,,,,,,,,,,METAR,1641.0
KCIN 121415Z AUTO 05009KT 2SM -SN FEW008 OVC012 M01/M01 A3019 RMK AO2,KCIN,2019-01-12T14:15:00Z,42.03,-94.77,-1.0,-1.0,50,9,,2.0,30.188976,,,TRUE,TRUE,,,,,,-SN,FEW,800,OVC,1200,,,,,IFR,,,,,,,,,,,,SPECI,375.0
KCFJ 121415Z AUTO 09007KT 3/4SM -SN BKN006 OVC012 M02/M02 A3028 RMK AO2 T10251025,KCFJ,2019-01-12T14:15:00Z,39.98,-86.92,-2.5,-2.5,90,7,,0.75,30.280512,,,TRUE,TRUE,,,,,,-SN,BKN,600,OVC,1200,,,,,LIFR,,,,,,,,,,,,SPECI,244.0
KCEY 121415Z AUTO 09005KT 10SM FEW029 BKN080 OVC100 02/02 A3015 RMK AO1,KCEY,2019-01-12T14:15:00Z,36.67,-88.37,2.0,2.0,90,5,,10.0,30.15059,,,TRUE,TRUE,,,,,,,FEW,2900,BKN,8000,OVC,10000,,,VFR,,,,,,,,,,,,SPECI,176.0
KCDN 121415Z AUTO 06005KT 8SM CLR 03/M05 A3045 RMK AO2,KCDN,2019-01-12T14:15:00Z,34.28,-80.57,3.0,-5.0,60,5,,8.0,30.448818,,,TRUE,TRUE,,,,,,,CLR,,,,,,,,VFR,,,,,,,,,,,,SPECI,92.0
K3T5 121415Z AUTO 28003KT 10SM CLR 14/14 A3003 RMK AO2 T01350135,K3T5,2019-01-12T14:15:00Z,29.9,-96.95,13.5,13.5,280,3,,10.0,30.029528,,,TRUE,TRUE,,,,,,,CLR,,,,,,,,VFR,,,,,,,,,,,,METAR,99.0
K3S8 121415Z AUTO 00000KT M1/4SM FG OVC002 01/01 A2996 RMK AO2,K3S8,2019-01-12T14:15:00Z,42.5,-123.4,1.0,1.0,0,0,,0.25,29.958662,,,TRUE,TRUE,,,,,,FG,OVC,200,,,,,,,LIFR,,,,,,,,,,,,METAR,343.0
K5T9 121415Z AUTO 33008G15KT 8SM CLR M03/M05 A3012 RMK A01,K5T9,2019-01-12T14:15:00Z,28.85,-100.52,-3.0,-5.0,330,8,15,8.0,30.121063,,,TRUE,TRUE,,,,,,,CLR,,,,,,,,VFR,,,,,,,,,,,,METAR,270.0
K54A 121415Z AUTO 10010KT 10SM FEW050 19/14 A3021 RMK AO2,K54A,2019-01-12T14:15:00Z,26.85,-82.25,19.0,14.0,100,10,,10.0,30.209646,,,TRUE,TRUE,,,,,,,FEW,5000,,,,,,,VFR,,,,,,,,,,,,METAR,14.0
K4V0 121415Z AUTO 00000KT 1 3/4SM BR OVC002 A3026 RMK AO2,K4V0,2019-01-12T14:15:00Z,40.1,-108.77,,,0,0,,1.75,30.259842,,,TRUE,TRUE,,,,,,BR,OVC,200,,,,,,,LIFR,,,,,,,,,,,,METAR,1608.0
K4O4 121415Z AUTO 00000KT 1 1/4SM OVC002 06/06 A2991 RMK AO2 P0001,K4O4,2019-01-12T14:15:00Z,33.92,-94.87,6.0,6.0,0,0,,1.25,29.911417,,,TRUE,TRUE,,,,,,,OVC,200,,,,,,,LIFR,,,,,,0.01,,,,,,METAR,144.0
K4A9 121415Z AUTO 12009G19KT 080V150 10SM OVC025 06/M07 A3022 RMK AO2 T00621067,K4A9,2019-01-12T14:15:00Z,34.47,-85.72,6.2,-6.7,120,9,19,10.0,30.221457,,,TRUE,TRUE,,,,,,,OVC,2500,,,,,,,MVFR,,,,,,,,,,,,METAR,267.0
K48A 121415Z AUTO 08010KT 10SM OVC060 06/00 A3032 RMK AO2 T00620002,K48A,2019-01-12T14:15:00Z,,,6.2,0.2,80,10,,10.0,30.318897,,,TRUE,TRUE,,,,,,,OVC,6000,,,,,,,VFR,,,,,,,,,,,,METAR,
K46U 121415Z AUTO 00000KT 10SM FEW003 SCT012 M15/M16 A3029 RMK A01,K46U,2019-01-12T14:15:00Z,43.18,-111.05,-15.0,-16.0,0,0,,10.0,30.28937,,,TRUE,TRUE,,,,,,,FEW,300,SCT,1200,,,,,VFR,,,,,,,,,,,,METAR,1717.0
K46D 121415Z AUTO 36003KT 3SM BR OVC003 M10/M11 A3039 RMK AO2,K46D,2019-01-12T14:15:00Z,47.45,-99.15,-10.0,-11.0,360,3,,3.0,30.389763,,,TRUE,TRUE,,,,,,BR,OVC,300,,,,,,,LIFR,,,,,,,,,,,,SPECI,490.0
K3N8 121415Z AUTO 05004KT 3SM BR OVC009 M05/M06 A3038 RMK AO2 T10531060,K3N8,2019-01-12T14:15:00Z,47.25,-95.88,-5.3,-6.0,50,4,,3.0,30.380905,,,TRUE,TRUE,,,,,,BR,OVC,900,,,,,,,IFR,,,,,,,,,,,,METAR,383.0
K3L4 121415Z AUTO 25015G22KT 1SM BR SCT003 BKN015 OVC026 A2999 RMK A01,K3L4,2019-01-12T14:15:00Z,29.8,-92.8,,,250,15,22,1.0,29.991142,,,TRUE,TRUE,,,,,,BR,SCT,300,BKN,1500,OVC,2600,,,IFR,,,,,,,,,,,,METAR,2.0
K3F3 121415Z AUTO 00000KT 10SM OVC004 10/10 A3000 RMK AO2 T01020098,K3F3,2019-01-12T14:15:00Z,32.07,-93.77,10.2,9.8,0,0,,10.0,30.0,,,TRUE,TRUE,,,,,,,OVC,400,,,,,,,LIFR,,,,,,,,,,,,METAR,96.0
K33N 121415Z AUTO 04005KT 10SM CLR M02/M10 A3056 RMK A01,K33N,2019-01-12T14:15:00Z,39.22,-75.6,-2.0,-10.0,40,5,,10.0,30.561024,,,TRUE,TRUE,,,,,,,CLR,,,,,,,,VFR,,,,,,,,,,,,METAR,17.0
K2M2 121415Z AUTO 14007KT 10SM BKN110 06/M00 A3019 RMK A01,K2M2,2019-01-12T14:15:00Z,35.23,-87.25,6.0,0.0,140,7,,10.0,30.188976,,,TRUE,TRUE,,,,,,,BKN,11000,,,,,,,VFR,,,,,,,,,,,,METAR,286.0
K2LS 121415Z AUTO 15010G15KT 10SM SCT120 18/16 A3006 RMK AO2,K2LS,2019-01-12T14:15:00Z,29.42,-90.3,18.0,16.0,150,10,15,10.0,30.059055,,,TRUE,TRUE,,,,,,,SCT,12000,,,,,,,VFR,,,,,,,,,,,,METAR,-2.0
K2J5 121415Z AUTO 05007KT 10SM SCT014 OVC065 05/M02 A3037 RMK AO2 PWINO T00521020,K2J5,2019-01-12T14:15:00Z,32.9,-81.97,5.2,-2.0,50,7,,10.0,30.369095,,,TRUE,TRUE,,,,,TRUE,,SCT,1400,OVC,6500,,,,,VFR,,,,,,,,,,,,METAR,72.0
K2J3 121415Z AUTO 09009KT 10SM SCT012 SCT055 OVC065 05/M02 A3036 RMK AO2 T00541017,K2J3,2019-01-12T14:15:00Z,32.98,-82.38,5.4,-1.7,90,9,,10.0,30.360237,,,TRUE,TRUE,,,,,,,SCT,1200,SCT,5500,OVC,6500,,,VFR,,,,,,,,,,,,METAR,100.0
K2I0 121415Z AUTO 12006KT 10SM SCT100 BKN120 02/01 A3020 RMK AO2 T00150006,K2I0,2019-01-12T14:15:00Z,37.35,-87.4,1.5,0.6,120,6,,10.0,30.200787,,,TRUE,TRUE,,,,,,,SCT,10000,BKN,12000,,,,,VFR,,,,,,,,,,,,METAR,134.0
K2A0 121415Z AUTO 00000KT 10SM FEW055 SCT075 OVC120 05/00 A3026 RMK A01,K2A0,2019-01-12T14:15:00Z,35.48,-84.93,5.0,0.0,0,0,,10.0,30.259842,,,TRUE,TRUE,,,,,,,FEW,5500,SCT,7500,OVC,12000,,,VFR,,,,,,,,,,,,METAR,219.0
K28J 121415Z AUTO 11005KT 10SM SCT060 18/14 A3027 RMK AO2,K28J,2019-01-12T14:15:00Z,29.65,-81.58,18.0,14.0,110,5,,10.0,30.268702,,,TRUE,TRUE,,,,,,,SCT,6000,,,,,,,VFR,,,,,,,,,,,,METAR,15.0
K1U7 121415Z AUTO 00000KT 7SM OVC007 M11/M12 A3023 RMK A01,K1U7,2019-01-12T14:15:00Z,,,-11.0,-12.0,0,0,,7.0,30.230314,,,TRUE,TRUE,,,,,,,OVC,700,,,,,,,IFR,,,,,,,,,,,,METAR,
K1F0 121415Z AUTO 29007KT 250V320 7SM OVC008 05/03 A2993 RMK AO2,K1F0,2019-01-12T14:15:00Z,34.15,-97.12,5.0,3.0,290,7,,7.0,29.929134,,,TRUE,TRUE,,,,,,,OVC,800,,,,,,,IFR,,,,,,,,,,,,METAR,257.0
K1A6 121415Z AUTO 30005KT 10SM -RA BKN020 BKN025 OVC030 03/00 A3031 RMK AO2 T00291001,K1A6,2019-01-12T14:15:00Z,36.62,-83.73,2.9,-0.1,300,5,,10.0,30.31004,,,TRUE,TRUE,,,,,,-RA,BKN,2000,BKN,2500,OVC,3000,,,MVFR,,,,,,,,,,,,METAR,352.0
K19S 121415Z AUTO 35018KT 10SM OVC018 M01/M02 A3012 RMK AO2 T10101022,K19S,2019-01-12T14:15:00Z,37.48,-100.83,-1.0,-2.2,350,18,,10.0,30.121063,,,TRUE,TRUE,,,,,,,OVC,1800,,,,,,,MVFR,,,,,,,,,,,,METAR,886.0
K0R0 121415Z AUTO 11004KT 10SM OVC041 12/10 A3010 RMK AO2,K0R0,2019-01-12T14:15:00Z,31.3,-89.82,12.0,10.0,110,4,,10.0,30.100393,,,TRUE,TRUE,,,,,,,OVC,4100,,,,,,,VFR,,,,,,,,,,,,METAR,81.0
K0A9 121415Z AUTO 08006KT 10SM SCT065 SCT100 05/M06 A3032 RMK AO2,K0A9,2019-01-12T14:15:00Z,36.37,-82.17,5.0,-6.0,80,6,,10.0,30.318897,,,TRUE,TRUE,,,,,,,SCT,6500,SCT,10000,,,,,VFR,,,,,,,,,,,,METAR,486.0
K05U 121415Z AUTO 00000KT 1/4SM FZFG OVC002 M07/M08 A3014 RMK A01,K05U,2019-01-12T14:15:00Z,39.6,-116.0,-7.0,-8.0,0,0,,0.25,30.138779,,,TRUE,TRUE,,,,,,FZFG,OVC,200,,,,,,,LIFR,,,,,,,,,,,,METAR,1816.0
KCHK 121415Z AUTO 33018G23KT 10SM -DZ OVC010 03/01 A2995 RMK AO2 T00280013,KCHK,2019-01-12T14:15:00Z,35.1,-97.97,2.8,1.3,330,18,23,10.0,29.949802,,,TRUE,TRUE,,,,,,-DZ,OVC,1000,,,,,,,MVFR,,,,,,,,,,,,METAR,351.0
KCFD 121415Z AUTO 29010G15KT 10SM SCT011 BKN024 12/12 A3003 RMK AO2 T01200119,KCFD,2019-01-12T14:15:00Z,30.72,-96.33,12.0,11.9,290,10,15,10.0,30.029528,,,TRUE,TRUE,,,,,,,SCT,1100,BKN,2400,,,,,MVFR,,,,,,,,,,,,METAR,112.0
KCCB 121415Z AUTO 06008KT 10SM FEW044 BKN050 OVC060 10/06 A3000 RMK AO2,KCCB,2019-01-12T14:15:00Z,34.12,-117.68,10.0,6.0,60,8,,10.0,30.0,,,TRUE,TRUE,,,,,,,FEW,4400,BKN,5000,OVC,6000,,,VFR,,,,,,,,,,,,METAR,440.0
KC83 121415Z AUTO 29006KT 6SM BR BKN065 OVC075 08/08 A2997 RMK AO2,KC83,2019-01-12T14:15:00Z,37.83,-121.62,8.0,8.0,290,6,,6.0,29.970472,,,TRUE,TRUE,,,,,,BR,BKN,6500,OVC,7500,,,,,VFR,,,,,,,,,,,,METAR,24.0
KC65 121415Z AUTO 08007KT 9SM BKN038 OVC045 M03/M03 A3033 RMK A01,KC65,2019-01-12T14:15:00Z,41.37,-86.3,-3.0,-3.0,80,7,,9.0,30.33071,,,TRUE,TRUE,,,,,,,BKN,3800,OVC,4500,,,,,VFR,,,,,,,,,,,,METAR,244.0
KC29 121415Z AUTO 07006KT 7SM OVC017 M01/M04 A3033 RMK AO1 T10121040,KC29,2019-01-12T14:15:00Z,43.12,-89.53,-1.2,-4.0,70,6,,7.0,30.33071,,,TRUE,TRUE,,,,,,,OVC,1700,,,,,,,MVFR,,,,,,,,,,,,METAR,283.0
KBVS 121415Z AUTO 04011KT 10SM CLR 07/01 A2996 RMK A01,KBVS,2019-01-12T14:15:00Z,48.47,-122.42,7.0,1.0,40,11,,10.0,29.958662,,,TRUE,TRUE,,,,,,,CLR,,,,,,,,VFR,,,,,,,,,,,,METAR,43.0
KBQX 121415Z AUTO 29014KT 1/4SM FG OVC003 16/16 A3004 RMK A01,KBQX,2019-01-12T14:15:00Z,28.5,-95.72,16.0,16.0,290,14,,0.25,30.041338,,,TRUE,TRUE,,,,,,FG,OVC,300,,,,,,,LIFR,,,,,,,,,,,,METAR,34.0
KBQP 121415Z AUTO 12004KT 4SM RA OVC004 08/08 A3000 RMK AO2 P0001 T00780075,KBQP,2019-01-12T14:15:00Z,32.75,-91.88,7.8,7.5,120,4,,4.0,30.0,,,TRUE,TRUE,,,,,,RA,OVC,400,,,,,,,LIFR,,,,,,0.01,,,,,,METAR,51.0
KBPG 121415Z AUTO 29008KT 10SM CLR 03/00 A3017 RMK AO2 T00250004,KBPG,2019-01-12T14:15:00Z,32.22,-101.52,2.5,0.4,290,8,,10.0,30.171259,,,TRUE,TRUE,,,,,,,CLR,,,,,,,,VFR,,,,,,,,,,,,METAR,784.0
KBMT 121415Z AUTO 28010KT 10SM OVC008 17/15 A3000 RMK AO2 T01730154,KBMT,2019-01-12T14:15:00Z,30.07,-94.22,17.3,15.4,280,10,,10.0,30.0,,,TRUE,TRUE,,,,,,,OVC,800,,,,,,,IFR,,,,,,,,,,,,METAR,10.0
KBKT 121415Z AUTO 06005KT 10SM OVC070 00/M08 A3051 RMK AO1 T00001076,KBKT,2019-01-12T14:15:00Z,37.07,-77.95,0.0,-7.6,60,5,,10.0,30.510826,,,TRUE,TRUE,,,,,,,OVC,7000,,,,,,,VFR,,,,,,,,,,,,METAR,134.0
KBJI 121415Z AUTO 08008KT 10SM OVC005 M05/M06 A3039 RMK AO2 T10551060,KBJI,2019-01-12T14:15:00Z,47.5,-94.92,-5.5,-6.0,80,8,,10.0,30.389763,,,TRUE,TRUE,,,,,,,OVC,500,,,,,,,IFR,,,,,,,,,,,,METAR,420.0
KBIE 121415Z AUTO 03009KT 1 1/4SM OVC007 00/00 A3011 RMK AO2 T00001005 PWINO,KBIE,2019-01-12T14:15:00Z,40.28,-96.75,0.0,-0.5,30,9,,1.25,30.109253,,,TRUE,TRUE,,,,,TRUE,,OVC,700,,,,,,,IFR,,,,,,,,,,,,METAR,403.0
KBGF 121415Z AUTO 17007G14KT 10SM BKN024 OVC120 08/M03 A3022 RMK A01,KBGF,2019-01-12T14:15:00Z,35.18,-86.07,8.0,-3.0,170,7,14,10.0,30.221457,,,TRUE,TRUE,,,,,,,BKN,2400,OVC,12000,,,,,MVFR,,,,,,,,,,,,METAR,299.0
KBGE 121415Z 10SM 12/06 A3025 RMK AO2 PWINO,KBGE,2019-01-12T14:15:00Z,30.97,-84.63,12.0,6.0,,,,10.0,30.250984,,,,TRUE,,,,,TRUE,,,,,,,,,,,,,,,,,,,,,,METAR,43.0
KBFW 121415Z AUTO 06011KT 4SM BR OVC005 M04/M04 A3043 RMK AO2,KBFW,2019-01-12T14:15:00Z,47.25,-91.4,-4.0,-4.0,60,11,,4.0,30.431103,,,TRUE,TRUE,,,,,,BR,OVC,500,,,,,,,IFR,,,,,,,,,,,,METAR,331.0
KBBP 121415Z AUTO 03006KT 10SM SCT110 02/M03 A3047 RMK AO2,KBBP,2019-01-12T14:15:00Z,34.62,-79.73,2.0,-3.0,30,6,,10.0,30.469488,,,TRUE,TRUE,,,,,,,SCT,11000,,,,,,,VFR,,,,,,,,,,,,METAR,45.0
KBBF 121415Z AUTO 32017KT 1/2SM FG OVC004 18/16 A3003 RMK A01 VIS M1/4V5,KBBF,2019-01-12T14:15:00Z,27.83,-96.02,18.0,16.0,320,17,,0.5,30.029528,,,TRUE,TRUE,,,,,,FG,OVC,400,,,,,,,LIFR,,,,,,,,,,,,METAR,36.0
KBBD 121415Z AUTO 31016G21KT 10SM CLR 06/03 A3009 RMK AO2,KBBD,2019-01-12T14:15:00Z,31.18,-99.32,6.0,3.0,310,16,21,10.0,30.088583,,,TRUE,TRUE,,,,,,,CLR,,,,,,,,VFR,,,,,,,,,,,,METAR,557.0
KAVQ 121415Z AUTO 11006KT 10SM CLR 06/01 RMK AO2 T00560012,KAVQ,2019-01-12T14:15:00Z,32.4,-111.22,5.6,1.2,110,6,,10.0,,,,TRUE,TRUE,,,,,,,CLR,,,,,,,,VFR,,,,,,,,,,,,METAR,619.0
KAVK 121415Z AUTO 35017KT 10SM BKN015 OVC044 01/01 A3003 RMK AO2 LTG DSNT N,KAVK,2019-01-12T14:15:00Z,36.77,-98.67,1.0,1.0,350,17,,10.0,30.029528,,,TRUE,TRUE,,,,,,,BKN,1500,OVC,4400,,,,,MVFR,,,,,,,,,,,,METAR,449.0
KAUN 121415Z AUTO 09005KT 10SM CLR 08/00 A2995 RMK A01,KAUN,2019-01-12T14:15:00Z,38.95,-121.08,8.0,0.0,90,5,,10.0,29.949802,,,TRUE,TRUE,,,,,,,CLR,,,,,,,,VFR,,,,,,,,,,,,METAR,467.0
KAUH 121415Z AUTO 36014G23KT 7SM OVC007 M04/M05 A3017 RMK AO2 T10421047,KAUH,2019-01-12T14:15:00Z,40.88,-98.0,-4.2,-4.7,360,14,23,7.0,30.171259,,,TRUE,TRUE,,,,,,,OVC,700,,,,,,,IFR,,,,,,,,,,,,METAR,550.0
KATP 121415Z AUTO VRB04G11KT 10SM OVC060 23/16 A3011 RMK A01,KATP,2019-01-12T14:15:00Z,27.2,-90.03,23.0,16.0,0,4,11,10.0,30.109253,,,TRUE,TRUE,,,,,,,OVC,6000,,,,,,,VFR,,,,,,,,,,,,METAR,62.0
KASL 121415Z AUTO 19003KT 1SM OVC002 09/08 A2997 RMK AO1 T00880079,KASL,2019-01-12T14:15:00Z,32.52,-94.3,8.8,7.9,190,3,,1.0,29.970472,,,TRUE,TRUE,,,,,,,OVC,200,,,,,,,LIFR,,,,,,,,,,,,METAR,109.0
KARW 121415Z AUTO 04010KT 5SM HZ OVC060 06/03 A3038 RMK AO2,KARW,2019-01-12T14:15:00Z,32.42,-80.63,6.0,3.0,40,10,,5.0,30.380905,,,TRUE,TRUE,,,,,,HZ,OVC,6000,,,,,,,MVFR,,,,,,,,,,,,METAR,4.0
KAQR 121415Z AUTO 24008KT 10SM OVC013 06/06 A2990 RMK AO2,KAQR,2019-01-12T14:15:00Z,34.4,-96.15,6.0,6.0,240,8,,10.0,29.899607,,,TRUE,TRUE,,,,,,,OVC,1300,,,,,,,MVFR,,,,,,,,,,,,METAR,189.0
KANW 121415Z AUTO 35009KT 1SM BR OVC002 M07/M07 A3023 RMK AO2 T10701073,KANW,2019-01-12T14:15:00Z,42.57,-100.0,-7.0,-7.3,350,9,,1.0,30.230314,,,TRUE,TRUE,,,,,,BR,OVC,200,,,,,,,LIFR,,,,,,,,,,,,METAR,789.0
KALX 121415Z AUTO 10SM OVC028 08/M01 A3024 RMK AO2 T00781008,KALX,2019-01-12T14:15:00Z,32.92,-85.97,7.8,-0.8,,,,10.0,30.239174,,,TRUE,TRUE,,,,,,,OVC,2800,,,,,,,MVFR,,,,,,,,,,,,METAR,209.0
KAJG 121415Z AUTO 00000KT 3SM -RA BKN007 BKN020 OVC047 00/00 A3021 RMK AO2 T00000000,KAJG,2019-01-12T14:15:00Z,38.62,-87.73,0.0,0.0,0,0,,3.0,30.209646,,,TRUE,TRUE,,,,,,-RA,BKN,700,BKN,2000,OVC,4700,,,IFR,,,,,,,,,,,,METAR,131.0
KAIG 121415Z AUTO 08010G15KT 4SM BR OVC003 M05/M05 A3038 RMK AO2 T10501051,KAIG,2019-01-12T14:15:00Z,45.15,-89.12,-5.0,-5.1,80,10,15,4.0,30.380905,,,TRUE,TRUE,,,,,,BR,OVC,300,,,,,,,LIFR,,,,,,,,,,,,METAR,464.0
KAHQ 121415Z AUTO 35013KT 1 1/4SM -SN BKN007 OVC014 M02/M02 A3017 RMK AO2 T10161017,KAHQ,2019-01-12T14:15:00Z,41.23,-96.6,-1.6,-1.7,350,13,,1.25,30.171259,,,TRUE,TRUE,,,,,,-SN,BKN,700,OVC,1400,,,,,IFR,,,,,,,,,,,,METAR,374.0
PAAD 121415Z AUTO 24012KT 10SM SCT030 BKN038 M37/M40 A3035 RMK AO2 T13661400,PAAD,2019-01-12T14:15:00Z,70.13,-146.28,-36.6,-40.0,240,12,,10.0,30.351377,,,TRUE,TRUE,,,,,,,SCT,3000,BKN,3800,,,,,VFR,,,,,,,,,,,,METAR,8.0
KENL 121415Z AUTO 09010KT 3SM BR OVC004 01/01 A3015 RMK AO2 T00050005,KENL,2019-01-12T14:15:00Z,38.52,-89.1,0.5,0.5,90,10,,3.0,30.15059,,,TRUE,TRUE,,,,,,BR,OVC,400,,,,,,,LIFR,,,,,,,,,,,,METAR,163.0
KMUT 121415Z AUTO 07008KT 3/4SM -SN BKN003 OVC008 M01/M02 A3025 RMK AO2,KMUT,2019-01-12T14:15:00Z,41.37,-91.15,-1.0,-2.0,70,8,,0.75,30.250984,,,TRUE,TRUE,,,,,,-SN,BKN,300,OVC,800,,,,,LIFR,,,,,,,,,,,,SPECI,167.0
KMPZ 121415Z AUTO 08011KT 3/4SM -SN OVC010 M01/M01 A3019 RMK AO2,KMPZ,2019-01-12T14:15:00Z,40.95,-91.52,-1.0,-1.0,80,11,,0.75,30.188976,,,TRUE,TRUE,,,,,,-SN,OVC,1000,,,,,,,LIFR,,,,,,,,,,,,SPECI,224.0
KCVH 121415Z AUTO 00000KT 10SM BKN095 BKN110 11/07 A2994 RMK A01,KCVH,2019-01-12T14:15:00Z,36.9,-121.42,11.0,7.0,0,0,,10.0,29.940945,,,TRUE,TRUE,,,,,,,BKN,9500,BKN,11000,,,,,VFR,,,,,,,,,,,,SPECI,70.0
KCSQ 121415Z AUTO 06014KT 1/2SM -SN OVC003 M02/M03 A3013 RMK AO2,KCSQ,2019-01-12T14:15:00Z,41.02,-94.37,-2.0,-3.0,60,14,,0.5,30.129921,,,TRUE,TRUE,,,,,,-SN,OVC,300,,,,,,,LIFR,,,,,,,,,,,,SPECI,394.0
KCQW 121415Z AUTO 07006KT 10SM SCT110 03/M05 A3046 RMK AO2,KCQW,2019-01-12T14:15:00Z,34.72,-79.95,3.0,-5.0,70,6,,10.0,30.46063,,,TRUE,TRUE,,,,,,,SCT,11000,,,,,,,VFR,,,,,,,,,,,,SPECI,73.0
KCPT 121415Z AUTO 29015KT 10SM CLR 06/03 A3003 RMK AO2,KCPT,2019-01-12T14:15:00Z,32.35,-97.43,6.0,3.0,290,15,,10.0,30.029528,,,TRUE,TRUE,,,,,,,CLR,,,,,,,,VFR,,,,,,,,,,,,SPECI,260.0
KCNC 121415Z AUTO 05010KT 1/2SM -SN OVC003 M02/M03 A3014 RMK AO2,KCNC,2019-01-12T14:15:00Z,41.02,-93.37,-2.0,-3.0,50,10,,0.5,30.138779,,,TRUE,TRUE,,,,,,-SN,OVC,300,,,,,,,LIFR,,,,,,,,,,,,SPECI,320.0
KCMR 121415Z AUTO 11003KT 10SM CLR M04/M10 A3013 RMK AO2,KCMR,2019-01-12T14:15:00Z,35.3,-112.2,-4.0,-10.0,110,3,,10.0,30.129921,,,TRUE,TRUE,,,,,,,CLR,,,,,,,,VFR,,,,,,,,,,,,METAR,2036.0
K9V9 121415Z AUTO 01009KT 5SM BR OVC004 M07/M07 A3032 RMK AO2 T10731073,K9V9,2019-01-12T14:15:00Z,43.77,-99.32,-7.3,-7.3,10,9,,5.0,30.318897,,,TRUE,TRUE,,,,,,BR,OVC,400,,,,,,,LIFR,,,,,,,,,,,,METAR,519.0
K8A3 121415Z AUTO 13003KT 10SM FEW036 SCT049 BKN060 05/M01 A3021 RMK A01,K8A3,2019-01-12T14:15:00Z,36.42,-85.32,5.0,-1.0,130,3,,10.0,30.209646,,,TRUE,TRUE,,,,,,,FEW,3600,SCT,4900,BKN,6000,,,VFR,,,,,,,,,,,,METAR,419.0
K8A0 121415Z AUTO 12006KT 10SM OVC022 06/M03 A3021 RMK AO2,K8A0,2019-01-12T14:15:00Z,34.23,-86.25,6.0,-3.0,120,6,,10.0,30.209646,,,TRUE,TRUE,,,,,,,OVC,2200,,,,,,,MVFR,,,,,,,,,,,,METAR,315.0
K6S0 121415Z AUTO 25009G16KT 10SM CLR M02/M10 A3014 RMK A01,K6S0,2019-01-12T14:15:00Z,45.8,-109.97,-2.0,-10.0,250,9,16,10.0,30.138779,,,TRUE,TRUE,,,,,,,CLR,,,,,,,,VFR,,,,,,,,,,,,METAR,1363.0
K6R3 121415Z AUTO 00000KT 5SM BR BKN007 15/15 A3001 RMK AO2 T01500150,K6R3,2019-01-12T14:15:00Z,30.35,-95.0,15.0,15.0,0,0,,5.0,30.008858,,,TRUE,TRUE,,,,,,BR,BKN,700,,,,,,,IFR,,,,,,,,,,,,METAR,46.0
KADH 121415Z AUTO 27007KT 1 3/4SM BR OVC005 05/05 A2987 RMK AO2,KADH,2019-01-12T14:15:00Z,34.8,-96.67,5.0,5.0,270,7,,1.75,29.870079,,,TRUE,TRUE,,,,,,BR,OVC,500,,,,,,,IFR,,,,,,,,,,,,METAR,308.0
KDCM 121415Z AUTO 07005KT 10SM OVC110 02/M05 A3043 RMK AO2,KDCM,2019-01-12T14:15:00Z,34.78,-81.2,2.0,-5.0,70,5,,10.0,30.431103,,,TRUE,TRUE,,,,,,,OVC,11000,,,,,,,VFR,,,,,,,,,,,,METAR,200.0
KAID 121415Z AUTO 00000KT 3/4SM -SN OVC012 M02/M03 A3030 RMK AO2 P0001 T10211030,KAID,2019-01-12T14:15:00Z,40.12,-85.62,-2.1,-3.0,0,0,,0.75,30.301182,,,TRUE,TRUE,,,,,,-SN,OVC,1200,,,,,,,LIFR,,,,,,0.01,,,,,,SPECI,280.0
KCKM 121415Z AUTO 12008KT 4SM BR FEW034 BKN055 OVC065 07/07 A3002 RMK A01,KCKM,2019-01-12T14:15:00Z,34.3,-90.52,7.0,7.0,120,8,,4.0,30.02067,,,TRUE,TRUE,,,,,,BR,FEW,3400,BKN,5500,OVC,6500,,,MVFR,,,,,,,,,,,,METAR,53.0
KAFK 121415Z AUTO 03013KT 1/2SM -SN OVC003 M01/M01 A3012 RMK AO2 T10101015,KAFK,2019-01-12T14:15:00Z,40.6,-95.85,-1.0,-1.5,30,13,,0.5,30.121063,,,TRUE,TRUE,,,,,,-SN,OVC,300,,,,,,,LIFR,,,,,,,,,,,,METAR,354.0
KLQK 121415Z AUTO 08003KT 10SM OVC042 03/M05 A3039 RMK AO2 T00321047,KLQK,2019-01-12T14:15:00Z,34.82,-82.7,3.2,-4.7,80,3,,10.0,30.389763,,,TRUE,TRUE,,,,,,,OVC,4200,,,,,,,VFR,,,,,,,,,,,,METAR,309.0
KFKA 121415Z AUTO 06007KT 7SM BKN034 OVC060 M03/M06 A3029 RMK AO2 T10311056,KFKA,2019-01-12T14:15:00Z,43.68,-92.17,-3.1,-5.6,60,7,,7.0,30.28937,,,TRUE,TRUE,,,,,,,BKN,3400,OVC,6000,,,,,VFR,,,,,,,,,,,,METAR,389.0
KFGN 121415Z AUTO 07003KT 10SM OVC010 M09/M10 A3046 RMK AO2,KFGN,2019-01-12T14:15:00Z,49.32,-94.9,-9.0,-10.0,70,3,,10.0,30.46063,,,TRUE,TRUE,,,,,,,OVC,1000,,,,,,,MVFR,,,,,,,,,,,,METAR,328.0
KFET 121415Z AUTO 35007G15KT 1 3/4SM -SN BKN006 OVC010 M01/M02 A3019 RMK AO2 T10121021,KFET,2019-01-12T14:15:00Z,41.45,-96.52,-1.2,-2.1,350,7,15,1.75,30.188976,,,TRUE,TRUE,,,,,,-SN,BKN,600,OVC,1000,,,,,IFR,,,,,,,,,,,,METAR,367.0
KFCH 121415Z AUTO 26006KT 9SM BKN110 09/09 A2996 RMK A01,KFCH,2019-01-12T14:15:00Z,36.72,-119.82,9.0,9.0,260,6,,9.0,29.958662,,,TRUE,TRUE,,,,,,,BKN,11000,,,,,,,VFR,,,,,,,,,,,,METAR,85.0
KF70 121415Z AUTO 03004KT 10SM OVC050 09/09 A3003 RMK AO1 P0001,KF70,2019-01-12T14:15:00Z,33.57,-117.13,9.0,9.0,30,4,,10.0,30.029528,,,TRUE,TRUE,,,,,,,OVC,5000,,,,,,,VFR,,,,,,0.01,,,,,,METAR,412.0
KEZZ 121415Z AUTO 04008KT 1 3/4SM -SN BR OVC005 M02/M03 A3006 RMK AO2 T10241031,KEZZ,2019-01-12T14:15:00Z,39.72,-94.28,-2.4,-3.1,40,8,,1.75,30.059055,,,TRUE,TRUE,,,,,,-SN BR,OVC,500,,,,,,,IFR,,,,,,,,,,,,METAR,317.0
KEZF 121415Z AUTO 00000KT 10SM SCT060 OVC090 00/M05 A3055 RMK AO2 T00001050,KEZF,2019-01-12T14:15:00Z,38.27,-77.45,0.0,-5.0,0,0,,10.0,30.549213,,,TRUE,TRUE,,,,,,,SCT,6000,OVC,9000,,,,,VFR,,,,,,,,,,,,METAR,26.0
KEVU 121415Z AUTO 04011KT 3SM -SN OVC007 M01/M01 A3009 RMK AO2,KEVU,2019-01-12T14:15:00Z,40.35,-94.92,-1.0,-1.0,40,11,,3.0,30.088583,,,TRUE,TRUE,,,,,,-SN,OVC,700,,,,,,,IFR,,,,,,,,,,,,METAR,349.0
KETB 121415Z AUTO 10007KT 10SM BKN016 OVC060 00/M02 A3037 RMK AO2,KETB,2019-01-12T14:15:00Z,43.42,-88.13,0.0,-2.0,100,7,,10.0,30.369095,,,TRUE,TRUE,,,,,,,BKN,1600,OVC,6000,,,,,MVFR,,,,,,,,,,,,METAR,270.0
KFKN 121415Z AUTO 02003KT 10SM OVC110 01/M05 A3056 RMK AO2 T00061052,KFKN,2019-01-12T14:15:00Z,36.7,-76.9,0.6,-5.2,20,3,,10.0,30.561024,,,TRUE,TRUE,,,,,,,OVC,11000,,,,,,,VFR,,,,,,,,,,,,METAR,12.0
KFOA 121415Z AUTO 08010KT 3SM BR OVC004 01/00 A3017 RMK AO2 T00060001,KFOA,2019-01-12T14:15:00Z,38.67,-88.45,0.6,0.1,80,10,,3.0,30.171259,,,TRUE,TRUE,,,,,,BR,OVC,400,,,,,,,LIFR,,,,,,,,,,,,METAR,144.0
KFOT 121415Z AUTO 10007KT 10SM FEW060 BKN090 OVC110 12/12 A2991 RMK AO1 P0002,KFOT,2019-01-12T14:15:00Z,40.55,-124.13,12.0,12.0,100,7,,10.0,29.911417,,,TRUE,TRUE,,,,,,,FEW,6000,BKN,9000,OVC,11000,,,VFR,,,,,,0.02,,,,,,METAR,120.0
KFTN 121415Z AUTO 33007KT 8SM OVC005 12/12 A3012 RMK A01,KFTN,2019-01-12T14:15:00Z,28.22,-100.02,12.0,12.0,330,7,,8.0,30.121063,,,TRUE,TRUE,,,,,,,OVC,500,,,,,,,IFR,,,,,,,,,,,,METAR,236.0
KFVX 121415Z AUTO 03003KT 10SM OVC070 00/M07 A3050 RMK AO2 T10051066,KFVX,2019-01-12T14:15:00Z,37.35,-78.42,-0.5,-6.6,30,3,,10.0,30.499016,,,TRUE,TRUE,,,,,,,OVC,7000,,,,,,,VFR,,,,,,,,,,,,METAR,125.0
KFWB 121415Z AUTO 11006G16KT 2 1/2SM -RA OVC003 00/00 A2991 RMK AO2,KFWB,2019-01-12T14:15:00Z,36.7,-93.4,0.0,0.0,110,6,16,2.5,29.911417,,,TRUE,TRUE,,,,,,-RA,OVC,300,,,,,,,LIFR,,,,,,,,,,,,METAR,406.0
KFWC 121415Z AUTO 07006KT 5SM BR OVC004 01/01 A3017 RMK AO1 T00050005,KFWC,2019-01-12T14:15:00Z,38.38,-88.42,0.5,0.5,70,6,,5.0,30.171259,,,TRUE,TRUE,,,,,,BR,OVC,400,,,,,,,LIFR,,,,,,,,,,,,METAR,133.0
KFXY 121415Z AUTO 06006KT 10SM SCT021 OVC065 M01/M03 A3024 RMK AO2,KFXY,2019-01-12T14:15:00Z,43.23,-93.62,-1.0,-3.0,60,6,,10.0,30.239174,,,TRUE,TRUE,,,,,,,SCT,2100,OVC,6500,,,,,VFR,,,,,,,,,,,,METAR,375.0
KFYE 121415Z AUTO VRB06G12KT 10SM SCT038 BKN060 OVC095 09/00 A3005 RMK A01,KFYE,2019-01-12T14:15:00Z,35.2,-89.38,9.0,0.0,0,6,12,10.0,30.050198,,,TRUE,TRUE,,,,,,,SCT,3800,BKN,6000,OVC,9500,,,VFR,,,,,,,,,,,,METAR,133.0
KMBY 121415Z AUTO 06010KT 1SM -SN OVC008 00/M02 A3007 RMK AO2,KMBY,2019-01-12T14:15:00Z,39.47,-92.43,0.0,-2.0,60,10,,1.0,30.070866,,,TRUE,TRUE,,,,,,-SN,OVC,800,,,,,,,IFR,,,,,,,,,,,,SPECI,264.0
KGGI 121415Z AUTO 07012KT 1 3/4SM -SN OVC007 M02/M03 A3020 RMK AO2 T10221028,KGGI,2019-01-12T14:15:00Z,41.72,-92.73,-2.2,-2.8,70,12,,1.75,30.200787,,,TRUE,TRUE,,,,,,-SN,OVC,700,,,,,,,IFR,,,,,,,,,,,,METAR,307.0
KEZS 121415Z AUTO 07007KT 4SM BR OVC004 00/M02 A3040 RMK AO2 T10051016,KEZS,2019-01-12T14:15:00Z,44.78,-88.57,-0.5,-1.6,70,7,,4.0,30.398623,,,TRUE,TRUE,,,,,,BR,OVC,400,,,,,,,LIFR,,,,,,,,,,,,METAR,248.0
KMYV 121414Z AUTO 36003KT 2SM BR CLR 04/04 A2997 RMK AO2 T00440039,KMYV,2019-01-12T14:14:00Z,39.1,-121.57,4.4,3.9,360,3,,2.0,29.970472,,,TRUE,TRUE,,,,,,BR,CLR,,,,,,,,IFR,,,,,,,,,,,,SPECI,21.0
KVTA 121414Z AUTO 07005KT 3/4SM -SN VV019 M03/M06 A3038 RMK AO2 P0001 T10281056,KVTA,2019-01-12T14:14:00Z,40.02,-82.47,-2.8,-5.6,70,5,,0.75,30.380905,,,TRUE,TRUE,,,,,,-SN,OVX,0,,,,,,,LIFR,,,,,,0.01,,,,,1900,SPECI,268.0
KVIH 121414Z AUTO 10012KT 3/4SM -SN BR SCT003 BKN007 OVC026 00/M01 A3000 RMK AO2 P0002 T00001011,KVIH,2019-01-12T14:14:00Z,38.13,-91.77,0.0,-1.1,100,12,,0.75,30.0,,,TRUE,TRUE,,,,,,-SN BR,SCT,300,BKN,700,OVC,2600,,,LIFR,,,,,,0.02,,,,,,SPECI,333.0
KUTS 121414Z AUTO 25006KT 5SM BR SCT002 OVC027 13/13 A3000 RMK AO2 T01280128,KUTS,2019-01-12T14:14:00Z,30.75,-95.58,12.8,12.8,250,6,,5.0,30.0,,,TRUE,TRUE,,,,,,BR,SCT,200,OVC,2700,,,,,MVFR,,,,,,,,,,,,SPECI,104.0
KTYR 121414Z 28011KT 10SM FEW010 OVC020 11/08 A2996 RMK AO2 T01060078,KTYR,2019-01-12T14:14:00Z,32.37,-95.4,10.6,7.8,280,11,,10.0,29.958662,,,,TRUE,,,,,,,FEW,1000,OVC,2000,,,,,MVFR,,,,,,,,,,,,SPECI,165.0
FMMI 121414Z 03010KT 9999 TS FEW005 SCT017CB BKN020 24/17 Q1016 TEMPO 4000 TSRA,FMMI,2019-01-12T14:14:00Z,-18.8,47.47,24.0,17.0,30,10,,6.21,30.0,,,,,,,,,,TS,FEW,500,SCT,1700,BKN,2000,,,MVFR,,,,,,,,,,,,SPECI,1276.0
K2V6 121414Z AUTO 32004KT 10SM OVC036 00/M01 A3018 RMK AO2,K2V6,2019-01-12T14:14:00Z,40.1,-102.72,0.0,-1.0,320,4,,10.0,30.180119,,,TRUE,TRUE,,,,,,,OVC,3600,,,,,,,VFR,,,,,,,,,,,,METAR,1261.0
KOWA 121414Z AUTO 09007KT 10SM OVC042 M03/M06 A3028 RMK AO2,KOWA,2019-01-12T14:14:00Z,44.12,-93.25,-3.0,-6.0,90,7,,10.0,30.280512,,,TRUE,TRUE,,,,,,,OVC,4200,,,,,,,VFR,,,,,,,,,,,,SPECI,350.0
KGBD 121414Z AUTO 36020KT 2SM -SN BR OVC007 M01/M02 A3008 RMK AO2 CIG 006V012 P0000 FZRANO,KGBD,2019-01-12T14:14:00Z,38.35,-98.87,-1.0,-2.0,360,20,,2.0,30.079725,,,TRUE,TRUE,,,,TRUE,,-SN BR,OVC,700,,,,,,,IFR,,,,,,0.005,,,,,,SPECI,575.0
PADK 121414Z AUTO 07011KT 10SM FEW021 SCT026 OVC037 03/01 A2873 RMK AO2 UPE04 P0000,PADK,2019-01-12T14:14:00Z,51.88,-176.65,3.0,1.0,70,11,,10.0,28.730314,,,TRUE,TRUE,,,,,,,FEW,2100,SCT,2600,OVC,3700,,,VFR,,,,,,0.005,,,,,,SPECI,4.0
PAAK 121414Z AUTO 08019KT 8SM BKN014 OVC025 03/02 A2880 RMK AO2 PNO $,PAAK,2019-01-12T14:14:00Z,52.22,-174.2,3.0,2.0,80,19,,8.0,28.801182,,,TRUE,TRUE,TRUE,,,,,,BKN,1400,OVC,2500,,,,,MVFR,,,,,,,,,,,,SPECI,17.0
CYPH 121414Z AUTO 36013KT 9SM CLR M20/M23 A3040 RMK SLP299,CYPH,2019-01-12T14:14:00Z,58.45,-78.08,-20.0,-23.0,360,13,,9.0,30.398623,1029.9,,TRUE,,,,,,,,CLR,,,,,,,,VFR,,,,,,,,,,,,SPECI,3.0
MMTO 121414Z 00000KT 3SM BR HZ SCT070 07/05 A3041 RMK 8/030 ISOL CU,MMTO,2019-01-12T14:14:00Z,19.35,-99.57,7.0,5.0,0,0,,3.0,30.410433,,,,,,,,,,BR HZ,SCT,7000,,,,,,,MVFR,,,,,,,,,,,,SPECI,2576.0
KJBR 121414Z AUTO 06009KT 7SM -RA BKN029 BKN033 OVC055 03/03 A3004 RMK AO2 P0001 T00330033,KJBR,2019-01-12T14:14:00Z,35.83,-90.65,3.3,3.3,60,9,,7.0,30.041338,,,TRUE,TRUE,,,,,,-RA,BKN,2900,BKN,3300,OVC,5500,,,MVFR,,,,,,0.01,,,,,,SPECI,79.0
KFOZ 121414Z AUTO 06006KT 7SM OVC005 M07/M08 A3043 RMK AO2,KFOZ,2019-01-12T14:14:00Z,47.77,-93.65,-7.0,-8.0,60,6,,7.0,30.431103,,,TRUE,TRUE,,,,,,,OVC,500,,,,,,,IFR,,,,,,,,,,,,SPECI,411.0
KDEC 121414Z 09013KT 1 1/4SM -SN BR SCT007 BKN012 OVC019 M01/M03 A3022 RMK AO2 P0000 T10111028,KDEC,2019-01-12T14:14:00Z,39.83,-88.85,-1.1,-2.8,90,13,,1.25,30.221457,,,,TRUE,,,,,,-SN BR,SCT,700,BKN,1200,OVC,1900,,,IFR,,,,,,0.005,,,,,,SPECI,207.0
KGEY 121414Z AUTO 00000KT 1 1/4SM BR OVC002 M08/M08 A3023 RMK AO2 T10781083,KGEY,2019-01-12T14:14:00Z,44.52,-108.08,-7.8,-8.3,0,0,,1.25,30.230314,,,TRUE,TRUE,,,,,,BR,OVC,200,,,,,,,LIFR,,,,,,,,,,,,SPECI,1191.0
KGZH 121414Z AUTO 13007KT 10SM BKN013 11/07 A3018 RMK AO2 T01060072,KGZH,2019-01-12T14:14:00Z,31.42,-87.05,10.6,7.2,130,7,,10.0,30.180119,,,TRUE,TRUE,,,,,,,BKN,1300,,,,,,,MVFR,,,,,,,,,,,,SPECI,78.0
LICD 121413Z 32019G31KT 8000 TSRA SCT020CB 09/05 Q1018,LICD,2019-01-12T14:13:00Z,35.5,12.62,9.0,5.0,320,19,31,4.97,30.059055,,,,,,,,,,TSRA,SCT,2000,,,,,,,MVFR,,,,,,,,,,,,SPECI,20.0
KENV 121413Z AUTO 00000KT 2 1/2SM BR OVC004 M02/M03 A3027 RMK AO2 VIS 1 3/4V3 FZRANO,KENV,2019-01-12T14:13:00Z,40.72,-114.02,-2.0,-3.0,0,0,,2.5,30.268702,,,TRUE,TRUE,,,,TRUE,,BR,OVC,400,,,,,,,LIFR,,,,,,,,,,,,SPECI,1292.0
KNGP 121413Z 33007KT 4SM BR OVC006 17/16 A3006 RMK AO2 T01670156 $,KNGP,2019-01-12T14:13:00Z,27.68,-97.27,16.7,15.6,330,7,,4.0,30.059055,,,,TRUE,TRUE,,,,,BR,OVC,600,,,,,,,IFR,,,,,,,,,,,,SPECI,6.0
KXVG 121413Z AUTO 00000KT 5SM BR OVC007 M04/M05 A3039 RMK AO2,KXVG,2019-01-12T14:13:00Z,46.98,-94.2,-4.0,-5.0,0,0,,5.0,30.389763,,,TRUE,TRUE,,,,,,BR,OVC,700,,,,,,,IFR,,,,,,,,,,,,SPECI,407.0
KETH 121413Z AUTO 33006KT 7SM CLR M07/M08 A3038 RMK AO2,KETH,2019-01-12T14:13:00Z,45.78,-96.55,-7.0,-8.0,330,6,,7.0,30.380905,,,TRUE,TRUE,,,,,,,CLR,,,,,,,,VFR,,,,,,,,,,,,SPECI,313.0
KSAF 121413Z 00000KT 9SM OVC005 M02/M03 A3018 RMK AO2 CIG 003V006 T10221028,KSAF,2019-01-12T14:13:00Z,35.62,-106.1,-2.2,-2.8,0,0,,9.0,30.180119,,,,TRUE,,,,,,,OVC,500,,,,,,,IFR,,,,,,,,,,,,SPECI,1930.0
KRVS 121413Z 01004KT 3SM -RA BR BKN005 OVC019 04/03 A2990 RMK AO2 P0001 T00440033,KRVS,2019-01-12T14:13:00Z,36.05,-95.98,4.4,3.3,10,4,,3.0,29.899607,,,,TRUE,,,,,,-RA BR,BKN,500,OVC,1900,,,,,IFR,,,,,,0.01,,,,,,SPECI,200.0
KIDA 121413Z 02005KT 3SM R21/3500VP6000FT BR BKN002 M14/M16 A3027 RMK AO2 T11441156,KIDA,2019-01-12T14:13:00Z,43.52,-112.07,-14.4,-15.6,20,5,,3.0,30.268702,,,,TRUE,,,,,,BR,BKN,200,,,,,,,LIFR,,,,,,,,,,,,SPECI,1453.0
KHIE 121413Z AUTO 22005KT 10SM BKN028 M18/M22 A3042 RMK AO2 T11831222,KHIE,2019-01-12T14:13:00Z,44.37,-71.55,-18.3,-22.2,220,5,,10.0,30.41929,,,TRUE,TRUE,,,,,,,BKN,2800,,,,,,,MVFR,,,,,,,,,,,,SPECI,318.0
KCLM 121413Z AUTO 00000KT 3SM BR FEW002 FEW100 01/01 A2994 RMK AO2 T00110006,KCLM,2019-01-12T14:13:00Z,48.12,-123.5,1.1,0.6,0,0,,3.0,29.940945,,,TRUE,TRUE,,,,,,BR,FEW,200,FEW,10000,,,,,MVFR,,,,,,,,,,,,SPECI,85.0
KBZN 121413Z 00000KT 2 1/2SM HZ BKN002 M12/M15 A3023 RMK AO2 T11221150,KBZN,2019-01-12T14:13:00Z,45.78,-111.17,-12.2,-15.0,0,0,,2.5,30.230314,,,,TRUE,,,,,,HZ,BKN,200,,,,,,,LIFR,,,,,,,,,,,,SPECI,1361.0
KAUW 121413Z AUTO 08009KT 6SM BR OVC008 M04/M06 A3036 RMK AO2 CIG 006V011 T10391061,KAUW,2019-01-12T14:13:00Z,44.93,-89.62,-3.9,-6.1,80,9,,6.0,30.360237,,,TRUE,TRUE,,,,,,BR,OVC,800,,,,,,,IFR,,,,,,,,,,,,SPECI,362.0
KAKO 121413Z AUTO 01005KT 3SM -SN BR FEW005 BKN010 OVC036 M01/M01 A3018 RMK AO2 P0001 T10061006,KAKO,2019-01-12T14:13:00Z,40.17,-103.22,-0.6,-0.6,10,5,,3.0,30.180119,,,TRUE,TRUE,,,,,,-SN BR,FEW,500,BKN,1000,OVC,3600,,,MVFR,,,,,,0.01,,,,,,SPECI,1421.0
MHSC 121413Z AUTO 32004KT 9999 SCT014 21/18 A3013 RMK AO2 SLP176 $,MHSC,2019-01-12T14:13:00Z,14.37,-87.62,21.0,18.0,320,4,,6.21,30.129921,1017.6,,TRUE,TRUE,TRUE,,,,,,SCT,1400,,,,,,,VFR,,,,,,,,,,,,SPECI,626.0
KSXS 121413Z AUTO 13008KT 10SM BKN028 BKN034 OVC046 09/05 A3023 RMK AO2 PRESRR SLP240,KSXS,2019-01-12T14:13:00Z,31.37,-85.85,9.0,5.0,130,8,,10.0,30.230314,1024.0,,TRUE,TRUE,,,,,,,BKN,2800,BKN,3400,OVC,4600,,,MVFR,,,,,,,,,,,,SPECI,122.0
KOZR 121413Z AUTO 08004KT 10SM SCT034 SCT049 10/05 A3023 RMK AO2 PRESRR SLP240,KOZR,2019-01-12T14:13:00Z,31.28,-85.72,10.0,5.0,80,4,,10.0,30.230314,1024.0,,TRUE,TRUE,,,,,,,SCT,3400,SCT,4900,,,,,VFR,,,,,,,,,,,,SPECI,93.0
CYPR 121413Z AUTO 05004KT 350V060 6SM BR BKN039 OVC060 03/03 A2982 RMK SLP101,CYPR,2019-01-12T14:13:00Z,54.28,-130.42,3.0,3.0,50,4,,6.0,29.819881,1010.1,,TRUE,,,,,,,BR,BKN,3900,OVC,6000,,,,,VFR,,,,,,,,,,,,SPECI,34.0
KORB 121413Z AUTO 00000KT 10SM OVC009 M08/M11 A3043 RMK AO2,KORB,2019-01-12T14:13:00Z,48.02,-92.87,-8.0,-11.0,0,0,,10.0,30.431103,,,TRUE,TRUE,,,,,,,OVC,900,,,,,,,IFR,,,,,,,,,,,,SPECI,397.0
PAFB 121413Z AUTO 00000KT 1 3/8SM HZ M M43/M47 A3006,PAFB,2019-01-12T14:13:00Z,64.83,-147.62,-43.0,-47.0,0,0,,1.38,30.059055,,,TRUE,,,,,,,HZ,,,,,,,,,,,,,,,,,,,,,SPECI,137.0
EHLW 121413Z AUTO 29014KT 260V320 9999 FEW019 SCT024 OVC027 08/06 Q1011 WHT,EHLW,2019-01-12T14:13:00Z,53.22,5.75,8.0,6.0,290,14,,6.21,29.852362,,,TRUE,,,,,,,,FEW,1900,SCT,2400,OVC,2700,,,MVFR,,,,,,,,,,,,SPECI,2.0
EBFN 121413Z AUTO 27016KT 8000 -RA /// 09/07 Q1019 BLU,EBFN,2019-01-12T14:13:00Z,51.07,2.63,9.0,7.0,270,16,,4.97,30.088583,,,TRUE,,,,,,,-RA,,,,,,,,,,,,,,,,,,,,,SPECI,9.0
KMYP 121412Z AUTO M11/M13 A3019 RMK AO2 PWINO,KMYP,2019-01-12T14:12:00Z,38.48,-106.32,-11.0,-13.0,,,,,30.188976,,,TRUE,TRUE,,,,,TRUE,,,,,,,,,,,,,,,,,,,,,,METAR,3667.0
KCDR 121412Z AUTO 32003KT 1/2SM FZFG VV002 M04/M04 A3023 RMK AO2 T10391039 $,KCDR,2019-01-12T14:12:00Z,42.83,-103.1,-3.9,-3.9,320,3,,0.5,30.230314,,,TRUE,TRUE,TRUE,,,,,FZFG,OVX,0,,,,,,,LIFR,,,,,,,,,,,200,SPECI,1010.0
KDEN 121412Z 01007KT 2SM R35L/3500V4500FT -SN BR SCT005 OVC013 M01/M01 A3019 RMK AO2 P0002 T10061011 $,KDEN,2019-01-12T14:12:00Z,39.85,-104.65,-0.6,-1.1,10,7,,2.0,30.188976,,,,TRUE,TRUE,,,,,-SN BR,SCT,500,OVC,1300,,,,,IFR,,,,,,0.02,,,,,,SPECI,1640.0
MMAS 121412Z 34002KT 1/2SM FG SCT004 08/08 A3033 RMK 8/500 PRESRR,MMAS,2019-01-12T14:12:00Z,21.7,-102.32,8.0,8.0,340,2,,0.5,30.33071,,,,,,,,,,FG,SCT,400,,,,,,,LIFR,,,,,,,,,,,,SPECI,1863.0
KUKI 121412Z AUTO 00000KT 1/4SM FG VV002 08/08 A2995 RMK AO2 T00830078,KUKI,2019-01-12T14:12:00Z,39.12,-123.2,8.3,7.8,0,0,,0.25,29.949802,,,TRUE,TRUE,,,,,,FG,OVX,0,,,,,,,LIFR,,,,,,,,,,,200,SPECI,187.0
KOGD 121412Z 17008KT 10SM SCT013 M04/M08 A3023 RMK AO2 T10441078,KOGD,2019-01-12T14:12:00Z,41.2,-112.02,-4.4,-7.8,170,8,,10.0,30.230314,,,,TRUE,,,,,,,SCT,1300,,,,,,,VFR,,,,,,,,,,,,SPECI,1353.0
K20V 121412Z AUTO 00000KT 7SM -SN SCT024 OVC044 M10/M11 A3020 RMK AO2,K20V,2019-01-12T14:12:00Z,40.05,-106.37,-10.0,-11.0,0,0,,7.0,30.200787,,,TRUE,TRUE,,,,,,-SN,SCT,2400,OVC,4400,,,,,VFR,,,,,,,,,,,,METAR,2259.0
K4BM 121412Z AUTO 05007KT 10SM SCT010 SCT031 OVC039 A3014 RMK AO2,K4BM,2019-01-12T14:12:00Z,39.05,-105.52,,,50,7,,10.0,30.138779,,,TRUE,TRUE,,,,,,,SCT,1000,SCT,3100,OVC,3900,,,VFR,,,,,,,,,,,,SPECI,3438.0
K5SM 121412Z AUTO 4SM HZ OVC001 A3015 RMK AO2,K5SM,2019-01-12T14:12:00Z,39.43,-107.38,,,,,,4.0,30.15059,,,TRUE,TRUE,,,,,,HZ,OVC,100,,,,,,,LIFR,,,,,,,,,,,,SPECI,3232.0
PAOH 121412Z AUTO 00000KT 3SM UP BR OVC004 00/00 A2985 RMK AO2 UPB08 P0000 FZRANO,PAOH,2019-01-12T14:12:00Z,58.1,-135.45,0.0,0.0,0,0,,3.0,29.84941,,,TRUE,TRUE,,,,TRUE,,BR UP,OVC,400,,,,,,,LIFR,,,,,,0.005,,,,,,SPECI,9.0
CYYZ 121412Z 01007KT 15SM -SHSN FEW025 BKN086 M07/M13 A3054 RMK CU1AC7 CU TR SLP357,CYYZ,2019-01-12T14:12:00Z,43.67,-79.62,-7.0,-13.0,10,7,,15.0,30.540354,1035.7,,,,,,,,,-SHSN,FEW,2500,BKN,8600,,,,,VFR,,,,,,,,,,,,SPECI,173.0
CYXR 121412Z AUTO 29006KT 9SM BKN016 M24/M27 A3059 RMK ICG SLP392,CYXR,2019-01-12T14:12:00Z,47.7,-79.83,-24.0,-27.0,290,6,,9.0,30.590551,1039.2,,TRUE,,,,,,,,BKN,1600,,,,,,,MVFR,,,,,,,,,,,,SPECI,243.0
KEIK 121412Z AUTO 00000KT 10SM OVC031 00/00 A3026 RMK AO2 T00001003,KEIK,2019-01-12T14:12:00Z,40.02,-105.05,0.0,-0.3,0,0,,10.0,30.259842,,,TRUE,TRUE,,,,,,,OVC,3100,,,,,,,VFR,,,,,,,,,,,,METAR,1564.0
KBDU 121412Z AUTO 00000KT 10SM SCT060 OVC070 00/00 A3020 RMK AO2,KBDU,2019-01-12T14:12:00Z,40.03,-105.23,0.0,0.0,0,0,,10.0,30.200787,,,TRUE,TRUE,,,,,,,SCT,6000,OVC,7000,,,,,VFR,,,,,,,,,,,,SPECI,1612.0
LTBJ 121412Z VRB04KT 4000 TSRA SCT015CB BKN025 08/07 Q1008 R162///95 BECMG TL1510 7000 -TSRA RMK RWY16 09005KT 020V180,LTBJ,2019-01-12T14:12:00Z,38.28,27.15,8.0,7.0,0,4,,2.49,29.763779,,,,,,,,,,TSRA,SCT,1500,BKN,2500,,,,,IFR,,,,,,,,,,,,SPECI,120.0
EHEH 121412Z AUTO 26013KT 220V310 5000 DZ SCT006 BKN007 OVC009 08/07 Q1015 YLO 26012G24KT 6000 -RA FEW005 BKN008 OVC010 TEMPO 2000 DZRA SCT004 BKN006 OVC008,EHEH,2019-01-12T14:12:00Z,51.45,5.38,8.0,7.0,260,13,,3.11,29.970472,,,TRUE,,,,,,,DZ -RA,SCT,600,BKN,700,OVC,900,FEW,500,IFR,,,,,,,,,,,,SPECI,22.0
KCCU 121412Z AUTO 00000KT 10SM CLR M11/M14 A3010 RMK AO2,KCCU,2019-01-12T14:12:00Z,39.48,-106.15,-11.0,-14.0,0,0,,10.0,30.100393,,,TRUE,TRUE,,,,,,,CLR,,,,,,,,VFR,,,,,,,,,,,,METAR,3680.0
KLRF 121411Z AUTO 10005KT 5SM -RA BR BKN005 BKN010 OVC015 05/05 A2996 RMK AO2 SLP150 $,KLRF,2019-01-12T14:11:00Z,34.92,-92.15,5.0,5.0,100,5,,5.0,29.958662,1015.0,,TRUE,TRUE,TRUE,,,,,-RA BR,BKN,500,BKN,1000,OVC,1500,,,IFR,,,,,,,,,,,,SPECI,95.0
KFTK 121411Z 04005KT 10SM OVC005 00/00 A3026 RMK AO2A SLPNO ALSTG ESTMD $,KFTK,2019-01-12T14:11:00Z,37.88,-85.97,0.0,0.0,40,5,,10.0,30.259842,,,,TRUE,TRUE,,,,,,OVC,500,,,,,,,IFR,,,,,,,,,,,,SPECI,230.0
MMMM 121411Z 00000KT 5SM VCFG FEW015 SCT090 08/08 A3030 RMK 8/530 FG/DSPTG,MMMM,2019-01-12T14:11:00Z,19.85,-101.02,8.0,8.0,0,0,,5.0,30.301182,,,,,,,,,,VCFG,FEW,1500,SCT,9000,,,,,MVFR,,,,,,,,,,,,SPECI,1833.0
PAHL 121411Z AUTO 33007KT 3/4SM BR CLR M42/ A3005 RMK AO2 FZRANO,PAHL,2019-01-12T14:11:00Z,65.7,-156.35,-42.0,,330,7,,0.75,30.050198,,,TRUE,TRUE,,,,TRUE,,BR,CLR,,,,,,,,LIFR,,,,,,,,,,,,SPECI,65.0
KPLN 121411Z AUTO 07007KT 10SM SCT018 M07/M09 A3054 RMK AO2 T10671094,KPLN,2019-01-12T14:11:00Z,45.57,-84.8,-6.7,-9.4,70,7,,10.0,30.540354,,,TRUE,TRUE,,,,,,,SCT,1800,,,,,,,VFR,,,,,,,,,,,,SPECI,217.0
KOUN 121411Z 32018G23KT 2SM -DZBR OVC005 02/02 A2991,KOUN,2019-01-12T14:11:00Z,35.25,-97.47,2.0,2.0,320,18,23,2.0,29.911417,,,,,,,,,,-DZ BR,OVC,500,,,,,,,IFR,,,,,,,,,,,,SPECI,357.0
KJLN 121411Z 10007KT 4SM -RA BR BKN005 BKN013 OVC038 02/01 A2992 RMK AO2 P0003 T00220011,KJLN,2019-01-12T14:11:00Z,37.15,-94.5,2.2,1.1,100,7,,4.0,29.920275,,,,TRUE,,,,,,-RA BR,BKN,500,BKN,1300,OVC,3800,,,IFR,,,,,,0.03,,,,,,SPECI,299.0
CYBN 121411Z AUTO 00000KT 9SM FEW019 BKN076 M12/M13 A3055,CYBN,2019-01-12T14:11:00Z,44.27,-79.92,-12.0,-13.0,0,0,,9.0,30.549213,,,TRUE,,,,,,,,FEW,1900,BKN,7600,,,,,VFR,,,,,,,,,,,,SPECI,223.0
ETEB 121411Z AUTO 23014KT 9999 OVC008 01/01 A3003 RMK AO2 SLP205 $,ETEB,2019-01-12T14:11:00Z,49.32,10.62,1.0,1.0,230,14,,6.21,30.029528,1020.5,,TRUE,TRUE,TRUE,,,,,,OVC,800,,,,,,,IFR,,,,,,,,,,,,SPECI,467.0
ETIC 121411Z AUTO 26006KT 9999 OVC010 02/02 A2998 RMK AO2 OVC V BKN SLP175 $,ETIC,2019-01-12T14:11:00Z,49.7,11.93,2.0,2.0,260,6,,6.21,29.97933,1017.5,,TRUE,TRUE,TRUE,,,,,,OVC,1000,,,,,,,MVFR,,,,,,,,,,,,SPECI,415.0
KPPF 121411Z AUTO 02004KT 2SM -SN BR BKN006 OVC012 01/01 A2995 RMK AO2 RAE1353SNB1353 P0002 T00060006,KPPF,2019-01-12T14:11:00Z,37.33,-95.5,0.6,0.6,20,4,,2.0,29.949802,,,TRUE,TRUE,,,,,,-SN BR,BKN,600,OVC,1200,,,,,IFR,,,,,,0.02,,,,,,SPECI,274.0
KMKO 121411Z AUTO 15008KT 2SM BR OVC003 04/04 A2988 RMK AO2 T00390039,KMKO,2019-01-12T14:11:00Z,35.65,-95.37,3.9,3.9,150,8,,2.0,29.878937,,,TRUE,TRUE,,,,,,BR,OVC,300,,,,,,,LIFR,,,,,,,,,,,,SPECI,185.0
KMEI 121411Z 12003KT 10SM OVC029 11/02 A3012 RMK AO2 I1000 T01060022,KMEI,2019-01-12T14:11:00Z,32.33,-88.75,10.6,2.2,120,3,,10.0,30.121063,,,,TRUE,,,,,,,OVC,2900,,,,,,,MVFR,,,,,,,,,,,,SPECI,89.0
KLVJ 121411Z AUTO 30006KT 10SM SCT007 BKN020 16/16 A3003 RMK AO2 T01610161,KLVJ,2019-01-12T14:11:00Z,29.52,-95.25,16.1,16.1,300,6,,10.0,30.029528,,,TRUE,TRUE,,,,,,,SCT,700,BKN,2000,,,,,MVFR,,,,,,,,,,,,SPECI,12.0
KLNK 121411Z 01017KT 3/4SM R36/P6000FT -SN BR BKN008 OVC016 M01/M02 A3016 RMK AO2 CIG 005V011 P0000 T10061022,KLNK,2019-01-12T14:11:00Z,40.85,-96.77,-0.6,-2.2,10,17,,0.75,30.159449,,,,TRUE,,,,,,-SN BR,BKN,800,OVC,1600,,,,,LIFR,,,,,,0.005,,,,,,SPECI,364.0
KIND 121411Z 08010KT 1/2SM R05L/4000V4500FT SN FZFG FEW006 OVC010 M02/M03 A3028 RMK AO2 P0003 T10171028,KIND,2019-01-12T14:11:00Z,39.72,-86.3,-1.7,-2.8,80,10,,0.5,30.280512,,,,TRUE,,,,,,SN FZFG,FEW,600,OVC,1000,,,,,LIFR,,,,,,0.03,,,,,,SPECI,241.0
KFMN 121411Z 00000KT 10SM SCT020 OVC036 M01/M03 A3016 RMK AO2 T10111033,KFMN,2019-01-12T14:11:00Z,36.75,-108.23,-1.1,-3.3,0,0,,10.0,30.159449,,,,TRUE,,,,,,,SCT,2000,OVC,3600,,,,,VFR,,,,,,,,,,,,SPECI,1685.0
KESF 121411Z AUTO 14007G19KT 2 1/2SM -RA BR BKN007 OVC010 11/11 A2996 RMK AO2 CIG 004V008 P0001 T01110111,KESF,2019-01-12T14:11:00Z,31.4,-92.28,11.1,11.1,140,7,19,2.5,29.958662,,,TRUE,TRUE,,,,,,-RA BR,BKN,700,OVC,1000,,,,,IFR,,,,,,0.01,,,,,,SPECI,28.0
KCXO 121411Z 28006KT 10SM SCT006 OVC028 15/15 A3001 RMK AO2 T01500150,KCXO,2019-01-12T14:11:00Z,30.35,-95.42,15.0,15.0,280,6,,10.0,30.008858,,,,TRUE,,,,,,,SCT,600,OVC,2800,,,,,MVFR,,,,,,,,,,,,SPECI,75.0
MMSD 121411Z 27008KT 6SM SCT060 16/14 A3006 RMK 8/700 BR DSPTG,MMSD,2019-01-12T14:11:00Z,23.13,-109.7,16.0,14.0,270,8,,6.0,30.059055,,,,,,,,,,,SCT,6000,,,,,,,VFR,,,,,,,,,,,,SPECI,109.0
KPRN 121411Z AUTO 13006KT 10SM BKN017 OVC033 10/05 A3019 RMK AO2 T01000050,KPRN,2019-01-12T14:11:00Z,31.85,-86.62,10.0,5.0,130,6,,10.0,30.188976,,,TRUE,TRUE,,,,,,,BKN,1700,OVC,3300,,,,,MVFR,,,,,,,,,,,,SPECI,138.0
KTXK 121411Z 17008KT 7SM OVC004 08/08 A2993 RMK AO2 T00780078,KTXK,2019-01-12T14:11:00Z,33.45,-93.98,7.8,7.8,170,8,,7.0,29.929134,,,,TRUE,,,,,,,OVC,400,,,,,,,LIFR,,,,,,,,,,,,SPECI,111.0
KSLC 121411Z 00000KT 6SM BR FEW008 OVC014 M01/M02 A3024 RMK AO2 T10061022,KSLC,2019-01-12T14:11:00Z,40.77,-111.97,-0.6,-2.2,0,0,,6.0,30.239174,,,,TRUE,,,,,,BR,FEW,800,OVC,1400,,,,,MVFR,,,,,,,,,,,,SPECI,1286.0
KPWA 121411Z 35017KT 7SM OVC005 02/01 A2994 RMK AO2 RAE01 P0000 T00170011,KPWA,2019-01-12T14:11:00Z,35.53,-97.65,1.7,1.1,350,17,,7.0,29.940945,,,,TRUE,,,,,,,OVC,500,,,,,,,IFR,,,,,,0.005,,,,,,SPECI,397.0
KO86 121410Z AUTO 27003KT 1SM OVC003 03/03 A3001 RMK AO1,KO86,2019-01-12T14:10:00Z,40.98,-122.7,3.0,3.0,270,3,,1.0,30.008858,,,TRUE,TRUE,,,,,,,OVC,300,,,,,,,LIFR,,,,,,,,,,,,METAR,729.0
KWYS 121410Z AUTO 00000KT 1/4SM FZFG OVC002 M18/M20 A3025 RMK AO2 VIS M1/4V5,KWYS,2019-01-12T14:10:00Z,44.67,-111.12,-18.0,-20.0,0,0,,0.25,30.250984,,,TRUE,TRUE,,,,,,FZFG,OVC,200,,,,,,,LIFR,,,,,,,,,,,,SPECI,2025.0
KBVX 121410Z AUTO 10005KT 3SM -RA BR OVC005 02/02 A3001 RMK AO2 P0001 FZRANO,KBVX,2019-01-12T14:10:00Z,35.73,-91.65,2.0,2.0,100,5,,3.0,30.008858,,,TRUE,TRUE,,,,TRUE,,-RA BR,OVC,500,,,,,,,IFR,,,,,,0.01,,,,,,SPECI,141.0
KPRX 121410Z AUTO 26013KT 10SM BKN011 07/06 A2993 RMK AO2,KPRX,2019-01-12T14:10:00Z,33.62,-95.45,7.0,6.0,260,13,,10.0,29.929134,,,TRUE,TRUE,,,,,,,BKN,1100,,,,,,,MVFR,,,,,,,,,,,,SPECI,167.0
RKJB 121410Z AUTO 21001KT 2100 BR NCD 03/02 Q1025,RKJB,2019-01-12T14:10:00Z,34.98,126.38,3.0,2.0,210,1,,1.3,30.265747,,,TRUE,,,,,,,BR,CLR,,,,,,,,IFR,,,,,,,,,,,,SPECI,2.0
EHWO 121410Z AUTO 26016KT 240V330 9999 -DZ FEW011 SCT016 BKN019 08/07 Q1016 WHT,EHWO,2019-01-12T14:10:00Z,51.45,4.32,8.0,7.0,260,16,,6.21,30.0,,,TRUE,,,,,,,-DZ,FEW,1100,SCT,1600,BKN,1900,,,MVFR,,,,,,,,,,,,SPECI,17.0
KQFB 121410Z AUTO 30003KT M0400 FZFG CLR M02/M02 A3025 RMK A02 TSNO,KQFB,2019-01-12T14:10:00Z,,,-2.0,-2.0,300,3,,0.25,30.250984,,,TRUE,TRUE,,,TRUE,,,FZFG,CLR,,,,,,,,LIFR,,,,,,,,,,,,METAR,
KQEL 121410Z AUTO 35001KT 4000 HZ CLR M04/M08 A3032 RMK A02 TSNO,KQEL,2019-01-12T14:10:00Z,,,-4.0,-8.0,350,1,,2.49,30.318897,,,TRUE,TRUE,,,TRUE,,,HZ,CLR,,,,,,,,IFR,,,,,,,,,,,,METAR,
KSIF 121410Z AUTO 10SM OVC046 01/M06 A3049 RMK AO2 T00061059,KSIF,2019-01-12T14:10:00Z,36.43,-79.85,0.6,-5.9,,,,10.0,30.490158,,,TRUE,TRUE,,,,,,,OVC,4600,,,,,,,VFR,,,,,,,,,,,,METAR,211.0
KQEW 121410Z AUTO 29003KT 3200 HZ FEW037 M00/M03 A3020 RMK A02 TSNO,KQEW,2019-01-12T14:10:00Z,,,0.0,-3.0,290,3,,1.99,30.200787,,,TRUE,TRUE,,,TRUE,,,HZ,FEW,3700,,,,,,,IFR,,,,,,,,,,,,METAR,
KQEV 121410Z AUTO 24002KT 4000 HZ CLR 01/M03 A3021 RMK A02 TSNO,KQEV,2019-01-12T14:10:00Z,,,1.0,-3.0,240,2,,2.49,30.209646,,,TRUE,TRUE,,,TRUE,,,HZ,CLR,,,,,,,,IFR,,,,,,,,,,,,METAR,
KQES 121410Z AUTO 33004KT 8000 HZ OVC031 03/M02 A3029 RMK A02 TSNO,KQES,2019-01-12T14:10:00Z,,,3.0,-2.0,330,4,,4.97,30.28937,,,TRUE,TRUE,,,TRUE,,,HZ,OVC,3100,,,,,,,MVFR,,,,,,,,,,,,METAR,
KQER 121410Z AUTO 00000KT 4800 HZ CLR M06/M09 A3017 RMK A02 TSNO,KQER,2019-01-12T14:10:00Z,,,-6.0,-9.0,0,0,,2.98,30.171259,,,TRUE,TRUE,,,TRUE,,,HZ,CLR,,,,,,,,IFR,,,,,,,,,,,,METAR,
KQEN 121410Z AUTO 24002KT 0800 FZFG CLR M05/M05 A3012 RMK A02 TSNO,KQEN,2019-01-12T14:10:00Z,,,-5.0,-5.0,240,2,,0.5,30.121063,,,TRUE,TRUE,,,TRUE,,,FZFG,CLR,,,,,,,,LIFR,,,,,,,,,,,,METAR,
KQEY 121410Z AUTO 26001KT 2000 BR BKN043 02/00 A2992 RMK A02 TSNO,KQEY,2019-01-12T14:10:00Z,,,2.0,0.0,260,1,,1.24,29.920275,,,TRUE,TRUE,,,TRUE,,,BR,BKN,4300,,,,,,,IFR,,,,,,,,,,,,METAR,
ETAD 121410Z AUTO 23012KT 9999 -RA OVC006 04/04 A3004 RMK AO2 RAB10 CIG 005 RWY23 SLP176 $,ETAD,2019-01-12T14:10:00Z,49.98,6.7,4.0,4.0,230,12,,6.21,30.041338,1017.6,,TRUE,TRUE,TRUE,,,,,-RA,OVC,600,,,,,,,IFR,,,,,,,,,,,,METAR,365.0
KJER 121410Z AUTO 06020G26KT 10SM BKN008 M02/M03 A3019 RMK AO2 PK WND 06026/1404 T10171033,KJER,2019-01-12T14:10:00Z,42.72,-114.45,-1.7,-3.3,60,20,26,10.0,30.188976,,,TRUE,TRUE,,,,,,,BKN,800,,,,,,,IFR,,,,,,,,,,,,SPECI,1222.0
KFAR 121410Z 02006KT 1 3/4SM BR OVC003 M06/M07 A3040 RMK AO2 T10611067 $,KFAR,2019-01-12T14:10:00Z,46.93,-96.82,-6.1,-6.7,20,6,,1.75,30.398623,,,,TRUE,TRUE,,,,,BR,OVC,300,,,,,,,LIFR,,,,,,,,,,,,SPECI,277.0
KCNK 121410Z AUTO 01014KT 1 1/4SM -SN BR BKN006 OVC010 M01/M02 A3009 RMK AO2 P0000 T10111017,KCNK,2019-01-12T14:10:00Z,39.55,-97.65,-1.1,-1.7,10,14,,1.25,30.088583,,,TRUE,TRUE,,,,,,-SN BR,BKN,600,OVC,1000,,,,,IFR,,,,,,0.005,,,,,,SPECI,447.0
KBVO 121410Z AUTO 00000KT 3/4SM -SN BR OVC010 01/M01 A2995 RMK AO2 P0003 T00061006,KBVO,2019-01-12T14:10:00Z,36.77,-96.02,0.6,-0.6,0,0,,0.75,29.949802,,,TRUE,TRUE,,,,,,-SN BR,OVC,1000,,,,,,,LIFR,,,,,,0.03,,,,,,SPECI,210.0
KAMW 121410Z AUTO 06008KT 3/4SM -SN BR FEW006 OVC022 M02/M03 A3021 RMK AO2 P0000 T10221033,KAMW,2019-01-12T14:10:00Z,41.98,-93.62,-2.2,-3.3,60,8,,0.75,30.209646,,,TRUE,TRUE,,,,,,-SN BR,FEW,600,OVC,2200,,,,,LIFR,,,,,,0.005,,,,,,SPECI,279.0
KQFX 121410Z AUTO 13001KT 2400 HZ CLR M03/M05 A3022 RMK A02 TSNO,KQFX,2019-01-12T14:10:00Z,,,-3.0,-5.0,130,1,,1.49,30.221457,,,TRUE,TRUE,,,TRUE,,,HZ,CLR,,,,,,,,IFR,,,,,,,,,,,,METAR,
KQFW 121410Z AUTO 00000KT 3200 HZ CLR M03/M07 A3023 RMK A02 TSNO,KQFW,2019-01-12T14:10:00Z,,,-3.0,-7.0,0,0,,1.99,30.230314,,,TRUE,TRUE,,,TRUE,,,HZ,CLR,,,,,,,,IFR,,,,,,,,,,,,METAR,
KQFV 121410Z AUTO 36001KT 2000 HZ CLR M06/M09 A3023 RMK A02 TSNO,KQFV,2019-01-12T14:10:00Z,,,-6.0,-9.0,360,1,,1.24,30.230314,,,TRUE,TRUE,,,TRUE,,,HZ,CLR,,,,,,,,IFR,,,,,,,,,,,,METAR,
KQFT 121410Z AUTO 35001KT 4800 HZ CLR M03/M07 A3023 RMK A02 TSNO,KQFT,2019-01-12T14:10:00Z,,,-3.0,-7.0,350,1,,2.98,30.230314,,,TRUE,TRUE,,,TRUE,,,HZ,CLR,,,,,,,,IFR,,,,,,,,,,,,METAR,
K2G4 121410Z AUTO 15010KT 10SM CLR M07/M11 A3029 RMK AO1,K2G4,2019-01-12T14:10:00Z,39.58,-79.33,-7.0,-11.0,150,10,,10.0,30.28937,,,TRUE,TRUE,,,,,,,CLR,,,,,,,,VFR,,,,,,,,,,,,SPECI,894.0
KHEQ 121410Z AUTO 33004KT 10SM SCT042 SCT049 SCT055 01/00 A3019 RMK AO2,KHEQ,2019-01-12T14:10:00Z,40.57,-102.28,1.0,0.0,330,4,,10.0,30.188976,,,TRUE,TRUE,,,,,,,SCT,4200,SCT,4900,SCT,5500,,,VFR,,,,,,,,,,,,METAR,1137.0
KGNB 121410Z AUTO 03004KT 10SM BKN005 OVC040 M10/M12 A3018 RMK AO2 T11021117,KGNB,2019-01-12T14:10:00Z,40.08,-105.92,-10.2,-11.7,30,4,,10.0,30.180119,,,TRUE,TRUE,,,,,,,BKN,500,OVC,4000,,,,,IFR,,,,,,,,,,,,SPECI,2500.0
KE16 121410Z AUTO 00000KT 10SM OVC070 10/09 A2996 RMK AO2 PWINO PNO,KE16,2019-01-12T14:10:00Z,37.08,-121.6,10.0,9.0,0,0,,10.0,29.958662,,,TRUE,TRUE,,,,,TRUE,,OVC,7000,,,,,,,VFR,,,,,,,,,,,,METAR,86.0
MHTG 121410Z 03008KT 8000 4000SW FEW010 BKN022 17/15 Q1023 A3021 BECMG 9999,MHTG,2019-01-12T14:10:00Z,14.07,-87.22,17.0,15.0,30,8,,4.97,30.206694,,,,,,,,,,,FEW,1000,BKN,2200,,,,,MVFR,,,,,,,,,,,,SPECI,1004.0
CYYL 121410Z AUTO 19012G20KT 2 1/4SM -SN OVC009 M15/M16 A3002 RMK PRESFR SLP206,CYYL,2019-01-12T14:10:00Z,56.87,-101.07,-15.0,-16.0,190,12,20,2.25,30.02067,1020.6,,TRUE,,,,,,,-SN,OVC,900,,,,,,,IFR,,,,,,,,,,,,SPECI,357.0
K6I2 121410Z AUTO 11005KT 10SM CLR 02/01 A3026 RMK AO2,K6I2,2019-01-12T14:10:00Z,37.63,-85.25,2.0,1.0,110,5,,10.0,30.259842,,,TRUE,TRUE,,,,,,,CLR,,,,,,,,VFR,,,,,,,,,,,,METAR,264.0
K65S 121410Z AUTO 00000KT 10SM OVC019 00/00 A3022 RMK AO2,K65S,2019-01-12T14:10:00Z,48.73,-116.3,0.0,0.0,0,0,,10.0,30.221457,,,TRUE,TRUE,,,,,,,OVC,1900,,,,,,,MVFR,,,,,,,,,,,,METAR,713.0
KIPJ 121410Z AUTO 00000KT 10SM BKN120 03/M04 A3045 RMK AO2 T00261040,KIPJ,2019-01-12T14:10:00Z,35.48,-81.17,2.6,-4.0,0,0,,10.0,30.448818,,,TRUE,TRUE,,,,,,,BKN,12000,,,,,,,VFR,,,,,,,,,,,,METAR,267.0
KJNX 121410Z AUTO 00000KT 10SM OVC110 02/M03 A3050 RMK AO2,KJNX,2019-01-12T14:10:00Z,35.53,-78.38,2.0,-3.0,0,0,,10.0,30.499016,,,TRUE,TRUE,,,,,,,OVC,11000,,,,,,,VFR,,,,,,,,,,,,METAR,50.0
MMCT 121409Z RTD 09005KT 8SM SKC 19/16 A3006,MMCT,2019-01-12T14:09:00Z,20.63,-88.45,19.0,16.0,90,5,,8.0,30.059055,,,,,,,,,,,SKC,,,,,,,,VFR,,,,,,,,,,,,METAR,28.0
KDPA 121409Z 08006KT 1/2SM R02L/5000FT SN FZFG VV019 M02/M04 A3032 RMK AO2 P0000 T10171039,KDPA,2019-01-12T14:09:00Z,41.92,-88.25,-1.7,-3.9,80,6,,0.5,30.318897,,,,TRUE,,,,,,SN FZFG,OVX,0,,,,,,,LIFR,,,,,,0.005,,,,,1900,SPECI,231.0
KDEQ 121409Z AUTO 09004KT 2 1/2SM BR OVC004 06/06 A2990 RMK AO2 T00610061,KDEQ,2019-01-12T14:09:00Z,34.05,-94.4,6.1,6.1,90,4,,2.5,29.899607,,,TRUE,TRUE,,,,,,BR,OVC,400,,,,,,,LIFR,,,,,,,,,,,,SPECI,106.0
KCFV 121409Z AUTO 36007KT 2SM -SN BR BKN006 OVC011 01/01 A2993 RMK AO2 RAE1357SNB1357 P0007 T00110006,KCFV,2019-01-12T14:09:00Z,37.08,-95.57,1.1,0.6,360,7,,2.0,29.929134,,,TRUE,TRUE,,,,,,-SN BR,BKN,600,OVC,1100,,,,,IFR,,,,,,0.07,,,,,,SPECI,225.0
KILN 121409Z AUTO 09007KT 1SM -SN BR OVC025 M03/M05 A3033 RMK AO2 P0001 T10331050,KILN,2019-01-12T14:09:00Z,39.43,-83.8,-3.3,-5.0,90,7,,1.0,30.33071,,,TRUE,TRUE,,,,,,-SN BR,OVC,2500,,,,,,,IFR,,,,,,0.01,,,,,,SPECI,322.0
KMTJ 121409Z AUTO 00000KT 2SM -SN BR SCT010 BKN031 OVC046 M03/M04 A3020 RMK AO2 P0000 T10331039,KMTJ,2019-01-12T14:09:00Z,38.5,-107.9,-3.3,-3.9,0,0,,2.0,30.200787,,,TRUE,TRUE,,,,,,-SN BR,SCT,1000,BKN,3100,OVC,4600,,,IFR,,,,,,0.005,,,,,,SPECI,1750.0
KVTN 121409Z AUTO 35006KT 4SM BR OVC005 M06/M07 A3024 RMK AO2 T10561072,KVTN,2019-01-12T14:09:00Z,42.87,-100.55,-5.6,-7.2,350,6,,4.0,30.239174,,,TRUE,TRUE,,,,,,BR,OVC,500,,,,,,,IFR,,,,,,,,,,,,SPECI,788.0
EHGR 121409Z AUTO 27011KT 240V300 9999 FEW009 BKN010 OVC013 08/07 Q1015 GRN,EHGR,2019-01-12T14:09:00Z,51.57,4.92,8.0,7.0,270,11,,6.21,29.970472,,,TRUE,,,,,,,,FEW,900,BKN,1000,OVC,1300,,,MVFR,,,,,,,,,,,,SPECI,13.0
CYAH 121409Z AUTO 25008KT 6SM -SN OVC060 M17/M19 A3022 RMK SLP272,CYAH,2019-01-12T14:09:00Z,53.75,-73.67,-17.0,-19.0,250,8,,6.0,30.221457,1027.2,,TRUE,,,,,,,-SN,OVC,6000,,,,,,,VFR,,,,,,,,,,,,SPECI,306.0
KCVO 121409Z AUTO 00000KT 3SM BR SCT001 00/00 A2997 RMK AO2 FZRANO,KCVO,2019-01-12T14:09:00Z,44.5,-123.27,0.0,0.0,0,0,,3.0,29.970472,,,TRUE,TRUE,,,,TRUE,,BR,SCT,100,,,,,,,MVFR,,,,,,,,,,,,SPECI,75.0
KAIZ 121409Z AUTO 08006KT 1 3/4SM -SN BR OVC004 00/00 A3000 RMK AO2 CIG 003V007 P0000 FZRANO,KAIZ,2019-01-12T14:09:00Z,38.1,-92.53,0.0,0.0,80,6,,1.75,30.0,,,TRUE,TRUE,,,,TRUE,,-SN BR,OVC,400,,,,,,,LIFR,,,,,,0.005,,,,,,SPECI,265.0
LKTB 121409Z 25007KT 9999 -RA FEW013 BKN022 OVC043 04/01 Q1013 R27/29//95 RMK REG QNH 1008,LKTB,2019-01-12T14:09:00Z,49.13,16.68,4.0,1.0,250,7,,6.21,29.911417,,,,,,,,,,-RA,FEW,1300,BKN,2200,OVC,4300,,,MVFR,,,,,,,,,,,,SPECI,246.0
PASY 121408Z AUTO 06038G50KT 1SM -SN BR BKN007 OVC011 02/01 A2872 RMK AO2 VIS 1V1 1/2 SLP729 RVRNO FZRANO $,PASY,2019-01-12T14:08:00Z,52.72,174.12,2.0,1.0,60,38,50,1.0,28.721457,972.9,,TRUE,TRUE,TRUE,,,TRUE,,-SN BR,BKN,700,OVC,1100,,,,,IFR,,,,,,,,,,,,SPECI,31.0
KNOG 121408Z AUTO 32008KT 1SM BR OVC002 14/14 A3007 RMK AO2 T01390139 $,KNOG,2019-01-12T14:08:00Z,27.9,-98.05,13.9,13.9,320,8,,1.0,30.070866,,,TRUE,TRUE,TRUE,,,,,BR,OVC,200,,,,,,,LIFR,,,,,,,,,,,,SPECI,78.0
KPSX 121408Z AUTO 31010KT 10SM OVC009 16/16 A3004 RMK AO2 CIG 008V011 T01610161,KPSX,2019-01-12T14:08:00Z,28.72,-96.25,16.1,16.1,310,10,,10.0,30.041338,,,TRUE,TRUE,,,,,,,OVC,900,,,,,,,IFR,,,,,,,,,,,,SPECI,5.0
KOKC 121408Z 34017KT 5SM BR OVC005 02/01 A2993 RMK AO2 PK WND 35030/1356 RAE07 P0000 T00170011,KOKC,2019-01-12T14:08:00Z,35.38,-97.6,1.7,1.1,340,17,,5.0,29.929134,,,,TRUE,,,,,,BR,OVC,500,,,,,,,IFR,,,,,,0.005,,,,,,SPECI,390.0
KMBG 121408Z AUTO 01006KT 1 1/2SM BR OVC003 M08/M10 A3032 RMK AO2 I1000 T10831100,KMBG,2019-01-12T14:08:00Z,45.55,-100.42,-8.3,-10.0,10,6,,1.5,30.318897,,,TRUE,TRUE,,,,,,BR,OVC,300,,,,,,,LIFR,,,,,,,,,,,,SPECI,510.0
KLWC 121408Z AUTO 03010KT 6SM BR FEW010 OVC065 00/M02 A3002 RMK AO2 T00001017,KLWC,2019-01-12T14:08:00Z,39.02,-95.22,0.0,-1.7,30,10,,6.0,30.02067,,,TRUE,TRUE,,,,,,BR,FEW,1000,OVC,6500,,,,,VFR,,,,,,,,,,,,SPECI,253.0
KCNY 121408Z AUTO 00000KT 3/4SM BR VV002 M10/M10 A3019 RMK AO2 I1000 T11001100,KCNY,2019-01-12T14:08:00Z,38.77,-109.75,-10.0,-10.0,0,0,,0.75,30.188976,,,TRUE,TRUE,,,,,,BR,OVX,0,,,,,,,LIFR,,,,,,,,,,,200,SPECI,1390.0
KROX 121408Z AUTO 09007KT 10SM SCT007 BKN020 OVC046 M07/M10 A3043 RMK AO2,KROX,2019-01-12T14:08:00Z,48.85,-95.7,-7.0,-10.0,90,7,,10.0,30.431103,,,TRUE,TRUE,,,,,,,SCT,700,BKN,2000,OVC,4600,,,MVFR,,,,,,,,,,,,SPECI,323.0
EHVK 121407Z AUTO 26011KT 230V290 6000 -RA SCT005 BKN006 BKN008 08/07 Q1014 YLO,EHVK,2019-01-12T14:07:00Z,51.63,5.7,8.0,7.0,260,11,,3.73,29.940945,,,TRUE,,,,,,,-RA,SCT,500,BKN,600,BKN,800,,,IFR,,,,,,,,,,,,SPECI,21.0
KGAD 121407Z AUTO 10007KT 10SM OVC030 08/M01 A3024 RMK AO2,KGAD,2019-01-12T14:07:00Z,33.97,-86.07,8.0,-1.0,100,7,,10.0,30.239174,,,TRUE,TRUE,,,,,,,OVC,3000,,,,,,,MVFR,,,,,,,,,,,,SPECI,173.0
KTVR 121407Z AUTO 13010KT 1 3/4SM +RA BR OVC030 10/09 A3001 RMK AO2 P0007 T01000089,KTVR,2019-01-12T14:07:00Z,32.35,-91.03,10.0,8.9,130,10,,1.75,30.008858,,,TRUE,TRUE,,,,,,+RA BR,OVC,3000,,,,,,,IFR,,,,,,0.07,,,,,,SPECI,26.0
KAEX 121407Z 12006KT 1SM -RA BR OVC004 11/11 A2995 RMK AO2 P0002 T01110106 $,KAEX,2019-01-12T14:07:00Z,31.33,-92.57,11.1,10.6,120,6,,1.0,29.949802,,,,TRUE,TRUE,,,,,-RA BR,OVC,400,,,,,,,LIFR,,,,,,0.02,,,,,,SPECI,27.0
K0J4 121407Z AUTO 09004KT 10SM BKN023 BKN030 OVC034 09/06 A3023 RMK AO2 T00890061,K0J4,2019-01-12T14:07:00Z,31.05,-86.32,8.9,6.1,90,4,,10.0,30.230314,,,TRUE,TRUE,,,,,,,BKN,2300,BKN,3000,OVC,3400,,,MVFR,,,,,,,,,,,,SPECI,96.0
KSDB 121407Z AUTO 08007KT 1/4SM -RA FG VV008 02/01 A2997 RMK AO2 P0001 T00170011,KSDB,2019-01-12T14:07:00Z,34.75,-118.72,1.7,1.1,80,7,,0.25,29.970472,,,TRUE,TRUE,,,,,,-RA FG,OVX,0,,,,,,,LIFR,,,,,,0.01,,,,,800,SPECI,1377.0
KSZL 121406Z AUTO 06007KT 3/4SM R01/5000V6000FT -SN BR BKN002 OVC007 M01/M01 M RMK AO2 CIG 002V007 BKN V SCT SLPNO $,KSZL,2019-01-12T14:06:00Z,38.72,-93.53,-1.0,-1.0,60,7,,0.75,,,,TRUE,TRUE,TRUE,,,,,-SN BR,BKN,200,OVC,700,,,,,LIFR,,,,,,,,,,,,SPECI,265.0
LTBU 121406Z 35014KT 6000 -RA BKN007 BKN020 02/01 Q1011 RMK RWY22 01012KT,LTBU,2019-01-12T14:06:00Z,41.12,27.92,2.0,1.0,350,14,,3.73,29.852362,,,,,,,,,,-RA,BKN,700,BKN,2000,,,,,IFR,,,,,,,,,,,,SPECI,173.0
KSRC 121406Z AUTO 08007KT 3SM RA BR FEW005 OVC019 03/03 A2999 RMK AO2 P0002,KSRC,2019-01-12T14:06:00Z,35.22,-91.73,3.0,3.0,80,7,,3.0,29.991142,,,TRUE,TRUE,,,,,,RA BR,FEW,500,OVC,1900,,,,,MVFR,,,,,,0.02,,,,,,METAR,80.0
K7BM 121406Z AUTO 00000KT 10SM SCT035 SCT048 OVC060 M06/M08 A3013 RMK AO2,K7BM,2019-01-12T14:06:00Z,38.78,-106.22,-6.0,-8.0,0,0,,10.0,30.129921,,,TRUE,TRUE,,,,,,,SCT,3500,SCT,4800,OVC,6000,,,VFR,,,,,,,,,,,,SPECI,2995.0
KMNH 121406Z AUTO 33008KT 2 1/2SM -SN OVC003 M03/M03 A3018 RMK AO2,KMNH,2019-01-12T14:06:00Z,39.22,-104.65,-3.0,-3.0,330,8,,2.5,30.180119,,,TRUE,TRUE,,,,,,-SN,OVC,300,,,,,,,LIFR,,,,,,,,,,,,METAR,2152.0
CYZY 121406Z AUTO 13004KT 9SM -RA OVC035 01/01 A2989 RMK SLP152,CYZY,2019-01-12T14:06:00Z,55.28,-123.12,1.0,1.0,130,4,,9.0,29.890747,1015.2,,TRUE,,,,,,,-RA,OVC,3500,,,,,,,VFR,,,,,,,,,,,,SPECI,690.0
ETIH 121406Z AUTO 24006G20KT 9999 OVC010 02/02 A3003 RMK AO2 SLP193 $,ETIH,2019-01-12T14:06:00Z,49.22,11.82,2.0,2.0,240,6,20,6.21,30.029528,1019.3,,TRUE,TRUE,TRUE,,,,,,OVC,1000,,,,,,,MVFR,,,,,,,,,,,,SPECI,442.0
KSGR 121406Z 28006KT 10SM SCT020 16/15 A3002 RMK AO2 T01610150,KSGR,2019-01-12T14:06:00Z,29.62,-95.65,16.1,15.0,280,6,,10.0,30.02067,,,,TRUE,,,,,,,SCT,2000,,,,,,,VFR,,,,,,,,,,,,SPECI,2.0
KRUE 121406Z AUTO 10006KT 7SM OVC011 03/03 A2995 RMK AO2 T00330028,KRUE,2019-01-12T14:06:00Z,35.25,-93.1,3.3,2.8,100,6,,7.0,29.949802,,,TRUE,TRUE,,,,,,,OVC,1100,,,,,,,MVFR,,,,,,,,,,,,SPECI,115.0
KRBG 121406Z AUTO 00000KT 1SM BR VV003 04/04 A2994 RMK AO2 T00440039,KRBG,2019-01-12T14:06:00Z,43.23,-123.35,4.4,3.9,0,0,,1.0,29.940945,,,TRUE,TRUE,,,,,,BR,OVX,0,,,,,,,LIFR,,,,,,,,,,,300,SPECI,154.0
KOXR 121406Z AUTO 05012KT 2SM +RA BR BKN023 OVC027 11/09 A2998 RMK AO2 RAB1353 P0005 T01060089,KOXR,2019-01-12T14:06:00Z,34.2,-119.2,10.6,8.9,50,12,,2.0,29.97933,,,TRUE,TRUE,,,,,,+RA BR,BKN,2300,OVC,2700,,,,,IFR,,,,,,0.05,,,,,,SPECI,20.0
KC07 121406Z AUTO 09005KT 10SM OVC007 A3011 RMK AO2,KC07,2019-01-12T14:06:00Z,40.35,-106.7,,,90,5,,10.0,30.109253,,,TRUE,TRUE,,,,,,,OVC,700,,,,,,,IFR,,,,,,,,,,,,METAR,3224.0
KZZV 121406Z AUTO 07006KT 1 3/4SM -SN FEW027 BKN032 OVC043 M03/M07 A3038 RMK AO2 SNB1357 P0000 T10281072 $,KZZV,2019-01-12T14:06:00Z,39.95,-81.9,-2.8,-7.2,70,6,,1.75,30.380905,,,TRUE,TRUE,TRUE,,,,,-SN,FEW,2700,BKN,3200,OVC,4300,,,IFR,,,,,,0.005,,,,,,SPECI,268.0
KDBQ 121406Z 07009KT 2 1/2SM -SN BR FEW009 OVC035 M03/M05 A3027 RMK AO2 P0000 T10281050 $,KDBQ,2019-01-12T14:06:00Z,42.4,-90.7,-2.8,-5.0,70,9,,2.5,30.268702,,,,TRUE,TRUE,,,,,-SN BR,FEW,900,OVC,3500,,,,,IFR,,,,,,0.005,,,,,,SPECI,326.0
PAWG 121406Z AUTO 08005KT 3SM BR OVC002 01/01 A2989 RMK AO2 FZRANO TSNO PNO $,PAWG,2019-01-12T14:06:00Z,56.48,-132.37,1.0,1.0,80,5,,3.0,29.890747,,,TRUE,TRUE,TRUE,,TRUE,TRUE,,BR,OVC,200,,,,,,,LIFR,,,,,,,,,,,,METAR,11.0
KCPW 121406Z AUTO 00000KT 4SM -SN BKN021 OVC031 M11/M11 A3014 RMK AO2,KCPW,2019-01-12T14:06:00Z,37.45,-106.8,-11.0,-11.0,0,0,,4.0,30.138779,,,TRUE,TRUE,,,,,,-SN,BKN,2100,OVC,3100,,,,,MVFR,,,,,,,,,,,,METAR,3584.0
KGUC 121405Z AUTO 00000KT 3SM -SN BR FEW021 SCT028 OVC038 M08/M09 A3016 RMK AO2 P0000 FZRANO,KGUC,2019-01-12T14:05:00Z,38.52,-106.92,-8.0,-9.0,0,0,,3.0,30.159449,,,TRUE,TRUE,,,,TRUE,,-SN BR,FEW,2100,SCT,2800,OVC,3800,,,MVFR,,,,,,0.005,,,,,,METAR,2339.0
PABL 121405Z AUTO 00000KT 1 1/2SM BR SCT002 M44/ A3010 RMK AO2 FZRANO,PABL,2019-01-12T14:05:00Z,65.98,-161.15,-44.0,,0,0,,1.5,30.100393,,,TRUE,TRUE,,,,TRUE,,BR,SCT,200,,,,,,,IFR,,,,,,,,,,,,METAR,7.0
KAQV 121405Z AUTO 00000KT 9SM BKN013 OVC020 11/09 A2996 RMK AO2 T01060094,KAQV,2019-01-12T14:05:00Z,31.4,-93.3,10.6,9.4,0,0,,9.0,29.958662,,,TRUE,TRUE,,,,,,,BKN,1300,OVC,2000,,,,,MVFR,,,,,,,,,,,,METAR,111.0
MMLT 121405Z RTD 30008KT 8SM SKC 14/12 A3004 RMK RTS,MMLT,2019-01-12T14:05:00Z,26.02,-111.33,14.0,12.0,300,8,,8.0,30.041338,,,,,,,,,,,SKC,,,,,,,,VFR,,,,,,,,,,,,METAR,15.0
PPNU 121405Z AUTO 00000KT 3SM OVC003 M34/M38 A3034 RMK AO1,PPNU,2019-01-12T14:05:00Z,70.42,-150.03,-34.0,-38.0,0,0,,3.0,30.339567,,,TRUE,TRUE,,,,,,,OVC,300,,,,,,,LIFR,,,,,,,,,,,,METAR,27.0
KEHO 121405Z AUTO 04004KT 10SM OVC110 02/M04 A3043 RMK AO2 T00221040,KEHO,2019-01-12T14:05:00Z,35.25,-81.6,2.2,-4.0,40,4,,10.0,30.431103,,,TRUE,TRUE,,,,,,,OVC,11000,,,,,,,VFR,,,,,,,,,,,,METAR,258.0
KTTA 121405Z AUTO 00000KT 10SM CLR 01/M04 A3048 RMK AO2 T00131036,KTTA,2019-01-12T14:05:00Z,35.58,-79.1,1.3,-3.6,0,0,,10.0,30.481298,,,TRUE,TRUE,,,,,,,CLR,,,,,,,,VFR,,,,,,,,,,,,METAR,75.0
KGRB 121405Z 06006KT 1SM BR BKN006 BKN010 OVC015 M01/M02 A3041 RMK AO2 SFC VIS 1 1/4 VIS 1V1 3/4 T10061017,KGRB,2019-01-12T14:05:00Z,44.48,-88.13,-0.6,-1.7,60,6,,1.0,30.410433,,,,TRUE,,,,,,BR,BKN,600,BKN,1000,OVC,1500,,,IFR,,,,,,,,,,,,METAR,208.0
KHNZ 121405Z AUTO 00000KT 10SM CLR M01/M07 A3046 RMK AO2 T10101075,KHNZ,2019-01-12T14:05:00Z,36.37,-78.53,-1.0,-7.5,0,0,,10.0,30.46063,,,TRUE,TRUE,,,,,,,CLR,,,,,,,,VFR,,,,,,,,,,,,METAR,161.0
KIXA 121405Z AUTO 00000KT 10SM BKN100 00/M02 A3053 RMK AO2,KIXA,2019-01-12T14:05:00Z,36.33,-77.63,0.0,-2.0,0,0,,10.0,30.528543,,,TRUE,TRUE,,,,,,,BKN,10000,,,,,,,VFR,,,,,,,,,,,,METAR,44.0
KMWK 121405Z AUTO 00000KT 10SM OVC034 02/M07 A3046 RMK AO2 T00151070,KMWK,2019-01-12T14:05:00Z,36.47,-80.55,1.5,-7.0,0,0,,10.0,30.46063,,,TRUE,TRUE,,,,,,,OVC,3400,,,,,,,VFR,,,,,,,,,,,,METAR,380.0
RJTE 121404Z 04009KT 8000 -RA FEW008 SCT012 BKN030 07/04 Q1016 RMK 1ST008 4SC012 7SC030 A3002,RJTE,2019-01-12T14:04:00Z,34.97,139.82,7.0,4.0,40,9,,4.97,30.0,,,,,,,,,,-RA,FEW,800,SCT,1200,BKN,3000,,,MVFR,,,,,,,,,,,,METAR,6.0
PAQH 121404Z AUTO 35015KT 10SM BKN029 OVC039 M27/M31 A2953 RMK AO2 FZRANO,PAQH,2019-01-12T14:04:00Z,59.75,-161.85,-27.0,-31.0,350,15,,10.0,29.530512,,,TRUE,TRUE,,,,TRUE,,,BKN,2900,OVC,3900,,,,,MVFR,,,,,,,,,,,,SPECI,13.0
KMIW 121404Z AUTO 08012G20KT 3/4SM -SN BR VV020 M02/M03 A3020 RMK AO2 P0000 T10221028,KMIW,2019-01-12T14:04:00Z,42.12,-92.92,-2.2,-2.8,80,12,20,0.75,30.200787,,,TRUE,TRUE,,,,,,-SN BR,OVX,0,,,,,,,LIFR,,,,,,0.005,,,,,2000,SPECI,296.0
KSET 121404Z AUTO 07014KT 3SM -SN BR BKN007 BKN035 OVC042 00/M01 A3011 RMK AO2 P0000 T00001006,KSET,2019-01-12T14:04:00Z,38.93,-90.43,0.0,-0.6,70,14,,3.0,30.109253,,,TRUE,TRUE,,,,,,-SN BR,BKN,700,BKN,3500,OVC,4200,,,IFR,,,,,,0.005,,,,,,METAR,134.0
KMIE 121404Z 09008KT 1SM -SN BR OVC021 M02/M03 A3030 RMK AO2 P0000 T10171033,KMIE,2019-01-12T14:04:00Z,40.23,-85.4,-1.7,-3.3,90,8,,1.0,30.301182,,,,TRUE,,,,,,-SN BR,OVC,2100,,,,,,,IFR,,,,,,0.005,,,,,,METAR,285.0
KLHQ 121404Z AUTO 11005KT 3/4SM -SN BR OVC023 M03/M04 A3037 RMK AO2 P0001 T10331044,KLHQ,2019-01-12T14:04:00Z,39.75,-82.67,-3.3,-4.4,110,5,,0.75,30.369095,,,TRUE,TRUE,,,,,,-SN BR,OVC,2300,,,,,,,LIFR,,,,,,0.01,,,,,,METAR,260.0
KBPT 121404Z 26005KT 9SM BKN007 BKN012 BKN028 18/16 A2998 RMK AO2 T01780161 $,KBPT,2019-01-12T14:04:00Z,29.95,-94.03,17.8,16.1,260,5,,9.0,29.97933,,,,TRUE,TRUE,,,,,,BKN,700,BKN,1200,BKN,2800,,,IFR,,,,,,,,,,,,METAR,5.0
CYUT 121403Z 21002KT 15SM -SN SCT009 OVC017 M30/M33 A3041 RMK SC3SC5 CALL OUT OBS SLP304,CYUT,2019-01-12T14:03:00Z,66.52,-86.25,-30.0,-33.0,210,2,,15.0,30.410433,1030.4,,,,,,,,,-SN,SCT,900,OVC,1700,,,,,MVFR,,,,,,,,,,,,SPECI,24.0
KDLS 121403Z AUTO 09003KT 5SM BR BKN008 OVC013 04/03 A3018 RMK AO2 CIG 007V012 T00440028,KDLS,2019-01-12T14:03:00Z,45.62,-121.17,4.4,2.8,90,3,,5.0,30.180119,,,TRUE,TRUE,,,,,,BR,BKN,800,OVC,1300,,,,,IFR,,,,,,,,,,,,SPECI,71.0
KOLM 121403Z AUTO 00000KT 1/2SM FZFG OVC001 M01/M01 A2995 RMK AO2 T10111011,KOLM,2019-01-12T14:03:00Z,46.97,-122.9,-1.1,-1.1,0,0,,0.5,29.949802,,,TRUE,TRUE,,,,,,FZFG,OVC,100,,,,,,,LIFR,,,,,,,,,,,,SPECI,58.0
KPHP 121403Z AUTO 09006KT 4SM BR OVC004 M08/M08 A3031 RMK AO2 T10831083,KPHP,2019-01-12T14:03:00Z,44.05,-101.6,-8.3,-8.3,90,6,,4.0,30.31004,,,TRUE,TRUE,,,,,,BR,OVC,400,,,,,,,LIFR,,,,,,,,,,,,SPECI,672.0
KCGS 121403Z AUTO 00000KT 10SM OVC090 M02/M07 A3055 RMK AO1 T10231075,KCGS,2019-01-12T14:03:00Z,38.98,-76.92,-2.3,-7.5,0,0,,10.0,30.549213,,,TRUE,TRUE,,,,,,,OVC,9000,,,,,,,VFR,,,,,,,,,,,,SPECI,15.0
K2W6 121403Z AUTO 00000KT 10SM BKN090 BKN120 00/M08 A3056 RMK AO1,K2W6,2019-01-12T14:03:00Z,38.32,-76.55,0.0,-8.0,0,0,,10.0,30.561024,,,TRUE,TRUE,,,,,,,BKN,9000,BKN,12000,,,,,VFR,,,,,,,,,,,,SPECI,44.0
CWLY 121403Z AUTO 01002KT 2 1/2SM BR OVC006 M00/M00 A3012 RMK SLP212,CWLY,2019-01-12T14:03:00Z,50.22,-121.58,0.0,0.0,10,2,,2.5,30.121063,1021.2,,TRUE,,,,,,,BR,OVC,600,,,,,,,IFR,,,,,,,,,,,,SPECI,229.0
KEWK 121403Z AUTO 36016KT 3SM -SN BR OVC006 M01/M01 A2999 RMK AO2 P0000 FZRANO,KEWK,2019-01-12T14:03:00Z,38.03,-97.27,-1.0,-1.0,360,16,,3.0,29.991142,,,TRUE,TRUE,,,,TRUE,,-SN BR,OVC,600,,,,,,,IFR,,,,,,0.005,,,,,,SPECI,467.0
PASM 121402Z AUTO 05012KT 10SM CLR M30/M33 A2972 RMK AO2 SLP086 T13001333 FZRANO,PASM,2019-01-12T14:02:00Z,62.07,-163.3,-30.0,-33.3,50,12,,10.0,29.719488,1008.6,,TRUE,TRUE,,,,TRUE,,,CLR,,,,,,,,VFR,,,,,,,,,,,,SPECI,92.0
PAMO 121402Z AUTO 03018KT 10SM CLR M28/M32 A2972 RMK AO2 SLP081 T12831322 FZRANO,PAMO,2019-01-12T14:02:00Z,62.1,-163.68,-28.3,-32.2,30,18,,10.0,29.719488,1008.1,,TRUE,TRUE,,,,TRUE,,,CLR,,,,,,,,VFR,,,,,,,,,,,,SPECI,103.0
PADM 121402Z AUTO 05015G22KT 8SM CLR M30/M34 A2975 RMK AO2 SLP085 T13001339 FZRANO,PADM,2019-01-12T14:02:00Z,61.87,-162.03,-30.0,-33.9,50,15,22,8.0,29.749016,1008.5,,TRUE,TRUE,,,,TRUE,,,CLR,,,,,,,,VFR,,,,,,,,,,,,SPECI,31.0
MMGM 121402Z RTD 00000KT 10SM SKC 11/10 A3000 RMK HZY RTS,MMGM,2019-01-12T14:02:00Z,27.95,-110.92,11.0,10.0,0,0,,10.0,30.0,,,,,,,,,,,SKC,,,,,,,,VFR,,,,,,,,,,,,METAR,20.0
KKLS 121402Z AUTO 00000KT 2SM BR OVC001 M01/M02 A2998 RMK AO2 VIS 1/2V5 FZRANO,KKLS,2019-01-12T14:02:00Z,46.12,-122.9,-1.0,-2.0,0,0,,2.0,29.97933,,,TRUE,TRUE,,,,TRUE,,BR,OVC,100,,,,,,,LIFR,,,,,,,,,,,,SPECI,5.0
KOJC 121402Z 04009KT 5SM BR OVC005 M01/M01 A2999 RMK AO2 T10111011,KOJC,2019-01-12T14:02:00Z,38.85,-94.73,-1.1,-1.1,40,9,,5.0,29.991142,,,,TRUE,,,,,,BR,OVC,500,,,,,,,IFR,,,,,,,,,,,,SPECI,326.0
KJEF 121402Z 10008KT 3/4SM -SN BR FEW007 OVC012 00/M02 A3004 RMK AO2 P0000 T00001017 $,KJEF,2019-01-12T14:02:00Z,38.6,-92.15,0.0,-1.7,100,8,,0.75,30.041338,,,,TRUE,TRUE,,,,,-SN BR,FEW,700,OVC,1200,,,,,LIFR,,,,,,0.005,,,,,,SPECI,168.0
KHRO 121402Z AUTO 12010KT 2SM BR OVC002 01/01 A2992 RMK AO2 T00110006,KHRO,2019-01-12T14:02:00Z,36.27,-93.15,1.1,0.6,120,10,,2.0,29.920275,,,TRUE,TRUE,,,,,,BR,OVC,200,,,,,,,LIFR,,,,,,,,,,,,SPECI,417.0
KHAO 121402Z AUTO 09006KT 1/2SM SN FZFG VV013 M02/M03 A3035 RMK AO2 P0000 T10171033,KHAO,2019-01-12T14:02:00Z,39.37,-84.52,-1.7,-3.3,90,6,,0.5,30.351377,,,TRUE,TRUE,,,,,,SN FZFG,OVX,0,,,,,,,LIFR,,,,,,0.005,,,,,1300,SPECI,188.0
KBIS 121402Z 00000KT 10SM OVC011 M10/M12 A3038 RMK AO2 T11001117,KBIS,2019-01-12T14:02:00Z,46.77,-100.75,-10.0,-11.7,0,0,,10.0,30.380905,,,,TRUE,,,,,,,OVC,1100,,,,,,,MVFR,,,,,,,,,,,,SPECI,505.0
ETOU 121401Z AUTO 25008KT 9999 -RA OVC019 05/00 A3004 RMK AO2 RAE1356RAB01 SLP180 FZRANO $,ETOU,2019-01-12T14:01:00Z,50.03,8.32,5.0,0.0,250,8,,6.21,30.041338,1018.0,,TRUE,TRUE,TRUE,,,TRUE,,-RA,OVC,1900,,,,,,,MVFR,,,,,,,,,,,,SPECI,141.0
YARG 121401Z AUTO 09009KT 040V120 5000 // SCT017 SCT075 BKN110 28/23 Q1008,YARG,2019-01-12T14:01:00Z,-16.63,128.45,28.0,23.0,90,9,,3.11,29.763779,,,TRUE,,,,,,,,SCT,1700,SCT,7500,BKN,11000,,,MVFR,,,,,,,,,,,,SPECI,165.0
PAFS 121401Z AUTO 07008KT 10SM CLR M33/M36 A2988 RMK AO2 SLP145 T13331361 FZRANO,PAFS,2019-01-12T14:01:00Z,63.02,-154.35,-33.3,-36.1,70,8,,10.0,29.878937,1014.5,,TRUE,TRUE,,,,TRUE,,,CLR,,,,,,,,VFR,,,,,,,,,,,,SPECI,126.0
PHLI 121401Z AUTO 29006KT 10SM SCT021 19/17 A3002 RMK AO2 T01940172 TSNO,PHLI,2019-01-12T14:01:00Z,21.97,-159.33,19.4,17.2,290,6,,10.0,30.02067,,,TRUE,TRUE,,,TRUE,,,,SCT,2100,,,,,,,VFR,,,,,,,,,,,,SPECI,45.0
KDHT 121401Z AUTO 35016G24KT 10SM SCT025 01/M02 A3011 RMK AO2 T00111017,KDHT,2019-01-12T14:01:00Z,36.02,-102.55,1.1,-1.7,350,16,24,10.0,30.109253,,,TRUE,TRUE,,,,,,,SCT,2500,,,,,,,VFR,,,,,,,,,,,,SPECI,1217.0
CYYD 121401Z AUTO 32003KT 3/4SM -RA BR BKN004 OVC012 00/00 A2984 RMK SLP125,CYYD,2019-01-12T14:01:00Z,54.82,-127.18,0.0,0.0,320,3,,0.75,29.840551,1012.5,,TRUE,,,,,,,-RA BR,BKN,400,OVC,1200,,,,,LIFR,,,,,,,,,,,,SPECI,523.0
KOTM 121401Z AUTO 07012KT 3/4SM -SN BR BKN006 OVC014 M02/M03 A3017 RMK AO2 P0000 T10171028,KOTM,2019-01-12T14:01:00Z,41.1,-92.45,-1.7,-2.8,70,12,,0.75,30.171259,,,TRUE,TRUE,,,,,,-SN BR,BKN,600,OVC,1400,,,,,LIFR,,,,,,0.005,,,,,,SPECI,256.0
KEST 121401Z AUTO 02008KT 6SM BR OVC027 M05/M06 A3024 RMK AO2 T10501056,KEST,2019-01-12T14:01:00Z,43.4,-94.75,-5.0,-5.6,20,8,,6.0,30.239174,,,TRUE,TRUE,,,,,,BR,OVC,2700,,,,,,,MVFR,,,,,,,,,,,,SPECI,401.0
MSLP 121401Z 05006KT 020V080 CAVOK 27/17 Q1015 NOSIG,MSLP,2019-01-12T14:01:00Z,13.43,-89.05,27.0,17.0,50,6,,6.21,29.970472,,,,,,TRUE,,,,,CAVOK,,,,,,,,VFR,,,,,,,,,,,,SPECI,25.0
LZTT 121400Z 27014KT 9999 DRSN FEW026 M01/M05 Q1009 NOSIG,LZTT,2019-01-12T14:00:00Z,49.07,20.25,-1.0,-5.0,270,14,,6.21,29.793306,,,,,,TRUE,,,,DRSN,FEW,2600,,,,,,,VFR,,,,,,,,,,,,METAR,707.0
MHAM 121400Z 36008KT 9999 SKC 27/21,MHAM,2019-01-12T14:00:00Z,13.27,-87.65,27.0,21.0,360,8,,6.21,,,,,,,,,,,,SKC,,,,,,,,VFR,,,,,,,,,,,,METAR,5.0
CWOD 121400Z AUTO 30012KT M22/M26 RMK AO1 SOG 31 2024 PK WND 30017/1320 SLP289 T12181264 50002,CWOD,2019-01-12T14:00:00Z,48.85,-72.55,-21.8,-26.4,300,12,,,,1028.9,,TRUE,TRUE,,,,,,,,,,,,,,,,0.2,,,,,,,,,,,METAR,137.0
LEMO 121400Z 04009KT 010V080 CAVOK 15/03 Q1026 NOSIG,LEMO,2019-01-12T14:00:00Z,37.17,-5.62,15.0,3.0,40,9,,6.21,30.295275,,,,,,TRUE,,,,,CAVOK,,,,,,,,VFR,,,,,,,,,,,,METAR,88.0
OJAM 121400Z 05004KT 3000 HZ NSC 14/02 Q1012 NOSIG,OJAM,2019-01-12T14:00:00Z,31.97,35.97,14.0,2.0,50,4,,1.86,29.88189,,,,,,TRUE,,,,HZ,CLR,,,,,,,,IFR,,,,,,,,,,,,METAR,773.0
SKRG 121400Z 02003KT 7000 VCFG OVC007 14/13 A3036,SKRG,2019-01-12T14:00:00Z,6.17,-75.42,14.0,13.0,20,3,,4.35,30.360237,,,,,,,,,,VCFG,OVC,700,,,,,,,IFR,,,,,,,,,,,,METAR,2137.0
LELO 121400Z 27008KT 9999 FEW015 BKN035 08/04 Q1031,LELO,2019-01-12T14:00:00Z,42.45,-2.32,8.0,4.0,270,8,,6.21,30.442913,,,,,,,,,,,FEW,1500,BKN,3500,,,,,VFR,,,,,,,,,,,,METAR,363.0
LEBR 121400Z AUTO 31023G33KT 9999 NCD 10/01 Q1028,LEBR,2019-01-12T14:00:00Z,42.2,-1.43,10.0,1.0,310,23,33,6.21,30.35433,,,TRUE,,,,,,,,CLR,,,,,,,,VFR,,,,,,,,,,,,METAR,295.0
LETU 121400Z AUTO 30016KT 9999 SCT035 BKN041 10/02 Q1029,LETU,2019-01-12T14:00:00Z,,,10.0,2.0,300,16,,6.21,30.383858,,,TRUE,,,,,,,,SCT,3500,BKN,4100,,,,,VFR,,,,,,,,,,,,METAR,
ZSPD 121400Z 36003MPS 330V030 7000 BKN016 06/03 Q1027 NOSIG,ZSPD,2019-01-12T14:00:00Z,31.15,121.8,6.0,3.0,360,6,,4.35,30.324802,,,,,,TRUE,,,,,BKN,1600,,,,,,,MVFR,,,,,,,,,,,,METAR,4.0
LELL 121400Z 26012KT 230V290 CAVOK 11/01 Q1024,LELL,2019-01-12T14:00:00Z,41.52,2.1,11.0,1.0,260,12,,6.21,30.236221,,,,,,,,,,,CAVOK,,,,,,,,VFR,,,,,,,,,,,,METAR,250.0
LEVS 121400Z VRB01KT CAVOK 11/M02 Q1028,LEVS,2019-01-12T14:00:00Z,40.37,-3.77,11.0,-2.0,0,1,,6.21,30.35433,,,,,,,,,,,CAVOK,,,,,,,,VFR,,,,,,,,,,,,METAR,687.0
LESB 121400Z AUTO 33008KT CAVOK 12/04 Q1027,LESB,2019-01-12T14:00:00Z,39.6,2.7,12.0,4.0,330,8,,6.21,30.324802,,,TRUE,,,,,,,,CAVOK,,,,,,,,VFR,,,,,,,,,,,,METAR,48.0
LEBZ 121400Z 04006KT 010V100 CAVOK 12/00 Q1028,LEBZ,2019-01-12T14:00:00Z,38.87,-6.82,12.0,0.0,40,6,,6.21,30.35433,,,,,,,,,,,CAVOK,,,,,,,,VFR,,,,,,,,,,,,METAR,192.0
CYGQ 121400Z 00000KT 15SM SKC M32/M36 A3060 RMK SLP416,CYGQ,2019-01-12T14:00:00Z,49.77,-86.92,-32.0,-36.0,0,0,,15.0,30.59941,1041.6,,,,,,,,,,SKC,,,,,,,,VFR,,,,,,,,,,,,SPECI,351.0
LEBT 121400Z AUTO 20004KT 130V240 9999 NCD 15/M03 Q1026,LEBT,2019-01-12T14:00:00Z,39.58,-0.45,15.0,-3.0,200,4,,6.21,30.295275,,,TRUE,,,,,,,,CLR,,,,,,,,VFR,,,,,,,,,,,,METAR,50.0
LEAB 121400Z 31003KT 270V350 CAVOK 08/M04 Q1027 NOSIG,LEAB,2019-01-12T14:00:00Z,38.95,-1.85,8.0,-4.0,310,3,,6.21,30.324802,,,,,,TRUE,,,,,CAVOK,,,,,,,,VFR,,,,,,,,,,,,METAR,704.0
SELT 121400Z 34004KT 9999 FEW020 BKN030 12/07 Q1032,SELT,2019-01-12T14:00:00Z,-0.92,-78.62,12.0,7.0,340,4,,6.21,30.47244,,,,,,,,,,,FEW,2000,BKN,3000,,,,,MVFR,,,,,,,,,,,,METAR,2785.0
SBLO 121400Z 10007KT 9999 FEW025 27/20 Q1019,SBLO,2019-01-12T14:00:00Z,-23.32,-51.12,27.0,20.0,100,7,,6.21,30.088583,,,,,,,,,,,FEW,2500,,,,,,,VFR,,,,,,,,,,,,METAR,570.0
LFLL 121400Z 02005KT 9999 FEW011 OVC045 05/04 Q1027 NOSIG,LFLL,2019-01-12T14:00:00Z,45.72,5.07,5.0,4.0,20,5,,6.21,30.324802,,,,,,TRUE,,,,,FEW,1100,OVC,4500,,,,,VFR,,,,,,,,,,,,METAR,240.0
LESO 121400Z VRB01KT 9999 FEW023 BKN050 10/06 Q1032,LESO,2019-01-12T14:00:00Z,43.35,-1.8,10.0,6.0,0,1,,6.21,30.47244,,,,,,,,,,,FEW,2300,BKN,5000,,,,,VFR,,,,,,,,,,,,METAR,8.0
SPJR 121400Z VRB02KT 9999 FEW033 BKN080 14/05 Q1029 RMK PP000,SPJR,2019-01-12T14:00:00Z,-7.12,-78.47,14.0,5.0,0,2,,6.21,30.383858,,,,,,,,,,,FEW,3300,BKN,8000,,,,,VFR,,,,,,,,,,,,METAR,2622.0
LFYR 121400Z AUTO 24006KT 220V280 9999 OVC038 08/05 Q1028,LFYR,2019-01-12T14:00:00Z,47.32,1.67,8.0,5.0,240,6,,6.21,30.35433,,,TRUE,,,,,,,,OVC,3800,,,,,,,VFR,,,,,,,,,,,,METAR,86.0
CYLU 121400Z 36010G16KT 6SM -SN SCT007 SCT012 BKN095 BKN160 M16/M18 A3009 RMK ST3ST1AC2AC1 SLP201,CYLU,2019-01-12T14:00:00Z,58.72,-65.97,-16.0,-18.0,360,10,16,6.0,30.088583,1020.1,,,,,,,,,-SN,SCT,700,SCT,1200,BKN,9500,BKN,16000,VFR,,,,,,,,,,,,SPECI,60.0
CYGW 121400Z AUTO 28010KT 9SM -SN OVC014 M16/M18 A3043 RMK SLP308,CYGW,2019-01-12T14:00:00Z,55.27,-77.77,-16.0,-18.0,280,10,,9.0,30.431103,1030.8,,TRUE,,,,,,,-SN,OVC,1400,,,,,,,MVFR,,,,,,,,,,,,SPECI,12.0
CYDP 121400Z 33026G34KT 10SM -SN BLSN BKN012 OVC018 M10/M12 A2981 RMK ST5SC3 G37 PAST HR SLP098,CYDP,2019-01-12T14:00:00Z,56.53,-61.67,-10.0,-12.0,330,26,34,10.0,29.811024,1009.8,,,,,,,,,-SN BLSN,BKN,1200,OVC,1800,,,,,MVFR,,,,,,,,,,,,SPECI,7.0
CYDF 121400Z 23013KT 15SM FEW025 OVC045 M04/M10 A2991 RMK SC2SC6 INTMT -SN SLP132,CYDF,2019-01-12T14:00:00Z,49.22,-57.4,-4.0,-10.0,230,13,,15.0,29.911417,1013.2,,,,,,,,,,FEW,2500,OVC,4500,,,,,VFR,,,,,,,,,,,,SPECI,22.0
CYCX 121400Z 28014G21KT 15SM SCT085 M17/M22 A3015 RMK AC4 DA-4082FT SLP213,CYCX,2019-01-12T14:00:00Z,45.82,-66.42,-17.0,-22.0,280,14,21,15.0,30.15059,1021.3,,,,,,,,,,SCT,8500,,,,,,,VFR,,,,,,,,,,,,SPECI,51.0
CYZU 121400Z 25004KT 15SM BKN150 M07/M08 A2990 RMK AC5 SLP177,CYZU,2019-01-12T14:00:00Z,54.15,-115.78,-7.0,-8.0,250,4,,15.0,29.899607,1017.7,,,,,,,,,,BKN,15000,,,,,,,VFR,,,,,,,,,,,,SPECI,785.0
CYXH 121400Z 22012KT 15SM SKC M01/M08 A2997 RMK SLP177,CYXH,2019-01-12T14:00:00Z,50.02,-110.72,-1.0,-8.0,220,12,,15.0,29.970472,1017.7,,,,,,,,,,SKC,,,,,,,,VFR,,,,,,,,,,,,SPECI,716.0
CYVT 121400Z 18008KT 15SM SCT160 OVC250 M13/M15 A2990 RMK AC4CI4 SLP165,CYVT,2019-01-12T14:00:00Z,55.82,-108.42,-13.0,-15.0,180,8,,15.0,29.899607,1016.5,,,,,,,,,,SCT,16000,OVC,25000,,,,,VFR,,,,,,,,,,,,SPECI,434.0
CYUX 121400Z 33009KT 10SM SKC M38/M42 A3042 RMK BR OVR BASIN SLP304,CYUX,2019-01-12T14:00:00Z,68.77,-81.25,-38.0,-42.0,330,9,,10.0,30.41929,1030.4,,,,,,,,,,SKC,,,,,,,,VFR,,,,,,,,,,,,SPECI,8.0
CYUB 121400Z 01008KT 6SM -SN OVC036 M24/M27 A3011 RMK SC8 TRACE LOOSE SLP197,CYUB,2019-01-12T14:00:00Z,69.45,-133.02,-24.0,-27.0,10,8,,6.0,30.109253,1019.7,,,,,,,,,-SN,OVC,3600,,,,,,,VFR,,,,,,,,,,,,SPECI,5.0
CYTH 121400Z 20007KT 140V220 15SM SCT009 BKN160 M17/M20 A3029 RMK SC3AC4 SLP288,CYTH,2019-01-12T14:00:00Z,55.78,-97.87,-17.0,-20.0,200,7,,15.0,30.28937,1028.8,,,,,,,,,,SCT,900,BKN,16000,,,,,VFR,,,,,,,,,,,,SPECI,218.0
CYSM 121400Z 30012G19KT 15SM OVC009 M11/M13 A2979 RMK SC8 SLP109,CYSM,2019-01-12T14:00:00Z,60.03,-111.97,-11.0,-13.0,300,12,19,15.0,29.790354,1010.9,,,,,,,,,,OVC,900,,,,,,,IFR,,,,,,,,,,,,SPECI,203.0
CYSF 121400Z AUTO 05004KT 9SM BKN200 OVC220 M12/M13 A2975 RMK SLP099,CYSF,2019-01-12T14:00:00Z,59.25,-105.82,-12.0,-13.0,50,4,,9.0,29.749016,1009.9,,TRUE,,,,,,,,BKN,20000,OVC,22000,,,,,VFR,,,,,,,,,,,,SPECI,250.0
CYQV 121400Z AUTO 17007KT 9SM OVC010 M11/M14 A3026 RMK SLP292,CYQV,2019-01-12T14:00:00Z,51.27,-102.47,-11.0,-14.0,170,7,,9.0,30.259842,1029.2,,TRUE,,,,,,,,OVC,1000,,,,,,,MVFR,,,,,,,,,,,,SPECI,498.0
CYPE 121400Z 20003KT 12SM BKN110 OVC230 M06/M07 A2983 RMK AC6CI2 SLP143,CYPE,2019-01-12T14:00:00Z,56.22,-117.45,-6.0,-7.0,200,3,,12.0,29.828741,1014.3,,,,,,,,,,BKN,11000,OVC,23000,,,,,VFR,,,,,,,,,,,,SPECI,571.0
CYOD 121400Z 18002KT 15SM SCT140 M12/M14 A2995 RMK AC3 SLP187,CYOD,2019-01-12T14:00:00Z,54.4,-110.28,-12.0,-14.0,180,2,,15.0,29.949802,1018.7,,,,,,,,,,SCT,14000,,,,,,,VFR,,,,,,,,,,,,SPECI,544.0
CYLJ 121400Z VRB02KT 15SM BKN150 OVC230 M15/M17 A2997 RMK AC5CS3 SLP193,CYLJ,2019-01-12T14:00:00Z,54.12,-108.52,-15.0,-17.0,0,2,,15.0,29.970472,1019.3,,,,,,,,,,BKN,15000,OVC,23000,,,,,VFR,,,,,,,,,,,,SPECI,480.0
CYIO 121400Z AUTO 18003KT 9SM CLR M37/M41 A3035 RMK SLP292,CYIO,2019-01-12T14:00:00Z,72.67,-77.97,-37.0,-41.0,180,3,,9.0,30.351377,1029.2,,TRUE,,,,,,,,CLR,,,,,,,,VFR,,,,,,,,,,,,SPECI,57.0
CYEK 121400Z AUTO 18031G37KT 1/2SM SN BLSN VV012 M14/M16 A2998 RMK PRESFR SLP157,CYEK,2019-01-12T14:00:00Z,61.1,-94.07,-14.0,-16.0,180,31,37,0.5,29.97933,1015.7,,TRUE,,,,,,,SN BLSN,OVX,0,,,,,,,LIFR,,,,,,,,,,,1200,SPECI,10.0
CYED 121400Z AUTO 24006KT 9SM CLR M07/M09 A2989 RMK SLP166,CYED,2019-01-12T14:00:00Z,53.67,-113.47,-7.0,-9.0,240,6,,9.0,29.890747,1016.6,,TRUE,,,,,,,,CLR,,,,,,,,VFR,,,,,,,,,,,,SPECI,688.0
CYBW 121400Z AUTO 03005KT 9SM OVC210 01/M08 A2995 RMK SLP178,CYBW,2019-01-12T14:00:00Z,51.1,-114.37,1.0,-8.0,30,5,,9.0,29.949802,1017.8,,TRUE,,,,,,,,OVC,21000,,,,,,,VFR,,,,,,,,,,,,SPECI,1200.0
CWRF 121400Z AUTO 13014G21KT M31/ A3011 RMK SLP260,CWRF,2019-01-12T14:00:00Z,69.42,-89.72,-31.0,,130,14,21,,30.109253,1026.0,,TRUE,,,,,,,,,,,,,,,,,,,,,,,,,,,,METAR,325.0
CYGP 121400Z CCA 30008KT 8SM -SN OVC036 M10/M13 A2987 RMK SC8 SLP119,CYGP,2019-01-12T14:00:00Z,48.77,-64.47,-10.0,-13.0,300,8,,8.0,29.870079,1011.9,,,,,,,,,-SN,OVC,3600,,,,,,,VFR,,,,,,,,,,,,SPECI,33.0
CYZS 121400Z 06005KT 15SM IC FEW015 M35/M38 A3043 RMK SC1 SC TR SLP320,CYZS,2019-01-12T14:00:00Z,64.2,-83.37,-35.0,-38.0,60,5,,15.0,30.431103,1032.0,,,,,,,,,IC,FEW,1500,,,,,,,VFR,,,,,,,,,,,,SPECI,64.0
CYWJ 121400Z 29008KT 10SM FEW007 SCT080 M35/M39 A2998 RMK ST1AS3 -30.3/-35.2/0/36 SNW CVR/MUCH LOOSE SLP192,CYWJ,2019-01-12T14:00:00Z,65.22,-123.43,-35.0,-39.0,290,8,,10.0,29.97933,1019.2,,,,,,,,,,FEW,700,SCT,8000,,,,,VFR,,,,,,,,,,,,SPECI,176.0
CYWE 121400Z AUTO 31013KT 9SM OVC024 M19/M21 A2968 RMK SLP098,CYWE,2019-01-12T14:00:00Z,64.18,-114.08,-19.0,-21.0,310,13,,9.0,29.681103,1009.8,,TRUE,,,,,,,,OVC,2400,,,,,,,MVFR,,,,,,,,,,,,METAR,371.0
CYVM 121400Z VRB02KT 15SM SCT190 M39/M43 A3033 RMK AS4 SLP272,CYVM,2019-01-12T14:00:00Z,67.53,-64.02,-39.0,-43.0,0,2,,15.0,30.33071,1027.2,,,,,,,,,,SCT,19000,,,,,,,VFR,,,,,,,,,,,,SPECI,6.0
CYTE 121400Z AUTO 26004KT 9SM CLR M25/M29 A3041 RMK SLP308,CYTE,2019-01-12T14:00:00Z,64.22,-76.52,-25.0,-29.0,260,4,,9.0,30.410433,1030.8,,TRUE,,,,,,,,CLR,,,,,,,,VFR,,,,,,,,,,,,SPECI,47.0
CYSY 121400Z 09016G28KT 6SM DRSN FEW210 M31/M35 A3012 RMK CI1 SNW CVR HARD PACK SLP217,CYSY,2019-01-12T14:00:00Z,72.0,-125.27,-31.0,-35.0,90,16,28,6.0,30.121063,1021.7,,,,,,,,,DRSN,FEW,21000,,,,,,,VFR,,,,,,,,,,,,SPECI,86.0
CYOA 121400Z 30004KT 10SM -SN BKN020 M21/M24 A2953 RMK SC7,CYOA,2019-01-12T14:00:00Z,64.7,-110.62,-21.0,-24.0,300,4,,10.0,29.530512,,,,,,,,,,-SN,BKN,2000,,,,,,,MVFR,,,,,,,,,,,,SPECI,469.0
CYKD 121400Z 31014G20KT 12SM DRSN BKN100 M27/M31 A3020 RMK AC5 0.4 SNWCVR MUCHLOOSE SLP228,CYKD,2019-01-12T14:00:00Z,68.22,-135.0,-27.0,-31.0,310,14,20,12.0,30.200787,1022.8,,,,,,,,,DRSN,BKN,10000,,,,,,,VFR,,,,,,,,,,,,SPECI,7.0
CYHK 121400Z AUTO 08017KT 5SM HZ BKN150 M36/M39 A3018 RMK SLP233,CYHK,2019-01-12T14:00:00Z,68.62,-95.83,-36.0,-39.0,80,17,,5.0,30.180119,1023.3,,TRUE,,,,,,,HZ,BKN,15000,,,,,,,MVFR,,,,,,,,,,,,SPECI,46.0
CYGT 121400Z 36002KT 15SM FEW020 M33/M36 A3038 RMK SC1 SC TR SLP300,CYGT,2019-01-12T14:00:00Z,69.37,-81.82,-33.0,-36.0,360,2,,15.0,30.380905,1030.0,,,,,,,,,,FEW,2000,,,,,,,VFR,,,,,,,,,,,,SPECI,51.0
CYGH 121400Z 21006KT 15SM FEW085 M35/M39 A3014 RMK AC1 -34.8/ -40.4/ 0.0/ SNW CVR/ MEDIUM PACK/ SLP225,CYGH,2019-01-12T14:00:00Z,66.27,-128.62,-35.0,-39.0,210,6,,15.0,30.138779,1022.5,,,,,,,,,,FEW,8500,,,,,,,VFR,,,,,,,,,,,,SPECI,66.0
CYFS 121400Z 34006KT 15SM OVC016 M26/M30 A2998 RMK SC8 SLP179,CYFS,2019-01-12T14:00:00Z,61.75,-121.22,-26.0,-30.0,340,6,,15.0,29.97933,1017.9,,,,,,,,,,OVC,1600,,,,,,,MVFR,,,,,,,,,,,,SPECI,169.0
CYCO 121400Z 34013KT 8SM -SN DRSN OVC072 M26/M30 A2989 RMK AC8 SLP127,CYCO,2019-01-12T14:00:00Z,67.82,-115.15,-26.0,-30.0,340,13,,8.0,29.890747,1012.7,,,,,,,,,-SN DRSN,OVC,7200,,,,,,,VFR,,,,,,,,,,,,SPECI,22.0
CYCB 121400Z 06020G26KT 3/8SM BLSN SCT003 BKN015 M31/M35 A3003 RMK BLSN2SC2SC2 SLP175,CYCB,2019-01-12T14:00:00Z,69.08,-105.12,-31.0,-35.0,60,20,26,0.38,30.029528,1017.5,,,,,,,,,BLSN,SCT,300,BKN,1500,,,,,LIFR,,,,,,,,,,,,SPECI,27.0
CZVL 121400Z AUTO VRB02KT 9SM CLR M11/M13 A2989 RMK SLP173,CZVL,2019-01-12T14:00:00Z,53.67,-113.85,-11.0,-13.0,0,2,,9.0,29.890747,1017.3,,TRUE,,,,,,,,CLR,,,,,,,,VFR,,,,,,,,,,,,METAR,686.0
CYZH 121400Z AUTO 13004KT 9SM FEW090 OVC110 M12/M13 A2988 RMK SLP166,CYZH,2019-01-12T14:00:00Z,55.28,-114.77,-12.0,-13.0,130,4,,9.0,29.878937,1016.6,,TRUE,,,,,,,,FEW,9000,OVC,11000,,,,,VFR,,,,,,,,,,,,SPECI,581.0
CYYN 121400Z AUTO 20021KT 9SM CLR M06/M08 A2999 RMK SLP207,CYYN,2019-01-12T14:00:00Z,50.27,-107.67,-6.0,-8.0,200,21,,9.0,29.991142,1020.7,,TRUE,,,,,,,,CLR,,,,,,,,VFR,,,,,,,,,,,,SPECI,818.0
CYVC 121400Z 17006KT 15SM BKN130 M11/M14 A3002 RMK AC6 SLP202,CYVC,2019-01-12T14:00:00Z,55.15,-105.27,-11.0,-14.0,170,6,,15.0,30.02067,1020.2,,,,,,,,,,BKN,13000,,,,,,,VFR,,,,,,,,,,,,SPECI,379.0
CYQW 121400Z AUTO 12012KT 9SM CLR M15/M17 A2998 RMK PRESFR SLP200,CYQW,2019-01-12T14:00:00Z,52.77,-108.25,-15.0,-17.0,120,12,,9.0,29.97933,1020.0,,TRUE,,,,,,,,CLR,,,,,,,,VFR,,,,,,,,,,,,SPECI,548.0
SBGL 121400Z 13007KT 9999 FEW025 32/23 Q1015,SBGL,2019-01-12T14:00:00Z,-22.82,-43.25,32.0,23.0,130,7,,6.21,29.970472,,,,,,,,,,,FEW,2500,,,,,,,VFR,,,,,,,,,,,,METAR,6.0
SKLT 121400Z 25005KT 9999 BKN012 SCT080 23/23 A2997 RERA,SKLT,2019-01-12T14:00:00Z,-4.2,-69.93,23.0,23.0,250,5,,6.21,29.970472,,,,,,,,,,,BKN,1200,SCT,8000,,,,,MVFR,,,,,,,,,,,,METAR,84.0
SPST 121400Z 15004KT 9999 FEW020 BKN100 25/22 Q1015 RMK BIRD HAZARD RWY 17/35 PP000,SPST,2019-01-12T14:00:00Z,-6.52,-76.37,25.0,22.0,150,4,,6.21,29.970472,,,,,,,,,,,FEW,2000,BKN,10000,,,,,VFR,,,,,,,,,,,,METAR,282.0
SPMS 121400Z 00000KT 9999 SCT010 OVC070 25/22 Q1015 RMK BIRD HAZARD RWY09/27 PP000,SPMS,2019-01-12T14:00:00Z,-5.9,-76.12,25.0,22.0,0,0,,6.21,29.970472,,,,,,,,,,,SCT,1000,OVC,7000,,,,,VFR,,,,,,,,,,,,METAR,179.0
SPME 121400Z 19003KT CAVOK 28/19 Q1013 RMK BIRD HAZARD RWY 32/14 PP000,SPME,2019-01-12T14:00:00Z,-3.53,-80.4,28.0,19.0,190,3,,6.21,29.911417,,,,,,,,,,,CAVOK,,,,,,,,VFR,,,,,,,,,,,,METAR,27.0
SPLO 121400Z 14011KT CAVOK 23/20 Q1015 RMK PP000,SPLO,2019-01-12T14:00:00Z,-17.7,-71.35,23.0,20.0,140,11,,6.21,29.970472,,,,,,,,,,,CAVOK,,,,,,,,VFR,,,,,,,,,,,,METAR,9.0
FDST 121400Z AUTO 13004G23KT //// // ////// 31/20 Q1007,FDST,2019-01-12T14:00:00Z,-26.43,31.95,31.0,20.0,130,4,23,,29.734253,,,TRUE,,,,,,,,,,,,,,,,,,,,,,,,,,,,METAR,667.0
VTUV 121400Z 05003KT 9000 NSC 25/16 Q1014 NOSIG,VTUV,2019-01-12T14:00:00Z,16.12,103.78,25.0,16.0,50,3,,5.59,29.940945,,,,,,TRUE,,,,,CLR,,,,,,,,VFR,,,,,,,,,,,,METAR,138.0
OEGN 121400Z 20009KT 9999 FEW030 28/22 Q1013 NOSIG,OEGN,2019-01-12T14:00:00Z,16.88,42.57,28.0,22.0,200,9,,6.21,29.911417,,,,,,TRUE,,,,,FEW,3000,,,,,,,VFR,,,,,,,,,,,,METAR,3.0
LFOJ 121400Z AUTO 26014KT 9999 OVC028 08/04 Q1026,LFOJ,2019-01-12T14:00:00Z,47.97,1.75,8.0,4.0,260,14,,6.21,30.295275,,,TRUE,,,,,,,,OVC,2800,,,,,,,MVFR,,,,,,,,,,,,METAR,125.0
MHRO 121400Z 05003KT 9999 FEW026 25/19 Q1018 A3006 NOSIG,MHRO,2019-01-12T14:00:00Z,16.32,-86.53,25.0,19.0,50,3,,6.21,30.059055,,,,,,TRUE,,,,,FEW,2600,,,,,,,VFR,,,,,,,,,,,,METAR,5.0
CYRT 121400Z 15025G30KT 1SM -SN BLSN OVC020 M17/M20 A3010 RMK BLSN5SC3 PRESFR SLP198,CYRT,2019-01-12T14:00:00Z,62.82,-92.12,-17.0,-20.0,150,25,30,1.0,30.100393,1019.8,,,,,,,,,-SN BLSN,OVC,2000,,,,,,,IFR,,,,,,,,,,,,SPECI,32.0
LFRJ 121400Z AUTO 30011KT 5000 -RADZ BR OVC006 10/09 Q1029,LFRJ,2019-01-12T14:00:00Z,48.52,-4.15,10.0,9.0,300,11,,3.11,30.383858,,,TRUE,,,,,,,-RA -DZ BR,OVC,600,,,,,,,IFR,,,,,,,,,,,,METAR,115.0
SBBV 121400Z 09017KT 9999 SCT030 SCT080 30/19 Q1015,SBBV,2019-01-12T14:00:00Z,2.85,-60.7,30.0,19.0,90,17,,6.21,29.970472,,,,,,,,,,,SCT,3000,SCT,8000,,,,,VFR,,,,,,,,,,,,METAR,140.0
SBPS 121400Z 14007KT 9999 FEW020 29/21 Q1016,SBPS,2019-01-12T14:00:00Z,-16.43,-39.07,29.0,21.0,140,7,,6.21,30.0,,,,,,,,,,,FEW,2000,,,,,,,VFR,,,,,,,,,,,,METAR,51.0
SPTU 121400Z VRB03KT 9999 BKN012 26/22 Q1014 RMK BIRD HAZARD RWY 01/19 PP000,SPTU,2019-01-12T14:00:00Z,-12.62,-69.2,26.0,22.0,0,3,,6.21,29.940945,,,,,,,,,,,BKN,1200,,,,,,,MVFR,,,,,,,,,,,,METAR,266.0
SPYL 121400Z 15009KT CAVOK 28/18 Q1014 RMK BIRD HAZARD RWY 17/35 PP000,SPYL,2019-01-12T14:00:00Z,-4.57,-81.25,28.0,18.0,150,9,,6.21,29.940945,,,,,,,,,,,CAVOK,,,,,,,,VFR,,,,,,,,,,,,METAR,90.0
OINN 121400Z 00000KT 9999 FEW025 SCT190 10/06 Q1012,OINN,2019-01-12T14:00:00Z,36.67,51.47,10.0,6.0,0,0,,6.21,29.88189,,,,,,,,,,,FEW,2500,SCT,19000,,,,,VFR,,,,,,,,,,,,METAR,-19.0
OSLK 121400Z 10008KT 9999 FEW030 15/04 Q1011,OSLK,2019-01-12T14:00:00Z,35.4,35.95,15.0,4.0,100,8,,6.21,29.852362,,,,,,,,,,,FEW,3000,,,,,,,VFR,,,,,,,,,,,,METAR,48.0
OSKL 121400Z 07004KT 8000 FEW026 SCT100 08/M02 Q1018,OSKL,2019-01-12T14:00:00Z,37.03,41.2,8.0,-2.0,70,4,,4.97,30.059055,,,,,,,,,,,FEW,2600,SCT,10000,,,,,MVFR,,,,,,,,,,,,METAR,455.0
MYGF 121400Z 08010KT 9999 FEW018 21/15 A3023,MYGF,2019-01-12T14:00:00Z,26.55,-78.7,21.0,15.0,80,10,,6.21,30.230314,,,,,,,,,,,FEW,1800,,,,,,,VFR,,,,,,,,,,,,METAR,2.0
MTPP 121400Z 12010KT 9999 FEW022 26/21 Q1018 A3006,MTPP,2019-01-12T14:00:00Z,18.57,-72.28,26.0,21.0,120,10,,6.21,30.059055,,,,,,,,,,,FEW,2200,,,,,,,VFR,,,,,,,,,,,,METAR,37.0
SBCZ 121400Z 12003KT 8000 -RA BKN006 OVC100 23/23 Q1016,SBCZ,2019-01-12T14:00:00Z,-7.62,-72.77,23.0,23.0,120,3,,4.97,30.0,,,,,,,,,,-RA,BKN,600,OVC,10000,,,,,IFR,,,,,,,,,,,,METAR,170.0
SBSL 121400Z 22004KT 9999 FEW017 BKN100 26/23 Q1014,SBSL,2019-01-12T14:00:00Z,-2.6,-44.22,26.0,23.0,220,4,,6.21,29.940945,,,,,,,,,,,FEW,1700,BKN,10000,,,,,VFR,,,,,,,,,,,,METAR,53.0
SBMO 121400Z 14012KT 9999 SCT020 29/20 Q1014,SBMO,2019-01-12T14:00:00Z,-9.52,-35.77,29.0,20.0,140,12,,6.21,29.940945,,,,,,,,,,,SCT,2000,,,,,,,VFR,,,,,,,,,,,,METAR,115.0
CYPG 121400Z 22003KT 15SM OVC029 M13/M15 A3045 RMK SC8 SLP334,CYPG,2019-01-12T14:00:00Z,49.88,-98.27,-13.0,-15.0,220,3,,15.0,30.448818,1033.4,,,,,,,,,,OVC,2900,,,,,,,MVFR,,,,,,,,,,,,SPECI,269.0
CYPA 121400Z 15003KT 15SM BKN250 M18/M21 A3009 RMK CI7 SLP237,CYPA,2019-01-12T14:00:00Z,53.22,-105.67,-18.0,-21.0,150,3,,15.0,30.088583,1023.7,,,,,,,,,,BKN,25000,,,,,,,VFR,,,,,,,,,,,,SPECI,428.0
LFRS 121400Z AUTO 25011KT 9999 BKN021 OVC029 09/06 Q1030 NOSIG,LFRS,2019-01-12T14:00:00Z,47.17,-1.6,9.0,6.0,250,11,,6.21,30.413385,,,TRUE,,,TRUE,,,,,BKN,2100,OVC,2900,,,,,MVFR,,,,,,,,,,,,METAR,27.0
LFRL 121400Z AUTO 29012KT 9999 BKN006 OVC010 10/09 Q1030,LFRL,2019-01-12T14:00:00Z,48.27,-4.42,10.0,9.0,290,12,,6.21,30.413385,,,TRUE,,,,,,,,BKN,600,OVC,1000,,,,,IFR,,,,,,,,,,,,METAR,82.0
LFBC 121400Z AUTO 22002KT 9999 BKN038 OVC044 08/07 Q1032,LFBC,2019-01-12T14:00:00Z,44.52,-1.12,8.0,7.0,220,2,,6.21,30.47244,,,TRUE,,,,,,,,BKN,3800,OVC,4400,,,,,VFR,,,,,,,,,,,,METAR,33.0
LFBO 121400Z AUTO 30009KT CAVOK 08/03 Q1031 NOSIG,LFBO,2019-01-12T14:00:00Z,43.62,1.37,8.0,3.0,300,9,,6.21,30.442913,,,TRUE,,,TRUE,,,,,CAVOK,,,,,,,,VFR,,,,,,,,,,,,METAR,153.0
BKPR 121400Z 36005KT 9999 FEW030 SCT100 M03/M10 Q1015 NOSIG RMK 17010095,BKPR,2019-01-12T14:00:00Z,42.58,21.03,-3.0,-10.0,360,5,,6.21,29.970472,,,,,,TRUE,,,,,FEW,3000,SCT,10000,,,,,VFR,,,,,,,,,,,,METAR,576.0
LFOE 121400Z AUTO 26011KT 9999 2400 OVC009 08/07 Q1024,LFOE,2019-01-12T14:00:00Z,49.02,1.22,8.0,7.0,260,11,,6.21,30.236221,,,TRUE,,,,,,,,OVC,900,,,,,,,IFR,,,,,,,,,,,,METAR,146.0
LFKC 121400Z AUTO 21007KT 160V250 CAVOK 14/M00 Q1019 NOSIG,LFKC,2019-01-12T14:00:00Z,42.52,8.8,14.0,0.0,210,7,,6.21,30.088583,,,TRUE,,,TRUE,,,,,CAVOK,,,,,,,,VFR,,,,,,,,,,,,METAR,58.0
LFKJ 121400Z AUTO 23004KT 200V270 CAVOK 13/01 Q1020 NOSIG,LFKJ,2019-01-12T14:00:00Z,41.92,8.8,13.0,1.0,230,4,,6.21,30.11811,,,TRUE,,,TRUE,,,,,CAVOK,,,,,,,,VFR,,,,,,,,,,,,METAR,9.0
LFKF 121400Z AUTO 26014KT CAVOK 13/01 Q1019 NOSIG,LFKF,2019-01-12T14:00:00Z,41.5,9.08,13.0,1.0,260,14,,6.21,30.088583,,,TRUE,,,TRUE,,,,,CAVOK,,,,,,,,VFR,,,,,,,,,,,,METAR,23.0
CWPD 121400Z AUTO 04006KT M25/M28 RMK AO1 SLP278 T12511282 53023,CWPD,2019-01-12T14:00:00Z,47.57,-71.22,-25.1,-28.2,40,6,,,,1027.8,,TRUE,TRUE,,,,,,,,,,,,,,,,2.3,,,,,,,,,,,METAR,803.0
LFOC 121400Z AUTO 25012KT 9999 OVC024 08/05 Q1026,LFOC,2019-01-12T14:00:00Z,48.03,1.37,8.0,5.0,250,12,,6.21,30.295275,,,TRUE,,,,,,,,OVC,2400,,,,,,,MVFR,,,,,,,,,,,,METAR,127.0
OPMT 121400Z 00000KT 1500 BR NSC 13/10 Q1017 NOSIG,OPMT,2019-01-12T14:00:00Z,30.18,71.42,13.0,10.0,0,0,,0.93,30.029528,,,,,,TRUE,,,,BR,CLR,,,,,,,,LIFR,,,,,,,,,,,,METAR,123.0
MBPV 121400Z 03010KT 9999 SCT012 25/18 Q1020,MBPV,2019-01-12T14:00:00Z,21.77,-72.27,25.0,18.0,30,10,,6.21,30.11811,,,,,,,,,,,SCT,1200,,,,,,,VFR,,,,,,,,,,,,SPECI,5.0
SBMN 121400Z 07006KT 9999 FEW012 BKN100 27/24 Q1014,SBMN,2019-01-12T14:00:00Z,-3.13,-59.97,27.0,24.0,70,6,,6.21,29.940945,,,,,,,,,,,FEW,1200,BKN,10000,,,,,VFR,,,,,,,,,,,,METAR,84.0
TUPJ 121400Z 07010KT 10SM SCT020 27/21 A3011 RMK Q1019,TUPJ,2019-01-12T14:00:00Z,18.43,-64.52,27.0,21.0,70,10,,10.0,30.109253,,,,,,,,,,,SCT,2000,,,,,,,VFR,,,,,,,,,,,,METAR,4.0
LFBD 121400Z AUTO 27005KT 9999 BKN016 BKN024 BKN040 10/06 Q1032 NOSIG,LFBD,2019-01-12T14:00:00Z,44.82,-0.7,10.0,6.0,270,5,,6.21,30.47244,,,TRUE,,,TRUE,,,,,BKN,1600,BKN,2400,BKN,4000,,,MVFR,,,,,,,,,,,,METAR,61.0
OSDI 121400Z 04006KT CAVOK 12/01 Q1013,OSDI,2019-01-12T14:00:00Z,33.42,36.52,12.0,1.0,40,6,,6.21,29.911417,,,,,,,,,,,CAVOK,,,,,,,,VFR,,,,,,,,,,,,METAR,605.0
MRLM 121400Z 24004KT CAVOK 22/21 A3001,MRLM,2019-01-12T14:00:00Z,9.97,-83.03,22.0,21.0,240,4,,6.21,30.008858,,,,,,,,,,,CAVOK,,,,,,,,VFR,,,,,,,,,,,,SPECI,2.0
SBEG 121400Z 05012KT 9999 FEW012 27/22 Q1015,SBEG,2019-01-12T14:00:00Z,-3.02,-60.03,27.0,22.0,50,12,,6.21,29.970472,,,,,,,,,,,FEW,1200,,,,,,,VFR,,,,,,,,,,,,METAR,2.0
SBAR 121400Z 13009KT 9999 SCT023 30/20 Q1014,SBAR,2019-01-12T14:00:00Z,-10.97,-37.07,30.0,20.0,130,9,,6.21,29.940945,,,,,,,,,,,SCT,2300,,,,,,,VFR,,,,,,,,,,,,METAR,9.0
LFKS 121400Z AUTO 16007KT CAVOK 12/M02 Q1019,LFKS,2019-01-12T14:00:00Z,41.92,9.4,12.0,-2.0,160,7,,6.21,30.088583,,,TRUE,,,,,,,,CAVOK,,,,,,,,VFR,,,,,,,,,,,,METAR,22.0
LFMC 121400Z AUTO 24004KT 200V290 9999 ////// 15/M01 Q1018,LFMC,2019-01-12T14:00:00Z,43.37,6.37,15.0,-1.0,240,4,,6.21,30.059055,,,TRUE,,,,,,,,,,,,,,,,,,,,,,,,,,,,METAR,78.0
CYYE 121400Z 17003KT 15SM SCT082 M22/M25 A2985 RMK AC4 SLP152,CYYE,2019-01-12T14:00:00Z,58.82,-122.57,-22.0,-25.0,170,3,,15.0,29.84941,1015.2,,,,,,,,,,SCT,8200,,,,,,,VFR,,,,,,,,,,,,SPECI,382.0
YBWP 121400Z AUTO 09007KT 9999 // BKN053 OVC086 26/23 Q1009,YBWP,2019-01-12T14:00:00Z,-12.68,141.92,26.0,23.0,90,7,,6.21,29.793306,,,TRUE,,,,,,,,BKN,5300,OVC,8600,,,,,VFR,,,,,,,,,,,,METAR,12.0
SYEC 121400Z 05010KT 9999 SCT019 BKN100 28/22 Q1016 NOSIG,SYEC,2019-01-12T14:00:00Z,6.8,-58.1,28.0,22.0,50,10,,6.21,30.0,,,,,,TRUE,,,,,SCT,1900,BKN,10000,,,,,VFR,,,,,,,,,,,,METAR,10.0
YGTE 121400Z AUTO 09006KT 9999 // NCD 28/24 Q1008,YGTE,2019-01-12T14:00:00Z,-13.97,136.45,28.0,24.0,90,6,,6.21,29.763779,,,TRUE,,,,,,,,CLR,,,,,,,,VFR,,,,,,,,,,,,METAR,14.0
SCVM 121400Z 32007KT 9999 BKN023 17/13 Q1019,SCVM,2019-01-12T14:00:00Z,-32.95,-71.48,17.0,13.0,320,7,,6.21,30.088583,,,,,,,,,,,BKN,2300,,,,,,,MVFR,,,,,,,,,,,,METAR,141.0
SBUA 121400Z 11007KT 9999 FEW020 28/24 Q1013,SBUA,2019-01-12T14:00:00Z,-0.15,-66.98,28.0,24.0,110,7,,6.21,29.911417,,,,,,,,,,,FEW,2000,,,,,,,VFR,,,,,,,,,,,,METAR,79.0
CYNC 121400Z 32006KT 15SM OVC014 M15/M18 A3052 RMK SC8 SLP340,CYNC,2019-01-12T14:00:00Z,53.02,-78.82,-15.0,-18.0,320,6,,15.0,30.519686,1034.0,,,,,,,,,,OVC,1400,,,,,,,MVFR,,,,,,,,,,,,SPECI,14.0
GMMH 121400Z 11006KT CAVOK 25/M03 Q1015 NOSIG,GMMH,2019-01-12T14:00:00Z,23.72,-15.93,25.0,-3.0,110,6,,6.21,29.970472,,,,,,TRUE,,,,,CAVOK,,,,,,,,VFR,,,,,,,,,,,,METAR,11.0
LFBY 121400Z AUTO VRB03KT 9999 // SCT046 09/03 Q1032,LFBY,2019-01-12T14:00:00Z,43.67,-1.07,9.0,3.0,0,3,,6.21,30.47244,,,TRUE,,,,,,,,SCT,4600,,,,,,,VFR,,,,,,,,,,,,METAR,32.0
LFBM 121400Z AUTO VRB03KT CAVOK 09/04 Q1032 NOSIG,LFBM,2019-01-12T14:00:00Z,43.92,-0.5,9.0,4.0,0,3,,6.21,30.47244,,,TRUE,,,TRUE,,,,,CAVOK,,,,,,,,VFR,,,,,,,,,,,,METAR,63.0
LFBG 121400Z AUTO 24006KT 9999 BKN010 08/06 Q1031 TEMPO OVC004 BECMG 4000 BR,LFBG,2019-01-12T14:00:00Z,45.67,-0.32,8.0,6.0,240,6,,6.21,30.442913,,,TRUE,,,,,,,,BKN,1000,,,,,,,MVFR,,,,,,,,,,,,METAR,31.0
GMTA 121400Z 06010KT CAVOK 17/M07 Q1025 NOSIG,GMTA,2019-01-12T14:00:00Z,35.17,-3.85,17.0,-7.0,60,10,,6.21,30.265747,,,,,,TRUE,,,,,CAVOK,,,,,,,,VFR,,,,,,,,,,,,METAR,14.0
SBGO 121400Z 12007KT 070V170 9999 FEW040 29/19 Q1019,SBGO,2019-01-12T14:00:00Z,-16.62,-49.22,29.0,19.0,120,7,,6.21,30.088583,,,,,,,,,,,FEW,4000,,,,,,,VFR,,,,,,,,,,,,METAR,747.0
FACT 121400Z 30014KT 270V340 CAVOK 21/10 Q1009 NOSIG,FACT,2019-01-12T14:00:00Z,-33.97,18.6,21.0,10.0,300,14,,6.21,29.793306,,,,,,TRUE,,,,,CAVOK,,,,,,,,VFR,,,,,,,,,,,,METAR,42.0
FAGG 121400Z VRB06KT 9999 FEW033 21/12 Q1007,FAGG,2019-01-12T14:00:00Z,-34.0,22.37,21.0,12.0,0,6,,6.21,29.734253,,,,,,,,,,,FEW,3300,,,,,,,VFR,,,,,,,,,,,,METAR,193.0
ZWSH 121400Z 27001MPS 7000 BKN040 M04/M12 Q1024 NOSIG,ZWSH,2019-01-12T14:00:00Z,39.55,76.02,-4.0,-12.0,270,2,,4.35,30.236221,,,,,,TRUE,,,,,BKN,4000,,,,,,,MVFR,,,,,,,,,,,,METAR,1380.0
SBRF 121400Z 19006KT 5000 -RA BKN015 BKN040 25/23 Q1013,SBRF,2019-01-12T14:00:00Z,-8.13,-34.92,25.0,23.0,190,6,,3.11,29.911417,,,,,,,,,,-RA,BKN,1500,BKN,4000,,,,,MVFR,,,,,,,,,,,,METAR,19.0
GVAC 121400Z 06009KT 9999 FEW014 SCT200 26/15 Q1014 NOSIG,GVAC,2019-01-12T14:00:00Z,16.72,-22.93,26.0,15.0,60,9,,6.21,29.940945,,,,,,TRUE,,,,,FEW,1400,SCT,20000,,,,,VFR,,,,,,,,,,,,METAR,55.0
SCEL 121400Z 15006KT 120V210 CAVOK 20/08 Q1018 NOSIG,SCEL,2019-01-12T14:00:00Z,-33.37,-70.77,20.0,8.0,150,6,,6.21,30.059055,,,,,,TRUE,,,,,CAVOK,,,,,,,,VFR,,,,,,,,,,,,METAR,476.0
SPJC 121400Z 16008KT 9999 FEW005 BKN170 23/21 Q1015 NOSIG RMK PP000,SPJC,2019-01-12T14:00:00Z,-12.02,-77.12,23.0,21.0,160,8,,6.21,29.970472,,,,,,TRUE,,,,,FEW,500,BKN,17000,,,,,VFR,,,,,,,,,,,,METAR,13.0
OPSK 121400Z 00000KT 4000 HZ NSC 19/12 Q1014 NOSIG,OPSK,2019-01-12T14:00:00Z,27.72,68.8,19.0,12.0,0,0,,2.49,29.940945,,,,,,TRUE,,,,HZ,CLR,,,,,,,,IFR,,,,,,,,,,,,METAR,58.0
FALE 121400Z 14009KT 9999 FEW019 SCT022 26/19 Q1008 NOSIG,FALE,2019-01-12T14:00:00Z,-29.62,31.12,26.0,19.0,140,9,,6.21,29.763779,,,,,,TRUE,,,,,FEW,1900,SCT,2200,,,,,VFR,,,,,,,,,,,,METAR,109.0
FAOR 121400Z 32008KT 280V350 9999 FEW060CB 30/15 Q1016 TEMPO TS,FAOR,2019-01-12T14:00:00Z,-26.12,28.22,30.0,15.0,320,8,,6.21,30.0,,,,,,,,,,,FEW,6000,,,,,,,VFR,,,,,,,,,,,,METAR,1700.0
FAGM 121400Z 29007KT CAVOK 28/13 Q1018,FAGM,2019-01-12T14:00:00Z,-26.25,28.15,28.0,13.0,290,7,,6.21,30.059055,,,,,,,,,,,CAVOK,,,,,,,,VFR,,,,,,,,,,,,METAR,1672.0
FAPE 121400Z 21015KT 9999 FEW010 22/14 Q1007 NOSIG,FAPE,2019-01-12T14:00:00Z,-33.97,25.6,22.0,14.0,210,15,,6.21,29.734253,,,,,,TRUE,,,,,FEW,1000,,,,,,,VFR,,,,,,,,,,,,METAR,60.0
FAUP 121400Z 24005KT CAVOK 33/01 Q1010 NOSIG,FAUP,2019-01-12T14:00:00Z,-28.38,21.27,33.0,1.0,240,5,,6.21,29.822834,,,,,,TRUE,,,,,CAVOK,,,,,,,,VFR,,,,,,,,,,,,METAR,836.0
FALA 121400Z 31010KT 280V350 9999 SCT045 31/15 Q1013 NOSIG,FALA,2019-01-12T14:00:00Z,-25.92,27.92,31.0,15.0,310,10,,6.21,29.911417,,,,,,TRUE,,,,,SCT,4500,,,,,,,VFR,,,,,,,,,,,,METAR,1377.0
FAMM 121400Z 26007KT 9999 FEW040 37/08 Q1010 NOSIG,FAMM,2019-01-12T14:00:00Z,-25.8,25.52,37.0,8.0,260,7,,6.21,29.822834,,,,,,TRUE,,,,,FEW,4000,,,,,,,VFR,,,,,,,,,,,,METAR,1277.0
ZBSJ 121400Z VRB01MPS 0400 R15/0600V1000D FZFG VV010 M04/M04 Q1026 NOSIG,ZBSJ,2019-01-12T14:00:00Z,38.28,114.7,-4.0,-4.0,0,2,,0.25,30.295275,,,,,,TRUE,,,,FZFG,OVX,0,,,,,,,LIFR,,,,,,,,,,,1000,METAR,71.0
SBNF 121400Z 12009KT 9999 SCT030 29/23 Q1017,SBNF,2019-01-12T14:00:00Z,-26.88,-48.65,29.0,23.0,120,9,,6.21,30.029528,,,,,,,,,,,SCT,3000,,,,,,,VFR,,,,,,,,,,,,METAR,5.0
ZBTJ 121400Z 28002MPS 0500 R16R/1400N R16L/1300V2000D FZFG NSC M02/M03 Q1026 BECMG TL1530 0300 FZFG,ZBTJ,2019-01-12T14:00:00Z,39.12,117.35,-2.0,-3.0,280,4,,0.31,30.295275,,,,,,,,,,FZFG,CLR,,,,,,,,LIFR,,,,,,,,,,,,METAR,3.0
FAUT 121400Z 10016KT 9999 FEW030 26/15 Q1008,FAUT,2019-01-12T14:00:00Z,-31.52,28.67,26.0,15.0,100,16,,6.21,29.763779,,,,,,,,,,,FEW,3000,,,,,,,VFR,,,,,,,,,,,,METAR,732.0
ZBYN 121400Z VRB01MPS 3500 HZ NSC M05/M12 Q1025 BECMG TL1430 2800 HZ,ZBYN,2019-01-12T14:00:00Z,37.77,112.63,-5.0,-12.0,0,2,,2.17,30.265747,,,,,,,,,,HZ,CLR,,,,,,,,IFR,,,,,,,,,,,,METAR,779.0
ZGGG 121400Z VRB01MPS 8000 NSC 16/12 Q1019 NOSIG,ZGGG,2019-01-12T14:00:00Z,23.4,113.3,16.0,12.0,0,2,,4.97,30.088583,,,,,,TRUE,,,,,CLR,,,,,,,,MVFR,,,,,,,,,,,,METAR,15.0
FAPP 121400Z 22004KT 9999 FEW035CB SCT100 28/16 Q1012 NOSIG,FAPP,2019-01-12T14:00:00Z,-23.83,29.45,28.0,16.0,220,4,,6.21,29.88189,,,,,,TRUE,,,,,FEW,3500,SCT,10000,,,,,VFR,,,,,,,,,,,,METAR,1242.0
SBPV 121400Z 09004KT 9999 SCT025 BKN100 28/23 Q1014,SBPV,2019-01-12T14:00:00Z,-8.72,-63.9,28.0,23.0,90,4,,6.21,29.940945,,,,,,,,,,,SCT,2500,BKN,10000,,,,,VFR,,,,,,,,,,,,METAR,88.0
ZSHC 121400Z 36002MPS 7000 BKN030 06/02 Q1027 NOSIG,ZSHC,2019-01-12T14:00:00Z,30.22,120.43,6.0,2.0,360,4,,4.35,30.324802,,,,,,TRUE,,,,,BKN,3000,,,,,,,MVFR,,,,,,,,,,,,METAR,43.0
SBRB 121400Z 27007KT 0800 +RA BKN004 OVC026 22/22 Q1016 RERA,SBRB,2019-01-12T14:00:00Z,-10.0,-67.78,22.0,22.0,270,7,,0.5,30.0,,,,,,,,,,+RA,BKN,400,OVC,2600,,,,,LIFR,,,,,,,,,,,,METAR,143.0
LFML 121400Z AUTO 33018KT CAVOK 11/01 Q1021 BECMG 34015G25KT,LFML,2019-01-12T14:00:00Z,43.45,5.22,11.0,1.0,330,18,,6.21,30.147638,,,TRUE,,,,,,,,CAVOK,,,,,,,,VFR,,,,,,,,,,,,METAR,36.0
LFLB 121400Z AUTO 07003KT 040V100 9999 OVC047 04/M01 Q1027 NOSIG,LFLB,2019-01-12T14:00:00Z,45.63,5.87,4.0,-1.0,70,3,,6.21,30.324802,,,TRUE,,,TRUE,,,,,OVC,4700,,,,,,,VFR,,,,,,,,,,,,METAR,239.0
LFKB 121400Z AUTO 15005KT 110V180 CAVOK 13/M00 Q1019 NOSIG,LFKB,2019-01-12T14:00:00Z,42.53,9.47,13.0,0.0,150,5,,6.21,30.088583,,,TRUE,,,TRUE,,,,,CAVOK,,,,,,,,VFR,,,,,,,,,,,,METAR,12.0
LFBZ 121400Z AUTO 29001KT 9999 SCT047 OVC054 10/05 Q1032 NOSIG,LFBZ,2019-01-12T14:00:00Z,43.47,-1.52,10.0,5.0,290,1,,6.21,30.47244,,,TRUE,,,TRUE,,,,,SCT,4700,OVC,5400,,,,,VFR,,,,,,,,,,,,METAR,71.0
LFBT 121400Z AUTO VRB03KT 9999 FEW023 OVC050 08/03 Q1031 NOSIG,LFBT,2019-01-12T14:00:00Z,43.17,0.0,8.0,3.0,0,3,,6.21,30.442913,,,TRUE,,,TRUE,,,,,FEW,2300,OVC,5000,,,,,VFR,,,,,,,,,,,,METAR,363.0
LFBP 121400Z AUTO 28003KT 240V300 9999 OVC054 08/02 Q1032 NOSIG,LFBP,2019-01-12T14:00:00Z,43.37,-0.42,8.0,2.0,280,3,,6.21,30.47244,,,TRUE,,,TRUE,,,,,OVC,5400,,,,,,,VFR,,,,,,,,,,,,METAR,185.0
LFJL 121400Z AUTO 23014KT 9999 OVC015 05/03 Q1021 BECMG 24015G25KT OVC014,LFJL,2019-01-12T14:00:00Z,48.97,6.25,5.0,3.0,230,14,,6.21,30.147638,,,TRUE,,,,,,,,OVC,1500,,,,,,,MVFR,,,,,,,,,,,,METAR,264.0
LFCR 121400Z AUTO 30011KT 9999 OVC008 04/02 Q1028 NOSIG,LFCR,2019-01-12T14:00:00Z,44.38,2.47,4.0,2.0,300,11,,6.21,30.35433,,,TRUE,,,TRUE,,,,,OVC,800,,,,,,,IFR,,,,,,,,,,,,METAR,580.0
HDAM 121400Z 09009KT 9999 FEW020 28/21 Q1015,HDAM,2019-01-12T14:00:00Z,11.55,43.17,28.0,21.0,90,9,,6.21,29.970472,,,,,,,,,,,FEW,2000,,,,,,,VFR,,,,,,,,,,,,METAR,49.0
FNUG 121400Z 27008KT 9999 BKN020 25/22 Q1011,FNUG,2019-01-12T14:00:00Z,-7.6,15.28,25.0,22.0,270,8,,6.21,29.852362,,,,,,,,,,,BKN,2000,,,,,,,MVFR,,,,,,,,,,,,METAR,829.0
VAID 121400Z 04006KT 3000 HZ NSC 20/12 Q1016 NOSIG,VAID,2019-01-12T14:00:00Z,22.72,75.78,20.0,12.0,40,6,,1.86,30.0,,,,,,TRUE,,,,HZ,CLR,,,,,,,,IFR,,,,,,,,,,,,METAR,567.0
VERC 121400Z 00000KT 3500 HZ NSC 17/11 Q1019 NOSIG,VERC,2019-01-12T14:00:00Z,23.32,85.32,17.0,11.0,0,0,,2.17,30.088583,,,,,,TRUE,,,,HZ,CLR,,,,,,,,IFR,,,,,,,,,,,,METAR,652.0
VIDP 121400Z 00000KT 2100 FU FEW040 SCT100 18/07 Q1017 NOSIG,VIDP,2019-01-12T14:00:00Z,28.57,77.12,18.0,7.0,0,0,,1.3,30.029528,,,,,,TRUE,,,,FU,FEW,4000,SCT,10000,,,,,IFR,,,,,,,,,,,,METAR,233.0
CXTH 121400Z AUTO 27002KT M13/M14 RMK AO1 T11271138,CXTH,2019-01-12T14:00:00Z,53.63,-111.68,-12.7,-13.8,270,2,,,,,,TRUE,TRUE,,,,,,,,,,,,,,,,,,,,,,,,,,,METAR,678.0
CXSC 121400Z AUTO 22013KT M01/M08 RMK AO1 T10061075,CXSC,2019-01-12T14:00:00Z,50.3,-110.08,-0.6,-7.5,220,13,,,,,,TRUE,TRUE,,,,,,,,,,,,,,,,,,,,,,,,,,,METAR,800.0
CXFM 121400Z AUTO 15010KT M07/M10 RMK AO1 T10661099,CXFM,2019-01-12T14:00:00Z,49.48,-111.48,-6.6,-9.9,150,10,,,,,,TRUE,TRUE,,,,,,,,,,,,,,,,,,,,,,,,,,,METAR,881.0
CPXL 121400Z AUTO 17008KT M04/M08 RMK AO1 T10381078,CPXL,2019-01-12T14:00:00Z,49.87,-111.38,-3.8,-7.8,170,8,,,,,,TRUE,TRUE,,,,,,,,,,,,,,,,,,,,,,,,,,,METAR,799.0
CPIR 121400Z AUTO 24014KT 03/M09 RMK AO1 PK WND 24019/1338 T00251091,CPIR,2019-01-12T14:00:00Z,49.9,-112.73,2.5,-9.1,240,14,,,,,,TRUE,TRUE,,,,,,,,,,,,,,,,,,,,,,,,,,,METAR,858.0
CWWS 121400Z AUTO 17008KT M18/M19 RMK AO1 SLP333 T11751193 56009,CWWS,2019-01-12T14:00:00Z,52.82,-97.62,-17.5,-19.3,170,8,,,,1033.3,,TRUE,TRUE,,,,,,,,,,,,,,,,-0.9,,,,,,,,,,,METAR,223.0
CWDC 121400Z AUTO 21002KT M08/M10 RMK AO1 SOG 33 3001 SLP092 T10831104,CWDC,2019-01-12T14:00:00Z,59.57,-108.47,-8.3,-10.4,210,2,,,,1009.2,,TRUE,TRUE,,,,,,,,,,,,,,,,,,,,,,,,,,,METAR,318.0
CWXA 121400Z AUTO 24007G16KT M02/M08 RMK AO1 PK WND 25021/1304 SLP189 T10181078 53009,CWXA,2019-01-12T14:00:00Z,51.07,-115.07,-1.8,-7.8,240,7,16,,,1018.9,,TRUE,TRUE,,,,,,,,,,,,,,,,0.9,,,,,,,,,,,METAR,1298.0
CWTT 121400Z AUTO 29009G16KT M18/M22 RMK AO1 T11801216,CWTT,2019-01-12T14:00:00Z,45.27,-72.17,-18.0,-21.6,290,9,16,,,,,TRUE,TRUE,,,,,,,,,,,,,,,,,,,,,,,,,,,METAR,209.0
CZDB 121400Z AUTO 27009KT M13/M17 RMK AO1 SOG 10 3017 SLP195 T11281166,CZDB,2019-01-12T14:00:00Z,45.42,-63.47,-12.8,-16.6,270,9,,,,1019.5,,TRUE,TRUE,,,,,,,,,,,,,,,,,,,,,,,,,,,METAR,38.0
LFMI 121400Z AUTO 34027G39KT CAVOK 11/00 Q1021 NOSIG,LFMI,2019-01-12T14:00:00Z,43.52,4.92,11.0,0.0,340,27,39,6.21,30.147638,,,TRUE,,,TRUE,,,,,CAVOK,,,,,,,,VFR,,,,,,,,,,,,METAR,24.0
LFBA 121400Z AUTO 30005KT 9999 BKN013 OVC050 07/03 Q1031 NOSIG,LFBA,2019-01-12T14:00:00Z,44.17,0.6,7.0,3.0,300,5,,6.21,30.442913,,,TRUE,,,TRUE,,,,,BKN,1300,OVC,5000,,,,,MVFR,,,,,,,,,,,,METAR,60.0
NVVV 121400Z 06003KT 9999 FEW020 22/21 Q1005 RMK HZ,NVVV,2019-01-12T14:00:00Z,-17.68,168.3,22.0,21.0,60,3,,6.21,29.675198,,,,,,,,,,,FEW,2000,,,,,,,VFR,,,,,,,,,,,,METAR,21.0
LFMY 121400Z AUTO 34026KT CAVOK 10/01 Q1021,LFMY,2019-01-12T14:00:00Z,43.6,5.08,10.0,1.0,340,26,,6.21,30.147638,,,TRUE,,,,,,,,CAVOK,,,,,,,,VFR,,,,,,,,,,,,METAR,60.0
LFMO 121400Z AUTO 35022G32KT CAVOK 10/01 Q1023 TEMPO 35030G50KT,LFMO,2019-01-12T14:00:00Z,44.12,4.87,10.0,1.0,350,22,32,6.21,30.206694,,,TRUE,,,,,,,,CAVOK,,,,,,,,VFR,,,,,,,,,,,,METAR,55.0
OJAQ 121400Z 36004KT CAVOK 21/01 Q1009 NOSIG,OJAQ,2019-01-12T14:00:00Z,29.62,35.02,21.0,1.0,360,4,,6.21,29.793306,,,,,,TRUE,,,,,CAVOK,,,,,,,,VFR,,,,,,,,,,,,METAR,51.0
SBNT 121400Z 12010KT 9999 SCT020 SCT039 32/22 Q1011,SBNT,2019-01-12T14:00:00Z,-5.92,-35.25,32.0,22.0,120,10,,6.21,29.852362,,,,,,,,,,,SCT,2000,SCT,3900,,,,,VFR,,,,,,,,,,,,METAR,49.0
ZSSS 121400Z 36003MPS 9999 BKN020 05/02 Q1027 NOSIG,ZSSS,2019-01-12T14:00:00Z,31.2,121.33,5.0,2.0,360,6,,6.21,30.324802,,,,,,TRUE,,,,,BKN,2000,,,,,,,MVFR,,,,,,,,,,,,METAR,7.0
SBFN 121400Z 35006KT 9999 SCT020 29/24 Q1012,SBFN,2019-01-12T14:00:00Z,-3.85,-32.42,29.0,24.0,350,6,,6.21,29.88189,,,,,,,,,,,SCT,2000,,,,,,,VFR,,,,,,,,,,,,METAR,56.0
GVBA 121400Z 02010KT CAVOK 25/14 Q1014 NOSIG,GVBA,2019-01-12T14:00:00Z,16.13,-22.88,25.0,14.0,20,10,,6.21,29.940945,,,,,,TRUE,,,,,CAVOK,,,,,,,,VFR,,,,,,,,,,,,METAR,22.0
SBCF 121400Z 09006KT 9999 SCT033 27/18 Q1020,SBCF,2019-01-12T14:00:00Z,-19.63,-43.97,27.0,18.0,90,6,,6.21,30.11811,,,,,,,,,,,SCT,3300,,,,,,,VFR,,,,,,,,,,,,METAR,828.0
WADL 121400Z 00000KT 7000 BKN016 26/24 Q1011 NOSIG,WADL,2019-01-12T14:00:00Z,-8.75,116.28,26.0,24.0,0,0,,4.35,29.852362,,,,,,TRUE,,,,,BKN,1600,,,,,,,MVFR,,,,,,,,,,,,METAR,97.0
OKBK 121400Z 31005KT CAVOK 13/01 Q1021 NOSIG,OKBK,2019-01-12T14:00:00Z,29.22,47.97,13.0,1.0,310,5,,6.21,30.147638,,,,,,TRUE,,,,,CAVOK,,,,,,,,VFR,,,,,,,,,,,,METAR,55.0
SBMA 121400Z 03004KT 9999 BKN016 BKN080 27/24 Q1015,SBMA,2019-01-12T14:00:00Z,-5.37,-49.13,27.0,24.0,30,4,,6.21,29.970472,,,,,,,,,,,BKN,1600,BKN,8000,,,,,MVFR,,,,,,,,,,,,METAR,102.0
WIII 121400Z 23007KT 8000 FEW020 27/21 Q1010 NOSIG,WIII,2019-01-12T14:00:00Z,-6.13,106.67,27.0,21.0,230,7,,4.97,29.822834,,,,,,TRUE,,,,,FEW,2000,,,,,,,MVFR,,,,,,,,,,,,METAR,8.0
SBCG 121400Z 33008KT 310V010 9999 FEW030 28/20 Q1018,SBCG,2019-01-12T14:00:00Z,-20.47,-54.67,28.0,20.0,330,8,,6.21,30.059055,,,,,,,,,,,FEW,3000,,,,,,,VFR,,,,,,,,,,,,METAR,567.0
CYOJ 121400Z 00000KT 15SM SCT075 M15/M17 A2980 RMK AC3 SLP127,CYOJ,2019-01-12T14:00:00Z,58.62,-117.17,-15.0,-17.0,0,0,,15.0,29.799213,1012.7,,,,,,,,,,SCT,7500,,,,,,,VFR,,,,,,,,,,,,SPECI,338.0
CYNE 121400Z AUTO 18007KT 9SM BKN006 M19/M20 A3039 RMK SLP322,CYNE,2019-01-12T14:00:00Z,53.97,-97.82,-19.0,-20.0,180,7,,9.0,30.389763,1032.2,,TRUE,,,,,,,,BKN,600,,,,,,,IFR,,,,,,,,,,,,SPECI,223.0
CYMM 121400Z AUTO 07004KT 060V140 9SM CLR M11/M12 A2983 RMK SLP133,CYMM,2019-01-12T14:00:00Z,56.65,-111.22,-11.0,-12.0,70,4,,9.0,29.828741,1013.3,,TRUE,,,,,,,,CLR,,,,,,,,VFR,,,,,,,,,,,,SPECI,369.0
OPPS 121400Z 18004KT 5000 HZ FEW040 SCT120 09/05 Q1018,OPPS,2019-01-12T14:00:00Z,34.02,71.52,9.0,5.0,180,4,,3.11,30.059055,,,,,,,,,,HZ,FEW,4000,SCT,12000,,,,,MVFR,,,,,,,,,,,,METAR,360.0
MBGT 121400Z 06015KT 9999 BKN020TCU 27/21 Q3010,MBGT,2019-01-12T14:00:00Z,21.43,-71.15,27.0,21.0,60,15,,6.21,,,,,,,,,,,,BKN,2000,,,,,,,MVFR,,,,,,,,,,,,METAR,4.0
GVNP 121400Z 04009KT CAVOK 29/08 Q1014 NOSIG,GVNP,2019-01-12T14:00:00Z,14.95,-23.48,29.0,8.0,40,9,,6.21,29.940945,,,,,,TRUE,,,,,CAVOK,,,,,,,,VFR,,,,,,,,,,,,METAR,70.0
GVSV 121400Z 06011KT 9999 FEW023 26/14 Q1015 NOSIG,GVSV,2019-01-12T14:00:00Z,16.83,-25.07,26.0,14.0,60,11,,6.21,29.970472,,,,,,TRUE,,,,,FEW,2300,,,,,,,VFR,,,,,,,,,,,,METAR,20.0
GOBD 121400Z 13006KT 090V150 CAVOK 31/M07 Q1011 NOSIG,GOBD,2019-01-12T14:00:00Z,14.67,-17.07,31.0,-7.0,130,6,,6.21,29.852362,,,,,,TRUE,,,,,CAVOK,,,,,,,,VFR,,,,,,,,,,,,METAR,88.0
TGPY 121400Z 08015KT 9999 SCT020 28/22 Q1017 NOSIG,TGPY,2019-01-12T14:00:00Z,12.0,-61.78,28.0,22.0,80,15,,6.21,30.029528,,,,,,TRUE,,,,,SCT,2000,,,,,,,VFR,,,,,,,,,,,,METAR,7.0
VGHS 121400Z 31004KT 3500 HZ NSC 20/13 Q1016 NOSIG,VGHS,2019-01-12T14:00:00Z,23.85,90.4,20.0,13.0,310,4,,2.17,30.0,,,,,,TRUE,,,,HZ,CLR,,,,,,,,IFR,,,,,,,,,,,,METAR,10.0
KGZN 121400Z AUTO 31007KT 10SM CLR 04/01 A3006 RMK AO2,KGZN,2019-01-12T14:00:00Z,32.37,-99.02,4.0,1.0,310,7,,10.0,30.059055,,,TRUE,TRUE,,,,,,,CLR,,,,,,,,VFR,,,,,,,,,,,,METAR,522.0
FAEL 121400Z 13009KT 090V160 9999 SCT023 23/16 Q1007,FAEL,2019-01-12T14:00:00Z,-33.02,27.82,23.0,16.0,130,9,,6.21,29.734253,,,,,,,,,,,SCT,2300,,,,,,,VFR,,,,,,,,,,,,METAR,125.0
UBBL 121400Z VRB02KT 9999 SCT200 05/01 Q1013 R33/CLRD// NOSIG RMK MT OP ,UBBL,2019-01-12T14:00:00Z,38.75,48.82,5.0,1.0,0,2,,6.21,29.911417,,,,,,TRUE,,,,,SCT,20000,,,,,,,VFR,,,,,,,,,,,,METAR,10.0
MHTR 121400Z 00000KT 99999 FEW024 23/20 Q1018 HZ,MHTR,2019-01-12T14:00:00Z,15.93,-85.93,23.0,20.0,0,0,,6.21,30.059055,,,,,,,,,,HZ,FEW,2400,,,,,,,VFR,,,,,,,,,,,,METAR,3.0
UBBN 121400Z 24002KT 9999 SCT100 01/M07 Q1017 R14R/CLRD// NOSIG RMK MT OP QFE687,UBBN,2019-01-12T14:00:00Z,39.18,45.45,1.0,-7.0,240,2,,6.21,30.029528,,,,,,TRUE,,,,,SCT,10000,,,,,,,VFR,,,,,,,,,,,,METAR,873.0
UBBY 121400Z 03006KT 9999 FEW100 10/M06 Q1014 R33/////// NOSIG RMK MT OP,UBBY,2019-01-12T14:00:00Z,41.57,46.67,10.0,-6.0,30,6,,6.21,29.940945,,,,,,TRUE,,,,,FEW,10000,,,,,,,VFR,,,,,,,,,,,,METAR,390.0
TNCM 121400Z 03010KT 9999 SCT018 26/22 Q1019 NOSIG RMK A3010,TNCM,2019-01-12T14:00:00Z,18.05,-63.12,26.0,22.0,30,10,,6.21,30.088583,,,,,,TRUE,,,,,SCT,1800,,,,,,,VFR,,,,,,,,,,,,METAR,4.0
SMZO 121400Z 05008KT 9999 SCT020 29/21 Q1015 NOSIG,SMZO,2019-01-12T14:00:00Z,5.82,-55.18,29.0,21.0,50,8,,6.21,29.970472,,,,,,TRUE,,,,,SCT,2000,,,,,,,VFR,,,,,,,,,,,,METAR,10.0
FNLU 121400Z 21008KT 9999 FEW020 SCT022 BKN080 28/23 Q1009 NOSIG,FNLU,2019-01-12T14:00:00Z,-8.83,13.22,28.0,23.0,210,8,,6.21,29.793306,,,,,,TRUE,,,,,FEW,2000,SCT,2200,BKN,8000,,,VFR,,,,,,,,,,,,METAR,70.0
FIMR 121400Z 10012KT 9999 SCT018 28/23 Q1015,FIMR,2019-01-12T14:00:00Z,-19.75,63.37,28.0,23.0,100,12,,6.21,29.970472,,,,,,,,,,,SCT,1800,,,,,,,VFR,,,,,,,,,,,,METAR,31.0
SBPK 121400Z 09012KT 9999 BKN025 OVC040 25/20 Q1018,SBPK,2019-01-12T14:00:00Z,-31.72,-52.33,25.0,20.0,90,12,,6.21,30.059055,,,,,,,,,,,BKN,2500,OVC,4000,,,,,MVFR,,,,,,,,,,,,METAR,13.0
SBCP 121400Z 07012KT 9999 SCT020 31/21 Q1016,SBCP,2019-01-12T14:00:00Z,-21.7,-41.3,31.0,21.0,70,12,,6.21,30.0,,,,,,,,,,,SCT,2000,,,,,,,VFR,,,,,,,,,,,,METAR,11.0
SBPL 121400Z 15006KT 9999 FEW025 30/17 Q1016,SBPL,2019-01-12T14:00:00Z,-9.37,-40.57,30.0,17.0,150,6,,6.21,30.0,,,,,,,,,,,FEW,2500,,,,,,,VFR,,,,,,,,,,,,METAR,375.0
ZWWW 121400Z VRB01MPS 1400 R25/P2000N BR NSC M11/M15 Q1033 BECMG TL1430 1600 BR,ZWWW,2019-01-12T14:00:00Z,43.88,87.47,-11.0,-15.0,0,2,,0.87,30.501968,,,,,,,,,,BR,CLR,,,,,,,,LIFR,,,,,,,,,,,,METAR,654.0
KSVH 121400Z AUTO 04003KT 10SM BKN095 OVC120 02/M05 A3044 RMK AO2 T00191050,KSVH,2019-01-12T14:00:00Z,35.75,-80.95,1.9,-5.0,40,3,,10.0,30.43996,,,TRUE,TRUE,,,,,,,BKN,9500,OVC,12000,,,,,VFR,,,,,,,,,,,,METAR,294.0
MDSD 121400Z 04007KT 9999 FEW018CB FEW020 26/22 Q1019 CB/NE,MDSD,2019-01-12T14:00:00Z,18.42,-69.67,26.0,22.0,40,7,,6.21,30.088583,,,,,,,,,,,FEW,1800,FEW,2000,,,,,VFR,,,,,,,,,,,,METAR,18.0
MDJB 121400Z 00000KT 9999 FEW018 26/21 Q1020 NOSIG,MDJB,2019-01-12T14:00:00Z,18.57,-69.98,26.0,21.0,0,0,,6.21,30.11811,,,,,,TRUE,,,,,FEW,1800,,,,,,,VFR,,,,,,,,,,,,METAR,30.0
MDBH 121400Z 27005KT 9999 FEW018 25/21 Q1020,MDBH,2019-01-12T14:00:00Z,18.25,-71.12,25.0,21.0,270,5,,6.21,30.11811,,,,,,,,,,,FEW,1800,,,,,,,VFR,,,,,,,,,,,,METAR,3.0
MDPC 121400Z 09008KT 9999 SCT020 27/22 Q1020 NOSIG,MDPC,2019-01-12T14:00:00Z,18.57,-68.37,27.0,22.0,90,8,,6.21,30.11811,,,,,,TRUE,,,,,SCT,2000,,,,,,,VFR,,,,,,,,,,,,METAR,12.0
MDST 121400Z 00000KT 9999 FEW016CB FEW018 SCT070 24/21 Q1020 CB/NE/N,MDST,2019-01-12T14:00:00Z,19.4,-70.6,24.0,21.0,0,0,,6.21,30.11811,,,,,,,,,,,FEW,1600,FEW,1800,SCT,7000,,,VFR,,,,,,,,,,,,METAR,184.0
SBKP 121400Z 13005KT 070V210 9999 FEW030 30/19 Q1019,SBKP,2019-01-12T14:00:00Z,-23.0,-47.12,30.0,19.0,130,5,,6.21,30.088583,,,,,,,,,,,FEW,3000,,,,,,,VFR,,,,,,,,,,,,METAR,661.0
TKPK 121400Z 03008KT 9999 -SHRA SCT012 BKN040 23/21 Q1019,TKPK,2019-01-12T14:00:00Z,17.3,-62.72,23.0,21.0,30,8,,6.21,30.088583,,,,,,,,,,-SHRA,SCT,1200,BKN,4000,,,,,VFR,,,,,,,,,,,,METAR,48.0
MDPP 121400Z 00000KT 9999 SCT020 BKN070 25/21 Q1020,MDPP,2019-01-12T14:00:00Z,19.75,-70.57,25.0,21.0,0,0,,6.21,30.11811,,,,,,,,,,,SCT,2000,BKN,7000,,,,,VFR,,,,,,,,,,,,METAR,5.0
MDAB 121400Z 00000KT 8000-RA BKN016 22/21 Q1020,MDAB,2019-01-12T14:00:00Z,19.2,-69.43,22.0,21.0,0,0,,,30.11811,,,,,,,,,,-RA,BKN,1600,,,,,,,,,,,,,,,,,,,METAR,35.0
MDCY 121400Z 00000KT 7000 -RA BKN014 BKN070 20/20 Q1021,MDCY,2019-01-12T14:00:00Z,19.27,-69.73,20.0,20.0,0,0,,4.35,30.147638,,,,,,,,,,-RA,BKN,1400,BKN,7000,,,,,MVFR,,,,,,,,,,,,METAR,10.0
MDLR 121400Z 00000KT 9999 FEW016CB SCT018 26/24 Q1019 CB/N,MDLR,2019-01-12T14:00:00Z,18.45,-68.92,26.0,24.0,0,0,,6.21,30.088583,,,,,,,,,,,FEW,1600,SCT,1800,,,,,VFR,,,,,,,,,,,,METAR,8.0
ORBI 121400Z 35004KT 9999 BKN030 12/02 Q1019 NOSIG,ORBI,2019-01-12T14:00:00Z,33.27,44.23,12.0,2.0,350,4,,6.21,30.088583,,,,,,TRUE,,,,,BKN,3000,,,,,,,MVFR,,,,,,,,,,,,METAR,35.0
SPJL 121400Z 36003KT 9999 SCT012 SCT065 11/05 Q1035 RMK PP000,SPJL,2019-01-12T14:00:00Z,-15.47,-70.15,11.0,5.0,360,3,,6.21,30.561024,,,,,,,,,,,SCT,1200,SCT,6500,,,,,VFR,,,,,,,,,,,,METAR,3827.0
SPJI 121400Z 00000KT 9999 BKN019 24/23 Q1023 RMK PP000,SPJI,2019-01-12T14:00:00Z,-7.17,-76.72,24.0,23.0,0,0,,6.21,30.206694,,,,,,,,,,,BKN,1900,,,,,,,MVFR,,,,,,,,,,,,METAR,363.0
SPHY 121400Z 33003KT 7000 1500NE BCFG SCT015 BKN070 08/00 Q1035 RMK PP000,SPHY,2019-01-12T14:00:00Z,-13.7,-73.35,8.0,0.0,330,3,,4.35,30.561024,,,,,,,,,,BCFG,SCT,1500,BKN,7000,,,,,MVFR,,,,,,,,,,,,METAR,3548.0
SPHO 121400Z 02003KT 340V120 9999 FEW015 SCT045 OVC100 14/09 Q1028 RMK PP000,SPHO,2019-01-12T14:00:00Z,-13.17,-74.22,14.0,9.0,20,3,,6.21,30.35433,,,,,,,,,,,FEW,1500,SCT,4500,OVC,10000,,,VFR,,,,,,,,,,,,METAR,2749.0
SPGM 121400Z 00000KT 2000 -RA SCT012 OVC070 20/20 Q1018 RMK PP010,SPGM,2019-01-12T14:00:00Z,-9.28,-76.0,20.0,20.0,0,0,,1.24,30.059055,,,,,,,,,,-RA,SCT,1200,OVC,7000,,,,,IFR,,,,,,,,,,,,METAR,665.0
SPCL 121400Z 06005KT 9000 BKN012 OVC070 23/22 Q1016 RMK PP000,SPCL,2019-01-12T14:00:00Z,-8.38,-74.58,23.0,22.0,60,5,,5.59,30.0,,,,,,,,,,,BKN,1200,OVC,7000,,,,,MVFR,,,,,,,,,,,,METAR,149.0
SBRP 121400Z 04003KT 9999 FEW040 30/20 Q1018,SBRP,2019-01-12T14:00:00Z,-21.12,-47.77,30.0,20.0,40,3,,6.21,30.059055,,,,,,,,,,,FEW,4000,,,,,,,VFR,,,,,,,,,,,,METAR,549.0
YSTW 121400Z AUTO 15007KT 9999 // NCD 25/17 Q1016 RF00.0/000.2,YSTW,2019-01-12T14:00:00Z,-31.07,150.85,25.0,17.0,150,7,,6.21,30.0,,,TRUE,,,,,,,,CLR,,,,,,,,VFR,,,,,,,,,,,,METAR,410.0
YTEF 121400Z AUTO 26005KT 9999 // NCD 38/11 Q1008,YTEF,2019-01-12T14:00:00Z,-21.72,122.23,38.0,11.0,260,5,,6.21,29.763779,,,TRUE,,,,,,,,CLR,,,,,,,,VFR,,,,,,,,,,,,METAR,296.0
YSWG 121400Z AUTO 09008KT 9999 // NCD 29/13 Q1013,YSWG,2019-01-12T14:00:00Z,-35.13,147.47,29.0,13.0,90,8,,6.21,29.911417,,,TRUE,,,,,,,,CLR,,,,,,,,VFR,,,,,,,,,,,,METAR,213.0
LFMP 121400Z AUTO 34024KT CAVOK 11/01 Q1025 TEMPO 31025G40KT,LFMP,2019-01-12T14:00:00Z,42.72,2.87,11.0,1.0,340,24,,6.21,30.265747,,,TRUE,,,,,,,,CAVOK,,,,,,,,VFR,,,,,,,,,,,,METAR,48.0
LPPR 121400Z 08007KT 040V120 CAVOK 14/03 Q1030,LPPR,2019-01-12T14:00:00Z,41.22,-8.67,14.0,3.0,80,7,,6.21,30.413385,,,,,,,,,,,CAVOK,,,,,,,,VFR,,,,,,,,,,,,METAR,73.0
LPMA 121400Z 06010KT 010V130 9999 SCT016 BKN030 18/13 Q1022,LPMA,2019-01-12T14:00:00Z,32.7,-16.77,18.0,13.0,60,10,,6.21,30.177166,,,,,,,,,,,SCT,1600,BKN,3000,,,,,MVFR,,,,,,,,,,,,METAR,55.0
LPFR 121400Z 10012KT CAVOK 15/04 Q1026,LPFR,2019-01-12T14:00:00Z,37.02,-7.97,15.0,4.0,100,12,,6.21,30.295275,,,,,,,,,,,CAVOK,,,,,,,,VFR,,,,,,,,,,,,METAR,4.0
LEZL 121400Z 05010KT 020V100 CAVOK 15/01 Q1027 NOSIG,LEZL,2019-01-12T14:00:00Z,37.42,-5.9,15.0,1.0,50,10,,6.21,30.324802,,,,,,TRUE,,,,,CAVOK,,,,,,,,VFR,,,,,,,,,,,,METAR,31.0
LEVX 121400Z VRB01KT CAVOK 11/03 Q1031 NOSIG,LEVX,2019-01-12T14:00:00Z,42.22,-8.62,11.0,3.0,0,1,,6.21,30.442913,,,,,,TRUE,,,,,CAVOK,,,,,,,,VFR,,,,,,,,,,,,METAR,256.0
LEVC 121400Z 15004KT 090V200 CAVOK 15/M02 Q1026 NOSIG,LEVC,2019-01-12T14:00:00Z,39.5,-0.47,15.0,-2.0,150,4,,6.21,30.295275,,,,,,TRUE,,,,,CAVOK,,,,,,,,VFR,,,,,,,,,,,,METAR,62.0
LEPA 121400Z 33010KT 9999 FEW028 SCT045 13/05 Q1026 NOSIG,LEPA,2019-01-12T14:00:00Z,39.53,2.72,13.0,5.0,330,10,,6.21,30.295275,,,,,,TRUE,,,,,FEW,2800,SCT,4500,,,,,VFR,,,,,,,,,,,,METAR,8.0
LEMG 121400Z 10008KT 060V140 9999 FEW030 14/07 Q1028 NOSIG,LEMG,2019-01-12T14:00:00Z,36.67,-4.5,14.0,7.0,100,8,,6.21,30.35433,,,,,,TRUE,,,,,FEW,3000,,,,,,,VFR,,,,,,,,,,,,METAR,7.0
LEMD 121400Z 36004KT 330V030 CAVOK 11/M01 Q1027 NOSIG,LEMD,2019-01-12T14:00:00Z,40.48,-3.57,11.0,-1.0,360,4,,6.21,30.324802,,,,,,TRUE,,,,,CAVOK,,,,,,,,VFR,,,,,,,,,,,,METAR,582.0
LEIB 121400Z 23009KT 200V260 9999 FEW030 13/05 Q1027 NOSIG,LEIB,2019-01-12T14:00:00Z,38.87,1.37,13.0,5.0,230,9,,6.21,30.324802,,,,,,TRUE,,,,,FEW,3000,,,,,,,VFR,,,,,,,,,,,,METAR,12.0
LEBL 121400Z 31003KT 240V010 CAVOK 12/01 Q1025 NOSIG,LEBL,2019-01-12T14:00:00Z,41.27,2.07,12.0,1.0,310,3,,6.21,30.265747,,,,,,TRUE,,,,,CAVOK,,,,,,,,VFR,,,,,,,,,,,,METAR,6.0
LEAL 121400Z 21005KT 130V250 CAVOK 14/M02 Q1027 NOSIG,LEAL,2019-01-12T14:00:00Z,38.27,-0.55,14.0,-2.0,210,5,,6.21,30.324802,,,,,,TRUE,,,,,CAVOK,,,,,,,,VFR,,,,,,,,,,,,METAR,31.0
LPCS 121400Z 06006KT 020V090 CAVOK 14/M02 Q1028,LPCS,2019-01-12T14:00:00Z,38.73,-9.35,14.0,-2.0,60,6,,6.21,30.35433,,,,,,,,,,,CAVOK,,,,,,,,VFR,,,,,,,,,,,,METAR,99.0
LPBJ 121400Z 08007KT 050V110 CAVOK 13/M01 Q1027,LPBJ,2019-01-12T14:00:00Z,38.08,-7.93,13.0,-1.0,80,7,,6.21,30.324802,,,,,,,,,,,CAVOK,,,,,,,,VFR,,,,,,,,,,,,METAR,194.0
LEMI 121400Z 13003KT 060V220 CAVOK 13/M04 Q1027,LEMI,2019-01-12T14:00:00Z,,,13.0,-4.0,130,3,,6.21,30.324802,,,,,,,,,,,CAVOK,,,,,,,,VFR,,,,,,,,,,,,METAR,
GEML 121400Z 08008KT 030V120 CAVOK 14/04 Q1027,GEML,2019-01-12T14:00:00Z,35.27,-2.95,14.0,4.0,80,8,,6.21,30.324802,,,,,,,,,,,CAVOK,,,,,,,,VFR,,,,,,,,,,,,METAR,55.0
LELN 121400Z VRB01KT CAVOK 08/M02 Q1029,LELN,2019-01-12T14:00:00Z,42.57,-5.65,8.0,-2.0,0,1,,6.21,30.383858,,,,,,,,,,,CAVOK,,,,,,,,VFR,,,,,,,,,,,,METAR,914.0
LELC 121400Z 14004KT 110V170 CAVOK 14/02 Q1028 NOSIG,LELC,2019-01-12T14:00:00Z,37.77,-0.8,14.0,2.0,140,4,,6.21,30.35433,,,,,,TRUE,,,,,CAVOK,,,,,,,,VFR,,,,,,,,,,,,METAR,3.0
LEXJ 121400Z 27008KT 6000 -RA FEW012 SCT020 BKN045 10/10 Q1033,LEXJ,2019-01-12T14:00:00Z,43.42,-3.82,10.0,10.0,270,8,,3.73,30.501968,,,,,,,,,,-RA,FEW,1200,SCT,2000,BKN,4500,,,MVFR,,,,,,,,,,,,METAR,6.0
LEPP 121400Z 33016KT 290V010 9999 FEW020 BKN033 07/01 Q1029,LEPP,2019-01-12T14:00:00Z,42.77,-1.65,7.0,1.0,330,16,,6.21,30.383858,,,,,,,,,,,FEW,2000,BKN,3300,,,,,VFR,,,,,,,,,,,,METAR,459.0
LERS 121400Z 26015KT 230V290 9999 FEW035 13/01 Q1025,LERS,2019-01-12T14:00:00Z,41.13,1.17,13.0,1.0,260,15,,6.21,30.265747,,,,,,,,,,,FEW,3500,,,,,,,VFR,,,,,,,,,,,,METAR,76.0
LEMH 121400Z 35011KT 320V020 9999 BKN034 12/04 Q1025,LEMH,2019-01-12T14:00:00Z,39.87,4.22,12.0,4.0,350,11,,6.21,30.265747,,,,,,,,,,,BKN,3400,,,,,,,VFR,,,,,,,,,,,,METAR,82.0
LEGR 121400Z 00000KT CAVOK 12/M02 Q1026,LEGR,2019-01-12T14:00:00Z,37.17,-3.77,12.0,-2.0,0,0,,6.21,30.295275,,,,,,,,,,,CAVOK,,,,,,,,VFR,,,,,,,,,,,,METAR,559.0
LEGE 121400Z 19003KT 150V260 CAVOK 12/M02 Q1024,LEGE,2019-01-12T14:00:00Z,41.88,2.77,12.0,-2.0,190,3,,6.21,30.236221,,,,,,,,,,,CAVOK,,,,,,,,VFR,,,,,,,,,,,,METAR,129.0
LECO 121400Z 05008KT 9999 BKN035 10/07 Q1033 NOSIG,LECO,2019-01-12T14:00:00Z,43.28,-8.37,10.0,7.0,50,8,,6.21,30.501968,,,,,,TRUE,,,,,BKN,3500,,,,,,,VFR,,,,,,,,,,,,METAR,103.0
LEBB 121400Z VRB04KT 9000 -RA FEW008 SCT015 BKN025 10/08 Q1033 TEMPO 3000 -RADZ,LEBB,2019-01-12T14:00:00Z,43.28,-2.92,10.0,8.0,0,4,,5.59,30.501968,,,,,,,,,,-RA,FEW,800,SCT,1500,BKN,2500,,,MVFR,,,,,,,,,,,,METAR,34.0
LEAS 121400Z 00000KT 9999 FEW030 BKN041 10/06 Q1034 NOSIG,LEAS,2019-01-12T14:00:00Z,43.53,-6.02,10.0,6.0,0,0,,6.21,30.531496,,,,,,TRUE,,,,,FEW,3000,BKN,4100,,,,,VFR,,,,,,,,,,,,METAR,134.0
LEAM 121400Z 18007KT 150V210 9999 FEW040 14/05 Q1028,LEAM,2019-01-12T14:00:00Z,36.85,-2.37,14.0,5.0,180,7,,6.21,30.35433,,,,,,,,,,,FEW,4000,,,,,,,VFR,,,,,,,,,,,,METAR,21.0
GCHI 121400Z 14013KT 080V170 9999 FEW030 21/14 Q1019,GCHI,2019-01-12T14:00:00Z,27.82,-17.87,21.0,14.0,140,13,,6.21,30.088583,,,,,,,,,,,FEW,3000,,,,,,,VFR,,,,,,,,,,,,METAR,30.0
GCGM 121400Z 09008KT 040V120 9999 SCT030 18/11 Q1020 RMK R09/08009KT 050V130 ARP/10009KT 070V130,GCGM,2019-01-12T14:00:00Z,28.03,-17.22,18.0,11.0,90,8,,6.21,30.11811,,,,,,,,,,,SCT,3000,,,,,,,VFR,,,,,,,,,,,,METAR,219.0
LPPT 121400Z 07008KT 020V090 CAVOK 12/02 Q1028,LPPT,2019-01-12T14:00:00Z,38.77,-9.12,12.0,2.0,70,8,,6.21,30.35433,,,,,,,,,,,CAVOK,,,,,,,,VFR,,,,,,,,,,,,METAR,123.0
LPPS 121400Z 10016KT 9999 SCT015 19/11 Q1022,LPPS,2019-01-12T14:00:00Z,33.07,-16.35,19.0,11.0,100,16,,6.21,30.177166,,,,,,,,,,,SCT,1500,,,,,,,VFR,,,,,,,,,,,,METAR,82.0
UBBB 121400Z 20018KT CAVOK 09/02 Q1009 WS RWY16 R88/D NOSIG,UBBB,2019-01-12T14:00:00Z,40.45,50.07,9.0,2.0,200,18,,6.21,29.793306,,,,,,TRUE,,,,,CAVOK,,,,,,,,VFR,,,,,,,,,,,,METAR,-6.0
KTBN 121400Z AUTO 00000KT 4SM BR OVC008 00/00 A2998 RMK AO2 RAE00 SLP165 $,KTBN,2019-01-12T14:00:00Z,37.72,-92.12,0.0,0.0,0,0,,4.0,29.97933,1016.5,,TRUE,TRUE,TRUE,,,,,BR,OVC,800,,,,,,,IFR,,,,,,,,,,,,SPECI,353.0
YWHA 121400Z AUTO 17011KT 9999 // NCD 20/14 Q1018,YWHA,2019-01-12T14:00:00Z,-33.07,137.52,20.0,14.0,170,11,,6.21,30.059055,,,TRUE,,,,,,,,CLR,,,,,,,,VFR,,,,,,,,,,,,METAR,13.0
YWGT 121400Z AUTO 16006KT 9999 // NCD 23/12 Q1013,YWGT,2019-01-12T14:00:00Z,-36.42,146.3,23.0,12.0,160,6,,6.21,29.911417,,,TRUE,,,,,,,,CLR,,,,,,,,VFR,,,,,,,,,,,,METAR,153.0
AGGH 121400Z 18003KT 9999 HZ FEW015 BKN026 26/25 Q1005,AGGH,2019-01-12T14:00:00Z,-9.42,160.05,26.0,25.0,180,3,,6.21,29.675198,,,,,,,,,,HZ,FEW,1500,BKN,2600,,,,,MVFR,,,,,,,,,,,,METAR,9.0
DFFD 121400Z 04009KT 010V080 CAVOK 36/M08 Q1011 NOSIG,DFFD,2019-01-12T14:00:00Z,12.33,-1.52,36.0,-8.0,40,9,,6.21,29.852362,,,,,,TRUE,,,,,CAVOK,,,,,,,,VFR,,,,,,,,,,,,METAR,306.0
DFOO 121400Z 06009KT 040V100 CAVOK 32/M01 Q1011,DFOO,2019-01-12T14:00:00Z,11.17,-4.32,32.0,-1.0,60,9,,6.21,29.852362,,,,,,,,,,,CAVOK,,,,,,,,VFR,,,,,,,,,,,,METAR,460.0
FTTA 121400Z 06012KT CAVOK 39/02 Q1008,FTTA,2019-01-12T14:00:00Z,9.15,18.37,39.0,2.0,60,12,,6.21,29.763779,,,,,,,,,,,CAVOK,,,,,,,,VFR,,,,,,,,,,,,METAR,365.0
FTTY 121400Z 04006KT CAVOK 34/M04 Q1011,FTTY,2019-01-12T14:00:00Z,18.0,19.17,34.0,-4.0,40,6,,6.21,29.852362,,,,,,,,,,,CAVOK,,,,,,,,VFR,,,,,,,,,,,,METAR,234.0
DBBB 121400Z 20010KT 6000 FEW013 32/25 Q1007 NOSIG,DBBB,2019-01-12T14:00:00Z,6.33,2.37,32.0,25.0,200,10,,3.73,29.734253,,,,,,TRUE,,,,,FEW,1300,,,,,,,MVFR,,,,,,,,,,,,METAR,9.0
DXNG 121400Z 05005KT 350V130 8000 NSC 35/M04 Q1012,DXNG,2019-01-12T14:00:00Z,9.77,1.1,35.0,-4.0,50,5,,4.97,29.88189,,,,,,,,,,,CLR,,,,,,,,MVFR,,,,,,,,,,,,METAR,343.0
DXXX 121400Z 18011KT 140V200 9999 FEW015 32/24 Q1008 NOSIG,DXXX,2019-01-12T14:00:00Z,6.17,1.25,32.0,24.0,180,11,,6.21,29.763779,,,,,,TRUE,,,,,FEW,1500,,,,,,,VFR,,,,,,,,,,,,METAR,25.0
DGAA 121400Z 18012KT 4000 HZ NSC 31/21 Q1008 NOSIG,DGAA,2019-01-12T14:00:00Z,5.58,-0.17,31.0,21.0,180,12,,2.49,29.763779,,,,,,TRUE,,,,HZ,CLR,,,,,,,,IFR,,,,,,,,,,,,METAR,69.0
DRZR 121400Z 08008KT CAVOK 33/M08 Q1012,DRZR,2019-01-12T14:00:00Z,13.77,8.97,33.0,-8.0,80,8,,6.21,29.88189,,,,,,,,,,,CAVOK,,,,,,,,VFR,,,,,,,,,,,,METAR,453.0
DRZA 121400Z 00000KT CAVOK 31/00 Q1014,DRZA,2019-01-12T14:00:00Z,16.97,8.0,31.0,0.0,0,0,,6.21,29.940945,,,,,,,,,,,CAVOK,,,,,,,,VFR,,,,,,,,,,,,METAR,502.0
DRRT 121400Z 06008KT CAVOK 33/M06 Q1011,DRRT,2019-01-12T14:00:00Z,14.9,5.25,33.0,-6.0,60,8,,6.21,29.852362,,,,,,,,,,,CAVOK,,,,,,,,VFR,,,,,,,,,,,,METAR,391.0
DRRN 121400Z 10007KT 070V130 CAVOK 36/M10 Q1010 NOSIG,DRRN,2019-01-12T14:00:00Z,13.47,2.17,36.0,-10.0,100,7,,6.21,29.822834,,,,,,TRUE,,,,,CAVOK,,,,,,,,VFR,,,,,,,,,,,,METAR,227.0
DRRM 121400Z 06008KT CAVOK 34/M03 Q1011,DRRM,2019-01-12T14:00:00Z,13.5,7.12,34.0,-3.0,60,8,,6.21,29.852362,,,,,,,,,,,CAVOK,,,,,,,,VFR,,,,,,,,,,,,METAR,373.0
YBWX 121400Z AUTO 24012KT //// // ////// 27/23 Q1009,YBWX,2019-01-12T14:00:00Z,-20.88,115.4,27.0,23.0,240,12,,,29.793306,,,TRUE,,,,,,,,,,,,,,,,,,,,,,,,,,,,METAR,6.0
NFTF 121400Z 10007KT 9999 FEW010 SCT016 25/22 Q1009,NFTF,2019-01-12T14:00:00Z,-21.23,-175.15,25.0,22.0,100,7,,6.21,29.793306,,,,,,,,,,,FEW,1000,SCT,1600,,,,,VFR,,,,,,,,,,,,METAR,38.0
NFTV 121400Z 10009KT 9999 SCT017 BKN120 26/23 Q1007,NFTV,2019-01-12T14:00:00Z,-18.58,-173.97,26.0,23.0,100,9,,6.21,29.734253,,,,,,,,,,,SCT,1700,BKN,12000,,,,,VFR,,,,,,,,,,,,METAR,71.0
YCAS 121400Z AUTO 19004KT //// // ////// 19/16 Q1017,YCAS,2019-01-12T14:00:00Z,-28.88,153.07,19.0,16.0,190,4,,,30.029528,,,TRUE,,,,,,,,,,,,,,,,,,,,,,,,,,,,METAR,26.0
YCAR 121400Z AUTO 20015KT 9999 // NCD 23/20 Q1012,YCAR,2019-01-12T14:00:00Z,-24.88,113.67,23.0,20.0,200,15,,6.21,29.88189,,,TRUE,,,,,,,,CLR,,,,,,,,VFR,,,,,,,,,,,,METAR,8.0
YCBB 121400Z AUTO 05007KT 9999 // NCD 26/11 Q1018,YCBB,2019-01-12T14:00:00Z,-31.33,149.27,26.0,11.0,50,7,,6.21,30.059055,,,TRUE,,,,,,,,CLR,,,,,,,,VFR,,,,,,,,,,,,METAR,645.0
YCBA 121400Z AUTO 04008KT 9999 // NCD 33/11 Q1013,YCBA,2019-01-12T14:00:00Z,-31.53,145.8,33.0,11.0,40,8,,6.21,29.911417,,,TRUE,,,,,,,,CLR,,,,,,,,VFR,,,,,,,,,,,,METAR,221.0
YCBP 121400Z AUTO 16013KT 9999 // NCD 32/M03 Q1015,YCBP,2019-01-12T14:00:00Z,-29.03,134.72,32.0,-3.0,160,13,,6.21,29.970472,,,TRUE,,,,,,,,CLR,,,,,,,,VFR,,,,,,,,,,,,METAR,226.0
UBBG 121400Z 20006KT 9999 FEW100 10/M07 Q1011 R30/CLRD// NOSIG,UBBG,2019-01-12T14:00:00Z,40.73,46.32,10.0,-7.0,200,6,,6.21,29.852362,,,,,,TRUE,,,,,FEW,10000,,,,,,,VFR,,,,,,,,,,,,METAR,330.0
YCCY 121400Z AUTO 10013KT 9999 // NCD 35/10 Q1010,YCCY,2019-01-12T14:00:00Z,-20.67,140.5,35.0,10.0,100,13,,6.21,29.822834,,,TRUE,,,,,,,,CLR,,,,,,,,VFR,,,,,,,,,,,,METAR,570.0
WBGB 121400Z 00000KT 9999 FEW016CB SCT016 BKN150 26/25 Q1011,WBGB,2019-01-12T14:00:00Z,3.12,113.02,26.0,25.0,0,0,,6.21,29.852362,,,,,,,,,,,FEW,1600,SCT,1600,BKN,15000,,,VFR,,,,,,,,,,,,METAR,5.0
NZCH 121400Z AUTO 05010KT 9999 BKN016/// 16/13 Q1016 NOSIG,NZCH,2019-01-12T14:00:00Z,-43.47,172.55,16.0,13.0,50,10,,6.21,30.0,,,TRUE,,,TRUE,,,,,BKN,1600,,,,,,,MVFR,,,,,,,,,,,,METAR,34.0
NZWN 121400Z AUTO 01005KT 9999 NCD 15/13 Q1019 NOSIG,NZWN,2019-01-12T14:00:00Z,-41.32,174.8,15.0,13.0,10,5,,6.21,30.088583,,,TRUE,,,TRUE,,,,,CLR,,,,,,,,VFR,,,,,,,,,,,,METAR,7.0
WBGR 121400Z 04003KT 350V070 9999 FEW016 SCT150 BKN300 27/25 Q1010,WBGR,2019-01-12T14:00:00Z,4.32,113.97,27.0,25.0,40,3,,6.21,29.822834,,,,,,,,,,,FEW,1600,SCT,15000,BKN,30000,,,VFR,,,,,,,,,,,,METAR,18.0
WBGY 121400Z AUTO 00000KT //// // 25/24 Q1010,WBGY,2019-01-12T14:00:00Z,1.22,111.43,25.0,24.0,0,0,,,29.822834,,,TRUE,,,,,,,,,,,,,,,,,,,,,,,,,,,,METAR,34.0
WBKS 121400Z 05009KT 9999 FEW015 BKN280 27/24 Q1011,WBKS,2019-01-12T14:00:00Z,5.9,118.07,27.0,24.0,50,9,,6.21,29.852362,,,,,,,,,,,FEW,1500,BKN,28000,,,,,VFR,,,,,,,,,,,,METAR,13.0
WBKL 121400Z 04008KT 340V080 9999 FEW012 BKN300 28/25 Q1011,WBKL,2019-01-12T14:00:00Z,5.28,115.25,28.0,25.0,40,8,,6.21,29.852362,,,,,,,,,,,FEW,1200,BKN,30000,,,,,VFR,,,,,,,,,,,,METAR,30.0
WBGG 121400Z 27003KT 240V300 9999 FEW015CB SCT020 BKN150 27/24 Q1011 NOSIG,WBGG,2019-01-12T14:00:00Z,1.47,110.35,27.0,24.0,270,3,,6.21,29.852362,,,,,,TRUE,,,,,FEW,1500,SCT,2000,BKN,15000,,,VFR,,,,,,,,,,,,METAR,27.0
WBKW 121400Z VRB01KT 9999 FEW017 BKN140 25/24 Q1011 RERA,WBKW,2019-01-12T14:00:00Z,4.32,118.12,25.0,24.0,0,1,,6.21,29.852362,,,,,,,,,,,FEW,1700,BKN,14000,,,,,VFR,,,,,,,,,,,,METAR,20.0
WBKT 121400Z 08003KT 360V150 9999 FEW013 SCT140 BKN270 27/25 Q1011,WBKT,2019-01-12T14:00:00Z,6.92,116.82,27.0,25.0,80,3,,6.21,29.852362,,,,,,,,,,,FEW,1300,SCT,14000,BKN,27000,,,VFR,,,,,,,,,,,,METAR,5.0
CWEP 121400Z AUTO 24010G17KT M12/M17 RMK AO1 SOG 41 2021 PK WND 22017/1359 SLP177 T11171173,CWEP,2019-01-12T14:00:00Z,46.45,-61.97,-11.7,-17.3,240,10,17,,,1017.7,,TRUE,TRUE,,,,,,,,,,,,,,,,,,,,,,,,,,,METAR,11.0
CWRK 121400Z AUTO 00000KT M21/M23 RMK AO1 SOG 19 1019 SLP360 T12101233,CWRK,2019-01-12T14:00:00Z,45.07,-77.87,-21.0,-23.3,0,0,,,,1036.0,,TRUE,TRUE,,,,,,,,,,,,,,,,,,,,,,,,,,,METAR,331.0
CWQV 121400Z AUTO 28033G39KT M19/M23 RMK AO1 PK WND 28043/1307 T11941234,CWQV,2019-01-12T14:00:00Z,48.27,-70.12,-19.4,-23.4,280,33,39,,,,,TRUE,TRUE,,,,,,,,,,,,,,,,,,,,,,,,,,,METAR,1.0
CWQR 121400Z AUTO 29015KT M04/M07 RMK AO1 PK WND 30020/1307 T10401066,CWQR,2019-01-12T14:00:00Z,50.22,-64.22,-4.0,-6.6,290,15,,,,,,TRUE,TRUE,,,,,,,,,,,,,,,,,,,,,,,,,,,METAR,9.0
CWQP 121400Z AUTO 02008KT M10/M18 RMK AO1 SOG 02 2019 SLP362 T11041176,CWQP,2019-01-12T14:00:00Z,43.83,-77.15,-10.4,-17.6,20,8,,,,1036.2,,TRUE,TRUE,,,,,,,,,,,,,,,,,,,,,,,,,,,METAR,79.0
CWQO 121400Z AUTO 27016G21KT M15/M19 RMK AO1 PK WND 27021/1323 T11521194,CWQO,2019-01-12T14:00:00Z,48.42,-68.9,-15.2,-19.4,270,16,21,,,,,TRUE,TRUE,,,,,,,,,,,,,,,,,,,,,,,,,,,METAR,1.0
CWQK 121400Z AUTO 04016KT 08/04 RMK AO1 PK WND 02022/1306 SLP136 T00810039 56005,CWQK,2019-01-12T14:00:00Z,48.3,-123.53,8.1,3.9,40,16,,,,1013.6,,TRUE,TRUE,,,,,,,,,,,,,,,,-0.5,,,,,,,,,,,METAR,5.0
CWQH 121400Z AUTO 23005KT M19/M22 RMK AO1 SOG 14 T11911224,CWQH,2019-01-12T14:00:00Z,45.37,-71.82,-19.1,-22.4,230,5,,,,,,TRUE,TRUE,,,,,,,,,,,,,,,,,,,,,,,,,,,METAR,181.0
CWNH 121400Z AUTO 33007KT M17/M21 RMK AO1 SOG 15 3029 SLP242 T11681210,CWNH,2019-01-12T14:00:00Z,47.78,-69.53,-16.8,-21.0,330,7,,,,1024.2,,TRUE,TRUE,,,,,,,,,,,,,,,,,,,,,,,,,,,METAR,148.0
CWER 121400Z AUTO 24017KT RMK AO1 PK WND 24027/1318,CWER,2019-01-12T14:00:00Z,47.0,-70.82,,,240,17,,,,,,TRUE,TRUE,,,,,,,,,,,,,,,,,,,,,,,,,,,METAR,5.0
CWSR 121400Z AUTO 17002KT M13/M15 RMK AO1 SOG 18 5010 SLP187 T11311152,CWSR,2019-01-12T14:00:00Z,53.37,-107.53,-13.1,-15.2,170,2,,,,1018.7,,TRUE,TRUE,,,,,,,,,,,,,,,,,,,,,,,,,,,METAR,584.0
CWSK 121400Z AUTO 01002KT 01/01 RMK AO1 SOG 01 8004 SLP169 T00090009,CWSK,2019-01-12T14:00:00Z,49.78,-123.17,0.9,0.9,10,2,,,,1016.9,,TRUE,TRUE,,,,,,,,,,,,,,,,,,,,,,,,,,,METAR,60.0
CWSG 121400Z AUTO 23016G22KT M12/M14 RMK AO1 PK WND 25027/1309 SLP167 T11231139 52028,CWSG,2019-01-12T14:00:00Z,49.12,-66.65,-12.3,-13.9,230,16,22,,,1016.7,,TRUE,TRUE,,,,,,,,,,,,,,,,2.8,,,,,,,,,,,METAR,5.0
CWSD 121400Z AUTO 26015KT M14/M19 RMK AO1 SOG 19 3020 PK WND 26023/1320 SLP169 T11351188,CWSD,2019-01-12T14:00:00Z,46.42,-63.85,-13.5,-18.8,260,15,,,,1016.9,,TRUE,TRUE,,,,,,,,,,,,,,,,,,,,,,,,,,,METAR,24.0
CWRZ 121400Z AUTO 30008KT M09/M10 RMK AO1 SLP116 T10891095 51026,CWRZ,2019-01-12T14:00:00Z,48.42,-64.32,-8.9,-9.5,300,8,,,,1011.6,,TRUE,TRUE,,,,,,,,,,,,,,,,2.6,,,,,,,,,,,METAR,16.0
CWRY 121400Z AUTO 24002KT M05/M10 RMK AO1 SOG 02 6005 SLP199 T10451098,CWRY,2019-01-12T14:00:00Z,49.12,-112.03,-4.5,-9.8,240,2,,,,1019.9,,TRUE,TRUE,,,,,,,,,,,,,,,,,,,,,,,,,,,METAR,1050.0
CWRT 121400Z AUTO 27009G17KT M01/M04 RMK AO1 PK WND 25018/1334 T10101035,CWRT,2019-01-12T14:00:00Z,49.62,-114.47,-1.0,-3.5,270,9,17,,,,,TRUE,TRUE,,,,,,,,,,,,,,,,,,,,,,,,,,,METAR,1303.0
CWST 121400Z AUTO 23018G23KT M18/M20 RMK AO1 SOG 23 3029 PK WND 22025/1325 SLP248 T11771204,CWST,2019-01-12T14:00:00Z,47.35,-70.02,-17.7,-20.4,230,18,23,,,1024.8,,TRUE,TRUE,,,,,,,,,,,,,,,,,,,,,,,,,,,METAR,31.0
CWHI 121400Z AUTO 28001KT M09/M11 RMK AO1 T10861111,CWHI,2019-01-12T14:00:00Z,51.7,-113.22,-8.6,-11.1,280,1,,,,,,TRUE,TRUE,,,,,,,,,,,,,,,,,,,,,,,,,,,METAR,907.0
CWGY 121400Z AUTO M11/M13 RMK AO1 SLP189 T11131131 58009,CWGY,2019-01-12T14:00:00Z,51.67,-110.2,-11.3,-13.1,,,,,,1018.9,,TRUE,TRUE,,,,,,,,,,,,,,,,-0.9,,,,,,,,,,,METAR,707.0
CWGW 121400Z AUTO 13003KT M05/M06 RMK AO1 SOG 12 1003 SLP281 T10461063,CWGW,2019-01-12T14:00:00Z,49.75,-114.9,-4.6,-6.3,130,3,,,,1028.1,,TRUE,TRUE,,,,,,,,,,,,,,,,,,,,,,,,,,,METAR,1137.0
CWGT 121400Z AUTO 01002KT 07/07 RMK AO1 SLP142 T00700066 58003,CWGT,2019-01-12T14:00:00Z,49.48,-124.43,7.0,6.6,10,2,,,,1014.2,,TRUE,TRUE,,,,,,,,,,,,,,,,-0.3,,,,,,,,,,,METAR,5.0
CWGR 121400Z AUTO 23012G18KT M10/M12 RMK AO1 PK WND 23019/1306 SLP145 T11001123 51020,CWGR,2019-01-12T14:00:00Z,47.42,-61.8,-10.0,-12.3,230,12,18,,,1014.5,,TRUE,TRUE,,,,,,,,,,,,,,,,2.0,,,,,,,,,,,METAR,60.0
CWIK 121400Z AUTO 17009KT M11/M13 RMK AO1 SOG 06 5009 SLP291 T11141131,CWIK,2019-01-12T14:00:00Z,50.37,-102.58,-11.4,-13.1,170,9,,,,1029.1,,TRUE,TRUE,,,,,,,,,,,,,,,,,,,,,,,,,,,METAR,602.0
CWBU 121400Z AUTO 18012KT M13/M16 RMK AO1 SOG 26 8024 SLP239 T11321160,CWBU,2019-01-12T14:00:00Z,53.33,-104.02,-13.2,-16.0,180,12,,,,1023.9,,TRUE,TRUE,,,,,,,,,,,,,,,,,,,,,,,,,,,METAR,373.0
CWPZ 121400Z AUTO 00000KT M00/M00 RMK AO1 SOG 41 1011 SLP125 T10021004,CWPZ,2019-01-12T14:00:00Z,54.38,-125.97,-0.2,-0.4,0,0,,,,1012.5,,TRUE,TRUE,,,,,,,,,,,,,,,,,,,,,,,,,,,METAR,713.0
CWPR 121400Z AUTO 00000KT M03/M03 RMK AO1 SOG 03 3002 SLP219 T10261034,CWPR,2019-01-12T14:00:00Z,49.47,-120.52,-2.6,-3.4,0,0,,,,1021.9,,TRUE,TRUE,,,,,,,,,,,,,,,,,,,,,,,,,,,METAR,700.0
CWPE 121400Z AUTO 30008G17KT M13/M19 RMK AO1 SOG 02 1020 PK WND 29017/1351 SLP229 T11341190,CWPE,2019-01-12T14:00:00Z,45.07,-66.47,-13.4,-19.0,300,8,17,,,1022.9,,TRUE,TRUE,,,,,,,,,,,,,,,,,,,,,,,,,,,METAR,1.0
YSNW 121400Z AUTO 18013KT 9999 // OVC009 OVC013 23/22 Q////,YSNW,2019-01-12T14:00:00Z,-34.95,150.52,23.0,22.0,180,13,,6.21,,,,TRUE,,,,,,,,OVC,900,OVC,1300,,,,,IFR,,,,,,,,,,,,METAR,110.0
SBUG 121400Z 11010KT 9999 FEW004 SCT020 FEW030TCU BKN100 22/21 Q1015 RETS,SBUG,2019-01-12T14:00:00Z,-29.77,-57.02,22.0,21.0,110,10,,6.21,29.970472,,,,,,,,,,,FEW,400,SCT,2000,FEW,3000,BKN,10000,VFR,,,,,,,,,,,,METAR,74.0
YGEL 121400Z AUTO 19013KT 9999 // BKN013 21/18 Q1012,YGEL,2019-01-12T14:00:00Z,-28.8,114.7,21.0,18.0,190,13,,6.21,29.88189,,,TRUE,,,,,,,,BKN,1300,,,,,,,MVFR,,,,,,,,,,,,METAR,37.0
NWWW 121400Z AUTO 14005KT 110V180 CAVOK 25/21 Q1007 TEMPO 3000 SHRA FEW008 BKN014 FEW025TCU,NWWW,2019-01-12T14:00:00Z,-22.02,166.22,25.0,21.0,140,5,,6.21,29.734253,,,TRUE,,,,,,,,CAVOK,,,,,,,,VFR,,,,,,,,,,,,METAR,16.0
VOCB 121400Z 09004KT 5000 HZ NSC 26/14 Q1015 NOSIG,VOCB,2019-01-12T14:00:00Z,11.02,77.03,26.0,14.0,90,4,,3.11,29.970472,,,,,,TRUE,,,,HZ,CLR,,,,,,,,MVFR,,,,,,,,,,,,METAR,399.0
TBPB 121400Z 10015KT 9999 SCT022 28/20 Q1018 NOSIG,TBPB,2019-01-12T14:00:00Z,13.07,-59.48,28.0,20.0,100,15,,6.21,30.059055,,,,,,TRUE,,,,,SCT,2200,,,,,,,VFR,,,,,,,,,,,,METAR,52.0
SBPA 121400Z 10015KT 9999 SCT019 BKN100 25/21 Q1016,SBPA,2019-01-12T14:00:00Z,-30.0,-51.17,25.0,21.0,100,15,,6.21,30.0,,,,,,,,,,,SCT,1900,BKN,10000,,,,,VFR,,,,,,,,,,,,METAR,3.0
SAWH 121400Z 23030KT 9999 -DZ BKN030 BKN050 05/03 Q0991,SAWH,2019-01-12T14:00:00Z,-54.85,-68.3,5.0,3.0,230,30,,6.21,29.26181,,,,,,,,,,-DZ,BKN,3000,BKN,5000,,,,,MVFR,,,,,,,,,,,,METAR,14.0
SBVT 121400Z 06008KT 9999 SCT040 BKN080 31/23 Q1016,SBVT,2019-01-12T14:00:00Z,-20.27,-40.27,31.0,23.0,60,8,,6.21,30.0,,,,,,,,,,,SCT,4000,BKN,8000,,,,,VFR,,,,,,,,,,,,METAR,4.0
YSNF 121400Z AUTO 11010KT 9999 // BKN013 BKN020 OVC052 22/19 Q1016,YSNF,2019-01-12T14:00:00Z,-29.02,167.92,22.0,19.0,110,10,,6.21,30.0,,,TRUE,,,,,,,,BKN,1300,BKN,2000,OVC,5200,,,MVFR,,,,,,,,,,,,METAR,109.0
SKPE 121400Z 11004KT 9999 FEW014 SCT080 21/19 A3013,SKPE,2019-01-12T14:00:00Z,4.82,-75.73,21.0,19.0,110,4,,6.21,30.129921,,,,,,,,,,,FEW,1400,SCT,8000,,,,,VFR,,,,,,,,,,,,METAR,1346.0
TFFF 121400Z AUTO 11013KT 9999 FEW031 OVC160 27/20 Q1018 TEMPO 4000 SHRA SCT018TCU,TFFF,2019-01-12T14:00:00Z,14.6,-61.0,27.0,20.0,110,13,,6.21,30.059055,,,TRUE,,,,,,,,FEW,3100,OVC,16000,,,,,VFR,,,,,,,,,,,,METAR,5.0
LZIB 121400Z 29012KT 9999 FEW020 BKN053 04/00 Q1015 R13/690595 NOSIG,LZIB,2019-01-12T14:00:00Z,48.17,17.22,4.0,0.0,290,12,,6.21,29.970472,,,,,,TRUE,,,,,FEW,2000,BKN,5300,,,,,VFR,,,,,,,,,,,,METAR,134.0
RPLC 121400Z 28004KT 9999 FEW020 BKN300 24/20 Q1016 NOSIG RMK A3000,RPLC,2019-01-12T14:00:00Z,15.17,120.58,24.0,20.0,280,4,,6.21,30.0,,,,,,TRUE,,,,,FEW,2000,BKN,30000,,,,,VFR,,,,,,,,,,,,METAR,196.0
SBSN 121400Z 07004KT 9999 SCT017 SCT100 27/25 Q1014,SBSN,2019-01-12T14:00:00Z,-2.42,-54.78,27.0,25.0,70,4,,6.21,29.940945,,,,,,,,,,,SCT,1700,SCT,10000,,,,,VFR,,,,,,,,,,,,METAR,72.0
LBIA 121400Z 26006KT 9999 FEW200 04/M04 Q1012,LBIA,2019-01-12T14:00:00Z,42.45,26.35,4.0,-4.0,260,6,,6.21,29.88189,,,,,,,,,,,FEW,20000,,,,,,,VFR,,,,,,,,,,,,METAR,155.0
LZKZ 121400Z 16003KT 7000 SCT012 M05/M07 Q1013 NOSIG,LZKZ,2019-01-12T14:00:00Z,48.67,21.23,-5.0,-7.0,160,3,,4.35,29.911417,,,,,,TRUE,,,,,SCT,1200,,,,,,,MVFR,,,,,,,,,,,,METAR,232.0
LBPG 121400Z 27020KT 9999 FEW200 03/M07 Q1012,LBPG,2019-01-12T14:00:00Z,42.28,24.72,3.0,-7.0,270,20,,6.21,29.88189,,,,,,,,,,,FEW,20000,,,,,,,VFR,,,,,,,,,,,,METAR,58.0
LBPL 121400Z 25008KT 9999 FEW200 00/M07 Q1016,LBPL,2019-01-12T14:00:00Z,43.45,24.5,0.0,-7.0,250,8,,6.21,30.0,,,,,,,,,,,FEW,20000,,,,,,,VFR,,,,,,,,,,,,METAR,101.0
LFQG 121400Z AUTO 26007KT 220V280 9000 BKN010 OVC040 07/05 Q1027,LFQG,2019-01-12T14:00:00Z,47.0,3.1,7.0,5.0,260,7,,5.59,30.324802,,,TRUE,,,,,,,,BKN,1000,OVC,4000,,,,,MVFR,,,,,,,,,,,,METAR,181.0
FNBG 121400Z 32008KT 9999 FEW020 29/22 Q1010,FNBG,2019-01-12T14:00:00Z,-12.62,13.4,29.0,22.0,320,8,,6.21,29.822834,,,,,,,,,,,FEW,2000,,,,,,,VFR,,,,,,,,,,,,METAR,36.0
FQVL 121400Z 07012KT 020V110 CAVOK 32/26 Q1003,FQVL,2019-01-12T14:00:00Z,-22.0,35.32,32.0,26.0,70,12,,6.21,29.616142,,,,,,,,,,,CAVOK,,,,,,,,VFR,,,,,,,,,,,,METAR,21.0
LBBG 121400Z 21006KT 9999 FEW049 03/M03 Q1013 NOSIG,LBBG,2019-01-12T14:00:00Z,42.57,27.52,3.0,-3.0,210,6,,6.21,29.911417,,,,,,TRUE,,,,,FEW,4900,,,,,,,VFR,,,,,,,,,,,,METAR,28.0
LBWN 121400Z 29017KT CAVOK 02/M06 Q1012 NOSIG,LBWN,2019-01-12T14:00:00Z,43.22,27.82,2.0,-6.0,290,17,,6.21,29.88189,,,,,,TRUE,,,,,CAVOK,,,,,,,,VFR,,,,,,,,,,,,METAR,43.0
LBSF 121400Z 28012KT 9999 FEW035 M02/M08 Q1013 NOSIG,LBSF,2019-01-12T14:00:00Z,42.7,23.42,-2.0,-8.0,280,12,,6.21,29.911417,,,,,,TRUE,,,,,FEW,3500,,,,,,,VFR,,,,,,,,,,,,METAR,530.0
SBTE 121400Z 26003KT 9999 FEW030 BKN100 27/22 Q1014,SBTE,2019-01-12T14:00:00Z,-5.03,-42.82,27.0,22.0,260,3,,6.21,29.940945,,,,,,,,,,,FEW,3000,BKN,10000,,,,,VFR,,,,,,,,,,,,METAR,69.0
GBYD 121400Z 04005KT CAVOK 30/03 Q1010,GBYD,2019-01-12T14:00:00Z,13.33,-16.65,30.0,3.0,40,5,,6.21,29.822834,,,,,,,,,,,CAVOK,,,,,,,,VFR,,,,,,,,,,,,METAR,36.0
LBPD 121400Z AUTO 29016KT 9999 NCD 03/M07 Q1012 NOSIG,LBPD,2019-01-12T14:00:00Z,42.13,24.8,3.0,-7.0,290,16,,6.21,29.88189,,,TRUE,,,TRUE,,,,,CLR,,,,,,,,VFR,,,,,,,,,,,,METAR,185.0
LBGO 121400Z AUTO 29011KT 9999 NCD 01/M06 Q1014 NOSIG,LBGO,2019-01-12T14:00:00Z,43.15,25.72,1.0,-6.0,290,11,,6.21,29.940945,,,TRUE,,,TRUE,,,,,CLR,,,,,,,,VFR,,,,,,,,,,,,METAR,86.0
TFFR 121400Z AUTO 11011KT 080V140 9999 FEW027/// SCT036/// BKN062/// ///TCU 28/21 Q1019 TEMPO 4000 SHRA,TFFR,2019-01-12T14:00:00Z,16.27,-61.53,28.0,21.0,110,11,,6.21,30.088583,,,TRUE,,,,,,,,FEW,2700,SCT,3600,BKN,6200,,,VFR,,,,,,,,,,,,METAR,11.0
SOCA 121400Z AUTO 05009KT 9999 BKN047 27/22 Q1015 NOSIG,SOCA,2019-01-12T14:00:00Z,4.82,-52.37,27.0,22.0,50,9,,6.21,29.970472,,,TRUE,,,TRUE,,,,,BKN,4700,,,,,,,VFR,,,,,,,,,,,,METAR,9.0
MMNL 121400Z RTD 31005KT 10SM SKC 11/11 A3008 RMK RTS,MMNL,2019-01-12T14:00:00Z,27.42,-99.57,11.0,11.0,310,5,,10.0,30.079725,,,,,,,,,,,SKC,,,,,,,,VFR,,,,,,,,,,,,METAR,148.0
YBUD 121400Z AUTO 18007KT 9999 // NCD 21/18 Q1014,YBUD,2019-01-12T14:00:00Z,-24.9,152.32,21.0,18.0,180,7,,6.21,29.940945,,,TRUE,,,,,,,,CLR,,,,,,,,VFR,,,,,,,,,,,,METAR,82.0
YBTL 121400Z AUTO 11007KT 9999 // SCT071 26/21 Q1012,YBTL,2019-01-12T14:00:00Z,-19.25,146.75,26.0,21.0,110,7,,6.21,29.88189,,,TRUE,,,,,,,,SCT,7100,,,,,,,VFR,,,,,,,,,,,,METAR,6.0
YWLM 121400Z AUTO 09004KT 9999 // NCD 22/19 Q1015,YWLM,2019-01-12T14:00:00Z,-32.8,151.83,22.0,19.0,90,4,,6.21,29.970472,,,TRUE,,,,,,,,CLR,,,,,,,,VFR,,,,,,,,,,,,METAR,9.0
LDSB 121400Z 02017KT CAVOK 03/M05 Q1014 R/SNOCLO,LDSB,2019-01-12T14:00:00Z,43.28,16.68,3.0,-5.0,20,17,,6.21,29.940945,,,,,,,,,,SN,CAVOK,,,,,,,,VFR,,,,,,,,,,,,METAR,542.0
LHBP 121400Z 29017KT 9999 BKN017 SCT210 03/01 Q1014 R88/29//95 NOSIG,LHBP,2019-01-12T14:00:00Z,47.42,19.27,3.0,1.0,290,17,,6.21,29.940945,,,,,,TRUE,,,,,BKN,1700,SCT,21000,,,,,MVFR,,,,,,,,,,,,METAR,185.0
SBJP 121400Z 13010KT 5000 -RA BKN020 BKN070 24/24 Q1013,SBJP,2019-01-12T14:00:00Z,-7.15,-34.95,24.0,24.0,130,10,,3.11,29.911417,,,,,,,,,,-RA,BKN,2000,BKN,7000,,,,,MVFR,,,,,,,,,,,,METAR,66.0
ZYTX 121400Z 13001MPS 2500 FU NSC M05/M07 Q1023 NOSIG,ZYTX,2019-01-12T14:00:00Z,41.63,123.48,-5.0,-7.0,130,2,,1.55,30.206694,,,,,,TRUE,,,,FU,CLR,,,,,,,,IFR,,,,,,,,,,,,METAR,35.0
ZYTL 121400Z VRB01MPS 2500 BR NSC M01/M02 Q1025 BECMG TL1530 3000 BR,ZYTL,2019-01-12T14:00:00Z,38.97,121.53,-1.0,-2.0,0,2,,1.55,30.265747,,,,,,,,,,BR,CLR,,,,,,,,IFR,,,,,,,,,,,,METAR,97.0
KASG 121400Z 14005KT 6SM BR OVC008 04/04 A2988,KASG,2019-01-12T14:00:00Z,36.17,-94.12,4.0,4.0,140,5,,6.0,29.878937,,,,,,,,,,BR,OVC,800,,,,,,,IFR,,,,,,,,,,,,SPECI,412.0
KMHV 121400Z AUTO 24006KT 10SM FEW030 OVC039 07/04 A3001 RMK A01,KMHV,2019-01-12T14:00:00Z,35.07,-118.15,7.0,4.0,240,6,,10.0,30.008858,,,TRUE,TRUE,,,,,,,FEW,3000,OVC,3900,,,,,VFR,,,,,,,,,,,,METAR,849.0
CWGB 121400Z AUTO 07009KT 07/06 RMK AO1 SLP141 T00650059 57006,CWGB,2019-01-12T14:00:00Z,49.35,-124.17,6.5,5.9,70,9,,,,1014.1,,TRUE,TRUE,,,,,,,,,,,,,,,,-0.6,,,,,,,,,,,METAR,5.0
CWFQ 121400Z AUTO 26002KT M17/M22 RMK AO1 3PAST HR SOG 23 3020 SLP334 P0001 T11721216 50003,CWFQ,2019-01-12T14:00:00Z,45.03,-72.82,-17.2,-21.6,260,2,,,,1033.4,,TRUE,TRUE,,,,,,,,,,,,,,,,0.3,,,,,0.01,,,,,,METAR,152.0
CWFF 121400Z AUTO 19018G24KT M12/M14 RMK AO1 SOG 15 8029 PK WND 18024/1359 SLP224 T11211144,CWFF,2019-01-12T14:00:00Z,52.82,-104.58,-12.1,-14.4,190,18,24,,,1022.4,,TRUE,TRUE,,,,,,,,,,,,,,,,,,,,,,,,,,,METAR,490.0
CWEZ 121400Z AUTO 01011KT RMK AO1 57005,CWEZ,2019-01-12T14:00:00Z,48.78,-123.05,,,10,11,,,,,,TRUE,TRUE,,,,,,,,,,,,,,,,-0.5,,,,,,,,,,,METAR,7.0
CWEW 121400Z AUTO 26004KT M18/M24 RMK AO1 SOG 14 3023 SLP349 T11841235,CWEW,2019-01-12T14:00:00Z,45.82,-73.43,-18.4,-23.5,260,4,,,,1034.9,,TRUE,TRUE,,,,,,,,,,,,,,,,,,,,,,,,,,,METAR,21.0
CWEL 121400Z AUTO 16006KT 08/05 RMK AO1 SLP145 T00770053 56005,CWEL,2019-01-12T14:00:00Z,49.22,-123.78,7.7,5.3,160,6,,,,1014.5,,TRUE,TRUE,,,,,,,,,,,,,,,,-0.5,,,,,,,,,,,METAR,5.0
CWEB 121400Z AUTO 09007KT 09/08 RMK AO1 SLP098 T00870079 56015,CWEB,2019-01-12T14:00:00Z,49.38,-126.55,8.7,7.9,90,7,,,,1009.8,,TRUE,TRUE,,,,,,,,,,,,,,,,-1.5,,,,,,,,,,,METAR,7.0
CWJH 121400Z AUTO 20003KT M13/M15 RMK AO1 SOG 47 8027 SLP197 T11301146,CWJH,2019-01-12T14:00:00Z,56.32,-103.27,-13.0,-14.6,200,3,,,,1019.7,,TRUE,TRUE,,,,,,,,,,,,,,,,,,,,,,,,,,,METAR,344.0
CWJC 121400Z AUTO 23019KT M11/M13 RMK AO1 PK WND 23023/1329 SLP065 T11111132 56035,CWJC,2019-01-12T14:00:00Z,61.13,-100.9,-11.1,-13.2,230,19,,,,1006.5,,TRUE,TRUE,,,,,,,,,,,,,,,,-3.5,,,,,,,,,,,METAR,357.0
CWJB 121400Z AUTO 22010G17KT M19/M24 RMK AO1 SOG 59 PK WND 22018/1332 T11911244,CWJB,2019-01-12T14:00:00Z,46.78,-71.27,-19.1,-24.4,220,10,17,,,,,TRUE,TRUE,,,,,,,,,,,,,,,,,,,,,,,,,,,METAR,91.0
CWIZ 121400Z AUTO 27007KT M17/M22 RMK AO1 SOG 11 T11661218,CWIZ,2019-01-12T14:00:00Z,45.28,-73.33,-16.6,-21.8,270,7,,,,,,TRUE,TRUE,,,,,,,,,,,,,,,,,,,,,,,,,,,METAR,45.0
LFBH 121400Z AUTO 24003KT 210V270 9000 FEW006 OVC040 07/06 Q1031 TEMPO BKN005,LFBH,2019-01-12T14:00:00Z,46.18,-1.2,7.0,6.0,240,3,,5.59,30.442913,,,TRUE,,,,,,,,FEW,600,OVC,4000,,,,,VFR,,,,,,,,,,,,METAR,10.0
ZGNN 121400Z 02002MPS 1600 R05/1000D -DZ BR FEW002 SCT004 OVC020 13/13 Q1019 BECMG TL1530 1200 BR,ZGNN,2019-01-12T14:00:00Z,22.62,108.17,13.0,13.0,20,4,,0.99,30.088583,,,,,,,,,,-DZ BR,FEW,200,SCT,400,OVC,2000,,,LIFR,,,,,,,,,,,,METAR,73.0
ZGKL 121400Z 05003MPS 020V100 1600 -DZ BR FEW005 SCT013 OVC030 08/08 Q1022 NOSIG,ZGKL,2019-01-12T14:00:00Z,25.22,110.03,8.0,8.0,50,6,,0.99,30.177166,,,,,,TRUE,,,,-DZ BR,FEW,500,SCT,1300,OVC,3000,,,LIFR,,,,,,,,,,,,METAR,166.0
ZLXY 121400Z 05002MPS 1300 R05L/1600D R05R/1800N BR NSC M05/M06 Q1027 NOSIG,ZLXY,2019-01-12T14:00:00Z,34.43,108.75,-5.0,-6.0,50,4,,0.81,30.324802,,,,,,TRUE,,,,BR,CLR,,,,,,,,LIFR,,,,,,,,,,,,METAR,479.0
ZPPP 121400Z 22006MPS CAVOK 08/02 Q1023 NOSIG,ZPPP,2019-01-12T14:00:00Z,25.0,102.75,8.0,2.0,220,12,,6.21,30.206694,,,,,,TRUE,,,,,CAVOK,,,,,,,,VFR,,,,,,,,,,,,METAR,1892.0
ZSAM 121400Z 06006MPS 9999 OVC023 16/14 Q1021 NOSIG,ZSAM,2019-01-12T14:00:00Z,24.53,118.13,16.0,14.0,60,12,,6.21,30.147638,,,,,,TRUE,,,,,OVC,2300,,,,,,,MVFR,,,,,,,,,,,,METAR,18.0
ZSNB 121400Z 31002MPS 8000 BKN030 06/03 Q1027 NOSIG,ZSNB,2019-01-12T14:00:00Z,29.83,121.47,6.0,3.0,310,4,,4.97,30.324802,,,,,,TRUE,,,,,BKN,3000,,,,,,,MVFR,,,,,,,,,,,,METAR,4.0
ZSFZ 121400Z 02004MPS 4000 -RA BR FEW007 BKN009 OVC015 12/11 Q1024 BECMG TL1530 BKN011,ZSFZ,2019-01-12T14:00:00Z,25.93,119.67,12.0,11.0,20,8,,2.49,30.236221,,,,,,,,,,-RA BR,FEW,700,BKN,900,OVC,1500,,,IFR,,,,,,,,,,,,METAR,85.0
ZGOW 121400Z 12004MPS 090V150 7000 SCT011 BKN023 18/16 Q1020 NOSIG,ZGOW,2019-01-12T14:00:00Z,23.55,116.5,18.0,16.0,120,8,,4.35,30.11811,,,,,,TRUE,,,,,SCT,1100,BKN,2300,,,,,MVFR,,,,,,,,,,,,METAR,3.0
DAAG 121400Z 33005KT 270V010 9999 SCT020TCU SCT046 13/04 Q1028,DAAG,2019-01-12T14:00:00Z,36.72,3.22,13.0,4.0,330,5,,6.21,30.35433,,,,,,,,,,,SCT,2000,SCT,4600,,,,,VFR,,,,,,,,,,,,METAR,25.0
SVMI 121400Z 09004KT 9999 SCT016 27/20 Q1012,SVMI,2019-01-12T14:00:00Z,10.58,-67.0,27.0,20.0,90,4,,6.21,29.88189,,,,,,,,,,,SCT,1600,,,,,,,VFR,,,,,,,,,,,,METAR,48.0
ZUGY 121400Z 05004MPS 5000 -DZ BR SCT006 BKN015 OVC023 06/04 Q1022 BECMG TL1530 FEW004 BKN012 OVC023,ZUGY,2019-01-12T14:00:00Z,26.53,106.8,6.0,4.0,50,8,,3.11,30.177166,,,,,,,,,,-DZ BR,SCT,600,BKN,1500,OVC,2300,,,MVFR,,,,,,,,,,,,METAR,1074.0
ZUUU 121400Z VRB01MPS 3500 BR NSC 04/04 Q1025 BECMG TL1540 2700 BR,ZUUU,2019-01-12T14:00:00Z,30.58,103.95,4.0,4.0,0,2,,2.17,30.265747,,,,,,,,,,BR,CLR,,,,,,,,IFR,,,,,,,,,,,,METAR,508.0
FWKI 121400Z 10007KT 9999 TS FEW027CB SCT029 BKN090 24/20 Q1012 NOSIG,FWKI,2019-01-12T14:00:00Z,-13.77,33.77,24.0,20.0,100,7,,6.21,29.88189,,,,,,TRUE,,,,TS,FEW,2700,SCT,2900,BKN,9000,,,VFR,,,,,,,,,,,,METAR,1229.0
DAAS 121400Z 30005KT 6000 FEW010 BKN026 01/M00 Q1024,DAAS,2019-01-12T14:00:00Z,36.18,5.33,1.0,0.0,300,5,,3.73,30.236221,,,,,,,,,,,FEW,1000,BKN,2600,,,,,MVFR,,,,,,,,,,,,METAR,1038.0
DABS 121400Z 31014KT 8000 FEW020 FEW026CB BKN030 05/M03 Q1022,DABS,2019-01-12T14:00:00Z,35.43,8.12,5.0,-3.0,310,14,,4.97,30.177166,,,,,,,,,,,FEW,2000,FEW,2600,BKN,3000,,,MVFR,,,,,,,,,,,,METAR,813.0
DAOB 121400Z 34005KT 9999 SCT026 05/M01 Q1026,DAOB,2019-01-12T14:00:00Z,35.33,1.47,5.0,-1.0,340,5,,6.21,30.295275,,,,,,,,,,,SCT,2600,,,,,,,VFR,,,,,,,,,,,,METAR,989.0
DAUB 121400Z 31019KT 9999 FEW033 14/04 Q1024,DAUB,2019-01-12T14:00:00Z,34.78,5.72,14.0,4.0,310,19,,6.21,30.236221,,,,,,,,,,,FEW,3300,,,,,,,VFR,,,,,,,,,,,,METAR,87.0
DAUG 121400Z 02006KT CAVOK 11/M07 Q1025,DAUG,2019-01-12T14:00:00Z,32.37,3.82,11.0,-7.0,20,6,,6.21,30.265747,,,,,,,,,,,CAVOK,,,,,,,,VFR,,,,,,,,,,,,METAR,450.0
DAOI 121400Z 24005KT 9999 SCT023 FEW025TCU SCT030 10/02 Q1028,DAOI,2019-01-12T14:00:00Z,36.22,1.32,10.0,2.0,240,5,,6.21,30.35433,,,,,,,,,,,SCT,2300,FEW,2500,SCT,3000,,,VFR,,,,,,,,,,,,METAR,143.0
DAUA 121400Z 01013KT CAVOK 15/M03 Q1024,DAUA,2019-01-12T14:00:00Z,27.83,-0.18,15.0,-3.0,10,13,,6.21,30.236221,,,,,,,,,,,CAVOK,,,,,,,,VFR,,,,,,,,,,,,METAR,263.0
DAAE 121400Z 25010KT 8000 SCT020TCU BKN043 09/07 Q1026,DAAE,2019-01-12T14:00:00Z,36.72,5.07,9.0,7.0,250,10,,4.97,30.295275,,,,,,,,,,,SCT,2000,BKN,4300,,,,,MVFR,,,,,,,,,,,,METAR,2.0
DAAJ 121400Z 34009KT CAVOK 17/M03 Q1018,DAAJ,2019-01-12T14:00:00Z,24.28,9.47,17.0,-3.0,340,9,,6.21,30.059055,,,,,,,,,,,CAVOK,,,,,,,,VFR,,,,,,,,,,,,METAR,968.0
DAAV 121400Z 32010KT 9999 SCT020 FEW026CB SCT033 11/08 Q1025,DAAV,2019-01-12T14:00:00Z,36.8,5.88,11.0,8.0,320,10,,6.21,30.265747,,,,,,,,,,,SCT,2000,FEW,2600,SCT,3300,,,VFR,,,,,,,,,,,,METAR,11.0
DABT 121400Z 29012KT 9999 SCT013 BKN020 06/M00 Q1024,DABT,2019-01-12T14:00:00Z,35.75,6.32,6.0,0.0,290,12,,6.21,30.236221,,,,,,,,,,,SCT,1300,BKN,2000,,,,,MVFR,,,,,,,,,,,,METAR,823.0
DAUZ 121400Z 30008KT 260V330 CAVOK 12/M07 Q1022,DAUZ,2019-01-12T14:00:00Z,28.05,9.62,12.0,-7.0,300,8,,6.21,30.177166,,,,,,,,,,,CAVOK,,,,,,,,VFR,,,,,,,,,,,,METAR,562.0
ZGSZ 121400Z 30002MPS 3800 BR NSC 20/18 Q1019 NOSIG,ZGSZ,2019-01-12T14:00:00Z,22.63,113.8,20.0,18.0,300,4,,2.36,30.088583,,,,,,TRUE,,,,BR,CLR,,,,,,,,IFR,,,,,,,,,,,,METAR,18.0
SBFI 121400Z 03008KT CAVOK 29/21 Q1015,SBFI,2019-01-12T14:00:00Z,-25.6,-54.48,29.0,21.0,30,8,,6.21,29.970472,,,,,,,,,,,CAVOK,,,,,,,,VFR,,,,,,,,,,,,METAR,243.0
SBCT 121400Z 10004KT 9999 BKN025 25/19 Q1022,SBCT,2019-01-12T14:00:00Z,-25.52,-49.17,25.0,19.0,100,4,,6.21,30.177166,,,,,,,,,,,BKN,2500,,,,,,,MVFR,,,,,,,,,,,,METAR,908.0
ZSQD 121400Z 20002MPS 160V240 2500 BR BKN009 00/M02 Q1027 NOSIG,ZSQD,2019-01-12T14:00:00Z,36.27,120.38,0.0,-2.0,200,4,,1.55,30.324802,,,,,,TRUE,,,,BR,BKN,900,,,,,,,IFR,,,,,,,,,,,,METAR,77.0
UBBQ 121400Z 12004KT 9999 NSC 05/M02 Q1011 R16/CLRD// NOSIG RMK MT OP,UBBQ,2019-01-12T14:00:00Z,40.82,47.72,5.0,-2.0,120,4,,6.21,29.852362,,,,,,TRUE,,,,,CLR,,,,,,,,VFR,,,,,,,,,,,,METAR,338.0
FQNC 121400Z 02011KT 9999 SCT020 BKN100 28/25 Q1008,FQNC,2019-01-12T14:00:00Z,-14.48,40.72,28.0,25.0,20,11,,6.21,29.763779,,,,,,,,,,,SCT,2000,BKN,10000,,,,,VFR,,,,,,,,,,,,METAR,125.0
LFLS 121400Z AUTO 36009KT 9999 OVC048 04/02 Q1026 TEMPO BKN012,LFLS,2019-01-12T14:00:00Z,45.37,5.32,4.0,2.0,360,9,,6.21,30.295275,,,TRUE,,,,,,,,OVC,4800,,,,,,,VFR,,,,,,,,,,,,METAR,386.0
LFLC 121400Z AUTO 34003KT 270V040 9999 FEW033 OVC044 07/01 Q1027 NOSIG,LFLC,2019-01-12T14:00:00Z,45.77,3.17,7.0,1.0,340,3,,6.21,30.324802,,,TRUE,,,TRUE,,,,,FEW,3300,OVC,4400,,,,,VFR,,,,,,,,,,,,METAR,330.0
CWIT 121400Z AUTO 28010G17KT M16/M21 RMK AO1 2PAST HR SOG 11 3018 PK WND 28017/1357 SLP339 P0009 T11641210 50025,CWIT,2019-01-12T14:00:00Z,45.17,-73.67,-16.4,-21.0,280,10,17,,,1033.9,,TRUE,TRUE,,,,,,,,,,,,,,,,2.5,,,,,0.09,,,,,,METAR,52.0
CWIS 121400Z AUTO 36007G18KT M20/M23 RMK AO1 SOG 133 3025 PK WND 01018/1354 SLP217 T11961231,CWIS,2019-01-12T14:00:00Z,47.28,-70.63,-19.6,-23.1,360,7,18,,,1021.7,,TRUE,TRUE,,,,,,,,,,,,,,,,,,,,,,,,,,,METAR,719.0
CWIP 121400Z AUTO 26010KT M06/ RMK AO1 T1060,CWIP,2019-01-12T14:00:00Z,50.17,-66.43,-6.0,,260,10,,,,,,TRUE,TRUE,,,,,,,,,,,,,,,,,,,,,,,,,,,METAR,25.0
CWIJ 121400Z AUTO 08001KT M21/M24 RMK AO1 SOG 59 3001 SLP066 T12141238 50002,CWIJ,2019-01-12T14:00:00Z,65.77,-111.23,-21.4,-23.8,80,1,,,,1006.6,,TRUE,TRUE,,,,,,,,,,,,,,,,0.2,,,,,,,,,,,METAR,500.0
CWII 121400Z AUTO 11006KT M11/M12 RMK AO1 SLP332 T11061121 55003,CWII,2019-01-12T14:00:00Z,50.7,-96.57,-10.6,-12.1,110,6,,,,1033.2,,TRUE,TRUE,,,,,,,,,,,,,,,,-0.3,,,,,,,,,,,METAR,220.0
CWIG 121400Z AUTO 22022G29KT RMK AO1 PK WND 22033/1326,CWIG,2019-01-12T14:00:00Z,47.07,-70.53,,,220,22,29,,,,,TRUE,TRUE,,,,,,,,,,,,,,,,,,,,,,,,,,,METAR,18.0
CWID 121400Z AUTO 27005KT M20/M22 RMK AO1 SLP155 T12021215 53028,CWID,2019-01-12T14:00:00Z,61.32,-117.6,-20.2,-21.5,270,5,,,,1015.5,,TRUE,TRUE,,,,,,,,,,,,,,,,2.8,,,,,,,,,,,METAR,161.0
CWHV 121400Z AUTO 27005KT M19/M23 RMK AO1 SLP281 T11851234 53023,CWHV,2019-01-12T14:00:00Z,46.2,-70.77,-18.5,-23.4,270,5,,,,1028.1,,TRUE,TRUE,,,,,,,,,,,,,,,,2.3,,,,,,,,,,,METAR,229.0
CWHT 121400Z AUTO 02001KT M34/M38 RMK AO1 SOG 07 1019 SLP193 T13351375,CWHT,2019-01-12T14:00:00Z,60.77,-137.58,-33.5,-37.5,20,1,,,,1019.3,,TRUE,TRUE,,,,,,,,,,,,,,,,,,,,,,,,,,,METAR,599.0
CWHQ 121400Z AUTO 27005KT M17/ RMK AO1 T1174,CWHQ,2019-01-12T14:00:00Z,46.68,-71.97,-17.4,,270,5,,,,,,TRUE,TRUE,,,,,,,,,,,,,,,,,,,,,,,,,,,METAR,55.0
HTKJ 121400Z 30015KT 9999 FEW036 34/14 Q1009 NOSIG,HTKJ,2019-01-12T14:00:00Z,-3.42,37.07,34.0,14.0,300,15,,6.21,29.793306,,,,,,TRUE,,,,,FEW,3600,,,,,,,VFR,,,,,,,,,,,,SPECI,896.0
HTDA 121400Z 04005KT 9999 SCT016 BKN017 30/25 Q1008 NOSIG,HTDA,2019-01-12T14:00:00Z,-6.88,39.2,30.0,25.0,40,5,,6.21,29.763779,,,,,,TRUE,,,,,SCT,1600,BKN,1700,,,,,MVFR,,,,,,,,,,,,SPECI,55.0
FOON 121400Z 22005KT 160V290 9999 SCT015 30/24 Q1009,FOON,2019-01-12T14:00:00Z,-1.63,13.42,30.0,24.0,220,5,,6.21,29.793306,,,,,,,,,,,SCT,1500,,,,,,,VFR,,,,,,,,,,,,SPECI,441.0
FOOG 121400Z 21012KT 9999 SCT008 FEW020CB BKN030 30/25 Q1008,FOOG,2019-01-12T14:00:00Z,-0.7,8.75,30.0,25.0,210,12,,6.21,29.763779,,,,,,,,,,,SCT,800,FEW,2000,BKN,3000,,,MVFR,,,,,,,,,,,,SPECI,4.0
DNIL 121400Z 07005KT CAVOK 36/02 Q1009,DNIL,2019-01-12T14:00:00Z,8.47,4.48,36.0,2.0,70,5,,6.21,29.793306,,,,,,,,,,,CAVOK,,,,,,,,VFR,,,,,,,,,,,,SPECI,305.0
FAKN 121400Z 10011KT 9999 SCT035 34/18 Q1010 NOSIG,FAKN,2019-01-12T14:00:00Z,-25.38,31.1,34.0,18.0,100,11,,6.21,29.822834,,,,,,TRUE,,,,,SCT,3500,,,,,,,VFR,,,,,,,,,,,,METAR,862.0
FAKM 121400Z 31008KT CAVOK 37/M03 Q1010,FAKM,2019-01-12T14:00:00Z,-28.8,24.77,37.0,-3.0,310,8,,6.21,29.822834,,,,,,,,,,,CAVOK,,,,,,,,VFR,,,,,,,,,,,,METAR,1192.0
FAHS 121400Z AUTO 21004KT //// // ////// 34/18 Q1005,FAHS,2019-01-12T14:00:00Z,-24.37,31.02,34.0,18.0,210,4,,,29.675198,,,TRUE,,,,,,,,,,,,,,,,,,,,,,,,,,,,METAR,500.0
LFSG 121400Z AUTO 24011KT //// R26///// // BKN013 BKN019 BKN032 04/03 Q1023,LFSG,2019-01-12T14:00:00Z,48.33,6.07,4.0,3.0,240,11,,,30.206694,,,TRUE,,,,,,,,BKN,1300,BKN,1900,BKN,3200,,,,,,,,,,,,,,,METAR,330.0
LFRZ 121400Z AUTO 25012KT 9999 BKN016 OVC022 09/06 Q1030 NOSIG,LFRZ,2019-01-12T14:00:00Z,47.32,-2.17,9.0,6.0,250,12,,6.21,30.413385,,,TRUE,,,TRUE,,,,,BKN,1600,OVC,2200,,,,,MVFR,,,,,,,,,,,,METAR,4.0
LFRV 121400Z AUTO 27006KT 240V300 9999 BKN016 OVC021 10/08 Q1029,LFRV,2019-01-12T14:00:00Z,47.72,-2.72,10.0,8.0,270,6,,6.21,30.383858,,,TRUE,,,,,,,,BKN,1600,OVC,2100,,,,,MVFR,,,,,,,,,,,,METAR,133.0
LFRO 121400Z AUTO 28014KT 9999 BKN008 OVC021 10/09 Q1029 TEMPO 4000 DZ,LFRO,2019-01-12T14:00:00Z,48.75,-3.47,10.0,9.0,280,14,,6.21,30.383858,,,TRUE,,,,,,,,BKN,800,OVC,2100,,,,,IFR,,,,,,,,,,,,METAR,89.0
LFRM 121400Z AUTO 25008KT 210V280 9999 OVC012 09/06 Q1028 BECMG OVC040,LFRM,2019-01-12T14:00:00Z,47.95,0.2,9.0,6.0,250,8,,6.21,30.35433,,,TRUE,,,,,,,,OVC,1200,,,,,,,MVFR,,,,,,,,,,,,METAR,52.0
LFRI 121400Z AUTO 27008KT 9999 FEW020 BKN027 OVC033 09/05 Q1030 NOSIG,LFRI,2019-01-12T14:00:00Z,46.7,-1.37,9.0,5.0,270,8,,6.21,30.413385,,,TRUE,,,TRUE,,,,,FEW,2000,BKN,2700,OVC,3300,,,MVFR,,,,,,,,,,,,METAR,91.0
LFOV 121400Z AUTO 25010KT 9999 BKN008 OVC013 08/07 Q1028,LFOV,2019-01-12T14:00:00Z,48.03,-0.75,8.0,7.0,250,10,,6.21,30.35433,,,TRUE,,,,,,,,BKN,800,OVC,1300,,,,,IFR,,,,,,,,,,,,METAR,101.0
GCLA 121400Z 16007KT 110V200 9999 FEW040 20/12 Q1019,GCLA,2019-01-12T14:00:00Z,28.62,-17.75,20.0,12.0,160,7,,6.21,30.088583,,,,,,,,,,,FEW,4000,,,,,,,VFR,,,,,,,,,,,,METAR,31.0
GCFV 121400Z 07006KT 050V110 9999 FEW025 20/14 Q1020,GCFV,2019-01-12T14:00:00Z,28.43,-13.87,20.0,14.0,70,6,,6.21,30.11811,,,,,,,,,,,FEW,2500,,,,,,,VFR,,,,,,,,,,,,METAR,23.0
GCRR 121400Z 08008KT 9999 FEW022 19/15 Q1020,GCRR,2019-01-12T14:00:00Z,28.93,-13.58,19.0,15.0,80,8,,6.21,30.11811,,,,,,,,,,,FEW,2200,,,,,,,VFR,,,,,,,,,,,,METAR,40.0
GCLP 121400Z 10007KT 070V140 9999 FEW025 19/13 Q1020 NOSIG,GCLP,2019-01-12T14:00:00Z,27.92,-15.37,19.0,13.0,100,7,,6.21,30.11811,,,,,,TRUE,,,,,FEW,2500,,,,,,,VFR,,,,,,,,,,,,METAR,25.0
GCTS 121400Z 12012KT 090V150 9999 FEW035 19/12 Q1019 NOSIG,GCTS,2019-01-12T14:00:00Z,28.05,-16.57,19.0,12.0,120,12,,6.21,30.088583,,,,,,TRUE,,,,,FEW,3500,,,,,,,VFR,,,,,,,,,,,,METAR,72.0
LEZG 121400Z 30025KT 9999 FEW060 11/03 Q1027,LEZG,2019-01-12T14:00:00Z,41.67,-1.02,11.0,3.0,300,25,,6.21,30.324802,,,,,,,,,,,FEW,6000,,,,,,,VFR,,,,,,,,,,,,METAR,258.0
CYQF 121400Z 23002KT 15SM SCT240 M04/M08 A2992 RMK CI3 SLP185,CYQF,2019-01-12T14:00:00Z,52.17,-113.9,-4.0,-8.0,230,2,,15.0,29.920275,1018.5,,,,,,,,,,SCT,24000,,,,,,,VFR,,,,,,,,,,,,SPECI,905.0
UTSA 121400Z 11006KT 7000 NSC 02/00 Q1027 R07/CLRD70 NOSIG,UTSA,2019-01-12T14:00:00Z,40.12,65.17,2.0,0.0,110,6,,4.35,30.324802,,,,,,TRUE,,,,,CLR,,,,,,,,MVFR,,,,,,,,,,,,METAR,346.0
UTNU 121400Z 11012KT CAVOK 02/M00 Q1024 R13/CLRD70 NOSIG,UTNU,2019-01-12T14:00:00Z,41.58,60.63,2.0,0.0,110,12,,6.21,30.236221,,,,,,TRUE,,,,,CAVOK,,,,,,,,VFR,,,,,,,,,,,,METAR,98.0
UTNN 121400Z 10014KT 9999 OVC011 02/M00 Q1023 R33/CLRD60 NOSIG,UTNN,2019-01-12T14:00:00Z,42.48,59.63,2.0,0.0,100,14,,6.21,30.206694,,,,,,TRUE,,,,,OVC,1100,,,,,,,MVFR,,,,,,,,,,,,METAR,67.0
WMKP 121400Z 03008KT 360V070 9000 FEW025 SCT140 BKN270 28/22 Q1011 NOSIG,WMKP,2019-01-12T14:00:00Z,5.28,100.27,28.0,22.0,30,8,,5.59,29.852362,,,,,,TRUE,,,,,FEW,2500,SCT,14000,BKN,27000,,,VFR,,,,,,,,,,,,METAR,4.0
UTTT 121400Z 35004KT 4000 BR FU NSC 05/01 Q1030 R26R/CLRD70 NOSIG,UTTT,2019-01-12T14:00:00Z,41.27,69.27,5.0,1.0,350,4,,2.49,30.413385,,,,,,TRUE,,,,BR FU,CLR,,,,,,,,IFR,,,,,,,,,,,,METAR,489.0
UTSS 121400Z 09006KT 6000 NSC 02/M01 Q1026 R09/70D NOSIG,UTSS,2019-01-12T14:00:00Z,39.7,66.98,2.0,-1.0,90,6,,3.73,30.295275,,,,,,TRUE,,,,,CLR,,,,,,,,MVFR,,,,,,,,,,,,METAR,724.0
HTZA 121400Z 09010KT 9999 FEW026 32/23 Q1007 NOSIG,HTZA,2019-01-12T14:00:00Z,-6.22,39.22,32.0,23.0,90,10,,6.21,29.734253,,,,,,TRUE,,,,,FEW,2600,,,,,,,VFR,,,,,,,,,,,,SPECI,15.0
FKKR 121400Z VRB04KT CAVOK 36/01 Q1008 NOSIG,FKKR,2019-01-12T14:00:00Z,9.32,13.37,36.0,1.0,0,4,,6.21,29.763779,,,,,,TRUE,,,,,CAVOK,,,,,,,,VFR,,,,,,,,,,,,SPECI,244.0
FKKN 121400Z 04010KT CAVOK 30/05 Q1013,FKKN,2019-01-12T14:00:00Z,7.33,13.57,30.0,5.0,40,10,,6.21,29.911417,,,,,,,,,,,CAVOK,,,,,,,,VFR,,,,,,,,,,,,SPECI,1104.0
FKKD 121400Z VRB04KT 2500 HZ BKN016 FEW020CB 33/25 Q1007 NOSIG,FKKD,2019-01-12T14:00:00Z,4.0,9.72,33.0,25.0,0,4,,1.55,29.734253,,,,,,TRUE,,,,HZ,BKN,1600,FEW,2000,,,,,IFR,,,,,,,,,,,,SPECI,9.0
FCPP 121400Z 18008KT 9999 SCT013 BKN023 BKN038 28/25 Q1009 NOSIG,FCPP,2019-01-12T14:00:00Z,-4.82,11.9,28.0,25.0,180,8,,6.21,29.793306,,,,,,TRUE,,,,,SCT,1300,BKN,2300,BKN,3800,,,MVFR,,,,,,,,,,,,SPECI,17.0
FCBB 121400Z 26004KT 180V320 9999 SCT018 31/23 Q1009 NOSIG,FCBB,2019-01-12T14:00:00Z,-4.25,15.25,31.0,23.0,260,4,,6.21,29.793306,,,,,,TRUE,,,,,SCT,1800,,,,,,,VFR,,,,,,,,,,,,SPECI,316.0
FEFF 121400Z 18003KT CAVOK 35/17 Q1005 NOSIG,FEFF,2019-01-12T14:00:00Z,4.4,18.52,35.0,17.0,180,3,,6.21,29.675198,,,,,,TRUE,,,,,CAVOK,,,,,,,,VFR,,,,,,,,,,,,SPECI,366.0
FNMA 121400Z 26008KT 9999 SCT017 BKN100 24/21 Q1013,FNMA,2019-01-12T14:00:00Z,-9.55,16.32,24.0,21.0,260,8,,6.21,29.911417,,,,,,,,,,,SCT,1700,BKN,10000,,,,,VFR,,,,,,,,,,,,METAR,1173.0
FDSK 121400Z 17017KT 9999 FEW040TCU 34/16 Q1004 NOSIG,FDSK,2019-01-12T14:00:00Z,-26.35,31.72,34.0,16.0,170,17,,6.21,29.64567,,,,,,TRUE,,,,,FEW,4000,,,,,,,VFR,,,,,,,,,,,,METAR,324.0
FQTT 121400Z 30008KT 9999 SCT020 FEW025CB 33/23 Q1005 RMK CB TO N/NW,FQTT,2019-01-12T14:00:00Z,-16.1,33.62,33.0,23.0,300,8,,6.21,29.675198,,,,,,,,,,,SCT,2000,FEW,2500,,,,,VFR,,,,,,,,,,,,METAR,160.0
FGBT 121400Z 22010KT 9999 FEW010 31/26 Q1007,FGBT,2019-01-12T14:00:00Z,1.88,9.8,31.0,26.0,220,10,,6.21,29.734253,,,,,,,,,,,FEW,1000,,,,,,,VFR,,,,,,,,,,,,METAR,8.0
FGSL 121400Z 26009KT 220V300 6000 FEW012 31/25 Q1008 NOSIG,FGSL,2019-01-12T14:00:00Z,3.75,8.72,31.0,25.0,260,9,,3.73,29.763779,,,,,,TRUE,,,,,FEW,1200,,,,,,,MVFR,,,,,,,,,,,,METAR,56.0
YBPN 121400Z AUTO 18008KT 9999 // SCT024 SCT030 BKN037 23/21 Q1012,YBPN,2019-01-12T14:00:00Z,-20.5,148.55,23.0,21.0,180,8,,6.21,29.88189,,,TRUE,,,,,,,,SCT,2400,SCT,3000,BKN,3700,,,VFR,,,,,,,,,,,,METAR,25.0
YBOK 121400Z AUTO 08010KT 9999 // NCD 21/15 Q1017,YBOK,2019-01-12T14:00:00Z,-27.42,151.72,21.0,15.0,80,10,,6.21,30.029528,,,TRUE,,,,,,,,CLR,,,,,,,,VFR,,,,,,,,,,,,METAR,407.0
YBNA 121400Z AUTO 33003KT 9999 // NCD 19/19 Q1016,YBNA,2019-01-12T14:00:00Z,-28.83,153.57,19.0,19.0,330,3,,6.21,30.0,,,TRUE,,,,,,,,CLR,,,,,,,,VFR,,,,,,,,,,,,METAR,2.0
YBMK 121400Z AUTO 13013KT 9999 // ////// 26/22 Q1012,YBMK,2019-01-12T14:00:00Z,-21.17,149.17,26.0,22.0,130,13,,6.21,29.88189,,,TRUE,,,,,,,,,,,,,,,,,,,,,,,,,,,,METAR,31.0
YBHI 121400Z AUTO 20019KT 9999 // NCD 30/06 Q1014,YBHI,2019-01-12T14:00:00Z,-32.0,141.47,30.0,6.0,200,19,,6.21,29.940945,,,TRUE,,,,,,,,CLR,,,,,,,,VFR,,,,,,,,,,,,METAR,292.0
YLIS 121400Z AUTO 00000KT 9999 // NCD 18/16 Q1017,YLIS,2019-01-12T14:00:00Z,-28.83,153.27,18.0,16.0,0,0,,6.21,30.029528,,,TRUE,,,,,,,,CLR,,,,,,,,VFR,,,,,,,,,,,,METAR,11.0
YLEC 121400Z AUTO 20013KT //// // ////// 26/13 Q1014,YLEC,2019-01-12T14:00:00Z,-30.6,138.43,26.0,13.0,200,13,,,29.940945,,,TRUE,,,,,,,,,,,,,,,,,,,,,,,,,,,,METAR,262.0
YKRY 121400Z AUTO 12003KT 9999 // NCD 19/16 Q1018,YKRY,2019-01-12T14:00:00Z,-26.57,151.83,19.0,16.0,120,3,,6.21,30.059055,,,TRUE,,,,,,,,CLR,,,,,,,,VFR,,,,,,,,,,,,METAR,434.0
YHUG 121400Z AUTO 06009KT 9999 // NCD 29/11 Q1012,YHUG,2019-01-12T14:00:00Z,-20.82,144.23,29.0,11.0,60,9,,6.21,29.88189,,,TRUE,,,,,,,,CLR,,,,,,,,VFR,,,,,,,,,,,,METAR,318.0
YGTH 121400Z AUTO 03014KT 9999 // NCD 35/10 Q1011,YGTH,2019-01-12T14:00:00Z,-34.25,146.07,35.0,10.0,30,14,,6.21,29.852362,,,TRUE,,,,,,,,CLR,,,,,,,,VFR,,,,,,,,,,,,METAR,134.0
YRMD 121400Z AUTO 07007KT 9999 // NCD 31/13 Q1011,YRMD,2019-01-12T14:00:00Z,-20.7,143.12,31.0,13.0,70,7,,6.21,29.852362,,,TRUE,,,,,,,,CLR,,,,,,,,VFR,,,,,,,,,,,,METAR,207.0
YESP 121400Z AUTO 06009KT 9999 // NCD 24/12 Q1014,YESP,2019-01-12T14:00:00Z,-33.68,121.82,24.0,12.0,60,9,,6.21,29.940945,,,TRUE,,,,,,,,CLR,,,,,,,,VFR,,,,,,,,,,,,METAR,143.0
YEML 121400Z AUTO 05009KT 9999 // NCD 25/18 Q1014,YEML,2019-01-12T14:00:00Z,-23.57,148.18,25.0,18.0,50,9,,6.21,29.940945,,,TRUE,,,,,,,,CLR,,,,,,,,VFR,,,,,,,,,,,,METAR,190.0
YDBY 121400Z AUTO 28013KT //// // NCD 31/24 Q1006,YDBY,2019-01-12T14:00:00Z,-17.37,123.67,31.0,24.0,280,13,,,29.704725,,,TRUE,,,,,,,,CLR,,,,,,,,,,,,,,,,,,,,METAR,7.0
YCOM 121400Z AUTO 21009KT 9999 // NCD 15/05 Q1023,YCOM,2019-01-12T14:00:00Z,-36.3,148.97,15.0,5.0,210,9,,6.21,30.206694,,,TRUE,,,,,,,,CLR,,,,,,,,VFR,,,,,,,,,,,,METAR,941.0
YCNM 121400Z AUTO 09004KT //// // ////// 27/09 Q1014,YCNM,2019-01-12T14:00:00Z,-30.98,148.38,27.0,9.0,90,4,,,29.940945,,,TRUE,,,,,,,,,,,,,,,,,,,,,,,,,,,,METAR,184.0
YCDU 121400Z AUTO 16009KT //// // NCD 18/16 Q1018,YCDU,2019-01-12T14:00:00Z,-32.12,133.7,18.0,16.0,160,9,,,30.059055,,,TRUE,,,,,,,,CLR,,,,,,,,,,,,,,,,,,,,METAR,15.0
YPBO 121400Z AUTO 31007KT 9999 // NCD 38/01 Q1010,YPBO,2019-01-12T14:00:00Z,-23.2,117.75,38.0,1.0,310,7,,6.21,29.822834,,,TRUE,,,,,,,,CLR,,,,,,,,VFR,,,,,,,,,,,,METAR,1292.0
YOLD 121400Z AUTO 17015KT 9999 // NCD 28/08 Q1014,YOLD,2019-01-12T14:00:00Z,-30.48,136.88,28.0,8.0,170,15,,6.21,29.940945,,,TRUE,,,,,,,,CLR,,,,,,,,VFR,,,,,,,,,,,,METAR,105.0
YNWN 121400Z AUTO 09010KT 9999 // NCD 38/07 Q1011,YNWN,2019-01-12T14:00:00Z,-23.42,119.8,38.0,7.0,90,10,,6.21,29.852362,,,TRUE,,,,,,,,CLR,,,,,,,,VFR,,,,,,,,,,,,METAR,525.0
YNTN 121400Z AUTO 22003KT 9999 -SHRA NCD 25/24 Q1008 RESHRA,YNTN,2019-01-12T14:00:00Z,-17.68,141.07,25.0,24.0,220,3,,6.21,29.763779,,,TRUE,,,,,,,-SHRA,CLR,,,,,,,,VFR,,,,,,,,,,,,METAR,22.0
YNBR 121400Z AUTO 13006KT 9999 // NCD 29/10 Q1014,YNBR,2019-01-12T14:00:00Z,-30.32,149.83,29.0,10.0,130,6,,6.21,29.940945,,,TRUE,,,,,,,,CLR,,,,,,,,VFR,,,,,,,,,,,,METAR,240.0
YNAR 121400Z AUTO 05010KT //// // ////// 32/10 Q1012,YNAR,2019-01-12T14:00:00Z,-34.7,146.52,32.0,10.0,50,10,,,29.88189,,,TRUE,,,,,,,,,,,,,,,,,,,,,,,,,,,,METAR,145.0
YMTG 121400Z AUTO 14005KT 9999 // NCD 11/09 Q1022,YMTG,2019-01-12T14:00:00Z,-37.75,140.78,11.0,9.0,140,5,,6.21,30.177166,,,TRUE,,,,,,,,CLR,,,,,,,,VFR,,,,,,,,,,,,METAR,65.0
HEMA 121400Z 10008KT CAVOK 22/14 Q1011 NOSIG,HEMA,2019-01-12T14:00:00Z,25.55,34.58,22.0,14.0,100,8,,6.21,29.852362,,,,,,TRUE,,,,,CAVOK,,,,,,,,VFR,,,,,,,,,,,,METAR,77.0
HESG 121400Z 08004KT 5000 HZ NSC 21/04 Q1010 NOSIG,HESG,2019-01-12T14:00:00Z,26.33,31.75,21.0,4.0,80,4,,3.11,29.822834,,,,,,TRUE,,,,HZ,CLR,,,,,,,,MVFR,,,,,,,,,,,,METAR,70.0
HESC 121400Z 03004KT CAVOK 17/M09 Q1018 NOSIG,HESC,2019-01-12T14:00:00Z,28.68,34.07,17.0,-9.0,30,4,,6.21,30.059055,,,,,,TRUE,,,,,CAVOK,,,,,,,,VFR,,,,,,,,,,,,METAR,1332.0
HEBL 121400Z 10005KT CAVOK 25/08 Q1010 NOSIG,HEBL,2019-01-12T14:00:00Z,22.38,31.62,25.0,8.0,100,5,,6.21,29.822834,,,,,,TRUE,,,,,CAVOK,,,,,,,,VFR,,,,,,,,,,,,METAR,188.0
HEBA 121400Z 15012KT CAVOK 18/04 Q1008 NOSIG,HEBA,2019-01-12T14:00:00Z,30.92,29.7,18.0,4.0,150,12,,6.21,29.763779,,,,,,TRUE,,,,,CAVOK,,,,,,,,VFR,,,,,,,,,,,,METAR,54.0
HEAT 121400Z 36002KT CAVOK 20/02 Q1012 NOSIG,HEAT,2019-01-12T14:00:00Z,27.05,31.02,20.0,2.0,360,2,,6.21,29.88189,,,,,,TRUE,,,,,CAVOK,,,,,,,,VFR,,,,,,,,,,,,METAR,70.0
HESH 121400Z 16008KT CAVOK 23/16 Q1010 NOSIG,HESH,2019-01-12T14:00:00Z,27.97,34.38,23.0,16.0,160,8,,6.21,29.822834,,,,,,TRUE,,,,,CAVOK,,,,,,,,VFR,,,,,,,,,,,,METAR,50.0
HEPS 121400Z 07004KT CAVOK 17/11 Q1009 NOSIG,HEPS,2019-01-12T14:00:00Z,31.28,32.25,17.0,11.0,70,4,,6.21,29.793306,,,,,,TRUE,,,,,CAVOK,,,,,,,,VFR,,,,,,,,,,,,METAR,6.0
HEGN 121400Z 07002KT 9999 SCT025 21/08 Q1010 NOSIG,HEGN,2019-01-12T14:00:00Z,27.18,33.8,21.0,8.0,70,2,,6.21,29.822834,,,,,,TRUE,,,,,SCT,2500,,,,,,,VFR,,,,,,,,,,,,METAR,14.0
HELX 121400Z 00000KT 6000 24/10 Q1010 NOSIG,HELX,2019-01-12T14:00:00Z,25.67,32.7,24.0,10.0,0,0,,3.73,29.822834,,,,,,TRUE,,,,,,,,,,,,,,,,,,,,,,,,,METAR,88.0
HEAX 121400Z 10002KT CAVOK 18/10 Q1008 NOSIG,HEAX,2019-01-12T14:00:00Z,31.18,29.93,18.0,10.0,100,2,,6.21,29.763779,,,,,,TRUE,,,,,CAVOK,,,,,,,,VFR,,,,,,,,,,,,METAR,7.0
HEMM 121400Z 16016KT CAVOK 19/M01 Q1007 NOSIG,HEMM,2019-01-12T14:00:00Z,31.32,27.22,19.0,-1.0,160,16,,6.21,29.734253,,,,,,TRUE,,,,,CAVOK,,,,,,,,VFR,,,,,,,,,,,,METAR,30.0
FTTC 121400Z 00000KT CAVOK 39/// Q1008,FTTC,2019-01-12T14:00:00Z,13.83,20.85,,,0,0,,6.21,29.763779,,,,,,,,,,,CAVOK,,,,,,,,VFR,,,,,,,,,,,,METAR,549.0
CWGM 121400Z AUTO 23018G27KT 05/M13 RMK AO1 PK WND 24030/1318 T00531126,CWGM,2019-01-12T14:00:00Z,49.13,-113.78,5.3,-12.6,230,18,27,,,,,TRUE,TRUE,,,,,,,,,,,,,,,,,,,,,,,,,,,METAR,1296.0
CWGL 121400Z AUTO 04003KT M13/M19 RMK AO1 SLP357 T11261186 53021,CWGL,2019-01-12T14:00:00Z,44.52,-79.22,-12.6,-18.6,40,3,,,,1035.7,,TRUE,TRUE,,,,,,,,,,,,,,,,2.1,,,,,,,,,,,METAR,221.0
MGTU 121400Z 05004KT CAVOK 22/21,MGTU,2019-01-12T14:00:00Z,,,22.0,21.0,50,4,,6.21,,,,,,,,,,,,CAVOK,,,,,,,,VFR,,,,,,,,,,,,METAR,
MGMT 121400Z 00000KT CAVOK 26/18 QFE 1013.0,MGMT,2019-01-12T14:00:00Z,,,26.0,18.0,0,0,,6.21,,,,,,,,,,,,CAVOK,,,,,,,,VFR,,,,,,,,,,,,METAR,
MGES 121400Z 00000KT 9999 SCT015 17/15 QFE 911.4 FEW090,MGES,2019-01-12T14:00:00Z,14.57,-89.32,17.0,15.0,0,0,,6.21,,,,,,,,,,,,SCT,1500,FEW,9000,,,,,VFR,,,,,,,,,,,,METAR,965.0
MGZA 121400Z 00000KT CAVOK 21/16 QFE 993/6,MGZA,2019-01-12T14:00:00Z,14.97,-89.52,21.0,16.0,0,0,,6.21,,,,,,,,,,,,CAVOK,,,,,,,,VFR,,,,,,,,,,,,METAR,490.0
MGCB 121400Z 00000KT CAVOK 12/11 QFE 872.8,MGCB,2019-01-12T14:00:00Z,15.48,-90.42,12.0,11.0,0,0,,6.21,,,,,,,,,,,,CAVOK,,,,,,,,VFR,,,,,,,,,,,,METAR,1316.0
MGQZ 121400Z 00000KT CAVOK 10/08 QFE 774/9,MGQZ,2019-01-12T14:00:00Z,14.87,-91.5,10.0,8.0,0,0,,6.21,,,,,,,,,,,,CAVOK,,,,,,,,VFR,,,,,,,,,,,,METAR,2371.0
MGRT 121400Z 00000KT CAVOK 23/20 Q1017 A3003 VOL. STA. MARIA Y SANTIAGUITO EN ACTIVIDAD,MGRT,2019-01-12T14:00:00Z,14.53,-91.7,23.0,20.0,0,0,,6.21,30.029528,,,,,,,,,,SA,CAVOK,,,,,,,,VFR,,,,,,,,,,,,METAR,200.0
MGSJ 121400Z 00000KT CAVOK 24/22 Q1015 A2997,MGSJ,2019-01-12T14:00:00Z,13.92,-90.83,24.0,22.0,0,0,,6.21,29.970472,,,,,,,,,,,CAVOK,,,,,,,,VFR,,,,,,,,,,,,METAR,9.0
MGGT 121400Z 02006KT CAVOK 16/12 Q1027 A3033,MGGT,2019-01-12T14:00:00Z,14.57,-90.53,16.0,12.0,20,6,,6.21,30.324802,,,,,,,,,,,CAVOK,,,,,,,,VFR,,,,,,,,,,,,METAR,1509.0
MGPB 121400Z 00000KT 9999 FEW020 21/21 Q1017 A3003,MGPB,2019-01-12T14:00:00Z,15.72,-88.58,21.0,21.0,0,0,,6.21,30.029528,,,,,,,,,,,FEW,2000,,,,,,,VFR,,,,,,,,,,,,METAR,10.0
MGHT 121400Z 00000KT 9999 FEW018 12/10,MGHT,2019-01-12T14:00:00Z,15.32,-91.5,12.0,10.0,0,0,,6.21,,,,,,,,,,,,FEW,1800,,,,,,,VFR,,,,,,,,,,,,METAR,1901.0
MGMM 121400Z 00000KT CAVOK 20/18 Q1018 A3006,MGMM,2019-01-12T14:00:00Z,16.97,-89.87,20.0,18.0,0,0,,6.21,30.059055,,,,,,,,,,,CAVOK,,,,,,,,VFR,,,,,,,,,,,,METAR,123.0
TNCA 121400Z 09017KT 9999 BKN020 29/21 Q1017 NOSIG,TNCA,2019-01-12T14:00:00Z,12.5,-70.0,29.0,21.0,90,17,,6.21,30.029528,,,,,,TRUE,,,,,BKN,2000,,,,,,,MVFR,,,,,,,,,,,,METAR,18.0
EPWA 121400Z 27008KT 240V300 9999 BKN016 01/M01 Q1007 R33/2///95 NOSIG,EPWA,2019-01-12T14:00:00Z,52.17,20.97,1.0,-1.0,270,8,,6.21,29.734253,,,,,,TRUE,,,,,BKN,1600,,,,,,,MVFR,,,,,,,,,,,,METAR,107.0
EPRZ 121400Z 26010KT 9999 OVC023 01/M02 Q1009 R27/1///95,EPRZ,2019-01-12T14:00:00Z,50.1,22.05,1.0,-2.0,260,10,,6.21,29.793306,,,,,,,,,,,OVC,2300,,,,,,,MVFR,,,,,,,,,,,,METAR,202.0
EPPO 121400Z 25008KT 7000 -RA BKN006 03/03 Q1007,EPPO,2019-01-12T14:00:00Z,52.42,16.82,3.0,3.0,250,8,,4.35,29.734253,,,,,,,,,,-RA,BKN,600,,,,,,,IFR,,,,,,,,,,,,METAR,92.0
EPLL 121400Z 23007KT 9999 FEW009 BKN013 01/M00 Q1007 R25/29//95,EPLL,2019-01-12T14:00:00Z,51.72,19.4,1.0,0.0,230,7,,6.21,29.734253,,,,,,,,,,,FEW,900,BKN,1300,,,,,MVFR,,,,,,,,,,,,METAR,184.0
EPKK 121400Z 23010KT 7000 BKN011 02/00 Q1010 R25/51//95,EPKK,2019-01-12T14:00:00Z,50.07,19.8,2.0,0.0,230,10,,4.35,29.822834,,,,,,,,,,,BKN,1100,,,,,,,MVFR,,,,,,,,,,,,METAR,237.0
EPGD 121400Z 25011KT 9999 SCT007 BKN009 01/M00 Q1002,EPGD,2019-01-12T14:00:00Z,54.37,18.47,1.0,0.0,250,11,,6.21,29.586615,,,,,,,,,,,SCT,700,BKN,900,,,,,IFR,,,,,,,,,,,,METAR,138.0
GMTN 121400Z 10017KT CAVOK 16/03 Q1025 NOSIG,GMTN,2019-01-12T14:00:00Z,35.57,-5.32,16.0,3.0,100,17,,6.21,30.265747,,,,,,TRUE,,,,,CAVOK,,,,,,,,VFR,,,,,,,,,,,,METAR,10.0
GMMZ 121400Z 10004KT CAVOK 15/M10 Q1024 NOSIG,GMMZ,2019-01-12T14:00:00Z,30.92,-6.9,15.0,-10.0,100,4,,6.21,30.236221,,,,,,TRUE,,,,,CAVOK,,,,,,,,VFR,,,,,,,,,,,,METAR,1140.0
GMMW 121400Z 04007KT 360V080 CAVOK 14/M03 Q1026 NOSIG,GMMW,2019-01-12T14:00:00Z,34.98,-3.02,14.0,-3.0,40,7,,6.21,30.295275,,,,,,TRUE,,,,,CAVOK,,,,,,,,VFR,,,,,,,,,,,,METAR,175.0
GMML 121400Z 16011KT CAVOK 25/M05 Q1019 NOSIG,GMML,2019-01-12T14:00:00Z,27.13,-13.23,25.0,-5.0,160,11,,6.21,30.088583,,,,,,TRUE,,,,,CAVOK,,,,,,,,VFR,,,,,,,,,,,,METAR,6.0
GMMI 121400Z 34004KT 8000 NSC 23/01 Q1021 NOSIG,GMMI,2019-01-12T14:00:00Z,31.4,-9.68,23.0,1.0,340,4,,4.97,30.147638,,,,,,TRUE,,,,,CLR,,,,,,,,MVFR,,,,,,,,,,,,METAR,8.0
GMMD 121400Z 12002KT CAVOK 19/M01 Q1022 NOSIG,GMMD,2019-01-12T14:00:00Z,32.4,-6.32,19.0,-1.0,120,2,,6.21,30.177166,,,,,,TRUE,,,,,CAVOK,,,,,,,,VFR,,,,,,,,,,,,METAR,509.0
GMMC 121400Z 02008KT CAVOK 17/08 Q1022,GMMC,2019-01-12T14:00:00Z,33.57,-7.67,17.0,8.0,20,8,,6.21,30.177166,,,,,,,,,,,CAVOK,,,,,,,,VFR,,,,,,,,,,,,METAR,62.0
GMMB 121400Z 33007KT 300V020 CAVOK 18/07 Q1023 NOSIG,GMMB,2019-01-12T14:00:00Z,33.65,-7.22,18.0,7.0,330,7,,6.21,30.206694,,,,,,TRUE,,,,,CAVOK,,,,,,,,VFR,,,,,,,,,,,,METAR,191.0
GMFO 121400Z VRB02KT CAVOK 14/M06 Q1026 NOSIG,GMFO,2019-01-12T14:00:00Z,34.77,-1.92,14.0,-6.0,0,2,,6.21,30.295275,,,,,,TRUE,,,,,CAVOK,,,,,,,,VFR,,,,,,,,,,,,METAR,470.0
GMFM 121400Z 06006KT CAVOK 16/01 Q1022 NOSIG,GMFM,2019-01-12T14:00:00Z,33.87,-5.52,16.0,1.0,60,6,,6.21,30.177166,,,,,,TRUE,,,,,CAVOK,,,,,,,,VFR,,,,,,,,,,,,METAR,549.0
GMFK 121400Z 20008KT CAVOK 11/M07 Q1026 NOSIG,GMFK,2019-01-12T14:00:00Z,31.95,-4.4,11.0,-7.0,200,8,,6.21,30.295275,,,,,,TRUE,,,,,CAVOK,,,,,,,,VFR,,,,,,,,,,,,METAR,1045.0
GMAT 121400Z 12014KT CAVOK 22/M06 Q1020 NOSIG,GMAT,2019-01-12T14:00:00Z,28.43,-11.15,22.0,-6.0,120,14,,6.21,30.11811,,,,,,TRUE,,,,,CAVOK,,,,,,,,VFR,,,,,,,,,,,,METAR,200.0
GMAG 121400Z 12012G22KT CAVOK 22/M11 Q1020 NOSIG,GMAG,2019-01-12T14:00:00Z,29.03,-10.05,22.0,-11.0,120,12,22,6.21,30.11811,,,,,,TRUE,,,,,CAVOK,,,,,,,,VFR,,,,,,,,,,,,METAR,333.0
GMTT 121400Z 11017KT 9999 FEW016 16/02 Q1024 NOSIG,GMTT,2019-01-12T14:00:00Z,35.72,-5.9,16.0,2.0,110,17,,6.21,30.236221,,,,,,TRUE,,,,,FEW,1600,,,,,,,VFR,,,,,,,,,,,,METAR,21.0
GMMX 121400Z VRB02KT CAVOK 21/M01 Q1022 NOSIG,GMMX,2019-01-12T14:00:00Z,31.62,-8.02,21.0,-1.0,0,2,,6.21,30.177166,,,,,,TRUE,,,,,CAVOK,,,,,,,,VFR,,,,,,,,,,,,METAR,466.0
GMMN 121400Z 03007KT 350V070 CAVOK 18/07 Q1022 NOSIG,GMMN,2019-01-12T14:00:00Z,33.37,-7.57,18.0,7.0,30,7,,6.21,30.177166,,,,,,TRUE,,,,,CAVOK,,,,,,,,VFR,,,,,,,,,,,,METAR,206.0
GMME 121400Z 35006KT 7000 NSC 17/06 Q1022 NOSIG,GMME,2019-01-12T14:00:00Z,34.03,-6.77,17.0,6.0,350,6,,4.35,30.177166,,,,,,TRUE,,,,,CLR,,,,,,,,MVFR,,,,,,,,,,,,METAR,75.0
GMFF 121400Z 05010KT 360V080 CAVOK 16/01 Q1023 NOSIG,GMFF,2019-01-12T14:00:00Z,33.92,-4.97,16.0,1.0,50,10,,6.21,30.206694,,,,,,TRUE,,,,,CAVOK,,,,,,,,VFR,,,,,,,,,,,,METAR,579.0
GMAD 121400Z 21004KT CAVOK 24/M03 Q1020 NOSIG,GMAD,2019-01-12T14:00:00Z,30.32,-9.42,24.0,-3.0,210,4,,6.21,30.11811,,,,,,TRUE,,,,,CAVOK,,,,,,,,VFR,,,,,,,,,,,,METAR,74.0
SBMQ 121400Z 01008KT 9999 SCT008 BKN015 BKN080 28/24 Q1014,SBMQ,2019-01-12T14:00:00Z,0.05,-51.07,28.0,24.0,10,8,,6.21,29.940945,,,,,,,,,,,SCT,800,BKN,1500,BKN,8000,,,MVFR,,,,,,,,,,,,METAR,15.0
EPZG 121400Z 24010KT 7000 BKN007 OVC013 05/05 Q1008,EPZG,2019-01-12T14:00:00Z,52.13,15.8,5.0,5.0,240,10,,4.35,29.763779,,,,,,,,,,,BKN,700,OVC,1300,,,,,IFR,,,,,,,,,,,,METAR,59.0
EPWR 121400Z 27011KT 9999 -RA BKN008 BKN012 04/02 Q1010 R11/29//95,EPWR,2019-01-12T14:00:00Z,51.1,16.87,4.0,2.0,270,11,,6.21,29.822834,,,,,,,,,,-RA,BKN,800,BKN,1200,,,,,IFR,,,,,,,,,,,,METAR,121.0
EPSY 121400Z 24008KT 9999 SCT009 BKN018 00/M01 Q1004 R01/590193,EPSY,2019-01-12T14:00:00Z,53.47,20.93,0.0,-1.0,240,8,,6.21,29.64567,,,,,,,,,,,SCT,900,BKN,1800,,,,,MVFR,,,,,,,,,,,,METAR,141.0
EPSC 121400Z 23006KT 190V270 9999 SCT006 BKN008 05/04 Q1005,EPSC,2019-01-12T14:00:00Z,53.58,14.9,5.0,4.0,230,6,,6.21,29.675198,,,,,,,,,,,SCT,600,BKN,800,,,,,IFR,,,,,,,,,,,,METAR,47.0
EPRA 121400Z 26008KT 9999 BKN023 01/00 Q1008,EPRA,2019-01-12T14:00:00Z,51.38,21.22,1.0,0.0,260,8,,6.21,29.763779,,,,,,,,,,,BKN,2300,,,,,,,MVFR,,,,,,,,,,,,METAR,178.0
EPMO 121400Z 25010KT 9999 BKN015 01/M01 Q1006 R08/290095,EPMO,2019-01-12T14:00:00Z,52.45,20.65,1.0,-1.0,250,10,,6.21,29.704725,,,,,,,,,,,BKN,1500,,,,,,,MVFR,,,,,,,,,,,,METAR,104.0
EPLB 121400Z 28011KT 9999 BKN019 BKN025 01/M02 Q1007,EPLB,2019-01-12T14:00:00Z,51.23,22.72,1.0,-2.0,280,11,,6.21,29.734253,,,,,,,,,,,BKN,1900,BKN,2500,,,,,MVFR,,,,,,,,,,,,METAR,206.0
EPKT 121400Z 25010KT 9999 -SNRA SCT005 BKN008 01/M00 Q1009,EPKT,2019-01-12T14:00:00Z,50.47,19.08,1.0,0.0,250,10,,6.21,29.793306,,,,,,,,,,-SN -RA,SCT,500,BKN,800,,,,,IFR,,,,,,,,,,,,METAR,284.0
EPBY 121400Z 23008KT 9999 FEW015 SCT020 BKN023 02/01 Q1005 R26/290095,EPBY,2019-01-12T14:00:00Z,53.1,18.0,2.0,1.0,230,8,,6.21,29.675198,,,,,,,,,,,FEW,1500,SCT,2000,BKN,2300,,,MVFR,,,,,,,,,,,,METAR,71.0
YSRI 121400Z AUTO 00000KT 9999 // NCD 23/21 Q1016,YSRI,2019-01-12T14:00:00Z,-33.6,150.77,23.0,21.0,0,0,,6.21,30.0,,,TRUE,,,,,,,,CLR,,,,,,,,VFR,,,,,,,,,,,,SPECI,21.0
YSDU 121400Z AUTO 09008KT 9999 // NCD 27/13 Q1015,YSDU,2019-01-12T14:00:00Z,-32.22,148.57,27.0,13.0,90,8,,6.21,29.970472,,,TRUE,,,,,,,,CLR,,,,,,,,VFR,,,,,,,,,,,,SPECI,275.0
YSCB 121400Z AUTO 11006KT 9999 // NCD 23/13 Q1019 RF00.0/000.0,YSCB,2019-01-12T14:00:00Z,-35.28,149.17,23.0,13.0,110,6,,6.21,30.088583,,,TRUE,,,,,,,,CLR,,,,,,,,VFR,,,,,,,,,,,,METAR,577.0
YPPD 121400Z AUTO 28007KT //// // SCT079 28/26 Q1008,YPPD,2019-01-12T14:00:00Z,-20.37,118.62,28.0,26.0,280,7,,,29.763779,,,TRUE,,,,,,,,SCT,7900,,,,,,,,,,,,,,,,,,,METAR,6.0
YPKG 121400Z AUTO 09013KT 9999 // NCD 32/08 Q1013 RF00.0/000.0,YPKG,2019-01-12T14:00:00Z,-30.77,121.45,32.0,8.0,90,13,,6.21,29.911417,,,TRUE,,,,,,,,CLR,,,,,,,,VFR,,,,,,,,,,,,METAR,360.0
YPGV 121400Z AUTO 00000KT 9999 // NCD 27/25 Q1008,YPGV,2019-01-12T14:00:00Z,-12.27,136.82,27.0,25.0,0,0,,6.21,29.763779,,,TRUE,,,,,,,,CLR,,,,,,,,VFR,,,,,,,,,,,,METAR,55.0
YPEA 121400Z AUTO 21006KT 9999 // NCD 22/13 Q1011,YPEA,2019-01-12T14:00:00Z,-31.67,116.02,22.0,13.0,210,6,,6.21,29.852362,,,TRUE,,,,,,,,CLR,,,,,,,,VFR,,,,,,,,,,,,METAR,49.0
YMLT 121400Z AUTO 18004KT 9999 // NCD 12/08 Q1022 RF00.0/000.0,YMLT,2019-01-12T14:00:00Z,-41.52,147.18,12.0,8.0,180,4,,6.21,30.177166,,,TRUE,,,,,,,,CLR,,,,,,,,VFR,,,,,,,,,,,,METAR,178.0
YMHB 121400Z 31006KT 290V350 9999 FEW045 12/07 Q1023 RF00.0/000.0,YMHB,2019-01-12T14:00:00Z,-42.82,147.52,12.0,7.0,310,6,,6.21,30.206694,,,,,,,,,,,FEW,4500,,,,,,,VFR,,,,,,,,,,,,METAR,27.0
YFRT 121400Z AUTO 11013KT 9999 // NCD 20/12 Q1018,YFRT,2019-01-12T14:00:00Z,-30.83,128.12,20.0,12.0,110,13,,6.21,30.059055,,,TRUE,,,,,,,,CLR,,,,,,,,VFR,,,,,,,,,,,,METAR,156.0
YCIN 121400Z AUTO 28008KT 9999 // NCD 31/22 Q1006,YCIN,2019-01-12T14:00:00Z,-17.58,123.83,31.0,22.0,280,8,,6.21,29.704725,,,TRUE,,,,,,,,CLR,,,,,,,,VFR,,,,,,,,,,,,METAR,91.0
YBRM 121400Z AUTO 29011KT 9999 // NCD 30/26 Q1007 RF00.0/000.0,YBRM,2019-01-12T14:00:00Z,-17.93,122.22,30.0,26.0,290,11,,6.21,29.734253,,,TRUE,,,,,,,,CLR,,,,,,,,VFR,,,,,,,,,,,,METAR,9.0
YBRK 121400Z AUTO 13005KT 9999 // NCD 24/20 Q1013 RF00.0/000.0,YBRK,2019-01-12T14:00:00Z,-23.37,150.47,24.0,20.0,130,5,,6.21,29.911417,,,TRUE,,,,,,,,CLR,,,,,,,,VFR,,,,,,,,,,,,METAR,14.0
YBMA 121400Z AUTO 09010KT 9999 // NCD 35/11 Q1011,YBMA,2019-01-12T14:00:00Z,-20.67,139.47,35.0,11.0,90,10,,6.21,29.852362,,,TRUE,,,,,,,,CLR,,,,,,,,VFR,,,,,,,,,,,,SPECI,344.0
YBHM 121400Z AUTO 12018KT 9999 // SCT026 26/22 Q1012,YBHM,2019-01-12T14:00:00Z,-20.35,148.95,26.0,22.0,120,18,,6.21,29.88189,,,TRUE,,,,,,,,SCT,2600,,,,,,,VFR,,,,,,,,,,,,METAR,5.0
OPNH 121400Z 31506KT 3000 FU NSC 18/08 Q1016 NOSIG,OPNH,2019-01-12T14:00:00Z,26.22,68.37,18.0,8.0,315,6,,1.86,30.0,,,,,,TRUE,,,,FU,CLR,,,,,,,,IFR,,,,,,,,,,,,METAR,38.0
KVPC 121400Z AUTO 11008G23KT 060V170 10SM OVC032 05/M07 A3031 RMK AO2 T00501067,KVPC,2019-01-12T14:00:00Z,34.13,-84.85,5.0,-6.7,110,8,23,10.0,30.31004,,,TRUE,TRUE,,,,,,,OVC,3200,,,,,,,VFR,,,,,,,,,,,,SPECI,222.0
KPNC 121400Z AUTO 35010KT 1SM -SN BR FEW004 OVC008 01/00 A2996 RMK AO2 P0000 T00060000,KPNC,2019-01-12T14:00:00Z,36.73,-97.1,0.6,0.0,350,10,,1.0,29.958662,,,TRUE,TRUE,,,,,,-SN BR,FEW,400,OVC,800,,,,,IFR,,,,,,0.005,,,,,,SPECI,308.0
KMHK 121400Z 03010G20KT 10SM SCT010 SCT022 OVC040 01/M01 A3006 RMK AO2 T00061011,KMHK,2019-01-12T14:00:00Z,39.13,-96.68,0.6,-1.1,30,10,20,10.0,30.059055,,,,TRUE,,,,,,,SCT,1000,SCT,2200,OVC,4000,,,VFR,,,,,,,,,,,,SPECI,317.0
YMOR 121400Z AUTO 08014KT 9999 // NCD 30/11 Q1014,YMOR,2019-01-12T14:00:00Z,-29.5,149.85,30.0,11.0,80,14,,6.21,29.940945,,,TRUE,,,,,,,,CLR,,,,,,,,VFR,,,,,,,,,,,,METAR,214.0
YMML 121400Z 18010KT 9999 FEW025 16/11 Q1021,YMML,2019-01-12T14:00:00Z,-37.67,144.82,16.0,11.0,180,10,,6.21,30.147638,,,,,,,,,,,FEW,2500,,,,,,,VFR,,,,,,,,,,,,METAR,141.0
YMIA 121400Z AUTO 17013KT 9999 // NCD 25/04 Q1015,YMIA,2019-01-12T14:00:00Z,-34.23,142.08,25.0,4.0,170,13,,6.21,29.970472,,,TRUE,,,,,,,,CLR,,,,,,,,VFR,,,,,,,,,,,,METAR,51.0
YMER 121400Z AUTO 21008KT 9999 // NCD 20/10 Q1019,YMER,2019-01-12T14:00:00Z,-36.92,149.9,20.0,10.0,210,8,,6.21,30.088583,,,TRUE,,,,,,,,CLR,,,,,,,,VFR,,,,,,,,,,,,METAR,2.0
YMEN 121400Z AUTO 16011KT 9999 // NCD 16/12 Q1021,YMEN,2019-01-12T14:00:00Z,-37.72,144.9,16.0,12.0,160,11,,6.21,30.147638,,,TRUE,,,,,,,,CLR,,,,,,,,VFR,,,,,,,,,,,,METAR,86.0
YMEK 121400Z AUTO 06009KT 050V110 9999 // NCD 39/M05 Q1010,YMEK,2019-01-12T14:00:00Z,-26.62,118.55,39.0,-5.0,60,9,,6.21,29.822834,,,TRUE,,,,,,,,CLR,,,,,,,,VFR,,,,,,,,,,,,METAR,522.0
YMDG 121400Z AUTO 00000KT 9999 // NCD 23/16 Q1017,YMDG,2019-01-12T14:00:00Z,-32.57,149.62,23.0,16.0,0,0,,6.21,30.029528,,,TRUE,,,,,,,,CLR,,,,,,,,VFR,,,,,,,,,,,,METAR,471.0
YMAY 121400Z AUTO 05001KT 9999 // NCD 26/13 Q1013,YMAY,2019-01-12T14:00:00Z,-36.07,146.93,26.0,13.0,50,1,,6.21,29.911417,,,TRUE,,,,,,,,CLR,,,,,,,,VFR,,,,,,,,,,,,METAR,171.0
YMAV 121400Z AUTO 16008KT //// // BKN027 16/11 Q1022 RF00.0/000.0 PRESENT WEATHER SENSOR US,YMAV,2019-01-12T14:00:00Z,-38.03,144.48,16.0,11.0,160,8,,,30.177166,,,TRUE,,,,,,,,BKN,2700,,,,,,,,,,,,,,,,,,,METAR,8.0
YLRE 121400Z AUTO 05008KT //// // NCD 30/10 Q1011,YLRE,2019-01-12T14:00:00Z,-23.43,144.28,30.0,10.0,50,8,,,29.852362,,,TRUE,,,,,,,,CLR,,,,,,,,,,,,,,,,,,,,METAR,193.0
WSSS 121400Z 01004KT 330V090 CAVOK 28/23 Q1012 NOSIG,WSSS,2019-01-12T14:00:00Z,1.37,103.97,28.0,23.0,10,4,,6.21,29.88189,,,,,,TRUE,,,,,CAVOK,,,,,,,,VFR,,,,,,,,,,,,METAR,16.0
TRPG 121400Z 12007KT 9999 VCSH FEW017 BKN038 25/21 Q1020,TRPG,2019-01-12T14:00:00Z,16.78,-62.2,25.0,21.0,120,7,,6.21,30.11811,,,,,,,,,,VCSH,FEW,1700,BKN,3800,,,,,VFR,,,,,,,,,,,,METAR,168.0
FMCZ 121400Z AUTO 24006KT 200V300 9999 FEW022/// SCT039/// BKN060/// ///TCU 27/25 Q1010 BECMG 03010KT SCT020 BKN040,FMCZ,2019-01-12T14:00:00Z,-12.8,45.27,27.0,25.0,240,6,,6.21,29.822834,,,TRUE,,,,,,,,FEW,2200,SCT,3900,BKN,6000,,,VFR,,,,,,,,,,,,SPECI,7.0
WSAP 121400Z 04008KT 9999 FEW018 SCT150 BKN300 29/24 Q1011,WSAP,2019-01-12T14:00:00Z,1.37,103.92,29.0,24.0,40,8,,6.21,29.852362,,,,,,,,,,,FEW,1800,SCT,15000,BKN,30000,,,VFR,,,,,,,,,,,,METAR,32.0
WAPP 121400Z 34006KT 9999 SCT019 26/24 Q1010 NOSIG,WAPP,2019-01-12T14:00:00Z,-3.7,128.07,26.0,24.0,340,6,,6.21,29.822834,,,,,,TRUE,,,,,SCT,1900,,,,,,,VFR,,,,,,,,,,,,METAR,12.0
WATT 121400Z 08005KT 8000 SCT015 BKN080 24/23 Q1011 NOSIG,WATT,2019-01-12T14:00:00Z,-10.17,123.67,24.0,23.0,80,5,,4.97,29.852362,,,,,,TRUE,,,,,SCT,1500,BKN,8000,,,,,MVFR,,,,,,,,,,,,METAR,102.0
WSSL 121400Z 02007KT 9999 FEW018 BKN300 28/23 Q1011,WSSL,2019-01-12T14:00:00Z,1.42,103.87,28.0,23.0,20,7,,6.21,29.852362,,,,,,,,,,,FEW,1800,BKN,30000,,,,,VFR,,,,,,,,,,,,METAR,14.0
UKDR 121400Z 25004MPS 3500 -SN OVC006 M05/M07 Q1007 R36/4950// TEMPO 2100 -SHSN BR BKN007 BKN015CB,UKDR,2019-01-12T14:00:00Z,48.05,33.22,-5.0,-7.0,250,8,,2.17,29.734253,,,,,,,,,,-SN,OVC,600,,,,,,,IFR,,,,,,,,,,,,METAR,124.0
UKLL 121400Z 28006MPS 9999 OVC014 M01/M03 Q1008 R31/610340 NOSIG,UKLL,2019-01-12T14:00:00Z,49.82,23.93,-1.0,-3.0,280,12,,6.21,29.763779,,,,,,TRUE,,,,,OVC,1400,,,,,,,MVFR,,,,,,,,,,,,METAR,325.0
UKDD 121400Z 23003MPS 9999 BKN037 M08/M10 Q1007 R26/820550 NOSIG,UKDD,2019-01-12T14:00:00Z,48.37,35.1,-8.0,-10.0,230,6,,6.21,29.734253,,,,,,TRUE,,,,,BKN,3700,,,,,,,VFR,,,,,,,,,,,,METAR,149.0
UKDE 121400Z 27005MPS CAVOK M05/M07 Q1008 R20L/290360 NOSIG,UKDE,2019-01-12T14:00:00Z,47.87,35.32,-5.0,-7.0,270,10,,6.21,29.763779,,,,,,TRUE,,,,,CAVOK,,,,,,,,VFR,,,,,,,,,,,,METAR,113.0
UKOO 121400Z 28004MPS 9999 SCT011 M01/M03 Q1009 R16/190042 NOSIG,UKOO,2019-01-12T14:00:00Z,46.42,30.68,-1.0,-3.0,280,8,,6.21,29.793306,,,,,,TRUE,,,,,SCT,1100,,,,,,,VFR,,,,,,,,,,,,METAR,35.0
UKHH 121400Z 24005MPS 9999 BKN010 OVC026 M11/M13 Q1004 R25/82//68 NOSIG,UKHH,2019-01-12T14:00:00Z,49.92,36.28,-11.0,-13.0,240,10,,6.21,29.64567,,,,,,TRUE,,,,,BKN,1000,OVC,2600,,,,,MVFR,,,,,,,,,,,,METAR,155.0
UKBB 121400Z 30005MPS 8000 -SN OVC014 M04/M05 Q1003 R18L/491030 R18R/491036 TEMPO 2000 SN,UKBB,2019-01-12T14:00:00Z,50.33,30.9,-4.0,-5.0,300,10,,4.97,29.616142,,,,,,,,,,-SN,OVC,1400,,,,,,,MVFR,,,,,,,,,,,,METAR,119.0
VOBL 121400Z 05003KT 6000 FEW015 22/07 Q1018 NOSIG,VOBL,2019-01-12T14:00:00Z,13.2,77.7,22.0,7.0,50,3,,3.73,30.059055,,,,,,TRUE,,,,,FEW,1500,,,,,,,MVFR,,,,,,,,,,,,METAR,915.0
VGEG 121400Z 32007KT 3500 HZ NSC 21/15 Q1015 NOSIG,VGEG,2019-01-12T14:00:00Z,22.27,91.82,21.0,15.0,320,7,,2.17,29.970472,,,,,,TRUE,,,,HZ,CLR,,,,,,,,IFR,,,,,,,,,,,,METAR,6.0
YBDV 121400Z AUTO 14005KT //// // ////// 35/08 Q1009,YBDV,2019-01-12T14:00:00Z,-25.9,139.35,35.0,8.0,140,5,,,29.793306,,,TRUE,,,,,,,,,,,,,,,,,,,,,,,,,,,,METAR,47.0
YBCV 121400Z AUTO 08005KT 9999 // NCD 32/07 Q1013,YBCV,2019-01-12T14:00:00Z,-26.38,146.27,32.0,7.0,80,5,,6.21,29.911417,,,TRUE,,,,,,,,CLR,,,,,,,,VFR,,,,,,,,,,,,METAR,304.0
YBCS 121400Z AUTO 16008KT 9999 // NCD 25/21 Q1011 RMK RF00.0/000.6 NOSIG,YBCS,2019-01-12T14:00:00Z,-16.87,145.75,25.0,21.0,160,8,,6.21,29.852362,,,TRUE,,,,,,,,CLR,,,,,,,,VFR,,,,,,,,,,,,METAR,7.0
YBCG 121400Z AUTO 23004KT 9999 // NCD 20/19 Q1016 RF00.0/000.0,YBCG,2019-01-12T14:00:00Z,-28.17,153.5,20.0,19.0,230,4,,6.21,30.0,,,TRUE,,,,,,,,CLR,,,,,,,,VFR,,,,,,,,,,,,METAR,6.0
YBBN 121400Z 12005KT 9999 FEW024 23/19 Q1016 FM1600 19006KT 9999 SCT025,YBBN,2019-01-12T14:00:00Z,-27.38,153.13,23.0,19.0,120,5,,6.21,30.0,,,,,,,,,,,FEW,2400,,,,,,,VFR,,,,,,,,,,,,METAR,5.0
YBAS 121400Z AUTO 09007KT 9999 // NCD 32/11 Q1014 RF00.0/003.2,YBAS,2019-01-12T14:00:00Z,-23.8,133.9,32.0,11.0,90,7,,6.21,29.940945,,,TRUE,,,,,,,,CLR,,,,,,,,VFR,,,,,,,,,,,,METAR,541.0
YAYE 121400Z AUTO 10011KT 9999 // NCD 36/02 Q1014,YAYE,2019-01-12T14:00:00Z,-25.18,130.98,36.0,2.0,100,11,,6.21,29.940945,,,TRUE,,,,,,,,CLR,,,,,,,,VFR,,,,,,,,,,,,METAR,496.0
YAMB 121400Z AUTO 00000KT 9999 // NCD 19/17 Q1016,YAMB,2019-01-12T14:00:00Z,-27.63,152.72,19.0,17.0,0,0,,6.21,30.0,,,TRUE,,,,,,,,CLR,,,,,,,,VFR,,,,,,,,,,,,METAR,28.0
YABA 121400Z AUTO 09003KT 9000 // NCD 17/16 Q1014,YABA,2019-01-12T14:00:00Z,-34.93,117.8,17.0,16.0,90,3,,5.59,29.940945,,,TRUE,,,,,,,,CLR,,,,,,,,VFR,,,,,,,,,,,,METAR,69.0
UBEE 121400Z 00000KT 6000 NSC 06/M02 Q1011 R30/CLRD// NOSIG,UBEE,2019-01-12T14:00:00Z,40.63,47.15,6.0,-2.0,0,0,,3.73,29.852362,,,,,,TRUE,,,,,CLR,,,,,,,,MVFR,,,,,,,,,,,,METAR,15.0
VHHH 121400Z VRB02KT 4100 HZ NSC 21/17 Q1018 NOSIG,VHHH,2019-01-12T14:00:00Z,22.32,113.92,21.0,17.0,0,2,,2.55,30.059055,,,,,,TRUE,,,,HZ,CLR,,,,,,,,IFR,,,,,,,,,,,,METAR,9.0
WAMM 121400Z VRB02KT 8000 SCT014 24/24 Q1011 TEMPO -RA,WAMM,2019-01-12T14:00:00Z,1.55,124.92,24.0,24.0,0,2,,4.97,29.852362,,,,,,,,,,,SCT,1400,,,,,,,MVFR,,,,,,,,,,,,METAR,80.0
WIBB 121400Z 00000KT 7000 FEW016 25/24 Q1010,WIBB,2019-01-12T14:00:00Z,0.47,101.45,25.0,24.0,0,0,,4.35,29.822834,,,,,,,,,,,FEW,1600,,,,,,,MVFR,,,,,,,,,,,,METAR,31.0
WALL 121400Z 01004KT 9000 FEW020 26/25 Q1009,WALL,2019-01-12T14:00:00Z,-1.27,116.9,26.0,25.0,10,4,,5.59,29.793306,,,,,,,,,,,FEW,2000,,,,,,,VFR,,,,,,,,,,,,METAR,3.0
WIOO 121400Z 30004KT 6000 -RA FEW011CB BKN012 27/25 Q1010,WIOO,2019-01-12T14:00:00Z,-0.15,109.4,27.0,25.0,300,4,,3.73,29.822834,,,,,,,,,,-RA,FEW,1100,BKN,1200,,,,,MVFR,,,,,,,,,,,,METAR,3.0
MNMG 121400Z 10010KT 9999 FEW021 27/18 Q1014 A2997 NOSIG,MNMG,2019-01-12T14:00:00Z,12.15,-86.17,27.0,18.0,100,10,,6.21,29.940945,,,,,,TRUE,,,,,FEW,2100,,,,,,,VFR,,,,,,,,,,,,METAR,59.0
BIVM 121400Z 08004KT 4500 -RASN SCT003 BKN008 OVC015 01/01 Q0997,BIVM,2019-01-12T14:00:00Z,63.42,-20.27,1.0,1.0,80,4,,2.8,29.438976,,,,,,,,,,-RA -SN,SCT,300,BKN,800,OVC,1500,,,IFR,,,,,,,,,,,,METAR,124.0
SBCB 121400Z 10016KT 9999 SCT025 30/23 Q1017,SBCB,2019-01-12T14:00:00Z,-22.92,-42.08,30.0,23.0,100,16,,6.21,30.029528,,,,,,,,,,,SCT,2500,,,,,,,VFR,,,,,,,,,,,,METAR,4.0
FIMP 121400Z 09010KT 9999 SCT016 29/23 Q1015,FIMP,2019-01-12T14:00:00Z,-20.42,57.67,29.0,23.0,90,10,,6.21,29.970472,,,,,,,,,,,SCT,1600,,,,,,,VFR,,,,,,,,,,,,METAR,57.0
OMSJ 121400Z 31005KT CAVOK 22/13 Q1017,OMSJ,2019-01-12T14:00:00Z,25.32,55.52,22.0,13.0,310,5,,6.21,30.029528,,,,,,,,,,,CAVOK,,,,,,,,VFR,,,,,,,,,,,,METAR,33.0
OMFJ 121400Z 05004KT 7000 FEW030 23/13 Q1017 RMK A3003,OMFJ,2019-01-12T14:00:00Z,25.1,56.32,23.0,13.0,50,4,,4.35,30.029528,,,,,,,,,,,FEW,3000,,,,,,,MVFR,,,,,,,,,,,,SPECI,28.0
OMDW 121400Z 30007KT CAVOK 21/13 Q1018 NOSIG,OMDW,2019-01-12T14:00:00Z,24.9,55.17,21.0,13.0,300,7,,6.21,30.059055,,,,,,TRUE,,,,,CAVOK,,,,,,,,VFR,,,,,,,,,,,,METAR,25.0
OMDB 121400Z 35008KT CAVOK 22/13 Q1017 NOSIG,OMDB,2019-01-12T14:00:00Z,25.25,55.37,22.0,13.0,350,8,,6.21,30.029528,,,,,,TRUE,,,,,CAVOK,,,,,,,,VFR,,,,,,,,,,,,METAR,5.0
OMAL 121400Z 31008KT CAVOK 22/08 Q1018 NOSIG,OMAL,2019-01-12T14:00:00Z,24.25,55.6,22.0,8.0,310,8,,6.21,30.059055,,,,,,TRUE,,,,,CAVOK,,,,,,,,VFR,,,,,,,,,,,,METAR,262.0
OMAD 121400Z 32009KT 9999 FEW030 21/13 Q1018 NOSIG,OMAD,2019-01-12T14:00:00Z,24.42,54.47,21.0,13.0,320,9,,6.21,30.059055,,,,,,TRUE,,,,,FEW,3000,,,,,,,VFR,,,,,,,,,,,,METAR,3.0
OMAA 121400Z 32007KT CAVOK 21/13 Q1017 NOSIG,OMAA,2019-01-12T14:00:00Z,24.42,54.63,21.0,13.0,320,7,,6.21,30.029528,,,,,,TRUE,,,,,CAVOK,,,,,,,,VFR,,,,,,,,,,,,METAR,27.0
KCMI 121400Z 08013KT 1/2SM R32R/3500V4500FT SN FZFG OVC007 M01/M02 A3024 RMK AO2 P0000 T10111017,KCMI,2019-01-12T14:00:00Z,40.03,-88.27,-1.1,-1.7,80,13,,0.5,30.239174,,,,TRUE,,,,,,SN FZFG,OVC,700,,,,,,,LIFR,,,,,,0.005,,,,,,SPECI,228.0
LDZD 121400Z 34006KT 300V010 CAVOK 09/M04 Q1017 NOSIG,LDZD,2019-01-12T14:00:00Z,44.1,15.37,9.0,-4.0,340,6,,6.21,30.029528,,,,,,TRUE,,,,,CAVOK,,,,,,,,VFR,,,,,,,,,,,,METAR,84.0
LDZA 121400Z 20004KT 130V240 CAVOK 06/M04 Q1017 NOSIG,LDZA,2019-01-12T14:00:00Z,45.72,16.07,6.0,-4.0,200,4,,6.21,30.029528,,,,,,TRUE,,,,,CAVOK,,,,,,,,VFR,,,,,,,,,,,,METAR,107.0
LDSP 121400Z 35008KT 9999 FEW060 11/M05 Q1016 NOSIG,LDSP,2019-01-12T14:00:00Z,43.52,16.3,11.0,-5.0,350,8,,6.21,30.0,,,,,,TRUE,,,,,FEW,6000,,,,,,,VFR,,,,,,,,,,,,METAR,21.0
LDRI 121400Z 27003KT 210V290 CAVOK 09/M03 Q1017,LDRI,2019-01-12T14:00:00Z,45.22,14.57,9.0,-3.0,270,3,,6.21,30.029528,,,,,,,,,,,CAVOK,,,,,,,,VFR,,,,,,,,,,,,METAR,85.0
LDPL 121400Z 28006KT 240V310 CAVOK 08/M02 Q1017 TEMPO 27008KT,LDPL,2019-01-12T14:00:00Z,44.88,13.92,8.0,-2.0,280,6,,6.21,30.029528,,,,,,,,,,,CAVOK,,,,,,,,VFR,,,,,,,,,,,,METAR,63.0
LDOS 121400Z 24010KT 9999 BKN035 01/M03 Q1017,LDOS,2019-01-12T14:00:00Z,45.47,18.82,1.0,-3.0,240,10,,6.21,30.029528,,,,,,,,,,,BKN,3500,,,,,,,VFR,,,,,,,,,,,,METAR,89.0
LDDU 121400Z 03022KT 350V070 CAVOK 07/M07 Q1012 NOSIG,LDDU,2019-01-12T14:00:00Z,42.57,18.27,7.0,-7.0,30,22,,6.21,29.88189,,,,,,TRUE,,,,,CAVOK,,,,,,,,VFR,,,,,,,,,,,,METAR,165.0
VOML 121400Z 35006KT 6000 NSC 27/20 Q1012 NOSIG,VOML,2019-01-12T14:00:00Z,12.97,74.88,27.0,20.0,350,6,,3.73,29.88189,,,,,,TRUE,,,,,CLR,,,,,,,,MVFR,,,,,,,,,,,,METAR,103.0
CZFM 121400Z 00000KT 2SM -SN OVC045 M30/M35 A3018 RMK NS8 58.0/TR/SNWCVR/MUCH LOOSE SLP228,CZFM,2019-01-12T14:00:00Z,67.4,-134.87,-30.0,-35.0,0,0,,2.0,30.180119,1022.8,,,,,,,,,-SN,OVC,4500,,,,,,,IFR,,,,,,,,,,,,SPECI,43.0
HUEN 121400Z 16011KT 9999 FEW024 FEW026CB 27/17 Q1013 NOSIG,HUEN,2019-01-12T14:00:00Z,0.03,32.45,27.0,17.0,160,11,,6.21,29.911417,,,,,,TRUE,,,,,FEW,2400,FEW,2600,,,,,VFR,,,,,,,,,,,,METAR,1155.0
CYGX 121400Z 19010G15KT 15SM BKN030 M17/M20 A3037 RMK SC7 SLP305,CYGX,2019-01-12T14:00:00Z,56.35,-94.7,-17.0,-20.0,190,10,15,15.0,30.369095,1030.5,,,,,,,,,,BKN,3000,,,,,,,MVFR,,,,,,,,,,,,SPECI,145.0
HKNW 121400Z 07018KT 9999 FEW027 BKN300 25/07 Q1017,HKNW,2019-01-12T14:00:00Z,-1.32,36.82,25.0,7.0,70,18,,6.21,30.029528,,,,,,,,,,,FEW,2700,BKN,30000,,,,,VFR,,,,,,,,,,,,METAR,1679.0
HKMO 121400Z 06012KT 9999 FEW025 SCT250 30/21 Q1008 NOSIG,HKMO,2019-01-12T14:00:00Z,-4.02,39.62,30.0,21.0,60,12,,6.21,29.763779,,,,,,TRUE,,,,,FEW,2500,SCT,25000,,,,,VFR,,,,,,,,,,,,METAR,55.0
HKJK 121400Z 04014KT 9999 FEW028 25/07 Q1018 NOSIG,HKJK,2019-01-12T14:00:00Z,-1.32,36.92,25.0,7.0,40,14,,6.21,30.059055,,,,,,TRUE,,,,,FEW,2800,,,,,,,VFR,,,,,,,,,,,,METAR,1624.0
HCMM 121400Z 06018KT CAVOK 28/21 Q1008,HCMM,2019-01-12T14:00:00Z,2.02,45.35,28.0,21.0,60,18,,6.21,29.763779,,,,,,,,,,,CAVOK,,,,,,,,VFR,,,,,,,,,,,,METAR,9.0
HTSU 121400Z 30005KT 9999 FEW023 FEW025CB BKN250 22/14 Q1016,HTSU,2019-01-12T14:00:00Z,-7.95,31.67,22.0,14.0,300,5,,6.21,30.0,,,,,,,,,,,FEW,2300,FEW,2500,BKN,25000,,,VFR,,,,,,,,,,,,METAR,1804.0
HTMT 121400Z 33012KT 9999 SCT022 FEW023CB BKN080 29/26 Q1009 NOSIG,HTMT,2019-01-12T14:00:00Z,-10.27,40.17,29.0,26.0,330,12,,6.21,29.793306,,,,,,TRUE,,,,,SCT,2200,FEW,2300,BKN,8000,,,VFR,,,,,,,,,,,,METAR,113.0
HTTB 121400Z 00000KT 9999 BKN017 FEW019CB BKN070 25/20 Q1014 NOSIG,HTTB,2019-01-12T14:00:00Z,-5.07,32.82,25.0,20.0,0,0,,6.21,29.940945,,,,,,TRUE,,,,,BKN,1700,FEW,1900,BKN,7000,,,MVFR,,,,,,,,,,,,METAR,1190.0
HTSO 121400Z 34015KT 9999 TS BKN022 FEW023CB BKN070 26/19 Q1013,HTSO,2019-01-12T14:00:00Z,-10.67,35.57,26.0,19.0,340,15,,6.21,29.911417,,,,,,,,,,TS,BKN,2200,FEW,2300,BKN,7000,,,MVFR,,,,,,,,,,,,METAR,1067.0
HTMW 121400Z 33010KT 9999 SCT026 FEW027CB 26/19 Q1012 NOSIG,HTMW,2019-01-12T14:00:00Z,-2.47,32.92,26.0,19.0,330,10,,6.21,29.88189,,,,,,TRUE,,,,,SCT,2600,FEW,2700,,,,,VFR,,,,,,,,,,,,METAR,1140.0
HTMU 121400Z 30010KT 9999 FEW025 FEW027CB 28/14 Q1011,HTMU,2019-01-12T14:00:00Z,-1.5,33.78,28.0,14.0,300,10,,6.21,29.852362,,,,,,,,,,,FEW,2500,FEW,2700,,,,,VFR,,,,,,,,,,,,METAR,1147.0
HTMG 121400Z 06010KT 9999 FEW030 BKN280 32/20 Q1011,HTMG,2019-01-12T14:00:00Z,-6.82,37.63,32.0,20.0,60,10,,6.21,29.852362,,,,,,,,,,,FEW,3000,BKN,28000,,,,,VFR,,,,,,,,,,,,METAR,526.0
HTKA 121400Z 09010KT 9999 -TSRA SCT020 FEW021CB BKN080 21/19 Q1014,HTKA,2019-01-12T14:00:00Z,-4.87,29.67,21.0,19.0,90,10,,6.21,29.940945,,,,,,,,,,-TSRA,SCT,2000,FEW,2100,BKN,8000,,,VFR,,,,,,,,,,,,METAR,885.0
HTIR 121400Z 00000KT 9999 RA BKN018 FEW020CB SCT070 20/18 Q1017,HTIR,2019-01-12T14:00:00Z,-7.67,35.75,20.0,18.0,0,0,,6.21,30.029528,,,,,,,,,,RA,BKN,1800,FEW,2000,SCT,7000,,,MVFR,,,,,,,,,,,,METAR,1428.0
HTDO 121400Z 08004KT 9999 FEW030 FEW031CB 29/18 Q1012 NOSIG,HTDO,2019-01-12T14:00:00Z,-6.17,35.77,29.0,18.0,80,4,,6.21,29.88189,,,,,,TRUE,,,,,FEW,3000,FEW,3100,,,,,VFR,,,,,,,,,,,,METAR,1120.0
HTBU 121400Z 00000KT 9999 FEW022 FEW024CB BKN260 27/19 Q1012,HTBU,2019-01-12T14:00:00Z,-1.32,31.82,27.0,19.0,0,0,,6.21,29.88189,,,,,,,,,,,FEW,2200,FEW,2400,BKN,26000,,,VFR,,,,,,,,,,,,METAR,1137.0
HTAR 121400Z 34010KT 9999 FEW032 29/17 Q1012,HTAR,2019-01-12T14:00:00Z,-3.37,36.63,29.0,17.0,340,10,,6.21,29.88189,,,,,,,,,,,FEW,3200,,,,,,,VFR,,,,,,,,,,,,METAR,1387.0
UTST 121400Z 08006KT CAVOK 06/01 Q1028 R88/CLRD70 NOSIG,UTST,2019-01-12T14:00:00Z,37.28,67.32,6.0,1.0,80,6,,6.21,30.35433,,,,,,TRUE,,,,,CAVOK,,,,,,,,VFR,,,,,,,,,,,,METAR,302.0
UTSK 121400Z 07002KT CAVOK 06/01 Q1027 R16/CLRD70,UTSK,2019-01-12T14:00:00Z,38.83,65.77,6.0,1.0,70,2,,6.21,30.324802,,,,,,,,,,,CAVOK,,,,,,,,VFR,,,,,,,,,,,,METAR,1365.0
UTSB 121400Z 09006KT CAVOK 03/01 Q1027 R01/CLRD70 NOSIG,UTSB,2019-01-12T14:00:00Z,39.77,64.48,3.0,1.0,90,6,,6.21,30.324802,,,,,,TRUE,,,,,CAVOK,,,,,,,,VFR,,,,,,,,,,,,METAR,226.0
CYQT 121400Z 04004KT 20SM OVC044 M13/M16 A3061 RMK SC8 SLP384,CYQT,2019-01-12T14:00:00Z,48.37,-89.32,-13.0,-16.0,40,4,,20.0,30.611221,1038.4,,,,,,,,,,OVC,4400,,,,,,,VFR,,,,,,,,,,,,SPECI,199.0
SBAT 121400Z 34002KT 9999 FEW017 27/23 Q1015,SBAT,2019-01-12T14:00:00Z,-9.87,-56.1,27.0,23.0,340,2,,6.21,29.970472,,,,,,,,,,,FEW,1700,,,,,,,VFR,,,,,,,,,,,,METAR,288.0
SBPJ 121400Z 27007KT 200V300 9999 FEW020 SCT040 28/22 Q1015,SBPJ,2019-01-12T14:00:00Z,-10.28,-48.37,28.0,22.0,270,7,,6.21,29.970472,,,,,,,,,,,FEW,2000,SCT,4000,,,,,VFR,,,,,,,,,,,,METAR,236.0
SBBW 121400Z 23002KT 9999 FEW020 30/22 Q1018,SBBW,2019-01-12T14:00:00Z,-15.87,-52.37,30.0,22.0,230,2,,6.21,30.059055,,,,,,,,,,,FEW,2000,,,,,,,VFR,,,,,,,,,,,,METAR,350.0
SBAN 121400Z 10010KT 9999 SCT030 25/17 Q1022,SBAN,2019-01-12T14:00:00Z,-16.22,-48.97,25.0,17.0,100,10,,6.21,30.177166,,,,,,,,,,,SCT,3000,,,,,,,VFR,,,,,,,,,,,,METAR,1137.0
FKYS 121400Z /////KT 4000 HZ FEW023 32/19 Q1012 NOSIG,FKYS,2019-01-12T14:00:00Z,3.82,11.52,32.0,19.0,,,,2.49,29.88189,,,,,,TRUE,,,,HZ,FEW,2300,,,,,,,IFR,,,,,,,,,,,,METAR,760.0
SBCR 121400Z 02004KT 9999 SCT030 SCT090 29/22 Q1015,SBCR,2019-01-12T14:00:00Z,-19.0,-57.67,29.0,22.0,20,4,,6.21,29.970472,,,,,,,,,,,SCT,3000,SCT,9000,,,,,VFR,,,,,,,,,,,,METAR,141.0
GLRB 121400Z 19008KT 9000 BKN018 32/24 Q1009 RMK HZVC,GLRB,2019-01-12T14:00:00Z,6.25,-10.33,32.0,24.0,190,8,,5.59,29.793306,,,,,,,,,,,BKN,1800,,,,,,,MVFR,,,,,,,,,,,,METAR,18.0
UHBB 121400Z 02002MPS CAVOK M20/M23 Q1024 R36/090060 NOSIG RMK QFE750/1001,UHBB,2019-01-12T14:00:00Z,50.43,127.42,-20.0,-23.0,20,4,,6.21,30.236221,,,,,,TRUE,,,,,CAVOK,,,,,,,,VFR,,,,,,,,,,,,METAR,195.0
MTCH 121400Z VRB02KT 9000 SCT022CB 25/19 Q1020 A3014 RMK/CB/ALQDS,MTCH,2019-01-12T14:00:00Z,19.75,-72.18,25.0,19.0,0,2,,5.59,30.11811,,,,,,,,,,,SCT,2200,,,,,,,VFR,,,,,,,,,,,,METAR,2.0
MZBZ 121400Z 00000KT 9999 FEW022 21/20 A3005 Q1017 NOSIG,MZBZ,2019-01-12T14:00:00Z,17.52,-88.3,21.0,20.0,0,0,,6.21,30.029528,,,,,,TRUE,,,,,FEW,2200,,,,,,,VFR,,,,,,,,,,,,METAR,5.0
LEVT 121400Z 32005KT 290V350 9999 SCT017 BKN025 06/04 Q1031,LEVT,2019-01-12T14:00:00Z,42.87,-2.72,6.0,4.0,320,5,,6.21,30.442913,,,,,,,,,,,SCT,1700,BKN,2500,,,,,MVFR,,,,,,,,,,,,METAR,509.0
LEJR 121400Z 35011KT 9999 FEW035 15/04 Q1026,LEJR,2019-01-12T14:00:00Z,36.75,-6.07,15.0,4.0,350,11,,6.21,30.295275,,,,,,,,,,,FEW,3500,,,,,,,VFR,,,,,,,,,,,,METAR,30.0
LEST 121400Z VRB08KT 9999 SCT030 11/04 Q1032 NOSIG,LEST,2019-01-12T14:00:00Z,42.88,-8.42,11.0,4.0,0,8,,6.21,30.47244,,,,,,TRUE,,,,,SCT,3000,,,,,,,VFR,,,,,,,,,,,,METAR,367.0
LEDA 121400Z 24011KT 9999 FEW030 07/01 Q1026,LEDA,2019-01-12T14:00:00Z,41.73,0.53,7.0,1.0,240,11,,6.21,30.295275,,,,,,,,,,,FEW,3000,,,,,,,VFR,,,,,,,,,,,,METAR,350.0
LEVD 121400Z 05014KT 9999 BKN024 08/00 Q1029,LEVD,2019-01-12T14:00:00Z,41.72,-4.83,8.0,0.0,50,14,,6.21,30.383858,,,,,,,,,,,BKN,2400,,,,,,,MVFR,,,,,,,,,,,,METAR,854.0
LESA 121400Z 08010KT 050V110 9999 SCT018 05/00 Q1030,LESA,2019-01-12T14:00:00Z,40.95,-5.5,5.0,0.0,80,10,,6.21,30.413385,,,,,,,,,,,SCT,1800,,,,,,,VFR,,,,,,,,,,,,METAR,795.0
GCXO 121400Z 12011KT 080V150 9999 BKN012 14/11 Q1020 NOSIG,GCXO,2019-01-12T14:00:00Z,28.48,-16.35,14.0,11.0,120,11,,6.21,30.11811,,,,,,TRUE,,,,,BKN,1200,,,,,,,MVFR,,,,,,,,,,,,METAR,632.0
LPLA 121400Z /////KT 9999 FEW020 SCT025 16/12 Q1028,LPLA,2019-01-12T14:00:00Z,38.77,-27.1,16.0,12.0,,,,6.21,30.35433,,,,,,,,,,,FEW,2000,SCT,2500,,,,,VFR,,,,,,,,,,,,METAR,55.0
SBPP 121400Z 36010KT 9999 FEW015 27/20 Q1018,SBPP,2019-01-12T14:00:00Z,-22.55,-55.7,27.0,20.0,360,10,,6.21,30.059055,,,,,,,,,,,FEW,1500,,,,,,,VFR,,,,,,,,,,,,METAR,660.0
SLPS 121400Z 00000KT 9999 BKN020 BKN070 32/24 Q1013,SLPS,2019-01-12T14:00:00Z,-18.98,-57.82,32.0,24.0,0,0,,6.21,29.911417,,,,,,,,,,,BKN,2000,BKN,7000,,,,,MVFR,,,,,,,,,,,,METAR,135.0
SLCO 121400Z 32005KT 9999 SCT004 BKN080 24/23 Q1014,SLCO,2019-01-12T14:00:00Z,-11.03,-68.78,24.0,23.0,320,5,,6.21,29.940945,,,,,,,,,,,SCT,400,BKN,8000,,,,,VFR,,,,,,,,,,,,METAR,272.0
SAVC 121400Z 25011KT 200V300 9999 FEW045 19/M00 Q1008,SAVC,2019-01-12T14:00:00Z,-45.77,-67.47,19.0,0.0,250,11,,6.21,29.763779,,,,,,,,,,,FEW,4500,,,,,,,VFR,,,,,,,,,,,,METAR,46.0
FOOL 121400Z 24006KT 210V280 9999 FEW016 30/25 Q1008 NOSIG,FOOL,2019-01-12T14:00:00Z,0.45,9.42,30.0,25.0,240,6,,6.21,29.763779,,,,,,TRUE,,,,,FEW,1600,,,,,,,VFR,,,,,,,,,,,,SPECI,15.0
DIAP 121400Z 21010KT 8000 FEW013 31/26 Q1008 NOSIG,DIAP,2019-01-12T14:00:00Z,5.25,-3.92,31.0,26.0,210,10,,4.97,29.763779,,,,,,TRUE,,,,,FEW,1300,,,,,,,MVFR,,,,,,,,,,,,SPECI,8.0
DTTZ 121400Z 27009KT 230V300 9999 SCT030 14/M04 Q1022 NOSIG,DTTZ,2019-01-12T14:00:00Z,33.92,8.08,14.0,-4.0,270,9,,6.21,30.177166,,,,,,TRUE,,,,,SCT,3000,,,,,,,VFR,,,,,,,,,,,,METAR,93.0
DTTX 121400Z 32012KT 290V350 9999 FEW020 13/M03 Q1020,DTTX,2019-01-12T14:00:00Z,34.72,10.67,13.0,-3.0,320,12,,6.21,30.11811,,,,,,,,,,,FEW,2000,,,,,,,VFR,,,,,,,,,,,,METAR,23.0
DTTJ 121400Z 30013KT 9999 SCT020 13/M02 Q1021 NOSIG,DTTJ,2019-01-12T14:00:00Z,33.87,10.77,13.0,-2.0,300,13,,6.21,30.147638,,,,,,TRUE,,,,,SCT,2000,,,,,,,VFR,,,,,,,,,,,,METAR,4.0
DTTG 121400Z 27010KT 9999 SCT030 12/01 Q1022 NOSIG,DTTG,2019-01-12T14:00:00Z,33.73,9.92,12.0,1.0,270,10,,6.21,30.177166,,,,,,TRUE,,,,,SCT,3000,,,,,,,VFR,,,,,,,,,,,,METAR,5.0
DTTF 121400Z 33009KT 290V360 9999 SCT023 12/M02 Q1022 NOSIG,DTTF,2019-01-12T14:00:00Z,34.42,8.82,12.0,-2.0,330,9,,6.21,30.177166,,,,,,TRUE,,,,,SCT,2300,,,,,,,VFR,,,,,,,,,,,,METAR,314.0
DTTA 121400Z 33019KT 9999 SCT023 13/M00 Q1021 NOSIG,DTTA,2019-01-12T14:00:00Z,36.85,10.22,13.0,0.0,330,19,,6.21,30.147638,,,,,,TRUE,,,,,SCT,2300,,,,,,,VFR,,,,,,,,,,,,METAR,4.0
DTNH 121400Z 31014KT 9999 FEW023 13/01 Q1020 NOSIG,DTNH,2019-01-12T14:00:00Z,36.07,10.43,13.0,1.0,310,14,,6.21,30.11811,,,,,,TRUE,,,,,FEW,2300,,,,,,,VFR,,,,,,,,,,,,METAR,2.0
DTMB 121400Z 31017KT 9999 BKN046 13/01 Q1020 NOSIG,DTMB,2019-01-12T14:00:00Z,35.77,10.75,13.0,1.0,310,17,,6.21,30.11811,,,,,,TRUE,,,,,BKN,4600,,,,,,,VFR,,,,,,,,,,,,METAR,2.0
DTKA 121400Z 24011KT 9999 SCT020 SCT030 09/06 Q1022 NOSIG.,DTKA,2019-01-12T14:00:00Z,36.98,8.88,9.0,6.0,240,11,,6.21,30.177166,,,,,,,,,,,SCT,2000,SCT,3000,,,,,VFR,,,,,,,,,,,,METAR,21.0
DAUH 121400Z 32012KT CAVOK 13/M04 Q1025,DAUH,2019-01-12T14:00:00Z,31.67,6.15,13.0,-4.0,320,12,,6.21,30.265747,,,,,,,,,,,CAVOK,,,,,,,,VFR,,,,,,,,,,,,METAR,142.0
DAOO 121400Z 07008KT 040V100 CAVOK 15/M02 Q1027,DAOO,2019-01-12T14:00:00Z,35.62,-0.6,15.0,-2.0,70,8,,6.21,30.324802,,,,,,,,,,,CAVOK,,,,,,,,VFR,,,,,,,,,,,,METAR,90.0
DAON 121400Z 36004KT CAVOK 14/M09 Q1026,DAON,2019-01-12T14:00:00Z,35.02,-1.47,14.0,-9.0,360,4,,6.21,30.295275,,,,,,,,,,,CAVOK,,,,,,,,VFR,,,,,,,,,,,,METAR,247.0
DABC 121400Z VRB02KT 7000 FEW010 SCT020 05/04 Q1024,DABC,2019-01-12T14:00:00Z,36.27,6.62,5.0,4.0,0,2,,4.35,30.236221,,,,,,,,,,,FEW,1000,SCT,2000,,,,,MVFR,,,,,,,,,,,,METAR,694.0
DABB 121400Z 25011KT 9999 FEW020 FEW023CB BKN030 11/07 Q1022,DABB,2019-01-12T14:00:00Z,36.82,7.82,11.0,7.0,250,11,,6.21,30.177166,,,,,,,,,,,FEW,2000,FEW,2300,BKN,3000,,,MVFR,,,,,,,,,,,,METAR,4.0
DAAT 121400Z 29010KT CAVOK 20/// Q1019,DAAT,2019-01-12T14:00:00Z,22.82,5.47,,,290,10,,6.21,30.088583,,,,,,,,,,,CAVOK,,,,,,,,VFR,,,,,,,,,,,,METAR,1377.0
KSCR 121400Z AUTO 07005KT 10SM OVC110 02/M06 A3046 RMK AO2 T00161059,KSCR,2019-01-12T14:00:00Z,35.7,-79.5,1.6,-5.9,70,5,,10.0,30.46063,,,TRUE,TRUE,,,,,,,OVC,11000,,,,,,,VFR,,,,,,,,,,,,METAR,188.0
KRUQ 121400Z AUTO 00000KT 10SM OVC110 02/M06 A3045 RMK AO2 T00201056,KRUQ,2019-01-12T14:00:00Z,35.65,-80.52,2.0,-5.6,0,0,,10.0,30.448818,,,TRUE,TRUE,,,,,,,OVC,11000,,,,,,,VFR,,,,,,,,,,,,METAR,236.0
KRCZ 121400Z AUTO 06004KT 10SM CLR 02/M05 A3045 RMK AO2 T00181051,KRCZ,2019-01-12T14:00:00Z,34.88,-79.77,1.8,-5.1,60,4,,10.0,30.448818,,,TRUE,TRUE,,,,,,,CLR,,,,,,,,VFR,,,,,,,,,,,,METAR,109.0
USHH 121400Z 16006MPS 9000 -SN DRSN SCT004 M17/M19 Q1016 R06/420338 TEMPO 1000 SN BKN003 RMK QFE758,USHH,2019-01-12T14:00:00Z,61.03,69.08,-17.0,-19.0,160,12,,5.59,30.0,,,,,,,,,,-SN DRSN,SCT,400,,,,,,,VFR,,,,,,,,,,,,METAR,23.0
USTR 121400Z 17007MPS 9999 SCT043 M17/M19 Q1015 R21/450160 TEMPO 17012MPS 2100 -SN BLSN BKN007 RMK QFE752/1003,USTR,2019-01-12T14:00:00Z,57.17,65.32,-17.0,-19.0,170,14,,6.21,29.970472,,,,,,,,,,,SCT,4300,,,,,,,VFR,,,,,,,,,,,,METAR,115.0
UNTT 121400Z 25001MPS CAVOK M23/M25 Q1033 NOSIG RMK QFE760,UNTT,2019-01-12T14:00:00Z,56.38,85.22,-23.0,-25.0,250,2,,6.21,30.501968,,,,,,TRUE,,,,,CAVOK,,,,,,,,VFR,,,,,,,,,,,,METAR,182.0
UNOO 121400Z 15004MPS 4500 -SN BR BKN008 M19/M22 Q1029 R07/410250 NOSIG RMK QFE763,UNOO,2019-01-12T14:00:00Z,54.97,73.32,-19.0,-22.0,150,8,,2.8,30.383858,,,,,,TRUE,,,,-SN BR,BKN,800,,,,,,,IFR,,,,,,,,,,,,METAR,95.0
UNNT 121400Z 19002MPS 5000 BR NSC M22/M25 Q1036 R25/810160 R34/810160 NOSIG RMK QFE767/1022,UNNT,2019-01-12T14:00:00Z,55.02,82.63,-22.0,-25.0,190,4,,3.11,30.590551,,,,,,TRUE,,,,BR,CLR,,,,,,,,MVFR,,,,,,,,,,,,METAR,111.0
LOAN 121400Z 32013KT 15KM FEW015CU SCT025CU BKN040SC,LOAN,2019-01-12T14:00:00Z,47.85,16.25,,,320,13,,9.32,,,,,,,,,,,,FEW,1500,SCT,2500,,,,,VFR,,,,,,,,,,,,METAR,272.0
SUAA 121400Z 06008KT CAVOK 23/13 Q1018,SUAA,2019-01-12T14:00:00Z,-34.77,-56.25,23.0,13.0,60,8,,6.21,30.059055,,,,,,,,,,,CAVOK,,,,,,,,VFR,,,,,,,,,,,,METAR,54.0
SLVR 121400Z VRB02KT 9999 BKN017 BKN070 25/22 Q1016,SLVR,2019-01-12T14:00:00Z,-17.63,-63.12,25.0,22.0,0,2,,6.21,30.0,,,,,,,,,,,BKN,1700,BKN,7000,,,,,MVFR,,,,,,,,,,,,METAR,373.0
SLTR 121400Z 00000KT 9999 FEW005 SCT012 BKN070 25/23 Q1015,SLTR,2019-01-12T14:00:00Z,-14.83,-64.92,25.0,23.0,0,0,,6.21,29.970472,,,,,,,,,,,FEW,500,SCT,1200,BKN,7000,,,VFR,,,,,,,,,,,,METAR,157.0
SLTJ 121400Z 00000KT 9999 SCT027 21/16 Q1020,SLTJ,2019-01-12T14:00:00Z,-21.55,-64.72,21.0,16.0,0,0,,6.21,30.11811,,,,,,,,,,,SCT,2700,,,,,,,VFR,,,,,,,,,,,,METAR,1858.0
SLLP 121400Z 14005KT 6000 FEW004 SCT014 BKN200 09/05 Q1037,SLLP,2019-01-12T14:00:00Z,-16.52,-68.17,9.0,5.0,140,5,,3.73,30.620079,,,,,,,,,,,FEW,400,SCT,1400,BKN,20000,,,MVFR,,,,,,,,,,,,METAR,4014.0
SLCB 121400Z 23005KT 9999 FEW027 20/10 Q1025,SLCB,2019-01-12T14:00:00Z,-17.42,-66.18,20.0,10.0,230,5,,6.21,30.265747,,,,,,,,,,,FEW,2700,,,,,,,VFR,,,,,,,,,,,,METAR,2548.0
SGES 121400Z 06007KT 9999 SCT027 BKN080 29/23 Q1015,SGES,2019-01-12T14:00:00Z,-25.45,-54.85,29.0,23.0,60,7,,6.21,29.970472,,,,,,,,,,,SCT,2700,BKN,8000,,,,,VFR,,,,,,,,,,,,METAR,849.0
SGAS 121400Z 04002KT 9999 SCT033 BKN080 27/24 Q1014 RETSRA,SGAS,2019-01-12T14:00:00Z,-25.25,-57.52,27.0,24.0,40,2,,6.21,29.940945,,,,,,,,,,,SCT,3300,BKN,8000,,,,,VFR,,,,,,,,,,,,METAR,101.0
SYCJ 121400Z 05012KT 9999 SCT020 SCT039 29/21 Q1015 NOSIG,SYCJ,2019-01-12T14:00:00Z,6.5,-58.25,29.0,21.0,50,12,,6.21,29.970472,,,,,,TRUE,,,,,SCT,2000,SCT,3900,,,,,VFR,,,,,,,,,,,,METAR,30.0
UTAT 121400Z 12012KT CAVOK 02/M00 Q1023 R08/CLRD70 NOSIG,UTAT,2019-01-12T14:00:00Z,41.77,59.83,2.0,0.0,120,12,,6.21,30.206694,,,,,,TRUE,,,,,CAVOK,,,,,,,,VFR,,,,,,,,,,,,SPECI,83.0
UTAM 121400Z 12012KT 6000 SCT230 08/03 Q1023 NOSIG,UTAM,2019-01-12T14:00:00Z,37.62,61.9,8.0,3.0,120,12,,3.73,30.206694,,,,,,TRUE,,,,,SCT,23000,,,,,,,MVFR,,,,,,,,,,,,METAR,222.0
UTAV 121400Z 08010KT CAVOK 06/02 Q1025 NOSIG,UTAV,2019-01-12T14:00:00Z,39.08,63.62,6.0,2.0,80,10,,6.21,30.265747,,,,,,TRUE,,,,,CAVOK,,,,,,,,VFR,,,,,,,,,,,,METAR,192.0
UTAK 121400Z 15008KT CAVOK 08/M01 Q1013 R16R/CLRD70 NOSIG,UTAK,2019-01-12T14:00:00Z,40.05,53.0,8.0,-1.0,150,8,,6.21,29.911417,,,,,,TRUE,,,,,CAVOK,,,,,,,,VFR,,,,,,,,,,,,SPECI,85.0
UTAA 121400Z 11010KT 9999 SCT100 BKN200 07/02 Q1016 R88/70D NOSIG,UTAA,2019-01-12T14:00:00Z,37.98,58.37,7.0,2.0,110,10,,6.21,30.0,,,,,,TRUE,,,,,SCT,10000,BKN,20000,,,,,VFR,,,,,,,,,,,,METAR,210.0
UAUU 121400Z 17010MPS 3100 -SHSN DRSN SCT008 OVC030CB M10/M12 Q1020 R15/850156 TEMPO 18015MPS 1000 BLSN VV003 RMK QFE749/0998,UAUU,2019-01-12T14:00:00Z,53.2,63.55,-10.0,-12.0,170,19,,1.93,30.11811,,,,,,,,,,-SHSN DRSN,SCT,800,OVC,3000,,,,,IFR,,,,,,,,,,,,SPECI,182.0
UATT 121400Z 18008MPS 9999 BKN009 OVC028 M04/M05 Q1016 R13/390140 NOSIG RMK QFE742/0990,UATT,2019-01-12T14:00:00Z,50.25,57.2,-4.0,-5.0,180,16,,6.21,30.0,,,,,,TRUE,,,,,BKN,900,OVC,2800,,,,,IFR,,,,,,,,,,,,METAR,227.0
UATG 121400Z 14007MPS 5000 BR NSC 00/00 Q1013 R14/82//65 NOSIG RMK QFE762/1016,UATG,2019-01-12T14:00:00Z,47.12,51.83,0.0,0.0,140,14,,3.11,29.911417,,,,,,TRUE,,,,BR,CLR,,,,,,,,MVFR,,,,,,,,,,,,SPECI,-22.0
UATE 121400Z 14010MPS 9999 BKN014 OVC026 07/03 Q1009 R12/0///70 NOSIG RMK QFE754/1006,UATE,2019-01-12T14:00:00Z,43.87,51.1,7.0,3.0,140,19,,6.21,29.793306,,,,,,TRUE,,,,,BKN,1400,OVC,2600,,,,,MVFR,,,,,,,,,,,,METAR,22.0
UARR 121400Z 18013MPS 4000 -SHRASN BR BKN003 OVC013CB 01/01 Q1005 R22/790132 NOSIG RMK QBB100 QFE750/1000,UARR,2019-01-12T14:00:00Z,51.15,51.53,1.0,1.0,180,25,,2.49,29.675198,,,,,,TRUE,,,,-SHRA -SHSN BR,BKN,300,OVC,1300,,,,,LIFR,,,,,,,,,,,,SPECI,38.0
UASP 121400Z 15004MPS CAVOK M20/M21 Q1034 R21/420260 NOSIG RMK QFE764/1018,UASP,2019-01-12T14:00:00Z,52.2,77.07,-20.0,-21.0,150,8,,6.21,30.531496,,,,,,TRUE,,,,,CAVOK,,,,,,,,VFR,,,,,,,,,,,,SPECI,125.0
UASK 121400Z VRB01MPS 0050 R12/0400 FZFG BKN001 M24/M26 Q1037 R12/850248 NOSIG RMK QBB040 QFE751/1002,UASK,2019-01-12T14:00:00Z,50.03,82.5,-24.0,-26.0,0,2,,0.03,30.620079,,,,,,TRUE,,,,FZFG,BKN,100,,,,,,,LIFR,,,,,,,,,,,,METAR,286.0
UAOO 121400Z 11003MPS 9999 BKN031 M05/M05 Q1031 NOSIG RMK QFE761/1015,UAOO,2019-01-12T14:00:00Z,44.7,65.6,-5.0,-5.0,110,6,,6.21,30.442913,,,,,,TRUE,,,,,BKN,3100,,,,,,,VFR,,,,,,,,,,,,SPECI,129.0
UAKK 121400Z 24003MPS 9999 SCT019 M11/M13 Q1031 R23/920555 NOSIG RMK QFE725/0967,UAKK,2019-01-12T14:00:00Z,49.67,73.33,-11.0,-13.0,240,6,,6.21,30.442913,,,,,,TRUE,,,,,SCT,1900,,,,,,,VFR,,,,,,,,,,,,SPECI,538.0
UAII 121400Z 09002MPS 2500 BR NSC 02/00 Q1030 R10/0///70 TEMPO 1500 RMK QFE737/0983,UAII,2019-01-12T14:00:00Z,42.37,69.48,2.0,0.0,90,4,,1.55,30.413385,,,,,,,,,,BR,CLR,,,,,,,,IFR,,,,,,,,,,,,SPECI,422.0
UACK 121400Z 21005MPS 9999 SCT010 M18/M20 Q1026 R20/410260 NOSIG RMK QFE746/0994,UACK,2019-01-12T14:00:00Z,53.32,69.58,-18.0,-20.0,210,10,,6.21,30.295275,,,,,,TRUE,,,,,SCT,1000,,,,,,,VFR,,,,,,,,,,,,SPECI,2547.0
UACC 121400Z 21004MPS CAVOK M18/M19 Q1030 R22/8///65 NOSIG RMK QFE741/0988,UACC,2019-01-12T14:00:00Z,51.02,71.47,-18.0,-19.0,210,8,,6.21,30.413385,,,,,,TRUE,,,,,CAVOK,,,,,,,,VFR,,,,,,,,,,,,METAR,355.0
UADD 121400Z 10001MPS 4700 BR SCT046 OVC100 M02/M02 Q1030 R13/0///65 NOSIG RMK QFE715/0953,UADD,2019-01-12T14:00:00Z,42.85,71.3,-2.0,-2.0,100,2,,2.92,30.413385,,,,,,TRUE,,,,BR,SCT,4600,OVC,10000,,,,,IFR,,,,,,,,,,,,SPECI,665.0
UAAA 121400Z 12002MPS 1800 R05L/P2000D R05R/P2000N BR FU SCT033 BKN100 M02/M05 Q1032 R05L/1///60 R05R/3///50 TEMPO 1200 BR,UAAA,2019-01-12T14:00:00Z,43.35,77.03,-2.0,-5.0,120,4,,1.12,30.47244,,,,,,,,,,FU BR,SCT,3300,BKN,10000,,,,,IFR,,,,,,,,,,,,METAR,681.0
UDSG 121400Z 24004KT 8000 NSC M07/M11 Q1016 R02/CLRD70 NOSIG,UDSG,2019-01-12T14:00:00Z,40.75,43.87,-7.0,-11.0,240,4,,4.97,30.0,,,,,,TRUE,,,,,CLR,,,,,,,,MVFR,,,,,,,,,,,,METAR,1524.0
UDYZ 121400Z 31001KT 6000 NSC M01/M09 Q1018 R09/000070 NOSIG,UDYZ,2019-01-12T14:00:00Z,40.15,44.4,-1.0,-9.0,310,1,,3.73,30.059055,,,,,,TRUE,,,,,CLR,,,,,,,,MVFR,,,,,,,,,,,,SPECI,865.0
SBTF 121400Z 06005KT 9999 FEW012 BKN100 27/24 Q1014,SBTF,2019-01-12T14:00:00Z,-3.37,-64.72,27.0,24.0,60,5,,6.21,29.940945,,,,,,,,,,,FEW,1200,BKN,10000,,,,,VFR,,,,,,,,,,,,METAR,47.0
SBTT 121400Z 28006KT 9999 BKN007 OVC070 24/22 Q1015,SBTT,2019-01-12T14:00:00Z,-4.25,-69.93,24.0,22.0,280,6,,6.21,29.970472,,,,,,,,,,,BKN,700,OVC,7000,,,,,IFR,,,,,,,,,,,,METAR,85.0
SBSG 121400Z 22007KT 180V260 9999 BKN037 SCT070 33/22 Q1011,SBSG,2019-01-12T14:00:00Z,-5.77,-35.37,33.0,22.0,220,7,,6.21,29.852362,,,,,,,,,,,BKN,3700,SCT,7000,,,,,VFR,,,,,,,,,,,,METAR,83.0
SBBE 121400Z 26006KT 9999 SCT015 SCT100 27/24 Q1014,SBBE,2019-01-12T14:00:00Z,-1.37,-48.47,27.0,24.0,260,6,,6.21,29.940945,,,,,,,,,,,SCT,1500,SCT,10000,,,,,VFR,,,,,,,,,,,,METAR,16.0
MHPL 121400Z 0000KT 9999 SCT028 SCT090 23/21 Q1015 TCU ALL HZ,MHPL,2019-01-12T14:00:00Z,15.27,-83.78,23.0,21.0,,,,6.21,29.970472,,,,,,,,,,HZ,SCT,2800,SCT,9000,,,,,VFR,,,,,,,,,,,,METAR,13.0
UEEE 121400Z 31001MPS 0200 0150NE R23L/0550N FG NSC M43/M48 Q1034 R23L/490150 NOSIG RMK QFE767,UEEE,2019-01-12T14:00:00Z,62.08,129.77,-43.0,-48.0,310,2,,0.12,30.531496,,,,,,TRUE,,,,FG,CLR,,,,,,,,LIFR,,,,,,,,,,,,METAR,103.0
FDPP 121400Z AUTO 16007KT //// // ////// 30/16 Q1014,FDPP,2019-01-12T14:00:00Z,-25.97,31.25,30.0,16.0,160,7,,,29.940945,,,TRUE,,,,,,,,,,,,,,,,,,,,,,,,,,,,METAR,1099.0
NIUE 121400Z AUTO 10007KT //// // ///////// 24/21 Q1007,NIUE,2019-01-12T14:00:00Z,-19.07,-169.92,24.0,21.0,100,7,,,29.734253,,,TRUE,,,,,,,,,,,,,,,,,,,,,,,,,,,,METAR,20.0
WMKN 121400Z 06004KT 340V120 9999 FEW016CB SCT022 BKN300 28/25 Q1012,WMKN,2019-01-12T14:00:00Z,5.37,103.08,28.0,25.0,60,4,,6.21,29.88189,,,,,,,,,,,FEW,1600,SCT,2200,BKN,30000,,,VFR,,,,,,,,,,,,METAR,6.0
WMKM 121400Z 04004KT 350V080 9999 FEW027 SCT150 BKN280 27/23 Q1011,WMKM,2019-01-12T14:00:00Z,2.27,102.25,27.0,23.0,40,4,,6.21,29.852362,,,,,,,,,,,FEW,2700,SCT,15000,BKN,28000,,,VFR,,,,,,,,,,,,METAR,9.0
WMKL 121400Z 09003KT 050V120 9999 FEW026 BKN280 28/23 Q1011,WMKL,2019-01-12T14:00:00Z,6.32,99.72,28.0,23.0,90,3,,6.21,29.852362,,,,,,,,,,,FEW,2600,BKN,28000,,,,,VFR,,,,,,,,,,,,METAR,7.0
WMKI 121400Z 02005KT 9999 FEW028 SCT140 BKN280 27/21 Q1011,WMKI,2019-01-12T14:00:00Z,4.57,101.08,27.0,21.0,20,5,,6.21,29.852362,,,,,,,,,,,FEW,2800,SCT,14000,BKN,28000,,,VFR,,,,,,,,,,,,METAR,39.0
WMKE 121400Z AUTO 00000KT //// // 26/25 Q1012,WMKE,2019-01-12T14:00:00Z,4.53,103.43,26.0,25.0,0,0,,,29.88189,,,TRUE,,,,,,,,,,,,,,,,,,,,,,,,,,,,METAR,5.0
WMKD 121400Z 34004KT 300V020 9999 FEW024 SCT160 BKN280 25/24 Q1012 NOSIG,WMKD,2019-01-12T14:00:00Z,3.77,103.22,25.0,24.0,340,4,,6.21,29.88189,,,,,,TRUE,,,,,FEW,2400,SCT,16000,BKN,28000,,,VFR,,,,,,,,,,,,METAR,16.0
WMKC 121400Z 08007KT 060V120 9999 FEW010 BKN280 27/24 Q1012,WMKC,2019-01-12T14:00:00Z,6.17,102.27,27.0,24.0,80,7,,6.21,29.88189,,,,,,,,,,,FEW,1000,BKN,28000,,,,,VFR,,,,,,,,,,,,METAR,5.0
WMKB 121400Z 02003KT 350V060 9000 FEW024 SCT140 BKN280 26/23 Q1011 NOSIG,WMKB,2019-01-12T14:00:00Z,5.47,100.37,26.0,23.0,20,3,,5.59,29.852362,,,,,,TRUE,,,,,FEW,2400,SCT,14000,BKN,28000,,,VFR,,,,,,,,,,,,METAR,4.0
WMKA 121400Z VRB01KT 9999 FEW030 BKN280 26/24 Q1011,WMKA,2019-01-12T14:00:00Z,6.2,100.4,26.0,24.0,0,1,,6.21,29.852362,,,,,,,,,,,FEW,3000,BKN,28000,,,,,VFR,,,,,,,,,,,,METAR,5.0
WMBA 121400Z VRB02KT 9999 FEW032 BKN280 26/24 Q1011,WMBA,2019-01-12T14:00:00Z,4.22,100.7,26.0,24.0,0,2,,6.21,29.852362,,,,,,,,,,,FEW,3200,BKN,28000,,,,,VFR,,,,,,,,,,,,METAR,8.0
WMAU 121400Z AUTO VRB07KT //// // 28/23 Q//// QFF1011,WMAU,2019-01-12T14:00:00Z,2.38,103.88,28.0,23.0,0,7,,0.63,,,,TRUE,,,,,,,,,,,,,,,,,,,,,,,,,,,,METAR,45.0
WAJJ 121400Z 00000KT 8000 -RA SCT013 25/23 Q1008,WAJJ,2019-01-12T14:00:00Z,-2.58,140.52,25.0,23.0,0,0,,4.97,29.763779,,,,,,,,,,-RA,SCT,1300,,,,,,,MVFR,,,,,,,,,,,,METAR,88.0
USSS 121400Z 14006MPS 9999 -SHSN BKN014 OVC036CB M09/M11 Q1006 R08L/490137 NOSIG RMK QFE735/0980,USSS,2019-01-12T14:00:00Z,56.75,60.82,-9.0,-11.0,140,12,,6.21,29.704725,,,,,,TRUE,,,,-SHSN,BKN,1400,OVC,3600,,,,,MVFR,,,,,,,,,,,,METAR,233.0
USRR 121400Z 15004MPS 8000 -SN NSC M20/M22 Q1021 R25/39//34 NOSIG RMK QFE761,USRR,2019-01-12T14:00:00Z,61.33,73.42,-20.0,-22.0,150,8,,4.97,30.147638,,,,,,TRUE,,,,-SN,CLR,,,,,,,,MVFR,,,,,,,,,,,,METAR,44.0
USNN 121400Z 16004MPS CAVOK M27/M30 Q1027 R21/450265 NOSIG RMK QFE765,USNN,2019-01-12T14:00:00Z,60.95,76.48,-27.0,-30.0,160,8,,6.21,30.324802,,,,,,TRUE,,,,,CAVOK,,,,,,,,VFR,,,,,,,,,,,,METAR,54.0
USCC 121400Z 16006MPS 2000 R09/P2000D SN BR VV006 M09/M11 Q1011 R09/420350 TEMPO 19012MPS 0500 +SN BLSN VV001 RMK QFE737,USCC,2019-01-12T14:00:00Z,55.3,61.5,-9.0,-11.0,160,12,,1.24,29.852362,,,,,,,,,,SN BR,OVX,0,,,,,,,LIFR,,,,,,,,,,,600,METAR,234.0
UWUU 121400Z 18010MPS 4500 -SN OVC017 M04/M05 Q1005 WS R14R R14R/420535 NOSIG RMK QFE743/0991,UWUU,2019-01-12T14:00:00Z,54.57,55.87,-4.0,-5.0,180,19,,2.8,29.675198,,,,,,TRUE,,,,-SN,OVC,1700,,,,,,,IFR,,,,,,,,,,,,METAR,137.0
UUOL 121400Z 22005MPS CAVOK M14/M15 Q0999 R15/850342 NOSIG,UUOL,2019-01-12T14:00:00Z,52.7,39.53,-14.0,-15.0,220,10,,6.21,29.498032,,,,,,TRUE,,,,,CAVOK,,,,,,,,VFR,,,,,,,,,,,,METAR,176.0
UUMO 121400Z 25006MPS 9999 BKN013 M10/M13 Q0993 R26/420245 NOSIG RMK QFE730/0973,UUMO,2019-01-12T14:00:00Z,55.52,37.5,-10.0,-13.0,250,12,,6.21,29.320866,,,,,,TRUE,,,,,BKN,1300,,,,,,,MVFR,,,,,,,,,,,,METAR,174.0
UUWW 121400Z 23005MPS 4600 -SN OVC011 M10/M13 Q0993 R24/450340 NOSIG,UUWW,2019-01-12T14:00:00Z,55.6,37.27,-10.0,-13.0,230,10,,2.86,29.320866,,,,,,TRUE,,,,-SN,OVC,1100,,,,,,,IFR,,,,,,,,,,,,METAR,203.0
UUEE 121400Z 22006MPS 6000 -SN OVC010 M10/M11 Q0992 R24L/490345 R24C/490336 NOSIG,UUEE,2019-01-12T14:00:00Z,55.97,37.42,-10.0,-11.0,220,12,,3.73,29.291338,,,,,,TRUE,,,,-SN,OVC,1000,,,,,,,MVFR,,,,,,,,,,,,METAR,190.0
UUDL 121400Z 19003MPS 9999 -SN OVC013 M09/M11 Q0991 R23/451545 NOSIG RMK QFE735,UUDL,2019-01-12T14:00:00Z,57.57,40.17,-9.0,-11.0,190,6,,6.21,29.26181,,,,,,TRUE,,,,-SN,OVC,1300,,,,,,,MVFR,,,,,,,,,,,,METAR,88.0
UUDD 121400Z 24006MPS 9999 -SN FEW015 M10/M13 Q0993 R88/450394 NOSIG,UUDD,2019-01-12T14:00:00Z,55.4,37.9,-10.0,-13.0,240,12,,6.21,29.320866,,,,,,TRUE,,,,-SN,FEW,1500,,,,,,,VFR,,,,,,,,,,,,METAR,168.0
UUBW 121400Z 22004MPS 7000 -SN BKN020 M10/M12 Q0994 R30/450540 NOSIG,UUBW,2019-01-12T14:00:00Z,55.55,38.15,-10.0,-12.0,220,8,,4.35,29.350393,,,,,,TRUE,,,,-SN,BKN,2000,,,,,,,MVFR,,,,,,,,,,,,METAR,115.0
ULLI 121400Z 27005MPS 9999 FEW017 M04/M05 Q0989 R28L/550545 R28R/510550 NOSIG,ULLI,2019-01-12T14:00:00Z,59.8,30.27,-4.0,-5.0,270,10,,6.21,29.202755,,,,,,TRUE,,,,,FEW,1700,,,,,,,VFR,,,,,,,,,,,,METAR,4.0
UWWW 121400Z 19007MPS 5000 -SN OVC004 M00/M00 Q0997 R15/490535 NOSIG RMK QFE736/0982,UWWW,2019-01-12T14:00:00Z,53.5,50.17,0.0,0.0,190,14,,3.11,29.438976,,,,,,TRUE,,,,-SN,OVC,400,,,,,,,LIFR,,,,,,,,,,,,METAR,146.0
UWSS 121400Z 22005MPS 4000 -SN BR OVC015 00/M01 Q0997 R12/850337 NOSIG RMK QFE736,UWSS,2019-01-12T14:00:00Z,51.57,46.07,0.0,-1.0,220,10,,2.49,29.438976,,,,,,TRUE,,,,-SN BR,OVC,1500,,,,,,,IFR,,,,,,,,,,,,METAR,166.0
UWOO 121400Z 18007MPS 7000 -SHSN BLSN OVC006CB M00/M02 Q1011 R26/490240 NOSIG RMK QBB180 QFE748/0997,UWOO,2019-01-12T14:00:00Z,51.8,55.47,0.0,-2.0,180,14,,4.35,29.852362,,,,,,TRUE,,,,-SHSN BLSN,OVC,600,,,,,,,IFR,,,,,,,,,,,,METAR,109.0
UWOR 121400Z 19012MPS 9000 -SN BLSN OVC019 M04/M05 Q1015 R25/820150 NOSIG RMK QFE738/0984,UWOR,2019-01-12T14:00:00Z,51.07,58.6,-4.0,-5.0,190,23,,5.59,29.970472,,,,,,TRUE,,,,-SN BLSN,OVC,1900,,,,,,,MVFR,,,,,,,,,,,,METAR,277.0
UWLW 121400Z 06002MPS 8000 -SN OVC029 M07/M09 Q0997 R20/490548 NOSIG RMK QFE743,UWLW,2019-01-12T14:00:00Z,54.4,48.8,-7.0,-9.0,60,4,,4.97,29.438976,,,,,,TRUE,,,,-SN,OVC,2900,,,,,,,MVFR,,,,,,,,,,,,METAR,66.0
UWKS 121400Z 18004MPS 9999 -SN BKN026 M10/M12 Q0996 R24/820345 NOSIG RMK QFE733,UWKS,2019-01-12T14:00:00Z,56.08,47.35,-10.0,-12.0,180,8,,6.21,29.409449,,,,,,TRUE,,,,-SN,BKN,2600,,,,,,,MVFR,,,,,,,,,,,,METAR,170.0
UWKE 121400Z 16004MPS 9999 -SN OVC019 M07/M09 Q0998 R21/410540 NOSIG RMK QFE732/0976,UWKE,2019-01-12T14:00:00Z,55.57,52.08,-7.0,-9.0,160,8,,6.21,29.468504,,,,,,TRUE,,,,-SN,OVC,1900,,,,,,,MVFR,,,,,,,,,,,,METAR,196.0
UWKD 121400Z 15003MPS 9999 OVC019 M09/M11 Q0997 R11/421042 NOSIG RMK QFE738/0984,UWKD,2019-01-12T14:00:00Z,55.62,49.28,-9.0,-11.0,150,6,,6.21,29.438976,,,,,,TRUE,,,,,OVC,1900,,,,,,,MVFR,,,,,,,,,,,,METAR,126.0
USPP 121400Z 14002MPS 9000 -SN SCT046 M09/M11 Q1001 R21/390140 NOSIG RMK QFE740,USPP,2019-01-12T14:00:00Z,57.92,56.02,-9.0,-11.0,140,4,,5.59,29.557087,,,,,,TRUE,,,,-SN,SCT,4600,,,,,,,VFR,,,,,,,,,,,,METAR,123.0
MHCA 121400Z 10002KT 9999 FEW008 BKN070 18/16 Q1020 HZ,MHCA,2019-01-12T14:00:00Z,14.9,-85.78,18.0,16.0,100,2,,6.21,30.11811,,,,,,,,,,HZ,FEW,800,BKN,7000,,,,,VFR,,,,,,,,,,,,METAR,442.0
MHSR 121400Z 00000KT 9999 BKN020 17/15 HZ,MHSR,2019-01-12T14:00:00Z,14.78,-88.78,17.0,15.0,0,0,,6.21,,,,,,,,,,,HZ,BKN,2000,,,,,,,MVFR,,,,,,,,,,,,METAR,1079.0
DAAD 121400Z 34013KT 9999 FEW026 SCT033 09/M01 Q1026,DAAD,2019-01-12T14:00:00Z,35.32,4.2,9.0,-1.0,340,13,,6.21,30.295275,,,,,,,,,,,FEW,2600,SCT,3300,,,,,VFR,,,,,,,,,,,,METAR,461.0
DAAP 121400Z 02008KT CAVOK 12/M04 Q1023,DAAP,2019-01-12T14:00:00Z,26.72,8.62,12.0,-4.0,20,8,,6.21,30.206694,,,,,,,,,,,CAVOK,,,,,,,,VFR,,,,,,,,,,,,METAR,558.0
DAFH 121400Z 02010KT CAVOK 09/M02 Q1025,DAFH,2019-01-12T14:00:00Z,32.93,3.32,9.0,-2.0,20,10,,6.21,30.265747,,,,,,,,,,,CAVOK,,,,,,,,VFR,,,,,,,,,,,,METAR,774.0
DAAY 121400Z 12004KT CAVOK 07/M07 Q1028,DAAY,2019-01-12T14:00:00Z,33.53,-0.25,7.0,-7.0,120,4,,6.21,30.35433,,,,,,,,,,,CAVOK,,,,,,,,VFR,,,,,,,,,,,,METAR,1149.0
MHGS 121400Z 00000KT 9999 BKN014 17/15 HZ,MHGS,2019-01-12T14:00:00Z,14.57,-88.6,17.0,15.0,0,0,,6.21,,,,,,,,,,,HZ,BKN,1400,,,,,,,MVFR,,,,,,,,,,,,METAR,913.0
VABV 121400Z 00000KT 3000 FU NSC 23/13 Q1014,VABV,2019-01-12T14:00:00Z,21.75,72.2,23.0,13.0,0,0,,1.86,29.940945,,,,,,,,,,FU,CLR,,,,,,,,IFR,,,,,,,,,,,,METAR,11.0
UTFN 121400Z 35002KT 6000 OVC045 03/M01 Q1031 R28/CLRD70 NOSIG,UTFN,2019-01-12T14:00:00Z,40.98,71.57,3.0,-1.0,350,2,,3.73,30.442913,,,,,,TRUE,,,,,OVC,4500,,,,,,,MVFR,,,,,,,,,,,,METAR,490.0
DAOL 121400Z 07010KT CAVOK 14/00 Q1028,DAOL,2019-01-12T14:00:00Z,35.53,-0.52,14.0,0.0,70,10,,6.21,30.35433,,,,,,,,,,,CAVOK,,,,,,,,VFR,,,,,,,,,,,,METAR,112.0
CYBU 121400Z AUTO 16010KT 9SM CLR M13/M15 A3013 RMK SLP243,CYBU,2019-01-12T14:00:00Z,53.32,-104.0,-13.0,-15.0,160,10,,9.0,30.129921,1024.3,,TRUE,,,,,,,,CLR,,,,,,,,VFR,,,,,,,,,,,,SPECI,374.0
CYBQ 121400Z AUTO 19019G30KT 1 1/4SM -SN OVC035 M14/M16 A2988 RMK PRESFR SLP152,CYBQ,2019-01-12T14:00:00Z,58.7,-98.5,-14.0,-16.0,190,19,30,1.25,29.878937,1015.2,,TRUE,,,,,,,-SN,OVC,3500,,,,,,,IFR,,,,,,,,,,,,METAR,262.0
CYBK 121400Z 11021KT 5/8SM -SN BLSN BKN007 OVC014 M20/M23 A2991 RMK SC5SC3 PRESFR SLP134,CYBK,2019-01-12T14:00:00Z,64.28,-96.07,-20.0,-23.0,110,21,,0.63,29.911417,1013.4,,,,,,,,,-SN BLSN,BKN,700,OVC,1400,,,,,LIFR,,,,,,,,,,,,SPECI,18.0
CWHN 121400Z AUTO 22004KT 180V280 9SM CLR M13/M16 A2989 RMK SLP175,CWHN,2019-01-12T14:00:00Z,54.88,-109.97,-13.0,-16.0,220,4,,9.0,29.890747,1017.5,,TRUE,,,,,,,,CLR,,,,,,,,VFR,,,,,,,,,,,,METAR,636.0
CZSJ 121400Z AUTO 11002KT 9SM CLR M23/M25 A3052 RMK SLP374,CZSJ,2019-01-12T14:00:00Z,53.07,-93.35,-23.0,-25.0,110,2,,9.0,30.519686,1037.4,,TRUE,,,,,,,,CLR,,,,,,,,VFR,,,,,,,,,,,,METAR,290.0
CZMD 121400Z AUTO 21002KT 9SM OVC120 M22/M24 A3055 RMK SLP387,CZMD,2019-01-12T14:00:00Z,53.43,-91.77,-22.0,-24.0,210,2,,9.0,30.549213,1038.7,,TRUE,,,,,,,,OVC,12000,,,,,,,VFR,,,,,,,,,,,,METAR,278.0
CYYW 121400Z AUTO 00000KT 9SM CLR M32/M35 A3061 RMK SLP432,CYYW,2019-01-12T14:00:00Z,50.3,-88.9,-32.0,-35.0,0,0,,9.0,30.611221,1043.2,,TRUE,,,,,,,,CLR,,,,,,,,VFR,,,,,,,,,,,,METAR,351.0
CYYU 121400Z 30003KT 12SM BKN005 OVC006 M28/M31 A3062 RMK SC6SC2 SLP401,CYYU,2019-01-12T14:00:00Z,49.42,-82.47,-28.0,-31.0,300,3,,12.0,30.620079,1040.1,,,,,,,,,,BKN,500,OVC,600,,,,,IFR,,,,,,,,,,,,SPECI,227.0
CYYH 121400Z 04015KT 6SM IC BR DRSN FEW029 M38/M43 A3029 RMK FG1SC1 SC TR FROIN SLP265,CYYH,2019-01-12T14:00:00Z,69.53,-93.57,-38.0,-43.0,40,15,,6.0,30.28937,1026.5,,,,,,,,,IC BR DRSN,FEW,2900,,,,,,,VFR,,,,,,,,,,,,SPECI,28.0
CYYB 121400Z 35004KT 310V020 30SM SKC M23/M24 A3051 RMK SLP375,CYYB,2019-01-12T14:00:00Z,46.35,-79.42,-23.0,-24.0,350,4,,30.0,30.510826,1037.5,,,,,,,,,,SKC,,,,,,,,VFR,,,,,,,,,,,,SPECI,371.0
DAOF 121400Z 13010KT CAVOK 18/M09 Q1023,DAOF,2019-01-12T14:00:00Z,27.7,-8.17,18.0,-9.0,130,10,,6.21,30.206694,,,,,,,,,,,CAVOK,,,,,,,,VFR,,,,,,,,,,,,METAR,431.0
CYEN 121400Z AUTO 16008G15KT 9SM -SN OVC011 M13/M14 A3028 RMK SLP304,CYEN,2019-01-12T14:00:00Z,49.22,-102.97,-13.0,-14.0,160,8,15,9.0,30.280512,1030.4,,TRUE,,,,,,,-SN,OVC,1100,,,,,,,MVFR,,,,,,,,,,,,SPECI,581.0
CYDN 121400Z AUTO 00000KT 9SM OVC021 M14/M15 A3037 RMK SLP318,CYDN,2019-01-12T14:00:00Z,51.1,-100.03,-14.0,-15.0,0,0,,9.0,30.369095,1031.8,,TRUE,,,,,,,,OVC,2100,,,,,,,MVFR,,,,,,,,,,,,SPECI,305.0
CWGD 121400Z AUTO 09008KT M06/M10 RMK AO1 SOG 02 3015 SLP338 T10591100,CWGD,2019-01-12T14:00:00Z,43.77,-81.72,-5.9,-10.0,90,8,,,,1033.8,,TRUE,TRUE,,,,,,,,,,,,,,,,,,,,,,,,,,,METAR,214.0
CXZC 121400Z AUTO 28004KT M22/M24 RMK AO1 SOG 48 3022 SLP383 T12181240,CXZC,2019-01-12T14:00:00Z,51.3,-80.62,-21.8,-24.0,280,4,,,,1038.3,,TRUE,TRUE,,,,,,,,,,,,,,,,,,,,,,,,,,,METAR,9.0
CXBI 121400Z AUTO 04004KT M12/M18 RMK AO1 SLP363 T11231177 53019,CXBI,2019-01-12T14:00:00Z,44.48,-79.55,-12.3,-17.7,40,4,,,,1036.3,,TRUE,TRUE,,,,,,,,,,,,,,,,1.9,,,,,,,,,,,METAR,289.0
CWKK 121400Z AUTO 09005KT M18/M22 RMK AO1 SOG 38 3010 SLP389 T11841224,CWKK,2019-01-12T14:00:00Z,49.72,-88.33,-18.4,-22.4,90,5,,,,1038.9,,TRUE,TRUE,,,,,,,,,,,,,,,,,,,,,,,,,,,METAR,260.0
CTNK 121400Z AUTO 12001KT M27/M30 RMK AO1 SOG 45 1021 SLP366 T12661296,CTNK,2019-01-12T14:00:00Z,45.53,-78.27,-26.6,-29.6,120,1,,,,1036.6,,TRUE,TRUE,,,,,,,,,,,,,,,,,,,,,,,,,,,METAR,410.0
CXKE 121400Z AUTO 29004KT M17/M22 RMK AO1 SOG 08 2022 SLP365 T11691219,CXKE,2019-01-12T14:00:00Z,45.0,-75.63,-16.9,-21.9,290,4,,,,1036.5,,TRUE,TRUE,,,,,,,,,,,,,,,,,,,,,,,,,,,METAR,99.0
CXKA 121400Z AUTO 31002KT M28/M31 RMK AO1 SOG 38 1022 SLP406 T12811310,CXKA,2019-01-12T14:00:00Z,49.4,-82.45,-28.1,-31.0,310,2,,,,1040.6,,TRUE,TRUE,,,,,,,,,,,,,,,,,,,,,,,,,,,METAR,218.0
CXHM 121400Z AUTO 05005KT M05/M09 RMK AO1 SLP346 T10501093 53017,CXHM,2019-01-12T14:00:00Z,43.28,-79.9,-5.0,-9.3,50,5,,,,1034.6,,TRUE,TRUE,,,,,,,,,,,,,,,,1.7,,,,,,,,,,,METAR,107.0
CWZQ 121400Z AUTO 23019G24KT M10/M13 RMK AO1 PK WND 23027/1348 SLP167 T10981125 51025,CWZQ,2019-01-12T14:00:00Z,46.53,-61.05,-9.8,-12.5,230,19,24,,,1016.7,,TRUE,TRUE,,,,,,,,,,,,,,,,2.5,,,,,,,,,,,METAR,17.0
CWZO 121400Z AUTO 03008KT RMK AO1,CWZO,2019-01-12T14:00:00Z,48.55,-123.23,,,30,8,,,,,,TRUE,TRUE,,,,,,,,,,,,,,,,,,,,,,,,,,,METAR,1.0
CWZA 121400Z AUTO 02005KT 07/01 RMK AO1 PK WND 35018/1315 SLP157 T00660013 58001,CWZA,2019-01-12T14:00:00Z,49.25,-121.77,6.6,1.3,20,5,,,,1015.7,,TRUE,TRUE,,,,,,,,,,,,,,,,-0.1,,,,,,,,,,,METAR,15.0
CWYY 121400Z AUTO 15002KT M01/M02 RMK AO1 SLP240 T10141017 53004,CWYY,2019-01-12T14:00:00Z,49.03,-119.43,-1.4,-1.7,150,2,,,,1024.0,,TRUE,TRUE,,,,,,,,,,,,,,,,0.4,,,,,,,,,,,METAR,283.0
CWYJ 121400Z AUTO 34006KT 06/04 RMK AO1 SLP142 T00640042 56002,CWYJ,2019-01-12T14:00:00Z,48.45,-123.3,6.4,4.2,340,6,,,,1014.2,,TRUE,TRUE,,,,,,,,,,,,,,,,-0.2,,,,,,,,,,,METAR,39.0
CWXL 121400Z AUTO 16010KT M06/M09 RMK AO1 T10571087,CWXL,2019-01-12T14:00:00Z,49.73,-111.45,-5.7,-8.7,160,10,,,,,,TRUE,TRUE,,,,,,,,,,,,,,,,,,,,,,,,,,,METAR,817.0
FQNP 121400Z /////KT 9999 SCT020 29/22 Q1009,FQNP,2019-01-12T14:00:00Z,-15.08,39.27,29.0,22.0,,,,6.21,29.793306,,,,,,,,,,,SCT,2000,,,,,,,VFR,,,,,,,,,,,,METAR,441.0
DIBK 121400Z 10008KT 8000 NSC 34/08 Q1010 NOSIG,DIBK,2019-01-12T14:00:00Z,7.72,-5.07,34.0,8.0,100,8,,4.97,29.822834,,,,,,TRUE,,,,,CLR,,,,,,,,MVFR,,,,,,,,,,,,SPECI,376.0
FNSO 121400Z 23006KT 9999 SCT014 BKN080 ///// Q////,FNSO,2019-01-12T14:00:00Z,-6.13,12.37,,,230,6,,6.21,,,,,,,,,,,,SCT,1400,BKN,8000,,,,,VFR,,,,,,,,,,,,METAR,5.0
CXOY 121400Z AUTO 23015KT M06/M09 RMK AO1 PK WND 22018/1301 T10641091,CXOY,2019-01-12T14:00:00Z,51.38,-110.35,-6.4,-9.1,230,15,,,,,,TRUE,TRUE,,,,,,,,,,,,,,,,,,,,,,,,,,,METAR,767.0
CXDK 121400Z AUTO 30001KT M29/M32 RMK AO1 SOG 34 1023 SLP152 T12861319,CXDK,2019-01-12T14:00:00Z,61.27,-124.47,-28.6,-31.9,300,1,,,,1015.2,,TRUE,TRUE,,,,,,,,,,,,,,,,,,,,,,,,,,,METAR,283.0
CXCS 121400Z AUTO 23015KT M06/M09 RMK AO1 PK WND 24019/1342 T10641092,CXCS,2019-01-12T14:00:00Z,51.93,-110.72,-6.4,-9.2,230,15,,,,,,TRUE,TRUE,,,,,,,,,,,,,,,,,,,,,,,,,,,METAR,772.0
CXBA 121400Z AUTO 15007KT M10/M12 RMK AO1 T11021115,CXBA,2019-01-12T14:00:00Z,52.12,-110.1,-10.2,-11.5,150,7,,,,,,TRUE,TRUE,,,,,,,,,,,,,,,,,,,,,,,,,,,METAR,687.0
CXPA 121400Z AUTO 03006KT M02/M03 RMK AO1 T10191031,CXPA,2019-01-12T14:00:00Z,55.62,-118.3,-1.9,-3.1,30,6,,,,,,TRUE,TRUE,,,,,,,,,,,,,,,,,,,,,,,,,,,METAR,621.0
CWSF 121400Z AUTO 26017G27KT M08/M10 RMK AO1 PK WND 30027/1323 SLP119 T10841097 53027,CWSF,2019-01-12T14:00:00Z,49.25,-65.32,-8.4,-9.7,260,17,27,,,1011.9,,TRUE,TRUE,,,,,,,,,,,,,,,,2.7,,,,,,,,,,,METAR,29.0
CWZW 121400Z AUTO 08002KT M15/M17 RMK AO1 SOG 26 3018 SLP150 T11531170,CWZW,2019-01-12T14:00:00Z,60.17,-132.73,-15.3,-17.0,80,2,,,,1015.0,,TRUE,TRUE,,,,,,,,,,,,,,,,,,,,,,,,,,,METAR,705.0
CYET 121400Z AUTO VRB02KT 9SM CLR M05/M05 A2988 RMK SLP172,CYET,2019-01-12T14:00:00Z,53.57,-116.47,-5.0,-5.0,0,2,,9.0,29.878937,1017.2,,TRUE,,,,,,,,CLR,,,,,,,,VFR,,,,,,,,,,,,SPECI,925.0
CYKJ 121400Z AUTO 22011G17KT 9SM -SN OVC150 M12/M13 A2984 RMK SLP152,CYKJ,2019-01-12T14:00:00Z,57.25,-105.62,-12.0,-13.0,220,11,17,9.0,29.840551,1015.2,,TRUE,,,,,,,-SN,OVC,15000,,,,,,,VFR,,,,,,,,,,,,SPECI,509.0
CYLL 121400Z VRB03KT 15SM SCT230 M15/M17 A2993 RMK CI3 FROIN PRESRR SLP194,CYLL,2019-01-12T14:00:00Z,53.32,-110.07,-15.0,-17.0,0,3,,15.0,29.929134,1019.4,,,,,,,,,,SCT,23000,,,,,,,VFR,,,,,,,,,,,,SPECI,669.0
DAOV 121400Z 02002KT 9999 FEW026 11/M02 Q1027,DAOV,2019-01-12T14:00:00Z,35.2,0.15,11.0,-2.0,20,2,,6.21,30.324802,,,,,,,,,,,FEW,2600,,,,,,,VFR,,,,,,,,,,,,METAR,514.0
DAOR 121400Z 27003KT CAVOK 12/M02 Q1026,DAOR,2019-01-12T14:00:00Z,31.65,-2.27,12.0,-2.0,270,3,,6.21,30.295275,,,,,,,,,,,CAVOK,,,,,,,,VFR,,,,,,,,,,,,METAR,773.0
TTCP 121400Z 09011KT 9999 FEW018 28/20 Q1017 NOSIG,TTCP,2019-01-12T14:00:00Z,11.15,-60.85,28.0,20.0,90,11,,6.21,30.029528,,,,,,TRUE,,,,,FEW,1800,,,,,,,VFR,,,,,,,,,,,,METAR,8.0
TTPP 121400Z 09014KT 9999 FEW020 28/22 Q1017 NOSIG,TTPP,2019-01-12T14:00:00Z,10.58,-61.35,28.0,22.0,90,14,,6.21,30.029528,,,,,,TRUE,,,,,FEW,2000,,,,,,,VFR,,,,,,,,,,,,METAR,15.0
VOMD 121400Z 07005KT 6000 FEW018 27/16 Q1014 NOSIG,VOMD,2019-01-12T14:00:00Z,9.82,78.07,27.0,16.0,70,5,,3.73,29.940945,,,,,,TRUE,,,,,FEW,1800,,,,,,,MVFR,,,,,,,,,,,,METAR,131.0
VIAR 121400Z 33003KT 3000 BR SCT040 BKN100 13/11 Q1019 TEMPO RA,VIAR,2019-01-12T14:00:00Z,31.7,74.8,13.0,11.0,330,3,,1.86,30.088583,,,,,,,,,,BR,SCT,4000,BKN,10000,,,,,IFR,,,,,,,,,,,,METAR,234.0
DTTR 121400Z 31015KT CAVOK 11/M02 Q1024 NOSIG,DTTR,2019-01-12T14:00:00Z,31.7,9.27,11.0,-2.0,310,15,,6.21,30.236221,,,,,,TRUE,,,,,CAVOK,,,,,,,,VFR,,,,,,,,,,,,METAR,259.0
DTTL 121400Z AUTO 32011G21KT 290V360 NCD 13/02 Q1019,DTTL,2019-01-12T14:00:00Z,36.85,11.07,13.0,2.0,320,11,21,,30.088583,,,TRUE,,,,,,,,CLR,,,,,,,,,,,,,,,,,,,,METAR,30.0
DTTK 121400Z 32009KT 9999 SCT023 13/M00 Q1021,DTTK,2019-01-12T14:00:00Z,35.67,10.08,13.0,0.0,320,9,,6.21,30.147638,,,,,,,,,,,SCT,2300,,,,,,,VFR,,,,,,,,,,,,METAR,68.0
DTTD 121400Z 34008KT 290V020 9999 FEW023 11/M01 Q1022,DTTD,2019-01-12T14:00:00Z,32.32,10.4,11.0,-1.0,340,8,,6.21,30.177166,,,,,,,,,,,FEW,2300,,,,,,,VFR,,,,,,,,,,,,METAR,301.0
DTTB 121400Z 32017KT 9999 SCT020 13/M00 Q1021,DTTB,2019-01-12T14:00:00Z,37.25,9.8,13.0,0.0,320,17,,6.21,30.147638,,,,,,,,,,,SCT,2000,,,,,,,VFR,,,,,,,,,,,,METAR,3.0
SLET 121400Z VRB02KT 9999 FEW013 SCT020 BKN070 24/20 Q1015,SLET,2019-01-12T14:00:00Z,-17.8,-63.17,24.0,20.0,0,2,,6.21,29.970472,,,,,,,,,,,FEW,1300,SCT,2000,BKN,7000,,,VFR,,,,,,,,,,,,METAR,414.0
FAVV 121400Z AUTO 28005KT //// // ////// 33/14 Q1013,FAVV,2019-01-12T14:00:00Z,-26.57,27.97,33.0,14.0,280,5,,,29.911417,,,TRUE,,,,,,,,,,,,,,,,,,,,,,,,,,,,METAR,1483.0
FAJB 121400Z AUTO 31003KT //// // ////// 31/14 Q1015,FAJB,2019-01-12T14:00:00Z,-26.15,28.0,31.0,14.0,310,3,,,29.970472,,,TRUE,,,,,,,,,,,,,,,,,,,,,,,,,,,,METAR,1626.0
EIDL 121400Z 28019KT 7000 OVC012 11/09 Q1022,EIDL,2019-01-12T14:00:00Z,55.05,-8.33,11.0,9.0,280,19,,4.35,30.177166,,,,,,,,,,,OVC,1200,,,,,,,MVFR,,,,,,,,,,,,METAR,9.0
BIAR 121400Z 30006KT 2700 -SN BKN018 OVC027 00/M00 Q1001,BIAR,2019-01-12T14:00:00Z,65.67,-18.07,0.0,0.0,300,6,,1.68,29.557087,,,,,,,,,,-SN,BKN,1800,OVC,2700,,,,,IFR,,,,,,,,,,,,METAR,27.0
LQTZ 121400Z VRB01KT 4000 -SG BR BKN013 OVC025 M04/M05 Q1018,LQTZ,2019-01-12T14:00:00Z,44.47,18.73,-4.0,-5.0,0,1,,2.49,30.059055,,,,,,,,,,-SG BR,BKN,1300,OVC,2500,,,,,IFR,,,,,,,,,,,,METAR,306.0
LQSA 121400Z 16003KT 100V190 6000 -SN BKN030 M04/M06 Q1018 NOSIG,LQSA,2019-01-12T14:00:00Z,43.82,18.32,-4.0,-6.0,160,3,,3.73,30.059055,,,,,,TRUE,,,,-SN,BKN,3000,,,,,,,MVFR,,,,,,,,,,,,METAR,511.0
LQMO 121400Z 33017KT 9999 FEW050 09/M05 Q1013,LQMO,2019-01-12T14:00:00Z,43.28,17.83,9.0,-5.0,330,17,,6.21,29.911417,,,,,,,,,,,FEW,5000,,,,,,,VFR,,,,,,,,,,,,METAR,48.0
LQBK 121400Z 36003KT CAVOK 01/M02 Q1018 NOSIG,LQBK,2019-01-12T14:00:00Z,44.93,17.3,1.0,-2.0,360,3,,6.21,30.059055,,,,,,TRUE,,,,,CAVOK,,,,,,,,VFR,,,,,,,,,,,,METAR,122.0
LKPR 121400Z 24019KT 9999 FEW011 BKN046 03/01 Q1013 NOSIG,LKPR,2019-01-12T14:00:00Z,50.1,14.27,3.0,1.0,240,19,,6.21,29.911417,,,,,,TRUE,,,,,FEW,1100,BKN,4600,,,,,VFR,,,,,,,,,,,,METAR,365.0
LKMT 121400Z 19008KT 9999 OVC042 03/M01 Q1011 R04/690195 NOSIG,LKMT,2019-01-12T14:00:00Z,49.67,18.12,3.0,-1.0,190,8,,6.21,29.852362,,,,,,TRUE,,,,,OVC,4200,,,,,,,VFR,,,,,,,,,,,,METAR,256.0
LKKV 121400Z 25011G22KT 5000 -SN BKN005 BKN013 01/M00 Q1012 R29/29//95,LKKV,2019-01-12T14:00:00Z,50.2,12.92,1.0,0.0,250,11,22,3.11,29.88189,,,,,,,,,,-SN,BKN,500,BKN,1300,,,,,IFR,,,,,,,,,,,,METAR,604.0
NTAA 121400Z AUTO 06010KT 9999 BKN025/// BKN033/// BKN044/// 27/25 Q1008 TEMPO 05025G35KT 1000 +SHRA FEW010 FEW013CB BKN014,NTAA,2019-01-12T14:00:00Z,-17.55,-149.62,27.0,25.0,60,10,,6.21,29.763779,,,TRUE,,,,,,,,BKN,2500,BKN,3300,BKN,4400,,,MVFR,,,,,,,,,,,,METAR,2.0
OLBA 121400Z 06005KT 9999 FEW030 SCT20000 17/03 Q1012 NOSIG,OLBA,2019-01-12T14:00:00Z,33.82,35.47,17.0,3.0,60,5,,6.21,29.88189,,,,,,TRUE,,,,,FEW,3000,,,,,,,VFR,,,,,,,,,,,,METAR,19.0
CYBR 121400Z 13006KT 15SM FEW006 OVC023 M13/M15 A3038 RMK ST2SC6 SLP328,CYBR,2019-01-12T14:00:00Z,49.92,-99.95,-13.0,-15.0,130,6,,15.0,30.380905,1032.8,,,,,,,,,,FEW,600,OVC,2300,,,,,MVFR,,,,,,,,,,,,METAR,409.0
SBPB 121400Z 22002KT 9999 BKN017 FEW025TCU BKN090 26/22 Q1013,SBPB,2019-01-12T14:00:00Z,-2.92,-41.75,26.0,22.0,220,2,,6.21,29.911417,,,,,,,,,,,BKN,1700,FEW,2500,BKN,9000,,,MVFR,,,,,,,,,,,,METAR,5.0
MRLB 121400Z 30004KT CAVOK 26/18 A2994 NOSIG,MRLB,2019-01-12T14:00:00Z,10.6,-85.55,26.0,18.0,300,4,,6.21,29.940945,,,,,,TRUE,,,,,CAVOK,,,,,,,,VFR,,,,,,,,,,,,METAR,82.0
LZZI 121400Z 08003KT 6000 BKN026 BKN046 M01/M01 Q1012,LZZI,2019-01-12T14:00:00Z,49.23,18.62,-1.0,-1.0,80,3,,3.73,29.88189,,,,,,,,,,,BKN,2600,BKN,4600,,,,,MVFR,,,,,,,,,,,,METAR,311.0
LZSL 121400Z 26007KT 9999 FEW028 BKN050 02/M02 Q1012,LZSL,2019-01-12T14:00:00Z,48.63,19.13,2.0,-2.0,260,7,,6.21,29.88189,,,,,,,,,,,FEW,2800,BKN,5000,,,,,VFR,,,,,,,,,,,,METAR,313.0
LZPP 121400Z 25004KT 220V290 9999 SCT020 BKN045 03/01 Q1014,LZPP,2019-01-12T14:00:00Z,48.62,17.83,3.0,1.0,250,4,,6.21,29.940945,,,,,,,,,,,SCT,2000,BKN,4500,,,,,VFR,,,,,,,,,,,,METAR,161.0
TKPN 121400Z 08011KT 9999 BKN020 27/20 Q1019,TKPN,2019-01-12T14:00:00Z,17.18,-62.57,27.0,20.0,80,11,,6.21,30.088583,,,,,,,,,,,BKN,2000,,,,,,,MVFR,,,,,,,,,,,,METAR,17.0
KNEL 121400Z AUTO VRB05KT BKN080 A3054 RMK AO2 SLPNO PNO $,KNEL,2019-01-12T14:00:00Z,40.02,-74.33,,,0,5,,,30.540354,,,TRUE,TRUE,TRUE,,,,,,BKN,8000,,,,,,,,,,,,,,,,,,,METAR,31.0
ORSU 121400Z 12004KT CAVOK 06/01 Q1020,ORSU,2019-01-12T14:00:00Z,35.57,45.32,6.0,1.0,120,4,,6.21,30.11811,,,,,,,,,,,CAVOK,,,,,,,,VFR,,,,,,,,,,,,METAR,761.0
ORER 121400Z 22003KT CAVOK 09/03 Q1020 NOSIG,ORER,2019-01-12T14:00:00Z,36.23,43.97,9.0,3.0,220,3,,6.21,30.11811,,,,,,TRUE,,,,,CAVOK,,,,,,,,VFR,,,,,,,,,,,,METAR,409.0
ORNI 121400Z 12006KT 8000 FEW040 SCT070 13/02 Q1019 NOSIG,ORNI,2019-01-12T14:00:00Z,31.98,44.4,13.0,2.0,120,6,,4.97,30.088583,,,,,,TRUE,,,,,FEW,4000,SCT,7000,,,,,MVFR,,,,,,,,,,,,METAR,53.0
ORMM 121400Z 28004KT CAVOK 14/M02 Q1020 NOSIG,ORMM,2019-01-12T14:00:00Z,30.57,47.67,14.0,-2.0,280,4,,6.21,30.11811,,,,,,TRUE,,,,,CAVOK,,,,,,,,VFR,,,,,,,,,,,,METAR,2.0
HSNN 121400Z 07004KT CAVOK 35/M07 Q1009,HSNN,2019-01-12T14:00:00Z,12.05,24.97,35.0,-7.0,70,4,,6.21,29.793306,,,,,,,,,,,CAVOK,,,,,,,,VFR,,,,,,,,,,,,METAR,658.0
HSOB 121400Z 02009KT CAVOK 33/04 Q1009,HSOB,2019-01-12T14:00:00Z,13.17,30.22,33.0,4.0,20,9,,6.21,29.793306,,,,,,,,,,,CAVOK,,,,,,,,VFR,,,,,,,,,,,,METAR,574.0
HSPN 121400Z 08007KT 9999 SCT030 30/19 Q1010,HSPN,2019-01-12T14:00:00Z,19.42,37.22,30.0,19.0,80,7,,6.21,29.822834,,,,,,,,,,,SCT,3000,,,,,,,VFR,,,,,,,,,,,,METAR,138.0
VOCL 121400Z 32004KT 5000 BR FEW015 27/21 Q1012 NOSIG,VOCL,2019-01-12T14:00:00Z,11.13,75.95,27.0,21.0,320,4,,3.11,29.88189,,,,,,TRUE,,,,BR,FEW,1500,,,,,,,MVFR,,,,,,,,,,,,METAR,104.0
VECC 121400Z 00000KT 2800 HZ NSC 18/12 Q1015 NOSIG,VECC,2019-01-12T14:00:00Z,22.65,88.43,18.0,12.0,0,0,,1.74,29.970472,,,,,,TRUE,,,,HZ,CLR,,,,,,,,IFR,,,,,,,,,,,,METAR,6.0
MKJS 121400Z 15003KT 9999 FEW020 FEW024CB BKN032 26/20 Q1018,MKJS,2019-01-12T14:00:00Z,18.5,-77.92,26.0,20.0,150,3,,6.21,30.059055,,,,,,,,,,,FEW,2000,FEW,2400,BKN,3200,,,VFR,,,,,,,,,,,,METAR,1.0
LCPH 121400Z 13014KT 9999 FEW025 SCT030 16/09 Q1010,LCPH,2019-01-12T14:00:00Z,34.72,32.47,16.0,9.0,130,14,,6.21,29.822834,,,,,,,,,,,FEW,2500,SCT,3000,,,,,VFR,,,,,,,,,,,,METAR,8.0
LCLK 121400Z 04010KT 9999 FEW033 16/08 Q1011 NOSIG,LCLK,2019-01-12T14:00:00Z,34.87,33.62,16.0,8.0,40,10,,6.21,29.852362,,,,,,TRUE,,,,,FEW,3300,,,,,,,VFR,,,,,,,,,,,,METAR,2.0
FQCH 121400Z 12010KT 9999 SCT015 33/20 Q1010,FQCH,2019-01-12T14:00:00Z,-19.15,33.43,33.0,20.0,120,10,,6.21,29.822834,,,,,,,,,,,SCT,1500,,,,,,,VFR,,,,,,,,,,,,METAR,732.0
FQMA 121400Z 18020KT 9999 FEW020 FEW030CB 33/23 Q1004 NOSIG RMK CB TO W,FQMA,2019-01-12T14:00:00Z,-25.92,32.57,33.0,23.0,180,20,,6.21,29.64567,,,,,,TRUE,,,,,FEW,2000,FEW,3000,,,,,VFR,,,,,,,,,,,,SPECI,44.0
TLPL 121400Z 10019KT 9999 SCT027 28/21 Q1018 NOSIG,TLPL,2019-01-12T14:00:00Z,13.75,-60.95,28.0,21.0,100,19,,6.21,30.059055,,,,,,TRUE,,,,,SCT,2700,,,,,,,VFR,,,,,,,,,,,,METAR,3.0
VOBG 121400Z 06003KT 6000 FEW015 23/09 Q1017,VOBG,2019-01-12T14:00:00Z,12.95,77.63,23.0,9.0,60,3,,3.73,30.029528,,,,,,,,,,,FEW,1500,,,,,,,MVFR,,,,,,,,,,,,METAR,897.0
VABP 121400Z 04005KT 4000 HZ NSC 18/12 Q1016 NOSIG,VABP,2019-01-12T14:00:00Z,23.27,77.33,18.0,12.0,40,5,,2.49,30.0,,,,,,TRUE,,,,HZ,CLR,,,,,,,,IFR,,,,,,,,,,,,METAR,523.0
VOVZ 121400Z 11004KT 3500 HZ NSC 22/19 Q1016 NOSIG,VOVZ,2019-01-12T14:00:00Z,17.75,83.22,22.0,19.0,110,4,,2.17,30.0,,,,,,TRUE,,,,HZ,CLR,,,,,,,,IFR,,,,,,,,,,,,METAR,5.0
VORY 121400Z 10006KT 3000 HZ NSC 23/18 Q1016 NOSIG,VORY,2019-01-12T14:00:00Z,17.1,81.82,23.0,18.0,100,6,,1.86,30.0,,,,,,TRUE,,,,HZ,CLR,,,,,,,,IFR,,,,,,,,,,,,METAR,46.0
VEGT 121400Z 00000KT 2500 BR FEW020 17/14 Q1016 NOSIG,VEGT,2019-01-12T14:00:00Z,26.1,91.58,17.0,14.0,0,0,,1.55,30.0,,,,,,TRUE,,,,BR,FEW,2000,,,,,,,IFR,,,,,,,,,,,,METAR,54.0
VOTV 121400Z 30004KT 4000 HZ FEW015 29/22 Q1011 NOSIG,VOTV,2019-01-12T14:00:00Z,8.47,76.95,29.0,22.0,300,4,,2.49,29.852362,,,,,,TRUE,,,,HZ,FEW,1500,,,,,,,IFR,,,,,,,,,,,,METAR,8.0
VANP 121400Z 09003KT 2000 HZ NSC 23/17 Q1015 NOSIG,VANP,2019-01-12T14:00:00Z,21.08,79.05,23.0,17.0,90,3,,1.24,29.970472,,,,,,TRUE,,,,HZ,CLR,,,,,,,,IFR,,,,,,,,,,,,METAR,310.0
VOMM 121400Z 02004KT 5000 HZ FEW020 25/19 Q1015 NOSIG,VOMM,2019-01-12T14:00:00Z,13.0,80.17,25.0,19.0,20,4,,3.11,29.970472,,,,,,TRUE,,,,HZ,FEW,2000,,,,,,,MVFR,,,,,,,,,,,,METAR,16.0
VEAT 121400Z 00000KT 4000 BR NSC 16/14 Q1016 NOSIG,VEAT,2019-01-12T14:00:00Z,23.87,91.25,16.0,14.0,0,0,,2.49,30.0,,,,,,TRUE,,,,BR,CLR,,,,,,,,IFR,,,,,,,,,,,,METAR,16.0
OPST 121400Z 31004KT 4000 FU SCT040 SCT100 13/09 Q1018 NOSIG RH77,OPST,2019-01-12T14:00:00Z,32.53,74.37,13.0,9.0,310,4,,2.49,30.059055,,,,,,TRUE,,,,FU,SCT,4000,SCT,10000,,,,,IFR,,,,,,,,,,,,METAR,247.0
BIKF 121400Z 07004KT 0900 R19/P1500D -SN FEW002 BKN008 OVC011 00/00 Q0998,BIKF,2019-01-12T14:00:00Z,63.98,-22.6,0.0,0.0,70,4,,0.56,29.468504,,,,,,,,,,-SN,FEW,200,BKN,800,OVC,1100,,,LIFR,,,,,,,,,,,,METAR,54.0
BIEG 121400Z 33004KT 9999 FEW030 SCT050 BKN130 03/M02 Q0998 R04/790194,BIEG,2019-01-12T14:00:00Z,65.27,-14.4,3.0,-2.0,330,4,,6.21,29.468504,,,,,,,,,,,FEW,3000,SCT,5000,BKN,13000,,,VFR,,,,,,,,,,,,METAR,38.0
DAUU 121400Z 34010KT CAVOK 14/M05 Q1024,DAUU,2019-01-12T14:00:00Z,31.92,5.4,14.0,-5.0,340,10,,6.21,30.236221,,,,,,,,,,,CAVOK,,,,,,,,VFR,,,,,,,,,,,,METAR,141.0
DAUT 121400Z 02008KT CAVOK 13/M00 Q1026,DAUT,2019-01-12T14:00:00Z,29.25,0.27,13.0,0.0,20,8,,6.21,30.295275,,,,,,,,,,,CAVOK,,,,,,,,VFR,,,,,,,,,,,,METAR,312.0
DAUO 121400Z 30005KT 9999 FEW040 14/M02 Q1024,DAUO,2019-01-12T14:00:00Z,33.5,6.78,14.0,-2.0,300,5,,6.21,30.236221,,,,,,,,,,,FEW,4000,,,,,,,VFR,,,,,,,,,,,,METAR,63.0
DAUK 121400Z 36007KT CAVOK 14/01 Q1024,DAUK,2019-01-12T14:00:00Z,33.08,6.12,14.0,1.0,360,7,,6.21,30.236221,,,,,,,,,,,CAVOK,,,,,,,,VFR,,,,,,,,,,,,METAR,85.0
DAUE 121400Z 02003KT CAVOK 12/M04 Q1025,DAUE,2019-01-12T14:00:00Z,30.57,2.87,12.0,-4.0,20,3,,6.21,30.265747,,,,,,,,,,,CAVOK,,,,,,,,VFR,,,,,,,,,,,,METAR,397.0
VTSS 121400Z 06002KT 9999 FEW020 26/24 Q1012 NOSIG,VTSS,2019-01-12T14:00:00Z,6.92,100.38,26.0,24.0,60,2,,6.21,29.88189,,,,,,TRUE,,,,,FEW,2000,,,,,,,VFR,,,,,,,,,,,,METAR,35.0
VTSP 121400Z VRB03KT 7000 -RA FEW018CB SCT020 BKN100 24/23 Q1012 RETS NOSIG,VTSP,2019-01-12T14:00:00Z,8.12,98.32,24.0,23.0,0,3,,4.35,29.88189,,,,,,TRUE,,,,-RA,FEW,1800,SCT,2000,BKN,10000,,,MVFR,,,,,,,,,,,,METAR,10.0
VTSG 121400Z 00000KT 9999 SCT020 26/23 Q1012 NOSIG,VTSG,2019-01-12T14:00:00Z,8.1,98.98,26.0,23.0,0,0,,6.21,29.88189,,,,,,TRUE,,,,,SCT,2000,,,,,,,VFR,,,,,,,,,,,,METAR,25.0
VTCT 121400Z 00000KT CAVOK 21/21 Q1016 NOSIG,VTCT,2019-01-12T14:00:00Z,19.95,99.88,21.0,21.0,0,0,,6.21,30.0,,,,,,TRUE,,,,,CAVOK,,,,,,,,VFR,,,,,,,,,,,,METAR,390.0
VTCC 121400Z 10003KT 9999 FEW035 24/19 Q1017 NOSIG,VTCC,2019-01-12T14:00:00Z,18.77,98.97,24.0,19.0,100,3,,6.21,30.029528,,,,,,TRUE,,,,,FEW,3500,,,,,,,VFR,,,,,,,,,,,,METAR,314.0
VTBU 121400Z 36003KT 3000 BR FEW020 27/23 Q1012 NOSIG,VTBU,2019-01-12T14:00:00Z,12.68,101.0,27.0,23.0,360,3,,1.86,29.88189,,,,,,TRUE,,,,BR,FEW,2000,,,,,,,IFR,,,,,,,,,,,,METAR,5.0
VTBS 121400Z 36003KT 8000 NSC 29/22 Q1012 NOSIG,VTBS,2019-01-12T14:00:00Z,13.68,100.75,29.0,22.0,360,3,,4.97,29.88189,,,,,,TRUE,,,,,CLR,,,,,,,,MVFR,,,,,,,,,,,,METAR,2.0
VTBD 121400Z 34005KT 310V010 9000 NSC 30/24 Q1012 NOSIG,VTBD,2019-01-12T14:00:00Z,13.92,100.6,30.0,24.0,340,5,,5.59,29.88189,,,,,,TRUE,,,,,CLR,,,,,,,,VFR,,,,,,,,,,,,METAR,3.0
VOKN 121400Z VRB02KT 4000 BR FEW015 28/24 Q1012 TEMPO 3000 BR,VOKN,2019-01-12T14:00:00Z,11.92,75.55,28.0,24.0,0,2,,2.49,29.88189,,,,,,,,,,BR,FEW,1500,,,,,,,IFR,,,,,,,,,,,,METAR,105.0
VAUD 121400Z 00000KT 4000 HZ NSC 17/09 Q1016 NOSIG,VAUD,2019-01-12T14:00:00Z,24.6,73.9,17.0,9.0,0,0,,2.49,30.0,,,,,,TRUE,,,,HZ,CLR,,,,,,,,IFR,,,,,,,,,,,,METAR,514.0
TAPA 121400Z VRB01KT 9999 -SHRA FEW016CB SCT018 BKN036 23/21 Q1019 TEMPO SHRA,TAPA,2019-01-12T14:00:00Z,17.12,-61.78,23.0,21.0,0,1,,6.21,30.088583,,,,,,,,,,-SHRA,FEW,1600,SCT,1800,BKN,3600,,,VFR,,,,,,,,,,,,METAR,14.0
VVDN 121400Z VRB02KT 6000 FEW013 SCT050 25/23 Q1018 NOSIG,VVDN,2019-01-12T14:00:00Z,16.02,108.2,25.0,23.0,0,2,,3.73,30.059055,,,,,,TRUE,,,,,FEW,1300,SCT,5000,,,,,MVFR,,,,,,,,,,,,METAR,7.0
VVTS 121400Z 11004KT 080V150 9999 FEW017 BKN050 28/22 Q1012 NOSIG,VVTS,2019-01-12T14:00:00Z,10.82,106.67,28.0,22.0,110,4,,6.21,29.88189,,,,,,TRUE,,,,,FEW,1700,BKN,5000,,,,,VFR,,,,,,,,,,,,METAR,19.0
VVPQ 121400Z 10009KT 9999 FEW017 SCT040 28/22 Q1012 NOSIG,VVPQ,2019-01-12T14:00:00Z,10.23,103.97,28.0,22.0,100,9,,6.21,29.88189,,,,,,TRUE,,,,,FEW,1700,SCT,4000,,,,,VFR,,,,,,,,,,,,METAR,4.0
VVPB 121400Z 05006KT 9999 SCT017 BKN040 24/23 Q1018 NOSIG,VVPB,2019-01-12T14:00:00Z,16.38,107.7,24.0,23.0,50,6,,6.21,30.059055,,,,,,TRUE,,,,,SCT,1700,BKN,4000,,,,,VFR,,,,,,,,,,,,METAR,17.0
VVNB 121400Z 10005KT 3900 BR SCT009 BKN023 20/20 Q1018 NOSIG,VVNB,2019-01-12T14:00:00Z,21.22,105.8,20.0,20.0,100,5,,2.42,30.059055,,,,,,TRUE,,,,BR,SCT,900,BKN,2300,,,,,IFR,,,,,,,,,,,,METAR,12.0
VVCT 121400Z 10006KT 060V120 9999 FEW015 BKN050 27/21 Q1012 NOSIG,VVCT,2019-01-12T14:00:00Z,10.08,105.72,27.0,21.0,100,6,,6.21,29.88189,,,,,,TRUE,,,,,FEW,1500,BKN,5000,,,,,VFR,,,,,,,,,,,,METAR,3.0
VVCR 121400Z 04010KT 9999 FEW015 27/22 Q1016 NOSIG,VVCR,2019-01-12T14:00:00Z,12.0,109.22,27.0,22.0,40,10,,6.21,30.0,,,,,,TRUE,,,,,FEW,1500,,,,,,,VFR,,,,,,,,,,,,METAR,12.0
VVCI 121400Z 12008KT 9999 SCT005 BKN010 20/19 Q1018 NOSIG,VVCI,2019-01-12T14:00:00Z,20.82,106.73,20.0,19.0,120,8,,6.21,30.059055,,,,,,TRUE,,,,,SCT,500,BKN,1000,,,,,MVFR,,,,,,,,,,,,METAR,3.0
VYYY 121400Z 30003KT 7000 FEW020 SCT250 27/24 Q1013,VYYY,2019-01-12T14:00:00Z,16.9,96.13,27.0,24.0,300,3,,4.35,29.911417,,,,,,,,,,,FEW,2000,SCT,25000,,,,,MVFR,,,,,,,,,,,,METAR,33.0
VLVT 121400Z 00000KT 3000 BR NSC 24/21 Q1014 NOSIG,VLVT,2019-01-12T14:00:00Z,17.98,102.57,24.0,21.0,0,0,,1.86,29.940945,,,,,,TRUE,,,,BR,CLR,,,,,,,,IFR,,,,,,,,,,,,METAR,171.0
VDSV 121400Z 07003KT 9000 SCT015 SCT040 27/24 Q1013,VDSV,2019-01-12T14:00:00Z,10.58,103.63,27.0,24.0,70,3,,5.59,29.911417,,,,,,,,,,,SCT,1500,SCT,4000,,,,,VFR,,,,,,,,,,,,METAR,10.0
VDSR 121400Z 02003KT 9000 FEW017 27/22 Q1011,VDSR,2019-01-12T14:00:00Z,13.42,103.83,27.0,22.0,20,3,,5.59,29.852362,,,,,,,,,,,FEW,1700,,,,,,,VFR,,,,,,,,,,,,METAR,15.0
VDPP 121400Z 17003KT 9000 SCT017 SCT040 30/23 Q1011,VDPP,2019-01-12T14:00:00Z,11.55,104.83,30.0,23.0,170,3,,5.59,29.852362,,,,,,,,,,,SCT,1700,SCT,4000,,,,,VFR,,,,,,,,,,,,METAR,10.0
TVSM 121400Z 10009KT 9999 SCT018 29/20 Q1018 NOSIG ,TVSM,2019-01-12T14:00:00Z,12.88,-61.18,29.0,20.0,100,9,,6.21,30.059055,,,,,,TRUE,,,,,SCT,1800,,,,,,,VFR,,,,,,,,,,,,METAR,2.0
TVSA 121400Z 09004KT 050V140 9999 BKN020 27/21 Q1018 NOSIG ,TVSA,2019-01-12T14:00:00Z,13.15,-61.15,27.0,21.0,90,4,,6.21,30.059055,,,,,,TRUE,,,,,BKN,2000,,,,,,,MVFR,,,,,,,,,,,,METAR,17.0
TVSC 121400Z 08017KT 9999 SCT018 27/20 Q1019 NOSIG ,TVSC,2019-01-12T14:00:00Z,12.7,-61.35,27.0,20.0,80,17,,6.21,30.088583,,,,,,TRUE,,,,,SCT,1800,,,,,,,VFR,,,,,,,,,,,,METAR,4.0
EIWF 121400Z 34016KT 310V010 9999 FEW012 10/07 Q1026,EIWF,2019-01-12T14:00:00Z,52.18,-7.08,10.0,7.0,340,16,,6.21,30.295275,,,,,,,,,,,FEW,1200,,,,,,,VFR,,,,,,,,,,,,METAR,36.0
EIME 121400Z 26021KT 9999 -DZ FEW009 OVC010 09/07 Q1024,EIME,2019-01-12T14:00:00Z,53.3,-6.45,9.0,7.0,260,21,,6.21,30.236221,,,,,,,,,,-DZ,FEW,900,OVC,1000,,,,,MVFR,,,,,,,,,,,,METAR,93.0
EIKY 121400Z 31011KT 270V340 9999 BKN008 OVC011 10/09 Q1030,EIKY,2019-01-12T14:00:00Z,52.18,-9.52,10.0,9.0,310,11,,6.21,30.413385,,,,,,,,,,,BKN,800,OVC,1100,,,,,IFR,,,,,,,,,,,,METAR,34.0
NFNA 121400Z 00000KT 9999 FEW020 24/24 Q1007,NFNA,2019-01-12T14:00:00Z,-18.05,178.57,24.0,24.0,0,0,,6.21,29.734253,,,,,,,,,,,FEW,2000,,,,,,,VFR,,,,,,,,,,,,METAR,5.0
FNCA 121400Z 23007KT 9999 FEW010 SCT020 BKN080 29/24 Q1009,FNCA,2019-01-12T14:00:00Z,-5.58,12.18,29.0,24.0,230,7,,6.21,29.793306,,,,,,,,,,,FEW,1000,SCT,2000,BKN,8000,,,VFR,,,,,,,,,,,,METAR,20.0
EICK 121400Z 29014KT 9999 BKN012 10/07 Q1028 NOSIG,EICK,2019-01-12T14:00:00Z,51.85,-8.47,10.0,7.0,290,14,,6.21,30.35433,,,,,,TRUE,,,,,BKN,1200,,,,,,,MVFR,,,,,,,,,,,,METAR,162.0
EINN 121400Z 27012KT 8000 -DZ SCT005 BKN008 10/09 Q1028 NOSIG,EINN,2019-01-12T14:00:00Z,52.7,-8.92,10.0,9.0,270,12,,4.97,30.35433,,,,,,TRUE,,,,-DZ,SCT,500,BKN,800,,,,,IFR,,,,,,,,,,,,METAR,20.0
EIDW 121400Z 27016KT 9999 SCT010 BKN015 09/07 Q1023 NOSIG,EIDW,2019-01-12T14:00:00Z,53.42,-6.25,9.0,7.0,270,16,,6.21,30.206694,,,,,,TRUE,,,,,SCT,1000,BKN,1500,,,,,MVFR,,,,,,,,,,,,METAR,85.0
RPVM 121400Z 01008KT 9999 FEW020 26/23 Q1013 RMK A2991,RPVM,2019-01-12T14:00:00Z,10.32,123.98,26.0,23.0,10,8,,6.21,29.911417,,,,,,,,,,,FEW,2000,,,,,,,VFR,,,,,,,,,,,,METAR,10.0
RPLB 121400Z 06007KT 9999 FEW020 BKN080 26/20 Q1014 NOSIG RMK A2994,RPLB,2019-01-12T14:00:00Z,14.8,120.27,26.0,20.0,60,7,,6.21,29.940945,,,,,,TRUE,,,,,FEW,2000,BKN,8000,,,,,VFR,,,,,,,,,,,,METAR,17.0
RPLL 121400Z 08004KT 9999 SCT023 BKN090 28/21 Q1014 NOSIG RMK A2994,RPLL,2019-01-12T14:00:00Z,14.52,121.0,28.0,21.0,80,4,,6.21,29.940945,,,,,,TRUE,,,,,SCT,2300,BKN,9000,,,,,VFR,,,,,,,,,,,,METAR,21.0
LYBE 121400Z 26011KT 1500 -SN BR SCT015 OVC025 M01/M02 Q1017 R12/1///95 NOSIG,LYBE,2019-01-12T14:00:00Z,44.82,20.28,-1.0,-2.0,260,11,,0.93,30.029528,,,,,,TRUE,,,,-SN BR,SCT,1500,OVC,2500,,,,,LIFR,,,,,,,,,,,,METAR,99.0
EIKN 121400Z 27015KT 9999 BKN009 BKN023 09/08 Q1025 NOSIG,EIKN,2019-01-12T14:00:00Z,53.92,-8.82,9.0,8.0,270,15,,6.21,30.265747,,,,,,TRUE,,,,,BKN,900,BKN,2300,,,,,IFR,,,,,,,,,,,,METAR,64.0
LYKV 121400Z 00000KT 9999 BKN040 01/M06 Q1017 R14/////// NOSIG,LYKV,2019-01-12T14:00:00Z,43.82,20.58,1.0,-6.0,0,0,,6.21,30.029528,,,,,,TRUE,,,,,BKN,4000,,,,,,,VFR,,,,,,,,,,,,METAR,209.0
LYBT 121400Z 23010KT 3000 -SN BR SCT010 OVC023 M01/M02 Q1017 RESN R12/////// NOSIG,LYBT,2019-01-12T14:00:00Z,44.93,20.25,-1.0,-2.0,230,10,,1.86,30.029528,,,,,,TRUE,,,,-SN BR,SCT,1000,OVC,2300,,,,,IFR,,,,,,,,,,,,METAR,80.0
LYNI 121400Z VRB01KT 3000 BR BKN040 M01/M03 Q1017 R11/1///95 NOSIG,LYNI,2019-01-12T14:00:00Z,43.32,21.88,-1.0,-3.0,0,1,,1.86,30.029528,,,,,,TRUE,,,,BR,BKN,4000,,,,,,,IFR,,,,,,,,,,,,METAR,202.0
LYPG 121400Z 35005KT CAVOK 06/M07 Q1013 NOSIG,LYPG,2019-01-12T14:00:00Z,42.37,19.25,6.0,-7.0,350,5,,6.21,29.911417,,,,,,TRUE,,,,,CAVOK,,,,,,,,VFR,,,,,,,,,,,,METAR,43.0
LYVR 121400Z 17005KT 5000 BR BKN006 M02/M03 Q1017 R01/////// NOSIG,LYVR,2019-01-12T14:00:00Z,45.13,21.32,-2.0,-3.0,170,5,,3.11,30.029528,,,,,,TRUE,,,,BR,BKN,600,,,,,,,IFR,,,,,,,,,,,,METAR,85.0
LYUZ 121400Z 27004KT 8000 OVC017 M06/M07 Q1013,LYUZ,2019-01-12T14:00:00Z,43.9,19.7,-6.0,-7.0,270,4,,4.97,29.911417,,,,,,,,,,,OVC,1700,,,,,,,MVFR,,,,,,,,,,,,METAR,904.0
LYTV 121400Z 01007G18KT CAVOK 11/M09 Q1012 NOSIG,LYTV,2019-01-12T14:00:00Z,42.38,18.72,11.0,-9.0,10,7,18,6.21,29.88189,,,,,,TRUE,,,,,CAVOK,,,,,,,,VFR,,,,,,,,,,,,METAR,5.0
BIRK 121400Z 05005KT 2000 -SN BR SCT007 OVC015 00/M01 Q0998 R19/11175,BIRK,2019-01-12T14:00:00Z,64.13,-21.93,0.0,-1.0,50,5,,1.24,29.468504,,,,,,,,,,-SN BR,SCT,700,OVC,1500,,,,,IFR,,,,,,,,,,,,METAR,61.0
SBES 121400Z 05013KT 9999 FEW025 31/21 Q1016,SBES,2019-01-12T14:00:00Z,-22.82,-42.1,31.0,21.0,50,13,,6.21,30.0,,,,,,,,,,,FEW,2500,,,,,,,VFR,,,,,,,,,,,,METAR,11.0
SBBU 121400Z 11004KT 9999 FEW030 30/22 Q1019,SBBU,2019-01-12T14:00:00Z,-22.32,-49.07,30.0,22.0,110,4,,6.21,30.088583,,,,,,,,,,,FEW,3000,,,,,,,VFR,,,,,,,,,,,,METAR,590.0
SBBQ 121400Z 04005KT 9999 BKN040 27/16 Q1023,SBBQ,2019-01-12T14:00:00Z,-21.25,-43.77,27.0,16.0,40,5,,6.21,30.206694,,,,,,,,,,,BKN,4000,,,,,,,VFR,,,,,,,,,,,,METAR,1171.0
SBBH 121400Z 06006KT 9999 FEW030 29/17 Q1020,SBBH,2019-01-12T14:00:00Z,-19.85,-43.95,29.0,17.0,60,6,,6.21,30.11811,,,,,,,,,,,FEW,3000,,,,,,,VFR,,,,,,,,,,,,METAR,785.0
SBAF 121400Z 09003KT 9999 SCT030 33/22 Q1015,SBAF,2019-01-12T14:00:00Z,-22.87,-43.37,33.0,22.0,90,3,,6.21,29.970472,,,,,,,,,,,SCT,3000,,,,,,,VFR,,,,,,,,,,,,METAR,34.0
SBSM 121400Z 11009KT 080V150 9999 BKN013 SCT018 BKN100 24/22 Q1015,SBSM,2019-01-12T14:00:00Z,-29.72,-53.7,24.0,22.0,110,9,,6.21,29.970472,,,,,,,,,,,BKN,1300,SCT,1800,BKN,10000,,,MVFR,,,,,,,,,,,,METAR,85.0
SBPG 121400Z 12004KT CAVOK 26/20 Q1019,SBPG,2019-01-12T14:00:00Z,-25.52,-48.52,26.0,20.0,120,4,,6.21,30.088583,,,,,,,,,,,CAVOK,,,,,,,,VFR,,,,,,,,,,,,METAR,4.0
SBJV 121400Z 12005KT 9999 SCT020 30/26 Q1017,SBJV,2019-01-12T14:00:00Z,-26.22,-48.8,30.0,26.0,120,5,,6.21,30.029528,,,,,,,,,,,SCT,2000,,,,,,,VFR,,,,,,,,,,,,METAR,4.0
SBCX 121400Z 03004KT 9999 FEW010 OVC077 25/20 Q1020,SBCX,2019-01-12T14:00:00Z,-29.2,-51.18,25.0,20.0,30,4,,6.21,30.11811,,,,,,,,,,,FEW,1000,OVC,7700,,,,,VFR,,,,,,,,,,,,METAR,754.0
SBCO 121400Z 11014KT 9999 FEW019 26/21 Q1016,SBCO,2019-01-12T14:00:00Z,-29.95,-51.15,26.0,21.0,110,14,,6.21,30.0,,,,,,,,,,,FEW,1900,,,,,,,VFR,,,,,,,,,,,,METAR,47.0
SBBI 121400Z 04005KT 9999 BKN030 BKN100 25/18 Q1022,SBBI,2019-01-12T14:00:00Z,-25.4,-49.23,25.0,18.0,40,5,,6.21,30.177166,,,,,,,,,,,BKN,3000,BKN,10000,,,,,MVFR,,,,,,,,,,,,METAR,923.0
SBVH 121400Z 07007KT 040V100 9999 FEW008 SCT033 25/22 Q1017,SBVH,2019-01-12T14:00:00Z,-12.72,-60.12,25.0,22.0,70,7,,6.21,30.029528,,,,,,,,,,,FEW,800,SCT,3300,,,,,VFR,,,,,,,,,,,,METAR,652.0
SBOI 121400Z 02009KT 9999 SCT015 BKN060 27/24 Q1015,SBOI,2019-01-12T14:00:00Z,3.85,-51.82,27.0,24.0,20,9,,6.21,29.970472,,,,,,,,,,,SCT,1500,BKN,6000,,,,,VFR,,,,,,,,,,,,METAR,39.0
SBLB 121400Z /////KT 9999 FEW010 ///// Q1017 W///S3,SBLB,2019-01-12T14:00:00Z,-22.1,-39.92,,,,,,6.21,30.029528,,,,,,,,,,,FEW,1000,,,,,,,VFR,,,,,,,,,,,,SPECI,10.0
SBIZ 121400Z 12006KT 9999 SCT020 SCT100 29/24 Q1015,SBIZ,2019-01-12T14:00:00Z,-5.52,-47.45,29.0,24.0,120,6,,6.21,29.970472,,,,,,,,,,,SCT,2000,SCT,10000,,,,,VFR,,,,,,,,,,,,METAR,123.0
SBIH 121400Z 08009KT 9999 SCT017 30/22 Q1014,SBIH,2019-01-12T14:00:00Z,-4.25,-56.0,30.0,22.0,80,9,,6.21,29.940945,,,,,,,,,,,SCT,1700,,,,,,,VFR,,,,,,,,,,,,METAR,34.0
SBHT 121400Z 06006KT 9999 BKN015 29/23 Q1014,SBHT,2019-01-12T14:00:00Z,-3.25,-52.27,29.0,23.0,60,6,,6.21,29.940945,,,,,,,,,,,BKN,1500,,,,,,,MVFR,,,,,,,,,,,,METAR,74.0
SBGM 121400Z 08003KT 9999 -RA SCT005 BKN020 BKN070 24/23 Q1015,SBGM,2019-01-12T14:00:00Z,-10.78,-65.28,24.0,23.0,80,3,,6.21,29.970472,,,,,,,,,,-RA,SCT,500,BKN,2000,BKN,7000,,,MVFR,,,,,,,,,,,,METAR,146.0
SBCC 121400Z 30003KT 260V010 9999 FEW015 SCT030 BKN100 23/21 Q1016,SBCC,2019-01-12T14:00:00Z,-9.32,-54.95,23.0,21.0,300,3,,6.21,30.0,,,,,,,,,,,FEW,1500,SCT,3000,BKN,10000,,,VFR,,,,,,,,,,,,METAR,536.0
CYZE 121400Z AUTO 06010KT 9SM CLR M14/M17 A3059 RMK SLP375,CYZE,2019-01-12T14:00:00Z,45.87,-82.57,-14.0,-17.0,60,10,,9.0,30.590551,1037.5,,TRUE,,,,,,,,CLR,,,,,,,,VFR,,,,,,,,,,,,SPECI,193.0
OERK 121400Z 16006KT 9000 FEW040 BKN180 20/M03 Q1020 NOSIG,OERK,2019-01-12T14:00:00Z,24.95,46.72,20.0,-3.0,160,6,,5.59,30.11811,,,,,,TRUE,,,,,FEW,4000,BKN,18000,,,,,VFR,,,,,,,,,,,,METAR,612.0
OEMA 121400Z 22005KT 9000 SKC 29/05 Q1012 NOSIG,OEMA,2019-01-12T14:00:00Z,24.55,39.7,29.0,5.0,220,5,,5.59,29.88189,,,,,,TRUE,,,,,SKC,,,,,,,,VFR,,,,,,,,,,,,METAR,631.0
OEJN 121400Z 21009KT CAVOK 28/20 Q1011 NOSIG,OEJN,2019-01-12T14:00:00Z,21.68,39.15,28.0,20.0,210,9,,6.21,29.852362,,,,,,TRUE,,,,,CAVOK,,,,,,,,VFR,,,,,,,,,,,,METAR,15.0
MPMG 121400Z 32006KT CAVOK 26/21 Q1015 NOSIG,MPMG,2019-01-12T14:00:00Z,8.98,-79.57,26.0,21.0,320,6,,6.21,29.970472,,,,,,TRUE,,,,,CAVOK,,,,,,,,VFR,,,,,,,,,,,,METAR,13.0
MPDA 121400Z VRB02KT 9999 FEW020 25/21 Q1013,MPDA,2019-01-12T14:00:00Z,8.4,-82.43,25.0,21.0,0,2,,6.21,29.911417,,,,,,,,,,,FEW,2000,,,,,,,VFR,,,,,,,,,,,,METAR,27.0
MPPA 121400Z 35005KT 9999 FEW018 27/21 Q1014,MPPA,2019-01-12T14:00:00Z,8.92,-79.6,27.0,21.0,350,5,,6.21,29.940945,,,,,,,,,,,FEW,1800,,,,,,,VFR,,,,,,,,,,,,METAR,13.0
MPTO 121400Z 04003KT 9999 FEW018 27/20 Q1014 NOSIG,MPTO,2019-01-12T14:00:00Z,9.05,-79.37,27.0,20.0,40,3,,6.21,29.940945,,,,,,TRUE,,,,,FEW,1800,,,,,,,VFR,,,,,,,,,,,,METAR,45.0
KEXX 121400Z AUTO 00000KT 10SM SCT110 02/M06 A3045 RMK AO2 T00201064,KEXX,2019-01-12T14:00:00Z,35.78,-80.3,2.0,-6.4,0,0,,10.0,30.448818,,,TRUE,TRUE,,,,,,,SCT,11000,,,,,,,VFR,,,,,,,,,,,,SPECI,223.0
KDMW 121400Z AUTO 13004KT 10SM CLR M03/M15 A3050 RMK AO2,KDMW,2019-01-12T14:00:00Z,39.6,-77.0,-3.0,-15.0,130,4,,10.0,30.499016,,,TRUE,TRUE,,,,,,,CLR,,,,,,,,VFR,,,,,,,,,,,,SPECI,241.0
KCTZ 121400Z AUTO 03003KT 10SM BKN034 03/M03 A3048 RMK AO2 T00251034,KCTZ,2019-01-12T14:00:00Z,34.98,-78.37,2.5,-3.4,30,3,,10.0,30.481298,,,TRUE,TRUE,,,,,,,BKN,3400,,,,,,,VFR,,,,,,,,,,,,SPECI,45.0
KCPC 121400Z AUTO 03004KT 10SM BKN037 03/M04 A3046 RMK AO2 T00271036,KCPC,2019-01-12T14:00:00Z,34.28,-78.72,2.7,-3.6,30,4,,10.0,30.46063,,,TRUE,TRUE,,,,,,,BKN,3700,,,,,,,VFR,,,,,,,,,,,,SPECI,29.0
KCGE 121400Z AUTO 09005KT 10SM CLR M01/M09 A3055 RMK A01,KCGE,2019-01-12T14:00:00Z,38.53,-76.03,-1.0,-9.0,90,5,,10.0,30.549213,,,TRUE,TRUE,,,,,,,CLR,,,,,,,,VFR,,,,,,,,,,,,SPECI,6.0
KCBE 121400Z AUTO 36003KT 10SM OVC090 M04/M09 A3052 RMK AO2 T10401085,KCBE,2019-01-12T14:00:00Z,39.62,-78.77,-4.0,-8.5,360,3,,10.0,30.519686,,,TRUE,TRUE,,,,,,,OVC,9000,,,,,,,VFR,,,,,,,,,,,,SPECI,236.0
KAFP 121400Z AUTO 00000KT 10SM OVC110 02/M04 A3046 RMK AO2 T00211042,KAFP,2019-01-12T14:00:00Z,35.02,-80.08,2.1,-4.2,0,0,,10.0,30.46063,,,TRUE,TRUE,,,,,,,OVC,11000,,,,,,,VFR,,,,,,,,,,,,SPECI,92.0
EISG 121400Z 27019KT 8000 OVC012 10/09 Q1024,EISG,2019-01-12T14:00:00Z,54.28,-8.6,10.0,9.0,270,19,,4.97,30.236221,,,,,,,,,,,OVC,1200,,,,,,,MVFR,,,,,,,,,,,,METAR,3.0
FAOB 121400Z AUTO 30017G27KT //// // ////// 26/08 Q1005,FAOB,2019-01-12T14:00:00Z,-34.6,20.27,26.0,8.0,300,17,27,,29.675198,,,TRUE,,,,,,,,,,,,,,,,,,,,,,,,,,,,METAR,75.0
FALW 121400Z AUTO 30007KT //// // ////// 24/11 Q1009,FALW,2019-01-12T14:00:00Z,-32.97,18.17,24.0,11.0,300,7,,,29.793306,,,TRUE,,,,,,,,,,,,,,,,,,,,,,,,,,,,METAR,0.0
FABL 121400Z 28012KT 240V300 CAVOK 33/M04 Q1012 NOSIG,FABL,2019-01-12T14:00:00Z,-29.1,26.3,33.0,-4.0,280,12,,6.21,29.88189,,,,,,TRUE,,,,,CAVOK,,,,,,,,VFR,,,,,,,,,,,,METAR,1348.0
FMSD 121400Z 06012KT 9999 FEW020CB BKN040 29/26 Q1008,FMSD,2019-01-12T14:00:00Z,-25.02,46.95,29.0,26.0,60,12,,6.21,29.763779,,,,,,,,,,,FEW,2000,BKN,4000,,,,,VFR,,,,,,,,,,,,METAR,9.0
FMNM 121400Z 32008KT 9999 FEW020CB 31/24 Q1009 NOSIG,FMNM,2019-01-12T14:00:00Z,-15.67,46.35,31.0,24.0,320,8,,6.21,29.793306,,,,,,TRUE,,,,,FEW,2000,,,,,,,VFR,,,,,,,,,,,,METAR,18.0
FMCH 121400Z 33006KT 9999 SCT020CB SCT030 29/26 Q1010 NOSIG,FMCH,2019-01-12T14:00:00Z,-11.52,43.27,29.0,26.0,330,6,,6.21,29.822834,,,,,,TRUE,,,,,SCT,2000,SCT,3000,,,,,VFR,,,,,,,,,,,,METAR,29.0
CWNZ 121400Z AUTO 32001KT M28/M30 RMK AO1 SOG 46 3020 SLP406 T12801295,CWNZ,2019-01-12T14:00:00Z,49.75,-84.17,-28.0,-29.5,320,1,,,,1040.6,,TRUE,TRUE,,,,,,,,,,,,,,,,,,,,,,,,,,,METAR,256.0
CWNC 121400Z AUTO 05005KT M10/M17 RMK AO1 SLP358 T10981173 53021,CWNC,2019-01-12T14:00:00Z,43.95,-78.17,-9.8,-17.3,50,5,,,,1035.8,,TRUE,TRUE,,,,,,,,,,,,,,,,2.1,,,,,,,,,,,METAR,78.0
CWWB 121400Z AUTO 36009KT M05/M11 RMK AO1 SLP346 T10471108 53017,CWWB,2019-01-12T14:00:00Z,43.3,-79.78,-4.7,-10.8,360,9,,,,1034.6,,TRUE,TRUE,,,,,,,,,,,,,,,,1.7,,,,,,,,,,,METAR,76.0
CWDV 121400Z AUTO 10001KT M21/M23 RMK AO1 SOG 44 3017 SLP380 T12091231,CWDV,2019-01-12T14:00:00Z,49.02,-90.47,-20.9,-23.1,100,1,,,,1038.0,,TRUE,TRUE,,,,,,,,,,,,,,,,,,,,,,,,,,,METAR,489.0
CWDQ 121400Z AUTO 08001KT M26/M28 RMK AO1 SOG 48 3021 SLP322 T12621275,CWDQ,2019-01-12T14:00:00Z,47.42,-72.78,-26.2,-27.5,80,1,,,,1032.2,,TRUE,TRUE,,,,,,,,,,,,,,,,,,,,,,,,,,,METAR,169.0
CWWZ 121400Z AUTO 12008KT M05/M10 RMK AO1 SOG 02 3018 SLP351 T10461099,CWWZ,2019-01-12T14:00:00Z,43.25,-79.22,-4.6,-9.9,120,8,,,,1035.1,,TRUE,TRUE,,,,,,,,,,,,,,,,,,,,,,,,,,,METAR,79.0
CWPO 121400Z AUTO 11003KT M12/M13 RMK AO1 SLP339 T11171133 55001,CWPO,2019-01-12T14:00:00Z,49.2,-98.9,-11.7,-13.3,110,3,,,,1033.9,,TRUE,TRUE,,,,,,,,,,,,,,,,-0.1,,,,,,,,,,,METAR,470.0
CWPC 121400Z AUTO 08008KT M06/M12 RMK AO1 SLP347 T10581122 53017,CWPC,2019-01-12T14:00:00Z,42.87,-79.25,-5.8,-12.2,80,8,,,,1034.7,,TRUE,TRUE,,,,,,,,,,,,,,,,1.7,,,,,,,,,,,METAR,184.0
CWLS 121400Z AUTO 11004KT M08/M11 RMK AO1 SOG 11 3014 SLP341 T10821110,CWLS,2019-01-12T14:00:00Z,43.97,-80.75,-8.2,-11.0,110,4,,,,1034.1,,TRUE,TRUE,,,,,,,,,,,,,,,,,,,,,,,,,,,METAR,415.0
CWBE 121400Z AUTO 05002KT M15/M20 RMK AO1 SLP391 T11451203 51022,CWBE,2019-01-12T14:00:00Z,45.98,-81.48,-14.5,-20.3,50,2,,,,1039.1,,TRUE,TRUE,,,,,,,,,,,,,,,,2.2,,,,,,,,,,,METAR,196.0
CTCK 121400Z AUTO 26005KT M18/M21 RMK AO1 SOG 07 3022 SLP367 T11771214,CTCK,2019-01-12T14:00:00Z,45.25,-74.97,-17.7,-21.4,260,5,,,,1036.7,,TRUE,TRUE,,,,,,,,,,,,,,,,,,,,,,,,,,,METAR,85.0
SBFS 121400Z /////KT 9999 FEW020 ///// Q////,SBFS,2019-01-12T14:00:00Z,-22.02,-41.07,,,,,,6.21,,,,,,,,,,,,FEW,2000,,,,,,,VFR,,,,,,,,,,,,METAR,3.0
SBPC 121400Z 07003KT 9999 SCT015 29/21 Q1023,SBPC,2019-01-12T14:00:00Z,-21.85,-46.57,29.0,21.0,70,3,,6.21,30.206694,,,,,,,,,,,SCT,1500,,,,,,,VFR,,,,,,,,,,,,METAR,1260.0
SBMT 121400Z 14004KT 9999 SCT040 28/19 Q1020,SBMT,2019-01-12T14:00:00Z,-23.52,-46.62,28.0,19.0,140,4,,6.21,30.11811,,,,,,,,,,,SCT,4000,,,,,,,VFR,,,,,,,,,,,,METAR,722.0
SBMK 121400Z 10008KT 9999 BKN045 29/16 Q1018,SBMK,2019-01-12T14:00:00Z,-16.7,-43.82,29.0,16.0,100,8,,6.21,30.059055,,,,,,,,,,,BKN,4500,,,,,,,VFR,,,,,,,,,,,,METAR,646.0
SBME 121400Z 11008KT 9999 SCT025 31/24 Q1016,SBME,2019-01-12T14:00:00Z,-22.35,-41.77,31.0,24.0,110,8,,6.21,30.0,,,,,,,,,,,SCT,2500,,,,,,,VFR,,,,,,,,,,,,METAR,2.0
SBLS 121400Z 16010KT 120V210 9999 SCT025 27/17 Q1020,SBLS,2019-01-12T14:00:00Z,-19.67,-43.88,27.0,17.0,160,10,,6.21,30.11811,,,,,,,,,,,SCT,2500,,,,,,,VFR,,,,,,,,,,,,METAR,852.0
SBJR 121400Z 20005KT 9999 FEW025 32/25 Q1015,SBJR,2019-01-12T14:00:00Z,-22.97,-43.37,32.0,25.0,200,5,,6.21,29.970472,,,,,,,,,,,FEW,2500,,,,,,,VFR,,,,,,,,,,,,METAR,3.0
CXNP 121400Z AUTO 25013KT M14/M19 RMK AO1 SOG 09 1020 PK WND 24018/1336 SLP195 T11411189,CXNP,2019-01-12T14:00:00Z,45.75,-64.23,-14.1,-18.9,250,13,,,,1019.5,,TRUE,TRUE,,,,,,,,,,,,,,,,,,,,,,,,,,,METAR,20.0
CAHR 121400Z AUTO 24012G17KT M15/M18 RMK AO1 SOG 37 1017 PK WND 24017/1351 SLP170 T11501184,CAHR,2019-01-12T14:00:00Z,46.35,-63.17,-15.0,-18.4,240,12,17,,,1017.0,,TRUE,TRUE,,,,,,,,,,,,,,,,,,,,,,,,,,,METAR,53.0
CWSP 121400Z AUTO 10012KT 08/04 RMK AO1 SLP129 T00820039 58006,CWSP,2019-01-12T14:00:00Z,48.38,-123.92,8.2,3.9,100,12,,,,1012.9,,TRUE,TRUE,,,,,,,,,,,,,,,,-0.6,,,,,,,,,,,METAR,21.0
CWSL 121400Z AUTO 19002KT M05/M05 RMK AO1 SOG 14 3002 SLP236 T10521052,CWSL,2019-01-12T14:00:00Z,50.7,-119.27,-5.2,-5.2,190,2,,,,1023.6,,TRUE,TRUE,,,,,,,,,,,,,,,,,,,,,,,,,,,METAR,351.0
CWFJ 121400Z AUTO 15002KT M03/M11 RMK AO1 T10301107,CWFJ,2019-01-12T14:00:00Z,49.2,-113.27,-3.0,-10.7,150,2,,,,,,TRUE,TRUE,,,,,,,,,,,,,,,,,,,,,,,,,,,METAR,1136.0
CXMY 121400Z AUTO M10/M15 RMK AO1 T10951150,CXMY,2019-01-12T14:00:00Z,44.98,-62.48,-9.5,-15.0,,,,,,,,TRUE,TRUE,,,,,,,,,,,,,,,,,,,,,,,,,,,METAR,40.0
CWRA 121400Z AUTO 22015KT RMK AO1 PK WND 21019/1351 51014,CWRA,2019-01-12T14:00:00Z,46.63,-53.07,,,220,15,,,,,,TRUE,TRUE,,,,,,,,,,,,,,,,1.4,,,,,,,,,,,METAR,28.0
CWDO 121400Z AUTO 21011G17KT M03/M05 RMK AO1 SOG 02 1008 PK WND 21018/1321 SLP130 T10271046 50006,CWDO,2019-01-12T14:00:00Z,49.67,-54.78,-2.7,-4.6,210,11,17,,,1013.0,,TRUE,TRUE,,,,,,,,,,,,,,,,0.6,,,,,,,,,,,METAR,92.0
CWDM 121400Z AUTO 21016KT M03/M04 RMK AO1 SOG 23 1018 PK WND 20021/1314 SLP090 T10341035,CWDM,2019-01-12T14:00:00Z,50.47,-59.62,-3.4,-3.5,210,16,,,,1009.0,,TRUE,TRUE,,,,,,,,,,,,,,,,,,,,,,,,,,,METAR,6.0
CXSE 121400Z AUTO 12001KT M44/M49 RMK AO1 SOG 44 6012 SLP309 T14381486,CXSE,2019-01-12T14:00:00Z,73.77,-105.28,-43.8,-48.6,120,1,,,,1030.9,,TRUE,TRUE,,,,,,,,,,,,,,,,,,,,,,,,,,,METAR,11.0
SBIL 121400Z 07011G29KT 9999 SCT020 FEW030TCU SCT080 27/23 Q1015,SBIL,2019-01-12T14:00:00Z,-14.8,-39.02,27.0,23.0,70,11,29,6.21,29.970472,,,,,,,,,,,SCT,2000,FEW,3000,SCT,8000,,,VFR,,,,,,,,,,,,METAR,5.0
SBYS 121400Z 09004KT 040V170 9999 FEW035 29/20 Q1019,SBYS,2019-01-12T14:00:00Z,-21.97,-47.32,29.0,20.0,90,4,,6.21,30.088583,,,,,,,,,,,FEW,3500,,,,,,,VFR,,,,,,,,,,,,METAR,598.0
SBUR 121400Z 16005KT 9999 FEW040 26/19 Q1021,SBUR,2019-01-12T14:00:00Z,-19.77,-47.97,26.0,19.0,160,5,,6.21,30.147638,,,,,,,,,,,FEW,4000,,,,,,,VFR,,,,,,,,,,,,METAR,807.0
SBTA 121400Z 05004KT 350V120 9999 FEW030 28/18 Q1019,SBTA,2019-01-12T14:00:00Z,-23.03,-45.5,28.0,18.0,50,4,,6.21,30.088583,,,,,,,,,,,FEW,3000,,,,,,,VFR,,,,,,,,,,,,METAR,586.0
SBST 121400Z 25006KT 220V280 8000 FEW024 29/24 Q1016,SBST,2019-01-12T14:00:00Z,-23.92,-46.28,29.0,24.0,250,6,,4.97,30.0,,,,,,,,,,,FEW,2400,,,,,,,MVFR,,,,,,,,,,,,METAR,3.0
SBSR 121400Z 26006KT 190V320 9999 FEW030 BKN080 30/17 Q1019,SBSR,2019-01-12T14:00:00Z,-20.8,-49.4,30.0,17.0,260,6,,6.21,30.088583,,,,,,,,,,,FEW,3000,BKN,8000,,,,,VFR,,,,,,,,,,,,METAR,543.0
SBSC 121400Z 19008KT 9999 SCT020 31/24 Q1015,SBSC,2019-01-12T14:00:00Z,-22.92,-43.72,31.0,24.0,190,8,,6.21,29.970472,,,,,,,,,,,SCT,2000,,,,,,,VFR,,,,,,,,,,,,METAR,3.0
SBPR 121400Z 07006KT 9999 SCT025 29/18 Q1021,SBPR,2019-01-12T14:00:00Z,-19.9,-43.98,29.0,18.0,70,6,,6.21,30.147638,,,,,,,,,,,SCT,2500,,,,,,,VFR,,,,,,,,,,,,METAR,927.0
SBUF 121400Z 11006KT 9999 SCT020 32/17 Q1015,SBUF,2019-01-12T14:00:00Z,-9.4,-38.25,32.0,17.0,110,6,,6.21,29.970472,,,,,,,,,,,SCT,2000,,,,,,,VFR,,,,,,,,,,,,METAR,252.0
SBQV 121400Z 13009KT 9999 SCT040 25/16 Q1020,SBQV,2019-01-12T14:00:00Z,-14.87,-40.87,25.0,16.0,130,9,,6.21,30.11811,,,,,,,,,,,SCT,4000,,,,,,,VFR,,,,,,,,,,,,METAR,893.0
SBKG 121400Z 18005KT 9999 FEW030 30/18 Q1015,SBKG,2019-01-12T14:00:00Z,-7.27,-35.87,30.0,18.0,180,5,,6.21,29.970472,,,,,,,,,,,FEW,3000,,,,,,,VFR,,,,,,,,,,,,METAR,560.0
SBJU 121400Z 04003KT CAVOK 31/19 Q1017,SBJU,2019-01-12T14:00:00Z,-7.22,-39.27,31.0,19.0,40,3,,6.21,30.029528,,,,,,,,,,,CAVOK,,,,,,,,VFR,,,,,,,,,,,,METAR,409.0
UMGG 121400Z 24004MPS 8000 OVC013 M07/M09 Q1001 R28/410550 NOSIG,UMGG,2019-01-12T14:00:00Z,52.53,31.02,-7.0,-9.0,240,8,,4.97,29.557087,,,,,,TRUE,,,,,OVC,1300,,,,,,,MVFR,,,,,,,,,,,,METAR,144.0
VASU 121400Z 02002KT 5000 HZ NSC 23/10 Q1013,VASU,2019-01-12T14:00:00Z,21.12,72.73,23.0,10.0,20,2,,3.11,29.911417,,,,,,,,,,HZ,CLR,,,,,,,,MVFR,,,,,,,,,,,,METAR,5.0
VOTP 121400Z 07006KT 4000 HZ FEW020 25/17 Q1015,VOTP,2019-01-12T14:00:00Z,13.63,79.55,25.0,17.0,70,6,,2.49,29.970472,,,,,,,,,,HZ,FEW,2000,,,,,,,IFR,,,,,,,,,,,,METAR,107.0
VEPT 121400Z 00000KT 2000 HZ NSC 14/08 Q1016 NOSIG,VEPT,2019-01-12T14:00:00Z,25.6,85.08,14.0,8.0,0,0,,1.24,30.0,,,,,,TRUE,,,,HZ,CLR,,,,,,,,IFR,,,,,,,,,,,,METAR,60.0
VOBZ 121400Z 00000KT 4000 HZ NSC 24/19 Q1015 NOSIG,VOBZ,2019-01-12T14:00:00Z,16.52,80.78,24.0,19.0,0,0,,2.49,29.970472,,,,,,TRUE,,,,HZ,CLR,,,,,,,,IFR,,,,,,,,,,,,METAR,24.0
VAAH 121400Z 00000KT 4000 FU NSC 22/06 Q1014 NOSIG,VAAH,2019-01-12T14:00:00Z,23.07,72.62,22.0,6.0,0,0,,2.49,29.940945,,,,,,TRUE,,,,FU,CLR,,,,,,,,IFR,,,,,,,,,,,,METAR,55.0
LRTM 121400Z 24005KT 9999 -SN SCT015 BKN022 OVC040 M03/M05 Q1013 R07/29//95,LRTM,2019-01-12T14:00:00Z,46.47,24.42,-3.0,-5.0,240,5,,6.21,29.911417,,,,,,,,,,-SN,SCT,1500,BKN,2200,OVC,4000,,,MVFR,,,,,,,,,,,,METAR,309.0
LRSM 121400Z 25005KT 9999 BKN010 OVC015 M02/M03 Q1014 R01/450294,LRSM,2019-01-12T14:00:00Z,47.7,22.88,-2.0,-3.0,250,5,,6.21,29.940945,,,,,,,,,,,BKN,1000,OVC,1500,,,,,MVFR,,,,,,,,,,,,METAR,124.0
LROD 121400Z 18010KT 9999 BKN009 M02/M03 Q1014 R01/590394,LROD,2019-01-12T14:00:00Z,47.03,21.92,-2.0,-3.0,180,10,,6.21,29.940945,,,,,,,,,,,BKN,900,,,,,,,IFR,,,,,,,,,,,,METAR,140.0
LRCL 121400Z 06002KT 3500 -SN BR OVC033 M04/M06 Q1013 R07/19//95,LRCL,2019-01-12T14:00:00Z,46.78,23.68,-4.0,-6.0,60,2,,2.17,29.911417,,,,,,,,,,-SN BR,OVC,3300,,,,,,,IFR,,,,,,,,,,,,METAR,413.0
LRBM 121400Z AUTO 11003KT 5000 SCT016/// M03/M05 Q1015,LRBM,2019-01-12T14:00:00Z,47.67,23.47,-3.0,-5.0,110,3,,3.11,29.970472,,,TRUE,,,,,,,,SCT,1600,,,,,,,MVFR,,,,,,,,,,,,METAR,185.0
LRTC 121400Z 25011KT 6000 FEW010 M01/M03 Q1011,LRTC,2019-01-12T14:00:00Z,45.07,28.72,-1.0,-3.0,250,11,,3.73,29.852362,,,,,,,,,,,FEW,1000,,,,,,,MVFR,,,,,,,,,,,,METAR,6.0
UMII 121400Z 24005MPS 3100 BR OVC006 M05/M06 Q0995 TEMPO 2000 BKN005 RMK QBB180,UMII,2019-01-12T14:00:00Z,55.13,30.35,-5.0,-6.0,240,10,,1.93,29.379921,,,,,,,,,,BR,OVC,600,,,,,,,IFR,,,,,,,,,,,,METAR,208.0
LWSK 121400Z 25003KT 9999 BKN040 M00/M07 Q1017 R99/2///95 NOSIG,LWSK,2019-01-12T14:00:00Z,41.97,21.63,0.0,-7.0,250,3,,6.21,30.029528,,,,,,TRUE,,,,,BKN,4000,,,,,,,VFR,,,,,,,,,,,,METAR,239.0
UMMS 121400Z 24004MPS 9999 BKN009 BKN032 M02/M03 Q0999 R31/810343 NOSIG,UMMS,2019-01-12T14:00:00Z,53.88,28.03,-2.0,-3.0,240,8,,6.21,29.498032,,,,,,TRUE,,,,,BKN,900,BKN,3200,,,,,IFR,,,,,,,,,,,,METAR,205.0
DAUI 121400Z 06018KT 8000 DRSA NSC 15/M08 Q1023,DAUI,2019-01-12T14:00:00Z,27.25,2.52,15.0,-8.0,60,18,,4.97,30.206694,,,,,,,,,,DRSA,CLR,,,,,,,,MVFR,,,,,,,,,,,,METAR,269.0
RJFR 121400Z 13003KT 080V220 9999 -SHRA FEW009 BKN017 BKN030 09/06 Q1018,RJFR,2019-01-12T14:00:00Z,33.82,131.03,9.0,6.0,130,3,,6.21,30.059055,,,,,,,,,,-SHRA,FEW,900,BKN,1700,BKN,3000,,,MVFR,,,,,,,,,,,,METAR,6.0
RJAH 121400Z 35005KT 9999 FEW025 BKN040 OVC080 04/M01 Q1017,RJAH,2019-01-12T14:00:00Z,36.17,140.42,4.0,-1.0,350,5,,6.21,30.029528,,,,,,,,,,,FEW,2500,BKN,4000,OVC,8000,,,VFR,,,,,,,,,,,,METAR,35.0
RJOH 121400Z 17005KT 9999 FEW030 BKN040 BKN090 04/01 Q1019,RJOH,2019-01-12T14:00:00Z,35.47,133.25,4.0,1.0,170,5,,6.21,30.088583,,,,,,,,,,,FEW,3000,BKN,4000,BKN,9000,,,VFR,,,,,,,,,,,,METAR,9.0
LJPZ 121400Z VRB02KT CAVOK 08/M00 Q1017,LJPZ,2019-01-12T14:00:00Z,45.47,13.62,8.0,0.0,0,2,,6.21,30.029528,,,,,,,,,,,CAVOK,,,,,,,,VFR,,,,,,,,,,,,METAR,2.0
UCFM 121400Z 35003MPS 0900 0800E R08/P1500 FZFG NSC M05/M05 Q1031 R08/19//95 TEMPO 0500 FZFG SCT005,UCFM,2019-01-12T14:00:00Z,43.07,74.48,-5.0,-5.0,350,6,,0.56,30.442913,,,,,,,,,,FZFG,CLR,,,,,,,,LIFR,,,,,,,,,,,,METAR,633.0
CYJT 121400Z 21019KT 12SM -SN DRSN OVC016 M05/M09 A2993 RMK SC8 SLP138,CYJT,2019-01-12T14:00:00Z,48.55,-58.57,-5.0,-9.0,210,19,,12.0,29.929134,1013.8,,,,,,,,,-SN DRSN,OVC,1600,,,,,,,MVFR,,,,,,,,,,,,SPECI,26.0
CYHZ 121400Z 27012KT 4SM -SHSN OVC025 M11/M14 A3008 RMK SC8 CVCTV CLD EMBD SLP197,CYHZ,2019-01-12T14:00:00Z,44.87,-63.5,-11.0,-14.0,270,12,,4.0,30.079725,1019.7,,,,,,,,,-SHSN,OVC,2500,,,,,,,MVFR,,,,,,,,,,,,SPECI,145.0
CYFB 121400Z 33022G28KT 2SM IC BLSN SCT140 BKN280 M31/M35 A3029 RMK BLSN2AS2CI3 VIS N LWR SLP265,CYFB,2019-01-12T14:00:00Z,63.75,-68.55,-31.0,-35.0,330,22,28,2.0,30.28937,1026.5,,,,,,,,,IC BLSN,SCT,14000,BKN,28000,,,,,IFR,,,,,,,,,,,,SPECI,34.0
CYEG 121400Z 19007KT 20SM FEW250 M11/M12 A2991 RMK CI1 CI TR SLP177,CYEG,2019-01-12T14:00:00Z,53.28,-113.57,-11.0,-12.0,190,7,,20.0,29.911417,1017.7,,,,,,,,,,FEW,25000,,,,,,,VFR,,,,,,,,,,,,SPECI,723.0
CYBG 121400Z 27015KT 20SM -SN DRSN FEW009 FEW160 M21/M25 A3036 RMK SF2AC1 PCPN VRY LGT WND ESTD SLP299,CYBG,2019-01-12T14:00:00Z,48.33,-70.98,-21.0,-25.0,270,15,,20.0,30.360237,1029.9,,,,,,,,,-SN DRSN,FEW,900,FEW,16000,,,,,VFR,,,,,,,,,,,,SPECI,159.0
TDPD 121400Z 18004KT 9999 -SHRA SCT016 BKN046 FEW///CB 23/20 Q1019,TDPD,2019-01-12T14:00:00Z,15.55,-61.3,23.0,20.0,180,4,,6.21,30.088583,,,,,,,,,,-SHRA,SCT,1600,BKN,4600,,,,,VFR,,,,,,,,,,,,METAR,14.0
ZYHB 121400Z 20001MPS 1100 R23/1300N FU NSC M13/M14 Q1022 NOSIG,ZYHB,2019-01-12T14:00:00Z,45.62,126.25,-13.0,-14.0,200,2,,0.68,30.177166,,,,,,TRUE,,,,FU,CLR,,,,,,,,LIFR,,,,,,,,,,,,METAR,140.0
ZYCC 121400Z 24002MPS 1600 FU NSC M11/M13 Q1022 BECMG TL1530 1400 FU,ZYCC,2019-01-12T14:00:00Z,43.98,125.68,-11.0,-13.0,240,4,,0.99,30.177166,,,,,,,,,,FU,CLR,,,,,,,,LIFR,,,,,,,,,,,,SPECI,238.0
ZUCK 121400Z 14002MPS 110V170 8000 BKN033 07/05 Q1025 NOSIG,ZUCK,2019-01-12T14:00:00Z,29.72,106.63,7.0,5.0,140,4,,4.97,30.265747,,,,,,TRUE,,,,,BKN,3300,,,,,,,MVFR,,,,,,,,,,,,METAR,416.0
ZSOF 121400Z 16003MPS 1400 R15/P2000N BR NSC 02/01 Q1026 NOSIG,ZSOF,2019-01-12T14:00:00Z,31.98,116.97,2.0,1.0,160,6,,0.87,30.295275,,,,,,TRUE,,,,BR,CLR,,,,,,,,LIFR,,,,,,,,,,,,METAR,63.0
ZSNJ 121400Z 00000MPS 3000 BR NSC 01/00 Q1027 NOSIG,ZSNJ,2019-01-12T14:00:00Z,31.75,118.87,1.0,0.0,0,0,,1.86,30.324802,,,,,,TRUE,,,,BR,CLR,,,,,,,,IFR,,,,,,,,,,,,METAR,33.0
ZLLL 121400Z 36003MPS 8000 NSC M12/M19 Q1023 NOSIG,ZLLL,2019-01-12T14:00:00Z,36.52,103.62,-12.0,-19.0,360,6,,4.97,30.206694,,,,,,TRUE,,,,,CLR,,,,,,,,MVFR,,,,,,,,,,,,METAR,1947.0
ZJSY 121400Z 09004MPS CAVOK 23/21 Q1017 NOSIG,ZJSY,2019-01-12T14:00:00Z,18.3,109.42,23.0,21.0,90,8,,6.21,30.029528,,,,,,TRUE,,,,,CAVOK,,,,,,,,VFR,,,,,,,,,,,,METAR,27.0
ZJHK 121400Z 17002MPS 4000 BR FEW013 20/20 Q1018 NOSIG,ZJHK,2019-01-12T14:00:00Z,19.93,110.47,20.0,20.0,170,4,,2.49,30.059055,,,,,,TRUE,,,,BR,FEW,1300,,,,,,,IFR,,,,,,,,,,,,METAR,23.0
ZHHH 121400Z 34002MPS 310V020 2800 BR SCT018 04/02 Q1027 NOSIG,ZHHH,2019-01-12T14:00:00Z,30.78,114.22,4.0,2.0,340,4,,1.74,30.324802,,,,,,TRUE,,,,BR,SCT,1800,,,,,,,IFR,,,,,,,,,,,,METAR,33.0
ZHCC 121400Z VRB01MPS 1200 R12R/1300N R12L/1800D BR NSC M01/M01 Q1025 NOSIG,ZHCC,2019-01-12T14:00:00Z,34.52,113.83,-1.0,-1.0,0,2,,0.75,30.265747,,,,,,TRUE,,,,BR,CLR,,,,,,,,LIFR,,,,,,,,,,,,METAR,151.0
ZGHA 121400Z 33004MPS 6000 BKN008 OVC050 05/04 Q1026 NOSIG,ZGHA,2019-01-12T14:00:00Z,28.18,113.22,5.0,4.0,330,8,,3.73,30.295275,,,,,,TRUE,,,,,BKN,800,OVC,5000,,,,,IFR,,,,,,,,,,,,METAR,66.0
ZBHH 121400Z 05002MPS 010V080 5000 HZ NSC M11/M16 Q1026 NOSIG,ZBHH,2019-01-12T14:00:00Z,40.85,111.82,-11.0,-16.0,50,4,,3.11,30.295275,,,,,,TRUE,,,,HZ,CLR,,,,,,,,MVFR,,,,,,,,,,,,METAR,1065.0
UTDL 121400Z 08004MPS 3600 BR FEW040 03/01 Q1030 R08/CLRD70 NOSIG RMK QFE733/0977,UTDL,2019-01-12T14:00:00Z,40.22,69.7,3.0,1.0,80,8,,2.24,30.413385,,,,,,TRUE,,,,BR,FEW,4000,,,,,,,IFR,,,,,,,,,,,,SPECI,442.0
UTDT 121400Z 00000MPS 7000 FEW066 04/02 Q1028 R35/////// RMK QFE731/0975,UTDT,2019-01-12T14:00:00Z,37.87,68.87,4.0,2.0,0,0,,4.35,30.35433,,,,,,,,,,,FEW,6600,,,,,,,MVFR,,,,,,,,,,,,METAR,449.0
UTDK 121400Z 02003MPS 9999 NSC 03/M01 Q1029 R01/09//70 RMK QFE713/0951,UTDK,2019-01-12T14:00:00Z,37.98,69.8,3.0,-1.0,20,6,,6.21,30.383858,,,,,,,,,,,CLR,,,,,,,,VFR,,,,,,,,,,,,METAR,699.0
UTDD 121400Z 03003MPS 5000 BR FU NSC 01/M02 Q1028 R09/19//60 NOSIG RMK QFE702/0936,UTDD,2019-01-12T14:00:00Z,38.53,68.82,1.0,-2.0,30,6,,3.11,30.35433,,,,,,TRUE,,,,BR FU,CLR,,,,,,,,MVFR,,,,,,,,,,,,METAR,803.0
UCFL 121400Z 06005MPS 9999 FEW030 BKN100 M03/M08 Q1025 R07/CLRD95,UCFL,2019-01-12T14:00:00Z,42.58,76.7,-3.0,-8.0,60,10,,6.21,30.265747,,,,,,,,,,,FEW,3000,BKN,10000,,,,,VFR,,,,,,,,,,,,METAR,1648.0
UCFO 121400Z 13002MPS 3300 BR FU SCT011 BKN083 01/M01 Q1029 R12/CLRD95 TEMPO 1000 BR SCT005,UCFO,2019-01-12T14:00:00Z,40.6,72.8,1.0,-1.0,130,4,,2.05,30.383858,,,,,,,,,,BR FU,SCT,1100,BKN,8300,,,,,IFR,,,,,,,,,,,,METAR,884.0
CYMX 121400Z 25007KT 210V280 45SM FEW020 FEW060 M20/M24 A3053 RMK CF1SC1 CF TR SC TR SLP348,CYMX,2019-01-12T14:00:00Z,45.67,-74.02,-20.0,-24.0,250,7,,45.0,30.528543,1034.8,,,,,,,,,,FEW,2000,FEW,6000,,,,,VFR,,,,,,,,,,,,SPECI,82.0
CYQB 121400Z 24015G21KT 30SM FEW030 FEW110 M20/M24 A3038 RMK SC1AC2 SC TR SLP296,CYQB,2019-01-12T14:00:00Z,46.78,-71.37,-20.0,-24.0,240,15,21,30.0,30.380905,1029.6,,,,,,,,,,FEW,3000,FEW,11000,,,,,VFR,,,,,,,,,,,,SPECI,73.0
CYOW 121400Z 30006KT 15SM SKC M18/M22 A3057 RMK SLP365,CYOW,2019-01-12T14:00:00Z,45.32,-75.67,-18.0,-22.0,300,6,,15.0,30.569881,1036.5,,,,,,,,,,SKC,,,,,,,,VFR,,,,,,,,,,,,SPECI,114.0
CYQG 121400Z AUTO 07009KT 9SM OVC020 M02/M05 A3045 RMK SLP321,CYQG,2019-01-12T14:00:00Z,42.27,-82.97,-2.0,-5.0,70,9,,9.0,30.448818,1032.1,,TRUE,,,,,,,,OVC,2000,,,,,,,MVFR,,,,,,,,,,,,SPECI,190.0
CYQM 121400Z 25020G26KT 15SM DRSN FEW025 BKN110 M16/M20 A3005 RMK SC1AC7 SC TR SLP183,CYQM,2019-01-12T14:00:00Z,46.12,-64.67,-16.0,-20.0,250,20,26,15.0,30.050198,1018.3,,,,,,,,,DRSN,FEW,2500,BKN,11000,,,,,VFR,,,,,,,,,,,,SPECI,71.0
DNKN 121400Z 07008KT CAVOK 32/M03 Q1014 NOSIG,DNKN,2019-01-12T14:00:00Z,12.05,8.52,32.0,-3.0,70,8,,6.21,29.940945,,,,,,TRUE,,,,,CAVOK,,,,,,,,VFR,,,,,,,,,,,,METAR,481.0
DNAA 121400Z 11007KT 080V190 CAVOK 36/00 Q1009 NOSIG,DNAA,2019-01-12T14:00:00Z,9.0,7.27,36.0,0.0,110,7,,6.21,29.793306,,,,,,TRUE,,,,,CAVOK,,,,,,,,VFR,,,,,,,,,,,,METAR,344.0
LOAV 121400Z 27020G36KT 18KM -SHRA FEW014CU SCT020CU BKN030SC 04/M01,LOAV,2019-01-12T14:00:00Z,47.97,16.27,4.0,-1.0,270,20,36,11.19,,,,,,,,,,,-SHRA,FEW,1400,SCT,2000,,,,,VFR,,,,,,,,,,,,SPECI,233.0
UMKK 121400Z 26005MPS 9999 FEW020 03/M00 Q1002 R24/29//54 NOSIG RMK QFE750/1000,UMKK,2019-01-12T14:00:00Z,54.88,20.6,3.0,0.0,260,10,,6.21,29.586615,,,,,,TRUE,,,,,FEW,2000,,,,,,,VFR,,,,,,,,,,,,METAR,21.0
ULOO 121400Z AUTO 28004G09MPS 240V320 8000 // ///019/// 00/M02 Q0993 RMK QFE740,ULOO,2019-01-12T14:00:00Z,57.78,28.4,0.0,-2.0,280,8,17,4.97,29.320866,,,TRUE,,,,,,,,,,,,,,,,,,,,,,,,,,,,METAR,47.0
OEYN 121400Z 16010KT CAVOK 29/17 Q1010 NOSIG,OEYN,2019-01-12T14:00:00Z,24.13,38.07,29.0,17.0,160,10,,6.21,29.822834,,,,,,TRUE,,,,,CAVOK,,,,,,,,VFR,,,,,,,,,,,,METAR,8.0
OEWJ 121400Z 21007KT 9999 SCT040 24/18 Q1011 NOSIG,OEWJ,2019-01-12T14:00:00Z,26.18,36.47,24.0,18.0,210,7,,6.21,29.852362,,,,,,TRUE,,,,,SCT,4000,,,,,,,VFR,,,,,,,,,,,,METAR,16.0
OEWD 121400Z 10014KT CAVOK 23/05 Q1017 NOSIG,OEWD,2019-01-12T14:00:00Z,20.5,45.2,23.0,5.0,100,14,,6.21,30.029528,,,,,,TRUE,,,,,CAVOK,,,,,,,,VFR,,,,,,,,,,,,METAR,617.0
OETR 121400Z 13012KT 9999 BKN040 BKN100 15/05 Q1012,OETR,2019-01-12T14:00:00Z,31.7,38.73,15.0,5.0,130,12,,6.21,29.88189,,,,,,,,,,,BKN,4000,BKN,10000,,,,,VFR,,,,,,,,,,,,METAR,855.0
OETF 121400Z 18011KT CAVOK 25/04 Q1020 NOSIG,OETF,2019-01-12T14:00:00Z,21.47,40.53,25.0,4.0,180,11,,6.21,30.11811,,,,,,TRUE,,,,,CAVOK,,,,,,,,VFR,,,,,,,,,,,,METAR,1449.0
OETB 121400Z 00000KT 9999 SCT040 BKN100 23/05 Q1011 NOSIG,OETB,2019-01-12T14:00:00Z,28.37,36.62,23.0,5.0,0,0,,6.21,29.852362,,,,,,TRUE,,,,,SCT,4000,BKN,10000,,,,,VFR,,,,,,,,,,,,METAR,770.0
OESK 121400Z 08007KT 9999 FEW040 SCT100 17/00 Q1015,OESK,2019-01-12T14:00:00Z,29.77,40.1,17.0,0.0,80,7,,6.21,29.970472,,,,,,,,,,,FEW,4000,SCT,10000,,,,,VFR,,,,,,,,,,,,METAR,684.0
OESH 121400Z 07009KT CAVOK 25/02 Q1018 NOSIG,OESH,2019-01-12T14:00:00Z,17.47,47.12,25.0,2.0,70,9,,6.21,30.059055,,,,,,TRUE,,,,,CAVOK,,,,,,,,VFR,,,,,,,,,,,,METAR,722.0
OERR 121400Z 13014KT 9999 FEW040 SCT100 13/08 Q1014 NOSIG,OERR,2019-01-12T14:00:00Z,30.88,41.12,13.0,8.0,130,14,,6.21,29.940945,,,,,,TRUE,,,,,FEW,4000,SCT,10000,,,,,VFR,,,,,,,,,,,,METAR,552.0
OERF 121400Z 12015KT 9999 BKN040 BKN100 15/M01 Q1016,OERF,2019-01-12T14:00:00Z,29.62,43.47,15.0,-1.0,120,15,,6.21,30.0,,,,,,,,,,,BKN,4000,BKN,10000,,,,,VFR,,,,,,,,,,,,METAR,447.0
OEPA 121400Z 09010KT 9999 BKN035 14/02 Q1020 NOSIG,OEPA,2019-01-12T14:00:00Z,28.32,46.12,14.0,2.0,90,10,,6.21,30.11811,,,,,,TRUE,,,,,BKN,3500,,,,,,,VFR,,,,,,,,,,,,METAR,355.0
OENG 121400Z 09006KT 9000 SKC 24/07 Q1019 NOSIG,OENG,2019-01-12T14:00:00Z,17.62,44.42,24.0,7.0,90,6,,5.59,30.088583,,,,,,TRUE,,,,,SKC,,,,,,,,VFR,,,,,,,,,,,,METAR,1203.0
OEKM 121400Z 23010KT CAVOK 23/08 Q1023 NOSIG,OEKM,2019-01-12T14:00:00Z,18.3,42.78,23.0,8.0,230,10,,6.21,30.206694,,,,,,TRUE,,,,,CAVOK,,,,,,,,VFR,,,,,,,,,,,,METAR,2054.0
UUYY 121400Z 17007MPS 9999 BKN016 M09/M12 Q0991 R18/450335 NOSIG RMK QFE735/0980,UUYY,2019-01-12T14:00:00Z,61.65,50.82,-9.0,-12.0,170,14,,6.21,29.26181,,,,,,TRUE,,,,,BKN,1600,,,,,,,MVFR,,,,,,,,,,,,METAR,119.0
UUOO 121400Z 23002MPS 6000 NSC M11/M13 Q1001 R30/820240 NOSIG RMK QFE737,UUOO,2019-01-12T14:00:00Z,51.82,39.23,-11.0,-13.0,230,4,,3.73,29.557087,,,,,,TRUE,,,,,CLR,,,,,,,,MVFR,,,,,,,,,,,,METAR,157.0
ULMM 121400Z 01003MPS 9999 BKN010CB M04/M05 Q0972 R31/590232 TEMPO 0500 +SHSN VV002 RMK OBST OBSC QFE722,ULMM,2019-01-12T14:00:00Z,68.78,32.75,-4.0,-5.0,10,6,,6.21,28.700787,,,,,,,,,,,BKN,1000,,,,,,,MVFR,,,,,,,,,,,,METAR,51.0
ULAA 121400Z 19004MPS 160V220 9999 -SHSN OVC013CB M04/M05 Q0975 R08/590334 NOSIG RMK QFE731/0974,ULAA,2019-01-12T14:00:00Z,64.6,40.72,-4.0,-5.0,190,8,,6.21,28.78937,,,,,,TRUE,,,,-SHSN,OVC,1300,,,,,,,MVFR,,,,,,,,,,,,METAR,19.0
GGOV 121400Z 32005KT CAVOK 33/06 Q1010 NOSIG,GGOV,2019-01-12T14:00:00Z,11.87,-15.65,33.0,6.0,320,5,,6.21,29.822834,,,,,,TRUE,,,,,CAVOK,,,,,,,,VFR,,,,,,,,,,,,METAR,36.0
K24A 121400Z AUTO 12004KT 10SM OVC080 02/M08 A3031 RMK AO2 T00181076,K24A,2019-01-12T14:00:00Z,35.32,-83.2,1.8,-7.6,120,4,,10.0,30.31004,,,TRUE,TRUE,,,,,,,OVC,8000,,,,,,,VFR,,,,,,,,,,,,SPECI,871.0
SAWG 121400Z 25032G47KT 9999 SCT030 FEW035TCU 12/M02 Q0997,SAWG,2019-01-12T14:00:00Z,-51.62,-69.32,12.0,-2.0,250,32,47,6.21,29.438976,,,,,,,,,,,SCT,3000,FEW,3500,,,,,VFR,,,,,,,,,,,,METAR,19.0
LWOH 121400Z 32008KT CAVOK M02/M08 Q1011 R99/19//94,LWOH,2019-01-12T14:00:00Z,41.18,20.75,-2.0,-8.0,320,8,,6.21,29.852362,,,,,,,,,,,CAVOK,,,,,,,,VFR,,,,,,,,,,,,METAR,761.0
CWVT 121400Z AUTO 18006KT M12/M14 RMK AO1 SOG 33 6009 SLP177 T11241135,CWVT,2019-01-12T14:00:00Z,55.82,-108.42,-12.4,-13.5,180,6,,,,1017.7,,TRUE,TRUE,,,,,,,,,,,,,,,,,,,,,,,,,,,METAR,434.0
CWZG 121400Z AUTO 24007KT M05/M07 RMK AO1 SOG 21 3001 SLP243 T10521071,CWZG,2019-01-12T14:00:00Z,51.2,-115.53,-5.2,-7.1,240,7,,,,1024.3,,TRUE,TRUE,,,,,,,,,,,,,,,,,,,,,,,,,,,METAR,1397.0
CWRO 121400Z AUTO 09008KT 06/06 RMK AO1 SLP092 T00590059 50003,CWRO,2019-01-12T14:00:00Z,54.17,-131.67,5.9,5.9,90,8,,,,1009.2,,TRUE,TRUE,,,,,,,,,,,,,,,,0.3,,,,,,,,,,,METAR,7.0
CWLP 121400Z AUTO 13030G35KT 11/05 RMK AO1 2PAST HR 8004 PK WND 12036/1344 SLP090 P0001 T01120049 50002,CWLP,2019-01-12T14:00:00Z,50.93,-127.63,11.2,4.9,130,30,35,,,1009.0,,TRUE,TRUE,,,,,,,,,,,,,,,,0.2,,,,,0.01,,,,,,METAR,17.0
CWJD 121400Z AUTO 19002KT M26/M29 RMK AO1 SOG 29 6012 SLP325 T12631292,CWJD,2019-01-12T14:00:00Z,53.17,-99.27,-26.3,-29.2,190,2,,,,1032.5,,TRUE,TRUE,,,,,,,,,,,,,,,,,,,,,,,,,,,METAR,223.0
KEYF 121400Z AUTO 07005KT 10SM OVC120 02/M05 A3047 RMK AO2 PWINO T00251048,KEYF,2019-01-12T14:00:00Z,34.6,-78.58,2.5,-4.8,70,5,,10.0,30.469488,,,TRUE,TRUE,,,,,TRUE,,OVC,12000,,,,,,,VFR,,,,,,,,,,,,SPECI,41.0
KEDW 121400Z 22004KT 50SM FEW034 BKN045 07/04 A3000 RMK AO2A DZE00 SLP159,KEDW,2019-01-12T14:00:00Z,34.88,-117.87,7.0,4.0,220,4,,50.0,30.0,1015.9,,,TRUE,,,,,,,FEW,3400,BKN,4500,,,,,VFR,,,,,,,,,,,,SPECI,702.0
TDCF 121400Z 11005KT 9999 FEW020 SCT040 28/20 Q1018,TDCF,2019-01-12T14:00:00Z,15.33,-61.4,28.0,20.0,110,5,,6.21,30.059055,,,,,,,,,,,FEW,2000,SCT,4000,,,,,VFR,,,,,,,,,,,,METAR,5.0
NGFU 121400Z 00000KT 9999 VCSH SCT018CB BKN100 27/25 Q1006,NGFU,2019-01-12T14:00:00Z,-8.52,179.22,27.0,25.0,0,0,,6.21,29.704725,,,,,,,,,,VCSH,SCT,1800,BKN,10000,,,,,VFR,,,,,,,,,,,,METAR,1.0
SUCA 121400Z 03007KT 9999 FEW020 25/17 Q1016,SUCA,2019-01-12T14:00:00Z,-34.45,-57.77,25.0,17.0,30,7,,6.21,30.0,,,,,,,,,,,FEW,2000,,,,,,,VFR,,,,,,,,,,,,METAR,23.0
SULS 121400Z 01008KT 9999 FEW023 SCT200 23/16 Q1018,SULS,2019-01-12T14:00:00Z,-34.87,-55.1,23.0,16.0,10,8,,6.21,30.059055,,,,,,,,,,,FEW,2300,SCT,20000,,,,,VFR,,,,,,,,,,,,METAR,30.0
SUDU 121400Z 08008KT 9999 FEW023 24/18 Q1017,SUDU,2019-01-12T14:00:00Z,-33.35,-56.5,24.0,18.0,80,8,,6.21,30.029528,,,,,,,,,,,FEW,2300,,,,,,,VFR,,,,,,,,,,,,METAR,93.0
SUSO 121400Z 12010KT 9999 OVC020 24/20 Q1015,SUSO,2019-01-12T14:00:00Z,-31.43,-57.98,24.0,20.0,120,10,,6.21,29.970472,,,,,,,,,,,OVC,2000,,,,,,,MVFR,,,,,,,,,,,,METAR,34.0
TQPF 121400Z 06006KT 9999 SCT019 25/20 Q1020,TQPF,2019-01-12T14:00:00Z,18.18,-63.03,25.0,20.0,60,6,,6.21,30.11811,,,,,,,,,,,SCT,1900,,,,,,,VFR,,,,,,,,,,,,METAR,31.0
KUKF 121400Z AUTO 00000KT 10SM OVC090 00/M03 A3049 RMK AO2,KUKF,2019-01-12T14:00:00Z,36.22,-81.1,0.0,-3.0,0,0,,10.0,30.490158,,,TRUE,TRUE,,,,,,,OVC,9000,,,,,,,VFR,,,,,,,,,,,,SPECI,396.0
KRHP 121400Z AUTO 00000KT 10SM SCT037 BKN044 OVC100 04/00 A3030 RMK AO2 T00400000,KRHP,2019-01-12T14:00:00Z,35.18,-83.85,4.0,0.0,0,0,,10.0,30.301182,,,TRUE,TRUE,,,,,,,SCT,3700,BKN,4400,OVC,10000,,,VFR,,,,,,,,,,,,SPECI,518.0
KGWW 121400Z AUTO 04006KT 10SM OVC110 01/M04 A3050 RMK AO2 T00101036,KGWW,2019-01-12T14:00:00Z,35.47,-77.97,1.0,-3.6,40,6,,10.0,30.499016,,,TRUE,TRUE,,,,,,,OVC,11000,,,,,,,VFR,,,,,,,,,,,,SPECI,41.0
KMQI 121400Z AUTO 07007KT 10SM CLR 05/M04 A3050 RMK AO2 T00461036,KMQI,2019-01-12T14:00:00Z,35.92,-75.7,4.6,-3.6,70,7,,10.0,30.499016,,,TRUE,TRUE,,,,,,,CLR,,,,,,,,VFR,,,,,,,,,,,,SPECI,4.0
KHBI 121400Z AUTO 09003KT 10SM BKN110 01/M07 A3047 RMK AO2 T00131070,KHBI,2019-01-12T14:00:00Z,35.65,-79.9,1.3,-7.0,90,3,,10.0,30.469488,,,TRUE,TRUE,,,,,,,BKN,11000,,,,,,,VFR,,,,,,,,,,,,SPECI,205.0
KONX 121400Z AUTO 10SM BKN110 01/M01 A3052 RMK AO2 T00111012,KONX,2019-01-12T14:00:00Z,36.4,-76.02,1.1,-1.2,,,,10.0,30.519686,,,TRUE,TRUE,,,,,,,BKN,11000,,,,,,,VFR,,,,,,,,,,,,SPECI,5.0
MROC 121400Z 11016KT CAVOK 22/14 A3007 NOSIG,MROC,2019-01-12T14:00:00Z,10.0,-84.22,22.0,14.0,110,16,,6.21,30.070866,,,,,,TRUE,,,,,CAVOK,,,,,,,,VFR,,,,,,,,,,,,METAR,920.0
LFSL 121400Z AUTO 27005KT 220V290 1000 R29/1500U BCFG VV/// 04/04 Q1030 BECMG 7000 NSW BKN007,LFSL,2019-01-12T14:00:00Z,45.03,1.48,4.0,4.0,270,5,,0.62,30.413385,,,TRUE,,,,,,,BCFG,OVX,0,,,,,,,LIFR,,,,,,,,,,,,METAR,310.0
LFMV 121400Z AUTO 35025G40KT CAVOK 10/01 Q1022 NOSIG,LFMV,2019-01-12T14:00:00Z,43.9,4.9,10.0,1.0,350,25,40,6.21,30.177166,,,TRUE,,,TRUE,,,,,CAVOK,,,,,,,,VFR,,,,,,,,,,,,METAR,38.0
CYQX 121400Z 19014KT 15SM -SHSN FEW023 BKN048 M02/M05 A2992 RMK SC2SC5 CVCTV CLD EMBD SLP143,CYQX,2019-01-12T14:00:00Z,48.95,-54.58,-2.0,-5.0,190,14,,15.0,29.920275,1014.3,,,,,,,,,-SHSN,FEW,2300,BKN,4800,,,,,VFR,,,,,,,,,,,,SPECI,151.0
CYQY 121400Z 23014G20KT 15SM -SN OVC022 M09/M14 A3002 RMK SC8 FLRYS SLP171,CYQY,2019-01-12T14:00:00Z,46.17,-60.03,-9.0,-14.0,230,14,20,15.0,30.02067,1017.1,,,,,,,,,-SN,OVC,2200,,,,,,,MVFR,,,,,,,,,,,,SPECI,62.0
CYTR 121400Z 02005KT 15SM FEW090 FEW200 M11/M18 A3060 RMK AC1CI1 SLP369,CYTR,2019-01-12T14:00:00Z,44.12,-77.52,-11.0,-18.0,20,5,,15.0,30.59941,1036.9,,,,,,,,,,FEW,9000,FEW,20000,,,,,VFR,,,,,,,,,,,,SPECI,86.0
CYUL 121400Z 26011G17KT 30SM FEW010 M17/M22 A3055 RMK SF1 SF TR SLP350,CYUL,2019-01-12T14:00:00Z,45.47,-73.73,-17.0,-22.0,260,11,17,30.0,30.549213,1035.0,,,,,,,,,,FEW,1000,,,,,,,VFR,,,,,,,,,,,,SPECI,36.0
CYVR 121400Z VRB02KT 20SM FEW089 FEW240 00/00 A2997 RMK AC1CI1 SLP151,CYVR,2019-01-12T14:00:00Z,49.17,-123.17,0.0,0.0,0,2,,20.0,29.970472,1015.1,,,,,,,,,,FEW,8900,FEW,24000,,,,,VFR,,,,,,,,,,,,SPECI,2.0
CYWG 121400Z 14006KT 15SM FEW015 OVC033 M09/M12 A3045 RMK ST2SC6 SLP335,CYWG,2019-01-12T14:00:00Z,49.88,-97.22,-9.0,-12.0,140,6,,15.0,30.448818,1033.5,,,,,,,,,,FEW,1500,OVC,3300,,,,,VFR,,,,,,,,,,,,SPECI,239.0
CYXX 121400Z 36005KT 15SM FEW170 03/02 A2997 RMK AC1 AC TR SLP152,CYXX,2019-01-12T14:00:00Z,49.03,-122.38,3.0,2.0,360,5,,15.0,29.970472,1015.2,,,,,,,,,,FEW,17000,,,,,,,VFR,,,,,,,,,,,,SPECI,58.0
CYYC 121400Z VRB04KT 15SM FEW160 BKN230 03/M08 A2994 RMK AC2CI5 SLP179,CYYC,2019-01-12T14:00:00Z,51.12,-114.02,3.0,-8.0,0,4,,15.0,29.940945,1017.9,,,,,,,,,,FEW,16000,BKN,23000,,,,,VFR,,,,,,,,,,,,SPECI,1084.0
CYYJ 121400Z 26004KT 20SM FEW120 FEW220 03/02 A2997 RMK AC1CI1 SLP149,CYYJ,2019-01-12T14:00:00Z,48.63,-123.42,3.0,2.0,260,4,,20.0,29.970472,1014.9,,,,,,,,,,FEW,12000,FEW,22000,,,,,VFR,,,,,,,,,,,,SPECI,19.0
CYYQ 121400Z 19019G29KT 1 1/2SM -SN BLSN OVC038 M16/M18 A3019 RMK BLSN2SC6 VIS VRB 1-2 SLP229,CYYQ,2019-01-12T14:00:00Z,58.75,-94.07,-16.0,-18.0,190,19,29,1.5,30.188976,1022.9,,,,,,,,,-SN BLSN,OVC,3800,,,,,,,IFR,,,,,,,,,,,,SPECI,29.0
CYYR 121400Z 00000KT 3SM -SN FEW024 OVC031 M06/M08 A2975 RMK SC2SC6 /S01/ SLP077,CYYR,2019-01-12T14:00:00Z,53.32,-60.42,-6.0,-8.0,0,0,,3.0,29.749016,1007.7,,,,,,,,,-SN,FEW,2400,OVC,3100,,,,,MVFR,,,,,,,,,,,,SPECI,49.0
CYYT 121400Z 22018G25KT 15SM BKN048 00/M03 A3003 RMK SC7 SLP178,CYYT,2019-01-12T14:00:00Z,47.62,-52.72,0.0,-3.0,220,18,25,15.0,30.029528,1017.8,,,,,,,,,,BKN,4800,,,,,,,VFR,,,,,,,,,,,,SPECI,140.0
LPMR 121400Z 34004KT 300V040 CAVOK 14/02 Q1029,LPMR,2019-01-12T14:00:00Z,39.82,-8.87,14.0,2.0,340,4,,6.21,30.383858,,,,,,,,,,,CAVOK,,,,,,,,VFR,,,,,,,,,,,,METAR,54.0
LPOV 121400Z 31005KT 270V350 CAVOK 13/06 Q1029,LPOV,2019-01-12T14:00:00Z,40.92,-8.65,13.0,6.0,310,5,,6.21,30.383858,,,,,,,,,,,CAVOK,,,,,,,,VFR,,,,,,,,,,,,METAR,17.0
MKJP 121400Z VRB02KT 9999 FEW019 BKN034 27/17 Q1018,MKJP,2019-01-12T14:00:00Z,17.92,-76.78,27.0,17.0,0,2,,6.21,30.059055,,,,,,,,,,,FEW,1900,BKN,3400,,,,,VFR,,,,,,,,,,,,METAR,3.0
LPMT 121400Z 36009KT CAVOK 12/04 Q1028,LPMT,2019-01-12T14:00:00Z,38.7,-9.05,12.0,4.0,360,9,,6.21,30.35433,,,,,,,,,,,CAVOK,,,,,,,,VFR,,,,,,,,,,,,METAR,11.0
CWIW 121400Z AUTO 17014G19KT M13/M15 RMK AO1 SOG 05 6012 PK WND 17023/1335 SLP248 T11331154,CWIW,2019-01-12T14:00:00Z,51.67,-105.4,-13.3,-15.4,170,14,19,,,1024.8,,TRUE,TRUE,,,,,,,,,,,,,,,,,,,,,,,,,,,METAR,526.0
KC99 121400Z AUTO 29004KT 10SM OVC016 M12/M13 A3012 RMK AO2,KC99,2019-01-12T14:00:00Z,29.87,-105.55,-12.0,-13.0,290,4,,10.0,30.121063,,,TRUE,TRUE,,,,,,,OVC,1600,,,,,,,MVFR,,,,,,,,,,,,SPECI,3320.0
PLCH 121400Z 12007KT 9999 FEW020 26/25 Q1007,PLCH,2019-01-12T14:00:00Z,1.98,-157.35,26.0,25.0,120,7,,6.21,29.734253,,,,,,,,,,,FEW,2000,,,,,,,VFR,,,,,,,,,,,,METAR,3.0
NGTA 121400Z 33006KT 9999 FEW020 29/25 Q1006,NGTA,2019-01-12T14:00:00Z,1.37,173.13,29.0,25.0,330,6,,6.21,29.704725,,,,,,,,,,,FEW,2000,,,,,,,VFR,,,,,,,,,,,,METAR,2.0
SPHI 121400Z 17013KT CAVOK 26/21 Q1014 RMK BIRD HAZARD RWY 19/01 PP000,SPHI,2019-01-12T14:00:00Z,-6.77,-79.82,26.0,21.0,170,13,,6.21,29.940945,,,,,,,,,,,CAVOK,,,,,,,,VFR,,,,,,,,,,,,METAR,34.0
SPQT 121400Z 12003KT 090V160 8000 -DZ BKN010 OVC100 24/22 Q1015 NOSIG RMK PP003,SPQT,2019-01-12T14:00:00Z,-3.78,-73.32,24.0,22.0,120,3,,4.97,29.970472,,,,,,TRUE,,,,-DZ,BKN,1000,OVC,10000,,,,,MVFR,,,,,,,,,,,,METAR,126.0
SPQU 121400Z 25006KT 200V290 9999 SCT020 SCT040 14/08 Q1027 NOSIG RMK PP000,SPQU,2019-01-12T14:00:00Z,-16.33,-71.57,14.0,8.0,250,6,,6.21,30.324802,,,,,,TRUE,,,,,SCT,2000,SCT,4000,,,,,VFR,,,,,,,,,,,,METAR,2554.0
SPZO 121400Z /////KT 9999 FEW040 OVC070 12/04 Q1033 NOSIG RMK BIRD HAZARD RWY 28 PP000,SPZO,2019-01-12T14:00:00Z,-13.55,-71.97,12.0,4.0,,,,6.21,30.501968,,,,,,TRUE,,,,,FEW,4000,OVC,7000,,,,,VFR,,,,,,,,,,,,METAR,3249.0
SPTN 121400Z VRB03KT CAVOK 23/13 Q1017 RMK SCT300 PP000,SPTN,2019-01-12T14:00:00Z,-18.07,-70.28,23.0,13.0,0,3,,6.21,30.029528,,,,,,,,,,,CAVOK,,,,,,,,VFR,,,,,,,,,,,,METAR,458.0
SPSO 121400Z 22013KT CAVOK 25/20 Q1014 RMK BIRD HAZARD RWY 22/04 PP000,SPSO,2019-01-12T14:00:00Z,-13.73,-76.22,25.0,20.0,220,13,,6.21,29.940945,,,,,,,,,,,CAVOK,,,,,,,,VFR,,,,,,,,,,,,METAR,10.0
SPRU 121400Z 14008KT 9999 SCT060 24/20 Q1014 RMK PP000,SPRU,2019-01-12T14:00:00Z,-8.08,-79.12,24.0,20.0,140,8,,6.21,29.940945,,,,,,,,,,,SCT,6000,,,,,,,VFR,,,,,,,,,,,,METAR,30.0
KJSL 121400Z AUTO 20009G14KT 160V250 9SM CLR 23/15 A3009 RMK A01,KJSL,2019-01-12T14:00:00Z,26.23,-95.25,23.0,15.0,200,9,14,9.0,30.088583,,,TRUE,TRUE,,,,,,,CLR,,,,,,,,VFR,,,,,,,,,,,,METAR,10.0
UKLU 121400Z VRB02MPS 8000 OVC018 M03/M06 Q1014 R10/891030 NOSIG,UKLU,2019-01-12T14:00:00Z,48.63,22.27,-3.0,-6.0,0,4,,4.97,29.940945,,,,,,TRUE,,,,,OVC,1800,,,,,,,MVFR,,,,,,,,,,,,SPECI,117.0
UKON 121400Z 26004MPS 220V300 9000 SCT014CB M02/M03 Q1009 NOSIG,UKON,2019-01-12T14:00:00Z,47.05,31.92,-2.0,-3.0,260,8,,5.59,29.793306,,,,,,TRUE,,,,,SCT,1400,,,,,,,VFR,,,,,,,,,,,,METAR,56.0
UKLI 121400Z 27006MPS 9999 BKN036 00/M06 Q1009 R28/490335 NOSIG,UKLI,2019-01-12T14:00:00Z,48.88,24.68,0.0,-6.0,270,12,,6.21,29.793306,,,,,,TRUE,,,,,BKN,3600,,,,,,,VFR,,,,,,,,,,,,SPECI,280.0
UKLR 121400Z 28006MPS 9999 BKN037 M00/M02 Q1005 NOSIG,UKLR,2019-01-12T14:00:00Z,50.6,26.13,0.0,-2.0,280,12,,6.21,29.675198,,,,,,TRUE,,,,,BKN,3700,,,,,,,VFR,,,,,,,,,,,,METAR,230.0
CYZX 121400Z 28017G25KT 1 1/2SM -SN BLSN OVC025 M11/M14 A3016 RMK SC8 VIS VRB 1-2 SLP215,CYZX,2019-01-12T14:00:00Z,44.98,-64.92,-11.0,-14.0,280,17,25,1.5,30.159449,1021.5,,,,,,,,,-SN BLSN,OVC,2500,,,,,,,IFR,,,,,,,,,,,,SPECI,28.0
CYZV 121400Z 28007KT 30SM SCT040 BKN100 M08/M11 A2986 RMK CU3AC2 SLP117,CYZV,2019-01-12T14:00:00Z,50.22,-66.27,-8.0,-11.0,280,7,,30.0,29.861221,1011.7,,,,,,,,,,SCT,4000,BKN,10000,,,,,VFR,,,,,,,,,,,,SPECI,55.0
CYZF 121400Z 30012KT 15SM -SN FEW012 SCT030 M17/M20 A2979 RMK SC2SC2 SLP113,CYZF,2019-01-12T14:00:00Z,62.47,-114.45,-17.0,-20.0,300,12,,15.0,29.790354,1011.3,,,,,,,,,-SN,FEW,1200,SCT,3000,,,,,VFR,,,,,,,,,,,,SPECI,206.0
UKKK 121400Z 30007MPS 7000 OVC009 M04/M06 Q1003 R26/810340 NOSIG,UKKK,2019-01-12T14:00:00Z,50.4,30.45,-4.0,-6.0,300,14,,4.35,29.616142,,,,,,TRUE,,,,,OVC,900,,,,,,,IFR,,,,,,,,,,,,METAR,179.0
UKKM 121400Z AUTO 29005MPS 7000 // ///010/// M04/M05 Q1003,UKKM,2019-01-12T14:00:00Z,50.6,30.2,-4.0,-5.0,290,10,,4.35,29.616142,,,TRUE,,,,,,,,,,,,,,,,,,,,,,,,,,,,SPECI,157.0
UKOH 121400Z 23005MPS 200V260 9999 BKN013 M00/M02 Q1009 R03/CLRD65 NOSIG,UKOH,2019-01-12T14:00:00Z,46.67,32.5,0.0,-2.0,230,10,,6.21,29.793306,,,,,,TRUE,,,,,BKN,1300,,,,,,,MVFR,,,,,,,,,,,,METAR,45.0
SAAR 121400Z 36003KT 9999 FEW032 SCT100 27/19 Q1014,SAAR,2019-01-12T14:00:00Z,-32.92,-60.77,27.0,19.0,360,3,,6.21,29.940945,,,,,,,,,,,FEW,3200,SCT,10000,,,,,VFR,,,,,,,,,,,,METAR,25.0
OMRK 121400Z 34007KT CAVOK 21/13 Q1017 A3006,OMRK,2019-01-12T14:00:00Z,25.62,55.92,21.0,13.0,340,7,,6.21,30.029528,,,,,,,,,,,CAVOK,,,,,,,,VFR,,,,,,,,,,,,METAR,31.0
FBSK 121400Z 30008KT 250V360 9999 BKN030 FEW035CB 38/12 Q1008 NOSIG,FBSK,2019-01-12T14:00:00Z,-24.55,25.92,38.0,12.0,300,8,,6.21,29.763779,,,,,,TRUE,,,,,BKN,3000,FEW,3500,,,,,MVFR,,,,,,,,,,,,METAR,1005.0
SABE 121400Z 36006KT 340V040 9999 FEW015 SCT030 24/19 Q1017 NOSIG,SABE,2019-01-12T14:00:00Z,-34.57,-58.42,24.0,19.0,360,6,,6.21,30.029528,,,,,,TRUE,,,,,FEW,1500,SCT,3000,,,,,VFR,,,,,,,,,,,,METAR,6.0
SAEZ 121400Z 03008KT 9999 BKN030 25/18 Q1016 NOSIG,SAEZ,2019-01-12T14:00:00Z,-34.82,-58.52,25.0,18.0,30,8,,6.21,30.0,,,,,,TRUE,,,,,BKN,3000,,,,,,,MVFR,,,,,,,,,,,,METAR,20.0
SADF 121400Z 34006KT 9999 BKN025 26/17 Q1016,SADF,2019-01-12T14:00:00Z,-34.45,-58.58,26.0,17.0,340,6,,6.21,30.0,,,,,,,,,,,BKN,2500,,,,,,,MVFR,,,,,,,,,,,,METAR,4.0
SACO 121400Z 06009KT 9999 SCT017 SCT024 23/19 Q1015 NOSIG,SACO,2019-01-12T14:00:00Z,-31.32,-64.22,23.0,19.0,60,9,,6.21,29.970472,,,,,,TRUE,,,,,SCT,1700,SCT,2400,,,,,VFR,,,,,,,,,,,,METAR,474.0
LFPG 121400Z 25010KT 9999 BKN011 08/06 Q1023 NOSIG,LFPG,2019-01-12T14:00:00Z,49.02,2.52,8.0,6.0,250,10,,6.21,30.206694,,,,,,TRUE,,,,,BKN,1100,,,,,,,MVFR,,,,,,,,,,,,METAR,109.0
LRSV 121400Z 30008KT 9999 BKN043 M00/M07 Q1008 R16/09//95,LRSV,2019-01-12T14:00:00Z,47.68,26.35,0.0,-7.0,300,8,,6.21,29.763779,,,,,,,,,,,BKN,4300,,,,,,,VFR,,,,,,,,,,,,METAR,351.0
LRIA 121400Z 29005KT 250V330 9999 FEW018 OVC038 M01/M06 Q1010 R14/950394,LRIA,2019-01-12T14:00:00Z,47.17,27.62,-1.0,-6.0,290,5,,6.21,29.822834,,,,,,,,,,,FEW,1800,OVC,3800,,,,,VFR,,,,,,,,,,,,METAR,104.0
LRCV 121400Z 26013KT CAVOK 00/M06 Q1012,LRCV,2019-01-12T14:00:00Z,44.32,23.88,0.0,-6.0,260,13,,6.21,29.88189,,,,,,,,,,,CAVOK,,,,,,,,VFR,,,,,,,,,,,,METAR,191.0
LRBC 121400Z 28010KT 9999 OVC050 01/M06 Q1010 R16/910294,LRBC,2019-01-12T14:00:00Z,46.52,26.92,1.0,-6.0,280,10,,6.21,29.822834,,,,,,,,,,,OVC,5000,,,,,,,VFR,,,,,,,,,,,,METAR,185.0
LRTR 121400Z 25005KT 2000 -SG BR FEW002 OVC004 M01/M01 Q1015 R11/690293,LRTR,2019-01-12T14:00:00Z,45.82,21.33,-1.0,-1.0,250,5,,1.24,29.970472,,,,,,,,,,-SG BR,FEW,200,OVC,400,,,,,LIFR,,,,,,,,,,,,METAR,88.0
LRSB 121400Z 00000KT 4000 -SN BR SCT013 BKN030 M03/M06 Q1012 R27/490194 NOSIG,LRSB,2019-01-12T14:00:00Z,45.78,24.08,-3.0,-6.0,0,0,,2.49,29.88189,,,,,,TRUE,,,,-SN BR,SCT,1300,BKN,3000,,,,,IFR,,,,,,,,,,,,METAR,444.0
LROP 121400Z 26008KT CAVOK M02/M05 Q1012 R88/19//95 NOSIG,LROP,2019-01-12T14:00:00Z,44.57,26.1,-2.0,-5.0,260,8,,6.21,29.88189,,,,,,TRUE,,,,,CAVOK,,,,,,,,VFR,,,,,,,,,,,,METAR,95.0
LRCK 121400Z 27018KT CAVOK M01/M05 Q1011 R18/11//95 NOSIG,LRCK,2019-01-12T14:00:00Z,44.37,28.48,-1.0,-5.0,270,18,,6.21,29.852362,,,,,,TRUE,,,,,CAVOK,,,,,,,,VFR,,,,,,,,,,,,METAR,108.0
LRBS 121400Z 26007KT 240V300 CAVOK M01/M05 Q1013 R07/29//95 NOSIG,LRBS,2019-01-12T14:00:00Z,44.5,26.08,-1.0,-5.0,260,7,,6.21,29.911417,,,,,,TRUE,,,,,CAVOK,,,,,,,,VFR,,,,,,,,,,,,METAR,91.0
LETL 121400Z AUTO 34013KT 9999 NCD 06/M03 Q1027,LETL,2019-01-12T14:00:00Z,40.42,-1.22,6.0,-3.0,340,13,,6.21,30.324802,,,TRUE,,,,,,,,CLR,,,,,,,,VFR,,,,,,,,,,,,METAR,1013.0
LECH 121400Z AUTO 18004KT 150V220 9999 NCD 14/M02 Q1025,LECH,2019-01-12T14:00:00Z,40.2,0.07,14.0,-2.0,180,4,,6.21,30.265747,,,TRUE,,,,,,,,CLR,,,,,,,,VFR,,,,,,,,,,,,METAR,337.0
LEBG 121400Z 03014KT 9999 FEW017 OVC023 06/02 Q1030,LEBG,2019-01-12T14:00:00Z,42.37,-3.62,6.0,2.0,30,14,,6.21,30.413385,,,,,,,,,,,FEW,1700,OVC,2300,,,,,MVFR,,,,,,,,,,,,METAR,891.0
LEAG 121400Z AUTO 09016KT CAVOK 14/05 Q1027,LEAG,2019-01-12T14:00:00Z,,,14.0,5.0,90,16,,6.21,30.324802,,,TRUE,,,,,,,,CAVOK,,,,,,,,VFR,,,,,,,,,,,,METAR,
LPPD 121400Z 04016KT 9999 FEW018 SCT040 16/12 Q1026,LPPD,2019-01-12T14:00:00Z,37.72,-25.68,16.0,12.0,40,16,,6.21,30.295275,,,,,,,,,,,FEW,1800,SCT,4000,,,,,VFR,,,,,,,,,,,,METAR,72.0
LPAZ 121400Z 08018KT 9999 BKN022 17/12 Q1023,LPAZ,2019-01-12T14:00:00Z,36.97,-25.17,17.0,12.0,80,18,,6.21,30.206694,,,,,,,,,,,BKN,2200,,,,,,,MVFR,,,,,,,,,,,,METAR,100.0
LPFL 121400Z VRB05KT 9999 SCT016 SCT034 16/12 Q1030,LPFL,2019-01-12T14:00:00Z,39.45,-31.12,16.0,12.0,0,5,,6.21,30.413385,,,,,,,,,,,SCT,1600,SCT,3400,,,,,VFR,,,,,,,,,,,,METAR,29.0
LPHR 121400Z 08020G30KT 9999 FEW018 18/10 Q1027,LPHR,2019-01-12T14:00:00Z,38.52,-28.72,18.0,10.0,80,20,30,6.21,30.324802,,,,,,,,,,,FEW,1800,,,,,,,VFR,,,,,,,,,,,,METAR,41.0
URRP 121400Z 26010MPS 9999 SCT012 M02/M05 Q1009 R23/310060 NOSIG RMK QFE749/0999,URRP,2019-01-12T14:00:00Z,47.5,39.92,-2.0,-5.0,260,19,,6.21,29.793306,,,,,,TRUE,,,,,SCT,1200,,,,,,,VFR,,,,,,,,,,,,METAR,65.0
URMT 121400Z 31005MPS 9999 BKN011 01/M01 Q1010 R25/150060 NOSIG RMK QFE719,URMT,2019-01-12T14:00:00Z,45.12,42.12,1.0,-1.0,310,10,,6.21,29.822834,,,,,,TRUE,,,,,BKN,1100,,,,,,,MVFR,,,,,,,,,,,,METAR,453.0
URMO 121400Z 06006MPS 9999 SCT025 03/00 Q1011 R09/010070 NOSIG RMK QFE715/0954,URMO,2019-01-12T14:00:00Z,43.2,44.6,3.0,0.0,60,12,,6.21,29.852362,,,,,,TRUE,,,,,SCT,2500,,,,,,,VFR,,,,,,,,,,,,METAR,510.0
URMN 121400Z 10003MPS 9999 BKN036 OVC/// 03/M02 Q1011 R24/110060 NOSIG RMK QFE722,URMN,2019-01-12T14:00:00Z,43.52,43.63,3.0,-2.0,100,6,,6.21,29.852362,,,,,,TRUE,,,,,BKN,3600,,,,,,,VFR,,,,,,,,,,,,METAR,445.0
URMM 121400Z 30003MPS 9999 BKN020 04/01 Q1011 R30/090070 NOSIG RMK MT OBSC QFE730/0974,URMM,2019-01-12T14:00:00Z,44.22,43.1,4.0,1.0,300,6,,6.21,29.852362,,,,,,TRUE,,,,,BKN,2000,,,,,,,MVFR,,,,,,,,,,,,METAR,314.0
URML 121400Z 35007MPS 9999 NSC 03/M01 Q1012 R32/010070 NOSIG RMK QFE758/1011,URML,2019-01-12T14:00:00Z,42.82,47.65,3.0,-1.0,350,14,,6.21,29.88189,,,,,,TRUE,,,,,CLR,,,,,,,,VFR,,,,,,,,,,,,METAR,4.0
URMG 121400Z 00000MPS 9999 OVC028 03/M01 Q1014 R26/000070 NOSIG RMK QFE746/0995,URMG,2019-01-12T14:00:00Z,43.37,45.7,3.0,-1.0,0,0,,6.21,29.940945,,,,,,TRUE,,,,,OVC,2800,,,,,,,MVFR,,,,,,,,,,,,METAR,263.0
URKK 121400Z 32002MPS 9999 SCT042 03/M00 Q1012 R23L/19//65 NOSIG RMK QFE755,URKK,2019-01-12T14:00:00Z,45.03,39.15,3.0,0.0,320,4,,6.21,29.88189,,,,,,TRUE,,,,,SCT,4200,,,,,,,VFR,,,,,,,,,,,,METAR,34.0
URKA 121400Z 04002MPS 9999 BKN019 03/01 Q1011 R22/010070 NOSIG RMK QFE753/1005,URKA,2019-01-12T14:00:00Z,45.0,37.35,3.0,1.0,40,4,,6.21,29.852362,,,,,,TRUE,,,,,BKN,1900,,,,,,,MVFR,,,,,,,,,,,,METAR,53.0
UIUU 121400Z 35002MPS 2600 FU NSC M20/M22 Q1023 R26/810550 NOSIG RMK QFE723/0964,UIUU,2019-01-12T14:00:00Z,51.8,107.45,-20.0,-22.0,350,4,,1.62,30.206694,,,,,,TRUE,,,,FU,CLR,,,,,,,,IFR,,,,,,,,,,,,METAR,515.0
UIII 121400Z 11002MPS CAVOK M14/M17 Q1020 R12/810550 NOSIG RMK QFE722/0963,UIII,2019-01-12T14:00:00Z,52.27,104.4,-14.0,-17.0,110,4,,6.21,30.11811,,,,,,TRUE,,,,,CAVOK,,,,,,,,VFR,,,,,,,,,,,,METAR,513.0
UIBB 121400Z AUTO 17001MPS 6000 // ///068/// M20/M22 Q1019 RMK QFE721/0961,UIBB,2019-01-12T14:00:00Z,56.37,101.7,-20.0,-22.0,170,2,,3.73,30.088583,,,TRUE,,,,,,,,,,,,,,,,,,,,,,,,,,,,METAR,490.0
UIAA 121400Z AUTO VRB01MPS 9999 NCD M17/M21 Q1022 RMK QFE708/0944,UIAA,2019-01-12T14:00:00Z,52.02,113.32,-17.0,-21.0,0,2,,6.21,30.177166,,,TRUE,,,,,,,,CLR,,,,,,,,VFR,,,,,,,,,,,,METAR,685.0
UWGG 121400Z 18004MPS 9999 BKN017 M08/M11 Q0994 R18L/490240 NOSIG,UWGG,2019-01-12T14:00:00Z,56.23,43.78,-8.0,-11.0,180,8,,6.21,29.350393,,,,,,TRUE,,,,,BKN,1700,,,,,,,MVFR,,,,,,,,,,,,METAR,73.0
UUOB 121400Z 22005MPS 6000 -SN BKN003 M11/M13 Q1002 R29/420150 NOSIG RMK QBB110,UUOB,2019-01-12T14:00:00Z,50.65,36.58,-11.0,-13.0,220,10,,3.73,29.586615,,,,,,TRUE,,,,-SN,BKN,300,,,,,,,LIFR,,,,,,,,,,,,METAR,224.0
UUBP 121400Z 18003MPS 6000 OVC022 M11/M13 Q0998 R16/490250 NOSIG RMK QFE731/0975,UUBP,2019-01-12T14:00:00Z,53.22,34.18,-11.0,-13.0,180,6,,3.73,29.468504,,,,,,TRUE,,,,,OVC,2200,,,,,,,MVFR,,,,,,,,,,,,METAR,202.0
UUBC 121400Z 23004MPS 190V250 9000 -SN OVC015 M12/M14 Q0996 R31/450240 NOSIG RMK QFE730/0974,UUBC,2019-01-12T14:00:00Z,54.55,36.37,-12.0,-14.0,230,8,,5.59,29.409449,,,,,,TRUE,,,,-SN,OVC,1500,,,,,,,MVFR,,,,,,,,,,,,METAR,199.0
ULWC 121400Z 20005MPS 5000 -SN BKN007 OVC016 M06/M07 Q0986 R21/490337 TEMPO 2100 -SN BKN004 RMK QFE729/0973,ULWC,2019-01-12T14:00:00Z,59.28,38.02,-6.0,-7.0,200,10,,3.11,29.114174,,,,,,,,,,-SN,BKN,700,OVC,1600,,,,,IFR,,,,,,,,,,,,METAR,115.0
UHSS 121400Z 36003MPS 9999 NSC M16/M18 Q1022 R01/810365 NOSIG RMK QFE766/1021,UHSS,2019-01-12T14:00:00Z,46.88,142.72,-16.0,-18.0,360,6,,6.21,30.177166,,,,,,TRUE,,,,,CLR,,,,,,,,VFR,,,,,,,,,,,,METAR,31.0
UHMM 121400Z 00000MPS 9999 FEW040 M21/M22 Q1013 RMK QFE745,UHMM,2019-01-12T14:00:00Z,59.92,150.72,-21.0,-22.0,0,0,,6.21,29.911417,,,,,,,,,,,FEW,4000,,,,,,,VFR,,,,,,,,,,,,METAR,175.0
UHMA 121400Z 35006MPS 9999 FEW045 M27/M30 Q1023 R01/////// NOSIG RMK END R01/34005MPS QFE763/1018,UHMA,2019-01-12T14:00:00Z,64.73,177.73,-27.0,-30.0,350,12,,6.21,30.206694,,,,,,TRUE,,,,,FEW,4500,,,,,,,VFR,,,,,,,,,,,,METAR,62.0
UHWW 121400Z 03001MPS 7000 NSC M13/M20 Q1025 R07R/0///70 NOSIG RMK QFE768,UHWW,2019-01-12T14:00:00Z,43.4,132.15,-13.0,-20.0,30,2,,4.35,30.265747,,,,,,TRUE,,,,,CLR,,,,,,,,MVFR,,,,,,,,,,,,METAR,14.0
UHPP 121400Z 29007MPS 9999 NSC 00/M08 Q0998 R34L/720355 NOSIG RMK QFE745/0993,UHPP,2019-01-12T14:00:00Z,53.17,158.45,0.0,-8.0,290,14,,6.21,29.468504,,,,,,TRUE,,,,,CLR,,,,,,,,VFR,,,,,,,,,,,,METAR,40.0
UHHH 121400Z 01003MPS CAVOK M18/M21 Q1027 R23L/090060 NOSIG RMK QFE763/1018,UHHH,2019-01-12T14:00:00Z,48.52,135.18,-18.0,-21.0,10,6,,6.21,30.324802,,,,,,TRUE,,,,,CAVOK,,,,,,,,VFR,,,,,,,,,,,,METAR,72.0
GUCY 121400Z 28002KT 3000 HZ BKN110 31/21 Q1010 NOSIG,GUCY,2019-01-12T14:00:00Z,9.57,-13.62,31.0,21.0,280,2,,1.86,29.822834,,,,,,TRUE,,,,HZ,BKN,11000,,,,,,,IFR,,,,,,,,,,,,METAR,26.0
GQNO 121400Z 11010KT CAVOK 30/M14 Q1012 NOSIG,GQNO,2019-01-12T14:00:00Z,18.3,-15.97,30.0,-14.0,110,10,,6.21,29.88189,,,,,,TRUE,,,,,CAVOK,,,,,,,,VFR,,,,,,,,,,,,METAR,4.0
GOGG 121400Z 09004KT CAVOK 33/07 Q1014,GOGG,2019-01-12T14:00:00Z,12.55,-16.27,33.0,7.0,90,4,,6.21,29.940945,,,,,,,,,,,CAVOK,,,,,,,,VFR,,,,,,,,,,,,METAR,23.0
GOTT 121400Z 07004KT CAVOK 35/05 Q1010,GOTT,2019-01-12T14:00:00Z,13.73,-13.65,35.0,5.0,70,4,,6.21,29.822834,,,,,,,,,,,CAVOK,,,,,,,,VFR,,,,,,,,,,,,METAR,50.0
GOSS 121400Z 12006KT CAVOK 34/03 Q1011,GOSS,2019-01-12T14:00:00Z,16.05,-16.43,34.0,3.0,120,6,,6.21,29.852362,,,,,,,,,,,CAVOK,,,,,,,,VFR,,,,,,,,,,,,METAR,4.0
GOOY 121400Z 36004KT CAVOK 26/12 Q1012,GOOY,2019-01-12T14:00:00Z,14.72,-17.5,26.0,12.0,360,4,,6.21,29.88189,,,,,,,,,,,CAVOK,,,,,,,,VFR,,,,,,,,,,,,METAR,24.0
GABS 121400Z 06007KT 360V140 CAVOK 34/M04 Q1012 NOSIG,GABS,2019-01-12T14:00:00Z,12.52,-7.95,34.0,-4.0,60,7,,6.21,29.88189,,,,,,TRUE,,,,,CAVOK,,,,,,,,VFR,,,,,,,,,,,,METAR,381.0
FMNN 121400Z 01002KT 9999 SCT020CB BKN230 29/25 Q1010,FMNN,2019-01-12T14:00:00Z,-13.32,48.32,29.0,25.0,10,2,,6.21,29.822834,,,,,,,,,,,SCT,2000,BKN,23000,,,,,VFR,,,,,,,,,,,,METAR,9.0
FMNA 121400Z 10008KT 9999 FEW020CB SCT230 28/24 Q1009,FMNA,2019-01-12T14:00:00Z,-12.33,49.28,28.0,24.0,100,8,,6.21,29.793306,,,,,,,,,,,FEW,2000,SCT,23000,,,,,VFR,,,,,,,,,,,,METAR,105.0
VILK 121400Z 00000KT 2000 HZ NSC 15/09 Q1017 BECMG 1500 HZ BR,VILK,2019-01-12T14:00:00Z,26.75,80.87,15.0,9.0,0,0,,1.24,30.029528,,,,,,,,,,HZ,CLR,,,,,,,,IFR,,,,,,,,,,,,METAR,128.0
OIBP 121400Z 30006KT CAVOK 20/12 Q1017 A3005,OIBP,2019-01-12T14:00:00Z,27.38,52.73,20.0,12.0,300,6,,6.21,30.029528,,,,,,,,,,,CAVOK,,,,,,,,VFR,,,,,,,,,,,,METAR,9.0
VEBS 121400Z 13002KT 2500 BR NSC 21/17 Q1016 NOSIG,VEBS,2019-01-12T14:00:00Z,20.25,85.82,21.0,17.0,130,2,,1.55,30.0,,,,,,TRUE,,,,BR,CLR,,,,,,,,IFR,,,,,,,,,,,,METAR,46.0
VOMY 121400Z 00000KT 6000 NSC 25/10 Q1017,VOMY,2019-01-12T14:00:00Z,12.23,76.65,25.0,10.0,0,0,,3.73,30.029528,,,,,,,,,,,CLR,,,,,,,,MVFR,,,,,,,,,,,,METAR,722.0
VABO 121400Z 32004KT 6000 NSC 22/12 Q1014 NOSIG,VABO,2019-01-12T14:00:00Z,22.33,73.22,22.0,12.0,320,4,,3.73,29.940945,,,,,,TRUE,,,,,CLR,,,,,,,,MVFR,,,,,,,,,,,,METAR,39.0
VEBN 121400Z VRB01KT 1500 BR NSC 17/13 Q1016 NOSIG,VEBN,2019-01-12T14:00:00Z,25.45,82.85,17.0,13.0,0,1,,0.93,30.0,,,,,,TRUE,,,,BR,CLR,,,,,,,,LIFR,,,,,,,,,,,,METAR,83.0
WAHS 121400Z 13003KT 4000 -TSRA FEW013CB SCT014 25/23 Q1010 NOSIG,WAHS,2019-01-12T14:00:00Z,-6.98,110.38,25.0,23.0,130,3,,2.49,29.822834,,,,,,TRUE,,,,-TSRA,FEW,1300,SCT,1400,,,,,IFR,,,,,,,,,,,,METAR,5.0
WIPP 121400Z 35003KT 9999 FEW010 25/24 Q1011,WIPP,2019-01-12T14:00:00Z,-2.88,104.7,25.0,24.0,350,3,,6.21,29.852362,,,,,,,,,,,FEW,1000,,,,,,,VFR,,,,,,,,,,,,METAR,10.0
OTHH 121400Z 34012KT CAVOK 19/09 Q1018 NOSIG,OTHH,2019-01-12T14:00:00Z,25.25,51.6,19.0,9.0,340,12,,6.21,30.059055,,,,,,TRUE,,,,,CAVOK,,,,,,,,VFR,,,,,,,,,,,,METAR,0.0
OTBD 121400Z 33008KT CAVOK 20/10 Q1019 NOSIG,OTBD,2019-01-12T14:00:00Z,25.25,51.57,20.0,10.0,330,8,,6.21,30.088583,,,,,,TRUE,,,,,CAVOK,,,,,,,,VFR,,,,,,,,,,,,METAR,10.0
ROYN 121400Z AUTO 04021KT 8000 FEW011 SCT018 BKN032 20/18 Q1020,ROYN,2019-01-12T14:00:00Z,24.47,122.97,20.0,18.0,40,21,,4.97,30.11811,,,TRUE,,,,,,,,FEW,1100,SCT,1800,BKN,3200,,,MVFR,,,,,,,,,,,,METAR,17.0
RORY 121400Z AUTO 35011KT 9999 FEW027 20/15 Q1019,RORY,2019-01-12T14:00:00Z,27.05,128.4,20.0,15.0,350,11,,6.21,30.088583,,,TRUE,,,,,,,,FEW,2700,,,,,,,VFR,,,,,,,,,,,,METAR,16.0
RJSM 121400Z 29005KT 9999 FEW020 BKN030 M01/M06 Q1020,RJSM,2019-01-12T14:00:00Z,40.7,141.37,-1.0,-6.0,290,5,,6.21,30.11811,,,,,,,,,,,FEW,2000,BKN,3000,,,,,MVFR,,,,,,,,,,,,METAR,36.0
RJOS 121400Z 31005KT 9999 SCT030 06/01 Q1018,RJOS,2019-01-12T14:00:00Z,34.12,134.62,6.0,1.0,310,5,,6.21,30.059055,,,,,,,,,,,SCT,3000,,,,,,,VFR,,,,,,,,,,,,METAR,11.0
KW29 121400Z AUTO 10SM CLR M01/M09 A3055 RMK AO2,KW29,2019-01-12T14:00:00Z,38.98,-76.33,-1.0,-9.0,,,,10.0,30.549213,,,TRUE,TRUE,,,,,,,CLR,,,,,,,,VFR,,,,,,,,,,,,SPECI,15.0
KSUT 121400Z AUTO 04006KT 10SM CLR 05/00 A3043 RMK AO2 T00500000,KSUT,2019-01-12T14:00:00Z,33.93,-78.08,5.0,0.0,40,6,,10.0,30.431103,,,TRUE,TRUE,,,,,,,CLR,,,,,,,,VFR,,,,,,,,,,,,SPECI,8.0
CYSJ 121400Z 28011G20KT 260V320 15SM FEW015 FEW120 M16/M21 A3014 RMK SC1AC1 SLP218,CYSJ,2019-01-12T14:00:00Z,45.32,-65.87,-16.0,-21.0,280,11,20,15.0,30.138779,1021.8,,,,,,,,,,FEW,1500,FEW,12000,,,,,VFR,,,,,,,,,,,,SPECI,109.0
CYGV 121400Z AUTO 28007KT 9SM OVC033 M07/M08 A2977 RMK SLP085,CYGV,2019-01-12T14:00:00Z,50.27,-63.62,-7.0,-8.0,280,7,,9.0,29.769686,1008.5,,TRUE,,,,,,,,OVC,3300,,,,,,,VFR,,,,,,,,,,,,SPECI,33.0
CYBX 121400Z 21020KT 3SM -SN FEW008 BKN023 OVC040 M03/M05 A2981 RMK SC2SC3SC3 SLP098,CYBX,2019-01-12T14:00:00Z,51.45,-57.17,-3.0,-5.0,210,20,,3.0,29.811024,1009.8,,,,,,,,,-SN,FEW,800,BKN,2300,OVC,4000,,,MVFR,,,,,,,,,,,,SPECI,35.0
CYAS 121400Z 33008KT 15SM FEW030 SCT120 BKN180 M19/M22 A3022 RMK SC1AS2CS4 SLP251,CYAS,2019-01-12T14:00:00Z,60.02,-70.0,-19.0,-22.0,330,8,,15.0,30.221457,1025.1,,,,,,,,,,FEW,3000,SCT,12000,BKN,18000,,,VFR,,,,,,,,,,,,SPECI,117.0
CWWU 121400Z 21013G21KT 15SM FEW026 BKN055 02/M03 A3006 RMK SC2SC4 SH DIST SW-NW SLP180,CWWU,2019-01-12T14:00:00Z,47.52,-52.98,2.0,-3.0,210,13,21,15.0,30.059055,1018.0,,,,,,,,,,FEW,2600,BKN,5500,,,,,VFR,,,,,,,,,,,,SPECI,13.0
CYYG 121400Z 25012G20KT 15SM FEW020 BKN100 M15/M20 A3003 RMK SC1AC6 SLP174,CYYG,2019-01-12T14:00:00Z,46.27,-63.12,-15.0,-20.0,250,12,20,15.0,30.029528,1017.4,,,,,,,,,,FEW,2000,BKN,10000,,,,,VFR,,,,,,,,,,,,SPECI,54.0
CYTQ 121400Z 02007KT 10SM BKN010 M15/M18 A3027 RMK SC7 SLP255,CYTQ,2019-01-12T14:00:00Z,58.67,-69.95,-15.0,-18.0,20,7,,10.0,30.268702,1025.5,,,,,,,,,,BKN,1000,,,,,,,MVFR,,,,,,,,,,,,SPECI,31.0
UTO8 M M M 286/-35/-38/0106/M/ SOG 09 6015 85MM,UTO8,2019-01-12T14:00:00Z,,,,,,,,3.74,,,,,,,,,,,,,,,,,,,,,,,,,,,,,,,,SPECI,
DAUL 121400Z 01010KT 9999 FEW046 11/M05 Q1025,DAUL,2019-01-12T14:00:00Z,33.77,2.92,11.0,-5.0,10,10,,6.21,30.265747,,,,,,,,,,,FEW,4600,,,,,,,VFR,,,,,,,,,,,,SPECI,765.0
CYDQ 121400Z AUTO VRB02KT 9SM SCT130 M02/M03 A2982 RMK SLP135,CYDQ,2019-01-12T14:00:00Z,55.75,-120.17,-2.0,-3.0,0,2,,9.0,29.819881,1013.5,,TRUE,,,,,,,,SCT,13000,,,,,,,VFR,,,,,,,,,,,,SPECI,655.0
TNCC 121400Z AUTO 10011KT 9999 NSC 28/22 Q1017 NOSIG,TNCC,2019-01-12T14:00:00Z,12.2,-68.97,28.0,22.0,100,11,,6.21,30.029528,,,TRUE,,,TRUE,,,,,CLR,,,,,,,,VFR,,,,,,,,,,,,METAR,9.0
URSS 121400Z 04004MPS 9999 -SHRA OVC032CB 05/04 Q1013 WS ALL RWY R02/290055 R06/290055 NOSIG RMK R06/07005MPS MT OBSC QFE759,URSS,2019-01-12T14:00:00Z,43.45,39.95,5.0,4.0,40,8,,6.21,29.911417,,,,,,TRUE,,,,-SHRA,OVC,3200,,,,,,,VFR,,,,,,,,,,,,METAR,16.0
CYQZ 121400Z AUTO 18004KT 9SM BKN095 OVC160 01/M00 A2993 RMK SLP162,CYQZ,2019-01-12T14:00:00Z,53.02,-122.52,1.0,0.0,180,4,,9.0,29.929134,1016.2,,TRUE,,,,,,,,BKN,9500,OVC,16000,,,,,VFR,,,,,,,,,,,,SPECI,545.0
CYQD 121400Z AUTO 14012KT 9SM BKN180 M19/M22 A3024 RMK SLP273,CYQD,2019-01-12T14:00:00Z,53.97,-101.08,-19.0,-22.0,140,12,,9.0,30.239174,1027.3,,TRUE,,,,,,,,BKN,18000,,,,,,,VFR,,,,,,,,,,,,SPECI,271.0
CYKY 121400Z 21020KT 15SM FEW220 M09/M11 A2994 RMK CI1 SLP189,CYKY,2019-01-12T14:00:00Z,51.52,-109.17,-9.0,-11.0,210,20,,15.0,29.940945,1018.9,,,,,,,,,,FEW,22000,,,,,,,VFR,,,,,,,,,,,,SPECI,694.0
CYIV 121400Z 14008KT 15SM FEW080 FEW240 M22/M25 A3047 RMK AS1CI1 SLP353,CYIV,2019-01-12T14:00:00Z,53.85,-94.65,-22.0,-25.0,140,8,,15.0,30.469488,1035.3,,,,,,,,,,FEW,8000,FEW,24000,,,,,VFR,,,,,,,,,,,,SPECI,237.0
CYHE 121400Z AUTO 11014KT 9SM CLR 03/01 A3007 RMK SLP187,CYHE,2019-01-12T14:00:00Z,49.37,-121.5,3.0,1.0,110,14,,9.0,30.070866,1018.7,,TRUE,,,,,,,,CLR,,,,,,,,VFR,,,,,,,,,,,,SPECI,39.0
CYFO 121400Z 17006KT 15SM -SN DRSN SCT011 BKN100 M17/M19 A3020 RMK SC3AC4 SLP260,CYFO,2019-01-12T14:00:00Z,54.67,-101.67,-17.0,-19.0,170,6,,15.0,30.200787,1026.0,,,,,,,,,-SN DRSN,SCT,1100,BKN,10000,,,,,VFR,,,,,,,,,,,,SPECI,304.0
CYEV 121400Z 28009G18KT 3SM -SN DRSN SCT033 OVC100 M26/M30 A3011 RMK SC3AC5 SLP210,CYEV,2019-01-12T14:00:00Z,68.32,-133.5,-26.0,-30.0,280,9,18,3.0,30.109253,1021.0,,,,,,,,,-SN DRSN,SCT,3300,OVC,10000,,,,,MVFR,,,,,,,,,,,,SPECI,68.0
CYDB 121400Z AUTO 32003KT 9SM CLR M35/M39 A2979 RMK SLP209,CYDB,2019-01-12T14:00:00Z,61.37,-139.05,-35.0,-39.0,320,3,,9.0,29.790354,1020.9,,TRUE,,,,,,,,CLR,,,,,,,,VFR,,,,,,,,,,,,SPECI,801.0
CYCQ 121400Z VRB02KT 10SM FEW020 FEW220 M07/M08 A2983 RMK SC1CI2 SC TR FROIN SLP143,CYCQ,2019-01-12T14:00:00Z,55.7,-121.62,-7.0,-8.0,0,2,,10.0,29.828741,1014.3,,,,,,,,,,FEW,2000,FEW,22000,,,,,VFR,,,,,,,,,,,,SPECI,609.0
CYCP 121400Z 00000KT 1/2SM FZFG VV003 M01/M01 A3011 RMK FG8 FROIN SLP231,CYCP,2019-01-12T14:00:00Z,52.13,-119.28,-1.0,-1.0,0,0,,0.5,30.109253,1023.1,,,,,,,,,FZFG,OVX,0,,,,,,,LIFR,,,,,,,,,,,300,SPECI,683.0
CYBL 121400Z 28003KT 3/4SM R12/P6000FT/N BR OVC002 05/05 A2996 RMK ST8 SLP149,CYBL,2019-01-12T14:00:00Z,49.95,-125.27,5.0,5.0,280,3,,0.75,29.958662,1014.9,,,,,,,,,BR,OVC,200,,,,,,,LIFR,,,,,,,,,,,,SPECI,106.0
FMEP 121400Z AUTO 15009KT 9999 FEW023 30/22 Q1013 BECMG FEW020 SCT040CB,FMEP,2019-01-12T14:00:00Z,-21.32,55.42,30.0,22.0,150,9,,6.21,29.911417,,,TRUE,,,,,,,,FEW,2300,,,,,,,VFR,,,,,,,,,,,,SPECI,18.0
FMEE 121400Z AUTO 11013KT 9999 FEW035 29/23 Q1013 TEMPO VRB15G25KT 3000 SHRA SCT014TCU,FMEE,2019-01-12T14:00:00Z,-20.87,55.52,29.0,23.0,110,13,,6.21,29.911417,,,TRUE,,,,,,,,FEW,3500,,,,,,,VFR,,,,,,,,,,,,SPECI,25.0
FBMN 121400Z 36003KT 9999 SCT030 36/17 Q1008,FBMN,2019-01-12T14:00:00Z,-19.97,23.42,36.0,17.0,360,3,,6.21,29.763779,,,,,,,,,,,SCT,3000,,,,,,,VFR,,,,,,,,,,,,METAR,900.0
FBFT 121400Z 22010KT 9999 TS SCT025 FEW030CB SCT065 23/18 Q1010 RERA,FBFT,2019-01-12T14:00:00Z,-21.17,27.48,23.0,18.0,220,10,,6.21,29.822834,,,,,,,,,,TS,SCT,2500,FEW,3000,SCT,6500,,,VFR,,,,,,,,,,,,METAR,1000.0
VTUU 121400Z 02007KT 8000 NSC 27/18 Q1014 NOSIG,VTUU,2019-01-12T14:00:00Z,15.25,104.87,27.0,18.0,20,7,,4.97,29.940945,,,,,,TRUE,,,,,CLR,,,,,,,,MVFR,,,,,,,,,,,,METAR,127.0
VTUQ 121400Z 00000KT 9000 NSC 24/18 Q1014 NOSIG,VTUQ,2019-01-12T14:00:00Z,14.95,102.32,24.0,18.0,0,0,,5.59,29.940945,,,,,,TRUE,,,,,CLR,,,,,,,,VFR,,,,,,,,,,,,METAR,234.0
VTUO 121400Z AUTO 08004KT ////NDV // ////// 27/19 Q1014 A2996,VTUO,2019-01-12T14:00:00Z,15.23,103.25,27.0,19.0,80,4,,,29.940945,,,TRUE,,,,,,,,,,,,,,,,,,,,,,,,,,,,SPECI,183.0
VTUK 121400Z 06005KT 9000 NSC 27/17 Q1014 NOSIG,VTUK,2019-01-12T14:00:00Z,16.47,102.78,27.0,17.0,60,5,,5.59,29.940945,,,,,,TRUE,,,,,CLR,,,,,,,,VFR,,,,,,,,,,,,METAR,204.0
VTUI 121400Z 11009KT CAVOK 26/19 Q1015 NOSIG,VTUI,2019-01-12T14:00:00Z,17.2,104.12,26.0,19.0,110,9,,6.21,29.970472,,,,,,TRUE,,,,,CAVOK,,,,,,,,VFR,,,,,,,,,,,,METAR,172.0
VTUD 121400Z 00000KT CAVOK 25/18 Q1014 NOSIG,VTUD,2019-01-12T14:00:00Z,17.37,102.78,25.0,18.0,0,0,,6.21,29.940945,,,,,,TRUE,,,,,CAVOK,,,,,,,,VFR,,,,,,,,,,,,METAR,182.0
UKWW 121400Z 32008MPS 6000 DRSN SCT010 BKN015CB M02/M03 Q1005 R13/491040 NOSIG,UKWW,2019-01-12T14:00:00Z,49.25,28.6,-2.0,-3.0,320,16,,3.73,29.675198,,,,,,TRUE,,,,DRSN,SCT,1000,BKN,1500,,,,,MVFR,,,,,,,,,,,,METAR,293.0
CYRV 121400Z AUTO VRB02KT 9SM OVC009 M01/M03 A3024 RMK SLP264,CYRV,2019-01-12T14:00:00Z,50.97,-118.17,-1.0,-3.0,0,2,,9.0,30.239174,1026.4,,TRUE,,,,,,,,OVC,900,,,,,,,IFR,,,,,,,,,,,,SPECI,443.0
CYVL 121400Z AUTO 20014G19KT 5SM -SN BKN041 OVC055 M33/M37 A2993 RMK SLP184,CYVL,2019-01-12T14:00:00Z,67.02,-126.13,-33.0,-37.0,200,14,19,5.0,29.929134,1018.4,,TRUE,,,,,,,-SN,BKN,4100,OVC,5500,,,,,MVFR,,,,,,,,,,,,METAR,259.0
CYXC 121400Z 29003KT 2SM BR FEW004 OVC018 M03/M06 A3023 RMK SF2SC6 SLP277,CYXC,2019-01-12T14:00:00Z,49.6,-115.77,-3.0,-6.0,290,3,,2.0,30.230314,1027.7,,,,,,,,,BR,FEW,400,OVC,1800,,,,,IFR,,,,,,,,,,,,SPECI,939.0
CYQQ 121400Z 00000KT 15SM -RA BKN068 OVC090 05/05 A2997 RMK AC6AC2 SLP150,CYQQ,2019-01-12T14:00:00Z,49.72,-124.9,5.0,5.0,0,0,,15.0,29.970472,1015.0,,,,,,,,,-RA,BKN,6800,OVC,9000,,,,,VFR,,,,,,,,,,,,SPECI,24.0
URWA 121400Z 25002MPS 1600 1100NW R27/2000 BR BKN005 03/03 Q1011 R27/190055 TEMPO 0300 FG OVC001 RMK OBST OBSC QFE760/1013,URWA,2019-01-12T14:00:00Z,46.28,48.02,3.0,3.0,250,4,,0.99,29.852362,,,,,,,,,,BR,BKN,500,,,,,,,LIFR,,,,,,,,,,,,METAR,-20.0
UNAA 121400Z 28005MPS 7000 NSC M15/M20 Q1030 R20/810249 NOSIG RMK QFE749,UNAA,2019-01-12T14:00:00Z,53.75,91.4,-15.0,-20.0,280,10,,4.35,30.413385,,,,,,TRUE,,,,,CLR,,,,,,,,MVFR,,,,,,,,,,,,METAR,245.0
USCM 121400Z 19008MPS 4000 -SN OVC009 M10/M11 Q1011 R18/450257 TEMPO 2000 SN VV005 RMK QFE721,USCM,2019-01-12T14:00:00Z,53.4,58.75,-10.0,-11.0,190,16,,2.49,29.852362,,,,,,,,,,-SN,OVC,900,,,,,,,IFR,,,,,,,,,,,,METAR,435.0
URWW 121400Z 26011MPS 9999 BKN016 M03/M06 Q1006 R24/710140 NOSIG,URWW,2019-01-12T14:00:00Z,48.78,44.33,-3.0,-6.0,260,21,,6.21,29.704725,,,,,,TRUE,,,,,BKN,1600,,,,,,,MVFR,,,,,,,,,,,,METAR,147.0
URWI 121400Z 28006MPS CAVOK 00/M01 Q1010 R27/190050 TEMPO 2000 BR BKN003,URWI,2019-01-12T14:00:00Z,46.37,44.33,0.0,-1.0,280,12,,6.21,29.822834,,,,,,,,,,,CAVOK,,,,,,,,VFR,,,,,,,,,,,,METAR,150.0
SANT 121400Z 11005KT 9999 SCT020 BKN040 BKN100 21/17 Q1015,SANT,2019-01-12T14:00:00Z,-26.85,-65.08,21.0,17.0,110,5,,6.21,29.970472,,,,,,,,,,,SCT,2000,BKN,4000,BKN,10000,,,VFR,,,,,,,,,,,,METAR,450.0
SARE 121400Z 36007KT 9999 FEW030 SCT100 28/25 Q1013,SARE,2019-01-12T14:00:00Z,-27.43,-59.03,28.0,25.0,360,7,,6.21,29.911417,,,,,,,,,,,FEW,3000,SCT,10000,,,,,VFR,,,,,,,,,,,,METAR,52.0
MHCH 121400Z 04012KT 9999 FEW030 27/19 HZ,MHCH,2019-01-12T14:00:00Z,13.32,-87.15,27.0,19.0,40,12,,6.21,,,,,,,,,,,HZ,FEW,3000,,,,,,,VFR,,,,,,,,,,,,METAR,48.0
SARL 121400Z 11016KT 9999 TS BKN011 FEW045CB OVC100 22/21 Q1015,SARL,2019-01-12T14:00:00Z,-29.67,-57.13,22.0,21.0,110,16,,6.21,29.970472,,,,,,,,,,TS,BKN,1100,FEW,4500,OVC,10000,,,MVFR,,,,,,,,,,,,METAR,70.0
SARP 121400Z 36004KT CAVOK 27/22 Q1015,SARP,2019-01-12T14:00:00Z,-27.38,-55.97,27.0,22.0,360,4,,6.21,29.970472,,,,,,,,,,,CAVOK,,,,,,,,VFR,,,,,,,,,,,,METAR,125.0
SASJ 121400Z 09006KT 9999 SCT015 BKN020 21/17 Q1017,SASJ,2019-01-12T14:00:00Z,-24.37,-65.1,21.0,17.0,90,6,,6.21,30.029528,,,,,,,,,,,SCT,1500,BKN,2000,,,,,MVFR,,,,,,,,,,,,METAR,1167.0
SASA 121400Z 02005KT 9999 VCSH FEW010 SCT020 19/15 Q1018,SASA,2019-01-12T14:00:00Z,-24.85,-65.47,19.0,15.0,20,5,,6.21,30.059055,,,,,,,,,,VCSH,FEW,1000,SCT,2000,,,,,VFR,,,,,,,,,,,,METAR,1216.0
SAZM 121400Z 34016KT CAVOK 24/16 Q1015,SAZM,2019-01-12T14:00:00Z,-37.92,-57.57,24.0,16.0,340,16,,6.21,29.970472,,,,,,,,,,,CAVOK,,,,,,,,VFR,,,,,,,,,,,,METAR,21.0
SARC 121400Z 02006KT 9999 SCT017 BKN100 28/23 Q1013,SARC,2019-01-12T14:00:00Z,-27.43,-58.77,28.0,23.0,20,6,,6.21,29.911417,,,,,,,,,,,SCT,1700,BKN,10000,,,,,VFR,,,,,,,,,,,,METAR,62.0
SAZS 121400Z 29022KT 9999 SCT045 SCT100 13/05 Q1016,SAZS,2019-01-12T14:00:00Z,-41.13,-71.17,13.0,5.0,290,22,,6.21,30.0,,,,,,,,,,,SCT,4500,SCT,10000,,,,,VFR,,,,,,,,,,,,METAR,840.0
SAZN 121400Z 25007KT CAVOK 23/01 Q1014,SAZN,2019-01-12T14:00:00Z,-38.95,-68.15,23.0,1.0,250,7,,6.21,29.940945,,,,,,,,,,,CAVOK,,,,,,,,VFR,,,,,,,,,,,,METAR,271.0
SKPV 121400Z VRB04KT 9999 FEW017 27/22 A3001,SKPV,2019-01-12T14:00:00Z,13.37,-81.33,27.0,22.0,0,4,,6.21,30.008858,,,,,,,,,,,FEW,1700,,,,,,,VFR,,,,,,,,,,,,METAR,6.0
SKRH 121400Z 08010KT 9999 SCT017 28/21 A3000,SKRH,2019-01-12T14:00:00Z,11.52,-72.92,28.0,21.0,80,10,,6.21,30.0,,,,,,,,,,,SCT,1700,,,,,,,VFR,,,,,,,,,,,,METAR,4.0
SKSM 121400Z 00000KT 8000 FEW020 SCT200 27/21 A2999 RMK HZ,SKSM,2019-01-12T14:00:00Z,11.12,-74.22,27.0,21.0,0,0,,4.97,29.991142,,,,,,,,,,,FEW,2000,SCT,20000,,,,,MVFR,,,,,,,,,,,,METAR,4.0
SKUC 121400Z 13005KT 9999 FEW030 29/21 A2996,SKUC,2019-01-12T14:00:00Z,7.07,-70.72,29.0,21.0,130,5,,6.21,29.958662,,,,,,,,,,,FEW,3000,,,,,,,VFR,,,,,,,,,,,,METAR,128.0
UNBB 121400Z 27002MPS CAVOK M17/M19 Q1034 R24/450547 NOSIG RMK QFE753,UNBB,2019-01-12T14:00:00Z,53.37,83.53,-17.0,-19.0,270,4,,6.21,30.531496,,,,,,TRUE,,,,,CAVOK,,,,,,,,VFR,,,,,,,,,,,,METAR,255.0
OEAH 121400Z 36007KT CAVOK 18/M03 Q1019 NOSIG,OEAH,2019-01-12T14:00:00Z,25.27,49.47,18.0,-3.0,360,7,,6.21,30.088583,,,,,,TRUE,,,,,CAVOK,,,,,,,,VFR,,,,,,,,,,,,METAR,172.0
OEAB 121400Z 20005KT CAVOK 21/12 Q1024 NOSIG,OEAB,2019-01-12T14:00:00Z,18.22,42.63,21.0,12.0,200,5,,6.21,30.236221,,,,,,TRUE,,,,,CAVOK,,,,,,,,VFR,,,,,,,,,,,,METAR,2084.0
OEAR 121400Z 21008KT CAVOK 32/14 Q1011,OEAR,2019-01-12T14:00:00Z,,,32.0,14.0,210,8,,6.21,29.852362,,,,,,,,,,,CAVOK,,,,,,,,VFR,,,,,,,,,,,,METAR,
OEAO 121400Z 17014KT CAVOK 26/08 Q1013,OEAO,2019-01-12T14:00:00Z,26.48,38.12,26.0,8.0,170,14,,6.21,29.911417,,,,,,,,,,,CAVOK,,,,,,,,VFR,,,,,,,,,,,,METAR,624.0
OEDM 121400Z 12012KT CAVOK 23/01 Q1017,OEDM,2019-01-12T14:00:00Z,24.45,44.12,23.0,1.0,120,12,,6.21,30.029528,,,,,,,,,,,CAVOK,,,,,,,,VFR,,,,,,,,,,,,METAR,922.0
OEBH 121400Z 06012KT CAVOK 25/10 Q1017 NOSIG,OEBH,2019-01-12T14:00:00Z,19.97,42.62,25.0,10.0,60,12,,6.21,30.029528,,,,,,TRUE,,,,,CAVOK,,,,,,,,VFR,,,,,,,,,,,,METAR,1157.0
OEBA 121400Z 19004KT CAVOK 24/10 Q1020 NOSIG,OEBA,2019-01-12T14:00:00Z,20.3,41.62,24.0,10.0,190,4,,6.21,30.11811,,,,,,TRUE,,,,,CAVOK,,,,,,,,VFR,,,,,,,,,,,,METAR,1656.0
CPBT 121400Z AUTO 30018KT 06/M11 RMK AO1 PK WND 27022/1310 T00641107,CPBT,2019-01-12T14:00:00Z,49.57,-113.05,6.4,-10.7,300,18,,,,,,TRUE,TRUE,,,,,,,,,,,,,,,,,,,,,,,,,,,METAR,980.0
CWBK 121400Z AUTO 26009G15KT M13/M18 RMK AO1 SOG 75 3018 PK WND 27019/1323 SLP184 T11291180,CWBK,2019-01-12T14:00:00Z,45.77,-62.67,-12.9,-18.0,260,9,15,,,1018.4,,TRUE,TRUE,,,,,,,,,,,,,,,,,,,,,,,,,,,METAR,2.0
CERM 121400Z AUTO 29006KT M18/M23 RMK AO1 SOG 49 1025 SLP217 T11841229,CERM,2019-01-12T14:00:00Z,47.42,-68.32,-18.4,-22.9,290,6,,,,1021.7,,TRUE,TRUE,,,,,,,,,,,,,,,,,,,,,,,,,,,METAR,154.0
CZSP 121400Z AUTO 24011G19KT M14/M19 RMK AO1 SOG 29 3020 PK WND 25019/1358 SLP176 T11421187,CZSP,2019-01-12T14:00:00Z,46.45,-62.58,-14.2,-18.7,240,11,19,,,1017.6,,TRUE,TRUE,,,,,,,,,,,,,,,,,,,,,,,,,,,METAR,30.0
CZCR 121400Z AUTO 26011G17KT M15/M19 RMK AO1 SOG 36 2022 PK WND 25017/1341 SLP175 T11531193,CZCR,2019-01-12T14:00:00Z,47.97,-66.32,-15.3,-19.3,260,11,17,,,1017.5,,TRUE,TRUE,,,,,,,,,,,,,,,,,,,,,,,,,,,METAR,38.0
CWXI 121400Z AUTO 21020KT M05/M06 RMK AO1 PK WND 21025/1311 SLP087 T10461056 51021,CWXI,2019-01-12T14:00:00Z,51.02,-57.1,-4.6,-5.6,210,20,,,,1008.7,,TRUE,TRUE,,,,,,,,,,,,,,,,2.1,,,,,,,,,,,METAR,6.0
CYXE 121400Z 15010G16KT 15SM FEW120 M11/M14 A3005 RMK AC1 SLP219,CYXE,2019-01-12T14:00:00Z,52.17,-106.7,-11.0,-14.0,150,10,16,15.0,30.050198,1021.9,,,,,,,,,,FEW,12000,,,,,,,VFR,,,,,,,,,,,,SPECI,504.0
CYXS 121400Z AUTO 18006KT 9SM OVC085 04/M01 A2990 RMK SLP152,CYXS,2019-01-12T14:00:00Z,53.9,-122.68,4.0,-1.0,180,6,,9.0,29.899607,1015.2,,TRUE,,,,,,,,OVC,8500,,,,,,,VFR,,,,,,,,,,,,SPECI,691.0
LFRB 121400Z AUTO 30010KT 9999 2500 -RA BKN008 BKN013 OVC021 10/09 Q1030 TEMPO 4000 DZ,LFRB,2019-01-12T14:00:00Z,48.45,-4.42,10.0,9.0,300,10,,6.21,30.413385,,,TRUE,,,,,,,-RA,BKN,800,BKN,1300,OVC,2100,,,IFR,,,,,,,,,,,,METAR,103.0
LFQQ 121400Z AUTO 26015KT 9999 BKN014 OVC019 09/07 Q1020 TEMPO 28015G25KT 3000 RA OVC007,LFQQ,2019-01-12T14:00:00Z,50.57,3.1,9.0,7.0,260,15,,6.21,30.11811,,,TRUE,,,,,,,,BKN,1400,OVC,1900,,,,,MVFR,,,,,,,,,,,,METAR,52.0
LFPO 121400Z 25009KT 9999 BKN015 BKN020 08/06 Q1024 TEMPO 4000 -DZRA BKN006,LFPO,2019-01-12T14:00:00Z,48.72,2.38,8.0,6.0,250,9,,6.21,30.236221,,,,,,,,,,,BKN,1500,BKN,2000,,,,,MVFR,,,,,,,,,,,,METAR,96.0
CPRO 121400Z AUTO 18003KT M11/M12 RMK AO1 T11071122,CPRO,2019-01-12T14:00:00Z,50.83,-112.05,-10.7,-12.2,180,3,,,,,,TRUE,TRUE,,,,,,,,,,,,,,,,,,,,,,,,,,,METAR,714.0
CPFI 121400Z AUTO 24010KT M00/M08 RMK AO1 T10011077,CPFI,2019-01-12T14:00:00Z,49.8,-112.03,-0.1,-7.7,240,10,,,,,,TRUE,TRUE,,,,,,,,,,,,,,,,,,,,,,,,,,,METAR,833.0
CPEH 121400Z AUTO 25003KT M01/M08 RMK AO1 T10091075,CPEH,2019-01-12T14:00:00Z,50.18,-112.43,-0.9,-7.5,250,3,,,,,,TRUE,TRUE,,,,,,,,,,,,,,,,,,,,,,,,,,,METAR,801.0
CPST 121400Z AUTO 28007KT 02/M07 RMK AO1 T00161066,CPST,2019-01-12T14:00:00Z,51.03,-113.28,1.6,-6.6,280,7,,,,,,TRUE,TRUE,,,,,,,,,,,,,,,,,,,,,,,,,,,METAR,967.0
CPRY 121400Z AUTO 26013KT 02/M10 RMK AO1 PK WND 26018/1331 T00191095,CPRY,2019-01-12T14:00:00Z,49.48,-112.68,1.9,-9.5,260,13,,,,,,TRUE,TRUE,,,,,,,,,,,,,,,,,,,,,,,,,,,METAR,937.0
CPSV 121400Z AUTO 22014KT M01/M06 RMK AO1 PK WND 20020/1355 T10091061,CPSV,2019-01-12T14:00:00Z,49.92,-110.92,-0.9,-6.1,220,14,,,,,,TRUE,TRUE,,,,,,,,,,,,,,,,,,,,,,,,,,,METAR,766.0
CXHD 121400Z AUTO 23007KT M10/M12 RMK AO1 T11011123,CXHD,2019-01-12T14:00:00Z,53.18,-112.25,-10.1,-12.3,230,7,,,,,,TRUE,TRUE,,,,,,,,,,,,,,,,,,,,,,,,,,,METAR,688.0
CXHP 121400Z AUTO 07002KT M07/M09 RMK AO1 T10681091,CXHP,2019-01-12T14:00:00Z,55.4,-116.48,-6.8,-9.1,70,2,,,,,,TRUE,TRUE,,,,,,,,,,,,,,,,,,,,,,,,,,,METAR,602.0
CXBK 121400Z AUTO 14016KT M14/M16 RMK AO1 SOG 02 6015 PK WND 14020/1303 SLP253 T11441163,CXBK,2019-01-12T14:00:00Z,50.2,-104.7,-14.4,-16.3,140,16,,,,1025.3,,TRUE,TRUE,,,,,,,,,,,,,,,,,,,,,,,,,,,METAR,580.0
SAME 121400Z 09006KT CAVOK 24/16 Q1013,SAME,2019-01-12T14:00:00Z,-32.82,-68.77,24.0,16.0,90,6,,6.21,29.911417,,,,,,,,,,,CAVOK,,,,,,,,VFR,,,,,,,,,,,,METAR,704.0
CXMG 121400Z AUTO 13005KT M03/M04 RMK AO1 T10301044,CXMG,2019-01-12T14:00:00Z,56.97,-117.45,-3.0,-4.4,130,5,,,,,,TRUE,TRUE,,,,,,,,,,,,,,,,,,,,,,,,,,,METAR,457.0
WMKJ 121400Z VRB02KT 9999 FEW023 BKN280 27/24 Q1011,WMKJ,2019-01-12T14:00:00Z,1.62,103.67,27.0,24.0,0,2,,6.21,29.852362,,,,,,,,,,,FEW,2300,BKN,28000,,,,,VFR,,,,,,,,,,,,METAR,40.0
WBKK 121400Z 11003KT 9999 FEW014 SCT140 BKN270 27/24 Q1010 NOSIG,WBKK,2019-01-12T14:00:00Z,5.92,116.03,27.0,24.0,110,3,,6.21,29.822834,,,,,,TRUE,,,,,FEW,1400,SCT,14000,BKN,27000,,,VFR,,,,,,,,,,,,METAR,3.0
CXPL 121400Z AUTO 15002KT M13/M13 RMK AO1 T11281132,CXPL,2019-01-12T14:00:00Z,51.13,-111.7,-12.8,-13.2,150,2,,,,,,TRUE,TRUE,,,,,,,,,,,,,,,,,,,,,,,,,,,METAR,750.0
SKEJ 121400Z VRB02KT 9999 SCT020 BKN070 26/23 A2996,SKEJ,2019-01-12T14:00:00Z,7.02,-73.78,26.0,23.0,0,2,,6.21,29.958662,,,,,,,,,,,SCT,2000,BKN,7000,,,,,VFR,,,,,,,,,,,,METAR,134.0
SKLC 121400Z 36010KT 9999 FEW023 28/23 A2996,SKLC,2019-01-12T14:00:00Z,7.82,-76.7,28.0,23.0,360,10,,6.21,29.958662,,,,,,,,,,,FEW,2300,,,,,,,VFR,,,,,,,,,,,,METAR,30.0
SKMR 121400Z 00000KT 9999 FEW010 27/24 A2996,SKMR,2019-01-12T14:00:00Z,8.82,-75.83,27.0,24.0,0,0,,6.21,29.958662,,,,,,,,,,,FEW,1000,,,,,,,VFR,,,,,,,,,,,,METAR,26.0
SKVP 121400Z 06009KT 9999 FEW020 27/20 A3003,SKVP,2019-01-12T14:00:00Z,10.42,-73.25,27.0,20.0,60,9,,6.21,30.029528,,,,,,,,,,,FEW,2000,,,,,,,VFR,,,,,,,,,,,,METAR,138.0
CXBR 121400Z AUTO 26020KT 06/M09 RMK AO1 PK WND 25032/1324 T00561093,CXBR,2019-01-12T14:00:00Z,49.62,-113.82,5.6,-9.3,260,20,,,,,,TRUE,TRUE,,,,,,,,,,,,,,,,,,,,,,,,,,,METAR,1073.0
SAWE 121400Z 23020KT 9999 BKN025 12/M02 Q0991,SAWE,2019-01-12T14:00:00Z,-53.78,-67.75,12.0,-2.0,230,20,,6.21,29.26181,,,,,,,,,,,BKN,2500,,,,,,,MVFR,,,,,,,,,,,,METAR,22.0
SARI 121400Z 05007KT CAVOK 29/21 Q1015,SARI,2019-01-12T14:00:00Z,-25.72,-54.47,29.0,21.0,50,7,,6.21,29.970472,,,,,,,,,,,CAVOK,,,,,,,,VFR,,,,,,,,,,,,METAR,270.0
SARF 121400Z 02006KT 9999 FEW030 FEW040CB BKN200 31/24 Q1013,SARF,2019-01-12T14:00:00Z,-26.22,-58.22,31.0,24.0,20,6,,6.21,29.911417,,,,,,,,,,,FEW,3000,FEW,4000,BKN,20000,,,VFR,,,,,,,,,,,,METAR,60.0
OIIE 121400Z 13004KT 9999 FEW100 SCT200 05/M07 Q1020,OIIE,2019-01-12T14:00:00Z,35.42,51.15,5.0,-7.0,130,4,,6.21,30.11811,,,,,,,,,,,FEW,10000,SCT,20000,,,,,VFR,,,,,,,,,,,,METAR,1008.0
CXTN 121400Z AUTO 11003KT M26/M30 RMK AO1 SOG 66 1003 SLP116 T12641297,CXTN,2019-01-12T14:00:00Z,69.2,-122.35,-26.4,-29.7,110,3,,,,1011.6,,TRUE,TRUE,,,,,,,,,,,,,,,,,,,,,,,,,,,METAR,552.0
CXLL 121400Z AUTO M24/M27 RMK AO1 SOG 46 1024 SLP176 T12411271,CXLL,2019-01-12T14:00:00Z,61.12,-122.85,-24.1,-27.1,,,,,,1017.6,,TRUE,TRUE,,,,,,,,,,,,,,,,,,,,,,,,,,,METAR,183.0
CWXC 121400Z AUTO 27003KT M22/M26 RMK AO1 SLP264 T12201262 51029,CWXC,2019-01-12T14:00:00Z,48.88,-71.03,-22.0,-26.2,270,3,,,,1026.4,,TRUE,TRUE,,,,,,,,,,,,,,,,2.9,,,,,,,,,,,METAR,300.0
CWVU 121400Z AUTO 29023G29KT M10/M12 RMK AO1 SOG 01 3022 PK WND 30032/1328 SLP248 T11021115,CWVU,2019-01-12T14:00:00Z,44.28,-66.33,-10.2,-11.5,290,23,29,,,1024.8,,TRUE,TRUE,,,,,,,,,,,,,,,,,,,,,,,,,,,METAR,16.0
CWGX 121400Z AUTO 19009KT M16/M20 RMK AO1 SOG 17 8028 SLP305 T11641199,CWGX,2019-01-12T14:00:00Z,56.35,-94.7,-16.4,-19.9,190,9,,,,1030.5,,TRUE,TRUE,,,,,,,,,,,,,,,,,,,,,,,,,,,METAR,145.0
CWDZ 121400Z AUTO 00000KT M10/M12 RMK AO1 T11011117,CWDZ,2019-01-12T14:00:00Z,51.42,-112.67,-10.1,-11.7,0,0,,,,,,TRUE,TRUE,,,,,,,,,,,,,,,,,,,,,,,,,,,METAR,678.0
CXYH 121400Z AUTO 34001KT M24/M27 RMK AO1 SLP158 T12421272 53023,CXYH,2019-01-12T14:00:00Z,61.25,-123.75,-24.2,-27.2,340,1,,,,1015.8,,TRUE,TRUE,,,,,,,,,,,,,,,,2.3,,,,,,,,,,,METAR,204.0
CWEK 121400Z AUTO 05022KT 05/04 RMK AO1 PK WND 05025/1344 SLP098 T00500042 58002,CWEK,2019-01-12T14:00:00Z,54.58,-130.7,5.0,4.2,50,22,,,,1009.8,,TRUE,TRUE,,,,,,,,,,,,,,,,-0.2,,,,,,,,,,,METAR,8.0
RKSM 121400Z 00000KT 8000 BR SKC M02/M07 A3024,RKSM,2019-01-12T14:00:00Z,37.42,127.12,-2.0,-7.0,0,0,,4.97,30.239174,,,,,,,,,,BR,SKC,,,,,,,,MVFR,,,,,,,,,,,,METAR,20.0
HKML 121400Z 09010KT 9999 FEW025 29/25 Q1008,HKML,2019-01-12T14:00:00Z,-3.22,40.1,29.0,25.0,90,10,,6.21,29.763779,,,,,,,,,,,FEW,2500,,,,,,,VFR,,,,,,,,,,,,METAR,23.0
FNUE 121400Z 29008KT 9999 SCT030 FEW040TCU 28/21 Q1017,FNUE,2019-01-12T14:00:00Z,-11.77,19.9,28.0,21.0,290,8,,6.21,30.029528,,,,,,,,,,,SCT,3000,FEW,4000,,,,,VFR,,,,,,,,,,,,METAR,1329.0
CXRB 121400Z AUTO 02003KT M35/M38 RMK AO1 2PAST HR SOG 03 7014 SLP281 P0001 T13461381 50002,CXRB,2019-01-12T14:00:00Z,74.72,-94.98,-34.6,-38.1,20,3,,,,1028.1,,TRUE,TRUE,,,,,,,,,,,,,,,,0.2,,,,,0.01,,,,,,METAR,68.0
CXPC 121400Z AUTO M16/M20 RMK AO1 SOG 08 1021 SLP362 T11551197,CXPC,2019-01-12T14:00:00Z,45.35,-80.05,-15.5,-19.7,,,,,,1036.2,,TRUE,TRUE,,,,,,,,,,,,,,,,,,,,,,,,,,,METAR,176.0
CXLB 121400Z AUTO 25015KT M08/M13 RMK AO1 PK WND 24022/1312 SLP202 T10841134 51015,CXLB,2019-01-12T14:00:00Z,44.37,-64.3,-8.4,-13.4,250,15,,,,1020.2,,TRUE,TRUE,,,,,,,,,,,,,,,,1.5,,,,,,,,,,,METAR,4.0
CXKM 121400Z AUTO 20002KT M13/M14 RMK AO1 T11291135,CXKM,2019-01-12T14:00:00Z,52.82,-111.85,-12.9,-13.5,200,2,,,,,,TRUE,TRUE,,,,,,,,,,,,,,,,,,,,,,,,,,,METAR,675.0
CXKI 121400Z AUTO M26/M29 RMK AO1 SOG 49 3027 SLP383 T12551286,CXKI,2019-01-12T14:00:00Z,48.22,-80.0,-25.5,-28.6,,,,,,1038.3,,TRUE,TRUE,,,,,,,,,,,,,,,,,,,,,,,,,,,METAR,324.0
CXHR 121400Z AUTO 28015KT 05/M06 RMK AO1 T00511058,CXHR,2019-01-12T14:00:00Z,51.18,-112.5,5.1,-5.8,280,15,,,,,,TRUE,TRUE,,,,,,,,,,,,,,,,,,,,,,,,,,,METAR,971.0
CXFR 121400Z AUTO 15008KT M04/M05 RMK AO1 T10381053,CXFR,2019-01-12T14:00:00Z,56.08,-118.43,-3.8,-5.3,150,8,,,,,,TRUE,TRUE,,,,,,,,,,,,,,,,,,,,,,,,,,,METAR,655.0
CXCP 121400Z AUTO 06002KT M02/M09 RMK AO1 T10171093,CXCP,2019-01-12T14:00:00Z,50.28,-113.35,-1.7,-9.3,60,2,,,,,,TRUE,TRUE,,,,,,,,,,,,,,,,,,,,,,,,,,,METAR,1006.0
CXCD 121400Z AUTO 25001KT M07/M08 RMK AO1 T10661075,CXCD,2019-01-12T14:00:00Z,56.32,-119.75,-6.6,-7.5,250,1,,,,,,TRUE,TRUE,,,,,,,,,,,,,,,,,,,,,,,,,,,METAR,630.0
WBSB 121400Z 04008KT 9999 FEW015 FEW016CB BKN280 28/25 Q1011 NOSIG,WBSB,2019-01-12T14:00:00Z,4.92,114.92,28.0,25.0,40,8,,6.21,29.852362,,,,,,TRUE,,,,,FEW,1500,FEW,1600,BKN,28000,,,VFR,,,,,,,,,,,,METAR,15.0
WMSA 121400Z 32004KT 280V010 9999 SCT025 SCT150 BKN280 29/25 Q1011,WMSA,2019-01-12T14:00:00Z,3.13,101.55,29.0,25.0,320,4,,6.21,29.852362,,,,,,,,,,,SCT,2500,SCT,15000,BKN,28000,,,VFR,,,,,,,,,,,,METAR,27.0
WMKK 121400Z VRB02KT 9999 FEW017CB BKN280 28/25 Q1011 NOSIG,WMKK,2019-01-12T14:00:00Z,2.75,101.72,28.0,25.0,0,2,,6.21,29.852362,,,,,,TRUE,,,,,FEW,1700,BKN,28000,,,,,VFR,,,,,,,,,,,,METAR,22.0
MHLM 121400Z 24007KT 9999 FEW026 21/20 Q1018 A3006 NOSIG,MHLM,2019-01-12T14:00:00Z,15.45,-87.93,21.0,20.0,240,7,,6.21,30.059055,,,,,,TRUE,,,,,FEW,2600,,,,,,,VFR,,,,,,,,,,,,METAR,26.0
CWWK 121400Z AUTO 02001KT 05/02 RMK AO1 SLP152 T00510024 58001,CWWK,2019-01-12T14:00:00Z,49.02,-122.78,5.1,2.4,20,1,,,,1015.2,,TRUE,TRUE,,,,,,,,,,,,,,,,-0.1,,,,,,,,,,,METAR,15.0
SKIB 121400Z VRB02KT 9999 BKN027 BKN100 22/21 A3017,SKIB,2019-01-12T14:00:00Z,4.42,-75.15,22.0,21.0,0,2,,6.21,30.171259,,,,,,,,,,,BKN,2700,BKN,10000,,,,,MVFR,,,,,,,,,,,,METAR,928.0
SKNV 121400Z 21003KT 180V240 9000 VCSH FEW030 BKN090 26/21 A3000 RMK VCSH/SE,SKNV,2019-01-12T14:00:00Z,2.97,-75.28,26.0,21.0,210,3,,5.59,30.0,,,,,,,,,,VCSH,FEW,3000,BKN,9000,,,,,VFR,,,,,,,,,,,,METAR,443.0
SKVV 121400Z 25004KT 9999 SCT020 BKN090 25/20 A3000,SKVV,2019-01-12T14:00:00Z,4.17,-73.62,25.0,20.0,250,4,,6.21,30.0,,,,,,,,,,,SCT,2000,BKN,9000,,,,,VFR,,,,,,,,,,,,METAR,431.0
CYLW 121400Z AUTO 08002KT 1/4SM FZFG VV002 M01/M01 A3017 RMK ICG SLP237,CYLW,2019-01-12T14:00:00Z,49.95,-119.37,-1.0,-1.0,80,2,,0.25,30.171259,1023.7,,TRUE,,,,,,,FZFG,OVX,0,,,,,,,LIFR,,,,,,,,,,,200,SPECI,430.0
CYKA 121400Z 06009KT 40SM FEW007 BKN190 M00/M01 A3012 RMK SC1AC4 SLP218,CYKA,2019-01-12T14:00:00Z,50.7,-120.45,0.0,-1.0,60,9,,40.0,30.121063,1021.8,,,,,,,,,,FEW,700,BKN,19000,,,,,VFR,,,,,,,,,,,,SPECI,346.0
CYIN 121400Z AUTO 11006KT 080V170 9SM OVC170 M01/M03 A2995 RMK SLP176,CYIN,2019-01-12T14:00:00Z,51.27,-121.68,-1.0,-3.0,110,6,,9.0,29.949802,1017.6,,TRUE,,,,,,,,OVC,17000,,,,,,,VFR,,,,,,,,,,,,METAR,1128.0
CYGE 121400Z VRB02KT 4SM BR SCT006 BKN027 OVC100 M02/M02 A3023 RMK FG2SC1SC3AC2 ICE ON INDICATOR SLP276,CYGE,2019-01-12T14:00:00Z,51.3,-116.98,-2.0,-2.0,0,2,,4.0,30.230314,1027.6,,,,,,,,,BR,SCT,600,BKN,2700,OVC,10000,,,MVFR,,,,,,,,,,,,SPECI,785.0
CYDL 121400Z AUTO 06005KT 9SM CLR M18/M20 A2982 RMK SLP157,CYDL,2019-01-12T14:00:00Z,58.42,-130.02,-18.0,-20.0,60,5,,9.0,29.819881,1015.7,,TRUE,,,,,,,,CLR,,,,,,,,VFR,,,,,,,,,,,,METAR,816.0
CYDA 121400Z 21006KT 15SM -SN OVC013 M26/M30 A3002 RMK ST8 CLIMAT -26.0/-28.4/TR CM/TR MWE 47038 SLP218,CYDA,2019-01-12T14:00:00Z,64.03,-139.12,-26.0,-30.0,210,6,,15.0,30.02067,1021.8,,,,,,,,,-SN,OVC,1300,,,,,,,MVFR,,,,,,,,,,,,SPECI,369.0
CYCG 121400Z 36005KT 15SM BKN018 OVC026 01/M00 A3023 RMK SC7SC1 SLP256,CYCG,2019-01-12T14:00:00Z,49.28,-117.62,1.0,0.0,360,5,,15.0,30.230314,1025.6,,,,,,,,,,BKN,1800,OVC,2600,,,,,MVFR,,,,,,,,,,,,SPECI,495.0
CYCD 121400Z 00000KT 15SM FEW063 BKN085 03/03 A2997 RMK SC2AC3 SLP152,CYCD,2019-01-12T14:00:00Z,49.05,-123.87,3.0,3.0,0,0,,15.0,29.970472,1015.2,,,,,,,,,,FEW,6300,BKN,8500,,,,,VFR,,,,,,,,,,,,SPECI,30.0
CBBC 121400Z AUTO 16003KT 9SM -RA OVC055 07/07 A2983 RMK SLP104,CBBC,2019-01-12T14:00:00Z,52.18,-128.15,7.0,7.0,160,3,,9.0,29.828741,1010.4,,TRUE,,,,,,,-RA,OVC,5500,,,,,,,VFR,,,,,,,,,,,,METAR,43.0
CYZT 121400Z 12015G20KT 15SM SCT046 BKN065 OVC090 09/05 A2983 RMK SC4SC2AC2 SLP103,CYZT,2019-01-12T14:00:00Z,50.67,-127.37,9.0,5.0,120,15,20,15.0,29.828741,1010.3,,,,,,,,,,SCT,4600,BKN,6500,OVC,9000,,,VFR,,,,,,,,,,,,SPECI,22.0
CYZP 121400Z AUTO 36006KT 5SM BR OVC003 05/05 A2978 RMK SLP086,CYZP,2019-01-12T14:00:00Z,53.25,-131.82,5.0,5.0,360,6,,5.0,29.778543,1008.6,,TRUE,,,,,,,BR,OVC,300,,,,,,,LIFR,,,,,,,,,,,,SPECI,6.0
CWWF 121400Z AUTO 18014KT M13/M15 RMK AO1 SOG 05 5011 PK WND 17018/1355 SLP289 T11281146,CWWF,2019-01-12T14:00:00Z,49.7,-103.8,-12.8,-14.6,180,14,,,,1028.9,,TRUE,TRUE,,,,,,,,,,,,,,,,,,,,,,,,,,,METAR,589.0
CWWA 121400Z AUTO 34001KT 05/03 RMK AO1 SLP148 T00490029 55002,CWWA,2019-01-12T14:00:00Z,49.35,-123.17,4.9,2.9,340,1,,,,1014.8,,TRUE,TRUE,,,,,,,,,,,,,,,,-0.2,,,,,,,,,,,METAR,178.0
CWVQ 121400Z AUTO 26011G16KT M18/M23 RMK AO1 SOG 14 3019 SLP351 T11781226,CWVQ,2019-01-12T14:00:00Z,45.42,-73.92,-17.8,-22.6,260,11,16,,,1035.1,,TRUE,TRUE,,,,,,,,,,,,,,,,,,,,,,,,,,,METAR,39.0
CWVP 121400Z AUTO 22006KT M02/M08 RMK AO1 SOG 12 7004 SLP200 T10231079,CWVP,2019-01-12T14:00:00Z,49.63,-109.52,-2.3,-7.9,220,6,,,,1020.0,,TRUE,TRUE,,,,,,,,,,,,,,,,,,,,,,,,,,,METAR,1271.0
CWVN 121400Z AUTO 13002KT M14/M16 RMK AO1 SLP252 T11371157 56009,CWVN,2019-01-12T14:00:00Z,49.07,-107.57,-13.7,-15.7,130,2,,,,1025.2,,TRUE,TRUE,,,,,,,,,,,,,,,,-0.9,,,,,,,,,,,METAR,785.0
CWVI 121400Z AUTO 18004KT M13/M15 RMK AO1 SOG 20 3003 SLP176 T11291150,CWVI,2019-01-12T14:00:00Z,53.52,-112.1,-12.9,-15.0,180,4,,,,1017.6,,TRUE,TRUE,,,,,,,,,,,,,,,,,,,,,,,,,,,METAR,639.0
CWVF 121400Z AUTO 12006KT 05/05 RMK AO1 T00520046,CWVF,2019-01-12T14:00:00Z,49.1,-123.3,5.2,4.6,120,6,,,,,,TRUE,TRUE,,,,,,,,,,,,,,,,,,,,,,,,,,,METAR,1.0
CWUX 121400Z AUTO 28013G18KT M22/M26 RMK AO1 PK WND 27019/1319 SLP293 T12181263 51031,CWUX,2019-01-12T14:00:00Z,48.3,-70.93,-21.8,-26.3,280,13,18,,,1029.3,,TRUE,TRUE,,,,,,,,,,,,,,,,3.1,,,,,,,,,,,METAR,135.0
CWUS 121400Z AUTO 00000KT 01/01 RMK AO1 SLP232 T00120008 53002,CWUS,2019-01-12T14:00:00Z,49.57,-119.65,1.2,0.8,0,0,,,,1023.2,,TRUE,TRUE,,,,,,,,,,,,,,,,0.2,,,,,,,,,,,METAR,454.0
CWTY 121400Z AUTO 26004KT M17/M21 RMK AO1 SLP325 T11681212 51024,CWTY,2019-01-12T14:00:00Z,46.35,-72.52,-16.8,-21.2,260,4,,,,1032.5,,TRUE,TRUE,,,,,,,,,,,,,,,,2.4,,,,,,,,,,,METAR,6.0
CWTN 121400Z AUTO 26006KT M16/M24 RMK AO1 SLP262 T11571237 53025,CWTN,2019-01-12T14:00:00Z,47.07,-70.78,-15.7,-23.7,260,6,,,,1026.2,,TRUE,TRUE,,,,,,,,,,,,,,,,2.5,,,,,,,,,,,METAR,6.0
CWTG 121400Z AUTO 26020KT M12/M14 RMK AO1 PK WND 26025/1337 SLP164 T11191140 51029,CWTG,2019-01-12T14:00:00Z,49.32,-67.37,-11.9,-14.0,260,20,,,,1016.4,,TRUE,TRUE,,,,,,,,,,,,,,,,2.9,,,,,,,,,,,METAR,5.0
CWTA 121400Z AUTO 26005KT M17/M22 RMK AO1 SOG 32 3019 SLP341 T11721215,CWTA,2019-01-12T14:00:00Z,45.5,-73.58,-17.2,-21.5,260,5,,,,1034.1,,TRUE,TRUE,,,,,,,,,,,,,,,,,,,,,,,,,,,METAR,63.0
CWDK 121400Z AUTO 28004KT 06/M13 RMK AO1 SLP168 T00571133 53001,CWDK,2019-01-12T14:00:00Z,50.02,-113.62,5.7,-13.3,280,4,,,,1016.8,,TRUE,TRUE,,,,,,,,,,,,,,,,0.1,,,,,,,,,,,METAR,1012.0
CWDJ 121400Z AUTO 15017G22KT M14/M16 RMK AO1 PK WND 15024/1317 SLP269 T11401155 56016,CWDJ,2019-01-12T14:00:00Z,50.4,-104.58,-14.0,-15.5,150,17,22,,,1026.9,,TRUE,TRUE,,,,,,,,,,,,,,,,-1.6,,,,,,,,,,,METAR,573.0
CWCO 121400Z AUTO 18002KT M09/M12 RMK AO1 SLP364 T10931122 53017,CWCO,2019-01-12T14:00:00Z,44.45,-80.17,-9.3,-12.2,180,2,,,,1036.4,,TRUE,TRUE,,,,,,,,,,,,,,,,1.7,,,,,,,,,,,METAR,221.0
CWCJ 121400Z AUTO 04004KT M22/M25 RMK AO1 SOG 24 3022 SLP389 T12191249,CWCJ,2019-01-12T14:00:00Z,48.6,-86.28,-21.9,-24.9,40,4,,,,1038.9,,TRUE,TRUE,,,,,,,,,,,,,,,,,,,,,,,,,,,METAR,206.0
CWCF 121400Z AUTO 13003KT M16/M18 RMK AO1 SOG 17 6007 SLP334 T11571175,CWCF,2019-01-12T14:00:00Z,52.35,-97.03,-15.7,-17.5,130,3,,,,1033.4,,TRUE,TRUE,,,,,,,,,,,,,,,,,,,,,,,,,,,METAR,222.0
CWBZ 121400Z AUTO 24007KT M17/M21 RMK AO1 SLP358 T11651208 53022,CWBZ,2019-01-12T14:00:00Z,45.12,-74.27,-16.5,-20.8,240,7,,,,1035.8,,TRUE,TRUE,,,,,,,,,,,,,,,,2.2,,,,,,,,,,,METAR,49.0
CWBT 121400Z AUTO 29004KT M06/M06 RMK AO1 SLP093 T10561057 52024,CWBT,2019-01-12T14:00:00Z,50.27,-64.23,-5.6,-5.7,290,4,,,,1009.3,,TRUE,TRUE,,,,,,,,,,,,,,,,2.4,,,,,,,,,,,METAR,11.0
CWBS 121400Z AUTO 26012KT M18/M21 RMK AO1 T11781212,CWBS,2019-01-12T14:00:00Z,46.18,-72.92,-17.8,-21.2,260,12,,,,,,TRUE,TRUE,,,,,,,,,,,,,,,,,,,,,,,,,,,METAR,16.0
CWBO 121400Z AUTO 17004KT M06/M09 RMK AO1 SLP179 T10551086 55002,CWBO,2019-01-12T14:00:00Z,50.53,-111.83,-5.5,-8.6,170,4,,,,1017.9,,TRUE,TRUE,,,,,,,,,,,,,,,,-0.2,,,,,,,,,,,METAR,747.0
CWBA 121400Z AUTO 01001KT M24/M26 RMK AO1 SOG 51 T12351256,CWBA,2019-01-12T14:00:00Z,46.72,-79.1,-23.5,-25.6,10,1,,,,,,TRUE,TRUE,,,,,,,,,,,,,,,,,,,,,,,,,,,METAR,181.0
CWAV 121400Z AUTO 24004KT M03/M07 RMK AO1 SLP164 T10291070 53003,CWAV,2019-01-12T14:00:00Z,51.77,-114.67,-2.9,-7.0,240,4,,,,1016.4,,TRUE,TRUE,,,,,,,,,,,,,,,,0.3,,,,,,,,,,,METAR,1114.0
CWAQ 121400Z AUTO 15008KT M14/M16 RMK AO1 SLP268 T11401157 56011,CWAQ,2019-01-12T14:00:00Z,49.05,-105.48,-14.0,-15.7,150,8,,,,1026.8,,TRUE,TRUE,,,,,,,,,,,,,,,,-1.1,,,,,,,,,,,METAR,756.0
CWAF 121400Z AUTO 30027G34KT M17/M19 RMK AO1 PK WND 29036/1306 T11661192,CWAF,2019-01-12T14:00:00Z,48.07,-69.53,-16.6,-19.2,300,27,34,,,,,TRUE,TRUE,,,,,,,,,,,,,,,,,,,,,,,,,,,METAR,5.0
CXVW 121400Z AUTO 16012KT M02/M04 RMK AO1 T10151035,CXVW,2019-01-12T14:00:00Z,55.1,-117.2,-1.5,-3.5,160,12,,,,,,TRUE,TRUE,,,,,,,,,,,,,,,,,,,,,,,,,,,METAR,698.0
CXSP 121400Z AUTO 13003KT M14/M16 RMK AO1 T11361155,CXSP,2019-01-12T14:00:00Z,54.02,-111.27,-13.6,-15.5,130,3,,,,,,TRUE,TRUE,,,,,,,,,,,,,,,,,,,,,,,,,,,METAR,649.0
CXSL 121400Z AUTO 15001KT M13/M14 RMK AO1 T11261137,CXSL,2019-01-12T14:00:00Z,54.28,-112.5,-12.6,-13.7,150,1,,,,,,TRUE,TRUE,,,,,,,,,,,,,,,,,,,,,,,,,,,METAR,680.0
CWMT 121400Z AUTO 27006KT M26/M29 RMK AO1 SOG 33 3026 SLP135 T12601287,CWMT,2019-01-12T14:00:00Z,63.13,-117.25,-26.0,-28.7,270,6,,,,1013.5,,TRUE,TRUE,,,,,,,,,,,,,,,,,,,,,,,,,,,METAR,271.0
CXKT 121400Z AUTO 26010G18KT M12/M14 RMK AO1 SOG 07 1017 PK WND 29018/1400 SLP200 T11181138,CXKT,2019-01-12T14:00:00Z,45.07,-64.48,-11.8,-13.8,260,10,18,,,1020.0,,TRUE,TRUE,,,,,,,,,,,,,,,,,,,,,,,,,,,METAR,49.0
CZSM 121400Z AUTO 29005KT M10/M12 RMK AO1 SOG 38 3023 SLP102 T11031122,CZSM,2019-01-12T14:00:00Z,60.03,-111.93,-10.3,-12.2,290,5,,,,1010.2,,TRUE,TRUE,,,,,,,,,,,,,,,,,,,,,,,,,,,METAR,203.0
CZHY 121400Z AUTO 29009KT M18/M20 RMK AO1 SOG 21 1031 SLP140 T11791202,CZHY,2019-01-12T14:00:00Z,60.83,-115.78,-17.9,-20.2,290,9,,,,1014.0,,TRUE,TRUE,,,,,,,,,,,,,,,,,,,,,,,,,,,METAR,164.0
CZFS 121400Z AUTO 32006KT M26/M29 RMK AO1 SOG 34 1028 SLP178 T12621292,CZFS,2019-01-12T14:00:00Z,61.77,-121.23,-26.2,-29.2,320,6,,,,1017.8,,TRUE,TRUE,,,,,,,,,,,,,,,,,,,,,,,,,,,METAR,168.0
CZEV 121400Z AUTO 29009KT M26/M29 RMK AO1 SOG 49 2020 PK WND 31017/1344 SLP209 T12641294,CZEV,2019-01-12T14:00:00Z,68.32,-133.52,-26.4,-29.4,290,9,,,,1020.9,,TRUE,TRUE,,,,,,,,,,,,,,,,,,,,,,,,,,,METAR,103.0
SKPC 121400Z 04004KT CAVOK 29/22 A2992,SKPC,2019-01-12T14:00:00Z,6.17,-67.5,29.0,22.0,40,4,,6.21,29.920275,,,,,,,,,,,CAVOK,,,,,,,,VFR,,,,,,,,,,,,METAR,55.0
SKMD 121400Z 36010KT 9000 SCT025 BKN100 20/15 A3022 RMK HZ,SKMD,2019-01-12T14:00:00Z,6.22,-75.58,20.0,15.0,360,10,,5.59,30.221457,,,,,,,,,,,SCT,2500,BKN,10000,,,,,VFR,,,,,,,,,,,,METAR,1499.0
OITR 121400Z 07006KT 9999 FEW040 M01/M08 Q1016,OITR,2019-01-12T14:00:00Z,37.67,45.07,-1.0,-8.0,70,6,,6.21,30.0,,,,,,,,,,,FEW,4000,,,,,,,VFR,,,,,,,,,,,,METAR,1312.0
BIIS 121400Z 02008KT 6000 SNRA VV018 M00/M01 Q1002,BIIS,2019-01-12T14:00:00Z,66.05,-23.13,0.0,-1.0,20,8,,3.73,29.586615,,,,,,,,,,SN RA,OVX,0,,,,,,,LIFR,,,,,,,,,,,1800,METAR,3.0
SCCI 121400Z 23023KT 9999 BKN037 10/01 Q0998 NOSIG,SCCI,2019-01-12T14:00:00Z,-53.0,-70.83,10.0,1.0,230,23,,6.21,29.468504,,,,,,TRUE,,,,,BKN,3700,,,,,,,VFR,,,,,,,,,,,,METAR,37.0
SCNT 121400Z 23020G32KT 190V250 9999 VCSH BKN033 10/01 Q1004,SCNT,2019-01-12T14:00:00Z,-51.67,-72.53,10.0,1.0,230,20,32,6.21,29.64567,,,,,,,,,,VCSH,BKN,3300,,,,,,,VFR,,,,,,,,,,,,METAR,67.0
SCVD 121400Z 04004KT 9999 OVC023 14/09 Q1019,SCVD,2019-01-12T14:00:00Z,-39.65,-73.07,14.0,9.0,40,4,,6.21,30.088583,,,,,,,,,,,OVC,2300,,,,,,,MVFR,,,,,,,,,,,,METAR,14.0
SCTE 121400Z 35005KT 5000 -RA BR OVC005 13/12 Q1018 NOSIG,SCTE,2019-01-12T14:00:00Z,-41.42,-73.07,13.0,12.0,350,5,,3.11,30.059055,,,,,,TRUE,,,,-RA BR,OVC,500,,,,,,,IFR,,,,,,,,,,,,METAR,86.0
SCQP 121400Z VRB01KT 9999 FEW007 OVC140 13/11 Q1019,SCQP,2019-01-12T14:00:00Z,-38.92,-72.65,13.0,11.0,0,1,,6.21,30.088583,,,,,,,,,,,FEW,700,OVC,14000,,,,,VFR,,,,,,,,,,,,METAR,97.0
SCJO 121400Z 04004KT 9999 BKN035 OVC070 16/13 Q1017 RESHRA,SCJO,2019-01-12T14:00:00Z,-40.6,-73.03,16.0,13.0,40,4,,6.21,30.029528,,,,,,,,,,,BKN,3500,OVC,7000,,,,,VFR,,,,,,,,,,,,METAR,65.0
SCSE 121400Z 27004KT 240V320 CAVOK 21/12 Q1018,SCSE,2019-01-12T14:00:00Z,-29.92,-71.2,21.0,12.0,270,4,,6.21,30.059055,,,,,,,,,,,CAVOK,,,,,,,,VFR,,,,,,,,,,,,METAR,146.0
SCDA 121400Z 20014KT CAVOK 24/15 Q1016,SCDA,2019-01-12T14:00:00Z,-20.52,-70.17,24.0,15.0,200,14,,6.21,30.0,,,,,,,,,,,CAVOK,,,,,,,,VFR,,,,,,,,,,,,METAR,52.0
SCAT 121400Z 23006KT 160V270 CAVOK 20/12 Q1020,SCAT,2019-01-12T14:00:00Z,-27.27,-70.77,20.0,12.0,230,6,,6.21,30.11811,,,,,,,,,,,CAVOK,,,,,,,,VFR,,,,,,,,,,,,METAR,204.0
SCIE 121400Z 00000KT CAVOK 15/09 Q1019,SCIE,2019-01-12T14:00:00Z,-36.77,-73.07,15.0,9.0,0,0,,6.21,30.088583,,,,,,,,,,,CAVOK,,,,,,,,VFR,,,,,,,,,,,,METAR,16.0
SCCF 121400Z 25006KT 9999 FEW060 16/05 Q1028,SCCF,2019-01-12T14:00:00Z,-22.5,-68.9,16.0,5.0,250,6,,6.21,30.35433,,,,,,,,,,,FEW,6000,,,,,,,VFR,,,,,,,,,,,,METAR,2312.0
SCBA 121400Z 31025KT 9999 FEW050 11/M02 Q1010,SCBA,2019-01-12T14:00:00Z,-45.92,-71.67,11.0,-2.0,310,25,,6.21,29.822834,,,,,,,,,,,FEW,5000,,,,,,,VFR,,,,,,,,,,,,METAR,524.0
SCAR 121400Z 22006KT 180V310 CAVOK 24/16 Q1016,SCAR,2019-01-12T14:00:00Z,-18.35,-70.32,24.0,16.0,220,6,,6.21,30.0,,,,,,,,,,,CAVOK,,,,,,,,VFR,,,,,,,,,,,,METAR,59.0
SCFA 121400Z 20011KT 9999 FEW010 20/14 Q1017 NOSIG,SCFA,2019-01-12T14:00:00Z,-23.42,-70.42,20.0,14.0,200,11,,6.21,30.029528,,,,,,TRUE,,,,,FEW,1000,,,,,,,VFR,,,,,,,,,,,,METAR,120.0
UGSB 121400Z 00000KT CAVOK 10/08 Q1013 NOSIG,UGSB,2019-01-12T14:00:00Z,41.62,41.6,10.0,8.0,0,0,,6.21,29.911417,,,,,,TRUE,,,,,CAVOK,,,,,,,,VFR,,,,,,,,,,,,METAR,32.0
UGKO 121400Z 33003KT 9999 SCT048 11/01 Q1012 NOSIG,UGKO,2019-01-12T14:00:00Z,42.18,42.48,11.0,1.0,330,3,,6.21,29.88189,,,,,,TRUE,,,,,SCT,4800,,,,,,,VFR,,,,,,,,,,,,METAR,68.0
UGTB 121400Z 31013KT CAVOK 09/M04 Q1013 NOSIG,UGTB,2019-01-12T14:00:00Z,41.67,44.95,9.0,-4.0,310,13,,6.21,29.911417,,,,,,TRUE,,,,,CAVOK,,,,,,,,VFR,,,,,,,,,,,,METAR,495.0
SECO 121400Z 30002KT 9999 SCT020 OVC100 23/22 Q1013 RMK A2996,SECO,2019-01-12T14:00:00Z,-0.45,-76.98,23.0,22.0,300,2,,6.21,29.911417,,,,,,,,,,,SCT,2000,OVC,10000,,,,,VFR,,,,,,,,,,,,METAR,220.0
OIBV 121400Z 00000KT CAVOK 21/13 Q1017,OIBV,2019-01-12T14:00:00Z,26.82,53.35,21.0,13.0,0,0,,6.21,30.029528,,,,,,,,,,,CAVOK,,,,,,,,VFR,,,,,,,,,,,,METAR,24.0
OIBA 121400Z 03004KT 6000 NSC 22/14 Q1016,OIBA,2019-01-12T14:00:00Z,25.88,55.03,22.0,14.0,30,4,,3.73,30.0,,,,,,,,,,,CLR,,,,,,,,MVFR,,,,,,,,,,,,METAR,7.0
SKIP 121400Z 00000KT 9999 FEW018 BKN080 12/08 A3045,SKIP,2019-01-12T14:00:00Z,0.88,-77.67,12.0,8.0,0,0,,6.21,30.448818,,,,,,,,,,,FEW,1800,BKN,8000,,,,,VFR,,,,,,,,,,,,METAR,2961.0
SKPS 121400Z 00000KT 9999 SCT015 BKN080 18/13 A3023,SKPS,2019-01-12T14:00:00Z,1.4,-77.28,18.0,13.0,0,0,,6.21,30.230314,,,,,,,,,,,SCT,1500,BKN,8000,,,,,VFR,,,,,,,,,,,,METAR,1826.0
OIFS 121400Z 28004KT CAVOK 04/M06 Q1021,OIFS,2019-01-12T14:00:00Z,32.32,50.85,4.0,-6.0,280,4,,6.21,30.147638,,,,,,,,,,,CAVOK,,,,,,,,VFR,,,,,,,,,,,,METAR,2078.0
OIMS 121400Z 09006KT CAVOK 05/M04 Q1024,OIMS,2019-01-12T14:00:00Z,36.17,57.6,5.0,-4.0,90,6,,6.21,30.236221,,,,,,,,,,,CAVOK,,,,,,,,VFR,,,,,,,,,,,,METAR,941.0
OIMN 121400Z 15010KT CAVOK 07/M15 Q1017,OIMN,2019-01-12T14:00:00Z,37.48,57.3,7.0,-15.0,150,10,,6.21,30.029528,,,,,,,,,,,CAVOK,,,,,,,,VFR,,,,,,,,,,,,METAR,1074.0
OIMB 121400Z 29006KT CAVOK 06/M21 Q1021,OIMB,2019-01-12T14:00:00Z,32.9,59.28,6.0,-21.0,290,6,,6.21,30.147638,,,,,,,,,,,CAVOK,,,,,,,,VFR,,,,,,,,,,,,METAR,1491.0
OIIP 121400Z 17006KT 7000 FEW035 BKN200 04/M12 Q1019,OIIP,2019-01-12T14:00:00Z,35.78,50.83,4.0,-12.0,170,6,,4.35,30.088583,,,,,,,,,,,FEW,3500,BKN,20000,,,,,MVFR,,,,,,,,,,,,METAR,1271.0
OIAA 121400Z 32006KT 9999 FEW040 BKN100 14/M02 Q1020,OIAA,2019-01-12T14:00:00Z,30.37,48.25,14.0,-2.0,320,6,,6.21,30.11811,,,,,,,,,,,FEW,4000,BKN,10000,,,,,VFR,,,,,,,,,,,,METAR,11.0
OIZJ 121400Z 27006KT 8000 NSC 23/10 Q1016,OIZJ,2019-01-12T14:00:00Z,25.65,57.8,23.0,10.0,270,6,,4.97,30.0,,,,,,,,,,,CLR,,,,,,,,MVFR,,,,,,,,,,,,METAR,4.0
OICC 121400Z 00000KT 9999 FEW045 BKN190 10/M18 Q1018 A3008 NOSIG,OICC,2019-01-12T14:00:00Z,34.35,47.17,10.0,-18.0,0,0,,6.21,30.059055,,,,,,TRUE,,,,,FEW,4500,BKN,19000,,,,,VFR,,,,,,,,,,,,METAR,1322.0
OIBK 121400Z 16006KT 8000 FEW030 SCT190 22/15 Q1017,OIBK,2019-01-12T14:00:00Z,26.53,53.98,22.0,15.0,160,6,,4.97,30.029528,,,,,,,,,,,FEW,3000,SCT,19000,,,,,MVFR,,,,,,,,,,,,METAR,30.0
OIYY 121400Z 00000KT 9999 FEW100 BKN200 12/M18 Q1021,OIYY,2019-01-12T14:00:00Z,31.9,54.28,12.0,-18.0,0,0,,6.21,30.147638,,,,,,,,,,,FEW,10000,BKN,20000,,,,,VFR,,,,,,,,,,,,METAR,1236.0
CYOC 121400Z CCA VRB02KT 12SM -SN FEW017 BKN040 M31/M35 A3012 RMK SF1SC5 CLIMAT -27.9/-30.7/0.8 CM/0.4 MWE/47052 SLP242,CYOC,2019-01-12T14:00:00Z,67.57,-139.82,-31.0,-35.0,0,2,,12.0,30.121063,1024.2,,,,,,,,,-SN,FEW,1700,BKN,4000,,,,,VFR,,,,,,,,,,,,SPECI,251.0
CYMA 121400Z 00000KT 10SM -SN BKN018 OVC025 M24/M27 A2991 RMK SC6SC2 SLP201,CYMA,2019-01-12T14:00:00Z,63.62,-135.87,-24.0,-27.0,0,0,,10.0,29.911417,1020.1,,,,,,,,,-SN,BKN,1800,OVC,2500,,,,,MVFR,,,,,,,,,,,,SPECI,504.0
UNEE 121400Z 24004MPS 9999 SCT014 M21/M23 Q1033 R23/851038 NOSIG RMK QFE751,UNEE,2019-01-12T14:00:00Z,55.27,86.08,-21.0,-23.0,240,8,,6.21,30.501968,,,,,,TRUE,,,,,SCT,1400,,,,,,,VFR,,,,,,,,,,,,METAR,260.0
OINZ 121400Z 34004KT CAVOK 09/04 Q1012,OINZ,2019-01-12T14:00:00Z,36.63,53.2,9.0,4.0,340,4,,6.21,29.88189,,,,,,,,,,,CAVOK,,,,,,,,VFR,,,,,,,,,,,,METAR,11.0
OBBI 121400Z 33009KT CAVOK 18/10 Q1019 NOSIG,OBBI,2019-01-12T14:00:00Z,26.27,50.63,18.0,10.0,330,9,,6.21,30.088583,,,,,,TRUE,,,,,CAVOK,,,,,,,,VFR,,,,,,,,,,,,METAR,2.0
ZBAA 121400Z VRB01MPS 2800 HZ NSC M06/M10 Q1026 NOSIG,ZBAA,2019-01-12T14:00:00Z,40.07,116.58,-6.0,-10.0,0,2,,1.74,30.295275,,,,,,TRUE,,,,HZ,CLR,,,,,,,,IFR,,,,,,,,,,,,METAR,30.0
ZMUB 121400Z 17002MPS CAVOK M26/M29 Q1022 NOSIG RMK QFE658.4 72,ZMUB,2019-01-12T14:00:00Z,47.83,106.78,-26.0,-29.0,170,4,,6.21,30.177166,,,,,,TRUE,,,,,CAVOK,,,,,,,,VFR,,,,,,,,,,,,METAR,1330.0
YAYT 121400Z 00000KT CAVOK 08/M07 Q1021,YAYT,2019-01-12T14:00:00Z,,,8.0,-7.0,0,0,,6.21,30.147638,,,,,,,,,,,CAVOK,,,,,,,,VFR,,,,,,,,,,,,METAR,
SESG 121400Z 00000KT CAVOK 07/M06 Q1022,SESG,2019-01-12T14:00:00Z,,,7.0,-6.0,0,0,,6.21,30.177166,,,,,,,,,,,CAVOK,,,,,,,,VFR,,,,,,,,,,,,METAR,
CXVN 121400Z AUTO 12005KT M05/M11 RMK AO1 SOG 01 3017 SLP342 T10451106,CXVN,2019-01-12T14:00:00Z,43.18,-79.4,-4.5,-10.6,120,5,,,,1034.2,,TRUE,TRUE,,,,,,,,,,,,,,,,,,,,,,,,,,,METAR,79.0
CWPK 121400Z AUTO 28005KT M21/M24 RMK AO1 SOG 39 3022 SLP323 T12121242,CWPK,2019-01-12T14:00:00Z,47.92,-74.62,-21.2,-24.2,280,5,,,,1032.3,,TRUE,TRUE,,,,,,,,,,,,,,,,,,,,,,,,,,,METAR,442.0
SKAR 121400Z 00000KT 9999 FEW030 21/19 A3011,SKAR,2019-01-12T14:00:00Z,4.45,-75.77,21.0,19.0,0,0,,6.21,30.109253,,,,,,,,,,,FEW,3000,,,,,,,VFR,,,,,,,,,,,,METAR,1219.0
CZMJ 121400Z AUTO 14008KT M13/M15 RMK AO1 SLP259 T11301152 56018,CZMJ,2019-01-12T14:00:00Z,50.33,-105.57,-13.0,-15.2,140,8,,,,1025.9,,TRUE,TRUE,,,,,,,,,,,,,,,,-1.8,,,,,,,,,,,METAR,577.0
CZZJ 121400Z AUTO 25004KT M06/M07 RMK AO1 SOG 27 2004 SLP175 T10611067,CZZJ,2019-01-12T14:00:00Z,53.58,-116.47,-6.1,-6.7,250,4,,,,1017.5,,TRUE,TRUE,,,,,,,,,,,,,,,,,,,,,,,,,,,METAR,927.0
CZKD 121400Z AUTO 19008KT M17/M19 RMK AO1 SOG 34 7029 SLP284 T11671190,CZKD,2019-01-12T14:00:00Z,56.03,-96.52,-16.7,-19.0,190,8,,,,1028.4,,TRUE,TRUE,,,,,,,,,,,,,,,,,,,,,,,,,,,METAR,183.0
CXZV 121400Z AUTO 28004KT M07/M10 RMK AO1 SOG 71 2029 SLP114 T10721103,CXZV,2019-01-12T14:00:00Z,50.22,-66.25,-7.2,-10.3,280,4,,,,1011.4,,TRUE,TRUE,,,,,,,,,,,,,,,,,,,,,,,,,,,METAR,52.0
CZTB 121400Z AUTO 03005KT M13/M16 RMK AO1 SOG 44 3020 SLP381 T11251163,CZTB,2019-01-12T14:00:00Z,48.37,-89.32,-12.5,-16.3,30,5,,,,1038.1,,TRUE,TRUE,,,,,,,,,,,,,,,,,,,,,,,,,,,METAR,199.0
CWBY 121400Z AUTO 26018G26KT M07/M08 RMK AO1 SOG 23 1024 PK WND 26026/1358 SLP100 T10691077,CWBY,2019-01-12T14:00:00Z,49.82,-64.28,-6.9,-7.7,260,18,26,,,1010.0,,TRUE,TRUE,,,,,,,,,,,,,,,,,,,,,,,,,,,METAR,53.0
CXTO 121400Z AUTO M06/M12 RMK AO1 SOG 01 3019 SLP350 T10551119,CXTO,2019-01-12T14:00:00Z,43.67,-79.4,-5.5,-11.9,,,,,,1035.0,,TRUE,TRUE,,,,,,,,,,,,,,,,,,,,,,,,,,,METAR,113.0
CXTD 121400Z AUTO 27005KT M11/M16 RMK AO1 SOG 03 2021 SLP190 T11141158,CXTD,2019-01-12T14:00:00Z,45.62,-61.68,-11.4,-15.8,270,5,,,,1019.0,,TRUE,TRUE,,,,,,,,,,,,,,,,,,,,,,,,,,,METAR,68.0
CXRL 121400Z AUTO 11003KT M15/M15 RMK AO1 T11471150,CXRL,2019-01-12T14:00:00Z,54.5,-111.7,-14.7,-15.0,110,3,,,,,,TRUE,TRUE,,,,,,,,,,,,,,,,,,,,,,,,,,,METAR,585.0
CWSS 121400Z AUTO 28010G17KT M15/M21 RMK AO1 SOG 09 1020 PK WND 29017/1342 SLP236 T11531212,CWSS,2019-01-12T14:00:00Z,45.2,-67.25,-15.3,-21.2,280,10,17,,,1023.6,,TRUE,TRUE,,,,,,,,,,,,,,,,,,,,,,,,,,,METAR,26.0
CWRN 121400Z AUTO 24015KT M09/M14 RMK AO1 PK WND 24019/1354 SLP188 T10921143 51024,CWRN,2019-01-12T14:00:00Z,45.35,-60.98,-9.2,-14.3,240,15,,,,1018.8,,TRUE,TRUE,,,,,,,,,,,,,,,,2.4,,,,,,,,,,,METAR,8.0
CWBV 121400Z AUTO 26019G25KT M09/M14 RMK AO1 PK WND 25027/1316 SLP194 T10851138 51020,CWBV,2019-01-12T14:00:00Z,44.82,-62.32,-8.5,-13.8,260,19,25,,,1019.4,,TRUE,TRUE,,,,,,,,,,,,,,,,2.0,,,,,,,,,,,METAR,10.0
CWWE 121400Z AUTO 26012G17KT M09/M13 RMK AO1 PK WND 25017/1300 SLP221 T10861131 53016,CWWE,2019-01-12T14:00:00Z,43.97,-64.67,-8.6,-13.1,260,12,17,,,1022.1,,TRUE,TRUE,,,,,,,,,,,,,,,,1.6,,,,,,,,,,,METAR,9.0
SBSP 121400Z VRB03KT 9999 BKN030 28/19 Q1021,SBSP,2019-01-12T14:00:00Z,-23.62,-46.63,28.0,19.0,0,3,,6.21,30.147638,,,,,,,,,,,BKN,3000,,,,,,,MVFR,,,,,,,,,,,,METAR,803.0
WIDD 121400Z 02005KT 9999 FEW014 27/23 Q1013 NOSIG,WIDD,2019-01-12T14:00:00Z,1.12,104.12,27.0,23.0,20,5,,6.21,29.911417,,,,,,TRUE,,,,,FEW,1400,,,,,,,VFR,,,,,,,,,,,,METAR,38.0
MYNN 121400Z 09010KT 9999 SCT020 23/16 A3022,MYNN,2019-01-12T14:00:00Z,25.03,-77.47,23.0,16.0,90,10,,6.21,30.221457,,,,,,,,,,,SCT,2000,,,,,,,VFR,,,,,,,,,,,,METAR,3.0
SBFL 121400Z 11007KT 9999 SCT020 SCT100 28/23 Q1017,SBFL,2019-01-12T14:00:00Z,-27.67,-48.53,28.0,23.0,110,7,,6.21,30.029528,,,,,,,,,,,SCT,2000,SCT,10000,,,,,VFR,,,,,,,,,,,,METAR,5.0
CWOC 121400Z AUTO 30014G21KT M13/M18 RMK AO1 PK WND 29022/1319 SLP140 T11311183 53024,CWOC,2019-01-12T14:00:00Z,48.02,-65.32,-13.1,-18.3,300,14,21,,,1014.0,,TRUE,TRUE,,,,,,,,,,,,,,,,2.4,,,,,,,,,,,METAR,47.0
CWNQ 121400Z AUTO 23008KT M21/M25 RMK AO1 SLP324 T12081253 51023,CWNQ,2019-01-12T14:00:00Z,46.22,-72.65,-20.8,-25.3,230,8,,,,1032.4,,TRUE,TRUE,,,,,,,,,,,,,,,,2.3,,,,,,,,,,,METAR,10.0
CWNP 121400Z AUTO 09002KT M02/M02 RMK AO1 SOG 23 4000 SLP258 T10181024,CWNP,2019-01-12T14:00:00Z,50.27,-117.82,-1.8,-2.4,90,2,,,,1025.8,,TRUE,TRUE,,,,,,,,,,,,,,,,,,,,,,,,,,,METAR,524.0
CWNM 121400Z AUTO 07005KT 02/00 RMK AO1 SOG 04 6002 SLP253 T00210000,CWNM,2019-01-12T14:00:00Z,49.5,-117.28,2.1,0.0,70,5,,,,1025.3,,TRUE,TRUE,,,,,,,,,,,,,,,,,,,,,,,,,,,METAR,535.0
CWNK 121400Z AUTO 33001KT M11/M13 RMK AO1 T11141132,CWNK,2019-01-12T14:00:00Z,49.5,-98.03,-11.4,-13.2,330,1,,,,,,TRUE,TRUE,,,,,,,,,,,,,,,,,,,,,,,,,,,METAR,268.0
CWNE 121400Z AUTO 26018KT M14/M17 RMK AO1 2PAST HR 3020 PK WND 26024/1315 SLP157 P0001 T11361166 50002,CWNE,2019-01-12T14:00:00Z,47.07,-64.0,-13.6,-16.6,260,18,,,,1015.7,,TRUE,TRUE,,,,,,,,,,,,,,,,0.2,,,,,0.01,,,,,,METAR,15.0
CWMQ 121400Z AUTO 20009KT 02/M08 RMK AO1 SLP190 T00211077 55002,CWMQ,2019-01-12T14:00:00Z,49.9,-109.47,2.1,-7.7,200,9,,,,1019.0,,TRUE,TRUE,,,,,,,,,,,,,,,,-0.2,,,,,,,,,,,METAR,767.0
CWMM 121400Z AUTO 13001KT 01/M01 RMK AO1 SLP152 T00051006 58001,CWMM,2019-01-12T14:00:00Z,49.22,-122.68,0.5,-0.6,130,1,,,,1015.2,,TRUE,TRUE,,,,,,,,,,,,,,,,-0.1,,,,,,,,,,,METAR,5.0
CWMJ 121400Z AUTO 30003KT M24/M27 RMK AO1 SOG 32 3023 SLP362 T12411269,CWMJ,2019-01-12T14:00:00Z,46.27,-76.0,-24.1,-26.9,300,3,,,,1036.2,,TRUE,TRUE,,,,,,,,,,,,,,,,,,,,,,,,,,,METAR,200.0
CWLM 121400Z AUTO 01012G18KT 06/04 RMK AO1 PK WND 01019/1337 SLP139 T00620041 55003,CWLM,2019-01-12T14:00:00Z,48.42,-123.32,6.2,4.1,10,12,18,,,1013.9,,TRUE,TRUE,,,,,,,,,,,,,,,,-0.3,,,,,,,,,,,METAR,70.0
CWLE 121400Z AUTO 21014KT M08/M10 RMK AO1 SOG 13 8015 PK WND 21017/1359 SLP210 T10761095,CWLE,2019-01-12T14:00:00Z,50.95,-107.15,-7.6,-9.5,210,14,,,,1021.0,,TRUE,TRUE,,,,,,,,,,,,,,,,,,,,,,,,,,,METAR,665.0
CWKX 121400Z AUTO 07002KT M17/M20 RMK AO1 SOG 39 2012 SLP172 T11741196,CWKX,2019-01-12T14:00:00Z,58.43,-130.02,-17.4,-19.6,70,2,,,,1017.2,,TRUE,TRUE,,,,,,,,,,,,,,,,,,,,,,,,,,,METAR,793.0
CWKH 121400Z AUTO 05/02 RMK AO1 SLP134 T00450019 55004,CWKH,2019-01-12T14:00:00Z,48.57,-123.55,4.5,1.9,,,,,,1013.4,,TRUE,TRUE,,,,,,,,,,,,,,,,-0.4,,,,,,,,,,,METAR,366.0
CWKG 121400Z AUTO 28005KT M11/M14 RMK AO1 SOG 07 2017 SLP216 T11091144 50002,CWKG,2019-01-12T14:00:00Z,44.43,-65.2,-10.9,-14.4,280,5,,,,1021.6,,TRUE,TRUE,,,,,,,,,,,,,,,,0.2,,,,,,,,,,,METAR,165.0
CWJX 121400Z AUTO 15005KT M07/M10 RMK AO1 SOG 03 8007 SLP187 T10741101,CWJX,2019-01-12T14:00:00Z,50.88,-109.5,-7.4,-10.1,150,5,,,,1018.7,,TRUE,TRUE,,,,,,,,,,,,,,,,,,,,,,,,,,,METAR,672.0
CWJV 121400Z AUTO 11006KT M04/M04 RMK AO1 SLP234 T10371043 51004,CWJV,2019-01-12T14:00:00Z,50.22,-119.18,-3.7,-4.3,110,6,,,,1023.4,,TRUE,TRUE,,,,,,,,,,,,,,,,0.4,,,,,,,,,,,METAR,556.0
CWJT 121400Z AUTO 00000KT M27/M30 RMK AO1 SLP368 T12731300 53021,CWJT,2019-01-12T14:00:00Z,46.07,-74.57,-27.3,-30.0,0,0,,,,1036.8,,TRUE,TRUE,,,,,,,,,,,,,,,,2.1,,,,,,,,,,,METAR,239.0
CWJR 121400Z AUTO 00000KT M00/01 RMK AO1 SOG 05 3001 SLP272 T10020005,CWJR,2019-01-12T14:00:00Z,49.07,-116.5,-0.2,0.5,0,0,,,,1027.2,,TRUE,TRUE,,,,,,,,,,,,,,,,,,,,,,,,,,,METAR,646.0
CWJI 121400Z AUTO 15007KT M11/M13 RMK AO1 SLP253 T11121134 56011,CWJI,2019-01-12T14:00:00Z,49.72,-105.92,-11.2,-13.4,150,7,,,,1025.3,,TRUE,TRUE,,,,,,,,,,,,,,,,-1.1,,,,,,,,,,,METAR,724.0
CMGB 121400Z AUTO 21004KT M17/M21 RMK AO1 SOG 17 3021 SLP340 T11721210,CMGB,2019-01-12T14:00:00Z,45.37,-72.77,-17.2,-21.0,210,4,,,,1034.0,,TRUE,TRUE,,,,,,,,,,,,,,,,,,,,,,,,,,,METAR,86.0
CMFM 121400Z AUTO 03005KT M24/M28 RMK AO1 SOG 64 3025 PK WND 29022/1310 SLP250 T12401280,CMFM,2019-01-12T14:00:00Z,47.32,-71.15,-24.0,-28.0,30,5,,,,1025.0,,TRUE,TRUE,,,,,,,,,,,,,,,,,,,,,,,,,,,METAR,672.0
OINK 121400Z 00000KT 9999 FEW040 08/03 Q1011 A2988,OINK,2019-01-12T14:00:00Z,37.25,55.1,8.0,3.0,0,0,,6.21,29.852362,,,,,,,,,,,FEW,4000,,,,,,,VFR,,,,,,,,,,,,METAR,33.0
OINB 121400Z 00000KT CAVOK 10/05 Q1012,OINB,2019-01-12T14:00:00Z,36.72,52.65,10.0,5.0,0,0,,6.21,29.88189,,,,,,,,,,,CAVOK,,,,,,,,VFR,,,,,,,,,,,,METAR,-15.0
LFLW 121400Z AUTO 34007KT 310V010 9999 OVC037 04/01 Q1027 BECMG BKN008,LFLW,2019-01-12T14:00:00Z,44.88,2.42,4.0,1.0,340,7,,6.21,30.324802,,,TRUE,,,,,,,,OVC,3700,,,,,,,VFR,,,,,,,,,,,,METAR,639.0
OIAI 121400Z 25004KT CAVOK 12/09 Q1017,OIAI,2019-01-12T14:00:00Z,32.0,49.27,12.0,9.0,250,4,,6.21,30.029528,,,,,,,,,,,CAVOK,,,,,,,,VFR,,,,,,,,,,,,METAR,372.0
LFVP 121400Z 23022KT 8000 BKN018 BKN041 M01/M04 Q1017 TEMPO 4000 -SHSN BKN012,LFVP,2019-01-12T14:00:00Z,46.77,-56.18,-1.0,-4.0,230,22,,4.97,30.029528,,,,,,,,,,,BKN,1800,BKN,4100,,,,,MVFR,,,,,,,,,,,,METAR,8.0
HSSS 121400Z 36007KT CAVOK 34/07 Q1008 NOSIG,HSSS,2019-01-12T14:00:00Z,15.58,32.53,34.0,7.0,360,7,,6.21,29.763779,,,,,,TRUE,,,,,CAVOK,,,,,,,,VFR,,,,,,,,,,,,METAR,380.0
UNKL 121400Z 28007MPS 6000 -SHSN SCT024CB M17/M22 Q1026 R29/450242 TEMPO 27011G16MPS 1000 SHSN BLSN RMK QFE744,UNKL,2019-01-12T14:00:00Z,56.17,92.48,-17.0,-22.0,280,14,,3.73,30.295275,,,,,,,,,,-SHSN,SCT,2400,,,,,,,MVFR,,,,,,,,,,,,METAR,276.0
OJAI 121400Z 09010KT 7000 NSC 16/01 Q1011 NOSIG,OJAI,2019-01-12T14:00:00Z,31.72,36.0,16.0,1.0,90,10,,4.35,29.852362,,,,,,TRUE,,,,,CLR,,,,,,,,MVFR,,,,,,,,,,,,METAR,730.0
WARR 121400Z 25005KT 230V290 7000 FEW020 27/25 Q1010 NOSIG,WARR,2019-01-12T14:00:00Z,-7.37,112.78,27.0,25.0,250,5,,4.35,29.822834,,,,,,TRUE,,,,,FEW,2000,,,,,,,MVFR,,,,,,,,,,,,METAR,2.0
NZAA 121400Z AUTO 09003KT 9999 FEW044/// 19/17 Q1020 NOSIG,NZAA,2019-01-12T14:00:00Z,-37.02,174.8,19.0,17.0,90,3,,6.21,30.11811,,,TRUE,,,TRUE,,,,,FEW,4400,,,,,,,VFR,,,,,,,,,,,,METAR,6.0
WAAA 121400Z 09003KT 8000 SCT018 25/25 Q1010 NOSIG,WAAA,2019-01-12T14:00:00Z,-5.07,119.53,25.0,25.0,90,3,,4.97,29.822834,,,,,,TRUE,,,,,SCT,1800,,,,,,,MVFR,,,,,,,,,,,,METAR,14.0
SBRJ 121400Z 15009KT 9999 FEW030 30/24 Q1015,SBRJ,2019-01-12T14:00:00Z,-22.88,-43.17,30.0,24.0,150,9,,6.21,29.970472,,,,,,,,,,,FEW,3000,,,,,,,VFR,,,,,,,,,,,,METAR,3.0
CXHF 121400Z AUTO M21/M24 RMK AO1 T12071236,CXHF,2019-01-12T14:00:00Z,45.83,-75.65,-20.7,-23.6,,,,,,,,TRUE,TRUE,,,,,,,,,,,,,,,,,,,,,,,,,,,METAR,190.0
OIGG 121400Z VRB02KT CAVOK 09/06 Q1011,OIGG,2019-01-12T14:00:00Z,37.33,49.6,9.0,6.0,0,2,,6.21,29.852362,,,,,,,,,,,CAVOK,,,,,,,,VFR,,,,,,,,,,,,METAR,-13.0
OIAG 121400Z 00000KT 4000 HZ NSC 13/09 Q1019,OIAG,2019-01-12T14:00:00Z,30.77,49.67,13.0,9.0,0,0,,2.49,30.088583,,,,,,,,,,HZ,CLR,,,,,,,,IFR,,,,,,,,,,,,METAR,29.0
HEIS 121400Z 01004KT CAVOK 20/M01 Q1009,HEIS,2019-01-12T14:00:00Z,30.58,32.25,20.0,-1.0,10,4,,6.21,29.793306,,,,,,,,,,,CAVOK,,,,,,,,VFR,,,,,,,,,,,,METAR,3.0
HETR 121400Z 00000KT 9999 SCT025 BKN100 20/09 Q1010,HETR,2019-01-12T14:00:00Z,28.22,33.65,20.0,9.0,0,0,,6.21,29.822834,,,,,,,,,,,SCT,2500,BKN,10000,,,,,VFR,,,,,,,,,,,,METAR,35.0
LFHP 121400Z AUTO 32009KT 9999 BKN013 BKN023 OVC032 02/00 Q1026,LFHP,2019-01-12T14:00:00Z,45.07,3.77,2.0,0.0,320,9,,6.21,30.295275,,,TRUE,,,,,,,,BKN,1300,BKN,2300,OVC,3200,,,MVFR,,,,,,,,,,,,METAR,833.0
CYZR 121400Z AUTO 11007KT 9SM OVC065 M04/M08 A3047 RMK SLP331,CYZR,2019-01-12T14:00:00Z,43.0,-82.3,-4.0,-8.0,110,7,,9.0,30.469488,1033.1,,TRUE,,,,,,,,OVC,6500,,,,,,,VFR,,,,,,,,,,,,SPECI,181.0
CXBO 121400Z AUTO 24012G17KT RMK AO1 PK WND 25022/1346,CXBO,2019-01-12T14:00:00Z,46.83,-71.2,,,240,12,17,,,,,TRUE,TRUE,,,,,,,,,,,,,,,,,,,,,,,,,,,METAR,100.0
YTRE 121400Z AUTO 03004KT 9999 // NCD 21/17 Q1016,YTRE,2019-01-12T14:00:00Z,-31.88,152.52,21.0,17.0,30,4,,6.21,30.0,,,TRUE,,,,,,,,CLR,,,,,,,,VFR,,,,,,,,,,,,METAR,12.0
YTNK 121400Z AUTO 03016KT 9999 // NCD 29/21 Q1011,YTNK,2019-01-12T14:00:00Z,-19.63,134.18,29.0,21.0,30,16,,6.21,29.852362,,,TRUE,,,,,,,,CLR,,,,,,,,VFR,,,,,,,,,,,,METAR,377.0
CXDE 121400Z AUTO 30008KT M35/M39 RMK AO1 SOG 19 1021 SLP189 T13491388,CXDE,2019-01-12T14:00:00Z,65.22,-123.43,-34.9,-38.8,300,8,,,,1018.9,,TRUE,TRUE,,,,,,,,,,,,,,,,,,,,,,,,,,,METAR,213.0
OIFK 121400Z 00000KT CAVOK 06/M09 Q1022,OIFK,2019-01-12T14:00:00Z,33.9,51.58,6.0,-9.0,0,0,,6.21,30.177166,,,,,,,,,,,CAVOK,,,,,,,,VFR,,,,,,,,,,,,METAR,982.0
WADD 121400Z 27006KT 9999 FEW016 27/26 Q1010 NOSIG,WADD,2019-01-12T14:00:00Z,-8.73,115.17,27.0,26.0,270,6,,6.21,29.822834,,,,,,TRUE,,,,,FEW,1600,,,,,,,VFR,,,,,,,,,,,,METAR,216.0
CWLI 121400Z AUTO 04013KT ////SM //// BKN005 OVC008 M25/M27 A////,CWLI,2019-01-12T14:00:00Z,69.58,-130.9,-25.0,-27.0,40,13,,,,,,TRUE,,,,,,,,BKN,500,OVC,800,,,,,,,,,,,,,,,,,SPECI,102.0
CWIL 121400Z AUTO 09022KT ////SM OVC002 ///// A////,CWIL,2019-01-12T14:00:00Z,68.32,-100.07,,,90,22,,,,,,TRUE,,,,,,,,OVC,200,,,,,,,,,,,,,,,,,,,SPECI,36.0
CXCK 121400Z AUTO 33002KT M26/M29 RMK AO1 SOG 13 1025 SLP194 T12631293,CXCK,2019-01-12T14:00:00Z,62.12,-136.2,-26.3,-29.3,330,2,,,,1019.4,,TRUE,TRUE,,,,,,,,,,,,,,,,,,,,,,,,,,,METAR,540.0
CXCA 121400Z AUTO 00000KT M21/M23 RMK AO1 SOG 20 3019 SLP408 T12141232,CXCA,2019-01-12T14:00:00Z,49.15,-88.35,-21.4,-23.2,0,0,,,,1040.8,,TRUE,TRUE,,,,,,,,,,,,,,,,,,,,,,,,,,,METAR,228.0
CXDI 121400Z AUTO 06001KT M05/M10 RMK AO1 SOG 01 3016 SLP334 T10531101,CXDI,2019-01-12T14:00:00Z,42.87,-80.55,-5.3,-10.1,60,1,,,,1033.4,,TRUE,TRUE,,,,,,,,,,,,,,,,,,,,,,,,,,,METAR,232.0
CXDW 121400Z AUTO 32008KT M12/M13 RMK AO1 SOG 04 8003 SLP334 T11181132,CXDW,2019-01-12T14:00:00Z,49.4,-98.32,-11.8,-13.2,320,8,,,,1033.4,,TRUE,TRUE,,,,,,,,,,,,,,,,,,,,,,,,,,,METAR,341.0
CXEC 121400Z AUTO 22006KT M07/M10 RMK AO1 SOG 25 1006 SLP164 T10731103,CXEC,2019-01-12T14:00:00Z,53.57,-113.52,-7.3,-10.3,220,6,,,,1016.4,,TRUE,TRUE,,,,,,,,,,,,,,,,,,,,,,,,,,,METAR,671.0
SKMZ 121400Z 30004KT 9999 SCT015 16/11 A3036,SKMZ,2019-01-12T14:00:00Z,5.03,-75.47,16.0,11.0,300,4,,6.21,30.360237,,,,,,,,,,,SCT,1500,,,,,,,VFR,,,,,,,,,,,,METAR,2080.0
SKUI 121400Z 34005KT 9999 BKN020 24/22 A2993,SKUI,2019-01-12T14:00:00Z,5.72,-76.62,24.0,22.0,340,5,,6.21,29.929134,,,,,,,,,,,BKN,2000,,,,,,,MVFR,,,,,,,,,,,,METAR,33.0
OIAM 121400Z 33002KT CAVOK 13/05 Q1019,OIAM,2019-01-12T14:00:00Z,30.55,49.15,13.0,5.0,330,2,,6.21,30.088583,,,,,,,,,,,CAVOK,,,,,,,,VFR,,,,,,,,,,,,METAR,4.0
CXET 121400Z AUTO 02003KT M11/M14 RMK AO1 SOG 04 3019 SLP356 T11081139,CXET,2019-01-12T14:00:00Z,44.23,-79.78,-10.8,-13.9,20,3,,,,1035.6,,TRUE,TRUE,,,,,,,,,,,,,,,,,,,,,,,,,,,METAR,251.0
CXGH 121400Z AUTO 09003KT M11/M13 RMK AO1 SLP325 T11131130 55003,CXGH,2019-01-12T14:00:00Z,50.63,-97.0,-11.3,-13.0,90,3,,,,1032.5,,TRUE,TRUE,,,,,,,,,,,,,,,,-0.3,,,,,,,,,,,METAR,217.0
CWRX 121400Z AUTO 34010KT ////SM //// NCD M32/M35 A3041,CWRX,2019-01-12T14:00:00Z,69.07,-79.02,-32.0,-35.0,340,10,,,30.410433,,,TRUE,,,,,,,,CLR,,,,,,,,,,,,,,,,,,,,SPECI,41.0
CWPX 121400Z AUTO 07027KT ////SM //// OVC002 M30/M35 A2986,CWPX,2019-01-12T14:00:00Z,69.02,-107.82,-30.0,-35.0,70,27,,,29.861221,,,TRUE,,,,,,,,OVC,200,,,,,,,,,,,,,,,,,,,METAR,165.0
LKPD 121400Z 25013KT 9999 SCT021 OVC040 04/01 Q1012 NOSIG RMK BLU BLU,LKPD,2019-01-12T14:00:00Z,50.02,15.73,4.0,1.0,250,13,,6.21,29.88189,,,,,,TRUE,,,,,SCT,2100,OVC,4000,,,,,VFR,,,,,,,,,,,,METAR,226.0
LKNA 121400Z 27013KT 9999 BKN018 OVC043 02/M00 Q1012 NOSIG RMK BLU BLU,LKNA,2019-01-12T14:00:00Z,49.17,16.12,2.0,0.0,270,13,,6.21,29.88189,,,,,,TRUE,,,,,BKN,1800,OVC,4300,,,,,MVFR,,,,,,,,,,,,METAR,472.0
LKLN 121400Z AUTO 22010KT 9999 -RA OVC012 02/01 Q1015,LKLN,2019-01-12T14:00:00Z,49.68,13.27,2.0,1.0,220,10,,6.21,29.970472,,,TRUE,,,,,,,-RA,OVC,1200,,,,,,,MVFR,,,,,,,,,,,,METAR,362.0
LKKB 121400Z 23015KT 9999 FEW016 BKN046 04/M00 Q1012 NOSIG,LKKB,2019-01-12T14:00:00Z,50.12,14.53,4.0,0.0,230,15,,6.21,29.88189,,,,,,TRUE,,,,,FEW,1600,BKN,4600,,,,,VFR,,,,,,,,,,,,METAR,286.0
LKCV 121400Z 25014KT 9999 SCT037 OVC043 04/02 Q1012 NOSIG RMK BLU BLU,LKCV,2019-01-12T14:00:00Z,49.93,15.38,4.0,2.0,250,14,,6.21,29.88189,,,,,,TRUE,,,,,SCT,3700,OVC,4300,,,,,VFR,,,,,,,,,,,,METAR,242.0
FQIN 121400Z 05014KT 9999 FEW020 32/27 Q1004,FQIN,2019-01-12T14:00:00Z,-23.87,35.37,32.0,27.0,50,14,,6.21,29.64567,,,,,,,,,,,FEW,2000,,,,,,,VFR,,,,,,,,,,,,METAR,15.0
VTSF 121400Z 00000KT 9000 FEW016CB SCT018 25/24 Q1012 NOSIG,VTSF,2019-01-12T14:00:00Z,8.53,99.95,25.0,24.0,0,0,,5.59,29.88189,,,,,,TRUE,,,,,FEW,1600,SCT,1800,,,,,VFR,,,,,,,,,,,,METAR,4.0
VTSB 121400Z 34004KT 8000 FEW020 25/24 Q1013,VTSB,2019-01-12T14:00:00Z,9.12,99.13,25.0,24.0,340,4,,4.97,29.911417,,,,,,,,,,,FEW,2000,,,,,,,MVFR,,,,,,,,,,,,METAR,11.0
CZCP 121400Z AUTO 07029KT ////SM //// SCT014 BKN021 OVC026 M26/M29 A2995,CZCP,2019-01-12T14:00:00Z,70.17,-124.72,-26.0,-29.0,70,29,,,29.949802,,,TRUE,,,,,,,,SCT,1400,BKN,2100,OVC,2600,,,,,,,,,,,,,,,SPECI,93.0
CZBF 121400Z AUTO 30010G21KT 9SM OVC090 M15/M21 A3000 RMK SLP166,CZBF,2019-01-12T14:00:00Z,47.62,-65.75,-15.0,-21.0,300,10,21,9.0,30.0,1016.6,,TRUE,,,,,,,,OVC,9000,,,,,,,VFR,,,,,,,,,,,,SPECI,59.0
CYCA 121400Z AUTO 21004KT 9SM BKN035 BKN055 M06/M07 A2971 RMK SLP062,CYCA,2019-01-12T14:00:00Z,53.68,-57.03,-6.0,-7.0,210,4,,9.0,29.71063,1006.2,,TRUE,,,,,,,,BKN,3500,BKN,5500,,,,,VFR,,,,,,,,,,,,METAR,12.0
CWZZ 121400Z AUTO ///// ////SM OVC003 M18/M20 A2971,CWZZ,2019-01-12T14:00:00Z,58.32,-62.57,-18.0,-20.0,,,,,29.71063,,,TRUE,,,,,,,,OVC,300,,,,,,,,,,,,,,,,,,,SPECI,483.0
CWUW 121400Z AUTO 33008KT ////SM NCD M29/M32 A3003,CWUW,2019-01-12T14:00:00Z,68.65,-71.17,-29.0,-32.0,330,8,,,30.029528,,,TRUE,,,,,,,,CLR,,,,,,,,,,,,,,,,,,,,SPECI,527.0
CWSW 121400Z 12004KT 12SM FEW014 BKN022 M05/M07 A3028 RMK ST2SC5 VIS S 4 SLP305,CWSW,2019-01-12T14:00:00Z,49.75,-114.87,-5.0,-7.0,120,4,,12.0,30.280512,1030.5,,,,,,,,,,FEW,1400,BKN,2200,,,,,MVFR,,,,,,,,,,,,SPECI,1138.0
VTSM 121400Z VRB02KT 9000 VCSH FEW020TCU 28/26 Q1013 NOSIG,VTSM,2019-01-12T14:00:00Z,9.55,100.07,28.0,26.0,0,2,,5.59,29.911417,,,,,,TRUE,,,,VCSH,FEW,2000,,,,,,,VFR,,,,,,,,,,,,METAR,17.0
CXEA 121400Z AUTO 11005KT M17/M19 RMK AO1 SOG 34 3003 SLP369 T11741193,CXEA,2019-01-12T14:00:00Z,50.63,-93.22,-17.4,-19.3,110,5,,,,1036.9,,TRUE,TRUE,,,,,,,,,,,,,,,,,,,,,,,,,,,METAR,355.0
OIKQ 121400Z 27004KT 7000 NSC 22/07 Q1016,OIKQ,2019-01-12T14:00:00Z,26.75,55.9,22.0,7.0,270,4,,4.35,30.0,,,,,,,,,,,CLR,,,,,,,,MVFR,,,,,,,,,,,,METAR,12.0
OICI 121400Z 30002KT 9999 FEW040 BKN200 07/M03 Q1020 A3012,OICI,2019-01-12T14:00:00Z,33.58,46.4,7.0,-3.0,300,2,,6.21,30.11811,,,,,,,,,,,FEW,4000,BKN,20000,,,,,VFR,,,,,,,,,,,,METAR,1343.0
RJAA 121400Z 31005KT 8000 -RA FEW020 BKN030 05/04 Q1017 NOSIG RMK 1CU020 7SC030 A3004,RJAA,2019-01-12T14:00:00Z,35.77,140.37,5.0,4.0,310,5,,4.97,30.029528,,,,,,TRUE,,,,-RA,FEW,2000,BKN,3000,,,,,MVFR,,,,,,,,,,,,METAR,44.0
OIIS 121400Z 00000KT CAVOK 05/M09 Q1021,OIIS,2019-01-12T14:00:00Z,35.38,53.67,5.0,-9.0,0,0,,6.21,30.147638,,,,,,,,,,,CAVOK,,,,,,,,VFR,,,,,,,,,,,,METAR,1115.0
LUKK 121400Z 29007KT 7000 BKN030 M02/M04 Q1009 R26/290150 TEMPO 4100 SN BR BKN015,LUKK,2019-01-12T14:00:00Z,46.93,28.93,-2.0,-4.0,290,7,,4.35,29.793306,,,,,,,,,,,BKN,3000,,,,,,,MVFR,,,,,,,,,,,,METAR,122.0
CXHA 121400Z AUTO 05004KT M02/M05 RMK AO1 SOG 02 3009 SLP313 T10221049,CXHA,2019-01-12T14:00:00Z,42.03,-82.9,-2.2,-4.9,50,4,,,,1031.3,,TRUE,TRUE,,,,,,,,,,,,,,,,,,,,,,,,,,,METAR,191.0
CYQH 121400Z 00000KT 15SM FEW030 M26/M29 A2982 RMK SC1 SLP174,CYQH,2019-01-12T14:00:00Z,60.12,-128.82,-26.0,-29.0,0,0,,15.0,29.819881,1017.4,,,,,,,,,,FEW,3000,,,,,,,VFR,,,,,,,,,,,,SPECI,690.0
LFBL 121400Z AUTO 25006KT 220V280 4600 BR BKN005 OVC009 05/04 Q1029 BECMG 9999 NSW BKN020,LFBL,2019-01-12T14:00:00Z,45.87,1.17,5.0,4.0,250,6,,2.86,30.383858,,,TRUE,,,,,,,BR,BKN,500,OVC,900,,,,,IFR,,,,,,,,,,,,METAR,402.0
LFBI 121400Z AUTO 23008KT 9999 OVC038 08/05 Q1029 NOSIG,LFBI,2019-01-12T14:00:00Z,46.57,0.32,8.0,5.0,230,8,,6.21,30.383858,,,TRUE,,,TRUE,,,,,OVC,3800,,,,,,,VFR,,,,,,,,,,,,METAR,120.0
LFMN 121400Z 21004KT 180V240 CAVOK 12/M01 Q1018 NOSIG,LFMN,2019-01-12T14:00:00Z,43.63,7.2,12.0,-1.0,210,4,,6.21,30.059055,,,,,,TRUE,,,,,CAVOK,,,,,,,,VFR,,,,,,,,,,,,METAR,10.0
RKSS 121400Z 28002KT 4000 BR NSC M04/M08 Q1024 NOSIG,RKSS,2019-01-12T14:00:00Z,37.53,126.78,-4.0,-8.0,280,2,,2.49,30.236221,,,,,,TRUE,,,,BR,CLR,,,,,,,,IFR,,,,,,,,,,,,METAR,19.0
RKSI 121400Z 31003KT 4200 BR NSC M00/M04 Q1024 NOSIG,RKSI,2019-01-12T14:00:00Z,37.47,126.45,0.0,-4.0,310,3,,2.61,30.236221,,,,,,TRUE,,,,BR,CLR,,,,,,,,IFR,,,,,,,,,,,,METAR,7.0
SKCC 121400Z 09004KT 9000 SCT017 SCT080 24/19 A3009 RMK HZ,SKCC,2019-01-12T14:00:00Z,7.92,-72.52,24.0,19.0,90,4,,5.59,30.088583,,,,,,,,,,,SCT,1700,SCT,8000,,,,,VFR,,,,,,,,,,,,METAR,317.0
SKCG 121400Z 03003KT 360V120 9999 FEW009 28/24 A2994,SKCG,2019-01-12T14:00:00Z,10.43,-75.52,28.0,24.0,30,3,,6.21,29.940945,,,,,,,,,,,FEW,900,,,,,,,VFR,,,,,,,,,,,,METAR,1.0
SKCL 121400Z 17004KT 9000 FEW010 BKN100 24/18 A3008 RMK HZ,SKCL,2019-01-12T14:00:00Z,3.53,-76.37,24.0,18.0,170,4,,5.59,30.079725,,,,,,,,,,,FEW,1000,BKN,10000,,,,,VFR,,,,,,,,,,,,METAR,969.0
SKBO 121400Z VRB02KT 6000 HZ SCT017 BKN080 13/12 A3038,SKBO,2019-01-12T14:00:00Z,4.7,-74.12,13.0,12.0,0,2,,3.73,30.380905,,,,,,,,,,HZ,SCT,1700,BKN,8000,,,,,MVFR,,,,,,,,,,,,METAR,2548.0
SBFZ 121400Z 00000KT 9999 -RA SCT023 BKN100 25/22 Q1013,SBFZ,2019-01-12T14:00:00Z,-3.77,-38.52,25.0,22.0,0,0,,6.21,29.911417,,,,,,,,,,-RA,SCT,2300,BKN,10000,,,,,VFR,,,,,,,,,,,,METAR,25.0
SKBQ 121400Z 03006KT 360V070 9999 FEW015 27/23 A2996,SKBQ,2019-01-12T14:00:00Z,10.9,-74.77,27.0,23.0,30,6,,6.21,29.958662,,,,,,,,,,,FEW,1500,,,,,,,VFR,,,,,,,,,,,,METAR,10.0
SBSJ 121400Z 11003KT 9999 FEW030 28/20 Q1020,SBSJ,2019-01-12T14:00:00Z,-23.22,-45.87,28.0,20.0,110,3,,6.21,30.11811,,,,,,,,,,,FEW,3000,,,,,,,VFR,,,,,,,,,,,,METAR,646.0
SBBR 121400Z 09008KT 060V130 9999 BKN025 FEW030TCU 27/19 Q1021,SBBR,2019-01-12T14:00:00Z,-15.87,-47.92,27.0,19.0,90,8,,6.21,30.147638,,,,,,,,,,,BKN,2500,FEW,3000,,,,,MVFR,,,,,,,,,,,,METAR,1061.0
FNGI 121400Z 22006KT 9999 FEW016 36/03 Q1012,FNGI,2019-01-12T14:00:00Z,-17.05,15.68,36.0,3.0,220,6,,6.21,29.88189,,,,,,,,,,,FEW,1600,,,,,,,VFR,,,,,,,,,,,,METAR,1087.0
VOHY 121400Z VRB03KT 5000 HZ NSC 24/17 Q1018 NOSIG,VOHY,2019-01-12T14:00:00Z,17.45,78.45,24.0,17.0,0,3,,3.11,30.059055,,,,,,TRUE,,,,HZ,CLR,,,,,,,,MVFR,,,,,,,,,,,,METAR,545.0
FQPB 121400Z 02014KT 9999 FEW020 FEW025CB BKN100 28/22 Q1008 RMK CB TO NW/N,FQPB,2019-01-12T14:00:00Z,-12.97,40.5,28.0,22.0,20,14,,6.21,29.763779,,,,,,,,,,,FEW,2000,FEW,2500,BKN,10000,,,VFR,,,,,,,,,,,,METAR,50.0
YSSY 121400Z 11001KT CAVOK 23/20 Q1016,YSSY,2019-01-12T14:00:00Z,-33.95,151.17,23.0,20.0,110,1,,6.21,30.0,,,,,,,,,,,CAVOK,,,,,,,,VFR,,,,,,,,,,,,METAR,3.0
YPPH 121400Z 21011KT CAVOK 23/15 Q1011 NOSIG,YPPH,2019-01-12T14:00:00Z,-31.93,115.98,23.0,15.0,210,11,,6.21,29.852362,,,,,,TRUE,,,,,CAVOK,,,,,,,,VFR,,,,,,,,,,,,METAR,13.0
YPDN 121400Z 16007KT 9999 RA FEW010 OVC160 23/23 Q1008,YPDN,2019-01-12T14:00:00Z,-12.42,130.9,23.0,23.0,160,7,,6.21,29.763779,,,,,,,,,,RA,FEW,1000,OVC,16000,,,,,VFR,,,,,,,,,,,,METAR,30.0
YPAD 121400Z 20011KT CAVOK 18/11 Q1019 FM1400 MOD TURB BLW 5000FT,YPAD,2019-01-12T14:00:00Z,-34.95,138.52,18.0,11.0,200,11,,6.21,30.088583,,,,,,,,,,,CAVOK,,,,,,,,VFR,,,,,,,,,,,,METAR,4.0
FYWW 121400Z AUTO 30007KT //// // ////// 33/M13 Q1016,FYWW,2019-01-12T14:00:00Z,-22.57,17.1,33.0,-13.0,300,7,,,30.0,,,TRUE,,,,,,,,,,,,,,,,,,,,,,,,,,,,METAR,1725.0
FYWH 121400Z 29010G20KT CAVOK 32/M14 Q1017 NOSIG,FYWH,2019-01-12T14:00:00Z,-22.47,17.47,32.0,-14.0,290,10,20,6.21,30.029528,,,,,,TRUE,,,,,CAVOK,,,,,,,,VFR,,,,,,,,,,,,METAR,1700.0
FYWB 121400Z AUTO 26013KT //// // ////// 26/12 Q1012,FYWB,2019-01-12T14:00:00Z,-22.98,14.65,26.0,12.0,260,13,,,29.88189,,,TRUE,,,,,,,,,,,,,,,,,,,,,,,,,,,,METAR,46.0
FYRN 121400Z 18008KT CAVOK 37/04 Q1014,FYRN,2019-01-12T14:00:00Z,-20.02,13.85,37.0,4.0,180,8,,6.21,29.940945,,,,,,,,,,,CAVOK,,,,,,,,VFR,,,,,,,,,,,,METAR,756.0
FYOW 121400Z AUTO 27007KT //// // ////// 35/02 Q1014,FYOW,2019-01-12T14:00:00Z,-20.43,16.67,35.0,2.0,270,7,,,29.940945,,,TRUE,,,,,,,,,,,,,,,,,,,,,,,,,,,,METAR,1481.0
FYOO 121400Z AUTO 23007KT //// // ////// 38/03 Q1012,FYOO,2019-01-12T14:00:00Z,-19.15,15.92,38.0,3.0,230,7,,,29.88189,,,TRUE,,,,,,,,,,,,,,,,,,,,,,,,,,,,METAR,1192.0
FYOA 121400Z AUTO 24007KT //// // ////// 39/01 Q1010,FYOA,2019-01-12T14:00:00Z,-17.88,15.97,39.0,1.0,240,7,,,29.822834,,,TRUE,,,,,,,,,,,,,,,,,,,,,,,,,,,,METAR,1095.0
FYKT 121400Z AUTO 30008KT //// // ////// 34/M13 Q1012,FYKT,2019-01-12T14:00:00Z,-26.52,18.12,34.0,-13.0,300,8,,,29.88189,,,TRUE,,,,,,,,,,,,,,,,,,,,,,,,,,,,METAR,1061.0
FYGB 121400Z AUTO 31004KT //// // ////// 37/M03 Q1017,FYGB,2019-01-12T14:00:00Z,-22.5,18.97,37.0,-3.0,310,4,,,30.029528,,,TRUE,,,,,,,,,,,,,,,,,,,,,,,,,,,,METAR,1442.0
YLHI 121400Z AUTO 07008KT 9999 // NCD 23/18 Q1018,YLHI,2019-01-12T14:00:00Z,-31.53,159.07,23.0,18.0,70,8,,6.21,30.059055,,,TRUE,,,,,,,,CLR,,,,,,,,VFR,,,,,,,,,,,,METAR,2.0
YCFS 121400Z AUTO 35006KT 9999 // NCD 22/17 Q1017 RF00.0/000.0,YCFS,2019-01-12T14:00:00Z,-30.32,153.12,22.0,17.0,350,6,,6.21,30.029528,,,TRUE,,,,,,,,CLR,,,,,,,,VFR,,,,,,,,,,,,METAR,5.0
YPCC 121400Z AUTO 12012KT 9999 // SCT022 28/23 Q1012 RF00.0/000.0,YPCC,2019-01-12T14:00:00Z,-12.17,96.82,28.0,23.0,120,12,,6.21,29.88189,,,TRUE,,,,,,,,SCT,2200,,,,,,,VFR,,,,,,,,,,,,METAR,3.0
YPTN 121400Z AUTO 26001KT 9999 // NCD 25/23 Q1009,YPTN,2019-01-12T14:00:00Z,-14.52,132.38,25.0,23.0,260,1,,6.21,29.793306,,,TRUE,,,,,,,,CLR,,,,,,,,VFR,,,,,,,,,,,,METAR,109.0
YPLM 121400Z AUTO 23015KT 9999 // NCD 24/19 Q1010 RF00.0/000.0,YPLM,2019-01-12T14:00:00Z,-22.22,114.07,24.0,19.0,230,15,,6.21,29.822834,,,TRUE,,,,,,,,CLR,,,,,,,,VFR,,,,,,,,,,,,METAR,6.0
YGLA 121400Z AUTO 20004KT 9999 // NCD 24/18 Q1014,YGLA,2019-01-12T14:00:00Z,-23.87,151.22,24.0,18.0,200,4,,6.21,29.940945,,,TRUE,,,,,,,,CLR,,,,,,,,VFR,,,,,,,,,,,,METAR,52.0
YHID 121400Z AUTO 04004KT 9999 // NCD 28/24 Q1009,YHID,2019-01-12T14:00:00Z,-10.58,142.3,28.0,24.0,40,4,,6.21,29.793306,,,TRUE,,,,,,,,CLR,,,,,,,,VFR,,,,,,,,,,,,METAR,13.0
YPJT 121400Z AUTO 21006KT 9999 // NCD 22/17 Q1012 RF00.0/000.0,YPJT,2019-01-12T14:00:00Z,-32.1,115.88,22.0,17.0,210,6,,6.21,29.88189,,,TRUE,,,,,,,,CLR,,,,,,,,VFR,,,,,,,,,,,,METAR,30.0
YGFN 121400Z AUTO 20003KT 9999 // BKN024 19/17 Q1017,YGFN,2019-01-12T14:00:00Z,-29.77,153.03,19.0,17.0,200,3,,6.21,30.029528,,,TRUE,,,,,,,,BKN,2400,,,,,,,MVFR,,,,,,,,,,,,METAR,34.0
YPWR 121400Z AUTO 17013KT 9999 // NCD 24/06 Q1016,YPWR,2019-01-12T14:00:00Z,-31.12,136.82,24.0,6.0,170,13,,6.21,30.0,,,TRUE,,,,,,,,CLR,,,,,,,,VFR,,,,,,,,,,,,METAR,167.0
VMMC 121400Z 05002KT 6000 NSC 19/17 Q1018 TEMPO 4500 BR,VMMC,2019-01-12T14:00:00Z,22.15,113.58,19.0,17.0,50,2,,3.73,30.059055,,,,,,,,,,,CLR,,,,,,,,MVFR,,,,,,,,,,,,SPECI,6.0
RCNN 121400Z 36008KT 7000 FEW014 BKN060 19/16 Q1018 RMK A3007,RCNN,2019-01-12T14:00:00Z,22.93,120.2,19.0,16.0,360,8,,4.35,30.059055,,,,,,,,,,,FEW,1400,BKN,6000,,,,,MVFR,,,,,,,,,,,,SPECI,19.0
RCMQ 121400Z 02009KT 7000 FEW010 SCT040 17/16 Q1018 NOSIG RMK A3008,RCMQ,2019-01-12T14:00:00Z,24.27,120.62,17.0,16.0,20,9,,4.35,30.059055,,,,,,TRUE,,,,,FEW,1000,SCT,4000,,,,,MVFR,,,,,,,,,,,,SPECI,5.0
RCSS 121400Z 10010KT 9999 FEW006 BKN020 BKN040 19/17 Q1021 NOSIG RMK A3016,RCSS,2019-01-12T14:00:00Z,25.07,121.53,19.0,17.0,100,10,,6.21,30.147638,,,,,,TRUE,,,,,FEW,600,BKN,2000,BKN,4000,,,MVFR,,,,,,,,,,,,SPECI,6.0
RCKH 121400Z 35003KT 8000 FEW015 SCT040 BKN060 24/19 Q1018 NOSIG RMK A3006,RCKH,2019-01-12T14:00:00Z,22.57,120.33,24.0,19.0,350,3,,4.97,30.059055,,,,,,TRUE,,,,,FEW,1500,SCT,4000,BKN,6000,,,MVFR,,,,,,,,,,,,METAR,9.0
RCTP 121400Z 07015KT 9999 FEW006 BKN018 BKN080 18/16 Q1021 NOSIG RMK A3015,RCTP,2019-01-12T14:00:00Z,25.07,121.22,18.0,16.0,70,15,,6.21,30.147638,,,,,,TRUE,,,,,FEW,600,BKN,1800,BKN,8000,,,MVFR,,,,,,,,,,,,METAR,33.0
DNMN 121400Z 08013KT CAVOK 38/08 Q1004,DNMN,2019-01-12T14:00:00Z,9.65,6.47,38.0,8.0,80,13,,6.21,29.64567,,,,,,,,,,,CAVOK,,,,,,,,VFR,,,,,,,,,,,,METAR,254.0
YPKU 121400Z AUTO 08006KT 9999 // NCD 25/23 Q1007,YPKU,2019-01-12T14:00:00Z,-15.77,128.68,25.0,23.0,80,6,,6.21,29.734253,,,TRUE,,,,,,,,CLR,,,,,,,,VFR,,,,,,,,,,,,METAR,45.0
CYXY 121400Z 34003KT 15SM IC BKN210 M24/M27 A2975 RMK CI7 FROIN SLP159,CYXY,2019-01-12T14:00:00Z,60.72,-135.07,-24.0,-27.0,340,3,,15.0,29.749016,1015.9,,,,,,,,,IC,BKN,21000,,,,,,,VFR,,,,,,,,,,,,SPECI,703.0
CYXT 121400Z 05002KT 5SM -SN BR FEW005 OVC017 00/00 A2989 RMK SF2SC6 SLP135,CYXT,2019-01-12T14:00:00Z,54.47,-128.57,0.0,0.0,50,2,,5.0,29.890747,1013.5,,,,,,,,,-SN BR,FEW,500,OVC,1700,,,,,MVFR,,,,,,,,,,,,SPECI,217.0
CYXJ 121400Z 22009KT 15SM FEW150 BKN230 00/M02 A2981 RMK AC2CI5 SLP131,CYXJ,2019-01-12T14:00:00Z,56.25,-120.73,0.0,-2.0,220,9,,15.0,29.811024,1013.1,,,,,,,,,,FEW,15000,BKN,23000,,,,,VFR,,,,,,,,,,,,SPECI,695.0
CYWL 121400Z 12013KT 15SM BKN130 02/M02 A2994 RMK AC7 SLP171,CYWL,2019-01-12T14:00:00Z,52.18,-122.07,2.0,-2.0,120,13,,15.0,29.940945,1017.1,,,,,,,,,,BKN,13000,,,,,,,VFR,,,,,,,,,,,,SPECI,940.0
CYQU 121400Z VRB03KT 25SM BKN130 OVC220 M05/M07 A2985 RMK AC5CI3 SLP153,CYQU,2019-01-12T14:00:00Z,55.18,-118.88,-5.0,-7.0,0,3,,25.0,29.84941,1015.3,,,,,,,,,,BKN,13000,OVC,22000,,,,,VFR,,,,,,,,,,,,SPECI,669.0
CYQR 121400Z CCA 14019G24KT 15SM DRSN FEW230 M14/M16 A3018 RMK CI1 FROIN SLP274,CYQR,2019-01-12T14:00:00Z,50.43,-104.67,-14.0,-16.0,140,19,24,15.0,30.180119,1027.4,,,,,,,,,DRSN,FEW,23000,,,,,,,VFR,,,,,,,,,,,,SPECI,577.0
CYWH 121400Z 01005KT 15SM FEW090 FEW220 07/04 A2995 RMK AC1CI1 AC TR SLP144,CYWH,2019-01-12T14:00:00Z,48.42,-123.38,7.0,4.0,10,5,,15.0,29.949802,1014.4,,,,,,,,,,FEW,9000,FEW,22000,,,,,VFR,,,,,,,,,,,,SPECI,10.0
CYYF 121400Z 18005KT 5SM BR OVC004 01/01 A3018 RMK ST8 SLP236,CYYF,2019-01-12T14:00:00Z,49.47,-119.58,1.0,1.0,180,5,,5.0,30.180119,1023.6,,,,,,,,,BR,OVC,400,,,,,,,LIFR,,,,,,,,,,,,SPECI,344.0
CYGK 121400Z 01005KT 15SM FEW030 FEW090 SCT250 M11/M18 A3058 RMK CU1AC1CI1 SLP366,CYGK,2019-01-12T14:00:00Z,44.22,-76.58,-11.0,-18.0,10,5,,15.0,30.578741,1036.6,,,,,,,,,,FEW,3000,FEW,9000,SCT,25000,,,VFR,,,,,,,,,,,,SPECI,93.0
CYER 121400Z AUTO 21004KT 9SM SCT100 OVC130 M24/M26 A3064 RMK SLP381,CYER,2019-01-12T14:00:00Z,56.02,-87.68,-24.0,-26.0,210,4,,9.0,30.640747,1038.1,,TRUE,,,,,,,,SCT,10000,OVC,13000,,,,,VFR,,,,,,,,,,,,METAR,16.0
CYCK 121400Z AUTO 11007KT 9SM M02/M05 A3045 RMK CLD MISG SLP322,CYCK,2019-01-12T14:00:00Z,42.3,-82.08,-2.0,-5.0,110,7,,9.0,30.448818,1032.2,,TRUE,,,,,,,,,,,,,,,,,,,,,,,,,,,,METAR,198.0
CYAT 121400Z AUTO 26006KT 9SM CLR M28/M31 A3065 RMK SLP383,CYAT,2019-01-12T14:00:00Z,52.93,-82.43,-28.0,-31.0,260,6,,9.0,30.649607,1038.3,,TRUE,,,,,,,,CLR,,,,,,,,VFR,,,,,,,,,,,,METAR,9.0
RJTT 121400Z 36007KT 9999 -RA FEW010 BKN040 07/03 Q1017 NOSIG RMK 1CU010 7SC040 A3005,RJTT,2019-01-12T14:00:00Z,35.53,139.77,7.0,3.0,360,7,,6.21,30.029528,,,,,,TRUE,,,,-RA,FEW,1000,BKN,4000,,,,,VFR,,,,,,,,,,,,METAR,8.0
RJBB 121400Z AUTO 10004KT 9999 NCD 07/03 Q1018 NOSIG,RJBB,2019-01-12T14:00:00Z,34.42,135.25,7.0,3.0,100,4,,6.21,30.059055,,,TRUE,,,TRUE,,,,,CLR,,,,,,,,VFR,,,,,,,,,,,,METAR,8.0
FMMT 121400Z 05007KT 010V090 9999 FEW020TCU 30/25 Q1010 NOSIG,FMMT,2019-01-12T14:00:00Z,-18.12,49.38,30.0,25.0,50,7,,6.21,29.822834,,,,,,TRUE,,,,,FEW,2000,,,,,,,VFR,,,,,,,,,,,,METAR,6.0
RJGG 121400Z 30010KT 9999 FEW025 07/01 Q1016 NOSIG,RJGG,2019-01-12T14:00:00Z,34.87,136.8,7.0,1.0,300,10,,6.21,30.0,,,,,,TRUE,,,,,FEW,2500,,,,,,,VFR,,,,,,,,,,,,METAR,5.0
ROAH 121400Z 01014KT 9999 FEW025 SCT045 BKN120 21/14 Q1018 RMK 1CU025 4SC045 6AC120 A3008,ROAH,2019-01-12T14:00:00Z,26.17,127.65,21.0,14.0,10,14,,6.21,30.059055,,,,,,,,,,,FEW,2500,SCT,4500,BKN,12000,,,VFR,,,,,,,,,,,,METAR,8.0
CXIB 121400Z AUTO 21004KT M09/M16 RMK AO1 SOG 35 1022 SLP161 T10911156,CXIB,2019-01-12T14:00:00Z,46.67,-60.38,-9.1,-15.6,210,4,,,,1016.1,,TRUE,TRUE,,,,,,,,,,,,,,,,,,,,,,,,,,,METAR,8.0
CXMI 121400Z AUTO 27012G23KT M08/ RMK AO1 PK WND 26023/1355 SLP200 T1079 51010,CXMI,2019-01-12T14:00:00Z,44.6,-63.53,-7.9,,270,12,23,,,1020.0,,TRUE,TRUE,,,,,,,,,,,,,,,,1.0,,,,,,,,,,,METAR,15.0
CXMD 121400Z AUTO 32002KT M11/M13 RMK AO1 SOG 17 8002 SLP333 T11121131,CXMD,2019-01-12T14:00:00Z,49.22,-98.08,-11.2,-13.1,320,2,,,,1033.3,,TRUE,TRUE,,,,,,,,,,,,,,,,,,,,,,,,,,,METAR,301.0
CYVV 121400Z 07007KT 15SM FEW025 SCT250 M09/M12 A3053 RMK SC2CI2 SLP355,CYVV,2019-01-12T14:00:00Z,44.75,-81.08,-9.0,-12.0,70,7,,15.0,30.528543,1035.5,,,,,,,,,,FEW,2500,SCT,25000,,,,,VFR,,,,,,,,,,,,SPECI,222.0
CYVP 121400Z 35011KT 15SM -SN OVC017 M13/M16 A3020 RMK SC8 SLP232,CYVP,2019-01-12T14:00:00Z,58.12,-68.42,-13.0,-16.0,350,11,,15.0,30.200787,1023.2,,,,,,,,,-SN,OVC,1700,,,,,,,MVFR,,,,,,,,,,,,SPECI,60.0
CYTZ 121400Z AUTO 06006KT 9SM OVC090 M06/M12 A3056 RMK RVR MISG SLP357,CYTZ,2019-01-12T14:00:00Z,43.63,-79.4,-6.0,-12.0,60,6,,9.0,30.561024,1035.7,,TRUE,,,,,,,,OVC,9000,,,,,,,VFR,,,,,,,,,,,,SPECI,77.0
CYTS 121400Z 28004KT 15SM SCT008 BKN090 BKN240 M28/M31 A3056 RMK SF3AC2CI2 SLP393,CYTS,2019-01-12T14:00:00Z,48.57,-81.37,-28.0,-31.0,280,4,,15.0,30.561024,1039.3,,,,,,,,,,SCT,800,BKN,9000,BKN,24000,,,VFR,,,,,,,,,,,,SPECI,295.0
CYTL 121400Z AUTO 19006KT 9SM BKN120 M24/M27 A3060 RMK SLP397,CYTL,2019-01-12T14:00:00Z,53.82,-89.88,-24.0,-27.0,190,6,,9.0,30.59941,1039.7,,TRUE,,,,,,,,BKN,12000,,,,,,,VFR,,,,,,,,,,,,SPECI,224.0
CYRL 121400Z 13006KT 15SM BKN006 OVC016 M16/M18 A3048 RMK ST5SC3 SLP364,CYRL,2019-01-12T14:00:00Z,51.07,-93.78,-16.0,-18.0,130,6,,15.0,30.481298,1036.4,,,,,,,,,,BKN,600,OVC,1600,,,,,IFR,,,,,,,,,,,,SPECI,383.0
CYRJ 121400Z 30010KT 8SM -SHSN FEW030 BKN070 BKN100 M21/M26 A3036 RMK SC1AC5AS1 SC TR SLP304,CYRJ,2019-01-12T14:00:00Z,48.52,-72.27,-21.0,-26.0,300,10,,8.0,30.360237,1030.4,,,,,,,,,-SHSN,FEW,3000,BKN,7000,BKN,10000,,,VFR,,,,,,,,,,,,SPECI,179.0
CYPQ 121400Z AUTO 06003KT 020V090 9SM CLR M11/M16 A3055 RMK SLP364,CYPQ,2019-01-12T14:00:00Z,44.22,-78.37,-11.0,-16.0,60,3,,9.0,30.549213,1036.4,,TRUE,,,,,,,,CLR,,,,,,,,VFR,,,,,,,,,,,,SPECI,191.0
CYND 121400Z 26008KT 15SM SKC M20/M23 A3058 RMK SLP366,CYND,2019-01-12T14:00:00Z,45.52,-75.57,-20.0,-23.0,260,8,,15.0,30.578741,1036.6,,,,,,,,,,SKC,,,,,,,,VFR,,,,,,,,,,,,SPECI,64.0
CYMO 121400Z AUTO 28007KT 9SM -SN BKN011 OVC016 M22/M24 A3066 RMK SLP384,CYMO,2019-01-12T14:00:00Z,51.28,-80.62,-22.0,-24.0,280,7,,9.0,30.661417,1038.4,,TRUE,,,,,,,-SN,BKN,1100,OVC,1600,,,,,MVFR,,,,,,,,,,,,SPECI,10.0
CYHU 121400Z AUTO 26013G18KT 9SM CLR M17/M22 A3053 RMK SLP343,CYHU,2019-01-12T14:00:00Z,45.52,-73.42,-17.0,-22.0,260,13,18,9.0,30.528543,1034.3,,TRUE,,,,,,,,CLR,,,,,,,,VFR,,,,,,,,,,,,SPECI,27.0
CYHD 121400Z AUTO 07007KT 9SM BKN025 M18/M20 A3050 RMK SLP372,CYHD,2019-01-12T14:00:00Z,49.82,-92.75,-18.0,-20.0,70,7,,9.0,30.499016,1037.2,,TRUE,,,,,,,,BKN,2500,,,,,,,MVFR,,,,,,,,,,,,SPECI,413.0
CYGR 121400Z 25014KT 1 1/2SM -SHSN OVC025 M10/M13 A2996 RMK SN2SC6 CVCTV CLD EMBD SLP146,CYGR,2019-01-12T14:00:00Z,47.42,-61.77,-10.0,-13.0,250,14,,1.5,29.958662,1014.6,,,,,,,,,-SHSN,OVC,2500,,,,,,,IFR,,,,,,,,,,,,SPECI,10.0
CYFT 121400Z 21016KT 2SM -SN BR OVC005 M08/M09 A2964 RMK SN5ST3 SLP043,CYFT,2019-01-12T14:00:00Z,55.07,-59.17,-8.0,-9.0,210,16,,2.0,29.639763,1004.3,,,,,,,,,-SN BR,OVC,500,,,,,,,IFR,,,,,,,,,,,,SPECI,71.0
CYAM 121400Z 08005KT 20SM FEW010 FEW240 SCT280 M17/M19 A3059 RMK SC1CI2CC1 SC TR CONTRAILS SLP378,CYAM,2019-01-12T14:00:00Z,46.47,-84.52,-17.0,-19.0,80,5,,20.0,30.590551,1037.8,,,,,,,,,,FEW,1000,FEW,24000,SCT,28000,,,VFR,,,,,,,,,,,,SPECI,192.0
CZUM 121400Z AUTO 32011G18KT 1 1/4SM -SN OVC020 M10/M13 A2975 RMK SLP109,CZUM,2019-01-12T14:00:00Z,53.53,-64.08,-10.0,-13.0,320,11,18,1.25,29.749016,1010.9,,TRUE,,,,,,,-SN,OVC,2000,,,,,,,IFR,,,,,,,,,,,,SPECI,440.0
CZPC 121400Z AUTO 26016KT 9SM BKN250 03/M08 A3000 RMK SLP193,CZPC,2019-01-12T14:00:00Z,49.52,-114.0,3.0,-8.0,260,16,,9.0,30.0,1019.3,,TRUE,,,,,,,,BKN,25000,,,,,,,VFR,,,,,,,,,,,,SPECI,1190.0
CWGZ 121400Z 00000KT 2SM IC BR SKC M39/M44 A3035 RMK SLP288,CWGZ,2019-01-12T14:00:00Z,76.42,-82.9,-39.0,-44.0,0,0,,2.0,30.351377,1028.8,,,,,,,,,IC BR,SKC,,,,,,,,IFR,,,,,,,,,,,,SPECI,45.0
CWFD 121400Z AUTO 35021G30KT ////SM //// NCD M26/M26 A2977,CWFD,2019-01-12T14:00:00Z,66.57,-61.58,-26.0,-26.0,350,21,30,,29.769686,,,TRUE,,,,,,,,CLR,,,,,,,,,,,,,,,,,,,,SPECI,393.0
CWEU 121400Z VRB02KT 5SM IC SKC M43/M47 A3044 RMK SLP313,CWEU,2019-01-12T14:00:00Z,80.0,-85.92,-43.0,-47.0,0,2,,5.0,30.43996,1031.3,,,,,,,,,IC,SKC,,,,,,,,MVFR,,,,,,,,,,,,SPECI,10.0
CYZG 121400Z 02012KT 1 1/4SM -SN DRSN OVC007 M23/M25 A3033 RMK SN5ST3 SLP308,CYZG,2019-01-12T14:00:00Z,62.17,-75.67,-23.0,-25.0,20,12,,1.25,30.33071,1030.8,,,,,,,,,-SN DRSN,OVC,700,,,,,,,IFR,,,,,,,,,,,,SPECI,226.0
CYWK 121400Z 34008KT 15SM DRSN SCT040 SCT090 BKN270 M13/M16 A2984 RMK SC3AC1CI2 SLP151,CYWK,2019-01-12T14:00:00Z,52.92,-66.87,-13.0,-16.0,340,8,,15.0,29.840551,1015.1,,,,,,,,,DRSN,SCT,4000,SCT,9000,BKN,27000,,,VFR,,,,,,,,,,,,SPECI,551.0
CYUY 121400Z 33004KT 15SM OVC008 M23/M26 A3054 RMK SF8 SLP381,CYUY,2019-01-12T14:00:00Z,48.2,-78.82,-23.0,-26.0,330,4,,15.0,30.540354,1038.1,,,,,,,,,,OVC,800,,,,,,,IFR,,,,,,,,,,,,SPECI,301.0
CYQI 121400Z 31019KT 1 1/4SM -SHSN DRSN OVC014 M09/M12 A3022 RMK SN2SC6 VIS VRB 3/4-13/4 CVCTV CLD EMBD SLP237,CYQI,2019-01-12T14:00:00Z,43.83,-66.08,-9.0,-12.0,310,19,,1.25,30.221457,1023.7,,,,,,,,,-SHSN DRSN,OVC,1400,,,,,,,IFR,,,,,,,,,,,,SPECI,43.0
CYPX 121400Z AUTO 34013KT 9SM CLR M25/M28 A3041 RMK SLP303,CYPX,2019-01-12T14:00:00Z,60.03,-77.27,-25.0,-28.0,340,13,,9.0,30.410433,1030.3,,TRUE,,,,,,,,CLR,,,,,,,,VFR,,,,,,,,,,,,SPECI,23.0
RJFF 121400Z AUTO 16004KT 9999 -RA BKN025 OVC050 10/07 Q1019 NOSIG RMK A3009,RJFF,2019-01-12T14:00:00Z,33.57,130.43,10.0,7.0,160,4,,6.21,30.088583,,,TRUE,,,TRUE,,,,-RA,BKN,2500,OVC,5000,,,,,MVFR,,,,,,,,,,,,METAR,12.0
SCRM 121400Z 12012KT 8000 -SN FEW002 SCT010 BKN030 01/00 Q0983 NOSIG,SCRM,2019-01-12T14:00:00Z,-62.18,-58.98,1.0,0.0,120,12,,4.97,29.02559,,,,,,TRUE,,,,-SN,FEW,200,SCT,1000,BKN,3000,,,MVFR,,,,,,,,,,,,METAR,45.0
SCIC 121400Z VRB03KT CAVOK 21/09 Q1017,SCIC,2019-01-12T14:00:00Z,-34.97,-71.22,21.0,9.0,0,3,,6.21,30.029528,,,,,,,,,,,CAVOK,,,,,,,,VFR,,,,,,,,,,,,METAR,242.0
KFQD 121400Z AUTO 00000KT 10SM OVC120 02/M05 A3044 RMK AO2,KFQD,2019-01-12T14:00:00Z,35.42,-81.93,2.0,-5.0,0,0,,10.0,30.43996,,,TRUE,TRUE,,,,,,,OVC,12000,,,,,,,VFR,,,,,,,,,,,,METAR,329.0
KFFA 121400Z AUTO 00000KT 10SM CLR 05/M04 A3048 RMK AO2 T00451040,KFFA,2019-01-12T14:00:00Z,36.02,-75.67,4.5,-4.0,0,0,,10.0,30.481298,,,TRUE,TRUE,,,,,,,CLR,,,,,,,,VFR,,,,,,,,,,,,METAR,4.0
KEDE 121400Z AUTO 02003KT 10SM CLR 02/M02 A3053 RMK AO2 T00221022,KEDE,2019-01-12T14:00:00Z,36.02,-76.57,2.2,-2.2,20,3,,10.0,30.528543,,,TRUE,TRUE,,,,,,,CLR,,,,,,,,VFR,,,,,,,,,,,,METAR,6.0
KDPL 121400Z AUTO 06004KT 10SM OVC120 02/M03 A3049 RMK AO2,KDPL,2019-01-12T14:00:00Z,35.0,-77.97,2.0,-3.0,60,4,,10.0,30.490158,,,TRUE,TRUE,,,,,,,OVC,12000,,,,,,,VFR,,,,,,,,,,,,METAR,42.0
K7W6 121400Z AUTO 01005KT 10SM CLR 03/M02 A3049 RMK AO2 T00261020,K7W6,2019-01-12T14:00:00Z,35.55,-75.95,2.6,-2.0,10,5,,10.0,30.490158,,,TRUE,TRUE,,,,,,,CLR,,,,,,,,VFR,,,,,,,,,,,,METAR,2.0
K1A5 121400Z AUTO 00000KT 10SM OVC100 03/M03 A3036 RMK AO2 T00321030,K1A5,2019-01-12T14:00:00Z,35.22,-83.42,3.2,-3.0,0,0,,10.0,30.360237,,,TRUE,TRUE,,,,,,,OVC,10000,,,,,,,VFR,,,,,,,,,,,,METAR,616.0
KVUJ 121400Z AUTO 06004KT 10SM OVC110 03/M06 A3050 RMK AO2 T00251065,KVUJ,2019-01-12T14:00:00Z,35.42,-80.15,2.5,-6.5,60,4,,10.0,30.499016,,,TRUE,TRUE,,,,,,,OVC,11000,,,,,,,VFR,,,,,,,,,,,,METAR,186.0
RJNK 121400Z 13004KT 9999 FEW030 BKN050 01/M00 Q1019,RJNK,2019-01-12T14:00:00Z,36.37,136.42,1.0,0.0,130,4,,6.21,30.088583,,,,,,,,,,,FEW,3000,BKN,5000,,,,,VFR,,,,,,,,,,,,METAR,9.0
RJCC 121400Z 31008KT 9999 FEW015 SCT030 M08/M11 Q1021 RMK 1ST015 3CU030 A3017,RJCC,2019-01-12T14:00:00Z,42.77,141.67,-8.0,-11.0,310,8,,6.21,30.147638,,,,,,,,,,,FEW,1500,SCT,3000,,,,,VFR,,,,,,,,,,,,METAR,30.0
CYPO 121400Z AUTO 24003KT 9SM OVC130 M29/M33 A3064 RMK SLP388,CYPO,2019-01-12T14:00:00Z,54.98,-85.43,-29.0,-33.0,240,3,,9.0,30.640747,1038.8,,TRUE,,,,,,,,OVC,13000,,,,,,,VFR,,,,,,,,,,,,METAR,53.0
CYPL 121400Z 14004KT 15SM FEW100 FEW240 M27/M31 A3055 RMK AC1CI1 SLP399,CYPL,2019-01-12T14:00:00Z,51.47,-90.2,-27.0,-31.0,140,4,,15.0,30.549213,1039.9,,,,,,,,,,FEW,10000,FEW,24000,,,,,VFR,,,,,,,,,,,,SPECI,373.0
CYOO 121400Z AUTO 01005KT 9SM BKN090 M09/M15 A3056 RMK SLP361,CYOO,2019-01-12T14:00:00Z,43.92,-78.9,-9.0,-15.0,10,5,,9.0,30.561024,1036.1,,TRUE,,,,,,,,BKN,9000,,,,,,,VFR,,,,,,,,,,,,METAR,139.0
CYLH 121400Z AUTO 21003KT 200V340 9SM OVC140 M33/M36 A3063 RMK SLP415,CYLH,2019-01-12T14:00:00Z,52.2,-87.93,-33.0,-36.0,210,3,,9.0,30.628937,1041.5,,TRUE,,,,,,,,OVC,14000,,,,,,,VFR,,,,,,,,,,,,METAR,254.0
CYLD 121400Z 00000KT 15SM SKC M32/M35 A3052 RMK SLP399,CYLD,2019-01-12T14:00:00Z,47.82,-83.33,-32.0,-35.0,0,0,,15.0,30.519686,1039.9,,,,,,,,,,SKC,,,,,,,,VFR,,,,,,,,,,,,SPECI,447.0
CYKP 121400Z AUTO 29005KT 9SM CLR M30/M32 A3066 RMK ICG SLP420,CYKP,2019-01-12T14:00:00Z,51.67,-85.9,-30.0,-32.0,290,5,,9.0,30.661417,1042.0,,TRUE,,,,,,,,CLR,,,,,,,,VFR,,,,,,,,,,,,METAR,179.0
CYKL 121400Z AUTO 34014G19KT 9SM -SN FEW190 M17/M19 A2990 RMK SLP174,CYKL,2019-01-12T14:00:00Z,54.78,-66.82,-17.0,-19.0,340,14,19,9.0,29.899607,1017.4,,TRUE,,,,,,,-SN,FEW,19000,,,,,,,VFR,,,,,,,,,,,,SPECI,521.0
CYKF 121400Z AUTO 06006KT 9SM OVC060 M07/M12 A3048 RMK SLP344,CYKF,2019-01-12T14:00:00Z,43.47,-80.38,-7.0,-12.0,60,6,,9.0,30.481298,1034.4,,TRUE,,,,,,,,OVC,6000,,,,,,,VFR,,,,,,,,,,,,SPECI,317.0
CYHM 121400Z 03006KT 15SM OVC020 M06/M10 A3050 RMK SC8 SLP345,CYHM,2019-01-12T14:00:00Z,43.17,-79.93,-6.0,-10.0,30,6,,15.0,30.499016,1034.5,,,,,,,,,,OVC,2000,,,,,,,MVFR,,,,,,,,,,,,SPECI,238.0
CYMT 121400Z AUTO 28005KT 9SM -SN OVC014 M24/M28 A3032 RMK SLP320,CYMT,2019-01-12T14:00:00Z,49.77,-74.52,-24.0,-28.0,280,5,,9.0,30.318897,1032.0,,TRUE,,,,,,,-SN,OVC,1400,,,,,,,MVFR,,,,,,,,,,,,SPECI,387.0
CYKG 121400Z 35025G31KT 12SM DRSN VCBLSN FEW055 SCT096 BKN240 M22/M26 A3021 RMK SC1AS2CI3 SLP254,CYKG,2019-01-12T14:00:00Z,61.57,-71.92,-22.0,-26.0,350,25,31,12.0,30.209646,1025.4,,,,,,,,,DRSN VCBLSN,FEW,5500,SCT,9600,BKN,24000,,,VFR,,,,,,,,,,,,SPECI,151.0
CYMU 121400Z 15008KT 14SM -SN SCT009 BKN014 BKN022 BKN042 M15/M17 A3032 RMK ST4SC1SC1SC1 SLP277,CYMU,2019-01-12T14:00:00Z,56.52,-76.52,-15.0,-17.0,150,8,,14.0,30.318897,1027.7,,,,,,,,,-SN,SCT,900,BKN,1400,BKN,2200,BKN,4200,MVFR,,,,,,,,,,,,SPECI,71.0
CYNM 121400Z AUTO 29008KT 6SM -SN FEW009 OVC013 M21/M23 A3049 RMK SLP361,CYNM,2019-01-12T14:00:00Z,49.77,-77.82,-21.0,-23.0,290,8,,6.0,30.490158,1036.1,,TRUE,,,,,,,-SN,FEW,900,OVC,1300,,,,,MVFR,,,,,,,,,,,,SPECI,281.0
SCIR 121400Z 01005KT 9999 FEW020 SCT030 19/16 Q1020,SCIR,2019-01-12T14:00:00Z,-33.67,-78.93,19.0,16.0,10,5,,6.21,30.11811,,,,,,,,,,,FEW,2000,SCT,3000,,,,,VFR,,,,,,,,,,,,METAR,29.0
SCCY 21400Z 23008G18KT 200V330 9999 SCT033 11/M01 Q1014,SCCY,2019-01-12T14:00:00Z,-45.57,-72.1,11.0,-1.0,223,8,18,6.21,29.940945,,,,,,,,,,,SCT,3300,,,,,,,VFR,,,,,,,,,,,,METAR,311.0
SEQM 121400Z 23004KT 9999 FEW020 SCT300 15/11 Q1028 NOSIG RMK A3036,SEQM,2019-01-12T14:00:00Z,-0.12,-78.35,15.0,11.0,230,4,,6.21,30.35433,,,,,,TRUE,,,,,FEW,2000,SCT,30000,,,,,VFR,,,,,,,,,,,,METAR,2400.0
SETN 121400Z 20007KT 9999 FEW016 BKN100 25/24 Q1013 A2994,SETN,2019-01-12T14:00:00Z,0.98,-79.63,25.0,24.0,200,7,,6.21,29.911417,,,,,,,,,,,FEW,1600,BKN,10000,,,,,VFR,,,,,,,,,,,,METAR,10.0
SEGU 121400Z 09002KT 9999 FEW023 SCT033 BKN100 27/22 Q1013 NOSIG RMK A2993,SEGU,2019-01-12T14:00:00Z,-2.13,-79.87,27.0,22.0,90,2,,6.21,29.911417,,,,,,TRUE,,,,,FEW,2300,SCT,3300,BKN,10000,,,VFR,,,,,,,,,,,,METAR,9.0
SEMT 121400Z 21006KT 9999 FEW020 BKN023 26/23 Q1014,SEMT,2019-01-12T14:00:00Z,-0.95,-80.67,26.0,23.0,210,6,,6.21,29.940945,,,,,,,,,,,FEW,2000,BKN,2300,,,,,MVFR,,,,,,,,,,,,METAR,14.0
SEJD 121400Z 11006KT 9999 SCT013 SCT033 BKN100 22/22 Q1016 RMK A2991,SEJD,2019-01-12T14:00:00Z,-1.07,-77.58,22.0,22.0,110,6,,6.21,30.0,,,,,,,,,,,SCT,1300,SCT,3300,BKN,10000,,,VFR,,,,,,,,,,,,METAR,375.0
SECA 121400Z 32002KT 9999 SCT020 21/19 Q1020,SECA,2019-01-12T14:00:00Z,-4.0,-79.37,21.0,19.0,320,2,,6.21,30.11811,,,,,,,,,,,SCT,2000,,,,,,,VFR,,,,,,,,,,,,METAR,1121.0
SECU 121400Z 06004KT 9999 SCT040 15/11 Q1027,SECU,2019-01-12T14:00:00Z,-2.87,-78.97,15.0,11.0,60,4,,6.21,30.324802,,,,,,,,,,,SCT,4000,,,,,,,VFR,,,,,,,,,,,,METAR,2531.0
SERO 121400Z 34001KT 9999 FEW013 SCT080 27/22 Q1013,SERO,2019-01-12T14:00:00Z,-3.43,-79.98,27.0,22.0,340,1,,6.21,29.911417,,,,,,,,,,,FEW,1300,SCT,8000,,,,,VFR,,,,,,,,,,,,METAR,51.0
SESA 121400Z 22006KT CAVOK 27/24 Q1014,SESA,2019-01-12T14:00:00Z,-2.2,-80.97,27.0,24.0,220,6,,6.21,29.940945,,,,,,,,,,,CAVOK,,,,,,,,VFR,,,,,,,,,,,,METAR,8.0
SENL 121400Z 22002KT 9999 VCSH SCT016 OVC100 25/23 Q1014 RMK A2996,SENL,2019-01-12T14:00:00Z,0.1,-76.87,25.0,23.0,220,2,,6.21,29.940945,,,,,,,,,,VCSH,SCT,1600,OVC,10000,,,,,VFR,,,,,,,,,,,,METAR,293.0
SEGS 121400Z 17004KT 9999 FEW020 SCT070 27/20 Q1013 A2994,SEGS,2019-01-12T14:00:00Z,-0.45,-90.27,27.0,20.0,170,4,,6.21,29.911417,,,,,,,,,,,FEW,2000,SCT,7000,,,,,VFR,,,,,,,,,,,,METAR,16.0
SEMC 121400Z 11003KT 6000 BCFG SCT012 SCT100 19/19 Q1019 RMK A3010,SEMC,2019-01-12T14:00:00Z,-2.3,-78.12,19.0,19.0,110,3,,3.73,30.088583,,,,,,,,,,BCFG,SCT,1200,SCT,10000,,,,,MVFR,,,,,,,,,,,,METAR,1052.0
SESM 121400Z 34004KT 320V030 9999 SCT030 BKN120 22/17 Q1018 RMK A3007,SESM,2019-01-12T14:00:00Z,-1.5,-78.07,22.0,17.0,340,4,,6.21,30.059055,,,,,,,,,,,SCT,3000,BKN,12000,,,,,VFR,,,,,,,,,,,,METAR,1056.0
SEST 121400Z 18007KT 9999 FEW020 SCT040 26/23 Q1011 RMK A2987,SEST,2019-01-12T14:00:00Z,-0.9,-89.58,26.0,23.0,180,7,,6.21,29.852362,,,,,,,,,,,FEW,2000,SCT,4000,,,,,VFR,,,,,,,,,,,,METAR,6.0
LFLU 121400Z AUTO 01018KT 9999 SCT018 OVC052 07/02 Q1025,LFLU,2019-01-12T14:00:00Z,44.92,4.98,7.0,2.0,10,18,,6.21,30.265747,,,TRUE,,,,,,,,SCT,1800,OVC,5200,,,,,VFR,,,,,,,,,,,,METAR,160.0
LFLP 121400Z AUTO 00000KT 9999 OVC042 03/M03 Q1026 NOSIG,LFLP,2019-01-12T14:00:00Z,45.92,6.08,3.0,-3.0,0,0,,6.21,30.295275,,,TRUE,,,TRUE,,,,,OVC,4200,,,,,,,VFR,,,,,,,,,,,,METAR,463.0
LFCK 121400Z AUTO 30011KT 9999 OVC010 05/04 Q1031 BECMG OVC016,LFCK,2019-01-12T14:00:00Z,43.55,2.28,5.0,4.0,300,11,,6.21,30.442913,,,TRUE,,,,,,,,OVC,1000,,,,,,,MVFR,,,,,,,,,,,,METAR,240.0
LJCE 121400Z VRB01KT CAVOK 05/M03 Q1016 RMK BLU,LJCE,2019-01-12T14:00:00Z,45.9,15.52,5.0,-3.0,0,1,,6.21,30.0,,,,,,,,,,,CAVOK,,,,,,,,VFR,,,,,,,,,,,,METAR,155.0
LFPV 121400Z AUTO 25010KT 230V290 9999 BKN014 OVC022 08/06 Q1024 TEMPO 4500 RADZ BKN005,LFPV,2019-01-12T14:00:00Z,48.77,2.2,8.0,6.0,250,10,,6.21,30.236221,,,TRUE,,,,,,,,BKN,1400,OVC,2200,,,,,MVFR,,,,,,,,,,,,METAR,179.0
LFOA 121400Z AUTO 26009KT 8000 BKN009 OVC042 07/06 Q1027,LFOA,2019-01-12T14:00:00Z,47.03,2.63,7.0,6.0,260,9,,4.97,30.324802,,,TRUE,,,,,,,,BKN,900,OVC,4200,,,,,IFR,,,,,,,,,,,,METAR,179.0
LFSB 121400Z 27007KT 9999 FEW014 BKN046 05/02 Q1025 NOSIG,LFSB,2019-01-12T14:00:00Z,47.6,7.52,5.0,2.0,270,7,,6.21,30.265747,,,,,,TRUE,,,,,FEW,1400,BKN,4600,,,,,VFR,,,,,,,,,,,,METAR,271.0
LFRN 121400Z AUTO 26009KT 9999 BKN014 OVC024 10/08 Q1028 TEMPO 3000 RADZ BKN006,LFRN,2019-01-12T14:00:00Z,48.07,-1.72,10.0,8.0,260,9,,6.21,30.35433,,,TRUE,,,,,,,,BKN,1400,OVC,2400,,,,,MVFR,,,,,,,,,,,,METAR,37.0
LFRD 121400Z AUTO 28011KT 5000 -RADZ BR OVC007 10/09 Q1028 TEMPO 29015G25KT 2500 RADZ,LFRD,2019-01-12T14:00:00Z,48.58,-2.07,10.0,9.0,280,11,,3.11,30.35433,,,TRUE,,,,,,,-RA -DZ BR,OVC,700,,,,,,,IFR,,,,,,,,,,,,METAR,59.0
LFPB 121400Z AUTO 24010KT 220V280 9999 OVC013 09/06 Q1024 TEMPO 4000 -RADZ,LFPB,2019-01-12T14:00:00Z,48.97,2.45,9.0,6.0,240,10,,6.21,30.236221,,,TRUE,,,,,,,,OVC,1300,,,,,,,MVFR,,,,,,,,,,,,METAR,65.0
LFOK 121400Z AUTO 23015KT 9999 BKN012 BKN018 OVC024 06/05 Q1023 TEMPO 1200 DZRA OVC003,LFOK,2019-01-12T14:00:00Z,48.78,4.18,6.0,5.0,230,15,,6.21,30.206694,,,TRUE,,,,,,,,BKN,1200,BKN,1800,OVC,2400,,,MVFR,,,,,,,,,,,,METAR,162.0
LFOB 121400Z AUTO 26012KT 9999 OVC009 08/07 Q1022 TEMPO 2000 RADZ OVC003,LFOB,2019-01-12T14:00:00Z,49.47,2.12,8.0,7.0,260,12,,6.21,30.177166,,,TRUE,,,,,,,,OVC,900,,,,,,,IFR,,,,,,,,,,,,METAR,111.0
LFMU 121400Z AUTO 33019KT CAVOK 12/M00 Q1025 TEMPO 32020G30KT,LFMU,2019-01-12T14:00:00Z,43.32,3.35,12.0,0.0,330,19,,6.21,30.265747,,,TRUE,,,,,,,,CAVOK,,,,,,,,VFR,,,,,,,,,,,,METAR,17.0
LFMT 121400Z AUTO 35013KT 330V040 CAVOK 14/M00 Q1023 NOSIG,LFMT,2019-01-12T14:00:00Z,43.57,3.97,14.0,0.0,350,13,,6.21,30.206694,,,TRUE,,,TRUE,,,,,CAVOK,,,,,,,,VFR,,,,,,,,,,,,METAR,6.0
LFMK 121400Z AUTO 28015KT 9999 BKN017 OVC054 08/04 Q1029 TEMPO 27020G30KT BECMG OVC009,LFMK,2019-01-12T14:00:00Z,43.22,2.32,8.0,4.0,280,15,,6.21,30.383858,,,TRUE,,,,,,,,BKN,1700,OVC,5400,,,,,MVFR,,,,,,,,,,,,METAR,130.0
LFLY 121400Z AUTO 36004KT 330V030 9999 FEW013 OVC047 06/03 Q1027 BECMG BKN013 OVC046,LFLY,2019-01-12T14:00:00Z,45.72,4.95,6.0,3.0,360,4,,6.21,30.324802,,,TRUE,,,,,,,,FEW,1300,OVC,4700,,,,,VFR,,,,,,,,,,,,METAR,201.0
MNBL 121400Z 35004KT 9999 SCT022 23/21 Q1016,MNBL,2019-01-12T14:00:00Z,12.0,-83.77,23.0,21.0,350,4,,6.21,30.0,,,,,,,,,,,SCT,2200,,,,,,,VFR,,,,,,,,,,,,METAR,5.0
MNJU 121400Z 08006KT 9999 SCT020 SCT080 26/22 Q1015,MNJU,2019-01-12T14:00:00Z,12.08,-85.37,26.0,22.0,80,6,,6.21,29.970472,,,,,,,,,,,SCT,2000,SCT,8000,,,,,VFR,,,,,,,,,,,,METAR,90.0
MNJG 121400Z 36004KT 3000 BR BKN016 16/16 Q1017,MNJG,2019-01-12T14:00:00Z,13.08,-86.02,16.0,16.0,360,4,,1.86,30.029528,,,,,,,,,,BR,BKN,1600,,,,,,,IFR,,,,,,,,,,,,METAR,985.0
MNRS 121400Z 02006KT CAVOK 26/20 Q1015,MNRS,2019-01-12T14:00:00Z,11.42,-85.82,26.0,20.0,20,6,,6.21,29.970472,,,,,,,,,,,CAVOK,,,,,,,,VFR,,,,,,,,,,,,METAR,53.0
MNPC 121400Z 33004KT 6000 VCRA BKN016TCU SCT100 22/21 Q1015 TCURA SW W NW,MNPC,2019-01-12T14:00:00Z,14.05,-83.38,22.0,21.0,330,4,,3.73,29.970472,,,,,,,,,,VCRA RA,BKN,1600,SCT,10000,,,,,MVFR,,,,,,,,,,,,METAR,16.0
LFRU 121400Z AUTO 29012KT 4800 -DZ BR OVC005 10/10 Q1029,LFRU,2019-01-12T14:00:00Z,48.6,-3.82,10.0,10.0,290,12,,2.98,30.383858,,,TRUE,,,,,,,-DZ BR,OVC,500,,,,,,,IFR,,,,,,,,,,,,METAR,86.0
LFRK 121400Z AUTO 27016KT 9999 OVC012 10/08 Q1025 TEMPO 3000 RADZ BKN006,LFRK,2019-01-12T14:00:00Z,49.17,-0.45,10.0,8.0,270,16,,6.21,30.265747,,,TRUE,,,,,,,,OVC,1200,,,,,,,MVFR,,,,,,,,,,,,METAR,67.0
LFRC 121400Z AUTO 28019KT 9999 BKN009 OVC025 10/08 Q1025 TEMPO 2500 RADZ BECMG 29015G25KT,LFRC,2019-01-12T14:00:00Z,49.63,-1.47,10.0,8.0,280,19,,6.21,30.265747,,,TRUE,,,,,,,,BKN,900,OVC,2500,,,,,IFR,,,,,,,,,,,,METAR,138.0
LFSN 121400Z AUTO 23009KT 200V260 9999 FEW019 OVC030 05/02 Q1022,LFSN,2019-01-12T14:00:00Z,48.67,6.22,5.0,2.0,230,9,,6.21,30.177166,,,TRUE,,,,,,,,FEW,1900,OVC,3000,,,,,MVFR,,,,,,,,,,,,METAR,217.0
LFQB 121400Z AUTO 24014KT 9999 ////// 07/04 Q1024,LFQB,2019-01-12T14:00:00Z,48.32,4.02,7.0,4.0,240,14,,6.21,30.236221,,,TRUE,,,,,,,,,,,,,,,,,,,,,,,,,,,,METAR,118.0
LFQA 121400Z AUTO 26010KT 9999 OVC013/// ///TCU 07/05 Q1022,LFQA,2019-01-12T14:00:00Z,49.2,4.15,7.0,5.0,260,10,,6.21,30.177166,,,TRUE,,,,,,,,OVC,1300,,,,,,,MVFR,,,,,,,,,,,,METAR,95.0
LFOP 121400Z AUTO 28011KT 9999 3200 OVC007 08/07 Q1023 TEMPO 2000 RADZ OVC003,LFOP,2019-01-12T14:00:00Z,49.37,1.17,8.0,7.0,280,11,,6.21,30.206694,,,TRUE,,,,,,,,OVC,700,,,,,,,IFR,,,,,,,,,,,,METAR,157.0
LFOH 121400Z AUTO 26016KT 9999 OVC003 09/08 Q1024 TEMPO 2000 RA,LFOH,2019-01-12T14:00:00Z,49.52,0.07,9.0,8.0,260,16,,6.21,30.236221,,,TRUE,,,,,,,,OVC,300,,,,,,,LIFR,,,,,,,,,,,,METAR,103.0
LFLX 121400Z AUTO 23012KT 5000 BR FEW005 OVC042 07/06 Q1028 NOSIG,LFLX,2019-01-12T14:00:00Z,46.85,1.72,7.0,6.0,230,12,,3.11,30.35433,,,TRUE,,,TRUE,,,,BR,FEW,500,OVC,4200,,,,,MVFR,,,,,,,,,,,,METAR,157.0
LFGJ 121400Z AUTO 19006KT 6000 BKN007 OVC035 05/03 Q1027 TEMPO 3000 -DZRA BKN003,LFGJ,2019-01-12T14:00:00Z,47.05,5.43,5.0,3.0,190,6,,3.73,30.324802,,,TRUE,,,,,,,,BKN,700,OVC,3500,,,,,IFR,,,,,,,,,,,,METAR,196.0
LFBE 121400Z AUTO 24003KT 9999 OVC009 07/05 Q1031 BECMG BKN015,LFBE,2019-01-12T14:00:00Z,44.82,0.52,7.0,5.0,240,3,,6.21,30.442913,,,TRUE,,,,,,,,OVC,900,,,,,,,IFR,,,,,,,,,,,,METAR,52.0
LFMD 121400Z AUTO VRB02KT CAVOK 14/M02 Q1018 NOSIG,LFMD,2019-01-12T14:00:00Z,43.53,6.95,14.0,-2.0,0,2,,6.21,30.059055,,,TRUE,,,TRUE,,,,,CAVOK,,,,,,,,VFR,,,,,,,,,,,,METAR,9.0
CYVQ 121400Z 31003KT 30SM FEW100 M36/M40 A3018 RMK AC1 AC TR SLP235,CYVQ,2019-01-12T14:00:00Z,65.27,-126.78,-36.0,-40.0,310,3,,30.0,30.180119,1023.5,,,,,,,,,,FEW,10000,,,,,,,VFR,,,,,,,,,,,,SPECI,74.0
CYVO 121400Z 29004KT 5SM -SN OVC007 M23/M24 A3049 RMK SC8 SLP370,CYVO,2019-01-12T14:00:00Z,48.07,-77.77,-23.0,-24.0,290,4,,5.0,30.490158,1037.0,,,,,,,,,-SN,OVC,700,,,,,,,IFR,,,,,,,,,,,,SPECI,337.0
CYSP 121400Z 05005KT 030V100 15SM FEW030 M22/M25 A3058 RMK SC1 TR SC SW SLP393,CYSP,2019-01-12T14:00:00Z,48.75,-86.35,-22.0,-25.0,50,5,,15.0,30.578741,1039.3,,,,,,,,,,FEW,3000,,,,,,,VFR,,,,,,,,,,,,METAR,315.0
CYSN 121400Z 11008KT 15SM OVC065 M05/M10 A3054 RMK SC8 SLP349,CYSN,2019-01-12T14:00:00Z,43.2,-79.17,-5.0,-10.0,110,8,,15.0,30.540354,1034.9,,,,,,,,,,OVC,6500,,,,,,,VFR,,,,,,,,,,,,SPECI,98.0
CYSC 121400Z AUTO 25007KT 9SM FEW240 M19/M23 A3042 RMK SLP328,CYSC,2019-01-12T14:00:00Z,45.43,-71.68,-19.0,-23.0,250,7,,9.0,30.41929,1032.8,,TRUE,,,,,,,,FEW,24000,,,,,,,VFR,,,,,,,,,,,,SPECI,241.0
CYSB 121400Z 34003KT 20SM SKC M22/M24 A3053 RMK SLP379,CYSB,2019-01-12T14:00:00Z,46.63,-80.8,-22.0,-24.0,340,3,,20.0,30.528543,1037.9,,,,,,,,,,SKC,,,,,,,,VFR,,,,,,,,,,,,SPECI,348.0
CYRQ 121400Z AUTO 22006KT 9SM CLR M20/M24 A3047 RMK SLP326,CYRQ,2019-01-12T14:00:00Z,46.35,-72.68,-20.0,-24.0,220,6,,9.0,30.469488,1032.6,,TRUE,,,,,,,,CLR,,,,,,,,VFR,,,,,,,,,,,,METAR,61.0
CYRB 121400Z 01004KT 15SM IC SKC M35/M39 A3035 RMK SLP294,CYRB,2019-01-12T14:00:00Z,74.72,-94.97,-35.0,-39.0,10,4,,15.0,30.351377,1029.4,,,,,,,,,IC,SKC,,,,,,,,VFR,,,,,,,,,,,,SPECI,67.0
CYQK 121400Z 11004KT 20SM -SN SCT003 OVC020 M10/M12 A3046 RMK SF3SC5 SLP349,CYQK,2019-01-12T14:00:00Z,49.77,-94.37,-10.0,-12.0,110,4,,20.0,30.46063,1034.9,,,,,,,,,-SN,SCT,300,OVC,2000,,,,,MVFR,,,,,,,,,,,,SPECI,411.0
CYQA 121400Z AUTO 00000KT 9SM CLR M19/M21 A3053 RMK ICG SLP367,CYQA,2019-01-12T14:00:00Z,44.97,-79.28,-19.0,-21.0,0,0,,9.0,30.528543,1036.7,,TRUE,,,,,,,,CLR,,,,,,,,VFR,,,,,,,,,,,,SPECI,282.0
CYXU 121400Z 06007KT 15SM FEW025 FEW032 OVC064 M06/M12 A3048 RMK SC1SC1SC7 SC TR SLP341,CYXU,2019-01-12T14:00:00Z,43.02,-81.15,-6.0,-12.0,60,7,,15.0,30.481298,1034.1,,,,,,,,,,FEW,2500,FEW,3200,OVC,6400,,,VFR,,,,,,,,,,,,SPECI,278.0
CYXL 121400Z 11003KT 090V170 15SM SKC M21/M23 A3053 RMK FROIN SLP381,CYXL,2019-01-12T14:00:00Z,50.12,-91.9,-21.0,-23.0,110,3,,15.0,30.528543,1038.1,,,,,,,,,,SKC,,,,,,,,VFR,,,,,,,,,,,,SPECI,390.0
CYQL 121400Z 25015KT 15SM SCT250 02/M08 A2998 RMK CI4 SLP183,CYQL,2019-01-12T14:00:00Z,49.63,-112.8,2.0,-8.0,250,15,,15.0,29.97933,1018.3,,,,,,,,,,SCT,25000,,,,,,,VFR,,,,,,,,,,,,SPECI,929.0
KHRJ 121400Z AUTO 06005KT 10SM BKN110 02/M04 A3048 RMK AO2 T00231042,KHRJ,2019-01-12T14:00:00Z,35.38,-78.73,2.3,-4.2,60,5,,10.0,30.481298,,,TRUE,TRUE,,,,,,,BKN,11000,,,,,,,VFR,,,,,,,,,,,,METAR,60.0
RKTU 121400Z 23003KT 9000 NSC M02/M07 Q1024,RKTU,2019-01-12T14:00:00Z,36.7,127.5,-2.0,-7.0,230,3,,5.59,30.236221,,,,,,,,,,,CLR,,,,,,,,VFR,,,,,,,,,,,,METAR,66.0
RKPK 121400Z 33010KT 9000 BKN050 06/01 Q1022,RKPK,2019-01-12T14:00:00Z,35.17,128.92,6.0,1.0,330,10,,5.59,30.177166,,,,,,,,,,,BKN,5000,,,,,,,VFR,,,,,,,,,,,,METAR,15.0
RKPC 121400Z 36005KT 320V050 9999 FEW040 08/02 Q1024 NOSIG,RKPC,2019-01-12T14:00:00Z,33.5,126.48,8.0,2.0,360,5,,6.21,30.236221,,,,,,TRUE,,,,,FEW,4000,,,,,,,VFR,,,,,,,,,,,,METAR,27.0
MWCR 121400Z 10009KT 9999 FEW018 BKN035 25/23 Q1018,MWCR,2019-01-12T14:00:00Z,19.3,-81.37,25.0,23.0,100,9,,6.21,30.059055,,,,,,,,,,,FEW,1800,BKN,3500,,,,,VFR,,,,,,,,,,,,METAR,3.0
LFOT 121400Z AUTO 23011KT 9999 OVC033 08/06 Q1028 TEMPO 2000 -RADZ BKN003,LFOT,2019-01-12T14:00:00Z,47.43,0.72,8.0,6.0,230,11,,6.21,30.35433,,,TRUE,,,,,,,,OVC,3300,,,,,,,VFR,,,,,,,,,,,,METAR,108.0
LFRG 121400Z AUTO 27015KT 9999 OVC003 08/08 Q1025 TEMPO 29015G25KT 2500 RADZ,LFRG,2019-01-12T14:00:00Z,49.37,0.15,8.0,8.0,270,15,,6.21,30.265747,,,TRUE,,,,,,,,OVC,300,,,,,,,LIFR,,,,,,,,,,,,METAR,146.0
RKTN 121400Z 16002KT 6000 NSC 00/00 Q1023,RKTN,2019-01-12T14:00:00Z,35.88,128.65,0.0,0.0,160,2,,3.73,30.206694,,,,,,,,,,,CLR,,,,,,,,MVFR,,,,,,,,,,,,METAR,35.0
LFST 121400Z AUTO 18010KT 9999 FEW021 BKN026 BKN034 04/03 Q1023 NOSIG,LFST,2019-01-12T14:00:00Z,48.53,7.62,4.0,3.0,180,10,,6.21,30.206694,,,TRUE,,,TRUE,,,,,FEW,2100,BKN,2600,BKN,3400,,,MVFR,,,,,,,,,,,,METAR,154.0
CXOX 121400Z AUTO 18005KT M11/M14 RMK AO1 SOG 47 7017 SLP194 T11111137,CXOX,2019-01-12T14:00:00Z,55.15,-105.27,-11.1,-13.7,180,5,,,,1019.4,,TRUE,TRUE,,,,,,,,,,,,,,,,,,,,,,,,,,,METAR,379.0
CXNM 121400Z AUTO 24011KT M14/M15 RMK AO1 SOG 217 PK WND 26018/1320 T11431153,CXNM,2019-01-12T14:00:00Z,46.82,-60.67,-14.3,-15.3,240,11,,,,,,TRUE,TRUE,,,,,,,,,,,,,,,,,,,,,,,,,,,METAR,439.0
CYOY 121400Z AUTO 29009G16KT 9SM M19/M26 A3033 RMK SLP289,CYOY,2019-01-12T14:00:00Z,46.88,-71.5,-19.0,-26.0,290,9,16,9.0,30.33071,1028.9,,TRUE,,,,,,,,,,,,,,,,,,,,,,,,,,,,SPECI,168.0
MWCB 121400Z 08007KT 9999 SCT016 27/23 Q1019,MWCB,2019-01-12T14:00:00Z,19.68,-79.88,27.0,23.0,80,7,,6.21,30.088583,,,,,,,,,,,SCT,1600,,,,,,,VFR,,,,,,,,,,,,METAR,2.0
CYIK 121400Z 06003KT 15SM FEW009 FEW030 M23/M25 A3045 RMK ST1SC1 SC TR SLP318,CYIK,2019-01-12T14:00:00Z,62.42,-77.93,-23.0,-25.0,60,3,,15.0,30.448818,1031.8,,,,,,,,,,FEW,900,FEW,3000,,,,,VFR,,,,,,,,,,,,SPECI,42.0
CYHA 121400Z 32019G26KT 10SM DRSN OVC013 M19/M22 A3024 RMK SC8 SLP246,CYHA,2019-01-12T14:00:00Z,61.03,-69.62,-19.0,-22.0,320,19,26,10.0,30.239174,1024.6,,,,,,,,,DRSN,OVC,1300,,,,,,,MVFR,,,,,,,,,,,,SPECI,30.0
SBSV 121400Z 14008KT 9999 SCT020 SCT070 30/23 Q1015,SBSV,2019-01-12T14:00:00Z,-12.9,-38.32,30.0,23.0,140,8,,6.21,29.970472,,,,,,,,,,,SCT,2000,SCT,7000,,,,,VFR,,,,,,,,,,,,METAR,6.0
CXMM 121400Z AUTO 11002KT M11/M13 RMK AO1 SOG 27 8002 SLP123 T11111128,CXMM,2019-01-12T14:00:00Z,56.65,-111.22,-11.1,-12.8,110,2,,,,1012.3,,TRUE,TRUE,,,,,,,,,,,,,,,,,,,,,,,,,,,METAR,369.0
LFTH 121400Z AUTO 28006KT CAVOK 13/00 Q1019 NOSIG,LFTH,2019-01-12T14:00:00Z,43.1,6.15,13.0,0.0,280,6,,6.21,30.088583,,,TRUE,,,TRUE,,,,,CAVOK,,,,,,,,VFR,,,,,,,,,,,,METAR,4.0
CYYY 121400Z 27018G24KT 3SM -SN DRSN OVC020 M15/M18 A3013 RMK SC8 SLP208,CYYY,2019-01-12T14:00:00Z,48.6,-68.22,-15.0,-18.0,270,18,24,3.0,30.129921,1020.8,,,,,,,,,-SN DRSN,OVC,2000,,,,,,,MVFR,,,,,,,,,,,,SPECI,52.0
SCCH 121400Z 27005KT 9999 BKN120 17/09 Q1018,SCCH,2019-01-12T14:00:00Z,-36.57,-72.02,17.0,9.0,270,5,,6.21,30.059055,,,,,,,,,,,BKN,12000,,,,,,,VFR,,,,,,,,,,,,METAR,148.0
SCTN 121400Z 09003KT 9999 OVC020 11/09 Q1018,SCTN,2019-01-12T14:00:00Z,-42.92,-72.7,11.0,9.0,90,3,,6.21,30.059055,,,,,,,,,,,OVC,2000,,,,,,,MVFR,,,,,,,,,,,,METAR,4.0
SMJP 121400Z 06006KT 010V100 9999 SCT020 28/24 Q1015 NOSIG,SMJP,2019-01-12T14:00:00Z,5.45,-55.17,28.0,24.0,60,6,,6.21,29.970472,,,,,,TRUE,,,,,SCT,2000,,,,,,,VFR,,,,,,,,,,,,METAR,16.0
CYWA 121400Z AUTO 00000KT 9SM CLR M22/M25 A3059 RMK ICG PAST HR SLP374,CYWA,2019-01-12T14:00:00Z,45.95,-77.32,-22.0,-25.0,0,0,,9.0,30.590551,1037.4,,TRUE,,,,,,,,CLR,,,,,,,,VFR,,,,,,,,,,,,SPECI,130.0
LESU 121400Z VRB03KT CAVOK 12/M04 Q1023,LESU,2019-01-12T14:00:00Z,42.33,1.4,12.0,-4.0,0,3,,6.21,30.206694,,,,,,,,,,,CAVOK,,,,,,,,VFR,,,,,,,,,,,,METAR,800.0
KMRN 121400Z AUTO 00000KT 10SM OVC080 03/M05 A3046 RMK AO2 T00261049,KMRN,2019-01-12T14:00:00Z,35.82,-81.62,2.6,-4.9,0,0,,10.0,30.46063,,,TRUE,TRUE,,,,,,,OVC,8000,,,,,,,VFR,,,,,,,,,,,,METAR,387.0
SCPQ 121400Z 16009KT 130V190 9999 FEW007 SCT018 BKN023 11/11 Q1018,SCPQ,2019-01-12T14:00:00Z,-42.33,-73.72,11.0,11.0,160,9,,6.21,30.059055,,,,,,,,,,,FEW,700,SCT,1800,BKN,2300,,,MVFR,,,,,,,,,,,,METAR,5.0
SCIP 121400Z 00000KT 9999 FEW020 SCT110 22/18 Q1020 NOSIG,SCIP,2019-01-12T14:00:00Z,-27.17,-109.43,22.0,18.0,0,0,,6.21,30.11811,,,,,,TRUE,,,,,FEW,2000,SCT,11000,,,,,VFR,,,,,,,,,,,,METAR,69.0
LEHC 121400Z 25007KT 210V300 CAVOK 11/M00 Q1025,LEHC,2019-01-12T14:00:00Z,42.08,-0.32,11.0,0.0,250,7,,6.21,30.265747,,,,,,,,,,,CAVOK,,,,,,,,VFR,,,,,,,,,,,,METAR,539.0
LEBA 121400Z 09007KT CAVOK 12/M03 Q1027,LEBA,2019-01-12T14:00:00Z,37.85,-4.82,12.0,-3.0,90,7,,6.21,30.324802,,,,,,,,,,,CAVOK,,,,,,,,VFR,,,,,,,,,,,,METAR,92.0
LECV 121400Z VRB02KT CAVOK 08/M02 Q1027,LECV,2019-01-12T14:00:00Z,40.63,-3.72,8.0,-2.0,0,2,,6.21,30.324802,,,,,,,,,,,CAVOK,,,,,,,,VFR,,,,,,,,,,,,METAR,710.0
LETO 121400Z 04006KT 350V100 CAVOK 11/M02 Q1028 NOSIG,LETO,2019-01-12T14:00:00Z,40.47,-3.47,11.0,-2.0,40,6,,6.21,30.35433,,,,,,TRUE,,,,,CAVOK,,,,,,,,VFR,,,,,,,,,,,,METAR,608.0
LERT 121400Z 01009KT 330V050 CAVOK 14/05 Q1026 NOSIG,LERT,2019-01-12T14:00:00Z,36.63,-6.33,14.0,5.0,10,9,,6.21,30.295275,,,,,,TRUE,,,,,CAVOK,,,,,,,,VFR,,,,,,,,,,,,METAR,26.0
LERI 121400Z VRB02KT CAVOK 13/M03 Q1028 NOSIG,LERI,2019-01-12T14:00:00Z,37.95,-1.22,13.0,-3.0,0,2,,6.21,30.35433,,,,,,TRUE,,,,,CAVOK,,,,,,,,VFR,,,,,,,,,,,,METAR,75.0
LEGT 121400Z VRB02KT CAVOK 10/M02 Q1028,LEGT,2019-01-12T14:00:00Z,40.28,-3.72,10.0,-2.0,0,2,,6.21,30.35433,,,,,,,,,,,CAVOK,,,,,,,,VFR,,,,,,,,,,,,METAR,612.0
VOTR 121400Z 07008KT 4000 HZ FEW016 26/17 Q1013 NOSIG,VOTR,2019-01-12T14:00:00Z,10.77,78.72,26.0,17.0,70,8,,2.49,29.911417,,,,,,TRUE,,,,HZ,FEW,1600,,,,,,,IFR,,,,,,,,,,,,METAR,88.0
VOCI 121400Z 19003KT 5000 HZ NSC 27/21 Q1012 NOSIG,VOCI,2019-01-12T14:00:00Z,10.15,76.4,27.0,21.0,190,3,,3.11,29.88189,,,,,,TRUE,,,,HZ,CLR,,,,,,,,MVFR,,,,,,,,,,,,METAR,8.0
VABB 121400Z 31004KT 2500 HZ NSC 25/15 Q1013 NOSIG,VABB,2019-01-12T14:00:00Z,19.1,72.87,25.0,15.0,310,4,,1.55,29.911417,,,,,,TRUE,,,,HZ,CLR,,,,,,,,IFR,,,,,,,,,,,,METAR,8.0
HECA 121400Z 21007KT 4000 HZ SCT025 20/M06 Q1009 NOSIG,HECA,2019-01-12T14:00:00Z,30.12,31.38,20.0,-6.0,210,7,,2.49,29.793306,,,,,,TRUE,,,,HZ,SCT,2500,,,,,,,IFR,,,,,,,,,,,,METAR,74.0
OIMT 121400Z AUTO 25002KT //// // ////// 08/M09 Q1021,OIMT,2019-01-12T14:00:00Z,33.67,56.92,8.0,-9.0,250,2,,,30.147638,,,TRUE,,,,,,,,,,,,,,,,,,,,,,,,,,,,METAR,711.0
OEDR 121400Z 32009KT 9999 FEW040 BKN080 17/07 Q1018 NOSIG,OEDR,2019-01-12T14:00:00Z,26.27,50.17,17.0,7.0,320,9,,6.21,30.059055,,,,,,TRUE,,,,,FEW,4000,BKN,8000,,,,,VFR,,,,,,,,,,,,METAR,17.0
OEDF 121400Z 35006KT CAVOK 16/05 Q1019 NOSIG,OEDF,2019-01-12T14:00:00Z,26.47,49.8,16.0,5.0,350,6,,6.21,30.088583,,,,,,TRUE,,,,,CAVOK,,,,,,,,VFR,,,,,,,,,,,,METAR,22.0
RKNY 121400Z AUTO 26006KT 6000 NCD 02/M00 Q1023,RKNY,2019-01-12T14:00:00Z,38.07,128.67,2.0,0.0,260,6,,3.73,30.206694,,,TRUE,,,,,,,,CLR,,,,,,,,MVFR,,,,,,,,,,,,METAR,74.0
CWOE 121400Z AUTO 08010KT M09/M10 RMK AO1 SLP225 T10911098 53002,CWOE,2019-01-12T14:00:00Z,49.12,-110.47,-9.1,-9.8,80,10,,,,1022.5,,TRUE,TRUE,,,,,,,,,,,,,,,,0.2,,,,,,,,,,,METAR,935.0
LFSI 121400Z AUTO 23011KT 9999 BKN010 BKN014 OVC034 06/04 Q1023,LFSI,2019-01-12T14:00:00Z,48.62,4.9,6.0,4.0,230,11,,6.21,30.206694,,,TRUE,,,,,,,,BKN,1000,BKN,1400,OVC,3400,,,MVFR,,,,,,,,,,,,METAR,140.0
LFTW 121400Z AUTO 36024G37KT CAVOK 11/01 Q1022 NOSIG,LFTW,2019-01-12T14:00:00Z,43.75,4.42,11.0,1.0,360,24,37,6.21,30.177166,,,TRUE,,,TRUE,,,,,CAVOK,,,,,,,,VFR,,,,,,,,,,,,METAR,96.0
SKBG 121400Z 31004KT 9999 SCT007 BKN070 20/18 A3010,SKBG,2019-01-12T14:00:00Z,7.13,-73.18,20.0,18.0,310,4,,6.21,30.100393,,,,,,,,,,,SCT,700,BKN,7000,,,,,VFR,,,,,,,,,,,,METAR,1189.0
SKSP 121400Z 06009KT 9999 FEW018 27/21 A3001,SKSP,2019-01-12T14:00:00Z,12.57,-81.72,27.0,21.0,60,9,,6.21,30.008858,,,,,,,,,,,FEW,1800,,,,,,,VFR,,,,,,,,,,,,METAR,-2.0
CWEQ 121400Z AUTO 22002KT M18/M20 RMK AO1 SOG 13 6012 SLP301 T11821200,CWEQ,2019-01-12T14:00:00Z,52.12,-101.22,-18.2,-20.0,220,2,,,,1030.1,,TRUE,TRUE,,,,,,,,,,,,,,,,,,,,,,,,,,,METAR,335.0
CWOY 121400Z AUTO 16010KT M12/M15 RMK AO1 SOG 02 6018 SLP251 T11231153,CWOY,2019-01-12T14:00:00Z,51.77,-104.2,-12.3,-15.3,160,10,,,,1025.1,,TRUE,TRUE,,,,,,,,,,,,,,,,,,,,,,,,,,,METAR,560.0
CWKO 121400Z AUTO 19013KT M13/M14 RMK AO1 SOG 15 7008 SLP263 T11261142,CWKO,2019-01-12T14:00:00Z,49.17,-105.97,-12.6,-14.2,190,13,,,,1026.3,,TRUE,TRUE,,,,,,,,,,,,,,,,,,,,,,,,,,,METAR,917.0
CWEH 121400Z AUTO 29007KT M05/M07 RMK AO1 SLP217 T10531070 55000,CWEH,2019-01-12T14:00:00Z,49.42,-108.97,-5.3,-7.0,290,7,,,,1021.7,,TRUE,TRUE,,,,,,,,,,,,,,,,0.0,,,,,,,,,,,METAR,1078.0
CWLB 121400Z AUTO 18005KT M12/M14 RMK AO1 SOG 22 0001 SLP173 T11241135,CWLB,2019-01-12T14:00:00Z,54.77,-112.02,-12.4,-13.5,180,5,,,,1017.3,,TRUE,TRUE,,,,,,,,,,,,,,,,,,,,,,,,,,,METAR,567.0
CWCT 121400Z AUTO 23004KT M08/M10 RMK AO1 SOG 02 3001 SLP180 T10791102,CWCT,2019-01-12T14:00:00Z,52.07,-111.47,-7.9,-10.2,230,4,,,,1018.0,,TRUE,TRUE,,,,,,,,,,,,,,,,,,,,,,,,,,,METAR,791.0
CXWN 121400Z AUTO 09002KT M09/M12 RMK AO1 SLP333 T10941116 56003,CXWN,2019-01-12T14:00:00Z,49.88,-97.13,-9.4,-11.6,90,2,,,,1033.3,,TRUE,TRUE,,,,,,,,,,,,,,,,-0.3,,,,,,,,,,,METAR,230.0
CXTP 121400Z AUTO 22008G16KT M02/M04 RMK AO1 SOG 35 1014 PK WND 21020/1344 SLP148 T10211039,CXTP,2019-01-12T14:00:00Z,48.55,-53.97,-2.1,-3.9,220,8,16,,,1014.8,,TRUE,TRUE,,,,,,,,,,,,,,,,,,,,,,,,,,,METAR,107.0
CXSH 121400Z AUTO 24004KT M20/M23 RMK AO1 SLP315 T11981232 51023,CXSH,2019-01-12T14:00:00Z,46.58,-72.73,-19.8,-23.2,240,4,,,,1031.5,,TRUE,TRUE,,,,,,,,,,,,,,,,2.3,,,,,,,,,,,METAR,110.0
CXRH 121400Z AUTO 19005KT RMK AO1,CXRH,2019-01-12T14:00:00Z,49.57,-57.88,,,190,5,,,,,,TRUE,TRUE,,,,,,,,,,,,,,,,,,,,,,,,,,,METAR,68.0
WBGS 121400Z VRB02KT 9999 FEW005 SCT016 BKN150 25/25 Q1011 RERA,WBGS,2019-01-12T14:00:00Z,2.27,111.98,25.0,25.0,0,2,,6.21,29.852362,,,,,,,,,,,FEW,500,SCT,1600,BKN,15000,,,VFR,,,,,,,,,,,,METAR,8.0
OEKJ 121400Z 17006KT CAVOK 20/M05 Q1022,OEKJ,2019-01-12T14:00:00Z,24.07,47.58,20.0,-5.0,170,6,,6.21,30.177166,,,,,,,,,,,CAVOK,,,,,,,,VFR,,,,,,,,,,,,METAR,503.0
OEJB 121400Z AUTO 36007KT CAVOK 15/06 Q1020 NOSIG,OEJB,2019-01-12T14:00:00Z,27.05,49.38,15.0,6.0,360,7,,6.21,30.11811,,,TRUE,,,TRUE,,,,,CAVOK,,,,,,,,VFR,,,,,,,,,,,,METAR,8.0
OEHL 121400Z 15004KT 9999 SCT040 21/04 Q1015 NOSIG,OEHL,2019-01-12T14:00:00Z,27.42,41.67,21.0,4.0,150,4,,6.21,29.970472,,,,,,TRUE,,,,,SCT,4000,,,,,,,VFR,,,,,,,,,,,,METAR,1013.0
OEGT 121400Z 06008KT 9999 BKN040 15/M01 Q1011 NOSIG,OEGT,2019-01-12T14:00:00Z,31.42,37.27,15.0,-1.0,60,8,,6.21,29.852362,,,,,,TRUE,,,,,BKN,4000,,,,,,,VFR,,,,,,,,,,,,METAR,499.0
OEGS 121400Z 13007KT 9999 FEW040 23/12 Q1016,OEGS,2019-01-12T14:00:00Z,26.3,43.77,23.0,12.0,130,7,,6.21,30.0,,,,,,,,,,,FEW,4000,,,,,,,VFR,,,,,,,,,,,,METAR,650.0
DNMM 121400Z 16008KT 4000 HZ FEW015 35/25 Q1008 NOSIG,DNMM,2019-01-12T14:00:00Z,6.57,3.32,35.0,25.0,160,8,,2.49,29.763779,,,,,,TRUE,,,,HZ,FEW,1500,,,,,,,IFR,,,,,,,,,,,,METAR,38.0
VIJP 121400Z 00000KT 2000 HZ NSC 17/05 Q1017 NOSIG,VIJP,2019-01-12T14:00:00Z,26.82,75.78,17.0,5.0,0,0,,1.24,30.029528,,,,,,TRUE,,,,HZ,CLR,,,,,,,,IFR,,,,,,,,,,,,METAR,390.0
LFSO 121400Z AUTO 23013KT 9999 FEW012 BKN027 OVC032 04/03 Q1022,LFSO,2019-01-12T14:00:00Z,48.57,5.97,4.0,3.0,230,13,,6.21,30.177166,,,TRUE,,,,,,,,FEW,1200,BKN,2700,OVC,3200,,,MVFR,,,,,,,,,,,,METAR,350.0
CYXZ 121400Z VRB02KT 15SM FEW012 FEW070 FEW240 M25/M27 A3059 RMK SF1AC1CS1 SF TR AC TR CS TR SLP395,CYXZ,2019-01-12T14:00:00Z,47.97,-84.77,-25.0,-27.0,0,2,,15.0,30.590551,1039.5,,,,,,,,,,FEW,1200,FEW,7000,FEW,24000,,,VFR,,,,,,,,,,,,SPECI,287.0
MRPV 121400Z 11011KT 9999 FEW035 20/14 A3011 NOSIG,MRPV,2019-01-12T14:00:00Z,9.95,-84.15,20.0,14.0,110,11,,6.21,30.109253,,,,,,TRUE,,,,,FEW,3500,,,,,,,VFR,,,,,,,,,,,,METAR,994.0
SBCY 121400Z 34007KT 9999 FEW020 29/22 Q1015,SBCY,2019-01-12T14:00:00Z,-15.65,-56.12,29.0,22.0,340,7,,6.21,29.970472,,,,,,,,,,,FEW,2000,,,,,,,VFR,,,,,,,,,,,,METAR,182.0
SBGR 121400Z 01004KT 9000 FEW030 28/21 Q1020,SBGR,2019-01-12T14:00:00Z,-23.42,-46.47,28.0,21.0,10,4,,5.59,30.11811,,,,,,,,,,,FEW,3000,,,,,,,VFR,,,,,,,,,,,,METAR,750.0
NFFN 121400Z 11003KT 9999 SCT025 SCT047 25/24 Q1006 NOSIG,NFFN,2019-01-12T14:00:00Z,-17.75,177.45,25.0,24.0,110,3,,6.21,29.704725,,,,,,TRUE,,,,,SCT,2500,SCT,4700,,,,,VFR,,,,,,,,,,,,METAR,18.0
LFPN 121400Z AUTO 25010KT 9999 BKN016 OVC023 08/06 Q1024 TEMPO 4000 -DZRA BKN004,LFPN,2019-01-12T14:00:00Z,48.75,2.12,8.0,6.0,250,10,,6.21,30.236221,,,TRUE,,,,,,,,BKN,1600,OVC,2300,,,,,MVFR,,,,,,,,,,,,METAR,164.0
LFJR 121400Z AUTO 26011KT 230V290 9999 OVC019 09/06 Q1028 NOSIG,LFJR,2019-01-12T14:00:00Z,47.57,-0.3,9.0,6.0,260,11,,6.21,30.35433,,,TRUE,,,TRUE,,,,,OVC,1900,,,,,,,MVFR,,,,,,,,,,,,METAR,60.0
LFGA 121400Z AUTO 19008KT 9999 BKN033 OVC039 04/02 Q1024,LFGA,2019-01-12T14:00:00Z,48.1,7.35,4.0,2.0,190,8,,6.21,30.236221,,,TRUE,,,,,,,,BKN,3300,OVC,3900,,,,,VFR,,,,,,,,,,,,METAR,191.0
LFBU 121400Z AUTO 28005KT 9000 OVC009 07/06 Q1030 NOSIG,LFBU,2019-01-12T14:00:00Z,45.72,0.22,7.0,6.0,280,5,,5.59,30.413385,,,TRUE,,,TRUE,,,,,OVC,900,,,,,,,IFR,,,,,,,,,,,,METAR,133.0
LFAT 121400Z AUTO 29013KT 260V320 9999 BKN014 BKN019 OVC036 10/08 Q1021 TEMPO 30015G25KT 4000 RA BECMG OVC020,LFAT,2019-01-12T14:00:00Z,50.52,1.62,10.0,8.0,290,13,,6.21,30.147638,,,TRUE,,,,,,,,BKN,1400,BKN,1900,OVC,3600,,,MVFR,,,,,,,,,,,,METAR,14.0
LFAQ 121400Z AUTO 28014KT 5000 -RA BR OVC005 08/08 Q1021 TEMPO 2000 DZRA,LFAQ,2019-01-12T14:00:00Z,49.97,2.7,8.0,8.0,280,14,,3.11,30.147638,,,TRUE,,,,,,,-RA BR,OVC,500,,,,,,,IFR,,,,,,,,,,,,METAR,111.0
LFSD 121400Z AUTO 22006KT 9999 -RA SCT021/// BKN027/// BKN034/// ///TCU 06/04 Q1026,LFSD,2019-01-12T14:00:00Z,47.27,5.07,6.0,4.0,220,6,,6.21,30.295275,,,TRUE,,,,,,,-RA,SCT,2100,BKN,2700,BKN,3400,,,MVFR,,,,,,,,,,,,METAR,227.0
LFRT 121400Z AUTO 29012KT 5000 BR OVC007 10/09 Q1028,LFRT,2019-01-12T14:00:00Z,48.52,-2.85,10.0,9.0,290,12,,3.11,30.35433,,,TRUE,,,,,,,BR,OVC,700,,,,,,,IFR,,,,,,,,,,,,METAR,136.0
LFRQ 121400Z AUTO 30012KT 9000 -RADZ BKN008 BKN013 OVC027 10/09 Q1030 TEMPO 4000 DZ,LFRQ,2019-01-12T14:00:00Z,47.97,-4.17,10.0,9.0,300,12,,5.59,30.413385,,,TRUE,,,,,,,-RA -DZ,BKN,800,BKN,1300,OVC,2700,,,IFR,,,,,,,,,,,,METAR,94.0
LFRH 121400Z AUTO 27010KT 9999 BKN012 OVC018 10/08 Q1030 TEMPO 4500 DZ BKN007,LFRH,2019-01-12T14:00:00Z,47.77,-3.45,10.0,8.0,270,10,,6.21,30.413385,,,TRUE,,,,,,,,BKN,1200,OVC,1800,,,,,MVFR,,,,,,,,,,,,METAR,44.0
LFPT 121400Z AUTO 27010KT 9999 OVC012 08/07 Q1023,LFPT,2019-01-12T14:00:00Z,49.1,2.03,8.0,7.0,270,10,,6.21,30.206694,,,TRUE,,,,,,,,OVC,1200,,,,,,,MVFR,,,,,,,,,,,,METAR,99.0
LFPM 121400Z AUTO 23010KT 9999 OVC013 08/06 Q1024,LFPM,2019-01-12T14:00:00Z,48.62,2.67,8.0,6.0,230,10,,6.21,30.236221,,,TRUE,,,,,,,,OVC,1300,,,,,,,MVFR,,,,,,,,,,,,METAR,92.0
LFLN 121400Z AUTO 28005KT 6000 -RA BKN012 BKN018 OVC023 06/05 Q1027 BECMG BKN030,LFLN,2019-01-12T14:00:00Z,46.42,4.02,6.0,5.0,280,5,,3.73,30.324802,,,TRUE,,,,,,,-RA,BKN,1200,BKN,1800,OVC,2300,,,MVFR,,,,,,,,,,,,METAR,244.0
KLHZ 121400Z AUTO 10SM SCT070 SCT080 OVC110 00/M05 A3048 RMK AO2,KLHZ,2019-01-12T14:00:00Z,36.02,-78.33,0.0,-5.0,,,,10.0,30.481298,,,TRUE,TRUE,,,,,,,SCT,7000,SCT,8000,OVC,11000,,,VFR,,,,,,,,,,,,SPECI,113.0
KFME 121400Z AUTO 00000KT 10SM BKN100 M02/M05 A3057 RMK AO1,KFME,2019-01-12T14:00:00Z,39.08,-76.77,-2.0,-5.0,0,0,,10.0,30.569881,,,TRUE,TRUE,,,,,,,BKN,10000,,,,,,,VFR,,,,,,,,,,,,METAR,46.0
KETC 121400Z AUTO 36004KT 10SM OVC120 00/M04 A3053 RMK AO2 T00041039,KETC,2019-01-12T14:00:00Z,35.93,-77.55,0.4,-3.9,360,4,,10.0,30.528543,,,TRUE,TRUE,,,,,,,OVC,12000,,,,,,,VFR,,,,,,,,,,,,SPECI,17.0
KASJ 121400Z AUTO 00000KT 10SM OVC110 00/M04 A3054 RMK AO2 T00011042,KASJ,2019-01-12T14:00:00Z,36.28,-77.17,0.1,-4.2,0,0,,10.0,30.540354,,,TRUE,TRUE,,,,,,,OVC,11000,,,,,,,VFR,,,,,,,,,,,,SPECI,21.0
LJMB 121400Z 20006KT CAVOK 06/M06 Q1015,LJMB,2019-01-12T14:00:00Z,46.47,15.67,6.0,-6.0,200,6,,6.21,29.970472,,,,,,,,,,,CAVOK,,,,,,,,VFR,,,,,,,,,,,,METAR,265.0
LJLJ 121400Z VRB02KT CAVOK 01/M05 Q1015 NOSIG,LJLJ,2019-01-12T14:00:00Z,46.22,14.47,1.0,-5.0,0,2,,6.21,29.970472,,,,,,TRUE,,,,,CAVOK,,,,,,,,VFR,,,,,,,,,,,,METAR,385.0
FSIA 121400Z 23003KT 200V260 9999 SCT022 28/24 Q1011 NOSIG,FSIA,2019-01-12T14:00:00Z,-4.67,55.52,28.0,24.0,230,3,,6.21,29.852362,,,,,,TRUE,,,,,SCT,2200,,,,,,,VFR,,,,,,,,,,,,METAR,3.0
OIZI 121400Z 21004KT CAVOK 17/M04 Q1019,OIZI,2019-01-12T14:00:00Z,27.23,60.72,17.0,-4.0,210,4,,6.21,30.088583,,,,,,,,,,,CAVOK,,,,,,,,VFR,,,,,,,,,,,,METAR,591.0
OIZB 121400Z 00000KT CAVOK 10/M10 Q1024,OIZB,2019-01-12T14:00:00Z,31.1,61.55,10.0,-10.0,0,0,,6.21,30.236221,,,,,,,,,,,CAVOK,,,,,,,,VFR,,,,,,,,,,,,METAR,489.0
OING 121400Z 21006KT CAVOK 06/03 Q1014,OING,2019-01-12T14:00:00Z,36.9,54.4,6.0,3.0,210,6,,6.21,29.940945,,,,,,,,,,,CAVOK,,,,,,,,VFR,,,,,,,,,,,,METAR,155.0
OIBS 121400Z 07006KT CAVOK 22/14 Q1017,OIBS,2019-01-12T14:00:00Z,25.9,54.55,22.0,14.0,70,6,,6.21,30.029528,,,,,,,,,,,CAVOK,,,,,,,,VFR,,,,,,,,,,,,METAR,14.0
OIBJ 121400Z 00000KT CAVOK 16/01 Q1020,OIBJ,2019-01-12T14:00:00Z,27.82,52.35,16.0,1.0,0,0,,6.21,30.11811,,,,,,,,,,,CAVOK,,,,,,,,VFR,,,,,,,,,,,,METAR,663.0
OICS 121400Z 11002KT CAVOK 05/M07 Q1017,OICS,2019-01-12T14:00:00Z,35.25,47.02,5.0,-7.0,110,2,,6.21,30.029528,,,,,,,,,,,CAVOK,,,,,,,,VFR,,,,,,,,,,,,METAR,1373.0
OIBB 121400Z 36006KT CAVOK 14/07 Q1018 A3008,OIBB,2019-01-12T14:00:00Z,28.97,50.82,14.0,7.0,360,6,,6.21,30.059055,,,,,,,,,,,CAVOK,,,,,,,,VFR,,,,,,,,,,,,METAR,19.0
OIZH 121400Z 00000KT CAVOK 08/M10 Q1022 A3021 NOSIG,OIZH,2019-01-12T14:00:00Z,29.47,60.92,8.0,-10.0,0,0,,6.21,30.177166,,,,,,TRUE,,,,,CAVOK,,,,,,,,VFR,,,,,,,,,,,,METAR,1370.0
OITT 121400Z 27004KT 9999 FEW040 SCT190 M00/M08 Q1017 A3005 NOSIG,OITT,2019-01-12T14:00:00Z,38.13,46.23,0.0,-8.0,270,4,,6.21,30.029528,,,,,,TRUE,,,,,FEW,4000,SCT,19000,,,,,VFR,,,,,,,,,,,,METAR,1361.0
OISS 121400Z 00000KT CAVOK 12/M08 Q1020 A3013,OISS,2019-01-12T14:00:00Z,29.52,52.57,12.0,-8.0,0,0,,6.21,30.11811,,,,,,,,,,,CAVOK,,,,,,,,VFR,,,,,,,,,,,,METAR,1491.0
OIMM 121400Z 07006KT 8000 NSC 04/M06 Q1020 A3014,OIMM,2019-01-12T14:00:00Z,36.23,59.62,4.0,-6.0,70,6,,4.97,30.11811,,,,,,,,,,,CLR,,,,,,,,MVFR,,,,,,,,,,,,METAR,980.0
OIKK 121400Z 35004KT CAVOK 10/M26 Q1020 A3014,OIKK,2019-01-12T14:00:00Z,30.25,56.97,10.0,-26.0,350,4,,6.21,30.11811,,,,,,,,,,,CAVOK,,,,,,,,VFR,,,,,,,,,,,,METAR,1754.0
OIKB 121400Z 23004KT 6000 NSC 22/05 Q1016 A3002 NOSIG,OIKB,2019-01-12T14:00:00Z,27.22,56.37,22.0,5.0,230,4,,3.73,30.0,,,,,,TRUE,,,,,CLR,,,,,,,,MVFR,,,,,,,,,,,,METAR,10.0
OIII 121400Z 17006KT 9999 FEW100 SCT200 05/M07 Q1020 A3013 NOSIG,OIII,2019-01-12T14:00:00Z,35.68,51.3,5.0,-7.0,170,6,,6.21,30.11811,,,,,,TRUE,,,,,FEW,10000,SCT,20000,,,,,VFR,,,,,,,,,,,,METAR,1191.0
OIFM 121400Z 00000KT 7000 NSC 06/M04 Q1020 A3014,OIFM,2019-01-12T14:00:00Z,32.75,51.87,6.0,-4.0,0,0,,4.35,30.11811,,,,,,,,,,,CLR,,,,,,,,MVFR,,,,,,,,,,,,METAR,1542.0
OIAW 121400Z 32002KT CAVOK 14/06 Q1018 NOSIG,OIAW,2019-01-12T14:00:00Z,31.32,48.77,14.0,6.0,320,2,,6.21,30.059055,,,,,,TRUE,,,,,CAVOK,,,,,,,,VFR,,,,,,,,,,,,METAR,22.0
OITM 121400Z 13002KT CAVOK 05/M08 Q1016,OITM,2019-01-12T14:00:00Z,37.35,46.15,5.0,-8.0,130,2,,6.21,30.0,,,,,,,,,,,CAVOK,,,,,,,,VFR,,,,,,,,,,,,METAR,1340.0
OINE 121400Z 10016KT CAVOK 14/M04 Q1011,OINE,2019-01-12T14:00:00Z,37.38,55.45,14.0,-4.0,100,16,,6.21,29.852362,,,,,,,,,,,CAVOK,,,,,,,,VFR,,,,,,,,,,,,METAR,130.0
OIMQ 121400Z 00000KT 9999 FEW035 BKN190 05/M02 Q1022,OIMQ,2019-01-12T14:00:00Z,35.23,58.47,5.0,-2.0,0,0,,6.21,30.177166,,,,,,,,,,,FEW,3500,BKN,19000,,,,,VFR,,,,,,,,,,,,METAR,1140.0
OIMD 121400Z 00000KT CAVOK 05/M03 Q1019,OIMD,2019-01-12T14:00:00Z,34.38,58.63,5.0,-3.0,0,0,,6.21,30.088583,,,,,,,,,,,CAVOK,,,,,,,,VFR,,,,,,,,,,,,METAR,1100.0
OIMC 121400Z 14008KT CAVOK 10/M01 Q1020,OIMC,2019-01-12T14:00:00Z,36.5,61.07,10.0,-1.0,140,8,,6.21,30.11811,,,,,,,,,,,CAVOK,,,,,,,,VFR,,,,,,,,,,,,METAR,288.0
OIIK 121400Z 11006KT CAVOK 02/M06 Q1019,OIIK,2019-01-12T14:00:00Z,36.25,50.05,2.0,-6.0,110,6,,6.21,30.088583,,,,,,,,,,,CAVOK,,,,,,,,VFR,,,,,,,,,,,,METAR,1278.0
OIBQ 121400Z 34004KT CAVOK 14/09 Q1018,OIBQ,2019-01-12T14:00:00Z,29.27,50.32,14.0,9.0,340,4,,6.21,30.059055,,,,,,,,,,,CAVOK,,,,,,,,VFR,,,,,,,,,,,,METAR,6.0
OIBL 121400Z 13004KT 8000 NSC 22/13 Q1017,OIBL,2019-01-12T14:00:00Z,26.53,54.82,22.0,13.0,130,4,,4.97,30.029528,,,,,,,,,,,CLR,,,,,,,,MVFR,,,,,,,,,,,,METAR,14.0
OITP 121400Z 22004KT CAVOK 06/M02 Q1011,OITP,2019-01-12T14:00:00Z,39.6,47.88,6.0,-2.0,220,4,,6.21,29.852362,,,,,,,,,,,CAVOK,,,,,,,,VFR,,,,,,,,,,,,METAR,77.0
OISR 121400Z 00000KT CAVOK 18/01 Q1018,OISR,2019-01-12T14:00:00Z,27.37,53.2,18.0,1.0,0,0,,6.21,30.059055,,,,,,,,,,,CAVOK,,,,,,,,VFR,,,,,,,,,,,,METAR,408.0
OISF 121400Z 18008KT CAVOK 14/M04 Q1017,OISF,2019-01-12T14:00:00Z,28.9,53.72,14.0,-4.0,180,8,,6.21,30.029528,,,,,,,,,,,CAVOK,,,,,,,,VFR,,,,,,,,,,,,METAR,1383.0
OICM 121400Z 36002KT CAVOK 12/M00 Q1018,OICM,2019-01-12T14:00:00Z,,,12.0,0.0,360,2,,6.21,30.059055,,,,,,,,,,,CAVOK,,,,,,,,VFR,,,,,,,,,,,,METAR,
OIAH 121400Z 00000KT CAVOK 13/08 Q1019,OIAH,2019-01-12T14:00:00Z,30.33,50.83,13.0,8.0,0,0,,6.21,30.088583,,,,,,,,,,,CAVOK,,,,,,,,VFR,,,,,,,,,,,,METAR,738.0
OITZ 121400Z 12006KT 9999 SCT035 SCT090 01/M11 Q1016,OITZ,2019-01-12T14:00:00Z,36.77,48.37,1.0,-11.0,120,6,,6.21,30.0,,,,,,,,,,,SCT,3500,SCT,9000,,,,,VFR,,,,,,,,,,,,METAR,1663.0
OISY 121400Z 00000KT CAVOK 11/M11 Q1022,OISY,2019-01-12T14:00:00Z,30.7,51.55,11.0,-11.0,0,0,,6.21,30.177166,,,,,,,,,,,CAVOK,,,,,,,,VFR,,,,,,,,,,,,METAR,1811.0
OISL 121400Z 00000KT CAVOK 17/03 Q1018,OISL,2019-01-12T14:00:00Z,27.67,54.37,17.0,3.0,0,0,,6.21,30.059055,,,,,,,,,,,CAVOK,,,,,,,,VFR,,,,,,,,,,,,METAR,805.0
OINR 121400Z 28002KT 9999 SCT100 BKN190 10/07 Q1011,OINR,2019-01-12T14:00:00Z,36.88,50.67,10.0,7.0,280,2,,6.21,29.852362,,,,,,,,,,,SCT,10000,BKN,19000,,,,,VFR,,,,,,,,,,,,METAR,-20.0
SUMU 121400Z 04007KT CAVOK 23/11 Q1018 NOSIG,SUMU,2019-01-12T14:00:00Z,-34.82,-56.0,23.0,11.0,40,7,,6.21,30.059055,,,,,,TRUE,,,,,CAVOK,,,,,,,,VFR,,,,,,,,,,,,METAR,32.0
LFMH 121400Z AUTO 34003KT 300V010 9999 SCT007 OVC041 04/03 Q1027 BECMG OVC014,LFMH,2019-01-12T14:00:00Z,45.52,4.28,4.0,3.0,340,3,,6.21,30.324802,,,TRUE,,,,,,,,SCT,700,OVC,4100,,,,,VFR,,,,,,,,,,,,METAR,402.0
LFSX 121400Z AUTO 11002KT 1700 BR OVC002 01/01 Q1025,LFSX,2019-01-12T14:00:00Z,47.77,6.33,1.0,1.0,110,2,,1.06,30.265747,,,TRUE,,,,,,,BR,OVC,200,,,,,,,LIFR,,,,,,,,,,,,METAR,273.0
CWND 121400Z AUTO 00034KT M25/M27 RMK AO1 SLP178 T12461272 53017,CWND,2019-01-12T14:00:00Z,69.63,-135.43,-24.6,-27.2,0,34,,,,1017.8,,TRUE,TRUE,,,,,,,,,,,,,,,,1.7,,,,,,,,,,,METAR,12.0
KLFT 121359Z 16004KT 10SM SCT008 BKN039 OVC060 15/14 A2999 RMK AO2 T01500144,KLFT,2019-01-12T13:59:00Z,30.2,-92.0,15.0,14.4,160,4,,10.0,29.991142,,,,TRUE,,,,,,,SCT,800,BKN,3900,OVC,6000,,,VFR,,,,,,,,,,,,SPECI,11.0
KNOZ 121359Z AUTO 27003KT 10SM CLR 07/05 A3001 RMK AO2 SLP113 T00670050 $,KNOZ,2019-01-12T13:59:00Z,32.5,-114.45,6.7,5.0,270,3,,10.0,30.008858,1011.3,,TRUE,TRUE,TRUE,,,,,,CLR,,,,,,,,VFR,,,,,,,,,,,,SPECI,103.0
KLXV 121359Z AUTO 06006KT 10SM BKN014 M14/M16 A3011 RMK AO2 T11441161,KLXV,2019-01-12T13:59:00Z,39.23,-106.32,-14.4,-16.1,60,6,,10.0,30.109253,,,TRUE,TRUE,,,,,,,BKN,1400,,,,,,,MVFR,,,,,,,,,,,,METAR,3028.0
ETAR 121359Z 24010KT 9999 OVC011 05/05 A3010 RMK AO2A RAE59 CIG 010 RWY08 SLP205 $,ETAR,2019-01-12T13:59:00Z,49.42,7.58,5.0,5.0,240,10,,6.21,30.100393,1020.5,,,TRUE,TRUE,,,,,,OVC,1100,,,,,,,MVFR,,,,,,,,,,,,METAR,238.0
KNGU 121359Z 06004KT 10SM BKN120 OVC250 03/M08 A3053 RMK AO2 SLP339 T00331078,KNGU,2019-01-12T13:59:00Z,36.92,-76.27,3.3,-7.8,60,4,,10.0,30.528543,1033.9,,,TRUE,,,,,,,BKN,12000,OVC,25000,,,,,VFR,,,,,,,,,,,,METAR,5.0
KDVP 121359Z AUTO 36005KT 7SM OVC013 A3026 RMK AO2,KDVP,2019-01-12T13:59:00Z,43.98,-95.78,,,360,5,,7.0,30.259842,,,TRUE,TRUE,,,,,,,OVC,1300,,,,,,,MVFR,,,,,,,,,,,,METAR,495.0
PTPN 121359Z 05008KT 15SM BKN017TCU OVC300 27/25 A2971 RMK TCU ALQDS,PTPN,2019-01-12T13:59:00Z,6.97,158.22,27.0,25.0,50,8,,15.0,29.71063,,,,,,,,,,,BKN,1700,OVC,30000,,,,,MVFR,,,,,,,,,,,,SPECI,2.0
KHMN 121358Z AUTO 13003KT 10SM CLR M01/M04 A3022 RMK AO2 SLP224 T10151039 $,KHMN,2019-01-12T13:58:00Z,32.85,-106.08,-1.5,-3.9,130,3,,10.0,30.221457,1022.4,,TRUE,TRUE,TRUE,,,,,,CLR,,,,,,,,VFR,,,,,,,,,,,,SPECI,1248.0
KHIF 121358Z AUTO 11011KT 10SM OVC009 M05/M08 A3023 RMK AO2 CIG 008 RWY32 SLP262 T10521078,KHIF,2019-01-12T13:58:00Z,41.12,-111.97,-5.2,-7.8,110,11,,10.0,30.230314,1026.2,,TRUE,TRUE,,,,,,,OVC,900,,,,,,,IFR,,,,,,,,,,,,SPECI,1459.0
K4MR 121358Z AUTO 32005KT 10SM CLR M01/M03 A3017 RMK AO2 SLP223 T10061027 TSNO $,K4MR,2019-01-12T13:58:00Z,34.3,-103.8,-0.6,-2.7,320,5,,10.0,30.171259,1022.3,,TRUE,TRUE,TRUE,,TRUE,,,,CLR,,,,,,,,VFR,,,,,,,,,,,,METAR,1326.0
K9L2 121358Z AUTO 19005KT 9SM -RA FEW045 07/03 A3001 RMK AO2 RAB06E19RAB36 SLP161 P0000 T00690027,K9L2,2019-01-12T13:58:00Z,34.97,-117.87,6.9,2.7,190,5,,9.0,30.008858,1016.1,,TRUE,TRUE,,,,,,-RA,FEW,4500,,,,,,,VFR,,,,,,0.005,,,,,,SPECI,701.0
KVBG 121358Z AUTO 14007KT 10SM OVC060 10/09 A2995 RMK AO2 RAB16E34 SLP145 P0000 T00960088 $,KVBG,2019-01-12T13:58:00Z,34.73,-120.58,9.6,8.8,140,7,,10.0,29.949802,1014.5,,TRUE,TRUE,TRUE,,,,,,OVC,6000,,,,,,,VFR,,,,,,0.005,,,,,,METAR,112.0
KSUU 121358Z 00000KT 4SM BR FEW060 SCT075 05/03 A2996 RMK AO2A VIS 1 3/4 RWY03R/21L SLP152 T00470032 $,KSUU,2019-01-12T13:58:00Z,38.27,-121.92,4.7,3.2,0,0,,4.0,29.958662,1015.2,,,TRUE,TRUE,,,,,BR,FEW,6000,SCT,7500,,,,,MVFR,,,,,,,,,,,,METAR,19.0
KSKA 121358Z 06011KT 1/4SM R05/3000V4500FT FZFG VV001 M01/M01 A3015 RMK AO2A SLP235 T10101010,KSKA,2019-01-12T13:58:00Z,47.62,-117.65,-1.0,-1.0,60,11,,0.25,30.15059,1023.5,,,TRUE,,,,,,FZFG,OVX,0,,,,,,,LIFR,,,,,,,,,,,100,METAR,750.0
KCWN 121358Z AUTO 33009KT 10SM -SHSN OVC055 M03/M05 A3010 RMK AO2 SNE18SHSNB18E30SHSNB39 SLP135 T10261047 $,KCWN,2019-01-12T13:58:00Z,38.75,-104.85,-2.6,-4.7,330,9,,10.0,30.100393,1013.5,,TRUE,TRUE,TRUE,,,,,-SHSN,OVC,5500,,,,,,,VFR,,,,,,,,,,,,SPECI,2040.0
ETSH 121358Z 25013KT 9999 -RA FEW016 BKN020 BKN030 05/03 Q1010 WHT,ETSH,2019-01-12T13:58:00Z,51.77,13.17,5.0,3.0,250,13,,6.21,29.822834,,,,,,,,,,-RA,FEW,1600,BKN,2000,BKN,3000,,,MVFR,,,,,,,,,,,,SPECI,79.0
KINS 121358Z AUTO 26006KT 10SM CLR 02/M04 A3007 RMK AO2 SLP176 T00191040 $,KINS,2019-01-12T13:58:00Z,36.58,-115.67,1.9,-4.0,260,6,,10.0,30.070866,1017.6,,TRUE,TRUE,TRUE,,,,,,CLR,,,,,,,,VFR,,,,,,,,,,,,SPECI,955.0
KRIV 121358Z 05004KT 7SM -RA FEW010 OVC015 08/08 A3003 RMK AO2A SLP169 P0012 T00790079,KRIV,2019-01-12T13:58:00Z,33.87,-117.27,7.9,7.9,50,4,,7.0,30.029528,1016.9,,,TRUE,,,,,,-RA,FEW,1000,OVC,1500,,,,,MVFR,,,,,,0.12,,,,,,METAR,469.0
KLGF 121358Z AUTO 15011KT 9SM R36/5500FT SCT220 10/06 A3001 RMK AO2 SLPNO T00990055 $,KLGF,2019-01-12T13:58:00Z,32.87,-114.4,9.9,5.5,150,11,,9.0,30.008858,,,TRUE,TRUE,TRUE,,,,,,SCT,22000,,,,,,,VFR,,,,,,,,,,,,METAR,132.0
K1KM 121358Z AUTO 26009KT 10SM CLR M02/M09 A3010 RMK AO2 SLP241 T10161093 $,K1KM,2019-01-12T13:58:00Z,46.45,-109.8,-1.6,-9.3,260,9,,10.0,30.100393,1024.1,,TRUE,TRUE,TRUE,,,,,,CLR,,,,,,,,VFR,,,,,,,,,,,,METAR,1330.0
KEYE 121358Z AUTO 10009KT 1/2SM SN FZFG SCT007 OVC014 M02/M03 A3027 RMK AO2 P0001 T10171033 $,KEYE,2019-01-12T13:58:00Z,39.83,-86.3,-1.7,-3.3,100,9,,0.5,30.268702,,,TRUE,TRUE,TRUE,,,,,SN FZFG,SCT,700,OVC,1400,,,,,LIFR,,,,,,0.01,,,,,,SPECI,248.0
KMRH 121358Z AUTO 04007KT 10SM FEW120 04/M01 A3047 RMK AO2 SLP319 T00441006,KMRH,2019-01-12T13:58:00Z,34.73,-76.65,4.4,-0.6,40,7,,10.0,30.469488,1031.9,,TRUE,TRUE,,,,,,,FEW,12000,,,,,,,VFR,,,,,,,,,,,,METAR,3.0
KPOE 121358Z AUTO 03003KT 8SM OVC004 11/11 A2996 RMK AO2 LTG DSNT S RAE31 SLP148 P0002 T01130109,KPOE,2019-01-12T13:58:00Z,31.05,-93.2,11.3,10.9,30,3,,8.0,29.958662,1014.8,,TRUE,TRUE,,,,,,,OVC,400,,,,,,,LIFR,,,,,,0.02,,,,,,METAR,101.0
KLOR 121358Z AUTO 00000KT 10SM BKN032 OVC047 09/06 A3022 RMK AO2 SLP218 T00920059,KLOR,2019-01-12T13:58:00Z,31.35,-85.75,9.2,5.9,0,0,,10.0,30.221457,1021.8,,TRUE,TRUE,,,,,,,BKN,3200,OVC,4700,,,,,VFR,,,,,,,,,,,,METAR,74.0
KHEY 121358Z AUTO 11004KT 9SM BKN033 BKN049 OVC120 09/06 A3021 RMK AO2 SLP233 T00940056,KHEY,2019-01-12T13:58:00Z,31.35,-85.65,9.4,5.6,110,4,,9.0,30.209646,1023.3,,TRUE,TRUE,,,,,,,BKN,3300,BKN,4900,OVC,12000,,,VFR,,,,,,,,,,,,METAR,97.0
KCVS 121358Z AUTO 36011KT 10SM BKN025 02/M02 A3015 RMK AO2 BKN V OVC CIG 024 RWY22 SLP213 T00171023 $,KCVS,2019-01-12T13:58:00Z,34.37,-103.32,1.7,-2.3,360,11,,10.0,30.15059,1021.3,,TRUE,TRUE,TRUE,,,,,,BKN,2500,,,,,,,MVFR,,,,,,,,,,,,METAR,1309.0
KBAB 121358Z AUTO 00000KT 10SM CLR 04/03 A2994 RMK AO2 SLP142 T00400027 $,KBAB,2019-01-12T13:58:00Z,39.12,-121.42,4.0,2.7,0,0,,10.0,29.940945,1014.2,,TRUE,TRUE,TRUE,,,,,,CLR,,,,,,,,VFR,,,,,,,,,,,,METAR,34.0
KAFF 121358Z 34009KT 7SM -SN SCT017 BKN025 OVC044 M02/M03 A3016 RMK AO2A SLP241 P0000 T10181029,KAFF,2019-01-12T13:58:00Z,38.97,-104.82,-1.8,-2.9,340,9,,7.0,30.159449,1024.1,,,TRUE,,,,,,-SN,SCT,1700,BKN,2500,OVC,4400,,,MVFR,,,,,,0.005,,,,,,SPECI,2003.0
KBAD 121358Z 16005KT 10SM OVC004 09/09 A2994 RMK AO2A SLP142 P0000 T00890089 $,KBAD,2019-01-12T13:58:00Z,32.5,-93.67,8.9,8.9,160,5,,10.0,29.940945,1014.2,,,TRUE,TRUE,,,,,,OVC,400,,,,,,,LIFR,,,,,,0.005,,,,,,SPECI,51.0
KGFA 121358Z AUTO 24009KT 10SM CLR 00/M08 A3006 RMK AO2 SLP212 T10051079 $,KGFA,2019-01-12T13:58:00Z,47.5,-111.17,-0.5,-7.9,240,9,,10.0,30.059055,1021.2,,TRUE,TRUE,TRUE,,,,,,CLR,,,,,,,,VFR,,,,,,,,,,,,METAR,1075.0
RKSO 121358Z 00000KT 6SM HZ CLR M03/M05 A3024 RMK AO2A SLP244 T10311054,RKSO,2019-01-12T13:58:00Z,37.07,127.02,-3.1,-5.4,0,0,,6.0,30.239174,1024.4,,,TRUE,,,,,,HZ,CLR,,,,,,,,VFR,,,,,,,,,,,,METAR,12.0
KCUL 121358Z AUTO 07007KT 4SM BR SCT007 BKN085 OVC120 01/00 A3018 RMK AO2,KCUL,2019-01-12T13:58:00Z,38.08,-88.12,1.0,0.0,70,7,,4.0,30.180119,,,TRUE,TRUE,,,,,,BR,SCT,700,BKN,8500,OVC,12000,,,MVFR,,,,,,,,,,,,METAR,118.0
K1BW 121358Z AUTO 28011KT 10SM CLR M07/M08 A3019 RMK AO2 SLP273 T10711084 $,K1BW,2019-01-12T13:58:00Z,41.52,-104.0,-7.1,-8.4,280,11,,10.0,30.188976,1027.3,,TRUE,TRUE,TRUE,,,,,,CLR,,,,,,,,VFR,,,,,,,,,,,,SPECI,1607.0
KLSV 121358Z 33005KT 10SM CLR 07/M03 A3011 RMK AO2A SLP200 ALSTG/SLP ESTMD T00711026 $,KLSV,2019-01-12T13:58:00Z,36.22,-115.02,7.1,-2.6,330,5,,10.0,30.109253,1020.0,,,TRUE,TRUE,,,,,,CLR,,,,,,,,VFR,,,,,,,,,,,,METAR,570.0
OAIX 121358Z 00000KT 9999 CLR 03/M06 A3016 RMK AO2A SLP194 T00291063 $,OAIX,2019-01-12T13:58:00Z,34.95,69.27,2.9,-6.3,0,0,,6.21,30.159449,1019.4,,,TRUE,TRUE,,,,,,CLR,,,,,,,,VFR,,,,,,,,,,,,METAR,1492.0
KTCM 121358Z 00000KT 1SM BR OVC002 M01/M01 A2995 RMK AO2A VIS 2 1/2V8 VIS 1 3/8 RWY16 SLP149 $,KTCM,2019-01-12T13:58:00Z,47.12,-122.47,-1.0,-1.0,0,0,,1.0,29.949802,1014.9,,,TRUE,TRUE,,,,,BR,OVC,200,,,,,,,LIFR,,,,,,,,,,,,SPECI,98.0
KBKF 121358Z 32004KT 8SM -SN SCT005 OVC011 M01/M01 A3020 RMK AO2A SLP244 P0000 T10111011,KBKF,2019-01-12T13:58:00Z,39.72,-104.75,-1.1,-1.1,320,4,,8.0,30.200787,1024.4,,,TRUE,,,,,,-SN,SCT,500,OVC,1100,,,,,MVFR,,,,,,0.005,,,,,,METAR,1726.0
KFHU 121358Z AUTO 00000KT 10SM CLR 00/M02 A3014 RMK AO2 SLP199 T00041022 $,KFHU,2019-01-12T13:58:00Z,31.58,-110.35,0.4,-2.2,0,0,,10.0,30.138779,1019.9,,TRUE,TRUE,TRUE,,,,,,CLR,,,,,,,,VFR,,,,,,,,,,,,METAR,1438.0
KBIF 121358Z AUTO 00000KT 10SM CLR 01/M02 A3018 RMK AO2 SLP207 T00091025 $,KBIF,2019-01-12T13:58:00Z,31.85,-106.38,0.9,-2.5,0,0,,10.0,30.180119,1020.7,,TRUE,TRUE,TRUE,,,,,,CLR,,,,,,,,VFR,,,,,,,,,,,,METAR,1203.0
K1AM 121358Z AUTO 00000KT 10SM CLR M04/M13 A3007 RMK AO2 SLP180 T10421127 $,K1AM,2019-01-12T13:58:00Z,47.28,-110.8,-4.2,-12.7,0,0,,10.0,30.070866,1018.0,,TRUE,TRUE,TRUE,,,,,,CLR,,,,,,,,VFR,,,,,,,,,,,,METAR,1219.0
KSLI 121358Z AUTO 07004KT 10SM OVC035 11/11 A3000 RMK AO2 RAB16E29 SLP162 P0000 T01120106,KSLI,2019-01-12T13:58:00Z,33.77,-118.03,11.2,10.6,70,4,,10.0,30.0,1016.2,,TRUE,TRUE,,,,,,,OVC,3500,,,,,,,VFR,,,,,,0.005,,,,,,METAR,11.0
PAFR 121358Z AUTO 02003KT 10SM OVC050 M19/M21 A2980 RMK AO2 SLP109 T11931215,PAFR,2019-01-12T13:58:00Z,61.27,-149.65,-19.3,-21.5,20,3,,10.0,29.799213,1010.9,,TRUE,TRUE,,,,,,,OVC,5000,,,,,,,VFR,,,,,,,,,,,,SPECI,115.0
KGOV 121358Z AUTO 07005KT 10SM BKN018 OVC065 M07/M09 A3045 RMK AO2 SLP339 T10691093 $,KGOV,2019-01-12T13:58:00Z,44.68,-84.73,-6.9,-9.3,70,5,,10.0,30.448818,1033.9,,TRUE,TRUE,TRUE,,,,,,BKN,1800,OVC,6500,,,,,MVFR,,,,,,,,,,,,METAR,353.0
KEUF 121358Z AUTO 10006KT 10SM FEW040 FEW047 BKN120 09/03 A3024 RMK AO2 SLP240 T00940033 $,KEUF,2019-01-12T13:58:00Z,31.95,-85.13,9.4,3.3,100,6,,10.0,30.239174,1024.0,,TRUE,TRUE,TRUE,,,,,,FEW,4000,FEW,4700,BKN,12000,,,VFR,,,,,,,,,,,,METAR,87.0
KMUO 121358Z AUTO 05003KT 10SM OVC016 M03/M03 A3024 RMK AO2 SLP268 T10331033 $,KMUO,2019-01-12T13:58:00Z,43.03,-115.87,-3.3,-3.3,50,3,,10.0,30.239174,1026.8,,TRUE,TRUE,TRUE,,,,,,OVC,1600,,,,,,,MVFR,,,,,,,,,,,,METAR,913.0
KFEW 121358Z AUTO 29008KT 10SM CLR M07/M09 A3019 RMK AO2 SLP272 T10681090 $,KFEW,2019-01-12T13:58:00Z,41.13,-104.87,-6.8,-9.0,290,8,,10.0,30.188976,1027.2,,TRUE,TRUE,TRUE,,,,,,CLR,,,,,,,,VFR,,,,,,,,,,,,METAR,1878.0
KFCS 121358Z AUTO 35006KT 10SM OVC048 M01/M04 A3016 RMK AO2 SLP262 T10101037 $,KFCS,2019-01-12T13:58:00Z,38.67,-104.77,-1.0,-3.7,350,6,,10.0,30.159449,1026.2,,TRUE,TRUE,TRUE,,,,,,OVC,4800,,,,,,,VFR,,,,,,,,,,,,SPECI,1789.0
K1YT 121358Z AUTO 00000KT 10SM CLR M01/M03 A3013 RMK AO2 SLPNO T10151027 $,K1YT,2019-01-12T13:58:00Z,46.67,-120.45,-1.5,-2.7,0,0,,10.0,30.129921,,,TRUE,TRUE,TRUE,,,,,,CLR,,,,,,,,VFR,,,,,,,,,,,,METAR,438.0
K1OM 121358Z AUTO 28005KT 10SM CLR M01/M08 A3005 RMK AO2 SLP208 T10091084 $,K1OM,2019-01-12T13:58:00Z,47.33,-108.93,-0.9,-8.4,280,5,,10.0,30.050198,1020.8,,TRUE,TRUE,TRUE,,,,,,CLR,,,,,,,,VFR,,,,,,,,,,,,METAR,1086.0
K1LM 121358Z AUTO 17011KT 10SM CLR M07/M10 A3007 RMK AO2 SLP250 T10681101 $,K1LM,2019-01-12T13:58:00Z,46.7,-109.73,-6.8,-10.1,170,11,,10.0,30.070866,1025.0,,TRUE,TRUE,TRUE,,,,,,CLR,,,,,,,,VFR,,,,,,,,,,,,METAR,1414.0
K1JM 121358Z AUTO 23007KT 10SM CLR M07/M10 A3005 RMK AO2 SLP239 T10691105 $,K1JM,2019-01-12T13:58:00Z,47.75,-111.55,-6.9,-10.5,230,7,,10.0,30.050198,1023.9,,TRUE,TRUE,TRUE,,,,,,CLR,,,,,,,,VFR,,,,,,,,,,,,METAR,1152.0
K1HM 121358Z AUTO 21013G16KT 10SM CLR 00/M08 A3005 RMK AO2 SLP206 T10051077 $,K1HM,2019-01-12T13:58:00Z,,,-0.5,-7.7,210,13,16,10.0,30.050198,1020.6,,TRUE,TRUE,TRUE,,,,,,CLR,,,,,,,,VFR,,,,,,,,,,,,METAR,
K1GM 121358Z AUTO 18019KT 10SM CLR M03/M07 A3006 RMK AO2 SLP221 T10311072 $,K1GM,2019-01-12T13:58:00Z,47.33,-112.1,-3.1,-7.2,180,19,,10.0,30.059055,1022.1,,TRUE,TRUE,TRUE,,,,,,CLR,,,,,,,,VFR,,,,,,,,,,,,METAR,1311.0
K1FM 121358Z AUTO 00000KT 10SM CLR M06/M08 A3007 RMK AO2 SLP242 T10581078 $,K1FM,2019-01-12T13:58:00Z,47.6,-112.32,-5.8,-7.8,0,0,,10.0,30.070866,1024.2,,TRUE,TRUE,TRUE,,,,,,CLR,,,,,,,,VFR,,,,,,,,,,,,METAR,1116.0
K1CM 121358Z AUTO 00000KT 10SM CLR M04/M14 A3005 RMK AO2 SLP230 T10371139 $,K1CM,2019-01-12T13:58:00Z,47.1,-110.17,-3.7,-13.9,0,0,,10.0,30.050198,1023.0,,TRUE,TRUE,TRUE,,,,,,CLR,,,,,,,,VFR,,,,,,,,,,,,METAR,1337.0
K1EM 121358Z AUTO 00000KT 10SM M 00/M05 A3005 RMK AO2 SLP220 T10031054 $,K1EM,2019-01-12T13:58:00Z,47.45,-109.42,-0.3,-5.4,0,0,,10.0,30.050198,1022.0,,TRUE,TRUE,TRUE,,,,,,,,,,,,,,,,,,,,,,,,,,METAR,1116.0
KGRK 121358Z AUTO 30009KT 9SM CLR 08/04 A3005 RMK AO2 SLP177 T00760042,KGRK,2019-01-12T13:58:00Z,31.07,-97.83,7.6,4.2,300,9,,9.0,30.050198,1017.7,,TRUE,TRUE,,,,,,,CLR,,,,,,,,VFR,,,,,,,,,,,,METAR,309.0
KHLR 121358Z AUTO 30008KT 10SM CLR 07/05 A3001 RMK AO2 SLP162 T00730051,KHLR,2019-01-12T13:58:00Z,31.13,-97.72,7.3,5.1,300,8,,10.0,30.008858,1016.2,,TRUE,TRUE,,,,,,,CLR,,,,,,,,VFR,,,,,,,,,,,,SPECI,283.0
KJES 121358Z AUTO 07005KT 10SM OVC055 11/07 A3032 RMK AO2,KJES,2019-01-12T13:58:00Z,31.55,-81.88,11.0,7.0,70,5,,10.0,30.318897,,,TRUE,TRUE,,,,,,,OVC,5500,,,,,,,VFR,,,,,,,,,,,,METAR,33.0
KHUA 121358Z AUTO 17008KT 8SM OVC021 08/M02 A3020 RMK AO2 OVC V BKN SLP230 T00761016,KHUA,2019-01-12T13:58:00Z,34.68,-86.68,7.6,-1.6,170,8,,8.0,30.200787,1023.0,,TRUE,TRUE,,,,,,,OVC,2100,,,,,,,MVFR,,,,,,,,,,,,METAR,209.0
KDMA 121358Z AUTO 13009KT 10SM CLR 06/01 A3007 RMK AO2 SLP174 T00560013 $,KDMA,2019-01-12T13:58:00Z,32.17,-110.87,5.6,1.3,130,9,,10.0,30.070866,1017.4,,TRUE,TRUE,TRUE,,,,,,CLR,,,,,,,,VFR,,,,,,,,,,,,METAR,824.0
KROG 121358Z 11006KT 6SM -RA BR OVC003 03/03 A2988 RMK AO2 RAB38 SLP124 P0000 T00330033,KROG,2019-01-12T13:58:00Z,36.37,-94.08,3.3,3.3,110,6,,6.0,29.878937,1012.4,,,TRUE,,,,,,-RA BR,OVC,300,,,,,,,LIFR,,,,,,0.005,,,,,,METAR,415.0
KT70 121358Z AUTO 31008KT 9SM CLR 10/10 A3006 RMK AO2 SLP177 T01010099 $,KT70,2019-01-12T13:58:00Z,29.12,-100.48,10.1,9.9,310,8,,9.0,30.059055,1017.7,,TRUE,TRUE,TRUE,,,,,,CLR,,,,,,,,VFR,,,,,,,,,,,,METAR,298.0
KSHV 121358Z 17004KT 3SM BR SCT003 BKN016 OVC027 09/09 A2994 RMK AO2 T00940094,KSHV,2019-01-12T13:58:00Z,32.45,-93.83,9.4,9.4,170,4,,3.0,29.940945,,,,TRUE,,,,,,BR,SCT,300,BKN,1600,OVC,2700,,,MVFR,,,,,,,,,,,,METAR,83.0
KAMN 121357Z AUTO 07005KT 10SM OVC050 M03/M07 A3045 RMK AO2,KAMN,2019-01-12T13:57:00Z,43.32,-84.68,-3.0,-7.0,70,5,,10.0,30.448818,,,TRUE,TRUE,,,,,,,OVC,5000,,,,,,,VFR,,,,,,,,,,,,METAR,230.0
KNSI 121357Z AUTO 23006KT 10SM OVC055 12/ A2998 RMK AO2 RAE16 SLP147 T0117 PNO $,KNSI,2019-01-12T13:57:00Z,33.22,-119.45,11.7,,230,6,,10.0,29.97933,1014.7,,TRUE,TRUE,TRUE,,,,,,OVC,5500,,,,,,,VFR,,,,,,,,,,,,SPECI,154.0
KNTD 121357Z 04009KT 3SM RA BR FEW009 BKN015 OVC028 11/09 A2999 RMK AO2 SLP156 VIS SE-SW 2 P0007 T01110089 $,KNTD,2019-01-12T13:57:00Z,34.12,-119.12,11.1,8.9,40,9,,3.0,29.991142,1015.6,,,TRUE,TRUE,,,,,RA BR,FEW,900,BKN,1500,OVC,2800,,,MVFR,,,,,,0.07,,,,,,SPECI,4.0
KNYL 121357Z AUTO 04005KT 10SM CLR 10/06 A3000 RMK AO2 SLP159 T01000056 $,KNYL,2019-01-12T13:57:00Z,32.63,-114.62,10.0,5.6,40,5,,10.0,30.0,1015.9,,TRUE,TRUE,TRUE,,,,,,CLR,,,,,,,,VFR,,,,,,,,,,,,SPECI,65.0
PHNG 121357Z 00000KT 10SM CLR 19/ A2998 RMK AO2 SLP148 T0189 $,PHNG,2019-01-12T13:57:00Z,21.43,-157.77,18.9,,0,0,,10.0,29.97933,1014.8,,,TRUE,TRUE,,,,,,CLR,,,,,,,,VFR,,,,,,,,,,,,SPECI,3.0
PAJC 121357Z AUTO 05010G19KT 030V090 8SM -RA OVC011 03/01 A2928 RMK AO2 UPB12E27 SLP916 P0002 T00280011,PAJC,2019-01-12T13:57:00Z,56.32,-158.37,2.8,1.1,50,10,19,8.0,29.279528,991.6,,TRUE,TRUE,,,,,,-RA,OVC,1100,,,,,,,MVFR,,,,,,0.02,,,,,,METAR,15.0
KEAR 121357Z AUTO 01016KT 9SM OVC007 M04/M06 A3018 RMK AO2 PK WND 36027/1329 SLP240 T10441061 FZRANO,KEAR,2019-01-12T13:57:00Z,40.72,-99.0,-4.4,-6.1,10,16,,9.0,30.180119,1024.0,,TRUE,TRUE,,,,TRUE,,,OVC,700,,,,,,,IFR,,,,,,,,,,,,METAR,649.0
KNJM 121357Z AUTO 04007KT 10SM 04/M01 A3048 RMK AO2 SLP325 T00441006 $,KNJM,2019-01-12T13:57:00Z,34.67,-77.02,4.4,-0.6,40,7,,10.0,30.481298,1032.5,,TRUE,TRUE,TRUE,,,,,,,,,,,,,,,,,,,,,,,,,,METAR,7.0
EQYG 121357Z AUTO 12009KT 10SM CLR 17/ A2965 RMK AO2 SLP035 T0167 $ ,EQYG,2019-01-12T13:57:00Z,,,16.7,,120,9,,10.0,29.648623,1003.5,,TRUE,TRUE,TRUE,,,,,,CLR,,,,,,,,VFR,,,,,,,,,,,,METAR,
KFLG 121357Z 03003KT 10SM CLR M10/M12 A3015 RMK AO2 SLP230 I1000 T11001122,KFLG,2019-01-12T13:57:00Z,35.13,-111.67,-10.0,-12.2,30,3,,10.0,30.15059,1023.0,,,TRUE,,,,,,,CLR,,,,,,,,VFR,,,,,,,,,,,,METAR,2134.0
KJHW 121356Z AUTO 04005KT 10SM OVC060 M09/M12 A3042 RMK AO2 SLP340 T10891122 FZRANO,KJHW,2019-01-12T13:56:00Z,42.13,-79.27,-8.9,-12.2,40,5,,10.0,30.41929,1034.0,,TRUE,TRUE,,,,TRUE,,,OVC,6000,,,,,,,VFR,,,,,,,,,,,,METAR,525.0
KGNR 121356Z AUTO 31020G29KT M19/M24 A3010 RMK AO1 PK WND 32032/1338 SLP235 T11891244,KGNR,2019-01-12T13:56:00Z,45.47,-69.55,-18.9,-24.4,310,20,29,,30.100393,1023.5,,TRUE,TRUE,,,,,,,,,,,,,,,,,,,,,,,,,,,METAR,427.0
KCVN 121356Z AUTO 36014KT 10SM OVC023 03/M01 A3015 RMK AO2 PK WND 36028/1301 SLP220 T00281011,KCVN,2019-01-12T13:56:00Z,34.42,-103.07,2.8,-1.1,360,14,,10.0,30.15059,1022.0,,TRUE,TRUE,,,,,,,OVC,2300,,,,,,,MVFR,,,,,,,,,,,,METAR,1284.0
KDIJ 121356Z AUTO 08004KT 7SM CLR M14/M16 A3023 RMK AO2 SLP312 T11441156,KDIJ,2019-01-12T13:56:00Z,43.75,-111.1,-14.4,-15.6,80,4,,7.0,30.230314,1031.2,,TRUE,TRUE,,,,,,,CLR,,,,,,,,VFR,,,,,,,,,,,,METAR,1899.0
KTPH 121356Z AUTO 36007KT 10SM CLR M04/M09 A3007 RMK AO2 SLP193 T10391089,KTPH,2019-01-12T13:56:00Z,38.05,-117.08,-3.9,-8.9,360,7,,10.0,30.070866,1019.3,,TRUE,TRUE,,,,,,,CLR,,,,,,,,VFR,,,,,,,,,,,,METAR,1652.0
KRDM 121356Z 00000KT 1/2SM FZFG VV002 M02/M04 A3006 RMK AO2 SLP202 T10171039,KRDM,2019-01-12T13:56:00Z,44.25,-121.15,-1.7,-3.9,0,0,,0.5,30.059055,1020.2,,,TRUE,,,,,,FZFG,OVX,0,,,,,,,LIFR,,,,,,,,,,,200,METAR,938.0
KASH 121356Z 30009KT 10SM CLR M10/M19 A3048 RMK AO2 SLP334 T11001189 $,KASH,2019-01-12T13:56:00Z,42.78,-71.52,-10.0,-18.9,300,9,,10.0,30.481298,1033.4,,,TRUE,TRUE,,,,,,CLR,,,,,,,,VFR,,,,,,,,,,,,METAR,61.0
KPAM 121356Z AUTO 09009KT 10SM CLR 11/09 A3019 RMK AO2 SLP226 T01120088 $,KPAM,2019-01-12T13:56:00Z,30.07,-85.57,11.2,8.8,90,9,,10.0,30.188976,1022.6,,TRUE,TRUE,TRUE,,,,,,CLR,,,,,,,,VFR,,,,,,,,,,,,METAR,5.0
KMML 121356Z AUTO 36008KT 10SM OVC019 M07/M09 A3031 RMK AO2 SLP287 T10721089 FZRANO,KMML,2019-01-12T13:56:00Z,44.45,-95.82,-7.2,-8.9,360,8,,10.0,30.31004,1028.7,,TRUE,TRUE,,,,TRUE,,,OVC,1900,,,,,,,MVFR,,,,,,,,,,,,METAR,359.0
KMNM 121356Z AUTO 09014KT 10SM OVC012 M02/M04 A3046 RMK AO2 UPE28 SLP339 P0000 T10221039 FZRANO $,KMNM,2019-01-12T13:56:00Z,45.12,-87.62,-2.2,-3.9,90,14,,10.0,30.46063,1033.9,,TRUE,TRUE,TRUE,,,TRUE,,,OVC,1200,,,,,,,MVFR,,,,,,0.005,,,,,,METAR,191.0
KMQY 121356Z 00000KT 10SM CLR 05/02 A3022 RMK AO2 SLP224 T00500022,KMQY,2019-01-12T13:56:00Z,36.02,-86.52,5.0,2.2,0,0,,10.0,30.221457,1022.4,,,TRUE,,,,,,,CLR,,,,,,,,VFR,,,,,,,,,,,,METAR,166.0
KMRF 121356Z AUTO 32005KT 10SM CLR M02/M04 A3020 RMK AO2 SLP228 T10221039 FZRANO,KMRF,2019-01-12T13:56:00Z,30.37,-104.02,-2.2,-3.9,320,5,,10.0,30.200787,1022.8,,TRUE,TRUE,,,,TRUE,,,CLR,,,,,,,,VFR,,,,,,,,,,,,METAR,1481.0
KMTW 121356Z AUTO 11010KT 10SM OVC025 00/M03 A3041 RMK AO2 SLP320 T00001033 FZRANO,KMTW,2019-01-12T13:56:00Z,44.12,-87.67,0.0,-3.3,110,10,,10.0,30.410433,1032.0,,TRUE,TRUE,,,,TRUE,,,OVC,2500,,,,,,,MVFR,,,,,,,,,,,,METAR,198.0
KMSV 121356Z AUTO 27004KT 10SM OVC060 M10/M13 A3045 RMK AO2 SLP342 T11001128 FZRANO,KMSV,2019-01-12T13:56:00Z,41.7,-74.78,-10.0,-12.8,270,4,,10.0,30.448818,1034.2,,TRUE,TRUE,,,,TRUE,,,OVC,6000,,,,,,,VFR,,,,,,,,,,,,METAR,428.0
KMVN 121356Z AUTO 10008KT 5SM BR OVC005 00/M01 A3016 RMK AO2 UPE21 SLP217 P0004 T00001006 FZRANO,KMVN,2019-01-12T13:56:00Z,38.32,-88.87,0.0,-0.6,100,8,,5.0,30.159449,1021.7,,TRUE,TRUE,,,,TRUE,,BR,OVC,500,,,,,,,IFR,,,,,,0.04,,,,,,METAR,146.0
KMYR 121356Z 02009KT 10SM OVC025 05/M02 A3045 RMK AO2 SLP311 T00501017,KMYR,2019-01-12T13:56:00Z,33.67,-78.92,5.0,-1.7,20,9,,10.0,30.448818,1031.1,,,TRUE,,,,,,,OVC,2500,,,,,,,MVFR,,,,,,,,,,,,METAR,8.0
KDVL 121356Z AUTO 04004KT 10SM BKN006 OVC019 M11/M12 A3040 RMK AO2 SLP344 T11111122 FZRANO,KDVL,2019-01-12T13:56:00Z,48.12,-98.92,-11.1,-12.2,40,4,,10.0,30.398623,1034.4,,TRUE,TRUE,,,,TRUE,,,BKN,600,OVC,1900,,,,,IFR,,,,,,,,,,,,METAR,443.0
KOAJ 121356Z 05006KT 10SM BKN110 02/M02 A3048 RMK AO2 SLP328 T00221022,KOAJ,2019-01-12T13:56:00Z,34.82,-77.62,2.2,-2.2,50,6,,10.0,30.481298,1032.8,,,TRUE,,,,,,,BKN,11000,,,,,,,VFR,,,,,,,,,,,,METAR,29.0
KDWU 121356Z AUTO 07003KT 10SM UP OVC029 M01/M04 A3037 RMK AO2 SLP293 T10061044 FZRANO PNO $,KDWU,2019-01-12T13:56:00Z,38.55,-82.73,-0.6,-4.4,70,3,,10.0,30.369095,1029.3,,TRUE,TRUE,TRUE,,,TRUE,,UP,OVC,2900,,,,,,,MVFR,,,,,,,,,,,,METAR,166.0
KDYR 121356Z AUTO 08008KT 10SM BKN100 04/01 A3009 RMK AO2 SLP205 T00390011 PNO $,KDYR,2019-01-12T13:56:00Z,36.0,-89.4,3.9,1.1,80,8,,10.0,30.088583,1020.5,,TRUE,TRUE,TRUE,,,,,,BKN,10000,,,,,,,VFR,,,,,,,,,,,,METAR,103.0
KSFO 121356Z 00000KT 10SM FEW050 BKN060 OVC095 14/09 A2994 RMK AO2 SLP137 T01390089 $,KSFO,2019-01-12T13:56:00Z,37.62,-122.37,13.9,8.9,0,0,,10.0,29.940945,1013.7,,,TRUE,TRUE,,,,,,FEW,5000,BKN,6000,OVC,9500,,,VFR,,,,,,,,,,,,METAR,3.0
KNMM 121356Z AUTO 09006KT 10SM BKN034 OVC047 08/02 A3014 RMK AO2 SLP217 T00780022 CHINO SOUTH VISNO SOUTH $,KNMM,2019-01-12T13:56:00Z,32.53,-88.57,7.8,2.2,90,6,,10.0,30.138779,1021.7,,TRUE,TRUE,TRUE,,,,,,BKN,3400,OVC,4700,,,,,VFR,,,,,,,,,,,,METAR,97.0
KBMI 121356Z 08011KT 1/4SM R20/2600V3500FT SN FZFG OVC009 M02/M03 A3024 RMK AO2 CIG 006V010 SLP248 P0002 T10221028,KBMI,2019-01-12T13:56:00Z,40.47,-88.92,-2.2,-2.8,80,11,,0.25,30.239174,1024.8,,,TRUE,,,,,,SN FZFG,OVC,900,,,,,,,LIFR,,,,,,0.02,,,,,,METAR,267.0
KBOK 121356Z AUTO 10004KT 10SM OVC014 11/09 A2992 RMK AO2 RAB06E26 SLP146 P0000 T01060094,KBOK,2019-01-12T13:56:00Z,42.07,-124.28,10.6,9.4,100,4,,10.0,29.920275,1014.6,,TRUE,TRUE,,,,,,,OVC,1400,,,,,,,MVFR,,,,,,0.005,,,,,,METAR,140.0
KOCH 121356Z AUTO 00000KT 1/2SM FG OVC002 11/11 A2997 RMK AO2 SLP153 T01110111 RVRNO,KOCH,2019-01-12T13:56:00Z,31.57,-94.72,11.1,11.1,0,0,,0.5,29.970472,1015.3,,TRUE,TRUE,,,,,,FG,OVC,200,,,,,,,LIFR,,,,,,,,,,,,METAR,108.0
KGPZ 121356Z AUTO 04003KT 3SM -SN BR BKN007 OVC015 M06/M07 A3042 RMK AO2 UPE36SNB36 CIG 005V010 SLP327 P0000 T10561067 FZRANO,KGPZ,2019-01-12T13:56:00Z,47.22,-93.52,-5.6,-6.7,40,3,,3.0,30.41929,1032.7,,TRUE,TRUE,,,,TRUE,,-SN BR,BKN,700,OVC,1500,,,,,IFR,,,,,,0.005,,,,,,METAR,413.0
KGDV 121356Z AUTO 00000KT 1/4SM -SN FZFG OVC002 M10/M12 A3024 RMK AO2 SNE22B48 SLP288 P0000 T11001117 FZRANO,KGDV,2019-01-12T13:56:00Z,47.12,-104.78,-10.0,-11.7,0,0,,0.25,30.239174,1028.8,,TRUE,TRUE,,,,TRUE,,-SN FZFG,OVC,200,,,,,,,LIFR,,,,,,0.005,,,,,,METAR,749.0
KGAI 121356Z AUTO 12004KT 10SM CLR M02/M08 A3052 RMK AO2 SLP371 T10221083 FZRANO,KGAI,2019-01-12T13:56:00Z,39.17,-77.17,-2.2,-8.3,120,4,,10.0,30.519686,1037.1,,TRUE,TRUE,,,,TRUE,,,CLR,,,,,,,,VFR,,,,,,,,,,,,METAR,165.0
KFRM 121356Z AUTO 04005KT 7SM OVC032 M04/M05 A3027 RMK AO2 SLP272 T10391050 FZRANO,KFRM,2019-01-12T13:56:00Z,43.63,-94.42,-3.9,-5.0,40,5,,7.0,30.268702,1027.2,,TRUE,TRUE,,,,TRUE,,,OVC,3200,,,,,,,VFR,,,,,,,,,,,,METAR,354.0
KFOD 121356Z AUTO 04006KT 7SM OVC016 M02/M03 A3021 RMK AO2 SLP274 T10221033 FZRANO,KFOD,2019-01-12T13:56:00Z,42.53,-94.17,-2.2,-3.3,40,6,,7.0,30.209646,1027.4,,TRUE,TRUE,,,,TRUE,,,OVC,1600,,,,,,,MVFR,,,,,,,,,,,,METAR,355.0
KFNL 121356Z AUTO 18003KT 10SM BKN043 OVC080 M01/M02 A3020 RMK AO2 SLP242 T10061017 FZRANO PNO $,KFNL,2019-01-12T13:56:00Z,40.45,-105.02,-0.6,-1.7,180,3,,10.0,30.200787,1024.2,,TRUE,TRUE,TRUE,,,TRUE,,,BKN,4300,OVC,8000,,,,,VFR,,,,,,,,,,,,METAR,1529.0
KFLP 121356Z AUTO 10005KT 3SM -RA BR OVC005 01/01 A2998 RMK AO2 SLP157 P0001 T00110006 FZRANO,KFLP,2019-01-12T13:56:00Z,36.28,-92.58,1.1,0.6,100,5,,3.0,29.97933,1015.7,,TRUE,TRUE,,,,TRUE,,-RA BR,OVC,500,,,,,,,IFR,,,,,,0.01,,,,,,METAR,219.0
KEAU 121356Z 06008KT 7SM OVC055 M04/M07 A3034 RMK AO2 SLP288 T10391067,KEAU,2019-01-12T13:56:00Z,44.87,-91.47,-3.9,-6.7,60,8,,7.0,30.339567,1028.8,,,TRUE,,,,,,,OVC,5500,,,,,,,VFR,,,,,,,,,,,,METAR,276.0
KFKL 121356Z AUTO 06005KT 10SM OVC090 M08/M11 A3040 RMK AO2 SLP324 T10831106 FZRANO,KFKL,2019-01-12T13:56:00Z,41.37,-79.87,-8.3,-10.6,60,5,,10.0,30.398623,1032.4,,TRUE,TRUE,,,,TRUE,,,OVC,9000,,,,,,,VFR,,,,,,,,,,,,METAR,469.0
KSLE 121356Z AUTO 12003KT 10SM CLR 01/M01 A2994 RMK AO2 SLP139 T00111011,KSLE,2019-01-12T13:56:00Z,44.9,-123.0,1.1,-1.1,120,3,,10.0,29.940945,1013.9,,TRUE,TRUE,,,,,,,CLR,,,,,,,,VFR,,,,,,,,,,,,METAR,59.0
KOLU 121356Z AUTO 35011G20KT 9SM OVC008 M04/M06 A3021 RMK AO2 SLP249 T10391056 FZRANO,KOLU,2019-01-12T13:56:00Z,41.45,-97.32,-3.9,-5.6,350,11,20,9.0,30.209646,1024.9,,TRUE,TRUE,,,,TRUE,,,OVC,800,,,,,,,IFR,,,,,,,,,,,,METAR,440.0
KBTP 121356Z AUTO 06006KT 10SM CLR M06/M11 A3040 RMK AO2 SLP322 T10611106 FZRANO,KBTP,2019-01-12T13:56:00Z,40.77,-79.95,-6.1,-10.6,60,6,,10.0,30.398623,1032.2,,TRUE,TRUE,,,,TRUE,,,CLR,,,,,,,,VFR,,,,,,,,,,,,METAR,380.0
KLWS 121356Z AUTO 09007KT 10SM CLR 01/M02 A3017 RMK AO2 SLP228 T00061022,KLWS,2019-01-12T13:56:00Z,46.37,-117.02,0.6,-2.2,90,7,,10.0,30.171259,1022.8,,TRUE,TRUE,,,,,,,CLR,,,,,,,,VFR,,,,,,,,,,,,METAR,438.0
KAUO 121356Z AUTO 10009G16KT 10SM OVC032 07/M02 A3025 RMK AO2 SLP271 T00671017,KAUO,2019-01-12T13:56:00Z,32.62,-85.42,6.7,-1.7,100,9,16,10.0,30.250984,1027.1,,TRUE,TRUE,,,,,,,OVC,3200,,,,,,,VFR,,,,,,,,,,,,METAR,236.0
KNUQ 121356Z AUTO 00000KT 10SM SCT060 BKN075 OVC110 11/09 A2995 RMK AO2 SLP145 T01110094,KNUQ,2019-01-12T13:56:00Z,37.4,-122.05,11.1,9.4,0,0,,10.0,29.949802,1014.5,,TRUE,TRUE,,,,,,,SCT,6000,BKN,7500,OVC,11000,,,VFR,,,,,,,,,,,,METAR,12.0
KHNB 121356Z AUTO 10007KT 6SM BR BKN070 OVC085 01/M01 A3023 RMK AO2 UPE28RAB28E39 SLP242 P0000 T00061006 FZRANO,KHNB,2019-01-12T13:56:00Z,38.25,-86.95,0.6,-0.6,100,7,,6.0,30.230314,1024.2,,TRUE,TRUE,,,,TRUE,,BR,BKN,7000,OVC,8500,,,,,VFR,,,,,,0.005,,,,,,METAR,161.0
KHND 121356Z 15007KT 10SM CLR 03/M02 A3012 RMK AO2 SLP206 T00281022 $,KHND,2019-01-12T13:56:00Z,35.98,-115.13,2.8,-2.2,150,7,,10.0,30.121063,1020.6,,,TRUE,TRUE,,,,,,CLR,,,,,,,,VFR,,,,,,,,,,,,METAR,749.0
KHYS 121356Z AUTO 36017KT 2 1/2SM -SN BR OVC012 M01/M02 A3011 RMK AO2 SLP216 P0000 T10111022 FZRANO,KHYS,2019-01-12T13:56:00Z,38.85,-99.27,-1.1,-2.2,360,17,,2.5,30.109253,1021.6,,TRUE,TRUE,,,,TRUE,,-SN BR,OVC,1200,,,,,,,IFR,,,,,,0.005,,,,,,METAR,609.0
KHYI 121356Z 31009KT 10SM -DZ CLR 12/11 A3005 RMK AO2 SLP172 P0000 T01170106,KHYI,2019-01-12T13:56:00Z,29.88,-97.87,11.7,10.6,310,9,,10.0,30.050198,1017.2,,,TRUE,,,,,,-DZ,CLR,,,,,,,,VFR,,,,,,0.005,,,,,,METAR,182.0
KEHR 121356Z AUTO 08009KT 5SM BR BKN095 01/00 A3020 RMK AO2 SLP238 T00060000 FZRANO,KEHR,2019-01-12T13:56:00Z,37.82,-87.67,0.6,0.0,80,9,,5.0,30.200787,1023.8,,TRUE,TRUE,,,,TRUE,,BR,BKN,9500,,,,,,,MVFR,,,,,,,,,,,,METAR,117.0
KEGE 121356Z 00000KT 9SM -SN OVC005 M05/M06 A3021 RMK AO2 SNB26 CIG 003V007 SLP277 P0000 T10501061 FZRANO,KEGE,2019-01-12T13:56:00Z,39.63,-106.92,-5.0,-6.1,0,0,,9.0,30.209646,1027.7,,,TRUE,,,,TRUE,,-SN,OVC,500,,,,,,,IFR,,,,,,0.005,,,,,,METAR,1993.0
KEEN 121356Z AUTO 00000KT 10SM CLR M14/M16 A3049 RMK AO2 SLP346 T11391161 FZRANO $,KEEN,2019-01-12T13:56:00Z,42.88,-72.27,-13.9,-16.1,0,0,,10.0,30.490158,1034.6,,TRUE,TRUE,TRUE,,,TRUE,,,CLR,,,,,,,,VFR,,,,,,,,,,,,METAR,149.0
KEKY 121356Z AUTO 15009KT 10SM OVC018 08/01 A3021 RMK AO2 SLP250 T00830011,KEKY,2019-01-12T13:56:00Z,33.32,-86.93,8.3,1.1,150,9,,10.0,30.209646,1025.0,,TRUE,TRUE,,,,,,,OVC,1800,,,,,,,MVFR,,,,,,,,,,,,METAR,213.0
KESC 121356Z AUTO 05007KT 9SM -SN OVC033 M06/M08 A3051 RMK AO2 SLP359 P0000 T10611078 FZRANO,KESC,2019-01-12T13:56:00Z,45.75,-87.08,-6.1,-7.8,50,7,,9.0,30.510826,1035.9,,TRUE,TRUE,,,,TRUE,,-SN,OVC,3300,,,,,,,VFR,,,,,,0.005,,,,,,METAR,187.0
KAND 121356Z AUTO 07008KT 10SM OVC040 03/M06 A3040 RMK AO2 SLP297 T00331061,KAND,2019-01-12T13:56:00Z,34.5,-82.72,3.3,-6.1,70,8,,10.0,30.398623,1029.7,,TRUE,TRUE,,,,,,,OVC,4000,,,,,,,VFR,,,,,,,,,,,,METAR,239.0
KBIH 121356Z AUTO 31003KT 10SM CLR M03/M06 A3003 RMK AO2 SLP165 T10281061,KBIH,2019-01-12T13:56:00Z,37.37,-118.35,-2.8,-6.1,310,3,,10.0,30.029528,1016.5,,TRUE,TRUE,,,,,,,CLR,,,,,,,,VFR,,,,,,,,,,,,METAR,1253.0
KBJJ 121356Z AUTO 11004KT 10SM OVC095 M04/M08 A3040 RMK AO2 SLP312 T10441083,KBJJ,2019-01-12T13:56:00Z,40.87,-81.88,-4.4,-8.3,110,4,,10.0,30.398623,1031.2,,TRUE,TRUE,,,,,,,OVC,9500,,,,,,,VFR,,,,,,,,,,,,METAR,343.0
KINW 121356Z AUTO 22007KT 10SM CLR M06/M08 A3019 RMK AO2 SLP247 T10611078,KINW,2019-01-12T13:56:00Z,35.03,-110.72,-6.1,-7.8,220,7,,10.0,30.188976,1024.7,,TRUE,TRUE,,,,,,,CLR,,,,,,,,VFR,,,,,,,,,,,,METAR,1490.0
KFCI 121356Z AUTO 00000KT 10SM OVC100 00/M06 A3054 RMK AO2 SLP360 T00001061 FZRANO,KFCI,2019-01-12T13:56:00Z,37.4,-77.52,0.0,-6.1,0,0,,10.0,30.540354,1036.0,,TRUE,TRUE,,,,TRUE,,,OVC,10000,,,,,,,VFR,,,,,,,,,,,,METAR,72.0
KEKQ 121356Z AUTO 28004KT 10SM SCT070 OVC090 02/M01 A3028 RMK AO2 RAE1259 SLP281 T00221006 PNO $,KEKQ,2019-01-12T13:56:00Z,36.85,-84.85,2.2,-0.6,280,4,,10.0,30.280512,1028.1,,TRUE,TRUE,TRUE,,,,,,SCT,7000,OVC,9000,,,,,VFR,,,,,,,,,,,,METAR,294.0
KFAM 121356Z AUTO 11005KT 1 1/2SM -SN BR BKN004 BKN010 OVC030 00/M01 A3007 RMK AO2 VIS 1V2 1/2 UPB20E24SNB24 SLP192 P0001 T00001006 FZRANO,KFAM,2019-01-12T13:56:00Z,37.77,-90.42,0.0,-0.6,110,5,,1.5,30.070866,1019.2,,TRUE,TRUE,,,,TRUE,,-SN BR,BKN,400,BKN,1000,OVC,3000,,,LIFR,,,,,,0.01,,,,,,METAR,288.0
KGTR 121356Z 12011KT 10SM BKN038 BKN045 OVC070 08/01 A3013 RMK AO2 SLP206 T00830011,KGTR,2019-01-12T13:56:00Z,33.45,-88.57,8.3,1.1,120,11,,10.0,30.129921,1020.6,,,TRUE,,,,,,,BKN,3800,BKN,4500,OVC,7000,,,VFR,,,,,,,,,,,,METAR,80.0
KGTU 121356Z 31009KT 10SM CLR 09/06 A3007 RMK AO2 SLP185 T00890056,KGTU,2019-01-12T13:56:00Z,30.68,-97.68,8.9,5.6,310,9,,10.0,30.070866,1018.5,,,TRUE,,,,,,,CLR,,,,,,,,VFR,,,,,,,,,,,,METAR,240.0
K1M4 121356Z AUTO 14004KT 10SM SCT033 OVC100 07/00 A3021 RMK AO2 SLP251 T00670000,K1M4,2019-01-12T13:56:00Z,34.28,-87.6,6.7,0.0,140,4,,10.0,30.209646,1025.1,,TRUE,TRUE,,,,,,,SCT,3300,OVC,10000,,,,,VFR,,,,,,,,,,,,METAR,284.0
KNLC 121356Z AUTO 29007KT 7SM -RA BKN070 OVC095 09/08 A2995 RMK AO2 RAB50 SLP142 P0000 T00890078,KNLC,2019-01-12T13:56:00Z,36.32,-119.95,8.9,7.8,290,7,,7.0,29.949802,1014.2,,TRUE,TRUE,,,,,,-RA,BKN,7000,OVC,9500,,,,,VFR,,,,,,0.005,,,,,,METAR,72.0
KEUL 121356Z AUTO 06008KT 1 1/4SM BR CLR M03/M05 A3025 RMK AO2 SLP264 T10331050 FZRANO $,KEUL,2019-01-12T13:56:00Z,43.62,-116.62,-3.3,-5.0,60,8,,1.25,30.250984,1026.4,,TRUE,TRUE,TRUE,,,TRUE,,BR,CLR,,,,,,,,IFR,,,,,,,,,,,,METAR,740.0
TJSJ 121356Z 08004KT 10SM FEW029 SCT060 26/22 A3010 RMK AO2 SLP190 T02610217 $,TJSJ,2019-01-12T13:56:00Z,18.43,-66.02,26.1,21.7,80,4,,10.0,30.100393,1019.0,,,TRUE,TRUE,,,,,,FEW,2900,SCT,6000,,,,,VFR,,,,,,,,,,,,METAR,21.0
KGVQ 121356Z AUTO 08003KT 10SM OVC080 M07/M12 A3052 RMK AO2 SLP369 T10721117 FZRANO,KGVQ,2019-01-12T13:56:00Z,43.03,-78.17,-7.2,-11.7,80,3,,10.0,30.519686,1036.9,,TRUE,TRUE,,,,TRUE,,,OVC,8000,,,,,,,VFR,,,,,,,,,,,,METAR,278.0
KM19 121356Z AUTO 07005KT 6SM -RA BR OVC024 03/03 A3003 RMK AO2 SLP176 P0004 T00330028,KM19,2019-01-12T13:56:00Z,35.65,-91.17,3.3,2.8,70,5,,6.0,30.029528,1017.6,,TRUE,TRUE,,,,,,-RA BR,OVC,2400,,,,,,,MVFR,,,,,,0.04,,,,,,METAR,73.0
KVOK 121356Z 09006KT 10SM FEW019 OVC060 M02/M04 A3035 RMK AO2A SLPNO ALSTG ESTMD,KVOK,2019-01-12T13:56:00Z,43.92,-90.27,-2.0,-4.0,90,6,,10.0,30.351377,,,,TRUE,,,,,,,FEW,1900,OVC,6000,,,,,VFR,,,,,,,,,,,,METAR,277.0
K7N0 121356Z AUTO 16009G15KT 110V190 10SM CLR 16/13 A3004 RMK AO2 SLP173 T01560133,K7N0,2019-01-12T13:56:00Z,29.95,-90.07,15.6,13.3,160,9,15,10.0,30.041338,1017.3,,TRUE,TRUE,,,,,,,CLR,,,,,,,,VFR,,,,,,,,,,,,METAR,0.0
KAFJ 121356Z AUTO 05003KT 10SM OVC085 M04/M08 A3041 RMK AO2 SLP316 T10391078 FZRANO,KAFJ,2019-01-12T13:56:00Z,40.12,-80.27,-3.9,-7.8,50,3,,10.0,30.410433,1031.6,,TRUE,TRUE,,,,TRUE,,,OVC,8500,,,,,,,VFR,,,,,,,,,,,,METAR,361.0
KADF 121356Z AUTO 00000KT 10SM OVC008 05/05 A2997 RMK AO2 RAE1258 SLP152 P0000 T00500050,KADF,2019-01-12T13:56:00Z,34.1,-93.07,5.0,5.0,0,0,,10.0,29.970472,1015.2,,TRUE,TRUE,,,,,,,OVC,800,,,,,,,IFR,,,,,,0.005,,,,,,METAR,56.0
KGRD 121356Z AUTO 04006KT 10SM OVC043 02/M04 A3042 RMK AO2 SLP305 T00221044,KGRD,2019-01-12T13:56:00Z,34.25,-82.15,2.2,-4.4,40,6,,10.0,30.41929,1030.5,,TRUE,TRUE,,,,,,,OVC,4300,,,,,,,VFR,,,,,,,,,,,,METAR,185.0
KJXN 121356Z 07007KT 9SM OVC075 M03/M06 A3039 RMK AO2 SLP306 T10281061,KJXN,2019-01-12T13:56:00Z,42.27,-84.47,-2.8,-6.1,70,7,,9.0,30.389763,1030.6,,,TRUE,,,,,,,OVC,7500,,,,,,,VFR,,,,,,,,,,,,METAR,305.0
KAJO 121356Z AUTO 10SM -RA RMK AO2 UPB49E50 SLPNO P0004 FZRANO $,KAJO,2019-01-12T13:56:00Z,33.9,-117.6,,,,,,10.0,,,,TRUE,TRUE,TRUE,,,TRUE,,-RA,,,,,,,,,,,,,,,0.04,,,,,,METAR,163.0
KLRD 121356Z 00000KT 6SM CLR 11/10 A3007 RMK AO2 SLP197 T01060100,KLRD,2019-01-12T13:56:00Z,27.55,-99.47,10.6,10.0,0,0,,6.0,30.070866,1019.7,,,TRUE,,,,,,,CLR,,,,,,,,VFR,,,,,,,,,,,,METAR,155.0
KLPC 121356Z AUTO 13006KT 10SM RA BKN070 OVC080 10/09 A2996 RMK AO2 RAE13B29 SLP148 P0002 T01000089,KLPC,2019-01-12T13:56:00Z,34.67,-120.47,10.0,8.9,130,6,,10.0,29.958662,1014.8,,TRUE,TRUE,,,,,,RA,BKN,7000,OVC,8000,,,,,VFR,,,,,,0.02,,,,,,METAR,27.0
KBLV 121356Z 09010KT 9SM OVC005 00/M01 A3015 RMK AO2A UPB1256E1259UPB02E12UPB16E26FZRAB26E36DZB36E37FZDZB37E40 CIG 000 RWY14R SLPNO P0001 T00011008 $,KBLV,2019-01-12T13:56:00Z,38.53,-89.83,0.1,-0.8,90,10,,9.0,30.15059,,,,TRUE,TRUE,,,,,,OVC,500,,,,,,,IFR,,,,,,0.01,,,,,,METAR,138.0
KJAX 121356Z 03004KT 10SM FEW025 BKN060 BKN250 13/12 A3027 RMK AO2 SLP252 T01330122,KJAX,2019-01-12T13:56:00Z,30.5,-81.68,13.3,12.2,30,4,,10.0,30.268702,1025.2,,,TRUE,,,,,,,FEW,2500,BKN,6000,BKN,25000,,,VFR,,,,,,,,,,,,METAR,10.0
KNQI 121356Z AUTO 06003KT M1/4SM FG VV002 12/12 A3007 RMK AO2 SLP178 T01220122,KNQI,2019-01-12T13:56:00Z,27.5,-97.82,12.2,12.2,60,3,,0.25,30.070866,1017.8,,TRUE,TRUE,,,,,,FG,OVX,0,,,,,,,LIFR,,,,,,,,,,,200,METAR,15.0
KMBL 121356Z AUTO 08009KT 10SM BKN045 OVC060 M04/M06 A3044 RMK AO2 SLP329 T10391061 FZRANO,KMBL,2019-01-12T13:56:00Z,44.27,-86.25,-3.9,-6.1,80,9,,10.0,30.43996,1032.9,,TRUE,TRUE,,,,TRUE,,,BKN,4500,OVC,6000,,,,,VFR,,,,,,,,,,,,METAR,189.0
KARG 121356Z AUTO 07009KT 3SM -RA BR BKN041 OVC060 02/02 A3002 RMK AO2 SLP171 P0008 T00220017 FZRANO,KARG,2019-01-12T13:56:00Z,36.12,-90.92,2.2,1.7,70,9,,3.0,30.02067,1017.1,,TRUE,TRUE,,,,TRUE,,-RA BR,BKN,4100,OVC,6000,,,,,MVFR,,,,,,0.08,,,,,,METAR,83.0
KMJX 121356Z AUTO 01006KT 10SM CLR M06/M13 A3057 RMK AO2 SLP358 T10561128 FZRANO,KMJX,2019-01-12T13:56:00Z,39.93,-74.3,-5.6,-12.8,10,6,,10.0,30.569881,1035.8,,TRUE,TRUE,,,,TRUE,,,CLR,,,,,,,,VFR,,,,,,,,,,,,METAR,25.0
KMKT 121356Z AUTO 06007KT 9SM OVC032 M03/M06 A3029 RMK AO2 SLP274 T10331056 FZRANO,KMKT,2019-01-12T13:56:00Z,44.22,-93.92,-3.3,-5.6,60,7,,9.0,30.28937,1027.4,,TRUE,TRUE,,,,TRUE,,,OVC,3200,,,,,,,VFR,,,,,,,,,,,,METAR,311.0
KMKY 121356Z AUTO 07006KT 10SM FEW050 18/14 A3019 RMK AO2 SLP224 T01830144,KMKY,2019-01-12T13:56:00Z,26.0,-81.67,18.3,14.4,70,6,,10.0,30.188976,1022.4,,TRUE,TRUE,,,,,,,FEW,5000,,,,,,,VFR,,,,,,,,,,,,METAR,2.0
RJTY 121356Z AUTO 00000KT 10SM OVC045 04/02 A3009 RMK AO2 SLP200 T00440024 FZRANO $,RJTY,2019-01-12T13:56:00Z,35.75,139.33,4.4,2.4,0,0,,10.0,30.088583,1020.0,,TRUE,TRUE,TRUE,,,TRUE,,,OVC,4500,,,,,,,VFR,,,,,,,,,,,,METAR,139.0
KSVN 121356Z AUTO 05006KT 10SM OVC060 09/06 A3032 RMK AO2 SLP271 T00890056 FZRANO $,KSVN,2019-01-12T13:56:00Z,32.02,-81.15,8.9,5.6,50,6,,10.0,30.318897,1027.1,,TRUE,TRUE,TRUE,,,TRUE,,,OVC,6000,,,,,,,VFR,,,,,,,,,,,,METAR,13.0
KXMR 121356Z AUTO 11010KT 10SM SCT060 22/12 A3023 RMK AO2 SLP240 T02150118 $,KXMR,2019-01-12T13:56:00Z,28.47,-80.57,21.5,11.8,110,10,,10.0,30.230314,1024.0,,TRUE,TRUE,TRUE,,,,,,SCT,6000,,,,,,,VFR,,,,,,,,,,,,METAR,3.0
KBHB 121356Z AUTO 29012G18KT 270V330 10SM CLR M13/M20 A3029 RMK AO2 SLP261 T11281200 FZRANO $,KBHB,2019-01-12T13:56:00Z,44.45,-68.37,-12.8,-20.0,290,12,18,10.0,30.28937,1026.1,,TRUE,TRUE,TRUE,,,TRUE,,,CLR,,,,,,,,VFR,,,,,,,,,,,,METAR,26.0
KBLM 121356Z AUTO 31006KT 10SM CLR M05/M13 A3056 RMK AO2 SLP354 T10501128 FZRANO,KBLM,2019-01-12T13:56:00Z,40.17,-74.12,-5.0,-12.8,310,6,,10.0,30.561024,1035.4,,TRUE,TRUE,,,,TRUE,,,CLR,,,,,,,,VFR,,,,,,,,,,,,METAR,48.0
KBKX 121356Z AUTO 03005KT 7SM OVC009 M07/M08 A3027 RMK AO2 CIG 008V011 SLP294 T10721083 FZRANO,KBKX,2019-01-12T13:56:00Z,44.28,-96.82,-7.2,-8.3,30,5,,7.0,30.268702,1029.4,,TRUE,TRUE,,,,TRUE,,,OVC,900,,,,,,,IFR,,,,,,,,,,,,METAR,502.0
KBID 121356Z AUTO 32010KT 10SM BKN085 BKN120 M06/M13 A3051 RMK AO2 SLP338 T10561128 FZRANO,KBID,2019-01-12T13:56:00Z,41.17,-71.58,-5.6,-12.8,320,10,,10.0,30.510826,1033.8,,TRUE,TRUE,,,,TRUE,,,BKN,8500,BKN,12000,,,,,VFR,,,,,,,,,,,,METAR,33.0
KRKD 121356Z AUTO 29015G21KT 10SM CLR M13/M20 A3033 RMK AO2 SLP273 T11331200 FZRANO,KRKD,2019-01-12T13:56:00Z,44.07,-69.08,-13.3,-20.0,290,15,21,10.0,30.33071,1027.3,,TRUE,TRUE,,,,TRUE,,,CLR,,,,,,,,VFR,,,,,,,,,,,,METAR,17.0
KRUT 121356Z AUTO 00000KT 10SM CLR M16/M19 A3049 RMK AO2 SLP348 T11611194 FZRANO $,KRUT,2019-01-12T13:56:00Z,43.52,-72.95,-16.1,-19.4,0,0,,10.0,30.490158,1034.8,,TRUE,TRUE,TRUE,,,TRUE,,,CLR,,,,,,,,VFR,,,,,,,,,,,,METAR,240.0
KHEZ 121356Z AUTO 14011G17KT 10SM -RA SCT008 SCT028 OVC044 11/11 A2999 RMK AO2 SLP160 P0006 T01110106,KHEZ,2019-01-12T13:56:00Z,31.62,-91.3,11.1,10.6,140,11,17,10.0,29.991142,1016.0,,TRUE,TRUE,,,,,,-RA,SCT,800,SCT,2800,OVC,4400,,,VFR,,,,,,0.06,,,,,,METAR,83.0
KHEF 121356Z 00000KT 10SM SCT070 BKN085 OVC110 M02/M05 A3055 RMK AO2 SLP357 T10221050 PNO $,KHEF,2019-01-12T13:56:00Z,38.72,-77.52,-2.2,-5.0,0,0,,10.0,30.549213,1035.7,,,TRUE,TRUE,,,,,,SCT,7000,BKN,8500,OVC,11000,,,VFR,,,,,,,,,,,,METAR,59.0
KHDN 121356Z AUTO 14005KT 10SM OVC005 M05/M06 A3022 RMK AO2 SLP269 T10501061 FZRANO,KHDN,2019-01-12T13:56:00Z,40.47,-107.22,-5.0,-6.1,140,5,,10.0,30.221457,1026.9,,TRUE,TRUE,,,,TRUE,,,OVC,500,,,,,,,IFR,,,,,,,,,,,,METAR,2012.0
KGXY 121356Z AUTO 29003KT 10SM OVC080 00/M02 A3020 RMK AO2 SLP259 T00001017 FZRANO,KGXY,2019-01-12T13:56:00Z,40.42,-104.62,0.0,-1.7,290,3,,10.0,30.200787,1025.9,,TRUE,TRUE,,,,TRUE,,,OVC,8000,,,,,,,VFR,,,,,,,,,,,,METAR,1420.0
KLGD 121356Z AUTO 16012G18KT 10SM CLR 02/M03 A3017 RMK AO2 SLP348 T00171028 FZRANO,KLGD,2019-01-12T13:56:00Z,45.27,-118.0,1.7,-2.8,160,12,18,10.0,30.171259,1034.8,,TRUE,TRUE,,,,TRUE,,,CLR,,,,,,,,VFR,,,,,,,,,,,,METAR,827.0
KLEW 121356Z AUTO 32011KT 10SM CLR M12/M20 A3036 RMK AO2 SLP299 T11221200 FZRANO,KLEW,2019-01-12T13:56:00Z,44.03,-70.27,-12.2,-20.0,320,11,,10.0,30.360237,1029.9,,TRUE,TRUE,,,,TRUE,,,CLR,,,,,,,,VFR,,,,,,,,,,,,METAR,88.0
KLCI 121356Z AUTO 28007KT 10SM CLR M12/M19 A3042 RMK AO2 SLP321 T11221194 FZRANO $,KLCI,2019-01-12T13:56:00Z,43.57,-71.42,-12.2,-19.4,280,7,,10.0,30.41929,1032.1,,TRUE,TRUE,TRUE,,,TRUE,,,CLR,,,,,,,,VFR,,,,,,,,,,,,METAR,166.0
KLBL 121356Z AUTO 34018KT 10SM OVC009 M01/M01 A3011 RMK AO2 UPB21E56SNE21 SLP217 P0000 T10061011 FZRANO,KLBL,2019-01-12T13:56:00Z,37.03,-100.97,-0.6,-1.1,340,18,,10.0,30.109253,1021.7,,TRUE,TRUE,,,,TRUE,,,OVC,900,,,,,,,IFR,,,,,,0.005,,,,,,METAR,879.0
KJRB 121356Z AUTO 26006KT 10SM OVC085 M04/M11 A3056 RMK AO2 SLP349 T10391106 FZRANO,KJRB,2019-01-12T13:56:00Z,40.7,-74.02,-3.9,-10.6,260,6,,10.0,30.561024,1034.9,,TRUE,TRUE,,,,TRUE,,,OVC,8500,,,,,,,VFR,,,,,,,,,,,,METAR,7.0
KJAC 121356Z 01003KT 10SM OVC011 M14/M16 A3028 RMK AO2 SLP364 T11441161,KJAC,2019-01-12T13:56:00Z,43.62,-110.73,-14.4,-16.1,10,3,,10.0,30.280512,1036.4,,,TRUE,,,,,,,OVC,1100,,,,,,,MVFR,,,,,,,,,,,,METAR,1961.0
KIWD 121356Z AUTO 09009KT 10SM OVC008 M06/M07 A3042 RMK AO2 SLP322 T10611067 FZRANO PNO $,KIWD,2019-01-12T13:56:00Z,46.52,-90.12,-6.1,-6.7,90,9,,10.0,30.41929,1032.2,,TRUE,TRUE,TRUE,,,TRUE,,,OVC,800,,,,,,,IFR,,,,,,,,,,,,METAR,375.0
KITH 121356Z 27003KT 10SM OVC070 M08/M11 A3049 RMK AO2 SLP347 T10831111,KITH,2019-01-12T13:56:00Z,42.47,-76.45,-8.3,-11.1,270,3,,10.0,30.490158,1034.7,,,TRUE,,,,,,,OVC,7000,,,,,,,VFR,,,,,,,,,,,,METAR,335.0
KISO 121356Z 05008KT 10SM OVC110 02/M03 A3049,KISO,2019-01-12T13:56:00Z,35.32,-77.62,2.0,-3.0,50,8,,10.0,30.490158,,,,,,,,,,,OVC,11000,,,,,,,VFR,,,,,,,,,,,,METAR,29.0
KISM 121356Z 09005KT 10SM CLR 18/13 A3026 RMK AO2 SLP248 T01780133 PNO $,KISM,2019-01-12T13:56:00Z,28.28,-81.43,17.8,13.3,90,5,,10.0,30.259842,1024.8,,,TRUE,TRUE,,,,,,CLR,,,,,,,,VFR,,,,,,,,,,,,METAR,25.0
KILE 121356Z AUTO 29008KT 10SM CLR 08/05 A3006 RMK AO2 SLP203 T00780050,KILE,2019-01-12T13:56:00Z,31.07,-97.67,7.8,5.0,290,8,,10.0,30.059055,1020.3,,TRUE,TRUE,,,,,,,CLR,,,,,,,,VFR,,,,,,,,,,,,METAR,258.0
KXNO 121356Z AUTO 03006KT 10SM OVC018 03/M06 A3041 RMK AO2 SLP303 T00311056 $,KXNO,2019-01-12T13:56:00Z,33.62,-81.07,3.1,-5.6,30,6,,10.0,30.410433,1030.3,,TRUE,TRUE,TRUE,,,,,,OVC,1800,,,,,,,MVFR,,,,,,,,,,,,METAR,98.0
KOTH 121356Z AUTO 15006KT 10SM CLR 07/04 A2992 RMK AO2 SLP130 T00670044,KOTH,2019-01-12T13:56:00Z,43.42,-124.25,6.7,4.4,150,6,,10.0,29.920275,1013.0,,TRUE,TRUE,,,,,,,CLR,,,,,,,,VFR,,,,,,,,,,,,METAR,4.0
KOTG 121356Z AUTO 01011KT 5SM BR OVC004 M07/M08 A3025 RMK AO2 SLP273 T10721083 FZRANO,KOTG,2019-01-12T13:56:00Z,43.63,-95.57,-7.2,-8.3,10,11,,5.0,30.250984,1027.3,,TRUE,TRUE,,,,TRUE,,BR,OVC,400,,,,,,,LIFR,,,,,,,,,,,,METAR,480.0
KLZU 121356Z 07008KT 10SM OVC030 03/M05 A3034 RMK AO2 SLP290 T00331050,KLZU,2019-01-12T13:56:00Z,33.98,-83.97,3.3,-5.0,70,8,,10.0,30.339567,1029.0,,,TRUE,,,,,,,OVC,3000,,,,,,,MVFR,,,,,,,,,,,,METAR,323.0
KPIB 121356Z AUTO 12005KT 10SM OVC046 10/06 A3010 RMK AO2 SLP194 T01000061,KPIB,2019-01-12T13:56:00Z,31.47,-89.32,10.0,6.1,120,5,,10.0,30.100393,1019.4,,TRUE,TRUE,,,,,,,OVC,4600,,,,,,,VFR,,,,,,,,,,,,METAR,91.0
KP53 121356Z AUTO VRB03KT M07/M10 A3053 RMK AO1 SLP353 T10721100,KP53,2019-01-12T13:56:00Z,46.42,-86.65,-7.2,-10.0,0,3,,,30.528543,1035.3,,TRUE,TRUE,,,,,,,,,,,,,,,,,,,,,,,,,,,METAR,187.0
KSLG 121356Z AUTO 00000KT 5SM -RA BR OVC007 04/04 A2987 RMK AO2 SLP122 P0000 T00440039,KSLG,2019-01-12T13:56:00Z,36.2,-94.47,4.4,3.9,0,0,,5.0,29.870079,1012.2,,TRUE,TRUE,,,,,,-RA BR,OVC,700,,,,,,,IFR,,,,,,0.005,,,,,,METAR,300.0
KSKX 121356Z AUTO 00000KT 10SM OVC003 M09/M10 A3018 RMK AO2 SLP263 T10891100 FZRANO $,KSKX,2019-01-12T13:56:00Z,36.45,-105.67,-8.9,-10.0,0,0,,10.0,30.180119,1026.3,,TRUE,TRUE,TRUE,,,TRUE,,,OVC,300,,,,,,,LIFR,,,,,,,,,,,,METAR,2161.0
KPWT 121356Z AUTO 00000KT 10SM CLR 00/M01 A2995 RMK AO2 SLP161 T00001006 FZRANO,KPWT,2019-01-12T13:56:00Z,47.5,-122.75,0.0,-0.6,0,0,,10.0,29.949802,1016.1,,TRUE,TRUE,,,,TRUE,,,CLR,,,,,,,,VFR,,,,,,,,,,,,METAR,147.0
KPWG 121356Z AUTO 29007KT 10SM CLR 08/06 A3005 RMK AO2 SLP193 T00780056,KPWG,2019-01-12T13:56:00Z,31.47,-97.32,7.8,5.6,290,7,,10.0,30.050198,1019.3,,TRUE,TRUE,,,,,,,CLR,,,,,,,,VFR,,,,,,,,,,,,METAR,180.0
KPVU 121356Z 00000KT 5SM BR BKN011 M05/M06 A3026 RMK AO2 SLP278 T10501061,KPVU,2019-01-12T13:56:00Z,40.22,-111.72,-5.0,-6.1,0,0,,5.0,30.259842,1027.8,,,TRUE,,,,,,BR,BKN,1100,,,,,,,MVFR,,,,,,,,,,,,METAR,1369.0
KPVG 121356Z AUTO 00000KT 10SM OVC120 M01/M01 A3054 RMK AO2 SLP341 T10061011 FZRANO PNO $,KPVG,2019-01-12T13:56:00Z,36.78,-76.45,-0.6,-1.1,0,0,,10.0,30.540354,1034.1,,TRUE,TRUE,TRUE,,,TRUE,,,OVC,12000,,,,,,,VFR,,,,,,,,,,,,METAR,7.0
KPVC 121356Z AUTO 31021G28KT 10SM OVC100 M07/M12 A3046 RMK AO2 PK WND 30030/1304 SLP312 T10671122 FZRANO,KPVC,2019-01-12T13:56:00Z,42.07,-70.22,-6.7,-12.2,310,21,28,10.0,30.46063,1031.2,,TRUE,TRUE,,,,TRUE,,,OVC,10000,,,,,,,VFR,,,,,,,,,,,,METAR,2.0
KPTV 121356Z AUTO 24003KT 10SM -RA BKN075 OVC095 09/08 A2997 RMK AO2 RAE1257B52 SLP162 P0000 T00940083,KPTV,2019-01-12T13:56:00Z,36.02,-119.07,9.4,8.3,240,3,,10.0,29.970472,1016.2,,TRUE,TRUE,,,,,,-RA,BKN,7500,OVC,9500,,,,,VFR,,,,,,0.005,,,,,,METAR,135.0
KPTN 121356Z AUTO 16006KT 10SM FEW025 BKN042 OVC100 16/15 A3003 RMK AO2 RAB24E49 SLP169 P0000 T01560150,KPTN,2019-01-12T13:56:00Z,29.72,-91.32,15.6,15.0,160,6,,10.0,30.029528,1016.9,,TRUE,TRUE,,,,,,,FEW,2500,BKN,4200,OVC,10000,,,VFR,,,,,,0.005,,,,,,METAR,3.0
KPQI 121356Z AUTO 28009KT 10SM FEW050 BKN065 M18/M22 A3015 RMK AO2 SLP261 T11781222 FZRANO,KPQI,2019-01-12T13:56:00Z,46.67,-68.03,-17.8,-22.2,280,9,,10.0,30.15059,1026.1,,TRUE,TRUE,,,,TRUE,,,FEW,5000,BKN,6500,,,,,VFR,,,,,,,,,,,,METAR,146.0
KSMN 121356Z AUTO 36003KT 10SM OVC023 M04/M07 A3034 RMK AO2 SLP315 T10391067 FZRANO,KSMN,2019-01-12T13:56:00Z,45.12,-113.87,-3.9,-6.7,360,3,,10.0,30.339567,1031.5,,TRUE,TRUE,,,,TRUE,,,OVC,2300,,,,,,,MVFR,,,,,,,,,,,,METAR,1233.0
KSUE 121356Z AUTO 08005KT 5SM -SN BR OVC006 M02/M02 A3044 RMK AO2 UPE46SNB23E38B46 SLP334 P0000 T10171022 FZRANO,KSUE,2019-01-12T13:56:00Z,44.85,-87.42,-1.7,-2.2,80,5,,5.0,30.43996,1033.4,,TRUE,TRUE,,,,TRUE,,-SN BR,OVC,600,,,,,,,IFR,,,,,,0.005,,,,,,METAR,221.0
KSQI 121356Z AUTO 07012KT 3/4SM -SN BR OVC013 M02/M03 A3027 RMK AO2 SLP276 P0000 T10221028 FZRANO RVRNO,KSQI,2019-01-12T13:56:00Z,41.75,-89.67,-2.2,-2.8,70,12,,0.75,30.268702,1027.6,,TRUE,TRUE,,,,TRUE,,-SN BR,OVC,1300,,,,,,,LIFR,,,,,,0.005,,,,,,METAR,197.0
KSOP 121356Z AUTO 09005KT 10SM OVC100 02/M04 A3046 RMK AO2 SLP334 T00171044 FZRANO,KSOP,2019-01-12T13:56:00Z,35.22,-79.4,1.7,-4.4,90,5,,10.0,30.46063,1033.4,,TRUE,TRUE,,,,TRUE,,,OVC,10000,,,,,,,VFR,,,,,,,,,,,,METAR,141.0
PAEM 121356Z AUTO 36007KT 10SM CLR M33/M36 A2983 RMK AO2 SLP162 T13331361 FZRANO,PAEM,2019-01-12T13:56:00Z,62.78,-164.48,-33.3,-36.1,360,7,,10.0,29.828741,1016.2,,TRUE,TRUE,,,,TRUE,,,CLR,,,,,,,,VFR,,,,,,,,,,,,METAR,3.0
PADU 121356Z AUTO 07010KT 5SM UP BR BKN013 OVC020 03/02 A2907 RMK AO2 RAE19UPB19 SLP848 P0000 T00280017,PADU,2019-01-12T13:56:00Z,53.9,-166.53,2.8,1.7,70,10,,5.0,29.069881,984.8,,TRUE,TRUE,,,,,,BR UP,BKN,1300,OVC,2000,,,,,MVFR,,,,,,0.005,,,,,,METAR,4.0
PAGS 121356Z AUTO 34003KT 10SM OVC008 01/00 A2987 RMK AO2 SLP114 T00060000 FZRANO,PAGS,2019-01-12T13:56:00Z,58.42,-135.73,0.6,0.0,340,3,,10.0,29.870079,1011.4,,TRUE,TRUE,,,,TRUE,,,OVC,800,,,,,,,IFR,,,,,,,,,,,,METAR,9.0
PAGM 121356Z AUTO 03021G27KT 10SM CLR M24/M27 A3001 RMK AO2 PK WND 05030/1257 SLP169 T12391272 FZRANO,PAGM,2019-01-12T13:56:00Z,63.77,-171.73,-23.9,-27.2,30,21,27,10.0,30.008858,1016.9,,TRUE,TRUE,,,,TRUE,,,CLR,,,,,,,,VFR,,,,,,,,,,,,METAR,8.0
PAGA 121356Z AUTO 00000KT 7SM CLR M47/ A3006 RMK AO2 SLP191 T1472 FZRANO,PAGA,2019-01-12T13:56:00Z,64.73,-156.93,-47.2,,0,0,,7.0,30.059055,1019.1,,TRUE,TRUE,,,,TRUE,,,CLR,,,,,,,,VFR,,,,,,,,,,,,METAR,46.0
PAII 121356Z AUTO 07009KT 10SM BKN060 OVC100 M13/M15 A2945 RMK AO2 SLP977 T11331150 FZRANO,PAII,2019-01-12T13:56:00Z,58.18,-157.38,-13.3,-15.0,70,9,,10.0,29.450787,997.7,,TRUE,TRUE,,,,TRUE,,,BKN,6000,OVC,10000,,,,,VFR,,,,,,,,,,,,METAR,30.0
PAIG 121356Z AUTO 05014G21KT 10SM FEW120 M06/M08 A2954 RMK AO2 SLP014 T10561083 FZRANO $,PAIG,2019-01-12T13:56:00Z,59.32,-155.9,-5.6,-8.3,50,14,21,10.0,29.53937,1001.4,,TRUE,TRUE,TRUE,,,TRUE,,,FEW,12000,,,,,,,VFR,,,,,,,,,,,,METAR,28.0
PAMH 121356Z AUTO 00000KT 10SM CLR M34/M37 A2990 RMK AO2 SLP881 T13391372 FZRANO,PAMH,2019-01-12T13:56:00Z,63.9,-152.32,-33.9,-37.2,0,0,,10.0,29.899607,988.1,,TRUE,TRUE,,,,TRUE,,,CLR,,,,,,,,VFR,,,,,,,,,,,,METAR,214.0
PAMB 121356Z AUTO 04022G28KT 5SM -SN BR OVC060 M15/M17 A2950 RMK AO2 PK WND 05028/1352 SLP996 P0000 T11501172 FZRANO $,PAMB,2019-01-12T13:56:00Z,58.98,-159.05,-15.0,-17.2,40,22,28,5.0,29.500984,999.6,,TRUE,TRUE,TRUE,,,TRUE,,-SN BR,OVC,6000,,,,,,,MVFR,,,,,,0.005,,,,,,METAR,16.0
PALG 121356Z AUTO VRB04G14KT 10SM CLR M27/M33 A2969 RMK AO2 SLP059 T12721328 FZRANO,PALG,2019-01-12T13:56:00Z,61.53,-160.33,-27.2,-32.8,0,4,14,10.0,29.68996,1005.9,,TRUE,TRUE,,,,TRUE,,,CLR,,,,,,,,VFR,,,,,,,,,,,,METAR,17.0
PAKH 121356Z AUTO 07018G23KT 10SM BKN025 OVC110 03/00 A2941 RMK AO2 UPB35E37RAB37E46 SLP959 P0000 T00280000 $,PAKH,2019-01-12T13:56:00Z,56.93,-154.18,2.8,0.0,70,18,23,10.0,29.409449,995.9,,TRUE,TRUE,TRUE,,,,,,BKN,2500,OVC,11000,,,,,MVFR,,,,,,0.005,,,,,,METAR,14.0
PAKF 121356Z AUTO 00000KT 3SM -SN BR SCT014 OVC020 00/M01 A2912 RMK AO2 UPB20E28SNE20B28 SLP861 P0003 T00001011 FZRANO,PAKF,2019-01-12T13:56:00Z,54.85,-163.42,0.0,-1.1,0,0,,3.0,29.120079,986.1,,TRUE,TRUE,,,,TRUE,,-SN BR,SCT,1400,OVC,2000,,,,,MVFR,,,,,,0.03,,,,,,METAR,6.0
PAJZ 121356Z AUTO 32010KT 7SM BKN050 M24/M27 A2966 RMK AO2 SLP052 T12391267 FZRANO $,PAJZ,2019-01-12T13:56:00Z,59.73,-157.27,-23.9,-26.7,320,10,,7.0,29.660433,1005.2,,TRUE,TRUE,TRUE,,,TRUE,,,BKN,5000,,,,,,,VFR,,,,,,,,,,,,METAR,82.0
PAIN 121356Z AUTO 16003KT 9SM CLR M40/ A2981 RMK AO2 SLP200 T1400 FZRANO,PAIN,2019-01-12T13:56:00Z,63.73,-148.92,-40.0,,160,3,,9.0,29.811024,1020.0,,TRUE,TRUE,,,,TRUE,,,CLR,,,,,,,,VFR,,,,,,,,,,,,METAR,524.0
PAIK 121356Z AUTO 35006KT 10SM CLR M37/ A3012 RMK AO2 SLP210 T1367 FZRANO,PAIK,2019-01-12T13:56:00Z,66.98,-160.43,-36.7,,350,6,,10.0,30.121063,1021.0,,TRUE,TRUE,,,,TRUE,,,CLR,,,,,,,,VFR,,,,,,,,,,,,METAR,51.0
PFYU 121356Z AUTO 00000KT 4SM HZ CLR M42/ A3016 RMK AO2 SLP243 T1422 FZRANO,PFYU,2019-01-12T13:56:00Z,66.57,-145.27,-42.2,,0,0,,4.0,30.159449,1024.3,,TRUE,TRUE,,,,TRUE,,HZ,CLR,,,,,,,,MVFR,,,,,,,,,,,,METAR,131.0
PFKW 121356Z AUTO 02007KT 10SM FEW120 M30/M33 A2961 RMK AO2 SLP029 T13001328 FZRANO,PFKW,2019-01-12T13:56:00Z,60.8,-161.43,-30.0,-32.8,20,7,,10.0,29.610237,1002.9,,TRUE,TRUE,,,,TRUE,,,FEW,12000,,,,,,,VFR,,,,,,,,,,,,METAR,8.0
PFKT 121356Z AUTO 12011KT 10SM CLR M30/M33 A3002 RMK AO2 WSHFT 1250 SLP167 T13001333 FZRANO,PFKT,2019-01-12T13:56:00Z,65.33,-166.47,-30.0,-33.3,120,11,,10.0,30.02067,1016.7,,TRUE,TRUE,,,,TRUE,,,CLR,,,,,,,,VFR,,,,,,,,,,,,METAR,9.0
PFEL 121356Z AUTO 01016G19KT 10SM CLR M25/M30 A2992 RMK AO2 PK WND 03026/1301 SLP134 T12501300 FZRANO,PFEL,2019-01-12T13:56:00Z,64.62,-162.27,-25.0,-30.0,10,16,19,10.0,29.920275,1013.4,,TRUE,TRUE,,,,TRUE,,,CLR,,,,,,,,VFR,,,,,,,,,,,,METAR,49.0
PFCL 121356Z AUTO 03017KT 9SM -SN OVC060 M17/M19 RMK AO2 SNE23B43 SLPNO P0000 T11671189 FZRANO TSNO $,PFCL,2019-01-12T13:56:00Z,58.83,-158.53,-16.7,-18.9,30,17,,9.0,,,,TRUE,TRUE,TRUE,,TRUE,TRUE,,-SN,OVC,6000,,,,,,,VFR,,,,,,0.005,,,,,,METAR,24.0
PAZK 121356Z AUTO 35004KT 10SM CLR M24/M27 A2961 RMK AO2 SLP160 T12441272 FZRANO,PAZK,2019-01-12T13:56:00Z,61.93,-147.17,-24.4,-27.2,350,4,,10.0,29.610237,1016.0,,TRUE,TRUE,,,,TRUE,,,CLR,,,,,,,,VFR,,,,,,,,,,,,METAR,1003.0
PAMK 121356Z AUTO 06007KT 10SM CLR M30/M33 A2985 RMK AO2 SLP114 T13001333 FZRANO,PAMK,2019-01-12T13:56:00Z,63.48,-162.12,-30.0,-33.3,60,7,,10.0,29.84941,1011.4,,TRUE,TRUE,,,,TRUE,,,CLR,,,,,,,,VFR,,,,,,,,,,,,METAR,28.0
ETIK 121356Z AUTO 24014G21KT 9999 OVC011 03/03 A3005 RMK AO2 UPB1259E08 SLP193 P0000 T00250025 $,ETIK,2019-01-12T13:56:00Z,49.47,10.37,2.5,2.5,240,14,21,6.21,30.050198,1019.3,,TRUE,TRUE,TRUE,,,,,,OVC,1100,,,,,,,MVFR,,,,,,0.005,,,,,,METAR,325.0
PPIT 121356Z AUTO 05022KT SCT003 M29/M32 A2967 RMK AO2 PK WND 05031/1348 SLP046 T12941322 PWINO FZRANO TSNO $,PPIT,2019-01-12T13:56:00Z,60.9,-162.43,-29.4,-32.2,50,22,,,29.66929,1004.6,,TRUE,TRUE,TRUE,,TRUE,TRUE,TRUE,,SCT,300,,,,,,,,,,,,,,,,,,,METAR,4.0
PPIZ 121356Z AUTO 04010KT 7SM OVC021 M37/ A3033 RMK AO2 SNB11E53 SLP276 P0000 T1367 FZRANO,PPIZ,2019-01-12T13:56:00Z,69.73,-163.0,-36.7,,40,10,,7.0,30.33071,1027.6,,TRUE,TRUE,,,,TRUE,,,OVC,2100,,,,,,,MVFR,,,,,,0.005,,,,,,METAR,8.0
PANA 121356Z AUTO 04015G20KT 10SM FEW120 M31/M33 A2961 RMK AO2 SLP027 T13061333 FZRANO,PANA,2019-01-12T13:56:00Z,60.68,-161.98,-30.6,-33.3,40,15,20,10.0,29.610237,1002.7,,TRUE,TRUE,,,,TRUE,,,FEW,12000,,,,,,,VFR,,,,,,,,,,,,METAR,5.0
PAPN 121356Z AUTO 09017G23KT 10SM OVC080 00/M03 A2937 RMK AO2 PK WND 09028/1315 SLP946 T00001028 PWINO FZRANO $,PAPN,2019-01-12T13:56:00Z,57.58,-157.57,0.0,-2.8,90,17,23,10.0,29.371063,994.6,,TRUE,TRUE,TRUE,,,TRUE,TRUE,,OVC,8000,,,,,,,VFR,,,,,,,,,,,,METAR,18.0
PANI 121356Z AUTO VRB03KT 10SM CLR M34/M37 A2973 RMK AO2 SLP037 T13391372 FZRANO,PANI,2019-01-12T13:56:00Z,61.58,-159.53,-33.9,-37.2,0,3,,10.0,29.731298,1003.7,,TRUE,TRUE,,,,TRUE,,,CLR,,,,,,,,VFR,,,,,,,,,,,,METAR,26.0
PADL 121356Z AUTO 01020G25KT 9SM -SN BKN043 OVC055 M17/M19 A2953 RMK AO2 SLP005 P0000 T11671194 FZRANO,PADL,2019-01-12T13:56:00Z,59.05,-158.5,-16.7,-19.4,10,20,25,9.0,29.530512,1000.5,,TRUE,TRUE,,,,TRUE,,-SN,BKN,4300,OVC,5500,,,,,VFR,,,,,,0.005,,,,,,METAR,26.0
KMGE 121356Z 09011KT 10SM OVC029 05/M06 A3031 RMK AO2A SLP271 T00451064 $,KMGE,2019-01-12T13:56:00Z,33.92,-84.52,4.5,-6.4,90,11,,10.0,30.31004,1027.1,,,TRUE,TRUE,,,,,,OVC,2900,,,,,,,MVFR,,,,,,,,,,,,METAR,326.0
PFWS 121356Z AUTO 02014KT 10SM FEW060 M16/M17 A2951 RMK AO2 SNE38 SLP998 P0000 T11561167 FZRANO,PFWS,2019-01-12T13:56:00Z,58.7,-157.0,-15.6,-16.7,20,14,,10.0,29.509842,999.8,,TRUE,TRUE,,,,TRUE,,,FEW,6000,,,,,,,VFR,,,,,,0.005,,,,,,METAR,49.0
PAOU 121356Z AUTO 06013KT 4SM BR BKN047 BKN070 OVC120 M01/M01 A2919 RMK AO2 SLP883 T10061011 FZRANO,PAOU,2019-01-12T13:56:00Z,56.0,-161.17,-0.6,-1.1,60,13,,4.0,29.190945,988.3,,TRUE,TRUE,,,,TRUE,,BR,BKN,4700,BKN,7000,OVC,12000,,,MVFR,,,,,,,,,,,,METAR,4.0
PAMM 121356Z AUTO 00000KT 10SM OVC055 04/03 A2987 RMK AO2 SLP105 T00440033,PAMM,2019-01-12T13:56:00Z,55.13,-131.58,4.4,3.3,0,0,,10.0,29.870079,1010.5,,TRUE,TRUE,,,,,,,OVC,5500,,,,,,,VFR,,,,,,,,,,,,METAR,1.0
PMDY 121356Z AUTO 25014G21KT OVC070 22/18 A2974 RMK AO2 SLP070 P0001 T02170178 PWINO $,PMDY,2019-01-12T13:56:00Z,28.22,-177.37,21.7,17.8,250,14,21,,29.740158,1007.0,,TRUE,TRUE,TRUE,,,,TRUE,,OVC,7000,,,,,,,,,,,,,0.01,,,,,,METAR,4.0
PHNY 121356Z AUTO 05006KT 10SM CLR 17/16 A3006 RMK AO2 SLP161 T01670161,PHNY,2019-01-12T13:56:00Z,20.77,-156.93,16.7,16.1,50,6,,10.0,30.059055,1016.1,,TRUE,TRUE,,,,,,,CLR,,,,,,,,VFR,,,,,,,,,,,,SPECI,399.0
PAPG 121356Z AUTO 00000KT 1/4SM FG OVC003 00/M01 A2989 RMK AO2 SLP123 T00001006 FZRANO,PAPG,2019-01-12T13:56:00Z,56.82,-132.97,0.0,-0.6,0,0,,0.25,29.890747,1012.3,,TRUE,TRUE,,,,TRUE,,FG,OVC,300,,,,,,,LIFR,,,,,,,,,,,,METAR,15.0
PAPH 121356Z AUTO 08012KT 10SM BKN095 M02/M04 A2930 RMK AO2 SLP926 T10221039 FZRANO,PAPH,2019-01-12T13:56:00Z,56.95,-158.62,-2.2,-3.9,80,12,,10.0,29.300198,992.6,,TRUE,TRUE,,,,TRUE,,,BKN,9500,,,,,,,VFR,,,,,,,,,,,,METAR,29.0
PAPM 121356Z AUTO 36011KT 2 1/2SM -SN BR OVC019 M17/M18 A2947 RMK AO2 SNB00 SLP981 P0000 T11721183 FZRANO,PAPM,2019-01-12T13:56:00Z,59.02,-161.82,-17.2,-18.3,360,11,,2.5,29.471457,998.1,,TRUE,TRUE,,,,TRUE,,-SN BR,OVC,1900,,,,,,,IFR,,,,,,0.005,,,,,,METAR,5.0
PAPO 121356Z AUTO 07017KT 10SM CLR M26/M29 A3016 RMK AO2 SLP211 T12611289 FZRANO,PAPO,2019-01-12T13:56:00Z,68.35,-166.8,-26.1,-28.9,70,17,,10.0,30.159449,1021.1,,TRUE,TRUE,,,,TRUE,,,CLR,,,,,,,,VFR,,,,,,,,,,,,METAR,6.0
PARS 121356Z AUTO 06007KT 10SM CLR M29/M33 A2974 RMK AO2 SLP074 T12941328 FZRANO $,PARS,2019-01-12T13:56:00Z,61.77,-161.32,-29.4,-32.8,60,7,,10.0,29.740158,1007.4,,TRUE,TRUE,TRUE,,,TRUE,,,CLR,,,,,,,,VFR,,,,,,,,,,,,METAR,16.0
PARC 121356Z AUTO 4SM HZ CLR A2987 RMK AO2 SLPNO FZRANO $,PARC,2019-01-12T13:56:00Z,68.12,-145.58,,,,,,4.0,29.870079,,,TRUE,TRUE,TRUE,,,TRUE,,HZ,CLR,,,,,,,,MVFR,,,,,,,,,,,,METAR,636.0
KSDY 121356Z AUTO 15005KT 9SM OVC005 M11/M12 A3029 RMK AO2 SLP304 T11061117 FZRANO,KSDY,2019-01-12T13:56:00Z,47.7,-104.2,-10.6,-11.7,150,5,,9.0,30.28937,1030.4,,TRUE,TRUE,,,,TRUE,,,OVC,500,,,,,,,IFR,,,,,,,,,,,,METAR,605.0
KTVF 121356Z AUTO 07008KT 6SM BR OVC005 M07/M07 A3041 RMK AO2 SLPNO T10671072 FZRANO,KTVF,2019-01-12T13:56:00Z,48.07,-96.17,-6.7,-7.2,70,8,,6.0,30.410433,,,TRUE,TRUE,,,,TRUE,,BR,OVC,500,,,,,,,IFR,,,,,,,,,,,,METAR,340.0
PAUN 121356Z AUTO 08019KT 10SM CLR M28/M32 A2991 RMK AO2 SLP132 T12781317 FZRANO,PAUN,2019-01-12T13:56:00Z,63.88,-160.8,-27.8,-31.7,80,19,,10.0,29.911417,1013.2,,TRUE,TRUE,,,,TRUE,,,CLR,,,,,,,,VFR,,,,,,,,,,,,METAR,6.0
PASX 121356Z AUTO 05006KT 10SM CLR M17/M19 A2986 RMK AO2 SLP121 T11721194 FZRANO,PASX,2019-01-12T13:56:00Z,60.48,-151.03,-17.2,-19.4,50,6,,10.0,29.861221,1012.1,,TRUE,TRUE,,,,TRUE,,,CLR,,,,,,,,VFR,,,,,,,,,,,,METAR,32.0
PAVD 121356Z AUTO 09005KT 10SM SCT060 M09/M11 A2983 RMK AO2 SLP127 T10941111 FZRANO,PAVD,2019-01-12T13:56:00Z,61.13,-146.25,-9.4,-11.1,90,5,,10.0,29.828741,1012.7,,TRUE,TRUE,,,,TRUE,,,SCT,6000,,,,,,,VFR,,,,,,,,,,,,METAR,37.0
PAVC 121356Z AUTO 06020G27KT 9SM -RA OVC014 02/01 A2913 RMK AO2 PK WND 07027/1350 UPE03B23E38RAB03 SLP871 P0000 T00220006 FZRANO,PAVC,2019-01-12T13:56:00Z,55.12,-162.27,2.2,0.6,60,20,27,9.0,29.128937,987.1,,TRUE,TRUE,,,,TRUE,,-RA,OVC,1400,,,,,,,MVFR,,,,,,0.005,,,,,,METAR,47.0
PAVA 121356Z AUTO 04019KT 5SM HZ CLR M29/M32 A2976 RMK AO2 PK WND 04026/1302 SNE15 SLP170 T12941322 FZRANO PNO $,PAVA,2019-01-12T13:56:00Z,61.53,-165.6,-29.4,-32.2,40,19,,5.0,29.760826,1017.0,,TRUE,TRUE,TRUE,,,TRUE,,HZ,CLR,,,,,,,,MVFR,,,,,,,,,,,,METAR,23.0
PAWN 121356Z AUTO 00000KT 3SM BR FEW002 M38/ A3013 RMK AO2 SLP221 T1383 FZRANO,PAWN,2019-01-12T13:56:00Z,67.57,-162.98,-38.3,,0,0,,3.0,30.129921,1022.1,,TRUE,TRUE,,,,TRUE,,BR,FEW,200,,,,,,,MVFR,,,,,,,,,,,,METAR,30.0
PAWS 121356Z AUTO 29003KT 10SM OVC055 M21/M23 A2984 RMK AO2 SLP122 T12061228 FZRANO,PAWS,2019-01-12T13:56:00Z,61.57,-149.53,-20.6,-22.8,290,3,,10.0,29.840551,1012.2,,TRUE,TRUE,,,,TRUE,,,OVC,5500,,,,,,,VFR,,,,,,,,,,,,METAR,107.0
KHRT 121356Z 05005KT 10SM OVC010 11/09 A3017 RMK AO2A SLP218 T01090086 $,KHRT,2019-01-12T13:56:00Z,30.42,-86.67,10.9,8.6,50,5,,10.0,30.171259,1021.8,,,TRUE,TRUE,,,,,,OVC,1000,,,,,,,MVFR,,,,,,,,,,,,METAR,12.0
KCIU 121356Z AUTO 08011KT 10SM CLR M15/M18 A3057 RMK AO2 SLP381 T11501183 FZRANO,KCIU,2019-01-12T13:56:00Z,46.25,-84.47,-15.0,-18.3,80,11,,10.0,30.569881,1038.1,,TRUE,TRUE,,,,TRUE,,,CLR,,,,,,,,VFR,,,,,,,,,,,,METAR,244.0
KCGZ 121356Z AUTO 05004KT 10SM CLR 06/03 A3008 RMK AO2 SLP188 T00560033 $,KCGZ,2019-01-12T13:56:00Z,32.95,-111.77,5.6,3.3,50,4,,10.0,30.079725,1018.8,,TRUE,TRUE,TRUE,,,,,,CLR,,,,,,,,VFR,,,,,,,,,,,,METAR,446.0
PASK 121356Z AUTO 07004KT 10SM CLR M42/ A3014 RMK AO2 SLP203 T1422 FZRANO $,PASK,2019-01-12T13:56:00Z,66.6,-160.0,-42.2,,70,4,,10.0,30.138779,1020.3,,TRUE,TRUE,TRUE,,,TRUE,,,CLR,,,,,,,,VFR,,,,,,,,,,,,METAR,8.0
PASH 121356Z AUTO 13007KT 10SM CLR M37/ A3007 RMK AO2 SLP185 T1367 FZRANO,PASH,2019-01-12T13:56:00Z,66.27,-166.08,-36.7,,130,7,,10.0,30.070866,1018.5,,TRUE,TRUE,,,,TRUE,,,CLR,,,,,,,,VFR,,,,,,,,,,,,METAR,2.0
PASD 121356Z AUTO 02007G19KT 350V060 7SM -RA OVC012 03/02 A2916 RMK AO2 SLP876 T00330017 PNO $,PASD,2019-01-12T13:56:00Z,55.33,-160.5,3.3,1.7,20,7,19,7.0,29.161417,987.6,,TRUE,TRUE,TRUE,,,,,-RA,OVC,1200,,,,,,,MVFR,,,,,,,,,,,,METAR,7.0
PASA 121356Z AUTO 21003KT 10SM CLR M28/M31 A3002 RMK AO2 SLP166 T12781306 FZRANO $,PASA,2019-01-12T13:56:00Z,63.68,-170.5,-27.8,-30.6,210,3,,10.0,30.02067,1016.6,,TRUE,TRUE,TRUE,,,TRUE,,,CLR,,,,,,,,VFR,,,,,,,,,,,,METAR,16.0
PARY 121356Z AUTO 08012KT 10SM CLR M36/ A2993 RMK AO2 SLP174 T1356 FZRANO,PARY,2019-01-12T13:56:00Z,64.73,-155.47,-35.6,,80,12,,10.0,29.929134,1017.4,,TRUE,TRUE,,,,TRUE,,,CLR,,,,,,,,VFR,,,,,,,,,,,,METAR,199.0
K2WX 121356Z AUTO 15004KT M04/M07 A3020 RMK AO1 SLP267 T10391072,K2WX,2019-01-12T13:56:00Z,45.6,-103.55,-3.9,-7.2,150,4,,,30.200787,1026.7,,TRUE,TRUE,,,,,,,,,,,,,,,,,,,,,,,,,,,METAR,915.0
KNTU 121356Z 00000KT 10SM BKN120 OVC200 02/M03 A3051 RMK AO2 SLP334 T00171028,KNTU,2019-01-12T13:56:00Z,36.82,-76.02,1.7,-2.8,0,0,,10.0,30.510826,1033.4,,,TRUE,,,,,,,BKN,12000,OVC,20000,,,,,VFR,,,,,,,,,,,,METAR,7.0
MMML 121356Z 12002KT 10SM BKN080 10/09 A3000 RMK 8/020 HZ SW W RTS,MMML,2019-01-12T13:56:00Z,32.62,-115.23,10.0,9.0,120,2,,10.0,30.0,,,,,,,,,,,BKN,8000,,,,,,,VFR,,,,,,,,,,,,METAR,22.0
KMTC 121356Z 06008KT 10SM FEW028 OVC070 M03/M05 A3044 RMK AO2A SLP322 T10261051 $,KMTC,2019-01-12T13:56:00Z,42.62,-82.82,-2.6,-5.1,60,8,,10.0,30.43996,1032.2,,,TRUE,TRUE,,,,,,FEW,2800,OVC,7000,,,,,VFR,,,,,,,,,,,,SPECI,177.0
KGNA 121356Z AUTO 04009KT M06/M09 A3052 RMK AO1 SLP352 T10561094 $,KGNA,2019-01-12T13:56:00Z,47.75,-90.35,-5.6,-9.4,40,9,,,30.519686,1035.2,,TRUE,TRUE,TRUE,,,,,,,,,,,,,,,,,,,,,,,,,,METAR,185.0
KNUC 121356Z AUTO 22007KT FEW015 BKN043 12/ A3001 RMK AO2 SLP159 T0117 PNO $,KNUC,2019-01-12T13:56:00Z,33.02,-118.57,11.7,,220,7,,,30.008858,1015.9,,TRUE,TRUE,TRUE,,,,,,FEW,1500,BKN,4300,,,,,,,,,,,,,,,,,METAR,55.0
KNRS 121356Z AUTO 10004KT 9SM -RA BKN028 OVC060 13/12 A3004 RMK AO2 SLP170 P0015 T01280117 $,KNRS,2019-01-12T13:56:00Z,32.57,-117.12,12.8,11.7,100,4,,9.0,30.041338,1017.0,,TRUE,TRUE,TRUE,,,,,-RA,BKN,2800,OVC,6000,,,,,MVFR,,,,,,0.15,,,,,,METAR,7.0
KUDG 121356Z AUTO 05006KT 10SM OVC110 02/M04 A3046 RMK AO2 SLP321 T00221039 FZRANO,KUDG,2019-01-12T13:56:00Z,34.45,-79.88,2.2,-3.9,50,6,,10.0,30.46063,1032.1,,TRUE,TRUE,,,,TRUE,,,OVC,11000,,,,,,,VFR,,,,,,,,,,,,METAR,59.0
KUCP 121356Z AUTO 04004KT 10SM CLR M06/M10 A3042 RMK AO2 SLP337 T10611100,KUCP,2019-01-12T13:56:00Z,41.03,-80.42,-6.1,-10.0,40,4,,10.0,30.41929,1033.7,,TRUE,TRUE,,,,,,,CLR,,,,,,,,VFR,,,,,,,,,,,,METAR,327.0
KCOF 121356Z AUTO 09010KT 10SM SCT050 22/14 A3024 RMK AO2 SLP245 T02200136 $,KCOF,2019-01-12T13:56:00Z,28.23,-80.6,22.0,13.6,90,10,,10.0,30.239174,1024.5,,TRUE,TRUE,TRUE,,,,,,SCT,5000,,,,,,,VFR,,,,,,,,,,,,METAR,3.0
KBIX 121356Z AUTO 14008KT 10SM BKN033 OVC050 14/12 A3009 RMK AO2 SLP192 T01420121,KBIX,2019-01-12T13:56:00Z,30.42,-88.92,14.2,12.1,140,8,,10.0,30.088583,1019.2,,TRUE,TRUE,,,,,,,BKN,3300,OVC,5000,,,,,VFR,,,,,,,,,,,,METAR,10.0
K2DP 121356Z AUTO 02004KT 10SM BKN140 03/00 A3050 RMK AO2 SLPNO T00260002,K2DP,2019-01-12T13:56:00Z,35.68,-75.9,2.6,0.2,20,4,,10.0,30.499016,,,TRUE,TRUE,,,,,,,BKN,14000,,,,,,,VFR,,,,,,,,,,,,METAR,3.0
KI19 121356Z AUTO 10003KT 1SM -SN OVC009 M02/M03 A3035 RMK AO2 T10251033,KI19,2019-01-12T13:56:00Z,39.7,-83.98,-2.5,-3.3,100,3,,1.0,30.351377,,,TRUE,TRUE,,,,,,-SN,OVC,900,,,,,,,IFR,,,,,,,,,,,,SPECI,289.0
KNID 121356Z AUTO 25003KT 10SM CLR 06/M01 A3001 RMK AO2 SLP172 T00561006,KNID,2019-01-12T13:56:00Z,35.67,-117.67,5.6,-0.6,250,3,,10.0,30.008858,1017.2,,TRUE,TRUE,,,,,,,CLR,,,,,,,,VFR,,,,,,,,,,,,METAR,696.0
KMHS 121356Z AUTO 00000KT 10SM CLR M01/M03 A2996 RMK AO2 SLP177 T10061028,KMHS,2019-01-12T13:56:00Z,41.32,-122.32,-0.6,-2.8,0,0,,10.0,29.958662,1017.7,,TRUE,TRUE,,,,,,,CLR,,,,,,,,VFR,,,,,,,,,,,,METAR,1078.0
KDLF 121356Z AUTO 33008KT 10SM CLR 09/09 A3012 RMK AO2 SLP199 T00930091 $,KDLF,2019-01-12T13:56:00Z,29.37,-100.77,9.3,9.1,330,8,,10.0,30.121063,1019.9,,TRUE,TRUE,TRUE,,,,,,CLR,,,,,,,,VFR,,,,,,,,,,,,METAR,330.0
KDOV 121356Z AUTO 02005KT 10SM CLR M02/M08 A3055 RMK AO2 SLP349 T10251076 $,KDOV,2019-01-12T13:56:00Z,39.12,-75.47,-2.5,-7.6,20,5,,10.0,30.549213,1034.9,,TRUE,TRUE,TRUE,,,,,,CLR,,,,,,,,VFR,,,,,,,,,,,,METAR,9.0
KDAA 121356Z AUTO 00000KT 10SM BKN090 OVC120 M01/M07 A3054 RMK AO2 SLP346 T10111068 $,KDAA,2019-01-12T13:56:00Z,38.72,-77.17,-1.1,-6.8,0,0,,10.0,30.540354,1034.6,,TRUE,TRUE,TRUE,,,,,,BKN,9000,OVC,12000,,,,,VFR,,,,,,,,,,,,METAR,21.0
KSFZ 121356Z AUTO 32008KT 10SM BKN100 M09/M17 A3046 RMK AO2 SLP266 T10891167 FZRANO,KSFZ,2019-01-12T13:56:00Z,41.92,-71.5,-8.9,-16.7,320,8,,10.0,30.46063,1026.6,,TRUE,TRUE,,,,TRUE,,,BKN,10000,,,,,,,VFR,,,,,,,,,,,,METAR,134.0
KSFM 121356Z AUTO 26012G18KT 10SM CLR M12/M19 A3040 RMK AO2 SLP304 T11221189 FZRANO PNO $,KSFM,2019-01-12T13:56:00Z,43.38,-70.72,-12.2,-18.9,260,12,18,10.0,30.398623,1030.4,,TRUE,TRUE,TRUE,,,TRUE,,,CLR,,,,,,,,VFR,,,,,,,,,,,,METAR,74.0
KSGJ 121356Z 10004KT 10SM OVC060 18/13 A3028 RMK AO2 SLP252 T01780133,KSGJ,2019-01-12T13:56:00Z,29.97,-81.32,17.8,13.3,100,4,,10.0,30.280512,1025.2,,,TRUE,,,,,,,OVC,6000,,,,,,,VFR,,,,,,,,,,,,METAR,3.0
KSGH 121356Z AUTO 09008KT 3/4SM -SN BR OVC018 M03/M04 A3033 RMK AO2 SLP289 P0002 T10331039,KSGH,2019-01-12T13:56:00Z,39.83,-83.83,-3.3,-3.9,90,8,,0.75,30.33071,1028.9,,TRUE,TRUE,,,,,,-SN BR,OVC,1800,,,,,,,LIFR,,,,,,0.02,,,,,,METAR,321.0
KCBM 121356Z AUTO 12009KT 10SM FEW044 SCT060 OVC110 09/01 A3013 RMK AO2 SLP206 T00870007,KCBM,2019-01-12T13:56:00Z,33.63,-88.45,8.7,0.7,120,9,,10.0,30.129921,1020.6,,TRUE,TRUE,,,,,,,FEW,4400,SCT,6000,OVC,11000,,,VFR,,,,,,,,,,,,METAR,67.0
KMXF 121356Z AUTO 11010KT 10SM BKN026 OVC037 09/01 A3020 RMK AO2 SLP230 T00900012 $,KMXF,2019-01-12T13:56:00Z,32.37,-86.37,9.0,1.2,110,10,,10.0,30.200787,1023.0,,TRUE,TRUE,TRUE,,,,,,BKN,2600,OVC,3700,,,,,MVFR,,,,,,,,,,,,METAR,51.0
KMCF 121356Z AUTO 11009KT 10SM FEW043 17/13 A3021 RMK AO2 SLP233 T01680127 FZRANO $,KMCF,2019-01-12T13:56:00Z,27.85,-82.52,16.8,12.7,110,9,,10.0,30.209646,1023.3,,TRUE,TRUE,TRUE,,,TRUE,,,FEW,4300,,,,,,,VFR,,,,,,,,,,,,METAR,4.0
KLTS 121356Z AUTO 33017G24KT 10SM OVC021 04/M01 A3002 RMK AO2 PK WND 32029/1255 CIG 020 RWY17L SLP169 T00361008 $,KLTS,2019-01-12T13:56:00Z,34.67,-99.27,3.6,-0.8,330,17,24,10.0,30.02067,1016.9,,TRUE,TRUE,TRUE,,,,,,OVC,2100,,,,,,,MVFR,,,,,,,,,,,,METAR,420.0
KLHW 121356Z AUTO 03005KT 10SM OVC060 08/05 A3032 RMK AO2 SLP271 T00840050 $,KLHW,2019-01-12T13:56:00Z,31.87,-81.57,8.4,5.0,30,5,,10.0,30.318897,1027.1,,TRUE,TRUE,TRUE,,,,,,OVC,6000,,,,,,,VFR,,,,,,,,,,,,METAR,14.0
KHST 121356Z AUTO 08011G17KT 10SM BKN037 OVC047 22/16 A3017 RMK AO2 SLP220 T02220162 FZRANO $,KHST,2019-01-12T13:56:00Z,25.47,-80.37,22.2,16.2,80,11,17,10.0,30.171259,1022.0,,TRUE,TRUE,TRUE,,,TRUE,,,BKN,3700,OVC,4700,,,,,VFR,,,,,,,,,,,,METAR,2.0
KGSB 121356Z AUTO 05003KT 10SM SCT110 02/M05 A3048 RMK AO2 SLP326 T00191046 $,KGSB,2019-01-12T13:56:00Z,35.32,-77.97,1.9,-4.6,50,3,,10.0,30.481298,1032.6,,TRUE,TRUE,TRUE,,,,,,SCT,11000,,,,,,,VFR,,,,,,,,,,,,METAR,33.0
KFSI 121356Z AUTO 34014G21KT 10SM BKN011 BKN041 OVC049 03/03 A2995 RMK AO2 RAE1259DZB02E13 SLP145 P0000 T00310031,KFSI,2019-01-12T13:56:00Z,34.65,-98.4,3.1,3.1,340,14,21,10.0,29.949802,1014.5,,TRUE,TRUE,,,,,,,BKN,1100,BKN,4100,OVC,4900,,,MVFR,,,,,,0.005,,,,,,METAR,362.0
KFBG 121356Z AUTO 06007KT 10SM BKN110 02/M04 A3047 RMK AO2 SLP324 T00201043,KFBG,2019-01-12T13:56:00Z,35.12,-78.92,2.0,-4.3,60,7,,10.0,30.469488,1032.4,,TRUE,TRUE,,,,,,,BKN,11000,,,,,,,VFR,,,,,,,,,,,,METAR,74.0
KEND 121356Z AUTO 34019G26KT 10SM -DZ OVC007 01/01 A2995 RMK AO2 PK WND 34026/48 RAE1256DZB1256 SLP152 P0000 T00110011 $,KEND,2019-01-12T13:56:00Z,36.32,-97.92,1.1,1.1,340,19,26,10.0,29.949802,1015.2,,TRUE,TRUE,TRUE,,,,,-DZ,OVC,700,,,,,,,IFR,,,,,,0.005,,,,,,METAR,398.0
KEGI 121356Z AUTO 07003KT 10SM OVC017 10/08 A3019 RMK AO2 SLP225 T01010077 $,KEGI,2019-01-12T13:56:00Z,30.63,-86.52,10.1,7.7,70,3,,10.0,30.188976,1022.5,,TRUE,TRUE,TRUE,,,,,,OVC,1700,,,,,,,MVFR,,,,,,,,,,,,METAR,59.0
PAED 121356Z AUTO 05008KT 10SM OVC050 M19/M20 A2984 RMK AO2 SLP106 T11861199,PAED,2019-01-12T13:56:00Z,61.25,-149.8,-18.6,-19.9,50,8,,10.0,29.840551,1010.6,,TRUE,TRUE,,,,,,,OVC,5000,,,,,,,VFR,,,,,,,,,,,,METAR,59.0
PHHI 121356Z AUTO 33005KT 10SM CLR 16/14 A3000 RMK AO2 SLP153 T01610144 $,PHHI,2019-01-12T13:56:00Z,21.48,-158.05,16.1,14.4,330,5,,10.0,30.0,1015.3,,TRUE,TRUE,TRUE,,,,,,CLR,,,,,,,,VFR,,,,,,,,,,,,METAR,255.0
KOWB 121356Z 08008KT 10SM OVC080 02/01 A3021 RMK AO2 SLP243 T00170006,KOWB,2019-01-12T13:56:00Z,37.72,-87.17,1.7,0.6,80,8,,10.0,30.209646,1024.3,,,TRUE,,,,,,,OVC,8000,,,,,,,VFR,,,,,,,,,,,,METAR,124.0
KNDZ 121356Z AUTO 11008KT 10SM BKN013 10/08 A3018 RMK AO2 SLP207 T01000083 $,KNDZ,2019-01-12T13:56:00Z,30.7,-87.02,10.0,8.3,110,8,,10.0,30.180119,1020.7,,TRUE,TRUE,TRUE,,,,,,BKN,1300,,,,,,,MVFR,,,,,,,,,,,,SPECI,54.0
KRCA 121356Z AUTO 13005KT 3/8SM +FZDZ FZFG VV000 M04/M04 A3022 RMK AO2 FZDZE1257FZDZB25 SLP271 T10441044 RVRNO $,KRCA,2019-01-12T13:56:00Z,44.13,-103.08,-4.4,-4.4,130,5,,0.38,30.221457,1027.1,,TRUE,TRUE,TRUE,,,,,+FZDZ FZFG,OVX,0,,,,,,,LIFR,,,,,,,,,,,0,SPECI,999.0
KNXP 121356Z AUTO 23003KT 10SM BKN065 BKN110 07/02 A3009 RMK AO2 SLP174 T00720022,KNXP,2019-01-12T13:56:00Z,34.28,-116.17,7.2,2.2,230,3,,10.0,30.088583,1017.4,,TRUE,TRUE,,,,,,,BKN,6500,BKN,11000,,,,,VFR,,,,,,,,,,,,METAR,626.0
KNBT 121356Z AUTO 04011KT 10SM CLR 06/M01 A3047 RMK AO2 SLP322 T00561006,KNBT,2019-01-12T13:56:00Z,35.02,-76.47,5.6,-0.6,40,11,,10.0,30.469488,1032.2,,TRUE,TRUE,,,,,,,CLR,,,,,,,,VFR,,,,,,,,,,,,METAR,5.0
KOXD 121356Z AUTO 11007KT 3/4SM -SN BKN005 OVC012 M02/M02 A3031 RMK AO2 P0002 T10201020,KOXD,2019-01-12T13:56:00Z,39.5,-84.78,-2.0,-2.0,110,7,,0.75,30.31004,,,TRUE,TRUE,,,,,,-SN,BKN,500,OVC,1200,,,,,LIFR,,,,,,0.02,,,,,,SPECI,317.0
KNY0 121356Z AUTO 29007KT 10SM SCT090 M14/M19 A3048 RMK AO2,KNY0,2019-01-12T13:56:00Z,42.98,-74.33,-14.0,-19.0,290,7,,10.0,30.481298,,,TRUE,TRUE,,,,,,,SCT,9000,,,,,,,VFR,,,,,,,,,,,,METAR,271.0
OTBH 121356Z 33013KT 9999 BKN200 18/11 A3011 RMK AO2A SLP198 T01840112 $,OTBH,2019-01-12T13:56:00Z,25.12,51.32,18.4,11.2,330,13,,6.21,30.109253,1019.8,,,TRUE,TRUE,,,,,,BKN,20000,,,,,,,VFR,,,,,,,,,,,,METAR,40.0
PHSF 121356Z AUTO 13004KT 10SM CLR 01/M04 A3027 RMK AO2 SLP167 WND DATA ESTMD T00131036 PWINO FZRANO $,PHSF,2019-01-12T13:56:00Z,19.77,-155.55,1.3,-3.6,130,4,,10.0,30.268702,1016.7,,TRUE,TRUE,TRUE,,,TRUE,TRUE,,CLR,,,,,,,,VFR,,,,,,,,,,,,METAR,1887.0
KNYG 121356Z AUTO 00000KT 10SM OVC095 00/M06 A3057 RMK AO2 SLP351 T00001061,KNYG,2019-01-12T13:56:00Z,38.5,-77.28,0.0,-6.1,0,0,,10.0,30.569881,1035.1,,TRUE,TRUE,,,,,,,OVC,9500,,,,,,,VFR,,,,,,,,,,,,METAR,4.0
RODN 121356Z AUTO 01009KT 10SM FEW029 SCT034 OVC042 20/15 M RMK AO2 SLPNO T02010149 $,RODN,2019-01-12T13:56:00Z,26.35,127.77,20.1,14.9,10,9,,10.0,,,,TRUE,TRUE,TRUE,,,,,,FEW,2900,SCT,3400,OVC,4200,,,VFR,,,,,,,,,,,,METAR,45.0
RKJK 121356Z AUTO 33008KT 5SM BR CLR 00/00 A3025 RMK AO2 SLP249 T00010000 PNO $,RKJK,2019-01-12T13:56:00Z,35.9,126.62,0.1,0.0,330,8,,5.0,30.250984,1024.9,,TRUE,TRUE,TRUE,,,,,BR,CLR,,,,,,,,MVFR,,,,,,,,,,,,METAR,9.0
KNPA 121356Z AUTO 06009KT 8SM OVC008 13/12 A3015 RMK AO2 SLP211 T01280117,KNPA,2019-01-12T13:56:00Z,30.35,-87.32,12.8,11.7,60,9,,8.0,30.15059,1021.1,,TRUE,TRUE,,,,,,,OVC,800,,,,,,,IFR,,,,,,,,,,,,SPECI,9.0
KMQE 121356Z AUTO 31012G20KT M10/M18 A3042 RMK AO1 SLP323 T11001178,KMQE,2019-01-12T13:56:00Z,42.22,-71.12,-10.0,-17.8,310,12,20,,30.41929,1032.3,,TRUE,TRUE,,,,,,,,,,,,,,,,,,,,,,,,,,,METAR,199.0
KP28 121356Z AUTO 36015G21KT 01/M01 A3002 RMK AO1 SLP177 T00061006,KP28,2019-01-12T13:56:00Z,37.28,-98.55,0.6,-0.6,360,15,21,,30.02067,1017.7,,TRUE,TRUE,,,,,,,,,,,,,,,,,,,,,,,,,,,METAR,469.0
KNFE 121356Z AUTO 00000KT 10SM BKN120 03/M01 A3052 RMK AO2 SLP336 T00331006,KNFE,2019-01-12T13:56:00Z,36.7,-76.13,3.3,-0.6,0,0,,10.0,30.519686,1033.6,,TRUE,TRUE,,,,,,,BKN,12000,,,,,,,VFR,,,,,,,,,,,,METAR,5.0
KNBC 121356Z 03009KT 10SM OVC060 07/03 A3038 RMK AO2 SLP287 T00720028,KNBC,2019-01-12T13:56:00Z,32.47,-80.72,7.2,2.8,30,9,,10.0,30.380905,1028.7,,,TRUE,,,,,,,OVC,6000,,,,,,,VFR,,,,,,,,,,,,SPECI,12.0
K8D3 121356Z AUTO 33011KT M08/M08 A3035 RMK AO1 SLP312 T10781083,K8D3,2019-01-12T13:56:00Z,45.67,-96.98,-7.8,-8.3,330,11,,,30.351377,1031.2,,TRUE,TRUE,,,,,,,,,,,,,,,,,,,,,,,,,,,METAR,354.0
KNFL 121356Z AUTO 07005KT 10SM CLR M01/M03 A3006 RMK AO2 SLP147 T10061028,KNFL,2019-01-12T13:56:00Z,39.42,-118.7,-0.6,-2.8,70,5,,10.0,30.059055,1014.7,,TRUE,TRUE,,,,,,,CLR,,,,,,,,VFR,,,,,,,,,,,,METAR,1199.0
KNCA 121356Z AUTO 04008KT 10SM SCT110 03/M02 A3047 RMK AO2 SLP321 T00331022,KNCA,2019-01-12T13:56:00Z,34.72,-77.45,3.3,-2.2,40,8,,10.0,30.469488,1032.1,,TRUE,TRUE,,,,,,,SCT,11000,,,,,,,VFR,,,,,,,,,,,,SPECI,8.0
K79J 121356Z AUTO 11006KT 10SM BKN022 OVC037 11/07 A3020 RMK AO2 SLP226 T01110067,K79J,2019-01-12T13:56:00Z,31.32,-86.4,11.1,6.7,110,6,,10.0,30.200787,1022.6,,TRUE,TRUE,,,,,,,BKN,2200,OVC,3700,,,,,MVFR,,,,,,,,,,,,SPECI,94.0
KDAY 121356Z 09008KT 3/4SM R06L/5500V6000FT -SN BR OVC021 M02/M04 A3033 RMK AO2 SLP284 P0004 T10221039,KDAY,2019-01-12T13:56:00Z,39.9,-84.22,-2.2,-3.9,90,8,,0.75,30.33071,1028.4,,,TRUE,,,,,,-SN BR,OVC,2100,,,,,,,LIFR,,,,,,0.04,,,,,,METAR,305.0
KCXY 121356Z 00000KT 10SM BKN110 M03/M10 A3054 RMK AO2 SLP350 T10331100,KCXY,2019-01-12T13:56:00Z,40.22,-76.85,-3.3,-10.0,0,0,,10.0,30.540354,1035.0,,,TRUE,,,,,,,BKN,11000,,,,,,,VFR,,,,,,,,,,,,METAR,106.0
KCTB 121356Z AUTO 28006KT 10SM CLR M05/M13 A3003 RMK AO2 SLP203 T10501128,KCTB,2019-01-12T13:56:00Z,48.6,-112.37,-5.0,-12.8,280,6,,10.0,30.029528,1020.3,,TRUE,TRUE,,,,,,,CLR,,,,,,,,VFR,,,,,,,,,,,,METAR,1175.0
KBED 121356Z 31008KT 10SM SCT100 M09/M19 A3048 RMK AO2 SLP339 T10891189,KBED,2019-01-12T13:56:00Z,42.47,-71.3,-8.9,-18.9,310,8,,10.0,30.481298,1033.9,,,TRUE,,,,,,,SCT,10000,,,,,,,VFR,,,,,,,,,,,,METAR,50.0
KART 121356Z AUTO 00000KT 10SM CLR M15/M18 A3059 RMK AO2 SLP371 T11501178,KART,2019-01-12T13:56:00Z,43.98,-76.03,-15.0,-17.8,0,0,,10.0,30.590551,1037.1,,TRUE,TRUE,,,,,,,CLR,,,,,,,,VFR,,,,,,,,,,,,METAR,100.0
KWMC 121356Z AUTO 05011KT 10SM CLR M02/M08 A3009 RMK AO2 SLP204 T10221078,KWMC,2019-01-12T13:56:00Z,40.9,-117.8,-2.2,-7.8,50,11,,10.0,30.088583,1020.4,,TRUE,TRUE,,,,,,,CLR,,,,,,,,VFR,,,,,,,,,,,,METAR,1310.0
KWJF 121356Z AUTO 02003KT 10SM -RA BKN046 OVC055 05/04 A3001 RMK AO2 SLP168 P0003 T00500044,KWJF,2019-01-12T13:56:00Z,34.72,-118.22,5.0,4.4,20,3,,10.0,30.008858,1016.8,,TRUE,TRUE,,,,,,-RA,BKN,4600,OVC,5500,,,,,VFR,,,,,,0.03,,,,,,METAR,715.0
KVPZ 121356Z AUTO 09007KT 9SM OVC050 M01/M06 A3033 RMK AO2 SLP279 T10111061 TSNO $,KVPZ,2019-01-12T13:56:00Z,41.45,-87.0,-1.1,-6.1,90,7,,9.0,30.33071,1027.9,,TRUE,TRUE,TRUE,,TRUE,,,,OVC,5000,,,,,,,VFR,,,,,,,,,,,,METAR,231.0
KSDF 121356Z 00000KT 7SM OVC008 02/M01 A3028 RMK AO2 SLP257 T00171006,KSDF,2019-01-12T13:56:00Z,38.18,-85.73,1.7,-0.6,0,0,,7.0,30.280512,1025.7,,,TRUE,,,,,,,OVC,800,,,,,,,IFR,,,,,,,,,,,,METAR,146.0
KSBP 121356Z 13004KT 10SM FEW065 OVC085 10/08 A2994 RMK AO2 RAE23 SLP140 P0000 T01000078,KSBP,2019-01-12T13:56:00Z,35.23,-120.63,10.0,7.8,130,4,,10.0,29.940945,1014.0,,,TRUE,,,,,,,FEW,6500,OVC,8500,,,,,VFR,,,,,,0.005,,,,,,METAR,59.0
KOFK 121356Z AUTO 34014KT 5SM BR OVC006 M06/M07 A3022 RMK AO2 SLP255 T10611072 $,KOFK,2019-01-12T13:56:00Z,41.98,-97.43,-6.1,-7.2,340,14,,5.0,30.221457,1025.5,,TRUE,TRUE,TRUE,,,,,BR,OVC,600,,,,,,,IFR,,,,,,,,,,,,METAR,470.0
PHBK 121356Z AUTO 07006KT 10SM CLR 19/16 A3000 RMK AO2 SLP161 T01940161,PHBK,2019-01-12T13:56:00Z,22.03,-159.78,19.4,16.1,70,6,,10.0,30.0,1016.1,,TRUE,TRUE,,,,,,,CLR,,,,,,,,VFR,,,,,,,,,,,,METAR,8.0
ROTM 121356Z 01009KT 10SM SCT029 OVC035 19/16 A3011 RMK AO2 SLP181 T01940161 $,ROTM,2019-01-12T13:56:00Z,26.27,127.75,19.4,16.1,10,9,,10.0,30.109253,1018.1,,,TRUE,TRUE,,,,,,SCT,2900,OVC,3500,,,,,VFR,,,,,,,,,,,,METAR,75.0
PAEI 121356Z 00000KT 10SM CLR M43/M49 A3003 RMK AO2A VIS 7/8 RWY14 SLP202 T14331491 $,PAEI,2019-01-12T13:56:00Z,64.67,-147.1,-43.3,-49.1,0,0,,10.0,30.029528,1020.2,,,TRUE,TRUE,,,,,,CLR,,,,,,,,VFR,,,,,,,,,,,,METAR,167.0
MUGM 121356Z 01009KT 9999 FEW030 25/18 A3013 RMK SLP201 T02470183,MUGM,2019-01-12T13:56:00Z,19.9,-75.2,24.7,18.3,10,9,,6.21,30.129921,1020.1,,,,,,,,,,FEW,3000,,,,,,,VFR,,,,,,,,,,,,METAR,17.0
KMMT 121356Z 07006KT 10SM BKN022 BKN060 OVC150 03/M04 A3042 RMK AO2A SLP306 T00251045 $,KMMT,2019-01-12T13:56:00Z,33.92,-80.78,2.5,-4.5,70,6,,10.0,30.41929,1030.6,,,TRUE,TRUE,,,,,,BKN,2200,BKN,6000,OVC,15000,,,MVFR,,,,,,,,,,,,METAR,77.0
KHWV 121356Z AUTO 30003KT 10SM OVC080 M06/M12 A3054 RMK AO2 SLP342 T10561122,KHWV,2019-01-12T13:56:00Z,40.82,-72.87,-5.6,-12.2,300,3,,10.0,30.540354,1034.2,,TRUE,TRUE,,,,,,,OVC,8000,,,,,,,VFR,,,,,,,,,,,,METAR,21.0
KHPN 121356Z 21004KT 10SM BKN075 M06/M13 A3050 RMK SLP 341,KHPN,2019-01-12T13:56:00Z,41.07,-73.7,-6.0,-13.0,210,4,,10.0,30.499016,1034.1,,,,,,,,,,BKN,7500,,,,,,,VFR,,,,,,,,,,,,METAR,121.0
KHYA 121356Z 30007KT 260V330 10SM CLR M07/M18 A3044 RMK AO2 SLP311 T10671183,KHYA,2019-01-12T13:56:00Z,41.67,-70.27,-6.7,-18.3,300,7,,10.0,30.43996,1031.1,,,TRUE,,,,,,,CLR,,,,,,,,VFR,,,,,,,,,,,,METAR,22.0
KLNR 121356Z AUTO 07008KT 6SM HZ OVC080 M02/M04 A3033 RMK AO2 SLP275 T10171044,KLNR,2019-01-12T13:56:00Z,43.22,-90.18,-1.7,-4.4,70,8,,6.0,30.33071,1027.5,,TRUE,TRUE,,,,,,HZ,OVC,8000,,,,,,,VFR,,,,,,,,,,,,METAR,217.0
KLAS 121356Z 00000KT 10SM FEW200 BKN250 07/M03 A3009 RMK AO2 SLP186 T00721028,KLAS,2019-01-12T13:56:00Z,36.07,-115.17,7.2,-2.8,0,0,,10.0,30.088583,1018.6,,,TRUE,,,,,,,FEW,20000,BKN,25000,,,,,VFR,,,,,,,,,,,,METAR,636.0
KJMS 121356Z AUTO 36005KT 6SM BR OVC004 M08/M10 A3036 RMK AO2 SLP311 I1001 T10781100,KJMS,2019-01-12T13:56:00Z,46.93,-98.67,-7.8,-10.0,360,5,,6.0,30.360237,1031.1,,TRUE,TRUE,,,,,,BR,OVC,400,,,,,,,LIFR,,,,,,,,,,,,METAR,455.0
KISP 121356Z 33005KT 10SM OVC085 M05/M11 A3053 RMK AO2 SLP341 T10501111 $,KISP,2019-01-12T13:56:00Z,40.8,-73.1,-5.0,-11.1,330,5,,10.0,30.528543,1034.1,,,TRUE,TRUE,,,,,,OVC,8500,,,,,,,VFR,,,,,,,,,,,,METAR,43.0
KGON 121356Z 32008KT 10SM BKN085 M06/M13 A3052 RMK AO2 SLP333 T10561133,KGON,2019-01-12T13:56:00Z,41.33,-72.05,-5.6,-13.3,320,8,,10.0,30.519686,1033.3,,,TRUE,,,,,,,BKN,8500,,,,,,,VFR,,,,,,,,,,,,METAR,3.0
KFSD 121356Z 02006KT 6SM BR OVC011 M05/M07 A3026 RMK AO2 SLP269 T10501067,KFSD,2019-01-12T13:56:00Z,43.58,-96.75,-5.0,-6.7,20,6,,6.0,30.259842,1026.9,,,TRUE,,,,,,BR,OVC,1100,,,,,,,MVFR,,,,,,,,,,,,METAR,436.0
KEED 121356Z AUTO 00000KT 10SM CLR 09/04 A3007 RMK AO2 SLP172 T00890039,KEED,2019-01-12T13:56:00Z,34.77,-114.62,8.9,3.9,0,0,,10.0,30.070866,1017.2,,TRUE,TRUE,,,,,,,CLR,,,,,,,,VFR,,,,,,,,,,,,METAR,302.0
KDUG 121356Z AUTO 00000KT 10SM CLR M03/M03 A3016 RMK AO2 SLP207 T10281033,KDUG,2019-01-12T13:56:00Z,31.47,-109.58,-2.8,-3.3,0,0,,10.0,30.159449,1020.7,,TRUE,TRUE,,,,,,,CLR,,,,,,,,VFR,,,,,,,,,,,,METAR,1265.0
KABH 121356Z AUTO 35005KT A3015 RMK AO2 SLPNO $,KABH,2019-01-12T13:56:00Z,38.75,-104.3,,,350,5,,,30.15059,,,TRUE,TRUE,TRUE,,,,,,,,,,,,,,,,,,,,,,,,,,SPECI,1840.0
KMEH 121356Z AUTO 00000KT 10SM CLR 01/M04 A3008 RMK AO2 SLP204 T00061044,KMEH,2019-01-12T13:56:00Z,45.52,-118.42,0.6,-4.4,0,0,,10.0,30.079725,1020.4,,TRUE,TRUE,,,,,,,CLR,,,,,,,,VFR,,,,,,,,,,,,METAR,1136.0
KALK 121356Z AUTO 10004KT 10SM CLR 03/M03 A3015 RMK AO2 SLP174 T00281028,KALK,2019-01-12T13:56:00Z,31.6,-110.43,2.8,-2.8,100,4,,10.0,30.15059,1017.4,,TRUE,TRUE,,,,,,,CLR,,,,,,,,VFR,,,,,,,,,,,,METAR,1453.0
KLWV 121356Z AUTO 08008KT 3SM -SN BR SCT007 SCT033 OVC048 01/M01 A3024 RMK AO2 P0000 T00061011,KLWV,2019-01-12T13:56:00Z,38.77,-87.6,0.6,-1.1,80,8,,3.0,30.239174,,,TRUE,TRUE,,,,,,-SN BR,SCT,700,SCT,3300,OVC,4800,,,MVFR,,,,,,0.005,,,,,,METAR,131.0
KRYM 121356Z AUTO 06005KT 10SM OVC034 M04/M07 A3036 RMK AO2 SLP306 T10451074 $,KRYM,2019-01-12T13:56:00Z,46.08,-94.37,-4.5,-7.4,60,5,,10.0,30.360237,1030.6,,TRUE,TRUE,TRUE,,,,,,OVC,3400,,,,,,,VFR,,,,,,,,,,,,METAR,351.0
KDRA 121356Z AUTO 03006KT 10SM CLR 02/M03 A3008 RMK AO2 SLP178 T00221028,KDRA,2019-01-12T13:56:00Z,36.62,-116.03,2.2,-2.8,30,6,,10.0,30.079725,1017.8,,TRUE,TRUE,,,,,,,CLR,,,,,,,,VFR,,,,,,,,,,,,METAR,1006.0
KNSE 121356Z AUTO 10008KT 10SM SCT012 BKN110 09/08 A3017 RMK AO2 SLP205 T00940083 $,KNSE,2019-01-12T13:56:00Z,30.73,-87.02,9.4,8.3,100,8,,10.0,30.171259,1020.5,,TRUE,TRUE,TRUE,,,,,,SCT,1200,BKN,11000,,,,,VFR,,,,,,,,,,,,SPECI,61.0
KIAB 121356Z 01017KT 10SM OVC007 00/00 A2998 RMK AO2A SNE25RASNB25E36RAB36E38 SLP166 P0000 T00020001 CHINO RWY19 $,KIAB,2019-01-12T13:56:00Z,37.62,-97.27,0.2,0.1,10,17,,10.0,29.97933,1016.6,,,TRUE,TRUE,,,,,,OVC,700,,,,,,,IFR,,,,,,0.005,,,,,,SPECI,418.0
KCEF 121356Z 36003KT 10SM FEW100 SCT250 M09/M16 A3049 RMK AO2A SLP336 T10941162,KCEF,2019-01-12T13:56:00Z,42.2,-72.52,-9.4,-16.2,360,3,,10.0,30.490158,1033.6,,,TRUE,,,,,,,FEW,10000,SCT,25000,,,,,VFR,,,,,,,,,,,,SPECI,75.0
PAHX 121356Z AUTO 04018KT 8SM CLR M32/M35 A2986 RMK AO2 SLP117 T13171350 FZRANO,PAHX,2019-01-12T13:56:00Z,62.7,-159.57,-31.7,-35.0,40,18,,8.0,29.861221,1011.7,,TRUE,TRUE,,,,TRUE,,,CLR,,,,,,,,VFR,,,,,,,,,,,,METAR,24.0
PAHP 121356Z AUTO 05017KT 10SM CLR M27/M30 A2978 RMK AO2 SLP122 T12721300 FZRANO,PAHP,2019-01-12T13:56:00Z,61.52,-166.15,-27.2,-30.0,50,17,,10.0,29.778543,1012.2,,TRUE,TRUE,,,,TRUE,,,CLR,,,,,,,,VFR,,,,,,,,,,,,METAR,5.0
PAGN 121356Z AUTO 12004KT 10SM BKN029 OVC037 02/01 A2986 RMK AO2 SLP102 T00170011 FZRANO,PAGN,2019-01-12T13:56:00Z,57.5,-134.58,1.7,1.1,120,4,,10.0,29.861221,1010.2,,TRUE,TRUE,,,,TRUE,,,BKN,2900,OVC,3700,,,,,MVFR,,,,,,,,,,,,METAR,2.0
PAGL 121356Z AUTO 30012KT 10SM CLR M33/M37 A2994 RMK AO2 SLP134 T13331367 FZRANO,PAGL,2019-01-12T13:56:00Z,64.55,-163.03,-33.3,-36.7,300,12,,10.0,29.940945,1013.4,,TRUE,TRUE,,,,TRUE,,,CLR,,,,,,,,VFR,,,,,,,,,,,,METAR,8.0
PAFM 121356Z AUTO 03009KT 10SM CLR M35/ A3011 RMK AO2 SLP216 T1350 FZRANO,PAFM,2019-01-12T13:56:00Z,67.1,-157.85,-35.0,,30,9,,10.0,30.109253,1021.6,,TRUE,TRUE,,,,TRUE,,,CLR,,,,,,,,VFR,,,,,,,,,,,,METAR,88.0
PAFE 121356Z AUTO 08004KT 10SM OVC038 03/02 A2988 RMK AO2 SLP130 T00280022,PAFE,2019-01-12T13:56:00Z,56.97,-133.92,2.8,2.2,80,4,,10.0,29.878937,1013.0,,TRUE,TRUE,,,,,,,OVC,3800,,,,,,,VFR,,,,,,,,,,,,METAR,9.0
PABV 121356Z AUTO 20003KT 10SM -SN OVC007 M18/M21 A2987 RMK AO2 SNB36 SLP126 P0000 T11831206 FZRANO,PABV,2019-01-12T13:56:00Z,61.42,-149.52,-18.3,-20.6,200,3,,10.0,29.870079,1012.6,,TRUE,TRUE,,,,TRUE,,-SN,OVC,700,,,,,,,IFR,,,,,,0.005,,,,,,METAR,29.0
KYKN 121356Z AUTO 32013KT 5SM BR OVC006 M06/M07 A3028 RMK AO2 SLP287 T10611072 FZRANO,KYKN,2019-01-12T13:56:00Z,42.92,-97.37,-6.1,-7.2,320,13,,5.0,30.280512,1028.7,,TRUE,TRUE,,,,TRUE,,BR,OVC,600,,,,,,,IFR,,,,,,,,,,,,METAR,398.0
KY50 121356Z AUTO 06007KT 8SM OVC023 M02/M05 A3037 RMK AO2 SLP315 T10221050 FZRANO $,KY50,2019-01-12T13:56:00Z,44.03,-89.3,-2.2,-5.0,60,7,,8.0,30.369095,1031.5,,TRUE,TRUE,TRUE,,,TRUE,,,OVC,2300,,,,,,,MVFR,,,,,,,,,,,,METAR,262.0
KWVL 121356Z AUTO 10SM CLR M14/M21 A3030 RMK AO2 SLP298 T11391206 FZRANO $,KWVL,2019-01-12T13:56:00Z,44.52,-69.67,-13.9,-20.6,,,,10.0,30.301182,1029.8,,TRUE,TRUE,TRUE,,,TRUE,,,CLR,,,,,,,,VFR,,,,,,,,,,,,METAR,101.0
KVIS 121356Z AUTO 09003KT 10SM SCT090 09/08 A2996 RMK AO2 SLP156 T00940078 PNO $,KVIS,2019-01-12T13:56:00Z,36.32,-119.4,9.4,7.8,90,3,,10.0,29.958662,1015.6,,TRUE,TRUE,TRUE,,,,,,SCT,9000,,,,,,,VFR,,,,,,,,,,,,METAR,89.0
KP60 121356Z AUTO 00000KT M23/M27 A3024 RMK AO1 SLP367 T12331267,KP60,2019-01-12T13:56:00Z,44.55,-110.42,-23.3,-26.7,0,0,,,30.239174,1036.7,,TRUE,TRUE,,,,,,,,,,,,,,,,,,,,,,,,,,,METAR,2388.0
EGUL 121356Z AUTO 27015G24KT 9999 SCT095 09/06 A3004 RMK AO2 SLP176 T00940056 $,EGUL,2019-01-12T13:56:00Z,52.42,0.57,9.4,5.6,270,15,24,6.21,30.041338,1017.6,,TRUE,TRUE,TRUE,,,,,,SCT,9500,,,,,,,VFR,,,,,,,,,,,,METAR,10.0
EGUN 121356Z 27016KT 9999 FEW025 SCT032 BKN095 09/09 A3004 RMK AO2A SLP176 WND DATA ESTMD T00940094 .,EGUN,2019-01-12T13:56:00Z,52.37,0.47,9.4,9.4,270,16,,6.21,30.041338,1017.6,,,TRUE,,,,,,,FEW,2500,SCT,3200,BKN,9500,,,VFR,,,,,,,,,,,,SPECI,10.0
EGVA 121356Z AUTO 28010KT 9999 BKN026 OVC035 10/05 A3017 RMK AO2 BKN V OVC SLP222 T00970051 $,EGVA,2019-01-12T13:56:00Z,51.67,-1.77,9.7,5.1,280,10,,6.21,30.171259,1022.2,,TRUE,TRUE,TRUE,,,,,,BKN,2600,OVC,3500,,,,,MVFR,,,,,,,,,,,,METAR,87.0
KMOB 121356Z 11010KT 10SM SCT046 BKN250 12/08 A3012 RMK AO2 SLP200 T01170083 $,KMOB,2019-01-12T13:56:00Z,30.68,-88.25,11.7,8.3,110,10,,10.0,30.121063,1020.0,,,TRUE,TRUE,,,,,,SCT,4600,BKN,25000,,,,,VFR,,,,,,,,,,,,METAR,63.0
KMDT 121356Z 00000KT 10SM SCT110 BKN180 M04/M09 A3054 RMK AO2 SLP347 T10391094,KMDT,2019-01-12T13:56:00Z,40.2,-76.77,-3.9,-9.4,0,0,,10.0,30.540354,1034.7,,,TRUE,,,,,,,SCT,11000,BKN,18000,,,,,VFR,,,,,,,,,,,,METAR,95.0
KRDR 121356Z AUTO 01005KT 10SM OVC007 M09/M10 A3042 RMK AO2 SLP326 T10911099 $,KRDR,2019-01-12T13:56:00Z,47.97,-97.4,-9.1,-9.9,10,5,,10.0,30.41929,1032.6,,TRUE,TRUE,TRUE,,,,,,OVC,700,,,,,,,IFR,,,,,,,,,,,,METAR,278.0
KADW 121356Z 00000KT 10SM OVC120 M02/M07 A3053 RMK AO2A SLP349 T10171072 $,KADW,2019-01-12T13:56:00Z,38.82,-76.87,-1.7,-7.2,0,0,,10.0,30.528543,1034.9,,,TRUE,TRUE,,,,,,OVC,12000,,,,,,,VFR,,,,,,,,,,,,METAR,86.0
BGTL 121356Z AUTO 10009KT 9999 CLR M32/M35 A3005 RMK AO2 SLP171 T13171351 TSNO CHINO RWY26 $,BGTL,2019-01-12T13:56:00Z,76.53,-68.7,-31.7,-35.1,100,9,,6.21,30.050198,1017.1,,TRUE,TRUE,TRUE,,TRUE,,,,CLR,,,,,,,,VFR,,,,,,,,,,,,METAR,77.0
KWRI 121356Z AUTO 35008KT 10SM SCT080 M04/M12 A3053 RMK AO2 SLP340 T10451122,KWRI,2019-01-12T13:56:00Z,40.02,-74.58,-4.5,-12.2,350,8,,10.0,30.528543,1034.0,,TRUE,TRUE,,,,,,,SCT,8000,,,,,,,VFR,,,,,,,,,,,,METAR,41.0
KPSM 121356Z 27014G23KT 10SM FEW180 M11/M20 A3042 RMK AO2A SLP306 T11131199,KPSM,2019-01-12T13:56:00Z,43.07,-70.82,-11.3,-19.9,270,14,23,10.0,30.41929,1030.6,,,TRUE,,,,,,,FEW,18000,,,,,,,VFR,,,,,,,,,,,,METAR,31.0
KOFF 121356Z COR 02008KT 1 3/4SM -SN BKN002 M01/M01 A3014 RMK AO2A SLP222 P0004 $ COR 1411,KOFF,2019-01-12T13:56:00Z,41.12,-95.92,-1.0,-1.0,20,8,,1.75,30.138779,1022.2,TRUE,,TRUE,TRUE,,,,,-SN,BKN,200,,,,,,,LIFR,,,,,,0.04,,,,,,METAR,319.0
KMUI 121356Z AUTO 00000KT 10SM CLR M07/M11 A3053 RMK AO2 SLP349 T10681108 $,KMUI,2019-01-12T13:56:00Z,40.42,-76.57,-6.8,-10.8,0,0,,10.0,30.528543,1034.9,,TRUE,TRUE,TRUE,,,,,,CLR,,,,,,,,VFR,,,,,,,,,,,,METAR,149.0
KMIB 121356Z AUTO 16006KT 10SM OVC013 M11/M13 A3034 RMK AO2 SLP317 T11141130,KMIB,2019-01-12T13:56:00Z,48.42,-101.33,-11.4,-13.0,160,6,,10.0,30.339567,1031.7,,TRUE,TRUE,,,,,,,OVC,1300,,,,,,,MVFR,,,,,,,,,,,,METAR,508.0
KLFI 121356Z 02004KT 10SM FEW070 OVC110 02/M09 A3052 RMK AO2A SLP342 T00241089 $,KLFI,2019-01-12T13:56:00Z,37.07,-76.37,2.4,-8.9,20,4,,10.0,30.519686,1034.2,,,TRUE,TRUE,,,,,,FEW,7000,OVC,11000,,,,,VFR,,,,,,,,,,,,METAR,3.0
KHOP 121356Z AUTO 10009KT 10SM OVC090 02/01 A3017 RMK AO2 SLP223 T00240009,KHOP,2019-01-12T13:56:00Z,36.67,-87.5,2.4,0.9,100,9,,10.0,30.171259,1022.3,,TRUE,TRUE,,,,,,,OVC,9000,,,,,,,VFR,,,,,,,,,,,,METAR,174.0
KGUS 121356Z 08008KT 1 7/8SM -SN BR FEW012 OVC024 M03/M03 A3030 RMK AO2A SLP275 P0001 T10261026 $,KGUS,2019-01-12T13:56:00Z,40.63,-86.15,-2.6,-2.6,80,8,,1.88,30.301182,1027.5,,,TRUE,TRUE,,,,,-SN BR,FEW,1200,OVC,2400,,,,,IFR,,,,,,0.01,,,,,,METAR,247.0
KGTB 121356Z AUTO 14006KT 10SM CLR M18/M22 A3053 RMK AO2 SLP358 T11801216 VISNO RWY03 $,KGTB,2019-01-12T13:56:00Z,44.07,-75.72,-18.0,-21.6,140,6,,10.0,30.528543,1035.8,,TRUE,TRUE,TRUE,,,,,,CLR,,,,,,,,VFR,,,,,,,,,,,,METAR,207.0
KFAF 121356Z AUTO 00000KT 10SM FEW110 02/M09 M RMK AO2 SLPNO T00181089 $,KFAF,2019-01-12T13:56:00Z,37.12,-76.62,1.8,-8.9,0,0,,10.0,,,,TRUE,TRUE,TRUE,,,,,,FEW,11000,,,,,,,VFR,,,,,,,,,,,,METAR,4.0
KWRB 121356Z AUTO 10004KT 10SM CLR 06/M01 A3031 RMK AO2 SLP268 T00641008,KWRB,2019-01-12T13:56:00Z,32.62,-83.58,6.4,-0.8,100,4,,10.0,30.31004,1026.8,,TRUE,TRUE,,,,,,,CLR,,,,,,,,VFR,,,,,,,,,,,,SPECI,90.0
KLSF 121356Z AUTO 08007KT 10SM BKN038 OVC120 08/00 A3025 RMK AO2 SLP250 T00781002,KLSF,2019-01-12T13:56:00Z,32.32,-84.97,7.8,-0.2,80,7,,10.0,30.250984,1025.0,,TRUE,TRUE,,,,,,,BKN,3800,OVC,12000,,,,,VFR,,,,,,,,,,,,METAR,71.0
KCFE 121356Z AUTO 04004KT 10SM CLR M08/M10 A3034 RMK AO2 T10801096,KCFE,2019-01-12T13:56:00Z,45.17,-93.85,-8.0,-9.6,40,4,,10.0,30.339567,,,TRUE,TRUE,,,,,,,CLR,,,,,,,,VFR,,,,,,,,,,,,METAR,295.0
KCDI 121356Z AUTO 00000KT 10SM OVC046 M03/M07 A3040 RMK AO2 T10261069,KCDI,2019-01-12T13:56:00Z,39.97,-81.58,-2.6,-6.9,0,0,,10.0,30.398623,,,TRUE,TRUE,,,,,,,OVC,4600,,,,,,,VFR,,,,,,,,,,,,METAR,244.0
KSXT 121356Z AUTO 12012G20KT 10SM CLR 05/M03 A2989 RMK AO2 SLP120 T00501028,KSXT,2019-01-12T13:56:00Z,42.6,-123.37,5.0,-2.8,120,12,20,10.0,29.890747,1012.0,,TRUE,TRUE,,,,,,,CLR,,,,,,,,VFR,,,,,,,,,,,,SPECI,1170.0
KSMP 121356Z AUTO VRB06KT 2 1/2SM BR OVC003 M01/M02 A3001 RMK AO2 VIS 1 1/2V5 SLP188 T10061022 $,KSMP,2019-01-12T13:56:00Z,47.28,-121.33,-0.6,-2.2,0,6,,2.5,30.008858,1018.8,,TRUE,TRUE,TRUE,,,,,BR,OVC,300,,,,,,,LIFR,,,,,,,,,,,,METAR,1208.0
KFFO 121356Z COR 08006KT 3/4SM R05L/4000V4500FT -SN BR VV016 M03/M04 A3034 RMK AO2A SLP288 P0001 T10281045 COR 1411,KFFO,2019-01-12T13:56:00Z,39.82,-84.03,-2.8,-4.5,80,6,,0.75,30.339567,1028.8,TRUE,,TRUE,,,,,,-SN BR,OVX,0,,,,,,,LIFR,,,,,,0.01,,,,,1600,METAR,251.0
KHZR 121356Z AUTO 12005KT 7SM -RA OVC021 12/11 A3001 RMK AO2 P0001,KHZR,2019-01-12T13:56:00Z,30.72,-91.48,12.0,11.0,120,5,,7.0,30.008858,,,TRUE,TRUE,,,,,,-RA,OVC,2100,,,,,,,MVFR,,,,,,0.01,,,,,,METAR,12.0
KSGU 121356Z AUTO 02004KT 10SM CLR 01/M03 A3019 RMK AO2 SLP230 T00111033 FZRANO,KSGU,2019-01-12T13:56:00Z,37.07,-113.52,1.1,-3.3,20,4,,10.0,30.188976,1023.0,,TRUE,TRUE,,,,TRUE,,,CLR,,,,,,,,VFR,,,,,,,,,,,,METAR,896.0
KSGT 121356Z AUTO 14009KT 10SM -RA OVC016 06/05 A2998 RMK AO2 SLP154 P0002 T00610050,KSGT,2019-01-12T13:56:00Z,34.6,-91.57,6.1,5.0,140,9,,10.0,29.97933,1015.4,,TRUE,TRUE,,,,,,-RA,OVC,1600,,,,,,,MVFR,,,,,,0.02,,,,,,METAR,68.0
KCOE 121356Z AUTO 03012KT 10SM OVC006 00/M01 A3018 RMK AO2 SLP258 T00001011 FZRANO,KCOE,2019-01-12T13:56:00Z,47.77,-116.82,0.0,-1.1,30,12,,10.0,30.180119,1025.8,,TRUE,TRUE,,,,TRUE,,,OVC,600,,,,,,,IFR,,,,,,,,,,,,METAR,707.0
PGUA 121356Z COR AUTO 05014KT 10SM SCT016 25/21 A2992 RMK AO2 BKN V SCT SLP122 T02490212 402880246 $ COR 1414,PGUA,2019-01-12T13:56:00Z,13.57,144.92,24.9,21.2,50,14,,10.0,29.920275,1012.2,TRUE,TRUE,TRUE,TRUE,,,,,,SCT,1600,,,,,,,VFR,,,,28.8,24.6,,,,,,,METAR,187.0
KFRI 121356Z AUTO 03010KT 9SM -RA BKN008 OVC013 M A3006 RMK AO2 UPB35E43RAB43 CIG 008V010 SLPNO ALSTG ESTMD P0000 $,KFRI,2019-01-12T13:56:00Z,39.03,-96.77,,,30,10,,9.0,30.059055,,,TRUE,TRUE,TRUE,,,,,-RA,BKN,800,OVC,1300,,,,,IFR,,,,,,0.005,,,,,,SPECI,325.0
KQBF 121356Z AUTO VRB03KT 9999 FEW220 35/M07 A2985 RMK AO2 SLP063 WND DATA ESTMD T03481066,KQBF,2019-01-12T13:56:00Z,,,34.8,-6.6,0,3,,6.21,29.84941,1006.3,,TRUE,TRUE,,,,,,,FEW,22000,,,,,,,VFR,,,,,,,,,,,,METAR,
KQND 121356Z AUTO 07007G11KT 000V100 9999 CLR 36/M05 A2984 RMK AO2 SLPNO WND DATA ESTMD T03551047,KQND,2019-01-12T13:56:00Z,,,35.5,-4.7,70,7,11,6.21,29.840551,,,TRUE,TRUE,,,,,,,CLR,,,,,,,,VFR,,,,,,,,,,,,METAR,
KQN3 121356Z AUTO VRB04KT M M CLR 35/M08 A2983 RMK AO2 SLPNO WND DATA ESTMD T03461076 $,KQN3,2019-01-12T13:56:00Z,,,34.6,-7.6,0,4,,,29.828741,,,TRUE,TRUE,TRUE,,,,,,CLR,,,,,,,,,,,,,,,,,,,,METAR,
KQRH 121356Z AUTO 06007KT 9999 CLR 27/19 A2999 RMK AO2 SLP142 WND DATA ESTMD T02660187,KQRH,2019-01-12T13:56:00Z,,,26.6,18.7,60,7,,6.21,29.991142,1014.2,,TRUE,TRUE,,,,,,,CLR,,,,,,,,VFR,,,,,,,,,,,,METAR,
KQHY 121356Z AUTO 00000KT 10SM OVC010 11/09 A3019 RMK AO2 SLP230 T01110093 $,KQHY,2019-01-12T13:56:00Z,,,11.1,9.3,0,0,,10.0,30.188976,1023.0,,TRUE,TRUE,TRUE,,,,,,OVC,1000,,,,,,,MVFR,,,,,,,,,,,,METAR,
KQDG 121356Z AUTO 30003KT M M BKN048 M01/M04 A3015 RMK AO2 SLP212 T10071045 PWINO FZRANO $,KQDG,2019-01-12T13:56:00Z,,,-0.7,-4.5,300,3,,,30.15059,1021.2,,TRUE,TRUE,TRUE,,,TRUE,TRUE,,BKN,4800,,,,,,,,,,,,,,,,,,,METAR,
KQD3 121356Z AUTO 06011KT 9999 CLR 27/18 A2995 RMK AO2 SLP127 WND DATA ESTMD T02720176,KQD3,2019-01-12T13:56:00Z,,,27.2,17.6,60,11,,6.21,29.949802,1012.7,,TRUE,TRUE,,,,,,,CLR,,,,,,,,VFR,,,,,,,,,,,,METAR,
KSSC 121356Z AUTO 05006KT 10SM OVC024 03/M04 A3043 RMK AO2 OVC V BKN CIG 023 RWY22 SLP308 T00251040 TSNO $,KSSC,2019-01-12T13:56:00Z,33.97,-80.47,2.5,-4.0,50,6,,10.0,30.431103,1030.8,,TRUE,TRUE,TRUE,,TRUE,,,,OVC,2400,,,,,,,MVFR,,,,,,,,,,,,METAR,74.0
KSKF 121356Z 25003KT 10SM MIFG CLR 13/13 A3005 RMK AO2A SLP174 T01260126,KSKF,2019-01-12T13:56:00Z,29.37,-98.57,12.6,12.6,250,3,,10.0,30.050198,1017.4,,,TRUE,,,,,,MIFG,CLR,,,,,,,,VFR,,,,,,,,,,,,METAR,210.0
KTIK 121356Z 34018KT 7SM -RA OVC007 03/03 A2989 RMK AO2A PK WND 35026/31 CIG 003 RWY13 CIG 006 RWY18 SLPNO P0000 T00250025 $,KTIK,2019-01-12T13:56:00Z,35.42,-97.37,2.5,2.5,340,18,,7.0,29.890747,,,,TRUE,TRUE,,,,,-RA,OVC,700,,,,,,,IFR,,,,,,0.005,,,,,,METAR,394.0
KVAD 121356Z AUTO 09005KT 10SM BKN060 09/07 A3026 RMK AO2 SLP250 T00920071 $,KVAD,2019-01-12T13:56:00Z,30.97,-83.2,9.2,7.1,90,5,,10.0,30.259842,1025.0,,TRUE,TRUE,TRUE,,,,,,BKN,6000,,,,,,,VFR,,,,,,,,,,,,METAR,71.0
KTTS 121356Z AUTO 11007KT 10SM FEW060 21/13 M RMK AO2 SLPNO T02080130 $,KTTS,2019-01-12T13:56:00Z,28.62,-80.72,20.8,13.0,110,7,,10.0,,,,TRUE,TRUE,TRUE,,,,,,FEW,6000,,,,,,,VFR,,,,,,,,,,,,METAR,3.0
KCOD 121356Z AUTO 27003KT 10SM CLR M10/M12 A3017 RMK AO2 SLP281 T11001117 FZRANO,KCOD,2019-01-12T13:56:00Z,44.52,-109.02,-10.0,-11.7,270,3,,10.0,30.171259,1028.1,,TRUE,TRUE,,,,TRUE,,,CLR,,,,,,,,VFR,,,,,,,,,,,,METAR,1553.0
KRND 121356Z AUTO 32010KT 10SM CLR 13/11 A3005 RMK AO2 SLP174 T01280110,KRND,2019-01-12T13:56:00Z,29.52,-98.27,12.8,11.0,320,10,,10.0,30.050198,1017.4,,TRUE,TRUE,,,,,,,CLR,,,,,,,,VFR,,,,,,,,,,,,METAR,232.0
KPOB 121356Z AUTO 08004KT 10SM OVC100 02/M04 A3048 RMK AO2 SLP327 T00191038 $,KPOB,2019-01-12T13:56:00Z,35.17,-79.02,1.9,-3.8,80,4,,10.0,30.481298,1032.7,,TRUE,TRUE,TRUE,,,,,,OVC,10000,,,,,,,VFR,,,,,,,,,,,,METAR,66.0
PFNO 121356Z AUTO 04005KT 10SM CLR M38/ A3012 RMK AO2 SLP201 T1383 FZRANO,PFNO,2019-01-12T13:56:00Z,66.82,-161.02,-38.3,,40,5,,10.0,30.121063,1020.1,,TRUE,TRUE,,,,TRUE,,,CLR,,,,,,,,VFR,,,,,,,,,,,,METAR,17.0
KNUW 121356Z 09006KT 10SM FEW095 SCT120 BKN200 07/01 A2998 RMK AO2 SLP153 T00720011 $,KNUW,2019-01-12T13:56:00Z,48.35,-122.65,7.2,1.1,90,6,,10.0,29.97933,1015.3,,,TRUE,TRUE,,,,,,FEW,9500,SCT,12000,BKN,20000,,,VFR,,,,,,,,,,,,METAR,14.0
PAMY 121356Z AUTO 05022KT 2 1/2SM HZ CLR M25/M28 A2968 RMK AO2 PK WND 05026/1339 SNE1257B38E49 SLP053 P0000 T12501278 FZRANO $,PAMY,2019-01-12T13:56:00Z,60.37,-166.27,-25.0,-27.8,50,22,,2.5,29.681103,1005.3,,TRUE,TRUE,TRUE,,,TRUE,,HZ,CLR,,,,,,,,IFR,,,,,,0.005,,,,,,METAR,13.0
KDYS 121356Z 28008KT 10SM CLR 04/01 A3010 RMK AO2A SLP198 ALSTG/SLP ESTMD PNO $,KDYS,2019-01-12T13:56:00Z,32.42,-99.83,4.0,1.0,280,8,,10.0,30.100393,1019.8,,,TRUE,TRUE,,,,,,CLR,,,,,,,,VFR,,,,,,,,,,,,METAR,545.0
KHFF 121356Z AUTO 06004KT 10SM SCT110 BKN170 02/M05 A3046 RMK AO2 SLP335 T00191054,KHFF,2019-01-12T13:56:00Z,35.02,-79.5,1.9,-5.4,60,4,,10.0,30.46063,1033.5,,TRUE,TRUE,,,,,,,SCT,11000,BKN,17000,,,,,VFR,,,,,,,,,,,,METAR,115.0
RKSG 121356Z 00000KT 3SM BR CLR M02/M02 A3024 RMK AO2A SLP244 T10241024 $,RKSG,2019-01-12T13:56:00Z,36.97,127.02,-2.4,-2.4,0,0,,3.0,30.239174,1024.4,,,TRUE,TRUE,,,,,BR,CLR,,,,,,,,MVFR,,,,,,,,,,,,METAR,16.0
KNJK 121356Z 36005KT 7SM FEW100 BKN200 10/06 A3001 RMK AO2 SLP177 T01000061 $,KNJK,2019-01-12T13:56:00Z,32.82,-115.67,10.0,6.1,360,5,,7.0,30.008858,1017.7,,,TRUE,TRUE,,,,,,FEW,10000,BKN,20000,,,,,VFR,,,,,,,,,,,,METAR,-13.0
KVPS 121356Z AUTO 05005KT 10SM OVC016 10/08 A3018 RMK AO2 CIG 015 RWY01 CIG 015 RWY12 CIG 015 RWY30 SLP227 T01030081 $,KVPS,2019-01-12T13:56:00Z,30.47,-86.52,10.3,8.1,50,5,,10.0,30.180119,1022.7,,TRUE,TRUE,TRUE,,,,,,OVC,1600,,,,,,,MVFR,,,,,,,,,,,,METAR,26.0
KVBT 121356Z AUTO 09005KT 4SM -RA BR OVC004 04/03 A2989 RMK AO2 RAB28 SLP131 P0000 T00390033,KVBT,2019-01-12T13:56:00Z,36.35,-94.22,3.9,3.3,90,5,,4.0,29.890747,1013.1,,TRUE,TRUE,,,,,,-RA BR,OVC,400,,,,,,,LIFR,,,,,,0.005,,,,,,METAR,395.0
KCHS 121356Z 03007KT 10SM OVC060 04/M01 A3040 RMK AO2 SLP293 T00441006,KCHS,2019-01-12T13:56:00Z,32.9,-80.03,4.4,-0.6,30,7,,10.0,30.398623,1029.3,,,TRUE,,,,,,,OVC,6000,,,,,,,VFR,,,,,,,,,,,,METAR,13.0
KCEC 121356Z AUTO 12006KT 10SM OVC016 11/10 A2992 RMK AO2 SLP131 T01110100,KCEC,2019-01-12T13:56:00Z,41.77,-124.22,11.1,10.0,120,6,,10.0,29.920275,1013.1,,TRUE,TRUE,,,,,,,OVC,1600,,,,,,,MVFR,,,,,,,,,,,,METAR,17.0
KCAE 121356Z 06004KT 10SM BKN023 OVC060 03/M04 A3042 RMK AO2 SLP302 T00331044,KCAE,2019-01-12T13:56:00Z,33.93,-81.12,3.3,-4.4,60,4,,10.0,30.41929,1030.2,,,TRUE,,,,,,,BKN,2300,OVC,6000,,,,,MVFR,,,,,,,,,,,,METAR,70.0
KQAZ 121356Z AUTO 00000KT 9999 FEW230 30/M11 A2990 RMK AO2 SLP143 WND DATA ESTMD T03011113,KQAZ,2019-01-12T13:56:00Z,,,30.1,-11.3,0,0,,6.21,29.899607,1014.3,,TRUE,TRUE,,,,,,,FEW,23000,,,,,,,VFR,,,,,,,,,,,,METAR,
KSFY 121356Z AUTO 06007KT 1SM -SN BKN006 OVC022 M02/M03 A3029 RMK AO2,KSFY,2019-01-12T13:56:00Z,42.05,-90.12,-2.0,-3.0,60,7,,1.0,30.28937,,,TRUE,TRUE,,,,,,-SN,BKN,600,OVC,2200,,,,,IFR,,,,,,,,,,,,METAR,188.0
KNKX 121355Z 10010KT 6SM -RA BR BKN060 OVC075 13/10 A3001 RMK AO2 RAE27B51 SLP160 P0002 T01330100,KNKX,2019-01-12T13:55:00Z,32.87,-117.13,13.3,10.0,100,10,,6.0,30.008858,1016.0,,,TRUE,,,,,,-RA BR,BKN,6000,OVC,7500,,,,,VFR,,,,,,0.02,,,,,,SPECI,146.0
TXKF 121355Z 35006KT 330V030 9999 VCSH SCT033 BKN063 18/11 Q1027 ,TXKF,2019-01-12T13:55:00Z,32.37,-64.68,18.0,11.0,350,6,,6.21,30.324802,,,,,,,,,,VCSH,SCT,3300,BKN,6300,,,,,VFR,,,,,,,,,,,,METAR,6.0
KDLH 121355Z 11013KT 9SM -SN OVC016 M03/M06 A3039 RMK AO2 SLP316 PCPN VRY LGT P0000 T10281061,KDLH,2019-01-12T13:55:00Z,46.85,-92.2,-2.8,-6.1,110,13,,9.0,30.389763,1031.6,,,TRUE,,,,,,-SN,OVC,1600,,,,,,,MVFR,,,,,,0.005,,,,,,METAR,435.0
LIMS 121355Z 12002KT CAVOK 04/M06 Q1016 RMK SCT SCT200 VIS MIN 9999 WIND THR30 00000KT BLU,LIMS,2019-01-12T13:55:00Z,44.92,9.72,4.0,-6.0,120,2,,6.21,30.0,,,,,,,,,,,CAVOK,,,,,,,,VFR,,,,,,,,,,,,METAR,138.0
EHBK 121355Z AUTO 24012KT 200V290 2200 +DZ SCT002 BKN004 OVC005 06/06 Q1016 BECMG 3500 BKN004,EHBK,2019-01-12T13:55:00Z,50.92,5.77,6.0,6.0,240,12,,1.37,30.0,,,TRUE,,,,,,,+DZ,SCT,200,BKN,400,OVC,500,,,LIFR,,,,,,,,,,,,METAR,116.0
KMNZ 121355Z AUTO 29010KT 10SM CLR 06/04 A3005 RMK AO2 T00570040,KMNZ,2019-01-12T13:55:00Z,31.67,-98.15,5.7,4.0,290,10,,10.0,30.050198,,,TRUE,TRUE,,,,,,,CLR,,,,,,,,VFR,,,,,,,,,,,,METAR,396.0
KEAT 121355Z AUTO 29003KT 1/2SM FG SCT002 OVC035 00/M01 A3017 RMK AO2 SLP229 T00001006,KEAT,2019-01-12T13:55:00Z,47.4,-120.2,0.0,-0.6,290,3,,0.5,30.171259,1022.9,,TRUE,TRUE,,,,,,FG,SCT,200,OVC,3500,,,,,LIFR,,,,,,,,,,,,METAR,377.0
LIRS 121355Z 21005KT CAVOK 12/01 Q1018 RMK FEW FEW200 VIS MIN 9999 WIND THR03 23004KT WIND THR21 24004KT BLU,LIRS,2019-01-12T13:55:00Z,42.75,11.07,12.0,1.0,210,5,,6.21,30.059055,,,,,,,,,,,CAVOK,,,,,,,,VFR,,,,,,,,,,,,METAR,7.0
K3AU 121355Z AUTO 36013G16KT 5SM -SN OVC007 00/00 A2998 RMK AO2,K3AU,2019-01-12T13:55:00Z,37.67,-97.08,0.0,0.0,360,13,16,5.0,29.97933,,,TRUE,TRUE,,,,,,-SN,OVC,700,,,,,,,IFR,,,,,,,,,,,,METAR,405.0
LIRM 121355Z /////KT 9999 FEW040 09/M08 Q1016,LIRM,2019-01-12T13:55:00Z,41.03,14.07,9.0,-8.0,,,,6.21,30.0,,,,,,,,,,,FEW,4000,,,,,,,VFR,,,,,,,,,,,,METAR,10.0
KGPI 121355Z AUTO 00000KT 7SM OVC011 M01/M02 A3023 RMK AO2 SLP267 T10111022,KGPI,2019-01-12T13:55:00Z,48.32,-114.25,-1.1,-2.2,0,0,,7.0,30.230314,1026.7,,TRUE,TRUE,,,,,,,OVC,1100,,,,,,,MVFR,,,,,,,,,,,,METAR,908.0
KOMA 121355Z 01010KT 1/2SM R14R/4500V5500FT SN FEW008 OVC012 M01/M02 A3016 RMK AO2 P0000 T10061017,KOMA,2019-01-12T13:55:00Z,41.32,-95.9,-0.6,-1.7,10,10,,0.5,30.159449,,,,TRUE,,,,,,SN,FEW,800,OVC,1200,,,,,LIFR,,,,,,0.005,,,,,,METAR,312.0
LIRV 121355Z /////KT CAVOK 08/M11 Q1018,LIRV,2019-01-12T13:55:00Z,42.42,12.07,8.0,-11.0,,,,6.21,30.059055,,,,,,,,,,,CAVOK,,,,,,,,VFR,,,,,,,,,,,,METAR,300.0
KSBO 121355Z AUTO 07006KT 10SM OVC060 06/00 A3036 RMK AO2,KSBO,2019-01-12T13:55:00Z,32.62,-82.37,6.0,0.0,70,6,,10.0,30.360237,,,TRUE,TRUE,,,,,,,OVC,6000,,,,,,,VFR,,,,,,,,,,,,METAR,100.0
KAST 121355Z AUTO 06006KT 10SM CLR 06/02 A2991 RMK AO2 SLP126 T00560022,KAST,2019-01-12T13:55:00Z,46.15,-123.88,5.6,2.2,60,6,,10.0,29.911417,1012.6,,TRUE,TRUE,,,,,,,CLR,,,,,,,,VFR,,,,,,,,,,,,METAR,3.0
KCAO 121355Z AUTO 35013KT 10SM OVC017 00/M02 A3012 RMK AO2 SLP211 T00001022,KCAO,2019-01-12T13:55:00Z,36.45,-103.15,0.0,-2.2,350,13,,10.0,30.121063,1021.1,,TRUE,TRUE,,,,,,,OVC,1700,,,,,,,MVFR,,,,,,,,,,,,METAR,1514.0
K5M9 121355Z AUTO 10007KT 070V130 10SM OVC090 00/00 A3016 RMK AO2 T00021003,K5M9,2019-01-12T13:55:00Z,37.33,-88.12,0.2,-0.3,100,7,,10.0,30.159449,,,TRUE,TRUE,,,,,,,OVC,9000,,,,,,,VFR,,,,,,,,,,,,METAR,199.0
KHON 121355Z AUTO 35013KT 5SM BR OVC005 M07/M09 A3033 RMK AO2 SLP292 I1000 T10721089,KHON,2019-01-12T13:55:00Z,44.38,-98.23,-7.2,-8.9,350,13,,5.0,30.33071,1029.2,,TRUE,TRUE,,,,,,BR,OVC,500,,,,,,,IFR,,,,,,,,,,,,METAR,390.0
K3D2 121355Z AUTO 09008KT 10SM OVC014 M03/M05 A3044 RMK AO2 T10321050,K3D2,2019-01-12T13:55:00Z,45.13,-87.18,-3.2,-5.0,90,8,,10.0,30.43996,,,TRUE,TRUE,,,,,,,OVC,1400,,,,,,,MVFR,,,,,,,,,,,,METAR,234.0
EHRD 121355Z AUTO 28014KT 240V320 9999 SCT009 BKN011 BKN014 09/07 Q1015 BECMG SCT018,EHRD,2019-01-12T13:55:00Z,51.95,4.45,9.0,7.0,280,14,,6.21,29.970472,,,TRUE,,,,,,,,SCT,900,BKN,1100,BKN,1400,,,MVFR,,,,,,,,,,,,METAR,-5.0
EHGG 121355Z AUTO 29012KT 260V330 9999 SCT012 OVC015 08/06 Q1010 TEMPO 7000 -SHRA FEW015TCU,EHGG,2019-01-12T13:55:00Z,53.12,6.57,8.0,6.0,290,12,,6.21,29.822834,,,TRUE,,,,,,,,SCT,1200,OVC,1500,,,,,MVFR,,,,,,,,,,,,METAR,4.0
K1H2 121355Z AUTO 07008KT 1SM -SN OVC005 00/00 A3022 RMK AO2 T10031003,K1H2,2019-01-12T13:55:00Z,39.07,-88.53,-0.3,-0.3,70,8,,1.0,30.221457,,,TRUE,TRUE,,,,,,-SN,OVC,500,,,,,,,IFR,,,,,,,,,,,,METAR,179.0
KCNW 121355Z 33006KT 10SM SKC 09/06 A3004,KCNW,2019-01-12T13:55:00Z,31.63,-97.07,9.0,6.0,330,6,,10.0,30.041338,,,,,,,,,,,SKC,,,,,,,,VFR,,,,,,,,,,,,METAR,156.0
ORBD 121355Z 03005KT 9000 HZ FEW060 FEW200 BKN300 11/00 A3010 RMK WND DATA ALSTG ESTMD,ORBD,2019-01-12T13:55:00Z,33.93,44.37,11.0,0.0,30,5,,5.59,30.100393,,,,,,,,,,HZ,FEW,6000,FEW,20000,BKN,30000,,,VFR,,,,,,,,,,,,METAR,49.0
MUHA 121355Z 09007KT CAVOK 21/17 Q1021,MUHA,2019-01-12T13:55:00Z,22.97,-82.42,21.0,17.0,90,7,,6.21,30.147638,,,,,,,,,,,CAVOK,,,,,,,,VFR,,,,,,,,,,,,METAR,64.0
LICT 121355Z 34014KT 9999 SCT018 SCT030 12/02 Q1017 RMK BKN VIS MIN 9999 WIND THR13 32019KT BLU,LICT,2019-01-12T13:55:00Z,37.92,12.5,12.0,2.0,340,14,,6.21,30.029528,,,,,,,,,,,SCT,1800,SCT,3000,,,,,VFR,,,,,,,,,,,,SPECI,7.0
LICG 121355Z /////KT 9999 FEW015 SCT025 10/05 Q1018 RMK BKN VIS MIN 9999 WIND THR08 32016G28KT WIND THR21 02016KT BLU,LICG,2019-01-12T13:55:00Z,36.82,11.97,10.0,5.0,,,,6.21,30.059055,,,,,,,,,,,FEW,1500,SCT,2500,,,,,VFR,,,,,,,,,,,,SPECI,191.0
KDTA 121355Z AUTO 02003KT 2 1/2SM OVC003 M03/M03 A3024 RMK AO1,KDTA,2019-01-12T13:55:00Z,39.38,-112.5,-3.0,-3.0,20,3,,2.5,30.239174,,,TRUE,TRUE,,,,,,,OVC,300,,,,,,,LIFR,,,,,,,,,,,,METAR,1402.0
KDQH 121355Z AUTO 08005KT 10SM OVC055 09/06 A3031 RMK AO2 T00910056,KDQH,2019-01-12T13:55:00Z,31.48,-82.87,9.1,5.6,80,5,,10.0,30.31004,,,TRUE,TRUE,,,,,,,OVC,5500,,,,,,,VFR,,,,,,,,,,,,METAR,78.0
KDCY 121355Z AUTO 09006KT 7SM BKN007 OVC026 00/M01 A3024 RMK AO2 T00001008,KDCY,2019-01-12T13:55:00Z,38.7,-87.13,0.0,-0.8,90,6,,7.0,30.239174,,,TRUE,TRUE,,,,,,,BKN,700,OVC,2600,,,,,IFR,,,,,,,,,,,,METAR,144.0
KDBN 121355Z AUTO 08007KT 10SM OVC060 05/00 A3036 RMK AO2,KDBN,2019-01-12T13:55:00Z,32.57,-82.98,5.0,0.0,80,7,,10.0,30.360237,,,TRUE,TRUE,,,,,,,OVC,6000,,,,,,,VFR,,,,,,,,,,,,METAR,94.0
KAAT 121355Z AUTO 03004KT 9SM CLR M04/M06 A3002 RMK AO2 SLP183 T10391056,KAAT,2019-01-12T13:55:00Z,41.48,-120.57,-3.9,-5.6,30,4,,9.0,30.02067,1018.3,,TRUE,TRUE,,,,,,,CLR,,,,,,,,VFR,,,,,,,,,,,,METAR,1331.0
LIPF 121355Z 28005KT 9999 FEW070 06/M03 Q1018 RMK BKN BKN200 VIS MIN 9999,LIPF,2019-01-12T13:55:00Z,44.82,11.62,6.0,-3.0,280,5,,6.21,30.059055,,,,,,,,,,,FEW,7000,,,,,,,VFR,,,,,,,,,,,,METAR,10.0
LIPC 121355Z 07005KT CAVOK 08/M07 Q1018 RMK SCT FEW100 VIS MIN 9999 WIND THR11 /////KT WIND THR29 08004KT BLU,LIPC,2019-01-12T13:55:00Z,44.22,12.3,8.0,-7.0,70,5,,6.21,30.059055,,,,,,,,,,,CAVOK,,,,,,,,VFR,,,,,,,,,,,,METAR,10.0
LIMV 121355Z /////KT CAVOK 07/M04 Q1017 RMK SCT SCT200 MON LIB VAL NIL VIS MIN 9999,LIMV,2019-01-12T13:55:00Z,44.55,8.92,7.0,-4.0,,,,6.21,30.029528,,,,,,,,,,,CAVOK,,,,,,,,VFR,,,,,,,,,,,,METAR,475.0
KLIC 121355Z AUTO 02012KT 7SM -SN OVC008 M01/M01 A3017 RMK AO2 SNE12B43 CIG 007V011 SLP232 P0000 T10111011,KLIC,2019-01-12T13:55:00Z,39.27,-103.67,-1.1,-1.1,20,12,,7.0,30.171259,1023.2,,TRUE,TRUE,,,,,,-SN,OVC,800,,,,,,,IFR,,,,,,0.005,,,,,,METAR,1630.0
KMFE 121355Z 16003KT 1/4SM FG VV002 14/14 A3006 RMK AO2 T01440139,KMFE,2019-01-12T13:55:00Z,26.18,-98.25,14.4,13.9,160,3,,0.25,30.059055,,,,TRUE,,,,,,FG,OVX,0,,,,,,,LIFR,,,,,,,,,,,200,METAR,38.0
KMKG 121355Z 08009KT 10SM OVC060 M02/M08 A3040 RMK AO2 SLP305 T10221078,KMKG,2019-01-12T13:55:00Z,43.17,-86.23,-2.2,-7.8,80,9,,10.0,30.398623,1030.5,,,TRUE,,,,,,,OVC,6000,,,,,,,VFR,,,,,,,,,,,,METAR,191.0
KQZF 121355Z AUTO 35007KT 10SM CLR 33/M12 A2991 RMK AO2 SLP104 WND DATA ESTMD T03301120 $,KQZF,2019-01-12T13:55:00Z,,,33.0,-12.0,350,7,,10.0,29.911417,1010.4,,TRUE,TRUE,TRUE,,,,,,CLR,,,,,,,,VFR,,,,,,,,,,,,METAR,
KANJ 121355Z AUTO 08006KT 10SM CLR M15/M19 A3058 RMK AO2 SLP372 T11501189,KANJ,2019-01-12T13:55:00Z,46.47,-84.37,-15.0,-18.9,80,6,,10.0,30.578741,1037.2,,TRUE,TRUE,,,,,,,CLR,,,,,,,,VFR,,,,,,,,,,,,METAR,218.0
KRNO 121355Z 00000KT 10SM FEW160 M02/M03 A3005 RMK AO2 SLP183 T10171033,KRNO,2019-01-12T13:55:00Z,39.5,-119.77,-1.7,-3.3,0,0,,10.0,30.050198,1018.3,,,TRUE,,,,,,,FEW,16000,,,,,,,VFR,,,,,,,,,,,,METAR,1342.0
KIRK 121355Z AUTO 07010KT 3/4SM -SN BR FEW007 OVC017 M02/M02 A3010 RMK AO2 SLP206 P0003 T10171017,KIRK,2019-01-12T13:55:00Z,40.1,-92.55,-1.7,-1.7,70,10,,0.75,30.100393,1020.6,,TRUE,TRUE,,,,,,-SN BR,FEW,700,OVC,1700,,,,,LIFR,,,,,,0.03,,,,,,METAR,293.0
KINL 121355Z AUTO 10006KT 10SM OVC024 M08/M11 A3048 RMK AO2 SLP349 T10831106,KINL,2019-01-12T13:55:00Z,48.57,-93.4,-8.3,-10.6,100,6,,10.0,30.481298,1034.9,,TRUE,TRUE,,,,,,,OVC,2400,,,,,,,MVFR,,,,,,,,,,,,METAR,360.0
KQVF 121355Z AUTO 07003G17KT 10SM FEW021 29/22 A2977 RMK AO2 SLP080 WND DATA ESTMD T02870223,KQVF,2019-01-12T13:55:00Z,,,28.7,22.3,70,3,17,10.0,29.769686,1008.0,,TRUE,TRUE,,,,,,,FEW,2100,,,,,,,VFR,,,,,,,,,,,,METAR,
OPKC 121355Z 22003KT 5000 HZ FEW100 23/11 Q1015 NOSIG,OPKC,2019-01-12T13:55:00Z,24.88,67.17,23.0,11.0,220,3,,3.11,29.970472,,,,,,TRUE,,,,HZ,FEW,10000,,,,,,,MVFR,,,,,,,,,,,,METAR,22.0
FJDG 121355Z 11007KT 9999 FEW025 SCT050 BKN080 29/26 A2988 RMK SLP115 T02870257,FJDG,2019-01-12T13:55:00Z,-7.32,72.42,28.7,25.7,110,7,,6.21,29.878937,1011.5,,,,,,,,,,FEW,2500,SCT,5000,BKN,8000,,,VFR,,,,,,,,,,,,METAR,3.0
OAHR 121355Z 24003KT CAVOK 06/M01 Q1024 RMK A3025 BLU,OAHR,2019-01-12T13:55:00Z,34.22,62.22,6.0,-1.0,240,3,,6.21,30.236221,,,,,,,,,,,CAVOK,,,,,,,,VFR,,,,,,,,,,,,METAR,964.0
KPVF 121355Z AUTO 10005KT 10SM FEW036 10/M04 A2996 RMK AO1,KPVF,2019-01-12T13:55:00Z,38.72,-120.75,10.0,-4.0,100,5,,10.0,29.958662,,,TRUE,TRUE,,,,,,,FEW,3600,,,,,,,VFR,,,,,,,,,,,,METAR,789.0
KSCK 121355Z AUTO VRB03KT 1/4SM FG VV002 09/08 A2995 RMK AO2 SLP141 T00890083 RVRNO,KSCK,2019-01-12T13:55:00Z,37.88,-121.22,8.9,8.3,0,3,,0.25,29.949802,1014.1,,TRUE,TRUE,,,,,,FG,OVX,0,,,,,,,LIFR,,,,,,,,,,,200,METAR,10.0
KSEZ 121355Z AUTO 05008KT 10SM CLR 04/M05 A3015 RMK AO2,KSEZ,2019-01-12T13:55:00Z,34.85,-111.78,4.0,-5.0,50,8,,10.0,30.15059,,,TRUE,TRUE,,,,,,,CLR,,,,,,,,VFR,,,,,,,,,,,,METAR,1473.0
KCMA 121355Z AUTO 06013KT 7SM -RA OVC026 12/08 A2998 RMK AO2 RAB25 SLP162 P0000 T01170083 TSNO,KCMA,2019-01-12T13:55:00Z,34.22,-119.1,11.7,8.3,60,13,,7.0,29.97933,1016.2,,TRUE,TRUE,,,TRUE,,,-RA,OVC,2600,,,,,,,MVFR,,,,,,0.005,,,,,,METAR,23.0
EHDL 121355Z AUTO 27011KT 220V330 9999 FEW008 SCT011 BKN013 08/07 Q1013 GRN,EHDL,2019-01-12T13:55:00Z,52.07,5.87,8.0,7.0,270,11,,6.21,29.911417,,,TRUE,,,,,,,,FEW,800,SCT,1100,BKN,1300,,,MVFR,,,,,,,,,,,,METAR,52.0
EHKD 121355Z AUTO 29015KT 250V320 9999 FEW014 BKN017 BKN020 09/07 Q1013 WHT 29017G27KT 9999 SCT015 BKN024,EHKD,2019-01-12T13:55:00Z,52.92,4.77,9.0,7.0,290,15,,6.21,29.911417,,,TRUE,,,,,,,,FEW,1400,BKN,1700,BKN,2000,SCT,1500,MVFR,,,,,,,,,,,,METAR,14.0
NZWD 121355Z 12007KT 9999 FEW060 FEW120 BKN200 M09/M11 A2950 RMK SLP987 FG DSNT GRID NW-NE GRID29007KT SDG/HDG,NZWD,2019-01-12T13:55:00Z,-77.87,167.07,-9.0,-11.0,120,7,,6.21,29.500984,998.7,,,,,,,,,,FEW,6000,FEW,12000,BKN,20000,,,VFR,,,,,,,,,,,,SPECI,22.0
KUGN 121355Z 08011KT 5SM HZ OVC019 00/M04 A3033 RMK AO2 SLP284 T00001044,KUGN,2019-01-12T13:55:00Z,42.42,-87.87,0.0,-4.4,80,11,,5.0,30.33071,1028.4,,,TRUE,,,,,,HZ,OVC,1900,,,,,,,MVFR,,,,,,,,,,,,METAR,222.0
RJOI 121355Z 01004KT 9999 BKN025 OVC050 07/03 A3011 RMK SLP194 T00720028,RJOI,2019-01-12T13:55:00Z,34.13,132.22,7.2,2.8,10,4,,6.21,30.109253,1019.4,,,,,,,,,,BKN,2500,OVC,5000,,,,,MVFR,,,,,,,,,,,,METAR,2.0
KIOB 121355Z AUTO 07008KT 10SM SCT004 BKN049 OVC060 M01/M01 A3031 RMK AO2,KIOB,2019-01-12T13:55:00Z,38.05,-83.98,-1.0,-1.0,70,8,,10.0,30.31004,,,TRUE,TRUE,,,,,,,SCT,400,BKN,4900,OVC,6000,,,VFR,,,,,,,,,,,,METAR,311.0
KHYW 121355Z AUTO 05006KT 5SM HZ BKN025 03/M03 A3044 RMK AO2,KHYW,2019-01-12T13:55:00Z,33.83,-79.12,3.0,-3.0,50,6,,5.0,30.43996,,,TRUE,TRUE,,,,,,HZ,BKN,2500,,,,,,,MVFR,,,,,,,,,,,,METAR,11.0
KMER 121355Z AUTO 25005KT 2SM SCT002 OVC070 07/07 A2996 RMK AO1,KMER,2019-01-12T13:55:00Z,37.38,-120.57,7.0,7.0,250,5,,2.0,29.958662,,,TRUE,TRUE,,,,,,,SCT,200,OVC,7000,,,,,IFR,,,,,,,,,,,,SPECI,57.0
OKAS 121355Z 00000KT 9999 BKN200 13/M01 A3015 RMK AO2A SLP211 WND DATA ESTMD T01321012 PA +261,OKAS,2019-01-12T13:55:00Z,,,13.2,-1.2,0,0,,6.21,30.15059,1021.1,,,TRUE,,,,,,,BKN,20000,,,,,,,VFR,,,,,,,,,,,,METAR,
KDUB 121355Z AUTO 30010KT 10SM CLR M11/M16 A3015 RMK AO2,KDUB,2019-01-12T13:55:00Z,43.55,-109.68,-11.0,-16.0,300,10,,10.0,30.15059,,,TRUE,TRUE,,,,,,,CLR,,,,,,,,VFR,,,,,,,,,,,,METAR,2224.0
KMEZ 121355Z AUTO 00000KT 2 1/2SM OVC002 05/05 A2990 RMK AO2,KMEZ,2019-01-12T13:55:00Z,34.55,-94.2,5.0,5.0,0,0,,2.5,29.899607,,,TRUE,TRUE,,,,,,,OVC,200,,,,,,,LIFR,,,,,,,,,,,,METAR,329.0
KQBL 121355Z AUTO VRB01KT 10SM OVC010 11/09 A3020 RMK AO2 SLP227 WND DATA ESTMD T01110092,KQBL,2019-01-12T13:55:00Z,,,11.1,9.2,0,1,,10.0,30.200787,1022.7,,TRUE,TRUE,,,,,,,OVC,1000,,,,,,,MVFR,,,,,,,,,,,,METAR,
KLVN 121355Z AUTO 05005KT 7SM OVC047 M05/M06 A3031 RMK AO2,KLVN,2019-01-12T13:55:00Z,44.63,-93.23,-5.0,-6.0,50,5,,7.0,30.31004,,,TRUE,TRUE,,,,,,,OVC,4700,,,,,,,VFR,,,,,,,,,,,,METAR,293.0
K3K3 121355Z AUTO 35015KT 10SM CLR 00/M02 A3015 RMK AO2,K3K3,2019-01-12T13:55:00Z,38.0,-101.75,0.0,-2.0,350,15,,10.0,30.15059,,,TRUE,TRUE,,,,,,,CLR,,,,,,,,VFR,,,,,,,,,,,,METAR,1013.0
K49A 121355Z AUTO 12008G17KT 10SM BKN031 BKN049 OVC110 05/M06 A3031 RMK AO2 T00471058,K49A,2019-01-12T13:55:00Z,34.63,-84.53,4.7,-5.8,120,8,17,10.0,30.31004,,,TRUE,TRUE,,,,,,,BKN,3100,BKN,4900,OVC,11000,,,VFR,,,,,,,,,,,,METAR,453.0
K40J 121355Z AUTO 10005KT 10SM CLR 12/09 A3025 RMK AO2 T01160088,K40J,2019-01-12T13:55:00Z,30.07,-83.57,11.6,8.8,100,5,,10.0,30.250984,,,TRUE,TRUE,,,,,,,CLR,,,,,,,,VFR,,,,,,,,,,,,METAR,13.0
KPTT 121355Z AUTO 36017KT 1 1/2SM -SN OVC007 00/M01 A3004 RMK AO2 T00001006,KPTT,2019-01-12T13:55:00Z,37.7,-98.75,0.0,-0.6,360,17,,1.5,30.041338,,,TRUE,TRUE,,,,,,-SN,OVC,700,,,,,,,IFR,,,,,,,,,,,,METAR,595.0
KPSK 121355Z AUTO 10004KT 10SM BKN035 OVC070 00/M06 A3039 RMK AO2 T00001062,KPSK,2019-01-12T13:55:00Z,37.12,-80.67,0.0,-6.2,100,4,,10.0,30.389763,,,TRUE,TRUE,,,,,,,BKN,3500,OVC,7000,,,,,VFR,,,,,,,,,,,,METAR,642.0
KPPO 121355Z AUTO 09008KT 7SM CLR M02/M05 A3033 RMK AO2 T10251048,KPPO,2019-01-12T13:55:00Z,41.57,-86.73,-2.5,-4.8,90,8,,7.0,30.33071,,,TRUE,TRUE,,,,,,,CLR,,,,,,,,VFR,,,,,,,,,,,,METAR,248.0
KD39 121355Z AUTO 05006KT 10SM OVC036 M06/M08 A3033 RMK AO2 T10571080,KD39,2019-01-12T13:55:00Z,45.7,-94.93,-5.7,-8.0,50,6,,10.0,30.33071,,,TRUE,TRUE,,,,,,,OVC,3600,,,,,,,VFR,,,,,,,,,,,,METAR,380.0
K9A5 121355Z AUTO 00000KT 7SM OVC027 06/M06 A3028 RMK AO2 T00581057,K9A5,2019-01-12T13:55:00Z,34.68,-85.28,5.8,-5.7,0,0,,7.0,30.280512,,,TRUE,TRUE,,,,,,,OVC,2700,,,,,,,MVFR,,,,,,,,,,,,METAR,237.0
K6P9 121355Z AUTO 30008KT 10SM CLR 04/02 A3004 RMK AO2 T00400015,K6P9,2019-01-12T13:55:00Z,32.43,-98.6,4.0,1.5,300,8,,10.0,30.041338,,,TRUE,TRUE,,,,,,,CLR,,,,,,,,VFR,,,,,,,,,,,,METAR,449.0
K6B0 121355Z AUTO 00000KT 10SM CLR M20/M22 A3051 RMK AO2 T12031225,K6B0,2019-01-12T13:55:00Z,43.98,-73.1,-20.3,-22.5,0,0,,10.0,30.510826,,,TRUE,TRUE,,,,,,,CLR,,,,,,,,VFR,,,,,,,,,,,,METAR,149.0
K66R 121355Z AUTO 00000KT 5SM BR CLR 14/12 A3003 RMK AO2 T01360120,K66R,2019-01-12T13:55:00Z,29.65,-96.52,13.6,12.0,0,0,,5.0,30.029528,,,TRUE,TRUE,,,,,,BR,CLR,,,,,,,,MVFR,,,,,,,,,,,,METAR,74.0
K5C1 121355Z AUTO 35005KT 10SM CLR 10/10 A3007 RMK AO1,K5C1,2019-01-12T13:55:00Z,29.72,-98.7,10.0,10.0,350,5,,10.0,30.070866,,,TRUE,TRUE,,,,,,,CLR,,,,,,,,VFR,,,,,,,,,,,,METAR,423.0
K5A6 121355Z AUTO 14003KT 10SM -RA SCT023 BKN050 OVC070 08/04 A3007 RMK AO2 T00750040,K5A6,2019-01-12T13:55:00Z,33.47,-89.73,7.5,4.0,140,3,,10.0,30.070866,,,TRUE,TRUE,,,,,,-RA,SCT,2300,BKN,5000,OVC,7000,,,VFR,,,,,,,,,,,,METAR,111.0
K11R 121355Z AUTO 00000KT 1/4SM FG OVC004 13/13 A3002 RMK AO2 T01250125,K11R,2019-01-12T13:55:00Z,30.22,-96.37,12.5,12.5,0,0,,0.25,30.02067,,,TRUE,TRUE,,,,,,FG,OVC,400,,,,,,,LIFR,,,,,,,,,,,,METAR,94.0
K0R4 121355Z AUTO 13007KT 10SM BKN028 BKN034 OVC042 12/11 A2998 RMK AO2 P0002 T01150105,K0R4,2019-01-12T13:55:00Z,31.57,-91.5,11.5,10.5,130,7,,10.0,29.97933,,,TRUE,TRUE,,,,,,,BKN,2800,BKN,3400,OVC,4200,,,MVFR,,,,,,0.02,,,,,,METAR,17.0
K06C 121355Z AUTO 10004KT 7SM OVC016 M01/M04 A3031 RMK AO2 T10081040,K06C,2019-01-12T13:55:00Z,41.98,-88.1,-0.8,-4.0,100,4,,7.0,30.31004,,,TRUE,TRUE,,,,,,,OVC,1600,,,,,,,MVFR,,,,,,,,,,,,METAR,244.0
KEHA 121355Z AUTO 35014KT 10SM UP SCT007 SCT012 OVC024 02/01 A3013 RMK AO2 T00160014,KEHA,2019-01-12T13:55:00Z,37.0,-101.9,1.6,1.4,350,14,,10.0,30.129921,,,TRUE,TRUE,,,,,,UP,SCT,700,SCT,1200,OVC,2400,,,MVFR,,,,,,,,,,,,METAR,1099.0
KE38 121355Z AUTO 09003KT 10SM CLR 01/M02 A3025 RMK AO2 T00141016,KE38,2019-01-12T13:55:00Z,30.38,-103.68,1.4,-1.6,90,3,,10.0,30.250984,,,TRUE,TRUE,,,,,,,CLR,,,,,,,,VFR,,,,,,,,,,,,METAR,1376.0
KDVK 121355Z AUTO 14003KT 10SM SCT075 OVC085 00/00 A3029 RMK AO2,KDVK,2019-01-12T13:55:00Z,37.58,-84.77,0.0,0.0,140,3,,10.0,30.28937,,,TRUE,TRUE,,,,,,,SCT,7500,OVC,8500,,,,,VFR,,,,,,,,,,,,METAR,312.0
KHHW 121355Z AUTO 25007KT 190V280 3/4SM BR BKN003 OVC008 07/06 A2990 RMK AO2 T00730064,KHHW,2019-01-12T13:55:00Z,34.03,-95.55,7.3,6.4,250,7,,0.75,29.899607,,,TRUE,TRUE,,,,,,BR,BKN,300,OVC,800,,,,,LIFR,,,,,,,,,,,,METAR,144.0
KHHG 121355Z AUTO 10006KT 1SM -SN OVC014 M03/M04 A3034 RMK AO2 T10311041,KHHG,2019-01-12T13:55:00Z,40.85,-85.45,-3.1,-4.1,100,6,,1.0,30.339567,,,TRUE,TRUE,,,,,,-SN,OVC,1400,,,,,,,IFR,,,,,,,,,,,,SPECI,246.0
KGNC 121355Z AUTO 30008KT 10SM CLR 02/M01 A3021 RMK AO2 T00151006,KGNC,2019-01-12T13:55:00Z,32.68,-102.65,1.5,-0.6,300,8,,10.0,30.209646,,,TRUE,TRUE,,,,,,,CLR,,,,,,,,VFR,,,,,,,,,,,,METAR,1010.0
KGGP 121355Z AUTO 08007KT 1SM -SN SCT004 OVC019 M02/M03 A3032 RMK AO2,KGGP,2019-01-12T13:55:00Z,40.72,-86.37,-2.0,-3.0,80,7,,1.0,30.318897,,,TRUE,TRUE,,,,,,-SN,SCT,400,OVC,1900,,,,,IFR,,,,,,,,,,,,METAR,225.0
KGBG 121355Z AUTO 08008KT 1SM -SN BKN007 OVC016 M02/M02 A3022 RMK AO2 P0001 T10161020,KGBG,2019-01-12T13:55:00Z,40.93,-90.43,-1.6,-2.0,80,8,,1.0,30.221457,,,TRUE,TRUE,,,,,,-SN,BKN,700,OVC,1600,,,,,IFR,,,,,,0.01,,,,,,METAR,233.0
KFYG 121355Z AUTO 13006KT 1SM -SN CLR 00/00 A3007 RMK AO2 P0012,KFYG,2019-01-12T13:55:00Z,38.58,-91.0,0.0,0.0,130,6,,1.0,30.070866,,,TRUE,TRUE,,,,,,-SN,CLR,,,,,,,,IFR,,,,,,0.12,,,,,,METAR,149.0
KEZM 121355Z AUTO 08007KT 10SM SCT050 OVC065 07/02 A3035 RMK AO2 T00700015,KEZM,2019-01-12T13:55:00Z,32.22,-83.13,7.0,1.5,80,7,,10.0,30.351377,,,TRUE,TRUE,,,,,,,SCT,5000,OVC,6500,,,,,VFR,,,,,,,,,,,,METAR,93.0
KEQA 121355Z AUTO 01012G16KT 3SM -SN OVC006 01/00 A2997 RMK AO2,KEQA,2019-01-12T13:55:00Z,37.78,-96.82,1.0,0.0,10,12,16,3.0,29.970472,,,TRUE,TRUE,,,,,,-SN,OVC,600,,,,,,,IFR,,,,,,,,,,,,METAR,420.0
KOPN 121355Z AUTO 09006KT 10SM BKN036 BKN043 OVC060 06/M03 A3031 RMK AO2,KOPN,2019-01-12T13:55:00Z,32.95,-84.27,6.0,-3.0,90,6,,10.0,30.31004,,,TRUE,TRUE,,,,,,,BKN,3600,BKN,4300,OVC,6000,,,VFR,,,,,,,,,,,,METAR,243.0
KOPL 121355Z AUTO 14007KT 10SM OVC050 13/12 A2998 RMK AO2 T01250117,KOPL,2019-01-12T13:55:00Z,30.55,-92.1,12.5,11.7,140,7,,10.0,29.97933,,,TRUE,TRUE,,,,,,,OVC,5000,,,,,,,VFR,,,,,,,,,,,,METAR,23.0
KOLY 121355Z AUTO 08011KT 2 1/2SM -RA SCT006 BKN019 OVC042 00/00 A3021 RMK AO2 T00000000,KOLY,2019-01-12T13:55:00Z,38.72,-88.18,0.0,0.0,80,11,,2.5,30.209646,,,TRUE,TRUE,,,,,,-RA,SCT,600,BKN,1900,OVC,4200,,,IFR,,,,,,,,,,,,SPECI,147.0
KO54 121355Z AUTO 00000KT 3/4SM OVC002 04/04 A2997 RMK AO1,KO54,2019-01-12T13:55:00Z,40.75,-122.92,4.0,4.0,0,0,,0.75,29.970472,,,TRUE,TRUE,,,,,,,OVC,200,,,,,,,LIFR,,,,,,,,,,,,METAR,717.0
KMZZ 121355Z AUTO 00000KT 1 1/4SM -SN BKN014 OVC020 A3032 RMK AO2 P0001,KMZZ,2019-01-12T13:55:00Z,40.48,-85.68,,,0,0,,1.25,30.318897,,,TRUE,TRUE,,,,,,-SN,BKN,1400,OVC,2000,,,,,IFR,,,,,,0.01,,,,,,SPECI,262.0
KMYZ 121355Z AUTO 03010KT 1 3/4SM +RA BKN007 BKN013 OVC022 M01/M01 A3008 RMK AO2,KMYZ,2019-01-12T13:55:00Z,39.85,-96.63,-1.0,-1.0,30,10,,1.75,30.079725,,,TRUE,TRUE,,,,,,+RA,BKN,700,BKN,1300,OVC,2200,,,IFR,,,,,,,,,,,,METAR,319.0
KMFV 121355Z AUTO 05004KT 10SM OVC110 01/M08 A3052 RMK AO2 T00051081,KMFV,2019-01-12T13:55:00Z,37.63,-75.77,0.5,-8.1,50,4,,10.0,30.519686,,,TRUE,TRUE,,,,,,,OVC,11000,,,,,,,VFR,,,,,,,,,,,,METAR,15.0
KMDD 121355Z AUTO 31009KT 10SM 04/01 A3017 RMK AO2 T00360012,KMDD,2019-01-12T13:55:00Z,32.03,-102.1,3.6,1.2,310,9,,10.0,30.171259,,,TRUE,TRUE,,,,,,,,,,,,,,,,,,,,,,,,,,,METAR,854.0
KLWB 121355Z AUTO 00000KT 5SM -SN BKN027 OVC034 M02/M05 A3035 RMK AO2 T10171047,KLWB,2019-01-12T13:55:00Z,37.87,-80.4,-1.7,-4.7,0,0,,5.0,30.351377,,,TRUE,TRUE,,,,,,-SN,BKN,2700,OVC,3400,,,,,MVFR,,,,,,,,,,,,METAR,702.0
KLGC 121355Z AUTO 10003KT 10SM OVC033 07/M03 A3027 RMK AO2 T00711027,KLGC,2019-01-12T13:55:00Z,33.0,-85.07,7.1,-2.7,100,3,,10.0,30.268702,,,TRUE,TRUE,,,,,,,OVC,3300,,,,,,,VFR,,,,,,,,,,,,METAR,211.0
KLCQ 121355Z AUTO 08003KT 10SM OVC060 12/10 A3026 RMK AO2,KLCQ,2019-01-12T13:55:00Z,30.18,-82.58,12.0,10.0,80,3,,10.0,30.259842,,,TRUE,TRUE,,,,,,,OVC,6000,,,,,,,VFR,,,,,,,,,,,,METAR,61.0
KLCK 121355Z AUTO 09006KT 1 1/2SM -SN SCT007 SCT013 OVC018 M04/M05 A3037 RMK AO2 T10361047,KLCK,2019-01-12T13:55:00Z,39.82,-82.92,-3.6,-4.7,90,6,,1.5,30.369095,,,TRUE,TRUE,,,,,,-SN,SCT,700,SCT,1300,OVC,1800,,,IFR,,,,,,,,,,,,SPECI,227.0
OAKN 121355Z 00000KT 9999 CLR 08/M10 A3019 RMK AO2A SLP219 WND DATA ESTMD Q1022 PA3056 DA2974 T00791103,OAKN,2019-01-12T13:55:00Z,31.5,65.83,7.9,-10.3,0,0,,6.21,30.188976,1021.9,,,TRUE,,,,,,,CLR,,,,,,,,VFR,,,,,,,,,,,,METAR,1010.0
KAPS 121355Z AUTO 00000KT 10SM SCT050 BKN055 BKN080 16/13 A3004 RMK AO2 T01550126,KAPS,2019-01-12T13:55:00Z,30.08,-90.58,15.5,12.6,0,0,,10.0,30.041338,,,TRUE,TRUE,,,,,,,SCT,5000,BKN,5500,BKN,8000,,,VFR,,,,,,,,,,,,METAR,2.0
KAFO 121355Z AUTO 00000KT 3/4SM BR OVC002 M16/M18 A3025 RMK AO2,KAFO,2019-01-12T13:55:00Z,42.72,-110.95,-16.0,-18.0,0,0,,0.75,30.250984,,,TRUE,TRUE,,,,,,BR,OVC,200,,,,,,,LIFR,,,,,,,,,,,,METAR,1897.0
KACP 121355Z AUTO 13004KT 4SM RA BKN004 OVC009 14/13 A2996 RMK AO2 P0017 T01370128,KACP,2019-01-12T13:55:00Z,30.75,-92.68,13.7,12.8,130,4,,4.0,29.958662,,,TRUE,TRUE,,,,,,RA,BKN,400,OVC,900,,,,,LIFR,,,,,,0.17,,,,,,METAR,33.0
KAAA 121355Z AUTO 08006KT 1/2SM -SN OVC006 M01/M01 A3022 RMK AO2 T10081010,KAAA,2019-01-12T13:55:00Z,40.17,-89.33,-0.8,-1.0,80,6,,0.5,30.221457,,,TRUE,TRUE,,,,,,-SN,OVC,600,,,,,,,LIFR,,,,,,,,,,,,METAR,182.0
KA08 121355Z AUTO 16005KT 10SM SCT015 08/04 A3018 RMK AO2 T00800040,KA08,2019-01-12T13:55:00Z,32.52,-87.38,8.0,4.0,160,5,,10.0,30.180119,,,TRUE,TRUE,,,,,,,SCT,1500,,,,,,,VFR,,,,,,,,,,,,METAR,69.0
KVER 121355Z AUTO 07005KT 1 1/4SM -SN OVC006 00/ A3003 RMK AO2 T1002,KVER,2019-01-12T13:55:00Z,38.95,-92.68,-0.2,,70,5,,1.25,30.029528,,,TRUE,TRUE,,,,,,-SN,OVC,600,,,,,,,IFR,,,,,,,,,,,,METAR,218.0
K17J 121355Z AUTO 13009KT 10SM SCT038 BKN046 BKN055 10/06 A3025 RMK AO2 T00990062,K17J,2019-01-12T13:55:00Z,31.07,-84.92,9.9,6.2,130,9,,10.0,30.250984,,,TRUE,TRUE,,,,,,,SCT,3800,BKN,4600,BKN,5500,,,VFR,,,,,,,,,,,,METAR,45.0
K21D 121355Z AUTO 05005KT 10SM M05/M07 A3034 RMK AO2,K21D,2019-01-12T13:55:00Z,45.0,-92.85,-5.0,-7.0,50,5,,10.0,30.339567,,,TRUE,TRUE,,,,,,,,,,,,,,,,,,,,,,,,,,,METAR,285.0
K3J7 121355Z AUTO 03003KT 10SM OVC037 04/M02 A3032 RMK AO2,K3J7,2019-01-12T13:55:00Z,33.6,-83.13,4.0,-2.0,30,3,,10.0,30.318897,,,TRUE,TRUE,,,,,,,OVC,3700,,,,,,,VFR,,,,,,,,,,,,METAR,206.0
KBMC 121355Z AUTO 00000KT 7SM OVC012 M01/M03 A3026 RMK AO1 T10131033,KBMC,2019-01-12T13:55:00Z,41.55,-112.07,-1.3,-3.3,0,0,,7.0,30.259842,,,TRUE,TRUE,,,,,,,OVC,1200,,,,,,,MVFR,,,,,,,,,,,,SPECI,1288.0
KBWP 121355Z AUTO 36009KT 7SM OVC025 M06/M07 A3038 RMK AO1,KBWP,2019-01-12T13:55:00Z,46.25,-96.62,-6.0,-7.0,360,9,,7.0,30.380905,,,TRUE,TRUE,,,,,,,OVC,2500,,,,,,,MVFR,,,,,,,,,,,,SPECI,295.0
KDWX 121355Z AUTO 08008KT 1 1/2SM BR OVC002 M15/M16 A3025 RMK AO2 T11461165,KDWX,2019-01-12T13:55:00Z,41.03,-107.5,-14.6,-16.5,80,8,,1.5,30.250984,,,TRUE,TRUE,,,,,,BR,OVC,200,,,,,,,LIFR,,,,,,,,,,,,SPECI,1996.0
KEAN 121355Z AUTO 10SM CLR M03/M06 A3020 RMK AO2 T10341063,KEAN,2019-01-12T13:55:00Z,42.05,-104.93,-3.4,-6.3,,,,10.0,30.200787,,,TRUE,TRUE,,,,,,,CLR,,,,,,,,VFR,,,,,,,,,,,,METAR,1456.0
KEHY 121355Z AUTO 1/4SM OVC002 A3014 RMK AO2 PWINO,KEHY,2019-01-12T13:55:00Z,41.73,-106.47,,,,,,0.25,30.138779,,,TRUE,TRUE,,,,,TRUE,,OVC,200,,,,,,,LIFR,,,,,,,,,,,,SPECI,2225.0
KFYJ 121355Z AUTO 00000KT 10SM SCT100 01/M05 A3057 RMK AO1 T00051047,KFYJ,2019-01-12T13:55:00Z,37.52,-76.77,0.5,-4.7,0,0,,10.0,30.569881,,,TRUE,TRUE,,,,,,,SCT,10000,,,,,,,VFR,,,,,,,,,,,,METAR,7.0
KFRR 121355Z AUTO 08005KT 10SM BKN100 BKN120 M02/M07 A3048 RMK AO1,KFRR,2019-01-12T13:55:00Z,38.92,-78.25,-2.0,-7.0,80,5,,10.0,30.481298,,,TRUE,TRUE,,,,,,,BKN,10000,BKN,12000,,,,,VFR,,,,,,,,,,,,METAR,216.0
KOYM 121355Z AUTO 00000KT 10SM OVC095 M08/M12 A3043 RMK AO2,KOYM,2019-01-12T13:55:00Z,41.42,-78.5,-8.0,-12.0,0,0,,10.0,30.431103,,,TRUE,TRUE,,,,,,,OVC,9500,,,,,,,VFR,,,,,,,,,,,,METAR,590.0
KJHN 121355Z AUTO 33014KT 10SM SCT046 SCT060 OVC070 01/M02 A3014 RMK AO2 T00051020,KJHN,2019-01-12T13:55:00Z,37.58,-101.73,0.5,-2.0,330,14,,10.0,30.138779,,,TRUE,TRUE,,,,,,,SCT,4600,SCT,6000,OVC,7000,,,VFR,,,,,,,,,,,,METAR,1013.0
KIDP 121355Z AUTO 36009KT 10SM UP OVC004 00/00 A2994 RMK AO2 P0005 T00050001,KIDP,2019-01-12T13:55:00Z,37.17,-95.78,0.5,0.1,360,9,,10.0,29.940945,,,TRUE,TRUE,,,,,,UP,OVC,400,,,,,,,LIFR,,,,,,0.05,,,,,,METAR,251.0
KHII 121355Z AUTO 00000KT 10SM FEW034 SCT042 BKN050 09/04 A3006 RMK AO2,KHII,2019-01-12T13:55:00Z,34.57,-114.37,9.0,4.0,0,0,,10.0,30.059055,,,TRUE,TRUE,,,,,,,FEW,3400,SCT,4200,BKN,5000,,,VFR,,,,,,,,,,,,SPECI,238.0
KGVT 121355Z AUTO 26008KT 10SM CLR 08/04 A2996 RMK AO2,KGVT,2019-01-12T13:55:00Z,33.07,-96.07,8.0,4.0,260,8,,10.0,29.958662,,,TRUE,TRUE,,,,,,,CLR,,,,,,,,VFR,,,,,,,,,,,,SPECI,163.0
KGVE 121355Z AUTO 00000KT 10SM SCT070 OVC090 M01/M07 A3052 RMK AO1 T10081068,KGVE,2019-01-12T13:55:00Z,38.15,-78.17,-0.8,-6.8,0,0,,10.0,30.519686,,,TRUE,TRUE,,,,,,,SCT,7000,OVC,9000,,,,,VFR,,,,,,,,,,,,METAR,138.0
KADM 121355Z 28011KT 4SM BKN008 OVC013 06/05 A2991,KADM,2019-01-12T13:55:00Z,34.28,-97.02,6.0,5.0,280,11,,4.0,29.911417,,,,,,,,,,,BKN,800,OVC,1300,,,,,IFR,,,,,,,,,,,,METAR,232.0
KSFQ 121355Z AUTO 00000KT 10SM OVC110 02/M03 A3054 RMK AO2 T00171027,KSFQ,2019-01-12T13:55:00Z,36.68,-76.6,1.7,-2.7,0,0,,10.0,30.540354,,,TRUE,TRUE,,,,,,,OVC,11000,,,,,,,VFR,,,,,,,,,,,,METAR,22.0
KSEF 121355Z AUTO 09003KT 10SM SCT060 17/12 A3023 RMK AO2 T01650124,KSEF,2019-01-12T13:55:00Z,27.45,-81.35,16.5,12.4,90,3,,10.0,30.230314,,,TRUE,TRUE,,,,,,,SCT,6000,,,,,,,VFR,,,,,,,,,,,,METAR,19.0
KRQO 121355Z AUTO 34021KT 7SM BKN004 OVC008 01/01 A2995 RMK AO2 T00150008,KRQO,2019-01-12T13:55:00Z,35.47,-98.0,1.5,0.8,340,21,,7.0,29.949802,,,TRUE,TRUE,,,,,,,BKN,400,OVC,800,,,,,LIFR,,,,,,,,,,,,METAR,432.0
EHAK 121355Z AUTO 31031KT 9999 FEW027/// BKN036/// 08/05 Q1007 W///H///,EHAK,2019-01-12T13:55:00Z,55.42,3.82,8.0,5.0,310,31,,6.21,29.734253,,,TRUE,,,,,,,,FEW,2700,BKN,3600,,,,,VFR,,,,,,,,,,,,METAR,50.0
EHDV 121355Z AUTO 29028KT 9999 NSC 09/06 Q1011 W///H///,EHDV,2019-01-12T13:55:00Z,54.32,2.93,9.0,6.0,290,28,,6.21,29.852362,,,TRUE,,,,,,,,CLR,,,,,,,,VFR,,,,,,,,,,,,METAR,50.0
EHFD 121355Z AUTO 29031KT //// // BKN030/// BKN034/// 08/05 Q1007 RE// W///H///,EHFD,2019-01-12T13:55:00Z,54.85,4.7,8.0,5.0,290,31,,,29.734253,,,TRUE,,,,,,,,BKN,3000,BKN,3400,,,,,,,,,,,,,,,,,METAR,50.0
EHFZ 121355Z AUTO 29030KT 9999 NSC 09/06 Q1010 W///H///,EHFZ,2019-01-12T13:55:00Z,54.12,4.02,9.0,6.0,290,30,,6.21,29.822834,,,TRUE,,,,,,,,CLR,,,,,,,,VFR,,,,,,,,,,,,METAR,50.0
EHJA 121355Z AUTO 29031KT 9999 NSC 09/06 Q1012 W///H///,EHJA,2019-01-12T13:55:00Z,53.82,2.95,9.0,6.0,290,31,,6.21,29.88189,,,TRUE,,,,,,,,CLR,,,,,,,,VFR,,,,,,,,,,,,METAR,50.0
EHHW 121355Z AUTO 32026KT //// // NCD 08/05 Q1008 RE// W///H///,EHHW,2019-01-12T13:55:00Z,54.03,6.03,8.0,5.0,320,26,,,29.763779,,,TRUE,,,,,,,,CLR,,,,,,,,,,,,,,,,,,,,METAR,0.0
EHJR 121355Z AUTO 29026KT //// // ///////// 09/07 Q1013 RE// W///H28,EHJR,2019-01-12T13:55:00Z,53.22,3.22,9.0,7.0,290,26,,,29.911417,,,TRUE,,,,,,,,,,,,,,,,,,,,,,,,,,,,METAR,50.0
EHKV 121355Z AUTO 28027KT 240V320 9999 NSC 08/06 Q1013 W///H///,EHKV,2019-01-12T13:55:00Z,53.27,3.63,8.0,6.0,280,27,,6.21,29.911417,,,TRUE,,,,,,,,CLR,,,,,,,,VFR,,,,,,,,,,,,METAR,50.0
EHMG 121355Z AUTO 30030KT 9999 FEW015 SCT018 08/06 Q1011 W///H///,EHMG,2019-01-12T13:55:00Z,53.62,4.97,8.0,6.0,300,30,,6.21,29.852362,,,TRUE,,,,,,,,FEW,1500,SCT,1800,,,,,VFR,,,,,,,,,,,,METAR,50.0
EHMA 121355Z AUTO 29024KT 9999 FEW014 SCT026 08/06 Q1010 W///H///,EHMA,2019-01-12T13:55:00Z,53.5,5.95,8.0,6.0,290,24,,6.21,29.822834,,,TRUE,,,,,,,,FEW,1400,SCT,2600,,,,,VFR,,,,,,,,,,,,METAR,50.0
EHPG 121355Z AUTO 27025KT 200V350 9999 FEW019 SCT045 09/07 Q1014 RERA W///H///,EHPG,2019-01-12T13:55:00Z,52.37,3.35,9.0,7.0,270,25,,6.21,29.940945,,,TRUE,,,,,,,,FEW,1900,SCT,4500,,,,,VFR,,,,,,,,,,,,METAR,50.0
EHQE 121355Z AUTO 29030KT 9999 SCT012 BKN015 BKN019 09/06 Q1012 W///H///,EHQE,2019-01-12T13:55:00Z,52.92,4.15,9.0,6.0,290,30,,6.21,29.88189,,,TRUE,,,,,,,,SCT,1200,BKN,1500,BKN,1900,,,MVFR,,,,,,,,,,,,METAR,50.0
EHSC 121355Z AUTO 28026KT 9999 ///////// 09/07 Q1015 W08/H22,EHSC,2019-01-12T13:55:00Z,51.93,3.67,9.0,7.0,280,26,,6.21,29.970472,,,TRUE,,,,,,,,,,,,,,,,,,,,,,,,,,,,METAR,50.0
EHSA 121355Z AUTO 26026KT 9999 ///////// 09/07 Q1016 W06/H24,EHSA,2019-01-12T13:55:00Z,52.0,3.28,9.0,7.0,260,26,,6.21,30.0,,,TRUE,,,,,,,,,,,,,,,,,,,,,,,,,,,,METAR,50.0
OPLA 121355Z 15005KT 4000 FU SCT040 BKN100 13/09 Q1018 RERA TEMPO 33015G30KT 1500 TSRA FEW030CB RMK QFE992 RMK A30.05,OPLA,2019-01-12T13:55:00Z,31.52,74.4,13.0,9.0,150,5,,2.49,30.059055,,,,,,,,,,FU,SCT,4000,BKN,10000,,,,,IFR,,,,,,,,,,,,SPECI,217.0
OPIS 121355Z 03003KT 3000 -TSRA FEW030CB SCT040 BKN100 10/09 Q1018 RH96,OPIS,2019-01-12T13:55:00Z,33.55,72.83,10.0,9.0,30,3,,1.86,30.059055,,,,,,,,,,-TSRA,FEW,3000,SCT,4000,BKN,10000,,,IFR,,,,,,,,,,,,METAR,537.0
KTVK 121355Z AUTO 05007G14KT 1SM -SN BKN001 BKN006 M02/M02 A3013 RMK AO2,KTVK,2019-01-12T13:55:00Z,40.68,-92.9,-2.0,-2.0,50,7,14,1.0,30.129921,,,TRUE,TRUE,,,,,,-SN,BKN,100,BKN,600,,,,,LIFR,,,,,,,,,,,,METAR,314.0
KMRJ 121355Z AUTO 08007KT 7SM OVC070 M01/M02 A3029 RMK AO2,KMRJ,2019-01-12T13:55:00Z,42.88,-90.23,-1.0,-2.0,80,7,,7.0,30.28937,,,TRUE,TRUE,,,,,,,OVC,7000,,,,,,,VFR,,,,,,,,,,,,METAR,359.0
EBFS 121355Z AUTO 25013KT 2200 -RA BKN004/// OVC006/// 05/05 Q1019 YLO,EBFS,2019-01-12T13:55:00Z,50.22,4.65,5.0,5.0,250,13,,1.37,30.088583,,,TRUE,,,,,,,-RA,BKN,400,OVC,600,,,,,LIFR,,,,,,,,,,,,METAR,299.0
EBDT 121355Z AUTO 25011KT 4300 -DZ SCT003/// BKN005/// 07/07 Q1017 YLO,EBDT,2019-01-12T13:55:00Z,51.02,5.07,7.0,7.0,250,11,,2.67,30.029528,,,TRUE,,,,,,,-DZ,SCT,300,BKN,500,,,,,IFR,,,,,,,,,,,,METAR,54.0
LIVD 121355Z /////KT CAVOK 04/M07 Q1015 RMK BKN FEW070 BKN220 VIS MIN 9999,LIVD,2019-01-12T13:55:00Z,46.72,12.22,4.0,-7.0,,,,6.21,29.970472,,,,,,,,,,,CAVOK,,,,,,,,VFR,,,,,,,,,,,,SPECI,1226.0
LIRT 121355Z 02003KT 9999 BKN005 M01/M05 Q1013 RMK BKN MON CIME INC VAL NIL VIS MIN 9999,LIRT,2019-01-12T13:55:00Z,41.03,15.22,-1.0,-5.0,20,3,,6.21,29.911417,,,,,,,,,,,BKN,500,,,,,,,IFR,,,,,,,,,,,,SPECI,1093.0
LIQO 121355Z 33017KT CAVOK 05/M04 Q1016 RMK FEW FEW200 VAL NIL NC VIS MIN 9999,LIQO,2019-01-12T13:55:00Z,42.37,11.17,5.0,-4.0,330,17,,6.21,30.0,,,,,,,,,,,CAVOK,,,,,,,,VFR,,,,,,,,,,,,SPECI,632.0
LIMY 121355Z 04007KT CAVOK 13/01 Q1015 RMK FEW FEW200 VAL NIL VIS MIN 9999,LIMY,2019-01-12T13:55:00Z,44.25,7.78,13.0,1.0,40,7,,6.21,29.970472,,,,,,,,,,,CAVOK,,,,,,,,VFR,,,,,,,,,,,,SPECI,1742.0
LIMU 121355Z 22010KT CAVOK 11/02 Q1017 RMK SCT SCT200 QUK 2 QUL 1 S VIS MAR 40 KM VIS MIN 9999,LIMU,2019-01-12T13:55:00Z,43.95,8.17,11.0,2.0,220,10,,6.21,30.029528,,,,,,,,,,,CAVOK,,,,,,,,VFR,,,,,,,,,,,,SPECI,221.0
LIBQ 121355Z 03014KT 9999 FEW004 M05/M07 Q1006 RMK FEW MON LIB VAL NIL VIS MIN 9999,LIBQ,2019-01-12T13:55:00Z,39.32,16.38,-5.0,-7.0,30,14,,6.21,29.704725,,,,,,,,,,,FEW,400,,,,,,,VFR,,,,,,,,,,,,SPECI,1720.0
EHFS 121355Z AUTO 28020KT 250V310 9999 BKN016 BKN021 OVC031 09/07 Q1017 W///H///,EHFS,2019-01-12T13:55:00Z,51.45,3.6,9.0,7.0,280,20,,6.21,30.029528,,,TRUE,,,,,,,,BKN,1600,BKN,2100,OVC,3100,,,MVFR,,,,,,,,,,,,METAR,32.0
EBBE 121355Z AUTO 25012KT 2000 -RA BKN003/// 06/06 Q1018 YLO,EBBE,2019-01-12T13:55:00Z,50.75,4.77,6.0,6.0,250,12,,1.24,30.059055,,,TRUE,,,,,,,-RA,BKN,300,,,,,,,LIFR,,,,,,,,,,,,METAR,127.0
EBCV 121355Z AUTO 26012KT 9999 OVC006/// 08/07 Q1019 YLO,EBCV,2019-01-12T13:55:00Z,50.57,3.82,8.0,7.0,260,12,,6.21,30.088583,,,TRUE,,,,,,,,OVC,600,,,,,,,IFR,,,,,,,,,,,,METAR,63.0
EBLB 121355Z AUTO 26006KT 3900 -RA OVC003/// 03/03 Q1016 YLO,EBLB,2019-01-12T13:55:00Z,50.47,6.17,3.0,3.0,260,6,,2.42,30.0,,,TRUE,,,,,,,-RA,OVC,300,,,,,,,LIFR,,,,,,,,,,,,METAR,570.0
K04W 121355Z AUTO 03006KT 10SM OVC038 M03/M06 A3037 RMK AO2,K04W,2019-01-12T13:55:00Z,46.02,-92.9,-3.0,-6.0,30,6,,10.0,30.369095,,,TRUE,TRUE,,,,,,,OVC,3800,,,,,,,VFR,,,,,,,,,,,,SPECI,311.0
KOCQ 121355Z AUTO 09004KT 4SM OVC005 M01/M02 A3043 RMK AO1 T10151021,KOCQ,2019-01-12T13:55:00Z,44.87,-87.92,-1.5,-2.1,90,4,,4.0,30.431103,,,TRUE,TRUE,,,,,,,OVC,500,,,,,,,IFR,,,,,,,,,,,,METAR,183.0
KMKJ 121355Z AUTO 06010KT 10SM OVC060 01/M06 A3035 RMK AO2 T00101056,KMKJ,2019-01-12T13:55:00Z,36.88,-81.33,1.0,-5.6,60,10,,10.0,30.351377,,,TRUE,TRUE,,,,,,,OVC,6000,,,,,,,VFR,,,,,,,,,,,,METAR,780.0
KMGG 121355Z AUTO 00000KT 10SM CLR M08/M09 A3034 RMK AO2 T10781089,KMGG,2019-01-12T13:55:00Z,45.23,-93.98,-7.8,-8.9,0,0,,10.0,30.339567,,,TRUE,TRUE,,,,,,,CLR,,,,,,,,VFR,,,,,,,,,,,,SPECI,313.0
KCDD 121355Z AUTO 00000KT 10SM OVC013 M09/M11 A3050 RMK AO2,KCDD,2019-01-12T13:55:00Z,48.27,-92.48,-9.0,-11.0,0,0,,10.0,30.499016,,,TRUE,TRUE,,,,,,,OVC,1300,,,,,,,MVFR,,,,,,,,,,,,SPECI,341.0
LIVT 121355Z 00000KT CAVOK 08/M02 Q1017 RMK BKN SCT070 SCT200 QUK 0 QUL 0 VIS MAR 15 KM VIS MIN 9999,LIVT,2019-01-12T13:55:00Z,45.68,13.75,8.0,-2.0,0,0,,6.21,30.029528,,,,,,,,,,,CAVOK,,,,,,,,VFR,,,,,,,,,,,,METAR,20.0
LIVR 121355Z 30014KT CAVOK M02/M10 Q1012 RMK BKN SCT060 SCT070 MON LIB VIS MIN 9999,LIVR,2019-01-12T13:55:00Z,46.28,11.77,-2.0,-10.0,300,14,,6.21,29.88189,,,,,,,,,,,CAVOK,,,,,,,,VFR,,,,,,,,,,,,METAR,2006.0
LIVO 121355Z 26001KT CAVOK 03/M03 Q1013 RMK BKN SCT090 SCT200 VIS MIN 9999,LIVO,2019-01-12T13:55:00Z,46.5,13.57,3.0,-3.0,260,1,,6.21,29.911417,,,,,,,,,,,CAVOK,,,,,,,,VFR,,,,,,,,,,,,METAR,778.0
LIVF 121355Z 20005KT CAVOK 05/M12 Q1015 RMK FEW FEW090 MON LIB VAL NIL VIS MIN 9999,LIVF,2019-01-12T13:55:00Z,43.52,12.72,5.0,-12.0,200,5,,6.21,29.970472,,,,,,,,,,,CAVOK,,,,,,,,VFR,,,,,,,,,,,,METAR,574.0
LIVE 121355Z 04008KT 9999 FEW020 01/M06 Q1018 RMK SCT SCT180 VIS MIN 9999,LIVE,2019-01-12T13:55:00Z,46.85,10.5,1.0,-6.0,40,8,,6.21,30.059055,,,,,,,,,,,FEW,2000,,,,,,,VFR,,,,,,,,,,,,METAR,1800.0
LIRX 121355Z 02003KT 9999 FEW020 09/04 Q1016 RMK SCT SCT150 VIS MIN 9999 VIS MAR 50 KM,LIRX,2019-01-12T13:55:00Z,42.73,10.38,9.0,4.0,20,3,,6.21,30.0,,,,,,,,,,,FEW,2000,,,,,,,VFR,,,,,,,,,,,,METAR,297.0
LIRK 121355Z AUTO 10021G31KT 040V130 //// M05/M10 Q1012,LIRK,2019-01-12T13:55:00Z,42.47,12.97,-5.0,-10.0,100,21,31,,29.88189,,,TRUE,,,,,,,,,,,,,,,,,,,,,,,,,,,,METAR,1875.0
LIRE 121355Z 35007KT 310V040 CAVOK 09/M06 Q1017 RMK SKC VIS MIN 9999 WIND THR13 01007KT WIND THR31 /////KT BLU,LIRE,2019-01-12T13:55:00Z,41.63,12.42,9.0,-6.0,350,7,,6.21,30.029528,,,,,,,,,,,CAVOK,,,,,,,,VFR,,,,,,,,,,,,METAR,12.0
LIQC 121355Z 15002KT CAVOK 09/M03 Q1016 RMK SKC QUK 1 QUL 1 SE VIS MAR 40 KM VIS MIN 9999,LIQC,2019-01-12T13:55:00Z,40.55,14.2,9.0,-3.0,150,2,,6.21,30.0,,,,,,,,,,,CAVOK,,,,,,,,VFR,,,,,,,,,,,,METAR,269.0
LIMH 121355Z /////KT CAVOK M10/M17 Q1016 RMK SCT SCT100 MON LIB VAL NIL VIS MIN 9999,LIMH,2019-01-12T13:55:00Z,45.93,7.7,-10.0,-17.0,,,,6.21,30.0,,,,,,,,,,,CAVOK,,,,,,,,VFR,,,,,,,,,,,,METAR,3488.0
LIED 121355Z 32014KT 9999 SCT040 10/03 Q1020 RMK SCT VIS MIN 9999 WIND THR35 /////KT WIND THR17 /////KT BLU,LIED,2019-01-12T13:55:00Z,39.35,8.97,10.0,3.0,320,14,,6.21,30.11811,,,,,,,,,,,SCT,4000,,,,,,,VFR,,,,,,,,,,,,METAR,28.0
LIEB 121355Z 33010KT CAVOK 12/M05 Q1020 RMK SKC QUK 2 QUL 0 VIS MAR 30 KM MON LIB VIS MIN 9999,LIEB,2019-01-12T13:55:00Z,39.93,9.72,12.0,-5.0,330,10,,6.21,30.11811,,,,,,,,,,,CAVOK,,,,,,,,VFR,,,,,,,,,,,,METAR,156.0
LICZ 121355Z 30016KT 9999 SCT020 SCT070 13/M02 Q1013 RMK BKN VIS MIN 9999 WIND THR28 /////KT WIND THR10 30019KT A2994 BLU,LICZ,2019-01-12T13:55:00Z,37.38,14.92,13.0,-2.0,300,16,,6.21,29.911417,,,,,,,,,,,SCT,2000,SCT,7000,,,,,VFR,,,,,,,,,,,,METAR,22.0
LICF 121355Z 35009KT 9999 BKN030 10/M01 Q1014 RMK BKN QUK 2 QUL 1 NW VIS MAR 20 KM MON E CIME INC NC MON W LIB NC VIS MIN 9999,LICF,2019-01-12T13:55:00Z,38.2,15.55,10.0,-1.0,350,9,,6.21,29.940945,,,,,,,,,,,BKN,3000,,,,,,,MVFR,,,,,,,,,,,,METAR,51.0
LIBY 121355Z 36020KT 9999 FEW018 08/02 Q1010 RMK FEW QUK 4 QUL 3 N VIS MAR 15 KM VIS MIN 9999,LIBY,2019-01-12T13:55:00Z,39.82,18.35,8.0,2.0,360,20,,6.21,29.822834,,,,,,,,,,,FEW,1800,,,,,,,VFR,,,,,,,,,,,,METAR,112.0
LIBV 121355Z 34014KT 9999 SCT033 05/M03 Q1012 RMK SCT VIS MIN 9999 WIND THR32 35019KT WIND THR14 34019KT BLU,LIBV,2019-01-12T13:55:00Z,40.77,16.92,5.0,-3.0,340,14,,6.21,29.88189,,,,,,,,,,,SCT,3300,,,,,,,VFR,,,,,,,,,,,,METAR,350.0
LIBN 121355Z 34018KT 9999 FEW035 07/01 Q1012 RMK FEW VIS MIN 9999 WIND THR14 35019KT WIND THR32 35020KT BLU,LIBN,2019-01-12T13:55:00Z,40.22,18.13,7.0,1.0,340,18,,6.21,29.88189,,,,,,,,,,,FEW,3500,,,,,,,VFR,,,,,,,,,,,,METAR,61.0
ETNL 121355Z 23010KT 4300 RA BR FEW004 BKN007 05/04 Q1004 GRN,ETNL,2019-01-12T13:55:00Z,53.92,12.27,5.0,4.0,230,10,,2.67,29.64567,,,,,,,,,,RA BR,FEW,400,BKN,700,,,,,IFR,,,,,,,,,,,,SPECI,40.0
KI63 121355Z AUTO 09012KT 1/2SM -SN OVC005 M02/M02 A3015 RMK AO2 T10201022,KI63,2019-01-12T13:55:00Z,39.98,-90.8,-2.0,-2.2,90,12,,0.5,30.15059,,,TRUE,TRUE,,,,,,-SN,OVC,500,,,,,,,LIFR,,,,,,,,,,,,SPECI,223.0
KHTO 121355Z AUTO 34007KT 300V360 10SM OVC090 M05/M12 A3052 RMK AO2 T10531123,KHTO,2019-01-12T13:55:00Z,40.95,-72.25,-5.3,-12.3,340,7,,10.0,30.519686,,,TRUE,TRUE,,,,,,,OVC,9000,,,,,,,VFR,,,,,,,,,,,,SPECI,17.0
KHSG 121355Z AUTO 00000KT 10SM CLR M09/M11 A3018 RMK AO2 T10881115,KHSG,2019-01-12T13:55:00Z,43.72,-108.38,-8.8,-11.5,0,0,,10.0,30.180119,,,TRUE,TRUE,,,,,,,CLR,,,,,,,,VFR,,,,,,,,,,,,SPECI,1494.0
PATL 121355Z AUTO 08002KT 10SM CLR M32/M35 A2982 RMK AO2 SHSNB1253E1305 SLP162 T13181348,PATL,2019-01-12T13:55:00Z,62.9,-155.97,-31.8,-34.8,80,2,,10.0,29.819881,1016.2,,TRUE,TRUE,,,,,,,CLR,,,,,,,,VFR,,,,,,,,,,,,METAR,294.0
PATC 121355Z AUTO 04010KT 6SM -SN CLR M28/M30 A2997 RMK AO2 SHSNB1336E1338 SLP166 P0000 T12821305,PATC,2019-01-12T13:55:00Z,65.57,-167.92,-28.2,-30.5,40,10,,6.0,29.970472,1016.6,,TRUE,TRUE,,,,,,-SN,CLR,,,,,,,,VFR,,,,,,0.005,,,,,,METAR,83.0
PASV 121355Z AUTO 00000KT 10SM BKN036 M23/M26 A2953 RMK AO2 SLP088 T12321256,PASV,2019-01-12T13:55:00Z,61.1,-155.57,-23.2,-25.6,0,0,,10.0,29.530512,1008.8,,TRUE,TRUE,,,,,,,BKN,3600,,,,,,,VFR,,,,,,,,,,,,METAR,484.0
PALU 121355Z AUTO 07022KT 4SM BR BKN008 M29/M32 A3022 RMK AO2 SLP234 T12861318,PALU,2019-01-12T13:55:00Z,68.88,-166.1,-28.6,-31.8,70,22,,4.0,30.221457,1023.4,,TRUE,TRUE,,,,,,BR,BKN,800,,,,,,,IFR,,,,,,,,,,,,METAR,3.0
PAIM 121355Z AUTO 13010KT 100V180 10SM CLR M27/M31 A2990 RMK AO2 SLP200 T12681309,PAIM,2019-01-12T13:55:00Z,66.0,-153.7,-26.8,-30.9,130,10,,10.0,29.899607,1020.0,,TRUE,TRUE,,,,,,,CLR,,,,,,,,VFR,,,,,,,,,,,,METAR,389.0
ETNW 121355Z 25016G27KT 4500 -DZRA BKN008 06/05 Q1009 GRN,ETNW,2019-01-12T13:55:00Z,52.45,9.42,6.0,5.0,250,16,27,2.8,29.793306,,,,,,,,,,-DZ -RA,BKN,800,,,,,,,IFR,,,,,,,,,,,,SPECI,70.0
LIVP 121355Z 01008KT CAVOK M04/M10 Q1012,LIVP,2019-01-12T13:55:00Z,46.15,11.03,-4.0,-10.0,10,8,,6.21,29.88189,,,,,,,,,,,CAVOK,,,,,,,,VFR,,,,,,,,,,,,SPECI,2129.0
LIPS 121355Z 00000KT CAVOK 05/M00 Q1017 RMK BKN BKN200 VIS MIN 9999 WIND THR26 00000KT WIND THR08 00000KT BLU,LIPS,2019-01-12T13:55:00Z,45.67,12.08,5.0,0.0,0,0,,6.21,30.029528,,,,,,,,,,,CAVOK,,,,,,,,VFR,,,,,,,,,,,,METAR,41.0
LIPL 121355Z 28001KT CAVOK 06/02 Q1017 RMK SCT SCT150 VIS MIN 9999 WIND THR31 28002KT WIND THR13 22001KT BLU,LIPL,2019-01-12T13:55:00Z,45.42,10.27,6.0,2.0,280,1,,6.21,30.029528,,,,,,,,,,,CAVOK,,,,,,,,VFR,,,,,,,,,,,,METAR,92.0
LIPA 121355Z 06002KT 9999 SCT120 05/M00 Q1017 RMK BKN BKN180 VIS MIN 9999 WIND THR05 03003KT WIND THR23 30002KT A3004 BLU,LIPA,2019-01-12T13:55:00Z,46.02,12.58,5.0,0.0,60,2,,6.21,30.029528,,,,,,,,,,,SCT,12000,,,,,,,VFR,,,,,,,,,,,,METAR,126.0
LIMK 121355Z 00000KT CAVOK 07/M09 Q1014,LIMK,2019-01-12T13:55:00Z,45.02,7.72,7.0,-9.0,0,0,,6.21,29.940945,,,,,,,,,,,CAVOK,,,,,,,,VFR,,,,,,,,,,,,SPECI,710.0
KTOC 121355Z AUTO 08003KT 10SM OVC039 04/M05 A3039 RMK AO2 T00411046,KTOC,2019-01-12T13:55:00Z,34.6,-83.3,4.1,-4.6,80,3,,10.0,30.389763,,,TRUE,TRUE,,,,,,,OVC,3900,,,,,,,VFR,,,,,,,,,,,,METAR,304.0
KTIP 121355Z AUTO 09008KT 1/2SM SN OVC011 M02/M02 A3026 RMK AO2 P0002 T10181020,KTIP,2019-01-12T13:55:00Z,40.28,-88.15,-1.8,-2.0,90,8,,0.5,30.259842,,,TRUE,TRUE,,,,,,SN,OVC,1100,,,,,,,LIFR,,,,,,0.02,,,,,,SPECI,225.0
KTFP 121355Z AUTO 34004KT 5SM BR OVC007 16/14 A3005 RMK AO2 T01570144 PNO,KTFP,2019-01-12T13:55:00Z,27.92,-97.22,15.7,14.4,340,4,,5.0,30.050198,,,TRUE,TRUE,,,,,,BR,OVC,700,,,,,,,IFR,,,,,,,,,,,,SPECI,6.0
KT82 121355Z AUTO 31005KT 10SM CLR 08/05 A3009 RMK AO2 T00770047,KT82,2019-01-12T13:55:00Z,30.25,-98.92,7.7,4.7,310,5,,10.0,30.088583,,,TRUE,TRUE,,,,,,,CLR,,,,,,,,VFR,,,,,,,,,,,,METAR,517.0
KT35 121355Z AUTO 32004KT 10SM CLR 10/08 A3004 RMK AO2 T00970081,KT35,2019-01-12T13:55:00Z,30.88,-96.97,9.7,8.1,320,4,,10.0,30.041338,,,TRUE,TRUE,,,,,,,CLR,,,,,,,,VFR,,,,,,,,,,,,METAR,123.0
KPNT 121355Z AUTO 08010KT 3/4SM -SN OVC016 M02/M02 A3029 RMK AO2 T10181020,KPNT,2019-01-12T13:55:00Z,40.92,-88.62,-1.8,-2.0,80,10,,0.75,30.28937,,,TRUE,TRUE,,,,,,-SN,OVC,1600,,,,,,,LIFR,,,,,,,,,,,,METAR,201.0
KOZA 121355Z AUTO 00000KT 10SM CLR 03/02 A3017 RMK AO2,KOZA,2019-01-12T13:55:00Z,30.73,-101.2,3.0,2.0,0,0,,10.0,30.171259,,,TRUE,TRUE,,,,,,,CLR,,,,,,,,VFR,,,,,,,,,,,,SPECI,726.0
KOXI 121355Z AUTO 09007KT 10SM BKN039 OVC048 M02/M05 A3033 RMK AO1,KOXI,2019-01-12T13:55:00Z,41.33,-86.67,-2.0,-5.0,90,7,,10.0,30.33071,,,TRUE,TRUE,,,,,,,BKN,3900,OVC,4800,,,,,VFR,,,,,,,,,,,,METAR,209.0
KY49 121355Z AUTO 07004KT 5SM BR OVC003 M05/M05 A3038 RMK AO2 T10501055,KY49,2019-01-12T13:55:00Z,47.13,-94.65,-5.0,-5.5,70,4,,5.0,30.380905,,,TRUE,TRUE,,,,,,BR,OVC,300,,,,,,,LIFR,,,,,,,,,,,,METAR,416.0
KXLL 121355Z AUTO 00000KT 10SM CLR M05/M13 A3055 RMK AO2,KXLL,2019-01-12T13:55:00Z,40.57,-75.48,-5.0,-13.0,0,0,,10.0,30.549213,,,TRUE,TRUE,,,,,,,CLR,,,,,,,,VFR,,,,,,,,,,,,METAR,122.0
KW78 121355Z AUTO 00000KT 10SM SCT070 OVC090 00/M07 A3048 RMK AO1 T00011075,KW78,2019-01-12T13:55:00Z,36.68,-78.85,0.1,-7.5,0,0,,10.0,30.481298,,,TRUE,TRUE,,,,,,,SCT,7000,OVC,9000,,,,,VFR,,,,,,,,,,,,METAR,129.0
KW43 121355Z AUTO 10SM CLR M07/M08 A3018 RMK AO2,KW43,2019-01-12T13:55:00Z,44.67,-104.57,-7.0,-8.0,,,,10.0,30.180119,,,TRUE,TRUE,,,,,,,CLR,,,,,,,,VFR,,,,,,,,,,,,METAR,1300.0
KVYS 121355Z AUTO 09009KT 1/2SM -SN OVC007 M02/M03 A3029 RMK AO2 T10251033,KVYS,2019-01-12T13:55:00Z,41.35,-89.15,-2.5,-3.3,90,9,,0.5,30.28937,,,TRUE,TRUE,,,,,,-SN,OVC,700,,,,,,,LIFR,,,,,,,,,,,,METAR,199.0
KUXL 121355Z AUTO 22010KT 7SM RA BKN026 BKN050 OVC090 17/17 A2998 RMK AO2 P0001 T01730173,KUXL,2019-01-12T13:55:00Z,30.13,-93.38,17.3,17.3,220,10,,7.0,29.97933,,,TRUE,TRUE,,,,,,RA,BKN,2600,BKN,5000,OVC,9000,,,MVFR,,,,,,0.01,,,,,,METAR,4.0
EBBL 121355Z AUTO 25012KT 3700 DZ OVC004/// 07/06 Q1016 YLO,EBBL,2019-01-12T13:55:00Z,51.17,5.47,7.0,6.0,250,12,,2.3,30.0,,,TRUE,,,,,,,DZ,OVC,400,,,,,,,LIFR,,,,,,,,,,,,METAR,64.0
KTDF 121355Z AUTO 20004KT 10SM OVC100 00/M07 A3051 RMK AO2,KTDF,2019-01-12T13:55:00Z,36.28,-78.98,0.0,-7.0,200,4,,10.0,30.510826,,,TRUE,TRUE,,,,,,,OVC,10000,,,,,,,VFR,,,,,,,,,,,,METAR,186.0
KVWU 121355Z AUTO 07006KT 10SM OVC009 M07/M07 A3044 RMK AO2,KVWU,2019-01-12T13:55:00Z,48.15,-94.52,-7.0,-7.0,70,6,,10.0,30.43996,,,TRUE,TRUE,,,,,,,OVC,900,,,,,,,IFR,,,,,,,,,,,,SPECI,360.0
KUTA 121355Z AUTO 12009KT 7SM RA 06/04 A3004 RMK AO2 P0008 TSNO,KUTA,2019-01-12T13:55:00Z,34.68,-90.35,6.0,4.0,120,9,,7.0,30.041338,,,TRUE,TRUE,,,TRUE,,,RA,,,,,,,,,,,,,,,0.08,,,,,,METAR,59.0
KSYN 121355Z AUTO 07007KT 10SM OVC045 M04/M07 A3030 RMK AO2 T10421066,KSYN,2019-01-12T13:55:00Z,44.47,-93.02,-4.2,-6.6,70,7,,10.0,30.301182,,,TRUE,TRUE,,,,,,,OVC,4500,,,,,,,VFR,,,,,,,,,,,,METAR,280.0
KSVE 121355Z AUTO 28005KT 10SM CLR M01/M02 A3006 RMK AO2,KSVE,2019-01-12T13:55:00Z,40.37,-120.57,-1.0,-2.0,280,5,,10.0,30.059055,,,TRUE,TRUE,,,,,,,CLR,,,,,,,,VFR,,,,,,,,,,,,METAR,1263.0
KSTE 121355Z AUTO 08008KT 10SM BKN011 OVC044 M04/M06 A3037 RMK AO2 T10431065,KSTE,2019-01-12T13:55:00Z,44.55,-89.53,-4.3,-6.5,80,8,,10.0,30.369095,,,TRUE,TRUE,,,,,,,BKN,1100,OVC,4400,,,,,MVFR,,,,,,,,,,,,METAR,338.0
KRNV 121355Z AUTO 14008KT 10SM DZ SCT033 BKN075 OVC110 08/08 A3000 RMK AO2 T00770077,KRNV,2019-01-12T13:55:00Z,33.77,-90.75,7.7,7.7,140,8,,10.0,30.0,,,TRUE,TRUE,,,,,,DZ,SCT,3300,BKN,7500,OVC,11000,,,VFR,,,,,,,,,,,,METAR,41.0
KOZS 121355Z AUTO 08005KT 4SM -SN OVC003 00/00 A2999 RMK AO2,KOZS,2019-01-12T13:55:00Z,37.97,-92.68,0.0,0.0,80,5,,4.0,29.991142,,,TRUE,TRUE,,,,,,-SN,OVC,300,,,,,,,LIFR,,,,,,,,,,,,METAR,324.0
KPXE 121355Z AUTO 08008KT 10SM SCT043 SCT049 OVC060 06/00 A3031 RMK AO2 T00630001,KPXE,2019-01-12T13:55:00Z,32.52,-83.77,6.3,0.1,80,8,,10.0,30.31004,,,TRUE,TRUE,,,,,,,SCT,4300,SCT,4900,OVC,6000,,,VFR,,,,,,,,,,,,METAR,127.0
KRCR 121355Z AUTO 11005KT 7SM SCT015 SCT024 M01/M05 A3033 RMK AO2,KRCR,2019-01-12T13:55:00Z,41.07,-86.18,-1.0,-5.0,110,5,,7.0,30.33071,,,TRUE,TRUE,,,,,,,SCT,1500,SCT,2400,,,,,VFR,,,,,,,,,,,,METAR,241.0
KCCO 121355Z AUTO 11008KT BKN033 OVC060 06/M04 A3027 RMK AO2 T00561039 PWINO,KCCO,2019-01-12T13:55:00Z,33.32,-84.77,5.6,-3.9,110,8,,,30.268702,,,TRUE,TRUE,,,,,TRUE,,BKN,3300,OVC,6000,,,,,,,,,,,,,,,,,METAR,296.0
KC75 121355Z AUTO 08008KT 3/4SM -SN OVC019 M02/M03 A3026 RMK AO2 T10201028,KC75,2019-01-12T13:55:00Z,41.02,-89.38,-2.0,-2.8,80,8,,0.75,30.259842,,,TRUE,TRUE,,,,,,-SN,OVC,1900,,,,,,,LIFR,,,,,,,,,,,,METAR,173.0
KC09 121355Z AUTO 07008KT 3/4SM -SN OVC017 M02/M03 A3030 RMK AO2 T10201030,KC09,2019-01-12T13:55:00Z,41.43,-88.42,-2.0,-3.0,70,8,,0.75,30.301182,,,TRUE,TRUE,,,,,,-SN,OVC,1700,,,,,,,LIFR,,,,,,,,,,,,METAR,178.0
KBHC 121355Z AUTO 07004KT 10SM OVC060 07/05 A3031 RMK AO2,KBHC,2019-01-12T13:55:00Z,31.72,-82.4,7.0,5.0,70,4,,10.0,30.31004,,,TRUE,TRUE,,,,,,,OVC,6000,,,,,,,VFR,,,,,,,,,,,,METAR,61.0
KBDG 121355Z AUTO 04003KT 10SM M06/M08 A3022 RMK AO1 T10581080,KBDG,2019-01-12T13:55:00Z,37.58,-109.47,-5.8,-8.0,40,3,,10.0,30.221457,,,TRUE,TRUE,,,,,,,,,,,,,,,,,,,,,,,,,,,METAR,1788.0
KBCB 121355Z AUTO 12005KT 10SM BKN038 OVC044 M01/M08 A3042 RMK AO2 T10151085,KBCB,2019-01-12T13:55:00Z,37.22,-80.42,-1.5,-8.5,120,5,,10.0,30.41929,,,TRUE,TRUE,,,,,,,BKN,3800,OVC,4400,,,,,VFR,,,,,,,,,,,,METAR,650.0
KCKF 121355Z AUTO 08007KT 10SM BKN039 BKN048 OVC060 08/02 A3032 RMK AO2 T00750019,KCKF,2019-01-12T13:55:00Z,31.98,-83.77,7.5,1.9,80,7,,10.0,30.318897,,,TRUE,TRUE,,,,,,,BKN,3900,BKN,4800,OVC,6000,,,VFR,,,,,,,,,,,,METAR,91.0
TNCE 121355Z AUTO 06010KT 020V080 //// // ///////// 27/22 Q1019 RE//,TNCE,2019-01-12T13:55:00Z,17.47,-62.97,27.0,22.0,60,10,,,30.088583,,,TRUE,,,,,,,,,,,,,,,,,,,,,,,,,,,,METAR,39.0
TNCB 121355Z 10014KT 070V150 9999 SCT017 SCT022 29/23 Q1016,TNCB,2019-01-12T13:55:00Z,12.13,-68.28,29.0,23.0,100,14,,6.21,30.0,,,,,,,,,,,SCT,1700,SCT,2200,,,,,VFR,,,,,,,,,,,,METAR,6.0
KCQB 121355Z AUTO 34012KT 1 1/4SM -RA BR OVC004 03/03 A2990 RMK AO2 T00310029,KCQB,2019-01-12T13:55:00Z,35.72,-96.82,3.1,2.9,340,12,,1.25,29.899607,,,TRUE,TRUE,,,,,,-RA BR,OVC,400,,,,,,,LIFR,,,,,,,,,,,,METAR,300.0
KBYS 121355Z AUTO 16001KT 10SM FEW130 BKN150 05/M02 A3005 RMK AO2 SLP193 WND DATA ESTMD T00481017,KBYS,2019-01-12T13:55:00Z,35.28,-116.62,4.8,-1.7,160,1,,10.0,30.050198,1019.3,,TRUE,TRUE,,,,,,,FEW,13000,BKN,15000,,,,,VFR,,,,,,,,,,,,METAR,716.0
KWWD 121355Z AUTO 02006KT 10SM CLR M03/M13 A3057 RMK AO2 SLP353 T10331128 FZRANO,KWWD,2019-01-12T13:55:00Z,39.02,-74.92,-3.3,-12.8,20,6,,10.0,30.569881,1035.3,,TRUE,TRUE,,,,TRUE,,,CLR,,,,,,,,VFR,,,,,,,,,,,,METAR,7.0
KCVC 121355Z AUTO 08007KT 10SM OVC033 05/M03 A3033 RMK AO2 PNO,KCVC,2019-01-12T13:55:00Z,33.63,-83.85,5.0,-3.0,80,7,,10.0,30.33071,,,TRUE,TRUE,,,,,,,OVC,3300,,,,,,,VFR,,,,,,,,,,,,METAR,247.0
KCWV 121355Z AUTO 03007KT 10SM OVC060 08/03 A3035 RMK AO2 T00800032,KCWV,2019-01-12T13:55:00Z,32.2,-81.87,8.0,3.2,30,7,,10.0,30.351377,,,TRUE,TRUE,,,,,,,OVC,6000,,,,,,,VFR,,,,,,,,,,,,METAR,33.0
KLLJ 121355Z AUTO 00000KT 9SM OVC009 M07/M10 A3031 RMK AO2 SLP303 T10721100,KLLJ,2019-01-12T13:55:00Z,44.52,-114.22,-7.2,-10.0,0,0,,9.0,30.31004,1030.3,,TRUE,TRUE,,,,,,,OVC,900,,,,,,,IFR,,,,,,,,,,,,METAR,1536.0
KD73 121355Z AUTO 07008KT 10SM OVC034 03/M04 A3035 RMK AO2 T00341044,KD73,2019-01-12T13:55:00Z,33.78,-83.7,3.4,-4.4,70,8,,10.0,30.351377,,,TRUE,TRUE,,,,,,,OVC,3400,,,,,,,VFR,,,,,,,,,,,,METAR,267.0
KNFG 121355Z AUTO 06006KT 10SM -RA OVC060 11/11 A3001 RMK AO2 RAE22B51 SLP162 P0010 T01060106,KNFG,2019-01-12T13:55:00Z,33.28,-117.33,10.6,10.6,60,6,,10.0,30.008858,1016.2,,TRUE,TRUE,,,,,,-RA,OVC,6000,,,,,,,VFR,,,,,,0.1,,,,,,SPECI,24.0
EHVL 121355Z AUTO 30021KT 7000 BR SCT015 BKN019 OVC022 08/06 Q1012 WHT,EHVL,2019-01-12T13:55:00Z,53.23,4.92,8.0,6.0,300,21,,4.35,29.88189,,,TRUE,,,,,,,BR,SCT,1500,BKN,1900,OVC,2200,,,MVFR,,,,,,,,,,,,METAR,5.0
KNBG 121355Z 14011KT 10SM BKN050 BKN250 15/14 A3004 RMK AO2 SLP170 T01500139 $,KNBG,2019-01-12T13:55:00Z,29.82,-90.02,15.0,13.9,140,11,,10.0,30.041338,1017.0,,,TRUE,TRUE,,,,,,BKN,5000,BKN,25000,,,,,VFR,,,,,,,,,,,,METAR,1.0
KSME 121355Z AUTO 00000KT 10SM BKN070 OVC090 01/00 A3029 RMK AO2,KSME,2019-01-12T13:55:00Z,37.05,-84.62,1.0,0.0,0,0,,10.0,30.28937,,,TRUE,TRUE,,,,,,,BKN,7000,OVC,9000,,,,,VFR,,,,,,,,,,,,METAR,283.0
KSHD 121355Z AUTO 00000KT 10SM SCT035 BKN043 OVC055 M03/M06 A3047 RMK AO2 T10271058,KSHD,2019-01-12T13:55:00Z,38.27,-78.9,-2.7,-5.8,0,0,,10.0,30.469488,,,TRUE,TRUE,,,,,,,SCT,3500,BKN,4300,OVC,5500,,,VFR,,,,,,,,,,,,METAR,366.0
KSAA 121355Z AUTO 20003KT 1 1/4SM BR OVC003 M08/M08 A3020 RMK AO2,KSAA,2019-01-12T13:55:00Z,41.45,-106.83,-8.0,-8.0,200,3,,1.25,30.200787,,,TRUE,TRUE,,,,,,BR,OVC,300,,,,,,,LIFR,,,,,,,,,,,,SPECI,2138.0
KRZN 121355Z AUTO 05004KT 10SM OVC050 M03/M08 A3037 RMK AO2 T10351076,KRZN,2019-01-12T13:55:00Z,45.82,-92.37,-3.5,-7.6,50,4,,10.0,30.369095,,,TRUE,TRUE,,,,,,,OVC,5000,,,,,,,VFR,,,,,,,,,,,,METAR,301.0
KREG 121355Z AUTO 00000KT 13/12 A3001 RMK AO2 T01340121 PWINO,KREG,2019-01-12T13:55:00Z,30.17,-90.93,13.4,12.1,0,0,,,30.008858,,,TRUE,TRUE,,,,,TRUE,,,,,,,,,,,,,,,,,,,,,,METAR,4.0
KIJX 121355Z AUTO 08014KT 3/4SM -SN BKN004 OVC008 M02/M02 A3017 RMK AO2 T10161020,KIJX,2019-01-12T13:55:00Z,39.77,-90.25,-1.6,-2.0,80,14,,0.75,30.171259,,,TRUE,TRUE,,,,,,-SN,BKN,400,OVC,800,,,,,LIFR,,,,,,,,,,,,SPECI,190.0
KEBS 121355Z AUTO 07006KT 1SM -SN OVC003 M02/M03 A3019 RMK AO2,KEBS,2019-01-12T13:55:00Z,42.42,-93.87,-2.0,-3.0,70,6,,1.0,30.188976,,,TRUE,TRUE,,,,,,-SN,OVC,300,,,,,,,LIFR,,,,,,,,,,,,METAR,342.0
EHAM 121355Z 28016KT 250V310 9999 FEW011 SCT019 BKN040 09/07 Q1014 NOSIG,EHAM,2019-01-12T13:55:00Z,52.32,4.78,9.0,7.0,280,16,,6.21,29.940945,,,,,,TRUE,,,,,FEW,1100,SCT,1900,BKN,4000,,,VFR,,,,,,,,,,,,METAR,9.0
KGSO 121354Z 08005KT 10SM OVC090 02/M07 A3044 RMK AO2 SLP316 T00171072,KGSO,2019-01-12T13:54:00Z,36.1,-79.95,1.7,-7.2,80,5,,10.0,30.43996,1031.6,,,TRUE,,,,,,,OVC,9000,,,,,,,VFR,,,,,,,,,,,,METAR,275.0
KEWN 121354Z 02008KT 10SM FEW120 02/M02 A3049 RMK AO2 SLP325 T00221022,KEWN,2019-01-12T13:54:00Z,35.07,-77.05,2.2,-2.2,20,8,,10.0,30.490158,1032.5,,,TRUE,,,,,,,FEW,12000,,,,,,,VFR,,,,,,,,,,,,METAR,3.0
MUSC 121354Z 13004KT 9000 SCT030 21/17 Q1021,MUSC,2019-01-12T13:54:00Z,22.5,-79.95,21.0,17.0,130,4,,5.59,30.147638,,,,,,,,,,,SCT,3000,,,,,,,VFR,,,,,,,,,,,,METAR,103.0
K1V4 121354Z AUTO M21/M24 A3045 RMK AO1 SLP343 T12061239,K1V4,2019-01-12T13:54:00Z,44.42,-72.02,-20.6,-23.9,,,,,30.448818,1034.3,,TRUE,TRUE,,,,,,,,,,,,,,,,,,,,,,,,,,,METAR,210.0
KAAO 121354Z AUTO 01013G20KT 10SM OVC006 00/00 A2999 RMK AO2 SLP166 T00000000 $,KAAO,2019-01-12T13:54:00Z,37.75,-97.22,0.0,0.0,10,13,20,10.0,29.991142,1016.6,,TRUE,TRUE,TRUE,,,,,,OVC,600,,,,,,,IFR,,,,,,,,,,,,METAR,434.0
KWLD 121354Z AUTO 35012KT 1 1/4SM -SN BR OVC006 00/00 A2997 RMK AO2 SLP157 P0007 T00000000,KWLD,2019-01-12T13:54:00Z,37.17,-97.03,0.0,0.0,350,12,,1.25,29.970472,1015.7,,TRUE,TRUE,,,,,,-SN BR,OVC,600,,,,,,,IFR,,,,,,0.07,,,,,,SPECI,350.0
KNAK 121354Z AUTO 10006KT 10SM SCT100 02/M12 A3055 RMK AO2 SLP346 T00171117,KNAK,2019-01-12T13:54:00Z,38.98,-76.48,1.7,-11.7,100,6,,10.0,30.549213,1034.6,,TRUE,TRUE,,,,,,,SCT,10000,,,,,,,VFR,,,,,,,,,,,,METAR,2.0
MMRX 121354Z 00000KT 2SM BR SKC 14/12 A3005 RMK BANCOS DE NIEBLA EN AMBAS CABECERAS,MMRX,2019-01-12T13:54:00Z,26.02,-98.22,14.0,12.0,0,0,,2.0,30.050198,,,,,,,,,,BR,SKC,,,,,,,,IFR,,,,,,,,,,,,METAR,39.0
MMMX 121354Z 08006KT 6SM BKN030 12/06 A3036 NOSIG RMK 8/800 HZY AC,MMMX,2019-01-12T13:54:00Z,19.42,-99.08,12.0,6.0,80,6,,6.0,30.360237,,,,,,TRUE,,,,,BKN,3000,,,,,,,MVFR,,,,,,,,,,,,METAR,2238.0
KRKS 121354Z AUTO 21003KT 1/4SM FZFG VV002 M11/M12 A3022 RMK AO2 SLP296 T11061117,KRKS,2019-01-12T13:54:00Z,41.6,-109.07,-10.6,-11.7,210,3,,0.25,30.221457,1029.6,,TRUE,TRUE,,,,,,FZFG,OVX,0,,,,,,,LIFR,,,,,,,,,,,200,METAR,2060.0
KTQE 121354Z AUTO 35018KT 2 1/2SM -SN BR OVC017 M02/M04 A3020 RMK AO2 SNB06 SLP235 P0000 T10221039 $,KTQE,2019-01-12T13:54:00Z,41.77,-96.18,-2.2,-3.9,350,18,,2.5,30.200787,1023.5,,TRUE,TRUE,TRUE,,,,,-SN BR,OVC,1700,,,,,,,IFR,,,,,,0.005,,,,,,METAR,312.0
KDMH 121354Z AUTO M01/M12 A3055 RMK AO1 SLP346 T10111122,KDMH,2019-01-12T13:54:00Z,39.28,-76.62,-1.1,-12.2,,,,,30.549213,1034.6,,TRUE,TRUE,,,,,,,,,,,,,,,,,,,,,,,,,,,METAR,5.0
PGUM 121354Z 04010KT 10SM FEW060 26/24 A2991 RMK AO2 SLP121 T02610239 403170244 $,PGUM,2019-01-12T13:54:00Z,13.48,144.8,26.1,23.9,40,10,,10.0,29.911417,1012.1,,,TRUE,TRUE,,,,,,FEW,6000,,,,,,,VFR,,,,31.7,24.4,,,,,,,METAR,91.0
KBKB 121354Z AUTO VRB03KT 10SM OVC003 12/12 A2996 RMK AO2 RAE54 SLP175 P0004 T01170117 $,KBKB,2019-01-12T13:54:00Z,31.0,-92.92,11.7,11.7,0,3,,10.0,29.958662,1017.5,,TRUE,TRUE,TRUE,,,,,,OVC,300,,,,,,,LIFR,,,,,,0.04,,,,,,SPECI,94.0
K12N 121354Z AUTO 35003KT M07/M13 A3052 RMK AO1 SLP353 T10671133,K12N,2019-01-12T13:54:00Z,41.02,-74.73,-6.7,-13.3,350,3,,,30.519686,1035.3,,TRUE,TRUE,,,,,,,,,,,,,,,,,,,,,,,,,,,METAR,177.0
PTTP 121354Z 04005KT 14SM BKN017TCU OVC120 26/25 A2974 RMK SHRAB34E44 TCU ALQDS SLP071 T02580249,PTTP,2019-01-12T13:54:00Z,6.97,158.22,25.8,24.9,40,5,,14.0,29.740158,1007.1,,,,,,,,,,BKN,1700,OVC,12000,,,,,MVFR,,,,,,,,,,,,METAR,2.0
KNKT 121354Z 03011KT 10SM CLR 05/M01 A3049 RMK AO2 SLP320 T00501006,KNKT,2019-01-12T13:54:00Z,34.9,-76.88,5.0,-0.6,30,11,,10.0,30.490158,1032.0,,,TRUE,,,,,,,CLR,,,,,,,,VFR,,,,,,,,,,,,METAR,9.0
KMTP 121354Z AUTO 32009KT M06/M12 A3053 RMK AO1 SLP337 T10561117,KMTP,2019-01-12T13:54:00Z,41.07,-71.92,-5.6,-11.7,320,9,,,30.528543,1033.7,,TRUE,TRUE,,,,,,,,,,,,,,,,,,,,,,,,,,,METAR,2.0
KUZA 121354Z AUTO VRB04KT 10SM OVC110 03/M06 A3043 RMK AO2 SLP315 T00281056,KUZA,2019-01-12T13:54:00Z,34.98,-81.05,2.8,-5.6,0,4,,10.0,30.431103,1031.5,,TRUE,TRUE,,,,,,,OVC,11000,,,,,,,VFR,,,,,,,,,,,,METAR,202.0
KVAY 121354Z AUTO 00000KT 10SM CLR M05/M12 A3056 RMK AO2 SLP349 T10501122,KVAY,2019-01-12T13:54:00Z,39.93,-74.83,-5.0,-12.2,0,0,,10.0,30.561024,1034.9,,TRUE,TRUE,,,,,,,CLR,,,,,,,,VFR,,,,,,,,,,,,METAR,15.0
KVSF 121354Z AUTO 00000KT 10SM CLR M13/M19 A3048 RMK AO2 SLP336 T11331194,KVSF,2019-01-12T13:54:00Z,43.35,-72.52,-13.3,-19.4,0,0,,10.0,30.481298,1033.6,,TRUE,TRUE,,,,,,,CLR,,,,,,,,VFR,,,,,,,,,,,,METAR,175.0
KSJN 121354Z AUTO 17003KT 10SM CLR M05/M07 A3016 RMK AO2 SLP223 I1000 T10501067,KSJN,2019-01-12T13:54:00Z,34.52,-109.38,-5.0,-6.7,170,3,,10.0,30.159449,1022.3,,TRUE,TRUE,,,,,,,CLR,,,,,,,,VFR,,,,,,,,,,,,METAR,1745.0
KSBY 121354Z 06003KT 10SM BKN110 M01/M07 A3054 RMK AO2 SLP345 T10111072,KSBY,2019-01-12T13:54:00Z,38.33,-75.5,-1.1,-7.2,60,3,,10.0,30.540354,1034.5,,,TRUE,,,,,,,BKN,11000,,,,,,,VFR,,,,,,,,,,,,METAR,19.0
KSBN 121354Z 09009KT 8SM OVC080 M03/M07 A3034 RMK AO2 SLP286 T10331067,KSBN,2019-01-12T13:54:00Z,41.7,-86.32,-3.3,-6.7,90,9,,8.0,30.339567,1028.6,,,TRUE,,,,,,,OVC,8000,,,,,,,VFR,,,,,,,,,,,,METAR,237.0
KRST 121354Z 07006KT 10SM OVC055 M03/M06 A3028 RMK AO2 SLP274 T10281056,KRST,2019-01-12T13:54:00Z,43.9,-92.5,-2.8,-5.6,70,6,,10.0,30.280512,1027.4,,,TRUE,,,,,,,OVC,5500,,,,,,,VFR,,,,,,,,,,,,METAR,403.0
KROC 121354Z 00000KT 10SM BKN090 BKN100 M06/M11 A3054 RMK AO2 SLP357 T10611106,KROC,2019-01-12T13:54:00Z,43.12,-77.68,-6.1,-10.6,0,0,,10.0,30.540354,1035.7,,,TRUE,,,,,,,BKN,9000,BKN,10000,,,,,VFR,,,,,,,,,,,,METAR,178.0
KROA 121354Z 16008KT 10SM OVC070 M01/M10 A3046 RMK AO2 SLP326 T10061100,KROA,2019-01-12T13:54:00Z,37.32,-79.97,-0.6,-10.0,160,8,,10.0,30.46063,1032.6,,,TRUE,,,,,,,OVC,7000,,,,,,,VFR,,,,,,,,,,,,METAR,362.0
PGSN 121354Z 05008KT 10SM CLR 24/21 A2993 RMK AO2 SLP155 T02440206 402890239 $,PGSN,2019-01-12T13:54:00Z,15.12,145.72,24.4,20.6,50,8,,10.0,29.929134,1015.5,,,TRUE,TRUE,,,,,,CLR,,,,,,,,VFR,,,,28.9,23.9,,,,,,,METAR,65.0
PHOG 121354Z AUTO 14003KT 10SM OVC060 22/19 A3001 RMK AO2 SLP167 T02170194 TSNO,PHOG,2019-01-12T13:54:00Z,20.9,-156.43,21.7,19.4,140,3,,10.0,30.008858,1016.7,,TRUE,TRUE,,,TRUE,,,,OVC,6000,,,,,,,VFR,,,,,,,,,,,,SPECI,12.0
PHMK 121354Z AUTO 00000KT 10SM FEW050 16/16 A3002 RMK AO2 SLP170 T01560156 TSNO,PHMK,2019-01-12T13:54:00Z,21.15,-157.1,15.6,15.6,0,0,,10.0,30.02067,1017.0,,TRUE,TRUE,,,TRUE,,,,FEW,5000,,,,,,,VFR,,,,,,,,,,,,METAR,141.0
KBWI 121354Z 00000KT 10SM BKN150 BKN250 M02/M07 A3054 RMK AO2 SLP343 T10171072 $,KBWI,2019-01-12T13:54:00Z,39.17,-76.68,-1.7,-7.2,0,0,,10.0,30.540354,1034.3,,,TRUE,TRUE,,,,,,BKN,15000,BKN,25000,,,,,VFR,,,,,,,,,,,,METAR,59.0
KBUY 121354Z AUTO 10004KT 10SM OVC100 02/M07 A3047 RMK AO2 SLP322 T00221067,KBUY,2019-01-12T13:54:00Z,36.05,-79.47,2.2,-6.7,100,4,,10.0,30.469488,1032.2,,TRUE,TRUE,,,,,,,OVC,10000,,,,,,,VFR,,,,,,,,,,,,METAR,180.0
KBUF 121354Z 08006KT 10SM OVC075 M07/M12 A3052 RMK AO2 SLP348 T10671117,KBUF,2019-01-12T13:54:00Z,42.93,-78.73,-6.7,-11.7,80,6,,10.0,30.519686,1034.8,,,TRUE,,,,,,,OVC,7500,,,,,,,VFR,,,,,,,,,,,,METAR,211.0
KBTV 121354Z 00000KT 10SM FEW040 FEW120 M18/M22 A3054 RMK AO2 SLP350 T11831217,KBTV,2019-01-12T13:54:00Z,44.47,-73.15,-18.3,-21.7,0,0,,10.0,30.540354,1035.0,,,TRUE,,,,,,,FEW,4000,FEW,12000,,,,,VFR,,,,,,,,,,,,METAR,105.0
KBOS 121354Z 28014KT 10SM FEW030 FEW130 M08/M19 A3048 RMK AO2 SLP321 T10781189,KBOS,2019-01-12T13:54:00Z,42.37,-71.02,-7.8,-18.9,280,14,,10.0,30.481298,1032.1,,,TRUE,,,,,,,FEW,3000,FEW,13000,,,,,VFR,,,,,,,,,,,,METAR,6.0
KBFL 121354Z 14011KT 10SM BKN080 OVC100 13/04 A2993 RMK AO2 SLP133 T01330039,KBFL,2019-01-12T13:54:00Z,35.43,-119.05,13.3,3.9,140,11,,10.0,29.929134,1013.3,,,TRUE,,,,,,,BKN,8000,OVC,10000,,,,,VFR,,,,,,,,,,,,METAR,151.0
KAVP 121354Z 00000KT 10SM BKN100 M08/M12 A3050 RMK AO2 SLP342 T10781122,KAVP,2019-01-12T13:54:00Z,41.33,-75.72,-7.8,-12.2,0,0,,10.0,30.499016,1034.2,,,TRUE,,,,,,,BKN,10000,,,,,,,VFR,,,,,,,,,,,,METAR,291.0
KAVL 121354Z 15005KT 10SM OVC100 01/M08 A3035 RMK AO2 SLP286 T00111078,KAVL,2019-01-12T13:54:00Z,35.43,-82.53,1.1,-7.8,150,5,,10.0,30.351377,1028.6,,,TRUE,,,,,,,OVC,10000,,,,,,,VFR,,,,,,,,,,,,METAR,670.0
KAPN 121354Z AUTO 05006KT 10SM OVC018 M06/M09 A3053 RMK AO2 SLP352 T10561089,KAPN,2019-01-12T13:54:00Z,45.07,-83.57,-5.6,-8.9,50,6,,10.0,30.528543,1035.2,,TRUE,TRUE,,,,,,,OVC,1800,,,,,,,MVFR,,,,,,,,,,,,METAR,210.0
KAPC 121354Z AUTO 09006KT 10SM OVC075 10/08 A2995 RMK AO2 SLP132 T01000078,KAPC,2019-01-12T13:54:00Z,38.2,-122.28,10.0,7.8,90,6,,10.0,29.949802,1013.2,,TRUE,TRUE,,,,,,,OVC,7500,,,,,,,VFR,,,,,,,,,,,,METAR,13.0
KAKR 121354Z AUTO 08005KT 10SM CLR M04/M09 A3039 RMK AO2 SLP307 T10391094,KAKR,2019-01-12T13:54:00Z,41.03,-81.47,-3.9,-9.4,80,5,,10.0,30.389763,1030.7,,TRUE,TRUE,,,,,,,CLR,,,,,,,,VFR,,,,,,,,,,,,METAR,363.0
KAKQ 121354Z AUTO 00000KT 10SM BKN090 OVC110 01/M04 A3055 RMK AO2 SLP346 T00061044,KAKQ,2019-01-12T13:54:00Z,36.98,-77.0,0.6,-4.4,0,0,,10.0,30.549213,1034.6,,TRUE,TRUE,,,,,,,BKN,9000,OVC,11000,,,,,VFR,,,,,,,,,,,,METAR,34.0
KAKH 121354Z AUTO 04004KT 10SM BKN110 04/M06 A3044 RMK AO2 SLP312 T00391061,KAKH,2019-01-12T13:54:00Z,35.2,-81.15,3.9,-6.1,40,4,,10.0,30.43996,1031.2,,TRUE,TRUE,,,,,,,BKN,11000,,,,,,,VFR,,,,,,,,,,,,METAR,243.0
PAHN 121354Z AUTO 29012KT 10SM OVC022 M06/M08 A2988 RMK AO2 SLP119 T10611078 TSNO,PAHN,2019-01-12T13:54:00Z,59.25,-135.52,-6.1,-7.8,290,12,,10.0,29.878937,1011.9,,TRUE,TRUE,,,TRUE,,,,OVC,2200,,,,,,,MVFR,,,,,,,,,,,,METAR,5.0
KOFP 121354Z AUTO 00000KT 10SM OVC085 00/M08 A3055 RMK AO2 SLP346 T00001078,KOFP,2019-01-12T13:54:00Z,37.7,-77.43,0.0,-7.8,0,0,,10.0,30.549213,1034.6,,TRUE,TRUE,,,,,,,OVC,8500,,,,,,,VFR,,,,,,,,,,,,METAR,62.0
KMVL 121354Z AUTO VRB04KT 10SM CLR M17/M22 A3047 RMK AO2 SLP339 T11721217,KMVL,2019-01-12T13:54:00Z,44.53,-72.62,-17.2,-21.7,0,4,,10.0,30.469488,1033.9,,TRUE,TRUE,,,,,,,CLR,,,,,,,,VFR,,,,,,,,,,,,METAR,234.0
KMRY 121354Z 12004KT 10SM BKN070 OVC090 11/08 A2993 RMK AO2 RAE02 SLP145 P0000 T01060083,KMRY,2019-01-12T13:54:00Z,36.58,-121.85,10.6,8.3,120,4,,10.0,29.929134,1014.5,,,TRUE,,,,,,,BKN,7000,OVC,9000,,,,,VFR,,,,,,0.005,,,,,,METAR,66.0
KMOT 121354Z 14005KT 9SM BKN007 OVC015 M11/M13 A3035 RMK AO2 SLP316 T11061128,KMOT,2019-01-12T13:54:00Z,48.25,-101.27,-10.6,-12.8,140,5,,9.0,30.351377,1031.6,,,TRUE,,,,,,,BKN,700,OVC,1500,,,,,IFR,,,,,,,,,,,,METAR,519.0
KMKC 121354Z 03005KT 3SM -SN BR OVC009 00/M02 A3002 RMK AO2 CIG 007V013 SLP173 P0000 T00001017,KMKC,2019-01-12T13:54:00Z,39.12,-94.6,0.0,-1.7,30,5,,3.0,30.02067,1017.3,,,TRUE,,,,,,-SN BR,OVC,900,,,,,,,IFR,,,,,,0.005,,,,,,METAR,227.0
KMIV 121354Z AUTO 02005KT 10SM CLR M04/M11 A3056 RMK AO2 SLP347 T10441111 TSNO,KMIV,2019-01-12T13:54:00Z,39.37,-75.08,-4.4,-11.1,20,5,,10.0,30.561024,1034.7,,TRUE,TRUE,,,TRUE,,,,CLR,,,,,,,,VFR,,,,,,,,,,,,METAR,23.0
KMGJ 121354Z AUTO 27006KT 10SM OVC075 M06/M13 A3050 RMK AO2 SLP333 T10561128,KMGJ,2019-01-12T13:54:00Z,41.52,-74.27,-5.6,-12.8,270,6,,10.0,30.499016,1033.3,,TRUE,TRUE,,,,,,,OVC,7500,,,,,,,VFR,,,,,,,,,,,,METAR,108.0
KMFI 121354Z AUTO 08007KT 7SM OVC048 M04/M07 A3033 RMK AO2 SLP292 T10391072,KMFI,2019-01-12T13:54:00Z,44.63,-90.18,-3.9,-7.2,80,7,,7.0,30.33071,1029.2,,TRUE,TRUE,,,,,,,OVC,4800,,,,,,,VFR,,,,,,,,,,,,METAR,389.0
KMEM 121354Z 14009KT 7SM RA BKN037 BKN050 OVC070 08/02 A3004 RMK AO2 RAB37 SLP173 P0001 T00780022,KMEM,2019-01-12T13:54:00Z,35.07,-89.98,7.8,2.2,140,9,,7.0,30.041338,1017.3,,,TRUE,,,,,,RA,BKN,3700,BKN,5000,OVC,7000,,,VFR,,,,,,0.01,,,,,,METAR,86.0
KLYH 121354Z 05006KT 10SM OVC090 M01/M09 A3046 RMK AO2 SLP323 T10061094,KLYH,2019-01-12T13:54:00Z,37.32,-79.2,-0.6,-9.4,50,6,,10.0,30.46063,1032.3,,,TRUE,,,,,,,OVC,9000,,,,,,,VFR,,,,,,,,,,,,METAR,295.0
KLWT 121354Z AUTO 15004KT 10SM CLR M05/M13 A3006 RMK AO2 SLP220 T10501133,KLWT,2019-01-12T13:54:00Z,47.03,-109.47,-5.0,-13.3,150,4,,10.0,30.059055,1022.0,,TRUE,TRUE,,,,,,,CLR,,,,,,,,VFR,,,,,,,,,,,,METAR,1270.0
KLWM 121354Z 28009G16KT 10SM CLR M10/M19 A3049 RMK AO2 SLP326 T11001189,KLWM,2019-01-12T13:54:00Z,42.72,-71.13,-10.0,-18.9,280,9,16,10.0,30.490158,1032.6,,,TRUE,,,,,,,CLR,,,,,,,,VFR,,,,,,,,,,,,METAR,54.0
KLEX 121354Z 10003KT 8SM FEW047 OVC065 01/M02 A3028 RMK AO2 UPB14E33FZRAE14 SLP262 P0000 I1000 T00061017,KLEX,2019-01-12T13:54:00Z,38.03,-84.6,0.6,-1.7,100,3,,8.0,30.280512,1026.2,,,TRUE,,,,,,,FEW,4700,OVC,6500,,,,,VFR,,,,,,0.005,,,,,,METAR,300.0
KACY 121354Z AUTO 01005KT 10SM CLR M04/M11 A3056 RMK AO2 SLP347 T10441111,KACY,2019-01-12T13:54:00Z,39.45,-74.57,-4.4,-11.1,10,5,,10.0,30.561024,1034.7,,TRUE,TRUE,,,,,,,CLR,,,,,,,,VFR,,,,,,,,,,,,METAR,23.0
KLBT 121354Z AUTO 07006KT 10SM BKN026 OVC110 03/M05 A3047 RMK AO2 SLP319 T00331050,KLBT,2019-01-12T13:54:00Z,34.6,-79.07,3.3,-5.0,70,6,,10.0,30.469488,1031.9,,TRUE,TRUE,,,,,,,BKN,2600,OVC,11000,,,,,MVFR,,,,,,,,,,,,METAR,37.0
KLAF 121354Z 07008KT 1/2SM SN FZFG FEW006 OVC014 M02/M02 A3029 RMK AO2 SLP264 P0002 T10221022,KLAF,2019-01-12T13:54:00Z,40.42,-86.93,-2.2,-2.2,70,8,,0.5,30.28937,1026.4,,,TRUE,,,,,,SN FZFG,FEW,600,OVC,1400,,,,,LIFR,,,,,,0.02,,,,,,METAR,182.0
KJST 121354Z AUTO 14004KT 10SM BKN080 M06/M12 A3033 RMK AO2 SLP310 T10611117,KJST,2019-01-12T13:54:00Z,40.32,-78.83,-6.1,-11.7,140,4,,10.0,30.33071,1031.0,,TRUE,TRUE,,,,,,,BKN,8000,,,,,,,VFR,,,,,,,,,,,,METAR,694.0
KJAN 121354Z 13006KT 5SM RA BR FEW041 SCT070 OVC090 09/07 A3006 RMK AO2 SLP179 P0006 T00940072 $,KJAN,2019-01-12T13:54:00Z,32.32,-90.08,9.4,7.2,130,6,,5.0,30.059055,1017.9,,,TRUE,TRUE,,,,,RA BR,FEW,4100,SCT,7000,OVC,9000,,,MVFR,,,,,,0.06,,,,,,METAR,91.0
KIZG 121354Z AUTO 04003KT 10SM CLR M16/M21 A3036 RMK AO2 SLP293 T11611206,KIZG,2019-01-12T13:54:00Z,43.98,-70.95,-16.1,-20.6,40,3,,10.0,30.360237,1029.3,,TRUE,TRUE,,,,,,,CLR,,,,,,,,VFR,,,,,,,,,,,,METAR,135.0
KISW 121354Z AUTO 07006KT 9SM OVC050 M03/M08 A3036 RMK AO2 SLP300 T10281078 TSNO,KISW,2019-01-12T13:54:00Z,44.37,-89.83,-2.8,-7.8,70,6,,9.0,30.360237,1030.0,,TRUE,TRUE,,,TRUE,,,,OVC,5000,,,,,,,VFR,,,,,,,,,,,,METAR,307.0
KIPT 121354Z 00000KT 10SM CLR M06/M12 A3053 RMK AO2 SLP348 T10561117,KIPT,2019-01-12T13:54:00Z,41.25,-76.92,-5.6,-11.7,0,0,,10.0,30.528543,1034.8,,,TRUE,,,,,,,CLR,,,,,,,,VFR,,,,,,,,,,,,METAR,164.0
KINT 121354Z 08003KT 10SM OVC095 02/M06 A3045 RMK AO2 SLP318 T00171061,KINT,2019-01-12T13:54:00Z,36.13,-80.22,1.7,-6.1,80,3,,10.0,30.448818,1031.8,,,TRUE,,,,,,,OVC,9500,,,,,,,VFR,,,,,,,,,,,,METAR,291.0
KIMT 121354Z AUTO 05005KT 10SM OVC020 M06/M09 A3045 RMK AO2 SLP332 T10611089,KIMT,2019-01-12T13:54:00Z,45.82,-88.12,-6.1,-8.9,50,5,,10.0,30.448818,1033.2,,TRUE,TRUE,,,,,,,OVC,2000,,,,,,,MVFR,,,,,,,,,,,,METAR,349.0
KHWD 121354Z AUTO 04006KT 10SM BKN110 12/08 A2994 RMK AO2 SLP149 T01170083,KHWD,2019-01-12T13:54:00Z,37.67,-122.12,11.7,8.3,40,6,,10.0,29.940945,1014.9,,TRUE,TRUE,,,,,,,BKN,11000,,,,,,,VFR,,,,,,,,,,,,METAR,21.0
KDDH 121354Z AUTO 00000KT 10SM CLR M12/M16 A3046 RMK AO2 SLP333 T11171156,KDDH,2019-01-12T13:54:00Z,42.9,-73.25,-11.7,-15.6,0,0,,10.0,30.46063,1033.3,,TRUE,TRUE,,,,,,,CLR,,,,,,,,VFR,,,,,,,,,,,,METAR,244.0
KCRW 121354Z 00000KT 9SM -SN SCT035 BKN049 OVC070 M01/M06 A3034 RMK AO2 SLP284 P0000 T10061056,KCRW,2019-01-12T13:54:00Z,38.38,-81.58,-0.6,-5.6,0,0,,9.0,30.339567,1028.4,,,TRUE,,,,,,-SN,SCT,3500,BKN,4900,OVC,7000,,,VFR,,,,,,0.005,,,,,,METAR,309.0
KCOU 121354Z 10009KT 3/4SM -SN BR BKN006 OVC013 M01/M01 A3002 RMK AO2 SLP174 P0004 T10061011,KCOU,2019-01-12T13:54:00Z,38.82,-92.22,-0.6,-1.1,100,9,,0.75,30.02067,1017.4,,,TRUE,,,,,,-SN BR,BKN,600,OVC,1300,,,,,LIFR,,,,,,0.04,,,,,,METAR,271.0
KCOS 121354Z 32007KT 10SM FEW020 BKN065 BKN110 M01/M03 A3017 RMK AO2 SLP247 T10061033,KCOS,2019-01-12T13:54:00Z,38.82,-104.68,-0.6,-3.3,320,7,,10.0,30.171259,1024.7,,,TRUE,,,,,,,FEW,2000,BKN,6500,BKN,11000,,,VFR,,,,,,,,,,,,METAR,1856.0
KCEU 121354Z AUTO 10006KT 10SM OVC042 03/M06 A3041 RMK AO2 SLP300 T00331061,KCEU,2019-01-12T13:54:00Z,34.67,-82.88,3.3,-6.1,100,6,,10.0,30.410433,1030.0,,TRUE,TRUE,,,,,,,OVC,4200,,,,,,,VFR,,,,,,,,,,,,METAR,268.0
KCAR 121354Z AUTO 29007KT 10SM SCT110 M17/M22 A3011 RMK AO2 SLP218 T11721222,KCAR,2019-01-12T13:54:00Z,46.87,-68.02,-17.2,-22.2,290,7,,10.0,30.109253,1021.8,,TRUE,TRUE,,,,,,,SCT,11000,,,,,,,VFR,,,,,,,,,,,,METAR,191.0
KRIC 121354Z 00000KT 10SM BKN070 OVC085 00/M06 A3054 RMK AO2 SLP347 T00001061,KRIC,2019-01-12T13:54:00Z,37.52,-77.32,0.0,-6.1,0,0,,10.0,30.540354,1034.7,,,TRUE,,,,,,,BKN,7000,OVC,8500,,,,,VFR,,,,,,,,,,,,METAR,50.0
KRFD 121354Z 07007KT 8SM OVC070 M01/M06 A3032 RMK AO2 SLP277 T10111056,KRFD,2019-01-12T13:54:00Z,42.2,-89.1,-1.1,-5.6,70,7,,8.0,30.318897,1027.7,,,TRUE,,,,,,,OVC,7000,,,,,,,VFR,,,,,,,,,,,,METAR,221.0
KRDG 121354Z 00000KT 10SM CLR M06/M10 A3054 RMK AO2 SLP351 T10561100,KRDG,2019-01-12T13:54:00Z,40.37,-75.97,-5.6,-10.0,0,0,,10.0,30.540354,1035.1,,,TRUE,,,,,,,CLR,,,,,,,,VFR,,,,,,,,,,,,METAR,109.0
KRBL 121354Z AUTO 35006KT 10SM CLR 06/04 A2996 RMK AO2 SLP147 T00560039,KRBL,2019-01-12T13:54:00Z,40.15,-122.25,5.6,3.9,350,6,,10.0,29.958662,1014.7,,TRUE,TRUE,,,,,,,CLR,,,,,,,,VFR,,,,,,,,,,,,METAR,104.0
KPTW 121354Z AUTO 04004KT 10SM CLR M06/M14 A3055 RMK AO2 SLP349 T10561139 TSNO,KPTW,2019-01-12T13:54:00Z,40.23,-75.55,-5.6,-13.9,40,4,,10.0,30.549213,1034.9,,TRUE,TRUE,,,TRUE,,,,CLR,,,,,,,,VFR,,,,,,,,,,,,METAR,92.0
KPSF 121354Z AUTO 00000KT 10SM BKN095 M11/M18 A3041 RMK AO2 SLP330 T11061178,KPSF,2019-01-12T13:54:00Z,42.43,-73.28,-10.6,-17.8,0,0,,10.0,30.410433,1033.0,,TRUE,TRUE,,,,,,,BKN,9500,,,,,,,VFR,,,,,,,,,,,,METAR,355.0
KPNE 121354Z 02006KT 10SM CLR M03/M14 A3058 RMK AO2 SLP356 T10331139,KPNE,2019-01-12T13:54:00Z,40.08,-75.02,-3.3,-13.9,20,6,,10.0,30.578741,1035.6,,,TRUE,,,,,,,CLR,,,,,,,,VFR,,,,,,,,,,,,METAR,28.0
KPIA 121354Z 08009KT 1/4SM R04/3500V4000FT SN FZFG VV007 M02/M03 A3023 RMK AO2 SLP245 P0006 T10171028,KPIA,2019-01-12T13:54:00Z,40.67,-89.68,-1.7,-2.8,80,9,,0.25,30.230314,1024.5,,,TRUE,,,,,,SN FZFG,OVX,0,,,,,,,LIFR,,,,,,0.06,,,,,700,METAR,205.0
KPHL 121354Z 35005KT 10SM FEW080 BKN200 BKN250 M04/M16 A3057 RMK AO2 SLP352 T10391156 $,KPHL,2019-01-12T13:54:00Z,39.87,-75.23,-3.9,-15.6,350,5,,10.0,30.569881,1035.2,,,TRUE,TRUE,,,,,,FEW,8000,BKN,20000,BKN,25000,,,VFR,,,,,,,,,,,,METAR,18.0
KPHF 121354Z 36003KT 10SM OVC100 02/M06 A3053 RMK AO2 RAE12 SLP339 P0000 T00171056,KPHF,2019-01-12T13:54:00Z,37.13,-76.5,1.7,-5.6,360,3,,10.0,30.528543,1033.9,,,TRUE,,,,,,,OVC,10000,,,,,,,VFR,,,,,,0.005,,,,,,METAR,12.0
KORH 121354Z 27007KT 10SM OVC095 M12/M18 A3040 RMK AO2 SLP319 T11221178,KORH,2019-01-12T13:54:00Z,42.27,-71.87,-12.2,-17.8,270,7,,10.0,30.398623,1031.9,,,TRUE,,,,,,,OVC,9500,,,,,,,VFR,,,,,,,,,,,,METAR,304.0
KOLS 121354Z AUTO 20003KT 10SM CLR M01/M05 A3010 RMK AO2 SLP184 T10111050,KOLS,2019-01-12T13:54:00Z,31.42,-110.85,-1.1,-5.0,200,3,,10.0,30.100393,1018.4,,TRUE,TRUE,,,,,,,CLR,,,,,,,,VFR,,,,,,,,,,,,METAR,1184.0
PAKN 121354Z AUTO 36007KT 10SM CLR A2946 RMK AO2 SLPNO TSNO $,PAKN,2019-01-12T13:54:00Z,58.68,-156.65,,,360,7,,10.0,29.459646,,,TRUE,TRUE,TRUE,,TRUE,,,,CLR,,,,,,,,VFR,,,,,,,,,,,,METAR,17.0
KWAL 121354Z AUTO 35004KT 10SM BKN120 01/M09 A3054 RMK AO2 SLP338 T00061094,KWAL,2019-01-12T13:54:00Z,37.93,-75.47,0.6,-9.4,350,4,,10.0,30.540354,1033.8,,TRUE,TRUE,,,,,,,BKN,12000,,,,,,,VFR,,,,,,,,,,,,METAR,14.0
KTAD 121354Z AUTO 30005KT 8SM BKN009 BKN014 OVC039 M01/M01 A3018 RMK AO2 SNB04E51 SLP229 P0000 T10061011,KTAD,2019-01-12T13:54:00Z,37.27,-104.33,-0.6,-1.1,300,5,,8.0,30.180119,1022.9,,TRUE,TRUE,,,,,,,BKN,900,BKN,1400,OVC,3900,,,IFR,,,,,,0.005,,,,,,METAR,1756.0
KSYR 121354Z 05004KT 10SM BKN100 M11/M14 A3055 RMK AO2 SLP351 T11111139,KSYR,2019-01-12T13:54:00Z,43.12,-76.1,-11.1,-13.9,50,4,,10.0,30.549213,1035.1,,,TRUE,,,,,,,BKN,10000,,,,,,,VFR,,,,,,,,,,,,METAR,127.0
KDSM 121354Z 06009KT 1SM R31/P6000FT -SN BR OVC007 M02/M03 A3018 RMK AO2 SFC VIS 1 3/4 SLP230 P0002 T10221028,KDSM,2019-01-12T13:54:00Z,41.53,-93.67,-2.2,-2.8,60,9,,1.0,30.180119,1023.0,,,TRUE,,,,,,-SN BR,OVC,700,,,,,,,IFR,,,,,,0.02,,,,,,METAR,295.0
KDSV 121354Z AUTO 00000KT 10SM BKN075 OVC100 M07/M14 A3052 RMK AO2 SLP358 T10671139,KDSV,2019-01-12T13:54:00Z,42.57,-77.72,-6.7,-13.9,0,0,,10.0,30.519686,1035.8,,TRUE,TRUE,,,,,,,BKN,7500,OVC,10000,,,,,VFR,,,,,,,,,,,,METAR,198.0
KDYL 121354Z AUTO 35003KT 10SM CLR M05/M14 A3053 RMK AO2 SLP350 T10501139,KDYL,2019-01-12T13:54:00Z,40.33,-75.12,-5.0,-13.9,350,3,,10.0,30.528543,1035.0,,TRUE,TRUE,,,,,,,CLR,,,,,,,,VFR,,,,,,,,,,,,METAR,117.0
KECG 121354Z 03006KT 10SM CLR 03/M03 A3051 RMK AO2 SLP332 T00281028,KECG,2019-01-12T13:54:00Z,36.27,-76.18,2.8,-2.8,30,6,,10.0,30.510826,1033.2,,,TRUE,,,,,,,CLR,,,,,,,,VFR,,,,,,,,,,,,METAR,11.0
KEUG 121354Z 00000KT 10SM CLR 01/M01 A2995 RMK AO2 SLP145 T00061006,KEUG,2019-01-12T13:54:00Z,44.13,-123.22,0.6,-0.6,0,0,,10.0,29.949802,1014.5,,,TRUE,,,,,,,CLR,,,,,,,,VFR,,,,,,,,,,,,METAR,114.0
KEVV 121354Z 08007KT 7SM SCT005 OVC075 01/00 A3022 RMK AO2 SLP236 T00060000 $,KEVV,2019-01-12T13:54:00Z,38.05,-87.52,0.6,0.0,80,7,,7.0,30.221457,1023.6,,,TRUE,TRUE,,,,,,SCT,500,OVC,7500,,,,,VFR,,,,,,,,,,,,METAR,117.0
KGCK 121354Z 35018KT 8SM OVC019 M02/M03 A3010 RMK AO2 PK WND 35028/1337 SLP216 T10171028,KGCK,2019-01-12T13:54:00Z,37.92,-100.72,-1.7,-2.8,350,18,,8.0,30.100393,1021.6,,,TRUE,,,,,,,OVC,1900,,,,,,,MVFR,,,,,,,,,,,,METAR,877.0
KFZY 121354Z AUTO 05004KT 10SM OVC095 M11/M18 A3055 RMK AO2 SLP356 T11061183,KFZY,2019-01-12T13:54:00Z,43.35,-76.38,-10.6,-18.3,50,4,,10.0,30.549213,1035.6,,TRUE,TRUE,,,,,,,OVC,9500,,,,,,,VFR,,,,,,,,,,,,METAR,138.0
KFWA 121354Z 08009KT 8SM OVC046 M02/M05 A3035 RMK AO2 SLP287 T10171050,KFWA,2019-01-12T13:54:00Z,40.98,-85.18,-1.7,-5.0,80,9,,8.0,30.351377,1028.7,,,TRUE,,,,,,,OVC,4600,,,,,,,VFR,,,,,,,,,,,,METAR,248.0
KFIG 121354Z AUTO 04007KT 10SM OVC100 M08/M11 A3044 RMK AO2 SLP333 T10831111,KFIG,2019-01-12T13:54:00Z,41.05,-78.42,-8.3,-11.1,40,7,,10.0,30.43996,1033.3,,TRUE,TRUE,,,,,,,OVC,10000,,,,,,,VFR,,,,,,,,,,,,METAR,462.0
KFFZ 121354Z 05005KT 10SM CLR 10/02 A3007 RMK AO2 SLP171 T01000017,KFFZ,2019-01-12T13:54:00Z,33.47,-111.72,10.0,1.7,50,5,,10.0,30.070866,1017.1,,,TRUE,,,,,,,CLR,,,,,,,,VFR,,,,,,,,,,,,METAR,424.0
KGCN 121354Z 00000KT 10SM CLR M11/M13 A3017 RMK AO2 SLP252 I1000 T11111133,KGCN,2019-01-12T13:54:00Z,35.95,-112.15,-11.1,-13.3,0,0,,10.0,30.171259,1025.2,,,TRUE,,,,,,,CLR,,,,,,,,VFR,,,,,,,,,,,,METAR,2016.0
KGED 121354Z AUTO 00000KT 10SM CLR M01/M08 A3055 RMK AO2 SLP346 T10111078,KGED,2019-01-12T13:54:00Z,38.68,-75.37,-1.1,-7.8,0,0,,10.0,30.549213,1034.6,,TRUE,TRUE,,,,,,,CLR,,,,,,,,VFR,,,,,,,,,,,,METAR,19.0
KSUS 121354Z 08007KT 2 1/2SM -SN BR OVC007 01/M01 A3009 RMK AO2 SLP197 P0003 T00061006,KSUS,2019-01-12T13:54:00Z,38.65,-90.65,0.6,-0.6,80,7,,2.5,30.088583,1019.7,,,TRUE,,,,,,-SN BR,OVC,700,,,,,,,IFR,,,,,,0.03,,,,,,METAR,141.0
KBYI 121353Z AUTO 07010KT 10SM OVC007 M02/M03 A3021 RMK AO2 SLP251 T10221033,KBYI,2019-01-12T13:53:00Z,42.55,-113.77,-2.2,-3.3,70,10,,10.0,30.209646,1025.1,,TRUE,TRUE,,,,,,,OVC,700,,,,,,,IFR,,,,,,,,,,,,METAR,1264.0
KSDL 121353Z 00000KT 10SM CLR 09/04 A3008 RMK AO2 SLP176 T00890039,KSDL,2019-01-12T13:53:00Z,33.62,-111.92,8.9,3.9,0,0,,10.0,30.079725,1017.6,,,TRUE,,,,,,,CLR,,,,,,,,VFR,,,,,,,,,,,,METAR,447.0
KUNV 121353Z 00000KT 10SM SKC M08/M11 A3047,KUNV,2019-01-12T13:53:00Z,40.85,-77.83,-8.0,-11.0,0,0,,10.0,30.469488,,,,,,,,,,,SKC,,,,,,,,VFR,,,,,,,,,,,,METAR,378.0
EKYT 121353Z AUTO 27007KT 5000 -SHRA FEW005/// BKN009/// BKN023/// 06/05 Q0997,EKYT,2019-01-12T13:53:00Z,57.1,9.87,6.0,5.0,270,7,,3.11,29.438976,,,TRUE,,,,,,,-SHRA,FEW,500,BKN,900,BKN,2300,,,IFR,,,,,,,,,,,,SPECI,3.0
PTYA 121353Z VRB06KT 12SM FEW016 BKN300 27/24 A2985 RMK SLP108 T02700239,PTYA,2019-01-12T13:53:00Z,9.48,138.08,27.0,23.9,0,6,,12.0,29.84941,1010.8,,,,,,,,,,FEW,1600,BKN,30000,,,,,VFR,,,,,,,,,,,,METAR,17.0
K6R6 121353Z AUTO 31007KT 05/02 A3014 RMK AO1 SLP196 T00500022,K6R6,2019-01-12T13:53:00Z,30.05,-102.22,5.0,2.2,310,7,,,30.138779,1019.6,,TRUE,TRUE,,,,,,,,,,,,,,,,,,,,,,,,,,,METAR,701.0
KRWL 121353Z AUTO 33004KT 3/4SM BR VV003 M09/M11 A3021 RMK AO2 SLP278 T10941106,KRWL,2019-01-12T13:53:00Z,41.78,-107.2,-9.4,-10.6,330,4,,0.75,30.209646,1027.8,,TRUE,TRUE,,,,,,BR,OVX,0,,,,,,,LIFR,,,,,,,,,,,300,METAR,2077.0
KMSS 121353Z AUTO 22006KT 10SM CLR M18/M20 A3061 RMK AO2 SLP376 T11781200,KMSS,2019-01-12T13:53:00Z,44.93,-74.85,-17.8,-20.0,220,6,,10.0,30.611221,1037.6,,TRUE,TRUE,,,,,,,CLR,,,,,,,,VFR,,,,,,,,,,,,METAR,66.0
KSUN 121353Z 30011G16KT 10SM SKC M09/M13 A3021,KSUN,2019-01-12T13:53:00Z,43.5,-114.28,-9.0,-13.0,300,11,16,10.0,30.209646,,,,,,,,,,,SKC,,,,,,,,VFR,,,,,,,,,,,,METAR,1620.0
KSPW 121353Z AUTO 03009KT 7SM OVC029 M04/M06 A3024 RMK AO2 SLP259 T10391056,KSPW,2019-01-12T13:53:00Z,43.17,-95.22,-3.9,-5.6,30,9,,7.0,30.239174,1025.9,,TRUE,TRUE,,,,,,,OVC,2900,,,,,,,MVFR,,,,,,,,,,,,METAR,403.0
KGGW 121353Z AUTO 11013KT 10SM CLR M11/M13 A3015 RMK AO2 SLP255 T11061133,KGGW,2019-01-12T13:53:00Z,48.22,-106.62,-10.6,-13.3,110,13,,10.0,30.15059,1025.5,,TRUE,TRUE,,,,,,,CLR,,,,,,,,VFR,,,,,,,,,,,,METAR,694.0
KGAG 121353Z AUTO 35018G26KT 5SM BR OVC010 01/M02 A3005 RMK AO2 PK WND 35026/1350 SLP187 T00061017 TSNO,KGAG,2019-01-12T13:53:00Z,36.3,-99.77,0.6,-1.7,350,18,26,5.0,30.050198,1018.7,,TRUE,TRUE,,,TRUE,,,BR,OVC,1000,,,,,,,MVFR,,,,,,,,,,,,SPECI,668.0
KLND 121353Z AUTO 31005KT 1/4SM FZFG VV001 M16/M18 A3019 RMK AO2 SLP289 T11611178,KLND,2019-01-12T13:53:00Z,42.82,-108.73,-16.1,-17.8,310,5,,0.25,30.188976,1028.9,,TRUE,TRUE,,,,,,FZFG,OVX,0,,,,,,,LIFR,,,,,,,,,,,100,METAR,1694.0
KLKV 121353Z AUTO 34006KT 10SM CLR M03/M06 A3002 RMK AO2 SLP198 T10331056 FZRANO,KLKV,2019-01-12T13:53:00Z,42.17,-120.4,-3.3,-5.6,340,6,,10.0,30.02067,1019.8,,TRUE,TRUE,,,,TRUE,,,CLR,,,,,,,,VFR,,,,,,,,,,,,METAR,1441.0
KHLC 121353Z AUTO 35014KT 9SM BKN095 OVC110 M02/M03 A3015 RMK AO2 SLP229 T10171033 $,KHLC,2019-01-12T13:53:00Z,39.37,-99.83,-1.7,-3.3,350,14,,9.0,30.15059,1022.9,,TRUE,TRUE,TRUE,,,,,,BKN,9500,OVC,11000,,,,,VFR,,,,,,,,,,,,METAR,669.0
KP92 121353Z AUTO 15006KT A3001 RMK AO1 SLP163 $,KP92,2019-01-12T13:53:00Z,29.57,-91.53,,,150,6,,,30.008858,1016.3,,TRUE,TRUE,TRUE,,,,,,,,,,,,,,,,,,,,,,,,,,METAR,1.0
KCQC 121353Z AUTO 19003KT 10SM SCT018 OVC026 M03/M04 A3017 RMK AO2 SLP233 T10281044,KCQC,2019-01-12T13:53:00Z,35.0,-105.67,-2.8,-4.4,190,3,,10.0,30.171259,1023.3,,TRUE,TRUE,,,,,,,SCT,1800,OVC,2600,,,,,MVFR,,,,,,,,,,,,METAR,2160.0
TJNR 121353Z AUTO VRB06KT 10SM FEW021 26/22 A3013 RMK AO2 SLP203 T02610217,TJNR,2019-01-12T13:53:00Z,18.25,-65.63,26.1,21.7,0,6,,10.0,30.129921,1020.3,,TRUE,TRUE,,,,,,,FEW,2100,,,,,,,VFR,,,,,,,,,,,,METAR,12.0
KOQT 121353Z AUTO 00000KT 10SM BKN047 OVC100 04/00 A3028 RMK AO2 RAB25E38 SLP265 P0000 T00440000,KOQT,2019-01-12T13:53:00Z,36.02,-84.23,4.4,0.0,0,0,,10.0,30.280512,1026.5,,TRUE,TRUE,,,,,,,BKN,4700,OVC,10000,,,,,VFR,,,,,,0.005,,,,,,METAR,277.0
KNIP 121353Z 00000KT 10SM OVC060 14/13 A3028 RMK AO2 SLP248 T01440128,KNIP,2019-01-12T13:53:00Z,30.22,-81.67,14.4,12.8,0,0,,10.0,30.280512,1024.8,,,TRUE,,,,,,,OVC,6000,,,,,,,VFR,,,,,,,,,,,,METAR,7.0
KNUI 121353Z AUTO 09003KT 10SM OVC100 02/M08 A3053 RMK AO2 SLP339 T00221083,KNUI,2019-01-12T13:53:00Z,38.15,-76.43,2.2,-8.3,90,3,,10.0,30.528543,1033.9,,TRUE,TRUE,,,,,,,OVC,10000,,,,,,,VFR,,,,,,,,,,,,METAR,7.0
KCMX 121353Z AUTO 12009KT 10SM OVC012 M04/M08 A3048 RMK AO2 SLP340 T10441078,KCMX,2019-01-12T13:53:00Z,47.17,-88.48,-4.4,-7.8,120,9,,10.0,30.481298,1034.0,,TRUE,TRUE,,,,,,,OVC,1200,,,,,,,MVFR,,,,,,,,,,,,METAR,326.0
KBRL 121353Z AUTO 08011KT 3/4SM -SN BR BKN005 BKN009 OVC014 M02/M03 A3019 RMK AO2 SLP230 P0001 T10171033 $,KBRL,2019-01-12T13:53:00Z,40.77,-91.13,-1.7,-3.3,80,11,,0.75,30.188976,1023.0,,TRUE,TRUE,TRUE,,,,,-SN BR,BKN,500,BKN,900,OVC,1400,,,LIFR,,,,,,0.01,,,,,,METAR,211.0
KBAF 121353Z 00000KT 10SM SCT110 M09/M15 A3050 RMK AO2 SLP340 T10891150,KBAF,2019-01-12T13:53:00Z,42.17,-72.72,-8.9,-15.0,0,0,,10.0,30.499016,1034.0,,,TRUE,,,,,,,SCT,11000,,,,,,,VFR,,,,,,,,,,,,METAR,83.0
KNQX 121353Z 11012KT 10SM FEW045 24/16 A3015 RMK SLP207 T02440161,KNQX,2019-01-12T13:53:00Z,24.57,-81.67,24.4,16.1,110,12,,10.0,30.15059,1020.7,,,,,,,,,,FEW,4500,,,,,,,VFR,,,,,,,,,,,,METAR,2.0
KRWF 121353Z AUTO 36005KT 8SM CLR M08/M09 A3030 RMK AO2 SLP279 T10781094,KRWF,2019-01-12T13:53:00Z,44.55,-95.08,-7.8,-9.4,360,5,,8.0,30.301182,1027.9,,TRUE,TRUE,,,,,,,CLR,,,,,,,,VFR,,,,,,,,,,,,METAR,311.0
KRWI 121353Z AUTO 03006KT 10SM BKN090 OVC110 01/M03 A3051 RMK AO2 SLP334 T00061033,KRWI,2019-01-12T13:53:00Z,35.85,-77.9,0.6,-3.3,30,6,,10.0,30.510826,1033.4,,TRUE,TRUE,,,,,,,BKN,9000,OVC,11000,,,,,VFR,,,,,,,,,,,,METAR,47.0
PASI 121353Z 00000KT 10SM FEW042 SCT049 OVC060 04/03 A2980 RMK AO2 RAE22 SLP091 P0000 T00440033 $,PASI,2019-01-12T13:53:00Z,57.07,-135.35,4.4,3.3,0,0,,10.0,29.799213,1009.1,,,TRUE,TRUE,,,,,,FEW,4200,SCT,4900,OVC,6000,,,VFR,,,,,,0.005,,,,,,METAR,5.0
PASC 121353Z 23011KT 10SM SCT045 M37/ A3034 RMK AO2 SLP275 T1372,PASC,2019-01-12T13:53:00Z,70.2,-148.47,-37.2,,230,11,,10.0,30.339567,1027.5,,,TRUE,,,,,,,SCT,4500,,,,,,,VFR,,,,,,,,,,,,METAR,15.0
KRXE 121353Z AUTO 05005KT 10SM CLR M10/M13 A3027 RMK AO2 SLP296 T11001128,KRXE,2019-01-12T13:53:00Z,43.83,-111.8,-10.0,-12.8,50,5,,10.0,30.268702,1029.6,,TRUE,TRUE,,,,,,,CLR,,,,,,,,VFR,,,,,,,,,,,,METAR,1480.0
KSAC 121353Z 00000KT 1/4SM FG VV002 07/07 A2996 RMK AO2 SLP144 T00720072,KSAC,2019-01-12T13:53:00Z,38.5,-121.5,7.2,7.2,0,0,,0.25,29.958662,1014.4,,,TRUE,,,,,,FG,OVX,0,,,,,,,LIFR,,,,,,,,,,,200,METAR,11.0
KSBA 121353Z 10016G20KT 2 1/2SM +RA BR OVC041 11/09 A2996 RMK AO2 VIS 1 3/4V4 SLP144 P0022 T01060094,KSBA,2019-01-12T13:53:00Z,34.43,-119.85,10.6,9.4,100,16,20,2.5,29.958662,1014.4,,,TRUE,,,,,,+RA BR,OVC,4100,,,,,,,IFR,,,,,,0.22,,,,,,METAR,3.0
KSAV 121353Z 04008KT 10SM FEW050 OVC060 08/04 A3035 RMK AO2 SLP278 T00780044,KSAV,2019-01-12T13:53:00Z,32.12,-81.2,7.8,4.4,40,8,,10.0,30.351377,1027.8,,,TRUE,,,,,,,FEW,5000,OVC,6000,,,,,VFR,,,,,,,,,,,,METAR,14.0
KSBM 121353Z AUTO 10007KT 9SM OVC055 00/M04 A3038 RMK AO2 SLP298 T00001039,KSBM,2019-01-12T13:53:00Z,43.78,-87.85,0.0,-3.9,100,7,,9.0,30.380905,1029.8,,TRUE,TRUE,,,,,,,OVC,5500,,,,,,,VFR,,,,,,,,,,,,METAR,232.0
KSDM 121353Z AUTO 07006KT 10SM -RA FEW025 BKN070 OVC085 12/11 A3001 RMK AO2 SLP161 P0014 T01170106,KSDM,2019-01-12T13:53:00Z,32.58,-117.0,11.7,10.6,70,6,,10.0,30.008858,1016.1,,TRUE,TRUE,,,,,,-RA,FEW,2500,BKN,7000,OVC,8500,,,VFR,,,,,,0.14,,,,,,METAR,159.0
KSEG 121353Z AUTO 01003KT 10SM CLR M06/M11 A3055 RMK AO2 SLP352 T10611106 FZRANO $,KSEG,2019-01-12T13:53:00Z,40.82,-76.87,-6.1,-10.6,10,3,,10.0,30.549213,1035.2,,TRUE,TRUE,TRUE,,,TRUE,,,CLR,,,,,,,,VFR,,,,,,,,,,,,METAR,134.0
KSEA 121353Z 00000KT 10SM FEW190 08/00 A2994 RMK AO2 SLP147 T00780000,KSEA,2019-01-12T13:53:00Z,47.45,-122.32,7.8,0.0,0,0,,10.0,29.940945,1014.7,,,TRUE,,,,,,,FEW,19000,,,,,,,VFR,,,,,,,,,,,,METAR,136.0
KSFB 121353Z 09009KT 10SM CLR 19/14 A3025 RMK AO2 SLP242 T01890139,KSFB,2019-01-12T13:53:00Z,28.77,-81.22,18.9,13.9,90,9,,10.0,30.250984,1024.2,,,TRUE,,,,,,,CLR,,,,,,,,VFR,,,,,,,,,,,,METAR,17.0
KSFF 121353Z 00000KT 3SM BR OVC005 01/M01 A3019 RMK AO2 SLP238 T00061011,KSFF,2019-01-12T13:53:00Z,47.68,-117.32,0.6,-1.1,0,0,,3.0,30.188976,1023.8,,,TRUE,,,,,,BR,OVC,500,,,,,,,IFR,,,,,,,,,,,,METAR,609.0
KSMQ 121353Z AUTO 00000KT 10SM OVC085 M06/M11 A3054 RMK AO2 SLP346 T10561111,KSMQ,2019-01-12T13:53:00Z,40.62,-74.67,-5.6,-11.1,0,0,,10.0,30.540354,1034.6,,TRUE,TRUE,,,,,,,OVC,8500,,,,,,,VFR,,,,,,,,,,,,METAR,30.0
KSMF 121353Z 35003KT 1/4SM R16R/0600FT FG BKN001 06/06 A2995 RMK AO2 SLP141 T00610056,KSMF,2019-01-12T13:53:00Z,38.7,-121.6,6.1,5.6,350,3,,0.25,29.949802,1014.1,,,TRUE,,,,,,FG,BKN,100,,,,,,,LIFR,,,,,,,,,,,,METAR,6.0
KSJC 121353Z 16005KT 10SM BKN060 BKN110 12/08 A2994 RMK AO2 SLP138 T01170083,KSJC,2019-01-12T13:53:00Z,37.37,-121.92,11.7,8.3,160,5,,10.0,29.940945,1013.8,,,TRUE,,,,,,,BKN,6000,BKN,11000,,,,,VFR,,,,,,,,,,,,METAR,24.0
KSIY 121353Z AUTO 13003KT 10SM CLR M03/M04 A2998 RMK AO2 SLP171 T10281044,KSIY,2019-01-12T13:53:00Z,41.77,-122.47,-2.8,-4.4,130,3,,10.0,29.97933,1017.1,,TRUE,TRUE,,,,,,,CLR,,,,,,,,VFR,,,,,,,,,,,,METAR,807.0
KSHR 121353Z AUTO 00000KT 10SM CLR M09/M11 A3015 RMK AO2 SLP264 T10891111,KSHR,2019-01-12T13:53:00Z,44.77,-106.97,-8.9,-11.1,0,0,,10.0,30.15059,1026.4,,TRUE,TRUE,,,,,,,CLR,,,,,,,,VFR,,,,,,,,,,,,METAR,1202.0
KSHN 121353Z AUTO 00000KT 10SM CLR M01/M02 A2993 RMK AO2 SLP139 I1000 T10061022,KSHN,2019-01-12T13:53:00Z,47.23,-123.13,-0.6,-2.2,0,0,,10.0,29.929134,1013.9,,TRUE,TRUE,,,,,,,CLR,,,,,,,,VFR,,,,,,,,,,,,METAR,82.0
KCNO 121353Z AUTO VRB04KT 9SM -RA BKN065 11/09 A3003 RMK AO2 RAE24B52 SLP166 P0007 T01110094,KCNO,2019-01-12T13:53:00Z,33.98,-117.62,11.1,9.4,0,4,,9.0,30.029528,1016.6,,TRUE,TRUE,,,,,,-RA,BKN,6500,,,,,,,VFR,,,,,,0.07,,,,,,METAR,207.0
KCNM 121353Z AUTO 33007KT 10SM CLR 02/M01 A3018 RMK AO2 SLP212 T00221006,KCNM,2019-01-12T13:53:00Z,32.33,-104.25,2.2,-0.6,330,7,,10.0,30.180119,1021.2,,TRUE,TRUE,,,,,,,CLR,,,,,,,,VFR,,,,,,,,,,,,METAR,985.0
KSSF 121353Z 26003KT 7SM CLR 12/11 A3004 RMK AO2 SLP172 T01170106,KSSF,2019-01-12T13:53:00Z,29.33,-98.47,11.7,10.6,260,3,,7.0,30.041338,1017.2,,,TRUE,,,,,,,CLR,,,,,,,,VFR,,,,,,,,,,,,METAR,176.0
KSRQ 121353Z 09008KT 10SM CLR 17/12 A3019 RMK AO2 SLP223 T01720122,KSRQ,2019-01-12T13:53:00Z,27.4,-82.57,17.2,12.2,90,8,,10.0,30.188976,1022.3,,,TRUE,,,,,,,CLR,,,,,,,,VFR,,,,,,,,,,,,METAR,18.0
KSPG 121353Z 10011KT 10SM FEW045 17/13 A3020 RMK AO2 SLP226 T01720133,KSPG,2019-01-12T13:53:00Z,27.77,-82.63,17.2,13.3,100,11,,10.0,30.200787,1022.6,,,TRUE,,,,,,,FEW,4500,,,,,,,VFR,,,,,,,,,,,,METAR,2.0
KSPB 121353Z AUTO 26004KT 10SM CLR 01/M01 A2997 RMK AO2 SLP148 T00111006,KSPB,2019-01-12T13:53:00Z,45.77,-122.87,1.1,-0.6,260,4,,10.0,29.970472,1014.8,,TRUE,TRUE,,,,,,,CLR,,,,,,,,VFR,,,,,,,,,,,,METAR,14.0
KSNY 121353Z AUTO 33009KT 10SM SCT080 M02/M03 A3018 RMK AO2 SLP247 T10221028,KSNY,2019-01-12T13:53:00Z,41.1,-102.98,-2.2,-2.8,330,9,,10.0,30.180119,1024.7,,TRUE,TRUE,,,,,,,SCT,8000,,,,,,,VFR,,,,,,,,,,,,METAR,1307.0
KSNS 121353Z 16012KT 10SM OVC090 11/08 A2993 RMK AO2 SLP143 T01060078,KSNS,2019-01-12T13:53:00Z,36.67,-121.6,10.6,7.8,160,12,,10.0,29.929134,1014.3,,,TRUE,,,,,,,OVC,9000,,,,,,,VFR,,,,,,,,,,,,METAR,30.0
KSNA 121353Z AUTO 00000KT 10SM OVC037 11/09 A3000 RMK AO2 RAE12 SLP159 P0001 T01110089,KSNA,2019-01-12T13:53:00Z,33.67,-117.87,11.1,8.9,0,0,,10.0,30.0,1015.9,,TRUE,TRUE,,,,,,,OVC,3700,,,,,,,VFR,,,,,,0.01,,,,,,METAR,16.0
KDAB 121353Z 10006KT 10SM FEW045 FEW065 BKN250 20/14 A3026 RMK AO2 SLP246 T02000139,KDAB,2019-01-12T13:53:00Z,29.18,-81.07,20.0,13.9,100,6,,10.0,30.259842,1024.6,,,TRUE,,,,,,,FEW,4500,FEW,6500,BKN,25000,,,VFR,,,,,,,,,,,,METAR,9.0
KCYS 121353Z 31007KT 10SM CLR M06/M07 A3016 RMK AO2 SLP254 T10561072,KCYS,2019-01-12T13:53:00Z,41.15,-104.8,-5.6,-7.2,310,7,,10.0,30.159449,1025.4,,,TRUE,,,,,,,CLR,,,,,,,,VFR,,,,,,,,,,,,METAR,1868.0
KCUT 121353Z AUTO 30004KT 10SM CLR M07/M09 A3014 RMK AO2 SLP245 T10721094,KCUT,2019-01-12T13:53:00Z,43.73,-103.62,-7.2,-9.4,300,4,,10.0,30.138779,1024.5,,TRUE,TRUE,,,,,,,CLR,,,,,,,,VFR,,,,,,,,,,,,SPECI,1725.0
KCUB 121353Z AUTO 04004KT 10SM BKN025 OVC065 03/M05 A3044 RMK AO2 SLP307 T00281050,KCUB,2019-01-12T13:53:00Z,33.97,-81.0,2.8,-5.0,40,4,,10.0,30.43996,1030.7,,TRUE,TRUE,,,,,,,BKN,2500,OVC,6500,,,,,MVFR,,,,,,,,,,,,METAR,56.0
KCSV 121353Z AUTO VRB04KT 10SM OVC060 04/M05 A3022 RMK AO2 SLP239 T00441050,KCSV,2019-01-12T13:53:00Z,35.95,-85.08,4.4,-5.0,0,4,,10.0,30.221457,1023.9,,TRUE,TRUE,,,,,,,OVC,6000,,,,,,,VFR,,,,,,,,,,,,METAR,570.0
KCSM 121353Z AUTO 34023G27KT 10SM OVC011 01/M01 A3001 RMK AO2 PK WND 34028/1339 SLP166 T00111006,KCSM,2019-01-12T13:53:00Z,35.35,-99.2,1.1,-0.6,340,23,27,10.0,30.008858,1016.6,,TRUE,TRUE,,,,,,,OVC,1100,,,,,,,MVFR,,,,,,,,,,,,METAR,588.0
KCRS 121353Z AUTO 28007KT 10SM CLR 07/04 A3001 RMK AO2 SLP162 T00720039 $,KCRS,2019-01-12T13:53:00Z,32.03,-96.4,7.2,3.9,280,7,,10.0,30.008858,1016.2,,TRUE,TRUE,TRUE,,,,,,CLR,,,,,,,,VFR,,,,,,,,,,,,METAR,133.0
KCRQ 121353Z AUTO 07007KT 10SM FEW040 BKN060 OVC070 12/10 A3000 RMK AO2 RAE19B40E49 SLP157 P0001 T01220100,KCRQ,2019-01-12T13:53:00Z,33.13,-117.28,12.2,10.0,70,7,,10.0,30.0,1015.7,,TRUE,TRUE,,,,,,,FEW,4000,BKN,6000,OVC,7000,,,VFR,,,,,,0.01,,,,,,SPECI,99.0
KCRG 121353Z 11005KT 10SM OVC060 17/12 A3028 RMK AO2 SLP251 T01720122,KCRG,2019-01-12T13:53:00Z,30.33,-81.52,17.2,12.2,110,5,,10.0,30.280512,1025.1,,,TRUE,,,,,,,OVC,6000,,,,,,,VFR,,,,,,,,,,,,METAR,13.0
KCRE 121353Z 02008KT 10SM OVC026 04/M02 A3043 RMK AO1 SLP306 T00441022,KCRE,2019-01-12T13:53:00Z,33.82,-78.72,4.4,-2.2,20,8,,10.0,30.431103,1030.6,,,TRUE,,,,,,,OVC,2600,,,,,,,MVFR,,,,,,,,,,,,METAR,10.0
KCPS 121353Z 12008KT 5SM -FZRA BR OVC006 00/M01 A3011 RMK AO2 SLP201 P0000 I1000 T00001011,KCPS,2019-01-12T13:53:00Z,38.57,-90.15,0.0,-1.1,120,8,,5.0,30.109253,1020.1,,,TRUE,,,,,,-FZRA BR,OVC,600,,,,,,,IFR,,,,,,0.005,,,,,,METAR,126.0
KCPR 121353Z 24009KT 10SM CLR M07/M08 A3018 RMK AO2 SLP268 T10721078,KCPR,2019-01-12T13:53:00Z,42.9,-106.47,-7.2,-7.8,240,9,,10.0,30.180119,1026.8,,,TRUE,,,,,,,CLR,,,,,,,,VFR,,,,,,,,,,,,METAR,1621.0
KCOT 121353Z AUTO 32010G17KT 3SM BR OVC002 12/12 A3007 RMK AO2 SLP180 T01220122 $,KCOT,2019-01-12T13:53:00Z,28.45,-99.22,12.2,12.2,320,10,17,3.0,30.070866,1018.0,,TRUE,TRUE,TRUE,,,,,BR,OVC,200,,,,,,,LIFR,,,,,,,,,,,,METAR,140.0
KDAL 121353Z 27010KT 10SM FEW023 07/03 A2998 RMK AO2 SLP152 T00720028,KDAL,2019-01-12T13:53:00Z,32.85,-96.85,7.2,2.8,270,10,,10.0,29.97933,1015.2,,,TRUE,,,,,,,FEW,2300,,,,,,,VFR,,,,,,,,,,,,SPECI,158.0
KDAN 121353Z AUTO 00000KT 10SM OVC100 01/M07 A3050 RMK AO2 SLP327 T00061072,KDAN,2019-01-12T13:53:00Z,36.57,-79.33,0.6,-7.2,0,0,,10.0,30.499016,1032.7,,TRUE,TRUE,,,,,,,OVC,10000,,,,,,,VFR,,,,,,,,,,,,METAR,175.0
KDCU 121353Z AUTO 14007KT 10SM BKN024 OVC038 08/M01 A3022 RMK AO2 SLP233 T00781006,KDCU,2019-01-12T13:53:00Z,34.65,-86.95,7.8,-0.6,140,7,,10.0,30.221457,1023.3,,TRUE,TRUE,,,,,,,BKN,2400,OVC,3800,,,,,MVFR,,,,,,,,,,,,METAR,176.0
KDET 121353Z 06008KT 10SM OVC025 M02/M06 A3045 RMK AO2 SLP320 T10221061,KDET,2019-01-12T13:53:00Z,42.4,-83.02,-2.2,-6.1,60,8,,10.0,30.448818,1032.0,,,TRUE,,,,,,,OVC,2500,,,,,,,MVFR,,,,,,,,,,,,METAR,190.0
KDEW 121353Z AUTO 01004KT 10SM OVC004 M01/M02 A3018 RMK AO2 SLP241 T10111017,KDEW,2019-01-12T13:53:00Z,47.97,-117.43,-1.1,-1.7,10,4,,10.0,30.180119,1024.1,,TRUE,TRUE,,,,,,,OVC,400,,,,,,,LIFR,,,,,,,,,,,,METAR,674.0
KDFI 121353Z AUTO 08007KT 10SM OVC085 M03/M07 A3039 RMK AO2 SLP302 T10281067,KDFI,2019-01-12T13:53:00Z,41.33,-84.43,-2.8,-6.7,80,7,,10.0,30.389763,1030.2,,TRUE,TRUE,,,,,,,OVC,8500,,,,,,,VFR,,,,,,,,,,,,METAR,219.0
KDFW 121353Z 27012KT 10SM FEW020 06/02 A2997 RMK AO2 SLP148 T00560017,KDFW,2019-01-12T13:53:00Z,32.9,-97.02,5.6,1.7,270,12,,10.0,29.970472,1014.8,,,TRUE,,,,,,,FEW,2000,,,,,,,VFR,,,,,,,,,,,,METAR,174.0
KDHN 121353Z 10008G19KT 10SM FEW040 BKN050 09/04 A3024 RMK AO2 SLP241 T00940039,KDHN,2019-01-12T13:53:00Z,31.32,-85.45,9.4,3.9,100,8,19,10.0,30.239174,1024.1,,,TRUE,,,,,,,FEW,4000,BKN,5000,,,,,VFR,,,,,,,,,,,,METAR,113.0
KDGW 121353Z AUTO 02003KT 1/4SM FZFG VV002 M07/M07 A3020 RMK AO2 SLP267 I1/// T10721072 $,KDGW,2019-01-12T13:53:00Z,42.8,-105.38,-7.2,-7.2,20,3,,0.25,30.200787,1026.7,,TRUE,TRUE,TRUE,,,,,FZFG,OVX,0,,,,,,,LIFR,,,,,,,,,,,200,METAR,1499.0
KDKK 121353Z AUTO 08004KT 10SM OVC070 M06/M11 A3050 RMK AO2 SLP343 T10611106,KDKK,2019-01-12T13:53:00Z,42.5,-79.28,-6.1,-10.6,80,4,,10.0,30.499016,1034.3,,TRUE,TRUE,,,,,,,OVC,7000,,,,,,,VFR,,,,,,,,,,,,METAR,202.0
KMWT 121353Z AUTO 12004KT 5SM -RA BR OVC008 05/04 A2989 RMK AO2 RAB42 SLP129 P0000 T00500039,KMWT,2019-01-12T13:53:00Z,34.55,-93.58,5.0,3.9,120,4,,5.0,29.890747,1012.9,,TRUE,TRUE,,,,,,-RA BR,OVC,800,,,,,,,IFR,,,,,,0.005,,,,,,METAR,214.0
KAAF 121353Z AUTO 12007KT 10SM FEW045 BKN055 16/12 A3021 RMK AO2 SLP229 T01560122,KAAF,2019-01-12T13:53:00Z,29.73,-85.03,15.6,12.2,120,7,,10.0,30.209646,1022.9,,TRUE,TRUE,,,,,,,FEW,4500,BKN,5500,,,,,VFR,,,,,,,,,,,,SPECI,5.0
KABY 121353Z 07008KT 10SM SCT040 BKN055 10/04 A3030 RMK AO2 SLP260 T01000044,KABY,2019-01-12T13:53:00Z,31.53,-84.2,10.0,4.4,70,8,,10.0,30.301182,1026.0,,,TRUE,,,,,,,SCT,4000,BKN,5500,,,,,VFR,,,,,,,,,,,,METAR,58.0
KABR 121353Z AUTO 01010KT 3SM BR OVC004 M08/M09 A3037 RMK AO2 SLP308 I1002 T10781089 $,KABR,2019-01-12T13:53:00Z,45.45,-98.42,-7.8,-8.9,10,10,,3.0,30.369095,1030.8,,TRUE,TRUE,TRUE,,,,,BR,OVC,400,,,,,,,LIFR,,,,,,,,,,,,METAR,397.0
KHRI 121353Z AUTO 16003KT 5SM BR OVC004 02/01 A3016 RMK AO2 SLP218 T00220011,KHRI,2019-01-12T13:53:00Z,45.83,-119.27,2.2,1.1,160,3,,5.0,30.159449,1021.8,,TRUE,TRUE,,,,,,BR,OVC,400,,,,,,,LIFR,,,,,,,,,,,,METAR,195.0
KHQM 121353Z AUTO 08011KT 9SM CLR 07/04 A2991 RMK AO2 SLP130 T00670044,KHQM,2019-01-12T13:53:00Z,46.97,-123.93,6.7,4.4,80,11,,9.0,29.911417,1013.0,,TRUE,TRUE,,,,,,,CLR,,,,,,,,VFR,,,,,,,,,,,,METAR,7.0
KHOU 121353Z 28009KT 10SM FEW006 BKN012 BKN020 BKN250 16/14 A3000 RMK AO2 SLP164 T01610144,KHOU,2019-01-12T13:53:00Z,29.63,-95.28,16.1,14.4,280,9,,10.0,30.0,1016.4,,,TRUE,,,,,,,FEW,600,BKN,1200,BKN,2000,BKN,25000,MVFR,,,,,,,,,,,,METAR,36.0
KHOT 121353Z AUTO 10006KT 6SM BR OVC007 05/04 A2994 RMK AO2 CIG 005V010 SLP140 T00500044,KHOT,2019-01-12T13:53:00Z,34.48,-93.1,5.0,4.4,100,6,,6.0,29.940945,1014.0,,TRUE,TRUE,,,,,,BR,OVC,700,,,,,,,IFR,,,,,,,,,,,,METAR,162.0
KHLN 121353Z 00000KT 1/2SM FZFG VV001 M11/M12 A3022 RMK AO2 SLP305 T11111122,KHLN,2019-01-12T13:53:00Z,46.6,-111.98,-11.1,-12.2,0,0,,0.5,30.221457,1030.5,,,TRUE,,,,,,FZFG,OVX,0,,,,,,,LIFR,,,,,,,,,,,100,METAR,1182.0
KHLG 121353Z AUTO 00000KT 10SM OVC080 M04/M09 A3038 RMK AO2 SLP306 T10391089 $,KHLG,2019-01-12T13:53:00Z,40.17,-80.65,-3.9,-8.9,0,0,,10.0,30.380905,1030.6,,TRUE,TRUE,TRUE,,,,,,OVC,8000,,,,,,,VFR,,,,,,,,,,,,METAR,372.0
KHKY 121353Z 05004KT 10SM OVC110 02/M06 A3042 RMK AO2 SLP298 T00171056,KHKY,2019-01-12T13:53:00Z,35.75,-81.38,1.7,-5.6,50,4,,10.0,30.41929,1029.8,,,TRUE,,,,,,,OVC,11000,,,,,,,VFR,,,,,,,,,,,,METAR,354.0
KHKS 121353Z 12007KT 3SM RA BR FEW029 BKN060 OVC090 09/08 A3006 RMK AO2 SLP175 P0013 T00940083,KHKS,2019-01-12T13:53:00Z,32.33,-90.22,9.4,8.3,120,7,,3.0,30.059055,1017.5,,,TRUE,,,,,,RA BR,FEW,2900,BKN,6000,OVC,9000,,,MVFR,,,,,,0.13,,,,,,METAR,108.0
KHKA 121353Z AUTO 10009KT 9SM OVC110 04/01 A3007 RMK AO2 SLP184 T00440011 $,KHKA,2019-01-12T13:53:00Z,35.93,-89.83,4.4,1.1,100,9,,9.0,30.070866,1018.4,,TRUE,TRUE,TRUE,,,,,,OVC,11000,,,,,,,VFR,,,,,,,,,,,,METAR,78.0
KHJO 121353Z AUTO 10003KT 9SM BKN120 10/08 A2996 RMK AO2 SLP148 T01000078,KHJO,2019-01-12T13:53:00Z,36.32,-119.62,10.0,7.8,100,3,,9.0,29.958662,1014.8,,TRUE,TRUE,,,,,,,BKN,12000,,,,,,,VFR,,,,,,,,,,,,METAR,74.0
KHIO 121353Z 00000KT 10SM CLR M01/M02 A2997 RMK AO2 SLP149 T10061017,KHIO,2019-01-12T13:53:00Z,45.55,-122.95,-0.6,-1.7,0,0,,10.0,29.970472,1014.9,,,TRUE,,,,,,,CLR,,,,,,,,VFR,,,,,,,,,,,,METAR,68.0
KHIB 121353Z AUTO 05005KT 6SM BR OVC005 M07/M08 A3041 RMK AO2 SNE15 SLP324 P0001 T10721083,KHIB,2019-01-12T13:53:00Z,47.38,-92.83,-7.2,-8.3,50,5,,6.0,30.410433,1032.4,,TRUE,TRUE,,,,,,BR,OVC,500,,,,,,,IFR,,,,,,0.01,,,,,,METAR,412.0
KHHR 121353Z 09007KT 10SM BKN029 OVC036 12/09 A3000 RMK AO2 RAE27 SLP160 P0000 T01170094 $,KHHR,2019-01-12T13:53:00Z,33.92,-118.33,11.7,9.4,90,7,,10.0,30.0,1016.0,,,TRUE,TRUE,,,,,,BKN,2900,OVC,3600,,,,,MVFR,,,,,,0.005,,,,,,METAR,18.0
KHGR 121353Z 00000KT 10SM OVC095 M03/M09 A3050 RMK AO2 SLP347 T10281094 $,KHGR,2019-01-12T13:53:00Z,39.7,-77.73,-2.8,-9.4,0,0,,10.0,30.499016,1034.7,,,TRUE,TRUE,,,,,,OVC,9500,,,,,,,VFR,,,,,,,,,,,,METAR,224.0
KHFD 121353Z 34008KT 10SM OVC085 M07/M13 A3053 RMK AO2 SLP337 T10671133,KHFD,2019-01-12T13:53:00Z,41.73,-72.65,-6.7,-13.3,340,8,,10.0,30.528543,1033.7,,,TRUE,,,,,,,OVC,8500,,,,,,,VFR,,,,,,,,,,,,METAR,4.0
KHEI 121353Z AUTO 13004KT 3/4SM -SN BR OVC003 M12/M13 A3028 RMK AO2 SLP306 P0000 T11221133,KHEI,2019-01-12T13:53:00Z,46.02,-102.65,-12.2,-13.3,130,4,,0.75,30.280512,1030.6,,TRUE,TRUE,,,,,,-SN BR,OVC,300,,,,,,,LIFR,,,,,,0.005,,,,,,METAR,828.0
KHBR 121353Z AUTO 35018KT 10SM OVC017 03/01 A3001 RMK AO2 PK WND 34028/1313 SLP166 T00280006,KHBR,2019-01-12T13:53:00Z,34.98,-99.05,2.8,0.6,350,18,,10.0,30.008858,1016.6,,TRUE,TRUE,,,,,,,OVC,1700,,,,,,,MVFR,,,,,,,,,,,,METAR,473.0
KHBG 121353Z AUTO 13003KT 10SM BKN050 09/06 A3010 RMK AO2 SLP191 T00940061,KHBG,2019-01-12T13:53:00Z,31.27,-89.25,9.4,6.1,130,3,,10.0,30.100393,1019.1,,TRUE,TRUE,,,,,,,BKN,5000,,,,,,,VFR,,,,,,,,,,,,METAR,44.0
KASD 121353Z AUTO 15009KT 10SM FEW047 16/13 A3004 RMK AO2 SLP173 T01560128,KASD,2019-01-12T13:53:00Z,30.35,-89.82,15.6,12.8,150,9,,10.0,30.041338,1017.3,,TRUE,TRUE,,,,,,,FEW,4700,,,,,,,VFR,,,,,,,,,,,,METAR,9.0
KARB 121353Z 05005KT 10SM OVC070 M02/M07 A3041 RMK AO2 SLP311 T10221067,KARB,2019-01-12T13:53:00Z,42.22,-83.73,-2.2,-6.7,50,5,,10.0,30.410433,1031.1,,,TRUE,,,,,,,OVC,7000,,,,,,,VFR,,,,,,,,,,,,METAR,251.0
KARA 121353Z 16007KT 10SM FEW026 SCT055 OVC095 16/14 A3000 RMK AO2 RAB1258E30 SLP158 P0001 T01560144,KARA,2019-01-12T13:53:00Z,30.03,-91.88,15.6,14.4,160,7,,10.0,30.0,1015.8,,,TRUE,,,,,,,FEW,2600,SCT,5500,OVC,9500,,,VFR,,,,,,0.01,,,,,,METAR,18.0
KAPF 121353Z 08008KT 10SM SCT050 19/14 A3018 RMK AO2 SLP218 T01890139 $,KAPF,2019-01-12T13:53:00Z,26.15,-81.77,18.9,13.9,80,8,,10.0,30.180119,1021.8,,,TRUE,TRUE,,,,,,SCT,5000,,,,,,,VFR,,,,,,,,,,,,METAR,3.0
KAPA 121353Z 33005KT 3SM -SN BR BKN008 OVC016 M01/M02 A3019 RMK AO2 SLP253 P0000 T10111017,KAPA,2019-01-12T13:53:00Z,39.57,-104.85,-1.1,-1.7,330,5,,3.0,30.188976,1025.3,,,TRUE,,,,,,-SN BR,BKN,800,OVC,1600,,,,,IFR,,,,,,0.005,,,,,,METAR,1775.0
KAOO 121353Z AUTO 06004KT 8SM OVC090 M06/M08 A3043 RMK AO2 SLP331 T10561083,KAOO,2019-01-12T13:53:00Z,40.3,-78.32,-5.6,-8.3,60,4,,8.0,30.431103,1033.1,,TRUE,TRUE,,,,,,,OVC,9000,,,,,,,VFR,,,,,,,,,,,,METAR,455.0
KAOH 121353Z AUTO 10007KT 10SM OVC050 M02/M06 A3035 RMK AO2 SLP291 T10221061,KAOH,2019-01-12T13:53:00Z,40.7,-84.02,-2.2,-6.1,100,7,,10.0,30.351377,1029.1,,TRUE,TRUE,,,,,,,OVC,5000,,,,,,,VFR,,,,,,,,,,,,METAR,296.0
KANB 121353Z AUTO 08008KT 10SM SCT034 BKN042 OVC050 07/M03 A3023 RMK AO2 SLP245 T00721033,KANB,2019-01-12T13:53:00Z,33.58,-85.85,7.2,-3.3,80,8,,10.0,30.230314,1024.5,,TRUE,TRUE,,,,,,,SCT,3400,BKN,4200,OVC,5000,,,VFR,,,,,,,,,,,,METAR,183.0
KAMG 121353Z AUTO 07006KT 10SM OVC060 10/06 A3030 RMK AO2 SLP259 T01000056 $,KAMG,2019-01-12T13:53:00Z,31.53,-82.5,10.0,5.6,70,6,,10.0,30.301182,1025.9,,TRUE,TRUE,TRUE,,,,,,OVC,6000,,,,,,,VFR,,,,,,,,,,,,METAR,59.0
KAMA 121353Z 34022G28KT 10SM OVC012 01/M02 A3007 RMK AO2 PK WND 35030/1303 SLP190 T00061017,KAMA,2019-01-12T13:53:00Z,35.22,-101.72,0.6,-1.7,340,22,28,10.0,30.070866,1019.0,,,TRUE,,,,,,,OVC,1200,,,,,,,MVFR,,,,,,,,,,,,METAR,1093.0
KALW 121353Z AUTO 00000KT 1/2SM R20/2200V2400FT FG VV002 02/00 A3014 RMK AO2 SLP217 T00170000,KALW,2019-01-12T13:53:00Z,46.1,-118.28,1.7,0.0,0,0,,0.5,30.138779,1021.7,,TRUE,TRUE,,,,,,FG,OVX,0,,,,,,,LIFR,,,,,,,,,,,200,METAR,363.0
KALI 121353Z AUTO 35004KT M1/4SM FG VV002 12/12 A3006 RMK AO2 SLP177 T01220122,KALI,2019-01-12T13:53:00Z,27.73,-98.02,12.2,12.2,350,4,,0.25,30.059055,1017.7,,TRUE,TRUE,,,,,,FG,OVX,0,,,,,,,LIFR,,,,,,,,,,,200,METAR,53.0
KAIA 121353Z AUTO 29006KT 10SM CLR M11/M11 A3017 RMK AO2 SLP258 T11061111,KAIA,2019-01-12T13:53:00Z,42.05,-102.8,-10.6,-11.1,290,6,,10.0,30.171259,1025.8,,TRUE,TRUE,,,,,,,CLR,,,,,,,,VFR,,,,,,,,,,,,METAR,1196.0
KAGS 121353Z 07006KT 10SM OVC018 06/M03 A3039 RMK AO2 SLP291 T00561033,KAGS,2019-01-12T13:53:00Z,33.37,-81.97,5.6,-3.3,70,6,,10.0,30.389763,1029.1,,,TRUE,,,,,,,OVC,1800,,,,,,,MVFR,,,,,,,,,,,,METAR,44.0
KAGC 121353Z 00000KT 10SM BKN100 M04/M09 A3037 RMK AO2 SLP308 T10441089,KAGC,2019-01-12T13:53:00Z,40.35,-79.92,-4.4,-8.9,0,0,,10.0,30.369095,1030.8,,,TRUE,,,,,,,BKN,10000,,,,,,,VFR,,,,,,,,,,,,METAR,389.0
KAFW 121353Z 28011KT 10SM FEW150 05/01 A2999 RMK AO2 SLP158 T00500011,KAFW,2019-01-12T13:53:00Z,32.97,-97.32,5.0,1.1,280,11,,10.0,29.991142,1015.8,,,TRUE,,,,,,,FEW,15000,,,,,,,VFR,,,,,,,,,,,,METAR,233.0
KADG 121353Z AUTO 10007KT 10SM SCT090 M03/M07 A3042 RMK AO2 SLP314 T10331072 TSNO,KADG,2019-01-12T13:53:00Z,41.87,-84.08,-3.3,-7.2,100,7,,10.0,30.41929,1031.4,,TRUE,TRUE,,,TRUE,,,,SCT,9000,,,,,,,VFR,,,,,,,,,,,,METAR,241.0
KACV 121353Z AUTO 07003KT 10SM BKN055 OVC070 11/09 A2991 RMK AO2 SLP133 T01060094,KACV,2019-01-12T13:53:00Z,40.98,-124.1,10.6,9.4,70,3,,10.0,29.911417,1013.3,,TRUE,TRUE,,,,,,,BKN,5500,OVC,7000,,,,,VFR,,,,,,,,,,,,METAR,67.0
KACK 121353Z 30014KT 10SM CLR M06/M16 A3047 RMK AO2 SLP316 T10561161,KACK,2019-01-12T13:53:00Z,41.25,-70.07,-5.6,-16.1,300,14,,10.0,30.469488,1031.6,,,TRUE,,,,,,,CLR,,,,,,,,VFR,,,,,,,,,,,,METAR,16.0
KHSI 121353Z AUTO 36016G23KT 5SM BR OVC008 M03/M05 A3016 RMK AO2 PK WND 36026/1329 SLP234 T10331050,KHSI,2019-01-12T13:53:00Z,40.6,-98.43,-3.3,-5.0,360,16,23,5.0,30.159449,1023.4,,TRUE,TRUE,,,,,,BR,OVC,800,,,,,,,IFR,,,,,,,,,,,,SPECI,591.0
KHSV 121353Z 15008KT 10SM OVC022 08/00 A3021 RMK AO2 SLP230 T00830000,KHSV,2019-01-12T13:53:00Z,34.65,-86.78,8.3,0.0,150,8,,10.0,30.209646,1023.0,,,TRUE,,,,,,,OVC,2200,,,,,,,MVFR,,,,,,,,,,,,METAR,191.0
KWVI 121353Z AUTO 00000KT 10SM -RA FEW040 FEW050 OVC070 10/10 A2994 RMK AO2 SLP137 P0000 T01000100,KWVI,2019-01-12T13:53:00Z,36.93,-121.78,10.0,10.0,0,0,,10.0,29.940945,1013.7,,TRUE,TRUE,,,,,,-RA,FEW,4000,FEW,5000,OVC,7000,,,VFR,,,,,,0.005,,,,,,METAR,43.0
KWST 121353Z AUTO 29006KT 10SM OVC085 M06/M14 A3051 RMK AO2 SLP333 T10561139,KWST,2019-01-12T13:53:00Z,41.35,-71.8,-5.6,-13.9,290,6,,10.0,30.510826,1033.3,,TRUE,TRUE,,,,,,,OVC,8500,,,,,,,VFR,,,,,,,,,,,,METAR,21.0
KHTL 121353Z AUTO 06007KT 10SM BKN019 OVC070 M06/M09 A3045 RMK AO2 SLP333 T10611094,KHTL,2019-01-12T13:53:00Z,44.35,-84.67,-6.1,-9.4,60,7,,10.0,30.448818,1033.3,,TRUE,TRUE,,,,,,,BKN,1900,OVC,7000,,,,,MVFR,,,,,,,,,,,,SPECI,351.0
KHUL 121353Z AUTO 29008KT 10SM FEW055 FEW070 M18/M23 A3015 RMK AO2 SLP225 T11781228 TSNO,KHUL,2019-01-12T13:53:00Z,46.12,-67.8,-17.8,-22.8,290,8,,10.0,30.15059,1022.5,,TRUE,TRUE,,,TRUE,,,,FEW,5500,FEW,7000,,,,,VFR,,,,,,,,,,,,METAR,150.0
KHUF 121353Z 10006KT 1 1/4SM -SN BR BKN006 OVC014 M01/M02 A3026 RMK AO2 SLP252 P0002 T10111017,KHUF,2019-01-12T13:53:00Z,39.45,-87.3,-1.1,-1.7,100,6,,1.25,30.259842,1025.2,,,TRUE,,,,,,-SN BR,BKN,600,OVC,1400,,,,,IFR,,,,,,0.02,,,,,,METAR,179.0
KHVN 121353Z 31006KT 10SM BKN085 M06/M14 A3053 RMK AO2 SLP338 T10561139,KHVN,2019-01-12T13:53:00Z,41.27,-72.87,-5.6,-13.9,310,6,,10.0,30.528543,1033.8,,,TRUE,,,,,,,BKN,8500,,,,,,,VFR,,,,,,,,,,,,METAR,4.0
KHVR 121353Z AUTO 09005KT 10SM CLR M12/M13 A3009 RMK AO2 SLP233 I1000 T11171133,KHVR,2019-01-12T13:53:00Z,48.55,-109.77,-11.7,-13.3,90,5,,10.0,30.088583,1023.3,,TRUE,TRUE,,,,,,,CLR,,,,,,,,VFR,,,,,,,,,,,,SPECI,787.0
KHWO 121353Z 11010G18KT 10SM SCT055 23/14 A3021 RMK AO2 SLP229 T02330144,KHWO,2019-01-12T13:53:00Z,26.0,-80.23,23.3,14.4,110,10,18,10.0,30.209646,1022.9,,,TRUE,,,,,,,SCT,5500,,,,,,,VFR,,,,,,,,,,,,METAR,2.0
KHYR 121353Z AUTO 05006KT 10SM OVC033 M03/M08 A3037 RMK AO2 SLP302 T10331078,KHYR,2019-01-12T13:53:00Z,46.02,-91.45,-3.3,-7.8,50,6,,10.0,30.369095,1030.2,,TRUE,TRUE,,,,,,,OVC,3300,,,,,,,VFR,,,,,,,,,,,,METAR,370.0
PAAQ 121353Z AUTO 00000KT 10SM SCT065 M21/M22 A2983 RMK AO2 SLP111 T12061222 TSNO,PAAQ,2019-01-12T13:53:00Z,61.6,-149.08,-20.6,-22.2,0,0,,10.0,29.828741,1011.1,,TRUE,TRUE,,,TRUE,,,,SCT,6500,,,,,,,VFR,,,,,,,,,,,,METAR,73.0
PABE 121353Z 03020KT 6SM HZ SCT110 M31/M33 A2961 RMK AO2 PK WND 03026/1321 SLP032 T13061333 $,PABE,2019-01-12T13:53:00Z,60.78,-161.83,-30.6,-33.3,30,20,,6.0,29.610237,1003.2,,,TRUE,TRUE,,,,,HZ,SCT,11000,,,,,,,VFR,,,,,,,,,,,,METAR,41.0
PABI 121353Z AUTO 10005KT 10SM CLR M38/ A2994 RMK AO2 SLP233 T1378 TSNO,PABI,2019-01-12T13:53:00Z,64.0,-145.72,-37.8,,100,5,,10.0,29.940945,1023.3,,TRUE,TRUE,,,TRUE,,,,CLR,,,,,,,,VFR,,,,,,,,,,,,METAR,386.0
PACD 121353Z AUTO 04009KT 10SM FEW023 OVC037 03/00 A2911 RMK AO2 RAE19 SLP858 P0000 T00280000 TSNO,PACD,2019-01-12T13:53:00Z,55.2,-162.72,2.8,0.0,40,9,,10.0,29.111221,985.8,,TRUE,TRUE,,,TRUE,,,,FEW,2300,OVC,3700,,,,,VFR,,,,,,0.005,,,,,,METAR,30.0
PABT 121353Z 02004KT 10SM CLR M36/ A3007 RMK AO2 SLP217 T1356 PNO,PABT,2019-01-12T13:53:00Z,66.92,-151.52,-35.6,,20,4,,10.0,30.070866,1021.7,,,TRUE,,,,,,,CLR,,,,,,,,VFR,,,,,,,,,,,,METAR,195.0
PACV 121353Z 00000KT 10SM FEW050 FEW160 M10/M12 A2977 RMK AO2 SLP082 T11001122,PACV,2019-01-12T13:53:00Z,60.5,-145.47,-10.0,-12.2,0,0,,10.0,29.769686,1008.2,,,TRUE,,,,,,,FEW,5000,FEW,16000,,,,,VFR,,,,,,,,,,,,METAR,12.0
PADE 121353Z AUTO 21004KT 10SM CLR A3006 RMK AO2 SLP181 TSNO $,PADE,2019-01-12T13:53:00Z,66.07,-162.77,,,210,4,,10.0,30.059055,1018.1,,TRUE,TRUE,TRUE,,TRUE,,,,CLR,,,,,,,,VFR,,,,,,,,,,,,METAR,5.0
PADQ 121353Z AUTO 08016KT 10SM FEW021 BKN047 OVC055 02/00 A2951 RMK AO2 PK WND 09030/1337 RAE1254 SLP992 P0000 T00220000 TSNO,PADQ,2019-01-12T13:53:00Z,57.75,-152.5,2.2,0.0,80,16,,10.0,29.509842,999.2,,TRUE,TRUE,,,TRUE,,,,FEW,2100,BKN,4700,OVC,5500,,,VFR,,,,,,0.005,,,,,,METAR,34.0
PAEG 121353Z AUTO 00000KT 10SM CLR M38/ A3006 RMK AO2 SLP218 T1383 TSNO,PAEG,2019-01-12T13:53:00Z,64.78,-141.15,-38.3,,0,0,,10.0,30.059055,1021.8,,TRUE,TRUE,,,TRUE,,,,CLR,,,,,,,,VFR,,,,,,,,,,,,METAR,268.0
PANN 121353Z AUTO 09008KT 10SM CLR M34/M37 A3000 RMK AO2 SLP183 T13391372 TSNO,PANN,2019-01-12T13:53:00Z,64.55,-149.08,-33.9,-37.2,90,8,,10.0,30.0,1018.3,,TRUE,TRUE,,,TRUE,,,,CLR,,,,,,,,VFR,,,,,,,,,,,,METAR,110.0
PANC 121353Z 03009KT 10SM OVC060 M17/M23 A2984 RMK AO2 SLP110 T11721228,PANC,2019-01-12T13:53:00Z,61.17,-150.0,-17.2,-22.8,30,9,,10.0,29.840551,1011.0,,,TRUE,,,,,,,OVC,6000,,,,,,,VFR,,,,,,,,,,,,METAR,38.0
PAMR 121353Z 02008KT 10SM OVC055 M18/M21 A2985 RMK AO2 SLP112 T11781211 $,PAMR,2019-01-12T13:53:00Z,61.22,-149.85,-17.8,-21.1,20,8,,10.0,29.84941,1011.2,,,TRUE,TRUE,,,,,,OVC,5500,,,,,,,VFR,,,,,,,,,,,,METAR,41.0
PAMC 121353Z AUTO 33003KT 10SM CLR M44/ A2992 RMK AO2 SLP153 T1444 TSNO $,PAMC,2019-01-12T13:53:00Z,62.97,-155.62,-44.4,,330,3,,10.0,29.920275,1015.3,,TRUE,TRUE,TRUE,,TRUE,,,,CLR,,,,,,,,VFR,,,,,,,,,,,,METAR,103.0
PALH 121353Z 03010KT 10SM OVC060 M18/M22 A2986 RMK AO2 SLP114 T11781217,PALH,2019-01-12T13:53:00Z,61.18,-149.97,-17.8,-21.7,30,10,,10.0,29.861221,1011.4,,,TRUE,,,,,,,OVC,6000,,,,,,,VFR,,,,,,,,,,,,METAR,22.0
PAKW 121353Z AUTO 07003KT 10SM CLR 01/00 A2983 RMK AO2 SLP101 I1000 T00060000 TSNO,PAKW,2019-01-12T13:53:00Z,55.58,-133.07,0.6,0.0,70,3,,10.0,29.828741,1010.1,,TRUE,TRUE,,,TRUE,,,,CLR,,,,,,,,VFR,,,,,,,,,,,,METAR,15.0
PAKV 121353Z AUTO 22003KT 7SM CLR M45/ A3003 RMK AO2 SLP180 T1450 TSNO $,PAKV,2019-01-12T13:53:00Z,64.33,-158.75,-45.0,,220,3,,7.0,30.029528,1018.0,,TRUE,TRUE,TRUE,,TRUE,,,,CLR,,,,,,,,VFR,,,,,,,,,,,,METAR,61.0
PAJN 121353Z 00000KT 3SM -RASN BR SCT003 BKN010 OVC030 01/01 A2986 RMK AO2 SLP110 P0000 T00060006 $,PAJN,2019-01-12T13:53:00Z,58.35,-134.58,0.6,0.6,0,0,,3.0,29.861221,1011.0,,,TRUE,TRUE,,,,,-RA -SN BR,SCT,300,BKN,1000,OVC,3000,,,MVFR,,,,,,0.005,,,,,,METAR,5.0
PAIL 121353Z AUTO 36010KT 10SM OVC029 M12/M17 A2961 RMK AO2 SLP033 T11171167 TSNO $,PAIL,2019-01-12T13:53:00Z,59.75,-154.92,-11.7,-16.7,360,10,,10.0,29.610237,1003.3,,TRUE,TRUE,TRUE,,TRUE,,,,OVC,2900,,,,,,,MVFR,,,,,,,,,,,,METAR,49.0
PAHO 121353Z AUTO 06006KT 10SM BKN044 OVC060 M09/M12 A2969 RMK AO2 SLP055 T10891117 TSNO,PAHO,2019-01-12T13:53:00Z,59.63,-151.47,-8.9,-11.7,60,6,,10.0,29.68996,1005.5,,TRUE,TRUE,,,TRUE,,,,BKN,4400,OVC,6000,,,,,VFR,,,,,,,,,,,,METAR,28.0
PAGY 121353Z AUTO 00000KT 2SM -SN BR OVC025 M03/M04 A2988 RMK AO2 SLP118 P0001 T10281039 TSNO,PAGY,2019-01-12T13:53:00Z,59.47,-135.3,-2.8,-3.9,0,0,,2.0,29.878937,1011.8,,TRUE,TRUE,,,TRUE,,,-SN BR,OVC,2500,,,,,,,IFR,,,,,,0.01,,,,,,METAR,5.0
PAGK 121353Z AUTO 32004KT 10SM CLR M29/M32 A2990 RMK AO2 SLP216 T12891317 TSNO,PAGK,2019-01-12T13:53:00Z,62.15,-145.45,-28.9,-31.7,320,4,,10.0,29.899607,1021.6,,TRUE,TRUE,,,TRUE,,,,CLR,,,,,,,,VFR,,,,,,,,,,,,METAR,481.0
PAFA 121353Z 05004KT 1SM BR SCT001 M42/ A3006 RMK AO2 SLP204 T1417 RVRNO PNO $,PAFA,2019-01-12T13:53:00Z,64.8,-147.85,-41.7,,50,4,,1.0,30.059055,1020.4,,,TRUE,TRUE,,,,,BR,SCT,100,,,,,,,IFR,,,,,,,,,,,,METAR,132.0
PAEN 121353Z AUTO 05011KT 10SM BKN060 M16/M19 A2984 RMK AO2 SLP109 T11561194 TSNO,PAEN,2019-01-12T13:53:00Z,60.57,-151.25,-15.6,-19.4,50,11,,10.0,29.840551,1010.9,,TRUE,TRUE,,,TRUE,,,,BKN,6000,,,,,,,VFR,,,,,,,,,,,,METAR,27.0
KBPK 121353Z AUTO 15007KT 8SM -RA OVC005 01/00 A2996 RMK AO2 SLP151 P0002 T00060000,KBPK,2019-01-12T13:53:00Z,36.37,-92.47,0.6,0.0,150,7,,8.0,29.958662,1015.1,,TRUE,TRUE,,,,,,-RA,OVC,500,,,,,,,IFR,,,,,,0.02,,,,,,METAR,280.0
KBRD 121353Z AUTO 06007KT 6SM HZ OVC030 M04/M08 A3037 RMK AO2 SLP306 T10391078,KBRD,2019-01-12T13:53:00Z,46.4,-94.13,-3.9,-7.8,60,7,,6.0,30.369095,1030.6,,TRUE,TRUE,,,,,,HZ,OVC,3000,,,,,,,MVFR,,,,,,,,,,,,METAR,372.0
KBRO 121353Z 00000KT 5SM BR FEW003 15/15 A3006 RMK AO2 SLP177 T01500150,KBRO,2019-01-12T13:53:00Z,25.92,-97.42,15.0,15.0,0,0,,5.0,30.059055,1017.7,,,TRUE,,,,,,BR,FEW,300,,,,,,,MVFR,,,,,,,,,,,,METAR,7.0
KBTL 121353Z 10006KT 10SM OVC075 M03/M07 A3038 RMK AO2 SLP301 T10281072,KBTL,2019-01-12T13:53:00Z,42.32,-85.23,-2.8,-7.2,100,6,,10.0,30.380905,1030.1,,,TRUE,,,,,,,OVC,7500,,,,,,,VFR,,,,,,,,,,,,METAR,290.0
KBTM 121353Z AUTO 15003KT 10SM CLR M19/M23 A3019 RMK AO2 SLP328 T11941228,KBTM,2019-01-12T13:53:00Z,45.97,-112.5,-19.4,-22.8,150,3,,10.0,30.188976,1032.8,,TRUE,TRUE,,,,,,,CLR,,,,,,,,VFR,,,,,,,,,,,,METAR,1688.0
KBUR 121353Z 00000KT 10SM -RA BKN039 OVC047 09/08 A2998 RMK AO2 SLP147 P0001 T00940083,KBUR,2019-01-12T13:53:00Z,34.2,-118.37,9.4,8.3,0,0,,10.0,29.97933,1014.7,,,TRUE,,,,,,-RA,BKN,3900,OVC,4700,,,,,VFR,,,,,,0.01,,,,,,METAR,217.0
KBTR 121353Z 10005KT 10SM BKN024 BKN032 OVC043 12/12 A3001 RMK AO2 RAB07E41 SLP163 P0000 T01220117,KBTR,2019-01-12T13:53:00Z,30.53,-91.15,12.2,11.7,100,5,,10.0,30.008858,1016.3,,,TRUE,,,,,,,BKN,2400,BKN,3200,OVC,4300,,,MVFR,,,,,,0.005,,,,,,METAR,21.0
KBVY 121353Z 28012G19KT 10SM CLR M09/M19 A3046 RMK AO2 SLP312 T10891189,KBVY,2019-01-12T13:53:00Z,42.58,-70.92,-8.9,-18.9,280,12,19,10.0,30.46063,1031.2,,,TRUE,,,,,,,CLR,,,,,,,,VFR,,,,,,,,,,,,METAR,28.0
KBYG 121353Z AUTO 25006KT 10SM CLR M04/M12 A3014 RMK AO2 SLP239 T10441117,KBYG,2019-01-12T13:53:00Z,44.38,-106.72,-4.4,-11.7,250,6,,10.0,30.138779,1023.9,,TRUE,TRUE,,,,,,,CLR,,,,,,,,VFR,,,,,,,,,,,,METAR,1497.0
KBWG 121353Z AUTO 07003KT 10SM OVC110 03/01 A3024 RMK AO2 SLP244 T00280006,KBWG,2019-01-12T13:53:00Z,36.97,-86.42,2.8,0.6,70,3,,10.0,30.239174,1024.4,,TRUE,TRUE,,,,,,,OVC,11000,,,,,,,VFR,,,,,,,,,,,,METAR,168.0
KCAG 121353Z AUTO 03007KT 8SM OVC007 M05/M06 A3022 RMK AO2 CIG 005V010 SLP270 T10501061,KCAG,2019-01-12T13:53:00Z,40.5,-107.52,-5.0,-6.1,30,7,,8.0,30.221457,1027.0,,TRUE,TRUE,,,,,,,OVC,700,,,,,,,IFR,,,,,,,,,,,,METAR,1887.0
KCCR 121353Z AUTO 00000KT 10SM OVC070 09/07 A2995 RMK AO2 SLP128 T00940067,KCCR,2019-01-12T13:53:00Z,38.0,-122.05,9.4,6.7,0,0,,10.0,29.949802,1012.8,,TRUE,TRUE,,,,,,,OVC,7000,,,,,,,VFR,,,,,,,,,,,,METAR,11.0
KCDC 121353Z AUTO 00000KT 1 1/4SM BR OVC002 M04/M05 A3018 RMK AO2 SLP239 I1001 T10441050,KCDC,2019-01-12T13:53:00Z,37.7,-113.1,-4.4,-5.0,0,0,,1.25,30.180119,1023.9,,TRUE,TRUE,,,,,,BR,OVC,200,,,,,,,LIFR,,,,,,,,,,,,METAR,1714.0
KCDS 121353Z AUTO 34019KT 10SM OVC025 03/M01 A3007 RMK AO2 SLP186 T00331011,KCDS,2019-01-12T13:53:00Z,34.43,-100.28,3.3,-1.1,340,19,,10.0,30.070866,1018.6,,TRUE,TRUE,,,,,,,OVC,2500,,,,,,,MVFR,,,,,,,,,,,,METAR,594.0
KCDW 121353Z 00000KT 10SM OVC080 M06/M12 A3055 RMK AO2 SLP353 T10561117,KCDW,2019-01-12T13:53:00Z,40.88,-74.28,-5.6,-11.7,0,0,,10.0,30.549213,1035.3,,,TRUE,,,,,,,OVC,8000,,,,,,,VFR,,,,,,,,,,,,METAR,64.0
KCHA 121353Z 18007KT 10SM SCT035 BKN110 07/M06 A3027 RMK AO2 SLP250 T00721061,KCHA,2019-01-12T13:53:00Z,35.03,-85.2,7.2,-6.1,180,7,,10.0,30.268702,1025.0,,,TRUE,,,,,,,SCT,3500,BKN,11000,,,,,VFR,,,,,,,,,,,,METAR,210.0
KCGI 121353Z 10007KT 10SM OVC095 02/M01 A3012 RMK AO2 SLP201 T00171006,KCGI,2019-01-12T13:53:00Z,37.23,-89.58,1.7,-0.6,100,7,,10.0,30.121063,1020.1,,,TRUE,,,,,,,OVC,9500,,,,,,,VFR,,,,,,,,,,,,METAR,102.0
KCEZ 121353Z AUTO 08003KT 10SM OVC023 M03/M06 A3016 RMK AO2 SLP219 T10281061,KCEZ,2019-01-12T13:53:00Z,37.3,-108.63,-2.8,-6.1,80,3,,10.0,30.159449,1021.9,,TRUE,TRUE,,,,,,,OVC,2300,,,,,,,MVFR,,,,,,,,,,,,METAR,1797.0
KCEW 121353Z AUTO 10003KT 10SM OVC018 09/07 A3021 RMK AO2 SLP229 T00890067,KCEW,2019-01-12T13:53:00Z,30.78,-86.52,8.9,6.7,100,3,,10.0,30.209646,1022.9,,TRUE,TRUE,,,,,,,OVC,1800,,,,,,,MVFR,,,,,,,,,,,,METAR,55.0
KLAR 121353Z AUTO 08003KT 1/4SM FZFG VV002 M06/M08 A3016 RMK AO2 SLP247 I1001 T10611078,KLAR,2019-01-12T13:53:00Z,41.32,-105.67,-6.1,-7.8,80,3,,0.25,30.159449,1024.7,,TRUE,TRUE,,,,,,FZFG,OVX,0,,,,,,,LIFR,,,,,,,,,,,200,METAR,2216.0
KLAN 121353Z 07007KT 10SM OVC070 M03/M06 A3042 RMK AO2 SLP314 T10281061,KLAN,2019-01-12T13:53:00Z,42.78,-84.58,-2.8,-6.1,70,7,,10.0,30.41929,1031.4,,,TRUE,,,,,,,OVC,7000,,,,,,,VFR,,,,,,,,,,,,SPECI,264.0
KLAL 121353Z 13003KT 10SM BKN055 16/13 A3024,KLAL,2019-01-12T13:53:00Z,27.97,-82.02,16.0,13.0,130,3,,10.0,30.239174,,,,,,,,,,,BKN,5500,,,,,,,VFR,,,,,,,,,,,,METAR,43.0
KLAA 121353Z AUTO 01010KT 10SM OVC018 02/M01 A3017 RMK AO2 SLP227 T00171006,KLAA,2019-01-12T13:53:00Z,38.07,-102.68,1.7,-0.6,10,10,,10.0,30.171259,1022.7,,TRUE,TRUE,,,,,,,OVC,1800,,,,,,,MVFR,,,,,,,,,,,,METAR,1119.0
KJKL 121353Z AUTO 04003KT 10SM BKN070 OVC085 M01/M02 A3028 RMK AO2 SLP265 T10111022,KJKL,2019-01-12T13:53:00Z,37.6,-83.32,-1.1,-2.2,40,3,,10.0,30.280512,1026.5,,TRUE,TRUE,,,,,,,BKN,7000,OVC,8500,,,,,VFR,,,,,,,,,,,,METAR,416.0
KIXD 121353Z 03009KT 9SM OVC006 M01/M01 A3000 RMK AO2 SLP166 T10061011 $,KIXD,2019-01-12T13:53:00Z,38.82,-94.88,-0.6,-1.1,30,9,,9.0,30.0,1016.6,,,TRUE,TRUE,,,,,,OVC,600,,,,,,,IFR,,,,,,,,,,,,METAR,342.0
KIWI 121353Z AUTO 28007KT 250V320 10SM CLR M12/M20 A3039 RMK AO2 SLP291 T11221200,KIWI,2019-01-12T13:53:00Z,43.97,-69.72,-12.2,-20.0,280,7,,10.0,30.389763,1029.1,,TRUE,TRUE,,,,,,,CLR,,,,,,,,VFR,,,,,,,,,,,,METAR,20.0
KITR 121353Z AUTO 34009KT 10SM BKN055 M01/M02 A3016 RMK AO2 SLP229 T10111022,KITR,2019-01-12T13:53:00Z,39.23,-102.28,-1.1,-2.2,340,9,,10.0,30.159449,1022.9,,TRUE,TRUE,,,,,,,BKN,5500,,,,,,,VFR,,,,,,,,,,,,METAR,1279.0
KIPL 121353Z AUTO 03003KT 8SM CLR 08/07 A2999 RMK AO2 SLP155 T00830067,KIPL,2019-01-12T13:53:00Z,32.83,-115.58,8.3,6.7,30,3,,8.0,29.991142,1015.5,,TRUE,TRUE,,,,,,,CLR,,,,,,,,VFR,,,,,,,,,,,,METAR,-17.0
KINK 121353Z AUTO 35006KT 10SM CLR 01/00 A3017 RMK AO2 SLP211 T00110000,KINK,2019-01-12T13:53:00Z,31.78,-103.2,1.1,0.0,350,6,,10.0,30.171259,1021.1,,TRUE,TRUE,,,,,,,CLR,,,,,,,,VFR,,,,,,,,,,,,METAR,855.0
KIML 121353Z AUTO 33007KT 10SM OVC055 M01/M04 A3019 RMK AO2 SLP245 T10061039,KIML,2019-01-12T13:53:00Z,40.52,-101.62,-0.6,-3.9,330,7,,10.0,30.188976,1024.5,,TRUE,TRUE,,,,,,,OVC,5500,,,,,,,VFR,,,,,,,,,,,,METAR,998.0
KILM 121353Z 05011KT 10SM CLR 03/M03 A3046 RMK AO2 SLP313 T00331028,KILM,2019-01-12T13:53:00Z,34.27,-77.9,3.3,-2.8,50,11,,10.0,30.46063,1031.3,,,TRUE,,,,,,,CLR,,,,,,,,VFR,,,,,,,,,,,,METAR,9.0
KICT 121353Z 01012G21KT 5SM -SN BR OVC008 01/00 A2999 RMK AO2 SNB41 SLP164 P0000 T00060000 $,KICT,2019-01-12T13:53:00Z,37.65,-97.43,0.6,0.0,10,12,21,5.0,29.991142,1016.4,,,TRUE,TRUE,,,,,-SN BR,OVC,800,,,,,,,IFR,,,,,,0.005,,,,,,METAR,407.0
KICR 121353Z AUTO 36009KT 1 3/4SM -FZRA BR OVC003 M08/M10 A3030 RMK AO2 SLP289 P0000 I1002 T10831100,KICR,2019-01-12T13:53:00Z,43.38,-99.85,-8.3,-10.0,360,9,,1.75,30.301182,1028.9,,TRUE,TRUE,,,,,,-FZRA BR,OVC,300,,,,,,,LIFR,,,,,,0.005,,,,,,METAR,621.0
KIAH 121353Z 27005KT 10SM FEW007 SCT012 SCT020 16/16 A3000 RMK AO2 SLP158 T01560156,KIAH,2019-01-12T13:53:00Z,30.0,-95.37,15.6,15.6,270,5,,10.0,30.0,1015.8,,,TRUE,,,,,,,FEW,700,SCT,1200,SCT,2000,,,VFR,,,,,,,,,,,,METAR,36.0
KIAG 121353Z COR 09006KT 10SM BKN065 OVC080 M07/M12 A3053 RMK AO2 UPB35 SLP360 P0000 T10671117 $,KIAG,2019-01-12T13:53:00Z,43.12,-78.93,-6.7,-11.7,90,6,,10.0,30.528543,1036.0,TRUE,,TRUE,TRUE,,,,,,BKN,6500,OVC,8000,,,,,VFR,,,,,,0.005,,,,,,METAR,182.0
KHZY 121353Z AUTO 09004KT 10SM OVC100 M07/M11 A3045 RMK AO2 SLP327 T10671106,KHZY,2019-01-12T13:53:00Z,41.78,-80.7,-6.7,-10.6,90,4,,10.0,30.448818,1032.7,,TRUE,TRUE,,,,,,,OVC,10000,,,,,,,VFR,,,,,,,,,,,,METAR,276.0
KCLL 121353Z 26008KT 5SM BR BKN002 OVC018 13/13 A3001 RMK AO2 SLP158 T01330133 $,KCLL,2019-01-12T13:53:00Z,30.58,-96.37,13.3,13.3,260,8,,5.0,30.008858,1015.8,,,TRUE,TRUE,,,,,BR,BKN,200,OVC,1800,,,,,LIFR,,,,,,,,,,,,SPECI,96.0
KCKB 121353Z 00000KT 10SM BKN050 OVC070 M03/M07 A3036 RMK AO2 SLP293 T10281072,KCKB,2019-01-12T13:53:00Z,39.3,-80.22,-2.8,-7.2,0,0,,10.0,30.360237,1029.3,,,TRUE,,,,,,,BKN,5000,OVC,7000,,,,,VFR,,,,,,,,,,,,METAR,360.0
KCHO 121353Z 20003KT 10SM BKN040 OVC060 00/M09 A3050 RMK AO2 SLP333 T00001089,KCHO,2019-01-12T13:53:00Z,38.13,-78.45,0.0,-8.9,200,3,,10.0,30.499016,1033.3,,,TRUE,,,,,,,BKN,4000,OVC,6000,,,,,VFR,,,,,,,,,,,,METAR,192.0
KLAW 121353Z 32011G22KT 10SM SCT016 OVC050 04/02 A2997 RMK AO2 SLP150 T00390017,KLAW,2019-01-12T13:53:00Z,34.55,-98.42,3.9,1.7,320,11,22,10.0,29.970472,1015.0,,,TRUE,,,,,,,SCT,1600,OVC,5000,,,,,VFR,,,,,,,,,,,,METAR,337.0
PAPB 121353Z AUTO 06029G36KT 1 1/4SM -SN BR OVC016 M04/M05 A2926 RMK AO2 PK WND 05038/1313 SLP896 P0000 T10391050 TSNO $,PAPB,2019-01-12T13:53:00Z,56.58,-169.67,-3.9,-5.0,60,29,36,1.25,29.258858,989.6,,TRUE,TRUE,TRUE,,TRUE,,,-SN BR,OVC,1600,,,,,,,IFR,,,,,,0.005,,,,,,METAR,35.0
PAOT 121353Z AUTO 05007KT 10SM CLR M35/ A3011 RMK AO2 SLP194 T1350 TSNO VISNO E $,PAOT,2019-01-12T13:53:00Z,66.87,-162.58,-35.0,,50,7,,10.0,30.109253,1019.4,,TRUE,TRUE,TRUE,,TRUE,,,,CLR,,,,,,,,VFR,,,,,,,,,,,,METAR,3.0
PAOR 121353Z 00000KT 7SM CLR M38/ A2995 RMK AO2 SLP254 T1378,PAOR,2019-01-12T13:53:00Z,62.97,-141.93,-37.8,,0,0,,7.0,29.949802,1025.4,,,TRUE,,,,,,,CLR,,,,,,,,VFR,,,,,,,,,,,,METAR,523.0
PAOM 121353Z AUTO 00000KT 10SM CLR M29/M33 A2993 RMK AO2 SLP135 T12891333 TSNO,PAOM,2019-01-12T13:53:00Z,64.5,-165.43,-28.9,-33.3,0,0,,10.0,29.929134,1013.5,,TRUE,TRUE,,,TRUE,,,,CLR,,,,,,,,VFR,,,,,,,,,,,,METAR,11.0
KLAX 121353Z 10006KT 10SM -RA BKN035 OVC055 12/10 A3000 RMK AO2 RAE24B40 SLP158 P0001 T01170100,KLAX,2019-01-12T13:53:00Z,33.93,-118.38,11.7,10.0,100,6,,10.0,30.0,1015.8,,,TRUE,,,,,,-RA,BKN,3500,OVC,5500,,,,,VFR,,,,,,0.01,,,,,,SPECI,46.0
KLBB 121353Z 34015KT 10SM BKN031 02/M01 A3010 RMK AO2 SLP192 T00221011,KLBB,2019-01-12T13:53:00Z,33.67,-101.82,2.2,-1.1,340,15,,10.0,30.100393,1019.2,,,TRUE,,,,,,,BKN,3100,,,,,,,VFR,,,,,,,,,,,,SPECI,993.0
KLBF 121353Z AUTO 02010KT 5SM BR OVC007 M03/M05 A3020 RMK AO2 SLP250 T10331050,KLBF,2019-01-12T13:53:00Z,41.12,-100.67,-3.3,-5.0,20,10,,5.0,30.200787,1025.0,,TRUE,TRUE,,,,,,BR,OVC,700,,,,,,,IFR,,,,,,,,,,,,METAR,847.0
KLBX 121353Z AUTO 31009G17KT 6SM BR OVC004 16/16 A3002 RMK AO2 SLP164 T01610161,KLBX,2019-01-12T13:53:00Z,29.12,-95.47,16.1,16.1,310,9,17,6.0,30.02067,1016.4,,TRUE,TRUE,,,,,,BR,OVC,400,,,,,,,LIFR,,,,,,,,,,,,METAR,6.0
KLEB 121353Z 00000KT 10SM CLR M24/M27 A3047 RMK AO2 SLP350 T12441272,KLEB,2019-01-12T13:53:00Z,43.63,-72.3,-24.4,-27.2,0,0,,10.0,30.469488,1035.0,,,TRUE,,,,,,,CLR,,,,,,,,VFR,,,,,,,,,,,,METAR,171.0
KLEE 121353Z 08006KT 10SM CLR 18/13 A3025 RMK AO2 SLP242 T01780128,KLEE,2019-01-12T13:53:00Z,28.82,-81.82,17.8,12.8,80,6,,10.0,30.250984,1024.2,,,TRUE,,,,,,,CLR,,,,,,,,VFR,,,,,,,,,,,,METAR,23.0
KMSY 121353Z 17009KT 10SM FEW040 BKN150 OVC250 17/14 A3003 RMK AO2 SLP170 T01720144 $,KMSY,2019-01-12T13:53:00Z,30.0,-90.25,17.2,14.4,170,9,,10.0,30.029528,1017.0,,,TRUE,TRUE,,,,,,FEW,4000,BKN,15000,OVC,25000,,,VFR,,,,,,,,,,,,METAR,5.0
KMSP 121353Z 07008KT 8SM BKN055 OVC100 M06/M08 A3033 RMK AO2 SLP284 T10561078,KMSP,2019-01-12T13:53:00Z,44.88,-93.23,-5.6,-7.8,70,8,,8.0,30.33071,1028.4,,,TRUE,,,,,,,BKN,5500,OVC,10000,,,,,VFR,,,,,,,,,,,,METAR,265.0
KMSO 121353Z 13004KT 10SM OVC009 M06/M08 A3026 RMK AO2 SLP291 T10611078,KMSO,2019-01-12T13:53:00Z,46.92,-114.1,-6.1,-7.8,130,4,,10.0,30.259842,1029.1,,,TRUE,,,,,,,OVC,900,,,,,,,IFR,,,,,,,,,,,,METAR,975.0
KMSN 121353Z 07006KT 6SM HZ OVC018 M02/M06 A3033 RMK AO2 SLP283 T10221056,KMSN,2019-01-12T13:53:00Z,43.13,-89.35,-2.2,-5.6,70,6,,6.0,30.33071,1028.3,,,TRUE,,,,,,HZ,OVC,1800,,,,,,,MVFR,,,,,,,,,,,,METAR,261.0
KMSL 121353Z AUTO 11004KT 10SM FEW110 07/01 A3020 RMK AO2 SLP226 T00720011,KMSL,2019-01-12T13:53:00Z,34.75,-87.6,7.2,1.1,110,4,,10.0,30.200787,1022.6,,TRUE,TRUE,,,,,,,FEW,11000,,,,,,,VFR,,,,,,,,,,,,METAR,164.0
KLFK 121353Z AUTO 00000KT 1/4SM FG VV002 11/11 A2997 RMK AO2 SLP147 T01060106,KLFK,2019-01-12T13:53:00Z,31.23,-94.75,10.6,10.6,0,0,,0.25,29.970472,1014.7,,TRUE,TRUE,,,,,,FG,OVX,0,,,,,,,LIFR,,,,,,,,,,,200,METAR,88.0
KMTH 121353Z AUTO 12008KT 10SM FEW036 FEW043 SCT055 25/16 A3016 RMK AO2 SLP212 T02500161 $,KMTH,2019-01-12T13:53:00Z,24.73,-81.05,25.0,16.1,120,8,,10.0,30.159449,1021.2,,TRUE,TRUE,TRUE,,,,,,FEW,3600,FEW,4300,SCT,5500,,,VFR,,,,,,,,,,,,METAR,2.0
KMTO 121353Z AUTO 10009KT 3/4SM -SN BR SCT008 BKN012 OVC019 M01/M02 A3021 RMK AO2 SLP238 P0000 T10111017,KMTO,2019-01-12T13:53:00Z,39.47,-88.27,-1.1,-1.7,100,9,,0.75,30.209646,1023.8,,TRUE,TRUE,,,,,,-SN BR,SCT,800,BKN,1200,OVC,1900,,,LIFR,,,,,,0.005,,,,,,METAR,214.0
KMWL 121353Z AUTO 30012KT 10SM CLR 04/01 A3001 RMK AO2 SLP160 T00440006,KMWL,2019-01-12T13:53:00Z,32.78,-98.07,4.4,0.6,300,12,,10.0,30.008858,1016.0,,TRUE,TRUE,,,,,,,CLR,,,,,,,,VFR,,,,,,,,,,,,METAR,284.0
KMVY 121353Z 32011G17KT 10SM CLR M06/M16 A3048 RMK AO2 SLP321 T10611156,KMVY,2019-01-12T13:53:00Z,41.4,-70.62,-6.1,-15.6,320,11,17,10.0,30.481298,1032.1,,,TRUE,,,,,,,CLR,,,,,,,,VFR,,,,,,,,,,,,METAR,16.0
KOSU 121353Z 07005KT 3/4SM -SN BR VV017 M03/M05 A3035 RMK AO2 SLP291 P0000 T10331050,KOSU,2019-01-12T13:53:00Z,40.08,-83.08,-3.3,-5.0,70,5,,0.75,30.351377,1029.1,,,TRUE,,,,,,-SN BR,OVX,0,,,,,,,LIFR,,,,,,0.005,,,,,1700,METAR,280.0
KOSH 121353Z 06005KT 5SM HZ OVC017 M01/M04 A3037 RMK AO2 SLP300 T10111039,KOSH,2019-01-12T13:53:00Z,43.97,-88.55,-1.1,-3.9,60,5,,5.0,30.369095,1030.0,,,TRUE,,,,,,HZ,OVC,1700,,,,,,,MVFR,,,,,,,,,,,,METAR,248.0
KORL 121353Z 09008KT 10SM CLR 18/14 A3024 RMK AO2 SLP245 T01780139,KORL,2019-01-12T13:53:00Z,28.55,-81.33,17.8,13.9,90,8,,10.0,30.239174,1024.5,,,TRUE,,,,,,,CLR,,,,,,,,VFR,,,,,,,,,,,,METAR,37.0
KOPF 121353Z 12014KT 10SM CLR 23/14 A3020 RMK AO2 SLP227 T02330144,KOPF,2019-01-12T13:53:00Z,25.92,-80.28,23.3,14.4,120,14,,10.0,30.200787,1022.7,,,TRUE,,,,,,,CLR,,,,,,,,VFR,,,,,,,,,,,,METAR,16.0
KONT 121353Z 01008KT 7SM BKN045 OVC080 10/07 A3001 RMK AO2 RAE37 SLP162 P0005 T01000072,KONT,2019-01-12T13:53:00Z,34.05,-117.58,10.0,7.2,10,8,,7.0,30.008858,1016.2,,,TRUE,,,,,,,BKN,4500,OVC,8000,,,,,VFR,,,,,,0.05,,,,,,METAR,274.0
KONO 121353Z AUTO 02004KT 10SM OVC028 M01/M03 A3027 RMK AO2 SLP272 T10061028,KONO,2019-01-12T13:53:00Z,44.02,-117.02,-0.6,-2.8,20,4,,10.0,30.268702,1027.2,,TRUE,TRUE,,,,,,,OVC,2800,,,,,,,MVFR,,,,,,,,,,,,METAR,667.0
KOMK 121353Z AUTO 00000KT 1/4SM FZFG VV002 M01/M02 A3019 RMK AO2 SLP238 I1001 T10111017,KOMK,2019-01-12T13:53:00Z,48.47,-119.52,-1.1,-1.7,0,0,,0.25,30.188976,1023.8,,TRUE,TRUE,,,,,,FZFG,OVX,0,,,,,,,LIFR,,,,,,,,,,,200,METAR,395.0
KOLF 121353Z AUTO 07006KT 10SM CLR M13/M15 A3024 RMK AO2 SLP283 T11331150 TSNO,KOLF,2019-01-12T13:53:00Z,48.1,-105.58,-13.3,-15.0,70,6,,10.0,30.239174,1028.3,,TRUE,TRUE,,,TRUE,,,,CLR,,,,,,,,VFR,,,,,,,,,,,,METAR,604.0
KOGB 121353Z AUTO 07006KT 10SM SCT050 SCT070 04/M04 A3040 RMK AO2 SLP296 T00391044,KOGB,2019-01-12T13:53:00Z,33.47,-80.85,3.9,-4.4,70,6,,10.0,30.398623,1029.6,,TRUE,TRUE,,,,,,,SCT,5000,SCT,7000,,,,,VFR,,,,,,,,,,,,METAR,59.0
KODX 121353Z AUTO 35017G22KT 10SM SCT008 OVC019 M06/M08 A3021 RMK AO2 SLP258 T10611083,KODX,2019-01-12T13:53:00Z,41.62,-98.95,-6.1,-8.3,350,17,22,10.0,30.209646,1025.8,,TRUE,TRUE,,,,,,,SCT,800,OVC,1900,,,,,MVFR,,,,,,,,,,,,METAR,631.0
KODO 121353Z AUTO 33010KT 10SM CLR 03/M01 A3017 RMK AO2 SLP207 T00331006,KODO,2019-01-12T13:53:00Z,31.92,-102.4,3.3,-0.6,330,10,,10.0,30.171259,1020.7,,TRUE,TRUE,,,,,,,CLR,,,,,,,,VFR,,,,,,,,,,,,METAR,902.0
KOAK 121353Z 09005KT 10SM FEW012 SCT060 BKN120 11/09 A2994 RMK AO2 SLP139 T01060094,KOAK,2019-01-12T13:53:00Z,37.72,-122.23,10.6,9.4,90,5,,10.0,29.940945,1013.9,,,TRUE,,,,,,,FEW,1200,SCT,6000,BKN,12000,,,VFR,,,,,,,,,,,,METAR,26.0
KNEW 121353Z COR 14014KT 10SM SCT040 16/13 A3003 RMK AO2 SLP162 T01610128,KNEW,2019-01-12T13:53:00Z,30.05,-90.03,16.1,12.8,140,14,,10.0,30.029528,1016.2,TRUE,,TRUE,,,,,,,SCT,4000,,,,,,,VFR,,,,,,,,,,,,METAR,3.0
KMYF 121353Z COR 09008KT 6SM -RA BR FEW017 SCT050 OVC065 12/11 A3002 RMK AO2 SLP165 P0002 T01170106,KMYF,2019-01-12T13:53:00Z,32.82,-117.13,11.7,10.6,90,8,,6.0,30.02067,1016.5,TRUE,,TRUE,,,,,,-RA BR,FEW,1700,SCT,5000,OVC,6500,,,VFR,,,,,,0.02,,,,,,METAR,136.0
KOVE 121353Z AUTO 00000KT 1/4SM FG VV002 04/03 A2997 RMK AO2 SLP150 T00390028,KOVE,2019-01-12T13:53:00Z,39.5,-121.62,3.9,2.8,0,0,,0.25,29.970472,1015.0,,TRUE,TRUE,,,,,,FG,OVX,0,,,,,,,LIFR,,,,,,,,,,,200,METAR,58.0
KAZO 121353Z 10007KT 9SM OVC070 M03/M07 A3038 RMK AO2 SLP301 T10281067,KAZO,2019-01-12T13:53:00Z,42.23,-85.55,-2.8,-6.7,100,7,,9.0,30.380905,1030.1,,,TRUE,,,,,,,OVC,7000,,,,,,,VFR,,,,,,,,,,,,METAR,272.0
KAXN 121353Z AUTO 05007KT 10SM OVC030 M04/M08 A3032 RMK AO2 SLP295 T10391083,KAXN,2019-01-12T13:53:00Z,45.87,-95.4,-3.9,-8.3,50,7,,10.0,30.318897,1029.5,,TRUE,TRUE,,,,,,,OVC,3000,,,,,,,MVFR,,,,,,,,,,,,METAR,433.0
KAWM 121353Z AUTO 14010KT 5SM RA OVC055 07/04 A3003 RMK AO2 RAB12 SLP169 P0005 T00720039 $,KAWM,2019-01-12T13:53:00Z,35.13,-90.23,7.2,3.9,140,10,,5.0,30.029528,1016.9,,TRUE,TRUE,TRUE,,,,,RA,OVC,5500,,,,,,,MVFR,,,,,,0.05,,,,,,METAR,65.0
KAUS 121353Z 31011G22KT 10SM FEW012 13/09 A3003 RMK AO2 SLP168 T01280089,KAUS,2019-01-12T13:53:00Z,30.18,-97.68,12.8,8.9,310,11,22,10.0,30.029528,1016.8,,,TRUE,,,,,,,FEW,1200,,,,,,,VFR,,,,,,,,,,,,METAR,166.0
KAUG 121353Z AUTO 29011G21KT 10SM CLR M14/M22 A3034 RMK AO2 SLP283 T11441217,KAUG,2019-01-12T13:53:00Z,44.32,-69.8,-14.4,-21.7,290,11,21,10.0,30.339567,1028.3,,TRUE,TRUE,,,,,,,CLR,,,,,,,,VFR,,,,,,,,,,,,METAR,109.0
KATY 121353Z AUTO 02012KT 8SM BKN007 OVC012 M08/M09 A3027 RMK AO2 SLP283 T10781094,KATY,2019-01-12T13:53:00Z,44.9,-97.15,-7.8,-9.4,20,12,,8.0,30.268702,1028.3,,TRUE,TRUE,,,,,,,BKN,700,OVC,1200,,,,,IFR,,,,,,,,,,,,METAR,532.0
KASX 121353Z AUTO 07009KT 7SM BKN039 OVC090 M04/M07 A3044 RMK AO2 SLP322 T10391067,KASX,2019-01-12T13:53:00Z,46.55,-90.92,-3.9,-6.7,70,9,,7.0,30.43996,1032.2,,TRUE,TRUE,,,,,,,BKN,3900,OVC,9000,,,,,VFR,,,,,,,,,,,,METAR,251.0
KASE 121353Z 17004KT 10SM FEW029 BKN040 M07/M10 A3014 RMK AO2 SLP216 T10721100,KASE,2019-01-12T13:53:00Z,39.23,-106.87,-7.2,-10.0,170,4,,10.0,30.138779,1021.6,,,TRUE,,,,,,,FEW,2900,BKN,4000,,,,,VFR,,,,,,,,,,,,METAR,2354.0
PHKO 121353Z AUTO 00000KT 10SM OVC060 23/18 A2999 RMK AO2 SLP156 T02280178 TSNO,PHKO,2019-01-12T13:53:00Z,19.73,-156.05,22.8,17.8,0,0,,10.0,29.991142,1015.6,,TRUE,TRUE,,,TRUE,,,,OVC,6000,,,,,,,VFR,,,,,,,,,,,,METAR,27.0
PHTO 121353Z AUTO 24006KT 10SM FEW025 BKN036 OVC060 19/17 A3003 RMK AO2 RAB06E17 SLP167 P0000 T01940172 TSNO $,PHTO,2019-01-12T13:53:00Z,19.72,-155.05,19.4,17.2,240,6,,10.0,30.029528,1016.7,,TRUE,TRUE,TRUE,,TRUE,,,,FEW,2500,BKN,3600,OVC,6000,,,VFR,,,,,,0.005,,,,,,METAR,12.0
PHNL 121353Z 33003KT 10SM CLR 19/16 A3001 RMK AO2 SLP161 T01940161,PHNL,2019-01-12T13:53:00Z,21.33,-157.92,19.4,16.1,330,3,,10.0,30.008858,1016.1,,,TRUE,,,,,,,CLR,,,,,,,,VFR,,,,,,,,,,,,METAR,4.0
PHJR 121353Z AUTO 02004KT 10SM CLR 17/14 A3002 RMK AO2 SLP171 T01670144 TSNO,PHJR,2019-01-12T13:53:00Z,21.32,-158.07,16.7,14.4,20,4,,10.0,30.02067,1017.1,,TRUE,TRUE,,,TRUE,,,,CLR,,,,,,,,VFR,,,,,,,,,,,,METAR,15.0
PAYA 121353Z AUTO 00000KT 10SM CLR M15/M17 A2981 RMK AO2 SLP095 T11501167 TSNO,PAYA,2019-01-12T13:53:00Z,59.52,-139.67,-15.0,-16.7,0,0,,10.0,29.811024,1009.5,,TRUE,TRUE,,,TRUE,,,,CLR,,,,,,,,VFR,,,,,,,,,,,,METAR,11.0
PAWI 121353Z AUTO 06007KT 5SM HZ CLR M34/ A3034 RMK AO2 SLP278 T1344 TSNO,PAWI,2019-01-12T13:53:00Z,70.62,-159.85,-34.4,,60,7,,5.0,30.339567,1027.8,,TRUE,TRUE,,,TRUE,,,HZ,CLR,,,,,,,,MVFR,,,,,,,,,,,,METAR,27.0
PATO 121353Z AUTO 00000KT 10SM OVC042 M17/M18 A2983 RMK AO2 SNB24E44 SLP103 P0000 T11671183 TSNO $,PATO,2019-01-12T13:53:00Z,60.78,-148.85,-16.7,-18.3,0,0,,10.0,29.828741,1010.3,,TRUE,TRUE,TRUE,,TRUE,,,,OVC,4200,,,,,,,VFR,,,,,,0.005,,,,,,METAR,31.0
PATK 121353Z AUTO 05004KT 10SM OVC055 M20/M23 A2986 RMK AO2 SLP124 T12001233 TSNO,PATK,2019-01-12T13:53:00Z,62.3,-150.1,-20.0,-23.3,50,4,,10.0,29.861221,1012.4,,TRUE,TRUE,,,TRUE,,,,OVC,5500,,,,,,,VFR,,,,,,,,,,,,METAR,109.0
PASO 121353Z AUTO 36008KT 3SM -SN BR OVC011 M06/M08 A2968 RMK AO2 SLP050 P0000 T10611083 TSNO,PASO,2019-01-12T13:53:00Z,59.45,-151.7,-6.1,-8.3,360,8,,3.0,29.681103,1005.0,,TRUE,TRUE,,,TRUE,,,-SN BR,OVC,1100,,,,,,,MVFR,,,,,,0.005,,,,,,METAR,9.0
PASN 121353Z AUTO 05024G34KT 9SM -SN OVC015 M07/M10 A2935 RMK AO2 PK WND 05037/1326 SLP939 P0000 I1000 T10721100 TSNO,PASN,2019-01-12T13:53:00Z,57.15,-170.22,-7.2,-10.0,50,24,34,9.0,29.350393,993.9,,TRUE,TRUE,,,TRUE,,,-SN,OVC,1500,,,,,,,MVFR,,,,,,0.005,,,,,,METAR,29.0
KBBW 121353Z AUTO 35017KT 10SM OVC006 M05/M06 A3019 RMK AO2 SLP250 T10501061,KBBW,2019-01-12T13:53:00Z,41.43,-99.63,-5.0,-6.1,350,17,,10.0,30.188976,1025.0,,TRUE,TRUE,,,,,,,OVC,600,,,,,,,IFR,,,,,,,,,,,,METAR,776.0
KBCE 121353Z AUTO 28008KT 10SM CLR M16/M18 A3018 RMK AO2 SLP263 I1000 T11611183,KBCE,2019-01-12T13:53:00Z,37.7,-112.15,-16.1,-18.3,280,8,,10.0,30.180119,1026.3,,TRUE,TRUE,,,,,,,CLR,,,,,,,,VFR,,,,,,,,,,,,METAR,2312.0
KBEH 121353Z AUTO 09010KT 9SM OVC075 M02/M06 A3036 RMK AO2 SLP289 T10221061,KBEH,2019-01-12T13:53:00Z,42.13,-86.42,-2.2,-6.1,90,10,,9.0,30.360237,1028.9,,TRUE,TRUE,,,,,,,OVC,7500,,,,,,,VFR,,,,,,,,,,,,METAR,191.0
KBDE 121353Z AUTO 11009KT 10SM OVC009 M07/M09 A3044 RMK AO2 SLP332 T10721089,KBDE,2019-01-12T13:53:00Z,48.73,-94.62,-7.2,-8.9,110,9,,10.0,30.43996,1033.2,,TRUE,TRUE,,,,,,,OVC,900,,,,,,,IFR,,,,,,,,,,,,METAR,329.0
KBGM 121353Z 28003KT 10SM OVC060 M10/M13 A3042 RMK AO2 SLP336 T11001133,KBGM,2019-01-12T13:53:00Z,42.22,-75.98,-10.0,-13.3,280,3,,10.0,30.41929,1033.6,,,TRUE,,,,,,,OVC,6000,,,,,,,VFR,,,,,,,,,,,,METAR,490.0
KBFM 121353Z 09008KT 10SM SCT045 13/09 A3015 RMK AO2 SLP210 T01280089,KBFM,2019-01-12T13:53:00Z,30.62,-88.07,12.8,8.9,90,8,,10.0,30.15059,1021.0,,,TRUE,,,,,,,SCT,4500,,,,,,,VFR,,,,,,,,,,,,METAR,20.0
KBFI 121353Z 00000KT 10SM CLR 02/01 A2996 RMK AO2 SLP143 T00220006,KBFI,2019-01-12T13:53:00Z,47.55,-122.32,2.2,0.6,0,0,,10.0,29.958662,1014.3,,,TRUE,,,,,,,CLR,,,,,,,,VFR,,,,,,,,,,,,METAR,4.0
KBFF 121353Z AUTO 32007KT 10SM CLR M06/M06 A3020 RMK AO2 SLP258 I1000 T10561056,KBFF,2019-01-12T13:53:00Z,41.87,-103.58,-5.6,-5.6,320,7,,10.0,30.200787,1025.8,,TRUE,TRUE,,,,,,,CLR,,,,,,,,VFR,,,,,,,,,,,,SPECI,1203.0
KBFD 121353Z AUTO 12003KT 10SM OVC055 M09/M13 A3038 RMK AO2 SLP329 T10891128,KBFD,2019-01-12T13:53:00Z,41.8,-78.63,-8.9,-12.8,120,3,,10.0,30.380905,1032.9,,TRUE,TRUE,,,,,,,OVC,5500,,,,,,,VFR,,,,,,,,,,,,METAR,647.0
KBGR 121353Z 28012G18KT 10SM FEW090 M15/M22 A3029 RMK AO2 SLP264 T11501217,KBGR,2019-01-12T13:53:00Z,44.8,-68.82,-15.0,-21.7,280,12,18,10.0,30.28937,1026.4,,,TRUE,,,,,,,FEW,9000,,,,,,,VFR,,,,,,,,,,,,METAR,57.0
KBIV 121353Z AUTO 09009KT 10SM OVC080 M02/M07 A3039 RMK AO2 SLP301 T10221067,KBIV,2019-01-12T13:53:00Z,42.75,-86.1,-2.2,-6.7,90,9,,10.0,30.389763,1030.1,,TRUE,TRUE,,,,,,,OVC,8000,,,,,,,VFR,,,,,,,,,,,,METAR,208.0
KBIL 121353Z 24023G29KT 10SM CLR M02/M04 A3013 RMK AO2 PK WND 24029/1351 SLP233 T10221044,KBIL,2019-01-12T13:53:00Z,45.8,-108.55,-2.2,-4.4,240,23,29,10.0,30.129921,1023.3,,,TRUE,,,,,,,CLR,,,,,,,,VFR,,,,,,,,,,,,SPECI,1091.0
KBHM 121353Z 11006KT 10SM OVC022 09/02 A3022 RMK AO2 SLP234 T00940017,KBHM,2019-01-12T13:53:00Z,33.57,-86.75,9.4,1.7,110,6,,10.0,30.221457,1023.4,,,TRUE,,,,,,,OVC,2200,,,,,,,MVFR,,,,,,,,,,,,METAR,197.0
KDMO 121353Z AUTO 08006KT 1/2SM SN FZFG BKN006 OVC011 M02/M02 A3001 RMK AO2 SLP173 P0004 T10221022 $,KDMO,2019-01-12T13:53:00Z,38.72,-93.17,-2.2,-2.2,80,6,,0.5,30.008858,1017.3,,TRUE,TRUE,TRUE,,,,,SN FZFG,BKN,600,OVC,1100,,,,,LIFR,,,,,,0.04,,,,,,METAR,274.0
KDMN 121353Z AUTO 28003KT 10SM CLR M04/M07 A3019 RMK AO2 SLP218 T10441067,KDMN,2019-01-12T13:53:00Z,32.27,-107.72,-4.4,-6.7,280,3,,10.0,30.188976,1021.8,,TRUE,TRUE,,,,,,,CLR,,,,,,,,VFR,,,,,,,,,,,,SPECI,1311.0
KDLN 121353Z AUTO 21010KT 10SM CLR M13/M16 A3021 RMK AO2 SLP303 T11281156,KDLN,2019-01-12T13:53:00Z,45.25,-112.55,-12.8,-15.6,210,10,,10.0,30.209646,1030.3,,TRUE,TRUE,,,,,,,CLR,,,,,,,,VFR,,,,,,,,,,,,METAR,1591.0
KFWN 121353Z AUTO 00000KT 10SM OVC110 M06/M12 A3051 RMK AO2 SLP339 T10611117 $,KFWN,2019-01-12T13:53:00Z,41.2,-74.63,-6.1,-11.7,0,0,,10.0,30.510826,1033.9,,TRUE,TRUE,TRUE,,,,,,OVC,11000,,,,,,,VFR,,,,,,,,,,,,METAR,133.0
KFVE 121353Z AUTO 31012G18KT 10SM FEW018 BKN085 OVC120 M18/M23 A3006 RMK AO2 SLP203 T11781228,KFVE,2019-01-12T13:53:00Z,47.28,-68.3,-17.8,-22.8,310,12,18,10.0,30.059055,1020.3,,TRUE,TRUE,,,,,,,FEW,1800,BKN,8500,OVC,12000,,,VFR,,,,,,,,,,,,METAR,301.0
KFUL 121353Z AUTO 00000KT 10SM BKN042 OVC055 12/09 A3000 RMK AO2 RAE15 SLP159 P0000 T01220089,KFUL,2019-01-12T13:53:00Z,33.87,-117.98,12.2,8.9,0,0,,10.0,30.0,1015.9,,TRUE,TRUE,,,,,,,BKN,4200,OVC,5500,,,,,VFR,,,,,,0.005,,,,,,METAR,35.0
KFTY 121353Z 08009G18KT 10SM OVC031 06/M06 A3031 RMK AO2 SLP266 T00561061,KFTY,2019-01-12T13:53:00Z,33.78,-84.52,5.6,-6.1,80,9,18,10.0,30.31004,1026.6,,,TRUE,,,,,,,OVC,3100,,,,,,,VFR,,,,,,,,,,,,METAR,263.0
KFTW 121353Z 28011KT 10SM CLR 05/02 A3000 RMK AO2 SLP158 T00500017,KFTW,2019-01-12T13:53:00Z,32.83,-97.37,5.0,1.7,280,11,,10.0,30.0,1015.8,,,TRUE,,,,,,,CLR,,,,,,,,VFR,,,,,,,,,,,,METAR,214.0
KFST 121353Z AUTO 27006KT 10SM CLR 03/02 A3019 RMK AO2 SLP208 T00330022,KFST,2019-01-12T13:53:00Z,30.92,-102.92,3.3,2.2,270,6,,10.0,30.188976,1020.8,,TRUE,TRUE,,,,,,,CLR,,,,,,,,VFR,,,,,,,,,,,,METAR,918.0
KFSM 121353Z 07010KT 5SM BR OVC004 04/02 A2991 RMK AO2 SLP129 T00390022,KFSM,2019-01-12T13:53:00Z,35.33,-94.37,3.9,2.2,70,10,,5.0,29.911417,1012.9,,,TRUE,,,,,,BR,OVC,400,,,,,,,LIFR,,,,,,,,,,,,METAR,140.0
KFRG 121353Z VRB04KT 10SM OVC085 M05/M12 A3055 RMK AO2 SLP345 T10501122,KFRG,2019-01-12T13:53:00Z,40.73,-73.42,-5.0,-12.2,0,4,,10.0,30.549213,1034.5,,,TRUE,,,,,,,OVC,8500,,,,,,,VFR,,,,,,,,,,,,METAR,21.0
KFPR 121353Z 13010KT 10SM SCT070 22/13 A3023 RMK AO2 SLP235 T02220128,KFPR,2019-01-12T13:53:00Z,27.5,-80.38,22.2,12.8,130,10,,10.0,30.230314,1023.5,,,TRUE,,,,,,,SCT,7000,,,,,,,VFR,,,,,,,,,,,,METAR,13.0
KFOK 121353Z 30004KT 10SM OVC085 M06/M11 A3055 RMK AO2 SLP344 T10561106 $,KFOK,2019-01-12T13:53:00Z,40.85,-72.62,-5.6,-10.6,300,4,,10.0,30.549213,1034.4,,,TRUE,TRUE,,,,,,OVC,8500,,,,,,,VFR,,,,,,,,,,,,METAR,33.0
KFOE 121353Z 02009KT 8SM OVC006 00/M02 A3001 RMK AO2 SNE07 SLP170 P0000 T00001017,KFOE,2019-01-12T13:53:00Z,38.93,-95.65,0.0,-1.7,20,9,,8.0,30.008858,1017.0,,,TRUE,,,,,,,OVC,600,,,,,,,IFR,,,,,,0.005,,,,,,METAR,320.0
KFNT 121353Z 08007KT 10SM OVC065 M03/M08 A3045 RMK AO2 SLP322 T10281083,KFNT,2019-01-12T13:53:00Z,42.97,-83.75,-2.8,-8.3,80,7,,10.0,30.448818,1032.2,,,TRUE,,,,,,,OVC,6500,,,,,,,VFR,,,,,,,,,,,,SPECI,233.0
KFNB 121353Z AUTO 02009KT 1 1/2SM -SN BR BKN008 OVC012 M01/M03 A3008 RMK AO2 SLP195 P0000 T10111028,KFNB,2019-01-12T13:53:00Z,40.07,-95.58,-1.1,-2.8,20,9,,1.5,30.079725,1019.5,,TRUE,TRUE,,,,,,-SN BR,BKN,800,OVC,1200,,,,,IFR,,,,,,0.005,,,,,,SPECI,300.0
KFMY 121353Z 10007KT 10SM CLR 18/14 A3019 RMK AO2 SLP225 T01830139,KFMY,2019-01-12T13:53:00Z,26.58,-81.87,18.3,13.9,100,7,,10.0,30.188976,1022.5,,,TRUE,,,,,,,CLR,,,,,,,,VFR,,,,,,,,,,,,METAR,4.0
KFLO 121353Z 08007KT 10SM BKN025 03/M05 A3044 RMK AO2 SLP307 T00331050,KFLO,2019-01-12T13:53:00Z,34.18,-79.73,3.3,-5.0,80,7,,10.0,30.43996,1030.7,,,TRUE,,,,,,,BKN,2500,,,,,,,MVFR,,,,,,,,,,,,METAR,44.0
KFLL 121353Z AUTO 11016KT 10SM FEW041 BKN060 23/16 A3019 RMK AO2 SLP221 T02330161,KFLL,2019-01-12T13:53:00Z,26.07,-80.15,23.3,16.1,110,16,,10.0,30.188976,1022.1,,TRUE,TRUE,,,,,,,FEW,4100,BKN,6000,,,,,VFR,,,,,,,,,,,,METAR,3.0
KFLD 121353Z AUTO 06005KT 8SM OVC016 M01/M06 A3037 RMK AO2 SLP294 T10111056,KFLD,2019-01-12T13:53:00Z,43.77,-88.48,-1.1,-5.6,60,5,,8.0,30.369095,1029.4,,TRUE,TRUE,,,,,,,OVC,1600,,,,,,,MVFR,,,,,,,,,,,,METAR,240.0
KFHR 121353Z AUTO 00000KT 10SM CLR 03/02 A2996 RMK AO2 SLP145 T00330017,KFHR,2019-01-12T13:53:00Z,48.52,-123.03,3.3,1.7,0,0,,10.0,29.958662,1014.5,,TRUE,TRUE,,,,,,,CLR,,,,,,,,VFR,,,,,,,,,,,,METAR,32.0
KFFT 121353Z AUTO 10009KT 5SM BR SCT007 BKN060 OVC075 00/M01 A3026 RMK AO2 FZRAB03E21 SLP255 P0001 I1000 T00001011 $,KFFT,2019-01-12T13:53:00Z,38.18,-84.9,0.0,-1.1,100,9,,5.0,30.259842,1025.5,,TRUE,TRUE,TRUE,,,,,BR,SCT,700,BKN,6000,OVC,7500,,,MVFR,,,,,,0.01,,,,,,METAR,236.0
KFFC 121353Z AUTO 09008KT 10SM FEW028 OVC036 06/M04 A3030 RMK AO2 RAB30E39 SLP266 P0000 T00561039,KFFC,2019-01-12T13:53:00Z,33.35,-84.57,5.6,-3.9,90,8,,10.0,30.301182,1026.6,,TRUE,TRUE,,,,,,,FEW,2800,OVC,3600,,,,,VFR,,,,,,0.005,,,,,,METAR,262.0
KFDY 121353Z AUTO 08007KT 9SM OVC070 M02/M06 A3038 RMK AO2 SLP294 T10221061,KFDY,2019-01-12T13:53:00Z,41.02,-83.67,-2.2,-6.1,80,7,,9.0,30.380905,1029.4,,TRUE,TRUE,,,,,,,OVC,7000,,,,,,,VFR,,,,,,,,,,,,METAR,247.0
KFDR 121353Z AUTO 32016KT 10SM OVC023 04/01 A2998 RMK AO2 SLP152 T00390011,KFDR,2019-01-12T13:53:00Z,34.35,-98.98,3.9,1.1,320,16,,10.0,29.97933,1015.2,,TRUE,TRUE,,,,,,,OVC,2300,,,,,,,MVFR,,,,,,,,,,,,METAR,386.0
KFCM 121353Z 04007KT 8SM OVC055 M06/M09 A3031 RMK AO2 SLP278 T10611089,KFCM,2019-01-12T13:53:00Z,44.83,-93.47,-6.1,-8.9,40,7,,8.0,30.31004,1027.8,,,TRUE,,,,,,,OVC,5500,,,,,,,VFR,,,,,,,,,,,,METAR,280.0
KFAY 121353Z 03006KT 10SM OVC110 02/M04 A3047 RMK AO2 SLP316 T00221039 $,KFAY,2019-01-12T13:53:00Z,34.98,-78.88,2.2,-3.9,30,6,,10.0,30.469488,1031.6,,,TRUE,TRUE,,,,,,OVC,11000,,,,,,,VFR,,,,,,,,,,,,METAR,55.0
KFAT 121353Z 00000KT 10SM OVC120 09/07 A2996 RMK AO2 SLP144 T00940067,KFAT,2019-01-12T13:53:00Z,36.78,-119.72,9.4,6.7,0,0,,10.0,29.958662,1014.4,,,TRUE,,,,,,,OVC,12000,,,,,,,VFR,,,,,,,,,,,,SPECI,104.0
KEYW 121353Z 11012KT 10SM CLR 24/17 A3015 RMK AO2 SLP209 T02390167,KEYW,2019-01-12T13:53:00Z,24.55,-81.75,23.9,16.7,110,12,,10.0,30.15059,1020.9,,,TRUE,,,,,,,CLR,,,,,,,,VFR,,,,,,,,,,,,METAR,5.0
KBPI 121353Z AUTO 07003KT 10SM CLR M21/M24 A3021 RMK AO2 SLP331 T12111239,KBPI,2019-01-12T13:53:00Z,42.58,-110.1,-21.1,-23.9,70,3,,10.0,30.209646,1033.1,,TRUE,TRUE,,,,,,,CLR,,,,,,,,VFR,,,,,,,,,,,,METAR,2117.0
KBOI 121353Z 14007KT 10SM OVC018 M04/M07 A3024 RMK AO2 SLP261 T10391067,KBOI,2019-01-12T13:53:00Z,43.57,-116.23,-3.9,-6.7,140,7,,10.0,30.239174,1026.1,,,TRUE,,,,,,,OVC,1800,,,,,,,MVFR,,,,,,,,,,,,METAR,875.0
KBNO 121353Z AUTO 27004KT 10SM CLR M07/M09 A3013 RMK AO2 SLP231 T10721089,KBNO,2019-01-12T13:53:00Z,43.6,-118.95,-7.2,-8.9,270,4,,10.0,30.129921,1023.1,,TRUE,TRUE,,,,,,,CLR,,,,,,,,VFR,,,,,,,,,,,,SPECI,1264.0
KBNA 121353Z 04003KT 10SM FEW060 BKN110 OVC200 06/02 A3022 RMK AO2 RAE14 SLP233 P0001 T00610022,KBNA,2019-01-12T13:53:00Z,36.12,-86.68,6.1,2.2,40,3,,10.0,30.221457,1023.3,,,TRUE,,,,,,,FEW,6000,BKN,11000,OVC,20000,,,VFR,,,,,,0.01,,,,,,METAR,210.0
KBMQ 121353Z AUTO 31007KT 10SM CLR 08/05 A3008 RMK AO2 SLP184 T00780050,KBMQ,2019-01-12T13:53:00Z,30.73,-98.23,7.8,5.0,310,7,,10.0,30.079725,1018.4,,TRUE,TRUE,,,,,,,CLR,,,,,,,,VFR,,,,,,,,,,,,METAR,389.0
KBMG 121353Z 11008KT 1 1/2SM -SN BR OVC007 M01/M02 A3024 RMK AO2 CIG 005V010 SLP249 P0001 T10111017,KBMG,2019-01-12T13:53:00Z,39.15,-86.62,-1.1,-1.7,110,8,,1.5,30.239174,1024.9,,,TRUE,,,,,,-SN BR,OVC,700,,,,,,,IFR,,,,,,0.01,,,,,,METAR,257.0
KBLI 121353Z AUTO 36003KT 10SM FEW095 00/M01 A2996 RMK AO2 SLP154 I1000 T00001011,KBLI,2019-01-12T13:53:00Z,48.8,-122.53,0.0,-1.1,360,3,,10.0,29.958662,1015.4,,TRUE,TRUE,,,,,,,FEW,9500,,,,,,,VFR,,,,,,,,,,,,METAR,50.0
KBKV 121353Z 09007KT 10SM CLR 16/12 A3024 RMK AO2 SLP238 T01610117,KBKV,2019-01-12T13:53:00Z,28.47,-82.45,16.1,11.7,90,7,,10.0,30.239174,1023.8,,,TRUE,,,,,,,CLR,,,,,,,,VFR,,,,,,,,,,,,METAR,20.0
KBKL 121353Z 08003KT 10SM CLR M03/M09 A3044 RMK AO2 SLP315 T10281094,KBKL,2019-01-12T13:53:00Z,41.53,-81.67,-2.8,-9.4,80,3,,10.0,30.43996,1031.5,,,TRUE,,,,,,,CLR,,,,,,,,VFR,,,,,,,,,,,,METAR,184.0
KBKE 121353Z AUTO 12010KT 10SM CLR 00/M03 A3019 RMK AO2 SLP244 T00001033,KBKE,2019-01-12T13:53:00Z,44.85,-117.82,0.0,-3.3,120,10,,10.0,30.188976,1024.4,,TRUE,TRUE,,,,,,,CLR,,,,,,,,VFR,,,,,,,,,,,,METAR,1024.0
KDTN 121353Z 15004KT 5SM BR OVC005 10/09 A2995 RMK AO2 SLP140 T01000089,KDTN,2019-01-12T13:53:00Z,32.55,-93.75,10.0,8.9,150,4,,5.0,29.949802,1014.0,,,TRUE,,,,,,BR,OVC,500,,,,,,,IFR,,,,,,,,,,,,METAR,53.0
KDRT 121353Z AUTO 31006KT 10SM CLR 09/09 A3012 RMK AO2 SLP196 T00940089,KDRT,2019-01-12T13:53:00Z,29.37,-100.92,9.4,8.9,310,6,,10.0,30.121063,1019.6,,TRUE,TRUE,,,,,,,CLR,,,,,,,,VFR,,,,,,,,,,,,SPECI,313.0
KDRO 121353Z AUTO VRB03KT 5SM BR OVC007 M02/M02 A3013 RMK AO2 SNE51 CIG 005V010 SLP230 P0001 T10171017,KDRO,2019-01-12T13:53:00Z,37.15,-107.77,-1.7,-1.7,0,3,,5.0,30.129921,1023.0,,TRUE,TRUE,,,,,,BR,OVC,700,,,,,,,IFR,,,,,,0.01,,,,,,METAR,2035.0
KDNL 121353Z AUTO 07007KT 10SM SCT049 OVC070 05/M06 A3038 RMK AO2 SLP289 T00501056 TSNO,KDNL,2019-01-12T13:53:00Z,33.47,-82.03,5.0,-5.6,70,7,,10.0,30.380905,1028.9,,TRUE,TRUE,,,TRUE,,,,SCT,4900,OVC,7000,,,,,VFR,,,,,,,,,,,,METAR,130.0
KGMU 121353Z 06008KT 10SM BKN047 OVC055 03/M06 A3040 RMK AO2 SLP302 T00331056,KGMU,2019-01-12T13:53:00Z,34.85,-82.35,3.3,-5.6,60,8,,10.0,30.398623,1030.2,,,TRUE,,,,,,,BKN,4700,OVC,5500,,,,,VFR,,,,,,,,,,,,METAR,315.0
KGLR 121353Z AUTO 06006KT 10SM OVC006 M08/M08 A3046 RMK AO2 SLP339 T10781083,KGLR,2019-01-12T13:53:00Z,45.02,-84.68,-7.8,-8.3,60,6,,10.0,30.46063,1033.9,,TRUE,TRUE,,,,,,,OVC,600,,,,,,,IFR,,,,,,,,,,,,METAR,407.0
KGLH 121353Z 14011KT 8SM -RA FEW023 BKN055 OVC065 08/07 A2999 RMK AO2 SLP164 P0003 T00830067,KGLH,2019-01-12T13:53:00Z,33.5,-90.98,8.3,6.7,140,11,,8.0,29.991142,1016.4,,,TRUE,,,,,,-RA,FEW,2300,BKN,5500,OVC,6500,,,VFR,,,,,,0.03,,,,,,METAR,45.0
KGLD 121353Z AUTO 34010KT 10SM OVC055 M01/M02 A3016 RMK AO2 SLP233 T10111022,KGLD,2019-01-12T13:53:00Z,39.37,-101.7,-1.1,-2.2,340,10,,10.0,30.159449,1023.3,,TRUE,TRUE,,,,,,,OVC,5500,,,,,,,VFR,,,,,,,,,,,,METAR,1113.0
KGKY 121353Z 26007KT 10SM CLR 07/03 A3000 RMK AO2 SLP158 T00670033,KGKY,2019-01-12T13:53:00Z,32.67,-97.1,6.7,3.3,260,7,,10.0,30.0,1015.8,,,TRUE,,,,,,,CLR,,,,,,,,VFR,,,,,,,,,,,,METAR,192.0
KGKJ 121353Z AUTO 04006KT 10SM OVC095 M08/M11 A3041 RMK AO2 SLP321 T10781111 TSNO,KGKJ,2019-01-12T13:53:00Z,41.63,-80.22,-7.8,-11.1,40,6,,10.0,30.410433,1032.1,,TRUE,TRUE,,,TRUE,,,,OVC,9500,,,,,,,VFR,,,,,,,,,,,,METAR,428.0
KGJT 121353Z 09003KT 2SM -SN BR BKN004 OVC008 M02/M02 A3018 RMK AO2 SLP236 P0000 T10171017,KGJT,2019-01-12T13:53:00Z,39.12,-108.52,-1.7,-1.7,90,3,,2.0,30.180119,1023.6,,,TRUE,,,,,,-SN BR,BKN,400,OVC,800,,,,,LIFR,,,,,,0.005,,,,,,METAR,1475.0
KGIF 121353Z AUTO 07004KT 10SM BKN060 16/13 A3025 RMK AO2 SLP241 T01560133 TSNO,KGIF,2019-01-12T13:53:00Z,28.07,-81.75,15.6,13.3,70,4,,10.0,30.250984,1024.1,,TRUE,TRUE,,,TRUE,,,,BKN,6000,,,,,,,VFR,,,,,,,,,,,,METAR,43.0
KGGG 121353Z 20005KT 2SM BR OVC003 11/11 A2993 RMK AO2 SLP137 T01110111,KGGG,2019-01-12T13:53:00Z,32.38,-94.72,11.1,11.1,200,5,,2.0,29.929134,1013.7,,,TRUE,,,,,,BR,OVC,300,,,,,,,LIFR,,,,,,,,,,,,METAR,107.0
KGFL 121353Z AUTO 01005KT 10SM CLR M12/M19 A3053 RMK AO2 SLP353 T11171189,KGFL,2019-01-12T13:53:00Z,43.33,-73.62,-11.7,-18.9,10,5,,10.0,30.528543,1035.3,,TRUE,TRUE,,,,,,,CLR,,,,,,,,VFR,,,,,,,,,,,,METAR,103.0
KGFK 121353Z 36005KT 10SM OVC008 M10/M11 A3042 RMK AO2 SLP321 T11001106,KGFK,2019-01-12T13:53:00Z,47.95,-97.18,-10.0,-10.6,360,5,,10.0,30.41929,1032.1,,,TRUE,,,,,,,OVC,800,,,,,,,IFR,,,,,,,,,,,,METAR,258.0
KGEZ 121353Z AUTO 09009KT 3/4SM -SN BR VV017 M02/M03 A3028 RMK AO2 SLP261 P0003 T10171033,KGEZ,2019-01-12T13:53:00Z,39.58,-85.8,-1.7,-3.3,90,9,,0.75,30.280512,1026.1,,TRUE,TRUE,,,,,,-SN BR,OVX,0,,,,,,,LIFR,,,,,,0.03,,,,,1700,METAR,245.0
KGEG 121353Z 06010KT 1/2SM BR OVC002 M01/M02 A3016 RMK AO2 SFC VIS 2 1/2 SLP233 T10061017,KGEG,2019-01-12T13:53:00Z,47.62,-117.53,-0.6,-1.7,60,10,,0.5,30.159449,1023.3,,,TRUE,,,,,,BR,OVC,200,,,,,,,LIFR,,,,,,,,,,,,SPECI,735.0
KGCC 121353Z AUTO 00000KT 10SM CLR M06/M07 A3017 RMK AO2 SLP254 T10611072,KGCC,2019-01-12T13:53:00Z,44.33,-105.55,-6.1,-7.2,0,0,,10.0,30.171259,1025.4,,TRUE,TRUE,,,,,,,CLR,,,,,,,,VFR,,,,,,,,,,,,SPECI,1320.0
KFYV 121353Z 18004KT 10SM OVC009 04/03 A2987 RMK AO2 SLP119 T00440033,KFYV,2019-01-12T13:53:00Z,36.02,-94.17,4.4,3.3,180,4,,10.0,29.870079,1011.9,,,TRUE,,,,,,,OVC,900,,,,,,,IFR,,,,,,,,,,,,METAR,379.0
KFXE 121353Z 10014KT 10SM SCT040 BKN050 OVC060 23/16 A3019 RMK AO2 SLP225 T02330161,KFXE,2019-01-12T13:53:00Z,26.2,-80.18,23.3,16.1,100,14,,10.0,30.188976,1022.5,,,TRUE,,,,,,,SCT,4000,BKN,5000,OVC,6000,,,VFR,,,,,,,,,,,,METAR,6.0
KEWB 121353Z 30009KT 10SM CLR M08/M18 A3048 RMK AO2 SLP322 T10781178,KEWB,2019-01-12T13:53:00Z,41.68,-70.95,-7.8,-17.8,300,9,,10.0,30.481298,1032.2,,,TRUE,,,,,,,CLR,,,,,,,,VFR,,,,,,,,,,,,METAR,23.0
KEVW 121353Z AUTO 00000KT 1/4SM FZFG VV002 M12/M14 A3019 RMK AO2 SLP272 T11221144,KEVW,2019-01-12T13:53:00Z,41.27,-111.03,-12.2,-14.4,0,0,,0.25,30.188976,1027.2,,TRUE,TRUE,,,,,,FZFG,OVX,0,,,,,,,LIFR,,,,,,,,,,,200,METAR,2177.0
KEQY 121353Z AUTO 08004KT 10SM OVC110 02/M07 A3043 RMK AO2 SLP326 T00221067,KEQY,2019-01-12T13:53:00Z,35.02,-80.62,2.2,-6.7,80,4,,10.0,30.431103,1032.6,,TRUE,TRUE,,,,,,,OVC,11000,,,,,,,VFR,,,,,,,,,,,,METAR,212.0
KEPH 121353Z AUTO 01008KT 10SM CLR M01/M02 A3017 RMK AO2 SLP228 T10061017,KEPH,2019-01-12T13:53:00Z,47.3,-119.52,-0.6,-1.7,10,8,,10.0,30.171259,1022.8,,TRUE,TRUE,,,,,,,CLR,,,,,,,,VFR,,,,,,,,,,,,METAR,383.0
KENW 121353Z 09013KT 5SM HZ OVC018 00/M03 A3033 RMK AO2 SLP281 T00001028,KENW,2019-01-12T13:53:00Z,42.6,-87.93,0.0,-2.8,90,13,,5.0,30.33071,1028.1,,,TRUE,,,,,,HZ,OVC,1800,,,,,,,MVFR,,,,,,,,,,,,METAR,219.0
KEMP 121353Z AUTO 01009KT 9SM OVC007 00/M01 A2998 RMK AO2 SLP166 T00001006 $,KEMP,2019-01-12T13:53:00Z,38.33,-96.2,0.0,-0.6,10,9,,9.0,29.97933,1016.6,,TRUE,TRUE,TRUE,,,,,,OVC,700,,,,,,,IFR,,,,,,,,,,,,SPECI,367.0
KELY 121353Z AUTO 00000KT 10SM FEW001 M11/M12 A3017 RMK AO2 SLP263 T11111122,KELY,2019-01-12T13:53:00Z,39.3,-114.85,-11.1,-12.2,0,0,,10.0,30.171259,1026.3,,TRUE,TRUE,,,,,,,FEW,100,,,,,,,VFR,,,,,,,,,,,,SPECI,1906.0
KELM 121353Z 25003KT 10SM BKN065 OVC100 M07/M13 A3050 RMK AO2 SLP347 T10671133,KELM,2019-01-12T13:53:00Z,42.15,-76.9,-6.7,-13.3,250,3,,10.0,30.499016,1034.7,,,TRUE,,,,,,,BKN,6500,OVC,10000,,,,,VFR,,,,,,,,,,,,METAR,302.0
KELD 121353Z AUTO 15007KT 10SM OVC004 08/08 A2995 RMK AO2 RAE46 SLP142 P0004 T00780078,KELD,2019-01-12T13:53:00Z,33.22,-92.82,7.8,7.8,150,7,,10.0,29.949802,1014.2,,TRUE,TRUE,,,,,,,OVC,400,,,,,,,LIFR,,,,,,0.04,,,,,,METAR,81.0
KEET 121353Z AUTO VRB04KT 10SM OVC020 08/01 A3020 RMK AO2 PRESRR SLP227 T00830011,KEET,2019-01-12T13:53:00Z,33.18,-86.78,8.3,1.1,0,4,,10.0,30.200787,1022.7,,TRUE,TRUE,,,,,,,OVC,2000,,,,,,,MVFR,,,,,,,,,,,,METAR,173.0
KEEO 121353Z AUTO 00000KT 10SM OVC017 M04/M06 A3019 RMK AO2 SLP248 T10441061,KEEO,2019-01-12T13:53:00Z,40.05,-107.88,-4.4,-6.1,0,0,,10.0,30.188976,1024.8,,TRUE,TRUE,,,,,,,OVC,1700,,,,,,,MVFR,,,,,,,,,,,,METAR,1930.0
KECP 121353Z AUTO 08007KT 10SM CLR 12/08 A3017 RMK AO2 SLP229 T01170083,KECP,2019-01-12T13:53:00Z,30.35,-85.8,11.7,8.3,80,7,,10.0,30.171259,1022.9,,TRUE,TRUE,,,,,,,CLR,,,,,,,,VFR,,,,,,,,,,,,METAR,21.0
KDXR 121353Z 00000KT 10SM OVC080 M07/M14 A3051 RMK AO2 SLP340 T10721139,KDXR,2019-01-12T13:53:00Z,41.37,-73.48,-7.2,-13.9,0,0,,10.0,30.510826,1034.0,,,TRUE,,,,,,,OVC,8000,,,,,,,VFR,,,,,,,,,,,,METAR,139.0
KDWH 121353Z 27004KT 10SM CLR 15/14 A3000 RMK AO2 SLP158 T01500144,KDWH,2019-01-12T13:53:00Z,30.07,-95.55,15.0,14.4,270,4,,10.0,30.0,1015.8,,,TRUE,,,,,,,CLR,,,,,,,,VFR,,,,,,,,,,,,METAR,46.0
KDVT 121353Z 00000KT 10SM CLR 08/02 A3007 RMK AO2 SLP177 T00830017,KDVT,2019-01-12T13:53:00Z,33.68,-112.07,8.3,1.7,0,0,,10.0,30.070866,1017.7,,,TRUE,,,,,,,CLR,,,,,,,,VFR,,,,,,,,,,,,METAR,443.0
KDUJ 121353Z AUTO 07006KT 10SM OVC095 M08/M13 A3039 RMK AO2 SLP322 T10831128 $,KDUJ,2019-01-12T13:53:00Z,41.17,-78.9,-8.3,-12.8,70,6,,10.0,30.389763,1032.2,,TRUE,TRUE,TRUE,,,,,,OVC,9500,,,,,,,VFR,,,,,,,,,,,,METAR,554.0
KDTW 121353Z 07005KT 10SM BKN022 OVC075 M02/M07 A3044 RMK AO2 SLP315 T10171072,KDTW,2019-01-12T13:53:00Z,42.23,-83.33,-1.7,-7.2,70,5,,10.0,30.43996,1031.5,,,TRUE,,,,,,,BKN,2200,OVC,7500,,,,,MVFR,,,,,,,,,,,,METAR,195.0
KDTS 121353Z 06005KT 10SM BKN018 BKN025 OVC030 12/09 A3018 RMK AO2 SLP221 T01170094,KDTS,2019-01-12T13:53:00Z,30.4,-86.47,11.7,9.4,60,5,,10.0,30.180119,1022.1,,,TRUE,,,,,,,BKN,1800,BKN,2500,OVC,3000,,,MVFR,,,,,,,,,,,,METAR,5.0
KLMT 121353Z AUTO 33005KT 10SM CLR M03/M04 A3000 RMK AO2 SLP171 T10281039,KLMT,2019-01-12T13:53:00Z,42.15,-121.72,-2.8,-3.9,330,5,,10.0,30.0,1017.1,,TRUE,TRUE,,,,,,,CLR,,,,,,,,VFR,,,,,,,,,,,,METAR,1246.0
KLLQ 121353Z AUTO 15005KT 4SM RA BR BKN006 OVC015 07/06 A2997 RMK AO2 CIG 003V008 SLP151 P0012 T00720056,KLLQ,2019-01-12T13:53:00Z,33.63,-91.75,7.2,5.6,150,5,,4.0,29.970472,1015.1,,TRUE,TRUE,,,,,,RA BR,BKN,600,OVC,1500,,,,,IFR,,,,,,0.12,,,,,,METAR,83.0
KLIT 121353Z 11006KT 2 1/2SM RA BR FEW007 OVC014 04/03 A2997 RMK AO2 SLP151 VIS 2V3 P0012 T00440033,KLIT,2019-01-12T13:53:00Z,34.73,-92.23,4.4,3.3,110,6,,2.5,29.970472,1015.1,,,TRUE,,,,,,RA BR,FEW,700,OVC,1400,,,,,IFR,,,,,,0.12,,,,,,SPECI,79.0
KLHX 121353Z AUTO 30006KT 10SM FEW019 SCT049 OVC070 02/00 A3019 RMK AO2 SLP226 T00220000,KLHX,2019-01-12T13:53:00Z,38.05,-103.52,2.2,0.0,300,6,,10.0,30.188976,1022.6,,TRUE,TRUE,,,,,,,FEW,1900,SCT,4900,OVC,7000,,,VFR,,,,,,,,,,,,METAR,1277.0
KLGB 121353Z AUTO 00000KT 10SM -RA BKN034 OVC070 12/10 A3001 RMK AO2 RAB1258 SLP160 P0002 T01170100,KLGB,2019-01-12T13:53:00Z,33.82,-118.15,11.7,10.0,0,0,,10.0,30.008858,1016.0,,TRUE,TRUE,,,,,,-RA,BKN,3400,OVC,7000,,,,,VFR,,,,,,0.02,,,,,,METAR,10.0
KGWO 121353Z AUTO 14014KT 7SM -RA OVC080 09/07 A3003 RMK AO2 RAB06 SLP167 P0006 T00890067,KGWO,2019-01-12T13:53:00Z,33.5,-90.08,8.9,6.7,140,14,,7.0,30.029528,1016.7,,TRUE,TRUE,,,,,,-RA,OVC,8000,,,,,,,VFR,,,,,,0.06,,,,,,METAR,44.0
KGVL 121353Z AUTO 09011KT 10SM OVC030 02/M06 A3035 RMK AO2 SLP282 T00221056,KGVL,2019-01-12T13:53:00Z,34.27,-83.83,2.2,-5.6,90,11,,10.0,30.351377,1028.2,,TRUE,TRUE,,,,,,,OVC,3000,,,,,,,MVFR,,,,,,,,,,,,METAR,386.0
KGUY 121353Z AUTO 35014KT 10SM -SN OVC024 01/M02 A3012 RMK AO2 PK WND 35027/1300 SNB53 SLP208 P0000 T00111017,KGUY,2019-01-12T13:53:00Z,36.68,-101.5,1.1,-1.7,350,14,,10.0,30.121063,1020.8,,TRUE,TRUE,,,,,,-SN,OVC,2400,,,,,,,MVFR,,,,,,0.005,,,,,,METAR,948.0
KGUP 121353Z AUTO 00000KT 10SM CLR M09/M11 A3018 RMK AO2 SLP286 T10941106,KGUP,2019-01-12T13:53:00Z,35.52,-108.8,-9.4,-10.6,0,0,,10.0,30.180119,1028.6,,TRUE,TRUE,,,,,,,CLR,,,,,,,,VFR,,,,,,,,,,,,METAR,1971.0
KGTF 121353Z 21013KT 10SM CLR 01/M09 A3005 RMK AO2 SLP210 T00111089,KGTF,2019-01-12T13:53:00Z,47.47,-111.38,1.1,-8.9,210,13,,10.0,30.050198,1021.0,,,TRUE,,,,,,,CLR,,,,,,,,VFR,,,,,,,,,,,,METAR,1119.0
KGSP 121353Z 05004KT 10SM BKN047 BKN055 OVC100 03/M05 A3042 RMK AO2 SLP305 T00281050,KGSP,2019-01-12T13:53:00Z,34.9,-82.22,2.8,-5.0,50,4,,10.0,30.41929,1030.5,,,TRUE,,,,,,,BKN,4700,BKN,5500,OVC,10000,,,VFR,,,,,,,,,,,,METAR,287.0
KGSH 121353Z AUTO 08010KT 6SM HZ OVC070 M03/M06 A3034 RMK AO2 SLP286 T10281056,KGSH,2019-01-12T13:53:00Z,41.53,-85.78,-2.8,-5.6,80,10,,6.0,30.339567,1028.6,,TRUE,TRUE,,,,,,HZ,OVC,7000,,,,,,,VFR,,,,,,,,,,,,METAR,252.0
KGRR 121353Z 08008KT 10SM OVC065 M02/M07 A3040 RMK AO2 SLP304 T10221072,KGRR,2019-01-12T13:53:00Z,42.88,-85.52,-2.2,-7.2,80,8,,10.0,30.398623,1030.4,,,TRUE,,,,,,,OVC,6500,,,,,,,VFR,,,,,,,,,,,,SPECI,237.0
KGRI 121353Z 01016KT 6SM BR OVC006 M04/M06 A3018 RMK AO2 SLP247 T10441061,KGRI,2019-01-12T13:53:00Z,40.97,-98.32,-4.4,-6.1,10,16,,6.0,30.180119,1024.7,,,TRUE,,,,,,BR,OVC,600,,,,,,,IFR,,,,,,,,,,,,METAR,561.0
KGPT 121353Z 13008KT 10SM OVC033 16/13 A3008 RMK AO2 SLP186 T01560133,KGPT,2019-01-12T13:53:00Z,30.42,-89.08,15.6,13.3,130,8,,10.0,30.079725,1018.6,,,TRUE,,,,,,,OVC,3300,,,,,,,VFR,,,,,,,,,,,,METAR,14.0
KGOK 121353Z AUTO 35007G16KT 10SM OVC006 02/01 A2994 RMK AO2 SLP145 T00170011,KGOK,2019-01-12T13:53:00Z,35.85,-97.4,1.7,1.1,350,7,16,10.0,29.940945,1014.5,,TRUE,TRUE,,,,,,,OVC,600,,,,,,,IFR,,,,,,,,,,,,METAR,324.0
KGNV 121353Z 00000KT 10SM OVC060 14/11 A3027 RMK AO2 SLP251 T01440111,KGNV,2019-01-12T13:53:00Z,29.7,-82.28,14.4,11.1,0,0,,10.0,30.268702,1025.1,,,TRUE,,,,,,,OVC,6000,,,,,,,VFR,,,,,,,,,,,,METAR,45.0
KLWD 121353Z AUTO 05011KT 1 1/4SM -SN BR BKN007 OVC017 M02/M03 A3009 RMK AO2 SLP202 P0003 T10221033,KLWD,2019-01-12T13:53:00Z,40.63,-93.9,-2.2,-3.3,50,11,,1.25,30.088583,1020.2,,TRUE,TRUE,,,,,,-SN BR,BKN,700,OVC,1700,,,,,IFR,,,,,,0.03,,,,,,METAR,346.0
KLVS 121353Z AUTO 35003KT 10SM BKN090 M07/M08 A3015 RMK AO2 SLP222 T10671083,KLVS,2019-01-12T13:53:00Z,35.65,-105.13,-6.7,-8.3,350,3,,10.0,30.15059,1022.2,,TRUE,TRUE,,,,,,,BKN,9000,,,,,,,VFR,,,,,,,,,,,,METAR,2091.0
KLVM 121353Z AUTO 28018G24KT 10SM CLR M02/M09 A3014 RMK AO2 PK WND 28026/1330 SLP247 T10221089,KLVM,2019-01-12T13:53:00Z,45.7,-110.43,-2.2,-8.9,280,18,24,10.0,30.138779,1024.7,,TRUE,TRUE,,,,,,,CLR,,,,,,,,VFR,,,,,,,,,,,,METAR,1418.0
KLVK 121353Z AUTO 00000KT 1 1/4SM BR SCT004 BKN060 BKN075 08/07 A2995 RMK AO2 SLP142 T00780072,KLVK,2019-01-12T13:53:00Z,37.7,-121.82,7.8,7.2,0,0,,1.25,29.949802,1014.2,,TRUE,TRUE,,,,,,BR,SCT,400,BKN,6000,BKN,7500,,,IFR,,,,,,,,,,,,METAR,117.0
KLSE 121353Z 08009KT 8SM OVC060 M01/M04 A3033 RMK AO2 SLP284 T10111044,KLSE,2019-01-12T13:53:00Z,43.88,-91.25,-1.1,-4.4,80,9,,8.0,30.33071,1028.4,,,TRUE,,,,,,,OVC,6000,,,,,,,VFR,,,,,,,,,,,,METAR,199.0
KLPR 121353Z AUTO 07006KT 10SM CLR M04/M10 A3043 RMK AO2 SLP314 T10441100,KLPR,2019-01-12T13:53:00Z,41.35,-82.18,-4.4,-10.0,70,6,,10.0,30.431103,1031.4,,TRUE,TRUE,,,,,,,CLR,,,,,,,,VFR,,,,,,,,,,,,METAR,241.0
KLOZ 121353Z AUTO 09004KT 10SM SCT055 OVC070 01/M01 A3028 RMK AO2 SLP261 T00061006,KLOZ,2019-01-12T13:53:00Z,37.08,-84.07,0.6,-0.6,90,4,,10.0,30.280512,1026.1,,TRUE,TRUE,,,,,,,SCT,5500,OVC,7000,,,,,VFR,,,,,,,,,,,,METAR,362.0
KLOU 121353Z 00000KT 6SM HZ OVC007 02/M01 A3028 RMK AO2 SLP256 T00171011,KLOU,2019-01-12T13:53:00Z,38.22,-85.67,1.7,-1.1,0,0,,6.0,30.280512,1025.6,,,TRUE,,,,,,HZ,OVC,700,,,,,,,IFR,,,,,,,,,,,,METAR,164.0
KLOL 121353Z AUTO 03008KT 10SM CLR 00/M05 A3007 RMK AO2 SLP197 T00001050,KLOL,2019-01-12T13:53:00Z,40.07,-118.57,0.0,-5.0,30,8,,10.0,30.070866,1019.7,,TRUE,TRUE,,,,,,,CLR,,,,,,,,VFR,,,,,,,,,,,,METAR,1189.0
KLNS 121353Z 00000KT 9SM CLR M04/M10 A3054 RMK AO2 SLP347 T10441100,KLNS,2019-01-12T13:53:00Z,40.12,-76.3,-4.4,-10.0,0,0,,9.0,30.540354,1034.7,,,TRUE,,,,,,,CLR,,,,,,,,VFR,,,,,,,,,,,,METAR,125.0
KMAI 121353Z AUTO 07006KT 10SM FEW035 OVC055 11/07 A3023 RMK AO2 SLP235 T01060072 $,KMAI,2019-01-12T13:53:00Z,30.83,-85.18,10.6,7.2,70,6,,10.0,30.230314,1023.5,,TRUE,TRUE,TRUE,,,,,,FEW,3500,OVC,5500,,,,,VFR,,,,,,,,,,,,METAR,32.0
KMAF 121353Z 30009KT 10SM CLR 03/01 A3016 RMK AO2 SLP204 T00280006,KMAF,2019-01-12T13:53:00Z,31.95,-102.2,2.8,0.6,300,9,,10.0,30.159449,1020.4,,,TRUE,,,,,,,CLR,,,,,,,,VFR,,,,,,,,,,,,METAR,874.0
KMAE 121353Z AUTO 19003KT 10SM CLR 09/06 A2997 RMK AO2 SLP148 T00940056,KMAE,2019-01-12T13:53:00Z,36.98,-120.12,9.4,5.6,190,3,,10.0,29.970472,1014.8,,TRUE,TRUE,,,,,,,CLR,,,,,,,,VFR,,,,,,,,,,,,METAR,77.0
KLXT 121353Z AUTO 06009KT 4SM -SN BR OVC005 M01/M01 A3001 RMK AO2 SLP171 P0001 T10111011,KLXT,2019-01-12T13:53:00Z,38.97,-94.37,-1.1,-1.1,60,9,,4.0,30.008858,1017.1,,TRUE,TRUE,,,,,,-SN BR,OVC,500,,,,,,,IFR,,,,,,0.01,,,,,,METAR,306.0
KMLT 121353Z AUTO 29013G23KT 10SM CLR M17/M23 A3022 RMK AO2 SLP250 T11721228,KMLT,2019-01-12T13:53:00Z,45.65,-68.7,-17.2,-22.8,290,13,23,10.0,30.221457,1025.0,,TRUE,TRUE,,,,,,,CLR,,,,,,,,VFR,,,,,,,,,,,,METAR,123.0
KMLS 121353Z AUTO 07005KT 9SM CLR M09/M11 A3019 RMK AO2 SLP263 T10941106,KMLS,2019-01-12T13:53:00Z,46.43,-105.88,-9.4,-10.6,70,5,,9.0,30.188976,1026.3,,TRUE,TRUE,,,,,,,CLR,,,,,,,,VFR,,,,,,,,,,,,METAR,801.0
KMLP 121353Z AUTO 18006KT 10SM CLR M01/M11 A3011 RMK AO2 SLP174 T10111106 $,KMLP,2019-01-12T13:53:00Z,47.45,-115.67,-1.1,-10.6,180,6,,10.0,30.109253,1017.4,,TRUE,TRUE,TRUE,,,,,,CLR,,,,,,,,VFR,,,,,,,,,,,,METAR,1837.0
KMLC 121353Z AUTO 20008KT 10SM OVC006 07/06 RMK AO2 SLPNO P0001 T00670061 TSNO $,KMLC,2019-01-12T13:53:00Z,34.88,-95.78,6.7,6.1,200,8,,10.0,,,,TRUE,TRUE,TRUE,,TRUE,,,,OVC,600,,,,,,,IFR,,,,,,0.01,,,,,,METAR,232.0
KMLB 121353Z 10010KT 10SM BKN047 OVC065 22/13 A3024 RMK AO2 SLP239 T02170128,KMLB,2019-01-12T13:53:00Z,28.1,-80.65,21.7,12.8,100,10,,10.0,30.239174,1023.9,,,TRUE,,,,,,,BKN,4700,OVC,6500,,,,,VFR,,,,,,,,,,,,METAR,11.0
KMKL 121353Z 10006KT 10SM SCT042 BKN120 05/02 A3010 RMK AO2 SLP193 T00500017,KMKL,2019-01-12T13:53:00Z,35.6,-88.92,5.0,1.7,100,6,,10.0,30.100393,1019.3,,,TRUE,,,,,,,SCT,4200,BKN,12000,,,,,VFR,,,,,,,,,,,,METAR,128.0
KMIC 121353Z 05005KT 9SM FEW055 M07/M09 A3033 RMK AO2 SLP285 T10671094,KMIC,2019-01-12T13:53:00Z,45.07,-93.35,-6.7,-9.4,50,5,,9.0,30.33071,1028.5,,,TRUE,,,,,,,FEW,5500,,,,,,,VFR,,,,,,,,,,,,METAR,265.0
KMIA 121353Z 10012KT 10SM FEW040 SCT055 SCT250 23/16 A3019 RMK AO2 SLP224 T02330161,KMIA,2019-01-12T13:53:00Z,25.8,-80.28,23.3,16.1,100,12,,10.0,30.188976,1022.4,,,TRUE,,,,,,,FEW,4000,SCT,5500,SCT,25000,,,VFR,,,,,,,,,,,,METAR,3.0
KMHT 121353Z 27006KT 10SM FEW200 M11/M19 A3046 RMK AO2 SLP338 T11111194,KMHT,2019-01-12T13:53:00Z,42.93,-71.43,-11.1,-19.4,270,6,,10.0,30.46063,1033.8,,,TRUE,,,,,,,FEW,20000,,,,,,,VFR,,,,,,,,,,,,METAR,81.0
KMHE 121353Z AUTO 35010KT 2 1/2SM BR OVC003 M07/M08 A3032 RMK AO2 SLP290 I1001 T10671078,KMHE,2019-01-12T13:53:00Z,43.77,-98.02,-6.7,-7.8,350,10,,2.5,30.318897,1029.0,,TRUE,TRUE,,,,,,BR,OVC,300,,,,,,,LIFR,,,,,,,,,,,,METAR,397.0
KMGY 121353Z AUTO 09005KT 1/2SM -SN FZFG VV018 M02/M04 A3032 RMK AO2 SLP278 P0004 T10221039,KMGY,2019-01-12T13:53:00Z,39.6,-84.23,-2.2,-3.9,90,5,,0.5,30.318897,1027.8,,TRUE,TRUE,,,,,,-SN FZFG,OVX,0,,,,,,,LIFR,,,,,,0.04,,,,,1800,METAR,289.0
KMGW 121353Z 06004KT 10SM OVC080 M03/M08 A3038 RMK AO2 SLP303 T10281078,KMGW,2019-01-12T13:53:00Z,39.65,-79.92,-2.8,-7.8,60,4,,10.0,30.380905,1030.3,,,TRUE,,,,,,,OVC,8000,,,,,,,VFR,,,,,,,,,,,,METAR,378.0
KMGM 121353Z 11010KT 10SM SCT027 BKN040 OVC110 09/02 A3021 RMK AO2 SLP231 T00890022,KMGM,2019-01-12T13:53:00Z,32.3,-86.4,8.9,2.2,110,10,,10.0,30.209646,1023.1,,,TRUE,,,,,,,SCT,2700,BKN,4000,OVC,11000,,,VFR,,,,,,,,,,,,SPECI,63.0
KMFR 121353Z AUTO 09003KT 10SM CLR 02/M02 A2993 RMK AO2 SLP136 T00221017,KMFR,2019-01-12T13:53:00Z,42.38,-122.87,2.2,-1.7,90,3,,10.0,29.929134,1013.6,,TRUE,TRUE,,,,,,,CLR,,,,,,,,VFR,,,,,,,,,,,,METAR,396.0
KMCW 121353Z AUTO 06008KT 8SM OVC027 M03/M04 A3025 RMK AO2 SLP255 T10281044,KMCW,2019-01-12T13:53:00Z,43.15,-93.33,-2.8,-4.4,60,8,,8.0,30.250984,1025.5,,TRUE,TRUE,,,,,,,OVC,2700,,,,,,,MVFR,,,,,,,,,,,,METAR,369.0
KMCO 121353Z 08005KT 10SM FEW060 BKN250 18/13 A3025 RMK AO2 SLP240 T01830128,KMCO,2019-01-12T13:53:00Z,28.42,-81.33,18.3,12.8,80,5,,10.0,30.250984,1024.0,,,TRUE,,,,,,,FEW,6000,BKN,25000,,,,,VFR,,,,,,,,,,,,METAR,29.0
KMCN 121353Z 09010KT 10SM SCT046 OVC060 06/M01 A3032 RMK AO2 SLP266 T00611006,KMCN,2019-01-12T13:53:00Z,32.68,-83.65,6.1,-0.6,90,10,,10.0,30.318897,1026.6,,,TRUE,,,,,,,SCT,4600,OVC,6000,,,,,VFR,,,,,,,,,,,,SPECI,109.0
KMCK 121353Z AUTO 33007KT 10SM CLR M03/M05 A3018 RMK AO2 SLP244 T10331050,KMCK,2019-01-12T13:53:00Z,40.2,-100.58,-3.3,-5.0,330,7,,10.0,30.180119,1024.4,,TRUE,TRUE,,,,,,,CLR,,,,,,,,VFR,,,,,,,,,,,,METAR,782.0
KMCI 121353Z 04012KT 3SM OVC007 M01/M02 A3002 RMK AO2 SFC VIS 7 SNE20 CIG 005V009 SLP173 P0000 T10111022,KMCI,2019-01-12T13:53:00Z,39.3,-94.73,-1.1,-2.2,40,12,,3.0,30.02067,1017.3,,,TRUE,,,,,,,OVC,700,,,,,,,IFR,,,,,,0.005,,,,,,METAR,320.0
KMCE 121353Z AUTO 23004KT 1/4SM FG BKN002 OVC065 07/07 A2995 RMK AO2 SLP143 T00720072,KMCE,2019-01-12T13:53:00Z,37.28,-120.5,7.2,7.2,230,4,,0.25,29.949802,1014.3,,TRUE,TRUE,,,,,,FG,BKN,200,OVC,6500,,,,,LIFR,,,,,,,,,,,,METAR,47.0
KMCB 121353Z AUTO 09004KT 5SM -RA BR OVC034 11/09 A3004 RMK AO2 RAB23 SLP171 P0003 T01110089,KMCB,2019-01-12T13:53:00Z,31.18,-90.47,11.1,8.9,90,4,,5.0,30.041338,1017.1,,TRUE,TRUE,,,,,,-RA BR,OVC,3400,,,,,,,MVFR,,,,,,0.03,,,,,,METAR,124.0
KMBS 121353Z 07008KT 10SM OVC050 M03/M07 A3047 RMK AO2 SLP329 T10281067,KMBS,2019-01-12T13:53:00Z,43.53,-84.08,-2.8,-6.7,70,8,,10.0,30.469488,1032.9,,,TRUE,,,,,,,OVC,5000,,,,,,,VFR,,,,,,,,,,,,METAR,202.0
KPBF 121353Z AUTO 14009KT 9SM -RA BKN013 OVC020 06/05 A2998 RMK AO2 RAB01 SLP151 P0012 T00610050,KPBF,2019-01-12T13:53:00Z,34.18,-91.93,6.1,5.0,140,9,,9.0,29.97933,1015.1,,TRUE,TRUE,,,,,,-RA,BKN,1300,OVC,2000,,,,,MVFR,,,,,,0.12,,,,,,METAR,62.0
KPAH 121353Z 10007KT 8SM OVC100 02/M01 A3014 RMK AO2 SLP208 T00221006,KPAH,2019-01-12T13:53:00Z,37.07,-88.77,2.2,-0.6,100,7,,8.0,30.138779,1020.8,,,TRUE,,,,,,,OVC,10000,,,,,,,VFR,,,,,,,,,,,,METAR,119.0
KPAE 121353Z AUTO 07005KT 10SM CLR 08/00 A2995 RMK AO2 SLP144 T00780000,KPAE,2019-01-12T13:53:00Z,47.92,-122.28,7.8,0.0,70,5,,10.0,29.949802,1014.4,,TRUE,TRUE,,,,,,,CLR,,,,,,,,VFR,,,,,,,,,,,,METAR,180.0
KOXB 121353Z AUTO 29003KT 10SM CLR M01/M07 A3054 RMK AO2 SLP342 T10061067,KOXB,2019-01-12T13:53:00Z,38.32,-75.12,-0.6,-6.7,290,3,,10.0,30.540354,1034.2,,TRUE,TRUE,,,,,,,CLR,,,,,,,,VFR,,,,,,,,,,,,METAR,3.0
KOWD 121353Z 30009KT 10SM FEW100 M07/M18 A3049 RMK AO2 SLP325 T10671178,KOWD,2019-01-12T13:53:00Z,42.18,-71.17,-6.7,-17.8,300,9,,10.0,30.490158,1032.5,,,TRUE,,,,,,,FEW,10000,,,,,,,VFR,,,,,,,,,,,,METAR,19.0
KOVS 121353Z AUTO VRB03KT 7SM FEW015 OVC080 M01/M05 A3033 RMK AO2 SLP280 T10111050,KOVS,2019-01-12T13:53:00Z,43.15,-90.68,-1.1,-5.0,0,3,,7.0,30.33071,1028.0,,TRUE,TRUE,,,,,,,FEW,1500,OVC,8000,,,,,VFR,,,,,,,,,,,,METAR,202.0
KMRB 121353Z 00000KT 10SM OVC095 M03/M08 A3049 RMK AO2 SLP334 T10331078 $,KMRB,2019-01-12T13:53:00Z,39.4,-77.98,-3.3,-7.8,0,0,,10.0,30.490158,1033.4,,,TRUE,TRUE,,,,,,OVC,9500,,,,,,,VFR,,,,,,,,,,,,METAR,164.0
KMPO 121353Z AUTO 34009KT 10SM OVC090 M09/M13 A3038 RMK AO2 SLP328 T10891133 $,KMPO,2019-01-12T13:53:00Z,41.13,-75.38,-8.9,-13.3,340,9,,10.0,30.380905,1032.8,,TRUE,TRUE,TRUE,,,,,,OVC,9000,,,,,,,VFR,,,,,,,,,,,,METAR,577.0
KMOD 121353Z AUTO 29003KT 1/4SM FG VV001 08/08 A2995 RMK AO2 SLP142 T00780078,KMOD,2019-01-12T13:53:00Z,37.62,-120.95,7.8,7.8,290,3,,0.25,29.949802,1014.2,,TRUE,TRUE,,,,,,FG,OVX,0,,,,,,,LIFR,,,,,,,,,,,100,METAR,29.0
KMNN 121353Z AUTO 11006KT 8SM OVC060 M03/M08 A3037 RMK AO2 SLP302 T10281078 $,KMNN,2019-01-12T13:53:00Z,40.62,-83.07,-2.8,-7.8,110,6,,8.0,30.369095,1030.2,,TRUE,TRUE,TRUE,,,,,,OVC,6000,,,,,,,VFR,,,,,,,,,,,,METAR,301.0
KMMV 121353Z AUTO 34006KT 10SM CLR 04/01 A2994 RMK AO2 SLP140 T00390011,KMMV,2019-01-12T13:53:00Z,45.2,-123.13,3.9,1.1,340,6,,10.0,29.940945,1014.0,,TRUE,TRUE,,,,,,,CLR,,,,,,,,VFR,,,,,,,,,,,,METAR,48.0
KMMK 121353Z AUTO 00000KT 10SM OVC080 M07/M13 A3053 RMK AO2 SLP340 T10671133,KMMK,2019-01-12T13:53:00Z,41.52,-72.83,-6.7,-13.3,0,0,,10.0,30.528543,1034.0,,TRUE,TRUE,,,,,,,OVC,8000,,,,,,,VFR,,,,,,,,,,,,METAR,31.0
KMLU 121353Z 11004KT 4SM RA BR BKN005 BKN014 OVC040 10/09 A3000 RMK AO2 SLP159 P0034 T01000094,KMLU,2019-01-12T13:53:00Z,32.52,-92.03,10.0,9.4,110,4,,4.0,30.0,1015.9,,,TRUE,,,,,,RA BR,BKN,500,BKN,1400,OVC,4000,,,IFR,,,,,,0.34,,,,,,SPECI,29.0
KPBG 121353Z AUTO 25005KT 10SM CLR M14/M21 A3054 RMK AO2 SLP348 T11391211,KPBG,2019-01-12T13:53:00Z,44.65,-73.47,-13.9,-21.1,250,5,,10.0,30.540354,1034.8,,TRUE,TRUE,,,,,,,CLR,,,,,,,,VFR,,,,,,,,,,,,METAR,72.0
PTRO 121353Z 05004KT 14SM SCT016 BKN300 26/24 A2985 ,PTRO,2019-01-12T13:53:00Z,7.37,134.55,26.0,24.0,50,4,,14.0,29.84941,,,,,,,,,,,SCT,1600,BKN,30000,,,,,VFR,,,,,,,,,,,,METAR,54.0
KPBI 121353Z 08014KT 10SM SCT025 BKN050 22/13 A3021 RMK AO2 SLP231 T02220133 $,KPBI,2019-01-12T13:53:00Z,26.68,-80.1,22.2,13.3,80,14,,10.0,30.209646,1023.1,,,TRUE,TRUE,,,,,,SCT,2500,BKN,5000,,,,,VFR,,,,,,,,,,,,METAR,6.0
KPDK 121353Z VRB03KT 9SM OVC031 04/M06 A3032 RMK AO2 SLP280 T00391061,KPDK,2019-01-12T13:53:00Z,33.88,-84.3,3.9,-6.1,0,3,,9.0,30.318897,1028.0,,,TRUE,,,,,,,OVC,3100,,,,,,,VFR,,,,,,,,,,,,METAR,302.0
KPDX 121353Z 00000KT 10SM CLR 02/00 A2997 RMK AO2 SLP150 T00220000,KPDX,2019-01-12T13:53:00Z,45.6,-122.62,2.2,0.0,0,0,,10.0,29.970472,1015.0,,,TRUE,,,,,,,CLR,,,,,,,,VFR,,,,,,,,,,,,SPECI,7.0
KPEO 121353Z AUTO 35003KT 10SM FEW020 BKN075 OVC100 M07/M12 A3050 RMK AO2 SLP349 T10721117,KPEO,2019-01-12T13:53:00Z,42.65,-77.05,-7.2,-11.7,350,3,,10.0,30.499016,1034.9,,TRUE,TRUE,,,,,,,FEW,2000,BKN,7500,OVC,10000,,,VFR,,,,,,,,,,,,METAR,256.0
KPQL 121353Z AUTO 11006KT 10SM SCT055 BKN120 13/09 A3011 RMK AO2 SLP198 T01330094,KPQL,2019-01-12T13:53:00Z,30.47,-88.53,13.3,9.4,110,6,,10.0,30.109253,1019.8,,TRUE,TRUE,,,,,,,SCT,5500,BKN,12000,,,,,VFR,,,,,,,,,,,,METAR,6.0
KPOU 121353Z 00000KT 10SM OVC080 M07/M12 A3053 RMK AO2 SLP337 T10671117,KPOU,2019-01-12T13:53:00Z,41.63,-73.88,-6.7,-11.7,0,0,,10.0,30.528543,1033.7,,,TRUE,,,,,,,OVC,8000,,,,,,,VFR,,,,,,,,,,,,METAR,46.0
KPOF 121353Z AUTO 07007KT 5SM -RA BR OVC041 02/01 A3007 RMK AO2 RAB09 SLP190 P0003 T00170011,KPOF,2019-01-12T13:53:00Z,36.77,-90.32,1.7,1.1,70,7,,5.0,30.070866,1019.0,,TRUE,TRUE,,,,,,-RA BR,OVC,4100,,,,,,,MVFR,,,,,,0.03,,,,,,SPECI,99.0
KPNS 121353Z COR 09007KT 10SM OVC008 12/09 A3016 RMK AO2 SLP215 T01170094,KPNS,2019-01-12T13:53:00Z,30.48,-87.18,11.7,9.4,90,7,,10.0,30.159449,1021.5,TRUE,,TRUE,,,,,,,OVC,800,,,,,,,IFR,,,,,,,,,,,,METAR,38.0
KPMP 121353Z 11013KT 10SM FEW038 SCT044 BKN065 23/15 A3020 RMK AO2 SLP226 T02330150,KPMP,2019-01-12T13:53:00Z,26.25,-80.12,23.3,15.0,110,13,,10.0,30.200787,1022.6,,,TRUE,,,,,,,FEW,3800,SCT,4400,BKN,6500,,,VFR,,,,,,,,,,,,METAR,6.0
KPMD 121353Z 06006KT 10SM BKN042 OVC070 06/03 A2999 RMK AO2 RAE43 SLP152 P0005 T00560028 $,KPMD,2019-01-12T13:53:00Z,34.63,-118.08,5.6,2.8,60,6,,10.0,29.991142,1015.2,,,TRUE,TRUE,,,,,,BKN,4200,OVC,7000,,,,,VFR,,,,,,0.05,,,,,,METAR,780.0
KPKD 121353Z AUTO 4SM BR OVC006 M05/M06 A3036 RMK AO2 SLP307 T10501061,KPKD,2019-01-12T13:53:00Z,46.9,-95.07,-5.0,-6.1,,,,4.0,30.360237,1030.7,,TRUE,TRUE,,,,,,BR,OVC,600,,,,,,,IFR,,,,,,,,,,,,METAR,442.0
KPKB 121353Z 04005KT 10SM OVC065 M02/M08 A3038 RMK AO2 SLP299 T10221078,KPKB,2019-01-12T13:53:00Z,39.35,-81.42,-2.2,-7.8,40,5,,10.0,30.380905,1029.9,,,TRUE,,,,,,,OVC,6500,,,,,,,VFR,,,,,,,,,,,,METAR,262.0
KPIR 121353Z AUTO 01007KT 8SM OVC006 M09/M09 A3034 RMK AO2 SLP301 T10891094,KPIR,2019-01-12T13:53:00Z,44.38,-100.28,-8.9,-9.4,10,7,,8.0,30.339567,1030.1,,TRUE,TRUE,,,,,,,OVC,600,,,,,,,IFR,,,,,,,,,,,,METAR,526.0
KPIL 121353Z AUTO 31003KT 1/4SM FG VV002 14/13 A3004 RMK AO2 SLP173 T01440133 $,KPIL,2019-01-12T13:53:00Z,26.17,-97.33,14.4,13.3,310,3,,0.25,30.041338,1017.3,,TRUE,TRUE,TRUE,,,,,FG,OVX,0,,,,,,,LIFR,,,,,,,,,,,200,METAR,5.0
KPIH 121353Z 05008KT 10SM OVC006 M03/M05 A3025 RMK AO2 SLP273 T10331050,KPIH,2019-01-12T13:53:00Z,42.92,-112.57,-3.3,-5.0,50,8,,10.0,30.250984,1027.3,,,TRUE,,,,,,,OVC,600,,,,,,,IFR,,,,,,,,,,,,METAR,1359.0
KPIE 121353Z 10006KT 10SM CLR 17/13 A3021 RMK AO2 SLP230 T01670128 $,KPIE,2019-01-12T13:53:00Z,27.92,-82.68,16.7,12.8,100,6,,10.0,30.209646,1023.0,,,TRUE,TRUE,,,,,,CLR,,,,,,,,VFR,,,,,,,,,,,,METAR,4.0
KPHD 121353Z AUTO 00000KT 10SM OVC075 M03/M08 A3041 RMK AO2 SLP310 T10331083,KPHD,2019-01-12T13:53:00Z,40.47,-81.42,-3.3,-8.3,0,0,,10.0,30.410433,1031.0,,TRUE,TRUE,,,,,,,OVC,7500,,,,,,,VFR,,,,,,,,,,,,METAR,272.0
KPGD 121353Z 09006KT 10SM CLR 17/13 A3022 RMK AO2 SLP235 T01670128,KPGD,2019-01-12T13:53:00Z,26.92,-82.0,16.7,12.8,90,6,,10.0,30.221457,1023.5,,,TRUE,,,,,,,CLR,,,,,,,,VFR,,,,,,,,,,,,METAR,7.0
KPGA 121353Z AUTO 16004KT 10SM CLR M02/M04 A3019 RMK AO2 SLP235 T10171044 TSNO,KPGA,2019-01-12T13:53:00Z,36.92,-111.45,-1.7,-4.4,160,4,,10.0,30.188976,1023.5,,TRUE,TRUE,,,TRUE,,,,CLR,,,,,,,,VFR,,,,,,,,,,,,SPECI,1307.0
KPRB 121353Z AUTO 09005KT 10SM -RA OVC048 09/08 A2994 RMK AO2 SLP138 P0007 T00890083,KPRB,2019-01-12T13:53:00Z,35.67,-120.63,8.9,8.3,90,5,,10.0,29.940945,1013.8,,TRUE,TRUE,,,,,,-RA,OVC,4800,,,,,,,VFR,,,,,,0.07,,,,,,METAR,245.0
KPRC 121353Z COR 00000KT 10SM CLR M02/M04 A3014 RMK AO2 SLP201 T10221044,KPRC,2019-01-12T13:53:00Z,34.65,-112.42,-2.2,-4.4,0,0,,10.0,30.138779,1020.1,TRUE,,TRUE,,,,,,,CLR,,,,,,,,VFR,,,,,,,,,,,,METAR,1524.0
KRQE 121353Z AUTO 20003KT 10SM CLR M11/M12 A3018 RMK AO2 SLP232 T11061122,KRQE,2019-01-12T13:53:00Z,35.65,-109.07,-10.6,-12.2,200,3,,10.0,30.180119,1023.2,,TRUE,TRUE,,,,,,,CLR,,,,,,,,VFR,,,,,,,,,,,,SPECI,2055.0
KRNT 121353Z AUTO 00000KT 10SM CLR 03/02 A2995 RMK AO2 SLP148 T00330017,KRNT,2019-01-12T13:53:00Z,47.5,-122.22,3.3,1.7,0,0,,10.0,29.949802,1014.8,,TRUE,TRUE,,,,,,,CLR,,,,,,,,VFR,,,,,,,,,,,,METAR,21.0
KRMG 121353Z AUTO 11015KT 10SM OVC031 07/M07 A3028 RMK AO2 SLP253 T00671067,KRMG,2019-01-12T13:53:00Z,34.35,-85.17,6.7,-6.7,110,15,,10.0,30.280512,1025.3,,TRUE,TRUE,,,,,,,OVC,3100,,,,,,,VFR,,,,,,,,,,,,METAR,193.0
KRME 121353Z 00000KT 10SM CLR M13/M18 A3057 RMK AO2 SLP361 T11281183,KRME,2019-01-12T13:53:00Z,43.22,-75.4,-12.8,-18.3,0,0,,10.0,30.569881,1036.1,,,TRUE,,,,,,,CLR,,,,,,,,VFR,,,,,,,,,,,,METAR,154.0
KRKP 121353Z AUTO 30007KT 4SM BR OVC007 16/15 A3004 RMK AO2 SLP174 T01560150,KRKP,2019-01-12T13:53:00Z,28.08,-97.05,15.6,15.0,300,7,,4.0,30.041338,1017.4,,TRUE,TRUE,,,,,,BR,OVC,700,,,,,,,IFR,,,,,,,,,,,,METAR,6.0
KRIW 121353Z AUTO 00000KT 1/4SM FZFG VV001 M14/M16 A3020 RMK AO2 SLP304 T11391156,KRIW,2019-01-12T13:53:00Z,43.07,-108.47,-13.9,-15.6,0,0,,0.25,30.200787,1030.4,,TRUE,TRUE,,,,,,FZFG,OVX,0,,,,,,,LIFR,,,,,,,,,,,100,SPECI,1697.0
KRIL 121353Z AUTO 00000KT 3/4SM BR FEW002 BKN027 OVC085 M04/M05 A3019 RMK AO2 SLP244 I1000 T10441050,KRIL,2019-01-12T13:53:00Z,39.53,-107.73,-4.4,-5.0,0,0,,0.75,30.188976,1024.4,,TRUE,TRUE,,,,,,BR,FEW,200,BKN,2700,OVC,8500,,,LIFR,,,,,,,,,,,,METAR,1678.0
KRHI 121353Z AUTO 09011KT 8SM OVC004 M05/M07 A3037 RMK AO2 SLP312 I1001 T10501072 $,KRHI,2019-01-12T13:53:00Z,45.63,-89.48,-5.0,-7.2,90,11,,8.0,30.369095,1031.2,,TRUE,TRUE,TRUE,,,,,,OVC,400,,,,,,,LIFR,,,,,,,,,,,,METAR,485.0
KRBD 121353Z 29010KT 10SM CLR 06/02 A2998 RMK AO2 SLP151 T00610022 $,KRBD,2019-01-12T13:53:00Z,32.68,-96.87,6.1,2.2,290,10,,10.0,29.97933,1015.1,,,TRUE,TRUE,,,,,,CLR,,,,,,,,VFR,,,,,,,,,,,,METAR,203.0
KRAL 121353Z AUTO 00000KT 10SM -RA FEW007 BKN047 OVC060 09/08 A3004 RMK AO2 SLP163 P0019 T00890083,KRAL,2019-01-12T13:53:00Z,33.95,-117.45,8.9,8.3,0,0,,10.0,30.041338,1016.3,,TRUE,TRUE,,,,,,-RA,FEW,700,BKN,4700,OVC,6000,,,VFR,,,,,,0.19,,,,,,METAR,252.0
KRAC 121353Z AUTO 08011KT 9SM OVC021 00/M04 A3036 RMK AO2 SLP290 T00001039,KRAC,2019-01-12T13:53:00Z,42.77,-87.82,0.0,-3.9,80,11,,9.0,30.360237,1029.0,,TRUE,TRUE,,,,,,,OVC,2100,,,,,,,MVFR,,,,,,,,,,,,METAR,203.0
KPUW 121353Z AUTO 09015KT 10SM CLR 00/M03 A3014 RMK AO2 SLP228 T00001028,KPUW,2019-01-12T13:53:00Z,46.75,-117.12,0.0,-2.8,90,15,,10.0,30.138779,1022.8,,TRUE,TRUE,,,,,,,CLR,,,,,,,,VFR,,,,,,,,,,,,METAR,773.0
KPUC 121353Z AUTO 01009KT 10SM CLR M06/M09 A3017 RMK AO2 SLP263 T10561094,KPUC,2019-01-12T13:53:00Z,39.62,-110.75,-5.6,-9.4,10,9,,10.0,30.171259,1026.3,,TRUE,TRUE,,,,,,,CLR,,,,,,,,VFR,,,,,,,,,,,,METAR,2091.0
KPUB 121353Z 34005KT 10SM OVC070 02/M02 A3019 RMK AO2 SLP227 T00171017,KPUB,2019-01-12T13:53:00Z,38.28,-104.5,1.7,-1.7,340,5,,10.0,30.188976,1022.7,,,TRUE,,,,,,,OVC,7000,,,,,,,VFR,,,,,,,,,,,,METAR,1420.0
KPTK 121353Z 07008KT 10SM OVC065 M03/M08 A3042 RMK AO2 SLP314 T10331078,KPTK,2019-01-12T13:53:00Z,42.67,-83.42,-3.3,-7.8,70,8,,10.0,30.41929,1031.4,,,TRUE,,,,,,,OVC,6500,,,,,,,VFR,,,,,,,,,,,,METAR,299.0
KPSP 121353Z 26007KT 10SM -RA BKN070 OVC090 12/07 A3004 RMK AO2 RAB17 SLP172 P0000 T01220067,KPSP,2019-01-12T13:53:00Z,33.82,-116.5,12.2,6.7,260,7,,10.0,30.041338,1017.2,,,TRUE,,,,,,-RA,BKN,7000,OVC,9000,,,,,VFR,,,,,,0.005,,,,,,METAR,135.0
KVLD 121353Z 09005KT 10SM FEW044 OVC060 09/07 A3027 RMK AO2 SLP259 T00940072,KVLD,2019-01-12T13:53:00Z,30.78,-83.27,9.4,7.2,90,5,,10.0,30.268702,1025.9,,,TRUE,,,,,,,FEW,4400,OVC,6000,,,,,VFR,,,,,,,,,,,,SPECI,62.0
KVGT 121353Z 27005KT 10SM CLR 05/M02 A3009 RMK AO2 SLP209 T00501022 $,KVGT,2019-01-12T13:53:00Z,36.22,-115.2,5.0,-2.2,270,5,,10.0,30.088583,1020.9,,,TRUE,TRUE,,,,,,CLR,,,,,,,,VFR,,,,,,,,,,,,METAR,671.0
KVEL 121353Z AUTO 00000KT 10SM CLR M15/M18 A3025 RMK AO2 SLP311 I1000 T11501178,KVEL,2019-01-12T13:53:00Z,40.45,-109.52,-15.0,-17.8,0,0,,10.0,30.250984,1031.1,,TRUE,TRUE,,,,,,,CLR,,,,,,,,VFR,,,,,,,,,,,,METAR,1604.0
KVCB 121353Z AUTO 00000KT 6SM BR SCT070 BKN080 06/06 A2996 RMK AO2 SLP146 T00610061,KVCB,2019-01-12T13:53:00Z,38.38,-121.95,6.1,6.1,0,0,,6.0,29.958662,1014.6,,TRUE,TRUE,,,,,,BR,SCT,7000,BKN,8000,,,,,VFR,,,,,,,,,,,,METAR,33.0
KUUU 121353Z AUTO 31011KT 10SM FEW095 SCT120 M07/M16 A3048 RMK AO2 SLP324 T10671161,KUUU,2019-01-12T13:53:00Z,41.53,-71.28,-6.7,-16.1,310,11,,10.0,30.481298,1032.4,,TRUE,TRUE,,,,,,,FEW,9500,SCT,12000,,,,,VFR,,,,,,,,,,,,METAR,51.0
KUNO 121353Z AUTO 10007KT 4SM -RA BR OVC004 01/00 A2997 RMK AO2 RAB18FZRAE18 SLP158 P0008 I1002 T00060000,KUNO,2019-01-12T13:53:00Z,36.88,-91.9,0.6,0.0,100,7,,4.0,29.970472,1015.8,,TRUE,TRUE,,,,,,-RA BR,OVC,400,,,,,,,LIFR,,,,,,0.08,,,,,,SPECI,372.0
KUIL 121353Z AUTO 10003KT 10SM SCT100 06/03 A2988 RMK AO2 SLP119 T00610033 $,KUIL,2019-01-12T13:53:00Z,47.93,-124.55,6.1,3.3,100,3,,10.0,29.878937,1011.9,,TRUE,TRUE,TRUE,,,,,,SCT,10000,,,,,,,VFR,,,,,,,,,,,,SPECI,54.0
KUAO 121353Z AUTO 00000KT 5SM BR CLR M01/M01 A2996 RMK AO2 SLP145 I1000 T10061011,KUAO,2019-01-12T13:53:00Z,45.25,-122.77,-0.6,-1.1,0,0,,5.0,29.958662,1014.5,,TRUE,TRUE,,,,,,BR,CLR,,,,,,,,MVFR,,,,,,,,,,,,METAR,59.0
KTYS 121353Z 01005KT 10SM FEW045 SCT060 OVC110 04/M02 A3026 RMK AO2 SLP250 T00441022,KTYS,2019-01-12T13:53:00Z,35.82,-83.98,4.4,-2.2,10,5,,10.0,30.259842,1025.0,,,TRUE,,,,,,,FEW,4500,SCT,6000,OVC,11000,,,VFR,,,,,,,,,,,,METAR,302.0
KTWF 121353Z 08012KT 10SM OVC005 M03/M03 A3019 RMK AO2 SLP237 T10281033,KTWF,2019-01-12T13:53:00Z,42.48,-114.48,-2.8,-3.3,80,12,,10.0,30.188976,1023.7,,,TRUE,,,,,,,OVC,500,,,,,,,IFR,,,,,,,,,,,,METAR,1266.0
KTVL 121353Z AUTO 00000KT 10SM CLR M06/M07 A3000 RMK AO2 SLP172 I1000 T10561072,KTVL,2019-01-12T13:53:00Z,38.9,-120.0,-5.6,-7.2,0,0,,10.0,30.0,1017.2,,TRUE,TRUE,,,,,,,CLR,,,,,,,,VFR,,,,,,,,,,,,METAR,1924.0
KTVC 121353Z 07006KT 10SM FEW038 BKN042 OVC070 M04/M09 A3047 RMK AO2 SLP330 T10441094,KTVC,2019-01-12T13:53:00Z,44.73,-85.57,-4.4,-9.4,70,6,,10.0,30.469488,1033.0,,,TRUE,,,,,,,FEW,3800,BKN,4200,OVC,7000,,,VFR,,,,,,,,,,,,METAR,190.0
KTUS 121353Z 18010KT 10SM CLR 06/01 A3009 RMK AO2 SLP178 T00560011,KTUS,2019-01-12T13:53:00Z,32.13,-110.95,5.6,1.1,180,10,,10.0,30.088583,1017.8,,,TRUE,,,,,,,CLR,,,,,,,,VFR,,,,,,,,,,,,SPECI,776.0
KTUP 121353Z 13007KT 10SM BKN055 BKN110 08/M01 A3012 RMK AO2 SLP198 T00831006,KTUP,2019-01-12T13:53:00Z,34.27,-88.77,8.3,-0.6,130,7,,10.0,30.121063,1019.8,,,TRUE,,,,,,,BKN,5500,BKN,11000,,,,,VFR,,,,,,,,,,,,METAR,105.0
KTUL 121353Z 01008KT 2 1/2SM -RA BR BKN003 OVC009 04/03 A2990 RMK AO2 SLP126 P0002 T00390033,KTUL,2019-01-12T13:53:00Z,36.2,-95.88,3.9,3.3,10,8,,2.5,29.899607,1012.6,,,TRUE,,,,,,-RA BR,BKN,300,OVC,900,,,,,LIFR,,,,,,0.02,,,,,,SPECI,207.0
KTTN 121353Z 34004KT 10SM BKN080 M05/M13 A3055 RMK AO2 SLP341 T10501133,KTTN,2019-01-12T13:53:00Z,40.28,-74.82,-5.0,-13.3,340,4,,10.0,30.549213,1034.1,,,TRUE,,,,,,,BKN,8000,,,,,,,VFR,,,,,,,,,,,,METAR,59.0
KTTD 121353Z AUTO 08017G26KT 10SM CLR 07/01 A2997 RMK AO2 PK WND 09028/1311 SLP149 T00670011,KTTD,2019-01-12T13:53:00Z,45.55,-122.42,6.7,1.1,80,17,26,10.0,29.970472,1014.9,,TRUE,TRUE,,,,,,,CLR,,,,,,,,VFR,,,,,,,,,,,,METAR,14.0
KTRL 121353Z AUTO 27007KT 10SM CLR 07/03 A2998 RMK AO2 SLP150 T00670028,KTRL,2019-01-12T13:53:00Z,32.72,-96.27,6.7,2.8,270,7,,10.0,29.97933,1015.0,,TRUE,TRUE,,,,,,,CLR,,,,,,,,VFR,,,,,,,,,,,,METAR,145.0
KTRI 121353Z 15006KT 10SM OVC095 05/M05 A3029 RMK AO2 SLP254 T00501050,KTRI,2019-01-12T13:53:00Z,36.48,-82.4,5.0,-5.0,150,6,,10.0,30.28937,1025.4,,,TRUE,,,,,,,OVC,9500,,,,,,,VFR,,,,,,,,,,,,METAR,474.0
KTPA 121353Z VRB04KT 10SM FEW045 SCT210 16/12 A3022 RMK AO2 SLP233 T01610117,KTPA,2019-01-12T13:53:00Z,27.97,-82.53,16.1,11.7,0,4,,10.0,30.221457,1023.3,,,TRUE,,,,,,,FEW,4500,SCT,21000,,,,,VFR,,,,,,,,,,,,SPECI,11.0
KTOR 121353Z AUTO 28006KT 10SM CLR M06/M06 A3019 RMK AO2 SLP255 T10561061 $,KTOR,2019-01-12T13:53:00Z,42.07,-104.15,-5.6,-6.1,280,6,,10.0,30.188976,1025.5,,TRUE,TRUE,TRUE,,,,,,CLR,,,,,,,,VFR,,,,,,,,,,,,METAR,1277.0
KTOP 121353Z 02008KT 5SM BR OVC009 00/M02 A3003 RMK AO2 SNE03 CIG 007V012 SLP176 P0000 T00001017,KTOP,2019-01-12T13:53:00Z,39.07,-95.63,0.0,-1.7,20,8,,5.0,30.029528,1017.6,,,TRUE,,,,,,BR,OVC,900,,,,,,,IFR,,,,,,0.005,,,,,,SPECI,268.0
KTOI 121353Z AUTO 11006KT 10SM SCT028 OVC043 09/04 A3023 RMK AO2 SLP235 T00890039,KTOI,2019-01-12T13:53:00Z,31.85,-86.02,8.9,3.9,110,6,,10.0,30.230314,1023.5,,TRUE,TRUE,,,,,,,SCT,2800,OVC,4300,,,,,VFR,,,,,,,,,,,,METAR,118.0
KTMB 121353Z 10014G20KT 10SM BKN046 23/16 A3018 RMK AO2 SLP220 T02330161,KTMB,2019-01-12T13:53:00Z,25.65,-80.43,23.3,16.1,100,14,20,10.0,30.180119,1022.0,,,TRUE,,,,,,,BKN,4600,,,,,,,VFR,,,,,,,,,,,,SPECI,2.0
KTLH 121353Z 09005KT 10SM BKN047 BKN055 11/08 A3024 RMK AO2 SLP239 T01110083,KTLH,2019-01-12T13:53:00Z,30.4,-84.35,11.1,8.3,90,5,,10.0,30.239174,1023.9,,,TRUE,,,,,,,BKN,4700,BKN,5500,,,,,VFR,,,,,,,,,,,,METAR,19.0
KTKI 121353Z 27011KT 10SM CLR 06/02 A2996 RMK AO2 SLP156 T00610022,KTKI,2019-01-12T13:53:00Z,33.18,-96.58,6.1,2.2,270,11,,10.0,29.958662,1015.6,,,TRUE,,,,,,,CLR,,,,,,,,VFR,,,,,,,,,,,,METAR,179.0
KTIW 121353Z AUTO 00000KT 1/4SM FG VV001 02/02 A2995 RMK AO2 SLP143 I1001 T00220022,KTIW,2019-01-12T13:53:00Z,47.27,-122.58,2.2,2.2,0,0,,0.25,29.949802,1014.3,,TRUE,TRUE,,,,,,FG,OVX,0,,,,,,,LIFR,,,,,,,,,,,100,METAR,89.0
KTHV 121353Z AUTO 00000KT 8SM CLR M05/M07 A3053 RMK AO2 SLP348 T10501072,KTHV,2019-01-12T13:53:00Z,39.92,-76.88,-5.0,-7.2,0,0,,8.0,30.528543,1034.8,,TRUE,TRUE,,,,,,,CLR,,,,,,,,VFR,,,,,,,,,,,,METAR,144.0
KTDZ 121353Z AUTO 08005KT 6SM HZ CLR M03/M06 A3043 RMK AO2 SLP313 T10281061,KTDZ,2019-01-12T13:53:00Z,41.57,-83.48,-2.8,-6.1,80,5,,6.0,30.431103,1031.3,,TRUE,TRUE,,,,,,HZ,CLR,,,,,,,,VFR,,,,,,,,,,,,METAR,189.0
KTCS 121353Z AUTO 31003KT 10SM CLR M01/M03 A3019 RMK AO2 SLP212 T10061033,KTCS,2019-01-12T13:53:00Z,33.23,-107.27,-0.6,-3.3,310,3,,10.0,30.188976,1021.2,,TRUE,TRUE,,,,,,,CLR,,,,,,,,VFR,,,,,,,,,,,,SPECI,1469.0
KTCL 121353Z 08004KT 10SM BKN039 09/02 A3020 RMK AO2 SLP227 T00940022,KTCL,2019-01-12T13:53:00Z,33.22,-87.62,9.4,2.2,80,4,,10.0,30.200787,1022.7,,,TRUE,,,,,,,BKN,3900,,,,,,,VFR,,,,,,,,,,,,SPECI,49.0
KTCC 121353Z AUTO 34008KT 10SM CLR 01/M02 A3013 RMK AO2 SLP207 T00061022,KTCC,2019-01-12T13:53:00Z,35.18,-103.6,0.6,-2.2,340,8,,10.0,30.129921,1020.7,,TRUE,TRUE,,,,,,,CLR,,,,,,,,VFR,,,,,,,,,,,,METAR,1235.0
KSTS 121353Z AUTO 00000KT 1/2SM -RA FG BKN001 OVC075 08/08 A2993 RMK AO2 RAB52 SLP130 P0000 T00830083,KSTS,2019-01-12T13:53:00Z,38.5,-122.82,8.3,8.3,0,0,,0.5,29.929134,1013.0,,TRUE,TRUE,,,,,,-RA FG,BKN,100,OVC,7500,,,,,LIFR,,,,,,0.005,,,,,,METAR,39.0
KSTP 121353Z 08004KT 7SM OVC060 M06/M09 A3035 RMK AO2 SLP287 T10561089,KSTP,2019-01-12T13:53:00Z,44.93,-93.05,-5.6,-8.9,80,4,,7.0,30.351377,1028.7,,,TRUE,,,,,,,OVC,6000,,,,,,,VFR,,,,,,,,,,,,METAR,219.0
KSTJ 121353Z 04010KT 1 1/2SM -SN BR FEW008 OVC032 M01/M02 A3007 RMK AO2 SLP190 P0000 T10111022,KSTJ,2019-01-12T13:53:00Z,39.77,-94.92,-1.1,-2.2,40,10,,1.5,30.070866,1019.0,,,TRUE,,,,,,-SN BR,FEW,800,OVC,3200,,,,,IFR,,,,,,0.005,,,,,,METAR,247.0
KSTC 121353Z 05005KT 10SM BKN042 M06/M08 A3034 RMK AO2 SLP300 T10561083,KSTC,2019-01-12T13:53:00Z,45.55,-94.05,-5.6,-8.3,50,5,,10.0,30.339567,1030.0,,,TRUE,,,,,,,BKN,4200,,,,,,,VFR,,,,,,,,,,,,SPECI,314.0
KSSI 121353Z AUTO 05010KT 10SM FEW044 OVC060 15/11 A3030 RMK AO2 SLP263 T01500111,KSSI,2019-01-12T13:53:00Z,31.15,-81.38,15.0,11.1,50,10,,10.0,30.301182,1026.3,,TRUE,TRUE,,,,,,,FEW,4400,OVC,6000,,,,,VFR,,,,,,,,,,,,METAR,6.0
KRTN 121353Z AUTO 02009KT 10SM FEW022 SCT030 BKN060 M01/M04 A3013 RMK AO2 SLP209 T10061044,KRTN,2019-01-12T13:53:00Z,36.73,-104.5,-0.6,-4.4,20,9,,10.0,30.129921,1020.9,,TRUE,TRUE,,,,,,,FEW,2200,SCT,3000,BKN,6000,,,VFR,,,,,,,,,,,,METAR,1936.0
KRSW 121353Z 08009KT 10SM CLR 18/14 A3020 RMK AO2 SLP223 T01780139,KRSW,2019-01-12T13:53:00Z,26.53,-81.75,17.8,13.9,80,9,,10.0,30.200787,1022.3,,,TRUE,,,,,,,CLR,,,,,,,,VFR,,,,,,,,,,,,METAR,10.0
KRSL 121353Z AUTO 36018G24KT 1 1/2SM -SN BR BKN007 OVC014 M01/M01 A3008 RMK AO2 PK WND 36027/1321 SLP204 P0001 T10111011 $,KRSL,2019-01-12T13:53:00Z,38.87,-98.82,-1.1,-1.1,360,18,24,1.5,30.079725,1020.4,,TRUE,TRUE,TRUE,,,,,-SN BR,BKN,700,OVC,1400,,,,,IFR,,,,,,0.01,,,,,,METAR,567.0
KYKM 121353Z 30003KT 10SM CLR M04/M05 A3016 RMK AO2 SLP225 I1000 T10391050,KYKM,2019-01-12T13:53:00Z,46.57,-120.53,-3.9,-5.0,300,3,,10.0,30.159449,1022.5,,,TRUE,,,,,,,CLR,,,,,,,,VFR,,,,,,,,,,,,SPECI,324.0
KXNA 121353Z 09003KT 7SM OVC004 05/03 A2987 RMK AO2 SLP117 T00500028,KXNA,2019-01-12T13:53:00Z,36.28,-94.3,5.0,2.8,90,3,,7.0,29.870079,1011.7,,,TRUE,,,,,,,OVC,400,,,,,,,LIFR,,,,,,,,,,,,METAR,392.0
KVUO 121353Z AUTO 00000KT 10SM CLR M01/M02 A2997 RMK AO2 SLP148 T10061017,KVUO,2019-01-12T13:53:00Z,45.62,-122.65,-0.6,-1.7,0,0,,10.0,29.970472,1014.8,,TRUE,TRUE,,,,,,,CLR,,,,,,,,VFR,,,,,,,,,,,,METAR,8.0
KVRB 121353Z 12008KT 10SM SCT028 23/13 A3023 RMK AO2 SLP237 T02280133,KVRB,2019-01-12T13:53:00Z,27.65,-80.42,22.8,13.3,120,8,,10.0,30.230314,1023.7,,,TRUE,,,,,,,SCT,2800,,,,,,,VFR,,,,,,,,,,,,SPECI,10.0
KP68 121353Z AUTO 02003KT M08/M08 A3013 RMK AO1 SLP233 T10781083,KP68,2019-01-12T13:53:00Z,39.6,-116.0,-7.8,-8.3,20,3,,,30.129921,1023.3,,TRUE,TRUE,,,,,,,,,,,,,,,,,,,,,,,,,,,METAR,1809.0
KPDT 121353Z 04003KT 1/2SM R25/2200V2600FT FG VV002 00/M01 A3012 RMK AO2 SLP207 T00001011,KPDT,2019-01-12T13:53:00Z,45.7,-118.83,0.0,-1.1,40,3,,0.5,30.121063,1020.7,,,TRUE,,,,,,FG,OVX,0,,,,,,,LIFR,,,,,,,,,,,200,METAR,462.0
TIST 121353Z 09007KT 10SM FEW026 28/21 A3010 RMK AO2 SLP194 T02780211,TIST,2019-01-12T13:53:00Z,18.33,-64.98,27.8,21.1,90,7,,10.0,30.100393,1019.4,,,TRUE,,,,,,,FEW,2600,,,,,,,VFR,,,,,,,,,,,,METAR,7.0
TISX 121353Z 06010KT 10SM CLR 28/21 A3010 RMK AO2 SLP192 T02830211,TISX,2019-01-12T13:53:00Z,17.7,-64.8,28.3,21.1,60,10,,10.0,30.100393,1019.2,,,TRUE,,,,,,,CLR,,,,,,,,VFR,,,,,,,,,,,,METAR,19.0
PAWD 121353Z AUTO 35011KT 10SM BKN050 OVC070 M12/M14 A2975 RMK SNE1259 SLP076 T11171144 TSNO PNO $ VIA AUTODIAL,PAWD,2019-01-12T13:53:00Z,60.12,-149.42,-11.7,-14.4,350,11,,10.0,29.749016,1007.6,,TRUE,,TRUE,,TRUE,,,,BKN,5000,OVC,7000,,,,,VFR,,,,,,,,,,,,SPECI,23.0
PAQT 121353Z AUTO 18004KT 7SM OVC019 M39/ A3036 RMK SLP281 T1389 TSNO VIA AUTODIAL,PAQT,2019-01-12T13:53:00Z,70.22,-151.0,-38.9,,180,4,,7.0,30.360237,1028.1,,TRUE,,,,TRUE,,,,OVC,1900,,,,,,,MVFR,,,,,,,,,,,,SPECI,12.0
PABR 121353Z AUTO 06011KT 8SM CLR M29/M33 A3038 RMK SLP291 I1000 T12941328 TSNO VIA AUTODIAL,PABR,2019-01-12T13:53:00Z,71.28,-156.77,-29.4,-32.8,60,11,,8.0,30.380905,1029.1,,TRUE,,,,TRUE,,,,CLR,,,,,,,,VFR,,,,,,,,,,,,SPECI,7.0
PANT 121353Z AUTO 04003KT 7SM OVC012 03/03 A2985 RMK RAE24UPB24E26 SLP109 P0000 T00330033 TSNO $ VIA AUTODIAL,PANT,2019-01-12T13:53:00Z,55.03,-131.57,3.3,3.3,40,3,,7.0,29.84941,1010.9,,TRUE,,TRUE,,TRUE,,,,OVC,1200,,,,,,,MVFR,,,,,,0.005,,,,,,SPECI,36.0
KSWO 121353Z AUTO 35014G18KT 9SM OVC005 02/01 A2993 RMK AO2 UPB37E41RAB41E50 SLP138 P0000 T00220006,KSWO,2019-01-12T13:53:00Z,36.17,-97.08,2.2,0.6,350,14,18,9.0,29.929134,1013.8,,TRUE,TRUE,,,,,,,OVC,500,,,,,,,IFR,,,,,,0.005,,,,,,METAR,290.0
KALS 121352Z AUTO 00000KT 10SM BKN065 OVC085 M13/M14 A3014 RMK AO2 SLP270 I1000 T11281144,KALS,2019-01-12T13:52:00Z,37.43,-105.87,-12.8,-14.4,0,0,,10.0,30.138779,1027.0,,TRUE,TRUE,,,,,,,BKN,6500,OVC,8500,,,,,VFR,,,,,,,,,,,,METAR,2299.0
PABA 121352Z AUTO 27014KT 9SM CLR M33/M37 A3034 RMK AO2 SNE41 SLP258 P0000 T13331367 FZRANO TSNO,PABA,2019-01-12T13:52:00Z,70.13,-143.58,-33.3,-36.7,270,14,,9.0,30.339567,1025.8,,TRUE,TRUE,,,TRUE,TRUE,,,CLR,,,,,,,,VFR,,,,,,0.005,,,,,,METAR,2.0
PKMR 121352Z 10004KT 15SM FEW015 SCT050 BKN300 27/25 A2971 RMK SLP063 T02730245,PKMR,2019-01-12T13:52:00Z,7.08,171.38,27.3,24.5,100,4,,15.0,29.71063,1006.3,,,,,,,,,,FEW,1500,SCT,5000,BKN,30000,,,VFR,,,,,,,,,,,,METAR,4.0
KSUX 121352Z 35012KT 8SM OVC036 M04/M06 A3024 RMK AO2 SLP255 T10391061,KSUX,2019-01-12T13:52:00Z,42.38,-96.38,-3.9,-6.1,350,12,,8.0,30.239174,1025.5,,,TRUE,,,,,,,OVC,3600,,,,,,,VFR,,,,,,,,,,,,METAR,338.0
KSPI 121352Z 09008KT 1/2SM R04/4500V5000FT SN FZFG SCT006 OVC011 M01/M02 A3019 RMK AO2 SLP231 P0006 T10111022,KSPI,2019-01-12T13:52:00Z,39.85,-89.68,-1.1,-2.2,90,8,,0.5,30.188976,1023.1,,,TRUE,,,,,,SN FZFG,SCT,600,OVC,1100,,,,,LIFR,,,,,,0.06,,,,,,METAR,181.0
KREO 121352Z AUTO 00000KT M04/M06 A3013 RMK AO1 SLP234 T10441056,KREO,2019-01-12T13:52:00Z,42.58,-117.87,-4.4,-5.6,0,0,,,30.129921,1023.4,,TRUE,TRUE,,,,,,,,,,,,,,,,,,,,,,,,,,,METAR,1235.0
KCDJ 121352Z AUTO 06005KT M01/M02 A3009 RMK AO1 SLP203 P0001 T10111022 $,KCDJ,2019-01-12T13:52:00Z,39.82,-93.58,-1.1,-2.2,60,5,,,30.088583,1020.3,,TRUE,TRUE,TRUE,,,,,,,,,,,,,,,,,,,,0.01,,,,,,METAR,234.0
KP69 121352Z AUTO 00000KT M02/M03 A3029 RMK AO1 SLP283 T10221033 TSNO,KP69,2019-01-12T13:52:00Z,46.15,-115.6,-2.2,-3.3,0,0,,,30.28937,1028.3,,TRUE,TRUE,,,TRUE,,,,,,,,,,,,,,,,,,,,,,,,METAR,480.0
KN60 121352Z AUTO 13004KT M11/M12 A3034 RMK AO1 SLP317 T11111122,KN60,2019-01-12T13:52:00Z,47.65,-101.43,-11.1,-12.2,130,4,,,30.339567,1031.7,,TRUE,TRUE,,,,,,,,,,,,,,,,,,,,,,,,,,,METAR,582.0
KCZZ 121352Z AUTO 00000KT 08/03 A2998 RMK AO1 SLP139 T00780033,KCZZ,2019-01-12T13:52:00Z,32.63,-116.47,7.8,3.3,0,0,,,29.97933,1013.9,,TRUE,TRUE,,,,,,,,,,,,,,,,,,,,,,,,,,,METAR,807.0
KNRB 121352Z AUTO 11008KT 10SM OVC060 18/13 A3027 RMK AO2 SLP250 T01830133 TSNO $,KNRB,2019-01-12T13:52:00Z,30.38,-81.42,18.3,13.3,110,8,,10.0,30.268702,1025.0,,TRUE,TRUE,TRUE,,TRUE,,,,OVC,6000,,,,,,,VFR,,,,,,,,,,,,METAR,5.0
KMDH 121352Z 08007KT 5SM BR SCT006 OVC100 01/M01 A3013 RMK AO2 SLP207 T00061006,KMDH,2019-01-12T13:52:00Z,37.78,-89.25,0.6,-0.6,80,7,,5.0,30.129921,1020.7,,,TRUE,,,,,,BR,SCT,600,OVC,10000,,,,,MVFR,,,,,,,,,,,,METAR,130.0
KMEB 121352Z AUTO 06006KT 10SM BKN110 03/M05 A3047 RMK AO2 SLP321 T00281050,KMEB,2019-01-12T13:52:00Z,34.78,-79.37,2.8,-5.0,60,6,,10.0,30.469488,1032.1,,TRUE,TRUE,,,,,,,BKN,11000,,,,,,,VFR,,,,,,,,,,,,METAR,67.0
KMFD 121352Z 08005KT 8SM OVC080 M04/M07 A3037 RMK AO2 SLP302 T10441072,KMFD,2019-01-12T13:52:00Z,40.82,-82.52,-4.4,-7.2,80,5,,8.0,30.369095,1030.2,,,TRUE,,,,,,,OVC,8000,,,,,,,VFR,,,,,,,,,,,,METAR,395.0
KMKE 121352Z 09012KT 8SM FEW018 OVC022 01/M04 A3035 RMK AO2 SLP288 T00061039,KMKE,2019-01-12T13:52:00Z,42.95,-87.9,0.6,-3.9,90,12,,8.0,30.351377,1028.8,,,TRUE,,,,,,,FEW,1800,OVC,2200,,,,,MVFR,,,,,,,,,,,,METAR,206.0
KMLF 121352Z AUTO 00000KT 10SM OVC008 M02/M04 A3021 RMK AO2 SLP249 T10221039,KMLF,2019-01-12T13:52:00Z,38.42,-113.02,-2.2,-3.9,0,0,,10.0,30.209646,1024.9,,TRUE,TRUE,,,,,,,OVC,800,,,,,,,IFR,,,,,,,,,,,,METAR,1534.0
KMLI 121352Z 08009KT 1/2SM R09/3500V4500FT SN FZFG VV009 M02/M03 A3024 RMK AO2 SLP249 P0005 T10171028,KMLI,2019-01-12T13:52:00Z,41.45,-90.52,-1.7,-2.8,80,9,,0.5,30.239174,1024.9,,,TRUE,,,,,,SN FZFG,OVX,0,,,,,,,LIFR,,,,,,0.05,,,,,900,METAR,184.0
KOKB 121352Z AUTO 05008KT 7SM -RA FEW045 OVC050 11/11 A3000 RMK AO2 RAE22B49 SLP160 P0002 T01110111,KOKB,2019-01-12T13:52:00Z,33.22,-117.35,11.1,11.1,50,8,,7.0,30.0,1016.0,,TRUE,TRUE,,,,,,-RA,FEW,4500,OVC,5000,,,,,VFR,,,,,,0.02,,,,,,METAR,8.0
KTRM 121352Z AUTO 30003KT 10SM FEW070 SCT110 11/06 A3000 RMK AO2 SLP159 T01060056 TSNO,KTRM,2019-01-12T13:52:00Z,33.63,-116.17,10.6,5.6,300,3,,10.0,30.0,1015.9,,TRUE,TRUE,,,TRUE,,,,FEW,7000,SCT,11000,,,,,VFR,,,,,,,,,,,,METAR,-35.0
KTOL 121352Z 07006KT 7SM CLR M03/M07 A3041 RMK AO2 SLP307 T10281072,KTOL,2019-01-12T13:52:00Z,41.58,-83.8,-2.8,-7.2,70,6,,7.0,30.410433,1030.7,,,TRUE,,,,,,,CLR,,,,,,,,VFR,,,,,,,,,,,,METAR,210.0
KTAN 121352Z AUTO 31008KT 10SM CLR M07/M18 A3048 RMK AO2 SLP323 T10721183,KTAN,2019-01-12T13:52:00Z,41.88,-71.02,-7.2,-18.3,310,8,,10.0,30.481298,1032.3,,TRUE,TRUE,,,,,,,CLR,,,,,,,,VFR,,,,,,,,,,,,METAR,7.0
KSPS 121352Z AUTO 32021G27KT 10SM SCT020 OVC050 04/02 A2999 RMK AO2 PK WND 32027/1352 SLP155 T00440017,KSPS,2019-01-12T13:52:00Z,33.98,-98.5,4.4,1.7,320,21,27,10.0,29.991142,1015.5,,TRUE,TRUE,,,,,,,SCT,2000,OVC,5000,,,,,VFR,,,,,,,,,,,,METAR,308.0
KSGF 121352Z 14011KT 5SM -RA BR BKN008 OVC020 02/00 A2992 RMK AO2 SLP139 P0002 T00170000,KSGF,2019-01-12T13:52:00Z,37.23,-93.38,1.7,0.0,140,11,,5.0,29.920275,1013.9,,,TRUE,,,,,,-RA BR,BKN,800,OVC,2000,,,,,IFR,,,,,,0.02,,,,,,METAR,390.0
KRAP 121352Z 21003KT 1/4SM FZFG VV002 M04/M06 A3022 RMK AO2 SLP269 I1002 T10391056 RVRNO,KRAP,2019-01-12T13:52:00Z,44.05,-103.05,-3.9,-5.6,210,3,,0.25,30.221457,1026.9,,,TRUE,,,,,,FZFG,OVX,0,,,,,,,LIFR,,,,,,,,,,,200,METAR,965.0
KPYM 121352Z AUTO 29012KT 10SM CLR M08/M19 A3047 RMK AO2 SLP321 T10781189,KPYM,2019-01-12T13:52:00Z,41.92,-70.73,-7.8,-18.9,290,12,,10.0,30.469488,1032.1,,TRUE,TRUE,,,,,,,CLR,,,,,,,,VFR,,,,,,,,,,,,METAR,43.0
KPWK 121352Z 09007KT 6SM HZ OVC018 01/M04 A3034 RMK AO2 SLP281 T00061044,KPWK,2019-01-12T13:52:00Z,42.12,-87.9,0.6,-4.4,90,7,,6.0,30.339567,1028.1,,,TRUE,,,,,,HZ,OVC,1800,,,,,,,MVFR,,,,,,,,,,,,METAR,203.0
KORE 121352Z AUTO 00000KT 10SM FEW090 M11/M17 A3047 RMK AO2 SLP332 T11111167,KORE,2019-01-12T13:52:00Z,42.57,-72.28,-11.1,-16.7,0,0,,10.0,30.469488,1033.2,,TRUE,TRUE,,,,,,,FEW,9000,,,,,,,VFR,,,,,,,,,,,,METAR,164.0
KAFN 121352Z AUTO 29010G17KT 10SM CLR M12/M19 A3040 RMK AO2 SLP325 T11171194,KAFN,2019-01-12T13:52:00Z,42.8,-72.0,-11.7,-19.4,290,10,17,10.0,30.398623,1032.5,,TRUE,TRUE,,,,,,,CLR,,,,,,,,VFR,,,,,,,,,,,,METAR,313.0
KABQ 121352Z 14004KT 10SM BKN045 M01/M03 A3019 RMK AO2 SLP229 T10111028,KABQ,2019-01-12T13:52:00Z,35.05,-106.62,-1.1,-2.8,140,4,,10.0,30.188976,1022.9,,,TRUE,,,,,,,BKN,4500,,,,,,,VFR,,,,,,,,,,,,METAR,1618.0
KABI 121352Z 30011KT 10SM CLR 04/01 A3007 RMK AO2 SLP179 T00390011,KABI,2019-01-12T13:52:00Z,32.42,-99.68,3.9,1.1,300,11,,10.0,30.070866,1017.9,,,TRUE,,,,,,,CLR,,,,,,,,VFR,,,,,,,,,,,,SPECI,548.0
KMWH 121352Z 36005KT 10SM CLR M03/M04 A3017 RMK AO2 SLP230 I1000 T10331044,KMWH,2019-01-12T13:52:00Z,47.2,-119.32,-3.3,-4.4,360,5,,10.0,30.171259,1023.0,,,TRUE,,,,,,,CLR,,,,,,,,VFR,,,,,,,,,,,,METAR,362.0
KFIT 121352Z AUTO 31009KT 10SM FEW100 M11/M19 A3048 RMK AO2 SLP329 T11061189,KFIT,2019-01-12T13:52:00Z,42.55,-71.75,-10.6,-18.9,310,9,,10.0,30.481298,1032.9,,TRUE,TRUE,,,,,,,FEW,10000,,,,,,,VFR,,,,,,,,,,,,METAR,103.0
KBAN 121352Z AUTO 00000KT 10SM CLR M08/M12 A3001 RMK AO2 SLP177 T10781117 $,KBAN,2019-01-12T13:52:00Z,38.35,-119.52,-7.8,-11.7,0,0,,10.0,30.008858,1017.7,,TRUE,TRUE,TRUE,,,,,,CLR,,,,,,,,VFR,,,,,,,,,,,,METAR,2057.0
PATA 121352Z AUTO 00000KT 10SM CLR M44/ A3011 RMK AO2 SLP213 T1444 PWINO FZRANO TSNO PNO $,PATA,2019-01-12T13:52:00Z,65.17,-152.1,-44.4,,0,0,,10.0,30.109253,1021.3,,TRUE,TRUE,TRUE,,TRUE,TRUE,TRUE,,CLR,,,,,,,,VFR,,,,,,,,,,,,METAR,67.0
KISN 121352Z AUTO 16006KT 10SM FEW009 M13/M15 A3030 RMK AO2 SLP307 I1000 T11281150,KISN,2019-01-12T13:52:00Z,48.17,-103.63,-12.8,-15.0,160,6,,10.0,30.301182,1030.7,,TRUE,TRUE,,,,,,,FEW,900,,,,,,,VFR,,,,,,,,,,,,METAR,579.0
KIOW 121352Z AUTO 06007KT 1SM -SN BR FEW006 OVC021 M02/M03 A3025 RMK AO2 SLP250 P0002 T10171033,KIOW,2019-01-12T13:52:00Z,41.63,-91.55,-1.7,-3.3,60,7,,1.0,30.250984,1025.0,,TRUE,TRUE,,,,,,-SN BR,FEW,600,OVC,2100,,,,,IFR,,,,,,0.02,,,,,,METAR,198.0
KIJD 121352Z AUTO 32006KT 10SM SCT085 BKN110 M07/M14 A3050 RMK AO2 SLP332 T10721139,KIJD,2019-01-12T13:52:00Z,41.75,-72.18,-7.2,-13.9,320,6,,10.0,30.499016,1033.2,,TRUE,TRUE,,,,,,,SCT,8500,BKN,11000,,,,,VFR,,,,,,,,,,,,METAR,75.0
KIEN 121352Z AUTO 29004KT 1 1/4SM BR OVC002 M03/M04 A3022 RMK AO2 SLP262 I1001 T10331039,KIEN,2019-01-12T13:52:00Z,43.03,-102.52,-3.3,-3.9,290,4,,1.25,30.221457,1026.2,,TRUE,TRUE,,,,,,BR,OVC,200,,,,,,,LIFR,,,,,,,,,,,,METAR,998.0
KIAD 121352Z 00000KT 10SM FEW090 OVC100 M02/M07 A3053 RMK AO2 SLP341 T10171067,KIAD,2019-01-12T13:52:00Z,38.93,-77.45,-1.7,-6.7,0,0,,10.0,30.528543,1034.1,,,TRUE,,,,,,,FEW,9000,OVC,10000,,,,,VFR,,,,,,,,,,,,METAR,93.0
KHUT 121352Z 36014G22KT 10SM OVC006 00/M01 A3001 RMK AO2 SNE22 SLP169 P0000 T00001006,KHUT,2019-01-12T13:52:00Z,38.07,-97.87,0.0,-0.6,360,14,22,10.0,30.008858,1016.9,,,TRUE,,,,,,,OVC,600,,,,,,,IFR,,,,,,0.005,,,,,,SPECI,467.0
KHRL 121352Z 14003KT 1/4SM FG VV002 12/11 A3005 RMK AO2 SLP174 T01170111,KHRL,2019-01-12T13:52:00Z,26.23,-97.65,11.7,11.1,140,3,,0.25,30.050198,1017.4,,,TRUE,,,,,,FG,OVX,0,,,,,,,LIFR,,,,,,,,,,,200,METAR,10.0
KGLS 121352Z 25005KT 10SM OVC008 17/17 A2999 RMK AO2 SLP156 T01720172 $,KGLS,2019-01-12T13:52:00Z,29.27,-94.87,17.2,17.2,250,5,,10.0,29.991142,1015.6,,,TRUE,TRUE,,,,,,OVC,800,,,,,,,IFR,,,,,,,,,,,,METAR,6.0
KDVN 121352Z AUTO 07012KT 1/2SM SN FZFG VV013 M02/M03 A3026 RMK AO2 SLP253 P0002 T10221033,KDVN,2019-01-12T13:52:00Z,41.62,-90.58,-2.2,-3.3,70,12,,0.5,30.259842,1025.3,,TRUE,TRUE,,,,,,SN FZFG,OVX,0,,,,,,,LIFR,,,,,,0.02,,,,,1300,METAR,230.0
KDCA 121352Z 13005KT 10SM OVC095 01/M09 A3055 RMK AO2 SLP345 T00061089,KDCA,2019-01-12T13:52:00Z,38.85,-77.03,0.6,-8.9,130,5,,10.0,30.549213,1034.5,,,TRUE,,,,,,,OVC,9500,,,,,,,VFR,,,,,,,,,,,,METAR,18.0
KCVG 121352Z 09009KT 1SM R18C/6000VP6000FT -SN BR OVC015 M02/M03 A3030 RMK AO2 TWR VIS 1 1/4 SLP267 P0003 T10171033,KCVG,2019-01-12T13:52:00Z,39.05,-84.67,-1.7,-3.3,90,9,,1.0,30.301182,1026.7,,,TRUE,,,,,,-SN BR,OVC,1500,,,,,,,IFR,,,,,,0.03,,,,,,METAR,269.0
KCQX 121352Z AUTO VRB04G14KT 10SM FEW110 M07/M15 A3045 RMK AO2 SLP315 T10671150,KCQX,2019-01-12T13:52:00Z,41.68,-70.0,-6.7,-15.0,0,4,14,10.0,30.448818,1031.5,,TRUE,TRUE,,,,,,,FEW,11000,,,,,,,VFR,,,,,,,,,,,,METAR,19.0
KCLT 121352Z 05004KT 10SM BKN110 OVC170 04/M07 A3045 RMK AO2 SLP314 T00391072,KCLT,2019-01-12T13:52:00Z,35.22,-80.95,3.9,-7.2,50,4,,10.0,30.448818,1031.4,,,TRUE,,,,,,,BKN,11000,OVC,17000,,,,,VFR,,,,,,,,,,,,METAR,220.0
KCKV 121352Z AUTO 10006KT 10SM OVC100 02/00 A3018 RMK AO2 SLP223 T00220000,KCKV,2019-01-12T13:52:00Z,36.62,-87.42,2.2,0.0,100,6,,10.0,30.180119,1022.3,,TRUE,TRUE,,,,,,,OVC,10000,,,,,,,VFR,,,,,,,,,,,,SPECI,165.0
KCID 121352Z 07010KT 1/2SM R09/5000V6000FT SN FZFG VV015 M03/M03 A3022 RMK AO2 SLP244 P0002 T10281028,KCID,2019-01-12T13:52:00Z,41.88,-91.72,-2.8,-2.8,70,10,,0.5,30.221457,1024.4,,,TRUE,,,,,,SN FZFG,OVX,0,,,,,,,LIFR,,,,,,0.02,,,,,1500,SPECI,264.0
KBML 121352Z AUTO 29010G17KT 260V330 4SM HZ OVC025 M17/M22 A3035 RMK AO2 SLP311 T11721222,KBML,2019-01-12T13:52:00Z,44.58,-71.18,-17.2,-22.2,290,10,17,4.0,30.351377,1031.1,,TRUE,TRUE,,,,,,HZ,OVC,2500,,,,,,,MVFR,,,,,,,,,,,,METAR,345.0
KBLU 121352Z AUTO 00000KT 10SM CLR 04/M07 A3000 RMK AO2 SLP136 T00391072,KBLU,2019-01-12T13:52:00Z,39.28,-120.7,3.9,-7.2,0,0,,10.0,30.0,1013.6,,TRUE,TRUE,,,,,,,CLR,,,,,,,,VFR,,,,,,,,,,,,METAR,1609.0
KBLH 121352Z AUTO 24005KT 10SM CLR 08/06 A3003 RMK AO2 SLP168 T00780061,KBLH,2019-01-12T13:52:00Z,33.62,-114.72,7.8,6.1,240,5,,10.0,30.029528,1016.8,,TRUE,TRUE,,,,,,,CLR,,,,,,,,VFR,,,,,,,,,,,,METAR,119.0
KBLF 121352Z AUTO VRB03KT 10SM OVC060 M02/M08 A3030 RMK AO2 SLP282 T10221083,KBLF,2019-01-12T13:52:00Z,37.3,-81.2,-2.2,-8.3,0,3,,10.0,30.301182,1028.2,,TRUE,TRUE,,,,,,,OVC,6000,,,,,,,VFR,,,,,,,,,,,,METAR,873.0
KBDR 121352Z 30003KT 10SM OVC080 M06/M14 A3054 RMK AO2 SLP341 T10611144,KBDR,2019-01-12T13:52:00Z,41.17,-73.13,-6.1,-14.4,300,3,,10.0,30.540354,1034.1,,,TRUE,,,,,,,OVC,8000,,,,,,,VFR,,,,,,,,,,,,METAR,7.0
KATL 121352Z 09012G20KT 10SM BKN030 BKN100 OVC200 05/M05 A3030 RMK AO2 SLP266 T00501050,KATL,2019-01-12T13:52:00Z,33.63,-84.45,5.0,-5.0,90,12,20,10.0,30.301182,1026.6,,,TRUE,,,,,,,BKN,3000,BKN,10000,OVC,20000,,,MVFR,,,,,,,,,,,,SPECI,296.0
KARR 121352Z 05007KT 1 1/4SM -SN BR OVC019 M02/M04 A3030 RMK AO2 SLP271 P0000 T10171039,KARR,2019-01-12T13:52:00Z,41.77,-88.48,-1.7,-3.9,50,7,,1.25,30.301182,1027.1,,,TRUE,,,,,,-SN BR,OVC,1900,,,,,,,IFR,,,,,,0.005,,,,,,METAR,215.0
KAQW 121352Z AUTO 32005KT 10SM CLR M11/M16 A3047 RMK AO2 SLP334 T11061161,KAQW,2019-01-12T13:52:00Z,42.7,-73.17,-10.6,-16.1,320,5,,10.0,30.469488,1033.4,,TRUE,TRUE,,,,,,,CLR,,,,,,,,VFR,,,,,,,,,,,,METAR,199.0
KNZY 121352Z AUTO 10006KT 8SM -RA FEW050 BKN075 OVC085 14/11 A3002 RMK AO2 RAE31B50 SLP163 T01390111 PNO $,KNZY,2019-01-12T13:52:00Z,32.7,-117.22,13.9,11.1,100,6,,8.0,30.02067,1016.3,,TRUE,TRUE,TRUE,,,,,-RA,FEW,5000,BKN,7500,OVC,8500,,,VFR,,,,,,,,,,,,SPECI,8.0
MUCL 121352Z 09013KT 9000 BKN020 25/19 Q1019,MUCL,2019-01-12T13:52:00Z,21.63,-81.55,25.0,19.0,90,13,,5.59,30.088583,,,,,,,,,,,BKN,2000,,,,,,,MVFR,,,,,,,,,,,,METAR,5.0
KNFW 121352Z 27009KT 10SM CLR 06/02 A3001 RMK AO2 SLP146 T00560017 VISNO N $,KNFW,2019-01-12T13:52:00Z,32.78,-97.43,5.6,1.7,270,9,,10.0,30.008858,1014.6,,,TRUE,TRUE,,,,,,CLR,,,,,,,,VFR,,,,,,,,,,,,METAR,198.0
KNHK 121352Z 10007KT 10SM OVC100 02/M10 A3054 RMK AO2 SLP341 VIRGA OVHD T00171100,KNHK,2019-01-12T13:52:00Z,38.27,-76.4,1.7,-10.0,100,7,,10.0,30.540354,1034.1,,,TRUE,,,,,,,OVC,10000,,,,,,,VFR,,,,,,,,,,,,SPECI,12.0
MMEP 121352Z 00000KT 12SM SCT080 11/10 A3013 RMK 8/030,MMEP,2019-01-12T13:52:00Z,21.42,-104.85,11.0,10.0,0,0,,12.0,30.129921,,,,,,,,,,,SCT,8000,,,,,,,VFR,,,,,,,,,,,,METAR,922.0
AZUH 121352Z 26006KT CAVOK 02/M08 Q1016,AZUH,2019-01-12T13:52:00Z,39.18,45.45,2.0,-8.0,260,6,,6.21,30.0,,,,,,,,,,,CAVOK,,,,,,,,VFR,,,,,,,,,,,,METAR,855.0
KROW 121351Z 34005KT 10SM CLR 03/M02 A3019 RMK AO2 SLP211 T00281017,KROW,2019-01-12T13:51:00Z,33.3,-104.5,2.8,-1.7,340,5,,10.0,30.188976,1021.1,,,TRUE,,,,,,,CLR,,,,,,,,VFR,,,,,,,,,,,,METAR,1112.0
KSNT 121351Z AUTO 00000KT M22/M26 A3027 RMK AO1 SLP336 T12171256,KSNT,2019-01-12T13:51:00Z,44.17,-114.93,-21.7,-25.6,0,0,,,30.268702,1033.6,,TRUE,TRUE,,,,,,,,,,,,,,,,,,,,,,,,,,,METAR,1980.0
KOCF 121351Z 00000KT 10SM BKN055 16/12 A3025 RMK AO2 SLP248 T01560122 $,KOCF,2019-01-12T13:51:00Z,29.17,-82.22,15.6,12.2,0,0,,10.0,30.250984,1024.8,,,TRUE,TRUE,,,,,,BKN,5500,,,,,,,VFR,,,,,,,,,,,,METAR,27.0
KOXC 121351Z VRB03KT 10SM OVC075 M09/M14 A3048 RMK AO2 SLP348 T10891139,KOXC,2019-01-12T13:51:00Z,41.47,-73.13,-8.9,-13.9,0,3,,10.0,30.481298,1034.8,,,TRUE,,,,,,,OVC,7500,,,,,,,VFR,,,,,,,,,,,,METAR,222.0
KTPL 121351Z AUTO 30013KT 10SM CLR 08/07 A3005 RMK AO2 SLP195 T00780072,KTPL,2019-01-12T13:51:00Z,31.13,-97.4,7.8,7.2,300,13,,10.0,30.050198,1019.5,,TRUE,TRUE,,,,,,,CLR,,,,,,,,VFR,,,,,,,,,,,,METAR,208.0
PAMD 121351Z AUTO 09017G20KT 10SM OVC040 02/M04 A2972 RMK AO2 SLP054 T00221044 FZRANO,PAMD,2019-01-12T13:51:00Z,59.43,-146.3,2.2,-4.4,90,17,20,10.0,29.719488,1005.4,,TRUE,TRUE,,,,TRUE,,,OVC,4000,,,,,,,VFR,,,,,,,,,,,,METAR,14.0
PTKK 121351Z VRB03KT 15SM SCT012CB BKN120 OVC280 26/24 A2975 RMK CB ALQDS SLP076 T02580240,PTKK,2019-01-12T13:51:00Z,7.47,151.85,25.8,24.0,0,3,,15.0,29.749016,1007.6,,,,,,,,,,SCT,1200,BKN,12000,OVC,28000,,,VFR,,,,,,,,,,,,METAR,2.0
KP58 121351Z AUTO 11014KT M03/M06 A3047 RMK AO1 SLP334 T10281061,KP58,2019-01-12T13:51:00Z,44.02,-82.8,-2.8,-6.1,110,14,,,30.469488,1033.4,,TRUE,TRUE,,,,,,,,,,,,,,,,,,,,,,,,,,,METAR,179.0
KATT 121351Z AUTO 31009G19KT 10SM CLR 11/07 A3006 RMK AO2 SLP180 T01060067,KATT,2019-01-12T13:51:00Z,30.32,-97.77,10.6,6.7,310,9,19,10.0,30.059055,1018.0,,TRUE,TRUE,,,,,,,CLR,,,,,,,,VFR,,,,,,,,,,,,METAR,201.0
KBVE 121351Z AUTO 14005KT 10SM SCT045 14/13 A3010 RMK AO2 SLP192 T01440128,KBVE,2019-01-12T13:51:00Z,29.32,-89.4,14.4,12.8,140,5,,10.0,30.100393,1019.2,,TRUE,TRUE,,,,,,,SCT,4500,,,,,,,VFR,,,,,,,,,,,,METAR,1.0
MUCM 121351Z 06013KT 9000 FEW016 24/18 Q1020,MUCM,2019-01-12T13:51:00Z,21.42,-77.85,24.0,18.0,60,13,,5.59,30.11811,,,,,,,,,,,FEW,1600,,,,,,,VFR,,,,,,,,,,,,METAR,122.0
KVNY 121351Z AUTO 00000KT 10SM SCT039 BKN049 OVC060 10/08 A2998 RMK AO2 RAE44 SLP150 P0004 T01000078,KVNY,2019-01-12T13:51:00Z,34.22,-118.48,10.0,7.8,0,0,,10.0,29.97933,1015.0,,TRUE,TRUE,,,,,,,SCT,3900,BKN,4900,OVC,6000,,,VFR,,,,,,0.04,,,,,,METAR,245.0
KSTL 121351Z 09012KT 3SM -SN BR OVC004 00/M01 A3010 RMK AO2 SLP205 P0001 T00001011 $,KSTL,2019-01-12T13:51:00Z,38.75,-90.37,0.0,-1.1,90,12,,3.0,30.100393,1020.5,,,TRUE,TRUE,,,,,-SN BR,OVC,400,,,,,,,LIFR,,,,,,0.01,,,,,,METAR,171.0
KVCT 121351Z 31006KT 4SM BR OVC012 15/14 A3005 RMK AO2 SLP175 T01500144 $,KVCT,2019-01-12T13:51:00Z,28.87,-96.93,15.0,14.4,310,6,,4.0,30.050198,1017.5,,,TRUE,TRUE,,,,,BR,OVC,1200,,,,,,,MVFR,,,,,,,,,,,,METAR,31.0
KTEB 121351Z 00000KT 10SM OVC085 M05/M12 A3055 RMK AO2 SLP343 T10501122 $,KTEB,2019-01-12T13:51:00Z,40.87,-74.05,-5.0,-12.2,0,0,,10.0,30.549213,1034.3,,,TRUE,TRUE,,,,,,OVC,8500,,,,,,,VFR,,,,,,,,,,,,METAR,7.0
KYNG 121351Z 08006KT 10SM FEW100 OVC170 M06/M11 A3040 RMK AO2 SLP316 T10611111 $,KYNG,2019-01-12T13:51:00Z,41.25,-80.67,-6.1,-11.1,80,6,,10.0,30.398623,1031.6,,,TRUE,TRUE,,,,,,FEW,10000,OVC,17000,,,,,VFR,,,,,,,,,,,,METAR,360.0
KACT 121351Z 26006KT 10SM CLR 07/05 A3004 RMK AO2 SLP171 T00670050,KACT,2019-01-12T13:51:00Z,31.62,-97.23,6.7,5.0,260,6,,10.0,30.041338,1017.1,,,TRUE,,,,,,,CLR,,,,,,,,VFR,,,,,,,,,,,,METAR,151.0
KAHN 121351Z 07008KT 10SM OVC035 03/M05 A3037 RMK AO2 SLP289 T00331050,KAHN,2019-01-12T13:51:00Z,33.95,-83.33,3.3,-5.0,70,8,,10.0,30.369095,1028.9,,,TRUE,,,,,,,OVC,3500,,,,,,,VFR,,,,,,,,,,,,METAR,244.0
KABE 121351Z 28003KT 10SM FEW080 M06/M13 A3054 RMK AO2 SLP348 T10561133,KABE,2019-01-12T13:51:00Z,40.65,-75.45,-5.6,-13.3,280,3,,10.0,30.540354,1034.8,,,TRUE,,,,,,,FEW,8000,,,,,,,VFR,,,,,,,,,,,,METAR,114.0
KALB 121351Z 33009KT 10SM BKN100 M08/M17 A3054 RMK AO2 SLP349 T10831172,KALB,2019-01-12T13:51:00Z,42.75,-73.8,-8.3,-17.2,330,9,,10.0,30.540354,1034.9,,,TRUE,,,,,,,BKN,10000,,,,,,,VFR,,,,,,,,,,,,METAR,92.0
KBAZ 121351Z 30006KT 9SM CLR 12/10 A3003 RMK AO2 SLP168 T01170100,KBAZ,2019-01-12T13:51:00Z,29.72,-98.05,11.7,10.0,300,6,,9.0,30.029528,1016.8,,,TRUE,,,,,,,CLR,,,,,,,,VFR,,,,,,,,,,,,METAR,195.0
KBGD 121351Z AUTO 35018G24KT 10SM OVC013 02/M02 A3010 RMK AO2 PK WND 36029/1328 SLP200 T00171017,KBGD,2019-01-12T13:51:00Z,35.7,-101.4,1.7,-1.7,350,18,24,10.0,30.100393,1020.0,,TRUE,TRUE,,,,,,,OVC,1300,,,,,,,MVFR,,,,,,,,,,,,METAR,927.0
KBDL 121351Z 29006KT 10SM BKN090 BKN120 M08/M13 A3051 RMK AO2 SLP334 T10781133,KBDL,2019-01-12T13:51:00Z,41.93,-72.68,-7.8,-13.3,290,6,,10.0,30.510826,1033.4,,,TRUE,,,,,,,BKN,9000,BKN,12000,,,,,VFR,,,,,,,,,,,,METAR,60.0
KBHK 121351Z AUTO 13008KT 1/2SM FZFG VV002 M07/M07 A3020 RMK AO2 SLP270 I1003 T10671072,KBHK,2019-01-12T13:51:00Z,46.35,-104.25,-6.7,-7.2,130,8,,0.5,30.200787,1027.0,,TRUE,TRUE,,,,,,FZFG,OVX,0,,,,,,,LIFR,,,,,,,,,,,200,METAR,902.0
KBKW 121351Z AUTO 13008KT 10SM BKN040 OVC048 M01/M06 A3029 RMK AO2 SNE32 SLP291 P0000 T10111061 $,KBKW,2019-01-12T13:51:00Z,37.8,-81.12,-1.1,-6.1,130,8,,10.0,30.28937,1029.1,,TRUE,TRUE,TRUE,,,,,,BKN,4000,OVC,4800,,,,,VFR,,,,,,0.005,,,,,,METAR,764.0
KCAK 121351Z 08006KT 10SM OVC140 M04/M09 A3038 RMK AO2 SLP307 T10441094,KCAK,2019-01-12T13:51:00Z,40.92,-81.45,-4.4,-9.4,80,6,,10.0,30.380905,1030.7,,,TRUE,,,,,,,OVC,14000,,,,,,,VFR,,,,,,,,,,,,METAR,377.0
KCLE 121351Z 09005KT 10SM OVC150 M03/M08 A3044 RMK AO2 SLP319 T10331083 $,KCLE,2019-01-12T13:51:00Z,41.42,-81.85,-3.3,-8.3,90,5,,10.0,30.43996,1031.9,,,TRUE,TRUE,,,,,,OVC,15000,,,,,,,VFR,,,,,,,,,,,,METAR,233.0
KCMH 121351Z 08006KT 3/4SM R28L/P6000FT -SN BR OVC022 M03/M05 A3036 RMK AO2 TWR VIS 1 1/2 SLP291 P0002 T10281050,KCMH,2019-01-12T13:51:00Z,40.0,-82.88,-2.8,-5.0,80,6,,0.75,30.360237,1029.1,,,TRUE,,,,,,-SN BR,OVC,2200,,,,,,,LIFR,,,,,,0.02,,,,,,METAR,247.0
KCON 121351Z AUTO 30006KT 10SM CLR M13/M19 A3045 RMK AO2 SLP322 T11281189,KCON,2019-01-12T13:51:00Z,43.2,-71.5,-12.8,-18.9,300,6,,10.0,30.448818,1032.2,,TRUE,TRUE,,,,,,,CLR,,,,,,,,VFR,,,,,,,,,,,,METAR,103.0
KCRP 121351Z 33006KT 3SM BR OVC004 15/14 A3005 RMK AO2 SLP174 T01500144 $,KCRP,2019-01-12T13:51:00Z,27.77,-97.5,15.0,14.4,330,6,,3.0,30.050198,1017.4,,,TRUE,TRUE,,,,,BR,OVC,400,,,,,,,LIFR,,,,,,,,,,,,METAR,14.0
KCSG 121351Z 10008KT 10SM BKN039 BKN055 OVC120 07/M02 A3027 RMK AO2 SLP249 T00671017,KCSG,2019-01-12T13:51:00Z,32.52,-84.95,6.7,-1.7,100,8,,10.0,30.268702,1024.9,,,TRUE,,,,,,,BKN,3900,BKN,5500,OVC,12000,,,VFR,,,,,,,,,,,,METAR,135.0
KDAW 121351Z AUTO 27008G17KT 230V300 10SM CLR M13/M19 A3040 RMK AO2 SLP298 T11281194,KDAW,2019-01-12T13:51:00Z,43.28,-70.92,-12.8,-19.4,270,8,17,10.0,30.398623,1029.8,,TRUE,TRUE,,,,,,,CLR,,,,,,,,VFR,,,,,,,,,,,,METAR,100.0
KHTS 121351Z 00000KT 10SM OVC023 M01/M06 A3035 RMK AO2 SLP284 T10111056,KHTS,2019-01-12T13:51:00Z,38.37,-82.55,-1.1,-5.6,0,0,,10.0,30.351377,1028.4,,,TRUE,,,,,,,OVC,2300,,,,,,,MVFR,,,,,,,,,,,,METAR,254.0
KHSE 121351Z AUTO 05006KT 10SM CLR 07/00 A3047 RMK AO2 SLP318 T00670000 TSNO,KHSE,2019-01-12T13:51:00Z,35.23,-75.62,6.7,0.0,50,6,,10.0,30.469488,1031.8,,TRUE,TRUE,,,TRUE,,,,CLR,,,,,,,,VFR,,,,,,,,,,,,METAR,3.0
KHDO 121351Z AUTO 33004KT 1/4SM FG VV002 11/10 A3007 RMK AO2 SLP177 T01060100 $,KHDO,2019-01-12T13:51:00Z,29.37,-99.17,10.6,10.0,330,4,,0.25,30.070866,1017.7,,TRUE,TRUE,TRUE,,,,,FG,OVX,0,,,,,,,LIFR,,,,,,,,,,,200,METAR,282.0
KEWR 121351Z 24004KT 10SM BKN085 BKN250 M06/M13 A3056 RMK AO2 SLP346 T10561128,KEWR,2019-01-12T13:51:00Z,40.68,-74.17,-5.6,-12.8,240,4,,10.0,30.561024,1034.6,,,TRUE,,,,,,,BKN,8500,BKN,25000,,,,,VFR,,,,,,,,,,,,METAR,7.0
KERI 121351Z 00000KT 10SM OVC075 M04/M10 A3048 RMK AO2 SLP333 T10441100,KERI,2019-01-12T13:51:00Z,42.08,-80.18,-4.4,-10.0,0,0,,10.0,30.481298,1033.3,,,TRUE,,,,,,,OVC,7500,,,,,,,VFR,,,,,,,,,,,,METAR,222.0
KELP 121351Z 00000KT 10SM FEW250 02/M02 A3017 RMK AO2 SLP198 T00221022,KELP,2019-01-12T13:51:00Z,31.82,-106.38,2.2,-2.2,0,0,,10.0,30.171259,1019.8,,,TRUE,,,,,,,FEW,25000,,,,,,,VFR,,,,,,,,,,,,METAR,1197.0
KEKN 121351Z AUTO 00000KT 5SM -SN BKN043 OVC050 M04/M08 A3035 RMK AO2 SNB50 SLP311 P0000 T10391083 TSNO,KEKN,2019-01-12T13:51:00Z,38.88,-79.85,-3.9,-8.3,0,0,,5.0,30.351377,1031.1,,TRUE,TRUE,,,TRUE,,,-SN,BKN,4300,OVC,5000,,,,,MVFR,,,,,,0.005,,,,,,METAR,603.0
KIGM 121351Z AUTO 10010KT 10SM CLR 04/M04 A3009 RMK AO2 SLP166 T00441044,KIGM,2019-01-12T13:51:00Z,35.25,-113.93,4.4,-4.4,100,10,,10.0,30.088583,1016.6,,TRUE,TRUE,,,,,,,CLR,,,,,,,,VFR,,,,,,,,,,,,METAR,1032.0
KILG 121351Z 03004KT 10SM CLR M04/M10 A3056 RMK AO2 SLP350 T10391100,KILG,2019-01-12T13:51:00Z,39.67,-75.6,-3.9,-10.0,30,4,,10.0,30.561024,1035.0,,,TRUE,,,,,,,CLR,,,,,,,,VFR,,,,,,,,,,,,METAR,28.0
KJCT 121351Z AUTO 31003KT 9SM CLR 07/04 A3012 RMK AO2 SLP182 T00670044,KJCT,2019-01-12T13:51:00Z,30.5,-99.77,6.7,4.4,310,3,,9.0,30.121063,1018.2,,TRUE,TRUE,,,,,,,CLR,,,,,,,,VFR,,,,,,,,,,,,METAR,522.0
KJFK 121351Z 36003KT 10SM BKN085 BKN250 M04/M13 A3056 RMK AO2 SLP349 T10441128,KJFK,2019-01-12T13:51:00Z,40.63,-73.77,-4.4,-12.8,360,3,,10.0,30.561024,1034.9,,,TRUE,,,,,,,BKN,8500,BKN,25000,,,,,VFR,,,,,,,,,,,,METAR,9.0
KLGA 121351Z 32006KT 10SM BKN085 BKN110 BKN250 M04/M13 A3055 RMK AO2 SLP343 T10441128,KLGA,2019-01-12T13:51:00Z,40.78,-73.88,-4.4,-12.8,320,6,,10.0,30.549213,1034.3,,,TRUE,,,,,,,BKN,8500,BKN,11000,BKN,25000,,,VFR,,,,,,,,,,,,METAR,11.0
KMPV 121351Z AUTO 33009KT 10SM CLR M17/M21 A3045 RMK AO2 SLP345 T11721206,KMPV,2019-01-12T13:51:00Z,44.2,-72.57,-17.2,-20.6,330,9,,10.0,30.448818,1034.5,,TRUE,TRUE,,,,,,,CLR,,,,,,,,VFR,,,,,,,,,,,,METAR,343.0
KMYL 121351Z AUTO 00000KT 1/2SM FZFG VV002 M16/M18 A3017 RMK AO2 SLP287 T11611183,KMYL,2019-01-12T13:51:00Z,44.9,-116.1,-16.1,-18.3,0,0,,0.5,30.171259,1028.7,,TRUE,TRUE,,,,,,FZFG,OVX,0,,,,,,,LIFR,,,,,,,,,,,200,METAR,1533.0
KPWM 121351Z 26007KT 10SM CLR M12/M19 A3039 RMK AO2 SLP294 T11221194,KPWM,2019-01-12T13:51:00Z,43.65,-70.3,-12.2,-19.4,260,7,,10.0,30.389763,1029.4,,,TRUE,,,,,,,CLR,,,,,,,,VFR,,,,,,,,,,,,METAR,15.0
KPVD 121351Z 33006KT 10SM SCT120 M07/M18 A3050 RMK AO2 SLP328 T10721178,KPVD,2019-01-12T13:51:00Z,41.72,-71.43,-7.2,-17.8,330,6,,10.0,30.499016,1032.8,,,TRUE,,,,,,,SCT,12000,,,,,,,VFR,,,,,,,,,,,,METAR,16.0
KPIT 121351Z 04004KT 10SM BKN120 OVC200 M05/M09 A3038 RMK AO2 SLP315 T10501094,KPIT,2019-01-12T13:51:00Z,40.5,-80.27,-5.0,-9.4,40,4,,10.0,30.380905,1031.5,,,TRUE,,,,,,,BKN,12000,OVC,20000,,,,,VFR,,,,,,,,,,,,METAR,357.0
KPHX 121351Z 12005KT 10SM SCT170 SCT200 BKN250 09/05 A3006 RMK AO2 SLP174 T00940050,KPHX,2019-01-12T13:51:00Z,33.43,-112.02,9.4,5.0,120,5,,10.0,30.059055,1017.4,,,TRUE,,,,,,,SCT,17000,SCT,20000,BKN,25000,,,VFR,,,,,,,,,,,,METAR,336.0
KORF 121351Z 06004KT 10SM OVC120 03/M06 A3051 RMK AO2 SLP332 T00331056,KORF,2019-01-12T13:51:00Z,36.9,-76.2,3.3,-5.6,60,4,,10.0,30.510826,1033.2,,,TRUE,,,,,,,OVC,12000,,,,,,,VFR,,,,,,,,,,,,METAR,14.0
KRDU 121351Z 17004KT 10SM BKN047 OVC100 01/M06 A3049 RMK AO2 SLP328 P0000 T00111056,KRDU,2019-01-12T13:51:00Z,35.9,-78.78,1.1,-5.6,170,4,,10.0,30.490158,1032.8,,,TRUE,,,,,,,BKN,4700,OVC,10000,,,,,VFR,,,,,,0.005,,,,,,METAR,130.0
KSAD 121351Z AUTO 12010KT 10SM CLR 02/M02 A3014 RMK AO2 SLP202 T00221017,KSAD,2019-01-12T13:51:00Z,32.85,-109.63,2.2,-1.7,120,10,,10.0,30.138779,1020.2,,TRUE,TRUE,,,,,,,CLR,,,,,,,,VFR,,,,,,,,,,,,METAR,962.0
KSAN 121351Z 10008KT 10SM FEW020 BKN070 OVC090 13/11 A3004 RMK AO2 RAE37 SLP170 VCSH P0001 T01330111,KSAN,2019-01-12T13:51:00Z,32.73,-117.18,13.3,11.1,100,8,,10.0,30.041338,1017.0,,,TRUE,,,,,,,FEW,2000,BKN,7000,OVC,9000,,,VFR,,,,,,0.01,,,,,,METAR,12.0
KLGU 121351Z AUTO 00000KT 10SM OVC006 M06/M07 A3025 RMK AO2 SLP271 T10561072,KLGU,2019-01-12T13:51:00Z,41.78,-111.85,-5.6,-7.2,0,0,,10.0,30.250984,1027.1,,TRUE,TRUE,,,,,,,OVC,600,,,,,,,IFR,,,,,,,,,,,,METAR,1355.0
KSJT 121351Z 29010KT 10SM CLR 05/02 A3011 RMK AO2 SLP197 T00500022,KSJT,2019-01-12T13:51:00Z,31.37,-100.5,5.0,2.2,290,10,,10.0,30.109253,1019.7,,,TRUE,,,,,,,CLR,,,,,,,,VFR,,,,,,,,,,,,METAR,576.0
KSLK 121351Z AUTO A3041 RMK AO2 SLPNO PWINO FZRANO $,KSLK,2019-01-12T13:51:00Z,44.4,-74.2,,,,,,,30.410433,,,TRUE,TRUE,TRUE,,,TRUE,TRUE,,,,,,,,,,,,,,,,,,,,,,METAR,498.0
KSMO 121351Z AUTO 02003KT 9SM -RA OVC034 12/09 A3000 RMK AO2 RAE29B46 SLP158 P0002 T01220094,KSMO,2019-01-12T13:51:00Z,34.02,-118.45,12.2,9.4,20,3,,9.0,30.0,1015.8,,TRUE,TRUE,,,,,,-RA,OVC,3400,,,,,,,VFR,,,,,,0.02,,,,,,METAR,57.0
KSMX 121351Z 20003KT 10SM OVC100 11/09 A2996 RMK AO2 SLP146 T01110089,KSMX,2019-01-12T13:51:00Z,34.9,-120.45,11.1,8.9,200,3,,10.0,29.958662,1014.6,,,TRUE,,,,,,,OVC,10000,,,,,,,VFR,,,,,,,,,,,,METAR,74.0
KSAT 121351Z 29007KT 9SM BCFG FEW010 FEW250 11/09 A3006 RMK AO2 SLP168 T01060094,KSAT,2019-01-12T13:51:00Z,29.53,-98.47,10.6,9.4,290,7,,9.0,30.059055,1016.8,,,TRUE,,,,,,BCFG,FEW,1000,FEW,25000,,,,,VFR,,,,,,,,,,,,METAR,243.0
KNYC 121351Z AUTO 10SM OVC080 M04/M13 A3056 RMK AO2 SLP342 T10441128 $,KNYC,2019-01-12T13:51:00Z,40.78,-73.97,-4.4,-12.8,,,,10.0,30.561024,1034.2,,TRUE,TRUE,TRUE,,,,,,OVC,8000,,,,,,,VFR,,,,,,,,,,,,SPECI,11.0
KORD 121351Z 09007KT 6SM HZ OVC018 M01/M04 A3032 RMK AO2 SLP274 T10061039,KORD,2019-01-12T13:51:00Z,41.98,-87.93,-0.6,-3.9,90,7,,6.0,30.318897,1027.4,,,TRUE,,,,,,HZ,OVC,1800,,,,,,,MVFR,,,,,,,,,,,,METAR,200.0
KP59 121351Z AUTO 15008G15KT 110V190 M04/M08 A3054 RMK AO1 SLP357 T10391078,KP59,2019-01-12T13:51:00Z,47.47,-87.88,-3.9,-7.8,150,8,15,,30.540354,1035.7,,TRUE,TRUE,,,,,,,,,,,,,,,,,,,,,,,,,,,METAR,190.0
KTGI 121351Z AUTO 06007KT 10SM OVC100 02/M08 A3053 RMK AO1,KTGI,2019-01-12T13:51:00Z,37.82,-75.98,2.0,-8.0,60,7,,10.0,30.528543,,,TRUE,TRUE,,,,,,,OVC,10000,,,,,,,VFR,,,,,,,,,,,,METAR,2.0
KEMV 121351Z AUTO 00000KT 10SM OVC100 00/M06 A3055 RMK AO2,KEMV,2019-01-12T13:51:00Z,36.68,-77.48,0.0,-6.0,0,0,,10.0,30.549213,,,TRUE,TRUE,,,,,,,OVC,10000,,,,,,,VFR,,,,,,,,,,,,METAR,39.0
MMCB 121351Z 36005KT 10SM FEW020 SCT080 17/10 A3018 RMK 8/530,MMCB,2019-01-12T13:51:00Z,18.83,-99.27,17.0,10.0,360,5,,10.0,30.180119,,,,,,,,,,,FEW,2000,SCT,8000,,,,,VFR,,,,,,,,,,,,METAR,1560.0
OITU 121351Z 00000KT 9999 SCT040 M02/M10 Q1016,OITU,2019-01-12T13:51:00Z,39.33,44.43,-2.0,-10.0,0,0,,6.21,30.0,,,,,,,,,,,SCT,4000,,,,,,,VFR,,,,,,,,,,,,METAR,1364.0
OIHH 121351Z 00000KT CAVOK 03/M06 Q1017,OIHH,2019-01-12T13:51:00Z,34.87,48.55,3.0,-6.0,0,0,,6.21,30.029528,,,,,,,,,,,CAVOK,,,,,,,,VFR,,,,,,,,,,,,METAR,1757.0
OICJ 121351Z 15014KT CAVOK 10/M13 Q1018,OICJ,2019-01-12T13:51:00Z,33.9,48.75,10.0,-13.0,150,14,,6.21,30.059055,,,,,,,,,,,CAVOK,,,,,,,,VFR,,,,,,,,,,,,METAR,1600.0
OIHM 121351Z 15006KT CAVOK 08/M13 Q1019,OIHM,2019-01-12T13:51:00Z,34.28,48.82,8.0,-13.0,150,6,,6.21,30.088583,,,,,,,,,,,CAVOK,,,,,,,,VFR,,,,,,,,,,,,METAR,1726.0
EGDM 121350Z 30012KT 9999 FEW017 SCT035 BKN150 10/07 Q1022 BLU NOSIG,EGDM,2019-01-12T13:50:00Z,51.17,-1.75,10.0,7.0,300,12,,6.21,30.177166,,,,,,TRUE,,,,,FEW,1700,SCT,3500,BKN,15000,,,VFR,,,,,,,,,,,,METAR,124.0
EGQS 121350Z 26018KT 9999 7000W -SHRA BKN022 BKN038 08/06 Q1009 WHT,EGQS,2019-01-12T13:50:00Z,57.72,-3.32,8.0,6.0,260,18,,6.21,29.793306,,,,,,,,,,-SHRA,BKN,2200,BKN,3800,,,,,MVFR,,,,,,,,,,,,METAR,13.0
LSGG 121350Z VRB02KT 9999 FEW038 BKN045 04/M00 Q1026 NOSIG,LSGG,2019-01-12T13:50:00Z,46.25,6.12,4.0,0.0,0,2,,6.21,30.295275,,,,,,TRUE,,,,,FEW,3800,BKN,4500,,,,,VFR,,,,,,,,,,,,METAR,416.0
EDXW 121350Z 28018KT 9999 FEW022 SCT030 BKN037 07/05 Q1004,EDXW,2019-01-12T13:50:00Z,54.92,8.33,7.0,5.0,280,18,,6.21,29.64567,,,,,,,,,,,FEW,2200,SCT,3000,BKN,3700,,,VFR,,,,,,,,,,,,METAR,20.0
EDDM 121350Z 26014KT 9999 SCT015 OVC045 02/M00 Q1019 R26R/290095 TEMPO BKN014,EDDM,2019-01-12T13:50:00Z,48.35,11.82,2.0,0.0,260,14,,6.21,30.088583,,,,,,,,,,,SCT,1500,OVC,4500,,,,,VFR,,,,,,,,,,,,METAR,447.0
LICA 121350Z 27014KT 9999 FEW035 11/M02 Q1014,LICA,2019-01-12T13:50:00Z,38.88,16.25,11.0,-2.0,270,14,,6.21,29.940945,,,,,,,,,,,FEW,3500,,,,,,,VFR,,,,,,,,,,,,METAR,15.0
LIMA 121350Z 00000KT CAVOK 10/M08 Q1016,LIMA,2019-01-12T13:50:00Z,45.08,7.6,10.0,-8.0,0,0,,6.21,30.0,,,,,,,,,,,CAVOK,,,,,,,,VFR,,,,,,,,,,,,METAR,287.0
LTAU 121350Z 08013KT 9999 FEW040 BKN180 M03/M08 Q1012 BECMG VRB02KT,LTAU,2019-01-12T13:50:00Z,38.77,35.47,-3.0,-8.0,80,13,,6.21,29.88189,,,,,,,,,,,FEW,4000,BKN,18000,,,,,VFR,,,,,,,,,,,,SPECI,1054.0
LTCJ 121350Z 36004KT 9999 BKN200 03/M03 Q1019 RMK RWY20 01005KT 340V040,LTCJ,2019-01-12T13:50:00Z,37.93,41.12,3.0,-3.0,360,4,,6.21,30.088583,,,,,,,,,,,BKN,20000,,,,,,,VFR,,,,,,,,,,,,SPECI,540.0
LIMP 121350Z 30003KT 260V320 CAVOK 07/M06 Q1018,LIMP,2019-01-12T13:50:00Z,44.82,10.3,7.0,-6.0,300,3,,6.21,30.059055,,,,,,,,,,,CAVOK,,,,,,,,VFR,,,,,,,,,,,,METAR,50.0
LIMZ 121350Z 31003KT CAVOK 11/M03 Q1015,LIMZ,2019-01-12T13:50:00Z,44.53,7.62,11.0,-3.0,310,3,,6.21,29.970472,,,,,,,,,,,CAVOK,,,,,,,,VFR,,,,,,,,,,,,METAR,380.0
LIPO 121350Z 35001KT 9999 SCT070 06/M05 Q1017,LIPO,2019-01-12T13:50:00Z,45.42,10.33,6.0,-5.0,350,1,,6.21,30.029528,,,,,,,,,,,SCT,7000,,,,,,,VFR,,,,,,,,,,,,METAR,109.0
LIMG 121350Z 11004KT CAVOK 12/00 Q1018,LIMG,2019-01-12T13:50:00Z,44.03,8.12,12.0,0.0,110,4,,6.21,30.059055,,,,,,,,,,,CAVOK,,,,,,,,VFR,,,,,,,,,,,,METAR,49.0
EGVN 121350Z 29010KT 9999 FEW027 BKN140 10/05 Q1021 NOSIG,EGVN,2019-01-12T13:50:00Z,51.77,-1.58,10.0,5.0,290,10,,6.21,30.147638,,,,,,TRUE,,,,,FEW,2700,BKN,14000,,,,,VFR,,,,,,,,,,,,METAR,88.0
LIPY 121350Z 36003KT CAVOK 09/M07 Q1018,LIPY,2019-01-12T13:50:00Z,43.62,13.37,9.0,-7.0,360,3,,6.21,30.059055,,,,,,,,,,,CAVOK,,,,,,,,VFR,,,,,,,,,,,,METAR,10.0
LIBC 121350Z 36020KT 9999 FEW015 09/00 Q1012,LIBC,2019-01-12T13:50:00Z,39.0,17.07,9.0,0.0,360,20,,6.21,29.88189,,,,,,,,,,,FEW,1500,,,,,,,VFR,,,,,,,,,,,,METAR,161.0
LIBF 121350Z 32021KT 9999 SCT035 08/02 Q1015,LIBF,2019-01-12T13:50:00Z,41.42,15.52,8.0,2.0,320,21,,6.21,29.970472,,,,,,,,,,,SCT,3500,,,,,,,VFR,,,,,,,,,,,,METAR,80.0
LIBG 121350Z 36013KT 9999 FEW035 08/00 Q1012,LIBG,2019-01-12T13:50:00Z,40.52,17.38,8.0,0.0,360,13,,6.21,29.88189,,,,,,,,,,,FEW,3500,,,,,,,VFR,,,,,,,,,,,,METAR,69.0
LIBP 121350Z 23006KT 9999 BKN040 06/M01 Q1019,LIBP,2019-01-12T13:50:00Z,42.42,14.18,6.0,-1.0,230,6,,6.21,30.088583,,,,,,,,,,,BKN,4000,,,,,,,VFR,,,,,,,,,,,,METAR,11.0
LIRI 121350Z 33012G22KT 9999 FEW030 10/M03 Q1015,LIRI,2019-01-12T13:50:00Z,40.62,14.92,10.0,-3.0,330,12,22,6.21,29.970472,,,,,,,,,,,FEW,3000,,,,,,,VFR,,,,,,,,,,,,METAR,40.0
LIRZ 121350Z VRB02KT CAVOK 08/M07 Q1018,LIRZ,2019-01-12T13:50:00Z,43.1,12.5,8.0,-7.0,0,2,,6.21,30.059055,,,,,,,,,,,CAVOK,,,,,,,,VFR,,,,,,,,,,,,METAR,205.0
LIQN 121350Z VRB02KT CAVOK 07/M07 Q1016,LIQN,2019-01-12T13:50:00Z,42.42,12.83,7.0,-7.0,0,2,,6.21,30.0,,,,,,,,,,,CAVOK,,,,,,,,VFR,,,,,,,,,,,,METAR,389.0
LIRU 121350Z 35008KT CAVOK 10/M06 Q1017,LIRU,2019-01-12T13:50:00Z,41.95,12.5,10.0,-6.0,350,8,,6.21,30.029528,,,,,,,,,,,CAVOK,,,,,,,,VFR,,,,,,,,,,,,METAR,24.0
EDQM 121350Z 24012KT 9999 BKN009 OVC013 01/M00 Q1013,EDQM,2019-01-12T13:50:00Z,50.3,11.85,1.0,0.0,240,12,,6.21,29.911417,,,,,,,,,,,BKN,900,OVC,1300,,,,,IFR,,,,,,,,,,,,METAR,568.0
EFTU 121350Z AUTO 27005KT CAVOK M02/M03 Q0993,EFTU,2019-01-12T13:50:00Z,60.52,22.27,-2.0,-3.0,270,5,,6.21,29.320866,,,TRUE,,,,,,,,CAVOK,,,,,,,,VFR,,,,,,,,,,,,METAR,59.0
EGGD 121350Z AUTO 26015KT 9999 BKN023 09/07 Q1023,EGGD,2019-01-12T13:50:00Z,51.37,-2.72,9.0,7.0,260,15,,6.21,30.206694,,,TRUE,,,,,,,,BKN,2300,,,,,,,MVFR,,,,,,,,,,,,METAR,189.0
EGNV 121350Z 27017KT 9999 FEW015 09/05 Q1015,EGNV,2019-01-12T13:50:00Z,54.52,-1.42,9.0,5.0,270,17,,6.21,29.970472,,,,,,,,,,,FEW,1500,,,,,,,VFR,,,,,,,,,,,,METAR,37.0
EGHH 121350Z 31014KT 270V350 9999 BKN021 10/07 Q1023,EGHH,2019-01-12T13:50:00Z,50.78,-1.83,10.0,7.0,310,14,,6.21,30.206694,,,,,,,,,,,BKN,2100,,,,,,,MVFR,,,,,,,,,,,,METAR,11.0
KWDG 121350Z 34018G25KT 10SM OVC008 02/02 A2995,KWDG,2019-01-12T13:50:00Z,36.37,-97.77,2.0,2.0,340,18,25,10.0,29.949802,,,,,,,,,,,OVC,800,,,,,,,IFR,,,,,,,,,,,,METAR,356.0
ESSV 121350Z 26006KT CAVOK 02/M02 Q0998 R03/71//76,ESSV,2019-01-12T13:50:00Z,57.67,18.35,2.0,-2.0,260,6,,6.21,29.468504,,,,,,,,,,,CAVOK,,,,,,,,VFR,,,,,,,,,,,,METAR,47.0
TJBQ 121350Z 10010KT 10SM CLR 25/21 A3014,TJBQ,2019-01-12T13:50:00Z,18.5,-67.13,25.0,21.0,100,10,,10.0,30.138779,,,,,,,,,,,CLR,,,,,,,,VFR,,,,,,,,,,,,METAR,72.0
MSSS 121350Z 35007KT CAVOK 19/15 Q1019 A3009,MSSS,2019-01-12T13:50:00Z,13.7,-89.12,19.0,15.0,350,7,,6.21,30.088583,,,,,,,,,,,CAVOK,,,,,,,,VFR,,,,,,,,,,,,METAR,616.0
KGPM 121350Z 26008KT 10SM SCT035 07/02 A3002,KGPM,2019-01-12T13:50:00Z,32.7,-97.05,7.0,2.0,260,8,,10.0,30.02067,,,,,,,,,,,SCT,3500,,,,,,,VFR,,,,,,,,,,,,METAR,180.0
KHQZ 121350Z 25010G17KT 10SM CLR 07/03 A2999,KHQZ,2019-01-12T13:50:00Z,32.75,-96.53,7.0,3.0,250,10,17,10.0,29.991142,,,,,,,,,,,CLR,,,,,,,,VFR,,,,,,,,,,,,METAR,136.0
KHXD 121350Z 04010KT 10SM OVC060 08/06 A3036,KHXD,2019-01-12T13:50:00Z,32.22,-80.7,8.0,6.0,40,10,,10.0,30.360237,,,,,,,,,,,OVC,6000,,,,,,,VFR,,,,,,,,,,,,METAR,6.0
KOMN 121350Z 10005KT 10SM CLR 19/14 A3026,KOMN,2019-01-12T13:50:00Z,29.3,-81.12,19.0,14.0,100,5,,10.0,30.259842,,,,,,,,,,,CLR,,,,,,,,VFR,,,,,,,,,,,,METAR,9.0
EVRA 121350Z 25003KT 220V310 9999 BKN035 00/M01 Q0997 R18/320195 NOSIG,EVRA,2019-01-12T13:50:00Z,56.92,23.97,0.0,-1.0,250,3,,6.21,29.438976,,,,,,TRUE,,,,,BKN,3500,,,,,,,VFR,,,,,,,,,,,,METAR,10.0
EETN 121350Z 30007KT 9999 SCT025 BKN040 01/M03 Q0993 R08/290195 NOSIG,EETN,2019-01-12T13:50:00Z,59.4,24.82,1.0,-3.0,300,7,,6.21,29.320866,,,,,,TRUE,,,,,SCT,2500,BKN,4000,,,,,VFR,,,,,,,,,,,,METAR,40.0
EYKA 121350Z 24005KT 9999 SCT007 M02/M03 Q1000 R08/520295,EYKA,2019-01-12T13:50:00Z,54.97,24.08,-2.0,-3.0,240,5,,6.21,29.52756,,,,,,,,,,,SCT,700,,,,,,,VFR,,,,,,,,,,,,METAR,77.0
EKVG 121350Z AUTO 28012KT 7000NDV BKN014/// 06/04 Q1001 RMK OVC012/// WIND SKEID 29027KT,EKVG,2019-01-12T13:50:00Z,62.07,-7.3,6.0,4.0,280,12,,,29.557087,,,TRUE,,,,,,,,BKN,1400,,,,,,,,,,,,,,,,,,,METAR,85.0
OAMS 121350Z 07010KT 9999 FEW030 06/03 Q1026 BLU+BLU+,OAMS,2019-01-12T13:50:00Z,36.7,67.2,6.0,3.0,70,10,,6.21,30.295275,,,,,,,,,,,FEW,3000,,,,,,,VFR,,,,,,,,,,,,METAR,378.0
EYSA 121350Z 27013KT CAVOK 00/M01 Q0998 R14L/29//95 BLU NOSIG,EYSA,2019-01-12T13:50:00Z,55.9,23.4,0.0,-1.0,270,13,,6.21,29.468504,,,,,,TRUE,,,,,CAVOK,,,,,,,,VFR,,,,,,,,,,,,SPECI,135.0
KNQA 121350Z 11005KT 10SM SCT035 BKN070 OVC095 06/02 A3006,KNQA,2019-01-12T13:50:00Z,35.35,-89.87,6.0,2.0,110,5,,10.0,30.059055,,,,,,,,,,,SCT,3500,BKN,7000,OVC,9500,,,VFR,,,,,,,,,,,,METAR,86.0
KHOB 121350Z 32006KT 10SM CLR 00/M01 A3018,KHOB,2019-01-12T13:50:00Z,32.67,-103.22,0.0,-1.0,320,6,,10.0,30.180119,,,,,,,,,,,CLR,,,,,,,,VFR,,,,,,,,,,,,METAR,1115.0
KGEU 121350Z 00000KT 10SM SCT220 09/06 A3009 RMK FIRST,KGEU,2019-01-12T13:50:00Z,33.53,-112.3,9.0,6.0,0,0,,10.0,30.088583,,,,,,,,,,,SCT,22000,,,,,,,VFR,,,,,,,,,,,,METAR,325.0
ENBO 121350Z 34008KT 9999 VCSH FEW015 SCT025TCU 00/M06 Q0994 TEMPO 3000 -SHSN BKN014TCU,ENBO,2019-01-12T13:50:00Z,67.27,14.37,0.0,-6.0,340,8,,6.21,29.350393,,,,,,,,,,VCSH,FEW,1500,SCT,2500,,,,,VFR,,,,,,,,,,,,METAR,13.0
ENBR 121350Z 13004KT 100V170 2500 DZ BR SCT003 BKN006 03/02 Q0995 TEMPO 1200 RA BCFG VV003 RMK WIND 1200FT 16010KT,ENBR,2019-01-12T13:50:00Z,60.28,5.22,3.0,2.0,130,4,,1.55,29.379921,,,,,,,,,,DZ BR,SCT,300,BKN,600,,,,,IFR,,,,,,,,,,,,METAR,50.0
ENAN 121350Z 33016KT 9999 FEW021 SCT047 00/M08 Q0991,ENAN,2019-01-12T13:50:00Z,69.28,16.13,0.0,-8.0,330,16,,6.21,29.26181,,,,,,,,,,,FEW,2100,SCT,4700,,,,,VFR,,,,,,,,,,,,METAR,14.0
EYVI 121350Z 24009KT 9999 OVC010 M01/M02 Q0999 R19/4/0295 NOSIG,EYVI,2019-01-12T13:50:00Z,54.63,25.28,-1.0,-2.0,240,9,,6.21,29.498032,,,,,,TRUE,,,,,OVC,1000,,,,,,,MVFR,,,,,,,,,,,,METAR,197.0
ENDU 121350Z 27007KT 230V290 1500 SHSN VV010 M02/M03 Q0989 RMK WIND 1100FT 30011KT WIND 2200FT 30019KT,ENDU,2019-01-12T13:50:00Z,69.03,18.55,-2.0,-3.0,270,7,,0.93,29.202755,,,,,,,,,,SHSN,OVX,0,,,,,,,LIFR,,,,,,,,,,,1000,METAR,79.0
ENOL 121350Z 07001KT 9999 VCSH FEW005 SCT015 BKN030 02/01 Q0996 TEMPO 2000 SHSNRA BR VV006,ENOL,2019-01-12T13:50:00Z,63.7,9.58,2.0,1.0,70,1,,6.21,29.409449,,,,,,,,,,VCSH,FEW,500,SCT,1500,BKN,3000,,,MVFR,,,,,,,,,,,,METAR,7.0
ENGM 121350Z VRB02KT CAVOK M08/M10 Q0996 NOSIG,ENGM,2019-01-12T13:50:00Z,60.2,11.1,-8.0,-10.0,0,2,,6.21,29.409449,,,,,,TRUE,,,,,CAVOK,,,,,,,,VFR,,,,,,,,,,,,METAR,204.0
ENVA 121350Z 06002KT 9999 FEW002 BKN015 01/01 Q0997 TEMPO 2000 SHSN VV008 RMK WIND 670FT 00000KT,ENVA,2019-01-12T13:50:00Z,63.47,10.92,1.0,1.0,60,2,,6.21,29.438976,,,,,,,,,,,FEW,200,BKN,1500,,,,,MVFR,,,,,,,,,,,,METAR,17.0
ENZV 121350Z 30017KT 9999 -SHRA FEW009 SCT015CB BKN035 07/05 Q0997 TEMPO 32020G30KT SHRA BKN012CB,ENZV,2019-01-12T13:50:00Z,58.87,5.62,7.0,5.0,300,17,,6.21,29.438976,,,,,,,,,,-SHRA,FEW,900,SCT,1500,BKN,3500,,,VFR,,,,,,,,,,,,METAR,9.0
ENAL 121350Z 14004KT 9999 FEW019 02/M00 Q0996,ENAL,2019-01-12T13:50:00Z,62.57,6.12,2.0,0.0,140,4,,6.21,29.409449,,,,,,,,,,,FEW,1900,,,,,,,VFR,,,,,,,,,,,,METAR,22.0
ENCN 121350Z 05001KT 9999 FEW001 SCT030 01/01 Q0997,ENCN,2019-01-12T13:50:00Z,58.2,8.07,1.0,1.0,50,1,,6.21,29.438976,,,,,,,,,,,FEW,100,SCT,3000,,,,,VFR,,,,,,,,,,,,METAR,17.0
ENHD 121350Z 30015KT 7000 -RA BKN029 07/05 Q0997,ENHD,2019-01-12T13:50:00Z,59.35,5.22,7.0,5.0,300,15,,4.35,29.438976,,,,,,,,,,-RA,BKN,2900,,,,,,,MVFR,,,,,,,,,,,,METAR,24.0
ENRO 121350Z AUTO 22006KT 9999NDV OVC054/// M03/M07 Q0993,ENRO,2019-01-12T13:50:00Z,62.57,11.33,-3.0,-7.0,220,6,,,29.320866,,,TRUE,,,,,,,,OVC,5400,,,,,,,,,,,,,,,,,,,METAR,626.0
ENSB 121350Z 13014KT 9999 FEW030 M14/M21 Q0999 RMK WIND 1400FT 12017KT,ENSB,2019-01-12T13:50:00Z,78.25,15.47,-14.0,-21.0,130,14,,6.21,29.498032,,,,,,,,,,,FEW,3000,,,,,,,VFR,,,,,,,,,,,,METAR,29.0
ENRY 121350Z 03005KT CAVOK M03/M06 Q0997,ENRY,2019-01-12T13:50:00Z,59.37,10.77,-3.0,-6.0,30,5,,6.21,29.438976,,,,,,,,,,,CAVOK,,,,,,,,VFR,,,,,,,,,,,,METAR,53.0
ENTC 121350Z 35013KT 9999 VCSH SCT030 M01/M04 Q0988 TEMPO 1500 SHSN VV010,ENTC,2019-01-12T13:50:00Z,69.68,18.92,-1.0,-4.0,350,13,,6.21,29.17323,,,,,,,,,,VCSH,SCT,3000,,,,,,,VFR,,,,,,,,,,,,METAR,10.0
ENTO 121350Z 36005KT CAVOK M03/M06 Q0997,ENTO,2019-01-12T13:50:00Z,59.2,10.27,-3.0,-6.0,360,5,,6.21,29.438976,,,,,,,,,,,CAVOK,,,,,,,,VFR,,,,,,,,,,,,METAR,88.0
EYPA 121350Z 29004KT 220V350 9999 BKN018 02/M00 Q1000 R01/2///55,EYPA,2019-01-12T13:50:00Z,55.97,21.08,2.0,0.0,290,4,,6.21,29.52756,,,,,,,,,,,BKN,1800,,,,,,,MVFR,,,,,,,,,,,,METAR,10.0
EFHK 121350Z 26007KT CAVOK M03/M04 Q0992 NOSIG,EFHK,2019-01-12T13:50:00Z,60.32,24.97,-3.0,-4.0,260,7,,6.21,29.291338,,,,,,TRUE,,,,,CAVOK,,,,,,,,VFR,,,,,,,,,,,,METAR,56.0
EFTP 121350Z AUTO 26006KT CAVOK M04/M06 Q0992,EFTP,2019-01-12T13:50:00Z,61.42,23.62,-4.0,-6.0,260,6,,6.21,29.291338,,,TRUE,,,,,,,,CAVOK,,,,,,,,VFR,,,,,,,,,,,,METAR,112.0
EFVA 121350Z AUTO 30005KT CAVOK M02/M07 Q0991,EFVA,2019-01-12T13:50:00Z,63.03,21.77,-2.0,-7.0,300,5,,6.21,29.26181,,,TRUE,,,,,,,,CAVOK,,,,,,,,VFR,,,,,,,,,,,,METAR,4.0
EFMA 121350Z AUTO 29005KT 260V330 9999 BKN026 01/M03 Q0996,EFMA,2019-01-12T13:50:00Z,60.12,19.88,1.0,-3.0,290,5,,6.21,29.409449,,,TRUE,,,,,,,,BKN,2600,,,,,,,MVFR,,,,,,,,,,,,METAR,6.0
EFIV 121350Z 30011KT 270V340 CAVOK M02/M05 Q0978,EFIV,2019-01-12T13:50:00Z,68.62,27.42,-2.0,-5.0,300,11,,6.21,28.877953,,,,,,,,,,,CAVOK,,,,,,,,VFR,,,,,,,,,,,,METAR,148.0
EFRO 121350Z AUTO 32014G25KT 280V350 9999 BKN026 BKN031 M04/M07 Q0981,EFRO,2019-01-12T13:50:00Z,66.57,25.82,-4.0,-7.0,320,14,25,6.21,28.966536,,,TRUE,,,,,,,,BKN,2600,BKN,3100,,,,,MVFR,,,,,,,,,,,,METAR,201.0
EFOU 121350Z AUTO 32016KT CAVOK M02/M07 Q0985,EFOU,2019-01-12T13:50:00Z,64.92,25.37,-2.0,-7.0,320,16,,6.21,29.084646,,,TRUE,,,,,,,,CAVOK,,,,,,,,VFR,,,,,,,,,,,,METAR,15.0
LSZH 121350Z VRB02KT 9999 FEW007 BKN045 02/M00 Q1024 NOSIG,LSZH,2019-01-12T13:50:00Z,47.48,8.53,2.0,0.0,0,2,,6.21,30.236221,,,,,,TRUE,,,,,FEW,700,BKN,4500,,,,,VFR,,,,,,,,,,,,METAR,432.0
ESUT 121350Z AUTO 30005KT 220V340 9999 OVC028/// M04/M08 Q0992,ESUT,2019-01-12T13:50:00Z,65.8,15.08,-4.0,-8.0,300,5,,6.21,29.291338,,,TRUE,,,,,,,,OVC,2800,,,,,,,MVFR,,,,,,,,,,,,METAR,463.0
ESNX 121350Z AUTO 28010KT 9999 NCD M05/M10 Q0989,ESNX,2019-01-12T13:50:00Z,65.58,19.28,-5.0,-10.0,280,10,,6.21,29.202755,,,TRUE,,,,,,,,CLR,,,,,,,,VFR,,,,,,,,,,,,METAR,379.0
ESNL 121350Z AUTO 28007KT 9999 NCD M04/M09 Q0991,ESNL,2019-01-12T13:50:00Z,64.55,18.72,-4.0,-9.0,280,7,,6.21,29.26181,,,TRUE,,,,,,,,CLR,,,,,,,,VFR,,,,,,,,,,,,METAR,214.0
MMPQ 121350Z 00000KT 5SM SKC 17/17 A2991 RMK HZY,MMPQ,2019-01-12T13:50:00Z,17.53,-91.98,17.0,17.0,0,0,,5.0,29.911417,,,,,,,,,,,SKC,,,,,,,,MVFR,,,,,,,,,,,,METAR,61.0
LSZB 121350Z 14005KT 9999 BKN042 03/01 Q1024 R14/620194 NOSIG,LSZB,2019-01-12T13:50:00Z,46.92,7.5,3.0,1.0,140,5,,6.21,30.236221,,,,,,TRUE,,,,,BKN,4200,,,,,,,VFR,,,,,,,,,,,,METAR,505.0
LSZA 121350Z VRB02KT CAVOK 10/M04 Q1016 NOSIG,LSZA,2019-01-12T13:50:00Z,46.0,8.92,10.0,-4.0,0,2,,6.21,30.0,,,,,,TRUE,,,,,CAVOK,,,,,,,,VFR,,,,,,,,,,,,METAR,276.0
KDAG 121350Z AUTO 06005KT 10SM CLR 09/01 A3002 RMK AO2 SLP158 T00890006,KDAG,2019-01-12T13:50:00Z,34.85,-116.78,8.9,0.6,60,5,,10.0,30.02067,1015.8,,TRUE,TRUE,,,,,,,CLR,,,,,,,,VFR,,,,,,,,,,,,METAR,587.0
LICB 121350Z 36010KT 340V040 CAVOK 10/01 Q1014,LICB,2019-01-12T13:50:00Z,37.0,14.62,10.0,1.0,360,10,,6.21,29.940945,,,,,,,,,,,CAVOK,,,,,,,,VFR,,,,,,,,,,,,METAR,220.0
LICR 121350Z 35015KT 9999 SCT050 08/M02 Q1014,LICR,2019-01-12T13:50:00Z,38.07,15.65,8.0,-2.0,350,15,,6.21,29.940945,,,,,,,,,,,SCT,5000,,,,,,,VFR,,,,,,,,,,,,METAR,21.0
KFIN 121350Z 11006KT 7SM BKN065 19/13 A3026,KFIN,2019-01-12T13:50:00Z,29.47,-81.2,19.0,13.0,110,6,,7.0,30.259842,,,,,,,,,,,BKN,6500,,,,,,,VFR,,,,,,,,,,,,METAR,10.0
KESN 121350Z COR 09004KT 10SM SKC M01/M09 A3058,KESN,2019-01-12T13:50:00Z,38.8,-76.07,-1.0,-9.0,90,4,,10.0,30.578741,,TRUE,,,,,,,,,SKC,,,,,,,,VFR,,,,,,,,,,,,METAR,22.0
EKKA 121350Z 27014KT 9999 -SHRA SCT010CB BKN030 06/05 Q0999,EKKA,2019-01-12T13:50:00Z,56.3,9.12,6.0,5.0,270,14,,6.21,29.498032,,,,,,,,,,-SHRA,SCT,1000,BKN,3000,,,,,MVFR,,,,,,,,,,,,METAR,52.0
EKSP 121350Z 27019KT 9999 -SHRA BKN012 FEW022TCU BKN031 07/05 Q1001,EKSP,2019-01-12T13:50:00Z,55.22,9.27,7.0,5.0,270,19,,6.21,29.557087,,,,,,,,,,-SHRA,BKN,1200,FEW,2200,BKN,3100,,,MVFR,,,,,,,,,,,,METAR,40.0
OOMS 121350Z 33006KT 9999 FEW025 SCT250 23/16 Q1016 NOSIG,OOMS,2019-01-12T13:50:00Z,23.57,58.27,23.0,16.0,330,6,,6.21,30.0,,,,,,TRUE,,,,,FEW,2500,SCT,25000,,,,,VFR,,,,,,,,,,,,METAR,8.0
LSZR 121350Z VRB02KT 9999 SCT025 BKN050 02/01 Q1023 NOSIG RMK H,LSZR,2019-01-12T13:50:00Z,47.48,9.57,2.0,1.0,0,2,,6.21,30.206694,,,,,,TRUE,,,,,SCT,2500,BKN,5000,,,,,VFR,,,,,,,,,,,,METAR,398.0
LSZG 121350Z 24004KT 8000 FEW010 BKN046 02/01 Q1024 NOSIG,LSZG,2019-01-12T13:50:00Z,47.17,7.42,2.0,1.0,240,4,,4.97,30.236221,,,,,,TRUE,,,,,FEW,1000,BKN,4600,,,,,MVFR,,,,,,,,,,,,METAR,430.0
LSZS 121350Z 21003KT 9999 FEW045 M04/M09 Q1017 RMK P,LSZS,2019-01-12T13:50:00Z,46.53,9.88,-4.0,-9.0,210,3,,6.21,30.029528,,,,,,,,,,,FEW,4500,,,,,,,VFR,,,,,,,,,,,,METAR,1706.0
LSZC 121350Z AUTO 01002KT 9999 SCT050 02/00 Q1024,LSZC,2019-01-12T13:50:00Z,46.97,8.38,2.0,0.0,10,2,,6.21,30.236221,,,TRUE,,,,,,,,SCT,5000,,,,,,,VFR,,,,,,,,,,,,METAR,450.0
LTBF 121350Z 03002KT 9999 FEW010 SCT035 BKN100 07/07 Q1010 RESHRA NOSIG,LTBF,2019-01-12T13:50:00Z,39.62,27.92,7.0,7.0,30,2,,6.21,29.822834,,,,,,TRUE,,,,,FEW,1000,SCT,3500,BKN,10000,,,VFR,,,,,,,,,,,,METAR,102.0
MUCC 121350Z 09011KT 9000 SCT020 26/17 Q1021,MUCC,2019-01-12T13:50:00Z,22.47,-78.33,26.0,17.0,90,11,,5.59,30.147638,,,,,,,,,,,SCT,2000,,,,,,,VFR,,,,,,,,,,,,METAR,4.0
VNKT 121350Z 14004KT 100V190 5000 HZ FEW015 11/04 Q1021 NOSIG,VNKT,2019-01-12T13:50:00Z,27.68,85.37,11.0,4.0,140,4,,3.11,30.147638,,,,,,TRUE,,,,HZ,FEW,1500,,,,,,,MVFR,,,,,,,,,,,,METAR,1337.0
KVQQ 121350Z 01004KT 10SM OVC060 12/11 A3027,KVQQ,2019-01-12T13:50:00Z,30.22,-81.88,12.0,11.0,10,4,,10.0,30.268702,,,,,,,,,,,OVC,6000,,,,,,,VFR,,,,,,,,,,,,METAR,25.0
KTZR 121350Z 08005KT 1SM -SN OVC022 M03/M04 A3036,KTZR,2019-01-12T13:50:00Z,39.9,-83.13,-3.0,-4.0,80,5,,1.0,30.360237,,,,,,,,,,-SN,OVC,2200,,,,,,,IFR,,,,,,,,,,,,METAR,276.0
FHAW 121350Z 13014KT 9999 FEW024 28/22 Q1011 BLU NOSIG,FHAW,2019-01-12T13:50:00Z,-7.97,-14.4,28.0,22.0,130,14,,6.21,29.852362,,,,,,TRUE,,,,,FEW,2400,,,,,,,VFR,,,,,,,,,,,,METAR,79.0
EVVA 121350Z AUTO 29008KT 9999 SCT023 02/M01 Q0998,EVVA,2019-01-12T13:50:00Z,57.35,21.55,2.0,-1.0,290,8,,6.21,29.468504,,,TRUE,,,,,,,,SCT,2300,,,,,,,VFR,,,,,,,,,,,,METAR,6.0
EVLA 121350Z AUTO 29004KT 260V320 9999 SCT200/// 03/M01 Q0999,EVLA,2019-01-12T13:50:00Z,56.52,21.1,3.0,-1.0,290,4,,6.21,29.498032,,,TRUE,,,,,,,,SCT,20000,,,,,,,VFR,,,,,,,,,,,,METAR,4.0
LLBG 121350Z 01004KT CAVOK 19/07 Q1009 NOSIG,LLBG,2019-01-12T13:50:00Z,32.0,34.88,19.0,7.0,10,4,,6.21,29.793306,,,,,,TRUE,,,,,CAVOK,,,,,,,,VFR,,,,,,,,,,,,METAR,49.0
KVCV 121350Z 22003KT 10SM -RA OVC 080 A3002,KVCV,2019-01-12T13:50:00Z,34.58,-117.38,,,220,3,,10.0,30.02067,,,,,,,,,,-RA,OVC,8000,,,,,,,VFR,,,,,,,,,,,,METAR,876.0
KLBE 121350Z VRB04KT 10SM SKC M05/M08 A3039,KLBE,2019-01-12T13:50:00Z,40.27,-79.4,-5.0,-8.0,0,4,,10.0,30.389763,,,,,,,,,,,SKC,,,,,,,,VFR,,,,,,,,,,,,METAR,361.0
EGPO 121350Z 28016KT 9999 FEW004 SCT007 BKN011 10/08 Q1010,EGPO,2019-01-12T13:50:00Z,58.22,-6.32,10.0,8.0,280,16,,6.21,29.822834,,,,,,,,,,,FEW,400,SCT,700,BKN,1100,,,MVFR,,,,,,,,,,,,METAR,13.0
EKRN 121350Z AUTO 26015KT 9999 -SHRA BKN004/// OVC024/// 05/04 Q1001,EKRN,2019-01-12T13:50:00Z,55.07,14.75,5.0,4.0,260,15,,6.21,29.557087,,,TRUE,,,,,,,-SHRA,BKN,400,OVC,2400,,,,,LIFR,,,,,,,,,,,,METAR,16.0
EKCH 121350Z 22011KT 4000 -DZRA BR SCT003 BKN005 05/05 Q1000 TEMPO 6000 RA BKN004,EKCH,2019-01-12T13:50:00Z,55.62,12.67,5.0,5.0,220,11,,2.49,29.52756,,,,,,,,,,-DZ -RA BR,SCT,300,BKN,500,,,,,IFR,,,,,,,,,,,,METAR,5.0
EKRK 121350Z AUTO 22009KT 7000NDV -SHRA SCT004/// BKN006/// OVC008/// 05/05 Q0999,EKRK,2019-01-12T13:50:00Z,55.57,12.12,5.0,5.0,220,9,,,29.498032,,,TRUE,,,,,,,-SHRA,SCT,400,BKN,600,OVC,800,,,,,,,,,,,,,,,METAR,44.0
EKAH 121350Z AUTO 25008KT 220V280 8000NDV -SHRA BKN008/// 06/06 Q0998,EKAH,2019-01-12T13:50:00Z,56.28,10.62,6.0,6.0,250,8,,,29.468504,,,TRUE,,,,,,,-SHRA,BKN,800,,,,,,,,,,,,,,,,,,,METAR,25.0
ESGG 121350Z 21004KT 6000 -DZ BKN013 OVC016 01/01 Q0996 R21/19//95,ESGG,2019-01-12T13:50:00Z,57.67,12.3,1.0,1.0,210,4,,3.73,29.409449,,,,,,,,,,-DZ,BKN,1300,OVC,1600,,,,,MVFR,,,,,,,,,,,,METAR,169.0
EKBI 121350Z 27015KT 9999 FEW010CB BKN017 05/04 Q1000,EKBI,2019-01-12T13:50:00Z,55.72,9.15,5.0,4.0,270,15,,6.21,29.52756,,,,,,,,,,,FEW,1000,BKN,1700,,,,,MVFR,,,,,,,,,,,,METAR,66.0
ESTL 121350Z AUTO 23007KT 8000 DZ FEW007/// SCT011/// BKN016/// 05/05 Q0999,ESTL,2019-01-12T13:50:00Z,56.07,13.2,5.0,5.0,230,7,,4.97,29.498032,,,TRUE,,,,,,,DZ,FEW,700,SCT,1100,BKN,1600,,,MVFR,,,,,,,,,,,,METAR,43.0
ESTA 121350Z 24010KT 9999 -DZ BKN005 05/04 Q0998,ESTA,2019-01-12T13:50:00Z,56.28,12.83,5.0,4.0,240,10,,6.21,29.468504,,,,,,,,,,-DZ,BKN,500,,,,,,,IFR,,,,,,,,,,,,METAR,47.0
ESMX 121350Z AUTO 18005KT 3700 BR OVC001/// 01/01 Q0997,ESMX,2019-01-12T13:50:00Z,56.92,14.72,1.0,1.0,180,5,,2.3,29.438976,,,TRUE,,,,,,,BR,OVC,100,,,,,,,LIFR,,,,,,,,,,,,METAR,186.0
ESMT 121350Z 25012KT 9000 -DZ BKN003 OVC005 05/04 Q0998,ESMT,2019-01-12T13:50:00Z,56.67,12.82,5.0,4.0,250,12,,5.59,29.468504,,,,,,,,,,-DZ,BKN,300,OVC,500,,,,,LIFR,,,,,,,,,,,,METAR,30.0
ESMS 121350Z 23010KT 9999 -RA OVC005 05/04 Q1000 R17/29//95,ESMS,2019-01-12T13:50:00Z,55.53,13.37,5.0,4.0,230,10,,6.21,29.52756,,,,,,,,,,-RA,OVC,500,,,,,,,IFR,,,,,,,,,,,,METAR,106.0
ESMQ 121350Z AUTO 19004KT 9999 OVC008/// 00/M01 Q0999,ESMQ,2019-01-12T13:50:00Z,56.68,16.3,0.0,-1.0,190,4,,6.21,29.498032,,,TRUE,,,,,,,,OVC,800,,,,,,,IFR,,,,,,,,,,,,METAR,16.0
ESMK 121350Z AUTO 22007KT 6000 BR FEW007/// BKN009/// BKN027/// 04/// Q0999,ESMK,2019-01-12T13:50:00Z,55.92,14.07,,,220,7,,3.73,29.498032,,,TRUE,,,,,,,BR,FEW,700,BKN,900,BKN,2700,,,IFR,,,,,,,,,,,,METAR,23.0
ESGT 121350Z AUTO VRB03KT 0200 R15/0500N R33/0450N FZFG OVC001/// M00/M00 Q0997,ESGT,2019-01-12T13:50:00Z,58.32,12.33,0.0,0.0,0,3,,0.12,29.438976,,,TRUE,,,,,,,FZFG,OVC,100,,,,,,,LIFR,,,,,,,,,,,,METAR,41.0
ESGJ 121350Z AUTO VRB03KT 9000 BR OVC006/// M00/M01 Q0996,ESGJ,2019-01-12T13:50:00Z,57.77,14.07,0.0,-1.0,0,3,,5.59,29.409449,,,TRUE,,,,,,,BR,OVC,600,,,,,,,IFR,,,,,,,,,,,,METAR,232.0
EKVD 121350Z 29015KT 270V330 9999 -RA BKN008 06/05 Q1001,EKVD,2019-01-12T13:50:00Z,55.42,9.32,6.0,5.0,290,15,,6.21,29.557087,,,,,,,,,,-RA,BKN,800,,,,,,,IFR,,,,,,,,,,,,METAR,45.0
LLIB 121350Z 15005KT CAVOK 16/04 Q1010,LLIB,2019-01-12T13:50:00Z,32.98,35.57,16.0,4.0,150,5,,6.21,29.822834,,,,,,,,,,,CAVOK,,,,,,,,VFR,,,,,,,,,,,,METAR,282.0
LSMS 121350Z VRB02KT 9999 SCT030 03/M06 Q1026 RMK BLU+,LSMS,2019-01-12T13:50:00Z,46.22,7.32,3.0,-6.0,0,2,,6.21,30.295275,,,,,,,,,,,SCT,3000,,,,,,,VFR,,,,,,,,,,,,METAR,481.0
EKOD 121350Z 26013KT 9999 -SHRA FEW011 SCT014 BKN045 06/05 Q1000,EKOD,2019-01-12T13:50:00Z,55.47,10.32,6.0,5.0,260,13,,6.21,29.52756,,,,,,,,,,-SHRA,FEW,1100,SCT,1400,BKN,4500,,,VFR,,,,,,,,,,,,METAR,17.0
EKSB 121350Z AUTO 28015KT //// BKN016/// 08/05 Q1002,EKSB,2019-01-12T13:50:00Z,54.97,9.8,8.0,5.0,280,15,,,29.586615,,,TRUE,,,,,,,,BKN,1600,,,,,,,,,,,,,,,,,,,METAR,23.0
LLET 121350Z VRB03KT CAVOK 22/03 Q1009 RMK FEW120,LLET,2019-01-12T13:50:00Z,29.55,34.95,22.0,3.0,0,3,,6.21,29.793306,,,,,,,,,,,CAVOK,,,,,,,,VFR,,,,,,,,,,,,METAR,13.0
LLHA 121350Z 12009KT CAVOK 18/04 Q1010,LLHA,2019-01-12T13:50:00Z,32.78,35.02,18.0,4.0,120,9,,6.21,29.822834,,,,,,,,,,,CAVOK,,,,,,,,VFR,,,,,,,,,,,,METAR,8.0
LLOV 121350Z 12010KT CAVOK 19/04 Q1010 RMK FEW100,LLOV,2019-01-12T13:50:00Z,29.93,34.93,19.0,4.0,120,10,,6.21,29.822834,,,,,,,,,,,CAVOK,,,,,,,,VFR,,,,,,,,,,,,METAR,432.0
LSMP 121350Z 23005KT 9999 OVC046 00/M04 Q1024 RMK BLU,LSMP,2019-01-12T13:50:00Z,46.82,6.92,0.0,-4.0,230,5,,6.21,30.236221,,,,,,,,,,,OVC,4600,,,,,,,VFR,,,,,,,,,,,,METAR,491.0
LLSD 121350Z 33004KT CAVOK 17/10 Q1009,LLSD,2019-01-12T13:50:00Z,32.12,34.78,17.0,10.0,330,4,,6.21,29.793306,,,,,,,,,,,CAVOK,,,,,,,,VFR,,,,,,,,,,,,METAR,14.0
EDDB 121350Z 26015KT 9999 BKN020 06/03 Q1008 TEMPO 26015G25KT,EDDB,2019-01-12T13:50:00Z,52.38,13.53,6.0,3.0,260,15,,6.21,29.763779,,,,,,,,,,,BKN,2000,,,,,,,MVFR,,,,,,,,,,,,METAR,48.0
EDDC 121350Z 25010G20KT 210V290 9999 SCT015 BKN043 04/02 Q1011 R04/D TEMPO 27015G25KT,EDDC,2019-01-12T13:50:00Z,51.13,13.75,4.0,2.0,250,10,20,6.21,29.852362,,,,,,,,,,,SCT,1500,BKN,4300,,,,,VFR,,,,,,,,,,,,METAR,226.0
EDDE 121350Z 23016KT 9999 -RA SCT016 BKN020 04/01 Q1012 R88/190195 TEMPO 25015G25KT,EDDE,2019-01-12T13:50:00Z,50.98,10.97,4.0,1.0,230,16,,6.21,29.88189,,,,,,,,,,-RA,SCT,1600,BKN,2000,,,,,MVFR,,,,,,,,,,,,METAR,323.0
EDDP 121350Z 24017KT 9999 SCT022 BKN045 05/02 Q1011 TEMPO 26015G25KT,EDDP,2019-01-12T13:50:00Z,51.43,12.23,5.0,2.0,240,17,,6.21,29.852362,,,,,,,,,,,SCT,2200,BKN,4500,,,,,VFR,,,,,,,,,,,,METAR,149.0
EDDG 121350Z 24013KT 6000 -RADZ BKN009 06/05 Q1012 BECMG BKN015,EDDG,2019-01-12T13:50:00Z,52.13,7.7,6.0,5.0,240,13,,3.73,29.88189,,,,,,,,,,-RA -DZ,BKN,900,,,,,,,IFR,,,,,,,,,,,,METAR,52.0
EDDR 121350Z 24014KT 9999 FEW009 BKN012 04/02 Q1020 TEMPO 27015G25KT,EDDR,2019-01-12T13:50:00Z,49.22,7.1,4.0,2.0,240,14,,6.21,30.11811,,,,,,,,,,,FEW,900,BKN,1200,,,,,MVFR,,,,,,,,,,,,METAR,320.0
EDDW 121350Z 26016KT 9999 -RADZ BKN009 07/06 Q1008 BECMG 26015G25KT SCT010,EDDW,2019-01-12T13:50:00Z,53.03,8.8,7.0,6.0,260,16,,6.21,29.763779,,,,,,,,,,-RA -DZ,BKN,900,,,,,,,IFR,,,,,,,,,,,,METAR,5.0
EDDF 121350Z 20012KT 9999 FEW012 BKN022 05/03 Q1018 TEMPO 23015G25KT,EDDF,2019-01-12T13:50:00Z,50.05,8.6,5.0,3.0,200,12,,6.21,30.059055,,,,,,,,,,,FEW,1200,BKN,2200,,,,,MVFR,,,,,,,,,,,,METAR,113.0
EDDH 121350Z 25013KT 220V290 5000 -RADZ FEW005 BKN007 07/06 Q1006 RERA BECMG NSW SCT010,EDDH,2019-01-12T13:50:00Z,53.63,10.0,7.0,6.0,250,13,,3.11,29.704725,,,,,,,,,,-RA -DZ,FEW,500,BKN,700,,,,,IFR,,,,,,,,,,,,METAR,16.0
EDDK 121350Z 25015KT 9999 -RADZ FEW008 BKN012 06/05 Q1016 BECMG 26015G25KT 2500 DZRA BKN009,EDDK,2019-01-12T13:50:00Z,50.87,7.15,6.0,5.0,250,15,,6.21,30.0,,,,,,,,,,-RA -DZ,FEW,800,BKN,1200,,,,,MVFR,,,,,,,,,,,,METAR,99.0
EDDL 121350Z 25014KT 7000 -RADZ FEW005 BKN009 06/06 Q1015 TEMPO 2500 BKN011,EDDL,2019-01-12T13:50:00Z,51.3,6.77,6.0,6.0,250,14,,4.35,29.970472,,,,,,,,,,-RA -DZ,FEW,500,BKN,900,,,,,IFR,,,,,,,,,,,,METAR,44.0
EDDS 121350Z 22008KT 190V250 9999 -RA FEW010 SCT023 BKN036 03/00 Q1020 NOSIG,EDDS,2019-01-12T13:50:00Z,48.67,9.22,3.0,0.0,220,8,,6.21,30.11811,,,,,,TRUE,,,,-RA,FEW,1000,SCT,2300,BKN,3600,,,VFR,,,,,,,,,,,,METAR,419.0
EFJY 121350Z AUTO 28009KT CAVOK M05/M07 Q0988,EFJY,2019-01-12T13:50:00Z,62.4,25.68,-5.0,-7.0,280,9,,6.21,29.17323,,,TRUE,,,,,,,,CAVOK,,,,,,,,VFR,,,,,,,,,,,,METAR,145.0
EFHA 121350Z AUTO 26009KT CAVOK M06/M07 Q0990,EFHA,2019-01-12T13:50:00Z,61.85,24.8,-6.0,-7.0,260,9,,6.21,29.232283,,,TRUE,,,,,,,,CAVOK,,,,,,,,VFR,,,,,,,,,,,,METAR,145.0
EFKU 121350Z AUTO 28012KT 9999 SCT036 M04/M06 Q0985,EFKU,2019-01-12T13:50:00Z,63.02,27.8,-4.0,-6.0,280,12,,6.21,29.084646,,,TRUE,,,,,,,,SCT,3600,,,,,,,VFR,,,,,,,,,,,,METAR,102.0
EFPO 121350Z AUTO 29005KT CAVOK M01/M06 Q0993,EFPO,2019-01-12T13:50:00Z,61.47,21.8,-1.0,-6.0,290,5,,6.21,29.320866,,,TRUE,,,,,,,,CAVOK,,,,,,,,VFR,,,,,,,,,,,,METAR,17.0
EFJO 121350Z AUTO 30012KT 240V330 9999 OVC018 M03/M06 Q0983,EFJO,2019-01-12T13:50:00Z,62.67,29.62,-3.0,-6.0,300,12,,6.21,29.02559,,,TRUE,,,,,,,,OVC,1800,,,,,,,MVFR,,,,,,,,,,,,METAR,117.0
EFKK 121350Z 29004KT 250V330 CAVOK M02/M08 Q0989,EFKK,2019-01-12T13:50:00Z,63.72,23.13,-2.0,-8.0,290,4,,6.21,29.202755,,,,,,,,,,,CAVOK,,,,,,,,VFR,,,,,,,,,,,,METAR,25.0
EFLP 121350Z AUTO 26008KT CAVOK M04/M06 Q0987,EFLP,2019-01-12T13:50:00Z,61.07,28.13,-4.0,-6.0,260,8,,6.21,29.143702,,,TRUE,,,,,,,,CAVOK,,,,,,,,VFR,,,,,,,,,,,,METAR,106.0
EFUT 121350Z AUTO 26006KT CAVOK M05/M07 Q0989,EFUT,2019-01-12T13:50:00Z,60.88,26.92,-5.0,-7.0,260,6,,6.21,29.202755,,,TRUE,,,,,,,,CAVOK,,,,,,,,VFR,,,,,,,,,,,,METAR,100.0
EFSI 121350Z AUTO 27004KT CAVOK M04/M07 Q0991,EFSI,2019-01-12T13:50:00Z,62.7,22.83,-4.0,-7.0,270,4,,6.21,29.26181,,,TRUE,,,,,,,,CAVOK,,,,,,,,VFR,,,,,,,,,,,,METAR,91.0
EFET 121350Z AUTO 29006KT CAVOK M06/M10 Q0983,EFET,2019-01-12T13:50:00Z,68.37,23.43,-6.0,-10.0,290,6,,6.21,29.02559,,,TRUE,,,,,,,,CAVOK,,,,,,,,VFR,,,,,,,,,,,,METAR,306.0
EFKI 121350Z AUTO 30014KT 9999 OVC028 M04/M08 Q0983,EFKI,2019-01-12T13:50:00Z,64.27,27.67,-4.0,-8.0,300,14,,6.21,29.02559,,,TRUE,,,,,,,,OVC,2800,,,,,,,MVFR,,,,,,,,,,,,METAR,136.0
EFKE 121350Z 32011KT 290V350 CAVOK M04/M10 Q0985,EFKE,2019-01-12T13:50:00Z,65.77,24.57,-4.0,-10.0,320,11,,6.21,29.084646,,,,,,,,,,,CAVOK,,,,,,,,VFR,,,,,,,,,,,,METAR,15.0
MUVR 121350Z 13005KT 080V150 9000 SKC 21/17 Q1021,MUVR,2019-01-12T13:50:00Z,23.03,-81.43,21.0,17.0,130,5,,5.59,30.147638,,,,,,,,,,,SKC,,,,,,,,VFR,,,,,,,,,,,,METAR,65.0
EFKT 121350Z 30009KT 270V350 9999 BKN041 M04/M09 Q0982,EFKT,2019-01-12T13:50:00Z,67.7,24.85,-4.0,-9.0,300,9,,6.21,28.996063,,,,,,,,,,,BKN,4100,,,,,,,VFR,,,,,,,,,,,,METAR,643.0
EFSA 121350Z AUTO 26007KT 230V290 CAVOK M05/M07 Q0985,EFSA,2019-01-12T13:50:00Z,61.95,28.93,-5.0,-7.0,260,7,,6.21,29.084646,,,TRUE,,,,,,,,CAVOK,,,,,,,,VFR,,,,,,,,,,,,METAR,95.0
EFMI 121350Z AUTO 27008KT CAVOK M06/M08 Q0988,EFMI,2019-01-12T13:50:00Z,61.68,27.2,-6.0,-8.0,270,8,,6.21,29.17323,,,TRUE,,,,,,,,CAVOK,,,,,,,,VFR,,,,,,,,,,,,METAR,138.0
EFKS 121350Z 30014KT 9999 -FZDZ OVC010 M03/M04 Q0977,EFKS,2019-01-12T13:50:00Z,66.0,29.23,-3.0,-4.0,300,14,,6.21,28.848425,,,,,,,,,,-FZDZ,OVC,1000,,,,,,,MVFR,,,,,,,,,,,,METAR,263.0
BGSF 121350Z AUTO 05009KT 9999NDV NCD M36/M40 Q1016,BGSF,2019-01-12T13:50:00Z,67.0,-50.72,-36.0,-40.0,50,9,,,30.0,,,TRUE,,,,,,,,CLR,,,,,,,,,,,,,,,,,,,,METAR,53.0
BGKK 121350Z 12011KT 9999 VCSH FEW020 BKN040 M08/M11 Q1011,BGKK,2019-01-12T13:50:00Z,65.57,-37.13,-8.0,-11.0,120,11,,6.21,29.852362,,,,,,,,,,VCSH,FEW,2000,BKN,4000,,,,,VFR,,,,,,,,,,,,METAR,34.0
ENML 121350Z 06004KT 9999 BKN060 01/M01 Q0996,ENML,2019-01-12T13:50:00Z,62.75,7.27,1.0,-1.0,60,4,,6.21,29.409449,,,,,,,,,,,BKN,6000,,,,,,,VFR,,,,,,,,,,,,METAR,3.0
BGGH 121350Z 05009KT 9999 BKN020 M06/M09 Q1000,BGGH,2019-01-12T13:50:00Z,64.2,-51.68,-6.0,-9.0,50,9,,6.21,29.52756,,,,,,,,,,,BKN,2000,,,,,,,MVFR,,,,,,,,,,,,METAR,70.0
EGNT 121350Z 27019KT 9999 FEW014 08/06 Q1013,EGNT,2019-01-12T13:50:00Z,55.02,-1.7,8.0,6.0,270,19,,6.21,29.911417,,,,,,,,,,,FEW,1400,,,,,,,VFR,,,,,,,,,,,,METAR,81.0
EGHI 121350Z 27008KT 9999 FEW015 BKN022 10/07 Q1023,EGHI,2019-01-12T13:50:00Z,50.95,-1.35,10.0,7.0,270,8,,6.21,30.206694,,,,,,,,,,,FEW,1500,BKN,2200,,,,,MVFR,,,,,,,,,,,,METAR,14.0
EGGP 121350Z 27019KT 9999 BKN012 OVC026 09/06 Q1020,EGGP,2019-01-12T13:50:00Z,53.32,-2.85,9.0,6.0,270,19,,6.21,30.11811,,,,,,,,,,,BKN,1200,OVC,2600,,,,,MVFR,,,,,,,,,,,,METAR,26.0
EGFF 121350Z AUTO 29015KT 9999 FEW029 09/08 Q1024,EGFF,2019-01-12T13:50:00Z,51.38,-3.35,9.0,8.0,290,15,,6.21,30.236221,,,TRUE,,,,,,,,FEW,2900,,,,,,,VFR,,,,,,,,,,,,METAR,67.0
EGAC 121350Z AUTO 27013G24KT 240V300 9999 FEW025/// 11/08 Q1019,EGAC,2019-01-12T13:50:00Z,54.62,-5.87,11.0,8.0,270,13,24,6.21,30.088583,,,TRUE,,,,,,,,FEW,2500,,,,,,,VFR,,,,,,,,,,,,METAR,5.0
EGGW 121350Z AUTO 29016KT 9999 NCD 09/06 Q1020,EGGW,2019-01-12T13:50:00Z,51.87,-0.37,9.0,6.0,290,16,,6.21,30.11811,,,TRUE,,,,,,,,CLR,,,,,,,,VFR,,,,,,,,,,,,METAR,160.0
EGLC 121350Z AUTO 28014KT 9999 SCT025 11/06 Q1020,EGLC,2019-01-12T13:50:00Z,51.5,0.05,11.0,6.0,280,14,,6.21,30.11811,,,TRUE,,,,,,,,SCT,2500,,,,,,,VFR,,,,,,,,,,,,METAR,5.0
EGNM 121350Z 27023G37KT 9999 SCT009 BKN013 07/06 Q1016,EGNM,2019-01-12T13:50:00Z,53.87,-1.63,7.0,6.0,270,23,37,6.21,30.0,,,,,,,,,,,SCT,900,BKN,1300,,,,,MVFR,,,,,,,,,,,,METAR,208.0
EGKK 121350Z 27010KT 9999 SCT014 10/07 Q1021,EGKK,2019-01-12T13:50:00Z,51.13,-0.17,10.0,7.0,270,10,,6.21,30.147638,,,,,,,,,,,SCT,1400,,,,,,,VFR,,,,,,,,,,,,METAR,62.0
EGBB 121350Z 29011KT 9999 BKN027 09/05 Q1021,EGBB,2019-01-12T13:50:00Z,52.47,-1.75,9.0,5.0,290,11,,6.21,30.147638,,,,,,,,,,,BKN,2700,,,,,,,MVFR,,,,,,,,,,,,METAR,99.0
EGPF 121350Z AUTO 25015KT 9999 -RA BKN015 OVC020 10/08 Q1014,EGPF,2019-01-12T13:50:00Z,55.87,-4.42,10.0,8.0,250,15,,6.21,29.940945,,,TRUE,,,,,,,-RA,BKN,1500,OVC,2000,,,,,MVFR,,,,,,,,,,,,METAR,8.0
EGPD 121350Z AUTO 29016KT 9999 BKN028 BKN038 09/04 Q1009 NOSIG,EGPD,2019-01-12T13:50:00Z,57.2,-2.22,9.0,4.0,290,16,,6.21,29.793306,,,TRUE,,,TRUE,,,,,BKN,2800,BKN,3800,,,,,MVFR,,,,,,,,,,,,METAR,65.0
EGNX 121350Z 27015KT 9999 SCT015 BKN020 08/06 Q1019,EGNX,2019-01-12T13:50:00Z,52.82,-1.32,8.0,6.0,270,15,,6.21,30.088583,,,,,,,,,,,SCT,1500,BKN,2000,,,,,MVFR,,,,,,,,,,,,METAR,94.0
EGPH 121350Z 24017KT 9999 8000W VCSH FEW010 BKN025 09/07 Q1012,EGPH,2019-01-12T13:50:00Z,55.95,-3.35,9.0,7.0,240,17,,6.21,29.88189,,,,,,,,,,VCSH,FEW,1000,BKN,2500,,,,,MVFR,,,,,,,,,,,,METAR,41.0
EGPK 121350Z 26013KT 6000 -RA SCT008 BKN020 09/09 Q1016,EGPK,2019-01-12T13:50:00Z,55.5,-4.57,9.0,9.0,260,13,,3.73,30.0,,,,,,,,,,-RA,SCT,800,BKN,2000,,,,,MVFR,,,,,,,,,,,,METAR,20.0
EGSS 121350Z AUTO 29012KT 9999 BKN016 09/06 Q1019,EGSS,2019-01-12T13:50:00Z,51.88,0.22,9.0,6.0,290,12,,6.21,30.088583,,,TRUE,,,,,,,,BKN,1600,,,,,,,MVFR,,,,,,,,,,,,METAR,106.0
EGLL 121350Z AUTO 28013KT 9999 NCD 10/06 Q1021 NOSIG,EGLL,2019-01-12T13:50:00Z,51.48,-0.45,10.0,6.0,280,13,,6.21,30.147638,,,TRUE,,,TRUE,,,,,CLR,,,,,,,,VFR,,,,,,,,,,,,METAR,24.0
ESCF 121350Z AUTO 20003KT 9999 NCD M01/M05 Q0997,ESCF,2019-01-12T13:50:00Z,58.38,15.52,-1.0,-5.0,200,3,,6.21,29.438976,,,TRUE,,,,,,,,CLR,,,,,,,,VFR,,,,,,,,,,,,METAR,117.0
EGCC 121350Z AUTO 27017KT 9999 BKN015 OVC020 09/05 Q1020 NOSIG,EGCC,2019-01-12T13:50:00Z,53.35,-2.27,9.0,5.0,270,17,,6.21,30.11811,,,TRUE,,,TRUE,,,,,BKN,1500,OVC,2000,,,,,MVFR,,,,,,,,,,,,METAR,78.0
ESIB 121350Z AUTO 24004KT 0650 0550// R01/0900V1400D R19/0900V1400D FZFG OVC002/// M00/M00 Q0996,ESIB,2019-01-12T13:50:00Z,58.42,12.68,0.0,0.0,240,4,,0.4,29.409449,,,TRUE,,,,,,,FZFG,OVC,200,,,,,,,LIFR,,,,,,,,,,,,METAR,74.0
ESPA 121350Z 32011KT CAVOK M03/M11 Q0988,ESPA,2019-01-12T13:50:00Z,65.53,22.12,-3.0,-11.0,320,11,,6.21,29.17323,,,,,,,,,,,CAVOK,,,,,,,,VFR,,,,,,,,,,,,METAR,34.0
ESPE 121350Z AUTO 32010KT 9999 NCD M04/M10 Q0989,ESPE,2019-01-12T13:50:00Z,65.88,20.15,-4.0,-10.0,320,10,,6.21,29.202755,,,TRUE,,,,,,,,CLR,,,,,,,,VFR,,,,,,,,,,,,METAR,182.0
ESDF 121350Z 18002KT 1500 -DZ BR SCT002 BKN003 01/01 Q0999,ESDF,2019-01-12T13:50:00Z,56.27,15.27,1.0,1.0,180,2,,0.93,29.498032,,,,,,,,,,-DZ BR,SCT,200,BKN,300,,,,,LIFR,,,,,,,,,,,,METAR,74.0
ESSL 121350Z AUTO 00000KT 9999 NCD M01/M04 Q0997,ESSL,2019-01-12T13:50:00Z,58.38,15.67,-1.0,-4.0,0,0,,6.21,29.438976,,,TRUE,,,,,,,,CLR,,,,,,,,VFR,,,,,,,,,,,,METAR,52.0
ESCM 121350Z AUTO 23002KT 9999 FEW084/// M02/M05 Q0997,ESCM,2019-01-12T13:50:00Z,59.87,17.6,-2.0,-5.0,230,2,,6.21,29.438976,,,TRUE,,,,,,,,FEW,8400,,,,,,,VFR,,,,,,,,,,,,METAR,41.0
EGAE 121350Z 26019G29KT 9999 FEW012 SCT015 12/09 Q1020,EGAE,2019-01-12T13:50:00Z,55.03,-7.15,12.0,9.0,260,19,29,6.21,30.11811,,,,,,,,,,,FEW,1200,SCT,1500,,,,,VFR,,,,,,,,,,,,METAR,9.0
EGNJ 121350Z 27016KT 9999 FEW013 SCT022 09/06 Q1016,EGNJ,2019-01-12T13:50:00Z,53.57,-0.35,9.0,6.0,270,16,,6.21,30.0,,,,,,,,,,,FEW,1300,SCT,2200,,,,,VFR,,,,,,,,,,,,METAR,31.0
ESIA 121350Z AUTO VRB01KT 9999 FEW130/// M01/M03 Q0997,ESIA,2019-01-12T13:50:00Z,58.52,14.5,-1.0,-3.0,0,1,,6.21,29.438976,,,TRUE,,,,,,,,FEW,13000,,,,,,,VFR,,,,,,,,,,,,METAR,94.0
EGPE 121350Z 24018KT 9999 FEW012 BKN025 09/06 Q1010,EGPE,2019-01-12T13:50:00Z,57.52,-4.03,9.0,6.0,240,18,,6.21,29.822834,,,,,,,,,,,FEW,1200,BKN,2500,,,,,MVFR,,,,,,,,,,,,METAR,9.0
EGKA 121350Z 25012KT 9999 SCT011 BKN022 09/07 Q1022,EGKA,2019-01-12T13:50:00Z,50.83,-0.3,9.0,7.0,250,12,,6.21,30.177166,,,,,,,,,,,SCT,1100,BKN,2200,,,,,MVFR,,,,,,,,,,,,METAR,2.0
EGNH 121350Z 26020KT 9999 FEW016 BKN032 09/07 Q1020,EGNH,2019-01-12T13:50:00Z,53.77,-3.02,9.0,7.0,260,20,,6.21,30.11811,,,,,,,,,,,FEW,1600,BKN,3200,,,,,VFR,,,,,,,,,,,,METAR,10.0
EGPN 121350Z 25016KT 9999 FEW015 SCT034 08/06 Q1010,EGPN,2019-01-12T13:50:00Z,56.45,-3.02,8.0,6.0,250,16,,6.21,29.822834,,,,,,,,,,,FEW,1500,SCT,3400,,,,,VFR,,,,,,,,,,,,METAR,4.0
EGKB 121350Z 28013KT 240V300 9999 SCT015 09/06 Q1020,EGKB,2019-01-12T13:50:00Z,51.32,0.02,9.0,6.0,280,13,,6.21,30.11811,,,,,,,,,,,SCT,1500,,,,,,,VFR,,,,,,,,,,,,METAR,183.0
EGMC 121350Z 28013KT 9999 SCT018 09/06 Q1019,EGMC,2019-01-12T13:50:00Z,51.57,0.7,9.0,6.0,280,13,,6.21,30.088583,,,,,,,,,,,SCT,1800,,,,,,,VFR,,,,,,,,,,,,METAR,15.0
EGMD 121350Z 27012KT 9999 SCT018 BKN024 10/08 Q1020,EGMD,2019-01-12T13:50:00Z,50.95,0.92,10.0,8.0,270,12,,6.21,30.11811,,,,,,,,,,,SCT,1800,BKN,2400,,,,,MVFR,,,,,,,,,,,,METAR,3.0
EGPA 121350Z 30024KT 9999 VCSH FEW007 SCT018 08/06 Q1006,EGPA,2019-01-12T13:50:00Z,58.95,-2.88,8.0,6.0,300,24,,6.21,29.704725,,,,,,,,,,VCSH,FEW,700,SCT,1800,,,,,VFR,,,,,,,,,,,,METAR,21.0
EGLF 121350Z 29009KT 240V320 9999 SCT022 BKN040 10/07 Q1021,EGLF,2019-01-12T13:50:00Z,51.28,-0.77,10.0,7.0,290,9,,6.21,30.147638,,,,,,,,,,,SCT,2200,BKN,4000,,,,,VFR,,,,,,,,,,,,METAR,65.0
EGTK 121350Z 28009KT 9999 SCT024 09/06 Q1021,EGTK,2019-01-12T13:50:00Z,51.83,-1.32,9.0,6.0,280,9,,6.21,30.147638,,,,,,,,,,,SCT,2400,,,,,,,VFR,,,,,,,,,,,,METAR,82.0
EGPM 121350Z AUTO 29013KT 9999 FEW020/// 07/05 Q1001,EGPM,2019-01-12T13:50:00Z,60.42,-1.3,7.0,5.0,290,13,,6.21,29.557087,,,TRUE,,,,,,,,FEW,2000,,,,,,,VFR,,,,,,,,,,,,METAR,22.0
EGPL 121350Z AUTO 28021KT 4300 RA BKN004/// OVC008/// 10/09 Q1013,EGPL,2019-01-12T13:50:00Z,57.47,-7.37,10.0,9.0,280,21,,2.67,29.911417,,,TRUE,,,,,,,RA,BKN,400,OVC,800,,,,,LIFR,,,,,,,,,,,,METAR,6.0
ESSP 121350Z AUTO 19002KT 9999 NCD M01/M03 Q0998,ESSP,2019-01-12T13:50:00Z,58.57,16.25,-1.0,-3.0,190,2,,6.21,29.468504,,,TRUE,,,,,,,,CLR,,,,,,,,VFR,,,,,,,,,,,,METAR,8.0
ESSD 121350Z AUTO 27006KT 9999 OVC076/// M01/M06 Q0996,ESSD,2019-01-12T13:50:00Z,60.42,15.5,-1.0,-6.0,270,6,,6.21,29.409449,,,TRUE,,,,,,,,OVC,7600,,,,,,,VFR,,,,,,,,,,,,METAR,161.0
ESKN 121350Z 26001KT CAVOK M01/M04 Q0997 R26/710195,ESKN,2019-01-12T13:50:00Z,58.78,16.9,-1.0,-4.0,260,1,,6.21,29.438976,,,,,,,,,,,CAVOK,,,,,,,,VFR,,,,,,,,,,,,METAR,43.0
ESSB 121350Z 26004KT CAVOK M00/M04 Q0997 R12/19//95,ESSB,2019-01-12T13:50:00Z,59.35,17.93,0.0,-4.0,260,4,,6.21,29.438976,,,,,,,,,,,CAVOK,,,,,,,,VFR,,,,,,,,,,,,METAR,11.0
EGHQ 121350Z 31019KT 9999 BKN015 10/08 Q1028,EGHQ,2019-01-12T13:50:00Z,50.43,-5.0,10.0,8.0,310,19,,6.21,30.35433,,,,,,,,,,,BKN,1500,,,,,,,MVFR,,,,,,,,,,,,METAR,119.0
ESNO 121350Z AUTO 27007KT 9999 NCD M03/M08 Q0992,ESNO,2019-01-12T13:50:00Z,63.38,18.97,-3.0,-8.0,270,7,,6.21,29.291338,,,TRUE,,,,,,,,CLR,,,,,,,,VFR,,,,,,,,,,,,METAR,103.0
ESNN 121350Z AUTO 00000KT 9999 SCT170/// M03/M04 Q0995,ESNN,2019-01-12T13:50:00Z,62.52,17.43,-3.0,-4.0,0,0,,6.21,29.379921,,,TRUE,,,,,,,,SCT,17000,,,,,,,VFR,,,,,,,,,,,,METAR,10.0
ESNK 121350Z AUTO VRB02KT 9999 NCD M03/M06 Q0994,ESNK,2019-01-12T13:50:00Z,63.03,17.77,-3.0,-6.0,0,2,,6.21,29.350393,,,TRUE,,,,,,,,CLR,,,,,,,,VFR,,,,,,,,,,,,METAR,19.0
ESNG 121350Z AUTO 29009KT 9999 NCD M05/M11 Q0987,ESNG,2019-01-12T13:50:00Z,67.13,20.82,-5.0,-11.0,290,9,,6.21,29.143702,,,TRUE,,,,,,,,CLR,,,,,,,,VFR,,,,,,,,,,,,METAR,310.0
ESND 121350Z AUTO 00000KT 9999 OVC076/// M03/M05 Q0995,ESND,2019-01-12T13:50:00Z,62.05,14.42,-3.0,-5.0,0,0,,6.21,29.379921,,,TRUE,,,,,,,,OVC,7600,,,,,,,VFR,,,,,,,,,,,,METAR,359.0
ESUP 121350Z AUTO 29010KT 9999 FEW110/// M07/M10 Q0985,ESUP,2019-01-12T13:50:00Z,67.25,23.07,-7.0,-10.0,290,10,,6.21,29.084646,,,TRUE,,,,,,,,FEW,11000,,,,,,,VFR,,,,,,,,,,,,METAR,165.0
ESST 121350Z AUTO 33001KT 9999 FEW100/// M06/M06 Q0997,ESST,2019-01-12T13:50:00Z,60.15,12.98,-6.0,-6.0,330,1,,6.21,29.438976,,,TRUE,,,,,,,,FEW,10000,,,,,,,VFR,,,,,,,,,,,,METAR,120.0
ESNV 121350Z AUTO 28007KT 9999 NCD M04/M08 Q0992,ESNV,2019-01-12T13:50:00Z,64.58,16.83,-4.0,-8.0,280,7,,6.21,29.291338,,,TRUE,,,,,,,,CLR,,,,,,,,VFR,,,,,,,,,,,,METAR,348.0
ESKM 121350Z AUTO 21003KT 9999 OVC076/// M00/M05 Q0996,ESKM,2019-01-12T13:50:00Z,60.97,14.52,0.0,-5.0,210,3,,6.21,29.409449,,,TRUE,,,,,,,,OVC,7600,,,,,,,VFR,,,,,,,,,,,,METAR,193.0
ESGR 121350Z AUTO 20005KT 9999 FEW005/// SCT010/// M01/M02 Q0997,ESGR,2019-01-12T13:50:00Z,58.45,13.97,-1.0,-2.0,200,5,,6.21,29.438976,,,TRUE,,,,,,,,FEW,500,SCT,1000,,,,,VFR,,,,,,,,,,,,METAR,105.0
EGTE 121350Z 31014KT 9999 SCT028 10/06 Q1025,EGTE,2019-01-12T13:50:00Z,50.72,-3.42,10.0,6.0,310,14,,6.21,30.265747,,,,,,,,,,,SCT,2800,,,,,,,VFR,,,,,,,,,,,,METAR,30.0
EGJJ 121350Z 28016KT 9999 VCSH FEW006 BKN009 10/10 Q1026,EGJJ,2019-01-12T13:50:00Z,49.22,-2.2,10.0,10.0,280,16,,6.21,30.295275,,,,,,,,,,VCSH,FEW,600,BKN,900,,,,,IFR,,,,,,,,,,,,METAR,84.0
EGJB 121350Z 29017KT 9999 VCSH SCT005 BKN015 10/09 Q1026,EGJB,2019-01-12T13:50:00Z,49.42,-2.6,10.0,9.0,290,17,,6.21,30.295275,,,,,,,,,,VCSH,SCT,500,BKN,1500,,,,,MVFR,,,,,,,,,,,,METAR,102.0
ESNS 121350Z AUTO 28010KT 9999 NCD M04/M10 Q0990,ESNS,2019-01-12T13:50:00Z,64.62,21.07,-4.0,-10.0,280,10,,6.21,29.232283,,,TRUE,,,,,,,,CLR,,,,,,,,VFR,,,,,,,,,,,,METAR,49.0
ESNU 121350Z 31009KT CAVOK M03/M08 Q0992 R14/71//65,ESNU,2019-01-12T13:50:00Z,63.78,20.27,-3.0,-8.0,310,9,,6.21,29.291338,,,,,,,,,,,CAVOK,,,,,,,,VFR,,,,,,,,,,,,METAR,14.0
ESSA 121350Z 27005KT CAVOK M02/M05 Q0997 R01L/29//95 R08/29//95 R01R/29//95 NOSIG,ESSA,2019-01-12T13:50:00Z,59.63,17.93,-2.0,-5.0,270,5,,6.21,29.438976,,,,,,TRUE,,,,,CAVOK,,,,,,,,VFR,,,,,,,,,,,,METAR,61.0
ESOW 121350Z AUTO VRB02KT 9999 NCD M01/M06 Q0997,ESOW,2019-01-12T13:50:00Z,59.57,16.62,-1.0,-6.0,0,2,,6.21,29.438976,,,TRUE,,,,,,,,CLR,,,,,,,,VFR,,,,,,,,,,,,METAR,31.0
ESOK 121350Z AUTO 03005KT 9999 FEW011/// M03/M05 Q0996,ESOK,2019-01-12T13:50:00Z,59.45,13.33,-3.0,-5.0,30,5,,6.21,29.409449,,,TRUE,,,,,,,,FEW,1100,,,,,,,VFR,,,,,,,,,,,,METAR,107.0
ESOE 121350Z 00000KT CAVOK M01/M04 Q0997,ESOE,2019-01-12T13:50:00Z,59.22,15.05,-1.0,-4.0,0,0,,6.21,29.438976,,,,,,,,,,,CAVOK,,,,,,,,VFR,,,,,,,,,,,,METAR,57.0
ESNZ 121350Z 27007KT CAVOK M02/M03 Q0994,ESNZ,2019-01-12T13:50:00Z,63.17,14.5,-2.0,-3.0,270,7,,6.21,29.350393,,,,,,,,,,,CAVOK,,,,,,,,VFR,,,,,,,,,,,,METAR,370.0
EGSH 121350Z 28016KT 9999 SCT020 09/06 Q1016 NOSIG,EGSH,2019-01-12T13:50:00Z,52.68,1.28,9.0,6.0,280,16,,6.21,30.0,,,,,,TRUE,,,,,SCT,2000,,,,,,,VFR,,,,,,,,,,,,METAR,36.0
MUHG 121350Z 11010KT 9999 FEW020 25/17 Q1020,MUHG,2019-01-12T13:50:00Z,20.77,-76.32,25.0,17.0,110,10,,6.21,30.11811,,,,,,,,,,,FEW,2000,,,,,,,VFR,,,,,,,,,,,,METAR,106.0
EGUB 121350Z 28010KT 9999 FEW020 BKN140 10/06 Q1022 BLU TEMPO SCT022 WHT,EGUB,2019-01-12T13:50:00Z,51.62,-1.07,10.0,6.0,280,10,,6.21,30.177166,,,,,,,,,,,FEW,2000,BKN,14000,,,,,VFR,,,,,,,,,,,,METAR,63.0
EGDX 121350Z 29013KT 9999 SCT023 BKN030 09/07 Q1024 WHT,EGDX,2019-01-12T13:50:00Z,51.4,-3.43,9.0,7.0,290,13,,6.21,30.236221,,,,,,,,,,,SCT,2300,BKN,3000,,,,,MVFR,,,,,,,,,,,,METAR,50.0
EGXV 121350Z AUTO 27016G26KT 9999 FEW020/// SCT120/// 09/06 Q1015,EGXV,2019-01-12T13:50:00Z,53.87,-0.45,9.0,6.0,270,16,26,6.21,29.970472,,,TRUE,,,,,,,,FEW,2000,SCT,12000,,,,,VFR,,,,,,,,,,,,METAR,6.0
EGXC 121350Z 29015KT 9999 FEW022 BKN080 10/06 Q1017 BLU,EGXC,2019-01-12T13:50:00Z,53.1,-0.17,10.0,6.0,290,15,,6.21,30.029528,,,,,,,,,,,FEW,2200,BKN,8000,,,,,VFR,,,,,,,,,,,,METAR,7.0
EGWU 121350Z 29015KT 9999 FEW020 BKN090 BKN130 10/06 Q1020 BLU TEMPO SCT020 WHT,EGWU,2019-01-12T13:50:00Z,51.55,-0.42,10.0,6.0,290,15,,6.21,30.11811,,,,,,,,,,,FEW,2000,BKN,9000,BKN,13000,,,VFR,,,,,,,,,,,,METAR,40.0
KOQU 121350Z 33008KT 15SM SCT150 M07/M18 A3049,KOQU,2019-01-12T13:50:00Z,41.6,-71.42,-7.0,-18.0,330,8,,15.0,30.490158,,,,,,,,,,,SCT,15000,,,,,,,VFR,,,,,,,,,,,,METAR,6.0
LGBL 121350Z 27006KT 9999 FEW015 SCT025 OVC080 03/01 Q1012,LGBL,2019-01-12T13:50:00Z,39.22,22.8,3.0,1.0,270,6,,6.21,29.88189,,,,,,,,,,,FEW,1500,SCT,2500,OVC,8000,,,VFR,,,,,,,,,,,,METAR,26.0
EGCN 121350Z 27018G28KT 240V310 9999 BKN021 10/06 Q1018,EGCN,2019-01-12T13:50:00Z,53.48,-1.0,10.0,6.0,270,18,28,6.21,30.059055,,,,,,,,,,,BKN,2100,,,,,,,MVFR,,,,,,,,,,,,METAR,17.0
EGCK 121350Z 27015KT 9999 VCSH SCT012 BKN018 09/07 Q1023,EGCK,2019-01-12T13:50:00Z,53.1,4.33,9.0,7.0,270,15,,6.21,30.206694,,,,,,,,,,VCSH,SCT,1200,BKN,1800,,,,,MVFR,,,,,,,,,,,,METAR,0.0
LXGB 121350Z 08019KT 9999 FEW035 15/06 Q1027 NOSIG,LXGB,2019-01-12T13:50:00Z,36.13,-5.33,15.0,6.0,80,19,,6.21,30.324802,,,,,,TRUE,,,,,FEW,3500,,,,,,,VFR,,,,,,,,,,,,METAR,5.0
KJQF 121350Z 00000KT 10SM BKN110 03/M06 A3046,KJQF,2019-01-12T13:50:00Z,35.38,-80.72,3.0,-6.0,0,0,,10.0,30.46063,,,,,,,,,,,BKN,11000,,,,,,,VFR,,,,,,,,,,,,METAR,210.0
LOWW 121350Z 29011KT 9999 FEW045 SCT050 BKN065 05/M00 Q1015 R88/19//95 NOSIG,LOWW,2019-01-12T13:50:00Z,48.12,16.57,5.0,0.0,290,11,,6.21,29.970472,,,,,,TRUE,,,,,FEW,4500,SCT,5000,BKN,6500,,,VFR,,,,,,,,,,,,METAR,190.0
EGNR 121350Z 29013KT 260V320 9999 FEW010 SCT022 BKN049 10/05 Q1021,EGNR,2019-01-12T13:50:00Z,53.17,-2.97,10.0,5.0,290,13,,6.21,30.147638,,,,,,,,,,,FEW,1000,SCT,2200,BKN,4900,,,VFR,,,,,,,,,,,,METAR,10.0
LIMF 121350Z VRB02KT CAVOK 09/M07 Q1016,LIMF,2019-01-12T13:50:00Z,45.22,7.65,9.0,-7.0,0,2,,6.21,30.0,,,,,,,,,,,CAVOK,,,,,,,,VFR,,,,,,,,,,,,METAR,287.0
LIME 121350Z 25003KT 200V290 9999 SCT100 07/M09 Q1016 NOSIG,LIME,2019-01-12T13:50:00Z,45.67,9.68,7.0,-9.0,250,3,,6.21,30.0,,,,,,TRUE,,,,,SCT,10000,,,,,,,VFR,,,,,,,,,,,,METAR,237.0
LIMC 121350Z 22004KT 200V260 CAVOK 09/M08 Q1016 NOSIG,LIMC,2019-01-12T13:50:00Z,45.62,8.72,9.0,-8.0,220,4,,6.21,30.0,,,,,,TRUE,,,,,CAVOK,,,,,,,,VFR,,,,,,,,,,,,METAR,211.0
LIEO 121350Z 27012KT CAVOK 13/M00 Q1019,LIEO,2019-01-12T13:50:00Z,40.88,9.52,13.0,0.0,270,12,,6.21,30.088583,,,,,,,,,,,CAVOK,,,,,,,,VFR,,,,,,,,,,,,METAR,13.0
LIEE 121350Z 32014KT 9999 FEW030 12/01 Q1021,LIEE,2019-01-12T13:50:00Z,39.25,9.07,12.0,1.0,320,14,,6.21,30.147638,,,,,,,,,,,FEW,3000,,,,,,,VFR,,,,,,,,,,,,METAR,4.0
LIEA 121350Z 27006KT 240V310 9999 FEW030 12/03 Q1021,LIEA,2019-01-12T13:50:00Z,40.62,8.27,12.0,3.0,270,6,,6.21,30.147638,,,,,,,,,,,FEW,3000,,,,,,,VFR,,,,,,,,,,,,METAR,23.0
LOWK 121350Z 11004KT 020V160 9999 FEW060 BKN250 04/M07 Q1015 R10L/19//95 NOSIG,LOWK,2019-01-12T13:50:00Z,46.65,14.32,4.0,-7.0,110,4,,6.21,29.970472,,,,,,TRUE,,,,,FEW,6000,BKN,25000,,,,,VFR,,,,,,,,,,,,METAR,441.0
LOWG 121350Z VRB02KT 9999 FEW060 SCT140 BKN220 05/M04 Q1015 R17/19//95 NOSIG,LOWG,2019-01-12T13:50:00Z,47.0,15.42,5.0,-4.0,0,2,,6.21,29.970472,,,,,,TRUE,,,,,FEW,6000,SCT,14000,BKN,22000,,,VFR,,,,,,,,,,,,METAR,347.0
LOWI 121350Z VRB01KT 9999 FEW015 SCT300 02/M02 Q1019 R08/29//95 NOSIG,LOWI,2019-01-12T13:50:00Z,47.27,11.33,2.0,-2.0,0,1,,6.21,30.088583,,,,,,TRUE,,,,,FEW,1500,SCT,30000,,,,,VFR,,,,,,,,,,,,METAR,581.0
LOWS 121350Z 31005KT 260V350 9999 FEW012 SCT030 BKN045 04/M01 Q1020 R15/19//95 NOSIG,LOWS,2019-01-12T13:50:00Z,47.78,13.02,4.0,-1.0,310,5,,6.21,30.11811,,,,,,TRUE,,,,,FEW,1200,SCT,3000,BKN,4500,,,VFR,,,,,,,,,,,,METAR,430.0
LOWL 121350Z 26014KT 9999 FEW014 BKN016 03/01 Q1018 R08/29//95 NOSIG,LOWL,2019-01-12T13:50:00Z,48.22,14.18,3.0,1.0,260,14,,6.21,30.059055,,,,,,TRUE,,,,,FEW,1400,BKN,1600,,,,,MVFR,,,,,,,,,,,,METAR,313.0
LICC 121350Z 16009KT 140V200 9999 SCT040 12/01 Q1012 RMK WS RWY 08,LICC,2019-01-12T13:50:00Z,37.47,15.05,12.0,1.0,160,9,,6.21,29.88189,,,,,,,,,,,SCT,4000,,,,,,,VFR,,,,,,,,,,,,SPECI,17.0
LIBR 121350Z 34019KT 9999 SCT035 09/00 Q1013,LIBR,2019-01-12T13:50:00Z,40.65,17.95,9.0,0.0,340,19,,6.21,29.911417,,,,,,,,,,,SCT,3500,,,,,,,VFR,,,,,,,,,,,,METAR,10.0
LIBD 121350Z 34015KT 9999 FEW035 08/M01 Q1014 R07/010095 R25/010095,LIBD,2019-01-12T13:50:00Z,41.12,16.77,8.0,-1.0,340,15,,6.21,29.940945,,,,,,,,,,,FEW,3500,,,,,,,VFR,,,,,,,,,,,,METAR,44.0
LIRQ 121350Z VRB02KT CAVOK 08/M04 Q1019,LIRQ,2019-01-12T13:50:00Z,43.78,11.18,8.0,-4.0,0,2,,6.21,30.088583,,,,,,,,,,,CAVOK,,,,,,,,VFR,,,,,,,,,,,,METAR,38.0
LIRN 121350Z 02008KT 250V050 CAVOK 10/M04 Q1016 NOSIG,LIRN,2019-01-12T13:50:00Z,40.88,14.3,10.0,-4.0,20,8,,6.21,30.0,,,,,,TRUE,,,,,CAVOK,,,,,,,,VFR,,,,,,,,,,,,METAR,72.0
LIRF 121350Z 36009KT 330V030 CAVOK 11/M06 Q1018 NOSIG,LIRF,2019-01-12T13:50:00Z,41.78,12.22,11.0,-6.0,360,9,,6.21,30.059055,,,,,,TRUE,,,,,CAVOK,,,,,,,,VFR,,,,,,,,,,,,METAR,3.0
LIRA 121350Z 36007KT 330V030 CAVOK 09/M04 Q1017,LIRA,2019-01-12T13:50:00Z,41.8,12.58,9.0,-4.0,360,7,,6.21,30.029528,,,,,,,,,,,CAVOK,,,,,,,,VFR,,,,,,,,,,,,METAR,101.0
LIML 121350Z 13003KT 100V180 CAVOK 07/M03 Q1016 NOSIG,LIML,2019-01-12T13:50:00Z,45.47,9.27,7.0,-3.0,130,3,,6.21,30.0,,,,,,TRUE,,,,,CAVOK,,,,,,,,VFR,,,,,,,,,,,,METAR,103.0
LIMJ 121350Z 16003KT 130V210 CAVOK 12/M00 Q1018,LIMJ,2019-01-12T13:50:00Z,44.42,8.83,12.0,0.0,160,3,,6.21,30.059055,,,,,,,,,,,CAVOK,,,,,,,,VFR,,,,,,,,,,,,METAR,3.0
LICJ 121350Z 33007KT 290V360 9999 SCT025 10/03 Q1017,LICJ,2019-01-12T13:50:00Z,38.17,13.08,10.0,3.0,330,7,,6.21,30.029528,,,,,,,,,,,SCT,2500,,,,,,,VFR,,,,,,,,,,,,METAR,34.0
LIPE 121350Z VRB01KT CAVOK 08/M06 Q1018,LIPE,2019-01-12T13:50:00Z,44.52,11.3,8.0,-6.0,0,1,,6.21,30.059055,,,,,,,,,,,CAVOK,,,,,,,,VFR,,,,,,,,,,,,METAR,42.0
LIPB 121350Z VRB03KT 9999 SCT110 04/M06 Q1017,LIPB,2019-01-12T13:50:00Z,46.47,11.32,4.0,-6.0,0,3,,6.21,30.029528,,,,,,,,,,,SCT,11000,,,,,,,VFR,,,,,,,,,,,,METAR,241.0
LIPH 121350Z 35003KT 310V030 CAVOK 06/M02 Q1017,LIPH,2019-01-12T13:50:00Z,45.63,12.17,6.0,-2.0,350,3,,6.21,30.029528,,,,,,,,,,,CAVOK,,,,,,,,VFR,,,,,,,,,,,,METAR,23.0
LIPQ 121350Z VRB01KT 9999 SCT100 07/M01 Q1017,LIPQ,2019-01-12T13:50:00Z,45.82,13.47,7.0,-1.0,0,1,,6.21,30.029528,,,,,,,,,,,SCT,10000,,,,,,,VFR,,,,,,,,,,,,METAR,12.0
LIPR 121350Z 08006KT CAVOK 08/M03 Q1018,LIPR,2019-01-12T13:50:00Z,44.02,12.62,8.0,-3.0,80,6,,6.21,30.059055,,,,,,,,,,,CAVOK,,,,,,,,VFR,,,,,,,,,,,,METAR,13.0
LIPX 121350Z 12004KT 080V140 7000 SCT060 SCT070 03/M01 Q1018,LIPX,2019-01-12T13:50:00Z,45.38,10.87,3.0,-1.0,120,4,,4.35,30.059055,,,,,,,,,,,SCT,6000,SCT,7000,,,,,MVFR,,,,,,,,,,,,METAR,68.0
LIPZ 121350Z 08003KT 050V120 CAVOK 05/M01 Q1017 NOSIG,LIPZ,2019-01-12T13:50:00Z,45.5,12.35,5.0,-1.0,80,3,,6.21,30.029528,,,,,,TRUE,,,,,CAVOK,,,,,,,,VFR,,,,,,,,,,,,METAR,6.0
LIMW 121350Z AUTO 14003KT 070V190 9999 NCD 08/M05 Q1015,LIMW,2019-01-12T13:50:00Z,45.73,7.37,8.0,-5.0,140,3,,6.21,29.970472,,,TRUE,,,,,,,,CLR,,,,,,,,VFR,,,,,,,,,,,,METAR,546.0
LOXZ 121350Z 27023KT 25KM FEW035SC BKN050SC 05/M04 Q1014,LOXZ,2019-01-12T13:50:00Z,47.2,14.75,5.0,-4.0,270,23,,15.53,29.940945,,,,,,,,,,,,,,,,,,,,,,,,,,,,,,,METAR,682.0
EGPU 121350Z 28023KT 2000 RADZ BKN004 BKN011 10/10 Q1016,EGPU,2019-01-12T13:50:00Z,56.5,-6.87,10.0,10.0,280,23,,1.24,30.0,,,,,,,,,,RA DZ,BKN,400,BKN,1100,,,,,LIFR,,,,,,,,,,,,METAR,12.0
LGAD 121350Z 01010KT 9999 FEW015 SCT020 BKN080 09/04 Q1004,LGAD,2019-01-12T13:50:00Z,37.92,21.27,9.0,4.0,10,10,,6.21,29.64567,,,,,,,,,,,FEW,1500,SCT,2000,BKN,8000,,,VFR,,,,,,,,,,,,METAR,12.0
LGKL 121350Z 00000KT 9999 BKN030 BKN080 09/07 Q1002,LGKL,2019-01-12T13:50:00Z,37.07,22.02,9.0,7.0,0,0,,6.21,29.586615,,,,,,,,,,,BKN,3000,BKN,8000,,,,,MVFR,,,,,,,,,,,,METAR,8.0
LSGS 121350Z VRB02KT 9999 SCT030 03/M06 Q1026,LSGS,2019-01-12T13:50:00Z,46.22,7.32,3.0,-6.0,0,2,,6.21,30.295275,,,,,,,,,,,SCT,3000,,,,,,,VFR,,,,,,,,,,,,METAR,481.0
LSGC 121350Z AUTO 26006KT 230V310 2400 -SN BR BKN/// M01/M02 Q1023,LSGC,2019-01-12T13:50:00Z,47.08,6.8,-1.0,-2.0,260,6,,1.49,30.206694,,,TRUE,,,,,,,-SN BR,,,,,,,,,,,,,,,,,,,,,METAR,1027.0
LGKO 121350Z 17015KT 9999 FEW018TCU SCT025 15/08 Q1006,LGKO,2019-01-12T13:50:00Z,36.8,27.08,15.0,8.0,170,15,,6.21,29.704725,,,,,,,,,,,FEW,1800,SCT,2500,,,,,VFR,,,,,,,,,,,,METAR,125.0
EGYD 121350Z 28020KT 9999 SCT028 OVC090 09/06 Q1017 BLU BECMG SCT020 WHT,EGYD,2019-01-12T13:50:00Z,53.03,-0.5,9.0,6.0,280,20,,6.21,30.029528,,,,,,,,,,,SCT,2800,OVC,9000,,,,,VFR,,,,,,,,,,,,METAR,67.0
MUCF 121350Z 08006KT 040V140 9999 FEW030 23/18 Q1021,MUCF,2019-01-12T13:50:00Z,22.13,-80.4,23.0,18.0,80,6,,6.21,30.147638,,,,,,,,,,,FEW,3000,,,,,,,VFR,,,,,,,,,,,,METAR,39.0
LGLM 121350Z 05014G24KT 9999 SCT010 BKN020 06/04 Q1010,LGLM,2019-01-12T13:50:00Z,39.92,25.23,6.0,4.0,50,14,24,6.21,29.822834,,,,,,,,,,,SCT,1000,BKN,2000,,,,,MVFR,,,,,,,,,,,,METAR,5.0
LGSA 121350Z 12007KT 9999 FEW020 SCT100 16/08 Q1002,LGSA,2019-01-12T13:50:00Z,35.53,24.13,16.0,8.0,120,7,,6.21,29.586615,,,,,,,,,,,FEW,2000,SCT,10000,,,,,VFR,,,,,,,,,,,,METAR,135.0
EBLG 121350Z 24016KT 2500 DZRA BR BKN005 05/05 Q1017 NOSIG,EBLG,2019-01-12T13:50:00Z,50.63,5.45,5.0,5.0,240,16,,1.55,30.029528,,,,,,TRUE,,,,DZ RA BR,BKN,500,,,,,,,IFR,,,,,,,,,,,,METAR,178.0
EBCI 121350Z 25013KT 2600 -DZRA FEW003 BKN005 06/05 Q1019 TEMPO BKN003,EBCI,2019-01-12T13:50:00Z,50.47,4.45,6.0,5.0,250,13,,1.62,30.088583,,,,,,,,,,-DZ -RA,FEW,300,BKN,500,,,,,IFR,,,,,,,,,,,,METAR,192.0
EBBR 121350Z 25013KT 4000 -RADZ BKN006 BKN012 07/06 Q1018 TEMPO 6000 BKN012,EBBR,2019-01-12T13:50:00Z,50.9,4.5,7.0,6.0,250,13,,2.49,30.059055,,,,,,,,,,-RA -DZ,BKN,600,BKN,1200,,,,,IFR,,,,,,,,,,,,METAR,58.0
EBAW 121350Z 26011KT 9000 -DZ FEW007 BKN009 08/07 Q1017 BECMG BKN012,EBAW,2019-01-12T13:50:00Z,51.2,4.47,8.0,7.0,260,11,,5.59,30.029528,,,,,,,,,,-DZ,FEW,700,BKN,900,,,,,IFR,,,,,,,,,,,,METAR,14.0
EGNS 121350Z 27017G27KT 230V300 9999 BKN010 OVC016 09/08 Q1020 TEMPO 7000,EGNS,2019-01-12T13:50:00Z,54.08,-4.63,9.0,8.0,270,17,27,6.21,30.11811,,,,,,,,,,,BKN,1000,OVC,1600,,,,,MVFR,,,,,,,,,,,,METAR,17.0
LTAG 121350Z 03009KT CAVOK 13/04 Q1013 NOSIG,LTAG,2019-01-12T13:50:00Z,37.0,35.42,13.0,4.0,30,9,,6.21,29.911417,,,,,,TRUE,,,,,CAVOK,,,,,,,,VFR,,,,,,,,,,,,METAR,66.0
EDDV 121350Z 25015KT 7000 -RADZ BKN008 OVC012 06/05 Q1009 TEMPO 27015G25KT RADZ,EDDV,2019-01-12T13:50:00Z,52.47,9.68,6.0,5.0,250,15,,4.35,29.793306,,,,,,,,,,-RA -DZ,BKN,800,OVC,1200,,,,,IFR,,,,,,,,,,,,METAR,54.0
EBOS 121350Z 26015KT 9999 -RA FEW010 BKN015 08/06 Q1019 TEMPO 26018G28KT 4500 -RADZ SCT010 BKN014,EBOS,2019-01-12T13:50:00Z,51.2,2.87,8.0,6.0,260,15,,6.21,30.088583,,,,,,,,,,-RA,FEW,1000,BKN,1500,,,,,MVFR,,,,,,,,,,,,METAR,5.0
ELLX 121350Z 24012KT 4000 -DZRA BKN008 04/03 Q1019 NOSIG,ELLX,2019-01-12T13:50:00Z,49.63,6.2,4.0,3.0,240,12,,2.49,30.088583,,,,,,TRUE,,,,-DZ -RA,BKN,800,,,,,,,IFR,,,,,,,,,,,,METAR,379.0
EDDN 121350Z 25010KT 9999 BKN012 BKN040 02/01 Q1018 R28/29//95 TEMPO BKN020,EDDN,2019-01-12T13:50:00Z,49.5,11.08,2.0,1.0,250,10,,6.21,30.059055,,,,,,,,,,,BKN,1200,BKN,4000,,,,,MVFR,,,,,,,,,,,,METAR,312.0
LGTS 121350Z 31014KT 9999 FEW018 05/M03 Q1012 NOSIG,LGTS,2019-01-12T13:50:00Z,40.52,22.97,5.0,-3.0,310,14,,6.21,29.88189,,,,,,TRUE,,,,,FEW,1800,,,,,,,VFR,,,,,,,,,,,,METAR,7.0
LGSM 121350Z 02015KT 9000 -TSRA FEW014CB SCT025 12/11 Q1005,LGSM,2019-01-12T13:50:00Z,37.68,26.92,12.0,11.0,20,15,,5.59,29.675198,,,,,,,,,,-TSRA,FEW,1400,SCT,2500,,,,,VFR,,,,,,,,,,,,METAR,6.0
EGQM 121350Z AUTO 26021KT 9999 OVC100/// 10/04 Q1012,EGQM,2019-01-12T13:50:00Z,55.42,-1.6,10.0,4.0,260,21,,6.21,29.88189,,,TRUE,,,,,,,,OVC,10000,,,,,,,VFR,,,,,,,,,,,,METAR,23.0
MUCU 121350Z 02008KT 350V060 9000 FEW020 25/15 Q1019,MUCU,2019-01-12T13:50:00Z,19.97,-75.83,25.0,15.0,20,8,,5.59,30.088583,,,,,,,,,,,FEW,2000,,,,,,,VFR,,,,,,,,,,,,METAR,76.0
EKEB 121350Z AUTO 27019KT 9999 BKN016/// 07/05 Q1002,EKEB,2019-01-12T13:50:00Z,55.52,8.55,7.0,5.0,270,19,,6.21,29.586615,,,TRUE,,,,,,,,BKN,1600,,,,,,,MVFR,,,,,,,,,,,,METAR,29.0
EDDT 121350Z 25016KT 9999 -RA BKN017 06/03 Q1008 TEMPO 25015G25KT,EDDT,2019-01-12T13:50:00Z,52.57,13.32,6.0,3.0,250,16,,6.21,29.763779,,,,,,,,,,-RA,BKN,1700,,,,,,,MVFR,,,,,,,,,,,,METAR,37.0
EGJA 121350Z 28018KT 9999 SCT008 10/09 Q1026,EGJA,2019-01-12T13:50:00Z,49.72,-2.2,10.0,9.0,280,18,,6.21,30.295275,,,,,,,,,,,SCT,800,,,,,,,VFR,,,,,,,,,,,,METAR,71.0
OODQ 121350Z AUTO 06006KT 9999 BKN034 23/15 Q1015 NOSIG,OODQ,2019-01-12T13:50:00Z,19.52,57.65,23.0,15.0,60,6,,6.21,29.970472,,,TRUE,,,TRUE,,,,,BKN,3400,,,,,,,VFR,,,,,,,,,,,,METAR,0.0
OOSH 121350Z AUTO 03005KT //// 23/14 Q1016,OOSH,2019-01-12T13:50:00Z,24.55,56.62,23.0,14.0,30,5,,,30.0,,,TRUE,,,,,,,,,,,,,,,,,,,,,,,,,,,,METAR,35.0
OOSA 121350Z 01013KT CAVOK 29/04 Q1015 NOSIG,OOSA,2019-01-12T13:50:00Z,17.02,54.07,29.0,4.0,10,13,,6.21,29.970472,,,,,,TRUE,,,,,CAVOK,,,,,,,,VFR,,,,,,,,,,,,METAR,20.0
KBCT 121350Z 12010G19KT 10SM SCT034 23/16 A3021,KBCT,2019-01-12T13:50:00Z,26.38,-80.1,23.0,16.0,120,10,19,10.0,30.209646,,,,,,,,,,,SCT,3400,,,,,,,VFR,,,,,,,,,,,,METAR,4.0
LTAY 121350Z 30003KT 270V350 9999 SCT030 BKN100 08/02 Q1008,LTAY,2019-01-12T13:50:00Z,37.77,29.68,8.0,2.0,300,3,,6.21,29.763779,,,,,,,,,,,SCT,3000,BKN,10000,,,,,VFR,,,,,,,,,,,,METAR,849.0
KOLV 121350Z 14010KT 7SM RA BKN038 OVC080 08/00 A3004,KOLV,2019-01-12T13:50:00Z,34.98,-89.78,8.0,0.0,140,10,,7.0,30.041338,,,,,,,,,,RA,BKN,3800,OVC,8000,,,,,VFR,,,,,,,,,,,,METAR,122.0
KVES 121350Z AUTO 09007KT 3/4SM -SN VV005 M03/M03 A3032 RMK AO2,KVES,2019-01-12T13:50:00Z,40.2,-84.53,-3.0,-3.0,90,7,,0.75,30.318897,,,TRUE,TRUE,,,,,,-SN,OVX,0,,,,,,,LIFR,,,,,,,,,,,500,METAR,307.0
KACJ 121350Z AUTO 09006KT 10SM SCT038 SCT045 BKN050 08/00 A3030 RMK AO2,KACJ,2019-01-12T13:50:00Z,32.12,-84.18,8.0,0.0,90,6,,10.0,30.301182,,,TRUE,TRUE,,,,,,,SCT,3800,SCT,4500,BKN,5000,,,VFR,,,,,,,,,,,,METAR,143.0
KBKD 121350Z AUTO 30010G16KT 10SM CLR 05/01 A3006 RMK AO2 T00460010,KBKD,2019-01-12T13:50:00Z,32.72,-98.88,4.6,1.0,300,10,16,10.0,30.059055,,,TRUE,TRUE,,,,,,,CLR,,,,,,,,VFR,,,,,,,,,,,,SPECI,392.0
KAQO 121350Z AUTO 26004KT 10SM CLR 07/06 A3012 RMK AO2,KAQO,2019-01-12T13:50:00Z,30.78,-98.67,7.0,6.0,260,4,,10.0,30.121063,,,TRUE,TRUE,,,,,,,CLR,,,,,,,,VFR,,,,,,,,,,,,SPECI,336.0
KCPU 121350Z AUTO 20003KT 10SM CLR 04/02 A2995 RMK AO2 T00440016,KCPU,2019-01-12T13:50:00Z,38.15,-120.65,4.4,1.6,200,3,,10.0,29.949802,,,TRUE,TRUE,,,,,,,CLR,,,,,,,,VFR,,,,,,,,,,,,METAR,404.0
KCJR 121350Z AUTO 00000KT 10SM OVC090 M01/M05 A3055 RMK AO2 T10101050,KCJR,2019-01-12T13:50:00Z,38.53,-77.87,-1.0,-5.0,0,0,,10.0,30.549213,,,TRUE,TRUE,,,,,,,OVC,9000,,,,,,,VFR,,,,,,,,,,,,METAR,97.0
KEMM 121350Z AUTO 33007KT 10SM CLR M15/M17 A3019 RMK AO2,KEMM,2019-01-12T13:50:00Z,41.82,-110.55,-15.0,-17.0,330,7,,10.0,30.188976,,,TRUE,TRUE,,,,,,,CLR,,,,,,,,VFR,,,,,,,,,,,,SPECI,2220.0
KNOW 121350Z AUTO 22005KT 10SM CLR 06/05 A2995 RMK AO2 T00550048,KNOW,2019-01-12T13:50:00Z,48.13,-123.4,5.5,4.8,220,5,,10.0,29.949802,,,TRUE,TRUE,,,,,,,CLR,,,,,,,,VFR,,,,,,,,,,,,SPECI,4.0
KIYA 121350Z AUTO 14005KT 10SM -RA SCT004 SCT037 OVC060 15/15 A3000 RMK AO2 T01500150,KIYA,2019-01-12T13:50:00Z,29.98,-92.08,15.0,15.0,140,5,,10.0,30.0,,,TRUE,TRUE,,,,,,-RA,SCT,400,SCT,3700,OVC,6000,,,VFR,,,,,,,,,,,,METAR,5.0
KI16 121350Z AUTO 10SM BKN044 OVC050 01/M02 A3035 RMK AO2 T00101022,KI16,2019-01-12T13:50:00Z,37.6,-81.57,1.0,-2.2,,,,10.0,30.351377,,,TRUE,TRUE,,,,,,,BKN,4400,OVC,5000,,,,,VFR,,,,,,,,,,,,METAR,544.0
KHBV 121350Z AUTO 00000KT 4SM BR CLR 13/12 A3007 RMK AO2 T01300117,KHBV,2019-01-12T13:50:00Z,27.35,-98.73,13.0,11.7,0,0,,4.0,30.070866,,,TRUE,TRUE,,,,,,BR,CLR,,,,,,,,MVFR,,,,,,,,,,,,SPECI,202.0
EGBJ 121350Z 29008KT 9999 SCT027 10/06 Q1022,EGBJ,2019-01-12T13:50:00Z,51.9,-2.17,10.0,6.0,290,8,,6.21,30.177166,,,,,,,,,,,SCT,2700,,,,,,,VFR,,,,,,,,,,,,METAR,29.0
LTFM 121350Z 05014KT 7000 -RA SCT010 BKN020 03/01 Q1013 RMK RWY17L 05013KT RWY34L 04012KT RWY16R 04012KT,LTFM,2019-01-12T13:50:00Z,41.27,28.75,3.0,1.0,50,14,,4.35,29.911417,,,,,,,,,,-RA,SCT,1000,BKN,2000,,,,,MVFR,,,,,,,,,,,,METAR,99.0
KFTG 121350Z 31003KT 2SM -SN OVC005 00/00 A3020,KFTG,2019-01-12T13:50:00Z,39.78,-104.55,0.0,0.0,310,3,,2.0,30.200787,,,,,,,,,,-SN,OVC,500,,,,,,,IFR,,,,,,,,,,,,METAR,1675.0
EGDR 121350Z AUTO 30015KT 9999 // BKN006/// BKN018/// 10/09 Q1028,EGDR,2019-01-12T13:50:00Z,50.08,-5.25,10.0,9.0,300,15,,6.21,30.35433,,,TRUE,,,,,,,,BKN,600,BKN,1800,,,,,IFR,,,,,,,,,,,,METAR,82.0
EGDY 121350Z AUTO 29019KT 9999 FEW018/// 10/07 Q1024,EGDY,2019-01-12T13:50:00Z,51.0,-2.62,10.0,7.0,290,19,,6.21,30.236221,,,TRUE,,,,,,,,FEW,1800,,,,,,,VFR,,,,,,,,,,,,METAR,23.0
EGOS 121350Z AUTO 28012KT 9999 SCT030/// SCT047/// BKN080/// 10/06 Q1021,EGOS,2019-01-12T13:50:00Z,52.8,-2.67,10.0,6.0,280,12,,6.21,30.147638,,,TRUE,,,,,,,,SCT,3000,SCT,4700,BKN,8000,,,VFR,,,,,,,,,,,,METAR,76.0
EGOV 121350Z AUTO 27016KT 9999 BKN015/// 09/07 Q1023,EGOV,2019-01-12T13:50:00Z,53.25,-4.53,9.0,7.0,270,16,,6.21,30.206694,,,TRUE,,,,,,,,BKN,1500,,,,,,,MVFR,,,,,,,,,,,,METAR,11.0
EGQK 121350Z AUTO 24016KT 9999 BKN027/// BKN032/// 09/05 Q1009,EGQK,2019-01-12T13:50:00Z,57.65,-3.57,9.0,5.0,240,16,,6.21,29.793306,,,TRUE,,,,,,,,BKN,2700,BKN,3200,,,,,MVFR,,,,,,,,,,,,METAR,7.0
EGVP 121350Z AUTO 30008KT 9999 // FEW015/// BKN150/// 10/07 Q1022,EGVP,2019-01-12T13:50:00Z,51.13,-1.57,10.0,7.0,300,8,,6.21,30.177166,,,TRUE,,,,,,,,FEW,1500,BKN,15000,,,,,VFR,,,,,,,,,,,,METAR,91.0
EGVO 121350Z AUTO 29009KT 9999 BKN014/// BKN034/// 10/07 Q1021,EGVO,2019-01-12T13:50:00Z,51.23,-0.95,10.0,7.0,290,9,,6.21,30.147638,,,TRUE,,,,,,,,BKN,1400,BKN,3400,,,,,MVFR,,,,,,,,,,,,METAR,123.0
EGUW 121350Z AUTO 29015KT 9999 FEW019/// SCT100/// BKN150/// 09/06 Q1018,EGUW,2019-01-12T13:50:00Z,52.12,0.97,9.0,6.0,290,15,,6.21,30.059055,,,TRUE,,,,,,,,FEW,1900,SCT,10000,BKN,15000,,,VFR,,,,,,,,,,,,METAR,87.0
EGOP 121350Z AUTO 29013KT 9999 // FEW025/// BKN030/// 10/07 Q1025,EGOP,2019-01-12T13:50:00Z,51.72,-4.32,10.0,7.0,290,13,,6.21,30.265747,,,TRUE,,,,,,,,FEW,2500,BKN,3000,,,,,MVFR,,,,,,,,,,,,METAR,6.0
EGOM 121350Z AUTO 26022KT 7000 BR SCT005/// BKN080/// 06/06 Q1013,EGOM,2019-01-12T13:50:00Z,55.05,-2.55,6.0,6.0,260,22,,4.35,29.911417,,,TRUE,,,,,,,BR,SCT,500,BKN,8000,,,,,MVFR,,,,,,,,,,,,METAR,325.0
EGXE 121350Z AUTO 27014KT 9999 FEW030/// BKN070/// 10/06 Q1015,EGXE,2019-01-12T13:50:00Z,54.28,-1.52,10.0,6.0,270,14,,6.21,29.970472,,,TRUE,,,,,,,,FEW,3000,BKN,7000,,,,,VFR,,,,,,,,,,,,METAR,40.0
EGXT 121350Z AUTO 28019KT 9999 FEW018/// SCT028/// BKN080/// 09/06 Q1018,EGXT,2019-01-12T13:50:00Z,52.62,-0.47,9.0,6.0,280,19,,6.21,30.059055,,,TRUE,,,,,,,,FEW,1800,SCT,2800,BKN,8000,,,VFR,,,,,,,,,,,,METAR,84.0
EGXU 121350Z AUTO 27013G24KT 9999 // OVC070/// 09/06 Q1016,EGXU,2019-01-12T13:50:00Z,54.05,-1.25,9.0,6.0,270,13,24,6.21,30.0,,,TRUE,,,,,,,,OVC,7000,,,,,,,VFR,,,,,,,,,,,,METAR,16.0
EGYM 121350Z AUTO 27016KT 9999 BKN080/// BKN170/// 09/06 Q1017,EGYM,2019-01-12T13:50:00Z,52.63,0.57,9.0,6.0,270,16,,6.21,30.029528,,,TRUE,,,,,,,,BKN,8000,BKN,17000,,,,,VFR,,,,,,,,,,,,METAR,23.0
EGXZ 121350Z AUTO 28012KT 9999 BKN070/// 10/06 Q1016,EGXZ,2019-01-12T13:50:00Z,54.2,-1.38,10.0,6.0,280,12,,6.21,30.0,,,TRUE,,,,,,,,BKN,7000,,,,,,,VFR,,,,,,,,,,,,METAR,28.0
EGXW 121350Z AUTO 28018KT 9999 FEW024/// BKN080/// 09/05 Q1017,EGXW,2019-01-12T13:50:00Z,53.18,-0.52,9.0,5.0,280,18,,6.21,30.029528,,,TRUE,,,,,,,,FEW,2400,BKN,8000,,,,,VFR,,,,,,,,,,,,METAR,70.0
NSTU 121350Z VRB04KT 10SM FEW018 SCT140 26/25 A2968 RMK SLP051 T026102,NSTU,2019-01-12T13:50:00Z,-14.33,-170.72,26.1,25.0,0,4,,10.0,29.681103,1005.1,,,,,,,,,,FEW,1800,SCT,14000,,,,,VFR,,,,,,,,,,,,METAR,3.0
EEEI 121350Z 27007KT 9999 SCT022 00/M03 Q0994 R24/190095 NOSIG,EEEI,2019-01-12T13:50:00Z,59.27,24.2,0.0,-3.0,270,7,,6.21,29.350393,,,,,,TRUE,,,,,SCT,2200,,,,,,,VFR,,,,,,,,,,,,METAR,20.0
EGYP 121350Z 35010KT 9999 FEW018CB BKN080 OVC250 10/05 Q0992 BLU TEMPO 7000 SHRA SCT020CB WHT,EGYP,2019-01-12T13:50:00Z,-51.82,-58.45,10.0,5.0,350,10,,6.21,29.291338,,,,,,,,,,,FEW,1800,BKN,8000,OVC,25000,,,VFR,,,,,,,,,,,,METAR,74.0
ESNQ 121350Z AUTO 32011KT 9999 NCD M05/M10 Q0985,ESNQ,2019-01-12T13:50:00Z,67.82,20.32,-5.0,-10.0,320,11,,6.21,29.084646,,,TRUE,,,,,,,,CLR,,,,,,,,VFR,,,,,,,,,,,,METAR,452.0
LTAF 121350Z 04012KT CAVOK 13/02 Q1013 BECMG TL1500 4000 BR,LTAF,2019-01-12T13:50:00Z,36.97,35.28,13.0,2.0,40,12,,6.21,29.911417,,,,,,,,,,,CAVOK,,,,,,,,VFR,,,,,,,,,,,,METAR,20.0
LTAC 121350Z 34003KT 9999 SCT040 BKN100 02/M00 Q1010 NOSIG RMK RWY21L 35006KT RWY03L 35003KT RWY21R 01005KT,LTAC,2019-01-12T13:50:00Z,40.12,32.97,2.0,0.0,340,3,,6.21,29.822834,,,,,,TRUE,,,,,SCT,4000,BKN,10000,,,,,VFR,,,,,,,,,,,,METAR,949.0
LTAJ 121350Z 07010KT 030V090 CAVOK 06/M01 Q1015 NOSIG RMK RWY10 08011KT,LTAJ,2019-01-12T13:50:00Z,36.95,37.48,6.0,-1.0,70,10,,6.21,29.970472,,,,,,TRUE,,,,,CAVOK,,,,,,,,VFR,,,,,,,,,,,,SPECI,855.0
LTAI 121350Z 03004KT 9999 -SHRA FEW015CB BKN025 10/09 Q1011 NOSIG RMK RWY18C 36004KT 320V050 RWY36R 36004KT 330V040 RWY18L VRB02KT,LTAI,2019-01-12T13:50:00Z,36.9,30.8,10.0,9.0,30,4,,6.21,29.852362,,,,,,TRUE,,,,-SHRA,FEW,1500,BKN,2500,,,,,MVFR,,,,,,,,,,,,METAR,54.0
LTBA 121350Z 02014KT 360V070 6000 SCT010 OVC026 04/02 Q1012 RERA NOSIG RMK RWY17L 03015KT 360V060 RWY05 02015KT RWY23 05014KT,LTBA,2019-01-12T13:50:00Z,40.97,28.82,4.0,2.0,20,14,,3.73,29.88189,,,,,,TRUE,,,,,SCT,1000,OVC,2600,,,,,MVFR,,,,,,,,,,,,METAR,37.0
LTBR 121350Z VRB02KT 9999 -SHRA BKN030 BKN100 08/08 Q1009 NOSIG RMK RWY07 16003KT,LTBR,2019-01-12T13:50:00Z,40.25,29.57,8.0,8.0,0,2,,6.21,29.793306,,,,,,TRUE,,,,-SHRA,BKN,3000,BKN,10000,,,,,MVFR,,,,,,,,,,,,METAR,232.0
LTCG 121350Z 10005KT 9999 FEW009 SCT100 10/08 Q1013 NOSIG RMK RWY29 10005KT,LTCG,2019-01-12T13:50:00Z,41.0,39.8,10.0,8.0,100,5,,6.21,29.911417,,,,,,TRUE,,,,,FEW,900,SCT,10000,,,,,VFR,,0.5,,,,,,,,,,SPECI,30.0
LTBS 121350Z 18010KT 140V200 9999 SCT030 BKN090 15/08 Q1008 NOSIG RMK RWY19 15007KT,LTBS,2019-01-12T13:50:00Z,36.7,28.77,15.0,8.0,180,10,,6.21,29.763779,,,,,,TRUE,,,,,SCT,3000,BKN,9000,,,,,VFR,,,,,,,,,,,,METAR,2.0
LTFC 121350Z VRB05KT 9999 SCT035 BKN080 08/02 Q1008 RMK RWY23 10005KT 070V140,LTFC,2019-01-12T13:50:00Z,37.87,30.38,8.0,2.0,0,5,,6.21,29.763779,,,,,,,,,,,SCT,3500,BKN,8000,,,,,VFR,,0.5,,,,,,,,,,METAR,864.0
LTCS 121350Z 01011KT CAVOK 04/M01 Q1018 RMK RWY22 03010KT,LTCS,2019-01-12T13:50:00Z,37.45,38.9,4.0,-1.0,10,11,,6.21,30.059055,,,,,,,,,,,CAVOK,,,,,,,,VFR,,,,,,,,,,,,METAR,825.0
LTFE 121350Z 15010KT 9999 SCT035 BKN100 15/06 Q1007 TEMPO TL1500 -TSRA,LTFE,2019-01-12T13:50:00Z,37.25,27.67,15.0,6.0,150,10,,6.21,29.734253,,,,,,,,,,,SCT,3500,BKN,10000,,,,,VFR,,,,,,,,,,,,SPECI,6.0
EGPI 121350Z AUTO 29027KT 6000 OVC009/// 10/09 Q1017 RERA,EGPI,2019-01-12T13:50:00Z,55.68,-6.25,10.0,9.0,290,27,,3.73,30.029528,,,TRUE,,,,,,,,OVC,900,,,,,,,IFR,,,,,,,,,,,,METAR,18.0
EGXS 121350Z AUTO 27018KT 9999 // OVC090/// 09/06 Q1015,EGXS,2019-01-12T13:50:00Z,53.48,0.15,9.0,6.0,270,18,,6.21,29.970472,,,TRUE,,,,,,,,OVC,9000,,,,,,,VFR,,,,,,,,,,,,METAR,3.0
EGXP 121350Z AUTO 28016KT 9999 // BKN022/// BKN080/// 09/06 Q1017,EGXP,2019-01-12T13:50:00Z,53.3,-0.55,9.0,6.0,280,16,,6.21,30.029528,,,TRUE,,,,,,,,BKN,2200,BKN,8000,,,,,MVFR,,,,,,,,,,,,METAR,61.0
ENHE 121350Z 05007KT 9999 VCSH FEW015 BKN030 01/M02 Q0997 W///S6,ENHE,2019-01-12T13:50:00Z,65.33,2.33,1.0,-2.0,50,7,,6.21,29.438976,,,,,,,,,,VCSH,FEW,1500,BKN,3000,,,,,MVFR,,,,,,,,,,,,METAR,1.0
ENSL 121350Z 30038KT 9999 VCSH BKN020TCU 08/05 Q1001 W06/S5,ENSL,2019-01-12T13:50:00Z,58.37,1.9,8.0,5.0,300,38,,6.21,29.557087,,,,,,,,,,VCSH,BKN,2000,,,,,,,MVFR,,,,,,,,,,,,METAR,50.0
ENFB 121350Z AUTO 32026KT 9999NDV BKN021/// 08/04 Q0996 W///S6,ENFB,2019-01-12T13:50:00Z,61.2,1.83,8.0,4.0,320,26,,,29.409449,,,TRUE,,,,,,,,BKN,2100,,,,,,,,,,,,,,,,,,,METAR,10.0
ENSF 121350Z AUTO 32030KT //// BKN018/// 08/04 Q0996 W///S6,ENSF,2019-01-12T13:50:00Z,61.25,1.85,8.0,4.0,320,30,,,29.409449,,,TRUE,,,,,,,,BKN,1800,,,,,,,,,,,,,,,,,,,METAR,10.0
ENUN 121350Z AUTO 35011KT 320V020 9999NDV -SHSN FEW017/// OVC051/// M01/M04 Q0996 W05/S/,ENUN,2019-01-12T13:50:00Z,,,-1.0,-4.0,350,11,,,29.409449,,,TRUE,,,,,,,-SHSN,FEW,1700,OVC,5100,,,,,,,,,,,,,,,,,METAR,
EEKE 121350Z 27005KT 240V310 9999 SCT019 01/M01 Q0996 R17/290095,EEKE,2019-01-12T13:50:00Z,58.23,22.52,1.0,-1.0,270,5,,6.21,29.409449,,,,,,,,,,,SCT,1900,,,,,,,VFR,,,,,,,,,,,,METAR,4.0
ENMS 121350Z 15003KT 9999 SCT030 M03/M04 Q0995 RMK WIND 412FT VRB02KT,ENMS,2019-01-12T13:50:00Z,65.78,13.22,-3.0,-4.0,150,3,,6.21,29.379921,,,,,,,,,,,SCT,3000,,,,,,,VFR,,,,,,,,,,,,METAR,70.0
EEPU 121350Z 26008KT CAVOK 00/M02 Q0994,EEPU,2019-01-12T13:50:00Z,58.42,24.47,0.0,-2.0,260,8,,6.21,29.350393,,,,,,,,,,,CAVOK,,,,,,,,VFR,,,,,,,,,,,,METAR,14.0
EETU 121350Z AUTO 27010KT 9999 FEW024/// M02/M03 Q0993,EETU,2019-01-12T13:50:00Z,58.32,26.68,-2.0,-3.0,270,10,,6.21,29.320866,,,TRUE,,,,,,,,FEW,2400,,,,,,,VFR,,,,,,,,,,,,METAR,67.0
LGMK 121350Z 01016KT 9999 FEW010 SCT018TCU 11/06 Q1005,LGMK,2019-01-12T13:50:00Z,37.43,25.35,11.0,6.0,10,16,,6.21,29.675198,,,,,,,,,,,FEW,1000,SCT,1800,,,,,VFR,,,,,,,,,,,,METAR,123.0
LGKP 121350Z 15015KT 9999 SCT030 16/10 Q1006,LGKP,2019-01-12T13:50:00Z,35.42,27.15,16.0,10.0,150,15,,6.21,29.704725,,,,,,,,,,,SCT,3000,,,,,,,VFR,,,,,,,,,,,,METAR,20.0
LGKF 121350Z 34010KT 9999 FEW012 BKN020 BKN070 09/05 Q1006,LGKF,2019-01-12T13:50:00Z,38.12,20.5,9.0,5.0,340,10,,6.21,29.704725,,,,,,,,,,,FEW,1200,BKN,2000,BKN,7000,,,MVFR,,,,,,,,,,,,METAR,18.0
LGHI 121350Z 00000KT 9999 FEW012 FEW018TCU SCT025 12/08 Q1006,LGHI,2019-01-12T13:50:00Z,38.32,26.12,12.0,8.0,0,0,,6.21,29.704725,,,,,,,,,,,FEW,1200,FEW,1800,SCT,2500,,,VFR,,,,,,,,,,,,METAR,4.0
ENVD 121350Z 30020KT 4000 -SHSN VV010 M01/M01 Q0973,ENVD,2019-01-12T13:50:00Z,70.07,29.85,-1.0,-1.0,300,20,,2.49,28.730314,,,,,,,,,,-SHSN,OVX,0,,,,,,,LIFR,,,,,,,,,,,1000,METAR,39.0
ENST 121350Z 13002KT 7000 2000N -SHSN SCT006 BKN012 M01/M02 Q0995 RMK WIND 300FT 24001KT,ENST,2019-01-12T13:50:00Z,65.97,12.47,-1.0,-2.0,130,2,,4.35,29.379921,,,,,,,,,,-SHSN,SCT,600,BKN,1200,,,,,MVFR,,,,,,,,,,,,METAR,17.0
ENSK 121350Z 36006KT 2000 SHSN VV008 M02/M04 Q0993,ENSK,2019-01-12T13:50:00Z,68.57,15.02,-2.0,-4.0,360,6,,1.24,29.320866,,,,,,,,,,SHSN,OVX,0,,,,,,,LIFR,,,,,,,,,,,800,METAR,3.0
ENRM 121350Z 30005KT 2000 SHSN VV006 M00/M00 Q0996,ENRM,2019-01-12T13:50:00Z,64.83,11.13,0.0,0.0,300,5,,1.24,29.409449,,,,,,,,,,SHSN,OVX,0,,,,,,,LIFR,,,,,,,,,,,600,METAR,14.0
ENBL 121350Z 23001KT 4000 1000W -SN VCFG SCT007 SCT015 M01/M01 Q0995,ENBL,2019-01-12T13:50:00Z,61.4,5.77,-1.0,-1.0,230,1,,2.49,29.379921,,,,,,,,,,VCFG -SN,SCT,700,SCT,1500,,,,,IFR,,,,,,,,,,,,METAR,150.0
ENAT 121350Z 31015KT 9999 SCT010 BKN020 M00/M02 Q0982 RMK WIND 700FT 32021KT,ENAT,2019-01-12T13:50:00Z,69.97,23.37,0.0,-2.0,310,15,,6.21,28.996063,,,,,,,,,,,SCT,1000,BKN,2000,,,,,MVFR,,,,,,,,,,,,METAR,3.0
LGSO 121350Z AUTO 01017KT //// // ////// 12/07 Q1006 RE//,LGSO,2019-01-12T13:50:00Z,37.42,24.95,12.0,7.0,10,17,,,29.704725,,,TRUE,,,,,,,,,,,,,,,,,,,,,,,,,,,,METAR,72.0
LGPA 121350Z AUTO 04015KT //// -RA ////// 12/08 Q1005 RE//,LGPA,2019-01-12T13:50:00Z,37.0,25.13,12.0,8.0,40,15,,,29.675198,,,TRUE,,,,,,,-RA,,,,,,,,,,,,,,,,,,,,,METAR,36.0
BGJN 121350Z 14005KT 9999 FEW010 M24/M32 Q1014,BGJN,2019-01-12T13:50:00Z,69.25,-51.07,-24.0,-32.0,140,5,,6.21,29.940945,,,,,,,,,,,FEW,1000,,,,,,,VFR,,,,,,,,,,,,METAR,25.0
ENEV 121350Z AUTO VRB02KT 9999 FEW017/// SCT048/// OVC076/// M04/M06 Q0992 RMK WIND 1400FT 29011KT,ENEV,2019-01-12T13:50:00Z,68.52,16.67,-4.0,-6.0,0,2,,6.21,29.291338,,,TRUE,,,,,,,,FEW,1700,SCT,4800,OVC,7600,,,VFR,,,,,,,,,,,,METAR,26.0
ENFL 121350Z 10011KT 9999 FEW009 SCT032 BKN042 04/02 Q0995,ENFL,2019-01-12T13:50:00Z,61.57,5.02,4.0,2.0,100,11,,6.21,29.379921,,,,,,,,,,,FEW,900,SCT,3200,BKN,4200,,,VFR,,,,,,,,,,,,METAR,9.0
ENKB 121350Z VRB03KT 9999 SCT041 BKN074 01/M01 Q0996 RMK WIND 745FT 14006KT,ENKB,2019-01-12T13:50:00Z,63.12,7.82,1.0,-1.0,0,3,,6.21,29.409449,,,,,,,,,,,SCT,4100,BKN,7400,,,,,VFR,,,,,,,,,,,,METAR,62.0
ENKR 121350Z 31014KT 9999 -SN FEW003 SCT007 BKN020 M00/M03 Q0974 RMK WIND 731FT 30022KT,ENKR,2019-01-12T13:50:00Z,69.72,29.88,0.0,-3.0,310,14,,6.21,28.759842,,,,,,,,,,-SN,FEW,300,SCT,700,BKN,2000,,,MVFR,,,,,,,,,,,,METAR,91.0
ENNA 121350Z 32018KT 9999 FEW020 M00/M04 Q0980 RMK WIND 1800FT /////KT,ENNA,2019-01-12T13:50:00Z,70.07,24.97,0.0,-4.0,320,18,,6.21,28.937008,,,,,,,,,,,FEW,2000,,,,,,,VFR,,,,,,,,,,,,METAR,8.0
ENSD 121350Z VRB02KT 9999 -SN FEW004 SCT007 BKN030 01/01 Q0996 RMK WIND 1138FT VRB02KT,ENSD,2019-01-12T13:50:00Z,61.82,6.12,1.0,1.0,0,2,,6.21,29.409449,,,,,,,,,,-SN,FEW,400,SCT,700,BKN,3000,,,MVFR,,,,,,,,,,,,METAR,60.0
ENNE 121350Z 34012KT 9999 SCT030 02/M04 Q0996 W///S6,ENNE,2019-01-12T13:50:00Z,66.03,8.08,2.0,-4.0,340,12,,6.21,29.409449,,,,,,,,,,,SCT,3000,,,,,,,VFR,,,,,,,,,,,,METAR,10.0
ENQR 121350Z AUTO 32027KT 9999NDV BKN009/// 07/06 Q0995 W///S6,ENQR,2019-01-12T13:50:00Z,61.35,2.22,7.0,6.0,320,27,,,29.379921,,,TRUE,,,,,,,,BKN,900,,,,,,,,,,,,,,,,,,,METAR,10.0
LGKV 121350Z 00000KT 9999 FEW025 BKN070 07/M01 Q1011,LGKV,2019-01-12T13:50:00Z,40.92,24.62,7.0,-1.0,0,0,,6.21,29.852362,,,,,,,,,,,FEW,2500,BKN,7000,,,,,VFR,,,,,,,,,,,,METAR,5.0
LGEL 121350Z 33008KT 9999 FEW012 FEW020TCU BKN025 OVC070 06/03 Q1008,LGEL,2019-01-12T13:50:00Z,38.07,23.55,6.0,3.0,330,8,,6.21,29.763779,,,,,,,,,,,FEW,1200,FEW,2000,BKN,2500,OVC,7000,MVFR,,,,,,,,,,,,METAR,31.0
LGAL 121350Z 05009KT 9999 BKN025 04/00 Q1012,LGAL,2019-01-12T13:50:00Z,40.85,25.95,4.0,0.0,50,9,,6.21,29.88189,,,,,,,,,,,BKN,2500,,,,,,,MVFR,,,,,,,,,,,,METAR,3.0
ENWV 121350Z AUTO 29036KT 3700NDV BR BKN019/// 07/05 Q1004 W///S5,ENWV,2019-01-12T13:50:00Z,,,7.0,5.0,290,36,,,29.64567,,,TRUE,,,,,,,BR,BKN,1900,,,,,,,,,,,,,,,,,,,METAR,
ENUG 121350Z AUTO 36027KT 9999NDV FEW025/// BKN032/// BKN065/// 02/M06 Q0982 W07/S6,ENUG,2019-01-12T13:50:00Z,,,2.0,-6.0,360,27,,,28.996063,,,TRUE,,,,,,,,FEW,2500,BKN,3200,BKN,6500,,,,,,,,,,,,,,,METAR,
ENLA 121350Z AUTO 29033KT //// FEW013/// BKN019/// 08/06 Q//// W///S6,ENLA,2019-01-12T13:50:00Z,57.1,2.83,8.0,6.0,290,33,,,,,,TRUE,,,,,,,,FEW,1300,BKN,1900,,,,,,,,,,,,,,,,,METAR,4.0
ENHM 121350Z 31027KT 9999 6000E -SHRA SCT020 07/06 Q0998 W08/S6,ENHM,2019-01-12T13:50:00Z,59.57,2.23,7.0,6.0,310,27,,6.21,29.468504,,,,,,,,,,-SHRA,SCT,2000,,,,,,,VFR,,,,,,,,,,,,METAR,10.0
ENQA 121350Z AUTO 32033KT 9000NDV OVC011/// 07/05 Q0994 W05/S6,ENQA,2019-01-12T13:50:00Z,60.65,3.72,7.0,5.0,320,33,,,29.350393,,,TRUE,,,,,,,,OVC,1100,,,,,,,,,,,,,,,,,,,METAR,20.0
ENQC 121350Z AUTO 30032KT 9000NDV BKN007/// 07/06 Q0994 W///S6,ENQC,2019-01-12T13:50:00Z,60.88,3.62,7.0,6.0,300,32,,,29.350393,,,TRUE,,,,,,,,BKN,700,,,,,,,,,,,,,,,,,,,METAR,20.0
ENSE 121350Z AUTO 33030KT 6000NDV FEW007/// SCT014/// BKN019/// 07/06 Q0995 W///S6,ENSE,2019-01-12T13:50:00Z,61.45,2.15,7.0,6.0,330,30,,,29.379921,,,TRUE,,,,,,,,FEW,700,SCT,1400,BKN,1900,,,,,,,,,,,,,,,METAR,10.0
LGMT 121350Z 15006KT 9999 BKN025 12/08 Q1009,LGMT,2019-01-12T13:50:00Z,39.05,26.6,12.0,8.0,150,6,,6.21,29.793306,,,,,,,,,,,BKN,2500,,,,,,,MVFR,,,,,,,,,,,,METAR,17.0
LGPZ 121350Z 09007KT 9999 SCT025 SCT070 11/01 Q1008 RMK BKN180 BLU,LGPZ,2019-01-12T13:50:00Z,38.92,20.77,11.0,1.0,90,7,,6.21,29.763779,,,,,,,,,,,SCT,2500,SCT,7000,,,,,VFR,,,,,,,,,,,,METAR,4.0
ENHF 121350Z 35012G23KT 300V050 9999 VCSH FEW010 SCT027 BKN039 01/M04 Q0981 RMK WIND 1254FT 35032KT,ENHF,2019-01-12T13:50:00Z,70.67,23.67,1.0,-4.0,350,12,23,6.21,28.966536,,,,,,,,,,VCSH,FEW,1000,SCT,2700,BKN,3900,,,VFR,,,,,,,,,,,,METAR,81.0
ENBN 121350Z 22004KT 9999 VCSH FEW007 BKN035 M00/M01 Q0996,ENBN,2019-01-12T13:50:00Z,65.47,12.22,0.0,-1.0,220,4,,6.21,29.409449,,,,,,,,,,VCSH,FEW,700,BKN,3500,,,,,VFR,,,,,,,,,,,,METAR,9.0
LGZA 121350Z 02014G24KT 9999 FEW012 BKN020 OVC070 10/06 Q1005,LGZA,2019-01-12T13:50:00Z,37.75,20.87,10.0,6.0,20,14,24,6.21,29.675198,,,,,,,,,,,FEW,1200,BKN,2000,OVC,7000,,,MVFR,,,,,,,,,,,,METAR,3.0
LGSR 121350Z 17008KT 9999 SCT020 16/08 Q1004,LGSR,2019-01-12T13:50:00Z,36.4,25.48,16.0,8.0,170,8,,6.21,29.64567,,,,,,,,,,,SCT,2000,,,,,,,VFR,,,,,,,,,,,,METAR,40.0
LGRX 121350Z 04019KT 8000 -RA FEW010 SCT025 OVC080 09/05 Q1005,LGRX,2019-01-12T13:50:00Z,38.17,21.42,9.0,5.0,40,19,,4.97,29.675198,,,,,,,,,,-RA,FEW,1000,SCT,2500,OVC,8000,,,MVFR,,,,,,,,,,,,METAR,15.0
ENRA 121350Z 20002KT 9999 VCSH SCT023 SCT045 M06/M07 Q0994,ENRA,2019-01-12T13:50:00Z,66.37,14.3,-6.0,-7.0,200,2,,6.21,29.350393,,,,,,,,,,VCSH,SCT,2300,SCT,4500,,,,,VFR,,,,,,,,,,,,METAR,70.0
LTAP 121350Z 26004KT 9999 SCT040 BKN100 05/01 Q1010 NOSIG RMK RWY23 VRB01KT,LTAP,2019-01-12T13:50:00Z,40.83,35.52,5.0,1.0,260,4,,6.21,29.822834,,,,,,TRUE,,,,,SCT,4000,BKN,10000,,,,,VFR,,,,,,,,,,,,SPECI,535.0
LTAN 121350Z 18002KT 8000 SCT040 BKN100 04/00 Q1010 NOSIG,LTAN,2019-01-12T13:50:00Z,37.97,32.53,4.0,0.0,180,2,,4.97,29.822834,,,,,,TRUE,,,,,SCT,4000,BKN,10000,,,,,MVFR,,,,,,,,,,,,METAR,1006.0
LTFJ 121350Z 03014KT 8000 -RA SCT007 BKN030 03/02 Q1011 NOSIG RMK RWY24 01010KT,LTFJ,2019-01-12T13:50:00Z,40.9,29.3,3.0,2.0,30,14,,4.97,29.852362,,,,,,TRUE,,,,-RA,SCT,700,BKN,3000,,,,,MVFR,,,,,,,,,,,,METAR,98.0
LTCI 121350Z 01004KT 8000 SCT035 BKN100 M01/M07 Q1016 TEMPO 4000 BR,LTCI,2019-01-12T13:50:00Z,38.45,43.32,-1.0,-7.0,10,4,,4.97,30.0,,,,,,,,,,,SCT,3500,BKN,10000,,,,,MVFR,,,,,,,,,,,,SPECI,1661.0
LTCF 121350Z 00000KT 9999 SCT035 M14/M17 Q1015,LTCF,2019-01-12T13:50:00Z,40.57,43.12,-14.0,-17.0,0,0,,6.21,29.970472,,,,,,,,,,,SCT,3500,,,,,,,VFR,,,,,,,,,,,,METAR,1795.0
LTCD 121350Z 00000KT CAVOK M10/M14 Q1019 NOSIG,LTCD,2019-01-12T13:50:00Z,39.72,39.5,-10.0,-14.0,0,0,,6.21,30.088583,,,,,,TRUE,,,,,CAVOK,,,,,,,,VFR,,,,,,,,,,,,METAR,1215.0
LTCA 121350Z 10002KT 9999 SCT018 SCT030 BKN100 M02/M06 Q1020 NOSIG,LTCA,2019-01-12T13:50:00Z,38.6,39.27,-2.0,-6.0,100,2,,6.21,30.11811,,,,,,TRUE,,,,,SCT,1800,SCT,3000,BKN,10000,,,VFR,,,,,,,,,,,,METAR,882.0
LTBY 121350Z 11005KT 8000 SCT035 BKN100 05/03 Q1009,LTBY,2019-01-12T13:50:00Z,39.82,30.52,5.0,3.0,110,5,,4.97,29.793306,,,,,,,,,,,SCT,3500,BKN,10000,,,,,MVFR,,,,,,,,,,,,METAR,789.0
ENSH 121350Z 31006KT 290V350 9999 FEW025 SCT040 M01/M06 Q0993 RMK WIND 150FT 29007KT,ENSH,2019-01-12T13:50:00Z,68.25,14.67,-1.0,-6.0,310,6,,6.21,29.320866,,,,,,,,,,,FEW,2500,SCT,4000,,,,,VFR,,,,,,,,,,,,METAR,9.0
LTAT 121350Z 06004KT 9999 OVC020 M02/M05 Q1020 NOSIG RMK RWY03 05003KT,LTAT,2019-01-12T13:50:00Z,38.42,38.07,-2.0,-5.0,60,4,,6.21,30.11811,,,,,,TRUE,,,,,OVC,2000,,,,,,,MVFR,,,,,,,,,,,,SPECI,849.0
LTBQ 121350Z 02005KT 4800 -RA BR SCT006 BKN020 BKN070 05/05 Q1012 RESHRA BECMG TL1250 7000,LTBQ,2019-01-12T13:50:00Z,40.72,30.07,5.0,5.0,20,5,,2.98,29.88189,,,,,,,,,,-RA BR,SCT,600,BKN,2000,BKN,7000,,,IFR,,,,,,,,,,,,SPECI,50.0
LGAV 121350Z 03011KT 9999 FEW020TCU BKN040 08/04 Q1008 NOSIG,LGAV,2019-01-12T13:50:00Z,37.93,23.95,8.0,4.0,30,11,,6.21,29.763779,,,,,,TRUE,,,,,FEW,2000,BKN,4000,,,,,VFR,,,,,,,,,,,,METAR,94.0
LGIR 121350Z 18010KT 9999 FEW020 SCT080 17/13 Q1004 NOSIG,LGIR,2019-01-12T13:50:00Z,35.32,25.17,17.0,13.0,180,10,,6.21,29.64567,,,,,,TRUE,,,,,FEW,2000,SCT,8000,,,,,VFR,,,,,,,,,,,,METAR,39.0
KHME 121350Z 12004KT CAVOK 06/M07 Q1021,KHME,2019-01-12T13:50:00Z,,,6.0,-7.0,120,4,,6.21,30.147638,,,,,,,,,,,CAVOK,,,,,,,,VFR,,,,,,,,,,,,METAR,
LGRP 121350Z VRB05KT 9999 FEW018TCU 16/05 Q1007 NOSIG,LGRP,2019-01-12T13:50:00Z,36.4,28.08,16.0,5.0,0,5,,6.21,29.734253,,,,,,TRUE,,,,,FEW,1800,,,,,,,VFR,,,,,,,,,,,,METAR,5.0
LGKR 121350Z 36009KT CAVOK 13/M01 Q1007 NOSIG,LGKR,2019-01-12T13:50:00Z,39.62,19.92,13.0,-1.0,360,9,,6.21,29.734253,,,,,,TRUE,,,,,CAVOK,,,,,,,,VFR,,,,,,,,,,,,METAR,2.0
LTCC 121350Z 19004KT CAVOK 02/M03 Q1019 NOSIG RMK RWY16 20005KT,LTCC,2019-01-12T13:50:00Z,37.87,40.2,2.0,-3.0,190,4,,6.21,30.088583,,,,,,TRUE,,,,,CAVOK,,,,,,,,VFR,,,0.5,,,,,,,,,SPECI,677.0
LTCE 121350Z VRB02KT 7000 SCT035 M10/M15 Q1015 NOSIG RMK RWY08R 00000KT RWY26R VRB02KT RWY08L 00000KT,LTCE,2019-01-12T13:50:00Z,39.95,41.17,-10.0,-15.0,0,2,,4.35,29.970472,,,,,,TRUE,,,,,SCT,3500,,,,,,,MVFR,,,,,,,,,,,,SPECI,1758.0
EDFH 121350Z 26017G27KT 9000 BKN006 03/02 Q1016,EDFH,2019-01-12T13:50:00Z,49.95,7.27,3.0,2.0,260,17,27,5.59,30.0,,,,,,,,,,,BKN,600,,,,,,,IFR,,,,,,,,,,,,METAR,498.0
EDFM 121350Z 20009KT 9999 -DZ FEW005 SCT020 BKN031 04/03 Q1020,EDFM,2019-01-12T13:50:00Z,49.47,8.52,4.0,3.0,200,9,,6.21,30.11811,,,,,,,,,,-DZ,FEW,500,SCT,2000,BKN,3100,,,VFR,,,,,,,,,,,,METAR,100.0
EDVK 121350Z 24012KT 6000 -RA FEW006 BKN013 OVC018 04/03 Q1012,EDVK,2019-01-12T13:50:00Z,51.38,9.37,4.0,3.0,240,12,,3.73,29.88189,,,,,,,,,,-RA,FEW,600,BKN,1300,OVC,1800,,,MVFR,,,,,,,,,,,,METAR,285.0
EDLV 121350Z 25013KT 2100 RA BKN005 07/07 Q1014,EDLV,2019-01-12T13:50:00Z,51.6,6.15,7.0,7.0,250,13,,1.3,29.940945,,,,,,,,,,RA,BKN,500,,,,,,,IFR,,,,,,,,,,,,METAR,32.0
LTAS 121350Z VRB02KT 9999 -RA FEW009 SCT025 OVC080 05/04 Q1012,LTAS,2019-01-12T13:50:00Z,41.52,32.08,5.0,4.0,0,2,,6.21,29.88189,,,,,,,,,,-RA,FEW,900,SCT,2500,OVC,8000,,,VFR,,,,,,,,,,,,METAR,136.0
LTCB 121350Z 08008KT 9999 FEW015 SCT035 BKN090 10/07 Q1012,LTCB,2019-01-12T13:50:00Z,40.97,38.07,10.0,7.0,80,8,,6.21,29.88189,,,,,,,,,,,FEW,1500,SCT,3500,BKN,9000,,,VFR,,,,,,,,,,,,METAR,5.0
LTBH 121350Z 04016KT 9999 FEW010 BKN030 BKN100 04/03 Q1010,LTBH,2019-01-12T13:50:00Z,40.13,26.42,4.0,3.0,40,16,,6.21,29.822834,,,,,,,,,,,FEW,1000,BKN,3000,BKN,10000,,,MVFR,,,,,,,,,,,,METAR,3.0
LTCN 121350Z 25004KT 9999 FEW040 BKN100 06/M00 Q1016 NOSIG,LTCN,2019-01-12T13:50:00Z,37.53,36.95,6.0,0.0,250,4,,6.21,30.0,,,,,,TRUE,,,,,FEW,4000,BKN,10000,,,,,VFR,,,,,,,,,,,,METAR,526.0
LTCR 121350Z 03005KT 9999 BKN050 08/M01 Q1018,LTCR,2019-01-12T13:50:00Z,37.22,40.63,8.0,-1.0,30,5,,6.21,30.059055,,,,,,,,,,,BKN,5000,,,,,,,VFR,,,,,,,,,,,,METAR,527.0
EGPB 121350Z 30024KT 9000 -SHRA FEW013 SCT022 BKN031 08/05 Q1002 TEMPO SHRA BKN012,EGPB,2019-01-12T13:50:00Z,59.87,-1.3,8.0,5.0,300,24,,5.59,29.586615,,,,,,,,,,-SHRA,FEW,1300,SCT,2200,BKN,3100,,,VFR,,,,,,,,,,,,METAR,5.0
LTCO 121350Z VRB01KT 2400 BR FEW025 SCT080 M19/M21 Q1018,LTCO,2019-01-12T13:50:00Z,39.65,43.03,-19.0,-21.0,0,1,,1.49,30.059055,,,,,,,,,,BR,FEW,2500,SCT,8000,,,,,IFR,,,,,,,,,,,,METAR,1665.0
LTFG 121350Z VRB01KT 9999 BKN030 BKN100 15/09 Q1010,LTFG,2019-01-12T13:50:00Z,36.3,32.3,15.0,9.0,0,1,,6.21,29.822834,,,,,,,,,,,BKN,3000,BKN,10000,,,,,MVFR,,,,,,,,,,,,METAR,95.0
OITL 121350Z 19021G33KT 9999 FEW120 BKN200 05/M12 Q1012,OITL,2019-01-12T13:50:00Z,38.33,48.42,5.0,-12.0,190,21,33,6.21,29.88189,,,,,,,,,,,FEW,12000,BKN,20000,,,,,VFR,,,,,,,,,,,,METAR,1316.0
OISA 121350Z 00000KT CAVOK 11/M17 Q1020,OISA,2019-01-12T13:50:00Z,31.03,52.78,11.0,-17.0,0,0,,6.21,30.11811,,,,,,,,,,,CAVOK,,,,,,,,VFR,,,,,,,,,,,,METAR,2004.0
OIKO 121350Z 04002KT 8000 NSC 22/M06 Q1016,OIKO,2019-01-12T13:50:00Z,27.13,57.1,22.0,-6.0,40,2,,4.97,30.0,,,,,,,,,,,CLR,,,,,,,,MVFR,,,,,,,,,,,,METAR,27.0
OAKB 121350Z 34003KT 7000 NSC 01/M12 Q1021 NOSIG RMK A3016 BLU BLU,OAKB,2019-01-12T13:50:00Z,34.55,69.22,1.0,-12.0,340,3,,4.35,30.147638,,,,,,TRUE,,,,,CLR,,,,,,,,MVFR,,,,,,,,,,,,METAR,1791.0
LTFD 121350Z 08008KT 9999 SCT030 BKN100 10/06 Q1008,LTFD,2019-01-12T13:50:00Z,39.55,27.02,10.0,6.0,80,8,,6.21,29.763779,,,,,,,,,,,SCT,3000,BKN,10000,,,,,VFR,,,,,,,,,,,,METAR,16.0
LTCV 121350Z VRB02KT CAVOK 07/M04 Q1018,LTCV,2019-01-12T13:50:00Z,37.37,42.07,7.0,-4.0,0,2,,6.21,30.059055,,,,,,,,,,,CAVOK,,,,,,,,VFR,,,,,,,,,,,,METAR,621.0
LTCT 121350Z 34005KT 9999 FEW100 M00/M08 Q1018,LTCT,2019-01-12T13:50:00Z,39.98,43.87,0.0,-8.0,340,5,,6.21,30.059055,,,,,,,,,,,FEW,10000,,,,,,,VFR,,,,,,,,,,,,METAR,946.0
EDHL 121350Z 23012KT 8000 -RA BKN008 BKN012 06/05 Q1004,EDHL,2019-01-12T13:50:00Z,53.8,10.72,6.0,5.0,230,12,,4.97,29.64567,,,,,,,,,,-RA,BKN,800,BKN,1200,,,,,IFR,,,,,,,,,,,,METAR,16.0
EDLN 121350Z 25010G20KT 200V290 3000 -RA BR SCT007 BKN010 07/06 Q1015,EDLN,2019-01-12T13:50:00Z,51.23,6.5,7.0,6.0,250,10,20,1.86,29.970472,,,,,,,,,,-RA BR,SCT,700,BKN,1000,,,,,IFR,,,,,,,,,,,,METAR,38.0
LTAR 121350Z 11015KT CAVOK M08/M12 Q1012,LTAR,2019-01-12T13:50:00Z,39.8,36.9,-8.0,-12.0,110,15,,6.21,29.88189,,,,,,,,,,,CAVOK,,,,,,,,VFR,,,,,,,,,,,,METAR,1271.0
EDLW 121350Z 24015KT 2500 -RA BR OVC006 05/05 Q1013,EDLW,2019-01-12T13:50:00Z,51.52,7.62,5.0,5.0,240,15,,1.55,29.911417,,,,,,,,,,-RA BR,OVC,600,,,,,,,IFR,,,,,,,,,,,,METAR,127.0
EDLP 121350Z 25015KT 220V290 4000 -RA BR BKN008 05/04 Q1012,EDLP,2019-01-12T13:50:00Z,51.62,8.62,5.0,4.0,250,15,,2.49,29.88189,,,,,,,,,,-RA BR,BKN,800,,,,,,,IFR,,,,,,,,,,,,METAR,213.0
EDMA 121350Z 25011KT 9999 FEW013 OVC037 02/M00 Q1020,EDMA,2019-01-12T13:50:00Z,48.42,10.92,2.0,0.0,250,11,,6.21,30.11811,,,,,,,,,,,FEW,1300,OVC,3700,,,,,VFR,,,,,,,,,,,,METAR,463.0
LTDA 121350Z 05010KT 9999 SCT040 11/04 Q1016 NOSIG,LTDA,2019-01-12T13:50:00Z,36.37,36.28,11.0,4.0,50,10,,6.21,30.0,,,,,,TRUE,,,,,SCT,4000,,,,,,,VFR,,,,,,,,,,,,METAR,82.0
EDAH 121350Z 25013KT 9999 BKN012 05/04 Q1004,EDAH,2019-01-12T13:50:00Z,53.87,14.15,5.0,4.0,250,13,,6.21,29.64567,,,,,,,,,,,BKN,1200,,,,,,,MVFR,,,,,,,,,,,,METAR,28.0
LTFH 121350Z 11002KT 9999 SCT036 BKN100 09/06 Q1011 NOSIG,LTFH,2019-01-12T13:50:00Z,41.27,36.55,9.0,6.0,110,2,,6.21,29.852362,,,,,,TRUE,,,,,SCT,3600,BKN,10000,,,,,VFR,,,,,,,,,,,,METAR,5.0
EDSB 121350Z 20016KT 8000 -RA SCT011 BKN025 03/02 Q1022,EDSB,2019-01-12T13:50:00Z,48.78,8.08,3.0,2.0,200,16,,4.97,30.177166,,,,,,,,,,-RA,SCT,1100,BKN,2500,,,,,MVFR,,,,,,,,,,,,METAR,124.0
EDHK 121350Z 27011KT 9999 BKN010 07/05 Q1003 REDZRA,EDHK,2019-01-12T13:50:00Z,54.38,10.15,7.0,5.0,270,11,,6.21,29.616142,,,,,,,,,,RA,BKN,1000,,,,,,,MVFR,,,,,,,,,,,,METAR,31.0
LSZL 121350Z AUTO 28003KT 230V320 9999NDV NCD 08/M02 Q1016 RMK,LSZL,2019-01-12T13:50:00Z,46.17,8.88,8.0,-2.0,280,3,,,30.0,,,TRUE,,,,,,,,CLR,,,,,,,,,,,,,,,,,,,,METAR,600.0
EDHI 121350Z 25016KT 3800 -RA BR BKN008 BKN011 OVC016 06/06 Q1005,EDHI,2019-01-12T13:50:00Z,53.53,9.83,6.0,6.0,250,16,,2.36,29.675198,,,,,,,,,,-RA BR,BKN,800,BKN,1100,OVC,1600,,,IFR,,,,,,,,,,,,METAR,13.0
OIGK 121350Z 29004KT CAVOK 00/M11 Q1015,OIGK,2019-01-12T13:50:00Z,34.28,47.12,0.0,-11.0,290,4,,6.21,29.970472,,,,,,,,,,,CAVOK,,,,,,,,VFR,,,,,,,,,,,,METAR,1322.0
OICK 121350Z 24004KT 9999 FEW045 BKN190 10/M06 Q1018,OICK,2019-01-12T13:50:00Z,33.43,48.28,10.0,-6.0,240,4,,6.21,30.059055,,,,,,,,,,,FEW,4500,BKN,19000,,,,,VFR,,,,,,,,,,,,METAR,1155.0
EDMO 121350Z 25013KT 9999 BKN016 02/M01 Q1019,EDMO,2019-01-12T13:50:00Z,48.07,11.27,2.0,-1.0,250,13,,6.21,30.088583,,,,,,,,,,,BKN,1600,,,,,,,MVFR,,,,,,,,,,,,METAR,600.0
EDJA 121350Z 24017KT 9999 OVC005 00/M01 Q1020,EDJA,2019-01-12T13:50:00Z,47.98,10.23,0.0,-1.0,240,17,,6.21,30.11811,,,,,,,,,,,OVC,500,,,,,,,IFR,,,,,,,,,,,,METAR,633.0
EDTY 121350Z 25014KT 9999 -SHRA OVC008 02/02 Q1019,EDTY,2019-01-12T13:50:00Z,49.12,9.78,2.0,2.0,250,14,,6.21,30.088583,,,,,,,,,,-SHRA,OVC,800,,,,,,,IFR,,,,,,,,,,,,METAR,400.0
EDVE 121350Z 25016KT 9000 -DZ OVC007 05/04 Q1009,EDVE,2019-01-12T13:50:00Z,52.32,10.55,5.0,4.0,250,16,,5.59,29.793306,,,,,,,,,,-DZ,OVC,700,,,,,,,IFR,,,,,,,,,,,,METAR,88.0
LSMM 121350Z AUTO 00000KT 9999NDV SCT023 BKN026 OVC047 01/M02 Q1024 RMK,LSMM,2019-01-12T13:50:00Z,46.75,8.12,1.0,-2.0,0,0,,,30.236221,,,TRUE,,,,,,,,SCT,2300,BKN,2600,OVC,4700,,,,,,,,,,,,,,,METAR,577.0
LSME 121350Z AUTO 21003KT 9000NDV OVC049 03/01 Q1024 RMK,LSME,2019-01-12T13:50:00Z,47.1,8.3,3.0,1.0,210,3,,,30.236221,,,TRUE,,,,,,,,OVC,4900,,,,,,,,,,,,,,,,,,,METAR,427.0
LSMD 121350Z AUTO VRB03KT 9999NDV BKN017 OVC046 03/00 Q1024 RMK,LSMD,2019-01-12T13:50:00Z,47.4,8.65,3.0,0.0,0,3,,,30.236221,,,TRUE,,,,,,,,BKN,1700,OVC,4600,,,,,,,,,,,,,,,,,METAR,448.0
LSMA 121350Z AUTO 00000KT 9999NDV BKN052 03/M00 Q1024 RMK,LSMA,2019-01-12T13:50:00Z,46.95,8.28,3.0,0.0,0,0,,,30.236221,,,TRUE,,,,,,,,BKN,5200,,,,,,,,,,,,,,,,,,,METAR,444.0
KEFD 121350Z 28009KT 10SM BKN012 BKN025 17/16 A3001,KEFD,2019-01-12T13:50:00Z,29.6,-95.17,17.0,16.0,280,9,,10.0,30.008858,,,,,,,,,,,BKN,1200,BKN,2500,,,,,MVFR,,,,,,,,,,,,METAR,10.0
ENGC 121350Z 34029KT 9999 BKN017 07/05 Q0995 W06/S6,ENGC,2019-01-12T13:50:00Z,61.02,2.02,7.0,5.0,340,29,,6.21,29.379921,,,,,,,,,,,BKN,1700,,,,,,,MVFR,,,,,,,,,,,,METAR,10.0
EGQL 121350Z 28019KT CAVOK 10/04 Q1010 BLU,EGQL,2019-01-12T13:50:00Z,56.38,-2.87,10.0,4.0,280,19,,6.21,29.822834,,,,,,,,,,,CAVOK,,,,,,,,VFR,,,,,,,,,,,,METAR,12.0
EDOP 121350Z 23016KT 4500 -DZ BR OVC005 05/04 Q1005,EDOP,2019-01-12T13:50:00Z,53.43,11.78,5.0,4.0,230,16,,2.8,29.675198,,,,,,,,,,-DZ BR,OVC,500,,,,,,,IFR,,,,,,,,,,,,METAR,51.0
BGBW 121350Z 06005KT 360V140 9999 VCSH SCT050 BKN070 BKN090 02/M07 Q1004,BGBW,2019-01-12T13:50:00Z,61.17,-45.42,2.0,-7.0,60,5,,6.21,29.64567,,,,,,,,,,VCSH,SCT,5000,BKN,7000,BKN,9000,,,VFR,,,,,,,,,,,,METAR,26.0
EDGS 121350Z 25014KT 7000 -RADZ SCT003 BKN004 OVC009 02/02 Q1013,EDGS,2019-01-12T13:50:00Z,50.7,8.08,2.0,2.0,250,14,,4.35,29.911417,,,,,,,,,,-RA -DZ,SCT,300,BKN,400,OVC,900,,,LIFR,,,,,,,,,,,,METAR,602.0
EDAC 121350Z 23012KT 9999 OVC035 03/01 Q1012,EDAC,2019-01-12T13:50:00Z,50.98,12.5,3.0,1.0,230,12,,6.21,29.88189,,,,,,,,,,,OVC,3500,,,,,,,VFR,,,,,,,,,,,,METAR,195.0
EDNY 121350Z 23011KT 8000 OVC013 02/00 Q1023,EDNY,2019-01-12T13:50:00Z,47.67,9.52,2.0,0.0,230,11,,4.97,30.206694,,,,,,,,,,,OVC,1300,,,,,,,MVFR,,,,,,,,,,,,METAR,424.0
ENLE 121350Z 28038KT 9999 -SHRA SCT015CB BKN025 08/05 Q1005 W08/S5,ENLE,2019-01-12T13:50:00Z,56.53,3.22,8.0,5.0,280,38,,6.21,29.675198,,,,,,,,,,-SHRA,SCT,1500,BKN,2500,,,,,MVFR,,,,,,,,,,,,METAR,3.0
MSLU 121350Z 29004KT CAVOK 26/17 Q1014 A2997,MSLU,2019-01-12T13:50:00Z,13.33,-87.88,26.0,17.0,290,4,,6.21,29.940945,,,,,,,,,,,CAVOK,,,,,,,,VFR,,,,,,,,,,,,METAR,5.0
MSSM 121350Z 04002KT CAVOK 22/18 Q//// A////,MSSM,2019-01-12T13:50:00Z,13.43,-88.12,22.0,18.0,40,2,,6.21,,,,,,,,,,,,CAVOK,,,,,,,,VFR,,,,,,,,,,,,METAR,80.0
MSSA 121350Z 00000KT CAVOK 21/15 Q1022 A3019,MSSA,2019-01-12T13:50:00Z,13.97,-89.57,21.0,15.0,0,0,,6.21,30.177166,,,,,,,,,,,CAVOK,,,,,,,,VFR,,,,,,,,,,,,METAR,725.0
MSAC 121350Z 07004KT CAVOK 25/16 Q1010 A2984,MSAC,2019-01-12T13:50:00Z,13.57,-89.83,25.0,16.0,70,4,,6.21,29.822834,,,,,,,,,,,CAVOK,,,,,,,,VFR,,,,,,,,,,,,METAR,15.0
LCRA 121350Z 08017KT 9999 FEW040 15/07 Q1010 NOSIG,LCRA,2019-01-12T13:50:00Z,34.57,32.97,15.0,7.0,80,17,,6.21,29.822834,,,,,,TRUE,,,,,FEW,4000,,,,,,,VFR,,,,,,,,,,,,METAR,23.0
KMWN 121350Z 30058G65KT 1/8SM FZFG VV003 M26/M26 RMK VRY LGT ICG SUN DMLY VSBL,KMWN,2019-01-12T13:50:00Z,44.27,-71.3,-26.0,-26.0,300,58,65,0.13,,,,,,,,,,,FZFG,OVX,0,,,,,,,LIFR,,,,,,,,,,,300,METAR,1910.0
KHSA 121350Z 13006KT 7SM BKN035 16/14 A3010,KHSA,2019-01-12T13:50:00Z,30.37,-89.45,16.0,14.0,130,6,,7.0,30.100393,,,,,,,,,,,BKN,3500,,,,,,,VFR,,,,,,,,,,,,METAR,7.0
EGAA 121350Z 27016KT 9999 SCT017 10/08 Q1020,EGAA,2019-01-12T13:50:00Z,54.63,-6.22,10.0,8.0,270,16,,6.21,30.11811,,,,,,,,,,,SCT,1700,,,,,,,VFR,,,,,,,,,,,,METAR,81.0
MMDO 121349Z 31004KT 3SM BCFG FEW015 M03/M03 A3032 RMK 8/600,MMDO,2019-01-12T13:49:00Z,24.12,-104.52,-3.0,-3.0,310,4,,3.0,30.318897,,,,,,,,,,BCFG,FEW,1500,,,,,,,MVFR,,,,,,,,,,,,METAR,1857.0
KALO 121349Z 08008KT 1 3/4SM -SN BR BKN019 OVC035 M02/M03 A3024 RMK AO2 SLP252 P0001 T10171033,KALO,2019-01-12T13:49:00Z,42.55,-92.4,-1.7,-3.3,80,8,,1.75,30.239174,1025.2,,,TRUE,,,,,,-SN BR,BKN,1900,OVC,3500,,,,,IFR,,,,,,0.01,,,,,,METAR,264.0
MMPR 121349Z 06003KT 15SM SKC 20/20 A2999 RMK AC,MMPR,2019-01-12T13:49:00Z,20.67,-105.25,20.0,20.0,60,3,,15.0,29.991142,,,,,,,,,,,SKC,,,,,,,,VFR,,,,,,,,,,,,METAR,6.0
KJDN 121348Z AUTO 00000KT M12/M14 A3015 RMK AO1 SLP258 T11171139,KJDN,2019-01-12T13:48:00Z,47.33,-106.95,-11.7,-13.9,0,0,,,30.15059,1025.8,,TRUE,TRUE,,,,,,,,,,,,,,,,,,,,,,,,,,,METAR,801.0
KANE 121348Z 05004KT 10SM SCT250 M07/M08 A3033,KANE,2019-01-12T13:48:00Z,45.15,-93.22,-7.0,-8.0,50,4,,10.0,30.33071,,,,,,,,,,,SCT,25000,,,,,,,VFR,,,,,,,,,,,,METAR,278.0
KEKM 121348Z 09008KT 10SM CLR M03/M06 A3035,KEKM,2019-01-12T13:48:00Z,41.72,-86.0,-3.0,-6.0,90,8,,10.0,30.351377,,,,,,,,,,,CLR,,,,,,,,VFR,,,,,,,,,,,,METAR,237.0
KGYI 121348Z 24014G16KT 10SM OVC015 06/04 A2994,KGYI,2019-01-12T13:48:00Z,33.72,-96.67,6.0,4.0,240,14,16,10.0,29.940945,,,,,,,,,,,OVC,1500,,,,,,,MVFR,,,,,,,,,,,,METAR,228.0
MMIA 121348Z 01008KT 8SM FEW200 19/14 A3011 RMK 6//// 8/008,MMIA,2019-01-12T13:48:00Z,19.27,-103.57,19.0,14.0,10,8,,8.0,30.109253,,,,,,,,,,,FEW,20000,,,,,,,VFR,,,,,,,,,,,,METAR,723.0
MMCU 121348Z 19005KT 10SM SKC 00/M01 A3023,MMCU,2019-01-12T13:48:00Z,28.7,-105.97,0.0,-1.0,190,5,,10.0,30.230314,,,,,,,,,,,SKC,,,,,,,,VFR,,,,,,,,,,,,METAR,1372.0
KBVI 121347Z 05003KT 10SM CLR M05/M10 A3039,KBVI,2019-01-12T13:47:00Z,40.77,-80.4,-5.0,-10.0,50,3,,10.0,30.389763,,,,,,,,,,,CLR,,,,,,,,VFR,,,,,,,,,,,,METAR,382.0
KFDK 121347Z 00000KT 10SM BKN110 M02/M06 A3056,KFDK,2019-01-12T13:47:00Z,39.42,-77.37,-2.0,-6.0,0,0,,10.0,30.561024,,,,,,,,,,,BKN,11000,,,,,,,VFR,,,,,,,,,,,,METAR,92.0
KAEG 121347Z 00000KT 10SM BKN042 M03/M04 A3019,KAEG,2019-01-12T13:47:00Z,35.13,-106.8,-3.0,-4.0,0,0,,10.0,30.188976,,,,,,,,,,,BKN,4200,,,,,,,VFR,,,,,,,,,,,,METAR,1779.0
KSAW 121347Z 11004KT 10SM OVC033 M07/M10 A3047,KSAW,2019-01-12T13:47:00Z,46.35,-87.4,-7.0,-10.0,110,4,,10.0,30.469488,,,,,,,,,,,OVC,3300,,,,,,,VFR,,,,,,,,,,,,METAR,372.0
KCWA 121347Z 07010KT 7SM OVC012 M04/M06 A3036,KCWA,2019-01-12T13:47:00Z,44.78,-89.67,-4.0,-6.0,70,10,,7.0,30.360237,,,,,,,,,,,OVC,1200,,,,,,,MVFR,,,,,,,,,,,,METAR,389.0
KEVB 121347Z 12006KT 10SM SCT050 20/13 A3027,KEVB,2019-01-12T13:47:00Z,29.05,-80.95,20.0,13.0,120,6,,10.0,30.268702,,,,,,,,,,,SCT,5000,,,,,,,VFR,,,,,,,,,,,,METAR,3.0
KGYH 121347Z 06007KT 10SM OVC046 03/M06 A3040,KGYH,2019-01-12T13:47:00Z,34.75,-82.38,3.0,-6.0,60,7,,10.0,30.398623,,,,,,,,,,,OVC,4600,,,,,,,VFR,,,,,,,,,,,,METAR,292.0
KIWA 121347Z 15004KT 20SM SCT120 08/06 A3008,KIWA,2019-01-12T13:47:00Z,33.3,-111.65,8.0,6.0,150,4,,20.0,30.079725,,,,,,,,,,,SCT,12000,,,,,,,VFR,,,,,,,,,,,,METAR,412.0
KCQT 121347Z AUTO 08007KT 10SM OVC037 12/08 A2999 RMK AO2 RAE19 SLP156 P0001 T01170078,KCQT,2019-01-12T13:47:00Z,34.02,-118.28,11.7,7.8,80,7,,10.0,29.991142,1015.6,,TRUE,TRUE,,,,,,,OVC,3700,,,,,,,VFR,,,,,,0.01,,,,,,METAR,56.0
KHUM 121347Z 17007KT 7SM CLR 17/15 A3003,KHUM,2019-01-12T13:47:00Z,29.57,-90.67,17.0,15.0,170,7,,7.0,30.029528,,,,,,,,,,,CLR,,,,,,,,VFR,,,,,,,,,,,,METAR,3.0
KCHD 121347Z 29007KT 10SM CLR 07/07 A3008,KCHD,2019-01-12T13:47:00Z,33.27,-111.82,7.0,7.0,290,7,,10.0,30.079725,,,,,,,,,,,CLR,,,,,,,,VFR,,,,,,,,,,,,METAR,379.0
KADS 121347Z 28018G20KT 10SM SKC 06/02 A2998,KADS,2019-01-12T13:47:00Z,32.97,-96.82,6.0,2.0,280,18,20,10.0,29.97933,,,,,,,,,,,SKC,,,,,,,,VFR,,,,,,,,,,,,METAR,196.0
MMCE 121347Z 12011KT 6SM SCT200 23/19 A3001 RMK 8/008,MMCE,2019-01-12T13:47:00Z,18.65,-91.8,23.0,19.0,120,11,,6.0,30.008858,,,,,,,,,,,SCT,20000,,,,,,,VFR,,,,,,,,,,,,METAR,2.0
KTIX 121347Z 09004KT 7SM SCT055 20/14 A3025,KTIX,2019-01-12T13:47:00Z,28.5,-80.8,20.0,14.0,90,4,,7.0,30.250984,,,,,,,,,,,SCT,5500,,,,,,,VFR,,,,,,,,,,,,METAR,11.0
KGYR 121347Z 00000KT 10SM FEW180 SCT200 BKN250 07/06 A3008,KGYR,2019-01-12T13:47:00Z,33.42,-112.37,7.0,6.0,0,0,,10.0,30.079725,,,,,,,,,,,FEW,18000,SCT,20000,BKN,25000,,,VFR,,,,,,,,,,,,METAR,295.0
MMPN 121347Z 00000KT 12SM SKC 11/10 A3021 RMK HZY BR AC,MMPN,2019-01-12T13:47:00Z,19.38,-102.02,11.0,10.0,0,0,,12.0,30.209646,,,,,,,,,,,SKC,,,,,,,,VFR,,,,,,,,,,,,METAR,1593.0
KCWF 121347Z COR 17004KT 7SM -RA SCT010 BKN025 OVC036 17/16 A2997 RMK RAB1147,KCWF,2019-01-12T13:47:00Z,30.22,-93.15,17.0,16.0,170,4,,7.0,29.970472,,TRUE,,,,,,,,-RA,SCT,1000,BKN,2500,OVC,3600,,,MVFR,,,,,,,,,,,,METAR,4.0
KALN 121347Z 09012KT 4SM BR OVC004 M01/M01 A3013,KALN,2019-01-12T13:47:00Z,38.88,-90.03,-1.0,-1.0,90,12,,4.0,30.129921,,,,,,,,,,BR,OVC,400,,,,,,,LIFR,,,,,,,,,,,,METAR,166.0
KFWS 121346Z 29012G16KT 10SM CLR 06/02 A3003,KFWS,2019-01-12T13:46:00Z,32.57,-97.3,6.0,2.0,290,12,16,10.0,30.029528,,,,,,,,,,,CLR,,,,,,,,VFR,,,,,,,,,,,,METAR,208.0
MMCM 121346Z 00000KT 7SM SKC 19/18 A3006,MMCM,2019-01-12T13:46:00Z,18.5,-88.33,19.0,18.0,0,0,,7.0,30.059055,,,,,,,,,,,SKC,,,,,,,,VFR,,,,,,,,,,,,METAR,12.0
MMTG 121346Z 00000KT 5SM SKC 18/15 A3007 RMK BR HZ AC N,MMTG,2019-01-12T13:46:00Z,16.57,-93.03,18.0,15.0,0,0,,5.0,30.070866,,,,,,,,,,,SKC,,,,,,,,MVFR,,,,,,,,,,,,METAR,528.0
MMPB 121346Z 32005KT 9SM FEW025 SCT090 08/04 A3035 RMK 8/530 HZY,MMPB,2019-01-12T13:46:00Z,19.17,-98.37,8.0,4.0,320,5,,9.0,30.351377,,,,,,,,,,,FEW,2500,SCT,9000,,,,,VFR,,,,,,,,,,,,METAR,2244.0
KSWF 121345Z 27004KT 15SM BKN070 M07/M10 A3050,KSWF,2019-01-12T13:45:00Z,41.5,-74.08,-7.0,-10.0,270,4,,15.0,30.499016,,,,,,,,,,,BKN,7000,,,,,,,VFR,,,,,,,,,,,,METAR,150.0
PAKU 121345Z 04002KT 10SM R06/P6000FT SKC M34/M37 A3034,PAKU,2019-01-12T13:45:00Z,70.32,-149.58,-34.0,-37.0,40,2,,10.0,30.339567,,,,,,,,,,,SKC,,,,,,,,VFR,,,,,,,,,,,,METAR,2.0
KMTN 121345Z 00000KT 10SM BKN180 M02/M07 A3056,KMTN,2019-01-12T13:45:00Z,39.32,-76.42,-2.0,-7.0,0,0,,10.0,30.561024,,,,,,,,,,,BKN,18000,,,,,,,VFR,,,,,,,,,,,,METAR,7.0
KRYN 121345Z 09008KT 10SM CLR 03/02 A3009,KRYN,2019-01-12T13:45:00Z,32.15,-111.17,3.0,2.0,90,8,,10.0,30.088583,,,,,,,,,,,CLR,,,,,,,,VFR,,,,,,,,,,,,METAR,737.0
KGYY 121345Z 09004KT 4SM -SN OVC022 M01/M04 A3033 RMK SNB38,KGYY,2019-01-12T13:45:00Z,41.62,-87.42,-1.0,-4.0,90,4,,4.0,30.33071,,,,,,,,,,-SN,OVC,2200,,,,,,,MVFR,,,,,,,,,,,,METAR,180.0
TJIG 121345Z VRB04KT 10SM FEW040 26/21 A3014,TJIG,2019-01-12T13:45:00Z,18.45,-66.1,26.0,21.0,0,4,,10.0,30.138779,,,,,,,,,,,FEW,4000,,,,,,,VFR,,,,,,,,,,,,METAR,3.0
KBAK 121345Z 09006KT 1 3/4SM -SN BR SCT005 BKN010 OVC015 M02/M03 A3029,KBAK,2019-01-12T13:45:00Z,39.27,-85.9,-2.0,-3.0,90,6,,1.75,30.28937,,,,,,,,,,-SN BR,SCT,500,BKN,1000,OVC,1500,,,IFR,,,,,,,,,,,,METAR,200.0
KUES 121345Z 09006KT 7SM HZ OVC014 M02/M04 A3035,KUES,2019-01-12T13:45:00Z,43.05,-88.25,-2.0,-4.0,90,6,,7.0,30.351377,,,,,,,,,,HZ,OVC,1400,,,,,,,MVFR,,,,,,,,,,,,METAR,278.0
KBBG 121345Z 11008KT 1SM BR OVC002 00/00 A2992,KBBG,2019-01-12T13:45:00Z,36.53,-93.2,0.0,0.0,110,8,,1.0,29.920275,,,,,,,,,,BR,OVC,200,,,,,,,LIFR,,,,,,,,,,,,METAR,397.0
KATW 121345Z 06005KT 7SM BKN016 OVC022 M02/M05 A3036,KATW,2019-01-12T13:45:00Z,44.27,-88.52,-2.0,-5.0,60,5,,7.0,30.360237,,,,,,,,,,,BKN,1600,OVC,2200,,,,,MVFR,,,,,,,,,,,,METAR,280.0
KMHR 121345Z 00000KT 1/2SM FG VV002 04/04 A2994,KMHR,2019-01-12T13:45:00Z,38.53,-121.28,4.0,4.0,0,0,,0.5,29.940945,,,,,,,,,,FG,OVX,0,,,,,,,LIFR,,,,,,,,,,,200,METAR,29.0
KJVL 121345Z 07008KT 6SM BR BKN017 OVC080 M01/M04 A3032,KJVL,2019-01-12T13:45:00Z,42.62,-89.05,-1.0,-4.0,70,8,,6.0,30.318897,,,,,,,,,,BR,BKN,1700,OVC,8000,,,,,MVFR,,,,,,,,,,,,METAR,246.0
KMWA 121345Z 15010KT 5SM BR BKN006 OVC100 00/00 A3015,KMWA,2019-01-12T13:45:00Z,37.77,-89.02,0.0,0.0,150,10,,5.0,30.15059,,,,,,,,,,BR,BKN,600,OVC,10000,,,,,IFR,,,,,,,,,,,,METAR,144.0
KMWC 121345Z 09009G14KT 10SM BKN021 OVC026 00/M05 A3036,KMWC,2019-01-12T13:45:00Z,43.12,-88.03,0.0,-5.0,90,9,14,10.0,30.360237,,,,,,,,,,,BKN,2100,OVC,2600,,,,,MVFR,,,,,,,,,,,,METAR,227.0
KBOW 121345Z 08006KT 10SM BKN060 15/14 A3023,KBOW,2019-01-12T13:45:00Z,27.93,-81.77,15.0,14.0,80,6,,10.0,30.230314,,,,,,,,,,,BKN,6000,,,,,,,VFR,,,,,,,,,,,,METAR,39.0
KCGF 121345Z 11004KT 15SM SCT100 OVC150 M05/M09 A3043,KCGF,2019-01-12T13:45:00Z,41.57,-81.47,-5.0,-9.0,110,4,,15.0,30.431103,,,,,,,,,,,SCT,10000,OVC,15000,,,,,VFR,,,,,,,,,,,,METAR,268.0
LHSN 121345Z 27002KT 9999 SCT025 BKN060 02/M01 Q1014 NOSIG RMK BLU,LHSN,2019-01-12T13:45:00Z,47.12,20.23,2.0,-1.0,270,2,,6.21,29.940945,,,,,,TRUE,,,,,SCT,2500,BKN,6000,,,,,VFR,,,,,,,,,,,,METAR,98.0
MMMD 121345Z 09006KT 7SM SKC 18/15 A3008 RMK HZY,MMMD,2019-01-12T13:45:00Z,20.95,-89.65,18.0,15.0,90,6,,7.0,30.079725,,,,,,,,,,,SKC,,,,,,,,VFR,,,,,,,,,,,,METAR,10.0
MMMT 121345Z 00000KT 10SM FEW020 20/18 A2996 RMK 8/100,MMMT,2019-01-12T13:45:00Z,18.1,-94.57,20.0,18.0,0,0,,10.0,29.958662,,,,,,,,,,,FEW,2000,,,,,,,VFR,,,,,,,,,,,,METAR,40.0
MMUN 121345Z 20002KT 7SM FEW015 SCT018 21/18 A3010 RMK 8/800,MMUN,2019-01-12T13:45:00Z,21.02,-86.85,21.0,18.0,200,2,,7.0,30.100393,,,,,,,,,,,FEW,1500,SCT,1800,,,,,VFR,,,,,,,,,,,,METAR,10.0
LHKE 121345Z 31008KT 9999 BKN023 03/M00 Q1014 NOSIG RMK WHT,LHKE,2019-01-12T13:45:00Z,46.92,19.75,3.0,0.0,310,8,,6.21,29.940945,,,,,,TRUE,,,,,BKN,2300,,,,,,,MVFR,,,,,,,,,,,,METAR,115.0
LMML 121345Z 35016KT 9999 BKN035 12/04 Q1015 NOSIG,LMML,2019-01-12T13:45:00Z,35.85,14.47,12.0,4.0,350,16,,6.21,29.970472,,,,,,TRUE,,,,,BKN,3500,,,,,,,VFR,,,,,,,,,,,,METAR,91.0
LIRP 121345Z 13001KT CAVOK 09/M00 Q1019 NOSIG,LIRP,2019-01-12T13:45:00Z,43.67,10.37,9.0,0.0,130,1,,6.21,30.088583,,,,,,TRUE,,,,,CAVOK,,,,,,,,VFR,,,,,,,,,,,,METAR,2.0
KMMU 121345Z 27003KT 10SM BKN080 M05/M10 A3056,KMMU,2019-01-12T13:45:00Z,40.78,-74.42,-5.0,-10.0,270,3,,10.0,30.561024,,,,,,,,,,,BKN,8000,,,,,,,VFR,,,,,,,,,,,,METAR,57.0
LHUD 121345Z 23004KT 9999 OVC023 01/M01 Q1015,LHUD,2019-01-12T13:45:00Z,46.25,20.1,1.0,-1.0,230,4,,6.21,29.970472,,,,,,,,,,,OVC,2300,,,,,,,MVFR,,,,,,,,,,,,METAR,84.0
LHSM 121345Z 15004KT CAVOK 05/M01 Q1016 NOSIG,LHSM,2019-01-12T13:45:00Z,46.68,17.17,5.0,-1.0,150,4,,6.21,30.0,,,,,,TRUE,,,,,CAVOK,,,,,,,,VFR,,,,,,,,,,,,METAR,125.0
LHPR 121345Z 29008KT CAVOK 02/00 Q1015 RMK BLU,LHPR,2019-01-12T13:45:00Z,47.63,17.82,2.0,0.0,290,8,,6.21,29.970472,,,,,,,,,,,CAVOK,,,,,,,,VFR,,,,,,,,,,,,METAR,129.0
LHPP 121345Z 27007KT CAVOK 00/M05 Q1017,LHPP,2019-01-12T13:45:00Z,45.98,18.23,0.0,-5.0,270,7,,6.21,30.029528,,,,,,,,,,,CAVOK,,,,,,,,VFR,,,,,,,,,,,,METAR,305.0
LHPA 121345Z 01006KT CAVOK 04/M01 Q1015 NOSIG RMK BLU,LHPA,2019-01-12T13:45:00Z,47.35,17.5,4.0,-1.0,10,6,,6.21,29.970472,,,,,,TRUE,,,,,CAVOK,,,,,,,,VFR,,,,,,,,,,,,METAR,148.0
LHDC 121345Z 17006KT 3500 BR OVC005 M02/M03 Q1015 NOSIG,LHDC,2019-01-12T13:45:00Z,47.47,21.62,-2.0,-3.0,170,6,,2.17,29.970472,,,,,,TRUE,,,,BR,OVC,500,,,,,,,IFR,,,,,,,,,,,,METAR,112.0
LHBC 121345Z 18003KT 9999 -SN NSC M00/M01 Q1015,LHBC,2019-01-12T13:45:00Z,46.68,21.17,0.0,-1.0,180,3,,6.21,29.970472,,,,,,,,,,-SN,CLR,,,,,,,,VFR,,,,,,,,,,,,METAR,86.0
KBJC 121345Z 00000KT 10SM BKN030 OVC075 M01/M02 A3020,KBJC,2019-01-12T13:45:00Z,39.9,-105.1,-1.0,-2.0,0,0,,10.0,30.200787,,,,,,,,,,,BKN,3000,OVC,7500,,,,,MVFR,,,,,,,,,,,,METAR,1724.0
MMZH 121345Z 00000KT 7SM SKC 20/17 A2997,MMZH,2019-01-12T13:45:00Z,17.6,-101.47,20.0,17.0,0,0,,7.0,29.970472,,,,,,,,,,,SKC,,,,,,,,VFR,,,,,,,,,,,,METAR,6.0
MMTM 121345Z 00000KT 3SM BR BKN012 OVC060 21/21 A3004 RMK 8/57/ LWR ST,MMTM,2019-01-12T13:45:00Z,22.27,-97.87,21.0,21.0,0,0,,3.0,30.041338,,,,,,,,,,BR,BKN,1200,OVC,6000,,,,,MVFR,,,,,,,,,,,,METAR,24.0
MMPS 121345Z 06006KT 10SM SKC 22/17 A3006 RMK HZY,MMPS,2019-01-12T13:45:00Z,15.87,-97.07,22.0,17.0,60,6,,10.0,30.059055,,,,,,,,,,,SKC,,,,,,,,VFR,,,,,,,,,,,,METAR,88.0
MMTJ 121345Z 00000KT 3SM -RA BR OVC007 11/11 A3004 RMK 60395 8/7// OCNL -RA,MMTJ,2019-01-12T13:45:00Z,32.53,-116.97,11.0,11.0,0,0,,3.0,30.041338,,,,,,,,,,-RA BR,OVC,700,,,,,,,IFR,,,,,,,,,,,,METAR,152.0
MMGL 121345Z 00000KT 1SM BR SCT090 09/08 A3025 RMK 8/030,MMGL,2019-01-12T13:45:00Z,20.52,-103.32,9.0,8.0,0,0,,1.0,30.250984,,,,,,,,,,BR,SCT,9000,,,,,,,IFR,,,,,,,,,,,,METAR,1528.0
MMSP 121344Z 32005KT 5SM FEW080 08/07 A3028 RMK 8/030 BR HZ,MMSP,2019-01-12T13:44:00Z,22.25,-100.93,8.0,7.0,320,5,,5.0,30.280512,,,,,,,,,,,FEW,8000,,,,,,,MVFR,,,,,,,,,,,,METAR,1903.0
MMCL 121343Z 05005KT 10SM SKC 16/11 A3002,MMCL,2019-01-12T13:43:00Z,24.77,-107.47,16.0,11.0,50,5,,10.0,30.02067,,,,,,,,,,,SKC,,,,,,,,VFR,,,,,,,,,,,,METAR,39.0
MMMA 121343Z 00000KT 5SM SCT070 16/16 A3005 RMK 8/050 HZ,MMMA,2019-01-12T13:43:00Z,25.77,-97.52,16.0,16.0,0,0,,5.0,30.050198,,,,,,,,,,,SCT,7000,,,,,,,MVFR,,,,,,,,,,,,METAR,8.0
MMZC 121343Z 00000KT 10SM SCT050 07/06 A3028 RMK 8/400,MMZC,2019-01-12T13:43:00Z,22.9,-102.68,7.0,6.0,0,0,,10.0,30.280512,,,,,,,,,,,SCT,5000,,,,,,,VFR,,,,,,,,,,,,METAR,2177.0
MMPA 121343Z 30010KT 4SM BKN020 OVC070 20/20 A3004 RMK 8/57/ HZY -RA INTMNT,MMPA,2019-01-12T13:43:00Z,20.5,-97.47,20.0,20.0,300,10,,4.0,30.041338,,,,,,,,,,,BKN,2000,OVC,7000,,,,,MVFR,,,,,,,,,,,,METAR,142.0
MMBT 121343Z 00000KT 7SM BKN020TCU OVC160 22/19 A3000 RMK 8/220,MMBT,2019-01-12T13:43:00Z,15.77,-96.27,22.0,19.0,0,0,,7.0,30.0,,,,,,,,,,,BKN,2000,OVC,16000,,,,,MVFR,,,,,,,,,,,,METAR,143.0
MMCN 121342Z 00000KT 8SM VCFG SKC 09/09 A3001,MMCN,2019-01-12T13:42:00Z,27.4,-109.83,9.0,9.0,0,0,,8.0,30.008858,,,,,,,,,,VCFG,SKC,,,,,,,,VFR,,,,,,,,,,,,SPECI,43.0
MMMY 121342Z 27005KT 15SM SKC 14/// A3006,MMMY,2019-01-12T13:42:00Z,25.77,-100.08,,,270,5,,15.0,30.059055,,,,,,,,,,,SKC,,,,,,,,VFR,,,,,,,,,,,,METAR,387.0
MMCS 121342Z 00000KT 10SM SKC 01/M02 A3020,MMCS,2019-01-12T13:42:00Z,31.62,-106.42,1.0,-2.0,0,0,,10.0,30.200787,,,,,,,,,,,SKC,,,,,,,,VFR,,,,,,,,,,,,METAR,1171.0
MMMZ 121342Z 00000KT 10SM SKC 16/16 A3000 RMK HZY,MMMZ,2019-01-12T13:42:00Z,23.17,-106.27,16.0,16.0,0,0,,10.0,30.0,,,,,,,,,,,SKC,,,,,,,,VFR,,,,,,,,,,,,METAR,10.0
MMCP 121341Z 00000KT 7SM SKC 16/15 A3005,MMCP,2019-01-12T13:41:00Z,19.82,-90.5,16.0,15.0,0,0,,7.0,30.050198,,,,,,,,,,,SKC,,,,,,,,VFR,,,,,,,,,,,,METAR,5.0
MMTP 121341Z 00000KT 10SM FEW030 FEW200 25/22 A2997 RMK 8/101 DSNT CB W,MMTP,2019-01-12T13:41:00Z,14.77,-92.37,25.0,22.0,0,0,,10.0,29.970472,,,,,,,,,,,FEW,3000,FEW,20000,,,,,VFR,,,,,,,,,,,,METAR,29.0
MMQT 121341Z 00000KT 6SM SCT020 BKN100 BKN250 12/09 A3025 RMK 8/538 HZY,MMQT,2019-01-12T13:41:00Z,20.62,-100.18,12.0,9.0,0,0,,6.0,30.250984,,,,,,,,,,,SCT,2000,BKN,10000,BKN,25000,,,VFR,,,,,,,,,,,,METAR,1919.0
MMIO 121340Z 00000KT 10SM SKC 08/02 A3024,MMIO,2019-01-12T13:40:00Z,25.55,-100.93,8.0,2.0,0,0,,10.0,30.239174,,,,,,,,,,,SKC,,,,,,,,VFR,,,,,,,,,,,,METAR,1790.0
KSBD 121340Z AUTO 00000KT 7SM RA BKN010 BKN018 OVC026 10/07 A3005 RMK AO2 P0008 T00980071,KSBD,2019-01-12T13:40:00Z,34.08,-117.25,9.8,7.1,0,0,,7.0,30.050198,,,TRUE,TRUE,,,,,,RA,BKN,1000,BKN,1800,OVC,2600,,,MVFR,,,,,,0.08,,,,,,METAR,353.0
KOCW 121340Z AUTO 01004KT 10SM BKN120 01/M03 A3051 RMK AO2 T00111031,KOCW,2019-01-12T13:40:00Z,35.57,-77.05,1.1,-3.1,10,4,,10.0,30.510826,,,TRUE,TRUE,,,,,,,BKN,12000,,,,,,,VFR,,,,,,,,,,,,SPECI,12.0
MMCZ 121340Z 00000KT 8SM BKN020 16/11 A3007 RMK 8/500,MMCZ,2019-01-12T13:40:00Z,20.52,-86.92,16.0,11.0,0,0,,8.0,30.070866,,,,,,,,,,,BKN,2000,,,,,,,MVFR,,,,,,,,,,,,METAR,5.0
MMVA 121340Z 00000KT 7SM SKC 18/17 A3002,MMVA,2019-01-12T13:40:00Z,18.0,-92.82,18.0,17.0,0,0,,7.0,30.02067,,,,,,,,,,,SKC,,,,,,,,VFR,,,,,,,,,,,,METAR,13.0
MMLP 121340Z 00000KT 1/8SM FG SKC 10/10 A3008,MMLP,2019-01-12T13:40:00Z,24.07,-110.37,10.0,10.0,0,0,,0.13,30.079725,,,,,,,,,,FG,SKC,,,,,,,,LIFR,,,,,,,,,,,,METAR,21.0
MMLO 121340Z 00000KT 10SM SCT030 BKN080 09/07 A3034 RMK 8/530,MMLO,2019-01-12T13:40:00Z,21.0,-101.47,9.0,7.0,0,0,,10.0,30.339567,,,,,,,,,,,SCT,3000,BKN,8000,,,,,VFR,,,,,,,,,,,,METAR,1819.0
MMTC 121340Z 00000KT 8SM SKC 06/05 A3021 RMK HZY,MMTC,2019-01-12T13:40:00Z,25.57,-103.4,6.0,5.0,0,0,,8.0,30.209646,,,,,,,,,,,SKC,,,,,,,,VFR,,,,,,,,,,,,METAR,1124.0
MMPG 121340Z 28007KT 3SM BR SCT008 13/12 A3011 RMK 8/500,MMPG,2019-01-12T13:40:00Z,28.65,-100.52,13.0,12.0,280,7,,3.0,30.109253,,,,,,,,,,BR,SCT,800,,,,,,,MVFR,,,,,,,,,,,,METAR,250.0
MMMV 121340Z 16010KT 8SM SKC 11/08 A3010 RMK HZY,MMMV,2019-01-12T13:40:00Z,26.95,-101.47,11.0,8.0,160,10,,8.0,30.100393,,,,,,,,,,,SKC,,,,,,,,VFR,,,,,,,,,,,,METAR,615.0
MMCV 121340Z 00000KT 10SM SKC 15/15 A3007 RMK HZY LYR SC SSE,MMCV,2019-01-12T13:40:00Z,23.72,-98.97,15.0,15.0,0,0,,10.0,30.070866,,,,,,,,,,,SKC,,,,,,,,VFR,,,,,,,,,,,,METAR,238.0
MMAN 121340Z 27009KT 15SM SKC 13/10 A3011,MMAN,2019-01-12T13:40:00Z,25.87,-100.23,13.0,10.0,270,9,,15.0,30.109253,,,,,,,,,,,SKC,,,,,,,,VFR,,,,,,,,,,,,METAR,448.0
MMZO 121340Z 00000KT 10SM FEW060 22/18 A2997 RMK 8/030,MMZO,2019-01-12T13:40:00Z,19.13,-104.57,22.0,18.0,0,0,,10.0,29.970472,,,,,,,,,,,FEW,6000,,,,,,,VFR,,,,,,,,,,,,METAR,8.0
MMHO 121340Z 32004KT 10SM SKC 09/08 A3005,MMHO,2019-01-12T13:40:00Z,29.08,-111.05,9.0,8.0,320,4,,10.0,30.050198,,,,,,,,,,,SKC,,,,,,,,VFR,,,,,,,,,,,,METAR,184.0
MMVR 121340Z 32003KT 3SM BR HZ FEW020 18/18 A3005 RMK 8/500,MMVR,2019-01-12T13:40:00Z,19.15,-96.18,18.0,18.0,320,3,,3.0,30.050198,,,,,,,,,,BR HZ,FEW,2000,,,,,,,MVFR,,,,,,,,,,,,METAR,16.0
MMOX 121340Z 36003KT 10SM SKC 11/06 A3027,MMOX,2019-01-12T13:40:00Z,17.0,-96.72,11.0,6.0,360,3,,10.0,30.268702,,,,,,,,,,,SKC,,,,,,,,VFR,,,,,,,,,,,,METAR,1528.0
MMAA 121340Z 33004KT 8SM FEW100 24/20 A2996 RMK 8/030 HZY DSNT TCU S SW,MMAA,2019-01-12T13:40:00Z,16.75,-99.75,24.0,20.0,330,4,,8.0,29.958662,,,,,,,,,,,FEW,10000,,,,,,,VFR,,,,,,,,,,,,METAR,5.0
KGRF 121337Z 00000KT 3SM BR BKN002 M01/M01 A2995 RMK SLP148 $,KGRF,2019-01-12T13:37:00Z,47.07,-122.57,-1.0,-1.0,0,0,,3.0,29.949802,1014.8,,,,TRUE,,,,,BR,BKN,200,,,,,,,LIFR,,,,,,,,,,,,SPECI,92.0
KHZL 121336Z AUTO 00000KT 10SM BKN065 M08/M14 A3045 RMK AO2,KHZL,2019-01-12T13:36:00Z,40.98,-76.0,-8.0,-14.0,0,0,,10.0,30.448818,,,TRUE,TRUE,,,,,,,BKN,6500,,,,,,,VFR,,,,,,,,,,,,METAR,489.0
KTRK 121335Z AUTO 00000KT 3/4SM BR OVC001 M05/M06 A3003 RMK AO2 VIS 1/4V5,KTRK,2019-01-12T13:35:00Z,39.32,-120.12,-5.0,-6.0,0,0,,0.75,30.029528,,,TRUE,TRUE,,,,,,BR,OVC,100,,,,,,,LIFR,,,,,,,,,,,,METAR,1798.0
KMGC 121335Z AUTO 08006KT 10SM BKN060 OVC075 M02/M06 A3033 RMK AO2,KMGC,2019-01-12T13:35:00Z,41.7,-86.82,-2.0,-6.0,80,6,,10.0,30.33071,,,TRUE,TRUE,,,,,,,BKN,6000,OVC,7500,,,,,VFR,,,,,,,,,,,,METAR,200.0
VOGO 121330Z 33008KT 3500 BR NSC 27/22 Q1012 NOSIG,VOGO,2019-01-12T13:30:00Z,15.38,73.83,27.0,22.0,330,8,,2.17,29.88189,,,,,,TRUE,,,,BR,CLR,,,,,,,,IFR,,,,,,,,,,,,METAR,52.0
VOGO 121330Z 33008KT 3500 BR NSC 27/22 Q1012 NOSIG,VOGO,2019-01-12T13:30:00Z,15.38,73.83,27.0,22.0,330,8,,2.17,29.88189,,,,,,TRUE,,,,BR,CLR,,,,,,,,IFR,,,,,,,,,,,,METAR,52.0
UTFF 121330Z 33002KT 3100 BR BKN033CB 03/00 Q1030 R18/CLRD70,UTFF,2019-01-12T13:30:00Z,40.37,71.77,3.0,0.0,330,2,,1.93,30.413385,,,,,,,,,,BR,BKN,3300,,,,,,,IFR,,,,,,,,,,,,METAR,577.0
VYMD 121330Z CALM 6000 SCT020 FEW120 19/16 Q1015,VYMD,2019-01-12T13:30:00Z,21.7,95.98,19.0,16.0,,,,3.73,29.970472,,,,,,,,,,,SCT,2000,FEW,12000,,,,,MVFR,,,,,,,,,,,,METAR,91.0
VOHS 121330Z 11005KT 5000 HZ NSC 22/15 Q1017 NOSIG,VOHS,2019-01-12T13:30:00Z,17.23,78.43,22.0,15.0,110,5,,3.11,30.029528,,,,,,TRUE,,,,HZ,CLR,,,,,,,,MVFR,,,,,,,,,,,,METAR,1.0
OPRN 121330Z 05004KT 4000 VCTS FEW030TCU SCT050 BKN070 11/08 Q1019 BECMG FEW030CB TSRA RMK A3009,OPRN,2019-01-12T13:30:00Z,33.62,73.08,11.0,8.0,50,4,,2.49,30.088583,,,,,,,,,,VCTS,FEW,3000,SCT,5000,BKN,7000,,,IFR,,,,,,,,,,,,METAR,508.0
ETWM 121320Z AUTO 26007KT 9999 // ////// 07/07 Q1011 ///,ETWM,2019-01-12T13:20:00Z,52.72,7.33,7.0,7.0,260,7,,6.21,29.852362,,,TRUE,,,,,,,,,,,,,,,,,,,,,,,,,,,,SPECI,21.0
ETNT 121320Z AUTO 30017KT 8000 // ////// 08/06 Q1008 ///,ETNT,2019-01-12T13:20:00Z,53.53,7.67,8.0,6.0,300,17,,4.97,29.763779,,,TRUE,,,,,,,,,,,,,,,,,,,,,,,,,,,,SPECI,12.0
ETNS 121320Z AUTO 28016KT 9999 // ////// 07/05 Q1004 ///,ETNS,2019-01-12T13:20:00Z,54.47,9.52,7.0,5.0,280,16,,6.21,29.64567,,,TRUE,,,,,,,,,,,,,,,,,,,,,,,,,,,,SPECI,25.0
ETNH 121320Z 28015KT 9999 FEW008 SCT014 BKN025 07/06 Q1004 BLU,ETNH,2019-01-12T13:20:00Z,54.32,9.55,7.0,6.0,280,15,,6.21,29.64567,,,,,,,,,,,FEW,800,SCT,1400,BKN,2500,,,MVFR,,,,,,,,,,,,METAR,17.0
ETMN 121320Z 29019KT 8000 -DZRA FEW003 SCT007 BKN040 07/06 Q1007 BLU,ETMN,2019-01-12T13:20:00Z,53.77,8.67,7.0,6.0,290,19,,4.97,29.734253,,,,,,,,,,-DZ -RA,FEW,300,SCT,700,BKN,4000,,,MVFR,,,,,,,,,,,,METAR,31.0
ETHS 121320Z 26015KT 6000 -DZRA BKN010 05/04 Q1008 GRN,ETHS,2019-01-12T13:20:00Z,52.92,10.18,5.0,4.0,260,15,,3.73,29.763779,,,,,,,,,,-DZ -RA,BKN,1000,,,,,,,MVFR,,,,,,,,,,,,METAR,88.0
ETHF 121320Z 23010KT 9999 FEW014 BKN023 05/03 Q1014 WHT,ETHF,2019-01-12T13:20:00Z,51.12,9.27,5.0,3.0,230,10,,6.21,29.940945,,,,,,,,,,,FEW,1400,BKN,2300,,,,,MVFR,,,,,,,,,,,,METAR,181.0
ETHC 121320Z 24016KT 5000 -DZRA BKN007 BKN020 06/05 Q1009 GRN,ETHC,2019-01-12T13:20:00Z,52.6,10.02,6.0,5.0,240,16,,3.11,29.793306,,,,,,,,,,-DZ -RA,BKN,700,BKN,2000,,,,,IFR,,,,,,,,,,,,METAR,52.0
ETHB 121320Z AUTO 26017G27KT 3600 // ////// 06/05 Q1010 ///,ETHB,2019-01-12T13:20:00Z,52.27,9.07,6.0,5.0,260,17,27,2.24,29.822834,,,TRUE,,,,,,,,,,,,,,,,,,,,,,,,,,,,SPECI,78.0
ETGG 121320Z AUTO 30027KT //// // ////// 07/05 Q1003 ///,ETGG,2019-01-12T13:20:00Z,54.83,9.5,7.0,5.0,300,27,,,29.616142,,,TRUE,,,,,,,,,,,,,,,,,,,,,,,,,,,,SPECI,33.0
ETSN 121320Z 24010KT 9999 -RASN FEW009 SCT019 BKN038 02/00 Q1019 BLU,ETSN,2019-01-12T13:20:00Z,48.72,11.22,2.0,0.0,240,10,,6.21,30.088583,,,,,,,,,,-RA -SN,FEW,900,SCT,1900,BKN,3800,,,VFR,,,,,,,,,,,,METAR,387.0
ETSL 121320Z AUTO 23012KT 9999 // ////// 01/M01 Q1020 ///,ETSL,2019-01-12T13:20:00Z,48.17,10.87,1.0,-1.0,230,12,,6.21,30.11811,,,TRUE,,,,,,,,,,,,,,,,,,,,,,,,,,,,SPECI,562.0
ETSI 121320Z 26011KT 9999 FEW010 BKN020 BKN040 02/00 Q1019 WHT,ETSI,2019-01-12T13:20:00Z,48.72,11.52,2.0,0.0,260,11,,6.21,30.088583,,,,,,,,,,,FEW,1000,BKN,2000,BKN,4000,,,MVFR,,,,,,,,,,,,METAR,370.0
ETSB 121320Z AUTO 24011KT 6000 // ////// 03/02 Q1017 ///,ETSB,2019-01-12T13:20:00Z,50.17,7.07,3.0,2.0,240,11,,3.73,30.029528,,,TRUE,,,,,,,,,,,,,,,,,,,,,,,,,,,,SPECI,486.0
ETNN 121320Z AUTO 27020KT 5000 // ////// 06/04 Q1016 ///,ETNN,2019-01-12T13:20:00Z,50.82,6.67,6.0,4.0,270,20,,3.11,30.0,,,TRUE,,,,,,,,,,,,,,,,,,,,,,,,,,,,SPECI,135.0
ETHN 121320Z 26018KT 7000 OVC002 01/01 Q1018 AMB,ETHN,2019-01-12T13:20:00Z,49.38,9.97,1.0,1.0,260,18,,4.35,30.059055,,,,,,,,,,,OVC,200,,,,,,,LIFR,,,,,,,,,,,,METAR,473.0
ETHL 121320Z 23012KT 9999 SCT010 BKN033 01/M01 Q1020 BLU BLU,ETHL,2019-01-12T13:20:00Z,48.22,9.92,1.0,-1.0,230,12,,6.21,30.11811,,,,,,,,,,,SCT,1000,BKN,3300,,,,,VFR,,,,,,,,,,,,METAR,549.0
ETHA 121320Z AUTO 27013KT //// // ////// 01/M01 Q1020 ///,ETHA,2019-01-12T13:20:00Z,47.82,10.87,1.0,-1.0,270,13,,,30.11811,,,TRUE,,,,,,,,,,,,,,,,,,,,,,,,,,,,SPECI,760.0
LCEN 121320Z 09010KT 9999 FEW025 14/07 Q1011 NOSIG RMK RWY11 10010KT,LCEN,2019-01-12T13:20:00Z,35.13,33.5,14.0,7.0,90,10,,6.21,29.852362,,,,,,TRUE,,,,,FEW,2500,,,,,,,VFR,,1.0,,,,,,,,,,SPECI,91.0
LTAZ 121320Z 14012KT 9999 FEW040 BKN100 02/M03 Q1011 RMK RWY29 14010KT,LTAZ,2019-01-12T13:20:00Z,38.77,34.55,2.0,-3.0,140,12,,6.21,29.852362,,,,,,,,,,,FEW,4000,BKN,10000,,,,,VFR,,,,,,,,,,,,SPECI,945.0
ENOA 121320Z 32034KT 9999 FEW015 SCT030 08/05 Q0995 W///S6,ENOA,2019-01-12T13:20:00Z,60.5,2.83,8.0,5.0,320,34,,6.21,29.379921,,,,,,,,,,,FEW,1500,SCT,3000,,,,,VFR,,,,,,,,,,,,METAR,5.0
EGPC 121320Z AUTO 31031G41KT 8000 -RA SCT004/// BKN010/// BKN019/// 08/07 Q1007 RERA REDZ,EGPC,2019-01-12T13:20:00Z,58.45,-3.07,8.0,7.0,310,31,41,4.97,29.734253,,,TRUE,,,,,,,-RA,SCT,400,BKN,1000,BKN,1900,,,MVFR,,,,,,,,,,,,METAR,39.0
RJOF 121319Z 17002KT 9999 -SHRA FEW010 BKN015 OVC020 08/06 Q1019 RMK 1CU010 5CU015 8CU020 A3010,RJOF,2019-01-12T13:19:00Z,34.02,131.55,8.0,6.0,170,2,,6.21,30.088583,,,,,,,,,,-SHRA,FEW,1000,BKN,1500,OVC,2000,,,MVFR,,,,,,,,,,,,SPECI,5.0
VCRI 121310Z 04011KT 9999 FEW030 BKN080 26/25 Q1011 NOSIG,VCRI,2019-01-12T13:10:00Z,6.28,81.13,26.0,25.0,40,11,,6.21,29.852362,,,,,,TRUE,,,,,FEW,3000,BKN,8000,,,,,VFR,,,,,,,,,,,,METAR,7.0
VCBI 121310Z 04005KT 9000 FEW018 FEW020CB 28/22 Q1011 NOSIG RMK S/SE,VCBI,2019-01-12T13:10:00Z,7.17,79.87,28.0,22.0,40,5,,5.59,29.852362,,,,,,TRUE,,,,,FEW,1800,FEW,2000,,,,,VFR,,,,,,,,,,,,METAR,8.0
PAKI 121306Z AUTO M31/M33 RMK AO2 PWINO FZRANO $,PAKI,2019-01-12T13:06:00Z,59.93,-164.03,-31.0,-33.0,,,,,,,,TRUE,TRUE,TRUE,,,TRUE,TRUE,,,,,,,,,,,,,,,,,,,,,,METAR,4.0
